93915KAEX AEX20161101000010211/01/16 00:00:31  5-MIN KAEX 010600Z 12003KT 10SM CLR 17/14 A3003 -10 86 200 110/03 RMK AO2 T01670144
93915KAEX AEX20161101000510211/01/16 00:05:31  5-MIN KAEX 010605Z 12003KT 10SM CLR 17/14 A3003 -10 86 200 120/03 RMK AO2 T01670144
93915KAEX AEX20161101001010211/01/16 00:10:31  5-MIN KAEX 010610Z 12003KT 10SM CLR 17/14 A3003 -10 86 200 120/03 RMK AO2 T01670144
93915KAEX AEX20161101001510211/01/16 00:15:31  5-MIN KAEX 010615Z 12003KT 10SM CLR 17/14 A3003 -10 86 200 120/03 RMK AO2 T01670144
93915KAEX AEX20161101002010211/01/16 00:20:31  5-MIN KAEX 010620Z 12003KT 10SM CLR 17/14 A3003 -10 86 200 120/03 RMK AO2 T01670144
93915KAEX AEX20161101002510211/01/16 00:25:31  5-MIN KAEX 010625Z 12003KT 10SM CLR 17/14 A3003 -10 86 200 120/03 RMK AO2 T01670144
93915KAEX AEX20161101003010211/01/16 00:30:31  5-MIN KAEX 010630Z 00000KT 10SM CLR 17/14 A3003 -10 86 200 000/00 RMK AO2 T01670144
93915KAEX AEX20161101003510211/01/16 00:35:31  5-MIN KAEX 010635Z 12003KT 10SM CLR 16/14 A3004 -10 86 200 120/03 RMK AO2 T01610139
93915KAEX AEX20161101004010211/01/16 00:40:31  5-MIN KAEX 010640Z 11003KT 10SM CLR 16/14 A3004 -10 86 200 110/03 RMK AO2 T01610139
93915KAEX AEX20161101004510211/01/16 00:45:31  5-MIN KAEX 010645Z 11003KT 10SM CLR 16/14 A3004 -10 86 200 110/03 RMK AO2 T01610139
93915KAEX AEX20161101005010911/01/16 00:50:31  5-MIN KAEX 010650Z 12003KT 10SM CLR 16/14 A3004 -10 90 200 120/03 RMK AO2 SLP174 T01610144
93915KAEX AEX20161101005510211/01/16 00:55:31  5-MIN KAEX 010655Z 12003KT 10SM CLR 16/14 A3004 -10 90 200 120/03 RMK AO2 T01610144
93915KAEX AEX20161101010010211/01/16 01:00:31  5-MIN KAEX 010700Z 13003KT 10SM CLR 16/14 A3004 -10 86 200 130/03 RMK AO2 T01610139
93915KAEX AEX20161101010510211/01/16 01:05:31  5-MIN KAEX 010705Z 13003KT 10SM CLR 16/14 A3004 -10 86 100 130/03 RMK AO2 T01610139
93915KAEX AEX20161101011010211/01/16 01:10:31  5-MIN KAEX 010710Z 12003KT 10SM CLR 16/14 A3004 -20 90 100 120/03 RMK AO2 T01560139
93915KAEX AEX20161101011510211/01/16 01:15:31  5-MIN KAEX 010715Z 12003KT 10SM CLR 16/13 A3004 -10 86 100 120/03 RMK AO2 T01560133
93915KAEX AEX20161101012010211/01/16 01:20:31  5-MIN KAEX 010720Z 12003KT 10SM CLR 16/14 A3004 -20 90 100 120/03 RMK AO2 T01560139
93915KAEX AEX20161101012510211/01/16 01:25:31  5-MIN KAEX 010725Z 12003KT 10SM CLR 16/14 A3004 -20 90 100 120/03 RMK AO2 T01560139
93915KAEX AEX20161101013010011/01/16 01:30:31  5-MIN KAEX 010730Z 12003KT 10SM CLR 15/14 A3004 -20 93 0 120/03 RMK AO2 T01500139
93915KAEX AEX20161101013510011/01/16 01:35:31  5-MIN KAEX 010735Z 12003KT 10SM CLR 15/14 A3004 -10 93 0 120/03 RMK AO2 T01500139
93915KAEX AEX20161101014010211/01/16 01:40:31  5-MIN KAEX 010740Z 12003KT 10SM CLR 16/14 A3004 -10 90 100 120/03 RMK AO2 T01560139
93915KAEX AEX20161101014510211/01/16 01:45:31  5-MIN KAEX 010745Z 12003KT 10SM CLR 16/14 A3004 -10 90 100 120/03 RMK AO2 T01560139
93915KAEX AEX20161101015010911/01/16 01:50:31  5-MIN KAEX 010750Z 12003KT 10SM CLR 16/14 A3004 -10 90 100 120/03 RMK AO2 SLP175 T01560139
93915KAEX AEX20161101015510211/01/16 01:55:31  5-MIN KAEX 010755Z 11003KT 10SM CLR 16/14 A3004 -10 90 100 110/03 RMK AO2 T01560139
93915KAEX AEX20161101020010211/01/16 02:00:31  5-MIN KAEX 010800Z 00000KT 10SM CLR 16/14 A3004 -10 90 100 000/00 RMK AO2 T01560139
93915KAEX AEX20161101020510211/01/16 02:05:31  5-MIN KAEX 010805Z 00000KT 10SM CLR 16/14 A3004 -10 93 100 000/00 RMK AO2 T01560144
93915KAEX AEX20161101021010111/01/16 02:10:31  5-MIN KAEX 010810Z 00000KT 9SM CLR 16/14 A3004 -10 93 100 000/00 RMK AO2 T01560144
93915KAEX AEX20161101021510111/01/16 02:15:31  5-MIN KAEX 010815Z 11003KT 9SM CLR 16/14 A3004 -10 93 100 100/03 RMK AO2 T01560144
93915KAEX AEX20161101022010111/01/16 02:20:31  5-MIN KAEX 010820Z 00000KT 9SM CLR 16/14 A3004 -10 93 100 000/00 RMK AO2 T01560144
93915KAEX AEX20161101022510111/01/16 02:25:31  5-MIN KAEX 010825Z 09003KT 9SM CLR 16/14 A3004 -10 93 100 090/03 RMK AO2 T01560144
93915KAEX AEX20161101023010111/01/16 02:30:31  5-MIN KAEX 010830Z 10003KT 9SM CLR 16/14 A3004 -10 93 100 100/03 RMK AO2 T01560144
93915KAEX AEX20161101023510111/01/16 02:35:31  5-MIN KAEX 010835Z 10003KT 9SM CLR 16/14 A3004 -10 93 100 100/03 RMK AO2 T01560144
93915KAEX AEX20161101024010111/01/16 02:40:31  5-MIN KAEX 010840Z 00000KT 9SM CLR 16/14 A3004 -10 93 100 000/00 RMK AO2 T01560144
93915KAEX AEX20161101024510111/01/16 02:45:31  5-MIN KAEX 010845Z 00000KT 9SM CLR 16/14 A3004 -20 93 100 000/00 RMK AO2 T01560144
93915KAEX AEX20161101025011211/01/16 02:50:31  5-MIN KAEX 010850Z 00000KT 9SM CLR 15/14 A3004 -20 93 0 000/00 RMK AO2 SLP176 T01500139 50002
93915KAEX AEX20161101025509911/01/16 02:55:31  5-MIN KAEX 010855Z 11003KT 9SM CLR 15/14 A3004 -20 93 0 110/03 RMK AO2 T01500139
93915KAEX AEX20161101030010111/01/16 03:00:31  5-MIN KAEX 010900Z 12003KT 9SM CLR 16/14 A3004 -20 93 100 120/03 RMK AO2 T01560144
93915KAEX AEX20161101030510111/01/16 03:05:31  5-MIN KAEX 010905Z 12003KT 9SM CLR 16/14 A3005 -20 93 100 110/03 RMK AO2 T01560144
93915KAEX AEX20161101031010111/01/16 03:10:31  5-MIN KAEX 010910Z 11003KT 9SM CLR 16/14 A3005 -20 93 100 110/03 RMK AO2 T01560144
93915KAEX AEX20161101031509911/01/16 03:15:31  5-MIN KAEX 010915Z 00000KT 9SM CLR 15/14 A3005 -20 93 0 000/00 RMK AO2 T01500139
93915KAEX AEX20161101032009911/01/16 03:20:31  5-MIN KAEX 010920Z 11003KT 9SM CLR 15/14 A3005 -20 93 0 100/03 RMK AO2 T01500139
93915KAEX AEX20161101032509911/01/16 03:25:31  5-MIN KAEX 010925Z 11003KT 9SM CLR 15/14 A3005 -20 93 0 110/03 RMK AO2 T01500139
93915KAEX AEX20161101033009911/01/16 03:30:31  5-MIN KAEX 010930Z 11004KT 9SM CLR 14/14 A3005 -20 96 0 110/04 RMK AO2 T01440139
93915KAEX AEX20161101033509911/01/16 03:35:31  5-MIN KAEX 010935Z 10004KT 9SM CLR 14/14 A3005 -20 96 0 100/04 RMK AO2 T01440139
93915KAEX AEX20161101034009911/01/16 03:40:31  5-MIN KAEX 010940Z 10004KT 9SM CLR 14/14 A3005 -20 96 0 100/04 RMK AO2 T01440139
93915KAEX AEX20161101034509911/01/16 03:45:31  5-MIN KAEX 010945Z 10004KT 9SM CLR 15/14 A3004 -20 93 0 100/04 RMK AO2 T01500139
93915KAEX AEX20161101035010611/01/16 03:50:31  5-MIN KAEX 010950Z 10004KT 9SM CLR 15/14 A3004 -20 96 0 100/04 RMK AO2 SLP176 T01500144
93915KAEX AEX20161101035509911/01/16 03:55:31  5-MIN KAEX 010955Z 11004KT 8SM CLR 15/14 A3004 -20 96 0 100/04 RMK AO2 T01500144
93915KAEX AEX20161101040010111/01/16 04:00:31  5-MIN KAEX 011000Z 11004KT 8SM CLR 16/15 A3004 -20 96 100 100/04 RMK AO2 T01560150
93915KAEX AEX20161101040510111/01/16 04:05:31  5-MIN KAEX 011005Z 11004KT 8SM CLR 16/15 A3004 -20 96 100 110/04 RMK AO2 T01560150
93915KAEX AEX20161101041010111/01/16 04:10:31  5-MIN KAEX 011010Z 11004KT 8SM CLR 16/15 A3004 -10 96 100 100/04 RMK AO2 T01560150
93915KAEX AEX20161101041510111/01/16 04:15:31  5-MIN KAEX 011015Z 10004KT 8SM CLR 16/15 A3004 -10 96 100 100/04 RMK AO2 T01560150
93915KAEX AEX20161101042010111/01/16 04:20:31  5-MIN KAEX 011020Z 11003KT 8SM CLR 16/15 A3004 -20 96 100 110/03 RMK AO2 T01560150
93915KAEX AEX20161101042509911/01/16 04:25:31  5-MIN KAEX 011025Z 12003KT 8SM CLR 15/14 A3004 -20 96 0 110/03 RMK AO2 T01500144
93915KAEX AEX20161101043009911/01/16 04:30:31  5-MIN KAEX 011030Z 11004KT 8SM CLR 15/14 A3004 -10 96 0 110/04 RMK AO2 T01500144
93915KAEX AEX20161101043509911/01/16 04:35:31  5-MIN KAEX 011035Z 11004KT 8SM CLR 15/14 A3004 -10 96 0 100/04 RMK AO2 T01500144
93915KAEX AEX20161101044010311/01/16 04:40:31  5-MIN KAEX 011040Z 11003KT 7SM CLR 14/14 A3004 -20 100 -100 110/03 RMK AO2 T01390139
93915KAEX AEX20161101044510511/01/16 04:45:31  5-MIN KAEX 011045Z 10003KT 6SM BR CLR 14/13 A3004 -20 96 -100 100/03 RMK AO2 T01390133
93915KAEX AEX20161101045011211/01/16 04:50:31  5-MIN KAEX 011050Z 00000KT 6SM BR CLR 14/13 A3004 -20 96 -100 000/00 RMK AO2 SLP175 T01390133
93915KAEX AEX20161101045510511/01/16 04:55:31  5-MIN KAEX 011055Z 00000KT 6SM BR CLR 14/13 A3004 -20 96 -100 000/00 RMK AO2 T01390133
93915KAEX AEX20161101050010511/01/16 05:00:31  5-MIN KAEX 011100Z 10003KT 6SM BR CLR 14/13 A3004 -20 96 -100 100/03 RMK AO2 T01390133
93915KAEX AEX20161101050510511/01/16 05:05:31  5-MIN KAEX 011105Z 11004KT 6SM BR CLR 14/13 A3004 -20 96 -100 100/04 RMK AO2 T01390133
93915KAEX AEX20161101051010511/01/16 05:10:31  5-MIN KAEX 011110Z 00000KT 6SM BR FEW003 14/14 A3004 -20 96 0 000/00 RMK AO2 T01440139
93915KAEX AEX20161101051510911/01/16 05:15:31  5-MIN KAEX 011115Z 00000KT 6SM BR SCT003 14/14 A3004 -20 100 -100 000/00 RMK AO2 T01390139
93915KAEX AEX20161101052010511/01/16 05:20:31  5-MIN KAEX 011120Z 10004KT 6SM BR BKN003 14/14 A3004 -20 96 0 100/04 RMK AO2 T01440139
93915KAEX AEX20161101052510711/01/16 05:25:31  5-MIN KAEX 011125Z 11005KT 6SM BR BKN003 16/15 A3004 -20 96 100 110/05 RMK AO2 T01560150
93915KAEX AEX20161101053010711/01/16 05:30:31  5-MIN KAEX 011130Z 11005KT 4SM BR BKN003 16/16 A3004 -20 96 100 110/05 RMK AO2 T01610156
93915KAEX AEX20161101053511211/01/16 05:35:31  5-MIN KAEX 011135Z 12004KT 1 1/2SM BR OVC003 16/16 A3005 -20 100 100 120/04 RMK AO2 T01610161
93915KAEX AEX20161101054010911/01/16 05:40:31  5-MIN KAEX 011140Z 12004KT 1/2SM FG VV002 16/16 A3005 -20 100 100 120/04 RMK AO2 T01610161
93915KAEX AEX20161101054510911/01/16 05:45:31  5-MIN KAEX 011145Z 13005KT 1/4SM FG VV002 16/16 A3005 -20 100 100 130/05 RMK AO2 T01610161
93915KAEX AEX20161101055013411/01/16 05:50:31  5-MIN KAEX 011150Z 15004KT 1/4SM FG VV002 16/16 A3005 -20 100 100 150/04 RMK AO2 SLP179 T01610161 10167 20139 53003
93915KAEX AEX20161101055510911/01/16 05:55:31  5-MIN KAEX 011155Z 15005KT 1/4SM FG VV002 16/16 A3005 -30 100 100 150/05 RMK AO2 T01610161
93915KAEX AEX20161101060010911/01/16 06:00:31  5-MIN KAEX 011200Z 16003KT 1/4SM FG VV002 16/16 A3005 -30 100 100 160/03 RMK AO2 T01610161
93915KAEX AEX20161101060510711/01/16 06:05:31  5-MIN KAEX 011205Z 00000KT 1/4SM FG VV002 15/15 A3005 -30 100 0 000/00 RMK AO2 T01500150
93915KAEX AEX20161101061010711/01/16 06:10:31  5-MIN KAEX 011210Z 00000KT 1/4SM FG VV002 15/15 A3005 -30 100 0 000/00 RMK AO2 T01500150
93915KAEX AEX20161101061510711/01/16 06:15:31  5-MIN KAEX 011215Z 00000KT 1/4SM FG VV002 15/15 A3005 -30 100 0 000/00 RMK AO2 T01500150
93915KAEX AEX20161101062011011/01/16 06:20:31  5-MIN KAEX 011220Z 00000KT M1/4SM FG VV002 16/16 A3006 -30 100 100 000/00 RMK AO2 T01560156
93915KAEX AEX20161101062511011/01/16 06:25:31  5-MIN KAEX 011225Z 00000KT M1/4SM FG VV002 16/16 A3006 -30 100 100 000/00 RMK AO2 T01560156
93915KAEX AEX20161101063010911/01/16 06:30:31  5-MIN KAEX 011230Z 00000KT 1/4SM FG VV002 16/16 A3006 -30 100 100 000/00 RMK AO2 T01560156
93915KAEX AEX20161101063510911/01/16 06:35:31  5-MIN KAEX 011235Z 00000KT 1/4SM FG VV002 16/16 A3006 -30 100 100 000/00 RMK AO2 T01560156
93915KAEX AEX20161101064010911/01/16 06:40:31  5-MIN KAEX 011240Z 00000KT 1/4SM FG VV002 16/16 A3006 -40 100 100 000/00 RMK AO2 T01610161
93915KAEX AEX20161101064511011/01/16 06:45:31  5-MIN KAEX 011245Z 00000KT M1/4SM FG VV002 16/16 A3007 -40 100 100 000/00 RMK AO2 T01560156
93915KAEX AEX20161101065011511/01/16 06:50:31  5-MIN KAEX 011250Z 00000KT M1/4SM FG VV002 16/16 A3007 -40 100 0 000/00 RMK AO2 SLP186 T01560156
93915KAEX AEX20161101065511011/01/16 06:55:31  5-MIN KAEX 011255Z 00000KT M1/4SM FG VV002 16/16 A3007 -40 100 100 000/00 RMK AO2 T01610161
93915KAEX AEX20161101070011011/01/16 07:00:31  5-MIN KAEX 011300Z 00000KT M1/4SM FG VV002 16/16 A3007 -40 100 100 000/00 RMK AO2 T01610161
93915KAEX AEX20161101070511011/01/16 07:05:31  5-MIN KAEX 011305Z 00000KT M1/4SM FG VV002 16/16 A3008 -50 100 100 000/00 RMK AO2 T01610161
93915KAEX AEX20161101071011011/01/16 07:10:31  5-MIN KAEX 011310Z 17003KT M1/4SM FG VV002 16/16 A3008 -50 100 100 170/03 RMK AO2 T01610161
93915KAEX AEX20161101071511011/01/16 07:15:31  5-MIN KAEX 011315Z 16004KT M1/4SM FG VV002 17/17 A3008 -50 100 200 160/04 RMK AO2 T01670167
93915KAEX AEX20161101072011011/01/16 07:20:31  5-MIN KAEX 011320Z 16004KT M1/4SM FG VV002 17/17 A3008 -50 100 200 160/04 RMK AO2 T01670167
93915KAEX AEX20161101072511011/01/16 07:25:31  5-MIN KAEX 011325Z 16004KT M1/4SM FG VV002 17/17 A3008 -50 100 200 160/04 RMK AO2 T01670167
93915KAEX AEX20161101073011011/01/16 07:30:31  5-MIN KAEX 011330Z 15005KT M1/4SM FG VV002 17/17 A3008 -50 100 200 150/05 RMK AO2 T01670167
93915KAEX AEX20161101073511011/01/16 07:35:31  5-MIN KAEX 011335Z 15004KT M1/4SM FG VV002 17/17 A3008 -50 100 200 150/04 RMK AO2 T01670167
93915KAEX AEX20161101074011011/01/16 07:40:31  5-MIN KAEX 011340Z 14004KT M1/4SM FG VV002 17/17 A3009 -60 100 200 140/04 RMK AO2 T01720172
93915KAEX AEX20161101074510911/01/16 07:45:31  5-MIN KAEX 011345Z 14004KT 1/4SM FG VV002 17/17 A3009 -60 100 200 140/04 RMK AO2 T01720172
93915KAEX AEX20161101075012111/01/16 07:50:31  5-MIN KAEX 011350Z AUTO 13004KT 1/4SM FG VV002 17/17 A3009 -60 100 200 130/04 RMK AO2 SLP193 T01720172
93915KAEX AEX20161101075511411/01/16 07:55:31  5-MIN KAEX 011355Z AUTO 15004KT 1/4SM FG VV002 18/18 A3009 -60 100 300 150/04 RMK AO2 T01780178
93915KAEX AEX20161101080011411/01/16 08:00:31  5-MIN KAEX 011400Z AUTO 15005KT 1/2SM FG VV002 18/18 A3010 -70 100 300 150/05 RMK AO2 T01780178
93915KAEX AEX20161101080511511/01/16 08:05:31  5-MIN KAEX 011405Z AUTO 15005KT 3/4SM BR OVC002 18/18 A3010 -70 100 300 150/05 RMK AO2 T01780178
93915KAEX AEX20161101081011711/01/16 08:10:31  5-MIN KAEX 011410Z AUTO 14006KT 1 1/4SM BR OVC002 18/18 A3010 -70 100 300 140/06 RMK AO2 T01780178
93915KAEX AEX20161101081511311/01/16 08:15:31  5-MIN KAEX 011415Z AUTO 14005KT 2SM BR OVC002 18/18 A3010 -70 100 300 140/05 RMK AO2 T01780178
93915KAEX AEX20161101082011711/01/16 08:20:31  5-MIN KAEX 011420Z AUTO 15006KT 2 1/2SM BR OVC002 18/18 A3010 -70 100 300 140/06 RMK AO2 T01830183
93915KAEX AEX20161101082511711/01/16 08:25:31  5-MIN KAEX 011425Z AUTO 15006KT 2 1/2SM BR BKN003 18/18 A3010 -70 100 300 150/06 RMK AO2 T01830183
93915KAEX AEX20161101083011311/01/16 08:30:31  5-MIN KAEX 011430Z AUTO 14006KT 3SM BR BKN003 18/18 A3010 -70 100 300 140/06 RMK AO2 T01830183
93915KAEX AEX20161101083511211/01/16 08:35:31  5-MIN KAEX 011435Z AUTO 15007KT 4SM BR SCT003 19/18 A3010 -70 97 400 140/07 RMK AO2 T01890183
93915KAEX AEX20161101084011311/01/16 08:40:31  5-MIN KAEX 011440Z AUTO 15008KT 4SM BR FEW003 19/19 A3011 -70 100 400 140/08 RMK AO2 T01890189
93915KAEX AEX20161101084511311/01/16 08:45:31  5-MIN KAEX 011445Z AUTO 15008KT 5SM BR FEW004 19/19 A3011 -80 100 400 150/08 RMK AO2 T01890189
93915KAEX AEX20161101085012011/01/16 08:50:31  5-MIN KAEX 011450Z AUTO 16008KT 7SM CLR 19/19 A3011 -80 100 400 160/08 RMK AO2 SLP199 T01890189 53003
93915KAEX AEX20161101085510611/01/16 08:55:31  5-MIN KAEX 011455Z AUTO 15007KT 7SM CLR 19/18 A3011 -80 97 400 150/07 RMK AO2 T01890183
93915KAEX AEX20161101090010611/01/16 09:00:31  5-MIN KAEX 011500Z AUTO 14008KT 8SM CLR 19/18 A3011 -80 93 500 140/08 RMK AO2 T01940183
93915KAEX AEX20161101090510611/01/16 09:05:31  5-MIN KAEX 011505Z AUTO 15007KT 9SM CLR 19/19 A3011 -80 97 500 150/07 RMK AO2 T01940189
93915KAEX AEX20161101091009811/01/16 09:10:31  5-MIN KAEX 011510Z AUTO 9SM CLR 20/19 A3011 -80 93 500 M /M RMK AO2 T02000189 $
93915KAEX AEX20161101091510911/01/16 09:15:31  5-MIN KAEX 011515Z AUTO 15008KT 10SM CLR 21/19 A3011 -80 90 600 150/08 RMK AO2 T02060189 $
93915KAEX AEX20161101092010411/01/16 09:20:31  5-MIN KAEX 011520Z 14009KT 10SM CLR 22/19 A3011 -80 84 700 140/09 RMK AO2 T02170189 $
93915KAEX AEX20161101092510411/01/16 09:25:31  5-MIN KAEX 011525Z 15009KT 10SM CLR 22/19 A3010 -70 81 800 140/09 RMK AO2 T02220189 $
93915KAEX AEX20161101093010411/01/16 09:30:31  5-MIN KAEX 011530Z 16008KT 10SM CLR 23/19 A3010 -70 78 800 160/08 RMK AO2 T02280189 $
93915KAEX AEX20161101093510411/01/16 09:35:31  5-MIN KAEX 011535Z 14008KT 10SM CLR 23/19 A3011 -70 76 900 140/08 RMK AO2 T02330189 $
93915KAEX AEX20161101094010511/01/16 09:40:31  5-MIN KAEX 011540Z 14009KT 10SM CLR 24/19 A3010 -70 73 1000 140/09 RMK AO2 T02390189 $
93915KAEX AEX20161101094510511/01/16 09:45:31  5-MIN KAEX 011545Z 15009KT 10SM CLR 24/19 A3010 -70 73 1000 150/09 RMK AO2 T02390189 $
93915KAEX AEX20161101095011211/01/16 09:50:31  5-MIN KAEX 011550Z 15009KT 10SM CLR 24/19 A3011 -70 71 1000 140/09 RMK AO2 SLP197 T02440189 $
93915KAEX AEX20161101095510811/01/16 09:55:31  5-MIN KAEX 011555Z 14009KT 10SM FEW024 24/19 A3011 -80 71 1000 140/09 RMK AO2 T02440189 $
93915KAEX AEX20161101100010811/01/16 10:00:31  5-MIN KAEX 011600Z 14010KT 10SM FEW024 24/19 A3011 -80 71 1000 140/10 RMK AO2 T02440189 $
93915KAEX AEX20161101100510811/01/16 10:05:31  5-MIN KAEX 011605Z 14010KT 10SM SCT027 24/19 A3011 -80 71 1000 140/10 RMK AO2 T02440189 $
93915KAEX AEX20161101101010811/01/16 10:10:31  5-MIN KAEX 011610Z 15010KT 10SM BKN029 25/19 A3011 -80 68 1100 140/10 RMK AO2 T02500189 $
93915KAEX AEX20161101101510811/01/16 10:15:31  5-MIN KAEX 011615Z 15012KT 10SM BKN029 25/19 A3011 -70 68 1100 150/12 RMK AO2 T02500189 $
93915KAEX AEX20161101102010711/01/16 10:20:31  5-MIN KAEX 011620Z 16011KT 9SM BKN029 25/19 A3011 -80 68 1100 150/11 RMK AO2 T02500189 $
93915KAEX AEX20161101102510711/01/16 10:25:31  5-MIN KAEX 011625Z 16009KT 8SM BKN031 26/19 A3011 -80 66 1200 160/09 RMK AO2 T02560189 $
93915KAEX AEX20161101103010811/01/16 10:30:31  5-MIN KAEX 011630Z 15009KT 10SM BKN031 26/19 A3010 -70 66 1200 150/09 RMK AO2 T02560189 $
93915KAEX AEX20161101103510811/01/16 10:35:31  5-MIN KAEX 011635Z 15013KT 10SM BKN031 26/19 A3010 -70 64 1200 150/13 RMK AO2 T02610189 $
93915KAEX AEX20161101104011511/01/16 10:40:31  5-MIN KAEX 011640Z 16012KT 10SM SCT029 BKN035 26/19 A3010 -70 66 1200 160/12 RMK AO2 T02560189 $
93915KAEX AEX20161101104511511/01/16 10:45:31  5-MIN KAEX 011645Z 16010KT 10SM FEW028 BKN034 26/19 A3010 -70 64 1200 150/10 RMK AO2 T02610189 $
93915KAEX AEX20161101105012211/01/16 10:50:31  5-MIN KAEX 011650Z 16010KT 10SM FEW028 SCT034 26/19 A3010 -70 64 1200 150/10 RMK AO2 SLP194 T02610189 $
93915KAEX AEX20161101105511511/01/16 10:55:31  5-MIN KAEX 011655Z 15012KT 10SM SCT030 SCT034 27/19 A3010 -70 60 1400 150/12 RMK AO2 T02720189 $
93915KAEX AEX20161101110011511/01/16 11:00:31  5-MIN KAEX 011700Z 17008KT 10SM FEW028 SCT033 27/18 A3009 -60 58 1400 170/08 RMK AO2 T02720183 $
93915KAEX AEX20161101110510611/01/16 11:05:31  5-MIN KAEX 011705Z 14011KT 10SM SCT031 27/18 A3009 -60 60 1300 130/11 RMK AO2 T02670183
93915KAEX AEX20161101111011211/01/16 11:10:31  5-MIN KAEX 011710Z 17011G16KT 10SM SCT031 27/18 A3009 -60 60 1300 170/11G16 RMK AO2 T02670183
93915KAEX AEX20161101111511211/01/16 11:15:31  5-MIN KAEX 011715Z 17010G17KT 10SM BKN031 27/18 A3009 -60 58 1400 170/10G17 RMK AO2 T02720183
93915KAEX AEX20161101112011211/01/16 11:20:31  5-MIN KAEX 011720Z 16007G17KT 10SM BKN031 27/18 A3009 -60 60 1300 150/07G17 RMK AO2 T02670183
93915KAEX AEX20161101112510611/01/16 11:25:31  5-MIN KAEX 011725Z 16007KT 10SM BKN032 27/18 A3009 -60 58 1400 160/07 RMK AO2 T02720183
93915KAEX AEX20161101113010611/01/16 11:30:31  5-MIN KAEX 011730Z 16008KT 10SM BKN032 27/18 A3008 -60 58 1400 160/08 RMK AO2 T02720183
93915KAEX AEX20161101113511211/01/16 11:35:31  5-MIN KAEX 011735Z 14013G16KT 10SM BKN034 28/18 A3008 -50 56 1400 140/13G16 RMK AO2 T02780183
93915KAEX AEX20161101114011211/01/16 11:40:31  5-MIN KAEX 011740Z 14008G16KT 10SM SCT034 27/18 A3008 -50 56 1400 140/08G16 RMK AO2 T02720178
93915KAEX AEX20161101114510611/01/16 11:45:31  5-MIN KAEX 011745Z VRB04KT 10SM SCT034 26/18 A3008 -50 59 1300 VRB/04 RMK AO2 T02610178
93915KAEX AEX20161101115013111/01/16 11:50:31  5-MIN KAEX 011750Z 14008KT 10SM BKN034 26/18 A3007 -50 59 1300 140/08 RMK AO2 SLP187 T02610178 10278 20150 51019
93915KAEX AEX20161101115510611/01/16 11:55:31  5-MIN KAEX 011755Z 15011KT 10SM BKN036 28/18 A3007 -40 54 1500 150/11 RMK AO2 T02780178
93915KAEX AEX20161101120012211/01/16 12:00:31  5-MIN KAEX 011800Z 18008KT 140V220 10SM BKN036 28/17 A3007 -40 50 1500 170/08 140V220 RMK AO2 T02780167
93915KAEX AEX20161101120510611/01/16 12:05:31  5-MIN KAEX 011805Z 17009KT 10SM SCT038 28/17 A3007 -40 50 1500 170/09 RMK AO2 T02830172
93915KAEX AEX20161101121011211/01/16 12:10:31  5-MIN KAEX 011810Z 15011G17KT 10SM SCT038 28/17 A3007 -40 50 1500 140/11G17 RMK AO2 T02830172
93915KAEX AEX20161101121511111/01/16 12:15:31  5-MIN KAEX 011815Z 13008G17KT 9SM FEW037 28/17 A3006 -40 50 1500 130/08G17 RMK AO2 T02780167
93915KAEX AEX20161101122010511/01/16 12:20:31  5-MIN KAEX 011820Z 13010KT 9SM SCT039 29/17 A3006 -30 48 1600 130/10 RMK AO2 T02890172
93915KAEX AEX20161101122510511/01/16 12:25:31  5-MIN KAEX 011825Z 17011KT 9SM SCT041 29/17 A3006 -30 48 1600 170/11 RMK AO2 T02890172
93915KAEX AEX20161101123010611/01/16 12:30:31  5-MIN KAEX 011830Z 19007KT 10SM FEW041 28/17 A3006 -30 48 1500 190/07 RMK AO2 T02830167
93915KAEX AEX20161101123510811/01/16 12:35:31  5-MIN KAEX 011835Z 13006KT 5SM HZ SCT041 28/17 A3006 -30 52 1500 130/06 RMK AO2 T02780172
93915KAEX AEX20161101124010811/01/16 12:40:31  5-MIN KAEX 011840Z 11006KT 4SM HZ BKN041 28/17 A3006 -30 50 1500 110/06 RMK AO2 T02830172
93915KAEX AEX20161101124510811/01/16 12:45:31  5-MIN KAEX 011845Z 19010KT 4SM HZ BKN041 29/17 A3005 -30 45 1700 180/10 RMK AO2 T02940167
93915KAEX AEX20161101125011511/01/16 12:50:31  5-MIN KAEX 011850Z 17010KT 4SM HZ SCT042 28/17 A3005 -30 48 1500 170/10 RMK AO2 SLP179 T02830167
93915KAEX AEX20161101125510511/01/16 12:55:31  5-MIN KAEX 011855Z 17006KT 8SM SCT042 27/17 A3005 -30 52 1400 170/06 RMK AO2 T02720167
93915KAEX AEX20161101130010511/01/16 13:00:31  5-MIN KAEX 011900Z 00000KT 9SM SCT042 28/17 A3005 -20 50 1500 000/00 RMK AO2 T02780167
93915KAEX AEX20161101130509611/01/16 13:05:31  5-MIN KAEX 011905Z 10SM BKN044 28/17 A3005 -20 50 1500 M /M RMK AO2 T02780167
93915KAEX AEX20161101131011211/01/16 13:10:31  5-MIN KAEX 011910Z 14010G15KT 10SM SCT044 28/16 A3005 -20 47 1500 130/10G15 RMK AO2 T02830161
93915KAEX AEX20161101131511211/01/16 13:15:31  5-MIN KAEX 011915Z 15011G15KT 10SM FEW044 28/16 A3005 -20 48 1500 150/11G15 RMK AO2 T02780161
93915KAEX AEX20161101132010611/01/16 13:20:31  5-MIN KAEX 011920Z 14007KT 10SM SCT044 28/16 A3004 -20 48 1500 140/07 RMK AO2 T02780161
93915KAEX AEX20161101132510611/01/16 13:25:31  5-MIN KAEX 011925Z 15008KT 10SM SCT044 29/17 A3004 -10 47 1600 150/08 RMK AO2 T02890167
93915KAEX AEX20161101133010611/01/16 13:30:31  5-MIN KAEX 011930Z 17010KT 10SM SCT046 29/16 A3004 -10 45 1600 170/10 RMK AO2 T02890161
93915KAEX AEX20161101133510511/01/16 13:35:31  5-MIN KAEX 011935Z 17009KT 9SM SCT046 27/16 A3004 -10 48 1400 170/09 RMK AO2 T02720156
93915KAEX AEX20161101134010511/01/16 13:40:31  5-MIN KAEX 011940Z 18008KT 9SM SCT046 29/16 A3003 -10 44 1600 180/08 RMK AO2 T02890156
93915KAEX AEX20161101134510611/01/16 13:45:31  5-MIN KAEX 011945Z 17007KT 10SM SCT046 28/16 A3003 -10 47 1600 170/07 RMK AO2 T02830161
93915KAEX AEX20161101135011311/01/16 13:50:31  5-MIN KAEX 011950Z 19005KT 10SM FEW046 28/16 A3003 -10 47 1600 180/05 RMK AO2 SLP173 T02830161
93915KAEX AEX20161101135510611/01/16 13:55:31  5-MIN KAEX 011955Z 15010KT 10SM FEW046 29/16 A3003 -10 45 1600 150/10 RMK AO2 T02890161
93915KAEX AEX20161101140010511/01/16 14:00:31  5-MIN KAEX 012000Z 18007KT 8SM FEW047 29/17 A3003 -10 45 1700 180/07 RMK AO2 T02940167
93915KAEX AEX20161101140510211/01/16 14:05:31  5-MIN KAEX 012005Z 18009KT 8SM CLR 29/16 A3003 -10 45 1600 180/09 RMK AO2 T02890161
93915KAEX AEX20161101141010211/01/16 14:10:31  5-MIN KAEX 012010Z 18007KT 9SM CLR 28/16 A3003 -10 47 1600 180/07 RMK AO2 T02830161
93915KAEX AEX20161101141510311/01/16 14:15:31  5-MIN KAEX 012015Z VRB06KT 10SM CLR 28/16 A3003 -10 47 1600 VRB/06 RMK AO2 T02830161
93915KAEX AEX20161101142010411/01/16 14:20:31  5-MIN KAEX 012020Z 18005KT 10SM FEW050 28/16 A3003 0 47 1600 170/05 RMK AO2 T02830161
93915KAEX AEX20161101142512011/01/16 14:25:31  5-MIN KAEX 012025Z 15007KT 120V190 10SM SCT050 29/16 A3003 0 45 1600 150/07 120V190 RMK AO2 T02890161
93915KAEX AEX20161101143010411/01/16 14:30:31  5-MIN KAEX 012030Z 16010KT 10SM SCT050 29/16 A3003 0 42 1700 150/10 RMK AO2 T02940156
93915KAEX AEX20161101143510411/01/16 14:35:31  5-MIN KAEX 012035Z 15008KT 10SM FEW050 29/16 A3003 0 44 1600 150/08 RMK AO2 T02890156
93915KAEX AEX20161101144010611/01/16 14:40:31  5-MIN KAEX 012040Z 13008KT 10SM FEW050 28/16 A3003 -10 45 1600 130/08 RMK AO2 T02830156
93915KAEX AEX20161101144510611/01/16 14:45:31  5-MIN KAEX 012045Z 13008KT 10SM FEW050 29/16 A3003 -10 44 1600 130/08 RMK AO2 T02890156
93915KAEX AEX20161101145011911/01/16 14:50:31  5-MIN KAEX 012050Z 13005KT 10SM SCT050 29/16 A3003 -10 42 1700 130/05 RMK AO2 SLP173 T02940156 58012
93915KAEX AEX20161101145510611/01/16 14:55:31  5-MIN KAEX 012055Z 17010KT 10SM BKN050 29/16 A3003 -10 42 1700 160/10 RMK AO2 T02940156
93915KAEX AEX20161101150011211/01/16 15:00:31  5-MIN KAEX 012100Z 17012G16KT 10SM SCT050 29/16 A3003 -10 42 1700 160/12G16 RMK AO2 T02940156
93915KAEX AEX20161101150510611/01/16 15:05:31  5-MIN KAEX 012105Z 18009KT 10SM SCT050 29/16 A3003 -10 44 1600 180/09 RMK AO2 T02890156
93915KAEX AEX20161101151010511/01/16 15:10:31  5-MIN KAEX 012110Z 19010KT 8SM SCT050 29/16 A3003 -10 42 1700 190/10 RMK AO2 T02940156
93915KAEX AEX20161101151511511/01/16 15:15:31  5-MIN KAEX 012115Z 18010KT 6SM HZ FEW003 BKN050 29/16 A3003 -10 42 1700 180/10 RMK AO2 T02940156
93915KAEX AEX20161101152011211/01/16 15:20:31  5-MIN KAEX 012120Z 17008KT 7SM FEW003 BKN050 29/16 A3003 -10 42 1700 170/08 RMK AO2 T02940156
93915KAEX AEX20161101152510611/01/16 15:25:31  5-MIN KAEX 012125Z 18010KT 10SM SCT050 29/16 A3003 -10 42 1700 170/10 RMK AO2 T02940156
93915KAEX AEX20161101153010511/01/16 15:30:31  5-MIN KAEX 012130Z 19008KT 8SM SCT050 29/16 A3003 -10 44 1600 190/08 RMK AO2 T02890156
93915KAEX AEX20161101153510511/01/16 15:35:31  5-MIN KAEX 012135Z 18007KT 8SM BKN050 29/16 A3003 -10 44 1600 180/07 RMK AO2 T02890156
93915KAEX AEX20161101154010611/01/16 15:40:31  5-MIN KAEX 012140Z 15007KT 10SM BKN055 29/16 A3003 -10 42 1700 140/07 RMK AO2 T02940156
93915KAEX AEX20161101154510611/01/16 15:45:31  5-MIN KAEX 012145Z 13008KT 10SM BKN055 29/15 A3003 -10 41 1700 130/08 RMK AO2 T02940150
93915KAEX AEX20161101155011311/01/16 15:50:31  5-MIN KAEX 012150Z 13010KT 10SM SCT055 29/15 A3003 -10 42 1600 130/10 RMK AO2 SLP172 T02890150
93915KAEX AEX20161101155510611/01/16 15:55:31  5-MIN KAEX 012155Z 13010KT 10SM SCT055 29/15 A3003 -10 42 1600 130/10 RMK AO2 T02890150
93915KAEX AEX20161101160010611/01/16 16:00:31  5-MIN KAEX 012200Z 15012KT 10SM SCT055 29/16 A3003 -10 44 1600 150/12 RMK AO2 T02890156
93915KAEX AEX20161101160510411/01/16 16:05:31  5-MIN KAEX 012205Z 14009KT 10SM FEW055 28/15 A3003 0 43 1600 140/09 RMK AO2 T02830150
93915KAEX AEX20161101161010411/01/16 16:10:31  5-MIN KAEX 012210Z 14011KT 10SM FEW055 28/15 A3003 0 43 1600 140/11 RMK AO2 T02830150
93915KAEX AEX20161101161510411/01/16 16:15:31  5-MIN KAEX 012215Z 15008KT 10SM FEW055 28/16 A3003 0 46 1500 150/08 RMK AO2 T02780156
93915KAEX AEX20161101162010111/01/16 16:20:31  5-MIN KAEX 012220Z 14011KT 10SM CLR 28/16 A3003 0 46 1500 140/11 RMK AO2 T02780156
93915KAEX AEX20161101162510111/01/16 16:25:31  5-MIN KAEX 012225Z 15011KT 10SM CLR 28/16 A3003 0 46 1500 140/11 RMK AO2 T02780156
93915KAEX AEX20161101163010111/01/16 16:30:31  5-MIN KAEX 012230Z 14009KT 10SM CLR 28/16 A3003 0 46 1500 140/09 RMK AO2 T02780156
93915KAEX AEX20161101163510311/01/16 16:35:31  5-MIN KAEX 012235Z 14009KT 10SM CLR 28/16 A3003 -10 46 1500 140/09 RMK AO2 T02780156
93915KAEX AEX20161101164010311/01/16 16:40:31  5-MIN KAEX 012240Z 15008KT 10SM CLR 28/16 A3003 -10 46 1500 140/08 RMK AO2 T02780156
93915KAEX AEX20161101164510311/01/16 16:45:31  5-MIN KAEX 012245Z 14007KT 10SM CLR 27/16 A3003 -10 48 1400 140/07 RMK AO2 T02720156
93915KAEX AEX20161101165011011/01/16 16:50:31  5-MIN KAEX 012250Z 15006KT 10SM CLR 27/16 A3003 -10 50 1400 140/06 RMK AO2 SLP173 T02670156
93915KAEX AEX20161101165510311/01/16 16:55:31  5-MIN KAEX 012255Z 15009KT 10SM CLR 27/16 A3003 -10 50 1400 150/09 RMK AO2 T02670156
93915KAEX AEX20161101170010311/01/16 17:00:31  5-MIN KAEX 012300Z 15007KT 10SM CLR 27/16 A3003 -10 50 1400 150/07 RMK AO2 T02670156
93915KAEX AEX20161101170510311/01/16 17:05:31  5-MIN KAEX 012305Z 15007KT 10SM CLR 26/16 A3003 -10 51 1300 150/07 RMK AO2 T02610156
93915KAEX AEX20161101171010311/01/16 17:10:31  5-MIN KAEX 012310Z 15006KT 10SM CLR 26/16 A3003 -10 53 1200 150/06 RMK AO2 T02560156
93915KAEX AEX20161101171510311/01/16 17:15:31  5-MIN KAEX 012315Z 15007KT 10SM CLR 25/16 A3003 -10 55 1200 150/07 RMK AO2 T02500156
93915KAEX AEX20161101172010311/01/16 17:20:31  5-MIN KAEX 012320Z 15006KT 10SM CLR 24/16 A3003 -10 57 1100 150/06 RMK AO2 T02440156
93915KAEX AEX20161101172510311/01/16 17:25:31  5-MIN KAEX 012325Z 15006KT 10SM CLR 24/16 A3004 -10 57 1100 150/06 RMK AO2 T02440156
93915KAEX AEX20161101173010311/01/16 17:30:31  5-MIN KAEX 012330Z 15006KT 10SM CLR 24/16 A3004 -10 59 1100 150/06 RMK AO2 T02390156
93915KAEX AEX20161101173510311/01/16 17:35:31  5-MIN KAEX 012335Z 14005KT 10SM CLR 23/16 A3004 -10 61 1000 140/05 RMK AO2 T02330156
93915KAEX AEX20161101174010211/01/16 17:40:31  5-MIN KAEX 012340Z 14006KT 10SM CLR 23/16 A3004 -10 63 900 130/06 RMK AO2 T02280156
93915KAEX AEX20161101174510211/01/16 17:45:31  5-MIN KAEX 012345Z 13006KT 10SM CLR 23/16 A3004 -10 63 900 130/06 RMK AO2 T02280156
93915KAEX AEX20161101175012711/01/16 17:50:31  5-MIN KAEX 012350Z 13006KT 10SM CLR 23/16 A3004 -10 63 900 130/06 RMK AO2 SLP176 T02280156 10300 20228 55013
93915KAEX AEX20161101175510211/01/16 17:55:31  5-MIN KAEX 012355Z 10005KT 10SM CLR 23/16 A3004 -10 63 900 100/05 RMK AO2 T02280156
93915KAEX AEX20161101180010211/01/16 18:00:31  5-MIN KAEX 020000Z 10005KT 10SM CLR 23/16 A3004 -10 65 900 100/05 RMK AO2 T02280161
93915KAEX AEX20161101180510211/01/16 18:05:31  5-MIN KAEX 020005Z 11005KT 10SM CLR 23/16 A3004 -20 65 900 110/05 RMK AO2 T02280161
93915KAEX AEX20161101181010211/01/16 18:10:31  5-MIN KAEX 020010Z 12005KT 10SM CLR 23/16 A3005 -20 65 900 120/05 RMK AO2 T02280161
93915KAEX AEX20161101181510211/01/16 18:15:31  5-MIN KAEX 020015Z 12006KT 10SM CLR 22/16 A3005 -20 68 800 120/06 RMK AO2 T02220161
93915KAEX AEX20161101182010211/01/16 18:20:31  5-MIN KAEX 020020Z 12005KT 10SM CLR 22/16 A3005 -20 68 800 120/05 RMK AO2 T02220161
93915KAEX AEX20161101182510211/01/16 18:25:31  5-MIN KAEX 020025Z 13006KT 10SM CLR 22/16 A3005 -30 68 800 130/06 RMK AO2 T02220161
93915KAEX AEX20161101183010211/01/16 18:30:31  5-MIN KAEX 020030Z 13006KT 10SM CLR 22/16 A3005 -30 70 800 130/06 RMK AO2 T02170161
93915KAEX AEX20161101183510211/01/16 18:35:31  5-MIN KAEX 020035Z 14007KT 10SM CLR 21/16 A3005 -30 73 700 130/07 RMK AO2 T02110161
93915KAEX AEX20161101184010211/01/16 18:40:31  5-MIN KAEX 020040Z 14006KT 10SM CLR 22/16 A3005 -30 70 800 140/06 RMK AO2 T02170161
93915KAEX AEX20161101184510211/01/16 18:45:31  5-MIN KAEX 020045Z 14007KT 10SM CLR 22/16 A3005 -30 70 800 140/07 RMK AO2 T02170161
93915KAEX AEX20161101185010911/01/16 18:50:31  5-MIN KAEX 020050Z 14006KT 10SM CLR 22/16 A3005 -30 70 800 140/06 RMK AO2 SLP180 T02170161
93915KAEX AEX20161101185510211/01/16 18:55:31  5-MIN KAEX 020055Z 14007KT 10SM CLR 22/16 A3005 -30 70 800 140/07 RMK AO2 T02170161
93915KAEX AEX20161101190010211/01/16 19:00:31  5-MIN KAEX 020100Z 15007KT 10SM CLR 21/16 A3006 -30 73 700 150/07 RMK AO2 T02110161
93915KAEX AEX20161101190510211/01/16 19:05:31  5-MIN KAEX 020105Z 16005KT 10SM CLR 22/16 A3006 -30 70 800 150/05 RMK AO2 T02170161
93915KAEX AEX20161101191010211/01/16 19:10:31  5-MIN KAEX 020110Z 15005KT 10SM CLR 22/16 A3006 -30 70 800 150/05 RMK AO2 T02170161
93915KAEX AEX20161101191510211/01/16 19:15:31  5-MIN KAEX 020115Z 16004KT 10SM CLR 22/16 A3006 -30 70 800 160/04 RMK AO2 T02170161
93915KAEX AEX20161101192010211/01/16 19:20:31  5-MIN KAEX 020120Z 16004KT 10SM CLR 22/16 A3006 -30 70 800 160/04 RMK AO2 T02170161
93915KAEX AEX20161101192510211/01/16 19:25:31  5-MIN KAEX 020125Z 17004KT 10SM CLR 21/16 A3006 -40 73 700 170/04 RMK AO2 T02110161
93915KAEX AEX20161101193010211/01/16 19:30:31  5-MIN KAEX 020130Z 16004KT 10SM CLR 21/16 A3006 -40 73 700 160/04 RMK AO2 T02110161
93915KAEX AEX20161101193510211/01/16 19:35:31  5-MIN KAEX 020135Z 16004KT 10SM CLR 21/16 A3007 -40 73 700 160/04 RMK AO2 T02110161
93915KAEX AEX20161101194010211/01/16 19:40:31  5-MIN KAEX 020140Z 15004KT 10SM CLR 21/16 A3007 -40 75 600 150/04 RMK AO2 T02060161
93915KAEX AEX20161101194510211/01/16 19:45:31  5-MIN KAEX 020145Z 15005KT 10SM CLR 20/16 A3007 -40 78 600 150/05 RMK AO2 T02000161
93915KAEX AEX20161101195010911/01/16 19:50:31  5-MIN KAEX 020150Z 14006KT 10SM CLR 20/16 A3007 -40 78 600 130/06 RMK AO2 SLP185 T02000161
93915KAEX AEX20161101195510211/01/16 19:55:31  5-MIN KAEX 020155Z 12006KT 10SM CLR 20/16 A3006 -30 78 600 120/06 RMK AO2 T02000161
93915KAEX AEX20161101200010211/01/16 20:00:31  5-MIN KAEX 020200Z 13007KT 10SM CLR 20/16 A3006 -30 78 600 130/07 RMK AO2 T02000161
93915KAEX AEX20161101200510211/01/16 20:05:31  5-MIN KAEX 020205Z 13007KT 10SM CLR 21/16 A3006 -30 75 600 130/07 RMK AO2 T02060161
93915KAEX AEX20161101201010211/01/16 20:10:31  5-MIN KAEX 020210Z 14007KT 10SM CLR 21/17 A3006 -30 78 600 140/07 RMK AO2 T02060167
93915KAEX AEX20161101201510211/01/16 20:15:31  5-MIN KAEX 020215Z 14007KT 10SM CLR 21/16 A3006 -30 75 600 140/07 RMK AO2 T02060161
93915KAEX AEX20161101202010211/01/16 20:20:31  5-MIN KAEX 020220Z 14007KT 10SM CLR 20/16 A3006 -30 78 600 140/07 RMK AO2 T02000161
93915KAEX AEX20161101202510211/01/16 20:25:31  5-MIN KAEX 020225Z 14007KT 10SM CLR 20/16 A3006 -30 78 600 140/07 RMK AO2 T02000161
93915KAEX AEX20161101203010211/01/16 20:30:31  5-MIN KAEX 020230Z 14007KT 10SM CLR 19/16 A3006 -30 81 500 140/07 RMK AO2 T01940161
93915KAEX AEX20161101203510211/01/16 20:35:31  5-MIN KAEX 020235Z 14007KT 10SM CLR 19/16 A3006 -30 81 500 130/07 RMK AO2 T01940161
93915KAEX AEX20161101204010211/01/16 20:40:31  5-MIN KAEX 020240Z 14007KT 10SM CLR 19/16 A3006 -30 81 500 140/07 RMK AO2 T01940161
93915KAEX AEX20161101204510211/01/16 20:45:31  5-MIN KAEX 020245Z 15007KT 10SM CLR 20/16 A3006 -30 78 600 150/07 RMK AO2 T02000161
93915KAEX AEX20161101205011511/01/16 20:50:31  5-MIN KAEX 020250Z 16005KT 10SM CLR 20/16 A3006 -30 78 600 150/05 RMK AO2 SLP183 T02000161 53002
93915KAEX AEX20161101205510211/01/16 20:55:31  5-MIN KAEX 020255Z 16004KT 10SM CLR 19/16 A3006 -40 81 500 160/04 RMK AO2 T01940161
93915KAEX AEX20161101210010211/01/16 21:00:31  5-MIN KAEX 020300Z 00000KT 10SM CLR 19/16 A3007 -40 81 500 000/00 RMK AO2 T01940161
93915KAEX AEX20161101210510211/01/16 21:05:31  5-MIN KAEX 020305Z 12003KT 10SM CLR 19/16 A3007 -40 81 500 110/03 RMK AO2 T01940161
93915KAEX AEX20161101211010211/01/16 21:10:31  5-MIN KAEX 020310Z 12004KT 10SM CLR 20/16 A3008 -50 78 600 120/04 RMK AO2 T02000161
93915KAEX AEX20161101211510211/01/16 21:15:31  5-MIN KAEX 020315Z 14007KT 10SM CLR 20/16 A3008 -50 78 600 140/07 RMK AO2 T02000161
93915KAEX AEX20161101212010211/01/16 21:20:31  5-MIN KAEX 020320Z 14005KT 10SM CLR 20/16 A3008 -50 78 600 130/05 RMK AO2 T02000161
93915KAEX AEX20161101212510211/01/16 21:25:31  5-MIN KAEX 020325Z 13005KT 10SM CLR 19/16 A3008 -50 81 500 130/05 RMK AO2 T01940161
93915KAEX AEX20161101213010211/01/16 21:30:31  5-MIN KAEX 020330Z 13005KT 10SM CLR 19/16 A3008 -50 81 500 130/05 RMK AO2 T01940161
93915KAEX AEX20161101213510211/01/16 21:35:31  5-MIN KAEX 020335Z 13005KT 10SM CLR 19/16 A3008 -50 81 500 130/05 RMK AO2 T01940161
93915KAEX AEX20161101214010211/01/16 21:40:31  5-MIN KAEX 020340Z 13005KT 10SM CLR 19/16 A3008 -50 81 500 130/05 RMK AO2 T01940161
93915KAEX AEX20161101214510211/01/16 21:45:31  5-MIN KAEX 020345Z 13005KT 10SM CLR 19/16 A3008 -50 81 500 130/05 RMK AO2 T01940161
93915KAEX AEX20161101215010911/01/16 21:50:31  5-MIN KAEX 020350Z 14005KT 10SM CLR 19/16 A3008 -50 81 500 130/05 RMK AO2 SLP188 T01940161
93915KAEX AEX20161101215510211/01/16 21:55:31  5-MIN KAEX 020355Z 14006KT 10SM CLR 19/16 A3008 -50 81 500 140/06 RMK AO2 T01940161
93915KAEX AEX20161101220010211/01/16 22:00:31  5-MIN KAEX 020400Z 13006KT 10SM CLR 19/16 A3008 -50 81 500 130/06 RMK AO2 T01940161
93915KAEX AEX20161101220510211/01/16 22:05:31  5-MIN KAEX 020405Z 13005KT 10SM CLR 19/16 A3008 -60 81 500 130/05 RMK AO2 T01940161
93915KAEX AEX20161101221010211/01/16 22:10:31  5-MIN KAEX 020410Z 14004KT 10SM CLR 19/16 A3009 -60 81 500 140/04 RMK AO2 T01940161
93915KAEX AEX20161101221510211/01/16 22:15:31  5-MIN KAEX 020415Z 14004KT 10SM CLR 20/16 A3009 -60 78 500 140/04 RMK AO2 T02000161
93915KAEX AEX20161101222010511/01/16 22:20:31  5-MIN KAEX 020420Z 15003KT 10SM FEW044 20/16 A3009 -60 78 500 150/03 RMK AO2 T02000161
93915KAEX AEX20161101222510511/01/16 22:25:31  5-MIN KAEX 020425Z 15003KT 10SM FEW044 19/16 A3010 -70 81 500 140/03 RMK AO2 T01940161
93915KAEX AEX20161101223010511/01/16 22:30:31  5-MIN KAEX 020430Z 14003KT 10SM FEW044 20/16 A3010 -70 78 500 140/03 RMK AO2 T02000161
93915KAEX AEX20161101223510511/01/16 22:35:31  5-MIN KAEX 020435Z 15003KT 10SM FEW044 20/16 A3010 -70 78 500 140/03 RMK AO2 T02000161
93915KAEX AEX20161101224010511/01/16 22:40:31  5-MIN KAEX 020440Z 14003KT 10SM SCT044 20/16 A3010 -70 78 500 140/03 RMK AO2 T02000161
93915KAEX AEX20161101224510511/01/16 22:45:31  5-MIN KAEX 020445Z 13004KT 10SM SCT044 20/16 A3010 -70 78 500 120/04 RMK AO2 T02000161
93915KAEX AEX20161101225011211/01/16 22:50:31  5-MIN KAEX 020450Z 13004KT 10SM SCT044 20/16 A3010 -70 78 500 130/04 RMK AO2 SLP196 T02000161
93915KAEX AEX20161101225510511/01/16 22:55:31  5-MIN KAEX 020455Z 13005KT 10SM SCT042 20/16 A3010 -70 78 500 130/05 RMK AO2 T02000161
93915KAEX AEX20161101230010511/01/16 23:00:31  5-MIN KAEX 020500Z 13005KT 10SM SCT042 20/17 A3010 -70 81 500 130/05 RMK AO2 T02000167
93915KAEX AEX20161101230510511/01/16 23:05:31  5-MIN KAEX 020505Z 14005KT 10SM BKN042 21/17 A3010 -70 78 600 130/05 RMK AO2 T02060167
93915KAEX AEX20161101231010511/01/16 23:10:31  5-MIN KAEX 020510Z 14005KT 10SM SCT042 20/17 A3010 -70 81 500 140/05 RMK AO2 T02000167
93915KAEX AEX20161101231510511/01/16 23:15:31  5-MIN KAEX 020515Z 14005KT 10SM SCT042 20/17 A3010 -70 81 500 140/05 RMK AO2 T02000167
93915KAEX AEX20161101232010511/01/16 23:20:31  5-MIN KAEX 020520Z 14005KT 10SM FEW042 20/17 A3010 -70 81 500 130/05 RMK AO2 T02000167
93915KAEX AEX20161101232510511/01/16 23:25:31  5-MIN KAEX 020525Z 13004KT 10SM FEW042 20/17 A3010 -70 81 500 130/04 RMK AO2 T02000167
93915KAEX AEX20161101233010511/01/16 23:30:31  5-MIN KAEX 020530Z 13004KT 10SM FEW042 20/17 A3010 -70 81 500 130/04 RMK AO2 T02000167
93915KAEX AEX20161101233510211/01/16 23:35:31  5-MIN KAEX 020535Z 12004KT 10SM CLR 20/17 A3010 -70 81 500 120/04 RMK AO2 T02000167
93915KAEX AEX20161101234010211/01/16 23:40:31  5-MIN KAEX 020540Z 13004KT 10SM CLR 20/17 A3010 -70 81 500 130/04 RMK AO2 T02000167
93915KAEX AEX20161101234510211/01/16 23:45:31  5-MIN KAEX 020545Z 13004KT 10SM CLR 20/17 A3010 -70 81 500 130/04 RMK AO2 T02000167
93915KAEX AEX20161101235013711/01/16 23:50:31  5-MIN KAEX 020550Z 14005KT 10SM CLR 20/17 A3011 -80 84 500 140/05 RMK AO2 SLP197 T02000172 10228 20189 403000139 50007
93915KAEX AEX20161101235510211/01/16 23:55:31  5-MIN KAEX 020555Z 14005KT 10SM CLR 20/17 A3011 -80 84 500 140/05 RMK AO2 T02000172
93915KAEX AEX20161102000010211/02/16 00:00:31  5-MIN KAEX 020600Z 14004KT 10SM CLR 20/17 A3011 -80 84 500 130/04 RMK AO2 T02000172
93915KAEX AEX20161102000510211/02/16 00:05:31  5-MIN KAEX 020605Z 14004KT 10SM CLR 20/17 A3011 -80 84 500 130/04 RMK AO2 T02000172
93915KAEX AEX20161102001010211/02/16 00:10:31  5-MIN KAEX 020610Z 12004KT 10SM CLR 20/17 A3011 -70 84 500 120/04 RMK AO2 T02000172
93915KAEX AEX20161102001510211/02/16 00:15:31  5-MIN KAEX 020615Z 13004KT 10SM CLR 20/18 A3011 -80 87 500 120/04 RMK AO2 T02000178
93915KAEX AEX20161102002010211/02/16 00:20:31  5-MIN KAEX 020620Z 12004KT 10SM CLR 20/18 A3011 -80 87 500 120/04 RMK AO2 T02000178
93915KAEX AEX20161102002510211/02/16 00:25:31  5-MIN KAEX 020625Z 12005KT 10SM CLR 21/18 A3011 -70 87 600 120/05 RMK AO2 T02060183
93915KAEX AEX20161102003010211/02/16 00:30:31  5-MIN KAEX 020630Z 12005KT 10SM CLR 21/18 A3011 -80 87 600 120/05 RMK AO2 T02060183
93915KAEX AEX20161102003510211/02/16 00:35:31  5-MIN KAEX 020635Z 10004KT 10SM CLR 21/18 A3011 -80 87 600 090/04 RMK AO2 T02060183
93915KAEX AEX20161102004010211/02/16 00:40:31  5-MIN KAEX 020640Z 10006KT 10SM CLR 21/18 A3011 -80 87 600 090/06 RMK AO2 T02060183
93915KAEX AEX20161102004510211/02/16 00:45:31  5-MIN KAEX 020645Z 09005KT 10SM CLR 21/18 A3010 -70 84 700 090/05 RMK AO2 T02110183
93915KAEX AEX20161102005010911/02/16 00:50:31  5-MIN KAEX 020650Z 09004KT 10SM CLR 21/18 A3011 -80 87 600 090/04 RMK AO2 SLP198 T02060183
93915KAEX AEX20161102005510211/02/16 00:55:31  5-MIN KAEX 020655Z 09004KT 10SM CLR 21/18 A3011 -80 87 600 090/04 RMK AO2 T02060183
93915KAEX AEX20161102010010211/02/16 01:00:31  5-MIN KAEX 020700Z 09004KT 10SM CLR 21/18 A3011 -80 87 600 090/04 RMK AO2 T02060183
93915KAEX AEX20161102010510211/02/16 01:05:31  5-MIN KAEX 020705Z 10005KT 10SM CLR 21/18 A3011 -80 87 600 090/05 RMK AO2 T02060183
93915KAEX AEX20161102011010211/02/16 01:10:31  5-MIN KAEX 020710Z 09005KT 10SM CLR 21/18 A3011 -70 87 600 090/05 RMK AO2 T02060183
93915KAEX AEX20161102011510211/02/16 01:15:31  5-MIN KAEX 020715Z 10005KT 10SM CLR 21/18 A3010 -70 87 600 090/05 RMK AO2 T02060183
93915KAEX AEX20161102012010111/02/16 01:20:31  5-MIN KAEX 020720Z 10004KT 9SM CLR 21/18 A3010 -70 87 600 100/04 RMK AO2 T02060183
93915KAEX AEX20161102012510111/02/16 01:25:31  5-MIN KAEX 020725Z 10004KT 9SM CLR 20/18 A3011 -80 90 500 100/04 RMK AO2 T02000183
93915KAEX AEX20161102013010111/02/16 01:30:31  5-MIN KAEX 020730Z 11004KT 9SM CLR 20/18 A3011 -70 90 500 110/04 RMK AO2 T02000183
93915KAEX AEX20161102013510111/02/16 01:35:31  5-MIN KAEX 020735Z 11004KT 9SM CLR 20/18 A3011 -70 90 500 110/04 RMK AO2 T02000183
93915KAEX AEX20161102014010111/02/16 01:40:31  5-MIN KAEX 020740Z 11004KT 9SM CLR 20/18 A3011 -80 90 500 110/04 RMK AO2 T02000183
93915KAEX AEX20161102014510111/02/16 01:45:31  5-MIN KAEX 020745Z 11003KT 9SM CLR 19/18 A3011 -80 93 500 100/03 RMK AO2 T01940183
93915KAEX AEX20161102015010811/02/16 01:50:31  5-MIN KAEX 020750Z 09003KT 9SM CLR 19/18 A3011 -80 93 500 090/03 RMK AO2 SLP198 T01940183
93915KAEX AEX20161102015510111/02/16 01:55:31  5-MIN KAEX 020755Z 10004KT 9SM CLR 19/18 A3011 -80 93 500 100/04 RMK AO2 T01940183
93915KAEX AEX20161102020010111/02/16 02:00:31  5-MIN KAEX 020800Z 10004KT 9SM CLR 19/18 A3011 -80 93 500 100/04 RMK AO2 T01940183
93915KAEX AEX20161102020510111/02/16 02:05:31  5-MIN KAEX 020805Z 10004KT 9SM CLR 20/18 A3011 -80 90 500 100/04 RMK AO2 T02000183
93915KAEX AEX20161102021010111/02/16 02:10:31  5-MIN KAEX 020810Z 10003KT 9SM CLR 20/18 A3011 -80 90 500 090/03 RMK AO2 T02000183
93915KAEX AEX20161102021510111/02/16 02:15:31  5-MIN KAEX 020815Z 08003KT 9SM CLR 20/18 A3011 -80 90 500 070/03 RMK AO2 T02000183
93915KAEX AEX20161102022010111/02/16 02:20:31  5-MIN KAEX 020820Z 06003KT 9SM CLR 20/19 A3011 -80 93 500 050/03 RMK AO2 T02000189
93915KAEX AEX20161102022510111/02/16 02:25:31  5-MIN KAEX 020825Z 08003KT 8SM CLR 19/18 A3011 -80 93 500 070/03 RMK AO2 T01940183
93915KAEX AEX20161102023010111/02/16 02:30:31  5-MIN KAEX 020830Z 10004KT 8SM CLR 19/18 A3011 -80 93 500 100/04 RMK AO2 T01940183
93915KAEX AEX20161102023510111/02/16 02:35:31  5-MIN KAEX 020835Z 09004KT 8SM CLR 19/18 A3010 -70 93 500 090/04 RMK AO2 T01940183
93915KAEX AEX20161102024010111/02/16 02:40:31  5-MIN KAEX 020840Z 09004KT 8SM CLR 19/18 A3010 -70 93 500 090/04 RMK AO2 T01940183
93915KAEX AEX20161102024510111/02/16 02:45:31  5-MIN KAEX 020845Z 09004KT 8SM CLR 19/19 A3010 -70 97 500 090/04 RMK AO2 T01940189
93915KAEX AEX20161102025011411/02/16 02:50:31  5-MIN KAEX 020850Z 09004KT 8SM CLR 19/19 A3010 -70 97 500 090/04 RMK AO2 SLP195 T01940189 51015
93915KAEX AEX20161102025510111/02/16 02:55:31  5-MIN KAEX 020855Z 09003KT 8SM CLR 19/19 A3010 -70 97 500 090/03 RMK AO2 T01940189
93915KAEX AEX20161102030010111/02/16 03:00:31  5-MIN KAEX 020900Z 09003KT 8SM CLR 19/19 A3010 -70 97 500 090/03 RMK AO2 T01940189
93915KAEX AEX20161102030510111/02/16 03:05:31  5-MIN KAEX 020905Z 10003KT 8SM CLR 19/19 A3010 -70 97 500 100/03 RMK AO2 T01940189
93915KAEX AEX20161102031010111/02/16 03:10:31  5-MIN KAEX 020910Z 11003KT 7SM CLR 19/18 A3010 -70 93 500 100/03 RMK AO2 T01940183
93915KAEX AEX20161102031510111/02/16 03:15:31  5-MIN KAEX 020915Z 11004KT 7SM CLR 19/18 A3010 -70 93 500 100/04 RMK AO2 T01940183
93915KAEX AEX20161102032010411/02/16 03:20:31  5-MIN KAEX 020920Z 11004KT 6SM BR CLR 19/18 A3010 -70 97 400 100/04 RMK AO2 T01890183
93915KAEX AEX20161102032510411/02/16 03:25:31  5-MIN KAEX 020925Z 11004KT 6SM BR CLR 18/18 A3010 -70 96 300 110/04 RMK AO2 T01830178
93915KAEX AEX20161102033010411/02/16 03:30:31  5-MIN KAEX 020930Z 11004KT 6SM BR CLR 19/18 A3010 -70 97 400 100/04 RMK AO2 T01890183
93915KAEX AEX20161102033510711/02/16 03:35:31  5-MIN KAEX 020935Z 11004KT 5SM BR FEW047 19/18 A3010 -70 93 400 110/04 RMK AO2 T01890178
93915KAEX AEX20161102034010711/02/16 03:40:31  5-MIN KAEX 020940Z 12003KT 5SM BR FEW047 18/18 A3010 -70 96 300 120/03 RMK AO2 T01830178
93915KAEX AEX20161102034510711/02/16 03:45:31  5-MIN KAEX 020945Z 12003KT 5SM BR FEW047 18/18 A3010 -70 96 300 120/03 RMK AO2 T01830178
93915KAEX AEX20161102035011411/02/16 03:50:31  5-MIN KAEX 020950Z 00000KT 5SM BR FEW047 19/18 A3010 -70 97 400 000/00 RMK AO2 SLP196 T01890183
93915KAEX AEX20161102035510811/02/16 03:55:31  5-MIN KAEX 020955Z 00000KT 5SM BR FEW047 18/18 A3010 -70 100 300 000/00 RMK AO2 T01830183
93915KAEX AEX20161102040010811/02/16 04:00:31  5-MIN KAEX 021000Z 00000KT 5SM BR FEW047 18/18 A3010 -70 100 300 000/00 RMK AO2 T01830183
93915KAEX AEX20161102040510711/02/16 04:05:31  5-MIN KAEX 021005Z 00000KT 5SM BR FEW047 18/18 A3010 -70 96 300 000/00 RMK AO2 T01830178
93915KAEX AEX20161102041010711/02/16 04:10:31  5-MIN KAEX 021010Z 00000KT 4SM BR FEW047 18/18 A3010 -70 96 300 000/00 RMK AO2 T01830178
93915KAEX AEX20161102041510711/02/16 04:15:31  5-MIN KAEX 021015Z 09003KT 4SM BR FEW048 18/18 A3010 -70 96 300 090/03 RMK AO2 T01830178
93915KAEX AEX20161102042010711/02/16 04:20:31  5-MIN KAEX 021020Z 10004KT 5SM BR FEW048 18/18 A3010 -70 96 300 100/04 RMK AO2 T01830178
93915KAEX AEX20161102042510711/02/16 04:25:31  5-MIN KAEX 021025Z 10005KT 5SM BR FEW048 19/18 A3010 -70 97 400 090/05 RMK AO2 T01890183
93915KAEX AEX20161102043010711/02/16 04:30:31  5-MIN KAEX 021030Z 10005KT 5SM BR FEW048 19/19 A3010 -70 97 500 100/05 RMK AO2 T01940189
93915KAEX AEX20161102043510411/02/16 04:35:31  5-MIN KAEX 021035Z 10005KT 5SM BR CLR 19/19 A3010 -70 97 500 100/05 RMK AO2 T01940189
93915KAEX AEX20161102044010411/02/16 04:40:31  5-MIN KAEX 021040Z 10005KT 5SM BR CLR 19/19 A3010 -70 97 500 100/05 RMK AO2 T01940189
93915KAEX AEX20161102044510411/02/16 04:45:31  5-MIN KAEX 021045Z 10005KT 5SM BR CLR 19/19 A3010 -70 97 500 100/05 RMK AO2 T01940189
93915KAEX AEX20161102045011111/02/16 04:50:31  5-MIN KAEX 021050Z 10005KT 5SM BR CLR 19/19 A3010 -70 97 500 100/05 RMK AO2 SLP196 T01940189
93915KAEX AEX20161102045510411/02/16 04:55:31  5-MIN KAEX 021055Z 10005KT 5SM BR CLR 19/19 A3010 -70 97 500 100/05 RMK AO2 T01940189
93915KAEX AEX20161102050010411/02/16 05:00:31  5-MIN KAEX 021100Z 10004KT 5SM BR CLR 19/19 A3011 -70 97 500 100/04 RMK AO2 T01940189
93915KAEX AEX20161102050510411/02/16 05:05:31  5-MIN KAEX 021105Z 10005KT 5SM BR CLR 19/19 A3011 -80 97 500 100/05 RMK AO2 T01940189
93915KAEX AEX20161102051010411/02/16 05:10:31  5-MIN KAEX 021110Z 11005KT 5SM BR CLR 19/19 A3011 -80 97 500 110/05 RMK AO2 T01940189
93915KAEX AEX20161102051510411/02/16 05:15:31  5-MIN KAEX 021115Z 11005KT 5SM BR CLR 19/19 A3011 -80 97 500 110/05 RMK AO2 T01940189
93915KAEX AEX20161102052010511/02/16 05:20:31  5-MIN KAEX 021120Z 11005KT 5SM BR CLR 19/19 A3011 -80 100 400 110/05 RMK AO2 T01890189
93915KAEX AEX20161102052510511/02/16 05:25:31  5-MIN KAEX 021125Z 11005KT 5SM BR CLR 19/19 A3011 -80 100 400 110/05 RMK AO2 T01890189
93915KAEX AEX20161102053010411/02/16 05:30:31  5-MIN KAEX 021130Z 11006KT 5SM BR CLR 19/19 A3011 -80 97 500 110/06 RMK AO2 T01940189
93915KAEX AEX20161102053510411/02/16 05:35:31  5-MIN KAEX 021135Z 11006KT 5SM BR CLR 19/19 A3011 -80 97 500 100/06 RMK AO2 T01940189
93915KAEX AEX20161102054010411/02/16 05:40:31  5-MIN KAEX 021140Z 10005KT 5SM BR CLR 19/19 A3011 -80 97 500 100/05 RMK AO2 T01940189
93915KAEX AEX20161102054510511/02/16 05:45:31  5-MIN KAEX 021145Z 11005KT 5SM BR CLR 19/19 A3011 -80 100 400 110/05 RMK AO2 T01890189
93915KAEX AEX20161102055012911/02/16 05:50:31  5-MIN KAEX 021150Z 11005KT 5SM BR CLR 19/19 A3011 -80 97 500 100/05 RMK AO2 SLP200 T01940189 10211 20183 58002
93915KAEX AEX20161102055510511/02/16 05:55:31  5-MIN KAEX 021155Z 10005KT 5SM BR CLR 19/19 A3012 -80 100 400 100/05 RMK AO2 T01890189
93915KAEX AEX20161102060010411/02/16 06:00:31  5-MIN KAEX 021200Z 11005KT 5SM BR CLR 19/18 A3012 -80 97 400 100/05 RMK AO2 T01890183
93915KAEX AEX20161102060510411/02/16 06:05:31  5-MIN KAEX 021205Z 10006KT 5SM BR CLR 19/18 A3012 -90 97 400 100/06 RMK AO2 T01890183
93915KAEX AEX20161102061010411/02/16 06:10:31  5-MIN KAEX 021210Z 10006KT 5SM BR CLR 19/19 A3012 -90 97 400 100/06 RMK AO2 T01940189
93915KAEX AEX20161102061510411/02/16 06:15:31  5-MIN KAEX 021215Z 10007KT 6SM BR CLR 19/19 A3012 -90 97 400 090/07 RMK AO2 T01940189
93915KAEX AEX20161102062010411/02/16 06:20:31  5-MIN KAEX 021220Z 10007KT 6SM BR CLR 19/19 A3012 -90 97 400 100/07 RMK AO2 T01940189
93915KAEX AEX20161102062510411/02/16 06:25:31  5-MIN KAEX 021225Z 10008KT 5SM BR CLR 19/19 A3012 -90 97 400 100/08 RMK AO2 T01940189
93915KAEX AEX20161102063010411/02/16 06:30:31  5-MIN KAEX 021230Z 10008KT 5SM BR CLR 19/19 A3012 -90 97 400 100/08 RMK AO2 T01940189
93915KAEX AEX20161102063510411/02/16 06:35:31  5-MIN KAEX 021235Z 10008KT 5SM BR CLR 19/19 A3012 -90 97 400 100/08 RMK AO2 T01940189
93915KAEX AEX20161102064010411/02/16 06:40:31  5-MIN KAEX 021240Z 10008KT 5SM BR CLR 19/19 A3012 -90 97 400 100/08 RMK AO2 T01940189
93915KAEX AEX20161102064510411/02/16 06:45:31  5-MIN KAEX 021245Z 10008KT 5SM BR CLR 19/19 A3012 -90 97 400 100/08 RMK AO2 T01940189
93915KAEX AEX20161102065011111/02/16 06:50:31  5-MIN KAEX 021250Z 10008KT 5SM BR CLR 19/19 A3012 -90 97 400 100/08 RMK AO2 SLP203 T01940189
93915KAEX AEX20161102065510411/02/16 06:55:31  5-MIN KAEX 021255Z 10006KT 5SM BR CLR 19/19 A3013 -90 97 400 100/06 RMK AO2 T01940189
93915KAEX AEX20161102070010511/02/16 07:00:31  5-MIN KAEX 021300Z 11007KT 5SM BR CLR 19/19 A3013 -100 97 400 110/07 RMK AO2 T01940189
93915KAEX AEX20161102070510511/02/16 07:05:31  5-MIN KAEX 021305Z 12006KT 6SM BR CLR 19/19 A3014 -100 97 400 110/06 RMK AO2 T01940189
93915KAEX AEX20161102071010511/02/16 07:10:31  5-MIN KAEX 021310Z 12007KT 6SM BR CLR 20/19 A3014 -100 93 500 120/07 RMK AO2 T02000189
93915KAEX AEX20161102071510211/02/16 07:15:31  5-MIN KAEX 021315Z 13006KT 7SM CLR 20/19 A3014 -110 93 500 120/06 RMK AO2 T02000189
93915KAEX AEX20161102072010211/02/16 07:20:31  5-MIN KAEX 021320Z 12006KT 7SM CLR 20/19 A3014 -110 93 500 120/06 RMK AO2 T02000189
93915KAEX AEX20161102072510211/02/16 07:25:31  5-MIN KAEX 021325Z 12008KT 7SM CLR 20/19 A3014 -110 93 500 120/08 RMK AO2 T02000189
93915KAEX AEX20161102073010211/02/16 07:30:31  5-MIN KAEX 021330Z 12007KT 7SM CLR 20/19 A3014 -110 93 500 120/07 RMK AO2 T02000189
93915KAEX AEX20161102073510711/02/16 07:35:31  5-MIN KAEX 021335Z AUTO 12008KT 7SM CLR 21/19 A3015 -110 90 500 120/08 RMK AO2 T02060189
93915KAEX AEX20161102074010711/02/16 07:40:31  5-MIN KAEX 021340Z AUTO 12008KT 7SM CLR 21/19 A3015 -110 90 500 120/08 RMK AO2 T02060189
93915KAEX AEX20161102074510711/02/16 07:45:31  5-MIN KAEX 021345Z AUTO 12007KT 7SM CLR 21/19 A3015 -120 90 500 120/07 RMK AO2 T02060189
93915KAEX AEX20161102075011411/02/16 07:50:31  5-MIN KAEX 021350Z AUTO 12006KT 7SM CLR 21/19 A3015 -120 90 500 120/06 RMK AO2 SLP213 T02060189
93915KAEX AEX20161102075510711/02/16 07:55:31  5-MIN KAEX 021355Z AUTO 12006KT 7SM CLR 21/19 A3016 -120 90 500 120/06 RMK AO2 T02060189
93915KAEX AEX20161102080010711/02/16 08:00:31  5-MIN KAEX 021400Z AUTO 12007KT 8SM CLR 21/19 A3016 -120 87 600 120/07 RMK AO2 T02110189
93915KAEX AEX20161102080510711/02/16 08:05:31  5-MIN KAEX 021405Z AUTO 13007KT 8SM CLR 22/19 A3016 -120 84 700 120/07 RMK AO2 T02170189
93915KAEX AEX20161102081010711/02/16 08:10:31  5-MIN KAEX 021410Z AUTO 12008KT 8SM CLR 22/19 A3016 -130 84 700 120/08 RMK AO2 T02170189
93915KAEX AEX20161102081510711/02/16 08:15:31  5-MIN KAEX 021415Z AUTO 12008KT 9SM CLR 22/19 A3016 -130 84 700 120/08 RMK AO2 T02170189
93915KAEX AEX20161102082010711/02/16 08:20:31  5-MIN KAEX 021420Z AUTO 13007KT 9SM CLR 22/19 A3017 -130 81 700 120/07 RMK AO2 T02220189
93915KAEX AEX20161102082511011/02/16 08:25:31  5-MIN KAEX 021425Z AUTO 14006KT 9SM SCT048 22/19 A3017 -130 81 700 140/06 RMK AO2 T02220189
93915KAEX AEX20161102083011011/02/16 08:30:31  5-MIN KAEX 021430Z AUTO 13007KT 9SM BKN048 22/19 A3017 -130 81 700 130/07 RMK AO2 T02220189
93915KAEX AEX20161102083511011/02/16 08:35:31  5-MIN KAEX 021435Z AUTO 15006KT 9SM BKN048 22/19 A3017 -140 81 700 150/06 RMK AO2 T02220189
93915KAEX AEX20161102084011011/02/16 08:40:31  5-MIN KAEX 021440Z AUTO 15006KT 9SM BKN048 22/19 A3017 -140 81 700 150/06 RMK AO2 T02220189
93915KAEX AEX20161102084511011/02/16 08:45:31  5-MIN KAEX 021445Z AUTO 14006KT 9SM BKN050 22/19 A3017 -140 81 700 140/06 RMK AO2 T02220189
93915KAEX AEX20161102085012411/02/16 08:50:31  5-MIN KAEX 021450Z AUTO 13007KT 10SM OVC050 23/19 A3017 -130 78 800 130/07 RMK AO2 SLP219 T02280189 53005
93915KAEX AEX20161102085511111/02/16 08:55:31  5-MIN KAEX 021455Z AUTO 13009KT 10SM OVC050 23/19 A3017 -130 78 800 130/09 RMK AO2 T02280189
93915KAEX AEX20161102090011111/02/16 09:00:31  5-MIN KAEX 021500Z AUTO 12010KT 10SM BKN050 23/19 A3017 -130 76 800 120/10 RMK AO2 T02330189
93915KAEX AEX20161102090511111/02/16 09:05:31  5-MIN KAEX 021505Z AUTO 13011KT 10SM BKN050 24/19 A3017 -130 73 900 120/11 RMK AO2 T02390189
93915KAEX AEX20161102091011211/02/16 09:10:31  5-MIN KAEX 021510Z AUTO 14010KT 10SM SCT050 24/19 A3017 -130 71 1000 140/10 RMK AO2 T02440189
93915KAEX AEX20161102091511211/02/16 09:15:31  5-MIN KAEX 021515Z AUTO 14010KT 10SM SCT050 25/19 A3017 -140 68 1000 140/10 RMK AO2 T02500189
93915KAEX AEX20161102092011211/02/16 09:20:31  5-MIN KAEX 021520Z AUTO 14011KT 10SM FEW050 25/19 A3017 -140 68 1000 130/11 RMK AO2 T02500189
93915KAEX AEX20161102092511211/02/16 09:25:31  5-MIN KAEX 021525Z AUTO 13012KT 10SM FEW055 26/19 A3017 -140 66 1100 130/12 RMK AO2 T02560189
93915KAEX AEX20161102093010911/02/16 09:30:31  5-MIN KAEX 021530Z AUTO 13011KT 10SM CLR 26/19 A3017 -140 64 1200 130/11 RMK AO2 T02610189
93915KAEX AEX20161102093510911/02/16 09:35:31  5-MIN KAEX 021535Z AUTO 15013KT 10SM CLR 26/19 A3017 -140 66 1100 150/13 RMK AO2 T02560189
93915KAEX AEX20161102094010911/02/16 09:40:31  5-MIN KAEX 021540Z AUTO 15011KT 10SM CLR 26/19 A3017 -130 64 1200 140/11 RMK AO2 T02610189
93915KAEX AEX20161102094510911/02/16 09:45:31  5-MIN KAEX 021545Z AUTO 15010KT 10SM CLR 27/19 A3017 -140 62 1200 140/10 RMK AO2 T02670189
93915KAEX AEX20161102095011611/02/16 09:50:31  5-MIN KAEX 021550Z AUTO 14013KT 10SM CLR 27/19 A3017 -140 62 1200 140/13 RMK AO2 SLP220 T02670189
93915KAEX AEX20161102095510911/02/16 09:55:31  5-MIN KAEX 021555Z AUTO 15013KT 10SM CLR 27/19 A3017 -140 62 1200 150/13 RMK AO2 T02670189
93915KAEX AEX20161102100010911/02/16 10:00:31  5-MIN KAEX 021600Z AUTO 14015KT 10SM CLR 27/19 A3018 -140 62 1200 140/15 RMK AO2 T02670189
93915KAEX AEX20161102100510911/02/16 10:05:31  5-MIN KAEX 021605Z AUTO 14013KT 10SM CLR 27/18 A3018 -140 60 1200 140/13 RMK AO2 T02670183
93915KAEX AEX20161102101010911/02/16 10:10:31  5-MIN KAEX 021610Z AUTO 15013KT 10SM CLR 27/19 A3018 -140 62 1200 150/13 RMK AO2 T02670189
93915KAEX AEX20161102101511211/02/16 10:15:31  5-MIN KAEX 021615Z AUTO 14010KT 10SM FEW060 27/19 A3018 -140 60 1300 130/10 RMK AO2 T02720189
93915KAEX AEX20161102102011211/02/16 10:20:31  5-MIN KAEX 021620Z AUTO 13010KT 10SM FEW060 27/19 A3018 -140 62 1200 130/10 RMK AO2 T02670189
93915KAEX AEX20161102102511211/02/16 10:25:31  5-MIN KAEX 021625Z AUTO 14011KT 10SM SCT055 26/19 A3018 -140 64 1100 140/11 RMK AO2 T02610189
93915KAEX AEX20161102103011211/02/16 10:30:31  5-MIN KAEX 021630Z AUTO 14011KT 10SM BKN055 27/19 A3017 -140 62 1200 140/11 RMK AO2 T02670189
93915KAEX AEX20161102103511211/02/16 10:35:31  5-MIN KAEX 021635Z AUTO 15011KT 10SM BKN055 27/18 A3017 -140 60 1200 150/11 RMK AO2 T02670183
93915KAEX AEX20161102104011211/02/16 10:40:31  5-MIN KAEX 021640Z AUTO 16011KT 10SM BKN055 27/19 A3017 -140 60 1300 150/11 RMK AO2 T02720189
93915KAEX AEX20161102104511211/02/16 10:45:31  5-MIN KAEX 021645Z AUTO 13011KT 10SM BKN060 27/18 A3017 -130 58 1300 130/11 RMK AO2 T02720183
93915KAEX AEX20161102105011911/02/16 10:50:31  5-MIN KAEX 021650Z AUTO 16010KT 10SM BKN060 27/19 A3017 -140 60 1300 150/10 RMK AO2 SLP219 T02720189
93915KAEX AEX20161102105511211/02/16 10:55:31  5-MIN KAEX 021655Z AUTO 13010KT 10SM BKN060 27/19 A3017 -130 62 1200 130/10 RMK AO2 T02670189
93915KAEX AEX20161102110011911/02/16 11:00:31  5-MIN KAEX 021700Z AUTO 14012KT 10SM FEW032 BKN060 27/19 A3017 -130 60 1300 140/12 RMK AO2 T02720189
93915KAEX AEX20161102110511911/02/16 11:05:31  5-MIN KAEX 021705Z AUTO 14010KT 10SM FEW032 BKN060 28/19 A3017 -130 58 1300 140/10 RMK AO2 T02780189
93915KAEX AEX20161102111012511/02/16 11:10:31  5-MIN KAEX 021710Z AUTO 13011G17KT 10SM FEW031 BKN060 28/18 A3017 -130 54 1400 130/11G17 RMK AO2 T02830183
93915KAEX AEX20161102111512511/02/16 11:15:31  5-MIN KAEX 021715Z AUTO 12012G17KT 10SM FEW031 SCT060 28/18 A3016 -130 54 1400 120/12G17 RMK AO2 T02830183
93915KAEX AEX20161102112012511/02/16 11:20:31  5-MIN KAEX 021720Z AUTO 12011G18KT 10SM FEW031 SCT060 28/18 A3016 -120 54 1400 110/11G18 RMK AO2 T02830183
93915KAEX AEX20161102112511911/02/16 11:25:31  5-MIN KAEX 021725Z AUTO 13010KT 10SM FEW031 SCT060 28/18 A3016 -130 54 1400 130/10 RMK AO2 T02830183
93915KAEX AEX20161102113011211/02/16 11:30:31  5-MIN KAEX 021730Z AUTO 15010KT 10SM FEW060 28/18 A3016 -120 54 1400 150/10 RMK AO2 T02830183
93915KAEX AEX20161102113512511/02/16 11:35:31  5-MIN KAEX 021735Z AUTO 13009G16KT 10SM FEW034 SCT060 28/18 A3016 -120 56 1400 130/09G16 RMK AO2 T02780183
93915KAEX AEX20161102114011911/02/16 11:40:31  5-MIN KAEX 021740Z AUTO 13010KT 10SM SCT034 BKN060 28/18 A3015 -120 54 1400 120/10 RMK AO2 T02830183
93915KAEX AEX20161102114511911/02/16 11:45:31  5-MIN KAEX 021745Z AUTO 14010KT 10SM SCT034 BKN060 28/18 A3015 -120 54 1400 130/10 RMK AO2 T02830183
93915KAEX AEX20161102115013711/02/16 11:50:31  5-MIN KAEX 021750Z AUTO 12008KT 10SM SCT036 29/18 A3015 -110 52 1500 120/08 RMK AO2 SLP212 T02890183 10289 20189 53019
93915KAEX AEX20161102115511211/02/16 11:55:31  5-MIN KAEX 021755Z AUTO 14008KT 10SM SCT036 29/18 A3015 -110 52 1500 130/08 RMK AO2 T02890183
93915KAEX AEX20161102120011211/02/16 12:00:31  5-MIN KAEX 021800Z AUTO 16007KT 10SM BKN035 29/18 A3014 -110 52 1500 160/07 RMK AO2 T02890183
93915KAEX AEX20161102120511211/02/16 12:05:31  5-MIN KAEX 021805Z AUTO 14009KT 10SM BKN035 29/18 A3014 -110 52 1500 130/09 RMK AO2 T02890183
93915KAEX AEX20161102121011211/02/16 12:10:31  5-MIN KAEX 021810Z AUTO 12007KT 10SM SCT035 29/18 A3014 -110 52 1500 120/07 RMK AO2 T02890183
93915KAEX AEX20161102121511911/02/16 12:15:31  5-MIN KAEX 021815Z AUTO 15007KT 10SM FEW036 SCT060 29/18 A3014 -100 52 1500 150/07 RMK AO2 T02890183
93915KAEX AEX20161102122011911/02/16 12:20:31  5-MIN KAEX 021820Z AUTO 13009KT 10SM FEW036 BKN060 28/18 A3013 -100 52 1400 130/09 RMK AO2 T02830178
93915KAEX AEX20161102122511911/02/16 12:25:31  5-MIN KAEX 021825Z AUTO 14009KT 10SM FEW038 BKN060 29/18 A3013 -100 50 1500 140/09 RMK AO2 T02890178
93915KAEX AEX20161102123011811/02/16 12:30:31  5-MIN KAEX 021830Z AUTO 14010KT 10SM FEW038 SCT060 29/18 A3013 -90 49 1600 140/10 RMK AO2 T02940178
93915KAEX AEX20161102123511811/02/16 12:35:31  5-MIN KAEX 021835Z AUTO 11011KT 10SM FEW038 FEW060 29/18 A3013 -90 49 1600 110/11 RMK AO2 T02940178
93915KAEX AEX20161102124011111/02/16 12:40:31  5-MIN KAEX 021840Z AUTO 12009KT 10SM FEW060 28/18 A3012 -90 52 1500 120/09 RMK AO2 T02830178
93915KAEX AEX20161102124511811/02/16 12:45:31  5-MIN KAEX 021845Z AUTO 12010KT 10SM FEW038 SCT060 28/18 A3012 -90 52 1500 110/10 RMK AO2 T02830178
93915KAEX AEX20161102125011311/02/16 12:50:31  5-MIN KAEX 021850Z 12010KT 10SM SCT060 29/18 A3012 -90 49 1600 110/10 RMK AO2 SLP202 T02940178
93915KAEX AEX20161102125510611/02/16 12:55:31  5-MIN KAEX 021855Z 13008KT 10SM SCT060 29/18 A3012 -90 50 1500 130/08 RMK AO2 T02890178
93915KAEX AEX20161102130010611/02/16 13:00:31  5-MIN KAEX 021900Z 12009KT 10SM BKN060 29/18 A3012 -90 49 1600 120/09 RMK AO2 T02940178
93915KAEX AEX20161102130510611/02/16 13:05:31  5-MIN KAEX 021905Z 15010KT 10SM BKN060 29/18 A3012 -90 50 1500 150/10 RMK AO2 T02890178
93915KAEX AEX20161102131010611/02/16 13:10:31  5-MIN KAEX 021910Z 15010KT 10SM BKN060 29/18 A3012 -80 49 1600 150/10 RMK AO2 T02940178
93915KAEX AEX20161102131510611/02/16 13:15:31  5-MIN KAEX 021915Z 16008KT 10SM BKN060 29/18 A3011 -80 50 1500 150/08 RMK AO2 T02890178
93915KAEX AEX20161102132010611/02/16 13:20:31  5-MIN KAEX 021920Z 14011KT 10SM BKN060 30/18 A3011 -80 47 1700 140/11 RMK AO2 T03000178
93915KAEX AEX20161102132510611/02/16 13:25:31  5-MIN KAEX 021925Z 14009KT 10SM BKN060 29/18 A3011 -80 49 1600 130/09 RMK AO2 T02940178
93915KAEX AEX20161102133010611/02/16 13:30:31  5-MIN KAEX 021930Z 14009KT 10SM BKN060 29/18 A3011 -80 49 1600 140/09 RMK AO2 T02940178
93915KAEX AEX20161102133510611/02/16 13:35:31  5-MIN KAEX 021935Z 16010KT 10SM SCT060 29/18 A3011 -80 50 1500 150/10 RMK AO2 T02890178
93915KAEX AEX20161102134010611/02/16 13:40:31  5-MIN KAEX 021940Z 14007KT 10SM BKN060 29/18 A3011 -80 50 1500 140/07 RMK AO2 T02890178
93915KAEX AEX20161102134511311/02/16 13:45:31  5-MIN KAEX 021945Z 12009KT 10SM FEW044 BKN060 29/18 A3011 -80 50 1500 110/09 RMK AO2 T02890178
93915KAEX AEX20161102135012011/02/16 13:50:31  5-MIN KAEX 021950Z 11011KT 10SM SCT044 BKN060 29/18 A3011 -80 52 1500 110/11 RMK AO2 SLP198 T02890183
93915KAEX AEX20161102135511311/02/16 13:55:31  5-MIN KAEX 021955Z 11009KT 10SM SCT044 BKN060 28/18 A3011 -80 52 1500 110/09 RMK AO2 T02830178
93915KAEX AEX20161102140011311/02/16 14:00:31  5-MIN KAEX 022000Z 15009KT 10SM BKN044 BKN060 28/18 A3011 -80 52 1500 150/09 RMK AO2 T02830178
93915KAEX AEX20161102140511311/02/16 14:05:31  5-MIN KAEX 022005Z 12010KT 10SM BKN044 BKN065 28/18 A3011 -80 52 1500 120/10 RMK AO2 T02830178
93915KAEX AEX20161102141011311/02/16 14:10:31  5-MIN KAEX 022010Z 14007KT 10SM SCT044 BKN065 28/18 A3011 -80 52 1500 140/07 RMK AO2 T02830178
93915KAEX AEX20161102141511311/02/16 14:15:31  5-MIN KAEX 022015Z 11011KT 10SM SCT044 OVC065 28/18 A3011 -80 52 1500 110/11 RMK AO2 T02830178
93915KAEX AEX20161102142011311/02/16 14:20:31  5-MIN KAEX 022020Z 12008KT 10SM FEW044 OVC065 28/18 A3011 -70 52 1500 120/08 RMK AO2 T02830178
93915KAEX AEX20161102142511311/02/16 14:25:31  5-MIN KAEX 022025Z 12009KT 10SM FEW044 OVC065 28/18 A3011 -80 52 1500 120/09 RMK AO2 T02830178
93915KAEX AEX20161102143010611/02/16 14:30:31  5-MIN KAEX 022030Z 12008KT 10SM OVC065 28/18 A3011 -80 52 1500 120/08 RMK AO2 T02830178
93915KAEX AEX20161102143510611/02/16 14:35:31  5-MIN KAEX 022035Z 13010KT 10SM OVC065 28/18 A3011 -80 52 1500 130/10 RMK AO2 T02830178
93915KAEX AEX20161102144010611/02/16 14:40:31  5-MIN KAEX 022040Z 14008KT 10SM OVC060 28/18 A3011 -80 52 1500 140/08 RMK AO2 T02830178
93915KAEX AEX20161102144511311/02/16 14:45:31  5-MIN KAEX 022045Z 12010KT 10SM FEW050 OVC065 29/18 A3011 -80 52 1500 120/10 RMK AO2 T02890183
93915KAEX AEX20161102145012611/02/16 14:50:31  5-MIN KAEX 022050Z 13011KT 10SM FEW055 OVC070 29/18 A3011 -80 50 1500 130/11 RMK AO2 SLP199 T02890178 58008
93915KAEX AEX20161102145511311/02/16 14:55:31  5-MIN KAEX 022055Z 13009KT 10SM FEW055 OVC070 28/18 A3011 -80 52 1500 120/09 RMK AO2 T02830178
93915KAEX AEX20161102150011311/02/16 15:00:31  5-MIN KAEX 022100Z 12008KT 10SM FEW055 OVC070 28/18 A3011 -80 52 1500 120/08 RMK AO2 T02830178
93915KAEX AEX20161102150511311/02/16 15:05:31  5-MIN KAEX 022105Z 13010KT 10SM FEW050 OVC070 28/18 A3011 -80 52 1500 130/10 RMK AO2 T02830178
93915KAEX AEX20161102151010611/02/16 15:10:31  5-MIN KAEX 022110Z 13010KT 10SM OVC070 28/18 A3011 -80 52 1500 130/10 RMK AO2 T02830178
93915KAEX AEX20161102151510611/02/16 15:15:31  5-MIN KAEX 022115Z 14009KT 10SM OVC070 28/18 A3011 -80 52 1500 130/09 RMK AO2 T02830178
93915KAEX AEX20161102152010611/02/16 15:20:31  5-MIN KAEX 022120Z 14009KT 10SM OVC070 28/18 A3011 -80 52 1500 130/09 RMK AO2 T02830178
93915KAEX AEX20161102152510611/02/16 15:25:31  5-MIN KAEX 022125Z 14009KT 10SM OVC070 28/18 A3011 -80 52 1500 140/09 RMK AO2 T02830178
93915KAEX AEX20161102153010611/02/16 15:30:31  5-MIN KAEX 022130Z 13010KT 10SM OVC070 28/18 A3011 -80 52 1500 130/10 RMK AO2 T02830178
93915KAEX AEX20161102153510611/02/16 15:35:31  5-MIN KAEX 022135Z 13011KT 10SM OVC070 28/18 A3011 -80 52 1500 130/11 RMK AO2 T02830178
93915KAEX AEX20161102154011311/02/16 15:40:31  5-MIN KAEX 022140Z 12010KT 10SM FEW044 OVC070 28/18 A3012 -80 54 1400 120/10 RMK AO2 T02780178
93915KAEX AEX20161102154511311/02/16 15:45:31  5-MIN KAEX 022145Z 13008KT 10SM FEW044 OVC070 28/18 A3012 -80 54 1400 130/08 RMK AO2 T02780178
93915KAEX AEX20161102155012011/02/16 15:50:31  5-MIN KAEX 022150Z 13010KT 10SM FEW044 OVC070 28/18 A3012 -80 54 1400 120/10 RMK AO2 SLP200 T02780178
93915KAEX AEX20161102155511311/02/16 15:55:31  5-MIN KAEX 022155Z 13009KT 10SM FEW045 OVC070 28/18 A3012 -80 54 1400 130/09 RMK AO2 T02780178
93915KAEX AEX20161102160011311/02/16 16:00:31  5-MIN KAEX 022200Z 13010KT 10SM FEW045 OVC070 28/18 A3012 -80 54 1400 130/10 RMK AO2 T02780178
93915KAEX AEX20161102160511311/02/16 16:05:31  5-MIN KAEX 022205Z 14011KT 10SM FEW045 OVC070 28/18 A3012 -90 54 1400 130/11 RMK AO2 T02780178
93915KAEX AEX20161102161010611/02/16 16:10:31  5-MIN KAEX 022210Z 13011KT 10SM OVC070 28/18 A3012 -90 54 1400 130/11 RMK AO2 T02780178
93915KAEX AEX20161102161510611/02/16 16:15:31  5-MIN KAEX 022215Z 13009KT 10SM OVC075 28/18 A3012 -90 54 1400 130/09 RMK AO2 T02780178
93915KAEX AEX20161102162010611/02/16 16:20:31  5-MIN KAEX 022220Z 13009KT 10SM OVC075 28/18 A3012 -90 54 1400 130/09 RMK AO2 T02780178
93915KAEX AEX20161102162510611/02/16 16:25:31  5-MIN KAEX 022225Z 13010KT 10SM OVC075 28/18 A3012 -90 54 1400 130/10 RMK AO2 T02780178
93915KAEX AEX20161102163010611/02/16 16:30:31  5-MIN KAEX 022230Z 13010KT 10SM OVC075 28/18 A3012 -90 54 1400 130/10 RMK AO2 T02780178
93915KAEX AEX20161102163510611/02/16 16:35:31  5-MIN KAEX 022235Z 14008KT 10SM OVC075 28/18 A3012 -90 54 1400 130/08 RMK AO2 T02780178
93915KAEX AEX20161102164010611/02/16 16:40:31  5-MIN KAEX 022240Z 13008KT 10SM OVC075 28/18 A3013 -90 54 1400 130/08 RMK AO2 T02780178
93915KAEX AEX20161102164510611/02/16 16:45:31  5-MIN KAEX 022245Z 13010KT 10SM OVC075 27/18 A3013 -90 56 1300 120/10 RMK AO2 T02720178
93915KAEX AEX20161102165011411/02/16 16:50:31  5-MIN KAEX 022250Z 13007KT 10SM OVC075 27/18 A3013 -100 58 1300 130/07 RMK AO2 SLP205 T02720183
93915KAEX AEX20161102165510711/02/16 16:55:31  5-MIN KAEX 022255Z 13008KT 10SM OVC075 27/18 A3013 -100 58 1300 130/08 RMK AO2 T02720183
93915KAEX AEX20161102170010711/02/16 17:00:31  5-MIN KAEX 022300Z 14008KT 10SM OVC075 27/18 A3013 -100 58 1300 130/08 RMK AO2 T02720183
93915KAEX AEX20161102170510711/02/16 17:05:31  5-MIN KAEX 022305Z 15006KT 10SM OVC075 27/18 A3013 -100 60 1300 150/06 RMK AO2 T02670183
93915KAEX AEX20161102171010711/02/16 17:10:31  5-MIN KAEX 022310Z 14006KT 10SM OVC080 27/18 A3013 -100 60 1300 140/06 RMK AO2 T02670183
93915KAEX AEX20161102171510711/02/16 17:15:31  5-MIN KAEX 022315Z 15006KT 10SM OVC080 26/18 A3013 -100 62 1200 150/06 RMK AO2 T02610183
93915KAEX AEX20161102172010711/02/16 17:20:31  5-MIN KAEX 022320Z 15006KT 10SM OVC080 26/18 A3013 -100 64 1100 150/06 RMK AO2 T02560183
93915KAEX AEX20161102172510611/02/16 17:25:31  5-MIN KAEX 022325Z 16006KT 9SM OVC080 26/18 A3013 -100 62 1200 160/06 RMK AO2 T02610183
93915KAEX AEX20161102173010611/02/16 17:30:31  5-MIN KAEX 022330Z 16007KT 8SM OVC080 26/18 A3014 -100 62 1200 160/07 RMK AO2 T02610183
93915KAEX AEX20161102173510611/02/16 17:35:31  5-MIN KAEX 022335Z 16006KT 8SM OVC080 26/18 A3014 -100 62 1200 160/06 RMK AO2 T02610183
93915KAEX AEX20161102174010711/02/16 17:40:31  5-MIN KAEX 022340Z 16006KT 10SM OVC080 26/18 A3014 -110 64 1100 160/06 RMK AO2 T02560183
93915KAEX AEX20161102174510711/02/16 17:45:31  5-MIN KAEX 022345Z 16006KT 10SM OVC080 25/18 A3014 -110 66 1100 150/06 RMK AO2 T02500183
93915KAEX AEX20161102175013211/02/16 17:50:31  5-MIN KAEX 022350Z 15005KT 10SM OVC080 25/18 A3014 -110 66 1100 150/05 RMK AO2 SLP209 T02500183 10300 20250 55013
93915KAEX AEX20161102175510711/02/16 17:55:31  5-MIN KAEX 022355Z 15006KT 10SM BKN080 25/18 A3014 -110 66 1100 150/06 RMK AO2 T02500183
93915KAEX AEX20161102180010711/02/16 18:00:31  5-MIN KAEX 030000Z 15005KT 10SM BKN080 24/18 A3014 -110 68 1000 150/05 RMK AO2 T02440183
93915KAEX AEX20161102180510711/02/16 18:05:31  5-MIN KAEX 030005Z 15005KT 10SM BKN080 24/18 A3014 -110 68 1000 150/05 RMK AO2 T02440183
93915KAEX AEX20161102181010611/02/16 18:10:31  5-MIN KAEX 030010Z 15004KT 10SM BKN080 24/18 A3014 -110 71 900 140/04 RMK AO2 T02390183
93915KAEX AEX20161102181510611/02/16 18:15:31  5-MIN KAEX 030015Z 15004KT 10SM BKN080 24/18 A3015 -110 71 900 150/04 RMK AO2 T02390183
93915KAEX AEX20161102182010611/02/16 18:20:31  5-MIN KAEX 030020Z 14004KT 10SM BKN080 23/18 A3015 -110 73 900 140/04 RMK AO2 T02330183
93915KAEX AEX20161102182510611/02/16 18:25:31  5-MIN KAEX 030025Z 14004KT 10SM SCT080 24/19 A3015 -110 73 900 140/04 RMK AO2 T02390189
93915KAEX AEX20161102183010611/02/16 18:30:31  5-MIN KAEX 030030Z 13003KT 10SM FEW080 23/18 A3015 -110 73 900 130/03 RMK AO2 T02330183
93915KAEX AEX20161102183510611/02/16 18:35:31  5-MIN KAEX 030035Z 14003KT 10SM FEW080 23/18 A3015 -110 73 900 130/03 RMK AO2 T02330183
93915KAEX AEX20161102184010311/02/16 18:40:31  5-MIN KAEX 030040Z 14004KT 10SM CLR 23/18 A3015 -110 73 900 140/04 RMK AO2 T02330183
93915KAEX AEX20161102184510311/02/16 18:45:31  5-MIN KAEX 030045Z 13004KT 10SM CLR 23/18 A3015 -110 76 800 130/04 RMK AO2 T02280183
93915KAEX AEX20161102185011011/02/16 18:50:31  5-MIN KAEX 030050Z 14004KT 10SM CLR 23/18 A3015 -110 76 800 140/04 RMK AO2 SLP212 T02280183
93915KAEX AEX20161102185510311/02/16 18:55:31  5-MIN KAEX 030055Z 14004KT 10SM CLR 22/18 A3015 -110 78 700 140/04 RMK AO2 T02220183
93915KAEX AEX20161102190010311/02/16 19:00:31  5-MIN KAEX 030100Z 14005KT 10SM CLR 22/18 A3015 -120 78 700 130/05 RMK AO2 T02220183
93915KAEX AEX20161102190510311/02/16 19:05:31  5-MIN KAEX 030105Z 13005KT 10SM CLR 22/18 A3015 -110 81 700 130/05 RMK AO2 T02170183
93915KAEX AEX20161102191010311/02/16 19:10:31  5-MIN KAEX 030110Z 12004KT 10SM CLR 22/18 A3015 -110 81 700 120/04 RMK AO2 T02170183
93915KAEX AEX20161102191510311/02/16 19:15:31  5-MIN KAEX 030115Z 13005KT 10SM CLR 22/18 A3015 -110 81 700 130/05 RMK AO2 T02170183
93915KAEX AEX20161102192010311/02/16 19:20:31  5-MIN KAEX 030120Z 13005KT 10SM CLR 21/18 A3015 -120 84 600 130/05 RMK AO2 T02110183
93915KAEX AEX20161102192510311/02/16 19:25:31  5-MIN KAEX 030125Z 13004KT 10SM CLR 21/18 A3015 -110 84 600 130/04 RMK AO2 T02110183
93915KAEX AEX20161102193010311/02/16 19:30:31  5-MIN KAEX 030130Z 00000KT 10SM CLR 22/18 A3015 -120 81 700 000/00 RMK AO2 T02170183
93915KAEX AEX20161102193510311/02/16 19:35:31  5-MIN KAEX 030135Z 00000KT 10SM CLR 22/18 A3015 -120 78 700 000/00 RMK AO2 T02220183
93915KAEX AEX20161102194010311/02/16 19:40:31  5-MIN KAEX 030140Z 00000KT 10SM CLR 22/18 A3015 -120 81 700 000/00 RMK AO2 T02170183
93915KAEX AEX20161102194510311/02/16 19:45:31  5-MIN KAEX 030145Z 00000KT 10SM CLR 22/18 A3015 -120 81 700 000/00 RMK AO2 T02170183
93915KAEX AEX20161102195011011/02/16 19:50:31  5-MIN KAEX 030150Z 00000KT 10SM CLR 22/18 A3015 -120 78 700 000/00 RMK AO2 SLP213 T02220183
93915KAEX AEX20161102195510311/02/16 19:55:31  5-MIN KAEX 030155Z 00000KT 10SM CLR 22/19 A3015 -120 81 700 000/00 RMK AO2 T02220189
93915KAEX AEX20161102200010311/02/16 20:00:31  5-MIN KAEX 030200Z 00000KT 10SM CLR 22/19 A3015 -120 81 700 000/00 RMK AO2 T02220189
93915KAEX AEX20161102200510311/02/16 20:05:31  5-MIN KAEX 030205Z 00000KT 10SM CLR 22/19 A3016 -120 84 700 000/00 RMK AO2 T02170189
93915KAEX AEX20161102201010311/02/16 20:10:31  5-MIN KAEX 030210Z 00000KT 10SM CLR 22/19 A3016 -120 84 700 000/00 RMK AO2 T02170189
93915KAEX AEX20161102201510311/02/16 20:15:31  5-MIN KAEX 030215Z 00000KT 10SM CLR 22/19 A3016 -120 84 700 000/00 RMK AO2 T02170189
93915KAEX AEX20161102202010311/02/16 20:20:31  5-MIN KAEX 030220Z 00000KT 10SM CLR 21/19 A3016 -120 87 600 000/00 RMK AO2 T02110189
93915KAEX AEX20161102202510311/02/16 20:25:31  5-MIN KAEX 030225Z 00000KT 10SM CLR 22/19 A3016 -120 84 700 000/00 RMK AO2 T02170189
93915KAEX AEX20161102203010311/02/16 20:30:31  5-MIN KAEX 030230Z 00000KT 10SM CLR 22/19 A3016 -120 84 700 000/00 RMK AO2 T02170189
93915KAEX AEX20161102203510311/02/16 20:35:31  5-MIN KAEX 030235Z 00000KT 10SM CLR 22/19 A3016 -130 84 700 000/00 RMK AO2 T02170189
93915KAEX AEX20161102204010311/02/16 20:40:31  5-MIN KAEX 030240Z 00000KT 10SM CLR 21/19 A3016 -130 87 600 000/00 RMK AO2 T02110189
93915KAEX AEX20161102204510311/02/16 20:45:31  5-MIN KAEX 030245Z 00000KT 10SM CLR 21/19 A3016 -130 87 600 000/00 RMK AO2 T02110189
93915KAEX AEX20161102205011611/02/16 20:50:31  5-MIN KAEX 030250Z 00000KT 10SM CLR 21/18 A3017 -130 84 500 000/00 RMK AO2 SLP218 T02060178 53010
93915KAEX AEX20161102205510311/02/16 20:55:31  5-MIN KAEX 030255Z 00000KT 10SM CLR 21/17 A3017 -130 81 500 000/00 RMK AO2 T02060172
93915KAEX AEX20161102210010311/02/16 21:00:31  5-MIN KAEX 030300Z 00000KT 10SM CLR 21/17 A3016 -130 81 500 000/00 RMK AO2 T02060172
93915KAEX AEX20161102210510311/02/16 21:05:31  5-MIN KAEX 030305Z 00000KT 10SM CLR 21/18 A3016 -130 84 600 000/00 RMK AO2 T02110183
93915KAEX AEX20161102211010311/02/16 21:10:31  5-MIN KAEX 030310Z 00000KT 10SM CLR 21/19 A3016 -130 90 500 000/00 RMK AO2 T02060189
93915KAEX AEX20161102211510311/02/16 21:15:31  5-MIN KAEX 030315Z 00000KT 10SM CLR 21/19 A3016 -130 90 500 000/00 RMK AO2 T02060189
93915KAEX AEX20161102212010311/02/16 21:20:31  5-MIN KAEX 030320Z 12003KT 10SM CLR 21/19 A3016 -130 90 500 120/03 RMK AO2 T02060189
93915KAEX AEX20161102212510311/02/16 21:25:31  5-MIN KAEX 030325Z 12003KT 10SM CLR 21/19 A3016 -130 90 500 120/03 RMK AO2 T02060189
93915KAEX AEX20161102213010311/02/16 21:30:31  5-MIN KAEX 030330Z 00000KT 10SM CLR 21/19 A3016 -130 90 500 000/00 RMK AO2 T02060189
93915KAEX AEX20161102213510311/02/16 21:35:31  5-MIN KAEX 030335Z 00000KT 10SM CLR 21/19 A3016 -130 90 500 000/00 RMK AO2 T02060189
93915KAEX AEX20161102214010311/02/16 21:40:31  5-MIN KAEX 030340Z 00000KT 10SM CLR 21/19 A3017 -130 90 500 000/00 RMK AO2 T02060189
93915KAEX AEX20161102214510611/02/16 21:45:31  5-MIN KAEX 030345Z 00000KT 10SM FEW046 21/19 A3017 -130 90 500 000/00 RMK AO2 T02060189
93915KAEX AEX20161102215011311/02/16 21:50:31  5-MIN KAEX 030350Z 12003KT 10SM SCT046 20/19 A3017 -130 93 500 110/03 RMK AO2 SLP219 T02000189
93915KAEX AEX20161102215510611/02/16 21:55:31  5-MIN KAEX 030355Z 12004KT 10SM BKN046 21/19 A3017 -140 90 500 110/04 RMK AO2 T02060189
93915KAEX AEX20161102220010611/02/16 22:00:31  5-MIN KAEX 030400Z 11006KT 10SM BKN046 20/19 A3017 -130 93 500 100/06 RMK AO2 T02000189
93915KAEX AEX20161102220510611/02/16 22:05:31  5-MIN KAEX 030405Z 11004KT 10SM BKN046 21/19 A3017 -130 90 500 110/04 RMK AO2 T02060189
93915KAEX AEX20161102221010611/02/16 22:10:31  5-MIN KAEX 030410Z 12003KT 10SM BKN047 21/19 A3017 -130 87 600 120/03 RMK AO2 T02110189
93915KAEX AEX20161102221510611/02/16 22:15:31  5-MIN KAEX 030415Z 00000KT 10SM SCT047 21/19 A3017 -140 87 600 000/00 RMK AO2 T02110189
93915KAEX AEX20161102222010611/02/16 22:20:31  5-MIN KAEX 030420Z 00000KT 10SM FEW047 21/19 A3018 -140 87 600 000/00 RMK AO2 T02110189
93915KAEX AEX20161102222510611/02/16 22:25:31  5-MIN KAEX 030425Z 00000KT 10SM FEW047 21/19 A3018 -140 87 600 000/00 RMK AO2 T02110189
93915KAEX AEX20161102223010311/02/16 22:30:31  5-MIN KAEX 030430Z 00000KT 10SM CLR 21/19 A3018 -140 90 500 000/00 RMK AO2 T02060189
93915KAEX AEX20161102223510311/02/16 22:35:31  5-MIN KAEX 030435Z 00000KT 10SM CLR 21/18 A3018 -140 87 500 000/00 RMK AO2 T02060183
93915KAEX AEX20161102224010311/02/16 22:40:31  5-MIN KAEX 030440Z 00000KT 10SM CLR 21/18 A3018 -140 87 500 000/00 RMK AO2 T02060183
93915KAEX AEX20161102224510311/02/16 22:45:31  5-MIN KAEX 030445Z 00000KT 10SM CLR 21/19 A3018 -140 90 500 000/00 RMK AO2 T02060189
93915KAEX AEX20161102225011011/02/16 22:50:31  5-MIN KAEX 030450Z 00000KT 10SM CLR 20/19 A3018 -140 93 400 000/00 RMK AO2 SLP222 T02000189
93915KAEX AEX20161102225510311/02/16 22:55:31  5-MIN KAEX 030455Z 00000KT 10SM CLR 20/19 A3018 -140 93 400 000/00 RMK AO2 T02000189
93915KAEX AEX20161102230010311/02/16 23:00:31  5-MIN KAEX 030500Z 00000KT 10SM CLR 20/19 A3018 -140 93 400 000/00 RMK AO2 T02000189
93915KAEX AEX20161102230510311/02/16 23:05:31  5-MIN KAEX 030505Z 00000KT 10SM CLR 20/19 A3018 -140 93 400 000/00 RMK AO2 T02000189
93915KAEX AEX20161102231010311/02/16 23:10:31  5-MIN KAEX 030510Z 00000KT 10SM CLR 20/19 A3018 -140 93 400 000/00 RMK AO2 T02000189
93915KAEX AEX20161102231510311/02/16 23:15:31  5-MIN KAEX 030515Z 00000KT 10SM CLR 20/18 A3018 -140 90 400 000/00 RMK AO2 T02000183
93915KAEX AEX20161102232010311/02/16 23:20:31  5-MIN KAEX 030520Z 00000KT 10SM CLR 20/19 A3018 -140 93 400 000/00 RMK AO2 T02000189
93915KAEX AEX20161102232510311/02/16 23:25:31  5-MIN KAEX 030525Z 00000KT 10SM CLR 20/19 A3018 -140 93 400 000/00 RMK AO2 T02000189
93915KAEX AEX20161102233010311/02/16 23:30:31  5-MIN KAEX 030530Z 00000KT 10SM CLR 19/18 A3018 -140 93 400 000/00 RMK AO2 T01940183
93915KAEX AEX20161102233510311/02/16 23:35:31  5-MIN KAEX 030535Z 00000KT 10SM CLR 19/18 A3018 -140 93 400 000/00 RMK AO2 T01940183
93915KAEX AEX20161102234010311/02/16 23:40:31  5-MIN KAEX 030540Z 00000KT 10SM CLR 19/18 A3017 -140 93 400 000/00 RMK AO2 T01940183
93915KAEX AEX20161102234510311/02/16 23:45:31  5-MIN KAEX 030545Z 00000KT 10SM CLR 19/18 A3017 -140 93 400 000/00 RMK AO2 T01940183
93915KAEX AEX20161102235013811/02/16 23:50:31  5-MIN KAEX 030550Z 00000KT 10SM CLR 19/18 A3017 -140 97 300 000/00 RMK AO2 SLP220 T01890183 10250 20189 403000183 53008
93915KAEX AEX20161102235510311/02/16 23:55:31  5-MIN KAEX 030555Z 00000KT 10SM CLR 19/18 A3017 -140 93 400 000/00 RMK AO2 T01940183
93915KAEX AEX20161103000010311/03/16 00:00:31  5-MIN KAEX 030600Z 00000KT 10SM CLR 19/18 A3018 -140 97 300 000/00 RMK AO2 T01890183
93915KAEX AEX20161103000510311/03/16 00:05:31  5-MIN KAEX 030605Z 00000KT 10SM CLR 19/17 A3018 -140 90 300 000/00 RMK AO2 T01890172
93915KAEX AEX20161103001010311/03/16 00:10:31  5-MIN KAEX 030610Z 00000KT 10SM CLR 18/17 A3018 -140 93 200 000/00 RMK AO2 T01830172
93915KAEX AEX20161103001510311/03/16 00:15:31  5-MIN KAEX 030615Z 00000KT 10SM CLR 18/17 A3018 -140 93 200 000/00 RMK AO2 T01830172
93915KAEX AEX20161103002010211/03/16 00:20:31  5-MIN KAEX 030620Z 00000KT 9SM CLR 18/18 A3018 -140 96 300 000/00 RMK AO2 T01830178
93915KAEX AEX20161103002510311/03/16 00:25:31  5-MIN KAEX 030625Z 00000KT 10SM CLR 18/17 A3018 -140 93 300 000/00 RMK AO2 T01830172
93915KAEX AEX20161103003010311/03/16 00:30:31  5-MIN KAEX 030630Z 00000KT 10SM CLR 18/17 A3018 -140 90 300 000/00 RMK AO2 T01830167
93915KAEX AEX20161103003510311/03/16 00:35:31  5-MIN KAEX 030635Z 00000KT 10SM CLR 18/17 A3017 -140 93 300 000/00 RMK AO2 T01830172
93915KAEX AEX20161103004010311/03/16 00:40:31  5-MIN KAEX 030640Z 12003KT 10SM CLR 18/17 A3017 -140 93 300 120/03 RMK AO2 T01830172
93915KAEX AEX20161103004510311/03/16 00:45:31  5-MIN KAEX 030645Z 11003KT 10SM CLR 19/18 A3017 -130 93 300 110/03 RMK AO2 T01890178
93915KAEX AEX20161103005011011/03/16 00:50:31  5-MIN KAEX 030650Z 11003KT 10SM CLR 18/18 A3017 -130 96 300 100/03 RMK AO2 SLP219 T01830178
93915KAEX AEX20161103005510311/03/16 00:55:31  5-MIN KAEX 030655Z 12003KT 10SM CLR 18/18 A3017 -130 96 300 120/03 RMK AO2 T01830178
93915KAEX AEX20161103010010311/03/16 01:00:31  5-MIN KAEX 030700Z 13003KT 10SM CLR 19/18 A3017 -130 97 300 130/03 RMK AO2 T01890183
93915KAEX AEX20161103010510211/03/16 01:05:31  5-MIN KAEX 030705Z 00000KT 9SM CLR 18/18 A3017 -130 96 300 000/00 RMK AO2 T01830178
93915KAEX AEX20161103011010311/03/16 01:10:31  5-MIN KAEX 030710Z 00000KT 9SM CLR 18/18 A3017 -140 100 300 000/00 RMK AO2 T01830183
93915KAEX AEX20161103011510211/03/16 01:15:31  5-MIN KAEX 030715Z 00000KT 9SM CLR 19/18 A3017 -140 97 300 000/00 RMK AO2 T01890183
93915KAEX AEX20161103012010211/03/16 01:20:31  5-MIN KAEX 030720Z 00000KT 9SM CLR 19/18 A3017 -140 93 300 000/00 RMK AO2 T01890178
93915KAEX AEX20161103012510311/03/16 01:25:31  5-MIN KAEX 030725Z 00000KT 10SM CLR 19/18 A3017 -140 93 300 000/00 RMK AO2 T01890178
93915KAEX AEX20161103013010211/03/16 01:30:31  5-MIN KAEX 030730Z 00000KT 9SM CLR 19/18 A3017 -140 97 300 000/00 RMK AO2 T01890183
93915KAEX AEX20161103013510211/03/16 01:35:31  5-MIN KAEX 030735Z 00000KT 9SM CLR 19/18 A3017 -140 93 300 000/00 RMK AO2 T01890178
93915KAEX AEX20161103014010211/03/16 01:40:31  5-MIN KAEX 030740Z 00000KT 9SM CLR 19/18 A3018 -140 93 300 000/00 RMK AO2 T01890178
93915KAEX AEX20161103014510211/03/16 01:45:31  5-MIN KAEX 030745Z 00000KT 9SM CLR 19/18 A3018 -140 97 300 000/00 RMK AO2 T01890183
93915KAEX AEX20161103015010911/03/16 01:50:31  5-MIN KAEX 030750Z 00000KT 9SM CLR 19/18 A3018 -140 97 300 000/00 RMK AO2 SLP222 T01890183
93915KAEX AEX20161103015510211/03/16 01:55:31  5-MIN KAEX 030755Z 00000KT 9SM CLR 18/18 A3018 -140 96 300 000/00 RMK AO2 T01830178
93915KAEX AEX20161103020010211/03/16 02:00:31  5-MIN KAEX 030800Z 00000KT 9SM CLR 19/18 A3017 -140 93 300 000/00 RMK AO2 T01890178
93915KAEX AEX20161103020510211/03/16 02:05:31  5-MIN KAEX 030805Z 00000KT 9SM CLR 19/18 A3018 -140 97 300 000/00 RMK AO2 T01890183
93915KAEX AEX20161103021010311/03/16 02:10:31  5-MIN KAEX 030810Z 00000KT 9SM CLR 18/18 A3018 -140 100 300 000/00 RMK AO2 T01830183
93915KAEX AEX20161103021510211/03/16 02:15:31  5-MIN KAEX 030815Z 00000KT 9SM CLR 18/18 A3017 -140 96 300 000/00 RMK AO2 T01830178
93915KAEX AEX20161103022010211/03/16 02:20:31  5-MIN KAEX 030820Z 00000KT 8SM CLR 18/18 A3017 -140 96 300 000/00 RMK AO2 T01830178
93915KAEX AEX20161103022510211/03/16 02:25:31  5-MIN KAEX 030825Z 00000KT 8SM CLR 18/18 A3017 -140 96 300 000/00 RMK AO2 T01830178
93915KAEX AEX20161103023010211/03/16 02:30:31  5-MIN KAEX 030830Z 00000KT 9SM CLR 19/18 A3017 -140 97 300 000/00 RMK AO2 T01890183
93915KAEX AEX20161103023510211/03/16 02:35:31  5-MIN KAEX 030835Z 00000KT 9SM CLR 18/17 A3017 -140 96 200 000/00 RMK AO2 T01780172
93915KAEX AEX20161103024010211/03/16 02:40:31  5-MIN KAEX 030840Z 00000KT 9SM CLR 17/17 A3018 -140 96 100 000/00 RMK AO2 T01720167
93915KAEX AEX20161103024510211/03/16 02:45:31  5-MIN KAEX 030845Z 00000KT 9SM CLR 18/18 A3018 -140 96 300 000/00 RMK AO2 T01830178
93915KAEX AEX20161103025011511/03/16 02:50:31  5-MIN KAEX 030850Z 00000KT 8SM CLR 18/18 A3018 -140 96 300 000/00 RMK AO2 SLP221 T01830178 50002
93915KAEX AEX20161103025510311/03/16 02:55:31  5-MIN KAEX 030855Z 00000KT 8SM CLR 18/18 A3018 -140 100 200 000/00 RMK AO2 T01780178
93915KAEX AEX20161103030010311/03/16 03:00:31  5-MIN KAEX 030900Z 15003KT 8SM CLR 18/18 A3017 -140 100 200 150/03 RMK AO2 T01780178
93915KAEX AEX20161103030510211/03/16 03:05:31  5-MIN KAEX 030905Z 00000KT 9SM CLR 17/17 A3017 -140 96 100 000/00 RMK AO2 T01720167
93915KAEX AEX20161103031010211/03/16 03:10:31  5-MIN KAEX 030910Z 00000KT 9SM CLR 17/16 A3017 -140 93 100 000/00 RMK AO2 T01670156
93915KAEX AEX20161103031510111/03/16 03:15:31  5-MIN KAEX 030915Z 00000KT 10SM CLR 16/14 A3018 -140 90 0 000/00 RMK AO2 T01610144
93915KAEX AEX20161103032010311/03/16 03:20:31  5-MIN KAEX 030920Z 00000KT 10SM CLR 17/15 A3018 -140 90 100 000/00 RMK AO2 T01670150
93915KAEX AEX20161103032510811/03/16 03:25:31  5-MIN KAEX 030925Z AUTO 00000KT 10SM CLR 17/14 A3018 -140 83 100 000/00 RMK AO2 T01670139
93915KAEX AEX20161103033010611/03/16 03:30:31  5-MIN KAEX 030930Z AUTO 00000KT 10SM CLR 16/14 A3018 -140 86 0 000/00 RMK AO2 T01610139
93915KAEX AEX20161103033510811/03/16 03:35:31  5-MIN KAEX 030935Z AUTO 00000KT 10SM CLR 17/14 A3018 -140 83 100 000/00 RMK AO2 T01670139
93915KAEX AEX20161103034010811/03/16 03:40:31  5-MIN KAEX 030940Z AUTO 00000KT 10SM CLR 17/14 A3017 -140 83 100 000/00 RMK AO2 T01670139
93915KAEX AEX20161103034510811/03/16 03:45:31  5-MIN KAEX 030945Z AUTO 00000KT 10SM CLR 17/14 A3017 -140 86 100 000/00 RMK AO2 T01670144
93915KAEX AEX20161103035011511/03/16 03:50:31  5-MIN KAEX 030950Z AUTO 32003KT 10SM CLR 17/14 A3017 -140 83 100 320/03 RMK AO2 SLP221 T01670139
93915KAEX AEX20161103035510911/03/16 03:55:31  5-MIN KAEX 030955Z AUTO 00000KT 10SM FEW015 16/14 A3017 -140 90 0 000/00 RMK AO2 T01610144
93915KAEX AEX20161103040011111/03/16 04:00:31  5-MIN KAEX 031000Z AUTO 00000KT 10SM FEW015 17/14 A3017 -140 86 100 000/00 RMK AO2 T01670144
93915KAEX AEX20161103040510811/03/16 04:05:31  5-MIN KAEX 031005Z AUTO 00000KT 10SM CLR 17/15 A3017 -140 90 100 000/00 RMK AO2 T01670150
93915KAEX AEX20161103041010711/03/16 04:10:31  5-MIN KAEX 031010Z AUTO 00000KT 9SM CLR 17/16 A3017 -130 90 100 000/00 RMK AO2 T01720156
93915KAEX AEX20161103041510711/03/16 04:15:31  5-MIN KAEX 031015Z AUTO 00000KT 9SM CLR 17/16 A3017 -130 93 100 000/00 RMK AO2 T01720161
93915KAEX AEX20161103042010711/03/16 04:20:31  5-MIN KAEX 031020Z AUTO 12003KT 9SM CLR 17/16 A3016 -130 93 100 120/03 RMK AO2 T01720161
93915KAEX AEX20161103042510911/03/16 04:25:31  5-MIN KAEX 031025Z AUTO 13003KT 10SM CLR 17/17 A3017 -130 100 100 120/03 RMK AO2 T01670167
93915KAEX AEX20161103043010211/03/16 04:30:31  5-MIN KAEX 031030Z 11003KT 9SM CLR 17/16 A3017 -130 96 100 110/03 RMK AO2 T01670161
93915KAEX AEX20161103043510211/03/16 04:35:31  5-MIN KAEX 031035Z 00000KT 9SM CLR 17/16 A3017 -140 96 100 000/00 RMK AO2 T01670161
93915KAEX AEX20161103044010011/03/16 04:40:31  5-MIN KAEX 031040Z 00000KT 9SM CLR 16/16 A3017 -140 96 0 000/00 RMK AO2 T01610156
93915KAEX AEX20161103044510011/03/16 04:45:31  5-MIN KAEX 031045Z 00000KT 9SM CLR 16/15 A3018 -140 93 0 000/00 RMK AO2 T01610150
93915KAEX AEX20161103045010811/03/16 04:50:31  5-MIN KAEX 031050Z 00000KT 10SM CLR 16/14 A3018 -140 90 0 000/00 RMK AO2 SLP221 T01560139
93915KAEX AEX20161103045510111/03/16 04:55:31  5-MIN KAEX 031055Z 00000KT 10SM CLR 16/14 A3017 -140 90 0 000/00 RMK AO2 T01560139
93915KAEX AEX20161103050010111/03/16 05:00:31  5-MIN KAEX 031100Z 00000KT 10SM CLR 16/14 A3018 -140 90 0 000/00 RMK AO2 T01560139
93915KAEX AEX20161103050510111/03/16 05:05:31  5-MIN KAEX 031105Z 00000KT 10SM CLR 16/14 A3018 -140 90 0 000/00 RMK AO2 T01560139
93915KAEX AEX20161103051010111/03/16 05:10:31  5-MIN KAEX 031110Z 00000KT 10SM CLR 16/15 A3018 -140 93 0 000/00 RMK AO2 T01610150
93915KAEX AEX20161103051510011/03/16 05:15:31  5-MIN KAEX 031115Z 00000KT 8SM CLR 16/16 A3018 -150 96 0 000/00 RMK AO2 T01610156
93915KAEX AEX20161103052010211/03/16 05:20:31  5-MIN KAEX 031120Z 00000KT 8SM CLR 17/16 A3018 -150 93 100 000/00 RMK AO2 T01670156
93915KAEX AEX20161103052510211/03/16 05:25:31  5-MIN KAEX 031125Z 00000KT 8SM CLR 17/16 A3018 -140 93 100 000/00 RMK AO2 T01670156
93915KAEX AEX20161103053010211/03/16 05:30:31  5-MIN KAEX 031130Z 11003KT 8SM CLR 17/16 A3018 -140 96 100 110/03 RMK AO2 T01670161
93915KAEX AEX20161103053510211/03/16 05:35:31  5-MIN KAEX 031135Z 12003KT 8SM CLR 17/16 A3018 -140 96 100 110/03 RMK AO2 T01670161
93915KAEX AEX20161103054010111/03/16 05:40:31  5-MIN KAEX 031140Z 00000KT 8SM CLR 16/16 A3018 -150 100 0 000/00 RMK AO2 T01610161
93915KAEX AEX20161103054510111/03/16 05:45:31  5-MIN KAEX 031145Z 00000KT 7SM CLR 16/16 A3018 -150 100 0 000/00 RMK AO2 T01610161
93915KAEX AEX20161103055012811/03/16 05:50:31  5-MIN KAEX 031150Z 00000KT 8SM CLR 15/14 A3018 -150 96 -100 000/00 RMK AO2 SLP224 T01500144 10194 20150 53001
93915KAEX AEX20161103055510311/03/16 05:55:31  5-MIN KAEX 031155Z 00000KT 9SM CLR 15/13 A3018 -140 86 -100 000/00 RMK AO2 T01500128
93915KAEX AEX20161103060010111/03/16 06:00:31  5-MIN KAEX 031200Z 00000KT 10SM CLR 16/13 A3018 -150 83 0 000/00 RMK AO2 T01560128
93915KAEX AEX20161103060510011/03/16 06:05:31  5-MIN KAEX 031205Z 00000KT 9SM CLR 16/14 A3018 -150 86 0 000/00 RMK AO2 T01610139
93915KAEX AEX20161103061010311/03/16 06:10:31  5-MIN KAEX 031210Z 00000KT 5SM BR CLR 16/14 A3019 -150 90 0 000/00 RMK AO2 T01610144
93915KAEX AEX20161103061510311/03/16 06:15:31  5-MIN KAEX 031215Z 00000KT 5SM BR CLR 16/15 A3019 -150 93 0 000/00 RMK AO2 T01610150
93915KAEX AEX20161103062010011/03/16 06:20:31  5-MIN KAEX 031220Z 00000KT 8SM CLR 16/15 A3019 -150 96 0 000/00 RMK AO2 T01560150
93915KAEX AEX20161103062510311/03/16 06:25:31  5-MIN KAEX 031225Z 00000KT 6SM BR CLR 16/15 A3019 -150 96 0 000/00 RMK AO2 T01560150
93915KAEX AEX20161103063010811/03/16 06:30:31  5-MIN KAEX 031230Z 00000KT 1 1/4SM BR CLR 16/16 A3019 -160 100 0 000/00 RMK AO2 T01560156
93915KAEX AEX20161104035011011/04/16 03:50:31  5-MIN KAEX 040950Z 00000KT 10SM CLR 19/17 A3016 -130 87 400 000/00 RMK AO2 SLP217 T01940172
93915KAEX AEX20161104035510311/04/16 03:55:31  5-MIN KAEX 040955Z 00000KT 10SM CLR 19/17 A3016 -130 87 400 000/00 RMK AO2 T01940172
93915KAEX AEX20161104040010311/04/16 04:00:31  5-MIN KAEX 041000Z 00000KT 10SM CLR 19/17 A3017 -130 87 400 000/00 RMK AO2 T01940172
93915KAEX AEX20161104040510311/04/16 04:05:31  5-MIN KAEX 041005Z 00000KT 10SM CLR 19/17 A3017 -130 90 300 000/00 RMK AO2 T01890172
93915KAEX AEX20161104041010311/04/16 04:10:31  5-MIN KAEX 041010Z 00000KT 10SM CLR 19/17 A3016 -130 90 300 000/00 RMK AO2 T01890172
93915KAEX AEX20161104041510311/04/16 04:15:31  5-MIN KAEX 041015Z 00000KT 10SM CLR 19/17 A3016 -130 90 300 000/00 RMK AO2 T01890172
93915KAEX AEX20161104042010311/04/16 04:20:31  5-MIN KAEX 041020Z 00000KT 10SM CLR 18/17 A3016 -130 93 300 000/00 RMK AO2 T01830172
93915KAEX AEX20161104042510311/04/16 04:25:31  5-MIN KAEX 041025Z 00000KT 10SM CLR 18/17 A3017 -130 93 300 000/00 RMK AO2 T01830172
93915KAEX AEX20161104043010311/04/16 04:30:31  5-MIN KAEX 041030Z 00000KT 10SM CLR 18/17 A3017 -130 93 300 000/00 RMK AO2 T01830172
93915KAEX AEX20161104043510211/04/16 04:35:31  5-MIN KAEX 041035Z 00000KT 9SM CLR 18/17 A3017 -130 93 300 000/00 RMK AO2 T01830172
93915KAEX AEX20161104044010211/04/16 04:40:31  5-MIN KAEX 041040Z 00000KT 9SM CLR 18/17 A3017 -130 93 300 000/00 RMK AO2 T01830172
93915KAEX AEX20161104044510211/04/16 04:45:31  5-MIN KAEX 041045Z 00000KT 9SM CLR 18/17 A3017 -130 93 300 000/00 RMK AO2 T01830172
93915KAEX AEX20161104045010811/04/16 04:50:31  5-MIN KAEX 041050Z AUTO 00000KT 18/17 A3017 -130 93 300 000/00 RMK AO2 SLP219 T01830172 $
93915KAEX AEX20161104045510111/04/16 04:55:31  5-MIN KAEX 041055Z AUTO 00000KT 18/17 A3017 -140 93 300 000/00 RMK AO2 T01830172 $
93915KAEX AEX20161104050010011/04/16 05:00:31  5-MIN KAEX 041100Z 00000KT 9SM 18/17 A3017 -140 93 300 000/00 RMK AO2 T01830172 $
93915KAEX AEX20161104050510011/04/16 05:05:31  5-MIN KAEX 041105Z 00000KT 9SM 18/17 A3017 -140 90 300 000/00 RMK AO2 T01830167 $
93915KAEX AEX20161104051010011/04/16 05:10:31  5-MIN KAEX 041110Z 00000KT 9SM 18/17 A3017 -140 93 200 000/00 RMK AO2 T01780167 $
93915KAEX AEX20161104051510011/04/16 05:15:31  5-MIN KAEX 041115Z 00000KT 9SM 18/16 A3017 -140 90 200 000/00 RMK AO2 T01780161 $
93915KAEX AEX20161104052010411/04/16 05:20:31  5-MIN KAEX 041120Z 00000KT 9SM CLR 18/17 A3017 -140 93 200 000/00 RMK AO2 T01780167 $
93915KAEX AEX20161104052510411/04/16 05:25:31  5-MIN KAEX 041125Z 00000KT 8SM CLR 18/17 A3018 -140 93 200 000/00 RMK AO2 T01780167 $
93915KAEX AEX20161104053010411/04/16 05:30:31  5-MIN KAEX 041130Z 00000KT 8SM CLR 18/17 A3018 -140 93 200 000/00 RMK AO2 T01780167 $
93915KAEX AEX20161104053510411/04/16 05:35:31  5-MIN KAEX 041135Z 00000KT 8SM CLR 17/17 A3018 -140 96 100 000/00 RMK AO2 T01720167 $
93915KAEX AEX20161104054010411/04/16 05:40:31  5-MIN KAEX 041140Z 00000KT 8SM CLR 17/17 A3018 -150 96 100 000/00 RMK AO2 T01720167 $
93915KAEX AEX20161104054511411/04/16 05:45:31  5-MIN KAEX 041145Z 00000KT 7SM FEW050 SCT060 17/17 A3018 -150 96 100 000/00 RMK AO2 T01720167 $
93915KAEX AEX20161104055013311/04/16 05:50:31  5-MIN KAEX 041150Z 00000KT 8SM FEW050 BKN060 17/17 A3019 -150 96 100 000/00 RMK AO2 SLP226 T01720167 10206 20172 $
93915KAEX AEX20161104055511411/04/16 05:55:31  5-MIN KAEX 041155Z 01003KT 8SM FEW049 SCT060 17/17 A3019 -150 96 100 010/03 RMK AO2 T01720167 $
93915KAEX AEX20161104060011411/04/16 06:00:31  5-MIN KAEX 041200Z 00000KT 9SM FEW049 SCT060 18/17 A3019 -150 93 200 000/00 RMK AO2 T01780167 $
93915KAEX AEX20161104060511411/04/16 06:05:31  5-MIN KAEX 041205Z 00000KT 9SM FEW049 SCT060 18/17 A3019 -150 93 200 000/00 RMK AO2 T01780167 $
93915KAEX AEX20161104061011211/04/16 06:10:31  5-MIN KAEX 041210Z 00000KT 7SM FEW049 SCT060 18/17 A3019 -150 93 200 000/00 RMK AO2 T01780167
93915KAEX AEX20161104061510511/04/16 06:15:31  5-MIN KAEX 041215Z 00000KT 7SM FEW060 17/15 A3019 -160 87 100 000/00 RMK AO2 T01720150
93915KAEX AEX20161104062010311/04/16 06:20:31  5-MIN KAEX 041220Z 00000KT 10SM CLR 17/14 A3020 -160 83 100 000/00 RMK AO2 T01720144
93915KAEX AEX20161104062510311/04/16 06:25:31  5-MIN KAEX 041225Z 00000KT 10SM CLR 17/14 A3020 -160 83 100 000/00 RMK AO2 T01720144
93915KAEX AEX20161104063010311/04/16 06:30:31  5-MIN KAEX 041230Z 00000KT 10SM CLR 17/14 A3020 -160 83 100 000/00 RMK AO2 T01720144
93915KAEX AEX20161104063510511/04/16 06:35:31  5-MIN KAEX 041235Z 00000KT 9SM FEW060 17/15 A3020 -160 87 100 000/00 RMK AO2 T01720150
93915KAEX AEX20161104064010511/04/16 06:40:31  5-MIN KAEX 041240Z 00000KT 8SM SCT060 17/15 A3020 -160 87 100 000/00 RMK AO2 T01720150
93915KAEX AEX20161104064510511/04/16 06:45:31  5-MIN KAEX 041245Z 00000KT 9SM SCT060 17/15 A3020 -170 87 100 000/00 RMK AO2 T01720150
93915KAEX AEX20161104065011211/04/16 06:50:31  5-MIN KAEX 041250Z 00000KT 9SM BKN060 17/15 A3021 -170 87 100 000/00 RMK AO2 SLP232 T01720150
93915KAEX AEX20161104065510511/04/16 06:55:31  5-MIN KAEX 041255Z 00000KT 8SM BKN060 18/16 A3021 -170 90 200 000/00 RMK AO2 T01780161
93915KAEX AEX20161104070010511/04/16 07:00:31  5-MIN KAEX 041300Z 00000KT 8SM BKN060 18/16 A3021 -170 90 200 000/00 RMK AO2 T01780161
93915KAEX AEX20161104070510511/04/16 07:05:31  5-MIN KAEX 041305Z 00000KT 8SM BKN060 18/16 A3021 -170 90 100 000/00 RMK AO2 T01780161
93915KAEX AEX20161104071010511/04/16 07:10:31  5-MIN KAEX 041310Z 00000KT 8SM BKN060 18/17 A3021 -170 90 200 000/00 RMK AO2 T01830167
93915KAEX AEX20161104071510511/04/16 07:15:31  5-MIN KAEX 041315Z 00000KT 8SM BKN060 18/16 A3021 -170 90 100 000/00 RMK AO2 T01780161
93915KAEX AEX20161104072010811/04/16 07:20:31  5-MIN KAEX 041320Z 00000KT 4SM HZ BKN060 18/16 A3021 -170 84 200 000/00 RMK AO2 T01830156
93915KAEX AEX20161104072510811/04/16 07:25:31  5-MIN KAEX 041325Z 00000KT 4SM HZ BKN060 19/16 A3022 -180 81 300 000/00 RMK AO2 T01890156
93915KAEX AEX20161104073010811/04/16 07:30:31  5-MIN KAEX 041330Z 00000KT 5SM HZ SCT060 19/16 A3022 -180 84 300 000/00 RMK AO2 T01890161
93915KAEX AEX20161104073510811/04/16 07:35:31  5-MIN KAEX 041335Z 00000KT 6SM HZ FEW060 19/17 A3022 -180 84 300 000/00 RMK AO2 T01940167
93915KAEX AEX20161104074010511/04/16 07:40:31  5-MIN KAEX 041340Z 00000KT 7SM FEW060 19/17 A3022 -180 84 300 000/00 RMK AO2 T01940167
93915KAEX AEX20161104074510511/04/16 07:45:31  5-MIN KAEX 041345Z 00000KT 6SM HZ CLR 20/17 A3022 -180 81 400 000/00 RMK AO2 T02000167
93915KAEX AEX20161104075010911/04/16 07:50:31  5-MIN KAEX 041350Z 00000KT 7SM CLR 20/17 A3022 -180 84 400 000/00 RMK AO2 SLP237 T02000172
93915KAEX AEX20161104075510211/04/16 07:55:31  5-MIN KAEX 041355Z 00000KT 8SM CLR 21/18 A3022 -180 84 500 000/00 RMK AO2 T02060178
93915KAEX AEX20161104080010211/04/16 08:00:31  5-MIN KAEX 041400Z 00000KT 8SM CLR 21/18 A3022 -180 81 500 000/00 RMK AO2 T02110178
93915KAEX AEX20161104080510211/04/16 08:05:31  5-MIN KAEX 041405Z 00000KT 9SM CLR 21/17 A3022 -180 78 500 000/00 RMK AO2 T02110172
93915KAEX AEX20161104081010211/04/16 08:10:31  5-MIN KAEX 041410Z 00000KT 8SM CLR 22/18 A3023 -180 78 600 000/00 RMK AO2 T02170178
93915KAEX AEX20161104081510211/04/16 08:15:31  5-MIN KAEX 041415Z 00000KT 7SM CLR 22/18 A3023 -190 78 600 000/00 RMK AO2 T02170178
93915KAEX AEX20161104082010211/04/16 08:20:31  5-MIN KAEX 041420Z 00000KT 7SM CLR 22/18 A3023 -190 78 600 000/00 RMK AO2 T02170178
93915KAEX AEX20161104082510211/04/16 08:25:31  5-MIN KAEX 041425Z 00000KT 8SM CLR 22/18 A3023 -190 75 600 000/00 RMK AO2 T02220178
93915KAEX AEX20161104083010211/04/16 08:30:31  5-MIN KAEX 041430Z 06003KT 8SM CLR 23/18 A3023 -190 73 700 050/03 RMK AO2 T02280178
93915KAEX AEX20161104083510211/04/16 08:35:31  5-MIN KAEX 041435Z 02004KT 8SM CLR 23/18 A3023 -190 70 800 020/04 RMK AO2 T02330178
93915KAEX AEX20161104084010211/04/16 08:40:31  5-MIN KAEX 041440Z 05004KT 8SM CLR 23/18 A3023 -190 70 800 050/04 RMK AO2 T02330178
93915KAEX AEX20161104084510211/04/16 08:45:31  5-MIN KAEX 041445Z 04006KT 8SM CLR 23/18 A3023 -190 70 800 040/06 RMK AO2 T02330178
93915KAEX AEX20161104085010911/04/16 08:50:31  5-MIN KAEX 041450Z 06004KT 9SM CLR 24/18 A3023 -190 71 800 060/04 RMK AO2 SLP240 T02390183
93915KAEX AEX20161104085510211/04/16 08:55:31  5-MIN KAEX 041455Z 06004KT 9SM CLR 24/18 A3024 -190 71 800 060/04 RMK AO2 T02390183
93915KAEX AEX20161104090010211/04/16 09:00:31  5-MIN KAEX 041500Z 07008KT 9SM CLR 24/18 A3023 -190 71 800 070/08 RMK AO2 T02390183
93915KAEX AEX20161104090510211/04/16 09:05:31  5-MIN KAEX 041505Z 06007KT 9SM CLR 24/18 A3023 -190 71 800 060/07 RMK AO2 T02390183
93915KAEX AEX20161104091010211/04/16 09:10:31  5-MIN KAEX 041510Z 06007KT 9SM CLR 24/18 A3024 -190 71 800 060/07 RMK AO2 T02390183
93915KAEX AEX20161104091510211/04/16 09:15:31  5-MIN KAEX 041515Z 06007KT 9SM CLR 24/19 A3024 -190 71 900 060/07 RMK AO2 T02440189
93915KAEX AEX20161104092010211/04/16 09:20:31  5-MIN KAEX 041520Z 05006KT 9SM CLR 24/19 A3024 -190 71 900 050/06 RMK AO2 T02440189
93915KAEX AEX20161104092510311/04/16 09:25:31  5-MIN KAEX 041525Z 06006KT 9SM CLR 25/19 A3024 -190 68 1000 060/06 RMK AO2 T02500189
93915KAEX AEX20161104093010311/04/16 09:30:31  5-MIN KAEX 041530Z 06006KT 9SM CLR 26/19 A3024 -190 66 1000 060/06 RMK AO2 T02560189
93915KAEX AEX20161104093510311/04/16 09:35:31  5-MIN KAEX 041535Z 08005KT 9SM CLR 26/19 A3024 -200 66 1000 080/05 RMK AO2 T02560189
93915KAEX AEX20161104094010311/04/16 09:40:31  5-MIN KAEX 041540Z 07006KT 9SM CLR 25/19 A3024 -200 68 1000 070/06 RMK AO2 T02500189
93915KAEX AEX20161104094510311/04/16 09:45:31  5-MIN KAEX 041545Z 05005KT 9SM CLR 26/19 A3024 -200 68 1000 040/05 RMK AO2 T02560194
93915KAEX AEX20161104095011011/04/16 09:50:31  5-MIN KAEX 041550Z 10005KT 9SM CLR 26/19 A3024 -200 66 1100 100/05 RMK AO2 SLP242 T02610194
93915KAEX AEX20161104095510311/04/16 09:55:31  5-MIN KAEX 041555Z 11005KT 9SM CLR 26/19 A3024 -200 66 1100 110/05 RMK AO2 T02610194
93915KAEX AEX20161104100010411/04/16 10:00:31  5-MIN KAEX 041600Z 00000KT 10SM CLR 26/19 A3024 -200 66 1100 000/00 RMK AO2 T02610194
93915KAEX AEX20161104100509411/04/16 10:05:31  5-MIN KAEX 041605Z 10SM CLR 26/19 A3024 -190 66 1100 M /M RMK AO2 T02610194
93915KAEX AEX20161104101010411/04/16 10:10:31  5-MIN KAEX 041610Z 00000KT 10SM CLR 27/19 A3024 -190 64 1100 000/00 RMK AO2 T02670194
93915KAEX AEX20161104101510411/04/16 10:15:31  5-MIN KAEX 041615Z VRB04KT 10SM CLR 27/19 A3023 -190 64 1100 VRB/04 RMK AO2 T02670194
93915KAEX AEX20161104102010411/04/16 10:20:31  5-MIN KAEX 041620Z VRB03KT 10SM CLR 27/19 A3023 -190 62 1200 VRB/03 RMK AO2 T02720194
93915KAEX AEX20161104102510411/04/16 10:25:31  5-MIN KAEX 041625Z 09006KT 10SM CLR 27/19 A3023 -190 62 1200 090/06 RMK AO2 T02720194
93915KAEX AEX20161104103010711/04/16 10:30:31  5-MIN KAEX 041630Z 08005KT 10SM FEW110 27/19 A3023 -190 62 1200 080/05 RMK AO2 T02720194
93915KAEX AEX20161104103510711/04/16 10:35:31  5-MIN KAEX 041635Z VRB03KT 10SM FEW110 27/19 A3023 -190 62 1200 VRB/03 RMK AO2 T02720194
93915KAEX AEX20161104104010711/04/16 10:40:31  5-MIN KAEX 041640Z 07004KT 10SM FEW110 27/19 A3023 -190 60 1200 070/04 RMK AO2 T02720189
93915KAEX AEX20161104104510711/04/16 10:45:31  5-MIN KAEX 041645Z 09003KT 10SM SCT110 27/19 A3023 -190 60 1200 090/03 RMK AO2 T02720189
93915KAEX AEX20161104105011411/04/16 10:50:31  5-MIN KAEX 041650Z VRB03KT 10SM SCT110 28/19 A3022 -180 58 1300 VRB/03 RMK AO2 SLP237 T02780189
93915KAEX AEX20161104105510711/04/16 10:55:31  5-MIN KAEX 041655Z 00000KT 10SM FEW110 27/19 A3022 -180 60 1200 000/00 RMK AO2 T02720189
93915KAEX AEX20161104110010711/04/16 11:00:31  5-MIN KAEX 041700Z 00000KT 10SM FEW110 28/19 A3022 -180 58 1300 000/00 RMK AO2 T02780189
93915KAEX AEX20161104110511411/04/16 11:05:31  5-MIN KAEX 041705Z VRB03KT 10SM FEW041 FEW110 28/19 A3022 -180 56 1300 VRB/03 RMK AO2 T02830189
93915KAEX AEX20161104111011411/04/16 11:10:31  5-MIN KAEX 041710Z VRB04KT 10SM SCT039 SCT110 28/19 A3022 -180 58 1400 VRB/04 RMK AO2 T02830194
93915KAEX AEX20161104111510711/04/16 11:15:31  5-MIN KAEX 041715Z 03006KT 10SM SCT037 29/19 A3022 -180 56 1400 030/06 RMK AO2 T02890194
93915KAEX AEX20161104112010711/04/16 11:20:31  5-MIN KAEX 041720Z VRB06KT 10SM SCT035 29/19 A3021 -170 54 1400 VRB/06 RMK AO2 T02890189
93915KAEX AEX20161104112510711/04/16 11:25:31  5-MIN KAEX 041725Z 04005KT 10SM SCT035 29/19 A3021 -170 54 1400 040/05 RMK AO2 T02890189
93915KAEX AEX20161104113010711/04/16 11:30:31  5-MIN KAEX 041730Z VRB03KT 10SM SCT035 28/19 A3021 -170 56 1400 VRB/03 RMK AO2 T02830189
93915KAEX AEX20161104113510711/04/16 11:35:31  5-MIN KAEX 041735Z 34007KT 10SM BKN035 29/19 A3021 -170 52 1500 340/07 RMK AO2 T02940189
93915KAEX AEX20161104114010711/04/16 11:40:31  5-MIN KAEX 041740Z 35006KT 10SM BKN035 29/18 A3020 -160 52 1400 350/06 RMK AO2 T02890183
93915KAEX AEX20161104114512111/04/16 11:45:31  5-MIN KAEX 041745Z 01006KT 10SM SCT035 BKN042 BKN050 28/18 A3020 -160 56 1300 010/06 RMK AO2 T02780183
93915KAEX AEX20161104115014611/04/16 11:50:31  5-MIN KAEX 041750Z 01006KT 10SM SCT035 SCT042 BKN055 28/19 A3020 -160 58 1300 010/06 RMK AO2 SLP229 T02780189 10294 20172 51015
93915KAEX AEX20161104115512111/04/16 11:55:31  5-MIN KAEX 041755Z 02006KT 10SM SCT035 BKN046 BKN055 28/19 A3020 -160 58 1300 020/06 RMK AO2 T02780189
93915KAEX AEX20161104120012111/04/16 12:00:31  5-MIN KAEX 041800Z 36009KT 10SM FEW035 SCT046 BKN055 28/19 A3020 -160 60 1300 360/09 RMK AO2 T02780194
93915KAEX AEX20161104120512111/04/16 12:05:31  5-MIN KAEX 041805Z 05007KT 10SM FEW035 FEW042 BKN055 28/19 A3019 -160 58 1400 050/07 RMK AO2 T02830194
93915KAEX AEX20161104121010711/04/16 12:10:31  5-MIN KAEX 041810Z 05007KT 10SM SCT049 29/19 A3019 -150 52 1500 050/07 RMK AO2 T02940189
93915KAEX AEX20161104121511411/04/16 12:15:31  5-MIN KAEX 041815Z 07005KT 10SM FEW047 FEW055 29/18 A3019 -150 52 1400 060/05 RMK AO2 T02890183
93915KAEX AEX20161104122011411/04/16 12:20:31  5-MIN KAEX 041820Z 06005KT 10SM FEW047 FEW055 29/19 A3018 -150 52 1500 060/05 RMK AO2 T02940189
93915KAEX AEX20161104122510711/04/16 12:25:31  5-MIN KAEX 041825Z VRB06KT 10SM FEW047 30/19 A3018 -140 51 1600 VRB/06 RMK AO2 T03000189
93915KAEX AEX20161104123012111/04/16 12:30:31  5-MIN KAEX 041830Z 06009KT 10SM FEW036 FEW047 SCT055 29/19 A3018 -140 52 1500 060/09 RMK AO2 T02940189
93915KAEX AEX20161104123512111/04/16 12:35:31  5-MIN KAEX 041835Z 03008KT 10SM FEW036 SCT047 SCT055 29/19 A3018 -140 54 1500 020/08 RMK AO2 T02940194
93915KAEX AEX20161104124011411/04/16 12:40:31  5-MIN KAEX 041840Z 36008KT 10SM FEW036 FEW046 28/19 A3017 -140 58 1300 360/08 RMK AO2 T02780189
93915KAEX AEX20161104124511411/04/16 12:45:31  5-MIN KAEX 041845Z 02006KT 10SM FEW036 FEW046 28/19 A3017 -140 56 1400 020/06 RMK AO2 T02830189
93915KAEX AEX20161104125014411/04/16 12:50:31  5-MIN KAEX 041850Z 03007KT 350V070 10SM FEW036 FEW046 SCT060 28/18 A3017 -130 56 1300 030/07 350V070 RMK AO2 SLP219 T02780183
93915KAEX AEX20161104125511411/04/16 12:55:31  5-MIN KAEX 041855Z 03007KT 10SM FEW036 FEW060 28/18 A3017 -130 54 1400 030/07 RMK AO2 T02830183
93915KAEX AEX20161104130010711/04/16 13:00:31  5-MIN KAEX 041900Z 05005KT 10SM FEW037 29/19 A3016 -130 54 1500 050/05 RMK AO2 T02890189
93915KAEX AEX20161104130510711/04/16 13:05:31  5-MIN KAEX 041905Z 03009KT 10SM SCT039 29/19 A3016 -130 52 1500 030/09 RMK AO2 T02940189
93915KAEX AEX20161104131011411/04/16 13:10:31  5-MIN KAEX 041910Z 36009KT 10SM SCT039 SCT070 29/18 A3016 -130 52 1500 360/09 RMK AO2 T02890183
93915KAEX AEX20161104131511411/04/16 13:15:31  5-MIN KAEX 041915Z 03007KT 10SM FEW039 SCT075 28/18 A3016 -130 54 1400 030/07 RMK AO2 T02830183
93915KAEX AEX20161104132012711/04/16 13:20:31  5-MIN KAEX 041920Z 06007G15KT 10SM FEW039 SCT080 SCT120 28/18 A3016 -120 54 1400 050/07G15 RMK AO2 T02830183
93915KAEX AEX20161104132512711/04/16 13:25:31  5-MIN KAEX 041925Z 06007G15KT 10SM FEW039 SCT075 BKN120 28/19 A3016 -120 56 1400 060/07G15 RMK AO2 T02830189
93915KAEX AEX20161104133012111/04/16 13:30:31  5-MIN KAEX 041930Z VRB06KT 10SM FEW039 FEW075 BKN120 28/19 A3015 -120 56 1400 VRB/06 RMK AO2 T02830189
93915KAEX AEX20161104133511411/04/16 13:35:31  5-MIN KAEX 041935Z 06007KT 10SM FEW075 SCT120 29/19 A3015 -120 54 1500 060/07 RMK AO2 T02890189
93915KAEX AEX20161104134011411/04/16 13:40:31  5-MIN KAEX 041940Z 04005KT 10SM FEW100 BKN120 29/18 A3015 -120 52 1500 040/05 RMK AO2 T02890183
93915KAEX AEX20161104134510711/04/16 13:45:31  5-MIN KAEX 041945Z 07005KT 10SM BKN110 29/18 A3015 -120 52 1500 070/05 RMK AO2 T02890183
93915KAEX AEX20161104135012111/04/16 13:50:31  5-MIN KAEX 041950Z 01009KT 10SM FEW041 BKN120 29/18 A3015 -110 50 1600 010/09 RMK AO2 SLP211 T02940183
93915KAEX AEX20161104135511411/04/16 13:55:31  5-MIN KAEX 041955Z 02009KT 10SM FEW041 BKN110 28/18 A3015 -110 52 1400 020/09 RMK AO2 T02830178
93915KAEX AEX20161104140010711/04/16 14:00:31  5-MIN KAEX 042000Z 36007KT 10SM BKN110 28/18 A3015 -110 54 1400 360/07 RMK AO2 T02830183
93915KAEX AEX20161104140510711/04/16 14:05:31  5-MIN KAEX 042005Z 36006KT 10SM BKN110 28/18 A3015 -110 54 1400 360/06 RMK AO2 T02830183
93915KAEX AEX20161104141010711/04/16 14:10:31  5-MIN KAEX 042010Z 36004KT 10SM SCT110 28/18 A3014 -110 52 1400 360/04 RMK AO2 T02830178
93915KAEX AEX20161104141510711/04/16 14:15:31  5-MIN KAEX 042015Z 34005KT 10SM FEW110 29/18 A3014 -110 50 1500 340/05 RMK AO2 T02890178
93915KAEX AEX20161104142009711/04/16 14:20:31  5-MIN KAEX 042020Z 10SM FEW110 29/18 A3014 -110 50 1500 M /M RMK AO2 T02890178
93915KAEX AEX20161104142511411/04/16 14:25:31  5-MIN KAEX 042025Z 35005KT 10SM FEW042 FEW085 29/18 A3014 -110 52 1500 350/05 RMK AO2 T02890183
93915KAEX AEX20161104143012111/04/16 14:30:31  5-MIN KAEX 042030Z 34006KT 10SM SCT042 SCT049 SCT085 29/18 A3014 -110 52 1500 340/06 RMK AO2 T02890183
93915KAEX AEX20161104143512111/04/16 14:35:31  5-MIN KAEX 042035Z 01007KT 10SM FEW042 SCT049 BKN085 28/18 A3014 -100 54 1400 010/07 RMK AO2 T02830183
93915KAEX AEX20161104144012111/04/16 14:40:31  5-MIN KAEX 042040Z 03005KT 10SM FEW045 SCT085 BKN110 28/18 A3014 -100 52 1400 020/05 RMK AO2 T02830178
93915KAEX AEX20161104144512111/04/16 14:45:31  5-MIN KAEX 042045Z 06005KT 10SM BKN043 BKN085 BKN110 28/18 A3014 -100 54 1400 060/05 RMK AO2 T02830183
93915KAEX AEX20161104145013411/04/16 14:50:31  5-MIN KAEX 042050Z 04010KT 10SM BKN045 BKN085 OVC110 28/18 A3014 -100 54 1400 040/10 RMK AO2 SLP208 T02830183 58013
93915KAEX AEX20161104145512111/04/16 14:55:31  5-MIN KAEX 042055Z 04009KT 10SM BKN045 BKN065 BKN110 28/18 A3014 -100 52 1400 040/09 RMK AO2 T02830178
93915KAEX AEX20161104150012111/04/16 15:00:31  5-MIN KAEX 042100Z 03009KT 10SM SCT045 BKN060 BKN110 28/18 A3014 -100 56 1400 030/09 RMK AO2 T02780183
93915KAEX AEX20161104150512111/04/16 15:05:31  5-MIN KAEX 042105Z 05007KT 10SM SCT046 BKN060 BKN120 27/18 A3014 -100 58 1300 050/07 RMK AO2 T02720183
93915KAEX AEX20161104151011411/04/16 15:10:31  5-MIN KAEX 042110Z 05008KT 10SM SCT046 SCT060 27/18 A3014 -100 58 1300 050/08 RMK AO2 T02720183
93915KAEX AEX20161104151512011/04/16 15:15:31  5-MIN KAEX 042115Z 05005KT 9SM FEW046 SCT060 BKN120 27/18 A3014 -100 57 1300 050/05 RMK AO2 T02670178
93915KAEX AEX20161104152012011/04/16 15:20:31  5-MIN KAEX 042120Z 05006KT 9SM FEW050 FEW060 SCT120 27/18 A3014 -100 57 1300 050/06 RMK AO2 T02670178
93915KAEX AEX20161104152511411/04/16 15:25:31  5-MIN KAEX 042125Z 04004KT 10SM FEW055 FEW120 27/18 A3014 -100 57 1300 040/04 RMK AO2 T02670178
93915KAEX AEX20161104153011411/04/16 15:30:31  5-MIN KAEX 042130Z 04005KT 10SM FEW044 FEW120 27/18 A3014 -100 60 1300 040/05 RMK AO2 T02670183
93915KAEX AEX20161104153511411/04/16 15:35:31  5-MIN KAEX 042135Z 02003KT 10SM FEW041 SCT120 27/18 A3014 -100 58 1300 020/03 RMK AO2 T02720183
93915KAEX AEX20161104154011411/04/16 15:40:31  5-MIN KAEX 042140Z 04005KT 10SM SCT044 BKN120 27/18 A3014 -100 58 1300 040/05 RMK AO2 T02720183
93915KAEX AEX20161104154511411/04/16 15:45:31  5-MIN KAEX 042145Z 05007KT 10SM SCT044 SCT075 27/18 A3014 -100 58 1300 050/07 RMK AO2 T02720183
93915KAEX AEX20161104155012111/04/16 15:50:31  5-MIN KAEX 042150Z 04007KT 10SM FEW043 SCT075 27/18 A3014 -100 58 1300 030/07 RMK AO2 SLP208 T02720183
93915KAEX AEX20161104155511411/04/16 15:55:31  5-MIN KAEX 042155Z 04007KT 10SM SCT041 SCT049 27/18 A3014 -100 56 1300 040/07 RMK AO2 T02720178
93915KAEX AEX20161104160011411/04/16 16:00:31  5-MIN KAEX 042200Z 03010KT 10SM FEW041 SCT055 27/18 A3014 -100 56 1300 030/10 RMK AO2 T02720178
93915KAEX AEX20161104160511411/04/16 16:05:31  5-MIN KAEX 042205Z 04007KT 10SM FEW041 FEW050 27/18 A3014 -100 56 1300 040/07 RMK AO2 T02720178
93915KAEX AEX20161104161010411/04/16 16:10:31  5-MIN KAEX 042210Z 04006KT 10SM CLR 28/18 A3014 -100 54 1400 040/06 RMK AO2 T02780178
93915KAEX AEX20161104161510411/04/16 16:15:31  5-MIN KAEX 042215Z 04006KT 10SM CLR 28/18 A3014 -100 54 1400 030/06 RMK AO2 T02780178
93915KAEX AEX20161104162010711/04/16 16:20:31  5-MIN KAEX 042220Z 05008KT 10SM FEW060 28/18 A3014 -100 54 1400 050/08 RMK AO2 T02780178
93915KAEX AEX20161104162510711/04/16 16:25:31  5-MIN KAEX 042225Z 04008KT 10SM FEW060 27/17 A3014 -110 54 1300 040/08 RMK AO2 T02720172
93915KAEX AEX20161104163010711/04/16 16:30:31  5-MIN KAEX 042230Z 04007KT 10SM FEW065 27/17 A3014 -110 55 1300 040/07 RMK AO2 T02670172
93915KAEX AEX20161104163510711/04/16 16:35:31  5-MIN KAEX 042235Z 04005KT 10SM FEW065 27/17 A3014 -110 55 1300 030/05 RMK AO2 T02670172
93915KAEX AEX20161104164011411/04/16 16:40:31  5-MIN KAEX 042240Z 03006KT 10SM FEW045 FEW065 27/17 A3014 -110 55 1200 030/06 RMK AO2 T02670172
93915KAEX AEX20161104164511411/04/16 16:45:31  5-MIN KAEX 042245Z 03008KT 10SM SCT045 SCT060 27/17 A3014 -110 55 1200 030/08 RMK AO2 T02670172
93915KAEX AEX20161104165012111/04/16 16:50:31  5-MIN KAEX 042250Z 03008KT 10SM SCT045 BKN060 26/17 A3015 -110 57 1200 030/08 RMK AO2 SLP211 T02610172
93915KAEX AEX20161104165511411/04/16 16:55:31  5-MIN KAEX 042255Z 03007KT 10SM SCT049 BKN060 26/17 A3015 -110 57 1200 030/07 RMK AO2 T02610172
93915KAEX AEX20161104170011411/04/16 17:00:31  5-MIN KAEX 042300Z 04005KT 10SM BKN049 BKN060 26/17 A3015 -110 57 1200 030/05 RMK AO2 T02610172
93915KAEX AEX20161104170511411/04/16 17:05:31  5-MIN KAEX 042305Z 04005KT 10SM BKN049 BKN060 26/17 A3015 -120 57 1200 040/05 RMK AO2 T02610172
93915KAEX AEX20161104171011411/04/16 17:10:31  5-MIN KAEX 042310Z 04006KT 10SM BKN049 OVC060 26/17 A3015 -120 57 1200 030/06 RMK AO2 T02610172
93915KAEX AEX20161104171511411/04/16 17:15:31  5-MIN KAEX 042315Z 03005KT 10SM BKN049 BKN060 26/17 A3015 -120 59 1100 030/05 RMK AO2 T02560172
93915KAEX AEX20161104172010711/04/16 17:20:31  5-MIN KAEX 042320Z 03005KT 10SM BKN050 25/17 A3015 -120 61 1000 030/05 RMK AO2 T02500172
93915KAEX AEX20161104172510711/04/16 17:25:31  5-MIN KAEX 042325Z 03005KT 10SM BKN055 25/17 A3016 -120 61 1000 020/05 RMK AO2 T02500172
93915KAEX AEX20161104173010711/04/16 17:30:31  5-MIN KAEX 042330Z 02006KT 10SM SCT055 25/17 A3016 -120 61 1000 020/06 RMK AO2 T02500172
93915KAEX AEX20161104173510711/04/16 17:35:31  5-MIN KAEX 042335Z 02007KT 10SM FEW055 25/17 A3016 -120 61 1000 020/07 RMK AO2 T02500172
93915KAEX AEX20161104174010711/04/16 17:40:31  5-MIN KAEX 042340Z 02006KT 10SM FEW055 24/17 A3016 -130 63 1000 020/06 RMK AO2 T02440172
93915KAEX AEX20161104174510711/04/16 17:45:31  5-MIN KAEX 042345Z 02005KT 10SM FEW055 24/17 A3016 -130 63 1000 020/05 RMK AO2 T02440172
93915KAEX AEX20161104175012911/04/16 17:50:31  5-MIN KAEX 042350Z 02007KT 10SM CLR 24/17 A3017 -130 63 1000 020/07 RMK AO2 SLP217 T02440172 10300 20244 56020
93915KAEX AEX20161104175510411/04/16 17:55:31  5-MIN KAEX 042355Z 02008KT 10SM CLR 24/17 A3017 -130 63 1000 020/08 RMK AO2 T02440172
93915KAEX AEX20161104180010411/04/16 18:00:31  5-MIN KAEX 050000Z 03007KT 10SM CLR 24/17 A3017 -130 63 1000 030/07 RMK AO2 T02440172
93915KAEX AEX20161104180510311/04/16 18:05:31  5-MIN KAEX 050005Z 03007KT 10SM CLR 24/17 A3017 -130 63 900 020/07 RMK AO2 T02390167
93915KAEX AEX20161104181010311/04/16 18:10:31  5-MIN KAEX 050010Z 03007KT 10SM CLR 24/17 A3017 -130 63 900 030/07 RMK AO2 T02390167
93915KAEX AEX20161104181510311/04/16 18:15:31  5-MIN KAEX 050015Z 03006KT 10SM CLR 24/17 A3017 -130 63 900 030/06 RMK AO2 T02390167
93915KAEX AEX20161104182010311/04/16 18:20:31  5-MIN KAEX 050020Z 03007KT 10SM CLR 24/17 A3017 -140 63 900 020/07 RMK AO2 T02390167
93915KAEX AEX20161104182510311/04/16 18:25:31  5-MIN KAEX 050025Z 03006KT 10SM CLR 24/17 A3017 -140 63 900 030/06 RMK AO2 T02390167
93915KAEX AEX20161104183010311/04/16 18:30:31  5-MIN KAEX 050030Z 02007KT 10SM CLR 23/17 A3018 -140 66 800 020/07 RMK AO2 T02330167
93915KAEX AEX20161104183510311/04/16 18:35:31  5-MIN KAEX 050035Z 02008KT 10SM CLR 23/17 A3018 -140 66 800 020/08 RMK AO2 T02330167
93915KAEX AEX20161104184010311/04/16 18:40:31  5-MIN KAEX 050040Z 02006KT 10SM CLR 23/16 A3018 -140 63 800 020/06 RMK AO2 T02330161
93915KAEX AEX20161104184510311/04/16 18:45:31  5-MIN KAEX 050045Z 03005KT 10SM CLR 23/16 A3018 -140 63 800 020/05 RMK AO2 T02330161
93915KAEX AEX20161104185011011/04/16 18:50:31  5-MIN KAEX 050050Z 03006KT 10SM CLR 23/16 A3018 -140 63 800 030/06 RMK AO2 SLP223 T02330161
93915KAEX AEX20161104185510311/04/16 18:55:31  5-MIN KAEX 050055Z 03005KT 10SM CLR 23/16 A3018 -140 63 800 020/05 RMK AO2 T02330161
93915KAEX AEX20161104190010311/04/16 19:00:31  5-MIN KAEX 050100Z 02006KT 10SM CLR 23/16 A3018 -140 63 800 020/06 RMK AO2 T02280156
93915KAEX AEX20161104190510311/04/16 19:05:31  5-MIN KAEX 050105Z 02006KT 10SM CLR 23/16 A3018 -150 63 800 020/06 RMK AO2 T02280156
93915KAEX AEX20161104191010311/04/16 19:10:31  5-MIN KAEX 050110Z 02006KT 10SM CLR 23/16 A3018 -150 63 800 020/06 RMK AO2 T02280156
93915KAEX AEX20161104191510311/04/16 19:15:31  5-MIN KAEX 050115Z 02005KT 10SM CLR 23/16 A3019 -150 63 800 020/05 RMK AO2 T02280156
93915KAEX AEX20161104192010311/04/16 19:20:31  5-MIN KAEX 050120Z 02005KT 10SM CLR 22/16 A3019 -150 65 700 010/05 RMK AO2 T02220156
93915KAEX AEX20161104192510311/04/16 19:25:31  5-MIN KAEX 050125Z 02007KT 10SM CLR 23/15 A3019 -150 61 800 020/07 RMK AO2 T02280150
93915KAEX AEX20161104193010311/04/16 19:30:31  5-MIN KAEX 050130Z 02007KT 10SM CLR 22/14 A3019 -150 61 700 020/07 RMK AO2 T02220144
93915KAEX AEX20161104193510311/04/16 19:35:31  5-MIN KAEX 050135Z 02007KT 10SM CLR 22/14 A3019 -150 59 700 020/07 RMK AO2 T02220139
93915KAEX AEX20161104194010311/04/16 19:40:31  5-MIN KAEX 050140Z 02007KT 10SM CLR 22/13 A3019 -160 56 700 020/07 RMK AO2 T02220133
93915KAEX AEX20161104194510311/04/16 19:45:31  5-MIN KAEX 050145Z 02008KT 10SM CLR 22/13 A3020 -160 56 700 020/08 RMK AO2 T02220133
93915KAEX AEX20161104195011011/04/16 19:50:31  5-MIN KAEX 050150Z 03006KT 10SM CLR 22/13 A3020 -160 54 700 020/06 RMK AO2 SLP228 T02220128
93915KAEX AEX20161104195510311/04/16 19:55:31  5-MIN KAEX 050155Z 02006KT 10SM CLR 22/13 A3020 -160 54 700 020/06 RMK AO2 T02220128
93915KAEX AEX20161104200010311/04/16 20:00:31  5-MIN KAEX 050200Z 02005KT 10SM CLR 22/13 A3020 -160 56 600 020/05 RMK AO2 T02170128
93915KAEX AEX20161104200510311/04/16 20:05:31  5-MIN KAEX 050205Z 01005KT 10SM CLR 22/13 A3020 -160 56 600 010/05 RMK AO2 T02170128
93915KAEX AEX20161104201010311/04/16 20:10:31  5-MIN KAEX 050210Z 02006KT 10SM CLR 22/13 A3020 -160 56 600 020/06 RMK AO2 T02170128
93915KAEX AEX20161104201510311/04/16 20:15:31  5-MIN KAEX 050215Z 02008KT 10SM CLR 22/12 A3020 -160 52 700 010/08 RMK AO2 T02220122
93915KAEX AEX20161104202010311/04/16 20:20:31  5-MIN KAEX 050220Z 02007KT 10SM CLR 22/12 A3020 -170 54 600 020/07 RMK AO2 T02170122
93915KAEX AEX20161104202510311/04/16 20:25:31  5-MIN KAEX 050225Z 03007KT 10SM CLR 22/12 A3021 -170 52 600 030/07 RMK AO2 T02170117
93915KAEX AEX20161104203010311/04/16 20:30:31  5-MIN KAEX 050230Z 02007KT 10SM CLR 22/12 A3021 -170 52 600 020/07 RMK AO2 T02170117
93915KAEX AEX20161104203510311/04/16 20:35:31  5-MIN KAEX 050235Z 03006KT 10SM CLR 22/11 A3021 -170 50 600 020/06 RMK AO2 T02170111
93915KAEX AEX20161104204010311/04/16 20:40:31  5-MIN KAEX 050240Z 03007KT 10SM CLR 22/11 A3021 -170 50 600 020/07 RMK AO2 T02170111
93915KAEX AEX20161104204510311/04/16 20:45:31  5-MIN KAEX 050245Z 03006KT 10SM CLR 21/11 A3021 -170 52 500 030/06 RMK AO2 T02110111
93915KAEX AEX20161104205011611/04/16 20:50:31  5-MIN KAEX 050250Z 03007KT 10SM CLR 21/11 A3021 -170 50 500 020/07 RMK AO2 SLP233 T02110106 53009
93915KAEX AEX20161104205510311/04/16 20:55:31  5-MIN KAEX 050255Z 03006KT 10SM CLR 21/11 A3021 -170 50 500 020/06 RMK AO2 T02110106
93915KAEX AEX20161104210010311/04/16 21:00:31  5-MIN KAEX 050300Z 03007KT 10SM CLR 21/10 A3021 -170 48 500 020/07 RMK AO2 T02110100
93915KAEX AEX20161104210510311/04/16 21:05:31  5-MIN KAEX 050305Z 03007KT 10SM CLR 21/10 A3021 -170 48 500 030/07 RMK AO2 T02110100
93915KAEX AEX20161104211010311/04/16 21:10:31  5-MIN KAEX 050310Z 03007KT 10SM CLR 21/09 A3021 -170 47 500 030/07 RMK AO2 T02110094
93915KAEX AEX20161104211510311/04/16 21:15:31  5-MIN KAEX 050315Z 03008KT 10SM CLR 21/09 A3021 -170 47 500 030/08 RMK AO2 T02110094
93915KAEX AEX20161104212010311/04/16 21:20:31  5-MIN KAEX 050320Z 03007KT 10SM CLR 21/09 A3021 -170 48 500 030/07 RMK AO2 T02060094
93915KAEX AEX20161104212510311/04/16 21:25:31  5-MIN KAEX 050325Z 03006KT 10SM CLR 21/09 A3021 -170 48 500 030/06 RMK AO2 T02060094
93915KAEX AEX20161104213010311/04/16 21:30:31  5-MIN KAEX 050330Z 03006KT 10SM CLR 21/09 A3021 -170 46 500 030/06 RMK AO2 T02060089
93915KAEX AEX20161104213510311/04/16 21:35:31  5-MIN KAEX 050335Z 03007KT 10SM CLR 21/09 A3022 -180 46 500 030/07 RMK AO2 T02060089
93915KAEX AEX20161104214010311/04/16 21:40:31  5-MIN KAEX 050340Z 02005KT 10SM CLR 20/09 A3022 -180 48 400 020/05 RMK AO2 T02000089
93915KAEX AEX20161104214510311/04/16 21:45:31  5-MIN KAEX 050345Z 02005KT 10SM CLR 20/09 A3022 -180 48 400 020/05 RMK AO2 T02000089
93915KAEX AEX20161104215011011/04/16 21:50:31  5-MIN KAEX 050350Z 02006KT 10SM CLR 20/09 A3022 -180 48 400 020/06 RMK AO2 SLP235 T02000089
93915KAEX AEX20161104215510311/04/16 21:55:31  5-MIN KAEX 050355Z 02006KT 10SM CLR 20/09 A3022 -180 48 400 020/06 RMK AO2 T02000089
93915KAEX AEX20161104220010311/04/16 22:00:31  5-MIN KAEX 050400Z 03005KT 10SM CLR 20/09 A3022 -180 48 400 020/05 RMK AO2 T02000089
93915KAEX AEX20161104220510311/04/16 22:05:31  5-MIN KAEX 050405Z 03006KT 10SM CLR 20/09 A3022 -180 48 400 030/06 RMK AO2 T02000089
93915KAEX AEX20161104221010311/04/16 22:10:31  5-MIN KAEX 050410Z 03006KT 10SM CLR 19/09 A3022 -180 50 300 030/06 RMK AO2 T01940089
93915KAEX AEX20161104221510311/04/16 22:15:31  5-MIN KAEX 050415Z 03006KT 10SM CLR 19/09 A3022 -180 50 300 030/06 RMK AO2 T01940089
93915KAEX AEX20161104222010311/04/16 22:20:31  5-MIN KAEX 050420Z 04006KT 10SM CLR 20/08 A3022 -180 46 400 040/06 RMK AO2 T02000083
93915KAEX AEX20161104222510311/04/16 22:25:31  5-MIN KAEX 050425Z 04007KT 10SM CLR 20/08 A3022 -180 46 400 040/07 RMK AO2 T02000083
93915KAEX AEX20161104223010311/04/16 22:30:31  5-MIN KAEX 050430Z 03006KT 10SM CLR 20/08 A3022 -180 46 400 030/06 RMK AO2 T02000083
93915KAEX AEX20161104223510311/04/16 22:35:31  5-MIN KAEX 050435Z 03006KT 10SM CLR 19/08 A3022 -180 48 300 030/06 RMK AO2 T01940083
93915KAEX AEX20161104224010311/04/16 22:40:31  5-MIN KAEX 050440Z 03007KT 10SM CLR 19/08 A3022 -180 48 300 030/07 RMK AO2 T01940083
93915KAEX AEX20161104224510311/04/16 22:45:31  5-MIN KAEX 050445Z 03007KT 10SM CLR 19/08 A3022 -180 48 300 030/07 RMK AO2 T01940083
93915KAEX AEX20161104225011011/04/16 22:50:31  5-MIN KAEX 050450Z 04008KT 10SM CLR 19/08 A3022 -180 48 300 040/08 RMK AO2 SLP235 T01940083
93915KAEX AEX20161104225510311/04/16 22:55:31  5-MIN KAEX 050455Z 04006KT 10SM CLR 19/08 A3022 -180 48 300 040/06 RMK AO2 T01940083
93915KAEX AEX20161104230010311/04/16 23:00:31  5-MIN KAEX 050500Z 05005KT 10SM CLR 19/08 A3022 -180 48 300 040/05 RMK AO2 T01940083
93915KAEX AEX20161104230510311/04/16 23:05:31  5-MIN KAEX 050505Z 04007KT 10SM CLR 19/08 A3022 -180 48 300 040/07 RMK AO2 T01940083
93915KAEX AEX20161104231010311/04/16 23:10:31  5-MIN KAEX 050510Z 04007KT 10SM CLR 19/08 A3022 -180 48 300 040/07 RMK AO2 T01940083
93915KAEX AEX20161104231510311/04/16 23:15:31  5-MIN KAEX 050515Z 05006KT 10SM CLR 19/08 A3022 -180 50 300 040/06 RMK AO2 T01890083
93915KAEX AEX20161104232010311/04/16 23:20:31  5-MIN KAEX 050520Z 04006KT 10SM CLR 19/08 A3022 -180 50 300 040/06 RMK AO2 T01890083
93915KAEX AEX20161104232510311/04/16 23:25:31  5-MIN KAEX 050525Z 05006KT 10SM CLR 19/08 A3022 -180 50 300 040/06 RMK AO2 T01890083
93915KAEX AEX20161104233010311/04/16 23:30:31  5-MIN KAEX 050530Z 05007KT 10SM CLR 19/08 A3022 -180 50 300 050/07 RMK AO2 T01890083
93915KAEX AEX20161104233510311/04/16 23:35:31  5-MIN KAEX 050535Z 05007KT 10SM CLR 19/08 A3021 -170 50 300 040/07 RMK AO2 T01890083
93915KAEX AEX20161104234010311/04/16 23:40:31  5-MIN KAEX 050540Z 04006KT 10SM CLR 19/08 A3021 -170 50 300 030/06 RMK AO2 T01890083
93915KAEX AEX20161104234510311/04/16 23:45:31  5-MIN KAEX 050545Z 04008KT 10SM CLR 19/08 A3021 -170 50 300 040/08 RMK AO2 T01890083
93915KAEX AEX20161104235013811/04/16 23:50:31  5-MIN KAEX 050550Z 04007KT 10SM CLR 19/08 A3021 -170 50 300 040/07 RMK AO2 SLP233 T01890083 10244 20189 403000172 51015
93915KAEX AEX20161104235510311/04/16 23:55:31  5-MIN KAEX 050555Z 04007KT 10SM CLR 19/08 A3021 -170 50 300 040/07 RMK AO2 T01890083
93915KAEX AEX20161105000010311/05/16 00:00:31  5-MIN KAEX 050600Z 04008KT 10SM CLR 19/08 A3021 -170 48 300 040/08 RMK AO2 T01890078
93915KAEX AEX20161105000510311/05/16 00:05:31  5-MIN KAEX 050605Z 04009KT 10SM CLR 18/08 A3021 -170 50 200 040/09 RMK AO2 T01830078
93915KAEX AEX20161105001010311/05/16 00:10:31  5-MIN KAEX 050610Z 04006KT 10SM CLR 18/08 A3021 -170 50 200 040/06 RMK AO2 T01830078
93915KAEX AEX20161105001510311/05/16 00:15:31  5-MIN KAEX 050615Z 03008KT 10SM CLR 18/08 A3021 -170 50 200 030/08 RMK AO2 T01830078
93915KAEX AEX20161105002010311/05/16 00:20:31  5-MIN KAEX 050620Z 04008KT 10SM CLR 18/08 A3021 -170 50 200 030/08 RMK AO2 T01830078
93915KAEX AEX20161105002510311/05/16 00:25:31  5-MIN KAEX 050625Z 04007KT 10SM CLR 18/08 A3021 -170 50 200 030/07 RMK AO2 T01830078
93915KAEX AEX20161105003010311/05/16 00:30:31  5-MIN KAEX 050630Z 03006KT 10SM CLR 18/08 A3021 -170 50 200 030/06 RMK AO2 T01830078
93915KAEX AEX20161105003510311/05/16 00:35:31  5-MIN KAEX 050635Z 04008KT 10SM CLR 18/08 A3021 -170 50 200 040/08 RMK AO2 T01830078
93915KAEX AEX20161105004010311/05/16 00:40:31  5-MIN KAEX 050640Z 04006KT 10SM CLR 18/08 A3021 -170 50 200 040/06 RMK AO2 T01830078
93915KAEX AEX20161105004510311/05/16 00:45:31  5-MIN KAEX 050645Z 05006KT 10SM CLR 18/08 A3021 -170 51 100 050/06 RMK AO2 T01780078
93915KAEX AEX20161105005011011/05/16 00:50:31  5-MIN KAEX 050650Z 04006KT 10SM CLR 18/08 A3021 -170 50 200 030/06 RMK AO2 SLP233 T01830078
93915KAEX AEX20161105005510311/05/16 00:55:31  5-MIN KAEX 050655Z 04005KT 10SM CLR 18/08 A3021 -170 51 100 040/05 RMK AO2 T01780078
93915KAEX AEX20161105010010311/05/16 01:00:31  5-MIN KAEX 050700Z 03004KT 10SM CLR 18/08 A3021 -170 51 100 020/04 RMK AO2 T01780078
93915KAEX AEX20161105010510311/05/16 01:05:31  5-MIN KAEX 050705Z 03003KT 10SM CLR 18/08 A3022 -180 51 100 020/03 RMK AO2 T01780078
93915KAEX AEX20161105011010311/05/16 01:10:31  5-MIN KAEX 050710Z 00000KT 10SM CLR 18/08 A3022 -180 51 100 000/00 RMK AO2 T01780078
93915KAEX AEX20161105011510311/05/16 01:15:31  5-MIN KAEX 050715Z 00000KT 10SM CLR 18/08 A3022 -180 51 100 000/00 RMK AO2 T01780078
93915KAEX AEX20161105012010311/05/16 01:20:31  5-MIN KAEX 050720Z 00000KT 10SM CLR 18/08 A3022 -180 51 100 000/00 RMK AO2 T01780078
93915KAEX AEX20161105012510311/05/16 01:25:31  5-MIN KAEX 050725Z 00000KT 10SM CLR 17/08 A3022 -180 53 100 000/00 RMK AO2 T01720078
93915KAEX AEX20161105013010311/05/16 01:30:31  5-MIN KAEX 050730Z 00000KT 10SM CLR 17/08 A3022 -180 53 100 000/00 RMK AO2 T01720078
93915KAEX AEX20161105013510311/05/16 01:35:31  5-MIN KAEX 050735Z 00000KT 10SM CLR 17/08 A3022 -180 53 100 000/00 RMK AO2 T01720078
93915KAEX AEX20161105014010311/05/16 01:40:31  5-MIN KAEX 050740Z 01003KT 10SM CLR 17/08 A3022 -180 53 100 010/03 RMK AO2 T01720078
93915KAEX AEX20161105014510311/05/16 01:45:31  5-MIN KAEX 050745Z 00000KT 10SM CLR 17/08 A3022 -180 53 100 000/00 RMK AO2 T01720078
93915KAEX AEX20161105015010811/05/16 01:50:31  5-MIN KAEX 050750Z 03004KT 10SM CLR 17/08 A3022 -180 55 0 020/04 RMK AO2 SLP236 T01670078
93915KAEX AEX20161105015510111/05/16 01:55:31  5-MIN KAEX 050755Z 02004KT 10SM CLR 17/08 A3022 -180 57 0 020/04 RMK AO2 T01670083
93915KAEX AEX20161105020010111/05/16 02:00:31  5-MIN KAEX 050800Z 02003KT 10SM CLR 16/08 A3022 -180 59 0 020/03 RMK AO2 T01610083
93915KAEX AEX20161105020510111/05/16 02:05:31  5-MIN KAEX 050805Z 03004KT 10SM CLR 16/08 A3022 -180 59 0 030/04 RMK AO2 T01610083
93915KAEX AEX20161105021010111/05/16 02:10:31  5-MIN KAEX 050810Z 03004KT 10SM CLR 16/08 A3022 -180 57 0 020/04 RMK AO2 T01610078
93915KAEX AEX20161105021510111/05/16 02:15:31  5-MIN KAEX 050815Z 02005KT 10SM CLR 16/08 A3022 -180 59 0 020/05 RMK AO2 T01610083
93915KAEX AEX20161105022010111/05/16 02:20:31  5-MIN KAEX 050820Z 02004KT 10SM CLR 16/08 A3021 -170 57 0 020/04 RMK AO2 T01610078
93915KAEX AEX20161105022510111/05/16 02:25:31  5-MIN KAEX 050825Z 03004KT 10SM CLR 16/08 A3021 -180 57 0 020/04 RMK AO2 T01610078
93915KAEX AEX20161105023010111/05/16 02:30:31  5-MIN KAEX 050830Z 02004KT 10SM CLR 16/08 A3021 -170 57 0 020/04 RMK AO2 T01610078
93915KAEX AEX20161105023510411/05/16 02:35:31  5-MIN KAEX 050835Z 03005KT 10SM CLR 16/08 A3021 -170 59 -100 020/05 RMK AO2 T01560078
93915KAEX AEX20161105024010411/05/16 02:40:31  5-MIN KAEX 050840Z 03006KT 10SM CLR 16/08 A3021 -170 62 -100 030/06 RMK AO2 T01560083
93915KAEX AEX20161105024510411/05/16 02:45:31  5-MIN KAEX 050845Z 02006KT 10SM CLR 16/08 A3021 -170 59 -100 020/06 RMK AO2 T01560078
93915KAEX AEX20161105025011711/05/16 02:50:31  5-MIN KAEX 050850Z 03004KT 10SM CLR 16/08 A3021 -170 59 -100 020/04 RMK AO2 SLP233 T01560078 50000
93915KAEX AEX20161105025510411/05/16 02:55:31  5-MIN KAEX 050855Z 02005KT 10SM CLR 16/08 A3021 -170 59 -100 020/05 RMK AO2 T01560078
93915KAEX AEX20161105030010411/05/16 03:00:31  5-MIN KAEX 050900Z 01004KT 10SM CLR 16/08 A3021 -170 59 -100 010/04 RMK AO2 T01560078
93915KAEX AEX20161105030510411/05/16 03:05:31  5-MIN KAEX 050905Z 01004KT 10SM CLR 16/08 A3022 -180 59 -100 360/04 RMK AO2 T01560078
93915KAEX AEX20161105031010411/05/16 03:10:31  5-MIN KAEX 050910Z 00000KT 10SM CLR 16/08 A3022 -180 59 -100 000/00 RMK AO2 T01560078
93915KAEX AEX20161105031510411/05/16 03:15:31  5-MIN KAEX 050915Z 00000KT 10SM CLR 16/08 A3022 -180 59 -100 000/00 RMK AO2 T01560078
93915KAEX AEX20161105032010411/05/16 03:20:31  5-MIN KAEX 050920Z 28003KT 10SM CLR 15/07 A3022 -180 59 -100 270/03 RMK AO2 T01500072
93915KAEX AEX20161105032510411/05/16 03:25:31  5-MIN KAEX 050925Z 00000KT 10SM CLR 14/07 A3022 -180 61 -200 000/00 RMK AO2 T01440072
93915KAEX AEX20161105033010411/05/16 03:30:31  5-MIN KAEX 050930Z 00000KT 10SM CLR 14/07 A3022 -180 64 -300 000/00 RMK AO2 T01390072
93915KAEX AEX20161105033510411/05/16 03:35:31  5-MIN KAEX 050935Z 00000KT 10SM CLR 14/07 A3022 -180 61 -200 000/00 RMK AO2 T01440072
93915KAEX AEX20161105034010411/05/16 03:40:31  5-MIN KAEX 050940Z 03003KT 10SM CLR 14/08 A3021 -170 66 -300 030/03 RMK AO2 T01390078
93915KAEX AEX20161105034510411/05/16 03:45:31  5-MIN KAEX 050945Z 00000KT 10SM CLR 14/08 A3021 -170 69 -300 000/00 RMK AO2 T01390083
93915KAEX AEX20161105035011111/05/16 03:50:31  5-MIN KAEX 050950Z 36003KT 10SM CLR 14/08 A3021 -170 69 -300 360/03 RMK AO2 SLP233 T01390083
93915KAEX AEX20161105035510411/05/16 03:55:31  5-MIN KAEX 050955Z 35003KT 10SM CLR 14/08 A3021 -170 69 -300 350/03 RMK AO2 T01390083
93915KAEX AEX20161105040010411/05/16 04:00:31  5-MIN KAEX 051000Z 00000KT 10SM CLR 14/08 A3021 -170 69 -300 000/00 RMK AO2 T01390083
93915KAEX AEX20161105040510411/05/16 04:05:31  5-MIN KAEX 051005Z 35003KT 10SM CLR 13/08 A3021 -170 71 -300 350/03 RMK AO2 T01330083
93915KAEX AEX20161105041010411/05/16 04:10:31  5-MIN KAEX 051010Z 33003KT 10SM CLR 13/08 A3021 -170 69 -300 330/03 RMK AO2 T01330078
93915KAEX AEX20161105041510411/05/16 04:15:31  5-MIN KAEX 051015Z 30003KT 10SM CLR 13/07 A3021 -170 69 -400 300/03 RMK AO2 T01280072
93915KAEX AEX20161105042010411/05/16 04:20:31  5-MIN KAEX 051020Z 00000KT 10SM CLR 13/07 A3021 -170 69 -400 000/00 RMK AO2 T01280072
93915KAEX AEX20161105042510411/05/16 04:25:31  5-MIN KAEX 051025Z 00000KT 10SM CLR 13/07 A3021 -170 69 -400 000/00 RMK AO2 T01280072
93915KAEX AEX20161105043010411/05/16 04:30:31  5-MIN KAEX 051030Z 00000KT 10SM CLR 13/07 A3022 -180 69 -400 000/00 RMK AO2 T01280072
93915KAEX AEX20161105043510411/05/16 04:35:31  5-MIN KAEX 051035Z 28003KT 10SM CLR 13/07 A3022 -180 69 -400 280/03 RMK AO2 T01280072
93915KAEX AEX20161105044010411/05/16 04:40:31  5-MIN KAEX 051040Z 30004KT 10SM CLR 13/07 A3022 -180 69 -400 300/04 RMK AO2 T01280072
93915KAEX AEX20161105044510411/05/16 04:45:31  5-MIN KAEX 051045Z 31005KT 10SM CLR 13/07 A3022 -180 69 -400 310/05 RMK AO2 T01280072
93915KAEX AEX20161105045011111/05/16 04:50:31  5-MIN KAEX 051050Z 31004KT 10SM CLR 13/07 A3022 -180 69 -400 310/04 RMK AO2 SLP237 T01280072
93915KAEX AEX20161105045510411/05/16 04:55:31  5-MIN KAEX 051055Z 33004KT 10SM CLR 13/08 A3022 -180 71 -400 330/04 RMK AO2 T01280078
93915KAEX AEX20161105050010411/05/16 05:00:31  5-MIN KAEX 051100Z 00000KT 10SM CLR 12/08 A3022 -180 74 -500 000/00 RMK AO2 T01220078
93915KAEX AEX20161105050510411/05/16 05:05:31  5-MIN KAEX 051105Z 00000KT 10SM CLR 12/08 A3022 -180 77 -500 000/00 RMK AO2 T01220083
93915KAEX AEX20161105051010411/05/16 05:10:31  5-MIN KAEX 051110Z 03004KT 10SM CLR 13/08 A3022 -180 74 -400 030/04 RMK AO2 T01280083
93915KAEX AEX20161105051510411/05/16 05:15:31  5-MIN KAEX 051115Z 03004KT 10SM CLR 13/08 A3022 -180 71 -300 030/04 RMK AO2 T01330083
93915KAEX AEX20161105052010411/05/16 05:20:31  5-MIN KAEX 051120Z 02004KT 10SM CLR 13/08 A3022 -180 71 -300 020/04 RMK AO2 T01330083
93915KAEX AEX20161105052510411/05/16 05:25:31  5-MIN KAEX 051125Z 01004KT 10SM CLR 14/08 A3022 -180 69 -300 360/04 RMK AO2 T01390083
93915KAEX AEX20161105053010411/05/16 05:30:31  5-MIN KAEX 051130Z 01003KT 10SM CLR 14/08 A3022 -180 69 -300 010/03 RMK AO2 T01390083
93915KAEX AEX20161105053510411/05/16 05:35:31  5-MIN KAEX 051135Z 36003KT 10SM CLR 14/08 A3022 -180 69 -300 360/03 RMK AO2 T01390083
93915KAEX AEX20161105054010411/05/16 05:40:31  5-MIN KAEX 051140Z 00000KT 10SM CLR 14/08 A3023 -190 69 -300 000/00 RMK AO2 T01390083
93915KAEX AEX20161105054510411/05/16 05:45:31  5-MIN KAEX 051145Z 00000KT 10SM CLR 13/08 A3023 -190 71 -300 000/00 RMK AO2 T01330083
93915KAEX AEX20161105055012911/05/16 05:50:31  5-MIN KAEX 051150Z 00000KT 10SM CLR 14/08 A3023 -190 69 -300 000/00 RMK AO2 SLP240 T01390083 10189 20122 58000
93915KAEX AEX20161105055510411/05/16 05:55:31  5-MIN KAEX 051155Z 00000KT 10SM CLR 13/08 A3023 -190 71 -300 000/00 RMK AO2 T01330083
93915KAEX AEX20161105060010411/05/16 06:00:31  5-MIN KAEX 051200Z 01003KT 10SM CLR 13/08 A3023 -190 71 -300 360/03 RMK AO2 T01330083
93915KAEX AEX20161105060510411/05/16 06:05:31  5-MIN KAEX 051205Z 36003KT 10SM CLR 13/08 A3023 -190 71 -300 350/03 RMK AO2 T01330083
93915KAEX AEX20161105061010411/05/16 06:10:31  5-MIN KAEX 051210Z 00000KT 10SM CLR 13/08 A3023 -190 74 -400 000/00 RMK AO2 T01280083
93915KAEX AEX20161105061510411/05/16 06:15:31  5-MIN KAEX 051215Z 00000KT 10SM CLR 13/08 A3024 -190 74 -400 000/00 RMK AO2 T01280083
93915KAEX AEX20161105062010411/05/16 06:20:31  5-MIN KAEX 051220Z 00000KT 10SM CLR 13/08 A3024 -200 71 -400 000/00 RMK AO2 T01280078
93915KAEX AEX20161105062510311/05/16 06:25:31  5-MIN KAEX 051225Z 00000KT 9SM CLR 13/08 A3024 -200 71 -400 000/00 RMK AO2 T01280078
93915KAEX AEX20161105063010311/05/16 06:30:31  5-MIN KAEX 051230Z 32003KT 8SM CLR 12/07 A3024 -200 71 -500 320/03 RMK AO2 T01220072
93915KAEX AEX20161105063510311/05/16 06:35:31  5-MIN KAEX 051235Z 00000KT 8SM CLR 12/07 A3024 -200 71 -500 000/00 RMK AO2 T01220072
93915KAEX AEX20161105064010311/05/16 06:40:31  5-MIN KAEX 051240Z 00000KT 9SM CLR 12/07 A3024 -200 71 -500 000/00 RMK AO2 T01220072
93915KAEX AEX20161105064510411/05/16 06:45:31  5-MIN KAEX 051245Z 00000KT 10SM CLR 12/08 A3024 -200 74 -500 000/00 RMK AO2 T01220078
93915KAEX AEX20161105065011111/05/16 06:50:31  5-MIN KAEX 051250Z 00000KT 10SM CLR 13/08 A3024 -200 71 -400 000/00 RMK AO2 SLP245 T01280078
93915KAEX AEX20161105065510411/05/16 06:55:31  5-MIN KAEX 051255Z 00000KT 10SM CLR 13/08 A3024 -200 71 -400 000/00 RMK AO2 T01280078
93915KAEX AEX20161105070010411/05/16 07:00:31  5-MIN KAEX 051300Z 00000KT 10SM CLR 13/08 A3024 -200 71 -400 000/00 RMK AO2 T01280078
93915KAEX AEX20161105070510411/05/16 07:05:31  5-MIN KAEX 051305Z 00000KT 10SM CLR 13/08 A3025 -200 71 -400 000/00 RMK AO2 T01330083
93915KAEX AEX20161105071010411/05/16 07:10:31  5-MIN KAEX 051310Z 00000KT 10SM CLR 14/08 A3025 -210 69 -300 000/00 RMK AO2 T01390083
93915KAEX AEX20161105071510411/05/16 07:15:31  5-MIN KAEX 051315Z 00000KT 10SM CLR 14/08 A3025 -210 69 -300 000/00 RMK AO2 T01390083
93915KAEX AEX20161105072010411/05/16 07:20:31  5-MIN KAEX 051320Z 00000KT 10SM CLR 14/08 A3025 -210 66 -200 000/00 RMK AO2 T01440083
93915KAEX AEX20161105072510411/05/16 07:25:31  5-MIN KAEX 051325Z 00000KT 10SM CLR 14/08 A3025 -210 66 -200 000/00 RMK AO2 T01440083
93915KAEX AEX20161105073010411/05/16 07:30:31  5-MIN KAEX 051330Z 00000KT 10SM CLR 15/08 A3025 -210 64 -200 000/00 RMK AO2 T01500083
93915KAEX AEX20161105073510411/05/16 07:35:31  5-MIN KAEX 051335Z 05003KT 10SM CLR 15/08 A3025 -210 64 -200 050/03 RMK AO2 T01500083
93915KAEX AEX20161105074010411/05/16 07:40:31  5-MIN KAEX 051340Z 00000KT 10SM CLR 16/08 A3025 -210 62 -100 000/00 RMK AO2 T01560083
93915KAEX AEX20161105074510411/05/16 07:45:31  5-MIN KAEX 051345Z 02003KT 10SM CLR 16/08 A3025 -210 62 -100 020/03 RMK AO2 T01560083
93915KAEX AEX20161105075010811/05/16 07:50:31  5-MIN KAEX 051350Z 00000KT 10SM CLR 16/08 A3025 -210 59 0 000/00 RMK AO2 SLP249 T01610083
93915KAEX AEX20161105075510111/05/16 07:55:31  5-MIN KAEX 051355Z 00000KT 10SM CLR 16/08 A3025 -210 59 0 000/00 RMK AO2 T01610083
93915KAEX AEX20161105080010111/05/16 08:00:31  5-MIN KAEX 051400Z 01003KT 10SM CLR 17/08 A3026 -210 57 0 010/03 RMK AO2 T01670083
93915KAEX AEX20161105080510111/05/16 08:05:31  5-MIN KAEX 051405Z 04004KT 10SM CLR 17/08 A3026 -220 55 0 040/04 RMK AO2 T01720083
93915KAEX AEX20161105081010111/05/16 08:10:31  5-MIN KAEX 051410Z 06006KT 10SM CLR 17/08 A3026 -220 57 0 060/06 RMK AO2 T01670083
93915KAEX AEX20161105081510111/05/16 08:15:31  5-MIN KAEX 051415Z 05005KT 10SM CLR 17/08 A3026 -220 55 0 050/05 RMK AO2 T01720083
93915KAEX AEX20161105082010111/05/16 08:20:31  5-MIN KAEX 051420Z 05005KT 10SM CLR 17/08 A3026 -220 55 0 050/05 RMK AO2 T01720083
93915KAEX AEX20161105082510311/05/16 08:25:31  5-MIN KAEX 051425Z 05006KT 10SM CLR 18/08 A3026 -210 53 100 050/06 RMK AO2 T01780083
93915KAEX AEX20161105083010311/05/16 08:30:31  5-MIN KAEX 051430Z 04006KT 10SM CLR 18/08 A3026 -210 53 100 040/06 RMK AO2 T01780083
93915KAEX AEX20161105083510311/05/16 08:35:31  5-MIN KAEX 051435Z VRB04KT 10SM CLR 18/08 A3026 -210 53 100 VRB/04 RMK AO2 T01780083
93915KAEX AEX20161105084010311/05/16 08:40:31  5-MIN KAEX 051440Z 02006KT 10SM CLR 18/08 A3026 -220 53 100 020/06 RMK AO2 T01780083
93915KAEX AEX20161105084510311/05/16 08:45:31  5-MIN KAEX 051445Z 02004KT 10SM CLR 18/08 A3026 -220 53 100 020/04 RMK AO2 T01780083
93915KAEX AEX20161105085011611/05/16 08:50:31  5-MIN KAEX 051450Z 04004KT 10SM CLR 18/08 A3026 -220 53 100 040/04 RMK AO2 SLP251 T01780083 53006
93915KAEX AEX20161105085510311/05/16 08:55:31  5-MIN KAEX 051455Z 04004KT 10SM CLR 18/08 A3026 -220 53 100 040/04 RMK AO2 T01780083
93915KAEX AEX20161105090010311/05/16 09:00:31  5-MIN KAEX 051500Z 00000KT 10SM CLR 18/08 A3026 -220 51 100 000/00 RMK AO2 T01780078
93915KAEX AEX20161105090510311/05/16 09:05:31  5-MIN KAEX 051505Z 01004KT 10SM CLR 18/08 A3027 -220 51 100 010/04 RMK AO2 T01780078
93915KAEX AEX20161105091010311/05/16 09:10:31  5-MIN KAEX 051510Z 01003KT 10SM CLR 18/08 A3027 -220 51 100 010/03 RMK AO2 T01780078
93915KAEX AEX20161105091510311/05/16 09:15:31  5-MIN KAEX 051515Z 02004KT 10SM CLR 18/08 A3027 -220 52 200 020/04 RMK AO2 T01830083
93915KAEX AEX20161105092010311/05/16 09:20:31  5-MIN KAEX 051520Z 01004KT 10SM CLR 18/08 A3026 -220 51 100 010/04 RMK AO2 T01780078
93915KAEX AEX20161105092510311/05/16 09:25:31  5-MIN KAEX 051525Z 04004KT 10SM CLR 18/08 A3027 -220 52 200 040/04 RMK AO2 T01830083
93915KAEX AEX20161105093010311/05/16 09:30:31  5-MIN KAEX 051530Z 05004KT 10SM CLR 18/08 A3027 -220 52 200 050/04 RMK AO2 T01830083
93915KAEX AEX20161105093510311/05/16 09:35:31  5-MIN KAEX 051535Z 04003KT 10SM CLR 18/08 A3027 -220 52 200 040/03 RMK AO2 T01830083
93915KAEX AEX20161105094010311/05/16 09:40:31  5-MIN KAEX 051540Z 04005KT 10SM CLR 18/08 A3026 -220 52 200 040/05 RMK AO2 T01830083
93915KAEX AEX20161105094510311/05/16 09:45:31  5-MIN KAEX 051545Z 06005KT 10SM CLR 19/08 A3026 -220 50 200 050/05 RMK AO2 T01890083
93915KAEX AEX20161105095011011/05/16 09:50:31  5-MIN KAEX 051550Z 05006KT 10SM CLR 19/08 A3026 -220 50 200 040/06 RMK AO2 SLP251 T01890083
93915KAEX AEX20161105095510311/05/16 09:55:31  5-MIN KAEX 051555Z 02004KT 10SM CLR 19/08 A3026 -220 50 200 020/04 RMK AO2 T01890083
93915KAEX AEX20161105100010311/05/16 10:00:31  5-MIN KAEX 051600Z 06003KT 10SM CLR 19/08 A3027 -220 48 300 050/03 RMK AO2 T01940083
93915KAEX AEX20161105100510311/05/16 10:05:31  5-MIN KAEX 051605Z 02004KT 10SM CLR 20/08 A3027 -220 46 300 020/04 RMK AO2 T02000083
93915KAEX AEX20161105101010311/05/16 10:10:31  5-MIN KAEX 051610Z 05004KT 10SM CLR 20/08 A3027 -220 45 300 050/04 RMK AO2 T02000078
93915KAEX AEX20161105101510311/05/16 10:15:31  5-MIN KAEX 051615Z 00000KT 10SM CLR 20/08 A3027 -220 45 300 000/00 RMK AO2 T02000078
93915KAEX AEX20161105102010311/05/16 10:20:31  5-MIN KAEX 051620Z VRB04KT 10SM CLR 20/08 A3027 -220 46 300 VRB/04 RMK AO2 T02000083
93915KAEX AEX20161105102510311/05/16 10:25:31  5-MIN KAEX 051625Z VRB03KT 10SM CLR 21/08 A3027 -220 45 400 VRB/03 RMK AO2 T02060083
93915KAEX AEX20161105103010311/05/16 10:30:31  5-MIN KAEX 051630Z VRB03KT 10SM CLR 21/08 A3026 -220 45 400 VRB/03 RMK AO2 T02060083
93915KAEX AEX20161105103510311/05/16 10:35:31  5-MIN KAEX 051635Z 08003KT 10SM CLR 21/08 A3026 -220 45 400 080/03 RMK AO2 T02060083
93915KAEX AEX20161105104010311/05/16 10:40:31  5-MIN KAEX 051640Z 03005KT 10SM CLR 21/08 A3026 -220 43 500 030/05 RMK AO2 T02110083
93915KAEX AEX20161105104510311/05/16 10:45:31  5-MIN KAEX 051645Z VRB04KT 10SM CLR 22/08 A3026 -210 42 600 VRB/04 RMK AO2 T02170083
93915KAEX AEX20161105105011011/05/16 10:50:31  5-MIN KAEX 051650Z VRB05KT 10SM CLR 22/08 A3025 -210 40 600 VRB/05 RMK AO2 SLP248 T02220083
93915KAEX AEX20161105105510311/05/16 10:55:31  5-MIN KAEX 051655Z VRB05KT 10SM CLR 22/08 A3025 -210 42 600 VRB/05 RMK AO2 T02170083
93915KAEX AEX20161105110010311/05/16 11:00:31  5-MIN KAEX 051700Z 07006KT 10SM CLR 22/08 A3025 -200 42 600 070/06 RMK AO2 T02170083
93915KAEX AEX20161105110510311/05/16 11:05:31  5-MIN KAEX 051705Z 34004KT 10SM CLR 22/08 A3025 -200 40 600 340/04 RMK AO2 T02220083
93915KAEX AEX20161105111010311/05/16 11:10:31  5-MIN KAEX 051710Z VRB03KT 10SM CLR 22/08 A3025 -200 40 600 VRB/03 RMK AO2 T02220083
93915KAEX AEX20161105111510311/05/16 11:15:31  5-MIN KAEX 051715Z 07005KT 10SM CLR 23/08 A3024 -200 39 700 070/05 RMK AO2 T02280083
93915KAEX AEX20161105112010311/05/16 11:20:31  5-MIN KAEX 051720Z VRB05KT 10SM CLR 23/08 A3024 -200 39 700 VRB/05 RMK AO2 T02280083
93915KAEX AEX20161105112510311/05/16 11:25:31  5-MIN KAEX 051725Z 02005KT 10SM CLR 23/08 A3024 -200 38 800 020/05 RMK AO2 T02330083
93915KAEX AEX20161105113010311/05/16 11:30:31  5-MIN KAEX 051730Z 36005KT 10SM CLR 24/08 A3024 -200 36 800 360/05 RMK AO2 T02390083
93915KAEX AEX20161105113510311/05/16 11:35:31  5-MIN KAEX 051735Z 04004KT 10SM CLR 23/08 A3023 -190 36 800 040/04 RMK AO2 T02330078
93915KAEX AEX20161105114010311/05/16 11:40:31  5-MIN KAEX 051740Z 02003KT 10SM CLR 24/08 A3023 -190 35 800 010/03 RMK AO2 T02390078
93915KAEX AEX20161105114510311/05/16 11:45:31  5-MIN KAEX 051745Z 36003KT 10SM CLR 24/08 A3023 -190 36 800 360/03 RMK AO2 T02390083
93915KAEX AEX20161105115012811/05/16 11:50:31  5-MIN KAEX 051750Z 00000KT 10SM CLR 23/08 A3023 -190 38 800 000/00 RMK AO2 SLP238 T02330083 10239 20122 51011
93915KAEX AEX20161105115510311/05/16 11:55:31  5-MIN KAEX 051755Z 07004KT 10SM CLR 24/08 A3022 -180 35 900 060/04 RMK AO2 T02440083
93915KAEX AEX20161105120010311/05/16 12:00:31  5-MIN KAEX 051800Z VRB05KT 10SM CLR 24/08 A3021 -170 35 900 VRB/05 RMK AO2 T02440083
93915KAEX AEX20161105120510311/05/16 12:05:31  5-MIN KAEX 051805Z VRB05KT 10SM CLR 24/08 A3021 -170 36 900 VRB/05 RMK AO2 T02390083
93915KAEX AEX20161105121010311/05/16 12:10:31  5-MIN KAEX 051810Z VRB03KT 10SM CLR 24/08 A3021 -170 35 900 VRB/03 RMK AO2 T02440083
93915KAEX AEX20161105121510311/05/16 12:15:31  5-MIN KAEX 051815Z VRB03KT 10SM CLR 24/08 A3021 -170 35 900 VRB/03 RMK AO2 T02440083
93915KAEX AEX20161105122010411/05/16 12:20:31  5-MIN KAEX 051820Z 08003KT 10SM CLR 25/08 A3021 -170 34 1000 070/03 RMK AO2 T02500083
93915KAEX AEX20161105122510411/05/16 12:25:31  5-MIN KAEX 051825Z 04004KT 10SM CLR 26/08 A3020 -160 32 1100 040/04 RMK AO2 T02560078
93915KAEX AEX20161105123010411/05/16 12:30:31  5-MIN KAEX 051830Z 00000KT 10SM CLR 25/08 A3020 -160 34 1000 000/00 RMK AO2 T02500083
93915KAEX AEX20161105123510411/05/16 12:35:31  5-MIN KAEX 051835Z 04005KT 10SM CLR 26/08 A3020 -160 33 1100 040/05 RMK AO2 T02560083
93915KAEX AEX20161105124009411/05/16 12:40:31  5-MIN KAEX 051840Z 10SM CLR 25/08 A3019 -160 33 1000 M /M RMK AO2 T02500078
93915KAEX AEX20161105124510411/05/16 12:45:31  5-MIN KAEX 051845Z VRB04KT 10SM CLR 26/08 A3019 -160 32 1100 VRB/04 RMK AO2 T02560078
93915KAEX AEX20161105125012711/05/16 12:50:31  5-MIN KAEX 051850Z 07008KT 030V100 10SM CLR 26/07 A3019 -150 29 1100 060/08 030V100 RMK AO2 SLP226 T02610072
93915KAEX AEX20161105125510411/05/16 12:55:31  5-MIN KAEX 051855Z 06005KT 10SM CLR 26/07 A3019 -150 30 1100 060/05 RMK AO2 T02560072
93915KAEX AEX20161105130010411/05/16 13:00:31  5-MIN KAEX 051900Z VRB04KT 10SM CLR 26/07 A3019 -150 29 1100 VRB/04 RMK AO2 T02610072
93915KAEX AEX20161105130510411/05/16 13:05:31  5-MIN KAEX 051905Z 02006KT 10SM CLR 26/07 A3018 -150 28 1100 020/06 RMK AO2 T02610067
93915KAEX AEX20161105131010411/05/16 13:10:31  5-MIN KAEX 051910Z 05005KT 10SM CLR 26/07 A3018 -140 28 1100 050/05 RMK AO2 T02610067
93915KAEX AEX20161105131510411/05/16 13:15:31  5-MIN KAEX 051915Z 01008KT 10SM CLR 26/07 A3018 -140 28 1100 010/08 RMK AO2 T02610067
93915KAEX AEX20161105132010411/05/16 13:20:31  5-MIN KAEX 051920Z 00000KT 10SM CLR 26/06 A3018 -140 28 1100 000/00 RMK AO2 T02560061
93915KAEX AEX20161105132509411/05/16 13:25:31  5-MIN KAEX 051925Z 10SM CLR 26/06 A3018 -140 27 1100 M /M RMK AO2 T02610061
93915KAEX AEX20161105133010411/05/16 13:30:31  5-MIN KAEX 051930Z 07005KT 10SM CLR 26/06 A3017 -140 27 1200 070/05 RMK AO2 T02610061
93915KAEX AEX20161105133510411/05/16 13:35:31  5-MIN KAEX 051935Z 05006KT 10SM CLR 26/06 A3017 -140 27 1200 050/06 RMK AO2 T02610061
93915KAEX AEX20161105134010411/05/16 13:40:31  5-MIN KAEX 051940Z 07005KT 10SM CLR 26/06 A3017 -130 27 1200 060/05 RMK AO2 T02610061
93915KAEX AEX20161105134510411/05/16 13:45:31  5-MIN KAEX 051945Z 03008KT 10SM CLR 26/06 A3017 -140 27 1200 030/08 RMK AO2 T02610061
93915KAEX AEX20161105135011111/05/16 13:50:31  5-MIN KAEX 051950Z VRB05KT 10SM CLR 26/06 A3017 -140 27 1200 VRB/05 RMK AO2 SLP219 T02610061
93915KAEX AEX20161105135510411/05/16 13:55:31  5-MIN KAEX 051955Z 03009KT 10SM CLR 27/06 A3017 -130 26 1200 020/09 RMK AO2 T02670061
93915KAEX AEX20161105140010411/05/16 14:00:31  5-MIN KAEX 052000Z 03006KT 10SM CLR 27/06 A3017 -130 26 1200 030/06 RMK AO2 T02670061
93915KAEX AEX20161105140510411/05/16 14:05:31  5-MIN KAEX 052005Z 35006KT 10SM CLR 26/06 A3017 -130 27 1200 350/06 RMK AO2 T02610061
93915KAEX AEX20161105141010411/05/16 14:10:31  5-MIN KAEX 052010Z 06008KT 10SM CLR 26/06 A3017 -130 28 1100 050/08 RMK AO2 T02560061
93915KAEX AEX20161105141510411/05/16 14:15:31  5-MIN KAEX 052015Z 04005KT 10SM CLR 24/06 A3016 -130 30 1000 040/05 RMK AO2 T02440061
93915KAEX AEX20161105142010411/05/16 14:20:31  5-MIN KAEX 052020Z 05005KT 10SM CLR 24/06 A3016 -130 30 1000 050/05 RMK AO2 T02440061
93915KAEX AEX20161105142510311/05/16 14:25:31  5-MIN KAEX 052025Z 04003KT 10SM CLR 24/06 A3016 -130 31 900 040/03 RMK AO2 T02390061
93915KAEX AEX20161105143010311/05/16 14:30:31  5-MIN KAEX 052030Z 04003KT 10SM CLR 24/07 A3016 -130 32 900 040/03 RMK AO2 T02390067
93915KAEX AEX20161105143510311/05/16 14:35:31  5-MIN KAEX 052035Z 05004KT 10SM CLR 24/07 A3016 -130 34 900 050/04 RMK AO2 T02390072
93915KAEX AEX20161105144010311/05/16 14:40:31  5-MIN KAEX 052040Z 04004KT 10SM CLR 24/07 A3016 -130 34 900 040/04 RMK AO2 T02390072
93915KAEX AEX20161105144510311/05/16 14:45:31  5-MIN KAEX 052045Z 05003KT 10SM CLR 24/07 A3016 -130 34 900 050/03 RMK AO2 T02390072
93915KAEX AEX20161105145011711/05/16 14:50:31  5-MIN KAEX 052050Z 07004KT 10SM CLR 25/07 A3016 -120 31 1000 070/04 RMK AO2 SLP215 T02500072 58014
93915KAEX AEX20161105145510411/05/16 14:55:31  5-MIN KAEX 052055Z VRB03KT 10SM CLR 26/07 A3016 -120 29 1200 VRB/03 RMK AO2 T02610072
93915KAEX AEX20161105150010411/05/16 15:00:31  5-MIN KAEX 052100Z 03005KT 10SM CLR 26/06 A3016 -120 27 1200 030/05 RMK AO2 T02610061
93915KAEX AEX20161105150510411/05/16 15:05:31  5-MIN KAEX 052105Z 04004KT 10SM CLR 26/06 A3016 -120 27 1200 040/04 RMK AO2 T02610061
93915KAEX AEX20161105151010411/05/16 15:10:31  5-MIN KAEX 052110Z 06007KT 10SM CLR 26/06 A3016 -120 26 1200 060/07 RMK AO2 T02610056
93915KAEX AEX20161105151510411/05/16 15:15:31  5-MIN KAEX 052115Z 08006KT 10SM CLR 26/06 A3016 -130 27 1100 080/06 RMK AO2 T02560056
93915KAEX AEX20161105152010411/05/16 15:20:31  5-MIN KAEX 052120Z 02005KT 10SM CLR 26/06 A3016 -130 26 1200 020/05 RMK AO2 T02610056
93915KAEX AEX20161105152510411/05/16 15:25:31  5-MIN KAEX 052125Z 05003KT 10SM CLR 26/06 A3016 -130 26 1200 050/03 RMK AO2 T02610056
93915KAEX AEX20161105153010411/05/16 15:30:31  5-MIN KAEX 052130Z 03006KT 10SM CLR 26/06 A3016 -130 26 1200 030/06 RMK AO2 T02610056
93915KAEX AEX20161105153510411/05/16 15:35:31  5-MIN KAEX 052135Z 04004KT 10SM CLR 26/06 A3016 -130 26 1200 040/04 RMK AO2 T02610056
93915KAEX AEX20161105154010411/05/16 15:40:31  5-MIN KAEX 052140Z 05005KT 10SM CLR 26/05 A3016 -130 26 1100 050/05 RMK AO2 T02560050
93915KAEX AEX20161105154510411/05/16 15:45:31  5-MIN KAEX 052145Z 08003KT 10SM CLR 25/06 A3016 -130 28 1000 070/03 RMK AO2 T02500056
93915KAEX AEX20161105155011611/05/16 15:50:31  5-MIN KAEX 052150Z AUTO 07006KT 10SM CLR 26/06 A3016 -130 27 1100 070/06 RMK AO2 SLP216 T02560056
93915KAEX AEX20161105155510911/05/16 15:55:31  5-MIN KAEX 052155Z AUTO 06005KT 10SM CLR 25/06 A3016 -130 28 1000 060/05 RMK AO2 T02500056
93915KAEX AEX20161105160010911/05/16 16:00:31  5-MIN KAEX 052200Z AUTO 05004KT 10SM CLR 26/06 A3016 -130 27 1100 040/04 RMK AO2 T02560056
93915KAEX AEX20161105160510911/05/16 16:05:31  5-MIN KAEX 052205Z AUTO 04004KT 10SM CLR 26/06 A3016 -130 27 1100 040/04 RMK AO2 T02560056
93915KAEX AEX20161105161010911/05/16 16:10:31  5-MIN KAEX 052210Z AUTO 05003KT 10SM CLR 26/06 A3016 -130 28 1100 050/03 RMK AO2 T02560061
93915KAEX AEX20161105161510911/05/16 16:15:31  5-MIN KAEX 052215Z AUTO 07005KT 10SM CLR 26/06 A3016 -130 28 1100 070/05 RMK AO2 T02560061
93915KAEX AEX20161105162010911/05/16 16:20:31  5-MIN KAEX 052220Z AUTO 08004KT 10SM CLR 25/06 A3016 -130 29 1000 070/04 RMK AO2 T02500061
93915KAEX AEX20161105162510911/05/16 16:25:31  5-MIN KAEX 052225Z AUTO 08004KT 10SM CLR 25/06 A3016 -130 28 1000 070/04 RMK AO2 T02500056
93915KAEX AEX20161105163010911/05/16 16:30:31  5-MIN KAEX 052230Z AUTO 07004KT 10SM CLR 24/06 A3016 -130 30 1000 070/04 RMK AO2 T02440061
93915KAEX AEX20161105163510911/05/16 16:35:31  5-MIN KAEX 052235Z AUTO 07003KT 10SM CLR 24/06 A3016 -130 30 1000 070/03 RMK AO2 T02440061
93915KAEX AEX20161105164010911/05/16 16:40:31  5-MIN KAEX 052240Z AUTO 06003KT 10SM CLR 24/07 A3016 -130 31 1000 060/03 RMK AO2 T02440067
93915KAEX AEX20161105164510811/05/16 16:45:31  5-MIN KAEX 052245Z AUTO 02003KT 10SM CLR 24/08 A3016 -130 35 900 020/03 RMK AO2 T02390078
93915KAEX AEX20161105165011511/05/16 16:50:31  5-MIN KAEX 052250Z AUTO 04003KT 10SM CLR 23/09 A3016 -130 39 800 040/03 RMK AO2 SLP217 T02330089
93915KAEX AEX20161105165510811/05/16 16:55:31  5-MIN KAEX 052255Z AUTO 04004KT 10SM CLR 23/10 A3016 -130 44 800 040/04 RMK AO2 T02280100
93915KAEX AEX20161105170010811/05/16 17:00:31  5-MIN KAEX 052300Z AUTO 04003KT 10SM CLR 22/10 A3016 -130 45 700 040/03 RMK AO2 T02220100
93915KAEX AEX20161105170510811/05/16 17:05:31  5-MIN KAEX 052305Z AUTO 04003KT 10SM CLR 21/11 A3016 -130 52 600 040/03 RMK AO2 T02110111
93915KAEX AEX20161105171010811/05/16 17:10:31  5-MIN KAEX 052310Z AUTO 05004KT 10SM CLR 20/11 A3016 -130 56 500 040/04 RMK AO2 T02000111
93915KAEX AEX20161105171510811/05/16 17:15:31  5-MIN KAEX 052315Z AUTO 07003KT 10SM CLR 19/11 A3017 -130 58 300 060/03 RMK AO2 T01890106
93915KAEX AEX20161105172010811/05/16 17:20:31  5-MIN KAEX 052320Z AUTO 06004KT 10SM CLR 19/11 A3016 -130 60 300 060/04 RMK AO2 T01890111
93915KAEX AEX20161105172510811/05/16 17:25:31  5-MIN KAEX 052325Z AUTO 05005KT 10SM CLR 18/11 A3017 -130 60 300 040/05 RMK AO2 T01830106
93915KAEX AEX20161105173010811/05/16 17:30:31  5-MIN KAEX 052330Z AUTO 05005KT 10SM CLR 18/10 A3017 -130 58 300 050/05 RMK AO2 T01830100
93915KAEX AEX20161105173510811/05/16 17:35:31  5-MIN KAEX 052335Z AUTO 05005KT 10SM CLR 18/10 A3017 -130 58 300 050/05 RMK AO2 T01830100
93915KAEX AEX20161105174010811/05/16 17:40:31  5-MIN KAEX 052340Z AUTO 03004KT 10SM CLR 18/11 A3017 -130 62 200 030/04 RMK AO2 T01780106
93915KAEX AEX20161105174510811/05/16 17:45:31  5-MIN KAEX 052345Z AUTO 02004KT 10SM CLR 17/10 A3017 -130 64 100 020/04 RMK AO2 T01670100
93915KAEX AEX20161105175013311/05/16 17:50:31  5-MIN KAEX 052350Z AUTO 02005KT 10SM CLR 17/10 A3017 -140 62 100 020/05 RMK AO2 SLP220 T01720100 10267 20167 56021
93915KAEX AEX20161105175510811/05/16 17:55:31  5-MIN KAEX 052355Z AUTO 02005KT 10SM CLR 17/10 A3017 -130 62 100 020/05 RMK AO2 T01720100
93915KAEX AEX20161105180010811/05/16 18:00:31  5-MIN KAEX 060000Z AUTO 02004KT 10SM CLR 17/10 A3017 -140 62 100 020/04 RMK AO2 T01720100
93915KAEX AEX20161105180510811/05/16 18:05:31  5-MIN KAEX 060005Z AUTO 03004KT 10SM CLR 18/10 A3018 -140 60 200 030/04 RMK AO2 T01780100
93915KAEX AEX20161105181010311/05/16 18:10:31  5-MIN KAEX 060010Z 03004KT 10SM CLR 18/09 A3018 -140 56 300 030/04 RMK AO2 T01830094
93915KAEX AEX20161105181510311/05/16 18:15:31  5-MIN KAEX 060015Z 04006KT 10SM CLR 18/09 A3018 -140 56 300 030/06 RMK AO2 T01830094
93915KAEX AEX20161105182010311/05/16 18:20:31  5-MIN KAEX 060020Z 04005KT 10SM CLR 18/09 A3018 -140 54 200 040/05 RMK AO2 T01830089
93915KAEX AEX20161105182510311/05/16 18:25:31  5-MIN KAEX 060025Z 04005KT 10SM CLR 18/09 A3018 -150 54 200 030/05 RMK AO2 T01830089
93915KAEX AEX20161105183010311/05/16 18:30:31  5-MIN KAEX 060030Z 04005KT 10SM CLR 19/09 A3018 -150 52 300 040/05 RMK AO2 T01890089
93915KAEX AEX20161105183510311/05/16 18:35:31  5-MIN KAEX 060035Z 04005KT 10SM CLR 18/09 A3019 -150 54 200 040/05 RMK AO2 T01830089
93915KAEX AEX20161105184010311/05/16 18:40:31  5-MIN KAEX 060040Z 04005KT 10SM CLR 18/09 A3019 -150 54 200 040/05 RMK AO2 T01830089
93915KAEX AEX20161105184510311/05/16 18:45:31  5-MIN KAEX 060045Z 04005KT 10SM CLR 18/09 A3019 -150 54 200 040/05 RMK AO2 T01830089
93915KAEX AEX20161105185011011/05/16 18:50:31  5-MIN KAEX 060050Z 04005KT 10SM CLR 18/09 A3019 -150 55 200 040/05 RMK AO2 SLP227 T01780089
93915KAEX AEX20161105185510311/05/16 18:55:31  5-MIN KAEX 060055Z 04004KT 10SM CLR 18/09 A3019 -150 55 200 040/04 RMK AO2 T01780089
93915KAEX AEX20161105190010311/05/16 19:00:31  5-MIN KAEX 060100Z 04004KT 10SM CLR 17/09 A3019 -160 60 100 030/04 RMK AO2 T01720094
93915KAEX AEX20161105190510311/05/16 19:05:31  5-MIN KAEX 060105Z 04005KT 10SM CLR 17/09 A3019 -160 60 100 040/05 RMK AO2 T01720094
93915KAEX AEX20161105191010311/05/16 19:10:31  5-MIN KAEX 060110Z 04005KT 10SM CLR 17/09 A3019 -160 60 100 040/05 RMK AO2 T01720094
93915KAEX AEX20161105191510311/05/16 19:15:31  5-MIN KAEX 060115Z 04005KT 10SM CLR 17/09 A3020 -160 57 100 040/05 RMK AO2 T01720089
93915KAEX AEX20161105192010311/05/16 19:20:31  5-MIN KAEX 060120Z 04005KT 10SM CLR 17/09 A3020 -160 57 100 040/05 RMK AO2 T01720089
93915KAEX AEX20161105192510311/05/16 19:25:31  5-MIN KAEX 060125Z 05006KT 10SM CLR 18/09 A3020 -160 55 200 040/06 RMK AO2 T01780089
93915KAEX AEX20161105193010311/05/16 19:30:31  5-MIN KAEX 060130Z 05006KT 10SM CLR 17/09 A3020 -160 57 100 040/06 RMK AO2 T01720089
93915KAEX AEX20161105193510311/05/16 19:35:31  5-MIN KAEX 060135Z 05006KT 10SM CLR 17/08 A3020 -160 55 100 050/06 RMK AO2 T01720083
93915KAEX AEX20161105194010311/05/16 19:40:31  5-MIN KAEX 060140Z 06006KT 10SM CLR 17/08 A3020 -160 55 100 050/06 RMK AO2 T01720083
93915KAEX AEX20161105194510311/05/16 19:45:31  5-MIN KAEX 060145Z 05006KT 10SM CLR 17/08 A3020 -160 55 100 050/06 RMK AO2 T01720083
93915KAEX AEX20161105195011011/05/16 19:50:31  5-MIN KAEX 060150Z 05006KT 10SM CLR 17/08 A3020 -160 55 100 050/06 RMK AO2 SLP230 T01720083
93915KAEX AEX20161105195510311/05/16 19:55:31  5-MIN KAEX 060155Z 05006KT 10SM CLR 17/08 A3020 -160 55 100 050/06 RMK AO2 T01720083
93915KAEX AEX20161105200010311/05/16 20:00:31  5-MIN KAEX 060200Z 04005KT 10SM CLR 17/08 A3020 -160 55 100 040/05 RMK AO2 T01720083
93915KAEX AEX20161105200510311/05/16 20:05:31  5-MIN KAEX 060205Z 05005KT 10SM CLR 17/08 A3020 -160 55 100 050/05 RMK AO2 T01720083
93915KAEX AEX20161105201010111/05/16 20:10:31  5-MIN KAEX 060210Z 04005KT 10SM CLR 17/08 A3020 -160 57 0 040/05 RMK AO2 T01670083
93915KAEX AEX20161105201510111/05/16 20:15:31  5-MIN KAEX 060215Z 05005KT 10SM CLR 17/09 A3020 -160 60 0 050/05 RMK AO2 T01670089
93915KAEX AEX20161105202010111/05/16 20:20:31  5-MIN KAEX 060220Z 05005KT 10SM CLR 17/09 A3020 -160 60 0 050/05 RMK AO2 T01670089
93915KAEX AEX20161105202510111/05/16 20:25:31  5-MIN KAEX 060225Z 05005KT 10SM CLR 16/09 A3020 -160 62 0 050/05 RMK AO2 T01610089
93915KAEX AEX20161105203010111/05/16 20:30:31  5-MIN KAEX 060230Z 06005KT 10SM CLR 16/08 A3020 -160 59 0 050/05 RMK AO2 T01610083
93915KAEX AEX20161105203510111/05/16 20:35:31  5-MIN KAEX 060235Z 06005KT 10SM CLR 16/08 A3020 -160 59 0 060/05 RMK AO2 T01610083
93915KAEX AEX20161105204010111/05/16 20:40:31  5-MIN KAEX 060240Z 05005KT 10SM CLR 16/08 A3020 -160 59 0 050/05 RMK AO2 T01610083
93915KAEX AEX20161105204510111/05/16 20:45:31  5-MIN KAEX 060245Z 05005KT 10SM CLR 16/08 A3020 -160 59 0 050/05 RMK AO2 T01610083
93915KAEX AEX20161105205011411/05/16 20:50:31  5-MIN KAEX 060250Z 06005KT 10SM CLR 16/08 A3020 -160 59 0 050/05 RMK AO2 SLP231 T01610083 53004
93915KAEX AEX20161105205510111/05/16 20:55:31  5-MIN KAEX 060255Z 06006KT 10SM CLR 16/08 A3020 -160 59 0 060/06 RMK AO2 T01610083
93915KAEX AEX20161105210010111/05/16 21:00:31  5-MIN KAEX 060300Z 05004KT 10SM CLR 16/08 A3021 -170 57 0 050/04 RMK AO2 T01610078
93915KAEX AEX20161105210510111/05/16 21:05:31  5-MIN KAEX 060305Z 06004KT 10SM CLR 16/08 A3021 -170 57 0 050/04 RMK AO2 T01610078
93915KAEX AEX20161105211010111/05/16 21:10:31  5-MIN KAEX 060310Z 06004KT 10SM CLR 16/08 A3021 -170 57 0 060/04 RMK AO2 T01610078
93915KAEX AEX20161105211510111/05/16 21:15:31  5-MIN KAEX 060315Z 05003KT 10SM CLR 16/08 A3021 -170 57 0 050/03 RMK AO2 T01610078
93915KAEX AEX20161105212010111/05/16 21:20:31  5-MIN KAEX 060320Z 05004KT 10SM CLR 16/08 A3021 -170 57 0 050/04 RMK AO2 T01610078
93915KAEX AEX20161105212510411/05/16 21:25:31  5-MIN KAEX 060325Z 07003KT 10SM CLR 16/08 A3021 -170 59 -100 060/03 RMK AO2 T01560078
93915KAEX AEX20161105213010411/05/16 21:30:31  5-MIN KAEX 060330Z 06003KT 10SM CLR 16/07 A3021 -170 57 -100 050/03 RMK AO2 T01560072
93915KAEX AEX20161105213510411/05/16 21:35:31  5-MIN KAEX 060335Z 06003KT 10SM CLR 16/07 A3021 -170 57 -100 060/03 RMK AO2 T01560072
93915KAEX AEX20161105214010411/05/16 21:40:31  5-MIN KAEX 060340Z 00000KT 10SM CLR 16/07 A3021 -170 57 -100 000/00 RMK AO2 T01560072
93915KAEX AEX20161105214510411/05/16 21:45:31  5-MIN KAEX 060345Z 00000KT 10SM CLR 14/07 A3022 -180 61 -200 000/00 RMK AO2 T01440072
93915KAEX AEX20161105215011111/05/16 21:50:31  5-MIN KAEX 060350Z 00000KT 10SM CLR 14/07 A3022 -180 59 -200 000/00 RMK AO2 SLP237 T01440067
93915KAEX AEX20161105215510411/05/16 21:55:31  5-MIN KAEX 060355Z 00000KT 10SM CLR 15/07 A3022 -180 59 -100 000/00 RMK AO2 T01500072
93915KAEX AEX20161105220010411/05/16 22:00:31  5-MIN KAEX 060400Z 00000KT 10SM CLR 14/07 A3022 -180 64 -300 000/00 RMK AO2 T01390072
93915KAEX AEX20161105220510411/05/16 22:05:31  5-MIN KAEX 060405Z 00000KT 10SM CLR 14/07 A3022 -180 64 -300 000/00 RMK AO2 T01390072
93915KAEX AEX20161105221010411/05/16 22:10:31  5-MIN KAEX 060410Z 00000KT 10SM CLR 13/08 A3022 -180 71 -300 000/00 RMK AO2 T01330083
93915KAEX AEX20161105221510411/05/16 22:15:31  5-MIN KAEX 060415Z 00000KT 10SM CLR 13/09 A3022 -180 77 -400 000/00 RMK AO2 T01280089
93915KAEX AEX20161105222010411/05/16 22:20:31  5-MIN KAEX 060420Z 00000KT 10SM CLR 13/08 A3022 -180 74 -400 000/00 RMK AO2 T01280083
93915KAEX AEX20161105222510411/05/16 22:25:31  5-MIN KAEX 060425Z 00000KT 10SM CLR 13/09 A3021 -170 77 -400 000/00 RMK AO2 T01280089
93915KAEX AEX20161105223010411/05/16 22:30:31  5-MIN KAEX 060430Z 05003KT 10SM CLR 13/08 A3021 -170 74 -400 050/03 RMK AO2 T01280083
93915KAEX AEX20161105223510411/05/16 22:35:31  5-MIN KAEX 060435Z 05003KT 10SM CLR 13/09 A3021 -170 77 -400 040/03 RMK AO2 T01280089
93915KAEX AEX20161105224010411/05/16 22:40:31  5-MIN KAEX 060440Z 00000KT 10SM CLR 13/08 A3022 -180 74 -400 000/00 RMK AO2 T01280083
93915KAEX AEX20161105224510411/05/16 22:45:31  5-MIN KAEX 060445Z 00000KT 10SM CLR 12/07 A3022 -180 71 -500 000/00 RMK AO2 T01220072
93915KAEX AEX20161105225011111/05/16 22:50:31  5-MIN KAEX 060450Z 00000KT 10SM CLR 12/06 A3022 -180 63 -500 000/00 RMK AO2 SLP236 T01220056
93915KAEX AEX20161105225510411/05/16 22:55:31  5-MIN KAEX 060455Z 00000KT 10SM CLR 12/05 A3022 -180 61 -500 000/00 RMK AO2 T01220050
93915KAEX AEX20161105230010411/05/16 23:00:31  5-MIN KAEX 060500Z 00000KT 10SM CLR 12/06 A3021 -170 63 -500 000/00 RMK AO2 T01220056
93915KAEX AEX20161105230510411/05/16 23:05:31  5-MIN KAEX 060505Z 00000KT 10SM CLR 12/06 A3021 -170 66 -500 000/00 RMK AO2 T01170056
93915KAEX AEX20161105231010411/05/16 23:10:31  5-MIN KAEX 060510Z 00000KT 10SM CLR 12/06 A3021 -170 66 -500 000/00 RMK AO2 T01170056
93915KAEX AEX20161105231510411/05/16 23:15:31  5-MIN KAEX 060515Z 00000KT 10SM CLR 12/06 A3021 -170 66 -500 000/00 RMK AO2 T01170056
93915KAEX AEX20161105232010411/05/16 23:20:31  5-MIN KAEX 060520Z 00000KT 10SM CLR 12/06 A3021 -170 68 -500 000/00 RMK AO2 T01170061
93915KAEX AEX20161105232510411/05/16 23:25:31  5-MIN KAEX 060525Z 00000KT 10SM CLR 12/07 A3021 -170 71 -500 000/00 RMK AO2 T01170067
93915KAEX AEX20161105233010411/05/16 23:30:31  5-MIN KAEX 060530Z 00000KT 10SM CLR 11/06 A3021 -170 71 -600 000/00 RMK AO2 T01110061
93915KAEX AEX20161105233510411/05/16 23:35:31  5-MIN KAEX 060535Z 00000KT 10SM CLR 11/06 A3021 -170 71 -600 000/00 RMK AO2 T01110061
93915KAEX AEX20161105234010411/05/16 23:40:31  5-MIN KAEX 060540Z 00000KT 10SM CLR 11/06 A3021 -170 71 -600 000/00 RMK AO2 T01110061
93915KAEX AEX20161105234510411/05/16 23:45:31  5-MIN KAEX 060545Z 00000KT 10SM CLR 11/06 A3021 -170 74 -700 000/00 RMK AO2 T01060061
93915KAEX AEX20161105235013911/05/16 23:50:31  5-MIN KAEX 060550Z 00000KT 10SM CLR 11/05 A3021 -170 68 -700 000/00 RMK AO2 SLP233 T01060050 10189 20106 402670106 51010
93915KAEX AEX20161105235510411/05/16 23:55:31  5-MIN KAEX 060555Z 00000KT 10SM CLR 11/05 A3021 -170 68 -700 000/00 RMK AO2 T01060050
93915KAEX AEX20161106000010411/06/16 00:00:31  5-MIN KAEX 060600Z 00000KT 10SM CLR 11/05 A3021 -170 66 -600 000/00 RMK AO2 T01110050
93915KAEX AEX20161106000510411/06/16 00:05:31  5-MIN KAEX 060605Z 00000KT 10SM CLR 11/06 A3021 -170 68 -600 000/00 RMK AO2 T01110056
93915KAEX AEX20161106001010411/06/16 00:10:31  5-MIN KAEX 060610Z 00000KT 10SM CLR 12/07 A3020 -160 71 -500 000/00 RMK AO2 T01170067
93915KAEX AEX20161106001510411/06/16 00:15:31  5-MIN KAEX 060615Z 00000KT 10SM CLR 11/07 A3020 -160 77 -600 000/00 RMK AO2 T01110072
93915KAEX AEX20161106002010411/06/16 00:20:31  5-MIN KAEX 060620Z 00000KT 10SM CLR 11/07 A3020 -160 77 -600 000/00 RMK AO2 T01110072
93915KAEX AEX20161106002510411/06/16 00:25:31  5-MIN KAEX 060625Z 00000KT 10SM CLR 11/08 A3020 -160 80 -600 000/00 RMK AO2 T01110078
93915KAEX AEX20161106003010411/06/16 00:30:31  5-MIN KAEX 060630Z 00000KT 10SM CLR 11/08 A3019 -160 83 -600 000/00 RMK AO2 T01060078
93915KAEX AEX20161106003510411/06/16 00:35:31  5-MIN KAEX 060635Z 00000KT 10SM CLR 10/06 A3019 -150 77 -700 000/00 RMK AO2 T01000061
93915KAEX AEX20161106004010411/06/16 00:40:31  5-MIN KAEX 060640Z 31003KT 10SM CLR 10/07 A3019 -150 83 -700 300/03 RMK AO2 T01000072
93915KAEX AEX20161106004510411/06/16 00:45:31  5-MIN KAEX 060645Z 31003KT 10SM CLR 10/07 A3019 -150 83 -700 310/03 RMK AO2 T01000072
93915KAEX AEX20161106005011111/06/16 00:50:31  5-MIN KAEX 060650Z 29003KT 10SM CLR 10/07 A3019 -150 83 -700 290/03 RMK AO2 SLP226 T01000072
93915KAEX AEX20161106005510411/06/16 00:55:31  5-MIN KAEX 060655Z 00000KT 10SM CLR 10/07 A3019 -150 80 -700 000/00 RMK AO2 T01000067
93915KAEX AEX20161106010010411/06/16 01:00:31  5-MIN KAEX 060700Z 00000KT 10SM CLR 10/06 A3018 -150 77 -700 000/00 RMK AO2 T01000061
93915KAEX AEX20161106010510411/06/16 01:05:31  5-MIN KAEX 060705Z 00000KT 10SM CLR 10/06 A3018 -150 74 -700 000/00 RMK AO2 T01000056
93915KAEX AEX20161106011010411/06/16 01:10:31  5-MIN KAEX 060710Z 00000KT 10SM CLR 10/05 A3018 -150 71 -700 000/00 RMK AO2 T01000050
93915KAEX AEX20161106011510411/06/16 01:15:31  5-MIN KAEX 060715Z 00000KT 10SM CLR 10/06 A3018 -150 74 -700 000/00 RMK AO2 T01000056
93915KAEX AEX20161106012010411/06/16 01:20:31  5-MIN KAEX 060720Z 00000KT 10SM CLR 11/06 A3018 -150 74 -600 000/00 RMK AO2 T01060061
93915KAEX AEX20161106012510411/06/16 01:25:31  5-MIN KAEX 060725Z 00000KT 10SM CLR 10/06 A3018 -150 77 -700 000/00 RMK AO2 T01000061
93915KAEX AEX20161106013010411/06/16 01:30:31  5-MIN KAEX 060730Z 00000KT 10SM CLR 11/07 A3018 -150 77 -600 000/00 RMK AO2 T01060067
93915KAEX AEX20161106013510411/06/16 01:35:31  5-MIN KAEX 060735Z 00000KT 10SM CLR 11/06 A3018 -150 74 -600 000/00 RMK AO2 T01060061
93915KAEX AEX20161106014010411/06/16 01:40:31  5-MIN KAEX 060740Z 00000KT 10SM CLR 10/06 A3018 -150 74 -700 000/00 RMK AO2 T01000056
93915KAEX AEX20161106014510411/06/16 01:45:31  5-MIN KAEX 060745Z 00000KT 10SM CLR 10/06 A3018 -150 74 -700 000/00 RMK AO2 T01000056
93915KAEX AEX20161106015011111/06/16 01:50:31  5-MIN KAEX 060750Z 00000KT 10SM CLR 11/06 A3018 -150 74 -600 000/00 RMK AO2 SLP225 T01060061
93915KAEX AEX20161106015510411/06/16 01:55:31  5-MIN KAEX 060755Z 25003KT 10SM CLR 11/06 A3019 -150 74 -600 250/03 RMK AO2 T01060061
93915KAEX AEX20161106020010411/06/16 02:00:31  5-MIN KAEX 060800Z 26004KT 10SM CLR 10/06 A3019 -150 74 -700 250/04 RMK AO2 T01000056
93915KAEX AEX20161106020510411/06/16 02:05:31  5-MIN KAEX 060805Z 25003KT 10SM CLR 11/07 A3019 -150 77 -600 240/03 RMK AO2 T01060067
93915KAEX AEX20161106021010411/06/16 02:10:31  5-MIN KAEX 060810Z 26003KT 10SM CLR 11/07 A3019 -150 77 -600 260/03 RMK AO2 T01060067
93915KAEX AEX20161106021510411/06/16 02:15:31  5-MIN KAEX 060815Z 00000KT 10SM CLR 11/07 A3019 -150 80 -600 000/00 RMK AO2 T01060072
93915KAEX AEX20161106022010411/06/16 02:20:31  5-MIN KAEX 060820Z 00000KT 10SM CLR 11/07 A3019 -150 77 -600 000/00 RMK AO2 T01060067
93915KAEX AEX20161106022510411/06/16 02:25:31  5-MIN KAEX 060825Z 00000KT 10SM CLR 11/07 A3019 -150 77 -600 000/00 RMK AO2 T01060067
93915KAEX AEX20161106023010411/06/16 02:30:31  5-MIN KAEX 060830Z 00000KT 10SM CLR 11/07 A3018 -150 77 -600 000/00 RMK AO2 T01060067
93915KAEX AEX20161106023510411/06/16 02:35:31  5-MIN KAEX 060835Z 00000KT 10SM CLR 11/06 A3018 -150 74 -600 000/00 RMK AO2 T01060061
93915KAEX AEX20161106024010411/06/16 02:40:31  5-MIN KAEX 060840Z 00000KT 10SM CLR 11/06 A3019 -150 71 -600 000/00 RMK AO2 T01060056
93915KAEX AEX20161106024510411/06/16 02:45:31  5-MIN KAEX 060845Z 00000KT 10SM CLR 11/06 A3018 -150 71 -600 000/00 RMK AO2 T01060056
93915KAEX AEX20161106025011711/06/16 02:50:31  5-MIN KAEX 060850Z 00000KT 10SM CLR 11/06 A3018 -150 74 -600 000/00 RMK AO2 SLP225 T01060061 50002
93915KAEX AEX20161106025510411/06/16 02:55:31  5-MIN KAEX 060855Z 00000KT 10SM CLR 11/06 A3018 -150 74 -600 000/00 RMK AO2 T01060061
93915KAEX AEX20161106030010411/06/16 03:00:31  5-MIN KAEX 060900Z 00000KT 10SM CLR 11/06 A3018 -140 71 -600 000/00 RMK AO2 T01060056
93915KAEX AEX20161106030510411/06/16 03:05:31  5-MIN KAEX 060905Z 00000KT 10SM CLR 11/06 A3018 -140 71 -600 000/00 RMK AO2 T01060056
93915KAEX AEX20161106031010411/06/16 03:10:31  5-MIN KAEX 060910Z 00000KT 10SM CLR 11/06 A3018 -140 71 -600 000/00 RMK AO2 T01060056
93915KAEX AEX20161106031510411/06/16 03:15:31  5-MIN KAEX 060915Z 00000KT 10SM CLR 11/06 A3018 -140 74 -600 000/00 RMK AO2 T01060061
93915KAEX AEX20161106032010411/06/16 03:20:31  5-MIN KAEX 060920Z 00000KT 10SM CLR 11/06 A3018 -140 74 -600 000/00 RMK AO2 T01060061
93915KAEX AEX20161106032510411/06/16 03:25:31  5-MIN KAEX 060925Z 00000KT 10SM CLR 11/06 A3018 -140 71 -600 000/00 RMK AO2 T01110061
93915KAEX AEX20161106033010411/06/16 03:30:31  5-MIN KAEX 060930Z 00000KT 10SM CLR 11/07 A3018 -140 74 -600 000/00 RMK AO2 T01110067
93915KAEX AEX20161106033510411/06/16 03:35:31  5-MIN KAEX 060935Z 00000KT 10SM CLR 11/06 A3018 -140 71 -600 000/00 RMK AO2 T01110061
93915KAEX AEX20161106034010411/06/16 03:40:31  5-MIN KAEX 060940Z 00000KT 10SM CLR 11/06 A3017 -140 71 -600 000/00 RMK AO2 T01110061
93915KAEX AEX20161106034510411/06/16 03:45:31  5-MIN KAEX 060945Z 00000KT 10SM CLR 11/06 A3018 -140 71 -600 000/00 RMK AO2 T01110061
93915KAEX AEX20161106035011111/06/16 03:50:31  5-MIN KAEX 060950Z 00000KT 10SM CLR 11/06 A3018 -140 71 -600 000/00 RMK AO2 SLP223 T01110061
93915KAEX AEX20161106035510411/06/16 03:55:31  5-MIN KAEX 060955Z 00000KT 10SM CLR 11/06 A3018 -150 71 -600 000/00 RMK AO2 T01110061
93915KAEX AEX20161106040010411/06/16 04:00:31  5-MIN KAEX 061000Z 00000KT 10SM CLR 12/07 A3018 -150 71 -500 000/00 RMK AO2 T01170067
93915KAEX AEX20161106040510411/06/16 04:05:31  5-MIN KAEX 061005Z 00000KT 10SM CLR 12/07 A3018 -150 74 -500 000/00 RMK AO2 T01170072
93915KAEX AEX20161106041010411/06/16 04:10:31  5-MIN KAEX 061010Z 00000KT 10SM CLR 12/07 A3018 -140 74 -500 000/00 RMK AO2 T01170072
93915KAEX AEX20161106041510411/06/16 04:15:31  5-MIN KAEX 061015Z 00000KT 10SM CLR 12/08 A3018 -140 77 -500 000/00 RMK AO2 T01170078
93915KAEX AEX20161106042010411/06/16 04:20:31  5-MIN KAEX 061020Z 00000KT 10SM CLR 12/08 A3018 -150 80 -500 000/00 RMK AO2 T01170083
93915KAEX AEX20161106042510411/06/16 04:25:31  5-MIN KAEX 061025Z 00000KT 10SM CLR 11/08 A3018 -150 83 -600 000/00 RMK AO2 T01110083
93915KAEX AEX20161106043010411/06/16 04:30:31  5-MIN KAEX 061030Z 00000KT 10SM CLR 12/08 A3018 -150 80 -500 000/00 RMK AO2 T01170083
93915KAEX AEX20161106043510411/06/16 04:35:31  5-MIN KAEX 061035Z 00000KT 10SM CLR 12/08 A3018 -150 80 -500 000/00 RMK AO2 T01170083
93915KAEX AEX20161106044010411/06/16 04:40:31  5-MIN KAEX 061040Z 00000KT 10SM CLR 12/08 A3018 -150 80 -500 000/00 RMK AO2 T01170083
93915KAEX AEX20161106044510411/06/16 04:45:31  5-MIN KAEX 061045Z 00000KT 10SM CLR 12/08 A3018 -150 80 -500 000/00 RMK AO2 T01170083
93915KAEX AEX20161106045011111/06/16 04:50:31  5-MIN KAEX 061050Z 00000KT 10SM CLR 12/08 A3019 -150 77 -400 000/00 RMK AO2 SLP226 T01220083
93915KAEX AEX20161106045510711/06/16 04:55:31  5-MIN KAEX 061055Z 00000KT 10SM FEW120 12/08 A3019 -150 74 -400 000/00 RMK AO2 T01220078
93915KAEX AEX20161106050010711/06/16 05:00:31  5-MIN KAEX 061100Z 00000KT 10SM FEW120 12/07 A3019 -150 71 -400 000/00 RMK AO2 T01220072
93915KAEX AEX20161106050510711/06/16 05:05:31  5-MIN KAEX 061105Z 00000KT 10SM FEW120 12/08 A3019 -150 74 -400 000/00 RMK AO2 T01220078
93915KAEX AEX20161106051010711/06/16 05:10:31  5-MIN KAEX 061110Z 00000KT 10SM FEW120 12/08 A3019 -150 77 -400 000/00 RMK AO2 T01220083
93915KAEX AEX20161106051510711/06/16 05:15:31  5-MIN KAEX 061115Z 00000KT 10SM FEW120 12/08 A3019 -150 77 -500 000/00 RMK AO2 T01170078
93915KAEX AEX20161106052010411/06/16 05:20:31  5-MIN KAEX 061120Z 00000KT 10SM CLR 12/08 A3019 -150 80 -500 000/00 RMK AO2 T01170083
93915KAEX AEX20161106052510711/06/16 05:25:31  5-MIN KAEX 061125Z 01003KT 10SM FEW120 12/09 A3019 -150 83 -500 010/03 RMK AO2 T01170089
93915KAEX AEX20161106053010711/06/16 05:30:31  5-MIN KAEX 061130Z 01003KT 10SM SCT120 12/08 A3019 -150 74 -400 010/03 RMK AO2 T01220078
93915KAEX AEX20161106053510711/06/16 05:35:31  5-MIN KAEX 061135Z 00000KT 10SM BKN120 12/08 A3019 -150 80 -500 000/00 RMK AO2 T01170083
93915KAEX AEX20161106054010711/06/16 05:40:31  5-MIN KAEX 061140Z 00000KT 10SM BKN120 12/08 A3019 -150 77 -400 000/00 RMK AO2 T01220083
93915KAEX AEX20161106054511411/06/16 05:45:31  5-MIN KAEX 061145Z 00000KT 10SM FEW080 BKN120 12/09 A3019 -150 80 -400 000/00 RMK AO2 T01220089
93915KAEX AEX20161106055013911/06/16 05:50:31  5-MIN KAEX 061150Z 00000KT 10SM FEW080 BKN120 12/09 A3019 -150 80 -400 000/00 RMK AO2 SLP227 T01220089 10122 20100 56008
93915KAEX AEX20161106055511411/06/16 05:55:31  5-MIN KAEX 061155Z 00000KT 10SM SCT080 BKN120 13/09 A3019 -150 77 -400 000/00 RMK AO2 T01280089
93915KAEX AEX20161106060011411/06/16 06:00:31  5-MIN KAEX 061200Z 00000KT 10SM BKN080 BKN120 13/08 A3019 -160 74 -400 000/00 RMK AO2 T01280083
93915KAEX AEX20161106060511411/06/16 06:05:31  5-MIN KAEX 061205Z 00000KT 10SM BKN080 BKN120 13/09 A3019 -160 77 -400 000/00 RMK AO2 T01280089
93915KAEX AEX20161106061011411/06/16 06:10:31  5-MIN KAEX 061210Z 00000KT 10SM BKN080 BKN120 13/09 A3019 -160 77 -400 000/00 RMK AO2 T01280089
93915KAEX AEX20161106061511411/06/16 06:15:31  5-MIN KAEX 061215Z 00000KT 10SM BKN080 BKN120 13/09 A3020 -160 77 -400 000/00 RMK AO2 T01280089
93915KAEX AEX20161106062011411/06/16 06:20:31  5-MIN KAEX 061220Z 00000KT 10SM BKN080 OVC120 13/09 A3020 -160 80 -400 000/00 RMK AO2 T01280094
93915KAEX AEX20161106062511411/06/16 06:25:31  5-MIN KAEX 061225Z 35003KT 10SM BKN080 OVC120 13/09 A3020 -160 80 -400 340/03 RMK AO2 T01280094
93915KAEX AEX20161106063011411/06/16 06:30:31  5-MIN KAEX 061230Z 35003KT 10SM BKN080 OVC120 13/09 A3020 -160 77 -400 350/03 RMK AO2 T01280089
93915KAEX AEX20161106063510711/06/16 06:35:31  5-MIN KAEX 061235Z 35003KT 10SM OVC080 13/09 A3020 -160 77 -400 350/03 RMK AO2 T01280089
93915KAEX AEX20161106064010711/06/16 06:40:31  5-MIN KAEX 061240Z 00000KT 10SM OVC080 13/09 A3020 -160 77 -400 000/00 RMK AO2 T01280089
93915KAEX AEX20161106064510711/06/16 06:45:31  5-MIN KAEX 061245Z 00000KT 10SM OVC080 13/08 A3020 -160 74 -400 000/00 RMK AO2 T01280083
93915KAEX AEX20161106065011411/06/16 06:50:31  5-MIN KAEX 061250Z 00000KT 10SM OVC080 13/09 A3020 -170 77 -400 000/00 RMK AO2 SLP232 T01280089
93915KAEX AEX20161106065510711/06/16 06:55:31  5-MIN KAEX 061255Z 00000KT 10SM OVC080 13/09 A3020 -170 77 -400 000/00 RMK AO2 T01280089
93915KAEX AEX20161106070010711/06/16 07:00:31  5-MIN KAEX 061300Z 00000KT 10SM BKN080 13/09 A3020 -170 74 -300 000/00 RMK AO2 T01330089
93915KAEX AEX20161106070510711/06/16 07:05:31  5-MIN KAEX 061305Z 00000KT 10SM BKN085 13/09 A3020 -160 74 -300 000/00 RMK AO2 T01330089
93915KAEX AEX20161106071010711/06/16 07:10:31  5-MIN KAEX 061310Z 00000KT 10SM BKN085 13/09 A3020 -160 74 -300 000/00 RMK AO2 T01330089
93915KAEX AEX20161106071510711/06/16 07:15:31  5-MIN KAEX 061315Z 00000KT 10SM BKN085 13/09 A3021 -170 74 -300 000/00 RMK AO2 T01330089
93915KAEX AEX20161106072010711/06/16 07:20:31  5-MIN KAEX 061320Z 00000KT 10SM BKN085 13/09 A3021 -170 74 -300 000/00 RMK AO2 T01330089
93915KAEX AEX20161106072510711/06/16 07:25:31  5-MIN KAEX 061325Z 00000KT 10SM BKN085 14/09 A3021 -170 71 -300 000/00 RMK AO2 T01390089
93915KAEX AEX20161106073010711/06/16 07:30:31  5-MIN KAEX 061330Z 09003KT 10SM SCT085 14/09 A3021 -170 71 -300 090/03 RMK AO2 T01390089
93915KAEX AEX20161106073510711/06/16 07:35:31  5-MIN KAEX 061335Z 07003KT 10SM SCT085 14/09 A3021 -170 71 -300 070/03 RMK AO2 T01390089
93915KAEX AEX20161106074010711/06/16 07:40:31  5-MIN KAEX 061340Z 04003KT 10SM FEW085 14/09 A3021 -170 72 -200 040/03 RMK AO2 T01440094
93915KAEX AEX20161106074510711/06/16 07:45:31  5-MIN KAEX 061345Z 00000KT 10SM FEW085 14/09 A3021 -170 72 -200 000/00 RMK AO2 T01440094
93915KAEX AEX20161106075011111/06/16 07:50:31  5-MIN KAEX 061350Z 00000KT 10SM CLR 15/09 A3021 -170 69 -100 000/00 RMK AO2 SLP235 T01500094
93915KAEX AEX20161106075510411/06/16 07:55:31  5-MIN KAEX 061355Z 09004KT 10SM CLR 15/09 A3021 -170 69 -100 090/04 RMK AO2 T01500094
93915KAEX AEX20161106080010711/06/16 08:00:31  5-MIN KAEX 061400Z 00000KT 10SM FEW005 15/10 A3022 -180 72 -100 000/00 RMK AO2 T01500100
93915KAEX AEX20161106080510711/06/16 08:05:31  5-MIN KAEX 061405Z 00000KT 10SM SCT005 15/10 A3022 -180 72 -100 000/00 RMK AO2 T01500100
93915KAEX AEX20161106081010711/06/16 08:10:31  5-MIN KAEX 061410Z 07003KT 10SM BKN005 15/10 A3022 -180 72 -100 060/03 RMK AO2 T01500100
93915KAEX AEX20161106081510711/06/16 08:15:31  5-MIN KAEX 061415Z 08003KT 10SM SCT005 15/10 A3022 -180 72 -100 080/03 RMK AO2 T01500100
93915KAEX AEX20161106082011411/06/16 08:20:31  5-MIN KAEX 061420Z 08003KT 10SM SCT005 SCT085 16/10 A3022 -180 69 -100 080/03 RMK AO2 T01560100
93915KAEX AEX20161106082511411/06/16 08:25:31  5-MIN KAEX 061425Z 00000KT 10SM SCT005 BKN085 16/10 A3022 -180 69 -100 000/00 RMK AO2 T01560100
93915KAEX AEX20161106083011411/06/16 08:30:31  5-MIN KAEX 061430Z 00000KT 10SM FEW005 SCT085 16/11 A3022 -180 72 -100 000/00 RMK AO2 T01560106
93915KAEX AEX20161106083511111/06/16 08:35:31  5-MIN KAEX 061435Z 00000KT 10SM FEW005 FEW085 16/11 A3022 -180 69 0 000/00 RMK AO2 T01610106
93915KAEX AEX20161106084010411/06/16 08:40:31  5-MIN KAEX 061440Z 00000KT 10SM FEW085 17/11 A3022 -180 67 0 000/00 RMK AO2 T01670106
93915KAEX AEX20161106084510411/06/16 08:45:31  5-MIN KAEX 061445Z 00000KT 10SM FEW085 17/11 A3022 -180 67 0 000/00 RMK AO2 T01670106
93915KAEX AEX20161106085011411/06/16 08:50:31  5-MIN KAEX 061450Z 00000KT 10SM CLR 17/11 A3022 -180 69 0 000/00 RMK AO2 SLP238 T01670111 53002
93915KAEX AEX20161106085510111/06/16 08:55:31  5-MIN KAEX 061455Z 10003KT 10SM CLR 17/11 A3023 -180 69 0 090/03 RMK AO2 T01670111
93915KAEX AEX20161106090010311/06/16 09:00:31  5-MIN KAEX 061500Z 10003KT 10SM CLR 17/11 A3022 -180 67 100 100/03 RMK AO2 T01720111
93915KAEX AEX20161106090510311/06/16 09:05:31  5-MIN KAEX 061505Z 08003KT 10SM CLR 18/11 A3022 -180 64 100 080/03 RMK AO2 T01780111
93915KAEX AEX20161106091010311/06/16 09:10:31  5-MIN KAEX 061510Z 10004KT 10SM CLR 18/12 A3022 -180 67 100 100/04 RMK AO2 T01780117
93915KAEX AEX20161106091510311/06/16 09:15:31  5-MIN KAEX 061515Z 08004KT 10SM CLR 18/12 A3022 -180 67 100 080/04 RMK AO2 T01780117
93915KAEX AEX20161106092010311/06/16 09:20:31  5-MIN KAEX 061520Z 10003KT 10SM CLR 18/12 A3023 -180 67 200 100/03 RMK AO2 T01830122
93915KAEX AEX20161106092510311/06/16 09:25:31  5-MIN KAEX 061525Z 11004KT 10SM CLR 18/12 A3022 -180 67 200 110/04 RMK AO2 T01830122
93915KAEX AEX20161106093010311/06/16 09:30:31  5-MIN KAEX 061530Z 10003KT 10SM CLR 19/13 A3022 -180 67 300 100/03 RMK AO2 T01890128
93915KAEX AEX20161106093510311/06/16 09:35:31  5-MIN KAEX 061535Z 11004KT 10SM CLR 19/13 A3022 -180 67 300 110/04 RMK AO2 T01940133
93915KAEX AEX20161106094010311/06/16 09:40:31  5-MIN KAEX 061540Z 12005KT 10SM CLR 19/13 A3022 -180 67 300 110/05 RMK AO2 T01940133
93915KAEX AEX20161106094510311/06/16 09:45:31  5-MIN KAEX 061545Z 10006KT 10SM CLR 21/14 A3022 -180 65 500 100/06 RMK AO2 T02060139
93915KAEX AEX20161106095011011/06/16 09:50:31  5-MIN KAEX 061550Z 12008KT 10SM CLR 21/14 A3021 -170 65 500 120/08 RMK AO2 SLP235 T02060139
93915KAEX AEX20161106095510311/06/16 09:55:31  5-MIN KAEX 061555Z 11009KT 10SM CLR 21/14 A3021 -170 65 500 110/09 RMK AO2 T02110144
93915KAEX AEX20161106100010311/06/16 10:00:31  5-MIN KAEX 061600Z 10007KT 10SM CLR 21/14 A3021 -170 65 500 100/07 RMK AO2 T02060139
93915KAEX AEX20161106100510311/06/16 10:05:31  5-MIN KAEX 061605Z 13008KT 10SM CLR 21/14 A3021 -170 65 500 130/08 RMK AO2 T02110144
93915KAEX AEX20161106101010311/06/16 10:10:31  5-MIN KAEX 061610Z 13008KT 10SM CLR 21/14 A3021 -170 63 500 130/08 RMK AO2 T02110139
93915KAEX AEX20161106101510311/06/16 10:15:31  5-MIN KAEX 061615Z 14007KT 10SM CLR 21/14 A3021 -170 63 500 140/07 RMK AO2 T02110139
93915KAEX AEX20161106102010311/06/16 10:20:31  5-MIN KAEX 061620Z 12008KT 10SM CLR 21/14 A3021 -170 63 500 120/08 RMK AO2 T02110139
93915KAEX AEX20161106102510311/06/16 10:25:31  5-MIN KAEX 061625Z 11007KT 10SM CLR 21/14 A3020 -160 63 500 110/07 RMK AO2 T02110139
93915KAEX AEX20161106103010311/06/16 10:30:31  5-MIN KAEX 061630Z 11006KT 10SM CLR 22/14 A3020 -160 61 600 110/06 RMK AO2 T02170139
93915KAEX AEX20161106103510311/06/16 10:35:31  5-MIN KAEX 061635Z 12007KT 10SM CLR 22/14 A3020 -160 59 700 120/07 RMK AO2 T02220139
93915KAEX AEX20161106104010311/06/16 10:40:31  5-MIN KAEX 061640Z 12006KT 10SM CLR 23/14 A3020 -160 57 700 120/06 RMK AO2 T02280139
93915KAEX AEX20161106104510311/06/16 10:45:31  5-MIN KAEX 061645Z 10008KT 10SM CLR 23/14 A3020 -160 57 700 100/08 RMK AO2 T02280139
93915KAEX AEX20161106105011011/06/16 10:50:31  5-MIN KAEX 061650Z 12008KT 10SM CLR 23/14 A3019 -160 57 800 110/08 RMK AO2 SLP228 T02330144
93915KAEX AEX20161106105510311/06/16 10:55:31  5-MIN KAEX 061655Z 11007KT 10SM CLR 23/14 A3019 -150 57 800 110/07 RMK AO2 T02330144
93915KAEX AEX20161106110010311/06/16 11:00:31  5-MIN KAEX 061700Z 12010KT 10SM CLR 24/14 A3019 -150 53 900 120/10 RMK AO2 T02390139
93915KAEX AEX20161106110512011/06/16 11:05:31  5-MIN KAEX 061705Z 14008KT 110V170 10SM CLR 24/14 A3018 -150 51 1000 140/08 110V170 RMK AO2 T02440139
93915KAEX AEX20161106111010411/06/16 11:10:31  5-MIN KAEX 061710Z 14008KT 10SM CLR 24/14 A3018 -140 53 1000 140/08 RMK AO2 T02440144
93915KAEX AEX20161106111510411/06/16 11:15:31  5-MIN KAEX 061715Z 14010KT 10SM CLR 25/14 A3018 -140 49 1000 140/10 RMK AO2 T02500139
93915KAEX AEX20161106112010411/06/16 11:20:31  5-MIN KAEX 061720Z 13008KT 10SM CLR 24/14 A3018 -140 51 1000 130/08 RMK AO2 T02440139
93915KAEX AEX20161106112510411/06/16 11:25:31  5-MIN KAEX 061725Z 12009KT 10SM CLR 24/14 A3017 -140 53 1000 120/09 RMK AO2 T02440144
93915KAEX AEX20161106113010411/06/16 11:30:31  5-MIN KAEX 061730Z 13010KT 10SM CLR 25/14 A3017 -130 49 1000 130/10 RMK AO2 T02500139
93915KAEX AEX20161106113510411/06/16 11:35:31  5-MIN KAEX 061735Z 12011KT 10SM CLR 26/14 A3017 -130 48 1100 120/11 RMK AO2 T02560139
93915KAEX AEX20161106114011011/06/16 11:40:31  5-MIN KAEX 061740Z 13014G18KT 10SM CLR 26/14 A3016 -130 48 1100 120/14G18 RMK AO2 T02560139
93915KAEX AEX20161106114511011/06/16 11:45:31  5-MIN KAEX 061745Z 13007G18KT 10SM CLR 26/13 A3016 -130 46 1100 130/07G18 RMK AO2 T02560133
93915KAEX AEX20161106115012911/06/16 11:50:31  5-MIN KAEX 061750Z 13012KT 10SM CLR 26/14 A3016 -130 48 1100 130/12 RMK AO2 SLP217 T02560139 10256 20128 51012
93915KAEX AEX20161106115510711/06/16 11:55:31  5-MIN KAEX 061755Z 13010KT 10SM FEW090 25/13 A3016 -130 48 1000 130/10 RMK AO2 T02500133
93915KAEX AEX20161106120010711/06/16 12:00:31  5-MIN KAEX 061800Z 14012KT 10SM FEW090 26/13 A3016 -120 46 1100 130/12 RMK AO2 T02560133
93915KAEX AEX20161106120510711/06/16 12:05:31  5-MIN KAEX 061805Z 13010KT 10SM FEW090 26/13 A3016 -120 44 1200 120/10 RMK AO2 T02610133
93915KAEX AEX20161106121010711/06/16 12:10:31  5-MIN KAEX 061810Z 14013KT 10SM SCT090 26/13 A3016 -120 44 1100 130/13 RMK AO2 T02560128
93915KAEX AEX20161106121510711/06/16 12:15:31  5-MIN KAEX 061815Z 15010KT 10SM SCT090 26/13 A3015 -120 44 1100 140/10 RMK AO2 T02560128
93915KAEX AEX20161106122010711/06/16 12:20:31  5-MIN KAEX 061820Z 14010KT 10SM SCT090 26/13 A3015 -120 46 1100 140/10 RMK AO2 T02560133
93915KAEX AEX20161106122510711/06/16 12:25:31  5-MIN KAEX 061825Z 13009KT 10SM FEW090 26/13 A3015 -110 46 1100 130/09 RMK AO2 T02560133
93915KAEX AEX20161106123010711/06/16 12:30:31  5-MIN KAEX 061830Z 12010KT 10SM FEW090 26/13 A3014 -110 46 1100 120/10 RMK AO2 T02560133
93915KAEX AEX20161106123510711/06/16 12:35:31  5-MIN KAEX 061835Z 13009KT 10SM FEW090 26/13 A3014 -110 46 1100 130/09 RMK AO2 T02560133
93915KAEX AEX20161106124012311/06/16 12:40:31  5-MIN KAEX 061840Z 13007KT 100V170 10SM FEW090 25/13 A3014 -100 46 1100 130/07 100V170 RMK AO2 T02500128
93915KAEX AEX20161106124510711/06/16 12:45:31  5-MIN KAEX 061845Z 11011KT 10SM FEW090 26/13 A3013 -100 44 1100 110/11 RMK AO2 T02560128
93915KAEX AEX20161106125011411/06/16 12:50:31  5-MIN KAEX 061850Z 12007KT 10SM FEW090 26/13 A3013 -100 46 1100 120/07 RMK AO2 SLP207 T02560133
93915KAEX AEX20161106125512311/06/16 12:55:31  5-MIN KAEX 061855Z 12007KT 090V160 10SM FEW090 26/13 A3013 -100 46 1100 120/07 090V160 RMK AO2 T02560133
93915KAEX AEX20161106130010611/06/16 13:00:31  5-MIN KAEX 061900Z 12005KT 10SM FEW090 26/13 A3012 -90 46 1100 120/05 RMK AO2 T02560133
93915KAEX AEX20161106130510611/06/16 13:05:31  5-MIN KAEX 061905Z 14011KT 10SM FEW090 26/13 A3012 -90 46 1100 130/11 RMK AO2 T02560133
93915KAEX AEX20161106131010611/06/16 13:10:31  5-MIN KAEX 061910Z 15007KT 10SM FEW090 26/13 A3012 -90 44 1100 140/07 RMK AO2 T02560128
93915KAEX AEX20161106131510611/06/16 13:15:31  5-MIN KAEX 061915Z 11010KT 10SM FEW090 26/13 A3012 -90 46 1200 110/10 RMK AO2 T02560133
93915KAEX AEX20161106132011211/06/16 13:20:31  5-MIN KAEX 061920Z 12009G15KT 10SM FEW090 26/13 A3012 -90 44 1200 110/09G15 RMK AO2 T02560128
93915KAEX AEX20161106132510611/06/16 13:25:31  5-MIN KAEX 061925Z 10007KT 10SM FEW090 26/13 A3012 -90 44 1200 100/07 RMK AO2 T02560128
93915KAEX AEX20161106133010611/06/16 13:30:31  5-MIN KAEX 061930Z 17007KT 10SM FEW095 26/12 A3012 -90 41 1200 160/07 RMK AO2 T02610122
93915KAEX AEX20161106133510611/06/16 13:35:31  5-MIN KAEX 061935Z 14009KT 10SM FEW090 27/12 A3012 -80 40 1300 140/09 RMK AO2 T02670122
93915KAEX AEX20161106134010611/06/16 13:40:31  5-MIN KAEX 061940Z 12009KT 10SM SCT090 28/12 A3012 -80 37 1400 120/09 RMK AO2 T02780122
93915KAEX AEX20161106134510611/06/16 13:45:31  5-MIN KAEX 061945Z 13008KT 10SM SCT090 27/12 A3012 -80 40 1300 130/08 RMK AO2 T02670122
93915KAEX AEX20161106135012011/06/16 13:50:31  5-MIN KAEX 061950Z 11008KT 10SM FEW090 FEW120 27/12 A3011 -80 40 1300 110/08 RMK AO2 SLP201 T02670122
93915KAEX AEX20161106135511311/06/16 13:55:31  5-MIN KAEX 061955Z 12010KT 10SM FEW090 FEW120 27/12 A3011 -80 39 1300 120/10 RMK AO2 T02720122
93915KAEX AEX20161106140012011/06/16 14:00:31  5-MIN KAEX 062000Z 16012KT 10SM FEW055 FEW090 SCT120 27/12 A3011 -80 40 1300 150/12 RMK AO2 T02670122
93915KAEX AEX20161106140512011/06/16 14:05:31  5-MIN KAEX 062005Z 18008KT 10SM FEW055 FEW090 SCT120 27/12 A3011 -80 40 1300 180/08 RMK AO2 T02670122
93915KAEX AEX20161106141012911/06/16 14:10:31  5-MIN KAEX 062010Z 14007KT 100V180 10SM FEW055 FEW120 27/12 A3011 -70 40 1300 140/07 100V180 RMK AO2 T02670122
93915KAEX AEX20161106141512011/06/16 14:15:31  5-MIN KAEX 062015Z 14005KT 10SM FEW055 SCT090 SCT120 26/12 A3011 -70 41 1200 130/05 RMK AO2 T02610122
93915KAEX AEX20161106142011311/06/16 14:20:31  5-MIN KAEX 062020Z VRB04KT 10SM FEW055 BKN090 26/12 A3011 -70 43 1200 VRB/04 RMK AO2 T02560122
93915KAEX AEX20161106142512911/06/16 14:25:31  5-MIN KAEX 062025Z 16007KT 120V190 10SM FEW055 BKN090 26/12 A3010 -70 41 1200 150/07 120V190 RMK AO2 T02610122
93915KAEX AEX20161106143010611/06/16 14:30:31  5-MIN KAEX 062030Z 14007KT 10SM BKN090 26/12 A3010 -70 41 1200 140/07 RMK AO2 T02610122
93915KAEX AEX20161106143510611/06/16 14:35:31  5-MIN KAEX 062035Z 12006KT 10SM OVC090 26/12 A3010 -70 41 1200 120/06 RMK AO2 T02610122
93915KAEX AEX20161106144010611/06/16 14:40:31  5-MIN KAEX 062040Z 14009KT 10SM OVC090 26/12 A3010 -70 41 1200 140/09 RMK AO2 T02610122
93915KAEX AEX20161106144511311/06/16 14:45:31  5-MIN KAEX 062045Z 13008KT 10SM FEW060 OVC090 26/12 A3010 -70 41 1200 130/08 RMK AO2 T02610122
93915KAEX AEX20161106145012611/06/16 14:50:31  5-MIN KAEX 062050Z 16007KT 10SM SCT060 OVC090 26/12 A3010 -70 40 1200 150/07 RMK AO2 SLP197 T02610117 58021
93915KAEX AEX20161106145511311/06/16 14:55:31  5-MIN KAEX 062055Z 15007KT 10SM BKN060 OVC090 26/12 A3010 -70 40 1200 150/07 RMK AO2 T02610117
93915KAEX AEX20161106150011311/06/16 15:00:31  5-MIN KAEX 062100Z 14006KT 10SM BKN060 OVC090 26/12 A3010 -70 41 1200 140/06 RMK AO2 T02610122
93915KAEX AEX20161106150511311/06/16 15:05:31  5-MIN KAEX 062105Z 12009KT 10SM BKN060 OVC090 26/12 A3010 -70 41 1200 120/09 RMK AO2 T02610122
93915KAEX AEX20161106151010611/06/16 15:10:31  5-MIN KAEX 062110Z 11009KT 10SM OVC060 26/12 A3010 -70 41 1200 110/09 RMK AO2 T02610122
93915KAEX AEX20161106151510611/06/16 15:15:31  5-MIN KAEX 062115Z 12007KT 10SM OVC060 27/12 A3010 -70 40 1300 120/07 RMK AO2 T02670122
93915KAEX AEX20161106152010611/06/16 15:20:31  5-MIN KAEX 062120Z 11008KT 10SM OVC060 27/12 A3010 -70 40 1300 110/08 RMK AO2 T02670122
93915KAEX AEX20161106152510611/06/16 15:25:31  5-MIN KAEX 062125Z 10008KT 10SM OVC060 27/12 A3010 -70 40 1300 100/08 RMK AO2 T02670122
93915KAEX AEX20161106153010611/06/16 15:30:31  5-MIN KAEX 062130Z 14006KT 10SM OVC060 26/12 A3010 -70 40 1200 130/06 RMK AO2 T02610117
93915KAEX AEX20161106153511311/06/16 15:35:31  5-MIN KAEX 062135Z 14007KT 10SM BKN060 OVC090 26/12 A3010 -70 40 1200 140/07 RMK AO2 T02610117
93915KAEX AEX20161106154011311/06/16 15:40:31  5-MIN KAEX 062140Z 14007KT 10SM BKN060 OVC090 26/12 A3010 -70 40 1200 140/07 RMK AO2 T02610117
93915KAEX AEX20161106154511311/06/16 15:45:31  5-MIN KAEX 062145Z 16005KT 10SM BKN060 OVC090 26/12 A3010 -70 40 1200 150/05 RMK AO2 T02610117
93915KAEX AEX20161106155012011/06/16 15:50:31  5-MIN KAEX 062150Z 14007KT 10SM SCT060 OVC090 26/12 A3010 -70 40 1200 140/07 RMK AO2 SLP198 T02610117
93915KAEX AEX20161106155511311/06/16 15:55:31  5-MIN KAEX 062155Z 12008KT 10SM FEW060 OVC090 26/12 A3011 -80 40 1200 120/08 RMK AO2 T02610117
93915KAEX AEX20161106160011311/06/16 16:00:31  5-MIN KAEX 062200Z 14007KT 10SM FEW065 OVC090 26/12 A3011 -80 41 1200 140/07 RMK AO2 T02610122
93915KAEX AEX20161106160510611/06/16 16:05:31  5-MIN KAEX 062205Z 14007KT 10SM OVC090 26/12 A3011 -80 43 1200 130/07 RMK AO2 T02560122
93915KAEX AEX20161106161010611/06/16 16:10:31  5-MIN KAEX 062210Z 14007KT 10SM OVC090 26/12 A3011 -80 43 1200 140/07 RMK AO2 T02560122
93915KAEX AEX20161106161510611/06/16 16:15:31  5-MIN KAEX 062215Z 13007KT 10SM OVC090 26/12 A3011 -80 43 1200 130/07 RMK AO2 T02560122
93915KAEX AEX20161106162010611/06/16 16:20:31  5-MIN KAEX 062220Z 14004KT 10SM OVC090 26/12 A3011 -80 41 1200 140/04 RMK AO2 T02560117
93915KAEX AEX20161106162510611/06/16 16:25:31  5-MIN KAEX 062225Z 13007KT 10SM OVC090 26/12 A3011 -80 43 1200 120/07 RMK AO2 T02560122
93915KAEX AEX20161106163010611/06/16 16:30:31  5-MIN KAEX 062230Z 14005KT 10SM OVC090 26/12 A3011 -80 43 1200 140/05 RMK AO2 T02560122
93915KAEX AEX20161106163511311/06/16 16:35:31  5-MIN KAEX 062235Z 14005KT 10SM FEW060 OVC090 25/12 A3011 -80 44 1100 140/05 RMK AO2 T02500122
93915KAEX AEX20161106164011311/06/16 16:40:31  5-MIN KAEX 062240Z 13005KT 10SM FEW060 OVC090 25/12 A3011 -80 44 1100 130/05 RMK AO2 T02500122
93915KAEX AEX20161106164510611/06/16 16:45:31  5-MIN KAEX 062245Z 10005KT 10SM OVC090 25/12 A3011 -80 44 1100 100/05 RMK AO2 T02500122
93915KAEX AEX20161106165011311/06/16 16:50:31  5-MIN KAEX 062250Z 11005KT 10SM OVC090 25/12 A3011 -80 44 1100 100/05 RMK AO2 SLP199 T02500122
93915KAEX AEX20161106165510611/06/16 16:55:31  5-MIN KAEX 062255Z 10005KT 10SM OVC090 24/13 A3011 -80 47 1000 100/05 RMK AO2 T02440128
93915KAEX AEX20161106170010611/06/16 17:00:31  5-MIN KAEX 062300Z 11006KT 10SM OVC090 24/13 A3011 -80 47 1000 110/06 RMK AO2 T02440128
93915KAEX AEX20161106170511311/06/16 17:05:31  5-MIN KAEX 062305Z 11005KT 10SM FEW060 OVC090 24/13 A3011 -80 47 1000 110/05 RMK AO2 T02440128
93915KAEX AEX20161106171011311/06/16 17:10:31  5-MIN KAEX 062310Z 12006KT 10SM SCT060 OVC090 24/13 A3011 -80 47 1000 120/06 RMK AO2 T02440128
93915KAEX AEX20161106171511311/06/16 17:15:31  5-MIN KAEX 062315Z 11006KT 10SM BKN060 OVC090 24/13 A3011 -80 47 1000 110/06 RMK AO2 T02440128
93915KAEX AEX20161106172011311/06/16 17:20:31  5-MIN KAEX 062320Z 11006KT 10SM BKN060 OVC090 24/13 A3012 -80 49 1000 110/06 RMK AO2 T02390128
93915KAEX AEX20161106172511311/06/16 17:25:31  5-MIN KAEX 062325Z 11005KT 10SM BKN060 OVC090 24/13 A3012 -80 51 1000 110/05 RMK AO2 T02390133
93915KAEX AEX20161106173011311/06/16 17:30:31  5-MIN KAEX 062330Z 11007KT 10SM BKN060 OVC090 24/13 A3012 -90 51 1000 110/07 RMK AO2 T02390133
93915KAEX AEX20161106173511311/06/16 17:35:31  5-MIN KAEX 062335Z 11006KT 10SM SCT060 OVC085 24/13 A3012 -90 51 1000 110/06 RMK AO2 T02390133
93915KAEX AEX20161106174011311/06/16 17:40:31  5-MIN KAEX 062340Z 11005KT 10SM SCT060 OVC085 24/13 A3012 -90 51 1000 100/05 RMK AO2 T02390133
93915KAEX AEX20161106174511311/06/16 17:45:31  5-MIN KAEX 062345Z 10005KT 10SM FEW060 OVC085 24/13 A3012 -90 51 1000 100/05 RMK AO2 T02390133
93915KAEX AEX20161106175013811/06/16 17:50:31  5-MIN KAEX 062350Z 11006KT 10SM FEW060 OVC085 24/13 A3012 -90 49 1000 110/06 RMK AO2 SLP203 T02390128 10278 20239 56020
93915KAEX AEX20161106175510511/06/16 17:55:31  5-MIN KAEX 062355Z 11006KT 10SM OVC085 23/13 A3012 -90 53 900 110/06 RMK AO2 T02330133
93915KAEX AEX20161106180010511/06/16 18:00:31  5-MIN KAEX 070000Z 12007KT 10SM OVC085 23/13 A3012 -90 51 900 120/07 RMK AO2 T02330128
93915KAEX AEX20161106180510511/06/16 18:05:31  5-MIN KAEX 070005Z 12007KT 10SM OVC085 23/12 A3012 -90 49 900 110/07 RMK AO2 T02330122
93915KAEX AEX20161106181010511/06/16 18:10:31  5-MIN KAEX 070010Z 11007KT 10SM OVC085 23/12 A3012 -90 49 900 110/07 RMK AO2 T02330122
93915KAEX AEX20161106181510511/06/16 18:15:31  5-MIN KAEX 070015Z 11007KT 10SM OVC085 23/12 A3012 -90 49 900 110/07 RMK AO2 T02330122
93915KAEX AEX20161106182010511/06/16 18:20:31  5-MIN KAEX 070020Z 11007KT 10SM OVC085 23/12 A3012 -90 49 900 110/07 RMK AO2 T02330122
93915KAEX AEX20161106182510511/06/16 18:25:31  5-MIN KAEX 070025Z 12008KT 10SM OVC085 23/12 A3013 -90 47 900 110/08 RMK AO2 T02330117
93915KAEX AEX20161106183010511/06/16 18:30:31  5-MIN KAEX 070030Z 11008KT 10SM OVC085 23/12 A3013 -90 47 900 110/08 RMK AO2 T02330117
93915KAEX AEX20161106183510611/06/16 18:35:31  5-MIN KAEX 070035Z 11009KT 10SM OVC085 23/12 A3013 -100 47 900 110/09 RMK AO2 T02330117
93915KAEX AEX20161106184010611/06/16 18:40:31  5-MIN KAEX 070040Z 11009KT 10SM OVC085 23/12 A3013 -100 47 900 110/09 RMK AO2 T02330117
93915KAEX AEX20161106184510611/06/16 18:45:31  5-MIN KAEX 070045Z 11009KT 10SM OVC085 23/12 A3013 -100 47 900 110/09 RMK AO2 T02330117
93915KAEX AEX20161106185011311/06/16 18:50:31  5-MIN KAEX 070050Z 11008KT 10SM OVC090 23/12 A3013 -100 47 900 110/08 RMK AO2 SLP206 T02330117
93915KAEX AEX20161106185510611/06/16 18:55:31  5-MIN KAEX 070055Z 10008KT 10SM OVC090 23/12 A3013 -100 47 900 100/08 RMK AO2 T02330117
93915KAEX AEX20161106190010611/06/16 19:00:31  5-MIN KAEX 070100Z 10007KT 10SM OVC090 23/12 A3013 -100 47 900 100/07 RMK AO2 T02330117
93915KAEX AEX20161106190510611/06/16 19:05:31  5-MIN KAEX 070105Z 10007KT 10SM OVC090 23/12 A3013 -100 47 900 100/07 RMK AO2 T02330117
93915KAEX AEX20161106191010611/06/16 19:10:31  5-MIN KAEX 070110Z 10007KT 10SM OVC090 23/12 A3013 -100 49 800 100/07 RMK AO2 T02280117
93915KAEX AEX20161106191510611/06/16 19:15:31  5-MIN KAEX 070115Z 10007KT 10SM OVC090 23/12 A3013 -100 49 800 100/07 RMK AO2 T02280117
93915KAEX AEX20161106192010611/06/16 19:20:31  5-MIN KAEX 070120Z 10007KT 10SM OVC090 23/12 A3013 -100 49 800 100/07 RMK AO2 T02280117
93915KAEX AEX20161106192510611/06/16 19:25:31  5-MIN KAEX 070125Z 09006KT 10SM OVC090 23/12 A3013 -100 49 800 090/06 RMK AO2 T02280117
93915KAEX AEX20161106193010611/06/16 19:30:31  5-MIN KAEX 070130Z 09006KT 10SM OVC090 23/12 A3014 -100 49 800 090/06 RMK AO2 T02280117
93915KAEX AEX20161106193510611/06/16 19:35:31  5-MIN KAEX 070135Z 09006KT 10SM OVC090 23/12 A3014 -100 49 800 090/06 RMK AO2 T02280117
93915KAEX AEX20161106194010611/06/16 19:40:31  5-MIN KAEX 070140Z 09007KT 10SM OVC090 23/12 A3014 -100 49 800 090/07 RMK AO2 T02280117
93915KAEX AEX20161106194510611/06/16 19:45:31  5-MIN KAEX 070145Z 09006KT 10SM OVC090 23/12 A3014 -110 49 800 090/06 RMK AO2 T02280117
93915KAEX AEX20161106195011311/06/16 19:50:31  5-MIN KAEX 070150Z 09007KT 10SM OVC090 23/12 A3014 -110 49 800 090/07 RMK AO2 SLP210 T02280117
93915KAEX AEX20161106195510611/06/16 19:55:31  5-MIN KAEX 070155Z 10007KT 10SM OVC090 23/12 A3014 -110 49 800 090/07 RMK AO2 T02280117
93915KAEX AEX20161106200010611/06/16 20:00:31  5-MIN KAEX 070200Z 10007KT 10SM OVC090 22/12 A3014 -110 51 700 100/07 RMK AO2 T02220117
93915KAEX AEX20161106200510611/06/16 20:05:31  5-MIN KAEX 070205Z 10007KT 10SM OVC090 22/12 A3014 -110 51 700 090/07 RMK AO2 T02220117
93915KAEX AEX20161106201010611/06/16 20:10:31  5-MIN KAEX 070210Z 10008KT 10SM OVC090 22/12 A3015 -110 51 700 100/08 RMK AO2 T02220117
93915KAEX AEX20161106201510611/06/16 20:15:31  5-MIN KAEX 070215Z 11007KT 10SM OVC090 22/12 A3015 -110 51 700 110/07 RMK AO2 T02220117
93915KAEX AEX20161106202010611/06/16 20:20:31  5-MIN KAEX 070220Z 11007KT 10SM OVC090 22/12 A3015 -110 51 700 110/07 RMK AO2 T02220117
93915KAEX AEX20161106202510611/06/16 20:25:31  5-MIN KAEX 070225Z 11008KT 10SM OVC090 22/12 A3015 -110 51 700 110/08 RMK AO2 T02220117
93915KAEX AEX20161106203010611/06/16 20:30:31  5-MIN KAEX 070230Z 11008KT 10SM OVC090 22/12 A3015 -110 51 700 110/08 RMK AO2 T02220117
93915KAEX AEX20161106203510611/06/16 20:35:31  5-MIN KAEX 070235Z 11008KT 10SM OVC090 22/12 A3014 -110 52 700 110/08 RMK AO2 T02170117
93915KAEX AEX20161106204010611/06/16 20:40:31  5-MIN KAEX 070240Z 11008KT 10SM OVC090 22/12 A3014 -110 52 700 110/08 RMK AO2 T02170117
93915KAEX AEX20161106204510611/06/16 20:45:31  5-MIN KAEX 070245Z 12007KT 10SM OVC090 22/12 A3015 -110 52 700 110/07 RMK AO2 T02170117
93915KAEX AEX20161106205011911/06/16 20:50:31  5-MIN KAEX 070250Z 12008KT 10SM OVC090 22/12 A3015 -110 52 700 120/08 RMK AO2 SLP212 T02170117 53006
93915KAEX AEX20161106205510611/06/16 20:55:31  5-MIN KAEX 070255Z 12008KT 10SM OVC090 22/12 A3015 -110 52 700 120/08 RMK AO2 T02170117
93915KAEX AEX20161106210010611/06/16 21:00:31  5-MIN KAEX 070300Z 12009KT 10SM OVC090 22/12 A3014 -110 52 700 120/09 RMK AO2 T02170117
93915KAEX AEX20161106210510611/06/16 21:05:31  5-MIN KAEX 070305Z 12009KT 10SM OVC090 22/12 A3014 -110 52 700 120/09 RMK AO2 T02170117
93915KAEX AEX20161106211010611/06/16 21:10:31  5-MIN KAEX 070310Z 12009KT 10SM OVC090 22/12 A3014 -110 52 700 110/09 RMK AO2 T02170117
93915KAEX AEX20161106211510611/06/16 21:15:31  5-MIN KAEX 070315Z 12009KT 10SM OVC090 22/12 A3015 -110 52 700 120/09 RMK AO2 T02170117
93915KAEX AEX20161106212010611/06/16 21:20:31  5-MIN KAEX 070320Z 12008KT 10SM OVC090 22/12 A3015 -110 52 700 120/08 RMK AO2 T02170117
93915KAEX AEX20161106212510611/06/16 21:25:31  5-MIN KAEX 070325Z 12009KT 10SM OVC090 22/12 A3015 -110 52 700 120/09 RMK AO2 T02170117
93915KAEX AEX20161106213010611/06/16 21:30:31  5-MIN KAEX 070330Z 12008KT 10SM OVC090 22/12 A3015 -110 52 700 120/08 RMK AO2 T02170117
93915KAEX AEX20161106213510611/06/16 21:35:31  5-MIN KAEX 070335Z 13009KT 10SM OVC090 22/12 A3015 -110 52 700 120/09 RMK AO2 T02170117
93915KAEX AEX20161106214010611/06/16 21:40:31  5-MIN KAEX 070340Z 13008KT 10SM OVC090 21/12 A3015 -110 54 600 130/08 RMK AO2 T02110117
93915KAEX AEX20161106214510611/06/16 21:45:31  5-MIN KAEX 070345Z 13009KT 10SM OVC090 21/12 A3014 -110 54 600 130/09 RMK AO2 T02110117
93915KAEX AEX20161106215011311/06/16 21:50:31  5-MIN KAEX 070350Z 13010KT 10SM OVC090 21/12 A3014 -110 56 600 130/10 RMK AO2 SLP210 T02110122
93915KAEX AEX20161106215510611/06/16 21:55:31  5-MIN KAEX 070355Z 13008KT 10SM BKN090 21/12 A3014 -110 58 600 120/08 RMK AO2 T02060122
93915KAEX AEX20161106220010611/06/16 22:00:31  5-MIN KAEX 070400Z 13009KT 10SM BKN090 21/12 A3014 -110 58 600 130/09 RMK AO2 T02060122
93915KAEX AEX20161106220510611/06/16 22:05:31  5-MIN KAEX 070405Z 13009KT 10SM SCT090 21/12 A3015 -110 58 500 130/09 RMK AO2 T02060122
93915KAEX AEX20161106221010611/06/16 22:10:31  5-MIN KAEX 070410Z 14008KT 10SM FEW090 20/12 A3015 -110 60 500 140/08 RMK AO2 T02000122
93915KAEX AEX20161106221510611/06/16 22:15:31  5-MIN KAEX 070415Z 14008KT 10SM FEW090 19/12 A3015 -110 62 400 140/08 RMK AO2 T01940122
93915KAEX AEX20161106222010311/06/16 22:20:31  5-MIN KAEX 070420Z 14007KT 10SM CLR 19/12 A3015 -110 62 400 140/07 RMK AO2 T01940122
93915KAEX AEX20161106222510311/06/16 22:25:31  5-MIN KAEX 070425Z 13008KT 10SM CLR 19/12 A3015 -110 62 400 130/08 RMK AO2 T01940122
93915KAEX AEX20161106223010311/06/16 22:30:31  5-MIN KAEX 070430Z 13007KT 10SM CLR 19/12 A3015 -110 62 400 130/07 RMK AO2 T01940122
93915KAEX AEX20161106223510311/06/16 22:35:31  5-MIN KAEX 070435Z 13007KT 10SM CLR 19/12 A3015 -110 62 400 130/07 RMK AO2 T01940122
93915KAEX AEX20161106224010311/06/16 22:40:31  5-MIN KAEX 070440Z 13007KT 10SM CLR 19/13 A3015 -110 65 400 130/07 RMK AO2 T01940128
93915KAEX AEX20161106224510311/06/16 22:45:31  5-MIN KAEX 070445Z 15006KT 10SM CLR 19/13 A3015 -120 67 300 140/06 RMK AO2 T01890128
93915KAEX AEX20161106225011011/06/16 22:50:31  5-MIN KAEX 070450Z 15006KT 10SM CLR 19/13 A3015 -120 67 300 150/06 RMK AO2 SLP214 T01890128
93915KAEX AEX20161106225510311/06/16 22:55:31  5-MIN KAEX 070455Z 14007KT 10SM CLR 18/13 A3015 -120 70 300 140/07 RMK AO2 T01830128
93915KAEX AEX20161106230010311/06/16 23:00:31  5-MIN KAEX 070500Z 13007KT 10SM CLR 18/13 A3015 -120 70 300 130/07 RMK AO2 T01830128
93915KAEX AEX20161106230510311/06/16 23:05:31  5-MIN KAEX 070505Z 13006KT 10SM CLR 18/13 A3015 -110 70 300 130/06 RMK AO2 T01830128
93915KAEX AEX20161106231010311/06/16 23:10:31  5-MIN KAEX 070510Z 14006KT 10SM CLR 18/13 A3015 -110 70 300 140/06 RMK AO2 T01830128
93915KAEX AEX20161106231510311/06/16 23:15:31  5-MIN KAEX 070515Z 14006KT 10SM CLR 18/13 A3015 -120 72 200 140/06 RMK AO2 T01780128
93915KAEX AEX20161106232010311/06/16 23:20:31  5-MIN KAEX 070520Z 14006KT 10SM CLR 18/13 A3015 -120 72 200 140/06 RMK AO2 T01780128
93915KAEX AEX20161106232510311/06/16 23:25:31  5-MIN KAEX 070525Z 14005KT 10SM CLR 18/13 A3015 -110 72 200 140/05 RMK AO2 T01780128
93915KAEX AEX20161106233010311/06/16 23:30:31  5-MIN KAEX 070530Z 13006KT 10SM CLR 18/13 A3015 -110 72 200 130/06 RMK AO2 T01780128
93915KAEX AEX20161106233510311/06/16 23:35:31  5-MIN KAEX 070535Z 14005KT 10SM CLR 18/13 A3014 -110 70 300 130/05 RMK AO2 T01830128
93915KAEX AEX20161106234010311/06/16 23:40:31  5-MIN KAEX 070540Z 13006KT 10SM CLR 18/13 A3014 -110 70 300 130/06 RMK AO2 T01830128
93915KAEX AEX20161106234510311/06/16 23:45:31  5-MIN KAEX 070545Z 13006KT 10SM CLR 18/13 A3014 -110 70 300 130/06 RMK AO2 T01830128
93915KAEX AEX20161106235013811/06/16 23:50:31  5-MIN KAEX 070550Z 13006KT 10SM CLR 18/13 A3014 -110 70 300 130/06 RMK AO2 SLP209 T01830128 10239 20178 402780100 51008
93915KAEX AEX20161106235510311/06/16 23:55:31  5-MIN KAEX 070555Z 13006KT 10SM CLR 18/13 A3014 -110 70 300 130/06 RMK AO2 T01830128
93915KAEX AEX20161107000010311/07/16 00:00:31  5-MIN KAEX 070600Z 14006KT 10SM CLR 18/13 A3014 -110 70 300 140/06 RMK AO2 T01830128
93915KAEX AEX20161107000510311/07/16 00:05:31  5-MIN KAEX 070605Z 14006KT 10SM CLR 18/13 A3014 -110 72 200 140/06 RMK AO2 T01780128
93915KAEX AEX20161107001010311/07/16 00:10:31  5-MIN KAEX 070610Z 14005KT 10SM CLR 18/13 A3014 -110 72 200 140/05 RMK AO2 T01780128
93915KAEX AEX20161107001510311/07/16 00:15:31  5-MIN KAEX 070615Z 13005KT 10SM CLR 17/13 A3014 -110 75 200 130/05 RMK AO2 T01720128
93915KAEX AEX20161107002010311/07/16 00:20:31  5-MIN KAEX 070620Z 12005KT 10SM CLR 17/13 A3014 -110 75 200 110/05 RMK AO2 T01720128
93915KAEX AEX20161107002510311/07/16 00:25:31  5-MIN KAEX 070625Z 12005KT 10SM CLR 18/13 A3015 -110 72 200 120/05 RMK AO2 T01780128
93915KAEX AEX20161107003010311/07/16 00:30:31  5-MIN KAEX 070630Z 12006KT 10SM CLR 18/13 A3015 -110 72 200 120/06 RMK AO2 T01780128
93915KAEX AEX20161107003510311/07/16 00:35:31  5-MIN KAEX 070635Z 12006KT 10SM CLR 18/13 A3014 -110 72 200 110/06 RMK AO2 T01780128
93915KAEX AEX20161107004010311/07/16 00:40:31  5-MIN KAEX 070640Z 10004KT 10SM CLR 18/13 A3014 -110 72 200 100/04 RMK AO2 T01780128
93915KAEX AEX20161107004510311/07/16 00:45:31  5-MIN KAEX 070645Z 11005KT 10SM CLR 18/13 A3014 -110 72 200 110/05 RMK AO2 T01780128
93915KAEX AEX20161107005011011/07/16 00:50:31  5-MIN KAEX 070650Z 11005KT 10SM CLR 18/13 A3014 -110 72 200 110/05 RMK AO2 SLP210 T01780128
93915KAEX AEX20161107005510311/07/16 00:55:31  5-MIN KAEX 070655Z 11005KT 10SM CLR 18/13 A3014 -110 72 200 110/05 RMK AO2 T01780128
93915KAEX AEX20161107010010311/07/16 01:00:31  5-MIN KAEX 070700Z 12005KT 10SM CLR 17/13 A3014 -110 75 200 120/05 RMK AO2 T01720128
93915KAEX AEX20161107010510311/07/16 01:05:31  5-MIN KAEX 070705Z 13004KT 10SM CLR 17/13 A3015 -110 75 200 130/04 RMK AO2 T01720128
93915KAEX AEX20161107011010311/07/16 01:10:31  5-MIN KAEX 070710Z 14004KT 10SM CLR 17/13 A3014 -110 75 200 130/04 RMK AO2 T01720128
93915KAEX AEX20161107011510311/07/16 01:15:31  5-MIN KAEX 070715Z 12006KT 10SM CLR 17/13 A3014 -110 77 100 120/06 RMK AO2 T01670128
93915KAEX AEX20161107012010311/07/16 01:20:31  5-MIN KAEX 070720Z 11005KT 10SM CLR 17/13 A3014 -110 75 200 100/05 RMK AO2 T01720128
93915KAEX AEX20161107012510311/07/16 01:25:31  5-MIN KAEX 070725Z 10005KT 10SM CLR 17/13 A3014 -110 75 200 100/05 RMK AO2 T01720128
93915KAEX AEX20161107013010311/07/16 01:30:31  5-MIN KAEX 070730Z 09004KT 10SM CLR 18/13 A3014 -110 72 200 090/04 RMK AO2 T01780128
93915KAEX AEX20161107013510311/07/16 01:35:31  5-MIN KAEX 070735Z 09005KT 10SM CLR 17/13 A3014 -110 75 200 090/05 RMK AO2 T01720128
93915KAEX AEX20161107014010611/07/16 01:40:31  5-MIN KAEX 070740Z 10005KT 10SM FEW100 17/13 A3014 -110 75 200 100/05 RMK AO2 T01720128
93915KAEX AEX20161107014510611/07/16 01:45:31  5-MIN KAEX 070745Z 08005KT 10SM FEW100 17/13 A3014 -100 75 200 080/05 RMK AO2 T01720128
93915KAEX AEX20161107015011311/07/16 01:50:31  5-MIN KAEX 070750Z 09005KT 10SM FEW100 18/13 A3014 -100 72 200 090/05 RMK AO2 SLP208 T01780128
93915KAEX AEX20161107015510611/07/16 01:55:31  5-MIN KAEX 070755Z 09004KT 10SM SCT100 17/13 A3014 -100 75 200 090/04 RMK AO2 T01720128
93915KAEX AEX20161107020010611/07/16 02:00:31  5-MIN KAEX 070800Z 09004KT 10SM BKN100 18/13 A3014 -100 72 200 090/04 RMK AO2 T01780128
93915KAEX AEX20161107020510611/07/16 02:05:31  5-MIN KAEX 070805Z 08005KT 10SM BKN100 18/13 A3014 -100 72 200 080/05 RMK AO2 T01780128
93915KAEX AEX20161107021010611/07/16 02:10:31  5-MIN KAEX 070810Z 08004KT 10SM BKN100 18/13 A3013 -100 72 200 080/04 RMK AO2 T01780128
93915KAEX AEX20161107021510611/07/16 02:15:31  5-MIN KAEX 070815Z 09003KT 10SM OVC100 18/13 A3013 -100 72 200 090/03 RMK AO2 T01780128
93915KAEX AEX20161107022011311/07/16 02:20:31  5-MIN KAEX 070820Z 09003KT 10SM FEW075 OVC100 18/13 A3014 -100 72 200 090/03 RMK AO2 T01780128
93915KAEX AEX20161107022511311/07/16 02:25:31  5-MIN KAEX 070825Z 10004KT 10SM SCT075 OVC100 18/13 A3014 -100 72 200 090/04 RMK AO2 T01780128
93915KAEX AEX20161107023011311/07/16 02:30:31  5-MIN KAEX 070830Z 11003KT 10SM BKN075 OVC100 18/13 A3014 -100 72 200 110/03 RMK AO2 T01780128
93915KAEX AEX20161107023511311/07/16 02:35:31  5-MIN KAEX 070835Z 12003KT 10SM BKN075 OVC100 18/13 A3014 -100 72 200 120/03 RMK AO2 T01780128
93915KAEX AEX20161107024010611/07/16 02:40:31  5-MIN KAEX 070840Z 11003KT 10SM OVC080 18/13 A3014 -100 72 200 110/03 RMK AO2 T01780128
93915KAEX AEX20161107024510611/07/16 02:45:31  5-MIN KAEX 070845Z 10004KT 10SM OVC080 18/13 A3014 -100 72 200 100/04 RMK AO2 T01780128
93915KAEX AEX20161107025012611/07/16 02:50:31  5-MIN KAEX 070850Z 12004KT 10SM BKN080 OVC110 18/12 A3013 -100 69 200 120/04 RMK AO2 SLP207 T01780122 58001
93915KAEX AEX20161107025511311/07/16 02:55:31  5-MIN KAEX 070855Z 12005KT 10SM BKN080 OVC110 18/12 A3013 -100 69 200 120/05 RMK AO2 T01780122
93915KAEX AEX20161107030011311/07/16 03:00:31  5-MIN KAEX 070900Z 11004KT 10SM SCT080 OVC110 18/12 A3013 -100 69 200 110/04 RMK AO2 T01780122
93915KAEX AEX20161107030511311/07/16 03:05:31  5-MIN KAEX 070905Z 09004KT 10SM SCT080 OVC100 18/12 A3013 -100 69 200 090/04 RMK AO2 T01780122
93915KAEX AEX20161107031011311/07/16 03:10:31  5-MIN KAEX 070910Z 09004KT 10SM BKN080 OVC100 18/12 A3014 -100 69 200 090/04 RMK AO2 T01780122
93915KAEX AEX20161107031511311/07/16 03:15:31  5-MIN KAEX 070915Z 09004KT 10SM BKN080 OVC100 18/12 A3014 -100 69 200 090/04 RMK AO2 T01780122
93915KAEX AEX20161107032011311/07/16 03:20:31  5-MIN KAEX 070920Z 10004KT 10SM SCT080 OVC100 18/12 A3014 -100 69 200 100/04 RMK AO2 T01780122
93915KAEX AEX20161107032511311/07/16 03:25:31  5-MIN KAEX 070925Z 09004KT 10SM SCT080 OVC110 18/12 A3014 -100 69 200 090/04 RMK AO2 T01780122
93915KAEX AEX20161107033011311/07/16 03:30:31  5-MIN KAEX 070930Z 09004KT 10SM SCT080 OVC110 18/12 A3013 -100 69 200 090/04 RMK AO2 T01780122
93915KAEX AEX20161107033511311/07/16 03:35:31  5-MIN KAEX 070935Z 10004KT 10SM SCT080 OVC110 17/12 A3014 -100 72 200 100/04 RMK AO2 T01720122
93915KAEX AEX20161107034011311/07/16 03:40:31  5-MIN KAEX 070940Z 10004KT 10SM FEW080 OVC110 17/12 A3014 -100 72 200 090/04 RMK AO2 T01720122
93915KAEX AEX20161107034510611/07/16 03:45:31  5-MIN KAEX 070945Z 11004KT 10SM OVC120 17/12 A3014 -100 72 200 110/04 RMK AO2 T01720122
93915KAEX AEX20161107035011311/07/16 03:50:31  5-MIN KAEX 070950Z 11005KT 10SM OVC120 17/12 A3014 -100 72 200 110/05 RMK AO2 SLP208 T01720122
93915KAEX AEX20161107035511611/07/16 03:55:31  5-MIN KAEX 070955Z 11004KT 10SM -RA BKN120 17/12 A3014 -110 72 200 110/04 RMK AO2 P0000 T01720122
93915KAEX AEX20161107040011611/07/16 04:00:31  5-MIN KAEX 071000Z 11004KT 10SM -RA BKN120 17/13 A3014 -110 75 200 110/04 RMK AO2 P0000 T01720128
93915KAEX AEX20161107040511611/07/16 04:05:31  5-MIN KAEX 071005Z 11004KT 10SM -RA BKN120 17/13 A3014 -110 75 200 110/04 RMK AO2 P0000 T01720128
93915KAEX AEX20161107041011611/07/16 04:10:31  5-MIN KAEX 071010Z 12004KT 10SM -RA BKN120 17/13 A3014 -110 77 100 120/04 RMK AO2 P0000 T01670128
93915KAEX AEX20161107041511611/07/16 04:15:31  5-MIN KAEX 071015Z 00000KT 10SM -RA BKN120 17/13 A3015 -110 77 100 000/00 RMK AO2 P0000 T01670128
93915KAEX AEX20161107042011611/07/16 04:20:31  5-MIN KAEX 071020Z 00000KT 10SM -RA BKN120 17/13 A3015 -110 80 100 000/00 RMK AO2 P0000 T01670133
93915KAEX AEX20161107042511611/07/16 04:25:31  5-MIN KAEX 071025Z 00000KT 10SM -RA BKN120 17/13 A3015 -110 80 100 000/00 RMK AO2 P0000 T01670133
93915KAEX AEX20161107043011611/07/16 04:30:31  5-MIN KAEX 071030Z 00000KT 10SM -RA BKN120 17/14 A3015 -110 83 100 000/00 RMK AO2 P0000 T01670139
93915KAEX AEX20161107043511411/07/16 04:35:31  5-MIN KAEX 071035Z 00000KT 10SM -RA BKN120 16/14 A3015 -110 86 0 000/00 RMK AO2 P0000 T01610139
93915KAEX AEX20161107044011411/07/16 04:40:31  5-MIN KAEX 071040Z 00000KT 10SM -RA BKN110 16/14 A3015 -110 86 0 000/00 RMK AO2 P0000 T01610139
93915KAEX AEX20161107044511411/07/16 04:45:31  5-MIN KAEX 071045Z 00000KT 10SM -RA BKN110 16/14 A3015 -110 86 0 000/00 RMK AO2 P0000 T01610139
93915KAEX AEX20161107045012011/07/16 04:50:31  5-MIN KAEX 071050Z 00000KT 9SM -RA BKN110 16/14 A3015 -120 86 0 000/00 RMK AO2 SLP213 P0000 T01610139
93915KAEX AEX20161107045511411/07/16 04:55:31  5-MIN KAEX 071055Z 07003KT 10SM -RA OVC100 16/14 A3015 -120 86 0 070/03 RMK AO2 P0000 T01610139
93915KAEX AEX20161107050011311/07/16 05:00:31  5-MIN KAEX 071100Z 00000KT 9SM -RA OVC100 16/14 A3015 -120 93 0 000/00 RMK AO2 P0001 T01560144
93915KAEX AEX20161107050511211/07/16 05:05:31  5-MIN KAEX 071105Z 00000KT 7SM RA OVC100 16/14 A3015 -120 93 0 000/00 RMK AO2 P0001 T01560144
93915KAEX AEX20161107051011311/07/16 05:10:31  5-MIN KAEX 071110Z 00000KT 7SM -RA OVC100 16/14 A3016 -120 93 0 000/00 RMK AO2 P0002 T01560144
93915KAEX AEX20161107051511311/07/16 05:15:31  5-MIN KAEX 071115Z 00000KT 7SM -RA OVC100 16/14 A3016 -120 93 0 000/00 RMK AO2 P0002 T01560144
93915KAEX AEX20161107052012011/07/16 05:20:31  5-MIN KAEX 071120Z 00000KT 7SM -RA BKN090 OVC110 16/14 A3016 -120 93 0 000/00 RMK AO2 P0002 T01560144
93915KAEX AEX20161107052512011/07/16 05:25:31  5-MIN KAEX 071125Z 00000KT 7SM -RA BKN090 OVC110 16/14 A3016 -120 93 0 000/00 RMK AO2 P0003 T01560144
93915KAEX AEX20161107053012211/07/16 05:30:31  5-MIN KAEX 071130Z 00000KT 6SM RA BR BKN090 OVC110 16/14 A3016 -120 93 0 000/00 RMK AO2 P0003 T01560144
93915KAEX AEX20161107053512311/07/16 05:35:31  5-MIN KAEX 071135Z 00000KT 6SM -RA BR BKN085 OVC110 16/14 A3016 -130 93 0 000/00 RMK AO2 P0004 T01560144
93915KAEX AEX20161107054011311/07/16 05:40:31  5-MIN KAEX 071140Z 00000KT 7SM -RA OVC085 16/14 A3016 -130 93 0 000/00 RMK AO2 P0004 T01560144
93915KAEX AEX20161107054512311/07/16 05:45:31  5-MIN KAEX 071145Z 00000KT 6SM -RA BR BKN080 OVC100 16/14 A3016 -130 93 0 000/00 RMK AO2 P0004 T01560144
93915KAEX AEX20161107055015311/07/16 05:50:31  5-MIN KAEX 071150Z 00000KT 6SM -RA BR OVC085 16/14 A3016 -130 93 0 000/00 RMK AO2 SLP217 P0005 60005 70005 T01560144 10183 20156 58002
93915KAEX AEX20161107055512011/07/16 05:55:31  5-MIN KAEX 071155Z 00000KT 7SM -RA BKN090 OVC110 16/14 A3016 -130 90 0 000/00 RMK AO2 P0000 T01560139
93915KAEX AEX20161107060012011/07/16 06:00:31  5-MIN KAEX 071200Z 00000KT 8SM -RA BKN080 OVC100 16/14 A3017 -130 90 0 000/00 RMK AO2 P0000 T01560139
93915KAEX AEX20161107060512011/07/16 06:05:31  5-MIN KAEX 071205Z 00000KT 7SM -RA BKN080 OVC100 16/14 A3017 -130 90 0 000/00 RMK AO2 P0000 T01560139
93915KAEX AEX20161107061012011/07/16 06:10:31  5-MIN KAEX 071210Z 00000KT 7SM -RA BKN080 OVC100 16/13 A3017 -130 86 0 000/00 RMK AO2 P0000 T01560133
93915KAEX AEX20161107061511311/07/16 06:15:31  5-MIN KAEX 071215Z 00000KT 8SM -RA OVC080 16/14 A3017 -130 90 0 000/00 RMK AO2 P0001 T01560139
93915KAEX AEX20161107062011611/07/16 06:20:31  5-MIN KAEX 071220Z 05004KT 8SM -RA OVC075 15/14 A3017 -130 93 -100 050/04 RMK AO2 P0001 T01500139
93915KAEX AEX20161107062512311/07/16 06:25:31  5-MIN KAEX 071225Z 05004KT 7SM -RA BKN065 OVC080 15/14 A3017 -130 93 -100 040/04 RMK AO2 P0001 T01500139
93915KAEX AEX20161107063012311/07/16 06:30:31  5-MIN KAEX 071230Z 09003KT 8SM -RA BKN065 OVC080 15/14 A3017 -130 93 -100 080/03 RMK AO2 P0001 T01500139
93915KAEX AEX20161107063512411/07/16 06:35:31  5-MIN KAEX 071235Z 08004KT 10SM -RA BKN065 OVC080 15/13 A3017 -130 90 -100 070/04 RMK AO2 P0002 T01500133
93915KAEX AEX20161107064011711/07/16 06:40:31  5-MIN KAEX 071240Z 04005KT 10SM -RA OVC065 15/13 A3016 -130 90 -100 040/05 RMK AO2 P0002 T01500133
93915KAEX AEX20161107064511711/07/16 06:45:31  5-MIN KAEX 071245Z 04005KT 10SM -RA OVC065 15/13 A3017 -130 90 -100 040/05 RMK AO2 P0002 T01500133
93915KAEX AEX20161107065012911/07/16 06:50:31  5-MIN KAEX 071250Z AUTO VRB04KT 10SM -RA OVC070 15/13 A3018 -140 90 -100 VRB/04 RMK AO2 SLP222 P0002 T01500133
93915KAEX AEX20161107065512811/07/16 06:55:31  5-MIN KAEX 071255Z AUTO 18004KT 9SM -RA BKN070 OVC110 15/14 A3018 -140 93 -100 180/04 RMK AO2 P0000 T01500139
93915KAEX AEX20161107070013511/07/16 07:00:31  5-MIN KAEX 071300Z AUTO 00000KT 8SM -RA BKN070 BKN085 OVC110 15/14 A3018 -140 93 -100 000/00 RMK AO2 P0000 T01500139
93915KAEX AEX20161107070513511/07/16 07:05:31  5-MIN KAEX 071305Z AUTO 00000KT 8SM -RA SCT070 BKN085 OVC110 15/14 A3018 -140 93 -100 000/00 RMK AO2 P0000 T01500139
93915KAEX AEX20161107071013511/07/16 07:10:31  5-MIN KAEX 071310Z AUTO 05003KT 8SM -RA SCT070 BKN085 OVC110 15/14 A3018 -140 93 -100 050/03 RMK AO2 P0000 T01500139
93915KAEX AEX20161107071512811/07/16 07:15:31  5-MIN KAEX 071315Z AUTO 06003KT 8SM -RA BKN075 OVC110 15/14 A3018 -140 93 -100 050/03 RMK AO2 P0000 T01500139
93915KAEX AEX20161107072012811/07/16 07:20:31  5-MIN KAEX 071320Z AUTO 00000KT 7SM -RA BKN080 OVC110 15/14 A3018 -150 96 -100 000/00 RMK AO2 P0000 T01500144
93915KAEX AEX20161107072512111/07/16 07:25:31  5-MIN KAEX 071325Z AUTO 00000KT 7SM -RA OVC080 15/14 A3018 -140 96 -100 000/00 RMK AO2 P0000 T01500144
93915KAEX AEX20161107073012411/07/16 07:30:31  5-MIN KAEX 071330Z AUTO 00000KT 6SM -RA BR OVC080 15/14 A3018 -150 96 -100 000/00 RMK AO2 P0001 T01500144
93915KAEX AEX20161107073513111/07/16 07:35:31  5-MIN KAEX 071335Z AUTO 00000KT 5SM -RA BR BKN080 OVC095 15/14 A3018 -150 93 -100 000/00 RMK AO2 P0001 T01500139
93915KAEX AEX20161107074012711/07/16 07:40:31  5-MIN KAEX 071340Z AUTO 05004KT 4SM RA BR BKN080 OVC095 16/14 A3018 -150 90 0 050/04 RMK AO2 P0002 T01560139
93915KAEX AEX20161107074513011/07/16 07:45:31  5-MIN KAEX 071345Z AUTO 10003KT 4SM RA BR BKN080 OVC095 15/13 A3018 -150 90 -100 100/03 RMK AO2 P0003 T01500133
93915KAEX AEX20161107075013211/07/16 07:50:31  5-MIN KAEX 071350Z 10003KT 5SM RA BR BKN080 OVC095 15/13 A3018 -150 90 -100 100/03 RMK AO2 SLP225 P0003 T01500133
93915KAEX AEX20161107075512511/07/16 07:55:31  5-MIN KAEX 071355Z 08004KT 5SM RA BR BKN080 OVC100 15/13 A3018 -150 90 -100 080/04 RMK AO2 P0001 T01500133
93915KAEX AEX20161107080012611/07/16 08:00:31  5-MIN KAEX 071400Z 06003KT 5SM -RA BR BKN080 OVC100 15/13 A3018 -150 90 -100 060/03 RMK AO2 P0001 T01500133
93915KAEX AEX20161107080513311/07/16 08:05:31  5-MIN KAEX 071405Z 00000KT 6SM -RA BR SCT080 BKN100 OVC120 15/13 A3019 -150 90 -100 000/00 RMK AO2 P0001 T01500133
93915KAEX AEX20161107081012311/07/16 08:10:31  5-MIN KAEX 071410Z 00000KT 7SM -RA SCT080 OVC110 15/13 A3019 -150 90 -100 000/00 RMK AO2 P0001 T01500133
93915KAEX AEX20161107081512311/07/16 08:15:31  5-MIN KAEX 071415Z 00000KT 7SM -RA FEW080 OVC110 15/13 A3019 -150 90 -100 000/00 RMK AO2 P0001 T01500133
93915KAEX AEX20161107082012311/07/16 08:20:31  5-MIN KAEX 071420Z 12003KT 7SM -RA FEW080 OVC110 15/13 A3019 -150 90 -100 120/03 RMK AO2 P0002 T01500133
93915KAEX AEX20161107082511611/07/16 08:25:31  5-MIN KAEX 071425Z 08003KT 7SM -RA OVC110 15/13 A3019 -150 90 -100 080/03 RMK AO2 P0002 T01500133
93915KAEX AEX20161107083011611/07/16 08:30:31  5-MIN KAEX 071430Z 10003KT 8SM -RA OVC110 15/13 A3020 -160 90 -100 100/03 RMK AO2 P0002 T01500133
93915KAEX AEX20161107083511611/07/16 08:35:31  5-MIN KAEX 071435Z 09004KT 8SM -RA OVC110 15/13 A3020 -160 90 -100 090/04 RMK AO2 P0002 T01500133
93915KAEX AEX20161107084011311/07/16 08:40:31  5-MIN KAEX 071440Z 10004KT 9SM -RA OVC110 16/13 A3020 -160 86 0 100/04 RMK AO2 P0002 T01560133
93915KAEX AEX20161107084511411/07/16 08:45:31  5-MIN KAEX 071445Z 10003KT 10SM -RA OVC110 16/13 A3020 -160 86 0 100/03 RMK AO2 P0002 T01560133
93915KAEX AEX20161107085013311/07/16 08:50:31  5-MIN KAEX 071450Z 00000KT 10SM -RA OVC110 16/13 A3020 -160 86 0 000/00 RMK AO2 SLP229 P0002 60007 T01560133 53010
93915KAEX AEX20161107085511111/07/16 08:55:31  5-MIN KAEX 071455Z 00000KT 10SM FEW090 OVC110 16/13 A3020 -160 86 0 000/00 RMK AO2 T01560133
93915KAEX AEX20161107090011111/07/16 09:00:31  5-MIN KAEX 071500Z 00000KT 10SM FEW090 OVC110 16/13 A3020 -160 86 0 000/00 RMK AO2 T01560133
93915KAEX AEX20161107090511111/07/16 09:05:31  5-MIN KAEX 071505Z 00000KT 10SM FEW090 OVC100 16/13 A3020 -160 83 0 000/00 RMK AO2 T01610133
93915KAEX AEX20161107091011111/07/16 09:10:31  5-MIN KAEX 071510Z 08003KT 10SM FEW090 OVC110 16/13 A3020 -160 83 0 080/03 RMK AO2 T01610133
93915KAEX AEX20161107091512011/07/16 09:15:31  5-MIN KAEX 071515Z 08004KT 10SM -RA OVC100 16/13 A3020 -160 86 0 070/04 RMK AO2 RAB13 P0000 T01560133
93915KAEX AEX20161107092012611/07/16 09:20:31  5-MIN KAEX 071520Z 08003KT 10SM FEW090 OVC110 16/13 A3020 -160 86 0 070/03 RMK AO2 RAB13E17 P0000 T01560133
93915KAEX AEX20161107092512611/07/16 09:25:31  5-MIN KAEX 071525Z 07004KT 10SM FEW080 OVC110 16/14 A3020 -160 86 0 070/04 RMK AO2 RAB13E17 P0000 T01610139
93915KAEX AEX20161107093012711/07/16 09:30:31  5-MIN KAEX 071530Z 09004KT 10SM -RA FEW080 OVC110 16/13 A3020 -160 86 0 080/04 RMK AO2 RAB13 P0000 T01560133
93915KAEX AEX20161107093512711/07/16 09:35:31  5-MIN KAEX 071535Z 09004KT 10SM -RA SCT080 OVC100 16/13 A3020 -160 83 0 090/04 RMK AO2 RAB13 P0000 T01610133
93915KAEX AEX20161107094012611/07/16 09:40:31  5-MIN KAEX 071540Z 09005KT 9SM -RA SCT080 OVC100 16/13 A3020 -160 83 0 090/05 RMK AO2 RAB13 P0000 T01610133
93915KAEX AEX20161107094512611/07/16 09:45:31  5-MIN KAEX 071545Z 09005KT 8SM -RA SCT080 OVC110 16/13 A3020 -160 83 0 090/05 RMK AO2 RAB13 P0000 T01610133
93915KAEX AEX20161107095013311/07/16 09:50:31  5-MIN KAEX 071550Z 09004KT 7SM -RA FEW080 OVC110 16/13 A3020 -160 86 0 090/04 RMK AO2 RAB13 SLP230 P0000 T01560133
93915KAEX AEX20161107095512011/07/16 09:55:31  5-MIN KAEX 071555Z 09004KT 7SM -RA FEW080 OVC110 16/14 A3020 -160 86 0 090/04 RMK AO2 P0001 T01610139
93915KAEX AEX20161107100012011/07/16 10:00:31  5-MIN KAEX 071600Z 10004KT 7SM -RA FEW080 OVC100 16/14 A3020 -160 86 0 090/04 RMK AO2 P0001 T01610139
93915KAEX AEX20161107100511611/07/16 10:05:31  5-MIN KAEX 071605Z 09004KT 6SM -RA BR OVC100 16/14 A3020 -160 90 0 080/04 RMK AO2 P0001 T01610144
93915KAEX AEX20161107101011611/07/16 10:10:31  5-MIN KAEX 071610Z 06004KT 6SM -RA BR OVC100 16/14 A3020 -160 93 0 060/04 RMK AO2 P0001 T01560144
93915KAEX AEX20161107101512311/07/16 10:15:31  5-MIN KAEX 071615Z 07003KT 5SM -RA BR BKN100 OVC110 16/14 A3020 -160 93 0 070/03 RMK AO2 P0001 T01560144
93915KAEX AEX20161107102012211/07/16 10:20:31  5-MIN KAEX 071620Z 07004KT 5SM RA BR BKN100 OVC110 16/14 A3020 -160 90 0 070/04 RMK AO2 P0002 T01560139
93915KAEX AEX20161107102511611/07/16 10:25:31  5-MIN KAEX 071625Z 07004KT 5SM -RA BR OVC100 16/14 A3020 -160 90 0 070/04 RMK AO2 P0002 T01560139
93915KAEX AEX20161107103012311/07/16 10:30:31  5-MIN KAEX 071630Z 08005KT 6SM -RA BR FEW080 OVC110 16/14 A3020 -160 90 0 070/05 RMK AO2 P0002 T01560139
93915KAEX AEX20161107103512011/07/16 10:35:31  5-MIN KAEX 071635Z 08004KT 8SM -RA FEW085 OVC110 16/14 A3019 -160 90 0 080/04 RMK AO2 P0002 T01560139
93915KAEX AEX20161107104012011/07/16 10:40:31  5-MIN KAEX 071640Z 07005KT 9SM -RA SCT095 OVC120 16/14 A3019 -150 90 0 070/05 RMK AO2 P0002 T01560139
93915KAEX AEX20161107104511311/07/16 10:45:31  5-MIN KAEX 071645Z 07004KT 9SM -RA BKN110 16/14 A3019 -150 93 0 070/04 RMK AO2 P0002 T01560144
93915KAEX AEX20161107105012111/07/16 10:50:31  5-MIN KAEX 071650Z 06005KT 10SM -RA BKN110 16/14 A3019 -150 90 0 050/05 RMK AO2 SLP226 P0002 T01610144
93915KAEX AEX20161107105511411/07/16 10:55:31  5-MIN KAEX 071655Z 06005KT 10SM -RA OVC110 16/14 A3018 -150 90 0 050/05 RMK AO2 P0000 T01610144
93915KAEX AEX20161107110011811/07/16 11:00:31  5-MIN KAEX 071700Z 06006KT 10SM OVC110 16/14 A3018 -140 90 0 060/06 RMK AO2 RAE1657 P0000 T01610144
93915KAEX AEX20161107110511811/07/16 11:05:31  5-MIN KAEX 071705Z 06005KT 10SM OVC110 16/14 A3018 -140 90 0 050/05 RMK AO2 RAE1657 P0000 T01610144
93915KAEX AEX20161107111012011/07/16 11:10:31  5-MIN KAEX 071710Z 00000KT 10SM OVC110 17/14 A3018 -150 86 100 000/00 RMK AO2 RAE1657 P0000 T01670144
93915KAEX AEX20161107111512511/07/16 11:15:31  5-MIN KAEX 071715Z 11003KT 10SM FEW090 OVC110 17/14 A3018 -150 86 0 110/03 RMK AO2 RAE1657 P0000 T01670144
93915KAEX AEX20161107112012011/07/16 11:20:31  5-MIN KAEX 071720Z 09005KT 10SM OVC110 17/14 A3018 -150 86 100 090/05 RMK AO2 RAE1657 P0000 T01670144
93915KAEX AEX20161107112513411/07/16 11:25:31  5-MIN KAEX 071725Z 08005KT 10SM FEW050 BKN100 OVC120 17/14 A3018 -140 86 100 080/05 RMK AO2 RAE1657 P0000 T01670144
93915KAEX AEX20161107113013411/07/16 11:30:31  5-MIN KAEX 071730Z 09005KT 10SM FEW034 FEW050 OVC100 17/14 A3018 -140 86 100 090/05 RMK AO2 RAE1657 P0000 T01670144
93915KAEX AEX20161107113513411/07/16 11:35:31  5-MIN KAEX 071735Z 10005KT 10SM FEW034 SCT055 OVC110 17/14 A3018 -140 83 100 100/05 RMK AO2 RAE1657 P0000 T01670139
93915KAEX AEX20161107114013411/07/16 11:40:31  5-MIN KAEX 071740Z 08004KT 10SM SCT055 BKN095 OVC110 17/14 A3017 -140 86 100 080/04 RMK AO2 RAE1657 P0000 T01670144
93915KAEX AEX20161107114513411/07/16 11:45:31  5-MIN KAEX 071745Z 08004KT 10SM SCT055 BKN100 OVC110 17/14 A3017 -140 83 100 070/04 RMK AO2 RAE1657 P0000 T01720144
93915KAEX AEX20161107115015811/07/16 11:50:31  5-MIN KAEX 071750Z 07003KT 10SM FEW055 OVC100 17/14 A3017 -140 86 100 060/03 RMK AO2 RAE1657 SLP222 P0000 60009 T01670144 10172 20150 51011
93915KAEX AEX20161107115511311/07/16 11:55:31  5-MIN KAEX 071755Z 08003KT 10SM SCT055 OVC100 17/14 A3018 -140 80 100 080/03 RMK AO2 T01720139
93915KAEX AEX20161107120011311/07/16 12:00:31  5-MIN KAEX 071800Z 08005KT 10SM BKN055 OVC100 17/14 A3017 -140 83 100 080/05 RMK AO2 T01720144
93915KAEX AEX20161107120511311/07/16 12:05:31  5-MIN KAEX 071805Z 09006KT 10SM BKN055 OVC100 17/14 A3017 -130 83 100 090/06 RMK AO2 T01720144
93915KAEX AEX20161107121011311/07/16 12:10:31  5-MIN KAEX 071810Z 10007KT 10SM SCT055 OVC100 17/15 A3016 -120 87 100 090/07 RMK AO2 T01720150
93915KAEX AEX20161107121511311/07/16 12:15:31  5-MIN KAEX 071815Z 09006KT 10SM SCT055 OVC100 17/15 A3016 -120 87 100 090/06 RMK AO2 T01720150
93915KAEX AEX20161107122012011/07/16 12:20:31  5-MIN KAEX 071820Z 10006KT 10SM SCT049 BKN055 OVC100 17/15 A3016 -120 87 100 100/06 RMK AO2 T01720150
93915KAEX AEX20161107122512011/07/16 12:25:31  5-MIN KAEX 071825Z 12006KT 10SM BKN049 BKN055 OVC100 17/15 A3016 -130 87 100 110/06 RMK AO2 T01720150
93915KAEX AEX20161107123011311/07/16 12:30:31  5-MIN KAEX 071830Z 11007KT 10SM BKN049 OVC100 17/15 A3016 -130 87 100 110/07 RMK AO2 T01720150
93915KAEX AEX20161107123511311/07/16 12:35:31  5-MIN KAEX 071835Z 11007KT 10SM BKN049 OVC100 17/14 A3016 -130 83 100 100/07 RMK AO2 T01720144
93915KAEX AEX20161107124012211/07/16 12:40:31  5-MIN KAEX 071840Z 09005KT 10SM -RA OVC050 17/15 A3016 -120 87 100 090/05 RMK AO2 RAB38 P0000 T01720150
93915KAEX AEX20161107124512211/07/16 12:45:31  5-MIN KAEX 071845Z 00000KT 10SM -RA OVC055 17/14 A3016 -120 83 100 000/00 RMK AO2 RAB38 P0000 T01720144
93915KAEX AEX20161107125013511/07/16 12:50:31  5-MIN KAEX 071850Z 00000KT 10SM FEW036 OVC055 18/14 A3016 -130 81 200 000/00 RMK AO2 RAB38E47 SLP217 P0000 T01780144
93915KAEX AEX20161107125511311/07/16 12:55:31  5-MIN KAEX 071855Z 00000KT 10SM SCT036 OVC055 18/14 A3016 -130 81 200 000/00 RMK AO2 T01780144
93915KAEX AEX20161107130011311/07/16 13:00:31  5-MIN KAEX 071900Z 09005KT 10SM SCT036 OVC060 18/15 A3016 -120 83 200 090/05 RMK AO2 T01780150
93915KAEX AEX20161107130512011/07/16 13:05:31  5-MIN KAEX 071905Z 09006KT 10SM SCT037 BKN060 OVC090 18/15 A3015 -120 83 200 090/06 RMK AO2 T01780150
93915KAEX AEX20161107131012011/07/16 13:10:31  5-MIN KAEX 071910Z 09006KT 10SM SCT037 BKN060 OVC095 18/15 A3015 -110 83 200 090/06 RMK AO2 T01780150
93915KAEX AEX20161107131512011/07/16 13:15:31  5-MIN KAEX 071915Z 08005KT 10SM SCT037 SCT060 OVC090 18/15 A3015 -110 81 300 080/05 RMK AO2 T01830150
93915KAEX AEX20161107132012011/07/16 13:20:31  5-MIN KAEX 071920Z 09005KT 10SM FEW037 SCT060 OVC090 18/15 A3014 -110 81 300 090/05 RMK AO2 T01830150
93915KAEX AEX20161107132511311/07/16 13:25:31  5-MIN KAEX 071925Z 07004KT 10SM FEW060 OVC090 18/16 A3014 -110 84 300 070/04 RMK AO2 T01830156
93915KAEX AEX20161107133011311/07/16 13:30:31  5-MIN KAEX 071930Z 07004KT 10SM SCT065 OVC095 18/16 A3014 -110 84 300 070/04 RMK AO2 T01830156
93915KAEX AEX20161107133511311/07/16 13:35:31  5-MIN KAEX 071935Z 06006KT 10SM SCT065 BKN095 18/15 A3013 -100 81 300 050/06 RMK AO2 T01830150
93915KAEX AEX20161107134011311/07/16 13:40:31  5-MIN KAEX 071940Z 05006KT 10SM SCT065 BKN090 19/15 A3013 -100 78 400 050/06 RMK AO2 T01890150
93915KAEX AEX20161107134511311/07/16 13:45:31  5-MIN KAEX 071945Z 05004KT 10SM BKN065 OVC095 19/15 A3013 -100 78 400 050/04 RMK AO2 T01890150
93915KAEX AEX20161107135012011/07/16 13:50:31  5-MIN KAEX 071950Z 04004KT 10SM BKN065 OVC095 19/15 A3013 -100 78 400 030/04 RMK AO2 SLP208 T01890150
93915KAEX AEX20161107135511311/07/16 13:55:31  5-MIN KAEX 071955Z 03004KT 10SM BKN065 OVC080 19/16 A3013 -100 78 400 030/04 RMK AO2 T01940156
93915KAEX AEX20161107140012011/07/16 14:00:31  5-MIN KAEX 072000Z VRB03KT 10SM BKN065 BKN080 OVC120 19/15 A3013 -100 78 400 VRB/03 RMK AO2 T01890150
93915KAEX AEX20161107140512011/07/16 14:05:31  5-MIN KAEX 072005Z 07005KT 10SM SCT065 BKN080 BKN120 19/15 A3013 -100 78 400 070/05 RMK AO2 T01890150
93915KAEX AEX20161107141012011/07/16 14:10:31  5-MIN KAEX 072010Z 08005KT 10SM FEW020 SCT065 BKN080 19/15 A3013 -100 78 400 080/05 RMK AO2 T01890150
93915KAEX AEX20161107141512011/07/16 14:15:31  5-MIN KAEX 072015Z 08006KT 10SM FEW020 SCT065 BKN080 19/16 A3013 -100 81 400 070/06 RMK AO2 T01890156
93915KAEX AEX20161107142012011/07/16 14:20:31  5-MIN KAEX 072020Z 07004KT 10SM FEW019 FEW080 SCT120 19/16 A3013 -100 81 400 070/04 RMK AO2 T01890156
93915KAEX AEX20161107142512011/07/16 14:25:31  5-MIN KAEX 072025Z 10005KT 10SM FEW019 SCT080 SCT120 19/15 A3013 -100 78 400 100/05 RMK AO2 T01890150
93915KAEX AEX20161107143012011/07/16 14:30:31  5-MIN KAEX 072030Z 00000KT 10SM FEW019 FEW070 BKN085 19/16 A3013 -100 81 400 000/00 RMK AO2 T01890156
93915KAEX AEX20161107143511311/07/16 14:35:31  5-MIN KAEX 072035Z 07005KT 10SM FEW020 BKN085 19/16 A3013 -100 81 400 070/05 RMK AO2 T01890156
93915KAEX AEX20161107144010611/07/16 14:40:31  5-MIN KAEX 072040Z 07003KT 10SM BKN085 19/16 A3013 -100 81 400 070/03 RMK AO2 T01890156
93915KAEX AEX20161107144511211/07/16 14:45:31  5-MIN KAEX 072045Z 08003KT 10SM FEW025 BKN085 19/16 A3013 -90 81 400 080/03 RMK AO2 T01890156
93915KAEX AEX20161107145013111/07/16 14:50:31  5-MIN KAEX 072050Z 06005KT 10SM FEW025 OVC085 19/16 A3013 -90 81 400 060/05 RMK AO2 SLP205 60000 T01890156 58007
93915KAEX AEX20161107145511211/07/16 14:55:31  5-MIN KAEX 072055Z 06005KT 10SM FEW025 OVC085 19/16 A3012 -90 81 400 060/05 RMK AO2 T01940161
93915KAEX AEX20161107150011211/07/16 15:00:31  5-MIN KAEX 072100Z 03006KT 10SM FEW024 OVC085 19/16 A3012 -90 81 400 030/06 RMK AO2 T01940161
93915KAEX AEX20161107150511911/07/16 15:05:31  5-MIN KAEX 072105Z 04005KT 10SM FEW024 BKN085 OVC110 19/16 A3012 -90 81 400 040/05 RMK AO2 T01940161
93915KAEX AEX20161107151011911/07/16 15:10:31  5-MIN KAEX 072110Z 04005KT 10SM FEW024 BKN080 BKN110 19/16 A3012 -90 81 400 040/05 RMK AO2 T01940161
93915KAEX AEX20161107151511211/07/16 15:15:31  5-MIN KAEX 072115Z 06004KT 10SM FEW024 BKN080 19/16 A3012 -90 84 400 060/04 RMK AO2 T01890161
93915KAEX AEX20161107152011911/07/16 15:20:31  5-MIN KAEX 072120Z 05006KT 10SM FEW024 BKN080 BKN090 19/16 A3012 -90 84 400 040/06 RMK AO2 T01890161
93915KAEX AEX20161107152511211/07/16 15:25:31  5-MIN KAEX 072125Z 06005KT 10SM SCT075 SCT090 19/16 A3012 -90 81 400 060/05 RMK AO2 T01890156
93915KAEX AEX20161107153010511/07/16 15:30:31  5-MIN KAEX 072130Z 06006KT 10SM SCT080 19/16 A3012 -90 81 400 060/06 RMK AO2 T01890156
93915KAEX AEX20161107153510511/07/16 15:35:31  5-MIN KAEX 072135Z 08005KT 10SM FEW080 19/16 A3012 -90 81 400 070/05 RMK AO2 T01890156
93915KAEX AEX20161107154010511/07/16 15:40:31  5-MIN KAEX 072140Z 05004KT 10SM FEW080 19/16 A3012 -90 84 400 050/04 RMK AO2 T01890161
93915KAEX AEX20161107154510211/07/16 15:45:31  5-MIN KAEX 072145Z 02004KT 10SM CLR 19/16 A3012 -90 81 400 020/04 RMK AO2 T01890156
93915KAEX AEX20161107155010911/07/16 15:50:31  5-MIN KAEX 072150Z 04005KT 10SM CLR 19/16 A3012 -90 81 400 040/05 RMK AO2 SLP203 T01940161
93915KAEX AEX20161107155510211/07/16 15:55:31  5-MIN KAEX 072155Z 04005KT 10SM CLR 19/16 A3012 -90 81 400 030/05 RMK AO2 T01890156
93915KAEX AEX20161107160010211/07/16 16:00:31  5-MIN KAEX 072200Z 05005KT 10SM CLR 19/16 A3012 -90 81 400 050/05 RMK AO2 T01940161
93915KAEX AEX20161107160510511/07/16 16:05:31  5-MIN KAEX 072205Z 04005KT 10SM SCT060 19/16 A3012 -90 81 400 040/05 RMK AO2 T01940161
93915KAEX AEX20161107161010511/07/16 16:10:31  5-MIN KAEX 072210Z 05004KT 10SM BKN060 19/16 A3012 -90 81 400 040/04 RMK AO2 T01940161
93915KAEX AEX20161107161510511/07/16 16:15:31  5-MIN KAEX 072215Z 02005KT 10SM BKN060 19/16 A3012 -90 81 400 020/05 RMK AO2 T01940161
93915KAEX AEX20161107162010511/07/16 16:20:31  5-MIN KAEX 072220Z 04005KT 10SM BKN060 19/16 A3012 -90 81 400 040/05 RMK AO2 T01940161
93915KAEX AEX20161107162510511/07/16 16:25:31  5-MIN KAEX 072225Z 03006KT 10SM BKN060 19/16 A3012 -90 81 500 030/06 RMK AO2 T01940161
93915KAEX AEX20161107163010511/07/16 16:30:31  5-MIN KAEX 072230Z 03006KT 10SM BKN060 19/16 A3012 -80 81 500 030/06 RMK AO2 T01940161
93915KAEX AEX20161107163510511/07/16 16:35:31  5-MIN KAEX 072235Z 04006KT 10SM SCT060 19/16 A3011 -80 81 500 040/06 RMK AO2 T01940161
93915KAEX AEX20161107164010511/07/16 16:40:31  5-MIN KAEX 072240Z 04007KT 10SM SCT060 19/16 A3011 -80 84 400 040/07 RMK AO2 T01890161
93915KAEX AEX20161107164510511/07/16 16:45:31  5-MIN KAEX 072245Z 02005KT 10SM FEW060 19/16 A3011 -80 84 400 020/05 RMK AO2 T01890161
93915KAEX AEX20161107165010911/07/16 16:50:31  5-MIN KAEX 072250Z 03006KT 10SM CLR 19/16 A3011 -80 84 400 020/06 RMK AO2 SLP201 T01890161
93915KAEX AEX20161107165510211/07/16 16:55:31  5-MIN KAEX 072255Z 04005KT 10SM CLR 18/16 A3011 -80 87 300 030/05 RMK AO2 T01830161
93915KAEX AEX20161107170010211/07/16 17:00:31  5-MIN KAEX 072300Z 04006KT 10SM CLR 18/16 A3011 -80 87 300 040/06 RMK AO2 T01830161
93915KAEX AEX20161107170510211/07/16 17:05:31  5-MIN KAEX 072305Z 03005KT 10SM CLR 18/16 A3011 -80 87 300 030/05 RMK AO2 T01830161
93915KAEX AEX20161107171010211/07/16 17:10:31  5-MIN KAEX 072310Z 02004KT 10SM CLR 18/16 A3012 -90 90 300 020/04 RMK AO2 T01780161
93915KAEX AEX20161107171510211/07/16 17:15:31  5-MIN KAEX 072315Z 03004KT 10SM CLR 18/16 A3012 -90 90 300 030/04 RMK AO2 T01780161
93915KAEX AEX20161107172010211/07/16 17:20:31  5-MIN KAEX 072320Z 04004KT 10SM CLR 18/16 A3013 -90 90 200 040/04 RMK AO2 T01780161
93915KAEX AEX20161107172510611/07/16 17:25:31  5-MIN KAEX 072325Z 04003KT 10SM FEW035 18/16 A3013 -100 87 200 040/03 RMK AO2 T01780156
93915KAEX AEX20161107173010611/07/16 17:30:31  5-MIN KAEX 072330Z 04003KT 10SM SCT035 17/16 A3013 -100 90 200 040/03 RMK AO2 T01720156
93915KAEX AEX20161107173510611/07/16 17:35:31  5-MIN KAEX 072335Z 04003KT 10SM SCT035 17/16 A3013 -100 90 200 040/03 RMK AO2 T01720156
93915KAEX AEX20161107174010611/07/16 17:40:31  5-MIN KAEX 072340Z 00000KT 10SM SCT036 17/16 A3013 -100 90 200 000/00 RMK AO2 T01720156
93915KAEX AEX20161107174511311/07/16 17:45:31  5-MIN KAEX 072345Z 04003KT 10SM BKN036 BKN110 17/16 A3013 -100 90 200 040/03 RMK AO2 T01720156
93915KAEX AEX20161107175014411/07/16 17:50:31  5-MIN KAEX 072350Z 04004KT 10SM SCT036 BKN110 17/16 A3014 -100 90 200 040/04 RMK AO2 SLP208 60000 T01720156 10200 20167 56017
93915KAEX AEX20161107175511311/07/16 17:55:31  5-MIN KAEX 072355Z 05004KT 10SM SCT036 BKN110 17/16 A3014 -100 90 200 040/04 RMK AO2 T01720156
93915KAEX AEX20161107180012011/07/16 18:00:31  5-MIN KAEX 080000Z 05004KT 10SM FEW025 SCT036 BKN110 17/16 A3014 -110 90 200 050/04 RMK AO2 T01720156
93915KAEX AEX20161107180512011/07/16 18:05:31  5-MIN KAEX 080005Z 05003KT 10SM SCT025 SCT036 OVC110 17/16 A3014 -110 90 200 050/03 RMK AO2 T01720156
93915KAEX AEX20161107181011311/07/16 18:10:31  5-MIN KAEX 080010Z 05003KT 10SM BKN025 OVC110 17/16 A3015 -110 93 200 050/03 RMK AO2 T01720161
93915KAEX AEX20161107181511311/07/16 18:15:31  5-MIN KAEX 080015Z 05005KT 10SM BKN025 OVC110 17/16 A3015 -110 90 200 050/05 RMK AO2 T01720156
93915KAEX AEX20161107182011311/07/16 18:20:31  5-MIN KAEX 080020Z 04004KT 10SM BKN025 OVC110 17/16 A3015 -110 90 200 030/04 RMK AO2 T01720156
93915KAEX AEX20161107182510611/07/16 18:25:31  5-MIN KAEX 080025Z 00000KT 10SM OVC023 17/16 A3015 -120 90 200 000/00 RMK AO2 T01720156
93915KAEX AEX20161107183010611/07/16 18:30:31  5-MIN KAEX 080030Z 03003KT 10SM OVC023 17/16 A3015 -120 90 100 030/03 RMK AO2 T01720156
93915KAEX AEX20161107183510611/07/16 18:35:31  5-MIN KAEX 080035Z 05004KT 10SM OVC023 17/16 A3016 -120 90 100 050/04 RMK AO2 T01720156
93915KAEX AEX20161107184010611/07/16 18:40:31  5-MIN KAEX 080040Z 05006KT 10SM OVC021 17/16 A3016 -120 90 100 040/06 RMK AO2 T01720156
93915KAEX AEX20161107184510611/07/16 18:45:31  5-MIN KAEX 080045Z 05006KT 10SM OVC021 17/16 A3016 -120 90 100 040/06 RMK AO2 T01720156
93915KAEX AEX20161107185011311/07/16 18:50:31  5-MIN KAEX 080050Z 04008KT 10SM OVC021 17/16 A3016 -120 90 100 040/08 RMK AO2 SLP216 T01720156
93915KAEX AEX20161107185511311/07/16 18:55:31  5-MIN KAEX 080055Z 05006KT 10SM SCT014 OVC021 17/16 A3016 -120 90 100 050/06 RMK AO2 T01720156
93915KAEX AEX20161107190011311/07/16 19:00:31  5-MIN KAEX 080100Z 03005KT 10SM SCT014 OVC020 17/16 A3016 -130 90 100 030/05 RMK AO2 T01720156
93915KAEX AEX20161107190511311/07/16 19:05:31  5-MIN KAEX 080105Z 02005KT 10SM BKN014 OVC020 17/16 A3017 -130 90 100 020/05 RMK AO2 T01720156
93915KAEX AEX20161107191011311/07/16 19:10:31  5-MIN KAEX 080110Z 01004KT 10SM BKN013 OVC020 17/15 A3017 -130 87 100 010/04 RMK AO2 T01720150
93915KAEX AEX20161107191510611/07/16 19:15:31  5-MIN KAEX 080115Z 04003KT 10SM OVC013 17/15 A3017 -130 87 100 030/03 RMK AO2 T01720150
93915KAEX AEX20161107192010611/07/16 19:20:31  5-MIN KAEX 080120Z 04004KT 10SM OVC013 17/15 A3017 -130 87 100 030/04 RMK AO2 T01720150
93915KAEX AEX20161107192510611/07/16 19:25:31  5-MIN KAEX 080125Z 03006KT 10SM OVC013 17/15 A3017 -130 87 100 030/06 RMK AO2 T01720150
93915KAEX AEX20161107193010611/07/16 19:30:31  5-MIN KAEX 080130Z 03006KT 10SM OVC012 17/15 A3017 -130 87 100 030/06 RMK AO2 T01720150
93915KAEX AEX20161107193510611/07/16 19:35:31  5-MIN KAEX 080135Z 04004KT 10SM OVC012 17/15 A3017 -130 87 100 030/04 RMK AO2 T01720150
93915KAEX AEX20161107194011311/07/16 19:40:31  5-MIN KAEX 080140Z 05006KT 10SM BKN012 OVC019 17/15 A3017 -130 90 100 050/06 RMK AO2 T01670150
93915KAEX AEX20161107194511311/07/16 19:45:31  5-MIN KAEX 080145Z 04004KT 10SM BKN012 OVC019 17/15 A3016 -130 90 100 040/04 RMK AO2 T01670150
93915KAEX AEX20161107195009611/07/16 19:50:31  5-MIN KAEX 080150Z 04006KT 10SM OVC016 17/15 A3016 -130 90 100 040/06 RMK AO2
93915KAEX AEX20161107195510611/07/16 19:55:31  5-MIN KAEX 080155Z 03005KT 10SM OVC014 17/15 A3016 -130 90 100 030/05 RMK AO2 T01670150
93915KAEX AEX20161107200010611/07/16 20:00:31  5-MIN KAEX 080200Z 03006KT 10SM OVC014 17/15 A3016 -120 90 100 030/06 RMK AO2 T01670150
93915KAEX AEX20161107200510611/07/16 20:05:31  5-MIN KAEX 080205Z 05005KT 10SM OVC015 17/15 A3016 -120 90 100 040/05 RMK AO2 T01670150
93915KAEX AEX20161107201010611/07/16 20:10:31  5-MIN KAEX 080210Z 04004KT 10SM OVC015 17/15 A3016 -130 90 100 040/04 RMK AO2 T01670150
93915KAEX AEX20161107201510611/07/16 20:15:31  5-MIN KAEX 080215Z 04006KT 10SM OVC015 17/15 A3016 -130 90 100 040/06 RMK AO2 T01670150
93915KAEX AEX20161107202010611/07/16 20:20:31  5-MIN KAEX 080220Z 06006KT 10SM OVC015 17/15 A3016 -130 90 100 060/06 RMK AO2 T01670150
93915KAEX AEX20161107202510611/07/16 20:25:31  5-MIN KAEX 080225Z 06006KT 10SM OVC014 17/14 A3016 -120 86 100 060/06 RMK AO2 T01670144
93915KAEX AEX20161107203010611/07/16 20:30:31  5-MIN KAEX 080230Z 05004KT 10SM OVC014 17/15 A3016 -120 90 100 050/04 RMK AO2 T01670150
93915KAEX AEX20161107203510611/07/16 20:35:31  5-MIN KAEX 080235Z 06005KT 10SM OVC014 17/15 A3016 -120 90 100 060/05 RMK AO2 T01670150
93915KAEX AEX20161107204010611/07/16 20:40:31  5-MIN KAEX 080240Z 05006KT 10SM OVC014 17/14 A3016 -120 86 100 050/06 RMK AO2 T01670144
93915KAEX AEX20161107204510611/07/16 20:45:31  5-MIN KAEX 080245Z 05005KT 10SM OVC014 17/14 A3016 -120 86 100 040/05 RMK AO2 T01670144
93915KAEX AEX20161107205011911/07/16 20:50:31  5-MIN KAEX 080250Z 05005KT 10SM OVC014 17/14 A3016 -120 86 100 040/05 RMK AO2 SLP216 T01670144 53004
93915KAEX AEX20161107205510611/07/16 20:55:31  5-MIN KAEX 080255Z 05004KT 10SM OVC014 17/14 A3016 -120 86 100 050/04 RMK AO2 T01670144
93915KAEX AEX20161107210010611/07/16 21:00:31  5-MIN KAEX 080300Z 05005KT 10SM OVC014 17/14 A3015 -120 86 100 040/05 RMK AO2 T01670144
93915KAEX AEX20161107210510611/07/16 21:05:31  5-MIN KAEX 080305Z 04005KT 10SM OVC012 17/14 A3015 -120 86 100 030/05 RMK AO2 T01670144
93915KAEX AEX20161107211010611/07/16 21:10:31  5-MIN KAEX 080310Z 03004KT 10SM OVC012 17/14 A3015 -120 86 100 020/04 RMK AO2 T01670144
93915KAEX AEX20161107211510611/07/16 21:15:31  5-MIN KAEX 080315Z 00000KT 10SM OVC012 17/15 A3015 -120 90 100 000/00 RMK AO2 T01670150
93915KAEX AEX20161107212010611/07/16 21:20:31  5-MIN KAEX 080320Z 00000KT 10SM OVC012 17/15 A3015 -120 90 100 000/00 RMK AO2 T01670150
93915KAEX AEX20161107212510611/07/16 21:25:31  5-MIN KAEX 080325Z 02003KT 10SM OVC012 17/15 A3016 -120 90 100 020/03 RMK AO2 T01670150
93915KAEX AEX20161107213010611/07/16 21:30:31  5-MIN KAEX 080330Z 02003KT 10SM OVC012 17/15 A3016 -120 90 100 020/03 RMK AO2 T01670150
93915KAEX AEX20161107213510611/07/16 21:35:31  5-MIN KAEX 080335Z 04003KT 10SM OVC012 17/15 A3016 -120 90 100 040/03 RMK AO2 T01670150
93915KAEX AEX20161107214010611/07/16 21:40:31  5-MIN KAEX 080340Z 04003KT 10SM OVC012 17/14 A3016 -130 86 100 040/03 RMK AO2 T01670144
93915KAEX AEX20161107214510611/07/16 21:45:31  5-MIN KAEX 080345Z 04003KT 10SM OVC012 17/15 A3016 -130 90 100 040/03 RMK AO2 T01670150
93915KAEX AEX20161107215011311/07/16 21:50:31  5-MIN KAEX 080350Z 05003KT 10SM OVC012 17/15 A3016 -130 90 100 050/03 RMK AO2 SLP217 T01670150
93915KAEX AEX20161107215510611/07/16 21:55:31  5-MIN KAEX 080355Z 04003KT 10SM OVC011 17/15 A3016 -130 90 100 040/03 RMK AO2 T01670150
93915KAEX AEX20161107220010611/07/16 22:00:31  5-MIN KAEX 080400Z 03003KT 10SM OVC011 17/15 A3016 -130 90 100 030/03 RMK AO2 T01670150
93915KAEX AEX20161107220510611/07/16 22:05:31  5-MIN KAEX 080405Z 03003KT 10SM OVC010 17/15 A3016 -120 90 100 030/03 RMK AO2 T01670150
93915KAEX AEX20161107221010611/07/16 22:10:31  5-MIN KAEX 080410Z 01003KT 10SM OVC010 17/15 A3016 -120 90 100 010/03 RMK AO2 T01670150
93915KAEX AEX20161107221510611/07/16 22:15:31  5-MIN KAEX 080415Z 03005KT 10SM OVC009 17/15 A3016 -120 90 100 030/05 RMK AO2 T01670150
93915KAEX AEX20161107222010611/07/16 22:20:31  5-MIN KAEX 080420Z 02003KT 10SM OVC009 17/15 A3016 -120 90 100 020/03 RMK AO2 T01670150
93915KAEX AEX20161107222510611/07/16 22:25:31  5-MIN KAEX 080425Z 03004KT 10SM OVC009 17/15 A3015 -120 90 100 020/04 RMK AO2 T01670150
93915KAEX AEX20161107223010611/07/16 22:30:31  5-MIN KAEX 080430Z 04004KT 10SM OVC009 17/15 A3015 -120 90 100 040/04 RMK AO2 T01670150
93915KAEX AEX20161107223511111/07/16 22:35:31  5-MIN KAEX 080435Z AUTO 03004KT 10SM OVC009 17/15 A3015 -120 90 100 030/04 RMK AO2 T01670150
93915KAEX AEX20161107224011111/07/16 22:40:31  5-MIN KAEX 080440Z AUTO 04004KT 10SM OVC009 17/15 A3015 -120 90 100 040/04 RMK AO2 T01670150
93915KAEX AEX20161107224511111/07/16 22:45:31  5-MIN KAEX 080445Z AUTO 04005KT 10SM OVC008 17/15 A3015 -110 90 100 040/05 RMK AO2 T01670150
93915KAEX AEX20161107225011811/07/16 22:50:31  5-MIN KAEX 080450Z AUTO 05004KT 10SM OVC008 17/15 A3015 -110 90 100 040/04 RMK AO2 SLP212 T01670150
93915KAEX AEX20161107225511111/07/16 22:55:31  5-MIN KAEX 080455Z AUTO 05005KT 10SM OVC008 17/15 A3015 -110 90 100 040/05 RMK AO2 T01670150
93915KAEX AEX20161107230011111/07/16 23:00:31  5-MIN KAEX 080500Z AUTO 05005KT 10SM OVC008 17/15 A3015 -110 90 100 050/05 RMK AO2 T01670150
93915KAEX AEX20161107230511111/07/16 23:05:31  5-MIN KAEX 080505Z AUTO 06004KT 10SM OVC008 17/15 A3015 -110 90 100 050/04 RMK AO2 T01670150
93915KAEX AEX20161107231011111/07/16 23:10:31  5-MIN KAEX 080510Z AUTO 05005KT 10SM OVC008 17/15 A3014 -110 90 100 050/05 RMK AO2 T01670150
93915KAEX AEX20161107231511111/07/16 23:15:31  5-MIN KAEX 080515Z AUTO 05005KT 10SM OVC007 17/16 A3014 -110 93 100 050/05 RMK AO2 T01670156
93915KAEX AEX20161107232011111/07/16 23:20:31  5-MIN KAEX 080520Z AUTO 05006KT 10SM OVC007 17/16 A3014 -110 93 100 050/06 RMK AO2 T01670156
93915KAEX AEX20161107232511111/07/16 23:25:31  5-MIN KAEX 080525Z AUTO 06004KT 10SM OVC007 17/16 A3014 -110 93 100 060/04 RMK AO2 T01670156
93915KAEX AEX20161107233011111/07/16 23:30:31  5-MIN KAEX 080530Z AUTO 06005KT 10SM OVC007 17/16 A3015 -110 93 100 060/05 RMK AO2 T01670156
93915KAEX AEX20161107233511111/07/16 23:35:31  5-MIN KAEX 080535Z AUTO 06005KT 10SM OVC007 17/16 A3015 -110 93 100 060/05 RMK AO2 T01670156
93915KAEX AEX20161107234011111/07/16 23:40:31  5-MIN KAEX 080540Z AUTO 05004KT 10SM OVC007 17/16 A3015 -110 93 100 050/04 RMK AO2 T01670156
93915KAEX AEX20161107234511111/07/16 23:45:31  5-MIN KAEX 080545Z AUTO 06005KT 10SM OVC007 17/16 A3015 -110 93 100 060/05 RMK AO2 T01670156
93915KAEX AEX20161107235014111/07/16 23:50:31  5-MIN KAEX 080550Z 07005KT 10SM OVC007 17/16 A3015 -110 93 100 060/05 RMK AO2 SLP212 T01670156 10172 20167 402000150 50007
93915KAEX AEX20161107235510611/07/16 23:55:31  5-MIN KAEX 080555Z 05005KT 10SM OVC007 17/16 A3014 -110 93 100 050/05 RMK AO2 T01670156
93915KAEX AEX20161108000010611/08/16 00:00:31  5-MIN KAEX 080600Z 06004KT 10SM OVC007 17/16 A3014 -110 90 200 060/04 RMK AO2 T01720156
93915KAEX AEX20161108000510611/08/16 00:05:31  5-MIN KAEX 080605Z 07003KT 10SM OVC007 17/16 A3014 -110 90 200 060/03 RMK AO2 T01720156
93915KAEX AEX20161108001010611/08/16 00:10:31  5-MIN KAEX 080610Z 06003KT 10SM OVC007 17/16 A3014 -110 90 200 050/03 RMK AO2 T01720156
93915KAEX AEX20161108001510611/08/16 00:15:31  5-MIN KAEX 080615Z 05003KT 10SM OVC007 17/16 A3014 -110 93 200 050/03 RMK AO2 T01720161
93915KAEX AEX20161108002010611/08/16 00:20:31  5-MIN KAEX 080620Z 05003KT 10SM OVC007 17/16 A3014 -110 93 200 050/03 RMK AO2 T01720161
93915KAEX AEX20161108002510611/08/16 00:25:31  5-MIN KAEX 080625Z 07003KT 10SM OVC007 17/16 A3014 -110 93 200 070/03 RMK AO2 T01720161
93915KAEX AEX20161108003010611/08/16 00:30:31  5-MIN KAEX 080630Z 06003KT 10SM OVC007 17/16 A3014 -100 93 200 060/03 RMK AO2 T01720161
93915KAEX AEX20161108003510611/08/16 00:35:31  5-MIN KAEX 080635Z 05003KT 10SM OVC007 17/16 A3013 -100 93 200 050/03 RMK AO2 T01720161
93915KAEX AEX20161108004010611/08/16 00:40:31  5-MIN KAEX 080640Z 00000KT 10SM OVC007 17/16 A3013 -100 93 200 000/00 RMK AO2 T01720161
93915KAEX AEX20161108004511811/08/16 00:45:31  5-MIN KAEX 080645Z 03003KT 10SM OVC007 17/16 A3013 -100 93 200 030/03 RMK AO2 CIG 007V010 T01720161
93915KAEX AEX20161108005012511/08/16 00:50:31  5-MIN KAEX 080650Z 04003KT 10SM OVC007 17/16 A3013 -100 93 200 040/03 RMK AO2 CIG 007V011 SLP207 T01720161
93915KAEX AEX20161108005511811/08/16 00:55:31  5-MIN KAEX 080655Z 04004KT 10SM OVC007 17/16 A3013 -100 93 200 040/04 RMK AO2 CIG 007V011 T01720161
93915KAEX AEX20161108010011811/08/16 01:00:31  5-MIN KAEX 080700Z 04004KT 10SM OVC008 17/16 A3013 -100 93 200 040/04 RMK AO2 CIG 007V011 T01720161
93915KAEX AEX20161108010510611/08/16 01:05:31  5-MIN KAEX 080705Z 05004KT 10SM OVC008 17/16 A3013 -100 93 200 050/04 RMK AO2 T01720161
93915KAEX AEX20161108011010511/08/16 01:10:31  5-MIN KAEX 080710Z 04004KT 10SM OVC008 17/16 A3013 -90 93 200 040/04 RMK AO2 T01720161
93915KAEX AEX20161108011510511/08/16 01:15:31  5-MIN KAEX 080715Z 04004KT 10SM OVC009 17/16 A3012 -90 93 200 040/04 RMK AO2 T01720161
93915KAEX AEX20161108012010511/08/16 01:20:31  5-MIN KAEX 080720Z 04003KT 10SM OVC009 17/16 A3012 -90 93 200 040/03 RMK AO2 T01720161
93915KAEX AEX20161108012511711/08/16 01:25:31  5-MIN KAEX 080725Z 04003KT 10SM OVC009 17/16 A3012 -90 93 200 040/03 RMK AO2 CIG 008V012 T01720161
93915KAEX AEX20161108013011711/08/16 01:30:31  5-MIN KAEX 080730Z 02003KT 10SM OVC009 17/16 A3012 -90 93 200 020/03 RMK AO2 CIG 007V014 T01720161
93915KAEX AEX20161108013511711/08/16 01:35:31  5-MIN KAEX 080735Z 01004KT 10SM OVC009 17/16 A3012 -90 93 200 010/04 RMK AO2 CIG 007V014 T01720161
93915KAEX AEX20161108014011211/08/16 01:40:31  5-MIN KAEX 080740Z 00000KT 10SM BKN009 OVC012 17/16 A3012 -90 93 200 000/00 RMK AO2 T01720161
93915KAEX AEX20161108014511711/08/16 01:45:31  5-MIN KAEX 080745Z 02003KT 10SM OVC009 17/16 A3012 -90 93 200 010/03 RMK AO2 CIG 007V013 T01720161
93915KAEX AEX20161108015012411/08/16 01:50:31  5-MIN KAEX 080750Z 03003KT 10SM OVC009 17/16 A3012 -80 93 200 030/03 RMK AO2 CIG 007V013 SLP202 T01720161
93915KAEX AEX20161108015511711/08/16 01:55:31  5-MIN KAEX 080755Z 05004KT 10SM OVC009 17/16 A3011 -80 93 200 040/04 RMK AO2 CIG 007V013 T01720161
93915KAEX AEX20161108020011711/08/16 02:00:31  5-MIN KAEX 080800Z 06004KT 10SM OVC009 17/16 A3011 -80 93 200 060/04 RMK AO2 CIG 007V012 T01720161
93915KAEX AEX20161108020511711/08/16 02:05:31  5-MIN KAEX 080805Z 05004KT 10SM OVC010 17/16 A3011 -80 93 200 050/04 RMK AO2 CIG 007V012 T01720161
93915KAEX AEX20161108021010511/08/16 02:10:31  5-MIN KAEX 080810Z 06005KT 10SM OVC010 17/16 A3011 -80 93 200 060/05 RMK AO2 T01720161
93915KAEX AEX20161108021511211/08/16 02:15:31  5-MIN KAEX 080815Z 05005KT 10SM BKN010 OVC017 17/16 A3011 -80 93 200 050/05 RMK AO2 T01720161
93915KAEX AEX20161108022011211/08/16 02:20:31  5-MIN KAEX 080820Z 06005KT 10SM BKN011 OVC017 17/16 A3011 -80 93 200 060/05 RMK AO2 T01720161
93915KAEX AEX20161108022511211/08/16 02:25:31  5-MIN KAEX 080825Z 06006KT 10SM SCT011 OVC017 17/17 A3011 -80 96 200 060/06 RMK AO2 T01720167
93915KAEX AEX20161108023011211/08/16 02:30:31  5-MIN KAEX 080830Z 07006KT 10SM SCT011 OVC017 17/17 A3011 -70 96 200 070/06 RMK AO2 T01720167
93915KAEX AEX20161108023511211/08/16 02:35:31  5-MIN KAEX 080835Z 05004KT 10SM FEW011 OVC019 17/17 A3011 -70 96 200 050/04 RMK AO2 T01720167
93915KAEX AEX20161108024010511/08/16 02:40:31  5-MIN KAEX 080840Z 04005KT 10SM OVC019 17/17 A3011 -70 96 200 040/05 RMK AO2 T01720167
93915KAEX AEX20161108024511211/08/16 02:45:31  5-MIN KAEX 080845Z 05004KT 10SM FEW007 OVC019 17/17 A3011 -80 96 200 050/04 RMK AO2 T01720167
93915KAEX AEX20161108025012511/08/16 02:50:31  5-MIN KAEX 080850Z 05004KT 10SM SCT007 OVC019 17/17 A3011 -80 96 200 050/04 RMK AO2 SLP200 T01720167 56011
93915KAEX AEX20161108025511911/08/16 02:55:31  5-MIN KAEX 080855Z 03006KT 10SM FEW007 BKN014 OVC021 17/17 A3011 -80 96 200 020/06 RMK AO2 T01720167
93915KAEX AEX20161108030013111/08/16 03:00:31  5-MIN KAEX 080900Z 02005KT 10SM BKN007 BKN014 OVC021 17/17 A3011 -80 96 200 010/05 RMK AO2 CIG 005V009 T01720167
93915KAEX AEX20161108030512411/08/16 03:05:31  5-MIN KAEX 080905Z 03005KT 10SM BKN007 OVC021 17/16 A3011 -80 93 200 030/05 RMK AO2 CIG 005V013 T01720161
93915KAEX AEX20161108031011711/08/16 03:10:31  5-MIN KAEX 080910Z 03005KT 10SM OVC009 17/16 A3011 -80 93 200 030/05 RMK AO2 CIG 005V013 T01720161
93915KAEX AEX20161108031512411/08/16 03:15:31  5-MIN KAEX 080915Z 04006KT 10SM BKN009 OVC013 17/16 A3011 -70 93 200 030/06 RMK AO2 CIG 005V010 T01720161
93915KAEX AEX20161108032012411/08/16 03:20:31  5-MIN KAEX 080920Z 03006KT 10SM BKN008 OVC013 17/16 A3010 -70 93 200 020/06 RMK AO2 CIG 005V010 T01720161
93915KAEX AEX20161108032511711/08/16 03:25:31  5-MIN KAEX 080925Z 05006KT 10SM OVC008 17/16 A3011 -80 93 200 050/06 RMK AO2 CIG 005V010 T01720161
93915KAEX AEX20161108033011711/08/16 03:30:31  5-MIN KAEX 080930Z 03005KT 10SM OVC008 17/16 A3011 -80 93 200 030/05 RMK AO2 CIG 005V010 T01720161
93915KAEX AEX20161108033511711/08/16 03:35:31  5-MIN KAEX 080935Z 03004KT 10SM OVC008 17/16 A3011 -80 93 200 030/04 RMK AO2 CIG 005V010 T01720161
93915KAEX AEX20161108034011711/08/16 03:40:31  5-MIN KAEX 080940Z 04005KT 10SM OVC008 17/16 A3011 -80 93 200 040/05 RMK AO2 CIG 005V010 T01720161
93915KAEX AEX20161108034511711/08/16 03:45:31  5-MIN KAEX 080945Z 05005KT 10SM OVC008 17/16 A3011 -80 96 100 050/05 RMK AO2 CIG 005V010 T01670161
93915KAEX AEX20161108035012411/08/16 03:50:31  5-MIN KAEX 080950Z 04006KT 10SM OVC006 17/16 A3011 -80 96 100 040/06 RMK AO2 CIG 005V010 SLP201 T01670161
93915KAEX AEX20161108035511711/08/16 03:55:31  5-MIN KAEX 080955Z 03007KT 10SM OVC006 17/16 A3012 -80 96 100 030/07 RMK AO2 CIG 005V010 T01670161
93915KAEX AEX20161108040011711/08/16 04:00:31  5-MIN KAEX 081000Z 03005KT 10SM OVC006 17/16 A3012 -90 96 100 030/05 RMK AO2 CIG 005V009 T01670161
93915KAEX AEX20161108040511711/08/16 04:05:31  5-MIN KAEX 081005Z 03005KT 10SM OVC008 17/16 A3012 -90 96 100 030/05 RMK AO2 CIG 005V009 T01670161
93915KAEX AEX20161108041011711/08/16 04:10:31  5-MIN KAEX 081010Z 03005KT 10SM OVC008 17/16 A3012 -90 96 100 030/05 RMK AO2 CIG 005V010 T01670161
93915KAEX AEX20161108041511711/08/16 04:15:31  5-MIN KAEX 081015Z 04005KT 10SM OVC008 17/16 A3012 -90 96 100 040/05 RMK AO2 CIG 005V010 T01670161
93915KAEX AEX20161108042011711/08/16 04:20:31  5-MIN KAEX 081020Z 04004KT 10SM OVC008 17/16 A3012 -90 96 100 030/04 RMK AO2 CIG 005V011 T01670161
93915KAEX AEX20161108042511711/08/16 04:25:31  5-MIN KAEX 081025Z 04005KT 10SM OVC008 17/16 A3012 -90 96 100 030/05 RMK AO2 CIG 006V012 T01670161
93915KAEX AEX20161108043011711/08/16 04:30:31  5-MIN KAEX 081030Z 04005KT 10SM OVC010 17/16 A3012 -90 96 100 030/05 RMK AO2 CIG 006V012 T01670161
93915KAEX AEX20161108043510511/08/16 04:35:31  5-MIN KAEX 081035Z 03005KT 10SM OVC010 17/16 A3012 -90 96 100 030/05 RMK AO2 T01670161
93915KAEX AEX20161108044010511/08/16 04:40:31  5-MIN KAEX 081040Z 04005KT 10SM OVC010 17/16 A3012 -90 96 100 040/05 RMK AO2 T01670161
93915KAEX AEX20161108044510511/08/16 04:45:31  5-MIN KAEX 081045Z 04005KT 10SM OVC011 17/16 A3012 -90 96 100 040/05 RMK AO2 T01670161
93915KAEX AEX20161108045011211/08/16 04:50:31  5-MIN KAEX 081050Z 04005KT 10SM OVC011 17/16 A3012 -90 93 200 040/05 RMK AO2 SLP204 T01720161
93915KAEX AEX20161108045510511/08/16 04:55:31  5-MIN KAEX 081055Z 04005KT 10SM OVC011 17/16 A3012 -90 93 200 030/05 RMK AO2 T01720161
93915KAEX AEX20161108050010511/08/16 05:00:31  5-MIN KAEX 081100Z 04004KT 10SM OVC011 17/16 A3012 -90 93 200 040/04 RMK AO2 T01720161
93915KAEX AEX20161108050510511/08/16 05:05:31  5-MIN KAEX 081105Z 04006KT 10SM OVC011 17/16 A3012 -90 93 200 040/06 RMK AO2 T01720161
93915KAEX AEX20161108051010511/08/16 05:10:31  5-MIN KAEX 081110Z 03005KT 10SM OVC011 17/16 A3012 -90 93 200 030/05 RMK AO2 T01720161
93915KAEX AEX20161108051510511/08/16 05:15:31  5-MIN KAEX 081115Z 03004KT 10SM OVC011 17/16 A3012 -90 93 200 030/04 RMK AO2 T01720161
93915KAEX AEX20161108052010511/08/16 05:20:31  5-MIN KAEX 081120Z 02004KT 10SM OVC011 17/16 A3013 -90 93 200 020/04 RMK AO2 T01720161
93915KAEX AEX20161108052510511/08/16 05:25:31  5-MIN KAEX 081125Z 03005KT 10SM OVC011 17/16 A3013 -90 93 200 030/05 RMK AO2 T01720161
93915KAEX AEX20161108053010511/08/16 05:30:31  5-MIN KAEX 081130Z 03005KT 10SM OVC011 17/16 A3013 -90 93 200 030/05 RMK AO2 T01720161
93915KAEX AEX20161108053510511/08/16 05:35:31  5-MIN KAEX 081135Z 02005KT 10SM OVC010 17/16 A3013 -90 93 200 020/05 RMK AO2 T01720161
93915KAEX AEX20161108054011711/08/16 05:40:31  5-MIN KAEX 081140Z 03004KT 10SM OVC010 17/16 A3012 -90 93 200 030/04 RMK AO2 CIG 008V013 T01720161
93915KAEX AEX20161108054511711/08/16 05:45:31  5-MIN KAEX 081145Z 04004KT 10SM OVC010 17/16 A3012 -90 93 200 030/04 RMK AO2 CIG 008V013 T01720161
93915KAEX AEX20161108055013611/08/16 05:50:31  5-MIN KAEX 081150Z 04004KT 10SM OVC010 17/16 A3012 -90 93 200 040/04 RMK AO2 SLP205 70009 T01720161 10172 20167 56007
93915KAEX AEX20161108055510511/08/16 05:55:31  5-MIN KAEX 081155Z 04005KT 10SM OVC010 17/16 A3012 -90 93 200 040/05 RMK AO2 T01720161
93915KAEX AEX20161108060010511/08/16 06:00:31  5-MIN KAEX 081200Z 05006KT 10SM OVC010 17/16 A3012 -90 93 200 040/06 RMK AO2 T01720161
93915KAEX AEX20161108060510511/08/16 06:05:31  5-MIN KAEX 081205Z 04004KT 10SM OVC010 17/16 A3013 -90 93 200 040/04 RMK AO2 T01720161
93915KAEX AEX20161108061010611/08/16 06:10:31  5-MIN KAEX 081210Z 05005KT 10SM OVC010 17/16 A3013 -100 93 200 040/05 RMK AO2 T01720161
93915KAEX AEX20161108061510611/08/16 06:15:31  5-MIN KAEX 081215Z 05006KT 10SM OVC010 17/16 A3013 -100 93 200 050/06 RMK AO2 T01720161
93915KAEX AEX20161108062010611/08/16 06:20:31  5-MIN KAEX 081220Z 05004KT 10SM OVC010 17/16 A3013 -100 93 200 040/04 RMK AO2 T01720161
93915KAEX AEX20161108062510611/08/16 06:25:31  5-MIN KAEX 081225Z VRB04KT 10SM OVC010 17/16 A3013 -100 93 200 VRB/04 RMK AO2 T01720161
93915KAEX AEX20161108063010611/08/16 06:30:31  5-MIN KAEX 081230Z 06003KT 10SM OVC010 17/16 A3013 -100 93 200 050/03 RMK AO2 T01720161
93915KAEX AEX20161108063511811/08/16 06:35:31  5-MIN KAEX 081235Z 04004KT 10SM OVC008 17/16 A3014 -100 93 200 040/04 RMK AO2 CIG 007V010 T01720161
93915KAEX AEX20161108064011811/08/16 06:40:31  5-MIN KAEX 081240Z 05004KT 10SM OVC008 17/16 A3014 -100 93 200 050/04 RMK AO2 CIG 006V010 T01720161
93915KAEX AEX20161108064511811/08/16 06:45:31  5-MIN KAEX 081245Z VRB03KT 10SM OVC008 17/16 A3014 -100 93 200 VRB/03 RMK AO2 CIG 006V010 T01720161
93915KAEX AEX20161108065011211/08/16 06:50:31  5-MIN KAEX 081250Z 04004KT 8SM OVC008 17/16 A3014 -100 93 200 040/04 RMK AO2 SLP209 T01720161
93915KAEX AEX20161108065510511/08/16 06:55:31  5-MIN KAEX 081255Z 05003KT 7SM OVC008 17/17 A3014 -110 96 200 040/03 RMK AO2 T01720167
93915KAEX AEX20161108070010511/08/16 07:00:31  5-MIN KAEX 081300Z VRB03KT 7SM OVC007 17/17 A3014 -110 96 200 VRB/03 RMK AO2 T01720167
93915KAEX AEX20161108070510511/08/16 07:05:31  5-MIN KAEX 081305Z 05004KT 9SM OVC007 17/17 A3014 -110 96 200 050/04 RMK AO2 T01720167
93915KAEX AEX20161108071010611/08/16 07:10:31  5-MIN KAEX 081310Z 05004KT 10SM OVC007 17/17 A3014 -110 96 200 050/04 RMK AO2 T01720167
93915KAEX AEX20161108071510611/08/16 07:15:31  5-MIN KAEX 081315Z 05004KT 10SM OVC007 17/17 A3014 -110 96 200 050/04 RMK AO2 T01720167
93915KAEX AEX20161108072010611/08/16 07:20:31  5-MIN KAEX 081320Z 05004KT 10SM OVC007 17/17 A3014 -110 96 200 050/04 RMK AO2 T01720167
93915KAEX AEX20161108072510611/08/16 07:25:31  5-MIN KAEX 081325Z 04004KT 10SM OVC007 17/17 A3015 -110 96 200 040/04 RMK AO2 T01720167
93915KAEX AEX20161108073010611/08/16 07:30:31  5-MIN KAEX 081330Z 04004KT 10SM OVC007 18/17 A3015 -120 93 200 040/04 RMK AO2 T01780167
93915KAEX AEX20161108073510611/08/16 07:35:31  5-MIN KAEX 081335Z 05004KT 10SM OVC007 18/17 A3015 -120 93 200 050/04 RMK AO2 T01780167
93915KAEX AEX20161108074010611/08/16 07:40:31  5-MIN KAEX 081340Z 05004KT 10SM OVC007 18/17 A3015 -120 93 200 050/04 RMK AO2 T01780167
93915KAEX AEX20161108074510611/08/16 07:45:31  5-MIN KAEX 081345Z 04004KT 10SM OVC007 18/17 A3016 -120 93 200 040/04 RMK AO2 T01780167
93915KAEX AEX20161108075011311/08/16 07:50:31  5-MIN KAEX 081350Z 05004KT 10SM OVC007 18/17 A3016 -120 93 200 050/04 RMK AO2 SLP216 T01780167
93915KAEX AEX20161108075510611/08/16 07:55:31  5-MIN KAEX 081355Z 06003KT 10SM OVC007 18/17 A3016 -120 93 200 050/03 RMK AO2 T01780167
93915KAEX AEX20161108080010511/08/16 08:00:31  5-MIN KAEX 081400Z VRB03KT 9SM OVC007 18/17 A3016 -120 93 200 VRB/03 RMK AO2 T01780167
93915KAEX AEX20161108080510811/08/16 08:05:31  5-MIN KAEX 081405Z 06005KT 6SM BR OVC007 18/17 A3016 -120 93 200 060/05 RMK AO2 T01780167
93915KAEX AEX20161108081012411/08/16 08:10:31  5-MIN KAEX 081410Z 05004KT 5SM -RA BR OVC007 18/17 A3016 -120 93 200 050/04 RMK AO2 RAB09 P0000 T01780167
93915KAEX AEX20161108081512411/08/16 08:15:31  5-MIN KAEX 081415Z 06004KT 4SM -RA BR OVC007 18/17 A3016 -120 93 200 060/04 RMK AO2 RAB09 P0001 T01780167
93915KAEX AEX20161108082012411/08/16 08:20:31  5-MIN KAEX 081420Z 06004KT 4SM -RA BR OVC007 18/17 A3016 -120 96 200 060/04 RMK AO2 RAB09 P0001 T01780172
93915KAEX AEX20161108082512411/08/16 08:25:31  5-MIN KAEX 081425Z 07005KT 6SM -RA BR OVC007 18/17 A3016 -120 96 200 060/05 RMK AO2 RAB09 P0001 T01780172
93915KAEX AEX20161108083012111/08/16 08:30:31  5-MIN KAEX 081430Z 06006KT 10SM OVC007 18/17 A3016 -120 96 200 060/06 RMK AO2 RAB09E29 P0001 T01780172
93915KAEX AEX20161108083512111/08/16 08:35:31  5-MIN KAEX 081435Z VRB05KT 10SM OVC007 18/17 A3016 -120 96 200 VRB/05 RMK AO2 RAB09E29 P0001 T01780172
93915KAEX AEX20161108084012011/08/16 08:40:31  5-MIN KAEX 081440Z 07006KT 9SM OVC007 18/17 A3016 -130 93 300 070/06 RMK AO2 RAB09E29 P0001 T01830172
93915KAEX AEX20161108084512011/08/16 08:45:31  5-MIN KAEX 081445Z 07005KT 9SM OVC007 18/17 A3016 -120 93 300 070/05 RMK AO2 RAB09E29 P0001 T01830172
93915KAEX AEX20161108085015111/08/16 08:50:31  5-MIN KAEX 081450Z 05006KT 9SM OVC007 18/17 A3016 -130 93 300 050/06 RMK AO2 RAB09E29 CIG 005V010 SLP217 P0001 60001 T01830172 51005
93915KAEX AEX20161108085511811/08/16 08:55:31  5-MIN KAEX 081455Z 05006KT 10SM OVC007 18/17 A3016 -130 93 300 050/06 RMK AO2 CIG 005V010 T01830172
93915KAEX AEX20161108090011811/08/16 09:00:31  5-MIN KAEX 081500Z 04007KT 10SM OVC007 18/17 A3016 -130 93 300 040/07 RMK AO2 CIG 005V010 T01830172
93915KAEX AEX20161108090511811/08/16 09:05:31  5-MIN KAEX 081505Z 05004KT 10SM OVC008 18/17 A3016 -130 93 300 050/04 RMK AO2 CIG 005V010 T01830172
93915KAEX AEX20161108091011811/08/16 09:10:31  5-MIN KAEX 081510Z 04005KT 10SM OVC008 18/17 A3016 -130 93 300 040/05 RMK AO2 CIG 006V010 T01830172
93915KAEX AEX20161108091511811/08/16 09:15:31  5-MIN KAEX 081515Z 06005KT 10SM OVC008 18/17 A3016 -130 93 300 060/05 RMK AO2 CIG 006V010 T01830172
93915KAEX AEX20161108092011811/08/16 09:20:31  5-MIN KAEX 081520Z 05004KT 10SM OVC007 19/17 A3017 -130 90 300 050/04 RMK AO2 CIG 006V010 T01890172
93915KAEX AEX20161108092511811/08/16 09:25:31  5-MIN KAEX 081525Z 05004KT 10SM OVC007 19/17 A3016 -130 90 300 050/04 RMK AO2 CIG 006V010 T01890172
93915KAEX AEX20161108093011811/08/16 09:30:31  5-MIN KAEX 081530Z 04005KT 10SM OVC008 19/17 A3016 -130 90 300 030/05 RMK AO2 CIG 006V010 T01890172
93915KAEX AEX20161108093511811/08/16 09:35:31  5-MIN KAEX 081535Z 04004KT 10SM OVC008 19/17 A3016 -130 90 300 040/04 RMK AO2 CIG 006V012 T01890172
93915KAEX AEX20161108094010611/08/16 09:40:31  5-MIN KAEX 081540Z 05005KT 10SM OVC008 19/17 A3016 -130 87 400 040/05 RMK AO2 T01940172
93915KAEX AEX20161108094511811/08/16 09:45:31  5-MIN KAEX 081545Z 03006KT 10SM OVC008 19/17 A3016 -130 87 400 030/06 RMK AO2 CIG 007V012 T01940172
93915KAEX AEX20161108095010811/08/16 09:50:31  5-MIN KAEX 081550Z 05007KT 10SM OVC010 19/17 A3016 -130 87 400 040/07 RMK AO2 CIG 008V012
93915KAEX AEX20161108095512511/08/16 09:55:31  5-MIN KAEX 081555Z 05005KT 10SM BKN010 OVC014 19/17 A3016 -130 87 400 050/05 RMK AO2 CIG 008V012 T01940172
93915KAEX AEX20161108100011811/08/16 10:00:31  5-MIN KAEX 081600Z 07006KT 10SM OVC010 19/17 A3016 -130 87 400 070/06 RMK AO2 CIG 008V012 T01940172
93915KAEX AEX20161108100510611/08/16 10:05:31  5-MIN KAEX 081605Z 05005KT 10SM OVC009 20/17 A3016 -130 84 500 050/05 RMK AO2 T02000172
93915KAEX AEX20161108101010611/08/16 10:10:31  5-MIN KAEX 081610Z 06005KT 10SM OVC009 20/17 A3016 -120 84 500 050/05 RMK AO2 T02000172
93915KAEX AEX20161108101510611/08/16 10:15:31  5-MIN KAEX 081615Z 06006KT 10SM OVC009 20/17 A3016 -120 84 500 060/06 RMK AO2 T02000172
93915KAEX AEX20161108102010611/08/16 10:20:31  5-MIN KAEX 081620Z 06006KT 10SM OVC009 20/17 A3016 -120 84 500 060/06 RMK AO2 T02000172
93915KAEX AEX20161108102510611/08/16 10:25:31  5-MIN KAEX 081625Z 06005KT 10SM OVC009 20/17 A3016 -120 84 500 060/05 RMK AO2 T02000172
93915KAEX AEX20161108103010611/08/16 10:30:31  5-MIN KAEX 081630Z 05006KT 10SM OVC009 20/17 A3016 -120 84 500 050/06 RMK AO2 T02000172
93915KAEX AEX20161108103510611/08/16 10:35:31  5-MIN KAEX 081635Z 03006KT 10SM OVC009 20/17 A3016 -120 84 500 030/06 RMK AO2 T02000172
93915KAEX AEX20161108104010611/08/16 10:40:31  5-MIN KAEX 081640Z 04005KT 10SM OVC009 21/17 A3016 -120 81 500 040/05 RMK AO2 T02060172
93915KAEX AEX20161108104510611/08/16 10:45:31  5-MIN KAEX 081645Z 04006KT 10SM OVC009 21/17 A3016 -120 81 500 040/06 RMK AO2 T02060172
93915KAEX AEX20161108105011311/08/16 10:50:31  5-MIN KAEX 081650Z 03006KT 10SM OVC009 21/17 A3016 -120 81 500 030/06 RMK AO2 SLP215 T02060172
93915KAEX AEX20161108105511311/08/16 10:55:31  5-MIN KAEX 081655Z 04005KT 10SM BKN012 OVC021 21/18 A3015 -120 84 500 040/05 RMK AO2 T02060178
93915KAEX AEX20161108110011311/08/16 11:00:31  5-MIN KAEX 081700Z 03005KT 10SM BKN012 OVC021 21/17 A3015 -110 81 500 030/05 RMK AO2 T02060172
93915KAEX AEX20161108110510611/08/16 11:05:31  5-MIN KAEX 081705Z 04006KT 10SM OVC012 21/18 A3015 -110 84 500 040/06 RMK AO2 T02060178
93915KAEX AEX20161108111011311/08/16 11:10:31  5-MIN KAEX 081710Z 03004KT 10SM BKN014 OVC021 21/18 A3015 -110 81 600 020/04 RMK AO2 T02110178
93915KAEX AEX20161108111511311/08/16 11:15:31  5-MIN KAEX 081715Z 03005KT 10SM SCT014 OVC021 21/18 A3015 -110 81 600 030/05 RMK AO2 T02110178
93915KAEX AEX20161108112011311/08/16 11:20:31  5-MIN KAEX 081720Z 09004KT 10SM SCT014 OVC021 21/18 A3014 -110 81 600 080/04 RMK AO2 T02110178
93915KAEX AEX20161108112511311/08/16 11:25:31  5-MIN KAEX 081725Z 05006KT 10SM SCT014 OVC021 21/18 A3014 -110 81 600 050/06 RMK AO2 T02110178
93915KAEX AEX20161108113010611/08/16 11:30:31  5-MIN KAEX 081730Z VRB03KT 10SM OVC019 21/18 A3014 -110 81 600 VRB/03 RMK AO2 T02110178
93915KAEX AEX20161108113510611/08/16 11:35:31  5-MIN KAEX 081735Z 08004KT 10SM OVC019 21/18 A3014 -110 81 600 080/04 RMK AO2 T02110178
93915KAEX AEX20161108114010611/08/16 11:40:31  5-MIN KAEX 081740Z VRB04KT 10SM OVC017 21/18 A3014 -110 81 600 VRB/04 RMK AO2 T02110178
93915KAEX AEX20161108114510611/08/16 11:45:31  5-MIN KAEX 081745Z 01005KT 10SM OVC017 22/18 A3014 -100 78 700 010/05 RMK AO2 T02170178
93915KAEX AEX20161108115013711/08/16 11:50:31  5-MIN KAEX 081750Z 04005KT 10SM OVC017 22/18 A3013 -100 78 700 030/05 RMK AO2 SLP208 60001 T02170178 10217 20172 51013
93915KAEX AEX20161108115510611/08/16 11:55:31  5-MIN KAEX 081755Z 03005KT 10SM OVC017 22/18 A3013 -100 78 700 030/05 RMK AO2 T02170178
93915KAEX AEX20161108120010611/08/16 12:00:31  5-MIN KAEX 081800Z VRB05KT 10SM OVC017 21/18 A3013 -100 81 600 VRB/05 RMK AO2 T02110178
93915KAEX AEX20161108120510611/08/16 12:05:31  5-MIN KAEX 081805Z 05006KT 10SM OVC017 21/18 A3013 -100 81 600 040/06 RMK AO2 T02110178
93915KAEX AEX20161108121010611/08/16 12:10:31  5-MIN KAEX 081810Z 05005KT 10SM OVC016 21/18 A3013 -100 81 600 040/05 RMK AO2 T02110178
93915KAEX AEX20161108121510611/08/16 12:15:31  5-MIN KAEX 081815Z 05004KT 10SM OVC016 21/18 A3013 -100 81 600 040/04 RMK AO2 T02110178
93915KAEX AEX20161108122010611/08/16 12:20:31  5-MIN KAEX 081820Z 03006KT 10SM OVC018 22/18 A3013 -100 78 700 030/06 RMK AO2 T02170178
93915KAEX AEX20161108122510511/08/16 12:25:31  5-MIN KAEX 081825Z 05004KT 10SM OVC018 21/18 A3013 -90 81 600 050/04 RMK AO2 T02110178
93915KAEX AEX20161108123010511/08/16 12:30:31  5-MIN KAEX 081830Z 03005KT 10SM OVC018 22/18 A3013 -90 78 700 030/05 RMK AO2 T02170178
93915KAEX AEX20161108123510511/08/16 12:35:31  5-MIN KAEX 081835Z 01005KT 10SM OVC018 21/18 A3012 -90 81 600 010/05 RMK AO2 T02110178
93915KAEX AEX20161108124010511/08/16 12:40:31  5-MIN KAEX 081840Z 03005KT 10SM OVC020 21/18 A3012 -90 81 600 030/05 RMK AO2 T02110178
93915KAEX AEX20161108124510511/08/16 12:45:31  5-MIN KAEX 081845Z 05004KT 10SM OVC020 21/18 A3012 -90 81 600 050/04 RMK AO2 T02110178
93915KAEX AEX20161108125011211/08/16 12:50:31  5-MIN KAEX 081850Z 06004KT 10SM OVC020 21/18 A3012 -80 81 600 060/04 RMK AO2 SLP202 T02110178
93915KAEX AEX20161108125511211/08/16 12:55:31  5-MIN KAEX 081855Z 04005KT 10SM BKN017 OVC022 21/18 A3011 -80 81 600 040/05 RMK AO2 T02110178
93915KAEX AEX20161108130011211/08/16 13:00:31  5-MIN KAEX 081900Z 04004KT 10SM BKN017 OVC022 21/18 A3011 -80 81 600 040/04 RMK AO2 T02110178
93915KAEX AEX20161108130511211/08/16 13:05:31  5-MIN KAEX 081905Z 04005KT 10SM BKN017 OVC022 21/18 A3011 -80 81 700 030/05 RMK AO2 T02110178
93915KAEX AEX20161108131011911/08/16 13:10:31  5-MIN KAEX 081910Z 04003KT 10SM BKN017 BKN026 OVC037 22/18 A3011 -80 78 700 040/03 RMK AO2 T02170178
93915KAEX AEX20161108131511911/08/16 13:15:31  5-MIN KAEX 081915Z 03006KT 10SM BKN017 BKN026 OVC039 22/18 A3011 -70 78 700 030/06 RMK AO2 T02170178
93915KAEX AEX20161108132011911/08/16 13:20:31  5-MIN KAEX 081920Z 05006KT 10SM SCT017 BKN026 OVC039 22/18 A3011 -70 78 700 050/06 RMK AO2 T02170178
93915KAEX AEX20161108132511911/08/16 13:25:31  5-MIN KAEX 081925Z 01007KT 10SM SCT017 SCT026 OVC039 22/18 A3010 -70 75 800 010/07 RMK AO2 T02220178
93915KAEX AEX20161108133011911/08/16 13:30:31  5-MIN KAEX 081930Z 36005KT 10SM FEW017 SCT025 OVC039 22/18 A3010 -70 75 800 360/05 RMK AO2 T02220178
93915KAEX AEX20161108133511911/08/16 13:35:31  5-MIN KAEX 081935Z 35005KT 10SM FEW026 FEW033 OVC040 22/17 A3010 -70 75 700 350/05 RMK AO2 T02170172
93915KAEX AEX20161108134011911/08/16 13:40:31  5-MIN KAEX 081940Z 05006KT 10SM FEW026 FEW033 OVC040 22/18 A3010 -70 78 700 040/06 RMK AO2 T02170178
93915KAEX AEX20161108134511211/08/16 13:45:31  5-MIN KAEX 081945Z 04005KT 10SM FEW030 OVC040 22/17 A3010 -70 75 700 040/05 RMK AO2 T02170172
93915KAEX AEX20161108135012611/08/16 13:50:31  5-MIN KAEX 081950Z 02006KT 10SM BKN040 BKN048 OVC060 22/17 A3010 -70 75 700 010/06 RMK AO2 SLP195 T02170172
93915KAEX AEX20161108135511911/08/16 13:55:31  5-MIN KAEX 081955Z 03006KT 10SM FEW016 BKN040 OVC060 22/18 A3010 -70 75 800 030/06 RMK AO2 T02220178
93915KAEX AEX20161108140011911/08/16 14:00:31  5-MIN KAEX 082000Z 03005KT 10SM FEW016 BKN040 OVC065 22/18 A3010 -70 78 700 030/05 RMK AO2 T02170178
93915KAEX AEX20161108140511911/08/16 14:05:31  5-MIN KAEX 082005Z 02005KT 10SM FEW016 BKN042 OVC065 22/17 A3009 -60 75 700 020/05 RMK AO2 T02170172
93915KAEX AEX20161108141011911/08/16 14:10:31  5-MIN KAEX 082010Z 01005KT 10SM FEW016 BKN042 OVC060 22/17 A3009 -60 75 700 010/05 RMK AO2 T02170172
93915KAEX AEX20161108141511911/08/16 14:15:31  5-MIN KAEX 082015Z 03005KT 10SM FEW016 BKN024 OVC060 22/17 A3010 -70 75 700 030/05 RMK AO2 T02170172
93915KAEX AEX20161108142011911/08/16 14:20:31  5-MIN KAEX 082020Z 05005KT 10SM FEW016 BKN024 OVC043 22/18 A3009 -60 78 700 050/05 RMK AO2 T02170178
93915KAEX AEX20161108142511911/08/16 14:25:31  5-MIN KAEX 082025Z 03005KT 10SM BKN022 BKN043 OVC060 22/18 A3009 -60 78 700 030/05 RMK AO2 T02170178
93915KAEX AEX20161108143011911/08/16 14:30:31  5-MIN KAEX 082030Z 06004KT 10SM SCT017 BKN022 OVC060 22/18 A3009 -60 78 700 060/04 RMK AO2 T02170178
93915KAEX AEX20161108143511211/08/16 14:35:31  5-MIN KAEX 082035Z 05005KT 10SM BKN017 OVC024 21/18 A3009 -60 81 700 050/05 RMK AO2 T02110178
93915KAEX AEX20161108144010511/08/16 14:40:31  5-MIN KAEX 082040Z 05006KT 10SM OVC021 21/18 A3009 -60 81 700 040/06 RMK AO2 T02110178
93915KAEX AEX20161108144511211/08/16 14:45:31  5-MIN KAEX 082045Z 04005KT 10SM BKN021 OVC029 21/18 A3009 -60 81 700 040/05 RMK AO2 T02110178
93915KAEX AEX20161108145013211/08/16 14:50:31  5-MIN KAEX 082050Z 04007KT 10SM SCT021 BKN029 OVC034 21/18 A3009 -60 81 700 040/07 RMK AO2 SLP193 T02110178 58009
93915KAEX AEX20161108145511911/08/16 14:55:31  5-MIN KAEX 082055Z 04006KT 10SM SCT018 BKN030 OVC036 21/18 A3009 -60 81 700 040/06 RMK AO2 T02110178
93915KAEX AEX20161108150011911/08/16 15:00:31  5-MIN KAEX 082100Z 04007KT 10SM FEW018 BKN036 OVC060 21/18 A3009 -60 81 700 030/07 RMK AO2 T02110178
93915KAEX AEX20161108150511911/08/16 15:05:31  5-MIN KAEX 082105Z 04007KT 10SM FEW021 BKN036 BKN060 21/18 A3009 -60 81 700 040/07 RMK AO2 T02110178
93915KAEX AEX20161108151011911/08/16 15:10:31  5-MIN KAEX 082110Z 01006KT 10SM SCT014 BKN033 BKN065 21/18 A3009 -60 81 700 010/06 RMK AO2 T02110178
93915KAEX AEX20161108151511911/08/16 15:15:31  5-MIN KAEX 082115Z 35008KT 10SM BKN014 BKN035 BKN060 21/18 A3009 -60 81 700 350/08 RMK AO2 T02110178
93915KAEX AEX20161108152011911/08/16 15:20:31  5-MIN KAEX 082120Z 36008KT 10SM SCT014 BKN028 BKN036 21/18 A3009 -60 84 600 360/08 RMK AO2 T02060178
93915KAEX AEX20161108152511911/08/16 15:25:31  5-MIN KAEX 082125Z 02007KT 10SM SCT014 BKN027 OVC060 21/18 A3009 -60 84 600 020/07 RMK AO2 T02060178
93915KAEX AEX20161108153011211/08/16 15:30:31  5-MIN KAEX 082130Z 02007KT 10SM SCT014 OVC029 21/18 A3009 -60 84 600 020/07 RMK AO2 T02060178
93915KAEX AEX20161108153511911/08/16 15:35:31  5-MIN KAEX 082135Z 02006KT 10SM BKN016 BKN024 OVC060 21/18 A3009 -60 81 700 020/06 RMK AO2 T02110178
93915KAEX AEX20161108154011911/08/16 15:40:31  5-MIN KAEX 082140Z 02007KT 10SM BKN016 BKN024 OVC060 21/18 A3009 -60 84 600 020/07 RMK AO2 T02060178
93915KAEX AEX20161108154511911/08/16 15:45:31  5-MIN KAEX 082145Z 01006KT 10SM BKN018 BKN024 OVC029 21/18 A3009 -60 84 600 010/06 RMK AO2 T02060178
93915KAEX AEX20161108155012611/08/16 15:50:31  5-MIN KAEX 082150Z 01007KT 10SM SCT018 BKN024 OVC029 21/18 A3009 -60 84 600 010/07 RMK AO2 SLP193 T02060178
93915KAEX AEX20161108155511211/08/16 15:55:31  5-MIN KAEX 082155Z 02006KT 10SM SCT018 OVC024 21/18 A3009 -60 84 600 020/06 RMK AO2 T02060178
93915KAEX AEX20161108160011211/08/16 16:00:31  5-MIN KAEX 082200Z 02005KT 10SM SCT018 OVC024 21/18 A3009 -60 84 600 010/05 RMK AO2 T02060178
93915KAEX AEX20161108160511211/08/16 16:05:31  5-MIN KAEX 082205Z 01005KT 10SM BKN017 OVC024 21/18 A3009 -60 84 600 010/05 RMK AO2 T02060178
93915KAEX AEX20161108161011211/08/16 16:10:31  5-MIN KAEX 082210Z 02008KT 10SM BKN015 OVC024 21/18 A3009 -60 84 600 010/08 RMK AO2 T02060178
93915KAEX AEX20161108161511211/08/16 16:15:31  5-MIN KAEX 082215Z 02008KT 10SM SCT015 OVC024 21/18 A3008 -60 84 600 020/08 RMK AO2 T02060178
93915KAEX AEX20161108162011911/08/16 16:20:31  5-MIN KAEX 082220Z 04007KT 10SM FEW012 SCT017 OVC026 21/18 A3008 -50 84 600 040/07 RMK AO2 T02060178
93915KAEX AEX20161108162511211/08/16 16:25:31  5-MIN KAEX 082225Z 01010KT 10SM SCT015 OVC028 21/18 A3008 -50 84 600 010/10 RMK AO2 T02060178
93915KAEX AEX20161108163011711/08/16 16:30:31  5-MIN KAEX 082230Z AUTO 02008KT 10SM SCT015 OVC031 20/18 A3008 -50 87 600 020/08 RMK AO2 T02000178
93915KAEX AEX20161108163512411/08/16 16:35:31  5-MIN KAEX 082235Z AUTO 02009KT 10SM FEW014 BKN029 BKN036 20/18 A3008 -50 87 600 020/09 RMK AO2 T02000178
93915KAEX AEX20161108164012411/08/16 16:40:31  5-MIN KAEX 082240Z AUTO 02008KT 10SM FEW012 BKN029 BKN034 20/18 A3009 -60 87 600 020/08 RMK AO2 T02000178
93915KAEX AEX20161108164511711/08/16 16:45:31  5-MIN KAEX 082245Z AUTO 01006KT 10SM FEW012 BKN029 20/18 A3009 -60 87 500 010/06 RMK AO2 T02000178
93915KAEX AEX20161108165010711/08/16 16:50:31  5-MIN KAEX 082250Z AUTO 01005KT 10SM FEW012 BKN030 20/18 A3009 -60 87 500 010/05 RMK AO2
93915KAEX AEX20161108165511711/08/16 16:55:31  5-MIN KAEX 082255Z AUTO 02006KT 10SM BKN030 BKN035 20/18 A3009 -60 87 500 010/06 RMK AO2 T02000178
93915KAEX AEX20161108170011011/08/16 17:00:31  5-MIN KAEX 082300Z AUTO 01005KT 10SM BKN030 20/18 A3009 -60 87 500 010/05 RMK AO2 T02000178
93915KAEX AEX20161108170511011/08/16 17:05:31  5-MIN KAEX 082305Z AUTO 36005KT 10SM OVC030 20/18 A3009 -60 87 500 360/05 RMK AO2 T02000178
93915KAEX AEX20161108171011011/08/16 17:10:31  5-MIN KAEX 082310Z AUTO 02004KT 10SM BKN030 20/18 A3009 -60 87 500 020/04 RMK AO2 T02000178
93915KAEX AEX20161108171511011/08/16 17:15:31  5-MIN KAEX 082315Z AUTO 02004KT 10SM OVC030 20/18 A3009 -60 87 500 010/04 RMK AO2 T02000178
93915KAEX AEX20161108172011011/08/16 17:20:31  5-MIN KAEX 082320Z AUTO 02006KT 10SM OVC028 19/18 A3009 -60 90 500 020/06 RMK AO2 T01940178
93915KAEX AEX20161108172511011/08/16 17:25:31  5-MIN KAEX 082325Z AUTO 03004KT 10SM OVC028 19/18 A3010 -70 90 500 020/04 RMK AO2 T01940178
93915KAEX AEX20161108173011011/08/16 17:30:31  5-MIN KAEX 082330Z AUTO 02005KT 10SM OVC029 19/18 A3010 -70 90 500 020/05 RMK AO2 T01940178
93915KAEX AEX20161108173511711/08/16 17:35:31  5-MIN KAEX 082335Z AUTO 02005KT 10SM BKN026 OVC031 19/18 A3010 -70 90 500 020/05 RMK AO2 T01940178
93915KAEX AEX20161108174011711/08/16 17:40:31  5-MIN KAEX 082340Z AUTO 03006KT 10SM BKN024 OVC029 19/18 A3010 -70 90 500 030/06 RMK AO2 T01940178
93915KAEX AEX20161108174511211/08/16 17:45:31  5-MIN KAEX 082345Z 02005KT 10SM BKN024 OVC029 19/18 A3010 -70 90 500 020/05 RMK AO2 T01940178
93915KAEX AEX20161108175013711/08/16 17:50:31  5-MIN KAEX 082350Z 02005KT 10SM BKN024 OVC029 19/18 A3010 -70 90 500 020/05 RMK AO2 SLP198 T01940178 10222 20194 56016
93915KAEX AEX20161108175510511/08/16 17:55:31  5-MIN KAEX 082355Z 02005KT 10SM OVC022 19/18 A3010 -70 90 500 020/05 RMK AO2 T01940178
93915KAEX AEX20161108180010511/08/16 18:00:31  5-MIN KAEX 090000Z 02005KT 10SM OVC022 19/18 A3010 -70 90 500 010/05 RMK AO2 T01940178
93915KAEX AEX20161108180510511/08/16 18:05:31  5-MIN KAEX 090005Z 01005KT 10SM OVC022 19/18 A3010 -70 90 500 010/05 RMK AO2 T01940178
93915KAEX AEX20161108181011211/08/16 18:10:31  5-MIN KAEX 090010Z 01005KT 10SM FEW010 OVC020 19/18 A3011 -70 90 500 010/05 RMK AO2 T01940178
93915KAEX AEX20161108181511211/08/16 18:15:31  5-MIN KAEX 090015Z 01005KT 10SM FEW010 OVC020 19/18 A3011 -80 90 500 010/05 RMK AO2 T01940178
93915KAEX AEX20161108182011211/08/16 18:20:31  5-MIN KAEX 090020Z 02005KT 10SM FEW010 OVC018 19/18 A3011 -80 90 500 020/05 RMK AO2 T01940178
93915KAEX AEX20161108182511211/08/16 18:25:31  5-MIN KAEX 090025Z 03006KT 10SM FEW010 OVC018 19/18 A3011 -80 90 500 030/06 RMK AO2 T01940178
93915KAEX AEX20161108183011211/08/16 18:30:31  5-MIN KAEX 090030Z 03005KT 10SM FEW010 OVC018 19/18 A3011 -80 90 500 020/05 RMK AO2 T01940178
93915KAEX AEX20161108183510511/08/16 18:35:31  5-MIN KAEX 090035Z 03004KT 10SM OVC018 19/18 A3011 -80 90 500 030/04 RMK AO2 T01940178
93915KAEX AEX20161108184010511/08/16 18:40:31  5-MIN KAEX 090040Z 03004KT 10SM OVC018 19/18 A3011 -80 90 500 020/04 RMK AO2 T01940178
93915KAEX AEX20161108184510511/08/16 18:45:31  5-MIN KAEX 090045Z 03005KT 10SM OVC018 19/18 A3011 -80 90 500 030/05 RMK AO2 T01940178
93915KAEX AEX20161108185011211/08/16 18:50:31  5-MIN KAEX 090050Z 02005KT 10SM OVC020 19/18 A3011 -80 90 500 020/05 RMK AO2 SLP199 T01940178
93915KAEX AEX20161108185510511/08/16 18:55:31  5-MIN KAEX 090055Z 01005KT 10SM OVC020 19/18 A3011 -80 90 500 010/05 RMK AO2 T01940178
93915KAEX AEX20161108190010511/08/16 19:00:31  5-MIN KAEX 090100Z 02005KT 10SM OVC022 19/18 A3011 -80 90 500 020/05 RMK AO2 T01940178
93915KAEX AEX20161108190511211/08/16 19:05:31  5-MIN KAEX 090105Z 02006KT 10SM FEW012 OVC022 19/18 A3011 -80 90 500 020/06 RMK AO2 T01940178
93915KAEX AEX20161108191011211/08/16 19:10:31  5-MIN KAEX 090110Z 02005KT 10SM SCT010 OVC022 19/18 A3011 -80 90 500 010/05 RMK AO2 T01940178
93915KAEX AEX20161108191511211/08/16 19:15:31  5-MIN KAEX 090115Z 03006KT 10SM BKN010 OVC023 19/18 A3011 -80 93 400 030/06 RMK AO2 T01890178
93915KAEX AEX20161108192011211/08/16 19:20:31  5-MIN KAEX 090120Z 03005KT 10SM BKN012 OVC023 19/17 A3011 -80 90 400 030/05 RMK AO2 T01890172
93915KAEX AEX20161108192511211/08/16 19:25:31  5-MIN KAEX 090125Z 03005KT 10SM BKN012 OVC025 19/17 A3011 -80 90 400 030/05 RMK AO2 T01890172
93915KAEX AEX20161108193010511/08/16 19:30:31  5-MIN KAEX 090130Z 03005KT 10SM OVC012 19/17 A3011 -80 90 400 020/05 RMK AO2 T01890172
93915KAEX AEX20161108193510511/08/16 19:35:31  5-MIN KAEX 090135Z 02007KT 10SM OVC012 19/17 A3011 -80 90 400 020/07 RMK AO2 T01890172
93915KAEX AEX20161108194010511/08/16 19:40:31  5-MIN KAEX 090140Z 01004KT 10SM OVC012 19/17 A3012 -80 90 400 010/04 RMK AO2 T01890172
93915KAEX AEX20161108194510511/08/16 19:45:31  5-MIN KAEX 090145Z 02005KT 10SM OVC012 19/17 A3012 -90 90 400 020/05 RMK AO2 T01890172
93915KAEX AEX20161108195011211/08/16 19:50:31  5-MIN KAEX 090150Z 01004KT 10SM OVC013 19/17 A3012 -90 90 400 360/04 RMK AO2 SLP204 T01890172
93915KAEX AEX20161108195510611/08/16 19:55:31  5-MIN KAEX 090155Z 02003KT 10SM OVC013 19/17 A3013 -100 90 400 020/03 RMK AO2 T01890172
93915KAEX AEX20161108200012511/08/16 20:00:31  5-MIN KAEX 090200Z 04003KT 10SM BKN009 OVC013 19/17 A3013 -100 90 400 030/03 RMK AO2 CIG 009V012 T01890172
93915KAEX AEX20161108200511311/08/16 20:05:31  5-MIN KAEX 090205Z 05004KT 10SM BKN010 OVC013 19/17 A3013 -100 90 400 050/04 RMK AO2 T01890172
93915KAEX AEX20161108201011311/08/16 20:10:31  5-MIN KAEX 090210Z 04004KT 10SM BKN010 OVC013 19/17 A3013 -100 90 400 040/04 RMK AO2 T01890172
93915KAEX AEX20161108201511311/08/16 20:15:31  5-MIN KAEX 090215Z 05007KT 10SM BKN010 OVC013 19/17 A3013 -100 90 400 050/07 RMK AO2 T01890172
93915KAEX AEX20161108202011311/08/16 20:20:31  5-MIN KAEX 090220Z 05007KT 10SM BKN010 OVC013 19/17 A3013 -100 90 400 050/07 RMK AO2 T01890172
93915KAEX AEX20161108202511311/08/16 20:25:31  5-MIN KAEX 090225Z 05010KT 10SM BKN010 OVC013 19/17 A3013 -100 90 400 050/10 RMK AO2 T01890172
93915KAEX AEX20161108203011311/08/16 20:30:31  5-MIN KAEX 090230Z 06008KT 10SM BKN010 OVC013 19/17 A3013 -100 90 400 060/08 RMK AO2 T01890172
93915KAEX AEX20161108203511311/08/16 20:35:31  5-MIN KAEX 090235Z 06007KT 10SM BKN010 OVC013 18/17 A3014 -100 93 300 060/07 RMK AO2 T01830172
93915KAEX AEX20161108204011311/08/16 20:40:31  5-MIN KAEX 090240Z 07008KT 10SM BKN010 OVC013 18/17 A3014 -110 93 300 060/08 RMK AO2 T01830172
93915KAEX AEX20161108204511311/08/16 20:45:31  5-MIN KAEX 090245Z 05007KT 10SM BKN010 OVC013 18/17 A3014 -110 90 300 050/07 RMK AO2 T01830167
93915KAEX AEX20161108205012611/08/16 20:50:31  5-MIN KAEX 090250Z 07007KT 10SM BKN010 OVC013 18/17 A3014 -110 90 300 070/07 RMK AO2 SLP211 T01830167 53005
93915KAEX AEX20161108205510611/08/16 20:55:31  5-MIN KAEX 090255Z 07007KT 10SM OVC010 18/17 A3014 -110 90 300 070/07 RMK AO2 T01830167
93915KAEX AEX20161108210010611/08/16 21:00:31  5-MIN KAEX 090300Z 07006KT 10SM OVC010 18/17 A3014 -110 90 300 060/06 RMK AO2 T01830167
93915KAEX AEX20161108210511311/08/16 21:05:31  5-MIN KAEX 090305Z 06007KT 10SM BKN008 OVC015 18/17 A3014 -110 90 300 050/07 RMK AO2 T01830167
93915KAEX AEX20161108211011311/08/16 21:10:31  5-MIN KAEX 090310Z 06007KT 10SM BKN008 OVC015 18/17 A3014 -110 90 300 060/07 RMK AO2 T01830167
93915KAEX AEX20161108211511311/08/16 21:15:31  5-MIN KAEX 090315Z 06007KT 10SM BKN008 OVC015 18/17 A3014 -110 90 300 050/07 RMK AO2 T01830167
93915KAEX AEX20161108212011211/08/16 21:20:31  5-MIN KAEX 090320Z 06007KT 7SM BKN008 OVC015 18/17 A3014 -110 93 200 060/07 RMK AO2 T01780167
93915KAEX AEX20161108212511711/08/16 21:25:31  5-MIN KAEX 090325Z 06007KT 7SM OVC010 18/17 A3014 -110 93 200 050/07 RMK AO2 CIG 007V015 T01780167
93915KAEX AEX20161108213011711/08/16 21:30:31  5-MIN KAEX 090330Z 05007KT 7SM OVC010 18/17 A3014 -110 93 200 050/07 RMK AO2 CIG 007V013 T01780167
93915KAEX AEX20161108213512011/08/16 21:35:31  5-MIN KAEX 090335Z 05005KT 4SM BR OVC010 18/17 A3014 -110 93 200 050/05 RMK AO2 CIG 006V013 T01780167
93915KAEX AEX20161108214013611/08/16 21:40:31  5-MIN KAEX 090340Z 04004KT 3SM -RA BR OVC010 18/17 A3014 -110 96 200 030/04 RMK AO2 RAB39 CIG 005V013 P0000 T01780172
93915KAEX AEX20161108214514011/08/16 21:45:31  5-MIN KAEX 090345Z 05006KT 2 1/2SM -RA BR OVC008 18/17 A3014 -110 96 200 050/06 RMK AO2 RAB39 CIG 004V013 P0000 T01780172
93915KAEX AEX20161108215013011/08/16 21:50:31  5-MIN KAEX 090350Z 05005KT 2 1/2SM -RA BR OVC008 18/17 A3014 -110 96 200 050/05 RMK AO2 RAB39 CIG 004V013 P0000
93915KAEX AEX20161108215512911/08/16 21:55:31  5-MIN KAEX 090355Z 05007KT 2 1/2SM -RA BR BKN008 OVC011 18/17 A3014 -110 96 200 040/07 RMK AO2 P0000 T01780172
93915KAEX AEX20161108220012311/08/16 22:00:31  5-MIN KAEX 090400Z 04006KT 2 1/2SM -RA BR OVC008 17/17 A3014 -110 100 200 040/06 RMK AO2 P0000 T01720172
93915KAEX AEX20161108220511911/08/16 22:05:31  5-MIN KAEX 090405Z 04006KT 3SM -RA BR OVC007 17/17 A3014 -110 100 200 030/06 RMK AO2 P0000 T01720172
93915KAEX AEX20161108221012111/08/16 22:10:31  5-MIN KAEX 090410Z 03006KT 6SM BR OVC007 17/17 A3014 -110 100 200 030/06 RMK AO2 RAE08 P0000 T01720172
93915KAEX AEX20161108221511811/08/16 22:15:31  5-MIN KAEX 090415Z 04006KT 8SM OVC005 17/17 A3014 -110 100 200 040/06 RMK AO2 RAE08 P0000 T01720172
93915KAEX AEX20161108222011811/08/16 22:20:31  5-MIN KAEX 090420Z 03007KT 9SM OVC005 17/17 A3014 -110 100 200 030/07 RMK AO2 RAE08 P0000 T01720172
93915KAEX AEX20161108222513111/08/16 22:25:31  5-MIN KAEX 090425Z 03007KT 10SM OVC007 17/17 A3014 -110 100 200 020/07 RMK AO2 RAE08 CIG 004V010 P0000 T01720172
93915KAEX AEX20161108223013111/08/16 22:30:31  5-MIN KAEX 090430Z 04006KT 10SM OVC007 17/17 A3014 -110 100 200 040/06 RMK AO2 RAE08 CIG 004V010 P0000 T01720172
93915KAEX AEX20161108223513011/08/16 22:35:31  5-MIN KAEX 090435Z 03006KT 10SM OVC007 17/17 A3014 -110 96 200 030/06 RMK AO2 RAE08 CIG 004V012 P0000 T01720167
93915KAEX AEX20161108224013011/08/16 22:40:31  5-MIN KAEX 090440Z 03006KT 10SM OVC007 17/17 A3014 -110 96 200 030/06 RMK AO2 RAE08 CIG 004V012 P0000 T01720167
93915KAEX AEX20161108224513011/08/16 22:45:31  5-MIN KAEX 090445Z 04007KT 10SM OVC007 17/17 A3014 -110 96 200 030/07 RMK AO2 RAE08 CIG 005V012 P0000 T01720167
93915KAEX AEX20161108225013711/08/16 22:50:31  5-MIN KAEX 090450Z 02007KT 10SM OVC007 17/17 A3014 -100 96 200 020/07 RMK AO2 RAE08 CIG 005V012 SLP209 P0000 T01720167
93915KAEX AEX20161108225511811/08/16 22:55:31  5-MIN KAEX 090455Z 03007KT 10SM OVC008 17/17 A3014 -100 96 200 030/07 RMK AO2 CIG 006V012 T01720167
93915KAEX AEX20161108230012411/08/16 23:00:31  5-MIN KAEX 090500Z 03007KT 9SM BKN008 OVC025 17/17 A3014 -100 96 200 020/07 RMK AO2 CIG 007V011 T01720167
93915KAEX AEX20161108230511911/08/16 23:05:31  5-MIN KAEX 090505Z 02007KT 7SM BKN008 BKN025 OVC036 17/17 A3014 -100 96 200 020/07 RMK AO2 T01720167
93915KAEX AEX20161108231012211/08/16 23:10:31  5-MIN KAEX 090510Z 03006KT 6SM BR BKN008 BKN025 OVC036 17/17 A3014 -100 96 200 030/06 RMK AO2 T01720167
93915KAEX AEX20161108231511911/08/16 23:15:31  5-MIN KAEX 090515Z 04004KT 7SM BKN008 BKN025 OVC036 17/17 A3014 -100 96 200 040/04 RMK AO2 T01720167
93915KAEX AEX20161108232012211/08/16 23:20:31  5-MIN KAEX 090520Z 04005KT 6SM BR BKN008 BKN025 OVC036 17/17 A3014 -100 96 200 040/05 RMK AO2 T01720167
93915KAEX AEX20161108232512211/08/16 23:25:31  5-MIN KAEX 090525Z 04007KT 5SM BR BKN008 BKN025 OVC036 17/17 A3014 -100 96 200 040/07 RMK AO2 T01720167
93915KAEX AEX20161108233013811/08/16 23:30:31  5-MIN KAEX 090530Z 03006KT 5SM -RA BR BKN008 BKN025 OVC036 17/17 A3013 -100 96 200 030/06 RMK AO2 RAB26 P0000 T01720167
93915KAEX AEX20161108233513811/08/16 23:35:31  5-MIN KAEX 090535Z 03007KT 4SM -RA BR BKN008 BKN025 OVC036 17/17 A3013 -100 96 200 030/07 RMK AO2 RAB26 P0000 T01720167
93915KAEX AEX20161108234013811/08/16 23:40:31  5-MIN KAEX 090540Z 03007KT 4SM -RA BR BKN008 BKN025 OVC036 17/17 A3013 -100 96 200 030/07 RMK AO2 RAB26 P0000 T01720167
93915KAEX AEX20161108234513811/08/16 23:45:31  5-MIN KAEX 090545Z 04008KT 6SM -RA BR BKN008 BKN025 OVC036 17/17 A3013 -100 96 200 040/08 RMK AO2 RAB26 P0000 T01720167
93915KAEX AEX20161108235017511/08/16 23:50:31  5-MIN KAEX 090550Z 04005KT 8SM BKN008 BKN025 OVC036 17/17 A3013 -100 96 200 030/05 RMK AO2 RAB26E50 SLP206 P0000 60000 T01720167 10194 20172 402220167 53014
93915KAEX AEX20161108235513111/08/16 23:55:31  5-MIN KAEX 090555Z 03006KT 8SM BKN008 BKN028 OVC043 17/17 A3013 -100 96 200 030/06 RMK AO2 CIG 005V011 T01720167
93915KAEX AEX20161109000011811/09/16 00:00:31  5-MIN KAEX 090600Z 03007KT 8SM BKN008 BKN028 OVC045 17/17 A3013 -90 96 200 030/07 RMK AO2 T01720167
93915KAEX AEX20161109000511811/09/16 00:05:31  5-MIN KAEX 090605Z 03006KT 9SM BKN008 BKN028 OVC047 17/17 A3012 -90 96 200 030/06 RMK AO2 T01720167
93915KAEX AEX20161109001011211/09/16 00:10:31  5-MIN KAEX 090610Z 03006KT 10SM BKN008 OVC047 17/17 A3012 -90 96 200 030/06 RMK AO2 T01720167
93915KAEX AEX20161109001511211/09/16 00:15:31  5-MIN KAEX 090615Z 03006KT 10SM BKN008 OVC048 17/17 A3013 -90 96 200 020/06 RMK AO2 T01720167
93915KAEX AEX20161109002011211/09/16 00:20:31  5-MIN KAEX 090620Z 03006KT 10SM BKN008 OVC048 17/17 A3012 -90 96 200 030/06 RMK AO2 T01720167
93915KAEX AEX20161109002511911/09/16 00:25:31  5-MIN KAEX 090625Z 03007KT 10SM BKN008 BKN036 OVC048 17/17 A3012 -90 96 200 020/07 RMK AO2 T01720167
93915KAEX AEX20161109003013111/09/16 00:30:31  5-MIN KAEX 090630Z 03008KT 10SM BKN008 BKN034 OVC047 17/16 A3012 -90 93 200 020/08 RMK AO2 CIG 006V011 T01720161
93915KAEX AEX20161109003512411/09/16 00:35:31  5-MIN KAEX 090635Z 03009KT 10SM BKN008 OVC032 17/17 A3012 -90 96 200 030/09 RMK AO2 CIG 006V011 T01720167
93915KAEX AEX20161109004012411/09/16 00:40:31  5-MIN KAEX 090640Z 03007KT 10SM BKN008 OVC032 17/16 A3012 -90 93 200 030/07 RMK AO2 CIG 006V011 T01720161
93915KAEX AEX20161109004511211/09/16 00:45:31  5-MIN KAEX 090645Z 03008KT 10SM SCT008 OVC034 17/16 A3012 -90 93 200 030/08 RMK AO2 T01720161
93915KAEX AEX20161109005010211/09/16 00:50:31  5-MIN KAEX 090650Z 03008KT 10SM FEW008 OVC034 17/16 A3012 -90 93 200 030/08 RMK AO2
93915KAEX AEX20161109005511911/09/16 00:55:31  5-MIN KAEX 090655Z 03008KT 10SM FEW008 BKN035 OVC047 17/16 A3012 -80 93 200 030/08 RMK AO2 T01720161
93915KAEX AEX20161109010011211/09/16 01:00:31  5-MIN KAEX 090700Z 04008KT 10SM BKN035 OVC049 17/16 A3012 -80 93 200 040/08 RMK AO2 T01720161
93915KAEX AEX20161109010511211/09/16 01:05:31  5-MIN KAEX 090705Z 04007KT 10SM SCT035 OVC049 17/16 A3012 -90 93 200 030/07 RMK AO2 T01720161
93915KAEX AEX20161109011011211/09/16 01:10:31  5-MIN KAEX 090710Z 02007KT 10SM SCT037 OVC047 17/16 A3012 -90 93 200 020/07 RMK AO2 T01720161
93915KAEX AEX20161109011511211/09/16 01:15:31  5-MIN KAEX 090715Z 04007KT 10SM BKN037 OVC047 17/16 A3012 -90 93 200 030/07 RMK AO2 T01720161
93915KAEX AEX20161109012011211/09/16 01:20:31  5-MIN KAEX 090720Z 02008KT 10SM BKN040 OVC048 17/16 A3012 -90 93 200 020/08 RMK AO2 T01720161
93915KAEX AEX20161109012511211/09/16 01:25:31  5-MIN KAEX 090725Z 04007KT 10SM BKN040 OVC050 17/16 A3012 -90 93 200 030/07 RMK AO2 T01720161
93915KAEX AEX20161109013011211/09/16 01:30:31  5-MIN KAEX 090730Z 03008KT 10SM BKN040 OVC048 17/16 A3012 -90 93 200 030/08 RMK AO2 T01720161
93915KAEX AEX20161109013510511/09/16 01:35:31  5-MIN KAEX 090735Z 03006KT 10SM OVC042 17/16 A3012 -80 93 200 030/06 RMK AO2 T01720161
93915KAEX AEX20161109014010511/09/16 01:40:31  5-MIN KAEX 090740Z 03007KT 10SM OVC042 17/16 A3011 -80 93 200 030/07 RMK AO2 T01720161
93915KAEX AEX20161109014510511/09/16 01:45:31  5-MIN KAEX 090745Z 04007KT 10SM OVC044 17/16 A3011 -80 93 200 040/07 RMK AO2 T01720161
93915KAEX AEX20161109015011211/09/16 01:50:31  5-MIN KAEX 090750Z 04008KT 10SM OVC046 17/16 A3011 -80 93 200 040/08 RMK AO2 SLP200 T01720161
93915KAEX AEX20161109015510511/09/16 01:55:31  5-MIN KAEX 090755Z 03008KT 10SM OVC046 17/16 A3011 -80 93 200 030/08 RMK AO2 T01720161
93915KAEX AEX20161109020010511/09/16 02:00:31  5-MIN KAEX 090800Z 03007KT 10SM OVC048 17/16 A3011 -80 93 200 030/07 RMK AO2 T01720161
93915KAEX AEX20161109020510511/09/16 02:05:31  5-MIN KAEX 090805Z 03007KT 10SM OVC048 17/16 A3011 -80 93 200 030/07 RMK AO2 T01720161
93915KAEX AEX20161109021010511/09/16 02:10:31  5-MIN KAEX 090810Z 03006KT 10SM OVC048 17/16 A3011 -80 93 200 030/06 RMK AO2 T01720161
93915KAEX AEX20161109021511211/09/16 02:15:31  5-MIN KAEX 090815Z 02006KT 10SM BKN049 OVC060 17/16 A3011 -80 93 200 020/06 RMK AO2 T01720161
93915KAEX AEX20161109022011211/09/16 02:20:31  5-MIN KAEX 090820Z 01007KT 10SM BKN049 OVC060 17/16 A3011 -80 93 200 010/07 RMK AO2 T01720161
93915KAEX AEX20161109022511211/09/16 02:25:31  5-MIN KAEX 090825Z 01006KT 10SM BKN050 OVC060 17/16 A3012 -80 93 200 010/06 RMK AO2 T01720161
93915KAEX AEX20161109023011211/09/16 02:30:31  5-MIN KAEX 090830Z 01007KT 10SM BKN050 OVC060 17/16 A3012 -90 93 200 360/07 RMK AO2 T01720161
93915KAEX AEX20161109023510511/09/16 02:35:31  5-MIN KAEX 090835Z VRB05KT 10SM OVC050 17/16 A3013 -90 93 200 VRB/05 RMK AO2 T01720161
93915KAEX AEX20161109024010511/09/16 02:40:31  5-MIN KAEX 090840Z 02005KT 10SM OVC050 17/16 A3013 -90 93 200 010/05 RMK AO2 T01720161
93915KAEX AEX20161109024510511/09/16 02:45:31  5-MIN KAEX 090845Z 01003KT 10SM OVC050 17/16 A3013 -90 93 200 010/03 RMK AO2 T01720161
93915KAEX AEX20161109025011811/09/16 02:50:31  5-MIN KAEX 090850Z 01003KT 10SM OVC050 17/16 A3013 -90 93 200 010/03 RMK AO2 SLP206 T01720161 58005
93915KAEX AEX20161109025510511/09/16 02:55:31  5-MIN KAEX 090855Z 01005KT 10SM OVC050 17/16 A3012 -90 93 200 360/05 RMK AO2 T01720161
93915KAEX AEX20161109030010511/09/16 03:00:31  5-MIN KAEX 090900Z 35004KT 10SM OVC050 17/16 A3013 -90 93 200 350/04 RMK AO2 T01720161
93915KAEX AEX20161109030510611/09/16 03:05:31  5-MIN KAEX 090905Z 35004KT 10SM OVC050 17/16 A3013 -100 93 200 350/04 RMK AO2 T01720161
93915KAEX AEX20161109031010511/09/16 03:10:31  5-MIN KAEX 090910Z 35005KT 10SM OVC050 17/16 A3013 -90 93 200 350/05 RMK AO2 T01720161
93915KAEX AEX20161109031510611/09/16 03:15:31  5-MIN KAEX 090915Z 35005KT 10SM OVC050 17/16 A3013 -100 93 200 350/05 RMK AO2 T01720161
93915KAEX AEX20161109032010611/09/16 03:20:31  5-MIN KAEX 090920Z 35005KT 10SM OVC050 17/16 A3013 -100 93 200 350/05 RMK AO2 T01720161
93915KAEX AEX20161109032511311/09/16 03:25:31  5-MIN KAEX 090925Z 36006KT 10SM FEW011 OVC050 17/16 A3013 -100 93 200 360/06 RMK AO2 T01720161
93915KAEX AEX20161109033011311/09/16 03:30:31  5-MIN KAEX 090930Z 01005KT 10SM FEW011 OVC055 17/16 A3013 -100 93 200 010/05 RMK AO2 T01720161
93915KAEX AEX20161109033511211/09/16 03:35:31  5-MIN KAEX 090935Z 01006KT 10SM FEW009 OVC055 17/16 A3013 -90 93 200 010/06 RMK AO2 T01720161
93915KAEX AEX20161109034011211/09/16 03:40:31  5-MIN KAEX 090940Z 01006KT 10SM FEW009 OVC055 17/16 A3012 -90 93 200 360/06 RMK AO2 T01720161
93915KAEX AEX20161109034511211/09/16 03:45:31  5-MIN KAEX 090945Z 01007KT 10SM FEW009 OVC055 17/16 A3012 -90 93 200 010/07 RMK AO2 T01720161
93915KAEX AEX20161109035011911/09/16 03:50:31  5-MIN KAEX 090950Z 01007KT 10SM SCT009 OVC055 17/16 A3012 -90 93 200 010/07 RMK AO2 SLP204 T01720161
93915KAEX AEX20161109035511211/09/16 03:55:31  5-MIN KAEX 090955Z 02007KT 10SM SCT009 OVC055 17/16 A3012 -90 93 200 020/07 RMK AO2 T01720161
93915KAEX AEX20161109040011211/09/16 04:00:31  5-MIN KAEX 091000Z 01007KT 10SM SCT009 OVC055 17/16 A3013 -90 93 200 010/07 RMK AO2 T01720161
93915KAEX AEX20161109040511211/09/16 04:05:31  5-MIN KAEX 091005Z 01007KT 10SM SCT009 OVC055 17/16 A3013 -90 93 200 010/07 RMK AO2 T01720161
93915KAEX AEX20161109041011211/09/16 04:10:31  5-MIN KAEX 091010Z 01007KT 10SM SCT009 OVC055 17/16 A3013 -90 93 200 010/07 RMK AO2 T01720161
93915KAEX AEX20161109041512011/09/16 04:15:31  5-MIN KAEX 091015Z 02008KT 10SM BKN009 BKN047 OVC055 17/16 A3013 -100 93 200 020/08 RMK AO2 T01720161
93915KAEX AEX20161109042012011/09/16 04:20:31  5-MIN KAEX 091020Z 02006KT 10SM BKN010 BKN047 OVC055 17/16 A3013 -100 93 200 010/06 RMK AO2 T01720161
93915KAEX AEX20161109042512011/09/16 04:25:31  5-MIN KAEX 091025Z 02006KT 10SM FEW007 BKN046 OVC055 17/16 A3013 -100 93 200 020/06 RMK AO2 T01720161
93915KAEX AEX20161109043012011/09/16 04:30:31  5-MIN KAEX 091030Z 02006KT 10SM SCT011 SCT046 OVC060 17/16 A3013 -100 93 200 020/06 RMK AO2 T01720161
93915KAEX AEX20161109043511911/09/16 04:35:31  5-MIN KAEX 091035Z 02007KT 10SM FEW011 SCT046 OVC060 17/16 A3013 -90 93 200 020/07 RMK AO2 T01720161
93915KAEX AEX20161109044011311/09/16 04:40:31  5-MIN KAEX 091040Z 03007KT 10SM FEW011 OVC060 17/16 A3013 -100 93 200 030/07 RMK AO2 T01720161
93915KAEX AEX20161109044511811/09/16 04:45:31  5-MIN KAEX 091045Z AUTO 03005KT 10SM FEW009 OVC060 17/16 A3013 -100 93 200 030/05 RMK AO2 T01720161
93915KAEX AEX20161109045011811/09/16 04:50:31  5-MIN KAEX 091050Z AUTO 03007KT 10SM BKN060 17/16 A3013 -100 93 200 030/07 RMK AO2 SLP206 T01720161
93915KAEX AEX20161109045511111/09/16 04:55:31  5-MIN KAEX 091055Z AUTO 03008KT 10SM BKN060 17/16 A3013 -100 93 200 030/08 RMK AO2 T01720161
93915KAEX AEX20161109050011111/09/16 05:00:31  5-MIN KAEX 091100Z AUTO 03006KT 10SM SCT060 17/16 A3013 -100 93 200 030/06 RMK AO2 T01720161
93915KAEX AEX20161109050511811/09/16 05:05:31  5-MIN KAEX 091105Z AUTO 03006KT 10SM FEW037 SCT060 17/16 A3013 -100 93 200 030/06 RMK AO2 T01720161
93915KAEX AEX20161109051011811/09/16 05:10:31  5-MIN KAEX 091110Z AUTO 03008KT 10SM FEW037 FEW060 17/16 A3014 -100 93 200 020/08 RMK AO2 T01720161
93915KAEX AEX20161109051511811/09/16 05:15:31  5-MIN KAEX 091115Z AUTO 04007KT 10SM FEW037 FEW055 17/16 A3014 -100 90 200 030/07 RMK AO2 T01720156
93915KAEX AEX20161109052011811/09/16 05:20:31  5-MIN KAEX 091120Z AUTO 04005KT 10SM FEW039 SCT055 17/16 A3013 -100 90 200 030/05 RMK AO2 T01720156
93915KAEX AEX20161109052511811/09/16 05:25:31  5-MIN KAEX 091125Z AUTO 03006KT 10SM FEW039 SCT050 17/16 A3014 -100 90 200 020/06 RMK AO2 T01720156
93915KAEX AEX20161109053011811/09/16 05:30:31  5-MIN KAEX 091130Z AUTO 03007KT 10SM FEW039 BKN050 17/16 A3013 -100 90 200 030/07 RMK AO2 T01720156
93915KAEX AEX20161109053511811/09/16 05:35:31  5-MIN KAEX 091135Z AUTO 02006KT 10SM FEW040 BKN050 17/16 A3013 -100 90 200 020/06 RMK AO2 T01720156
93915KAEX AEX20161109054011811/09/16 05:40:31  5-MIN KAEX 091140Z AUTO 02007KT 10SM FEW040 BKN050 17/16 A3014 -100 90 200 010/07 RMK AO2 T01720156
93915KAEX AEX20161109054511111/09/16 05:45:31  5-MIN KAEX 091145Z AUTO 02009KT 10SM BKN050 17/16 A3014 -110 90 200 010/09 RMK AO2 T01720156
93915KAEX AEX20161109055013711/09/16 05:50:31  5-MIN KAEX 091150Z 02008KT 10SM OVC050 17/16 A3015 -110 90 200 020/08 RMK AO2 SLP212 70001 T01720156 10172 20172 55002
93915KAEX AEX20161109055510611/09/16 05:55:31  5-MIN KAEX 091155Z 03008KT 10SM OVC050 17/16 A3014 -110 90 200 030/08 RMK AO2 T01720156
93915KAEX AEX20161109060010611/09/16 06:00:31  5-MIN KAEX 091200Z 02009KT 10SM OVC050 17/16 A3014 -100 90 200 020/09 RMK AO2 T01720156
93915KAEX AEX20161109060510611/09/16 06:05:31  5-MIN KAEX 091205Z 02007KT 10SM OVC050 17/16 A3014 -100 90 200 020/07 RMK AO2 T01720156
93915KAEX AEX20161109061010611/09/16 06:10:31  5-MIN KAEX 091210Z 02007KT 10SM OVC050 17/16 A3014 -110 90 200 010/07 RMK AO2 T01720156
93915KAEX AEX20161109061510611/09/16 06:15:31  5-MIN KAEX 091215Z 01007KT 10SM OVC050 17/16 A3014 -110 90 200 010/07 RMK AO2 T01720156
93915KAEX AEX20161109062010611/09/16 06:20:31  5-MIN KAEX 091220Z 02007KT 10SM OVC050 17/16 A3014 -110 90 200 010/07 RMK AO2 T01720156
93915KAEX AEX20161109062510611/09/16 06:25:31  5-MIN KAEX 091225Z 02008KT 10SM OVC050 17/16 A3015 -110 90 200 020/08 RMK AO2 T01720156
93915KAEX AEX20161109063010611/09/16 06:30:31  5-MIN KAEX 091230Z 01007KT 10SM OVC050 17/16 A3015 -120 90 200 360/07 RMK AO2 T01720156
93915KAEX AEX20161109063510611/09/16 06:35:31  5-MIN KAEX 091235Z 02008KT 10SM OVC050 17/16 A3015 -120 90 100 010/08 RMK AO2 T01720156
93915KAEX AEX20161109064010611/09/16 06:40:31  5-MIN KAEX 091240Z 02007KT 10SM OVC050 17/16 A3015 -120 90 100 010/07 RMK AO2 T01720156
93915KAEX AEX20161109064510611/09/16 06:45:31  5-MIN KAEX 091245Z 02008KT 10SM OVC050 17/16 A3015 -120 90 200 020/08 RMK AO2 T01720156
93915KAEX AEX20161109065011311/09/16 06:50:31  5-MIN KAEX 091250Z 02008KT 10SM OVC050 17/16 A3015 -120 90 200 020/08 RMK AO2 SLP214 T01720156
93915KAEX AEX20161109065510611/09/16 06:55:31  5-MIN KAEX 091255Z 02008KT 10SM OVC050 17/16 A3015 -120 90 100 020/08 RMK AO2 T01720156
93915KAEX AEX20161109070010611/09/16 07:00:31  5-MIN KAEX 091300Z 03008KT 10SM OVC050 17/16 A3016 -120 90 100 020/08 RMK AO2 T01720156
93915KAEX AEX20161109070510611/09/16 07:05:31  5-MIN KAEX 091305Z 03008KT 10SM OVC050 17/16 A3016 -120 90 100 030/08 RMK AO2 T01720156
93915KAEX AEX20161109071010611/09/16 07:10:31  5-MIN KAEX 091310Z 03008KT 10SM OVC050 17/16 A3016 -130 90 100 030/08 RMK AO2 T01720156
93915KAEX AEX20161109071510611/09/16 07:15:31  5-MIN KAEX 091315Z 03009KT 10SM OVC050 17/16 A3016 -130 90 100 030/09 RMK AO2 T01720156
93915KAEX AEX20161109072010611/09/16 07:20:31  5-MIN KAEX 091320Z 03009KT 10SM OVC050 17/16 A3016 -130 90 100 030/09 RMK AO2 T01720156
93915KAEX AEX20161109072510611/09/16 07:25:31  5-MIN KAEX 091325Z 02007KT 10SM OVC050 17/16 A3016 -130 90 100 020/07 RMK AO2 T01720156
93915KAEX AEX20161109073010611/09/16 07:30:31  5-MIN KAEX 091330Z 02009KT 10SM OVC050 17/16 A3016 -130 90 100 020/09 RMK AO2 T01720156
93915KAEX AEX20161109073510611/09/16 07:35:31  5-MIN KAEX 091335Z 02008KT 10SM OVC050 17/16 A3016 -130 90 100 020/08 RMK AO2 T01720156
93915KAEX AEX20161109074010611/09/16 07:40:31  5-MIN KAEX 091340Z 02009KT 10SM OVC050 17/16 A3016 -130 90 100 020/09 RMK AO2 T01720156
93915KAEX AEX20161109074510611/09/16 07:45:31  5-MIN KAEX 091345Z 02008KT 10SM BKN050 17/16 A3016 -130 90 100 010/08 RMK AO2 T01720156
93915KAEX AEX20161109075011311/09/16 07:50:31  5-MIN KAEX 091350Z 02007KT 10SM BKN050 18/16 A3017 -130 87 200 010/07 RMK AO2 SLP219 T01780156
93915KAEX AEX20161109075510611/09/16 07:55:31  5-MIN KAEX 091355Z 02008KT 10SM SCT050 18/16 A3017 -130 87 200 020/08 RMK AO2 T01780156
93915KAEX AEX20161109080010611/09/16 08:00:31  5-MIN KAEX 091400Z 02007KT 10SM FEW050 18/16 A3017 -140 87 200 010/07 RMK AO2 T01780156
93915KAEX AEX20161109080510611/09/16 08:05:31  5-MIN KAEX 091405Z 01010KT 10SM FEW050 18/16 A3017 -140 84 300 010/10 RMK AO2 T01830156
93915KAEX AEX20161109081010311/09/16 08:10:31  5-MIN KAEX 091410Z 01009KT 10SM CLR 18/16 A3017 -140 84 300 010/09 RMK AO2 T01830156
93915KAEX AEX20161109081510311/09/16 08:15:31  5-MIN KAEX 091415Z 01009KT 10SM CLR 18/16 A3017 -140 84 300 010/09 RMK AO2 T01830156
93915KAEX AEX20161109082010311/09/16 08:20:31  5-MIN KAEX 091420Z 03008KT 10SM CLR 18/16 A3017 -140 84 300 030/08 RMK AO2 T01830156
93915KAEX AEX20161109082510311/09/16 08:25:31  5-MIN KAEX 091425Z 01008KT 10SM CLR 18/16 A3018 -140 84 300 010/08 RMK AO2 T01830156
93915KAEX AEX20161109083010311/09/16 08:30:31  5-MIN KAEX 091430Z 02007KT 10SM CLR 18/16 A3018 -140 84 200 020/07 RMK AO2 T01830156
93915KAEX AEX20161109083510311/09/16 08:35:31  5-MIN KAEX 091435Z 04008KT 10SM CLR 18/16 A3018 -140 84 300 040/08 RMK AO2 T01830156
93915KAEX AEX20161109084010311/09/16 08:40:31  5-MIN KAEX 091440Z 03006KT 10SM CLR 18/16 A3017 -140 84 300 030/06 RMK AO2 T01830156
93915KAEX AEX20161109084510311/09/16 08:45:31  5-MIN KAEX 091445Z 03009KT 10SM CLR 19/15 A3017 -140 78 300 030/09 RMK AO2 T01890150
93915KAEX AEX20161109085011611/09/16 08:50:31  5-MIN KAEX 091450Z 03007KT 10SM CLR 19/15 A3017 -140 75 400 020/07 RMK AO2 SLP221 T01940150 53007
93915KAEX AEX20161109085510311/09/16 08:55:31  5-MIN KAEX 091455Z 03009KT 10SM CLR 19/15 A3018 -140 78 300 030/09 RMK AO2 T01890150
93915KAEX AEX20161109090010311/09/16 09:00:31  5-MIN KAEX 091500Z 02006KT 10SM CLR 19/15 A3018 -140 75 400 020/06 RMK AO2 T01940150
93915KAEX AEX20161109090510311/09/16 09:05:31  5-MIN KAEX 091505Z 03008KT 10SM CLR 20/15 A3018 -140 72 400 030/08 RMK AO2 T02000150
93915KAEX AEX20161109091010311/09/16 09:10:31  5-MIN KAEX 091510Z 04008KT 10SM CLR 20/15 A3018 -140 72 400 030/08 RMK AO2 T02000150
93915KAEX AEX20161109091510311/09/16 09:15:31  5-MIN KAEX 091515Z 02008KT 10SM CLR 21/15 A3018 -140 70 500 020/08 RMK AO2 T02060150
93915KAEX AEX20161109092010911/09/16 09:20:31  5-MIN KAEX 091520Z 02010G16KT 10SM CLR 21/14 A3018 -140 67 500 020/10G16 RMK AO2 T02060144
93915KAEX AEX20161109092510911/09/16 09:25:31  5-MIN KAEX 091525Z 02008G16KT 10SM CLR 21/14 A3018 -140 67 500 020/08G16 RMK AO2 T02060144
93915KAEX AEX20161109093010311/09/16 09:30:31  5-MIN KAEX 091530Z 04005KT 10SM CLR 21/14 A3018 -140 65 600 040/05 RMK AO2 T02110144
93915KAEX AEX20161109093510311/09/16 09:35:31  5-MIN KAEX 091535Z 06009KT 10SM CLR 22/14 A3018 -140 63 600 060/09 RMK AO2 T02170144
93915KAEX AEX20161109094010311/09/16 09:40:31  5-MIN KAEX 091540Z 05007KT 10SM CLR 22/14 A3018 -140 61 600 050/07 RMK AO2 T02170139
93915KAEX AEX20161109094510311/09/16 09:45:31  5-MIN KAEX 091545Z 03010KT 10SM CLR 22/14 A3018 -140 61 600 020/10 RMK AO2 T02170139
93915KAEX AEX20161109095011611/09/16 09:50:31  5-MIN KAEX 091550Z 02009G15KT 10SM CLR 22/14 A3018 -140 61 600 020/09G15 RMK AO2 SLP223 T02170139
93915KAEX AEX20161109095510311/09/16 09:55:31  5-MIN KAEX 091555Z 02011KT 10SM CLR 22/14 A3018 -140 59 700 020/11 RMK AO2 T02220139
93915KAEX AEX20161109100010311/09/16 10:00:31  5-MIN KAEX 091600Z 03007KT 10SM CLR 23/14 A3018 -150 57 800 030/07 RMK AO2 T02280139
93915KAEX AEX20161109100510911/09/16 10:05:31  5-MIN KAEX 091605Z 04012G16KT 10SM CLR 23/13 A3018 -140 53 800 030/12G16 RMK AO2 T02330133
93915KAEX AEX20161109101010911/09/16 10:10:31  5-MIN KAEX 091610Z 03009G16KT 10SM CLR 23/13 A3018 -140 55 800 030/09G16 RMK AO2 T02280133
93915KAEX AEX20161109101510311/09/16 10:15:31  5-MIN KAEX 091615Z 02007KT 10SM CLR 23/13 A3018 -140 53 800 020/07 RMK AO2 T02330133
93915KAEX AEX20161109102010311/09/16 10:20:31  5-MIN KAEX 091620Z 03010KT 10SM CLR 23/14 A3018 -140 55 800 030/10 RMK AO2 T02330139
93915KAEX AEX20161109102510311/09/16 10:25:31  5-MIN KAEX 091625Z 05011KT 10SM CLR 23/14 A3018 -140 55 800 040/11 RMK AO2 T02330139
93915KAEX AEX20161109103010311/09/16 10:30:31  5-MIN KAEX 091630Z 04010KT 10SM CLR 23/14 A3018 -140 57 800 040/10 RMK AO2 T02330144
93915KAEX AEX20161109103510911/09/16 10:35:31  5-MIN KAEX 091635Z 04012G16KT 10SM CLR 23/14 A3018 -140 57 800 040/12G16 RMK AO2 T02330144
93915KAEX AEX20161109104011211/09/16 10:40:31  5-MIN KAEX 091640Z 05011G16KT 10SM FEW030 23/14 A3018 -140 57 800 050/11G16 RMK AO2 T02330144
93915KAEX AEX20161109104511211/09/16 10:45:31  5-MIN KAEX 091645Z 01013G19KT 10SM SCT030 23/15 A3018 -140 59 800 010/13G19 RMK AO2 T02330150
93915KAEX AEX20161109105011911/09/16 10:50:31  5-MIN KAEX 091650Z 02011G19KT 10SM SCT030 23/15 A3018 -150 61 800 010/11G19 RMK AO2 SLP223 T02280150
93915KAEX AEX20161109105510611/09/16 10:55:31  5-MIN KAEX 091655Z 01010KT 10SM SCT030 23/16 A3018 -140 61 800 010/10 RMK AO2 T02330156
93915KAEX AEX20161109110011211/09/16 11:00:31  5-MIN KAEX 091700Z 03009G19KT 10SM SCT028 23/15 A3018 -140 59 800 030/09G19 RMK AO2 T02330150
93915KAEX AEX20161109110511211/09/16 11:05:31  5-MIN KAEX 091705Z 02012G19KT 10SM SCT028 23/16 A3018 -140 61 800 020/12G19 RMK AO2 T02330156
93915KAEX AEX20161109111011211/09/16 11:10:31  5-MIN KAEX 091710Z 01012G21KT 10SM SCT028 22/15 A3018 -140 65 600 010/12G21 RMK AO2 T02170150
93915KAEX AEX20161109111511911/09/16 11:15:31  5-MIN KAEX 091715Z 04013G21KT 10SM FEW028 FEW033 22/15 A3018 -150 63 700 030/13G21 RMK AO2 T02220150
93915KAEX AEX20161109112011211/09/16 11:20:31  5-MIN KAEX 091720Z 04012G19KT 10SM FEW028 22/15 A3018 -140 63 700 030/12G19 RMK AO2 T02220150
93915KAEX AEX20161109112511211/09/16 11:25:31  5-MIN KAEX 091725Z 01015G20KT 10SM SCT028 23/16 A3018 -140 63 800 010/15G20 RMK AO2 T02280156
93915KAEX AEX20161109113011211/09/16 11:30:31  5-MIN KAEX 091730Z 01011G20KT 10SM SCT028 22/16 A3018 -140 68 600 010/11G20 RMK AO2 T02170156
93915KAEX AEX20161109113511311/09/16 11:35:31  5-MIN KAEX 091735Z 02010KT 10SM SCT024 SCT031 23/16 A3017 -140 63 800 010/10 RMK AO2 T02280156
93915KAEX AEX20161109114011911/09/16 11:40:31  5-MIN KAEX 091740Z 03013G20KT 10SM SCT024 SCT031 22/15 A3017 -140 63 700 030/13G20 RMK AO2 T02220150
93915KAEX AEX20161109114511911/09/16 11:45:31  5-MIN KAEX 091745Z 36012G20KT 10SM SCT024 SCT031 22/15 A3018 -140 63 700 360/12G20 RMK AO2 T02220150
93915KAEX AEX20161109115014411/09/16 11:50:31  5-MIN KAEX 091750Z 02013G19KT 10SM SCT025 BKN031 22/15 A3017 -140 65 600 020/13G19 RMK AO2 SLP221 T02170150 10233 20172 53010
93915KAEX AEX20161109115511211/09/16 11:55:31  5-MIN KAEX 091755Z 01013G20KT 10SM BKN025 21/15 A3017 -140 68 600 010/13G20 RMK AO2 T02110150
93915KAEX AEX20161109120011211/09/16 12:00:31  5-MIN KAEX 091800Z 02011G20KT 10SM BKN025 21/15 A3017 -130 68 600 020/11G20 RMK AO2 T02110150
93915KAEX AEX20161109120511211/09/16 12:05:31  5-MIN KAEX 091805Z 02011G18KT 10SM BKN027 22/15 A3016 -130 65 700 020/11G18 RMK AO2 T02170150
93915KAEX AEX20161109121011211/09/16 12:10:31  5-MIN KAEX 091810Z 02011G19KT 10SM BKN027 22/15 A3016 -130 63 700 020/11G19 RMK AO2 T02220150
93915KAEX AEX20161109121511211/09/16 12:15:31  5-MIN KAEX 091815Z 04011G19KT 10SM BKN026 23/14 A3017 -130 59 800 030/11G19 RMK AO2 T02280144
93915KAEX AEX20161109122011911/09/16 12:20:31  5-MIN KAEX 091820Z 01013G19KT 10SM BKN023 BKN030 22/14 A3017 -130 61 700 010/13G19 RMK AO2 T02220144
93915KAEX AEX20161109122511211/09/16 12:25:31  5-MIN KAEX 091825Z 01009G19KT 10SM BKN023 22/15 A3017 -130 63 700 010/09G19 RMK AO2 T02220150
93915KAEX AEX20161109123011211/09/16 12:30:31  5-MIN KAEX 091830Z 03013G19KT 10SM BKN023 22/15 A3016 -130 65 700 030/13G19 RMK AO2 T02170150
93915KAEX AEX20161109123511211/09/16 12:35:31  5-MIN KAEX 091835Z 02012G20KT 10SM BKN023 21/14 A3016 -130 65 600 020/12G20 RMK AO2 T02110144
93915KAEX AEX20161109124011211/09/16 12:40:31  5-MIN KAEX 091840Z 04010G18KT 10SM OVC023 21/14 A3017 -130 65 600 030/10G18 RMK AO2 T02110144
93915KAEX AEX20161109124511211/09/16 12:45:31  5-MIN KAEX 091845Z 02011G18KT 10SM OVC023 21/14 A3017 -130 65 600 010/11G18 RMK AO2 T02110144
93915KAEX AEX20161109125011311/09/16 12:50:31  5-MIN KAEX 091850Z 04010KT 10SM OVC023 21/14 A3017 -130 67 500 030/10 RMK AO2 SLP219 T02060144
93915KAEX AEX20161109125511211/09/16 12:55:31  5-MIN KAEX 091855Z 03007G15KT 10SM OVC023 21/15 A3016 -130 68 600 020/07G15 RMK AO2 T02110150
93915KAEX AEX20161109130010611/09/16 13:00:31  5-MIN KAEX 091900Z 01010KT 10SM OVC025 22/15 A3017 -130 65 700 010/10 RMK AO2 T02170150
93915KAEX AEX20161109130510611/09/16 13:05:31  5-MIN KAEX 091905Z 36009KT 10SM OVC025 21/15 A3017 -130 68 600 360/09 RMK AO2 T02110150
93915KAEX AEX20161109131010611/09/16 13:10:31  5-MIN KAEX 091910Z 02011KT 10SM OVC025 21/15 A3016 -130 68 600 020/11 RMK AO2 T02110150
93915KAEX AEX20161109131510611/09/16 13:15:31  5-MIN KAEX 091915Z 02011KT 10SM OVC025 21/15 A3016 -130 68 600 020/11 RMK AO2 T02110150
93915KAEX AEX20161109132010611/09/16 13:20:31  5-MIN KAEX 091920Z 02008KT 10SM BKN025 22/15 A3016 -120 63 700 020/08 RMK AO2 T02220150
93915KAEX AEX20161109132510611/09/16 13:25:31  5-MIN KAEX 091925Z 36010KT 10SM BKN027 22/14 A3015 -120 63 700 360/10 RMK AO2 T02170144
93915KAEX AEX20161109133011211/09/16 13:30:31  5-MIN KAEX 091930Z 02010G15KT 10SM BKN027 21/14 A3016 -120 65 600 020/10G15 RMK AO2 T02110144
93915KAEX AEX20161109133510611/09/16 13:35:31  5-MIN KAEX 091935Z 01012KT 10SM BKN027 22/14 A3016 -120 63 700 010/12 RMK AO2 T02170144
93915KAEX AEX20161109134010611/09/16 13:40:31  5-MIN KAEX 091940Z 01013KT 10SM BKN027 22/14 A3016 -120 61 700 010/13 RMK AO2 T02170139
93915KAEX AEX20161109134510611/09/16 13:45:31  5-MIN KAEX 091945Z 01011KT 10SM BKN027 22/14 A3016 -120 61 700 010/11 RMK AO2 T02170139
93915KAEX AEX20161109135012011/09/16 13:50:31  5-MIN KAEX 091950Z 02010KT 10SM BKN027 BKN033 22/14 A3016 -120 61 700 020/10 RMK AO2 SLP214 T02220144
93915KAEX AEX20161109135511311/09/16 13:55:31  5-MIN KAEX 091955Z 01010KT 10SM BKN028 BKN034 22/14 A3016 -120 63 700 010/10 RMK AO2 T02170144
93915KAEX AEX20161109140011311/09/16 14:00:31  5-MIN KAEX 092000Z 01012KT 10SM BKN028 BKN034 22/14 A3015 -120 61 700 010/12 RMK AO2 T02220144
93915KAEX AEX20161109140511311/09/16 14:05:31  5-MIN KAEX 092005Z 02008KT 10SM SCT028 BKN034 22/14 A3015 -120 61 700 020/08 RMK AO2 T02170139
93915KAEX AEX20161109141011311/09/16 14:10:31  5-MIN KAEX 092010Z 01011KT 10SM BKN028 BKN034 22/14 A3015 -120 61 700 360/11 RMK AO2 T02170139
93915KAEX AEX20161109141511311/09/16 14:15:31  5-MIN KAEX 092015Z 02008KT 10SM BKN028 BKN034 22/14 A3015 -120 63 700 020/08 RMK AO2 T02170144
93915KAEX AEX20161109142010611/09/16 14:20:31  5-MIN KAEX 092020Z 02010KT 10SM SCT028 22/14 A3015 -120 63 700 010/10 RMK AO2 T02170144
93915KAEX AEX20161109142510611/09/16 14:25:31  5-MIN KAEX 092025Z 36009KT 10SM SCT027 22/14 A3015 -120 63 700 360/09 RMK AO2 T02170144
93915KAEX AEX20161109143010611/09/16 14:30:31  5-MIN KAEX 092030Z 03011KT 10SM SCT027 22/14 A3015 -120 61 700 030/11 RMK AO2 T02170139
93915KAEX AEX20161109143510611/09/16 14:35:31  5-MIN KAEX 092035Z 01009KT 10SM SCT027 22/14 A3015 -120 61 700 010/09 RMK AO2 T02170139
93915KAEX AEX20161109144010611/09/16 14:40:31  5-MIN KAEX 092040Z 35008KT 10SM FEW027 21/14 A3015 -120 63 600 350/08 RMK AO2 T02110139
93915KAEX AEX20161109144511711/09/16 14:45:31  5-MIN KAEX 092045Z AUTO 01011G17KT 10SM FEW027 21/14 A3015 -120 63 600 010/11G17 RMK AO2 T02110139
93915KAEX AEX20161109145013011/09/16 14:50:31  5-MIN KAEX 092050Z AUTO 04008G17KT 10SM FEW027 21/14 A3015 -120 63 600 030/08G17 RMK AO2 SLP213 T02110139 58001
93915KAEX AEX20161109145510811/09/16 14:55:31  5-MIN KAEX 092055Z AUTO 02007KT 10SM CLR 21/14 A3015 -120 63 600 020/07 RMK AO2 T02110139
93915KAEX AEX20161109150010811/09/16 15:00:31  5-MIN KAEX 092100Z AUTO 03008KT 10SM CLR 21/14 A3015 -120 63 600 030/08 RMK AO2 T02110139
93915KAEX AEX20161109150511111/09/16 15:05:31  5-MIN KAEX 092105Z AUTO 02008KT 10SM FEW030 21/14 A3015 -110 63 600 020/08 RMK AO2 T02110139
93915KAEX AEX20161109151011111/09/16 15:10:31  5-MIN KAEX 092110Z AUTO 01008KT 10SM SCT030 21/14 A3015 -110 63 600 010/08 RMK AO2 T02110139
93915KAEX AEX20161109151511111/09/16 15:15:31  5-MIN KAEX 092115Z AUTO 02010KT 10SM FEW029 21/14 A3015 -110 63 600 010/10 RMK AO2 T02110139
93915KAEX AEX20161109152012711/09/16 15:20:31  5-MIN KAEX 092120Z AUTO 02008KT 330V040 10SM SCT029 21/14 A3015 -110 63 600 020/08 330V040 RMK AO2 T02110139
93915KAEX AEX20161109152511111/09/16 15:25:31  5-MIN KAEX 092125Z AUTO 02009KT 10SM BKN029 21/14 A3015 -120 63 600 020/09 RMK AO2 T02110139
93915KAEX AEX20161109153011111/09/16 15:30:31  5-MIN KAEX 092130Z AUTO 02008KT 10SM BKN029 21/14 A3015 -120 65 500 010/08 RMK AO2 T02060139
93915KAEX AEX20161109153511111/09/16 15:35:31  5-MIN KAEX 092135Z AUTO 01010KT 10SM BKN029 21/14 A3015 -120 65 500 010/10 RMK AO2 T02060139
93915KAEX AEX20161109154011111/09/16 15:40:31  5-MIN KAEX 092140Z AUTO 01010KT 10SM BKN029 21/14 A3015 -120 65 500 010/10 RMK AO2 T02060139
93915KAEX AEX20161109154511111/09/16 15:45:31  5-MIN KAEX 092145Z AUTO 01007KT 10SM BKN029 21/14 A3015 -120 65 500 360/07 RMK AO2 T02060139
93915KAEX AEX20161109155011811/09/16 15:50:31  5-MIN KAEX 092150Z AUTO 01008KT 10SM BKN029 20/14 A3015 -120 67 500 010/08 RMK AO2 SLP215 T02000139
93915KAEX AEX20161109155511111/09/16 15:55:31  5-MIN KAEX 092155Z AUTO 02009KT 10SM BKN029 20/14 A3016 -120 67 500 020/09 RMK AO2 T02000139
93915KAEX AEX20161109160011111/09/16 16:00:31  5-MIN KAEX 092200Z AUTO 03010KT 10SM SCT029 20/14 A3016 -120 67 500 020/10 RMK AO2 T02000139
93915KAEX AEX20161109160511111/09/16 16:05:31  5-MIN KAEX 092205Z AUTO 02010KT 10SM FEW029 20/14 A3016 -120 67 500 010/10 RMK AO2 T02000139
93915KAEX AEX20161109161011111/09/16 16:10:31  5-MIN KAEX 092210Z AUTO 02009KT 10SM FEW029 20/13 A3016 -120 65 500 020/09 RMK AO2 T02000133
93915KAEX AEX20161109161511711/09/16 16:15:31  5-MIN KAEX 092215Z AUTO 01008G16KT 10SM FEW029 20/14 A3016 -120 67 500 010/08G16 RMK AO2 T02000139
93915KAEX AEX20161109162010811/09/16 16:20:31  5-MIN KAEX 092220Z AUTO 01010KT 10SM CLR 20/14 A3016 -120 67 500 010/10 RMK AO2 T02000139
93915KAEX AEX20161109162510811/09/16 16:25:31  5-MIN KAEX 092225Z AUTO 02007KT 10SM CLR 20/14 A3016 -130 67 500 020/07 RMK AO2 T02000139
93915KAEX AEX20161109163010811/09/16 16:30:31  5-MIN KAEX 092230Z AUTO 01009KT 10SM CLR 19/14 A3016 -130 70 400 360/09 RMK AO2 T01940139
93915KAEX AEX20161109163510811/09/16 16:35:31  5-MIN KAEX 092235Z AUTO 36008KT 10SM CLR 19/13 A3017 -130 67 400 360/08 RMK AO2 T01940133
93915KAEX AEX20161109164010811/09/16 16:40:31  5-MIN KAEX 092240Z AUTO 01009KT 10SM CLR 19/14 A3017 -130 70 400 010/09 RMK AO2 T01940139
93915KAEX AEX20161109164510811/09/16 16:45:31  5-MIN KAEX 092245Z AUTO 01005KT 10SM CLR 19/14 A3017 -130 70 400 010/05 RMK AO2 T01940139
93915KAEX AEX20161109165011511/09/16 16:50:31  5-MIN KAEX 092250Z AUTO 36005KT 10SM CLR 19/14 A3017 -130 70 400 360/05 RMK AO2 SLP220 T01940139
93915KAEX AEX20161109165510811/09/16 16:55:31  5-MIN KAEX 092255Z AUTO 01006KT 10SM CLR 19/14 A3017 -130 72 300 010/06 RMK AO2 T01890139
93915KAEX AEX20161109170010811/09/16 17:00:31  5-MIN KAEX 092300Z AUTO 01005KT 10SM CLR 19/14 A3017 -130 72 300 360/05 RMK AO2 T01890139
93915KAEX AEX20161109170510811/09/16 17:05:31  5-MIN KAEX 092305Z AUTO 01005KT 10SM CLR 19/14 A3017 -130 72 300 010/05 RMK AO2 T01890139
93915KAEX AEX20161109171010811/09/16 17:10:31  5-MIN KAEX 092310Z AUTO 01004KT 10SM CLR 19/14 A3017 -130 72 300 010/04 RMK AO2 T01890139
93915KAEX AEX20161109171510811/09/16 17:15:31  5-MIN KAEX 092315Z AUTO 01004KT 10SM CLR 19/14 A3017 -130 72 300 010/04 RMK AO2 T01890139
93915KAEX AEX20161109172010811/09/16 17:20:31  5-MIN KAEX 092320Z AUTO 36005KT 10SM CLR 18/14 A3017 -140 75 300 360/05 RMK AO2 T01830139
93915KAEX AEX20161109172510811/09/16 17:25:31  5-MIN KAEX 092325Z AUTO 36005KT 10SM CLR 18/14 A3017 -140 75 300 360/05 RMK AO2 T01830139
93915KAEX AEX20161109173010811/09/16 17:30:31  5-MIN KAEX 092330Z AUTO 02004KT 10SM CLR 18/14 A3017 -140 75 300 010/04 RMK AO2 T01830139
93915KAEX AEX20161109173510811/09/16 17:35:31  5-MIN KAEX 092335Z AUTO 01005KT 10SM CLR 18/14 A3017 -140 75 300 010/05 RMK AO2 T01830139
93915KAEX AEX20161109174010811/09/16 17:40:31  5-MIN KAEX 092340Z AUTO 36004KT 10SM CLR 18/14 A3018 -140 75 300 360/04 RMK AO2 T01830139
93915KAEX AEX20161109174510811/09/16 17:45:31  5-MIN KAEX 092345Z AUTO 01005KT 10SM CLR 18/14 A3018 -140 75 200 360/05 RMK AO2 T01830139
93915KAEX AEX20161109175013311/09/16 17:50:31  5-MIN KAEX 092350Z AUTO 01006KT 10SM CLR 18/14 A3018 -150 75 200 010/06 RMK AO2 SLP224 T01830139 10228 20183 56007
93915KAEX AEX20161109175510811/09/16 17:55:31  5-MIN KAEX 092355Z AUTO 01006KT 10SM CLR 18/14 A3019 -150 78 200 010/06 RMK AO2 T01780139
93915KAEX AEX20161109180010811/09/16 18:00:31  5-MIN KAEX 100000Z AUTO 01006KT 10SM CLR 18/14 A3019 -150 78 200 010/06 RMK AO2 T01780139
93915KAEX AEX20161109180510811/09/16 18:05:31  5-MIN KAEX 100005Z AUTO 02006KT 10SM CLR 18/14 A3019 -150 78 200 010/06 RMK AO2 T01780139
93915KAEX AEX20161109181010811/09/16 18:10:31  5-MIN KAEX 100010Z AUTO 02005KT 10SM CLR 18/14 A3019 -150 78 200 010/05 RMK AO2 T01780139
93915KAEX AEX20161109181510811/09/16 18:15:31  5-MIN KAEX 100015Z AUTO 02007KT 10SM CLR 18/14 A3019 -150 78 200 010/07 RMK AO2 T01780139
93915KAEX AEX20161109182010811/09/16 18:20:31  5-MIN KAEX 100020Z AUTO 02007KT 10SM CLR 18/14 A3020 -160 78 200 020/07 RMK AO2 T01780139
93915KAEX AEX20161109182510811/09/16 18:25:31  5-MIN KAEX 100025Z AUTO 03005KT 10SM CLR 17/14 A3020 -160 80 100 020/05 RMK AO2 T01720139
93915KAEX AEX20161109183010811/09/16 18:30:31  5-MIN KAEX 100030Z AUTO 02006KT 10SM CLR 17/14 A3020 -160 80 100 020/06 RMK AO2 T01720139
93915KAEX AEX20161109183510811/09/16 18:35:31  5-MIN KAEX 100035Z AUTO 02005KT 10SM CLR 17/14 A3020 -160 80 100 020/05 RMK AO2 T01720139
93915KAEX AEX20161109184010811/09/16 18:40:31  5-MIN KAEX 100040Z AUTO 02006KT 10SM CLR 17/14 A3021 -170 80 100 020/06 RMK AO2 T01720139
93915KAEX AEX20161109184510811/09/16 18:45:31  5-MIN KAEX 100045Z AUTO 03007KT 10SM CLR 17/14 A3021 -170 80 100 020/07 RMK AO2 T01720139
93915KAEX AEX20161109185011511/09/16 18:50:31  5-MIN KAEX 100050Z AUTO 02007KT 10SM CLR 17/14 A3021 -170 80 100 020/07 RMK AO2 SLP234 T01720139
93915KAEX AEX20161109185510811/09/16 18:55:31  5-MIN KAEX 100055Z AUTO 03005KT 10SM CLR 17/14 A3021 -170 80 100 030/05 RMK AO2 T01720139
93915KAEX AEX20161109190010611/09/16 19:00:31  5-MIN KAEX 100100Z AUTO 03007KT 10SM CLR 17/13 A3021 -170 80 0 030/07 RMK AO2 T01670133
93915KAEX AEX20161109190510611/09/16 19:05:31  5-MIN KAEX 100105Z AUTO 03007KT 10SM CLR 17/13 A3021 -170 80 0 020/07 RMK AO2 T01670133
93915KAEX AEX20161109191010611/09/16 19:10:31  5-MIN KAEX 100110Z AUTO 03006KT 10SM CLR 17/13 A3021 -170 80 0 020/06 RMK AO2 T01670133
93915KAEX AEX20161109191510611/09/16 19:15:31  5-MIN KAEX 100115Z AUTO 03007KT 10SM CLR 17/13 A3021 -170 77 0 030/07 RMK AO2 T01670128
93915KAEX AEX20161109192010611/09/16 19:20:31  5-MIN KAEX 100120Z AUTO 03006KT 10SM CLR 17/13 A3022 -180 77 0 030/06 RMK AO2 T01670128
93915KAEX AEX20161109192510611/09/16 19:25:31  5-MIN KAEX 100125Z AUTO 02007KT 10SM CLR 17/13 A3022 -180 77 0 020/07 RMK AO2 T01670128
93915KAEX AEX20161109193010611/09/16 19:30:31  5-MIN KAEX 100130Z AUTO 03006KT 10SM CLR 17/13 A3022 -180 77 0 030/06 RMK AO2 T01670128
93915KAEX AEX20161109193510611/09/16 19:35:31  5-MIN KAEX 100135Z AUTO 03006KT 10SM CLR 17/13 A3022 -180 77 0 030/06 RMK AO2 T01670128
93915KAEX AEX20161109194010611/09/16 19:40:31  5-MIN KAEX 100140Z AUTO 03006KT 10SM CLR 16/12 A3022 -180 77 0 020/06 RMK AO2 T01610122
93915KAEX AEX20161109194510611/09/16 19:45:31  5-MIN KAEX 100145Z AUTO 03006KT 10SM CLR 16/12 A3022 -180 77 0 020/06 RMK AO2 T01610122
93915KAEX AEX20161109195010811/09/16 19:50:31  5-MIN KAEX 100150Z 03006KT 10SM CLR 16/12 A3023 -180 77 0 020/06 RMK AO2 SLP239 T01610122
93915KAEX AEX20161109195510111/09/16 19:55:31  5-MIN KAEX 100155Z 03005KT 10SM CLR 16/12 A3023 -190 77 0 020/05 RMK AO2 T01610122
93915KAEX AEX20161109200010411/09/16 20:00:31  5-MIN KAEX 100200Z 03005KT 10SM CLR 16/12 A3023 -190 80 -100 020/05 RMK AO2 T01560122
93915KAEX AEX20161109200510411/09/16 20:05:31  5-MIN KAEX 100205Z 03004KT 10SM CLR 16/12 A3023 -190 80 -100 030/04 RMK AO2 T01560122
93915KAEX AEX20161109201010411/09/16 20:10:31  5-MIN KAEX 100210Z 03004KT 10SM CLR 16/12 A3023 -190 80 -100 030/04 RMK AO2 T01560122
93915KAEX AEX20161109201510411/09/16 20:15:31  5-MIN KAEX 100215Z 03005KT 10SM CLR 16/12 A3023 -190 80 -100 030/05 RMK AO2 T01560122
93915KAEX AEX20161109202010411/09/16 20:20:31  5-MIN KAEX 100220Z 03004KT 10SM CLR 15/12 A3023 -190 83 -200 030/04 RMK AO2 T01500122
93915KAEX AEX20161109202510411/09/16 20:25:31  5-MIN KAEX 100225Z 03004KT 10SM CLR 15/12 A3024 -190 83 -200 030/04 RMK AO2 T01500122
93915KAEX AEX20161109203010411/09/16 20:30:31  5-MIN KAEX 100230Z 04004KT 10SM CLR 15/12 A3024 -190 83 -200 030/04 RMK AO2 T01500122
93915KAEX AEX20161109203510411/09/16 20:35:31  5-MIN KAEX 100235Z 03004KT 10SM CLR 15/12 A3024 -200 80 -200 020/04 RMK AO2 T01500117
93915KAEX AEX20161109204010411/09/16 20:40:31  5-MIN KAEX 100240Z 02005KT 10SM CLR 15/12 A3024 -200 80 -200 020/05 RMK AO2 T01500117
93915KAEX AEX20161109204510411/09/16 20:45:31  5-MIN KAEX 100245Z 02005KT 10SM CLR 15/12 A3024 -200 83 -200 010/05 RMK AO2 T01500122
93915KAEX AEX20161109205011711/09/16 20:50:31  5-MIN KAEX 100250Z 01005KT 10SM CLR 14/12 A3024 -200 83 -200 010/05 RMK AO2 SLP244 T01440117 53012
93915KAEX AEX20161109205510411/09/16 20:55:31  5-MIN KAEX 100255Z 01004KT 10SM CLR 14/12 A3024 -200 83 -200 010/04 RMK AO2 T01440117
93915KAEX AEX20161109210010411/09/16 21:00:31  5-MIN KAEX 100300Z 02004KT 10SM CLR 14/12 A3024 -200 83 -200 020/04 RMK AO2 T01440117
93915KAEX AEX20161109210510411/09/16 21:05:31  5-MIN KAEX 100305Z 02003KT 10SM CLR 14/12 A3025 -200 83 -200 020/03 RMK AO2 T01440117
93915KAEX AEX20161109211010411/09/16 21:10:31  5-MIN KAEX 100310Z 01003KT 10SM CLR 14/12 A3025 -200 83 -200 010/03 RMK AO2 T01440117
93915KAEX AEX20161109211510411/09/16 21:15:31  5-MIN KAEX 100315Z 00000KT 10SM CLR 14/12 A3025 -210 83 -200 000/00 RMK AO2 T01440117
93915KAEX AEX20161109212010411/09/16 21:20:31  5-MIN KAEX 100320Z 01003KT 10SM CLR 14/12 A3025 -210 83 -200 010/03 RMK AO2 T01440117
93915KAEX AEX20161109212510411/09/16 21:25:31  5-MIN KAEX 100325Z 02003KT 10SM CLR 14/12 A3025 -200 86 -300 010/03 RMK AO2 T01390117
93915KAEX AEX20161109213010311/09/16 21:30:31  5-MIN KAEX 100330Z 02003KT 9SM CLR 14/12 A3024 -200 86 -300 020/03 RMK AO2 T01390117
93915KAEX AEX20161109213510311/09/16 21:35:31  5-MIN KAEX 100335Z 01003KT 9SM CLR 14/12 A3024 -200 86 -300 360/03 RMK AO2 T01390117
93915KAEX AEX20161109214010311/09/16 21:40:31  5-MIN KAEX 100340Z 36003KT 9SM CLR 14/12 A3025 -210 86 -300 360/03 RMK AO2 T01390117
93915KAEX AEX20161109214510311/09/16 21:45:31  5-MIN KAEX 100345Z 36003KT 9SM CLR 14/12 A3025 -210 86 -300 360/03 RMK AO2 T01390117
93915KAEX AEX20161109215011011/09/16 21:50:31  5-MIN KAEX 100350Z 00000KT 9SM CLR 14/12 A3025 -210 86 -300 000/00 RMK AO2 SLP248 T01390117
93915KAEX AEX20161109215510311/09/16 21:55:31  5-MIN KAEX 100355Z 00000KT 9SM CLR 13/12 A3025 -210 89 -400 000/00 RMK AO2 T01330117
93915KAEX AEX20161109220010311/09/16 22:00:31  5-MIN KAEX 100400Z 00000KT 9SM CLR 13/12 A3025 -210 89 -400 000/00 RMK AO2 T01330117
93915KAEX AEX20161109220510311/09/16 22:05:31  5-MIN KAEX 100405Z 00000KT 9SM CLR 13/12 A3025 -210 93 -400 000/00 RMK AO2 T01280117
93915KAEX AEX20161109221010311/09/16 22:10:31  5-MIN KAEX 100410Z 00000KT 9SM CLR 12/11 A3025 -210 93 -600 000/00 RMK AO2 T01170106
93915KAEX AEX20161109221510311/09/16 22:15:31  5-MIN KAEX 100415Z 00000KT 9SM CLR 12/11 A3025 -210 93 -600 000/00 RMK AO2 T01170106
93915KAEX AEX20161109222010311/09/16 22:20:31  5-MIN KAEX 100420Z 00000KT 8SM CLR 12/10 A3025 -210 89 -600 000/00 RMK AO2 T01170100
93915KAEX AEX20161109222510311/09/16 22:25:31  5-MIN KAEX 100425Z 00000KT 8SM CLR 12/10 A3025 -210 89 -600 000/00 RMK AO2 T01170100
93915KAEX AEX20161109223010311/09/16 22:30:31  5-MIN KAEX 100430Z 00000KT 8SM CLR 12/10 A3025 -210 89 -600 000/00 RMK AO2 T01170100
93915KAEX AEX20161109223510311/09/16 22:35:31  5-MIN KAEX 100435Z 35003KT 8SM CLR 11/10 A3025 -210 93 -600 350/03 RMK AO2 T01110100
93915KAEX AEX20161109224010311/09/16 22:40:31  5-MIN KAEX 100440Z 34003KT 7SM CLR 11/11 A3026 -210 96 -600 330/03 RMK AO2 T01110106
93915KAEX AEX20161109224510311/09/16 22:45:31  5-MIN KAEX 100445Z 33003KT 7SM CLR 11/11 A3026 -210 96 -600 320/03 RMK AO2 T01110106
93915KAEX AEX20161109225011011/09/16 22:50:31  5-MIN KAEX 100450Z 33004KT 7SM CLR 11/10 A3026 -210 96 -700 330/04 RMK AO2 SLP249 T01060100
93915KAEX AEX20161109225510311/09/16 22:55:31  5-MIN KAEX 100455Z 33004KT 8SM CLR 10/09 A3025 -210 96 -800 330/04 RMK AO2 T01000094
93915KAEX AEX20161109230010311/09/16 23:00:31  5-MIN KAEX 100500Z 34003KT 8SM CLR 10/09 A3025 -210 96 -800 340/03 RMK AO2 T01000094
93915KAEX AEX20161109230510311/09/16 23:05:31  5-MIN KAEX 100505Z 35003KT 8SM CLR 10/09 A3025 -210 96 -800 350/03 RMK AO2 T01000094
93915KAEX AEX20161109231010311/09/16 23:10:31  5-MIN KAEX 100510Z 35003KT 8SM CLR 11/09 A3025 -210 93 -700 350/03 RMK AO2 T01060094
93915KAEX AEX20161109231510311/09/16 23:15:31  5-MIN KAEX 100515Z 00000KT 8SM CLR 11/09 A3025 -210 93 -700 000/00 RMK AO2 T01060094
93915KAEX AEX20161109232010311/09/16 23:20:31  5-MIN KAEX 100520Z 00000KT 8SM CLR 11/10 A3025 -200 93 -600 000/00 RMK AO2 T01110100
93915KAEX AEX20161109232510311/09/16 23:25:31  5-MIN KAEX 100525Z 00000KT 9SM CLR 11/10 A3025 -200 93 -600 000/00 RMK AO2 T01110100
93915KAEX AEX20161109233010311/09/16 23:30:31  5-MIN KAEX 100530Z 00000KT 8SM CLR 11/09 A3024 -200 93 -700 000/00 RMK AO2 T01060094
93915KAEX AEX20161109233510311/09/16 23:35:31  5-MIN KAEX 100535Z 00000KT 8SM CLR 11/09 A3024 -200 93 -700 000/00 RMK AO2 T01060094
93915KAEX AEX20161109234010311/09/16 23:40:31  5-MIN KAEX 100540Z 00000KT 8SM CLR 11/09 A3025 -200 93 -700 000/00 RMK AO2 T01060094
93915KAEX AEX20161109234510311/09/16 23:45:31  5-MIN KAEX 100545Z 33003KT 8SM CLR 11/09 A3025 -200 93 -700 330/03 RMK AO2 T01060094
93915KAEX AEX20161109235013811/09/16 23:50:31  5-MIN KAEX 100550Z 00000KT 8SM CLR 11/09 A3025 -200 93 -700 000/00 RMK AO2 SLP246 T01060094 10178 20100 402330100 51020
93915KAEX AEX20161109235510311/09/16 23:55:31  5-MIN KAEX 100555Z 36003KT 8SM CLR 11/09 A3025 -200 89 -600 360/03 RMK AO2 T01110094
93915KAEX AEX20161110000010311/10/16 00:00:31  5-MIN KAEX 100600Z 02003KT 9SM CLR 12/10 A3025 -200 89 -600 020/03 RMK AO2 T01170100
93915KAEX AEX20161110000510411/10/16 00:05:31  5-MIN KAEX 100605Z 01004KT 10SM CLR 12/09 A3025 -200 86 -600 010/04 RMK AO2 T01170094
93915KAEX AEX20161110001010411/10/16 00:10:31  5-MIN KAEX 100610Z 01004KT 10SM CLR 12/09 A3025 -210 86 -600 010/04 RMK AO2 T01170094
93915KAEX AEX20161110001510411/10/16 00:15:31  5-MIN KAEX 100615Z 02005KT 10SM CLR 12/09 A3025 -200 86 -600 020/05 RMK AO2 T01170094
93915KAEX AEX20161110002010411/10/16 00:20:31  5-MIN KAEX 100620Z 01005KT 10SM CLR 12/09 A3025 -200 83 -500 010/05 RMK AO2 T01220094
93915KAEX AEX20161110002510411/10/16 00:25:31  5-MIN KAEX 100625Z 01005KT 10SM CLR 12/09 A3025 -210 83 -500 010/05 RMK AO2 T01220094
93915KAEX AEX20161110003010411/10/16 00:30:31  5-MIN KAEX 100630Z 01004KT 10SM CLR 12/09 A3025 -210 83 -500 010/04 RMK AO2 T01220094
93915KAEX AEX20161110003510411/10/16 00:35:31  5-MIN KAEX 100635Z 01004KT 10SM CLR 12/09 A3025 -210 80 -500 010/04 RMK AO2 T01220089
93915KAEX AEX20161110004010411/10/16 00:40:31  5-MIN KAEX 100640Z 02004KT 10SM CLR 12/09 A3025 -210 80 -500 010/04 RMK AO2 T01220089
93915KAEX AEX20161110004510411/10/16 00:45:31  5-MIN KAEX 100645Z 01005KT 10SM CLR 12/09 A3025 -210 80 -500 010/05 RMK AO2 T01220089
93915KAEX AEX20161110005011111/10/16 00:50:31  5-MIN KAEX 100650Z 02006KT 10SM CLR 12/09 A3025 -210 80 -500 020/06 RMK AO2 SLP248 T01220089
93915KAEX AEX20161110005510411/10/16 00:55:31  5-MIN KAEX 100655Z 02005KT 10SM CLR 12/08 A3025 -210 80 -600 020/05 RMK AO2 T01170083
93915KAEX AEX20161110010010411/10/16 01:00:31  5-MIN KAEX 100700Z 02005KT 10SM CLR 12/08 A3025 -210 80 -600 010/05 RMK AO2 T01170083
93915KAEX AEX20161110010510411/10/16 01:05:31  5-MIN KAEX 100705Z 02006KT 10SM CLR 12/08 A3025 -210 80 -600 020/06 RMK AO2 T01170083
93915KAEX AEX20161110011010411/10/16 01:10:31  5-MIN KAEX 100710Z 02006KT 10SM CLR 12/08 A3025 -210 80 -600 010/06 RMK AO2 T01170083
93915KAEX AEX20161110011510411/10/16 01:15:31  5-MIN KAEX 100715Z 02005KT 10SM CLR 12/08 A3025 -210 77 -600 020/05 RMK AO2 T01170078
93915KAEX AEX20161110012010411/10/16 01:20:31  5-MIN KAEX 100720Z 02005KT 10SM CLR 12/08 A3025 -210 77 -600 020/05 RMK AO2 T01170078
93915KAEX AEX20161110012510411/10/16 01:25:31  5-MIN KAEX 100725Z 02005KT 10SM CLR 12/08 A3025 -210 77 -600 020/05 RMK AO2 T01170078
93915KAEX AEX20161110013010411/10/16 01:30:31  5-MIN KAEX 100730Z 03005KT 10SM CLR 12/08 A3025 -210 77 -600 020/05 RMK AO2 T01170078
93915KAEX AEX20161110013510411/10/16 01:35:31  5-MIN KAEX 100735Z 02005KT 10SM CLR 11/08 A3025 -200 80 -600 020/05 RMK AO2 T01110078
93915KAEX AEX20161110014010411/10/16 01:40:31  5-MIN KAEX 100740Z 02006KT 10SM CLR 11/08 A3025 -200 80 -600 010/06 RMK AO2 T01110078
93915KAEX AEX20161110014510411/10/16 01:45:31  5-MIN KAEX 100745Z 02006KT 10SM CLR 12/08 A3025 -200 77 -600 020/06 RMK AO2 T01170078
93915KAEX AEX20161110015011111/10/16 01:50:31  5-MIN KAEX 100750Z 03006KT 10SM CLR 12/08 A3024 -200 77 -600 030/06 RMK AO2 SLP245 T01170078
93915KAEX AEX20161110015510411/10/16 01:55:31  5-MIN KAEX 100755Z 03005KT 10SM CLR 11/08 A3024 -200 80 -600 030/05 RMK AO2 T01110078
93915KAEX AEX20161110020010411/10/16 02:00:31  5-MIN KAEX 100800Z 02005KT 10SM CLR 11/08 A3025 -200 80 -600 020/05 RMK AO2 T01110078
93915KAEX AEX20161110020510411/10/16 02:05:31  5-MIN KAEX 100805Z 01005KT 10SM CLR 11/08 A3025 -210 80 -600 010/05 RMK AO2 T01110078
93915KAEX AEX20161110021010411/10/16 02:10:31  5-MIN KAEX 100810Z 02006KT 10SM CLR 11/08 A3025 -210 80 -600 020/06 RMK AO2 T01110078
93915KAEX AEX20161110021510411/10/16 02:15:31  5-MIN KAEX 100815Z 36006KT 10SM CLR 11/08 A3025 -210 80 -600 360/06 RMK AO2 T01110078
93915KAEX AEX20161110022010411/10/16 02:20:31  5-MIN KAEX 100820Z 02005KT 10SM CLR 11/08 A3025 -210 80 -600 010/05 RMK AO2 T01110078
93915KAEX AEX20161110022510411/10/16 02:25:31  5-MIN KAEX 100825Z 02005KT 10SM CLR 11/08 A3025 -210 80 -600 020/05 RMK AO2 T01110078
93915KAEX AEX20161110023010411/10/16 02:30:31  5-MIN KAEX 100830Z 36005KT 10SM CLR 11/08 A3025 -210 83 -700 360/05 RMK AO2 T01060078
93915KAEX AEX20161110023510411/10/16 02:35:31  5-MIN KAEX 100835Z 36004KT 10SM CLR 11/08 A3026 -210 80 -600 360/04 RMK AO2 T01110078
93915KAEX AEX20161110024010411/10/16 02:40:31  5-MIN KAEX 100840Z 36004KT 10SM CLR 11/07 A3026 -210 80 -700 360/04 RMK AO2 T01060072
93915KAEX AEX20161110024510411/10/16 02:45:31  5-MIN KAEX 100845Z 01005KT 10SM CLR 11/07 A3025 -210 80 -700 360/05 RMK AO2 T01060072
93915KAEX AEX20161110025011711/10/16 02:50:31  5-MIN KAEX 100850Z 36004KT 10SM CLR 11/07 A3025 -210 80 -700 360/04 RMK AO2 SLP249 T01060072 50001
93915KAEX AEX20161110025510411/10/16 02:55:31  5-MIN KAEX 100855Z 35005KT 10SM CLR 11/07 A3026 -210 80 -700 350/05 RMK AO2 T01060072
93915KAEX AEX20161110030010411/10/16 03:00:31  5-MIN KAEX 100900Z 35004KT 10SM CLR 10/07 A3026 -210 83 -800 350/04 RMK AO2 T01000072
93915KAEX AEX20161110030510411/10/16 03:05:31  5-MIN KAEX 100905Z 36005KT 10SM CLR 10/07 A3026 -210 83 -800 360/05 RMK AO2 T01000072
93915KAEX AEX20161110031010411/10/16 03:10:31  5-MIN KAEX 100910Z 01004KT 10SM CLR 10/07 A3026 -210 83 -800 360/04 RMK AO2 T01000072
93915KAEX AEX20161110031510411/10/16 03:15:31  5-MIN KAEX 100915Z 35004KT 10SM CLR 10/07 A3026 -210 83 -800 350/04 RMK AO2 T01000072
93915KAEX AEX20161110032010411/10/16 03:20:31  5-MIN KAEX 100920Z 36005KT 10SM CLR 10/07 A3025 -210 83 -800 360/05 RMK AO2 T01000072
93915KAEX AEX20161110032510411/10/16 03:25:31  5-MIN KAEX 100925Z 01007KT 10SM CLR 10/08 A3025 -210 86 -800 360/07 RMK AO2 T01000078
93915KAEX AEX20161110033010411/10/16 03:30:31  5-MIN KAEX 100930Z 01006KT 10SM CLR 11/08 A3026 -210 83 -700 010/06 RMK AO2 T01060078
93915KAEX AEX20161110033510411/10/16 03:35:31  5-MIN KAEX 100935Z 36005KT 10SM CLR 11/07 A3025 -210 80 -700 360/05 RMK AO2 T01060072
93915KAEX AEX20161110034010411/10/16 03:40:31  5-MIN KAEX 100940Z 36005KT 10SM CLR 11/07 A3025 -210 80 -700 360/05 RMK AO2 T01060072
93915KAEX AEX20161110034510411/10/16 03:45:31  5-MIN KAEX 100945Z 02005KT 10SM CLR 10/07 A3025 -210 83 -800 020/05 RMK AO2 T01000072
93915KAEX AEX20161110035011111/10/16 03:50:31  5-MIN KAEX 100950Z 02004KT 10SM CLR 10/07 A3025 -210 83 -800 020/04 RMK AO2 SLP248 T01000072
93915KAEX AEX20161110035510411/10/16 03:55:31  5-MIN KAEX 100955Z 01005KT 10SM CLR 10/07 A3025 -210 83 -800 010/05 RMK AO2 T01000072
93915KAEX AEX20161110040010411/10/16 04:00:31  5-MIN KAEX 101000Z 02005KT 10SM CLR 09/07 A3025 -210 86 -800 020/05 RMK AO2 T00940072
93915KAEX AEX20161110040510411/10/16 04:05:31  5-MIN KAEX 101005Z 03004KT 10SM CLR 09/07 A3025 -210 86 -800 030/04 RMK AO2 T00940072
93915KAEX AEX20161110041010411/10/16 04:10:31  5-MIN KAEX 101010Z 02005KT 10SM CLR 09/07 A3025 -210 86 -800 020/05 RMK AO2 T00940072
93915KAEX AEX20161110041510411/10/16 04:15:31  5-MIN KAEX 101015Z 03004KT 10SM CLR 09/07 A3025 -210 86 -800 030/04 RMK AO2 T00940072
93915KAEX AEX20161110042010411/10/16 04:20:31  5-MIN KAEX 101020Z 03004KT 10SM CLR 09/07 A3025 -210 86 -800 030/04 RMK AO2 T00940072
93915KAEX AEX20161110042510411/10/16 04:25:31  5-MIN KAEX 101025Z 02004KT 10SM CLR 09/07 A3025 -210 86 -800 020/04 RMK AO2 T00940072
93915KAEX AEX20161110043010411/10/16 04:30:31  5-MIN KAEX 101030Z 01004KT 10SM CLR 09/07 A3026 -210 86 -800 010/04 RMK AO2 T00940072
93915KAEX AEX20161110043510411/10/16 04:35:31  5-MIN KAEX 101035Z 02005KT 10SM CLR 09/07 A3025 -210 86 -800 020/05 RMK AO2 T00940072
93915KAEX AEX20161110044010411/10/16 04:40:31  5-MIN KAEX 101040Z 03005KT 10SM CLR 09/07 A3025 -210 89 -900 030/05 RMK AO2 T00890072
93915KAEX AEX20161110044510411/10/16 04:45:31  5-MIN KAEX 101045Z 03006KT 10SM CLR 09/07 A3025 -200 86 -800 020/06 RMK AO2 T00940072
93915KAEX AEX20161110045011111/10/16 04:50:31  5-MIN KAEX 101050Z 03005KT 10SM CLR 09/07 A3025 -210 86 -800 020/05 RMK AO2 SLP246 T00940072
93915KAEX AEX20161110045510411/10/16 04:55:31  5-MIN KAEX 101055Z 02006KT 10SM CLR 09/07 A3025 -210 86 -800 020/06 RMK AO2 T00940072
93915KAEX AEX20161110050010411/10/16 05:00:31  5-MIN KAEX 101100Z 03006KT 10SM CLR 09/07 A3025 -210 86 -800 030/06 RMK AO2 T00940072
93915KAEX AEX20161110050510411/10/16 05:05:31  5-MIN KAEX 101105Z 04004KT 10SM CLR 09/07 A3025 -210 86 -800 030/04 RMK AO2 T00940072
93915KAEX AEX20161110051010411/10/16 05:10:31  5-MIN KAEX 101110Z 03005KT 10SM CLR 09/07 A3025 -210 86 -800 020/05 RMK AO2 T00940072
93915KAEX AEX20161110051510411/10/16 05:15:31  5-MIN KAEX 101115Z 03005KT 10SM CLR 09/07 A3025 -210 86 -800 030/05 RMK AO2 T00940072
93915KAEX AEX20161110052010411/10/16 05:20:31  5-MIN KAEX 101120Z 03004KT 10SM CLR 09/07 A3026 -210 86 -800 030/04 RMK AO2 T00940072
93915KAEX AEX20161110052510411/10/16 05:25:31  5-MIN KAEX 101125Z 04004KT 10SM CLR 09/07 A3025 -210 86 -900 040/04 RMK AO2 T00890067
93915KAEX AEX20161110053010411/10/16 05:30:31  5-MIN KAEX 101130Z 04005KT 10SM CLR 09/07 A3025 -210 86 -900 030/05 RMK AO2 T00890067
93915KAEX AEX20161110053510411/10/16 05:35:31  5-MIN KAEX 101135Z 03005KT 10SM CLR 09/07 A3025 -210 86 -900 030/05 RMK AO2 T00890067
93915KAEX AEX20161110054010511/10/16 05:40:31  5-MIN KAEX 101140Z 03005KT 10SM CLR 08/07 A3025 -210 89 -1000 030/05 RMK AO2 T00830067
93915KAEX AEX20161110054510511/10/16 05:45:31  5-MIN KAEX 101145Z 03005KT 10SM CLR 08/07 A3025 -210 89 -1000 030/05 RMK AO2 T00830067
93915KAEX AEX20161110055013011/10/16 05:50:31  5-MIN KAEX 101150Z 03005KT 10SM CLR 08/07 A3025 -210 89 -1000 030/05 RMK AO2 SLP248 T00830067 10122 20083 53003
93915KAEX AEX20161110055510511/10/16 05:55:31  5-MIN KAEX 101155Z 03005KT 10SM CLR 08/07 A3025 -210 89 -1000 030/05 RMK AO2 T00830067
93915KAEX AEX20161110060010511/10/16 06:00:31  5-MIN KAEX 101200Z 03005KT 10SM CLR 08/07 A3026 -220 89 -1000 030/05 RMK AO2 T00830067
93915KAEX AEX20161110060510511/10/16 06:05:31  5-MIN KAEX 101205Z 03003KT 10SM CLR 08/07 A3026 -210 89 -1000 030/03 RMK AO2 T00830067
93915KAEX AEX20161110061010511/10/16 06:10:31  5-MIN KAEX 101210Z 03004KT 10SM CLR 08/07 A3026 -220 89 -1000 020/04 RMK AO2 T00830067
93915KAEX AEX20161110061510511/10/16 06:15:31  5-MIN KAEX 101215Z 03003KT 10SM CLR 08/07 A3026 -220 89 -1000 020/03 RMK AO2 T00830067
93915KAEX AEX20161110062010511/10/16 06:20:31  5-MIN KAEX 101220Z 03003KT 10SM CLR 08/07 A3026 -210 89 -1000 030/03 RMK AO2 T00830067
93915KAEX AEX20161110062510511/10/16 06:25:31  5-MIN KAEX 101225Z 03003KT 10SM CLR 08/07 A3026 -210 93 -1100 020/03 RMK AO2 T00780067
93915KAEX AEX20161110063010511/10/16 06:30:31  5-MIN KAEX 101230Z 03004KT 10SM CLR 08/07 A3026 -210 93 -1100 030/04 RMK AO2 T00780067
93915KAEX AEX20161110063510511/10/16 06:35:31  5-MIN KAEX 101235Z 03004KT 10SM CLR 08/06 A3026 -220 89 -1100 030/04 RMK AO2 T00780061
93915KAEX AEX20161110064010511/10/16 06:40:31  5-MIN KAEX 101240Z 02004KT 10SM CLR 08/07 A3026 -220 93 -1100 020/04 RMK AO2 T00780067
93915KAEX AEX20161110064510511/10/16 06:45:31  5-MIN KAEX 101245Z 03004KT 10SM CLR 08/07 A3026 -210 93 -1100 020/04 RMK AO2 T00780067
93915KAEX AEX20161110065011211/10/16 06:50:31  5-MIN KAEX 101250Z 03004KT 10SM CLR 08/07 A3026 -210 93 -1100 030/04 RMK AO2 SLP250 T00780067
93915KAEX AEX20161110065510511/10/16 06:55:31  5-MIN KAEX 101255Z 02003KT 10SM CLR 08/07 A3026 -220 89 -1000 020/03 RMK AO2 T00830067
93915KAEX AEX20161110070010511/10/16 07:00:31  5-MIN KAEX 101300Z 02004KT 10SM CLR 08/07 A3026 -220 89 -1000 020/04 RMK AO2 T00830067
93915KAEX AEX20161110070510411/10/16 07:05:31  5-MIN KAEX 101305Z 00000KT 10SM CLR 09/07 A3026 -220 86 -900 000/00 RMK AO2 T00890067
93915KAEX AEX20161110071010411/10/16 07:10:31  5-MIN KAEX 101310Z 00000KT 10SM CLR 09/07 A3027 -230 86 -900 000/00 RMK AO2 T00890067
93915KAEX AEX20161110071510411/10/16 07:15:31  5-MIN KAEX 101315Z 00000KT 10SM CLR 09/07 A3028 -230 89 -900 000/00 RMK AO2 T00890072
93915KAEX AEX20161110072011111/10/16 07:20:31  5-MIN KAEX 101320Z 00000KT 10SM CLR 09/07 A3028 -240 89 -900 000/00 RMK AO2 PRESRR T00890072
93915KAEX AEX20161110072511211/10/16 07:25:31  5-MIN KAEX 101325Z 26003KT 10SM CLR 09/07 A3029 -240 89 -1000 260/03 RMK AO2 PRESRR T00890072
93915KAEX AEX20161110073011211/10/16 07:30:31  5-MIN KAEX 101330Z 26004KT 10SM CLR 09/07 A3030 -250 89 -1000 260/04 RMK AO2 PRESRR T00890072
93915KAEX AEX20161110073511111/10/16 07:35:31  5-MIN KAEX 101335Z 26004KT 10SM CLR 09/07 A3030 -250 86 -900 260/04 RMK AO2 PRESRR T00940072
93915KAEX AEX20161110074010411/10/16 07:40:31  5-MIN KAEX 101340Z 00000KT 10SM CLR 09/07 A3030 -250 86 -900 000/00 RMK AO2 T00940072
93915KAEX AEX20161110074510411/10/16 07:45:31  5-MIN KAEX 101345Z 00000KT 10SM CLR 09/07 A3030 -250 86 -900 000/00 RMK AO2 T00940072
93915KAEX AEX20161110075011111/10/16 07:50:31  5-MIN KAEX 101350Z 34003KT 10SM CLR 10/07 A3031 -260 83 -800 340/03 RMK AO2 SLP267 T01000072
93915KAEX AEX20161110075510411/10/16 07:55:31  5-MIN KAEX 101355Z 00000KT 10SM CLR 10/07 A3031 -260 83 -800 000/00 RMK AO2 T01000072
93915KAEX AEX20161110080010411/10/16 08:00:31  5-MIN KAEX 101400Z 36003KT 10SM CLR 11/07 A3031 -260 80 -800 360/03 RMK AO2 T01060072
93915KAEX AEX20161110080510411/10/16 08:05:31  5-MIN KAEX 101405Z 01003KT 10SM CLR 11/07 A3031 -260 77 -700 010/03 RMK AO2 T01110072
93915KAEX AEX20161110081010411/10/16 08:10:31  5-MIN KAEX 101410Z 04003KT 10SM CLR 11/08 A3031 -260 80 -700 040/03 RMK AO2 T01110078
93915KAEX AEX20161110081510411/10/16 08:15:31  5-MIN KAEX 101415Z 05006KT 10SM CLR 12/08 A3031 -260 77 -600 050/06 RMK AO2 T01170078
93915KAEX AEX20161110082010411/10/16 08:20:31  5-MIN KAEX 101420Z 03005KT 10SM CLR 12/08 A3030 -260 77 -600 030/05 RMK AO2 T01170078
93915KAEX AEX20161110082510411/10/16 08:25:31  5-MIN KAEX 101425Z 03005KT 10SM CLR 12/08 A3030 -250 77 -600 030/05 RMK AO2 T01170078
93915KAEX AEX20161110083010411/10/16 08:30:31  5-MIN KAEX 101430Z 03005KT 10SM CLR 12/08 A3030 -260 77 -600 030/05 RMK AO2 T01170078
93915KAEX AEX20161110083510411/10/16 08:35:31  5-MIN KAEX 101435Z 03006KT 10SM CLR 12/08 A3030 -260 74 -600 030/06 RMK AO2 T01220078
93915KAEX AEX20161110084010411/10/16 08:40:31  5-MIN KAEX 101440Z 03006KT 10SM CLR 12/08 A3030 -250 74 -600 030/06 RMK AO2 T01220078
93915KAEX AEX20161110084510411/10/16 08:45:31  5-MIN KAEX 101445Z 05006KT 10SM CLR 12/08 A3030 -250 74 -600 050/06 RMK AO2 T01220078
93915KAEX AEX20161110085011711/10/16 08:50:31  5-MIN KAEX 101450Z 03005KT 10SM CLR 13/08 A3030 -250 74 -500 030/05 RMK AO2 SLP264 T01280083 55001
93915KAEX AEX20161110085510411/10/16 08:55:31  5-MIN KAEX 101455Z 04004KT 10SM CLR 13/08 A3030 -260 71 -400 040/04 RMK AO2 T01330083
93915KAEX AEX20161110090010411/10/16 09:00:31  5-MIN KAEX 101500Z 02006KT 10SM CLR 13/08 A3031 -260 71 -400 020/06 RMK AO2 T01330083
93915KAEX AEX20161110090510411/10/16 09:05:31  5-MIN KAEX 101505Z 03004KT 10SM CLR 14/08 A3030 -260 66 -400 030/04 RMK AO2 T01390078
93915KAEX AEX20161110091010411/10/16 09:10:31  5-MIN KAEX 101510Z 03004KT 10SM CLR 14/08 A3031 -260 64 -300 030/04 RMK AO2 T01440078
93915KAEX AEX20161110091510411/10/16 09:15:31  5-MIN KAEX 101515Z VRB04KT 10SM CLR 14/08 A3031 -260 64 -300 VRB/04 RMK AO2 T01440078
93915KAEX AEX20161110092010411/10/16 09:20:31  5-MIN KAEX 101520Z 01004KT 10SM CLR 14/07 A3031 -260 61 -300 010/04 RMK AO2 T01440072
93915KAEX AEX20161110092510411/10/16 09:25:31  5-MIN KAEX 101525Z VRB04KT 10SM CLR 15/08 A3031 -260 62 -200 VRB/04 RMK AO2 T01500078
93915KAEX AEX20161110093010411/10/16 09:30:31  5-MIN KAEX 101530Z 07004KT 10SM CLR 15/07 A3031 -260 59 -200 070/04 RMK AO2 T01500072
93915KAEX AEX20161110093510411/10/16 09:35:31  5-MIN KAEX 101535Z 00000KT 10SM CLR 15/08 A3031 -260 62 -200 000/00 RMK AO2 T01500078
93915KAEX AEX20161110094010411/10/16 09:40:31  5-MIN KAEX 101540Z VRB04KT 10SM CLR 16/08 A3031 -260 59 -200 VRB/04 RMK AO2 T01560078
93915KAEX AEX20161110094510411/10/16 09:45:31  5-MIN KAEX 101545Z 08004KT 10SM CLR 16/08 A3031 -260 59 -200 080/04 RMK AO2 T01560078
93915KAEX AEX20161110095011111/10/16 09:50:31  5-MIN KAEX 101550Z 07003KT 10SM CLR 16/07 A3031 -260 57 -200 060/03 RMK AO2 SLP268 T01560072
93915KAEX AEX20161110095510411/10/16 09:55:31  5-MIN KAEX 101555Z VRB04KT 10SM CLR 16/07 A3031 -260 57 -200 VRB/04 RMK AO2 T01560072
93915KAEX AEX20161110100010411/10/16 10:00:31  5-MIN KAEX 101600Z 00000KT 10SM CLR 16/08 A3031 -260 57 -100 000/00 RMK AO2 T01610078
93915KAEX AEX20161110100510411/10/16 10:05:31  5-MIN KAEX 101605Z 00000KT 10SM CLR 16/07 A3031 -270 55 -100 000/00 RMK AO2 T01610072
93915KAEX AEX20161110101010111/10/16 10:10:31  5-MIN KAEX 101610Z 08003KT 10SM CLR 17/07 A3031 -260 53 0 080/03 RMK AO2 T01670072
93915KAEX AEX20161110101510111/10/16 10:15:31  5-MIN KAEX 101615Z 00000KT 10SM CLR 17/07 A3031 -260 53 0 000/00 RMK AO2 T01670072
93915KAEX AEX20161110102010111/10/16 10:20:31  5-MIN KAEX 101620Z 00000KT 10SM CLR 17/07 A3031 -260 53 0 000/00 RMK AO2 T01670072
93915KAEX AEX20161110102510111/10/16 10:25:31  5-MIN KAEX 101625Z VRB04KT 10SM CLR 17/07 A3030 -260 51 0 VRB/04 RMK AO2 T01720072
93915KAEX AEX20161110103010111/10/16 10:30:31  5-MIN KAEX 101630Z 01004KT 10SM CLR 17/08 A3030 -250 53 0 010/04 RMK AO2 T01720078
93915KAEX AEX20161110103510311/10/16 10:35:31  5-MIN KAEX 101635Z VRB04KT 10SM CLR 18/07 A3030 -250 49 100 VRB/04 RMK AO2 T01780072
93915KAEX AEX20161110104010311/10/16 10:40:31  5-MIN KAEX 101640Z 05005KT 10SM CLR 18/07 A3030 -250 48 100 050/05 RMK AO2 T01830072
93915KAEX AEX20161110104510311/10/16 10:45:31  5-MIN KAEX 101645Z 00000KT 10SM CLR 18/07 A3030 -250 46 100 000/00 RMK AO2 T01830067
93915KAEX AEX20161110105011011/10/16 10:50:31  5-MIN KAEX 101650Z 03005KT 10SM CLR 18/07 A3029 -250 48 100 030/05 RMK AO2 SLP262 T01830072
93915KAEX AEX20161110105510311/10/16 10:55:31  5-MIN KAEX 101655Z 04004KT 10SM CLR 18/07 A3029 -240 48 100 030/04 RMK AO2 T01830072
93915KAEX AEX20161110110010311/10/16 11:00:31  5-MIN KAEX 101700Z VRB04KT 10SM CLR 19/07 A3028 -240 44 200 VRB/04 RMK AO2 T01890067
93915KAEX AEX20161110110510311/10/16 11:05:31  5-MIN KAEX 101705Z VRB05KT 10SM CLR 19/07 A3028 -240 46 200 VRB/05 RMK AO2 T01890072
93915KAEX AEX20161110111010311/10/16 11:10:31  5-MIN KAEX 101710Z VRB04KT 10SM CLR 19/07 A3028 -240 44 300 VRB/04 RMK AO2 T01940072
93915KAEX AEX20161110111510311/10/16 11:15:31  5-MIN KAEX 101715Z 00000KT 10SM CLR 19/07 A3028 -240 44 300 000/00 RMK AO2 T01940072
93915KAEX AEX20161110112010311/10/16 11:20:31  5-MIN KAEX 101720Z VRB03KT 10SM CLR 19/07 A3028 -230 44 300 VRB/03 RMK AO2 T01940072
93915KAEX AEX20161110112510311/10/16 11:25:31  5-MIN KAEX 101725Z 02003KT 10SM CLR 20/07 A3028 -230 41 300 020/03 RMK AO2 T02000067
93915KAEX AEX20161110113010311/10/16 11:30:31  5-MIN KAEX 101730Z 07007KT 10SM CLR 20/07 A3027 -230 41 300 070/07 RMK AO2 T02000067
93915KAEX AEX20161110113510311/10/16 11:35:31  5-MIN KAEX 101735Z VRB04KT 10SM CLR 19/07 A3027 -230 43 300 VRB/04 RMK AO2 T01940067
93915KAEX AEX20161110114010311/10/16 11:40:31  5-MIN KAEX 101740Z VRB05KT 10SM CLR 19/06 A3027 -230 41 300 VRB/05 RMK AO2 T01940061
93915KAEX AEX20161110114510311/10/16 11:45:31  5-MIN KAEX 101745Z 00000KT 10SM CLR 20/06 A3027 -220 40 300 000/00 RMK AO2 T02000061
93915KAEX AEX20161110115012811/10/16 11:50:31  5-MIN KAEX 101750Z 00000KT 10SM CLR 19/06 A3026 -220 41 300 000/00 RMK AO2 SLP250 T01940061 10200 20078 50017
93915KAEX AEX20161110115510311/10/16 11:55:31  5-MIN KAEX 101755Z 06006KT 10SM CLR 21/06 A3026 -220 38 400 060/06 RMK AO2 T02060061
93915KAEX AEX20161110120010311/10/16 12:00:31  5-MIN KAEX 101800Z 04007KT 10SM CLR 21/06 A3026 -210 38 400 030/07 RMK AO2 T02060061
93915KAEX AEX20161110120510311/10/16 12:05:31  5-MIN KAEX 101805Z VRB05KT 10SM CLR 20/06 A3026 -210 38 400 VRB/05 RMK AO2 T02000056
93915KAEX AEX20161110121010311/10/16 12:10:31  5-MIN KAEX 101810Z 04004KT 10SM CLR 21/06 A3025 -210 38 400 040/04 RMK AO2 T02060061
93915KAEX AEX20161110121510311/10/16 12:15:31  5-MIN KAEX 101815Z 01006KT 10SM CLR 21/06 A3025 -210 38 400 010/06 RMK AO2 T02060061
93915KAEX AEX20161110122010311/10/16 12:20:31  5-MIN KAEX 101820Z 36008KT 10SM CLR 21/06 A3025 -210 37 400 360/08 RMK AO2 T02060056
93915KAEX AEX20161110122509311/10/16 12:25:31  5-MIN KAEX 101825Z 10SM CLR 21/06 A3025 -200 38 400 M /M RMK AO2 T02060061
93915KAEX AEX20161110123010311/10/16 12:30:31  5-MIN KAEX 101830Z 01006KT 10SM CLR 21/06 A3024 -200 37 500 010/06 RMK AO2 T02110061
93915KAEX AEX20161110123510311/10/16 12:35:31  5-MIN KAEX 101835Z 00000KT 10SM CLR 21/06 A3024 -200 38 400 000/00 RMK AO2 T02060061
93915KAEX AEX20161110124010311/10/16 12:40:31  5-MIN KAEX 101840Z 35004KT 10SM CLR 21/06 A3023 -190 38 400 350/04 RMK AO2 T02060061
93915KAEX AEX20161110124510311/10/16 12:45:31  5-MIN KAEX 101845Z VRB05KT 10SM CLR 21/06 A3023 -190 37 500 VRB/05 RMK AO2 T02110061
93915KAEX AEX20161110125011011/10/16 12:50:31  5-MIN KAEX 101850Z VRB06KT 10SM CLR 21/06 A3023 -190 37 500 VRB/06 RMK AO2 SLP240 T02110061
93915KAEX AEX20161110125510311/10/16 12:55:31  5-MIN KAEX 101855Z 06005KT 10SM CLR 21/06 A3023 -180 37 500 060/05 RMK AO2 T02060056
93915KAEX AEX20161110130010311/10/16 13:00:31  5-MIN KAEX 101900Z 00000KT 10SM CLR 21/06 A3022 -180 37 500 000/00 RMK AO2 T02060056
93915KAEX AEX20161110130510311/10/16 13:05:31  5-MIN KAEX 101905Z 02007KT 10SM CLR 21/06 A3022 -180 37 500 010/07 RMK AO2 T02060056
93915KAEX AEX20161110131010311/10/16 13:10:31  5-MIN KAEX 101910Z 04003KT 10SM CLR 21/06 A3023 -190 37 500 030/03 RMK AO2 T02060056
93915KAEX AEX20161110131510311/10/16 13:15:31  5-MIN KAEX 101915Z 06004KT 10SM CLR 21/06 A3023 -190 37 500 060/04 RMK AO2 T02060056
93915KAEX AEX20161110132010311/10/16 13:20:31  5-MIN KAEX 101920Z 35003KT 10SM CLR 21/06 A3022 -180 36 500 350/03 RMK AO2 T02110056
93915KAEX AEX20161110132510311/10/16 13:25:31  5-MIN KAEX 101925Z 07006KT 10SM CLR 21/06 A3022 -180 36 500 070/06 RMK AO2 T02110056
93915KAEX AEX20161110133010311/10/16 13:30:31  5-MIN KAEX 101930Z 05004KT 10SM CLR 21/06 A3022 -180 37 500 050/04 RMK AO2 T02060056
93915KAEX AEX20161110133510311/10/16 13:35:31  5-MIN KAEX 101935Z VRB03KT 10SM CLR 21/06 A3021 -170 37 500 VRB/03 RMK AO2 T02060056
93915KAEX AEX20161110134010311/10/16 13:40:31  5-MIN KAEX 101940Z 07005KT 10SM CLR 21/06 A3021 -170 36 500 060/05 RMK AO2 T02110056
93915KAEX AEX20161110134510311/10/16 13:45:31  5-MIN KAEX 101945Z 08007KT 10SM CLR 21/06 A3021 -170 37 500 070/07 RMK AO2 T02110061
93915KAEX AEX20161110135011011/10/16 13:50:31  5-MIN KAEX 101950Z 06006KT 10SM CLR 21/06 A3021 -170 37 500 050/06 RMK AO2 SLP234 T02110061
93915KAEX AEX20161110135510311/10/16 13:55:31  5-MIN KAEX 101955Z 07005KT 10SM CLR 21/06 A3021 -170 37 500 060/05 RMK AO2 T02110061
93915KAEX AEX20161110140010311/10/16 14:00:31  5-MIN KAEX 102000Z 36005KT 10SM CLR 21/06 A3021 -170 37 500 360/05 RMK AO2 T02110061
93915KAEX AEX20161110140510311/10/16 14:05:31  5-MIN KAEX 102005Z VRB03KT 10SM CLR 21/06 A3021 -170 37 500 VRB/03 RMK AO2 T02110061
93915KAEX AEX20161110141010311/10/16 14:10:31  5-MIN KAEX 102010Z 07006KT 10SM CLR 21/06 A3021 -170 37 500 070/06 RMK AO2 T02110061
93915KAEX AEX20161110141510311/10/16 14:15:31  5-MIN KAEX 102015Z VRB05KT 10SM CLR 21/07 A3021 -170 38 500 VRB/05 RMK AO2 T02110067
93915KAEX AEX20161110142010311/10/16 14:20:31  5-MIN KAEX 102020Z 03004KT 10SM CLR 21/07 A3021 -170 38 500 020/04 RMK AO2 T02110067
93915KAEX AEX20161110142510311/10/16 14:25:31  5-MIN KAEX 102025Z 04004KT 10SM CLR 21/06 A3021 -170 38 500 030/04 RMK AO2 T02060061
93915KAEX AEX20161110143010311/10/16 14:30:31  5-MIN KAEX 102030Z 33003KT 10SM CLR 21/07 A3021 -170 38 500 330/03 RMK AO2 T02110067
93915KAEX AEX20161110143510311/10/16 14:35:31  5-MIN KAEX 102035Z 02005KT 10SM CLR 21/07 A3021 -170 40 500 020/05 RMK AO2 T02060067
93915KAEX AEX20161110144010311/10/16 14:40:31  5-MIN KAEX 102040Z 01005KT 10SM CLR 21/06 A3021 -170 38 500 010/05 RMK AO2 T02060061
93915KAEX AEX20161110144510311/10/16 14:45:31  5-MIN KAEX 102045Z 01004KT 10SM CLR 21/06 A3021 -170 38 500 010/04 RMK AO2 T02060061
93915KAEX AEX20161110145011611/10/16 14:50:31  5-MIN KAEX 102050Z 02004KT 10SM CLR 21/07 A3021 -170 40 500 020/04 RMK AO2 SLP232 T02060067 58014
93915KAEX AEX20161110145510311/10/16 14:55:31  5-MIN KAEX 102055Z 02005KT 10SM CLR 21/07 A3021 -170 40 500 020/05 RMK AO2 T02060067
93915KAEX AEX20161110150010311/10/16 15:00:31  5-MIN KAEX 102100Z 05007KT 10SM CLR 21/07 A3021 -170 40 500 050/07 RMK AO2 T02060067
93915KAEX AEX20161110150510311/10/16 15:05:31  5-MIN KAEX 102105Z 36006KT 10SM CLR 21/07 A3021 -170 40 500 360/06 RMK AO2 T02060067
93915KAEX AEX20161110151010311/10/16 15:10:31  5-MIN KAEX 102110Z 01006KT 10SM CLR 21/07 A3021 -170 40 500 010/06 RMK AO2 T02060067
93915KAEX AEX20161110151510311/10/16 15:15:31  5-MIN KAEX 102115Z 36006KT 10SM CLR 21/07 A3021 -170 41 500 360/06 RMK AO2 T02060072
93915KAEX AEX20161110152010311/10/16 15:20:31  5-MIN KAEX 102120Z 35007KT 10SM CLR 20/07 A3021 -170 43 400 350/07 RMK AO2 T02000072
93915KAEX AEX20161110152510311/10/16 15:25:31  5-MIN KAEX 102125Z 34008KT 10SM CLR 20/07 A3022 -180 43 400 340/08 RMK AO2 T02000072
93915KAEX AEX20161110153010311/10/16 15:30:31  5-MIN KAEX 102130Z 36007KT 10SM CLR 20/07 A3022 -180 43 400 360/07 RMK AO2 T02000072
93915KAEX AEX20161111014010411/11/16 01:40:31  5-MIN KAEX 110740Z 33005KT 10SM CLR 11/08 A3020 -160 83 -600 330/05 RMK AO2 T01110083
93915KAEX AEX20161111014510411/11/16 01:45:31  5-MIN KAEX 110745Z 35005KT 10SM CLR 11/08 A3019 -160 83 -600 350/05 RMK AO2 T01110083
93915KAEX AEX20161111015011111/11/16 01:50:31  5-MIN KAEX 110750Z 34005KT 10SM CLR 12/08 A3020 -160 80 -500 340/05 RMK AO2 SLP229 T01170083
93915KAEX AEX20161111015510411/11/16 01:55:31  5-MIN KAEX 110755Z 34004KT 10SM CLR 11/08 A3020 -160 83 -600 340/04 RMK AO2 T01110083
93915KAEX AEX20161111020010411/11/16 02:00:31  5-MIN KAEX 110800Z 34003KT 10SM CLR 11/08 A3020 -160 83 -600 340/03 RMK AO2 T01110083
93915KAEX AEX20161111020510411/11/16 02:05:31  5-MIN KAEX 110805Z 33004KT 10SM CLR 11/08 A3020 -160 83 -600 330/04 RMK AO2 T01110083
93915KAEX AEX20161111021010411/11/16 02:10:31  5-MIN KAEX 110810Z 32004KT 10SM CLR 11/08 A3020 -160 83 -600 310/04 RMK AO2 T01110083
93915KAEX AEX20161111021510411/11/16 02:15:31  5-MIN KAEX 110815Z 33004KT 10SM CLR 11/08 A3020 -160 80 -600 330/04 RMK AO2 T01110078
93915KAEX AEX20161111022010911/11/16 02:20:31  5-MIN KAEX 110820Z AUTO 32004KT 10SM CLR 11/08 A3020 -160 83 -600 320/04 RMK AO2 T01110083
93915KAEX AEX20161111022510911/11/16 02:25:31  5-MIN KAEX 110825Z AUTO 00000KT 10SM CLR 11/08 A3019 -150 80 -600 000/00 RMK AO2 T01110078
93915KAEX AEX20161111023010911/11/16 02:30:31  5-MIN KAEX 110830Z AUTO 33005KT 10SM CLR 11/08 A3019 -160 83 -600 330/05 RMK AO2 T01110083
93915KAEX AEX20161111023510911/11/16 02:35:31  5-MIN KAEX 110835Z AUTO 33005KT 10SM CLR 11/08 A3020 -160 83 -600 330/05 RMK AO2 T01110083
93915KAEX AEX20161111024010911/11/16 02:40:31  5-MIN KAEX 110840Z AUTO 34004KT 10SM CLR 11/08 A3020 -160 83 -600 330/04 RMK AO2 T01110083
93915KAEX AEX20161111024510911/11/16 02:45:31  5-MIN KAEX 110845Z AUTO 35003KT 10SM CLR 11/08 A3020 -160 83 -600 350/03 RMK AO2 T01110083
93915KAEX AEX20161111025012211/11/16 02:50:31  5-MIN KAEX 110850Z AUTO 35004KT 10SM CLR 11/08 A3019 -160 83 -600 350/04 RMK AO2 SLP228 T01110083 58009
93915KAEX AEX20161111025509411/11/16 02:55:31  5-MIN KAEX 110855Z AUTO 36004KT CLR M M M 360/04 RMK AO2 T01110083 FZRANO $
93915KAEX AEX20161111030510711/11/16 03:05:31  5-MIN KAEX 110905Z AUTO 02003KT 10SM 12/08 A3019 -150 80 -500 020/03 RMK AO2 T01170083 $
93915KAEX AEX20161111031010711/11/16 03:10:31  5-MIN KAEX 110910Z AUTO 00000KT 10SM 12/08 A3018 -150 80 -500 000/00 RMK AO2 T01170083 $
93915KAEX AEX20161111031510711/11/16 03:15:31  5-MIN KAEX 110915Z AUTO 00000KT 10SM 12/08 A3019 -150 80 -500 000/00 RMK AO2 T01170083 $
93915KAEX AEX20161111032010711/11/16 03:20:31  5-MIN KAEX 110920Z AUTO 00000KT 10SM 11/08 A3019 -150 83 -600 000/00 RMK AO2 T01110083 $
93915KAEX AEX20161111032510711/11/16 03:25:31  5-MIN KAEX 110925Z AUTO 00000KT 10SM 12/08 A3019 -150 77 -500 000/00 RMK AO2 T01170078 $
93915KAEX AEX20161111033011111/11/16 03:30:31  5-MIN KAEX 110930Z AUTO 00000KT 10SM CLR 12/08 A3019 -150 77 -500 000/00 RMK AO2 T01170078 $
93915KAEX AEX20161111033511111/11/16 03:35:31  5-MIN KAEX 110935Z AUTO 00000KT 10SM CLR 11/08 A3019 -150 80 -600 000/00 RMK AO2 T01110078 $
93915KAEX AEX20161111034011111/11/16 03:40:31  5-MIN KAEX 110940Z AUTO 29003KT 10SM CLR 11/08 A3019 -150 80 -600 280/03 RMK AO2 T01110078 $
93915KAEX AEX20161111034511111/11/16 03:45:31  5-MIN KAEX 110945Z AUTO 30004KT 10SM CLR 11/08 A3019 -160 80 -600 290/04 RMK AO2 T01110078 $
93915KAEX AEX20161111035011811/11/16 03:50:31  5-MIN KAEX 110950Z AUTO 30004KT 10SM CLR 11/08 A3020 -160 80 -600 300/04 RMK AO2 SLP230 T01110078 $
93915KAEX AEX20161111035511111/11/16 03:55:31  5-MIN KAEX 110955Z AUTO 29003KT 10SM CLR 11/08 A3020 -160 80 -600 290/03 RMK AO2 T01110078 $
93915KAEX AEX20161111040011111/11/16 04:00:31  5-MIN KAEX 111000Z AUTO 32004KT 10SM CLR 11/08 A3020 -160 80 -600 320/04 RMK AO2 T01110078 $
93915KAEX AEX20161111040511111/11/16 04:05:31  5-MIN KAEX 111005Z AUTO 33003KT 10SM CLR 11/08 A3020 -160 83 -600 330/03 RMK AO2 T01110083 $
93915KAEX AEX20161111041011111/11/16 04:10:31  5-MIN KAEX 111010Z AUTO 36003KT 10SM CLR 11/08 A3020 -160 83 -600 360/03 RMK AO2 T01110083 $
93915KAEX AEX20161111041511111/11/16 04:15:31  5-MIN KAEX 111015Z AUTO 00000KT 10SM CLR 11/08 A3020 -160 83 -600 000/00 RMK AO2 T01110083 $
93915KAEX AEX20161111042011111/11/16 04:20:31  5-MIN KAEX 111020Z AUTO 30003KT 10SM CLR 11/08 A3020 -160 83 -600 300/03 RMK AO2 T01110083 $
93915KAEX AEX20161111042511111/11/16 04:25:31  5-MIN KAEX 111025Z AUTO 29003KT 10SM CLR 11/08 A3020 -160 80 -600 290/03 RMK AO2 T01110078 $
93915KAEX AEX20161111043011111/11/16 04:30:31  5-MIN KAEX 111030Z AUTO 29003KT 10SM CLR 11/08 A3020 -160 80 -600 290/03 RMK AO2 T01110078 $
93915KAEX AEX20161111043511111/11/16 04:35:31  5-MIN KAEX 111035Z AUTO 30003KT 10SM CLR 11/08 A3020 -160 80 -600 300/03 RMK AO2 T01110078 $
93915KAEX AEX20161111044011111/11/16 04:40:31  5-MIN KAEX 111040Z AUTO 00000KT 10SM CLR 11/08 A3020 -160 80 -600 000/00 RMK AO2 T01110078 $
93915KAEX AEX20161111044511111/11/16 04:45:31  5-MIN KAEX 111045Z AUTO 00000KT 10SM CLR 11/08 A3020 -160 80 -600 000/00 RMK AO2 T01110078 $
93915KAEX AEX20161111045011811/11/16 04:50:31  5-MIN KAEX 111050Z AUTO 00000KT 10SM CLR 11/08 A3020 -160 83 -600 000/00 RMK AO2 SLP229 T01110083 $
93915KAEX AEX20161111045511111/11/16 04:55:31  5-MIN KAEX 111055Z AUTO 00000KT 10SM CLR 11/08 A3020 -160 83 -600 000/00 RMK AO2 T01110083 $
93915KAEX AEX20161111050011111/11/16 05:00:31  5-MIN KAEX 111100Z AUTO 00000KT 10SM CLR 11/08 A3019 -150 83 -600 000/00 RMK AO2 T01110083 $
93915KAEX AEX20161111050511111/11/16 05:05:31  5-MIN KAEX 111105Z AUTO 00000KT 10SM CLR 11/09 A3020 -160 89 -600 000/00 RMK AO2 T01060089 $
93915KAEX AEX20161111051011111/11/16 05:10:31  5-MIN KAEX 111110Z AUTO 00000KT 10SM CLR 11/08 A3020 -160 83 -600 000/00 RMK AO2 T01110083 $
93915KAEX AEX20161111051511111/11/16 05:15:31  5-MIN KAEX 111115Z AUTO 00000KT 10SM CLR 11/08 A3020 -160 83 -600 000/00 RMK AO2 T01110083 $
93915KAEX AEX20161111052011111/11/16 05:20:31  5-MIN KAEX 111120Z AUTO 00000KT 10SM CLR 11/08 A3020 -160 83 -600 000/00 RMK AO2 T01110083 $
93915KAEX AEX20161111052511111/11/16 05:25:31  5-MIN KAEX 111125Z AUTO 00000KT 10SM CLR 11/08 A3021 -170 83 -700 000/00 RMK AO2 T01060078 $
93915KAEX AEX20161111053011111/11/16 05:30:31  5-MIN KAEX 111130Z AUTO 00000KT 10SM CLR 11/08 A3021 -170 83 -700 000/00 RMK AO2 T01060078 $
93915KAEX AEX20161111053511111/11/16 05:35:31  5-MIN KAEX 111135Z AUTO 00000KT 10SM CLR 11/08 A3021 -170 80 -600 000/00 RMK AO2 T01110078 $
93915KAEX AEX20161111054011111/11/16 05:40:31  5-MIN KAEX 111140Z AUTO 00000KT 10SM CLR 11/08 A3021 -170 83 -700 000/00 RMK AO2 T01060078 $
93915KAEX AEX20161111054511111/11/16 05:45:31  5-MIN KAEX 111145Z AUTO 02003KT 10SM CLR 11/08 A3020 -160 86 -600 020/03 RMK AO2 T01060083 $
93915KAEX AEX20161111055013011/11/16 05:50:31  5-MIN KAEX 111150Z AUTO 36003KT 10SM CLR 11/09 A3020 -160 89 -600 350/03 RMK AO2 SLP230 T01060089 10117 20100 $
93915KAEX AEX20161111055511111/11/16 05:55:31  5-MIN KAEX 111155Z AUTO 00000KT 10SM CLR 11/09 A3021 -170 89 -700 000/00 RMK AO2 T01060089 $
93915KAEX AEX20161111060011111/11/16 06:00:31  5-MIN KAEX 111200Z AUTO 34003KT 10SM CLR 11/09 A3021 -170 89 -700 340/03 RMK AO2 T01060089 $
93915KAEX AEX20161111060511111/11/16 06:05:31  5-MIN KAEX 111205Z AUTO 35003KT 10SM CLR 11/09 A3021 -170 89 -700 350/03 RMK AO2 T01060089 $
93915KAEX AEX20161111061011111/11/16 06:10:31  5-MIN KAEX 111210Z AUTO 01003KT 10SM CLR 11/09 A3020 -160 89 -700 010/03 RMK AO2 T01060089 $
93915KAEX AEX20161111061511111/11/16 06:15:31  5-MIN KAEX 111215Z AUTO 00000KT 10SM CLR 11/09 A3020 -160 89 -700 000/00 RMK AO2 T01060089 $
93915KAEX AEX20161111062011111/11/16 06:20:31  5-MIN KAEX 111220Z AUTO 30003KT 10SM CLR 11/09 A3021 -170 89 -700 300/03 RMK AO2 T01060089 $
93915KAEX AEX20161111062511111/11/16 06:25:31  5-MIN KAEX 111225Z AUTO 29005KT 10SM CLR 11/08 A3021 -170 86 -700 290/05 RMK AO2 T01060083 $
93915KAEX AEX20161111063011111/11/16 06:30:31  5-MIN KAEX 111230Z AUTO 31005KT 10SM CLR 11/08 A3021 -170 86 -700 300/05 RMK AO2 T01060083 $
93915KAEX AEX20161111063511111/11/16 06:35:31  5-MIN KAEX 111235Z AUTO 31003KT 10SM CLR 11/08 A3021 -170 86 -700 310/03 RMK AO2 T01060083 $
93915KAEX AEX20161111064011111/11/16 06:40:31  5-MIN KAEX 111240Z AUTO 31003KT 10SM CLR 11/08 A3021 -170 86 -700 310/03 RMK AO2 T01060083 $
93915KAEX AEX20161111064511111/11/16 06:45:31  5-MIN KAEX 111245Z AUTO 31005KT 10SM CLR 11/08 A3022 -180 86 -700 310/05 RMK AO2 T01060083 $
93915KAEX AEX20161111065011811/11/16 06:50:31  5-MIN KAEX 111250Z AUTO 32005KT 10SM CLR 11/08 A3022 -180 86 -700 320/05 RMK AO2 SLP236 T01060083 $
93915KAEX AEX20161111065510611/11/16 06:55:31  5-MIN KAEX 111255Z 32005KT 10SM CLR 11/08 A3022 -180 86 -700 320/05 RMK AO2 T01060083 $
93915KAEX AEX20161111070010611/11/16 07:00:31  5-MIN KAEX 111300Z 32005KT 10SM CLR 11/08 A3022 -180 86 -700 320/05 RMK AO2 T01060083 $
93915KAEX AEX20161111070510611/11/16 07:05:31  5-MIN KAEX 111305Z 31003KT 10SM CLR 11/09 A3023 -190 89 -700 310/03 RMK AO2 T01060089 $
93915KAEX AEX20161111071010611/11/16 07:10:31  5-MIN KAEX 111310Z 31004KT 10SM CLR 11/08 A3023 -190 83 -600 310/04 RMK AO2 T01110083 $
93915KAEX AEX20161111071510611/11/16 07:15:31  5-MIN KAEX 111315Z 31004KT 10SM CLR 11/08 A3023 -190 83 -600 310/04 RMK AO2 T01110083 $
93915KAEX AEX20161111072010611/11/16 07:20:31  5-MIN KAEX 111320Z 33003KT 10SM CLR 11/09 A3023 -190 86 -600 330/03 RMK AO2 T01110089 $
93915KAEX AEX20161111072510611/11/16 07:25:31  5-MIN KAEX 111325Z 36003KT 10SM CLR 11/09 A3023 -190 86 -600 360/03 RMK AO2 T01110089 $
93915KAEX AEX20161111073010611/11/16 07:30:31  5-MIN KAEX 111330Z 36004KT 10SM CLR 12/09 A3022 -180 83 -500 350/04 RMK AO2 T01170089 $
93915KAEX AEX20161111073510611/11/16 07:35:31  5-MIN KAEX 111335Z 34004KT 10SM CLR 12/09 A3023 -180 83 -500 340/04 RMK AO2 T01170089 $
93915KAEX AEX20161111074010611/11/16 07:40:31  5-MIN KAEX 111340Z 33003KT 10SM CLR 12/09 A3023 -190 83 -500 330/03 RMK AO2 T01170089 $
93915KAEX AEX20161111074510611/11/16 07:45:31  5-MIN KAEX 111345Z 00000KT 10SM CLR 12/09 A3023 -190 83 -500 000/00 RMK AO2 T01170089 $
93915KAEX AEX20161111075011311/11/16 07:50:31  5-MIN KAEX 111350Z 06003KT 10SM CLR 12/09 A3023 -190 83 -500 060/03 RMK AO2 SLP240 T01170089 $
93915KAEX AEX20161111075510611/11/16 07:55:31  5-MIN KAEX 111355Z 07005KT 10SM CLR 12/09 A3023 -190 83 -500 070/05 RMK AO2 T01170089 $
93915KAEX AEX20161111080010611/11/16 08:00:31  5-MIN KAEX 111400Z 07005KT 10SM CLR 12/09 A3023 -190 80 -500 070/05 RMK AO2 T01220089 $
93915KAEX AEX20161111080510611/11/16 08:05:31  5-MIN KAEX 111405Z 08004KT 10SM CLR 12/09 A3023 -190 80 -500 080/04 RMK AO2 T01220089 $
93915KAEX AEX20161111081010611/11/16 08:10:31  5-MIN KAEX 111410Z 00000KT 10SM CLR 12/09 A3024 -190 80 -500 000/00 RMK AO2 T01220089 $
93915KAEX AEX20161111081510611/11/16 08:15:31  5-MIN KAEX 111415Z 00000KT 10SM CLR 13/09 A3025 -200 77 -400 000/00 RMK AO2 T01280089 $
93915KAEX AEX20161111082010611/11/16 08:20:31  5-MIN KAEX 111420Z 12003KT 10SM CLR 13/09 A3024 -200 77 -400 120/03 RMK AO2 T01280089 $
93915KAEX AEX20161111082510611/11/16 08:25:31  5-MIN KAEX 111425Z 09003KT 10SM CLR 13/09 A3024 -200 77 -400 090/03 RMK AO2 T01280089 $
93915KAEX AEX20161111083010611/11/16 08:30:31  5-MIN KAEX 111430Z 00000KT 10SM CLR 13/09 A3024 -200 74 -400 000/00 RMK AO2 T01330089 $
93915KAEX AEX20161111083510611/11/16 08:35:31  5-MIN KAEX 111435Z 00000KT 10SM CLR 13/09 A3024 -200 74 -400 000/00 RMK AO2 T01330089 $
93915KAEX AEX20161111084010611/11/16 08:40:31  5-MIN KAEX 111440Z 00000KT 10SM CLR 13/08 A3024 -200 71 -400 000/00 RMK AO2 T01330083 $
93915KAEX AEX20161111084510611/11/16 08:45:31  5-MIN KAEX 111445Z 00000KT 10SM CLR 13/09 A3024 -200 74 -400 000/00 RMK AO2 T01330089 $
93915KAEX AEX20161111085011311/11/16 08:50:31  5-MIN KAEX 111450Z 00000KT 10SM CLR 13/08 A3025 -200 71 -400 000/00 RMK AO2 SLP246 T01330083 $
93915KAEX AEX20161111085510611/11/16 08:55:31  5-MIN KAEX 111455Z 00000KT 10SM CLR 13/08 A3024 -200 71 -400 000/00 RMK AO2 T01330083 $
93915KAEX AEX20161111090010611/11/16 09:00:31  5-MIN KAEX 111500Z 27003KT 10SM CLR 14/08 A3025 -200 69 -300 260/03 RMK AO2 T01390083 $
93915KAEX AEX20161111090510611/11/16 09:05:31  5-MIN KAEX 111505Z 26004KT 10SM CLR 14/09 A3025 -210 71 -300 250/04 RMK AO2 T01390089 $
93915KAEX AEX20161111091010611/11/16 09:10:31  5-MIN KAEX 111510Z 00000KT 10SM CLR 14/09 A3024 -200 71 -300 000/00 RMK AO2 T01390089 $
93915KAEX AEX20161111091510611/11/16 09:15:31  5-MIN KAEX 111515Z 00000KT 10SM CLR 14/08 A3024 -200 69 -300 000/00 RMK AO2 T01390083 $
93915KAEX AEX20161111092010611/11/16 09:20:31  5-MIN KAEX 111520Z 00000KT 10SM CLR 14/08 A3023 -190 66 -200 000/00 RMK AO2 T01440083 $
93915KAEX AEX20161111092510611/11/16 09:25:31  5-MIN KAEX 111525Z 00000KT 10SM CLR 14/08 A3023 -190 66 -200 000/00 RMK AO2 T01440083 $
93915KAEX AEX20161111093010611/11/16 09:30:31  5-MIN KAEX 111530Z 00000KT 10SM CLR 15/08 A3023 -190 64 -100 000/00 RMK AO2 T01500083 $
93915KAEX AEX20161111093510611/11/16 09:35:31  5-MIN KAEX 111535Z 00000KT 10SM CLR 16/09 A3022 -180 64 -100 000/00 RMK AO2 T01560089 $
93915KAEX AEX20161111094010611/11/16 09:40:31  5-MIN KAEX 111540Z 00000KT 10SM CLR 16/09 A3023 -190 64 -100 000/00 RMK AO2 T01560089 $
93915KAEX AEX20161111094510611/11/16 09:45:31  5-MIN KAEX 111545Z 00000KT 10SM CLR 16/08 A3023 -190 62 -100 000/00 RMK AO2 T01560083 $
93915KAEX AEX20161111095011311/11/16 09:50:31  5-MIN KAEX 111550Z 30004KT 10SM CLR 16/08 A3024 -200 62 -100 300/04 RMK AO2 SLP243 T01560083 $
93915KAEX AEX20161111095510311/11/16 09:55:31  5-MIN KAEX 111555Z 31003KT 10SM CLR 16/08 A3024 -200 59 0 310/03 RMK AO2 T01610083 $
93915KAEX AEX20161111100010311/11/16 10:00:31  5-MIN KAEX 111600Z 33003KT 10SM CLR 16/08 A3023 -190 57 0 330/03 RMK AO2 T01610078 $
93915KAEX AEX20161111100510311/11/16 10:05:31  5-MIN KAEX 111605Z 00000KT 10SM CLR 16/08 A3023 -190 57 0 000/00 RMK AO2 T01610078 $
93915KAEX AEX20161111101010311/11/16 10:10:31  5-MIN KAEX 111610Z 35003KT 10SM CLR 17/08 A3023 -190 57 0 340/03 RMK AO2 T01670083 $
93915KAEX AEX20161111101510311/11/16 10:15:31  5-MIN KAEX 111615Z 33003KT 10SM CLR 17/08 A3023 -190 57 0 330/03 RMK AO2 T01670083 $
93915KAEX AEX20161111102010311/11/16 10:20:31  5-MIN KAEX 111620Z 35003KT 10SM CLR 17/08 A3023 -190 55 0 350/03 RMK AO2 T01670078 $
93915KAEX AEX20161111102510311/11/16 10:25:31  5-MIN KAEX 111625Z 01003KT 10SM CLR 17/08 A3023 -180 55 0 360/03 RMK AO2 T01670078 $
93915KAEX AEX20161111103010511/11/16 10:30:31  5-MIN KAEX 111630Z 01003KT 10SM CLR 17/08 A3022 -180 55 100 010/03 RMK AO2 T01720083 $
93915KAEX AEX20161111103510511/11/16 10:35:31  5-MIN KAEX 111635Z 03003KT 10SM CLR 18/08 A3022 -180 51 100 020/03 RMK AO2 T01780078 $
93915KAEX AEX20161111104010511/11/16 10:40:31  5-MIN KAEX 111640Z 33004KT 10SM CLR 18/08 A3022 -180 51 100 320/04 RMK AO2 T01780078 $
93915KAEX AEX20161111104510511/11/16 10:45:31  5-MIN KAEX 111645Z 34003KT 10SM CLR 18/08 A3022 -180 51 100 340/03 RMK AO2 T01780078 $
93915KAEX AEX20161111105011211/11/16 10:50:31  5-MIN KAEX 111650Z 31005KT 10SM CLR 18/08 A3022 -180 53 100 310/05 RMK AO2 SLP238 T01780083 $
93915KAEX AEX20161111105510511/11/16 10:55:31  5-MIN KAEX 111655Z 32005KT 10SM CLR 18/08 A3022 -180 52 200 310/05 RMK AO2 T01830083 $
93915KAEX AEX20161111110010511/11/16 11:00:31  5-MIN KAEX 111700Z 34006KT 10SM CLR 18/08 A3021 -170 53 100 330/06 RMK AO2 T01780083 $
93915KAEX AEX20161111110510511/11/16 11:05:31  5-MIN KAEX 111705Z 33007KT 10SM CLR 18/08 A3021 -170 53 200 330/07 RMK AO2 T01780083 $
93915KAEX AEX20161111111010511/11/16 11:10:31  5-MIN KAEX 111710Z 35008KT 10SM CLR 18/09 A3021 -170 55 200 350/08 RMK AO2 T01780089 $
93915KAEX AEX20161111111510511/11/16 11:15:31  5-MIN KAEX 111715Z 36008KT 10SM CLR 18/09 A3020 -160 55 200 360/08 RMK AO2 T01780089 $
93915KAEX AEX20161111112010511/11/16 11:20:31  5-MIN KAEX 111720Z 34005KT 10SM CLR 18/09 A3020 -160 55 200 340/05 RMK AO2 T01780089 $
93915KAEX AEX20161111112510511/11/16 11:25:31  5-MIN KAEX 111725Z 36006KT 10SM CLR 18/09 A3020 -160 54 200 360/06 RMK AO2 T01830089 $
93915KAEX AEX20161111113010511/11/16 11:30:31  5-MIN KAEX 111730Z 01006KT 10SM CLR 19/09 A3020 -160 52 300 010/06 RMK AO2 T01890089 $
93915KAEX AEX20161111113510511/11/16 11:35:31  5-MIN KAEX 111735Z 36005KT 10SM CLR 19/08 A3019 -160 50 300 360/05 RMK AO2 T01890083 $
93915KAEX AEX20161111114010511/11/16 11:40:31  5-MIN KAEX 111740Z 35005KT 10SM CLR 19/08 A3019 -150 48 400 350/05 RMK AO2 T01940083 $
93915KAEX AEX20161111114510511/11/16 11:45:31  5-MIN KAEX 111745Z 35007KT 10SM CLR 20/08 A3019 -150 46 400 350/07 RMK AO2 T02000083 $
93915KAEX AEX20161111115013011/11/16 11:50:31  5-MIN KAEX 111750Z 01008KT 10SM CLR 20/08 A3019 -150 46 400 010/08 RMK AO2 SLP226 T02000083 10200 20106 53014 $
93915KAEX AEX20161111115510511/11/16 11:55:31  5-MIN KAEX 111755Z 35007KT 10SM CLR 20/08 A3019 -150 46 400 350/07 RMK AO2 T02000083 $
93915KAEX AEX20161111120010511/11/16 12:00:31  5-MIN KAEX 111800Z 02007KT 10SM CLR 21/08 A3018 -150 45 500 020/07 RMK AO2 T02060083 $
93915KAEX AEX20161111120510511/11/16 12:05:31  5-MIN KAEX 111805Z 32007KT 10SM CLR 21/08 A3018 -150 45 500 320/07 RMK AO2 T02060083 $
93915KAEX AEX20161111121010511/11/16 12:10:31  5-MIN KAEX 111810Z 35008KT 10SM CLR 20/08 A3018 -140 45 400 350/08 RMK AO2 T02000078 $
93915KAEX AEX20161111121510511/11/16 12:15:31  5-MIN KAEX 111815Z 01007KT 10SM CLR 20/08 A3017 -140 45 500 360/07 RMK AO2 T02000078 $
93915KAEX AEX20161111122010511/11/16 12:20:31  5-MIN KAEX 111820Z 34008KT 10SM CLR 20/07 A3017 -140 43 500 340/08 RMK AO2 T02000072 $
93915KAEX AEX20161111122510511/11/16 12:25:31  5-MIN KAEX 111825Z 36007KT 10SM CLR 21/07 A3017 -130 40 500 360/07 RMK AO2 T02060067 $
93915KAEX AEX20161111123010511/11/16 12:30:31  5-MIN KAEX 111830Z VRB05KT 10SM CLR 21/07 A3017 -130 38 600 VRB/05 RMK AO2 T02110067 $
93915KAEX AEX20161111123510511/11/16 12:35:31  5-MIN KAEX 111835Z 03009KT 10SM CLR 22/06 A3017 -130 36 700 030/09 RMK AO2 T02170061 $
93915KAEX AEX20161111124010511/11/16 12:40:31  5-MIN KAEX 111840Z 03008KT 10SM CLR 22/06 A3016 -130 34 700 030/08 RMK AO2 T02170056 $
93915KAEX AEX20161111124510511/11/16 12:45:31  5-MIN KAEX 111845Z 05007KT 10SM CLR 22/05 A3016 -120 33 700 050/07 RMK AO2 T02170050 $
93915KAEX AEX20161111125011911/11/16 12:50:31  5-MIN KAEX 111850Z 01009KT 10SM CLR 22/04 A3015 -110 32 700 010/09 RMK AO2 PRESFR SLP212 T02170044 $
93915KAEX AEX20161111125510511/11/16 12:55:31  5-MIN KAEX 111855Z 01007KT 10SM CLR 22/04 A3015 -110 32 700 010/07 RMK AO2 T02170044 $
93915KAEX AEX20161111130010511/11/16 13:00:31  5-MIN KAEX 111900Z 35007KT 10SM CLR 22/04 A3014 -110 32 700 350/07 RMK AO2 T02170044 $
93915KAEX AEX20161111130510511/11/16 13:05:31  5-MIN KAEX 111905Z 35006KT 10SM CLR 22/05 A3014 -110 33 700 350/06 RMK AO2 T02170050 $
93915KAEX AEX20161111131010511/11/16 13:10:31  5-MIN KAEX 111910Z 34004KT 10SM CLR 22/04 A3014 -100 32 700 340/04 RMK AO2 T02170044 $
93915KAEX AEX20161111131510511/11/16 13:15:31  5-MIN KAEX 111915Z VRB05KT 10SM CLR 22/05 A3014 -100 33 700 VRB/05 RMK AO2 T02170050 $
93915KAEX AEX20161111132010511/11/16 13:20:31  5-MIN KAEX 111920Z VRB04KT 10SM CLR 22/05 A3014 -100 32 800 VRB/04 RMK AO2 T02220050 $
93915KAEX AEX20161111132510511/11/16 13:25:31  5-MIN KAEX 111925Z VRB03KT 10SM CLR 22/05 A3013 -100 32 800 VRB/03 RMK AO2 T02220050 $
93915KAEX AEX20161111133010511/11/16 13:30:31  5-MIN KAEX 111930Z VRB04KT 10SM CLR 22/05 A3013 -100 32 800 VRB/04 RMK AO2 T02220050 $
93915KAEX AEX20161111133509511/11/16 13:35:31  5-MIN KAEX 111935Z 10SM CLR 22/05 A3013 -100 32 800 M /M RMK AO2 T02220050 $
93915KAEX AEX20161111134010411/11/16 13:40:31  5-MIN KAEX 111940Z 34006KT 10SM CLR 23/04 A3013 -90 29 800 330/06 RMK AO2 T02280039 $
93915KAEX AEX20161111134510411/11/16 13:45:31  5-MIN KAEX 111945Z VRB03KT 10SM CLR 22/04 A3013 -90 31 800 VRB/03 RMK AO2 T02220044 $
93915KAEX AEX20161111135011111/11/16 13:50:31  5-MIN KAEX 111950Z 35005KT 10SM CLR 22/04 A3013 -90 31 800 350/05 RMK AO2 SLP205 T02220044 $
93915KAEX AEX20161111135509411/11/16 13:55:31  5-MIN KAEX 111955Z 10SM CLR 22/04 A3012 -90 30 800 M /M RMK AO2 T02220039 $
93915KAEX AEX20161111140010411/11/16 14:00:31  5-MIN KAEX 112000Z 36004KT 10SM CLR 22/04 A3012 -90 31 800 360/04 RMK AO2 T02220044 $
93915KAEX AEX20161111140510411/11/16 14:05:31  5-MIN KAEX 112005Z 01003KT 10SM CLR 22/04 A3012 -90 31 800 360/03 RMK AO2 T02220044 $
93915KAEX AEX20161111141009411/11/16 14:10:31  5-MIN KAEX 112010Z 10SM CLR 23/05 A3012 -90 31 800 M /M RMK AO2 T02280050 $
93915KAEX AEX20161111141510411/11/16 14:15:31  5-MIN KAEX 112015Z 05003KT 10SM CLR 23/05 A3012 -90 31 800 050/03 RMK AO2 T02280050 $
93915KAEX AEX20161111142010411/11/16 14:20:31  5-MIN KAEX 112020Z 06003KT 10SM CLR 22/05 A3012 -90 32 800 060/03 RMK AO2 T02220050 $
93915KAEX AEX20161111142510411/11/16 14:25:31  5-MIN KAEX 112025Z 35006KT 10SM CLR 23/04 A3012 -90 30 800 350/06 RMK AO2 T02280044 $
93915KAEX AEX20161111143010411/11/16 14:30:31  5-MIN KAEX 112030Z 35004KT 10SM CLR 23/04 A3012 -90 29 800 350/04 RMK AO2 T02280039 $
93915KAEX AEX20161111143510411/11/16 14:35:31  5-MIN KAEX 112035Z 01004KT 10SM CLR 23/04 A3012 -90 29 800 010/04 RMK AO2 T02280039 $
93915KAEX AEX20161111144010411/11/16 14:40:31  5-MIN KAEX 112040Z 34003KT 10SM CLR 23/04 A3012 -90 29 800 340/03 RMK AO2 T02280039 $
93915KAEX AEX20161111144510411/11/16 14:45:31  5-MIN KAEX 112045Z 05005KT 10SM CLR 23/04 A3012 -90 30 800 050/05 RMK AO2 T02280044 $
93915KAEX AEX20161111145011711/11/16 14:50:31  5-MIN KAEX 112050Z 00000KT 10SM CLR 23/04 A3012 -90 30 800 000/00 RMK AO2 SLP204 T02280044 58019 $
93915KAEX AEX20161111145510411/11/16 14:55:31  5-MIN KAEX 112055Z 00000KT 10SM CLR 22/04 A3012 -90 31 800 000/00 RMK AO2 T02220044 $
93915KAEX AEX20161111150010411/11/16 15:00:31  5-MIN KAEX 112100Z 00000KT 10SM CLR 22/04 A3012 -90 31 800 000/00 RMK AO2 T02220044 $
93915KAEX AEX20161111150510411/11/16 15:05:31  5-MIN KAEX 112105Z VRB03KT 10SM CLR 23/04 A3012 -90 30 800 VRB/03 RMK AO2 T02280044 $
93915KAEX AEX20161111151010411/11/16 15:10:31  5-MIN KAEX 112110Z 00000KT 10SM CLR 23/04 A3012 -90 30 800 000/00 RMK AO2 T02280044 $
93915KAEX AEX20161111151510411/11/16 15:15:31  5-MIN KAEX 112115Z 06003KT 10SM CLR 23/05 A3012 -90 31 800 060/03 RMK AO2 T02280050 $
93915KAEX AEX20161111152010411/11/16 15:20:31  5-MIN KAEX 112120Z 00000KT 10SM CLR 23/05 A3012 -90 31 800 000/00 RMK AO2 T02280050 $
93915KAEX AEX20161111152510411/11/16 15:25:31  5-MIN KAEX 112125Z 00000KT 10SM CLR 23/05 A3012 -90 31 800 000/00 RMK AO2 T02280050 $
93915KAEX AEX20161111153010411/11/16 15:30:31  5-MIN KAEX 112130Z 00000KT 10SM CLR 23/04 A3012 -90 30 800 000/00 RMK AO2 T02280044 $
93915KAEX AEX20161111153510411/11/16 15:35:31  5-MIN KAEX 112135Z 02003KT 10SM CLR 23/05 A3012 -90 31 800 020/03 RMK AO2 T02280050 $
93915KAEX AEX20161111154010411/11/16 15:40:31  5-MIN KAEX 112140Z 00000KT 10SM CLR 23/05 A3012 -90 31 800 000/00 RMK AO2 T02280050 $
93915KAEX AEX20161111154510411/11/16 15:45:31  5-MIN KAEX 112145Z 03004KT 10SM CLR 23/06 A3012 -90 32 800 030/04 RMK AO2 T02280056 $
93915KAEX AEX20161111155011111/11/16 15:50:31  5-MIN KAEX 112150Z 06003KT 10SM CLR 23/06 A3012 -90 32 800 060/03 RMK AO2 SLP204 T02280056 $
93915KAEX AEX20161111155510411/11/16 15:55:31  5-MIN KAEX 112155Z 07003KT 10SM CLR 23/06 A3012 -90 32 800 070/03 RMK AO2 T02280056 $
93915KAEX AEX20161111160010411/11/16 16:00:31  5-MIN KAEX 112200Z 05003KT 10SM CLR 23/06 A3012 -90 32 800 050/03 RMK AO2 T02280056 $
93915KAEX AEX20161111160510411/11/16 16:05:31  5-MIN KAEX 112205Z 07003KT 10SM CLR 23/06 A3012 -90 33 800 070/03 RMK AO2 T02280061 $
93915KAEX AEX20161111161010411/11/16 16:10:31  5-MIN KAEX 112210Z 00000KT 10SM CLR 23/06 A3012 -90 32 800 000/00 RMK AO2 T02280056 $
93915KAEX AEX20161111161510411/11/16 16:15:31  5-MIN KAEX 112215Z 00000KT 10SM CLR 23/06 A3012 -90 32 800 000/00 RMK AO2 T02280056 $
93915KAEX AEX20161111162010411/11/16 16:20:31  5-MIN KAEX 112220Z 00000KT 10SM CLR 23/06 A3012 -90 32 800 000/00 RMK AO2 T02280056 $
93915KAEX AEX20161111162510411/11/16 16:25:31  5-MIN KAEX 112225Z 00000KT 10SM CLR 22/06 A3012 -90 33 800 000/00 RMK AO2 T02220056 $
93915KAEX AEX20161111163010411/11/16 16:30:31  5-MIN KAEX 112230Z 00000KT 10SM CLR 22/06 A3012 -90 33 800 000/00 RMK AO2 T02220056 $
93915KAEX AEX20161111163510411/11/16 16:35:31  5-MIN KAEX 112235Z 09005KT 10SM CLR 22/06 A3012 -90 36 700 090/05 RMK AO2 T02170061 $
93915KAEX AEX20161111164010411/11/16 16:40:31  5-MIN KAEX 112240Z 10005KT 10SM CLR 22/07 A3012 -80 37 700 090/05 RMK AO2 T02170067 $
93915KAEX AEX20161111164510411/11/16 16:45:31  5-MIN KAEX 112245Z 10005KT 10SM CLR 21/07 A3012 -80 41 600 100/05 RMK AO2 T02060072 $
93915KAEX AEX20161111165011111/11/16 16:50:31  5-MIN KAEX 112250Z 11004KT 10SM CLR 20/07 A3012 -90 43 500 100/04 RMK AO2 SLP202 T02000072 $
93915KAEX AEX20161111165510411/11/16 16:55:31  5-MIN KAEX 112255Z 07003KT 10SM CLR 19/08 A3012 -90 48 400 070/03 RMK AO2 T01940083 $
93915KAEX AEX20161111170010411/11/16 17:00:31  5-MIN KAEX 112300Z 10004KT 10SM CLR 18/10 A3012 -90 58 300 100/04 RMK AO2 T01830100 $
93915KAEX AEX20161111170510411/11/16 17:05:31  5-MIN KAEX 112305Z 00000KT 10SM CLR 18/11 A3012 -90 60 300 000/00 RMK AO2 T01830106 $
93915KAEX AEX20161111171010411/11/16 17:10:31  5-MIN KAEX 112310Z 00000KT 10SM CLR 18/11 A3012 -90 62 200 000/00 RMK AO2 T01780106 $
93915KAEX AEX20161111171510411/11/16 17:15:31  5-MIN KAEX 112315Z 00000KT 10SM CLR 18/11 A3013 -90 62 200 000/00 RMK AO2 T01780106 $
93915KAEX AEX20161111172010411/11/16 17:20:31  5-MIN KAEX 112320Z 00000KT 10SM CLR 17/10 A3012 -90 64 100 000/00 RMK AO2 T01670100 $
93915KAEX AEX20161111172510411/11/16 17:25:31  5-MIN KAEX 112325Z 00000KT 10SM CLR 18/09 A3012 -90 58 200 000/00 RMK AO2 T01780094 $
93915KAEX AEX20161111173010411/11/16 17:30:31  5-MIN KAEX 112330Z 00000KT 10SM CLR 18/08 A3012 -90 51 200 000/00 RMK AO2 T01780078 $
93915KAEX AEX20161111173510411/11/16 17:35:31  5-MIN KAEX 112335Z 00000KT 10SM CLR 17/09 A3013 -90 60 100 000/00 RMK AO2 T01670089 $
93915KAEX AEX20161111174010211/11/16 17:40:31  5-MIN KAEX 112340Z 00000KT 10SM CLR 16/10 A3013 -90 67 0 000/00 RMK AO2 T01610100 $
93915KAEX AEX20161111174510511/11/16 17:45:31  5-MIN KAEX 112345Z 00000KT 10SM CLR 17/09 A3013 -100 60 100 000/00 RMK AO2 T01670089 $
93915KAEX AEX20161111175013011/11/16 17:50:31  5-MIN KAEX 112350Z 00000KT 10SM CLR 17/08 A3013 -100 57 100 000/00 RMK AO2 SLP207 T01670083 10228 20161 56022 $
93915KAEX AEX20161111175510311/11/16 17:55:31  5-MIN KAEX 112355Z 00000KT 10SM CLR 16/09 A3013 -100 67 0 000/00 RMK AO2 T01560094 $
93915KAEX AEX20161111180010311/11/16 18:00:31  5-MIN KAEX 120000Z 00000KT 10SM CLR 15/09 A3013 -100 69 0 000/00 RMK AO2 T01500094 $
93915KAEX AEX20161111180510311/11/16 18:05:31  5-MIN KAEX 120005Z 00000KT 10SM CLR 15/09 A3013 -100 69 0 000/00 RMK AO2 T01500094 $
93915KAEX AEX20161111181010311/11/16 18:10:31  5-MIN KAEX 120010Z 00000KT 10SM CLR 15/09 A3013 -100 69 0 000/00 RMK AO2 T01500094 $
93915KAEX AEX20161111181510311/11/16 18:15:31  5-MIN KAEX 120015Z 00000KT 10SM CLR 15/09 A3014 -100 69 0 000/00 RMK AO2 T01500094 $
93915KAEX AEX20161111182010611/11/16 18:20:31  5-MIN KAEX 120020Z 00000KT 10SM CLR 14/09 A3014 -110 72 -100 000/00 RMK AO2 T01440094 $
93915KAEX AEX20161111182510611/11/16 18:25:31  5-MIN KAEX 120025Z 00000KT 10SM CLR 14/09 A3014 -110 72 -100 000/00 RMK AO2 T01440094 $
93915KAEX AEX20161111183010611/11/16 18:30:31  5-MIN KAEX 120030Z 23003KT 10SM CLR 14/08 A3014 -110 66 -100 230/03 RMK AO2 T01440083 $
93915KAEX AEX20161111183510311/11/16 18:35:31  5-MIN KAEX 120035Z 17003KT 10SM CLR 15/08 A3014 -110 62 0 170/03 RMK AO2 T01500078 $
93915KAEX AEX20161111184010611/11/16 18:40:31  5-MIN KAEX 120040Z 00000KT 10SM CLR 14/08 A3014 -110 66 -200 000/00 RMK AO2 T01390078 $
93915KAEX AEX20161111184510611/11/16 18:45:31  5-MIN KAEX 120045Z 00000KT 10SM CLR 14/08 A3014 -110 66 -100 000/00 RMK AO2 T01440083 $
93915KAEX AEX20161111185011311/11/16 18:50:31  5-MIN KAEX 120050Z 00000KT 10SM CLR 14/09 A3014 -110 71 -200 000/00 RMK AO2 SLP211 T01390089 $
93915KAEX AEX20161111185510611/11/16 18:55:31  5-MIN KAEX 120055Z 00000KT 10SM CLR 14/09 A3014 -110 74 -200 000/00 RMK AO2 T01390094 $
93915KAEX AEX20161111190010611/11/16 19:00:31  5-MIN KAEX 120100Z 00000KT 10SM CLR 14/09 A3014 -110 71 -200 000/00 RMK AO2 T01390089 $
93915KAEX AEX20161111190510611/11/16 19:05:31  5-MIN KAEX 120105Z 00000KT 10SM CLR 14/09 A3014 -110 71 -200 000/00 RMK AO2 T01390089 $
93915KAEX AEX20161111191010611/11/16 19:10:31  5-MIN KAEX 120110Z 00000KT 10SM CLR 13/09 A3015 -110 74 -300 000/00 RMK AO2 T01330089 $
93915KAEX AEX20161111191510611/11/16 19:15:31  5-MIN KAEX 120115Z 00000KT 10SM CLR 14/09 A3015 -120 71 -200 000/00 RMK AO2 T01390089 $
93915KAEX AEX20161111192010611/11/16 19:20:31  5-MIN KAEX 120120Z 00000KT 10SM CLR 13/08 A3015 -120 71 -300 000/00 RMK AO2 T01330083 $
93915KAEX AEX20161111192510611/11/16 19:25:31  5-MIN KAEX 120125Z 00000KT 10SM CLR 13/09 A3016 -120 74 -300 000/00 RMK AO2 T01330089 $
93915KAEX AEX20161111193010611/11/16 19:30:31  5-MIN KAEX 120130Z 00000KT 10SM CLR 13/07 A3016 -120 69 -300 000/00 RMK AO2 T01280072 $
93915KAEX AEX20161111193510611/11/16 19:35:31  5-MIN KAEX 120135Z 00000KT 10SM CLR 13/06 A3016 -120 63 -300 000/00 RMK AO2 T01280061 $
93915KAEX AEX20161111194010611/11/16 19:40:31  5-MIN KAEX 120140Z 00000KT 10SM CLR 13/08 A3016 -120 74 -300 000/00 RMK AO2 T01280083 $
93915KAEX AEX20161111194510611/11/16 19:45:31  5-MIN KAEX 120145Z 00000KT 10SM CLR 13/08 A3016 -120 71 -300 000/00 RMK AO2 T01330083 $
93915KAEX AEX20161111195011311/11/16 19:50:31  5-MIN KAEX 120150Z 00000KT 10SM CLR 13/09 A3016 -120 77 -300 000/00 RMK AO2 SLP216 T01280089 $
93915KAEX AEX20161111195510611/11/16 19:55:31  5-MIN KAEX 120155Z 00000KT 10SM CLR 13/08 A3016 -120 74 -300 000/00 RMK AO2 T01280083 $
93915KAEX AEX20161111200010611/11/16 20:00:31  5-MIN KAEX 120200Z 00000KT 10SM CLR 13/08 A3016 -120 74 -300 000/00 RMK AO2 T01280083 $
93915KAEX AEX20161111200510611/11/16 20:05:31  5-MIN KAEX 120205Z 00000KT 10SM CLR 13/09 A3015 -120 77 -300 000/00 RMK AO2 T01280089 $
93915KAEX AEX20161111201010611/11/16 20:10:31  5-MIN KAEX 120210Z 00000KT 10SM CLR 12/08 A3016 -120 77 -400 000/00 RMK AO2 T01220083 $
93915KAEX AEX20161111201510611/11/16 20:15:31  5-MIN KAEX 120215Z 00000KT 10SM CLR 12/09 A3016 -120 80 -400 000/00 RMK AO2 T01220089 $
93915KAEX AEX20161111202010611/11/16 20:20:31  5-MIN KAEX 120220Z 00000KT 10SM CLR 12/09 A3016 -120 80 -400 000/00 RMK AO2 T01220089 $
93915KAEX AEX20161111202510611/11/16 20:25:31  5-MIN KAEX 120225Z 00000KT 10SM CLR 12/09 A3016 -130 80 -400 000/00 RMK AO2 T01220089 $
93915KAEX AEX20161111203010611/11/16 20:30:31  5-MIN KAEX 120230Z 00000KT 10SM CLR 12/09 A3016 -130 80 -400 000/00 RMK AO2 T01220089 $
93915KAEX AEX20161111203510611/11/16 20:35:31  5-MIN KAEX 120235Z 00000KT 10SM CLR 12/08 A3016 -130 77 -500 000/00 RMK AO2 T01170078 $
93915KAEX AEX20161111204010611/11/16 20:40:31  5-MIN KAEX 120240Z 00000KT 10SM CLR 12/07 A3017 -130 74 -500 000/00 RMK AO2 T01170072 $
93915KAEX AEX20161111204510611/11/16 20:45:31  5-MIN KAEX 120245Z 00000KT 10SM CLR 12/06 A3017 -130 68 -500 000/00 RMK AO2 T01170061 $
93915KAEX AEX20161111205011911/11/16 20:50:31  5-MIN KAEX 120250Z 00000KT 10SM CLR 12/07 A3017 -130 71 -400 000/00 RMK AO2 SLP220 T01220072 53004 $
93915KAEX AEX20161111205510611/11/16 20:55:31  5-MIN KAEX 120255Z 00000KT 10SM CLR 12/07 A3017 -130 74 -500 000/00 RMK AO2 T01170072 $
93915KAEX AEX20161111210010611/11/16 21:00:31  5-MIN KAEX 120300Z 00000KT 10SM CLR 12/07 A3017 -130 71 -500 000/00 RMK AO2 T01170067 $
93915KAEX AEX20161111210510611/11/16 21:05:31  5-MIN KAEX 120305Z 00000KT 10SM CLR 12/08 A3017 -130 77 -500 000/00 RMK AO2 T01170078 $
93915KAEX AEX20161111211010511/11/16 21:10:31  5-MIN KAEX 120310Z 00000KT 8SM CLR 12/07 A3016 -130 74 -500 000/00 RMK AO2 T01170072 $
93915KAEX AEX20161111211510511/11/16 21:15:31  5-MIN KAEX 120315Z 00000KT 8SM CLR 12/08 A3016 -130 74 -400 000/00 RMK AO2 T01220078 $
93915KAEX AEX20161111212010611/11/16 21:20:31  5-MIN KAEX 120320Z 00000KT 10SM CLR 12/08 A3016 -130 80 -500 000/00 RMK AO2 T01170083 $
93915KAEX AEX20161111212510611/11/16 21:25:31  5-MIN KAEX 120325Z 00000KT 10SM CLR 12/08 A3016 -130 80 -500 000/00 RMK AO2 T01170083 $
93915KAEX AEX20161111213010611/11/16 21:30:31  5-MIN KAEX 120330Z 00000KT 10SM CLR 12/08 A3017 -130 80 -500 000/00 RMK AO2 T01170083 $
93915KAEX AEX20161111213510611/11/16 21:35:31  5-MIN KAEX 120335Z 00000KT 10SM CLR 12/08 A3016 -130 80 -500 000/00 RMK AO2 T01170083 $
93915KAEX AEX20161111214010611/11/16 21:40:31  5-MIN KAEX 120340Z 00000KT 10SM CLR 12/09 A3016 -130 83 -500 000/00 RMK AO2 T01170089 $
93915KAEX AEX20161111214510611/11/16 21:45:31  5-MIN KAEX 120345Z 00000KT 10SM CLR 12/09 A3016 -130 80 -400 000/00 RMK AO2 T01220089 $
93915KAEX AEX20161111215011311/11/16 21:50:31  5-MIN KAEX 120350Z 00000KT 10SM CLR 12/09 A3016 -130 80 -400 000/00 RMK AO2 SLP217 T01220089 $
93915KAEX AEX20161111215510611/11/16 21:55:31  5-MIN KAEX 120355Z 00000KT 10SM CLR 12/09 A3016 -120 83 -500 000/00 RMK AO2 T01170089 $
93915KAEX AEX20161111220010611/11/16 22:00:31  5-MIN KAEX 120400Z 00000KT 10SM CLR 12/09 A3016 -120 83 -400 000/00 RMK AO2 T01220094 $
93915KAEX AEX20161111220510611/11/16 22:05:31  5-MIN KAEX 120405Z 00000KT 10SM CLR 12/09 A3016 -120 83 -400 000/00 RMK AO2 T01220094 $
93915KAEX AEX20161111221010611/11/16 22:10:31  5-MIN KAEX 120410Z 00000KT 10SM CLR 12/09 A3016 -120 83 -400 000/00 RMK AO2 T01220094 $
93915KAEX AEX20161111221510611/11/16 22:15:31  5-MIN KAEX 120415Z 00000KT 10SM CLR 12/10 A3016 -120 86 -400 000/00 RMK AO2 T01220100 $
93915KAEX AEX20161111222010611/11/16 22:20:31  5-MIN KAEX 120420Z 00000KT 10SM CLR 12/10 A3016 -120 86 -400 000/00 RMK AO2 T01220100 $
93915KAEX AEX20161111222510611/11/16 22:25:31  5-MIN KAEX 120425Z 00000KT 10SM CLR 12/10 A3016 -130 86 -400 000/00 RMK AO2 T01220100 $
93915KAEX AEX20161111223010611/11/16 22:30:31  5-MIN KAEX 120430Z 00000KT 10SM CLR 12/10 A3016 -130 86 -400 000/00 RMK AO2 T01220100 $
93915KAEX AEX20161111223510611/11/16 22:35:31  5-MIN KAEX 120435Z 00000KT 10SM CLR 12/11 A3016 -120 89 -400 000/00 RMK AO2 T01220106 $
93915KAEX AEX20161111224010611/11/16 22:40:31  5-MIN KAEX 120440Z 00000KT 10SM CLR 13/11 A3016 -120 86 -300 000/00 RMK AO2 T01280106 $
93915KAEX AEX20161111224510611/11/16 22:45:31  5-MIN KAEX 120445Z 00000KT 10SM CLR 13/11 A3016 -120 86 -300 000/00 RMK AO2 T01280106 $
93915KAEX AEX20161111225011311/11/16 22:50:31  5-MIN KAEX 120450Z 00000KT 10SM CLR 13/11 A3015 -120 86 -300 000/00 RMK AO2 SLP215 T01280106 $
93915KAEX AEX20161111225510611/11/16 22:55:31  5-MIN KAEX 120455Z 00000KT 10SM CLR 13/10 A3015 -120 83 -300 000/00 RMK AO2 T01280100 $
93915KAEX AEX20161111230010611/11/16 23:00:31  5-MIN KAEX 120500Z 00000KT 10SM CLR 13/10 A3015 -120 83 -300 000/00 RMK AO2 T01280100 $
93915KAEX AEX20161111230510611/11/16 23:05:31  5-MIN KAEX 120505Z 00000KT 10SM CLR 13/10 A3015 -120 80 -300 000/00 RMK AO2 T01330100 $
93915KAEX AEX20161111231010611/11/16 23:10:31  5-MIN KAEX 120510Z 00000KT 10SM CLR 13/10 A3015 -120 80 -300 000/00 RMK AO2 T01330100 $
93915KAEX AEX20161111231510611/11/16 23:15:31  5-MIN KAEX 120515Z 00000KT 10SM CLR 13/11 A3015 -120 83 -300 000/00 RMK AO2 T01330106 $
93915KAEX AEX20161111232010611/11/16 23:20:31  5-MIN KAEX 120520Z 00000KT 10SM CLR 13/11 A3015 -120 86 -300 000/00 RMK AO2 T01280106 $
93915KAEX AEX20161111232510611/11/16 23:25:31  5-MIN KAEX 120525Z 00000KT 10SM CLR 13/11 A3015 -120 86 -300 000/00 RMK AO2 T01280106 $
93915KAEX AEX20161111233010611/11/16 23:30:31  5-MIN KAEX 120530Z 00000KT 10SM CLR 13/11 A3015 -120 86 -300 000/00 RMK AO2 T01280106 $
93915KAEX AEX20161111233510611/11/16 23:35:31  5-MIN KAEX 120535Z 00000KT 10SM CLR 13/11 A3015 -120 89 -300 000/00 RMK AO2 T01280111 $
93915KAEX AEX20161111234010611/11/16 23:40:31  5-MIN KAEX 120540Z 00000KT 10SM CLR 13/11 A3015 -120 89 -300 000/00 RMK AO2 T01280111 $
93915KAEX AEX20161111234510611/11/16 23:45:31  5-MIN KAEX 120545Z 00000KT 10SM CLR 13/11 A3015 -120 89 -300 000/00 RMK AO2 T01280111 $
93915KAEX AEX20161111235014111/11/16 23:50:31  5-MIN KAEX 120550Z 00000KT 10SM CLR 13/11 A3015 -110 89 -300 000/00 RMK AO2 SLP213 T01280111 10161 20117 402280100 53012 $
93915KAEX AEX20161111235510611/11/16 23:55:31  5-MIN KAEX 120555Z 00000KT 10SM CLR 13/11 A3015 -120 86 -300 000/00 RMK AO2 T01280106 $
93915KAEX AEX20161112000010611/12/16 00:00:31  5-MIN KAEX 120600Z 00000KT 10SM CLR 13/11 A3015 -110 86 -300 000/00 RMK AO2 T01280106 $
93915KAEX AEX20161112000510611/12/16 00:05:31  5-MIN KAEX 120605Z 00000KT 10SM CLR 13/11 A3015 -120 83 -300 000/00 RMK AO2 T01330106 $
93915KAEX AEX20161112001010611/12/16 00:10:31  5-MIN KAEX 120610Z 00000KT 10SM CLR 13/10 A3015 -120 80 -300 000/00 RMK AO2 T01330100 $
93915KAEX AEX20161112001510611/12/16 00:15:31  5-MIN KAEX 120615Z 00000KT 10SM CLR 13/08 A3015 -110 71 -300 000/00 RMK AO2 T01330083 $
93915KAEX AEX20161112002010611/12/16 00:20:31  5-MIN KAEX 120620Z 00000KT 10SM CLR 13/08 A3015 -110 71 -300 000/00 RMK AO2 T01330083 $
93915KAEX AEX20161112002510611/12/16 00:25:31  5-MIN KAEX 120625Z 00000KT 10SM CLR 13/09 A3015 -120 74 -300 000/00 RMK AO2 T01330089 $
93915KAEX AEX20161112003010611/12/16 00:30:31  5-MIN KAEX 120630Z 00000KT 10SM CLR 13/08 A3015 -120 74 -300 000/00 RMK AO2 T01280083 $
93915KAEX AEX20161112003510611/12/16 00:35:31  5-MIN KAEX 120635Z 00000KT 10SM CLR 13/08 A3015 -120 74 -300 000/00 RMK AO2 T01280083 $
93915KAEX AEX20161112004010611/12/16 00:40:31  5-MIN KAEX 120640Z 00000KT 10SM CLR 13/08 A3015 -110 74 -300 000/00 RMK AO2 T01280083 $
93915KAEX AEX20161112004510611/12/16 00:45:31  5-MIN KAEX 120645Z 33003KT 10SM CLR 13/08 A3014 -110 74 -300 330/03 RMK AO2 T01280083 $
93915KAEX AEX20161112005011311/12/16 00:50:31  5-MIN KAEX 120650Z 33004KT 10SM CLR 13/08 A3015 -110 74 -300 320/04 RMK AO2 SLP212 T01280083 $
93915KAEX AEX20161112005510611/12/16 00:55:31  5-MIN KAEX 120655Z 31005KT 10SM CLR 12/08 A3015 -110 80 -500 310/05 RMK AO2 T01170083 $
93915KAEX AEX20161112010010611/12/16 01:00:31  5-MIN KAEX 120700Z 31004KT 10SM CLR 12/08 A3015 -120 77 -500 310/04 RMK AO2 T01170078 $
93915KAEX AEX20161112010510611/12/16 01:05:31  5-MIN KAEX 120705Z 29004KT 10SM CLR 12/07 A3015 -120 71 -400 290/04 RMK AO2 T01220072 $
93915KAEX AEX20161112011010611/12/16 01:10:31  5-MIN KAEX 120710Z 31003KT 10SM CLR 12/07 A3015 -120 68 -400 310/03 RMK AO2 T01220067 $
93915KAEX AEX20161112011510611/12/16 01:15:31  5-MIN KAEX 120715Z 30003KT 10SM CLR 12/07 A3015 -120 68 -400 300/03 RMK AO2 T01220067 $
93915KAEX AEX20161112012010611/12/16 01:20:31  5-MIN KAEX 120720Z 00000KT 10SM CLR 12/08 A3015 -120 74 -400 000/00 RMK AO2 T01220078 $
93915KAEX AEX20161112012510611/12/16 01:25:31  5-MIN KAEX 120725Z 00000KT 10SM CLR 13/09 A3015 -110 77 -300 000/00 RMK AO2 T01280089 $
93915KAEX AEX20161112013010611/12/16 01:30:31  5-MIN KAEX 120730Z 00000KT 10SM CLR 13/09 A3015 -110 77 -300 000/00 RMK AO2 T01280089 $
93915KAEX AEX20161112013510611/12/16 01:35:31  5-MIN KAEX 120735Z 00000KT 10SM CLR 13/09 A3015 -110 80 -300 000/00 RMK AO2 T01280094 $
93915KAEX AEX20161112014010611/12/16 01:40:31  5-MIN KAEX 120740Z 00000KT 10SM CLR 12/09 A3014 -110 83 -400 000/00 RMK AO2 T01220094 $
93915KAEX AEX20161112014510611/12/16 01:45:31  5-MIN KAEX 120745Z 00000KT 10SM CLR 12/09 A3015 -110 83 -400 000/00 RMK AO2 T01220094 $
93915KAEX AEX20161112015011311/12/16 01:50:31  5-MIN KAEX 120750Z 00000KT 10SM CLR 12/09 A3015 -120 83 -400 000/00 RMK AO2 SLP214 T01220094 $
93915KAEX AEX20161112015510611/12/16 01:55:31  5-MIN KAEX 120755Z 00000KT 10SM CLR 12/09 A3015 -120 83 -400 000/00 RMK AO2 T01220094 $
93915KAEX AEX20161112020010611/12/16 02:00:31  5-MIN KAEX 120800Z 00000KT 10SM CLR 12/09 A3015 -120 83 -500 000/00 RMK AO2 T01170089 $
93915KAEX AEX20161112020510611/12/16 02:05:31  5-MIN KAEX 120805Z 00000KT 10SM CLR 12/09 A3015 -120 86 -500 000/00 RMK AO2 T01170094 $
93915KAEX AEX20161112021010611/12/16 02:10:31  5-MIN KAEX 120810Z 00000KT 10SM CLR 12/09 A3015 -120 86 -500 000/00 RMK AO2 T01170094 $
93915KAEX AEX20161112021510611/12/16 02:15:31  5-MIN KAEX 120815Z 00000KT 10SM CLR 12/09 A3015 -120 86 -500 000/00 RMK AO2 T01170094 $
93915KAEX AEX20161112022010611/12/16 02:20:31  5-MIN KAEX 120820Z 00000KT 10SM CLR 12/09 A3015 -110 86 -500 000/00 RMK AO2 T01170094 $
93915KAEX AEX20161112022510611/12/16 02:25:31  5-MIN KAEX 120825Z 00000KT 10SM CLR 12/09 A3015 -110 86 -500 000/00 RMK AO2 T01170094 $
93915KAEX AEX20161112023010611/12/16 02:30:31  5-MIN KAEX 120830Z 00000KT 10SM CLR 11/09 A3015 -110 89 -500 000/00 RMK AO2 T01110094 $
93915KAEX AEX20161112023510611/12/16 02:35:31  5-MIN KAEX 120835Z 00000KT 10SM CLR 11/09 A3015 -110 89 -500 000/00 RMK AO2 T01110094 $
93915KAEX AEX20161112024010611/12/16 02:40:31  5-MIN KAEX 120840Z 00000KT 10SM CLR 11/09 A3014 -110 89 -500 000/00 RMK AO2 T01110094 $
93915KAEX AEX20161112024510611/12/16 02:45:31  5-MIN KAEX 120845Z 00000KT 10SM CLR 11/10 A3014 -110 93 -500 000/00 RMK AO2 T01110100 $
93915KAEX AEX20161112025011911/12/16 02:50:31  5-MIN KAEX 120850Z 00000KT 10SM CLR 11/10 A3014 -110 93 -500 000/00 RMK AO2 SLP211 T01110100 56007 $
93915KAEX AEX20161112025510611/12/16 02:55:31  5-MIN KAEX 120855Z 00000KT 10SM CLR 11/10 A3014 -110 93 -500 000/00 RMK AO2 T01110100 $
93915KAEX AEX20161112030010611/12/16 03:00:31  5-MIN KAEX 120900Z 00000KT 10SM CLR 11/10 A3014 -110 93 -500 000/00 RMK AO2 T01110100 $
93915KAEX AEX20161112030510611/12/16 03:05:31  5-MIN KAEX 120905Z 32003KT 10SM CLR 11/09 A3014 -110 93 -600 320/03 RMK AO2 T01060094 $
93915KAEX AEX20161112031010611/12/16 03:10:31  5-MIN KAEX 120910Z 31003KT 10SM CLR 11/09 A3014 -110 93 -600 310/03 RMK AO2 T01060094 $
93915KAEX AEX20161112031510611/12/16 03:15:31  5-MIN KAEX 120915Z 30003KT 10SM CLR 11/08 A3015 -110 86 -600 300/03 RMK AO2 T01060083 $
93915KAEX AEX20161112032010611/12/16 03:20:31  5-MIN KAEX 120920Z 31003KT 10SM CLR 11/08 A3015 -110 80 -500 310/03 RMK AO2 T01110078 $
93915KAEX AEX20161112032510611/12/16 03:25:31  5-MIN KAEX 120925Z 31003KT 10SM CLR 11/07 A3015 -110 77 -500 310/03 RMK AO2 T01110072 $
93915KAEX AEX20161112033010611/12/16 03:30:31  5-MIN KAEX 120930Z 30003KT 10SM CLR 11/08 A3015 -110 80 -500 300/03 RMK AO2 T01110078 $
93915KAEX AEX20161112033510611/12/16 03:35:31  5-MIN KAEX 120935Z 30003KT 10SM CLR 12/08 A3015 -110 80 -500 300/03 RMK AO2 T01170083 $
93915KAEX AEX20161112034010611/12/16 03:40:31  5-MIN KAEX 120940Z 29003KT 10SM CLR 12/08 A3015 -110 80 -500 290/03 RMK AO2 T01170083 $
93915KAEX AEX20161112034510611/12/16 03:45:31  5-MIN KAEX 120945Z 28003KT 10SM CLR 12/08 A3015 -110 80 -500 280/03 RMK AO2 T01170083 $
93915KAEX AEX20161112035011311/12/16 03:50:31  5-MIN KAEX 120950Z 00000KT 10SM CLR 12/08 A3014 -110 80 -500 000/00 RMK AO2 SLP211 T01170083 $
93915KAEX AEX20161112035510611/12/16 03:55:31  5-MIN KAEX 120955Z 00000KT 10SM CLR 12/08 A3014 -110 80 -500 000/00 RMK AO2 T01170083 $
93915KAEX AEX20161112040010611/12/16 04:00:31  5-MIN KAEX 121000Z 00000KT 10SM CLR 12/08 A3014 -110 80 -500 000/00 RMK AO2 T01170083 $
93915KAEX AEX20161112040510611/12/16 04:05:31  5-MIN KAEX 121005Z 00000KT 10SM CLR 12/08 A3015 -110 80 -500 000/00 RMK AO2 T01170083 $
93915KAEX AEX20161112041010611/12/16 04:10:31  5-MIN KAEX 121010Z 00000KT 10SM CLR 12/09 A3015 -110 80 -400 000/00 RMK AO2 T01220089 $
93915KAEX AEX20161112041510611/12/16 04:15:31  5-MIN KAEX 121015Z 00000KT 10SM CLR 12/09 A3015 -110 80 -400 000/00 RMK AO2 T01220089 $
93915KAEX AEX20161112042010611/12/16 04:20:31  5-MIN KAEX 121020Z 00000KT 10SM CLR 12/09 A3015 -120 80 -400 000/00 RMK AO2 T01220089 $
93915KAEX AEX20161112042510611/12/16 04:25:31  5-MIN KAEX 121025Z 00000KT 10SM CLR 12/09 A3015 -110 83 -400 000/00 RMK AO2 T01220094 $
93915KAEX AEX20161112043010611/12/16 04:30:31  5-MIN KAEX 121030Z 29003KT 10SM CLR 12/09 A3015 -110 83 -400 290/03 RMK AO2 T01220094 $
93915KAEX AEX20161112043510611/12/16 04:35:31  5-MIN KAEX 121035Z 00000KT 10SM CLR 12/09 A3015 -110 83 -400 000/00 RMK AO2 T01220094 $
93915KAEX AEX20161112044010611/12/16 04:40:31  5-MIN KAEX 121040Z 28003KT 10SM CLR 12/09 A3015 -120 83 -400 280/03 RMK AO2 T01220094 $
93915KAEX AEX20161112044510611/12/16 04:45:31  5-MIN KAEX 121045Z 27003KT 10SM CLR 12/09 A3015 -120 83 -400 270/03 RMK AO2 T01220094 $
93915KAEX AEX20161112045011311/12/16 04:50:31  5-MIN KAEX 121050Z 00000KT 10SM CLR 12/09 A3016 -120 80 -400 000/00 RMK AO2 SLP215 T01220089 $
93915KAEX AEX20161112045510611/12/16 04:55:31  5-MIN KAEX 121055Z 00000KT 10SM CLR 12/09 A3016 -120 80 -400 000/00 RMK AO2 T01220089 $
93915KAEX AEX20161112050010611/12/16 05:00:31  5-MIN KAEX 121100Z 00000KT 10SM CLR 12/09 A3016 -120 83 -500 000/00 RMK AO2 T01170089 $
93915KAEX AEX20161112050510611/12/16 05:05:31  5-MIN KAEX 121105Z 00000KT 10SM CLR 12/09 A3016 -120 83 -500 000/00 RMK AO2 T01170089 $
93915KAEX AEX20161112051010611/12/16 05:10:31  5-MIN KAEX 121110Z 00000KT 10SM CLR 11/09 A3016 -120 86 -500 000/00 RMK AO2 T01110089 $
93915KAEX AEX20161112051510611/12/16 05:15:31  5-MIN KAEX 121115Z 00000KT 10SM CLR 11/09 A3016 -120 89 -600 000/00 RMK AO2 T01060089 $
93915KAEX AEX20161112052010611/12/16 05:20:31  5-MIN KAEX 121120Z 00000KT 10SM CLR 11/09 A3016 -120 89 -500 000/00 RMK AO2 T01110094 $
93915KAEX AEX20161112052510611/12/16 05:25:31  5-MIN KAEX 121125Z 36003KT 10SM CLR 11/09 A3016 -130 93 -600 360/03 RMK AO2 T01060094 $
93915KAEX AEX20161112053010611/12/16 05:30:31  5-MIN KAEX 121130Z 35004KT 10SM CLR 11/09 A3016 -130 93 -600 350/04 RMK AO2 T01060094 $
93915KAEX AEX20161112053510611/12/16 05:35:31  5-MIN KAEX 121135Z 01004KT 10SM CLR 11/09 A3016 -130 93 -600 010/04 RMK AO2 T01060094 $
93915KAEX AEX20161112054010611/12/16 05:40:31  5-MIN KAEX 121140Z 01005KT 10SM CLR 11/09 A3016 -130 89 -500 010/05 RMK AO2 T01110094 $
93915KAEX AEX20161112054510611/12/16 05:45:31  5-MIN KAEX 121145Z 01005KT 10SM CLR 12/09 A3016 -130 86 -500 010/05 RMK AO2 T01170094 $
93915KAEX AEX20161112055013111/12/16 05:50:31  5-MIN KAEX 121150Z 02005KT 10SM CLR 12/09 A3016 -130 86 -500 020/05 RMK AO2 SLP218 T01170094 10133 20106 58002 $
93915KAEX AEX20161112055510611/12/16 05:55:31  5-MIN KAEX 121155Z 02003KT 10SM CLR 12/09 A3016 -130 83 -500 020/03 RMK AO2 T01170089 $
93915KAEX AEX20161112060010611/12/16 06:00:31  5-MIN KAEX 121200Z 03003KT 10SM CLR 12/09 A3017 -130 83 -500 020/03 RMK AO2 T01170089 $
93915KAEX AEX20161112060510611/12/16 06:05:31  5-MIN KAEX 121205Z 00000KT 10SM CLR 12/09 A3017 -130 83 -500 000/00 RMK AO2 T01170089 $
93915KAEX AEX20161112061010611/12/16 06:10:31  5-MIN KAEX 121210Z 00000KT 10SM CLR 12/09 A3017 -130 83 -500 000/00 RMK AO2 T01170089 $
93915KAEX AEX20161112061510611/12/16 06:15:31  5-MIN KAEX 121215Z 00000KT 10SM CLR 12/08 A3017 -130 80 -500 000/00 RMK AO2 T01170083 $
93915KAEX AEX20161112062010611/12/16 06:20:31  5-MIN KAEX 121220Z 00000KT 10SM CLR 11/08 A3017 -140 80 -500 000/00 RMK AO2 T01110078 $
93915KAEX AEX20161112062510611/12/16 06:25:31  5-MIN KAEX 121225Z 00000KT 10SM CLR 11/08 A3018 -140 80 -600 000/00 RMK AO2 T01110078 $
93915KAEX AEX20161112063010611/12/16 06:30:31  5-MIN KAEX 121230Z 02003KT 10SM CLR 11/08 A3018 -140 83 -600 020/03 RMK AO2 T01110083 $
93915KAEX AEX20161112063510611/12/16 06:35:31  5-MIN KAEX 121235Z 00000KT 10SM CLR 11/08 A3018 -140 83 -600 000/00 RMK AO2 T01110083 $
93915KAEX AEX20161112064010611/12/16 06:40:31  5-MIN KAEX 121240Z 02003KT 10SM CLR 12/08 A3018 -140 80 -500 010/03 RMK AO2 T01170083 $
93915KAEX AEX20161112064510611/12/16 06:45:31  5-MIN KAEX 121245Z 04003KT 10SM CLR 12/08 A3018 -140 80 -500 030/03 RMK AO2 T01170083 $
93915KAEX AEX20161112065011311/12/16 06:50:31  5-MIN KAEX 121250Z 02004KT 10SM CLR 12/08 A3019 -150 80 -500 020/04 RMK AO2 SLP226 T01170083 $
93915KAEX AEX20161112065510611/12/16 06:55:31  5-MIN KAEX 121255Z 02005KT 10SM CLR 12/08 A3019 -150 80 -500 020/05 RMK AO2 T01170083 $
93915KAEX AEX20161112070010611/12/16 07:00:31  5-MIN KAEX 121300Z 03005KT 10SM CLR 12/08 A3019 -150 80 -500 030/05 RMK AO2 T01170083 $
93915KAEX AEX20161112070510611/12/16 07:05:31  5-MIN KAEX 121305Z 03007KT 10SM CLR 12/08 A3020 -160 80 -500 030/07 RMK AO2 T01170083 $
93915KAEX AEX20161112071010611/12/16 07:10:31  5-MIN KAEX 121310Z 03008KT 10SM CLR 12/08 A3020 -160 77 -400 030/08 RMK AO2 T01220083 $
93915KAEX AEX20161112071510611/12/16 07:15:31  5-MIN KAEX 121315Z 04008KT 10SM CLR 12/08 A3020 -160 77 -400 030/08 RMK AO2 T01220083 $
93915KAEX AEX20161112072010611/12/16 07:20:31  5-MIN KAEX 121320Z 04008KT 10SM CLR 12/08 A3020 -160 77 -400 040/08 RMK AO2 T01220083 $
93915KAEX AEX20161112072510611/12/16 07:25:31  5-MIN KAEX 121325Z 04008KT 10SM CLR 12/08 A3020 -170 77 -500 040/08 RMK AO2 T01220083 $
93915KAEX AEX20161112073010611/12/16 07:30:31  5-MIN KAEX 121330Z 04007KT 10SM CLR 13/09 A3021 -170 77 -400 040/07 RMK AO2 T01280089 $
93915KAEX AEX20161112073510611/12/16 07:35:31  5-MIN KAEX 121335Z 04007KT 10SM CLR 13/09 A3021 -170 77 -400 040/07 RMK AO2 T01280089 $
93915KAEX AEX20161112074010611/12/16 07:40:31  5-MIN KAEX 121340Z 04008KT 10SM CLR 13/09 A3021 -170 74 -300 040/08 RMK AO2 T01330089 $
93915KAEX AEX20161112074510611/12/16 07:45:31  5-MIN KAEX 121345Z 05007KT 10SM CLR 13/09 A3022 -180 74 -300 040/07 RMK AO2 T01330089 $
93915KAEX AEX20161112075011311/12/16 07:50:31  5-MIN KAEX 121350Z 04010KT 10SM CLR 14/09 A3022 -180 71 -300 040/10 RMK AO2 SLP237 T01390089 $
93915KAEX AEX20161112075510611/12/16 07:55:31  5-MIN KAEX 121355Z 04007KT 10SM CLR 14/09 A3022 -180 71 -300 040/07 RMK AO2 T01390089 $
93915KAEX AEX20161112080010611/12/16 08:00:31  5-MIN KAEX 121400Z 05008KT 10SM CLR 14/09 A3022 -180 71 -300 050/08 RMK AO2 T01390089 $
93915KAEX AEX20161112080510611/12/16 08:05:31  5-MIN KAEX 121405Z 05008KT 10SM CLR 14/09 A3022 -180 69 -200 050/08 RMK AO2 T01440089 $
93915KAEX AEX20161112081010611/12/16 08:10:31  5-MIN KAEX 121410Z 05006KT 10SM CLR 14/09 A3023 -180 69 -200 050/06 RMK AO2 T01440089 $
93915KAEX AEX20161112081510611/12/16 08:15:31  5-MIN KAEX 121415Z 05007KT 10SM CLR 15/09 A3023 -190 66 -200 050/07 RMK AO2 T01500089 $
93915KAEX AEX20161112082010611/12/16 08:20:31  5-MIN KAEX 121420Z 06007KT 10SM CLR 15/09 A3023 -190 66 -200 050/07 RMK AO2 T01500089 $
93915KAEX AEX20161112082510611/12/16 08:25:31  5-MIN KAEX 121425Z 05005KT 10SM CLR 16/09 A3023 -190 64 -100 050/05 RMK AO2 T01560089 $
93915KAEX AEX20161112083010611/12/16 08:30:31  5-MIN KAEX 121430Z 06004KT 10SM CLR 16/09 A3023 -190 64 -100 060/04 RMK AO2 T01560089 $
93915KAEX AEX20161112083509611/12/16 08:35:31  5-MIN KAEX 121435Z 10SM CLR 16/09 A3023 -190 64 -100 M /M RMK AO2 T01560089 $
93915KAEX AEX20161112084010311/12/16 08:40:31  5-MIN KAEX 121440Z 03006KT 10SM CLR 16/09 A3023 -190 62 0 030/06 RMK AO2 T01610089 $
93915KAEX AEX20161112084510311/12/16 08:45:31  5-MIN KAEX 121445Z 04005KT 10SM CLR 16/09 A3024 -190 62 0 040/05 RMK AO2 T01610089 $
93915KAEX AEX20161112085011611/12/16 08:50:31  5-MIN KAEX 121450Z 03005KT 10SM CLR 17/09 A3024 -200 60 0 030/05 RMK AO2 SLP244 T01670089 53007 $
93915KAEX AEX20161112085510311/12/16 08:55:31  5-MIN KAEX 121455Z 04007KT 10SM CLR 17/09 A3024 -200 60 0 040/07 RMK AO2 T01670089 $
93915KAEX AEX20161112090010311/12/16 09:00:31  5-MIN KAEX 121500Z 04006KT 10SM CLR 17/09 A3024 -200 60 0 040/06 RMK AO2 T01670089 $
93915KAEX AEX20161112090510311/12/16 09:05:31  5-MIN KAEX 121505Z 05007KT 10SM CLR 17/09 A3024 -200 57 0 050/07 RMK AO2 T01720089 $
93915KAEX AEX20161112091010311/12/16 09:10:31  5-MIN KAEX 121510Z 05005KT 10SM CLR 17/09 A3025 -200 60 0 040/05 RMK AO2 T01670089 $
93915KAEX AEX20161112091510311/12/16 09:15:31  5-MIN KAEX 121515Z 04008KT 10SM CLR 17/09 A3025 -200 57 0 040/08 RMK AO2 T01720089 $
93915KAEX AEX20161112092010311/12/16 09:20:31  5-MIN KAEX 121520Z 06008KT 10SM CLR 17/09 A3025 -200 57 0 060/08 RMK AO2 T01720089 $
93915KAEX AEX20161112092510311/12/16 09:25:31  5-MIN KAEX 121525Z 06009KT 10SM CLR 17/09 A3025 -210 57 0 060/09 RMK AO2 T01720089 $
93915KAEX AEX20161112093010311/12/16 09:30:31  5-MIN KAEX 121530Z 06009KT 10SM CLR 17/09 A3025 -210 57 0 060/09 RMK AO2 T01720089 $
93915KAEX AEX20161112093510311/12/16 09:35:31  5-MIN KAEX 121535Z 06008KT 10SM CLR 17/09 A3025 -210 57 0 060/08 RMK AO2 T01720089 $
93915KAEX AEX20161112094010311/12/16 09:40:31  5-MIN KAEX 121540Z 06009KT 10SM CLR 17/09 A3025 -210 57 0 050/09 RMK AO2 T01720089 $
93915KAEX AEX20161112094510511/12/16 09:45:31  5-MIN KAEX 121545Z 06008KT 10SM CLR 18/09 A3025 -210 55 100 060/08 RMK AO2 T01780089 $
93915KAEX AEX20161112095011211/12/16 09:50:31  5-MIN KAEX 121550Z 07009KT 10SM CLR 18/09 A3025 -210 55 100 070/09 RMK AO2 SLP247 T01780089 $
93915KAEX AEX20161112095510511/12/16 09:55:31  5-MIN KAEX 121555Z 03006KT 10SM CLR 18/09 A3025 -210 54 200 020/06 RMK AO2 T01830089 $
93915KAEX AEX20161112100010511/12/16 10:00:31  5-MIN KAEX 121600Z 02008KT 10SM CLR 19/09 A3025 -210 52 200 020/08 RMK AO2 T01890089 $
93915KAEX AEX20161112100510511/12/16 10:05:31  5-MIN KAEX 121605Z VRB06KT 10SM CLR 19/09 A3025 -210 52 200 VRB/06 RMK AO2 T01890089 $
93915KAEX AEX20161112101010511/12/16 10:10:31  5-MIN KAEX 121610Z 03007KT 10SM CLR 19/09 A3025 -210 52 200 020/07 RMK AO2 T01890089 $
93915KAEX AEX20161112101510511/12/16 10:15:31  5-MIN KAEX 121615Z 03009KT 10SM CLR 19/09 A3025 -210 52 200 030/09 RMK AO2 T01890089 $
93915KAEX AEX20161112102010511/12/16 10:20:31  5-MIN KAEX 121620Z 02009KT 10SM CLR 19/09 A3025 -210 52 200 020/09 RMK AO2 T01890089 $
93915KAEX AEX20161112102510511/12/16 10:25:31  5-MIN KAEX 121625Z 03009KT 10SM CLR 19/09 A3025 -210 50 300 030/09 RMK AO2 T01940089 $
93915KAEX AEX20161112103010511/12/16 10:30:31  5-MIN KAEX 121630Z 02008KT 10SM CLR 19/09 A3025 -210 50 300 010/08 RMK AO2 T01940089 $
93915KAEX AEX20161112103510511/12/16 10:35:31  5-MIN KAEX 121635Z 02008KT 10SM CLR 19/09 A3025 -210 50 300 020/08 RMK AO2 T01940089 $
93915KAEX AEX20161112104010511/12/16 10:40:31  5-MIN KAEX 121640Z 01008KT 10SM CLR 20/09 A3025 -210 48 400 010/08 RMK AO2 T02000089 $
93915KAEX AEX20161112104510511/12/16 10:45:31  5-MIN KAEX 121645Z 04007KT 10SM CLR 19/09 A3025 -210 50 300 030/07 RMK AO2 T01940089 $
93915KAEX AEX20161112105011211/12/16 10:50:31  5-MIN KAEX 121650Z 05005KT 10SM CLR 20/09 A3025 -210 48 400 050/05 RMK AO2 SLP247 T02000089 $
93915KAEX AEX20161112105510511/12/16 10:55:31  5-MIN KAEX 121655Z 04008KT 10SM CLR 20/09 A3025 -210 48 400 030/08 RMK AO2 T02000089 $
93915KAEX AEX20161112110010511/12/16 11:00:31  5-MIN KAEX 121700Z VRB05KT 10SM CLR 21/09 A3025 -210 46 400 VRB/05 RMK AO2 T02060089 $
93915KAEX AEX20161112110512111/12/16 11:05:31  5-MIN KAEX 121705Z 04009KT 360V070 10SM CLR 21/08 A3025 -200 43 500 040/09 360V070 RMK AO2 T02110083 $
93915KAEX AEX20161112111010511/12/16 11:10:31  5-MIN KAEX 121710Z 04006KT 10SM CLR 21/08 A3025 -200 43 500 030/06 RMK AO2 T02110083 $
93915KAEX AEX20161112111510511/12/16 11:15:31  5-MIN KAEX 121715Z 03008KT 10SM CLR 21/08 A3024 -200 45 400 030/08 RMK AO2 T02060083 $
93915KAEX AEX20161112112010511/12/16 11:20:31  5-MIN KAEX 121720Z VRB06KT 10SM CLR 21/08 A3024 -200 45 400 VRB/06 RMK AO2 T02060083 $
93915KAEX AEX20161112112510511/12/16 11:25:31  5-MIN KAEX 121725Z 03008KT 10SM CLR 21/08 A3023 -190 43 500 030/08 RMK AO2 T02110083 $
93915KAEX AEX20161112113010511/12/16 11:30:31  5-MIN KAEX 121730Z 05007KT 10SM CLR 21/08 A3023 -190 43 500 050/07 RMK AO2 T02060078 $
93915KAEX AEX20161112113510511/12/16 11:35:31  5-MIN KAEX 121735Z 06009KT 10SM CLR 21/08 A3023 -190 42 500 050/09 RMK AO2 T02110078 $
93915KAEX AEX20161112114012111/12/16 11:40:31  5-MIN KAEX 121740Z 03007KT 010V070 10SM CLR 21/08 A3022 -180 43 500 030/07 010V070 RMK AO2 T02060078 $
93915KAEX AEX20161112114510511/12/16 11:45:31  5-MIN KAEX 121745Z 03010KT 10SM CLR 22/08 A3022 -180 40 600 030/10 RMK AO2 T02170078 $
93915KAEX AEX20161112115013011/12/16 11:50:31  5-MIN KAEX 121750Z 02009KT 10SM CLR 22/08 A3022 -180 40 600 020/09 RMK AO2 SLP237 T02170078 10217 20111 51026 $
93915KAEX AEX20161112115510511/12/16 11:55:31  5-MIN KAEX 121755Z 04008KT 10SM CLR 21/07 A3022 -180 40 500 040/08 RMK AO2 T02110072 $
93915KAEX AEX20161112120010511/12/16 12:00:31  5-MIN KAEX 121800Z 03008KT 10SM CLR 22/08 A3021 -170 40 600 020/08 RMK AO2 T02170078 $
93915KAEX AEX20161112120510511/12/16 12:05:31  5-MIN KAEX 121805Z 04008KT 10SM CLR 22/08 A3021 -170 40 600 040/08 RMK AO2 T02170078 $
93915KAEX AEX20161112121010511/12/16 12:10:31  5-MIN KAEX 121810Z 03006KT 10SM CLR 21/08 A3021 -170 42 500 030/06 RMK AO2 T02110078 $
93915KAEX AEX20161112121509511/12/16 12:15:31  5-MIN KAEX 121815Z 10SM CLR 22/08 A3020 -160 40 600 M /M RMK AO2 T02170078 $
93915KAEX AEX20161112122010511/12/16 12:20:31  5-MIN KAEX 121820Z 03005KT 10SM CLR 22/07 A3020 -160 39 600 030/05 RMK AO2 T02170072 $
93915KAEX AEX20161112122512111/12/16 12:25:31  5-MIN KAEX 121825Z 03008KT 330V090 10SM CLR 22/07 A3020 -160 39 600 030/08 330V090 RMK AO2 T02170072 $
93915KAEX AEX20161112123010511/12/16 12:30:31  5-MIN KAEX 121830Z 04011KT 10SM CLR 22/07 A3020 -160 39 600 040/11 RMK AO2 T02170072 $
93915KAEX AEX20161112123510511/12/16 12:35:31  5-MIN KAEX 121835Z 01008KT 10SM CLR 22/08 A3019 -150 39 700 010/08 RMK AO2 T02220078 $
93915KAEX AEX20161112124011111/12/16 12:40:31  5-MIN KAEX 121840Z 03009G15KT 10SM CLR 22/07 A3019 -150 39 600 030/09G15 RMK AO2 T02170072 $
93915KAEX AEX20161112124511111/12/16 12:45:31  5-MIN KAEX 121845Z 36009G15KT 10SM CLR 22/07 A3019 -150 37 700 360/09G15 RMK AO2 T02220072 $
93915KAEX AEX20161112125011211/12/16 12:50:31  5-MIN KAEX 121850Z VRB06KT 10SM CLR 22/07 A3018 -140 39 600 VRB/06 RMK AO2 SLP224 T02170072 $
93915KAEX AEX20161112125510511/12/16 12:55:31  5-MIN KAEX 121855Z 07005KT 10SM CLR 22/07 A3018 -140 37 700 060/05 RMK AO2 T02220072 $
93915KAEX AEX20161112130010511/12/16 13:00:31  5-MIN KAEX 121900Z 02007KT 10SM CLR 22/07 A3017 -140 37 700 010/07 RMK AO2 T02220072 $
93915KAEX AEX20161112130510511/12/16 13:05:31  5-MIN KAEX 121905Z 02008KT 10SM CLR 22/07 A3017 -140 37 700 020/08 RMK AO2 T02220072 $
93915KAEX AEX20161112131010511/12/16 13:10:31  5-MIN KAEX 121910Z 01009KT 10SM CLR 22/07 A3017 -140 37 700 360/09 RMK AO2 T02220072 $
93915KAEX AEX20161112131510511/12/16 13:15:31  5-MIN KAEX 121915Z 03008KT 10SM CLR 22/07 A3017 -130 36 700 020/08 RMK AO2 T02220067 $
93915KAEX AEX20161112132010511/12/16 13:20:31  5-MIN KAEX 121920Z 35007KT 10SM CLR 23/07 A3017 -130 36 800 350/07 RMK AO2 T02280072 $
93915KAEX AEX20161112132511111/12/16 13:25:31  5-MIN KAEX 121925Z 03010G16KT 10SM CLR 22/07 A3016 -130 36 700 020/10G16 RMK AO2 T02220067 $
93915KAEX AEX20161112133011111/12/16 13:30:31  5-MIN KAEX 121930Z 06008G16KT 10SM CLR 23/07 A3016 -130 36 800 050/08G16 RMK AO2 T02280072 $
93915KAEX AEX20161112133510511/12/16 13:35:31  5-MIN KAEX 121935Z 02009KT 10SM CLR 23/07 A3016 -130 36 800 020/09 RMK AO2 T02280072 $
93915KAEX AEX20161112134010511/12/16 13:40:31  5-MIN KAEX 121940Z 03009KT 10SM CLR 23/07 A3016 -130 35 800 020/09 RMK AO2 T02280067 $
93915KAEX AEX20161112134510511/12/16 13:45:31  5-MIN KAEX 121945Z 04007KT 10SM CLR 23/07 A3016 -120 35 800 040/07 RMK AO2 T02280067 $
93915KAEX AEX20161112135011211/12/16 13:50:31  5-MIN KAEX 121950Z 35009KT 10SM CLR 23/06 A3015 -120 33 800 350/09 RMK AO2 SLP214 T02280061 $
93915KAEX AEX20161112135510511/12/16 13:55:31  5-MIN KAEX 121955Z 36006KT 10SM CLR 23/07 A3015 -120 35 800 360/06 RMK AO2 T02280067 $
93915KAEX AEX20161112140010511/12/16 14:00:31  5-MIN KAEX 122000Z 35008KT 10SM CLR 22/06 A3015 -120 35 700 350/08 RMK AO2 T02220061 $
93915KAEX AEX20161112140511111/12/16 14:05:31  5-MIN KAEX 122005Z 36010G14KT 10SM CLR 23/06 A3015 -110 33 800 360/10G14 RMK AO2 T02280061 $
93915KAEX AEX20161112141010511/12/16 14:10:31  5-MIN KAEX 122010Z 01008KT 10SM CLR 23/06 A3014 -110 32 800 010/08 RMK AO2 T02280056 $
93915KAEX AEX20161112141510511/12/16 14:15:31  5-MIN KAEX 122015Z 01008KT 10SM CLR 23/06 A3014 -110 32 800 360/08 RMK AO2 T02280056 $
93915KAEX AEX20161112142010511/12/16 14:20:31  5-MIN KAEX 122020Z 02010KT 10SM CLR 23/05 A3014 -110 31 800 020/10 RMK AO2 T02280050 $
93915KAEX AEX20161112142510511/12/16 14:25:31  5-MIN KAEX 122025Z 03011KT 10SM CLR 23/04 A3014 -110 30 800 020/11 RMK AO2 T02280044 $
93915KAEX AEX20161112143010511/12/16 14:30:31  5-MIN KAEX 122030Z 03008KT 10SM CLR 23/04 A3014 -110 30 800 030/08 RMK AO2 T02280044 $
93915KAEX AEX20161112143510511/12/16 14:35:31  5-MIN KAEX 122035Z VRB06KT 10SM CLR 23/05 A3014 -110 31 800 VRB/06 RMK AO2 T02280050 $
93915KAEX AEX20161112144010511/12/16 14:40:31  5-MIN KAEX 122040Z 36009KT 10SM CLR 23/05 A3014 -110 31 800 360/09 RMK AO2 T02280050 $
93915KAEX AEX20161112144510511/12/16 14:45:31  5-MIN KAEX 122045Z 36009KT 10SM CLR 22/05 A3014 -110 32 700 360/09 RMK AO2 T02220050 $
93915KAEX AEX20161112145011811/12/16 14:50:31  5-MIN KAEX 122050Z 35009KT 10SM CLR 22/05 A3014 -110 32 700 350/09 RMK AO2 SLP210 T02220050 58008 $
93915KAEX AEX20161112145510511/12/16 14:55:31  5-MIN KAEX 122055Z 01010KT 10SM CLR 23/05 A3014 -100 31 800 360/10 RMK AO2 T02280050 $
93915KAEX AEX20161112150010511/12/16 15:00:31  5-MIN KAEX 122100Z 36006KT 10SM CLR 22/05 A3014 -100 32 800 360/06 RMK AO2 T02220050 $
93915KAEX AEX20161112150510511/12/16 15:05:31  5-MIN KAEX 122105Z 35011KT 10SM CLR 22/06 A3013 -100 33 800 350/11 RMK AO2 T02220056 $
93915KAEX AEX20161112151010511/12/16 15:10:31  5-MIN KAEX 122110Z 01011KT 10SM CLR 23/06 A3014 -100 32 800 010/11 RMK AO2 T02280056 $
93915KAEX AEX20161112151510511/12/16 15:15:31  5-MIN KAEX 122115Z 03009KT 10SM CLR 22/06 A3014 -100 33 700 030/09 RMK AO2 T02220056 $
93915KAEX AEX20161112152010511/12/16 15:20:31  5-MIN KAEX 122120Z 01010KT 10SM CLR 22/06 A3014 -100 33 700 360/10 RMK AO2 T02220056 $
93915KAEX AEX20161112152510511/12/16 15:25:31  5-MIN KAEX 122125Z 02010KT 10SM CLR 22/06 A3014 -100 35 800 020/10 RMK AO2 T02220061 $
93915KAEX AEX20161112153010511/12/16 15:30:31  5-MIN KAEX 122130Z 02010KT 10SM CLR 22/06 A3013 -100 35 800 020/10 RMK AO2 T02220061 $
93915KAEX AEX20161112153510511/12/16 15:35:31  5-MIN KAEX 122135Z 02006KT 10SM CLR 22/06 A3014 -100 35 800 020/06 RMK AO2 T02220061 $
93915KAEX AEX20161112154010511/12/16 15:40:31  5-MIN KAEX 122140Z 03008KT 10SM CLR 22/07 A3013 -100 36 800 020/08 RMK AO2 T02220067 $
93915KAEX AEX20161112154510511/12/16 15:45:31  5-MIN KAEX 122145Z 03009KT 10SM CLR 22/07 A3013 -100 36 800 030/09 RMK AO2 T02220067 $
93915KAEX AEX20161112155011211/12/16 15:50:31  5-MIN KAEX 122150Z 36008KT 10SM CLR 22/07 A3013 -100 36 800 360/08 RMK AO2 SLP208 T02220067 $
93915KAEX AEX20161112155510511/12/16 15:55:31  5-MIN KAEX 122155Z 04009KT 10SM CLR 22/07 A3014 -100 36 700 030/09 RMK AO2 T02220067 $
93915KAEX AEX20161112160010511/12/16 16:00:31  5-MIN KAEX 122200Z 35008KT 10SM CLR 22/07 A3014 -110 37 700 350/08 RMK AO2 T02170067 $
93915KAEX AEX20161112160510511/12/16 16:05:31  5-MIN KAEX 122205Z 35008KT 10SM CLR 22/07 A3014 -110 37 700 350/08 RMK AO2 T02170067 $
93915KAEX AEX20161112161010511/12/16 16:10:31  5-MIN KAEX 122210Z 35009KT 10SM CLR 21/07 A3015 -110 38 600 350/09 RMK AO2 T02110067 $
93915KAEX AEX20161112161510511/12/16 16:15:31  5-MIN KAEX 122215Z 01008KT 10SM CLR 21/07 A3015 -120 38 600 010/08 RMK AO2 T02110067 $
93915KAEX AEX20161112162010511/12/16 16:20:31  5-MIN KAEX 122220Z 01009KT 10SM CLR 21/07 A3015 -120 38 600 010/09 RMK AO2 T02110067 $
93915KAEX AEX20161112162510511/12/16 16:25:31  5-MIN KAEX 122225Z 01008KT 10SM CLR 21/06 A3015 -120 37 600 010/08 RMK AO2 T02110061 $
93915KAEX AEX20161112163010511/12/16 16:30:31  5-MIN KAEX 122230Z 02007KT 10SM CLR 21/07 A3015 -110 38 600 020/07 RMK AO2 T02110067 $
93915KAEX AEX20161112163510511/12/16 16:35:31  5-MIN KAEX 122235Z 03008KT 10SM CLR 21/07 A3015 -110 40 500 030/08 RMK AO2 T02060067 $
93915KAEX AEX20161112164010511/12/16 16:40:31  5-MIN KAEX 122240Z 03006KT 10SM CLR 20/07 A3015 -110 41 500 030/06 RMK AO2 T02000067 $
93915KAEX AEX20161112164510511/12/16 16:45:31  5-MIN KAEX 122245Z 03007KT 10SM CLR 20/07 A3015 -110 41 500 030/07 RMK AO2 T02000067 $
93915KAEX AEX20161112165011211/12/16 16:50:31  5-MIN KAEX 122250Z 04004KT 10SM CLR 19/07 A3015 -120 43 400 040/04 RMK AO2 SLP214 T01940067 $
93915KAEX AEX20161112165510511/12/16 16:55:31  5-MIN KAEX 122255Z 04003KT 10SM CLR 19/07 A3015 -120 44 300 040/03 RMK AO2 T01890067 $
93915KAEX AEX20161112170010511/12/16 17:00:31  5-MIN KAEX 122300Z 04004KT 10SM CLR 19/07 A3015 -120 46 300 040/04 RMK AO2 T01890072 $
93915KAEX AEX20161112170510511/12/16 17:05:31  5-MIN KAEX 122305Z 03006KT 10SM CLR 19/07 A3015 -120 46 300 030/06 RMK AO2 T01890072 $
93915KAEX AEX20161112171010511/12/16 17:10:31  5-MIN KAEX 122310Z 03005KT 10SM CLR 18/07 A3016 -120 48 300 030/05 RMK AO2 T01830072 $
93915KAEX AEX20161112171510511/12/16 17:15:31  5-MIN KAEX 122315Z 03004KT 10SM CLR 18/07 A3016 -120 49 200 030/04 RMK AO2 T01780072 $
93915KAEX AEX20161112172010511/12/16 17:20:31  5-MIN KAEX 122320Z 02005KT 10SM CLR 18/07 A3016 -120 49 200 020/05 RMK AO2 T01780072 $
93915KAEX AEX20161112172510511/12/16 17:25:31  5-MIN KAEX 122325Z 02005KT 10SM CLR 18/07 A3016 -130 49 200 020/05 RMK AO2 T01780072 $
93915KAEX AEX20161112173010511/12/16 17:30:31  5-MIN KAEX 122330Z 03005KT 10SM CLR 18/07 A3016 -130 49 200 030/05 RMK AO2 T01780072 $
93915KAEX AEX20161112173510511/12/16 17:35:31  5-MIN KAEX 122335Z 03005KT 10SM CLR 17/07 A3016 -130 51 100 020/05 RMK AO2 T01720072 $
93915KAEX AEX20161112174010511/12/16 17:40:31  5-MIN KAEX 122340Z 03005KT 10SM CLR 17/07 A3017 -130 51 100 020/05 RMK AO2 T01720072 $
93915KAEX AEX20161112174510511/12/16 17:45:31  5-MIN KAEX 122345Z 02006KT 10SM CLR 17/07 A3017 -130 51 100 020/06 RMK AO2 T01720072 $
93915KAEX AEX20161112175013011/12/16 17:50:31  5-MIN KAEX 122350Z 03005KT 10SM CLR 17/07 A3017 -130 51 100 020/05 RMK AO2 SLP220 T01720072 10228 20172 56027 $
93915KAEX AEX20161112175510511/12/16 17:55:31  5-MIN KAEX 122355Z 02005KT 10SM CLR 17/07 A3017 -140 51 100 020/05 RMK AO2 T01720072 $
93915KAEX AEX20161112180010511/12/16 18:00:31  5-MIN KAEX 130000Z 02005KT 10SM CLR 17/07 A3018 -140 53 100 020/05 RMK AO2 T01670072 $
93915KAEX AEX20161112180510511/12/16 18:05:31  5-MIN KAEX 130005Z 02005KT 10SM CLR 17/07 A3018 -140 53 100 020/05 RMK AO2 T01670072 $
93915KAEX AEX20161112181010511/12/16 18:10:31  5-MIN KAEX 130010Z 02005KT 10SM CLR 17/07 A3018 -140 53 100 020/05 RMK AO2 T01670072 $
93915KAEX AEX20161112181510311/12/16 18:15:31  5-MIN KAEX 130015Z 02005KT 10SM CLR 16/07 A3018 -140 55 0 020/05 RMK AO2 T01610072 $
93915KAEX AEX20161112182010311/12/16 18:20:31  5-MIN KAEX 130020Z 02005KT 10SM CLR 16/07 A3018 -150 55 0 020/05 RMK AO2 T01610072 $
93915KAEX AEX20161112182510311/12/16 18:25:31  5-MIN KAEX 130025Z 02005KT 10SM CLR 16/07 A3019 -150 55 0 020/05 RMK AO2 T01610072 $
93915KAEX AEX20161112183010311/12/16 18:30:31  5-MIN KAEX 130030Z 02005KT 10SM CLR 16/07 A3019 -150 55 0 010/05 RMK AO2 T01610072 $
93915KAEX AEX20161112183510311/12/16 18:35:31  5-MIN KAEX 130035Z 03004KT 10SM CLR 16/07 A3019 -150 57 0 030/04 RMK AO2 T01560072 $
93915KAEX AEX20161112184010311/12/16 18:40:31  5-MIN KAEX 130040Z 02004KT 10SM CLR 16/07 A3019 -150 57 0 020/04 RMK AO2 T01560072 $
93915KAEX AEX20161112184510611/12/16 18:45:31  5-MIN KAEX 130045Z 02004KT 10SM CLR 15/07 A3019 -150 59 -100 020/04 RMK AO2 T01500072 $
93915KAEX AEX20161112185011311/12/16 18:50:31  5-MIN KAEX 130050Z 02004KT 10SM CLR 15/07 A3019 -150 59 -100 020/04 RMK AO2 SLP227 T01500072 $
93915KAEX AEX20161112185510611/12/16 18:55:31  5-MIN KAEX 130055Z 01004KT 10SM CLR 14/07 A3019 -160 61 -200 010/04 RMK AO2 T01440072 $
93915KAEX AEX20161112190010611/12/16 19:00:31  5-MIN KAEX 130100Z 01004KT 10SM CLR 15/07 A3020 -160 59 -100 010/04 RMK AO2 T01500072 $
93915KAEX AEX20161112190510611/12/16 19:05:31  5-MIN KAEX 130105Z 02005KT 10SM CLR 14/07 A3019 -160 61 -200 020/05 RMK AO2 T01440072 $
93915KAEX AEX20161112191010611/12/16 19:10:31  5-MIN KAEX 130110Z 02005KT 10SM CLR 14/07 A3020 -160 61 -200 020/05 RMK AO2 T01440072 $
93915KAEX AEX20161112191510611/12/16 19:15:31  5-MIN KAEX 130115Z 01006KT 10SM CLR 14/07 A3020 -160 61 -200 010/06 RMK AO2 T01440072 $
93915KAEX AEX20161112192010611/12/16 19:20:31  5-MIN KAEX 130120Z 01005KT 10SM CLR 15/07 A3020 -160 59 -100 010/05 RMK AO2 T01500072 $
93915KAEX AEX20161112192510611/12/16 19:25:31  5-MIN KAEX 130125Z 01005KT 10SM CLR 14/07 A3020 -160 59 -200 010/05 RMK AO2 T01440067 $
93915KAEX AEX20161112193010611/12/16 19:30:31  5-MIN KAEX 130130Z 02005KT 10SM CLR 14/07 A3021 -170 61 -200 020/05 RMK AO2 T01440072 $
93915KAEX AEX20161112193510611/12/16 19:35:31  5-MIN KAEX 130135Z 02004KT 10SM CLR 14/07 A3021 -170 59 -200 020/04 RMK AO2 T01440067 $
93915KAEX AEX20161112194010611/12/16 19:40:31  5-MIN KAEX 130140Z 02004KT 10SM CLR 14/07 A3021 -170 61 -300 020/04 RMK AO2 T01390067 $
93915KAEX AEX20161112194510611/12/16 19:45:31  5-MIN KAEX 130145Z 01004KT 10SM CLR 14/07 A3021 -170 61 -300 010/04 RMK AO2 T01390067 $
93915KAEX AEX20161112195011311/12/16 19:50:31  5-MIN KAEX 130150Z 01005KT 10SM CLR 14/07 A3022 -180 61 -300 010/05 RMK AO2 SLP236 T01390067 $
93915KAEX AEX20161112195510611/12/16 19:55:31  5-MIN KAEX 130155Z 01005KT 10SM CLR 14/07 A3022 -180 61 -300 010/05 RMK AO2 T01390067 $
93915KAEX AEX20161112200010611/12/16 20:00:31  5-MIN KAEX 130200Z 01004KT 10SM CLR 13/07 A3022 -180 64 -300 010/04 RMK AO2 T01330067 $
93915KAEX AEX20161112200510611/12/16 20:05:31  5-MIN KAEX 130205Z 01004KT 10SM CLR 13/07 A3022 -180 64 -300 010/04 RMK AO2 T01330067 $
93915KAEX AEX20161112201010611/12/16 20:10:31  5-MIN KAEX 130210Z 01004KT 10SM CLR 13/07 A3022 -180 64 -300 010/04 RMK AO2 T01330067 $
93915KAEX AEX20161112201510611/12/16 20:15:31  5-MIN KAEX 130215Z 01004KT 10SM CLR 14/07 A3023 -190 61 -300 010/04 RMK AO2 T01390067 $
93915KAEX AEX20161112202010611/12/16 20:20:31  5-MIN KAEX 130220Z 01005KT 10SM CLR 14/07 A3023 -190 61 -300 010/05 RMK AO2 T01390067 $
93915KAEX AEX20161112202510611/12/16 20:25:31  5-MIN KAEX 130225Z 02006KT 10SM CLR 14/07 A3023 -190 61 -300 010/06 RMK AO2 T01390067 $
93915KAEX AEX20161112203010611/12/16 20:30:31  5-MIN KAEX 130230Z 02005KT 10SM CLR 14/07 A3023 -190 61 -300 020/05 RMK AO2 T01390067 $
93915KAEX AEX20161112203510611/12/16 20:35:31  5-MIN KAEX 130235Z 02005KT 10SM CLR 14/06 A3023 -190 59 -300 010/05 RMK AO2 T01390061 $
93915KAEX AEX20161112204010611/12/16 20:40:31  5-MIN KAEX 130240Z 02004KT 10SM CLR 14/06 A3024 -190 59 -300 010/04 RMK AO2 T01390061 $
93915KAEX AEX20161112204510611/12/16 20:45:31  5-MIN KAEX 130245Z 02005KT 10SM CLR 13/06 A3024 -190 61 -400 010/05 RMK AO2 T01330061 $
93915KAEX AEX20161112205011911/12/16 20:50:31  5-MIN KAEX 130250Z 02005KT 10SM CLR 13/06 A3024 -200 61 -400 010/05 RMK AO2 SLP243 T01330061 53012 $
93915KAEX AEX20161112205510611/12/16 20:55:31  5-MIN KAEX 130255Z 01005KT 10SM CLR 13/06 A3024 -200 61 -400 010/05 RMK AO2 T01330061 $
93915KAEX AEX20161112210010611/12/16 21:00:31  5-MIN KAEX 130300Z 01004KT 10SM CLR 13/07 A3024 -200 64 -400 010/04 RMK AO2 T01330067 $
93915KAEX AEX20161112210510611/12/16 21:05:31  5-MIN KAEX 130305Z 01005KT 10SM CLR 13/07 A3024 -200 64 -400 360/05 RMK AO2 T01330067 $
93915KAEX AEX20161112211010611/12/16 21:10:31  5-MIN KAEX 130310Z 01004KT 10SM CLR 13/07 A3024 -200 64 -400 010/04 RMK AO2 T01330067 $
93915KAEX AEX20161112211510611/12/16 21:15:31  5-MIN KAEX 130315Z 01004KT 10SM CLR 13/07 A3024 -200 64 -400 010/04 RMK AO2 T01330067 $
93915KAEX AEX20161112212010611/12/16 21:20:31  5-MIN KAEX 130320Z 01004KT 10SM CLR 13/07 A3024 -200 64 -400 010/04 RMK AO2 T01330067 $
93915KAEX AEX20161112212510611/12/16 21:25:31  5-MIN KAEX 130325Z 02005KT 10SM CLR 13/07 A3024 -200 64 -400 020/05 RMK AO2 T01330067 $
93915KAEX AEX20161112213010611/12/16 21:30:31  5-MIN KAEX 130330Z 01005KT 10SM CLR 13/06 A3025 -200 61 -400 010/05 RMK AO2 T01330061 $
93915KAEX AEX20161112213510611/12/16 21:35:31  5-MIN KAEX 130335Z 02005KT 10SM CLR 13/06 A3024 -200 61 -400 010/05 RMK AO2 T01330061 $
93915KAEX AEX20161112214010611/12/16 21:40:31  5-MIN KAEX 130340Z 02005KT 10SM CLR 13/06 A3025 -210 61 -400 010/05 RMK AO2 T01330061 $
93915KAEX AEX20161112214510611/12/16 21:45:31  5-MIN KAEX 130345Z 01005KT 10SM CLR 13/06 A3025 -210 61 -400 010/05 RMK AO2 T01330061 $
93915KAEX AEX20161112215011311/12/16 21:50:31  5-MIN KAEX 130350Z 01006KT 10SM CLR 13/06 A3025 -200 61 -400 010/06 RMK AO2 SLP246 T01330061 $
93915KAEX AEX20161112215510611/12/16 21:55:31  5-MIN KAEX 130355Z 02005KT 10SM CLR 13/06 A3025 -200 61 -400 020/05 RMK AO2 T01330061 $
93915KAEX AEX20161112220010611/12/16 22:00:31  5-MIN KAEX 130400Z 02005KT 10SM CLR 13/06 A3024 -200 61 -400 020/05 RMK AO2 T01330061 $
93915KAEX AEX20161112220510611/12/16 22:05:31  5-MIN KAEX 130405Z 02006KT 10SM CLR 13/06 A3024 -200 61 -400 020/06 RMK AO2 T01330061 $
93915KAEX AEX20161112221010611/12/16 22:10:31  5-MIN KAEX 130410Z 02005KT 10SM CLR 13/06 A3025 -210 59 -400 020/05 RMK AO2 T01330056 $
93915KAEX AEX20161112221510611/12/16 22:15:31  5-MIN KAEX 130415Z 03004KT 10SM CLR 13/06 A3025 -210 63 -400 020/04 RMK AO2 T01280061 $
93915KAEX AEX20161112222010611/12/16 22:20:31  5-MIN KAEX 130420Z 03004KT 10SM CLR 13/06 A3025 -210 63 -400 030/04 RMK AO2 T01280061 $
93915KAEX AEX20161112222510611/12/16 22:25:31  5-MIN KAEX 130425Z 03004KT 10SM CLR 13/06 A3025 -200 61 -400 020/04 RMK AO2 T01280056 $
93915KAEX AEX20161112223010611/12/16 22:30:31  5-MIN KAEX 130430Z 01004KT 10SM CLR 13/06 A3025 -210 61 -400 010/04 RMK AO2 T01280056 $
93915KAEX AEX20161112223510611/12/16 22:35:31  5-MIN KAEX 130435Z 01005KT 10SM CLR 13/06 A3025 -210 61 -400 010/05 RMK AO2 T01280056 $
93915KAEX AEX20161112224010611/12/16 22:40:31  5-MIN KAEX 130440Z 01005KT 10SM CLR 12/06 A3025 -200 66 -500 010/05 RMK AO2 T01220061 $
93915KAEX AEX20161112224510611/12/16 22:45:31  5-MIN KAEX 130445Z 01005KT 10SM CLR 12/06 A3024 -200 66 -500 010/05 RMK AO2 T01220061 $
93915KAEX AEX20161112225011311/12/16 22:50:31  5-MIN KAEX 130450Z 01005KT 10SM CLR 12/06 A3024 -200 66 -500 010/05 RMK AO2 SLP245 T01220061 $
93915KAEX AEX20161112225510611/12/16 22:55:31  5-MIN KAEX 130455Z 01005KT 10SM CLR 12/06 A3024 -200 66 -500 010/05 RMK AO2 T01220061 $
93915KAEX AEX20161112230010611/12/16 23:00:31  5-MIN KAEX 130500Z 01004KT 10SM CLR 12/06 A3024 -200 66 -500 010/04 RMK AO2 T01220061 $
93915KAEX AEX20161112230510611/12/16 23:05:31  5-MIN KAEX 130505Z 02005KT 10SM CLR 12/06 A3024 -200 63 -500 020/05 RMK AO2 T01220056 $
93915KAEX AEX20161112231010611/12/16 23:10:31  5-MIN KAEX 130510Z 01006KT 10SM CLR 12/06 A3024 -200 63 -500 010/06 RMK AO2 T01220056 $
93915KAEX AEX20161112231510611/12/16 23:15:31  5-MIN KAEX 130515Z 01005KT 10SM CLR 12/06 A3024 -200 63 -500 010/05 RMK AO2 T01220056 $
93915KAEX AEX20161112232010611/12/16 23:20:31  5-MIN KAEX 130520Z 02007KT 10SM CLR 12/06 A3024 -200 63 -500 020/07 RMK AO2 T01220056 $
93915KAEX AEX20161112232510611/12/16 23:25:31  5-MIN KAEX 130525Z 02006KT 10SM CLR 12/06 A3024 -190 63 -500 010/06 RMK AO2 T01220056 $
93915KAEX AEX20161112233010611/12/16 23:30:31  5-MIN KAEX 130530Z 02005KT 10SM CLR 12/06 A3024 -190 63 -500 020/05 RMK AO2 T01220056 $
93915KAEX AEX20161112233510611/12/16 23:35:31  5-MIN KAEX 130535Z 02006KT 10SM CLR 12/05 A3023 -190 61 -500 020/06 RMK AO2 T01220050 $
93915KAEX AEX20161112234010611/12/16 23:40:31  5-MIN KAEX 130540Z 02006KT 10SM CLR 12/05 A3023 -190 61 -500 020/06 RMK AO2 T01220050 $
93915KAEX AEX20161112234510611/12/16 23:45:31  5-MIN KAEX 130545Z 02007KT 10SM CLR 12/05 A3023 -190 61 -500 020/07 RMK AO2 T01220050 $
93915KAEX AEX20161112235014111/12/16 23:50:31  5-MIN KAEX 130550Z 01006KT 10SM CLR 12/05 A3023 -190 61 -500 010/06 RMK AO2 SLP242 T01220050 10172 20122 402280106 52023 $
93915KAEX AEX20161112235510611/12/16 23:55:31  5-MIN KAEX 130555Z 02006KT 10SM CLR 12/05 A3024 -190 61 -500 010/06 RMK AO2 T01220050 $
93915KAEX AEX20161113000010611/13/16 00:00:31  5-MIN KAEX 130600Z 02005KT 10SM CLR 12/05 A3024 -190 61 -500 020/05 RMK AO2 T01220050 $
93915KAEX AEX20161113000510611/13/16 00:05:31  5-MIN KAEX 130605Z 03005KT 10SM CLR 12/05 A3024 -190 61 -500 020/05 RMK AO2 T01220050 $
93915KAEX AEX20161113001010611/13/16 00:10:31  5-MIN KAEX 130610Z 03006KT 10SM CLR 12/05 A3023 -190 61 -500 030/06 RMK AO2 T01220050 $
93915KAEX AEX20161113001510611/13/16 00:15:31  5-MIN KAEX 130615Z 04005KT 10SM CLR 12/05 A3023 -190 61 -500 030/05 RMK AO2 T01220050 $
93915KAEX AEX20161113002010611/13/16 00:20:31  5-MIN KAEX 130620Z 04005KT 10SM CLR 12/04 A3023 -190 59 -500 040/05 RMK AO2 T01220044 $
93915KAEX AEX20161113002510611/13/16 00:25:31  5-MIN KAEX 130625Z 03005KT 10SM CLR 12/04 A3023 -190 61 -600 030/05 RMK AO2 T01170044 $
93915KAEX AEX20161113003010611/13/16 00:30:31  5-MIN KAEX 130630Z 04005KT 10SM CLR 12/04 A3023 -190 59 -500 040/05 RMK AO2 T01220044 $
93915KAEX AEX20161113003510611/13/16 00:35:31  5-MIN KAEX 130635Z 03005KT 10SM CLR 12/04 A3024 -190 61 -600 030/05 RMK AO2 T01170044 $
93915KAEX AEX20161113004010611/13/16 00:40:31  5-MIN KAEX 130640Z 03004KT 10SM CLR 12/04 A3023 -190 61 -600 030/04 RMK AO2 T01170044 $
93915KAEX AEX20161113004510611/13/16 00:45:31  5-MIN KAEX 130645Z 03004KT 10SM CLR 11/04 A3023 -190 63 -600 030/04 RMK AO2 T01110044 $
93915KAEX AEX20161113005011311/13/16 00:50:31  5-MIN KAEX 130650Z 03004KT 10SM CLR 11/04 A3023 -190 63 -600 030/04 RMK AO2 SLP240 T01110044 $
93915KAEX AEX20161113005510611/13/16 00:55:31  5-MIN KAEX 130655Z 02004KT 10SM CLR 11/04 A3023 -190 63 -600 020/04 RMK AO2 T01110044 $
93915KAEX AEX20161113010010611/13/16 01:00:31  5-MIN KAEX 130700Z 02004KT 10SM CLR 11/05 A3023 -190 68 -700 020/04 RMK AO2 T01060050 $
93915KAEX AEX20161113010510611/13/16 01:05:31  5-MIN KAEX 130705Z 04004KT 10SM CLR 11/05 A3023 -190 66 -600 040/04 RMK AO2 T01110050 $
93915KAEX AEX20161113011010611/13/16 01:10:31  5-MIN KAEX 130710Z 04004KT 10SM CLR 11/05 A3023 -190 66 -600 030/04 RMK AO2 T01110050 $
93915KAEX AEX20161113011510611/13/16 01:15:31  5-MIN KAEX 130715Z 02004KT 10SM CLR 11/05 A3023 -190 66 -600 020/04 RMK AO2 T01110050 $
93915KAEX AEX20161113012010611/13/16 01:20:31  5-MIN KAEX 130720Z 02005KT 10SM CLR 11/04 A3023 -190 63 -600 010/05 RMK AO2 T01110044 $
93915KAEX AEX20161113012510611/13/16 01:25:31  5-MIN KAEX 130725Z 01005KT 10SM CLR 11/05 A3023 -190 66 -600 010/05 RMK AO2 T01110050 $
93915KAEX AEX20161113013010611/13/16 01:30:31  5-MIN KAEX 130730Z 02005KT 10SM CLR 11/04 A3023 -190 63 -600 020/05 RMK AO2 T01110044 $
93915KAEX AEX20161113013510611/13/16 01:35:31  5-MIN KAEX 130735Z 03006KT 10SM CLR 11/04 A3022 -180 63 -600 030/06 RMK AO2 T01110044 $
93915KAEX AEX20161113014010611/13/16 01:40:31  5-MIN KAEX 130740Z 03006KT 10SM CLR 11/04 A3022 -180 63 -600 030/06 RMK AO2 T01110044 $
93915KAEX AEX20161113014510611/13/16 01:45:31  5-MIN KAEX 130745Z 03007KT 10SM CLR 11/04 A3022 -180 63 -600 030/07 RMK AO2 T01110044 $
93915KAEX AEX20161113015011311/13/16 01:50:31  5-MIN KAEX 130750Z 04006KT 10SM CLR 12/04 A3022 -180 61 -500 040/06 RMK AO2 SLP237 T01170044 $
93915KAEX AEX20161113015510611/13/16 01:55:31  5-MIN KAEX 130755Z 03006KT 10SM CLR 11/04 A3022 -180 63 -600 030/06 RMK AO2 T01110044 $
93915KAEX AEX20161113020010611/13/16 02:00:31  5-MIN KAEX 130800Z 03007KT 10SM CLR 11/04 A3022 -180 63 -600 030/07 RMK AO2 T01110044 $
93915KAEX AEX20161113020510611/13/16 02:05:31  5-MIN KAEX 130805Z 03007KT 10SM CLR 11/04 A3022 -180 63 -600 030/07 RMK AO2 T01110044 $
93915KAEX AEX20161113021010611/13/16 02:10:31  5-MIN KAEX 130810Z 04007KT 10SM CLR 11/04 A3021 -170 63 -600 040/07 RMK AO2 T01110044 $
93915KAEX AEX20161113021510611/13/16 02:15:31  5-MIN KAEX 130815Z 04007KT 10SM CLR 12/04 A3022 -180 61 -500 040/07 RMK AO2 T01170044 $
93915KAEX AEX20161113022010611/13/16 02:20:31  5-MIN KAEX 130820Z 04006KT 10SM CLR 11/04 A3021 -180 63 -600 030/06 RMK AO2 T01110044 $
93915KAEX AEX20161113022510611/13/16 02:25:31  5-MIN KAEX 130825Z 03009KT 10SM CLR 11/04 A3021 -170 63 -600 030/09 RMK AO2 T01110044 $
93915KAEX AEX20161113023010611/13/16 02:30:31  5-MIN KAEX 130830Z 03007KT 10SM CLR 11/04 A3021 -170 63 -600 030/07 RMK AO2 T01110044 $
93915KAEX AEX20161113023510611/13/16 02:35:31  5-MIN KAEX 130835Z 03008KT 10SM CLR 11/04 A3021 -170 63 -600 030/08 RMK AO2 T01110044 $
93915KAEX AEX20161113024010611/13/16 02:40:31  5-MIN KAEX 130840Z 04008KT 10SM CLR 11/04 A3021 -170 63 -600 040/08 RMK AO2 T01110044 $
93915KAEX AEX20161113024510611/13/16 02:45:31  5-MIN KAEX 130845Z 04006KT 10SM CLR 11/04 A3020 -160 61 -600 040/06 RMK AO2 T01110039 $
93915KAEX AEX20161113025011911/13/16 02:50:31  5-MIN KAEX 130850Z 03009KT 10SM CLR 11/04 A3020 -160 63 -600 030/09 RMK AO2 SLP230 T01110044 58001 $
93915KAEX AEX20161113025510611/13/16 02:55:31  5-MIN KAEX 130855Z 04007KT 10SM CLR 11/04 A3020 -160 61 -600 040/07 RMK AO2 T01110039 $
93915KAEX AEX20161113030010611/13/16 03:00:31  5-MIN KAEX 130900Z 04006KT 10SM CLR 11/04 A3021 -170 61 -600 040/06 RMK AO2 T01110039 $
93915KAEX AEX20161113030510611/13/16 03:05:31  5-MIN KAEX 130905Z 03006KT 10SM CLR 11/04 A3021 -170 61 -600 030/06 RMK AO2 T01110039 $
93915KAEX AEX20161113031010611/13/16 03:10:31  5-MIN KAEX 130910Z 04006KT 10SM CLR 11/04 A3020 -160 61 -600 040/06 RMK AO2 T01110039 $
93915KAEX AEX20161113031510611/13/16 03:15:31  5-MIN KAEX 130915Z 04007KT 10SM CLR 11/04 A3020 -170 63 -700 040/07 RMK AO2 T01060039 $
93915KAEX AEX20161113032010611/13/16 03:20:31  5-MIN KAEX 130920Z 04006KT 10SM CLR 11/04 A3021 -170 63 -700 040/06 RMK AO2 T01060039 $
93915KAEX AEX20161113032510611/13/16 03:25:31  5-MIN KAEX 130925Z 04005KT 10SM CLR 11/04 A3021 -170 63 -700 030/05 RMK AO2 T01060039 $
93915KAEX AEX20161113033010611/13/16 03:30:31  5-MIN KAEX 130930Z 04005KT 10SM CLR 11/04 A3021 -170 63 -700 030/05 RMK AO2 T01060039 $
93915KAEX AEX20161113033510611/13/16 03:35:31  5-MIN KAEX 130935Z 03006KT 10SM CLR 11/04 A3021 -170 63 -700 030/06 RMK AO2 T01060039 $
93915KAEX AEX20161113034010611/13/16 03:40:31  5-MIN KAEX 130940Z 03006KT 10SM CLR 10/04 A3020 -170 65 -700 030/06 RMK AO2 T01000039 $
93915KAEX AEX20161113034510611/13/16 03:45:31  5-MIN KAEX 130945Z 02006KT 10SM CLR 10/04 A3021 -170 65 -700 020/06 RMK AO2 T01000039 $
93915KAEX AEX20161113035011311/13/16 03:50:31  5-MIN KAEX 130950Z 03004KT 10SM CLR 10/04 A3021 -170 65 -700 030/04 RMK AO2 SLP232 T01000039 $
93915KAEX AEX20161113035510611/13/16 03:55:31  5-MIN KAEX 130955Z 02006KT 10SM CLR 10/04 A3021 -170 65 -700 020/06 RMK AO2 T01000039 $
93915KAEX AEX20161113040010611/13/16 04:00:31  5-MIN KAEX 131000Z 02005KT 10SM CLR 10/04 A3021 -170 65 -700 020/05 RMK AO2 T01000039 $
93915KAEX AEX20161113040510611/13/16 04:05:31  5-MIN KAEX 131005Z 02005KT 10SM CLR 10/04 A3021 -170 65 -700 020/05 RMK AO2 T01000039 $
93915KAEX AEX20161113041010611/13/16 04:10:31  5-MIN KAEX 131010Z 02006KT 10SM CLR 09/04 A3021 -170 68 -800 020/06 RMK AO2 T00940039 $
93915KAEX AEX20161113041510611/13/16 04:15:31  5-MIN KAEX 131015Z 03006KT 10SM CLR 10/04 A3020 -160 65 -700 030/06 RMK AO2 T01000039 $
93915KAEX AEX20161113042010611/13/16 04:20:31  5-MIN KAEX 131020Z 02005KT 10SM CLR 09/04 A3020 -170 68 -800 020/05 RMK AO2 T00940039 $
93915KAEX AEX20161113042510611/13/16 04:25:31  5-MIN KAEX 131025Z 02005KT 10SM CLR 09/04 A3020 -170 68 -800 020/05 RMK AO2 T00940039 $
93915KAEX AEX20161113043010611/13/16 04:30:31  5-MIN KAEX 131030Z 03006KT 10SM CLR 10/04 A3020 -160 65 -700 030/06 RMK AO2 T01000039 $
93915KAEX AEX20161113043510611/13/16 04:35:31  5-MIN KAEX 131035Z 03005KT 10SM CLR 09/04 A3020 -160 68 -800 020/05 RMK AO2 T00940039 $
93915KAEX AEX20161113044010611/13/16 04:40:31  5-MIN KAEX 131040Z 02006KT 10SM CLR 09/04 A3020 -160 68 -800 020/06 RMK AO2 T00940039 $
93915KAEX AEX20161113044510611/13/16 04:45:31  5-MIN KAEX 131045Z 02005KT 10SM CLR 09/04 A3020 -160 68 -800 020/05 RMK AO2 T00940039 $
93915KAEX AEX20161113045011311/13/16 04:50:31  5-MIN KAEX 131050Z 02004KT 10SM CLR 09/04 A3020 -160 68 -800 020/04 RMK AO2 SLP230 T00940039 $
93915KAEX AEX20161113045510611/13/16 04:55:31  5-MIN KAEX 131055Z 00000KT 10SM CLR 09/04 A3021 -170 68 -800 000/00 RMK AO2 T00940039 $
93915KAEX AEX20161113050010611/13/16 05:00:31  5-MIN KAEX 131100Z 00000KT 10SM CLR 09/04 A3021 -170 71 -900 000/00 RMK AO2 T00890039 $
93915KAEX AEX20161113050510611/13/16 05:05:31  5-MIN KAEX 131105Z 00000KT 10SM CLR 08/03 A3021 -170 70 -900 000/00 RMK AO2 T00830033 $
93915KAEX AEX20161113051010711/13/16 05:10:31  5-MIN KAEX 131110Z 27003KT 10SM CLR 08/03 A3021 -170 73 -1000 270/03 RMK AO2 T00780033 $
93915KAEX AEX20161113051510711/13/16 05:15:31  5-MIN KAEX 131115Z 29003KT 10SM CLR 08/03 A3021 -170 73 -1000 290/03 RMK AO2 T00780033 $
93915KAEX AEX20161113052010711/13/16 05:20:31  5-MIN KAEX 131120Z 32003KT 10SM CLR 08/03 A3021 -170 73 -1000 320/03 RMK AO2 T00780033 $
93915KAEX AEX20161113052510711/13/16 05:25:31  5-MIN KAEX 131125Z 32003KT 10SM CLR 07/03 A3021 -170 73 -1100 320/03 RMK AO2 T00720028 $
93915KAEX AEX20161113053010711/13/16 05:30:31  5-MIN KAEX 131130Z 00000KT 10SM CLR 07/03 A3021 -170 76 -1100 000/00 RMK AO2 T00720033 $
93915KAEX AEX20161113053510711/13/16 05:35:31  5-MIN KAEX 131135Z 35003KT 10SM CLR 07/03 A3021 -170 76 -1100 340/03 RMK AO2 T00720033 $
93915KAEX AEX20161113054010711/13/16 05:40:31  5-MIN KAEX 131140Z 34003KT 10SM CLR 06/03 A3021 -170 82 -1200 340/03 RMK AO2 T00610033 $
93915KAEX AEX20161113054510711/13/16 05:45:31  5-MIN KAEX 131145Z 34003KT 10SM CLR 07/03 A3021 -170 79 -1100 330/03 RMK AO2 T00670033 $
93915KAEX AEX20161113055013211/13/16 05:50:31  5-MIN KAEX 131150Z 32003KT 10SM CLR 07/03 A3021 -170 79 -1100 320/03 RMK AO2 SLP234 T00670033 10122 20061 58013 $
93915KAEX AEX20161113055510711/13/16 05:55:31  5-MIN KAEX 131155Z 32003KT 10SM CLR 07/03 A3021 -170 76 -1100 320/03 RMK AO2 T00670028 $
93915KAEX AEX20161113060010711/13/16 06:00:31  5-MIN KAEX 131200Z 33003KT 10SM CLR 07/03 A3021 -170 76 -1100 330/03 RMK AO2 T00670028 $
93915KAEX AEX20161113060510711/13/16 06:05:31  5-MIN KAEX 131205Z 00000KT 10SM CLR 07/03 A3021 -170 76 -1100 000/00 RMK AO2 T00670028 $
93915KAEX AEX20161113061010711/13/16 06:10:31  5-MIN KAEX 131210Z 00000KT 10SM CLR 07/03 A3021 -170 79 -1100 000/00 RMK AO2 T00670033 $
93915KAEX AEX20161113061510711/13/16 06:15:31  5-MIN KAEX 131215Z 00000KT 10SM CLR 07/03 A3021 -170 79 -1100 000/00 RMK AO2 T00670033 $
93915KAEX AEX20161113062010711/13/16 06:20:31  5-MIN KAEX 131220Z 00000KT 10SM CLR 07/03 A3021 -170 76 -1100 000/00 RMK AO2 T00720033 $
93915KAEX AEX20161113062510711/13/16 06:25:31  5-MIN KAEX 131225Z 00000KT 10SM CLR 07/03 A3021 -170 79 -1100 000/00 RMK AO2 T00670033 $
93915KAEX AEX20161113063010711/13/16 06:30:31  5-MIN KAEX 131230Z 00000KT 10SM CLR 07/03 A3021 -170 73 -1100 000/00 RMK AO2 T00720028 $
93915KAEX AEX20161113063510711/13/16 06:35:31  5-MIN KAEX 131235Z 00000KT 10SM CLR 07/03 A3022 -180 76 -1100 000/00 RMK AO2 T00720033 $
93915KAEX AEX20161113064010711/13/16 06:40:31  5-MIN KAEX 131240Z 32003KT 10SM CLR 07/03 A3022 -180 76 -1100 320/03 RMK AO2 T00720033 $
93915KAEX AEX20161113064510711/13/16 06:45:31  5-MIN KAEX 131245Z 33003KT 10SM CLR 07/03 A3022 -180 79 -1100 330/03 RMK AO2 T00670033 $
93915KAEX AEX20161113065011411/13/16 06:50:31  5-MIN KAEX 131250Z 32003KT 10SM CLR 07/03 A3023 -190 79 -1200 320/03 RMK AO2 SLP240 T00670033 $
93915KAEX AEX20161113065510711/13/16 06:55:31  5-MIN KAEX 131255Z 33003KT 10SM CLR 07/04 A3023 -190 82 -1200 330/03 RMK AO2 T00670039 $
93915KAEX AEX20161113070010711/13/16 07:00:31  5-MIN KAEX 131300Z 34003KT 10SM CLR 07/04 A3023 -180 82 -1200 340/03 RMK AO2 T00670039 $
93915KAEX AEX20161113070510711/13/16 07:05:31  5-MIN KAEX 131305Z 35003KT 10SM CLR 07/04 A3023 -190 82 -1100 350/03 RMK AO2 T00720044 $
93915KAEX AEX20161113071010711/13/16 07:10:31  5-MIN KAEX 131310Z 00000KT 10SM CLR 07/04 A3023 -190 82 -1100 000/00 RMK AO2 T00720044 $
93915KAEX AEX20161113071510711/13/16 07:15:31  5-MIN KAEX 131315Z 35003KT 10SM CLR 08/04 A3023 -190 79 -1000 350/03 RMK AO2 T00780044 $
93915KAEX AEX20161113072010711/13/16 07:20:31  5-MIN KAEX 131320Z 02003KT 10SM CLR 08/04 A3023 -190 79 -1000 020/03 RMK AO2 T00780044 $
93915KAEX AEX20161113072510711/13/16 07:25:31  5-MIN KAEX 131325Z 00000KT 10SM CLR 08/04 A3023 -190 76 -1000 000/00 RMK AO2 T00830044 $
93915KAEX AEX20161113073010711/13/16 07:30:31  5-MIN KAEX 131330Z 36003KT 10SM CLR 08/04 A3024 -200 73 -1000 360/03 RMK AO2 T00830039 $
93915KAEX AEX20161113073510711/13/16 07:35:31  5-MIN KAEX 131335Z 00000KT 10SM CLR 08/04 A3024 -200 73 -1000 000/00 RMK AO2 T00830039 $
93915KAEX AEX20161113074010711/13/16 07:40:31  5-MIN KAEX 131340Z 36003KT 10SM CLR 08/04 A3024 -200 73 -1000 350/03 RMK AO2 T00830039 $
93915KAEX AEX20161113074510711/13/16 07:45:31  5-MIN KAEX 131345Z 00000KT 10SM CLR 08/04 A3025 -200 73 -1000 000/00 RMK AO2 T00830039 $
93915KAEX AEX20161113075011311/13/16 07:50:31  5-MIN KAEX 131350Z 00000KT 10SM CLR 09/04 A3025 -200 71 -900 000/00 RMK AO2 SLP247 T00890039 $
93915KAEX AEX20161113075510611/13/16 07:55:31  5-MIN KAEX 131355Z 01003KT 10SM CLR 09/04 A3025 -210 71 -900 010/03 RMK AO2 T00890039 $
93915KAEX AEX20161113080010611/13/16 08:00:31  5-MIN KAEX 131400Z 00000KT 10SM CLR 09/04 A3025 -210 71 -900 000/00 RMK AO2 T00890039 $
93915KAEX AEX20161113080510611/13/16 08:05:31  5-MIN KAEX 131405Z 00000KT 10SM CLR 09/04 A3025 -210 71 -900 000/00 RMK AO2 T00890039 $
93915KAEX AEX20161113081010611/13/16 08:10:31  5-MIN KAEX 131410Z 00000KT 10SM CLR 09/04 A3026 -210 71 -900 000/00 RMK AO2 T00890039 $
93915KAEX AEX20161113081510611/13/16 08:15:31  5-MIN KAEX 131415Z 00000KT 10SM CLR 09/04 A3026 -220 71 -900 000/00 RMK AO2 T00890039 $
93915KAEX AEX20161113082010611/13/16 08:20:31  5-MIN KAEX 131420Z 00000KT 10SM CLR 09/04 A3026 -220 68 -900 000/00 RMK AO2 T00940039 $
93915KAEX AEX20161113082510611/13/16 08:25:31  5-MIN KAEX 131425Z 04003KT 10SM CLR 09/04 A3027 -220 68 -900 030/03 RMK AO2 T00940039 $
93915KAEX AEX20161113083010611/13/16 08:30:31  5-MIN KAEX 131430Z 01003KT 10SM CLR 09/04 A3026 -220 68 -900 360/03 RMK AO2 T00940039 $
93915KAEX AEX20161113083510611/13/16 08:35:31  5-MIN KAEX 131435Z 00000KT 10SM CLR 10/04 A3026 -220 65 -800 000/00 RMK AO2 T01000039 $
93915KAEX AEX20161113084010611/13/16 08:40:31  5-MIN KAEX 131440Z 00000KT 10SM CLR 10/04 A3027 -230 65 -800 000/00 RMK AO2 T01000039 $
93915KAEX AEX20161113084510611/13/16 08:45:31  5-MIN KAEX 131445Z 36003KT 10SM CLR 10/04 A3027 -220 65 -800 350/03 RMK AO2 T01000039 $
93915KAEX AEX20161113085012411/13/16 08:50:31  5-MIN KAEX 131450Z AUTO 36003KT 10SM CLR 10/04 A3027 -220 65 -800 360/03 RMK AO2 SLP254 T01000039 51005 $
93915KAEX AEX20161113085511111/13/16 08:55:31  5-MIN KAEX 131455Z AUTO 02004KT 10SM CLR 11/04 A3027 -220 63 -700 010/04 RMK AO2 T01060039 $
93915KAEX AEX20161113090011111/13/16 09:00:31  5-MIN KAEX 131500Z AUTO 35005KT 10SM CLR 11/04 A3027 -220 63 -700 350/05 RMK AO2 T01060039 $
93915KAEX AEX20161113090511111/13/16 09:05:31  5-MIN KAEX 131505Z AUTO 01004KT 10SM CLR 11/04 A3027 -230 63 -700 010/04 RMK AO2 T01060039 $
93915KAEX AEX20161113091011111/13/16 09:10:31  5-MIN KAEX 131510Z AUTO 01003KT 10SM CLR 11/04 A3027 -230 63 -700 010/03 RMK AO2 T01060039 $
93915KAEX AEX20161113091511111/13/16 09:15:31  5-MIN KAEX 131515Z AUTO 03003KT 10SM CLR 11/04 A3027 -230 61 -700 030/03 RMK AO2 T01110039 $
93915KAEX AEX20161113092011111/13/16 09:20:31  5-MIN KAEX 131520Z AUTO 01003KT 10SM CLR 11/04 A3027 -230 61 -700 010/03 RMK AO2 T01110039 $
93915KAEX AEX20161113092511111/13/16 09:25:31  5-MIN KAEX 131525Z AUTO 02003KT 10SM CLR 11/04 A3027 -230 61 -700 020/03 RMK AO2 T01110039 $
93915KAEX AEX20161113093011111/13/16 09:30:31  5-MIN KAEX 131530Z AUTO 35004KT 10SM CLR 11/04 A3028 -230 61 -700 350/04 RMK AO2 T01110039 $
93915KAEX AEX20161113093511111/13/16 09:35:31  5-MIN KAEX 131535Z AUTO 00000KT 10SM CLR 11/04 A3028 -240 61 -700 000/00 RMK AO2 T01110039 $
93915KAEX AEX20161113094011111/13/16 09:40:31  5-MIN KAEX 131540Z AUTO 03003KT 10SM CLR 12/04 A3028 -240 58 -600 030/03 RMK AO2 T01170039 $
93915KAEX AEX20161113094511111/13/16 09:45:31  5-MIN KAEX 131545Z AUTO 00000KT 10SM CLR 12/04 A3027 -230 58 -600 000/00 RMK AO2 T01170039 $
93915KAEX AEX20161113095011311/13/16 09:50:31  5-MIN KAEX 131550Z 34004KT 10SM CLR 12/04 A3027 -230 58 -600 340/04 RMK AO2 SLP255 T01170039 $
93915KAEX AEX20161113095510611/13/16 09:55:31  5-MIN KAEX 131555Z 36004KT 10SM CLR 12/04 A3028 -230 59 -500 360/04 RMK AO2 T01220044 $
93915KAEX AEX20161113100010611/13/16 10:00:31  5-MIN KAEX 131600Z 03004KT 10SM CLR 12/04 A3027 -230 59 -500 020/04 RMK AO2 T01220044 $
93915KAEX AEX20161113100510611/13/16 10:05:31  5-MIN KAEX 131605Z 01005KT 10SM CLR 13/04 A3027 -220 56 -500 010/05 RMK AO2 T01280044 $
93915KAEX AEX20161113101010611/13/16 10:10:31  5-MIN KAEX 131610Z 00000KT 10SM CLR 13/04 A3027 -220 56 -500 000/00 RMK AO2 T01280044 $
93915KAEX AEX20161113101510611/13/16 10:15:31  5-MIN KAEX 131615Z 01005KT 10SM CLR 13/04 A3027 -220 54 -400 010/05 RMK AO2 T01330044 $
93915KAEX AEX20161113102010611/13/16 10:20:31  5-MIN KAEX 131620Z 35004KT 10SM CLR 13/04 A3026 -220 54 -400 350/04 RMK AO2 T01330044 $
93915KAEX AEX20161113102510611/13/16 10:25:31  5-MIN KAEX 131625Z VRB03KT 10SM CLR 13/04 A3026 -220 56 -500 VRB/03 RMK AO2 T01280044 $
93915KAEX AEX20161113103010611/13/16 10:30:31  5-MIN KAEX 131630Z 36003KT 10SM CLR 13/04 A3026 -220 54 -400 350/03 RMK AO2 T01330044 $
93915KAEX AEX20161113103510611/13/16 10:35:31  5-MIN KAEX 131635Z 34004KT 10SM CLR 13/04 A3026 -220 54 -400 340/04 RMK AO2 T01330044 $
93915KAEX AEX20161113104010611/13/16 10:40:31  5-MIN KAEX 131640Z 00000KT 10SM CLR 14/04 A3026 -220 52 -300 000/00 RMK AO2 T01390044 $
93915KAEX AEX20161113104510611/13/16 10:45:31  5-MIN KAEX 131645Z 34004KT 10SM CLR 14/04 A3026 -220 52 -300 340/04 RMK AO2 T01390044 $
93915KAEX AEX20161113105011311/13/16 10:50:31  5-MIN KAEX 131650Z 04003KT 10SM CLR 14/04 A3026 -220 51 -300 030/03 RMK AO2 SLP251 T01440044 $
93915KAEX AEX20161113105510611/13/16 10:55:31  5-MIN KAEX 131655Z 00000KT 10SM CLR 14/04 A3026 -220 51 -200 000/00 RMK AO2 T01440044 $
93915KAEX AEX20161113110009611/13/16 11:00:31  5-MIN KAEX 131700Z 10SM CLR 14/04 A3026 -210 51 -200 M /M RMK AO2 T01440044 $
93915KAEX AEX20161113110510611/13/16 11:05:31  5-MIN KAEX 131705Z 01006KT 10SM CLR 15/04 A3025 -210 49 -200 010/06 RMK AO2 T01500044 $
93915KAEX AEX20161113111010611/13/16 11:10:31  5-MIN KAEX 131710Z 03004KT 10SM CLR 15/04 A3025 -210 49 -200 030/04 RMK AO2 T01500044 $
93915KAEX AEX20161113111510611/13/16 11:15:31  5-MIN KAEX 131715Z 35005KT 10SM CLR 15/04 A3024 -200 49 -200 350/05 RMK AO2 T01500044 $
93915KAEX AEX20161113112010611/13/16 11:20:31  5-MIN KAEX 131720Z 02004KT 10SM CLR 16/04 A3024 -200 47 -100 020/04 RMK AO2 T01560044 $
93915KAEX AEX20161113112510611/13/16 11:25:31  5-MIN KAEX 131725Z 35003KT 10SM CLR 15/04 A3024 -200 49 -200 350/03 RMK AO2 T01500044 $
93915KAEX AEX20161113113010611/13/16 11:30:31  5-MIN KAEX 131730Z 02005KT 10SM CLR 16/04 A3024 -200 47 -100 020/05 RMK AO2 T01560044 $
93915KAEX AEX20161113113510611/13/16 11:35:31  5-MIN KAEX 131735Z 03004KT 10SM CLR 16/04 A3023 -190 45 -100 030/04 RMK AO2 T01560039 $
93915KAEX AEX20161113114010311/13/16 11:40:31  5-MIN KAEX 131740Z 36007KT 10SM CLR 16/04 A3023 -190 44 0 360/07 RMK AO2 T01610039 $
93915KAEX AEX20161113114510311/13/16 11:45:31  5-MIN KAEX 131745Z 01006KT 10SM CLR 16/04 A3023 -180 44 0 010/06 RMK AO2 T01610039 $
93915KAEX AEX20161113115012811/13/16 11:50:31  5-MIN KAEX 131750Z 03005KT 10SM CLR 16/04 A3022 -180 44 0 030/05 RMK AO2 SLP238 T01610039 10161 20067 53019 $
93915KAEX AEX20161113115510311/13/16 11:55:31  5-MIN KAEX 131755Z 06004KT 10SM CLR 17/04 A3022 -180 44 0 050/04 RMK AO2 T01670044 $
93915KAEX AEX20161113120010311/13/16 12:00:31  5-MIN KAEX 131800Z 03003KT 10SM CLR 16/04 A3021 -170 44 0 030/03 RMK AO2 T01610039 $
93915KAEX AEX20161113120510311/13/16 12:05:31  5-MIN KAEX 131805Z VRB04KT 10SM CLR 16/04 A3021 -170 44 0 VRB/04 RMK AO2 T01610039 $
93915KAEX AEX20161113121010311/13/16 12:10:31  5-MIN KAEX 131810Z 03005KT 10SM CLR 17/04 A3021 -170 42 0 030/05 RMK AO2 T01670039 $
93915KAEX AEX20161113121510311/13/16 12:15:31  5-MIN KAEX 131815Z VRB03KT 10SM CLR 17/04 A3021 -170 42 0 VRB/03 RMK AO2 T01670039 $
93915KAEX AEX20161113122010511/13/16 12:20:31  5-MIN KAEX 131820Z VRB05KT 10SM CLR 17/03 A3020 -160 39 100 VRB/05 RMK AO2 T01720033 $
93915KAEX AEX20161113122510511/13/16 12:25:31  5-MIN KAEX 131825Z 00000KT 10SM CLR 17/03 A3021 -170 39 100 000/00 RMK AO2 T01720033 $
93915KAEX AEX20161113123010511/13/16 12:30:31  5-MIN KAEX 131830Z VRB04KT 10SM CLR 17/03 A3020 -160 39 100 VRB/04 RMK AO2 T01720033 $
93915KAEX AEX20161113123510511/13/16 12:35:31  5-MIN KAEX 131835Z 02006KT 10SM CLR 17/04 A3020 -160 41 100 020/06 RMK AO2 T01720039 $
93915KAEX AEX20161113124010511/13/16 12:40:31  5-MIN KAEX 131840Z 01004KT 10SM CLR 17/03 A3019 -150 39 100 010/04 RMK AO2 T01720033 $
93915KAEX AEX20161113124510511/13/16 12:45:31  5-MIN KAEX 131845Z 02006KT 10SM CLR 18/03 A3019 -150 38 200 020/06 RMK AO2 T01780033 $
93915KAEX AEX20161113125011211/13/16 12:50:31  5-MIN KAEX 131850Z 04004KT 10SM CLR 17/03 A3019 -150 39 100 030/04 RMK AO2 SLP226 T01720033 $
93915KAEX AEX20161113125510511/13/16 12:55:31  5-MIN KAEX 131855Z 03005KT 10SM CLR 17/03 A3018 -150 39 100 030/05 RMK AO2 T01720033 $
93915KAEX AEX20161113130010511/13/16 13:00:31  5-MIN KAEX 131900Z VRB03KT 10SM CLR 17/03 A3018 -140 39 100 VRB/03 RMK AO2 T01720033 $
93915KAEX AEX20161113130509511/13/16 13:05:31  5-MIN KAEX 131905Z 10SM CLR 18/03 A3018 -140 38 200 M /M RMK AO2 T01780033 $
93915KAEX AEX20161113131010511/13/16 13:10:31  5-MIN KAEX 131910Z 35008KT 10SM CLR 17/03 A3018 -140 39 100 340/08 RMK AO2 T01720033 $
93915KAEX AEX20161113131510511/13/16 13:15:31  5-MIN KAEX 131915Z 33005KT 10SM CLR 17/03 A3018 -140 39 100 330/05 RMK AO2 T01720033 $
93915KAEX AEX20161113132010511/13/16 13:20:31  5-MIN KAEX 131920Z 31007KT 10SM CLR 17/03 A3017 -140 39 100 310/07 RMK AO2 T01720033 $
93915KAEX AEX20161113132510511/13/16 13:25:31  5-MIN KAEX 131925Z 30006KT 10SM CLR 17/03 A3017 -140 39 100 300/06 RMK AO2 T01720033 $
93915KAEX AEX20161113133010511/13/16 13:30:31  5-MIN KAEX 131930Z 32005KT 10SM CLR 17/03 A3017 -140 39 100 320/05 RMK AO2 T01720033 $
93915KAEX AEX20161113133510511/13/16 13:35:31  5-MIN KAEX 131935Z 36005KT 10SM CLR 17/03 A3017 -140 39 100 350/05 RMK AO2 T01720033 $
93915KAEX AEX20161113134010511/13/16 13:40:31  5-MIN KAEX 131940Z 34003KT 10SM CLR 17/03 A3017 -130 39 100 340/03 RMK AO2 T01720033 $
93915KAEX AEX20161113134510511/13/16 13:45:31  5-MIN KAEX 131945Z 36006KT 10SM CLR 17/04 A3017 -130 41 100 360/06 RMK AO2 T01720039 $
93915KAEX AEX20161113135011211/13/16 13:50:31  5-MIN KAEX 131950Z 01006KT 10SM CLR 17/04 A3017 -130 41 100 010/06 RMK AO2 SLP219 T01720039 $
93915KAEX AEX20161113135510511/13/16 13:55:31  5-MIN KAEX 131955Z 35006KT 10SM CLR 17/04 A3017 -130 41 100 350/06 RMK AO2 T01720039 $
93915KAEX AEX20161113140010511/13/16 14:00:31  5-MIN KAEX 132000Z 01007KT 10SM CLR 17/04 A3017 -130 41 100 010/07 RMK AO2 T01720039 $
93915KAEX AEX20161113140510511/13/16 14:05:31  5-MIN KAEX 132005Z 01006KT 10SM CLR 17/04 A3017 -140 41 100 010/06 RMK AO2 T01720039 $
93915KAEX AEX20161113141010511/13/16 14:10:31  5-MIN KAEX 132010Z 02005KT 10SM CLR 17/04 A3017 -130 41 100 020/05 RMK AO2 T01720039 $
93915KAEX AEX20161113141510511/13/16 14:15:31  5-MIN KAEX 132015Z 01006KT 10SM CLR 18/04 A3016 -130 39 200 010/06 RMK AO2 T01780039 $
93915KAEX AEX20161113142010511/13/16 14:20:31  5-MIN KAEX 132020Z 35006KT 10SM CLR 17/03 A3016 -130 39 100 350/06 RMK AO2 T01720033 $
93915KAEX AEX20161113142510511/13/16 14:25:31  5-MIN KAEX 132025Z 01006KT 10SM CLR 17/03 A3017 -130 39 100 010/06 RMK AO2 T01720033 $
93915KAEX AEX20161113143010511/13/16 14:30:31  5-MIN KAEX 132030Z 03006KT 10SM CLR 17/03 A3016 -130 39 100 030/06 RMK AO2 T01720033 $
93915KAEX AEX20161113143510511/13/16 14:35:31  5-MIN KAEX 132035Z 01007KT 10SM CLR 17/03 A3016 -130 39 100 010/07 RMK AO2 T01720033 $
93915KAEX AEX20161113144010511/13/16 14:40:31  5-MIN KAEX 132040Z 01005KT 10SM CLR 17/03 A3016 -130 39 100 010/05 RMK AO2 T01720033 $
93915KAEX AEX20161113144510511/13/16 14:45:31  5-MIN KAEX 132045Z 35006KT 10SM CLR 17/03 A3016 -130 37 100 340/06 RMK AO2 T01720028 $
93915KAEX AEX20161113145011811/13/16 14:50:31  5-MIN KAEX 132050Z 35004KT 10SM CLR 17/03 A3016 -120 37 100 350/04 RMK AO2 SLP216 T01720028 58016 $
93915KAEX AEX20161113145510511/13/16 14:55:31  5-MIN KAEX 132055Z VRB04KT 10SM CLR 17/03 A3016 -120 37 100 VRB/04 RMK AO2 T01720028 $
93915KAEX AEX20161113150010511/13/16 15:00:31  5-MIN KAEX 132100Z VRB05KT 10SM CLR 17/03 A3016 -120 39 100 VRB/05 RMK AO2 T01720033 $
93915KAEX AEX20161113150510511/13/16 15:05:31  5-MIN KAEX 132105Z 04004KT 10SM CLR 17/03 A3016 -120 37 100 040/04 RMK AO2 T01720028 $
93915KAEX AEX20161113151010511/13/16 15:10:31  5-MIN KAEX 132110Z 00000KT 10SM CLR 17/03 A3016 -120 37 100 000/00 RMK AO2 T01720028 $
93915KAEX AEX20161113151510511/13/16 15:15:31  5-MIN KAEX 132115Z 36003KT 10SM CLR 17/03 A3016 -120 37 100 360/03 RMK AO2 T01720028 $
93915KAEX AEX20161113152010511/13/16 15:20:31  5-MIN KAEX 132120Z 36003KT 10SM CLR 18/03 A3015 -120 36 200 360/03 RMK AO2 T01780028 $
93915KAEX AEX20161113152510511/13/16 15:25:31  5-MIN KAEX 132125Z 00000KT 10SM CLR 18/03 A3015 -120 36 200 000/00 RMK AO2 T01780028 $
93915KAEX AEX20161113153010511/13/16 15:30:31  5-MIN KAEX 132130Z 00000KT 10SM CLR 18/03 A3015 -120 38 200 000/00 RMK AO2 T01780033 $
93915KAEX AEX20161113153510511/13/16 15:35:31  5-MIN KAEX 132135Z 00000KT 10SM CLR 17/03 A3015 -120 37 200 000/00 RMK AO2 T01720028 $
93915KAEX AEX20161113154010511/13/16 15:40:31  5-MIN KAEX 132140Z 03003KT 10SM CLR 17/03 A3015 -120 39 200 030/03 RMK AO2 T01720033 $
93915KAEX AEX20161113154510511/13/16 15:45:31  5-MIN KAEX 132145Z 04003KT 10SM CLR 18/03 A3015 -110 38 200 040/03 RMK AO2 T01780033 $
93915KAEX AEX20161113155011211/13/16 15:50:31  5-MIN KAEX 132150Z 07005KT 10SM CLR 17/03 A3015 -110 39 200 070/05 RMK AO2 SLP212 T01720033 $
93915KAEX AEX20161113155510511/13/16 15:55:31  5-MIN KAEX 132155Z 06004KT 10SM CLR 17/04 A3015 -110 41 200 060/04 RMK AO2 T01720039 $
93915KAEX AEX20161113160010511/13/16 16:00:31  5-MIN KAEX 132200Z 00000KT 10SM CLR 17/04 A3014 -110 41 200 000/00 RMK AO2 T01720039 $
93915KAEX AEX20161113160510511/13/16 16:05:31  5-MIN KAEX 132205Z 00000KT 10SM CLR 17/04 A3014 -110 41 200 000/00 RMK AO2 T01720039 $
93915KAEX AEX20161113161010511/13/16 16:10:31  5-MIN KAEX 132210Z 06003KT 10SM CLR 17/04 A3014 -110 41 200 060/03 RMK AO2 T01720039 $
93915KAEX AEX20161113161510511/13/16 16:15:31  5-MIN KAEX 132215Z 07003KT 10SM CLR 17/04 A3015 -110 42 200 070/03 RMK AO2 T01720044 $
93915KAEX AEX20161113162010511/13/16 16:20:31  5-MIN KAEX 132220Z 06004KT 10SM CLR 17/04 A3015 -110 44 100 060/04 RMK AO2 T01670044 $
93915KAEX AEX20161113162510511/13/16 16:25:31  5-MIN KAEX 132225Z 08004KT 10SM CLR 17/04 A3014 -110 44 100 080/04 RMK AO2 T01670044 $
93915KAEX AEX20161113163010511/13/16 16:30:31  5-MIN KAEX 132230Z 08004KT 10SM CLR 17/05 A3014 -110 45 100 080/04 RMK AO2 T01670050 $
93915KAEX AEX20161113163510311/13/16 16:35:31  5-MIN KAEX 132235Z 09003KT 10SM CLR 16/05 A3014 -110 47 0 090/03 RMK AO2 T01610050 $
93915KAEX AEX20161113164010311/13/16 16:40:31  5-MIN KAEX 132240Z 09004KT 10SM CLR 16/05 A3014 -110 47 0 090/04 RMK AO2 T01610050 $
93915KAEX AEX20161113164510311/13/16 16:45:31  5-MIN KAEX 132245Z 09004KT 10SM CLR 16/06 A3014 -110 49 0 090/04 RMK AO2 T01610056 $
93915KAEX AEX20161113165011011/13/16 16:50:31  5-MIN KAEX 132250Z 09003KT 10SM CLR 16/06 A3014 -110 49 0 090/03 RMK AO2 SLP210 T01610056 $
93915KAEX AEX20161113165510311/13/16 16:55:31  5-MIN KAEX 132255Z 10003KT 10SM CLR 16/06 A3014 -110 49 0 090/03 RMK AO2 T01610056 $
93915KAEX AEX20161113170010311/13/16 17:00:31  5-MIN KAEX 132300Z 00000KT 10SM CLR 16/06 A3014 -110 51 0 000/00 RMK AO2 T01560056 $
93915KAEX AEX20161113170510611/13/16 17:05:31  5-MIN KAEX 132305Z 00000KT 10SM CLR 15/06 A3014 -110 55 -100 000/00 RMK AO2 T01500061 $
93915KAEX AEX20161113171010611/13/16 17:10:31  5-MIN KAEX 132310Z 00000KT 10SM CLR 15/07 A3015 -110 57 -100 000/00 RMK AO2 T01500067 $
93915KAEX AEX20161113171510611/13/16 17:15:31  5-MIN KAEX 132315Z 00000KT 10SM CLR 14/07 A3015 -110 61 -100 000/00 RMK AO2 T01440072 $
93915KAEX AEX20161113172010611/13/16 17:20:31  5-MIN KAEX 132320Z 00000KT 10SM CLR 14/08 A3015 -110 66 -200 000/00 RMK AO2 T01390078 $
93915KAEX AEX20161113172510611/13/16 17:25:31  5-MIN KAEX 132325Z 00000KT 10SM CLR 13/07 A3015 -110 66 -300 000/00 RMK AO2 T01330072 $
93915KAEX AEX20161113173010611/13/16 17:30:31  5-MIN KAEX 132330Z 00000KT 10SM CLR 13/07 A3015 -110 69 -300 000/00 RMK AO2 T01280072 $
93915KAEX AEX20161113173510611/13/16 17:35:31  5-MIN KAEX 132335Z 00000KT 10SM CLR 12/07 A3015 -110 71 -400 000/00 RMK AO2 T01220072 $
93915KAEX AEX20161113174010611/13/16 17:40:31  5-MIN KAEX 132340Z 00000KT 10SM CLR 12/07 A3015 -110 71 -400 000/00 RMK AO2 T01220072 $
93915KAEX AEX20161113174510611/13/16 17:45:31  5-MIN KAEX 132345Z 00000KT 10SM CLR 12/07 A3015 -110 74 -500 000/00 RMK AO2 T01170072 $
93915KAEX AEX20161113175013111/13/16 17:50:31  5-MIN KAEX 132350Z 00000KT 10SM CLR 12/07 A3015 -110 71 -400 000/00 RMK AO2 SLP214 T01220072 10178 20117 56021 $
93915KAEX AEX20161113175510611/13/16 17:55:31  5-MIN KAEX 132355Z 00000KT 10SM CLR 12/07 A3015 -110 68 -400 000/00 RMK AO2 T01220067 $
93915KAEX AEX20161113180010611/13/16 18:00:31  5-MIN KAEX 140000Z 00000KT 10SM CLR 12/07 A3015 -110 74 -500 000/00 RMK AO2 T01170072 $
93915KAEX AEX20161113180510611/13/16 18:05:31  5-MIN KAEX 140005Z 00000KT 10SM CLR 11/07 A3015 -110 74 -500 000/00 RMK AO2 T01110067 $
93915KAEX AEX20161113181010611/13/16 18:10:31  5-MIN KAEX 140010Z 00000KT 10SM CLR 11/07 A3015 -110 74 -500 000/00 RMK AO2 T01110067 $
93915KAEX AEX20161113181510611/13/16 18:15:31  5-MIN KAEX 140015Z 00000KT 10SM CLR 11/07 A3015 -110 74 -500 000/00 RMK AO2 T01110067 $
93915KAEX AEX20161113182010611/13/16 18:20:31  5-MIN KAEX 140020Z 00000KT 10SM CLR 12/07 A3015 -110 71 -500 000/00 RMK AO2 T01170067 $
93915KAEX AEX20161113182510611/13/16 18:25:31  5-MIN KAEX 140025Z 00000KT 10SM CLR 12/05 A3015 -120 63 -500 000/00 RMK AO2 T01170050 $
93915KAEX AEX20161113183010611/13/16 18:30:31  5-MIN KAEX 140030Z 00000KT 10SM CLR 11/06 A3015 -120 71 -500 000/00 RMK AO2 T01110061 $
93915KAEX AEX20161113183510611/13/16 18:35:31  5-MIN KAEX 140035Z 00000KT 10SM CLR 12/06 A3015 -120 68 -500 000/00 RMK AO2 T01170061 $
93915KAEX AEX20161113184010611/13/16 18:40:31  5-MIN KAEX 140040Z 00000KT 10SM CLR 11/07 A3015 -120 74 -500 000/00 RMK AO2 T01110067 $
93915KAEX AEX20161113184510611/13/16 18:45:31  5-MIN KAEX 140045Z 00000KT 10SM CLR 11/07 A3015 -120 74 -500 000/00 RMK AO2 T01110067 $
93915KAEX AEX20161113185011311/13/16 18:50:31  5-MIN KAEX 140050Z 00000KT 10SM CLR 11/07 A3015 -120 77 -600 000/00 RMK AO2 SLP214 T01060067 $
93915KAEX AEX20161113185510611/13/16 18:55:31  5-MIN KAEX 140055Z 00000KT 10SM CLR 11/07 A3015 -110 77 -600 000/00 RMK AO2 T01060067 $
93915KAEX AEX20161113190010611/13/16 19:00:31  5-MIN KAEX 140100Z 00000KT 10SM CLR 11/07 A3015 -120 77 -600 000/00 RMK AO2 T01060067 $
93915KAEX AEX20161113190510611/13/16 19:05:31  5-MIN KAEX 140105Z 00000KT 10SM CLR 11/07 A3015 -120 77 -600 000/00 RMK AO2 T01060067 $
93915KAEX AEX20161113191010611/13/16 19:10:31  5-MIN KAEX 140110Z 00000KT 10SM CLR 11/07 A3015 -120 77 -600 000/00 RMK AO2 T01060067 $
93915KAEX AEX20161113191510611/13/16 19:15:31  5-MIN KAEX 140115Z 00000KT 10SM CLR 11/07 A3015 -120 77 -600 000/00 RMK AO2 T01060067 $
93915KAEX AEX20161113192010611/13/16 19:20:31  5-MIN KAEX 140120Z 00000KT 10SM CLR 10/07 A3015 -120 80 -700 000/00 RMK AO2 T01000067 $
93915KAEX AEX20161113192510611/13/16 19:25:31  5-MIN KAEX 140125Z 00000KT 10SM CLR 10/07 A3015 -120 80 -700 000/00 RMK AO2 T01000067 $
93915KAEX AEX20161113193010611/13/16 19:30:31  5-MIN KAEX 140130Z 00000KT 10SM CLR 10/07 A3015 -120 80 -700 000/00 RMK AO2 T01000067 $
93915KAEX AEX20161113193510611/13/16 19:35:31  5-MIN KAEX 140135Z 00000KT 10SM CLR 09/07 A3015 -120 83 -700 000/00 RMK AO2 T00940067 $
93915KAEX AEX20161113194010611/13/16 19:40:31  5-MIN KAEX 140140Z 00000KT 10SM CLR 09/06 A3015 -120 79 -700 000/00 RMK AO2 T00940061 $
93915KAEX AEX20161113194510611/13/16 19:45:31  5-MIN KAEX 140145Z 00000KT 10SM CLR 09/06 A3016 -120 79 -700 000/00 RMK AO2 T00940061 $
93915KAEX AEX20161113195011311/13/16 19:50:31  5-MIN KAEX 140150Z 00000KT 10SM CLR 10/06 A3016 -120 77 -700 000/00 RMK AO2 SLP217 T01000061 $
93915KAEX AEX20161113195510611/13/16 19:55:31  5-MIN KAEX 140155Z 00000KT 10SM CLR 10/06 A3016 -120 77 -700 000/00 RMK AO2 T01000061 $
93915KAEX AEX20161113200010611/13/16 20:00:31  5-MIN KAEX 140200Z 00000KT 10SM CLR 09/06 A3016 -120 76 -700 000/00 RMK AO2 T00940056 $
93915KAEX AEX20161113200510611/13/16 20:05:31  5-MIN KAEX 140205Z 00000KT 10SM CLR 09/06 A3016 -120 79 -700 000/00 RMK AO2 T00940061 $
93915KAEX AEX20161113201010611/13/16 20:10:31  5-MIN KAEX 140210Z 00000KT 10SM CLR 09/06 A3016 -120 83 -800 000/00 RMK AO2 T00890061 $
93915KAEX AEX20161113201510611/13/16 20:15:31  5-MIN KAEX 140215Z 00000KT 10SM CLR 09/06 A3016 -130 79 -700 000/00 RMK AO2 T00940061 $
93915KAEX AEX20161113202010611/13/16 20:20:31  5-MIN KAEX 140220Z 00000KT 10SM CLR 08/06 A3016 -130 89 -900 000/00 RMK AO2 T00780061 $
93915KAEX AEX20161113202510611/13/16 20:25:31  5-MIN KAEX 140225Z 32003KT 10SM CLR 08/06 A3016 -130 89 -900 320/03 RMK AO2 T00780061 $
93915KAEX AEX20161113203010611/13/16 20:30:31  5-MIN KAEX 140230Z 00000KT 10SM CLR 08/07 A3016 -130 93 -900 000/00 RMK AO2 T00780067 $
93915KAEX AEX20161113203510611/13/16 20:35:31  5-MIN KAEX 140235Z 00000KT 10SM CLR 08/06 A3016 -130 89 -900 000/00 RMK AO2 T00780061 $
93915KAEX AEX20161113204010611/13/16 20:40:31  5-MIN KAEX 140240Z 00000KT 10SM CLR 08/06 A3016 -130 89 -900 000/00 RMK AO2 T00780061 $
93915KAEX AEX20161113204510711/13/16 20:45:31  5-MIN KAEX 140245Z 00000KT 10SM CLR 07/05 A3017 -130 86 -1000 000/00 RMK AO2 T00720050 $
93915KAEX AEX20161113205012011/13/16 20:50:31  5-MIN KAEX 140250Z 30003KT 10SM CLR 07/04 A3016 -130 79 -1000 300/03 RMK AO2 SLP219 T00720039 55004 $
93915KAEX AEX20161113205511211/13/16 20:55:31  5-MIN KAEX 140255Z AUTO 32003KT 10SM CLR 07/04 A3016 -130 79 -1000 320/03 RMK AO2 T00720039 $
93915KAEX AEX20161113210011111/13/16 21:00:31  5-MIN KAEX 140300Z AUTO 00000KT 10SM CLR 08/04 A3016 -120 79 -900 000/00 RMK AO2 T00780044 $
93915KAEX AEX20161113210511111/13/16 21:05:31  5-MIN KAEX 140305Z AUTO 00000KT 10SM CLR 08/04 A3016 -120 79 -900 000/00 RMK AO2 T00780044 $
93915KAEX AEX20161113211011111/13/16 21:10:31  5-MIN KAEX 140310Z AUTO 00000KT 10SM CLR 08/05 A3016 -120 82 -900 000/00 RMK AO2 T00780050 $
93915KAEX AEX20161113211511111/13/16 21:15:31  5-MIN KAEX 140315Z AUTO 00000KT 10SM CLR 08/04 A3016 -120 79 -900 000/00 RMK AO2 T00780044 $
93915KAEX AEX20161113212011111/13/16 21:20:31  5-MIN KAEX 140320Z AUTO 00000KT 10SM CLR 08/04 A3016 -120 76 -900 000/00 RMK AO2 T00780039 $
93915KAEX AEX20161113212511111/13/16 21:25:31  5-MIN KAEX 140325Z AUTO 00000KT 10SM CLR 08/04 A3016 -120 73 -900 000/00 RMK AO2 T00830039 $
93915KAEX AEX20161113213011111/13/16 21:30:31  5-MIN KAEX 140330Z AUTO 00000KT 10SM CLR 08/05 A3016 -120 79 -900 000/00 RMK AO2 T00830050 $
93915KAEX AEX20161113213511111/13/16 21:35:31  5-MIN KAEX 140335Z AUTO 00000KT 10SM CLR 08/05 A3016 -120 79 -900 000/00 RMK AO2 T00830050 $
93915KAEX AEX20161113214011111/13/16 21:40:31  5-MIN KAEX 140340Z AUTO 00000KT 10SM CLR 08/05 A3016 -120 79 -900 000/00 RMK AO2 T00830050 $
93915KAEX AEX20161113214511111/13/16 21:45:31  5-MIN KAEX 140345Z AUTO 00000KT 10SM CLR 08/05 A3016 -120 79 -900 000/00 RMK AO2 T00830050 $
93915KAEX AEX20161113215011811/13/16 21:50:31  5-MIN KAEX 140350Z AUTO 00000KT 10SM CLR 08/04 A3015 -120 76 -900 000/00 RMK AO2 SLP216 T00830044 $
93915KAEX AEX20161113215511111/13/16 21:55:31  5-MIN KAEX 140355Z AUTO 00000KT 10SM CLR 08/04 A3015 -120 76 -900 000/00 RMK AO2 T00830044 $
93915KAEX AEX20161113220011111/13/16 22:00:31  5-MIN KAEX 140400Z AUTO 00000KT 10SM CLR 08/04 A3016 -120 79 -900 000/00 RMK AO2 T00780044 $
93915KAEX AEX20161113220511111/13/16 22:05:31  5-MIN KAEX 140405Z AUTO 00000KT 10SM CLR 08/04 A3016 -120 76 -900 000/00 RMK AO2 T00780039 $
93915KAEX AEX20161113221011211/13/16 22:10:31  5-MIN KAEX 140410Z AUTO 00000KT 10SM CLR 07/03 A3015 -120 76 -1000 000/00 RMK AO2 T00720033 $
93915KAEX AEX20161113221511211/13/16 22:15:31  5-MIN KAEX 140415Z AUTO 00000KT 10SM CLR 07/04 A3015 -120 82 -1100 000/00 RMK AO2 T00670039 $
93915KAEX AEX20161113222011211/13/16 22:20:31  5-MIN KAEX 140420Z AUTO 00000KT 10SM CLR 07/05 A3015 -120 89 -1100 000/00 RMK AO2 T00670050 $
93915KAEX AEX20161113222511211/13/16 22:25:31  5-MIN KAEX 140425Z AUTO 00000KT 10SM CLR 06/05 A3015 -110 93 -1100 000/00 RMK AO2 T00610050 $
93915KAEX AEX20161113223011211/13/16 22:30:31  5-MIN KAEX 140430Z AUTO 00000KT 10SM CLR 06/05 A3015 -110 93 -1100 000/00 RMK AO2 T00610050 $
93915KAEX AEX20161113223511211/13/16 22:35:31  5-MIN KAEX 140435Z AUTO 00000KT 10SM CLR 06/05 A3014 -110 96 -1200 000/00 RMK AO2 T00560050 $
93915KAEX AEX20161113224011211/13/16 22:40:31  5-MIN KAEX 140440Z AUTO 00000KT 10SM CLR 06/05 A3014 -110 93 -1100 000/00 RMK AO2 T00610050 $
93915KAEX AEX20161113224511211/13/16 22:45:31  5-MIN KAEX 140445Z AUTO 00000KT 10SM CLR 06/06 A3015 -110 96 -1100 000/00 RMK AO2 T00610056 $
93915KAEX AEX20161113225011911/13/16 22:50:31  5-MIN KAEX 140450Z AUTO 00000KT 10SM CLR 06/05 A3014 -110 93 -1100 000/00 RMK AO2 SLP213 T00610050 $
93915KAEX AEX20161113225511211/13/16 22:55:31  5-MIN KAEX 140455Z AUTO 00000KT 10SM CLR 06/03 A3015 -110 85 -1200 000/00 RMK AO2 T00560033 $
93915KAEX AEX20161113230011211/13/16 23:00:31  5-MIN KAEX 140500Z AUTO 00000KT 10SM CLR 06/03 A3015 -110 79 -1100 000/00 RMK AO2 T00610028 $
93915KAEX AEX20161113230511211/13/16 23:05:31  5-MIN KAEX 140505Z AUTO 00000KT 10SM CLR 06/03 A3014 -110 79 -1100 000/00 RMK AO2 T00610028 $
93915KAEX AEX20161113231011211/13/16 23:10:31  5-MIN KAEX 140510Z AUTO 00000KT 10SM CLR 06/02 A3014 -110 76 -1100 000/00 RMK AO2 T00610022 $
93915KAEX AEX20161113231511211/13/16 23:15:31  5-MIN KAEX 140515Z AUTO 00000KT 10SM CLR 06/03 A3014 -110 79 -1100 000/00 RMK AO2 T00610028 $
93915KAEX AEX20161113232011211/13/16 23:20:31  5-MIN KAEX 140520Z AUTO 00000KT 10SM CLR 06/03 A3014 -110 79 -1100 000/00 RMK AO2 T00610028 $
93915KAEX AEX20161113232511211/13/16 23:25:31  5-MIN KAEX 140525Z AUTO 00000KT 10SM CLR 06/02 A3014 -110 76 -1100 000/00 RMK AO2 T00610022 $
93915KAEX AEX20161113233011211/13/16 23:30:31  5-MIN KAEX 140530Z AUTO 00000KT 10SM CLR 06/02 A3014 -110 73 -1100 000/00 RMK AO2 T00610017 $
93915KAEX AEX20161113233511211/13/16 23:35:31  5-MIN KAEX 140535Z AUTO 00000KT 10SM CLR 06/02 A3014 -110 73 -1100 000/00 RMK AO2 T00610017 $
93915KAEX AEX20161113234011211/13/16 23:40:31  5-MIN KAEX 140540Z AUTO 00000KT 10SM CLR 06/02 A3014 -100 76 -1100 000/00 RMK AO2 T00610022 $
93915KAEX AEX20161113234511211/13/16 23:45:31  5-MIN KAEX 140545Z AUTO 00000KT 10SM CLR 06/03 A3014 -110 82 -1200 000/00 RMK AO2 T00560028 $
93915KAEX AEX20161113235014711/13/16 23:50:31  5-MIN KAEX 140550Z AUTO 00000KT 10SM CLR 06/02 A3014 -110 76 -1100 000/00 RMK AO2 SLP211 T00610022 10122 20056 401780056 53006 $
93915KAEX AEX20161113235511211/13/16 23:55:31  5-MIN KAEX 140555Z AUTO 00000KT 10SM CLR 06/02 A3014 -110 76 -1100 000/00 RMK AO2 T00610022 $
93915KAEX AEX20161114000011211/14/16 00:00:31  5-MIN KAEX 140600Z AUTO 00000KT 10SM CLR 06/02 A3014 -110 76 -1200 000/00 RMK AO2 T00560017 $
93915KAEX AEX20161114000511211/14/16 00:05:31  5-MIN KAEX 140605Z AUTO 00000KT 10SM CLR 06/01 A3014 -100 73 -1200 000/00 RMK AO2 T00560011 $
93915KAEX AEX20161114001011211/14/16 00:10:31  5-MIN KAEX 140610Z AUTO 00000KT 10SM CLR 06/02 A3014 -100 79 -1200 000/00 RMK AO2 T00560022 $
93915KAEX AEX20161114001511211/14/16 00:15:31  5-MIN KAEX 140615Z AUTO 00000KT 10SM CLR 06/02 A3014 -100 79 -1200 000/00 RMK AO2 T00560022 $
93915KAEX AEX20161114002011211/14/16 00:20:31  5-MIN KAEX 140620Z AUTO 00000KT 10SM CLR 05/02 A3014 -100 82 -1300 000/00 RMK AO2 T00500022 $
93915KAEX AEX20161114002511211/14/16 00:25:31  5-MIN KAEX 140625Z AUTO 00000KT 10SM CLR 06/02 A3014 -100 79 -1200 000/00 RMK AO2 T00560022 $
93915KAEX AEX20161114003011211/14/16 00:30:31  5-MIN KAEX 140630Z AUTO 00000KT 10SM CLR 06/02 A3014 -100 79 -1200 000/00 RMK AO2 T00560022 $
93915KAEX AEX20161114003511211/14/16 00:35:31  5-MIN KAEX 140635Z AUTO 00000KT 10SM CLR 06/03 A3013 -100 82 -1200 000/00 RMK AO2 T00560028 $
93915KAEX AEX20161114004011211/14/16 00:40:31  5-MIN KAEX 140640Z AUTO 00000KT 10SM CLR 06/02 A3013 -100 79 -1200 000/00 RMK AO2 T00560022 $
93915KAEX AEX20161114004511211/14/16 00:45:31  5-MIN KAEX 140645Z AUTO 00000KT 10SM CLR 06/02 A3013 -100 79 -1200 000/00 RMK AO2 T00560022 $
93915KAEX AEX20161114005011911/14/16 00:50:31  5-MIN KAEX 140650Z AUTO 00000KT 10SM CLR 06/02 A3013 -100 79 -1200 000/00 RMK AO2 SLP207 T00560022 $
93915KAEX AEX20161114005511211/14/16 00:55:31  5-MIN KAEX 140655Z AUTO 00000KT 10SM CLR 06/03 A3013 -100 82 -1200 000/00 RMK AO2 T00560028 $
93915KAEX AEX20161114010011211/14/16 01:00:31  5-MIN KAEX 140700Z AUTO 00000KT 10SM CLR 05/02 A3013 -100 82 -1200 000/00 RMK AO2 T00500022 $
93915KAEX AEX20161114010511111/14/16 01:05:31  5-MIN KAEX 140705Z AUTO 00000KT 10SM CLR 06/03 A3013 -90 82 -1200 000/00 RMK AO2 T00560028 $
93915KAEX AEX20161114011011111/14/16 01:10:31  5-MIN KAEX 140710Z AUTO 33003KT 10SM CLR 06/03 A3013 -90 85 -1200 320/03 RMK AO2 T00560033 $
93915KAEX AEX20161114011511111/14/16 01:15:31  5-MIN KAEX 140715Z AUTO 32003KT 10SM CLR 06/04 A3013 -90 89 -1200 320/03 RMK AO2 T00560039 $
93915KAEX AEX20161114012011111/14/16 01:20:31  5-MIN KAEX 140720Z AUTO 31003KT 10SM CLR 05/04 A3013 -90 92 -1200 310/03 RMK AO2 T00500039 $
93915KAEX AEX20161114012511111/14/16 01:25:31  5-MIN KAEX 140725Z AUTO 00000KT 10SM CLR 05/04 A3013 -90 92 -1200 000/00 RMK AO2 T00500039 $
93915KAEX AEX20161114013011111/14/16 01:30:31  5-MIN KAEX 140730Z AUTO 00000KT 10SM CLR 04/04 A3013 -90 96 -1300 000/00 RMK AO2 T00440039 $
93915KAEX AEX20161114013511111/14/16 01:35:31  5-MIN KAEX 140735Z AUTO 00000KT 10SM CLR 04/04 A3013 -90 96 -1300 000/00 RMK AO2 T00440039 $
93915KAEX AEX20161114014011111/14/16 01:40:31  5-MIN KAEX 140740Z AUTO 00000KT 10SM CLR 04/04 A3012 -90 96 -1300 000/00 RMK AO2 T00440039 $
93915KAEX AEX20161114014511111/14/16 01:45:31  5-MIN KAEX 140745Z AUTO 00000KT 10SM CLR 04/04 A3012 -90 96 -1300 000/00 RMK AO2 T00440039 $
93915KAEX AEX20161114015011811/14/16 01:50:31  5-MIN KAEX 140750Z AUTO 35003KT 10SM CLR 04/04 A3012 -90 96 -1300 350/03 RMK AO2 SLP205 T00440039 $
93915KAEX AEX20161114015511111/14/16 01:55:31  5-MIN KAEX 140755Z AUTO 00000KT 10SM CLR 04/04 A3012 -90 96 -1300 000/00 RMK AO2 T00440039 $
93915KAEX AEX20161114020011011/14/16 02:00:31  5-MIN KAEX 140800Z AUTO 00000KT 9SM CLR 04/03 A3012 -90 96 -1400 000/00 RMK AO2 T00390033 $
93915KAEX AEX20161114020511011/14/16 02:05:31  5-MIN KAEX 140805Z AUTO 00000KT 9SM CLR 04/02 A3012 -90 82 -1300 000/00 RMK AO2 T00440017 $
93915KAEX AEX20161114021011111/14/16 02:10:31  5-MIN KAEX 140810Z AUTO 00000KT 10SM CLR 04/01 A3012 -90 79 -1300 000/00 RMK AO2 T00440011 $
93915KAEX AEX20161114021511111/14/16 02:15:31  5-MIN KAEX 140815Z AUTO 00000KT 10SM CLR 04/02 A3012 -90 85 -1300 000/00 RMK AO2 T00440022 $
93915KAEX AEX20161114022011011/14/16 02:20:31  5-MIN KAEX 140820Z AUTO 00000KT 9SM CLR 06/04 A3012 -90 89 -1200 000/00 RMK AO2 T00560039 $
93915KAEX AEX20161114022511011/14/16 02:25:31  5-MIN KAEX 140825Z AUTO 00000KT 9SM CLR 05/04 A3012 -90 92 -1200 000/00 RMK AO2 T00500039 $
93915KAEX AEX20161114023011011/14/16 02:30:31  5-MIN KAEX 140830Z AUTO 00000KT 9SM CLR 05/03 A3012 -90 89 -1200 000/00 RMK AO2 T00500033 $
93915KAEX AEX20161114023511111/14/16 02:35:31  5-MIN KAEX 140835Z AUTO 00000KT 10SM CLR 04/03 A3012 -90 89 -1300 000/00 RMK AO2 T00440028 $
93915KAEX AEX20161114024011111/14/16 02:40:31  5-MIN KAEX 140840Z AUTO 00000KT 10SM CLR 05/03 A3012 -90 89 -1200 000/00 RMK AO2 T00500033 $
93915KAEX AEX20161114024511111/14/16 02:45:31  5-MIN KAEX 140845Z AUTO 00000KT 10SM CLR 04/03 A3012 -90 89 -1300 000/00 RMK AO2 T00440028 $
93915KAEX AEX20161114025012411/14/16 02:50:31  5-MIN KAEX 140850Z AUTO 00000KT 10SM CLR 04/03 A3012 -90 92 -1300 000/00 RMK AO2 SLP205 T00440033 56007 $
93915KAEX AEX20161114025511111/14/16 02:55:31  5-MIN KAEX 140855Z AUTO 00000KT 10SM CLR 04/03 A3012 -90 92 -1300 000/00 RMK AO2 T00440033 $
93915KAEX AEX20161114030010611/14/16 03:00:31  5-MIN KAEX 140900Z 00000KT 10SM CLR 04/03 A3012 -90 92 -1300 000/00 RMK AO2 T00440033 $
93915KAEX AEX20161114030510611/14/16 03:05:31  5-MIN KAEX 140905Z 00000KT 10SM CLR 05/04 A3012 -90 92 -1200 000/00 RMK AO2 T00500039 $
93915KAEX AEX20161114031011511/14/16 03:10:31  5-MIN KAEX 140910Z 00000KT 2 1/2SM BR FEW002 05/04 A3012 -80 92 -1200 000/00 RMK AO2 T00500039 $
93915KAEX AEX20161114031512511/14/16 03:15:31  5-MIN KAEX 140915Z 00000KT 1 1/2SM BR FEW002 04/04 A3011 -80 96 -1300 000/00 RMK AO2 VIS 3/4V5 T00440039 $
93915KAEX AEX20161114032012011/14/16 03:20:31  5-MIN KAEX 140920Z 00000KT 1 1/2SM BR CLR 05/04 A3011 -80 96 -1200 000/00 RMK AO2 VIS 1V5 T00500044 $
93915KAEX AEX20161114032510811/14/16 03:25:31  5-MIN KAEX 140925Z 00000KT 3SM BR CLR 04/04 A3012 -80 96 -1300 000/00 RMK AO2 T00440039 $
93915KAEX AEX20161114033010511/14/16 03:30:31  5-MIN KAEX 140930Z 00000KT 9SM CLR 04/04 A3012 -80 96 -1300 000/00 RMK AO2 T00440039 $
93915KAEX AEX20161114033510611/14/16 03:35:31  5-MIN KAEX 140935Z 00000KT 10SM CLR 04/03 A3012 -80 92 -1300 000/00 RMK AO2 T00440033 $
93915KAEX AEX20161114034010611/14/16 03:40:31  5-MIN KAEX 140940Z 00000KT 10SM CLR 04/03 A3011 -80 92 -1400 000/00 RMK AO2 T00390028 $
93915KAEX AEX20161114034510611/14/16 03:45:31  5-MIN KAEX 140945Z 00000KT 10SM CLR 04/02 A3012 -80 89 -1400 000/00 RMK AO2 T00390022 $
93915KAEX AEX20161114035011311/14/16 03:50:31  5-MIN KAEX 140950Z 00000KT 10SM CLR 04/02 A3012 -80 85 -1400 000/00 RMK AO2 SLP203 T00390017 $
93915KAEX AEX20161114035510611/14/16 03:55:31  5-MIN KAEX 140955Z 00000KT 10SM CLR 03/02 A3011 -80 89 -1400 000/00 RMK AO2 T00330017 $
93915KAEX AEX20161114040010611/14/16 04:00:31  5-MIN KAEX 141000Z 00000KT 10SM CLR 04/02 A3011 -80 89 -1400 000/00 RMK AO2 T00390022 $
93915KAEX AEX20161114040510911/14/16 04:05:31  5-MIN KAEX 141005Z 00000KT 10SM FEW002 04/03 A3011 -80 92 -1400 000/00 RMK AO2 T00390028 $
93915KAEX AEX20161114041010911/14/16 04:10:31  5-MIN KAEX 141010Z 00000KT 10SM SCT002 04/02 A3011 -80 89 -1400 000/00 RMK AO2 T00390022 $
93915KAEX AEX20161114041510811/14/16 04:15:31  5-MIN KAEX 141015Z 00000KT 9SM BKN002 04/03 A3011 -80 92 -1400 000/00 RMK AO2 T00390028 $
93915KAEX AEX20161114042010811/14/16 04:20:31  5-MIN KAEX 141020Z 00000KT 7SM BKN002 04/03 A3011 -80 92 -1300 000/00 RMK AO2 T00440033 $
93915KAEX AEX20161114042510811/14/16 04:25:31  5-MIN KAEX 141025Z 00000KT 8SM BKN002 04/03 A3011 -80 96 -1400 000/00 RMK AO2 T00390033 $
93915KAEX AEX20161114043010811/14/16 04:30:31  5-MIN KAEX 141030Z 00000KT 9SM BKN002 04/03 A3011 -80 96 -1400 000/00 RMK AO2 T00390033 $
93915KAEX AEX20161114043510911/14/16 04:35:31  5-MIN KAEX 141035Z 00000KT 10SM BKN002 04/03 A3011 -80 96 -1400 000/00 RMK AO2 T00390033 $
93915KAEX AEX20161114044010911/14/16 04:40:31  5-MIN KAEX 141040Z 00000KT 10SM SCT002 04/03 A3011 -80 96 -1400 000/00 RMK AO2 T00390033 $
93915KAEX AEX20161114044510911/14/16 04:45:31  5-MIN KAEX 141045Z 00000KT 10SM FEW001 04/03 A3011 -80 92 -1300 000/00 RMK AO2 T00440033 $
93915KAEX AEX20161114045011611/14/16 04:50:31  5-MIN KAEX 141050Z 00000KT 10SM FEW001 04/04 A3011 -80 96 -1300 000/00 RMK AO2 SLP202 T00440039 $
93915KAEX AEX20161114045510611/14/16 04:55:31  5-MIN KAEX 141055Z 00000KT 10SM CLR 04/03 A3011 -80 92 -1400 000/00 RMK AO2 T00390028 $
93915KAEX AEX20161114050010611/14/16 05:00:31  5-MIN KAEX 141100Z 00000KT 10SM CLR 03/01 A3011 -80 85 -1400 000/00 RMK AO2 T00330011 $
93915KAEX AEX20161114050510611/14/16 05:05:31  5-MIN KAEX 141105Z 00000KT 10SM CLR 03/01 A3012 -80 85 -1400 000/00 RMK AO2 T00330011 $
93915KAEX AEX20161114051010611/14/16 05:10:31  5-MIN KAEX 141110Z 00000KT 10SM CLR 04/02 A3012 -80 89 -1400 000/00 RMK AO2 T00390022 $
93915KAEX AEX20161114051510611/14/16 05:15:31  5-MIN KAEX 141115Z 00000KT 10SM CLR 04/03 A3012 -80 89 -1300 000/00 RMK AO2 T00440028 $
93915KAEX AEX20161114052010611/14/16 05:20:31  5-MIN KAEX 141120Z 00000KT 10SM CLR 04/03 A3012 -80 92 -1400 000/00 RMK AO2 T00390028 $
93915KAEX AEX20161114052510611/14/16 05:25:31  5-MIN KAEX 141125Z 00000KT 10SM CLR 04/02 A3012 -90 89 -1400 000/00 RMK AO2 T00390022 $
93915KAEX AEX20161114053010611/14/16 05:30:31  5-MIN KAEX 141130Z 00000KT 10SM CLR 04/02 A3012 -90 89 -1400 000/00 RMK AO2 T00390022 $
93915KAEX AEX20161114053510611/14/16 05:35:31  5-MIN KAEX 141135Z 00000KT 10SM CLR 03/02 A3012 -90 92 -1400 000/00 RMK AO2 T00330022 $
93915KAEX AEX20161114054010511/14/16 05:40:31  5-MIN KAEX 141140Z 00000KT 9SM CLR 04/03 A3012 -90 92 -1400 000/00 RMK AO2 T00390028 $
93915KAEX AEX20161114054510511/14/16 05:45:31  5-MIN KAEX 141145Z 00000KT 9SM CLR 04/03 A3013 -90 92 -1400 000/00 RMK AO2 T00390028 $
93915KAEX AEX20161114055013211/14/16 05:50:31  5-MIN KAEX 141150Z 00000KT 10SM CLR 04/02 A3013 -100 89 -1400 000/00 RMK AO2 SLP207 T00390022 10061 20033 56007 $
93915KAEX AEX20161114055510711/14/16 05:55:31  5-MIN KAEX 141155Z 00000KT 10SM CLR 04/02 A3013 -100 85 -1400 000/00 RMK AO2 T00390017 $
93915KAEX AEX20161114060010711/14/16 06:00:31  5-MIN KAEX 141200Z 00000KT 10SM CLR 04/02 A3013 -100 85 -1400 000/00 RMK AO2 T00390017 $
93915KAEX AEX20161114060510711/14/16 06:05:31  5-MIN KAEX 141205Z 00000KT 10SM CLR 04/02 A3013 -100 85 -1300 000/00 RMK AO2 T00440022 $
93915KAEX AEX20161114061010711/14/16 06:10:31  5-MIN KAEX 141210Z 00000KT 10SM CLR 04/03 A3013 -100 89 -1300 000/00 RMK AO2 T00440028 $
93915KAEX AEX20161114061510711/14/16 06:15:31  5-MIN KAEX 141215Z 00000KT 10SM CLR 05/03 A3013 -100 89 -1300 000/00 RMK AO2 T00500033 $
93915KAEX AEX20161114062010611/14/16 06:20:31  5-MIN KAEX 141220Z 00000KT 9SM CLR 04/04 A3013 -100 96 -1300 000/00 RMK AO2 T00440039 $
93915KAEX AEX20161114062510711/14/16 06:25:31  5-MIN KAEX 141225Z 00000KT 10SM CLR 04/03 A3013 -100 96 -1400 000/00 RMK AO2 T00390033 $
93915KAEX AEX20161114063010711/14/16 06:30:31  5-MIN KAEX 141230Z 00000KT 10SM CLR 04/03 A3014 -100 92 -1300 000/00 RMK AO2 T00440033 $
93915KAEX AEX20161114063510611/14/16 06:35:31  5-MIN KAEX 141235Z 00000KT 9SM CLR 04/03 A3014 -100 92 -1300 000/00 RMK AO2 T00440033 $
93915KAEX AEX20161114064010611/14/16 06:40:31  5-MIN KAEX 141240Z 00000KT 9SM CLR 04/03 A3014 -100 92 -1400 000/00 RMK AO2 T00390028 $
93915KAEX AEX20161114064510611/14/16 06:45:31  5-MIN KAEX 141245Z 00000KT 9SM CLR 04/03 A3014 -100 89 -1300 000/00 RMK AO2 T00440028 $
93915KAEX AEX20161114065011411/14/16 06:50:31  5-MIN KAEX 141250Z 00000KT 10SM CLR 04/03 A3014 -100 92 -1300 000/00 RMK AO2 SLP210 T00440033 $
93915KAEX AEX20161114065510711/14/16 06:55:31  5-MIN KAEX 141255Z 00000KT 10SM CLR 04/03 A3014 -100 96 -1400 000/00 RMK AO2 T00390033 $
93915KAEX AEX20161114070010711/14/16 07:00:31  5-MIN KAEX 141300Z 00000KT 10SM CLR 04/03 A3014 -100 92 -1300 000/00 RMK AO2 T00440033 $
93915KAEX AEX20161114070510711/14/16 07:05:31  5-MIN KAEX 141305Z 00000KT 10SM CLR 04/04 A3014 -100 96 -1300 000/00 RMK AO2 T00440039 $
93915KAEX AEX20161114071010711/14/16 07:10:31  5-MIN KAEX 141310Z 00000KT 10SM CLR 05/04 A3014 -100 96 -1300 000/00 RMK AO2 T00500044 $
93915KAEX AEX20161114071510711/14/16 07:15:31  5-MIN KAEX 141315Z 00000KT 10SM CLR 06/05 A3014 -100 96 -1200 000/00 RMK AO2 T00560050 $
93915KAEX AEX20161114072010711/14/16 07:20:31  5-MIN KAEX 141320Z 00000KT 10SM CLR 06/05 A3014 -110 96 -1200 000/00 RMK AO2 T00560050 $
93915KAEX AEX20161114072510711/14/16 07:25:31  5-MIN KAEX 141325Z 00000KT 10SM CLR 06/05 A3014 -110 93 -1100 000/00 RMK AO2 T00610050 $
93915KAEX AEX20161114073010711/14/16 07:30:31  5-MIN KAEX 141330Z 00000KT 10SM CLR 06/06 A3015 -110 96 -1100 000/00 RMK AO2 T00610056 $
93915KAEX AEX20161114073510711/14/16 07:35:31  5-MIN KAEX 141335Z 00000KT 10SM CLR 06/05 A3015 -110 93 -1100 000/00 RMK AO2 T00610050 $
93915KAEX AEX20161114074010711/14/16 07:40:31  5-MIN KAEX 141340Z 00000KT 10SM CLR 07/05 A3015 -110 89 -1100 000/00 RMK AO2 T00670050 $
93915KAEX AEX20161114074510711/14/16 07:45:31  5-MIN KAEX 141345Z 00000KT 10SM CLR 07/06 A3015 -120 93 -1100 000/00 RMK AO2 T00670056 $
93915KAEX AEX20161114075011411/14/16 07:50:31  5-MIN KAEX 141350Z 00000KT 10SM CLR 07/06 A3015 -120 89 -1000 000/00 RMK AO2 SLP215 T00720056 $
93915KAEX AEX20161114075510611/14/16 07:55:31  5-MIN KAEX 141355Z 00000KT 10SM CLR 08/06 A3015 -120 86 -900 000/00 RMK AO2 T00780056 $
93915KAEX AEX20161114080010611/14/16 08:00:31  5-MIN KAEX 141400Z 00000KT 10SM CLR 08/06 A3015 -120 86 -900 000/00 RMK AO2 T00780056 $
93915KAEX AEX20161114080510611/14/16 08:05:31  5-MIN KAEX 141405Z 00000KT 10SM CLR 08/06 A3016 -120 86 -900 000/00 RMK AO2 T00830061 $
93915KAEX AEX20161114081010611/14/16 08:10:31  5-MIN KAEX 141410Z 00000KT 10SM CLR 09/06 A3015 -120 83 -800 000/00 RMK AO2 T00890061 $
93915KAEX AEX20161114081510611/14/16 08:15:31  5-MIN KAEX 141415Z 00000KT 10SM CLR 09/06 A3015 -120 79 -700 000/00 RMK AO2 T00940061 $
93915KAEX AEX20161114082010611/14/16 08:20:31  5-MIN KAEX 141420Z 00000KT 10SM CLR 09/07 A3016 -120 83 -700 000/00 RMK AO2 T00940067 $
93915KAEX AEX20161114082510611/14/16 08:25:31  5-MIN KAEX 141425Z 00000KT 10SM CLR 10/07 A3016 -120 80 -700 000/00 RMK AO2 T01000067 $
93915KAEX AEX20161114083010611/14/16 08:30:31  5-MIN KAEX 141430Z 00000KT 10SM CLR 10/06 A3015 -120 77 -700 000/00 RMK AO2 T01000061 $
93915KAEX AEX20161114083510611/14/16 08:35:31  5-MIN KAEX 141435Z 00000KT 10SM CLR 11/07 A3015 -120 77 -600 000/00 RMK AO2 T01060067 $
93915KAEX AEX20161114084010611/14/16 08:40:31  5-MIN KAEX 141440Z 00000KT 10SM CLR 11/07 A3015 -120 74 -500 000/00 RMK AO2 T01110067 $
93915KAEX AEX20161114084510611/14/16 08:45:31  5-MIN KAEX 141445Z 00000KT 10SM CLR 12/07 A3015 -120 71 -500 000/00 RMK AO2 T01170067 $
93915KAEX AEX20161114085011911/14/16 08:50:31  5-MIN KAEX 141450Z 00000KT 10SM CLR 12/07 A3015 -120 74 -500 000/00 RMK AO2 SLP215 T01170072 53003 $
93915KAEX AEX20161114085510611/14/16 08:55:31  5-MIN KAEX 141455Z 00000KT 10SM CLR 13/07 A3015 -120 69 -300 000/00 RMK AO2 T01280072 $
93915KAEX AEX20161114090010611/14/16 09:00:31  5-MIN KAEX 141500Z 00000KT 10SM CLR 13/07 A3015 -120 69 -300 000/00 RMK AO2 T01280072 $
93915KAEX AEX20161114090510411/14/16 09:05:31  5-MIN KAEX 141505Z 00000KT 10SM CLR 13/07 A3015 -120 66 -300 000/00 RMK AO2 T01330072
93915KAEX AEX20161114091010411/14/16 09:10:31  5-MIN KAEX 141510Z 00000KT 10SM CLR 14/07 A3015 -120 64 -200 000/00 RMK AO2 T01390072
93915KAEX AEX20161114091510411/14/16 09:15:31  5-MIN KAEX 141515Z 00000KT 10SM CLR 14/07 A3015 -120 64 -200 000/00 RMK AO2 T01390072
93915KAEX AEX20161114092010411/14/16 09:20:31  5-MIN KAEX 141520Z 00000KT 10SM CLR 14/07 A3015 -120 61 -100 000/00 RMK AO2 T01440072
93915KAEX AEX20161114092510411/14/16 09:25:31  5-MIN KAEX 141525Z 00000KT 10SM CLR 15/07 A3015 -120 59 -100 000/00 RMK AO2 T01500072
93915KAEX AEX20161114093010411/14/16 09:30:31  5-MIN KAEX 141530Z 00000KT 10SM CLR 15/07 A3016 -120 57 -100 000/00 RMK AO2 T01500067
93915KAEX AEX20161114093510411/14/16 09:35:31  5-MIN KAEX 141535Z 00000KT 10SM CLR 15/07 A3015 -120 57 -100 000/00 RMK AO2 T01500067
93915KAEX AEX20161114094010111/14/16 09:40:31  5-MIN KAEX 141540Z 00000KT 10SM CLR 16/07 A3015 -120 55 0 000/00 RMK AO2 T01560067
93915KAEX AEX20161114094510111/14/16 09:45:31  5-MIN KAEX 141545Z 00000KT 10SM CLR 16/06 A3015 -120 53 0 000/00 RMK AO2 T01560061
93915KAEX AEX20161114095010811/14/16 09:50:31  5-MIN KAEX 141550Z 00000KT 10SM CLR 16/06 A3015 -120 49 0 000/00 RMK AO2 SLP214 T01610056
93915KAEX AEX20161114095510311/14/16 09:55:31  5-MIN KAEX 141555Z 00000KT 10SM CLR 17/05 A3015 -120 45 100 000/00 RMK AO2 T01670050
93915KAEX AEX20161114100010311/14/16 10:00:31  5-MIN KAEX 141600Z 00000KT 10SM CLR 17/05 A3015 -120 45 100 000/00 RMK AO2 T01670050
93915KAEX AEX20161114100510311/14/16 10:05:31  5-MIN KAEX 141605Z 00000KT 10SM CLR 17/05 A3015 -110 45 100 000/00 RMK AO2 T01670050
93915KAEX AEX20161114101010311/14/16 10:10:31  5-MIN KAEX 141610Z 00000KT 10SM CLR 17/04 A3015 -120 44 100 000/00 RMK AO2 T01670044
93915KAEX AEX20161114101510311/14/16 10:15:31  5-MIN KAEX 141615Z 28003KT 10SM CLR 17/04 A3015 -110 42 200 280/03 RMK AO2 T01720044
93915KAEX AEX20161114102010311/14/16 10:20:31  5-MIN KAEX 141620Z 00000KT 10SM CLR 17/04 A3015 -110 42 200 000/00 RMK AO2 T01720044
93915KAEX AEX20161114102510311/14/16 10:25:31  5-MIN KAEX 141625Z VRB03KT 10SM CLR 18/05 A3015 -110 42 200 VRB/03 RMK AO2 T01780050
93915KAEX AEX20161114103010311/14/16 10:30:31  5-MIN KAEX 141630Z 00000KT 10SM CLR 18/05 A3015 -110 42 200 000/00 RMK AO2 T01780050
93915KAEX AEX20161114103510311/14/16 10:35:31  5-MIN KAEX 141635Z 00000KT 10SM CLR 18/05 A3014 -110 41 300 000/00 RMK AO2 T01830050
93915KAEX AEX20161114104010311/14/16 10:40:31  5-MIN KAEX 141640Z 18003KT 10SM CLR 19/05 A3014 -110 39 400 170/03 RMK AO2 T01890050
93915KAEX AEX20161114104510311/14/16 10:45:31  5-MIN KAEX 141645Z 00000KT 10SM CLR 18/04 A3014 -110 39 300 000/00 RMK AO2 T01830044
93915KAEX AEX20161114105011011/14/16 10:50:31  5-MIN KAEX 141650Z VRB03KT 10SM CLR 19/04 A3014 -100 38 400 VRB/03 RMK AO2 SLP209 T01890044
93915KAEX AEX20161114105510311/14/16 10:55:31  5-MIN KAEX 141655Z 00000KT 10SM CLR 19/04 A3014 -100 36 400 000/00 RMK AO2 T01890039
93915KAEX AEX20161114110010311/14/16 11:00:31  5-MIN KAEX 141700Z 00000KT 10SM CLR 19/03 A3013 -100 35 400 000/00 RMK AO2 T01890033
93915KAEX AEX20161114110510311/14/16 11:05:31  5-MIN KAEX 141705Z 00000KT 10SM CLR 19/03 A3013 -100 34 400 000/00 RMK AO2 T01940033
93915KAEX AEX20161114111010211/14/16 11:10:31  5-MIN KAEX 141710Z 00000KT 10SM CLR 19/04 A3013 -90 35 400 000/00 RMK AO2 T01940039
93915KAEX AEX20161114111510211/14/16 11:15:31  5-MIN KAEX 141715Z 00000KT 10SM CLR 20/04 A3012 -90 34 500 000/00 RMK AO2 T02000039
93915KAEX AEX20161114112010211/14/16 11:20:31  5-MIN KAEX 141720Z 00000KT 10SM CLR 20/04 A3012 -90 34 500 000/00 RMK AO2 T02000039
93915KAEX AEX20161114112510211/14/16 11:25:31  5-MIN KAEX 141725Z VRB03KT 10SM CLR 20/04 A3012 -90 35 500 VRB/03 RMK AO2 T02000044
93915KAEX AEX20161114113010211/14/16 11:30:31  5-MIN KAEX 141730Z 23005KT 10SM CLR 20/04 A3011 -80 35 500 230/05 RMK AO2 T02000044
93915KAEX AEX20161114113510211/14/16 11:35:31  5-MIN KAEX 141735Z 24003KT 10SM CLR 20/05 A3011 -80 37 500 240/03 RMK AO2 T02000050
93915KAEX AEX20161114114010211/14/16 11:40:31  5-MIN KAEX 141740Z 00000KT 10SM CLR 21/05 A3011 -80 35 600 000/00 RMK AO2 T02060050
93915KAEX AEX20161114114510211/14/16 11:45:31  5-MIN KAEX 141745Z VRB04KT 10SM CLR 21/04 A3010 -70 34 600 VRB/04 RMK AO2 T02060044
93915KAEX AEX20161114115012711/14/16 11:50:31  5-MIN KAEX 141750Z VRB04KT 10SM CLR 21/05 A3010 -70 34 700 VRB/04 RMK AO2 SLP195 T02110050 10211 20039 50007
93915KAEX AEX20161114115510211/14/16 11:55:31  5-MIN KAEX 141755Z 00000KT 10SM CLR 21/05 A3009 -60 35 600 000/00 RMK AO2 T02060050
93915KAEX AEX20161114120010211/14/16 12:00:31  5-MIN KAEX 141800Z VRB03KT 10SM CLR 21/05 A3009 -60 34 700 VRB/03 RMK AO2 T02110050
93915KAEX AEX20161114120510211/14/16 12:05:31  5-MIN KAEX 141805Z VRB03KT 10SM CLR 21/05 A3009 -60 34 700 VRB/03 RMK AO2 T02110050
93915KAEX AEX20161114121010211/14/16 12:10:31  5-MIN KAEX 141810Z 00000KT 10SM CLR 22/06 A3008 -50 34 700 000/00 RMK AO2 T02170056
93915KAEX AEX20161114121510211/14/16 12:15:31  5-MIN KAEX 141815Z 25003KT 10SM CLR 22/06 A3008 -50 34 700 250/03 RMK AO2 T02170056
93915KAEX AEX20161114122010211/14/16 12:20:31  5-MIN KAEX 141820Z 00000KT 10SM CLR 21/06 A3008 -50 37 700 000/00 RMK AO2 T02110061
93915KAEX AEX20161114122510211/14/16 12:25:31  5-MIN KAEX 141825Z 00000KT 10SM CLR 21/07 A3007 -40 38 700 000/00 RMK AO2 T02110067
93915KAEX AEX20161114123010211/14/16 12:30:31  5-MIN KAEX 141830Z 00000KT 10SM CLR 22/07 A3007 -40 37 800 000/00 RMK AO2 T02170067
93915KAEX AEX20161114123510211/14/16 12:35:31  5-MIN KAEX 141835Z VRB03KT 10SM CLR 22/07 A3006 -40 36 800 VRB/03 RMK AO2 T02220067
93915KAEX AEX20161114124010211/14/16 12:40:31  5-MIN KAEX 141840Z 24003KT 10SM CLR 22/07 A3006 -40 36 800 240/03 RMK AO2 T02220067
93915KAEX AEX20161114124510211/14/16 12:45:31  5-MIN KAEX 141845Z VRB04KT 10SM CLR 22/07 A3006 -30 37 800 VRB/04 RMK AO2 T02220072
93915KAEX AEX20161114125010911/14/16 12:50:31  5-MIN KAEX 141850Z 17004KT 10SM CLR 22/07 A3006 -30 37 800 170/04 RMK AO2 SLP182 T02220072
93915KAEX AEX20161114125510511/14/16 12:55:31  5-MIN KAEX 141855Z VRB03KT 10SM FEW036 22/07 A3005 -30 37 800 VRB/03 RMK AO2 T02220072
93915KAEX AEX20161114130010511/14/16 13:00:31  5-MIN KAEX 141900Z VRB05KT 10SM SCT036 23/08 A3005 -20 37 900 VRB/05 RMK AO2 T02280078
93915KAEX AEX20161114130510511/14/16 13:05:31  5-MIN KAEX 141905Z 24006KT 10SM SCT037 23/08 A3005 -20 37 900 240/06 RMK AO2 T02280078
93915KAEX AEX20161114131010511/14/16 13:10:31  5-MIN KAEX 141910Z 26004KT 10SM FEW037 22/08 A3005 -20 39 900 260/04 RMK AO2 T02220078
93915KAEX AEX20161114131510511/14/16 13:15:31  5-MIN KAEX 141915Z 29004KT 10SM FEW037 23/08 A3004 -20 39 900 290/04 RMK AO2 T02280083
93915KAEX AEX20161114132010511/14/16 13:20:31  5-MIN KAEX 141920Z 35005KT 10SM FEW037 23/08 A3004 -20 39 900 350/05 RMK AO2 T02280083
93915KAEX AEX20161114132510611/14/16 13:25:31  5-MIN KAEX 141925Z 26005KT 10SM FEW037 23/08 A3004 -10 38 1000 260/05 RMK AO2 T02330083
93915KAEX AEX20161114133010211/14/16 13:30:31  5-MIN KAEX 141930Z 27007KT 10SM CLR 23/09 A3004 -10 40 900 270/07 RMK AO2 T02280089
93915KAEX AEX20161114133510211/14/16 13:35:31  5-MIN KAEX 141935Z VRB06KT 10SM CLR 23/09 A3004 -10 40 900 VRB/06 RMK AO2 T02280089
93915KAEX AEX20161114134010311/14/16 13:40:31  5-MIN KAEX 141940Z 34004KT 10SM CLR 23/09 A3004 -10 41 1000 340/04 RMK AO2 T02330094
93915KAEX AEX20161114134510311/14/16 13:45:31  5-MIN KAEX 141945Z 35005KT 10SM CLR 23/09 A3004 -10 41 1000 340/05 RMK AO2 T02330094
93915KAEX AEX20161114135011011/14/16 13:50:31  5-MIN KAEX 141950Z 00000KT 10SM CLR 23/09 A3003 -10 39 1000 000/00 RMK AO2 SLP174 T02330089
93915KAEX AEX20161114135510211/14/16 13:55:31  5-MIN KAEX 141955Z 00000KT 10SM CLR 23/09 A3003 -10 42 900 000/00 RMK AO2 T02280094
93915KAEX AEX20161114140010111/14/16 14:00:31  5-MIN KAEX 142000Z 28005KT 10SM CLR 23/09 A3003 0 41 1000 280/05 RMK AO2 T02330094
93915KAEX AEX20161114140510111/14/16 14:05:31  5-MIN KAEX 142005Z VRB06KT 10SM CLR 23/09 A3003 0 41 1000 VRB/06 RMK AO2 T02330094
93915KAEX AEX20161114141010111/14/16 14:10:31  5-MIN KAEX 142010Z 27006KT 10SM CLR 23/09 A3003 0 41 1000 270/06 RMK AO2 T02330094
93915KAEX AEX20161114141510111/14/16 14:15:31  5-MIN KAEX 142015Z VRB03KT 10SM CLR 23/09 A3003 0 41 1000 VRB/03 RMK AO2 T02330094
93915KAEX AEX20161114142010111/14/16 14:20:31  5-MIN KAEX 142020Z 26006KT 10SM CLR 23/09 A3003 0 41 1000 260/06 RMK AO2 T02330094
93915KAEX AEX20161114142510111/14/16 14:25:31  5-MIN KAEX 142025Z 00000KT 10SM CLR 23/09 A3003 0 41 1000 000/00 RMK AO2 T02330094
93915KAEX AEX20161114143010111/14/16 14:30:31  5-MIN KAEX 142030Z 00000KT 10SM CLR 23/09 A3003 0 41 1000 000/00 RMK AO2 T02330094
93915KAEX AEX20161114143510111/14/16 14:35:31  5-MIN KAEX 142035Z 00000KT 10SM CLR 24/09 A3003 0 39 1100 000/00 RMK AO2 T02390094
93915KAEX AEX20161114144010111/14/16 14:40:31  5-MIN KAEX 142040Z 00000KT 10SM CLR 23/09 A3002 0 41 1000 000/00 RMK AO2 T02330094
93915KAEX AEX20161114144510111/14/16 14:45:31  5-MIN KAEX 142045Z 27006KT 10SM CLR 24/09 A3002 0 39 1100 270/06 RMK AO2 T02390094
93915KAEX AEX20161114145011411/14/16 14:50:31  5-MIN KAEX 142050Z 27005KT 10SM CLR 23/09 A3002 0 41 1000 270/05 RMK AO2 SLP170 T02330094 58019
93915KAEX AEX20161114145509111/14/16 14:55:31  5-MIN KAEX 142055Z 10SM CLR 23/09 A3002 0 41 1000 M /M RMK AO2 T02330094
93915KAEX AEX20161114150010111/14/16 15:00:31  5-MIN KAEX 142100Z 27003KT 10SM CLR 23/09 A3002 0 41 1000 270/03 RMK AO2 T02330094
93915KAEX AEX20161114150510111/14/16 15:05:31  5-MIN KAEX 142105Z 18005KT 10SM CLR 23/09 A3002 0 41 1000 170/05 RMK AO2 T02330094
93915KAEX AEX20161114151010111/14/16 15:10:31  5-MIN KAEX 142110Z VRB04KT 10SM CLR 23/09 A3002 0 41 1000 VRB/04 RMK AO2 T02330094
93915KAEX AEX20161114151510111/14/16 15:15:31  5-MIN KAEX 142115Z VRB04KT 10SM CLR 23/09 A3001 0 41 1000 VRB/04 RMK AO2 T02330094
93915KAEX AEX20161114152010111/14/16 15:20:31  5-MIN KAEX 142120Z 00000KT 10SM CLR 23/10 A3002 0 42 1000 000/00 RMK AO2 T02330100
93915KAEX AEX20161114152510111/14/16 15:25:31  5-MIN KAEX 142125Z 20004KT 10SM CLR 23/10 A3002 0 42 1000 200/04 RMK AO2 T02330100
93915KAEX AEX20161114153010111/14/16 15:30:31  5-MIN KAEX 142130Z VRB04KT 10SM CLR 23/10 A3002 0 42 1000 VRB/04 RMK AO2 T02330100
93915KAEX AEX20161114153510111/14/16 15:35:31  5-MIN KAEX 142135Z 21005KT 10SM CLR 23/10 A3001 0 42 1000 210/05 RMK AO2 T02330100
93915KAEX AEX20161114154010111/14/16 15:40:31  5-MIN KAEX 142140Z 00000KT 10SM CLR 23/10 A3001 0 42 1000 000/00 RMK AO2 T02330100
93915KAEX AEX20161114154510111/14/16 15:45:31  5-MIN KAEX 142145Z 21004KT 10SM CLR 23/10 A3001 0 42 1000 200/04 RMK AO2 T02330100
93915KAEX AEX20161114155010911/14/16 15:50:31  5-MIN KAEX 142150Z VRB03KT 10SM CLR 23/10 A3001 10 42 1000 VRB/03 RMK AO2 SLP167 T02330100
93915KAEX AEX20161114155510211/14/16 15:55:31  5-MIN KAEX 142155Z 22004KT 10SM CLR 23/10 A3001 10 42 1000 220/04 RMK AO2 T02330100
93915KAEX AEX20161114160010211/14/16 16:00:31  5-MIN KAEX 142200Z 19003KT 10SM CLR 23/10 A3001 10 42 1000 190/03 RMK AO2 T02330100
93915KAEX AEX20161114160510211/14/16 16:05:31  5-MIN KAEX 142205Z 21004KT 10SM CLR 23/10 A3001 10 42 1000 200/04 RMK AO2 T02330100
93915KAEX AEX20161114161010211/14/16 16:10:31  5-MIN KAEX 142210Z 22003KT 10SM CLR 23/10 A3001 10 44 1000 220/03 RMK AO2 T02280100
93915KAEX AEX20161114161510211/14/16 16:15:31  5-MIN KAEX 142215Z 15004KT 10SM CLR 23/10 A3001 10 44 1000 150/04 RMK AO2 T02280100
93915KAEX AEX20161114162010211/14/16 16:20:31  5-MIN KAEX 142220Z 15003KT 10SM CLR 23/10 A3001 10 44 1000 140/03 RMK AO2 T02280100
93915KAEX AEX20161114162510211/14/16 16:25:31  5-MIN KAEX 142225Z 14003KT 10SM CLR 23/10 A3001 10 44 1000 140/03 RMK AO2 T02280100
93915KAEX AEX20161114163010111/14/16 16:30:31  5-MIN KAEX 142230Z 00000KT 10SM CLR 22/10 A3001 10 45 900 000/00 RMK AO2 T02220100
93915KAEX AEX20161114163510111/14/16 16:35:31  5-MIN KAEX 142235Z 17003KT 10SM CLR 22/10 A3001 10 45 900 170/03 RMK AO2 T02220100
93915KAEX AEX20161114164010211/14/16 16:40:31  5-MIN KAEX 142240Z 20004KT 10SM CLR 23/10 A3001 10 44 1000 200/04 RMK AO2 T02280100
93915KAEX AEX20161114164510111/14/16 16:45:31  5-MIN KAEX 142245Z 19004KT 10SM CLR 22/10 A3000 10 45 900 190/04 RMK AO2 T02220100
93915KAEX AEX20161114165011311/14/16 16:50:31  5-MIN KAEX 142250Z AUTO 19005KT 10SM CLR 22/10 A3001 10 45 900 190/05 RMK AO2 SLP165 T02220100
93915KAEX AEX20161114165510111/14/16 16:55:31  5-MIN KAEX 142255Z 19004KT 10SM CLR 22/10 A3001 10 45 900 180/04 RMK AO2 T02220100
93915KAEX AEX20161114170010611/14/16 17:00:31  5-MIN KAEX 142300Z 17005KT 6SM HZ FEW003 22/11 A3001 10 49 800 170/05 RMK AO2 T02170106
93915KAEX AEX20161114170510611/14/16 17:05:31  5-MIN KAEX 142305Z 18005KT 3SM HZ FEW003 21/11 A3001 10 50 800 170/05 RMK AO2 T02110106
93915KAEX AEX20161114171010311/14/16 17:10:31  5-MIN KAEX 142310Z 17005KT 3SM HZ CLR 21/11 A3001 10 52 700 170/05 RMK AO2 T02060106
93915KAEX AEX20161114171510311/14/16 17:15:31  5-MIN KAEX 142315Z 17005KT 2SM HZ CLR 20/11 A3001 10 54 600 170/05 RMK AO2 T02000106
93915KAEX AEX20161114172010411/14/16 17:20:31  5-MIN KAEX 142320Z 17005KT 10SM FEW003 20/11 A3001 10 54 600 170/05 RMK AO2 T02000106
93915KAEX AEX20161114172510411/14/16 17:25:31  5-MIN KAEX 142325Z 17005KT 10SM FEW003 19/11 A3001 10 56 600 170/05 RMK AO2 T01940106
93915KAEX AEX20161114173010111/14/16 17:30:31  5-MIN KAEX 142330Z 17006KT 10SM CLR 19/11 A3001 10 56 600 160/06 RMK AO2 T01940106
93915KAEX AEX20161114173510111/14/16 17:35:31  5-MIN KAEX 142335Z 17005KT 10SM CLR 19/10 A3001 10 56 500 160/05 RMK AO2 T01890100
93915KAEX AEX20161114174010111/14/16 17:40:31  5-MIN KAEX 142340Z 17005KT 10SM CLR 18/10 A3001 10 58 400 160/05 RMK AO2 T01830100
93915KAEX AEX20161114174510111/14/16 17:45:31  5-MIN KAEX 142345Z 17005KT 10SM CLR 19/10 A3001 10 56 500 160/05 RMK AO2 T01890100
93915KAEX AEX20161114175012511/14/16 17:50:31  5-MIN KAEX 142350Z 17005KT 10SM CLR 18/10 A3001 0 58 400 170/05 RMK AO2 SLP168 T01830100 10239 20183 56025
93915KAEX AEX20161114175510211/14/16 17:55:31  5-MIN KAEX 142355Z 17005KT 6SM HZ CLR 18/11 A3001 0 60 400 170/05 RMK AO2 T01830106
93915KAEX AEX20161114180009911/14/16 18:00:31  5-MIN KAEX 150000Z 17005KT 7SM CLR 18/10 A3002 0 60 400 170/05 RMK AO2 T01780100
93915KAEX AEX20161114180509911/14/16 18:05:31  5-MIN KAEX 150005Z 16005KT 9SM CLR 17/10 A3002 0 62 300 160/05 RMK AO2 T01720100
93915KAEX AEX20161114181010011/14/16 18:10:31  5-MIN KAEX 150010Z 13003KT 10SM CLR 17/11 A3002 0 64 300 130/03 RMK AO2 T01720106
93915KAEX AEX20161114181510011/14/16 18:15:31  5-MIN KAEX 150015Z 12004KT 10SM CLR 17/11 A3002 0 64 300 120/04 RMK AO2 T01720106
93915KAEX AEX20161114182010011/14/16 18:20:31  5-MIN KAEX 150020Z 12004KT 10SM CLR 17/11 A3002 0 69 200 120/04 RMK AO2 T01670111
93915KAEX AEX20161114182510011/14/16 18:25:31  5-MIN KAEX 150025Z 12004KT 10SM CLR 17/11 A3002 0 67 200 120/04 RMK AO2 T01670106
93915KAEX AEX20161114183010011/14/16 18:30:31  5-MIN KAEX 150030Z 12003KT 10SM CLR 17/11 A3002 0 69 200 120/03 RMK AO2 T01670111
93915KAEX AEX20161114183510011/14/16 18:35:31  5-MIN KAEX 150035Z 12003KT 10SM CLR 17/11 A3002 0 67 300 120/03 RMK AO2 T01720111
93915KAEX AEX20161114184010011/14/16 18:40:31  5-MIN KAEX 150040Z 12004KT 10SM CLR 17/11 A3002 0 67 200 120/04 RMK AO2 T01670106
93915KAEX AEX20161114184510011/14/16 18:45:31  5-MIN KAEX 150045Z 13004KT 10SM CLR 16/11 A3002 0 69 200 130/04 RMK AO2 T01610106
93915KAEX AEX20161115210010111/15/16 21:00:31  5-MIN KAEX 160300Z 00000KT 9SM CLR 13/09 A3000 10 74 -100 000/00 RMK AO2 T01330089
93915KAEX AEX20161115210510111/15/16 21:05:31  5-MIN KAEX 160305Z 00000KT 8SM CLR 13/11 A3001 10 83 -100 000/00 RMK AO2 T01330106
93915KAEX AEX20161115211010111/15/16 21:10:31  5-MIN KAEX 160310Z 00000KT 7SM CLR 13/11 A3001 10 86 -100 000/00 RMK AO2 T01330111
93915KAEX AEX20161115211510111/15/16 21:15:31  5-MIN KAEX 160315Z 00000KT 8SM CLR 13/12 A3001 10 89 -100 000/00 RMK AO2 T01330117
93915KAEX AEX20161115212010111/15/16 21:20:31  5-MIN KAEX 160320Z 00000KT 7SM CLR 13/12 A3001 10 93 -200 000/00 RMK AO2 T01280117
93915KAEX AEX20161115212511811/15/16 21:25:31  5-MIN KAEX 160325Z 00000KT 2 1/2SM BR CLR 12/12 A3001 10 96 -200 000/00 RMK AO2 VIS 1/2V5 T01220117
93915KAEX AEX20161115213010411/15/16 21:30:31  5-MIN KAEX 160330Z 00000KT 3SM BR CLR 13/12 A3001 10 93 -200 000/00 RMK AO2 T01280117
93915KAEX AEX20161115213510411/15/16 21:35:31  5-MIN KAEX 160335Z 00000KT 3SM BR CLR 12/12 A3001 10 96 -200 000/00 RMK AO2 T01220117
93915KAEX AEX20161115214010411/15/16 21:40:31  5-MIN KAEX 160340Z 00000KT 3SM BR CLR 13/12 A3001 10 93 -200 000/00 RMK AO2 T01280117
93915KAEX AEX20161115214510411/15/16 21:45:31  5-MIN KAEX 160345Z 00000KT 3SM BR CLR 13/12 A3001 10 93 -200 000/00 RMK AO2 T01280117
93915KAEX AEX20161115215011111/15/16 21:50:31  5-MIN KAEX 160350Z 00000KT 3SM BR CLR 12/11 A3001 10 96 -300 000/00 RMK AO2 SLP165 T01170111
93915KAEX AEX20161115215510411/15/16 21:55:31  5-MIN KAEX 160355Z 00000KT 2SM BR CLR 12/11 A3001 10 89 -200 000/00 RMK AO2 T01220106
93915KAEX AEX20161115220010811/15/16 22:00:31  5-MIN KAEX 160400Z 00000KT 1 1/4SM BR CLR 12/09 A3000 10 86 -300 000/00 RMK AO2 T01170094
93915KAEX AEX20161115220510411/15/16 22:05:31  5-MIN KAEX 160405Z 00000KT 2SM HZ CLR 12/09 A3000 10 80 -200 000/00 RMK AO2 T01220089
93915KAEX AEX20161115221010411/15/16 22:10:31  5-MIN KAEX 160410Z 00000KT 5SM BR CLR 12/10 A3000 10 86 -200 000/00 RMK AO2 T01220100
93915KAEX AEX20161115221510411/15/16 22:15:31  5-MIN KAEX 160415Z 00000KT 5SM BR CLR 12/10 A3000 10 86 -200 000/00 RMK AO2 T01220100
93915KAEX AEX20161115222010411/15/16 22:20:31  5-MIN KAEX 160420Z 00000KT 5SM BR CLR 12/11 A3000 10 89 -200 000/00 RMK AO2 T01220106
93915KAEX AEX20161115222510411/15/16 22:25:31  5-MIN KAEX 160425Z 00000KT 5SM BR CLR 12/09 A3000 20 86 -300 000/00 RMK AO2 T01170094
93915KAEX AEX20161115223010411/15/16 22:30:31  5-MIN KAEX 160430Z 00000KT 5SM HZ CLR 12/09 A3000 20 83 -200 000/00 RMK AO2 T01220094
93915KAEX AEX20161115223510411/15/16 22:35:31  5-MIN KAEX 160435Z 00000KT 5SM BR CLR 12/10 A3000 20 86 -200 000/00 RMK AO2 T01220100
93915KAEX AEX20161115224010411/15/16 22:40:31  5-MIN KAEX 160440Z 00000KT 5SM BR CLR 12/11 A3000 20 93 -200 000/00 RMK AO2 T01220111
93915KAEX AEX20161115224510411/15/16 22:45:31  5-MIN KAEX 160445Z 00000KT 5SM BR CLR 12/12 A3000 20 96 -200 000/00 RMK AO2 T01220117
93915KAEX AEX20161115225011111/15/16 22:50:31  5-MIN KAEX 160450Z 00000KT 3SM BR CLR 12/12 A3000 20 96 -200 000/00 RMK AO2 SLP163 T01220117
93915KAEX AEX20161115225510811/15/16 22:55:31  5-MIN KAEX 160455Z 00000KT 2 1/2SM BR CLR 12/12 A3000 20 96 -200 000/00 RMK AO2 T01220117
93915KAEX AEX20161115230010411/15/16 23:00:31  5-MIN KAEX 160500Z 00000KT 3SM BR CLR 12/11 A3000 20 93 -300 000/00 RMK AO2 T01170106
93915KAEX AEX20161115230510411/15/16 23:05:31  5-MIN KAEX 160505Z 00000KT 4SM BR CLR 11/09 A3000 20 89 -400 000/00 RMK AO2 T01110094
93915KAEX AEX20161115231010411/15/16 23:10:31  5-MIN KAEX 160510Z 00000KT 4SM HZ CLR 12/09 A3000 20 83 -300 000/00 RMK AO2 T01170089
93915KAEX AEX20161115231510411/15/16 23:15:31  5-MIN KAEX 160515Z 00000KT 5SM BR CLR 11/09 A3000 20 86 -400 000/00 RMK AO2 T01110089
93915KAEX AEX20161115232010811/15/16 23:20:31  5-MIN KAEX 160520Z 00000KT 1 1/2SM HZ CLR 12/09 A3000 20 83 -300 000/00 RMK AO2 T01170089
93915KAEX AEX20161115232510611/15/16 23:25:31  5-MIN KAEX 160525Z 00000KT 3/4SM BR CLR 12/11 A3000 20 93 -300 000/00 RMK AO2 T01170106
93915KAEX AEX20161115233010611/15/16 23:30:31  5-MIN KAEX 160530Z 00000KT 3/4SM BR CLR 11/11 A3000 20 96 -400 000/00 RMK AO2 T01110106
93915KAEX AEX20161115233510811/15/16 23:35:31  5-MIN KAEX 160535Z 00000KT 2 1/2SM BR CLR 12/11 A3000 20 93 -300 000/00 RMK AO2 T01170106
93915KAEX AEX20161115234010111/15/16 23:40:31  5-MIN KAEX 160540Z 00000KT 7SM CLR 12/11 A3000 20 93 -300 000/00 RMK AO2 T01170106
93915KAEX AEX20161115234510411/15/16 23:45:31  5-MIN KAEX 160545Z 00000KT 6SM BR CLR 12/11 A3000 20 96 -300 000/00 RMK AO2 T01170111
93915KAEX AEX20161115235013911/15/16 23:50:31  5-MIN KAEX 160550Z 00000KT 6SM BR CLR 12/11 A2999 20 93 -300 000/00 RMK AO2 SLP161 T01170106 10189 20111 402560111 52008
93915KAEX AEX20161115235510411/15/16 23:55:31  5-MIN KAEX 160555Z 00000KT 5SM BR CLR 11/11 A2999 20 96 -300 000/00 RMK AO2 T01110106
93915KAEX AEX20161116000010411/16/16 00:00:31  5-MIN KAEX 160600Z 00000KT 5SM BR CLR 11/09 A2999 20 93 -400 000/00 RMK AO2 T01060094
93915KAEX AEX20161116000510411/16/16 00:05:31  5-MIN KAEX 160605Z 00000KT 4SM HZ CLR 11/08 A2999 20 83 -400 000/00 RMK AO2 T01060078
93915KAEX AEX20161116001010411/16/16 00:10:31  5-MIN KAEX 160610Z 00000KT 4SM HZ CLR 11/08 A2999 20 83 -400 000/00 RMK AO2 T01060078
93915KAEX AEX20161116001510811/16/16 00:15:31  5-MIN KAEX 160615Z 00000KT 3/4SM BR VV003 11/09 A3000 20 93 -400 000/00 RMK AO2 T01060094
93915KAEX AEX20161116002010911/16/16 00:20:31  5-MIN KAEX 160620Z 00000KT 1/4SM FG VV003 10/10 A3000 20 100 -500 000/00 RMK AO2 T01000100
93915KAEX AEX20161116002510811/16/16 00:25:31  5-MIN KAEX 160625Z 00000KT 1/4SM FG VV003 10/09 A2999 20 96 -500 000/00 RMK AO2 T01000094
93915KAEX AEX20161116003010811/16/16 00:30:31  5-MIN KAEX 160630Z 00000KT 1/4SM FG VV003 10/09 A2999 20 96 -500 000/00 RMK AO2 T01000094
93915KAEX AEX20161116003510811/16/16 00:35:31  5-MIN KAEX 160635Z 00000KT 1/4SM FG VV003 10/09 A2999 30 96 -500 000/00 RMK AO2 T01000094
93915KAEX AEX20161116004010911/16/16 00:40:31  5-MIN KAEX 160640Z 00000KT 1/4SM FG VV003 10/10 A2999 20 100 -500 000/00 RMK AO2 T01000100
93915KAEX AEX20161116004510811/16/16 00:45:31  5-MIN KAEX 160645Z 00000KT 1/4SM FG VV003 10/09 A2999 20 96 -500 000/00 RMK AO2 T01000094
93915KAEX AEX20161116005009811/16/16 00:50:31  5-MIN KAEX 160650Z 00000KT 1/2SM FG VV002 09/09 A2999 20 96 -500 000/00 RMK AO2
93915KAEX AEX20161116005510811/16/16 00:55:31  5-MIN KAEX 160655Z 00000KT 1/2SM FG VV002 09/08 A2999 20 93 -500 000/00 RMK AO2 T00940083
93915KAEX AEX20161116010010811/16/16 01:00:31  5-MIN KAEX 160700Z 00000KT 1/4SM FG VV002 09/09 A2999 20 96 -500 000/00 RMK AO2 T00940089
93915KAEX AEX20161116010510911/16/16 01:05:31  5-MIN KAEX 160705Z 31003KT 1/4SM FG VV002 09/09 A3000 20 100 -600 300/03 RMK AO2 T00890089
93915KAEX AEX20161116011010811/16/16 01:10:31  5-MIN KAEX 160710Z 32003KT 1/4SM FG VV002 09/09 A3000 20 96 -600 320/03 RMK AO2 T00940089
93915KAEX AEX20161116011510911/16/16 01:15:31  5-MIN KAEX 160715Z 00000KT 3/4SM BR VV002 09/09 A3000 20 100 -600 000/00 RMK AO2 T00890089
93915KAEX AEX20161116012011811/16/16 01:20:31  5-MIN KAEX 160720Z 00000KT 3/4SM BR VV001 09/09 A2999 20 96 -500 000/00 RMK AO2 VIS 1/4V5 T00940089
93915KAEX AEX20161116012510911/16/16 01:25:31  5-MIN KAEX 160725Z 26003KT 1/4SM FG VV001 09/09 A2999 20 100 -600 260/03 RMK AO2 T00890089
93915KAEX AEX20161116013010811/16/16 01:30:31  5-MIN KAEX 160730Z 26003KT 1/4SM FG VV001 09/08 A2999 20 96 -600 250/03 RMK AO2 T00890083
93915KAEX AEX20161116013510811/16/16 01:35:31  5-MIN KAEX 160735Z 00000KT 1/2SM FG VV001 09/08 A2999 20 96 -600 000/00 RMK AO2 T00890083
93915KAEX AEX20161116014010811/16/16 01:40:31  5-MIN KAEX 160740Z 00000KT 1/2SM FG VV001 09/08 A2999 20 96 -600 000/00 RMK AO2 T00890083
93915KAEX AEX20161116014510811/16/16 01:45:31  5-MIN KAEX 160745Z 00000KT 1/4SM FG VV001 09/09 A2999 20 96 -500 000/00 RMK AO2 T00940089
93915KAEX AEX20161116015011511/16/16 01:50:31  5-MIN KAEX 160750Z 00000KT 1/4SM FG VV001 10/09 A2999 20 96 -500 000/00 RMK AO2 SLP160 T01000094
93915KAEX AEX20161116015510911/16/16 01:55:31  5-MIN KAEX 160755Z 00000KT 1/4SM FG VV001 10/10 A2999 20 100 -500 000/00 RMK AO2 T01000100
93915KAEX AEX20161116020010811/16/16 02:00:31  5-MIN KAEX 160800Z 00000KT 1/4SM FG VV002 10/09 A3000 20 96 -500 000/00 RMK AO2 T01000094
93915KAEX AEX20161116020511111/16/16 02:05:31  5-MIN KAEX 160805Z 00000KT 1/4SM FG VV002 10/10 A2999 20 100 -500 000/00 RMK AO2 T01000100 $
93915KAEX AEX20161116021010511/16/16 02:10:31  5-MIN KAEX 160810Z 00000KT 1/4SM FG 09/09 A2999 20 100 -500 000/00 RMK AO2 T00940094 $
93915KAEX AEX20161116021510411/16/16 02:15:31  5-MIN KAEX 160815Z 00000KT 1/4SM FG 10/09 A3000 20 96 -500 000/00 RMK AO2 T01000094 $
93915KAEX AEX20161116022010511/16/16 02:20:31  5-MIN KAEX 160820Z 00000KT 1/4SM FG 09/09 A3000 20 100 -600 000/00 RMK AO2 T00940094 $
93915KAEX AEX20161116022510511/16/16 02:25:31  5-MIN KAEX 160825Z 00000KT 1/4SM FG 09/09 A3000 20 100 -600 000/00 RMK AO2 T00940094 $
93915KAEX AEX20161116023010511/16/16 02:30:31  5-MIN KAEX 160830Z 00000KT 1/2SM FG 10/10 A3000 20 100 -500 000/00 RMK AO2 T01000100 $
93915KAEX AEX20161116023510611/16/16 02:35:31  5-MIN KAEX 160835Z 00000KT 2 1/2SM BR 10/09 A3001 10 96 -500 000/00 RMK AO2 T01000094 $
93915KAEX AEX20161116024010311/16/16 02:40:31  5-MIN KAEX 160840Z 00000KT 5SM BR 10/10 A3001 10 100 -500 000/00 RMK AO2 T01000100 $
93915KAEX AEX20161116024510611/16/16 02:45:31  5-MIN KAEX 160845Z 00000KT 4SM BR CLR 10/09 A3001 10 96 -500 000/00 RMK AO2 T01000094 $
93915KAEX AEX20161116025012011/16/16 02:50:31  5-MIN KAEX 160850Z 00000KT 4SM BR CLR 10/10 A3001 10 100 -500 000/00 RMK AO2 SLP165 T01000100 58004 $
93915KAEX AEX20161116025510711/16/16 02:55:31  5-MIN KAEX 160855Z 00000KT 5SM BR CLR 09/09 A3001 10 100 -600 000/00 RMK AO2 T00940094 $
93915KAEX AEX20161116030010711/16/16 03:00:31  5-MIN KAEX 160900Z 00000KT 6SM BR CLR 08/08 A3001 10 100 -700 000/00 RMK AO2 T00830083 $
93915KAEX AEX20161116030510611/16/16 03:05:31  5-MIN KAEX 160905Z 00000KT 6SM BR CLR 08/07 A3001 10 96 -800 000/00 RMK AO2 T00780072 $
93915KAEX AEX20161116031010611/16/16 03:10:31  5-MIN KAEX 160910Z 00000KT 6SM BR CLR 08/08 A3001 10 96 -700 000/00 RMK AO2 T00830078 $
93915KAEX AEX20161116031510611/16/16 03:15:31  5-MIN KAEX 160915Z 00000KT 6SM BR CLR 09/08 A3001 10 93 -600 000/00 RMK AO2 T00890078 $
93915KAEX AEX20161116032010611/16/16 03:20:31  5-MIN KAEX 160920Z 00000KT 6SM BR CLR 08/08 A3001 10 96 -700 000/00 RMK AO2 T00830078 $
93915KAEX AEX20161116032510611/16/16 03:25:31  5-MIN KAEX 160925Z 00000KT 6SM BR CLR 08/07 A3001 10 93 -700 000/00 RMK AO2 T00830072 $
93915KAEX AEX20161116033010611/16/16 03:30:31  5-MIN KAEX 160930Z 00000KT 6SM BR CLR 08/07 A3001 10 89 -700 000/00 RMK AO2 T00830067 $
93915KAEX AEX20161116033510511/16/16 03:35:31  5-MIN KAEX 160935Z 00000KT 6SM BR CLR 08/07 A3001 0 89 -700 000/00 RMK AO2 T00830067 $
93915KAEX AEX20161116034010511/16/16 03:40:31  5-MIN KAEX 160940Z 00000KT 6SM BR CLR 08/07 A3002 0 89 -700 000/00 RMK AO2 T00830067 $
93915KAEX AEX20161116034510211/16/16 03:45:31  5-MIN KAEX 160945Z 00000KT 7SM CLR 08/06 A3002 0 86 -700 000/00 RMK AO2 T00830061 $
93915KAEX AEX20161116035010911/16/16 03:50:31  5-MIN KAEX 160950Z 00000KT 8SM CLR 08/06 A3002 0 86 -700 000/00 RMK AO2 SLP168 T00830061 $
93915KAEX AEX20161116035510211/16/16 03:55:31  5-MIN KAEX 160955Z 00000KT 8SM CLR 09/06 A3002 0 83 -600 000/00 RMK AO2 T00890061 $
93915KAEX AEX20161116040010211/16/16 04:00:31  5-MIN KAEX 161000Z 00000KT 7SM CLR 09/07 A3002 0 86 -600 000/00 RMK AO2 T00890067 $
93915KAEX AEX20161116040510211/16/16 04:05:31  5-MIN KAEX 161005Z 00000KT 7SM CLR 09/07 A3002 0 89 -600 000/00 RMK AO2 T00890072 $
93915KAEX AEX20161116041010511/16/16 04:10:31  5-MIN KAEX 161010Z 00000KT 6SM BR CLR 09/07 A3002 0 86 -600 000/00 RMK AO2 T00890067 $
93915KAEX AEX20161116041510511/16/16 04:15:31  5-MIN KAEX 161015Z 00000KT 6SM BR CLR 09/07 A3001 0 86 -600 000/00 RMK AO2 T00940072 $
93915KAEX AEX20161116042010511/16/16 04:20:31  5-MIN KAEX 161020Z 00000KT 6SM BR CLR 09/08 A3002 0 89 -600 000/00 RMK AO2 T00940078 $
93915KAEX AEX20161116042510211/16/16 04:25:31  5-MIN KAEX 161025Z 00000KT 7SM CLR 09/08 A3002 0 93 -600 000/00 RMK AO2 T00940083 $
93915KAEX AEX20161116043010511/16/16 04:30:31  5-MIN KAEX 161030Z 00000KT 6SM BR CLR 09/08 A3002 0 93 -600 000/00 RMK AO2 T00940083 $
93915KAEX AEX20161116043510511/16/16 04:35:31  5-MIN KAEX 161035Z 00000KT 6SM BR CLR 09/08 A3002 0 93 -600 000/00 RMK AO2 T00940083 $
93915KAEX AEX20161116044010211/16/16 04:40:31  5-MIN KAEX 161040Z 00000KT 7SM CLR 09/08 A3002 0 93 -600 000/00 RMK AO2 T00940083 $
93915KAEX AEX20161116044510211/16/16 04:45:31  5-MIN KAEX 161045Z 00000KT 7SM CLR 09/08 A3002 0 96 -600 000/00 RMK AO2 T00890083 $
93915KAEX AEX20161116045009811/16/16 04:50:31  5-MIN KAEX 161050Z 00000KT 6SM BR FEW002 09/08 A3002 0 93 -600 000/00 RMK AO2 $
93915KAEX AEX20161116045510811/16/16 04:55:31  5-MIN KAEX 161055Z 00000KT 6SM BR SCT002 09/08 A3002 0 93 -600 000/00 RMK AO2 T00890078 $
93915KAEX AEX20161116050010811/16/16 05:00:31  5-MIN KAEX 161100Z 00000KT 6SM BR BKN002 09/08 A3002 0 96 -600 000/00 RMK AO2 T00890083 $
93915KAEX AEX20161116050510911/16/16 05:05:31  5-MIN KAEX 161105Z 00000KT 5SM BR BKN002 08/08 A3002 0 100 -700 000/00 RMK AO2 T00830083 $
93915KAEX AEX20161116051010811/16/16 05:10:31  5-MIN KAEX 161110Z 00000KT 3SM BR BKN002 08/08 A3002 0 96 -700 000/00 RMK AO2 T00830078 $
93915KAEX AEX20161116051512011/16/16 05:15:31  5-MIN KAEX 161115Z 00000KT 2 1/2SM BR OVC002 08/08 A3002 0 96 -700 000/00 RMK AO2 VIS 1V4 T00830078 $
93915KAEX AEX20161116052010911/16/16 05:20:31  5-MIN KAEX 161120Z 00000KT 3SM BR BKN002 08/08 A3002 0 100 -700 000/00 RMK AO2 T00830083 $
93915KAEX AEX20161116052510811/16/16 05:25:31  5-MIN KAEX 161125Z 00000KT 5SM BR BKN002 09/08 A3002 0 96 -600 000/00 RMK AO2 T00890083 $
93915KAEX AEX20161116053010911/16/16 05:30:31  5-MIN KAEX 161130Z 00000KT 5SM BR SCT002 09/09 A3003 0 100 -700 000/00 RMK AO2 T00890089 $
93915KAEX AEX20161116053510811/16/16 05:35:31  5-MIN KAEX 161135Z 00000KT 5SM BR FEW002 09/08 A3003 0 96 -700 000/00 RMK AO2 T00890083 $
93915KAEX AEX20161116054010811/16/16 05:40:31  5-MIN KAEX 161140Z 00000KT 5SM BR FEW002 09/08 A3003 0 96 -700 000/00 RMK AO2 T00890083 $
93915KAEX AEX20161116054510511/16/16 05:45:31  5-MIN KAEX 161145Z 00000KT 5SM BR CLR 09/08 A3003 0 96 -700 000/00 RMK AO2 T00890083 $
93915KAEX AEX20161116055013111/16/16 05:50:31  5-MIN KAEX 161150Z 00000KT 5SM BR CLR 08/08 A3003 0 100 -700 000/00 RMK AO2 SLP172 T00830083 10117 20078 53005 $
93915KAEX AEX20161116055510711/16/16 05:55:31  5-MIN KAEX 161155Z 00000KT 5SM BR CLR 08/08 A3003 -10 96 -700 000/00 RMK AO2 T00830078 $
93915KAEX AEX20161116060010711/16/16 06:00:31  5-MIN KAEX 161200Z 00000KT 5SM BR CLR 08/08 A3003 -10 96 -700 000/00 RMK AO2 T00830078 $
93915KAEX AEX20161116060510711/16/16 06:05:31  5-MIN KAEX 161205Z 00000KT 5SM BR CLR 08/08 A3003 -10 96 -700 000/00 RMK AO2 T00830078 $
93915KAEX AEX20161116061010711/16/16 06:10:31  5-MIN KAEX 161210Z 00000KT 5SM BR CLR 08/08 A3004 -10 96 -700 000/00 RMK AO2 T00830078 $
93915KAEX AEX20161116061510711/16/16 06:15:31  5-MIN KAEX 161215Z 00000KT 5SM BR CLR 08/06 A3004 -10 89 -800 000/00 RMK AO2 T00780061 $
93915KAEX AEX20161116062010711/16/16 06:20:31  5-MIN KAEX 161220Z 00000KT 5SM BR CLR 08/07 A3004 -10 93 -800 000/00 RMK AO2 T00780067 $
93915KAEX AEX20161116062510711/16/16 06:25:31  5-MIN KAEX 161225Z 00000KT 5SM BR CLR 08/07 A3004 -10 93 -800 000/00 RMK AO2 T00780067 $
93915KAEX AEX20161116063010711/16/16 06:30:31  5-MIN KAEX 161230Z 00000KT 5SM BR CLR 09/08 A3004 -10 93 -700 000/00 RMK AO2 T00890078 $
93915KAEX AEX20161116063510711/16/16 06:35:31  5-MIN KAEX 161235Z 00000KT 5SM BR CLR 09/08 A3004 -10 93 -700 000/00 RMK AO2 T00890078 $
93915KAEX AEX20161116064010711/16/16 06:40:31  5-MIN KAEX 161240Z 16003KT 4SM BR CLR 08/08 A3004 -20 96 -700 160/03 RMK AO2 T00830078 $
93915KAEX AEX20161116064510711/16/16 06:45:31  5-MIN KAEX 161245Z 15003KT 3SM BR CLR 08/08 A3005 -20 96 -700 150/03 RMK AO2 T00830078 $
93915KAEX AEX20161116065009711/16/16 06:50:31  5-MIN KAEX 161250Z 14003KT 2SM BR CLR 08/08 A3005 -20 96 -700 130/03 RMK AO2 $
93915KAEX AEX20161116065512811/16/16 06:55:31  5-MIN KAEX 161255Z 14004KT 1 1/4SM BR FEW002 08/08 A3005 -20 96 -700 140/04 RMK AO2 VIS 1/2V2 1/2 T00830078 $
93915KAEX AEX20161116070011211/16/16 07:00:31  5-MIN KAEX 161300Z 14004KT 3/4SM BR VV003 08/08 A3005 -20 100 -700 140/04 RMK AO2 T00830083 $
93915KAEX AEX20161116070511211/16/16 07:05:31  5-MIN KAEX 161305Z 13003KT 3/4SM BR VV002 08/08 A3005 -20 100 -700 130/03 RMK AO2 T00830083 $
93915KAEX AEX20161116071011511/16/16 07:10:31  5-MIN KAEX 161310Z 00000KT 2 1/2SM BR FEW002 08/08 A3005 -20 100 -700 000/00 RMK AO2 T00830083 $
93915KAEX AEX20161116071511111/16/16 07:15:31  5-MIN KAEX 161315Z 00000KT 3SM BR FEW002 09/09 A3005 -30 100 -700 000/00 RMK AO2 T00890089 $
93915KAEX AEX20161116072011111/16/16 07:20:31  5-MIN KAEX 161320Z 00000KT 4SM BR FEW002 09/09 A3005 -30 100 -600 000/00 RMK AO2 T00940094 $
93915KAEX AEX20161116072511011/16/16 07:25:31  5-MIN KAEX 161325Z 00000KT 4SM BR FEW002 10/09 A3005 -30 96 -500 000/00 RMK AO2 T01000094 $
93915KAEX AEX20161116073011111/16/16 07:30:31  5-MIN KAEX 161330Z 00000KT 4SM BR FEW002 10/10 A3005 -30 100 -500 000/00 RMK AO2 T01000100 $
93915KAEX AEX20161116073510711/16/16 07:35:31  5-MIN KAEX 161335Z 00000KT 5SM BR CLR 11/10 A3005 -30 96 -500 000/00 RMK AO2 T01060100 $
93915KAEX AEX20161116074010711/16/16 07:40:31  5-MIN KAEX 161340Z 12003KT 4SM BR CLR 11/11 A3005 -30 96 -400 120/03 RMK AO2 T01110106 $
93915KAEX AEX20161116074510711/16/16 07:45:31  5-MIN KAEX 161345Z 12003KT 4SM BR CLR 12/11 A3005 -30 93 -300 120/03 RMK AO2 T01170106 $
93915KAEX AEX20161116075011211/16/16 07:50:31  5-MIN KAEX 161350Z 00000KT 5SM BR CLR 12/11 A3006 -30 93 -300 000/00 RMK AO2 SLP181 T01170106
93915KAEX AEX20161116075510511/16/16 07:55:31  5-MIN KAEX 161355Z 12003KT 5SM BR CLR 12/11 A3006 -30 93 -300 120/03 RMK AO2 T01220111
93915KAEX AEX20161116080010511/16/16 08:00:31  5-MIN KAEX 161400Z 13003KT 6SM BR CLR 12/11 A3006 -30 93 -300 130/03 RMK AO2 T01220111
93915KAEX AEX20161116080510511/16/16 08:05:31  5-MIN KAEX 161405Z 14003KT 6SM BR CLR 13/12 A3006 -30 93 -200 140/03 RMK AO2 T01280117
93915KAEX AEX20161116081010511/16/16 08:10:31  5-MIN KAEX 161410Z 14004KT 6SM BR CLR 13/12 A3006 -30 93 -200 140/04 RMK AO2 T01330122
93915KAEX AEX20161116081510511/16/16 08:15:31  5-MIN KAEX 161415Z 14004KT 6SM BR CLR 13/12 A3006 -30 93 -200 140/04 RMK AO2 T01330122
93915KAEX AEX20161116082010511/16/16 08:20:31  5-MIN KAEX 161420Z 13003KT 6SM BR CLR 13/12 A3006 -30 93 -200 130/03 RMK AO2 T01330122
93915KAEX AEX20161116082510511/16/16 08:25:31  5-MIN KAEX 161425Z 13003KT 6SM BR CLR 14/12 A3006 -40 90 -100 120/03 RMK AO2 T01390122
93915KAEX AEX20161116083010511/16/16 08:30:31  5-MIN KAEX 161430Z 12004KT 6SM BR CLR 14/12 A3006 -40 90 -100 120/04 RMK AO2 T01390122
93915KAEX AEX20161116083510211/16/16 08:35:31  5-MIN KAEX 161435Z 12004KT 6SM BR CLR 14/13 A3006 -40 90 0 120/04 RMK AO2 T01440128
93915KAEX AEX20161116084010211/16/16 08:40:31  5-MIN KAEX 161440Z 13004KT 6SM BR CLR 15/13 A3006 -40 86 0 120/04 RMK AO2 T01500128
93915KAEX AEX20161116084510211/16/16 08:45:31  5-MIN KAEX 161445Z 12004KT 6SM BR CLR 15/13 A3007 -40 86 0 120/04 RMK AO2 T01500128
93915KAEX AEX20161116085011411/16/16 08:50:31  5-MIN KAEX 161450Z 13003KT 7SM CLR 16/13 A3007 -40 80 100 130/03 RMK AO2 SLP185 T01610128 53008
93915KAEX AEX20161116085510111/16/16 08:55:31  5-MIN KAEX 161455Z 12004KT 7SM CLR 16/13 A3007 -40 83 100 120/04 RMK AO2 T01610133
93915KAEX AEX20161116090010111/16/16 09:00:31  5-MIN KAEX 161500Z 12004KT 7SM CLR 17/13 A3007 -40 80 200 110/04 RMK AO2 T01670133
93915KAEX AEX20161116090510111/16/16 09:05:31  5-MIN KAEX 161505Z 12004KT 7SM CLR 17/13 A3006 -40 78 200 120/04 RMK AO2 T01720133
93915KAEX AEX20161116091010111/16/16 09:10:31  5-MIN KAEX 161510Z 12004KT 7SM CLR 18/14 A3006 -40 78 300 120/04 RMK AO2 T01780139
93915KAEX AEX20161116091510111/16/16 09:15:31  5-MIN KAEX 161515Z 13005KT 8SM CLR 18/14 A3007 -40 75 400 130/05 RMK AO2 T01830139
93915KAEX AEX20161116092010111/16/16 09:20:31  5-MIN KAEX 161520Z 14005KT 8SM CLR 19/14 A3007 -40 72 400 140/05 RMK AO2 T01890139
93915KAEX AEX20161116092510111/16/16 09:25:31  5-MIN KAEX 161525Z 15005KT 9SM CLR 19/14 A3007 -40 70 500 150/05 RMK AO2 T01940139
93915KAEX AEX20161116093010111/16/16 09:30:31  5-MIN KAEX 161530Z 16004KT 9SM CLR 19/14 A3007 -40 70 500 160/04 RMK AO2 T01940139
93915KAEX AEX20161116093510111/16/16 09:35:31  5-MIN KAEX 161535Z 13004KT 8SM CLR 20/14 A3007 -40 67 600 120/04 RMK AO2 T02000139
93915KAEX AEX20161116094010111/16/16 09:40:31  5-MIN KAEX 161540Z 14004KT 9SM CLR 21/14 A3007 -40 65 600 140/04 RMK AO2 T02060139
93915KAEX AEX20161116094510211/16/16 09:45:31  5-MIN KAEX 161545Z 13005KT 10SM CLR 21/14 A3007 -40 63 700 130/05 RMK AO2 T02110139
93915KAEX AEX20161116095010911/16/16 09:50:31  5-MIN KAEX 161550Z 16005KT 10SM CLR 21/14 A3007 -40 63 700 150/05 RMK AO2 SLP185 T02110139
93915KAEX AEX20161116095510211/16/16 09:55:31  5-MIN KAEX 161555Z 14005KT 10SM CLR 21/14 A3007 -40 63 700 140/05 RMK AO2 T02110139
93915KAEX AEX20161116100010211/16/16 10:00:31  5-MIN KAEX 161600Z 13006KT 10SM CLR 22/13 A3007 -40 58 800 130/06 RMK AO2 T02170133
93915KAEX AEX20161116100510211/16/16 10:05:31  5-MIN KAEX 161605Z 14005KT 10SM CLR 22/13 A3007 -40 58 800 140/05 RMK AO2 T02170133
93915KAEX AEX20161116101010211/16/16 10:10:31  5-MIN KAEX 161610Z 15006KT 10SM CLR 23/13 A3007 -40 55 900 140/06 RMK AO2 T02280133
93915KAEX AEX20161116101510211/16/16 10:15:31  5-MIN KAEX 161615Z 13007KT 10SM CLR 23/13 A3006 -40 55 900 130/07 RMK AO2 T02280133
93915KAEX AEX20161116102010211/16/16 10:20:31  5-MIN KAEX 161620Z 13007KT 10SM CLR 23/13 A3006 -40 53 900 130/07 RMK AO2 T02280128
93915KAEX AEX20161116102510311/16/16 10:25:31  5-MIN KAEX 161625Z 13007KT 10SM CLR 23/13 A3006 -30 51 1000 130/07 RMK AO2 T02330128
93915KAEX AEX20161116103010311/16/16 10:30:31  5-MIN KAEX 161630Z 12007KT 10SM CLR 23/13 A3006 -30 51 1000 120/07 RMK AO2 T02330128
93915KAEX AEX20161116103510311/16/16 10:35:31  5-MIN KAEX 161635Z 13007KT 10SM CLR 23/13 A3006 -30 51 1000 130/07 RMK AO2 T02330128
93915KAEX AEX20161116104010311/16/16 10:40:31  5-MIN KAEX 161640Z 14007KT 10SM CLR 24/13 A3005 -30 49 1000 140/07 RMK AO2 T02390128
93915KAEX AEX20161116104510311/16/16 10:45:31  5-MIN KAEX 161645Z 14006KT 10SM CLR 24/13 A3005 -30 49 1000 130/06 RMK AO2 T02390128
93915KAEX AEX20161116105011011/16/16 10:50:31  5-MIN KAEX 161650Z 14007KT 10SM CLR 24/13 A3005 -20 49 1000 140/07 RMK AO2 SLP179 T02390128
93915KAEX AEX20161116105510311/16/16 10:55:31  5-MIN KAEX 161655Z 15007KT 10SM CLR 24/12 A3005 -20 46 1100 140/07 RMK AO2 T02440122
93915KAEX AEX20161116110010311/16/16 11:00:31  5-MIN KAEX 161700Z 15007KT 10SM CLR 24/12 A3005 -20 46 1100 140/07 RMK AO2 T02440122
93915KAEX AEX20161116110510311/16/16 11:05:31  5-MIN KAEX 161705Z 12007KT 10SM CLR 24/12 A3005 -20 46 1100 120/07 RMK AO2 T02440122
93915KAEX AEX20161116111010311/16/16 11:10:31  5-MIN KAEX 161710Z 11006KT 10SM CLR 24/13 A3004 -20 47 1100 110/06 RMK AO2 T02440128
93915KAEX AEX20161116111510311/16/16 11:15:31  5-MIN KAEX 161715Z 11006KT 10SM CLR 25/13 A3004 -20 46 1200 100/06 RMK AO2 T02500128
93915KAEX AEX20161116112010311/16/16 11:20:31  5-MIN KAEX 161720Z 12007KT 10SM CLR 24/13 A3004 -10 47 1100 120/07 RMK AO2 T02440128
93915KAEX AEX20161116112510311/16/16 11:25:31  5-MIN KAEX 161725Z 10007KT 10SM CLR 25/13 A3004 -10 46 1200 100/07 RMK AO2 T02500128
93915KAEX AEX20161116113010311/16/16 11:30:31  5-MIN KAEX 161730Z 11007KT 10SM CLR 26/12 A3003 -10 43 1200 110/07 RMK AO2 T02560122
93915KAEX AEX20161116113510111/16/16 11:35:31  5-MIN KAEX 161735Z 12007KT 10SM CLR 26/12 A3003 0 43 1300 120/07 RMK AO2 T02560122
93915KAEX AEX20161116114010111/16/16 11:40:31  5-MIN KAEX 161740Z 12007KT 10SM CLR 26/12 A3003 0 43 1300 110/07 RMK AO2 T02560122
93915KAEX AEX20161116114510111/16/16 11:45:31  5-MIN KAEX 161745Z 13006KT 10SM CLR 26/12 A3002 0 43 1300 130/06 RMK AO2 T02560122
93915KAEX AEX20161116115012611/16/16 11:50:31  5-MIN KAEX 161750Z 17007KT 10SM CLR 26/12 A3002 0 41 1300 160/07 RMK AO2 SLP169 T02560117 10256 20078 51012
93915KAEX AEX20161116115510111/16/16 11:55:31  5-MIN KAEX 161755Z 16008KT 10SM CLR 26/11 A3002 0 37 1300 160/08 RMK AO2 T02610106
93915KAEX AEX20161116120010111/16/16 12:00:31  5-MIN KAEX 161800Z 16007KT 10SM CLR 26/09 A3002 0 35 1300 160/07 RMK AO2 T02560094
93915KAEX AEX20161116120510211/16/16 12:05:31  5-MIN KAEX 161805Z 14008KT 10SM CLR 26/09 A3001 10 34 1300 140/08 RMK AO2 T02610094
93915KAEX AEX20161116121010211/16/16 12:10:31  5-MIN KAEX 161810Z 12006KT 10SM CLR 27/08 A3001 10 31 1400 120/06 RMK AO2 T02670083
93915KAEX AEX20161116121510211/16/16 12:15:31  5-MIN KAEX 161815Z 15008KT 10SM CLR 27/08 A3001 10 29 1400 150/08 RMK AO2 T02670078
93915KAEX AEX20161116122010211/16/16 12:20:31  5-MIN KAEX 161820Z 11007KT 10SM CLR 27/08 A3001 10 31 1400 110/07 RMK AO2 T02670083
93915KAEX AEX20161116122510211/16/16 12:25:31  5-MIN KAEX 161825Z 13008KT 10SM CLR 27/09 A3000 20 32 1400 130/08 RMK AO2 T02670089
93915KAEX AEX20161116123010211/16/16 12:30:31  5-MIN KAEX 161830Z 11006KT 10SM CLR 27/09 A3000 20 33 1400 110/06 RMK AO2 T02670094
93915KAEX AEX20161116123510211/16/16 12:35:31  5-MIN KAEX 161835Z 15005KT 10SM CLR 27/09 A3000 20 32 1400 150/05 RMK AO2 T02670089
93915KAEX AEX20161116124010211/16/16 12:40:31  5-MIN KAEX 161840Z 13008KT 10SM CLR 27/09 A2999 20 33 1400 120/08 RMK AO2 T02670094
93915KAEX AEX20161116124510211/16/16 12:45:31  5-MIN KAEX 161845Z VRB04KT 10SM CLR 27/09 A2999 30 31 1500 VRB/04 RMK AO2 T02720089
93915KAEX AEX20161116125010911/16/16 12:50:31  5-MIN KAEX 161850Z 14007KT 10SM CLR 27/09 A2999 30 31 1500 140/07 RMK AO2 SLP158 T02720089
93915KAEX AEX20161116125510211/16/16 12:55:31  5-MIN KAEX 161855Z VRB04KT 10SM CLR 27/08 A2999 30 29 1400 VRB/04 RMK AO2 T02670078
93915KAEX AEX20161116130010211/16/16 13:00:31  5-MIN KAEX 161900Z 14007KT 10SM CLR 27/08 A2999 30 30 1500 140/07 RMK AO2 T02720083
93915KAEX AEX20161116130510211/16/16 13:05:31  5-MIN KAEX 161905Z 17007KT 10SM CLR 27/08 A2998 30 30 1500 160/07 RMK AO2 T02720083
93915KAEX AEX20161116131010211/16/16 13:10:31  5-MIN KAEX 161910Z 13006KT 10SM CLR 27/08 A2998 30 30 1500 130/06 RMK AO2 T02720083
93915KAEX AEX20161116131509211/16/16 13:15:31  5-MIN KAEX 161915Z 10SM CLR 27/08 A2998 40 29 1500 M /M RMK AO2 T02720078
93915KAEX AEX20161116132010211/16/16 13:20:31  5-MIN KAEX 161920Z 16008KT 10SM CLR 27/09 A2998 40 31 1500 160/08 RMK AO2 T02720089
93915KAEX AEX20161116132510211/16/16 13:25:31  5-MIN KAEX 161925Z 13008KT 10SM CLR 27/09 A2998 40 31 1500 130/08 RMK AO2 T02720089
93915KAEX AEX20161116133010211/16/16 13:30:31  5-MIN KAEX 161930Z 14006KT 10SM CLR 28/09 A2997 40 30 1600 140/06 RMK AO2 T02780089
93915KAEX AEX20161116133510211/16/16 13:35:31  5-MIN KAEX 161935Z 16007KT 10SM CLR 27/09 A2997 40 32 1500 160/07 RMK AO2 T02720094
93915KAEX AEX20161116134010211/16/16 13:40:31  5-MIN KAEX 161940Z 21007KT 10SM CLR 27/09 A2997 40 32 1500 200/07 RMK AO2 T02720094
93915KAEX AEX20161116134510211/16/16 13:45:31  5-MIN KAEX 161945Z 15008KT 10SM CLR 28/09 A2997 40 31 1600 150/08 RMK AO2 T02780094
93915KAEX AEX20161116135010911/16/16 13:50:31  5-MIN KAEX 161950Z 16005KT 10SM CLR 27/09 A2997 50 32 1500 150/05 RMK AO2 SLP152 T02720094
93915KAEX AEX20161116135510211/16/16 13:55:31  5-MIN KAEX 161955Z 17003KT 10SM CLR 27/09 A2997 50 32 1500 170/03 RMK AO2 T02720094
93915KAEX AEX20161116140010211/16/16 14:00:31  5-MIN KAEX 162000Z 21007KT 10SM CLR 28/09 A2997 50 31 1600 210/07 RMK AO2 T02780094
93915KAEX AEX20161116140510211/16/16 14:05:31  5-MIN KAEX 162005Z VRB04KT 10SM CLR 27/09 A2997 50 31 1500 VRB/04 RMK AO2 T02720089
93915KAEX AEX20161116141010211/16/16 14:10:31  5-MIN KAEX 162010Z 20006KT 10SM CLR 27/09 A2996 50 31 1500 200/06 RMK AO2 T02720089
93915KAEX AEX20161116141510211/16/16 14:15:31  5-MIN KAEX 162015Z 21005KT 10SM CLR 28/08 A2996 50 29 1600 200/05 RMK AO2 T02780083
93915KAEX AEX20161116142010211/16/16 14:20:31  5-MIN KAEX 162020Z 20005KT 10SM CLR 28/08 A2996 50 29 1600 200/05 RMK AO2 T02780083
93915KAEX AEX20161116142510211/16/16 14:25:31  5-MIN KAEX 162025Z 19004KT 10SM CLR 27/08 A2996 50 30 1500 190/04 RMK AO2 T02720083
93915KAEX AEX20161116143010211/16/16 14:30:31  5-MIN KAEX 162030Z 16009KT 10SM CLR 28/08 A2996 50 29 1600 160/09 RMK AO2 T02780083
93915KAEX AEX20161116143510211/16/16 14:35:31  5-MIN KAEX 162035Z 14004KT 10SM CLR 27/08 A2996 50 30 1500 130/04 RMK AO2 T02720083
93915KAEX AEX20161116144010211/16/16 14:40:31  5-MIN KAEX 162040Z 18008KT 10SM CLR 28/08 A2996 50 29 1600 180/08 RMK AO2 T02780083
93915KAEX AEX20161116144510211/16/16 14:45:31  5-MIN KAEX 162045Z 18004KT 10SM CLR 27/08 A2996 50 30 1500 180/04 RMK AO2 T02720083
93915KAEX AEX20161116145011511/16/16 14:50:31  5-MIN KAEX 162050Z 18007KT 10SM CLR 28/08 A2996 50 28 1600 180/07 RMK AO2 SLP149 T02780078 58016
93915KAEX AEX20161116145510211/16/16 14:55:31  5-MIN KAEX 162055Z VRB04KT 10SM CLR 27/08 A2996 50 30 1500 VRB/04 RMK AO2 T02720083
93915KAEX AEX20161116150010211/16/16 15:00:31  5-MIN KAEX 162100Z 20005KT 10SM CLR 27/08 A2996 50 30 1500 200/05 RMK AO2 T02720083
93915KAEX AEX20161116150510211/16/16 15:05:31  5-MIN KAEX 162105Z 20006KT 10SM CLR 27/08 A2996 50 30 1500 200/06 RMK AO2 T02720083
93915KAEX AEX20161116151010211/16/16 15:10:31  5-MIN KAEX 162110Z 19007KT 10SM CLR 28/09 A2996 50 30 1600 190/07 RMK AO2 T02780089
93915KAEX AEX20161116151510211/16/16 15:15:31  5-MIN KAEX 162115Z 21007KT 10SM CLR 28/09 A2996 50 30 1600 200/07 RMK AO2 T02780089
93915KAEX AEX20161116152010211/16/16 15:20:31  5-MIN KAEX 162120Z 15007KT 10SM CLR 28/09 A2996 50 31 1600 150/07 RMK AO2 T02780094
93915KAEX AEX20161116152510211/16/16 15:25:31  5-MIN KAEX 162125Z 18006KT 10SM CLR 27/09 A2996 50 32 1500 180/06 RMK AO2 T02720094
93915KAEX AEX20161116153010211/16/16 15:30:31  5-MIN KAEX 162130Z 15007KT 10SM CLR 27/09 A2996 50 32 1500 150/07 RMK AO2 T02720094
93915KAEX AEX20161116153510211/16/16 15:35:31  5-MIN KAEX 162135Z 20010KT 10SM CLR 27/09 A2996 50 32 1500 190/10 RMK AO2 T02720094
93915KAEX AEX20161116154010211/16/16 15:40:31  5-MIN KAEX 162140Z 18006KT 10SM CLR 27/09 A2996 50 31 1500 180/06 RMK AO2 T02720089
93915KAEX AEX20161116154510211/16/16 15:45:31  5-MIN KAEX 162145Z 17008KT 10SM CLR 27/09 A2996 50 31 1500 170/08 RMK AO2 T02720089
93915KAEX AEX20161116155011111/16/16 15:50:31  5-MIN KAEX 162150Z 19008KT 3SM HZ CLR 27/09 A2996 50 32 1500 180/08 RMK AO2 SLP149 T02720094
93915KAEX AEX20161116155510411/16/16 15:55:31  5-MIN KAEX 162155Z 18008KT 2SM HZ CLR 27/09 A2996 50 32 1500 180/08 RMK AO2 T02720094
93915KAEX AEX20161116160010111/16/16 16:00:31  5-MIN KAEX 162200Z 17007KT 7SM CLR 27/09 A2996 50 31 1500 170/07 RMK AO2 T02720089
93915KAEX AEX20161116160510111/16/16 16:05:31  5-MIN KAEX 162205Z 17006KT 7SM CLR 27/09 A2996 60 33 1500 170/06 RMK AO2 T02670094
93915KAEX AEX20161116161010111/16/16 16:10:31  5-MIN KAEX 162210Z 16007KT 7SM CLR 27/09 A2996 60 32 1500 160/07 RMK AO2 T02670089
93915KAEX AEX20161116161510111/16/16 16:15:31  5-MIN KAEX 162215Z 17007KT 7SM CLR 27/09 A2996 60 33 1500 160/07 RMK AO2 T02670094
93915KAEX AEX20161116162010111/16/16 16:20:31  5-MIN KAEX 162220Z 18008KT 7SM CLR 27/09 A2996 60 33 1500 170/08 RMK AO2 T02670094
93915KAEX AEX20161116162510111/16/16 16:25:31  5-MIN KAEX 162225Z 18007KT 7SM CLR 27/09 A2996 60 33 1500 180/07 RMK AO2 T02670094
93915KAEX AEX20161116163010111/16/16 16:30:31  5-MIN KAEX 162230Z 18007KT 7SM CLR 27/09 A2996 60 32 1500 180/07 RMK AO2 T02670089
93915KAEX AEX20161116163510111/16/16 16:35:31  5-MIN KAEX 162235Z 19006KT 7SM CLR 26/09 A2996 60 34 1400 190/06 RMK AO2 T02610094
93915KAEX AEX20161116164010111/16/16 16:40:31  5-MIN KAEX 162240Z 18004KT 7SM CLR 26/09 A2996 60 34 1400 180/04 RMK AO2 T02610094
93915KAEX AEX20161116164510111/16/16 16:45:31  5-MIN KAEX 162245Z 18006KT 7SM CLR 26/09 A2996 60 34 1300 180/06 RMK AO2 T02560089
93915KAEX AEX20161116165010811/16/16 16:50:31  5-MIN KAEX 162250Z 17005KT 7SM CLR 26/09 A2996 60 35 1300 170/05 RMK AO2 SLP148 T02560094
93915KAEX AEX20161116165510411/16/16 16:55:31  5-MIN KAEX 162255Z 17005KT 3SM HZ CLR 24/10 A2996 60 39 1200 160/05 RMK AO2 T02440100
93915KAEX AEX20161116170010411/16/16 17:00:31  5-MIN KAEX 162300Z 16005KT 5SM HZ CLR 24/10 A2996 60 41 1100 160/05 RMK AO2 T02390100
93915KAEX AEX20161116170510411/16/16 17:05:31  5-MIN KAEX 162305Z 16005KT 5SM HZ CLR 24/10 A2996 60 41 1100 160/05 RMK AO2 T02390100
93915KAEX AEX20161116171010411/16/16 17:10:31  5-MIN KAEX 162310Z 16005KT 5SM HZ CLR 23/10 A2996 50 42 1100 160/05 RMK AO2 T02330100
93915KAEX AEX20161116171510411/16/16 17:15:31  5-MIN KAEX 162315Z 16006KT 5SM HZ CLR 23/10 A2996 50 44 1000 150/06 RMK AO2 T02280100
93915KAEX AEX20161116172010311/16/16 17:20:31  5-MIN KAEX 162320Z 15006KT 5SM HZ CLR 21/10 A2996 60 50 800 150/06 RMK AO2 T02060100
93915KAEX AEX20161116172510311/16/16 17:25:31  5-MIN KAEX 162325Z 15006KT 5SM HZ CLR 20/10 A2996 60 52 700 150/06 RMK AO2 T02000100
93915KAEX AEX20161116173010311/16/16 17:30:31  5-MIN KAEX 162330Z 16005KT 5SM HZ CLR 21/10 A2996 60 48 800 150/05 RMK AO2 T02110100
93915KAEX AEX20161116173510311/16/16 17:35:31  5-MIN KAEX 162335Z 16005KT 5SM HZ CLR 21/10 A2996 60 48 800 160/05 RMK AO2 T02110100
93915KAEX AEX20161116174010311/16/16 17:40:31  5-MIN KAEX 162340Z 16005KT 5SM HZ CLR 21/09 A2996 60 47 800 160/05 RMK AO2 T02110094
93915KAEX AEX20161116174510311/16/16 17:45:31  5-MIN KAEX 162345Z 16005KT 5SM HZ CLR 21/10 A2996 50 50 800 150/05 RMK AO2 T02060100
93915KAEX AEX20161116175012811/16/16 17:50:31  5-MIN KAEX 162350Z 15004KT 5SM HZ CLR 21/10 A2996 50 50 800 150/04 RMK AO2 SLP149 T02060100 10278 20200 56020
93915KAEX AEX20161116175510311/16/16 17:55:31  5-MIN KAEX 162355Z 15005KT 4SM HZ CLR 21/10 A2996 50 50 800 150/05 RMK AO2 T02060100
93915KAEX AEX20161116180010311/16/16 18:00:31  5-MIN KAEX 170000Z 15004KT 3SM HZ CLR 20/11 A2996 50 54 700 150/04 RMK AO2 T02000106
93915KAEX AEX20161116180510311/16/16 18:05:31  5-MIN KAEX 170005Z 15004KT 4SM HZ CLR 20/11 A2996 50 54 700 150/04 RMK AO2 T02000106
93915KAEX AEX20161116181010011/16/16 18:10:31  5-MIN KAEX 170010Z 14004KT 8SM CLR 19/11 A2997 50 56 600 140/04 RMK AO2 T01940106
93915KAEX AEX20161116181510111/16/16 18:15:31  5-MIN KAEX 170015Z 15004KT 10SM CLR 19/11 A2997 50 56 600 150/04 RMK AO2 T01940106
93915KAEX AEX20161116182010111/16/16 18:20:31  5-MIN KAEX 170020Z 15004KT 10SM CLR 19/11 A2997 50 58 600 140/04 RMK AO2 T01890106
93915KAEX AEX20161116182510111/16/16 18:25:31  5-MIN KAEX 170025Z 15004KT 10SM CLR 19/11 A2997 50 58 600 150/04 RMK AO2 T01890106
93915KAEX AEX20161116183010111/16/16 18:30:31  5-MIN KAEX 170030Z 14004KT 10SM CLR 19/10 A2997 40 56 600 140/04 RMK AO2 T01890100
93915KAEX AEX20161116183510111/16/16 18:35:31  5-MIN KAEX 170035Z 15005KT 10SM CLR 19/10 A2997 40 56 500 150/05 RMK AO2 T01890100
93915KAEX AEX20161116184010111/16/16 18:40:31  5-MIN KAEX 170040Z 14004KT 10SM CLR 19/10 A2997 40 54 600 140/04 RMK AO2 T01940100
93915KAEX AEX20161116184510111/16/16 18:45:31  5-MIN KAEX 170045Z 15005KT 10SM CLR 19/10 A2997 40 56 500 150/05 RMK AO2 T01890100
93915KAEX AEX20161116185010811/16/16 18:50:31  5-MIN KAEX 170050Z 15005KT 10SM CLR 19/11 A2998 40 56 600 150/05 RMK AO2 SLP154 T01940106
93915KAEX AEX20161116185510111/16/16 18:55:31  5-MIN KAEX 170055Z 15004KT 10SM CLR 19/11 A2998 40 58 500 150/04 RMK AO2 T01890106
93915KAEX AEX20161116190010111/16/16 19:00:31  5-MIN KAEX 170100Z 14004KT 10SM CLR 19/11 A2998 40 58 500 140/04 RMK AO2 T01890106
93915KAEX AEX20161116190510111/16/16 19:05:31  5-MIN KAEX 170105Z 13004KT 10SM CLR 18/11 A2998 40 64 400 130/04 RMK AO2 T01780111
93915KAEX AEX20161116191010111/16/16 19:10:31  5-MIN KAEX 170110Z 14004KT 10SM CLR 18/11 A2998 40 62 500 130/04 RMK AO2 T01830111
93915KAEX AEX20161116191510111/16/16 19:15:31  5-MIN KAEX 170115Z 14004KT 10SM CLR 18/11 A2998 30 62 500 130/04 RMK AO2 T01830111
93915KAEX AEX20161116192010111/16/16 19:20:31  5-MIN KAEX 170120Z 13004KT 10SM CLR 18/11 A2998 30 62 500 130/04 RMK AO2 T01830111
93915KAEX AEX20161116192510111/16/16 19:25:31  5-MIN KAEX 170125Z 13004KT 10SM CLR 18/11 A2998 40 64 400 130/04 RMK AO2 T01780111
93915KAEX AEX20161116193010111/16/16 19:30:31  5-MIN KAEX 170130Z 13003KT 10SM CLR 18/11 A2998 30 64 400 130/03 RMK AO2 T01780111
93915KAEX AEX20161116193510111/16/16 19:35:31  5-MIN KAEX 170135Z 13003KT 10SM CLR 18/12 A2998 30 67 400 130/03 RMK AO2 T01780117
93915KAEX AEX20161116194010111/16/16 19:40:31  5-MIN KAEX 170140Z 13003KT 10SM CLR 18/11 A2998 30 64 400 130/03 RMK AO2 T01780111
93915KAEX AEX20161116194510111/16/16 19:45:31  5-MIN KAEX 170145Z 13004KT 10SM CLR 18/11 A2998 30 64 400 130/04 RMK AO2 T01780111
93915KAEX AEX20161116195010811/16/16 19:50:31  5-MIN KAEX 170150Z 12003KT 10SM CLR 18/11 A2998 30 64 400 120/03 RMK AO2 SLP156 T01780111
93915KAEX AEX20161116195510111/16/16 19:55:31  5-MIN KAEX 170155Z 13003KT 10SM CLR 17/11 A2998 30 67 300 130/03 RMK AO2 T01720111
93915KAEX AEX20161116200010111/16/16 20:00:31  5-MIN KAEX 170200Z 15004KT 10SM CLR 17/11 A2999 30 69 300 140/04 RMK AO2 T01670111
93915KAEX AEX20161116200510111/16/16 20:05:31  5-MIN KAEX 170205Z 14004KT 10SM CLR 17/11 A2999 30 67 300 140/04 RMK AO2 T01720111
93915KAEX AEX20161116201010111/16/16 20:10:31  5-MIN KAEX 170210Z 14004KT 10SM CLR 17/11 A2999 30 67 300 140/04 RMK AO2 T01720111
93915KAEX AEX20161116201510111/16/16 20:15:31  5-MIN KAEX 170215Z 15005KT 10SM CLR 17/11 A2999 30 69 300 140/05 RMK AO2 T01670111
93915KAEX AEX20161116202010111/16/16 20:20:31  5-MIN KAEX 170220Z 15005KT 10SM CLR 16/11 A2999 30 72 200 150/05 RMK AO2 T01610111
93915KAEX AEX20161116202510111/16/16 20:25:31  5-MIN KAEX 170225Z 15005KT 10SM CLR 17/11 A2999 30 69 300 150/05 RMK AO2 T01670111
93915KAEX AEX20161116203010111/16/16 20:30:31  5-MIN KAEX 170230Z 15005KT 10SM CLR 16/11 A2999 30 72 200 140/05 RMK AO2 T01610111
93915KAEX AEX20161116203510111/16/16 20:35:31  5-MIN KAEX 170235Z 15004KT 10SM CLR 16/11 A2999 20 72 200 150/04 RMK AO2 T01610111
93915KAEX AEX20161116204010111/16/16 20:40:31  5-MIN KAEX 170240Z 15005KT 10SM CLR 16/11 A2999 20 74 100 140/05 RMK AO2 T01560111
93915KAEX AEX20161116204510111/16/16 20:45:31  5-MIN KAEX 170245Z 14005KT 10SM CLR 16/11 A2999 20 74 100 140/05 RMK AO2 T01560111
93915KAEX AEX20161116205011411/16/16 20:50:31  5-MIN KAEX 170250Z 13005KT 10SM CLR 16/11 A3000 20 74 100 130/05 RMK AO2 SLP161 T01560111 55000
93915KAEX AEX20161116205510111/16/16 20:55:31  5-MIN KAEX 170255Z 13005KT 10SM CLR 16/11 A3000 20 74 100 130/05 RMK AO2 T01560111
93915KAEX AEX20161116210010111/16/16 21:00:31  5-MIN KAEX 170300Z 13005KT 10SM CLR 16/11 A3000 20 74 100 130/05 RMK AO2 T01560111
93915KAEX AEX20161116210510111/16/16 21:05:31  5-MIN KAEX 170305Z 13005KT 10SM CLR 16/11 A3000 20 74 100 130/05 RMK AO2 T01560111
93915KAEX AEX20161116211010111/16/16 21:10:31  5-MIN KAEX 170310Z 13005KT 10SM CLR 16/11 A3000 20 74 100 130/05 RMK AO2 T01560111
93915KAEX AEX20161116211510111/16/16 21:15:31  5-MIN KAEX 170315Z 13005KT 10SM CLR 16/11 A3000 20 74 100 130/05 RMK AO2 T01560111
93915KAEX AEX20161116212010111/16/16 21:20:31  5-MIN KAEX 170320Z 14005KT 10SM CLR 15/11 A3000 20 77 100 130/05 RMK AO2 T01500111
93915KAEX AEX20161116212510111/16/16 21:25:31  5-MIN KAEX 170325Z 13004KT 10SM CLR 15/11 A3000 20 77 100 130/04 RMK AO2 T01500111
93915KAEX AEX20161116213010111/16/16 21:30:31  5-MIN KAEX 170330Z 13005KT 10SM CLR 15/11 A3000 20 77 100 130/05 RMK AO2 T01500111
93915KAEX AEX20161116213510111/16/16 21:35:31  5-MIN KAEX 170335Z 14005KT 10SM CLR 15/11 A3000 20 77 100 140/05 RMK AO2 T01500111
93915KAEX AEX20161116214010111/16/16 21:40:31  5-MIN KAEX 170340Z 13005KT 10SM CLR 15/11 A3000 20 77 100 130/05 RMK AO2 T01500111
93915KAEX AEX20161116214509911/16/16 21:45:31  5-MIN KAEX 170345Z 13005KT 10SM CLR 14/11 A3000 20 80 0 120/05 RMK AO2 T01440111
93915KAEX AEX20161116215010611/16/16 21:50:31  5-MIN KAEX 170350Z 13004KT 10SM CLR 14/11 A3000 20 80 0 130/04 RMK AO2 SLP163 T01440111
93915KAEX AEX20161116215510111/16/16 21:55:31  5-MIN KAEX 170355Z 13004KT 10SM CLR 15/11 A3000 20 77 100 130/04 RMK AO2 T01500111
93915KAEX AEX20161116220010111/16/16 22:00:31  5-MIN KAEX 170400Z 13005KT 10SM CLR 15/11 A3000 10 77 100 130/05 RMK AO2 T01500111
93915KAEX AEX20161116220509911/16/16 22:05:31  5-MIN KAEX 170405Z 13005KT 10SM CLR 14/11 A3000 10 80 0 120/05 RMK AO2 T01440111
93915KAEX AEX20161116221009911/16/16 22:10:31  5-MIN KAEX 170410Z 12006KT 10SM CLR 14/11 A3001 10 80 0 120/06 RMK AO2 T01440111
93915KAEX AEX20161116221509911/16/16 22:15:31  5-MIN KAEX 170415Z 13007KT 10SM CLR 14/11 A3000 10 80 0 130/07 RMK AO2 T01440111
93915KAEX AEX20161116222009911/16/16 22:20:31  5-MIN KAEX 170420Z 13004KT 10SM CLR 14/11 A3001 10 83 0 130/04 RMK AO2 T01390111
93915KAEX AEX20161116222509911/16/16 22:25:31  5-MIN KAEX 170425Z 13005KT 10SM CLR 14/11 A3001 10 83 0 130/05 RMK AO2 T01390111
93915KAEX AEX20161116223010211/16/16 22:30:31  5-MIN KAEX 170430Z 13005KT 10SM CLR 13/11 A3001 10 86 -100 130/05 RMK AO2 T01330111
93915KAEX AEX20161116223510211/16/16 22:35:31  5-MIN KAEX 170435Z 13005KT 10SM CLR 13/11 A3001 10 86 -100 130/05 RMK AO2 T01330111
93915KAEX AEX20161116224009911/16/16 22:40:31  5-MIN KAEX 170440Z 13005KT 10SM CLR 14/11 A3001 10 83 0 130/05 RMK AO2 T01390111
93915KAEX AEX20161116224509911/16/16 22:45:31  5-MIN KAEX 170445Z 13005KT 10SM CLR 14/11 A3001 10 83 0 130/05 RMK AO2 T01390111
93915KAEX AEX20161116225010611/16/16 22:50:31  5-MIN KAEX 170450Z 13005KT 10SM CLR 14/11 A3001 10 83 0 130/05 RMK AO2 SLP165 T01390111
93915KAEX AEX20161116225509911/16/16 22:55:31  5-MIN KAEX 170455Z 13005KT 10SM CLR 14/11 A3001 10 83 0 130/05 RMK AO2 T01390111
93915KAEX AEX20161116230009911/16/16 23:00:31  5-MIN KAEX 170500Z 13005KT 10SM CLR 14/11 A3001 10 83 0 130/05 RMK AO2 T01390111
93915KAEX AEX20161116230509911/16/16 23:05:31  5-MIN KAEX 170505Z 12005KT 10SM CLR 14/11 A3001 10 83 0 120/05 RMK AO2 T01390111
93915KAEX AEX20161116231009911/16/16 23:10:31  5-MIN KAEX 170510Z 13006KT 10SM CLR 14/11 A3001 10 83 0 120/06 RMK AO2 T01390111
93915KAEX AEX20161116231509911/16/16 23:15:31  5-MIN KAEX 170515Z 12005KT 10SM CLR 14/11 A3001 10 83 0 120/05 RMK AO2 T01390111
93915KAEX AEX20161116232009911/16/16 23:20:31  5-MIN KAEX 170520Z 13006KT 10SM CLR 14/11 A3001 10 83 0 120/06 RMK AO2 T01390111
93915KAEX AEX20161116232510211/16/16 23:25:31  5-MIN KAEX 170525Z 14007KT 10SM CLR 13/11 A3001 10 86 -100 130/07 RMK AO2 T01330111
93915KAEX AEX20161116233010211/16/16 23:30:31  5-MIN KAEX 170530Z 13005KT 10SM CLR 13/11 A3001 10 86 -100 130/05 RMK AO2 T01330111
93915KAEX AEX20161116233510211/16/16 23:35:31  5-MIN KAEX 170535Z 13006KT 10SM CLR 13/11 A3000 10 86 -100 130/06 RMK AO2 T01330111
93915KAEX AEX20161116234010211/16/16 23:40:31  5-MIN KAEX 170540Z 13005KT 10SM CLR 13/11 A3000 10 89 -200 130/05 RMK AO2 T01280111
93915KAEX AEX20161116234510211/16/16 23:45:31  5-MIN KAEX 170545Z 13005KT 10SM CLR 13/11 A3000 10 86 -100 130/05 RMK AO2 T01330111
93915KAEX AEX20161116235013411/16/16 23:50:31  5-MIN KAEX 170550Z 13004KT 10SM CLR 14/11 A3000 10 83 0 130/04 RMK AO2 SLP163 T01390111 10206 20128 402780078 51012
93915KAEX AEX20161116235509911/16/16 23:55:31  5-MIN KAEX 170555Z 13005KT 10SM CLR 14/11 A3000 10 83 0 130/05 RMK AO2 T01390111
93915KAEX AEX20161117000009911/17/16 00:00:31  5-MIN KAEX 170600Z 13004KT 10SM CLR 14/11 A3000 10 83 0 120/04 RMK AO2 T01390111
93915KAEX AEX20161117000509911/17/16 00:05:31  5-MIN KAEX 170605Z 13004KT 10SM CLR 14/11 A3000 20 83 0 120/04 RMK AO2 T01390111
93915KAEX AEX20161117001009911/17/16 00:10:31  5-MIN KAEX 170610Z 13004KT 10SM CLR 14/12 A3000 20 86 0 120/04 RMK AO2 T01390117
93915KAEX AEX20161117001509911/17/16 00:15:31  5-MIN KAEX 170615Z 13005KT 10SM CLR 14/12 A3000 20 86 0 120/05 RMK AO2 T01390117
93915KAEX AEX20161117002009911/17/16 00:20:31  5-MIN KAEX 170620Z 13005KT 10SM CLR 14/11 A3000 20 83 0 130/05 RMK AO2 T01390111
93915KAEX AEX20161117002510211/17/16 00:25:31  5-MIN KAEX 170625Z 13005KT 10SM CLR 13/11 A3000 20 86 -100 130/05 RMK AO2 T01330111
93915KAEX AEX20161117003010211/17/16 00:30:31  5-MIN KAEX 170630Z 13004KT 10SM CLR 13/11 A3000 20 86 -100 120/04 RMK AO2 T01330111
93915KAEX AEX20161117003510211/17/16 00:35:31  5-MIN KAEX 170635Z 12005KT 10SM CLR 13/11 A3000 20 86 -100 120/05 RMK AO2 T01330111
93915KAEX AEX20161117004010211/17/16 00:40:31  5-MIN KAEX 170640Z 12005KT 10SM CLR 13/11 A3000 20 86 -100 120/05 RMK AO2 T01330111
93915KAEX AEX20161117004510211/17/16 00:45:31  5-MIN KAEX 170645Z 12005KT 10SM CLR 13/11 A3000 20 86 -100 120/05 RMK AO2 T01330111
93915KAEX AEX20161117005010911/17/16 00:50:31  5-MIN KAEX 170650Z 12005KT 10SM CLR 13/11 A2999 20 86 -100 120/05 RMK AO2 SLP160 T01330111
93915KAEX AEX20161117005510211/17/16 00:55:31  5-MIN KAEX 170655Z 12005KT 10SM CLR 13/11 A2999 20 89 -100 120/05 RMK AO2 T01280111
93915KAEX AEX20161117010010111/17/16 01:00:31  5-MIN KAEX 170700Z 13005KT 9SM CLR 12/11 A2999 30 93 -200 120/05 RMK AO2 T01220111
93915KAEX AEX20161117010510111/17/16 01:05:31  5-MIN KAEX 170705Z 12004KT 9SM CLR 13/11 A2999 30 86 -100 120/04 RMK AO2 T01330111
93915KAEX AEX20161117011010111/17/16 01:10:31  5-MIN KAEX 170710Z 12004KT 9SM CLR 13/12 A2999 30 89 -100 120/04 RMK AO2 T01330117
93915KAEX AEX20161117011510111/17/16 01:15:31  5-MIN KAEX 170715Z 12004KT 9SM CLR 13/12 A2999 20 89 -100 120/04 RMK AO2 T01330117
93915KAEX AEX20161117012010111/17/16 01:20:31  5-MIN KAEX 170720Z 12005KT 9SM CLR 13/12 A2999 20 93 -100 120/05 RMK AO2 T01280117
93915KAEX AEX20161117012510111/17/16 01:25:31  5-MIN KAEX 170725Z 12005KT 9SM CLR 13/12 A2999 20 93 -100 120/05 RMK AO2 T01280117
93915KAEX AEX20161117013010111/17/16 01:30:31  5-MIN KAEX 170730Z 12005KT 9SM CLR 13/12 A2999 20 93 -100 120/05 RMK AO2 T01280117
93915KAEX AEX20161117013510111/17/16 01:35:31  5-MIN KAEX 170735Z 12005KT 8SM CLR 13/12 A2999 20 93 -100 120/05 RMK AO2 T01280117
93915KAEX AEX20161117014010111/17/16 01:40:31  5-MIN KAEX 170740Z 12004KT 8SM CLR 13/12 A2999 20 89 -100 120/04 RMK AO2 T01330117
93915KAEX AEX20161117014510111/17/16 01:45:31  5-MIN KAEX 170745Z 12004KT 8SM CLR 13/12 A2999 20 93 -100 110/04 RMK AO2 T01280117
93915KAEX AEX20161117015010811/17/16 01:50:31  5-MIN KAEX 170750Z 12005KT 8SM CLR 13/12 A2999 20 93 -100 120/05 RMK AO2 SLP159 T01280117
93915KAEX AEX20161117015510111/17/16 01:55:31  5-MIN KAEX 170755Z 12005KT 8SM CLR 13/12 A2999 20 93 -100 120/05 RMK AO2 T01280117
93915KAEX AEX20161117020010111/17/16 02:00:31  5-MIN KAEX 170800Z 12004KT 8SM CLR 12/12 A2999 30 96 -200 110/04 RMK AO2 T01220117
93915KAEX AEX20161117020510111/17/16 02:05:31  5-MIN KAEX 170805Z 11004KT 8SM CLR 12/12 A2999 20 96 -200 110/04 RMK AO2 T01220117
93915KAEX AEX20161117021010111/17/16 02:10:31  5-MIN KAEX 170810Z 12004KT 8SM CLR 12/11 A2999 20 93 -200 110/04 RMK AO2 T01220111
93915KAEX AEX20161117021510111/17/16 02:15:31  5-MIN KAEX 170815Z 11005KT 8SM CLR 12/12 A2999 20 96 -200 110/05 RMK AO2 T01220117
93915KAEX AEX20161117022010111/17/16 02:20:31  5-MIN KAEX 170820Z 11005KT 8SM CLR 12/12 A2999 20 96 -200 110/05 RMK AO2 T01220117
93915KAEX AEX20161117022510111/17/16 02:25:31  5-MIN KAEX 170825Z 11005KT 8SM CLR 13/12 A2999 20 93 -100 110/05 RMK AO2 T01280117
93915KAEX AEX20161117023010111/17/16 02:30:31  5-MIN KAEX 170830Z 11005KT 8SM CLR 13/12 A3000 20 96 -100 110/05 RMK AO2 T01280122
93915KAEX AEX20161117023510111/17/16 02:35:31  5-MIN KAEX 170835Z 11004KT 8SM CLR 13/12 A3000 20 96 -100 110/04 RMK AO2 T01280122
93915KAEX AEX20161117024010111/17/16 02:40:31  5-MIN KAEX 170840Z 11003KT 8SM CLR 13/12 A3000 20 93 -100 110/03 RMK AO2 T01330122
93915KAEX AEX20161117024510111/17/16 02:45:31  5-MIN KAEX 170845Z 12003KT 8SM CLR 13/12 A3000 20 96 -200 120/03 RMK AO2 T01280122
93915KAEX AEX20161117025011411/17/16 02:50:31  5-MIN KAEX 170850Z 12003KT 8SM CLR 12/12 A3000 20 96 -200 120/03 RMK AO2 SLP161 T01220117 50003
93915KAEX AEX20161117025510111/17/16 02:55:31  5-MIN KAEX 170855Z 12003KT 8SM CLR 12/11 A3000 20 96 -300 110/03 RMK AO2 T01170111
93915KAEX AEX20161117030010111/17/16 03:00:31  5-MIN KAEX 170900Z 12003KT 7SM CLR 12/11 A3000 20 96 -300 120/03 RMK AO2 T01170111
93915KAEX AEX20161117030510511/17/16 03:05:31  5-MIN KAEX 170905Z 00000KT 6SM BR CLR 11/11 A3000 20 100 -400 000/00 RMK AO2 T01060106
93915KAEX AEX20161117031010411/17/16 03:10:31  5-MIN KAEX 170910Z 00000KT 6SM BR CLR 11/11 A3000 10 96 -400 000/00 RMK AO2 T01110106
93915KAEX AEX20161117031510411/17/16 03:15:31  5-MIN KAEX 170915Z 00000KT 6SM BR CLR 11/10 A3000 10 96 -400 000/00 RMK AO2 T01060100
93915KAEX AEX20161117032010511/17/16 03:20:31  5-MIN KAEX 170920Z 00000KT 6SM BR CLR 11/11 A3000 10 100 -400 000/00 RMK AO2 T01060106
93915KAEX AEX20161117032510411/17/16 03:25:31  5-MIN KAEX 170925Z 00000KT 6SM BR CLR 12/11 A3001 10 96 -300 000/00 RMK AO2 T01170111
93915KAEX AEX20161117033010411/17/16 03:30:31  5-MIN KAEX 170930Z 00000KT 6SM BR CLR 12/11 A3000 10 96 -300 000/00 RMK AO2 T01170111
93915KAEX AEX20161117033510411/17/16 03:35:31  5-MIN KAEX 170935Z 12003KT 6SM BR CLR 12/12 A3001 10 96 -200 120/03 RMK AO2 T01220117
93915KAEX AEX20161117034010411/17/16 03:40:31  5-MIN KAEX 170940Z 12003KT 6SM BR CLR 12/11 A3001 10 96 -300 120/03 RMK AO2 T01170111
93915KAEX AEX20161117034510511/17/16 03:45:31  5-MIN KAEX 170945Z 12003KT 6SM BR CLR 11/11 A3000 10 100 -400 120/03 RMK AO2 T01110111
93915KAEX AEX20161117035011211/17/16 03:50:31  5-MIN KAEX 170950Z 10003KT 5SM BR CLR 11/11 A3000 10 100 -400 100/03 RMK AO2 SLP164 T01060106
93915KAEX AEX20161117035510511/17/16 03:55:31  5-MIN KAEX 170955Z 09003KT 6SM BR CLR 11/11 A3001 10 100 -400 090/03 RMK AO2 T01110111
93915KAEX AEX20161117040010211/17/16 04:00:31  5-MIN KAEX 171000Z 00000KT 7SM CLR 11/11 A3001 10 100 -400 000/00 RMK AO2 T01110111
93915KAEX AEX20161117040510511/17/16 04:05:31  5-MIN KAEX 171005Z 10003KT 6SM BR CLR 11/11 A3000 10 100 -400 100/03 RMK AO2 T01110111
93915KAEX AEX20161117041010411/17/16 04:10:31  5-MIN KAEX 171010Z 10004KT 6SM BR CLR 11/11 A3000 20 96 -400 100/04 RMK AO2 T01110106
93915KAEX AEX20161117041510411/17/16 04:15:31  5-MIN KAEX 171015Z 10004KT 6SM BR CLR 11/10 A3000 20 96 -400 100/04 RMK AO2 T01060100
93915KAEX AEX20161117042010511/17/16 04:20:31  5-MIN KAEX 171020Z 11004KT 6SM BR CLR 10/10 A3000 20 100 -500 110/04 RMK AO2 T01000100
93915KAEX AEX20161117042510511/17/16 04:25:31  5-MIN KAEX 171025Z 11004KT 6SM BR CLR 11/11 A3000 20 100 -400 100/04 RMK AO2 T01060106
93915KAEX AEX20161117043010511/17/16 04:30:31  5-MIN KAEX 171030Z 10005KT 6SM BR CLR 10/10 A3000 20 100 -500 100/05 RMK AO2 T01000100
93915KAEX AEX20161117043510511/17/16 04:35:31  5-MIN KAEX 171035Z 11005KT 5SM BR CLR 11/11 A3000 20 100 -400 100/05 RMK AO2 T01060106
93915KAEX AEX20161117044010511/17/16 04:40:31  5-MIN KAEX 171040Z 10004KT 5SM BR CLR 11/11 A3000 20 100 -400 100/04 RMK AO2 T01060106
93915KAEX AEX20161117044510511/17/16 04:45:31  5-MIN KAEX 171045Z 11005KT 5SM BR CLR 11/11 A3000 20 100 -400 110/05 RMK AO2 T01060106
93915KAEX AEX20161117045011111/17/16 04:50:31  5-MIN KAEX 171050Z 11004KT 5SM BR CLR 11/11 A3000 20 96 -400 110/04 RMK AO2 SLP162 T01110106
93915KAEX AEX20161117045510511/17/16 04:55:31  5-MIN KAEX 171055Z 11004KT 5SM BR CLR 11/11 A3000 20 100 -400 110/04 RMK AO2 T01060106
93915KAEX AEX20161117050010511/17/16 05:00:31  5-MIN KAEX 171100Z 11005KT 5SM BR CLR 10/10 A3000 20 100 -500 110/05 RMK AO2 T01000100
93915KAEX AEX20161117050510511/17/16 05:05:31  5-MIN KAEX 171105Z 11005KT 5SM BR CLR 10/10 A3000 20 100 -500 110/05 RMK AO2 T01000100
93915KAEX AEX20161117051010511/17/16 05:10:31  5-MIN KAEX 171110Z 11005KT 6SM BR CLR 10/10 A3000 20 100 -500 110/05 RMK AO2 T01000100
93915KAEX AEX20161117051510511/17/16 05:15:31  5-MIN KAEX 171115Z 11005KT 6SM BR CLR 11/11 A3000 20 100 -400 110/05 RMK AO2 T01060106
93915KAEX AEX20161117052010511/17/16 05:20:31  5-MIN KAEX 171120Z 11005KT 6SM BR CLR 11/11 A3000 20 100 -400 110/05 RMK AO2 T01060106
93915KAEX AEX20161117052510511/17/16 05:25:31  5-MIN KAEX 171125Z 11005KT 6SM BR CLR 11/11 A3000 20 100 -400 110/05 RMK AO2 T01060106
93915KAEX AEX20161117053010511/17/16 05:30:31  5-MIN KAEX 171130Z 11004KT 5SM BR CLR 11/11 A3000 20 100 -400 100/04 RMK AO2 T01060106
93915KAEX AEX20161117053510511/17/16 05:35:31  5-MIN KAEX 171135Z 11004KT 5SM BR CLR 10/10 A3000 20 100 -500 100/04 RMK AO2 T01000100
93915KAEX AEX20161117054010511/17/16 05:40:31  5-MIN KAEX 171140Z 11004KT 5SM BR CLR 10/10 A3000 10 100 -500 110/04 RMK AO2 T01000100
93915KAEX AEX20161117054510511/17/16 05:45:31  5-MIN KAEX 171145Z 11004KT 5SM BR CLR 10/10 A3000 10 100 -500 110/04 RMK AO2 T01000100
93915KAEX AEX20161117055013011/17/16 05:50:31  5-MIN KAEX 171150Z 11004KT 5SM BR CLR 10/10 A3001 10 100 -500 110/04 RMK AO2 SLP165 T01000100 10144 20100 55002
93915KAEX AEX20161117055510511/17/16 05:55:31  5-MIN KAEX 171155Z 11004KT 5SM BR CLR 10/10 A3001 10 100 -500 110/04 RMK AO2 T01000100
93915KAEX AEX20161117060010511/17/16 06:00:31  5-MIN KAEX 171200Z 11004KT 5SM BR CLR 10/10 A3001 10 100 -500 110/04 RMK AO2 T01000100
93915KAEX AEX20161117060510411/17/16 06:05:31  5-MIN KAEX 171205Z 11004KT 5SM BR CLR 11/10 A3001 10 96 -400 100/04 RMK AO2 T01060100
93915KAEX AEX20161117061010511/17/16 06:10:31  5-MIN KAEX 171210Z 10004KT 5SM BR CLR 11/11 A3001 10 100 -400 100/04 RMK AO2 T01060106
93915KAEX AEX20161117061510511/17/16 06:15:31  5-MIN KAEX 171215Z 11004KT 5SM BR CLR 11/11 A3001 10 100 -400 110/04 RMK AO2 T01060106
93915KAEX AEX20161117062010311/17/16 06:20:31  5-MIN KAEX 171220Z 11005KT 5SM BR CLR 11/11 A3001 0 96 -400 110/05 RMK AO2 T01110106
93915KAEX AEX20161117062510411/17/16 06:25:31  5-MIN KAEX 171225Z 11005KT 5SM BR CLR 11/11 A3001 0 100 -400 100/05 RMK AO2 T01110111
93915KAEX AEX20161117063010411/17/16 06:30:31  5-MIN KAEX 171230Z 11004KT 5SM BR CLR 11/11 A3002 0 100 -400 100/04 RMK AO2 T01110111
93915KAEX AEX20161117063510411/17/16 06:35:31  5-MIN KAEX 171235Z 11004KT 5SM BR CLR 11/11 A3002 0 100 -400 100/04 RMK AO2 T01110111
93915KAEX AEX20161117064010411/17/16 06:40:31  5-MIN KAEX 171240Z 11004KT 5SM BR CLR 11/11 A3002 0 100 -400 100/04 RMK AO2 T01110111
93915KAEX AEX20161117064510411/17/16 06:45:31  5-MIN KAEX 171245Z 10004KT 4SM BR CLR 11/11 A3002 0 100 -400 100/04 RMK AO2 T01110111
93915KAEX AEX20161117065011111/17/16 06:50:31  5-MIN KAEX 171250Z 10004KT 3SM BR CLR 11/11 A3002 0 100 -400 100/04 RMK AO2 SLP170 T01060106
93915KAEX AEX20161117065510411/17/16 06:55:31  5-MIN KAEX 171255Z 10003KT 3SM BR CLR 11/11 A3002 0 100 -400 100/03 RMK AO2 T01110111
93915KAEX AEX20161117070010411/17/16 07:00:31  5-MIN KAEX 171300Z 11003KT 3SM BR CLR 11/11 A3003 0 100 -400 100/03 RMK AO2 T01110111
93915KAEX AEX20161117070510411/17/16 07:05:31  5-MIN KAEX 171305Z 11004KT 3SM BR CLR 11/11 A3003 0 100 -400 100/04 RMK AO2 T01110111
93915KAEX AEX20161117071010311/17/16 07:10:31  5-MIN KAEX 171310Z 11005KT 3SM BR CLR 12/11 A3003 0 96 -300 110/05 RMK AO2 T01170111
93915KAEX AEX20161117071510511/17/16 07:15:31  5-MIN KAEX 171315Z 11004KT 4SM BR CLR 12/12 A3003 -10 96 -300 110/04 RMK AO2 T01220117
93915KAEX AEX20161117072010611/17/16 07:20:31  5-MIN KAEX 171320Z 12003KT 4SM BR CLR 12/12 A3003 -10 100 -300 120/03 RMK AO2 T01220122
93915KAEX AEX20161117072510611/17/16 07:25:31  5-MIN KAEX 171325Z 00000KT 3SM BR CLR 12/12 A3004 -10 100 -300 000/00 RMK AO2 T01170117
93915KAEX AEX20161117073010611/17/16 07:30:31  5-MIN KAEX 171330Z 00000KT 3SM BR CLR 12/12 A3004 -10 100 -300 000/00 RMK AO2 T01220122
93915KAEX AEX20161117073510611/17/16 07:35:31  5-MIN KAEX 171335Z 00000KT 4SM BR CLR 11/11 A3004 -10 100 -400 000/00 RMK AO2 T01110111
93915KAEX AEX20161117074010511/17/16 07:40:31  5-MIN KAEX 171340Z 00000KT 4SM BR CLR 12/11 A3004 -20 93 -300 000/00 RMK AO2 T01170106
93915KAEX AEX20161117074510511/17/16 07:45:31  5-MIN KAEX 171345Z 00000KT 4SM BR CLR 12/11 A3004 -20 93 -300 000/00 RMK AO2 T01220111
93915KAEX AEX20161117075011211/17/16 07:50:31  5-MIN KAEX 171350Z 00000KT 4SM BR CLR 13/12 A3004 -20 93 -200 000/00 RMK AO2 SLP177 T01280117
93915KAEX AEX20161117075510511/17/16 07:55:31  5-MIN KAEX 171355Z 13003KT 4SM BR CLR 13/12 A3004 -20 96 -200 130/03 RMK AO2 T01280122
93915KAEX AEX20161117080010511/17/16 08:00:31  5-MIN KAEX 171400Z 13004KT 4SM BR CLR 13/13 A3004 -20 96 -100 130/04 RMK AO2 T01330128
93915KAEX AEX20161117080510511/17/16 08:05:31  5-MIN KAEX 171405Z 13004KT 4SM BR CLR 13/13 A3005 -20 96 -100 130/04 RMK AO2 T01330128
93915KAEX AEX20161117081010511/17/16 08:10:31  5-MIN KAEX 171410Z 13005KT 5SM BR CLR 14/13 A3005 -20 93 -100 130/05 RMK AO2 T01390128
93915KAEX AEX20161117081510511/17/16 08:15:31  5-MIN KAEX 171415Z 13005KT 5SM BR CLR 14/13 A3005 -20 93 -100 130/05 RMK AO2 T01390128
93915KAEX AEX20161117082010511/17/16 08:20:31  5-MIN KAEX 171420Z 13006KT 5SM BR CLR 14/13 A3005 -20 93 -100 130/06 RMK AO2 T01390128
93915KAEX AEX20161117082510211/17/16 08:25:31  5-MIN KAEX 171425Z 13006KT 6SM BR CLR 14/13 A3004 -20 90 0 130/06 RMK AO2 T01440128
93915KAEX AEX20161117083010211/17/16 08:30:31  5-MIN KAEX 171430Z 13008KT 6SM BR CLR 14/13 A3004 -20 90 0 130/08 RMK AO2 T01440128
93915KAEX AEX20161117083509911/17/16 08:35:31  5-MIN KAEX 171435Z 13007KT 7SM CLR 15/13 A3005 -20 90 0 130/07 RMK AO2 T01500133
93915KAEX AEX20161117084010111/17/16 08:40:31  5-MIN KAEX 171440Z 14006KT 8SM CLR 16/13 A3005 -20 86 100 140/06 RMK AO2 T01560133
93915KAEX AEX20161117084510111/17/16 08:45:31  5-MIN KAEX 171445Z 14006KT 8SM CLR 16/13 A3005 -20 83 100 140/06 RMK AO2 T01610133
93915KAEX AEX20161117085011411/17/16 08:50:31  5-MIN KAEX 171450Z 15006KT 9SM CLR 16/13 A3005 -20 80 100 140/06 RMK AO2 SLP180 T01610128 53003
93915KAEX AEX20161117085510211/17/16 08:55:31  5-MIN KAEX 171455Z 15006KT 10SM CLR 17/13 A3005 -20 77 200 140/06 RMK AO2 T01670128
93915KAEX AEX20161117090010211/17/16 09:00:31  5-MIN KAEX 171500Z 15007KT 10SM CLR 17/13 A3005 -20 75 300 150/07 RMK AO2 T01720128
93915KAEX AEX20161117090510211/17/16 09:05:31  5-MIN KAEX 171505Z 15008KT 10SM CLR 18/13 A3005 -20 72 300 150/08 RMK AO2 T01780128
93915KAEX AEX20161117091010211/17/16 09:10:31  5-MIN KAEX 171510Z 16010KT 10SM CLR 18/13 A3005 -20 70 400 160/10 RMK AO2 T01830128
93915KAEX AEX20161117091510211/17/16 09:15:31  5-MIN KAEX 171515Z 15010KT 10SM CLR 19/13 A3005 -20 67 500 150/10 RMK AO2 T01890128
93915KAEX AEX20161117092010211/17/16 09:20:31  5-MIN KAEX 171520Z 16012KT 10SM CLR 19/12 A3005 -20 62 500 160/12 RMK AO2 T01940122
93915KAEX AEX20161117092510211/17/16 09:25:31  5-MIN KAEX 171525Z 15011KT 10SM CLR 19/12 A3005 -20 62 500 150/11 RMK AO2 T01940122
93915KAEX AEX20161117093010211/17/16 09:30:31  5-MIN KAEX 171530Z 14009KT 10SM CLR 20/12 A3005 -20 60 600 140/09 RMK AO2 T02000122
93915KAEX AEX20161117093510211/17/16 09:35:31  5-MIN KAEX 171535Z 15010KT 10SM CLR 20/12 A3005 -20 58 600 150/10 RMK AO2 T02000117
93915KAEX AEX20161117094010211/17/16 09:40:31  5-MIN KAEX 171540Z 15011KT 10SM CLR 21/11 A3005 -20 54 700 150/11 RMK AO2 T02060111
93915KAEX AEX20161117094510211/17/16 09:45:31  5-MIN KAEX 171545Z 15010KT 10SM CLR 21/11 A3004 -20 52 700 150/10 RMK AO2 T02110111
93915KAEX AEX20161117095010911/17/16 09:50:31  5-MIN KAEX 171550Z 14012KT 10SM CLR 22/11 A3004 -10 50 800 140/12 RMK AO2 SLP176 T02170111
93915KAEX AEX20161117095510211/17/16 09:55:31  5-MIN KAEX 171555Z 14010KT 10SM CLR 22/11 A3004 -10 49 800 140/10 RMK AO2 T02170106
93915KAEX AEX20161117100010211/17/16 10:00:31  5-MIN KAEX 171600Z 14011KT 10SM CLR 22/10 A3004 -10 45 900 140/11 RMK AO2 T02220100
93915KAEX AEX20161117100510211/17/16 10:05:31  5-MIN KAEX 171605Z 14010KT 10SM CLR 23/10 A3004 -10 44 900 140/10 RMK AO2 T02280100
93915KAEX AEX20161117101010211/17/16 10:10:31  5-MIN KAEX 171610Z 14011KT 10SM CLR 23/10 A3004 -10 44 900 140/11 RMK AO2 T02280100
93915KAEX AEX20161117101510311/17/16 10:15:31  5-MIN KAEX 171615Z 14009KT 10SM CLR 23/11 A3004 -10 44 1000 140/09 RMK AO2 T02330106
93915KAEX AEX20161117102010311/17/16 10:20:31  5-MIN KAEX 171620Z 14011KT 10SM CLR 23/11 A3004 -10 44 1000 140/11 RMK AO2 T02330106
93915KAEX AEX20161117102510311/17/16 10:25:31  5-MIN KAEX 171625Z 16009KT 10SM CLR 23/11 A3003 -10 45 1000 160/09 RMK AO2 T02330111
93915KAEX AEX20161117103010311/17/16 10:30:31  5-MIN KAEX 171630Z 14010KT 10SM CLR 23/11 A3003 -10 45 1000 140/10 RMK AO2 T02330111
93915KAEX AEX20161117103510311/17/16 10:35:31  5-MIN KAEX 171635Z 15009KT 10SM CLR 24/12 A3003 -10 46 1100 150/09 RMK AO2 T02390117
93915KAEX AEX20161117104010111/17/16 10:40:31  5-MIN KAEX 171640Z 16010KT 10SM CLR 24/12 A3003 0 47 1100 160/10 RMK AO2 T02390122
93915KAEX AEX20161117104510111/17/16 10:45:31  5-MIN KAEX 171645Z 15009KT 10SM CLR 24/13 A3002 0 47 1100 150/09 RMK AO2 T02440128
93915KAEX AEX20161117105010811/17/16 10:50:31  5-MIN KAEX 171650Z 14009KT 10SM CLR 24/13 A3002 0 47 1100 140/09 RMK AO2 SLP170 T02440128
93915KAEX AEX20161117105510111/17/16 10:55:31  5-MIN KAEX 171655Z 17010KT 10SM CLR 25/14 A3002 0 49 1200 170/10 RMK AO2 T02500139
93915KAEX AEX20161117110010111/17/16 11:00:31  5-MIN KAEX 171700Z 17012KT 10SM CLR 25/15 A3002 0 53 1200 170/12 RMK AO2 T02500150
93915KAEX AEX20161117110510211/17/16 11:05:31  5-MIN KAEX 171705Z 16010KT 10SM CLR 25/15 A3001 10 53 1200 160/10 RMK AO2 T02500150
93915KAEX AEX20161117111010811/17/16 11:10:31  5-MIN KAEX 171710Z 17011G18KT 10SM CLR 25/16 A3001 10 55 1200 170/11G18 RMK AO2 T02500156
93915KAEX AEX20161117111510811/17/16 11:15:31  5-MIN KAEX 171715Z 18014G18KT 10SM CLR 25/16 A3001 10 57 1200 180/14G18 RMK AO2 T02500161
93915KAEX AEX20161117112010811/17/16 11:20:31  5-MIN KAEX 171720Z 18012G19KT 10SM CLR 25/16 A3001 10 57 1200 180/12G19 RMK AO2 T02500161
93915KAEX AEX20161117112510711/17/16 11:25:31  5-MIN KAEX 171725Z 16016G21KT 9SM CLR 26/16 A3000 20 55 1300 160/16G21 RMK AO2 T02560161
93915KAEX AEX20161117113010711/17/16 11:30:31  5-MIN KAEX 171730Z 17011G23KT 9SM CLR 26/17 A3000 20 57 1300 160/11G23 RMK AO2 T02560167
93915KAEX AEX20161117113510711/17/16 11:35:31  5-MIN KAEX 171735Z 18014G23KT 9SM CLR 26/17 A2999 20 57 1300 170/14G23 RMK AO2 T02560167
93915KAEX AEX20161117114010711/17/16 11:40:31  5-MIN KAEX 171740Z 17014G21KT 9SM CLR 26/17 A3000 20 57 1300 170/14G21 RMK AO2 T02560167
93915KAEX AEX20161117114510211/17/16 11:45:31  5-MIN KAEX 171745Z 18013KT 10SM CLR 26/16 A2999 30 55 1300 180/13 RMK AO2 T02560161
93915KAEX AEX20161117115012711/17/16 11:50:31  5-MIN KAEX 171750Z 17013KT 10SM CLR 26/16 A2999 30 55 1300 170/13 RMK AO2 SLP157 T02560161 10261 20100 51015
93915KAEX AEX20161117115510811/17/16 11:55:31  5-MIN KAEX 171755Z 16015G20KT 10SM CLR 26/16 A2998 30 53 1400 160/15G20 RMK AO2 T02610161
93915KAEX AEX20161117120010711/17/16 12:00:31  5-MIN KAEX 171800Z 17014G20KT 9SM CLR 26/16 A2998 30 53 1400 170/14G20 RMK AO2 T02610161
93915KAEX AEX20161117120510711/17/16 12:05:31  5-MIN KAEX 171805Z 16014G20KT 9SM CLR 26/16 A2998 40 53 1400 160/14G20 RMK AO2 T02610161
93915KAEX AEX20161117121010811/17/16 12:10:31  5-MIN KAEX 171810Z 18013G19KT 10SM CLR 27/16 A2998 40 52 1400 180/13G19 RMK AO2 T02670161
93915KAEX AEX20161117121510211/17/16 12:15:31  5-MIN KAEX 171815Z 19012KT 10SM CLR 27/16 A2998 40 52 1400 190/12 RMK AO2 T02670161
93915KAEX AEX20161117122010211/17/16 12:20:31  5-MIN KAEX 171820Z 17013KT 10SM CLR 27/16 A2998 40 52 1400 160/13 RMK AO2 T02670161
93915KAEX AEX20161117122510211/17/16 12:25:31  5-MIN KAEX 171825Z 16015KT 10SM CLR 27/16 A2997 40 50 1400 160/15 RMK AO2 T02670156
93915KAEX AEX20161117123011111/17/16 12:30:31  5-MIN KAEX 171830Z 17016G20KT 10SM FEW038 27/16 A2997 40 50 1400 160/16G20 RMK AO2 T02670156
93915KAEX AEX20161117123511111/17/16 12:35:31  5-MIN KAEX 171835Z 18013G20KT 10SM FEW038 27/16 A2997 40 50 1400 180/13G20 RMK AO2 T02670156
93915KAEX AEX20161117124010511/17/16 12:40:31  5-MIN KAEX 171840Z 17013KT 10SM FEW037 27/16 A2997 50 50 1400 170/13 RMK AO2 T02670156
93915KAEX AEX20161117124510511/17/16 12:45:31  5-MIN KAEX 171845Z 18012KT 10SM FEW037 27/16 A2997 50 50 1400 180/12 RMK AO2 T02670156
93915KAEX AEX20161117125011811/17/16 12:50:31  5-MIN KAEX 171850Z 18012G18KT 10SM FEW037 27/16 A2996 50 52 1500 180/12G18 RMK AO2 SLP149 T02670161
93915KAEX AEX20161117125511011/17/16 12:55:31  5-MIN KAEX 171855Z 17013G20KT 9SM FEW038 27/16 A2996 50 50 1500 160/13G20 RMK AO2 T02670156
93915KAEX AEX20161117130010411/17/16 13:00:31  5-MIN KAEX 171900Z 18013KT 9SM FEW038 27/16 A2996 50 52 1500 180/13 RMK AO2 T02670161
93915KAEX AEX20161117130511111/17/16 13:05:31  5-MIN KAEX 171905Z 18012G19KT 10SM FEW038 27/16 A2996 60 52 1500 180/12G19 RMK AO2 T02670161
93915KAEX AEX20161117131011111/17/16 13:10:31  5-MIN KAEX 171910Z 19017G20KT 10SM SCT040 28/16 A2996 60 48 1600 190/17G20 RMK AO2 T02780161
93915KAEX AEX20161117131511111/17/16 13:15:31  5-MIN KAEX 171915Z 21016G20KT 10SM SCT040 27/16 A2996 60 50 1500 200/16G20 RMK AO2 T02720161
93915KAEX AEX20161117132011111/17/16 13:20:31  5-MIN KAEX 171920Z 19013G20KT 10SM SCT040 27/16 A2996 60 52 1500 190/13G20 RMK AO2 T02670161
93915KAEX AEX20161117132510511/17/16 13:25:31  5-MIN KAEX 171925Z 16014KT 10SM SCT040 27/16 A2996 60 52 1500 160/14 RMK AO2 T02670161
93915KAEX AEX20161117133010511/17/16 13:30:31  5-MIN KAEX 171930Z 17009KT 10SM SCT040 26/16 A2995 60 53 1400 170/09 RMK AO2 T02610161
93915KAEX AEX20161117133511011/17/16 13:35:31  5-MIN KAEX 171935Z 17011G18KT 9SM BKN040 26/16 A2995 60 53 1400 170/11G18 RMK AO2 T02610161
93915KAEX AEX20161117134011111/17/16 13:40:31  5-MIN KAEX 171940Z 17013G18KT 10SM BKN040 27/16 A2995 60 52 1500 170/13G18 RMK AO2 T02670161
93915KAEX AEX20161117134511011/17/16 13:45:31  5-MIN KAEX 171945Z 17014G19KT 9SM BKN040 27/16 A2995 60 52 1500 170/14G19 RMK AO2 T02670161
93915KAEX AEX20161117135011111/17/16 13:50:31  5-MIN KAEX 171950Z 17013KT 9SM BKN042 27/16 A2995 60 52 1500 170/13 RMK AO2 SLP144 T02670161
93915KAEX AEX20161117135511111/17/16 13:55:31  5-MIN KAEX 171955Z 18012G18KT 10SM BKN042 27/16 A2995 70 50 1500 180/12G18 RMK AO2 T02720161
93915KAEX AEX20161117140011011/17/16 14:00:31  5-MIN KAEX 172000Z 18013G18KT 9SM BKN042 27/16 A2995 70 50 1500 180/13G18 RMK AO2 T02670156
93915KAEX AEX20161117140510411/17/16 14:05:31  5-MIN KAEX 172005Z 18013KT 9SM BKN044 27/16 A2995 60 52 1500 170/13 RMK AO2 T02670161
93915KAEX AEX20161117141010411/17/16 14:10:31  5-MIN KAEX 172010Z 18014KT 9SM BKN044 27/16 A2995 70 50 1500 180/14 RMK AO2 T02720161
93915KAEX AEX20161117141510411/17/16 14:15:31  5-MIN KAEX 172015Z 17013KT 9SM BKN044 27/16 A2995 70 52 1500 170/13 RMK AO2 T02670161
93915KAEX AEX20161117142010511/17/16 14:20:31  5-MIN KAEX 172020Z 18010KT 10SM BKN046 27/16 A2994 70 52 1500 180/10 RMK AO2 T02670161
93915KAEX AEX20161117142510511/17/16 14:25:31  5-MIN KAEX 172025Z 17014KT 10SM BKN046 28/16 A2994 70 48 1600 170/14 RMK AO2 T02780161
93915KAEX AEX20161117143011111/17/16 14:30:31  5-MIN KAEX 172030Z 19016G20KT 10SM BKN046 27/16 A2994 70 50 1500 180/16G20 RMK AO2 T02670156
93915KAEX AEX20161117143510511/17/16 14:35:31  5-MIN KAEX 172035Z 18015KT 10SM SCT045 28/16 A2994 70 48 1600 180/15 RMK AO2 T02780161
93915KAEX AEX20161117144010511/17/16 14:40:31  5-MIN KAEX 172040Z 18013KT 10SM SCT047 27/16 A2994 70 52 1500 180/13 RMK AO2 T02670161
93915KAEX AEX20161117144510511/17/16 14:45:31  5-MIN KAEX 172045Z 18009KT 10SM BKN045 27/16 A2994 70 50 1500 180/09 RMK AO2 T02720161
93915KAEX AEX20161117145012411/17/16 14:50:31  5-MIN KAEX 172050Z 18012KT 9SM FEW029 BKN045 28/16 A2994 70 48 1600 170/12 RMK AO2 SLP140 T02780161 58023
93915KAEX AEX20161117145510411/17/16 14:55:31  5-MIN KAEX 172055Z 17012KT 9SM BKN045 28/16 A2994 80 48 1600 170/12 RMK AO2 T02780161
93915KAEX AEX20161117150010511/17/16 15:00:31  5-MIN KAEX 172100Z 16012KT 10SM BKN045 28/16 A2994 80 48 1600 160/12 RMK AO2 T02780161
93915KAEX AEX20161117150510511/17/16 15:05:31  5-MIN KAEX 172105Z 16016KT 10SM OVC045 28/16 A2994 80 48 1600 160/16 RMK AO2 T02780161
93915KAEX AEX20161117151011111/17/16 15:10:31  5-MIN KAEX 172110Z 17015G20KT 10SM OVC045 27/16 A2994 80 50 1500 160/15G20 RMK AO2 T02720161
93915KAEX AEX20161117151510511/17/16 15:15:31  5-MIN KAEX 172115Z 16014KT 10SM OVC045 28/16 A2993 80 48 1600 160/14 RMK AO2 T02780161
93915KAEX AEX20161117152011111/17/16 15:20:31  5-MIN KAEX 172120Z 18012G19KT 10SM BKN045 27/16 A2993 80 50 1500 170/12G19 RMK AO2 T02670156
93915KAEX AEX20161117152511111/17/16 15:25:31  5-MIN KAEX 172125Z 18013G19KT 10SM BKN047 27/16 A2993 80 48 1500 180/13G19 RMK AO2 T02720156
93915KAEX AEX20161117153010411/17/16 15:30:31  5-MIN KAEX 172130Z 18013KT 9SM BKN047 27/16 A2993 80 48 1500 170/13 RMK AO2 T02720156
93915KAEX AEX20161117153510411/17/16 15:35:31  5-MIN KAEX 172135Z 17011KT 8SM BKN047 27/16 A2993 80 48 1500 170/11 RMK AO2 T02720156
93915KAEX AEX20161117154010411/17/16 15:40:31  5-MIN KAEX 172140Z 19013KT 8SM BKN047 27/16 A2993 80 50 1500 180/13 RMK AO2 T02720161
93915KAEX AEX20161117154511011/17/16 15:45:31  5-MIN KAEX 172145Z 19014G19KT 9SM BKN047 27/15 A2993 80 48 1500 190/14G19 RMK AO2 T02670150
93915KAEX AEX20161117155011811/17/16 15:50:31  5-MIN KAEX 172150Z 19014G19KT 10SM BKN047 27/16 A2993 80 50 1500 190/14G19 RMK AO2 SLP140 T02670156
93915KAEX AEX20161117155511111/17/16 15:55:31  5-MIN KAEX 172155Z 19016G21KT 10SM BKN047 27/15 A2993 80 48 1500 190/16G21 RMK AO2 T02670150
93915KAEX AEX20161117160011111/17/16 16:00:31  5-MIN KAEX 172200Z 18013G21KT 10SM SCT047 27/16 A2993 80 50 1500 180/13G21 RMK AO2 T02670156
93915KAEX AEX20161117160510511/17/16 16:05:31  5-MIN KAEX 172205Z 18013KT 10SM SCT047 27/16 A2993 80 50 1500 180/13 RMK AO2 T02670156
93915KAEX AEX20161117161011111/17/16 16:10:31  5-MIN KAEX 172210Z 18013G20KT 10SM SCT047 27/15 A2993 80 48 1500 180/13G20 RMK AO2 T02670150
93915KAEX AEX20161117161510511/17/16 16:15:31  5-MIN KAEX 172215Z 19013KT 10SM SCT047 27/15 A2993 80 48 1500 190/13 RMK AO2 T02670150
93915KAEX AEX20161117162010511/17/16 16:20:31  5-MIN KAEX 172220Z 18010KT 10SM SCT047 27/15 A2993 80 48 1500 180/10 RMK AO2 T02670150
93915KAEX AEX20161117162511111/17/16 16:25:31  5-MIN KAEX 172225Z 19012G18KT 10SM SCT048 26/16 A2994 80 51 1400 180/12G18 RMK AO2 T02610156
93915KAEX AEX20161117163010411/17/16 16:30:31  5-MIN KAEX 172230Z 18010KT 9SM SCT048 26/16 A2994 80 51 1400 180/10 RMK AO2 T02610156
93915KAEX AEX20161117163510411/17/16 16:35:31  5-MIN KAEX 172235Z 18011KT 8SM SCT047 26/16 A2994 70 51 1400 180/11 RMK AO2 T02610156
93915KAEX AEX20161117164010411/17/16 16:40:31  5-MIN KAEX 172240Z 17010KT 9SM FEW047 26/16 A2994 70 53 1400 170/10 RMK AO2 T02560156
93915KAEX AEX20161117164510411/17/16 16:45:31  5-MIN KAEX 172245Z 18010KT 9SM FEW047 26/16 A2994 70 53 1300 170/10 RMK AO2 T02560156
93915KAEX AEX20161117165010811/17/16 16:50:31  5-MIN KAEX 172250Z 17010KT 7SM CLR 25/16 A2994 70 57 1300 170/10 RMK AO2 SLP143 T02500161
93915KAEX AEX20161117165510411/17/16 16:55:31  5-MIN KAEX 172255Z 17008KT 8SM FEW047 25/16 A2995 70 57 1300 170/08 RMK AO2 T02500161
93915KAEX AEX20161117170010411/17/16 17:00:31  5-MIN KAEX 172300Z 17010KT 8SM FEW047 25/16 A2995 70 57 1300 170/10 RMK AO2 T02500161
93915KAEX AEX20161117170510411/17/16 17:05:31  5-MIN KAEX 172305Z 17008KT 7SM FEW047 24/16 A2995 70 59 1200 170/08 RMK AO2 T02440161
93915KAEX AEX20161117171010411/17/16 17:10:31  5-MIN KAEX 172310Z 17007KT 7SM FEW047 24/16 A2995 70 59 1200 170/07 RMK AO2 T02440161
93915KAEX AEX20161117171510411/17/16 17:15:31  5-MIN KAEX 172315Z 17008KT 7SM FEW047 24/16 A2995 60 59 1200 170/08 RMK AO2 T02440161
93915KAEX AEX20161117172010411/17/16 17:20:31  5-MIN KAEX 172320Z 17008KT 9SM FEW047 24/16 A2995 60 61 1100 170/08 RMK AO2 T02390161
93915KAEX AEX20161117172510411/17/16 17:25:31  5-MIN KAEX 172325Z 17007KT 9SM FEW049 24/16 A2995 60 61 1100 170/07 RMK AO2 T02390161
93915KAEX AEX20161117173010411/17/16 17:30:31  5-MIN KAEX 172330Z 17007KT 8SM FEW049 23/16 A2996 60 63 1100 170/07 RMK AO2 T02330161
93915KAEX AEX20161117173510411/17/16 17:35:31  5-MIN KAEX 172335Z 17007KT 8SM FEW049 23/16 A2996 60 63 1100 170/07 RMK AO2 T02330161
93915KAEX AEX20161117174010411/17/16 17:40:31  5-MIN KAEX 172340Z 16007KT 9SM FEW050 23/16 A2996 60 63 1100 160/07 RMK AO2 T02330161
93915KAEX AEX20161117174510511/17/16 17:45:31  5-MIN KAEX 172345Z 16007KT 10SM FEW050 23/16 A2996 60 65 1000 160/07 RMK AO2 T02280161
93915KAEX AEX20161117175013011/17/16 17:50:31  5-MIN KAEX 172350Z 16007KT 10SM FEW050 23/16 A2996 60 65 1000 150/07 RMK AO2 SLP149 T02280161 10278 20228 56016
93915KAEX AEX20161117175510411/17/16 17:55:31  5-MIN KAEX 172355Z 15007KT 10SM FEW050 22/16 A2996 50 70 900 150/07 RMK AO2 T02170161
93915KAEX AEX20161117180010411/17/16 18:00:31  5-MIN KAEX 180000Z 15007KT 10SM FEW050 22/16 A2996 50 70 900 150/07 RMK AO2 T02170161
93915KAEX AEX20161117180510011/17/16 18:05:31  5-MIN KAEX 180005Z 15008KT 9SM CLR 22/17 A2996 50 73 900 150/08 RMK AO2 T02170167
93915KAEX AEX20161117181010111/17/16 18:10:31  5-MIN KAEX 180010Z 15008KT 10SM CLR 22/17 A2996 50 70 900 150/08 RMK AO2 T02220167
93915KAEX AEX20161117181510111/17/16 18:15:31  5-MIN KAEX 180015Z 16008KT 10SM CLR 22/17 A2996 50 70 900 160/08 RMK AO2 T02220167
93915KAEX AEX20161117182010111/17/16 18:20:31  5-MIN KAEX 180020Z 15010KT 10SM CLR 22/17 A2996 50 70 900 150/10 RMK AO2 T02220167
93915KAEX AEX20161117182510111/17/16 18:25:31  5-MIN KAEX 180025Z 15009KT 10SM CLR 22/17 A2997 50 70 900 150/09 RMK AO2 T02220167
93915KAEX AEX20161117183010111/17/16 18:30:31  5-MIN KAEX 180030Z 15009KT 10SM CLR 22/17 A2997 50 70 900 150/09 RMK AO2 T02220167
93915KAEX AEX20161117183510111/17/16 18:35:31  5-MIN KAEX 180035Z 15009KT 10SM CLR 22/17 A2997 50 73 900 150/09 RMK AO2 T02220172
93915KAEX AEX20161117184010111/17/16 18:40:31  5-MIN KAEX 180040Z 15008KT 10SM CLR 22/17 A2997 40 75 900 150/08 RMK AO2 T02170172
93915KAEX AEX20161117184510111/17/16 18:45:31  5-MIN KAEX 180045Z 15007KT 10SM CLR 21/17 A2997 40 75 800 140/07 RMK AO2 T02110167
93915KAEX AEX20161117185010811/17/16 18:50:31  5-MIN KAEX 180050Z 15008KT 10SM CLR 21/17 A2997 40 78 700 150/08 RMK AO2 SLP153 T02060167
93915KAEX AEX20161117185510411/17/16 18:55:31  5-MIN KAEX 180055Z 15009KT 10SM FEW031 21/17 A2998 40 78 800 150/09 RMK AO2 T02110172
93915KAEX AEX20161117190010411/17/16 19:00:31  5-MIN KAEX 180100Z 15009KT 10SM SCT031 21/17 A2998 40 78 800 150/09 RMK AO2 T02110172
93915KAEX AEX20161117190510411/17/16 19:05:31  5-MIN KAEX 180105Z 15010KT 10SM FEW031 21/17 A2998 40 78 800 150/10 RMK AO2 T02110172
93915KAEX AEX20161117191010411/17/16 19:10:31  5-MIN KAEX 180110Z 16009KT 10SM FEW032 21/17 A2998 40 78 800 150/09 RMK AO2 T02110172
93915KAEX AEX20161117191510411/17/16 19:15:31  5-MIN KAEX 180115Z 16010KT 10SM FEW032 21/17 A2998 40 78 800 150/10 RMK AO2 T02110172
93915KAEX AEX20161117192010411/17/16 19:20:31  5-MIN KAEX 180120Z 16009KT 10SM FEW032 21/17 A2998 40 78 800 150/09 RMK AO2 T02110172
93915KAEX AEX20161117192510411/17/16 19:25:31  5-MIN KAEX 180125Z 16011KT 10SM FEW031 21/17 A2998 40 78 800 150/11 RMK AO2 T02110172
93915KAEX AEX20161117193010411/17/16 19:30:31  5-MIN KAEX 180130Z 16009KT 10SM FEW029 21/17 A2998 40 78 800 160/09 RMK AO2 T02110172
93915KAEX AEX20161117193510411/17/16 19:35:31  5-MIN KAEX 180135Z 16010KT 10SM FEW029 21/17 A2998 40 78 800 160/10 RMK AO2 T02110172
93915KAEX AEX20161117194010411/17/16 19:40:31  5-MIN KAEX 180140Z 16009KT 10SM FEW029 21/17 A2998 30 78 800 160/09 RMK AO2 T02110172
93915KAEX AEX20161117194510411/17/16 19:45:31  5-MIN KAEX 180145Z 16010KT 10SM FEW030 21/17 A2998 30 78 800 160/10 RMK AO2 T02110172
93915KAEX AEX20161117195011111/17/16 19:50:31  5-MIN KAEX 180150Z 16010KT 10SM FEW030 21/17 A2999 30 78 800 150/10 RMK AO2 SLP158 T02110172
93915KAEX AEX20161117195510411/17/16 19:55:31  5-MIN KAEX 180155Z 16009KT 10SM FEW030 21/17 A2999 30 78 800 160/09 RMK AO2 T02110172
93915KAEX AEX20161117200010111/17/16 20:00:31  5-MIN KAEX 180200Z 16011KT 10SM CLR 21/17 A2999 30 78 800 160/11 RMK AO2 T02110172
93915KAEX AEX20161117200510111/17/16 20:05:31  5-MIN KAEX 180205Z 16011KT 10SM CLR 21/17 A2999 30 75 800 160/11 RMK AO2 T02110167
93915KAEX AEX20161117201010411/17/16 20:10:31  5-MIN KAEX 180210Z 16011KT 10SM FEW031 21/17 A2999 30 75 800 160/11 RMK AO2 T02110167
93915KAEX AEX20161117201510411/17/16 20:15:31  5-MIN KAEX 180215Z 16011KT 10SM SCT031 21/17 A2999 30 75 800 160/11 RMK AO2 T02110167
93915KAEX AEX20161117202010411/17/16 20:20:31  5-MIN KAEX 180220Z 16008KT 10SM FEW031 21/17 A2999 30 78 700 160/08 RMK AO2 T02060167
93915KAEX AEX20161117202510411/17/16 20:25:31  5-MIN KAEX 180225Z 15008KT 10SM FEW031 21/17 A2999 30 78 700 150/08 RMK AO2 T02060167
93915KAEX AEX20161117203010411/17/16 20:30:31  5-MIN KAEX 180230Z 15010KT 10SM FEW031 20/17 A2999 30 81 700 150/10 RMK AO2 T02000167
93915KAEX AEX20161117203510411/17/16 20:35:31  5-MIN KAEX 180235Z 16010KT 10SM FEW031 20/17 A2999 30 81 700 150/10 RMK AO2 T02000167
93915KAEX AEX20161117204010111/17/16 20:40:31  5-MIN KAEX 180240Z 16011KT 10SM CLR 20/17 A2999 20 81 700 160/11 RMK AO2 T02000167
93915KAEX AEX20161117204510111/17/16 20:45:31  5-MIN KAEX 180245Z 16008KT 10SM CLR 20/16 A2999 20 78 700 150/08 RMK AO2 T02000161
93915KAEX AEX20161117205011411/17/16 20:50:31  5-MIN KAEX 180250Z 16009KT 10SM CLR 20/16 A3000 20 78 700 150/09 RMK AO2 SLP161 T02000161 53007
93915KAEX AEX20161117205510111/17/16 20:55:31  5-MIN KAEX 180255Z 16008KT 10SM CLR 20/16 A3000 20 78 600 160/08 RMK AO2 T02000161
93915KAEX AEX20161117210010111/17/16 21:00:31  5-MIN KAEX 180300Z 16009KT 10SM CLR 20/16 A3000 20 78 600 150/09 RMK AO2 T02000161
93915KAEX AEX20161117210510111/17/16 21:05:31  5-MIN KAEX 180305Z 16009KT 10SM CLR 19/16 A3000 20 81 600 160/09 RMK AO2 T01940161
93915KAEX AEX20161117211010111/17/16 21:10:31  5-MIN KAEX 180310Z 16009KT 10SM CLR 19/16 A3000 10 78 600 150/09 RMK AO2 T01940156
93915KAEX AEX20161117211510111/17/16 21:15:31  5-MIN KAEX 180315Z 16008KT 10SM CLR 19/16 A3000 10 78 600 160/08 RMK AO2 T01940156
93915KAEX AEX20161117212010111/17/16 21:20:31  5-MIN KAEX 180320Z 16009KT 10SM CLR 19/16 A3000 20 78 600 150/09 RMK AO2 T01940156
93915KAEX AEX20161117212510111/17/16 21:25:31  5-MIN KAEX 180325Z 15007KT 10SM CLR 19/16 A3000 10 81 500 150/07 RMK AO2 T01890156
93915KAEX AEX20161117213010111/17/16 21:30:31  5-MIN KAEX 180330Z 15009KT 10SM CLR 19/16 A3001 10 81 500 150/09 RMK AO2 T01890156
93915KAEX AEX20161117213510111/17/16 21:35:31  5-MIN KAEX 180335Z 15008KT 10SM CLR 19/16 A3001 10 81 500 150/08 RMK AO2 T01890156
93915KAEX AEX20161117214010111/17/16 21:40:31  5-MIN KAEX 180340Z 16008KT 10SM CLR 19/15 A3001 10 78 500 150/08 RMK AO2 T01890150
93915KAEX AEX20161117214510111/17/16 21:45:31  5-MIN KAEX 180345Z 16008KT 10SM CLR 19/15 A3001 10 78 500 150/08 RMK AO2 T01890150
93915KAEX AEX20161117215010711/17/16 21:50:31  5-MIN KAEX 180350Z 16007KT 10SM CLR 18/15 A3001 0 81 400 150/07 RMK AO2 SLP166 T01830150
93915KAEX AEX20161117215510011/17/16 21:55:31  5-MIN KAEX 180355Z 16007KT 10SM CLR 18/15 A3002 0 81 400 150/07 RMK AO2 T01830150
93915KAEX AEX20161117220010011/17/16 22:00:31  5-MIN KAEX 180400Z 15008KT 10SM CLR 18/15 A3002 0 81 400 150/08 RMK AO2 T01830150
93915KAEX AEX20161117220510011/17/16 22:05:31  5-MIN KAEX 180405Z 15009KT 10SM CLR 18/15 A3002 0 81 400 150/09 RMK AO2 T01830150
93915KAEX AEX20161117221010011/17/16 22:10:31  5-MIN KAEX 180410Z 15008KT 10SM CLR 18/15 A3002 0 81 400 150/08 RMK AO2 T01830150
93915KAEX AEX20161117221510011/17/16 22:15:31  5-MIN KAEX 180415Z 15008KT 10SM CLR 18/15 A3002 0 81 400 150/08 RMK AO2 T01830150
93915KAEX AEX20161117222010011/17/16 22:20:31  5-MIN KAEX 180420Z 15008KT 10SM CLR 18/15 A3002 0 81 400 150/08 RMK AO2 T01830150
93915KAEX AEX20161117222510011/17/16 22:25:31  5-MIN KAEX 180425Z 14007KT 10SM CLR 18/15 A3002 0 83 400 140/07 RMK AO2 T01780150
93915KAEX AEX20161117223010011/17/16 22:30:31  5-MIN KAEX 180430Z 14007KT 10SM CLR 17/14 A3002 0 83 300 140/07 RMK AO2 T01720144
93915KAEX AEX20161117223510011/17/16 22:35:31  5-MIN KAEX 180435Z 14008KT 10SM CLR 17/14 A3002 0 86 200 140/08 RMK AO2 T01670144
93915KAEX AEX20161117224010011/17/16 22:40:31  5-MIN KAEX 180440Z 15007KT 10SM CLR 17/14 A3002 0 86 200 150/07 RMK AO2 T01670144
93915KAEX AEX20161117224510011/17/16 22:45:31  5-MIN KAEX 180445Z 15007KT 10SM CLR 17/15 A3002 0 87 300 150/07 RMK AO2 T01720150
93915KAEX AEX20161117225010711/17/16 22:50:31  5-MIN KAEX 180450Z 15008KT 10SM CLR 18/15 A3002 0 83 400 150/08 RMK AO2 SLP168 T01780150
93915KAEX AEX20161117225510011/17/16 22:55:31  5-MIN KAEX 180455Z 15007KT 10SM CLR 18/15 A3002 0 83 400 150/07 RMK AO2 T01780150
93915KAEX AEX20161117230010011/17/16 23:00:31  5-MIN KAEX 180500Z 15007KT 10SM CLR 17/15 A3002 0 87 300 150/07 RMK AO2 T01720150
93915KAEX AEX20161117230510011/17/16 23:05:31  5-MIN KAEX 180505Z 15007KT 10SM CLR 17/15 A3002 0 87 300 150/07 RMK AO2 T01720150
93915KAEX AEX20161117231010011/17/16 23:10:31  5-MIN KAEX 180510Z 15007KT 10SM CLR 17/15 A3002 0 87 300 150/07 RMK AO2 T01720150
93915KAEX AEX20161117231510011/17/16 23:15:31  5-MIN KAEX 180515Z 15007KT 10SM CLR 17/15 A3002 0 87 300 140/07 RMK AO2 T01720150
93915KAEX AEX20161117232010011/17/16 23:20:31  5-MIN KAEX 180520Z 14007KT 10SM CLR 17/15 A3002 0 87 300 140/07 RMK AO2 T01720150
93915KAEX AEX20161117232510011/17/16 23:25:31  5-MIN KAEX 180525Z 14007KT 10SM CLR 17/15 A3002 0 87 300 140/07 RMK AO2 T01720150
93915KAEX AEX20161117233010011/17/16 23:30:31  5-MIN KAEX 180530Z 14007KT 10SM CLR 17/15 A3002 0 87 300 140/07 RMK AO2 T01720150
93915KAEX AEX20161117233510011/17/16 23:35:31  5-MIN KAEX 180535Z 14007KT 10SM CLR 17/15 A3002 0 90 200 140/07 RMK AO2 T01670150
93915KAEX AEX20161117234010011/17/16 23:40:31  5-MIN KAEX 180540Z 15007KT 10SM CLR 17/15 A3003 0 87 300 140/07 RMK AO2 T01720150
93915KAEX AEX20161117234510011/17/16 23:45:31  5-MIN KAEX 180545Z 15007KT 10SM CLR 17/15 A3003 0 87 300 140/07 RMK AO2 T01720150
93915KAEX AEX20161117235013511/17/16 23:50:31  5-MIN KAEX 180550Z 14008KT 10SM CLR 17/15 A3002 0 87 300 140/08 RMK AO2 SLP170 T01720150 10222 20167 402780100 51013
93915KAEX AEX20161117235510311/17/16 23:55:31  5-MIN KAEX 180555Z 15006KT 10SM FEW041 17/16 A3003 0 90 300 140/06 RMK AO2 T01720156
93915KAEX AEX20161118000010311/18/16 00:00:31  5-MIN KAEX 180600Z 15007KT 10SM SCT041 17/16 A3003 0 90 300 140/07 RMK AO2 T01720156
93915KAEX AEX20161118000510311/18/16 00:05:31  5-MIN KAEX 180605Z 14006KT 10SM SCT041 17/16 A3003 0 90 300 140/06 RMK AO2 T01720156
93915KAEX AEX20161118001010311/18/16 00:10:31  5-MIN KAEX 180610Z 14006KT 10SM SCT041 17/16 A3003 0 90 300 140/06 RMK AO2 T01720156
93915KAEX AEX20161118001510311/18/16 00:15:31  5-MIN KAEX 180615Z 14007KT 10SM SCT041 17/15 A3003 0 90 200 140/07 RMK AO2 T01670150
93915KAEX AEX20161118002010311/18/16 00:20:31  5-MIN KAEX 180620Z 14008KT 10SM SCT041 17/15 A3002 0 90 200 130/08 RMK AO2 T01670150
93915KAEX AEX20161118002510311/18/16 00:25:31  5-MIN KAEX 180625Z 13007KT 10SM SCT041 17/15 A3002 0 90 200 130/07 RMK AO2 T01670150
93915KAEX AEX20161118003010311/18/16 00:30:31  5-MIN KAEX 180630Z 13007KT 10SM FEW041 17/15 A3002 0 90 200 130/07 RMK AO2 T01670150
93915KAEX AEX20161118003510311/18/16 00:35:31  5-MIN KAEX 180635Z 14007KT 10SM FEW041 17/15 A3003 0 90 200 130/07 RMK AO2 T01670150
93915KAEX AEX20161118004010311/18/16 00:40:31  5-MIN KAEX 180640Z 13007KT 10SM FEW041 16/15 A3003 0 93 200 130/07 RMK AO2 T01610150
93915KAEX AEX20161118004510511/18/16 00:45:31  5-MIN KAEX 180645Z AUTO 13008KT 10SM CLR 16/15 A3002 0 93 200 130/08 RMK AO2 T01610150
93915KAEX AEX20161118005011211/18/16 00:50:31  5-MIN KAEX 180650Z AUTO 13008KT 10SM CLR 16/15 A3002 0 93 200 130/08 RMK AO2 SLP170 T01610150
93915KAEX AEX20161118005510511/18/16 00:55:31  5-MIN KAEX 180655Z AUTO 13008KT 10SM CLR 16/15 A3002 0 93 200 130/08 RMK AO2 T01610150
93915KAEX AEX20161118010010511/18/16 01:00:31  5-MIN KAEX 180700Z AUTO 13008KT 10SM CLR 16/15 A3002 0 93 200 130/08 RMK AO2 T01610150
93915KAEX AEX20161118010510511/18/16 01:05:31  5-MIN KAEX 180705Z AUTO 13008KT 10SM CLR 17/15 A3002 0 90 200 130/08 RMK AO2 T01670150
93915KAEX AEX20161118011010511/18/16 01:10:31  5-MIN KAEX 180710Z AUTO 13007KT 10SM CLR 16/15 A3002 0 93 200 130/07 RMK AO2 T01610150
93915KAEX AEX20161118011510411/18/16 01:15:31  5-MIN KAEX 180715Z AUTO 14008KT 9SM CLR 16/15 A3002 0 93 200 140/08 RMK AO2 T01610150
93915KAEX AEX20161118012010411/18/16 01:20:31  5-MIN KAEX 180720Z AUTO 14008KT 9SM CLR 16/15 A3002 0 96 100 140/08 RMK AO2 T01560150
93915KAEX AEX20161118012510411/18/16 01:25:31  5-MIN KAEX 180725Z AUTO 14008KT 9SM CLR 16/15 A3002 0 96 100 140/08 RMK AO2 T01560150
93915KAEX AEX20161118013010411/18/16 01:30:31  5-MIN KAEX 180730Z AUTO 14008KT 9SM CLR 16/15 A3002 0 93 200 130/08 RMK AO2 T01610150
93915KAEX AEX20161118013510411/18/16 01:35:31  5-MIN KAEX 180735Z AUTO 13008KT 9SM CLR 16/15 A3002 0 93 200 130/08 RMK AO2 T01610150
93915KAEX AEX20161118014010411/18/16 01:40:31  5-MIN KAEX 180740Z AUTO 13009KT 9SM CLR 16/15 A3002 0 93 200 130/09 RMK AO2 T01610150
93915KAEX AEX20161118014510411/18/16 01:45:31  5-MIN KAEX 180745Z AUTO 13008KT 9SM CLR 17/16 A3002 0 93 200 130/08 RMK AO2 T01670156
93915KAEX AEX20161118015011111/18/16 01:50:31  5-MIN KAEX 180750Z AUTO 14008KT 9SM CLR 16/16 A3002 0 96 200 140/08 RMK AO2 SLP169 T01610156
93915KAEX AEX20161118015510411/18/16 01:55:31  5-MIN KAEX 180755Z AUTO 14008KT 9SM CLR 16/15 A3002 0 93 200 140/08 RMK AO2 T01610150
93915KAEX AEX20161118020010411/18/16 02:00:31  5-MIN KAEX 180800Z AUTO 14008KT 9SM CLR 16/15 A3002 0 93 200 140/08 RMK AO2 T01610150
93915KAEX AEX20161118020510411/18/16 02:05:31  5-MIN KAEX 180805Z AUTO 13008KT 9SM CLR 16/15 A3002 0 93 200 130/08 RMK AO2 T01610150
93915KAEX AEX20161118021010411/18/16 02:10:31  5-MIN KAEX 180810Z AUTO 14007KT 8SM CLR 16/15 A3002 0 96 100 140/07 RMK AO2 T01560150
93915KAEX AEX20161118021510411/18/16 02:15:31  5-MIN KAEX 180815Z AUTO 14007KT 8SM CLR 16/15 A3002 0 96 100 140/07 RMK AO2 T01560150
93915KAEX AEX20161118022010411/18/16 02:20:31  5-MIN KAEX 180820Z AUTO 14007KT 8SM CLR 16/15 A3002 0 96 100 140/07 RMK AO2 T01560150
93915KAEX AEX20161118022510411/18/16 02:25:31  5-MIN KAEX 180825Z AUTO 14007KT 8SM CLR 16/15 A3002 0 96 100 140/07 RMK AO2 T01560150
93915KAEX AEX20161118023010411/18/16 02:30:31  5-MIN KAEX 180830Z AUTO 14007KT 8SM CLR 16/15 A3002 0 96 100 140/07 RMK AO2 T01560150
93915KAEX AEX20161118023510411/18/16 02:35:31  5-MIN KAEX 180835Z AUTO 14007KT 8SM CLR 16/15 A3002 0 96 100 140/07 RMK AO2 T01560150
93915KAEX AEX20161118024010411/18/16 02:40:31  5-MIN KAEX 180840Z AUTO 14007KT 8SM CLR 16/15 A3002 0 96 100 140/07 RMK AO2 T01560150
93915KAEX AEX20161118024510411/18/16 02:45:31  5-MIN KAEX 180845Z AUTO 14007KT 8SM CLR 16/15 A3002 0 96 100 140/07 RMK AO2 T01560150
93915KAEX AEX20161118025011711/18/16 02:50:31  5-MIN KAEX 180850Z AUTO 14007KT 8SM CLR 16/15 A3002 0 96 100 140/07 RMK AO2 SLP169 T01560150 51009
93915KAEX AEX20161118025510411/18/16 02:55:31  5-MIN KAEX 180855Z AUTO 14007KT 8SM CLR 16/15 A3002 0 96 100 140/07 RMK AO2 T01560150
93915KAEX AEX20161118030010411/18/16 03:00:31  5-MIN KAEX 180900Z AUTO 14007KT 8SM CLR 16/15 A3002 0 96 100 140/07 RMK AO2 T01560150
93915KAEX AEX20161118030510411/18/16 03:05:31  5-MIN KAEX 180905Z AUTO 14007KT 8SM CLR 16/15 A3002 0 96 100 140/07 RMK AO2 T01560150
93915KAEX AEX20161118031010411/18/16 03:10:31  5-MIN KAEX 180910Z AUTO 14007KT 8SM CLR 16/15 A3002 0 96 100 140/07 RMK AO2 T01560150
93915KAEX AEX20161118031510411/18/16 03:15:31  5-MIN KAEX 180915Z AUTO 14008KT 8SM CLR 16/15 A3002 0 96 100 140/08 RMK AO2 T01560150
93915KAEX AEX20161118032010411/18/16 03:20:31  5-MIN KAEX 180920Z AUTO 14008KT 8SM CLR 16/15 A3002 0 96 100 130/08 RMK AO2 T01560150
93915KAEX AEX20161118032510411/18/16 03:25:31  5-MIN KAEX 180925Z AUTO 13008KT 8SM CLR 16/15 A3002 0 96 100 130/08 RMK AO2 T01560150
93915KAEX AEX20161118033010411/18/16 03:30:31  5-MIN KAEX 180930Z AUTO 13007KT 8SM CLR 16/15 A3002 0 96 100 130/07 RMK AO2 T01560150
93915KAEX AEX20161118033510411/18/16 03:35:31  5-MIN KAEX 180935Z AUTO 13007KT 7SM CLR 16/15 A3002 0 96 100 130/07 RMK AO2 T01560150
93915KAEX AEX20161118034010411/18/16 03:40:31  5-MIN KAEX 180940Z AUTO 13008KT 7SM CLR 16/15 A3002 0 96 100 130/08 RMK AO2 T01560150
93915KAEX AEX20161118034510411/18/16 03:45:31  5-MIN KAEX 180945Z AUTO 13007KT 8SM CLR 16/15 A3002 0 96 100 130/07 RMK AO2 T01560150
93915KAEX AEX20161118035011111/18/16 03:50:31  5-MIN KAEX 180950Z AUTO 13007KT 8SM CLR 16/15 A3002 0 96 100 130/07 RMK AO2 SLP168 T01560150
93915KAEX AEX20161118035510411/18/16 03:55:31  5-MIN KAEX 180955Z AUTO 13007KT 8SM CLR 16/15 A3002 0 96 100 130/07 RMK AO2 T01560150
93915KAEX AEX20161118040010411/18/16 04:00:31  5-MIN KAEX 181000Z AUTO 14007KT 8SM CLR 16/15 A3002 0 96 100 130/07 RMK AO2 T01560150
93915KAEX AEX20161118040510211/18/16 04:05:31  5-MIN KAEX 181005Z AUTO 14007KT 7SM CLR 15/14 A3002 0 96 0 130/07 RMK AO2 T01500144
93915KAEX AEX20161118041010211/18/16 04:10:31  5-MIN KAEX 181010Z AUTO 14007KT 7SM CLR 15/14 A3002 0 96 0 140/07 RMK AO2 T01500144
93915KAEX AEX20161118041510211/18/16 04:15:31  5-MIN KAEX 181015Z AUTO 14007KT 7SM CLR 15/14 A3002 0 96 0 140/07 RMK AO2 T01500144
93915KAEX AEX20161118042010311/18/16 04:20:31  5-MIN KAEX 181020Z AUTO 14008KT 7SM CLR 15/15 A3002 0 100 0 140/08 RMK AO2 T01500150
93915KAEX AEX20161118042510311/18/16 04:25:31  5-MIN KAEX 181025Z AUTO 14008KT 7SM CLR 15/15 A3002 0 100 0 140/08 RMK AO2 T01500150
93915KAEX AEX20161118043010311/18/16 04:30:31  5-MIN KAEX 181030Z AUTO 14008KT 7SM CLR 15/15 A3002 0 100 0 140/08 RMK AO2 T01500150
93915KAEX AEX20161118043510311/18/16 04:35:31  5-MIN KAEX 181035Z AUTO 14008KT 7SM CLR 15/15 A3002 0 100 0 140/08 RMK AO2 T01500150
93915KAEX AEX20161118144511211/18/16 14:45:31  5-MIN KAEX 182045Z 17010KT 10SM FEW060 BKN070 28/17 A3001 10 50 1500 170/10 RMK AO2 T02780167
93915KAEX AEX20161118145013111/18/16 14:50:31  5-MIN KAEX 182050Z 18012G19KT 10SM FEW060 SCT070 28/17 A3001 10 50 1500 180/12G19 RMK AO2 SLP166 T02780167 58007
93915KAEX AEX20161118145512411/18/16 14:55:31  5-MIN KAEX 182055Z 20012G19KT 10SM FEW042 FEW060 SCT070 28/17 A3002 0 50 1500 190/12G19 RMK AO2 T02780167
93915KAEX AEX20161118150011111/18/16 15:00:31  5-MIN KAEX 182100Z 21010KT 10SM FEW044 SCT070 28/17 A3001 0 50 1500 210/10 RMK AO2 T02780167
93915KAEX AEX20161118150511111/18/16 15:05:31  5-MIN KAEX 182105Z 19009KT 10SM SCT044 SCT070 27/17 A3002 0 52 1500 190/09 RMK AO2 T02720167
93915KAEX AEX20161118151010411/18/16 15:10:31  5-MIN KAEX 182110Z 22010KT 10SM BKN042 28/17 A3002 0 50 1500 220/10 RMK AO2 T02780167
93915KAEX AEX20161118151511111/18/16 15:15:31  5-MIN KAEX 182115Z 20011KT 10SM BKN042 BKN070 27/17 A3002 0 52 1400 200/11 RMK AO2 T02720167
93915KAEX AEX20161118152011811/18/16 15:20:31  5-MIN KAEX 182120Z 20009KT 10SM FEW043 SCT049 BKN070 27/17 A3002 0 52 1400 200/09 RMK AO2 T02720167
93915KAEX AEX20161118152513511/18/16 15:25:31  5-MIN KAEX 182125Z 21013G17KT 10SM SCT043 BKN070 BKN085 27/17 A3003 0 52 1400 210/13G17 RMK AO2 LTG DSNT W T02720167
93915KAEX AEX20161118153013711/18/16 15:30:31  5-MIN KAEX 182130Z 22010G17KT 10SM SCT043 BKN065 OVC085 27/17 A3003 -10 53 1400 210/10G17 RMK AO2 LTG DSNT W T02670167
93915KAEX AEX20161118154011911/18/16 15:40:31  5-MIN KAEX 182140Z AUTO 20007KT 27/17 A3003 -10 53 1400 200/07 RMK AO2 LTG DSNT W AND NW T02670167 $
93915KAEX AEX20161118154512411/18/16 15:45:31  5-MIN KAEX 182145Z AUTO 20009KT 10SM 27/17 A3003 -10 55 1400 200/09 RMK AO2 LTG DSNT W AND NW T02670172 $
93915KAEX AEX20161118155013111/18/16 15:50:31  5-MIN KAEX 182150Z AUTO 21009KT 10SM 27/17 A3003 -10 55 1400 210/09 RMK AO2 LTG DSNT W AND NW SLP173 T02670172 $
93915KAEX AEX20161118155512411/18/16 15:55:31  5-MIN KAEX 182155Z AUTO 20008KT 10SM 26/17 A3003 -10 57 1300 200/08 RMK AO2 LTG DSNT W AND NW T02610172 $
93915KAEX AEX20161118160012411/18/16 16:00:31  5-MIN KAEX 182200Z AUTO 20008KT 10SM 26/17 A3003 -10 57 1300 200/08 RMK AO2 LTG DSNT W AND NW T02610172 $
93915KAEX AEX20161118160512411/18/16 16:05:31  5-MIN KAEX 182205Z AUTO 21008KT 10SM 26/17 A3004 -10 57 1300 210/08 RMK AO2 LTG DSNT W AND NW T02610172 $
93915KAEX AEX20161118161014511/18/16 16:10:31  5-MIN KAEX 182210Z AUTO 20009KT 10SM SCT055 BKN090 BKN110 26/17 A3004 -10 57 1300 200/09 RMK AO2 LTG DSNT W AND NW T02610172 $
93915KAEX AEX20161118161514311/18/16 16:15:31  5-MIN KAEX 182215Z AUTO 20007KT 10SM SCT055 BKN075 BKN100 26/17 A3004 -10 55 1300 200/07 RMK AO2 LTG DSNT W AND NW T02610167
93915KAEX AEX20161118162014311/18/16 16:20:31  5-MIN KAEX 182220Z AUTO 22006KT 10SM SCT060 BKN075 BKN100 26/17 A3004 -10 57 1300 210/06 RMK AO2 LTG DSNT W AND NW T02610172
93915KAEX AEX20161118162513811/18/16 16:25:31  5-MIN KAEX 182225Z AUTO 20006KT 10SM SCT055 BKN070 OVC095 26/17 A3004 -10 57 1300 200/06 RMK AO2 LTG DSNT W-N T02610172
93915KAEX AEX20161118163013111/18/16 16:30:31  5-MIN KAEX 182230Z AUTO 22005KT 10SM BKN055 OVC070 26/17 A3004 -20 57 1300 220/05 RMK AO2 LTG DSNT W-N T02610172
93915KAEX AEX20161118163513111/18/16 16:35:31  5-MIN KAEX 182235Z AUTO 22004KT 10SM BKN050 OVC070 26/17 A3004 -10 57 1300 220/04 RMK AO2 LTG DSNT W-N T02610172
93915KAEX AEX20161118164013111/18/16 16:40:31  5-MIN KAEX 182240Z AUTO 22004KT 10SM BKN050 OVC070 26/17 A3004 -10 59 1200 210/04 RMK AO2 LTG DSNT W-N T02560172
93915KAEX AEX20161118164514711/18/16 16:45:31  5-MIN KAEX 182245Z AUTO 24004KT 10SM VCTS FEW045 BKN055 OVC075 26/17 A3004 -20 59 1200 230/04 RMK AO2 LTG DSNT N AND W T02560172
93915KAEX AEX20161118165014311/18/16 16:50:31  5-MIN KAEX 182250Z AUTO 27005KT 10SM VCTS SCT043 OVC055 26/17 A3004 -20 59 1200 270/05 RMK AO2 LTG DSNT W-N SLP175 T02560172
93915KAEX AEX20161118165513611/18/16 16:55:31  5-MIN KAEX 182255Z AUTO 33008KT 10SM VCTS BKN043 OVC055 26/17 A3005 -20 59 1200 330/08 RMK AO2 LTG DSNT W-N T02560172
93915KAEX AEX20161118170013111/18/16 17:00:31  5-MIN KAEX 182300Z AUTO 31008KT 10SM BKN041 OVC050 24/16 A3005 -20 57 1100 310/08 RMK AO2 LTG DSNT W-N T02440156
93915KAEX AEX20161118170515011/18/16 17:05:31  5-MIN KAEX 182305Z AUTO 30006KT 10SM VCTS -RA BKN041 OVC055 24/16 A3004 -20 57 1100 300/06 RMK AO2 LTG DSNT W RAB05 P0000 T02440156
93915KAEX AEX20161118171015411/18/16 17:10:31  5-MIN KAEX 182310Z AUTO 33009KT 10SM VCTS -RA BKN041 OVC049 23/16 A3004 -20 63 1000 330/09 RMK AO2 LTG DSNT SW-NW RAB05 P0000 T02330161
93915KAEX AEX20161118171516011/18/16 17:15:31  5-MIN KAEX 182315Z AUTO 36007KT 10SM VCTS -RA BKN041 BKN049 OVC065 22/16 A3005 -20 68 800 360/07 RMK AO2 LTG DSNT SW-NW RAB05 P0000 T02220161
93915KAEX AEX20161118172016011/18/16 17:20:31  5-MIN KAEX 182320Z AUTO 34011KT 10SM VCTS -RA BKN041 BKN047 OVC070 22/16 A3006 -30 70 800 340/11 RMK AO2 LTG DSNT SW-NW RAB05 P0000 T02170161
93915KAEX AEX20161118172519011/18/16 17:25:31  5-MIN KAEX 182325Z AUTO 32020G26KT 10SM VCTS -RA BKN039 BKN047 OVC075 21/17 A3007 -40 78 600 310/20G26 RMK AO2 PK WND 32026/2324 LTG DSNT SW-N RAB05 PRESRR P0000 T02060167
93915KAEX AEX20161118173019311/18/16 17:30:31  5-MIN KAEX 182330Z AUTO 31025G30KT 10SM -TSRA FEW014 BKN041 OVC060 20/17 A3010 -70 84 500 310/25G30 RMK AO2 PK WND 31030/2330 LTG DSNT SW-N RAB05 TSB30 PRESRR P0000 T02000172
93915KAEX AEX20161118173519011/18/16 17:35:31  5-MIN KAEX 182335Z 31031G37KT 6SM -TSRA BR SCT014 BKN041 OVC060 19/17 A3011 -80 87 400 300/31G37 RMK AO2 PK WND 30037/2334 LTG DSNT SW-N RAB05 TSB30 PRESRR P0002 T01890167
93915KAEX AEX20161118174018311/18/16 17:40:31  5-MIN KAEX 182340Z 34025G37KT 1SM +TSRA BR SCT016 BKN030 OVC050 17/16 A3010 -70 93 200 340/25G37 RMK AO2 PK WND 30037/2334 LTG DSNT SW-N RAB05 TSB30 P0022 T01720161
93915KAEX AEX20161118174518511/18/16 17:45:31  5-MIN KAEX 182345Z 31017G32KT 3/4SM +TSRA BR FEW012 BKN021 OVC041 17/17 A3011 -80 96 200 310/17G32 RMK AO2 PK WND 30037/2334 LTG DSNT SW-N RAB05 TSB30 P0033 T01720167
93915KAEX AEX20161118175017711/18/16 17:50:31  5-MIN KAEX 182350Z 32022G30KT 1 1/4SM +TSRA BR FEW008 BKN025 OVC039 17/16 A3011 -80 93 100 320/22G30 RMK AO2 PK WND 30037/2334 LTG DSNT SW-N RAB05 TSB30 P0036
93915KAEX AEX20161118175515411/18/16 17:55:31  5-MIN KAEX 182355Z 32020G30KT 3SM +TSRA BR SCT011 BKN028 OVC110 16/15 A3011 -70 93 100 320/20G30 RMK AO2 LTG DSNT ALQDS P0000 T01610150
93915KAEX AEX20161118180015111/18/16 18:00:31  5-MIN KAEX 190000Z 32019G25KT 5SM TSRA BR FEW011 BKN028 OVC120 16/15 A3012 -90 96 0 310/19G25 RMK AO2 LTG DSNT ALQDS P0000 T01560150
93915KAEX AEX20161118180517511/18/16 18:05:31  5-MIN KAEX 190005Z 32018G26KT 7SM -TSRA FEW007 BKN024 OVC120 15/14 A3014 -100 96 0 310/18G26 RMK AO2 PK WND 31026/0004 LTG DSNT ALQDS PRESRR P0000 T01500144
93915KAEX AEX20161118181017811/18/16 18:10:31  5-MIN KAEX 190010Z 33011G26KT 9SM -TSRA FEW007 BKN049 OVC100 15/14 A3015 -110 93 -100 330/11G26 RMK AO2 PK WND 31026/0004 LTG DSNT ALQDS PRESRR P0000 T01500139
93915KAEX AEX20161118181518211/18/16 18:15:31  5-MIN KAEX 190015Z 31012KT 10SM VCTS -RA FEW017 BKN047 OVC100 15/14 A3016 -120 96 -100 310/12 RMK AO2 PK WND 31026/0004 LTG DSNT ALQDS TSE11 PRESRR P0000 T01500144
93915KAEX AEX20161118182017511/18/16 18:20:31  5-MIN KAEX 190020Z 32012KT 10SM VCTS -RA FEW023 BKN043 OVC110 15/14 A3016 -130 93 -100 320/12 RMK AO2 PK WND 31026/0004 LTG DSNT ALQDS TSE11 P0000 T01500139
93915KAEX AEX20161118182517611/18/16 18:25:31  5-MIN KAEX 190025Z 31011KT 10SM VCTS FEW023 SCT040 BKN049 15/14 A3017 -130 93 -100 310/11 RMK AO2 PK WND 31026/0004 LTG DSNT NE-S RAE25 TSE11 P0000 T01500139
93915KAEX AEX20161118183018311/18/16 18:30:31  5-MIN KAEX 190030Z 31010KT 10SM VCTS FEW027 BKN040 BKN049 15/14 A3017 -140 93 -100 310/10 RMK AO2 PK WND 31026/0004 LTG DSNT NE-S RAE25 TSE11 PRESRR P0000 T01500139
93915KAEX AEX20161118183517011/18/16 18:35:31  5-MIN KAEX 190035Z 31011KT 10SM BKN036 BKN049 BKN060 15/14 A3017 -140 93 -100 310/11 RMK AO2 PK WND 31026/0004 LTG DSNT E-S RAE25 TSE11 P0000 T01500139
93915KAEX AEX20161118184017011/18/16 18:40:31  5-MIN KAEX 190040Z 32012KT 10SM FEW014 BKN039 OVC055 14/13 A3018 -140 93 -200 310/12 RMK AO2 PK WND 31026/0004 LTG DSNT E-S RAE25 TSE11 P0000 T01440133
93915KAEX AEX20161118184517511/18/16 18:45:31  5-MIN KAEX 190045Z 31012KT 10SM FEW014 BKN035 BKN047 14/13 A3018 -150 93 -200 310/12 RMK AO2 PK WND 31026/0004 LTG DSNT E AND SE RAE25 TSE11 P0000 T01440133
93915KAEX AEX20161118185018211/18/16 18:50:31  5-MIN KAEX 190050Z 31012KT 10SM FEW014 BKN035 BKN048 14/13 A3019 -150 93 -200 310/12 RMK AO2 PK WND 31026/0004 LTG DSNT E AND SE RAE25 TSE11 SLP227 P0001 T01440133
93915KAEX AEX20161118185513211/18/16 18:55:31  5-MIN KAEX 190055Z 32009KT 10SM FEW014 BKN035 OVC048 14/13 A3019 -150 93 -200 320/09 RMK AO2 LTG DSNT S T01440133
93915KAEX AEX20161118190013811/18/16 19:00:31  5-MIN KAEX 190100Z 34010G16KT 10SM FEW014 BKN033 OVC048 14/13 A3019 -150 93 -200 330/10G16 RMK AO2 LTG DSNT S T01440133
93915KAEX AEX20161118190513811/18/16 19:05:31  5-MIN KAEX 190105Z 33017G23KT 10SM FEW014 BKN033 OVC046 14/12 A3020 -160 86 -200 330/17G23 RMK AO2 LTG DSNT S T01440122
93915KAEX AEX20161118191013111/18/16 19:10:31  5-MIN KAEX 190110Z 34013G23KT 10SM SCT033 OVC046 14/11 A3020 -160 80 -200 340/13G23 RMK AO2 LTG DSNT S T01440111
93915KAEX AEX20161118191512511/18/16 19:15:31  5-MIN KAEX 190115Z 33012KT 10SM SCT034 OVC046 14/11 A3020 -160 83 -300 330/12 RMK AO2 LTG DSNT S T01390111
93915KAEX AEX20161118192011411/18/16 19:20:31  5-MIN KAEX 190120Z 33013KT 10SM FEW034 OVC045 14/11 A3020 -170 83 -300 330/13 RMK AO2 T01390111
93915KAEX AEX20161118192511811/18/16 19:25:31  5-MIN KAEX 190125Z 33011KT 10SM OVC045 14/11 A3021 -170 83 -300 330/11 RMK AO2 LTG DSNT S T01390111
93915KAEX AEX20161118193011811/18/16 19:30:31  5-MIN KAEX 190130Z 34009KT 10SM OVC047 14/11 A3020 -160 83 -300 330/09 RMK AO2 LTG DSNT S T01390111
93915KAEX AEX20161118193511811/18/16 19:35:31  5-MIN KAEX 190135Z 33009KT 10SM OVC047 14/11 A3021 -170 83 -300 330/09 RMK AO2 LTG DSNT S T01390111
93915KAEX AEX20161118194010711/18/16 19:40:31  5-MIN KAEX 190140Z 33010KT 10SM OVC048 14/11 A3021 -170 83 -300 330/10 RMK AO2 T01390111
93915KAEX AEX20161118194510711/18/16 19:45:31  5-MIN KAEX 190145Z 33011KT 10SM OVC050 13/11 A3022 -180 86 -300 330/11 RMK AO2 T01330111
93915KAEX AEX20161118195011411/18/16 19:50:31  5-MIN KAEX 190150Z 34011KT 10SM OVC050 13/11 A3022 -180 86 -300 330/11 RMK AO2 SLP236 T01330111
93915KAEX AEX20161118195511311/18/16 19:55:31  5-MIN KAEX 190155Z 32009G18KT 10SM OVC055 13/11 A3022 -180 86 -300 320/09G18 RMK AO2 T01330111
93915KAEX AEX20161118200011411/18/16 20:00:31  5-MIN KAEX 190200Z 32010KT 10SM SCT050 OVC060 13/11 A3022 -180 86 -300 320/10 RMK AO2 T01330111
93915KAEX AEX20161118200511411/18/16 20:05:31  5-MIN KAEX 190205Z 33007KT 10SM BKN055 OVC100 13/11 A3022 -180 86 -300 330/07 RMK AO2 T01330111
93915KAEX AEX20161118201011411/18/16 20:10:31  5-MIN KAEX 190210Z 33008KT 10SM BKN055 OVC100 13/11 A3022 -180 86 -300 330/08 RMK AO2 T01330111
93915KAEX AEX20161118201511411/18/16 20:15:31  5-MIN KAEX 190215Z 32007KT 10SM SCT060 OVC100 13/11 A3023 -190 86 -300 320/07 RMK AO2 T01330111
93915KAEX AEX20161118202011411/18/16 20:20:31  5-MIN KAEX 190220Z 32008KT 10SM SCT060 OVC100 13/11 A3023 -190 86 -400 320/08 RMK AO2 T01330111
93915KAEX AEX20161118202511411/18/16 20:25:31  5-MIN KAEX 190225Z 32008KT 10SM FEW060 OVC100 13/11 A3023 -190 86 -400 320/08 RMK AO2 T01330111
93915KAEX AEX20161118203012111/18/16 20:30:31  5-MIN KAEX 190230Z 32007KT 10SM FEW065 SCT080 OVC100 13/11 A3024 -200 86 -400 320/07 RMK AO2 T01330111
93915KAEX AEX20161118203512111/18/16 20:35:31  5-MIN KAEX 190235Z 32008KT 10SM SCT065 BKN080 OVC100 13/11 A3024 -200 86 -400 320/08 RMK AO2 T01330111
93915KAEX AEX20161118204012111/18/16 20:40:31  5-MIN KAEX 190240Z 33008KT 10SM SCT065 BKN080 OVC100 13/11 A3024 -200 86 -400 320/08 RMK AO2 T01330111
93915KAEX AEX20161118204512111/18/16 20:45:31  5-MIN KAEX 190245Z 32008KT 10SM SCT065 BKN080 OVC100 13/11 A3024 -200 86 -400 310/08 RMK AO2 T01330111
93915KAEX AEX20161118205013311/18/16 20:50:31  5-MIN KAEX 190250Z 33008KT 10SM BKN070 OVC100 13/11 A3024 -200 86 -400 320/08 RMK AO2 SLP245 60001 T01330111 53023
93915KAEX AEX20161118205511411/18/16 20:55:31  5-MIN KAEX 190255Z 32008KT 10SM BKN070 OVC100 13/11 A3025 -210 86 -400 320/08 RMK AO2 T01330111
93915KAEX AEX20161118210011411/18/16 21:00:31  5-MIN KAEX 190300Z 31008KT 10SM BKN070 OVC100 13/12 A3026 -210 89 -400 310/08 RMK AO2 T01330117
93915KAEX AEX20161118210510711/18/16 21:05:31  5-MIN KAEX 190305Z 31008KT 10SM OVC070 13/12 A3026 -220 89 -400 310/08 RMK AO2 T01330117
93915KAEX AEX20161118211010711/18/16 21:10:31  5-MIN KAEX 190310Z 32006KT 10SM OVC070 13/12 A3026 -220 89 -400 320/06 RMK AO2 T01330117
93915KAEX AEX20161118211510711/18/16 21:15:31  5-MIN KAEX 190315Z 32006KT 10SM OVC070 13/12 A3026 -220 89 -400 310/06 RMK AO2 T01330117
93915KAEX AEX20161118212010711/18/16 21:20:31  5-MIN KAEX 190320Z 33008KT 10SM OVC070 13/12 A3027 -230 89 -400 320/08 RMK AO2 T01330117
93915KAEX AEX20161118212510711/18/16 21:25:31  5-MIN KAEX 190325Z 32008KT 10SM OVC070 13/12 A3027 -230 89 -400 320/08 RMK AO2 T01330117
93915KAEX AEX20161118213010711/18/16 21:30:31  5-MIN KAEX 190330Z 32006KT 10SM OVC070 13/12 A3028 -230 89 -400 320/06 RMK AO2 T01330117
93915KAEX AEX20161118213510711/18/16 21:35:31  5-MIN KAEX 190335Z 32006KT 10SM OVC070 13/12 A3028 -240 89 -400 320/06 RMK AO2 T01330117
93915KAEX AEX20161118214010711/18/16 21:40:31  5-MIN KAEX 190340Z 33006KT 10SM OVC070 14/12 A3029 -240 86 -300 320/06 RMK AO2 T01390117
93915KAEX AEX20161118214510711/18/16 21:45:31  5-MIN KAEX 190345Z 32004KT 10SM OVC070 14/12 A3029 -240 86 -300 310/04 RMK AO2 T01390117
93915KAEX AEX20161118215011411/18/16 21:50:31  5-MIN KAEX 190350Z 32004KT 10SM OVC070 14/12 A3029 -240 86 -300 320/04 RMK AO2 SLP261 T01390117
93915KAEX AEX20161118215511411/18/16 21:55:31  5-MIN KAEX 190355Z 31005KT 10SM BKN070 OVC095 14/12 A3029 -250 90 -400 310/05 RMK AO2 T01390122
93915KAEX AEX20161118220011411/18/16 22:00:31  5-MIN KAEX 190400Z 35004KT 10SM BKN070 OVC090 14/12 A3030 -250 86 -400 340/04 RMK AO2 T01390117
93915KAEX AEX20161118220511411/18/16 22:05:31  5-MIN KAEX 190405Z 32008KT 10SM SCT070 OVC090 14/12 A3030 -250 86 -400 320/08 RMK AO2 T01390117
93915KAEX AEX20161118221011411/18/16 22:10:31  5-MIN KAEX 190410Z 32006KT 10SM BKN070 OVC090 14/12 A3030 -250 86 -400 320/06 RMK AO2 T01390117
93915KAEX AEX20161118221511411/18/16 22:15:31  5-MIN KAEX 190415Z 33009KT 10SM BKN075 OVC090 14/12 A3030 -250 86 -400 320/09 RMK AO2 T01390117
93915KAEX AEX20161118222011411/18/16 22:20:31  5-MIN KAEX 190420Z 33009KT 10SM SCT080 OVC095 14/11 A3030 -250 83 -400 330/09 RMK AO2 T01390111
93915KAEX AEX20161118222511411/18/16 22:25:31  5-MIN KAEX 190425Z 33012KT 10SM BKN080 OVC095 13/11 A3030 -250 83 -400 330/12 RMK AO2 T01330106
93915KAEX AEX20161118223011411/18/16 22:30:31  5-MIN KAEX 190430Z 34010KT 10SM BKN080 OVC095 13/11 A3030 -250 83 -400 330/10 RMK AO2 T01330106
93915KAEX AEX20161118223511411/18/16 22:35:31  5-MIN KAEX 190435Z 33011KT 10SM SCT080 BKN095 13/10 A3030 -250 80 -400 320/11 RMK AO2 T01330100
93915KAEX AEX20161118224011411/18/16 22:40:31  5-MIN KAEX 190440Z 33009KT 10SM BKN090 BKN110 13/10 A3030 -260 80 -400 330/09 RMK AO2 T01330100
93915KAEX AEX20161118224511411/18/16 22:45:31  5-MIN KAEX 190445Z 33010KT 10SM SCT090 BKN110 13/10 A3030 -260 83 -500 330/10 RMK AO2 T01280100
93915KAEX AEX20161118225012111/18/16 22:50:31  5-MIN KAEX 190450Z 33011KT 10SM FEW085 BKN110 13/10 A3031 -260 83 -500 320/11 RMK AO2 SLP266 T01280100
93915KAEX AEX20161118225510711/18/16 22:55:31  5-MIN KAEX 190455Z 32012KT 10SM SCT100 13/09 A3031 -260 80 -500 320/12 RMK AO2 T01280094
93915KAEX AEX20161118230010711/18/16 23:00:31  5-MIN KAEX 190500Z 33011KT 10SM FEW110 12/09 A3031 -260 80 -600 330/11 RMK AO2 T01220089
93915KAEX AEX20161118230510711/18/16 23:05:31  5-MIN KAEX 190505Z 33012KT 10SM FEW110 12/09 A3031 -260 80 -600 330/12 RMK AO2 T01220089
93915KAEX AEX20161118231010711/18/16 23:10:31  5-MIN KAEX 190510Z 34010KT 10SM FEW110 12/09 A3031 -260 80 -600 340/10 RMK AO2 T01220089
93915KAEX AEX20161118231511011/18/16 23:15:31  5-MIN KAEX 190515Z 34012G18KT 10SM CLR 12/08 A3031 -260 77 -600 340/12G18 RMK AO2 T01220083
93915KAEX AEX20161118232011011/18/16 23:20:31  5-MIN KAEX 190520Z 33015G22KT 10SM CLR 12/08 A3031 -260 77 -600 330/15G22 RMK AO2 T01170078
93915KAEX AEX20161118232511011/18/16 23:25:31  5-MIN KAEX 190525Z 34013G22KT 10SM CLR 12/08 A3031 -260 77 -600 340/13G22 RMK AO2 T01170078
93915KAEX AEX20161118233010411/18/16 23:30:31  5-MIN KAEX 190530Z 33013KT 10SM CLR 12/07 A3031 -260 74 -600 330/13 RMK AO2 T01170072
93915KAEX AEX20161118233510411/18/16 23:35:31  5-MIN KAEX 190535Z 33011KT 10SM CLR 12/07 A3031 -260 74 -600 330/11 RMK AO2 T01170072
93915KAEX AEX20161118234010411/18/16 23:40:31  5-MIN KAEX 190540Z 33014KT 10SM CLR 12/07 A3031 -270 74 -600 330/14 RMK AO2 T01170072
93915KAEX AEX20161118234510411/18/16 23:45:31  5-MIN KAEX 190545Z 33011KT 10SM CLR 11/07 A3032 -270 77 -700 320/11 RMK AO2 T01110072
93915KAEX AEX20161118235014511/18/16 23:50:31  5-MIN KAEX 190550Z 33011KT 10SM CLR 11/07 A3032 -270 77 -700 330/11 RMK AO2 SLP270 60001 T01110072 10161 20111 402890111 51048
93915KAEX AEX20161118235510411/18/16 23:55:31  5-MIN KAEX 190555Z 33010KT 10SM CLR 11/07 A3032 -270 77 -700 330/10 RMK AO2 T01110072
93915KAEX AEX20161119000010411/19/16 00:00:31  5-MIN KAEX 190600Z 33010KT 10SM CLR 11/07 A3032 -270 77 -700 330/10 RMK AO2 T01110072
93915KAEX AEX20161119000510411/19/16 00:05:31  5-MIN KAEX 190605Z 33009KT 10SM CLR 11/07 A3032 -270 77 -800 330/09 RMK AO2 T01060067
93915KAEX AEX20161119001010411/19/16 00:10:31  5-MIN KAEX 190610Z 34009KT 10SM CLR 11/07 A3032 -280 77 -800 340/09 RMK AO2 T01060067
93915KAEX AEX20161119001510411/19/16 00:15:31  5-MIN KAEX 190615Z 34011KT 10SM CLR 11/06 A3033 -280 74 -800 340/11 RMK AO2 T01060061
93915KAEX AEX20161119002010411/19/16 00:20:31  5-MIN KAEX 190620Z 34010KT 10SM CLR 11/06 A3033 -280 74 -800 340/10 RMK AO2 T01060061
93915KAEX AEX20161119002510411/19/16 00:25:31  5-MIN KAEX 190625Z 34011KT 10SM CLR 11/06 A3033 -280 74 -800 340/11 RMK AO2 T01060061
93915KAEX AEX20161119003010411/19/16 00:30:31  5-MIN KAEX 190630Z 34009KT 10SM CLR 11/06 A3033 -280 71 -800 340/09 RMK AO2 T01060056
93915KAEX AEX20161119003510411/19/16 00:35:31  5-MIN KAEX 190635Z 34008KT 10SM CLR 10/06 A3033 -280 74 -900 340/08 RMK AO2 T01000056
93915KAEX AEX20161119004010411/19/16 00:40:31  5-MIN KAEX 190640Z 33009KT 10SM CLR 10/06 A3033 -280 74 -900 330/09 RMK AO2 T01000056
93915KAEX AEX20161119004510411/19/16 00:45:31  5-MIN KAEX 190645Z 34009KT 10SM CLR 10/06 A3033 -280 74 -900 340/09 RMK AO2 T01000056
93915KAEX AEX20161119005011111/19/16 00:50:31  5-MIN KAEX 190650Z 34010KT 10SM CLR 10/06 A3033 -280 74 -900 330/10 RMK AO2 SLP275 T01000056
93915KAEX AEX20161119005510411/19/16 00:55:31  5-MIN KAEX 190655Z 34010KT 10SM CLR 10/06 A3033 -280 74 -900 340/10 RMK AO2 T01000056
93915KAEX AEX20161119010010411/19/16 01:00:31  5-MIN KAEX 190700Z 34009KT 10SM CLR 10/05 A3033 -280 71 -900 330/09 RMK AO2 T01000050
93915KAEX AEX20161119010510411/19/16 01:05:31  5-MIN KAEX 190705Z 34009KT 10SM CLR 10/05 A3033 -280 71 -900 340/09 RMK AO2 T01000050
93915KAEX AEX20161119011010411/19/16 01:10:31  5-MIN KAEX 190710Z 34009KT 10SM CLR 10/04 A3034 -290 68 -900 340/09 RMK AO2 T01000044
93915KAEX AEX20161119011510411/19/16 01:15:31  5-MIN KAEX 190715Z 34011KT 10SM CLR 09/05 A3034 -290 74 -900 340/11 RMK AO2 T00940050
93915KAEX AEX20161119012010411/19/16 01:20:31  5-MIN KAEX 190720Z 34009KT 10SM CLR 09/04 A3034 -290 71 -900 340/09 RMK AO2 T00940044
93915KAEX AEX20161119012510411/19/16 01:25:31  5-MIN KAEX 190725Z 34008KT 10SM CLR 09/04 A3034 -290 71 -900 340/08 RMK AO2 T00940044
93915KAEX AEX20161119013010411/19/16 01:30:31  5-MIN KAEX 190730Z 34010KT 10SM CLR 09/04 A3034 -290 71 -900 340/10 RMK AO2 T00940044
93915KAEX AEX20161119013510411/19/16 01:35:31  5-MIN KAEX 190735Z 34008KT 10SM CLR 09/04 A3035 -300 71 -900 340/08 RMK AO2 T00940044
93915KAEX AEX20161119014010511/19/16 01:40:31  5-MIN KAEX 190740Z 34009KT 10SM CLR 09/04 A3035 -300 71 -1000 340/09 RMK AO2 T00940044
93915KAEX AEX20161119014510511/19/16 01:45:31  5-MIN KAEX 190745Z 34007KT 10SM CLR 09/04 A3035 -300 73 -1000 340/07 RMK AO2 T00890044
93915KAEX AEX20161119015011211/19/16 01:50:31  5-MIN KAEX 190750Z 34009KT 10SM CLR 09/04 A3035 -300 73 -1000 340/09 RMK AO2 SLP281 T00890044
93915KAEX AEX20161119015510511/19/16 01:55:31  5-MIN KAEX 190755Z 34011KT 10SM CLR 09/04 A3035 -300 73 -1000 340/11 RMK AO2 T00890044
93915KAEX AEX20161119020010511/19/16 02:00:31  5-MIN KAEX 190800Z 34011KT 10SM CLR 09/04 A3035 -300 73 -1000 340/11 RMK AO2 T00890044
93915KAEX AEX20161119020510511/19/16 02:05:31  5-MIN KAEX 190805Z 34011KT 10SM CLR 09/04 A3035 -300 73 -1000 340/11 RMK AO2 T00890044
93915KAEX AEX20161119021010511/19/16 02:10:31  5-MIN KAEX 190810Z 34011KT 10SM CLR 09/04 A3036 -300 73 -1000 340/11 RMK AO2 T00890044
93915KAEX AEX20161119021510511/19/16 02:15:31  5-MIN KAEX 190815Z 34011KT 10SM CLR 09/04 A3036 -310 71 -1000 340/11 RMK AO2 T00890039
93915KAEX AEX20161119022010511/19/16 02:20:31  5-MIN KAEX 190820Z 34012KT 10SM CLR 09/04 A3036 -310 71 -1000 340/12 RMK AO2 T00890039
93915KAEX AEX20161119022510511/19/16 02:25:31  5-MIN KAEX 190825Z 34010KT 10SM CLR 09/04 A3036 -310 71 -1000 340/10 RMK AO2 T00890039
93915KAEX AEX20161119023010511/19/16 02:30:31  5-MIN KAEX 190830Z 34011KT 10SM CLR 09/03 A3036 -310 68 -1000 340/11 RMK AO2 T00890033
93915KAEX AEX20161119023510511/19/16 02:35:31  5-MIN KAEX 190835Z 34011KT 10SM CLR 08/03 A3037 -310 70 -1100 340/11 RMK AO2 T00830033
93915KAEX AEX20161119024010511/19/16 02:40:31  5-MIN KAEX 190840Z 34010KT 10SM CLR 08/04 A3037 -320 73 -1100 340/10 RMK AO2 T00830039
93915KAEX AEX20161119024510511/19/16 02:45:31  5-MIN KAEX 190845Z 34011KT 10SM CLR 08/04 A3037 -320 73 -1100 340/11 RMK AO2 T00830039
93915KAEX AEX20161119235014011/19/16 23:50:31  5-MIN KAEX 200550Z 00000KT 10SM CLR 03/01 A3044 -380 89 -1900 000/00 RMK AO2 SLP311 T00280011 10100 20022 401670022 51008
93915KAEX AEX20161119235510511/19/16 23:55:31  5-MIN KAEX 200555Z 00000KT 10SM CLR 03/01 A3044 -380 89 -1900 000/00 RMK AO2 T00280011
93915KAEX AEX20161120000010511/20/16 00:00:31  5-MIN KAEX 200600Z 00000KT 10SM CLR 02/01 A3044 -380 92 -1900 000/00 RMK AO2 T00220011
93915KAEX AEX20161120000510511/20/16 00:05:31  5-MIN KAEX 200605Z 00000KT 10SM CLR 02/01 A3044 -380 92 -1900 000/00 RMK AO2 T00220011
93915KAEX AEX20161120001010511/20/16 00:10:31  5-MIN KAEX 200610Z 00000KT 10SM CLR 02/01 A3044 -380 92 -1900 000/00 RMK AO2 T00220011
93915KAEX AEX20161120001510511/20/16 00:15:31  5-MIN KAEX 200615Z 00000KT 10SM CLR 02/01 A3044 -380 92 -1900 000/00 RMK AO2 T00220011
93915KAEX AEX20161120002010511/20/16 00:20:31  5-MIN KAEX 200620Z 00000KT 10SM CLR 02/01 A3044 -380 92 -1900 000/00 RMK AO2 T00220011
93915KAEX AEX20161120002510511/20/16 00:25:31  5-MIN KAEX 200625Z 00000KT 10SM CLR 02/01 A3044 -380 96 -2000 000/00 RMK AO2 T00170011
93915KAEX AEX20161120003010511/20/16 00:30:31  5-MIN KAEX 200630Z 00000KT 10SM CLR 02/01 A3043 -380 96 -2000 000/00 RMK AO2 T00170011
93915KAEX AEX20161120003510511/20/16 00:35:31  5-MIN KAEX 200635Z 00000KT 10SM CLR 02/01 A3044 -380 92 -2000 000/00 RMK AO2 T00170006
93915KAEX AEX20161120004010511/20/16 00:40:31  5-MIN KAEX 200640Z 00000KT 10SM CLR 02/01 A3044 -380 92 -2000 000/00 RMK AO2 T00170006
93915KAEX AEX20161120004510511/20/16 00:45:31  5-MIN KAEX 200645Z 00000KT 10SM CLR 02/01 A3043 -380 92 -2000 000/00 RMK AO2 T00170006
93915KAEX AEX20161120005011211/20/16 00:50:31  5-MIN KAEX 200650Z 00000KT 10SM CLR 02/01 A3043 -370 92 -2000 000/00 RMK AO2 SLP310 T00170006
93915KAEX AEX20161120005510511/20/16 00:55:31  5-MIN KAEX 200655Z 00000KT 10SM CLR 02/01 A3043 -370 92 -2000 000/00 RMK AO2 T00170006
93915KAEX AEX20161120010010511/20/16 01:00:31  5-MIN KAEX 200700Z 00000KT 10SM CLR 02/01 A3043 -380 92 -2000 000/00 RMK AO2 T00170006
93915KAEX AEX20161120010510311/20/16 01:05:31  5-MIN KAEX 200705Z AUTO 00000KT 02/00 A3043 -370 89 -2000 000/00 RMK AO2 T00170000 $
93915KAEX AEX20161120011010311/20/16 01:10:31  5-MIN KAEX 200710Z AUTO 00000KT 01/01 A3043 -370 96 -2100 000/00 RMK AO2 T00110006 $
93915KAEX AEX20161120011510811/20/16 01:15:31  5-MIN KAEX 200715Z AUTO 00000KT 10SM 02/01 A3043 -370 92 -2000 000/00 RMK AO2 T00170006 $
93915KAEX AEX20161120012010811/20/16 01:20:31  5-MIN KAEX 200720Z AUTO 00000KT 10SM 01/01 A3043 -370 96 -2100 000/00 RMK AO2 T00110006 $
93915KAEX AEX20161120012510811/20/16 01:25:31  5-MIN KAEX 200725Z AUTO 00000KT 10SM 01/00 A3043 -380 96 -2200 000/00 RMK AO2 T00060000 $
93915KAEX AEX20161120013010811/20/16 01:30:31  5-MIN KAEX 200730Z AUTO 31003KT 10SM 01/00 A3043 -380 96 -2200 310/03 RMK AO2 T00060000 $
93915KAEX AEX20161120013511211/20/16 01:35:31  5-MIN KAEX 200735Z AUTO 31003KT 10SM CLR 01/00 A3043 -380 96 -2200 310/03 RMK AO2 T00060000 $
93915KAEX AEX20161120014011211/20/16 01:40:31  5-MIN KAEX 200740Z AUTO 31004KT 10SM CLR 01/00 A3043 -380 96 -2200 310/04 RMK AO2 T00060000 $
93915KAEX AEX20161120014511211/20/16 01:45:31  5-MIN KAEX 200745Z AUTO 32003KT 10SM CLR 01/00 A3043 -380 96 -2200 320/03 RMK AO2 T00060000 $
93915KAEX AEX20161120015011911/20/16 01:50:31  5-MIN KAEX 200750Z AUTO 32003KT 10SM CLR 01/00 A3043 -380 96 -2200 320/03 RMK AO2 SLP311 T00060000 $
93915KAEX AEX20161120015511211/20/16 01:55:31  5-MIN KAEX 200755Z AUTO 31003KT 10SM CLR 01/00 A3043 -380 96 -2200 310/03 RMK AO2 T00060000 $
93915KAEX AEX20161120020011211/20/16 02:00:31  5-MIN KAEX 200800Z AUTO 00000KT 10SM CLR 01/00 A3043 -370 96 -2200 000/00 RMK AO2 T00060000 $
93915KAEX AEX20161120020511211/20/16 02:05:31  5-MIN KAEX 200805Z AUTO 00000KT 10SM CLR 01/00 A3043 -370 96 -2200 000/00 RMK AO2 T00060000 $
93915KAEX AEX20161120021011211/20/16 02:10:31  5-MIN KAEX 200810Z AUTO 00000KT 10SM CLR 01/00 A3043 -380 96 -2200 000/00 RMK AO2 T00060000 $
93915KAEX AEX20161120021511211/20/16 02:15:31  5-MIN KAEX 200815Z AUTO 00000KT 10SM CLR 01/01 A3043 -370 96 -2100 000/00 RMK AO2 T00110006 $
93915KAEX AEX20161120022011211/20/16 02:20:31  5-MIN KAEX 200820Z AUTO 00000KT 10SM CLR 01/01 A3043 -370 96 -2100 000/00 RMK AO2 T00110006 $
93915KAEX AEX20161120022511211/20/16 02:25:31  5-MIN KAEX 200825Z AUTO 00000KT 10SM CLR 01/01 A3043 -370 96 -2100 000/00 RMK AO2 T00110006 $
93915KAEX AEX20161120023011211/20/16 02:30:31  5-MIN KAEX 200830Z AUTO 00000KT 10SM CLR 01/01 A3043 -370 96 -2100 000/00 RMK AO2 T00110006 $
93915KAEX AEX20161120023511311/20/16 02:35:31  5-MIN KAEX 200835Z AUTO 00000KT 10SM CLR 01/01 A3043 -370 100 -2100 000/00 RMK AO2 T00060006 $
93915KAEX AEX20161120024011211/20/16 02:40:31  5-MIN KAEX 200840Z AUTO 00000KT 10SM CLR 01/00 A3043 -370 96 -2100 000/00 RMK AO2 T00060000 $
93915KAEX AEX20161120024511311/20/16 02:45:31  5-MIN KAEX 200845Z AUTO 00000KT 10SM CLR 01/01 A3042 -370 100 -2100 000/00 RMK AO2 T00060006 $
93915KAEX AEX20161120025011911/20/16 02:50:31  5-MIN KAEX 200850Z AUTO 00000KT 10SM CLR 01/00 A3042 -360 96 -2100 000/00 RMK AO2 SLP307 T00060000 $
93915KAEX AEX20161120025511211/20/16 02:55:31  5-MIN KAEX 200855Z AUTO 00000KT 10SM CLR 01/00 A3042 -370 96 -2100 000/00 RMK AO2 T00060000 $
93915KAEX AEX20161120030011211/20/16 03:00:31  5-MIN KAEX 200900Z AUTO 00000KT 10SM CLR 01/00 A3042 -370 96 -2100 000/00 RMK AO2 T00060000 $
93915KAEX AEX20161120030511311/20/16 03:05:31  5-MIN KAEX 200905Z AUTO 00000KT 10SM CLR 01/01 A3042 -370 100 -2100 000/00 RMK AO2 T00060006 $
93915KAEX AEX20161120031011211/20/16 03:10:31  5-MIN KAEX 200910Z AUTO 00000KT 10SM CLR 01/01 A3043 -370 96 -2100 000/00 RMK AO2 T00110006 $
93915KAEX AEX20161120031511211/20/16 03:15:31  5-MIN KAEX 200915Z AUTO 00000KT 10SM CLR 01/01 A3042 -370 96 -2100 000/00 RMK AO2 T00110006 $
93915KAEX AEX20161120032011211/20/16 03:20:31  5-MIN KAEX 200920Z AUTO 00000KT 10SM CLR 01/01 A3042 -370 96 -2100 000/00 RMK AO2 T00110006 $
93915KAEX AEX20161120032511311/20/16 03:25:31  5-MIN KAEX 200925Z AUTO 00000KT 10SM CLR 01/01 A3042 -370 100 -2100 000/00 RMK AO2 T00060006 $
93915KAEX AEX20161120033011311/20/16 03:30:31  5-MIN KAEX 200930Z AUTO 00000KT 10SM CLR 00/00 A3042 -370 100 -2200 000/00 RMK AO2 T00000000 $
93915KAEX AEX20161120033511211/20/16 03:35:31  5-MIN KAEX 200935Z AUTO 00000KT 10SM CLR 01/00 A3042 -360 96 -2100 000/00 RMK AO2 T00060000 $
93915KAEX AEX20161120034011311/20/16 03:40:31  5-MIN KAEX 200940Z AUTO 00000KT 10SM CLR 00/00 A3042 -360 100 -2200 000/00 RMK AO2 T00000000 $
93915KAEX AEX20161120034511211/20/16 03:45:31  5-MIN KAEX 200945Z AUTO 00000KT 10SM CLR 01/00 A3042 -360 96 -2100 000/00 RMK AO2 T00060000 $
93915KAEX AEX20161120035012011/20/16 03:50:31  5-MIN KAEX 200950Z AUTO 00000KT 10SM CLR 00/00 A3042 -360 100 -2200 000/00 RMK AO2 SLP306 T00000000 $
93915KAEX AEX20161120035511311/20/16 03:55:31  5-MIN KAEX 200955Z AUTO 00000KT 10SM CLR 00/00 A3042 -360 100 -2200 000/00 RMK AO2 T00000000 $
93915KAEX AEX20161120040011211/20/16 04:00:31  5-MIN KAEX 201000Z AUTO 00000KT 10SM CLR 01/00 A3042 -360 96 -2100 000/00 RMK AO2 T00060000 $
93915KAEX AEX20161120040511311/20/16 04:05:31  5-MIN KAEX 201005Z AUTO 00000KT 10SM CLR 00/00 A3042 -360 100 -2200 000/00 RMK AO2 T00000000 $
93915KAEX AEX20161120041011311/20/16 04:10:31  5-MIN KAEX 201010Z AUTO 00000KT 10SM CLR 00/M01 A3042 -360 96 -2200 000/00 RMK AO2 T00001006 $
93915KAEX AEX20161120041511311/20/16 04:15:31  5-MIN KAEX 201015Z AUTO 00000KT 10SM CLR 00/M01 A3042 -360 96 -2200 000/00 RMK AO2 T00001006 $
93915KAEX AEX20161120042011511/20/16 04:20:31  5-MIN KAEX 201020Z AUTO 00000KT 10SM CLR M01/M01 A3042 -360 100 -2300 000/00 RMK AO2 T10061006 $
93915KAEX AEX20161120042512111/20/16 04:25:31  5-MIN KAEX 201025Z AUTO 33003KT 10SM CLR M01/M01 A3042 -360 100 -2300 330/03 RMK AO2 I1000 T10061006 $
93915KAEX AEX20161120043012111/20/16 04:30:31  5-MIN KAEX 201030Z AUTO 33003KT 10SM CLR M01/M01 A3042 -360 100 -2300 320/03 RMK AO2 I1000 T10061006 $
93915KAEX AEX20161120043512111/20/16 04:35:31  5-MIN KAEX 201035Z AUTO 32003KT 10SM CLR M01/M01 A3042 -360 100 -2300 320/03 RMK AO2 I1000 T10061006 $
93915KAEX AEX20161120044012011/20/16 04:40:31  5-MIN KAEX 201040Z AUTO 32003KT 10SM CLR M01/M01 A3042 -360 96 -2300 320/03 RMK AO2 I1000 T10061011 $
93915KAEX AEX20161120044512111/20/16 04:45:31  5-MIN KAEX 201045Z AUTO 31003KT 10SM CLR M01/M01 A3042 -370 100 -2300 310/03 RMK AO2 I1000 T10061006 $
93915KAEX AEX20161120045012611/20/16 04:50:31  5-MIN KAEX 201050Z AUTO 32003KT 10SM CLR 00/M01 A3042 -360 96 -2200 320/03 RMK AO2 SLP307 I1000 T00001006 $
93915KAEX AEX20161120045511511/20/16 04:55:31  5-MIN KAEX 201055Z AUTO 32003KT 10SM CLR M01/M01 A3042 -370 100 -2300 310/03 RMK AO2 T10061006 $
93915KAEX AEX20161120050011511/20/16 05:00:31  5-MIN KAEX 201100Z AUTO 00000KT 10SM CLR M01/M01 A3042 -360 100 -2300 000/00 RMK AO2 T10061006 $
93915KAEX AEX20161120050511511/20/16 05:05:31  5-MIN KAEX 201105Z AUTO 00000KT 10SM CLR M01/M01 A3042 -370 100 -2300 000/00 RMK AO2 T10061006 $
93915KAEX AEX20161120051011511/20/16 05:10:31  5-MIN KAEX 201110Z AUTO 00000KT 10SM CLR M01/M01 A3042 -360 100 -2300 000/00 RMK AO2 T10061006 $
93915KAEX AEX20161120051511511/20/16 05:15:31  5-MIN KAEX 201115Z AUTO 00000KT 10SM CLR M01/M01 A3042 -360 100 -2300 000/00 RMK AO2 T10061006 $
93915KAEX AEX20161120052011511/20/16 05:20:31  5-MIN KAEX 201120Z AUTO 00000KT 10SM CLR M01/M01 A3042 -360 100 -2300 000/00 RMK AO2 T10061006 $
93915KAEX AEX20161120052511511/20/16 05:25:31  5-MIN KAEX 201125Z AUTO 00000KT 10SM CLR M01/M01 A3042 -360 100 -2300 000/00 RMK AO2 T10061006 $
93915KAEX AEX20161120053011411/20/16 05:30:31  5-MIN KAEX 201130Z AUTO 00000KT 10SM CLR M01/M01 A3042 -370 96 -2300 000/00 RMK AO2 T10061011 $
93915KAEX AEX20161120053511911/20/16 05:35:31  5-MIN KAEX 201135Z AUTO 00000KT 10SM CLR 00/M01 A3042 -370 96 -2200 000/00 RMK AO2 I1000 T00001006 $
93915KAEX AEX20161120054011911/20/16 05:40:31  5-MIN KAEX 201140Z AUTO 00000KT 10SM CLR 00/M01 A3042 -370 96 -2200 000/00 RMK AO2 I1000 T00001006 $
93915KAEX AEX20161120054511911/20/16 05:45:31  5-MIN KAEX 201145Z AUTO 00000KT 10SM CLR 00/M01 A3042 -360 96 -2200 000/00 RMK AO2 I1000 T00001006 $
93915KAEX AEX20161120055014611/20/16 05:50:31  5-MIN KAEX 201150Z AUTO 00000KT 10SM CLR M01/M01 A3042 -360 100 -2300 000/00 RMK AO2 SLP307 I1000 I6/// T10061006 10028 21006 $
93915KAEX AEX20161120055511311/20/16 05:55:31  5-MIN KAEX 201155Z AUTO 00000KT 10SM CLR 00/M01 A3042 -370 96 -2200 000/00 RMK AO2 T00001006 $
93915KAEX AEX20161120060011311/20/16 06:00:31  5-MIN KAEX 201200Z AUTO 00000KT 10SM CLR 00/M01 A3042 -370 96 -2200 000/00 RMK AO2 T00001006 $
93915KAEX AEX20161120060511311/20/16 06:05:31  5-MIN KAEX 201205Z AUTO 00000KT 10SM CLR 00/M01 A3043 -370 96 -2200 000/00 RMK AO2 T00001006 $
93915KAEX AEX20161120061011411/20/16 06:10:31  5-MIN KAEX 201210Z AUTO 00000KT 10SM CLR M01/M01 A3043 -370 96 -2300 000/00 RMK AO2 T10061011 $
93915KAEX AEX20161120061511311/20/16 06:15:31  5-MIN KAEX 201215Z AUTO 00000KT 10SM CLR 00/M01 A3043 -370 92 -2200 000/00 RMK AO2 T00001011 $
93915KAEX AEX20161120062011311/20/16 06:20:31  5-MIN KAEX 201220Z AUTO 00000KT 10SM CLR 00/M01 A3043 -370 92 -2200 000/00 RMK AO2 T00001011 $
93915KAEX AEX20161120062511411/20/16 06:25:31  5-MIN KAEX 201225Z AUTO 00000KT 10SM CLR M01/M01 A3043 -370 96 -2300 000/00 RMK AO2 T10061011 $
93915KAEX AEX20161120063011411/20/16 06:30:31  5-MIN KAEX 201230Z AUTO 00000KT 10SM CLR M01/M02 A3043 -370 92 -2300 000/00 RMK AO2 T10061017 $
93915KAEX AEX20161120063511411/20/16 06:35:31  5-MIN KAEX 201235Z AUTO 00000KT 10SM CLR M01/M02 A3043 -370 92 -2300 000/00 RMK AO2 T10061017 $
93915KAEX AEX20161120064012011/20/16 06:40:31  5-MIN KAEX 201240Z AUTO 00000KT 10SM CLR M01/M01 A3043 -370 96 -2300 000/00 RMK AO2 I1000 T10061011 $
93915KAEX AEX20161120064512011/20/16 06:45:31  5-MIN KAEX 201245Z AUTO 00000KT 10SM CLR M01/M01 A3043 -370 96 -2300 000/00 RMK AO2 I1000 T10061011 $
93915KAEX AEX20161120065012711/20/16 06:50:31  5-MIN KAEX 201250Z AUTO 00000KT 10SM CLR M01/M01 A3043 -370 96 -2300 000/00 RMK AO2 SLP308 I1000 T10061011 $
93915KAEX AEX20161120065511411/20/16 06:55:31  5-MIN KAEX 201255Z AUTO 00000KT 10SM CLR M01/M01 A3042 -370 96 -2300 000/00 RMK AO2 T10061011 $
93915KAEX AEX20161120070011511/20/16 07:00:31  5-MIN KAEX 201300Z AUTO 00000KT 10SM CLR M01/M01 A3042 -370 100 -2300 000/00 RMK AO2 T10061006 $
93915KAEX AEX20161120070511511/20/16 07:05:31  5-MIN KAEX 201305Z AUTO 00000KT 10SM CLR M01/M01 A3042 -370 100 -2300 000/00 RMK AO2 T10061006 $
93915KAEX AEX20161120071011311/20/16 07:10:31  5-MIN KAEX 201310Z AUTO 00000KT 10SM CLR 00/M01 A3042 -370 96 -2200 000/00 RMK AO2 T00001006 $
93915KAEX AEX20161120071511311/20/16 07:15:31  5-MIN KAEX 201315Z AUTO 00000KT 10SM CLR 00/M01 A3043 -370 96 -2200 000/00 RMK AO2 T00001006 $
93915KAEX AEX20161120072011311/20/16 07:20:31  5-MIN KAEX 201320Z AUTO 00000KT 10SM CLR 00/M01 A3042 -370 96 -2200 000/00 RMK AO2 T00001006 $
93915KAEX AEX20161120072511211/20/16 07:25:31  5-MIN KAEX 201325Z AUTO 00000KT 10SM CLR 01/00 A3043 -370 96 -2100 000/00 RMK AO2 T00060000 $
93915KAEX AEX20161120073011211/20/16 07:30:31  5-MIN KAEX 201330Z AUTO 00000KT 10SM CLR 01/01 A3043 -370 96 -2100 000/00 RMK AO2 T00110006 $
93915KAEX AEX20161120073511211/20/16 07:35:31  5-MIN KAEX 201335Z AUTO 00000KT 10SM CLR 01/01 A3043 -370 96 -2100 000/00 RMK AO2 T00110006 $
93915KAEX AEX20161120074011211/20/16 07:40:31  5-MIN KAEX 201340Z AUTO 00000KT 10SM CLR 02/01 A3043 -370 96 -2000 000/00 RMK AO2 T00170011 $
93915KAEX AEX20161120074511211/20/16 07:45:31  5-MIN KAEX 201345Z AUTO 00000KT 10SM CLR 02/01 A3043 -370 96 -2000 000/00 RMK AO2 T00170011 $
93915KAEX AEX20161120075011911/20/16 07:50:31  5-MIN KAEX 201350Z AUTO 00000KT 10SM CLR 02/02 A3043 -370 96 -1900 000/00 RMK AO2 SLP310 T00220017 $
93915KAEX AEX20161120075510711/20/16 07:55:31  5-MIN KAEX 201355Z 00000KT 10SM CLR 03/02 A3043 -370 92 -1900 000/00 RMK AO2 T00280017 $
93915KAEX AEX20161120080010711/20/16 08:00:31  5-MIN KAEX 201400Z 00000KT 10SM CLR 03/02 A3043 -370 92 -1800 000/00 RMK AO2 T00330022 $
93915KAEX AEX20161120080510711/20/16 08:05:31  5-MIN KAEX 201405Z 07003KT 10SM CLR 04/03 A3043 -380 92 -1700 070/03 RMK AO2 T00390028 $
93915KAEX AEX20161120081010711/20/16 08:10:31  5-MIN KAEX 201410Z 06004KT 10SM CLR 04/02 A3043 -380 85 -1700 060/04 RMK AO2 T00440022 $
93915KAEX AEX20161120081510711/20/16 08:15:31  5-MIN KAEX 201415Z 06005KT 10SM CLR 05/02 A3043 -380 79 -1600 060/05 RMK AO2 T00500017 $
93915KAEX AEX20161120082010711/20/16 08:20:31  5-MIN KAEX 201420Z 06004KT 10SM CLR 05/02 A3044 -380 79 -1600 060/04 RMK AO2 T00500017 $
93915KAEX AEX20161120082510711/20/16 08:25:31  5-MIN KAEX 201425Z 05003KT 10SM CLR 06/02 A3044 -380 79 -1500 050/03 RMK AO2 T00560022 $
93915KAEX AEX20161120083010711/20/16 08:30:31  5-MIN KAEX 201430Z 07003KT 10SM CLR 06/02 A3044 -380 76 -1500 060/03 RMK AO2 T00610022 $
93915KAEX AEX20161120083510711/20/16 08:35:31  5-MIN KAEX 201435Z 06003KT 10SM CLR 06/02 A3044 -380 76 -1500 050/03 RMK AO2 T00610022 $
93915KAEX AEX20161120084010711/20/16 08:40:31  5-MIN KAEX 201440Z 06003KT 10SM CLR 07/02 A3044 -380 73 -1400 060/03 RMK AO2 T00670022 $
93915KAEX AEX20161120084510711/20/16 08:45:31  5-MIN KAEX 201445Z 07003KT 10SM CLR 07/02 A3044 -380 73 -1400 070/03 RMK AO2 T00670022 $
93915KAEX AEX20161120085012611/20/16 08:50:31  5-MIN KAEX 201450Z 05004KT 10SM CLR 07/02 A3044 -380 70 -1300 050/04 RMK AO2 SLP313 I3/// T00720022 53000 $
93915KAEX AEX20161120085510711/20/16 08:55:31  5-MIN KAEX 201455Z 00000KT 10SM CLR 08/02 A3044 -380 68 -1300 000/00 RMK AO2 T00780022 $
93915KAEX AEX20161120090010711/20/16 09:00:31  5-MIN KAEX 201500Z 08003KT 10SM CLR 08/03 A3044 -380 70 -1300 080/03 RMK AO2 T00780028 $
93915KAEX AEX20161120090510711/20/16 09:05:31  5-MIN KAEX 201505Z VRB03KT 10SM CLR 08/03 A3044 -380 68 -1200 VRB/03 RMK AO2 T00830028 $
93915KAEX AEX20161120091010711/20/16 09:10:31  5-MIN KAEX 201510Z 00000KT 10SM CLR 09/03 A3044 -390 65 -1100 000/00 RMK AO2 T00890028 $
93915KAEX AEX20161120091510711/20/16 09:15:31  5-MIN KAEX 201515Z 06004KT 10SM CLR 09/02 A3044 -390 63 -1100 060/04 RMK AO2 T00890022 $
93915KAEX AEX20161120092010711/20/16 09:20:31  5-MIN KAEX 201520Z 06003KT 10SM CLR 09/02 A3044 -390 60 -1100 060/03 RMK AO2 T00940022 $
93915KAEX AEX20161120092510711/20/16 09:25:31  5-MIN KAEX 201525Z 10004KT 10SM CLR 09/02 A3044 -390 58 -1100 100/04 RMK AO2 T00940017 $
93915KAEX AEX20161120093010711/20/16 09:30:31  5-MIN KAEX 201530Z 07005KT 10SM CLR 09/01 A3044 -380 56 -1100 070/05 RMK AO2 T00940011 $
93915KAEX AEX20161120093510711/20/16 09:35:31  5-MIN KAEX 201535Z 06006KT 10SM CLR 10/02 A3044 -380 56 -1000 060/06 RMK AO2 T01000017 $
93915KAEX AEX20161120094010711/20/16 09:40:31  5-MIN KAEX 201540Z 06005KT 10SM CLR 10/01 A3044 -380 54 -1000 060/05 RMK AO2 T01000011 $
93915KAEX AEX20161120094510711/20/16 09:45:31  5-MIN KAEX 201545Z VRB04KT 10SM CLR 10/01 A3044 -380 54 -1000 VRB/04 RMK AO2 T01000011 $
93915KAEX AEX20161120095011311/20/16 09:50:31  5-MIN KAEX 201550Z 09007KT 10SM CLR 11/00 A3044 -380 48 -900 090/07 RMK AO2 SLP313 T01060000 $
93915KAEX AEX20161120095510711/20/16 09:55:31  5-MIN KAEX 201555Z 08007KT 10SM CLR 11/M01 A3044 -380 44 -900 080/07 RMK AO2 T01111006 $
93915KAEX AEX20161120100010711/20/16 10:00:31  5-MIN KAEX 201600Z 07007KT 10SM CLR 11/M01 A3044 -380 44 -900 070/07 RMK AO2 T01111006 $
93915KAEX AEX20161120100510711/20/16 10:05:31  5-MIN KAEX 201605Z 11009KT 10SM CLR 11/M01 A3044 -380 42 -900 110/09 RMK AO2 T01111011 $
93915KAEX AEX20161120101010711/20/16 10:10:31  5-MIN KAEX 201610Z 08007KT 10SM CLR 11/M02 A3044 -380 41 -800 080/07 RMK AO2 T01111017 $
93915KAEX AEX20161120101510711/20/16 10:15:31  5-MIN KAEX 201615Z 08008KT 10SM CLR 11/M02 A3043 -380 41 -800 080/08 RMK AO2 T01111017 $
93915KAEX AEX20161120102010711/20/16 10:20:31  5-MIN KAEX 201620Z 07007KT 10SM CLR 11/M01 A3043 -380 42 -800 070/07 RMK AO2 T01111011 $
93915KAEX AEX20161120102510711/20/16 10:25:31  5-MIN KAEX 201625Z 06006KT 10SM CLR 12/M02 A3043 -370 39 -800 050/06 RMK AO2 T01171017 $
93915KAEX AEX20161120103010711/20/16 10:30:31  5-MIN KAEX 201630Z 07006KT 10SM CLR 12/M01 A3043 -370 39 -700 070/06 RMK AO2 T01221011 $
93915KAEX AEX20161120103510711/20/16 10:35:31  5-MIN KAEX 201635Z 10006KT 10SM CLR 12/M02 A3043 -370 39 -800 100/06 RMK AO2 T01171017 $
93915KAEX AEX20161120104010711/20/16 10:40:31  5-MIN KAEX 201640Z 00000KT 10SM CLR 12/M01 A3043 -370 41 -800 000/00 RMK AO2 T01171011 $
93915KAEX AEX20161120104510711/20/16 10:45:31  5-MIN KAEX 201645Z VRB04KT 10SM CLR 12/M01 A3043 -370 39 -700 VRB/04 RMK AO2 T01221011 $
93915KAEX AEX20161120105011411/20/16 10:50:31  5-MIN KAEX 201650Z 00000KT 10SM CLR 12/M02 A3042 -370 38 -700 000/00 RMK AO2 SLP307 T01221017 $
93915KAEX AEX20161120105510711/20/16 10:55:31  5-MIN KAEX 201655Z 07005KT 10SM CLR 13/M02 A3042 -370 35 -600 070/05 RMK AO2 T01281022 $
93915KAEX AEX20161120110010711/20/16 11:00:31  5-MIN KAEX 201700Z 00000KT 10SM CLR 13/M02 A3042 -360 35 -600 000/00 RMK AO2 T01281022 $
93915KAEX AEX20161120110510711/20/16 11:05:31  5-MIN KAEX 201705Z 00000KT 10SM CLR 13/M02 A3042 -360 35 -600 000/00 RMK AO2 T01281022 $
93915KAEX AEX20161120111010711/20/16 11:10:31  5-MIN KAEX 201710Z 11006KT 10SM CLR 13/M02 A3041 -360 35 -600 110/06 RMK AO2 T01281022 $
93915KAEX AEX20161120111510711/20/16 11:15:31  5-MIN KAEX 201715Z 14004KT 10SM CLR 13/M02 A3041 -350 36 -600 140/04 RMK AO2 T01281017 $
93915KAEX AEX20161120112010711/20/16 11:20:31  5-MIN KAEX 201720Z 15005KT 10SM CLR 13/M02 A3041 -350 36 -600 150/05 RMK AO2 T01281017 $
93915KAEX AEX20161120112510711/20/16 11:25:31  5-MIN KAEX 201725Z 09005KT 10SM CLR 13/M03 A3040 -350 33 -600 090/05 RMK AO2 T01281028 $
93915KAEX AEX20161120113010711/20/16 11:30:31  5-MIN KAEX 201730Z 11005KT 10SM CLR 13/M03 A3040 -340 33 -600 110/05 RMK AO2 T01281028 $
93915KAEX AEX20161120113510711/20/16 11:35:31  5-MIN KAEX 201735Z 00000KT 10SM CLR 13/M02 A3039 -340 35 -600 000/00 RMK AO2 T01281022 $
93915KAEX AEX20161120114009711/20/16 11:40:31  5-MIN KAEX 201740Z 10SM CLR 13/M02 A3039 -340 35 -500 M /M RMK AO2 T01331017 $
93915KAEX AEX20161120114510711/20/16 11:45:31  5-MIN KAEX 201745Z VRB03KT 10SM CLR 13/M02 A3039 -330 34 -500 VRB/03 RMK AO2 T01331022 $
93915KAEX AEX20161120214011211/20/16 21:40:31  5-MIN KAEX 210340Z AUTO 00000KT 10SM CLR 05/02 A3025 -210 82 -1400 000/00 RMK AO2 T00500022 $
93915KAEX AEX20161120214511211/20/16 21:45:31  5-MIN KAEX 210345Z AUTO 00000KT 10SM CLR 05/02 A3025 -210 82 -1400 000/00 RMK AO2 T00500022 $
93915KAEX AEX20161120215011911/20/16 21:50:31  5-MIN KAEX 210350Z AUTO 00000KT 10SM CLR 04/02 A3025 -210 85 -1500 000/00 RMK AO2 SLP249 T00440022 $
93915KAEX AEX20161120215511211/20/16 21:55:31  5-MIN KAEX 210355Z AUTO 00000KT 10SM CLR 04/02 A3025 -210 85 -1500 000/00 RMK AO2 T00440022 $
93915KAEX AEX20161120220011211/20/16 22:00:31  5-MIN KAEX 210400Z AUTO 00000KT 10SM CLR 04/02 A3025 -210 85 -1500 000/00 RMK AO2 T00440022 $
93915KAEX AEX20161120220511211/20/16 22:05:31  5-MIN KAEX 210405Z AUTO 00000KT 10SM CLR 04/02 A3025 -210 89 -1500 000/00 RMK AO2 T00390022 $
93915KAEX AEX20161120221011211/20/16 22:10:31  5-MIN KAEX 210410Z AUTO 00000KT 10SM CLR 04/02 A3025 -210 85 -1500 000/00 RMK AO2 T00390017 $
93915KAEX AEX20161120221511211/20/16 22:15:31  5-MIN KAEX 210415Z AUTO 00000KT 10SM CLR 04/02 A3024 -200 85 -1500 000/00 RMK AO2 T00390017 $
93915KAEX AEX20161120222011211/20/16 22:20:31  5-MIN KAEX 210420Z AUTO 00000KT 10SM CLR 04/02 A3024 -200 85 -1500 000/00 RMK AO2 T00390017 $
93915KAEX AEX20161120222511211/20/16 22:25:31  5-MIN KAEX 210425Z AUTO 00000KT 10SM CLR 04/02 A3024 -200 82 -1400 000/00 RMK AO2 T00440017 $
93915KAEX AEX20161120223011211/20/16 22:30:31  5-MIN KAEX 210430Z AUTO 00000KT 10SM CLR 04/02 A3024 -200 85 -1500 000/00 RMK AO2 T00390017 $
93915KAEX AEX20161120223511211/20/16 22:35:31  5-MIN KAEX 210435Z AUTO 00000KT 10SM CLR 04/02 A3024 -200 82 -1400 000/00 RMK AO2 T00440017 $
93915KAEX AEX20161120224011211/20/16 22:40:31  5-MIN KAEX 210440Z AUTO 00000KT 10SM CLR 04/02 A3024 -200 89 -1500 000/00 RMK AO2 T00390022 $
93915KAEX AEX20161120224511211/20/16 22:45:31  5-MIN KAEX 210445Z AUTO 00000KT 10SM CLR 03/02 A3024 -200 89 -1600 000/00 RMK AO2 T00330017 $
93915KAEX AEX20161120225011911/20/16 22:50:31  5-MIN KAEX 210450Z AUTO 00000KT 10SM CLR 03/02 A3024 -200 92 -1700 000/00 RMK AO2 SLP246 T00280017 $
93915KAEX AEX20161120225511211/20/16 22:55:31  5-MIN KAEX 210455Z AUTO 00000KT 10SM CLR 03/02 A3024 -200 92 -1700 000/00 RMK AO2 T00280017 $
93915KAEX AEX20161120230011211/20/16 23:00:31  5-MIN KAEX 210500Z AUTO 00000KT 10SM CLR 03/02 A3024 -200 92 -1700 000/00 RMK AO2 T00280017 $
93915KAEX AEX20161120230511211/20/16 23:05:31  5-MIN KAEX 210505Z AUTO 00000KT 10SM CLR 03/02 A3024 -200 92 -1600 000/00 RMK AO2 T00280017 $
93915KAEX AEX20161120231011211/20/16 23:10:31  5-MIN KAEX 210510Z AUTO 00000KT 10SM CLR 03/02 A3024 -200 92 -1600 000/00 RMK AO2 T00280017 $
93915KAEX AEX20161120231511211/20/16 23:15:31  5-MIN KAEX 210515Z AUTO 00000KT 10SM CLR 03/01 A3024 -200 89 -1600 000/00 RMK AO2 T00280011 $
93915KAEX AEX20161120232011211/20/16 23:20:31  5-MIN KAEX 210520Z AUTO 00000KT 10SM CLR 03/02 A3024 -200 92 -1600 000/00 RMK AO2 T00280017 $
93915KAEX AEX20161120232511211/20/16 23:25:31  5-MIN KAEX 210525Z AUTO 00000KT 10SM CLR 03/02 A3024 -200 92 -1600 000/00 RMK AO2 T00280017 $
93915KAEX AEX20161120233011211/20/16 23:30:31  5-MIN KAEX 210530Z AUTO 00000KT 10SM CLR 03/02 A3024 -190 92 -1600 000/00 RMK AO2 T00280017 $
93915KAEX AEX20161120233511211/20/16 23:35:31  5-MIN KAEX 210535Z AUTO 00000KT 10SM CLR 03/02 A3024 -200 92 -1600 000/00 RMK AO2 T00280017 $
93915KAEX AEX20161120234011211/20/16 23:40:31  5-MIN KAEX 210540Z AUTO 00000KT 10SM CLR 03/02 A3023 -190 92 -1600 000/00 RMK AO2 T00280017 $
93915KAEX AEX20161120234511211/20/16 23:45:31  5-MIN KAEX 210545Z AUTO 00000KT 10SM CLR 03/02 A3023 -190 92 -1600 000/00 RMK AO2 T00280017 $
93915KAEX AEX20161120235014711/20/16 23:50:31  5-MIN KAEX 210550Z AUTO 00000KT 10SM CLR 03/02 A3023 -190 92 -1600 000/00 RMK AO2 SLP242 T00280017 10094 20028 401671006 56004 $
93915KAEX AEX20161120235511211/20/16 23:55:31  5-MIN KAEX 210555Z AUTO 00000KT 10SM CLR 03/02 A3023 -190 92 -1600 000/00 RMK AO2 T00280017 $
93915KAEX AEX20161121000011211/21/16 00:00:31  5-MIN KAEX 210600Z AUTO 00000KT 10SM CLR 02/01 A3023 -190 92 -1700 000/00 RMK AO2 T00220011 $
93915KAEX AEX20161121000511211/21/16 00:05:31  5-MIN KAEX 210605Z AUTO 00000KT 10SM CLR 02/01 A3023 -190 92 -1700 000/00 RMK AO2 T00220011 $
93915KAEX AEX20161121001011211/21/16 00:10:31  5-MIN KAEX 210610Z AUTO 00000KT 10SM CLR 02/01 A3023 -190 96 -1800 000/00 RMK AO2 T00170011 $
93915KAEX AEX20161121001511211/21/16 00:15:31  5-MIN KAEX 210615Z AUTO 00000KT 10SM CLR 02/01 A3023 -190 96 -1800 000/00 RMK AO2 T00170011 $
93915KAEX AEX20161121002011211/21/16 00:20:31  5-MIN KAEX 210620Z AUTO 00000KT 10SM CLR 02/01 A3023 -190 96 -1800 000/00 RMK AO2 T00170011 $
93915KAEX AEX20161121002511211/21/16 00:25:31  5-MIN KAEX 210625Z AUTO 00000KT 10SM CLR 02/01 A3023 -190 92 -1700 000/00 RMK AO2 T00220011 $
93915KAEX AEX20161121003011211/21/16 00:30:31  5-MIN KAEX 210630Z AUTO 00000KT 10SM CLR 02/01 A3023 -190 92 -1700 000/00 RMK AO2 T00220011 $
93915KAEX AEX20161121003511211/21/16 00:35:31  5-MIN KAEX 210635Z AUTO 00000KT 10SM CLR 02/01 A3023 -190 96 -1800 000/00 RMK AO2 T00170011 $
93915KAEX AEX20161121004011211/21/16 00:40:31  5-MIN KAEX 210640Z AUTO 00000KT 10SM CLR 02/01 A3023 -190 92 -1800 000/00 RMK AO2 T00170006 $
93915KAEX AEX20161121004511211/21/16 00:45:31  5-MIN KAEX 210645Z AUTO 00000KT 10SM CLR 02/01 A3023 -190 96 -1800 000/00 RMK AO2 T00170011 $
93915KAEX AEX20161121005011911/21/16 00:50:31  5-MIN KAEX 210650Z AUTO 00000KT 10SM CLR 02/01 A3023 -190 96 -1800 000/00 RMK AO2 SLP242 T00170011 $
93915KAEX AEX20161121005511211/21/16 00:55:31  5-MIN KAEX 210655Z AUTO 00000KT 10SM CLR 02/01 A3023 -190 96 -1800 000/00 RMK AO2 T00170011 $
93915KAEX AEX20161121010011211/21/16 01:00:31  5-MIN KAEX 210700Z AUTO 00000KT 10SM CLR 02/01 A3023 -190 92 -1700 000/00 RMK AO2 T00220011 $
93915KAEX AEX20161121010511211/21/16 01:05:31  5-MIN KAEX 210705Z AUTO 00000KT 10SM CLR 02/01 A3023 -190 96 -1800 000/00 RMK AO2 T00170011 $
93915KAEX AEX20161121011011211/21/16 01:10:31  5-MIN KAEX 210710Z AUTO 00000KT 10SM CLR 02/01 A3023 -180 92 -1700 000/00 RMK AO2 T00220011 $
93915KAEX AEX20161121011511211/21/16 01:15:31  5-MIN KAEX 210715Z AUTO 00000KT 10SM CLR 02/01 A3022 -180 96 -1800 000/00 RMK AO2 T00170011 $
93915KAEX AEX20161121012011211/21/16 01:20:31  5-MIN KAEX 210720Z AUTO 00000KT 10SM CLR 01/01 A3022 -180 96 -1800 000/00 RMK AO2 T00110006 $
93915KAEX AEX20161121012511211/21/16 01:25:31  5-MIN KAEX 210725Z AUTO 19003KT 10SM CLR 02/01 A3022 -180 92 -1800 180/03 RMK AO2 T00170006 $
93915KAEX AEX20161121013011211/21/16 01:30:31  5-MIN KAEX 210730Z AUTO 00000KT 10SM CLR 01/01 A3022 -180 96 -1800 000/00 RMK AO2 T00110006 $
93915KAEX AEX20161121013511211/21/16 01:35:31  5-MIN KAEX 210735Z AUTO 00000KT 10SM CLR 01/01 A3022 -180 96 -1800 000/00 RMK AO2 T00110006 $
93915KAEX AEX20161121014011111/21/16 01:40:31  5-MIN KAEX 210740Z AUTO 00000KT 9SM CLR 01/01 A3022 -180 96 -1800 000/00 RMK AO2 T00110006 $
93915KAEX AEX20161121014511111/21/16 01:45:31  5-MIN KAEX 210745Z AUTO 00000KT 9SM CLR 02/01 A3022 -180 92 -1800 000/00 RMK AO2 T00170006 $
93915KAEX AEX20161121015011911/21/16 01:50:31  5-MIN KAEX 210750Z AUTO 00000KT 10SM CLR 02/01 A3022 -180 92 -1800 000/00 RMK AO2 SLP239 T00170006 $
93915KAEX AEX20161121015511211/21/16 01:55:31  5-MIN KAEX 210755Z AUTO 00000KT 10SM CLR 01/01 A3022 -180 96 -1800 000/00 RMK AO2 T00110006 $
93915KAEX AEX20161121020011211/21/16 02:00:31  5-MIN KAEX 210800Z AUTO 00000KT 10SM CLR 01/01 A3022 -180 96 -1800 000/00 RMK AO2 T00110006 $
93915KAEX AEX20161121020511211/21/16 02:05:31  5-MIN KAEX 210805Z AUTO 00000KT 10SM CLR 02/01 A3022 -180 92 -1800 000/00 RMK AO2 T00170006 $
93915KAEX AEX20161121021011211/21/16 02:10:31  5-MIN KAEX 210810Z AUTO 00000KT 10SM CLR 01/01 A3023 -180 96 -1800 000/00 RMK AO2 T00110006 $
93915KAEX AEX20161121021511211/21/16 02:15:31  5-MIN KAEX 210815Z AUTO 00000KT 10SM CLR 01/01 A3022 -180 96 -1800 000/00 RMK AO2 T00110006 $
93915KAEX AEX20161121022011111/21/16 02:20:31  5-MIN KAEX 210820Z AUTO 00000KT 9SM CLR 02/01 A3022 -180 92 -1800 000/00 RMK AO2 T00170006 $
93915KAEX AEX20161121022511111/21/16 02:25:31  5-MIN KAEX 210825Z AUTO 00000KT 9SM CLR 02/01 A3022 -180 92 -1800 000/00 RMK AO2 T00170006 $
93915KAEX AEX20161121023011111/21/16 02:30:31  5-MIN KAEX 210830Z AUTO 00000KT 9SM CLR 01/01 A3022 -180 96 -1800 000/00 RMK AO2 T00110006 $
93915KAEX AEX20161121023511111/21/16 02:35:31  5-MIN KAEX 210835Z AUTO 00000KT 9SM CLR 01/01 A3022 -180 96 -1800 000/00 RMK AO2 T00110006 $
93915KAEX AEX20161121024011111/21/16 02:40:31  5-MIN KAEX 210840Z AUTO 00000KT 9SM CLR 01/00 A3022 -180 92 -1800 000/00 RMK AO2 T00110000 $
93915KAEX AEX20161121024511111/21/16 02:45:31  5-MIN KAEX 210845Z AUTO 00000KT 9SM CLR 01/00 A3022 -180 92 -1800 000/00 RMK AO2 T00110000 $
93915KAEX AEX20161121025012411/21/16 02:50:31  5-MIN KAEX 210850Z AUTO 00000KT 9SM CLR 01/00 A3022 -180 92 -1800 000/00 RMK AO2 SLP239 T00110000 58009 $
93915KAEX AEX20161121025511111/21/16 02:55:31  5-MIN KAEX 210855Z AUTO 00000KT 9SM CLR 01/00 A3022 -180 92 -1800 000/00 RMK AO2 T00110000 $
93915KAEX AEX20161121030011111/21/16 03:00:31  5-MIN KAEX 210900Z AUTO 00000KT 9SM CLR 01/00 A3022 -180 92 -1800 000/00 RMK AO2 T00110000 $
93915KAEX AEX20161121030511111/21/16 03:05:31  5-MIN KAEX 210905Z AUTO 00000KT 9SM CLR 01/00 A3022 -180 92 -1800 000/00 RMK AO2 T00110000 $
93915KAEX AEX20161121031011111/21/16 03:10:31  5-MIN KAEX 210910Z AUTO 00000KT 9SM CLR 01/01 A3022 -180 96 -1800 000/00 RMK AO2 T00110006 $
93915KAEX AEX20161121031511111/21/16 03:15:31  5-MIN KAEX 210915Z AUTO 00000KT 9SM CLR 01/01 A3022 -180 96 -1800 000/00 RMK AO2 T00110006 $
93915KAEX AEX20161121032011111/21/16 03:20:31  5-MIN KAEX 210920Z AUTO 00000KT 9SM CLR 02/01 A3022 -180 92 -1800 000/00 RMK AO2 T00170006 $
93915KAEX AEX20161121032511111/21/16 03:25:31  5-MIN KAEX 210925Z AUTO 00000KT 9SM CLR 01/01 A3022 -180 96 -1800 000/00 RMK AO2 T00110006 $
93915KAEX AEX20161121033011111/21/16 03:30:31  5-MIN KAEX 210930Z AUTO 00000KT 9SM CLR 01/00 A3022 -180 92 -1800 000/00 RMK AO2 T00110000 $
93915KAEX AEX20161121033511111/21/16 03:35:31  5-MIN KAEX 210935Z AUTO 00000KT 9SM CLR 01/00 A3022 -180 92 -1800 000/00 RMK AO2 T00110000 $
93915KAEX AEX20161121034011111/21/16 03:40:31  5-MIN KAEX 210940Z AUTO 00000KT 9SM CLR 01/01 A3022 -180 96 -1800 000/00 RMK AO2 T00110006 $
93915KAEX AEX20161121034511111/21/16 03:45:31  5-MIN KAEX 210945Z AUTO 14003KT 9SM CLR 01/01 A3022 -180 96 -1800 130/03 RMK AO2 T00110006 $
93915KAEX AEX20161121035011811/21/16 03:50:31  5-MIN KAEX 210950Z AUTO 11003KT 9SM CLR 01/00 A3022 -180 96 -1900 110/03 RMK AO2 SLP240 T00060000 $
93915KAEX AEX20161121035511211/21/16 03:55:31  5-MIN KAEX 210955Z AUTO 00000KT 10SM CLR 01/00 A3022 -180 96 -1900 000/00 RMK AO2 T00060000 $
93915KAEX AEX20161121040011211/21/16 04:00:31  5-MIN KAEX 211000Z AUTO 00000KT 10SM CLR 01/00 A3022 -180 96 -1900 000/00 RMK AO2 T00060000 $
93915KAEX AEX20161121040511211/21/16 04:05:31  5-MIN KAEX 211005Z AUTO 00000KT 10SM CLR 01/00 A3022 -180 96 -1900 000/00 RMK AO2 T00060000 $
93915KAEX AEX20161121041011311/21/16 04:10:31  5-MIN KAEX 211010Z AUTO 00000KT 10SM CLR 00/M01 A3022 -180 96 -2000 000/00 RMK AO2 T00001006 $
93915KAEX AEX20161121041511211/21/16 04:15:31  5-MIN KAEX 211015Z AUTO 00000KT 10SM CLR 01/00 A3022 -180 96 -1900 000/00 RMK AO2 T00060000 $
93915KAEX AEX20161121042011211/21/16 04:20:31  5-MIN KAEX 211020Z AUTO 12003KT 10SM CLR 01/00 A3022 -180 96 -1900 120/03 RMK AO2 T00060000 $
93915KAEX AEX20161121042511211/21/16 04:25:31  5-MIN KAEX 211025Z AUTO 00000KT 10SM CLR 01/00 A3023 -190 96 -1900 000/00 RMK AO2 T00060000 $
93915KAEX AEX20161121043011311/21/16 04:30:31  5-MIN KAEX 211030Z AUTO 00000KT 10SM CLR 01/01 A3023 -190 100 -1900 000/00 RMK AO2 T00060006 $
93915KAEX AEX20161121043511111/21/16 04:35:31  5-MIN KAEX 211035Z AUTO 00000KT 9SM CLR 01/01 A3023 -190 96 -1800 000/00 RMK AO2 T00110006 $
93915KAEX AEX20161121044011211/21/16 04:40:31  5-MIN KAEX 211040Z AUTO 00000KT 8SM CLR 01/01 A3023 -190 100 -1900 000/00 RMK AO2 T00060006 $
93915KAEX AEX20161121044511211/21/16 04:45:31  5-MIN KAEX 211045Z AUTO 00000KT 8SM CLR 00/00 A3023 -190 100 -2000 000/00 RMK AO2 T00000000 $
93915KAEX AEX20161121045012011/21/16 04:50:31  5-MIN KAEX 211050Z 00000KT 9SM CLR 00/M01 A3023 -190 96 -2000 000/00 RMK AO2 SLP243 I1000 T00001006 $
93915KAEX AEX20161121045510711/21/16 04:55:31  5-MIN KAEX 211055Z 00000KT 9SM CLR 00/M01 A3024 -190 96 -2000 000/00 RMK AO2 T00001006 $
93915KAEX AEX20161121050010711/21/16 05:00:31  5-MIN KAEX 211100Z 00000KT 9SM CLR 00/M01 A3024 -190 96 -2000 000/00 RMK AO2 T00001006 $
93915KAEX AEX20161121050510711/21/16 05:05:31  5-MIN KAEX 211105Z 00000KT 9SM CLR 00/M01 A3024 -190 96 -2000 000/00 RMK AO2 T00001006 $
93915KAEX AEX20161121051010911/21/16 05:10:31  5-MIN KAEX 211110Z 00000KT 7SM CLR M01/M01 A3024 -200 100 -2100 000/00 RMK AO2 T10061006 $
93915KAEX AEX20161121051511611/21/16 05:15:31  5-MIN KAEX 211115Z 33003KT 1 3/4SM BR CLR M01/M01 A3024 -200 100 -2100 330/03 RMK AO2 T10061006 $
93915KAEX AEX20161121052011611/21/16 05:20:31  5-MIN KAEX 211120Z 31003KT 3/4SM BR VV002 M01/M01 A3025 -200 100 -2100 310/03 RMK AO2 T10111011 $
93915KAEX AEX20161121052511811/21/16 05:25:31  5-MIN KAEX 211125Z 00000KT 1/2SM FZFG VV002 M01/M01 A3024 -200 100 -2100 000/00 RMK AO2 T10111011 $
93915KAEX AEX20161121053011611/21/16 05:30:31  5-MIN KAEX 211130Z 00000KT 3/4SM BR VV002 M01/M01 A3025 -210 100 -2200 000/00 RMK AO2 T10111011 $
93915KAEX AEX20161121053511911/21/16 05:35:31  5-MIN KAEX 211135Z 00000KT 1 1/4SM BR FEW002 M01/M01 A3025 -210 100 -2200 000/00 RMK AO2 T10111011 $
93915KAEX AEX20161121054011511/21/16 05:40:31  5-MIN KAEX 211140Z 00000KT 3SM BR SCT002 M01/M01 A3025 -210 100 -2200 000/00 RMK AO2 T10111011 $
93915KAEX AEX20161121054511511/21/16 05:45:31  5-MIN KAEX 211145Z 00000KT 3SM BR SCT002 M01/M01 A3025 -210 100 -2100 000/00 RMK AO2 T10061006 $
93915KAEX AEX20161121055014511/21/16 05:50:31  5-MIN KAEX 211150Z 00000KT 3SM BR SCT002 M01/M01 A3025 -210 96 -2100 000/00 RMK AO2 SLP248 I6000 T10061011 10028 21011 57002 $
93915KAEX AEX20161121055510811/21/16 05:55:31  5-MIN KAEX 211155Z 00000KT 7SM CLR M01/M01 A3025 -210 96 -2100 000/00 RMK AO2 T10061011 $
93915KAEX AEX20161121060010811/21/16 06:00:31  5-MIN KAEX 211200Z 00000KT 8SM CLR M01/M01 A3025 -210 96 -2100 000/00 RMK AO2 T10061011 $
93915KAEX AEX20161121060510911/21/16 06:05:31  5-MIN KAEX 211205Z 00000KT 9SM CLR M01/M01 A3025 -210 100 -2200 000/00 RMK AO2 T10111011 $
93915KAEX AEX20161121061010811/21/16 06:10:31  5-MIN KAEX 211210Z 00000KT 9SM CLR M01/M01 A3025 -210 96 -2100 000/00 RMK AO2 T10061011 $
93915KAEX AEX20161121061511311/21/16 06:15:31  5-MIN KAEX 211215Z 00000KT 9SM CLR 00/M01 A3025 -210 96 -2000 000/00 RMK AO2 I1000 T00001006 $
93915KAEX AEX20161121062011511/21/16 06:20:31  5-MIN KAEX 211220Z 00000KT 9SM CLR M01/M01 A3025 -210 100 -2100 000/00 RMK AO2 I1000 T10061006 $
93915KAEX AEX20161121062511411/21/16 06:25:31  5-MIN KAEX 211225Z 00000KT 9SM CLR M01/M01 A3025 -210 96 -2100 000/00 RMK AO2 I1000 T10061011 $
93915KAEX AEX20161121063011411/21/16 06:30:31  5-MIN KAEX 211230Z 00000KT 9SM CLR M01/M01 A3025 -210 96 -2100 000/00 RMK AO2 I1000 T10061011 $
93915KAEX AEX20161121063511411/21/16 06:35:31  5-MIN KAEX 211235Z 00000KT 9SM CLR M01/M01 A3026 -210 96 -2100 000/00 RMK AO2 I1000 T10061011 $
93915KAEX AEX20161121064011411/21/16 06:40:31  5-MIN KAEX 211240Z 00000KT 9SM CLR M01/M01 A3026 -210 96 -2100 000/00 RMK AO2 I1000 T10061011 $
93915KAEX AEX20161121064511411/21/16 06:45:31  5-MIN KAEX 211245Z 00000KT 8SM CLR M01/M01 A3025 -210 96 -2100 000/00 RMK AO2 I1000 T10061011 $
93915KAEX AEX20161121065012111/21/16 06:50:31  5-MIN KAEX 211250Z 00000KT 7SM CLR M01/M01 A3025 -210 96 -2100 000/00 RMK AO2 SLP250 I1000 T10061011 $
93915KAEX AEX20161121065510711/21/16 06:55:31  5-MIN KAEX 211255Z 00000KT 7SM CLR 00/M01 A3026 -210 96 -2000 000/00 RMK AO2 T00001006 $
93915KAEX AEX20161121070010711/21/16 07:00:31  5-MIN KAEX 211300Z 00000KT 8SM CLR 00/M01 A3026 -220 96 -2000 000/00 RMK AO2 T00001006 $
93915KAEX AEX20161121070510911/21/16 07:05:31  5-MIN KAEX 211305Z 00000KT 8SM CLR M01/M01 A3026 -220 100 -2100 000/00 RMK AO2 T10061006 $
93915KAEX AEX20161121071010911/21/16 07:10:31  5-MIN KAEX 211310Z 00000KT 8SM CLR M01/M01 A3026 -220 100 -2100 000/00 RMK AO2 T10061006 $
93915KAEX AEX20161121071510711/21/16 07:15:31  5-MIN KAEX 211315Z 00000KT 7SM CLR 00/00 A3026 -220 100 -2000 000/00 RMK AO2 T00000000 $
93915KAEX AEX20161121072010711/21/16 07:20:31  5-MIN KAEX 211320Z 00000KT 8SM CLR 00/00 A3026 -220 100 -2000 000/00 RMK AO2 T00000000 $
93915KAEX AEX20161121072510611/21/16 07:25:31  5-MIN KAEX 211325Z 00000KT 9SM CLR 01/00 A3026 -220 96 -2000 000/00 RMK AO2 T00060000 $
93915KAEX AEX20161121073010611/21/16 07:30:31  5-MIN KAEX 211330Z 00000KT 9SM CLR 01/01 A3026 -220 96 -1900 000/00 RMK AO2 T00110006 $
93915KAEX AEX20161121073510611/21/16 07:35:31  5-MIN KAEX 211335Z 00000KT 8SM CLR 01/00 A3027 -220 92 -1900 000/00 RMK AO2 T00110000 $
93915KAEX AEX20161121074010611/21/16 07:40:31  5-MIN KAEX 211340Z 00000KT 8SM CLR 02/01 A3026 -220 92 -1800 000/00 RMK AO2 T00170006 $
93915KAEX AEX20161121074510611/21/16 07:45:31  5-MIN KAEX 211345Z 00000KT 8SM CLR 02/01 A3026 -220 92 -1700 000/00 RMK AO2 T00220011 $
93915KAEX AEX20161121075011311/21/16 07:50:31  5-MIN KAEX 211350Z 00000KT 9SM CLR 03/02 A3026 -220 92 -1700 000/00 RMK AO2 SLP253 T00280017 $
93915KAEX AEX20161121075510611/21/16 07:55:31  5-MIN KAEX 211355Z 00000KT 9SM CLR 03/02 A3026 -220 96 -1700 000/00 RMK AO2 T00280022 $
93915KAEX AEX20161121080010611/21/16 08:00:31  5-MIN KAEX 211400Z 00000KT 8SM CLR 04/03 A3026 -220 92 -1500 000/00 RMK AO2 T00390028 $
93915KAEX AEX20161121080510611/21/16 08:05:31  5-MIN KAEX 211405Z 00000KT 8SM CLR 04/03 A3027 -220 92 -1500 000/00 RMK AO2 T00440033 $
93915KAEX AEX20161121081010611/21/16 08:10:31  5-MIN KAEX 211410Z 13004KT 8SM CLR 04/03 A3027 -220 92 -1500 130/04 RMK AO2 T00440033 $
93915KAEX AEX20161121081510611/21/16 08:15:31  5-MIN KAEX 211415Z 13004KT 8SM CLR 04/03 A3027 -230 92 -1500 120/04 RMK AO2 T00440033 $
93915KAEX AEX20161121082010611/21/16 08:20:31  5-MIN KAEX 211420Z 12004KT 9SM CLR 05/04 A3027 -230 92 -1400 120/04 RMK AO2 T00500039 $
93915KAEX AEX20161121082510611/21/16 08:25:31  5-MIN KAEX 211425Z 11005KT 9SM CLR 06/04 A3027 -220 89 -1300 110/05 RMK AO2 T00560039 $
93915KAEX AEX20161121083010611/21/16 08:30:31  5-MIN KAEX 211430Z 11004KT 9SM CLR 06/04 A3027 -220 89 -1300 110/04 RMK AO2 T00560039 $
93915KAEX AEX20161121083510711/21/16 08:35:31  5-MIN KAEX 211435Z 11004KT 10SM CLR 06/04 A3027 -230 86 -1300 110/04 RMK AO2 T00610039 $
93915KAEX AEX20161121084010711/21/16 08:40:31  5-MIN KAEX 211440Z 12004KT 10SM CLR 07/04 A3027 -230 82 -1200 120/04 RMK AO2 T00670039 $
93915KAEX AEX20161121084510711/21/16 08:45:31  5-MIN KAEX 211445Z 11004KT 10SM CLR 07/04 A3027 -230 79 -1100 110/04 RMK AO2 T00720039 $
93915KAEX AEX20161121085012611/21/16 08:50:31  5-MIN KAEX 211450Z 10004KT 10SM CLR 08/04 A3027 -230 76 -1100 100/04 RMK AO2 SLP256 I3/// T00780039 53009 $
93915KAEX AEX20161121085510711/21/16 08:55:31  5-MIN KAEX 211455Z 11004KT 10SM CLR 08/04 A3027 -230 76 -1100 110/04 RMK AO2 T00780039 $
93915KAEX AEX20161121090010711/21/16 09:00:31  5-MIN KAEX 211500Z 12004KT 10SM CLR 08/04 A3027 -230 73 -1000 110/04 RMK AO2 T00830039 $
93915KAEX AEX20161121090510711/21/16 09:05:31  5-MIN KAEX 211505Z 12003KT 10SM CLR 08/04 A3027 -230 73 -1000 120/03 RMK AO2 T00830039 $
93915KAEX AEX20161121091010611/21/16 09:10:31  5-MIN KAEX 211510Z 11004KT 10SM CLR 09/04 A3027 -230 71 -900 110/04 RMK AO2 T00890039 $
93915KAEX AEX20161121091510411/21/16 09:15:31  5-MIN KAEX 211515Z 11004KT 10SM CLR 09/04 A3027 -230 68 -900 110/04 RMK AO2 T00940039
93915KAEX AEX20161121092010411/21/16 09:20:31  5-MIN KAEX 211520Z 11005KT 10SM CLR 10/03 A3027 -230 63 -800 100/05 RMK AO2 T01000033
93915KAEX AEX20161121092510411/21/16 09:25:31  5-MIN KAEX 211525Z 12006KT 10SM CLR 11/03 A3027 -230 58 -700 120/06 RMK AO2 T01060028
93915KAEX AEX20161121093010411/21/16 09:30:31  5-MIN KAEX 211530Z 12006KT 10SM CLR 11/03 A3027 -230 58 -700 120/06 RMK AO2 T01060028
93915KAEX AEX20161121093510411/21/16 09:35:31  5-MIN KAEX 211535Z 11005KT 10SM CLR 11/03 A3027 -230 56 -700 110/05 RMK AO2 T01110028
93915KAEX AEX20161121194510811/21/16 19:45:31  5-MIN KAEX 220145Z AUTO 14005KT 10SM CLR 12/06 A3012 -90 68 -400 130/05 RMK AO2 T01170061
93915KAEX AEX20161121195011511/21/16 19:50:31  5-MIN KAEX 220150Z AUTO 14005KT 10SM CLR 11/06 A3012 -80 71 -500 140/05 RMK AO2 SLP203 T01110061
93915KAEX AEX20161121195510811/21/16 19:55:31  5-MIN KAEX 220155Z AUTO 14006KT 10SM CLR 11/06 A3012 -90 71 -600 140/06 RMK AO2 T01060056
93915KAEX AEX20161121200010811/21/16 20:00:31  5-MIN KAEX 220200Z AUTO 14007KT 10SM CLR 10/06 A3012 -90 74 -600 140/07 RMK AO2 T01000056
93915KAEX AEX20161121200510811/21/16 20:05:31  5-MIN KAEX 220205Z AUTO 14006KT 10SM CLR 10/06 A3012 -90 74 -600 140/06 RMK AO2 T01000056
93915KAEX AEX20161121201010811/21/16 20:10:31  5-MIN KAEX 220210Z AUTO 14007KT 10SM CLR 09/05 A3012 -90 76 -800 140/07 RMK AO2 T00890050
93915KAEX AEX20161121201510811/21/16 20:15:31  5-MIN KAEX 220215Z AUTO 14007KT 10SM CLR 09/06 A3012 -90 76 -700 140/07 RMK AO2 T00940056
93915KAEX AEX20161121202010811/21/16 20:20:31  5-MIN KAEX 220220Z AUTO 14006KT 10SM CLR 10/06 A3012 -90 74 -600 140/06 RMK AO2 T01000056
93915KAEX AEX20161121202510811/21/16 20:25:31  5-MIN KAEX 220225Z AUTO 14006KT 10SM CLR 09/06 A3012 -90 76 -700 140/06 RMK AO2 T00940056
93915KAEX AEX20161121203010911/21/16 20:30:31  5-MIN KAEX 220230Z AUTO 14005KT 10SM CLR 09/05 A3013 -100 74 -700 140/05 RMK AO2 T00940050
93915KAEX AEX20161121203510911/21/16 20:35:31  5-MIN KAEX 220235Z AUTO 14005KT 10SM CLR 09/05 A3013 -100 74 -700 130/05 RMK AO2 T00940050
93915KAEX AEX20161121204010911/21/16 20:40:31  5-MIN KAEX 220240Z AUTO 14004KT 10SM CLR 09/05 A3013 -100 74 -700 140/04 RMK AO2 T00940050
93915KAEX AEX20161121204510911/21/16 20:45:31  5-MIN KAEX 220245Z AUTO 14003KT 10SM CLR 09/05 A3014 -100 74 -700 140/03 RMK AO2 T00940050
93915KAEX AEX20161121205012211/21/16 20:50:31  5-MIN KAEX 220250Z AUTO 14004KT 10SM CLR 09/05 A3014 -100 74 -700 140/04 RMK AO2 SLP210 T00940050 55001
93915KAEX AEX20161121205508011/21/16 20:55:31  5-MIN KAEX 220255Z AUTO 14003KT M M M 130/03 RMK AO2 FZRANO $
93915KAEX AEX20161121210010211/21/16 21:00:31  5-MIN KAEX 220300Z AUTO 12003KT 11/05 A3014 -110 68 -600 120/03 RMK AO2 T01060050 $
93915KAEX AEX20161121210510211/21/16 21:05:31  5-MIN KAEX 220305Z 00000KT 10SM 11/06 A3014 -110 71 -600 000/00 RMK AO2 T01060056 $
93915KAEX AEX20161121211010211/21/16 21:10:31  5-MIN KAEX 220310Z 00000KT 10SM 10/06 A3014 -110 77 -700 000/00 RMK AO2 T01000061 $
93915KAEX AEX20161121211510211/21/16 21:15:31  5-MIN KAEX 220315Z 14005KT 10SM 10/06 A3014 -110 74 -600 140/05 RMK AO2 T01000056 $
93915KAEX AEX20161121212010211/21/16 21:20:31  5-MIN KAEX 220320Z 15006KT 10SM 09/05 A3014 -110 76 -800 140/06 RMK AO2 T00890050 $
93915KAEX AEX20161121212510611/21/16 21:25:31  5-MIN KAEX 220325Z 15005KT 10SM CLR 10/05 A3014 -110 71 -700 140/05 RMK AO2 T01000050 $
93915KAEX AEX20161121213010611/21/16 21:30:31  5-MIN KAEX 220330Z 14005KT 10SM CLR 09/04 A3015 -110 71 -700 130/05 RMK AO2 T00940044 $
93915KAEX AEX20161121213510611/21/16 21:35:31  5-MIN KAEX 220335Z 13005KT 10SM CLR 09/05 A3015 -110 74 -700 130/05 RMK AO2 T00940050 $
93915KAEX AEX20161121214010611/21/16 21:40:31  5-MIN KAEX 220340Z 13005KT 10SM CLR 09/05 A3015 -110 76 -800 130/05 RMK AO2 T00890050 $
93915KAEX AEX20161121214510611/21/16 21:45:31  5-MIN KAEX 220345Z 13005KT 10SM CLR 08/04 A3015 -110 76 -900 130/05 RMK AO2 T00830044 $
93915KAEX AEX20161121215011311/21/16 21:50:31  5-MIN KAEX 220350Z 14005KT 10SM CLR 08/04 A3014 -110 79 -900 140/05 RMK AO2 SLP212 T00780044 $
93915KAEX AEX20161121215510611/21/16 21:55:31  5-MIN KAEX 220355Z 14006KT 10SM CLR 08/04 A3014 -110 76 -900 140/06 RMK AO2 T00830044 $
93915KAEX AEX20161121220010611/21/16 22:00:31  5-MIN KAEX 220400Z 16006KT 10SM CLR 09/04 A3014 -110 73 -800 160/06 RMK AO2 T00890044 $
93915KAEX AEX20161121220510611/21/16 22:05:31  5-MIN KAEX 220405Z 16006KT 10SM CLR 09/04 A3014 -110 71 -700 160/06 RMK AO2 T00940044 $
93915KAEX AEX20161121221010611/21/16 22:10:31  5-MIN KAEX 220410Z 15006KT 10SM CLR 09/04 A3014 -110 73 -800 150/06 RMK AO2 T00890044 $
93915KAEX AEX20161121221510611/21/16 22:15:31  5-MIN KAEX 220415Z 14006KT 10SM CLR 08/04 A3014 -110 73 -800 140/06 RMK AO2 T00830039 $
93915KAEX AEX20161121222010611/21/16 22:20:31  5-MIN KAEX 220420Z 14006KT 10SM CLR 08/04 A3014 -100 73 -800 130/06 RMK AO2 T00830039 $
93915KAEX AEX20161121222510611/21/16 22:25:31  5-MIN KAEX 220425Z 13006KT 10SM CLR 08/04 A3013 -100 73 -800 120/06 RMK AO2 T00830039 $
93915KAEX AEX20161121223010611/21/16 22:30:31  5-MIN KAEX 220430Z 13008KT 10SM CLR 08/04 A3013 -100 73 -800 130/08 RMK AO2 T00830039 $
93915KAEX AEX20161121223510511/21/16 22:35:31  5-MIN KAEX 220435Z 13008KT 10SM CLR 09/03 A3013 -90 68 -800 130/08 RMK AO2 T00890033 $
93915KAEX AEX20161121224010511/21/16 22:40:31  5-MIN KAEX 220440Z 13009KT 10SM CLR 09/03 A3012 -90 68 -800 130/09 RMK AO2 T00890033 $
93915KAEX AEX20161121224510511/21/16 22:45:31  5-MIN KAEX 220445Z 13008KT 10SM CLR 09/03 A3012 -90 68 -800 130/08 RMK AO2 T00890033 $
93915KAEX AEX20161121225011211/21/16 22:50:31  5-MIN KAEX 220450Z 14009KT 10SM CLR 08/03 A3012 -90 70 -800 140/09 RMK AO2 SLP202 T00830033 $
93915KAEX AEX20161121225510511/21/16 22:55:31  5-MIN KAEX 220455Z 14009KT 10SM CLR 08/03 A3012 -80 68 -800 130/09 RMK AO2 T00830028 $
93915KAEX AEX20161121230010511/21/16 23:00:31  5-MIN KAEX 220500Z 14010KT 10SM CLR 08/03 A3011 -80 68 -800 130/10 RMK AO2 T00830028 $
93915KAEX AEX20161121230510511/21/16 23:05:31  5-MIN KAEX 220505Z 14009KT 10SM CLR 08/03 A3011 -80 68 -800 130/09 RMK AO2 T00830028 $
93915KAEX AEX20161121231010511/21/16 23:10:31  5-MIN KAEX 220510Z 14008KT 10SM CLR 08/03 A3011 -80 68 -800 140/08 RMK AO2 T00830028 $
93915KAEX AEX20161121231510511/21/16 23:15:31  5-MIN KAEX 220515Z 14009KT 10SM CLR 08/03 A3011 -70 68 -800 140/09 RMK AO2 T00830028 $
93915KAEX AEX20161121232010511/21/16 23:20:31  5-MIN KAEX 220520Z 14009KT 10SM CLR 08/03 A3010 -70 68 -800 130/09 RMK AO2 T00830028 $
93915KAEX AEX20161121232510511/21/16 23:25:31  5-MIN KAEX 220525Z 14009KT 10SM CLR 08/03 A3010 -70 68 -800 130/09 RMK AO2 T00830028 $
93915KAEX AEX20161121233010511/21/16 23:30:31  5-MIN KAEX 220530Z 14008KT 10SM CLR 08/03 A3010 -70 70 -800 140/08 RMK AO2 T00830033 $
93915KAEX AEX20161121233510511/21/16 23:35:31  5-MIN KAEX 220535Z 14008KT 10SM CLR 08/03 A3010 -70 70 -800 140/08 RMK AO2 T00830033 $
93915KAEX AEX20161121234010511/21/16 23:40:31  5-MIN KAEX 220540Z 14007KT 10SM CLR 08/03 A3010 -70 70 -800 140/07 RMK AO2 T00830033 $
93915KAEX AEX20161121234510511/21/16 23:45:31  5-MIN KAEX 220545Z 15007KT 10SM CLR 08/03 A3010 -70 70 -800 140/07 RMK AO2 T00830033 $
93915KAEX AEX20161121235013411/21/16 23:50:31  5-MIN KAEX 220550Z 15007KT 10SM CLR 08/04 A3010 -70 73 -800 150/07 RMK AO2 SLP195 T00830039 10133 20078 402001011 $
93915KAEX AEX20161121235510511/21/16 23:55:31  5-MIN KAEX 220555Z 15007KT 10SM CLR 08/04 A3010 -70 73 -800 150/07 RMK AO2 T00830039 $
93915KAEX AEX20161122000010511/22/16 00:00:31  5-MIN KAEX 220600Z 15006KT 10SM CLR 08/04 A3010 -70 73 -800 150/06 RMK AO2 T00830039 $
93915KAEX AEX20161122000510511/22/16 00:05:31  5-MIN KAEX 220605Z 15005KT 10SM CLR 08/03 A3010 -70 73 -900 150/05 RMK AO2 T00780033 $
93915KAEX AEX20161122001010511/22/16 00:10:31  5-MIN KAEX 220610Z 14005KT 10SM CLR 08/03 A3010 -70 73 -900 140/05 RMK AO2 T00780033 $
93915KAEX AEX20161122001510511/22/16 00:15:31  5-MIN KAEX 220615Z 13005KT 10SM CLR 08/04 A3010 -70 76 -900 130/05 RMK AO2 T00780039 $
93915KAEX AEX20161122002010511/22/16 00:20:31  5-MIN KAEX 220620Z 14005KT 10SM CLR 08/04 A3010 -70 73 -800 130/05 RMK AO2 T00830039 $
93915KAEX AEX20161122002510511/22/16 00:25:31  5-MIN KAEX 220625Z 15005KT 10SM CLR 07/04 A3010 -70 79 -900 140/05 RMK AO2 T00720039 $
93915KAEX AEX20161122003010511/22/16 00:30:31  5-MIN KAEX 220630Z 15004KT 10SM CLR 08/04 A3010 -70 76 -900 150/04 RMK AO2 T00780039 $
93915KAEX AEX20161122003510511/22/16 00:35:31  5-MIN KAEX 220635Z 00000KT 10SM CLR 08/04 A3010 -70 73 -800 000/00 RMK AO2 T00830039 $
93915KAEX AEX20161122004010511/22/16 00:40:31  5-MIN KAEX 220640Z 00000KT 10SM CLR 08/04 A3011 -70 76 -900 000/00 RMK AO2 T00780039 $
93915KAEX AEX20161122004510511/22/16 00:45:31  5-MIN KAEX 220645Z 00000KT 10SM CLR 08/04 A3011 -80 73 -800 000/00 RMK AO2 T00830039 $
93915KAEX AEX20161122005011211/22/16 00:50:31  5-MIN KAEX 220650Z 00000KT 10SM CLR 09/04 A3011 -80 71 -700 000/00 RMK AO2 SLP200 T00890039 $
93915KAEX AEX20161122005510511/22/16 00:55:31  5-MIN KAEX 220655Z 13003KT 10SM CLR 08/04 A3011 -80 73 -800 120/03 RMK AO2 T00830039 $
93915KAEX AEX20161122010010511/22/16 01:00:31  5-MIN KAEX 220700Z 14003KT 10SM CLR 08/04 A3011 -80 73 -800 130/03 RMK AO2 T00830039 $
93915KAEX AEX20161122010510511/22/16 01:05:31  5-MIN KAEX 220705Z 11003KT 10SM CLR 08/04 A3011 -80 76 -800 110/03 RMK AO2 T00830044 $
93915KAEX AEX20161122011010511/22/16 01:10:31  5-MIN KAEX 220710Z 11003KT 10SM CLR 08/04 A3011 -80 76 -800 110/03 RMK AO2 T00830044 $
93915KAEX AEX20161122011510511/22/16 01:15:31  5-MIN KAEX 220715Z 00000KT 10SM CLR 08/04 A3012 -80 76 -800 000/00 RMK AO2 T00830044 $
93915KAEX AEX20161122012010511/22/16 01:20:31  5-MIN KAEX 220720Z 12003KT 10SM CLR 08/04 A3012 -80 76 -800 120/03 RMK AO2 T00830044 $
93915KAEX AEX20161122012510511/22/16 01:25:31  5-MIN KAEX 220725Z 00000KT 10SM CLR 08/05 A3012 -90 79 -800 000/00 RMK AO2 T00830050 $
93915KAEX AEX20161122013010511/22/16 01:30:31  5-MIN KAEX 220730Z 11003KT 10SM CLR 08/05 A3012 -80 82 -900 110/03 RMK AO2 T00780050 $
93915KAEX AEX20161122013510511/22/16 01:35:31  5-MIN KAEX 220735Z 11003KT 10SM CLR 08/05 A3011 -80 82 -900 110/03 RMK AO2 T00780050 $
93915KAEX AEX20161122014010511/22/16 01:40:31  5-MIN KAEX 220740Z 10003KT 10SM CLR 08/05 A3011 -80 82 -900 100/03 RMK AO2 T00780050 $
93915KAEX AEX20161122014510511/22/16 01:45:31  5-MIN KAEX 220745Z 10004KT 10SM CLR 08/05 A3011 -80 82 -900 090/04 RMK AO2 T00780050 $
93915KAEX AEX20161122015011211/22/16 01:50:31  5-MIN KAEX 220750Z 10004KT 10SM CLR 08/05 A3011 -80 82 -900 090/04 RMK AO2 SLP200 T00780050 $
93915KAEX AEX20161122015510511/22/16 01:55:31  5-MIN KAEX 220755Z 10005KT 10SM CLR 08/06 A3011 -80 86 -900 100/05 RMK AO2 T00780056 $
93915KAEX AEX20161122020010511/22/16 02:00:31  5-MIN KAEX 220800Z 10006KT 10SM CLR 08/06 A3011 -80 82 -800 100/06 RMK AO2 T00830056 $
93915KAEX AEX20161122020510511/22/16 02:05:31  5-MIN KAEX 220805Z 11005KT 10SM CLR 08/06 A3011 -80 82 -800 100/05 RMK AO2 T00830056 $
93915KAEX AEX20161122021010411/22/16 02:10:31  5-MIN KAEX 220810Z 11006KT 9SM CLR 08/06 A3011 -80 86 -800 110/06 RMK AO2 T00830061 $
93915KAEX AEX20161122021510411/22/16 02:15:31  5-MIN KAEX 220815Z 11006KT 9SM CLR 08/06 A3010 -70 86 -800 100/06 RMK AO2 T00830061 $
93915KAEX AEX20161122022010411/22/16 02:20:31  5-MIN KAEX 220820Z 11007KT 9SM CLR 09/06 A3010 -70 83 -700 100/07 RMK AO2 T00890061 $
93915KAEX AEX20161122022510511/22/16 02:25:31  5-MIN KAEX 220825Z 11007KT 10SM CLR 09/06 A3010 -70 83 -700 110/07 RMK AO2 T00890061 $
93915KAEX AEX20161122023010511/22/16 02:30:31  5-MIN KAEX 220830Z 11006KT 10SM CLR 09/06 A3010 -70 83 -700 100/06 RMK AO2 T00890061 $
93915KAEX AEX20161122023510511/22/16 02:35:31  5-MIN KAEX 220835Z 10005KT 10SM CLR 09/06 A3010 -70 83 -700 100/05 RMK AO2 T00890061 $
93915KAEX AEX20161122024010511/22/16 02:40:31  5-MIN KAEX 220840Z 11005KT 10SM CLR 09/06 A3011 -70 83 -700 110/05 RMK AO2 T00890061 $
93915KAEX AEX20161122024510511/22/16 02:45:31  5-MIN KAEX 220845Z 11005KT 10SM CLR 08/06 A3011 -70 82 -800 110/05 RMK AO2 T00830056 $
93915KAEX AEX20161122025011211/22/16 02:50:31  5-MIN KAEX 220850Z 11006KT 10SM CLR 08/06 A3010 -70 82 -800 110/06 RMK AO2 SLP198 T00830056 $
93915KAEX AEX20161122025510511/22/16 02:55:31  5-MIN KAEX 220855Z 12007KT 10SM CLR 08/06 A3010 -70 86 -900 110/07 RMK AO2 T00780056 $
93915KAEX AEX20161122030010511/22/16 03:00:31  5-MIN KAEX 220900Z 11008KT 10SM CLR 08/06 A3010 -70 86 -900 110/08 RMK AO2 T00780056 $
93915KAEX AEX20161122030510511/22/16 03:05:31  5-MIN KAEX 220905Z 11008KT 10SM CLR 08/06 A3010 -70 82 -800 110/08 RMK AO2 T00830056 $
93915KAEX AEX20161122031010511/22/16 03:10:31  5-MIN KAEX 220910Z 11007KT 10SM CLR 08/06 A3009 -60 82 -800 110/07 RMK AO2 T00830056 $
93915KAEX AEX20161122031510511/22/16 03:15:31  5-MIN KAEX 220915Z 12007KT 10SM CLR 08/06 A3010 -70 82 -800 110/07 RMK AO2 T00830056 $
93915KAEX AEX20161122032010511/22/16 03:20:31  5-MIN KAEX 220920Z 11006KT 10SM CLR 08/06 A3009 -60 82 -800 110/06 RMK AO2 T00830056 $
93915KAEX AEX20161122032510511/22/16 03:25:31  5-MIN KAEX 220925Z 10007KT 10SM CLR 08/06 A3009 -60 82 -800 100/07 RMK AO2 T00830056 $
93915KAEX AEX20161122033010511/22/16 03:30:31  5-MIN KAEX 220930Z 11007KT 10SM CLR 08/06 A3009 -60 82 -800 110/07 RMK AO2 T00830056 $
93915KAEX AEX20161122033510511/22/16 03:35:31  5-MIN KAEX 220935Z 11007KT 10SM CLR 08/05 A3009 -60 79 -800 110/07 RMK AO2 T00830050 $
93915KAEX AEX20161122034010511/22/16 03:40:31  5-MIN KAEX 220940Z 11007KT 10SM CLR 08/05 A3008 -50 79 -800 110/07 RMK AO2 T00830050 $
93915KAEX AEX20161122034510511/22/16 03:45:31  5-MIN KAEX 220945Z 12008KT 10SM CLR 09/05 A3008 -50 76 -700 110/08 RMK AO2 T00890050 $
93915KAEX AEX20161122035011211/22/16 03:50:31  5-MIN KAEX 220950Z 12008KT 10SM CLR 08/05 A3009 -60 79 -800 120/08 RMK AO2 SLP191 T00830050 $
93915KAEX AEX20161122035510511/22/16 03:55:31  5-MIN KAEX 220955Z 13006KT 10SM CLR 08/05 A3009 -60 79 -800 130/06 RMK AO2 T00830050 $
93915KAEX AEX20161122040010511/22/16 04:00:31  5-MIN KAEX 221000Z 13005KT 10SM CLR 08/05 A3009 -60 82 -900 130/05 RMK AO2 T00780050 $
93915KAEX AEX20161122040510511/22/16 04:05:31  5-MIN KAEX 221005Z 13006KT 10SM CLR 07/05 A3009 -60 86 -900 130/06 RMK AO2 T00720050 $
93915KAEX AEX20161122041010511/22/16 04:10:31  5-MIN KAEX 221010Z 13005KT 10SM CLR 07/05 A3009 -60 86 -900 130/05 RMK AO2 T00720050 $
93915KAEX AEX20161122041510511/22/16 04:15:31  5-MIN KAEX 221015Z 14005KT 10SM CLR 07/04 A3009 -60 82 -900 130/05 RMK AO2 T00720044 $
93915KAEX AEX20161122042010511/22/16 04:20:31  5-MIN KAEX 221020Z 14006KT 10SM CLR 07/04 A3009 -60 82 -900 130/06 RMK AO2 T00720044 $
93915KAEX AEX20161122042510511/22/16 04:25:31  5-MIN KAEX 221025Z 14005KT 10SM CLR 07/04 A3009 -60 82 -900 140/05 RMK AO2 T00720044 $
93915KAEX AEX20161122043010511/22/16 04:30:31  5-MIN KAEX 221030Z 13005KT 10SM CLR 07/04 A3009 -60 82 -900 130/05 RMK AO2 T00720044 $
93915KAEX AEX20161122043510511/22/16 04:35:31  5-MIN KAEX 221035Z 14006KT 10SM CLR 07/04 A3009 -60 82 -900 130/06 RMK AO2 T00720044 $
93915KAEX AEX20161122044010511/22/16 04:40:31  5-MIN KAEX 221040Z 14006KT 10SM CLR 07/04 A3009 -60 82 -900 140/06 RMK AO2 T00720044 $
93915KAEX AEX20161122044510511/22/16 04:45:31  5-MIN KAEX 221045Z 14006KT 10SM CLR 07/04 A3009 -60 82 -900 140/06 RMK AO2 T00720044 $
93915KAEX AEX20161122045011211/22/16 04:50:31  5-MIN KAEX 221050Z 14007KT 10SM CLR 07/04 A3009 -60 82 -900 130/07 RMK AO2 SLP194 T00720044 $
93915KAEX AEX20161122045510511/22/16 04:55:31  5-MIN KAEX 221055Z 13008KT 10SM CLR 07/05 A3009 -60 86 -900 130/08 RMK AO2 T00720050 $
93915KAEX AEX20161122050010511/22/16 05:00:31  5-MIN KAEX 221100Z 13007KT 10SM CLR 07/05 A3009 -60 86 -900 130/07 RMK AO2 T00720050 $
93915KAEX AEX20161122050510511/22/16 05:05:31  5-MIN KAEX 221105Z 13007KT 10SM CLR 08/05 A3009 -60 82 -900 130/07 RMK AO2 T00780050 $
93915KAEX AEX20161122051010511/22/16 05:10:31  5-MIN KAEX 221110Z 13007KT 10SM CLR 08/05 A3009 -60 82 -900 130/07 RMK AO2 T00780050 $
93915KAEX AEX20161122051510511/22/16 05:15:31  5-MIN KAEX 221115Z 13007KT 10SM CLR 08/05 A3009 -60 82 -900 130/07 RMK AO2 T00780050 $
93915KAEX AEX20161122052010511/22/16 05:20:31  5-MIN KAEX 221120Z 12006KT 10SM CLR 08/05 A3009 -60 82 -900 120/06 RMK AO2 T00780050 $
93915KAEX AEX20161122052510811/22/16 05:25:31  5-MIN KAEX 221125Z 12007KT 10SM FEW037 08/05 A3009 -60 79 -800 120/07 RMK AO2 T00830050 $
93915KAEX AEX20161122053010811/22/16 05:30:31  5-MIN KAEX 221130Z 12007KT 10SM FEW037 08/05 A3009 -60 79 -800 120/07 RMK AO2 T00830050 $
93915KAEX AEX20161122053510811/22/16 05:35:31  5-MIN KAEX 221135Z 13007KT 10SM FEW037 08/05 A3009 -60 79 -800 130/07 RMK AO2 T00830050 $
93915KAEX AEX20161122054010811/22/16 05:40:31  5-MIN KAEX 221140Z 13007KT 10SM FEW037 08/05 A3009 -60 79 -800 130/07 RMK AO2 T00830050 $
93915KAEX AEX20161122054510811/22/16 05:45:31  5-MIN KAEX 221145Z 12008KT 10SM FEW037 08/05 A3009 -60 79 -800 120/08 RMK AO2 T00830050 $
93915KAEX AEX20161122055013311/22/16 05:50:31  5-MIN KAEX 221150Z 13008KT 10SM FEW037 08/05 A3009 -60 79 -800 130/08 RMK AO2 SLP194 T00830050 10089 20072 50002 $
93915KAEX AEX20161122055510511/22/16 05:55:31  5-MIN KAEX 221155Z 13008KT 10SM CLR 08/05 A3009 -60 82 -900 130/08 RMK AO2 T00780050 $
93915KAEX AEX20161122060010511/22/16 06:00:31  5-MIN KAEX 221200Z 13007KT 10SM CLR 08/05 A3009 -60 79 -800 130/07 RMK AO2 T00830050 $
93915KAEX AEX20161122060510511/22/16 06:05:31  5-MIN KAEX 221205Z 13007KT 10SM CLR 08/05 A3010 -70 79 -800 130/07 RMK AO2 T00830050 $
93915KAEX AEX20161122061010511/22/16 06:10:31  5-MIN KAEX 221210Z 13007KT 10SM CLR 08/05 A3010 -70 82 -900 130/07 RMK AO2 T00780050 $
93915KAEX AEX20161122061510511/22/16 06:15:31  5-MIN KAEX 221215Z 14007KT 10SM CLR 08/05 A3010 -70 82 -900 130/07 RMK AO2 T00780050 $
93915KAEX AEX20161122062010511/22/16 06:20:31  5-MIN KAEX 221220Z 13007KT 10SM CLR 08/05 A3010 -70 82 -900 130/07 RMK AO2 T00780050 $
93915KAEX AEX20161122062510511/22/16 06:25:31  5-MIN KAEX 221225Z 13007KT 10SM CLR 08/05 A3010 -70 82 -900 130/07 RMK AO2 T00780050 $
93915KAEX AEX20161122063010511/22/16 06:30:31  5-MIN KAEX 221230Z 13007KT 10SM CLR 08/05 A3010 -70 79 -800 130/07 RMK AO2 T00830050 $
93915KAEX AEX20161122063510511/22/16 06:35:31  5-MIN KAEX 221235Z 13006KT 10SM CLR 08/05 A3010 -70 82 -900 130/06 RMK AO2 T00780050 $
93915KAEX AEX20161122064010511/22/16 06:40:31  5-MIN KAEX 221240Z 13005KT 10SM CLR 08/05 A3011 -80 82 -900 130/05 RMK AO2 T00780050 $
93915KAEX AEX20161122064510511/22/16 06:45:31  5-MIN KAEX 221245Z 12006KT 10SM CLR 08/05 A3011 -70 82 -900 120/06 RMK AO2 T00780050 $
93915KAEX AEX20161122065011211/22/16 06:50:31  5-MIN KAEX 221250Z 12006KT 10SM CLR 08/05 A3011 -80 82 -900 120/06 RMK AO2 SLP200 T00780050 $
93915KAEX AEX20161122065510511/22/16 06:55:31  5-MIN KAEX 221255Z 12005KT 10SM CLR 08/05 A3011 -80 79 -800 120/05 RMK AO2 T00830050 $
93915KAEX AEX20161122070010511/22/16 07:00:31  5-MIN KAEX 221300Z 12005KT 10SM CLR 08/05 A3011 -80 79 -800 120/05 RMK AO2 T00830050 $
93915KAEX AEX20161122070510511/22/16 07:05:31  5-MIN KAEX 221305Z 12003KT 10SM CLR 08/05 A3012 -80 79 -800 120/03 RMK AO2 T00830050 $
93915KAEX AEX20161122071010511/22/16 07:10:31  5-MIN KAEX 221310Z 12003KT 10SM CLR 08/05 A3012 -90 79 -800 120/03 RMK AO2 T00830050 $
93915KAEX AEX20161122071510811/22/16 07:15:31  5-MIN KAEX 221315Z 11005KT 10SM FEW038 09/05 A3012 -90 76 -800 110/05 RMK AO2 T00890050 $
93915KAEX AEX20161122072010811/22/16 07:20:31  5-MIN KAEX 221320Z 12006KT 10SM BKN038 09/06 A3012 -90 76 -700 120/06 RMK AO2 T00940056 $
93915KAEX AEX20161122072510811/22/16 07:25:31  5-MIN KAEX 221325Z 12006KT 10SM BKN038 10/05 A3012 -90 71 -600 120/06 RMK AO2 T01000050 $
93915KAEX AEX20161122073010811/22/16 07:30:31  5-MIN KAEX 221330Z 13007KT 10SM BKN038 10/05 A3012 -90 71 -600 130/07 RMK AO2 T01000050 $
93915KAEX AEX20161122073510611/22/16 07:35:31  5-MIN KAEX 221335Z 13008KT 10SM OVC038 10/05 A3012 -90 71 -600 130/08 RMK AO2 T01000050
93915KAEX AEX20161122074010611/22/16 07:40:31  5-MIN KAEX 221340Z 13008KT 10SM OVC038 10/05 A3012 -90 71 -600 130/08 RMK AO2 T01000050
93915KAEX AEX20161122074510611/22/16 07:45:31  5-MIN KAEX 221345Z 13008KT 10SM OVC038 11/06 A3012 -90 71 -600 130/08 RMK AO2 T01060056
93915KAEX AEX20161122075011311/22/16 07:50:31  5-MIN KAEX 221350Z 14008KT 10SM OVC039 11/05 A3013 -90 66 -500 130/08 RMK AO2 SLP206 T01110050
93915KAEX AEX20161122075510611/22/16 07:55:31  5-MIN KAEX 221355Z 13010KT 10SM OVC039 11/05 A3012 -90 66 -500 130/10 RMK AO2 T01110050
93915KAEX AEX20161122080010611/22/16 08:00:31  5-MIN KAEX 221400Z 13009KT 10SM OVC039 11/05 A3012 -90 66 -500 130/09 RMK AO2 T01110050
93915KAEX AEX20161122080510611/22/16 08:05:31  5-MIN KAEX 221405Z 14008KT 10SM BKN039 11/05 A3013 -90 66 -500 140/08 RMK AO2 T01110050
93915KAEX AEX20161122081011411/22/16 08:10:31  5-MIN KAEX 221410Z 13008KT 10SM FEW030 BKN039 12/06 A3013 -100 66 -400 130/08 RMK AO2 T01170056
93915KAEX AEX20161122081511411/22/16 08:15:31  5-MIN KAEX 221415Z 14009KT 10SM SCT030 BKN039 12/06 A3013 -100 66 -400 140/09 RMK AO2 T01170056
93915KAEX AEX20161122082011411/22/16 08:20:31  5-MIN KAEX 221420Z 14010KT 10SM BKN030 BKN039 12/06 A3013 -100 66 -400 130/10 RMK AO2 T01170056
93915KAEX AEX20161122082511411/22/16 08:25:31  5-MIN KAEX 221425Z 14009KT 10SM BKN030 BKN039 12/06 A3013 -100 63 -400 140/09 RMK AO2 T01220056
93915KAEX AEX20161122083011411/22/16 08:30:31  5-MIN KAEX 221430Z 14010KT 10SM BKN030 OVC039 12/06 A3013 -100 66 -400 140/10 RMK AO2 T01220061
93915KAEX AEX20161122083510711/22/16 08:35:31  5-MIN KAEX 221435Z 14011KT 10SM OVC029 12/06 A3013 -100 66 -400 140/11 RMK AO2 T01220061
93915KAEX AEX20161122084010711/22/16 08:40:31  5-MIN KAEX 221440Z 13011KT 10SM OVC029 13/06 A3013 -100 63 -300 130/11 RMK AO2 T01280061
93915KAEX AEX20161122084510711/22/16 08:45:31  5-MIN KAEX 221445Z 14010KT 10SM OVC029 13/06 A3014 -100 61 -200 140/10 RMK AO2 T01330061
93915KAEX AEX20161122085012711/22/16 08:50:31  5-MIN KAEX 221450Z 13012KT 10SM BKN029 OVC039 13/06 A3014 -100 63 -300 130/12 RMK AO2 SLP209 T01280061 56004
93915KAEX AEX20161122085511411/22/16 08:55:31  5-MIN KAEX 221455Z 14012KT 10SM BKN029 OVC039 13/06 A3014 -100 61 -200 140/12 RMK AO2 T01330061
93915KAEX AEX20161122090011411/22/16 09:00:31  5-MIN KAEX 221500Z 13009KT 10SM BKN029 OVC039 13/07 A3014 -110 64 -200 130/09 RMK AO2 T01330067
93915KAEX AEX20161122090511411/22/16 09:05:31  5-MIN KAEX 221505Z 13011KT 10SM SCT029 OVC040 14/07 A3014 -110 61 -200 130/11 RMK AO2 T01390067
93915KAEX AEX20161122091011411/22/16 09:10:31  5-MIN KAEX 221510Z 14010KT 10SM FEW029 OVC040 14/07 A3014 -110 61 -200 140/10 RMK AO2 T01390067
93915KAEX AEX20161122091511411/22/16 09:15:31  5-MIN KAEX 221515Z 13011KT 10SM FEW030 OVC040 14/07 A3014 -110 61 -200 130/11 RMK AO2 T01390067
93915KAEX AEX20161122092010711/22/16 09:20:31  5-MIN KAEX 221520Z 14011KT 10SM BKN040 14/07 A3014 -100 64 -200 140/11 RMK AO2 T01390072
93915KAEX AEX20161122092510711/22/16 09:25:31  5-MIN KAEX 221525Z 14012KT 10SM BKN040 14/07 A3013 -100 61 -100 130/12 RMK AO2 T01440072
93915KAEX AEX20161122093010411/22/16 09:30:31  5-MIN KAEX 221530Z 13011KT 10SM SCT040 15/08 A3013 -100 62 0 130/11 RMK AO2 T01500078
93915KAEX AEX20161122093510411/22/16 09:35:31  5-MIN KAEX 221535Z 13013KT 10SM SCT040 16/07 A3013 -100 57 0 130/13 RMK AO2 T01560072
93915KAEX AEX20161122094010411/22/16 09:40:31  5-MIN KAEX 221540Z 13011KT 10SM FEW040 16/08 A3013 -100 59 0 130/11 RMK AO2 T01560078
93915KAEX AEX20161122094510611/22/16 09:45:31  5-MIN KAEX 221545Z 13010KT 10SM FEW040 17/08 A3013 -100 55 100 120/10 RMK AO2 T01670078
93915KAEX AEX20161122095011311/22/16 09:50:31  5-MIN KAEX 221550Z 13010KT 10SM SCT040 17/08 A3013 -100 53 200 120/10 RMK AO2 SLP208 T01720078
93915KAEX AEX20161122095510611/22/16 09:55:31  5-MIN KAEX 221555Z 13010KT 10SM SCT040 17/08 A3013 -100 55 100 120/10 RMK AO2 T01670078
93915KAEX AEX20161122100010611/22/16 10:00:31  5-MIN KAEX 221600Z 12010KT 10SM BKN040 18/08 A3013 -100 52 300 120/10 RMK AO2 T01830083
93915KAEX AEX20161122100510611/22/16 10:05:31  5-MIN KAEX 221605Z 13011KT 10SM BKN040 17/08 A3013 -100 55 200 130/11 RMK AO2 T01720083
93915KAEX AEX20161122101010611/22/16 10:10:31  5-MIN KAEX 221610Z 14014KT 10SM BKN040 18/08 A3013 -100 53 200 140/14 RMK AO2 T01780083
93915KAEX AEX20161122101510611/22/16 10:15:31  5-MIN KAEX 221615Z 13013KT 10SM BKN040 18/08 A3013 -100 52 300 130/13 RMK AO2 T01830083
93915KAEX AEX20161122102010611/22/16 10:20:31  5-MIN KAEX 221620Z 13012KT 10SM SCT040 19/08 A3013 -100 50 400 130/12 RMK AO2 T01890083
93915KAEX AEX20161122102510511/22/16 10:25:31  5-MIN KAEX 221625Z 13011KT 10SM SCT040 19/08 A3013 -90 48 400 130/11 RMK AO2 T01940083
93915KAEX AEX20161122103010511/22/16 10:30:31  5-MIN KAEX 221630Z 15016KT 10SM FEW040 19/09 A3012 -90 50 400 140/16 RMK AO2 T01940089
93915KAEX AEX20161122103510511/22/16 10:35:31  5-MIN KAEX 221635Z 15013KT 10SM FEW040 20/09 A3012 -90 48 500 140/13 RMK AO2 T02000089
93915KAEX AEX20161122104010511/22/16 10:40:31  5-MIN KAEX 221640Z 13011KT 10SM FEW040 20/09 A3012 -90 48 500 130/11 RMK AO2 T02000089
93915KAEX AEX20161122104511111/22/16 10:45:31  5-MIN KAEX 221645Z 14014G19KT 10SM FEW040 20/09 A3012 -80 48 500 140/14G19 RMK AO2 T02000089
93915KAEX AEX20161122105011211/22/16 10:50:31  5-MIN KAEX 221650Z 15013KT 10SM FEW040 20/09 A3012 -80 48 500 150/13 RMK AO2 SLP201 T02000089
93915KAEX AEX20161122105510511/22/16 10:55:31  5-MIN KAEX 221655Z 14013KT 10SM FEW038 20/09 A3011 -80 50 500 140/13 RMK AO2 T02000094
93915KAEX AEX20161122110010511/22/16 11:00:31  5-MIN KAEX 221700Z 14012KT 10SM FEW038 21/09 A3011 -80 48 600 140/12 RMK AO2 T02060094
93915KAEX AEX20161122110510211/22/16 11:05:31  5-MIN KAEX 221705Z 14013KT 10SM CLR 21/09 A3011 -80 48 600 140/13 RMK AO2 T02060094
93915KAEX AEX20161122111010211/22/16 11:10:31  5-MIN KAEX 221710Z 14014KT 10SM CLR 21/09 A3010 -70 48 600 140/14 RMK AO2 T02060094
93915KAEX AEX20161122111510811/22/16 11:15:31  5-MIN KAEX 221715Z 14014G19KT 10SM CLR 21/10 A3010 -70 48 700 140/14G19 RMK AO2 T02110100
93915KAEX AEX20161122112010811/22/16 11:20:31  5-MIN KAEX 221720Z 16015G19KT 10SM CLR 22/11 A3010 -70 49 700 160/15G19 RMK AO2 T02170106
93915KAEX AEX20161122112510211/22/16 11:25:31  5-MIN KAEX 221725Z 14014KT 10SM CLR 22/10 A3010 -60 47 700 140/14 RMK AO2 T02170100
93915KAEX AEX20161122113010211/22/16 11:30:31  5-MIN KAEX 221730Z 15014KT 10SM CLR 22/11 A3009 -60 49 700 150/14 RMK AO2 T02170106
93915KAEX AEX20161122113511511/22/16 11:35:31  5-MIN KAEX 221735Z 15017G23KT 10SM CLR 22/11 A3008 -50 47 800 150/17G23 RMK AO2 PRESFR T02220106
93915KAEX AEX20161122114010811/22/16 11:40:31  5-MIN KAEX 221740Z 15015G23KT 10SM CLR 22/11 A3008 -50 49 800 150/15G23 RMK AO2 T02170106
93915KAEX AEX20161122114510211/22/16 11:45:31  5-MIN KAEX 221745Z 15014KT 10SM CLR 22/11 A3008 -50 47 800 150/14 RMK AO2 T02220106
93915KAEX AEX20161122115012711/22/16 11:50:31  5-MIN KAEX 221750Z 15014KT 10SM CLR 22/11 A3008 -50 49 800 150/14 RMK AO2 SLP189 T02220111 10228 20078 51015
93915KAEX AEX20161122115510811/22/16 11:55:31  5-MIN KAEX 221755Z 15014G21KT 10SM CLR 22/11 A3008 -50 49 800 150/14G21 RMK AO2 T02220111
93915KAEX AEX20161122120010811/22/16 12:00:31  5-MIN KAEX 221800Z 15016G21KT 10SM CLR 22/11 A3007 -50 49 800 150/16G21 RMK AO2 T02220111
93915KAEX AEX20161122120510211/22/16 12:05:31  5-MIN KAEX 221805Z 16014KT 10SM CLR 23/12 A3007 -40 49 900 150/14 RMK AO2 T02280117
93915KAEX AEX20161122121010211/22/16 12:10:31  5-MIN KAEX 221810Z 16014KT 10SM CLR 22/12 A3007 -40 51 800 150/14 RMK AO2 T02220117
93915KAEX AEX20161122121510211/22/16 12:15:31  5-MIN KAEX 221815Z 15014KT 10SM CLR 23/12 A3007 -40 49 900 150/14 RMK AO2 T02280117
93915KAEX AEX20161122122010511/22/16 12:20:31  5-MIN KAEX 221820Z 17013KT 10SM FEW036 23/12 A3007 -40 49 900 160/13 RMK AO2 T02280117
93915KAEX AEX20161122122510611/22/16 12:25:31  5-MIN KAEX 221825Z 16012KT 10SM FEW036 23/12 A3006 -40 49 1000 160/12 RMK AO2 T02330122
93915KAEX AEX20161122123010611/22/16 12:30:31  5-MIN KAEX 221830Z 16014KT 10SM FEW036 23/12 A3006 -30 49 1000 160/14 RMK AO2 T02330122
93915KAEX AEX20161122123511811/22/16 12:35:31  5-MIN KAEX 221835Z 18012G21KT 10SM FEW036 FEW044 23/12 A3006 -30 51 900 180/12G21 RMK AO2 T02280122
93915KAEX AEX20161122124011211/22/16 12:40:31  5-MIN KAEX 221840Z 17012G21KT 10SM SCT040 24/13 A3006 -30 49 1000 160/12G21 RMK AO2 T02390128
93915KAEX AEX20161122124510611/22/16 12:45:31  5-MIN KAEX 221845Z 17012KT 10SM BKN040 24/13 A3006 -30 49 1000 170/12 RMK AO2 T02390128
93915KAEX AEX20161122125011811/22/16 12:50:31  5-MIN KAEX 221850Z 15012G18KT 10SM BKN040 23/12 A3006 -30 51 900 150/12G18 RMK AO2 SLP182 T02280122
93915KAEX AEX20161122125511111/22/16 12:55:31  5-MIN KAEX 221855Z 15014G20KT 10SM BKN040 22/12 A3005 -30 52 800 150/14G20 RMK AO2 T02220122
93915KAEX AEX20161122130011111/22/16 13:00:31  5-MIN KAEX 221900Z 16012G20KT 10SM BKN041 22/12 A3005 -30 52 800 160/12G20 RMK AO2 T02220122
93915KAEX AEX20161122130510511/22/16 13:05:31  5-MIN KAEX 221905Z 16013KT 10SM OVC041 22/12 A3005 -30 52 800 160/13 RMK AO2 T02220122
93915KAEX AEX20161122131010511/22/16 13:10:31  5-MIN KAEX 221910Z 16012KT 10SM OVC041 23/13 A3005 -20 53 900 160/12 RMK AO2 T02280128
93915KAEX AEX20161122131511111/22/16 13:15:31  5-MIN KAEX 221915Z 16013G19KT 10SM BKN040 23/13 A3005 -20 53 900 150/13G19 RMK AO2 T02280128
93915KAEX AEX20161122132010511/22/16 13:20:31  5-MIN KAEX 221920Z 16014KT 10SM BKN040 23/13 A3005 -20 53 900 160/14 RMK AO2 T02280128
93915KAEX AEX20161122132510611/22/16 13:25:31  5-MIN KAEX 221925Z 17011KT 10SM BKN040 24/13 A3004 -20 47 1100 170/11 RMK AO2 T02440128
93915KAEX AEX20161122133011211/22/16 13:30:31  5-MIN KAEX 221930Z 16015G18KT 10SM BKN040 24/13 A3004 -10 47 1100 150/15G18 RMK AO2 T02440128
93915KAEX AEX20161122133511211/22/16 13:35:31  5-MIN KAEX 221935Z 17012G18KT 10SM BKN042 24/13 A3004 -10 49 1000 170/12G18 RMK AO2 T02390128
93915KAEX AEX20161122134010611/22/16 13:40:31  5-MIN KAEX 221940Z 19012KT 10SM BKN042 24/13 A3004 -20 49 1000 180/12 RMK AO2 T02390128
93915KAEX AEX20161122134510611/22/16 13:45:31  5-MIN KAEX 221945Z 18012KT 10SM OVC042 24/13 A3004 -20 49 1000 170/12 RMK AO2 T02390128
93915KAEX AEX20161122135011311/22/16 13:50:31  5-MIN KAEX 221950Z 16012KT 10SM OVC042 23/13 A3004 -10 51 1000 160/12 RMK AO2 SLP176 T02330128
93915KAEX AEX20161122135510611/22/16 13:55:31  5-MIN KAEX 221955Z 16011KT 10SM OVC042 23/13 A3004 -10 51 1000 160/11 RMK AO2 T02330128
93915KAEX AEX20161122140010611/22/16 14:00:31  5-MIN KAEX 222000Z 16013KT 10SM OVC042 23/13 A3004 -10 51 1000 160/13 RMK AO2 T02330128
93915KAEX AEX20161122140510511/22/16 14:05:31  5-MIN KAEX 222005Z 16013KT 10SM OVC042 23/13 A3004 -10 53 900 160/13 RMK AO2 T02280128
93915KAEX AEX20161122141010511/22/16 14:10:31  5-MIN KAEX 222010Z 17011KT 10SM OVC041 23/13 A3004 -10 53 900 170/11 RMK AO2 T02280128
93915KAEX AEX20161122141510611/22/16 14:15:31  5-MIN KAEX 222015Z 18013KT 10SM OVC041 23/13 A3003 -10 53 1000 170/13 RMK AO2 T02330133
93915KAEX AEX20161122142010611/22/16 14:20:31  5-MIN KAEX 222020Z 17009KT 10SM OVC043 23/13 A3003 -10 53 1000 170/09 RMK AO2 T02330133
93915KAEX AEX20161122142510511/22/16 14:25:31  5-MIN KAEX 222025Z 16012KT 10SM OVC043 23/13 A3003 -10 55 900 160/12 RMK AO2 T02280133
93915KAEX AEX20161122143010611/22/16 14:30:31  5-MIN KAEX 222030Z 17011KT 10SM OVC043 23/13 A3003 -10 53 1000 170/11 RMK AO2 T02330133
93915KAEX AEX20161122143510511/22/16 14:35:31  5-MIN KAEX 222035Z 17011KT 10SM OVC043 23/13 A3003 -10 55 900 170/11 RMK AO2 T02280133
93915KAEX AEX20161122144010511/22/16 14:40:31  5-MIN KAEX 222040Z 16015KT 10SM OVC045 23/13 A3003 -10 55 900 160/15 RMK AO2 T02280133
93915KAEX AEX20161122144510311/22/16 14:45:31  5-MIN KAEX 222045Z 17012KT 10SM OVC047 23/13 A3003 0 55 900 170/12 RMK AO2 T02280133
93915KAEX AEX20161122145011711/22/16 14:50:31  5-MIN KAEX 222050Z 17013KT 10SM OVC047 23/13 A3003 0 53 1000 170/13 RMK AO2 SLP171 T02330133 58020
93915KAEX AEX20161122145511011/22/16 14:55:31  5-MIN KAEX 222055Z 18013G18KT 10SM BKN047 23/13 A3003 0 53 1000 180/13G18 RMK AO2 T02330133
93915KAEX AEX20161122150010411/22/16 15:00:31  5-MIN KAEX 222100Z 17014KT 10SM BKN047 24/13 A3002 0 51 1100 170/14 RMK AO2 T02390133
93915KAEX AEX20161122150510411/22/16 15:05:31  5-MIN KAEX 222105Z 19012KT 10SM SCT049 24/13 A3002 0 51 1100 190/12 RMK AO2 T02390133
93915KAEX AEX20161122151011111/22/16 15:10:31  5-MIN KAEX 222110Z 18012KT 10SM FEW041 SCT049 24/13 A3003 0 51 1100 180/12 RMK AO2 T02390133
93915KAEX AEX20161122151511111/22/16 15:15:31  5-MIN KAEX 222115Z 16013KT 10SM FEW041 SCT048 24/13 A3003 0 51 1100 160/13 RMK AO2 T02390133
93915KAEX AEX20161122152011311/22/16 15:20:31  5-MIN KAEX 222120Z 17011KT 10SM FEW041 FEW049 24/13 A3003 -10 51 1100 170/11 RMK AO2 T02390133
93915KAEX AEX20161122152510611/22/16 15:25:31  5-MIN KAEX 222125Z 17010KT 10SM FEW041 23/13 A3003 -10 53 1000 170/10 RMK AO2 T02330133
93915KAEX AEX20161122153010511/22/16 15:30:31  5-MIN KAEX 222130Z 16011KT 10SM FEW041 23/13 A3003 -10 55 900 160/11 RMK AO2 T02280133
93915KAEX AEX20161122153510511/22/16 15:35:31  5-MIN KAEX 222135Z 16012KT 10SM FEW041 23/13 A3003 -10 55 900 160/12 RMK AO2 T02280133
93915KAEX AEX20161122154011211/22/16 15:40:31  5-MIN KAEX 222140Z 15014KT 10SM FEW041 FEW050 23/13 A3003 -10 55 900 150/14 RMK AO2 T02280133
93915KAEX AEX20161122154511511/22/16 15:45:31  5-MIN KAEX 222145Z AUTO 16012KT 10SM FEW041 FEW050 23/13 A3003 0 55 900 160/12 RMK AO2 T02280133
93915KAEX AEX20161122155011511/22/16 15:50:31  5-MIN KAEX 222150Z AUTO 16013KT 10SM SCT046 23/13 A3003 0 55 900 160/13 RMK AO2 SLP172 T02280133
93915KAEX AEX20161122155510911/22/16 15:55:31  5-MIN KAEX 222155Z AUTO 16014KT 10SM SCT046 23/13 A3003 0 53 1000 160/14 RMK AO2 T02330133
93915KAEX AEX20161122160010811/22/16 16:00:31  5-MIN KAEX 222200Z AUTO 16013KT 10SM BKN047 23/13 A3003 0 55 900 160/13 RMK AO2 T02280133
93915KAEX AEX20161122160510811/22/16 16:05:31  5-MIN KAEX 222205Z AUTO 16013KT 10SM SCT047 23/13 A3003 0 55 900 160/13 RMK AO2 T02280133
93915KAEX AEX20161122161010811/22/16 16:10:31  5-MIN KAEX 222210Z AUTO 16010KT 10SM BKN047 23/13 A3003 0 55 900 160/10 RMK AO2 T02280133
93915KAEX AEX20161122161511011/22/16 16:15:31  5-MIN KAEX 222215Z AUTO 15012KT 10SM BKN047 22/13 A3003 -10 56 900 150/12 RMK AO2 T02220133
93915KAEX AEX20161122162010811/22/16 16:20:31  5-MIN KAEX 222220Z AUTO 16013KT 10SM SCT049 22/13 A3003 0 56 900 150/13 RMK AO2 T02220133
93915KAEX AEX20161122162511011/22/16 16:25:31  5-MIN KAEX 222225Z AUTO 16012KT 10SM SCT049 22/13 A3003 -10 56 900 160/12 RMK AO2 T02220133
93915KAEX AEX20161122163011011/22/16 16:30:31  5-MIN KAEX 222230Z AUTO 15010KT 10SM SCT049 22/13 A3003 -10 58 800 150/10 RMK AO2 T02170133
93915KAEX AEX20161122163511011/22/16 16:35:31  5-MIN KAEX 222235Z AUTO 15009KT 10SM SCT049 22/13 A3003 -10 58 800 150/09 RMK AO2 T02170133
93915KAEX AEX20161122164011011/22/16 16:40:31  5-MIN KAEX 222240Z AUTO 15009KT 10SM SCT049 22/13 A3003 -10 58 800 150/09 RMK AO2 T02170133
93915KAEX AEX20161122164511011/22/16 16:45:31  5-MIN KAEX 222245Z AUTO 15010KT 10SM SCT050 21/13 A3003 -10 61 700 150/10 RMK AO2 T02110133
93915KAEX AEX20161122165011711/22/16 16:50:31  5-MIN KAEX 222250Z AUTO 15010KT 10SM BKN048 22/13 A3003 -10 58 800 150/10 RMK AO2 SLP174 T02170133
93915KAEX AEX20161122165511011/22/16 16:55:31  5-MIN KAEX 222255Z AUTO 15009KT 10SM BKN048 22/13 A3003 -10 58 800 150/09 RMK AO2 T02170133
93915KAEX AEX20161122170011011/22/16 17:00:31  5-MIN KAEX 222300Z AUTO 15009KT 10SM BKN048 21/13 A3003 -10 61 700 150/09 RMK AO2 T02110133
93915KAEX AEX20161122170511011/22/16 17:05:31  5-MIN KAEX 222305Z AUTO 15009KT 10SM SCT048 21/13 A3003 -10 63 700 150/09 RMK AO2 T02060133
93915KAEX AEX20161122171011011/22/16 17:10:31  5-MIN KAEX 222310Z AUTO 15010KT 10SM SCT046 21/13 A3003 -10 63 700 150/10 RMK AO2 T02060133
93915KAEX AEX20161122171511011/22/16 17:15:31  5-MIN KAEX 222315Z AUTO 15009KT 10SM SCT046 21/13 A3003 -10 63 700 150/09 RMK AO2 T02060133
93915KAEX AEX20161122172011011/22/16 17:20:31  5-MIN KAEX 222320Z AUTO 15010KT 10SM BKN046 21/13 A3004 -10 63 700 140/10 RMK AO2 T02060133
93915KAEX AEX20161122172511011/22/16 17:25:31  5-MIN KAEX 222325Z AUTO 14009KT 10SM BKN046 21/13 A3004 -10 63 700 140/09 RMK AO2 T02060133
93915KAEX AEX20161122173011011/22/16 17:30:31  5-MIN KAEX 222330Z AUTO 14009KT 10SM SCT045 21/13 A3004 -10 63 700 140/09 RMK AO2 T02060133
93915KAEX AEX20161122173511011/22/16 17:35:31  5-MIN KAEX 222335Z AUTO 15009KT 10SM SCT045 21/13 A3004 -10 63 700 140/09 RMK AO2 T02060133
93915KAEX AEX20161122174011011/22/16 17:40:31  5-MIN KAEX 222340Z AUTO 15009KT 10SM SCT045 20/13 A3004 -20 65 600 150/09 RMK AO2 T02000133
93915KAEX AEX20161122174511011/22/16 17:45:31  5-MIN KAEX 222345Z AUTO 15008KT 10SM FEW045 20/13 A3004 -20 65 600 150/08 RMK AO2 T02000133
93915KAEX AEX20161122175013511/22/16 17:50:31  5-MIN KAEX 222350Z AUTO 15008KT 10SM FEW045 20/13 A3004 -20 65 600 150/08 RMK AO2 SLP177 T02000133 10250 20200 56018
93915KAEX AEX20161122175510711/22/16 17:55:31  5-MIN KAEX 222355Z AUTO 15007KT 10SM CLR 19/13 A3005 -20 67 500 150/07 RMK AO2 T01940133
93915KAEX AEX20161122180010711/22/16 18:00:31  5-MIN KAEX 230000Z AUTO 16007KT 10SM CLR 19/13 A3005 -20 67 500 160/07 RMK AO2 T01940133
93915KAEX AEX20161122180510611/22/16 18:05:31  5-MIN KAEX 230005Z AUTO 16007KT 9SM CLR 19/13 A3005 -30 67 500 160/07 RMK AO2 T01940133
93915KAEX AEX20161122181010611/22/16 18:10:31  5-MIN KAEX 230010Z AUTO 16007KT 9SM CLR 19/13 A3005 -30 70 500 150/07 RMK AO2 T01890133
93915KAEX AEX20161122181510711/22/16 18:15:31  5-MIN KAEX 230015Z AUTO 15008KT 10SM CLR 19/13 A3005 -30 70 500 150/08 RMK AO2 T01890133
93915KAEX AEX20161122182010211/22/16 18:20:31  5-MIN KAEX 230020Z 15008KT 10SM CLR 19/13 A3005 -30 70 500 150/08 RMK AO2 T01890133
93915KAEX AEX20161122182510211/22/16 18:25:31  5-MIN KAEX 230025Z 15008KT 10SM CLR 19/13 A3005 -30 70 500 150/08 RMK AO2 T01890133
93915KAEX AEX20161122183010211/22/16 18:30:31  5-MIN KAEX 230030Z 15007KT 10SM CLR 19/13 A3005 -20 70 500 150/07 RMK AO2 T01890133
93915KAEX AEX20161122183510211/22/16 18:35:31  5-MIN KAEX 230035Z 15007KT 10SM CLR 18/13 A3005 -30 72 400 150/07 RMK AO2 T01830133
93915KAEX AEX20161122184010211/22/16 18:40:31  5-MIN KAEX 230040Z 15006KT 10SM CLR 18/13 A3005 -30 72 400 150/06 RMK AO2 T01830133
93915KAEX AEX20161122184510211/22/16 18:45:31  5-MIN KAEX 230045Z 15006KT 10SM CLR 18/13 A3005 -30 75 300 150/06 RMK AO2 T01780133
93915KAEX AEX20161122185010911/22/16 18:50:31  5-MIN KAEX 230050Z 15006KT 10SM CLR 17/13 A3005 -30 75 300 150/06 RMK AO2 SLP181 T01720128
93915KAEX AEX20161122185510211/22/16 18:55:31  5-MIN KAEX 230055Z 15007KT 10SM CLR 17/13 A3005 -30 75 300 140/07 RMK AO2 T01720128
93915KAEX AEX20161122190010211/22/16 19:00:31  5-MIN KAEX 230100Z 15007KT 10SM CLR 18/13 A3006 -30 75 300 150/07 RMK AO2 T01780133
93915KAEX AEX20161122190510211/22/16 19:05:31  5-MIN KAEX 230105Z 15007KT 10SM CLR 18/13 A3006 -30 75 300 150/07 RMK AO2 T01780133
93915KAEX AEX20161122191010211/22/16 19:10:31  5-MIN KAEX 230110Z 14008KT 10SM CLR 18/13 A3005 -30 75 300 140/08 RMK AO2 T01780133
93915KAEX AEX20161122191510211/22/16 19:15:31  5-MIN KAEX 230115Z 15008KT 10SM CLR 18/13 A3005 -30 75 300 140/08 RMK AO2 T01780133
93915KAEX AEX20161122192010211/22/16 19:20:31  5-MIN KAEX 230120Z 15007KT 10SM CLR 18/13 A3005 -30 75 300 150/07 RMK AO2 T01780133
93915KAEX AEX20161122192510211/22/16 19:25:31  5-MIN KAEX 230125Z 15008KT 10SM CLR 18/13 A3005 -30 75 300 150/08 RMK AO2 T01780133
93915KAEX AEX20161122193010211/22/16 19:30:31  5-MIN KAEX 230130Z 15008KT 10SM CLR 18/13 A3005 -30 75 300 140/08 RMK AO2 T01780133
93915KAEX AEX20161122193510211/22/16 19:35:31  5-MIN KAEX 230135Z 15007KT 10SM CLR 18/13 A3006 -30 75 300 150/07 RMK AO2 T01780133
93915KAEX AEX20161122194010211/22/16 19:40:31  5-MIN KAEX 230140Z 15008KT 10SM CLR 18/13 A3006 -30 75 300 150/08 RMK AO2 T01780133
93915KAEX AEX20161122194510211/22/16 19:45:31  5-MIN KAEX 230145Z 16007KT 10SM CLR 18/13 A3006 -30 72 300 150/07 RMK AO2 T01780128
93915KAEX AEX20161122195010911/22/16 19:50:31  5-MIN KAEX 230150Z 15007KT 10SM CLR 18/13 A3006 -30 72 300 150/07 RMK AO2 SLP182 T01780128
93915KAEX AEX20161122195510211/22/16 19:55:31  5-MIN KAEX 230155Z 15007KT 10SM CLR 18/13 A3006 -30 72 300 150/07 RMK AO2 T01780128
93915KAEX AEX20161122200010211/22/16 20:00:31  5-MIN KAEX 230200Z 15007KT 10SM CLR 18/13 A3006 -40 72 300 150/07 RMK AO2 T01780128
93915KAEX AEX20161122200510211/22/16 20:05:31  5-MIN KAEX 230205Z 15007KT 10SM CLR 17/13 A3006 -40 75 300 150/07 RMK AO2 T01720128
93915KAEX AEX20161122201010211/22/16 20:10:31  5-MIN KAEX 230210Z 15007KT 10SM CLR 17/13 A3007 -40 75 200 150/07 RMK AO2 T01720128
93915KAEX AEX20161122201510211/22/16 20:15:31  5-MIN KAEX 230215Z 15008KT 10SM CLR 17/13 A3007 -40 75 200 140/08 RMK AO2 T01720128
93915KAEX AEX20161122202010211/22/16 20:20:31  5-MIN KAEX 230220Z 14008KT 10SM CLR 18/13 A3007 -40 75 300 140/08 RMK AO2 T01780133
93915KAEX AEX20161122202510211/22/16 20:25:31  5-MIN KAEX 230225Z 14008KT 10SM CLR 18/13 A3007 -40 75 300 140/08 RMK AO2 T01780133
93915KAEX AEX20161122203010211/22/16 20:30:31  5-MIN KAEX 230230Z 13008KT 10SM CLR 17/13 A3006 -30 78 300 130/08 RMK AO2 T01720133
93915KAEX AEX20161122203510211/22/16 20:35:31  5-MIN KAEX 230235Z 13008KT 10SM CLR 17/13 A3006 -40 75 300 130/08 RMK AO2 T01720128
93915KAEX AEX20161122204010211/22/16 20:40:31  5-MIN KAEX 230240Z 14008KT 10SM CLR 17/13 A3006 -40 75 300 130/08 RMK AO2 T01720128
93915KAEX AEX20161122204510211/22/16 20:45:31  5-MIN KAEX 230245Z 14009KT 10SM CLR 17/13 A3006 -30 75 300 140/09 RMK AO2 T01720128
93915KAEX AEX20161122205011511/22/16 20:50:31  5-MIN KAEX 230250Z 14010KT 10SM CLR 17/13 A3006 -40 75 300 140/10 RMK AO2 SLP184 T01720128 53006
93915KAEX AEX20161122205510211/22/16 20:55:31  5-MIN KAEX 230255Z 14010KT 10SM CLR 18/13 A3006 -30 72 300 140/10 RMK AO2 T01780128
93915KAEX AEX20161122210010211/22/16 21:00:31  5-MIN KAEX 230300Z 15009KT 10SM CLR 18/13 A3006 -30 72 300 150/09 RMK AO2 T01780128
93915KAEX AEX20161122210510211/22/16 21:05:31  5-MIN KAEX 230305Z 15008KT 10SM CLR 18/13 A3006 -40 72 300 140/08 RMK AO2 T01780128
93915KAEX AEX20161122211010211/22/16 21:10:31  5-MIN KAEX 230310Z 14011KT 10SM CLR 18/13 A3006 -30 72 300 140/11 RMK AO2 T01780128
93915KAEX AEX20161122211510511/22/16 21:15:31  5-MIN KAEX 230315Z 15010KT 10SM FEW049 18/13 A3006 -40 72 300 140/10 RMK AO2 T01780128
93915KAEX AEX20161122212010511/22/16 21:20:31  5-MIN KAEX 230320Z 15008KT 10SM SCT049 18/13 A3006 -40 72 300 140/08 RMK AO2 T01780128
93915KAEX AEX20161122212510511/22/16 21:25:31  5-MIN KAEX 230325Z 14007KT 10SM BKN049 18/13 A3006 -30 75 300 140/07 RMK AO2 T01780133
93915KAEX AEX20161122213010511/22/16 21:30:31  5-MIN KAEX 230330Z 14008KT 10SM BKN050 17/13 A3006 -40 75 300 130/08 RMK AO2 T01720128
93915KAEX AEX20161122213510511/22/16 21:35:31  5-MIN KAEX 230335Z 14011KT 10SM BKN050 17/13 A3006 -30 75 300 140/11 RMK AO2 T01720128
93915KAEX AEX20161122214010511/22/16 21:40:31  5-MIN KAEX 230340Z 15010KT 10SM BKN050 17/13 A3007 -40 75 200 150/10 RMK AO2 T01720128
93915KAEX AEX20161122214510511/22/16 21:45:31  5-MIN KAEX 230345Z 15011KT 10SM BKN050 18/13 A3007 -40 72 300 140/11 RMK AO2 T01780128
93915KAEX AEX20161122215011211/22/16 21:50:31  5-MIN KAEX 230350Z 14013KT 10SM BKN050 18/13 A3007 -40 72 300 140/13 RMK AO2 SLP184 T01780128
93915KAEX AEX20161122215510511/22/16 21:55:31  5-MIN KAEX 230355Z 14013KT 10SM BKN055 18/13 A3006 -30 72 300 140/13 RMK AO2 T01780128
93915KAEX AEX20161122220010511/22/16 22:00:31  5-MIN KAEX 230400Z 14012KT 10SM BKN050 18/13 A3006 -30 72 300 140/12 RMK AO2 T01780128
93915KAEX AEX20161122220510511/22/16 22:05:31  5-MIN KAEX 230405Z 14012KT 10SM OVC050 18/13 A3006 -40 72 300 140/12 RMK AO2 T01780128
93915KAEX AEX20161122221010511/22/16 22:10:31  5-MIN KAEX 230410Z 14011KT 10SM OVC050 18/13 A3006 -30 72 300 140/11 RMK AO2 T01780128
93915KAEX AEX20161122221510511/22/16 22:15:31  5-MIN KAEX 230415Z 14010KT 10SM BKN050 18/13 A3006 -40 72 300 140/10 RMK AO2 T01780128
93915KAEX AEX20161122222010511/22/16 22:20:31  5-MIN KAEX 230420Z 14009KT 10SM BKN050 17/13 A3006 -40 75 300 140/09 RMK AO2 T01720128
93915KAEX AEX20161122222510511/22/16 22:25:31  5-MIN KAEX 230425Z 13009KT 10SM BKN050 17/13 A3006 -30 75 300 130/09 RMK AO2 T01720128
93915KAEX AEX20161122223010511/22/16 22:30:31  5-MIN KAEX 230430Z 14010KT 10SM SCT050 17/13 A3006 -30 75 300 130/10 RMK AO2 T01720128
93915KAEX AEX20161122223510511/22/16 22:35:31  5-MIN KAEX 230435Z 14012KT 10SM BKN055 17/13 A3006 -30 75 300 140/12 RMK AO2 T01720128
93915KAEX AEX20161122224010511/22/16 22:40:31  5-MIN KAEX 230440Z 14013KT 10SM BKN055 17/13 A3006 -30 75 300 140/13 RMK AO2 T01720128
93915KAEX AEX20161122224510511/22/16 22:45:31  5-MIN KAEX 230445Z 14012KT 10SM SCT055 17/13 A3006 -30 77 200 140/12 RMK AO2 T01670128
93915KAEX AEX20161122225011211/22/16 22:50:31  5-MIN KAEX 230450Z 14011KT 10SM FEW055 17/13 A3006 -30 77 200 140/11 RMK AO2 SLP182 T01670128
93915KAEX AEX20161122225510511/22/16 22:55:31  5-MIN KAEX 230455Z 14012KT 10SM FEW055 17/13 A3005 -30 77 200 140/12 RMK AO2 T01670128
93915KAEX AEX20161122230010511/22/16 23:00:31  5-MIN KAEX 230500Z 14011KT 10SM FEW055 17/13 A3006 -30 77 200 140/11 RMK AO2 T01670128
93915KAEX AEX20161122230510211/22/16 23:05:31  5-MIN KAEX 230505Z 14011KT 10SM CLR 17/13 A3006 -30 77 200 140/11 RMK AO2 T01670128
93915KAEX AEX20161122231010211/22/16 23:10:31  5-MIN KAEX 230510Z 14012KT 10SM CLR 17/13 A3006 -30 77 200 140/12 RMK AO2 T01670128
93915KAEX AEX20161122231510211/22/16 23:15:31  5-MIN KAEX 230515Z 15012KT 10SM CLR 17/13 A3006 -30 77 200 140/12 RMK AO2 T01670128
93915KAEX AEX20161122232010211/22/16 23:20:31  5-MIN KAEX 230520Z 14012KT 10SM CLR 17/13 A3006 -30 77 200 140/12 RMK AO2 T01670128
93915KAEX AEX20161122232510211/22/16 23:25:31  5-MIN KAEX 230525Z 14011KT 10SM CLR 17/13 A3006 -30 77 200 140/11 RMK AO2 T01670128
93915KAEX AEX20161122233010211/22/16 23:30:31  5-MIN KAEX 230530Z 14012KT 10SM CLR 17/13 A3006 -30 77 200 140/12 RMK AO2 T01670128
93915KAEX AEX20161122233510211/22/16 23:35:31  5-MIN KAEX 230535Z 14011KT 10SM CLR 17/13 A3006 -30 77 200 140/11 RMK AO2 T01670128
93915KAEX AEX20161122234010211/22/16 23:40:31  5-MIN KAEX 230540Z 14011KT 10SM CLR 17/13 A3006 -30 77 200 140/11 RMK AO2 T01670128
93915KAEX AEX20161122234510211/22/16 23:45:31  5-MIN KAEX 230545Z 14011KT 10SM CLR 16/13 A3006 -30 80 100 140/11 RMK AO2 T01610128
93915KAEX AEX20161122235013711/22/16 23:50:31  5-MIN KAEX 230550Z 14010KT 10SM CLR 16/13 A3006 -30 80 100 140/10 RMK AO2 SLP182 T01610128 10194 20161 402500072 51006
93915KAEX AEX20161122235510211/22/16 23:55:31  5-MIN KAEX 230555Z 15010KT 10SM CLR 16/13 A3006 -30 80 100 140/10 RMK AO2 T01610128
93915KAEX AEX20161123000010211/23/16 00:00:31  5-MIN KAEX 230600Z 15008KT 10SM CLR 16/13 A3006 -40 80 100 140/08 RMK AO2 T01610128
93915KAEX AEX20161123000510211/23/16 00:05:31  5-MIN KAEX 230605Z 15009KT 10SM CLR 16/13 A3006 -30 80 100 150/09 RMK AO2 T01610128
93915KAEX AEX20161123001010211/23/16 00:10:31  5-MIN KAEX 230610Z 15009KT 10SM CLR 16/13 A3006 -30 80 100 150/09 RMK AO2 T01610128
93915KAEX AEX20161123001510511/23/16 00:15:31  5-MIN KAEX 230615Z 15008KT 10SM FEW050 16/13 A3006 -30 80 100 150/08 RMK AO2 T01610128
93915KAEX AEX20161123002010511/23/16 00:20:31  5-MIN KAEX 230620Z 15008KT 10SM FEW050 16/13 A3006 -30 83 100 140/08 RMK AO2 T01560128
93915KAEX AEX20161123002510511/23/16 00:25:31  5-MIN KAEX 230625Z 15009KT 10SM FEW050 16/13 A3005 -30 83 100 140/09 RMK AO2 T01560128
93915KAEX AEX20161123003010511/23/16 00:30:31  5-MIN KAEX 230630Z 14008KT 10SM FEW050 16/13 A3005 -20 83 100 140/08 RMK AO2 T01560128
93915KAEX AEX20161123003510511/23/16 00:35:31  5-MIN KAEX 230635Z 14007KT 10SM FEW050 16/13 A3005 -20 83 100 140/07 RMK AO2 T01560128
93915KAEX AEX20161123004010511/23/16 00:40:31  5-MIN KAEX 230640Z 14008KT 10SM FEW050 16/13 A3005 -20 83 100 140/08 RMK AO2 T01560128
93915KAEX AEX20161123004510211/23/16 00:45:31  5-MIN KAEX 230645Z 14007KT 10SM CLR 16/13 A3004 -20 83 100 140/07 RMK AO2 T01560128
93915KAEX AEX20161123005010911/23/16 00:50:31  5-MIN KAEX 230650Z 14009KT 10SM CLR 16/13 A3004 -10 83 100 140/09 RMK AO2 SLP176 T01560128
93915KAEX AEX20161123005510211/23/16 00:55:31  5-MIN KAEX 230655Z 14009KT 10SM CLR 16/13 A3004 -10 83 100 140/09 RMK AO2 T01560128
93915KAEX AEX20161123010010211/23/16 01:00:31  5-MIN KAEX 230700Z 14010KT 10SM CLR 16/13 A3003 -10 83 100 130/10 RMK AO2 T01560128
93915KAEX AEX20161123010510011/23/16 01:05:31  5-MIN KAEX 230705Z 14009KT 10SM CLR 16/13 A3003 0 83 100 140/09 RMK AO2 T01560128
93915KAEX AEX20161123011010011/23/16 01:10:31  5-MIN KAEX 230710Z 14010KT 10SM CLR 16/13 A3003 0 83 100 140/10 RMK AO2 T01560128
93915KAEX AEX20161123011510011/23/16 01:15:31  5-MIN KAEX 230715Z 14010KT 10SM CLR 16/13 A3003 0 83 100 140/10 RMK AO2 T01560128
93915KAEX AEX20161123012010011/23/16 01:20:31  5-MIN KAEX 230720Z 14010KT 10SM CLR 16/13 A3002 0 83 100 140/10 RMK AO2 T01560128
93915KAEX AEX20161123012510011/23/16 01:25:31  5-MIN KAEX 230725Z 14012KT 10SM CLR 16/13 A3001 0 83 100 140/12 RMK AO2 T01560128
93915KAEX AEX20161123013010111/23/16 01:30:31  5-MIN KAEX 230730Z 14011KT 10SM CLR 16/13 A3001 10 83 100 140/11 RMK AO2 T01560128
93915KAEX AEX20161123013510111/23/16 01:35:31  5-MIN KAEX 230735Z 14011KT 10SM CLR 16/13 A3001 10 83 100 130/11 RMK AO2 T01560128
93915KAEX AEX20161123014010111/23/16 01:40:31  5-MIN KAEX 230740Z 14010KT 10SM CLR 16/13 A3001 10 83 100 140/10 RMK AO2 T01560128
93915KAEX AEX20161123014510111/23/16 01:45:31  5-MIN KAEX 230745Z 14010KT 10SM CLR 16/13 A3001 10 83 100 140/10 RMK AO2 T01560128
93915KAEX AEX20161123015010811/23/16 01:50:31  5-MIN KAEX 230750Z 14011KT 10SM CLR 16/13 A3000 20 83 100 140/11 RMK AO2 SLP163 T01560128
93915KAEX AEX20161123015510111/23/16 01:55:31  5-MIN KAEX 230755Z 14012KT 10SM CLR 16/13 A3000 20 83 100 140/12 RMK AO2 T01560128
93915KAEX AEX20161123020010111/23/16 02:00:31  5-MIN KAEX 230800Z 14010KT 10SM CLR 16/13 A3000 20 83 100 140/10 RMK AO2 T01560128
93915KAEX AEX20161123020510111/23/16 02:05:31  5-MIN KAEX 230805Z 14011KT 10SM CLR 15/13 A3000 20 86 100 140/11 RMK AO2 T01500128
93915KAEX AEX20161123021010111/23/16 02:10:31  5-MIN KAEX 230810Z 14010KT 10SM CLR 15/13 A2999 20 86 100 130/10 RMK AO2 T01500128
93915KAEX AEX20161123021510111/23/16 02:15:31  5-MIN KAEX 230815Z 14010KT 10SM CLR 15/13 A2999 20 86 100 130/10 RMK AO2 T01500128
93915KAEX AEX20161123022010111/23/16 02:20:31  5-MIN KAEX 230820Z 14008KT 10SM CLR 15/13 A3000 20 86 100 140/08 RMK AO2 T01500128
93915KAEX AEX20161123022510111/23/16 02:25:31  5-MIN KAEX 230825Z 14009KT 10SM CLR 15/13 A3000 20 86 100 130/09 RMK AO2 T01500128
93915KAEX AEX20161123023010111/23/16 02:30:31  5-MIN KAEX 230830Z 13008KT 10SM CLR 15/13 A2999 20 86 100 130/08 RMK AO2 T01500128
93915KAEX AEX20161123023510111/23/16 02:35:31  5-MIN KAEX 230835Z 13007KT 10SM CLR 15/13 A2999 20 86 100 130/07 RMK AO2 T01500128
93915KAEX AEX20161123024009911/23/16 02:40:31  5-MIN KAEX 230840Z 13008KT 10SM CLR 14/13 A2999 20 90 0 130/08 RMK AO2 T01440128
93915KAEX AEX20161123024509911/23/16 02:45:31  5-MIN KAEX 230845Z 13008KT 10SM CLR 14/13 A2999 20 90 0 130/08 RMK AO2 T01440128
93915KAEX AEX20161123025011411/23/16 02:50:31  5-MIN KAEX 230850Z 13008KT 10SM CLR 15/13 A3000 20 86 100 130/08 RMK AO2 SLP161 T01500128 55001
93915KAEX AEX20161123025509911/23/16 02:55:31  5-MIN KAEX 230855Z 13007KT 10SM CLR 14/13 A3000 20 90 0 130/07 RMK AO2 T01440128
93915KAEX AEX20161123030009911/23/16 03:00:31  5-MIN KAEX 230900Z 13006KT 10SM CLR 14/13 A3000 20 90 0 130/06 RMK AO2 T01440128
93915KAEX AEX20161123030509911/23/16 03:05:31  5-MIN KAEX 230905Z 13005KT 10SM CLR 14/13 A3000 10 90 0 130/05 RMK AO2 T01440128
93915KAEX AEX20161123031009911/23/16 03:10:31  5-MIN KAEX 230910Z 13005KT 10SM CLR 14/12 A3001 10 90 0 130/05 RMK AO2 T01390122
93915KAEX AEX20161123031509911/23/16 03:15:31  5-MIN KAEX 230915Z 13005KT 10SM CLR 14/12 A3001 10 90 0 130/05 RMK AO2 T01390122
93915KAEX AEX20161123032009911/23/16 03:20:31  5-MIN KAEX 230920Z 13006KT 10SM CLR 14/12 A3001 10 90 0 130/06 RMK AO2 T01390122
93915KAEX AEX20161123032509911/23/16 03:25:31  5-MIN KAEX 230925Z 12006KT 10SM CLR 14/12 A3001 10 90 0 120/06 RMK AO2 T01390122
93915KAEX AEX20161123033009911/23/16 03:30:31  5-MIN KAEX 230930Z 12006KT 10SM CLR 14/12 A3001 10 90 0 120/06 RMK AO2 T01390122
93915KAEX AEX20161123033509911/23/16 03:35:31  5-MIN KAEX 230935Z 13005KT 10SM CLR 14/12 A3001 10 90 0 130/05 RMK AO2 T01390122
93915KAEX AEX20161123034009811/23/16 03:40:31  5-MIN KAEX 230940Z 13005KT 10SM CLR 14/12 A3001 0 90 0 130/05 RMK AO2 T01390122
93915KAEX AEX20161123034509911/23/16 03:45:31  5-MIN KAEX 230945Z 13005KT 10SM CLR 14/12 A3001 10 90 0 130/05 RMK AO2 T01390122
93915KAEX AEX20161123035010611/23/16 03:50:31  5-MIN KAEX 230950Z 14005KT 10SM CLR 14/12 A3001 10 90 0 130/05 RMK AO2 SLP167 T01390122
93915KAEX AEX20161123035509911/23/16 03:55:31  5-MIN KAEX 230955Z 14005KT 10SM CLR 14/12 A3001 10 90 0 140/05 RMK AO2 T01390122
93915KAEX AEX20161123040010211/23/16 04:00:31  5-MIN KAEX 231000Z 14006KT 10SM CLR 13/12 A3001 10 93 -100 140/06 RMK AO2 T01330122
93915KAEX AEX20161123040510211/23/16 04:05:31  5-MIN KAEX 231005Z 14007KT 10SM CLR 13/12 A3001 10 93 -100 140/07 RMK AO2 T01330122
93915KAEX AEX20161123041009911/23/16 04:10:31  5-MIN KAEX 231010Z 15007KT 10SM CLR 14/12 A3001 10 90 0 150/07 RMK AO2 T01390122
93915KAEX AEX20161123041509911/23/16 04:15:31  5-MIN KAEX 231015Z 15007KT 10SM CLR 14/13 A3001 10 93 0 140/07 RMK AO2 T01390128
93915KAEX AEX20161123042009911/23/16 04:20:31  5-MIN KAEX 231020Z 15007KT 10SM CLR 14/13 A3001 10 93 0 150/07 RMK AO2 T01390128
93915KAEX AEX20161123042509911/23/16 04:25:31  5-MIN KAEX 231025Z 15007KT 10SM CLR 15/13 A3001 10 90 0 150/07 RMK AO2 T01500133
93915KAEX AEX20161123043009911/23/16 04:30:31  5-MIN KAEX 231030Z 16007KT 10SM CLR 15/13 A3001 10 90 0 150/07 RMK AO2 T01500133
93915KAEX AEX20161123043510111/23/16 04:35:31  5-MIN KAEX 231035Z 16008KT 10SM CLR 16/13 A3001 10 86 100 160/08 RMK AO2 T01560133
93915KAEX AEX20161123044010111/23/16 04:40:31  5-MIN KAEX 231040Z 16008KT 10SM CLR 16/13 A3001 10 86 100 160/08 RMK AO2 T01560133
93915KAEX AEX20161123044510011/23/16 04:45:31  5-MIN KAEX 231045Z 16007KT 10SM CLR 16/13 A3001 0 86 100 160/07 RMK AO2 T01560133
93915KAEX AEX20161123045010711/23/16 04:50:31  5-MIN KAEX 231050Z 16008KT 10SM CLR 16/13 A3001 0 86 100 160/08 RMK AO2 SLP167 T01560133
93915KAEX AEX20161123045510011/23/16 04:55:31  5-MIN KAEX 231055Z 16008KT 10SM CLR 16/13 A3002 0 83 200 160/08 RMK AO2 T01610133
93915KAEX AEX20161123050010011/23/16 05:00:31  5-MIN KAEX 231100Z 16009KT 10SM CLR 16/14 A3001 0 86 200 160/09 RMK AO2 T01610139
93915KAEX AEX20161123050510111/23/16 05:05:31  5-MIN KAEX 231105Z 16009KT 10SM CLR 16/14 A3001 10 86 200 160/09 RMK AO2 T01610139
93915KAEX AEX20161123051010111/23/16 05:10:31  5-MIN KAEX 231110Z 16009KT 10SM CLR 16/14 A3001 10 86 200 150/09 RMK AO2 T01610139
93915KAEX AEX20161123051510111/23/16 05:15:31  5-MIN KAEX 231115Z 16009KT 10SM CLR 16/14 A3001 10 90 100 150/09 RMK AO2 T01560139
93915KAEX AEX20161123052010111/23/16 05:20:31  5-MIN KAEX 231120Z 16009KT 10SM CLR 16/14 A3001 10 86 200 160/09 RMK AO2 T01610139
93915KAEX AEX20161123052510111/23/16 05:25:31  5-MIN KAEX 231125Z 16009KT 10SM CLR 16/14 A3001 10 90 100 150/09 RMK AO2 T01560139
93915KAEX AEX20161123053010111/23/16 05:30:31  5-MIN KAEX 231130Z 15009KT 10SM CLR 16/14 A3001 10 90 100 150/09 RMK AO2 T01560139
93915KAEX AEX20161123053511211/23/16 05:35:31  5-MIN KAEX 231135Z 15010KT 10SM CLR 16/14 A3000 10 90 100 150/10 RMK AO2 LTG DSNT W T01560139
93915KAEX AEX20161123054011211/23/16 05:40:31  5-MIN KAEX 231140Z 15011KT 10SM CLR 16/14 A3000 20 86 200 150/11 RMK AO2 LTG DSNT W T01610139
93915KAEX AEX20161123155510211/23/16 15:55:31  5-MIN KAEX 232155Z 23006KT 10SM CLR 22/15 A3005 -20 65 800 230/06 RMK AO2 T02170150
93915KAEX AEX20161123160010211/23/16 16:00:31  5-MIN KAEX 232200Z 20005KT 10SM CLR 22/15 A3005 -20 65 800 200/05 RMK AO2 T02170150
93915KAEX AEX20161123160510211/23/16 16:05:31  5-MIN KAEX 232205Z 20006KT 10SM CLR 22/16 A3005 -20 68 800 200/06 RMK AO2 T02170156
93915KAEX AEX20161123161010211/23/16 16:10:31  5-MIN KAEX 232210Z 21005KT 10SM CLR 21/15 A3005 -20 68 700 210/05 RMK AO2 T02110150
93915KAEX AEX20161123161510211/23/16 16:15:31  5-MIN KAEX 232215Z 22005KT 10SM CLR 21/16 A3005 -20 70 700 220/05 RMK AO2 T02110156
93915KAEX AEX20161123162010211/23/16 16:20:31  5-MIN KAEX 232220Z 22003KT 10SM CLR 21/16 A3005 -20 70 700 220/03 RMK AO2 T02110156
93915KAEX AEX20161123162510211/23/16 16:25:31  5-MIN KAEX 232225Z 23004KT 10SM CLR 21/16 A3005 -20 70 700 220/04 RMK AO2 T02110156
93915KAEX AEX20161123163010211/23/16 16:30:31  5-MIN KAEX 232230Z 22004KT 10SM CLR 21/16 A3005 -30 70 700 220/04 RMK AO2 T02110156
93915KAEX AEX20161123163510211/23/16 16:35:31  5-MIN KAEX 232235Z 22005KT 10SM CLR 21/16 A3005 -30 70 700 220/05 RMK AO2 T02110156
93915KAEX AEX20161123164010211/23/16 16:40:31  5-MIN KAEX 232240Z 22004KT 10SM CLR 21/16 A3005 -30 73 700 220/04 RMK AO2 T02060156
93915KAEX AEX20161123164510511/23/16 16:45:31  5-MIN KAEX 232245Z 22004KT 10SM FEW041 21/16 A3006 -30 73 600 210/04 RMK AO2 T02060156
93915KAEX AEX20161123165011211/23/16 16:50:31  5-MIN KAEX 232250Z 22004KT 10SM SCT041 21/16 A3006 -30 73 600 220/04 RMK AO2 SLP182 T02060156
93915KAEX AEX20161123165511211/23/16 16:55:31  5-MIN KAEX 232255Z 22004KT 10SM FEW033 BKN041 20/16 A3006 -30 75 600 220/04 RMK AO2 T02000156
93915KAEX AEX20161123170011211/23/16 17:00:31  5-MIN KAEX 232300Z 24004KT 10SM SCT033 BKN041 20/16 A3006 -30 75 600 240/04 RMK AO2 T02000156
93915KAEX AEX20161123170511211/23/16 17:05:31  5-MIN KAEX 232305Z 25003KT 10SM BKN033 BKN041 19/17 A3006 -30 84 500 250/03 RMK AO2 T01940167
93915KAEX AEX20161123171011211/23/16 17:10:31  5-MIN KAEX 232310Z 27005KT 10SM BKN033 OVC042 19/17 A3006 -40 84 500 270/05 RMK AO2 T01940167
93915KAEX AEX20161123171511211/23/16 17:15:31  5-MIN KAEX 232315Z 32006KT 10SM BKN032 OVC042 19/17 A3007 -40 84 500 320/06 RMK AO2 T01940167
93915KAEX AEX20161123172010511/23/16 17:20:31  5-MIN KAEX 232320Z 32010KT 10SM OVC034 19/15 A3007 -40 75 500 310/10 RMK AO2 T01940150
93915KAEX AEX20161123172510511/23/16 17:25:31  5-MIN KAEX 232325Z 32010KT 10SM OVC034 19/14 A3008 -50 70 500 320/10 RMK AO2 T01940139
93915KAEX AEX20161123173010511/23/16 17:30:31  5-MIN KAEX 232330Z 32009KT 10SM OVC032 19/14 A3008 -50 72 400 320/09 RMK AO2 T01890139
93915KAEX AEX20161123173510511/23/16 17:35:31  5-MIN KAEX 232335Z 32009KT 10SM BKN032 19/13 A3008 -50 70 400 320/09 RMK AO2 T01890133
93915KAEX AEX20161123174010511/23/16 17:40:31  5-MIN KAEX 232340Z 31008KT 10SM BKN032 18/13 A3008 -50 72 400 310/08 RMK AO2 T01830133
93915KAEX AEX20161123174510511/23/16 17:45:31  5-MIN KAEX 232345Z 31007KT 10SM SCT032 18/13 A3008 -50 72 400 310/07 RMK AO2 T01830133
93915KAEX AEX20161123175013011/23/16 17:50:31  5-MIN KAEX 232350Z 31007KT 10SM SCT032 18/13 A3008 -50 75 300 310/07 RMK AO2 SLP190 T01780133 10217 20172 55004
93915KAEX AEX20161123175510511/23/16 17:55:31  5-MIN KAEX 232355Z 32007KT 10SM SCT031 18/13 A3009 -60 75 300 310/07 RMK AO2 T01780133
93915KAEX AEX20161123180010511/23/16 18:00:31  5-MIN KAEX 240000Z 33006KT 10SM FEW031 17/13 A3009 -60 78 200 320/06 RMK AO2 T01720133
93915KAEX AEX20161123180510511/23/16 18:05:31  5-MIN KAEX 240005Z 34004KT 10SM FEW032 17/13 A3009 -60 78 200 330/04 RMK AO2 T01720133
93915KAEX AEX20161123181010511/23/16 18:10:31  5-MIN KAEX 240010Z 34005KT 10SM FEW032 17/13 A3009 -60 80 200 340/05 RMK AO2 T01670133
93915KAEX AEX20161123181510511/23/16 18:15:31  5-MIN KAEX 240015Z 34005KT 10SM FEW032 17/13 A3010 -70 77 100 340/05 RMK AO2 T01670128
93915KAEX AEX20161123182010511/23/16 18:20:31  5-MIN KAEX 240020Z 34005KT 10SM FEW032 17/13 A3010 -70 77 100 340/05 RMK AO2 T01670128
93915KAEX AEX20161123182510511/23/16 18:25:31  5-MIN KAEX 240025Z 33005KT 10SM SCT034 17/13 A3010 -70 77 100 330/05 RMK AO2 T01670128
93915KAEX AEX20161123183010511/23/16 18:30:31  5-MIN KAEX 240030Z 33004KT 10SM BKN034 17/13 A3010 -70 77 100 330/04 RMK AO2 T01670128
93915KAEX AEX20161123183510511/23/16 18:35:31  5-MIN KAEX 240035Z 33004KT 10SM BKN033 17/13 A3011 -70 77 100 330/04 RMK AO2 T01670128
93915KAEX AEX20161123184010511/23/16 18:40:31  5-MIN KAEX 240040Z 34005KT 10SM BKN033 17/13 A3011 -80 77 100 330/05 RMK AO2 T01670128
93915KAEX AEX20161123184510511/23/16 18:45:31  5-MIN KAEX 240045Z 34005KT 10SM OVC033 17/12 A3011 -80 72 200 330/05 RMK AO2 T01720122
93915KAEX AEX20161123185011911/23/16 18:50:31  5-MIN KAEX 240050Z 34005KT 10SM BKN033 OVC044 17/12 A3011 -80 72 200 340/05 RMK AO2 SLP199 T01720122
93915KAEX AEX20161123185511211/23/16 18:55:31  5-MIN KAEX 240055Z 33005KT 10SM BKN033 BKN044 17/12 A3011 -80 75 100 330/05 RMK AO2 T01670122
93915KAEX AEX20161123190010511/23/16 19:00:31  5-MIN KAEX 240100Z 34004KT 10SM BKN035 16/12 A3011 -80 77 100 340/04 RMK AO2 T01610122
93915KAEX AEX20161123190510511/23/16 19:05:31  5-MIN KAEX 240105Z 35003KT 10SM BKN037 16/12 A3011 -80 75 100 350/03 RMK AO2 T01610117
93915KAEX AEX20161123191010511/23/16 19:10:31  5-MIN KAEX 240110Z 36003KT 10SM BKN037 17/12 A3011 -80 72 100 360/03 RMK AO2 T01670117
93915KAEX AEX20161123191510511/23/16 19:15:31  5-MIN KAEX 240115Z 35003KT 10SM BKN039 16/12 A3012 -80 75 100 350/03 RMK AO2 T01610117
93915KAEX AEX20161123192010511/23/16 19:20:31  5-MIN KAEX 240120Z 35003KT 10SM SCT039 16/12 A3012 -90 75 100 350/03 RMK AO2 T01610117
93915KAEX AEX20161123192510311/23/16 19:25:31  5-MIN KAEX 240125Z 36003KT 10SM SCT037 16/12 A3012 -90 77 0 360/03 RMK AO2 T01560117
93915KAEX AEX20161123193010311/23/16 19:30:31  5-MIN KAEX 240130Z 36005KT 10SM SCT037 15/12 A3012 -90 80 0 360/05 RMK AO2 T01500117
93915KAEX AEX20161123193510311/23/16 19:35:31  5-MIN KAEX 240135Z 36005KT 10SM FEW037 16/11 A3012 -90 74 0 360/05 RMK AO2 T01560111
93915KAEX AEX20161123194010311/23/16 19:40:31  5-MIN KAEX 240140Z 36004KT 10SM FEW037 16/11 A3012 -90 74 0 360/04 RMK AO2 T01560111
93915KAEX AEX20161123194510311/23/16 19:45:31  5-MIN KAEX 240145Z 36004KT 10SM FEW037 16/11 A3012 -90 74 0 360/04 RMK AO2 T01560111
93915KAEX AEX20161123195010711/23/16 19:50:31  5-MIN KAEX 240150Z 35004KT 10SM CLR 16/11 A3012 -90 74 0 350/04 RMK AO2 SLP204 T01560111
93915KAEX AEX20161123195510011/23/16 19:55:31  5-MIN KAEX 240155Z 35005KT 10SM CLR 16/11 A3013 -90 74 0 350/05 RMK AO2 T01560111
93915KAEX AEX20161123200010111/23/16 20:00:31  5-MIN KAEX 240200Z 34005KT 10SM CLR 15/11 A3013 -100 77 0 340/05 RMK AO2 T01500111
93915KAEX AEX20161123200510411/23/16 20:05:31  5-MIN KAEX 240205Z 34004KT 10SM CLR 14/11 A3013 -100 80 -100 340/04 RMK AO2 T01440111
93915KAEX AEX20161123201010411/23/16 20:10:31  5-MIN KAEX 240210Z 34004KT 10SM CLR 14/11 A3013 -100 83 -200 340/04 RMK AO2 T01390111
93915KAEX AEX20161123201510411/23/16 20:15:31  5-MIN KAEX 240215Z 33004KT 10SM CLR 14/11 A3013 -100 80 -200 330/04 RMK AO2 T01390106
93915KAEX AEX20161123202010411/23/16 20:20:31  5-MIN KAEX 240220Z 34004KT 10SM CLR 14/11 A3013 -100 83 -200 330/04 RMK AO2 T01390111
93915KAEX AEX20161123202510411/23/16 20:25:31  5-MIN KAEX 240225Z 35004KT 10SM CLR 14/11 A3014 -100 80 -100 350/04 RMK AO2 T01440111
93915KAEX AEX20161123203010411/23/16 20:30:31  5-MIN KAEX 240230Z 35005KT 10SM CLR 14/11 A3014 -110 80 -100 350/05 RMK AO2 T01440111
93915KAEX AEX20161123203510411/23/16 20:35:31  5-MIN KAEX 240235Z 35004KT 10SM CLR 14/11 A3014 -110 80 -100 350/04 RMK AO2 T01440111
93915KAEX AEX20161123204010411/23/16 20:40:31  5-MIN KAEX 240240Z 35004KT 10SM CLR 14/11 A3014 -110 80 -200 350/04 RMK AO2 T01390106
93915KAEX AEX20161123204510411/23/16 20:45:31  5-MIN KAEX 240245Z 35004KT 10SM CLR 14/11 A3014 -110 80 -200 350/04 RMK AO2 T01390106
93915KAEX AEX20161123205011711/23/16 20:50:31  5-MIN KAEX 240250Z 35005KT 10SM CLR 14/11 A3014 -110 80 -200 350/05 RMK AO2 SLP211 T01390106 53012
93915KAEX AEX20161123205510411/23/16 20:55:31  5-MIN KAEX 240255Z 35005KT 10SM CLR 14/11 A3015 -110 80 -200 350/05 RMK AO2 T01390106
93915KAEX AEX20161123210010411/23/16 21:00:31  5-MIN KAEX 240300Z 35007KT 10SM CLR 14/11 A3015 -110 80 -200 350/07 RMK AO2 T01390106
93915KAEX AEX20161123210510411/23/16 21:05:31  5-MIN KAEX 240305Z 35007KT 10SM CLR 14/11 A3015 -110 80 -200 340/07 RMK AO2 T01390106
93915KAEX AEX20161123211010411/23/16 21:10:31  5-MIN KAEX 240310Z 35007KT 10SM CLR 14/11 A3015 -110 80 -200 350/07 RMK AO2 T01390106
93915KAEX AEX20161123211510411/23/16 21:15:31  5-MIN KAEX 240315Z 35006KT 10SM CLR 14/11 A3015 -110 80 -200 350/06 RMK AO2 T01390106
93915KAEX AEX20161123212010411/23/16 21:20:31  5-MIN KAEX 240320Z 35005KT 10SM CLR 13/11 A3015 -120 83 -300 350/05 RMK AO2 T01330106
93915KAEX AEX20161123212510411/23/16 21:25:31  5-MIN KAEX 240325Z 35005KT 10SM CLR 13/11 A3015 -120 83 -300 350/05 RMK AO2 T01330106
93915KAEX AEX20161123213010411/23/16 21:30:31  5-MIN KAEX 240330Z 35005KT 10SM CLR 13/11 A3016 -120 83 -300 350/05 RMK AO2 T01330106
93915KAEX AEX20161123213510411/23/16 21:35:31  5-MIN KAEX 240335Z 35006KT 10SM CLR 13/11 A3016 -120 86 -300 340/06 RMK AO2 T01280106
93915KAEX AEX20161123214010411/23/16 21:40:31  5-MIN KAEX 240340Z 35006KT 10SM CLR 13/10 A3016 -130 83 -300 340/06 RMK AO2 T01280100
93915KAEX AEX20161123214510411/23/16 21:45:31  5-MIN KAEX 240345Z 35006KT 10SM CLR 13/10 A3016 -130 83 -300 350/06 RMK AO2 T01280100
93915KAEX AEX20161123215011111/23/16 21:50:31  5-MIN KAEX 240350Z 35006KT 10SM CLR 13/10 A3016 -130 83 -300 350/06 RMK AO2 SLP218 T01280100
93915KAEX AEX20161123215510411/23/16 21:55:31  5-MIN KAEX 240355Z 35006KT 10SM CLR 13/10 A3016 -130 83 -300 350/06 RMK AO2 T01280100
93915KAEX AEX20161123220010411/23/16 22:00:31  5-MIN KAEX 240400Z 35005KT 10SM CLR 13/10 A3017 -130 83 -300 350/05 RMK AO2 T01280100
93915KAEX AEX20161123220510411/23/16 22:05:31  5-MIN KAEX 240405Z 35005KT 10SM CLR 12/10 A3017 -130 86 -400 350/05 RMK AO2 T01220100
93915KAEX AEX20161123221010411/23/16 22:10:31  5-MIN KAEX 240410Z 35005KT 10SM CLR 13/10 A3017 -130 83 -300 350/05 RMK AO2 T01280100
93915KAEX AEX20161123221510411/23/16 22:15:31  5-MIN KAEX 240415Z 35006KT 10SM CLR 12/10 A3017 -130 86 -400 350/06 RMK AO2 T01220100
93915KAEX AEX20161123222010411/23/16 22:20:31  5-MIN KAEX 240420Z 36006KT 10SM CLR 13/10 A3017 -140 83 -300 360/06 RMK AO2 T01280100
93915KAEX AEX20161123222510411/23/16 22:25:31  5-MIN KAEX 240425Z 36006KT 10SM CLR 12/10 A3017 -140 86 -400 360/06 RMK AO2 T01220100
93915KAEX AEX20161123223010411/23/16 22:30:31  5-MIN KAEX 240430Z 35006KT 10SM CLR 12/10 A3017 -140 86 -400 350/06 RMK AO2 T01220100
93915KAEX AEX20161123223510411/23/16 22:35:31  5-MIN KAEX 240435Z 36005KT 10SM CLR 12/10 A3017 -140 86 -400 360/05 RMK AO2 T01220100
93915KAEX AEX20161123224010411/23/16 22:40:31  5-MIN KAEX 240440Z 36004KT 10SM CLR 12/10 A3017 -140 86 -400 360/04 RMK AO2 T01220100
93915KAEX AEX20161123224510411/23/16 22:45:31  5-MIN KAEX 240445Z 36005KT 10SM CLR 12/10 A3017 -140 86 -400 360/05 RMK AO2 T01220100
93915KAEX AEX20161123225011111/23/16 22:50:31  5-MIN KAEX 240450Z 02004KT 10SM CLR 12/10 A3017 -140 86 -400 010/04 RMK AO2 SLP221 T01220100
93915KAEX AEX20161123225510411/23/16 22:55:31  5-MIN KAEX 240455Z 02005KT 10SM CLR 12/10 A3017 -140 89 -500 020/05 RMK AO2 T01170100
93915KAEX AEX20161123230010411/23/16 23:00:31  5-MIN KAEX 240500Z 02004KT 10SM CLR 12/10 A3017 -140 89 -500 020/04 RMK AO2 T01170100
93915KAEX AEX20161123230510411/23/16 23:05:31  5-MIN KAEX 240505Z 03003KT 10SM CLR 11/10 A3017 -140 93 -600 020/03 RMK AO2 T01110100
93915KAEX AEX20161123231010411/23/16 23:10:31  5-MIN KAEX 240510Z 03003KT 10SM CLR 12/10 A3017 -140 89 -500 030/03 RMK AO2 T01170100
93915KAEX AEX20161123231510411/23/16 23:15:31  5-MIN KAEX 240515Z 03004KT 10SM CLR 11/09 A3017 -140 89 -500 020/04 RMK AO2 T01110094
93915KAEX AEX20161123232010411/23/16 23:20:31  5-MIN KAEX 240520Z 36004KT 10SM CLR 11/10 A3017 -140 93 -500 360/04 RMK AO2 T01110100
93915KAEX AEX20161123232510411/23/16 23:25:31  5-MIN KAEX 240525Z 35005KT 10SM CLR 12/10 A3017 -140 89 -500 350/05 RMK AO2 T01170100
93915KAEX AEX20161123233010411/23/16 23:30:31  5-MIN KAEX 240530Z 35006KT 10SM CLR 11/10 A3018 -140 93 -600 350/06 RMK AO2 T01110100
93915KAEX AEX20161123233510411/23/16 23:35:31  5-MIN KAEX 240535Z 35006KT 10SM CLR 11/09 A3018 -140 89 -600 350/06 RMK AO2 T01110094
93915KAEX AEX20161123234010411/23/16 23:40:31  5-MIN KAEX 240540Z 35006KT 10SM CLR 11/09 A3018 -140 89 -600 350/06 RMK AO2 T01110094
93915KAEX AEX20161123234510411/23/16 23:45:31  5-MIN KAEX 240545Z 36004KT 10SM CLR 11/10 A3018 -140 93 -600 360/04 RMK AO2 T01110100
93915KAEX AEX20161123235013911/23/16 23:50:31  5-MIN KAEX 240550Z 01003KT 10SM CLR 11/10 A3018 -140 93 -600 010/03 RMK AO2 SLP222 T01110100 10178 20111 402170111 51020
93915KAEX AEX20161123235510411/23/16 23:55:31  5-MIN KAEX 240555Z 00000KT 10SM CLR 11/10 A3017 -140 93 -600 000/00 RMK AO2 T01110100
93915KAEX AEX20161124000010411/24/16 00:00:31  5-MIN KAEX 240600Z 00000KT 10SM CLR 11/09 A3017 -140 89 -600 000/00 RMK AO2 T01110094
93915KAEX AEX20161124000510411/24/16 00:05:31  5-MIN KAEX 240605Z 00000KT 10SM CLR 11/09 A3017 -140 93 -600 000/00 RMK AO2 T01060094
93915KAEX AEX20161124001010411/24/16 00:10:31  5-MIN KAEX 240610Z 01003KT 10SM CLR 11/09 A3017 -140 93 -600 010/03 RMK AO2 T01060094
93915KAEX AEX20161124001510411/24/16 00:15:31  5-MIN KAEX 240615Z 00000KT 10SM CLR 11/09 A3017 -140 93 -600 000/00 RMK AO2 T01060094
93915KAEX AEX20161124002010411/24/16 00:20:31  5-MIN KAEX 240620Z 00000KT 10SM CLR 10/09 A3017 -140 96 -700 000/00 RMK AO2 T01000094
93915KAEX AEX20161124002510411/24/16 00:25:31  5-MIN KAEX 240625Z 00000KT 10SM CLR 11/09 A3017 -140 93 -600 000/00 RMK AO2 T01060094
93915KAEX AEX20161124003010411/24/16 00:30:31  5-MIN KAEX 240630Z 15003KT 10SM CLR 11/09 A3017 -140 93 -600 140/03 RMK AO2 T01060094
93915KAEX AEX20161124003510411/24/16 00:35:31  5-MIN KAEX 240635Z 16004KT 10SM CLR 10/09 A3017 -140 96 -700 150/04 RMK AO2 T01000094
93915KAEX AEX20161124004010411/24/16 00:40:31  5-MIN KAEX 240640Z 15004KT 10SM CLR 10/09 A3017 -140 96 -700 140/04 RMK AO2 T01000094
93915KAEX AEX20161124004510411/24/16 00:45:31  5-MIN KAEX 240645Z 13004KT 10SM CLR 10/09 A3017 -140 96 -700 130/04 RMK AO2 T01000094
93915KAEX AEX20161124005011111/24/16 00:50:31  5-MIN KAEX 240650Z 09003KT 10SM CLR 09/09 A3017 -130 96 -700 090/03 RMK AO2 SLP220 T00940089
93915KAEX AEX20161124005510411/24/16 00:55:31  5-MIN KAEX 240655Z 00000KT 10SM CLR 09/09 A3017 -140 96 -800 000/00 RMK AO2 T00940089
93915KAEX AEX20161124010010411/24/16 01:00:31  5-MIN KAEX 240700Z 00000KT 10SM CLR 09/09 A3017 -140 96 -800 000/00 RMK AO2 T00940089
93915KAEX AEX20161124010510411/24/16 01:05:31  5-MIN KAEX 240705Z 00000KT 10SM CLR 10/09 A3018 -140 93 -700 000/00 RMK AO2 T01000089
93915KAEX AEX20161124011010411/24/16 01:10:31  5-MIN KAEX 240710Z 00000KT 10SM CLR 09/09 A3018 -140 96 -800 000/00 RMK AO2 T00940089
93915KAEX AEX20161124011510311/24/16 01:15:31  5-MIN KAEX 240715Z 00000KT 9SM CLR 09/08 A3018 -140 93 -800 000/00 RMK AO2 T00940083
93915KAEX AEX20161124012010311/24/16 01:20:31  5-MIN KAEX 240720Z 00000KT 9SM CLR 09/08 A3018 -140 93 -800 000/00 RMK AO2 T00940083
93915KAEX AEX20161124012510311/24/16 01:25:31  5-MIN KAEX 240725Z 14003KT 9SM CLR 09/09 A3017 -140 96 -800 140/03 RMK AO2 T00940089
93915KAEX AEX20161124013010311/24/16 01:30:31  5-MIN KAEX 240730Z 00000KT 9SM CLR 09/09 A3017 -140 96 -800 000/00 RMK AO2 T00940089
93915KAEX AEX20161124013510311/24/16 01:35:31  5-MIN KAEX 240735Z 08003KT 9SM CLR 09/09 A3017 -140 96 -800 080/03 RMK AO2 T00940089
93915KAEX AEX20161124014010811/24/16 01:40:31  5-MIN KAEX 240740Z AUTO 08003KT 9SM CLR 09/08 A3017 -140 96 -800 070/03 RMK AO2 T00890083
93915KAEX AEX20161124014510811/24/16 01:45:31  5-MIN KAEX 240745Z AUTO 00000KT 8SM CLR 08/08 A3018 -140 96 -900 000/00 RMK AO2 T00830078
93915KAEX AEX20161124015011511/24/16 01:50:31  5-MIN KAEX 240750Z AUTO 00000KT 9SM CLR 09/08 A3018 -140 96 -800 000/00 RMK AO2 SLP223 T00890083
93915KAEX AEX20161124015510811/24/16 01:55:31  5-MIN KAEX 240755Z AUTO 00000KT 9SM CLR 09/08 A3018 -140 96 -800 000/00 RMK AO2 T00890083
93915KAEX AEX20161124020010811/24/16 02:00:31  5-MIN KAEX 240800Z AUTO 00000KT 9SM CLR 09/08 A3018 -140 96 -800 000/00 RMK AO2 T00890083
93915KAEX AEX20161124020510811/24/16 02:05:31  5-MIN KAEX 240805Z AUTO 00000KT 9SM CLR 09/08 A3018 -140 96 -800 000/00 RMK AO2 T00890083
93915KAEX AEX20161124021010811/24/16 02:10:31  5-MIN KAEX 240810Z AUTO 00000KT 8SM CLR 09/08 A3018 -150 96 -800 000/00 RMK AO2 T00890083
93915KAEX AEX20161124021511211/24/16 02:15:31  5-MIN KAEX 240815Z AUTO 00000KT 6SM BR CLR 08/08 A3018 -150 100 -900 000/00 RMK AO2 T00830083
93915KAEX AEX20161124022011111/24/16 02:20:31  5-MIN KAEX 240820Z AUTO 00000KT 6SM BR CLR 09/08 A3018 -150 96 -800 000/00 RMK AO2 T00890083
93915KAEX AEX20161124022511211/24/16 02:25:31  5-MIN KAEX 240825Z AUTO 00000KT 6SM BR CLR 08/08 A3019 -150 100 -900 000/00 RMK AO2 T00830083
93915KAEX AEX20161124023011211/24/16 02:30:31  5-MIN KAEX 240830Z AUTO 00000KT 6SM BR CLR 08/08 A3019 -150 100 -900 000/00 RMK AO2 T00830083
93915KAEX AEX20161124023511211/24/16 02:35:31  5-MIN KAEX 240835Z AUTO 00000KT 6SM BR CLR 08/08 A3019 -150 100 -900 000/00 RMK AO2 T00830083
93915KAEX AEX20161124024010811/24/16 02:40:31  5-MIN KAEX 240840Z AUTO 00000KT 7SM CLR 08/08 A3019 -150 96 -900 000/00 RMK AO2 T00830078
93915KAEX AEX20161124024510811/24/16 02:45:31  5-MIN KAEX 240845Z AUTO 00000KT 7SM CLR 08/08 A3019 -150 96 -900 000/00 RMK AO2 T00830078
93915KAEX AEX20161124025012111/24/16 02:50:31  5-MIN KAEX 240850Z AUTO 00000KT 7SM CLR 08/08 A3019 -150 96 -900 000/00 RMK AO2 SLP226 T00830078 51010
93915KAEX AEX20161124025510811/24/16 02:55:31  5-MIN KAEX 240855Z AUTO 00000KT 7SM CLR 08/08 A3019 -150 96 -900 000/00 RMK AO2 T00830078
93915KAEX AEX20161124030011111/24/16 03:00:31  5-MIN KAEX 240900Z AUTO 00000KT 5SM BR CLR 08/08 A3019 -150 96 -900 000/00 RMK AO2 T00830078
93915KAEX AEX20161124030511511/24/16 03:05:31  5-MIN KAEX 240905Z AUTO 00000KT 2 1/2SM BR CLR 08/08 A3019 -150 96 -900 000/00 RMK AO2 T00830078
93915KAEX AEX20161124031011211/24/16 03:10:31  5-MIN KAEX 240910Z AUTO 00000KT 3SM BR CLR 08/08 A3019 -150 100 -900 000/00 RMK AO2 T00830083
93915KAEX AEX20161124031511311/24/16 03:15:31  5-MIN KAEX 240915Z AUTO 00000KT 5SM BR CLR 08/08 A3019 -150 100 -1000 000/00 RMK AO2 T00780078
93915KAEX AEX20161124032011211/24/16 03:20:31  5-MIN KAEX 240920Z AUTO 00000KT 4SM BR CLR 08/07 A3018 -150 96 -1000 000/00 RMK AO2 T00780072
93915KAEX AEX20161124032511311/24/16 03:25:31  5-MIN KAEX 240925Z AUTO 00000KT 4SM BR CLR 08/08 A3018 -150 100 -1000 000/00 RMK AO2 T00780078
93915KAEX AEX20161124033011311/24/16 03:30:31  5-MIN KAEX 240930Z AUTO 00000KT 6SM BR CLR 08/08 A3019 -150 100 -1000 000/00 RMK AO2 T00780078
93915KAEX AEX20161124033511311/24/16 03:35:31  5-MIN KAEX 240935Z AUTO 00000KT 6SM BR CLR 07/07 A3019 -150 100 -1000 000/00 RMK AO2 T00720072
93915KAEX AEX20161124034011211/24/16 03:40:31  5-MIN KAEX 240940Z AUTO 00000KT 6SM BR CLR 08/07 A3019 -150 96 -1000 000/00 RMK AO2 T00780072
93915KAEX AEX20161124034511311/24/16 03:45:31  5-MIN KAEX 240945Z AUTO 00000KT 3SM BR CLR 08/08 A3019 -150 100 -1000 000/00 RMK AO2 T00780078
93915KAEX AEX20161124035012011/24/16 03:50:31  5-MIN KAEX 240950Z AUTO 00000KT 1SM BR CLR 07/07 A3019 -150 100 -1000 000/00 RMK AO2 SLP227 T00720072
93915KAEX AEX20161124035511211/24/16 03:55:31  5-MIN KAEX 240955Z AUTO 00000KT 1SM BR CLR 08/07 A3019 -150 96 -1000 000/00 RMK AO2 T00780072
93915KAEX AEX20161124040011311/24/16 04:00:31  5-MIN KAEX 241000Z AUTO 00000KT 3SM BR CLR 08/08 A3019 -150 100 -1000 000/00 RMK AO2 T00780078
93915KAEX AEX20161124040511311/24/16 04:05:31  5-MIN KAEX 241005Z AUTO 00000KT 4SM BR CLR 07/07 A3019 -150 100 -1000 000/00 RMK AO2 T00720072
93915KAEX AEX20161124041011311/24/16 04:10:31  5-MIN KAEX 241010Z AUTO 00000KT 4SM BR CLR 07/07 A3019 -150 100 -1000 000/00 RMK AO2 T00720072
93915KAEX AEX20161124041511211/24/16 04:15:31  5-MIN KAEX 241015Z AUTO 00000KT 5SM BR CLR 08/07 A3019 -150 96 -1000 000/00 RMK AO2 T00780072
93915KAEX AEX20161124042011311/24/16 04:20:31  5-MIN KAEX 241020Z AUTO 00000KT 4SM BR CLR 07/07 A3019 -150 100 -1000 000/00 RMK AO2 T00720072
93915KAEX AEX20161124042511311/24/16 04:25:31  5-MIN KAEX 241025Z AUTO 00000KT 4SM BR CLR 07/07 A3019 -150 100 -1000 000/00 RMK AO2 T00720072
93915KAEX AEX20161124043011311/24/16 04:30:31  5-MIN KAEX 241030Z AUTO 00000KT 4SM BR CLR 07/07 A3019 -150 100 -1000 000/00 RMK AO2 T00720072
93915KAEX AEX20161124043511311/24/16 04:35:31  5-MIN KAEX 241035Z AUTO 00000KT 4SM BR CLR 07/07 A3019 -150 100 -1000 000/00 RMK AO2 T00720072
93915KAEX AEX20161124044011311/24/16 04:40:31  5-MIN KAEX 241040Z AUTO 00000KT 3SM BR CLR 07/07 A3019 -150 100 -1000 000/00 RMK AO2 T00720072
93915KAEX AEX20161124044511311/24/16 04:45:31  5-MIN KAEX 241045Z AUTO 00000KT 3SM BR CLR 07/07 A3019 -150 100 -1000 000/00 RMK AO2 T00720072
93915KAEX AEX20161124045011911/24/16 04:50:31  5-MIN KAEX 241050Z AUTO 00000KT 5SM BR CLR 07/07 A3019 -150 96 -1000 000/00 RMK AO2 SLP227 T00720067
93915KAEX AEX20161124045511211/24/16 04:55:31  5-MIN KAEX 241055Z AUTO 00000KT 6SM BR CLR 07/07 A3019 -150 96 -1000 000/00 RMK AO2 T00720067
93915KAEX AEX20161124050011311/24/16 05:00:31  5-MIN KAEX 241100Z AUTO 00000KT 4SM BR CLR 07/07 A3019 -150 100 -1000 000/00 RMK AO2 T00720072
93915KAEX AEX20161124050511311/24/16 05:05:31  5-MIN KAEX 241105Z AUTO 00000KT 3SM BR CLR 07/07 A3019 -160 100 -1000 000/00 RMK AO2 T00720072
93915KAEX AEX20161124051011711/24/16 05:10:31  5-MIN KAEX 241110Z AUTO 00000KT 1 1/4SM BR CLR 07/07 A3019 -150 100 -1000 000/00 RMK AO2 T00720072
93915KAEX AEX20161124051511511/24/16 05:15:31  5-MIN KAEX 241115Z AUTO 00000KT 3/4SM BR CLR 07/07 A3019 -160 100 -1000 000/00 RMK AO2 T00720072
93915KAEX AEX20161124052011511/24/16 05:20:31  5-MIN KAEX 241120Z AUTO 00000KT 3/4SM BR CLR 07/07 A3019 -160 100 -1100 000/00 RMK AO2 T00670067
93915KAEX AEX20161124052511711/24/16 05:25:31  5-MIN KAEX 241125Z AUTO 00000KT 1/2SM FG VV003 07/07 A3019 -160 100 -1100 000/00 RMK AO2 T00670067
93915KAEX AEX20161124053011711/24/16 05:30:31  5-MIN KAEX 241130Z AUTO 00000KT 3/4SM BR VV003 07/07 A3020 -160 100 -1100 000/00 RMK AO2 T00670067
93915KAEX AEX20161124053511311/24/16 05:35:31  5-MIN KAEX 241135Z AUTO 00000KT 5SM BR CLR 06/06 A3019 -160 100 -1200 000/00 RMK AO2 T00610061
93915KAEX AEX20161124054011311/24/16 05:40:31  5-MIN KAEX 241140Z AUTO 00000KT 5SM BR CLR 06/06 A3019 -150 100 -1200 000/00 RMK AO2 T00610061
93915KAEX AEX20161124054511311/24/16 05:45:31  5-MIN KAEX 241145Z AUTO 00000KT 5SM BR CLR 06/06 A3019 -150 100 -1200 000/00 RMK AO2 T00610061
93915KAEX AEX20161124055014411/24/16 05:50:31  5-MIN KAEX 241150Z AUTO 00000KT 6SM BR CLR 06/06 A3019 -160 100 -1200 000/00 RMK AO2 SLP228 70094 T00610061 10111 20061 53004
93915KAEX AEX20161124055511311/24/16 05:55:31  5-MIN KAEX 241155Z AUTO 00000KT 6SM BR CLR 06/06 A3020 -160 100 -1200 000/00 RMK AO2 T00610061
93915KAEX AEX20161124060011311/24/16 06:00:31  5-MIN KAEX 241200Z AUTO 00000KT 6SM BR CLR 07/07 A3019 -160 100 -1100 000/00 RMK AO2 T00670067
93915KAEX AEX20161124060511211/24/16 06:05:31  5-MIN KAEX 241205Z AUTO 00000KT 6SM BR CLR 07/06 A3019 -160 96 -1100 000/00 RMK AO2 T00670061
93915KAEX AEX20161124061011311/24/16 06:10:31  5-MIN KAEX 241210Z AUTO 00000KT 4SM BR CLR 06/06 A3019 -150 100 -1200 000/00 RMK AO2 T00610061
93915KAEX AEX20161124061511311/24/16 06:15:31  5-MIN KAEX 241215Z AUTO 00000KT 3SM BR CLR 06/06 A3019 -160 100 -1200 000/00 RMK AO2 T00610061
93915KAEX AEX20161124062011211/24/16 06:20:31  5-MIN KAEX 241220Z AUTO 00000KT 4SM BR CLR 07/06 A3020 -160 96 -1100 000/00 RMK AO2 T00670061
93915KAEX AEX20161124062511211/24/16 06:25:31  5-MIN KAEX 241225Z AUTO 00000KT 4SM BR CLR 07/06 A3019 -160 96 -1100 000/00 RMK AO2 T00670061
93915KAEX AEX20161124063012511/24/16 06:30:31  5-MIN KAEX 241230Z AUTO 00000KT 1 3/4SM BR CLR 07/07 A3019 -160 100 -1100 000/00 RMK AO2 VIS 1V5 T00670067
93915KAEX AEX20161124063511511/24/16 06:35:31  5-MIN KAEX 241235Z AUTO 00000KT 2SM BR FEW003 07/06 A3020 -160 96 -1100 000/00 RMK AO2 T00670061
93915KAEX AEX20161124064011611/24/16 06:40:31  5-MIN KAEX 241240Z AUTO 00000KT 3SM BR SCT003 06/06 A3020 -160 100 -1200 000/00 RMK AO2 T00610061
93915KAEX AEX20161124064511511/24/16 06:45:31  5-MIN KAEX 241245Z AUTO 00000KT 1SM BR VV002 06/06 A3021 -170 100 -1200 000/00 RMK AO2 T00610061
93915KAEX AEX20161124065010711/24/16 06:50:31  5-MIN KAEX 241250Z AUTO 00000KT 1/2SM FG VV002 06/06 A3021 -170 100 -1200 000/00 RMK AO2
93915KAEX AEX20161124065511711/24/16 06:55:31  5-MIN KAEX 241255Z AUTO 00000KT 1/4SM FG VV002 06/06 A3021 -170 100 -1200 000/00 RMK AO2 T00610061
93915KAEX AEX20161124070011811/24/16 07:00:31  5-MIN KAEX 241300Z AUTO 00000KT M1/4SM FG VV002 06/06 A3021 -170 100 -1200 000/00 RMK AO2 T00610061
93915KAEX AEX20161124070511711/24/16 07:05:31  5-MIN KAEX 241305Z AUTO 00000KT 1/4SM FG VV001 06/06 A3021 -170 100 -1200 000/00 RMK AO2 T00610061
93915KAEX AEX20161124071011711/24/16 07:10:31  5-MIN KAEX 241310Z AUTO 00000KT 1/4SM FG VV001 06/06 A3022 -180 100 -1200 000/00 RMK AO2 T00610061
93915KAEX AEX20161124071511711/24/16 07:15:31  5-MIN KAEX 241315Z AUTO 00000KT 1/2SM FG VV001 06/06 A3022 -180 100 -1200 000/00 RMK AO2 T00610061
93915KAEX AEX20161124072012011/24/16 07:20:31  5-MIN KAEX 241320Z AUTO 00000KT 1 1/4SM BR BKN001 06/06 A3022 -180 100 -1200 000/00 RMK AO2 T00610061
93915KAEX AEX20161124072512011/24/16 07:25:31  5-MIN KAEX 241325Z AUTO 00000KT 2 1/2SM BR BKN001 07/07 A3022 -180 100 -1100 000/00 RMK AO2 T00670067
93915KAEX AEX20161124073011611/24/16 07:30:31  5-MIN KAEX 241330Z AUTO 00000KT 3SM BR BKN002 07/07 A3023 -180 100 -1200 000/00 RMK AO2 T00670067
93915KAEX AEX20161124073511611/24/16 07:35:31  5-MIN KAEX 241335Z AUTO 00000KT 3SM BR BKN002 07/07 A3023 -190 100 -1200 000/00 RMK AO2 T00670067
93915KAEX AEX20161124074011211/24/16 07:40:31  5-MIN KAEX 241340Z 00000KT 1/2SM FG VV002 07/07 A3023 -190 100 -1200 000/00 RMK AO2 T00670067
93915KAEX AEX20161124074511211/24/16 07:45:31  5-MIN KAEX 241345Z 00000KT 1/4SM FG VV001 07/07 A3023 -190 100 -1100 000/00 RMK AO2 T00720072
93915KAEX AEX20161124075010211/24/16 07:50:31  5-MIN KAEX 241350Z 00000KT 1/2SM FG VV002 07/07 A3023 -190 100 -1100 000/00 RMK AO2
93915KAEX AEX20161124075511011/24/16 07:55:31  5-MIN KAEX 241355Z 00000KT 1SM BR VV002 08/08 A3023 -190 100 -1000 000/00 RMK AO2 T00780078
93915KAEX AEX20161124080011511/24/16 08:00:31  5-MIN KAEX 241400Z 00000KT 1 1/4SM BR BKN002 08/08 A3023 -190 100 -1000 000/00 RMK AO2 T00830083
93915KAEX AEX20161124080511111/24/16 08:05:31  5-MIN KAEX 241405Z 00000KT 3SM BR SCT002 08/08 A3023 -190 100 -1000 000/00 RMK AO2 T00830083
93915KAEX AEX20161124081011011/24/16 08:10:31  5-MIN KAEX 241410Z 36003KT 5SM BR SCT002 09/09 A3023 -190 100 -900 360/03 RMK AO2 T00890089
93915KAEX AEX20161124081510911/24/16 08:15:31  5-MIN KAEX 241415Z 35003KT 6SM BR FEW002 09/09 A3023 -190 96 -800 350/03 RMK AO2 T00940089
93915KAEX AEX20161124082011011/24/16 08:20:31  5-MIN KAEX 241420Z 00000KT 6SM BR FEW002 09/09 A3024 -190 100 -800 000/00 RMK AO2 T00940094
93915KAEX AEX20161124082510311/24/16 08:25:31  5-MIN KAEX 241425Z 00000KT 7SM CLR 10/09 A3024 -190 96 -800 000/00 RMK AO2 T01000094
93915KAEX AEX20161124083010411/24/16 08:30:31  5-MIN KAEX 241430Z 00000KT 8SM CLR 10/10 A3024 -200 100 -800 000/00 RMK AO2 T01000100
93915KAEX AEX20161124083510311/24/16 08:35:31  5-MIN KAEX 241435Z 00000KT 8SM CLR 11/10 A3024 -200 96 -700 000/00 RMK AO2 T01060100
93915KAEX AEX20161124084010311/24/16 08:40:31  5-MIN KAEX 241440Z 08003KT 9SM CLR 11/10 A3024 -200 96 -700 080/03 RMK AO2 T01060100
93915KAEX AEX20161124084510311/24/16 08:45:31  5-MIN KAEX 241445Z 10003KT 9SM CLR 11/10 A3024 -200 93 -600 100/03 RMK AO2 T01110100
93915KAEX AEX20161124085011711/24/16 08:50:31  5-MIN KAEX 241450Z 09003KT 10SM CLR 11/09 A3025 -200 89 -600 090/03 RMK AO2 SLP246 T01110094 53002
93915KAEX AEX20161124085510411/24/16 08:55:31  5-MIN KAEX 241455Z 00000KT 10SM CLR 12/10 A3025 -200 89 -600 000/00 RMK AO2 T01170100
93915KAEX AEX20161124090010411/24/16 09:00:31  5-MIN KAEX 241500Z 10003KT 10SM CLR 12/10 A3025 -210 89 -600 100/03 RMK AO2 T01170100
93915KAEX AEX20161124090510411/24/16 09:05:31  5-MIN KAEX 241505Z 10004KT 10SM CLR 12/10 A3025 -210 86 -500 100/04 RMK AO2 T01220100
93915KAEX AEX20161124091010411/24/16 09:10:31  5-MIN KAEX 241510Z 00000KT 10SM CLR 13/10 A3025 -210 83 -400 000/00 RMK AO2 T01280100
93915KAEX AEX20161124091510411/24/16 09:15:31  5-MIN KAEX 241515Z 00000KT 10SM CLR 13/10 A3025 -210 83 -400 000/00 RMK AO2 T01280100
93915KAEX AEX20161124092010411/24/16 09:20:31  5-MIN KAEX 241520Z 00000KT 10SM CLR 13/10 A3025 -210 83 -400 000/00 RMK AO2 T01280100
93915KAEX AEX20161124092510411/24/16 09:25:31  5-MIN KAEX 241525Z 03003KT 10SM CLR 13/10 A3025 -210 80 -400 030/03 RMK AO2 T01330100
93915KAEX AEX20161124093010411/24/16 09:30:31  5-MIN KAEX 241530Z 00000KT 10SM CLR 14/11 A3025 -210 77 -200 000/00 RMK AO2 T01440106
93915KAEX AEX20161124093510411/24/16 09:35:31  5-MIN KAEX 241535Z 10004KT 10SM CLR 14/11 A3025 -210 80 -300 090/04 RMK AO2 T01390106
93915KAEX AEX20161124094010411/24/16 09:40:31  5-MIN KAEX 241540Z VRB03KT 10SM CLR 14/11 A3025 -210 77 -200 VRB/03 RMK AO2 T01440106
93915KAEX AEX20161124094510411/24/16 09:45:31  5-MIN KAEX 241545Z VRB04KT 10SM CLR 14/11 A3025 -210 77 -200 VRB/04 RMK AO2 T01440106
93915KAEX AEX20161124095011111/24/16 09:50:31  5-MIN KAEX 241550Z VRB03KT 10SM CLR 14/11 A3025 -210 77 -200 VRB/03 RMK AO2 SLP247 T01440106
93915KAEX AEX20161124095510411/24/16 09:55:31  5-MIN KAEX 241555Z VRB03KT 10SM CLR 15/11 A3025 -210 74 -200 VRB/03 RMK AO2 T01500106
93915KAEX AEX20161124100010411/24/16 10:00:31  5-MIN KAEX 241600Z 04004KT 10SM CLR 16/11 A3025 -210 72 -100 040/04 RMK AO2 T01560106
93915KAEX AEX20161124100510111/24/16 10:05:31  5-MIN KAEX 241605Z 03005KT 10SM CLR 16/11 A3025 -210 69 0 030/05 RMK AO2 T01610106
93915KAEX AEX20161124101010111/24/16 10:10:31  5-MIN KAEX 241610Z 03003KT 10SM CLR 16/10 A3025 -210 67 0 030/03 RMK AO2 T01610100
93915KAEX AEX20161124101510411/24/16 10:15:31  5-MIN KAEX 241615Z 07003KT 10SM CLR 16/10 A3025 -210 69 -100 070/03 RMK AO2 T01560100
93915KAEX AEX20161124102010111/24/16 10:20:31  5-MIN KAEX 241620Z 03003KT 10SM CLR 16/10 A3025 -210 67 0 020/03 RMK AO2 T01610100
93915KAEX AEX20161124102510111/24/16 10:25:31  5-MIN KAEX 241625Z 00000KT 10SM CLR 16/10 A3025 -210 67 0 000/00 RMK AO2 T01610100
93915KAEX AEX20161124103010411/24/16 10:30:31  5-MIN KAEX 241630Z 00000KT 10SM CLR 16/10 A3025 -200 69 -100 000/00 RMK AO2 T01560100
93915KAEX AEX20161124103510111/24/16 10:35:31  5-MIN KAEX 241635Z VRB04KT 10SM CLR 16/10 A3024 -200 67 0 VRB/04 RMK AO2 T01610100
93915KAEX AEX20161124104010111/24/16 10:40:31  5-MIN KAEX 241640Z 11003KT 10SM CLR 16/10 A3024 -200 67 0 110/03 RMK AO2 T01610100
93915KAEX AEX20161124104510111/24/16 10:45:31  5-MIN KAEX 241645Z 08005KT 10SM CLR 17/10 A3024 -200 64 0 080/05 RMK AO2 T01670100
93915KAEX AEX20161124105010811/24/16 10:50:31  5-MIN KAEX 241650Z VRB04KT 10SM CLR 17/09 A3024 -190 62 0 VRB/04 RMK AO2 SLP242 T01670094
93915KAEX AEX20161124105510311/24/16 10:55:31  5-MIN KAEX 241655Z 00000KT 10SM CLR 17/09 A3023 -190 60 100 000/00 RMK AO2 T01720094
93915KAEX AEX20161124110010311/24/16 11:00:31  5-MIN KAEX 241700Z 36005KT 10SM CLR 17/10 A3023 -190 62 100 360/05 RMK AO2 T01720100
93915KAEX AEX20161124110510311/24/16 11:05:31  5-MIN KAEX 241705Z VRB04KT 10SM CLR 17/10 A3023 -190 62 100 VRB/04 RMK AO2 T01720100
93915KAEX AEX20161124111010311/24/16 11:10:31  5-MIN KAEX 241710Z 36004KT 10SM CLR 18/10 A3023 -190 60 100 360/04 RMK AO2 T01780100
93915KAEX AEX20161124111510311/24/16 11:15:31  5-MIN KAEX 241715Z 33003KT 10SM CLR 18/10 A3023 -190 60 100 330/03 RMK AO2 T01780100
93915KAEX AEX20161124112010311/24/16 11:20:31  5-MIN KAEX 241720Z VRB03KT 10SM CLR 18/10 A3023 -180 60 100 VRB/03 RMK AO2 T01780100
93915KAEX AEX20161124112510311/24/16 11:25:31  5-MIN KAEX 241725Z 00000KT 10SM CLR 18/10 A3022 -180 58 200 000/00 RMK AO2 T01830100
93915KAEX AEX20161124113010311/24/16 11:30:31  5-MIN KAEX 241730Z 00000KT 10SM CLR 18/10 A3022 -180 60 100 000/00 RMK AO2 T01780100
93915KAEX AEX20161124113510311/24/16 11:35:31  5-MIN KAEX 241735Z VRB05KT 10SM CLR 18/10 A3022 -180 58 200 VRB/05 RMK AO2 T01830100
93915KAEX AEX20161124114010311/24/16 11:40:31  5-MIN KAEX 241740Z 09004KT 10SM CLR 18/11 A3021 -170 60 200 090/04 RMK AO2 T01830106
93915KAEX AEX20161124114510311/24/16 11:45:31  5-MIN KAEX 241745Z 00000KT 10SM CLR 18/10 A3021 -170 58 200 000/00 RMK AO2 T01830100
93915KAEX AEX20161124115012811/24/16 11:50:31  5-MIN KAEX 241750Z 00000KT 10SM CLR 18/10 A3021 -170 58 200 000/00 RMK AO2 SLP234 T01830100 10183 20061 51017
93915KAEX AEX20161124115510311/24/16 11:55:31  5-MIN KAEX 241755Z VRB03KT 10SM CLR 18/11 A3021 -170 60 200 VRB/03 RMK AO2 T01830106
93915KAEX AEX20161124120010311/24/16 12:00:31  5-MIN KAEX 241800Z 00000KT 10SM CLR 18/11 A3021 -170 60 200 000/00 RMK AO2 T01830106
93915KAEX AEX20161124120510311/24/16 12:05:31  5-MIN KAEX 241805Z VRB04KT 10SM CLR 18/11 A3021 -170 62 200 VRB/04 RMK AO2 T01830111
93915KAEX AEX20161124121010311/24/16 12:10:31  5-MIN KAEX 241810Z 21004KT 10SM CLR 18/11 A3021 -170 62 200 210/04 RMK AO2 T01830111
93915KAEX AEX20161124121510311/24/16 12:15:31  5-MIN KAEX 241815Z 00000KT 10SM CLR 18/11 A3021 -170 60 200 000/00 RMK AO2 T01830106
93915KAEX AEX20161124122010311/24/16 12:20:31  5-MIN KAEX 241820Z 23003KT 10SM CLR 18/11 A3020 -170 62 200 220/03 RMK AO2 T01780106
93915KAEX AEX20161124122510311/24/16 12:25:31  5-MIN KAEX 241825Z 21003KT 10SM CLR 18/11 A3020 -170 60 200 210/03 RMK AO2 T01830106
93915KAEX AEX20161124123010311/24/16 12:30:31  5-MIN KAEX 241830Z 24003KT 10SM CLR 18/11 A3020 -170 60 200 240/03 RMK AO2 T01830106
93915KAEX AEX20161124123510311/24/16 12:35:31  5-MIN KAEX 241835Z 00000KT 10SM CLR 19/11 A3020 -160 58 300 000/00 RMK AO2 T01890106
93915KAEX AEX20161124124010311/24/16 12:40:31  5-MIN KAEX 241840Z 00000KT 10SM CLR 19/10 A3020 -160 56 300 000/00 RMK AO2 T01890100
93915KAEX AEX20161124124510311/24/16 12:45:31  5-MIN KAEX 241845Z VRB03KT 10SM CLR 19/11 A3020 -160 58 300 VRB/03 RMK AO2 T01890106
93915KAEX AEX20161124125011011/24/16 12:50:31  5-MIN KAEX 241850Z 20004KT 10SM CLR 19/11 A3020 -160 60 300 190/04 RMK AO2 SLP230 T01890111
93915KAEX AEX20161124125510311/24/16 12:55:31  5-MIN KAEX 241855Z 21005KT 10SM CLR 19/11 A3020 -160 60 300 210/05 RMK AO2 T01890111
93915KAEX AEX20161124130010311/24/16 13:00:31  5-MIN KAEX 241900Z 20004KT 10SM CLR 19/11 A3020 -160 60 300 190/04 RMK AO2 T01890111
93915KAEX AEX20161124130510311/24/16 13:05:31  5-MIN KAEX 241905Z VRB04KT 10SM CLR 19/11 A3020 -160 58 300 VRB/04 RMK AO2 T01890106
93915KAEX AEX20161124131010311/24/16 13:10:31  5-MIN KAEX 241910Z 25004KT 10SM CLR 19/11 A3019 -150 58 400 250/04 RMK AO2 T01940111
93915KAEX AEX20161124131510311/24/16 13:15:31  5-MIN KAEX 241915Z 00000KT 10SM CLR 19/11 A3019 -150 58 300 000/00 RMK AO2 T01890106
93915KAEX AEX20161124132010311/24/16 13:20:31  5-MIN KAEX 241920Z 00000KT 10SM CLR 19/11 A3019 -150 56 400 000/00 RMK AO2 T01940106
93915KAEX AEX20161124132510311/24/16 13:25:31  5-MIN KAEX 241925Z VRB03KT 10SM CLR 19/11 A3018 -150 56 400 VRB/03 RMK AO2 T01940106
93915KAEX AEX20161124133010311/24/16 13:30:31  5-MIN KAEX 241930Z VRB03KT 10SM CLR 19/11 A3018 -140 56 400 VRB/03 RMK AO2 T01940106
93915KAEX AEX20161124133510311/24/16 13:35:31  5-MIN KAEX 241935Z 00000KT 10SM CLR 19/11 A3018 -140 56 400 000/00 RMK AO2 T01940106
93915KAEX AEX20161124134010311/24/16 13:40:31  5-MIN KAEX 241940Z 00000KT 10SM CLR 19/11 A3018 -140 56 400 000/00 RMK AO2 T01940106
93915KAEX AEX20161124134510311/24/16 13:45:31  5-MIN KAEX 241945Z 00000KT 10SM CLR 19/11 A3018 -140 56 400 000/00 RMK AO2 T01940106
93915KAEX AEX20161124135011011/24/16 13:50:31  5-MIN KAEX 241950Z 00000KT 10SM CLR 20/11 A3018 -140 54 400 000/00 RMK AO2 SLP222 T02000106
93915KAEX AEX20161124135510311/24/16 13:55:31  5-MIN KAEX 241955Z 27004KT 10SM CLR 19/10 A3017 -140 54 400 260/04 RMK AO2 T01940100
93915KAEX AEX20161124140010311/24/16 14:00:31  5-MIN KAEX 242000Z 00000KT 10SM CLR 19/10 A3017 -140 54 400 000/00 RMK AO2 T01940100
93915KAEX AEX20161124140510311/24/16 14:05:31  5-MIN KAEX 242005Z 19003KT 10SM CLR 19/10 A3018 -140 54 400 190/03 RMK AO2 T01940100
93915KAEX AEX20161124141010311/24/16 14:10:31  5-MIN KAEX 242010Z 21004KT 10SM CLR 20/10 A3017 -140 52 500 210/04 RMK AO2 T02000100
93915KAEX AEX20161124141510311/24/16 14:15:31  5-MIN KAEX 242015Z 20004KT 10SM CLR 20/11 A3017 -140 54 500 200/04 RMK AO2 T02000106
93915KAEX AEX20161124142010311/24/16 14:20:31  5-MIN KAEX 242020Z 25003KT 10SM CLR 20/11 A3017 -140 54 500 250/03 RMK AO2 T02000106
93915KAEX AEX20161124142510311/24/16 14:25:31  5-MIN KAEX 242025Z 00000KT 10SM CLR 20/10 A3017 -130 52 500 000/00 RMK AO2 T02000100
93915KAEX AEX20161124143010311/24/16 14:30:31  5-MIN KAEX 242030Z 20003KT 10SM CLR 20/09 A3017 -130 50 500 200/03 RMK AO2 T02000094
93915KAEX AEX20161124143510311/24/16 14:35:31  5-MIN KAEX 242035Z 00000KT 10SM CLR 20/10 A3017 -130 52 500 000/00 RMK AO2 T02000100
93915KAEX AEX20161124144010311/24/16 14:40:31  5-MIN KAEX 242040Z 00000KT 10SM CLR 20/10 A3017 -130 52 500 000/00 RMK AO2 T02000100
93915KAEX AEX20161124144510311/24/16 14:45:31  5-MIN KAEX 242045Z 19003KT 10SM CLR 20/10 A3017 -130 52 500 190/03 RMK AO2 T02000100
93915KAEX AEX20161124145011611/24/16 14:50:31  5-MIN KAEX 242050Z 19004KT 10SM CLR 20/09 A3017 -130 50 500 190/04 RMK AO2 SLP219 T02000094 58012
93915KAEX AEX20161124145510311/24/16 14:55:31  5-MIN KAEX 242055Z VRB04KT 10SM CLR 20/09 A3017 -130 50 500 VRB/04 RMK AO2 T02000094
93915KAEX AEX20161124150010311/24/16 15:00:31  5-MIN KAEX 242100Z 19003KT 10SM CLR 20/10 A3017 -130 52 500 190/03 RMK AO2 T02000100
93915KAEX AEX20161124150510311/24/16 15:05:31  5-MIN KAEX 242105Z 18003KT 10SM CLR 20/10 A3017 -130 52 500 180/03 RMK AO2 T02000100
93915KAEX AEX20161124151010311/24/16 15:10:31  5-MIN KAEX 242110Z 20004KT 10SM CLR 21/10 A3016 -130 50 500 200/04 RMK AO2 T02060100
93915KAEX AEX20161124151510311/24/16 15:15:31  5-MIN KAEX 242115Z VRB03KT 10SM CLR 21/10 A3016 -130 50 500 VRB/03 RMK AO2 T02060100
93915KAEX AEX20161124152010311/24/16 15:20:31  5-MIN KAEX 242120Z 00000KT 10SM CLR 21/10 A3016 -130 50 500 000/00 RMK AO2 T02060100
93915KAEX AEX20161124152510311/24/16 15:25:31  5-MIN KAEX 242125Z 00000KT 10SM CLR 20/10 A3017 -130 52 500 000/00 RMK AO2 T02000100
93915KAEX AEX20161124153010311/24/16 15:30:31  5-MIN KAEX 242130Z 00000KT 10SM CLR 20/10 A3016 -130 52 500 000/00 RMK AO2 T02000100
93915KAEX AEX20161124153510311/24/16 15:35:31  5-MIN KAEX 242135Z 00000KT 10SM CLR 20/10 A3016 -130 52 500 000/00 RMK AO2 T02000100
93915KAEX AEX20161124154010311/24/16 15:40:31  5-MIN KAEX 242140Z 00000KT 10SM CLR 20/10 A3017 -130 52 500 000/00 RMK AO2 T02000100
93915KAEX AEX20161124154510311/24/16 15:45:31  5-MIN KAEX 242145Z 00000KT 10SM CLR 21/10 A3016 -130 50 500 000/00 RMK AO2 T02060100
93915KAEX AEX20161124155011011/24/16 15:50:31  5-MIN KAEX 242150Z 00000KT 10SM CLR 20/10 A3016 -130 52 500 000/00 RMK AO2 SLP218 T02000100
93915KAEX AEX20161124155510311/24/16 15:55:31  5-MIN KAEX 242155Z 00000KT 10SM CLR 20/10 A3017 -130 52 500 000/00 RMK AO2 T02000100
93915KAEX AEX20161124160010311/24/16 16:00:31  5-MIN KAEX 242200Z 00000KT 10SM CLR 20/10 A3017 -130 52 500 000/00 RMK AO2 T02000100
93915KAEX AEX20161124160510311/24/16 16:05:31  5-MIN KAEX 242205Z 00000KT 10SM CLR 21/10 A3017 -130 50 500 000/00 RMK AO2 T02060100
93915KAEX AEX20161124161010311/24/16 16:10:31  5-MIN KAEX 242210Z 00000KT 10SM CLR 20/11 A3016 -130 54 500 000/00 RMK AO2 T02000106
93915KAEX AEX20161124161510311/24/16 16:15:31  5-MIN KAEX 242215Z 00000KT 10SM CLR 20/10 A3016 -130 52 500 000/00 RMK AO2 T02000100
93915KAEX AEX20161124162010311/24/16 16:20:31  5-MIN KAEX 242220Z 00000KT 10SM CLR 20/11 A3016 -130 54 500 000/00 RMK AO2 T02000106
93915KAEX AEX20161124162510311/24/16 16:25:31  5-MIN KAEX 242225Z 00000KT 10SM CLR 20/11 A3016 -130 54 500 000/00 RMK AO2 T02000106
93915KAEX AEX20161124163010311/24/16 16:30:31  5-MIN KAEX 242230Z 00000KT 10SM CLR 20/10 A3017 -130 52 500 000/00 RMK AO2 T02000100
93915KAEX AEX20161124163510311/24/16 16:35:31  5-MIN KAEX 242235Z 00000KT 10SM CLR 19/10 A3017 -130 54 400 000/00 RMK AO2 T01940100
93915KAEX AEX20161124164010311/24/16 16:40:31  5-MIN KAEX 242240Z 00000KT 10SM CLR 19/11 A3017 -130 56 400 000/00 RMK AO2 T01940106
93915KAEX AEX20161124164510311/24/16 16:45:31  5-MIN KAEX 242245Z 00000KT 10SM CLR 19/10 A3017 -130 54 400 000/00 RMK AO2 T01940100
93915KAEX AEX20161124165011011/24/16 16:50:31  5-MIN KAEX 242250Z 00000KT 10SM CLR 19/10 A3017 -130 56 300 000/00 RMK AO2 SLP220 T01890100
93915KAEX AEX20161124165510311/24/16 16:55:31  5-MIN KAEX 242255Z 00000KT 10SM CLR 19/10 A3017 -140 56 300 000/00 RMK AO2 T01890100
93915KAEX AEX20161124170010311/24/16 17:00:31  5-MIN KAEX 242300Z 00000KT 10SM CLR 18/10 A3017 -140 58 300 000/00 RMK AO2 T01830100
93915KAEX AEX20161124170510311/24/16 17:05:31  5-MIN KAEX 242305Z 00000KT 10SM CLR 18/12 A3017 -140 69 200 000/00 RMK AO2 T01780122
93915KAEX AEX20161124171010311/24/16 17:10:31  5-MIN KAEX 242310Z 00000KT 10SM CLR 17/12 A3017 -140 69 100 000/00 RMK AO2 T01720117
93915KAEX AEX20161124171510311/24/16 17:15:31  5-MIN KAEX 242315Z 00000KT 10SM CLR 17/12 A3017 -140 72 100 000/00 RMK AO2 T01670117
93915KAEX AEX20161124172010111/24/16 17:20:31  5-MIN KAEX 242320Z 00000KT 10SM CLR 16/12 A3018 -140 75 0 000/00 RMK AO2 T01610117
93915KAEX AEX20161124172510111/24/16 17:25:31  5-MIN KAEX 242325Z 00000KT 10SM CLR 16/12 A3018 -140 77 0 000/00 RMK AO2 T01560117
93915KAEX AEX20161124173010111/24/16 17:30:31  5-MIN KAEX 242330Z 00000KT 10SM CLR 16/11 A3018 -140 74 0 000/00 RMK AO2 T01560111
93915KAEX AEX20161124173510411/24/16 17:35:31  5-MIN KAEX 242335Z 00000KT 10SM CLR 15/11 A3018 -140 77 -100 000/00 RMK AO2 T01500111
93915KAEX AEX20161124174010411/24/16 17:40:31  5-MIN KAEX 242340Z 00000KT 10SM CLR 15/11 A3018 -140 77 -100 000/00 RMK AO2 T01500111
93915KAEX AEX20161124174510411/24/16 17:45:31  5-MIN KAEX 242345Z 00000KT 10SM CLR 14/11 A3018 -140 80 -200 000/00 RMK AO2 T01440111
93915KAEX AEX20161124175012911/24/16 17:50:31  5-MIN KAEX 242350Z 00000KT 10SM CLR 14/11 A3018 -140 80 -200 000/00 RMK AO2 SLP224 T01390106 10206 20139 56015
93915KAEX AEX20161124175510411/24/16 17:55:31  5-MIN KAEX 242355Z 00000KT 10SM CLR 14/11 A3018 -150 77 -200 000/00 RMK AO2 T01440106
93915KAEX AEX20161124180010411/24/16 18:00:31  5-MIN KAEX 250000Z 00000KT 10SM CLR 14/11 A3018 -150 80 -200 000/00 RMK AO2 T01390106
93915KAEX AEX20161124180510411/24/16 18:05:31  5-MIN KAEX 250005Z 00000KT 10SM CLR 13/11 A3019 -150 83 -300 000/00 RMK AO2 T01330106
93915KAEX AEX20161124181010411/24/16 18:10:31  5-MIN KAEX 250010Z 00000KT 10SM CLR 14/11 A3019 -150 80 -200 000/00 RMK AO2 T01390106
93915KAEX AEX20161124181510411/24/16 18:15:31  5-MIN KAEX 250015Z 00000KT 10SM CLR 14/11 A3019 -150 80 -200 000/00 RMK AO2 T01390106
93915KAEX AEX20161124182010411/24/16 18:20:31  5-MIN KAEX 250020Z 00000KT 10SM CLR 13/11 A3019 -150 83 -300 000/00 RMK AO2 T01330106
93915KAEX AEX20161124182510411/24/16 18:25:31  5-MIN KAEX 250025Z 00000KT 10SM CLR 13/11 A3019 -150 83 -300 000/00 RMK AO2 T01330106
93915KAEX AEX20161124183010411/24/16 18:30:31  5-MIN KAEX 250030Z 00000KT 10SM CLR 13/11 A3019 -150 83 -300 000/00 RMK AO2 T01330106
93915KAEX AEX20161124183510411/24/16 18:35:31  5-MIN KAEX 250035Z 00000KT 10SM CLR 13/11 A3019 -150 83 -300 000/00 RMK AO2 T01330106
93915KAEX AEX20161124184010411/24/16 18:40:31  5-MIN KAEX 250040Z 00000KT 10SM CLR 13/11 A3019 -150 83 -300 000/00 RMK AO2 T01330106
93915KAEX AEX20161124184510411/24/16 18:45:31  5-MIN KAEX 250045Z 00000KT 10SM CLR 13/11 A3019 -160 83 -300 000/00 RMK AO2 T01330106
93915KAEX AEX20161124185011111/24/16 18:50:31  5-MIN KAEX 250050Z 00000KT 10SM CLR 13/11 A3019 -160 83 -300 000/00 RMK AO2 SLP229 T01330106
93915KAEX AEX20161124185510411/24/16 18:55:31  5-MIN KAEX 250055Z 00000KT 10SM CLR 13/11 A3019 -160 83 -300 000/00 RMK AO2 T01330106
93915KAEX AEX20161124190010411/24/16 19:00:31  5-MIN KAEX 250100Z 00000KT 10SM CLR 13/11 A3020 -160 86 -400 000/00 RMK AO2 T01280106
93915KAEX AEX20161124190510411/24/16 19:05:31  5-MIN KAEX 250105Z 00000KT 10SM CLR 13/11 A3020 -160 86 -400 000/00 RMK AO2 T01280106
93915KAEX AEX20161124191010411/24/16 19:10:31  5-MIN KAEX 250110Z 00000KT 10SM CLR 13/11 A3020 -160 86 -400 000/00 RMK AO2 T01280106
93915KAEX AEX20161124191510411/24/16 19:15:31  5-MIN KAEX 250115Z 00000KT 10SM CLR 13/11 A3020 -160 86 -400 000/00 RMK AO2 T01280106
93915KAEX AEX20161124192010411/24/16 19:20:31  5-MIN KAEX 250120Z 00000KT 10SM CLR 13/11 A3020 -160 86 -400 000/00 RMK AO2 T01280106
93915KAEX AEX20161124192510411/24/16 19:25:31  5-MIN KAEX 250125Z 00000KT 10SM CLR 12/11 A3020 -160 89 -400 000/00 RMK AO2 T01220106
93915KAEX AEX20161124193010411/24/16 19:30:31  5-MIN KAEX 250130Z 00000KT 10SM CLR 12/11 A3020 -160 89 -500 000/00 RMK AO2 T01220106
93915KAEX AEX20161124193510411/24/16 19:35:31  5-MIN KAEX 250135Z 00000KT 10SM CLR 12/11 A3021 -170 89 -500 000/00 RMK AO2 T01220106
93915KAEX AEX20161124194010411/24/16 19:40:31  5-MIN KAEX 250140Z 00000KT 10SM CLR 12/11 A3021 -170 89 -500 000/00 RMK AO2 T01220106
93915KAEX AEX20161124194510411/24/16 19:45:31  5-MIN KAEX 250145Z 00000KT 10SM CLR 12/11 A3021 -170 93 -500 000/00 RMK AO2 T01170106
93915KAEX AEX20161124195011111/24/16 19:50:31  5-MIN KAEX 250150Z 00000KT 10SM CLR 12/11 A3021 -170 89 -500 000/00 RMK AO2 SLP234 T01220106
93915KAEX AEX20161124195510411/24/16 19:55:31  5-MIN KAEX 250155Z 00000KT 10SM CLR 12/11 A3021 -170 89 -500 000/00 RMK AO2 T01220106
93915KAEX AEX20161124200010411/24/16 20:00:31  5-MIN KAEX 250200Z 00000KT 10SM CLR 12/11 A3021 -170 93 -500 000/00 RMK AO2 T01170106
93915KAEX AEX20161124200510411/24/16 20:05:31  5-MIN KAEX 250205Z 00000KT 10SM CLR 12/11 A3021 -170 93 -500 000/00 RMK AO2 T01170106
93915KAEX AEX20161124201010411/24/16 20:10:31  5-MIN KAEX 250210Z 00000KT 10SM CLR 12/11 A3021 -170 93 -500 000/00 RMK AO2 T01170106
93915KAEX AEX20161124201510411/24/16 20:15:31  5-MIN KAEX 250215Z 00000KT 10SM CLR 11/10 A3021 -170 93 -600 000/00 RMK AO2 T01110100
93915KAEX AEX20161124202010411/24/16 20:20:31  5-MIN KAEX 250220Z 00000KT 10SM CLR 11/11 A3021 -170 96 -600 000/00 RMK AO2 T01110106
93915KAEX AEX20161124202510411/24/16 20:25:31  5-MIN KAEX 250225Z 00000KT 10SM CLR 11/10 A3021 -170 93 -600 000/00 RMK AO2 T01110100
93915KAEX AEX20161124203010411/24/16 20:30:31  5-MIN KAEX 250230Z 00000KT 10SM CLR 11/10 A3021 -170 93 -600 000/00 RMK AO2 T01110100
93915KAEX AEX20161124203510411/24/16 20:35:31  5-MIN KAEX 250235Z 00000KT 10SM CLR 11/10 A3021 -170 93 -600 000/00 RMK AO2 T01110100
93915KAEX AEX20161124204010411/24/16 20:40:31  5-MIN KAEX 250240Z 00000KT 10SM CLR 11/10 A3021 -170 93 -600 000/00 RMK AO2 T01110100
93915KAEX AEX20161124204510411/24/16 20:45:31  5-MIN KAEX 250245Z 00000KT 10SM CLR 11/11 A3021 -170 96 -600 000/00 RMK AO2 T01110106
93915KAEX AEX20161124205011711/24/16 20:50:31  5-MIN KAEX 250250Z 00000KT 10SM CLR 11/11 A3021 -170 96 -600 000/00 RMK AO2 SLP235 T01110106 53005
93915KAEX AEX20161124205510411/24/16 20:55:31  5-MIN KAEX 250255Z 00000KT 10SM CLR 11/11 A3021 -170 96 -600 000/00 RMK AO2 T01110106
93915KAEX AEX20161124210010411/24/16 21:00:31  5-MIN KAEX 250300Z 00000KT 10SM CLR 11/11 A3021 -170 96 -600 000/00 RMK AO2 T01110106
93915KAEX AEX20161124210510411/24/16 21:05:31  5-MIN KAEX 250305Z 00000KT 10SM CLR 11/11 A3021 -170 96 -600 000/00 RMK AO2 T01110106
93915KAEX AEX20161124211010411/24/16 21:10:31  5-MIN KAEX 250310Z 00000KT 10SM CLR 11/10 A3021 -170 96 -700 000/00 RMK AO2 T01060100
93915KAEX AEX20161124211510411/24/16 21:15:31  5-MIN KAEX 250315Z 00000KT 10SM CLR 11/10 A3021 -170 96 -700 000/00 RMK AO2 T01060100
93915KAEX AEX20161124212010411/24/16 21:20:31  5-MIN KAEX 250320Z 00000KT 10SM CLR 11/10 A3021 -170 96 -700 000/00 RMK AO2 T01060100
93915KAEX AEX20161124212510411/24/16 21:25:31  5-MIN KAEX 250325Z 00000KT 10SM CLR 11/10 A3021 -170 93 -600 000/00 RMK AO2 T01110100
93915KAEX AEX20161124213010411/24/16 21:30:31  5-MIN KAEX 250330Z 00000KT 10SM CLR 11/10 A3021 -170 93 -600 000/00 RMK AO2 T01110100
93915KAEX AEX20161124213510311/24/16 21:35:31  5-MIN KAEX 250335Z 00000KT 9SM CLR 11/11 A3021 -170 96 -600 000/00 RMK AO2 T01110106
93915KAEX AEX20161124214010311/24/16 21:40:31  5-MIN KAEX 250340Z 00000KT 9SM CLR 11/10 A3021 -170 96 -700 000/00 RMK AO2 T01060100
93915KAEX AEX20161124214510311/24/16 21:45:31  5-MIN KAEX 250345Z 00000KT 9SM CLR 11/10 A3021 -170 96 -700 000/00 RMK AO2 T01060100
93915KAEX AEX20161124215011011/24/16 21:50:31  5-MIN KAEX 250350Z 00000KT 9SM CLR 11/10 A3021 -170 96 -700 000/00 RMK AO2 SLP234 T01060100
93915KAEX AEX20161124215510411/24/16 21:55:31  5-MIN KAEX 250355Z 00000KT 9SM CLR 10/10 A3020 -170 100 -700 000/00 RMK AO2 T01000100
93915KAEX AEX20161124220010311/24/16 22:00:31  5-MIN KAEX 250400Z 00000KT 9SM CLR 11/10 A3020 -170 96 -700 000/00 RMK AO2 T01060100
93915KAEX AEX20161124220510411/24/16 22:05:31  5-MIN KAEX 250405Z 00000KT 9SM CLR 10/10 A3021 -170 100 -700 000/00 RMK AO2 T01000100
93915KAEX AEX20161124221010411/24/16 22:10:31  5-MIN KAEX 250410Z 00000KT 9SM CLR 10/10 A3021 -170 100 -700 000/00 RMK AO2 T01000100
93915KAEX AEX20161124221510411/24/16 22:15:31  5-MIN KAEX 250415Z 00000KT 8SM CLR 09/09 A3021 -170 100 -800 000/00 RMK AO2 T00940094
93915KAEX AEX20161124222010311/24/16 22:20:31  5-MIN KAEX 250420Z 00000KT 7SM CLR 10/09 A3021 -170 96 -700 000/00 RMK AO2 T01000094
93915KAEX AEX20161124222510711/24/16 22:25:31  5-MIN KAEX 250425Z 00000KT 5SM BR CLR 09/09 A3021 -170 100 -800 000/00 RMK AO2 T00940094
93915KAEX AEX20161124223010611/24/16 22:30:31  5-MIN KAEX 250430Z 00000KT 4SM BR CLR 10/09 A3021 -170 96 -700 000/00 RMK AO2 T01000094
93915KAEX AEX20161124223510711/24/16 22:35:31  5-MIN KAEX 250435Z 00000KT 5SM BR CLR 09/09 A3022 -180 100 -800 000/00 RMK AO2 T00940094
93915KAEX AEX20161124224010611/24/16 22:40:31  5-MIN KAEX 250440Z 00000KT 6SM BR CLR 10/09 A3022 -180 96 -700 000/00 RMK AO2 T01000094
93915KAEX AEX20161124224510411/24/16 22:45:31  5-MIN KAEX 250445Z 00000KT 7SM CLR 09/09 A3022 -180 100 -800 000/00 RMK AO2 T00940094
93915KAEX AEX20161124225011011/24/16 22:50:31  5-MIN KAEX 250450Z 00000KT 8SM CLR 10/09 A3022 -180 96 -700 000/00 RMK AO2 SLP236 T01000094
93915KAEX AEX20161124225510311/24/16 22:55:31  5-MIN KAEX 250455Z 00000KT 8SM CLR 10/09 A3022 -180 96 -700 000/00 RMK AO2 T01000094
93915KAEX AEX20161124230010311/24/16 23:00:31  5-MIN KAEX 250500Z 00000KT 8SM CLR 10/09 A3022 -180 96 -700 000/00 RMK AO2 T01000094
93915KAEX AEX20161124230510411/24/16 23:05:31  5-MIN KAEX 250505Z 00000KT 8SM CLR 10/10 A3022 -180 100 -700 000/00 RMK AO2 T01000100
93915KAEX AEX20161124231010311/24/16 23:10:31  5-MIN KAEX 250510Z 00000KT 8SM CLR 10/09 A3022 -180 96 -700 000/00 RMK AO2 T01000094
93915KAEX AEX20161124231510311/24/16 23:15:31  5-MIN KAEX 250515Z 00000KT 8SM CLR 09/09 A3022 -180 96 -800 000/00 RMK AO2 T00940089
93915KAEX AEX20161124232010411/24/16 23:20:31  5-MIN KAEX 250520Z 30003KT 7SM CLR 09/09 A3022 -180 100 -800 300/03 RMK AO2 T00940094
93915KAEX AEX20161124232510411/24/16 23:25:31  5-MIN KAEX 250525Z 00000KT 8SM CLR 09/09 A3022 -180 100 -900 000/00 RMK AO2 T00890089
93915KAEX AEX20161124233010311/24/16 23:30:31  5-MIN KAEX 250530Z 00000KT 7SM CLR 10/09 A3022 -180 96 -700 000/00 RMK AO2 T01000094
93915KAEX AEX20161124233510711/24/16 23:35:31  5-MIN KAEX 250535Z 00000KT 6SM BR CLR 09/09 A3023 -180 100 -900 000/00 RMK AO2 T00890089
93915KAEX AEX20161124234010611/24/16 23:40:31  5-MIN KAEX 250540Z 00000KT 6SM BR CLR 09/09 A3023 -190 96 -800 000/00 RMK AO2 T00940089
93915KAEX AEX20161124234510711/24/16 23:45:31  5-MIN KAEX 250545Z 00000KT 6SM BR CLR 09/09 A3022 -180 100 -800 000/00 RMK AO2 T00940094
93915KAEX AEX20161124235013911/24/16 23:50:31  5-MIN KAEX 250550Z 00000KT 7SM CLR 09/09 A3023 -180 100 -900 000/00 RMK AO2 SLP239 T00890089 10144 20089 402060061 51010
93915KAEX AEX20161124235510311/24/16 23:55:31  5-MIN KAEX 250555Z 00000KT 9SM CLR 09/09 A3022 -180 96 -800 000/00 RMK AO2 T00940089
93915KAEX AEX20161125000010311/25/16 00:00:31  5-MIN KAEX 250600Z 00000KT 8SM CLR 09/09 A3022 -180 96 -800 000/00 RMK AO2 T00940089
93915KAEX AEX20161125000510311/25/16 00:05:31  5-MIN KAEX 250605Z 00000KT 7SM CLR 09/09 A3022 -180 96 -800 000/00 RMK AO2 T00940089
93915KAEX AEX20161125001010311/25/16 00:10:31  5-MIN KAEX 250610Z 00000KT 7SM CLR 10/09 A3023 -190 96 -700 000/00 RMK AO2 T01000094
93915KAEX AEX20161125001510411/25/16 00:15:31  5-MIN KAEX 250615Z 00000KT 7SM CLR 09/09 A3022 -180 100 -800 000/00 RMK AO2 T00940094
93915KAEX AEX20161125002010411/25/16 00:20:31  5-MIN KAEX 250620Z 00000KT 7SM CLR 09/09 A3022 -180 100 -900 000/00 RMK AO2 T00890089
93915KAEX AEX20161125002510311/25/16 00:25:31  5-MIN KAEX 250625Z 00000KT 8SM CLR 09/09 A3022 -180 96 -800 000/00 RMK AO2 T00940089
93915KAEX AEX20161125003010411/25/16 00:30:31  5-MIN KAEX 250630Z 00000KT 8SM CLR 09/09 A3022 -180 100 -900 000/00 RMK AO2 T00890089
93915KAEX AEX20161125003510311/25/16 00:35:31  5-MIN KAEX 250635Z 00000KT 8SM CLR 09/09 A3022 -180 96 -800 000/00 RMK AO2 T00940089
93915KAEX AEX20161125004010311/25/16 00:40:31  5-MIN KAEX 250640Z 00000KT 8SM CLR 09/09 A3022 -180 96 -800 000/00 RMK AO2 T00940089
93915KAEX AEX20161125004510311/25/16 00:45:31  5-MIN KAEX 250645Z 00000KT 8SM CLR 09/09 A3023 -190 96 -800 000/00 RMK AO2 T00940089
93915KAEX AEX20161125005011111/25/16 00:50:31  5-MIN KAEX 250650Z 00000KT 8SM CLR 09/09 A3023 -190 100 -900 000/00 RMK AO2 SLP240 T00890089
93915KAEX AEX20161125005510311/25/16 00:55:31  5-MIN KAEX 250655Z 00000KT 8SM CLR 09/08 A3023 -190 96 -900 000/00 RMK AO2 T00890083
93915KAEX AEX20161125010010311/25/16 01:00:31  5-MIN KAEX 250700Z 00000KT 7SM CLR 09/08 A3023 -190 96 -900 000/00 RMK AO2 T00890083
93915KAEX AEX20161125010510711/25/16 01:05:31  5-MIN KAEX 250705Z 00000KT 6SM BR CLR 08/08 A3023 -190 100 -900 000/00 RMK AO2 T00830083
93915KAEX AEX20161125011010711/25/16 01:10:31  5-MIN KAEX 250710Z 00000KT 6SM BR CLR 08/08 A3023 -190 100 -900 000/00 RMK AO2 T00830083
93915KAEX AEX20161125011510711/25/16 01:15:31  5-MIN KAEX 250715Z 00000KT 6SM BR CLR 08/08 A3023 -190 100 -900 000/00 RMK AO2 T00830083
93915KAEX AEX20161125012010311/25/16 01:20:31  5-MIN KAEX 250720Z 00000KT 7SM CLR 08/08 A3023 -190 96 -900 000/00 RMK AO2 T00830078
93915KAEX AEX20161125012510311/25/16 01:25:31  5-MIN KAEX 250725Z 00000KT 8SM CLR 08/08 A3023 -190 96 -900 000/00 RMK AO2 T00830078
93915KAEX AEX20161125013010611/25/16 01:30:31  5-MIN KAEX 250730Z 00000KT 7SM FEW002 09/08 A3023 -190 96 -900 000/00 RMK AO2 T00890083
93915KAEX AEX20161125013511011/25/16 01:35:31  5-MIN KAEX 250735Z 00000KT 6SM BR FEW002 08/08 A3023 -190 100 -900 000/00 RMK AO2 T00830083
93915KAEX AEX20161125014010411/25/16 01:40:31  5-MIN KAEX 250740Z 00000KT 7SM CLR 08/08 A3023 -190 100 -900 000/00 RMK AO2 T00830083
93915KAEX AEX20161125014510411/25/16 01:45:31  5-MIN KAEX 250745Z 00000KT 8SM CLR 08/08 A3023 -190 100 -900 000/00 RMK AO2 T00830083
93915KAEX AEX20161125015011011/25/16 01:50:31  5-MIN KAEX 250750Z 00000KT 8SM CLR 09/08 A3023 -190 96 -900 000/00 RMK AO2 SLP240 T00890083
93915KAEX AEX20161125015510411/25/16 01:55:31  5-MIN KAEX 250755Z 00000KT 8SM CLR 08/08 A3023 -190 96 -1000 000/00 RMK AO2 T00830078
93915KAEX AEX20161125020010411/25/16 02:00:31  5-MIN KAEX 250800Z 00000KT 8SM CLR 08/08 A3023 -190 96 -1000 000/00 RMK AO2 T00830078
93915KAEX AEX20161125020510811/25/16 02:05:31  5-MIN KAEX 250805Z 00000KT 2SM BR CLR 08/08 A3023 -190 100 -1000 000/00 RMK AO2 T00830083
93915KAEX AEX20161125021011111/25/16 02:10:31  5-MIN KAEX 250810Z 00000KT 1 3/4SM BR CLR 08/08 A3023 -190 96 -1000 000/00 RMK AO2 T00830078
93915KAEX AEX20161125021510811/25/16 02:15:31  5-MIN KAEX 250815Z 32003KT 5SM BR CLR 08/08 A3024 -190 100 -1000 320/03 RMK AO2 T00780078
93915KAEX AEX20161125022010811/25/16 02:20:31  5-MIN KAEX 250820Z 31003KT 6SM BR CLR 07/07 A3024 -200 100 -1100 310/03 RMK AO2 T00720072
93915KAEX AEX20161125022510711/25/16 02:25:31  5-MIN KAEX 250825Z 29004KT 5SM BR CLR 08/07 A3024 -200 96 -1000 290/04 RMK AO2 T00780072
93915KAEX AEX20161125023010811/25/16 02:30:31  5-MIN KAEX 250830Z 31003KT 5SM BR CLR 07/07 A3024 -200 100 -1100 300/03 RMK AO2 T00720072
93915KAEX AEX20161125023510811/25/16 02:35:31  5-MIN KAEX 250835Z 30003KT 5SM BR CLR 07/07 A3024 -200 100 -1100 300/03 RMK AO2 T00720072
93915KAEX AEX20161125024010811/25/16 02:40:31  5-MIN KAEX 250840Z 27003KT 5SM BR CLR 07/07 A3024 -200 100 -1100 260/03 RMK AO2 T00720072
93915KAEX AEX20161125024510711/25/16 02:45:31  5-MIN KAEX 250845Z 00000KT 5SM BR CLR 08/07 A3024 -200 96 -1000 000/00 RMK AO2 T00780072
93915KAEX AEX20161125025012011/25/16 02:50:31  5-MIN KAEX 250850Z 00000KT 5SM BR CLR 08/07 A3024 -200 96 -1000 000/00 RMK AO2 SLP245 T00780072 53005
93915KAEX AEX20161125025510811/25/16 02:55:31  5-MIN KAEX 250855Z 29003KT 5SM BR CLR 07/07 A3025 -210 100 -1100 290/03 RMK AO2 T00720072
93915KAEX AEX20161125030010811/25/16 03:00:31  5-MIN KAEX 250900Z 30003KT 5SM BR CLR 07/07 A3025 -210 100 -1100 290/03 RMK AO2 T00720072
93915KAEX AEX20161125030510811/25/16 03:05:31  5-MIN KAEX 250905Z 31003KT 5SM BR CLR 07/07 A3025 -210 100 -1100 310/03 RMK AO2 T00720072
93915KAEX AEX20161125031010811/25/16 03:10:31  5-MIN KAEX 250910Z 32003KT 6SM BR CLR 07/07 A3025 -210 100 -1100 320/03 RMK AO2 T00720072
93915KAEX AEX20161125031510711/25/16 03:15:31  5-MIN KAEX 250915Z 32003KT 6SM BR CLR 07/07 A3026 -210 96 -1100 320/03 RMK AO2 T00720067
93915KAEX AEX20161125032010711/25/16 03:20:31  5-MIN KAEX 250920Z 00000KT 6SM BR CLR 07/07 A3026 -210 96 -1100 000/00 RMK AO2 T00720067
93915KAEX AEX20161125032510811/25/16 03:25:31  5-MIN KAEX 250925Z 00000KT 5SM BR CLR 07/07 A3026 -210 100 -1100 000/00 RMK AO2 T00720072
93915KAEX AEX20161125033010411/25/16 03:30:31  5-MIN KAEX 250930Z 03003KT 7SM CLR 08/07 A3026 -210 96 -1000 030/03 RMK AO2 T00780072
93915KAEX AEX20161125033510511/25/16 03:35:31  5-MIN KAEX 250935Z 00000KT 7SM CLR 07/07 A3026 -220 100 -1100 000/00 RMK AO2 T00720072
93915KAEX AEX20161125034010511/25/16 03:40:31  5-MIN KAEX 250940Z 01003KT 7SM CLR 08/08 A3026 -220 100 -1100 010/03 RMK AO2 T00780078
93915KAEX AEX20161125034510511/25/16 03:45:31  5-MIN KAEX 250945Z 33003KT 8SM CLR 08/08 A3026 -220 100 -1100 330/03 RMK AO2 T00780078
93915KAEX AEX20161125035011111/25/16 03:50:31  5-MIN KAEX 250950Z 32003KT 7SM CLR 08/07 A3026 -220 96 -1100 320/03 RMK AO2 SLP252 T00780072
93915KAEX AEX20161125035510811/25/16 03:55:31  5-MIN KAEX 250955Z 31003KT 6SM BR CLR 08/08 A3026 -220 100 -1100 310/03 RMK AO2 T00780078
93915KAEX AEX20161125040010811/25/16 04:00:31  5-MIN KAEX 251000Z 32003KT 5SM BR CLR 08/08 A3027 -220 100 -1000 320/03 RMK AO2 T00830083
93915KAEX AEX20161125040510811/25/16 04:05:31  5-MIN KAEX 251005Z 31003KT 5SM BR CLR 08/08 A3027 -220 100 -1100 310/03 RMK AO2 T00780078
93915KAEX AEX20161125041010811/25/16 04:10:31  5-MIN KAEX 251010Z 31003KT 4SM BR CLR 08/08 A3027 -220 100 -1100 310/03 RMK AO2 T00780078
93915KAEX AEX20161125041510811/25/16 04:15:31  5-MIN KAEX 251015Z 31004KT 4SM BR CLR 07/07 A3027 -220 100 -1100 310/04 RMK AO2 T00720072
93915KAEX AEX20161125042010811/25/16 04:20:31  5-MIN KAEX 251020Z 31004KT 4SM BR CLR 08/08 A3027 -220 100 -1100 310/04 RMK AO2 T00780078
93915KAEX AEX20161125042510811/25/16 04:25:31  5-MIN KAEX 251025Z 29003KT 4SM BR CLR 08/08 A3027 -230 100 -1100 290/03 RMK AO2 T00780078
93915KAEX AEX20161125043010811/25/16 04:30:31  5-MIN KAEX 251030Z 00000KT 5SM BR CLR 08/08 A3027 -230 100 -1100 000/00 RMK AO2 T00780078
93915KAEX AEX20161125043510811/25/16 04:35:31  5-MIN KAEX 251035Z 00000KT 5SM BR CLR 08/08 A3027 -230 100 -1100 000/00 RMK AO2 T00780078
93915KAEX AEX20161125044010711/25/16 04:40:31  5-MIN KAEX 251040Z 00000KT 5SM BR CLR 08/07 A3027 -220 96 -1100 000/00 RMK AO2 T00780072
93915KAEX AEX20161125044510811/25/16 04:45:31  5-MIN KAEX 251045Z 00000KT 6SM BR CLR 08/08 A3027 -220 100 -1100 000/00 RMK AO2 T00780078
93915KAEX AEX20161125045011211/25/16 04:50:31  5-MIN KAEX 251050Z 00000KT 7SM CLR 08/08 A3026 -220 100 -1100 000/00 RMK AO2 SLP252 T00780078
93915KAEX AEX20161125045510811/25/16 04:55:31  5-MIN KAEX 251055Z 00000KT 5SM BR CLR 08/08 A3026 -220 100 -1100 000/00 RMK AO2 T00780078
93915KAEX AEX20161125050010811/25/16 05:00:31  5-MIN KAEX 251100Z 00000KT 4SM BR CLR 07/07 A3026 -220 100 -1100 000/00 RMK AO2 T00720072
93915KAEX AEX20161125050510811/25/16 05:05:31  5-MIN KAEX 251105Z 00000KT 5SM BR CLR 07/07 A3026 -220 100 -1100 000/00 RMK AO2 T00720072
93915KAEX AEX20161125051010711/25/16 05:10:31  5-MIN KAEX 251110Z 00000KT 6SM BR CLR 08/07 A3026 -220 96 -1100 000/00 RMK AO2 T00780072
93915KAEX AEX20161125051510811/25/16 05:15:31  5-MIN KAEX 251115Z 00000KT 6SM BR CLR 07/07 A3026 -220 100 -1100 000/00 RMK AO2 T00720072
93915KAEX AEX20161125052011011/25/16 05:20:31  5-MIN KAEX 251120Z 00000KT 6SM BR FEW085 08/07 A3027 -220 96 -1100 000/00 RMK AO2 T00780072
93915KAEX AEX20161125052511111/25/16 05:25:31  5-MIN KAEX 251125Z 00000KT 5SM BR FEW085 07/07 A3026 -220 100 -1100 000/00 RMK AO2 T00720072
93915KAEX AEX20161125053011111/25/16 05:30:31  5-MIN KAEX 251130Z 25003KT 4SM BR FEW080 07/07 A3027 -220 100 -1100 250/03 RMK AO2 T00720072
93915KAEX AEX20161125053511111/25/16 05:35:31  5-MIN KAEX 251135Z 28003KT 4SM BR FEW080 07/07 A3027 -220 100 -1100 270/03 RMK AO2 T00720072
93915KAEX AEX20161125054011111/25/16 05:40:31  5-MIN KAEX 251140Z 00000KT 3SM BR FEW080 07/07 A3027 -230 100 -1100 000/00 RMK AO2 T00720072
93915KAEX AEX20161125054511111/25/16 05:45:31  5-MIN KAEX 251145Z 00000KT 4SM BR FEW080 07/07 A3027 -230 100 -1200 000/00 RMK AO2 T00670067
93915KAEX AEX20161125055013211/25/16 05:50:31  5-MIN KAEX 251150Z 00000KT 5SM BR CLR 07/07 A3027 -230 96 -1100 000/00 RMK AO2 SLP256 T00720067 10100 20067 53007
93915KAEX AEX20161125055510511/25/16 05:55:31  5-MIN KAEX 251155Z 36003KT 7SM CLR 07/07 A3027 -230 100 -1100 360/03 RMK AO2 T00720072
93915KAEX AEX20161125060010511/25/16 06:00:31  5-MIN KAEX 251200Z 00000KT 7SM CLR 07/07 A3028 -230 100 -1100 000/00 RMK AO2 T00720072
93915KAEX AEX20161125060510511/25/16 06:05:31  5-MIN KAEX 251205Z 00000KT 7SM CLR 07/07 A3028 -230 100 -1100 000/00 RMK AO2 T00720072
93915KAEX AEX20161125061010511/25/16 06:10:31  5-MIN KAEX 251210Z 00000KT 7SM CLR 07/07 A3028 -240 100 -1100 000/00 RMK AO2 T00720072
93915KAEX AEX20161125061510811/25/16 06:15:31  5-MIN KAEX 251215Z 00000KT 6SM BR CLR 07/07 A3028 -240 100 -1100 000/00 RMK AO2 T00720072
93915KAEX AEX20161125062010811/25/16 06:20:31  5-MIN KAEX 251220Z 00000KT 5SM BR CLR 07/07 A3029 -240 100 -1200 000/00 RMK AO2 T00720072
93915KAEX AEX20161125062510811/25/16 06:25:31  5-MIN KAEX 251225Z 00000KT 5SM BR CLR 07/07 A3029 -240 100 -1200 000/00 RMK AO2 T00720072
93915KAEX AEX20161125063010811/25/16 06:30:31  5-MIN KAEX 251230Z 00000KT 5SM BR CLR 07/07 A3029 -240 100 -1200 000/00 RMK AO2 T00720072
93915KAEX AEX20161125063510811/25/16 06:35:31  5-MIN KAEX 251235Z 00000KT 5SM BR CLR 07/07 A3029 -250 100 -1200 000/00 RMK AO2 T00720072
93915KAEX AEX20161125064010811/25/16 06:40:31  5-MIN KAEX 251240Z 00000KT 5SM BR CLR 07/07 A3030 -250 100 -1200 000/00 RMK AO2 T00720072
93915KAEX AEX20161125064510811/25/16 06:45:31  5-MIN KAEX 251245Z 00000KT 4SM BR CLR 07/07 A3030 -250 100 -1200 000/00 RMK AO2 T00720072
93915KAEX AEX20161125065011411/25/16 06:50:31  5-MIN KAEX 251250Z 00000KT 4SM BR CLR 07/07 A3030 -250 96 -1200 000/00 RMK AO2 SLP266 T00720067
93915KAEX AEX20161125065510811/25/16 06:55:31  5-MIN KAEX 251255Z 00000KT 4SM BR CLR 07/07 A3030 -260 100 -1200 000/00 RMK AO2 T00720072
93915KAEX AEX20161125070010811/25/16 07:00:31  5-MIN KAEX 251300Z 00000KT 5SM BR CLR 07/07 A3030 -260 100 -1200 000/00 RMK AO2 T00720072
93915KAEX AEX20161125070510811/25/16 07:05:31  5-MIN KAEX 251305Z 00000KT 5SM BR CLR 07/07 A3030 -260 100 -1200 000/00 RMK AO2 T00720072
93915KAEX AEX20161125071010811/25/16 07:10:31  5-MIN KAEX 251310Z 00000KT 6SM BR CLR 07/07 A3031 -260 100 -1200 000/00 RMK AO2 T00720072
93915KAEX AEX20161125071510711/25/16 07:15:31  5-MIN KAEX 251315Z 00000KT 6SM BR CLR 08/07 A3031 -260 96 -1100 000/00 RMK AO2 T00780072
93915KAEX AEX20161125072010711/25/16 07:20:31  5-MIN KAEX 251320Z 00000KT 6SM BR CLR 08/07 A3031 -260 96 -1100 000/00 RMK AO2 T00780072
93915KAEX AEX20161125072510811/25/16 07:25:31  5-MIN KAEX 251325Z 00000KT 6SM BR CLR 08/08 A3032 -270 100 -1100 000/00 RMK AO2 T00780078
93915KAEX AEX20161125073010811/25/16 07:30:31  5-MIN KAEX 251330Z 00000KT 5SM BR CLR 08/08 A3032 -270 100 -1100 000/00 RMK AO2 T00830083
93915KAEX AEX20161125073510811/25/16 07:35:31  5-MIN KAEX 251335Z 00000KT 5SM BR CLR 08/08 A3031 -270 100 -1000 000/00 RMK AO2 T00830083
93915KAEX AEX20161125074010611/25/16 07:40:31  5-MIN KAEX 251340Z 00000KT 5SM BR CLR 09/09 A3031 -270 96 -900 000/00 RMK AO2 T00940089
93915KAEX AEX20161125074510611/25/16 07:45:31  5-MIN KAEX 251345Z 00000KT 5SM BR CLR 10/09 A3032 -270 96 -800 000/00 RMK AO2 T01000094
93915KAEX AEX20161125075011311/25/16 07:50:31  5-MIN KAEX 251350Z 00000KT 5SM BR CLR 10/09 A3032 -270 96 -800 000/00 RMK AO2 SLP271 T01000094
93915KAEX AEX20161125075510711/25/16 07:55:31  5-MIN KAEX 251355Z 09004KT 5SM BR CLR 10/10 A3032 -270 100 -800 080/04 RMK AO2 T01000100
93915KAEX AEX20161125080010611/25/16 08:00:31  5-MIN KAEX 251400Z VRB04KT 5SM BR CLR 11/10 A3032 -270 96 -800 VRB/04 RMK AO2 T01060100
93915KAEX AEX20161125080510611/25/16 08:05:31  5-MIN KAEX 251405Z VRB03KT 5SM BR CLR 11/10 A3032 -270 96 -800 VRB/03 RMK AO2 T01060100
93915KAEX AEX20161125081010711/25/16 08:10:31  5-MIN KAEX 251410Z 08003KT 5SM BR CLR 11/11 A3032 -270 100 -800 080/03 RMK AO2 T01060106
93915KAEX AEX20161125081510611/25/16 08:15:31  5-MIN KAEX 251415Z 00000KT 5SM BR CLR 11/11 A3032 -270 96 -700 000/00 RMK AO2 T01110106
93915KAEX AEX20161125082010611/25/16 08:20:31  5-MIN KAEX 251420Z 04003KT 5SM BR CLR 12/11 A3032 -270 93 -700 040/03 RMK AO2 T01170106
93915KAEX AEX20161125082510611/25/16 08:25:31  5-MIN KAEX 251425Z 02003KT 6SM BR CLR 12/11 A3033 -280 93 -700 020/03 RMK AO2 T01170106
93915KAEX AEX20161125083010611/25/16 08:30:31  5-MIN KAEX 251430Z 00000KT 6SM BR CLR 12/11 A3033 -280 93 -600 000/00 RMK AO2 T01220111
93915KAEX AEX20161125083510611/25/16 08:35:31  5-MIN KAEX 251435Z 00000KT 6SM BR CLR 12/11 A3033 -280 93 -600 000/00 RMK AO2 T01220111
93915KAEX AEX20161125084010311/25/16 08:40:31  5-MIN KAEX 251440Z 00000KT 7SM CLR 13/11 A3033 -280 89 -500 000/00 RMK AO2 T01280111
93915KAEX AEX20161125084510311/25/16 08:45:31  5-MIN KAEX 251445Z 07004KT 7SM CLR 13/11 A3033 -280 86 -500 070/04 RMK AO2 T01330111
93915KAEX AEX20161125085011611/25/16 08:50:31  5-MIN KAEX 251450Z 00000KT 8SM CLR 13/11 A3033 -280 86 -500 000/00 RMK AO2 SLP274 T01330111 51009
93915KAEX AEX20161125085510611/25/16 08:55:31  5-MIN KAEX 251455Z 00000KT 8SM FEW080 13/12 A3033 -280 89 -500 000/00 RMK AO2 T01330117
93915KAEX AEX20161125090010611/25/16 09:00:31  5-MIN KAEX 251500Z VRB03KT 8SM SCT075 14/12 A3033 -280 86 -400 VRB/03 RMK AO2 T01390117
93915KAEX AEX20161125090510611/25/16 09:05:31  5-MIN KAEX 251505Z 09004KT 8SM BKN075 14/12 A3033 -280 86 -400 090/04 RMK AO2 T01390117
93915KAEX AEX20161125091010611/25/16 09:10:31  5-MIN KAEX 251510Z 12003KT 9SM BKN075 14/12 A3034 -290 86 -400 120/03 RMK AO2 T01390117
93915KAEX AEX20161125091510611/25/16 09:15:31  5-MIN KAEX 251515Z 14003KT 9SM SCT075 14/12 A3034 -290 83 -300 130/03 RMK AO2 T01440117
93915KAEX AEX20161125092010611/25/16 09:20:31  5-MIN KAEX 251520Z 00000KT 9SM SCT075 14/12 A3034 -290 83 -300 000/00 RMK AO2 T01440117
93915KAEX AEX20161125092510611/25/16 09:25:31  5-MIN KAEX 251525Z 00000KT 9SM SCT075 14/12 A3034 -290 83 -300 000/00 RMK AO2 T01440117
93915KAEX AEX20161125093010611/25/16 09:30:31  5-MIN KAEX 251530Z 00000KT 9SM FEW075 16/12 A3034 -290 80 -200 000/00 RMK AO2 T01560122
93915KAEX AEX20161125093510411/25/16 09:35:31  5-MIN KAEX 251535Z 00000KT 10SM CLR 16/12 A3034 -290 80 -200 000/00 RMK AO2 T01560122
93915KAEX AEX20161125094010411/25/16 09:40:31  5-MIN KAEX 251540Z 06004KT 10SM CLR 16/12 A3034 -290 77 -100 060/04 RMK AO2 T01610122
93915KAEX AEX20161125094510411/25/16 09:45:31  5-MIN KAEX 251545Z 08005KT 10SM CLR 16/12 A3034 -290 77 -100 080/05 RMK AO2 T01610122
93915KAEX AEX20161125095011111/25/16 09:50:31  5-MIN KAEX 251550Z 07004KT 10SM CLR 17/12 A3034 -290 75 -100 070/04 RMK AO2 SLP278 T01670122
93915KAEX AEX20161125095510411/25/16 09:55:31  5-MIN KAEX 251555Z 09006KT 10SM CLR 17/12 A3034 -290 75 -100 080/06 RMK AO2 T01670122
93915KAEX AEX20161125100010411/25/16 10:00:31  5-MIN KAEX 251600Z 08003KT 10SM CLR 17/12 A3033 -280 72 -100 080/03 RMK AO2 T01670117
93915KAEX AEX20161125100510411/25/16 10:05:31  5-MIN KAEX 251605Z 08004KT 10SM CLR 17/12 A3033 -280 75 -100 070/04 RMK AO2 T01670122
93915KAEX AEX20161125101010411/25/16 10:10:31  5-MIN KAEX 251610Z 09005KT 10SM CLR 17/12 A3033 -280 75 -100 090/05 RMK AO2 T01670122
93915KAEX AEX20161125101510111/25/16 10:15:31  5-MIN KAEX 251615Z 10005KT 10SM CLR 17/12 A3033 -280 69 0 100/05 RMK AO2 T01720117
93915KAEX AEX20161125102010311/25/16 10:20:31  5-MIN KAEX 251620Z 04004KT 10SM CLR 18/12 A3033 -280 67 100 040/04 RMK AO2 T01830122
93915KAEX AEX20161125102510311/25/16 10:25:31  5-MIN KAEX 251625Z 05005KT 10SM CLR 18/12 A3033 -280 65 100 050/05 RMK AO2 T01830117
93915KAEX AEX20161125103010311/25/16 10:30:31  5-MIN KAEX 251630Z VRB04KT 10SM CLR 18/12 A3033 -280 65 100 VRB/04 RMK AO2 T01830117
93915KAEX AEX20161125103510311/25/16 10:35:31  5-MIN KAEX 251635Z 04005KT 10SM CLR 18/12 A3033 -280 65 100 040/05 RMK AO2 T01830117
93915KAEX AEX20161125104010311/25/16 10:40:31  5-MIN KAEX 251640Z VRB04KT 10SM CLR 19/12 A3033 -280 62 100 VRB/04 RMK AO2 T01890117
93915KAEX AEX20161125104510311/25/16 10:45:31  5-MIN KAEX 251645Z 35006KT 10SM CLR 18/12 A3033 -280 65 100 350/06 RMK AO2 T01830117
93915KAEX AEX20161125105011011/25/16 10:50:31  5-MIN KAEX 251650Z 04003KT 10SM CLR 19/12 A3033 -280 62 100 040/03 RMK AO2 SLP275 T01890117
93915KAEX AEX20161125105510311/25/16 10:55:31  5-MIN KAEX 251655Z VRB03KT 10SM CLR 19/12 A3033 -280 60 200 VRB/03 RMK AO2 T01940117
93915KAEX AEX20161125110010311/25/16 11:00:31  5-MIN KAEX 251700Z 00000KT 10SM CLR 19/11 A3033 -280 60 100 000/00 RMK AO2 T01890111
93915KAEX AEX20161125110510311/25/16 11:05:31  5-MIN KAEX 251705Z 00000KT 10SM CLR 19/12 A3033 -280 60 200 000/00 RMK AO2 T01940117
93915KAEX AEX20161125111010311/25/16 11:10:31  5-MIN KAEX 251710Z 00000KT 10SM CLR 19/12 A3033 -280 62 100 000/00 RMK AO2 T01890117
93915KAEX AEX20161125111510311/25/16 11:15:31  5-MIN KAEX 251715Z 00000KT 10SM CLR 19/12 A3032 -270 60 200 000/00 RMK AO2 T01940117
93915KAEX AEX20161125112010311/25/16 11:20:31  5-MIN KAEX 251720Z 00000KT 10SM CLR 19/12 A3032 -270 60 200 000/00 RMK AO2 T01940117
93915KAEX AEX20161125112509311/25/16 11:25:31  5-MIN KAEX 251725Z 10SM CLR 19/12 A3032 -270 60 200 M /M RMK AO2 T01940117
93915KAEX AEX20161125113010311/25/16 11:30:31  5-MIN KAEX 251730Z 34007KT 10SM CLR 20/11 A3031 -270 56 300 340/07 RMK AO2 T02000111
93915KAEX AEX20161125113510311/25/16 11:35:31  5-MIN KAEX 251735Z 36007KT 10SM CLR 20/11 A3031 -260 56 300 360/07 RMK AO2 T02000111
93915KAEX AEX20161125114010311/25/16 11:40:31  5-MIN KAEX 251740Z 02006KT 10SM CLR 21/11 A3030 -260 54 400 020/06 RMK AO2 T02060111
93915KAEX AEX20161125114510311/25/16 11:45:31  5-MIN KAEX 251745Z VRB06KT 10SM CLR 21/11 A3030 -250 54 400 VRB/06 RMK AO2 T02060111
93915KAEX AEX20161125115012811/25/16 11:50:31  5-MIN KAEX 251750Z VRB03KT 10SM CLR 21/11 A3030 -250 52 400 VRB/03 RMK AO2 SLP263 T02110111 10211 20072 51020
93915KAEX AEX20161125115510311/25/16 11:55:31  5-MIN KAEX 251755Z 02006KT 10SM CLR 21/11 A3029 -250 54 400 020/06 RMK AO2 T02060111
93915KAEX AEX20161125120010311/25/16 12:00:31  5-MIN KAEX 251800Z VRB03KT 10SM CLR 21/11 A3029 -240 54 400 VRB/03 RMK AO2 T02060111
93915KAEX AEX20161125120510311/25/16 12:05:31  5-MIN KAEX 251805Z 07005KT 10SM CLR 21/11 A3029 -240 52 400 060/05 RMK AO2 T02110111
93915KAEX AEX20161125121010311/25/16 12:10:31  5-MIN KAEX 251810Z 04005KT 10SM CLR 21/11 A3029 -240 50 500 030/05 RMK AO2 T02110106
93915KAEX AEX20161125121510311/25/16 12:15:31  5-MIN KAEX 251815Z 35006KT 10SM CLR 21/11 A3029 -240 50 500 350/06 RMK AO2 T02110106
93915KAEX AEX20161125122010311/25/16 12:20:31  5-MIN KAEX 251820Z VRB06KT 10SM CLR 21/11 A3028 -240 52 500 VRB/06 RMK AO2 T02110111
93915KAEX AEX20161125122510311/25/16 12:25:31  5-MIN KAEX 251825Z 04007KT 10SM CLR 21/11 A3028 -240 52 500 030/07 RMK AO2 T02110111
93915KAEX AEX20161125123010311/25/16 12:30:31  5-MIN KAEX 251830Z 01008KT 10SM CLR 21/11 A3028 -230 50 500 010/08 RMK AO2 T02110106
93915KAEX AEX20161125123510311/25/16 12:35:31  5-MIN KAEX 251835Z 01007KT 10SM CLR 21/10 A3028 -240 48 500 360/07 RMK AO2 T02110100
93915KAEX AEX20161125124010311/25/16 12:40:31  5-MIN KAEX 251840Z VRB05KT 10SM CLR 21/11 A3027 -230 50 500 VRB/05 RMK AO2 T02110106
93915KAEX AEX20161125124510311/25/16 12:45:31  5-MIN KAEX 251845Z VRB06KT 10SM CLR 21/11 A3027 -230 50 500 VRB/06 RMK AO2 T02110106
93915KAEX AEX20161125125011011/25/16 12:50:31  5-MIN KAEX 251850Z 04005KT 10SM CLR 22/10 A3027 -220 47 500 040/05 RMK AO2 SLP253 T02170100
93915KAEX AEX20161125125510311/25/16 12:55:31  5-MIN KAEX 251855Z VRB06KT 10SM CLR 22/10 A3027 -220 47 500 VRB/06 RMK AO2 T02170100
93915KAEX AEX20161125130010311/25/16 13:00:31  5-MIN KAEX 251900Z 06006KT 10SM CLR 22/11 A3027 -220 49 500 050/06 RMK AO2 T02170106
93915KAEX AEX20161125130510311/25/16 13:05:31  5-MIN KAEX 251905Z 00000KT 10SM CLR 21/11 A3027 -220 50 500 000/00 RMK AO2 T02110106
93915KAEX AEX20161125131010311/25/16 13:10:31  5-MIN KAEX 251910Z 34005KT 10SM CLR 22/11 A3027 -220 49 500 340/05 RMK AO2 T02170106
93915KAEX AEX20161125131510311/25/16 13:15:31  5-MIN KAEX 251915Z 36006KT 10SM CLR 22/11 A3027 -220 49 500 360/06 RMK AO2 T02170106
93915KAEX AEX20161125132010311/25/16 13:20:31  5-MIN KAEX 251920Z 36007KT 10SM CLR 22/11 A3027 -220 49 500 360/07 RMK AO2 T02170106
93915KAEX AEX20161125132510311/25/16 13:25:31  5-MIN KAEX 251925Z 35006KT 10SM CLR 22/10 A3026 -220 47 500 350/06 RMK AO2 T02170100
93915KAEX AEX20161125133010311/25/16 13:30:31  5-MIN KAEX 251930Z 36005KT 10SM CLR 22/11 A3026 -220 47 600 360/05 RMK AO2 T02220106
93915KAEX AEX20161125133510311/25/16 13:35:31  5-MIN KAEX 251935Z 35007KT 10SM CLR 22/10 A3026 -220 47 500 350/07 RMK AO2 T02170100
93915KAEX AEX20161125134010311/25/16 13:40:31  5-MIN KAEX 251940Z 00000KT 10SM CLR 22/10 A3026 -220 47 500 000/00 RMK AO2 T02170100
93915KAEX AEX20161125134510311/25/16 13:45:31  5-MIN KAEX 251945Z 34006KT 10SM CLR 22/11 A3026 -220 49 500 340/06 RMK AO2 T02170106
93915KAEX AEX20161125135011011/25/16 13:50:31  5-MIN KAEX 251950Z 03005KT 10SM CLR 22/11 A3026 -220 47 600 030/05 RMK AO2 SLP250 T02220106
93915KAEX AEX20161125135510311/25/16 13:55:31  5-MIN KAEX 251955Z 36007KT 10SM CLR 22/10 A3026 -210 47 500 360/07 RMK AO2 T02170100
93915KAEX AEX20161125140010311/25/16 14:00:31  5-MIN KAEX 252000Z 36005KT 10SM CLR 22/10 A3026 -210 47 600 360/05 RMK AO2 T02170100
93915KAEX AEX20161125140510311/25/16 14:05:31  5-MIN KAEX 252005Z VRB06KT 10SM CLR 22/11 A3026 -210 47 600 VRB/06 RMK AO2 T02220106
93915KAEX AEX20161125141010311/25/16 14:10:31  5-MIN KAEX 252010Z 01003KT 10SM CLR 22/10 A3026 -210 47 600 010/03 RMK AO2 T02170100
93915KAEX AEX20161125141510311/25/16 14:15:31  5-MIN KAEX 252015Z 35008KT 10SM CLR 22/11 A3026 -210 49 500 350/08 RMK AO2 T02170106
93915KAEX AEX20161125142010311/25/16 14:20:31  5-MIN KAEX 252020Z 34006KT 10SM CLR 22/10 A3026 -210 47 600 340/06 RMK AO2 T02170100
93915KAEX AEX20161125142510311/25/16 14:25:31  5-MIN KAEX 252025Z 32004KT 10SM CLR 22/11 A3026 -210 49 600 320/04 RMK AO2 T02170106
93915KAEX AEX20161125143011911/25/16 14:30:31  5-MIN KAEX 252030Z 35007KT 300V030 10SM CLR 22/11 A3025 -210 47 600 340/07 300V030 RMK AO2 T02220106
93915KAEX AEX20161125143510311/25/16 14:35:31  5-MIN KAEX 252035Z 34003KT 10SM CLR 22/11 A3025 -210 49 600 340/03 RMK AO2 T02170106
93915KAEX AEX20161125144010311/25/16 14:40:31  5-MIN KAEX 252040Z 36006KT 10SM CLR 22/11 A3025 -210 47 600 360/06 RMK AO2 T02220106
93915KAEX AEX20161125144510311/25/16 14:45:31  5-MIN KAEX 252045Z 02006KT 10SM CLR 22/11 A3025 -210 47 600 020/06 RMK AO2 T02220106
93915KAEX AEX20161125145011611/25/16 14:50:31  5-MIN KAEX 252050Z 36006KT 10SM CLR 22/10 A3025 -210 45 600 360/06 RMK AO2 SLP247 T02220100 58012
93915KAEX AEX20161125145510311/25/16 14:55:31  5-MIN KAEX 252055Z 01004KT 10SM CLR 22/11 A3025 -210 47 600 010/04 RMK AO2 T02220106
93915KAEX AEX20161125150010311/25/16 15:00:31  5-MIN KAEX 252100Z 33006KT 10SM CLR 22/11 A3025 -210 47 600 330/06 RMK AO2 T02220106
93915KAEX AEX20161125150510311/25/16 15:05:31  5-MIN KAEX 252105Z 02005KT 10SM CLR 22/11 A3025 -210 47 600 020/05 RMK AO2 T02220106
93915KAEX AEX20161125151010311/25/16 15:10:31  5-MIN KAEX 252110Z 36006KT 10SM CLR 22/10 A3025 -210 45 600 360/06 RMK AO2 T02220100
93915KAEX AEX20161125151510311/25/16 15:15:31  5-MIN KAEX 252115Z VRB05KT 10SM CLR 22/10 A3025 -210 45 600 VRB/05 RMK AO2 T02220100
93915KAEX AEX20161125152010311/25/16 15:20:31  5-MIN KAEX 252120Z 35006KT 10SM CLR 22/10 A3025 -210 45 600 350/06 RMK AO2 T02220100
93915KAEX AEX20161125152510311/25/16 15:25:31  5-MIN KAEX 252125Z 35005KT 10SM CLR 22/10 A3025 -210 47 600 350/05 RMK AO2 T02170100
93915KAEX AEX20161125153010311/25/16 15:30:31  5-MIN KAEX 252130Z 36006KT 10SM CLR 22/10 A3026 -210 47 600 350/06 RMK AO2 T02170100
93915KAEX AEX20161125153510311/25/16 15:35:31  5-MIN KAEX 252135Z 01006KT 10SM CLR 22/10 A3026 -210 47 500 010/06 RMK AO2 T02170100
93915KAEX AEX20161125154010311/25/16 15:40:31  5-MIN KAEX 252140Z 35007KT 10SM CLR 22/10 A3026 -220 47 500 350/07 RMK AO2 T02170100
93915KAEX AEX20161125154510311/25/16 15:45:31  5-MIN KAEX 252145Z 36007KT 10SM CLR 22/10 A3026 -220 47 500 360/07 RMK AO2 T02170100
93915KAEX AEX20161125155011011/25/16 15:50:31  5-MIN KAEX 252150Z 36006KT 10SM CLR 22/10 A3027 -220 47 500 360/06 RMK AO2 SLP253 T02170100
93915KAEX AEX20161125155510311/25/16 15:55:31  5-MIN KAEX 252155Z 01007KT 10SM CLR 22/10 A3027 -220 47 500 010/07 RMK AO2 T02170100
93915KAEX AEX20161125160010311/25/16 16:00:31  5-MIN KAEX 252200Z 35006KT 10SM CLR 22/10 A3027 -220 47 500 350/06 RMK AO2 T02170100
93915KAEX AEX20161125160510311/25/16 16:05:31  5-MIN KAEX 252205Z 35006KT 10SM CLR 21/10 A3027 -220 48 500 350/06 RMK AO2 T02110100
93915KAEX AEX20161125161010311/25/16 16:10:31  5-MIN KAEX 252210Z 01006KT 10SM CLR 21/10 A3027 -220 48 500 010/06 RMK AO2 T02110100
93915KAEX AEX20161125161510311/25/16 16:15:31  5-MIN KAEX 252215Z 01005KT 10SM CLR 21/10 A3026 -220 48 500 010/05 RMK AO2 T02110100
93915KAEX AEX20161125162010311/25/16 16:20:31  5-MIN KAEX 252220Z 36006KT 10SM CLR 21/10 A3027 -220 50 400 360/06 RMK AO2 T02060100
93915KAEX AEX20161125162510311/25/16 16:25:31  5-MIN KAEX 252225Z 01007KT 10SM CLR 20/10 A3027 -220 52 300 360/07 RMK AO2 T02000100
93915KAEX AEX20161125163010311/25/16 16:30:31  5-MIN KAEX 252230Z 02004KT 10SM CLR 20/10 A3027 -230 52 300 020/04 RMK AO2 T02000100
93915KAEX AEX20161125163510311/25/16 16:35:31  5-MIN KAEX 252235Z 36005KT 10SM CLR 20/11 A3027 -230 54 300 360/05 RMK AO2 T02000106
93915KAEX AEX20161125164010311/25/16 16:40:31  5-MIN KAEX 252240Z 01006KT 10SM CLR 20/11 A3027 -230 54 300 360/06 RMK AO2 T02000106
93915KAEX AEX20161125164510311/25/16 16:45:31  5-MIN KAEX 252245Z 36005KT 10SM CLR 19/11 A3027 -230 56 300 360/05 RMK AO2 T01940106
93915KAEX AEX20161125165011011/25/16 16:50:31  5-MIN KAEX 252250Z 01005KT 10SM CLR 19/11 A3027 -230 58 200 010/05 RMK AO2 SLP255 T01890106
93915KAEX AEX20161125165510311/25/16 16:55:31  5-MIN KAEX 252255Z 02005KT 10SM CLR 19/11 A3027 -230 58 200 020/05 RMK AO2 T01890106
93915KAEX AEX20161125170010311/25/16 17:00:31  5-MIN KAEX 252300Z 02004KT 10SM CLR 18/11 A3027 -230 60 100 020/04 RMK AO2 T01830106
93915KAEX AEX20161125170510311/25/16 17:05:31  5-MIN KAEX 252305Z 02005KT 10SM CLR 18/11 A3027 -230 60 100 020/05 RMK AO2 T01830106
93915KAEX AEX20161125171010311/25/16 17:10:31  5-MIN KAEX 252310Z 02004KT 10SM CLR 18/11 A3027 -230 60 100 020/04 RMK AO2 T01830106
93915KAEX AEX20161125171510311/25/16 17:15:31  5-MIN KAEX 252315Z 02004KT 10SM CLR 18/11 A3028 -230 62 100 020/04 RMK AO2 T01780106
93915KAEX AEX20161125172010311/25/16 17:20:31  5-MIN KAEX 252320Z 02005KT 10SM CLR 18/11 A3028 -230 62 100 020/05 RMK AO2 T01780106
93915KAEX AEX20161125172510111/25/16 17:25:31  5-MIN KAEX 252325Z 02005KT 10SM CLR 17/11 A3028 -230 64 0 020/05 RMK AO2 T01720106
93915KAEX AEX20161125173010111/25/16 17:30:31  5-MIN KAEX 252330Z 02005KT 10SM CLR 17/11 A3028 -230 64 0 020/05 RMK AO2 T01720106
93915KAEX AEX20161125173510111/25/16 17:35:31  5-MIN KAEX 252335Z 03005KT 10SM CLR 17/11 A3028 -230 64 0 030/05 RMK AO2 T01720106
93915KAEX AEX20161125174010111/25/16 17:40:31  5-MIN KAEX 252340Z 03005KT 10SM CLR 17/11 A3028 -230 64 0 030/05 RMK AO2 T01720106
93915KAEX AEX20161125174510111/25/16 17:45:31  5-MIN KAEX 252345Z 04005KT 10SM CLR 17/11 A3028 -230 64 0 040/05 RMK AO2 T01720106
93915KAEX AEX20161125175012611/25/16 17:50:31  5-MIN KAEX 252350Z 04005KT 10SM CLR 17/11 A3028 -240 64 0 040/05 RMK AO2 SLP257 T01720106 10222 20172 56016
93915KAEX AEX20161125175510111/25/16 17:55:31  5-MIN KAEX 252355Z 03005KT 10SM CLR 17/11 A3028 -240 64 0 030/05 RMK AO2 T01720106
93915KAEX AEX20161125180010111/25/16 18:00:31  5-MIN KAEX 260000Z 03006KT 10SM CLR 17/11 A3028 -240 67 0 020/06 RMK AO2 T01670106
93915KAEX AEX20161125180510111/25/16 18:05:31  5-MIN KAEX 260005Z 03006KT 10SM CLR 17/11 A3028 -240 64 0 030/06 RMK AO2 T01720106
93915KAEX AEX20161125181010111/25/16 18:10:31  5-MIN KAEX 260010Z 03005KT 10SM CLR 17/11 A3029 -240 67 0 030/05 RMK AO2 T01670106
93915KAEX AEX20161125181510111/25/16 18:15:31  5-MIN KAEX 260015Z 03005KT 10SM CLR 17/11 A3029 -240 67 0 030/05 RMK AO2 T01670106
93915KAEX AEX20161125182010111/25/16 18:20:31  5-MIN KAEX 260020Z 03005KT 10SM CLR 17/10 A3029 -240 64 0 030/05 RMK AO2 T01670100
93915KAEX AEX20161125182510111/25/16 18:25:31  5-MIN KAEX 260025Z 04005KT 10SM CLR 17/10 A3029 -250 64 0 040/05 RMK AO2 T01670100
93915KAEX AEX20161125183010111/25/16 18:30:31  5-MIN KAEX 260030Z 04004KT 10SM CLR 17/10 A3030 -250 64 0 040/04 RMK AO2 T01670100
93915KAEX AEX20161125183510111/25/16 18:35:31  5-MIN KAEX 260035Z 04005KT 10SM CLR 17/10 A3030 -250 64 0 040/05 RMK AO2 T01670100
93915KAEX AEX20161125184010111/25/16 18:40:31  5-MIN KAEX 260040Z 04005KT 10SM CLR 17/10 A3030 -250 64 0 040/05 RMK AO2 T01670100
93915KAEX AEX20161125184510111/25/16 18:45:31  5-MIN KAEX 260045Z 04006KT 10SM CLR 17/10 A3030 -250 64 0 040/06 RMK AO2 T01670100
93915KAEX AEX20161125185010811/25/16 18:50:31  5-MIN KAEX 260050Z 04006KT 10SM CLR 17/10 A3030 -250 64 0 030/06 RMK AO2 SLP264 T01670100
93915KAEX AEX20161125185510111/25/16 18:55:31  5-MIN KAEX 260055Z 04007KT 10SM CLR 17/10 A3030 -260 64 0 040/07 RMK AO2 T01670100
93915KAEX AEX20161125190010411/25/16 19:00:31  5-MIN KAEX 260100Z 04006KT 10SM CLR 16/10 A3030 -260 67 -100 040/06 RMK AO2 T01610100
93915KAEX AEX20161125190510111/25/16 19:05:31  5-MIN KAEX 260105Z 04006KT 10SM CLR 17/10 A3031 -260 64 0 040/06 RMK AO2 T01670100
93915KAEX AEX20161125191010411/25/16 19:10:31  5-MIN KAEX 260110Z 04006KT 10SM CLR 16/10 A3030 -260 67 -100 040/06 RMK AO2 T01610100
93915KAEX AEX20161125191510411/25/16 19:15:31  5-MIN KAEX 260115Z 04005KT 10SM CLR 16/10 A3031 -260 67 -100 040/05 RMK AO2 T01610100
93915KAEX AEX20161125192010411/25/16 19:20:31  5-MIN KAEX 260120Z 05006KT 10SM CLR 16/10 A3031 -260 67 -100 040/06 RMK AO2 T01610100
93915KAEX AEX20161125192510411/25/16 19:25:31  5-MIN KAEX 260125Z 04006KT 10SM CLR 16/10 A3031 -260 67 -100 040/06 RMK AO2 T01610100
93915KAEX AEX20161125193010411/25/16 19:30:31  5-MIN KAEX 260130Z 04005KT 10SM CLR 16/10 A3031 -270 67 -100 040/05 RMK AO2 T01610100
93915KAEX AEX20161125193510411/25/16 19:35:31  5-MIN KAEX 260135Z 05006KT 10SM CLR 16/10 A3031 -270 67 -100 040/06 RMK AO2 T01610100
93915KAEX AEX20161125194010411/25/16 19:40:31  5-MIN KAEX 260140Z 04007KT 10SM CLR 16/10 A3031 -270 69 -200 040/07 RMK AO2 T01560100
93915KAEX AEX20161125194510411/25/16 19:45:31  5-MIN KAEX 260145Z 05007KT 10SM CLR 16/10 A3031 -270 69 -200 040/07 RMK AO2 T01560100
93915KAEX AEX20161125195011111/25/16 19:50:31  5-MIN KAEX 260150Z 04007KT 10SM CLR 16/10 A3031 -260 69 -200 040/07 RMK AO2 SLP268 T01560100
93915KAEX AEX20161125195510411/25/16 19:55:31  5-MIN KAEX 260155Z 04007KT 10SM CLR 16/10 A3031 -270 69 -200 030/07 RMK AO2 T01560100
93915KAEX AEX20161125200010411/25/16 20:00:31  5-MIN KAEX 260200Z 04007KT 10SM CLR 16/10 A3031 -270 69 -200 040/07 RMK AO2 T01560100
93915KAEX AEX20161125200510411/25/16 20:05:31  5-MIN KAEX 260205Z 04006KT 10SM CLR 16/10 A3032 -270 69 -200 040/06 RMK AO2 T01560100
93915KAEX AEX20161125201010411/25/16 20:10:31  5-MIN KAEX 260210Z 04006KT 10SM CLR 16/10 A3032 -270 69 -200 040/06 RMK AO2 T01560100
93915KAEX AEX20161125201510411/25/16 20:15:31  5-MIN KAEX 260215Z 04006KT 10SM CLR 16/09 A3032 -270 67 -200 040/06 RMK AO2 T01560094
93915KAEX AEX20161125202010411/25/16 20:20:31  5-MIN KAEX 260220Z 04006KT 10SM CLR 15/09 A3032 -270 69 -200 040/06 RMK AO2 T01500094
93915KAEX AEX20161125202510411/25/16 20:25:31  5-MIN KAEX 260225Z 04006KT 10SM CLR 15/10 A3032 -270 72 -200 040/06 RMK AO2 T01500100
93915KAEX AEX20161125203010411/25/16 20:30:31  5-MIN KAEX 260230Z 05006KT 10SM CLR 15/10 A3032 -270 72 -200 040/06 RMK AO2 T01500100
93915KAEX AEX20161125203510411/25/16 20:35:31  5-MIN KAEX 260235Z 04006KT 10SM CLR 15/10 A3032 -270 72 -200 040/06 RMK AO2 T01500100
93915KAEX AEX20161125204010411/25/16 20:40:31  5-MIN KAEX 260240Z 05006KT 10SM CLR 15/10 A3032 -270 72 -200 050/06 RMK AO2 T01500100
93915KAEX AEX20161125204510411/25/16 20:45:31  5-MIN KAEX 260245Z 05005KT 10SM CLR 14/10 A3032 -270 74 -300 050/05 RMK AO2 T01440100
93915KAEX AEX20161125205011711/25/16 20:50:31  5-MIN KAEX 260250Z 05005KT 10SM CLR 14/10 A3032 -270 74 -300 050/05 RMK AO2 SLP270 T01440100 51011
93915KAEX AEX20161125205510411/25/16 20:55:31  5-MIN KAEX 260255Z 06005KT 10SM CLR 14/10 A3032 -270 74 -300 050/05 RMK AO2 T01440100
93915KAEX AEX20161125210010411/25/16 21:00:31  5-MIN KAEX 260300Z 05005KT 10SM CLR 14/10 A3032 -270 74 -300 050/05 RMK AO2 T01440100
93915KAEX AEX20161125210510411/25/16 21:05:31  5-MIN KAEX 260305Z 04005KT 10SM CLR 14/10 A3032 -270 74 -300 040/05 RMK AO2 T01440100
93915KAEX AEX20161125211010411/25/16 21:10:31  5-MIN KAEX 260310Z 05005KT 10SM CLR 14/10 A3032 -270 77 -400 040/05 RMK AO2 T01390100
93915KAEX AEX20161125211510411/25/16 21:15:31  5-MIN KAEX 260315Z 05005KT 10SM CLR 14/10 A3033 -280 77 -400 050/05 RMK AO2 T01390100
93915KAEX AEX20161125212010411/25/16 21:20:31  5-MIN KAEX 260320Z 05004KT 10SM CLR 14/10 A3033 -280 77 -400 050/04 RMK AO2 T01390100
93915KAEX AEX20161125212510411/25/16 21:25:31  5-MIN KAEX 260325Z 05005KT 10SM CLR 14/10 A3033 -280 77 -400 050/05 RMK AO2 T01390100
93915KAEX AEX20161125213010411/25/16 21:30:31  5-MIN KAEX 260330Z 05005KT 10SM CLR 14/10 A3032 -280 77 -400 050/05 RMK AO2 T01390100
93915KAEX AEX20161125213510411/25/16 21:35:31  5-MIN KAEX 260335Z 05004KT 10SM CLR 14/10 A3033 -280 77 -400 050/04 RMK AO2 T01390100
93915KAEX AEX20161125214010411/25/16 21:40:31  5-MIN KAEX 260340Z 05005KT 10SM CLR 14/10 A3033 -280 77 -400 050/05 RMK AO2 T01390100
93915KAEX AEX20161125214510411/25/16 21:45:31  5-MIN KAEX 260345Z 05005KT 10SM CLR 14/10 A3033 -280 77 -400 050/05 RMK AO2 T01390100
93915KAEX AEX20161125215011111/25/16 21:50:31  5-MIN KAEX 260350Z 06005KT 10SM CLR 14/10 A3033 -280 77 -400 060/05 RMK AO2 SLP273 T01390100
93915KAEX AEX20161125215510411/25/16 21:55:31  5-MIN KAEX 260355Z 05004KT 10SM CLR 14/10 A3033 -280 77 -400 050/04 RMK AO2 T01390100
93915KAEX AEX20161125220010411/25/16 22:00:31  5-MIN KAEX 260400Z 05004KT 10SM CLR 14/10 A3033 -280 77 -400 050/04 RMK AO2 T01390100
93915KAEX AEX20161125220510411/25/16 22:05:31  5-MIN KAEX 260405Z 06004KT 10SM CLR 13/10 A3033 -280 80 -500 050/04 RMK AO2 T01330100
93915KAEX AEX20161125221010411/25/16 22:10:31  5-MIN KAEX 260410Z 05004KT 10SM CLR 13/10 A3033 -280 80 -500 050/04 RMK AO2 T01330100
93915KAEX AEX20161125221510411/25/16 22:15:31  5-MIN KAEX 260415Z 05004KT 10SM CLR 13/10 A3033 -280 80 -500 050/04 RMK AO2 T01330100
93915KAEX AEX20161125222010411/25/16 22:20:31  5-MIN KAEX 260420Z 05004KT 10SM CLR 13/10 A3033 -280 80 -500 050/04 RMK AO2 T01330100
93915KAEX AEX20161125222510411/25/16 22:25:31  5-MIN KAEX 260425Z 06004KT 10SM CLR 13/10 A3033 -280 80 -500 060/04 RMK AO2 T01330100
93915KAEX AEX20161125223010411/25/16 22:30:31  5-MIN KAEX 260430Z 06004KT 10SM CLR 13/10 A3033 -280 80 -500 050/04 RMK AO2 T01330100
93915KAEX AEX20161125223510411/25/16 22:35:31  5-MIN KAEX 260435Z 05004KT 10SM CLR 13/10 A3033 -280 83 -500 050/04 RMK AO2 T01280100
93915KAEX AEX20161125224010411/25/16 22:40:31  5-MIN KAEX 260440Z 05004KT 10SM CLR 13/10 A3033 -280 83 -500 050/04 RMK AO2 T01280100
93915KAEX AEX20161125224510411/25/16 22:45:31  5-MIN KAEX 260445Z 06004KT 10SM CLR 13/10 A3033 -280 83 -500 050/04 RMK AO2 T01280100
93915KAEX AEX20161125225011111/25/16 22:50:31  5-MIN KAEX 260450Z 06004KT 10SM CLR 13/10 A3033 -280 83 -500 060/04 RMK AO2 SLP273 T01280100
93915KAEX AEX20161125225510411/25/16 22:55:31  5-MIN KAEX 260455Z 05004KT 10SM CLR 13/10 A3033 -280 83 -500 050/04 RMK AO2 T01280100
93915KAEX AEX20161125230010411/25/16 23:00:31  5-MIN KAEX 260500Z 05004KT 10SM CLR 13/10 A3033 -280 83 -500 050/04 RMK AO2 T01280100
93915KAEX AEX20161125230510411/25/16 23:05:31  5-MIN KAEX 260505Z 05004KT 10SM CLR 13/10 A3033 -280 83 -500 040/04 RMK AO2 T01280100
93915KAEX AEX20161125231010411/25/16 23:10:31  5-MIN KAEX 260510Z 05004KT 10SM CLR 13/10 A3033 -280 83 -500 050/04 RMK AO2 T01280100
93915KAEX AEX20161125231510911/25/16 23:15:31  5-MIN KAEX 260515Z AUTO 04004KT 10SM CLR 13/10 A3033 -280 83 -500 040/04 RMK AO2 T01280100
93915KAEX AEX20161125232010911/25/16 23:20:31  5-MIN KAEX 260520Z AUTO 04004KT 10SM CLR 13/10 A3033 -280 83 -500 030/04 RMK AO2 T01280100
93915KAEX AEX20161125232510911/25/16 23:25:31  5-MIN KAEX 260525Z AUTO 03004KT 10SM CLR 13/10 A3033 -290 83 -500 030/04 RMK AO2 T01280100
93915KAEX AEX20161125233010911/25/16 23:30:31  5-MIN KAEX 260530Z AUTO 02003KT 10SM CLR 12/10 A3034 -290 86 -600 020/03 RMK AO2 T01220100
93915KAEX AEX20161125233510911/25/16 23:35:31  5-MIN KAEX 260535Z AUTO 03003KT 10SM CLR 12/10 A3033 -280 86 -600 020/03 RMK AO2 T01220100
93915KAEX AEX20161125234010911/25/16 23:40:31  5-MIN KAEX 260540Z AUTO 03003KT 10SM CLR 12/10 A3033 -290 86 -600 020/03 RMK AO2 T01220100
93915KAEX AEX20161126095011711/26/16 09:50:31  5-MIN KAEX 261550Z 03006KT 4SM BR OVC005 10/09 A3042 -360 93 -1000 030/06 RMK AO2 SLP304 T01000089
93915KAEX AEX20161126095511011/26/16 09:55:31  5-MIN KAEX 261555Z 03006KT 4SM BR OVC005 10/09 A3042 -360 93 -1000 030/06 RMK AO2 T01000089
93915KAEX AEX20161126100011011/26/16 10:00:31  5-MIN KAEX 261600Z 03007KT 4SM BR OVC005 10/09 A3042 -360 93 -1000 030/07 RMK AO2 T01000089
93915KAEX AEX20161126100511011/26/16 10:05:31  5-MIN KAEX 261605Z 03006KT 5SM BR OVC005 10/09 A3042 -360 93 -1000 030/06 RMK AO2 T01000089
93915KAEX AEX20161126101011011/26/16 10:10:31  5-MIN KAEX 261610Z 02008KT 5SM BR OVC006 10/09 A3042 -360 93 -1000 020/08 RMK AO2 T01000089
93915KAEX AEX20161126101511011/26/16 10:15:31  5-MIN KAEX 261615Z VRB06KT 5SM BR OVC006 10/09 A3042 -360 93 -1000 VRB/06 RMK AO2 T01000089
93915KAEX AEX20161126102011011/26/16 10:20:31  5-MIN KAEX 261620Z 05005KT 5SM BR OVC006 10/09 A3042 -360 93 -1000 050/05 RMK AO2 T01000089
93915KAEX AEX20161126102511011/26/16 10:25:31  5-MIN KAEX 261625Z 07005KT 5SM BR OVC006 10/09 A3042 -360 93 -1000 070/05 RMK AO2 T01000089
93915KAEX AEX20161126103011011/26/16 10:30:31  5-MIN KAEX 261630Z 03004KT 5SM BR OVC007 10/09 A3042 -360 93 -1000 020/04 RMK AO2 T01000089
93915KAEX AEX20161126103511011/26/16 10:35:31  5-MIN KAEX 261635Z 02005KT 5SM BR OVC007 10/09 A3042 -360 93 -1000 020/05 RMK AO2 T01000089
93915KAEX AEX20161126104010911/26/16 10:40:31  5-MIN KAEX 261640Z 04005KT 5SM BR OVC007 11/09 A3041 -360 89 -900 030/05 RMK AO2 T01060089
93915KAEX AEX20161126104510911/26/16 10:45:31  5-MIN KAEX 261645Z 06004KT 6SM BR OVC007 11/09 A3041 -360 89 -900 060/04 RMK AO2 T01060089
93915KAEX AEX20161126105011611/26/16 10:50:31  5-MIN KAEX 261650Z 05004KT 6SM BR OVC007 11/09 A3041 -350 89 -900 050/04 RMK AO2 SLP303 T01060089
93915KAEX AEX20161126105510911/26/16 10:55:31  5-MIN KAEX 261655Z 05004KT 5SM BR OVC008 11/09 A3041 -350 89 -900 050/04 RMK AO2 T01060089
93915KAEX AEX20161126110010911/26/16 11:00:31  5-MIN KAEX 261700Z VRB03KT 6SM BR OVC008 11/09 A3041 -350 89 -900 VRB/03 RMK AO2 T01060089
93915KAEX AEX20161126110510911/26/16 11:05:31  5-MIN KAEX 261705Z 07004KT 6SM BR OVC008 11/09 A3041 -350 89 -900 070/04 RMK AO2 T01060089
93915KAEX AEX20161126111010911/26/16 11:10:31  5-MIN KAEX 261710Z 05003KT 6SM BR OVC008 11/08 A3041 -350 86 -900 050/03 RMK AO2 T01060083
93915KAEX AEX20161126111510911/26/16 11:15:31  5-MIN KAEX 261715Z 01004KT 5SM BR OVC008 11/09 A3040 -350 89 -900 010/04 RMK AO2 T01060089
93915KAEX AEX20161126112010911/26/16 11:20:31  5-MIN KAEX 261720Z 00000KT 5SM BR OVC008 11/09 A3040 -350 89 -900 000/00 RMK AO2 T01060089
93915KAEX AEX20161126112510911/26/16 11:25:31  5-MIN KAEX 261725Z 05005KT 5SM BR OVC008 11/09 A3040 -350 89 -900 050/05 RMK AO2 T01060089
93915KAEX AEX20161126113010911/26/16 11:30:31  5-MIN KAEX 261730Z 00000KT 5SM BR OVC008 11/08 A3040 -340 86 -900 000/00 RMK AO2 T01060083
93915KAEX AEX20161126113510911/26/16 11:35:31  5-MIN KAEX 261735Z 35004KT 5SM BR OVC008 11/09 A3040 -340 89 -900 350/04 RMK AO2 T01060089
93915KAEX AEX20161126114010911/26/16 11:40:31  5-MIN KAEX 261740Z 02005KT 5SM BR OVC008 11/09 A3039 -340 89 -900 010/05 RMK AO2 T01060089
93915KAEX AEX20161126114510911/26/16 11:45:31  5-MIN KAEX 261745Z 01005KT 5SM BR OVC008 11/09 A3039 -330 89 -900 010/05 RMK AO2 T01060089
93915KAEX AEX20161126115013411/26/16 11:50:31  5-MIN KAEX 261750Z 36004KT 5SM BR OVC008 11/09 A3039 -330 89 -900 360/04 RMK AO2 SLP294 T01060089 10106 20094 53019
93915KAEX AEX20161126115510911/26/16 11:55:31  5-MIN KAEX 261755Z 02004KT 5SM BR OVC008 11/09 A3038 -330 89 -900 020/04 RMK AO2 T01060089
93915KAEX AEX20161126120010911/26/16 12:00:31  5-MIN KAEX 261800Z 01005KT 5SM BR OVC008 11/09 A3038 -330 89 -900 010/05 RMK AO2 T01060089
93915KAEX AEX20161126120510911/26/16 12:05:31  5-MIN KAEX 261805Z VRB05KT 5SM BR OVC007 11/09 A3038 -330 86 -800 VRB/05 RMK AO2 T01110089
93915KAEX AEX20161126121010911/26/16 12:10:31  5-MIN KAEX 261810Z 34003KT 5SM BR OVC007 11/09 A3038 -330 86 -800 340/03 RMK AO2 T01110089
93915KAEX AEX20161126121510911/26/16 12:15:31  5-MIN KAEX 261815Z VRB03KT 5SM BR OVC007 11/09 A3038 -320 86 -800 VRB/03 RMK AO2 T01110089
93915KAEX AEX20161126122012111/26/16 12:20:31  5-MIN KAEX 261820Z 33005KT 6SM HZ OVC009 12/09 A3037 -320 83 -700 330/05 RMK AO2 CIG 007V013 T01170089
93915KAEX AEX20161126122512111/26/16 12:25:31  5-MIN KAEX 261825Z 33006KT 6SM BR OVC009 11/09 A3037 -320 86 -800 330/06 RMK AO2 CIG 007V013 T01110089
93915KAEX AEX20161126123011811/26/16 12:30:31  5-MIN KAEX 261830Z 01006KT 7SM OVC009 11/09 A3037 -320 86 -800 360/06 RMK AO2 CIG 007V013 T01110089
93915KAEX AEX20161126123512111/26/16 12:35:31  5-MIN KAEX 261835Z 01007KT 6SM HZ OVC010 12/09 A3037 -310 83 -700 360/07 RMK AO2 CIG 008V013 T01170089
93915KAEX AEX20161126124010911/26/16 12:40:31  5-MIN KAEX 261840Z 36003KT 6SM BR OVC008 11/09 A3036 -310 86 -800 350/03 RMK AO2 T01110089
93915KAEX AEX20161126124510911/26/16 12:45:31  5-MIN KAEX 261845Z 00000KT 6SM BR OVC008 11/09 A3036 -310 86 -800 000/00 RMK AO2 T01110089
93915KAEX AEX20161126125010611/26/16 12:50:31  5-MIN KAEX 261850Z 6SM HZ OVC008 12/09 A3036 -310 83 -700 M /M RMK AO2 SLP284 T01170089
93915KAEX AEX20161126125510911/26/16 12:55:31  5-MIN KAEX 261855Z 01006KT 6SM BR OVC011 11/09 A3035 -300 86 -800 360/06 RMK AO2 T01110089
93915KAEX AEX20161126130010911/26/16 13:00:31  5-MIN KAEX 261900Z 00000KT 6SM HZ OVC008 12/09 A3035 -300 83 -700 000/00 RMK AO2 T01170089
93915KAEX AEX20161126130509911/26/16 13:05:31  5-MIN KAEX 261905Z 6SM HZ OVC008 12/09 A3035 -300 83 -700 M /M RMK AO2 T01170089
93915KAEX AEX20161126131010611/26/16 13:10:31  5-MIN KAEX 261910Z 34005KT 7SM OVC008 12/09 A3035 -300 83 -700 330/05 RMK AO2 T01170089
93915KAEX AEX20161126131510611/26/16 13:15:31  5-MIN KAEX 261915Z 32005KT 7SM OVC008 12/09 A3035 -300 83 -700 320/05 RMK AO2 T01170089
93915KAEX AEX20161126132010611/26/16 13:20:31  5-MIN KAEX 261920Z 35008KT 7SM OVC008 12/09 A3035 -300 83 -700 340/08 RMK AO2 T01170089
93915KAEX AEX20161126132510611/26/16 13:25:31  5-MIN KAEX 261925Z 35006KT 7SM OVC008 12/08 A3035 -300 80 -700 340/06 RMK AO2 T01170083
93915KAEX AEX20161126133010611/26/16 13:30:31  5-MIN KAEX 261930Z 35005KT 7SM OVC008 12/08 A3035 -300 80 -700 350/05 RMK AO2 T01170083
93915KAEX AEX20161126133510611/26/16 13:35:31  5-MIN KAEX 261935Z 35004KT 7SM OVC008 12/08 A3035 -290 80 -700 340/04 RMK AO2 T01170083
93915KAEX AEX20161126134010611/26/16 13:40:31  5-MIN KAEX 261940Z 04005KT 7SM OVC008 12/08 A3034 -290 80 -700 040/05 RMK AO2 T01170083
93915KAEX AEX20161126134510611/26/16 13:45:31  5-MIN KAEX 261945Z 35004KT 7SM OVC008 12/08 A3034 -290 80 -700 350/04 RMK AO2 T01170083
93915KAEX AEX20161126135011311/26/16 13:50:31  5-MIN KAEX 261950Z 02005KT 7SM OVC008 12/08 A3034 -290 80 -700 010/05 RMK AO2 SLP278 T01170083
93915KAEX AEX20161126135510611/26/16 13:55:31  5-MIN KAEX 261955Z 03005KT 7SM OVC012 12/08 A3034 -290 80 -700 030/05 RMK AO2 T01170083
93915KAEX AEX20161126140010611/26/16 14:00:31  5-MIN KAEX 262000Z VRB05KT 7SM OVC008 12/08 A3033 -280 80 -700 VRB/05 RMK AO2 T01170083
93915KAEX AEX20161126140510611/26/16 14:05:31  5-MIN KAEX 262005Z 01003KT 7SM OVC008 12/08 A3033 -280 80 -700 010/03 RMK AO2 T01170083
93915KAEX AEX20161126141010611/26/16 14:10:31  5-MIN KAEX 262010Z 00000KT 7SM OVC008 12/08 A3033 -280 80 -700 000/00 RMK AO2 T01170083
93915KAEX AEX20161126141510611/26/16 14:15:31  5-MIN KAEX 262015Z 03004KT 7SM OVC008 12/08 A3033 -280 80 -700 030/04 RMK AO2 T01170083
93915KAEX AEX20161126142010611/26/16 14:20:31  5-MIN KAEX 262020Z 03003KT 7SM OVC008 12/09 A3033 -280 80 -600 030/03 RMK AO2 T01220089
93915KAEX AEX20161126142510611/26/16 14:25:31  5-MIN KAEX 262025Z 32006KT 7SM OVC008 12/09 A3033 -280 83 -700 310/06 RMK AO2 T01170089
93915KAEX AEX20161126143010611/26/16 14:30:31  5-MIN KAEX 262030Z 33004KT 7SM OVC008 12/09 A3033 -280 83 -700 320/04 RMK AO2 T01170089
93915KAEX AEX20161126143510611/26/16 14:35:31  5-MIN KAEX 262035Z 35004KT 7SM OVC008 12/08 A3032 -270 80 -700 350/04 RMK AO2 T01170083
93915KAEX AEX20161126144010611/26/16 14:40:31  5-MIN KAEX 262040Z 01005KT 8SM OVC008 12/09 A3032 -270 80 -600 010/05 RMK AO2 T01220089
93915KAEX AEX20161126144510611/26/16 14:45:31  5-MIN KAEX 262045Z 02004KT 8SM OVC008 12/08 A3032 -270 77 -600 010/04 RMK AO2 T01220083
93915KAEX AEX20161126145011911/26/16 14:50:31  5-MIN KAEX 262050Z 08003KT 8SM OVC008 12/08 A3032 -270 77 -600 080/03 RMK AO2 SLP271 T01220083 58011
93915KAEX AEX20161126145510611/26/16 14:55:31  5-MIN KAEX 262055Z 04005KT 8SM OVC013 12/09 A3031 -270 80 -600 030/05 RMK AO2 T01220089
93915KAEX AEX20161126150010611/26/16 15:00:31  5-MIN KAEX 262100Z 01006KT 8SM OVC013 13/09 A3031 -260 77 -500 010/06 RMK AO2 T01280089
93915KAEX AEX20161126150510611/26/16 15:05:31  5-MIN KAEX 262105Z 00000KT 7SM OVC014 12/09 A3031 -260 80 -600 000/00 RMK AO2 T01220089
93915KAEX AEX20161126151010611/26/16 15:10:31  5-MIN KAEX 262110Z 03005KT 8SM OVC014 12/09 A3031 -260 80 -600 030/05 RMK AO2 T01220089
93915KAEX AEX20161126151510611/26/16 15:15:31  5-MIN KAEX 262115Z 04004KT 8SM OVC014 12/08 A3031 -260 77 -600 040/04 RMK AO2 T01220083
93915KAEX AEX20161126152010611/26/16 15:20:31  5-MIN KAEX 262120Z 01003KT 8SM OVC014 12/08 A3031 -260 77 -600 010/03 RMK AO2 T01220083
93915KAEX AEX20161126152510611/26/16 15:25:31  5-MIN KAEX 262125Z 36003KT 8SM OVC014 12/08 A3031 -260 77 -600 360/03 RMK AO2 T01220083
93915KAEX AEX20161126153010611/26/16 15:30:31  5-MIN KAEX 262130Z 35005KT 8SM OVC014 12/08 A3030 -260 77 -600 350/05 RMK AO2 T01220083
93915KAEX AEX20161126153510611/26/16 15:35:31  5-MIN KAEX 262135Z 35005KT 8SM OVC014 12/08 A3030 -250 80 -600 350/05 RMK AO2 T01170083
93915KAEX AEX20161126154010611/26/16 15:40:31  5-MIN KAEX 262140Z 35005KT 8SM OVC014 12/08 A3030 -250 77 -600 350/05 RMK AO2 T01220083
93915KAEX AEX20161126154510611/26/16 15:45:31  5-MIN KAEX 262145Z 36005KT 8SM OVC014 12/08 A3030 -250 77 -600 350/05 RMK AO2 T01220083
93915KAEX AEX20161126155011311/26/16 15:50:31  5-MIN KAEX 262150Z 04004KT 8SM OVC014 12/08 A3029 -250 77 -600 040/04 RMK AO2 SLP263 T01220083
93915KAEX AEX20161126155510611/26/16 15:55:31  5-MIN KAEX 262155Z 35004KT 8SM OVC015 12/08 A3030 -250 80 -600 350/04 RMK AO2 T01170083
93915KAEX AEX20161126160010611/26/16 16:00:31  5-MIN KAEX 262200Z 01006KT 8SM OVC015 12/08 A3029 -250 80 -600 010/06 RMK AO2 T01170083
93915KAEX AEX20161126160510611/26/16 16:05:31  5-MIN KAEX 262205Z 02005KT 8SM OVC015 12/08 A3030 -250 80 -600 020/05 RMK AO2 T01170083
93915KAEX AEX20161126161010611/26/16 16:10:31  5-MIN KAEX 262210Z 01005KT 8SM OVC015 12/08 A3030 -250 80 -600 010/05 RMK AO2 T01170083
93915KAEX AEX20161126161510611/26/16 16:15:31  5-MIN KAEX 262215Z 03004KT 8SM OVC015 12/08 A3030 -250 80 -600 030/04 RMK AO2 T01170083
93915KAEX AEX20161126162010611/26/16 16:20:31  5-MIN KAEX 262220Z 02004KT 8SM OVC015 12/08 A3030 -250 80 -600 020/04 RMK AO2 T01170083
93915KAEX AEX20161126162510611/26/16 16:25:31  5-MIN KAEX 262225Z 03004KT 8SM OVC014 12/08 A3030 -250 80 -600 030/04 RMK AO2 T01170083
93915KAEX AEX20161126163010611/26/16 16:30:31  5-MIN KAEX 262230Z 01004KT 8SM OVC014 12/08 A3030 -250 80 -600 010/04 RMK AO2 T01170083
93915KAEX AEX20161126163510611/26/16 16:35:31  5-MIN KAEX 262235Z 35004KT 8SM OVC014 12/08 A3030 -250 80 -600 350/04 RMK AO2 T01170083
93915KAEX AEX20161126164010611/26/16 16:40:31  5-MIN KAEX 262240Z 02003KT 8SM OVC014 11/08 A3029 -250 83 -700 020/03 RMK AO2 T01110083
93915KAEX AEX20161126164510611/26/16 16:45:31  5-MIN KAEX 262245Z 02004KT 8SM OVC014 11/08 A3029 -250 83 -700 020/04 RMK AO2 T01110083
93915KAEX AEX20161126165011311/26/16 16:50:31  5-MIN KAEX 262250Z 03004KT 8SM OVC014 11/08 A3029 -240 86 -800 020/04 RMK AO2 SLP262 T01060083
93915KAEX AEX20161126165510611/26/16 16:55:31  5-MIN KAEX 262255Z 01005KT 7SM BKN014 11/08 A3029 -240 86 -700 010/05 RMK AO2 T01060083
93915KAEX AEX20161126170010611/26/16 17:00:31  5-MIN KAEX 262300Z 01006KT 7SM BKN014 10/08 A3029 -240 89 -800 010/06 RMK AO2 T01000083
93915KAEX AEX20161126170510611/26/16 17:05:31  5-MIN KAEX 262305Z 01005KT 7SM SCT013 10/08 A3029 -240 89 -800 010/05 RMK AO2 T01000083
93915KAEX AEX20161126171010611/26/16 17:10:31  5-MIN KAEX 262310Z 01004KT 7SM SCT013 10/08 A3029 -240 86 -800 010/04 RMK AO2 T01000078
93915KAEX AEX20161126171510611/26/16 17:15:31  5-MIN KAEX 262315Z 01004KT 7SM FEW013 10/08 A3029 -240 89 -800 010/04 RMK AO2 T01000083
93915KAEX AEX20161126172010311/26/16 17:20:31  5-MIN KAEX 262320Z 01004KT 8SM CLR 09/08 A3029 -240 89 -900 010/04 RMK AO2 T00940078
93915KAEX AEX20161126172510311/26/16 17:25:31  5-MIN KAEX 262325Z 36005KT 8SM CLR 09/08 A3029 -240 89 -900 360/05 RMK AO2 T00940078
93915KAEX AEX20161126173010311/26/16 17:30:31  5-MIN KAEX 262330Z 01004KT 8SM CLR 09/08 A3028 -240 93 -900 010/04 RMK AO2 T00940083
93915KAEX AEX20161126173510311/26/16 17:35:31  5-MIN KAEX 262335Z 01004KT 8SM CLR 09/08 A3028 -240 93 -900 010/04 RMK AO2 T00890078
93915KAEX AEX20161126174010311/26/16 17:40:31  5-MIN KAEX 262340Z 36004KT 8SM CLR 09/08 A3028 -230 93 -900 360/04 RMK AO2 T00890078
93915KAEX AEX20161126174510311/26/16 17:45:31  5-MIN KAEX 262345Z 34003KT 8SM CLR 09/08 A3028 -230 93 -900 340/03 RMK AO2 T00890078
93915KAEX AEX20161126175012911/26/16 17:50:31  5-MIN KAEX 262350Z 34004KT 7SM CLR 08/07 A3028 -240 93 -1000 340/04 RMK AO2 SLP259 T00830072 10128 20083 56023
93915KAEX AEX20161126175510711/26/16 17:55:31  5-MIN KAEX 262355Z 33004KT 6SM BR CLR 08/07 A3028 -240 93 -1000 330/04 RMK AO2 T00830072
93915KAEX AEX20161126180010711/26/16 18:00:31  5-MIN KAEX 270000Z 34004KT 6SM BR CLR 08/07 A3028 -240 96 -1100 330/04 RMK AO2 T00780072
93915KAEX AEX20161126180510711/26/16 18:05:31  5-MIN KAEX 270005Z 35005KT 6SM BR CLR 08/07 A3028 -240 93 -1000 350/05 RMK AO2 T00830072
93915KAEX AEX20161126181010711/26/16 18:10:31  5-MIN KAEX 270010Z 35005KT 6SM BR CLR 08/08 A3028 -240 96 -1000 340/05 RMK AO2 T00830078
93915KAEX AEX20161126181510711/26/16 18:15:31  5-MIN KAEX 270015Z 35005KT 6SM BR CLR 08/07 A3028 -240 93 -1000 340/05 RMK AO2 T00830072
93915KAEX AEX20161126182010711/26/16 18:20:31  5-MIN KAEX 270020Z 34004KT 6SM BR CLR 08/07 A3029 -240 96 -1100 340/04 RMK AO2 T00780072
93915KAEX AEX20161126182510711/26/16 18:25:31  5-MIN KAEX 270025Z 35004KT 6SM BR CLR 08/07 A3029 -240 93 -1000 350/04 RMK AO2 T00830072
93915KAEX AEX20161126183010411/26/16 18:30:31  5-MIN KAEX 270030Z 36004KT 7SM CLR 08/08 A3029 -240 96 -1000 360/04 RMK AO2 T00830078
93915KAEX AEX20161126183510411/26/16 18:35:31  5-MIN KAEX 270035Z 35003KT 7SM CLR 08/08 A3029 -240 96 -1000 350/03 RMK AO2 T00830078
93915KAEX AEX20161126184010411/26/16 18:40:31  5-MIN KAEX 270040Z 34003KT 7SM CLR 08/08 A3029 -240 96 -1000 330/03 RMK AO2 T00830078
93915KAEX AEX20161126184510711/26/16 18:45:31  5-MIN KAEX 270045Z 35004KT 6SM BR CLR 08/07 A3029 -250 96 -1100 350/04 RMK AO2 T00780072
93915KAEX AEX20161126185011411/26/16 18:50:31  5-MIN KAEX 270050Z 35004KT 6SM BR CLR 08/07 A3029 -240 93 -1000 350/04 RMK AO2 SLP262 T00830072
93915KAEX AEX20161126185510711/26/16 18:55:31  5-MIN KAEX 270055Z 35004KT 6SM BR CLR 08/07 A3029 -240 93 -1000 350/04 RMK AO2 T00830072
93915KAEX AEX20161126190010711/26/16 19:00:31  5-MIN KAEX 270100Z 35004KT 6SM BR CLR 08/07 A3029 -240 96 -1100 350/04 RMK AO2 T00780072
93915KAEX AEX20161126190510711/26/16 19:05:31  5-MIN KAEX 270105Z 35004KT 6SM BR CLR 08/07 A3029 -240 96 -1100 350/04 RMK AO2 T00780072
93915KAEX AEX20161126191010711/26/16 19:10:31  5-MIN KAEX 270110Z 35004KT 6SM BR CLR 08/07 A3029 -240 96 -1100 350/04 RMK AO2 T00780072
93915KAEX AEX20161126191510811/26/16 19:15:31  5-MIN KAEX 270115Z 35004KT 6SM BR CLR 07/07 A3029 -240 100 -1200 340/04 RMK AO2 T00720072
93915KAEX AEX20161126192010711/26/16 19:20:31  5-MIN KAEX 270120Z 35004KT 5SM BR CLR 07/07 A3029 -240 96 -1200 340/04 RMK AO2 T00720067
93915KAEX AEX20161126192510711/26/16 19:25:31  5-MIN KAEX 270125Z 34004KT 5SM BR CLR 07/07 A3029 -250 96 -1200 340/04 RMK AO2 T00720067
93915KAEX AEX20161126193010711/26/16 19:30:31  5-MIN KAEX 270130Z 34004KT 6SM BR CLR 07/07 A3029 -240 96 -1200 340/04 RMK AO2 T00720067
93915KAEX AEX20161126193510711/26/16 19:35:31  5-MIN KAEX 270135Z 34004KT 6SM BR CLR 07/07 A3029 -250 96 -1200 330/04 RMK AO2 T00720067
93915KAEX AEX20161126194010811/26/16 19:40:31  5-MIN KAEX 270140Z 34003KT 5SM BR CLR 07/07 A3029 -250 100 -1200 340/03 RMK AO2 T00670067
93915KAEX AEX20161126194510711/26/16 19:45:31  5-MIN KAEX 270145Z 32003KT 5SM BR CLR 07/07 A3029 -250 96 -1200 320/03 RMK AO2 T00720067
93915KAEX AEX20161126195011411/26/16 19:50:31  5-MIN KAEX 270150Z 31003KT 4SM BR CLR 07/07 A3029 -250 96 -1200 310/03 RMK AO2 SLP263 T00720067
93915KAEX AEX20161126195510711/26/16 19:55:31  5-MIN KAEX 270155Z 00000KT 4SM BR CLR 07/07 A3029 -250 96 -1200 000/00 RMK AO2 T00720067
93915KAEX AEX20161126200010711/26/16 20:00:31  5-MIN KAEX 270200Z 00000KT 4SM BR CLR 07/07 A3029 -250 96 -1200 000/00 RMK AO2 T00720067
93915KAEX AEX20161126200510711/26/16 20:05:31  5-MIN KAEX 270205Z 00000KT 4SM BR CLR 07/07 A3029 -250 96 -1200 000/00 RMK AO2 T00720067
93915KAEX AEX20161126201010811/26/16 20:10:31  5-MIN KAEX 270210Z 00000KT 4SM BR CLR 07/07 A3029 -240 100 -1200 000/00 RMK AO2 T00720072
93915KAEX AEX20161126201510711/26/16 20:15:31  5-MIN KAEX 270215Z 00000KT 4SM BR CLR 07/07 A3029 -250 96 -1200 000/00 RMK AO2 T00720067
93915KAEX AEX20161126202010711/26/16 20:20:31  5-MIN KAEX 270220Z 00000KT 5SM BR CLR 07/07 A3029 -250 96 -1200 000/00 RMK AO2 T00720067
93915KAEX AEX20161126202510811/26/16 20:25:31  5-MIN KAEX 270225Z 01003KT 5SM BR CLR 07/07 A3030 -250 100 -1200 010/03 RMK AO2 T00670067
93915KAEX AEX20161126203010711/26/16 20:30:31  5-MIN KAEX 270230Z 00000KT 5SM BR CLR 07/06 A3029 -250 96 -1200 000/00 RMK AO2 T00670061
93915KAEX AEX20161126203510811/26/16 20:35:31  5-MIN KAEX 270235Z 02003KT 5SM BR CLR 06/06 A3029 -240 100 -1300 010/03 RMK AO2 T00610061
93915KAEX AEX20161126204010711/26/16 20:40:31  5-MIN KAEX 270240Z 02003KT 5SM BR CLR 07/06 A3029 -240 96 -1200 020/03 RMK AO2 T00670061
93915KAEX AEX20161126204510711/26/16 20:45:31  5-MIN KAEX 270245Z 00000KT 5SM BR CLR 07/06 A3029 -240 96 -1200 000/00 RMK AO2 T00670061
93915KAEX AEX20161126205012011/26/16 20:50:31  5-MIN KAEX 270250Z 00000KT 5SM BR CLR 07/06 A3029 -240 96 -1200 000/00 RMK AO2 SLP261 T00670061 56012
93915KAEX AEX20161126205510711/26/16 20:55:31  5-MIN KAEX 270255Z 00000KT 5SM BR CLR 06/06 A3029 -240 96 -1300 000/00 RMK AO2 T00610056
93915KAEX AEX20161126210010711/26/16 21:00:31  5-MIN KAEX 270300Z 00000KT 5SM BR CLR 06/06 A3029 -240 96 -1300 000/00 RMK AO2 T00610056
93915KAEX AEX20161126210510711/26/16 21:05:31  5-MIN KAEX 270305Z 34003KT 5SM BR CLR 06/06 A3029 -250 96 -1300 340/03 RMK AO2 T00610056
93915KAEX AEX20161126211010711/26/16 21:10:31  5-MIN KAEX 270310Z 00000KT 4SM BR CLR 06/06 A3029 -240 96 -1300 000/00 RMK AO2 T00610056
93915KAEX AEX20161126211510711/26/16 21:15:31  5-MIN KAEX 270315Z 00000KT 4SM BR CLR 07/06 A3029 -240 96 -1200 000/00 RMK AO2 T00670061
93915KAEX AEX20161126212010811/26/16 21:20:31  5-MIN KAEX 270320Z 00000KT 3SM BR CLR 06/06 A3029 -240 100 -1300 000/00 RMK AO2 T00610061
93915KAEX AEX20161126212511211/26/16 21:25:31  5-MIN KAEX 270325Z 00000KT 2 1/2SM BR CLR 06/06 A3029 -240 100 -1300 000/00 RMK AO2 T00610061
93915KAEX AEX20161126213010811/26/16 21:30:31  5-MIN KAEX 270330Z 00000KT 3SM BR CLR 06/06 A3029 -240 100 -1300 000/00 RMK AO2 T00610061
93915KAEX AEX20161126213510811/26/16 21:35:31  5-MIN KAEX 270335Z 00000KT 3SM BR CLR 06/06 A3029 -240 100 -1300 000/00 RMK AO2 T00610061
93915KAEX AEX20161126214010711/26/16 21:40:31  5-MIN KAEX 270340Z 00000KT 3SM BR CLR 07/06 A3029 -240 96 -1200 000/00 RMK AO2 T00670061
93915KAEX AEX20161126214510811/26/16 21:45:31  5-MIN KAEX 270345Z 00000KT 3SM BR CLR 07/07 A3028 -240 100 -1200 000/00 RMK AO2 T00670067
93915KAEX AEX20161126215011411/26/16 21:50:31  5-MIN KAEX 270350Z 00000KT 3SM BR CLR 07/06 A3028 -240 96 -1200 000/00 RMK AO2 SLP259 T00670061
93915KAEX AEX20161126215510711/26/16 21:55:31  5-MIN KAEX 270355Z 00000KT 3SM BR CLR 07/06 A3028 -230 96 -1200 000/00 RMK AO2 T00670061
93915KAEX AEX20161126220010711/26/16 22:00:31  5-MIN KAEX 270400Z 00000KT 3SM BR CLR 07/06 A3028 -230 96 -1200 000/00 RMK AO2 T00670061
93915KAEX AEX20161126220510711/26/16 22:05:31  5-MIN KAEX 270405Z 00000KT 3SM BR CLR 07/06 A3028 -230 96 -1200 000/00 RMK AO2 T00670061
93915KAEX AEX20161126221010811/26/16 22:10:31  5-MIN KAEX 270410Z 00000KT 3SM BR CLR 06/06 A3028 -230 100 -1300 000/00 RMK AO2 T00610061
93915KAEX AEX20161126221510711/26/16 22:15:31  5-MIN KAEX 270415Z 00000KT 3SM BR CLR 07/06 A3028 -230 96 -1200 000/00 RMK AO2 T00670061
93915KAEX AEX20161126222010811/26/16 22:20:31  5-MIN KAEX 270420Z 00000KT 3SM BR CLR 06/06 A3027 -230 100 -1300 000/00 RMK AO2 T00610061
93915KAEX AEX20161126222510811/26/16 22:25:31  5-MIN KAEX 270425Z 00000KT 3SM BR CLR 06/06 A3027 -230 100 -1300 000/00 RMK AO2 T00610061
93915KAEX AEX20161126223010811/26/16 22:30:31  5-MIN KAEX 270430Z 00000KT 3SM BR CLR 06/06 A3027 -230 100 -1300 000/00 RMK AO2 T00610061
93915KAEX AEX20161126223510811/26/16 22:35:31  5-MIN KAEX 270435Z 35003KT 3SM BR CLR 06/06 A3027 -230 100 -1300 350/03 RMK AO2 T00610061
93915KAEX AEX20161126224010711/26/16 22:40:31  5-MIN KAEX 270440Z 00000KT 3SM BR CLR 06/06 A3028 -230 96 -1300 000/00 RMK AO2 T00610056
93915KAEX AEX20161126224510811/26/16 22:45:31  5-MIN KAEX 270445Z 00000KT 3SM BR CLR 06/06 A3028 -230 100 -1300 000/00 RMK AO2 T00610061
93915KAEX AEX20161126225011511/26/16 22:50:31  5-MIN KAEX 270450Z 00000KT 3SM BR CLR 06/06 A3028 -230 100 -1300 000/00 RMK AO2 SLP258 T00610061
93915KAEX AEX20161126225511211/26/16 22:55:31  5-MIN KAEX 270455Z 00000KT 2 1/2SM BR CLR 06/06 A3028 -230 100 -1300 000/00 RMK AO2 T00610061
93915KAEX AEX20161126230011211/26/16 23:00:31  5-MIN KAEX 270500Z 00000KT 2 1/2SM BR CLR 06/06 A3028 -230 100 -1300 000/00 RMK AO2 T00610061
93915KAEX AEX20161126230510811/26/16 23:05:31  5-MIN KAEX 270505Z 00000KT 3SM BR CLR 06/06 A3028 -230 100 -1300 000/00 RMK AO2 T00610061
93915KAEX AEX20161126231010811/26/16 23:10:31  5-MIN KAEX 270510Z 00000KT 3SM BR CLR 06/06 A3027 -230 100 -1300 000/00 RMK AO2 T00610061
93915KAEX AEX20161126231510811/26/16 23:15:31  5-MIN KAEX 270515Z 00000KT 3SM BR CLR 06/06 A3027 -230 100 -1300 000/00 RMK AO2 T00610061
93915KAEX AEX20161126232011211/26/16 23:20:31  5-MIN KAEX 270520Z 00000KT 2 1/2SM BR CLR 06/06 A3028 -230 100 -1300 000/00 RMK AO2 T00610061
93915KAEX AEX20161126232510711/26/16 23:25:31  5-MIN KAEX 270525Z 00000KT 2SM BR CLR 06/06 A3027 -230 96 -1300 000/00 RMK AO2 T00610056
93915KAEX AEX20161126233011211/26/16 23:30:31  5-MIN KAEX 270530Z 00000KT 2 1/2SM BR CLR 06/06 A3027 -230 100 -1300 000/00 RMK AO2 T00560056
93915KAEX AEX20161126233510811/26/16 23:35:31  5-MIN KAEX 270535Z 00000KT 4SM BR CLR 05/05 A3027 -220 100 -1400 000/00 RMK AO2 T00500050
93915KAEX AEX20161126234010711/26/16 23:40:31  5-MIN KAEX 270540Z 00000KT 4SM BR CLR 06/05 A3027 -220 96 -1300 000/00 RMK AO2 T00560050
93915KAEX AEX20161126234510811/26/16 23:45:31  5-MIN KAEX 270545Z 00000KT 3SM BR CLR 05/05 A3027 -220 100 -1400 000/00 RMK AO2 T00500050
93915KAEX AEX20161126235014311/26/16 23:50:31  5-MIN KAEX 270550Z 00000KT 3SM BR CLR 05/05 A3027 -220 100 -1400 000/00 RMK AO2 SLP253 T00500050 10083 20050 401280050 50003
93915KAEX AEX20161126235511211/26/16 23:55:31  5-MIN KAEX 270555Z 00000KT 3/4SM BR VV004 05/05 A3026 -220 100 -1400 000/00 RMK AO2 T00500050
93915KAEX AEX20161127000011211/27/16 00:00:31  5-MIN KAEX 270600Z 00000KT 1/2SM FG VV004 04/04 A3026 -220 100 -1500 000/00 RMK AO2 T00440044
93915KAEX AEX20161127000511211/27/16 00:05:31  5-MIN KAEX 270605Z 00000KT 1/2SM FG VV004 04/04 A3026 -220 100 -1500 000/00 RMK AO2 T00440044
93915KAEX AEX20161127001011211/27/16 00:10:31  5-MIN KAEX 270610Z 31003KT 3/4SM BR VV004 04/04 A3026 -220 100 -1500 310/03 RMK AO2 T00440044
93915KAEX AEX20161127001511211/27/16 00:15:31  5-MIN KAEX 270615Z 00000KT 1/2SM FG VV004 05/05 A3026 -210 100 -1400 000/00 RMK AO2 T00500050
93915KAEX AEX20161127002011211/27/16 00:20:31  5-MIN KAEX 270620Z 00000KT 3/4SM BR VV004 04/04 A3025 -210 100 -1500 000/00 RMK AO2 T00440044
93915KAEX AEX20161127002511511/27/16 00:25:31  5-MIN KAEX 270625Z 29003KT 1 3/4SM BR BKN004 04/04 A3026 -210 100 -1500 290/03 RMK AO2 T00440044
93915KAEX AEX20161127003011511/27/16 00:30:31  5-MIN KAEX 270630Z 29003KT 1 3/4SM BR BKN004 04/04 A3025 -210 100 -1500 280/03 RMK AO2 T00440044
93915KAEX AEX20161127003511511/27/16 00:35:31  5-MIN KAEX 270635Z 28003KT 1 1/2SM BR BKN004 04/04 A3025 -210 100 -1500 280/03 RMK AO2 T00440044
93915KAEX AEX20161127004011511/27/16 00:40:31  5-MIN KAEX 270640Z 30003KT 1 1/2SM BR OVC004 04/04 A3025 -210 100 -1500 300/03 RMK AO2 T00440044
93915KAEX AEX20161127004511111/27/16 00:45:31  5-MIN KAEX 270645Z 30003KT 2SM BR OVC003 04/04 A3025 -210 100 -1500 300/03 RMK AO2 T00440044
93915KAEX AEX20161127005010211/27/16 00:50:31  5-MIN KAEX 270650Z 00000KT 3/4SM BR VV003 04/04 A3025 -210 100 -1500 000/00 RMK AO2
93915KAEX AEX20161127005511211/27/16 00:55:31  5-MIN KAEX 270655Z 00000KT 1/4SM FG VV002 04/04 A3025 -200 100 -1500 000/00 RMK AO2 T00390039
93915KAEX AEX20161127010011211/27/16 01:00:31  5-MIN KAEX 270700Z 00000KT 1/4SM FG VV003 04/04 A3024 -200 100 -1500 000/00 RMK AO2 T00390039
93915KAEX AEX20161127010511211/27/16 01:05:31  5-MIN KAEX 270705Z 00000KT 1/4SM FG VV003 04/04 A3024 -200 100 -1500 000/00 RMK AO2 T00390039
93915KAEX AEX20161127011011311/27/16 01:10:31  5-MIN KAEX 270710Z 00000KT 1/2SM FG OVC002 04/04 A3024 -200 100 -1400 000/00 RMK AO2 T00440044
93915KAEX AEX20161127011511311/27/16 01:15:31  5-MIN KAEX 270715Z 00000KT 3/4SM BR OVC002 04/04 A3024 -200 100 -1400 000/00 RMK AO2 T00440044
93915KAEX AEX20161127012011311/27/16 01:20:31  5-MIN KAEX 270720Z 00000KT 3/4SM BR OVC002 05/05 A3024 -200 100 -1400 000/00 RMK AO2 T00500050
93915KAEX AEX20161127012511211/27/16 01:25:31  5-MIN KAEX 270725Z 00000KT 3/4SM BR VV002 05/05 A3024 -200 100 -1400 000/00 RMK AO2 T00500050
93915KAEX AEX20161127013011211/27/16 01:30:31  5-MIN KAEX 270730Z 00000KT 1/2SM FG VV002 06/06 A3024 -200 100 -1300 000/00 RMK AO2 T00560056
93915KAEX AEX20161127013511211/27/16 01:35:31  5-MIN KAEX 270735Z 01004KT 1/2SM FG VV002 06/06 A3024 -190 100 -1300 010/04 RMK AO2 T00560056
93915KAEX AEX20161127014011211/27/16 01:40:31  5-MIN KAEX 270740Z 01004KT 1/4SM FG VV002 06/06 A3024 -190 100 -1300 010/04 RMK AO2 T00560056
93915KAEX AEX20161127014511211/27/16 01:45:31  5-MIN KAEX 270745Z 36003KT 1/4SM FG VV002 06/06 A3024 -190 100 -1300 360/03 RMK AO2 T00560056
93915KAEX AEX20161127015011911/27/16 01:50:31  5-MIN KAEX 270750Z 01003KT 1/4SM FG VV002 06/06 A3023 -190 100 -1300 010/03 RMK AO2 SLP242 T00560056
93915KAEX AEX20161127015511211/27/16 01:55:31  5-MIN KAEX 270755Z 03003KT 1/4SM FG VV002 06/06 A3023 -190 100 -1300 030/03 RMK AO2 T00560056
93915KAEX AEX20161127020011211/27/16 02:00:31  5-MIN KAEX 270800Z 03003KT 1/4SM FG VV002 06/06 A3023 -190 100 -1300 030/03 RMK AO2 T00560056
93915KAEX AEX20161127020511211/27/16 02:05:31  5-MIN KAEX 270805Z 00000KT 1/4SM FG VV002 06/06 A3023 -190 100 -1300 000/00 RMK AO2 T00560056
93915KAEX AEX20161127021011211/27/16 02:10:31  5-MIN KAEX 270810Z 00000KT 1/4SM FG VV002 06/06 A3023 -190 100 -1300 000/00 RMK AO2 T00560056
93915KAEX AEX20161127021511211/27/16 02:15:31  5-MIN KAEX 270815Z 00000KT 1/4SM FG VV002 06/06 A3023 -190 100 -1300 000/00 RMK AO2 T00560056
93915KAEX AEX20161127022011211/27/16 02:20:31  5-MIN KAEX 270820Z 01003KT 1/4SM FG VV002 06/06 A3023 -190 100 -1300 010/03 RMK AO2 T00560056
93915KAEX AEX20161127022511211/27/16 02:25:31  5-MIN KAEX 270825Z 02003KT 1/4SM FG VV002 05/05 A3023 -180 100 -1400 020/03 RMK AO2 T00500050
93915KAEX AEX20161127023011211/27/16 02:30:31  5-MIN KAEX 270830Z 03003KT 1/4SM FG VV002 05/05 A3022 -180 100 -1400 030/03 RMK AO2 T00500050
93915KAEX AEX20161127023511211/27/16 02:35:31  5-MIN KAEX 270835Z 02003KT 1/4SM FG VV002 05/05 A3022 -180 100 -1400 020/03 RMK AO2 T00500050
93915KAEX AEX20161127024011211/27/16 02:40:31  5-MIN KAEX 270840Z 02003KT 1/4SM FG VV002 05/05 A3022 -180 100 -1400 020/03 RMK AO2 T00500050
93915KAEX AEX20161127024511211/27/16 02:45:31  5-MIN KAEX 270845Z 00000KT 1/4SM FG VV002 05/05 A3022 -180 100 -1300 000/00 RMK AO2 T00500050
93915KAEX AEX20161127025012511/27/16 02:50:31  5-MIN KAEX 270850Z 00000KT 1/4SM FG VV002 05/05 A3022 -180 100 -1400 000/00 RMK AO2 SLP238 T00500050 58008
93915KAEX AEX20161127025511211/27/16 02:55:31  5-MIN KAEX 270855Z 00000KT 1/4SM FG VV002 05/05 A3023 -190 100 -1400 000/00 RMK AO2 T00500050
93915KAEX AEX20161127030011211/27/16 03:00:31  5-MIN KAEX 270900Z 00000KT 1/4SM FG VV002 05/05 A3023 -190 100 -1400 000/00 RMK AO2 T00500050
93915KAEX AEX20161127030511211/27/16 03:05:31  5-MIN KAEX 270905Z 00000KT 1/4SM FG VV002 05/05 A3023 -190 100 -1400 000/00 RMK AO2 T00500050
93915KAEX AEX20161127031011211/27/16 03:10:31  5-MIN KAEX 270910Z 00000KT 1/4SM FG VV002 05/05 A3023 -190 100 -1400 000/00 RMK AO2 T00500050
93915KAEX AEX20161127031511211/27/16 03:15:31  5-MIN KAEX 270915Z 00000KT 1/4SM FG VV002 05/05 A3022 -180 100 -1400 000/00 RMK AO2 T00500050
93915KAEX AEX20161127032011211/27/16 03:20:31  5-MIN KAEX 270920Z 00000KT 1/4SM FG VV002 05/05 A3022 -180 100 -1300 000/00 RMK AO2 T00500050
93915KAEX AEX20161127032511211/27/16 03:25:31  5-MIN KAEX 270925Z 00000KT 1/4SM FG VV002 05/05 A3021 -170 100 -1300 000/00 RMK AO2 T00500050
93915KAEX AEX20161127033011211/27/16 03:30:31  5-MIN KAEX 270930Z 00000KT 1/4SM FG VV002 05/05 A3021 -170 100 -1300 000/00 RMK AO2 T00500050
93915KAEX AEX20161127033511211/27/16 03:35:31  5-MIN KAEX 270935Z 02003KT 1/4SM FG VV002 05/05 A3021 -170 100 -1300 020/03 RMK AO2 T00500050
93915KAEX AEX20161127034011211/27/16 03:40:31  5-MIN KAEX 270940Z 04003KT 1/4SM FG VV002 05/05 A3021 -170 100 -1300 040/03 RMK AO2 T00500050
93915KAEX AEX20161127034511211/27/16 03:45:31  5-MIN KAEX 270945Z 00000KT 1/4SM FG VV002 05/05 A3020 -160 100 -1300 000/00 RMK AO2 T00500050
93915KAEX AEX20161127035011911/27/16 03:50:31  5-MIN KAEX 270950Z 00000KT 1/4SM FG VV002 05/05 A3020 -160 100 -1300 000/00 RMK AO2 SLP232 T00500050
93915KAEX AEX20161127035511211/27/16 03:55:31  5-MIN KAEX 270955Z 00000KT 1/4SM FG VV002 05/05 A3020 -170 100 -1300 000/00 RMK AO2 T00500050
93915KAEX AEX20161127040011211/27/16 04:00:31  5-MIN KAEX 271000Z 00000KT 1/4SM FG VV002 05/05 A3020 -160 100 -1300 000/00 RMK AO2 T00500050
93915KAEX AEX20161127040511211/27/16 04:05:31  5-MIN KAEX 271005Z 00000KT 1/4SM FG VV002 05/05 A3020 -170 100 -1300 000/00 RMK AO2 T00500050
93915KAEX AEX20161127041011211/27/16 04:10:31  5-MIN KAEX 271010Z 00000KT 1/4SM FG VV002 05/05 A3020 -170 100 -1300 000/00 RMK AO2 T00500050
93915KAEX AEX20161127041511211/27/16 04:15:31  5-MIN KAEX 271015Z 00000KT 1/4SM FG VV002 05/05 A3021 -170 100 -1300 000/00 RMK AO2 T00500050
93915KAEX AEX20161127042011211/27/16 04:20:31  5-MIN KAEX 271020Z 00000KT 1/4SM FG VV002 05/05 A3021 -170 100 -1300 000/00 RMK AO2 T00500050
93915KAEX AEX20161127042511211/27/16 04:25:31  5-MIN KAEX 271025Z 00000KT 1/4SM FG VV002 05/05 A3021 -170 100 -1300 000/00 RMK AO2 T00500050
93915KAEX AEX20161127043011211/27/16 04:30:31  5-MIN KAEX 271030Z 00000KT 1/4SM FG VV002 05/05 A3021 -170 100 -1300 000/00 RMK AO2 T00500050
93915KAEX AEX20161127043511211/27/16 04:35:31  5-MIN KAEX 271035Z 00000KT 1/4SM FG VV002 05/05 A3021 -170 100 -1300 000/00 RMK AO2 T00500050
93915KAEX AEX20161127044011211/27/16 04:40:31  5-MIN KAEX 271040Z 00000KT 1/4SM FG VV002 05/05 A3021 -170 100 -1300 000/00 RMK AO2 T00500050
93915KAEX AEX20161127044511211/27/16 04:45:31  5-MIN KAEX 271045Z 31003KT 1/4SM FG VV002 05/05 A3021 -170 100 -1300 310/03 RMK AO2 T00500050
93915KAEX AEX20161127045011911/27/16 04:50:31  5-MIN KAEX 271050Z 32003KT 1/4SM FG VV002 05/05 A3020 -160 100 -1300 310/03 RMK AO2 SLP232 T00500050
93915KAEX AEX20161127045511211/27/16 04:55:31  5-MIN KAEX 271055Z 30003KT 1/4SM FG VV002 05/05 A3020 -160 100 -1300 290/03 RMK AO2 T00500050
93915KAEX AEX20161127050011211/27/16 05:00:31  5-MIN KAEX 271100Z 29003KT 1/4SM FG VV002 04/04 A3021 -170 100 -1400 290/03 RMK AO2 T00440044
93915KAEX AEX20161127050511211/27/16 05:05:31  5-MIN KAEX 271105Z 00000KT 1/4SM FG VV002 04/04 A3020 -170 100 -1400 000/00 RMK AO2 T00440044
93915KAEX AEX20161127051011211/27/16 05:10:31  5-MIN KAEX 271110Z 33003KT 1/4SM FG VV002 04/04 A3021 -170 100 -1400 330/03 RMK AO2 T00440044
93915KAEX AEX20161127051511211/27/16 05:15:31  5-MIN KAEX 271115Z 31003KT 1/4SM FG VV002 04/04 A3021 -170 100 -1400 310/03 RMK AO2 T00440044
93915KAEX AEX20161127052011211/27/16 05:20:31  5-MIN KAEX 271120Z 32003KT 1/4SM FG VV002 04/04 A3021 -170 100 -1400 310/03 RMK AO2 T00440044
93915KAEX AEX20161127052511211/27/16 05:25:31  5-MIN KAEX 271125Z 33003KT 1/4SM FG VV002 04/04 A3021 -170 100 -1400 330/03 RMK AO2 T00440044
93915KAEX AEX20161127053011211/27/16 05:30:31  5-MIN KAEX 271130Z 00000KT 1/4SM FG VV002 04/04 A3020 -160 100 -1400 000/00 RMK AO2 T00440044
93915KAEX AEX20161127053511211/27/16 05:35:31  5-MIN KAEX 271135Z 00000KT 1/4SM FG VV002 04/04 A3020 -160 100 -1400 000/00 RMK AO2 T00440044
93915KAEX AEX20161127054011211/27/16 05:40:31  5-MIN KAEX 271140Z 00000KT 1/4SM FG VV002 04/04 A3020 -160 100 -1400 000/00 RMK AO2 T00440044
93915KAEX AEX20161127054511211/27/16 05:45:31  5-MIN KAEX 271145Z 00000KT 1/4SM FG VV002 04/04 A3020 -160 100 -1400 000/00 RMK AO2 T00440044
93915KAEX AEX20161127055013711/27/16 05:50:31  5-MIN KAEX 271150Z 00000KT 1/4SM FG VV002 04/04 A3020 -160 100 -1400 000/00 RMK AO2 SLP230 T00440044 10056 20039 56014
93915KAEX AEX20161127055511211/27/16 05:55:31  5-MIN KAEX 271155Z 02003KT 1/4SM FG VV002 04/04 A3020 -160 100 -1400 020/03 RMK AO2 T00440044
93915KAEX AEX20161127060011211/27/16 06:00:31  5-MIN KAEX 271200Z 00000KT 1/4SM FG VV002 04/04 A3020 -160 100 -1400 000/00 RMK AO2 T00440044
93915KAEX AEX20161127060511211/27/16 06:05:31  5-MIN KAEX 271205Z 00000KT 1/4SM FG VV002 04/04 A3020 -160 100 -1400 000/00 RMK AO2 T00440044
93915KAEX AEX20161127061011211/27/16 06:10:31  5-MIN KAEX 271210Z 00000KT 1/4SM FG VV002 04/04 A3020 -160 100 -1400 000/00 RMK AO2 T00440044
93915KAEX AEX20161127061511211/27/16 06:15:31  5-MIN KAEX 271215Z 06003KT 1/4SM FG VV002 05/05 A3019 -150 100 -1300 060/03 RMK AO2 T00500050
93915KAEX AEX20161127062011211/27/16 06:20:31  5-MIN KAEX 271220Z 00000KT 1/4SM FG VV002 04/04 A3019 -160 100 -1400 000/00 RMK AO2 T00440044
93915KAEX AEX20161127062511211/27/16 06:25:31  5-MIN KAEX 271225Z 00000KT 1/4SM FG VV002 04/04 A3020 -160 100 -1400 000/00 RMK AO2 T00440044
93915KAEX AEX20161127063011211/27/16 06:30:31  5-MIN KAEX 271230Z 00000KT 1/4SM FG VV002 04/04 A3019 -160 100 -1400 000/00 RMK AO2 T00440044
93915KAEX AEX20161127063511211/27/16 06:35:31  5-MIN KAEX 271235Z 00000KT 1/4SM FG VV002 04/04 A3020 -160 100 -1400 000/00 RMK AO2 T00440044
93915KAEX AEX20161127064011211/27/16 06:40:31  5-MIN KAEX 271240Z 00000KT 1/2SM FG VV002 04/04 A3020 -160 100 -1400 000/00 RMK AO2 T00440044
93915KAEX AEX20161127064511211/27/16 06:45:31  5-MIN KAEX 271245Z 00000KT 3/4SM BR VV002 04/04 A3020 -170 100 -1400 000/00 RMK AO2 T00440044
93915KAEX AEX20161127065011911/27/16 06:50:31  5-MIN KAEX 271250Z 00000KT 1/2SM FG VV002 04/04 A3021 -170 100 -1400 000/00 RMK AO2 SLP233 T00440044
93915KAEX AEX20161127065511211/27/16 06:55:31  5-MIN KAEX 271255Z 00000KT 1/2SM FG VV002 04/04 A3020 -160 100 -1400 000/00 RMK AO2 T00440044
93915KAEX AEX20161127070011211/27/16 07:00:31  5-MIN KAEX 271300Z 00000KT 1/4SM FG VV002 04/04 A3020 -160 100 -1400 000/00 RMK AO2 T00440044
93915KAEX AEX20161127070511211/27/16 07:05:31  5-MIN KAEX 271305Z 00000KT 1/4SM FG VV002 04/04 A3020 -160 100 -1400 000/00 RMK AO2 T00440044
93915KAEX AEX20161127071011211/27/16 07:10:31  5-MIN KAEX 271310Z 00000KT 1/2SM FG VV002 04/04 A3020 -160 100 -1400 000/00 RMK AO2 T00440044
93915KAEX AEX20161127071511211/27/16 07:15:31  5-MIN KAEX 271315Z 00000KT 1/2SM FG VV002 04/04 A3020 -160 100 -1400 000/00 RMK AO2 T00440044
93915KAEX AEX20161127072011211/27/16 07:20:31  5-MIN KAEX 271320Z 00000KT 1/4SM FG VV002 04/04 A3020 -160 100 -1400 000/00 RMK AO2 T00440044
93915KAEX AEX20161127072511211/27/16 07:25:31  5-MIN KAEX 271325Z 00000KT 1/4SM FG VV002 04/04 A3019 -150 100 -1400 000/00 RMK AO2 T00440044
93915KAEX AEX20161127073011211/27/16 07:30:31  5-MIN KAEX 271330Z 00000KT 1/4SM FG VV002 04/04 A3019 -150 100 -1400 000/00 RMK AO2 T00440044
93915KAEX AEX20161127073511211/27/16 07:35:31  5-MIN KAEX 271335Z 00000KT 1/4SM FG VV002 04/04 A3019 -150 100 -1400 000/00 RMK AO2 T00440044
93915KAEX AEX20161127074011211/27/16 07:40:31  5-MIN KAEX 271340Z 00000KT 1/4SM FG VV002 04/04 A3020 -160 100 -1400 000/00 RMK AO2 T00440044
93915KAEX AEX20161127074511211/27/16 07:45:31  5-MIN KAEX 271345Z 00000KT 1/4SM FG VV002 04/04 A3020 -160 100 -1400 000/00 RMK AO2 T00440044
93915KAEX AEX20161127075010211/27/16 07:50:31  5-MIN KAEX 271350Z 00000KT 1/2SM FG VV002 04/04 A3020 -160 100 -1400 000/00 RMK AO2
93915KAEX AEX20161127075511511/27/16 07:55:31  5-MIN KAEX 271355Z 00000KT 1 1/4SM BR OVC002 05/05 A3020 -160 100 -1300 000/00 RMK AO2 T00500050
93915KAEX AEX20161127080011511/27/16 08:00:31  5-MIN KAEX 271400Z 00000KT 2 1/2SM BR BKN002 05/05 A3020 -160 100 -1300 000/00 RMK AO2 T00500050
93915KAEX AEX20161127080511111/27/16 08:05:31  5-MIN KAEX 271405Z 00000KT 3SM BR BKN002 05/05 A3019 -150 100 -1300 000/00 RMK AO2 T00500050
93915KAEX AEX20161127081011111/27/16 08:10:31  5-MIN KAEX 271410Z 00000KT 3SM BR BKN002 05/05 A3019 -160 100 -1300 000/00 RMK AO2 T00500050
93915KAEX AEX20161127081511111/27/16 08:15:31  5-MIN KAEX 271415Z 00000KT 4SM BR SCT002 05/05 A3020 -160 100 -1300 000/00 RMK AO2 T00500050
93915KAEX AEX20161127082011111/27/16 08:20:31  5-MIN KAEX 271420Z 00000KT 4SM BR SCT002 06/06 A3020 -160 100 -1300 000/00 RMK AO2 T00560056
93915KAEX AEX20161127082511111/27/16 08:25:31  5-MIN KAEX 271425Z 00000KT 4SM BR FEW002 05/05 A3019 -160 100 -1300 000/00 RMK AO2 T00500050
93915KAEX AEX20161127083011111/27/16 08:30:31  5-MIN KAEX 271430Z 00000KT 4SM BR FEW002 06/06 A3019 -150 100 -1200 000/00 RMK AO2 T00560056
93915KAEX AEX20161127083511111/27/16 08:35:31  5-MIN KAEX 271435Z 00000KT 4SM BR FEW002 05/05 A3018 -150 100 -1300 000/00 RMK AO2 T00500050
93915KAEX AEX20161127084010811/27/16 08:40:31  5-MIN KAEX 271440Z 00000KT 4SM BR CLR 06/06 A3018 -150 100 -1200 000/00 RMK AO2 T00560056
93915KAEX AEX20161127084510811/27/16 08:45:31  5-MIN KAEX 271445Z 00000KT 4SM BR CLR 06/06 A3019 -150 100 -1200 000/00 RMK AO2 T00610061
93915KAEX AEX20161127085012111/27/16 08:50:31  5-MIN KAEX 271450Z 00000KT 5SM BR CLR 06/06 A3019 -160 100 -1200 000/00 RMK AO2 SLP229 T00610061 56008
93915KAEX AEX20161127085510811/27/16 08:55:31  5-MIN KAEX 271455Z 11003KT 5SM BR CLR 06/06 A3020 -160 100 -1200 110/03 RMK AO2 T00610061
93915KAEX AEX20161127090010811/27/16 09:00:31  5-MIN KAEX 271500Z 10004KT 6SM BR CLR 06/06 A3019 -160 100 -1200 100/04 RMK AO2 T00610061
93915KAEX AEX20161127090510711/27/16 09:05:31  5-MIN KAEX 271505Z 12004KT 6SM BR CLR 07/06 A3018 -150 96 -1100 120/04 RMK AO2 T00670061
93915KAEX AEX20161127091010811/27/16 09:10:31  5-MIN KAEX 271510Z 11005KT 6SM BR CLR 07/07 A3018 -140 100 -1100 110/05 RMK AO2 T00670067
93915KAEX AEX20161127091510411/27/16 09:15:31  5-MIN KAEX 271515Z 11005KT 7SM CLR 07/07 A3018 -140 96 -1000 110/05 RMK AO2 T00720067
93915KAEX AEX20161127092010511/27/16 09:20:31  5-MIN KAEX 271520Z 11005KT 7SM CLR 07/07 A3018 -140 100 -1000 110/05 RMK AO2 T00720072
93915KAEX AEX20161127092510411/27/16 09:25:31  5-MIN KAEX 271525Z 12006KT 8SM CLR 08/07 A3018 -140 93 -1000 120/06 RMK AO2 T00780067
93915KAEX AEX20161127093010411/27/16 09:30:31  5-MIN KAEX 271530Z 13006KT 9SM CLR 08/07 A3018 -140 93 -1000 120/06 RMK AO2 T00780067
93915KAEX AEX20161127093510411/27/16 09:35:31  5-MIN KAEX 271535Z 13009KT 9SM CLR 08/06 A3018 -140 89 -1000 130/09 RMK AO2 T00780061
93915KAEX AEX20161127094010511/27/16 09:40:31  5-MIN KAEX 271540Z 13008KT 10SM CLR 08/06 A3018 -140 86 -1000 130/08 RMK AO2 T00780056
93915KAEX AEX20161127094510411/27/16 09:45:31  5-MIN KAEX 271545Z 13009KT 10SM CLR 08/06 A3018 -140 86 -900 130/09 RMK AO2 T00830061
93915KAEX AEX20161127095011111/27/16 09:50:31  5-MIN KAEX 271550Z 13007KT 10SM CLR 09/06 A3018 -140 79 -800 130/07 RMK AO2 SLP223 T00890056
93915KAEX AEX20161127095510411/27/16 09:55:31  5-MIN KAEX 271555Z 15011KT 10SM CLR 10/06 A3017 -140 74 -700 150/11 RMK AO2 T01000056
93915KAEX AEX20161127100010411/27/16 10:00:31  5-MIN KAEX 271600Z 15010KT 10SM CLR 11/05 A3017 -140 68 -600 150/10 RMK AO2 T01060050
93915KAEX AEX20161127100510411/27/16 10:05:31  5-MIN KAEX 271605Z 16009KT 10SM CLR 11/06 A3018 -140 68 -600 160/09 RMK AO2 T01110056
93915KAEX AEX20161127101010411/27/16 10:10:31  5-MIN KAEX 271610Z 15008KT 10SM CLR 11/05 A3018 -140 66 -600 140/08 RMK AO2 T01110050
93915KAEX AEX20161127101510411/27/16 10:15:31  5-MIN KAEX 271615Z 17009KT 10SM CLR 12/05 A3018 -140 63 -500 170/09 RMK AO2 T01170050
93915KAEX AEX20161127102010411/27/16 10:20:31  5-MIN KAEX 271620Z 16009KT 10SM CLR 12/05 A3018 -140 63 -500 150/09 RMK AO2 T01170050
93915KAEX AEX20161127102510411/27/16 10:25:31  5-MIN KAEX 271625Z 16009KT 10SM CLR 13/05 A3018 -140 59 -400 160/09 RMK AO2 T01280050
93915KAEX AEX20161127103010411/27/16 10:30:31  5-MIN KAEX 271630Z 16008KT 10SM CLR 13/04 A3018 -140 56 -400 160/08 RMK AO2 T01280044
93915KAEX AEX20161127103510411/27/16 10:35:31  5-MIN KAEX 271635Z 17008KT 10SM CLR 13/05 A3018 -140 59 -400 170/08 RMK AO2 T01280050
93915KAEX AEX20161127104010411/27/16 10:40:31  5-MIN KAEX 271640Z 17008KT 10SM CLR 12/04 A3018 -140 61 -500 170/08 RMK AO2 T01170044
93915KAEX AEX20161127104510411/27/16 10:45:31  5-MIN KAEX 271645Z 15008KT 10SM CLR 12/04 A3017 -140 56 -400 150/08 RMK AO2 T01220039
93915KAEX AEX20161127105011111/27/16 10:50:31  5-MIN KAEX 271650Z 15009KT 10SM CLR 13/04 A3016 -130 54 -300 140/09 RMK AO2 SLP219 T01280039
93915KAEX AEX20161127105511111/27/16 10:55:31  5-MIN KAEX 271655Z 15008KT 10SM CLR 13/04 A3016 -120 52 -300 150/08 RMK AO2 PRESFR T01330039
93915KAEX AEX20161127110011111/27/16 11:00:31  5-MIN KAEX 271700Z 14009KT 10SM CLR 14/04 A3015 -110 50 -200 140/09 RMK AO2 PRESFR T01390039
93915KAEX AEX20161127110510411/27/16 11:05:31  5-MIN KAEX 271705Z 14009KT 10SM CLR 14/04 A3015 -110 50 -200 140/09 RMK AO2 T01390039
93915KAEX AEX20161127111010411/27/16 11:10:31  5-MIN KAEX 271710Z 14010KT 10SM CLR 14/04 A3015 -110 50 -200 140/10 RMK AO2 T01390039
93915KAEX AEX20161127111510411/27/16 11:15:31  5-MIN KAEX 271715Z 13007KT 10SM CLR 14/04 A3014 -110 49 -100 130/07 RMK AO2 T01440039
93915KAEX AEX20161127112010411/27/16 11:20:31  5-MIN KAEX 271720Z 13007KT 10SM CLR 14/04 A3013 -100 49 -100 130/07 RMK AO2 T01440039
93915KAEX AEX20161127112510411/27/16 11:25:31  5-MIN KAEX 271725Z 15007KT 10SM CLR 14/04 A3013 -100 50 -200 150/07 RMK AO2 T01390039
93915KAEX AEX20161127113011011/27/16 11:30:31  5-MIN KAEX 271730Z 15008KT 10SM CLR 14/04 A3012 -90 49 -100 150/08 RMK AO2 PRESFR T01440039
93915KAEX AEX20161127113510711/27/16 11:35:31  5-MIN KAEX 271735Z 13009KT 10SM CLR 15/04 A3012 -80 47 0 130/09 RMK AO2 PRESFR T01500039
93915KAEX AEX20161127114010711/27/16 11:40:31  5-MIN KAEX 271740Z 12008KT 10SM CLR 15/03 A3011 -80 45 0 120/08 RMK AO2 PRESFR T01500033
93915KAEX AEX20161127114510011/27/16 11:45:31  5-MIN KAEX 271745Z 12010KT 10SM CLR 15/04 A3011 -70 47 0 120/10 RMK AO2 T01500039
93915KAEX AEX20161127115012511/27/16 11:50:31  5-MIN KAEX 271750Z 11010KT 10SM CLR 15/04 A3010 -70 47 0 110/10 RMK AO2 SLP198 T01500039 10150 20044 58001
93915KAEX AEX20161127115510011/27/16 11:55:31  5-MIN KAEX 271755Z 15008KT 10SM CLR 16/04 A3010 -70 45 0 140/08 RMK AO2 T01560039
93915KAEX AEX20161127120010011/27/16 12:00:31  5-MIN KAEX 271800Z 11009KT 10SM CLR 16/04 A3009 -60 45 0 110/09 RMK AO2 T01560039
93915KAEX AEX20161127120510911/27/16 12:05:31  5-MIN KAEX 271805Z 12011KT 10SM CLR 16/04 A3008 -50 45 100 120/11 RMK AO2 PRESFR T01610044
93915KAEX AEX20161127121010911/27/16 12:10:31  5-MIN KAEX 271810Z 13011KT 10SM CLR 16/04 A3007 -40 44 100 120/11 RMK AO2 PRESFR T01610039
93915KAEX AEX20161127121510211/27/16 12:15:31  5-MIN KAEX 271815Z 13010KT 10SM CLR 16/04 A3007 -40 44 100 130/10 RMK AO2 T01610039
93915KAEX AEX20161127122010211/27/16 12:20:31  5-MIN KAEX 271820Z 16008KT 10SM CLR 16/04 A3008 -50 44 100 160/08 RMK AO2 T01610039
93915KAEX AEX20161127122510211/27/16 12:25:31  5-MIN KAEX 271825Z 14011KT 10SM CLR 16/03 A3007 -40 42 100 140/11 RMK AO2 T01610033
93915KAEX AEX20161127123010211/27/16 12:30:31  5-MIN KAEX 271830Z 14011KT 10SM CLR 17/04 A3006 -40 42 200 140/11 RMK AO2 T01670039
93915KAEX AEX20161127123510211/27/16 12:35:31  5-MIN KAEX 271835Z 15008KT 10SM CLR 17/04 A3006 -40 42 200 150/08 RMK AO2 T01670039
93915KAEX AEX20161127124010211/27/16 12:40:31  5-MIN KAEX 271840Z 14011KT 10SM CLR 17/04 A3006 -30 42 200 140/11 RMK AO2 T01670039
93915KAEX AEX20161127124510211/27/16 12:45:31  5-MIN KAEX 271845Z 14010KT 10SM CLR 17/04 A3006 -30 42 200 140/10 RMK AO2 T01670039
93915KAEX AEX20161127125010911/27/16 12:50:31  5-MIN KAEX 271850Z 13009KT 10SM CLR 17/04 A3006 -30 42 200 130/09 RMK AO2 SLP183 T01670039
93915KAEX AEX20161127125510211/27/16 12:55:31  5-MIN KAEX 271855Z 14008KT 10SM CLR 17/04 A3005 -30 42 200 140/08 RMK AO2 T01670039
93915KAEX AEX20161127130010211/27/16 13:00:31  5-MIN KAEX 271900Z 16007KT 10SM CLR 17/04 A3005 -30 42 200 160/07 RMK AO2 T01670039
93915KAEX AEX20161127130510211/27/16 13:05:31  5-MIN KAEX 271905Z 13007KT 10SM CLR 17/04 A3005 -20 42 200 120/07 RMK AO2 T01670039
93915KAEX AEX20161127131010211/27/16 13:10:31  5-MIN KAEX 271910Z 15009KT 10SM CLR 17/04 A3004 -10 44 200 150/09 RMK AO2 T01670044
93915KAEX AEX20161127131510211/27/16 13:15:31  5-MIN KAEX 271915Z 16008KT 10SM CLR 17/04 A3004 -10 44 200 160/08 RMK AO2 T01670044
93915KAEX AEX20161127132010211/27/16 13:20:31  5-MIN KAEX 271920Z 12009KT 10SM CLR 17/04 A3003 -10 44 200 120/09 RMK AO2 T01670044
93915KAEX AEX20161127132510011/27/16 13:25:31  5-MIN KAEX 271925Z 12009KT 10SM CLR 17/04 A3003 0 42 300 120/09 RMK AO2 T01720044
93915KAEX AEX20161127133010011/27/16 13:30:31  5-MIN KAEX 271930Z 16010KT 10SM CLR 18/04 A3003 0 41 400 150/10 RMK AO2 T01780044
93915KAEX AEX20161127133510211/27/16 13:35:31  5-MIN KAEX 271935Z 12008KT 10SM CLR 17/04 A3003 -10 42 300 120/08 RMK AO2 T01720044
93915KAEX AEX20161127134010211/27/16 13:40:31  5-MIN KAEX 271940Z 17006KT 10SM CLR 17/04 A3003 -10 42 300 160/06 RMK AO2 T01720044
93915KAEX AEX20161127134510011/27/16 13:45:31  5-MIN KAEX 271945Z 13009KT 10SM CLR 17/04 A3003 0 42 300 130/09 RMK AO2 T01720044
93915KAEX AEX20161127135010711/27/16 13:50:31  5-MIN KAEX 271950Z 14008KT 10SM CLR 18/04 A3002 0 41 400 140/08 RMK AO2 SLP170 T01780044
93915KAEX AEX20161127135510011/27/16 13:55:31  5-MIN KAEX 271955Z 12007KT 10SM CLR 18/04 A3002 0 41 400 120/07 RMK AO2 T01780044
93915KAEX AEX20161127140010011/27/16 14:00:31  5-MIN KAEX 272000Z 13009KT 10SM CLR 17/04 A3002 0 41 300 130/09 RMK AO2 T01720039
93915KAEX AEX20161127140510111/27/16 14:05:31  5-MIN KAEX 272005Z 13010KT 10SM CLR 18/04 A3001 10 41 400 130/10 RMK AO2 T01780044
93915KAEX AEX20161127141010111/27/16 14:10:31  5-MIN KAEX 272010Z 12010KT 10SM CLR 18/04 A3001 10 41 400 120/10 RMK AO2 T01780044
93915KAEX AEX20161127141510111/27/16 14:15:31  5-MIN KAEX 272015Z 13010KT 10SM CLR 18/04 A3000 20 41 400 130/10 RMK AO2 T01780044
93915KAEX AEX20161127142010111/27/16 14:20:31  5-MIN KAEX 272020Z 13007KT 10SM CLR 18/04 A3000 20 41 400 130/07 RMK AO2 T01780044
93915KAEX AEX20161127142510111/27/16 14:25:31  5-MIN KAEX 272025Z 14007KT 10SM CLR 18/04 A3000 20 39 400 140/07 RMK AO2 T01780039
93915KAEX AEX20161127143010111/27/16 14:30:31  5-MIN KAEX 272030Z 13010KT 10SM CLR 18/04 A2999 20 39 500 130/10 RMK AO2 T01830044
93915KAEX AEX20161127143510111/27/16 14:35:31  5-MIN KAEX 272035Z 14009KT 10SM CLR 18/04 A2999 30 39 500 140/09 RMK AO2 T01830044
93915KAEX AEX20161127144010111/27/16 14:40:31  5-MIN KAEX 272040Z 15008KT 10SM CLR 18/04 A2999 30 39 500 150/08 RMK AO2 T01830044
93915KAEX AEX20161127144510111/27/16 14:45:31  5-MIN KAEX 272045Z 12009KT 10SM CLR 18/04 A2999 30 38 500 120/09 RMK AO2 T01830039
93915KAEX AEX20161127145011411/27/16 14:50:31  5-MIN KAEX 272050Z 16008KT 10SM CLR 18/04 A2999 20 38 500 160/08 RMK AO2 SLP161 T01830039 58032
93915KAEX AEX20161127145510111/27/16 14:55:31  5-MIN KAEX 272055Z 14010KT 10SM CLR 18/04 A2999 20 39 500 140/10 RMK AO2 T01830044
93915KAEX AEX20161127150010111/27/16 15:00:31  5-MIN KAEX 272100Z 14008KT 10SM CLR 18/04 A2999 30 38 500 140/08 RMK AO2 T01830039
93915KAEX AEX20161127150510111/27/16 15:05:31  5-MIN KAEX 272105Z 16009KT 10SM CLR 18/04 A2999 30 39 500 160/09 RMK AO2 T01830044
93915KAEX AEX20161127151010111/27/16 15:10:31  5-MIN KAEX 272110Z 15009KT 10SM CLR 18/04 A2998 30 39 500 150/09 RMK AO2 T01830044
93915KAEX AEX20161127151510111/27/16 15:15:31  5-MIN KAEX 272115Z 14010KT 10SM CLR 18/04 A2998 40 39 500 140/10 RMK AO2 T01830044
93915KAEX AEX20161127152010111/27/16 15:20:31  5-MIN KAEX 272120Z 14009KT 10SM CLR 18/04 A2997 40 39 500 140/09 RMK AO2 T01830044
93915KAEX AEX20161127152510111/27/16 15:25:31  5-MIN KAEX 272125Z 15011KT 10SM CLR 18/04 A2997 50 39 500 150/11 RMK AO2 T01830044
93915KAEX AEX20161127153010111/27/16 15:30:31  5-MIN KAEX 272130Z 15010KT 10SM CLR 18/04 A2997 50 39 500 140/10 RMK AO2 T01830044
93915KAEX AEX20161127153510111/27/16 15:35:31  5-MIN KAEX 272135Z 15011KT 10SM CLR 18/04 A2997 50 39 500 150/11 RMK AO2 T01830044
93915KAEX AEX20161127154010111/27/16 15:40:31  5-MIN KAEX 272140Z 15011KT 10SM CLR 18/04 A2997 50 39 400 150/11 RMK AO2 T01780039
93915KAEX AEX20161127154510111/27/16 15:45:31  5-MIN KAEX 272145Z 16011KT 10SM CLR 17/03 A2997 50 39 400 160/11 RMK AO2 T01720033
93915KAEX AEX20161127155010811/27/16 15:50:31  5-MIN KAEX 272150Z 16012KT 10SM CLR 17/03 A2996 50 39 400 160/12 RMK AO2 SLP151 T01720033
93915KAEX AEX20161127155510111/27/16 15:55:31  5-MIN KAEX 272155Z 15011KT 10SM CLR 17/03 A2996 50 37 400 150/11 RMK AO2 T01720028
93915KAEX AEX20161127160010111/27/16 16:00:31  5-MIN KAEX 272200Z 15011KT 10SM CLR 17/03 A2996 60 39 400 150/11 RMK AO2 T01720033
93915KAEX AEX20161127160510111/27/16 16:05:31  5-MIN KAEX 272205Z 16011KT 10SM CLR 17/03 A2996 60 39 400 160/11 RMK AO2 T01720033
93915KAEX AEX20161127161010611/27/16 16:10:31  5-MIN KAEX 272210Z AUTO 15011KT 10SM CLR 17/04 A2995 60 41 400 150/11 RMK AO2 T01720039
93915KAEX AEX20161127161510611/27/16 16:15:31  5-MIN KAEX 272215Z AUTO 15009KT 10SM CLR 17/04 A2995 70 41 400 150/09 RMK AO2 T01720039
93915KAEX AEX20161127162010611/27/16 16:20:31  5-MIN KAEX 272220Z AUTO 16012KT 10SM CLR 17/04 A2995 70 41 400 150/12 RMK AO2 T01720039
93915KAEX AEX20161127162510611/27/16 16:25:31  5-MIN KAEX 272225Z AUTO 16011KT 10SM CLR 17/04 A2995 60 41 400 160/11 RMK AO2 T01720039
93915KAEX AEX20161127163010611/27/16 16:30:31  5-MIN KAEX 272230Z AUTO 16009KT 10SM CLR 17/04 A2995 60 44 300 160/09 RMK AO2 T01670044
93915KAEX AEX20161127163510611/27/16 16:35:31  5-MIN KAEX 272235Z AUTO 16010KT 10SM CLR 17/04 A2995 70 44 300 150/10 RMK AO2 T01670044
93915KAEX AEX20161127164010611/27/16 16:40:31  5-MIN KAEX 272240Z AUTO 15007KT 10SM CLR 16/04 A2995 70 45 300 150/07 RMK AO2 T01610044
93915KAEX AEX20161127164510611/27/16 16:45:31  5-MIN KAEX 272245Z AUTO 15007KT 10SM CLR 16/04 A2995 70 45 300 150/07 RMK AO2 T01610044
93915KAEX AEX20161127165011311/27/16 16:50:31  5-MIN KAEX 272250Z AUTO 15007KT 10SM CLR 16/04 A2995 70 47 200 150/07 RMK AO2 SLP146 T01560044
93915KAEX AEX20161127165510611/27/16 16:55:31  5-MIN KAEX 272255Z AUTO 15007KT 10SM CLR 15/04 A2994 70 49 100 150/07 RMK AO2 T01500044
93915KAEX AEX20161127170010611/27/16 17:00:31  5-MIN KAEX 272300Z AUTO 15008KT 10SM CLR 15/04 A2994 70 49 100 150/08 RMK AO2 T01500044
93915KAEX AEX20161127170510611/27/16 17:05:31  5-MIN KAEX 272305Z AUTO 14007KT 10SM CLR 14/05 A2994 70 53 100 140/07 RMK AO2 T01440050
93915KAEX AEX20161127171010411/27/16 17:10:31  5-MIN KAEX 272310Z AUTO 14007KT 10SM CLR 14/05 A2994 70 55 0 140/07 RMK AO2 T01390050
93915KAEX AEX20161127171510411/27/16 17:15:31  5-MIN KAEX 272315Z AUTO 14007KT 10SM CLR 14/05 A2994 70 55 0 140/07 RMK AO2 T01390050
93915KAEX AEX20161127172010411/27/16 17:20:31  5-MIN KAEX 272320Z AUTO 14006KT 10SM CLR 13/05 A2994 70 57 0 130/06 RMK AO2 T01330050
93915KAEX AEX20161127172510411/27/16 17:25:31  5-MIN KAEX 272325Z AUTO 14006KT 10SM CLR 13/04 A2994 70 54 0 140/06 RMK AO2 T01330044
93915KAEX AEX20161127173010711/27/16 17:30:31  5-MIN KAEX 272330Z AUTO 15006KT 10SM CLR 13/04 A2994 70 56 -100 150/06 RMK AO2 T01280044
93915KAEX AEX20161127173510711/27/16 17:35:31  5-MIN KAEX 272335Z AUTO 15006KT 10SM CLR 13/05 A2994 70 59 -100 150/06 RMK AO2 T01280050
93915KAEX AEX20161127174010711/27/16 17:40:31  5-MIN KAEX 272340Z AUTO 14006KT 10SM CLR 12/05 A2994 70 61 -100 140/06 RMK AO2 T01220050
93915KAEX AEX20161127174510711/27/16 17:45:31  5-MIN KAEX 272345Z AUTO 15005KT 10SM CLR 12/05 A2994 70 61 -200 150/05 RMK AO2 T01220050
93915KAEX AEX20161127175013211/27/16 17:50:31  5-MIN KAEX 272350Z AUTO 15005KT 10SM CLR 12/05 A2994 70 61 -200 150/05 RMK AO2 SLP143 T01220050 10183 20122 56037
93915KAEX AEX20161127175510711/27/16 17:55:31  5-MIN KAEX 272355Z AUTO 15005KT 10SM CLR 12/05 A2994 80 61 -100 150/05 RMK AO2 T01220050
93915KAEX AEX20161127180010711/27/16 18:00:31  5-MIN KAEX 280000Z AUTO 14006KT 10SM CLR 12/05 A2993 80 63 -200 140/06 RMK AO2 T01170050
93915KAEX AEX20161127180510711/27/16 18:05:31  5-MIN KAEX 280005Z AUTO 14006KT 10SM CLR 11/05 A2993 80 66 -300 140/06 RMK AO2 T01110050
93915KAEX AEX20161127181010711/27/16 18:10:31  5-MIN KAEX 280010Z AUTO 14006KT 10SM CLR 11/05 A2993 80 66 -300 140/06 RMK AO2 T01110050
93915KAEX AEX20161127181510711/27/16 18:15:31  5-MIN KAEX 280015Z AUTO 14007KT 10SM CLR 11/05 A2993 80 66 -300 130/07 RMK AO2 T01110050
93915KAEX AEX20161127182010711/27/16 18:20:31  5-MIN KAEX 280020Z AUTO 14007KT 10SM CLR 11/05 A2992 90 68 -300 130/07 RMK AO2 T01060050
93915KAEX AEX20161127182510711/27/16 18:25:31  5-MIN KAEX 280025Z AUTO 14006KT 10SM CLR 11/05 A2992 90 66 -300 140/06 RMK AO2 T01110050
93915KAEX AEX20161127183010711/27/16 18:30:31  5-MIN KAEX 280030Z AUTO 14007KT 10SM CLR 12/05 A2993 90 63 -200 140/07 RMK AO2 T01170050
93915KAEX AEX20161127183510711/27/16 18:35:31  5-MIN KAEX 280035Z AUTO 14007KT 10SM CLR 12/05 A2993 80 63 -200 140/07 RMK AO2 T01170050
93915KAEX AEX20161127184010711/27/16 18:40:31  5-MIN KAEX 280040Z AUTO 14005KT 10SM CLR 11/05 A2993 80 66 -300 140/05 RMK AO2 T01110050
93915KAEX AEX20161127184510711/27/16 18:45:31  5-MIN KAEX 280045Z AUTO 13005KT 10SM CLR 12/05 A2993 80 63 -200 130/05 RMK AO2 T01170050
93915KAEX AEX20161127185011411/27/16 18:50:31  5-MIN KAEX 280050Z AUTO 14004KT 10SM CLR 12/05 A2994 80 63 -200 140/04 RMK AO2 SLP142 T01170050
93915KAEX AEX20161127185510711/27/16 18:55:31  5-MIN KAEX 280055Z AUTO 14005KT 10SM CLR 12/05 A2994 80 63 -200 140/05 RMK AO2 T01170050
93915KAEX AEX20161127190010711/27/16 19:00:31  5-MIN KAEX 280100Z AUTO 13004KT 10SM CLR 12/05 A2994 80 61 -100 120/04 RMK AO2 T01220050
93915KAEX AEX20161127190510711/27/16 19:05:31  5-MIN KAEX 280105Z AUTO 13005KT 10SM CLR 11/05 A2994 80 66 -300 130/05 RMK AO2 T01110050
93915KAEX AEX20161127191010711/27/16 19:10:31  5-MIN KAEX 280110Z AUTO 14005KT 10SM CLR 11/05 A2993 80 66 -300 140/05 RMK AO2 T01110050
93915KAEX AEX20161127191510711/27/16 19:15:31  5-MIN KAEX 280115Z AUTO 14005KT 10SM CLR 11/05 A2993 80 66 -300 140/05 RMK AO2 T01110050
93915KAEX AEX20161127192010711/27/16 19:20:31  5-MIN KAEX 280120Z AUTO 14006KT 10SM CLR 11/05 A2993 80 68 -300 140/06 RMK AO2 T01060050
93915KAEX AEX20161127192510711/27/16 19:25:31  5-MIN KAEX 280125Z AUTO 14005KT 10SM CLR 10/05 A2993 80 71 -400 140/05 RMK AO2 T01000050
93915KAEX AEX20161127193010711/27/16 19:30:31  5-MIN KAEX 280130Z AUTO 15005KT 10SM CLR 11/05 A2994 80 68 -300 150/05 RMK AO2 T01060050
93915KAEX AEX20161127193510711/27/16 19:35:31  5-MIN KAEX 280135Z AUTO 15007KT 10SM CLR 10/05 A2993 80 71 -400 150/07 RMK AO2 T01000050
93915KAEX AEX20161127194010711/27/16 19:40:31  5-MIN KAEX 280140Z AUTO 14006KT 10SM CLR 09/05 A2993 80 74 -500 140/06 RMK AO2 T00940050
93915KAEX AEX20161127194510711/27/16 19:45:31  5-MIN KAEX 280145Z AUTO 14005KT 10SM CLR 09/05 A2993 80 74 -500 140/05 RMK AO2 T00940050
93915KAEX AEX20161127195011411/27/16 19:50:31  5-MIN KAEX 280150Z AUTO 13006KT 10SM CLR 10/05 A2993 80 71 -400 130/06 RMK AO2 SLP141 T01000050
93915KAEX AEX20161127195510711/27/16 19:55:31  5-MIN KAEX 280155Z AUTO 13006KT 10SM CLR 10/05 A2993 80 71 -400 130/06 RMK AO2 T01000050
93915KAEX AEX20161127200010711/27/16 20:00:31  5-MIN KAEX 280200Z AUTO 13006KT 10SM CLR 10/05 A2993 80 71 -400 130/06 RMK AO2 T01000050
93915KAEX AEX20161127200510711/27/16 20:05:31  5-MIN KAEX 280205Z AUTO 13006KT 10SM CLR 09/05 A2993 80 74 -500 130/06 RMK AO2 T00940050
93915KAEX AEX20161128053511211/28/16 05:35:31  5-MIN KAEX 281135Z 14013KT 10SM FEW075 OVC100 14/12 A2971 290 86 300 140/13 RMK AO2 T01390117
93915KAEX AEX20161128054012811/28/16 05:40:31  5-MIN KAEX 281140Z 14013KT 10SM -RA FEW080 OVC100 14/12 A2971 290 86 300 140/13 RMK AO2 RAB38 P0000 T01390117
93915KAEX AEX20161128054512811/28/16 05:45:31  5-MIN KAEX 281145Z 14013KT 10SM -RA FEW080 OVC100 14/12 A2970 290 86 300 140/13 RMK AO2 RAB38 P0000 T01390117
93915KAEX AEX20161128055015811/28/16 05:50:31  5-MIN KAEX 281150Z 14013KT 10SM FEW080 OVC100 14/12 A2970 290 86 300 140/13 RMK AO2 RAB38E46 SLP061 P0000 60000 T01390117 10139 20100 58022
93915KAEX AEX20161128055511211/28/16 05:55:31  5-MIN KAEX 281155Z 14012KT 10SM FEW080 OVC100 14/12 A2970 300 90 300 130/12 RMK AO2 T01390122
93915KAEX AEX20161128060011211/28/16 06:00:31  5-MIN KAEX 281200Z 14012KT 10SM FEW080 OVC100 14/12 A2970 300 90 300 130/12 RMK AO2 T01390122
93915KAEX AEX20161128060510511/28/16 06:05:31  5-MIN KAEX 281205Z 14011KT 10SM OVC095 14/12 A2970 300 90 300 140/11 RMK AO2 T01390122
93915KAEX AEX20161128061010511/28/16 06:10:31  5-MIN KAEX 281210Z 14013KT 10SM OVC100 14/12 A2970 300 86 300 130/13 RMK AO2 T01440122
93915KAEX AEX20161128061511211/28/16 06:15:31  5-MIN KAEX 281215Z 14013KT 10SM FEW080 OVC100 14/12 A2970 300 86 300 140/13 RMK AO2 T01440122
93915KAEX AEX20161128062010511/28/16 06:20:31  5-MIN KAEX 281220Z 14012KT 10SM OVC100 14/13 A2969 310 90 400 140/12 RMK AO2 T01440128
93915KAEX AEX20161128062510511/28/16 06:25:31  5-MIN KAEX 281225Z 14011KT 10SM OVC100 14/13 A2969 310 90 400 130/11 RMK AO2 T01440128
93915KAEX AEX20161128063010511/28/16 06:30:31  5-MIN KAEX 281230Z 13011KT 10SM BKN100 14/13 A2968 310 90 400 130/11 RMK AO2 T01440128
93915KAEX AEX20161128063510511/28/16 06:35:31  5-MIN KAEX 281235Z 14011KT 10SM BKN100 14/13 A2968 310 90 400 130/11 RMK AO2 T01440128
93915KAEX AEX20161128064010511/28/16 06:40:31  5-MIN KAEX 281240Z 14012KT 10SM BKN100 14/13 A2968 310 90 400 140/12 RMK AO2 T01440128
93915KAEX AEX20161128064510511/28/16 06:45:31  5-MIN KAEX 281245Z 14013KT 10SM BKN100 14/13 A2967 320 90 400 130/13 RMK AO2 T01440128
93915KAEX AEX20161128065011211/28/16 06:50:31  5-MIN KAEX 281250Z 14012KT 10SM BKN100 14/13 A2967 320 93 400 130/12 RMK AO2 SLP052 T01440133
93915KAEX AEX20161128065510511/28/16 06:55:31  5-MIN KAEX 281255Z 14012KT 10SM BKN100 15/13 A2967 320 90 400 140/12 RMK AO2 T01500133
93915KAEX AEX20161128070010511/28/16 07:00:31  5-MIN KAEX 281300Z 14011KT 10SM BKN100 15/13 A2967 320 90 400 140/11 RMK AO2 T01500133
93915KAEX AEX20161128070510511/28/16 07:05:31  5-MIN KAEX 281305Z 14013KT 10SM OVC095 15/13 A2967 320 90 400 140/13 RMK AO2 T01500133
93915KAEX AEX20161128071010511/28/16 07:10:31  5-MIN KAEX 281310Z 14014KT 10SM OVC090 16/14 A2966 330 90 500 140/14 RMK AO2 T01560139
93915KAEX AEX20161128071510511/28/16 07:15:31  5-MIN KAEX 281315Z 14014KT 10SM OVC090 16/14 A2966 330 90 500 140/14 RMK AO2 T01560139
93915KAEX AEX20161128072010511/28/16 07:20:31  5-MIN KAEX 281320Z 14017KT 10SM OVC090 16/14 A2965 340 90 500 130/17 RMK AO2 T01560139
93915KAEX AEX20161128072510511/28/16 07:25:31  5-MIN KAEX 281325Z 14016KT 10SM OVC090 16/14 A2965 340 90 500 140/16 RMK AO2 T01560139
93915KAEX AEX20161128073010511/28/16 07:30:31  5-MIN KAEX 281330Z 14016KT 10SM OVC090 16/14 A2964 350 90 600 140/16 RMK AO2 T01610144
93915KAEX AEX20161128073510511/28/16 07:35:31  5-MIN KAEX 281335Z 14015KT 10SM OVC090 16/14 A2964 360 90 600 140/15 RMK AO2 T01610144
93915KAEX AEX20161128074010511/28/16 07:40:31  5-MIN KAEX 281340Z 14018KT 10SM OVC090 16/14 A2963 360 90 600 140/18 RMK AO2 T01610144
93915KAEX AEX20161128074511111/28/16 07:45:31  5-MIN KAEX 281345Z 15018G24KT 10SM OVC090 17/14 A2963 360 86 700 150/18G24 RMK AO2 T01670144
93915KAEX AEX20161128075012511/28/16 07:50:31  5-MIN KAEX 281350Z 15016G24KT 10SM FEW047 OVC090 17/14 A2963 360 86 700 140/16G24 RMK AO2 SLP036 T01670144
93915KAEX AEX20161128075511211/28/16 07:55:31  5-MIN KAEX 281355Z 15018KT 10SM SCT047 OVC095 17/15 A2962 370 90 700 150/18 RMK AO2 T01670150
93915KAEX AEX20161128080011811/28/16 08:00:31  5-MIN KAEX 281400Z 15020G24KT 10SM BKN047 OVC095 17/15 A2963 360 87 700 150/20G24 RMK AO2 T01720150
93915KAEX AEX20161128080511811/28/16 08:05:31  5-MIN KAEX 281405Z 15017G24KT 10SM BKN047 OVC090 17/15 A2963 360 87 700 150/17G24 RMK AO2 T01720150
93915KAEX AEX20161128081011211/28/16 08:10:31  5-MIN KAEX 281410Z 15017KT 10SM BKN049 OVC090 17/15 A2963 360 87 700 150/17 RMK AO2 T01720150
93915KAEX AEX20161128081510511/28/16 08:15:31  5-MIN KAEX 281415Z 15016KT 10SM OVC049 17/15 A2963 360 87 700 150/16 RMK AO2 T01720150
93915KAEX AEX20161128082011211/28/16 08:20:31  5-MIN KAEX 281420Z 15018KT 10SM BKN049 OVC080 17/15 A2963 360 87 700 140/18 RMK AO2 T01720150
93915KAEX AEX20161128082511911/28/16 08:25:31  5-MIN KAEX 281425Z 14016KT 10SM BKN049 BKN070 OVC080 17/15 A2962 370 87 800 140/16 RMK AO2 T01720150
93915KAEX AEX20161128083011911/28/16 08:30:31  5-MIN KAEX 281430Z 15016KT 10SM SCT049 BKN070 OVC085 17/15 A2962 370 87 800 140/16 RMK AO2 T01720150
93915KAEX AEX20161128083511911/28/16 08:35:31  5-MIN KAEX 281435Z 15016KT 10SM SCT049 SCT070 OVC085 18/15 A2962 370 83 800 150/16 RMK AO2 T01780150
93915KAEX AEX20161128084011911/28/16 08:40:31  5-MIN KAEX 281440Z 15015KT 10SM FEW050 SCT065 OVC085 18/16 A2962 370 87 800 140/15 RMK AO2 T01780156
93915KAEX AEX20161128084511911/28/16 08:45:31  5-MIN KAEX 281445Z 15015KT 10SM FEW046 BKN060 OVC085 18/16 A2962 370 84 900 140/15 RMK AO2 T01830156
93915KAEX AEX20161128085013311/28/16 08:50:31  5-MIN KAEX 281450Z 15014KT 10SM FEW044 BKN060 OVC085 19/16 A2962 370 84 1000 150/14 RMK AO2 SLP034 T01890161 56038
93915KAEX AEX20161128085511911/28/16 08:55:31  5-MIN KAEX 281455Z 15014KT 10SM SCT042 BKN060 OVC090 19/16 A2962 370 84 900 150/14 RMK AO2 T01890161
93915KAEX AEX20161128090011911/28/16 09:00:31  5-MIN KAEX 281500Z 15014KT 10SM BKN042 BKN060 OVC085 19/16 A2963 360 84 900 150/14 RMK AO2 T01890161
93915KAEX AEX20161128090511811/28/16 09:05:31  5-MIN KAEX 281505Z 15013G20KT 10SM BKN042 OVC060 18/16 A2963 370 87 900 150/13G20 RMK AO2 T01830161
93915KAEX AEX20161128091011911/28/16 09:10:31  5-MIN KAEX 281510Z 15015KT 10SM FEW019 BKN042 OVC060 18/16 A2963 370 87 900 150/15 RMK AO2 T01830161
93915KAEX AEX20161128091511211/28/16 09:15:31  5-MIN KAEX 281515Z 14014KT 10SM SCT019 OVC042 19/16 A2962 370 84 900 140/14 RMK AO2 T01890161
93915KAEX AEX20161128092011311/28/16 09:20:31  5-MIN KAEX 281520Z 14014KT 10SM SCT019 OVC042 19/16 A2962 370 84 1000 140/14 RMK AO2 T01890161
93915KAEX AEX20161128092511311/28/16 09:25:31  5-MIN KAEX 281525Z 14012KT 10SM SCT020 OVC040 19/16 A2962 370 84 1000 140/12 RMK AO2 T01890161
93915KAEX AEX20161128093011311/28/16 09:30:31  5-MIN KAEX 281530Z 14012KT 10SM SCT020 OVC040 19/16 A2961 380 84 1000 140/12 RMK AO2 T01890161
93915KAEX AEX20161128093511311/28/16 09:35:31  5-MIN KAEX 281535Z 14013KT 10SM BKN019 OVC040 19/17 A2961 380 84 1000 130/13 RMK AO2 T01940167
93915KAEX AEX20161128094011311/28/16 09:40:31  5-MIN KAEX 281540Z 14013KT 10SM SCT019 OVC039 19/17 A2961 380 84 1000 140/13 RMK AO2 T01940167
93915KAEX AEX20161128094511311/28/16 09:45:31  5-MIN KAEX 281545Z 15014KT 10SM SCT019 OVC039 19/17 A2960 380 84 1000 150/14 RMK AO2 T01940167
93915KAEX AEX20161128095010311/28/16 09:50:31  5-MIN KAEX 281550Z 15014KT 10SM BKN019 OVC039 20/17 A2960 390 84 1100 150/14 RMK AO2
93915KAEX AEX20161128095511811/28/16 09:55:31  5-MIN KAEX 281555Z 16017G23KT 9SM SCT019 OVC037 21/17 A2960 390 81 1200 160/17G23 RMK AO2 T02060172
93915KAEX AEX20161128100014311/28/16 10:00:31  5-MIN KAEX 281600Z 16019G24KT 7SM -RA FEW018 SCT023 OVC037 21/18 A2960 390 84 1200 160/19G24 RMK AO2 RAB1556 P0000 T02060178
93915KAEX AEX20161128100516111/28/16 10:05:31  5-MIN KAEX 281605Z 16021G26KT 5SM -RA FEW018 SCT023 OVC037 21/18 A2959 400 84 1200 160/21G26 RMK AO2 PK WND 17026/1602 RAB1556 P0000 T02060178
93915KAEX AEX20161128101016411/28/16 10:10:31  5-MIN KAEX 281610Z 16018G26KT 6SM -RA BR SCT020 SCT025 OVC037 21/18 A2958 400 87 1200 160/18G26 RMK AO2 PK WND 17026/1602 RAB1556 P0000 T02060183
93915KAEX AEX20161128101516211/28/16 10:15:31  5-MIN KAEX 281615Z 16025G32KT 10SM -RA FEW022 BKN027 OVC045 21/18 A2959 400 84 1200 160/25G32 RMK AO2 PK WND 15032/1611 RAB1556 P0000 T02110183
93915KAEX AEX20161128102016011/28/16 10:20:31  5-MIN KAEX 281620Z 16020G32KT 9SM FEW022 BKN027 OVC037 21/18 A2959 400 84 1200 160/20G32 RMK AO2 PK WND 15032/1611 RAB1556E16 P0000 T02110183
93915KAEX AEX20161128102516011/28/16 10:25:31  5-MIN KAEX 281625Z 17018G25KT 9SM FEW022 BKN029 OVC037 21/18 A2959 400 84 1200 160/18G25 RMK AO2 PK WND 15032/1611 RAB1556E16 P0000 T02110183
93915KAEX AEX20161128103016111/28/16 10:30:31  5-MIN KAEX 281630Z 17022G25KT 10SM SCT026 BKN033 OVC041 21/18 A2958 400 84 1300 160/22G25 RMK AO2 PK WND 15032/1611 RAB1556E16 P0000 T02110183
93915KAEX AEX20161128103516111/28/16 10:35:31  5-MIN KAEX 281635Z 16019G25KT 10SM FEW022 BKN028 OVC036 21/18 A2958 410 84 1300 160/19G25 RMK AO2 PK WND 15032/1611 RAB1556E16 P0000 T02110183
93915KAEX AEX20161128104016011/28/16 10:40:31  5-MIN KAEX 281640Z 16024G30KT 9SM -RA BKN025 OVC030 21/18 A2957 410 84 1300 160/24G30 RMK AO2 PK WND 15032/1611 RAB1556E16B38 P0000 T02110183
93915KAEX AEX20161128104516011/28/16 10:45:31  5-MIN KAEX 281645Z 17020G30KT 7SM -RA BKN025 OVC030 21/18 A2957 420 84 1300 170/20G30 RMK AO2 PK WND 15032/1611 RAB1556E16B38 P0000 T02110183
93915KAEX AEX20161128105017411/28/16 10:50:31  5-MIN KAEX 281650Z 17022G29KT 6SM -RA SCT021 BKN028 OVC038 21/18 A2957 420 84 1300 170/22G29 RMK AO2 PK WND 15032/1611 RAB1556E16B38 SLP016 P0000 T02110183
93915KAEX AEX20161128105515611/28/16 10:55:31  5-MIN KAEX 281655Z 17025G32KT 6SM -RA BR SCT021 BKN026 OVC040 21/19 A2957 420 90 1200 170/25G32 RMK AO2 PK WND 18032/1655 P0001 T02060189
93915KAEX AEX20161128110016111/28/16 11:00:31  5-MIN KAEX 281700Z 17019G32KT 6SM -RA BR BKN025 OVC040 21/19 A2958 410 90 1200 170/19G32 RMK AO2 PK WND 18032/1655 LTG DSNT SW P0001 T02060189
93915KAEX AEX20161128110516811/28/16 11:05:31  5-MIN KAEX 281705Z 17017G26KT 2SM +RA BR SCT023 BKN036 OVC043 21/19 A2958 410 90 1200 170/17G26 RMK AO2 PK WND 18032/1655 LTG DSNT SW P0004 T02060189
93915KAEX AEX20161128111016711/28/16 11:10:31  5-MIN KAEX 281710Z 18016G27KT 2SM RA BR SCT023 BKN036 OVC046 20/19 A2958 400 93 1100 170/16G27 RMK AO2 PK WND 18032/1655 LTG DSNT SW P0005 T02000189
93915KAEX AEX20161128111517311/28/16 11:15:31  5-MIN KAEX 281715Z 17017G27KT 2SM VCTS +RA BR FEW019 BKN036 OVC070 20/19 A2957 420 93 1100 170/17G27 RMK AO2 PK WND 18032/1655 LTG DSNT SW P0008 T02000189
93915KAEX AEX20161128112017811/28/16 11:20:31  5-MIN KAEX 281720Z 17016G23KT 2SM VCTS RA BR FEW016 BKN044 OVC070 20/19 A2957 420 93 1100 170/16G23 RMK AO2 PK WND 18032/1655 LTG DSNT E AND SW P0010 T02000189
93915KAEX AEX20161128112517211/28/16 11:25:31  5-MIN KAEX 281725Z 17019G25KT 2SM VCTS +RA BR FEW017 BKN042 OVC070 20/19 A2956 420 93 1100 170/19G25 RMK AO2 PK WND 18032/1655 LTG DSNT E P0014 T02000189
93915KAEX AEX20161128113017411/28/16 11:30:31  5-MIN KAEX 281730Z 17021G29KT 2SM +RA BR FEW027 BKN042 OVC065 20/19 A2955 430 97 1200 160/21G29 RMK AO2 PK WND 18032/1655 LTG DSNT E PRESFR P0017 T02000194
93915KAEX AEX20161128113517311/28/16 11:35:31  5-MIN KAEX 281735Z 17019G29KT 2SM RA BR FEW027 BKN044 OVC110 20/19 A2956 430 97 1200 160/19G29 RMK AO2 PK WND 18032/1655 LTG DSNT NE AND E P0018 T02000194
93915KAEX AEX20161128114017311/28/16 11:40:31  5-MIN KAEX 281740Z 17016G25KT 2SM RA BR FEW016 BKN041 OVC095 20/19 A2955 430 97 1200 170/16G25 RMK AO2 PK WND 18032/1655 LTG DSNT NE AND E P0019 T02000194
93915KAEX AEX20161128114516811/28/16 11:45:31  5-MIN KAEX 281745Z 17016KT 2SM -RA BR FEW023 BKN041 OVC100 20/19 A2954 440 97 1200 170/16 RMK AO2 PK WND 18032/1655 LTG DSNT NE AND E P0019 T02000194
93915KAEX AEX20161128115018011/28/16 11:50:31  5-MIN KAEX 281750Z 17014KT 2SM RA BR FEW023 BKN036 OVC046 20/19 A2954 450 97 1200 160/14 RMK AO2 PK WND 18032/1655 SLP006 P0020 60020 T02000194 10211 20139 56026
93915KAEX AEX20161128115513111/28/16 11:55:31  5-MIN KAEX 281755Z 16013KT 4SM RA BR FEW021 BKN036 OVC044 21/19 A2953 450 93 1200 160/13 RMK AO2 P0001 T02060194
93915KAEX AEX20161128120013611/28/16 12:00:31  5-MIN KAEX 281800Z 16013KT 2 1/2SM +RA BR SCT020 OVC035 20/19 A2952 460 97 1200 160/13 RMK AO2 PRESFR P0004 T02000194
93915KAEX AEX20161128120514211/28/16 12:05:31  5-MIN KAEX 281805Z 16016G20KT 1 3/4SM +RA BR FEW016 BKN030 OVC035 20/19 A2952 460 97 1200 160/16G20 RMK AO2 P0007 T02000194
93915KAEX AEX20161128121013611/28/16 12:10:31  5-MIN KAEX 281810Z 16014KT 1 1/4SM +RA BR FEW017 BKN030 OVC035 20/19 A2951 470 97 1200 160/14 RMK AO2 P0013 T02000194
93915KAEX AEX20161128121513911/28/16 12:15:31  5-MIN KAEX 281815Z 15014KT 1SM +RA BR FEW013 BKN030 OVC037 20/19 A2950 490 97 1200 150/14 RMK AO2 PRESFR P0016 T02000194
93915KAEX AEX20161128122014911/28/16 12:20:31  5-MIN KAEX 281820Z 16017G22KT 1 1/2SM +RA BR FEW011 BKN024 OVC037 20/19 A2948 500 97 1200 150/17G22 RMK AO2 PRESFR P0018 T02000194
93915KAEX AEX20161128122514211/28/16 12:25:31  5-MIN KAEX 281825Z 16015G22KT 1 1/4SM +RA BR FEW014 BKN028 OVC037 20/19 A2948 500 97 1200 160/15G22 RMK AO2 P0024 T02000194
93915KAEX AEX20161128123013811/28/16 12:30:31  5-MIN KAEX 281830Z 17014G21KT 1SM +RA BR FEW013 BKN026 OVC033 20/19 A2948 500 97 1200 160/14G21 RMK AO2 P0027 T02000194
93915KAEX AEX20161128123514211/28/16 12:35:31  5-MIN KAEX 281835Z 22013G21KT 1 1/4SM +RA BR SCT012 BKN021 OVC027 21/19 A2950 480 93 1300 220/13G21 RMK AO2 P0034 T02060194
93915KAEX AEX20161128124015211/28/16 12:40:31  5-MIN KAEX 281840Z 23012KT 1/2SM +RA FG FEW007 BKN021 OVC026 21/19 A2952 460 93 1300 230/12 RMK AO2 WSHFT 1824 PRESRR P0054 T02060194
93915KAEX AEX20161128124514611/28/16 12:45:31  5-MIN KAEX 281845Z 23009KT 1/2SM +RA FG FEW007 BKN014 OVC032 20/20 A2951 470 100 1200 220/09 RMK AO2 WSHFT 1824 P0056 T02000200
93915KAEX AEX20161128125016911/28/16 12:50:31  5-MIN KAEX 281850Z 20013G17KT 170V240 1 1/4SM RA BR SCT009 BKN019 OVC035 20/20 A2952 460 100 1200 200/13G17 170V240 RMK AO2 WSHFT 1824 VIS 1/2V3 P0058
93915KAEX AEX20161128125513811/28/16 12:55:31  5-MIN KAEX 281855Z 21012G20KT 3SM -RA BR FEW006 BKN023 OVC045 21/20 A2950 480 93 1300 210/12G20 RMK AO2 P0000 T02110200
93915KAEX AEX20161128130013511/28/16 13:00:31  5-MIN KAEX 281900Z 21011G20KT 9SM -RA FEW011 BKN023 OVC050 21/20 A2950 480 93 1300 210/11G20 RMK AO2 P0000 T02110200
93915KAEX AEX20161128130513911/28/16 13:05:31  5-MIN KAEX 281905Z 22010KT 10SM -RA FEW009 BKN026 OVC050 21/20 A2951 480 93 1300 220/10 RMK AO2 RAE01B04 P0001 T02110200
93915KAEX AEX20161128131013911/28/16 13:10:31  5-MIN KAEX 281910Z 23010KT 10SM -RA FEW009 BKN035 OVC048 21/20 A2951 470 93 1300 220/10 RMK AO2 RAE01B04 P0001 T02110200
93915KAEX AEX20161128131513911/28/16 13:15:31  5-MIN KAEX 281915Z 22010KT 10SM -RA FEW018 BKN034 OVC060 21/20 A2951 480 93 1300 220/10 RMK AO2 RAE01B04 P0001 T02110200
93915KAEX AEX20161128132014511/28/16 13:20:31  5-MIN KAEX 281920Z 21012G16KT 10SM -RA SCT018 SCT031 BKN040 22/21 A2950 480 93 1400 200/12G16 RMK AO2 RAE01B04 P0001 T02170206
93915KAEX AEX20161128132514411/28/16 13:25:31  5-MIN KAEX 281925Z 21013G16KT 10SM FEW018 BKN035 BKN045 22/21 A2950 490 93 1400 210/13G16 RMK AO2 RAE01B04E23 P0001 T02170206
93915KAEX AEX20161128133014411/28/16 13:30:31  5-MIN KAEX 281930Z 21011G18KT 10SM FEW018 SCT042 BKN090 22/21 A2949 490 90 1500 210/11G18 RMK AO2 RAE01B04E23 P0001 T02220206
93915KAEX AEX20161128133515611/28/16 13:35:31  5-MIN KAEX 281935Z 21011G19KT 10SM FEW021 SCT036 OVC090 22/21 A2949 490 90 1500 210/11G19 RMK AO2 LTG DSNT NW RAE01B04E23 P0001 T02220206
93915KAEX AEX20161128134015611/28/16 13:40:31  5-MIN KAEX 281940Z 20015G20KT 10SM FEW017 FEW030 BKN090 22/21 A2949 490 90 1500 200/15G20 RMK AO2 LTG DSNT NW RAE01B04E23 P0001 T02220206
93915KAEX AEX20161128134514911/28/16 13:45:31  5-MIN KAEX 281945Z 20016G22KT 10SM FEW017 BKN090 23/21 A2948 500 87 1600 200/16G22 RMK AO2 LTG DSNT NW RAE01B04E23 P0001 T02280206
93915KAEX AEX20161128135013711/28/16 13:50:31  5-MIN KAEX 281950Z 20018G25KT 10SM BKN090 23/21 A2948 500 87 1600 200/18G25 RMK AO2 RAE01B04E23 SLP987 P0001 T02280206
93915KAEX AEX20161128135511211/28/16 13:55:31  5-MIN KAEX 281955Z 19013G25KT 10SM BKN090 23/21 A2948 500 87 1600 190/13G25 RMK AO2 T02280206
93915KAEX AEX20161128140012311/28/16 14:00:31  5-MIN KAEX 282000Z 20016G21KT 10SM BKN090 23/21 A2948 500 87 1600 200/16G21 RMK AO2 LTG DSNT W T02280206
93915KAEX AEX20161128140513011/28/16 14:05:31  5-MIN KAEX 282005Z 19015G21KT 10SM FEW075 BKN090 23/21 A2948 500 87 1600 190/15G21 RMK AO2 LTG DSNT W T02280206
93915KAEX AEX20161128141013011/28/16 14:10:31  5-MIN KAEX 282010Z 20014G20KT 10SM BKN080 BKN095 23/21 A2948 500 87 1600 200/14G20 RMK AO2 LTG DSNT W T02280206
93915KAEX AEX20161128141513811/28/16 14:15:31  5-MIN KAEX 282015Z 20016G24KT 10SM FEW024 BKN080 BKN095 23/21 A2948 500 87 1600 200/16G24 RMK AO2 LTG DSNT NW T02280206
93915KAEX AEX20161128142016011/28/16 14:20:31  5-MIN KAEX 282020Z 20016G25KT 10SM -RA FEW017 SCT070 BKN085 23/21 A2948 500 87 1600 200/16G25 RMK AO2 LTG DSNT N AND NW RAB19 P0000 T02280206
93915KAEX AEX20161128142516011/28/16 14:25:31  5-MIN KAEX 282025Z 20016G25KT 10SM -RA FEW017 SCT034 BKN070 23/21 A2948 500 87 1600 200/16G25 RMK AO2 LTG DSNT N AND NW RAB19 P0000 T02280206
93915KAEX AEX20161128143015911/28/16 14:30:31  5-MIN KAEX 282030Z 20015G22KT 10SM FEW017 SCT035 BKN080 23/21 A2948 500 87 1600 200/15G22 RMK AO2 LTG DSNT N AND NW RAB19E28 P0000 T02280206
93915KAEX AEX20161128143515911/28/16 14:35:31  5-MIN KAEX 282035Z 20015G23KT 10SM SCT017 SCT070 BKN080 23/21 A2948 500 90 1600 190/15G23 RMK AO2 LTG DSNT N AND NW RAB19E28 P0000 T02280211
93915KAEX AEX20161128144015211/28/16 14:40:31  5-MIN KAEX 282040Z 20017G23KT 10SM FEW017 SCT070 SCT090 23/21 A2949 490 84 1600 200/17G23 RMK AO2 LTG DSNT N RAB19E28 P0000 T02330206
93915KAEX AEX20161128144515911/28/16 14:45:31  5-MIN KAEX 282045Z 21016G23KT 10SM FEW017 SCT070 SCT095 23/21 A2948 500 84 1600 210/16G23 RMK AO2 LTG DSNT N AND SE RAB19E28 P0000 T02330206
93915KAEX AEX20161128145016711/28/16 14:50:31  5-MIN KAEX 282050Z 21015G23KT 10SM FEW017 SCT090 23/21 A2949 490 84 1600 210/15G23 RMK AO2 LTG DSNT N-SE RAB19E28 SLP990 P0000 60059 T02330206 58030
93915KAEX AEX20161128145514911/28/16 14:55:31  5-MIN KAEX 282055Z 21015G22KT 9SM -RA SCT017 BKN090 23/21 A2949 490 84 1600 200/15G22 RMK AO2 LTG DSNT ALQDS RAB54 P0000 T02330206
93915KAEX AEX20161128150016811/28/16 15:00:31  5-MIN KAEX 282100Z 20016G26KT 9SM -RA SCT017 SCT095 23/21 A2949 490 87 1600 200/16G26 RMK AO2 PK WND 22026/2058 LTG DSNT NW-E RAB2054 P0000 T02280206
93915KAEX AEX20161128150516911/28/16 15:05:31  5-MIN KAEX 282105Z 21013G26KT 10SM FEW017 SCT095 23/21 A2948 500 87 1600 210/13G26 RMK AO2 PK WND 22026/2058 LTG DSNT ALQDS RAB2054E04 P0000 T02280206
93915KAEX AEX20161128151016911/28/16 15:10:31  5-MIN KAEX 282110Z 21016G22KT 10SM FEW017 SCT090 23/21 A2948 500 84 1600 210/16G22 RMK AO2 PK WND 22026/2058 LTG DSNT ALQDS RAB2054E04 P0000 T02330206
93915KAEX AEX20161128151517811/28/16 15:15:31  5-MIN KAEX 282115Z 22011G22KT 10SM FEW017 SCT022 23/21 A2948 500 84 1600 210/11G22 RMK AO2 PK WND 22026/2058 LTG DSNT N AND S AND SW RAB2054E04 P0000 T02330206
93915KAEX AEX20161128152017811/28/16 15:20:31  5-MIN KAEX 282120Z 22010G18KT 10SM SCT017 BKN027 23/21 A2949 490 87 1500 220/10G18 RMK AO2 PK WND 22026/2058 LTG DSNT N AND S AND SW RAB2054E04 P0000 T02280206
93915KAEX AEX20161128152516511/28/16 15:25:31  5-MIN KAEX 282125Z 21011KT 9SM SCT017 BKN035 23/21 A2950 490 90 1500 210/11 RMK AO2 PK WND 22026/2058 LTG DSNT N AND SW RAB2054E04 P0000 T02280211
93915KAEX AEX20161128153018511/28/16 15:30:31  5-MIN KAEX 282130Z 22007G17KT 8SM -RA SCT017 BKN041 BKN090 23/21 A2949 490 90 1500 220/07G17 RMK AO2 PK WND 22026/2058 LTG DSNT N AND SW RAB2054E04B30 P0000 T02280211
93915KAEX AEX20161128153518711/28/16 15:35:31  5-MIN KAEX 282135Z 22010G17KT 5SM RA BR SCT017 SCT029 BKN041 23/21 A2949 490 90 1500 220/10G17 RMK AO2 PK WND 22026/2058 LTG DSNT N AND NE RAB2054E04B30 P0001 T02280211
93915KAEX AEX20161128154019211/28/16 15:40:31  5-MIN KAEX 282140Z AUTO 21010G17KT 4SM RA BR SCT017 BKN025 OVC090 23/21 A2949 490 90 1500 210/10G17 RMK AO2 PK WND 22026/2058 LTG DSNT N AND NE RAB2054E04B30 P0002 T02280211
93915KAEX AEX20161128154519011/28/16 15:45:31  5-MIN KAEX 282145Z 21010G17KT 5SM -TSRA BR SCT017 BKN026 OVC090 23/21 A2949 490 90 1600 210/10G17 RMK AO2 PK WND 22026/2058 LTG DSNT NE RAB2054E04B30 TSB44 P0002 T02280211
93915KAEX AEX20161128155019411/28/16 15:50:31  5-MIN KAEX 282150Z 20011G19KT 8SM -TSRA BKN023 BKN050 OVC090 23/21 A2949 490 90 1500 200/11G19 RMK AO2 PK WND 22026/2058 LTG DSNT SE RAB2054E04B30 TSB44 SLP990 P0002 T02280211
93915KAEX AEX20161128155515911/28/16 15:55:31  5-MIN KAEX 282155Z 21009G19KT 10SM TS SCT023 BKN041 OVC060 22/21 A2950 480 90 1500 200/09G19 RMK AO2 LTG DSNT E AND SE RAE54 P0000 T02220206
93915KAEX AEX20161128160016511/28/16 16:00:31  5-MIN KAEX 282200Z 21012KT 10SM VCTS SCT023 BKN035 OVC065 22/21 A2949 490 90 1500 210/12 RMK AO2 LTG DSNT E AND SE RAE2154 TSE2159 P0000 T02220206
93915KAEX AEX20161128160516011/28/16 16:05:31  5-MIN KAEX 282205Z 22011KT 10SM SCT024 BKN035 OVC060 22/20 A2949 490 87 1500 220/11 RMK AO2 LTG DSNT E AND SE RAE2154 TSE2159 P0000 T02220200
93915KAEX AEX20161128161016011/28/16 16:10:31  5-MIN KAEX 282210Z 24008KT 10SM -RA BKN031 BKN042 OVC080 23/20 A2949 490 84 1500 240/08 RMK AO2 LTG DSNT E RAE2154B10 TSE2159 P0000 T02280200
93915KAEX AEX20161128161515511/28/16 16:15:31  5-MIN KAEX 282215Z 34016G21KT 10SM -RA FEW016 BKN031 OVC060 20/18 A2950 490 90 1200 330/16G21 RMK AO2 RAE2154B10 TSE2159 P0000 T02000183
93915KAEX AEX20161128162015311/28/16 16:20:31  5-MIN KAEX 282220Z 35011G21KT 7SM RA SCT016 BKN031 OVC044 19/17 A2949 490 90 1100 350/11G21 RMK AO2 RAE2154B10 TSE2159 P0000 T01890172
93915KAEX AEX20161128162514711/28/16 16:25:31  5-MIN KAEX 282225Z 34011KT 7SM -RA BKN016 BKN031 OVC046 17/16 A2950 480 90 900 340/11 RMK AO2 RAE2154B10 TSE2159 P0001 T01720156
93915KAEX AEX20161128163015911/28/16 16:30:31  5-MIN KAEX 282230Z 36013KT 10SM -RA BKN014 BKN020 OVC031 17/15 A2950 490 87 900 360/13 RMK AO2 WSHFT 2213 RAE2154B10 TSE2159 P0001 T01720150
93915KAEX AEX20161128163517511/28/16 16:35:31  5-MIN KAEX 282235Z 35015G23KT 7SM -RA BKN014 OVC020 17/15 A2952 460 90 800 350/15G23 RMK AO2 WSHFT 2213 LTG DSNT W RAE2154B10 TSE2159 PRESRR P0002 T01670150
93915KAEX AEX20161128164017811/28/16 16:40:31  5-MIN KAEX 282240Z 35013G23KT 5SM -RA BR BKN016 BKN020 OVC029 16/15 A2951 480 93 800 350/13G23 RMK AO2 WSHFT 2213 LTG DSNT W RAE2154B10 TSE2159 P0002 T01610150
93915KAEX AEX20161128164516211/28/16 16:45:31  5-MIN KAEX 282245Z 35005KT 8SM -RA BKN016 OVC020 16/14 A2951 470 90 800 350/05 RMK AO2 WSHFT 2213 LTG DSNT W RAE2154B10 TSE2159 P0002 T01610144
93915KAEX AEX20161128165016511/28/16 16:50:31  5-MIN KAEX 282250Z 04008KT 10SM BKN016 BKN021 OVC027 16/14 A2950 480 93 700 040/08 RMK AO2 WSHFT 2213 RAE2154B10E46 TSE2159 SLP994 P0002 T01560144
93915KAEX AEX20161128165512311/28/16 16:55:31  5-MIN KAEX 282255Z 35011KT 10SM BKN016 OVC023 16/14 A2952 470 90 700 350/11 RMK AO2 LTG DSNT N T01610144
93915KAEX AEX20161128170012311/28/16 17:00:31  5-MIN KAEX 282300Z 02010KT 10SM BKN016 OVC023 16/14 A2952 470 93 700 020/10 RMK AO2 LTG DSNT N T01560144
93915KAEX AEX20161128170512311/28/16 17:05:31  5-MIN KAEX 282305Z 36009KT 10SM BKN017 OVC026 16/14 A2951 470 86 700 360/09 RMK AO2 LTG DSNT N T01610139
93915KAEX AEX20161128171011211/28/16 17:10:31  5-MIN KAEX 282310Z 32007KT 10SM BKN017 OVC024 16/14 A2953 460 90 700 320/07 RMK AO2 T01610144
93915KAEX AEX20161128171513411/28/16 17:15:31  5-MIN KAEX 282315Z 36010G15KT 10SM -RA BKN017 OVC024 16/14 A2953 460 86 700 360/10G15 RMK AO2 RAB15 P0000 T01610139
93915KAEX AEX20161128172014211/28/16 17:20:31  5-MIN KAEX 282320Z 35010KT 10SM -RA BKN017 BKN024 OVC041 16/14 A2955 440 86 700 350/10 RMK AO2 RAB15 PRESRR P0000 T01610139
93915KAEX AEX20161128172513511/28/16 17:25:31  5-MIN KAEX 282325Z 33009KT 10SM -RA SCT017 BKN026 OVC034 16/13 A2954 450 86 700 330/09 RMK AO2 RAB15 P0000 T01560133
93915KAEX AEX20161128173013511/28/16 17:30:31  5-MIN KAEX 282330Z 36011KT 10SM -RA FEW017 BKN026 OVC036 16/13 A2954 440 86 700 360/11 RMK AO2 RAB15 P0001 T01560133
93915KAEX AEX20161128173514011/28/16 17:35:31  5-MIN KAEX 282335Z 33005KT 8SM RA FEW017 BKN026 OVC032 16/13 A2956 430 86 600 330/05 RMK AO2 RAB15 PRESRR P0002 T01560133
93915KAEX AEX20161128174013411/28/16 17:40:31  5-MIN KAEX 282340Z 36007KT 9SM -RA SCT026 BKN030 OVC060 15/13 A2954 440 90 600 350/07 RMK AO2 RAB15 P0002 T01500133
93915KAEX AEX20161128174514111/28/16 17:45:31  5-MIN KAEX 282345Z 03004KT 2 1/2SM +RA BR FEW013 BKN029 OVC060 15/13 A2955 430 90 600 030/04 RMK AO2 RAB15 P0012 T01500133
93915KAEX AEX20161128175012611/28/16 17:50:31  5-MIN KAEX 282350Z 06006KT 3SM RA BR SCT024 BKN031 OVC085 14/13 A2955 430 93 500 060/06 RMK AO2 RAB15 P0013
93915KAEX AEX20161128175513111/28/16 17:55:31  5-MIN KAEX 282355Z 10006KT 5SM -RA BR SCT025 BKN036 OVC095 14/13 A2954 440 90 500 100/06 RMK AO2 P0000 T01440128
93915KAEX AEX20161128180013111/28/16 18:00:31  5-MIN KAEX 290000Z 10003KT 10SM FEW027 BKN036 OVC095 14/13 A2955 440 93 500 100/03 RMK AO2 RAE00 P0000 T01440133
93915KAEX AEX20161128180513111/28/16 18:05:31  5-MIN KAEX 290005Z 04004KT 10SM SCT030 BKN046 OVC100 14/13 A2954 440 90 500 040/04 RMK AO2 RAE00 P0000 T01440128
93915KAEX AEX20161128181013111/28/16 18:10:31  5-MIN KAEX 290010Z 00000KT 10SM SCT032 BKN050 OVC110 14/13 A2955 440 93 500 000/00 RMK AO2 RAE00 P0000 T01440133
93915KAEX AEX20161128181513111/28/16 18:15:31  5-MIN KAEX 290015Z 13004KT 10SM BKN032 BKN044 OVC100 14/13 A2956 430 93 400 130/04 RMK AO2 RAE00 P0000 T01390128
93915KAEX AEX20161128182013811/28/16 18:20:31  5-MIN KAEX 290020Z 16004KT 10SM BKN032 BKN050 OVC100 14/13 A2957 420 93 500 160/04 RMK AO2 RAE00 PRESRR P0000 T01440133
93915KAEX AEX20161128182513711/28/16 18:25:31  5-MIN KAEX 290025Z 18006KT 9SM -RA BKN032 BKN041 OVC090 14/13 A2957 420 93 500 170/06 RMK AO2 RAE00B24 P0000 T01440133
93915KAEX AEX20161128183014711/28/16 18:30:31  5-MIN KAEX 290030Z 00000KT 8SM RA BKN032 BKN055 OVC085 14/13 A2956 430 93 500 000/00 RMK AO2 LTG DSNT E RAE00B24 P0001 T01440133
93915KAEX AEX20161128183514811/28/16 18:35:31  5-MIN KAEX 290035Z 00000KT 8SM -RA SCT032 BKN055 OVC085 14/13 A2956 420 93 500 000/00 RMK AO2 LTG DSNT E RAE00B24 P0001 T01440133
93915KAEX AEX20161128184014911/28/16 18:40:31  5-MIN KAEX 290040Z 00000KT 10SM -RA SCT032 SCT050 OVC090 14/14 A2956 420 96 500 000/00 RMK AO2 LTG DSNT E RAE00B24 P0001 T01440139
93915KAEX AEX20161128184513711/28/16 18:45:31  5-MIN KAEX 290045Z 11004KT 10SM FEW033 SCT050 OVC090 14/14 A2957 420 96 500 100/04 RMK AO2 RAE00B24E42 P0001 T01440139
93915KAEX AEX20161128185014411/28/16 18:50:31  5-MIN KAEX 290050Z 00000KT 10SM FEW033 FEW050 OVC095 14/13 A2957 410 93 500 000/00 RMK AO2 RAE00B24E42 SLP018 P0001 T01440133
93915KAEX AEX20161128185511211/28/16 18:55:31  5-MIN KAEX 290055Z 15007KT 10SM FEW055 OVC095 14/13 A2958 410 93 500 150/07 RMK AO2 T01440133
93915KAEX AEX20161128190011911/28/16 19:00:31  5-MIN KAEX 290100Z 13003KT 10SM FEW037 SCT050 OVC095 14/13 A2958 410 96 400 130/03 RMK AO2 T01390133
93915KAEX AEX20161128190511911/28/16 19:05:31  5-MIN KAEX 290105Z 14007KT 10SM FEW036 BKN050 OVC100 14/13 A2958 410 96 400 140/07 RMK AO2 T01390133
93915KAEX AEX20161128191011911/28/16 19:10:31  5-MIN KAEX 290110Z 14004KT 10SM SCT036 BKN046 OVC100 14/13 A2958 410 96 400 140/04 RMK AO2 T01390133
93915KAEX AEX20161128191511911/28/16 19:15:31  5-MIN KAEX 290115Z 13003KT 10SM BKN036 BKN042 OVC100 14/13 A2958 410 96 400 130/03 RMK AO2 T01390133
93915KAEX AEX20161128192011911/28/16 19:20:31  5-MIN KAEX 290120Z 11003KT 10SM SCT036 BKN042 OVC095 14/13 A2958 410 93 500 110/03 RMK AO2 T01440133
93915KAEX AEX20161128192511211/28/16 19:25:31  5-MIN KAEX 290125Z 14003KT 10SM BKN038 OVC095 14/13 A2958 410 93 500 140/03 RMK AO2 T01440133
93915KAEX AEX20161128193010511/28/16 19:30:31  5-MIN KAEX 290130Z 15005KT 10SM OVC036 14/13 A2958 400 93 500 150/05 RMK AO2 T01440133
93915KAEX AEX20161128193511211/28/16 19:35:31  5-MIN KAEX 290135Z 14004KT 10SM BKN036 OVC042 14/13 A2958 410 93 500 140/04 RMK AO2 T01440133
93915KAEX AEX20161128194011911/28/16 19:40:31  5-MIN KAEX 290140Z 14005KT 10SM BKN034 BKN042 OVC100 14/13 A2958 410 93 500 130/05 RMK AO2 T01440133
93915KAEX AEX20161128194511211/28/16 19:45:31  5-MIN KAEX 290145Z 15004KT 10SM BKN034 OVC100 14/13 A2958 400 93 500 150/04 RMK AO2 T01440133
93915KAEX AEX20161128195011911/28/16 19:50:31  5-MIN KAEX 290150Z 17003KT 10SM BKN034 OVC100 14/13 A2959 400 96 400 160/03 RMK AO2 SLP022 T01390133
93915KAEX AEX20161128195511211/28/16 19:55:31  5-MIN KAEX 290155Z 00000KT 10SM SCT034 OVC100 14/13 A2959 400 93 500 000/00 RMK AO2 T01440133
93915KAEX AEX20161128200011211/28/16 20:00:31  5-MIN KAEX 290200Z 00000KT 10SM SCT034 OVC100 14/13 A2959 390 93 500 000/00 RMK AO2 T01440133
93915KAEX AEX20161128200511211/28/16 20:05:31  5-MIN KAEX 290205Z 00000KT 10SM SCT034 OVC100 14/13 A2959 400 93 500 000/00 RMK AO2 T01440133
93915KAEX AEX20161128201011211/28/16 20:10:31  5-MIN KAEX 290210Z 00000KT 10SM SCT034 BKN100 14/13 A2960 390 93 500 000/00 RMK AO2 T01440133
93915KAEX AEX20161128201511211/28/16 20:15:31  5-MIN KAEX 290215Z 16003KT 10SM SCT037 BKN110 14/13 A2960 390 93 400 150/03 RMK AO2 T01390128
93915KAEX AEX20161128202011211/28/16 20:20:31  5-MIN KAEX 290220Z 00000KT 10SM BKN039 OVC100 14/13 A2960 390 93 500 000/00 RMK AO2 T01440133
93915KAEX AEX20161128202511211/28/16 20:25:31  5-MIN KAEX 290225Z 00000KT 10SM BKN039 OVC100 14/13 A2960 390 93 500 000/00 RMK AO2 T01440133
93915KAEX AEX20161128203011211/28/16 20:30:31  5-MIN KAEX 290230Z 14003KT 10SM BKN037 OVC100 14/13 A2960 390 93 500 130/03 RMK AO2 T01440133
93915KAEX AEX20161128203511911/28/16 20:35:31  5-MIN KAEX 290235Z 15003KT 10SM BKN037 BKN044 OVC100 14/13 A2960 390 96 400 150/03 RMK AO2 T01390133
93915KAEX AEX20161128204011211/28/16 20:40:31  5-MIN KAEX 290240Z 16004KT 10SM BKN037 OVC100 14/13 A2961 380 96 400 150/04 RMK AO2 T01390133
93915KAEX AEX20161128204511211/28/16 20:45:31  5-MIN KAEX 290245Z 15004KT 10SM BKN039 OVC110 14/13 A2960 390 93 400 150/04 RMK AO2 T01440133
93915KAEX AEX20161128205013111/28/16 20:50:31  5-MIN KAEX 290250Z 00000KT 10SM BKN039 BKN110 14/13 A2960 390 96 400 000/00 RMK AO2 SLP028 60001 T01390133 53018
93915KAEX AEX20161128205511211/28/16 20:55:31  5-MIN KAEX 290255Z 15004KT 10SM BKN039 BKN100 14/13 A2961 380 96 400 150/04 RMK AO2 T01390133
93915KAEX AEX20161128210011211/28/16 21:00:31  5-MIN KAEX 290300Z 15004KT 10SM BKN041 BKN100 14/13 A2961 380 96 400 140/04 RMK AO2 T01390133
93915KAEX AEX20161128210510511/28/16 21:05:31  5-MIN KAEX 290305Z 15004KT 10SM BKN041 14/13 A2961 380 96 400 140/04 RMK AO2 T01390133
93915KAEX AEX20161128211010611/28/16 21:10:31  5-MIN KAEX 290310Z 14004KT 10SM BKN041 13/13 A2961 380 100 300 140/04 RMK AO2 T01330133
93915KAEX AEX20161128211510611/28/16 21:15:31  5-MIN KAEX 290315Z 13005KT 10SM BKN041 13/13 A2961 380 100 300 130/05 RMK AO2 T01330133
93915KAEX AEX20161128212010511/28/16 21:20:31  5-MIN KAEX 290320Z 13004KT 10SM SCT041 13/13 A2961 380 96 300 130/04 RMK AO2 T01330128
93915KAEX AEX20161128212510611/28/16 21:25:31  5-MIN KAEX 290325Z 14004KT 10SM SCT041 13/13 A2961 380 100 300 140/04 RMK AO2 T01330133
93915KAEX AEX20161128213010611/28/16 21:30:31  5-MIN KAEX 290330Z 15003KT 10SM SCT041 13/13 A2961 380 100 300 150/03 RMK AO2 T01330133
93915KAEX AEX20161128213510611/28/16 21:35:31  5-MIN KAEX 290335Z 13003KT 10SM FEW043 13/13 A2961 380 100 300 130/03 RMK AO2 T01330133
93915KAEX AEX20161128214010611/28/16 21:40:31  5-MIN KAEX 290340Z 00000KT 10SM FEW045 13/13 A2961 380 100 300 000/00 RMK AO2 T01330133
93915KAEX AEX20161128214510511/28/16 21:45:31  5-MIN KAEX 290345Z 13003KT 10SM SCT047 14/13 A2962 370 96 400 130/03 RMK AO2 T01390133
93915KAEX AEX20161128215011211/28/16 21:50:31  5-MIN KAEX 290350Z 00000KT 10SM BKN047 14/13 A2962 370 96 400 000/00 RMK AO2 SLP033 T01390133
93915KAEX AEX20161128215511211/28/16 21:55:31  5-MIN KAEX 290355Z 00000KT 10SM BKN049 BKN065 14/13 A2962 370 96 400 000/00 RMK AO2 T01390133
93915KAEX AEX20161128220010511/28/16 22:00:31  5-MIN KAEX 290400Z 00000KT 10SM SCT049 14/13 A2962 370 96 400 000/00 RMK AO2 T01390133
93915KAEX AEX20161128220510511/28/16 22:05:31  5-MIN KAEX 290405Z 00000KT 10SM BKN049 14/13 A2962 370 96 400 000/00 RMK AO2 T01390133
93915KAEX AEX20161128221011211/28/16 22:10:31  5-MIN KAEX 290410Z 00000KT 10SM BKN049 BKN060 14/13 A2962 370 96 400 000/00 RMK AO2 T01390133
93915KAEX AEX20161128221511311/28/16 22:15:31  5-MIN KAEX 290415Z 00000KT 10SM SCT049 BKN060 13/13 A2962 370 100 300 000/00 RMK AO2 T01330133
93915KAEX AEX20161128222011211/28/16 22:20:31  5-MIN KAEX 290420Z 00000KT 9SM FEW049 SCT060 13/13 A2963 360 100 300 000/00 RMK AO2 T01330133
93915KAEX AEX20161128222511211/28/16 22:25:31  5-MIN KAEX 290425Z 00000KT 8SM FEW050 SCT060 13/13 A2963 360 100 300 000/00 RMK AO2 T01330133
93915KAEX AEX20161128223010511/28/16 22:30:31  5-MIN KAEX 290430Z 00000KT 8SM SCT050 13/13 A2963 360 100 300 000/00 RMK AO2 T01330133
93915KAEX AEX20161128223510411/28/16 22:35:31  5-MIN KAEX 290435Z 00000KT 8SM SCT055 13/13 A2964 360 96 300 000/00 RMK AO2 T01330128
93915KAEX AEX20161128224010411/28/16 22:40:31  5-MIN KAEX 290440Z 00000KT 8SM BKN055 13/13 A2964 350 96 300 000/00 RMK AO2 T01330128
93915KAEX AEX20161128224510511/28/16 22:45:31  5-MIN KAEX 290445Z 00000KT 9SM BKN055 13/13 A2964 350 100 300 000/00 RMK AO2 T01330133
93915KAEX AEX20161128225011211/28/16 22:50:31  5-MIN KAEX 290450Z 00000KT 10SM BKN055 13/13 A2964 350 96 300 000/00 RMK AO2 SLP040 T01330128
93915KAEX AEX20161128225510611/28/16 22:55:31  5-MIN KAEX 290455Z 00000KT 10SM BKN055 13/13 A2964 350 100 300 000/00 RMK AO2 T01330133
93915KAEX AEX20161128230010411/28/16 23:00:31  5-MIN KAEX 290500Z 00000KT 9SM BKN055 13/13 A2964 350 96 300 000/00 RMK AO2 T01330128
93915KAEX AEX20161128230510411/28/16 23:05:31  5-MIN KAEX 290505Z 00000KT 7SM SCT050 13/13 A2964 350 96 300 000/00 RMK AO2 T01330128
93915KAEX AEX20161128231010811/28/16 23:10:31  5-MIN KAEX 290510Z 00000KT 6SM BR FEW050 13/13 A2964 350 100 200 000/00 RMK AO2 T01280128
93915KAEX AEX20161128231510811/28/16 23:15:31  5-MIN KAEX 290515Z 00000KT 6SM BR FEW050 13/13 A2964 350 100 200 000/00 RMK AO2 T01280128
93915KAEX AEX20161128232010811/28/16 23:20:31  5-MIN KAEX 290520Z 00000KT 6SM BR FEW055 13/13 A2964 350 100 200 000/00 RMK AO2 T01280128
93915KAEX AEX20161128232510511/28/16 23:25:31  5-MIN KAEX 290525Z 00000KT 6SM BR CLR 12/12 A2964 350 100 100 000/00 RMK AO2 T01220122
93915KAEX AEX20161128233010511/28/16 23:30:31  5-MIN KAEX 290530Z 00000KT 6SM BR CLR 12/12 A2964 350 100 100 000/00 RMK AO2 T01220122
93915KAEX AEX20161128233510411/28/16 23:35:31  5-MIN KAEX 290535Z 00000KT 6SM BR CLR 13/12 A2964 350 96 200 000/00 RMK AO2 T01280122
93915KAEX AEX20161128234011211/28/16 23:40:31  5-MIN KAEX 290540Z 00000KT 1 3/4SM BR FEW002 12/12 A2965 350 100 100 000/00 RMK AO2 T01170117
93915KAEX AEX20161128234510911/28/16 23:45:31  5-MIN KAEX 290545Z 00000KT 3/4SM BR VV002 12/12 A2965 350 100 100 000/00 RMK AO2 T01170117
93915KAEX AEX20161128235015011/28/16 23:50:31  5-MIN KAEX 290550Z 00000KT 1/2SM FG VV002 12/12 A2965 340 100 100 000/00 RMK AO2 SLP043 60001 T01170117 10144 20117 402330100 51021
93915KAEX AEX20161128235510911/28/16 23:55:31  5-MIN KAEX 290555Z 00000KT 1/2SM FG VV002 12/12 A2965 340 100 100 000/00 RMK AO2 T01170117
93915KAEX AEX20161129000010811/29/16 00:00:31  5-MIN KAEX 290600Z 00000KT 3/4SM BR VV002 12/12 A2965 340 96 100 000/00 RMK AO2 T01220117
93915KAEX AEX20161129000511211/29/16 00:05:31  5-MIN KAEX 290605Z 00000KT 1 1/2SM BR SCT002 12/12 A2965 340 100 100 000/00 RMK AO2 T01220122
93915KAEX AEX20161129001010411/29/16 00:10:31  5-MIN KAEX 290610Z 00000KT 7SM FEW002 12/12 A2965 340 96 100 000/00 RMK AO2 T01220117
93915KAEX AEX20161129001510511/29/16 00:15:31  5-MIN KAEX 290615Z 00000KT 8SM FEW002 12/12 A2965 340 100 100 000/00 RMK AO2 T01220122
93915KAEX AEX20161129002010511/29/16 00:20:31  5-MIN KAEX 290620Z 00000KT 8SM FEW002 12/12 A2965 340 100 100 000/00 RMK AO2 T01220122
93915KAEX AEX20161129002510511/29/16 00:25:31  5-MIN KAEX 290625Z 00000KT 7SM FEW002 12/12 A2966 340 100 100 000/00 RMK AO2 T01170117
93915KAEX AEX20161129003010511/29/16 00:30:31  5-MIN KAEX 290630Z 00000KT 6SM BR CLR 12/12 A2966 340 100 100 000/00 RMK AO2 T01170117
93915KAEX AEX20161129003510411/29/16 00:35:31  5-MIN KAEX 290635Z 00000KT 6SM BR CLR 12/11 A2966 340 96 100 000/00 RMK AO2 T01170111
93915KAEX AEX20161129004010711/29/16 00:40:31  5-MIN KAEX 290640Z 00000KT 1 3/4SM BR CLR 11/11 A2965 340 100 0 000/00 RMK AO2 T01110111
93915KAEX AEX20161129004511211/29/16 00:45:31  5-MIN KAEX 290645Z AUTO 00000KT 3/4SM BR VV002 11/11 A2965 340 100 0 000/00 RMK AO2 T01110111
93915KAEX AEX20161129005009411/29/16 00:50:31  5-MIN KAEX 290650Z 00000KT 8SM FEW002 12/11 A2965 340 96 100 000/00 RMK AO2
93915KAEX AEX20161129005510811/29/16 00:55:31  5-MIN KAEX 290655Z 00000KT 1/2SM FG VV002 12/11 A2966 340 96 100 000/00 RMK AO2 T01170111
93915KAEX AEX20161129010010811/29/16 01:00:31  5-MIN KAEX 290700Z 00000KT 1/2SM FG VV002 12/11 A2966 330 96 100 000/00 RMK AO2 T01170111
93915KAEX AEX20161129010510711/29/16 01:05:31  5-MIN KAEX 290705Z 00000KT 1/2SM FG VV002 11/11 A2966 330 100 0 000/00 RMK AO2 T01110111
93915KAEX AEX20161129011010711/29/16 01:10:31  5-MIN KAEX 290710Z 00000KT 1/2SM FG VV002 11/11 A2966 340 100 0 000/00 RMK AO2 T01110111
93915KAEX AEX20161129011510711/29/16 01:15:31  5-MIN KAEX 290715Z 00000KT 1/2SM FG VV002 11/11 A2965 340 100 0 000/00 RMK AO2 T01110111
93915KAEX AEX20161129012010511/29/16 01:20:31  5-MIN KAEX 290720Z 00000KT 1SM BR VV003 11/11 A2966 340 100 0 000/00 RMK AO2 T01110111
93915KAEX AEX20161129012511011/29/16 01:25:31  5-MIN KAEX 290725Z 00000KT 1 1/2SM BR FEW003 11/11 A2965 340 100 0 000/00 RMK AO2 T01110111
93915KAEX AEX20161129013010311/29/16 01:30:31  5-MIN KAEX 290730Z 00000KT 1SM BR CLR 11/11 A2965 340 100 0 000/00 RMK AO2 T01060106
93915KAEX AEX20161129013510511/29/16 01:35:31  5-MIN KAEX 290735Z 00000KT 3/4SM BR CLR 11/11 A2966 340 100 0 000/00 RMK AO2 T01060106
93915KAEX AEX20161129014010511/29/16 01:40:31  5-MIN KAEX 290740Z 00000KT 3/4SM BR CLR 11/11 A2965 340 100 0 000/00 RMK AO2 T01060106
93915KAEX AEX20161129014511311/29/16 01:45:31  5-MIN KAEX 290745Z 00000KT 1SM BR CLR 11/11 A2965 340 100 0 000/00 RMK AO2 VIS 1/4V3 T01060106
93915KAEX AEX20161129015012411/29/16 01:50:31  5-MIN KAEX 290750Z 11004KT 1 1/4SM BR CLR 11/11 A2965 340 100 0 110/04 RMK AO2 VIS 1/2V3 SLP043 T01060106
93915KAEX AEX20161129015510811/29/16 01:55:31  5-MIN KAEX 290755Z 11005KT 3/4SM BR CLR 10/10 A2964 350 100 -100 110/05 RMK AO2 T01000100
93915KAEX AEX20161129020010511/29/16 02:00:31  5-MIN KAEX 290800Z 11004KT 3/4SM BR CLR 11/11 A2964 350 100 0 100/04 RMK AO2 T01060106
93915KAEX AEX20161129020510711/29/16 02:05:31  5-MIN KAEX 290805Z 11005KT 2 1/2SM BR CLR 11/11 A2964 350 100 0 110/05 RMK AO2 T01110111
93915KAEX AEX20161129021010311/29/16 02:10:31  5-MIN KAEX 290810Z 11004KT 4SM BR CLR 11/11 A2964 350 100 0 110/04 RMK AO2 T01110111
93915KAEX AEX20161129021510311/29/16 02:15:31  5-MIN KAEX 290815Z 11004KT 3SM BR CLR 11/11 A2964 350 100 0 110/04 RMK AO2 T01060106
93915KAEX AEX20161129022010711/29/16 02:20:31  5-MIN KAEX 290820Z 00000KT 1 1/2SM BR CLR 11/11 A2964 360 100 0 000/00 RMK AO2 T01060106
93915KAEX AEX20161129022510811/29/16 02:25:31  5-MIN KAEX 290825Z 00000KT 3/4SM BR CLR 10/10 A2964 350 100 -100 000/00 RMK AO2 T01000100
93915KAEX AEX20161129023010811/29/16 02:30:31  5-MIN KAEX 290830Z 12003KT 1/2SM FG CLR 10/10 A2964 350 100 -100 120/03 RMK AO2 T01000100
93915KAEX AEX20161129023510811/29/16 02:35:31  5-MIN KAEX 290835Z 00000KT 1/2SM FG CLR 10/10 A2964 350 100 -100 000/00 RMK AO2 T01000100
93915KAEX AEX20161129024010811/29/16 02:40:31  5-MIN KAEX 290840Z 00000KT 1/2SM FG CLR 10/10 A2964 350 100 -100 000/00 RMK AO2 T01000100
93915KAEX AEX20161129024510811/29/16 02:45:31  5-MIN KAEX 290845Z 13003KT 1/2SM FG CLR 10/10 A2964 350 100 -100 130/03 RMK AO2 T01000100
93915KAEX AEX20161129025012111/29/16 02:50:31  5-MIN KAEX 290850Z 15004KT 1/2SM FG CLR 10/10 A2964 350 100 -100 140/04 RMK AO2 SLP040 T01000100 51015
93915KAEX AEX20161129025510811/29/16 02:55:31  5-MIN KAEX 290855Z 14005KT 1/2SM FG CLR 10/10 A2964 360 100 -100 140/05 RMK AO2 T01000100
93915KAEX AEX20161129030010811/29/16 03:00:31  5-MIN KAEX 290900Z 14005KT 1/2SM FG CLR 09/09 A2963 360 100 -100 130/05 RMK AO2 T00940094
93915KAEX AEX20161129030510811/29/16 03:05:31  5-MIN KAEX 290905Z 13005KT 3/4SM BR CLR 10/10 A2963 360 100 -100 130/05 RMK AO2 T01000100
93915KAEX AEX20161129031012011/29/16 03:10:31  5-MIN KAEX 290910Z 12005KT 1 1/4SM BR CLR 10/10 A2963 360 100 -100 120/05 RMK AO2 VIS 1/2V3 T01000100
93915KAEX AEX20161129031510711/29/16 03:15:31  5-MIN KAEX 290915Z 12005KT 1 1/2SM BR CLR 11/11 A2962 370 100 0 120/05 RMK AO2 T01060106
93915KAEX AEX20161129032011011/29/16 03:20:31  5-MIN KAEX 290920Z 12005KT 1 1/2SM BR CLR 10/10 A2962 370 100 -100 120/05 RMK AO2 T01000100
93915KAEX AEX20161129032511011/29/16 03:25:31  5-MIN KAEX 290925Z 12007KT 1 1/4SM BR CLR 10/10 A2962 370 100 -100 120/07 RMK AO2 T01000100
93915KAEX AEX20161129033010311/29/16 03:30:31  5-MIN KAEX 290930Z 13004KT 1SM BR CLR 10/10 A2962 370 100 0 130/04 RMK AO2 T01000100
93915KAEX AEX20161129033511011/29/16 03:35:31  5-MIN KAEX 290935Z 13005KT 1 1/2SM BR CLR 10/10 A2962 370 100 -100 130/05 RMK AO2 T01000100
93915KAEX AEX20161129034010611/29/16 03:40:31  5-MIN KAEX 290940Z 13007KT 5SM BR CLR 10/10 A2963 360 100 -100 130/07 RMK AO2 T01000100
93915KAEX AEX20161129034510011/29/16 03:45:31  5-MIN KAEX 290945Z 12005KT 7SM CLR 11/11 A2963 360 100 0 120/05 RMK AO2 T01060106
93915KAEX AEX20161129035010711/29/16 03:50:31  5-MIN KAEX 290950Z 13006KT 9SM CLR 11/11 A2963 360 100 0 130/06 RMK AO2 SLP037 T01060106
93915KAEX AEX20161129035510011/29/16 03:55:31  5-MIN KAEX 290955Z 13006KT 9SM CLR 11/11 A2963 370 100 0 130/06 RMK AO2 T01060106
93915KAEX AEX20161129040010311/29/16 04:00:31  5-MIN KAEX 291000Z 13005KT 9SM FEW003 11/11 A2963 370 100 0 130/05 RMK AO2 T01060106
93915KAEX AEX20161129040510311/29/16 04:05:31  5-MIN KAEX 291005Z 13005KT 9SM SCT003 11/11 A2963 360 100 0 130/05 RMK AO2 T01060106
93915KAEX AEX20161129041010311/29/16 04:10:31  5-MIN KAEX 291010Z 13006KT 9SM BKN003 11/11 A2963 360 100 0 130/06 RMK AO2 T01060106
93915KAEX AEX20161129041510511/29/16 04:15:31  5-MIN KAEX 291015Z 13005KT 9SM BKN003 12/12 A2963 360 100 100 130/05 RMK AO2 T01170117
93915KAEX AEX20161129042010811/29/16 04:20:31  5-MIN KAEX 291020Z 13007KT 3SM BR BKN003 12/12 A2963 360 100 100 130/07 RMK AO2 T01170117
93915KAEX AEX20161129042511011/29/16 04:25:31  5-MIN KAEX 291025Z 13006KT 3/4SM BR OVC002 12/12 A2963 360 100 200 130/06 RMK AO2 T01220122
93915KAEX AEX20161129043010911/29/16 04:30:31  5-MIN KAEX 291030Z 13005KT 1/4SM FG VV002 12/12 A2962 370 100 200 120/05 RMK AO2 T01220122
93915KAEX AEX20161129043510911/29/16 04:35:31  5-MIN KAEX 291035Z 13005KT 1/4SM FG VV002 13/13 A2963 370 100 200 130/05 RMK AO2 T01280128
93915KAEX AEX20161129044010911/29/16 04:40:31  5-MIN KAEX 291040Z 13005KT 1/4SM FG VV002 13/13 A2963 370 100 200 120/05 RMK AO2 T01280128
93915KAEX AEX20161129044510911/29/16 04:45:31  5-MIN KAEX 291045Z 13004KT 1/4SM FG VV002 13/13 A2962 370 100 200 130/04 RMK AO2 T01280128
93915KAEX AEX20161129045011611/29/16 04:50:31  5-MIN KAEX 291050Z 14003KT 1/4SM FG VV002 13/13 A2963 370 100 200 140/03 RMK AO2 SLP035 T01280128
93915KAEX AEX20161129045510911/29/16 04:55:31  5-MIN KAEX 291055Z 14005KT 1/4SM FG VV002 13/13 A2962 370 100 300 140/05 RMK AO2 T01330133
93915KAEX AEX20161129050010911/29/16 05:00:31  5-MIN KAEX 291100Z 14004KT 1/4SM FG VV002 13/13 A2963 370 100 300 130/04 RMK AO2 T01330133
93915KAEX AEX20161129050510911/29/16 05:05:31  5-MIN KAEX 291105Z 12003KT 1/4SM FG VV002 13/13 A2963 360 100 300 120/03 RMK AO2 T01330133
93915KAEX AEX20161129051011011/29/16 05:10:31  5-MIN KAEX 291110Z 12004KT M1/4SM FG VV002 13/13 A2963 360 100 300 120/04 RMK AO2 T01330133
93915KAEX AEX20161129051510911/29/16 05:15:31  5-MIN KAEX 291115Z 13004KT 1/4SM FG VV002 13/13 A2963 360 100 300 130/04 RMK AO2 T01330133
93915KAEX AEX20161129052010911/29/16 05:20:31  5-MIN KAEX 291120Z 14003KT 1/4SM FG VV002 13/13 A2963 360 100 300 140/03 RMK AO2 T01330133
93915KAEX AEX20161129052510911/29/16 05:25:31  5-MIN KAEX 291125Z 14004KT 1/4SM FG VV002 14/14 A2963 360 100 400 140/04 RMK AO2 T01390139
93915KAEX AEX20161129053010911/29/16 05:30:31  5-MIN KAEX 291130Z 14004KT 1/4SM FG VV002 14/14 A2963 360 100 400 140/04 RMK AO2 T01390139
93915KAEX AEX20161129053510911/29/16 05:35:31  5-MIN KAEX 291135Z 14004KT 1/4SM FG VV002 14/14 A2963 360 100 400 130/04 RMK AO2 T01390139
93915KAEX AEX20161129054010911/29/16 05:40:31  5-MIN KAEX 291140Z 14004KT 1/4SM FG VV002 14/14 A2963 360 100 400 140/04 RMK AO2 T01390139
93915KAEX AEX20161129054510911/29/16 05:45:31  5-MIN KAEX 291145Z 14003KT 1/4SM FG VV002 14/14 A2963 360 100 400 140/03 RMK AO2 T01390139
93915KAEX AEX20161129055014011/29/16 05:50:31  5-MIN KAEX 291150Z 13004KT 1/4SM FG VV002 14/14 A2963 360 100 400 130/04 RMK AO2 SLP038 70097 T01390139 10139 20094 58006
93915KAEX AEX20161129055510911/29/16 05:55:31  5-MIN KAEX 291155Z 13004KT 1/4SM FG VV002 14/14 A2963 360 100 400 120/04 RMK AO2 T01390139
93915KAEX AEX20161129060010911/29/16 06:00:31  5-MIN KAEX 291200Z 14003KT 1/4SM FG VV002 14/14 A2963 360 100 300 140/03 RMK AO2 T01390139
93915KAEX AEX20161129060510911/29/16 06:05:31  5-MIN KAEX 291205Z 14003KT 1/4SM FG VV002 14/14 A2964 360 100 300 140/03 RMK AO2 T01390139
93915KAEX AEX20161129061010911/29/16 06:10:31  5-MIN KAEX 291210Z 14003KT 1/4SM FG VV002 14/14 A2964 350 100 300 140/03 RMK AO2 T01390139
93915KAEX AEX20161129061510911/29/16 06:15:31  5-MIN KAEX 291215Z 13004KT 1/4SM FG VV002 14/14 A2964 350 100 300 130/04 RMK AO2 T01390139
93915KAEX AEX20161129062010911/29/16 06:20:31  5-MIN KAEX 291220Z 13004KT 1/4SM FG VV002 14/14 A2964 350 100 300 130/04 RMK AO2 T01390139
93915KAEX AEX20161129062510911/29/16 06:25:31  5-MIN KAEX 291225Z 13004KT 1/4SM FG VV002 14/14 A2964 350 100 400 130/04 RMK AO2 T01440144
93915KAEX AEX20161129063010911/29/16 06:30:31  5-MIN KAEX 291230Z 13004KT 1/4SM FG VV002 14/14 A2964 350 100 400 130/04 RMK AO2 T01440144
93915KAEX AEX20161129063510911/29/16 06:35:31  5-MIN KAEX 291235Z 13004KT 1/4SM FG VV002 14/14 A2964 350 100 400 130/04 RMK AO2 T01440144
93915KAEX AEX20161129064010911/29/16 06:40:31  5-MIN KAEX 291240Z 12005KT 1/4SM FG VV002 14/14 A2964 350 100 400 120/05 RMK AO2 T01440144
93915KAEX AEX20161129064510911/29/16 06:45:31  5-MIN KAEX 291245Z 11003KT 1/4SM FG VV002 15/15 A2964 350 100 500 110/03 RMK AO2 T01500150
93915KAEX AEX20161129065011611/29/16 06:50:31  5-MIN KAEX 291250Z 00000KT 1/4SM FG VV002 15/15 A2964 350 100 500 000/00 RMK AO2 SLP042 T01500150
93915KAEX AEX20161129065511011/29/16 06:55:31  5-MIN KAEX 291255Z 00000KT M1/4SM FG VV002 15/15 A2964 350 100 500 000/00 RMK AO2 T01500150
93915KAEX AEX20161129070011011/29/16 07:00:31  5-MIN KAEX 291300Z 00000KT M1/4SM FG VV002 15/15 A2965 340 100 500 000/00 RMK AO2 T01500150
93915KAEX AEX20161129070511011/29/16 07:05:31  5-MIN KAEX 291305Z 11003KT M1/4SM FG VV002 15/15 A2965 340 100 500 100/03 RMK AO2 T01500150
93915KAEX AEX20161129071011011/29/16 07:10:31  5-MIN KAEX 291310Z 11004KT M1/4SM FG VV002 15/15 A2965 340 100 500 110/04 RMK AO2 T01500150
93915KAEX AEX20161129071511011/29/16 07:15:31  5-MIN KAEX 291315Z 09003KT M1/4SM FG VV002 16/16 A2965 340 100 500 090/03 RMK AO2 T01560156
93915KAEX AEX20161129072011011/29/16 07:20:31  5-MIN KAEX 291320Z 09003KT M1/4SM FG VV002 16/16 A2965 340 100 500 090/03 RMK AO2 T01560156
93915KAEX AEX20161129072511011/29/16 07:25:31  5-MIN KAEX 291325Z 12004KT M1/4SM FG VV002 16/16 A2965 340 100 500 110/04 RMK AO2 T01560156
93915KAEX AEX20161129073011011/29/16 07:30:31  5-MIN KAEX 291330Z 12004KT M1/4SM FG VV002 16/16 A2965 340 100 500 120/04 RMK AO2 T01560156
93915KAEX AEX20161129073511011/29/16 07:35:31  5-MIN KAEX 291335Z 10003KT M1/4SM FG VV002 16/16 A2965 350 100 500 100/03 RMK AO2 T01560156
93915KAEX AEX20161129074011011/29/16 07:40:31  5-MIN KAEX 291340Z 09003KT M1/4SM FG VV002 16/16 A2965 340 100 600 090/03 RMK AO2 T01610161
93915KAEX AEX20161129074511011/29/16 07:45:31  5-MIN KAEX 291345Z 11005KT M1/4SM FG VV002 16/16 A2965 340 100 600 110/05 RMK AO2 T01610161
93915KAEX AEX20161129075011711/29/16 07:50:31  5-MIN KAEX 291350Z 12004KT M1/4SM FG VV002 16/16 A2966 330 100 600 120/04 RMK AO2 SLP047 T01610161
93915KAEX AEX20161129075511011/29/16 07:55:31  5-MIN KAEX 291355Z 14003KT M1/4SM FG VV002 16/16 A2966 330 100 600 140/03 RMK AO2 T01610161
93915KAEX AEX20161129080011011/29/16 08:00:31  5-MIN KAEX 291400Z 15005KT M1/4SM FG VV002 17/17 A2967 320 100 600 150/05 RMK AO2 T01670167
93915KAEX AEX20161129080511011/29/16 08:05:31  5-MIN KAEX 291405Z 14004KT M1/4SM FG VV002 17/17 A2967 320 100 600 130/04 RMK AO2 T01670167
93915KAEX AEX20161129081011011/29/16 08:10:31  5-MIN KAEX 291410Z 12004KT M1/4SM FG VV002 17/17 A2967 320 100 600 120/04 RMK AO2 T01670167
93915KAEX AEX20161129081510911/29/16 08:15:31  5-MIN KAEX 291415Z 13004KT 1/4SM FG VV002 17/17 A2967 330 100 600 130/04 RMK AO2 T01670167
93915KAEX AEX20161129082010911/29/16 08:20:31  5-MIN KAEX 291420Z 13006KT 1/4SM FG VV002 17/17 A2967 320 100 600 130/06 RMK AO2 T01670167
93915KAEX AEX20161129082510911/29/16 08:25:31  5-MIN KAEX 291425Z 13005KT 1/4SM FG VV002 17/17 A2967 320 100 700 130/05 RMK AO2 T01720172
93915KAEX AEX20161129083010911/29/16 08:30:31  5-MIN KAEX 291430Z 13004KT 1/4SM FG VV002 17/17 A2967 320 100 700 130/04 RMK AO2 T01720172
93915KAEX AEX20161129083510911/29/16 08:35:31  5-MIN KAEX 291435Z 14004KT 1/4SM FG VV002 17/17 A2968 320 100 700 140/04 RMK AO2 T01720172
93915KAEX AEX20161129084010911/29/16 08:40:31  5-MIN KAEX 291440Z 15003KT 1/4SM FG VV002 17/17 A2967 320 100 700 150/03 RMK AO2 T01720172
93915KAEX AEX20161129084510911/29/16 08:45:31  5-MIN KAEX 291445Z 00000KT 1/4SM FG VV002 18/18 A2968 320 100 800 000/00 RMK AO2 T01780178
93915KAEX AEX20161129085012311/29/16 08:50:31  5-MIN KAEX 291450Z 16003KT M1/4SM FG VV002 18/18 A2968 320 100 800 160/03 RMK AO2 SLP054 T01780178 55002
93915KAEX AEX20161129085511011/29/16 08:55:31  5-MIN KAEX 291455Z 16003KT M1/4SM FG VV002 17/17 A2968 310 100 700 160/03 RMK AO2 T01720172
93915KAEX AEX20161129090011011/29/16 09:00:31  5-MIN KAEX 291500Z 15004KT M1/4SM FG VV002 18/18 A2969 310 100 700 140/04 RMK AO2 T01780178
93915KAEX AEX20161129090510911/29/16 09:05:31  5-MIN KAEX 291505Z 14004KT 1/4SM FG VV002 18/18 A2969 310 100 700 140/04 RMK AO2 T01780178
93915KAEX AEX20161129091010911/29/16 09:10:31  5-MIN KAEX 291510Z 13005KT 1/4SM FG VV002 18/18 A2969 310 100 800 130/05 RMK AO2 T01830183
93915KAEX AEX20161129091510911/29/16 09:15:31  5-MIN KAEX 291515Z 13005KT 1/4SM FG VV002 18/18 A2969 310 100 800 130/05 RMK AO2 T01830183
93915KAEX AEX20161129092010911/29/16 09:20:31  5-MIN KAEX 291520Z 13005KT 1/4SM FG VV003 19/19 A2969 310 100 900 120/05 RMK AO2 T01890189
93915KAEX AEX20161129092510911/29/16 09:25:31  5-MIN KAEX 291525Z 12005KT 1/4SM FG VV003 19/19 A2969 310 100 900 120/05 RMK AO2 T01890189
93915KAEX AEX20161129093010911/29/16 09:30:31  5-MIN KAEX 291530Z 12005KT 1/4SM FG VV003 19/19 A2969 310 100 900 120/05 RMK AO2 T01940194
93915KAEX AEX20161129093510911/29/16 09:35:31  5-MIN KAEX 291535Z 13005KT 1/2SM FG VV003 19/19 A2969 310 100 900 130/05 RMK AO2 T01890189
93915KAEX AEX20161129094010711/29/16 09:40:31  5-MIN KAEX 291540Z 14005KT 1SM BR VV003 19/19 A2969 310 100 900 140/05 RMK AO2 T01940194
93915KAEX AEX20161129094511211/29/16 09:45:31  5-MIN KAEX 291545Z 14004KT 1 3/4SM BR OVC003 19/19 A2969 300 100 900 130/04 RMK AO2 T01940194
93915KAEX AEX20161129095010411/29/16 09:50:31  5-MIN KAEX 291550Z AUTO 16005KT 2SM BR OVC003 20/20 A2969 300 100 1000 160/05 RMK AO2
93915KAEX AEX20161129095511811/29/16 09:55:31  5-MIN KAEX 291555Z AUTO 16004KT 2 1/2SM BR OVC003 20/20 A2970 300 100 1000 150/04 RMK AO2 T02000200
93915KAEX AEX20161129100011811/29/16 10:00:31  5-MIN KAEX 291600Z AUTO 15006KT 2 1/2SM BR OVC003 20/20 A2970 300 100 1000 150/06 RMK AO2 T02000200
93915KAEX AEX20161129100511811/29/16 10:05:31  5-MIN KAEX 291605Z AUTO 14005KT 2 1/2SM BR OVC003 20/20 A2969 300 100 1000 140/05 RMK AO2 T02000200
93915KAEX AEX20161129101011411/29/16 10:10:31  5-MIN KAEX 291610Z AUTO 15006KT 3SM BR OVC004 21/21 A2969 310 100 1100 150/06 RMK AO2 T02060206
93915KAEX AEX20161129101511411/29/16 10:15:31  5-MIN KAEX 291615Z AUTO 15004KT 3SM BR OVC004 21/21 A2969 310 100 1100 150/04 RMK AO2 T02060206
93915KAEX AEX20161129102012611/29/16 10:20:31  5-MIN KAEX 291620Z AUTO 16005KT 3SM BR OVC004 21/21 A2969 310 100 1100 160/05 RMK AO2 CIG 003V007 T02060206
93915KAEX AEX20161129102512611/29/16 10:25:31  5-MIN KAEX 291625Z AUTO 16007KT 3SM BR OVC004 21/21 A2969 310 100 1100 160/07 RMK AO2 CIG 003V009 T02110211
93915KAEX AEX20161129103012611/29/16 10:30:31  5-MIN KAEX 291630Z AUTO 17008KT 3SM BR OVC006 21/21 A2968 310 100 1100 170/08 RMK AO2 CIG 004V009 T02110211
93915KAEX AEX20161129103513311/29/16 10:35:31  5-MIN KAEX 291635Z AUTO 18008KT 3SM BR BKN006 OVC011 22/22 A2968 310 100 1200 170/08 RMK AO2 CIG 004V010 T02170217
93915KAEX AEX20161129104013311/29/16 10:40:31  5-MIN KAEX 291640Z AUTO 18008KT 3SM BR BKN007 OVC011 21/21 A2968 310 100 1100 180/08 RMK AO2 CIG 004V011 T02110211
93915KAEX AEX20161129104512111/29/16 10:45:31  5-MIN KAEX 291645Z AUTO 19009KT 4SM BR BKN009 OVC013 22/22 A2968 310 100 1200 180/09 RMK AO2 T02170217
93915KAEX AEX20161129105013511/29/16 10:50:31  5-MIN KAEX 291650Z AUTO 17007KT 4SM BR BKN009 BKN013 OVC033 22/22 A2968 310 100 1200 170/07 RMK AO2 SLP054 T02170217
93915KAEX AEX20161129105512111/29/16 10:55:31  5-MIN KAEX 291655Z AUTO 19006KT 4SM BR BKN009 BKN036 22/22 A2968 310 100 1200 180/06 RMK AO2 T02170217
93915KAEX AEX20161129110012811/29/16 11:00:31  5-MIN KAEX 291700Z AUTO 19008KT 4SM BR SCT009 BKN013 BKN032 22/22 A2968 320 100 1200 190/08 RMK AO2 T02170217
93915KAEX AEX20161129110512811/29/16 11:05:31  5-MIN KAEX 291705Z AUTO 21007KT 4SM BR FEW009 BKN013 BKN032 22/22 A2968 310 100 1200 200/07 RMK AO2 T02170217
93915KAEX AEX20161129111012711/29/16 11:10:31  5-MIN KAEX 291710Z AUTO 20011KT 5SM BR SCT013 SCT022 BKN034 22/22 A2968 310 97 1300 200/11 RMK AO2 T02220217
93915KAEX AEX20161129111512811/29/16 11:15:31  5-MIN KAEX 291715Z AUTO 20009KT 5SM BR FEW013 SCT022 BKN034 22/22 A2968 310 100 1200 190/09 RMK AO2 T02170217
93915KAEX AEX20161129112012811/29/16 11:20:31  5-MIN KAEX 291720Z AUTO 18009KT 5SM BR FEW013 BKN034 OVC060 22/22 A2968 310 100 1200 180/09 RMK AO2 T02170217
93915KAEX AEX20161129112512711/29/16 11:25:31  5-MIN KAEX 291725Z AUTO 17007KT 5SM BR FEW013 BKN032 OVC047 22/22 A2967 320 97 1300 170/07 RMK AO2 T02220217
93915KAEX AEX20161129113012711/29/16 11:30:31  5-MIN KAEX 291730Z AUTO 17007KT 5SM BR FEW013 BKN036 OVC050 22/22 A2967 320 97 1300 170/07 RMK AO2 T02220217
93915KAEX AEX20161129113512711/29/16 11:35:31  5-MIN KAEX 291735Z AUTO 17007KT 5SM BR FEW014 SCT029 BKN036 23/22 A2966 330 93 1300 170/07 RMK AO2 T02280217
93915KAEX AEX20161129114013411/29/16 11:40:31  5-MIN KAEX 291740Z AUTO 17006KT 5SM BR FEW017 FEW029 SCT038 24/22 A2966 330 87 1500 170/06 RMK AO2 PRESFR T02390217
93915KAEX AEX20161129114512011/29/16 11:45:31  5-MIN KAEX 291745Z AUTO 17006KT 5SM BR FEW026 SCT036 24/22 A2966 340 87 1500 170/06 RMK AO2 T02390217
93915KAEX AEX20161129115014511/29/16 11:50:31  5-MIN KAEX 291750Z AUTO 18007KT 5SM HZ FEW028 FEW036 24/22 A2966 340 84 1500 180/07 RMK AO2 SLP046 T02440217 10244 20139 53016
93915KAEX AEX20161129115513311/29/16 11:55:31  5-MIN KAEX 291755Z AUTO 20011G18KT 5SM HZ FEW026 FEW038 FEW075 25/22 A2966 340 81 1600 190/11G18 RMK AO2 T02500217
93915KAEX AEX20161129120012611/29/16 12:00:31  5-MIN KAEX 291800Z AUTO 19010G18KT 6SM HZ FEW017 FEW050 24/21 A2966 340 81 1500 180/10G18 RMK AO2 T02440211
93915KAEX AEX20161129120512711/29/16 12:05:31  5-MIN KAEX 291805Z AUTO 20007KT 6SM HZ FEW017 SCT050 SCT075 25/22 A2966 340 81 1600 200/07 RMK AO2 T02500217
93915KAEX AEX20161129121012711/29/16 12:10:31  5-MIN KAEX 291810Z AUTO 19008KT 6SM HZ FEW018 FEW047 SCT075 26/22 A2966 340 79 1700 190/08 RMK AO2 T02560217
93915KAEX AEX20161129121513811/29/16 12:15:31  5-MIN KAEX 291815Z AUTO 19009KT 6SM HZ FEW018 SCT046 BKN080 25/22 A2965 340 81 1600 180/09 RMK AO2 LTG DSNT E T02500217
93915KAEX AEX20161129122013811/29/16 12:20:31  5-MIN KAEX 291820Z AUTO 18009KT 6SM HZ FEW018 BKN046 BKN060 26/22 A2965 340 79 1700 180/09 RMK AO2 LTG DSNT E T02560217
93915KAEX AEX20161129122513811/29/16 12:25:31  5-MIN KAEX 291825Z AUTO 18012KT 6SM HZ FEW018 SCT032 BKN046 26/22 A2965 340 79 1700 170/12 RMK AO2 LTG DSNT E T02560217
93915KAEX AEX20161129123012711/29/16 12:30:31  5-MIN KAEX 291830Z AUTO 18011KT 6SM HZ FEW032 BKN044 BKN075 26/22 A2964 350 79 1700 180/11 RMK AO2 T02560217
93915KAEX AEX20161129123512011/29/16 12:35:31  5-MIN KAEX 291835Z AUTO 19010KT 6SM HZ FEW029 SCT044 26/21 A2964 350 76 1700 190/10 RMK AO2 T02560211
93915KAEX AEX20161129124012011/29/16 12:40:31  5-MIN KAEX 291840Z AUTO 17009KT 6SM HZ FEW026 SCT044 26/22 A2964 350 76 1800 170/09 RMK AO2 T02610217
93915KAEX AEX20161129124512711/29/16 12:45:31  5-MIN KAEX 291845Z AUTO 17010KT 6SM HZ FEW024 FEW028 SCT043 26/22 A2964 360 76 1800 170/10 RMK AO2 T02610217
93915KAEX AEX20161129125013411/29/16 12:50:31  5-MIN KAEX 291850Z AUTO 17012KT 6SM HZ FEW022 SCT030 BKN037 26/22 A2963 360 76 1800 170/12 RMK AO2 SLP038 T02610217
93915KAEX AEX20161129125511511/29/16 12:55:31  5-MIN KAEX 291855Z 17013KT 6SM HZ FEW022 BKN030 26/21 A2963 360 73 1800 170/13 RMK AO2 T02610211
93915KAEX AEX20161129130012211/29/16 13:00:31  5-MIN KAEX 291900Z 19009KT 6SM HZ FEW023 BKN029 BKN035 26/21 A2963 360 73 1800 190/09 RMK AO2 T02610211
93915KAEX AEX20161129130512211/29/16 13:05:31  5-MIN KAEX 291905Z 20010KT 6SM HZ SCT025 BKN032 BKN044 27/22 A2963 360 73 1800 200/10 RMK AO2 T02670217
93915KAEX AEX20161129131014611/29/16 13:10:31  5-MIN KAEX 291910Z 19014G17KT 6SM HZ SCT025 BKN032 BKN044 27/21 A2963 370 71 1800 190/14G17 RMK AO2 LTG DSNT N AND NW T02670211
93915KAEX AEX20161129131514011/29/16 13:15:31  5-MIN KAEX 291915Z 18014KT 6SM HZ FEW023 SCT030 BKN044 27/21 A2963 360 71 1800 180/14 RMK AO2 LTG DSNT N AND NW T02670211
93915KAEX AEX20161129132013711/29/16 13:20:31  5-MIN KAEX 291920Z 18014KT 7SM FEW023 SCT036 SCT044 27/21 A2962 370 71 1800 180/14 RMK AO2 LTG DSNT N AND NW T02670211
93915KAEX AEX20161129132514311/29/16 13:25:31  5-MIN KAEX 291925Z 19012G21KT 7SM FEW028 SCT034 SCT044 27/22 A2962 370 73 1800 180/12G21 RMK AO2 LTG DSNT N AND NW T02670217
93915KAEX AEX20161129133011111/29/16 13:30:31  5-MIN KAEX 291930Z 18016G22KT 7SM FEW028 27/21 A2962 370 71 1800 180/16G22 RMK AO2 T02670211
93915KAEX AEX20161129133512911/29/16 13:35:31  5-MIN KAEX 291935Z 19013G22KT 7SM FEW030 FEW040 27/21 A2961 380 71 1800 190/13G22 RMK AO2 LTG DSNT N T02670211
93915KAEX AEX20161129134012311/29/16 13:40:31  5-MIN KAEX 291940Z 19013KT 7SM FEW030 FEW043 27/21 A2961 380 71 1800 190/13 RMK AO2 LTG DSNT N T02670211
93915KAEX AEX20161129134511611/29/16 13:45:31  5-MIN KAEX 291945Z 17014KT 7SM FEW030 27/21 A2961 380 71 1900 170/14 RMK AO2 LTG DSNT N T02670211
93915KAEX AEX20161129135012911/29/16 13:50:31  5-MIN KAEX 291950Z 19014G19KT 7SM FEW030 27/21 A2960 390 69 1900 190/14G19 RMK AO2 LTG DSNT N SLP028 T02720211
93915KAEX AEX20161129135512211/29/16 13:55:31  5-MIN KAEX 291955Z 19014G19KT 7SM FEW030 27/21 A2960 390 69 1900 190/14G19 RMK AO2 LTG DSNT N T02720211
93915KAEX AEX20161129140012211/29/16 14:00:31  5-MIN KAEX 292000Z 18013KT 7SM FEW030 27/21 A2960 390 69 1900 180/13 RMK AO2 LTG DSNT N AND W T02720211
93915KAEX AEX20161129140512211/29/16 14:05:31  5-MIN KAEX 292005Z 18013KT 7SM FEW031 27/21 A2960 390 69 1900 180/13 RMK AO2 LTG DSNT N AND W T02670206
93915KAEX AEX20161129141012911/29/16 14:10:31  5-MIN KAEX 292010Z 18010KT 7SM FEW031 FEW080 27/21 A2960 390 71 1900 180/10 RMK AO2 LTG DSNT N AND W T02670211
93915KAEX AEX20161129141513011/29/16 14:15:31  5-MIN KAEX 292015Z 18012KT 7SM FEW031 FEW043 SCT080 27/21 A2960 390 71 1900 180/12 RMK AO2 LTG DSNT N T02670211
93915KAEX AEX20161129142011111/29/16 14:20:31  5-MIN KAEX 292020Z 18013G20KT 7SM FEW043 27/21 A2960 390 71 1900 170/13G20 RMK AO2 T02670211
93915KAEX AEX20161129142510811/29/16 14:25:31  5-MIN KAEX 292025Z 18012G20KT 7SM CLR 27/21 A2960 390 69 1900 180/12G20 RMK AO2 T02670206
93915KAEX AEX20161129143010811/29/16 14:30:31  5-MIN KAEX 292030Z 19014G19KT 7SM CLR 26/21 A2960 390 73 1800 190/14G19 RMK AO2 T02610211
93915KAEX AEX20161129143510211/29/16 14:35:31  5-MIN KAEX 292035Z 19010KT 7SM CLR 27/21 A2959 390 71 1900 190/10 RMK AO2 T02670211
93915KAEX AEX20161129144012011/29/16 14:40:31  5-MIN KAEX 292040Z 18012G18KT 7SM CLR 27/21 A2960 390 69 1900 180/12G18 RMK AO2 LTG DSNT NW T02670206
93915KAEX AEX20161129144511711/29/16 14:45:31  5-MIN KAEX 292045Z 19010KT 7SM FEW037 27/21 A2960 390 66 1900 190/10 RMK AO2 LTG DSNT NW T02720206
93915KAEX AEX20161129145014211/29/16 14:50:31  5-MIN KAEX 292050Z 19017G23KT 7SM FEW037 27/21 A2959 390 66 1900 190/17G23 RMK AO2 LTG DSNT N AND NW SLP025 T02720206 58008
93915KAEX AEX20161129145512911/29/16 14:55:31  5-MIN KAEX 292055Z 19015G23KT 7SM FEW037 27/21 A2959 390 66 1900 190/15G23 RMK AO2 LTG DSNT N AND NW T02720206
93915KAEX AEX20161129150012311/29/16 15:00:31  5-MIN KAEX 292100Z 19012KT 7SM FEW036 27/20 A2959 390 66 1900 190/12 RMK AO2 LTG DSNT N AND NW T02670200
93915KAEX AEX20161129150512311/29/16 15:05:31  5-MIN KAEX 292105Z 19015KT 7SM FEW036 27/21 A2959 390 66 1900 190/15 RMK AO2 LTG DSNT N AND NW T02720206
93915KAEX AEX20161129151012911/29/16 15:10:31  5-MIN KAEX 292110Z 18013G21KT 7SM FEW036 27/20 A2959 390 66 1900 180/13G21 RMK AO2 LTG DSNT N AND NW T02670200
93915KAEX AEX20161129151512611/29/16 15:15:31  5-MIN KAEX 292115Z 19015G21KT 7SM CLR 27/21 A2959 400 69 1900 180/15G21 RMK AO2 LTG DSNT N AND NW T02670206
93915KAEX AEX20161129152012611/29/16 15:20:31  5-MIN KAEX 292120Z 19010G17KT 7SM CLR 27/21 A2959 400 69 1900 190/10G17 RMK AO2 LTG DSNT N AND NW T02670206
93915KAEX AEX20161129152512611/29/16 15:25:31  5-MIN KAEX 292125Z 19012G18KT 8SM CLR 27/20 A2959 400 66 1900 180/12G18 RMK AO2 LTG DSNT N AND NW T02670200
93915KAEX AEX20161129153012611/29/16 15:30:31  5-MIN KAEX 292130Z 18015G20KT 8SM CLR 27/20 A2959 400 66 1900 180/15G20 RMK AO2 LTG DSNT N AND NW T02670200
93915KAEX AEX20161129153512011/29/16 15:35:31  5-MIN KAEX 292135Z 18014KT 8SM CLR 27/20 A2959 400 66 1900 180/14 RMK AO2 LTG DSNT N AND NW T02670200
93915KAEX AEX20161129154012011/29/16 15:40:31  5-MIN KAEX 292140Z 19014KT 8SM CLR 26/21 A2960 390 71 1800 190/14 RMK AO2 LTG DSNT N AND NW T02610206
93915KAEX AEX20161129154512011/29/16 15:45:31  5-MIN KAEX 292145Z 19016KT 8SM CLR 26/20 A2959 400 68 1800 190/16 RMK AO2 LTG DSNT N AND NW T02610200
93915KAEX AEX20161129155012011/29/16 15:50:31  5-MIN KAEX 292150Z 19011KT 8SM CLR 26/21 A2959 400 71 1800 190/11 RMK AO2 LTG DSNT N SLP024 T02610206
93915KAEX AEX20161129155511911/29/16 15:55:31  5-MIN KAEX 292155Z 18011KT 8SM CLR 26/20 A2959 390 68 1800 180/11 RMK AO2 LTG DSNT N AND W T02610200
93915KAEX AEX20161129160011911/29/16 16:00:31  5-MIN KAEX 292200Z 19012KT 8SM CLR 26/21 A2960 390 71 1800 180/12 RMK AO2 LTG DSNT N AND W T02610206
93915KAEX AEX20161129160511311/29/16 16:05:31  5-MIN KAEX 292205Z 18011KT 8SM CLR 26/21 A2960 390 71 1800 180/11 RMK AO2 LTG DSNT W T02610206
93915KAEX AEX20161129161011911/29/16 16:10:31  5-MIN KAEX 292210Z 18010G17KT 8SM CLR 26/21 A2960 390 71 1800 180/10G17 RMK AO2 LTG DSNT W T02610206
93915KAEX AEX20161129161512011/29/16 16:15:31  5-MIN KAEX 292215Z 18011KT 8SM CLR 26/21 A2960 390 71 1800 180/11 RMK AO2 LTG DSNT W AND NW T02610206
93915KAEX AEX20161129162012311/29/16 16:20:31  5-MIN KAEX 292220Z 18010KT 8SM FEW031 26/21 A2960 390 73 1700 180/10 RMK AO2 LTG DSNT W AND NW T02560206
93915KAEX AEX20161129162511811/29/16 16:25:31  5-MIN KAEX 292225Z 18010KT 8SM SCT031 26/21 A2960 390 73 1700 180/10 RMK AO2 LTG DSNT W-N T02560206
93915KAEX AEX20161129163012311/29/16 16:30:31  5-MIN KAEX 292230Z 17012KT 8SM FEW031 26/21 A2960 390 73 1700 170/12 RMK AO2 LTG DSNT N AND NW T02560206
93915KAEX AEX20161129163512311/29/16 16:35:31  5-MIN KAEX 292235Z 18013KT 8SM FEW031 25/21 A2960 390 76 1700 180/13 RMK AO2 LTG DSNT N AND NW T02500206
93915KAEX AEX20161129164012311/29/16 16:40:31  5-MIN KAEX 292240Z 18009KT 8SM FEW031 25/21 A2960 390 76 1700 180/09 RMK AO2 LTG DSNT N AND NW T02500206
93915KAEX AEX20161129164512311/29/16 16:45:31  5-MIN KAEX 292245Z 18010KT 8SM FEW031 24/21 A2960 390 78 1600 180/10 RMK AO2 LTG DSNT N AND NW T02440206
93915KAEX AEX20161129165011811/29/16 16:50:31  5-MIN KAEX 292250Z 17009KT 8SM VCTS FEW031 24/21 A2960 390 81 1500 170/09 RMK AO2 LTG DSNT N AND NW
93915KAEX AEX20161129165512811/29/16 16:55:31  5-MIN KAEX 292255Z 18009KT 8SM VCTS FEW039 24/21 A2961 380 78 1600 180/09 RMK AO2 LTG DSNT N AND NW T02440206
93915KAEX AEX20161129170012111/29/16 17:00:31  5-MIN KAEX 292300Z 19010KT 7SM VCTS SCT033 24/21 A2961 380 78 1600 190/10 RMK AO2 LTG DSNT N T02440206
93915KAEX AEX20161129170512311/29/16 17:05:31  5-MIN KAEX 292305Z 19010KT 7SM FEW030 BKN035 24/21 A2961 380 78 1600 190/10 RMK AO2 LTG DSNT N T02440206
93915KAEX AEX20161129171012311/29/16 17:10:31  5-MIN KAEX 292310Z 20009KT 8SM FEW028 BKN035 24/21 A2961 380 78 1600 190/09 RMK AO2 LTG DSNT N T02440206
93915KAEX AEX20161129171512311/29/16 17:15:31  5-MIN KAEX 292315Z 18008KT 8SM FEW028 BKN034 24/21 A2961 380 78 1600 180/08 RMK AO2 LTG DSNT N T02440206
93915KAEX AEX20161129172013011/29/16 17:20:31  5-MIN KAEX 292320Z 18007KT 8SM FEW028 BKN034 24/21 A2961 380 84 1500 170/07 RMK AO2 LTG DSNT N AND NE T02390211
93915KAEX AEX20161130014512111/30/16 01:45:31  5-MIN KAEX 300745Z AUTO 00000KT 10SM BKN055 17/15 A2971 280 90 600 000/00 RMK AO2 LTG DSNT E T01670150
93915KAEX AEX20161130015013511/30/16 01:50:31  5-MIN KAEX 300750Z AUTO 00000KT 10SM BKN055 16/15 A2972 270 93 500 000/00 RMK AO2 LTG DSNT E AND SE SLP067 T01610150
93915KAEX AEX20161130015512811/30/16 01:55:31  5-MIN KAEX 300755Z AUTO 28004KT 10SM BKN055 16/15 A2973 270 93 500 280/04 RMK AO2 LTG DSNT E AND SE T01610150
93915KAEX AEX20161130020011711/30/16 02:00:31  5-MIN KAEX 300800Z 34005KT 10SM BKN055 16/16 A2972 280 96 500 340/05 RMK AO2 LTG DSNT SE T01610156
93915KAEX AEX20161130020510511/30/16 02:05:31  5-MIN KAEX 300805Z 33004KT 10SM OVC055 16/16 A2973 270 96 500 320/04 RMK AO2 T01610156
93915KAEX AEX20161130021010511/30/16 02:10:31  5-MIN KAEX 300810Z 00000KT 10SM OVC055 16/16 A2973 270 96 500 000/00 RMK AO2 T01610156
93915KAEX AEX20161130021510511/30/16 02:15:31  5-MIN KAEX 300815Z 00000KT 10SM OVC060 16/16 A2973 260 96 500 000/00 RMK AO2 T01610156
93915KAEX AEX20161130022010511/30/16 02:20:31  5-MIN KAEX 300820Z 00000KT 10SM OVC060 16/16 A2973 270 96 500 000/00 RMK AO2 T01610156
93915KAEX AEX20161130022510511/30/16 02:25:31  5-MIN KAEX 300825Z 00000KT 10SM OVC060 17/16 A2973 270 93 600 000/00 RMK AO2 T01670156
93915KAEX AEX20161130023010511/30/16 02:30:31  5-MIN KAEX 300830Z 00000KT 10SM OVC060 16/16 A2973 270 96 500 000/00 RMK AO2 T01610156
93915KAEX AEX20161130023510511/30/16 02:35:31  5-MIN KAEX 300835Z 00000KT 10SM OVC060 16/16 A2973 270 96 500 000/00 RMK AO2 T01610156
93915KAEX AEX20161130024011211/30/16 02:40:31  5-MIN KAEX 300840Z 34003KT 10SM BKN060 OVC080 16/16 A2972 270 96 500 330/03 RMK AO2 T01610156
93915KAEX AEX20161130024511311/30/16 02:45:31  5-MIN KAEX 300845Z 31005KT 10SM BKN060 BKN080 16/16 A2973 270 100 400 310/05 RMK AO2 T01560156
93915KAEX AEX20161130025012411/30/16 02:50:31  5-MIN KAEX 300850Z 32006KT 10SM BKN060 16/15 A2972 280 96 400 320/06 RMK AO2 SLP067 60000 T01560150 50000
93915KAEX AEX20161130025511311/30/16 02:55:31  5-MIN KAEX 300855Z 31005KT 10SM SCT060 BKN080 15/15 A2973 270 100 400 300/05 RMK AO2 T01500150
93915KAEX AEX20161130030011211/30/16 03:00:31  5-MIN KAEX 300900Z 33004KT 10SM FEW060 SCT075 16/15 A2973 270 96 400 330/04 RMK AO2 T01560150
93915KAEX AEX20161130030511311/30/16 03:05:31  5-MIN KAEX 300905Z 31003KT 10SM SCT065 SCT080 15/15 A2973 270 100 400 310/03 RMK AO2 T01500150
93915KAEX AEX20161130031010511/30/16 03:10:31  5-MIN KAEX 300910Z 33005KT 10SM BKN065 16/15 A2973 270 96 400 320/05 RMK AO2 T01560150
93915KAEX AEX20161130031510411/30/16 03:15:31  5-MIN KAEX 300915Z 33004KT 9SM BKN065 16/15 A2973 270 96 400 330/04 RMK AO2 T01560150
93915KAEX AEX20161130032011211/30/16 03:20:31  5-MIN KAEX 300920Z 32005KT 9SM BKN065 BKN080 16/16 A2973 260 100 400 320/05 RMK AO2 T01560156
93915KAEX AEX20161130032510511/30/16 03:25:31  5-MIN KAEX 300925Z 34005KT 8SM BKN070 16/16 A2973 270 100 400 330/05 RMK AO2 T01560156
93915KAEX AEX20161130033010411/30/16 03:30:31  5-MIN KAEX 300930Z 32007KT 7SM BKN065 16/16 A2973 270 96 500 320/07 RMK AO2 T01610156
93915KAEX AEX20161130033510511/30/16 03:35:31  5-MIN KAEX 300935Z 32006KT 7SM BKN065 16/16 A2973 270 100 500 320/06 RMK AO2 T01610161
93915KAEX AEX20161130034010811/30/16 03:40:31  5-MIN KAEX 300940Z 32006KT 6SM BR BKN070 16/16 A2973 270 100 400 320/06 RMK AO2 T01560156
93915KAEX AEX20161130034510811/30/16 03:45:31  5-MIN KAEX 300945Z 31006KT 5SM BR BKN070 16/16 A2973 270 100 500 310/06 RMK AO2 T01610161
93915KAEX AEX20161130035011511/30/16 03:50:31  5-MIN KAEX 300950Z 31007KT 5SM BR BKN065 16/16 A2973 270 100 500 310/07 RMK AO2 SLP069 T01610161
93915KAEX AEX20161130035510811/30/16 03:55:31  5-MIN KAEX 300955Z 32007KT 5SM BR BKN060 16/16 A2973 270 100 500 320/07 RMK AO2 T01610161
93915KAEX AEX20161130040010811/30/16 04:00:31  5-MIN KAEX 301000Z 33007KT 6SM BR BKN060 16/16 A2973 260 100 500 330/07 RMK AO2 T01610161
93915KAEX AEX20161130040510411/30/16 04:05:31  5-MIN KAEX 301005Z 34008KT 8SM OVC060 16/15 A2973 270 96 400 340/08 RMK AO2 T01560150
93915KAEX AEX20161130041010511/30/16 04:10:31  5-MIN KAEX 301010Z 34007KT 10SM OVC060 16/14 A2974 260 93 400 330/07 RMK AO2 T01560144
93915KAEX AEX20161130041510511/30/16 04:15:31  5-MIN KAEX 301015Z 35008KT 10SM OVC065 16/14 A2974 260 90 400 340/08 RMK AO2 T01560139
93915KAEX AEX20161130042010511/30/16 04:20:31  5-MIN KAEX 301020Z 33007KT 10SM OVC065 16/14 A2975 250 90 400 330/07 RMK AO2 T01560139
93915KAEX AEX20161130042511211/30/16 04:25:31  5-MIN KAEX 301025Z 31007KT 10SM OVC065 16/14 A2976 240 90 500 300/07 RMK AO2 PRESRR T01610144
93915KAEX AEX20161130043011211/30/16 04:30:31  5-MIN KAEX 301030Z 31008KT 10SM OVC070 16/14 A2976 240 90 500 310/08 RMK AO2 PRESRR T01610144
93915KAEX AEX20161130043511211/30/16 04:35:31  5-MIN KAEX 301035Z 32008KT 10SM OVC070 16/14 A2977 230 90 500 310/08 RMK AO2 PRESRR T01610144
93915KAEX AEX20161130044010511/30/16 04:40:31  5-MIN KAEX 301040Z 31006KT 10SM OVC070 16/14 A2978 220 90 400 310/06 RMK AO2 T01610144
93915KAEX AEX20161130044510511/30/16 04:45:31  5-MIN KAEX 301045Z 31007KT 10SM OVC070 16/14 A2978 220 86 400 310/07 RMK AO2 T01610139
93915KAEX AEX20161130045011211/30/16 04:50:31  5-MIN KAEX 301050Z 32008KT 10SM OVC075 16/13 A2978 220 83 400 320/08 RMK AO2 SLP088 T01610133
93915KAEX AEX20161130045510511/30/16 04:55:31  5-MIN KAEX 301055Z 32007KT 10SM OVC080 16/12 A2978 220 77 400 320/07 RMK AO2 T01610122
93915KAEX AEX20161130050010511/30/16 05:00:31  5-MIN KAEX 301100Z 34006KT 10SM OVC080 16/13 A2978 220 83 400 340/06 RMK AO2 T01560128
93915KAEX AEX20161130050510511/30/16 05:05:31  5-MIN KAEX 301105Z 34007KT 10SM OVC080 16/12 A2978 220 80 400 340/07 RMK AO2 T01560122
93915KAEX AEX20161130051011211/30/16 05:10:31  5-MIN KAEX 301110Z 34006KT 10SM BKN075 BKN085 15/12 A2978 220 83 300 340/06 RMK AO2 T01500122
93915KAEX AEX20161130051510511/30/16 05:15:31  5-MIN KAEX 301115Z 33007KT 10SM BKN080 15/12 A2978 220 80 300 330/07 RMK AO2 T01500117
93915KAEX AEX20161130052010511/30/16 05:20:31  5-MIN KAEX 301120Z 32007KT 10SM BKN080 15/12 A2978 220 80 300 320/07 RMK AO2 T01500117
93915KAEX AEX20161130052510511/30/16 05:25:31  5-MIN KAEX 301125Z 33008KT 10SM BKN080 15/11 A2979 220 77 300 330/08 RMK AO2 T01500111
93915KAEX AEX20161130053011211/30/16 05:30:31  5-MIN KAEX 301130Z 33008KT 10SM BKN075 BKN085 15/11 A2979 210 74 300 330/08 RMK AO2 T01500106
93915KAEX AEX20161130053511211/30/16 05:35:31  5-MIN KAEX 301135Z 33008KT 10SM SCT075 BKN090 15/11 A2979 210 74 300 330/08 RMK AO2 T01500106
93915KAEX AEX20161130054011211/30/16 05:40:31  5-MIN KAEX 301140Z 33008KT 10SM SCT075 BKN090 14/10 A2979 210 74 200 330/08 RMK AO2 T01440100
93915KAEX AEX20161130054511211/30/16 05:45:31  5-MIN KAEX 301145Z 33008KT 10SM SCT075 OVC095 14/10 A2979 210 74 200 330/08 RMK AO2 T01440100
93915KAEX AEX20161130055014911/30/16 05:50:31  5-MIN KAEX 301150Z 32008KT 10SM FEW075 OVC095 14/10 A2980 210 74 200 320/08 RMK AO2 SLP093 60000 70010 T01440100 10183 20144 51017
93915KAEX AEX20161130055511211/30/16 05:55:31  5-MIN KAEX 301155Z 33007KT 10SM FEW075 OVC095 14/11 A2979 210 77 200 330/07 RMK AO2 T01440106
93915KAEX AEX20161130060011211/30/16 06:00:31  5-MIN KAEX 301200Z 34007KT 10SM FEW080 OVC095 14/11 A2979 210 77 200 330/07 RMK AO2 T01440106
93915KAEX AEX20161130060511211/30/16 06:05:31  5-MIN KAEX 301205Z 34007KT 10SM FEW080 OVC100 14/10 A2979 210 74 200 330/07 RMK AO2 T01440100
93915KAEX AEX20161130061011211/30/16 06:10:31  5-MIN KAEX 301210Z 33008KT 10SM FEW080 OVC100 14/10 A2980 200 74 200 320/08 RMK AO2 T01440100
93915KAEX AEX20161130061511211/30/16 06:15:31  5-MIN KAEX 301215Z 34006KT 10SM FEW080 OVC100 14/10 A2980 210 74 200 340/06 RMK AO2 T01440100
93915KAEX AEX20161130062011211/30/16 06:20:31  5-MIN KAEX 301220Z 33009KT 10SM FEW080 OVC100 14/10 A2980 200 74 200 330/09 RMK AO2 T01440100
93915KAEX AEX20161130062511211/30/16 06:25:31  5-MIN KAEX 301225Z 32009KT 10SM SCT080 OVC100 14/10 A2981 190 77 100 320/09 RMK AO2 T01390100
93915KAEX AEX20161130063011211/30/16 06:30:31  5-MIN KAEX 301230Z 33008KT 10SM BKN080 OVC100 14/10 A2981 190 74 200 320/08 RMK AO2 T01440100
93915KAEX AEX20161130063511911/30/16 06:35:31  5-MIN KAEX 301235Z 32008KT 10SM BKN080 OVC100 14/10 A2982 180 74 200 320/08 RMK AO2 PRESRR T01440100
93915KAEX AEX20161130064011911/30/16 06:40:31  5-MIN KAEX 301240Z 32008KT 10SM BKN080 OVC100 14/10 A2983 170 77 100 310/08 RMK AO2 PRESRR T01390100
93915KAEX AEX20161130064511211/30/16 06:45:31  5-MIN KAEX 301245Z 33008KT 10SM BKN080 OVC095 14/09 A2983 180 72 200 330/08 RMK AO2 T01440094
93915KAEX AEX20161130065011911/30/16 06:50:31  5-MIN KAEX 301250Z 34008KT 10SM BKN080 OVC100 14/09 A2982 180 74 100 340/08 RMK AO2 SLP102 T01390094
93915KAEX AEX20161130065511211/30/16 06:55:31  5-MIN KAEX 301255Z 33009KT 10SM BKN080 OVC100 14/09 A2983 180 74 100 330/09 RMK AO2 T01390094
93915KAEX AEX20161130070010511/30/16 07:00:31  5-MIN KAEX 301300Z 33007KT 10SM OVC095 14/10 A2983 180 77 100 330/07 RMK AO2 T01390100
93915KAEX AEX20161130070511211/30/16 07:05:31  5-MIN KAEX 301305Z 34008KT 10SM SCT080 OVC100 14/09 A2983 170 74 100 330/08 RMK AO2 T01390094
93915KAEX AEX20161130071011211/30/16 07:10:31  5-MIN KAEX 301310Z 33009KT 10SM BKN080 OVC100 14/09 A2984 160 74 100 330/09 RMK AO2 T01390094
93915KAEX AEX20161130071511211/30/16 07:15:31  5-MIN KAEX 301315Z 33008KT 10SM BKN080 OVC100 14/09 A2984 160 74 100 330/08 RMK AO2 T01390094
93915KAEX AEX20161130072011211/30/16 07:20:31  5-MIN KAEX 301320Z 33009KT 10SM BKN080 OVC100 14/09 A2985 160 74 100 330/09 RMK AO2 T01390094
93915KAEX AEX20161130072511211/30/16 07:25:31  5-MIN KAEX 301325Z 32009KT 10SM BKN080 OVC100 14/09 A2985 150 74 100 320/09 RMK AO2 T01390094
93915KAEX AEX20161130073010511/30/16 07:30:31  5-MIN KAEX 301330Z 33008KT 10SM OVC080 14/10 A2985 150 77 100 320/08 RMK AO2 T01390100
93915KAEX AEX20161130073510511/30/16 07:35:31  5-MIN KAEX 301335Z 32008KT 10SM OVC080 14/10 A2985 160 77 100 320/08 RMK AO2 T01390100
93915KAEX AEX20161130074010511/30/16 07:40:31  5-MIN KAEX 301340Z 32009KT 10SM OVC080 14/10 A2985 150 77 100 320/09 RMK AO2 T01390100
93915KAEX AEX20161130074510311/30/16 07:45:31  5-MIN KAEX 301345Z 31008KT 10SM OVC080 13/10 A2986 140 80 0 310/08 RMK AO2 T01330100
93915KAEX AEX20161130075011011/30/16 07:50:31  5-MIN KAEX 301350Z 32009KT 10SM OVC080 13/10 A2987 140 80 0 310/09 RMK AO2 SLP118 T01330100
93915KAEX AEX20161130075510311/30/16 07:55:31  5-MIN KAEX 301355Z 32008KT 10SM OVC080 13/09 A2987 140 77 0 320/08 RMK AO2 T01330094
93915KAEX AEX20161130080010311/30/16 08:00:31  5-MIN KAEX 301400Z 32008KT 10SM OVC080 13/09 A2987 130 77 0 320/08 RMK AO2 T01330094
93915KAEX AEX20161130080510311/30/16 08:05:31  5-MIN KAEX 301405Z 32011KT 10SM OVC080 13/09 A2988 130 77 0 320/11 RMK AO2 T01330094
93915KAEX AEX20161130081010311/30/16 08:10:31  5-MIN KAEX 301410Z 32011KT 10SM OVC080 13/09 A2988 130 74 0 320/11 RMK AO2 T01330089
93915KAEX AEX20161130081510311/30/16 08:15:31  5-MIN KAEX 301415Z 32009KT 10SM OVC085 13/09 A2988 130 74 0 320/09 RMK AO2 T01330089
93915KAEX AEX20161130082010311/30/16 08:20:31  5-MIN KAEX 301420Z 32009KT 10SM OVC085 13/09 A2988 130 74 0 320/09 RMK AO2 T01330089
93915KAEX AEX20161130082510311/30/16 08:25:31  5-MIN KAEX 301425Z 32012KT 10SM OVC085 13/09 A2989 120 74 0 320/12 RMK AO2 T01330089
93915KAEX AEX20161130083010311/30/16 08:30:31  5-MIN KAEX 301430Z 32012KT 10SM OVC085 13/09 A2990 110 74 0 320/12 RMK AO2 T01330089
93915KAEX AEX20161130083510311/30/16 08:35:31  5-MIN KAEX 301435Z 32010KT 10SM OVC085 13/08 A2990 110 71 0 320/10 RMK AO2 T01330083
93915KAEX AEX20161130084010311/30/16 08:40:31  5-MIN KAEX 301440Z 32011KT 10SM OVC085 13/09 A2991 100 74 0 320/11 RMK AO2 T01330089
93915KAEX AEX20161130084510311/30/16 08:45:31  5-MIN KAEX 301445Z 31010KT 10SM OVC085 13/08 A2991 100 71 0 310/10 RMK AO2 T01330083
93915KAEX AEX20161130085011611/30/16 08:50:31  5-MIN KAEX 301450Z 32011KT 10SM OVC085 13/08 A2991 100 71 0 320/11 RMK AO2 SLP133 T01330083 53023
93915KAEX AEX20161130085510211/30/16 08:55:31  5-MIN KAEX 301455Z 32012KT 10SM OVC085 13/08 A2992 90 71 0 310/12 RMK AO2 T01330083
93915KAEX AEX20161130090010211/30/16 09:00:31  5-MIN KAEX 301500Z 32013KT 10SM OVC085 13/08 A2992 90 71 0 320/13 RMK AO2 T01330083
93915KAEX AEX20161130090510211/30/16 09:05:31  5-MIN KAEX 301505Z 32013KT 10SM OVC085 13/08 A2992 90 71 0 320/13 RMK AO2 T01330083
93915KAEX AEX20161130091010211/30/16 09:10:31  5-MIN KAEX 301510Z 33010KT 10SM OVC085 13/08 A2992 90 71 0 330/10 RMK AO2 T01330083
93915KAEX AEX20161130091510211/30/16 09:15:31  5-MIN KAEX 301515Z 33011KT 10SM OVC085 13/08 A2993 80 69 0 330/11 RMK AO2 T01330078
93915KAEX AEX20161130092010211/30/16 09:20:31  5-MIN KAEX 301520Z 33010KT 10SM OVC085 13/08 A2993 80 69 0 320/10 RMK AO2 T01330078
93915KAEX AEX20161130092510211/30/16 09:25:31  5-MIN KAEX 301525Z 33007KT 10SM OVC085 13/08 A2993 80 69 0 330/07 RMK AO2 T01330078
93915KAEX AEX20161130093010211/30/16 09:30:31  5-MIN KAEX 301530Z 33006KT 10SM OVC085 13/08 A2994 80 69 0 320/06 RMK AO2 T01330078
93915KAEX AEX20161130093510211/30/16 09:35:31  5-MIN KAEX 301535Z 34006KT 10SM OVC085 13/07 A2993 80 66 0 330/06 RMK AO2 T01330072
93915KAEX AEX20161130094010211/30/16 09:40:31  5-MIN KAEX 301540Z 33007KT 10SM OVC085 13/07 A2993 80 66 0 330/07 RMK AO2 T01330072
93915KAEX AEX20161130094510211/30/16 09:45:31  5-MIN KAEX 301545Z 34007KT 10SM OVC085 14/07 A2993 80 64 0 340/07 RMK AO2 T01390072
93915KAEX AEX20161130095010911/30/16 09:50:31  5-MIN KAEX 301550Z 34007KT 10SM OVC085 14/07 A2993 80 64 0 340/07 RMK AO2 SLP140 T01390072
93915KAEX AEX20161130095510211/30/16 09:55:31  5-MIN KAEX 301555Z 32006KT 10SM OVC085 14/07 A2994 70 64 0 320/06 RMK AO2 T01390072
93915KAEX AEX20161130100010211/30/16 10:00:31  5-MIN KAEX 301600Z 34005KT 10SM OVC090 14/07 A2994 70 64 0 340/05 RMK AO2 T01390072
93915KAEX AEX20161130100510411/30/16 10:05:31  5-MIN KAEX 301605Z 33006KT 10SM OVC090 14/07 A2993 80 61 100 330/06 RMK AO2 T01440072
93915KAEX AEX20161130101010411/30/16 10:10:31  5-MIN KAEX 301610Z 32007KT 10SM OVC090 14/07 A2994 70 61 100 320/07 RMK AO2 T01440072
93915KAEX AEX20161130101510411/30/16 10:15:31  5-MIN KAEX 301615Z 32007KT 10SM OVC090 14/07 A2994 70 59 100 320/07 RMK AO2 T01440067
93915KAEX AEX20161130102010411/30/16 10:20:31  5-MIN KAEX 301620Z 32007KT 10SM OVC090 15/07 A2994 70 59 100 320/07 RMK AO2 T01500072
93915KAEX AEX20161130102510411/30/16 10:25:31  5-MIN KAEX 301625Z 32007KT 10SM OVC090 14/07 A2994 70 61 100 320/07 RMK AO2 T01440072
93915KAEX AEX20161130103010411/30/16 10:30:31  5-MIN KAEX 301630Z 32006KT 10SM OVC090 14/07 A2994 70 59 100 310/06 RMK AO2 T01440067
93915KAEX AEX20161130103510411/30/16 10:35:31  5-MIN KAEX 301635Z 31006KT 10SM OVC090 14/07 A2994 70 61 100 310/06 RMK AO2 T01440072
93915KAEX AEX20161130104010411/30/16 10:40:31  5-MIN KAEX 301640Z 32010KT 10SM OVC090 14/07 A2994 70 59 100 320/10 RMK AO2 T01440067
93915KAEX AEX20161130104510411/30/16 10:45:31  5-MIN KAEX 301645Z 32009KT 10SM OVC090 14/07 A2995 70 59 100 320/09 RMK AO2 T01440067
93915KAEX AEX20161130105011611/30/16 10:50:31  5-MIN KAEX 301650Z 31011KT 10SM BKN090 BKN110 14/07 A2995 60 61 0 300/11 RMK AO2 SLP147 T01440072
93915KAEX AEX20161130105511511/30/16 10:55:31  5-MIN KAEX 301655Z 32014G19KT 10SM BKN090 BKN110 14/07 A2996 60 61 0 320/14G19 RMK AO2 T01440072
93915KAEX AEX20161130110010711/30/16 11:00:31  5-MIN KAEX 301700Z AUTO 31017KT 10SM BKN090 14/07 A2996 50 59 0 310/17 RMK AO2 T01440067
93915KAEX AEX20161130110511411/30/16 11:05:31  5-MIN KAEX 301705Z AUTO 31012KT 10SM BKN090 BKN110 14/07 A2996 50 59 0 310/12 RMK AO2 T01440067
93915KAEX AEX20161130111012011/30/16 11:10:31  5-MIN KAEX 301710Z AUTO 31013G19KT 10SM BKN090 BKN110 14/07 A2997 50 64 0 310/13G19 RMK AO2 T01390072
93915KAEX AEX20161130111511311/30/16 11:15:31  5-MIN KAEX 301715Z AUTO 32016G22KT 10SM BKN090 14/06 A2997 50 57 0 310/16G22 RMK AO2 T01390056
93915KAEX AEX20161130112011311/30/16 11:20:31  5-MIN KAEX 301720Z AUTO 32014G22KT 10SM BKN090 14/06 A2997 50 57 0 320/14G22 RMK AO2 T01390056
93915KAEX AEX20161130112510711/30/16 11:25:31  5-MIN KAEX 301725Z AUTO 32015KT 10SM BKN090 14/06 A2996 50 57 0 320/15 RMK AO2 T01390056
93915KAEX AEX20161130113010711/30/16 11:30:31  5-MIN KAEX 301730Z AUTO 33012KT 10SM OVC090 14/05 A2996 50 55 0 320/12 RMK AO2 T01390050
93915KAEX AEX20161130113511411/30/16 11:35:31  5-MIN KAEX 301735Z AUTO 32013KT 10SM BKN090 OVC110 14/05 A2996 50 55 0 320/13 RMK AO2 T01390050
93915KAEX AEX20161130114011411/30/16 11:40:31  5-MIN KAEX 301740Z AUTO 33009KT 10SM BKN090 OVC110 14/05 A2996 50 55 0 320/09 RMK AO2 T01390050
93915KAEX AEX20161130114510711/30/16 11:45:31  5-MIN KAEX 301745Z AUTO 34009KT 10SM BKN085 14/05 A2996 60 55 0 340/09 RMK AO2 T01390050
93915KAEX AEX20161130115012711/30/16 11:50:31  5-MIN KAEX 301750Z 32013KT 10SM BKN090 14/06 A2996 50 57 0 320/13 RMK AO2 SLP149 T01390056 10150 20133 53042
93915KAEX AEX20161130115510911/30/16 11:55:31  5-MIN KAEX 301755Z 32014KT 10SM SCT085 SCT110 14/06 A2996 50 55 0 320/14 RMK AO2 T01440056
93915KAEX AEX20161130120010911/30/16 12:00:31  5-MIN KAEX 301800Z 32012KT 10SM FEW090 SCT110 14/06 A2996 50 55 0 310/12 RMK AO2 T01440056
93915KAEX AEX20161130120510411/30/16 12:05:31  5-MIN KAEX 301805Z 31012KT 10SM FEW085 15/06 A2996 50 53 100 310/12 RMK AO2 T01500056
93915KAEX AEX20161130121010111/30/16 12:10:31  5-MIN KAEX 301810Z 32009KT 10SM CLR 16/06 A2996 50 51 200 320/09 RMK AO2 T01560056
93915KAEX AEX20161130121510111/30/16 12:15:31  5-MIN KAEX 301815Z 31011KT 10SM CLR 16/05 A2996 50 49 200 310/11 RMK AO2 T01560050
93915KAEX AEX20161130122010111/30/16 12:20:31  5-MIN KAEX 301820Z 32009KT 10SM CLR 16/06 A2996 60 51 200 310/09 RMK AO2 T01560056
93915KAEX AEX20161130122510111/30/16 12:25:31  5-MIN KAEX 301825Z 34008KT 10SM CLR 16/06 A2996 60 49 200 330/08 RMK AO2 T01610056
93915KAEX AEX20161130123010111/30/16 12:30:31  5-MIN KAEX 301830Z 31007KT 10SM CLR 16/05 A2995 60 49 200 310/07 RMK AO2 T01560050
93915KAEX AEX20161130123510111/30/16 12:35:31  5-MIN KAEX 301835Z 31009KT 10SM CLR 16/04 A2995 60 45 200 310/09 RMK AO2 T01610044
93915KAEX AEX20161130124010111/30/16 12:40:31  5-MIN KAEX 301840Z 32011KT 10SM CLR 16/05 A2995 60 47 200 310/11 RMK AO2 T01610050
93915KAEX AEX20161130124510111/30/16 12:45:31  5-MIN KAEX 301845Z 33009KT 10SM CLR 17/04 A2995 60 42 300 330/09 RMK AO2 T01670039
93915KAEX AEX20161130125011411/30/16 12:50:31  5-MIN KAEX 301850Z 32015G20KT 10SM CLR 17/03 A2995 60 39 300 320/15G20 RMK AO2 SLP145 T01670028
93915KAEX AEX20161130125510711/30/16 12:55:31  5-MIN KAEX 301855Z 32015G20KT 10SM CLR 17/02 A2995 60 37 300 320/15G20 RMK AO2 T01670022
93915KAEX AEX20161130130010111/30/16 13:00:31  5-MIN KAEX 301900Z 32013KT 10SM CLR 17/03 A2995 60 39 300 320/13 RMK AO2 T01670028
93915KAEX AEX20161130130510111/30/16 13:05:31  5-MIN KAEX 301905Z 32010KT 10SM CLR 17/03 A2995 70 40 300 320/10 RMK AO2 T01670033
93915KAEX AEX20161130131010111/30/16 13:10:31  5-MIN KAEX 301910Z 32010KT 10SM CLR 17/03 A2995 60 40 300 320/10 RMK AO2 T01670033
93915KAEX AEX20161130131510111/30/16 13:15:31  5-MIN KAEX 301915Z 31008KT 10SM CLR 17/04 A2995 70 42 300 310/08 RMK AO2 T01670039
93915KAEX AEX20161130132010111/30/16 13:20:31  5-MIN KAEX 301920Z 33007KT 10SM CLR 17/04 A2995 70 41 400 330/07 RMK AO2 T01720039
93915KAEX AEX20161130132510111/30/16 13:25:31  5-MIN KAEX 301925Z 32010KT 10SM CLR 17/03 A2995 70 39 400 320/10 RMK AO2 T01720033
93915KAEX AEX20161130133010111/30/16 13:30:31  5-MIN KAEX 301930Z 30010KT 10SM CLR 17/04 A2995 70 44 300 300/10 RMK AO2 T01670044
93915KAEX AEX20161130133510111/30/16 13:35:31  5-MIN KAEX 301935Z 33009KT 10SM CLR 17/05 A2994 70 44 400 320/09 RMK AO2 T01720050
93915KAEX AEX20161130134010111/30/16 13:40:31  5-MIN KAEX 301940Z 30011KT 10SM CLR 17/04 A2994 70 42 300 300/11 RMK AO2 T01670039
93915KAEX AEX20161130235013911/30/16 23:50:31  5-MIN KAEX 010550Z 29003KT 10SM CLR 06/04 A3008 -50 92 -1100 290/03 RMK AO2 SLP189 T00560044 10111 20050 401780050 51017
93915KAEX AEX20161130235510411/30/16 23:55:31  5-MIN KAEX 010555Z 30003KT 10SM CLR 06/04 A3008 -50 92 -1100 290/03 RMK AO2 T00560044
