53144K9L2 9L220160823024510108/23/16 02:45:31  5-MIN K9L2 231045Z AUTO 21005KT 10SM CLR 22/03 A2998 2250 28 3600 200/05 RMK AO2 $
53144K9L2 9L220160823025010108/23/16 02:50:31  5-MIN K9L2 231050Z AUTO 18007KT 10SM CLR 22/03 A2998 2250 28 3600 170/07 RMK AO2 $
53144K9L2 9L220160823025511808/23/16 02:55:31  5-MIN K9L2 231055Z AUTO 20003KT 10SM CLR 22/03 A2998 2250 28 3600 190/03 RMK AO2 SLP129 T02170028 $
53144K9L2 9L220160823030010108/23/16 03:00:31  5-MIN K9L2 231100Z AUTO 17004KT 10SM CLR 21/03 A2998 2250 29 3500 160/04 RMK AO2 $
53144K9L2 9L220160823030510108/23/16 03:05:31  5-MIN K9L2 231105Z AUTO 17005KT 10SM CLR 21/03 A2998 2250 30 3400 160/05 RMK AO2 $
53144K9L2 9L220160823031010108/23/16 03:10:31  5-MIN K9L2 231110Z AUTO 19006KT 10SM CLR 21/03 A2998 2250 30 3400 170/06 RMK AO2 $
53144K9L2 9L220160823031510108/23/16 03:15:31  5-MIN K9L2 231115Z AUTO 19006KT 10SM CLR 21/03 A2998 2250 30 3400 180/06 RMK AO2 $
53144K9L2 9L220160823032010108/23/16 03:20:31  5-MIN K9L2 231120Z AUTO 19007KT 10SM CLR 21/03 A2998 2250 30 3400 170/07 RMK AO2 $
53144K9L2 9L220160823032510108/23/16 03:25:31  5-MIN K9L2 231125Z AUTO 19005KT 10SM CLR 21/03 A2998 2250 30 3500 180/05 RMK AO2 $
53144K9L2 9L220160823033010108/23/16 03:30:31  5-MIN K9L2 231130Z AUTO 19006KT 10SM CLR 21/03 A2998 2250 30 3500 180/06 RMK AO2 $
53144K9L2 9L220160823033510108/23/16 03:35:31  5-MIN K9L2 231135Z AUTO 19005KT 10SM CLR 21/03 A2998 2250 30 3400 180/05 RMK AO2 $
53144K9L2 9L220160823034010108/23/16 03:40:31  5-MIN K9L2 231140Z AUTO 21005KT 10SM CLR 20/03 A2998 2250 33 3400 190/05 RMK AO2 $
53144K9L2 9L220160823034510108/23/16 03:45:31  5-MIN K9L2 231145Z AUTO 21003KT 10SM CLR 20/03 A2998 2250 33 3400 190/03 RMK AO2 $
53144K9L2 9L220160823035010108/23/16 03:50:31  5-MIN K9L2 231150Z AUTO 20003KT 10SM CLR 20/03 A2998 2250 33 3400 180/03 RMK AO2 $
53144K9L2 9L220160823035513608/23/16 03:55:31  5-MIN K9L2 231155Z AUTO 00000KT 10SM CLR 20/03 A2999 2240 31 3400 000/00 RMK AO2 SLP134 T02000028 10256 20200 50004 $
53144K9L2 9L220160823040010108/23/16 04:00:31  5-MIN K9L2 231200Z AUTO 00000KT 10SM CLR 19/03 A2999 2240 33 3300 000/00 RMK AO2 $
53144K9L2 9L220160823040510108/23/16 04:05:31  5-MIN K9L2 231205Z AUTO 16003KT 10SM CLR 19/03 A2999 2240 33 3300 140/03 RMK AO2 $
53144K9L2 9L220160823041010108/23/16 04:10:31  5-MIN K9L2 231210Z AUTO 00000KT 10SM CLR 19/03 A2999 2240 33 3300 000/00 RMK AO2 $
53144K9L2 9L220160823041510108/23/16 04:15:31  5-MIN K9L2 231215Z AUTO 17004KT 10SM CLR 19/03 A2999 2240 33 3300 150/04 RMK AO2 $
53144K9L2 9L220160823042010108/23/16 04:20:31  5-MIN K9L2 231220Z AUTO 18004KT 10SM CLR 19/03 A2999 2240 33 3300 170/04 RMK AO2 $
53144K9L2 9L220160823042510108/23/16 04:25:31  5-MIN K9L2 231225Z AUTO 18004KT 10SM CLR 19/03 A2999 2240 33 3300 170/04 RMK AO2 $
53144K9L2 9L220160823043010108/23/16 04:30:31  5-MIN K9L2 231230Z AUTO 20003KT 10SM CLR 19/03 A2999 2240 33 3300 180/03 RMK AO2 $
53144K9L2 9L220160823043510108/23/16 04:35:31  5-MIN K9L2 231235Z AUTO 00000KT 10SM CLR 19/03 A2999 2240 34 3200 000/00 RMK AO2 $
53144K9L2 9L220160823044010108/23/16 04:40:31  5-MIN K9L2 231240Z AUTO 00000KT 10SM CLR 19/03 A2999 2240 34 3200 000/00 RMK AO2 $
53144K9L2 9L220160823044510108/23/16 04:45:31  5-MIN K9L2 231245Z AUTO 00000KT 10SM CLR 18/03 A2999 2240 35 3200 000/00 RMK AO2 $
53144K9L2 9L220160823045010108/23/16 04:50:31  5-MIN K9L2 231250Z AUTO 00000KT 10SM CLR 18/02 A3000 2230 35 3100 000/00 RMK AO2 $
53144K9L2 9L220160823045511808/23/16 04:55:31  5-MIN K9L2 231255Z AUTO 00000KT 10SM CLR 17/02 A3000 2230 36 3000 000/00 RMK AO2 SLP140 T01720022 $
53144K9L2 9L220160823050010108/23/16 05:00:31  5-MIN K9L2 231300Z AUTO 36004KT 10SM CLR 17/02 A3000 2230 37 3000 350/04 RMK AO2 $
53144K9L2 9L220160823050510108/23/16 05:05:31  5-MIN K9L2 231305Z AUTO 01004KT 10SM CLR 17/02 A3000 2230 36 3000 360/04 RMK AO2 $
53144K9L2 9L220160823051010108/23/16 05:10:31  5-MIN K9L2 231310Z AUTO 01004KT 10SM CLR 17/02 A3001 2220 36 3000 360/04 RMK AO2 $
53144K9L2 9L220160823051510108/23/16 05:15:31  5-MIN K9L2 231315Z AUTO 01003KT 10SM CLR 17/02 A3001 2220 37 3000 360/03 RMK AO2 $
53144K9L2 9L220160823052010108/23/16 05:20:31  5-MIN K9L2 231320Z AUTO 02003KT 10SM CLR 17/02 A3001 2220 37 3000 010/03 RMK AO2 $
53144K9L2 9L220160823052510108/23/16 05:25:31  5-MIN K9L2 231325Z AUTO 36003KT 10SM CLR 17/03 A3001 2220 39 3000 350/03 RMK AO2 $
53144K9L2 9L220160823053010108/23/16 05:30:31  5-MIN K9L2 231330Z AUTO 02004KT 10SM CLR 17/02 A3001 2220 37 3000 360/04 RMK AO2 $
53144K9L2 9L220160823053510108/23/16 05:35:31  5-MIN K9L2 231335Z AUTO 04003KT 10SM CLR 17/02 A3001 2220 37 3000 020/03 RMK AO2 $
53144K9L2 9L220160823054010108/23/16 05:40:31  5-MIN K9L2 231340Z AUTO 04003KT 10SM CLR 17/02 A3001 2220 37 3000 020/03 RMK AO2 $
53144K9L2 9L220160823054510108/23/16 05:45:31  5-MIN K9L2 231345Z AUTO 00000KT 10SM CLR 17/02 A3002 2210 36 3000 000/00 RMK AO2 $
53144K9L2 9L220160823055010108/23/16 05:50:31  5-MIN K9L2 231350Z AUTO 00000KT 10SM CLR 17/02 A3002 2210 36 3000 000/00 RMK AO2 $
53144K9L2 9L220160823055511808/23/16 05:55:31  5-MIN K9L2 231355Z AUTO 00000KT 10SM CLR 17/03 A3002 2210 37 3000 000/00 RMK AO2 SLP149 T01720028 $
53144K9L2 9L220160823060010108/23/16 06:00:31  5-MIN K9L2 231400Z AUTO 00000KT 10SM CLR 18/03 A3002 2210 36 3100 000/00 RMK AO2 $
53144K9L2 9L220160823060510108/23/16 06:05:31  5-MIN K9L2 231405Z AUTO 00000KT 10SM CLR 18/03 A3002 2210 36 3100 000/00 RMK AO2 $
53144K9L2 9L220160823061010108/23/16 06:10:31  5-MIN K9L2 231410Z AUTO 00000KT 10SM CLR 18/03 A3002 2210 35 3100 000/00 RMK AO2 $
53144K9L2 9L220160823061510108/23/16 06:15:31  5-MIN K9L2 231415Z AUTO 34003KT 10SM CLR 18/03 A3002 2210 35 3100 320/03 RMK AO2 $
53144K9L2 9L220160823062010108/23/16 06:20:31  5-MIN K9L2 231420Z AUTO 00000KT 10SM CLR 19/03 A3002 2210 35 3200 000/00 RMK AO2 $
53144K9L2 9L220160823062510108/23/16 06:25:31  5-MIN K9L2 231425Z AUTO 00000KT 10SM CLR 19/03 A3002 2210 35 3200 000/00 RMK AO2 $
53144K9L2 9L220160823063010108/23/16 06:30:31  5-MIN K9L2 231430Z AUTO 00000KT 10SM CLR 19/03 A3003 2210 34 3300 000/00 RMK AO2 $
53144K9L2 9L220160823063510108/23/16 06:35:31  5-MIN K9L2 231435Z AUTO 00000KT 10SM CLR 19/03 A3003 2200 35 3200 000/00 RMK AO2 $
53144K9L2 9L220160823064010108/23/16 06:40:31  5-MIN K9L2 231440Z AUTO 00000KT 10SM CLR 20/03 A3003 2200 33 3300 000/00 RMK AO2 $
53144K9L2 9L220160823064510108/23/16 06:45:31  5-MIN K9L2 231445Z AUTO 00000KT 10SM CLR 20/03 A3003 2200 33 3300 000/00 RMK AO2 $
53144K9L2 9L220160823065010108/23/16 06:50:31  5-MIN K9L2 231450Z AUTO 00000KT 10SM CLR 21/03 A3003 2200 32 3400 000/00 RMK AO2 $
53144K9L2 9L220160823065512408/23/16 06:55:31  5-MIN K9L2 231455Z AUTO 00000KT 10SM CLR 22/03 A3003 2200 29 3500 000/00 RMK AO2 SLP152 T02170033 51006 $
53144K9L2 9L220160823070010108/23/16 07:00:31  5-MIN K9L2 231500Z AUTO 00000KT 10SM CLR 22/03 A3003 2200 29 3500 000/00 RMK AO2 $
53144K9L2 9L220160823070510108/23/16 07:05:31  5-MIN K9L2 231505Z AUTO 00000KT 10SM CLR 22/03 A3003 2200 28 3500 000/00 RMK AO2 $
53144K9L2 9L220160823071010108/23/16 07:10:31  5-MIN K9L2 231510Z AUTO 00000KT 10SM CLR 22/03 A3003 2200 28 3500 000/00 RMK AO2 $
53144K9L2 9L220160823071510108/23/16 07:15:31  5-MIN K9L2 231515Z AUTO 00000KT 10SM CLR 22/03 A3003 2200 27 3600 000/00 RMK AO2 $
53144K9L2 9L220160823072010108/23/16 07:20:31  5-MIN K9L2 231520Z AUTO 00000KT 10SM CLR 22/02 A3004 2200 26 3600 000/00 RMK AO2 $
53144K9L2 9L220160823072510108/23/16 07:25:31  5-MIN K9L2 231525Z AUTO 09003KT 10SM CLR 22/02 A3004 2190 26 3600 080/03 RMK AO2 $
53144K9L2 9L220160823073010108/23/16 07:30:31  5-MIN K9L2 231530Z AUTO 00000KT 10SM CLR 22/03 A3004 2190 27 3600 000/00 RMK AO2 $
53144K9L2 9L220160823073510108/23/16 07:35:31  5-MIN K9L2 231535Z AUTO 00000KT 10SM CLR 22/03 A3004 2190 27 3600 000/00 RMK AO2 $
53144K9L2 9L220160823074010108/23/16 07:40:31  5-MIN K9L2 231540Z AUTO 00000KT 10SM CLR 22/03 A3004 2190 27 3600 000/00 RMK AO2 $
53144K9L2 9L220160823074510108/23/16 07:45:31  5-MIN K9L2 231545Z AUTO 00000KT 10SM CLR 22/03 A3004 2190 27 3600 000/00 RMK AO2 $
53144K9L2 9L220160823075010108/23/16 07:50:31  5-MIN K9L2 231550Z AUTO 00000KT 10SM CLR 23/03 A3004 2190 27 3600 000/00 RMK AO2 $
53144K9L2 9L220160823075511808/23/16 07:55:31  5-MIN K9L2 231555Z AUTO 11004KT 10SM CLR 23/03 A3004 2190 26 3700 100/04 RMK AO2 SLP156 T02330033 $
53144K9L2 9L220160823080010108/23/16 08:00:31  5-MIN K9L2 231600Z AUTO 14004KT 10SM CLR 24/04 A3004 2190 27 3700 120/04 RMK AO2 $
53144K9L2 9L220160823080510108/23/16 08:05:31  5-MIN K9L2 231605Z AUTO 13004KT 10SM CLR 24/04 A3004 2190 26 3800 120/04 RMK AO2 $
53144K9L2 9L220160823081010108/23/16 08:10:31  5-MIN K9L2 231610Z AUTO 13003KT 10SM CLR 26/04 A3004 2190 24 3900 110/03 RMK AO2 $
53144K9L2 9L220160823081510108/23/16 08:15:31  5-MIN K9L2 231615Z AUTO 12004KT 10SM CLR 26/04 A3005 2190 24 3900 110/04 RMK AO2 $
53144K9L2 9L220160823082010108/23/16 08:20:31  5-MIN K9L2 231620Z AUTO 14003KT 10SM CLR 25/04 A3005 2190 25 3900 130/03 RMK AO2 $
53144K9L2 9L220160823082510108/23/16 08:25:31  5-MIN K9L2 231625Z AUTO 13003KT 10SM CLR 26/04 A3004 2190 24 4000 120/03 RMK AO2 $
53144K9L2 9L220160823083010108/23/16 08:30:31  5-MIN K9L2 231630Z AUTO 00000KT 10SM CLR 27/04 A3004 2190 23 4100 000/00 RMK AO2 $
53144K9L2 9L220160823083510108/23/16 08:35:31  5-MIN K9L2 231635Z AUTO 15004KT 10SM CLR 27/04 A3005 2190 23 4100 140/04 RMK AO2 $
53144K9L2 9L220160823084010108/23/16 08:40:31  5-MIN K9L2 231640Z AUTO 00000KT 10SM CLR 27/04 A3005 2190 23 4100 000/00 RMK AO2 $
53144K9L2 9L220160823084510108/23/16 08:45:31  5-MIN K9L2 231645Z AUTO 00000KT 10SM CLR 28/04 A3004 2190 22 4200 000/00 RMK AO2 $
53144K9L2 9L220160823085509808/23/16 08:55:31  5-MIN K9L2 231655Z AUTO 00000KT A3005 M M M 000/00 RMK AO2 SLPNO PWINO FZRANO $
53144K9L2 9L220160823090009208/23/16 09:00:31  5-MIN K9L2 231700Z AUTO 00000KT 28/04 A3005 2180 21 4200 000/00 RMK AO2 $
53144K9L2 9L220160823090509708/23/16 09:05:31  5-MIN K9L2 231705Z AUTO VRB03KT 10SM 29/04 A3005 2180 20 4400 VRB/03 RMK AO2 $
53144K9L2 9L220160823091009708/23/16 09:10:31  5-MIN K9L2 231710Z AUTO 12003KT 10SM 29/05 A3005 2180 21 4400 110/03 RMK AO2 $
53144K9L2 9L220160823091509708/23/16 09:15:31  5-MIN K9L2 231715Z AUTO VRB03KT 10SM 30/05 A3005 2190 20 4400 VRB/03 RMK AO2 $
53144K9L2 9L220160823092009708/23/16 09:20:31  5-MIN K9L2 231720Z AUTO 09003KT 10SM 29/05 A3005 2190 21 4400 080/03 RMK AO2 $
53144K9L2 9L220160823092510108/23/16 09:25:31  5-MIN K9L2 231725Z AUTO 15003KT 10SM CLR 31/05 A3005 2190 19 4500 140/03 RMK AO2 $
53144K9L2 9L220160823093010108/23/16 09:30:31  5-MIN K9L2 231730Z AUTO 00000KT 10SM CLR 31/05 A3005 2190 19 4500 000/00 RMK AO2 $
53144K9L2 9L220160823093510108/23/16 09:35:31  5-MIN K9L2 231735Z AUTO VRB03KT 10SM CLR 31/05 A3004 2190 19 4500 VRB/03 RMK AO2 $
53144K9L2 9L220160823094010108/23/16 09:40:31  5-MIN K9L2 231740Z AUTO 00000KT 10SM CLR 31/05 A3004 2190 19 4500 000/00 RMK AO2 $
53144K9L2 9L220160823094510108/23/16 09:45:31  5-MIN K9L2 231745Z AUTO 12003KT 10SM CLR 32/05 A3005 2190 18 4600 110/03 RMK AO2 $
53144K9L2 9L220160823095010108/23/16 09:50:31  5-MIN K9L2 231750Z AUTO 13004KT 10SM CLR 32/05 A3005 2190 18 4600 120/04 RMK AO2 $
53144K9L2 9L220160823095513608/23/16 09:55:31  5-MIN K9L2 231755Z AUTO 00000KT 10SM CLR 32/05 A3004 2190 18 4600 000/00 RMK AO2 SLP151 6//// T03170050 10317 20167 $
53144K9L2 9L220160823100010108/23/16 10:00:31  5-MIN K9L2 231800Z AUTO 00000KT 10SM CLR 32/05 A3004 2190 17 4700 000/00 RMK AO2 $
53144K9L2 9L220160823100510108/23/16 10:05:31  5-MIN K9L2 231805Z AUTO 12005KT 10SM CLR 32/04 A3004 2190 17 4700 110/05 RMK AO2 $
53144K9L2 9L220160823101010108/23/16 10:10:31  5-MIN K9L2 231810Z AUTO 18004KT 10SM CLR 32/04 A3004 2190 17 4700 160/04 RMK AO2 $
53144K9L2 9L220160823101510108/23/16 10:15:31  5-MIN K9L2 231815Z AUTO 00000KT 10SM CLR 33/04 A3004 2190 16 4800 000/00 RMK AO2 $
53144K9L2 9L220160823102010108/23/16 10:20:31  5-MIN K9L2 231820Z AUTO 15004KT 10SM CLR 33/04 A3004 2190 16 4700 140/04 RMK AO2 $
53144K9L2 9L220160823102510108/23/16 10:25:31  5-MIN K9L2 231825Z AUTO 00000KT 10SM CLR 33/04 A3004 2200 16 4800 000/00 RMK AO2 $
53144K9L2 9L220160823103010108/23/16 10:30:31  5-MIN K9L2 231830Z AUTO VRB06KT 10SM CLR 33/04 A3004 2200 16 4800 VRB/06 RMK AO2 $
53144K9L2 9L220160823103510108/23/16 10:35:31  5-MIN K9L2 231835Z AUTO 00000KT 10SM CLR 33/04 A3004 2200 16 4700 000/00 RMK AO2 $
53144K9L2 9L220160823104010108/23/16 10:40:31  5-MIN K9L2 231840Z AUTO VRB04KT 10SM CLR 33/04 A3003 2200 16 4800 VRB/04 RMK AO2 $
53144K9L2 9L220160823104510108/23/16 10:45:31  5-MIN K9L2 231845Z AUTO 17003KT 10SM CLR 34/04 A3003 2200 15 4900 160/03 RMK AO2 $
53144K9L2 9L220160823105010108/23/16 10:50:31  5-MIN K9L2 231850Z AUTO 21006KT 10SM CLR 34/04 A3003 2200 15 4900 200/06 RMK AO2 $
53144K9L2 9L220160823105511808/23/16 10:55:31  5-MIN K9L2 231855Z AUTO 20007KT 10SM CLR 34/04 A3003 2200 15 4900 190/07 RMK AO2 SLP146 T03440044 $
53144K9L2 9L220160823110010108/23/16 11:00:31  5-MIN K9L2 231900Z AUTO VRB05KT 10SM CLR 34/04 A3003 2200 15 4900 VRB/05 RMK AO2 $
53144K9L2 9L220160823110511708/23/16 11:05:31  5-MIN K9L2 231905Z AUTO 20007KT 160V230 10SM CLR 34/04 A3003 2200 14 4900 180/07 150V220 RMK AO2 $
53144K9L2 9L220160823111010108/23/16 11:10:31  5-MIN K9L2 231910Z AUTO 00000KT 10SM CLR 34/04 A3003 2210 15 4900 000/00 RMK AO2 $
53144K9L2 9L220160823111510108/23/16 11:15:31  5-MIN K9L2 231915Z AUTO 00000KT 10SM CLR 35/04 A3002 2210 14 5000 000/00 RMK AO2 $
53144K9L2 9L220160823112010108/23/16 11:20:31  5-MIN K9L2 231920Z AUTO 27008KT 10SM CLR 35/04 A3002 2210 14 5000 260/08 RMK AO2 $
53144K9L2 9L220160823112510108/23/16 11:25:31  5-MIN K9L2 231925Z AUTO 27008KT 10SM CLR 35/04 A3002 2210 14 5000 260/08 RMK AO2 $
53144K9L2 9L220160823113010108/23/16 11:30:31  5-MIN K9L2 231930Z AUTO VRB03KT 10SM CLR 35/04 A3002 2210 14 5000 VRB/03 RMK AO2 $
53144K9L2 9L220160823113510108/23/16 11:35:31  5-MIN K9L2 231935Z AUTO 29003KT 10SM CLR 36/03 A3002 2210 13 5100 280/03 RMK AO2 $
53144K9L2 9L220160823114010108/23/16 11:40:31  5-MIN K9L2 231940Z AUTO 24008KT 10SM CLR 35/03 A3002 2210 13 5000 230/08 RMK AO2 $
53144K9L2 9L220160823114510108/23/16 11:45:31  5-MIN K9L2 231945Z AUTO 19006KT 10SM CLR 35/03 A3002 2210 13 5000 180/06 RMK AO2 $
53144K9L2 9L220160823115010108/23/16 11:50:31  5-MIN K9L2 231950Z AUTO 25007KT 10SM CLR 36/03 A3002 2210 13 5100 230/07 RMK AO2 $
53144K9L2 9L220160823115511808/23/16 11:55:31  5-MIN K9L2 231955Z AUTO VRB06KT 10SM CLR 36/03 A3002 2210 13 5100 VRB/06 RMK AO2 SLP140 T03560033 $
53144K9L2 9L220160823120010108/23/16 12:00:31  5-MIN K9L2 232000Z AUTO VRB04KT 10SM CLR 36/03 A3001 2220 12 5100 VRB/04 RMK AO2 $
53144K9L2 9L220160823120510108/23/16 12:05:31  5-MIN K9L2 232005Z AUTO 28008KT 10SM CLR 36/03 A3001 2220 12 5100 270/08 RMK AO2 $
53144K9L2 9L220160823121010108/23/16 12:10:31  5-MIN K9L2 232010Z AUTO VRB04KT 10SM CLR 36/03 A3001 2220 13 5100 VRB/04 RMK AO2 $
53144K9L2 9L220160823121510108/23/16 12:15:31  5-MIN K9L2 232015Z AUTO VRB04KT 10SM CLR 36/03 A3001 2220 13 5100 VRB/04 RMK AO2 $
53144K9L2 9L220160823122010108/23/16 12:20:31  5-MIN K9L2 232020Z AUTO 29007KT 10SM CLR 37/03 A3001 2220 12 5200 270/07 RMK AO2 $
53144K9L2 9L220160823122510108/23/16 12:25:31  5-MIN K9L2 232025Z AUTO 24009KT 10SM CLR 37/03 A3001 2220 12 5200 230/09 RMK AO2 $
53144K9L2 9L220160823123010108/23/16 12:30:31  5-MIN K9L2 232030Z AUTO 28008KT 10SM CLR 36/02 A3001 2220 11 5100 270/08 RMK AO2 $
53144K9L2 9L220160823123510108/23/16 12:35:31  5-MIN K9L2 232035Z AUTO VRB05KT 10SM CLR 36/02 A3001 2220 11 5100 VRB/05 RMK AO2 $
53144K9L2 9L220160823124010108/23/16 12:40:31  5-MIN K9L2 232040Z AUTO 30003KT 10SM CLR 37/02 A3000 2230 11 5200 290/03 RMK AO2 $
53144K9L2 9L220160823124510108/23/16 12:45:31  5-MIN K9L2 232045Z AUTO 28008KT 10SM CLR 37/02 A3000 2230 11 5200 270/08 RMK AO2 $
53144K9L2 9L220160823125010108/23/16 12:50:31  5-MIN K9L2 232050Z AUTO VRB04KT 10SM CLR 37/02 A3000 2230 11 5300 VRB/04 RMK AO2 $
53144K9L2 9L220160823125512408/23/16 12:55:31  5-MIN K9L2 232055Z AUTO 29005G15KT 10SM CLR 37/02 A3000 2230 11 5200 270/05G15 RMK AO2 SLP134 T03670022 $
53144K9L2 9L220160823130010708/23/16 13:00:31  5-MIN K9L2 232100Z AUTO 26009G15KT 10SM CLR 37/02 A3000 2230 11 5200 250/09G15 RMK AO2 $
53144K9L2 9L220160823130510708/23/16 13:05:31  5-MIN K9L2 232105Z AUTO 25008G16KT 10SM CLR 37/02 A3000 2230 11 5300 240/08G16 RMK AO2 $
53144K9L2 9L220160823131010708/23/16 13:10:31  5-MIN K9L2 232110Z AUTO 24008G16KT 10SM CLR 37/02 A3000 2230 11 5300 230/08G16 RMK AO2 $
53144K9L2 9L220160823131511708/23/16 13:15:31  5-MIN K9L2 232115Z AUTO 25007KT 220V300 10SM CLR 37/02 A2999 2240 11 5200 230/07 210V290 RMK AO2 $
53144K9L2 9L220160823132010708/23/16 13:20:31  5-MIN K9L2 232120Z AUTO 26011G16KT 10SM CLR 38/02 A2999 2240 10 5300 250/11G16 RMK AO2 $
53144K9L2 9L220160823132510708/23/16 13:25:31  5-MIN K9L2 232125Z AUTO 21008G16KT 10SM CLR 38/03 A2999 2240 11 5300 200/08G16 RMK AO2 $
53144K9L2 9L220160823133010708/23/16 13:30:31  5-MIN K9L2 232130Z AUTO VRB03G16KT 10SM CLR 37/03 A2999 2240 11 5300 VRB/03G16 RMK AO2 $
53144K9L2 9L220160823133510708/23/16 13:35:31  5-MIN K9L2 232135Z AUTO 26004G15KT 10SM CLR 37/02 A2999 2240 11 5300 250/04G15 RMK AO2 $
53144K9L2 9L220160823134010708/23/16 13:40:31  5-MIN K9L2 232140Z AUTO 26007G15KT 10SM CLR 37/02 A2998 2240 11 5300 240/07G15 RMK AO2 $
53144K9L2 9L220160823134510708/23/16 13:45:31  5-MIN K9L2 232145Z AUTO 28010G14KT 10SM CLR 37/02 A2998 2250 11 5300 260/10G14 RMK AO2 $
53144K9L2 9L220160823135010708/23/16 13:50:31  5-MIN K9L2 232150Z AUTO 27006G14KT 10SM CLR 37/02 A2998 2250 11 5300 260/06G14 RMK AO2 $
53144K9L2 9L220160823135514008/23/16 13:55:31  5-MIN K9L2 232155Z AUTO 29008G16KT 250V330 10SM CLR 38/02 A2998 2250 10 5300 280/08G16 240V320 RMK AO2 SLP126 T03780022 $
53144K9L2 9L220160823140010708/23/16 14:00:31  5-MIN K9L2 232200Z AUTO 30010G16KT 10SM CLR 38/02 A2998 2250 10 5300 280/10G16 RMK AO2 $
53144K9L2 9L220160823140510708/23/16 14:05:31  5-MIN K9L2 232205Z AUTO 27011G16KT 10SM CLR 38/02 A2997 2250 10 5300 260/11G16 RMK AO2 $
53144K9L2 9L220160823141010708/23/16 14:10:31  5-MIN K9L2 232210Z AUTO 24005G16KT 10SM CLR 37/02 A2997 2260 11 5300 220/05G16 RMK AO2 $
53144K9L2 9L220160823141511708/23/16 14:15:31  5-MIN K9L2 232215Z AUTO 28008KT 250V310 10SM CLR 38/02 A2997 2260 10 5300 260/08 240V300 RMK AO2 $
53144K9L2 9L220160823142010108/23/16 14:20:31  5-MIN K9L2 232220Z AUTO 29008KT 10SM CLR 38/02 A2997 2260 10 5300 280/08 RMK AO2 $
53144K9L2 9L220160823142510708/23/16 14:25:31  5-MIN K9L2 232225Z AUTO 29007G14KT 10SM CLR 37/02 A2997 2260 11 5300 270/07G14 RMK AO2 $
53144K9L2 9L220160823143011708/23/16 14:30:31  5-MIN K9L2 232230Z AUTO 28008KT 260V320 10SM CLR 38/02 A2997 2260 10 5300 270/08 250V310 RMK AO2 $
53144K9L2 9L220160823143510708/23/16 14:35:31  5-MIN K9L2 232235Z AUTO 28011G19KT 10SM CLR 38/03 A2997 2260 11 5400 270/11G19 RMK AO2 $
53144K9L2 9L220160823144010708/23/16 14:40:31  5-MIN K9L2 232240Z AUTO 28008G19KT 10SM CLR 38/03 A2996 2260 11 5300 270/08G19 RMK AO2 $
53144K9L2 9L220160823144510708/23/16 14:45:31  5-MIN K9L2 232245Z AUTO 28013G17KT 10SM CLR 38/02 A2996 2260 10 5300 270/13G17 RMK AO2 $
53144K9L2 9L220160823145010708/23/16 14:50:31  5-MIN K9L2 232250Z AUTO 30009G17KT 10SM CLR 38/03 A2996 2260 11 5400 290/09G17 RMK AO2 $
53144K9L2 9L220160823145511808/23/16 14:55:31  5-MIN K9L2 232255Z AUTO 28010KT 10SM CLR 37/02 A2996 2270 11 5300 260/10 RMK AO2 SLP122 T03720022 $
53144K9L2 9L220160823150010708/23/16 15:00:31  5-MIN K9L2 232300Z AUTO 26007G16KT 10SM CLR 38/02 A2996 2270 10 5400 250/07G16 RMK AO2 $
53144K9L2 9L220160823150511708/23/16 15:05:31  5-MIN K9L2 232305Z AUTO 27007KT 220V300 10SM CLR 38/02 A2996 2270 10 5400 260/07 210V290 RMK AO2 $
53144K9L2 9L220160823151012308/23/16 15:10:31  5-MIN K9L2 232310Z AUTO 26010G18KT 220V300 10SM CLR 38/02 A2995 2270 10 5400 240/10G18 210V290 RMK AO2 $
53144K9L2 9L220160823151510708/23/16 15:15:31  5-MIN K9L2 232315Z AUTO 27014G20KT 10SM CLR 38/02 A2996 2270 10 5400 260/14G20 RMK AO2 $
53144K9L2 9L220160823152010708/23/16 15:20:31  5-MIN K9L2 232320Z AUTO 26013G20KT 10SM CLR 38/03 A2995 2270 11 5400 250/13G20 RMK AO2 $
53144K9L2 9L220160823152510708/23/16 15:25:31  5-MIN K9L2 232325Z AUTO 27014G20KT 10SM CLR 38/03 A2996 2270 11 5400 260/14G20 RMK AO2 $
53144K9L2 9L220160823153010708/23/16 15:30:31  5-MIN K9L2 232330Z AUTO 26014G20KT 10SM CLR 38/03 A2996 2270 11 5400 240/14G20 RMK AO2 $
53144K9L2 9L220160823153510708/23/16 15:35:31  5-MIN K9L2 232335Z AUTO 26013G20KT 10SM CLR 38/03 A2996 2270 11 5400 250/13G20 RMK AO2 $
53144K9L2 9L220160823154010108/23/16 15:40:31  5-MIN K9L2 232340Z AUTO 27015KT 10SM CLR 38/03 A2996 2270 11 5400 250/15 RMK AO2 $
53144K9L2 9L220160823154510708/23/16 15:45:31  5-MIN K9L2 232345Z AUTO 27012G20KT 10SM CLR 37/03 A2996 2270 11 5300 260/12G20 RMK AO2 $
53144K9L2 9L220160823155010708/23/16 15:50:31  5-MIN K9L2 232350Z AUTO 27015G19KT 10SM CLR 37/03 A2996 2270 11 5300 250/15G19 RMK AO2 $
53144K9L2 9L220160823155513608/23/16 15:55:31  5-MIN K9L2 232355Z AUTO 27016KT 10SM CLR 37/03 A2996 2270 11 5300 250/16 RMK AO2 SLP120 T03720028 10383 20322 58015 $
53144K9L2 9L220160823160010108/23/16 16:00:31  5-MIN K9L2 240000Z AUTO 27015KT 10SM CLR 37/03 A2996 2270 11 5300 260/15 RMK AO2 $
53144K9L2 9L220160823160510108/23/16 16:05:31  5-MIN K9L2 240005Z AUTO 27014KT 10SM CLR 37/03 A2996 2270 11 5300 260/14 RMK AO2 $
53144K9L2 9L220160823161010108/23/16 16:10:31  5-MIN K9L2 240010Z AUTO 28014KT 10SM CLR 37/03 A2996 2270 12 5300 260/14 RMK AO2 $
53144K9L2 9L220160823161510708/23/16 16:15:31  5-MIN K9L2 240015Z AUTO 26016G20KT 10SM CLR 37/03 A2996 2270 12 5200 250/16G20 RMK AO2 $
53144K9L2 9L220160823162010708/23/16 16:20:31  5-MIN K9L2 240020Z AUTO 26017G20KT 10SM CLR 37/03 A2996 2270 12 5200 250/17G20 RMK AO2 $
53144K9L2 9L220160823162510108/23/16 16:25:31  5-MIN K9L2 240025Z AUTO 26017KT 10SM CLR 37/04 A2996 2270 13 5200 250/17 RMK AO2 $
53144K9L2 9L220160823163010708/23/16 16:30:31  5-MIN K9L2 240030Z AUTO 27016G22KT 10SM CLR 37/04 A2996 2270 13 5200 250/16G22 RMK AO2 $
53144K9L2 9L220160823163510708/23/16 16:35:31  5-MIN K9L2 240035Z AUTO 27016G21KT 10SM CLR 37/04 A2996 2270 13 5200 250/16G21 RMK AO2 $
53144K9L2 9L220160823164010108/23/16 16:40:31  5-MIN K9L2 240040Z AUTO 27016KT 10SM CLR 36/04 A2996 2270 13 5200 260/16 RMK AO2 $
53144K9L2 9L220160823164510108/23/16 16:45:31  5-MIN K9L2 240045Z AUTO 27017KT 10SM CLR 36/04 A2996 2270 13 5200 260/17 RMK AO2 $
53144K9L2 9L220160823165010108/23/16 16:50:31  5-MIN K9L2 240050Z AUTO 26019KT 10SM CLR 36/04 A2996 2270 13 5200 250/19 RMK AO2 $
53144K9L2 9L220160823165512408/23/16 16:55:31  5-MIN K9L2 240055Z AUTO 27018G23KT 10SM CLR 36/04 A2996 2270 14 5100 260/18G23 RMK AO2 SLP124 T03560044 $
53144K9L2 9L220160823170010708/23/16 17:00:31  5-MIN K9L2 240100Z AUTO 27019G23KT 10SM CLR 36/05 A2996 2270 14 5100 260/19G23 RMK AO2 $
53144K9L2 9L220160823170510708/23/16 17:05:31  5-MIN K9L2 240105Z AUTO 27018G23KT 10SM CLR 35/05 A2996 2260 15 5100 250/18G23 RMK AO2 $
53144K9L2 9L220160823171010708/23/16 17:10:31  5-MIN K9L2 240110Z AUTO 27016G23KT 10SM CLR 35/05 A2996 2260 15 5100 250/16G23 RMK AO2 $
53144K9L2 9L220160823171510708/23/16 17:15:31  5-MIN K9L2 240115Z AUTO 27017G23KT 10SM CLR 35/05 A2996 2260 15 5100 260/17G23 RMK AO2 $
53144K9L2 9L220160823172010708/23/16 17:20:31  5-MIN K9L2 240120Z AUTO 26017G22KT 10SM CLR 34/05 A2996 2260 15 5000 250/17G22 RMK AO2 $
53144K9L2 9L220160823172510708/23/16 17:25:31  5-MIN K9L2 240125Z AUTO 27019G24KT 10SM CLR 34/05 A2997 2260 15 5000 260/19G24 RMK AO2 $
53144K9L2 9L220160823173010708/23/16 17:30:31  5-MIN K9L2 240130Z AUTO 27018G24KT 10SM CLR 34/05 A2997 2260 16 4900 260/18G24 RMK AO2 $
53144K9L2 9L220160823173510708/23/16 17:35:31  5-MIN K9L2 240135Z AUTO 27017G23KT 10SM CLR 34/05 A2997 2260 16 4900 250/17G23 RMK AO2 $
53144K9L2 9L220160823174010708/23/16 17:40:31  5-MIN K9L2 240140Z AUTO 27020G23KT 10SM CLR 33/05 A2997 2250 16 4900 260/20G23 RMK AO2 $
53144K9L2 9L220160823174510708/23/16 17:45:31  5-MIN K9L2 240145Z AUTO 27020G23KT 10SM CLR 33/05 A2998 2250 16 4900 260/20G23 RMK AO2 $
53144K9L2 9L220160823175010108/23/16 17:50:31  5-MIN K9L2 240150Z AUTO 27017KT 10SM CLR 33/05 A2998 2250 17 4800 260/17 RMK AO2 $
53144K9L2 9L220160823175514208/23/16 17:55:31  5-MIN K9L2 240155Z AUTO 27019G26KT 10SM CLR 33/05 A2998 2250 17 4800 260/19G26 RMK AO2 PK WND 28026/0152 SLP132 T03280050 $
53144K9L2 9L220160823180010708/23/16 18:00:31  5-MIN K9L2 240200Z AUTO 28021G26KT 10SM CLR 33/05 A2998 2250 17 4800 260/21G26 RMK AO2 $
53144K9L2 9L220160823180510708/23/16 18:05:31  5-MIN K9L2 240205Z AUTO 28018G24KT 10SM CLR 32/05 A2998 2240 17 4700 260/18G24 RMK AO2 $
53144K9L2 9L220160823181010708/23/16 18:10:31  5-MIN K9L2 240210Z AUTO 27016G24KT 10SM CLR 32/05 A2999 2240 17 4700 260/16G24 RMK AO2 $
53144K9L2 9L220160823181510708/23/16 18:15:31  5-MIN K9L2 240215Z AUTO 27015G23KT 10SM CLR 32/05 A2999 2240 18 4700 260/15G23 RMK AO2 $
53144K9L2 9L220160823182010108/23/16 18:20:31  5-MIN K9L2 240220Z AUTO 27016KT 10SM CLR 32/05 A2999 2240 18 4700 260/16 RMK AO2 $
53144K9L2 9L220160823182510108/23/16 18:25:31  5-MIN K9L2 240225Z AUTO 28014KT 10SM CLR 32/05 A2999 2240 18 4700 260/14 RMK AO2 $
53144K9L2 9L220160823183010108/23/16 18:30:31  5-MIN K9L2 240230Z AUTO 27014KT 10SM CLR 31/05 A2999 2230 19 4600 260/14 RMK AO2 $
53144K9L2 9L220160823183510108/23/16 18:35:31  5-MIN K9L2 240235Z AUTO 27013KT 10SM CLR 31/05 A3000 2230 19 4600 260/13 RMK AO2 $
53144K9L2 9L220160823184010108/23/16 18:40:31  5-MIN K9L2 240240Z AUTO 27011KT 10SM CLR 31/05 A3000 2230 19 4600 260/11 RMK AO2 $
53144K9L2 9L220160823184510108/23/16 18:45:31  5-MIN K9L2 240245Z AUTO 26010KT 10SM CLR 31/05 A3000 2230 19 4500 250/10 RMK AO2 $
53144K9L2 9L220160823185010108/23/16 18:50:31  5-MIN K9L2 240250Z AUTO 26011KT 10SM CLR 31/05 A3000 2230 19 4500 250/11 RMK AO2 $
53144K9L2 9L220160823185512408/23/16 18:55:31  5-MIN K9L2 240255Z AUTO 25010KT 10SM CLR 31/04 A3000 2230 19 4500 240/10 RMK AO2 SLP140 T03060044 56013 $
53144K9L2 9L220160823190010108/23/16 19:00:31  5-MIN K9L2 240300Z AUTO 26009KT 10SM CLR 30/04 A3000 2220 19 4500 240/09 RMK AO2 $
53144K9L2 9L220160823190510108/23/16 19:05:31  5-MIN K9L2 240305Z AUTO 26007KT 10SM CLR 30/04 A3001 2220 19 4500 250/07 RMK AO2 $
53144K9L2 9L220160823191010108/23/16 19:10:31  5-MIN K9L2 240310Z AUTO 26009KT 10SM CLR 30/04 A3001 2220 19 4500 240/09 RMK AO2 $
53144K9L2 9L220160823191510108/23/16 19:15:31  5-MIN K9L2 240315Z AUTO 26008KT 10SM CLR 30/04 A3001 2220 19 4500 250/08 RMK AO2 $
53144K9L2 9L220160823192010108/23/16 19:20:31  5-MIN K9L2 240320Z AUTO 24006KT 10SM CLR 29/04 A3001 2220 20 4400 230/06 RMK AO2 $
53144K9L2 9L220160823192510108/23/16 19:25:31  5-MIN K9L2 240325Z AUTO 27008KT 10SM CLR 29/04 A3001 2220 20 4400 250/08 RMK AO2 $
53144K9L2 9L220160823193010108/23/16 19:30:31  5-MIN K9L2 240330Z AUTO 25007KT 10SM CLR 29/04 A3001 2220 20 4400 230/07 RMK AO2 $
53144K9L2 9L220160823193510108/23/16 19:35:31  5-MIN K9L2 240335Z AUTO 24005KT 10SM CLR 29/04 A3001 2220 20 4400 230/05 RMK AO2 $
53144K9L2 9L220160823194010108/23/16 19:40:31  5-MIN K9L2 240340Z AUTO 27006KT 10SM CLR 29/04 A3001 2220 20 4300 260/06 RMK AO2 $
53144K9L2 9L220160823194510108/23/16 19:45:31  5-MIN K9L2 240345Z AUTO 26007KT 10SM CLR 29/04 A3002 2210 20 4300 250/07 RMK AO2 $
53144K9L2 9L220160823195010108/23/16 19:50:31  5-MIN K9L2 240350Z AUTO 26006KT 10SM CLR 29/04 A3002 2210 20 4300 250/06 RMK AO2 $
53144K9L2 9L220160823195511808/23/16 19:55:31  5-MIN K9L2 240355Z AUTO 25007KT 10SM CLR 29/04 A3002 2210 20 4300 240/07 RMK AO2 SLP147 T02890044 $
53144K9L2 9L220160823200010108/23/16 20:00:31  5-MIN K9L2 240400Z AUTO 22009KT 10SM CLR 28/04 A3002 2210 21 4300 210/09 RMK AO2 $
53144K9L2 9L220160823200510108/23/16 20:05:31  5-MIN K9L2 240405Z AUTO 22009KT 10SM CLR 29/04 A3002 2210 20 4300 210/09 RMK AO2 $
53144K9L2 9L220160823201010108/23/16 20:10:31  5-MIN K9L2 240410Z AUTO 23009KT 10SM CLR 28/04 A3002 2210 21 4300 220/09 RMK AO2 $
53144K9L2 9L220160823201510108/23/16 20:15:31  5-MIN K9L2 240415Z AUTO 23011KT 10SM CLR 28/04 A3002 2210 21 4300 210/11 RMK AO2 $
53144K9L2 9L220160823202010108/23/16 20:20:31  5-MIN K9L2 240420Z AUTO 23012KT 10SM CLR 28/04 A3002 2210 22 4200 220/12 RMK AO2 $
53144K9L2 9L220160823202510108/23/16 20:25:31  5-MIN K9L2 240425Z AUTO 24010KT 10SM CLR 28/04 A3003 2210 22 4200 230/10 RMK AO2 $
53144K9L2 9L220160823203010108/23/16 20:30:31  5-MIN K9L2 240430Z AUTO 24009KT 10SM CLR 28/04 A3003 2200 22 4200 220/09 RMK AO2 $
53144K9L2 9L220160823203510108/23/16 20:35:31  5-MIN K9L2 240435Z AUTO 23010KT 10SM CLR 28/04 A3003 2200 21 4300 220/10 RMK AO2 $
53144K9L2 9L220160823204010108/23/16 20:40:31  5-MIN K9L2 240440Z AUTO 24009KT 10SM CLR 28/04 A3003 2200 21 4300 230/09 RMK AO2 $
53144K9L2 9L220160823204510108/23/16 20:45:31  5-MIN K9L2 240445Z AUTO 27008KT 10SM CLR 28/04 A3003 2200 20 4300 260/08 RMK AO2 $
53144K9L2 9L220160823205010708/23/16 20:50:31  5-MIN K9L2 240450Z AUTO 29012G16KT 10SM CLR 29/04 A3003 2200 20 4300 280/12G16 RMK AO2 $
53144K9L2 9L220160823205511708/23/16 20:55:31  5-MIN K9L2 240455Z AUTO 29011KT 10SM CLR 29/04 A3003 2200 20 4300 280/11 RMK AO2 SLPNO T02890039 $
53144K9L2 9L220160823210010108/23/16 21:00:31  5-MIN K9L2 240500Z AUTO 28013KT 10SM CLR 29/04 A3003 2200 20 4300 270/13 RMK AO2 $
53144K9L2 9L220160823210510108/23/16 21:05:31  5-MIN K9L2 240505Z AUTO 28010KT 10SM CLR 29/04 A3003 2200 20 4300 260/10 RMK AO2 $
53144K9L2 9L220160823211010108/23/16 21:10:31  5-MIN K9L2 240510Z AUTO 25009KT 10SM CLR 28/04 A3004 2200 21 4300 240/09 RMK AO2 $
53144K9L2 9L220160823211510108/23/16 21:15:31  5-MIN K9L2 240515Z AUTO 25009KT 10SM CLR 28/04 A3004 2190 21 4200 240/09 RMK AO2 $
53144K9L2 9L220160823212010108/23/16 21:20:31  5-MIN K9L2 240520Z AUTO 25011KT 10SM CLR 28/04 A3004 2190 22 4200 230/11 RMK AO2 $
53144K9L2 9L220160823212510108/23/16 21:25:31  5-MIN K9L2 240525Z AUTO 25012KT 10SM CLR 28/04 A3004 2200 22 4200 240/12 RMK AO2 $
53144K9L2 9L220160823213010108/23/16 21:30:31  5-MIN K9L2 240530Z AUTO 26011KT 10SM CLR 28/04 A3004 2190 21 4300 240/11 RMK AO2 $
53144K9L2 9L220160823213510108/23/16 21:35:31  5-MIN K9L2 240535Z AUTO 25011KT 10SM CLR 28/04 A3004 2190 21 4200 240/11 RMK AO2 $
53144K9L2 9L220160823214010108/23/16 21:40:31  5-MIN K9L2 240540Z AUTO 24009KT 10SM CLR 28/04 A3004 2190 22 4200 220/09 RMK AO2 $
53144K9L2 9L220160823214510108/23/16 21:45:31  5-MIN K9L2 240545Z AUTO 22009KT 10SM CLR 28/04 A3004 2190 22 4200 210/09 RMK AO2 $
53144K9L2 9L220160823215010108/23/16 21:50:31  5-MIN K9L2 240550Z AUTO 23008KT 10SM CLR 27/04 A3004 2190 22 4100 220/08 RMK AO2 $
53144K9L2 9L220160823215513608/23/16 21:55:31  5-MIN K9L2 240555Z AUTO 23009KT 10SM CLR 28/04 A3004 2200 21 4200 220/09 RMK AO2 SLP147 T02780039 10372 20272 53015 $
53144K9L2 9L220160823220010108/23/16 22:00:31  5-MIN K9L2 240600Z AUTO 23010KT 10SM CLR 28/04 A3004 2200 21 4200 220/10 RMK AO2 $
53144K9L2 9L220160823220510108/23/16 22:05:31  5-MIN K9L2 240605Z AUTO 22011KT 10SM CLR 27/04 A3004 2200 22 4100 210/11 RMK AO2 $
53144K9L2 9L220160823221010108/23/16 22:10:31  5-MIN K9L2 240610Z AUTO 23009KT 10SM CLR 27/04 A3003 2200 22 4100 210/09 RMK AO2 $
53144K9L2 9L220160823221510108/23/16 22:15:31  5-MIN K9L2 240615Z AUTO 24009KT 10SM CLR 27/04 A3003 2200 22 4100 230/09 RMK AO2 $
53144K9L2 9L220160823222010108/23/16 22:20:31  5-MIN K9L2 240620Z AUTO 24010KT 10SM CLR 27/04 A3003 2200 22 4100 230/10 RMK AO2 $
53144K9L2 9L220160823222510108/23/16 22:25:31  5-MIN K9L2 240625Z AUTO 24009KT 10SM CLR 27/04 A3003 2200 22 4100 220/09 RMK AO2 $
53144K9L2 9L220160823223010108/23/16 22:30:31  5-MIN K9L2 240630Z AUTO 22006KT 10SM CLR 27/04 A3003 2200 22 4100 210/06 RMK AO2 $
53144K9L2 9L220160823223510108/23/16 22:35:31  5-MIN K9L2 240635Z AUTO 23009KT 10SM CLR 27/03 A3003 2200 22 4100 220/09 RMK AO2 $
53144K9L2 9L220160823224010108/23/16 22:40:31  5-MIN K9L2 240640Z AUTO 24009KT 10SM CLR 27/03 A3003 2200 21 4100 220/09 RMK AO2 $
53144K9L2 9L220160823224510108/23/16 22:45:31  5-MIN K9L2 240645Z AUTO 24010KT 10SM CLR 27/03 A3003 2200 21 4100 230/10 RMK AO2 $
53144K9L2 9L220160823225010108/23/16 22:50:31  5-MIN K9L2 240650Z AUTO 25010KT 10SM CLR 27/03 A3003 2200 21 4100 240/10 RMK AO2 $
53144K9L2 9L220160823225511808/23/16 22:55:31  5-MIN K9L2 240655Z AUTO 25010KT 10SM CLR 27/03 A3003 2200 20 4100 240/10 RMK AO2 SLP144 T02720028 $
53144K9L2 9L220160823230010108/23/16 23:00:31  5-MIN K9L2 240700Z AUTO 25008KT 10SM CLR 27/03 A3003 2200 20 4100 240/08 RMK AO2 $
53144K9L2 9L220160823230510108/23/16 23:05:31  5-MIN K9L2 240705Z AUTO 23007KT 10SM CLR 27/03 A3003 2200 21 4100 220/07 RMK AO2 $
53144K9L2 9L220160823231010108/23/16 23:10:31  5-MIN K9L2 240710Z AUTO 22006KT 10SM CLR 26/03 A3003 2200 21 4000 200/06 RMK AO2 $
53144K9L2 9L220160823231510108/23/16 23:15:31  5-MIN K9L2 240715Z AUTO 18005KT 10SM CLR 26/03 A3003 2200 22 3900 170/05 RMK AO2 $
53144K9L2 9L220160823232010108/23/16 23:20:31  5-MIN K9L2 240720Z AUTO 18007KT 10SM CLR 24/03 A3003 2200 25 3800 170/07 RMK AO2 $
53144K9L2 9L220160823232510108/23/16 23:25:31  5-MIN K9L2 240725Z AUTO 19009KT 10SM CLR 24/03 A3004 2200 25 3800 170/09 RMK AO2 $
53144K9L2 9L220160823233010108/23/16 23:30:31  5-MIN K9L2 240730Z AUTO 19008KT 10SM CLR 24/03 A3004 2200 25 3800 180/08 RMK AO2 $
53144K9L2 9L220160823233510108/23/16 23:35:31  5-MIN K9L2 240735Z AUTO 20007KT 10SM CLR 25/03 A3004 2200 24 3900 190/07 RMK AO2 $
53144K9L2 9L220160823234010108/23/16 23:40:31  5-MIN K9L2 240740Z AUTO 21007KT 10SM CLR 25/03 A3004 2190 24 3900 200/07 RMK AO2 $
53144K9L2 9L220160823234510108/23/16 23:45:31  5-MIN K9L2 240745Z AUTO 21007KT 10SM CLR 25/03 A3004 2190 24 3900 200/07 RMK AO2 $
53144K9L2 9L220160823235010108/23/16 23:50:31  5-MIN K9L2 240750Z AUTO 22006KT 10SM CLR 25/03 A3004 2190 24 3900 210/06 RMK AO2 $
53144K9L2 9L220160823235512808/23/16 23:55:31  5-MIN K9L2 240755Z AUTO 23005KT 10SM CLR 25/03 A3004 2200 24 3900 210/05 RMK AO2 SLP146 T02500033 403830167 $
53144K9L2 9L220160824000010108/24/16 00:00:31  5-MIN K9L2 240800Z AUTO 23005KT 10SM CLR 24/03 A3004 2200 25 3800 220/05 RMK AO2 $
53144K9L2 9L220160824000510108/24/16 00:05:31  5-MIN K9L2 240805Z AUTO 20006KT 10SM CLR 24/03 A3004 2200 25 3800 190/06 RMK AO2 $
53144K9L2 9L220160824001010108/24/16 00:10:31  5-MIN K9L2 240810Z AUTO 21006KT 10SM CLR 24/03 A3004 2200 25 3800 200/06 RMK AO2 $
53144K9L2 9L220160824001510108/24/16 00:15:31  5-MIN K9L2 240815Z AUTO 22007KT 10SM CLR 24/03 A3004 2200 25 3800 200/07 RMK AO2 $
53144K9L2 9L220160824002010108/24/16 00:20:31  5-MIN K9L2 240820Z AUTO 21006KT 10SM CLR 23/03 A3004 2200 25 3700 190/06 RMK AO2 $
53144K9L2 9L220160824002510108/24/16 00:25:31  5-MIN K9L2 240825Z AUTO 19006KT 10SM CLR 23/03 A3004 2190 25 3700 180/06 RMK AO2 $
53144K9L2 9L220160824003010108/24/16 00:30:31  5-MIN K9L2 240830Z AUTO 19006KT 10SM CLR 23/03 A3004 2190 26 3600 170/06 RMK AO2 $
53144K9L2 9L220160824003510108/24/16 00:35:31  5-MIN K9L2 240835Z AUTO 20006KT 10SM CLR 23/03 A3004 2190 26 3600 190/06 RMK AO2 $
53144K9L2 9L220160824004010108/24/16 00:40:31  5-MIN K9L2 240840Z AUTO 20007KT 10SM CLR 23/03 A3004 2200 26 3600 180/07 RMK AO2 $
53144K9L2 9L220160824004510108/24/16 00:45:31  5-MIN K9L2 240845Z AUTO 21008KT 10SM CLR 24/03 A3003 2200 26 3800 190/08 RMK AO2 $
53144K9L2 9L220160824005010108/24/16 00:50:31  5-MIN K9L2 240850Z AUTO 22005KT 10SM CLR 23/03 A3003 2200 26 3700 210/05 RMK AO2 $
53144K9L2 9L220160824005512408/24/16 00:55:31  5-MIN K9L2 240855Z AUTO 24005KT 10SM CLR 24/03 A3003 2200 26 3800 220/05 RMK AO2 SLP146 T02390033 51010 $
53144K9L2 9L220160824010010108/24/16 01:00:31  5-MIN K9L2 240900Z AUTO 00000KT 10SM CLR 23/03 A3003 2200 26 3700 000/00 RMK AO2 $
53144K9L2 9L220160824010510108/24/16 01:05:31  5-MIN K9L2 240905Z AUTO 18005KT 10SM CLR 23/03 A3003 2200 26 3600 160/05 RMK AO2 $
53144K9L2 9L220160824011010108/24/16 01:10:31  5-MIN K9L2 240910Z AUTO 18004KT 10SM CLR 23/03 A3003 2200 27 3600 170/04 RMK AO2 $
53144K9L2 9L220160824011510108/24/16 01:15:31  5-MIN K9L2 240915Z AUTO 20004KT 10SM CLR 23/03 A3003 2200 27 3600 190/04 RMK AO2 $
53144K9L2 9L220160824012010108/24/16 01:20:31  5-MIN K9L2 240920Z AUTO 22003KT 10SM CLR 23/03 A3003 2200 27 3600 210/03 RMK AO2 $
53144K9L2 9L220160824012510108/24/16 01:25:31  5-MIN K9L2 240925Z AUTO 00000KT 10SM CLR 23/03 A3003 2200 27 3600 000/00 RMK AO2 $
53144K9L2 9L220160824013010108/24/16 01:30:31  5-MIN K9L2 240930Z AUTO 19004KT 10SM CLR 23/03 A3003 2200 26 3600 170/04 RMK AO2 $
53144K9L2 9L220160824013510108/24/16 01:35:31  5-MIN K9L2 240935Z AUTO 21006KT 10SM CLR 23/03 A3004 2200 26 3600 190/06 RMK AO2 $
53144K9L2 9L220160824014010108/24/16 01:40:31  5-MIN K9L2 240940Z AUTO 19006KT 10SM CLR 23/03 A3004 2200 26 3600 180/06 RMK AO2 $
53144K9L2 9L220160824014510108/24/16 01:45:31  5-MIN K9L2 240945Z AUTO 20007KT 10SM CLR 22/03 A3003 2200 27 3600 180/07 RMK AO2 $
53144K9L2 9L220160824015010108/24/16 01:50:31  5-MIN K9L2 240950Z AUTO 20007KT 10SM CLR 22/03 A3003 2200 28 3600 180/07 RMK AO2 $
53144K9L2 9L220160824015511808/24/16 01:55:31  5-MIN K9L2 240955Z AUTO 19006KT 10SM CLR 22/03 A3003 2200 28 3600 170/06 RMK AO2 SLP146 T02220033 $
53144K9L2 9L220160824020010108/24/16 02:00:31  5-MIN K9L2 241000Z AUTO 19008KT 10SM CLR 22/03 A3003 2200 28 3600 170/08 RMK AO2 $
53144K9L2 9L220160824020510108/24/16 02:05:31  5-MIN K9L2 241005Z AUTO 19007KT 10SM CLR 22/04 A3003 2200 30 3600 170/07 RMK AO2 $
53144K9L2 9L220160824021010108/24/16 02:10:31  5-MIN K9L2 241010Z AUTO 18006KT 10SM CLR 22/03 A3003 2200 29 3500 170/06 RMK AO2 $
53144K9L2 9L220160824021510108/24/16 02:15:31  5-MIN K9L2 241015Z AUTO 18006KT 10SM CLR 22/03 A3003 2200 29 3500 170/06 RMK AO2 $
53144K9L2 9L220160824022010108/24/16 02:20:31  5-MIN K9L2 241020Z AUTO 19006KT 10SM CLR 21/03 A3003 2200 30 3500 170/06 RMK AO2 $
53144K9L2 9L220160824022510108/24/16 02:25:31  5-MIN K9L2 241025Z AUTO 19007KT 10SM CLR 21/03 A3003 2200 30 3500 180/07 RMK AO2 $
53144K9L2 9L220160824023010108/24/16 02:30:31  5-MIN K9L2 241030Z AUTO 20007KT 10SM CLR 22/03 A3003 2200 29 3500 190/07 RMK AO2 $
53144K9L2 9L220160824023510108/24/16 02:35:31  5-MIN K9L2 241035Z AUTO 18006KT 10SM CLR 22/04 A3003 2200 31 3500 170/06 RMK AO2 $
53144K9L2 9L220160824024010108/24/16 02:40:31  5-MIN K9L2 241040Z AUTO 19007KT 10SM CLR 21/03 A3003 2200 30 3400 180/07 RMK AO2 $
53144K9L2 9L220160824024510108/24/16 02:45:31  5-MIN K9L2 241045Z AUTO 20006KT 10SM CLR 21/04 A3003 2200 32 3500 190/06 RMK AO2 $
53144K9L2 9L220160824025010108/24/16 02:50:31  5-MIN K9L2 241050Z AUTO 19005KT 10SM CLR 21/04 A3003 2200 32 3500 180/05 RMK AO2 $
53144K9L2 9L220160824025511808/24/16 02:55:31  5-MIN K9L2 241055Z AUTO 19004KT 10SM CLR 21/03 A3003 2200 30 3500 180/04 RMK AO2 SLP146 T02110033 $
53144K9L2 9L220160824030010108/24/16 03:00:31  5-MIN K9L2 241100Z AUTO 19004KT 10SM CLR 21/03 A3003 2200 30 3500 180/04 RMK AO2 $
53144K9L2 9L220160824030510108/24/16 03:05:31  5-MIN K9L2 241105Z AUTO 18003KT 10SM CLR 21/03 A3003 2200 32 3400 170/03 RMK AO2 $
53144K9L2 9L220160824031010108/24/16 03:10:31  5-MIN K9L2 241110Z AUTO 00000KT 10SM CLR 21/04 A3003 2200 32 3500 000/00 RMK AO2 $
53144K9L2 9L220160824031510108/24/16 03:15:31  5-MIN K9L2 241115Z AUTO 17005KT 10SM CLR 21/04 A3003 2200 32 3500 160/05 RMK AO2 $
53144K9L2 9L220160824032010108/24/16 03:20:31  5-MIN K9L2 241120Z AUTO 20006KT 10SM CLR 22/04 A3003 2200 31 3500 190/06 RMK AO2 $
53144K9L2 9L220160824032510108/24/16 03:25:31  5-MIN K9L2 241125Z AUTO 19005KT 10SM CLR 22/04 A3003 2200 32 3500 170/05 RMK AO2 $
53144K9L2 9L220160824033010108/24/16 03:30:31  5-MIN K9L2 241130Z AUTO 19006KT 10SM CLR 22/04 A3003 2200 32 3500 180/06 RMK AO2 $
53144K9L2 9L220160824033510108/24/16 03:35:31  5-MIN K9L2 241135Z AUTO 21006KT 10SM CLR 21/04 A3003 2200 33 3500 190/06 RMK AO2 $
53144K9L2 9L220160824034010108/24/16 03:40:31  5-MIN K9L2 241140Z AUTO 21004KT 10SM CLR 21/04 A3003 2200 33 3500 190/04 RMK AO2 $
53144K9L2 9L220160824034510108/24/16 03:45:31  5-MIN K9L2 241145Z AUTO 21005KT 10SM CLR 21/04 A3003 2200 33 3500 200/05 RMK AO2 $
53144K9L2 9L220160824035010108/24/16 03:50:31  5-MIN K9L2 241150Z AUTO 22004KT 10SM CLR 21/04 A3003 2200 33 3500 200/04 RMK AO2 $
53144K9L2 9L220160824035514208/24/16 03:55:31  5-MIN K9L2 241155Z AUTO 21004KT 10SM CLR 21/04 A3003 2200 33 3400 190/04 RMK AO2 SLP147 7//// T02110044 10278 20206 56001 $
53144K9L2 9L220160824040010108/24/16 04:00:31  5-MIN K9L2 241200Z AUTO 21003KT 10SM CLR 21/04 A3003 2200 33 3500 200/03 RMK AO2 $
53144K9L2 9L220160824040510108/24/16 04:05:31  5-MIN K9L2 241205Z AUTO 00000KT 10SM CLR 21/04 A3003 2200 34 3400 000/00 RMK AO2 $
53144K9L2 9L220160824041010108/24/16 04:10:31  5-MIN K9L2 241210Z AUTO 00000KT 10SM CLR 21/04 A3003 2200 34 3400 000/00 RMK AO2 $
53144K9L2 9L220160824041510108/24/16 04:15:31  5-MIN K9L2 241215Z AUTO 00000KT 10SM CLR 19/04 A3003 2200 35 3300 000/00 RMK AO2 $
53144K9L2 9L220160824042010108/24/16 04:20:31  5-MIN K9L2 241220Z AUTO 00000KT 10SM CLR 18/03 A3003 2200 35 3100 000/00 RMK AO2 $
53144K9L2 9L220160824042510108/24/16 04:25:31  5-MIN K9L2 241225Z AUTO 00000KT 10SM CLR 18/03 A3003 2200 35 3100 000/00 RMK AO2 $
53144K9L2 9L220160824043010108/24/16 04:30:31  5-MIN K9L2 241230Z AUTO 00000KT 10SM CLR 18/03 A3004 2200 35 3100 000/00 RMK AO2 $
53144K9L2 9L220160824043510108/24/16 04:35:31  5-MIN K9L2 241235Z AUTO 00000KT 10SM CLR 19/03 A3004 2200 34 3200 000/00 RMK AO2 $
53144K9L2 9L220160824044010108/24/16 04:40:31  5-MIN K9L2 241240Z AUTO 00000KT 10SM CLR 19/03 A3004 2190 34 3200 000/00 RMK AO2 $
53144K9L2 9L220160824044510108/24/16 04:45:31  5-MIN K9L2 241245Z AUTO 36003KT 10SM CLR 18/02 A3004 2190 34 3100 340/03 RMK AO2 $
53144K9L2 9L220160824045010108/24/16 04:50:31  5-MIN K9L2 241250Z AUTO 00000KT 10SM CLR 18/02 A3004 2190 35 3100 000/00 RMK AO2 $
53144K9L2 9L220160824045511808/24/16 04:55:31  5-MIN K9L2 241255Z AUTO 33003KT 10SM CLR 18/02 A3004 2190 35 3100 320/03 RMK AO2 SLP152 T01780022 $
53144K9L2 9L220160824050010108/24/16 05:00:31  5-MIN K9L2 241300Z AUTO 36003KT 10SM CLR 18/02 A3004 2190 35 3100 350/03 RMK AO2 $
53144K9L2 9L220160824050510108/24/16 05:05:31  5-MIN K9L2 241305Z AUTO 00000KT 10SM CLR 17/02 A3004 2190 36 3000 000/00 RMK AO2 $
53144K9L2 9L220160824051010108/24/16 05:10:31  5-MIN K9L2 241310Z AUTO 01003KT 10SM CLR 18/02 A3004 2190 35 3100 350/03 RMK AO2 $
53144K9L2 9L220160824051510108/24/16 05:15:31  5-MIN K9L2 241315Z AUTO 00000KT 10SM CLR 18/02 A3004 2190 35 3100 000/00 RMK AO2 $
53144K9L2 9L220160824052010108/24/16 05:20:31  5-MIN K9L2 241320Z AUTO 00000KT 10SM CLR 17/02 A3004 2190 36 3000 000/00 RMK AO2 $
53144K9L2 9L220160824052510108/24/16 05:25:31  5-MIN K9L2 241325Z AUTO 00000KT 10SM CLR 17/02 A3005 2190 36 3000 000/00 RMK AO2 $
53144K9L2 9L220160824053010108/24/16 05:30:31  5-MIN K9L2 241330Z AUTO 02003KT 10SM CLR 17/02 A3005 2190 36 3000 010/03 RMK AO2 $
53144K9L2 9L220160824053510108/24/16 05:35:31  5-MIN K9L2 241335Z AUTO 04003KT 10SM CLR 17/02 A3005 2180 36 3000 020/03 RMK AO2 $
53144K9L2 9L220160824054010108/24/16 05:40:31  5-MIN K9L2 241340Z AUTO 04003KT 10SM CLR 17/02 A3005 2180 36 3000 030/03 RMK AO2 $
53144K9L2 9L220160824054510108/24/16 05:45:31  5-MIN K9L2 241345Z AUTO 00000KT 10SM CLR 18/03 A3005 2180 36 3000 000/00 RMK AO2 $
53144K9L2 9L220160824055010108/24/16 05:50:31  5-MIN K9L2 241350Z AUTO 04003KT 10SM CLR 18/03 A3005 2180 36 3000 030/03 RMK AO2 $
53144K9L2 9L220160824055511808/24/16 05:55:31  5-MIN K9L2 241355Z AUTO 00000KT 10SM CLR 18/03 A3005 2180 35 3100 000/00 RMK AO2 SLP158 T01830028 $
53144K9L2 9L220160824060010108/24/16 06:00:31  5-MIN K9L2 241400Z AUTO 00000KT 10SM CLR 18/03 A3005 2180 35 3100 000/00 RMK AO2 $
53144K9L2 9L220160824060510108/24/16 06:05:31  5-MIN K9L2 241405Z AUTO 00000KT 10SM CLR 19/03 A3005 2180 34 3200 000/00 RMK AO2 $
53144K9L2 9L220160824061010108/24/16 06:10:31  5-MIN K9L2 241410Z AUTO 00000KT 10SM CLR 19/03 A3005 2180 33 3200 000/00 RMK AO2 $
53144K9L2 9L220160824061510108/24/16 06:15:31  5-MIN K9L2 241415Z AUTO 00000KT 10SM CLR 19/03 A3005 2180 34 3200 000/00 RMK AO2 $
53144K9L2 9L220160824062010108/24/16 06:20:31  5-MIN K9L2 241420Z AUTO 00000KT 10SM CLR 20/03 A3005 2180 33 3300 000/00 RMK AO2 $
53144K9L2 9L220160824062510108/24/16 06:25:31  5-MIN K9L2 241425Z AUTO 00000KT 10SM CLR 21/03 A3005 2180 32 3400 000/00 RMK AO2 $
53144K9L2 9L220160824063010108/24/16 06:30:31  5-MIN K9L2 241430Z AUTO 00000KT 10SM CLR 21/03 A3005 2180 30 3400 000/00 RMK AO2 $
53144K9L2 9L220160824063510108/24/16 06:35:31  5-MIN K9L2 241435Z AUTO 00000KT 10SM CLR 21/04 A3005 2180 32 3400 000/00 RMK AO2 $
53144K9L2 9L220160824064010108/24/16 06:40:31  5-MIN K9L2 241440Z AUTO 00000KT 10SM CLR 21/04 A3006 2180 32 3400 000/00 RMK AO2 $
53144K9L2 9L220160824064510108/24/16 06:45:31  5-MIN K9L2 241445Z AUTO 00000KT 10SM CLR 22/04 A3006 2180 31 3500 000/00 RMK AO2 $
53144K9L2 9L220160824065010108/24/16 06:50:31  5-MIN K9L2 241450Z AUTO 00000KT 10SM CLR 22/04 A3006 2180 31 3500 000/00 RMK AO2 $
53144K9L2 9L220160824065512408/24/16 06:55:31  5-MIN K9L2 241455Z AUTO 00000KT 10SM CLR 23/04 A3006 2180 30 3600 000/00 RMK AO2 SLP158 T02280044 55000 $
53144K9L2 9L220160824070010108/24/16 07:00:31  5-MIN K9L2 241500Z AUTO 00000KT 10SM CLR 23/05 A3006 2180 31 3600 000/00 RMK AO2 $
53144K9L2 9L220160824070510108/24/16 07:05:31  5-MIN K9L2 241505Z AUTO 00000KT 10SM CLR 23/05 A3006 2170 30 3700 000/00 RMK AO2 $
53144K9L2 9L220160824071010108/24/16 07:10:31  5-MIN K9L2 241510Z AUTO 00000KT 10SM CLR 24/05 A3006 2170 29 3700 000/00 RMK AO2 $
53144K9L2 9L220160824071510108/24/16 07:15:31  5-MIN K9L2 241515Z AUTO 00000KT 10SM CLR 24/05 A3006 2170 28 3800 000/00 RMK AO2 $
53144K9L2 9L220160824072010108/24/16 07:20:31  5-MIN K9L2 241520Z AUTO 00000KT 10SM CLR 24/05 A3006 2180 28 3800 000/00 RMK AO2 $
53144K9L2 9L220160824072510108/24/16 07:25:31  5-MIN K9L2 241525Z AUTO 00000KT 10SM CLR 24/06 A3006 2180 29 3800 000/00 RMK AO2 $
53144K9L2 9L220160824073010108/24/16 07:30:31  5-MIN K9L2 241530Z AUTO 00000KT 10SM CLR 25/05 A3006 2180 27 3900 000/00 RMK AO2 $
53144K9L2 9L220160824073510108/24/16 07:35:31  5-MIN K9L2 241535Z AUTO 00000KT 10SM CLR 25/05 A3006 2170 27 3900 000/00 RMK AO2 $
53144K9L2 9L220160824074010108/24/16 07:40:31  5-MIN K9L2 241540Z AUTO 13003KT 10SM CLR 25/05 A3006 2180 27 3900 120/03 RMK AO2 $
53144K9L2 9L220160824074510108/24/16 07:45:31  5-MIN K9L2 241545Z AUTO 00000KT 10SM CLR 26/06 A3006 2180 27 3900 000/00 RMK AO2 $
53144K9L2 9L220160824075010108/24/16 07:50:31  5-MIN K9L2 241550Z AUTO 00000KT 10SM CLR 26/05 A3006 2180 25 4000 000/00 RMK AO2 $
53144K9L2 9L220160824075511808/24/16 07:55:31  5-MIN K9L2 241555Z AUTO 00000KT 10SM CLR 27/06 A3006 2170 25 4000 000/00 RMK AO2 SLP158 T02670056 $
53144K9L2 9L220160824080010108/24/16 08:00:31  5-MIN K9L2 241600Z AUTO 00000KT 10SM CLR 27/05 A3006 2170 24 4100 000/00 RMK AO2 $
53144K9L2 9L220160824080510108/24/16 08:05:31  5-MIN K9L2 241605Z AUTO 00000KT 10SM CLR 28/05 A3006 2170 23 4200 000/00 RMK AO2 $
53144K9L2 9L220160824081010108/24/16 08:10:31  5-MIN K9L2 241610Z AUTO 00000KT 10SM CLR 28/05 A3006 2170 22 4200 000/00 RMK AO2 $
53144K9L2 9L220160824081510108/24/16 08:15:31  5-MIN K9L2 241615Z AUTO 00000KT 10SM CLR 28/04 A3006 2170 21 4200 000/00 RMK AO2 $
53144K9L2 9L220160824082010108/24/16 08:20:31  5-MIN K9L2 241620Z AUTO 00000KT 10SM CLR 29/05 A3006 2170 21 4300 000/00 RMK AO2 $
53144K9L2 9L220160824082510108/24/16 08:25:31  5-MIN K9L2 241625Z AUTO 00000KT 10SM CLR 29/04 A3006 2170 20 4300 000/00 RMK AO2 $
53144K9L2 9L220160824083010108/24/16 08:30:31  5-MIN K9L2 241630Z AUTO 00000KT 10SM CLR 30/04 A3006 2170 19 4400 000/00 RMK AO2 $
53144K9L2 9L220160824083510108/24/16 08:35:31  5-MIN K9L2 241635Z AUTO 00000KT 10SM CLR 30/04 A3006 2170 19 4400 000/00 RMK AO2 $
53144K9L2 9L220160824084010108/24/16 08:40:31  5-MIN K9L2 241640Z AUTO 00000KT 10SM CLR 30/04 A3006 2170 19 4400 000/00 RMK AO2 $
53144K9L2 9L220160824084510108/24/16 08:45:31  5-MIN K9L2 241645Z AUTO 00000KT 10SM CLR 31/04 A3006 2170 19 4500 000/00 RMK AO2 $
53144K9L2 9L220160824085010108/24/16 08:50:31  5-MIN K9L2 241650Z AUTO 04003KT 10SM CLR 31/04 A3006 2170 18 4500 030/03 RMK AO2 $
53144K9L2 9L220160824085511808/24/16 08:55:31  5-MIN K9L2 241655Z AUTO 00000KT 10SM CLR 32/04 A3006 2180 17 4600 000/00 RMK AO2 SLP153 T03170044 $
53144K9L2 9L220160824090010108/24/16 09:00:31  5-MIN K9L2 241700Z AUTO 00000KT 10SM CLR 31/04 A3006 2180 18 4500 000/00 RMK AO2 $
53144K9L2 9L220160824090510108/24/16 09:05:31  5-MIN K9L2 241705Z AUTO 00000KT 10SM CLR 32/04 A3006 2180 17 4600 000/00 RMK AO2 $
53144K9L2 9L220160824091010108/24/16 09:10:31  5-MIN K9L2 241710Z AUTO 00000KT 10SM CLR 31/04 A3006 2180 18 4500 000/00 RMK AO2 $
53144K9L2 9L220160824091510108/24/16 09:15:31  5-MIN K9L2 241715Z AUTO 00000KT 10SM CLR 31/04 A3006 2180 17 4500 000/00 RMK AO2 $
53144K9L2 9L220160824092010108/24/16 09:20:31  5-MIN K9L2 241720Z AUTO 15003KT 10SM CLR 31/04 A3005 2180 17 4500 130/03 RMK AO2 $
53144K9L2 9L220160824092510108/24/16 09:25:31  5-MIN K9L2 241725Z AUTO 00000KT 10SM CLR 31/04 A3005 2180 17 4500 000/00 RMK AO2 $
53144K9L2 9L220160824093010108/24/16 09:30:31  5-MIN K9L2 241730Z AUTO 00000KT 10SM CLR 32/04 A3005 2180 17 4600 000/00 RMK AO2 $
53144K9L2 9L220160824093510108/24/16 09:35:31  5-MIN K9L2 241735Z AUTO 00000KT 10SM CLR 32/04 A3005 2180 16 4700 000/00 RMK AO2 $
53144K9L2 9L220160824094010108/24/16 09:40:31  5-MIN K9L2 241740Z AUTO VRB03KT 10SM CLR 33/04 A3005 2180 16 4700 VRB/03 RMK AO2 $
53144K9L2 9L220160824094510108/24/16 09:45:31  5-MIN K9L2 241745Z AUTO VRB03KT 10SM CLR 33/04 A3005 2180 16 4700 VRB/03 RMK AO2 $
53144K9L2 9L220160824095010108/24/16 09:50:31  5-MIN K9L2 241750Z AUTO 00000KT 10SM CLR 33/04 A3005 2180 15 4800 000/00 RMK AO2 $
53144K9L2 9L220160824095513608/24/16 09:55:31  5-MIN K9L2 241755Z AUTO 15003KT 10SM CLR 32/04 A3005 2180 16 4700 140/03 RMK AO2 SLP151 T03220039 10333 20172 53007 $
53144K9L2 9L220160824100010108/24/16 10:00:31  5-MIN K9L2 241800Z AUTO 17003KT 10SM CLR 33/04 A3005 2190 16 4700 160/03 RMK AO2 $
53144K9L2 9L220160824100510108/24/16 10:05:31  5-MIN K9L2 241805Z AUTO 14003KT 10SM CLR 33/04 A3004 2190 16 4700 120/03 RMK AO2 $
53144K9L2 9L220160824101010108/24/16 10:10:31  5-MIN K9L2 241810Z AUTO 00000KT 10SM CLR 33/04 A3004 2190 16 4700 000/00 RMK AO2 $
53144K9L2 9L220160824101510108/24/16 10:15:31  5-MIN K9L2 241815Z AUTO 14004KT 10SM CLR 33/04 A3004 2190 16 4700 130/04 RMK AO2 $
53144K9L2 9L220160824102010108/24/16 10:20:31  5-MIN K9L2 241820Z AUTO VRB03KT 10SM CLR 32/04 A3004 2190 16 4700 VRB/03 RMK AO2 $
53144K9L2 9L220160824102510108/24/16 10:25:31  5-MIN K9L2 241825Z AUTO 00000KT 10SM CLR 33/04 A3004 2190 16 4700 000/00 RMK AO2 $
53144K9L2 9L220160824103010108/24/16 10:30:31  5-MIN K9L2 241830Z AUTO 00000KT 10SM CLR 34/04 A3004 2190 15 4900 000/00 RMK AO2 $
53144K9L2 9L220160824103510108/24/16 10:35:31  5-MIN K9L2 241835Z AUTO VRB03KT 10SM CLR 34/04 A3003 2200 15 4900 VRB/03 RMK AO2 $
53144K9L2 9L220160824104010108/24/16 10:40:31  5-MIN K9L2 241840Z AUTO 13004KT 10SM CLR 34/04 A3003 2200 15 4900 120/04 RMK AO2 $
53144K9L2 9L220160824104510108/24/16 10:45:31  5-MIN K9L2 241845Z AUTO 00000KT 10SM CLR 34/04 A3003 2200 15 4900 000/00 RMK AO2 $
53144K9L2 9L220160824105010108/24/16 10:50:31  5-MIN K9L2 241850Z AUTO 14004KT 10SM CLR 34/03 A3003 2200 14 4900 130/04 RMK AO2 $
53144K9L2 9L220160824105511808/24/16 10:55:31  5-MIN K9L2 241855Z AUTO 15003KT 10SM CLR 34/03 A3003 2200 14 4900 140/03 RMK AO2 SLP143 T03390033 $
53144K9L2 9L220160824110010108/24/16 11:00:31  5-MIN K9L2 241900Z AUTO 00000KT 10SM CLR 34/03 A3002 2210 14 4900 000/00 RMK AO2 $
53144K9L2 9L220160824110510108/24/16 11:05:31  5-MIN K9L2 241905Z AUTO 00000KT 10SM CLR 36/03 A3002 2210 13 5100 000/00 RMK AO2 $
53144K9L2 9L220160824111010108/24/16 11:10:31  5-MIN K9L2 241910Z AUTO VRB04KT 10SM CLR 35/03 A3002 2210 13 5000 VRB/04 RMK AO2 $
53144K9L2 9L220160824111510108/24/16 11:15:31  5-MIN K9L2 241915Z AUTO 12003KT 10SM CLR 35/03 A3002 2210 13 5000 100/03 RMK AO2 $
53144K9L2 9L220160824112010108/24/16 11:20:31  5-MIN K9L2 241920Z AUTO 11004KT 10SM CLR 35/03 A3001 2220 13 5000 100/04 RMK AO2 $
53144K9L2 9L220160824112510108/24/16 11:25:31  5-MIN K9L2 241925Z AUTO 15005KT 10SM CLR 36/03 A3001 2220 13 5100 140/05 RMK AO2 $
53144K9L2 9L220160824113010108/24/16 11:30:31  5-MIN K9L2 241930Z AUTO 15003KT 10SM CLR 35/03 A3001 2220 13 5000 130/03 RMK AO2 $
53144K9L2 9L220160824113510108/24/16 11:35:31  5-MIN K9L2 241935Z AUTO VRB05KT 10SM CLR 36/03 A3001 2220 13 5100 VRB/05 RMK AO2 $
53144K9L2 9L220160824114010108/24/16 11:40:31  5-MIN K9L2 241940Z AUTO 14005KT 10SM CLR 36/03 A3000 2220 13 5100 130/05 RMK AO2 $
53144K9L2 9L220160824114510108/24/16 11:45:31  5-MIN K9L2 241945Z AUTO 13003KT 10SM CLR 36/03 A3000 2230 12 5100 120/03 RMK AO2 $
53144K9L2 9L220160824115010108/24/16 11:50:31  5-MIN K9L2 241950Z AUTO 15005KT 10SM CLR 36/03 A3000 2230 12 5100 140/05 RMK AO2 $
53144K9L2 9L220160824115511808/24/16 11:55:31  5-MIN K9L2 241955Z AUTO 15006KT 10SM CLR 37/03 A3000 2230 12 5200 130/06 RMK AO2 SLP133 T03670028 $
53144K9L2 9L220160824120010108/24/16 12:00:31  5-MIN K9L2 242000Z AUTO 17005KT 10SM CLR 36/03 A3000 2230 12 5100 160/05 RMK AO2 $
53144K9L2 9L220160824120510108/24/16 12:05:31  5-MIN K9L2 242005Z AUTO 18006KT 10SM CLR 36/03 A3000 2230 12 5100 170/06 RMK AO2 $
53144K9L2 9L220160824121010108/24/16 12:10:31  5-MIN K9L2 242010Z AUTO 17006KT 10SM CLR 36/03 A3000 2230 12 5100 160/06 RMK AO2 $
53144K9L2 9L220160824121510108/24/16 12:15:31  5-MIN K9L2 242015Z AUTO 16005KT 10SM CLR 36/03 A2999 2230 12 5100 140/05 RMK AO2 $
53144K9L2 9L220160824122010108/24/16 12:20:31  5-MIN K9L2 242020Z AUTO 00000KT 10SM CLR 36/03 A2999 2240 12 5100 000/00 RMK AO2 $
53144K9L2 9L220160824122510108/24/16 12:25:31  5-MIN K9L2 242025Z AUTO VRB04KT 10SM CLR 37/02 A2999 2240 11 5200 VRB/04 RMK AO2 $
53144K9L2 9L220160824123010108/24/16 12:30:31  5-MIN K9L2 242030Z AUTO 00000KT 10SM CLR 37/02 A2999 2240 11 5200 000/00 RMK AO2 $
53144K9L2 9L220160824123510708/24/16 12:35:31  5-MIN K9L2 242035Z AUTO 22008G21KT 10SM CLR 37/02 A2998 2240 11 5300 210/08G21 RMK AO2 $
53144K9L2 9L220160824124010708/24/16 12:40:31  5-MIN K9L2 242040Z AUTO 25006G21KT 10SM CLR 37/02 A2998 2240 11 5200 230/06G21 RMK AO2 $
53144K9L2 9L220160824124510108/24/16 12:45:31  5-MIN K9L2 242045Z AUTO 23008KT 10SM CLR 38/02 A2998 2250 10 5300 220/08 RMK AO2 $
53144K9L2 9L220160824125010108/24/16 12:50:31  5-MIN K9L2 242050Z AUTO 20007KT 10SM CLR 37/02 A2998 2250 11 5200 190/07 RMK AO2 $
53144K9L2 9L220160824125514008/24/16 12:55:31  5-MIN K9L2 242055Z AUTO 22007KT 190V280 10SM CLR 37/01 A2998 2250 10 5300 210/07 180V270 RMK AO2 SLP126 T03720011 58003 $
53144K9L2 9L220160824130010108/24/16 13:00:31  5-MIN K9L2 242100Z AUTO VRB05KT 10SM CLR 37/01 A2998 2250 10 5200 VRB/05 RMK AO2 $
53144K9L2 9L220160824130512308/24/16 13:05:31  5-MIN K9L2 242105Z AUTO 25009G15KT 210V270 10SM CLR 37/01 A2997 2250 10 5300 240/09G15 200V260 RMK AO2 $
53144K9L2 9L220160824131010708/24/16 13:10:31  5-MIN K9L2 242110Z AUTO VRB05G15KT 10SM CLR 37/01 A2997 2250 10 5300 VRB/05G15 RMK AO2 $
53144K9L2 9L220160824131510108/24/16 13:15:31  5-MIN K9L2 242115Z AUTO 23005KT 10SM CLR 37/01 A2997 2260 10 5300 210/05 RMK AO2 $
53144K9L2 9L220160824132010108/24/16 13:20:31  5-MIN K9L2 242120Z AUTO VRB04KT 10SM CLR 38/01 A2997 2260 09 5300 VRB/04 RMK AO2 $
53144K9L2 9L220160824132510108/24/16 13:25:31  5-MIN K9L2 242125Z AUTO VRB06KT 10SM CLR 38/01 A2997 2260 09 5300 VRB/06 RMK AO2 $
53144K9L2 9L220160824133010108/24/16 13:30:31  5-MIN K9L2 242130Z AUTO 27005KT 10SM CLR 37/01 A2996 2260 10 5300 260/05 RMK AO2 $
53144K9L2 9L220160824133510108/24/16 13:35:31  5-MIN K9L2 242135Z AUTO 23008KT 10SM CLR 38/01 A2996 2270 09 5400 210/08 RMK AO2 $
53144K9L2 9L220160824134010708/24/16 13:40:31  5-MIN K9L2 242140Z AUTO 23013G19KT 10SM CLR 38/01 A2996 2270 09 5400 210/13G19 RMK AO2 $
53144K9L2 9L220160824134510708/24/16 13:45:31  5-MIN K9L2 242145Z AUTO 23011G19KT 10SM CLR 39/01 A2996 2270 09 5500 220/11G19 RMK AO2 $
53144K9L2 9L220160824135010108/24/16 13:50:31  5-MIN K9L2 242150Z AUTO 23009KT 10SM CLR 38/01 A2996 2270 09 5400 220/09 RMK AO2 $
53144K9L2 9L220160824135511808/24/16 13:55:31  5-MIN K9L2 242155Z AUTO 26007KT 10SM CLR 38/01 A2995 2270 10 5400 240/07 RMK AO2 SLP118 T03780011 $
53144K9L2 9L220160824140010708/24/16 14:00:31  5-MIN K9L2 242200Z AUTO 26014G17KT 10SM CLR 38/01 A2995 2280 09 5400 250/14G17 RMK AO2 $
53144K9L2 9L220160824140510708/24/16 14:05:31  5-MIN K9L2 242205Z AUTO 25015G21KT 10SM CLR 38/01 A2995 2280 09 5400 240/15G21 RMK AO2 $
53144K9L2 9L220160824141010708/24/16 14:10:31  5-MIN K9L2 242210Z AUTO 23012G21KT 10SM CLR 38/01 A2995 2280 09 5400 220/12G21 RMK AO2 $
53144K9L2 9L220160824141510708/24/16 14:15:31  5-MIN K9L2 242215Z AUTO 25008G17KT 10SM CLR 38/01 A2994 2280 09 5400 230/08G17 RMK AO2 $
53144K9L2 9L220160824142010708/24/16 14:20:31  5-MIN K9L2 242220Z AUTO 28013G17KT 10SM CLR 39/01 A2994 2280 09 5500 270/13G17 RMK AO2 $
53144K9L2 9L220160824142510808/24/16 14:25:31  5-MIN K9L2 242225Z AUTO 22014G19KT 10SM CLR 38/M01 A2994 2290 08 5400 200/14G19 RMK AO2 $
53144K9L2 9L220160824143010808/24/16 14:30:31  5-MIN K9L2 242230Z AUTO 22013G19KT 10SM CLR 39/M01 A2994 2290 08 5500 200/13G19 RMK AO2 $
53144K9L2 9L220160824143510808/24/16 14:35:31  5-MIN K9L2 242235Z AUTO 23012G21KT 10SM CLR 39/M01 A2994 2290 08 5500 220/12G21 RMK AO2 $
53144K9L2 9L220160824144010808/24/16 14:40:31  5-MIN K9L2 242240Z AUTO 23014G21KT 10SM CLR 38/M02 A2993 2290 08 5400 210/14G21 RMK AO2 $
53144K9L2 9L220160824144510808/24/16 14:45:31  5-MIN K9L2 242245Z AUTO 22017G24KT 10SM CLR 39/M02 A2993 2290 07 5500 200/17G24 RMK AO2 $
53144K9L2 9L220160824145010808/24/16 14:50:31  5-MIN K9L2 242250Z AUTO 22011G24KT 10SM CLR 39/M02 A2993 2290 07 5500 200/11G24 RMK AO2 $
53144K9L2 9L220160824145512508/24/16 14:55:31  5-MIN K9L2 242255Z AUTO 21012G19KT 10SM CLR 38/M01 A2993 2290 08 5400 200/12G19 RMK AO2 SLP110 T03831006 $
53144K9L2 9L220160824150010808/24/16 15:00:31  5-MIN K9L2 242300Z AUTO 25014G19KT 10SM CLR 38/M01 A2993 2300 08 5500 240/14G19 RMK AO2 $
53144K9L2 9L220160824150510808/24/16 15:05:31  5-MIN K9L2 242305Z AUTO 22012G19KT 10SM CLR 38/M01 A2993 2300 08 5500 210/12G19 RMK AO2 $
53144K9L2 9L220160824151010808/24/16 15:10:31  5-MIN K9L2 242310Z AUTO 22016G23KT 10SM CLR 38/M01 A2992 2300 08 5500 210/16G23 RMK AO2 $
53144K9L2 9L220160824151510708/24/16 15:15:31  5-MIN K9L2 242315Z AUTO 23014G23KT 10SM CLR 38/01 A2992 2300 09 5500 220/14G23 RMK AO2 $
53144K9L2 9L220160824152010708/24/16 15:20:31  5-MIN K9L2 242320Z AUTO 23012G23KT 10SM CLR 38/01 A2992 2300 09 5500 210/12G23 RMK AO2 $
53144K9L2 9L220160824152510708/24/16 15:25:31  5-MIN K9L2 242325Z AUTO 23017G23KT 10SM CLR 38/01 A2992 2300 09 5500 220/17G23 RMK AO2 $
53144K9L2 9L220160824153010708/24/16 15:30:31  5-MIN K9L2 242330Z AUTO 26019G23KT 10SM CLR 38/02 A2992 2300 10 5400 250/19G23 RMK AO2 $
53144K9L2 9L220160824153510708/24/16 15:35:31  5-MIN K9L2 242335Z AUTO 25010G23KT 10SM CLR 38/02 A2992 2300 10 5400 240/10G23 RMK AO2 $
53144K9L2 9L220160824154010708/24/16 15:40:31  5-MIN K9L2 242340Z AUTO 27017G22KT 10SM CLR 38/02 A2992 2300 10 5400 260/17G22 RMK AO2 $
53144K9L2 9L220160824154510708/24/16 15:45:31  5-MIN K9L2 242345Z AUTO 28015G23KT 10SM CLR 38/02 A2992 2300 10 5400 260/15G23 RMK AO2 $
53144K9L2 9L220160824155010708/24/16 15:50:31  5-MIN K9L2 242350Z AUTO 26015G23KT 10SM CLR 38/02 A2992 2300 10 5400 250/15G23 RMK AO2 $
53144K9L2 9L220160824155514208/24/16 15:55:31  5-MIN K9L2 242355Z AUTO 28017G21KT 10SM CLR 37/02 A2992 2300 11 5300 270/17G21 RMK AO2 SLP107 T03720022 10389 20322 56022 $
53144K9L2 9L220160824160010708/24/16 16:00:31  5-MIN K9L2 250000Z AUTO 27018G23KT 10SM CLR 37/02 A2992 2310 11 5300 260/18G23 RMK AO2 $
53144K9L2 9L220160824160510708/24/16 16:05:31  5-MIN K9L2 250005Z AUTO 27016G23KT 10SM CLR 37/02 A2992 2300 11 5300 260/16G23 RMK AO2 $
53144K9L2 9L220160824161010108/24/16 16:10:31  5-MIN K9L2 250010Z AUTO 26015KT 10SM CLR 37/02 A2992 2310 11 5300 250/15 RMK AO2 $
53144K9L2 9L220160824161510108/24/16 16:15:31  5-MIN K9L2 250015Z AUTO 26016KT 10SM CLR 37/02 A2992 2310 11 5300 250/16 RMK AO2 $
53144K9L2 9L220160824162010708/24/16 16:20:31  5-MIN K9L2 250020Z AUTO 27014G22KT 10SM CLR 37/02 A2992 2310 11 5300 250/14G22 RMK AO2 $
53144K9L2 9L220160824162510708/24/16 16:25:31  5-MIN K9L2 250025Z AUTO 27016G22KT 10SM CLR 37/02 A2992 2310 11 5300 250/16G22 RMK AO2 $
53144K9L2 9L220160824163010708/24/16 16:30:31  5-MIN K9L2 250030Z AUTO 27019G23KT 10SM CLR 36/02 A2992 2310 11 5200 250/19G23 RMK AO2 $
53144K9L2 9L220160824163510708/24/16 16:35:31  5-MIN K9L2 250035Z AUTO 27017G23KT 10SM CLR 36/02 A2992 2300 11 5200 260/17G23 RMK AO2 $
53144K9L2 9L220160824164010108/24/16 16:40:31  5-MIN K9L2 250040Z AUTO 27018KT 10SM CLR 36/02 A2992 2310 12 5200 260/18 RMK AO2 $
53144K9L2 9L220160824164510108/24/16 16:45:31  5-MIN K9L2 250045Z AUTO 27017KT 10SM CLR 36/02 A2992 2310 12 5200 260/17 RMK AO2 $
53144K9L2 9L220160824165010108/24/16 16:50:31  5-MIN K9L2 250050Z AUTO 27018KT 10SM CLR 36/02 A2992 2310 12 5200 260/18 RMK AO2 $
53144K9L2 9L220160824165511808/24/16 16:55:31  5-MIN K9L2 250055Z AUTO 27020KT 10SM CLR 35/02 A2991 2310 12 5100 260/20 RMK AO2 SLP109 T03500022 $
53144K9L2 9L220160824170010708/24/16 17:00:31  5-MIN K9L2 250100Z AUTO 27020G25KT 10SM CLR 35/02 A2992 2310 12 5100 250/20G25 RMK AO2 $
53144K9L2 9L220160824170510708/24/16 17:05:31  5-MIN K9L2 250105Z AUTO 27020G25KT 10SM CLR 34/02 A2992 2310 13 5000 260/20G25 RMK AO2 $
53144K9L2 9L220160824171010708/24/16 17:10:31  5-MIN K9L2 250110Z AUTO 27017G25KT 10SM CLR 34/02 A2991 2310 13 5100 260/17G25 RMK AO2 $
53144K9L2 9L220160824171510708/24/16 17:15:31  5-MIN K9L2 250115Z AUTO 27017G25KT 10SM CLR 34/02 A2992 2310 13 5000 260/17G25 RMK AO2 $
53144K9L2 9L220160824172010708/24/16 17:20:31  5-MIN K9L2 250120Z AUTO 28019G23KT 10SM CLR 34/02 A2992 2310 13 5000 260/19G23 RMK AO2 $
53144K9L2 9L220160824172510708/24/16 17:25:31  5-MIN K9L2 250125Z AUTO 27019G25KT 10SM CLR 34/02 A2991 2310 13 5000 260/19G25 RMK AO2 $
53144K9L2 9L220160824173010708/24/16 17:30:31  5-MIN K9L2 250130Z AUTO 27018G25KT 10SM CLR 34/02 A2992 2310 13 5000 260/18G25 RMK AO2 $
53144K9L2 9L220160824173512508/24/16 17:35:31  5-MIN K9L2 250135Z AUTO 27020G26KT 10SM CLR 33/02 A2992 2310 13 4900 260/20G26 RMK AO2 PK WND 27026/0134 $
53144K9L2 9L220160824174012508/24/16 17:40:31  5-MIN K9L2 250140Z AUTO 27019G26KT 10SM CLR 33/02 A2992 2310 13 4900 260/19G26 RMK AO2 PK WND 27026/0134 $
53144K9L2 9L220160824174512508/24/16 17:45:31  5-MIN K9L2 250145Z AUTO 27015G24KT 10SM CLR 33/02 A2992 2300 13 4900 250/15G24 RMK AO2 PK WND 27026/0134 $
53144K9L2 9L220160824175011908/24/16 17:50:31  5-MIN K9L2 250150Z AUTO 26016KT 10SM CLR 33/02 A2992 2300 14 4900 250/16 RMK AO2 PK WND 27026/0134 $
53144K9L2 9L220160824175514208/24/16 17:55:31  5-MIN K9L2 250155Z AUTO 27015G22KT 10SM CLR 33/02 A2992 2300 14 4900 250/15G22 RMK AO2 PK WND 27026/0134 SLP113 T03280022 $
53144K9L2 9L220160824180010708/24/16 18:00:31  5-MIN K9L2 250200Z AUTO 27015G21KT 10SM CLR 32/02 A2992 2300 14 4800 250/15G21 RMK AO2 $
53144K9L2 9L220160824180510108/24/16 18:05:31  5-MIN K9L2 250205Z AUTO 27013KT 10SM CLR 32/02 A2992 2300 14 4800 250/13 RMK AO2 $
53144K9L2 9L220160824181010108/24/16 18:10:31  5-MIN K9L2 250210Z AUTO 26013KT 10SM CLR 32/02 A2992 2300 14 4800 250/13 RMK AO2 $
53144K9L2 9L220160824181510108/24/16 18:15:31  5-MIN K9L2 250215Z AUTO 27013KT 10SM CLR 32/02 A2992 2300 14 4700 260/13 RMK AO2 $
53144K9L2 9L220160824182010108/24/16 18:20:31  5-MIN K9L2 250220Z AUTO 27015KT 10SM CLR 32/02 A2992 2300 14 4700 250/15 RMK AO2 $
53144K9L2 9L220160824182510108/24/16 18:25:31  5-MIN K9L2 250225Z AUTO 26013KT 10SM CLR 32/02 A2993 2300 14 4700 250/13 RMK AO2 $
53144K9L2 9L220160824183010108/24/16 18:30:31  5-MIN K9L2 250230Z AUTO 26015KT 10SM CLR 31/02 A2993 2300 15 4700 250/15 RMK AO2 $
53144K9L2 9L220160824183510108/24/16 18:35:31  5-MIN K9L2 250235Z AUTO 26011KT 10SM CLR 31/02 A2993 2300 15 4700 250/11 RMK AO2 $
53144K9L2 9L220160824184010108/24/16 18:40:31  5-MIN K9L2 250240Z AUTO 26011KT 10SM CLR 31/02 A2993 2300 15 4600 250/11 RMK AO2 $
53144K9L2 9L220160824184510108/24/16 18:45:31  5-MIN K9L2 250245Z AUTO 26011KT 10SM CLR 31/02 A2993 2300 15 4600 250/11 RMK AO2 $
53144K9L2 9L220160824185010108/24/16 18:50:31  5-MIN K9L2 250250Z AUTO 25011KT 10SM CLR 31/02 A2993 2290 15 4600 240/11 RMK AO2 $
53144K9L2 9L220160824185512408/24/16 18:55:31  5-MIN K9L2 250255Z AUTO 26011KT 10SM CLR 31/02 A2993 2290 15 4600 240/11 RMK AO2 SLP115 T03060017 56019 $
53144K9L2 9L220160824190010108/24/16 19:00:31  5-MIN K9L2 250300Z AUTO 26009KT 10SM CLR 31/02 A2993 2290 15 4600 240/09 RMK AO2 $
53144K9L2 9L220160824190510108/24/16 19:05:31  5-MIN K9L2 250305Z AUTO 26010KT 10SM CLR 30/02 A2993 2290 16 4600 250/10 RMK AO2 $
53144K9L2 9L220160824191010108/24/16 19:10:31  5-MIN K9L2 250310Z AUTO 26011KT 10SM CLR 30/02 A2993 2290 16 4600 240/11 RMK AO2 $
53144K9L2 9L220160824191510108/24/16 19:15:31  5-MIN K9L2 250315Z AUTO 25008KT 10SM CLR 30/02 A2993 2290 16 4500 240/08 RMK AO2 $
53144K9L2 9L220160824192010108/24/16 19:20:31  5-MIN K9L2 250320Z AUTO 25009KT 10SM CLR 29/02 A2993 2290 16 4500 240/09 RMK AO2 $
53144K9L2 9L220160824192510108/24/16 19:25:31  5-MIN K9L2 250325Z AUTO 25008KT 10SM CLR 29/02 A2994 2290 16 4500 240/08 RMK AO2 $
53144K9L2 9L220160824193010108/24/16 19:30:31  5-MIN K9L2 250330Z AUTO 25010KT 10SM CLR 29/02 A2994 2290 16 4500 240/10 RMK AO2 $
53144K9L2 9L220160824193510108/24/16 19:35:31  5-MIN K9L2 250335Z AUTO 24009KT 10SM CLR 29/02 A2994 2280 16 4500 230/09 RMK AO2 $
53144K9L2 9L220160824194010108/24/16 19:40:31  5-MIN K9L2 250340Z AUTO 24010KT 10SM CLR 29/02 A2994 2280 17 4400 220/10 RMK AO2 $
53144K9L2 9L220160824194510108/24/16 19:45:31  5-MIN K9L2 250345Z AUTO 23009KT 10SM CLR 29/02 A2994 2280 17 4400 220/09 RMK AO2 $
53144K9L2 9L220160824195010108/24/16 19:50:31  5-MIN K9L2 250350Z AUTO 23009KT 10SM CLR 29/02 A2995 2280 17 4400 220/09 RMK AO2 $
53144K9L2 9L220160824195511808/24/16 19:55:31  5-MIN K9L2 250355Z AUTO 23008KT 10SM CLR 28/02 A2995 2280 17 4300 220/08 RMK AO2 SLP120 T02830017 $
53144K9L2 9L220160824200010108/24/16 20:00:31  5-MIN K9L2 250400Z AUTO 23007KT 10SM CLR 29/02 A2995 2270 17 4400 220/07 RMK AO2 $
53144K9L2 9L220160824200510108/24/16 20:05:31  5-MIN K9L2 250405Z AUTO 23009KT 10SM CLR 28/02 A2995 2270 17 4300 220/09 RMK AO2 $
53144K9L2 9L220160824201010108/24/16 20:10:31  5-MIN K9L2 250410Z AUTO 24007KT 10SM CLR 29/02 A2995 2270 17 4400 230/07 RMK AO2 $
53144K9L2 9L220160824201510108/24/16 20:15:31  5-MIN K9L2 250415Z AUTO 24011KT 10SM CLR 28/02 A2995 2270 17 4300 230/11 RMK AO2 $
53144K9L2 9L220160824202010108/24/16 20:20:31  5-MIN K9L2 250420Z AUTO 24010KT 10SM CLR 28/02 A2995 2270 17 4300 230/10 RMK AO2 $
53144K9L2 9L220160824202510108/24/16 20:25:31  5-MIN K9L2 250425Z AUTO 24010KT 10SM CLR 28/01 A2995 2270 17 4300 220/10 RMK AO2 $
53144K9L2 9L220160824203010108/24/16 20:30:31  5-MIN K9L2 250430Z AUTO 24009KT 10SM CLR 28/01 A2996 2270 17 4300 230/09 RMK AO2 $
53144K9L2 9L220160824203510108/24/16 20:35:31  5-MIN K9L2 250435Z AUTO 24008KT 10SM CLR 28/01 A2995 2270 17 4300 220/08 RMK AO2 $
53144K9L2 9L220160824204010108/24/16 20:40:31  5-MIN K9L2 250440Z AUTO 23008KT 10SM CLR 28/01 A2996 2270 17 4300 220/08 RMK AO2 $
53144K9L2 9L220160824204510108/24/16 20:45:31  5-MIN K9L2 250445Z AUTO 24008KT 10SM CLR 28/01 A2996 2270 17 4300 220/08 RMK AO2 $
53144K9L2 9L220160824205010108/24/16 20:50:31  5-MIN K9L2 250450Z AUTO 24008KT 10SM CLR 28/01 A2996 2270 17 4300 220/08 RMK AO2 $
53144K9L2 9L220160824205511808/24/16 20:55:31  5-MIN K9L2 250455Z AUTO 24008KT 10SM CLR 28/01 A2996 2270 17 4300 220/08 RMK AO2 SLP120 T02780011 $
53144K9L2 9L220160824210010108/24/16 21:00:31  5-MIN K9L2 250500Z AUTO 22008KT 10SM CLR 28/01 A2996 2270 17 4300 210/08 RMK AO2 $
53144K9L2 9L220160824210510108/24/16 21:05:31  5-MIN K9L2 250505Z AUTO 23008KT 10SM CLR 28/01 A2996 2270 17 4300 220/08 RMK AO2 $
53144K9L2 9L220160824211010108/24/16 21:10:31  5-MIN K9L2 250510Z AUTO 22006KT 10SM CLR 27/01 A2996 2270 17 4200 200/06 RMK AO2 $
53144K9L2 9L220160824211510108/24/16 21:15:31  5-MIN K9L2 250515Z AUTO 20007KT 10SM CLR 27/01 A2996 2270 18 4200 180/07 RMK AO2 $
53144K9L2 9L220160824212010108/24/16 21:20:31  5-MIN K9L2 250520Z AUTO 19007KT 10SM CLR 26/01 A2996 2270 18 4100 180/07 RMK AO2 $
53144K9L2 9L220160824212510108/24/16 21:25:31  5-MIN K9L2 250525Z AUTO 19009KT 10SM CLR 26/01 A2996 2270 19 4100 180/09 RMK AO2 $
53144K9L2 9L220160824213010108/24/16 21:30:31  5-MIN K9L2 250530Z AUTO 20007KT 10SM CLR 26/01 A2996 2270 20 4000 180/07 RMK AO2 $
53144K9L2 9L220160824213510108/24/16 21:35:31  5-MIN K9L2 250535Z AUTO 19007KT 10SM CLR 26/01 A2996 2270 20 4000 180/07 RMK AO2 $
53144K9L2 9L220160824214010108/24/16 21:40:31  5-MIN K9L2 250540Z AUTO 19009KT 10SM CLR 26/01 A2996 2270 20 4000 180/09 RMK AO2 $
53144K9L2 9L220160824214510108/24/16 21:45:31  5-MIN K9L2 250545Z AUTO 19009KT 10SM CLR 26/01 A2996 2270 20 4000 180/09 RMK AO2 $
53144K9L2 9L220160824215010108/24/16 21:50:31  5-MIN K9L2 250550Z AUTO 19008KT 10SM CLR 25/01 A2996 2270 20 4000 180/08 RMK AO2 $
53144K9L2 9L220160824215513608/24/16 21:55:31  5-MIN K9L2 250555Z AUTO 20009KT 10SM CLR 25/02 A2995 2270 21 4000 190/09 RMK AO2 SLP120 T02500017 10372 20250 53004 $
53144K9L2 9L220160824220010108/24/16 22:00:31  5-MIN K9L2 250600Z AUTO 19009KT 10SM CLR 25/02 A2995 2270 22 4000 180/09 RMK AO2 $
53144K9L2 9L220160824220510108/24/16 22:05:31  5-MIN K9L2 250605Z AUTO 19010KT 10SM CLR 24/02 A2995 2270 23 3900 180/10 RMK AO2 $
53144K9L2 9L220160824221010108/24/16 22:10:31  5-MIN K9L2 250610Z AUTO 19010KT 10SM CLR 24/02 A2995 2270 23 3900 170/10 RMK AO2 $
53144K9L2 9L220160824221510108/24/16 22:15:31  5-MIN K9L2 250615Z AUTO 19009KT 10SM CLR 24/02 A2995 2270 23 3900 180/09 RMK AO2 $
53144K9L2 9L220160824222010108/24/16 22:20:31  5-MIN K9L2 250620Z AUTO 19008KT 10SM CLR 24/02 A2995 2270 23 3900 180/08 RMK AO2 $
53144K9L2 9L220160824222510108/24/16 22:25:31  5-MIN K9L2 250625Z AUTO 19009KT 10SM CLR 24/03 A2995 2270 24 3900 180/09 RMK AO2 $
53144K9L2 9L220160824223010108/24/16 22:30:31  5-MIN K9L2 250630Z AUTO 19007KT 10SM CLR 24/03 A2995 2270 24 3900 180/07 RMK AO2 $
53144K9L2 9L220160824223510108/24/16 22:35:31  5-MIN K9L2 250635Z AUTO 19009KT 10SM CLR 24/03 A2995 2270 24 3900 180/09 RMK AO2 $
53144K9L2 9L220160824224010108/24/16 22:40:31  5-MIN K9L2 250640Z AUTO 19011KT 10SM CLR 24/03 A2995 2270 24 3900 180/11 RMK AO2 $
53144K9L2 9L220160824224510108/24/16 22:45:31  5-MIN K9L2 250645Z AUTO 20009KT 10SM CLR 24/03 A2995 2270 24 3900 190/09 RMK AO2 $
53144K9L2 9L220160824225010108/24/16 22:50:31  5-MIN K9L2 250650Z AUTO 19008KT 10SM CLR 24/03 A2995 2270 24 3900 180/08 RMK AO2 $
53144K9L2 9L220160824225511808/24/16 22:55:31  5-MIN K9L2 250655Z AUTO 20009KT 10SM CLR 24/03 A2995 2270 25 3900 180/09 RMK AO2 SLP119 T02390028 $
53144K9L2 9L220160824230010108/24/16 23:00:31  5-MIN K9L2 250700Z AUTO 19010KT 10SM CLR 24/03 A2995 2270 25 3900 180/10 RMK AO2 $
53144K9L2 9L220160824230510108/24/16 23:05:31  5-MIN K9L2 250705Z AUTO 19008KT 10SM CLR 24/03 A2995 2280 25 3900 170/08 RMK AO2 $
53144K9L2 9L220160824231010108/24/16 23:10:31  5-MIN K9L2 250710Z AUTO 19008KT 10SM CLR 23/03 A2995 2280 25 3800 180/08 RMK AO2 $
53144K9L2 9L220160824231510108/24/16 23:15:31  5-MIN K9L2 250715Z AUTO 19007KT 10SM CLR 24/03 A2995 2280 25 3900 180/07 RMK AO2 $
53144K9L2 9L220160824232010108/24/16 23:20:31  5-MIN K9L2 250720Z AUTO 18007KT 10SM CLR 23/03 A2995 2280 25 3800 170/07 RMK AO2 $
53144K9L2 9L220160824232510108/24/16 23:25:31  5-MIN K9L2 250725Z AUTO 19008KT 10SM CLR 23/03 A2995 2280 25 3800 170/08 RMK AO2 $
53144K9L2 9L220160824233010108/24/16 23:30:31  5-MIN K9L2 250730Z AUTO 20007KT 10SM CLR 24/03 A2994 2280 25 3900 190/07 RMK AO2 $
53144K9L2 9L220160824233510108/24/16 23:35:31  5-MIN K9L2 250735Z AUTO 19007KT 10SM CLR 24/02 A2994 2280 24 3900 180/07 RMK AO2 $
53144K9L2 9L220160824234010108/24/16 23:40:31  5-MIN K9L2 250740Z AUTO 19007KT 10SM CLR 23/02 A2994 2280 24 3800 170/07 RMK AO2 $
53144K9L2 9L220160824234510108/24/16 23:45:31  5-MIN K9L2 250745Z AUTO 19006KT 10SM CLR 23/02 A2994 2280 24 3800 170/06 RMK AO2 $
53144K9L2 9L220160824235010108/24/16 23:50:31  5-MIN K9L2 250750Z AUTO 19009KT 10SM CLR 23/02 A2994 2280 24 3800 170/09 RMK AO2 $
53144K9L2 9L220160824235512808/24/16 23:55:31  5-MIN K9L2 250755Z AUTO 19007KT 10SM CLR 23/02 A2994 2280 24 3800 170/07 RMK AO2 SLP114 T02330022 403890172 $
53144K9L2 9L220160825000010108/25/16 00:00:31  5-MIN K9L2 250800Z AUTO 18008KT 10SM CLR 23/02 A2994 2280 24 3800 160/08 RMK AO2 $
53144K9L2 9L220160825000510108/25/16 00:05:31  5-MIN K9L2 250805Z AUTO 18010KT 10SM CLR 23/02 A2994 2290 24 3800 160/10 RMK AO2 $
53144K9L2 9L220160825001010108/25/16 00:10:31  5-MIN K9L2 250810Z AUTO 19008KT 10SM CLR 23/02 A2994 2290 24 3800 180/08 RMK AO2 $
53144K9L2 9L220160825001510108/25/16 00:15:31  5-MIN K9L2 250815Z AUTO 19008KT 10SM CLR 23/02 A2994 2290 24 3800 180/08 RMK AO2 $
53144K9L2 9L220160825002010108/25/16 00:20:31  5-MIN K9L2 250820Z AUTO 19009KT 10SM CLR 23/02 A2994 2290 24 3700 170/09 RMK AO2 $
53144K9L2 9L220160825002510108/25/16 00:25:31  5-MIN K9L2 250825Z AUTO 18008KT 10SM CLR 23/02 A2994 2290 24 3800 170/08 RMK AO2 $
53144K9L2 9L220160825003010108/25/16 00:30:31  5-MIN K9L2 250830Z AUTO 18009KT 10SM CLR 23/02 A2993 2290 24 3700 170/09 RMK AO2 $
53144K9L2 9L220160825003510108/25/16 00:35:31  5-MIN K9L2 250835Z AUTO 18009KT 10SM CLR 23/02 A2993 2290 24 3800 170/09 RMK AO2 $
53144K9L2 9L220160825004010108/25/16 00:40:31  5-MIN K9L2 250840Z AUTO 19009KT 10SM CLR 22/02 A2993 2290 26 3700 170/09 RMK AO2 $
53144K9L2 9L220160825004510108/25/16 00:45:31  5-MIN K9L2 250845Z AUTO 18009KT 10SM CLR 23/02 A2993 2290 24 3800 170/09 RMK AO2 $
53144K9L2 9L220160825005010108/25/16 00:50:31  5-MIN K9L2 250850Z AUTO 19009KT 10SM CLR 23/02 A2993 2290 24 3800 180/09 RMK AO2 $
53144K9L2 9L220160825005512408/25/16 00:55:31  5-MIN K9L2 250855Z AUTO 20008KT 10SM CLR 22/02 A2993 2300 25 3700 180/08 RMK AO2 SLP110 T02220017 50008 $
53144K9L2 9L220160825010010108/25/16 01:00:31  5-MIN K9L2 250900Z AUTO 19010KT 10SM CLR 22/02 A2993 2300 25 3700 180/10 RMK AO2 $
53144K9L2 9L220160825010510108/25/16 01:05:31  5-MIN K9L2 250905Z AUTO 20009KT 10SM CLR 22/02 A2993 2300 25 3700 190/09 RMK AO2 $
53144K9L2 9L220160825011010108/25/16 01:10:31  5-MIN K9L2 250910Z AUTO 19009KT 10SM CLR 22/02 A2993 2300 26 3700 180/09 RMK AO2 $
53144K9L2 9L220160825011510108/25/16 01:15:31  5-MIN K9L2 250915Z AUTO 19008KT 10SM CLR 22/02 A2993 2300 26 3600 180/08 RMK AO2 $
53144K9L2 9L220160825012010108/25/16 01:20:31  5-MIN K9L2 250920Z AUTO 19007KT 10SM CLR 22/02 A2993 2300 26 3600 170/07 RMK AO2 $
53144K9L2 9L220160825012510108/25/16 01:25:31  5-MIN K9L2 250925Z AUTO 18008KT 10SM CLR 22/02 A2993 2300 26 3600 170/08 RMK AO2 $
53144K9L2 9L220160825013010108/25/16 01:30:31  5-MIN K9L2 250930Z AUTO 18009KT 10SM CLR 21/02 A2992 2300 27 3600 170/09 RMK AO2 $
53144K9L2 9L220160825013510108/25/16 01:35:31  5-MIN K9L2 250935Z AUTO 18010KT 10SM CLR 22/02 A2993 2300 26 3600 170/10 RMK AO2 $
53144K9L2 9L220160825014010108/25/16 01:40:31  5-MIN K9L2 250940Z AUTO 18009KT 10SM CLR 21/02 A2993 2300 27 3600 170/09 RMK AO2 $
53144K9L2 9L220160825014510108/25/16 01:45:31  5-MIN K9L2 250945Z AUTO 18009KT 10SM CLR 21/02 A2993 2300 27 3600 170/09 RMK AO2 $
53144K9L2 9L220160825015010108/25/16 01:50:31  5-MIN K9L2 250950Z AUTO 18009KT 10SM CLR 21/02 A2992 2300 27 3600 170/09 RMK AO2 $
53144K9L2 9L220160825015511808/25/16 01:55:31  5-MIN K9L2 250955Z AUTO 19010KT 10SM CLR 21/02 A2992 2300 27 3600 180/10 RMK AO2 SLP110 T02110017 $
53144K9L2 9L220160825020010108/25/16 02:00:31  5-MIN K9L2 251000Z AUTO 18008KT 10SM CLR 22/02 A2993 2300 26 3600 170/08 RMK AO2 $
53144K9L2 9L220160825020510108/25/16 02:05:31  5-MIN K9L2 251005Z AUTO 18007KT 10SM CLR 21/02 A2993 2300 27 3600 170/07 RMK AO2 $
53144K9L2 9L220160825021010108/25/16 02:10:31  5-MIN K9L2 251010Z AUTO 18007KT 10SM CLR 21/02 A2992 2300 27 3600 170/07 RMK AO2 $
53144K9L2 9L220160825021510108/25/16 02:15:31  5-MIN K9L2 251015Z AUTO 18007KT 10SM CLR 21/02 A2993 2300 28 3500 160/07 RMK AO2 $
53144K9L2 9L220160825022010108/25/16 02:20:31  5-MIN K9L2 251020Z AUTO 18009KT 10SM CLR 21/02 A2993 2300 27 3600 170/09 RMK AO2 $
53144K9L2 9L220160825022510108/25/16 02:25:31  5-MIN K9L2 251025Z AUTO 18007KT 10SM CLR 21/02 A2993 2300 28 3500 160/07 RMK AO2 $
53144K9L2 9L220160825023010108/25/16 02:30:31  5-MIN K9L2 251030Z AUTO 18009KT 10SM CLR 21/02 A2993 2300 28 3500 160/09 RMK AO2 $
53144K9L2 9L220160825023510108/25/16 02:35:31  5-MIN K9L2 251035Z AUTO 18009KT 10SM CLR 21/02 A2992 2300 28 3500 170/09 RMK AO2 $
53144K9L2 9L220160825024010108/25/16 02:40:31  5-MIN K9L2 251040Z AUTO 18007KT 10SM CLR 20/02 A2993 2300 29 3400 160/07 RMK AO2 $
53144K9L2 9L220160825024510108/25/16 02:45:31  5-MIN K9L2 251045Z AUTO 18008KT 10SM CLR 20/02 A2992 2300 29 3400 170/08 RMK AO2 $
53144K9L2 9L220160825025010108/25/16 02:50:31  5-MIN K9L2 251050Z AUTO 19009KT 10SM CLR 20/02 A2992 2300 29 3400 170/09 RMK AO2 $
53144K9L2 9L220160825025511808/25/16 02:55:31  5-MIN K9L2 251055Z AUTO 19009KT 10SM CLR 20/02 A2992 2300 29 3400 180/09 RMK AO2 SLP110 T02000017 $
53144K9L2 9L220160825030010108/25/16 03:00:31  5-MIN K9L2 251100Z AUTO 19009KT 10SM CLR 21/02 A2993 2300 28 3500 180/09 RMK AO2 $
53144K9L2 9L220160825030510108/25/16 03:05:31  5-MIN K9L2 251105Z AUTO 18009KT 10SM CLR 20/02 A2993 2300 29 3400 170/09 RMK AO2 $
53144K9L2 9L220160825031010108/25/16 03:10:31  5-MIN K9L2 251110Z AUTO 20009KT 10SM CLR 20/02 A2993 2300 29 3400 180/09 RMK AO2 $
53144K9L2 9L220160825031510108/25/16 03:15:31  5-MIN K9L2 251115Z AUTO 19008KT 10SM CLR 21/02 A2993 2300 29 3500 180/08 RMK AO2 $
53144K9L2 9L220160825032010108/25/16 03:20:31  5-MIN K9L2 251120Z AUTO 19008KT 10SM CLR 20/02 A2993 2300 30 3400 180/08 RMK AO2 $
53144K9L2 9L220160825032510108/25/16 03:25:31  5-MIN K9L2 251125Z AUTO 19007KT 10SM CLR 20/02 A2993 2300 30 3400 170/07 RMK AO2 $
53144K9L2 9L220160825033010108/25/16 03:30:31  5-MIN K9L2 251130Z AUTO 19008KT 10SM CLR 20/02 A2993 2300 30 3400 170/08 RMK AO2 $
53144K9L2 9L220160825033510108/25/16 03:35:31  5-MIN K9L2 251135Z AUTO 19009KT 10SM CLR 20/02 A2993 2300 30 3400 180/09 RMK AO2 $
53144K9L2 9L220160825034010108/25/16 03:40:31  5-MIN K9L2 251140Z AUTO 19008KT 10SM CLR 20/02 A2992 2300 30 3400 180/08 RMK AO2 $
53144K9L2 9L220160825034510108/25/16 03:45:31  5-MIN K9L2 251145Z AUTO 19008KT 10SM CLR 20/02 A2993 2300 30 3400 180/08 RMK AO2 $
53144K9L2 9L220160825035010108/25/16 03:50:31  5-MIN K9L2 251150Z AUTO 19009KT 10SM CLR 20/02 A2993 2300 30 3400 180/09 RMK AO2 $
53144K9L2 9L220160825035513608/25/16 03:55:31  5-MIN K9L2 251155Z AUTO 19010KT 10SM CLR 20/02 A2993 2300 30 3400 180/10 RMK AO2 SLP110 T02000022 10250 20200 58008 $
53144K9L2 9L220160825040010108/25/16 04:00:31  5-MIN K9L2 251200Z AUTO 20010KT 10SM CLR 21/03 A2993 2300 30 3500 180/10 RMK AO2 $
53144K9L2 9L220160825040510108/25/16 04:05:31  5-MIN K9L2 251205Z AUTO 20009KT 10SM CLR 20/02 A2993 2300 30 3400 180/09 RMK AO2 $
53144K9L2 9L220160825041010108/25/16 04:10:31  5-MIN K9L2 251210Z AUTO 19009KT 10SM CLR 20/02 A2993 2300 30 3400 180/09 RMK AO2 $
53144K9L2 9L220160825041510108/25/16 04:15:31  5-MIN K9L2 251215Z AUTO 19009KT 10SM CLR 20/02 A2993 2300 30 3400 180/09 RMK AO2 $
53144K9L2 9L220160825042010108/25/16 04:20:31  5-MIN K9L2 251220Z AUTO 19009KT 10SM CLR 20/03 A2993 2300 31 3400 180/09 RMK AO2 $
53144K9L2 9L220160825042510108/25/16 04:25:31  5-MIN K9L2 251225Z AUTO 20008KT 10SM CLR 20/03 A2993 2300 31 3400 180/08 RMK AO2 $
53144K9L2 9L220160825043010108/25/16 04:30:31  5-MIN K9L2 251230Z AUTO 20008KT 10SM CLR 20/03 A2993 2290 31 3400 180/08 RMK AO2 $
53144K9L2 9L220160825043510108/25/16 04:35:31  5-MIN K9L2 251235Z AUTO 20008KT 10SM CLR 20/03 A2993 2290 31 3400 190/08 RMK AO2 $
53144K9L2 9L220160825044010108/25/16 04:40:31  5-MIN K9L2 251240Z AUTO 20006KT 10SM CLR 19/03 A2993 2290 33 3400 190/06 RMK AO2 $
53144K9L2 9L220160825044510108/25/16 04:45:31  5-MIN K9L2 251245Z AUTO 20006KT 10SM CLR 19/03 A2993 2290 33 3400 190/06 RMK AO2 $
53144K9L2 9L220160825045010108/25/16 04:50:31  5-MIN K9L2 251250Z AUTO 21007KT 10SM CLR 19/03 A2993 2290 34 3400 190/07 RMK AO2 $
53144K9L2 9L220160825045511808/25/16 04:55:31  5-MIN K9L2 251255Z AUTO 21008KT 10SM CLR 20/03 A2993 2290 33 3400 190/08 RMK AO2 SLP114 T02000033 $
53144K9L2 9L220160825050010108/25/16 05:00:31  5-MIN K9L2 251300Z AUTO 20007KT 10SM CLR 20/03 A2993 2290 33 3400 190/07 RMK AO2 $
53144K9L2 9L220160825050510108/25/16 05:05:31  5-MIN K9L2 251305Z AUTO 21007KT 10SM CLR 20/03 A2993 2290 33 3400 190/07 RMK AO2 $
53144K9L2 9L220160825051010108/25/16 05:10:31  5-MIN K9L2 251310Z AUTO 20006KT 10SM CLR 19/04 A2994 2290 35 3400 190/06 RMK AO2 $
53144K9L2 9L220160825051510108/25/16 05:15:31  5-MIN K9L2 251315Z AUTO 19008KT 10SM CLR 19/04 A2994 2290 35 3400 180/08 RMK AO2 $
53144K9L2 9L220160825052010108/25/16 05:20:31  5-MIN K9L2 251320Z AUTO 20008KT 10SM CLR 19/04 A2994 2290 35 3400 180/08 RMK AO2 $
53144K9L2 9L220160825052510108/25/16 05:25:31  5-MIN K9L2 251325Z AUTO 20008KT 10SM CLR 19/04 A2994 2290 36 3300 190/08 RMK AO2 $
53144K9L2 9L220160825053010108/25/16 05:30:31  5-MIN K9L2 251330Z AUTO 20008KT 10SM CLR 19/04 A2994 2280 35 3400 180/08 RMK AO2 $
53144K9L2 9L220160825053510108/25/16 05:35:31  5-MIN K9L2 251335Z AUTO 20008KT 10SM CLR 19/04 A2994 2280 35 3400 180/08 RMK AO2 $
53144K9L2 9L220160825054010108/25/16 05:40:31  5-MIN K9L2 251340Z AUTO 19008KT 10SM CLR 19/04 A2994 2280 35 3400 180/08 RMK AO2 $
53144K9L2 9L220160825054510108/25/16 05:45:31  5-MIN K9L2 251345Z AUTO 20009KT 10SM CLR 19/04 A2994 2280 35 3400 180/09 RMK AO2 $
53144K9L2 9L220160825055010108/25/16 05:50:31  5-MIN K9L2 251350Z AUTO 19008KT 10SM CLR 20/04 A2994 2280 34 3400 180/08 RMK AO2 $
53144K9L2 9L220160825055511808/25/16 05:55:31  5-MIN K9L2 251355Z AUTO 19009KT 10SM CLR 20/04 A2994 2280 34 3400 180/09 RMK AO2 SLP119 T02000039 $
53144K9L2 9L220160825060010108/25/16 06:00:31  5-MIN K9L2 251400Z AUTO 19008KT 10SM CLR 20/04 A2995 2280 34 3400 180/08 RMK AO2 $
53144K9L2 9L220160825060510108/25/16 06:05:31  5-MIN K9L2 251405Z AUTO 20008KT 10SM CLR 20/04 A2995 2280 34 3400 180/08 RMK AO2 $
53144K9L2 9L220160825061010108/25/16 06:10:31  5-MIN K9L2 251410Z AUTO 19008KT 10SM CLR 21/04 A2995 2280 33 3500 180/08 RMK AO2 $
53144K9L2 9L220160825061510108/25/16 06:15:31  5-MIN K9L2 251415Z AUTO 20008KT 10SM CLR 21/04 A2995 2280 33 3500 190/08 RMK AO2 $
53144K9L2 9L220160825062010108/25/16 06:20:31  5-MIN K9L2 251420Z AUTO 20007KT 10SM CLR 21/04 A2995 2280 32 3500 190/07 RMK AO2 $
53144K9L2 9L220160825062510108/25/16 06:25:31  5-MIN K9L2 251425Z AUTO 21007KT 10SM CLR 22/04 A2995 2280 32 3600 190/07 RMK AO2 $
53144K9L2 9L220160825063010108/25/16 06:30:31  5-MIN K9L2 251430Z AUTO 20007KT 10SM CLR 22/04 A2995 2270 31 3700 190/07 RMK AO2 $
53144K9L2 9L220160825063510108/25/16 06:35:31  5-MIN K9L2 251435Z AUTO 20007KT 10SM CLR 22/04 A2995 2270 31 3700 190/07 RMK AO2 $
53144K9L2 9L220160825064010108/25/16 06:40:31  5-MIN K9L2 251440Z AUTO 20007KT 10SM CLR 23/04 A2995 2280 30 3700 190/07 RMK AO2 $
53144K9L2 9L220160825064510108/25/16 06:45:31  5-MIN K9L2 251445Z AUTO 20007KT 10SM CLR 23/04 A2995 2280 30 3700 190/07 RMK AO2 $
53144K9L2 9L220160825065010108/25/16 06:50:31  5-MIN K9L2 251450Z AUTO 20006KT 10SM CLR 23/04 A2995 2270 28 3800 180/06 RMK AO2 $
53144K9L2 9L220160825065512408/25/16 06:55:31  5-MIN K9L2 251455Z AUTO 20003KT 10SM CLR 23/04 A2995 2270 28 3800 190/03 RMK AO2 SLP122 T02330039 56000 $
53144K9L2 9L220160825070010108/25/16 07:00:31  5-MIN K9L2 251500Z AUTO 16003KT 10SM CLR 24/04 A2995 2270 27 3900 150/03 RMK AO2 $
53144K9L2 9L220160825070510108/25/16 07:05:31  5-MIN K9L2 251505Z AUTO 23003KT 10SM CLR 24/03 A2995 2270 25 3900 220/03 RMK AO2 $
53144K9L2 9L220160825071010108/25/16 07:10:31  5-MIN K9L2 251510Z AUTO 23004KT 10SM CLR 27/01 A2995 2270 18 4200 220/04 RMK AO2 $
53144K9L2 9L220160825071510108/25/16 07:15:31  5-MIN K9L2 251515Z AUTO 25006KT 10SM CLR 27/00 A2995 2270 17 4200 230/06 RMK AO2 $
53144K9L2 9L220160825072010208/25/16 07:20:31  5-MIN K9L2 251520Z AUTO 24007KT 10SM CLR 27/M01 A2995 2270 16 4200 230/07 RMK AO2 $
53144K9L2 9L220160825072510208/25/16 07:25:31  5-MIN K9L2 251525Z AUTO 23007KT 10SM CLR 28/M01 A2995 2270 15 4300 220/07 RMK AO2 $
53144K9L2 9L220160825073010208/25/16 07:30:31  5-MIN K9L2 251530Z AUTO 24007KT 10SM CLR 28/M01 A2995 2270 14 4300 220/07 RMK AO2 $
53144K9L2 9L220160825073510208/25/16 07:35:31  5-MIN K9L2 251535Z AUTO 24008KT 10SM CLR 28/M01 A2995 2270 15 4300 230/08 RMK AO2 $
53144K9L2 9L220160825074010208/25/16 07:40:31  5-MIN K9L2 251540Z AUTO 24007KT 10SM CLR 29/M01 A2995 2270 14 4400 230/07 RMK AO2 $
53144K9L2 9L220160825074510208/25/16 07:45:31  5-MIN K9L2 251545Z AUTO 24008KT 10SM CLR 29/M01 A2995 2270 14 4400 230/08 RMK AO2 $
53144K9L2 9L220160825075010208/25/16 07:50:31  5-MIN K9L2 251550Z AUTO 24008KT 10SM CLR 29/M02 A2995 2270 13 4500 230/08 RMK AO2 $
53144K9L2 9L220160825075511908/25/16 07:55:31  5-MIN K9L2 251555Z AUTO 25009KT 10SM CLR 29/M03 A2995 2270 12 4500 240/09 RMK AO2 SLP119 T02941028 $
53144K9L2 9L220160825080010208/25/16 08:00:31  5-MIN K9L2 251600Z AUTO 25010KT 10SM CLR 30/M03 A2995 2270 11 4500 240/10 RMK AO2 $
53144K9L2 9L220160825080510208/25/16 08:05:31  5-MIN K9L2 251605Z AUTO 25009KT 10SM CLR 30/M03 A2995 2270 11 4500 240/09 RMK AO2 $
53144K9L2 9L220160825081010208/25/16 08:10:31  5-MIN K9L2 251610Z AUTO 23009KT 10SM CLR 30/M03 A2995 2270 11 4500 220/09 RMK AO2 $
53144K9L2 9L220160825081510208/25/16 08:15:31  5-MIN K9L2 251615Z AUTO 24007KT 10SM CLR 31/M04 A2995 2270 10 4600 230/07 RMK AO2 $
53144K9L2 9L220160825082010208/25/16 08:20:31  5-MIN K9L2 251620Z AUTO 25009KT 10SM CLR 31/M04 A2995 2270 10 4600 240/09 RMK AO2 $
53144K9L2 9L220160825082510208/25/16 08:25:31  5-MIN K9L2 251625Z AUTO 24008KT 10SM CLR 31/M04 A2995 2270 10 4600 230/08 RMK AO2 $
53144K9L2 9L220160825083010208/25/16 08:30:31  5-MIN K9L2 251630Z AUTO 22008KT 10SM CLR 31/M04 A2995 2270 10 4600 210/08 RMK AO2 $
53144K9L2 9L220160825083510208/25/16 08:35:31  5-MIN K9L2 251635Z AUTO 25007KT 10SM CLR 31/M04 A2995 2270 09 4600 230/07 RMK AO2 $
53144K9L2 9L220160825084010208/25/16 08:40:31  5-MIN K9L2 251640Z AUTO 25007KT 10SM CLR 31/M04 A2995 2270 10 4700 230/07 RMK AO2 $
53144K9L2 9L220160825084510208/25/16 08:45:31  5-MIN K9L2 251645Z AUTO 25010KT 10SM CLR 32/M04 A2995 2280 09 4700 230/10 RMK AO2 $
53144K9L2 9L220160825085010808/25/16 08:50:31  5-MIN K9L2 251650Z AUTO 23009G14KT 10SM CLR 32/M05 A2995 2280 09 4700 220/09G14 RMK AO2 $
53144K9L2 9L220160825085512508/25/16 08:55:31  5-MIN K9L2 251655Z AUTO 24011G15KT 10SM CLR 32/M06 A2995 2280 08 4800 230/11G15 RMK AO2 SLP117 T03221056 $
53144K9L2 9L220160825090010208/25/16 09:00:31  5-MIN K9L2 251700Z AUTO 24012KT 10SM CLR 32/M06 A2995 2280 08 4800 230/12 RMK AO2 $
53144K9L2 9L220160825090510208/25/16 09:05:31  5-MIN K9L2 251705Z AUTO 25013KT 10SM CLR 32/M06 A2995 2280 08 4800 240/13 RMK AO2 $
53144K9L2 9L220160825091010808/25/16 09:10:31  5-MIN K9L2 251710Z AUTO 26013G19KT 10SM CLR 33/M07 A2995 2280 07 4800 250/13G19 RMK AO2 $
53144K9L2 9L220160825091510808/25/16 09:15:31  5-MIN K9L2 251715Z AUTO 26012G19KT 10SM CLR 33/M06 A2995 2280 07 4900 240/12G19 RMK AO2 $
53144K9L2 9L220160825092010808/25/16 09:20:31  5-MIN K9L2 251720Z AUTO 23012G18KT 10SM CLR 33/M06 A2995 2280 08 4800 220/12G18 RMK AO2 $
53144K9L2 9L220160825092510808/25/16 09:25:31  5-MIN K9L2 251725Z AUTO 23012G17KT 10SM CLR 33/M04 A2995 2280 09 4900 220/12G17 RMK AO2 $
53144K9L2 9L220160825093010808/25/16 09:30:31  5-MIN K9L2 251730Z AUTO 25013G18KT 10SM CLR 33/M05 A2994 2280 08 4900 240/13G18 RMK AO2 $
53144K9L2 9L220160825093510808/25/16 09:35:31  5-MIN K9L2 251735Z AUTO 24011G18KT 10SM CLR 33/M06 A2994 2280 08 4900 230/11G18 RMK AO2 $
53144K9L2 9L220160825094010208/25/16 09:40:31  5-MIN K9L2 251740Z AUTO 24011KT 10SM CLR 33/M06 A2994 2280 08 4900 220/11 RMK AO2 $
53144K9L2 9L220160825094510208/25/16 09:45:31  5-MIN K9L2 251745Z AUTO 24010KT 10SM CLR 34/M05 A2994 2280 08 5000 220/10 RMK AO2 $
53144K9L2 9L220160825095010808/25/16 09:50:31  5-MIN K9L2 251750Z AUTO 24011G17KT 10SM CLR 34/M05 A2994 2280 08 5000 230/11G17 RMK AO2 $
53144K9L2 9L220160825095514308/25/16 09:55:31  5-MIN K9L2 251755Z AUTO 25009G17KT 10SM CLR 34/M05 A2994 2280 08 5000 230/09G17 RMK AO2 SLP115 T03391050 10339 20189 53008 $
53144K9L2 9L220160825100012408/25/16 10:00:31  5-MIN K9L2 251800Z AUTO 23011G14KT 210V280 10SM CLR 34/M05 A2994 2290 07 5000 220/11G14 200V270 RMK AO2 $
53144K9L2 9L220160825100510808/25/16 10:05:31  5-MIN K9L2 251805Z AUTO 23011G14KT 10SM CLR 34/M05 A2994 2290 08 5000 220/11G14 RMK AO2 $
53144K9L2 9L220160825101010208/25/16 10:10:31  5-MIN K9L2 251810Z AUTO 24013KT 10SM CLR 34/M05 A2994 2280 08 5000 230/13 RMK AO2 $
53144K9L2 9L220160825101510208/25/16 10:15:31  5-MIN K9L2 251815Z AUTO 24010KT 10SM CLR 34/M04 A2994 2290 08 5000 230/10 RMK AO2 $
53144K9L2 9L220160825102010208/25/16 10:20:31  5-MIN K9L2 251820Z AUTO 23011KT 10SM CLR 34/M05 A2994 2290 08 5000 220/11 RMK AO2 $
53144K9L2 9L220160825102510808/25/16 10:25:31  5-MIN K9L2 251825Z AUTO 22011G17KT 10SM CLR 34/M05 A2993 2290 07 5000 210/11G17 RMK AO2 $
53144K9L2 9L220160825103010808/25/16 10:30:31  5-MIN K9L2 251830Z AUTO 25009G17KT 10SM CLR 35/M05 A2993 2290 07 5100 230/09G17 RMK AO2 $
53144K9L2 9L220160825103510808/25/16 10:35:31  5-MIN K9L2 251835Z AUTO 24013G16KT 10SM CLR 35/M06 A2993 2290 07 5100 230/13G16 RMK AO2 $
53144K9L2 9L220160825104010808/25/16 10:40:31  5-MIN K9L2 251840Z AUTO 24008G16KT 10SM CLR 35/M06 A2993 2290 07 5100 230/08G16 RMK AO2 $
53144K9L2 9L220160825104510808/25/16 10:45:31  5-MIN K9L2 251845Z AUTO 23010G16KT 10SM CLR 35/M06 A2993 2300 07 5100 220/10G16 RMK AO2 $
53144K9L2 9L220160825105010808/25/16 10:50:31  5-MIN K9L2 251850Z AUTO 27007G16KT 10SM CLR 34/M06 A2992 2300 07 5000 260/07G16 RMK AO2 $
53144K9L2 9L220160825211010108/25/16 21:10:31  5-MIN K9L2 260510Z AUTO 23011KT 10SM CLR 26/05 A2989 2330 25 4200 220/11 RMK AO2 $
53144K9L2 9L220160825211510108/25/16 21:15:31  5-MIN K9L2 260515Z AUTO 22012KT 10SM CLR 26/05 A2989 2330 25 4200 210/12 RMK AO2 $
53144K9L2 9L220160825212010108/25/16 21:20:31  5-MIN K9L2 260520Z AUTO 22011KT 10SM CLR 26/05 A2989 2330 25 4200 210/11 RMK AO2 $
53144K9L2 9L220160825212510108/25/16 21:25:31  5-MIN K9L2 260525Z AUTO 23011KT 10SM CLR 26/06 A2989 2330 26 4200 210/11 RMK AO2 $
53144K9L2 9L220160825213010108/25/16 21:30:31  5-MIN K9L2 260530Z AUTO 23013KT 10SM CLR 26/06 A2989 2330 26 4200 220/13 RMK AO2 $
53144K9L2 9L220160825213510108/25/16 21:35:31  5-MIN K9L2 260535Z AUTO 23012KT 10SM CLR 26/05 A2989 2330 25 4200 220/12 RMK AO2 $
53144K9L2 9L220160825214010108/25/16 21:40:31  5-MIN K9L2 260540Z AUTO 23011KT 10SM CLR 26/05 A2989 2330 25 4200 220/11 RMK AO2 $
53144K9L2 9L220160825214510108/25/16 21:45:31  5-MIN K9L2 260545Z AUTO 23013KT 10SM CLR 26/05 A2989 2330 25 4200 220/13 RMK AO2 $
53144K9L2 9L220160825215010108/25/16 21:50:31  5-MIN K9L2 260550Z AUTO 24011KT 10SM CLR 26/05 A2989 2330 25 4200 220/11 RMK AO2 $
53144K9L2 9L220160825215513608/25/16 21:55:31  5-MIN K9L2 260555Z AUTO 24010KT 10SM CLR 26/05 A2989 2330 25 4200 230/10 RMK AO2 SLP096 T02610050 10361 20256 53010 $
53144K9L2 9L220160825220010108/25/16 22:00:31  5-MIN K9L2 260600Z AUTO 24009KT 10SM CLR 26/05 A2989 2330 26 4100 220/09 RMK AO2 $
53144K9L2 9L220160825220510108/25/16 22:05:31  5-MIN K9L2 260605Z AUTO 24008KT 10SM CLR 26/05 A2989 2330 26 4100 230/08 RMK AO2 $
53144K9L2 9L220160825221010108/25/16 22:10:31  5-MIN K9L2 260610Z AUTO 23009KT 10SM CLR 26/05 A2989 2330 26 4100 220/09 RMK AO2 $
53144K9L2 9L220160825221510108/25/16 22:15:31  5-MIN K9L2 260615Z AUTO 23007KT 10SM CLR 26/05 A2988 2340 26 4100 220/07 RMK AO2 $
53144K9L2 9L220160825222010108/25/16 22:20:31  5-MIN K9L2 260620Z AUTO 25005KT 10SM CLR 25/04 A2989 2340 26 4100 230/05 RMK AO2 $
53144K9L2 9L220160825222510108/25/16 22:25:31  5-MIN K9L2 260625Z AUTO 25005KT 10SM CLR 25/04 A2989 2330 26 4100 240/05 RMK AO2 $
53144K9L2 9L220160825223010108/25/16 22:30:31  5-MIN K9L2 260630Z AUTO 24006KT 10SM CLR 25/04 A2989 2330 25 4100 220/06 RMK AO2 $
53144K9L2 9L220160825223510108/25/16 22:35:31  5-MIN K9L2 260635Z AUTO 23006KT 10SM CLR 26/03 A2989 2330 23 4100 220/06 RMK AO2 $
53144K9L2 9L220160825224010108/25/16 22:40:31  5-MIN K9L2 260640Z AUTO 22006KT 10SM CLR 26/03 A2989 2330 23 4100 210/06 RMK AO2 $
53144K9L2 9L220160825224510108/25/16 22:45:31  5-MIN K9L2 260645Z AUTO 21006KT 10SM CLR 25/03 A2988 2340 24 4100 200/06 RMK AO2 $
53144K9L2 9L220160825225010108/25/16 22:50:31  5-MIN K9L2 260650Z AUTO 21005KT 10SM CLR 25/03 A2989 2330 24 4100 190/05 RMK AO2 $
53144K9L2 9L220160825225511808/25/16 22:55:31  5-MIN K9L2 260655Z AUTO 22007KT 10SM CLR 25/03 A2989 2330 24 4100 210/07 RMK AO2 SLP096 T02500033 $
53144K9L2 9L220160825230010108/25/16 23:00:31  5-MIN K9L2 260700Z AUTO 22009KT 10SM CLR 25/03 A2989 2330 24 4100 210/09 RMK AO2 $
53144K9L2 9L220160825230510108/25/16 23:05:31  5-MIN K9L2 260705Z AUTO 23007KT 10SM CLR 25/04 A2989 2330 25 4100 210/07 RMK AO2 $
53144K9L2 9L220160825231010108/25/16 23:10:31  5-MIN K9L2 260710Z AUTO 23006KT 10SM CLR 24/04 A2989 2330 26 4000 210/06 RMK AO2 $
53144K9L2 9L220160825231510108/25/16 23:15:31  5-MIN K9L2 260715Z AUTO 23005KT 10SM CLR 24/03 A2989 2330 25 4000 210/05 RMK AO2 $
53144K9L2 9L220160825232010108/25/16 23:20:31  5-MIN K9L2 260720Z AUTO 22007KT 10SM CLR 24/04 A2989 2330 26 4000 210/07 RMK AO2 $
53144K9L2 9L220160825232510108/25/16 23:25:31  5-MIN K9L2 260725Z AUTO 21004KT 10SM CLR 24/04 A2989 2340 26 4000 200/04 RMK AO2 $
53144K9L2 9L220160825233010108/25/16 23:30:31  5-MIN K9L2 260730Z AUTO 22004KT 10SM CLR 24/03 A2988 2340 26 3900 200/04 RMK AO2 $
53144K9L2 9L220160825233510108/25/16 23:35:31  5-MIN K9L2 260735Z AUTO 22005KT 10SM CLR 23/03 A2988 2340 26 3900 210/05 RMK AO2 $
53144K9L2 9L220160825234010108/25/16 23:40:31  5-MIN K9L2 260740Z AUTO 21003KT 10SM CLR 24/04 A2988 2340 27 3900 200/03 RMK AO2 $
53144K9L2 9L220160825234510108/25/16 23:45:31  5-MIN K9L2 260745Z AUTO 00000KT 10SM CLR 23/04 A2988 2340 28 3900 000/00 RMK AO2 $
53144K9L2 9L220160825235010108/25/16 23:50:31  5-MIN K9L2 260750Z AUTO 00000KT 10SM CLR 23/04 A2988 2340 28 3900 000/00 RMK AO2 $
53144K9L2 9L220160825235512808/25/16 23:55:31  5-MIN K9L2 260755Z AUTO 00000KT 10SM CLR 22/04 A2988 2340 30 3700 000/00 RMK AO2 SLP095 T02220039 403830189 $
53144K9L2 9L220160826000010108/26/16 00:00:31  5-MIN K9L2 260800Z AUTO 19005KT 10SM CLR 23/04 A2988 2340 30 3800 180/05 RMK AO2 $
53144K9L2 9L220160826000510108/26/16 00:05:31  5-MIN K9L2 260805Z AUTO 19006KT 10SM CLR 23/05 A2988 2340 30 3900 170/06 RMK AO2 $
53144K9L2 9L220160826001010108/26/16 00:10:31  5-MIN K9L2 260810Z AUTO 18007KT 10SM CLR 23/05 A2988 2340 30 3900 170/07 RMK AO2 $
53144K9L2 9L220160826001510108/26/16 00:15:31  5-MIN K9L2 260815Z AUTO 19007KT 10SM CLR 23/05 A2988 2340 30 3900 180/07 RMK AO2 $
53144K9L2 9L220160826002010108/26/16 00:20:31  5-MIN K9L2 260820Z AUTO 20007KT 10SM CLR 23/05 A2988 2340 30 3900 190/07 RMK AO2 $
53144K9L2 9L220160826002510108/26/16 00:25:31  5-MIN K9L2 260825Z AUTO 22005KT 10SM CLR 23/05 A2988 2340 30 3900 210/05 RMK AO2 $
53144K9L2 9L220160826003010108/26/16 00:30:31  5-MIN K9L2 260830Z AUTO 22007KT 10SM CLR 23/05 A2988 2340 30 3900 210/07 RMK AO2 $
53144K9L2 9L220160826003510108/26/16 00:35:31  5-MIN K9L2 260835Z AUTO 22009KT 10SM CLR 24/06 A2988 2340 30 3900 200/09 RMK AO2 $
53144K9L2 9L220160826004010108/26/16 00:40:31  5-MIN K9L2 260840Z AUTO 21005KT 10SM CLR 23/06 A2988 2340 31 3900 200/05 RMK AO2 $
53144K9L2 9L220160826004510108/26/16 00:45:31  5-MIN K9L2 260845Z AUTO 22007KT 10SM CLR 23/06 A2987 2350 31 3900 200/07 RMK AO2 $
53144K9L2 9L220160826005010108/26/16 00:50:31  5-MIN K9L2 260850Z AUTO 22008KT 10SM CLR 23/06 A2988 2340 31 3900 210/08 RMK AO2 $
53144K9L2 9L220160826005512408/26/16 00:55:31  5-MIN K9L2 260855Z AUTO 23011KT 10SM CLR 23/06 A2988 2340 31 3900 210/11 RMK AO2 SLP092 T02330056 50007 $
53144K9L2 9L220160826010010108/26/16 01:00:31  5-MIN K9L2 260900Z AUTO 20007KT 10SM CLR 23/06 A2988 2340 31 3900 190/07 RMK AO2 $
53144K9L2 9L220160826010510108/26/16 01:05:31  5-MIN K9L2 260905Z AUTO 18008KT 10SM CLR 23/06 A2988 2340 31 3900 160/08 RMK AO2 $
53144K9L2 9L220160826011010108/26/16 01:10:31  5-MIN K9L2 260910Z AUTO 21009KT 10SM CLR 23/06 A2988 2340 33 3800 190/09 RMK AO2 $
53144K9L2 9L220160826011510108/26/16 01:15:31  5-MIN K9L2 260915Z AUTO 17007KT 10SM CLR 23/06 A2988 2340 33 3800 160/07 RMK AO2 $
53144K9L2 9L220160826012010108/26/16 01:20:31  5-MIN K9L2 260920Z AUTO 18009KT 10SM CLR 23/06 A2988 2340 33 3800 160/09 RMK AO2 $
53144K9L2 9L220160826012510108/26/16 01:25:31  5-MIN K9L2 260925Z AUTO 18009KT 10SM CLR 22/06 A2987 2340 35 3800 170/09 RMK AO2 $
53144K9L2 9L220160826013010108/26/16 01:30:31  5-MIN K9L2 260930Z AUTO 18010KT 10SM CLR 22/06 A2987 2340 35 3800 170/10 RMK AO2 $
53144K9L2 9L220160826013510108/26/16 01:35:31  5-MIN K9L2 260935Z AUTO 18009KT 10SM CLR 22/07 A2987 2350 36 3800 170/09 RMK AO2 $
53144K9L2 9L220160826014010108/26/16 01:40:31  5-MIN K9L2 260940Z AUTO 18009KT 10SM CLR 22/07 A2988 2340 37 3700 170/09 RMK AO2 $
53144K9L2 9L220160826014510108/26/16 01:45:31  5-MIN K9L2 260945Z AUTO 18009KT 10SM CLR 21/06 A2988 2340 38 3600 170/09 RMK AO2 $
53144K9L2 9L220160826015010108/26/16 01:50:31  5-MIN K9L2 260950Z AUTO 18010KT 10SM CLR 21/06 A2988 2340 38 3600 160/10 RMK AO2 $
53144K9L2 9L220160826015511808/26/16 01:55:31  5-MIN K9L2 260955Z AUTO 17010KT 10SM CLR 21/06 A2988 2340 38 3600 160/10 RMK AO2 SLP094 T02060061 $
53144K9L2 9L220160826020010108/26/16 02:00:31  5-MIN K9L2 261000Z AUTO 18010KT 10SM CLR 21/06 A2988 2340 38 3600 170/10 RMK AO2 $
53144K9L2 9L220160826020510108/26/16 02:05:31  5-MIN K9L2 261005Z AUTO 18010KT 10SM CLR 20/06 A2988 2340 40 3500 170/10 RMK AO2 $
53144K9L2 9L220160826021010108/26/16 02:10:31  5-MIN K9L2 261010Z AUTO 18010KT 10SM CLR 19/06 A2988 2340 41 3400 170/10 RMK AO2 $
53144K9L2 9L220160826021510108/26/16 02:15:31  5-MIN K9L2 261015Z AUTO 18010KT 10SM CLR 19/06 A2988 2340 41 3400 170/10 RMK AO2 $
53144K9L2 9L220160826022010108/26/16 02:20:31  5-MIN K9L2 261020Z AUTO 18010KT 10SM CLR 19/06 A2988 2340 41 3400 170/10 RMK AO2 $
53144K9L2 9L220160826022510108/26/16 02:25:31  5-MIN K9L2 261025Z AUTO 18009KT 10SM CLR 19/07 A2988 2340 43 3400 160/09 RMK AO2 $
53144K9L2 9L220160826023010108/26/16 02:30:31  5-MIN K9L2 261030Z AUTO 18010KT 10SM CLR 19/08 A2988 2340 46 3400 160/10 RMK AO2 $
53144K9L2 9L220160826023510108/26/16 02:35:31  5-MIN K9L2 261035Z AUTO 18009KT 10SM CLR 19/08 A2988 2340 48 3400 160/09 RMK AO2 $
53144K9L2 9L220160826024010108/26/16 02:40:31  5-MIN K9L2 261040Z AUTO 17010KT 10SM CLR 19/09 A2988 2340 50 3400 160/10 RMK AO2 $
53144K9L2 9L220160826024510108/26/16 02:45:31  5-MIN K9L2 261045Z AUTO 18011KT 10SM CLR 19/09 A2988 2340 52 3400 160/11 RMK AO2 $
53144K9L2 9L220160826025010108/26/16 02:50:31  5-MIN K9L2 261050Z AUTO 18009KT 10SM CLR 19/09 A2988 2340 52 3400 160/09 RMK AO2 $
53144K9L2 9L220160826025511808/26/16 02:55:31  5-MIN K9L2 261055Z AUTO 17009KT 10SM CLR 19/08 A2988 2340 50 3400 160/09 RMK AO2 SLP097 T01890083 $
53144K9L2 9L220160826030010108/26/16 03:00:31  5-MIN K9L2 261100Z AUTO 17009KT 10SM CLR 19/08 A2988 2340 50 3400 160/09 RMK AO2 $
53144K9L2 9L220160826030510108/26/16 03:05:31  5-MIN K9L2 261105Z AUTO 18008KT 10SM CLR 19/08 A2988 2340 50 3400 160/08 RMK AO2 $
53144K9L2 9L220160826031010108/26/16 03:10:31  5-MIN K9L2 261110Z AUTO 18007KT 10SM CLR 19/08 A2988 2340 48 3400 170/07 RMK AO2 $
53144K9L2 9L220160826031510108/26/16 03:15:31  5-MIN K9L2 261115Z AUTO 18008KT 10SM CLR 18/08 A2988 2340 50 3300 170/08 RMK AO2 $
53144K9L2 9L220160826032010108/26/16 03:20:31  5-MIN K9L2 261120Z AUTO 18009KT 10SM CLR 18/08 A2988 2340 50 3300 170/09 RMK AO2 $
53144K9L2 9L220160826032510108/26/16 03:25:31  5-MIN K9L2 261125Z AUTO 18009KT 10SM CLR 18/08 A2988 2340 52 3300 170/09 RMK AO2 $
53144K9L2 9L220160826033010108/26/16 03:30:31  5-MIN K9L2 261130Z AUTO 19008KT 10SM CLR 18/08 A2989 2330 52 3300 170/08 RMK AO2 $
53144K9L2 9L220160826033510108/26/16 03:35:31  5-MIN K9L2 261135Z AUTO 19007KT 10SM CLR 18/08 A2989 2330 52 3300 180/07 RMK AO2 $
53144K9L2 9L220160826034010108/26/16 03:40:31  5-MIN K9L2 261140Z AUTO 19008KT 10SM CLR 18/08 A2989 2330 52 3300 170/08 RMK AO2 $
53144K9L2 9L220160826034510108/26/16 03:45:31  5-MIN K9L2 261145Z AUTO 19007KT 10SM CLR 18/08 A2989 2330 52 3300 180/07 RMK AO2 $
53144K9L2 9L220160826035010108/26/16 03:50:31  5-MIN K9L2 261150Z AUTO 20006KT 10SM CLR 18/08 A2989 2330 50 3300 180/06 RMK AO2 $
53144K9L2 9L220160826035513608/26/16 03:55:31  5-MIN K9L2 261155Z AUTO 20006KT 10SM CLR 18/08 A2989 2330 50 3300 190/06 RMK AO2 SLP100 T01830078 10261 20183 58003 $
53144K9L2 9L220160826040010108/26/16 04:00:31  5-MIN K9L2 261200Z AUTO 21005KT 10SM CLR 18/08 A2989 2330 50 3300 190/05 RMK AO2 $
53144K9L2 9L220160826040510108/26/16 04:05:31  5-MIN K9L2 261205Z AUTO 21005KT 10SM CLR 18/08 A2989 2330 50 3300 190/05 RMK AO2 $
53144K9L2 9L220160826041010108/26/16 04:10:31  5-MIN K9L2 261210Z AUTO 20005KT 10SM CLR 18/08 A2989 2330 50 3300 190/05 RMK AO2 $
53144K9L2 9L220160826041510108/26/16 04:15:31  5-MIN K9L2 261215Z AUTO 19005KT 10SM CLR 18/08 A2989 2330 50 3300 180/05 RMK AO2 $
53144K9L2 9L220160826042010108/26/16 04:20:31  5-MIN K9L2 261220Z AUTO 19006KT 10SM CLR 18/08 A2989 2330 50 3300 180/06 RMK AO2 $
53144K9L2 9L220160826042510108/26/16 04:25:31  5-MIN K9L2 261225Z AUTO 19007KT 10SM CLR 18/08 A2989 2330 51 3200 170/07 RMK AO2 $
53144K9L2 9L220160826043010108/26/16 04:30:31  5-MIN K9L2 261230Z AUTO 18007KT 10SM CLR 18/08 A2989 2330 51 3200 170/07 RMK AO2 $
53144K9L2 9L220160826043510108/26/16 04:35:31  5-MIN K9L2 261235Z AUTO 18007KT 10SM CLR 18/08 A2990 2330 51 3200 160/07 RMK AO2 $
53144K9L2 9L220160826044010108/26/16 04:40:31  5-MIN K9L2 261240Z AUTO 18005KT 10SM CLR 18/08 A2990 2320 51 3200 170/05 RMK AO2 $
53144K9L2 9L220160826044510108/26/16 04:45:31  5-MIN K9L2 261245Z AUTO 18005KT 10SM CLR 17/08 A2990 2320 53 3200 170/05 RMK AO2 $
53144K9L2 9L220160826045010108/26/16 04:50:31  5-MIN K9L2 261250Z AUTO 18005KT 10SM CLR 17/08 A2990 2320 55 3200 160/05 RMK AO2 $
53144K9L2 9L220160826045511808/26/16 04:55:31  5-MIN K9L2 261255Z AUTO 18004KT 10SM CLR 17/08 A2990 2320 55 3200 160/04 RMK AO2 SLP107 T01720083 $
53144K9L2 9L220160826050010108/26/16 05:00:31  5-MIN K9L2 261300Z AUTO 16004KT 10SM CLR 17/08 A2991 2320 55 3100 150/04 RMK AO2 $
53144K9L2 9L220160826050510108/26/16 05:05:31  5-MIN K9L2 261305Z AUTO 17004KT 10SM CLR 17/08 A2991 2310 53 3100 160/04 RMK AO2 $
53144K9L2 9L220160826051010108/26/16 05:10:31  5-MIN K9L2 261310Z AUTO 17005KT 10SM CLR 17/08 A2991 2310 53 3100 160/05 RMK AO2 $
53144K9L2 9L220160826051510108/26/16 05:15:31  5-MIN K9L2 261315Z AUTO 15005KT 10SM CLR 17/07 A2991 2310 53 3100 130/05 RMK AO2 $
53144K9L2 9L220160826052010108/26/16 05:20:31  5-MIN K9L2 261320Z AUTO 14004KT 10SM CLR 17/07 A2992 2310 53 3100 130/04 RMK AO2 $
53144K9L2 9L220160826052510108/26/16 05:25:31  5-MIN K9L2 261325Z AUTO 14004KT 10SM CLR 17/07 A2992 2310 53 3100 120/04 RMK AO2 $
53144K9L2 9L220160826053010108/26/16 05:30:31  5-MIN K9L2 261330Z AUTO 13004KT 10SM CLR 17/07 A2992 2300 51 3100 120/04 RMK AO2 $
53144K9L2 9L220160826053510108/26/16 05:35:31  5-MIN K9L2 261335Z AUTO 12003KT 10SM CLR 17/06 A2992 2300 49 3100 100/03 RMK AO2 $
53144K9L2 9L220160826054010108/26/16 05:40:31  5-MIN K9L2 261340Z AUTO 13003KT 10SM CLR 17/06 A2992 2300 47 3100 110/03 RMK AO2 $
53144K9L2 9L220160826054510108/26/16 05:45:31  5-MIN K9L2 261345Z AUTO 13004KT 10SM CLR 17/06 A2992 2300 46 3100 110/04 RMK AO2 $
53144K9L2 9L220160826055010108/26/16 05:50:31  5-MIN K9L2 261350Z AUTO 13004KT 10SM CLR 17/06 A2992 2300 46 3100 110/04 RMK AO2 $
53144K9L2 9L220160826055511808/26/16 05:55:31  5-MIN K9L2 261355Z AUTO 12004KT 10SM CLR 17/06 A2993 2300 46 3100 100/04 RMK AO2 SLP116 T01720056 $
53144K9L2 9L220160826060010108/26/16 06:00:31  5-MIN K9L2 261400Z AUTO 12005KT 10SM CLR 17/06 A2993 2300 46 3100 110/05 RMK AO2 $
53144K9L2 9L220160826060510108/26/16 06:05:31  5-MIN K9L2 261405Z AUTO 10004KT 10SM CLR 18/05 A2993 2290 42 3200 080/04 RMK AO2 $
53144K9L2 9L220160826061010108/26/16 06:10:31  5-MIN K9L2 261410Z AUTO 10004KT 10SM CLR 18/05 A2993 2290 42 3200 090/04 RMK AO2 $
53144K9L2 9L220160826061510108/26/16 06:15:31  5-MIN K9L2 261415Z AUTO 11004KT 10SM CLR 18/06 A2993 2290 44 3200 100/04 RMK AO2 $
53144K9L2 9L220160826062010108/26/16 06:20:31  5-MIN K9L2 261420Z AUTO 13004KT 10SM CLR 18/06 A2993 2290 42 3200 120/04 RMK AO2 $
53144K9L2 9L220160826062510108/26/16 06:25:31  5-MIN K9L2 261425Z AUTO 13005KT 10SM CLR 18/06 A2993 2290 42 3200 120/05 RMK AO2 $
53144K9L2 9L220160826063010108/26/16 06:30:31  5-MIN K9L2 261430Z AUTO 14005KT 10SM CLR 19/06 A2993 2290 41 3300 130/05 RMK AO2 $
53144K9L2 9L220160826063510108/26/16 06:35:31  5-MIN K9L2 261435Z AUTO 14004KT 10SM CLR 19/06 A2994 2290 41 3400 130/04 RMK AO2 $
53144K9L2 9L220160826064010108/26/16 06:40:31  5-MIN K9L2 261440Z AUTO 14003KT 10SM CLR 19/06 A2994 2290 41 3400 130/03 RMK AO2 $
53144K9L2 9L220160826064510108/26/16 06:45:31  5-MIN K9L2 261445Z AUTO 14004KT 10SM CLR 20/06 A2994 2280 40 3400 130/04 RMK AO2 $
53144K9L2 9L220160826065010108/26/16 06:50:31  5-MIN K9L2 261450Z AUTO 16004KT 10SM CLR 20/06 A2994 2280 40 3400 140/04 RMK AO2 $
53144K9L2 9L220160826065512408/26/16 06:55:31  5-MIN K9L2 261455Z AUTO 16004KT 10SM CLR 20/06 A2994 2280 40 3400 150/04 RMK AO2 SLP121 T02000061 53004 $
53144K9L2 9L220160826070010108/26/16 07:00:31  5-MIN K9L2 261500Z AUTO 16005KT 10SM CLR 21/06 A2994 2280 38 3500 140/05 RMK AO2 $
53144K9L2 9L220160826070510108/26/16 07:05:31  5-MIN K9L2 261505Z AUTO 16005KT 10SM CLR 21/06 A2994 2280 38 3500 150/05 RMK AO2 $
53144K9L2 9L220160826071010108/26/16 07:10:31  5-MIN K9L2 261510Z AUTO 17005KT 10SM CLR 21/06 A2994 2280 37 3500 150/05 RMK AO2 $
53144K9L2 9L220160826071510108/26/16 07:15:31  5-MIN K9L2 261515Z AUTO 17005KT 10SM CLR 21/06 A2995 2280 37 3500 150/05 RMK AO2 $
53144K9L2 9L220160826072010108/26/16 07:20:31  5-MIN K9L2 261520Z AUTO 17006KT 10SM CLR 22/06 A2995 2280 36 3600 160/06 RMK AO2 $
53144K9L2 9L220160826072510108/26/16 07:25:31  5-MIN K9L2 261525Z AUTO 17005KT 10SM CLR 22/06 A2995 2280 34 3600 160/05 RMK AO2 $
53144K9L2 9L220160826073010108/26/16 07:30:31  5-MIN K9L2 261530Z AUTO 16005KT 10SM CLR 22/06 A2995 2280 34 3600 150/05 RMK AO2 $
53144K9L2 9L220160826073510108/26/16 07:35:31  5-MIN K9L2 261535Z AUTO 17006KT 10SM CLR 22/06 A2995 2280 33 3700 160/06 RMK AO2 $
53144K9L2 9L220160826074010108/26/16 07:40:31  5-MIN K9L2 261540Z AUTO 16005KT 10SM CLR 22/06 A2995 2280 33 3700 150/05 RMK AO2 $
53144K9L2 9L220160826074510108/26/16 07:45:31  5-MIN K9L2 261545Z AUTO 16005KT 10SM CLR 23/06 A2995 2280 32 3700 150/05 RMK AO2 $
53144K9L2 9L220160826075010108/26/16 07:50:31  5-MIN K9L2 261550Z AUTO 15006KT 10SM CLR 23/05 A2995 2270 31 3700 140/06 RMK AO2 $
53144K9L2 9L220160826075511808/26/16 07:55:31  5-MIN K9L2 261555Z AUTO 15006KT 10SM CLR 23/05 A2995 2270 30 3800 140/06 RMK AO2 SLP125 T02330050 $
53144K9L2 9L220160826080010108/26/16 08:00:31  5-MIN K9L2 261600Z AUTO 17005KT 10SM CLR 23/05 A2995 2270 30 3800 150/05 RMK AO2 $
53144K9L2 9L220160826080510108/26/16 08:05:31  5-MIN K9L2 261605Z AUTO 15006KT 10SM CLR 24/04 A2995 2270 28 3900 140/06 RMK AO2 $
53144K9L2 9L220160826081010108/26/16 08:10:31  5-MIN K9L2 261610Z AUTO 16005KT 10SM CLR 24/04 A2995 2270 27 3900 140/05 RMK AO2 $
53144K9L2 9L220160826081510108/26/16 08:15:31  5-MIN K9L2 261615Z AUTO 16005KT 10SM CLR 24/04 A2995 2270 26 3900 150/05 RMK AO2 $
53144K9L2 9L220160826082010108/26/16 08:20:31  5-MIN K9L2 261620Z AUTO 17007KT 10SM CLR 25/03 A2995 2270 24 4000 150/07 RMK AO2 $
53144K9L2 9L220160826082510108/26/16 08:25:31  5-MIN K9L2 261625Z AUTO 16008KT 10SM CLR 25/03 A2995 2270 23 4000 150/08 RMK AO2 $
53144K9L2 9L220160826083010108/26/16 08:30:31  5-MIN K9L2 261630Z AUTO 17007KT 10SM CLR 26/02 A2995 2270 21 4000 160/07 RMK AO2 $
53144K9L2 9L220160826083510108/26/16 08:35:31  5-MIN K9L2 261635Z AUTO 17007KT 10SM CLR 26/02 A2995 2270 20 4100 160/07 RMK AO2 $
53144K9L2 9L220160826084010108/26/16 08:40:31  5-MIN K9L2 261640Z AUTO 17007KT 10SM CLR 26/01 A2995 2270 19 4100 160/07 RMK AO2 $
53144K9L2 9L220160826084510108/26/16 08:45:31  5-MIN K9L2 261645Z AUTO 17007KT 10SM CLR 27/01 A2995 2270 18 4200 160/07 RMK AO2 $
53144K9L2 9L220160826085010108/26/16 08:50:31  5-MIN K9L2 261650Z AUTO 18009KT 10SM CLR 27/00 A2995 2270 16 4200 160/09 RMK AO2 $
53144K9L2 9L220160826085511808/26/16 08:55:31  5-MIN K9L2 261655Z AUTO 18010KT 10SM CLR 27/00 A2995 2280 16 4200 170/10 RMK AO2 SLP121 T02720000 $
53144K9L2 9L220160826090010108/26/16 09:00:31  5-MIN K9L2 261700Z AUTO 18010KT 10SM CLR 28/00 A2995 2270 16 4300 160/10 RMK AO2 $
53144K9L2 9L220160826090510208/26/16 09:05:31  5-MIN K9L2 261705Z AUTO 19009KT 10SM CLR 28/M01 A2995 2270 15 4300 170/09 RMK AO2 $
53144K9L2 9L220160826091010208/26/16 09:10:31  5-MIN K9L2 261710Z AUTO 18010KT 10SM CLR 28/M01 A2995 2280 15 4300 160/10 RMK AO2 $
53144K9L2 9L220160826091510208/26/16 09:15:31  5-MIN K9L2 261715Z AUTO 18009KT 10SM CLR 28/M01 A2995 2270 15 4300 170/09 RMK AO2 $
53144K9L2 9L220160826092010208/26/16 09:20:31  5-MIN K9L2 261720Z AUTO 19008KT 10SM CLR 29/M01 A2995 2270 14 4400 170/08 RMK AO2 $
53144K9L2 9L220160826092510208/26/16 09:25:31  5-MIN K9L2 261725Z AUTO 17007KT 10SM CLR 29/M01 A2995 2270 14 4400 160/07 RMK AO2 $
53144K9L2 9L220160826093010208/26/16 09:30:31  5-MIN K9L2 261730Z AUTO 17008KT 10SM CLR 28/M01 A2995 2270 14 4300 160/08 RMK AO2 $
53144K9L2 9L220160826093510208/26/16 09:35:31  5-MIN K9L2 261735Z AUTO 17008KT 10SM CLR 29/M01 A2995 2270 14 4400 160/08 RMK AO2 $
53144K9L2 9L220160826094010208/26/16 09:40:31  5-MIN K9L2 261740Z AUTO 16008KT 10SM CLR 29/M01 A2995 2270 14 4400 150/08 RMK AO2 $
53144K9L2 9L220160826094510208/26/16 09:45:31  5-MIN K9L2 261745Z AUTO 16007KT 10SM CLR 29/M01 A2995 2270 14 4500 150/07 RMK AO2 $
53144K9L2 9L220160826095010208/26/16 09:50:31  5-MIN K9L2 261750Z AUTO 16008KT 10SM CLR 30/M01 A2995 2270 13 4500 150/08 RMK AO2 $
53144K9L2 9L220160826095513708/26/16 09:55:31  5-MIN K9L2 261755Z AUTO 14007KT 10SM CLR 30/M01 A2995 2270 13 4500 120/07 RMK AO2 SLP121 T03001006 10300 20167 51017 $
53144K9L2 9L220160826100010208/26/16 10:00:31  5-MIN K9L2 261800Z AUTO 14006KT 10SM CLR 30/M01 A2995 2270 13 4500 130/06 RMK AO2 $
53144K9L2 9L220160826100510208/26/16 10:05:31  5-MIN K9L2 261805Z AUTO 13004KT 10SM CLR 29/M01 A2995 2270 14 4500 110/04 RMK AO2 $
53144K9L2 9L220160826101010208/26/16 10:10:31  5-MIN K9L2 261810Z AUTO 15006KT 10SM CLR 30/M01 A2995 2270 13 4500 140/06 RMK AO2 $
53144K9L2 9L220160826101510208/26/16 10:15:31  5-MIN K9L2 261815Z AUTO 18006KT 10SM CLR 31/M01 A2995 2270 13 4600 160/06 RMK AO2 $
53144K9L2 9L220160826102010208/26/16 10:20:31  5-MIN K9L2 261820Z AUTO 16007KT 10SM CLR 31/M01 A2995 2280 13 4700 150/07 RMK AO2 $
53144K9L2 9L220160826102510208/26/16 10:25:31  5-MIN K9L2 261825Z AUTO 14005KT 10SM CLR 31/M01 A2995 2280 12 4600 130/05 RMK AO2 $
53144K9L2 9L220160826103010208/26/16 10:30:31  5-MIN K9L2 261830Z AUTO 11006KT 10SM CLR 31/M01 A2995 2280 12 4600 100/06 RMK AO2 $
53144K9L2 9L220160826103510208/26/16 10:35:31  5-MIN K9L2 261835Z AUTO 16007KT 10SM CLR 31/M02 A2995 2280 12 4700 150/07 RMK AO2 $
53144K9L2 9L220160826104010208/26/16 10:40:31  5-MIN K9L2 261840Z AUTO 17007KT 10SM CLR 32/M02 A2994 2280 11 4700 160/07 RMK AO2 $
53144K9L2 9L220160826104510208/26/16 10:45:31  5-MIN K9L2 261845Z AUTO VRB06KT 10SM CLR 32/M02 A2994 2280 11 4700 VRB/06 RMK AO2 $
53144K9L2 9L220160826105010208/26/16 10:50:31  5-MIN K9L2 261850Z AUTO 17006KT 10SM CLR 32/M02 A2994 2280 11 4700 160/06 RMK AO2 $
53144K9L2 9L220160826105511908/26/16 10:55:31  5-MIN K9L2 261855Z AUTO VRB04KT 10SM CLR 32/M02 A2994 2280 11 4700 VRB/04 RMK AO2 SLP117 T03171022 $
53144K9L2 9L220160826110010208/26/16 11:00:31  5-MIN K9L2 261900Z AUTO 14004KT 10SM CLR 32/M02 A2994 2280 10 4800 130/04 RMK AO2 $
53144K9L2 9L220160826110511808/26/16 11:05:31  5-MIN K9L2 261905Z AUTO 17009KT 120V210 10SM CLR 32/M02 A2994 2290 10 4800 160/09 110V200 RMK AO2 $
53144K9L2 9L220160826111010208/26/16 11:10:31  5-MIN K9L2 261910Z AUTO 17006KT 10SM CLR 32/M03 A2994 2280 10 4800 160/06 RMK AO2 $
53144K9L2 9L220160826111510208/26/16 11:15:31  5-MIN K9L2 261915Z AUTO VRB04KT 10SM CLR 32/M03 A2994 2280 10 4800 VRB/04 RMK AO2 $
53144K9L2 9L220160826112010208/26/16 11:20:31  5-MIN K9L2 261920Z AUTO 12005KT 10SM CLR 33/M03 A2994 2290 10 4800 110/05 RMK AO2 $
53144K9L2 9L220160826112510208/26/16 11:25:31  5-MIN K9L2 261925Z AUTO 17005KT 10SM CLR 32/M03 A2994 2290 10 4800 160/05 RMK AO2 $
53144K9L2 9L220160826113011808/26/16 11:30:31  5-MIN K9L2 261930Z AUTO 19008KT 160V220 10SM CLR 33/M03 A2994 2290 09 4800 180/08 150V210 RMK AO2 $
53144K9L2 9L220160826113510208/26/16 11:35:31  5-MIN K9L2 261935Z AUTO 23006KT 10SM CLR 33/M04 A2994 2290 09 4900 220/06 RMK AO2 $
53144K9L2 9L220160826114010208/26/16 11:40:31  5-MIN K9L2 261940Z AUTO VRB03KT 10SM CLR 32/M04 A2994 2290 09 4800 VRB/03 RMK AO2 $
53144K9L2 9L220160826114510208/26/16 11:45:31  5-MIN K9L2 261945Z AUTO VRB04KT 10SM CLR 32/M04 A2993 2290 09 4800 VRB/04 RMK AO2 $
53144K9L2 9L220160826115010208/26/16 11:50:31  5-MIN K9L2 261950Z AUTO 00000KT 10SM CLR 33/M04 A2993 2290 09 4900 000/00 RMK AO2 $
53144K9L2 9L220160826115511908/26/16 11:55:31  5-MIN K9L2 261955Z AUTO 25005KT 10SM CLR 33/M03 A2993 2290 09 4900 240/05 RMK AO2 SLP114 T03331033 $
53144K9L2 9L220160826120010208/26/16 12:00:31  5-MIN K9L2 262000Z AUTO VRB03KT 10SM CLR 33/M03 A2993 2290 09 4900 VRB/03 RMK AO2 $
53144K9L2 9L220160826120510208/26/16 12:05:31  5-MIN K9L2 262005Z AUTO 12004KT 10SM CLR 33/M03 A2993 2300 09 4900 110/04 RMK AO2 $
53144K9L2 9L220160826121010208/26/16 12:10:31  5-MIN K9L2 262010Z AUTO VRB05KT 10SM CLR 33/M03 A2992 2300 09 4900 VRB/05 RMK AO2 $
53144K9L2 9L220160826121510208/26/16 12:15:31  5-MIN K9L2 262015Z AUTO VRB06KT 10SM CLR 33/M03 A2992 2300 09 4900 VRB/06 RMK AO2 $
53144K9L2 9L220160826122010208/26/16 12:20:31  5-MIN K9L2 262020Z AUTO 13004KT 10SM CLR 33/M04 A2992 2300 09 4900 120/04 RMK AO2 $
53144K9L2 9L220160826122510208/26/16 12:25:31  5-MIN K9L2 262025Z AUTO 13006KT 10SM CLR 33/M04 A2992 2300 09 4900 120/06 RMK AO2 $
53144K9L2 9L220160826123010208/26/16 12:30:31  5-MIN K9L2 262030Z AUTO 18005KT 10SM CLR 33/M04 A2992 2310 09 4900 160/05 RMK AO2 $
53144K9L2 9L220160826123510208/26/16 12:35:31  5-MIN K9L2 262035Z AUTO 19006KT 10SM CLR 33/M04 A2992 2310 08 4900 170/06 RMK AO2 $
53144K9L2 9L220160826124010208/26/16 12:40:31  5-MIN K9L2 262040Z AUTO VRB04KT 10SM CLR 33/M04 A2991 2310 08 4900 VRB/04 RMK AO2 $
53144K9L2 9L220160826124510208/26/16 12:45:31  5-MIN K9L2 262045Z AUTO 15004KT 10SM CLR 34/M04 A2991 2310 08 5000 140/04 RMK AO2 $
53144K9L2 9L220160826125010208/26/16 12:50:31  5-MIN K9L2 262050Z AUTO 26009KT 10SM CLR 34/M05 A2991 2310 07 5100 240/09 RMK AO2 $
53144K9L2 9L220160826125512508/26/16 12:55:31  5-MIN K9L2 262055Z AUTO VRB03KT 10SM CLR 33/M06 A2991 2310 08 4900 VRB/03 RMK AO2 SLP105 T03331056 51004 $
53144K9L2 9L220160826130010208/26/16 13:00:31  5-MIN K9L2 262100Z AUTO VRB05KT 10SM CLR 34/M06 A2991 2310 07 5100 VRB/05 RMK AO2 $
53144K9L2 9L220160826130510208/26/16 13:05:31  5-MIN K9L2 262105Z AUTO 21008KT 10SM CLR 34/M06 A2990 2320 07 5100 200/08 RMK AO2 $
53144K9L2 9L220160826131010208/26/16 13:10:31  5-MIN K9L2 262110Z AUTO 21007KT 10SM CLR 34/M06 A2990 2320 07 5100 190/07 RMK AO2 $
53144K9L2 9L220160826131510208/26/16 13:15:31  5-MIN K9L2 262115Z AUTO 19006KT 10SM CLR 34/M06 A2990 2320 07 5000 180/06 RMK AO2 $
53144K9L2 9L220160826132010208/26/16 13:20:31  5-MIN K9L2 262120Z AUTO 18006KT 10SM CLR 34/M05 A2990 2320 07 5100 170/06 RMK AO2 $
53144K9L2 9L220160826132510208/26/16 13:25:31  5-MIN K9L2 262125Z AUTO VRB06KT 10SM CLR 34/M04 A2990 2320 08 5100 VRB/06 RMK AO2 $
53144K9L2 9L220160826133010808/26/16 13:30:31  5-MIN K9L2 262130Z AUTO 24010G14KT 10SM CLR 35/M04 A2989 2330 07 5100 220/10G14 RMK AO2 $
53144K9L2 9L220160826133510808/26/16 13:35:31  5-MIN K9L2 262135Z AUTO 21010G14KT 10SM CLR 35/M04 A2989 2330 07 5100 200/10G14 RMK AO2 $
53144K9L2 9L220160826134010808/26/16 13:40:31  5-MIN K9L2 262140Z AUTO 22009G14KT 10SM CLR 34/M04 A2989 2330 08 5100 210/09G14 RMK AO2 $
53144K9L2 9L220160826134510808/26/16 13:45:31  5-MIN K9L2 262145Z AUTO VRB06G14KT 10SM CLR 34/M04 A2989 2330 08 5100 VRB/06G14 RMK AO2 $
53144K9L2 9L220160826135010208/26/16 13:50:31  5-MIN K9L2 262150Z AUTO 29004KT 10SM CLR 34/M04 A2989 2330 08 5100 280/04 RMK AO2 $
53144K9L2 9L220160826135511908/26/16 13:55:31  5-MIN K9L2 262155Z AUTO VRB05KT 10SM CLR 34/M04 A2988 2340 08 5000 VRB/05 RMK AO2 SLP098 T03391044 $
53144K9L2 9L220160826140010808/26/16 14:00:31  5-MIN K9L2 262200Z AUTO 26009G15KT 10SM CLR 35/M04 A2988 2340 08 5100 240/09G15 RMK AO2 $
53144K9L2 9L220160826140510808/26/16 14:05:31  5-MIN K9L2 262205Z AUTO 24008G15KT 10SM CLR 34/M04 A2988 2340 08 5100 230/08G15 RMK AO2 $
53144K9L2 9L220160826141010808/26/16 14:10:31  5-MIN K9L2 262210Z AUTO 27006G15KT 10SM CLR 34/M04 A2988 2340 08 5100 250/06G15 RMK AO2 $
53144K9L2 9L220160826141510808/26/16 14:15:31  5-MIN K9L2 262215Z AUTO VRB04G15KT 10SM CLR 34/M04 A2988 2340 08 5000 VRB/04G15 RMK AO2 $
53144K9L2 9L220160826142010208/26/16 14:20:31  5-MIN K9L2 262220Z AUTO 25010KT 10SM CLR 35/M04 A2988 2340 08 5200 240/10 RMK AO2 $
53144K9L2 9L220160826142510808/26/16 14:25:31  5-MIN K9L2 262225Z AUTO 23015G19KT 10SM CLR 36/M04 A2987 2340 08 5200 220/15G19 RMK AO2 $
53144K9L2 9L220160826143010808/26/16 14:30:31  5-MIN K9L2 262230Z AUTO 24014G19KT 10SM CLR 35/M04 A2988 2340 08 5200 220/14G19 RMK AO2 $
53144K9L2 9L220160826143510808/26/16 14:35:31  5-MIN K9L2 262235Z AUTO 24013G18KT 10SM CLR 35/M04 A2987 2340 07 5200 230/13G18 RMK AO2 $
53144K9L2 9L220160826144010808/26/16 14:40:31  5-MIN K9L2 262240Z AUTO 24009G20KT 10SM CLR 34/M04 A2987 2350 08 5100 230/09G20 RMK AO2 $
53144K9L2 9L220160826144510808/26/16 14:45:31  5-MIN K9L2 262245Z AUTO 24015G20KT 10SM CLR 36/M04 A2987 2350 07 5200 230/15G20 RMK AO2 $
53144K9L2 9L220160826145010808/26/16 14:50:31  5-MIN K9L2 262250Z AUTO 26012G19KT 10SM CLR 35/M04 A2987 2350 07 5200 250/12G19 RMK AO2 $
53144K9L2 9L220160826145512508/26/16 14:55:31  5-MIN K9L2 262255Z AUTO 24010G17KT 10SM CLR 35/M04 A2987 2340 07 5200 220/10G17 RMK AO2 SLP095 T03501044 $
53144K9L2 9L220160826150010208/26/16 15:00:31  5-MIN K9L2 262300Z AUTO 25010KT 10SM CLR 35/M04 A2988 2340 07 5200 240/10 RMK AO2 $
53144K9L2 9L220160826150510808/26/16 15:05:31  5-MIN K9L2 262305Z AUTO 26013G21KT 10SM CLR 34/M05 A2987 2350 07 5100 240/13G21 RMK AO2 $
53144K9L2 9L220160826151010808/26/16 15:10:31  5-MIN K9L2 262310Z AUTO 23013G21KT 10SM CLR 35/M04 A2987 2350 07 5200 220/13G21 RMK AO2 $
53144K9L2 9L220160826151510808/26/16 15:15:31  5-MIN K9L2 262315Z AUTO 25015G19KT 10SM CLR 34/M04 A2987 2350 08 5100 230/15G19 RMK AO2 $
53144K9L2 9L220160826152010808/26/16 15:20:31  5-MIN K9L2 262320Z AUTO 25011G19KT 10SM CLR 34/M05 A2987 2350 07 5100 240/11G19 RMK AO2 $
53144K9L2 9L220160826152510208/26/16 15:25:31  5-MIN K9L2 262325Z AUTO 24014KT 10SM CLR 34/M05 A2987 2350 07 5100 230/14 RMK AO2 $
53144K9L2 9L220160826153010808/26/16 15:30:31  5-MIN K9L2 262330Z AUTO 23014G18KT 10SM CLR 34/M05 A2987 2350 07 5100 220/14G18 RMK AO2 $
53144K9L2 9L220160826153510208/26/16 15:35:31  5-MIN K9L2 262335Z AUTO 24014KT 10SM CLR 34/M06 A2987 2350 07 5100 220/14 RMK AO2 $
53144K9L2 9L220160826154010208/26/16 15:40:31  5-MIN K9L2 262340Z AUTO 24013KT 10SM CLR 34/M06 A2987 2350 07 5100 230/13 RMK AO2 $
53144K9L2 9L220160826154510208/26/16 15:45:31  5-MIN K9L2 262345Z AUTO 24013KT 10SM CLR 34/M05 A2987 2350 07 5100 230/13 RMK AO2 $
53144K9L2 9L220160826155010808/26/16 15:50:31  5-MIN K9L2 262350Z AUTO 24014G19KT 10SM CLR 34/M05 A2987 2350 07 5100 220/14G19 RMK AO2 $
53144K9L2 9L220160826155514308/26/16 15:55:31  5-MIN K9L2 262355Z AUTO 24015G19KT 10SM CLR 34/M06 A2987 2350 07 5100 220/15G19 RMK AO2 SLP093 T03441056 10356 20294 58014 $
53144K9L2 9L220160826160010808/26/16 16:00:31  5-MIN K9L2 270000Z AUTO 24015G20KT 10SM CLR 34/M06 A2987 2350 07 5100 230/15G20 RMK AO2 $
53144K9L2 9L220160826160510808/26/16 16:05:31  5-MIN K9L2 270005Z AUTO 23014G20KT 10SM CLR 34/M05 A2987 2350 08 5000 220/14G20 RMK AO2 $
53144K9L2 9L220160826161010208/26/16 16:10:31  5-MIN K9L2 270010Z AUTO 25014KT 10SM CLR 34/M06 A2987 2350 07 5000 230/14 RMK AO2 $
53144K9L2 9L220160826161510208/26/16 16:15:31  5-MIN K9L2 270015Z AUTO 24013KT 10SM CLR 34/M06 A2987 2350 07 5000 230/13 RMK AO2 $
53144K9L2 9L220160826162010208/26/16 16:20:31  5-MIN K9L2 270020Z AUTO 23015KT 10SM CLR 34/M05 A2986 2350 08 5000 220/15 RMK AO2 $
53144K9L2 9L220160826162510208/26/16 16:25:31  5-MIN K9L2 270025Z AUTO 24014KT 10SM CLR 34/M05 A2987 2350 08 5000 220/14 RMK AO2 $
53144K9L2 9L220160826163010808/26/16 16:30:31  5-MIN K9L2 270030Z AUTO 24016G21KT 10SM CLR 34/M05 A2987 2350 08 5000 230/16G21 RMK AO2 $
53144K9L2 9L220160826163510808/26/16 16:35:31  5-MIN K9L2 270035Z AUTO 23014G21KT 10SM CLR 33/M04 A2987 2350 08 5000 220/14G21 RMK AO2 $
53144K9L2 9L220160826164010208/26/16 16:40:31  5-MIN K9L2 270040Z AUTO 24014KT 10SM CLR 33/M04 A2987 2350 09 5000 230/14 RMK AO2 $
53144K9L2 9L220160826164510208/26/16 16:45:31  5-MIN K9L2 270045Z AUTO 23016KT 10SM CLR 33/M04 A2987 2350 09 5000 210/16 RMK AO2 $
53144K9L2 9L220160826165010208/26/16 16:50:31  5-MIN K9L2 270050Z AUTO 24015KT 10SM CLR 33/M03 A2987 2350 09 4900 220/15 RMK AO2 $
53144K9L2 9L220160826165512508/26/16 16:55:31  5-MIN K9L2 270055Z AUTO 23017G21KT 10SM CLR 33/M03 A2987 2350 10 4900 210/17G21 RMK AO2 SLP095 T03281028 $
53144K9L2 9L220160826170010808/26/16 17:00:31  5-MIN K9L2 270100Z AUTO 23015G22KT 10SM CLR 33/M02 A2987 2350 10 4900 220/15G22 RMK AO2 $
53144K9L2 9L220160826170510808/26/16 17:05:31  5-MIN K9L2 270105Z AUTO 23019G22KT 10SM CLR 32/M01 A2987 2350 11 4900 220/19G22 RMK AO2 $
53144K9L2 9L220160826171010808/26/16 17:10:31  5-MIN K9L2 270110Z AUTO 23016G22KT 10SM CLR 32/M01 A2987 2350 11 4900 210/16G22 RMK AO2 $
53144K9L2 9L220160826171510808/26/16 17:15:31  5-MIN K9L2 270115Z AUTO 22016G22KT 10SM CLR 32/M01 A2987 2350 12 4900 210/16G22 RMK AO2 $
53144K9L2 9L220160826172010808/26/16 17:20:31  5-MIN K9L2 270120Z AUTO 22016G22KT 10SM CLR 32/M01 A2987 2350 12 4800 210/16G22 RMK AO2 $
53144K9L2 9L220160826172510208/26/16 17:25:31  5-MIN K9L2 270125Z AUTO 23018KT 10SM CLR 32/M01 A2987 2350 12 4800 220/18 RMK AO2 $
53144K9L2 9L220160826173010108/26/16 17:30:31  5-MIN K9L2 270130Z AUTO 23017KT 10SM CLR 31/01 A2987 2350 14 4700 220/17 RMK AO2 $
53144K9L2 9L220160826173510708/26/16 17:35:31  5-MIN K9L2 270135Z AUTO 23016G22KT 10SM CLR 31/02 A2987 2350 15 4700 220/16G22 RMK AO2 $
53144K9L2 9L220160826174010108/26/16 17:40:31  5-MIN K9L2 270140Z AUTO 23017KT 10SM CLR 31/01 A2987 2350 15 4700 220/17 RMK AO2 $
53144K9L2 9L220160826174510108/26/16 17:45:31  5-MIN K9L2 270145Z AUTO 23019KT 10SM CLR 31/01 A2987 2350 15 4700 220/19 RMK AO2 $
53144K9L2 9L220160826175010708/26/16 17:50:31  5-MIN K9L2 270150Z AUTO 23017G22KT 10SM CLR 30/02 A2987 2350 16 4600 220/17G22 RMK AO2 $
53144K9L2 9L220160826175512408/26/16 17:55:31  5-MIN K9L2 270155Z AUTO 23018G24KT 10SM CLR 30/02 A2988 2340 16 4600 220/18G24 RMK AO2 SLP099 T03000022 $
53144K9L2 9L220160826180010708/26/16 18:00:31  5-MIN K9L2 270200Z AUTO 23018G24KT 10SM CLR 29/03 A2988 2340 18 4600 220/18G24 RMK AO2 $
53144K9L2 9L220160826180510708/26/16 18:05:31  5-MIN K9L2 270205Z AUTO 23017G23KT 10SM CLR 29/03 A2988 2340 18 4600 220/17G23 RMK AO2 $
53144K9L2 9L220160826181010708/26/16 18:10:31  5-MIN K9L2 270210Z AUTO 23016G23KT 10SM CLR 29/04 A2988 2340 20 4500 220/16G23 RMK AO2 $
53144K9L2 9L220160826181510708/26/16 18:15:31  5-MIN K9L2 270215Z AUTO 23015G23KT 10SM CLR 29/04 A2988 2340 20 4500 220/15G23 RMK AO2 $
53144K9L2 9L220160826182010108/26/16 18:20:31  5-MIN K9L2 270220Z AUTO 22017KT 10SM CLR 29/04 A2988 2340 20 4500 210/17 RMK AO2 $
53144K9L2 9L220160826182510708/26/16 18:25:31  5-MIN K9L2 270225Z AUTO 23015G22KT 10SM CLR 28/03 A2988 2340 19 4400 220/15G22 RMK AO2 $
53144K9L2 9L220160826183010108/26/16 18:30:31  5-MIN K9L2 270230Z AUTO 23015KT 10SM CLR 28/04 A2989 2340 20 4400 210/15 RMK AO2 $
53144K9L2 9L220160826183510108/26/16 18:35:31  5-MIN K9L2 270235Z AUTO 23013KT 10SM CLR 28/04 A2989 2330 22 4400 220/13 RMK AO2 $
53144K9L2 9L220160826184010708/26/16 18:40:31  5-MIN K9L2 270240Z AUTO 23014G22KT 10SM CLR 28/04 A2989 2330 22 4400 210/14G22 RMK AO2 $
53144K9L2 9L220160826184510708/26/16 18:45:31  5-MIN K9L2 270245Z AUTO 23014G22KT 10SM CLR 27/04 A2989 2330 23 4300 210/14G22 RMK AO2 $
53144K9L2 9L220160826185010708/26/16 18:50:31  5-MIN K9L2 270250Z AUTO 22015G20KT 10SM CLR 27/04 A2989 2330 23 4300 210/15G20 RMK AO2 $
53144K9L2 9L220160826185513008/26/16 18:55:31  5-MIN K9L2 270255Z AUTO 23017G22KT 10SM CLR 27/04 A2990 2330 23 4300 210/17G22 RMK AO2 SLP106 T02720044 56013 $
53144K9L2 9L220160826190010708/26/16 19:00:31  5-MIN K9L2 270300Z AUTO 23017G22KT 10SM CLR 27/04 A2990 2320 22 4200 210/17G22 RMK AO2 $
53144K9L2 9L220160826190510108/26/16 19:05:31  5-MIN K9L2 270305Z AUTO 23016KT 10SM CLR 27/04 A2990 2320 22 4200 220/16 RMK AO2 $
53144K9L2 9L220160826191010108/26/16 19:10:31  5-MIN K9L2 270310Z AUTO 23016KT 10SM CLR 27/04 A2990 2320 22 4200 220/16 RMK AO2 $
53144K9L2 9L220160826191510708/26/16 19:15:31  5-MIN K9L2 270315Z AUTO 23013G21KT 10SM CLR 26/04 A2991 2320 23 4200 220/13G21 RMK AO2 $
53144K9L2 9L220160826192010708/26/16 19:20:31  5-MIN K9L2 270320Z AUTO 23016G20KT 10SM CLR 26/04 A2990 2320 23 4200 220/16G20 RMK AO2 $
53144K9L2 9L220160826192510708/26/16 19:25:31  5-MIN K9L2 270325Z AUTO 23015G20KT 10SM CLR 26/04 A2990 2320 24 4200 220/15G20 RMK AO2 $
53144K9L2 9L220160826193010108/26/16 19:30:31  5-MIN K9L2 270330Z AUTO 23014KT 10SM CLR 26/04 A2991 2310 24 4200 210/14 RMK AO2 $
53144K9L2 9L220160826193510108/26/16 19:35:31  5-MIN K9L2 270335Z AUTO 23014KT 10SM CLR 26/05 A2991 2310 26 4100 210/14 RMK AO2 $
53144K9L2 9L220160826194010108/26/16 19:40:31  5-MIN K9L2 270340Z AUTO 23013KT 10SM CLR 26/06 A2991 2310 27 4100 210/13 RMK AO2 $
53144K9L2 9L220160826194510708/26/16 19:45:31  5-MIN K9L2 270345Z AUTO 23015G20KT 10SM CLR 26/06 A2991 2310 27 4100 210/15G20 RMK AO2 $
53144K9L2 9L220160826195010708/26/16 19:50:31  5-MIN K9L2 270350Z AUTO 22013G20KT 10SM CLR 26/06 A2992 2310 28 4100 210/13G20 RMK AO2 $
53144K9L2 9L220160826195511808/26/16 19:55:31  5-MIN K9L2 270355Z AUTO 22015KT 10SM CLR 25/06 A2992 2310 29 4000 210/15 RMK AO2 SLP112 T02500061 $
53144K9L2 9L220160826200010108/26/16 20:00:31  5-MIN K9L2 270400Z AUTO 23015KT 10SM CLR 25/07 A2992 2300 30 4000 210/15 RMK AO2 $
53144K9L2 9L220160826200510108/26/16 20:05:31  5-MIN K9L2 270405Z AUTO 23014KT 10SM CLR 25/07 A2992 2300 30 4000 210/14 RMK AO2 $
53144K9L2 9L220160826201010108/26/16 20:10:31  5-MIN K9L2 270410Z AUTO 23013KT 10SM CLR 25/07 A2992 2300 30 4000 210/13 RMK AO2 $
53144K9L2 9L220160826201510108/26/16 20:15:31  5-MIN K9L2 270415Z AUTO 23012KT 10SM CLR 25/07 A2992 2300 30 4000 210/12 RMK AO2 $
53144K9L2 9L220160826202010108/26/16 20:20:31  5-MIN K9L2 270420Z AUTO 22013KT 10SM CLR 25/07 A2992 2300 30 4000 210/13 RMK AO2 $
53144K9L2 9L220160826202510108/26/16 20:25:31  5-MIN K9L2 270425Z AUTO 22012KT 10SM CLR 24/07 A2992 2300 31 4000 210/12 RMK AO2 $
53144K9L2 9L220160826203010108/26/16 20:30:31  5-MIN K9L2 270430Z AUTO 22012KT 10SM CLR 24/07 A2992 2300 31 4000 210/12 RMK AO2 $
53144K9L2 9L220160826203510108/26/16 20:35:31  5-MIN K9L2 270435Z AUTO 22013KT 10SM CLR 24/07 A2992 2300 31 4000 210/13 RMK AO2 $
53144K9L2 9L220160826204010108/26/16 20:40:31  5-MIN K9L2 270440Z AUTO 22013KT 10SM CLR 24/07 A2992 2300 32 3900 210/13 RMK AO2 $
53144K9L2 9L220160826204510108/26/16 20:45:31  5-MIN K9L2 270445Z AUTO 22013KT 10SM CLR 24/07 A2992 2300 32 3900 200/13 RMK AO2 $
53144K9L2 9L220160826205010108/26/16 20:50:31  5-MIN K9L2 270450Z AUTO 21012KT 10SM CLR 23/07 A2992 2300 36 3800 200/12 RMK AO2 $
53144K9L2 9L220160826205511808/26/16 20:55:31  5-MIN K9L2 270455Z AUTO 21012KT 10SM CLR 24/07 A2992 2300 34 3900 200/12 RMK AO2 SLP114 T02390072 $
53144K9L2 9L220160826210010108/26/16 21:00:31  5-MIN K9L2 270500Z AUTO 21013KT 10SM CLR 24/07 A2992 2300 34 3900 200/13 RMK AO2 $
53144K9L2 9L220160826210510108/26/16 21:05:31  5-MIN K9L2 270505Z AUTO 21012KT 10SM CLR 24/07 A2992 2300 34 3900 200/12 RMK AO2 $
53144K9L2 9L220160826211010108/26/16 21:10:31  5-MIN K9L2 270510Z AUTO 21012KT 10SM CLR 24/07 A2993 2300 34 3900 200/12 RMK AO2 $
53144K9L2 9L220160826211510108/26/16 21:15:31  5-MIN K9L2 270515Z AUTO 21012KT 10SM CLR 24/07 A2993 2300 34 3900 200/12 RMK AO2 $
53144K9L2 9L220160826212010108/26/16 21:20:31  5-MIN K9L2 270520Z AUTO 21012KT 10SM CLR 24/07 A2993 2300 34 3900 200/12 RMK AO2 $
53144K9L2 9L220160826212510108/26/16 21:25:31  5-MIN K9L2 270525Z AUTO 21011KT 10SM CLR 23/07 A2993 2290 35 3800 200/11 RMK AO2 $
53144K9L2 9L220160826213010108/26/16 21:30:31  5-MIN K9L2 270530Z AUTO 21012KT 10SM CLR 23/07 A2993 2300 35 3800 200/12 RMK AO2 $
53144K9L2 9L220160826213510108/26/16 21:35:31  5-MIN K9L2 270535Z AUTO 22011KT 10SM CLR 23/07 A2993 2290 35 3800 200/11 RMK AO2 $
53144K9L2 9L220160826214010108/26/16 21:40:31  5-MIN K9L2 270540Z AUTO 22011KT 10SM CLR 23/07 A2993 2290 35 3800 200/11 RMK AO2 $
53144K9L2 9L220160826214510108/26/16 21:45:31  5-MIN K9L2 270545Z AUTO 22012KT 10SM CLR 23/07 A2993 2290 35 3800 210/12 RMK AO2 $
53144K9L2 9L220160826215010108/26/16 21:50:31  5-MIN K9L2 270550Z AUTO 22011KT 10SM CLR 23/07 A2993 2290 33 3800 210/11 RMK AO2 $
53144K9L2 9L220160826215513608/26/16 21:55:31  5-MIN K9L2 270555Z AUTO 22011KT 10SM CLR 23/07 A2993 2300 33 3800 210/11 RMK AO2 SLP114 T02330067 10344 20228 53008 $
53144K9L2 9L220160826220010108/26/16 22:00:31  5-MIN K9L2 270600Z AUTO 22013KT 10SM CLR 23/07 A2993 2300 33 3800 210/13 RMK AO2 $
53144K9L2 9L220160826220510108/26/16 22:05:31  5-MIN K9L2 270605Z AUTO 22012KT 10SM CLR 23/07 A2993 2300 33 3800 210/12 RMK AO2 $
53144K9L2 9L220160826221010108/26/16 22:10:31  5-MIN K9L2 270610Z AUTO 23012KT 10SM CLR 23/07 A2993 2300 33 3800 210/12 RMK AO2 $
53144K9L2 9L220160826221510108/26/16 22:15:31  5-MIN K9L2 270615Z AUTO 22011KT 10SM CLR 23/06 A2992 2300 32 3800 210/11 RMK AO2 $
53144K9L2 9L220160826222010108/26/16 22:20:31  5-MIN K9L2 270620Z AUTO 22010KT 10SM CLR 23/06 A2992 2300 32 3800 210/10 RMK AO2 $
53144K9L2 9L220160826222510108/26/16 22:25:31  5-MIN K9L2 270625Z AUTO 22010KT 10SM CLR 23/06 A2992 2300 32 3800 210/10 RMK AO2 $
53144K9L2 9L220160826223010108/26/16 22:30:31  5-MIN K9L2 270630Z AUTO 22010KT 10SM CLR 23/06 A2992 2300 32 3800 210/10 RMK AO2 $
53144K9L2 9L220160826223510108/26/16 22:35:31  5-MIN K9L2 270635Z AUTO 22011KT 10SM CLR 23/06 A2992 2300 32 3800 210/11 RMK AO2 $
53144K9L2 9L220160826224010108/26/16 22:40:31  5-MIN K9L2 270640Z AUTO 22011KT 10SM CLR 23/06 A2992 2300 32 3800 210/11 RMK AO2 $
53144K9L2 9L220160826224510108/26/16 22:45:31  5-MIN K9L2 270645Z AUTO 23011KT 10SM CLR 23/06 A2992 2300 32 3800 220/11 RMK AO2 $
53144K9L2 9L220160826225010108/26/16 22:50:31  5-MIN K9L2 270650Z AUTO 23009KT 10SM CLR 23/06 A2992 2300 33 3800 210/09 RMK AO2 $
53144K9L2 9L220160826225511808/26/16 22:55:31  5-MIN K9L2 270655Z AUTO 22009KT 10SM CLR 23/06 A2992 2300 33 3800 210/09 RMK AO2 SLP111 T02280061 $
53144K9L2 9L220160826230010108/26/16 23:00:31  5-MIN K9L2 270700Z AUTO 22008KT 10SM CLR 23/06 A2992 2300 33 3800 210/08 RMK AO2 $
53144K9L2 9L220160826230510108/26/16 23:05:31  5-MIN K9L2 270705Z AUTO 22008KT 10SM CLR 23/06 A2992 2300 33 3800 210/08 RMK AO2 $
53144K9L2 9L220160826231010108/26/16 23:10:31  5-MIN K9L2 270710Z AUTO 21006KT 10SM CLR 23/06 A2992 2300 33 3800 200/06 RMK AO2 $
53144K9L2 9L220160826231510108/26/16 23:15:31  5-MIN K9L2 270715Z AUTO 20007KT 10SM CLR 22/06 A2992 2300 35 3700 190/07 RMK AO2 $
53144K9L2 9L220160826232010108/26/16 23:20:31  5-MIN K9L2 270720Z AUTO 20007KT 10SM CLR 22/06 A2992 2300 35 3700 180/07 RMK AO2 $
53144K9L2 9L220160826232510108/26/16 23:25:31  5-MIN K9L2 270725Z AUTO 19008KT 10SM CLR 22/06 A2992 2300 35 3700 180/08 RMK AO2 $
53144K9L2 9L220160826233010108/26/16 23:30:31  5-MIN K9L2 270730Z AUTO 19008KT 10SM CLR 22/06 A2992 2300 35 3700 180/08 RMK AO2 $
53144K9L2 9L220160826233510108/26/16 23:35:31  5-MIN K9L2 270735Z AUTO 20007KT 10SM CLR 22/06 A2992 2310 35 3700 180/07 RMK AO2 $
53144K9L2 9L220160826234010108/26/16 23:40:31  5-MIN K9L2 270740Z AUTO 21005KT 10SM CLR 22/06 A2992 2310 34 3600 200/05 RMK AO2 $
53144K9L2 9L220160826234510108/26/16 23:45:31  5-MIN K9L2 270745Z AUTO 22004KT 10SM CLR 22/06 A2992 2310 34 3600 210/04 RMK AO2 $
53144K9L2 9L220160826235010108/26/16 23:50:31  5-MIN K9L2 270750Z AUTO 00000KT 10SM CLR 22/06 A2992 2300 33 3700 000/00 RMK AO2 $
53144K9L2 9L220160826235512808/26/16 23:55:31  5-MIN K9L2 270755Z AUTO 00000KT 10SM CLR 22/05 A2992 2300 33 3600 000/00 RMK AO2 SLP111 T02170050 403560167 $
53144K9L2 9L220160827000010108/27/16 00:00:31  5-MIN K9L2 270800Z AUTO VRB03KT 10SM CLR 22/05 A2992 2300 33 3600 VRB/03 RMK AO2 $
53144K9L2 9L220160827000510108/27/16 00:05:31  5-MIN K9L2 270805Z AUTO 19007KT 10SM CLR 21/05 A2992 2300 34 3600 180/07 RMK AO2 $
53144K9L2 9L220160827001010108/27/16 00:10:31  5-MIN K9L2 270810Z AUTO 20008KT 10SM CLR 22/05 A2992 2300 33 3600 190/08 RMK AO2 $
53144K9L2 9L220160827001510108/27/16 00:15:31  5-MIN K9L2 270815Z AUTO 20008KT 10SM CLR 22/04 A2992 2300 32 3600 190/08 RMK AO2 $
53144K9L2 9L220160827002010108/27/16 00:20:31  5-MIN K9L2 270820Z AUTO 19008KT 10SM CLR 22/04 A2992 2300 32 3600 180/08 RMK AO2 $
53144K9L2 9L220160827002510108/27/16 00:25:31  5-MIN K9L2 270825Z AUTO 19008KT 10SM CLR 21/04 A2992 2300 34 3500 180/08 RMK AO2 $
53144K9L2 9L220160827003010108/27/16 00:30:31  5-MIN K9L2 270830Z AUTO 19008KT 10SM CLR 21/05 A2992 2300 35 3500 180/08 RMK AO2 $
53144K9L2 9L220160827003510108/27/16 00:35:31  5-MIN K9L2 270835Z AUTO 20008KT 10SM CLR 21/06 A2992 2300 37 3500 190/08 RMK AO2 $
53144K9L2 9L220160827004010108/27/16 00:40:31  5-MIN K9L2 270840Z AUTO 19010KT 10SM CLR 21/05 A2992 2310 35 3500 180/10 RMK AO2 $
53144K9L2 9L220160827004510108/27/16 00:45:31  5-MIN K9L2 270845Z AUTO 19009KT 10SM CLR 21/05 A2992 2310 35 3500 180/09 RMK AO2 $
53144K9L2 9L220160827005010108/27/16 00:50:31  5-MIN K9L2 270850Z AUTO 20009KT 10SM CLR 20/06 A2992 2310 38 3500 190/09 RMK AO2 $
53144K9L2 9L220160827005512408/27/16 00:55:31  5-MIN K9L2 270855Z AUTO 20007KT 10SM CLR 21/06 A2992 2310 37 3500 190/07 RMK AO2 SLP110 T02060056 51010 $
53144K9L2 9L220160827010010108/27/16 01:00:31  5-MIN K9L2 270900Z AUTO 21007KT 10SM CLR 20/06 A2992 2310 38 3500 190/07 RMK AO2 $
53144K9L2 9L220160827010510108/27/16 01:05:31  5-MIN K9L2 270905Z AUTO 21007KT 10SM CLR 21/06 A2992 2310 37 3500 190/07 RMK AO2 $
53144K9L2 9L220160827011010108/27/16 01:10:31  5-MIN K9L2 270910Z AUTO 21008KT 10SM CLR 21/06 A2992 2310 37 3500 190/08 RMK AO2 $
53144K9L2 9L220160827011510108/27/16 01:15:31  5-MIN K9L2 270915Z AUTO 21008KT 10SM CLR 21/06 A2992 2310 37 3500 200/08 RMK AO2 $
53144K9L2 9L220160827012010108/27/16 01:20:31  5-MIN K9L2 270920Z AUTO 22007KT 10SM CLR 21/05 A2992 2310 35 3500 200/07 RMK AO2 $
53144K9L2 9L220160827012510108/27/16 01:25:31  5-MIN K9L2 270925Z AUTO 22007KT 10SM CLR 21/04 A2992 2300 33 3600 210/07 RMK AO2 $
53144K9L2 9L220160827013010108/27/16 01:30:31  5-MIN K9L2 270930Z AUTO 22007KT 10SM CLR 21/04 A2992 2300 33 3600 200/07 RMK AO2 $
53144K9L2 9L220160827013510108/27/16 01:35:31  5-MIN K9L2 270935Z AUTO 21006KT 10SM CLR 21/04 A2992 2300 33 3600 200/06 RMK AO2 $
53144K9L2 9L220160827014010108/27/16 01:40:31  5-MIN K9L2 270940Z AUTO 21007KT 10SM CLR 21/04 A2992 2300 33 3600 200/07 RMK AO2 $
53144K9L2 9L220160827014510108/27/16 01:45:31  5-MIN K9L2 270945Z AUTO 21006KT 10SM CLR 21/04 A2992 2300 34 3500 190/06 RMK AO2 $
53144K9L2 9L220160827015010108/27/16 01:50:31  5-MIN K9L2 270950Z AUTO 19004KT 10SM CLR 21/04 A2992 2300 34 3500 170/04 RMK AO2 $
53144K9L2 9L220160827015513408/27/16 01:55:31  5-MIN K9L2 270955Z AUTO 18005KT 10SM -RA CLR 21/04 A2992 2300 33 3500 170/05 RMK AO2 RAB51 SLP112 P0000 T02060039 $
53144K9L2 9L220160827020010908/27/16 02:00:31  5-MIN K9L2 271000Z AUTO 18005KT 10SM CLR 21/04 A2992 2300 33 3500 170/05 RMK AO2 RAE0957 $
53144K9L2 9L220160827020510908/27/16 02:05:31  5-MIN K9L2 271005Z AUTO 19004KT 10SM CLR 21/03 A2992 2300 32 3500 180/04 RMK AO2 RAE0957 $
53144K9L2 9L220160827021010908/27/16 02:10:31  5-MIN K9L2 271010Z AUTO 00000KT 10SM CLR 20/03 A2992 2300 33 3400 000/00 RMK AO2 RAE0957 $
53144K9L2 9L220160827021510908/27/16 02:15:31  5-MIN K9L2 271015Z AUTO 17003KT 10SM CLR 19/03 A2992 2300 35 3300 160/03 RMK AO2 RAE0957 $
53144K9L2 9L220160827022010908/27/16 02:20:31  5-MIN K9L2 271020Z AUTO 19005KT 10SM CLR 19/04 A2992 2300 36 3300 180/05 RMK AO2 RAE0957 $
53144K9L2 9L220160827022510908/27/16 02:25:31  5-MIN K9L2 271025Z AUTO 18004KT 10SM CLR 18/04 A2992 2300 38 3300 170/04 RMK AO2 RAE0957 $
53144K9L2 9L220160827023010908/27/16 02:30:31  5-MIN K9L2 271030Z AUTO 18005KT 10SM CLR 18/03 A2992 2300 38 3200 170/05 RMK AO2 RAE0957 $
53144K9L2 9L220160827023510908/27/16 02:35:31  5-MIN K9L2 271035Z AUTO 19005KT 10SM CLR 18/03 A2992 2300 38 3200 180/05 RMK AO2 RAE0957 $
53144K9L2 9L220160827024010908/27/16 02:40:31  5-MIN K9L2 271040Z AUTO 19006KT 10SM CLR 18/03 A2992 2300 38 3200 180/06 RMK AO2 RAE0957 $
53144K9L2 9L220160827024510908/27/16 02:45:31  5-MIN K9L2 271045Z AUTO 20006KT 10SM CLR 18/04 A2992 2300 38 3300 180/06 RMK AO2 RAE0957 $
53144K9L2 9L220160827025010908/27/16 02:50:31  5-MIN K9L2 271050Z AUTO 21006KT 10SM CLR 18/04 A2992 2300 38 3300 200/06 RMK AO2 RAE0957 $
53144K9L2 9L220160827025512608/27/16 02:55:31  5-MIN K9L2 271055Z AUTO 21005KT 10SM CLR 18/04 A2992 2300 41 3200 190/05 RMK AO2 RAE0957 SLP112 T01780044 $
53144K9L2 9L220160827030010108/27/16 03:00:31  5-MIN K9L2 271100Z AUTO 20005KT 10SM CLR 18/05 A2992 2300 41 3300 190/05 RMK AO2 $
53144K9L2 9L220160827030510108/27/16 03:05:31  5-MIN K9L2 271105Z AUTO 19006KT 10SM CLR 18/05 A2992 2300 41 3300 180/06 RMK AO2 $
53144K9L2 9L220160827031010108/27/16 03:10:31  5-MIN K9L2 271110Z AUTO 19006KT 10SM CLR 18/05 A2992 2300 41 3300 180/06 RMK AO2 $
53144K9L2 9L220160827031510108/27/16 03:15:31  5-MIN K9L2 271115Z AUTO 19006KT 10SM CLR 18/05 A2992 2300 41 3300 180/06 RMK AO2 $
53144K9L2 9L220160827032010108/27/16 03:20:31  5-MIN K9L2 271120Z AUTO 19004KT 10SM CLR 18/05 A2992 2300 41 3300 180/04 RMK AO2 $
53144K9L2 9L220160827032510108/27/16 03:25:31  5-MIN K9L2 271125Z AUTO 00000KT 10SM CLR 18/05 A2993 2300 42 3200 000/00 RMK AO2 $
53144K9L2 9L220160827033010108/27/16 03:30:31  5-MIN K9L2 271130Z AUTO 18003KT 10SM CLR 18/05 A2993 2300 42 3200 170/03 RMK AO2 $
53144K9L2 9L220160827033510108/27/16 03:35:31  5-MIN K9L2 271135Z AUTO 18006KT 10SM CLR 18/05 A2993 2300 42 3200 170/06 RMK AO2 $
53144K9L2 9L220160827034010108/27/16 03:40:31  5-MIN K9L2 271140Z AUTO 15003KT 10SM CLR 18/05 A2993 2300 42 3200 140/03 RMK AO2 $
53144K9L2 9L220160827034510108/27/16 03:45:31  5-MIN K9L2 271145Z AUTO 15004KT 10SM CLR 17/04 A2993 2290 41 3100 140/04 RMK AO2 $
53144K9L2 9L220160827035010108/27/16 03:50:31  5-MIN K9L2 271150Z AUTO 17004KT 10SM CLR 17/03 A2993 2290 39 3100 150/04 RMK AO2 $
53144K9L2 9L220160827035514208/27/16 03:55:31  5-MIN K9L2 271155Z AUTO 15004KT 10SM CLR 17/03 A2993 2290 39 3100 140/04 RMK AO2 SLP117 60000 T01670028 10233 20167 56003 $
53144K9L2 9L220160827040010108/27/16 04:00:31  5-MIN K9L2 271200Z AUTO 16005KT 10SM CLR 17/02 A2993 2290 37 3100 150/05 RMK AO2 $
53144K9L2 9L220160827040510108/27/16 04:05:31  5-MIN K9L2 271205Z AUTO 17004KT 10SM CLR 17/02 A2993 2290 36 3100 150/04 RMK AO2 $
53144K9L2 9L220160827041010108/27/16 04:10:31  5-MIN K9L2 271210Z AUTO 16005KT 10SM CLR 17/03 A2993 2290 37 3100 150/05 RMK AO2 $
53144K9L2 9L220160827041510108/27/16 04:15:31  5-MIN K9L2 271215Z AUTO 17006KT 10SM CLR 17/02 A2993 2290 37 3100 160/06 RMK AO2 $
53144K9L2 9L220160827042010108/27/16 04:20:31  5-MIN K9L2 271220Z AUTO 17006KT 10SM CLR 17/02 A2994 2290 37 3100 150/06 RMK AO2 $
53144K9L2 9L220160827042510108/27/16 04:25:31  5-MIN K9L2 271225Z AUTO 18005KT 10SM CLR 16/02 A2994 2290 39 3000 170/05 RMK AO2 $
53144K9L2 9L220160827043010108/27/16 04:30:31  5-MIN K9L2 271230Z AUTO 18004KT 10SM CLR 16/02 A2994 2280 39 3000 160/04 RMK AO2 $
53144K9L2 9L220160827043510108/27/16 04:35:31  5-MIN K9L2 271235Z AUTO 00000KT 10SM CLR 16/02 A2994 2280 39 3000 000/00 RMK AO2 $
53144K9L2 9L220160827044010108/27/16 04:40:31  5-MIN K9L2 271240Z AUTO 00000KT 10SM CLR 16/02 A2995 2280 40 2900 000/00 RMK AO2 $
53144K9L2 9L220160827044510108/27/16 04:45:31  5-MIN K9L2 271245Z AUTO 00000KT 10SM CLR 16/02 A2995 2280 40 2900 000/00 RMK AO2 $
53144K9L2 9L220160827045010108/27/16 04:50:31  5-MIN K9L2 271250Z AUTO 00000KT 10SM CLR 16/02 A2995 2280 40 2900 000/00 RMK AO2 $
53144K9L2 9L220160827045511808/27/16 04:55:31  5-MIN K9L2 271255Z AUTO 00000KT 10SM CLR 15/02 A2995 2280 42 2800 000/00 RMK AO2 SLP124 T01500022 $
53144K9L2 9L220160827050010108/27/16 05:00:31  5-MIN K9L2 271300Z AUTO 00000KT 10SM CLR 16/02 A2995 2280 40 2900 000/00 RMK AO2 $
53144K9L2 9L220160827050510108/27/16 05:05:31  5-MIN K9L2 271305Z AUTO 00000KT 10SM CLR 15/02 A2995 2280 42 2800 000/00 RMK AO2 $
53144K9L2 9L220160827051010108/27/16 05:10:31  5-MIN K9L2 271310Z AUTO 00000KT 10SM CLR 15/02 A2995 2270 42 2800 000/00 RMK AO2 $
53144K9L2 9L220160827051510108/27/16 05:15:31  5-MIN K9L2 271315Z AUTO 00000KT 10SM CLR 15/02 A2995 2270 42 2800 000/00 RMK AO2 $
53144K9L2 9L220160827052010108/27/16 05:20:31  5-MIN K9L2 271320Z AUTO 00000KT 10SM CLR 15/02 A2996 2270 42 2800 000/00 RMK AO2 $
53144K9L2 9L220160827052510108/27/16 05:25:31  5-MIN K9L2 271325Z AUTO 00000KT 10SM CLR 15/02 A2996 2270 42 2800 000/00 RMK AO2 $
53144K9L2 9L220160827053010108/27/16 05:30:31  5-MIN K9L2 271330Z AUTO 00000KT 10SM CLR 15/02 A2996 2260 42 2800 000/00 RMK AO2 $
53144K9L2 9L220160827053510108/27/16 05:35:31  5-MIN K9L2 271335Z AUTO 00000KT 10SM CLR 15/02 A2996 2260 42 2800 000/00 RMK AO2 $
53144K9L2 9L220160827054010108/27/16 05:40:31  5-MIN K9L2 271340Z AUTO 00000KT 10SM CLR 15/02 A2996 2260 42 2800 000/00 RMK AO2 $
53144K9L2 9L220160827054510108/27/16 05:45:31  5-MIN K9L2 271345Z AUTO 00000KT 10SM CLR 15/02 A2997 2260 42 2800 000/00 RMK AO2 $
53144K9L2 9L220160827055010108/27/16 05:50:31  5-MIN K9L2 271350Z AUTO 00000KT 10SM CLR 15/02 A2997 2260 40 2800 000/00 RMK AO2 $
53144K9L2 9L220160827055511808/27/16 05:55:31  5-MIN K9L2 271355Z AUTO 00000KT 10SM CLR 15/02 A2997 2260 40 2800 000/00 RMK AO2 SLP132 T01500017 $
53144K9L2 9L220160827060010108/27/16 06:00:31  5-MIN K9L2 271400Z AUTO 00000KT 10SM CLR 15/02 A2997 2260 40 2800 000/00 RMK AO2 $
53144K9L2 9L220160827060510108/27/16 06:05:31  5-MIN K9L2 271405Z AUTO 00000KT 10SM CLR 15/02 A2997 2260 40 2800 000/00 RMK AO2 $
53144K9L2 9L220160827061010108/27/16 06:10:31  5-MIN K9L2 271410Z AUTO 00000KT 10SM CLR 16/02 A2997 2260 39 2900 000/00 RMK AO2 $
53144K9L2 9L220160827061510108/27/16 06:15:31  5-MIN K9L2 271415Z AUTO 00000KT 10SM CLR 16/02 A2997 2260 37 2900 000/00 RMK AO2 $
53144K9L2 9L220160827062010108/27/16 06:20:31  5-MIN K9L2 271420Z AUTO 00000KT 10SM CLR 17/02 A2997 2250 36 3000 000/00 RMK AO2 $
53144K9L2 9L220160827062510108/27/16 06:25:31  5-MIN K9L2 271425Z AUTO 00000KT 10SM CLR 17/02 A2998 2250 37 3000 000/00 RMK AO2 $
53144K9L2 9L220160827063010108/27/16 06:30:31  5-MIN K9L2 271430Z AUTO 00000KT 10SM CLR 17/02 A2998 2250 36 3000 000/00 RMK AO2 $
53144K9L2 9L220160827063510108/27/16 06:35:31  5-MIN K9L2 271435Z AUTO 00000KT 10SM CLR 17/02 A2998 2250 36 3100 000/00 RMK AO2 $
53144K9L2 9L220160827064010108/27/16 06:40:31  5-MIN K9L2 271440Z AUTO 00000KT 10SM CLR 18/02 A2998 2240 35 3100 000/00 RMK AO2 $
53144K9L2 9L220160827064510108/27/16 06:45:31  5-MIN K9L2 271445Z AUTO 00000KT 10SM CLR 18/03 A2998 2240 36 3100 000/00 RMK AO2 $
53144K9L2 9L220160827065010108/27/16 06:50:31  5-MIN K9L2 271450Z AUTO 00000KT 10SM CLR 18/03 A2999 2240 35 3200 000/00 RMK AO2 $
53144K9L2 9L220160827165010108/27/16 16:50:31  5-MIN K9L2 280050Z AUTO 00000KT 10SM CLR 34/01 A2990 2320 12 5100 000/00 RMK AO2 $
53144K9L2 9L220160827165511808/27/16 16:55:31  5-MIN K9L2 280055Z AUTO 00000KT 10SM CLR 34/01 A2990 2320 12 5100 000/00 RMK AO2 SLP106 T03440011 $
53144K9L2 9L220160827170010108/27/16 17:00:31  5-MIN K9L2 280100Z AUTO 00000KT 10SM CLR 35/01 A2990 2320 11 5100 000/00 RMK AO2 $
53144K9L2 9L220160827170510108/27/16 17:05:31  5-MIN K9L2 280105Z AUTO 00000KT 10SM CLR 34/01 A2990 2320 12 5100 000/00 RMK AO2 $
53144K9L2 9L220160827171010108/27/16 17:10:31  5-MIN K9L2 280110Z AUTO 00000KT 10SM CLR 34/01 A2990 2320 12 5100 000/00 RMK AO2 $
53144K9L2 9L220160827171510108/27/16 17:15:31  5-MIN K9L2 280115Z AUTO 00000KT 10SM CLR 34/01 A2990 2320 12 5100 000/00 RMK AO2 $
53144K9L2 9L220160827172010108/27/16 17:20:31  5-MIN K9L2 280120Z AUTO 18004KT 10SM CLR 34/01 A2990 2320 12 5100 170/04 RMK AO2 $
53144K9L2 9L220160827172510708/27/16 17:25:31  5-MIN K9L2 280125Z AUTO 26011G15KT 10SM CLR 34/01 A2989 2330 12 5100 240/11G15 RMK AO2 $
53144K9L2 9L220160827173010708/27/16 17:30:31  5-MIN K9L2 280130Z AUTO 24014G18KT 10SM CLR 34/01 A2990 2320 12 5100 230/14G18 RMK AO2 $
53144K9L2 9L220160827173510108/27/16 17:35:31  5-MIN K9L2 280135Z AUTO 24015KT 10SM CLR 34/01 A2990 2320 12 5000 230/15 RMK AO2 $
53144K9L2 9L220160827174010108/27/16 17:40:31  5-MIN K9L2 280140Z AUTO 23015KT 10SM CLR 33/02 A2990 2320 13 4900 220/15 RMK AO2 $
53144K9L2 9L220160827174510708/27/16 17:45:31  5-MIN K9L2 280145Z AUTO 23017G21KT 10SM CLR 33/02 A2990 2320 13 4900 210/17G21 RMK AO2 $
53144K9L2 9L220160827175010708/27/16 17:50:31  5-MIN K9L2 280150Z AUTO 24016G22KT 10SM CLR 33/02 A2991 2320 13 4900 220/16G22 RMK AO2 $
53144K9L2 9L220160827175512408/27/16 17:55:31  5-MIN K9L2 280155Z AUTO 23014G22KT 10SM CLR 32/02 A2991 2310 14 4800 220/14G22 RMK AO2 SLP110 T03220017 $
53144K9L2 9L220160827180010108/27/16 18:00:31  5-MIN K9L2 280200Z AUTO 23014KT 10SM CLR 32/02 A2991 2310 14 4800 220/14 RMK AO2 $
53144K9L2 9L220160827180510108/27/16 18:05:31  5-MIN K9L2 280205Z AUTO 23016KT 10SM CLR 32/02 A2991 2310 15 4800 220/16 RMK AO2 $
53144K9L2 9L220160827181010108/27/16 18:10:31  5-MIN K9L2 280210Z AUTO 23016KT 10SM CLR 32/02 A2992 2310 15 4800 220/16 RMK AO2 $
53144K9L2 9L220160827181510108/27/16 18:15:31  5-MIN K9L2 280215Z AUTO 24016KT 10SM CLR 31/02 A2992 2300 15 4700 230/16 RMK AO2 $
53144K9L2 9L220160827182010708/27/16 18:20:31  5-MIN K9L2 280220Z AUTO 24017G21KT 10SM CLR 31/03 A2992 2300 16 4700 220/17G21 RMK AO2 $
53144K9L2 9L220160827182510708/27/16 18:25:31  5-MIN K9L2 280225Z AUTO 23016G21KT 10SM CLR 31/04 A2992 2300 18 4600 220/16G21 RMK AO2 $
53144K9L2 9L220160827183010108/27/16 18:30:31  5-MIN K9L2 280230Z AUTO 23016KT 10SM CLR 31/04 A2992 2300 18 4600 220/16 RMK AO2 $
53144K9L2 9L220160827183510108/27/16 18:35:31  5-MIN K9L2 280235Z AUTO 23013KT 10SM CLR 30/04 A2992 2300 18 4600 220/13 RMK AO2 $
53144K9L2 9L220160827184010708/27/16 18:40:31  5-MIN K9L2 280240Z AUTO 24016G21KT 10SM CLR 30/03 A2992 2300 18 4600 220/16G21 RMK AO2 $
53144K9L2 9L220160827184510708/27/16 18:45:31  5-MIN K9L2 280245Z AUTO 23016G22KT 10SM CLR 30/02 A2993 2300 16 4600 220/16G22 RMK AO2 $
53144K9L2 9L220160827185010708/27/16 18:50:31  5-MIN K9L2 280250Z AUTO 24014G22KT 10SM CLR 30/02 A2993 2290 16 4600 230/14G22 RMK AO2 $
53144K9L2 9L220160827185513008/27/16 18:55:31  5-MIN K9L2 280255Z AUTO 25013G19KT 10SM CLR 29/03 A2993 2290 18 4500 240/13G19 RMK AO2 SLP119 T02940033 56015 $
53144K9L2 9L220160827190010108/27/16 19:00:31  5-MIN K9L2 280300Z AUTO 25013KT 10SM CLR 29/06 A2994 2290 21 4500 240/13 RMK AO2 $
53144K9L2 9L220160827190510108/27/16 19:05:31  5-MIN K9L2 280305Z AUTO 25013KT 10SM CLR 29/07 A2994 2290 23 4500 240/13 RMK AO2 $
53144K9L2 9L220160827191010108/27/16 19:10:31  5-MIN K9L2 280310Z AUTO 26010KT 10SM CLR 29/07 A2994 2290 24 4400 250/10 RMK AO2 $
53144K9L2 9L220160827191510108/27/16 19:15:31  5-MIN K9L2 280315Z AUTO 24009KT 10SM CLR 29/07 A2994 2280 24 4400 230/09 RMK AO2 $
53144K9L2 9L220160827192010708/27/16 19:20:31  5-MIN K9L2 280320Z AUTO 25012G18KT 10SM CLR 28/07 A2995 2280 25 4400 230/12G18 RMK AO2 $
53144K9L2 9L220160827192510708/27/16 19:25:31  5-MIN K9L2 280325Z AUTO 24007G18KT 10SM CLR 28/07 A2995 2280 25 4400 220/07G18 RMK AO2 $
53144K9L2 9L220160827193010108/27/16 19:30:31  5-MIN K9L2 280330Z AUTO 25010KT 10SM CLR 28/07 A2995 2280 25 4400 230/10 RMK AO2 $
53144K9L2 9L220160827193510108/27/16 19:35:31  5-MIN K9L2 280335Z AUTO 25011KT 10SM CLR 28/07 A2995 2280 25 4300 240/11 RMK AO2 $
53144K9L2 9L220160827194010108/27/16 19:40:31  5-MIN K9L2 280340Z AUTO 25010KT 10SM CLR 28/07 A2995 2270 26 4300 240/10 RMK AO2 $
53144K9L2 9L220160827194510108/27/16 19:45:31  5-MIN K9L2 280345Z AUTO 25010KT 10SM CLR 28/07 A2996 2270 26 4300 240/10 RMK AO2 $
53144K9L2 9L220160827195010108/27/16 19:50:31  5-MIN K9L2 280350Z AUTO 25010KT 10SM CLR 28/07 A2996 2270 26 4300 240/10 RMK AO2 $
53144K9L2 9L220160827195511808/27/16 19:55:31  5-MIN K9L2 280355Z AUTO 26010KT 10SM CLR 27/07 A2996 2260 26 4200 250/10 RMK AO2 SLP128 T02720067 $
53144K9L2 9L220160827200010108/27/16 20:00:31  5-MIN K9L2 280400Z AUTO 26009KT 10SM CLR 27/07 A2997 2260 27 4200 240/09 RMK AO2 $
53144K9L2 9L220160827200510108/27/16 20:05:31  5-MIN K9L2 280405Z AUTO 25010KT 10SM CLR 27/07 A2997 2260 27 4200 240/10 RMK AO2 $
53144K9L2 9L220160827201010108/27/16 20:10:31  5-MIN K9L2 280410Z AUTO 25009KT 10SM CLR 27/07 A2997 2260 26 4200 240/09 RMK AO2 $
53144K9L2 9L220160827201510108/27/16 20:15:31  5-MIN K9L2 280415Z AUTO 24008KT 10SM CLR 27/07 A2997 2250 26 4200 230/08 RMK AO2 $
53144K9L2 9L220160827202010108/27/16 20:20:31  5-MIN K9L2 280420Z AUTO 24006KT 10SM CLR 27/07 A2997 2250 26 4200 230/06 RMK AO2 $
53144K9L2 9L220160827202510108/27/16 20:25:31  5-MIN K9L2 280425Z AUTO 24005KT 10SM CLR 27/07 A2997 2250 27 4100 230/05 RMK AO2 $
53144K9L2 9L220160827203010108/27/16 20:30:31  5-MIN K9L2 280430Z AUTO 24005KT 10SM CLR 26/07 A2998 2250 28 4100 230/05 RMK AO2 $
53144K9L2 9L220160827203510108/27/16 20:35:31  5-MIN K9L2 280435Z AUTO VRB03KT 10SM CLR 27/07 A2998 2250 27 4100 VRB/03 RMK AO2 $
53144K9L2 9L220160827204010108/27/16 20:40:31  5-MIN K9L2 280440Z AUTO 00000KT 10SM CLR 26/07 A2998 2250 28 4100 000/00 RMK AO2 $
53144K9L2 9L220160827204510108/27/16 20:45:31  5-MIN K9L2 280445Z AUTO 00000KT 10SM CLR 26/07 A2998 2250 28 4100 000/00 RMK AO2 $
53144K9L2 9L220160827205010108/27/16 20:50:31  5-MIN K9L2 280450Z AUTO 18004KT 10SM CLR 26/06 A2998 2250 27 4100 160/04 RMK AO2 $
53144K9L2 9L220160827205511808/27/16 20:55:31  5-MIN K9L2 280455Z AUTO 00000KT 10SM CLR 26/06 A2998 2250 27 4100 000/00 RMK AO2 SLP134 T02610061 $
53144K9L2 9L220160827210010108/27/16 21:00:31  5-MIN K9L2 280500Z AUTO 18007KT 10SM CLR 26/06 A2998 2250 27 4100 160/07 RMK AO2 $
53144K9L2 9L220160827210510108/27/16 21:05:31  5-MIN K9L2 280505Z AUTO 22007KT 10SM CLR 27/06 A2998 2250 26 4100 210/07 RMK AO2 $
53144K9L2 9L220160827211010108/27/16 21:10:31  5-MIN K9L2 280510Z AUTO 21006KT 10SM CLR 27/06 A2998 2250 26 4100 200/06 RMK AO2 $
53144K9L2 9L220160827211510108/27/16 21:15:31  5-MIN K9L2 280515Z AUTO 22007KT 10SM CLR 26/06 A2998 2250 27 4100 210/07 RMK AO2 $
53144K9L2 9L220160827212010108/27/16 21:20:31  5-MIN K9L2 280520Z AUTO 22007KT 10SM CLR 26/06 A2998 2250 27 4100 200/07 RMK AO2 $
53144K9L2 9L220160827212510108/27/16 21:25:31  5-MIN K9L2 280525Z AUTO 21009KT 10SM CLR 26/06 A2998 2250 28 4000 200/09 RMK AO2 $
53144K9L2 9L220160827213010108/27/16 21:30:31  5-MIN K9L2 280530Z AUTO 21009KT 10SM CLR 26/06 A2998 2250 28 4000 200/09 RMK AO2 $
53144K9L2 9L220160827213510108/27/16 21:35:31  5-MIN K9L2 280535Z AUTO 21010KT 10SM CLR 26/06 A2998 2250 28 4000 200/10 RMK AO2 $
53144K9L2 9L220160827214010108/27/16 21:40:31  5-MIN K9L2 280540Z AUTO 21010KT 10SM CLR 26/06 A2998 2240 28 4000 200/10 RMK AO2 $
53144K9L2 9L220160827214510108/27/16 21:45:31  5-MIN K9L2 280545Z AUTO 21009KT 10SM CLR 26/06 A2999 2240 28 4000 190/09 RMK AO2 $
53144K9L2 9L220160827215010108/27/16 21:50:31  5-MIN K9L2 280550Z AUTO 22009KT 10SM CLR 26/06 A2999 2240 28 4000 200/09 RMK AO2 $
53144K9L2 9L220160827215513608/27/16 21:55:31  5-MIN K9L2 280555Z AUTO 20008KT 10SM CLR 26/06 A2999 2240 27 4000 190/08 RMK AO2 SLP135 T02560056 10350 20256 53009 $
53144K9L2 9L220160827220010108/27/16 22:00:31  5-MIN K9L2 280600Z AUTO 21009KT 10SM CLR 26/06 A2999 2240 27 4000 200/09 RMK AO2 $
53144K9L2 9L220160827220510108/27/16 22:05:31  5-MIN K9L2 280605Z AUTO 19010KT 10SM CLR 26/06 A2999 2240 27 4000 180/10 RMK AO2 $
53144K9L2 9L220160827221010108/27/16 22:10:31  5-MIN K9L2 280610Z AUTO 20009KT 10SM CLR 26/06 A2999 2240 26 4100 190/09 RMK AO2 $
53144K9L2 9L220160827221510108/27/16 22:15:31  5-MIN K9L2 280615Z AUTO 21010KT 10SM CLR 26/06 A2999 2240 26 4100 200/10 RMK AO2 $
53144K9L2 9L220160827222010108/27/16 22:20:31  5-MIN K9L2 280620Z AUTO 21010KT 10SM CLR 26/05 A2999 2240 26 4000 190/10 RMK AO2 $
53144K9L2 9L220160827222510108/27/16 22:25:31  5-MIN K9L2 280625Z AUTO 21011KT 10SM CLR 26/05 A2999 2240 26 4000 190/11 RMK AO2 $
53144K9L2 9L220160827223010108/27/16 22:30:31  5-MIN K9L2 280630Z AUTO 22011KT 10SM CLR 26/05 A2999 2240 26 4000 200/11 RMK AO2 $
53144K9L2 9L220160827223510108/27/16 22:35:31  5-MIN K9L2 280635Z AUTO 22012KT 10SM CLR 26/05 A2999 2240 26 4000 210/12 RMK AO2 $
53144K9L2 9L220160827224010108/27/16 22:40:31  5-MIN K9L2 280640Z AUTO 22009KT 10SM CLR 26/05 A2999 2240 26 4000 210/09 RMK AO2 $
53144K9L2 9L220160827224510108/27/16 22:45:31  5-MIN K9L2 280645Z AUTO 22009KT 10SM CLR 26/05 A2999 2240 26 4000 210/09 RMK AO2 $
53144K9L2 9L220160827225010108/27/16 22:50:31  5-MIN K9L2 280650Z AUTO 21008KT 10SM CLR 25/05 A2999 2240 27 3900 200/08 RMK AO2 $
53144K9L2 9L220160827225511808/27/16 22:55:31  5-MIN K9L2 280655Z AUTO 21008KT 10SM CLR 25/05 A2999 2240 27 3900 200/08 RMK AO2 SLP134 T02500050 $
53144K9L2 9L220160827230010108/27/16 23:00:31  5-MIN K9L2 280700Z AUTO 20007KT 10SM CLR 24/06 A2999 2240 29 3900 180/07 RMK AO2 $
53144K9L2 9L220160827230510108/27/16 23:05:31  5-MIN K9L2 280705Z AUTO 20005KT 10SM CLR 24/06 A2999 2240 29 3900 180/05 RMK AO2 $
53144K9L2 9L220160827231010108/27/16 23:10:31  5-MIN K9L2 280710Z AUTO 19006KT 10SM CLR 24/06 A2999 2230 29 3900 180/06 RMK AO2 $
53144K9L2 9L220160827231510108/27/16 23:15:31  5-MIN K9L2 280715Z AUTO 19006KT 10SM CLR 24/06 A2999 2230 30 3800 180/06 RMK AO2 $
53144K9L2 9L220160827232010108/27/16 23:20:31  5-MIN K9L2 280720Z AUTO 19007KT 10SM CLR 24/06 A3000 2230 30 3800 180/07 RMK AO2 $
53144K9L2 9L220160827232510108/27/16 23:25:31  5-MIN K9L2 280725Z AUTO 20005KT 10SM CLR 24/06 A2999 2230 30 3800 190/05 RMK AO2 $
53144K9L2 9L220160827233010108/27/16 23:30:31  5-MIN K9L2 280730Z AUTO 21007KT 10SM CLR 24/05 A2999 2230 29 3800 190/07 RMK AO2 $
53144K9L2 9L220160827233510108/27/16 23:35:31  5-MIN K9L2 280735Z AUTO 21007KT 10SM CLR 24/05 A3000 2230 29 3800 200/07 RMK AO2 $
53144K9L2 9L220160827234010108/27/16 23:40:31  5-MIN K9L2 280740Z AUTO 22006KT 10SM CLR 24/05 A2999 2230 29 3800 210/06 RMK AO2 $
53144K9L2 9L220160827234510108/27/16 23:45:31  5-MIN K9L2 280745Z AUTO 22006KT 10SM CLR 24/04 A2999 2230 28 3800 210/06 RMK AO2 $
53144K9L2 9L220160827235010108/27/16 23:50:31  5-MIN K9L2 280750Z AUTO 23006KT 10SM CLR 24/04 A2999 2240 28 3800 220/06 RMK AO2 $
53144K9L2 9L220160827235512808/27/16 23:55:31  5-MIN K9L2 280755Z AUTO 25005KT 10SM CLR 24/04 A2999 2240 28 3800 230/05 RMK AO2 SLP134 T02390044 403560150 $
53144K9L2 9L220160828000010108/28/16 00:00:31  5-MIN K9L2 280800Z AUTO 30004KT 10SM CLR 23/04 A2999 2240 29 3700 290/04 RMK AO2 $
53144K9L2 9L220160828000510108/28/16 00:05:31  5-MIN K9L2 280805Z AUTO 00000KT 10SM CLR 23/04 A2999 2240 30 3700 000/00 RMK AO2 $
53144K9L2 9L220160828001010108/28/16 00:10:31  5-MIN K9L2 280810Z AUTO 00000KT 10SM CLR 23/04 A2999 2240 30 3700 000/00 RMK AO2 $
53144K9L2 9L220160828001510108/28/16 00:15:31  5-MIN K9L2 280815Z AUTO 00000KT 10SM CLR 23/04 A2999 2240 30 3700 000/00 RMK AO2 $
53144K9L2 9L220160828002010108/28/16 00:20:31  5-MIN K9L2 280820Z AUTO 36003KT 10SM CLR 23/04 A2999 2240 30 3700 350/03 RMK AO2 $
53144K9L2 9L220160828002510108/28/16 00:25:31  5-MIN K9L2 280825Z AUTO VRB03KT 10SM CLR 23/04 A2999 2240 30 3700 VRB/03 RMK AO2 $
53144K9L2 9L220160828003010108/28/16 00:30:31  5-MIN K9L2 280830Z AUTO 00000KT 10SM CLR 23/04 A2999 2240 29 3700 000/00 RMK AO2 $
53144K9L2 9L220160828003510108/28/16 00:35:31  5-MIN K9L2 280835Z AUTO 00000KT 10SM CLR 23/04 A2999 2240 29 3700 000/00 RMK AO2 $
53144K9L2 9L220160828004010108/28/16 00:40:31  5-MIN K9L2 280840Z AUTO 00000KT 10SM CLR 23/04 A2999 2230 29 3700 000/00 RMK AO2 $
53144K9L2 9L220160828004510108/28/16 00:45:31  5-MIN K9L2 280845Z AUTO 00000KT 10SM CLR 23/04 A2999 2230 29 3700 000/00 RMK AO2 $
53144K9L2 9L220160828005010108/28/16 00:50:31  5-MIN K9L2 280850Z AUTO VRB04KT 10SM CLR 24/04 A2999 2230 28 3800 VRB/04 RMK AO2 $
53144K9L2 9L220160828005512408/28/16 00:55:31  5-MIN K9L2 280855Z AUTO 24004KT 10SM CLR 24/04 A2999 2230 27 3900 230/04 RMK AO2 SLP134 T02440044 51018 $
53144K9L2 9L220160828010010108/28/16 01:00:31  5-MIN K9L2 280900Z AUTO VRB03KT 10SM CLR 24/04 A2999 2230 27 3900 VRB/03 RMK AO2 $
53144K9L2 9L220160828010510108/28/16 01:05:31  5-MIN K9L2 280905Z AUTO 00000KT 10SM CLR 24/04 A2999 2230 28 3800 000/00 RMK AO2 $
53144K9L2 9L220160828011010108/28/16 01:10:31  5-MIN K9L2 280910Z AUTO 00000KT 10SM CLR 24/04 A2999 2240 28 3800 000/00 RMK AO2 $
53144K9L2 9L220160828011510108/28/16 01:15:31  5-MIN K9L2 280915Z AUTO 00000KT 10SM CLR 24/04 A2999 2240 27 3800 000/00 RMK AO2 $
53144K9L2 9L220160828012010108/28/16 01:20:31  5-MIN K9L2 280920Z AUTO 00000KT 10SM CLR 24/04 A2999 2240 27 3800 000/00 RMK AO2 $
53144K9L2 9L220160828012510108/28/16 01:25:31  5-MIN K9L2 280925Z AUTO 00000KT 10SM CLR 24/04 A2999 2230 27 3800 000/00 RMK AO2 $
53144K9L2 9L220160828013010108/28/16 01:30:31  5-MIN K9L2 280930Z AUTO 00000KT 10SM CLR 23/04 A2999 2230 28 3700 000/00 RMK AO2 $
53144K9L2 9L220160828013510108/28/16 01:35:31  5-MIN K9L2 280935Z AUTO 00000KT 10SM CLR 24/04 A3000 2230 27 3800 000/00 RMK AO2 $
53144K9L2 9L220160828014010108/28/16 01:40:31  5-MIN K9L2 280940Z AUTO 00000KT 10SM CLR 23/04 A2999 2230 28 3700 000/00 RMK AO2 $
53144K9L2 9L220160828014510108/28/16 01:45:31  5-MIN K9L2 280945Z AUTO 00000KT 10SM CLR 23/04 A2999 2230 28 3700 000/00 RMK AO2 $
53144K9L2 9L220160828015010108/28/16 01:50:31  5-MIN K9L2 280950Z AUTO 00000KT 10SM CLR 23/04 A3000 2230 28 3700 000/00 RMK AO2 $
53144K9L2 9L220160828015511808/28/16 01:55:31  5-MIN K9L2 280955Z AUTO 00000KT 10SM CLR 23/03 A3000 2230 27 3700 000/00 RMK AO2 SLP134 T02280033 $
53144K9L2 9L220160828020010108/28/16 02:00:31  5-MIN K9L2 281000Z AUTO VRB05KT 10SM CLR 24/03 A3000 2230 26 3800 VRB/05 RMK AO2 $
53144K9L2 9L220160828020510108/28/16 02:05:31  5-MIN K9L2 281005Z AUTO VRB03KT 10SM CLR 24/04 A2999 2230 26 3900 VRB/03 RMK AO2 $
53144K9L2 9L220160828021010108/28/16 02:10:31  5-MIN K9L2 281010Z AUTO 13003KT 10SM CLR 23/03 A3000 2230 26 3700 120/03 RMK AO2 $
53144K9L2 9L220160828021510108/28/16 02:15:31  5-MIN K9L2 281015Z AUTO 17003KT 10SM CLR 22/03 A3000 2230 27 3600 150/03 RMK AO2 $
53144K9L2 9L220160828022010108/28/16 02:20:31  5-MIN K9L2 281020Z AUTO 18003KT 10SM CLR 22/03 A3000 2230 27 3600 170/03 RMK AO2 $
53144K9L2 9L220160828022510108/28/16 02:25:31  5-MIN K9L2 281025Z AUTO 00000KT 10SM CLR 22/03 A3000 2230 27 3600 000/00 RMK AO2 $
53144K9L2 9L220160828023010108/28/16 02:30:31  5-MIN K9L2 281030Z AUTO 00000KT 10SM CLR 21/02 A3000 2230 29 3400 000/00 RMK AO2 $
53144K9L2 9L220160828023510108/28/16 02:35:31  5-MIN K9L2 281035Z AUTO 00000KT 10SM CLR 21/02 A3000 2230 28 3500 000/00 RMK AO2 $
53144K9L2 9L220160828024010108/28/16 02:40:31  5-MIN K9L2 281040Z AUTO 00000KT 10SM CLR 20/02 A3000 2230 29 3400 000/00 RMK AO2 $
53144K9L2 9L220160828024510108/28/16 02:45:31  5-MIN K9L2 281045Z AUTO 00000KT 10SM CLR 19/02 A3000 2230 30 3300 000/00 RMK AO2 $
53144K9L2 9L220160828025010108/28/16 02:50:31  5-MIN K9L2 281050Z AUTO 00000KT 10SM CLR 18/02 A3000 2230 32 3200 000/00 RMK AO2 $
53144K9L2 9L220160828025511808/28/16 02:55:31  5-MIN K9L2 281055Z AUTO 00000KT 10SM CLR 18/02 A3000 2230 32 3200 000/00 RMK AO2 SLP137 T01830017 $
53144K9L2 9L220160828030010108/28/16 03:00:31  5-MIN K9L2 281100Z AUTO 00000KT 10SM CLR 18/02 A3000 2230 32 3200 000/00 RMK AO2 $
53144K9L2 9L220160828030510108/28/16 03:05:31  5-MIN K9L2 281105Z AUTO 00000KT 10SM CLR 18/02 A3000 2230 32 3200 000/00 RMK AO2 $
53144K9L2 9L220160828031010108/28/16 03:10:31  5-MIN K9L2 281110Z AUTO 00000KT 10SM CLR 18/01 A3000 2230 31 3200 000/00 RMK AO2 $
53144K9L2 9L220160828031510108/28/16 03:15:31  5-MIN K9L2 281115Z AUTO 00000KT 10SM CLR 19/02 A3000 2230 30 3300 000/00 RMK AO2 $
53144K9L2 9L220160828032010108/28/16 03:20:31  5-MIN K9L2 281120Z AUTO 00000KT 10SM CLR 19/02 A3000 2230 31 3200 000/00 RMK AO2 $
53144K9L2 9L220160828032510108/28/16 03:25:31  5-MIN K9L2 281125Z AUTO 00000KT 10SM CLR 18/01 A3000 2230 32 3100 000/00 RMK AO2 $
53144K9L2 9L220160828033010108/28/16 03:30:31  5-MIN K9L2 281130Z AUTO 00000KT 10SM CLR 18/01 A3000 2230 32 3100 000/00 RMK AO2 $
53144K9L2 9L220160828033510108/28/16 03:35:31  5-MIN K9L2 281135Z AUTO 00000KT 10SM CLR 18/02 A3000 2230 33 3100 000/00 RMK AO2 $
53144K9L2 9L220160828034010108/28/16 03:40:31  5-MIN K9L2 281140Z AUTO 00000KT 10SM CLR 18/02 A3000 2230 33 3100 000/00 RMK AO2 $
53144K9L2 9L220160828034510108/28/16 03:45:31  5-MIN K9L2 281145Z AUTO 00000KT 10SM CLR 17/02 A3000 2230 35 3000 000/00 RMK AO2 $
53144K9L2 9L220160828035010108/28/16 03:50:31  5-MIN K9L2 281150Z AUTO 02003KT 10SM CLR 17/02 A3000 2230 35 3000 010/03 RMK AO2 $
53144K9L2 9L220160828035513608/28/16 03:55:31  5-MIN K9L2 281155Z AUTO 00000KT 10SM CLR 17/02 A3000 2230 35 3000 000/00 RMK AO2 SLP140 T01720017 10261 20172 52002 $
53144K9L2 9L220160828040010108/28/16 04:00:31  5-MIN K9L2 281200Z AUTO 00000KT 10SM CLR 17/02 A3000 2230 35 3000 000/00 RMK AO2 $
53144K9L2 9L220160828040510108/28/16 04:05:31  5-MIN K9L2 281205Z AUTO 00000KT 10SM CLR 17/02 A3000 2230 35 3000 000/00 RMK AO2 $
53144K9L2 9L220160828041010108/28/16 04:10:31  5-MIN K9L2 281210Z AUTO 00000KT 10SM CLR 17/02 A3000 2230 35 3000 000/00 RMK AO2 $
53144K9L2 9L220160828041510108/28/16 04:15:31  5-MIN K9L2 281215Z AUTO 00000KT 10SM CLR 17/01 A3001 2220 34 3000 000/00 RMK AO2 $
53144K9L2 9L220160828042010108/28/16 04:20:31  5-MIN K9L2 281220Z AUTO 00000KT 10SM CLR 17/01 A3000 2220 34 3000 000/00 RMK AO2 $
53144K9L2 9L220160828042510108/28/16 04:25:31  5-MIN K9L2 281225Z AUTO 00000KT 10SM CLR 17/01 A3001 2220 34 3000 000/00 RMK AO2 $
53144K9L2 9L220160828043010108/28/16 04:30:31  5-MIN K9L2 281230Z AUTO 00000KT 10SM CLR 17/01 A3001 2220 34 3000 000/00 RMK AO2 $
53144K9L2 9L220160828043510108/28/16 04:35:31  5-MIN K9L2 281235Z AUTO 00000KT 10SM CLR 17/01 A3001 2220 33 3000 000/00 RMK AO2 $
53144K9L2 9L220160828044010108/28/16 04:40:31  5-MIN K9L2 281240Z AUTO 00000KT 10SM CLR 17/01 A3001 2220 34 3000 000/00 RMK AO2 $
53144K9L2 9L220160828044510108/28/16 04:45:31  5-MIN K9L2 281245Z AUTO 28003KT 10SM CLR 16/01 A3001 2220 36 2900 270/03 RMK AO2 $
53144K9L2 9L220160828045010108/28/16 04:50:31  5-MIN K9L2 281250Z AUTO 29005KT 10SM CLR 16/01 A3001 2220 36 2900 280/05 RMK AO2 $
53144K9L2 9L220160828045511808/28/16 04:55:31  5-MIN K9L2 281255Z AUTO 31005KT 10SM CLR 16/02 A3001 2220 37 2900 300/05 RMK AO2 SLP145 T01610017 $
53144K9L2 9L220160828050010108/28/16 05:00:31  5-MIN K9L2 281300Z AUTO 32005KT 10SM CLR 16/02 A3002 2210 39 2800 310/05 RMK AO2 $
53144K9L2 9L220160828050510108/28/16 05:05:31  5-MIN K9L2 281305Z AUTO 34003KT 10SM CLR 16/02 A3002 2210 37 2900 330/03 RMK AO2 $
53144K9L2 9L220160828051010108/28/16 05:10:31  5-MIN K9L2 281310Z AUTO 36003KT 10SM CLR 16/02 A3002 2210 37 2900 340/03 RMK AO2 $
53144K9L2 9L220160828051510108/28/16 05:15:31  5-MIN K9L2 281315Z AUTO 36003KT 10SM CLR 16/02 A3003 2210 39 2800 340/03 RMK AO2 $
53144K9L2 9L220160828052010108/28/16 05:20:31  5-MIN K9L2 281320Z AUTO 36004KT 10SM CLR 16/02 A3003 2200 39 2800 350/04 RMK AO2 $
53144K9L2 9L220160828052510108/28/16 05:25:31  5-MIN K9L2 281325Z AUTO 36004KT 10SM CLR 16/02 A3003 2200 39 2800 350/04 RMK AO2 $
53144K9L2 9L220160828053010108/28/16 05:30:31  5-MIN K9L2 281330Z AUTO 00000KT 10SM CLR 16/02 A3003 2200 39 2800 000/00 RMK AO2 $
53144K9L2 9L220160828053510108/28/16 05:35:31  5-MIN K9L2 281335Z AUTO 32004KT 10SM CLR 16/02 A3003 2200 37 2900 310/04 RMK AO2 $
53144K9L2 9L220160828054010108/28/16 05:40:31  5-MIN K9L2 281340Z AUTO 32005KT 10SM CLR 16/02 A3003 2200 37 2900 310/05 RMK AO2 $
53144K9L2 9L220160828054510108/28/16 05:45:31  5-MIN K9L2 281345Z AUTO 33003KT 10SM CLR 17/02 A3003 2200 36 2900 310/03 RMK AO2 $
53144K9L2 9L220160828055010108/28/16 05:50:31  5-MIN K9L2 281350Z AUTO 00000KT 10SM CLR 17/02 A3004 2190 36 2900 000/00 RMK AO2 $
53144K9L2 9L220160828055511808/28/16 05:55:31  5-MIN K9L2 281355Z AUTO 32003KT 10SM CLR 17/02 A3004 2190 36 2900 310/03 RMK AO2 SLP155 T01670017 $
53144K9L2 9L220160828060010108/28/16 06:00:31  5-MIN K9L2 281400Z AUTO 35005KT 10SM CLR 17/02 A3004 2190 35 3000 340/05 RMK AO2 $
53144K9L2 9L220160828060510108/28/16 06:05:31  5-MIN K9L2 281405Z AUTO 36004KT 10SM CLR 18/02 A3004 2190 35 3100 350/04 RMK AO2 $
53144K9L2 9L220160828061010108/28/16 06:10:31  5-MIN K9L2 281410Z AUTO 35003KT 10SM CLR 18/02 A3004 2190 35 3100 340/03 RMK AO2 $
53144K9L2 9L220160828061510108/28/16 06:15:31  5-MIN K9L2 281415Z AUTO 00000KT 10SM CLR 18/02 A3005 2190 34 3100 000/00 RMK AO2 $
53144K9L2 9L220160828062010108/28/16 06:20:31  5-MIN K9L2 281420Z AUTO 00000KT 10SM CLR 18/02 A3005 2190 34 3100 000/00 RMK AO2 $
53144K9L2 9L220160828062510108/28/16 06:25:31  5-MIN K9L2 281425Z AUTO 00000KT 10SM CLR 19/02 A3005 2180 32 3200 000/00 RMK AO2 $
53144K9L2 9L220160828063010108/28/16 06:30:31  5-MIN K9L2 281430Z AUTO 00000KT 10SM CLR 19/02 A3005 2180 32 3200 000/00 RMK AO2 $
53144K9L2 9L220160828063510108/28/16 06:35:31  5-MIN K9L2 281435Z AUTO 34003KT 10SM CLR 19/02 A3005 2180 31 3200 330/03 RMK AO2 $
53144K9L2 9L220160828064010108/28/16 06:40:31  5-MIN K9L2 281440Z AUTO 35003KT 10SM CLR 20/02 A3005 2180 30 3300 340/03 RMK AO2 $
53144K9L2 9L220160828064510108/28/16 06:45:31  5-MIN K9L2 281445Z AUTO 01003KT 10SM CLR 21/02 A3005 2180 29 3400 350/03 RMK AO2 $
53144K9L2 9L220160828065010108/28/16 06:50:31  5-MIN K9L2 281450Z AUTO 00000KT 10SM CLR 21/02 A3005 2180 29 3400 000/00 RMK AO2 $
53144K9L2 9L220160828065512408/28/16 06:55:31  5-MIN K9L2 281455Z AUTO 02004KT 10SM CLR 21/02 A3005 2180 28 3400 010/04 RMK AO2 SLP159 T02110022 53002 $
53144K9L2 9L220160828070010108/28/16 07:00:31  5-MIN K9L2 281500Z AUTO 02003KT 10SM CLR 21/02 A3005 2180 28 3400 010/03 RMK AO2 $
53144K9L2 9L220160828070510108/28/16 07:05:31  5-MIN K9L2 281505Z AUTO 01004KT 10SM CLR 21/02 A3006 2180 28 3400 360/04 RMK AO2 $
53144K9L2 9L220160828071010108/28/16 07:10:31  5-MIN K9L2 281510Z AUTO 02004KT 10SM CLR 22/03 A3006 2180 28 3500 010/04 RMK AO2 $
53144K9L2 9L220160828071510108/28/16 07:15:31  5-MIN K9L2 281515Z AUTO 01003KT 10SM CLR 22/03 A3006 2180 27 3500 350/03 RMK AO2 $
53144K9L2 9L220160828072010108/28/16 07:20:31  5-MIN K9L2 281520Z AUTO 01004KT 10SM CLR 22/03 A3006 2180 27 3500 360/04 RMK AO2 $
53144K9L2 9L220160828072510108/28/16 07:25:31  5-MIN K9L2 281525Z AUTO 02004KT 10SM CLR 23/03 A3006 2180 26 3600 010/04 RMK AO2 $
53144K9L2 9L220160828073010108/28/16 07:30:31  5-MIN K9L2 281530Z AUTO 03005KT 10SM CLR 23/03 A3006 2180 25 3700 010/05 RMK AO2 $
53144K9L2 9L220160828073510108/28/16 07:35:31  5-MIN K9L2 281535Z AUTO 02003KT 10SM CLR 24/03 A3006 2170 25 3700 360/03 RMK AO2 $
53144K9L2 9L220160828074010108/28/16 07:40:31  5-MIN K9L2 281540Z AUTO 00000KT 10SM CLR 24/03 A3006 2170 24 3800 000/00 RMK AO2 $
53144K9L2 9L220160828074510108/28/16 07:45:31  5-MIN K9L2 281545Z AUTO 00000KT 10SM CLR 24/03 A3006 2170 25 3800 000/00 RMK AO2 $
53144K9L2 9L220160828075010108/28/16 07:50:31  5-MIN K9L2 281550Z AUTO 04003KT 10SM CLR 25/03 A3006 2170 24 3900 020/03 RMK AO2 $
53144K9L2 9L220160828075511808/28/16 07:55:31  5-MIN K9L2 281555Z AUTO 00000KT 10SM CLR 25/03 A3006 2170 24 3900 000/00 RMK AO2 SLP160 T02500033 $
53144K9L2 9L220160828080010108/28/16 08:00:31  5-MIN K9L2 281600Z AUTO 00000KT 10SM CLR 26/03 A3006 2170 23 3900 000/00 RMK AO2 $
53144K9L2 9L220160828080510108/28/16 08:05:31  5-MIN K9L2 281605Z AUTO 03003KT 10SM CLR 26/03 A3006 2170 23 3900 010/03 RMK AO2 $
53144K9L2 9L220160828081010108/28/16 08:10:31  5-MIN K9L2 281610Z AUTO 00000KT 10SM CLR 26/03 A3006 2170 22 4000 000/00 RMK AO2 $
53144K9L2 9L220160828081510108/28/16 08:15:31  5-MIN K9L2 281615Z AUTO 00000KT 10SM CLR 26/03 A3006 2170 22 4000 000/00 RMK AO2 $
53144K9L2 9L220160828082010108/28/16 08:20:31  5-MIN K9L2 281620Z AUTO 00000KT 10SM CLR 26/03 A3006 2170 22 4000 000/00 RMK AO2 $
53144K9L2 9L220160828082510108/28/16 08:25:31  5-MIN K9L2 281625Z AUTO 12003KT 10SM CLR 27/03 A3006 2170 22 4000 110/03 RMK AO2 $
53144K9L2 9L220160828083010108/28/16 08:30:31  5-MIN K9L2 281630Z AUTO 13004KT 10SM CLR 26/03 A3007 2170 22 4000 110/04 RMK AO2 $
53144K9L2 9L220160828083510108/28/16 08:35:31  5-MIN K9L2 281635Z AUTO 14004KT 10SM CLR 26/03 A3007 2170 22 4000 130/04 RMK AO2 $
53144K9L2 9L220160828084010108/28/16 08:40:31  5-MIN K9L2 281640Z AUTO 00000KT 10SM CLR 26/03 A3007 2170 22 4000 000/00 RMK AO2 $
53144K9L2 9L220160828084510108/28/16 08:45:31  5-MIN K9L2 281645Z AUTO 12004KT 10SM CLR 27/03 A3007 2170 22 4000 110/04 RMK AO2 $
53144K9L2 9L220160828085010108/28/16 08:50:31  5-MIN K9L2 281650Z AUTO 13003KT 10SM CLR 27/03 A3007 2170 22 4000 120/03 RMK AO2 $
53144K9L2 9L220160828085511808/28/16 08:55:31  5-MIN K9L2 281655Z AUTO VRB03KT 10SM CLR 27/03 A3007 2170 22 4000 VRB/03 RMK AO2 SLP162 T02670033 $
53144K9L2 9L220160828090010108/28/16 09:00:31  5-MIN K9L2 281700Z AUTO 14003KT 10SM CLR 27/03 A3007 2170 21 4100 130/03 RMK AO2 $
53144K9L2 9L220160828090510108/28/16 09:05:31  5-MIN K9L2 281705Z AUTO 14003KT 10SM CLR 27/03 A3007 2170 21 4100 120/03 RMK AO2 $
53144K9L2 9L220160828091010108/28/16 09:10:31  5-MIN K9L2 281710Z AUTO 13004KT 10SM CLR 28/04 A3007 2170 21 4200 120/04 RMK AO2 $
53144K9L2 9L220160828091510108/28/16 09:15:31  5-MIN K9L2 281715Z AUTO 13003KT 10SM CLR 28/04 A3007 2170 21 4200 120/03 RMK AO2 $
53144K9L2 9L220160828092010108/28/16 09:20:31  5-MIN K9L2 281720Z AUTO 13003KT 10SM CLR 28/04 A3007 2170 20 4200 110/03 RMK AO2 $
53144K9L2 9L220160828092510108/28/16 09:25:31  5-MIN K9L2 281725Z AUTO 12003KT 10SM CLR 28/04 A3007 2170 20 4200 110/03 RMK AO2 $
53144K9L2 9L220160828093010108/28/16 09:30:31  5-MIN K9L2 281730Z AUTO VRB03KT 10SM CLR 29/04 A3007 2170 20 4300 VRB/03 RMK AO2 $
53144K9L2 9L220160828093510108/28/16 09:35:31  5-MIN K9L2 281735Z AUTO 00000KT 10SM CLR 29/04 A3006 2170 20 4300 000/00 RMK AO2 $
53144K9L2 9L220160828094010108/28/16 09:40:31  5-MIN K9L2 281740Z AUTO 13003KT 10SM CLR 29/04 A3006 2170 20 4300 120/03 RMK AO2 $
53144K9L2 9L220160828094510108/28/16 09:45:31  5-MIN K9L2 281745Z AUTO 12004KT 10SM CLR 30/04 A3006 2170 18 4400 110/04 RMK AO2 $
53144K9L2 9L220160828095010108/28/16 09:50:31  5-MIN K9L2 281750Z AUTO 10003KT 10SM CLR 29/04 A3006 2170 19 4300 090/03 RMK AO2 $
53144K9L2 9L220160828095513608/28/16 09:55:31  5-MIN K9L2 281755Z AUTO VRB03KT 10SM CLR 29/04 A3006 2170 19 4300 VRB/03 RMK AO2 SLP158 T02940039 10300 20156 52016 $
53144K9L2 9L220160828100010108/28/16 10:00:31  5-MIN K9L2 281800Z AUTO VRB03KT 10SM CLR 30/04 A3006 2170 18 4400 VRB/03 RMK AO2 $
53144K9L2 9L220160828100510108/28/16 10:05:31  5-MIN K9L2 281805Z AUTO 00000KT 10SM CLR 30/04 A3006 2170 18 4400 000/00 RMK AO2 $
53144K9L2 9L220160828101010108/28/16 10:10:31  5-MIN K9L2 281810Z AUTO 00000KT 10SM CLR 30/04 A3006 2170 18 4400 000/00 RMK AO2 $
53144K9L2 9L220160828101510108/28/16 10:15:31  5-MIN K9L2 281815Z AUTO VRB03KT 10SM CLR 31/04 A3006 2180 17 4500 VRB/03 RMK AO2 $
53144K9L2 9L220160828102010108/28/16 10:20:31  5-MIN K9L2 281820Z AUTO 18003KT 10SM CLR 31/04 A3006 2180 18 4500 170/03 RMK AO2 $
53144K9L2 9L220160828102510108/28/16 10:25:31  5-MIN K9L2 281825Z AUTO 00000KT 10SM CLR 30/04 A3006 2170 18 4400 000/00 RMK AO2 $
53144K9L2 9L220160828103010108/28/16 10:30:31  5-MIN K9L2 281830Z AUTO 16004KT 10SM CLR 30/03 A3006 2180 18 4400 140/04 RMK AO2 $
53144K9L2 9L220160828103510108/28/16 10:35:31  5-MIN K9L2 281835Z AUTO 13004KT 10SM CLR 31/03 A3006 2180 17 4500 120/04 RMK AO2 $
53144K9L2 9L220160828104010108/28/16 10:40:31  5-MIN K9L2 281840Z AUTO 13004KT 10SM CLR 31/03 A3005 2180 17 4500 110/04 RMK AO2 $
53144K9L2 9L220160828104510108/28/16 10:45:31  5-MIN K9L2 281845Z AUTO 00000KT 10SM CLR 32/03 A3005 2180 16 4600 000/00 RMK AO2 $
53144K9L2 9L220160828105010108/28/16 10:50:31  5-MIN K9L2 281850Z AUTO 00000KT 10SM CLR 32/03 A3005 2180 16 4600 000/00 RMK AO2 $
53144K9L2 9L220160828105511808/28/16 10:55:31  5-MIN K9L2 281855Z AUTO VRB03KT 10SM CLR 32/03 A3005 2180 16 4600 VRB/03 RMK AO2 SLP154 T03170033 $
53144K9L2 9L220160828110010108/28/16 11:00:31  5-MIN K9L2 281900Z AUTO 00000KT 10SM CLR 32/03 A3005 2180 15 4700 000/00 RMK AO2 $
53144K9L2 9L220160828110510108/28/16 11:05:31  5-MIN K9L2 281905Z AUTO VRB04KT 10SM CLR 32/03 A3005 2180 15 4700 VRB/04 RMK AO2 $
53144K9L2 9L220160828111010108/28/16 11:10:31  5-MIN K9L2 281910Z AUTO VRB03KT 10SM CLR 33/03 A3004 2190 14 4700 VRB/03 RMK AO2 $
53144K9L2 9L220160828111510108/28/16 11:15:31  5-MIN K9L2 281915Z AUTO 00000KT 10SM CLR 33/03 A3004 2190 14 4700 000/00 RMK AO2 $
53144K9L2 9L220160828112010108/28/16 11:20:31  5-MIN K9L2 281920Z AUTO 00000KT 10SM CLR 33/03 A3004 2190 14 4700 000/00 RMK AO2 $
53144K9L2 9L220160828112510108/28/16 11:25:31  5-MIN K9L2 281925Z AUTO VRB04KT 10SM CLR 33/03 A3004 2190 14 4800 VRB/04 RMK AO2 $
53144K9L2 9L220160828113010108/28/16 11:30:31  5-MIN K9L2 281930Z AUTO 00000KT 10SM CLR 33/02 A3004 2190 13 4800 000/00 RMK AO2 $
53144K9L2 9L220160828113510108/28/16 11:35:31  5-MIN K9L2 281935Z AUTO 15003KT 10SM CLR 33/02 A3004 2190 13 4800 140/03 RMK AO2 $
53144K9L2 9L220160828114010108/28/16 11:40:31  5-MIN K9L2 281940Z AUTO 08003KT 10SM CLR 34/02 A3004 2200 13 4900 070/03 RMK AO2 $
53144K9L2 9L220160828114510108/28/16 11:45:31  5-MIN K9L2 281945Z AUTO 10005KT 10SM CLR 34/02 A3003 2200 13 4900 090/05 RMK AO2 $
53144K9L2 9L220160828115010108/28/16 11:50:31  5-MIN K9L2 281950Z AUTO 10004KT 10SM CLR 34/02 A3003 2200 13 4900 080/04 RMK AO2 $
53144K9L2 9L220160828115511808/28/16 11:55:31  5-MIN K9L2 281955Z AUTO VRB03KT 10SM CLR 34/02 A3003 2200 12 4900 VRB/03 RMK AO2 SLP147 T03440017 $
53144K9L2 9L220160828120010108/28/16 12:00:31  5-MIN K9L2 282000Z AUTO 00000KT 10SM CLR 34/02 A3003 2200 12 4900 000/00 RMK AO2 $
53144K9L2 9L220160828120510108/28/16 12:05:31  5-MIN K9L2 282005Z AUTO 00000KT 10SM CLR 34/02 A3003 2200 12 4900 000/00 RMK AO2 $
53144K9L2 9L220160828121010108/28/16 12:10:31  5-MIN K9L2 282010Z AUTO VRB03KT 10SM CLR 35/02 A3003 2200 12 5000 VRB/03 RMK AO2 $
53144K9L2 9L220160828121510108/28/16 12:15:31  5-MIN K9L2 282015Z AUTO 24005KT 10SM CLR 36/01 A3003 2200 11 5000 220/05 RMK AO2 $
53144K9L2 9L220160828122010108/28/16 12:20:31  5-MIN K9L2 282020Z AUTO 00000KT 10SM CLR 35/01 A3003 2210 11 5000 000/00 RMK AO2 $
53144K9L2 9L220160828122510108/28/16 12:25:31  5-MIN K9L2 282025Z AUTO 00000KT 10SM CLR 36/01 A3002 2210 11 5100 000/00 RMK AO2 $
53144K9L2 9L220160828123010108/28/16 12:30:31  5-MIN K9L2 282030Z AUTO 03003KT 10SM CLR 36/01 A3002 2210 11 5100 010/03 RMK AO2 $
53144K9L2 9L220160828123510108/28/16 12:35:31  5-MIN K9L2 282035Z AUTO VRB03KT 10SM CLR 37/01 A3002 2210 10 5200 VRB/03 RMK AO2 $
53144K9L2 9L220160828124010108/28/16 12:40:31  5-MIN K9L2 282040Z AUTO 00000KT 10SM CLR 36/01 A3002 2210 11 5100 000/00 RMK AO2 $
53144K9L2 9L220160828124510108/28/16 12:45:31  5-MIN K9L2 282045Z AUTO 21006KT 10SM CLR 36/01 A3002 2210 11 5100 200/06 RMK AO2 $
53144K9L2 9L220160828125010108/28/16 12:50:31  5-MIN K9L2 282050Z AUTO 16004KT 10SM CLR 36/01 A3001 2220 11 5100 140/04 RMK AO2 $
53144K9L2 9L220160828125512408/28/16 12:55:31  5-MIN K9L2 282055Z AUTO 17004KT 10SM CLR 36/01 A3001 2220 11 5100 160/04 RMK AO2 SLP138 T03610011 50002 $
53144K9L2 9L220160828130010108/28/16 13:00:31  5-MIN K9L2 282100Z AUTO 17007KT 10SM CLR 37/01 A3001 2220 10 5200 150/07 RMK AO2 $
53144K9L2 9L220160828130510108/28/16 13:05:31  5-MIN K9L2 282105Z AUTO 00000KT 10SM CLR 36/01 A3001 2220 10 5100 000/00 RMK AO2 $
53144K9L2 9L220160828131010108/28/16 13:10:31  5-MIN K9L2 282110Z AUTO 00000KT 10SM CLR 37/01 A3001 2220 10 5200 000/00 RMK AO2 $
53144K9L2 9L220160828131510108/28/16 13:15:31  5-MIN K9L2 282115Z AUTO VRB04KT 10SM CLR 37/01 A3001 2220 10 5200 VRB/04 RMK AO2 $
53144K9L2 9L220160828132010108/28/16 13:20:31  5-MIN K9L2 282120Z AUTO 14003KT 10SM CLR 37/01 A3000 2230 10 5200 130/03 RMK AO2 $
53144K9L2 9L220160828132510108/28/16 13:25:31  5-MIN K9L2 282125Z AUTO VRB04KT 10SM CLR 36/01 A3000 2230 10 5100 VRB/04 RMK AO2 $
53144K9L2 9L220160828133010108/28/16 13:30:31  5-MIN K9L2 282130Z AUTO VRB05KT 10SM CLR 37/01 A3000 2230 10 5200 VRB/05 RMK AO2 $
53144K9L2 9L220160828133510108/28/16 13:35:31  5-MIN K9L2 282135Z AUTO 14004KT 10SM CLR 37/01 A3000 2230 10 5300 130/04 RMK AO2 $
53144K9L2 9L220160828134010108/28/16 13:40:31  5-MIN K9L2 282140Z AUTO 12004KT 10SM CLR 37/00 A2999 2230 09 5300 110/04 RMK AO2 $
53144K9L2 9L220160828134510108/28/16 13:45:31  5-MIN K9L2 282145Z AUTO VRB04KT 10SM CLR 37/00 A2999 2240 09 5300 VRB/04 RMK AO2 $
53144K9L2 9L220160828135010208/28/16 13:50:31  5-MIN K9L2 282150Z AUTO 00000KT 10SM CLR 37/M01 A2999 2240 09 5200 000/00 RMK AO2 $
53144K9L2 9L220160828135511908/28/16 13:55:31  5-MIN K9L2 282155Z AUTO 09005KT 10SM CLR 37/M01 A2999 2240 09 5300 080/05 RMK AO2 SLP130 T03721006 $
53144K9L2 9L220160828140010208/28/16 14:00:31  5-MIN K9L2 282200Z AUTO VRB03KT 10SM CLR 38/M01 A2999 2240 09 5300 VRB/03 RMK AO2 $
53144K9L2 9L220160828140510208/28/16 14:05:31  5-MIN K9L2 282205Z AUTO 17005KT 10SM CLR 37/M01 A2998 2240 09 5300 150/05 RMK AO2 $
53144K9L2 9L220160828141010208/28/16 14:10:31  5-MIN K9L2 282210Z AUTO 00000KT 10SM CLR 37/M01 A2998 2250 09 5300 000/00 RMK AO2 $
53144K9L2 9L220160828141510208/28/16 14:15:31  5-MIN K9L2 282215Z AUTO 19005KT 10SM CLR 38/M01 A2998 2250 08 5300 170/05 RMK AO2 $
53144K9L2 9L220160828142010208/28/16 14:20:31  5-MIN K9L2 282220Z AUTO VRB06KT 10SM CLR 38/M01 A2998 2250 08 5300 VRB/06 RMK AO2 $
53144K9L2 9L220160828142510208/28/16 14:25:31  5-MIN K9L2 282225Z AUTO 00000KT 10SM CLR 37/M01 A2998 2250 08 5300 000/00 RMK AO2 $
53144K9L2 9L220160828143010208/28/16 14:30:31  5-MIN K9L2 282230Z AUTO 00000KT 10SM CLR 38/M01 A2997 2250 08 5300 000/00 RMK AO2 $
53144K9L2 9L220160828143510208/28/16 14:35:31  5-MIN K9L2 282235Z AUTO VRB03KT 10SM CLR 38/M02 A2997 2250 08 5300 VRB/03 RMK AO2 $
53144K9L2 9L220160828144010208/28/16 14:40:31  5-MIN K9L2 282240Z AUTO VRB03KT 10SM CLR 38/M02 A2997 2260 08 5300 VRB/03 RMK AO2 $
53144K9L2 9L220160828144510208/28/16 14:45:31  5-MIN K9L2 282245Z AUTO 17005KT 10SM CLR 38/M02 A2997 2260 08 5300 160/05 RMK AO2 $
53144K9L2 9L220160828145010208/28/16 14:50:31  5-MIN K9L2 282250Z AUTO 20006KT 10SM CLR 38/M02 A2997 2260 08 5400 190/06 RMK AO2 $
53144K9L2 9L220160828145511908/28/16 14:55:31  5-MIN K9L2 282255Z AUTO 19006KT 10SM CLR 38/M02 A2997 2260 08 5300 180/06 RMK AO2 SLP124 T03781017 $
53144K9L2 9L220160828150010208/28/16 15:00:31  5-MIN K9L2 282300Z AUTO 14004KT 10SM CLR 38/M02 A2997 2260 07 5400 130/04 RMK AO2 $
53144K9L2 9L220160828150510208/28/16 15:05:31  5-MIN K9L2 282305Z AUTO 14004KT 10SM CLR 38/M02 A2996 2260 08 5300 130/04 RMK AO2 $
53144K9L2 9L220160828151010208/28/16 15:10:31  5-MIN K9L2 282310Z AUTO 16005KT 10SM CLR 38/M02 A2996 2260 07 5400 150/05 RMK AO2 $
53144K9L2 9L220160828151510208/28/16 15:15:31  5-MIN K9L2 282315Z AUTO 20004KT 10SM CLR 38/M02 A2996 2260 07 5400 190/04 RMK AO2 $
53144K9L2 9L220160828152010208/28/16 15:20:31  5-MIN K9L2 282320Z AUTO 17005KT 10SM CLR 38/M02 A2996 2270 07 5400 160/05 RMK AO2 $
53144K9L2 9L220160828152510208/28/16 15:25:31  5-MIN K9L2 282325Z AUTO 19008KT 10SM CLR 38/M02 A2996 2270 07 5400 180/08 RMK AO2 $
53144K9L2 9L220160828153010208/28/16 15:30:31  5-MIN K9L2 282330Z AUTO 15005KT 10SM CLR 38/M03 A2996 2270 07 5400 140/05 RMK AO2 $
53144K9L2 9L220160828153510208/28/16 15:35:31  5-MIN K9L2 282335Z AUTO 19003KT 10SM CLR 38/M03 A2996 2270 07 5400 180/03 RMK AO2 $
53144K9L2 9L220160828154010208/28/16 15:40:31  5-MIN K9L2 282340Z AUTO 00000KT 10SM CLR 38/M03 A2996 2270 07 5400 000/00 RMK AO2 $
53144K9L2 9L220160828154510208/28/16 15:45:31  5-MIN K9L2 282345Z AUTO 00000KT 10SM CLR 39/M03 A2996 2270 07 5500 000/00 RMK AO2 $
53144K9L2 9L220160828155010208/28/16 15:50:31  5-MIN K9L2 282350Z AUTO 00000KT 10SM CLR 39/M03 A2996 2270 07 5500 000/00 RMK AO2 $
53144K9L2 9L220160828155513708/28/16 15:55:31  5-MIN K9L2 282355Z AUTO 00000KT 10SM CLR 39/M03 A2995 2270 07 5500 000/00 RMK AO2 SLP121 T03891033 10394 20300 58016 $
53144K9L2 9L220160828160010208/28/16 16:00:31  5-MIN K9L2 290000Z AUTO 00000KT 10SM CLR 39/M03 A2995 2270 07 5500 000/00 RMK AO2 $
53144K9L2 9L220160828160510208/28/16 16:05:31  5-MIN K9L2 290005Z AUTO 00000KT 10SM CLR 38/M04 A2995 2270 06 5400 000/00 RMK AO2 $
53144K9L2 9L220160828161010208/28/16 16:10:31  5-MIN K9L2 290010Z AUTO 19005KT 10SM CLR 38/M03 A2995 2270 07 5400 170/05 RMK AO2 $
53144K9L2 9L220160828161510208/28/16 16:15:31  5-MIN K9L2 290015Z AUTO VRB04KT 10SM CLR 38/M03 A2995 2270 07 5400 VRB/04 RMK AO2 $
53144K9L2 9L220160828162010208/28/16 16:20:31  5-MIN K9L2 290020Z AUTO 17005KT 10SM CLR 38/M03 A2995 2270 07 5400 160/05 RMK AO2 $
53144K9L2 9L220160828162510208/28/16 16:25:31  5-MIN K9L2 290025Z AUTO VRB03KT 10SM CLR 38/M03 A2995 2270 07 5400 VRB/03 RMK AO2 $
53144K9L2 9L220160828163010208/28/16 16:30:31  5-MIN K9L2 290030Z AUTO 00000KT 10SM CLR 38/M04 A2995 2270 06 5400 000/00 RMK AO2 $
53144K9L2 9L220160828163510208/28/16 16:35:31  5-MIN K9L2 290035Z AUTO 00000KT 10SM CLR 38/M03 A2995 2280 07 5400 000/00 RMK AO2 $
53144K9L2 9L220160828164010208/28/16 16:40:31  5-MIN K9L2 290040Z AUTO 24004KT 10SM CLR 38/M04 A2995 2280 06 5400 220/04 RMK AO2 $
53144K9L2 9L220160828164510208/28/16 16:45:31  5-MIN K9L2 290045Z AUTO 24003KT 10SM CLR 38/M04 A2995 2280 07 5400 230/03 RMK AO2 $
53144K9L2 9L220160828165010208/28/16 16:50:31  5-MIN K9L2 290050Z AUTO 18006KT 10SM CLR 38/M03 A2995 2280 07 5400 170/06 RMK AO2 $
53144K9L2 9L220160828165511908/28/16 16:55:31  5-MIN K9L2 290055Z AUTO 20006KT 10SM CLR 38/M03 A2995 2280 07 5400 190/06 RMK AO2 SLP121 T03781033 $
53144K9L2 9L220160828170010208/28/16 17:00:31  5-MIN K9L2 290100Z AUTO 19006KT 10SM CLR 38/M03 A2995 2280 07 5400 180/06 RMK AO2 $
53144K9L2 9L220160828170510208/28/16 17:05:31  5-MIN K9L2 290105Z AUTO 16005KT 10SM CLR 38/M03 A2995 2280 07 5400 140/05 RMK AO2 $
53144K9L2 9L220160828171010208/28/16 17:10:31  5-MIN K9L2 290110Z AUTO 19004KT 10SM CLR 38/M04 A2995 2270 07 5400 180/04 RMK AO2 $
53144K9L2 9L220160828171510208/28/16 17:15:31  5-MIN K9L2 290115Z AUTO 22007KT 10SM CLR 38/M02 A2995 2270 08 5400 210/07 RMK AO2 $
53144K9L2 9L220160828172010708/28/16 17:20:31  5-MIN K9L2 290120Z AUTO 24011G14KT 10SM CLR 37/01 A2995 2280 10 5300 220/11G14 RMK AO2 $
53144K9L2 9L220160828172510708/28/16 17:25:31  5-MIN K9L2 290125Z AUTO 26009G14KT 10SM CLR 37/02 A2995 2280 10 5300 240/09G14 RMK AO2 $
53144K9L2 9L220160828173010708/28/16 17:30:31  5-MIN K9L2 290130Z AUTO 27013G17KT 10SM CLR 37/03 A2995 2280 12 5200 250/13G17 RMK AO2 $
53144K9L2 9L220160828173510108/28/16 17:35:31  5-MIN K9L2 290135Z AUTO 27015KT 10SM CLR 37/03 A2995 2280 12 5200 250/15 RMK AO2 $
53144K9L2 9L220160828174010108/28/16 17:40:31  5-MIN K9L2 290140Z AUTO 27013KT 10SM CLR 36/03 A2995 2270 12 5200 260/13 RMK AO2 $
53144K9L2 9L220160828174510108/28/16 17:45:31  5-MIN K9L2 290145Z AUTO 27013KT 10SM CLR 36/03 A2995 2270 13 5100 250/13 RMK AO2 $
53144K9L2 9L220160828175010108/28/16 17:50:31  5-MIN K9L2 290150Z AUTO 27016KT 10SM CLR 36/03 A2995 2270 13 5100 260/16 RMK AO2 $
53144K9L2 9L220160828175511808/28/16 17:55:31  5-MIN K9L2 290155Z AUTO 27013KT 10SM CLR 35/03 A2996 2270 13 5100 260/13 RMK AO2 SLP124 T03500028 $
53144K9L2 9L220160828180010108/28/16 18:00:31  5-MIN K9L2 290200Z AUTO 27014KT 10SM CLR 35/03 A2996 2270 13 5100 260/14 RMK AO2 $
53144K9L2 9L220160828180510108/28/16 18:05:31  5-MIN K9L2 290205Z AUTO 27013KT 10SM CLR 34/03 A2996 2270 14 5000 260/13 RMK AO2 $
53144K9L2 9L220160828181010108/28/16 18:10:31  5-MIN K9L2 290210Z AUTO 28013KT 10SM CLR 34/03 A2996 2260 14 4900 260/13 RMK AO2 $
53144K9L2 9L220160828181510108/28/16 18:15:31  5-MIN K9L2 290215Z AUTO 27012KT 10SM CLR 34/04 A2997 2260 15 4900 260/12 RMK AO2 $
53144K9L2 9L220160828182010108/28/16 18:20:31  5-MIN K9L2 290220Z AUTO 28011KT 10SM CLR 33/04 A2997 2260 15 4900 270/11 RMK AO2 $
53144K9L2 9L220160828182510108/28/16 18:25:31  5-MIN K9L2 290225Z AUTO 28012KT 10SM CLR 33/04 A2997 2260 16 4800 260/12 RMK AO2 $
53144K9L2 9L220160828183010108/28/16 18:30:31  5-MIN K9L2 290230Z AUTO 28012KT 10SM CLR 33/04 A2997 2260 16 4800 270/12 RMK AO2 $
53144K9L2 9L220160828183510108/28/16 18:35:31  5-MIN K9L2 290235Z AUTO 27012KT 10SM CLR 33/04 A2997 2260 16 4800 260/12 RMK AO2 $
53144K9L2 9L220160828184010108/28/16 18:40:31  5-MIN K9L2 290240Z AUTO 27012KT 10SM CLR 32/04 A2997 2250 16 4700 260/12 RMK AO2 $
53144K9L2 9L220160828184510108/28/16 18:45:31  5-MIN K9L2 290245Z AUTO 26010KT 10SM CLR 32/04 A2998 2250 17 4700 250/10 RMK AO2 $
53144K9L2 9L220160828185010108/28/16 18:50:31  5-MIN K9L2 290250Z AUTO 26010KT 10SM CLR 32/04 A2998 2250 17 4700 240/10 RMK AO2 $
53144K9L2 9L220160828185512408/28/16 18:55:31  5-MIN K9L2 290255Z AUTO 26012KT 10SM CLR 31/04 A2998 2250 17 4600 240/12 RMK AO2 SLP133 T03110039 56018 $
53144K9L2 9L220160828190010108/28/16 19:00:31  5-MIN K9L2 290300Z AUTO 26012KT 10SM CLR 31/04 A2998 2250 18 4600 250/12 RMK AO2 $
53144K9L2 9L220160828190510108/28/16 19:05:31  5-MIN K9L2 290305Z AUTO 26014KT 10SM CLR 31/04 A2998 2240 18 4600 250/14 RMK AO2 $
53144K9L2 9L220160828191010108/28/16 19:10:31  5-MIN K9L2 290310Z AUTO 27014KT 10SM CLR 31/04 A2999 2240 18 4600 250/14 RMK AO2 $
53144K9L2 9L220160828191510108/28/16 19:15:31  5-MIN K9L2 290315Z AUTO 27013KT 10SM CLR 31/04 A2999 2240 19 4500 250/13 RMK AO2 $
53144K9L2 9L220160828192010108/28/16 19:20:31  5-MIN K9L2 290320Z AUTO 27013KT 10SM CLR 31/05 A2999 2240 19 4500 260/13 RMK AO2 $
53144K9L2 9L220160828192510108/28/16 19:25:31  5-MIN K9L2 290325Z AUTO 27013KT 10SM CLR 31/05 A2999 2240 19 4500 260/13 RMK AO2 $
53144K9L2 9L220160828193010108/28/16 19:30:31  5-MIN K9L2 290330Z AUTO 27012KT 10SM CLR 30/05 A2999 2240 20 4500 260/12 RMK AO2 $
53144K9L2 9L220160828193510108/28/16 19:35:31  5-MIN K9L2 290335Z AUTO 27011KT 10SM CLR 30/05 A3000 2230 20 4500 250/11 RMK AO2 $
53144K9L2 9L220160828194010108/28/16 19:40:31  5-MIN K9L2 290340Z AUTO 27010KT 10SM CLR 30/05 A3000 2230 20 4500 260/10 RMK AO2 $
53144K9L2 9L220160828194510108/28/16 19:45:31  5-MIN K9L2 290345Z AUTO 28010KT 10SM CLR 30/05 A3000 2230 20 4500 260/10 RMK AO2 $
53144K9L2 9L220160828195010108/28/16 19:50:31  5-MIN K9L2 290350Z AUTO 27009KT 10SM CLR 29/05 A3000 2230 21 4400 260/09 RMK AO2 $
53144K9L2 9L220160828195511808/28/16 19:55:31  5-MIN K9L2 290355Z AUTO 28007KT 10SM CLR 29/06 A3000 2220 21 4400 270/07 RMK AO2 SLP140 T02940056 $
53144K9L2 9L220160828200010108/28/16 20:00:31  5-MIN K9L2 290400Z AUTO 29007KT 10SM CLR 29/06 A3001 2220 21 4400 270/07 RMK AO2 $
53144K9L2 9L220160828200510108/28/16 20:05:31  5-MIN K9L2 290405Z AUTO 28006KT 10SM CLR 29/06 A3001 2220 22 4300 270/06 RMK AO2 $
53144K9L2 9L220160828201010108/28/16 20:10:31  5-MIN K9L2 290410Z AUTO 26004KT 10SM CLR 29/06 A3001 2220 23 4300 240/04 RMK AO2 $
53144K9L2 9L220160828201510108/28/16 20:15:31  5-MIN K9L2 290415Z AUTO 20003KT 10SM CLR 28/06 A3001 2220 24 4300 190/03 RMK AO2 $
53144K9L2 9L220160828202010108/28/16 20:20:31  5-MIN K9L2 290420Z AUTO 18004KT 10SM CLR 28/07 A3001 2220 25 4300 170/04 RMK AO2 $
53144K9L2 9L220160828202510108/28/16 20:25:31  5-MIN K9L2 290425Z AUTO 20005KT 10SM CLR 28/07 A3001 2220 25 4300 180/05 RMK AO2 $
53144K9L2 9L220160828203010108/28/16 20:30:31  5-MIN K9L2 290430Z AUTO 21006KT 10SM CLR 28/07 A3001 2220 25 4300 200/06 RMK AO2 $
53144K9L2 9L220160828203510108/28/16 20:35:31  5-MIN K9L2 290435Z AUTO 23006KT 10SM CLR 28/07 A3001 2220 26 4300 220/06 RMK AO2 $
53144K9L2 9L220160828204010108/28/16 20:40:31  5-MIN K9L2 290440Z AUTO 24006KT 10SM CLR 28/07 A3001 2220 26 4300 220/06 RMK AO2 $
53144K9L2 9L220160828204510108/28/16 20:45:31  5-MIN K9L2 290445Z AUTO 24006KT 10SM CLR 28/07 A3002 2210 27 4200 230/06 RMK AO2 $
53144K9L2 9L220160828205010108/28/16 20:50:31  5-MIN K9L2 290450Z AUTO 21005KT 10SM CLR 28/08 A3002 2210 28 4200 200/05 RMK AO2 $
53144K9L2 9L220160828205511808/28/16 20:55:31  5-MIN K9L2 290455Z AUTO 20007KT 10SM CLR 28/08 A3002 2210 28 4200 190/07 RMK AO2 SLP145 T02780078 $
53144K9L2 9L220160828210010108/28/16 21:00:31  5-MIN K9L2 290500Z AUTO 22008KT 10SM CLR 28/08 A3002 2210 28 4200 210/08 RMK AO2 $
53144K9L2 9L220160828210510108/28/16 21:05:31  5-MIN K9L2 290505Z AUTO 25007KT 10SM CLR 28/08 A3002 2210 28 4200 230/07 RMK AO2 $
53144K9L2 9L220160828211010108/28/16 21:10:31  5-MIN K9L2 290510Z AUTO 24005KT 10SM CLR 27/08 A3002 2210 29 4200 220/05 RMK AO2 $
53144K9L2 9L220160828211510108/28/16 21:15:31  5-MIN K9L2 290515Z AUTO 19006KT 10SM CLR 27/08 A3002 2210 29 4100 180/06 RMK AO2 $
53144K9L2 9L220160828212010108/28/16 21:20:31  5-MIN K9L2 290520Z AUTO 19006KT 10SM CLR 27/08 A3002 2210 29 4100 180/06 RMK AO2 $
53144K9L2 9L220160828212510108/28/16 21:25:31  5-MIN K9L2 290525Z AUTO 22006KT 10SM CLR 27/08 A3002 2210 29 4100 210/06 RMK AO2 $
53144K9L2 9L220160828213010108/28/16 21:30:31  5-MIN K9L2 290530Z AUTO 24005KT 10SM CLR 27/08 A3002 2210 29 4100 230/05 RMK AO2 $
53144K9L2 9L220160828213510108/28/16 21:35:31  5-MIN K9L2 290535Z AUTO 24004KT 10SM CLR 27/08 A3002 2210 29 4100 220/04 RMK AO2 $
53144K9L2 9L220160828214010108/28/16 21:40:31  5-MIN K9L2 290540Z AUTO 19003KT 10SM CLR 27/08 A3002 2210 29 4100 180/03 RMK AO2 $
53144K9L2 9L220160828214510108/28/16 21:45:31  5-MIN K9L2 290545Z AUTO 19004KT 10SM CLR 27/08 A3002 2210 29 4100 170/04 RMK AO2 $
53144K9L2 9L220160828215010108/28/16 21:50:31  5-MIN K9L2 290550Z AUTO 18005KT 10SM CLR 26/08 A3002 2210 31 4000 160/05 RMK AO2 $
53144K9L2 9L220160828215513608/28/16 21:55:31  5-MIN K9L2 290555Z AUTO 19005KT 10SM CLR 26/07 A3002 2210 29 4000 180/05 RMK AO2 SLP145 T02610072 10389 20261 53009 $
53144K9L2 9L220160828220010108/28/16 22:00:31  5-MIN K9L2 290600Z AUTO 00000KT 10SM CLR 26/07 A3002 2210 29 4000 000/00 RMK AO2 $
53144K9L2 9L220160828220510108/28/16 22:05:31  5-MIN K9L2 290605Z AUTO 24005KT 10SM CLR 26/07 A3002 2210 29 4000 230/05 RMK AO2 $
53144K9L2 9L220160828221010108/28/16 22:10:31  5-MIN K9L2 290610Z AUTO 25007KT 10SM CLR 27/07 A3002 2210 28 4100 240/07 RMK AO2 $
53144K9L2 9L220160828221510108/28/16 22:15:31  5-MIN K9L2 290615Z AUTO 24007KT 10SM CLR 27/07 A3003 2210 28 4100 230/07 RMK AO2 $
53144K9L2 9L220160828222010108/28/16 22:20:31  5-MIN K9L2 290620Z AUTO 25007KT 10SM CLR 27/07 A3002 2210 28 4100 230/07 RMK AO2 $
53144K9L2 9L220160828222510108/28/16 22:25:31  5-MIN K9L2 290625Z AUTO 25008KT 10SM CLR 27/07 A3002 2210 28 4100 240/08 RMK AO2 $
53144K9L2 9L220160828223010108/28/16 22:30:31  5-MIN K9L2 290630Z AUTO 25007KT 10SM CLR 27/07 A3002 2210 28 4100 230/07 RMK AO2 $
53144K9L2 9L220160828223510108/28/16 22:35:31  5-MIN K9L2 290635Z AUTO 25007KT 10SM CLR 27/07 A3002 2210 28 4100 230/07 RMK AO2 $
53144K9L2 9L220160828224010108/28/16 22:40:31  5-MIN K9L2 290640Z AUTO 24006KT 10SM CLR 27/07 A3002 2210 27 4100 230/06 RMK AO2 $
53144K9L2 9L220160828224510108/28/16 22:45:31  5-MIN K9L2 290645Z AUTO 23005KT 10SM CLR 26/07 A3002 2210 28 4000 220/05 RMK AO2 $
53144K9L2 9L220160828225010108/28/16 22:50:31  5-MIN K9L2 290650Z AUTO 00000KT 10SM CLR 26/07 A3002 2210 28 4000 000/00 RMK AO2 $
53144K9L2 9L220160828225511808/28/16 22:55:31  5-MIN K9L2 290655Z AUTO 00000KT 10SM CLR 26/07 A3002 2210 29 4000 000/00 RMK AO2 SLP143 T02560067 $
53144K9L2 9L220160828230010108/28/16 23:00:31  5-MIN K9L2 290700Z AUTO 00000KT 10SM CLR 25/06 A3002 2210 29 3900 000/00 RMK AO2 $
53144K9L2 9L220160828230510108/28/16 23:05:31  5-MIN K9L2 290705Z AUTO 19003KT 10SM CLR 25/06 A3002 2210 28 3900 170/03 RMK AO2 $
53144K9L2 9L220160828231010108/28/16 23:10:31  5-MIN K9L2 290710Z AUTO 19003KT 10SM CLR 25/06 A3002 2210 28 3900 180/03 RMK AO2 $
53144K9L2 9L220160828231510108/28/16 23:15:31  5-MIN K9L2 290715Z AUTO 00000KT 10SM CLR 25/06 A3002 2210 28 3900 000/00 RMK AO2 $
53144K9L2 9L220160828232010108/28/16 23:20:31  5-MIN K9L2 290720Z AUTO 00000KT 10SM CLR 26/06 A3003 2210 27 4000 000/00 RMK AO2 $
53144K9L2 9L220160828232510108/28/16 23:25:31  5-MIN K9L2 290725Z AUTO 00000KT 10SM CLR 26/06 A3003 2200 26 4000 000/00 RMK AO2 $
53144K9L2 9L220160828233010108/28/16 23:30:31  5-MIN K9L2 290730Z AUTO 00000KT 10SM CLR 24/05 A3003 2200 28 3800 000/00 RMK AO2 $
53144K9L2 9L220160828233510108/28/16 23:35:31  5-MIN K9L2 290735Z AUTO 00000KT 10SM CLR 25/05 A3003 2200 27 3900 000/00 RMK AO2 $
53144K9L2 9L220160828234010108/28/16 23:40:31  5-MIN K9L2 290740Z AUTO 00000KT 10SM CLR 25/05 A3003 2200 27 3900 000/00 RMK AO2 $
53144K9L2 9L220160828234510108/28/16 23:45:31  5-MIN K9L2 290745Z AUTO 26003KT 10SM CLR 24/05 A3002 2210 28 3800 240/03 RMK AO2 $
53144K9L2 9L220160828235010108/28/16 23:50:31  5-MIN K9L2 290750Z AUTO 00000KT 10SM CLR 23/05 A3002 2210 30 3700 000/00 RMK AO2 $
53144K9L2 9L220160828235512808/28/16 23:55:31  5-MIN K9L2 290755Z AUTO 00000KT 10SM CLR 22/04 A3002 2210 31 3600 000/00 RMK AO2 SLP145 T02220044 403940156 $
53144K9L2 9L220160829000010108/29/16 00:00:31  5-MIN K9L2 290800Z AUTO 00000KT 10SM CLR 22/04 A3002 2210 30 3600 000/00 RMK AO2 $
53144K9L2 9L220160829000510108/29/16 00:05:31  5-MIN K9L2 290805Z AUTO 00000KT 10SM CLR 23/04 A3002 2210 29 3600 000/00 RMK AO2 $
53144K9L2 9L220160829001010108/29/16 00:10:31  5-MIN K9L2 290810Z AUTO 00000KT 10SM CLR 22/04 A3002 2210 31 3500 000/00 RMK AO2 $
53144K9L2 9L220160829001510108/29/16 00:15:31  5-MIN K9L2 290815Z AUTO 00000KT 10SM CLR 22/04 A3002 2210 30 3600 000/00 RMK AO2 $
53144K9L2 9L220160829002010108/29/16 00:20:31  5-MIN K9L2 290820Z AUTO 00000KT 10SM CLR 23/04 A3002 2210 30 3600 000/00 RMK AO2 $
53144K9L2 9L220160829002510108/29/16 00:25:31  5-MIN K9L2 290825Z AUTO 00000KT 10SM CLR 22/04 A3002 2210 31 3500 000/00 RMK AO2 $
53144K9L2 9L220160829003010108/29/16 00:30:31  5-MIN K9L2 290830Z AUTO 35003KT 10SM CLR 21/03 A3002 2210 30 3500 330/03 RMK AO2 $
53144K9L2 9L220160829003510108/29/16 00:35:31  5-MIN K9L2 290835Z AUTO 34003KT 10SM CLR 21/03 A3002 2210 30 3500 330/03 RMK AO2 $
53144K9L2 9L220160829004010108/29/16 00:40:31  5-MIN K9L2 290840Z AUTO 05003KT 10SM CLR 21/03 A3002 2210 30 3500 040/03 RMK AO2 $
53144K9L2 9L220160829004510108/29/16 00:45:31  5-MIN K9L2 290845Z AUTO 02004KT 10SM CLR 21/03 A3002 2210 30 3400 010/04 RMK AO2 $
53144K9L2 9L220160829005010108/29/16 00:50:31  5-MIN K9L2 290850Z AUTO 02003KT 10SM CLR 22/03 A3002 2210 28 3500 360/03 RMK AO2 $
53144K9L2 9L220160829005512408/29/16 00:55:31  5-MIN K9L2 290855Z AUTO 06004KT 10SM CLR 22/03 A3002 2210 28 3500 050/04 RMK AO2 SLP143 T02170028 51013 $
53144K9L2 9L220160829010010108/29/16 01:00:31  5-MIN K9L2 290900Z AUTO 05003KT 10SM CLR 21/03 A3002 2210 29 3500 040/03 RMK AO2 $
53144K9L2 9L220160829010510108/29/16 01:05:31  5-MIN K9L2 290905Z AUTO 00000KT 10SM CLR 21/03 A3002 2210 29 3500 000/00 RMK AO2 $
53144K9L2 9L220160829011010108/29/16 01:10:31  5-MIN K9L2 290910Z AUTO 08004KT 10SM CLR 21/03 A3002 2210 29 3500 060/04 RMK AO2 $
53144K9L2 9L220160829011510108/29/16 01:15:31  5-MIN K9L2 290915Z AUTO 00000KT 10SM CLR 21/03 A3002 2210 29 3500 000/00 RMK AO2 $
53144K9L2 9L220160829012010108/29/16 01:20:31  5-MIN K9L2 290920Z AUTO 08003KT 10SM CLR 21/03 A3002 2210 29 3500 070/03 RMK AO2 $
53144K9L2 9L220160829012510108/29/16 01:25:31  5-MIN K9L2 290925Z AUTO 00000KT 10SM CLR 21/02 A3002 2210 29 3400 000/00 RMK AO2 $
53144K9L2 9L220160829013010108/29/16 01:30:31  5-MIN K9L2 290930Z AUTO 07003KT 10SM CLR 21/02 A3002 2210 29 3400 060/03 RMK AO2 $
53144K9L2 9L220160829013510108/29/16 01:35:31  5-MIN K9L2 290935Z AUTO 00000KT 10SM CLR 20/02 A3002 2210 30 3300 000/00 RMK AO2 $
53144K9L2 9L220160829014010108/29/16 01:40:31  5-MIN K9L2 290940Z AUTO 00000KT 10SM CLR 20/02 A3002 2210 30 3300 000/00 RMK AO2 $
53144K9L2 9L220160829014510108/29/16 01:45:31  5-MIN K9L2 290945Z AUTO 00000KT 10SM CLR 20/02 A3002 2210 30 3300 000/00 RMK AO2 $
53144K9L2 9L220160829015010108/29/16 01:50:31  5-MIN K9L2 290950Z AUTO 00000KT 10SM CLR 20/02 A3002 2210 30 3300 000/00 RMK AO2 $
53144K9L2 9L220160829015511808/29/16 01:55:31  5-MIN K9L2 290955Z AUTO 00000KT 10SM CLR 19/02 A3002 2210 31 3300 000/00 RMK AO2 SLP144 T01940022 $
53144K9L2 9L220160829020010108/29/16 02:00:31  5-MIN K9L2 291000Z AUTO 04003KT 10SM CLR 19/02 A3002 2210 32 3200 030/03 RMK AO2 $
53144K9L2 9L220160829020510108/29/16 02:05:31  5-MIN K9L2 291005Z AUTO 06003KT 10SM CLR 19/02 A3002 2210 32 3200 050/03 RMK AO2 $
53144K9L2 9L220160829021010108/29/16 02:10:31  5-MIN K9L2 291010Z AUTO 00000KT 10SM CLR 19/02 A3002 2210 31 3300 000/00 RMK AO2 $
53144K9L2 9L220160829021510108/29/16 02:15:31  5-MIN K9L2 291015Z AUTO 00000KT 10SM CLR 19/02 A3002 2210 32 3200 000/00 RMK AO2 $
53144K9L2 9L220160829022010108/29/16 02:20:31  5-MIN K9L2 291020Z AUTO 09003KT 10SM CLR 19/02 A3002 2210 32 3200 080/03 RMK AO2 $
53144K9L2 9L220160829022510108/29/16 02:25:31  5-MIN K9L2 291025Z AUTO 10004KT 10SM CLR 19/02 A3002 2210 31 3300 090/04 RMK AO2 $
53144K9L2 9L220160829023010108/29/16 02:30:31  5-MIN K9L2 291030Z AUTO 11006KT 10SM CLR 20/02 A3003 2200 29 3300 090/06 RMK AO2 $
53144K9L2 9L220160829023510108/29/16 02:35:31  5-MIN K9L2 291035Z AUTO 13005KT 10SM CLR 20/02 A3003 2200 30 3300 120/05 RMK AO2 $
53144K9L2 9L220160829024010108/29/16 02:40:31  5-MIN K9L2 291040Z AUTO 13006KT 10SM CLR 20/02 A3003 2200 30 3300 120/06 RMK AO2 $
53144K9L2 9L220160829024510108/29/16 02:45:31  5-MIN K9L2 291045Z AUTO 14005KT 10SM CLR 20/02 A3003 2200 30 3300 130/05 RMK AO2 $
53144K9L2 9L220160829025010108/29/16 02:50:31  5-MIN K9L2 291050Z AUTO 15004KT 10SM CLR 19/02 A3003 2210 31 3300 130/04 RMK AO2 $
53144K9L2 9L220160829025511808/29/16 02:55:31  5-MIN K9L2 291055Z AUTO 16006KT 10SM CLR 19/02 A3003 2210 31 3300 140/06 RMK AO2 SLP145 T01940022 $
53144K9L2 9L220160829030010108/29/16 03:00:31  5-MIN K9L2 291100Z AUTO 16006KT 10SM CLR 20/03 A3003 2200 31 3300 150/06 RMK AO2 $
53144K9L2 9L220160829030510108/29/16 03:05:31  5-MIN K9L2 291105Z AUTO 16006KT 10SM CLR 19/02 A3003 2200 31 3300 150/06 RMK AO2 $
53144K9L2 9L220160829031010108/29/16 03:10:31  5-MIN K9L2 291110Z AUTO 18004KT 10SM CLR 20/02 A3003 2200 30 3300 170/04 RMK AO2 $
53144K9L2 9L220160829031510108/29/16 03:15:31  5-MIN K9L2 291115Z AUTO 18004KT 10SM CLR 19/02 A3003 2200 32 3200 160/04 RMK AO2 $
53144K9L2 9L220160829032010108/29/16 03:20:31  5-MIN K9L2 291120Z AUTO 18004KT 10SM CLR 19/02 A3003 2200 32 3200 170/04 RMK AO2 $
53144K9L2 9L220160829032510108/29/16 03:25:31  5-MIN K9L2 291125Z AUTO 18004KT 10SM CLR 19/02 A3003 2200 32 3200 160/04 RMK AO2 $
53144K9L2 9L220160829033010108/29/16 03:30:31  5-MIN K9L2 291130Z AUTO 19004KT 10SM CLR 19/02 A3003 2200 32 3200 180/04 RMK AO2 $
53144K9L2 9L220160829033510108/29/16 03:35:31  5-MIN K9L2 291135Z AUTO 00000KT 10SM CLR 18/02 A3003 2200 32 3100 000/00 RMK AO2 $
53144K9L2 9L220160829034010108/29/16 03:40:31  5-MIN K9L2 291140Z AUTO 00000KT 10SM CLR 18/02 A3003 2200 32 3100 000/00 RMK AO2 $
53144K9L2 9L220160829034510108/29/16 03:45:31  5-MIN K9L2 291145Z AUTO 00000KT 10SM CLR 18/02 A3003 2200 32 3100 000/00 RMK AO2 $
53144K9L2 9L220160829035010108/29/16 03:50:31  5-MIN K9L2 291150Z AUTO 00000KT 10SM CLR 18/02 A3003 2200 34 3100 000/00 RMK AO2 $
53144K9L2 9L220160829035513608/29/16 03:55:31  5-MIN K9L2 291155Z AUTO 00000KT 10SM CLR 18/02 A3003 2200 34 3100 000/00 RMK AO2 SLP145 T01830022 10267 20183 58001 $
53144K9L2 9L220160829040010108/29/16 04:00:31  5-MIN K9L2 291200Z AUTO 00000KT 10SM CLR 18/02 A3003 2210 35 3100 000/00 RMK AO2 $
53144K9L2 9L220160829040510108/29/16 04:05:31  5-MIN K9L2 291205Z AUTO 00000KT 10SM CLR 18/02 A3003 2200 34 3100 000/00 RMK AO2 $
53144K9L2 9L220160829041010108/29/16 04:10:31  5-MIN K9L2 291210Z AUTO 00000KT 10SM CLR 19/02 A3003 2200 32 3200 000/00 RMK AO2 $
53144K9L2 9L220160829041510108/29/16 04:15:31  5-MIN K9L2 291215Z AUTO 00000KT 10SM CLR 18/02 A3003 2200 32 3100 000/00 RMK AO2 $
53144K9L2 9L220160829042010108/29/16 04:20:31  5-MIN K9L2 291220Z AUTO 00000KT 10SM CLR 17/02 A3003 2200 35 3000 000/00 RMK AO2 $
53144K9L2 9L220160829042510108/29/16 04:25:31  5-MIN K9L2 291225Z AUTO 00000KT 10SM CLR 18/02 A3003 2200 33 3100 000/00 RMK AO2 $
53144K9L2 9L220160829043010108/29/16 04:30:31  5-MIN K9L2 291230Z AUTO 00000KT 10SM CLR 17/02 A3003 2200 36 2900 000/00 RMK AO2 $
53144K9L2 9L220160829043510108/29/16 04:35:31  5-MIN K9L2 291235Z AUTO 00000KT 10SM CLR 17/02 A3002 2210 36 3000 000/00 RMK AO2 $
53144K9L2 9L220160829044010108/29/16 04:40:31  5-MIN K9L2 291240Z AUTO 00000KT 10SM CLR 16/02 A3003 2210 37 2900 000/00 RMK AO2 $
53144K9L2 9L220160829044510108/29/16 04:45:31  5-MIN K9L2 291245Z AUTO 00000KT 10SM CLR 16/02 A3003 2200 37 2900 000/00 RMK AO2 $
53144K9L2 9L220160829045010108/29/16 04:50:31  5-MIN K9L2 291250Z AUTO 00000KT 10SM CLR 16/02 A3003 2200 37 2900 000/00 RMK AO2 $
53144K9L2 9L220160829045511808/29/16 04:55:31  5-MIN K9L2 291255Z AUTO 00000KT 10SM CLR 16/02 A3003 2200 37 2900 000/00 RMK AO2 SLP149 T01610017 $
53144K9L2 9L220160829050010108/29/16 05:00:31  5-MIN K9L2 291300Z AUTO 31003KT 10SM CLR 16/02 A3003 2200 37 2900 300/03 RMK AO2 $
53144K9L2 9L220160829050510108/29/16 05:05:31  5-MIN K9L2 291305Z AUTO 33003KT 10SM CLR 16/02 A3003 2200 37 2900 320/03 RMK AO2 $
53144K9L2 9L220160829051010108/29/16 05:10:31  5-MIN K9L2 291310Z AUTO 34004KT 10SM CLR 16/02 A3003 2200 37 2900 320/04 RMK AO2 $
53144K9L2 9L220160829051510108/29/16 05:15:31  5-MIN K9L2 291315Z AUTO 33004KT 10SM CLR 16/02 A3003 2200 37 2900 320/04 RMK AO2 $
53144K9L2 9L220160829052010108/29/16 05:20:31  5-MIN K9L2 291320Z AUTO 34003KT 10SM CLR 16/02 A3003 2200 37 2900 330/03 RMK AO2 $
53144K9L2 9L220160829052510108/29/16 05:25:31  5-MIN K9L2 291325Z AUTO 36005KT 10SM CLR 16/02 A3003 2200 37 2900 340/05 RMK AO2 $
53144K9L2 9L220160829053010108/29/16 05:30:31  5-MIN K9L2 291330Z AUTO 35004KT 10SM CLR 16/02 A3004 2200 37 2900 340/04 RMK AO2 $
53144K9L2 9L220160829053510108/29/16 05:35:31  5-MIN K9L2 291335Z AUTO 01004KT 10SM CLR 16/02 A3004 2190 37 2900 360/04 RMK AO2 $
53144K9L2 9L220160829054010108/29/16 05:40:31  5-MIN K9L2 291340Z AUTO 01003KT 10SM CLR 17/02 A3004 2190 36 2900 350/03 RMK AO2 $
53144K9L2 9L220160829054510108/29/16 05:45:31  5-MIN K9L2 291345Z AUTO 00000KT 10SM CLR 17/02 A3004 2190 36 2900 000/00 RMK AO2 $
53144K9L2 9L220160829055010108/29/16 05:50:31  5-MIN K9L2 291350Z AUTO 01003KT 10SM CLR 17/02 A3004 2190 36 2900 360/03 RMK AO2 $
53144K9L2 9L220160829055511808/29/16 05:55:31  5-MIN K9L2 291355Z AUTO 02003KT 10SM CLR 17/02 A3005 2190 35 3000 010/03 RMK AO2 SLP156 T01720017 $
53144K9L2 9L220160829060010108/29/16 06:00:31  5-MIN K9L2 291400Z AUTO 00000KT 10SM CLR 17/02 A3005 2180 35 3000 000/00 RMK AO2 $
53144K9L2 9L220160829060510108/29/16 06:05:31  5-MIN K9L2 291405Z AUTO 02003KT 10SM CLR 18/02 A3005 2180 33 3000 360/03 RMK AO2 $
53144K9L2 9L220160829061010108/29/16 06:10:31  5-MIN K9L2 291410Z AUTO 00000KT 10SM CLR 18/02 A3005 2180 32 3100 000/00 RMK AO2 $
53144K9L2 9L220160829061510108/29/16 06:15:31  5-MIN K9L2 291415Z AUTO 00000KT 10SM CLR 19/02 A3005 2180 32 3200 000/00 RMK AO2 $
53144K9L2 9L220160829062010108/29/16 06:20:31  5-MIN K9L2 291420Z AUTO 03003KT 10SM CLR 19/02 A3006 2180 32 3200 020/03 RMK AO2 $
53144K9L2 9L220160829062510108/29/16 06:25:31  5-MIN K9L2 291425Z AUTO 00000KT 10SM CLR 19/02 A3006 2180 30 3200 000/00 RMK AO2 $
53144K9L2 9L220160829063010108/29/16 06:30:31  5-MIN K9L2 291430Z AUTO 00000KT 10SM CLR 19/02 A3005 2180 30 3200 000/00 RMK AO2 $
53144K9L2 9L220160829063510108/29/16 06:35:31  5-MIN K9L2 291435Z AUTO 00000KT 10SM CLR 20/02 A3006 2180 29 3300 000/00 RMK AO2 $
53144K9L2 9L220160829064010108/29/16 06:40:31  5-MIN K9L2 291440Z AUTO 00000KT 10SM CLR 21/02 A3006 2180 28 3400 000/00 RMK AO2 $
53144K9L2 9L220160829064510108/29/16 06:45:31  5-MIN K9L2 291445Z AUTO 00000KT 10SM CLR 21/02 A3005 2180 28 3400 000/00 RMK AO2 $
53144K9L2 9L220160829065010108/29/16 06:50:31  5-MIN K9L2 291450Z AUTO 00000KT 10SM CLR 21/02 A3005 2180 28 3400 000/00 RMK AO2 $
53144K9L2 9L220160829065512408/29/16 06:55:31  5-MIN K9L2 291455Z AUTO 00000KT 10SM CLR 21/02 A3006 2180 28 3400 000/00 RMK AO2 SLP159 T02110022 52002 $
53144K9L2 9L220160829070010108/29/16 07:00:31  5-MIN K9L2 291500Z AUTO 00000KT 10SM CLR 22/02 A3006 2180 27 3500 000/00 RMK AO2 $
53144K9L2 9L220160829070510108/29/16 07:05:31  5-MIN K9L2 291505Z AUTO 00000KT 10SM CLR 22/03 A3006 2180 27 3500 000/00 RMK AO2 $
53144K9L2 9L220160829071010108/29/16 07:10:31  5-MIN K9L2 291510Z AUTO 00000KT 10SM CLR 23/03 A3006 2180 26 3600 000/00 RMK AO2 $
53144K9L2 9L220160829071510108/29/16 07:15:31  5-MIN K9L2 291515Z AUTO 00000KT 10SM CLR 23/03 A3006 2170 25 3700 000/00 RMK AO2 $
53144K9L2 9L220160829072010108/29/16 07:20:31  5-MIN K9L2 291520Z AUTO 03003KT 10SM CLR 23/03 A3006 2170 25 3700 020/03 RMK AO2 $
53144K9L2 9L220160829072510108/29/16 07:25:31  5-MIN K9L2 291525Z AUTO 00000KT 10SM CLR 24/03 A3006 2170 25 3700 000/00 RMK AO2 $
53144K9L2 9L220160829073010108/29/16 07:30:31  5-MIN K9L2 291530Z AUTO 00000KT 10SM CLR 24/03 A3006 2170 26 3700 000/00 RMK AO2 $
53144K9L2 9L220160829073510108/29/16 07:35:31  5-MIN K9L2 291535Z AUTO 00000KT 10SM CLR 24/03 A3006 2170 26 3700 000/00 RMK AO2 $
53144K9L2 9L220160829074010108/29/16 07:40:31  5-MIN K9L2 291540Z AUTO 00000KT 10SM CLR 24/03 A3006 2170 25 3800 000/00 RMK AO2 $
53144K9L2 9L220160829074510108/29/16 07:45:31  5-MIN K9L2 291545Z AUTO 00000KT 10SM CLR 25/03 A3006 2170 24 3900 000/00 RMK AO2 $
53144K9L2 9L220160829075010108/29/16 07:50:31  5-MIN K9L2 291550Z AUTO 00000KT 10SM CLR 25/03 A3006 2170 24 3900 000/00 RMK AO2 $
53144K9L2 9L220160829075511808/29/16 07:55:31  5-MIN K9L2 291555Z AUTO 10003KT 10SM CLR 24/03 A3006 2170 24 3800 080/03 RMK AO2 SLP161 T02440028 $
53144K9L2 9L220160829080010108/29/16 08:00:31  5-MIN K9L2 291600Z AUTO 00000KT 10SM CLR 24/03 A3007 2170 25 3800 000/00 RMK AO2 $
53144K9L2 9L220160829080510108/29/16 08:05:31  5-MIN K9L2 291605Z AUTO 10003KT 10SM CLR 25/03 A3007 2170 24 3800 090/03 RMK AO2 $
53144K9L2 9L220160829081010108/29/16 08:10:31  5-MIN K9L2 291610Z AUTO 10003KT 10SM CLR 25/03 A3007 2170 24 3800 090/03 RMK AO2 $
53144K9L2 9L220160829081510108/29/16 08:15:31  5-MIN K9L2 291615Z AUTO 00000KT 10SM CLR 25/03 A3007 2170 24 3800 000/00 RMK AO2 $
53144K9L2 9L220160829082010108/29/16 08:20:31  5-MIN K9L2 291620Z AUTO 00000KT 10SM CLR 26/03 A3007 2160 23 3900 000/00 RMK AO2 $
53144K9L2 9L220160829082510108/29/16 08:25:31  5-MIN K9L2 291625Z AUTO 00000KT 10SM CLR 27/04 A3007 2170 22 4000 000/00 RMK AO2 $
53144K9L2 9L220160829083010108/29/16 08:30:31  5-MIN K9L2 291630Z AUTO 00000KT 10SM CLR 27/04 A3007 2170 22 4100 000/00 RMK AO2 $
53144K9L2 9L220160829083510108/29/16 08:35:31  5-MIN K9L2 291635Z AUTO 00000KT 10SM CLR 28/04 A3007 2170 22 4200 000/00 RMK AO2 $
53144K9L2 9L220160829084010108/29/16 08:40:31  5-MIN K9L2 291640Z AUTO 00000KT 10SM CLR 27/04 A3007 2170 22 4100 000/00 RMK AO2 $
53144K9L2 9L220160829084510108/29/16 08:45:31  5-MIN K9L2 291645Z AUTO 00000KT 10SM CLR 27/04 A3006 2170 23 4100 000/00 RMK AO2 $
53144K9L2 9L220160829085010108/29/16 08:50:31  5-MIN K9L2 291650Z AUTO 00000KT 10SM CLR 27/05 A3006 2170 24 4100 000/00 RMK AO2 $
53144K9L2 9L220160829085511808/29/16 08:55:31  5-MIN K9L2 291655Z AUTO 00000KT 10SM CLR 28/05 A3006 2170 23 4200 000/00 RMK AO2 SLP159 T02780050 $
53144K9L2 9L220160829090010108/29/16 09:00:31  5-MIN K9L2 291700Z AUTO 00000KT 10SM CLR 28/05 A3006 2170 22 4200 000/00 RMK AO2 $
53144K9L2 9L220160829090510108/29/16 09:05:31  5-MIN K9L2 291705Z AUTO 00000KT 10SM CLR 29/05 A3006 2170 21 4300 000/00 RMK AO2 $
53144K9L2 9L220160829091010108/29/16 09:10:31  5-MIN K9L2 291710Z AUTO 00000KT 10SM CLR 29/05 A3006 2170 21 4300 000/00 RMK AO2 $
53144K9L2 9L220160829091510108/29/16 09:15:31  5-MIN K9L2 291715Z AUTO 00000KT 10SM CLR 29/05 A3006 2170 21 4300 000/00 RMK AO2 $
53144K9L2 9L220160829092010108/29/16 09:20:31  5-MIN K9L2 291720Z AUTO 00000KT 10SM CLR 29/04 A3006 2180 20 4300 000/00 RMK AO2 $
53144K9L2 9L220160829092510108/29/16 09:25:31  5-MIN K9L2 291725Z AUTO 00000KT 10SM CLR 29/04 A3006 2180 20 4400 000/00 RMK AO2 $
53144K9L2 9L220160829093010108/29/16 09:30:31  5-MIN K9L2 291730Z AUTO 00000KT 10SM CLR 31/04 A3006 2180 19 4500 000/00 RMK AO2 $
53144K9L2 9L220160829093510108/29/16 09:35:31  5-MIN K9L2 291735Z AUTO 00000KT 10SM CLR 31/04 A3005 2180 19 4500 000/00 RMK AO2 $
53144K9L2 9L220160829094010108/29/16 09:40:31  5-MIN K9L2 291740Z AUTO 00000KT 10SM CLR 31/04 A3005 2180 19 4500 000/00 RMK AO2 $
53144K9L2 9L220160829094510108/29/16 09:45:31  5-MIN K9L2 291745Z AUTO 00000KT 10SM CLR 31/04 A3005 2180 18 4500 000/00 RMK AO2 $
53144K9L2 9L220160829095010108/29/16 09:50:31  5-MIN K9L2 291750Z AUTO 00000KT 10SM CLR 31/04 A3005 2180 18 4500 000/00 RMK AO2 $
53144K9L2 9L220160829095513608/29/16 09:55:31  5-MIN K9L2 291755Z AUTO VRB03KT 10SM CLR 32/04 A3005 2180 17 4600 VRB/03 RMK AO2 SLP153 T03170044 10317 20161 53009 $
53144K9L2 9L220160829100010108/29/16 10:00:31  5-MIN K9L2 291800Z AUTO 15003KT 10SM CLR 32/04 A3005 2180 17 4600 130/03 RMK AO2 $
53144K9L2 9L220160829100510108/29/16 10:05:31  5-MIN K9L2 291805Z AUTO VRB03KT 10SM CLR 32/04 A3005 2180 17 4600 VRB/03 RMK AO2 $
53144K9L2 9L220160829101010108/29/16 10:10:31  5-MIN K9L2 291810Z AUTO 15003KT 10SM CLR 32/04 A3005 2180 16 4700 140/03 RMK AO2 $
53144K9L2 9L220160829101510108/29/16 10:15:31  5-MIN K9L2 291815Z AUTO 12003KT 10SM CLR 33/03 A3005 2180 15 4700 100/03 RMK AO2 $
53144K9L2 9L220160829102010108/29/16 10:20:31  5-MIN K9L2 291820Z AUTO 15003KT 10SM CLR 32/03 A3005 2190 16 4700 140/03 RMK AO2 $
53144K9L2 9L220160829102510108/29/16 10:25:31  5-MIN K9L2 291825Z AUTO 15003KT 10SM CLR 33/03 A3004 2190 15 4700 140/03 RMK AO2 $
53144K9L2 9L220160829103010108/29/16 10:30:31  5-MIN K9L2 291830Z AUTO VRB04KT 10SM CLR 33/03 A3004 2190 15 4800 VRB/04 RMK AO2 $
53144K9L2 9L220160829103510108/29/16 10:35:31  5-MIN K9L2 291835Z AUTO 00000KT 10SM CLR 33/03 A3004 2190 15 4700 000/00 RMK AO2 $
53144K9L2 9L220160829104010108/29/16 10:40:31  5-MIN K9L2 291840Z AUTO 00000KT 10SM CLR 33/03 A3004 2190 14 4800 000/00 RMK AO2 $
53144K9L2 9L220160829104510108/29/16 10:45:31  5-MIN K9L2 291845Z AUTO 18003KT 10SM CLR 34/03 A3004 2190 14 4900 160/03 RMK AO2 $
53144K9L2 9L220160829105010108/29/16 10:50:31  5-MIN K9L2 291850Z AUTO 00000KT 10SM CLR 33/03 A3004 2200 14 4800 000/00 RMK AO2 $
53144K9L2 9L220160829105511808/29/16 10:55:31  5-MIN K9L2 291855Z AUTO 13003KT 10SM CLR 34/03 A3003 2200 14 4900 110/03 RMK AO2 SLP146 T03390028 $
53144K9L2 9L220160829110010108/29/16 11:00:31  5-MIN K9L2 291900Z AUTO VRB03KT 10SM CLR 34/03 A3003 2200 13 4900 VRB/03 RMK AO2 $
53144K9L2 9L220160829110510108/29/16 11:05:31  5-MIN K9L2 291905Z AUTO 16004KT 10SM CLR 34/03 A3003 2200 13 4900 150/04 RMK AO2 $
53144K9L2 9L220160829111010108/29/16 11:10:31  5-MIN K9L2 291910Z AUTO VRB03KT 10SM CLR 35/03 A3003 2200 13 5000 VRB/03 RMK AO2 $
53144K9L2 9L220160829111510108/29/16 11:15:31  5-MIN K9L2 291915Z AUTO VRB04KT 10SM CLR 35/02 A3003 2210 12 5000 VRB/04 RMK AO2 $
53144K9L2 9L220160829112010108/29/16 11:20:31  5-MIN K9L2 291920Z AUTO 00000KT 10SM CLR 35/02 A3002 2210 12 5000 000/00 RMK AO2 $
53144K9L2 9L220160829112510108/29/16 11:25:31  5-MIN K9L2 291925Z AUTO VRB03KT 10SM CLR 35/02 A3002 2210 12 5000 VRB/03 RMK AO2 $
53144K9L2 9L220160829113010108/29/16 11:30:31  5-MIN K9L2 291930Z AUTO 13004KT 10SM CLR 36/02 A3002 2210 12 5000 110/04 RMK AO2 $
53144K9L2 9L220160829113510108/29/16 11:35:31  5-MIN K9L2 291935Z AUTO VRB03KT 10SM CLR 36/02 A3002 2210 11 5100 VRB/03 RMK AO2 $
53144K9L2 9L220160829114010108/29/16 11:40:31  5-MIN K9L2 291940Z AUTO 00000KT 10SM CLR 36/02 A3002 2210 11 5100 000/00 RMK AO2 $
53144K9L2 9L220160829114510108/29/16 11:45:31  5-MIN K9L2 291945Z AUTO 12004KT 10SM CLR 36/02 A3001 2220 11 5100 100/04 RMK AO2 $
53144K9L2 9L220160829115010108/29/16 11:50:31  5-MIN K9L2 291950Z AUTO 00000KT 10SM CLR 36/02 A3001 2220 11 5100 000/00 RMK AO2 $
53144K9L2 9L220160829115511808/29/16 11:55:31  5-MIN K9L2 291955Z AUTO 00000KT 10SM CLR 37/01 A3001 2220 10 5200 000/00 RMK AO2 SLP139 T03670011 $
53144K9L2 9L220160829120010108/29/16 12:00:31  5-MIN K9L2 292000Z AUTO 13003KT 10SM CLR 37/01 A3001 2220 10 5200 120/03 RMK AO2 $
53144K9L2 9L220160829120510108/29/16 12:05:31  5-MIN K9L2 292005Z AUTO 00000KT 10SM CLR 37/00 A3001 2220 09 5200 000/00 RMK AO2 $
53144K9L2 9L220160829121010108/29/16 12:10:31  5-MIN K9L2 292010Z AUTO 00000KT 10SM CLR 37/00 A3001 2220 09 5200 000/00 RMK AO2 $
53144K9L2 9L220160829121510208/29/16 12:15:31  5-MIN K9L2 292015Z AUTO 00000KT 10SM CLR 37/M01 A3000 2220 09 5200 000/00 RMK AO2 $
53144K9L2 9L220160829122010208/29/16 12:20:31  5-MIN K9L2 292020Z AUTO VRB03KT 10SM CLR 37/M01 A3000 2230 08 5200 VRB/03 RMK AO2 $
53144K9L2 9L220160829122510208/29/16 12:25:31  5-MIN K9L2 292025Z AUTO 21003KT 10SM CLR 37/M01 A3000 2230 09 5200 200/03 RMK AO2 $
53144K9L2 9L220160829123010208/29/16 12:30:31  5-MIN K9L2 292030Z AUTO 00000KT 10SM CLR 37/M01 A3000 2230 09 5300 000/00 RMK AO2 $
53144K9L2 9L220160829123510208/29/16 12:35:31  5-MIN K9L2 292035Z AUTO VRB03KT 10SM CLR 38/M01 A3000 2230 08 5400 VRB/03 RMK AO2 $
53144K9L2 9L220160829124010208/29/16 12:40:31  5-MIN K9L2 292040Z AUTO VRB03KT 10SM CLR 38/M02 A3000 2230 08 5400 VRB/03 RMK AO2 $
53144K9L2 9L220160829124510208/29/16 12:45:31  5-MIN K9L2 292045Z AUTO 15004KT 10SM CLR 38/M02 A2999 2230 08 5400 140/04 RMK AO2 $
53144K9L2 9L220160829125010208/29/16 12:50:31  5-MIN K9L2 292050Z AUTO 11003KT 10SM CLR 38/M03 A2999 2240 07 5400 100/03 RMK AO2 $
53144K9L2 9L220160829125512508/29/16 12:55:31  5-MIN K9L2 292055Z AUTO 00000KT 10SM CLR 39/M04 A2999 2240 06 5400 000/00 RMK AO2 SLP131 T03891039 58002 $
53144K9L2 9L220160829130010208/29/16 13:00:31  5-MIN K9L2 292100Z AUTO 17004KT 10SM CLR 39/M04 A2999 2240 06 5400 160/04 RMK AO2 $
53144K9L2 9L220160829130510208/29/16 13:05:31  5-MIN K9L2 292105Z AUTO 21003KT 10SM CLR 39/M04 A2999 2240 06 5400 200/03 RMK AO2 $
53144K9L2 9L220160829131010208/29/16 13:10:31  5-MIN K9L2 292110Z AUTO 25003KT 10SM CLR 39/M04 A2999 2240 06 5400 240/03 RMK AO2 $
53144K9L2 9L220160829131510208/29/16 13:15:31  5-MIN K9L2 292115Z AUTO VRB03KT 10SM CLR 39/M04 A2998 2250 06 5400 VRB/03 RMK AO2 $
53144K9L2 9L220160829132010208/29/16 13:20:31  5-MIN K9L2 292120Z AUTO 18005KT 10SM CLR 39/M04 A2998 2250 06 5500 170/05 RMK AO2 $
53144K9L2 9L220160829132510208/29/16 13:25:31  5-MIN K9L2 292125Z AUTO 19005KT 10SM CLR 39/M04 A2998 2250 06 5500 180/05 RMK AO2 $
53144K9L2 9L220160829133010208/29/16 13:30:31  5-MIN K9L2 292130Z AUTO 22005KT 10SM CLR 39/M04 A2998 2250 06 5500 210/05 RMK AO2 $
53144K9L2 9L220160829133510208/29/16 13:35:31  5-MIN K9L2 292135Z AUTO 00000KT 10SM CLR 39/M04 A2997 2250 06 5500 000/00 RMK AO2 $
53144K9L2 9L220160829134010208/29/16 13:40:31  5-MIN K9L2 292140Z AUTO 00000KT 10SM CLR 39/M03 A2997 2260 07 5500 000/00 RMK AO2 $
53144K9L2 9L220160829134510208/29/16 13:45:31  5-MIN K9L2 292145Z AUTO 00000KT 10SM CLR 38/M03 A2997 2260 07 5400 000/00 RMK AO2 $
53144K9L2 9L220160829135010208/29/16 13:50:31  5-MIN K9L2 292150Z AUTO 00000KT 10SM CLR 39/M03 A2997 2260 06 5500 000/00 RMK AO2 $
53144K9L2 9L220160829135511908/29/16 13:55:31  5-MIN K9L2 292155Z AUTO 18006KT 10SM CLR 39/M04 A2996 2260 06 5500 170/06 RMK AO2 SLP122 T03941039 $
53144K9L2 9L220160829140010208/29/16 14:00:31  5-MIN K9L2 292200Z AUTO 17006KT 10SM CLR 40/M04 A2996 2270 06 5600 160/06 RMK AO2 $
53144K9L2 9L220160829140510208/29/16 14:05:31  5-MIN K9L2 292205Z AUTO 00000KT 10SM CLR 39/M04 A2996 2270 06 5500 000/00 RMK AO2 $
53144K9L2 9L220160829141010208/29/16 14:10:31  5-MIN K9L2 292210Z AUTO 00000KT 10SM CLR 39/M04 A2996 2270 06 5500 000/00 RMK AO2 $
53144K9L2 9L220160829141510208/29/16 14:15:31  5-MIN K9L2 292215Z AUTO VRB06KT 10SM CLR 39/M04 A2995 2270 06 5500 VRB/06 RMK AO2 $
53144K9L2 9L220160829142010208/29/16 14:20:31  5-MIN K9L2 292220Z AUTO 21006KT 10SM CLR 40/M04 A2995 2270 06 5600 200/06 RMK AO2 $
53144K9L2 9L220160829142510208/29/16 14:25:31  5-MIN K9L2 292225Z AUTO 20006KT 10SM CLR 39/M04 A2995 2270 06 5500 190/06 RMK AO2 $
53144K9L2 9L220160829143010208/29/16 14:30:31  5-MIN K9L2 292230Z AUTO VRB04KT 10SM CLR 39/M04 A2995 2270 06 5500 VRB/04 RMK AO2 $
53144K9L2 9L220160829143510208/29/16 14:35:31  5-MIN K9L2 292235Z AUTO 00000KT 10SM CLR 39/M04 A2995 2280 06 5500 000/00 RMK AO2 $
53144K9L2 9L220160829144010208/29/16 14:40:31  5-MIN K9L2 292240Z AUTO 00000KT 10SM CLR 39/M04 A2995 2280 06 5500 000/00 RMK AO2 $
53144K9L2 9L220160829144510208/29/16 14:45:31  5-MIN K9L2 292245Z AUTO 00000KT 10SM CLR 39/M04 A2995 2280 06 5500 000/00 RMK AO2 $
53144K9L2 9L220160829145010208/29/16 14:50:31  5-MIN K9L2 292250Z AUTO 13004KT 10SM CLR 39/M04 A2994 2280 06 5500 120/04 RMK AO2 $
53144K9L2 9L220160829145511908/29/16 14:55:31  5-MIN K9L2 292255Z AUTO VRB03KT 10SM CLR 39/M04 A2994 2280 06 5600 VRB/03 RMK AO2 SLP116 T03941039 $
53144K9L2 9L220160829150010208/29/16 15:00:31  5-MIN K9L2 292300Z AUTO 00000KT 10SM CLR 39/M04 A2994 2280 06 5600 000/00 RMK AO2 $
53144K9L2 9L220160829150510208/29/16 15:05:31  5-MIN K9L2 292305Z AUTO 35003KT 10SM CLR 39/M04 A2994 2290 06 5600 340/03 RMK AO2 $
53144K9L2 9L220160829151010208/29/16 15:10:31  5-MIN K9L2 292310Z AUTO 00000KT 10SM CLR 40/M04 A2994 2290 06 5600 000/00 RMK AO2 $
53144K9L2 9L220160829151510208/29/16 15:15:31  5-MIN K9L2 292315Z AUTO 00000KT 10SM CLR 40/M04 A2994 2290 06 5600 000/00 RMK AO2 $
53144K9L2 9L220160829152010208/29/16 15:20:31  5-MIN K9L2 292320Z AUTO 21006KT 10SM CLR 40/M04 A2993 2290 06 5600 200/06 RMK AO2 $
53144K9L2 9L220160829152510208/29/16 15:25:31  5-MIN K9L2 292325Z AUTO 19008KT 10SM CLR 40/M04 A2993 2290 06 5600 180/08 RMK AO2 $
53144K9L2 9L220160829153010208/29/16 15:30:31  5-MIN K9L2 292330Z AUTO VRB03KT 10SM CLR 39/M04 A2993 2290 06 5600 VRB/03 RMK AO2 $
53144K9L2 9L220160829153510208/29/16 15:35:31  5-MIN K9L2 292335Z AUTO 00000KT 10SM CLR 39/M05 A2993 2290 06 5500 000/00 RMK AO2 $
53144K9L2 9L220160829154010208/29/16 15:40:31  5-MIN K9L2 292340Z AUTO VRB04KT 10SM CLR 39/M05 A2993 2290 06 5600 VRB/04 RMK AO2 $
53144K9L2 9L220160829154510208/29/16 15:45:31  5-MIN K9L2 292345Z AUTO 22003KT 10SM CLR 39/M06 A2993 2290 05 5600 210/03 RMK AO2 $
53144K9L2 9L220160829155010208/29/16 15:50:31  5-MIN K9L2 292350Z AUTO 17005KT 10SM CLR 40/M06 A2993 2290 05 5600 160/05 RMK AO2 $
53144K9L2 9L220160829155513708/29/16 15:55:31  5-MIN K9L2 292355Z AUTO 21003KT 10SM CLR 40/M06 A2993 2290 05 5600 200/03 RMK AO2 SLP111 T04001056 10406 20311 56018 $
53144K9L2 9L220160829160010208/29/16 16:00:31  5-MIN K9L2 300000Z AUTO VRB03KT 10SM CLR 39/M06 A2993 2300 05 5600 VRB/03 RMK AO2 $
53144K9L2 9L220160829160510208/29/16 16:05:31  5-MIN K9L2 300005Z AUTO 00000KT 10SM CLR 39/M06 A2993 2300 05 5500 000/00 RMK AO2 $
53144K9L2 9L220160829161010208/29/16 16:10:31  5-MIN K9L2 300010Z AUTO VRB03KT 10SM CLR 39/M06 A2992 2300 05 5600 VRB/03 RMK AO2 $
53144K9L2 9L220160829161510208/29/16 16:15:31  5-MIN K9L2 300015Z AUTO 23003KT 10SM CLR 39/M06 A2992 2300 05 5600 210/03 RMK AO2 $
53144K9L2 9L220160829162010208/29/16 16:20:31  5-MIN K9L2 300020Z AUTO 00000KT 10SM CLR 39/M06 A2992 2300 05 5600 000/00 RMK AO2 $
53144K9L2 9L220160829162510208/29/16 16:25:31  5-MIN K9L2 300025Z AUTO VRB03KT 10SM CLR 39/M06 A2992 2300 05 5600 VRB/03 RMK AO2 $
53144K9L2 9L220160829163010208/29/16 16:30:31  5-MIN K9L2 300030Z AUTO 20006KT 10SM CLR 39/M06 A2992 2300 05 5600 190/06 RMK AO2 $
53144K9L2 9L220160829163510208/29/16 16:35:31  5-MIN K9L2 300035Z AUTO 21004KT 10SM CLR 39/M07 A2992 2300 05 5600 200/04 RMK AO2 $
53144K9L2 9L220160829164010208/29/16 16:40:31  5-MIN K9L2 300040Z AUTO 21004KT 10SM CLR 39/M07 A2992 2300 05 5600 200/04 RMK AO2 $
53144K9L2 9L220160829164510208/29/16 16:45:31  5-MIN K9L2 300045Z AUTO 00000KT 10SM CLR 39/M07 A2992 2310 05 5600 000/00 RMK AO2 $
53144K9L2 9L220160829165010208/29/16 16:50:31  5-MIN K9L2 300050Z AUTO 27003KT 10SM CLR 39/M07 A2992 2310 05 5500 260/03 RMK AO2 $
53144K9L2 9L220160829165511908/29/16 16:55:31  5-MIN K9L2 300055Z AUTO 29005KT 10SM CLR 39/M07 A2992 2310 05 5600 280/05 RMK AO2 SLP108 T03941072 $
53144K9L2 9L220160829170010208/29/16 17:00:31  5-MIN K9L2 300100Z AUTO 00000KT 10SM CLR 39/M07 A2992 2310 05 5500 000/00 RMK AO2 $
53144K9L2 9L220160829170510208/29/16 17:05:31  5-MIN K9L2 300105Z AUTO 00000KT 10SM CLR 39/M07 A2991 2310 05 5600 000/00 RMK AO2 $
53144K9L2 9L220160829171010208/29/16 17:10:31  5-MIN K9L2 300110Z AUTO 00000KT 10SM CLR 39/M07 A2991 2310 05 5600 000/00 RMK AO2 $
53144K9L2 9L220160829171510208/29/16 17:15:31  5-MIN K9L2 300115Z AUTO 00000KT 10SM CLR 39/M07 A2991 2310 05 5500 000/00 RMK AO2 $
53144K9L2 9L220160829172010208/29/16 17:20:31  5-MIN K9L2 300120Z AUTO 00000KT 10SM CLR 39/M07 A2991 2310 05 5500 000/00 RMK AO2 $
53144K9L2 9L220160829172510208/29/16 17:25:31  5-MIN K9L2 300125Z AUTO 00000KT 10SM CLR 38/M07 A2991 2310 05 5500 000/00 RMK AO2 $
53144K9L2 9L220160829173010208/29/16 17:30:31  5-MIN K9L2 300130Z AUTO 18003KT 10SM CLR 39/M07 A2991 2310 05 5500 170/03 RMK AO2 $
53144K9L2 9L220160829173510208/29/16 17:35:31  5-MIN K9L2 300135Z AUTO 23004KT 10SM CLR 39/M07 A2991 2310 05 5500 210/04 RMK AO2 $
53144K9L2 9L220160829174011808/29/16 17:40:31  5-MIN K9L2 300140Z AUTO 25008KT 220V300 10SM CLR 38/M06 A2991 2310 05 5500 240/08 210V290 RMK AO2 $
53144K9L2 9L220160829174510208/29/16 17:45:31  5-MIN K9L2 300145Z AUTO 28011KT 10SM CLR 38/M02 A2991 2310 08 5400 270/11 RMK AO2 $
53144K9L2 9L220160829175010208/29/16 17:50:31  5-MIN K9L2 300150Z AUTO 28011KT 10SM CLR 37/M01 A2991 2310 08 5400 260/11 RMK AO2 $
53144K9L2 9L220160829175511908/29/16 17:55:31  5-MIN K9L2 300155Z AUTO 27014KT 10SM CLR 37/M01 A2991 2310 09 5300 260/14 RMK AO2 SLP108 T03671006 $
53144K9L2 9L220160829180010208/29/16 18:00:31  5-MIN K9L2 300200Z AUTO 28013KT 10SM CLR 37/M01 A2991 2310 09 5300 260/13 RMK AO2 $
53144K9L2 9L220160829180510108/29/16 18:05:31  5-MIN K9L2 300205Z AUTO 28013KT 10SM CLR 36/00 A2991 2310 10 5200 270/13 RMK AO2 $
53144K9L2 9L220160829181010108/29/16 18:10:31  5-MIN K9L2 300210Z AUTO 28012KT 10SM CLR 36/00 A2992 2310 10 5200 270/12 RMK AO2 $
53144K9L2 9L220160829181510108/29/16 18:15:31  5-MIN K9L2 300215Z AUTO 29013KT 10SM CLR 35/01 A2992 2310 11 5100 280/13 RMK AO2 $
53144K9L2 9L220160829182010108/29/16 18:20:31  5-MIN K9L2 300220Z AUTO 29012KT 10SM CLR 35/01 A2992 2310 11 5100 270/12 RMK AO2 $
53144K9L2 9L220160829182510108/29/16 18:25:31  5-MIN K9L2 300225Z AUTO 29012KT 10SM CLR 34/02 A2992 2300 13 5000 270/12 RMK AO2 $
53144K9L2 9L220160829183010108/29/16 18:30:31  5-MIN K9L2 300230Z AUTO 29010KT 10SM CLR 34/02 A2992 2300 13 5000 280/10 RMK AO2 $
53144K9L2 9L220160829183510108/29/16 18:35:31  5-MIN K9L2 300235Z AUTO 29011KT 10SM CLR 34/03 A2992 2300 14 5000 280/11 RMK AO2 $
53144K9L2 9L220160829184010108/29/16 18:40:31  5-MIN K9L2 300240Z AUTO 29012KT 10SM CLR 33/03 A2992 2300 15 4900 280/12 RMK AO2 $
53144K9L2 9L220160829184510108/29/16 18:45:31  5-MIN K9L2 300245Z AUTO 29012KT 10SM CLR 33/04 A2992 2300 15 4900 280/12 RMK AO2 $
53144K9L2 9L220160829185010108/29/16 18:50:31  5-MIN K9L2 300250Z AUTO 30012KT 10SM CLR 33/04 A2992 2300 16 4900 280/12 RMK AO2 $
53144K9L2 9L220160829185512408/29/16 18:55:31  5-MIN K9L2 300255Z AUTO 29012KT 10SM CLR 33/05 A2993 2300 17 4900 280/12 RMK AO2 SLP113 T03280050 56020 $
53144K9L2 9L220160829190010108/29/16 19:00:31  5-MIN K9L2 300300Z AUTO 29012KT 10SM CLR 32/05 A2993 2290 17 4800 280/12 RMK AO2 $
53144K9L2 9L220160829190510108/29/16 19:05:31  5-MIN K9L2 300305Z AUTO 30011KT 10SM CLR 32/05 A2993 2290 17 4800 290/11 RMK AO2 $
53144K9L2 9L220160829191010108/29/16 19:10:31  5-MIN K9L2 300310Z AUTO 31007KT 10SM CLR 32/06 A2993 2290 18 4800 300/07 RMK AO2 $
53144K9L2 9L220160829191510108/29/16 19:15:31  5-MIN K9L2 300315Z AUTO 31007KT 10SM CLR 32/06 A2994 2290 19 4700 300/07 RMK AO2 $
53144K9L2 9L220160829192010108/29/16 19:20:31  5-MIN K9L2 300320Z AUTO 29008KT 10SM CLR 32/06 A2994 2280 19 4700 280/08 RMK AO2 $
53144K9L2 9L220160829192510108/29/16 19:25:31  5-MIN K9L2 300325Z AUTO 26007KT 10SM CLR 31/06 A2995 2280 19 4700 250/07 RMK AO2 $
53144K9L2 9L220160829193010108/29/16 19:30:31  5-MIN K9L2 300330Z AUTO 28008KT 10SM CLR 31/06 A2995 2280 20 4700 270/08 RMK AO2 $
53144K9L2 9L220160829193510108/29/16 19:35:31  5-MIN K9L2 300335Z AUTO 29010KT 10SM CLR 31/07 A2995 2280 21 4700 270/10 RMK AO2 $
53144K9L2 9L220160829194010108/29/16 19:40:31  5-MIN K9L2 300340Z AUTO 29010KT 10SM CLR 31/07 A2995 2280 22 4700 280/10 RMK AO2 $
53144K9L2 9L220160829194510108/29/16 19:45:31  5-MIN K9L2 300345Z AUTO 29007KT 10SM CLR 31/07 A2995 2270 22 4600 280/07 RMK AO2 $
53144K9L2 9L220160829195010108/29/16 19:50:31  5-MIN K9L2 300350Z AUTO 29007KT 10SM CLR 31/08 A2996 2270 23 4600 280/07 RMK AO2 $
53144K9L2 9L220160829195511808/29/16 19:55:31  5-MIN K9L2 300355Z AUTO 30006KT 10SM CLR 31/08 A2996 2270 23 4600 280/06 RMK AO2 SLP122 T03060078 $
53144K9L2 9L220160829200010108/29/16 20:00:31  5-MIN K9L2 300400Z AUTO 30006KT 10SM CLR 30/08 A2996 2270 24 4500 280/06 RMK AO2 $
53144K9L2 9L220160829200510108/29/16 20:05:31  5-MIN K9L2 300405Z AUTO 30005KT 10SM CLR 30/07 A2996 2270 23 4500 290/05 RMK AO2 $
53144K9L2 9L220160829201010108/29/16 20:10:31  5-MIN K9L2 300410Z AUTO 00000KT 10SM CLR 29/07 A2996 2270 24 4500 000/00 RMK AO2 $
53144K9L2 9L220160829201510108/29/16 20:15:31  5-MIN K9L2 300415Z AUTO 00000KT 10SM CLR 29/07 A2996 2260 25 4400 000/00 RMK AO2 $
53144K9L2 9L220160829202010108/29/16 20:20:31  5-MIN K9L2 300420Z AUTO 00000KT 10SM CLR 29/07 A2997 2260 24 4500 000/00 RMK AO2 $
53144K9L2 9L220160829202510108/29/16 20:25:31  5-MIN K9L2 300425Z AUTO 00000KT 10SM CLR 29/07 A2997 2260 24 4400 000/00 RMK AO2 $
53144K9L2 9L220160829203010108/29/16 20:30:31  5-MIN K9L2 300430Z AUTO 00000KT 10SM CLR 30/07 A2997 2260 23 4500 000/00 RMK AO2 $
53144K9L2 9L220160829203510108/29/16 20:35:31  5-MIN K9L2 300435Z AUTO 17003KT 10SM CLR 29/07 A2997 2260 24 4400 150/03 RMK AO2 $
53144K9L2 9L220160829204010108/29/16 20:40:31  5-MIN K9L2 300440Z AUTO 21006KT 10SM CLR 28/07 A2997 2260 25 4300 200/06 RMK AO2 $
53144K9L2 9L220160829204510108/29/16 20:45:31  5-MIN K9L2 300445Z AUTO 22003KT 10SM CLR 28/08 A2997 2260 27 4300 210/03 RMK AO2 $
53144K9L2 9L220160829205010108/29/16 20:50:31  5-MIN K9L2 300450Z AUTO 21004KT 10SM CLR 28/07 A2997 2260 26 4300 200/04 RMK AO2 $
53144K9L2 9L220160829205511808/29/16 20:55:31  5-MIN K9L2 300455Z AUTO 20004KT 10SM CLR 28/08 A2997 2260 28 4300 190/04 RMK AO2 SLP127 T02780078 $
53144K9L2 9L220160829210010108/29/16 21:00:31  5-MIN K9L2 300500Z AUTO 21004KT 10SM CLR 28/08 A2997 2260 28 4300 200/04 RMK AO2 $
53144K9L2 9L220160829210510108/29/16 21:05:31  5-MIN K9L2 300505Z AUTO 22004KT 10SM CLR 27/07 A2997 2260 27 4200 210/04 RMK AO2 $
53144K9L2 9L220160829211010108/29/16 21:10:31  5-MIN K9L2 300510Z AUTO 00000KT 10SM CLR 27/07 A2997 2260 27 4200 000/00 RMK AO2 $
53144K9L2 9L220160829211510108/29/16 21:15:31  5-MIN K9L2 300515Z AUTO 00000KT 10SM CLR 28/08 A2997 2250 28 4300 000/00 RMK AO2 $
53144K9L2 9L220160829212010108/29/16 21:20:31  5-MIN K9L2 300520Z AUTO 22004KT 10SM CLR 27/07 A2997 2250 28 4100 210/04 RMK AO2 $
53144K9L2 9L220160829212510108/29/16 21:25:31  5-MIN K9L2 300525Z AUTO 25004KT 10SM CLR 27/07 A2997 2260 28 4100 240/04 RMK AO2 $
53144K9L2 9L220160829213010108/29/16 21:30:31  5-MIN K9L2 300530Z AUTO 00000KT 10SM CLR 26/07 A2997 2260 28 4100 000/00 RMK AO2 $
53144K9L2 9L220160829213510108/29/16 21:35:31  5-MIN K9L2 300535Z AUTO 00000KT 10SM CLR 26/07 A2997 2250 29 4100 000/00 RMK AO2 $
53144K9L2 9L220160829214010108/29/16 21:40:31  5-MIN K9L2 300540Z AUTO 00000KT 10SM CLR 26/07 A2997 2250 29 4100 000/00 RMK AO2 $
53144K9L2 9L220160829214510108/29/16 21:45:31  5-MIN K9L2 300545Z AUTO 00000KT 10SM CLR 27/07 A2997 2250 28 4100 000/00 RMK AO2 $
53144K9L2 9L220160829215010108/29/16 21:50:31  5-MIN K9L2 300550Z AUTO 00000KT 10SM CLR 26/07 A2998 2250 29 4000 000/00 RMK AO2 $
53144K9L2 9L220160829215513608/29/16 21:55:31  5-MIN K9L2 300555Z AUTO 00000KT 10SM CLR 27/07 A2997 2250 28 4100 000/00 RMK AO2 SLP127 T02670072 10394 20256 55000 $
53144K9L2 9L220160829220010108/29/16 22:00:31  5-MIN K9L2 300600Z AUTO 00000KT 10SM CLR 26/07 A2997 2250 28 4100 000/00 RMK AO2 $
53144K9L2 9L220160829220510108/29/16 22:05:31  5-MIN K9L2 300605Z AUTO 00000KT 10SM CLR 25/06 A2997 2250 29 4000 000/00 RMK AO2 $
53144K9L2 9L220160829221010108/29/16 22:10:31  5-MIN K9L2 300610Z AUTO 00000KT 10SM CLR 26/06 A2997 2250 28 4000 000/00 RMK AO2 $
53144K9L2 9L220160829221510108/29/16 22:15:31  5-MIN K9L2 300615Z AUTO 00000KT 10SM CLR 25/07 A2997 2250 30 4000 000/00 RMK AO2 $
53144K9L2 9L220160829222010108/29/16 22:20:31  5-MIN K9L2 300620Z AUTO 00000KT 10SM CLR 25/06 A2997 2250 29 4000 000/00 RMK AO2 $
53144K9L2 9L220160829222510108/29/16 22:25:31  5-MIN K9L2 300625Z AUTO 00000KT 10SM CLR 25/06 A2997 2250 29 4000 000/00 RMK AO2 $
53144K9L2 9L220160829223010108/29/16 22:30:31  5-MIN K9L2 300630Z AUTO 00000KT 10SM CLR 25/06 A2997 2250 29 4000 000/00 RMK AO2 $
53144K9L2 9L220160829223510108/29/16 22:35:31  5-MIN K9L2 300635Z AUTO 00000KT 10SM CLR 24/06 A2997 2250 30 3900 000/00 RMK AO2 $
53144K9L2 9L220160829224010108/29/16 22:40:31  5-MIN K9L2 300640Z AUTO 00000KT 10SM CLR 24/06 A2997 2250 30 3800 000/00 RMK AO2 $
53144K9L2 9L220160829224510108/29/16 22:45:31  5-MIN K9L2 300645Z AUTO 35003KT 10SM CLR 24/06 A2998 2250 30 3800 340/03 RMK AO2 $
53144K9L2 9L220160829225010108/29/16 22:50:31  5-MIN K9L2 300650Z AUTO 04003KT 10SM CLR 24/06 A2998 2250 31 3800 030/03 RMK AO2 $
53144K9L2 9L220160829225511808/29/16 22:55:31  5-MIN K9L2 300655Z AUTO 00000KT 10SM CLR 24/06 A2998 2250 30 3800 000/00 RMK AO2 SLP128 T02390056 $
53144K9L2 9L220160829230010108/29/16 23:00:31  5-MIN K9L2 300700Z AUTO 03003KT 10SM CLR 24/06 A2998 2250 29 3900 020/03 RMK AO2 $
53144K9L2 9L220160829230510108/29/16 23:05:31  5-MIN K9L2 300705Z AUTO 00000KT 10SM CLR 24/05 A2998 2250 29 3800 000/00 RMK AO2 $
53144K9L2 9L220160829231010108/29/16 23:10:31  5-MIN K9L2 300710Z AUTO 00000KT 10SM CLR 24/05 A2997 2250 29 3800 000/00 RMK AO2 $
53144K9L2 9L220160829231510108/29/16 23:15:31  5-MIN K9L2 300715Z AUTO 00000KT 10SM CLR 23/04 A2997 2250 29 3800 000/00 RMK AO2 $
53144K9L2 9L220160829232010108/29/16 23:20:31  5-MIN K9L2 300720Z AUTO 00000KT 10SM CLR 23/04 A2997 2250 28 3800 000/00 RMK AO2 $
53144K9L2 9L220160829232510108/29/16 23:25:31  5-MIN K9L2 300725Z AUTO 35003KT 10SM CLR 23/04 A2997 2250 28 3800 340/03 RMK AO2 $
53144K9L2 9L220160829233010108/29/16 23:30:31  5-MIN K9L2 300730Z AUTO 00000KT 10SM CLR 23/04 A2997 2250 29 3700 000/00 RMK AO2 $
53144K9L2 9L220160829233510108/29/16 23:35:31  5-MIN K9L2 300735Z AUTO 34003KT 10SM CLR 23/04 A2997 2260 28 3800 330/03 RMK AO2 $
53144K9L2 9L220160829234010108/29/16 23:40:31  5-MIN K9L2 300740Z AUTO 34003KT 10SM CLR 23/04 A2997 2260 29 3700 320/03 RMK AO2 $
53144K9L2 9L220160829234510108/29/16 23:45:31  5-MIN K9L2 300745Z AUTO 00000KT 10SM CLR 22/04 A2997 2260 30 3600 000/00 RMK AO2 $
53144K9L2 9L220160829235010108/29/16 23:50:31  5-MIN K9L2 300750Z AUTO 00000KT 10SM CLR 22/04 A2997 2260 30 3600 000/00 RMK AO2 $
53144K9L2 9L220160829235512808/29/16 23:55:31  5-MIN K9L2 300755Z AUTO 00000KT 10SM CLR 22/04 A2997 2260 31 3600 000/00 RMK AO2 SLP126 T02170039 404060161 $
53144K9L2 9L220160830000010108/30/16 00:00:31  5-MIN K9L2 300800Z AUTO 10003KT 10SM CLR 22/03 A2997 2250 29 3600 090/03 RMK AO2 $
53144K9L2 9L220160830000510108/30/16 00:05:31  5-MIN K9L2 300805Z AUTO 00000KT 10SM CLR 23/03 A2997 2250 26 3700 000/00 RMK AO2 $
53144K9L2 9L220160830001010108/30/16 00:10:31  5-MIN K9L2 300810Z AUTO 13004KT 10SM CLR 23/03 A2998 2250 26 3700 120/04 RMK AO2 $
53144K9L2 9L220160830001510108/30/16 00:15:31  5-MIN K9L2 300815Z AUTO 13006KT 10SM CLR 23/03 A2998 2250 27 3700 120/06 RMK AO2 $
53144K9L2 9L220160830002010108/30/16 00:20:31  5-MIN K9L2 300820Z AUTO 15005KT 10SM CLR 23/03 A2997 2250 27 3700 140/05 RMK AO2 $
53144K9L2 9L220160830002510108/30/16 00:25:31  5-MIN K9L2 300825Z AUTO 16005KT 10SM CLR 22/03 A2997 2250 28 3600 140/05 RMK AO2 $
53144K9L2 9L220160830003010108/30/16 00:30:31  5-MIN K9L2 300830Z AUTO 15004KT 10SM CLR 23/03 A2997 2260 27 3700 140/04 RMK AO2 $
53144K9L2 9L220160830003510108/30/16 00:35:31  5-MIN K9L2 300835Z AUTO 15003KT 10SM CLR 22/03 A2997 2250 28 3600 130/03 RMK AO2 $
53144K9L2 9L220160830004010108/30/16 00:40:31  5-MIN K9L2 300840Z AUTO 14005KT 10SM CLR 22/03 A2997 2260 27 3600 130/05 RMK AO2 $
53144K9L2 9L220160830004510108/30/16 00:45:31  5-MIN K9L2 300845Z AUTO 16005KT 10SM CLR 22/03 A2997 2260 27 3600 140/05 RMK AO2 $
53144K9L2 9L220160830005010108/30/16 00:50:31  5-MIN K9L2 300850Z AUTO VRB03KT 10SM CLR 22/03 A2997 2260 27 3600 VRB/03 RMK AO2 $
53144K9L2 9L220160830005512408/30/16 00:55:31  5-MIN K9L2 300855Z AUTO 21003KT 10SM CLR 21/02 A2997 2260 28 3500 200/03 RMK AO2 SLP125 T02110022 51015 $
53144K9L2 9L220160830010010108/30/16 01:00:31  5-MIN K9L2 300900Z AUTO 00000KT 10SM CLR 21/03 A2997 2260 30 3500 000/00 RMK AO2 $
53144K9L2 9L220160830010510108/30/16 01:05:31  5-MIN K9L2 300905Z AUTO 00000KT 10SM CLR 21/02 A2997 2250 29 3500 000/00 RMK AO2 $
53144K9L2 9L220160830011010108/30/16 01:10:31  5-MIN K9L2 300910Z AUTO 00000KT 10SM CLR 20/03 A2997 2260 31 3400 000/00 RMK AO2 $
53144K9L2 9L220160830011510108/30/16 01:15:31  5-MIN K9L2 300915Z AUTO 00000KT 10SM CLR 20/03 A2997 2260 31 3400 000/00 RMK AO2 $
53144K9L2 9L220160830012010108/30/16 01:20:31  5-MIN K9L2 300920Z AUTO 33004KT 10SM CLR 20/03 A2997 2260 31 3400 310/04 RMK AO2 $
53144K9L2 9L220160830012510108/30/16 01:25:31  5-MIN K9L2 300925Z AUTO 33004KT 10SM CLR 19/03 A2997 2260 33 3300 320/04 RMK AO2 $
53144K9L2 9L220160830013010108/30/16 01:30:31  5-MIN K9L2 300930Z AUTO 33003KT 10SM CLR 19/03 A2997 2260 33 3300 320/03 RMK AO2 $
53144K9L2 9L220160830013510108/30/16 01:35:31  5-MIN K9L2 300935Z AUTO 33004KT 10SM CLR 19/03 A2997 2260 33 3300 320/04 RMK AO2 $
53144K9L2 9L220160830014010108/30/16 01:40:31  5-MIN K9L2 300940Z AUTO 34003KT 10SM CLR 19/02 A2996 2260 31 3300 320/03 RMK AO2 $
53144K9L2 9L220160830014510108/30/16 01:45:31  5-MIN K9L2 300945Z AUTO 00000KT 10SM CLR 19/03 A2996 2260 33 3300 000/00 RMK AO2 $
53144K9L2 9L220160830015010108/30/16 01:50:31  5-MIN K9L2 300950Z AUTO 00000KT 10SM CLR 20/03 A2996 2260 31 3400 000/00 RMK AO2 $
53144K9L2 9L220160830015511808/30/16 01:55:31  5-MIN K9L2 300955Z AUTO 00000KT 10SM CLR 19/02 A2996 2260 31 3300 000/00 RMK AO2 SLP123 T01940022 $
53144K9L2 9L220160830020010108/30/16 02:00:31  5-MIN K9L2 301000Z AUTO 00000KT 10SM CLR 19/03 A2996 2260 33 3300 000/00 RMK AO2 $
53144K9L2 9L220160830020510108/30/16 02:05:31  5-MIN K9L2 301005Z AUTO 00000KT 10SM CLR 20/03 A2996 2270 31 3400 000/00 RMK AO2 $
53144K9L2 9L220160830021010108/30/16 02:10:31  5-MIN K9L2 301010Z AUTO 00000KT 10SM CLR 19/02 A2996 2260 31 3300 000/00 RMK AO2 $
53144K9L2 9L220160830021510108/30/16 02:15:31  5-MIN K9L2 301015Z AUTO 00000KT 10SM CLR 19/02 A2996 2260 31 3300 000/00 RMK AO2 $
53144K9L2 9L220160830022010108/30/16 02:20:31  5-MIN K9L2 301020Z AUTO 00000KT 10SM CLR 19/02 A2996 2260 31 3300 000/00 RMK AO2 $
53144K9L2 9L220160830022510108/30/16 02:25:31  5-MIN K9L2 301025Z AUTO 00000KT 10SM CLR 19/02 A2996 2270 31 3300 000/00 RMK AO2 $
53144K9L2 9L220160830023010108/30/16 02:30:31  5-MIN K9L2 301030Z AUTO 00000KT 10SM CLR 19/02 A2996 2270 32 3300 000/00 RMK AO2 $
53144K9L2 9L220160830023510108/30/16 02:35:31  5-MIN K9L2 301035Z AUTO 00000KT 10SM CLR 19/02 A2996 2270 31 3300 000/00 RMK AO2 $
53144K9L2 9L220160830024010108/30/16 02:40:31  5-MIN K9L2 301040Z AUTO 00000KT 10SM CLR 19/02 A2996 2260 31 3300 000/00 RMK AO2 $
53144K9L2 9L220160830024510108/30/16 02:45:31  5-MIN K9L2 301045Z AUTO 00000KT 10SM CLR 19/02 A2996 2260 31 3300 000/00 RMK AO2 $
53144K9L2 9L220160830025010108/30/16 02:50:31  5-MIN K9L2 301050Z AUTO 00000KT 10SM CLR 19/02 A2996 2260 31 3300 000/00 RMK AO2 $
53144K9L2 9L220160830025511808/30/16 02:55:31  5-MIN K9L2 301055Z AUTO 00000KT 10SM CLR 19/01 A2996 2270 29 3300 000/00 RMK AO2 SLP122 T01940011 $
53144K9L2 9L220160830030010108/30/16 03:00:31  5-MIN K9L2 301100Z AUTO 00000KT 10SM CLR 19/01 A2996 2270 30 3300 000/00 RMK AO2 $
53144K9L2 9L220160830030510108/30/16 03:05:31  5-MIN K9L2 301105Z AUTO 00000KT 10SM CLR 19/01 A2996 2270 30 3300 000/00 RMK AO2 $
53144K9L2 9L220160830031010108/30/16 03:10:31  5-MIN K9L2 301110Z AUTO 00000KT 10SM CLR 19/01 A2996 2270 29 3300 000/00 RMK AO2 $
53144K9L2 9L220160830031510108/30/16 03:15:31  5-MIN K9L2 301115Z AUTO 00000KT 10SM CLR 18/01 A2996 2270 30 3200 000/00 RMK AO2 $
53144K9L2 9L220160830032010108/30/16 03:20:31  5-MIN K9L2 301120Z AUTO 00000KT 10SM CLR 18/00 A2996 2270 29 3200 000/00 RMK AO2 $
53144K9L2 9L220160830032510208/30/16 03:25:31  5-MIN K9L2 301125Z AUTO 00000KT 10SM CLR 18/M01 A2996 2270 27 3200 000/00 RMK AO2 $
53144K9L2 9L220160830033010108/30/16 03:30:31  5-MIN K9L2 301130Z AUTO 00000KT 10SM CLR 18/00 A2996 2270 30 3200 000/00 RMK AO2 $
53144K9L2 9L220160830033510108/30/16 03:35:31  5-MIN K9L2 301135Z AUTO 06003KT 10SM CLR 18/00 A2996 2270 30 3200 050/03 RMK AO2 $
53144K9L2 9L220160830034010208/30/16 03:40:31  5-MIN K9L2 301140Z AUTO 07003KT 10SM CLR 18/M01 A2996 2270 27 3200 050/03 RMK AO2 $
53144K9L2 9L220160830034510208/30/16 03:45:31  5-MIN K9L2 301145Z AUTO 00000KT 10SM CLR 18/M01 A2996 2260 26 3200 000/00 RMK AO2 $
53144K9L2 9L220160830035010208/30/16 03:50:31  5-MIN K9L2 301150Z AUTO 00000KT 10SM CLR 18/M02 A2996 2260 25 3200 000/00 RMK AO2 $
53144K9L2 9L220160830035513708/30/16 03:55:31  5-MIN K9L2 301155Z AUTO 00000KT 10SM CLR 18/M02 A2996 2260 25 3200 000/00 RMK AO2 SLP124 T01831017 10261 20178 58001 $
53144K9L2 9L220160830040010208/30/16 04:00:31  5-MIN K9L2 301200Z AUTO 00000KT 10SM CLR 18/M02 A2996 2260 25 3200 000/00 RMK AO2 $
53144K9L2 9L220160830040510208/30/16 04:05:31  5-MIN K9L2 301205Z AUTO 00000KT 10SM CLR 19/M01 A2996 2260 25 3300 000/00 RMK AO2 $
53144K9L2 9L220160830041010208/30/16 04:10:31  5-MIN K9L2 301210Z AUTO 00000KT 10SM CLR 18/M01 A2996 2260 26 3200 000/00 RMK AO2 $
53144K9L2 9L220160830041510208/30/16 04:15:31  5-MIN K9L2 301215Z AUTO 00000KT 10SM CLR 18/M01 A2996 2260 27 3100 000/00 RMK AO2 $
53144K9L2 9L220160830042010208/30/16 04:20:31  5-MIN K9L2 301220Z AUTO 00000KT 10SM CLR 17/M01 A2996 2260 28 3100 000/00 RMK AO2 $
53144K9L2 9L220160830042510208/30/16 04:25:31  5-MIN K9L2 301225Z AUTO 00000KT 10SM CLR 17/M01 A2996 2260 28 3100 000/00 RMK AO2 $
53144K9L2 9L220160830043010208/30/16 04:30:31  5-MIN K9L2 301230Z AUTO 00000KT 10SM CLR 17/M01 A2996 2260 28 3100 000/00 RMK AO2 $
53144K9L2 9L220160830043510208/30/16 04:35:31  5-MIN K9L2 301235Z AUTO 00000KT 10SM CLR 17/M01 A2997 2260 28 3100 000/00 RMK AO2 $
53144K9L2 9L220160830044010208/30/16 04:40:31  5-MIN K9L2 301240Z AUTO 00000KT 10SM CLR 17/M01 A2996 2260 28 3100 000/00 RMK AO2 $
53144K9L2 9L220160830044510208/30/16 04:45:31  5-MIN K9L2 301245Z AUTO 00000KT 10SM CLR 17/M01 A2996 2260 28 3100 000/00 RMK AO2 $
53144K9L2 9L220160830045010208/30/16 04:50:31  5-MIN K9L2 301250Z AUTO 02003KT 10SM CLR 17/M01 A2997 2260 28 3100 010/03 RMK AO2 $
53144K9L2 9L220160830045511908/30/16 04:55:31  5-MIN K9L2 301255Z AUTO 03003KT 10SM CLR 17/M01 A2997 2260 28 3100 020/03 RMK AO2 SLP126 T01721011 $
53144K9L2 9L220160830050010208/30/16 05:00:31  5-MIN K9L2 301300Z AUTO 03003KT 10SM CLR 17/M01 A2997 2260 28 3100 010/03 RMK AO2 $
53144K9L2 9L220160830050510208/30/16 05:05:31  5-MIN K9L2 301305Z AUTO 05003KT 10SM CLR 17/M01 A2997 2260 29 3000 040/03 RMK AO2 $
53144K9L2 9L220160830051010208/30/16 05:10:31  5-MIN K9L2 301310Z AUTO 00000KT 10SM CLR 17/M01 A2997 2260 28 3100 000/00 RMK AO2 $
53144K9L2 9L220160830051510208/30/16 05:15:31  5-MIN K9L2 301315Z AUTO 00000KT 10SM CLR 17/M01 A2997 2260 28 3100 000/00 RMK AO2 $
53144K9L2 9L220160830052010208/30/16 05:20:31  5-MIN K9L2 301320Z AUTO 00000KT 10SM CLR 17/M01 A2997 2260 29 3000 000/00 RMK AO2 $
53144K9L2 9L220160830052510208/30/16 05:25:31  5-MIN K9L2 301325Z AUTO 00000KT 10SM CLR 17/M01 A2997 2260 29 3000 000/00 RMK AO2 $
53144K9L2 9L220160830053010208/30/16 05:30:31  5-MIN K9L2 301330Z AUTO 00000KT 10SM CLR 17/M01 A2997 2260 29 3000 000/00 RMK AO2 $
53144K9L2 9L220160830053510208/30/16 05:35:31  5-MIN K9L2 301335Z AUTO 00000KT 10SM CLR 16/M01 A2997 2260 30 2900 000/00 RMK AO2 $
53144K9L2 9L220160830054010208/30/16 05:40:31  5-MIN K9L2 301340Z AUTO 00000KT 10SM CLR 17/M01 A2997 2250 29 3000 000/00 RMK AO2 $
53144K9L2 9L220160830054510208/30/16 05:45:31  5-MIN K9L2 301345Z AUTO 00000KT 10SM CLR 17/M01 A2997 2260 29 3000 000/00 RMK AO2 $
53144K9L2 9L220160830055010208/30/16 05:50:31  5-MIN K9L2 301350Z AUTO 00000KT 10SM CLR 17/M01 A2997 2250 28 3100 000/00 RMK AO2 $
53144K9L2 9L220160830055511908/30/16 05:55:31  5-MIN K9L2 301355Z AUTO 00000KT 10SM CLR 18/M01 A2997 2250 27 3100 000/00 RMK AO2 SLP130 T01781011 $
53144K9L2 9L220160830060010208/30/16 06:00:31  5-MIN K9L2 301400Z AUTO 00000KT 10SM CLR 18/M01 A2997 2250 28 3100 000/00 RMK AO2 $
53144K9L2 9L220160830060510208/30/16 06:05:31  5-MIN K9L2 301405Z AUTO 00000KT 10SM CLR 19/M01 A2998 2250 26 3300 000/00 RMK AO2 $
53144K9L2 9L220160830061010208/30/16 06:10:31  5-MIN K9L2 301410Z AUTO 33004KT 10SM CLR 19/M01 A2997 2250 26 3300 310/04 RMK AO2 $
53144K9L2 9L220160830061510208/30/16 06:15:31  5-MIN K9L2 301415Z AUTO 33003KT 10SM CLR 19/M01 A2997 2250 26 3300 320/03 RMK AO2 $
53144K9L2 9L220160830062010208/30/16 06:20:31  5-MIN K9L2 301420Z AUTO 31003KT 10SM CLR 19/M01 A2997 2250 26 3300 300/03 RMK AO2 $
53144K9L2 9L220160830062510208/30/16 06:25:31  5-MIN K9L2 301425Z AUTO 33004KT 10SM CLR 20/M01 A2997 2250 25 3400 320/04 RMK AO2 $
53144K9L2 9L220160830063010208/30/16 06:30:31  5-MIN K9L2 301430Z AUTO 00000KT 10SM CLR 21/M01 A2998 2250 24 3500 000/00 RMK AO2 $
53144K9L2 9L220160830063510208/30/16 06:35:31  5-MIN K9L2 301435Z AUTO 36003KT 10SM CLR 22/M01 A2998 2250 22 3600 350/03 RMK AO2 $
53144K9L2 9L220160830064010208/30/16 06:40:31  5-MIN K9L2 301440Z AUTO 00000KT 10SM CLR 22/M01 A2998 2250 22 3600 000/00 RMK AO2 $
53144K9L2 9L220160830064510208/30/16 06:45:31  5-MIN K9L2 301445Z AUTO 00000KT 10SM CLR 22/M01 A2998 2250 21 3600 000/00 RMK AO2 $
53144K9L2 9L220160830065010208/30/16 06:50:31  5-MIN K9L2 301450Z AUTO 00000KT 10SM CLR 23/M01 A2998 2250 21 3700 000/00 RMK AO2 $
53144K9L2 9L220160830065512508/30/16 06:55:31  5-MIN K9L2 301455Z AUTO 00000KT 10SM CLR 23/M01 A2998 2250 21 3700 000/00 RMK AO2 SLP131 T02281006 55002 $
53144K9L2 9L220160830070010108/30/16 07:00:31  5-MIN K9L2 301500Z AUTO 00000KT 10SM CLR 23/00 A2998 2250 22 3700 000/00 RMK AO2 $
53144K9L2 9L220160830070510108/30/16 07:05:31  5-MIN K9L2 301505Z AUTO 00000KT 10SM CLR 23/00 A2999 2240 21 3800 000/00 RMK AO2 $
53144K9L2 9L220160830071010108/30/16 07:10:31  5-MIN K9L2 301510Z AUTO 00000KT 10SM CLR 23/00 A2999 2240 21 3800 000/00 RMK AO2 $
53144K9L2 9L220160830071510108/30/16 07:15:31  5-MIN K9L2 301515Z AUTO 09003KT 10SM CLR 24/00 A2999 2240 20 3800 070/03 RMK AO2 $
53144K9L2 9L220160830072010108/30/16 07:20:31  5-MIN K9L2 301520Z AUTO 00000KT 10SM CLR 24/00 A2999 2240 20 3800 000/00 RMK AO2 $
53144K9L2 9L220160830072510108/30/16 07:25:31  5-MIN K9L2 301525Z AUTO 00000KT 10SM CLR 24/01 A2999 2240 21 3800 000/00 RMK AO2 $
53144K9L2 9L220160830073010108/30/16 07:30:31  5-MIN K9L2 301530Z AUTO 10003KT 10SM CLR 24/01 A2999 2240 21 3800 090/03 RMK AO2 $
53144K9L2 9L220160830073510108/30/16 07:35:31  5-MIN K9L2 301535Z AUTO 12003KT 10SM CLR 24/01 A2999 2240 21 3800 100/03 RMK AO2 $
53144K9L2 9L220160830074010108/30/16 07:40:31  5-MIN K9L2 301540Z AUTO 00000KT 10SM CLR 24/01 A2998 2240 20 3900 000/00 RMK AO2 $
53144K9L2 9L220160830074510108/30/16 07:45:31  5-MIN K9L2 301545Z AUTO 00000KT 10SM CLR 24/01 A2999 2240 21 3900 000/00 RMK AO2 $
53144K9L2 9L220160830075010108/30/16 07:50:31  5-MIN K9L2 301550Z AUTO 00000KT 10SM CLR 25/02 A2999 2240 21 3900 000/00 RMK AO2 $
53144K9L2 9L220160830075511808/30/16 07:55:31  5-MIN K9L2 301555Z AUTO 00000KT 10SM CLR 25/01 A2999 2240 20 3900 000/00 RMK AO2 SLP133 T02500011 $
53144K9L2 9L220160830080010108/30/16 08:00:31  5-MIN K9L2 301600Z AUTO 00000KT 10SM CLR 25/02 A2999 2240 21 3900 000/00 RMK AO2 $
53144K9L2 9L220160830080510108/30/16 08:05:31  5-MIN K9L2 301605Z AUTO 00000KT 10SM CLR 26/02 A2999 2240 21 4000 000/00 RMK AO2 $
53144K9L2 9L220160830081010108/30/16 08:10:31  5-MIN K9L2 301610Z AUTO 00000KT 10SM CLR 26/01 A2999 2240 20 4000 000/00 RMK AO2 $
53144K9L2 9L220160830081510108/30/16 08:15:31  5-MIN K9L2 301615Z AUTO 00000KT 10SM CLR 26/01 A2999 2240 19 4100 000/00 RMK AO2 $
53144K9L2 9L220160830082010108/30/16 08:20:31  5-MIN K9L2 301620Z AUTO 00000KT 10SM CLR 27/01 A2999 2240 18 4100 000/00 RMK AO2 $
53144K9L2 9L220160830082510108/30/16 08:25:31  5-MIN K9L2 301625Z AUTO 00000KT 10SM CLR 27/01 A2998 2240 18 4100 000/00 RMK AO2 $
53144K9L2 9L220160830083010108/30/16 08:30:31  5-MIN K9L2 301630Z AUTO 00000KT 10SM CLR 27/01 A2998 2240 18 4200 000/00 RMK AO2 $
53144K9L2 9L220160830083510108/30/16 08:35:31  5-MIN K9L2 301635Z AUTO 00000KT 10SM CLR 28/01 A2998 2250 17 4300 000/00 RMK AO2 $
53144K9L2 9L220160830084010108/30/16 08:40:31  5-MIN K9L2 301640Z AUTO 00000KT 10SM CLR 28/01 A2998 2250 17 4300 000/00 RMK AO2 $
53144K9L2 9L220160830084510108/30/16 08:45:31  5-MIN K9L2 301645Z AUTO 00000KT 10SM CLR 28/01 A2998 2250 17 4300 000/00 RMK AO2 $
53144K9L2 9L220160830085010108/30/16 08:50:31  5-MIN K9L2 301650Z AUTO 00000KT 10SM CLR 28/01 A2998 2250 17 4300 000/00 RMK AO2 $
53144K9L2 9L220160830085511808/30/16 08:55:31  5-MIN K9L2 301655Z AUTO 00000KT 10SM CLR 29/02 A2998 2250 16 4400 000/00 RMK AO2 SLP128 T02940017 $
53144K9L2 9L220160830090010108/30/16 09:00:31  5-MIN K9L2 301700Z AUTO 00000KT 10SM CLR 29/02 A2998 2250 17 4400 000/00 RMK AO2 $
53144K9L2 9L220160830090510108/30/16 09:05:31  5-MIN K9L2 301705Z AUTO 14003KT 10SM CLR 29/02 A2998 2250 16 4400 130/03 RMK AO2 $
53144K9L2 9L220160830091010108/30/16 09:10:31  5-MIN K9L2 301710Z AUTO 14003KT 10SM CLR 29/02 A2998 2250 16 4400 130/03 RMK AO2 $
53144K9L2 9L220160830091510108/30/16 09:15:31  5-MIN K9L2 301715Z AUTO 16003KT 10SM CLR 30/02 A2998 2250 16 4500 150/03 RMK AO2 $
53144K9L2 9L220160830092010108/30/16 09:20:31  5-MIN K9L2 301720Z AUTO 17004KT 10SM CLR 30/02 A2998 2250 16 4500 160/04 RMK AO2 $
53144K9L2 9L220160830092510108/30/16 09:25:31  5-MIN K9L2 301725Z AUTO 15003KT 10SM CLR 30/02 A2998 2250 16 4500 140/03 RMK AO2 $
53144K9L2 9L220160830093010108/30/16 09:30:31  5-MIN K9L2 301730Z AUTO 15003KT 10SM CLR 31/02 A2997 2250 15 4600 140/03 RMK AO2 $
53144K9L2 9L220160830093510108/30/16 09:35:31  5-MIN K9L2 301735Z AUTO 17003KT 10SM CLR 31/01 A2997 2250 15 4600 160/03 RMK AO2 $
53144K9L2 9L220160830094010108/30/16 09:40:31  5-MIN K9L2 301740Z AUTO 00000KT 10SM CLR 31/01 A2997 2260 14 4600 000/00 RMK AO2 $
53144K9L2 9L220160830094510108/30/16 09:45:31  5-MIN K9L2 301745Z AUTO 18003KT 10SM CLR 32/01 A2997 2260 13 4700 160/03 RMK AO2 $
53144K9L2 9L220160830095010108/30/16 09:50:31  5-MIN K9L2 301750Z AUTO 17003KT 10SM CLR 32/01 A2997 2260 13 4800 160/03 RMK AO2 $
53144K9L2 9L220160830095513608/30/16 09:55:31  5-MIN K9L2 301755Z AUTO VRB03KT 10SM CLR 32/01 A2997 2260 13 4800 VRB/03 RMK AO2 SLP124 T03220006 10322 20161 53006 $
53144K9L2 9L220160830100010108/30/16 10:00:31  5-MIN K9L2 301800Z AUTO 00000KT 10SM CLR 32/00 A2997 2260 12 4800 000/00 RMK AO2 $
53144K9L2 9L220160830100510108/30/16 10:05:31  5-MIN K9L2 301805Z AUTO 00000KT 10SM CLR 32/01 A2997 2260 13 4800 000/00 RMK AO2 $
53144K9L2 9L220160830101010108/30/16 10:10:31  5-MIN K9L2 301810Z AUTO 17003KT 10SM CLR 33/01 A2996 2260 12 4800 160/03 RMK AO2 $
53144K9L2 9L220160830101510108/30/16 10:15:31  5-MIN K9L2 301815Z AUTO 15003KT 10SM CLR 33/01 A2996 2270 12 4800 130/03 RMK AO2 $
53144K9L2 9L220160830102010108/30/16 10:20:31  5-MIN K9L2 301820Z AUTO 00000KT 10SM CLR 33/00 A2996 2270 12 4800 000/00 RMK AO2 $
53144K9L2 9L220160830102510108/30/16 10:25:31  5-MIN K9L2 301825Z AUTO 00000KT 10SM CLR 33/00 A2996 2270 11 4900 000/00 RMK AO2 $
53144K9L2 9L220160830103010208/30/16 10:30:31  5-MIN K9L2 301830Z AUTO 00000KT 10SM CLR 33/M01 A2995 2270 11 4900 000/00 RMK AO2 $
53144K9L2 9L220160830103510208/30/16 10:35:31  5-MIN K9L2 301835Z AUTO 00000KT 10SM CLR 34/M01 A2995 2270 11 4900 000/00 RMK AO2 $
53144K9L2 9L220160830104010208/30/16 10:40:31  5-MIN K9L2 301840Z AUTO 00000KT 10SM CLR 34/M01 A2995 2270 10 5000 000/00 RMK AO2 $
53144K9L2 9L220160830104510208/30/16 10:45:31  5-MIN K9L2 301845Z AUTO 00000KT 10SM CLR 34/M01 A2995 2280 10 5000 000/00 RMK AO2 $
53144K9L2 9L220160830105010208/30/16 10:50:31  5-MIN K9L2 301850Z AUTO 22003KT 10SM CLR 34/M01 A2995 2280 10 5000 200/03 RMK AO2 $
53144K9L2 9L220160830105511908/30/16 10:55:31  5-MIN K9L2 301855Z AUTO 12003KT 10SM CLR 35/M02 A2994 2280 09 5100 110/03 RMK AO2 SLP117 T03501017 $
53144K9L2 9L220160830110010208/30/16 11:00:31  5-MIN K9L2 301900Z AUTO VRB04KT 10SM CLR 36/M01 A2994 2280 09 5100 VRB/04 RMK AO2 $
53144K9L2 9L220160830110510208/30/16 11:05:31  5-MIN K9L2 301905Z AUTO 00000KT 10SM CLR 36/M02 A2994 2280 09 5100 000/00 RMK AO2 $
53144K9L2 9L220160830111010208/30/16 11:10:31  5-MIN K9L2 301910Z AUTO 00000KT 10SM CLR 36/M02 A2994 2290 09 5200 000/00 RMK AO2 $
53144K9L2 9L220160830111510208/30/16 11:15:31  5-MIN K9L2 301915Z AUTO 18003KT 10SM CLR 36/M02 A2993 2290 09 5200 160/03 RMK AO2 $
53144K9L2 9L220160830112010208/30/16 11:20:31  5-MIN K9L2 301920Z AUTO 09003KT 10SM CLR 37/M02 A2993 2290 08 5300 080/03 RMK AO2 $
53144K9L2 9L220160830112510208/30/16 11:25:31  5-MIN K9L2 301925Z AUTO 00000KT 10SM CLR 37/M02 A2993 2290 08 5300 000/00 RMK AO2 $
53144K9L2 9L220160830113010208/30/16 11:30:31  5-MIN K9L2 301930Z AUTO VRB04KT 10SM CLR 37/M02 A2993 2300 08 5300 VRB/04 RMK AO2 $
53144K9L2 9L220160830113510208/30/16 11:35:31  5-MIN K9L2 301935Z AUTO 14004KT 10SM CLR 37/M02 A2992 2300 08 5300 120/04 RMK AO2 $
53144K9L2 9L220160830114010208/30/16 11:40:31  5-MIN K9L2 301940Z AUTO 11004KT 10SM CLR 38/M02 A2992 2300 08 5400 090/04 RMK AO2 $
53144K9L2 9L220160830114510208/30/16 11:45:31  5-MIN K9L2 301945Z AUTO 00000KT 10SM CLR 38/M02 A2992 2300 08 5400 000/00 RMK AO2 $
53144K9L2 9L220160830115010208/30/16 11:50:31  5-MIN K9L2 301950Z AUTO 00000KT 10SM CLR 38/M02 A2992 2300 08 5400 000/00 RMK AO2 $
53144K9L2 9L220160830115511908/30/16 11:55:31  5-MIN K9L2 301955Z AUTO 00000KT 10SM CLR 38/M02 A2992 2310 07 5500 000/00 RMK AO2 SLP106 T03831022 $
53144K9L2 9L220160830120010208/30/16 12:00:31  5-MIN K9L2 302000Z AUTO 00000KT 10SM CLR 39/M02 A2991 2310 07 5500 000/00 RMK AO2 $
53144K9L2 9L220160830120510208/30/16 12:05:31  5-MIN K9L2 302005Z AUTO VRB03KT 10SM CLR 39/M03 A2991 2310 07 5500 VRB/03 RMK AO2 $
53144K9L2 9L220160830121010208/30/16 12:10:31  5-MIN K9L2 302010Z AUTO VRB05KT 10SM CLR 40/M03 A2990 2320 06 5700 VRB/05 RMK AO2 $
53144K9L2 9L220160830121510208/30/16 12:15:31  5-MIN K9L2 302015Z AUTO 00000KT 10SM CLR 41/M02 A2990 2320 06 5700 000/00 RMK AO2 $
53144K9L2 9L220160830122010208/30/16 12:20:31  5-MIN K9L2 302020Z AUTO 28005KT 10SM CLR 39/M03 A2990 2320 07 5600 270/05 RMK AO2 $
53144K9L2 9L220160830122510208/30/16 12:25:31  5-MIN K9L2 302025Z AUTO 34004KT 10SM CLR 40/M03 A2990 2320 06 5700 320/04 RMK AO2 $
53144K9L2 9L220160830123010208/30/16 12:30:31  5-MIN K9L2 302030Z AUTO 00000KT 10SM CLR 40/M03 A2990 2320 06 5700 000/00 RMK AO2 $
53144K9L2 9L220160830123510208/30/16 12:35:31  5-MIN K9L2 302035Z AUTO VRB05KT 10SM CLR 41/M03 A2990 2320 06 5800 VRB/05 RMK AO2 $
53144K9L2 9L220160830124010208/30/16 12:40:31  5-MIN K9L2 302040Z AUTO 16005KT 10SM CLR 40/M03 A2990 2330 06 5700 150/05 RMK AO2 $
53144K9L2 9L220160830124510208/30/16 12:45:31  5-MIN K9L2 302045Z AUTO 24003KT 10SM CLR 40/M03 A2989 2330 06 5700 220/03 RMK AO2 $
53144K9L2 9L220160830125010208/30/16 12:50:31  5-MIN K9L2 302050Z AUTO 20008KT 10SM CLR 40/M03 A2989 2330 06 5700 190/08 RMK AO2 $
53144K9L2 9L220160830125512508/30/16 12:55:31  5-MIN K9L2 302055Z AUTO 00000KT 10SM CLR 40/M03 A2989 2330 06 5700 000/00 RMK AO2 SLP096 T04001033 58005 $
53144K9L2 9L220160830130010208/30/16 13:00:31  5-MIN K9L2 302100Z AUTO 19007KT 10SM CLR 40/M03 A2989 2330 06 5700 170/07 RMK AO2 $
53144K9L2 9L220160830130510208/30/16 13:05:31  5-MIN K9L2 302105Z AUTO 16006KT 10SM CLR 41/M03 A2989 2330 06 5700 150/06 RMK AO2 $
53144K9L2 9L220160830131010208/30/16 13:10:31  5-MIN K9L2 302110Z AUTO 15006KT 10SM CLR 41/M04 A2989 2340 06 5700 140/06 RMK AO2 $
53144K9L2 9L220160830131510208/30/16 13:15:31  5-MIN K9L2 302115Z AUTO VRB03KT 10SM CLR 41/M03 A2988 2340 06 5700 VRB/03 RMK AO2 $
53144K9L2 9L220160830132010208/30/16 13:20:31  5-MIN K9L2 302120Z AUTO 14005KT 10SM CLR 41/M03 A2988 2340 06 5700 130/05 RMK AO2 $
53144K9L2 9L220160830132510208/30/16 13:25:31  5-MIN K9L2 302125Z AUTO 13007KT 10SM CLR 41/M03 A2988 2340 06 5700 120/07 RMK AO2 $
53144K9L2 9L220160830133010208/30/16 13:30:31  5-MIN K9L2 302130Z AUTO 12007KT 10SM CLR 41/M03 A2987 2350 06 5800 110/07 RMK AO2 $
53144K9L2 9L220160830133510208/30/16 13:35:31  5-MIN K9L2 302135Z AUTO 17006KT 10SM CLR 41/M03 A2987 2350 06 5700 160/06 RMK AO2 $
53144K9L2 9L220160830134010208/30/16 13:40:31  5-MIN K9L2 302140Z AUTO 19008KT 10SM CLR 41/M03 A2987 2350 06 5700 180/08 RMK AO2 $
53144K9L2 9L220160830134510208/30/16 13:45:31  5-MIN K9L2 302145Z AUTO 13008KT 10SM CLR 41/M03 A2986 2350 06 5800 110/08 RMK AO2 $
53144K9L2 9L220160830135010208/30/16 13:50:31  5-MIN K9L2 302150Z AUTO 13009KT 10SM CLR 41/M03 A2986 2350 06 5800 120/09 RMK AO2 $
53144K9L2 9L220160830135511908/30/16 13:55:31  5-MIN K9L2 302155Z AUTO VRB04KT 10SM CLR 41/M03 A2986 2350 06 5800 VRB/04 RMK AO2 SLP087 T04111028 $
53144K9L2 9L220160830140010808/30/16 14:00:31  5-MIN K9L2 302200Z AUTO 19010G14KT 10SM CLR 41/M04 A2986 2360 06 5800 180/10G14 RMK AO2 $
53144K9L2 9L220160830140510808/30/16 14:05:31  5-MIN K9L2 302205Z AUTO 17005G14KT 10SM CLR 41/M04 A2986 2360 06 5800 160/05G14 RMK AO2 $
53144K9L2 9L220160830141010208/30/16 14:10:31  5-MIN K9L2 302210Z AUTO 00000KT 10SM CLR 40/M04 A2986 2360 06 5700 000/00 RMK AO2 $
53144K9L2 9L220160830141510208/30/16 14:15:31  5-MIN K9L2 302215Z AUTO 00000KT 10SM CLR 40/M04 A2985 2360 06 5700 000/00 RMK AO2 $
53144K9L2 9L220160830142010208/30/16 14:20:31  5-MIN K9L2 302220Z AUTO 17003KT 10SM CLR 40/M04 A2985 2370 06 5700 150/03 RMK AO2 $
53144K9L2 9L220160830142510208/30/16 14:25:31  5-MIN K9L2 302225Z AUTO VRB04KT 10SM CLR 41/M04 A2985 2370 06 5800 VRB/04 RMK AO2 $
53144K9L2 9L220160830143010208/30/16 14:30:31  5-MIN K9L2 302230Z AUTO VRB06KT 10SM CLR 41/M04 A2985 2370 05 5800 VRB/06 RMK AO2 $
53144K9L2 9L220160830143510808/30/16 14:35:31  5-MIN K9L2 302235Z AUTO 17010G15KT 10SM CLR 41/M04 A2985 2370 06 5800 160/10G15 RMK AO2 $
53144K9L2 9L220160830144010208/30/16 14:40:31  5-MIN K9L2 302240Z AUTO 15013KT 10SM CLR 41/M04 A2985 2370 06 5800 130/13 RMK AO2 $
53144K9L2 9L220160830144510208/30/16 14:45:31  5-MIN K9L2 302245Z AUTO 00000KT 10SM CLR 41/M04 A2985 2370 06 5800 000/00 RMK AO2 $
53144K9L2 9L220160830145010208/30/16 14:50:31  5-MIN K9L2 302250Z AUTO 00000KT 10SM CLR 40/M04 A2985 2370 06 5700 000/00 RMK AO2 $
53144K9L2 9L220160830145511908/30/16 14:55:31  5-MIN K9L2 302255Z AUTO 00000KT 10SM CLR 40/M04 A2985 2370 06 5700 000/00 RMK AO2 SLP081 T04001039 $
53144K9L2 9L220160830150010208/30/16 15:00:31  5-MIN K9L2 302300Z AUTO 18003KT 10SM CLR 41/M04 A2984 2370 06 5800 170/03 RMK AO2 $
53144K9L2 9L220160830150510208/30/16 15:05:31  5-MIN K9L2 302305Z AUTO 00000KT 10SM CLR 40/M04 A2984 2380 06 5700 000/00 RMK AO2 $
53144K9L2 9L220160830151010208/30/16 15:10:31  5-MIN K9L2 302310Z AUTO 04003KT 10SM CLR 41/M04 A2984 2380 06 5800 030/03 RMK AO2 $
53144K9L2 9L220160830151510208/30/16 15:15:31  5-MIN K9L2 302315Z AUTO VRB03KT 10SM CLR 41/M04 A2984 2380 06 5800 VRB/03 RMK AO2 $
53144K9L2 9L220160830152010208/30/16 15:20:31  5-MIN K9L2 302320Z AUTO VRB04KT 10SM CLR 41/M04 A2984 2380 05 5800 VRB/04 RMK AO2 $
53144K9L2 9L220160830152510208/30/16 15:25:31  5-MIN K9L2 302325Z AUTO 00000KT 10SM CLR 41/M04 A2983 2380 05 5800 000/00 RMK AO2 $
53144K9L2 9L220160830153010208/30/16 15:30:31  5-MIN K9L2 302330Z AUTO 00000KT 10SM CLR 41/M04 A2983 2380 05 5800 000/00 RMK AO2 $
53144K9L2 9L220160830153510208/30/16 15:35:31  5-MIN K9L2 302335Z AUTO 15005KT 10SM CLR 41/M04 A2983 2380 05 5800 140/05 RMK AO2 $
53144K9L2 9L220160830154010208/30/16 15:40:31  5-MIN K9L2 302340Z AUTO 20006KT 10SM CLR 41/M04 A2983 2380 05 5800 190/06 RMK AO2 $
53144K9L2 9L220160830154510208/30/16 15:45:31  5-MIN K9L2 302345Z AUTO 16007KT 10SM CLR 41/M04 A2983 2380 05 5800 140/07 RMK AO2 $
53144K9L2 9L220160830155010208/30/16 15:50:31  5-MIN K9L2 302350Z AUTO 19004KT 10SM CLR 41/M04 A2983 2380 05 5800 180/04 RMK AO2 $
53144K9L2 9L220160830155513708/30/16 15:55:31  5-MIN K9L2 302355Z AUTO 20005KT 10SM CLR 41/M04 A2983 2390 05 5800 190/05 RMK AO2 SLP077 T04061044 10417 20322 58024 $
53144K9L2 9L220160830160010208/30/16 16:00:31  5-MIN K9L2 310000Z AUTO 15006KT 10SM CLR 41/M04 A2983 2390 05 5800 140/06 RMK AO2 $
53144K9L2 9L220160830160510208/30/16 16:05:31  5-MIN K9L2 310005Z AUTO 18008KT 10SM CLR 41/M04 A2983 2390 06 5800 170/08 RMK AO2 $
53144K9L2 9L220160830161010208/30/16 16:10:31  5-MIN K9L2 310010Z AUTO 16004KT 10SM CLR 40/M04 A2983 2390 06 5700 140/04 RMK AO2 $
53144K9L2 9L220160830161510208/30/16 16:15:31  5-MIN K9L2 310015Z AUTO 20004KT 10SM CLR 40/M04 A2983 2390 06 5700 190/04 RMK AO2 $
53144K9L2 9L220160830162010208/30/16 16:20:31  5-MIN K9L2 310020Z AUTO 00000KT 10SM CLR 40/M04 A2983 2390 06 5700 000/00 RMK AO2 $
53144K9L2 9L220160830162510208/30/16 16:25:31  5-MIN K9L2 310025Z AUTO 00000KT 10SM CLR 40/M04 A2982 2390 06 5700 000/00 RMK AO2 $
53144K9L2 9L220160830163011808/30/16 16:30:31  5-MIN K9L2 310030Z AUTO 32007KT 280V350 10SM CLR 41/M04 A2982 2400 06 5800 310/07 270V340 RMK AO2 $
53144K9L2 9L220160830163510808/30/16 16:35:31  5-MIN K9L2 310035Z AUTO 27013G18KT 10SM CLR 41/M03 A2982 2390 06 5800 260/13G18 RMK AO2 $
53144K9L2 9L220160830164010808/30/16 16:40:31  5-MIN K9L2 310040Z AUTO 27020G24KT 10SM CLR 41/M02 A2982 2400 07 5800 260/20G24 RMK AO2 $
53144K9L2 9L220160830164510808/30/16 16:45:31  5-MIN K9L2 310045Z AUTO 27018G24KT 10SM CLR 40/M01 A2982 2390 07 5700 250/18G24 RMK AO2 $
53144K9L2 9L220160830165011908/30/16 16:50:31  5-MIN K9L2 310050Z AUTO 28017G22KT 10SM CLR 40/M01 A2982 2390 07 5700 260/17G22 RMK AO2 WSHFT 0034 $
53144K9L2 9L220160830165513608/30/16 16:55:31  5-MIN K9L2 310055Z AUTO 28015G22KT 10SM CLR 39/M01 A2982 2390 08 5700 260/15G22 RMK AO2 WSHFT 0034 SLP075 T03941006 $
53144K9L2 9L220160830170010208/30/16 17:00:31  5-MIN K9L2 310100Z AUTO 28015KT 10SM CLR 39/M01 A2982 2390 07 5700 270/15 RMK AO2 $
53144K9L2 9L220160830170510208/30/16 17:05:31  5-MIN K9L2 310105Z AUTO 27016KT 10SM CLR 39/M01 A2982 2390 08 5700 260/16 RMK AO2 $
53144K9L2 9L220160830171010208/30/16 17:10:31  5-MIN K9L2 310110Z AUTO 27015KT 10SM CLR 39/M01 A2982 2390 08 5600 260/15 RMK AO2 $
53144K9L2 9L220160830171510208/30/16 17:15:31  5-MIN K9L2 310115Z AUTO 27013KT 10SM CLR 39/M01 A2982 2390 08 5600 260/13 RMK AO2 $
53144K9L2 9L220160830172010108/30/16 17:20:31  5-MIN K9L2 310120Z AUTO 27017KT 10SM CLR 39/00 A2982 2390 08 5600 250/17 RMK AO2 $
53144K9L2 9L220160830172510708/30/16 17:25:31  5-MIN K9L2 310125Z AUTO 28016G21KT 10SM CLR 38/01 A2983 2390 09 5600 270/16G21 RMK AO2 $
53144K9L2 9L220160830173010708/30/16 17:30:31  5-MIN K9L2 310130Z AUTO 27015G21KT 10SM CLR 38/01 A2983 2390 10 5500 260/15G21 RMK AO2 $
53144K9L2 9L220160830173510108/30/16 17:35:31  5-MIN K9L2 310135Z AUTO 27016KT 10SM CLR 38/02 A2983 2390 10 5500 260/16 RMK AO2 $
53144K9L2 9L220160830174010108/30/16 17:40:31  5-MIN K9L2 310140Z AUTO 27015KT 10SM CLR 37/02 A2983 2390 10 5400 260/15 RMK AO2 $
53144K9L2 9L220160830174510108/30/16 17:45:31  5-MIN K9L2 310145Z AUTO 27013KT 10SM CLR 37/02 A2983 2390 11 5400 250/13 RMK AO2 $
53144K9L2 9L220160830175010108/30/16 17:50:31  5-MIN K9L2 310150Z AUTO 27016KT 10SM CLR 37/03 A2983 2390 12 5400 250/16 RMK AO2 $
53144K9L2 9L220160830175511808/30/16 17:55:31  5-MIN K9L2 310155Z AUTO 27014KT 10SM CLR 36/03 A2983 2390 12 5300 250/14 RMK AO2 SLP080 T03610033 $
53144K9L2 9L220160830180010708/30/16 18:00:31  5-MIN K9L2 310200Z AUTO 27016G19KT 10SM CLR 36/03 A2983 2390 12 5300 260/16G19 RMK AO2 $
53144K9L2 9L220160830180510708/30/16 18:05:31  5-MIN K9L2 310205Z AUTO 27014G19KT 10SM CLR 36/03 A2983 2390 13 5300 260/14G19 RMK AO2 $
53144K9L2 9L220160830181010108/30/16 18:10:31  5-MIN K9L2 310210Z AUTO 27013KT 10SM CLR 36/03 A2983 2390 12 5300 260/13 RMK AO2 $
53144K9L2 9L220160830181510108/30/16 18:15:31  5-MIN K9L2 310215Z AUTO 27015KT 10SM CLR 35/04 A2983 2390 14 5200 260/15 RMK AO2 $
53144K9L2 9L220160830182010108/30/16 18:20:31  5-MIN K9L2 310220Z AUTO 27016KT 10SM CLR 34/04 A2983 2390 15 5100 260/16 RMK AO2 $
53144K9L2 9L220160830182510108/30/16 18:25:31  5-MIN K9L2 310225Z AUTO 28016KT 10SM CLR 34/05 A2983 2380 16 5100 270/16 RMK AO2 $
53144K9L2 9L220160830183010108/30/16 18:30:31  5-MIN K9L2 310230Z AUTO 28016KT 10SM CLR 33/05 A2983 2380 16 5000 270/16 RMK AO2 $
53144K9L2 9L220160830183510108/30/16 18:35:31  5-MIN K9L2 310235Z AUTO 28015KT 10SM CLR 33/05 A2984 2380 16 5000 270/15 RMK AO2 $
53144K9L2 9L220160830184010108/30/16 18:40:31  5-MIN K9L2 310240Z AUTO 28013KT 10SM CLR 33/05 A2984 2380 16 5000 260/13 RMK AO2 $
53144K9L2 9L220160830184510108/30/16 18:45:31  5-MIN K9L2 310245Z AUTO 27012KT 10SM CLR 33/05 A2984 2380 17 5000 260/12 RMK AO2 $
53144K9L2 9L220160830185010108/30/16 18:50:31  5-MIN K9L2 310250Z AUTO 28012KT 10SM CLR 33/05 A2984 2380 17 5000 260/12 RMK AO2 $
53144K9L2 9L220160830185512408/30/16 18:55:31  5-MIN K9L2 310255Z AUTO 28012KT 10SM CLR 32/05 A2984 2380 17 4900 260/12 RMK AO2 SLP083 T03220050 56019 $
53144K9L2 9L220160830190010108/30/16 19:00:31  5-MIN K9L2 310300Z AUTO 28014KT 10SM CLR 32/05 A2984 2370 17 4900 260/14 RMK AO2 $
53144K9L2 9L220160830190510108/30/16 19:05:31  5-MIN K9L2 310305Z AUTO 27012KT 10SM CLR 32/05 A2985 2370 17 4900 260/12 RMK AO2 $
53144K9L2 9L220160830191010108/30/16 19:10:31  5-MIN K9L2 310310Z AUTO 27011KT 10SM CLR 32/05 A2985 2370 18 4800 260/11 RMK AO2 $
53144K9L2 9L220160830191510108/30/16 19:15:31  5-MIN K9L2 310315Z AUTO 27009KT 10SM CLR 32/06 A2985 2370 19 4800 260/09 RMK AO2 $
53144K9L2 9L220160830192010108/30/16 19:20:31  5-MIN K9L2 310320Z AUTO 28009KT 10SM CLR 32/06 A2986 2360 19 4800 260/09 RMK AO2 $
53144K9L2 9L220160830192510108/30/16 19:25:31  5-MIN K9L2 310325Z AUTO 28008KT 10SM CLR 31/06 A2986 2360 19 4800 270/08 RMK AO2 $
53144K9L2 9L220160830193010108/30/16 19:30:31  5-MIN K9L2 310330Z AUTO 30005KT 10SM CLR 31/06 A2986 2360 19 4800 280/05 RMK AO2 $
53144K9L2 9L220160830193510108/30/16 19:35:31  5-MIN K9L2 310335Z AUTO 30004KT 10SM CLR 31/05 A2987 2350 19 4700 290/04 RMK AO2 $
53144K9L2 9L220160830194010108/30/16 19:40:31  5-MIN K9L2 310340Z AUTO 31003KT 10SM CLR 31/05 A2987 2350 19 4700 300/03 RMK AO2 $
53144K9L2 9L220160830194510108/30/16 19:45:31  5-MIN K9L2 310345Z AUTO 31004KT 10SM CLR 31/05 A2987 2350 19 4700 290/04 RMK AO2 $
53144K9L2 9L220160830195010108/30/16 19:50:31  5-MIN K9L2 310350Z AUTO 26004KT 10SM CLR 31/05 A2987 2350 19 4700 250/04 RMK AO2 $
53144K9L2 9L220160830195511808/30/16 19:55:31  5-MIN K9L2 310355Z AUTO 25005KT 10SM CLR 30/05 A2988 2340 20 4600 240/05 RMK AO2 SLP095 T03000050 $
53144K9L2 9L220160830200010108/30/16 20:00:31  5-MIN K9L2 310400Z AUTO 23006KT 10SM CLR 30/05 A2988 2340 20 4600 210/06 RMK AO2 $
53144K9L2 9L220160830200510108/30/16 20:05:31  5-MIN K9L2 310405Z AUTO 21008KT 10SM CLR 30/05 A2988 2340 20 4600 190/08 RMK AO2 $
53144K9L2 9L220160830201010108/30/16 20:10:31  5-MIN K9L2 310410Z AUTO 20008KT 10SM CLR 30/05 A2988 2340 20 4600 190/08 RMK AO2 $
53144K9L2 9L220160830201510108/30/16 20:15:31  5-MIN K9L2 310415Z AUTO 23007KT 10SM CLR 30/05 A2988 2340 20 4600 210/07 RMK AO2 $
53144K9L2 9L220160830202010108/30/16 20:20:31  5-MIN K9L2 310420Z AUTO 24006KT 10SM CLR 30/05 A2988 2340 20 4600 220/06 RMK AO2 $
53144K9L2 9L220160830202510108/30/16 20:25:31  5-MIN K9L2 310425Z AUTO 24006KT 10SM CLR 29/05 A2988 2340 21 4500 220/06 RMK AO2 $
53144K9L2 9L220160830203010108/30/16 20:30:31  5-MIN K9L2 310430Z AUTO 22005KT 10SM CLR 29/05 A2988 2340 21 4500 200/05 RMK AO2 $
53144K9L2 9L220160830203510108/30/16 20:35:31  5-MIN K9L2 310435Z AUTO 22004KT 10SM CLR 29/04 A2988 2340 20 4500 210/04 RMK AO2 $
53144K9L2 9L220160830204010108/30/16 20:40:31  5-MIN K9L2 310440Z AUTO 22004KT 10SM CLR 29/05 A2988 2340 21 4500 210/04 RMK AO2 $
53144K9L2 9L220160830204510108/30/16 20:45:31  5-MIN K9L2 310445Z AUTO 23004KT 10SM CLR 28/05 A2988 2340 22 4400 210/04 RMK AO2 $
53144K9L2 9L220160830205010108/30/16 20:50:31  5-MIN K9L2 310450Z AUTO 23005KT 10SM CLR 29/05 A2988 2340 21 4500 220/05 RMK AO2 $
53144K9L2 9L220160830205511808/30/16 20:55:31  5-MIN K9L2 310455Z AUTO 24005KT 10SM CLR 29/05 A2988 2340 21 4500 220/05 RMK AO2 SLP096 T02890050 $
53144K9L2 9L220160830210010108/30/16 21:00:31  5-MIN K9L2 310500Z AUTO 25008KT 10SM CLR 29/06 A2988 2340 22 4500 240/08 RMK AO2 $
53144K9L2 9L220160830210510108/30/16 21:05:31  5-MIN K9L2 310505Z AUTO 25008KT 10SM CLR 29/06 A2988 2340 23 4500 240/08 RMK AO2 $
53144K9L2 9L220160830211010108/30/16 21:10:31  5-MIN K9L2 310510Z AUTO 25008KT 10SM CLR 29/06 A2988 2340 23 4500 240/08 RMK AO2 $
53144K9L2 9L220160830211510108/30/16 21:15:31  5-MIN K9L2 310515Z AUTO 25009KT 10SM CLR 28/06 A2988 2340 24 4400 240/09 RMK AO2 $
53144K9L2 9L220160830212010108/30/16 21:20:31  5-MIN K9L2 310520Z AUTO 25008KT 10SM CLR 28/06 A2988 2340 24 4400 240/08 RMK AO2 $
53144K9L2 9L220160830212510108/30/16 21:25:31  5-MIN K9L2 310525Z AUTO 26008KT 10SM CLR 28/06 A2988 2340 23 4400 240/08 RMK AO2 $
53144K9L2 9L220160830213010108/30/16 21:30:31  5-MIN K9L2 310530Z AUTO 25007KT 10SM CLR 28/06 A2988 2340 23 4400 240/07 RMK AO2 $
53144K9L2 9L220160830213510108/30/16 21:35:31  5-MIN K9L2 310535Z AUTO 25007KT 10SM CLR 28/06 A2989 2330 23 4400 240/07 RMK AO2 $
53144K9L2 9L220160830214010108/30/16 21:40:31  5-MIN K9L2 310540Z AUTO 20005KT 10SM CLR 28/06 A2989 2330 23 4400 190/05 RMK AO2 $
53144K9L2 9L220160830214510108/30/16 21:45:31  5-MIN K9L2 310545Z AUTO 20006KT 10SM CLR 28/06 A2989 2330 24 4400 190/06 RMK AO2 $
53144K9L2 9L220160830215010108/30/16 21:50:31  5-MIN K9L2 310550Z AUTO 20006KT 10SM CLR 28/05 A2989 2330 22 4400 190/06 RMK AO2 $
53144K9L2 9L220160830215513608/30/16 21:55:31  5-MIN K9L2 310555Z AUTO 20008KT 10SM CLR 28/04 A2989 2330 22 4400 190/08 RMK AO2 SLP097 T02780044 10406 20278 53003 $
53144K9L2 9L220160830220010108/30/16 22:00:31  5-MIN K9L2 310600Z AUTO 21007KT 10SM CLR 28/04 A2989 2330 21 4400 200/07 RMK AO2 $
53144K9L2 9L220160830220510108/30/16 22:05:31  5-MIN K9L2 310605Z AUTO 21007KT 10SM CLR 28/04 A2989 2330 22 4400 200/07 RMK AO2 $
53144K9L2 9L220160830221010108/30/16 22:10:31  5-MIN K9L2 310610Z AUTO 21006KT 10SM CLR 28/04 A2989 2330 21 4400 190/06 RMK AO2 $
53144K9L2 9L220160830221510108/30/16 22:15:31  5-MIN K9L2 310615Z AUTO 20006KT 10SM CLR 28/04 A2989 2330 20 4400 190/06 RMK AO2 $
53144K9L2 9L220160830222010108/30/16 22:20:31  5-MIN K9L2 310620Z AUTO 22007KT 10SM CLR 28/04 A2989 2330 20 4400 210/07 RMK AO2 $
53144K9L2 9L220160830222510108/30/16 22:25:31  5-MIN K9L2 310625Z AUTO 22006KT 10SM CLR 28/04 A2989 2330 21 4400 200/06 RMK AO2 $
53144K9L2 9L220160830223010108/30/16 22:30:31  5-MIN K9L2 310630Z AUTO 21006KT 10SM CLR 27/04 A2989 2330 22 4300 200/06 RMK AO2 $
53144K9L2 9L220160830223510108/30/16 22:35:31  5-MIN K9L2 310635Z AUTO 21006KT 10SM CLR 28/04 A2989 2330 21 4400 200/06 RMK AO2 $
53144K9L2 9L220160830224010108/30/16 22:40:31  5-MIN K9L2 310640Z AUTO 20005KT 10SM CLR 27/04 A2989 2330 22 4300 190/05 RMK AO2 $
53144K9L2 9L220160830224510108/30/16 22:45:31  5-MIN K9L2 310645Z AUTO 21004KT 10SM CLR 27/04 A2990 2320 22 4300 190/04 RMK AO2 $
53144K9L2 9L220160830225010108/30/16 22:50:31  5-MIN K9L2 310650Z AUTO 20005KT 10SM CLR 27/04 A2990 2320 22 4200 190/05 RMK AO2 $
53144K9L2 9L220160830225511808/30/16 22:55:31  5-MIN K9L2 310655Z AUTO 21005KT 10SM CLR 27/04 A2990 2320 22 4300 190/05 RMK AO2 SLP099 T02720039 $
53144K9L2 9L220160830230010108/30/16 23:00:31  5-MIN K9L2 310700Z AUTO 21005KT 10SM CLR 27/04 A2990 2320 22 4200 200/05 RMK AO2 $
53144K9L2 9L220160830230510108/30/16 23:05:31  5-MIN K9L2 310705Z AUTO 20005KT 10SM CLR 27/03 A2990 2320 22 4200 190/05 RMK AO2 $
53144K9L2 9L220160830231010108/30/16 23:10:31  5-MIN K9L2 310710Z AUTO 21004KT 10SM CLR 26/03 A2990 2320 21 4200 200/04 RMK AO2 $
53144K9L2 9L220160830231510108/30/16 23:15:31  5-MIN K9L2 310715Z AUTO 00000KT 10SM CLR 26/03 A2990 2320 22 4100 000/00 RMK AO2 $
53144K9L2 9L220160830232010108/30/16 23:20:31  5-MIN K9L2 310720Z AUTO 00000KT 10SM CLR 26/03 A2990 2320 21 4200 000/00 RMK AO2 $
53144K9L2 9L220160830232510108/30/16 23:25:31  5-MIN K9L2 310725Z AUTO 00000KT 10SM CLR 26/03 A2990 2320 21 4200 000/00 RMK AO2 $
53144K9L2 9L220160830233010108/30/16 23:30:31  5-MIN K9L2 310730Z AUTO 00000KT 10SM CLR 26/03 A2990 2320 21 4200 000/00 RMK AO2 $
53144K9L2 9L220160830233510108/30/16 23:35:31  5-MIN K9L2 310735Z AUTO 00000KT 10SM CLR 27/03 A2990 2320 22 4200 000/00 RMK AO2 $
53144K9L2 9L220160830234010108/30/16 23:40:31  5-MIN K9L2 310740Z AUTO 00000KT 10SM CLR 26/03 A2990 2320 22 4200 000/00 RMK AO2 $
53144K9L2 9L220160830234510108/30/16 23:45:31  5-MIN K9L2 310745Z AUTO 23003KT 10SM CLR 27/03 A2990 2320 22 4200 210/03 RMK AO2 $
53144K9L2 9L220160830235010108/30/16 23:50:31  5-MIN K9L2 310750Z AUTO 22003KT 10SM CLR 26/04 A2990 2320 23 4200 210/03 RMK AO2 $
53144K9L2 9L220160830235512808/30/16 23:55:31  5-MIN K9L2 310755Z AUTO 20003KT 10SM CLR 27/04 A2990 2320 22 4200 190/03 RMK AO2 SLP098 T02670039 404170161 $
53144K9L2 9L220160831000010108/31/16 00:00:31  5-MIN K9L2 310800Z AUTO 00000KT 10SM CLR 26/04 A2990 2320 23 4200 000/00 RMK AO2 $
53144K9L2 9L220160831000510108/31/16 00:05:31  5-MIN K9L2 310805Z AUTO 00000KT 10SM CLR 26/03 A2990 2320 23 4100 000/00 RMK AO2 $
53144K9L2 9L220160831001010108/31/16 00:10:31  5-MIN K9L2 310810Z AUTO 24004KT 10SM CLR 26/04 A2990 2320 23 4200 230/04 RMK AO2 $
53144K9L2 9L220160831001510108/31/16 00:15:31  5-MIN K9L2 310815Z AUTO 25004KT 10SM CLR 27/04 A2990 2320 23 4200 230/04 RMK AO2 $
53144K9L2 9L220160831002010108/31/16 00:20:31  5-MIN K9L2 310820Z AUTO 00000KT 10SM CLR 27/04 A2990 2320 23 4200 000/00 RMK AO2 $
53144K9L2 9L220160831002510108/31/16 00:25:31  5-MIN K9L2 310825Z AUTO 00000KT 10SM CLR 26/04 A2990 2320 24 4200 000/00 RMK AO2 $
53144K9L2 9L220160831003010108/31/16 00:30:31  5-MIN K9L2 310830Z AUTO 13004KT 10SM CLR 26/04 A2990 2320 24 4100 110/04 RMK AO2 $
53144K9L2 9L220160831003510108/31/16 00:35:31  5-MIN K9L2 310835Z AUTO 16003KT 10SM CLR 24/03 A2990 2320 25 4000 150/03 RMK AO2 $
53144K9L2 9L220160831004010108/31/16 00:40:31  5-MIN K9L2 310840Z AUTO 00000KT 10SM CLR 25/03 A2990 2320 24 4000 000/00 RMK AO2 $
53144K9L2 9L220160831004510108/31/16 00:45:31  5-MIN K9L2 310845Z AUTO 00000KT 10SM CLR 25/04 A2990 2320 25 4000 000/00 RMK AO2 $
53144K9L2 9L220160831005010108/31/16 00:50:31  5-MIN K9L2 310850Z AUTO 00000KT 10SM CLR 24/04 A2990 2320 26 4000 000/00 RMK AO2 $
53144K9L2 9L220160831005512408/31/16 00:55:31  5-MIN K9L2 310855Z AUTO 00000KT 10SM CLR 24/04 A2990 2320 26 4000 000/00 RMK AO2 SLP099 T02440039 51016 $
53144K9L2 9L220160831010010108/31/16 01:00:31  5-MIN K9L2 310900Z AUTO 14005KT 10SM CLR 25/04 A2990 2320 26 4000 130/05 RMK AO2 $
53144K9L2 9L220160831010510108/31/16 01:05:31  5-MIN K9L2 310905Z AUTO 19004KT 10SM CLR 24/03 A2990 2320 25 4000 170/04 RMK AO2 $
53144K9L2 9L220160831011010108/31/16 01:10:31  5-MIN K9L2 310910Z AUTO 00000KT 10SM CLR 24/04 A2990 2320 26 4000 000/00 RMK AO2 $
53144K9L2 9L220160831011510108/31/16 01:15:31  5-MIN K9L2 310915Z AUTO 00000KT 10SM CLR 24/04 A2990 2320 27 3900 000/00 RMK AO2 $
53144K9L2 9L220160831012010108/31/16 01:20:31  5-MIN K9L2 310920Z AUTO VRB05KT 10SM CLR 25/04 A2990 2320 26 4000 VRB/05 RMK AO2 $
53144K9L2 9L220160831012510108/31/16 01:25:31  5-MIN K9L2 310925Z AUTO VRB03KT 10SM CLR 26/06 A2990 2320 27 4100 VRB/03 RMK AO2 $
53144K9L2 9L220160831013010108/31/16 01:30:31  5-MIN K9L2 310930Z AUTO 15006KT 10SM CLR 24/03 A2990 2320 26 3900 140/06 RMK AO2 $
53144K9L2 9L220160831013510108/31/16 01:35:31  5-MIN K9L2 310935Z AUTO 00000KT 10SM CLR 24/03 A2990 2320 26 3900 000/00 RMK AO2 $
53144K9L2 9L220160831014010108/31/16 01:40:31  5-MIN K9L2 310940Z AUTO 00000KT 10SM CLR 24/04 A2990 2320 27 3900 000/00 RMK AO2 $
53144K9L2 9L220160831014510108/31/16 01:45:31  5-MIN K9L2 310945Z AUTO 12003KT 10SM CLR 24/04 A2990 2320 27 3900 100/03 RMK AO2 $
53144K9L2 9L220160831015010108/31/16 01:50:31  5-MIN K9L2 310950Z AUTO 13005KT 10SM CLR 24/04 A2990 2320 27 3900 120/05 RMK AO2 $
53144K9L2 9L220160831015511808/31/16 01:55:31  5-MIN K9L2 310955Z AUTO VRB03KT 10SM CLR 24/04 A2990 2320 27 3900 VRB/03 RMK AO2 SLP098 T02390039 $
53144K9L2 9L220160831020010108/31/16 02:00:31  5-MIN K9L2 311000Z AUTO 22004KT 10SM CLR 25/04 A2990 2320 26 4000 210/04 RMK AO2 $
53144K9L2 9L220160831020510108/31/16 02:05:31  5-MIN K9L2 311005Z AUTO 00000KT 10SM CLR 26/05 A2990 2320 26 4100 000/00 RMK AO2 $
53144K9L2 9L220160831021010108/31/16 02:10:31  5-MIN K9L2 311010Z AUTO 00000KT 10SM CLR 24/04 A2990 2320 27 4000 000/00 RMK AO2 $
53144K9L2 9L220160831021510108/31/16 02:15:31  5-MIN K9L2 311015Z AUTO 03003KT 10SM CLR 23/04 A2990 2320 28 3800 010/03 RMK AO2 $
53144K9L2 9L220160831022010108/31/16 02:20:31  5-MIN K9L2 311020Z AUTO 12004KT 10SM CLR 23/04 A2990 2320 29 3800 110/04 RMK AO2 $
53144K9L2 9L220160831022510108/31/16 02:25:31  5-MIN K9L2 311025Z AUTO 00000KT 10SM CLR 23/04 A2990 2320 29 3800 000/00 RMK AO2 $
53144K9L2 9L220160831023010108/31/16 02:30:31  5-MIN K9L2 311030Z AUTO 00000KT 10SM CLR 22/04 A2990 2320 30 3700 000/00 RMK AO2 $
53144K9L2 9L220160831023510108/31/16 02:35:31  5-MIN K9L2 311035Z AUTO 00000KT 10SM CLR 22/04 A2990 2320 31 3700 000/00 RMK AO2 $
53144K9L2 9L220160831024010108/31/16 02:40:31  5-MIN K9L2 311040Z AUTO 09003KT 10SM CLR 22/03 A2990 2320 29 3700 080/03 RMK AO2 $
53144K9L2 9L220160831024510108/31/16 02:45:31  5-MIN K9L2 311045Z AUTO 10003KT 10SM CLR 22/03 A2990 2320 29 3700 090/03 RMK AO2 $
53144K9L2 9L220160831025010108/31/16 02:50:31  5-MIN K9L2 311050Z AUTO 10003KT 10SM CLR 22/03 A2990 2320 29 3700 090/03 RMK AO2 $
53144K9L2 9L220160831025511808/31/16 02:55:31  5-MIN K9L2 311055Z AUTO 13006KT 10SM CLR 22/03 A2990 2320 29 3700 120/06 RMK AO2 SLP100 T02170033 $
53144K9L2 9L220160831030010108/31/16 03:00:31  5-MIN K9L2 311100Z AUTO 15004KT 10SM CLR 22/03 A2990 2320 29 3700 140/04 RMK AO2 $
53144K9L2 9L220160831030510108/31/16 03:05:31  5-MIN K9L2 311105Z AUTO 00000KT 10SM CLR 22/03 A2990 2320 29 3700 000/00 RMK AO2 $
53144K9L2 9L220160831031010108/31/16 03:10:31  5-MIN K9L2 311110Z AUTO 13003KT 10SM CLR 22/03 A2990 2320 29 3700 120/03 RMK AO2 $
53144K9L2 9L220160831031510108/31/16 03:15:31  5-MIN K9L2 311115Z AUTO 12003KT 10SM CLR 22/04 A2990 2320 31 3700 110/03 RMK AO2 $
53144K9L2 9L220160831032010108/31/16 03:20:31  5-MIN K9L2 311120Z AUTO 00000KT 10SM CLR 21/03 A2990 2320 30 3600 000/00 RMK AO2 $
53144K9L2 9L220160831032510108/31/16 03:25:31  5-MIN K9L2 311125Z AUTO 16003KT 10SM CLR 21/03 A2990 2320 30 3600 140/03 RMK AO2 $
53144K9L2 9L220160831033010108/31/16 03:30:31  5-MIN K9L2 311130Z AUTO 00000KT 10SM CLR 21/03 A2990 2320 30 3600 000/00 RMK AO2 $
53144K9L2 9L220160831033510108/31/16 03:35:31  5-MIN K9L2 311135Z AUTO 00000KT 10SM CLR 21/04 A2990 2320 32 3600 000/00 RMK AO2 $
53144K9L2 9L220160831034010108/31/16 03:40:31  5-MIN K9L2 311140Z AUTO 00000KT 10SM CLR 21/04 A2990 2320 32 3600 000/00 RMK AO2 $
53144K9L2 9L220160831034510108/31/16 03:45:31  5-MIN K9L2 311145Z AUTO 00000KT 10SM CLR 21/04 A2990 2320 33 3500 000/00 RMK AO2 $
53144K9L2 9L220160831035010108/31/16 03:50:31  5-MIN K9L2 311150Z AUTO 00000KT 10SM CLR 21/03 A2990 2320 32 3500 000/00 RMK AO2 $
53144K9L2 9L220160831035513608/31/16 03:55:31  5-MIN K9L2 311155Z AUTO 00000KT 10SM CLR 20/03 A2990 2320 31 3500 000/00 RMK AO2 SLP100 T02000028 10283 20200 51003 $
53144K9L2 9L220160831040010108/31/16 04:00:31  5-MIN K9L2 311200Z AUTO 00000KT 10SM CLR 19/03 A2990 2320 33 3400 000/00 RMK AO2 $
53144K9L2 9L220160831040510108/31/16 04:05:31  5-MIN K9L2 311205Z AUTO 00000KT 10SM CLR 19/03 A2990 2320 33 3400 000/00 RMK AO2 $
53144K9L2 9L220160831041010108/31/16 04:10:31  5-MIN K9L2 311210Z AUTO 00000KT 10SM CLR 19/03 A2990 2320 33 3400 000/00 RMK AO2 $
53144K9L2 9L220160831041510108/31/16 04:15:31  5-MIN K9L2 311215Z AUTO 00000KT 10SM CLR 19/03 A2990 2320 34 3300 000/00 RMK AO2 $
53144K9L2 9L220160831042010108/31/16 04:20:31  5-MIN K9L2 311220Z AUTO 00000KT 10SM CLR 19/03 A2990 2320 34 3300 000/00 RMK AO2 $
53144K9L2 9L220160831042510108/31/16 04:25:31  5-MIN K9L2 311225Z AUTO 00000KT 10SM CLR 19/03 A2990 2320 35 3300 000/00 RMK AO2 $
53144K9L2 9L220160831043010108/31/16 04:30:31  5-MIN K9L2 311230Z AUTO 00000KT 10SM CLR 18/03 A2990 2320 36 3300 000/00 RMK AO2 $
53144K9L2 9L220160831043510108/31/16 04:35:31  5-MIN K9L2 311235Z AUTO 00000KT 10SM CLR 19/03 A2990 2320 35 3300 000/00 RMK AO2 $
53144K9L2 9L220160831044010108/31/16 04:40:31  5-MIN K9L2 311240Z AUTO 00000KT 10SM CLR 19/03 A2990 2320 35 3300 000/00 RMK AO2 $
53144K9L2 9L220160831044510108/31/16 04:45:31  5-MIN K9L2 311245Z AUTO 03004KT 10SM CLR 19/03 A2990 2320 35 3300 020/04 RMK AO2 $
53144K9L2 9L220160831045010108/31/16 04:50:31  5-MIN K9L2 311250Z AUTO 00000KT 10SM CLR 18/03 A2990 2320 36 3300 000/00 RMK AO2 $
53144K9L2 9L220160831045511808/31/16 04:55:31  5-MIN K9L2 311255Z AUTO 03003KT 10SM CLR 18/03 A2990 2320 36 3300 020/03 RMK AO2 SLP103 T01830033 $
53144K9L2 9L220160831050010108/31/16 05:00:31  5-MIN K9L2 311300Z AUTO 04003KT 10SM CLR 18/03 A2991 2320 36 3300 030/03 RMK AO2 $
53144K9L2 9L220160831050510108/31/16 05:05:31  5-MIN K9L2 311305Z AUTO 04004KT 10SM CLR 18/04 A2991 2320 38 3300 030/04 RMK AO2 $
53144K9L2 9L220160831051010108/31/16 05:10:31  5-MIN K9L2 311310Z AUTO 02003KT 10SM CLR 18/03 A2991 2310 36 3300 010/03 RMK AO2 $
53144K9L2 9L220160831051510108/31/16 05:15:31  5-MIN K9L2 311315Z AUTO 35004KT 10SM CLR 18/03 A2991 2310 36 3300 330/04 RMK AO2 $
53144K9L2 9L220160831052010108/31/16 05:20:31  5-MIN K9L2 311320Z AUTO 35005KT 10SM CLR 18/03 A2991 2310 35 3300 340/05 RMK AO2 $
53144K9L2 9L220160831052510108/31/16 05:25:31  5-MIN K9L2 311325Z AUTO 34004KT 10SM CLR 18/03 A2991 2310 36 3200 320/04 RMK AO2 $
53144K9L2 9L220160831053010108/31/16 05:30:31  5-MIN K9L2 311330Z AUTO 33004KT 10SM CLR 18/03 A2991 2310 38 3200 320/04 RMK AO2 $
53144K9L2 9L220160831053510108/31/16 05:35:31  5-MIN K9L2 311335Z AUTO 00000KT 10SM CLR 18/03 A2992 2310 36 3300 000/00 RMK AO2 $
53144K9L2 9L220160831054010108/31/16 05:40:31  5-MIN K9L2 311340Z AUTO 00000KT 10SM CLR 18/03 A2992 2300 36 3300 000/00 RMK AO2 $
53144K9L2 9L220160831054510108/31/16 05:45:31  5-MIN K9L2 311345Z AUTO 32003KT 10SM CLR 18/03 A2992 2300 36 3300 310/03 RMK AO2 $
53144K9L2 9L220160831055010108/31/16 05:50:31  5-MIN K9L2 311350Z AUTO 00000KT 10SM CLR 18/03 A2992 2300 36 3300 000/00 RMK AO2 $
53144K9L2 9L220160831055511808/31/16 05:55:31  5-MIN K9L2 311355Z AUTO 00000KT 10SM CLR 19/03 A2992 2300 35 3300 000/00 RMK AO2 SLP111 T01890033 $
53144K9L2 9L220160831060010108/31/16 06:00:31  5-MIN K9L2 311400Z AUTO 00000KT 10SM CLR 19/03 A2992 2300 34 3400 000/00 RMK AO2 $
53144K9L2 9L220160831060510108/31/16 06:05:31  5-MIN K9L2 311405Z AUTO 00000KT 10SM CLR 19/03 A2992 2300 34 3400 000/00 RMK AO2 $
53144K9L2 9L220160831061010108/31/16 06:10:31  5-MIN K9L2 311410Z AUTO 00000KT 10SM CLR 19/03 A2993 2300 34 3400 000/00 RMK AO2 $
53144K9L2 9L220160831061510108/31/16 06:15:31  5-MIN K9L2 311415Z AUTO 00000KT 10SM CLR 21/04 A2993 2300 33 3500 000/00 RMK AO2 $
53144K9L2 9L220160831062010108/31/16 06:20:31  5-MIN K9L2 311420Z AUTO 00000KT 10SM CLR 21/04 A2993 2300 32 3600 000/00 RMK AO2 $
53144K9L2 9L220160831062510108/31/16 06:25:31  5-MIN K9L2 311425Z AUTO 35003KT 10SM CLR 21/04 A2993 2300 32 3600 340/03 RMK AO2 $
53144K9L2 9L220160831063010108/31/16 06:30:31  5-MIN K9L2 311430Z AUTO 00000KT 10SM CLR 21/04 A2993 2300 32 3600 000/00 RMK AO2 $
53144K9L2 9L220160831063510108/31/16 06:35:31  5-MIN K9L2 311435Z AUTO 00000KT 10SM CLR 22/04 A2993 2300 31 3600 000/00 RMK AO2 $
53144K9L2 9L220160831064010108/31/16 06:40:31  5-MIN K9L2 311440Z AUTO 00000KT 10SM CLR 22/04 A2993 2290 31 3600 000/00 RMK AO2 $
53144K9L2 9L220160831064510108/31/16 06:45:31  5-MIN K9L2 311445Z AUTO 00000KT 10SM CLR 22/04 A2993 2290 31 3600 000/00 RMK AO2 $
53144K9L2 9L220160831065010108/31/16 06:50:31  5-MIN K9L2 311450Z AUTO 00000KT 10SM CLR 22/04 A2993 2290 31 3600 000/00 RMK AO2 $
53144K9L2 9L220160831065512408/31/16 06:55:31  5-MIN K9L2 311455Z AUTO 08003KT 10SM CLR 22/04 A2993 2290 30 3700 070/03 RMK AO2 SLP116 T02220039 51000 $
53144K9L2 9L220160831070010108/31/16 07:00:31  5-MIN K9L2 311500Z AUTO 00000KT 10SM CLR 22/04 A2993 2290 30 3700 000/00 RMK AO2 $
53144K9L2 9L220160831070510108/31/16 07:05:31  5-MIN K9L2 311505Z AUTO 00000KT 10SM CLR 22/04 A2993 2290 30 3700 000/00 RMK AO2 $
53144K9L2 9L220160831071010108/31/16 07:10:31  5-MIN K9L2 311510Z AUTO 00000KT 10SM CLR 23/04 A2993 2290 30 3700 000/00 RMK AO2 $
53144K9L2 9L220160831071510108/31/16 07:15:31  5-MIN K9L2 311515Z AUTO 00000KT 10SM CLR 23/04 A2993 2290 30 3800 000/00 RMK AO2 $
53144K9L2 9L220160831072010108/31/16 07:20:31  5-MIN K9L2 311520Z AUTO 00000KT 10SM CLR 23/04 A2993 2290 29 3800 000/00 RMK AO2 $
53144K9L2 9L220160831072510108/31/16 07:25:31  5-MIN K9L2 311525Z AUTO 00000KT 10SM CLR 23/04 A2993 2290 29 3800 000/00 RMK AO2 $
53144K9L2 9L220160831073010108/31/16 07:30:31  5-MIN K9L2 311530Z AUTO 00000KT 10SM CLR 23/04 A2993 2290 29 3800 000/00 RMK AO2 $
53144K9L2 9L220160831073510108/31/16 07:35:31  5-MIN K9L2 311535Z AUTO 00000KT 10SM CLR 24/04 A2993 2290 28 3900 000/00 RMK AO2 $
53144K9L2 9L220160831074010108/31/16 07:40:31  5-MIN K9L2 311540Z AUTO 00000KT 10SM CLR 23/04 A2994 2290 28 3800 000/00 RMK AO2 $
53144K9L2 9L220160831074510108/31/16 07:45:31  5-MIN K9L2 311545Z AUTO 00000KT 10SM CLR 24/04 A2994 2290 28 3900 000/00 RMK AO2 $
53144K9L2 9L220160831075010108/31/16 07:50:31  5-MIN K9L2 311550Z AUTO 00000KT 10SM CLR 24/04 A2994 2290 28 3900 000/00 RMK AO2 $
53144K9L2 9L220160831075511808/31/16 07:55:31  5-MIN K9L2 311555Z AUTO 14003KT 10SM CLR 24/04 A2994 2290 28 3900 130/03 RMK AO2 SLP118 T02390044 $
53144K9L2 9L220160831080010108/31/16 08:00:31  5-MIN K9L2 311600Z AUTO 00000KT 10SM CLR 24/04 A2994 2290 27 3900 000/00 RMK AO2 $
53144K9L2 9L220160831080510108/31/16 08:05:31  5-MIN K9L2 311605Z AUTO 00000KT 10SM CLR 25/04 A2994 2290 26 4000 000/00 RMK AO2 $
53144K9L2 9L220160831081010108/31/16 08:10:31  5-MIN K9L2 311610Z AUTO 00000KT 10SM CLR 25/05 A2994 2280 27 4000 000/00 RMK AO2 $
53144K9L2 9L220160831081510108/31/16 08:15:31  5-MIN K9L2 311615Z AUTO VRB03KT 10SM CLR 25/05 A2994 2280 27 4000 VRB/03 RMK AO2 $
53144K9L2 9L220160831082010108/31/16 08:20:31  5-MIN K9L2 311620Z AUTO 00000KT 10SM CLR 26/05 A2994 2290 26 4100 000/00 RMK AO2 $
53144K9L2 9L220160831082510108/31/16 08:25:31  5-MIN K9L2 311625Z AUTO 15003KT 10SM CLR 26/05 A2994 2280 26 4100 140/03 RMK AO2 $
53144K9L2 9L220160831083010108/31/16 08:30:31  5-MIN K9L2 311630Z AUTO 00000KT 10SM CLR 26/05 A2994 2280 25 4100 000/00 RMK AO2 $
53144K9L2 9L220160831083510108/31/16 08:35:31  5-MIN K9L2 311635Z AUTO 00000KT 10SM CLR 26/04 A2994 2280 24 4100 000/00 RMK AO2 $
53144K9L2 9L220160831084010108/31/16 08:40:31  5-MIN K9L2 311640Z AUTO 16003KT 10SM CLR 27/04 A2994 2280 23 4200 140/03 RMK AO2 $
53144K9L2 9L220160831084510108/31/16 08:45:31  5-MIN K9L2 311645Z AUTO 00000KT 10SM CLR 27/04 A2994 2280 23 4200 000/00 RMK AO2 $
53144K9L2 9L220160831085010108/31/16 08:50:31  5-MIN K9L2 311650Z AUTO 00000KT 10SM CLR 28/04 A2994 2280 22 4300 000/00 RMK AO2 $
53144K9L2 9L220160831085511808/31/16 08:55:31  5-MIN K9L2 311655Z AUTO 00000KT 10SM CLR 28/04 A2994 2280 22 4300 000/00 RMK AO2 SLP116 T02780044 $
53144K9L2 9L220160831090010108/31/16 09:00:31  5-MIN K9L2 311700Z AUTO 00000KT 10SM CLR 28/04 A2994 2290 21 4400 000/00 RMK AO2 $
53144K9L2 9L220160831090510108/31/16 09:05:31  5-MIN K9L2 311705Z AUTO 00000KT 10SM CLR 29/04 A2994 2290 20 4400 000/00 RMK AO2 $
53144K9L2 9L220160831091010108/31/16 09:10:31  5-MIN K9L2 311710Z AUTO 00000KT 10SM CLR 29/04 A2994 2290 19 4500 000/00 RMK AO2 $
53144K9L2 9L220160831091510108/31/16 09:15:31  5-MIN K9L2 311715Z AUTO 13003KT 10SM CLR 29/04 A2994 2290 19 4500 120/03 RMK AO2 $
53144K9L2 9L220160831092010108/31/16 09:20:31  5-MIN K9L2 311720Z AUTO 14003KT 10SM CLR 30/03 A2994 2290 18 4500 130/03 RMK AO2 $
53144K9L2 9L220160831092510108/31/16 09:25:31  5-MIN K9L2 311725Z AUTO 00000KT 10SM CLR 31/03 A2994 2290 16 4600 000/00 RMK AO2 $
53144K9L2 9L220160831093010108/31/16 09:30:31  5-MIN K9L2 311730Z AUTO 00000KT 10SM CLR 31/03 A2994 2290 16 4700 000/00 RMK AO2 $
53144K9L2 9L220160831093510108/31/16 09:35:31  5-MIN K9L2 311735Z AUTO 00000KT 10SM CLR 31/03 A2994 2290 16 4700 000/00 RMK AO2 $
53144K9L2 9L220160831094010108/31/16 09:40:31  5-MIN K9L2 311740Z AUTO 00000KT 10SM CLR 32/03 A2994 2290 15 4800 000/00 RMK AO2 $
53144K9L2 9L220160831094510108/31/16 09:45:31  5-MIN K9L2 311745Z AUTO 00000KT 10SM CLR 32/03 A2994 2290 15 4800 000/00 RMK AO2 $
53144K9L2 9L220160831095010108/31/16 09:50:31  5-MIN K9L2 311750Z AUTO 13003KT 10SM CLR 32/03 A2993 2290 15 4800 120/03 RMK AO2 $
53144K9L2 9L220160831095513608/31/16 09:55:31  5-MIN K9L2 311755Z AUTO 14003KT 10SM CLR 33/03 A2993 2290 14 4900 130/03 RMK AO2 SLP111 T03280028 10328 20178 53010 $
53144K9L2 9L220160831100010108/31/16 10:00:31  5-MIN K9L2 311800Z AUTO 13003KT 10SM CLR 33/02 A2993 2290 13 4900 120/03 RMK AO2 $
53144K9L2 9L220160831100510108/31/16 10:05:31  5-MIN K9L2 311805Z AUTO 15003KT 10SM CLR 33/02 A2993 2290 13 4900 140/03 RMK AO2 $
53144K9L2 9L220160831101010108/31/16 10:10:31  5-MIN K9L2 311810Z AUTO 00000KT 10SM CLR 34/02 A2993 2290 13 5000 000/00 RMK AO2 $
53144K9L2 9L220160831101510108/31/16 10:15:31  5-MIN K9L2 311815Z AUTO 19005KT 10SM CLR 34/02 A2993 2300 13 5000 170/05 RMK AO2 $
53144K9L2 9L220160831102010108/31/16 10:20:31  5-MIN K9L2 311820Z AUTO 22009KT 10SM CLR 36/01 A2993 2300 10 5200 210/09 RMK AO2 $
53144K9L2 9L220160831102510808/31/16 10:25:31  5-MIN K9L2 311825Z AUTO 22010G19KT 10SM CLR 37/M02 A2993 2300 08 5300 210/10G19 RMK AO2 $
53144K9L2 9L220160831103010808/31/16 10:30:31  5-MIN K9L2 311830Z AUTO 22012G19KT 10SM CLR 37/M02 A2992 2300 08 5300 210/12G19 RMK AO2 $
53144K9L2 9L220160831103510808/31/16 10:35:31  5-MIN K9L2 311835Z AUTO 22011G21KT 10SM CLR 37/M02 A2992 2300 08 5300 200/11G21 RMK AO2 $
53144K9L2 9L220160831104010808/31/16 10:40:31  5-MIN K9L2 311840Z AUTO 24011G21KT 10SM CLR 37/M02 A2992 2300 08 5300 230/11G21 RMK AO2 $
53144K9L2 9L220160831104510808/31/16 10:45:31  5-MIN K9L2 311845Z AUTO 22016G21KT 10SM CLR 38/M02 A2992 2300 07 5500 200/16G21 RMK AO2 $
53144K9L2 9L220160831105010808/31/16 10:50:31  5-MIN K9L2 311850Z AUTO 21015G22KT 10SM CLR 38/M02 A2992 2310 07 5500 200/15G22 RMK AO2 $
53144K9L2 9L220160831105512508/31/16 10:55:31  5-MIN K9L2 311855Z AUTO 23018G22KT 10SM CLR 38/M02 A2992 2310 08 5500 220/18G22 RMK AO2 SLP103 T03831017 $
53144K9L2 9L220160831110010808/31/16 11:00:31  5-MIN K9L2 311900Z AUTO 23014G22KT 10SM CLR 38/M02 A2991 2310 08 5500 220/14G22 RMK AO2 $
53144K9L2 9L220160831110512608/31/16 11:05:31  5-MIN K9L2 311905Z AUTO 23021G27KT 10SM CLR 38/M01 A2991 2310 08 5500 220/21G27 RMK AO2 PK WND 23027/1905 $
53144K9L2 9L220160831111012608/31/16 11:10:31  5-MIN K9L2 311910Z AUTO 24018G27KT 10SM CLR 38/M01 A2991 2310 08 5500 220/18G27 RMK AO2 PK WND 23027/1905 $
53144K9L2 9L220160831111512608/31/16 11:15:31  5-MIN K9L2 311915Z AUTO 23016G25KT 10SM CLR 38/M01 A2991 2310 08 5500 210/16G25 RMK AO2 PK WND 23027/1905 $
53144K9L2 9L220160831112012608/31/16 11:20:31  5-MIN K9L2 311920Z AUTO 24014G20KT 10SM CLR 38/M02 A2991 2310 08 5500 230/14G20 RMK AO2 PK WND 23027/1905 $
53144K9L2 9L220160831112512608/31/16 11:25:31  5-MIN K9L2 311925Z AUTO 23019G23KT 10SM CLR 39/M02 A2991 2320 07 5500 220/19G23 RMK AO2 PK WND 23027/1905 $
53144K9L2 9L220160831113012608/31/16 11:30:31  5-MIN K9L2 311930Z AUTO 25016G23KT 10SM CLR 38/M02 A2991 2320 07 5500 230/16G23 RMK AO2 PK WND 23027/1905 $
53144K9L2 9L220160831113512608/31/16 11:35:31  5-MIN K9L2 311935Z AUTO 24019G27KT 10SM CLR 39/M02 A2990 2320 07 5500 220/19G27 RMK AO2 PK WND 25027/1934 $
53144K9L2 9L220160831114012608/31/16 11:40:31  5-MIN K9L2 311940Z AUTO 24017G27KT 10SM CLR 39/M02 A2990 2320 07 5500 230/17G27 RMK AO2 PK WND 25027/1934 $
53144K9L2 9L220160831114512608/31/16 11:45:31  5-MIN K9L2 311945Z AUTO 23018G23KT 10SM CLR 39/M02 A2990 2320 07 5500 220/18G23 RMK AO2 PK WND 25027/1934 $
53144K9L2 9L220160831115012608/31/16 11:50:31  5-MIN K9L2 311950Z AUTO 26018G26KT 10SM CLR 39/M02 A2990 2320 07 5500 240/18G26 RMK AO2 PK WND 25027/1934 $
53144K9L2 9L220160831115514308/31/16 11:55:31  5-MIN K9L2 311955Z AUTO 24016G26KT 10SM CLR 39/M02 A2990 2330 07 5500 230/16G26 RMK AO2 PK WND 25027/1934 SLP096 T03891022 $
53144K9L2 9L220160831120010808/31/16 12:00:31  5-MIN K9L2 312000Z AUTO 25019G24KT 10SM CLR 39/M02 A2990 2330 07 5500 240/19G24 RMK AO2 $
53144K9L2 9L220160831120510808/31/16 12:05:31  5-MIN K9L2 312005Z AUTO 24016G25KT 10SM CLR 39/M02 A2989 2330 07 5600 230/16G25 RMK AO2 $
53144K9L2 9L220160831121010808/31/16 12:10:31  5-MIN K9L2 312010Z AUTO 24020G25KT 10SM CLR 39/M02 A2989 2330 07 5600 220/20G25 RMK AO2 $
53144K9L2 9L220160831121510808/31/16 12:15:31  5-MIN K9L2 312015Z AUTO 24016G25KT 10SM CLR 39/M02 A2989 2330 07 5500 230/16G25 RMK AO2 $
53144K9L2 9L220160831122012608/31/16 12:20:31  5-MIN K9L2 312020Z AUTO 24020G27KT 10SM CLR 39/M02 A2989 2330 07 5600 230/20G27 RMK AO2 PK WND 25027/2020 $
53144K9L2 9L220160831122512608/31/16 12:25:31  5-MIN K9L2 312025Z AUTO 23013G27KT 10SM CLR 39/M02 A2989 2330 07 5600 220/13G27 RMK AO2 PK WND 24027/2022 $
53144K9L2 9L220160831123012608/31/16 12:30:31  5-MIN K9L2 312030Z AUTO 26018G27KT 10SM CLR 39/M02 A2989 2330 07 5600 240/18G27 RMK AO2 PK WND 24027/2022 $
53144K9L2 9L220160831123512608/31/16 12:35:31  5-MIN K9L2 312035Z AUTO 25017G26KT 10SM CLR 39/M02 A2988 2340 07 5600 240/17G26 RMK AO2 PK WND 24027/2022 $
53144K9L2 9L220160831124012608/31/16 12:40:31  5-MIN K9L2 312040Z AUTO 23018G26KT 10SM CLR 39/M02 A2988 2340 07 5600 220/18G26 RMK AO2 PK WND 24027/2022 $
53144K9L2 9L220160831124512608/31/16 12:45:31  5-MIN K9L2 312045Z AUTO 22018G27KT 10SM CLR 39/M02 A2988 2340 07 5600 210/18G27 RMK AO2 PK WND 22027/2045 $
53144K9L2 9L220160831125012608/31/16 12:50:31  5-MIN K9L2 312050Z AUTO 24022G34KT 10SM CLR 39/M02 A2988 2340 07 5600 220/22G34 RMK AO2 PK WND 25034/2050 $
53144K9L2 9L220160831125514908/31/16 12:55:31  5-MIN K9L2 312055Z AUTO 22022G34KT 10SM CLR 39/M01 A2988 2340 07 5600 210/22G34 RMK AO2 PK WND 25034/2050 SLP091 T03941011 58001 $
53144K9L2 9L220160831130012608/31/16 13:00:31  5-MIN K9L2 312100Z AUTO 23021G28KT 10SM CLR 39/M02 A2988 2340 07 5600 220/21G28 RMK AO2 PK WND 22028/2100 $
53144K9L2 9L220160831130512608/31/16 13:05:31  5-MIN K9L2 312105Z AUTO 24018G28KT 10SM CLR 39/M02 A2988 2340 07 5600 230/18G28 RMK AO2 PK WND 23028/2102 $
53144K9L2 9L220160831131012608/31/16 13:10:31  5-MIN K9L2 312110Z AUTO 23020G28KT 10SM CLR 39/M02 A2988 2340 07 5600 220/20G28 RMK AO2 PK WND 23028/2102 $
53144K9L2 9L220160831131512608/31/16 13:15:31  5-MIN K9L2 312115Z AUTO 23019G26KT 10SM CLR 39/M02 A2988 2340 07 5600 220/19G26 RMK AO2 PK WND 23028/2102 $
53144K9L2 9L220160831132012608/31/16 13:20:31  5-MIN K9L2 312120Z AUTO 23021G27KT 10SM CLR 39/M02 A2987 2350 07 5600 210/21G27 RMK AO2 PK WND 23028/2102 $
53144K9L2 9L220160831132512608/31/16 13:25:31  5-MIN K9L2 312125Z AUTO 25021G28KT 10SM CLR 39/M02 A2987 2350 07 5600 240/21G28 RMK AO2 PK WND 23028/2121 $
53144K9L2 9L220160831133012608/31/16 13:30:31  5-MIN K9L2 312130Z AUTO 23022G29KT 10SM CLR 40/M02 A2987 2350 07 5700 210/22G29 RMK AO2 PK WND 22029/2130 $
53144K9L2 9L220160831133512608/31/16 13:35:31  5-MIN K9L2 312135Z AUTO 24019G30KT 10SM CLR 39/M02 A2987 2350 07 5600 230/19G30 RMK AO2 PK WND 23030/2131 $
53144K9L2 9L220160831134012608/31/16 13:40:31  5-MIN K9L2 312140Z AUTO 23019G30KT 10SM CLR 40/M02 A2986 2350 07 5700 220/19G30 RMK AO2 PK WND 23030/2131 $
53144K9L2 9L220160831134512608/31/16 13:45:31  5-MIN K9L2 312145Z AUTO 22022G30KT 10SM CLR 39/M02 A2986 2360 07 5600 210/22G30 RMK AO2 PK WND 22030/2145 $
53144K9L2 9L220160831135012608/31/16 13:50:31  5-MIN K9L2 312150Z AUTO 23026G31KT 10SM CLR 39/M02 A2986 2360 07 5600 220/26G31 RMK AO2 PK WND 23031/2150 $
53144K9L2 9L220160831135514308/31/16 13:55:31  5-MIN K9L2 312155Z AUTO 23021G31KT 10SM CLR 39/M02 A2986 2360 07 5600 220/21G31 RMK AO2 PK WND 23031/2150 SLP084 T03941017 $
53144K9L2 9L220160831140012608/31/16 14:00:31  5-MIN K9L2 312200Z AUTO 23022G33KT 10SM CLR 39/M02 A2986 2360 07 5600 220/22G33 RMK AO2 PK WND 22033/2157 $
53144K9L2 9L220160831140512608/31/16 14:05:31  5-MIN K9L2 312205Z AUTO 25026G33KT 10SM CLR 39/M02 A2985 2360 07 5600 230/26G33 RMK AO2 PK WND 25033/2205 $
53144K9L2 9L220160831141012608/31/16 14:10:31  5-MIN K9L2 312210Z AUTO 24020G33KT 10SM CLR 39/M01 A2986 2360 08 5600 230/20G33 RMK AO2 PK WND 25033/2205 $
53144K9L2 9L220160831141512608/31/16 14:15:31  5-MIN K9L2 312215Z AUTO 23021G28KT 10SM CLR 39/M01 A2986 2360 07 5600 220/21G28 RMK AO2 PK WND 25033/2205 $
53144K9L2 9L220160831142012608/31/16 14:20:31  5-MIN K9L2 312220Z AUTO 23021G28KT 10SM CLR 39/M01 A2986 2360 08 5600 220/21G28 RMK AO2 PK WND 25033/2205 $
53144K9L2 9L220160831142512608/31/16 14:25:31  5-MIN K9L2 312225Z AUTO 22021G27KT 10SM CLR 39/M01 A2986 2360 08 5600 210/21G27 RMK AO2 PK WND 25033/2205 $
53144K9L2 9L220160831143012608/31/16 14:30:31  5-MIN K9L2 312230Z AUTO 23020G30KT 10SM CLR 39/M01 A2986 2360 08 5600 220/20G30 RMK AO2 PK WND 25033/2205 $
53144K9L2 9L220160831143512608/31/16 14:35:31  5-MIN K9L2 312235Z AUTO 23020G30KT 10SM CLR 39/M01 A2986 2360 07 5600 220/20G30 RMK AO2 PK WND 25033/2205 $
53144K9L2 9L220160831144012608/31/16 14:40:31  5-MIN K9L2 312240Z AUTO 24023G29KT 10SM CLR 39/M01 A2986 2360 08 5600 230/23G29 RMK AO2 PK WND 25033/2205 $
53144K9L2 9L220160831144512608/31/16 14:45:31  5-MIN K9L2 312245Z AUTO 24022G29KT 10SM CLR 39/M01 A2986 2360 08 5600 230/22G29 RMK AO2 PK WND 25033/2205 $
53144K9L2 9L220160831145012608/31/16 14:50:31  5-MIN K9L2 312250Z AUTO 24021G28KT 10SM CLR 38/M01 A2986 2360 08 5500 220/21G28 RMK AO2 PK WND 25033/2205 $
53144K9L2 9L220160831145514308/31/16 14:55:31  5-MIN K9L2 312255Z AUTO 24022G28KT 10SM CLR 38/M01 A2986 2360 08 5500 230/22G28 RMK AO2 PK WND 25033/2205 SLP087 T03831011 $
53144K9L2 9L220160831150012608/31/16 15:00:31  5-MIN K9L2 312300Z AUTO 24022G28KT 10SM CLR 38/M01 A2986 2360 08 5500 220/22G28 RMK AO2 PK WND 24028/2258 $
53144K9L2 9L220160831150512608/31/16 15:05:31  5-MIN K9L2 312305Z AUTO 24020G28KT 10SM CLR 38/M01 A2986 2360 08 5500 220/20G28 RMK AO2 PK WND 24028/2258 $
53144K9L2 9L220160831151012608/31/16 15:10:31  5-MIN K9L2 312310Z AUTO 24022G28KT 10SM CLR 38/M01 A2986 2360 08 5500 220/22G28 RMK AO2 PK WND 23028/2310 $
53144K9L2 9L220160831151512608/31/16 15:15:31  5-MIN K9L2 312315Z AUTO 24019G28KT 10SM CLR 38/M01 A2986 2360 08 5500 230/19G28 RMK AO2 PK WND 23028/2310 $
53144K9L2 9L220160831152012008/31/16 15:20:31  5-MIN K9L2 312320Z AUTO 24017KT 10SM CLR 38/M02 A2986 2360 08 5500 230/17 RMK AO2 PK WND 23028/2310 $
53144K9L2 9L220160831152512608/31/16 15:25:31  5-MIN K9L2 312325Z AUTO 24020G28KT 10SM CLR 38/M01 A2986 2360 08 5500 230/20G28 RMK AO2 PK WND 24028/2325 $
53144K9L2 9L220160831153012608/31/16 15:30:31  5-MIN K9L2 312330Z AUTO 24020G28KT 10SM CLR 38/M02 A2986 2360 08 5500 230/20G28 RMK AO2 PK WND 24028/2325 $
53144K9L2 9L220160831153512608/31/16 15:35:31  5-MIN K9L2 312335Z AUTO 23019G27KT 10SM CLR 38/M02 A2986 2360 08 5500 220/19G27 RMK AO2 PK WND 24028/2325 $
53144K9L2 9L220160831154012608/31/16 15:40:31  5-MIN K9L2 312340Z AUTO 24022G26KT 10SM CLR 38/M02 A2986 2360 08 5500 230/22G26 RMK AO2 PK WND 24028/2325 $
53144K9L2 9L220160831154512608/31/16 15:45:31  5-MIN K9L2 312345Z AUTO 24022G28KT 10SM CLR 38/M02 A2986 2360 08 5500 220/22G28 RMK AO2 PK WND 24028/2345 $
53144K9L2 9L220160831155012608/31/16 15:50:31  5-MIN K9L2 312350Z AUTO 24018G28KT 10SM CLR 38/M02 A2986 2360 08 5500 230/18G28 RMK AO2 PK WND 24028/2345 $
53144K9L2 9L220160831155516108/31/16 15:55:31  5-MIN K9L2 312355Z AUTO 24022G27KT 10SM CLR 38/M02 A2986 2360 08 5500 230/22G27 RMK AO2 PK WND 24028/2345 SLP086 T03781022 10400 20328 58018 $
53144K9L2 9L220160831160010808/31/16 16:00:31  5-MIN K9L2 010000Z AUTO 23020G28KT 10SM CLR 38/M02 A2986 2360 08 5500 210/20G28 RMK AO2 $
53144K9L2 9L220160831160512608/31/16 16:05:31  5-MIN K9L2 010005Z AUTO 24019G28KT 10SM CLR 37/M02 A2986 2360 08 5400 230/19G28 RMK AO2 PK WND 24026/0005 $
53144K9L2 9L220160831161012608/31/16 16:10:31  5-MIN K9L2 010010Z AUTO 24019G26KT 10SM CLR 38/M03 A2986 2360 07 5500 230/19G26 RMK AO2 PK WND 24026/0010 $
53144K9L2 9L220160831161512608/31/16 16:15:31  5-MIN K9L2 010015Z AUTO 22020G26KT 10SM CLR 38/M02 A2986 2360 08 5500 210/20G26 RMK AO2 PK WND 23026/0014 $
53144K9L2 9L220160831162012608/31/16 16:20:31  5-MIN K9L2 010020Z AUTO 23019G26KT 10SM CLR 37/M03 A2986 2360 07 5400 220/19G26 RMK AO2 PK WND 23026/0014 $
53144K9L2 9L220160831162512608/31/16 16:25:31  5-MIN K9L2 010025Z AUTO 23019G25KT 10SM CLR 37/M03 A2986 2360 07 5400 220/19G25 RMK AO2 PK WND 23026/0014 $
53144K9L2 9L220160831163012608/31/16 16:30:31  5-MIN K9L2 010030Z AUTO 23019G25KT 10SM CLR 37/M03 A2986 2360 07 5400 210/19G25 RMK AO2 PK WND 23026/0014 $
53144K9L2 9L220160831163512008/31/16 16:35:31  5-MIN K9L2 010035Z AUTO 23020KT 10SM CLR 37/M03 A2986 2360 07 5400 210/20 RMK AO2 PK WND 22026/0033 $
53144K9L2 9L220160831164012608/31/16 16:40:31  5-MIN K9L2 010040Z AUTO 23019G26KT 10SM CLR 37/M03 A2986 2360 08 5300 220/19G26 RMK AO2 PK WND 22026/0033 $
53144K9L2 9L220160831164512608/31/16 16:45:31  5-MIN K9L2 010045Z AUTO 23019G25KT 10SM CLR 37/M03 A2986 2360 08 5300 220/19G25 RMK AO2 PK WND 22026/0033 $
53144K9L2 9L220160831165012608/31/16 16:50:31  5-MIN K9L2 010050Z AUTO 24019G25KT 10SM CLR 37/M03 A2986 2360 08 5300 230/19G25 RMK AO2 PK WND 22026/0033 $
53144K9L2 9L220160831165513708/31/16 16:55:31  5-MIN K9L2 010055Z AUTO 23019KT 10SM CLR 37/M03 A2986 2360 08 5300 220/19 RMK AO2 PK WND 22026/0033 SLP089 T03671028 $
53144K9L2 9L220160831170010808/31/16 17:00:31  5-MIN K9L2 010100Z AUTO 23019G24KT 10SM CLR 36/M02 A2986 2360 08 5300 220/19G24 RMK AO2 $
53144K9L2 9L220160831170510808/31/16 17:05:31  5-MIN K9L2 010105Z AUTO 24018G24KT 10SM CLR 36/M03 A2986 2360 08 5300 220/18G24 RMK AO2 $
53144K9L2 9L220160831171010208/31/16 17:10:31  5-MIN K9L2 010110Z AUTO 23016KT 10SM CLR 36/M03 A2986 2360 08 5300 220/16 RMK AO2 $
53144K9L2 9L220160831171510808/31/16 17:15:31  5-MIN K9L2 010115Z AUTO 23019G23KT 10SM CLR 36/M02 A2986 2360 08 5300 220/19G23 RMK AO2 $
53144K9L2 9L220160831172010808/31/16 17:20:31  5-MIN K9L2 010120Z AUTO 24017G23KT 10SM CLR 36/M02 A2986 2360 09 5200 220/17G23 RMK AO2 $
53144K9L2 9L220160831172510808/31/16 17:25:31  5-MIN K9L2 010125Z AUTO 24015G23KT 10SM CLR 36/M03 A2986 2360 08 5200 220/15G23 RMK AO2 $
53144K9L2 9L220160831173010208/31/16 17:30:31  5-MIN K9L2 010130Z AUTO 23015KT 10SM CLR 36/M03 A2986 2360 08 5200 220/15 RMK AO2 $
53144K9L2 9L220160831173510208/31/16 17:35:31  5-MIN K9L2 010135Z AUTO 23014KT 10SM CLR 35/M02 A2986 2360 09 5200 220/14 RMK AO2 $
53144K9L2 9L220160831174010208/31/16 17:40:31  5-MIN K9L2 010140Z AUTO 24015KT 10SM CLR 35/M02 A2986 2360 09 5200 220/15 RMK AO2 $
53144K9L2 9L220160831174510808/31/16 17:45:31  5-MIN K9L2 010145Z AUTO 23015G21KT 10SM CLR 35/M03 A2986 2360 08 5200 220/15G21 RMK AO2 $
53144K9L2 9L220160831175010808/31/16 17:50:31  5-MIN K9L2 010150Z AUTO 23014G19KT 10SM CLR 34/M03 A2986 2360 09 5100 220/14G19 RMK AO2 $
53144K9L2 9L220160831175511908/31/16 17:55:31  5-MIN K9L2 010155Z AUTO 23011KT 10SM CLR 34/M03 A2986 2350 09 5100 220/11 RMK AO2 SLP092 T03441028 $
53144K9L2 9L220160831180010208/31/16 18:00:31  5-MIN K9L2 010200Z AUTO 23014KT 10SM CLR 34/M03 A2987 2350 09 5100 220/14 RMK AO2 $
53144K9L2 9L220160831180510208/31/16 18:05:31  5-MIN K9L2 010205Z AUTO 23013KT 10SM CLR 34/M03 A2987 2350 09 5000 220/13 RMK AO2 $
53144K9L2 9L220160831181010208/31/16 18:10:31  5-MIN K9L2 010210Z AUTO 23013KT 10SM CLR 34/M03 A2987 2350 09 5000 220/13 RMK AO2 $
53144K9L2 9L220160831181510208/31/16 18:15:31  5-MIN K9L2 010215Z AUTO 23012KT 10SM CLR 34/M04 A2987 2350 08 5000 220/12 RMK AO2 $
53144K9L2 9L220160831182010208/31/16 18:20:31  5-MIN K9L2 010220Z AUTO 23013KT 10SM CLR 33/M04 A2987 2350 09 5000 220/13 RMK AO2 $
53144K9L2 9L220160831182510208/31/16 18:25:31  5-MIN K9L2 010225Z AUTO 23013KT 10SM CLR 33/M04 A2987 2350 09 5000 220/13 RMK AO2 $
53144K9L2 9L220160831183010208/31/16 18:30:31  5-MIN K9L2 010230Z AUTO 23013KT 10SM CLR 33/M04 A2987 2350 09 5000 210/13 RMK AO2 $
53144K9L2 9L220160831183510208/31/16 18:35:31  5-MIN K9L2 010235Z AUTO 23012KT 10SM CLR 33/M03 A2987 2350 09 4900 220/12 RMK AO2 $
53144K9L2 9L220160831184010208/31/16 18:40:31  5-MIN K9L2 010240Z AUTO 23012KT 10SM CLR 33/M02 A2987 2350 10 4900 220/12 RMK AO2 $
53144K9L2 9L220160831184510208/31/16 18:45:31  5-MIN K9L2 010245Z AUTO 24011KT 10SM CLR 32/M02 A2987 2350 11 4900 220/11 RMK AO2 $
53144K9L2 9L220160831185010208/31/16 18:50:31  5-MIN K9L2 010250Z AUTO 24012KT 10SM CLR 32/M01 A2987 2350 12 4900 220/12 RMK AO2 $
53144K9L2 9L220160831185512408/31/16 18:55:31  5-MIN K9L2 010255Z AUTO 24010KT 10SM CLR 32/00 A2987 2350 13 4800 230/10 RMK AO2 SLP095 T03170000 56006 $
53144K9L2 9L220160831190010108/31/16 19:00:31  5-MIN K9L2 010300Z AUTO 24012KT 10SM CLR 32/01 A2987 2350 13 4800 220/12 RMK AO2 $
53144K9L2 9L220160831190510108/31/16 19:05:31  5-MIN K9L2 010305Z AUTO 23011KT 10SM CLR 32/01 A2987 2350 14 4800 220/11 RMK AO2 $
53144K9L2 9L220160831191010108/31/16 19:10:31  5-MIN K9L2 010310Z AUTO 24011KT 10SM CLR 31/01 A2988 2340 14 4700 220/11 RMK AO2 $
53144K9L2 9L220160831191510108/31/16 19:15:31  5-MIN K9L2 010315Z AUTO 24012KT 10SM CLR 31/02 A2988 2340 15 4700 220/12 RMK AO2 $
53144K9L2 9L220160831192010108/31/16 19:20:31  5-MIN K9L2 010320Z AUTO 23013KT 10SM CLR 31/02 A2988 2340 15 4700 220/13 RMK AO2 $
53144K9L2 9L220160831192510108/31/16 19:25:31  5-MIN K9L2 010325Z AUTO 23012KT 10SM CLR 31/02 A2988 2340 15 4700 220/12 RMK AO2 $
53144K9L2 9L220160831193010108/31/16 19:30:31  5-MIN K9L2 010330Z AUTO 24014KT 10SM CLR 31/02 A2988 2340 16 4700 220/14 RMK AO2 $
53144K9L2 9L220160831193510108/31/16 19:35:31  5-MIN K9L2 010335Z AUTO 24013KT 10SM CLR 31/03 A2989 2340 17 4700 220/13 RMK AO2 $
53144K9L2 9L220160831194010108/31/16 19:40:31  5-MIN K9L2 010340Z AUTO 24013KT 10SM CLR 30/04 A2989 2330 18 4600 220/13 RMK AO2 $
53144K9L2 9L220160831194510108/31/16 19:45:31  5-MIN K9L2 010345Z AUTO 24013KT 10SM CLR 30/04 A2989 2330 19 4600 230/13 RMK AO2 $
53144K9L2 9L220160831195010708/31/16 19:50:31  5-MIN K9L2 010350Z AUTO 24013G19KT 10SM CLR 30/04 A2989 2330 19 4600 230/13G19 RMK AO2 $
53144K9L2 9L220160831195511808/31/16 19:55:31  5-MIN K9L2 010355Z AUTO 24012KT 10SM CLR 30/04 A2989 2330 19 4600 230/12 RMK AO2 SLP102 T03000044 $
53144K9L2 9L220160831200010108/31/16 20:00:31  5-MIN K9L2 010400Z AUTO 25012KT 10SM CLR 29/04 A2990 2320 20 4500 230/12 RMK AO2 $
53144K9L2 9L220160831200510108/31/16 20:05:31  5-MIN K9L2 010405Z AUTO 25012KT 10SM CLR 29/04 A2990 2320 20 4500 230/12 RMK AO2 $
53144K9L2 9L220160831201010108/31/16 20:10:31  5-MIN K9L2 010410Z AUTO 25011KT 10SM CLR 29/05 A2990 2320 21 4500 240/11 RMK AO2 $
53144K9L2 9L220160831201510108/31/16 20:15:31  5-MIN K9L2 010415Z AUTO 26012KT 10SM CLR 29/05 A2990 2320 21 4500 250/12 RMK AO2 $
53144K9L2 9L220160831202010708/31/16 20:20:31  5-MIN K9L2 010420Z AUTO 25011G18KT 10SM CLR 29/04 A2990 2320 20 4500 240/11G18 RMK AO2 $
53144K9L2 9L220160831202510708/31/16 20:25:31  5-MIN K9L2 010425Z AUTO 25014G20KT 10SM CLR 29/05 A2990 2320 21 4500 230/14G20 RMK AO2 $
53144K9L2 9L220160831203010108/31/16 20:30:31  5-MIN K9L2 010430Z AUTO 24015KT 10SM CLR 29/05 A2990 2320 21 4500 230/15 RMK AO2 $
53144K9L2 9L220160831203510108/31/16 20:35:31  5-MIN K9L2 010435Z AUTO 24014KT 10SM CLR 29/05 A2990 2320 21 4500 230/14 RMK AO2 $
53144K9L2 9L220160831204010108/31/16 20:40:31  5-MIN K9L2 010440Z AUTO 25015KT 10SM CLR 28/05 A2990 2320 23 4300 230/15 RMK AO2 $
53144K9L2 9L220160831204510108/31/16 20:45:31  5-MIN K9L2 010445Z AUTO 25012KT 10SM CLR 28/05 A2991 2320 22 4400 230/12 RMK AO2 $
53144K9L2 9L220160831205010108/31/16 20:50:31  5-MIN K9L2 010450Z AUTO 24011KT 10SM CLR 28/05 A2991 2310 23 4300 230/11 RMK AO2 $
53144K9L2 9L220160831205511808/31/16 20:55:31  5-MIN K9L2 010455Z AUTO 24012KT 10SM CLR 28/05 A2991 2310 22 4400 230/12 RMK AO2 SLP106 T02830050 $
53144K9L2 9L220160831210010108/31/16 21:00:31  5-MIN K9L2 010500Z AUTO 24012KT 10SM CLR 28/05 A2991 2310 23 4300 230/12 RMK AO2 $
