03949KAQV AQV20160201013511202/01/16 01:35:31  5-MIN KAQV 010735Z AUTO VRB03KT 3SM BR OVC006 17/17 A2987 420 96 800 VRB/03 RMK AO2 T01720167
03949KAQV AQV20160201014011202/01/16 01:40:31  5-MIN KAQV 010740Z AUTO VRB03KT 3SM BR OVC006 17/17 A2987 420 96 800 VRB/03 RMK AO2 T01720167
03949KAQV AQV20160201014512402/01/16 01:45:31  5-MIN KAQV 010745Z AUTO 21003KT 4SM BR OVC006 18/17 A2987 420 93 900 210/03 RMK AO2 CIG 005V010 T01780167
03949KAQV AQV20160201015013102/01/16 01:50:31  5-MIN KAQV 010750Z AUTO VRB05KT 4SM BR OVC006 18/17 A2987 430 96 900 VRB/05 RMK AO2 CIG 005V010 SLP111 T01780172
03949KAQV AQV20160201015513102/01/16 01:55:31  5-MIN KAQV 010755Z AUTO VRB03KT 5SM BR OVC006 18/17 A2987 420 96 900 VRB/03 RMK AO2 CIG 005V010 SLP111 T01780172
03949KAQV AQV20160201020013102/01/16 02:00:31  5-MIN KAQV 010800Z AUTO VRB04KT 5SM BR BKN006 OVC014 18/17 A2987 430 96 900 VRB/04 RMK AO2 CIG 005V010 T01780172
03949KAQV AQV20160201020513102/01/16 02:05:31  5-MIN KAQV 010805Z AUTO 23004KT 5SM BR BKN006 OVC014 18/17 A2987 420 96 900 220/04 RMK AO2 CIG 005V010 T01780172
03949KAQV AQV20160201021013102/01/16 02:10:31  5-MIN KAQV 010810Z AUTO VRB05KT 5SM BR BKN007 OVC014 18/17 A2987 420 96 900 VRB/05 RMK AO2 CIG 005V010 T01780172
03949KAQV AQV20160201021513802/01/16 02:15:31  5-MIN KAQV 010815Z AUTO 00000KT 5SM BR BKN007 BKN014 OVC021 18/17 A2987 430 96 900 000/00 RMK AO2 CIG 005V010 T01780172
03949KAQV AQV20160201022013102/01/16 02:20:31  5-MIN KAQV 010820Z AUTO VRB03KT 5SM BR BKN006 OVC021 18/17 A2987 430 96 900 VRB/03 RMK AO2 CIG 005V010 T01780172
03949KAQV AQV20160201022513102/01/16 02:25:31  5-MIN KAQV 010825Z AUTO VRB04KT 5SM BR BKN006 OVC021 18/17 A2986 430 96 900 VRB/04 RMK AO2 CIG 005V010 T01780172
03949KAQV AQV20160201023011902/01/16 02:30:31  5-MIN KAQV 010830Z AUTO 23003KT 5SM BR BKN006 OVC021 18/17 A2986 430 96 900 220/03 RMK AO2 T01780172
03949KAQV AQV20160201023511902/01/16 02:35:31  5-MIN KAQV 010835Z AUTO VRB04KT 5SM BR BKN007 OVC023 18/17 A2986 430 96 900 VRB/04 RMK AO2 T01780172
03949KAQV AQV20160201024011902/01/16 02:40:31  5-MIN KAQV 010840Z AUTO 19004KT 5SM BR BKN007 OVC023 18/17 A2987 430 93 900 190/04 RMK AO2 T01780167
03949KAQV AQV20160201024511902/01/16 02:45:31  5-MIN KAQV 010845Z AUTO 20003KT 5SM BR BKN007 OVC023 18/17 A2987 430 93 900 200/03 RMK AO2 T01780167
03949KAQV AQV20160201025013202/01/16 02:50:31  5-MIN KAQV 010850Z AUTO VRB03KT 5SM BR BKN007 OVC023 18/17 A2987 430 93 900 VRB/03 RMK AO2 SLP111 T01780167 50003
03949KAQV AQV20160201025513202/01/16 02:55:31  5-MIN KAQV 010855Z AUTO 21005KT 4SM BR BKN007 OVC023 18/17 A2986 430 93 900 210/05 RMK AO2 SLP110 T01780167 50003
03949KAQV AQV20160201030011902/01/16 03:00:31  5-MIN KAQV 010900Z AUTO VRB03KT 4SM BR BKN006 OVC023 18/17 A2986 430 93 900 VRB/03 RMK AO2 T01780167
03949KAQV AQV20160201030511902/01/16 03:05:31  5-MIN KAQV 010905Z AUTO 00000KT 4SM BR SCT006 BKN023 17/17 A2986 430 96 800 000/00 RMK AO2 T01720167
03949KAQV AQV20160201031011902/01/16 03:10:31  5-MIN KAQV 010910Z AUTO 00000KT 4SM BR SCT006 BKN023 17/17 A2986 430 96 800 000/00 RMK AO2 T01720167
03949KAQV AQV20160201031511902/01/16 03:15:31  5-MIN KAQV 010915Z AUTO 00000KT 4SM BR SCT006 BKN023 17/17 A2986 430 96 800 000/00 RMK AO2 T01720167
03949KAQV AQV20160201032011902/01/16 03:20:31  5-MIN KAQV 010920Z AUTO VRB03KT 4SM BR BKN006 BKN023 17/17 A2986 430 96 800 VRB/03 RMK AO2 T01720167
03949KAQV AQV20160201032511902/01/16 03:25:31  5-MIN KAQV 010925Z AUTO VRB03KT 4SM BR BKN006 BKN023 17/17 A2986 430 96 800 VRB/03 RMK AO2 T01720167
03949KAQV AQV20160201033011902/01/16 03:30:31  5-MIN KAQV 010930Z AUTO VRB04KT 4SM BR BKN005 BKN024 17/17 A2986 430 96 800 VRB/04 RMK AO2 T01720167
03949KAQV AQV20160201033507202/01/16 03:35:31  5-MIN KAQV 010935Z AUTO VRB03KT 4SM BR BKN005 OVC024 
03949KAQV AQV20160201123511102/01/16 12:35:31  5-MIN KAQV 011835Z AUTO VRB04KT 10SM OVC028 23/16 A2983 460 63 1500 VRB/04 RMK AO2 T02280156
03949KAQV AQV20160201124011102/01/16 12:40:31  5-MIN KAQV 011840Z AUTO 18008KT 10SM OVC028 23/15 A2983 460 61 1500 170/08 RMK AO2 T02280150
03949KAQV AQV20160201124511102/01/16 12:45:31  5-MIN KAQV 011845Z AUTO 18008KT 10SM OVC028 22/16 A2983 460 65 1500 180/08 RMK AO2 T02220156
03949KAQV AQV20160201125011802/01/16 12:50:31  5-MIN KAQV 011850Z AUTO VRB05KT 10SM OVC028 23/16 A2982 470 61 1600 VRB/05 RMK AO2 SLP097 T02330156
03949KAQV AQV20160201125511802/01/16 12:55:31  5-MIN KAQV 011855Z AUTO 21006KT 10SM BKN028 24/16 A2982 470 59 1600 200/06 RMK AO2 SLP095 T02390156
03949KAQV AQV20160201130011102/01/16 13:00:31  5-MIN KAQV 011900Z AUTO VRB05KT 10SM BKN030 23/15 A2982 470 61 1500 VRB/05 RMK AO2 T02280150
03949KAQV AQV20160201130511102/01/16 13:05:31  5-MIN KAQV 011905Z AUTO 17006KT 10SM BKN030 23/15 A2981 480 59 1600 170/06 RMK AO2 T02330150
03949KAQV AQV20160201131011102/01/16 13:10:31  5-MIN KAQV 011910Z AUTO 15007KT 10SM BKN030 23/15 A2980 480 61 1500 150/07 RMK AO2 T02280150
03949KAQV AQV20160201131512702/01/16 13:15:31  5-MIN KAQV 011915Z AUTO 13007KT 090V170 10SM BKN030 23/15 A2980 490 59 1600 130/07 090V170 RMK AO2 T02330150
03949KAQV AQV20160201132012702/01/16 13:20:31  5-MIN KAQV 011920Z AUTO 19007KT 150V220 10SM BKN030 24/15 A2980 490 57 1700 180/07 150V220 RMK AO2 T02390150
03949KAQV AQV20160201132511102/01/16 13:25:31  5-MIN KAQV 011925Z AUTO VRB06KT 10SM BKN031 24/14 A2980 490 55 1700 VRB/06 RMK AO2 T02390144
03949KAQV AQV20160201133011102/01/16 13:30:31  5-MIN KAQV 011930Z AUTO VRB05KT 10SM SCT031 23/14 A2979 500 57 1600 VRB/05 RMK AO2 T02330144
03949KAQV AQV20160201133511102/01/16 13:35:31  5-MIN KAQV 011935Z AUTO VRB05KT 10SM SCT031 23/15 A2979 500 59 1600 VRB/05 RMK AO2 T02330150
03949KAQV AQV20160201134011102/01/16 13:40:31  5-MIN KAQV 011940Z AUTO VRB05KT 10SM BKN031 23/15 A2979 500 59 1600 VRB/05 RMK AO2 T02330150
03949KAQV AQV20160201134512702/01/16 13:45:31  5-MIN KAQV 011945Z AUTO 16007KT 120V180 10SM BKN032 24/15 A2978 500 55 1800 150/07 120V180 RMK AO2 T02440150
03949KAQV AQV20160201135013402/01/16 13:50:31  5-MIN KAQV 011950Z AUTO 15007KT 120V200 10SM BKN032 24/14 A2978 510 55 1700 140/07 120V200 RMK AO2 SLP082 T02390144
03949KAQV AQV20160201135513402/01/16 13:55:31  5-MIN KAQV 011955Z AUTO 19008KT 150V220 10SM BKN032 24/15 A2978 510 55 1800 180/08 150V220 RMK AO2 SLP081 T02440150
03949KAQV AQV20160201140011002/01/16 14:00:31  5-MIN KAQV 012000Z AUTO VRB04KT 9SM BKN032 24/15 A2978 510 55 1800 VRB/04 RMK AO2 T02440150
03949KAQV AQV20160201140511002/01/16 14:05:31  5-MIN KAQV 012005Z AUTO 18008KT 9SM BKN033 24/15 A2978 510 57 1700 180/08 RMK AO2 T02390150
03949KAQV AQV20160201141011102/01/16 14:10:31  5-MIN KAQV 012010Z AUTO VRB04KT 10SM BKN035 24/15 A2978 510 55 1800 VRB/04 RMK AO2 T02440150
03949KAQV AQV20160201141512702/01/16 14:15:31  5-MIN KAQV 012015Z AUTO 17008KT 140V200 10SM BKN035 24/15 A2978 510 55 1800 170/08 140V200 RMK AO2 T02440150
03949KAQV AQV20160201142012702/01/16 14:20:31  5-MIN KAQV 012020Z AUTO 19007KT 170V230 10SM BKN035 24/15 A2978 510 57 1700 180/07 170V230 RMK AO2 T02390150
03949KAQV AQV20160201142511102/01/16 14:25:31  5-MIN KAQV 012025Z AUTO VRB06KT 10SM BKN035 24/15 A2978 510 57 1700 VRB/06 RMK AO2 T02390150
03949KAQV AQV20160201143011102/01/16 14:30:31  5-MIN KAQV 012030Z AUTO VRB06KT 10SM BKN037 24/15 A2978 510 57 1700 VRB/06 RMK AO2 T02390150
03949KAQV AQV20160201143513302/01/16 14:35:31  5-MIN KAQV 012035Z AUTO 17008G16KT 130V200 10SM OVC037 23/14 A2978 510 57 1600 170/08G16 130V200 RMK AO2 T02330144
03949KAQV AQV20160201144013302/01/16 14:40:31  5-MIN KAQV 012040Z AUTO 18008G16KT 150V240 10SM OVC037 24/15 A2977 510 57 1700 180/08G16 150V240 RMK AO2 T02390150
03949KAQV AQV20160201144511702/01/16 14:45:31  5-MIN KAQV 012045Z AUTO 18008G16KT 10SM OVC037 24/15 A2977 520 57 1700 170/08G16 RMK AO2 T02390150
03949KAQV AQV20160201145014602/01/16 14:50:31  5-MIN KAQV 012050Z AUTO 18009G16KT 160V220 10SM BKN037 23/15 A2977 520 59 1600 170/09G16 160V220 RMK AO2 SLP078 T02330150 58014
03949KAQV AQV20160201145513002/01/16 14:55:31  5-MIN KAQV 012055Z AUTO 17007G16KT 10SM BKN037 24/15 A2977 520 57 1700 170/07G16 RMK AO2 SLP077 T02390150 58014
03949KAQV AQV20160201150012602/01/16 15:00:31  5-MIN KAQV 012100Z AUTO 17007KT 130V200 9SM BKN039 23/14 A2976 520 57 1700 160/07 130V200 RMK AO2 T02330144
03949KAQV AQV20160201150511002/01/16 15:05:31  5-MIN KAQV 012105Z AUTO 17007KT 9SM BKN039 23/14 A2976 520 57 1700 170/07 RMK AO2 T02330144
03949KAQV AQV20160201151011002/01/16 15:10:31  5-MIN KAQV 012110Z AUTO 17006KT 9SM BKN039 23/14 A2976 530 57 1700 160/06 RMK AO2 T02330144
03949KAQV AQV20160201151511002/01/16 15:15:31  5-MIN KAQV 012115Z AUTO VRB05KT 8SM SCT041 23/14 A2976 530 59 1600 VRB/05 RMK AO2 T02280144
03949KAQV AQV20160201152011602/01/16 15:20:31  5-MIN KAQV 012120Z AUTO 17010G17KT 9SM BKN042 23/14 A2975 530 57 1700 170/10G17 RMK AO2 T02330144
03949KAQV AQV20160201152511702/01/16 15:25:31  5-MIN KAQV 012125Z AUTO VRB06G17KT 10SM BKN042 23/15 A2975 530 61 1600 VRB/06G17 RMK AO2 T02280150
03949KAQV AQV20160201153011102/01/16 15:30:31  5-MIN KAQV 012130Z AUTO 16005KT 10SM BKN044 23/15 A2975 530 59 1700 160/05 RMK AO2 T02330150
03949KAQV AQV20160201153511102/01/16 15:35:31  5-MIN KAQV 012135Z AUTO 18006KT 10SM BKN044 23/15 A2975 540 59 1700 170/06 RMK AO2 T02330150
03949KAQV AQV20160201154011102/01/16 15:40:31  5-MIN KAQV 012140Z AUTO 15006KT 10SM BKN044 23/15 A2975 540 59 1700 150/06 RMK AO2 T02330150
03949KAQV AQV20160201154511002/01/16 15:45:31  5-MIN KAQV 012145Z AUTO VRB03KT 9SM OVC045 23/15 A2974 540 61 1600 VRB/03 RMK AO2 T02280150
03949KAQV AQV20160201155011702/01/16 15:50:31  5-MIN KAQV 012150Z AUTO 15003KT 8SM OVC043 23/16 A2974 540 63 1600 150/03 RMK AO2 SLP070 T02280156
03949KAQV AQV20160201155511702/01/16 15:55:31  5-MIN KAQV 012155Z AUTO VRB04KT 7SM OVC042 23/16 A2974 540 63 1600 VRB/04 RMK AO2 SLP069 T02280156
03949KAQV AQV20160201160011002/01/16 16:00:31  5-MIN KAQV 012200Z AUTO VRB04KT 7SM OVC042 23/16 A2974 550 63 1600 VRB/04 RMK AO2 T02280156
03949KAQV AQV20160201160511302/01/16 16:05:31  5-MIN KAQV 012205Z AUTO VRB06KT 6SM HZ OVC042 23/16 A2973 550 61 1700 VRB/06 RMK AO2 T02330156
03949KAQV AQV20160201161012002/01/16 16:10:31  5-MIN KAQV 012210Z AUTO VRB05KT 5SM HZ BKN038 BKN046 23/16 A2973 550 61 1700 VRB/05 RMK AO2 T02330156
03949KAQV AQV20160201161512002/01/16 16:15:31  5-MIN KAQV 012215Z AUTO 16006KT 5SM HZ BKN039 BKN046 23/16 A2973 550 61 1700 150/06 RMK AO2 T02330156
03949KAQV AQV20160201162012002/01/16 16:20:31  5-MIN KAQV 012220Z AUTO VRB05KT 4SM HZ BKN039 BKN046 23/16 A2973 550 61 1700 VRB/05 RMK AO2 T02330156
03949KAQV AQV20160201162512002/01/16 16:25:31  5-MIN KAQV 012225Z AUTO 15006KT 5SM HZ BKN039 BKN048 24/16 A2973 550 59 1700 140/06 RMK AO2 T02390156
03949KAQV AQV20160201163012002/01/16 16:30:31  5-MIN KAQV 012230Z AUTO VRB04KT 5SM HZ BKN039 BKN048 23/16 A2973 550 61 1700 VRB/04 RMK AO2 T02330156
03949KAQV AQV20160201163512002/01/16 16:35:31  5-MIN KAQV 012235Z AUTO 16006KT 6SM HZ BKN037 BKN046 23/16 A2973 550 61 1700 150/06 RMK AO2 T02330156
03949KAQV AQV20160201164012002/01/16 16:40:31  5-MIN KAQV 012240Z AUTO VRB05KT 6SM HZ BKN039 OVC048 23/16 A2973 550 61 1700 VRB/05 RMK AO2 T02330156
03949KAQV AQV20160201164512002/01/16 16:45:31  5-MIN KAQV 012245Z AUTO 18007KT 6SM HZ BKN041 BKN048 23/16 A2973 550 63 1600 170/07 RMK AO2 T02280156
03949KAQV AQV20160201165011402/01/16 16:50:31  5-MIN KAQV 012250Z AUTO 7SM BKN041 BKN048 23/15 A2972 560 61 1600 M /M RMK AO2 SLP062 T02280150
03949KAQV AQV20160201165512402/01/16 16:55:31  5-MIN KAQV 012255Z AUTO 18006KT 9SM BKN039 BKN047 23/15 A2972 560 61 1600 180/06 RMK AO2 SLP063 T02280150
03949KAQV AQV20160201170011102/01/16 17:00:31  5-MIN KAQV 012300Z AUTO 17008KT 10SM BKN041 22/15 A2972 560 63 1600 170/08 RMK AO2 T02220150
03949KAQV AQV20160201170511102/01/16 17:05:31  5-MIN KAQV 012305Z AUTO 18004KT 10SM BKN039 22/15 A2972 560 63 1600 180/04 RMK AO2 T02220150
03949KAQV AQV20160201171012702/01/16 17:10:31  5-MIN KAQV 012310Z AUTO 18008KT 140V210 10SM SCT039 22/15 A2973 560 63 1600 180/08 140V210 RMK AO2 T02220150
03949KAQV AQV20160201171511102/01/16 17:15:31  5-MIN KAQV 012315Z AUTO VRB05KT 10SM FEW039 22/16 A2973 550 68 1500 VRB/05 RMK AO2 T02170156
03949KAQV AQV20160201172012702/01/16 17:20:31  5-MIN KAQV 012320Z AUTO 18007KT 140V210 10SM FEW039 22/16 A2973 550 68 1500 170/07 140V210 RMK AO2 T02170156
03949KAQV AQV20160201172511102/01/16 17:25:31  5-MIN KAQV 012325Z AUTO 18006KT 10SM FEW036 22/16 A2973 550 68 1500 180/06 RMK AO2 T02170156
03949KAQV AQV20160201173010802/01/16 17:30:31  5-MIN KAQV 012330Z AUTO 18008KT 10SM CLR 22/16 A2973 550 68 1500 170/08 RMK AO2 T02170156
03949KAQV AQV20160201173510802/01/16 17:35:31  5-MIN KAQV 012335Z AUTO VRB06KT 10SM CLR 22/15 A2973 550 65 1500 VRB/06 RMK AO2 T02170150
03949KAQV AQV20160201174010802/01/16 17:40:31  5-MIN KAQV 012340Z AUTO VRB05KT 10SM CLR 22/15 A2973 560 65 1500 VRB/05 RMK AO2 T02170150
03949KAQV AQV20160201174510802/01/16 17:45:31  5-MIN KAQV 012345Z AUTO 17005KT 10SM CLR 21/15 A2973 560 68 1400 170/05 RMK AO2 T02110150
03949KAQV AQV20160201175013602/01/16 17:50:31  5-MIN KAQV 012350Z AUTO 16005KT 10SM FEW045 21/15 A2973 560 68 1400 160/05 RMK AO2 SLP064 T02110150 10250 20211 56030
03949KAQV AQV20160201175513602/01/16 17:55:31  5-MIN KAQV 012355Z AUTO 17004KT 10SM FEW045 21/15 A2973 560 68 1400 170/04 RMK AO2 SLP065 T02110150 10250 20211 56030
03949KAQV AQV20160201180011102/01/16 18:00:31  5-MIN KAQV 020000Z AUTO 17006KT 10SM SCT045 21/15 A2973 550 68 1400 170/06 RMK AO2 T02110150
03949KAQV AQV20160201180511102/01/16 18:05:31  5-MIN KAQV 020005Z AUTO 17005KT 10SM SCT045 21/15 A2973 560 68 1400 170/05 RMK AO2 T02110150
03949KAQV AQV20160201181011102/01/16 18:10:31  5-MIN KAQV 020010Z AUTO 17006KT 10SM BKN045 21/15 A2973 550 68 1400 160/06 RMK AO2 T02110150
03949KAQV AQV20160201181511102/01/16 18:15:31  5-MIN KAQV 020015Z AUTO VRB03KT 10SM BKN045 21/15 A2973 550 68 1400 VRB/03 RMK AO2 T02110150
03949KAQV AQV20160201182011102/01/16 18:20:31  5-MIN KAQV 020020Z AUTO 16003KT 10SM BKN045 21/15 A2973 550 68 1400 160/03 RMK AO2 T02110150
03949KAQV AQV20160201182511102/01/16 18:25:31  5-MIN KAQV 020025Z AUTO VRB04KT 10SM OVC045 21/15 A2973 550 68 1400 VRB/04 RMK AO2 T02110150
03949KAQV AQV20160201183011102/01/16 18:30:31  5-MIN KAQV 020030Z AUTO VRB03KT 10SM OVC045 21/15 A2973 550 68 1400 VRB/03 RMK AO2 T02110150
03949KAQV AQV20160201183511102/01/16 18:35:31  5-MIN KAQV 020035Z AUTO VRB03KT 10SM BKN045 21/15 A2973 550 70 1400 VRB/03 RMK AO2 T02060150
03949KAQV AQV20160201184011102/01/16 18:40:31  5-MIN KAQV 020040Z AUTO VRB05KT 10SM BKN045 21/15 A2973 550 70 1400 VRB/05 RMK AO2 T02060150
03949KAQV AQV20160201184511102/01/16 18:45:31  5-MIN KAQV 020045Z AUTO 17004KT 10SM SCT045 21/15 A2973 550 70 1400 160/04 RMK AO2 T02060150
03949KAQV AQV20160201185011802/01/16 18:50:31  5-MIN KAQV 020050Z AUTO 16004KT 10SM SCT045 20/16 A2973 550 75 1300 160/04 RMK AO2 SLP067 T02000156
03949KAQV AQV20160201185511702/01/16 18:55:31  5-MIN KAQV 020055Z AUTO 16003KT 9SM BKN045 20/16 A2973 550 75 1300 150/03 RMK AO2 SLP066 T02000156
03949KAQV AQV20160201190011002/01/16 19:00:31  5-MIN KAQV 020100Z AUTO VRB03KT 9SM BKN043 20/16 A2973 550 75 1300 VRB/03 RMK AO2 T02000156
03949KAQV AQV20160201190511002/01/16 19:05:31  5-MIN KAQV 020105Z AUTO VRB03KT 9SM BKN043 20/16 A2973 550 75 1300 VRB/03 RMK AO2 T02000156
03949KAQV AQV20160201191011102/01/16 19:10:31  5-MIN KAQV 020110Z AUTO VRB03KT 10SM BKN043 20/16 A2972 560 75 1300 VRB/03 RMK AO2 T02000156
03949KAQV AQV20160201191511802/01/16 19:15:31  5-MIN KAQV 020115Z AUTO VRB04KT 10SM FEW026 BKN043 20/16 A2972 560 75 1300 VRB/04 RMK AO2 T02000156
03949KAQV AQV20160201192011802/01/16 19:20:31  5-MIN KAQV 020120Z AUTO VRB03KT 10SM FEW025 BKN043 20/16 A2972 560 75 1300 VRB/03 RMK AO2 T02000156
03949KAQV AQV20160201192511802/01/16 19:25:31  5-MIN KAQV 020125Z AUTO VRB03KT 10SM FEW025 BKN043 20/16 A2972 560 75 1300 VRB/03 RMK AO2 T02000156
03949KAQV AQV20160201193012502/01/16 19:30:31  5-MIN KAQV 020130Z AUTO VRB04KT 10SM FEW022 SCT035 BKN043 20/16 A2972 560 75 1300 VRB/04 RMK AO2 T02000156
03949KAQV AQV20160201193512502/01/16 19:35:31  5-MIN KAQV 020135Z AUTO 15004KT 10SM FEW022 SCT035 BKN043 20/16 A2972 560 75 1300 140/04 RMK AO2 T02000156
03949KAQV AQV20160201194012502/01/16 19:40:31  5-MIN KAQV 020140Z AUTO VRB04KT 10SM FEW019 SCT036 SCT042 19/16 A2972 560 78 1200 VRB/04 RMK AO2 T01940156
03949KAQV AQV20160201194511802/01/16 19:45:31  5-MIN KAQV 020145Z AUTO VRB03KT 10SM FEW021 FEW040 19/16 A2972 560 78 1300 VRB/03 RMK AO2 T01940156
03949KAQV AQV20160201195012502/01/16 19:50:31  5-MIN KAQV 020150Z AUTO VRB03KT 10SM FEW021 SCT040 19/16 A2972 570 81 1300 VRB/03 RMK AO2 SLP061 T01940161
03949KAQV AQV20160201195512502/01/16 19:55:31  5-MIN KAQV 020155Z AUTO VRB05KT 10SM FEW021 BKN040 19/16 A2971 570 81 1300 VRB/05 RMK AO2 SLP059 T01940161
03949KAQV AQV20160201200011102/01/16 20:00:31  5-MIN KAQV 020200Z AUTO 15004KT 10SM SCT040 19/16 A2971 570 81 1300 150/04 RMK AO2 T01940161
03949KAQV AQV20160201200512702/01/16 20:05:31  5-MIN KAQV 020205Z AUTO 15007KT 120V180 10SM SCT038 19/17 A2970 580 84 1300 150/07 120V180 RMK AO2 T01940167
03949KAQV AQV20160201201011102/01/16 20:10:31  5-MIN KAQV 020210Z AUTO 16006KT 10SM SCT038 19/17 A2970 580 84 1300 150/06 RMK AO2 T01940167
03949KAQV AQV20160206032510802/06/16 03:25:31  5-MIN KAQV 060925Z AUTO 00000KT 10SM CLR 02/00 A3031 20 85 -1400 000/00 RMK AO2 T00220000
03949KAQV AQV20160206033010802/06/16 03:30:31  5-MIN KAQV 060930Z AUTO 00000KT 10SM CLR 02/00 A3031 20 85 -1400 000/00 RMK AO2 T00220000
03949KAQV AQV20160206033510802/06/16 03:35:31  5-MIN KAQV 060935Z AUTO 00000KT 10SM CLR 02/00 A3031 20 85 -1400 000/00 RMK AO2 T00220000
03949KAQV AQV20160206034010902/06/16 03:40:31  5-MIN KAQV 060940Z AUTO 00000KT 10SM CLR 02/M01 A3031 20 82 -1400 000/00 RMK AO2 T00221006
03949KAQV AQV20160206034510902/06/16 03:45:31  5-MIN KAQV 060945Z AUTO 00000KT 10SM CLR 02/M01 A3030 30 82 -1400 000/00 RMK AO2 T00221006
03949KAQV AQV20160206035011602/06/16 03:50:31  5-MIN KAQV 060950Z AUTO 00000KT 10SM CLR 02/M01 A3029 30 82 -1400 000/00 RMK AO2 SLP260 T00221006
03949KAQV AQV20160206035511502/06/16 03:55:31  5-MIN KAQV 060955Z AUTO 00000KT 10SM CLR 02/00 A3029 30 85 -1400 000/00 RMK AO2 SLP260 T00220000
03949KAQV AQV20160206040010802/06/16 04:00:31  5-MIN KAQV 061000Z AUTO 00000KT 10SM CLR 02/00 A3029 30 85 -1400 000/00 RMK AO2 T00220000
03949KAQV AQV20160206040510802/06/16 04:05:31  5-MIN KAQV 061005Z AUTO 00000KT 10SM CLR 02/00 A3029 30 85 -1400 000/00 RMK AO2 T00220000
03949KAQV AQV20160206041010802/06/16 04:10:31  5-MIN KAQV 061010Z AUTO 00000KT 10SM CLR 02/00 A3029 30 85 -1400 000/00 RMK AO2 T00220000
03949KAQV AQV20160206041510802/06/16 04:15:31  5-MIN KAQV 061015Z AUTO 00000KT 10SM CLR 02/00 A3029 30 85 -1400 000/00 RMK AO2 T00220000
03949KAQV AQV20160206042010802/06/16 04:20:31  5-MIN KAQV 061020Z AUTO 00000KT 10SM CLR 02/00 A3029 30 85 -1400 000/00 RMK AO2 T00220000
03949KAQV AQV20160206042510802/06/16 04:25:31  5-MIN KAQV 061025Z AUTO 00000KT 10SM CLR 02/00 A3030 30 85 -1400 000/00 RMK AO2 T00220000
03949KAQV AQV20160206043011202/06/16 04:30:31  5-MIN KAQV 061030Z AUTO 00000KT 10SM FEW120 02/M01 A3030 30 78 -1400 000/00 RMK AO2 T00221011
03949KAQV AQV20160206043511202/06/16 04:35:31  5-MIN KAQV 061035Z AUTO 00000KT 10SM SCT120 02/M01 A3030 30 78 -1400 000/00 RMK AO2 T00221011
03949KAQV AQV20160206044011202/06/16 04:40:31  5-MIN KAQV 061040Z AUTO 00000KT 10SM BKN120 02/M01 A3030 30 78 -1400 000/00 RMK AO2 T00221011
03949KAQV AQV20160206044511202/06/16 04:45:31  5-MIN KAQV 061045Z AUTO 00000KT 10SM BKN120 02/M01 A3030 30 82 -1500 000/00 RMK AO2 T00171011
03949KAQV AQV20160206045011902/06/16 04:50:31  5-MIN KAQV 061050Z AUTO 00000KT 10SM BKN120 02/M01 A3029 30 82 -1500 000/00 RMK AO2 SLP260 T00171011
03949KAQV AQV20160206045507502/06/16 04:55:31  5-MIN KAQV 061055Z AUTO 00000KT 10SM OVC120 02/M01 A3029
03949KAQV AQV20160207232510802/07/16 23:25:31  5-MIN KAQV 080525Z AUTO 00000KT 10SM CLR 07/04 A3014 170 79 -600 000/00 RMK AO2 T00720039
03949KAQV AQV20160207233010802/07/16 23:30:31  5-MIN KAQV 080530Z AUTO 24003KT 10SM CLR 07/04 A3014 170 79 -600 230/03 RMK AO2 T00720039
03949KAQV AQV20160207233510802/07/16 23:35:31  5-MIN KAQV 080535Z AUTO VRB04KT 10SM CLR 07/04 A3014 170 79 -600 VRB/04 RMK AO2 T00720039
03949KAQV AQV20160207234010802/07/16 23:40:31  5-MIN KAQV 080540Z AUTO 23004KT 10SM CLR 07/04 A3014 170 82 -600 230/04 RMK AO2 T00720044
03949KAQV AQV20160207234510802/07/16 23:45:31  5-MIN KAQV 080545Z AUTO 00000KT 10SM CLR 07/04 A3014 180 82 -600 000/00 RMK AO2 T00720044
03949KAQV AQV20160207235014302/07/16 23:50:31  5-MIN KAQV 080550Z AUTO VRB03KT 10SM CLR 07/04 A3013 180 79 -600 VRB/03 RMK AO2 SLP205 T00720039 10111 20067 401721011 53009
03949KAQV AQV20160207235514302/07/16 23:55:31  5-MIN KAQV 080555Z AUTO VRB03KT 10SM CLR 07/04 A3013 180 82 -600 VRB/03 RMK AO2 SLP205 T00720044 10111 20067 401721011 53009
03949KAQV AQV20160208000010802/08/16 00:00:31  5-MIN KAQV 080600Z AUTO VRB03KT 10SM CLR 07/04 A3013 180 79 -600 VRB/03 RMK AO2 T00720039
03949KAQV AQV20160208000510802/08/16 00:05:31  5-MIN KAQV 080605Z AUTO 00000KT 10SM CLR 07/04 A3013 180 82 -600 000/00 RMK AO2 T00720044
03949KAQV AQV20160208001010802/08/16 00:10:31  5-MIN KAQV 080610Z AUTO 00000KT 10SM CLR 07/04 A3013 180 79 -600 000/00 RMK AO2 T00720039
03949KAQV AQV20160208001510802/08/16 00:15:31  5-MIN KAQV 080615Z AUTO 00000KT 10SM CLR 07/04 A3013 180 82 -600 000/00 RMK AO2 T00720044
03949KAQV AQV20160208002010802/08/16 00:20:31  5-MIN KAQV 080620Z AUTO 00000KT 10SM CLR 07/04 A3013 190 82 -700 000/00 RMK AO2 T00670039
03949KAQV AQV20160208002510802/08/16 00:25:31  5-MIN KAQV 080625Z AUTO 00000KT 10SM CLR 07/04 A3012 190 82 -700 000/00 RMK AO2 T00670039
03949KAQV AQV20160208003010802/08/16 00:30:31  5-MIN KAQV 080630Z AUTO 00000KT 10SM CLR 07/04 A3012 190 82 -700 000/00 RMK AO2 T00670039
03949KAQV AQV20160208003510802/08/16 00:35:31  5-MIN KAQV 080635Z AUTO 23003KT 10SM CLR 07/04 A3012 190 82 -700 230/03 RMK AO2 T00670039
03949KAQV AQV20160208004010802/08/16 00:40:31  5-MIN KAQV 080640Z AUTO 00000KT 10SM CLR 06/04 A3012 190 86 -700 000/00 RMK AO2 T00610039
03949KAQV AQV20160208105013802/08/16 10:50:31  5-MIN KAQV 081650Z AUTO 32010G24KT 260V020 10SM CLR 12/M09 A3019 130 23 -100 310/10G24 260V020 RMK AO2 SLP223 T01171089
03949KAQV AQV20160208105513802/08/16 10:55:31  5-MIN KAQV 081655Z AUTO 29008G24KT 250V340 10SM CLR 12/M09 A3019 130 23 -100 280/08G24 250V340 RMK AO2 SLP224 T01171089
03949KAQV AQV20160208110013102/08/16 11:00:31  5-MIN KAQV 081700Z AUTO 28007G20KT 230V340 10SM CLR 12/M09 A3019 130 23 -100 270/07G20 230V340 RMK AO2 T01171089
03949KAQV AQV20160208110513102/08/16 11:05:31  5-MIN KAQV 081705Z AUTO 29010G21KT 260V360 10SM CLR 12/M09 A3019 130 22 -100 290/10G21 260V360 RMK AO2 T01171094
03949KAQV AQV20160208111013102/08/16 11:10:31  5-MIN KAQV 081710Z AUTO 30008G22KT 260V350 10SM CLR 12/M09 A3018 130 22 -100 300/08G22 260V350 RMK AO2 T01171094
03949KAQV AQV20160208111513102/08/16 11:15:31  5-MIN KAQV 081715Z AUTO 28011G24KT 240V300 10SM CLR 12/M09 A3018 130 22 -100 270/11G24 240V300 RMK AO2 T01171094
03949KAQV AQV20160208112013102/08/16 11:20:31  5-MIN KAQV 081720Z AUTO 31009G24KT 260V070 10SM CLR 12/M09 A3018 140 22 -100 310/09G24 260V070 RMK AO2 T01171094
03949KAQV AQV20160208112513102/08/16 11:25:31  5-MIN KAQV 081725Z AUTO 32007G21KT 250V020 10SM CLR 12/M09 A3018 130 21 -100 310/07G21 250V020 RMK AO2 T01221094
03949KAQV AQV20160208113013102/08/16 11:30:31  5-MIN KAQV 081730Z AUTO 29013G24KT 260V350 10SM CLR 12/M09 A3018 140 22 -100 280/13G24 260V350 RMK AO2 T01171094
03949KAQV AQV20160208113513102/08/16 11:35:31  5-MIN KAQV 081735Z AUTO 32008G24KT 240V030 10SM CLR 12/M09 A3017 140 22 -100 310/08G24 240V030 RMK AO2 T01221089
03949KAQV AQV20160208114011502/08/16 11:40:31  5-MIN KAQV 081740Z AUTO 28011G19KT 10SM CLR 12/M09 A3017 140 21 -100 280/11G19 RMK AO2 T01221094
03949KAQV AQV20160208114513102/08/16 11:45:31  5-MIN KAQV 081745Z AUTO 28009G23KT 240V330 10SM CLR 12/M09 A3017 140 22 -100 280/09G23 240V330 RMK AO2 T01171094
03949KAQV AQV20160208115015602/08/16 11:50:31  5-MIN KAQV 081750Z AUTO 31012G23KT 270V040 10SM CLR 12/M09 A3017 150 22 -100 300/12G23 270V040 RMK AO2 SLP217 T01171094 10122 20061 51015
03949KAQV AQV20160208115515602/08/16 11:55:31  5-MIN KAQV 081755Z AUTO 32007G23KT 250V030 10SM CLR 12/M09 A3016 150 21 -100 310/07G23 250V030 RMK AO2 SLP214 T01221094 10122 20061 51015
03949KAQV AQV20160208120013102/08/16 12:00:31  5-MIN KAQV 081800Z AUTO 32010G21KT 290V350 10SM CLR 12/M09 A3016 150 22 -100 320/10G21 290V350 RMK AO2 T01221089
03949KAQV AQV20160208120511202/08/16 12:05:31  5-MIN KAQV 081805Z AUTO VRB06G20KT 10SM CLR 12/M09 A3016 160 21 0 VRB/06G20 RMK AO2 T01221094
03949KAQV AQV20160208121012802/08/16 12:10:31  5-MIN KAQV 081810Z AUTO 29010G20KT 250V360 10SM CLR 12/M09 A3016 150 21 0 280/10G20 250V360 RMK AO2 T01221094
03949KAQV AQV20160208121512802/08/16 12:15:31  5-MIN KAQV 081815Z AUTO 32008G20KT 280V010 10SM CLR 12/M09 A3015 160 22 0 320/08G20 280V010 RMK AO2 T01221089
03949KAQV AQV20160208122012802/08/16 12:20:31  5-MIN KAQV 081820Z AUTO 30008G19KT 270V340 10SM CLR 13/M09 A3015 160 20 0 290/08G19 270V340 RMK AO2 T01281094
03949KAQV AQV20160208122512802/08/16 12:25:31  5-MIN KAQV 081825Z AUTO 30009G20KT 270V350 10SM CLR 13/M09 A3015 170 21 0 300/09G20 270V350 RMK AO2 T01281089
03949KAQV AQV20160208123012802/08/16 12:30:31  5-MIN KAQV 081830Z AUTO 30010G21KT 240V350 10SM CLR 12/M10 A3015 170 20 0 290/10G21 240V350 RMK AO2 T01221100
03949KAQV AQV20160208123512802/08/16 12:35:31  5-MIN KAQV 081835Z AUTO 29011G23KT 240V020 10SM CLR 12/M09 A3015 170 21 0 290/11G23 240V020 RMK AO2 T01221094
03949KAQV AQV20160208124012802/08/16 12:40:31  5-MIN KAQV 081840Z AUTO 29010G23KT 240V340 10SM CLR 13/M09 A3014 170 20 0 280/10G23 240V340 RMK AO2 T01281094
03949KAQV AQV20160208124511202/08/16 12:45:31  5-MIN KAQV 081845Z AUTO VRB05G19KT 10SM CLR 13/M09 A3014 170 21 0 VRB/05G19 RMK AO2 T01281089
03949KAQV AQV20160208125013502/08/16 12:50:31  5-MIN KAQV 081850Z AUTO 30010G19KT 250V330 10SM CLR 13/M09 A3014 170 21 0 300/10G19 250V330 RMK AO2 SLP207 T01281089
03949KAQV AQV20160208125513502/08/16 12:55:31  5-MIN KAQV 081855Z AUTO 29009G21KT 260V340 10SM CLR 13/M09 A3014 180 21 0 290/09G21 260V340 RMK AO2 SLP207 T01281089
03949KAQV AQV20160208130012802/08/16 13:00:31  5-MIN KAQV 081900Z AUTO 30011G21KT 270V350 10SM CLR 13/M09 A3013 180 20 0 290/11G21 270V350 RMK AO2 T01281094
03949KAQV AQV20160208130512802/08/16 13:05:31  5-MIN KAQV 081905Z AUTO 28013G23KT 230V310 10SM CLR 12/M10 A3013 180 20 0 280/13G23 230V310 RMK AO2 T01221100
03949KAQV AQV20160208131012802/08/16 13:10:31  5-MIN KAQV 081910Z AUTO 30009G23KT 250V350 10SM CLR 12/M10 A3013 180 20 0 290/09G23 250V350 RMK AO2 T01221100
03949KAQV AQV20160208131512802/08/16 13:15:31  5-MIN KAQV 081915Z AUTO 28009G20KT 250V330 10SM CLR 13/M09 A3012 190 20 0 280/09G20 250V330 RMK AO2 T01281094
03949KAQV AQV20160208132012802/08/16 13:20:31  5-MIN KAQV 081920Z AUTO 31009G19KT 260V360 10SM CLR 13/M09 A3012 190 20 0 300/09G19 260V360 RMK AO2 T01281094
03949KAQV AQV20160208132513002/08/16 13:25:31  5-MIN KAQV 081925Z AUTO 32010G19KT 270V010 10SM CLR 13/M09 A3012 190 19 100 320/10G19 270V010 RMK AO2 T01331094
03949KAQV AQV20160208133013002/08/16 13:30:31  5-MIN KAQV 081930Z AUTO 30010G21KT 260V330 10SM CLR 13/M09 A3012 200 19 100 290/10G21 260V330 RMK AO2 T01331094
03949KAQV AQV20160208133512802/08/16 13:35:31  5-MIN KAQV 081935Z AUTO 29008G22KT 250V360 10SM CLR 13/M11 A3011 200 18 0 290/08G22 250V360 RMK AO2 T01281106
03949KAQV AQV20160208134012802/08/16 13:40:31  5-MIN KAQV 081940Z AUTO 28009G22KT 230V340 10SM CLR 13/M11 A3011 200 18 0 280/09G22 230V340 RMK AO2 T01281106
03949KAQV AQV20160208134513002/08/16 13:45:31  5-MIN KAQV 081945Z AUTO 31007G21KT 220V020 10SM CLR 13/M10 A3011 200 19 100 300/07G21 220V020 RMK AO2 T01331100
03949KAQV AQV20160208135013702/08/16 13:50:31  5-MIN KAQV 081950Z AUTO 28010G21KT 250V320 10SM CLR 13/M10 A3011 200 19 100 280/10G21 250V320 RMK AO2 SLP197 T01331100
03949KAQV AQV20160208135513502/08/16 13:55:31  5-MIN KAQV 081955Z AUTO 30009G22KT 270V330 10SM CLR 13/M10 A3011 200 19 0 300/09G22 270V330 RMK AO2 SLP196 T01281100
03949KAQV AQV20160208140013002/08/16 14:00:31  5-MIN KAQV 082000Z AUTO 32007G22KT 230V020 10SM CLR 13/M11 A3011 200 18 100 320/07G22 230V020 RMK AO2 T01331106
03949KAQV AQV20160208140512802/08/16 14:05:31  5-MIN KAQV 082005Z AUTO 30008G24KT 200V350 10SM CLR 13/M12 A3011 200 17 0 290/08G24 200V350 RMK AO2 T01281117
03949KAQV AQV20160208141013002/08/16 14:10:31  5-MIN KAQV 082010Z AUTO 32012G24KT 290V350 10SM CLR 13/M12 A3011 200 16 100 320/12G24 290V350 RMK AO2 T01331117
03949KAQV AQV20160208141513002/08/16 14:15:31  5-MIN KAQV 082015Z AUTO 31009G23KT 240V010 10SM CLR 13/M11 A3011 200 17 100 300/09G23 240V010 RMK AO2 T01331111
03949KAQV AQV20160208142013002/08/16 14:20:31  5-MIN KAQV 082020Z AUTO 30009G22KT 250V350 10SM CLR 13/M11 A3011 200 18 100 300/09G22 250V350 RMK AO2 T01331106
03949KAQV AQV20160208142512802/08/16 14:25:31  5-MIN KAQV 082025Z AUTO 32010G22KT 280V350 10SM CLR 13/M11 A3011 200 18 0 320/10G22 280V350 RMK AO2 T01281111
03949KAQV AQV20160208143013002/08/16 14:30:31  5-MIN KAQV 082030Z AUTO 29008G25KT 240V070 10SM CLR 13/M11 A3011 200 17 100 290/08G25 240V070 RMK AO2 T01331111
03949KAQV AQV20160208143513002/08/16 14:35:31  5-MIN KAQV 082035Z AUTO 32007G25KT 260V120 10SM CLR 13/M11 A3010 210 17 100 320/07G25 260V120 RMK AO2 T01331111
03949KAQV AQV20160208144011202/08/16 14:40:31  5-MIN KAQV 082040Z AUTO VRB06G24KT 10SM CLR 13/M11 A3010 210 18 0 VRB/06G24 RMK AO2 T01281111
03949KAQV AQV20160208144511402/08/16 14:45:31  5-MIN KAQV 082045Z AUTO 33013G25KT 10SM CLR 13/M12 A3011 210 16 100 320/13G25 RMK AO2 T01331117
03949KAQV AQV20160208145014102/08/16 14:50:31  5-MIN KAQV 082050Z AUTO 33013G25KT 280V010 10SM CLR 13/M13 A3011 210 15 0 320/13G25 280V010 RMK AO2 SLP195 T01281128 58007
03949KAQV AQV20160208145514102/08/16 14:55:31  5-MIN KAQV 082055Z AUTO 31008G23KT 160V020 10SM CLR 13/M13 A3010 210 15 0 310/08G23 160V020 RMK AO2 SLP194 T01281128 58007
03949KAQV AQV20160208150012802/08/16 15:00:31  5-MIN KAQV 082100Z AUTO 30008G19KT 210V360 10SM CLR 13/M12 A3010 210 16 0 290/08G19 210V360 RMK AO2 T01281122
03949KAQV AQV20160208150512802/08/16 15:05:31  5-MIN KAQV 082105Z AUTO 28010G22KT 190V310 10SM CLR 13/M12 A3010 210 16 0 280/10G22 190V310 RMK AO2 T01281122
03949KAQV AQV20160208151012802/08/16 15:10:31  5-MIN KAQV 082110Z AUTO 31012G25KT 260V350 10SM CLR 13/M12 A3010 210 17 0 300/12G25 260V350 RMK AO2 T01281117
03949KAQV AQV20160208151512802/08/16 15:15:31  5-MIN KAQV 082115Z AUTO 33010G25KT 250V010 10SM CLR 13/M12 A3010 210 17 0 320/10G25 250V010 RMK AO2 T01281117
03949KAQV AQV20160208152012802/08/16 15:20:31  5-MIN KAQV 082120Z AUTO 31008G23KT 260V010 10SM CLR 13/M11 A3010 210 18 0 300/08G23 260V010 RMK AO2 T01281111
03949KAQV AQV20160208152512802/08/16 15:25:31  5-MIN KAQV 082125Z AUTO 31009G19KT 270V330 10SM CLR 13/M11 A3010 210 18 0 300/09G19 270V330 RMK AO2 T01281111
03949KAQV AQV20160208153013002/08/16 15:30:31  5-MIN KAQV 082130Z AUTO 28012G23KT 210V330 10SM CLR 13/M11 A3010 210 17 100 270/12G23 210V330 RMK AO2 T01331111
03949KAQV AQV20160208153512802/08/16 15:35:31  5-MIN KAQV 082135Z AUTO 30010G23KT 260V020 10SM CLR 13/M12 A3010 210 16 0 300/10G23 260V020 RMK AO2 T01281122
03949KAQV AQV20160208154012802/08/16 15:40:31  5-MIN KAQV 082140Z AUTO 31008G22KT 240V020 10SM CLR 13/M12 A3010 210 17 0 310/08G22 240V020 RMK AO2 T01281117
03949KAQV AQV20160208154511202/08/16 15:45:31  5-MIN KAQV 082145Z AUTO VRB06G20KT 10SM CLR 13/M12 A3010 210 17 0 VRB/06G20 RMK AO2 T01281117
03949KAQV AQV20160208155010302/08/16 15:50:31  5-MIN KAQV 082150Z AUTO 10SM CLR 13/M12 A3011 210 17 0 M /M RMK AO2 SLP195 T01281117
03949KAQV AQV20160208155513502/08/16 15:55:31  5-MIN KAQV 082155Z AUTO 29007G18KT 230V360 10SM CLR 13/M12 A3010 210 16 0 290/07G18 230V360 RMK AO2 SLP195 T01281122
03949KAQV AQV20160208160011202/08/16 16:00:31  5-MIN KAQV 082200Z AUTO VRB06G18KT 10SM CLR 13/M12 A3011 210 16 0 VRB/06G18 RMK AO2 T01281122
03949KAQV AQV20160208160512802/08/16 16:05:31  5-MIN KAQV 082205Z AUTO 34009G18KT 290V060 10SM CLR 13/M13 A3011 200 15 0 330/09G18 290V060 RMK AO2 T01281128
03949KAQV AQV20160208161011202/08/16 16:10:31  5-MIN KAQV 082210Z AUTO VRB06G18KT 10SM CLR 13/M13 A3011 200 15 0 VRB/06G18 RMK AO2 T01281128
03949KAQV AQV20160208161511202/08/16 16:15:31  5-MIN KAQV 082215Z AUTO VRB06G17KT 10SM CLR 13/M13 A3011 200 15 0 VRB/06G17 RMK AO2 T01281128
03949KAQV AQV20160208162012802/08/16 16:20:31  5-MIN KAQV 082220Z AUTO 31012G22KT 240V360 10SM CLR 12/M13 A3011 200 16 0 310/12G22 240V360 RMK AO2 T01221128
03949KAQV AQV20160208162511202/08/16 16:25:31  5-MIN KAQV 082225Z AUTO VRB06G22KT 10SM CLR 12/M13 A3011 200 15 0 VRB/06G22 RMK AO2 T01221133
03949KAQV AQV20160208163012802/08/16 16:30:31  5-MIN KAQV 082230Z AUTO 30007G21KT 250V330 10SM CLR 12/M13 A3011 200 16 0 290/07G21 250V330 RMK AO2 T01221128
03949KAQV AQV20160208163509602/08/16 16:35:31  5-MIN KAQV 082235Z AUTO 10SM CLR 12/M13 A3011 200 16 0 M /M RMK AO2 T01221128
03949KAQV AQV20160208164011202/08/16 16:40:31  5-MIN KAQV 082240Z AUTO 28007G17KT 10SM CLR 12/M13 A3011 200 16 0 270/07G17 RMK AO2 T01221128
03949KAQV AQV20160208164512802/08/16 16:45:31  5-MIN KAQV 082245Z AUTO 31010G20KT 240V010 10SM CLR 12/M13 A3011 200 15 0 310/10G20 240V010 RMK AO2 T01221133
03949KAQV AQV20160208165012202/08/16 16:50:31  5-MIN KAQV 082250Z AUTO VRB06G20KT 10SM CLR 12/M14 A3011 200 15 -100 VRB/06G20 RMK AO2 SLP197 T01171139
03949KAQV AQV20160208165513802/08/16 16:55:31  5-MIN KAQV 082255Z AUTO 32008G17KT 280V120 10SM CLR 12/M14 A3010 210 15 -100 310/08G17 280V120 RMK AO2 SLP195 T01171139
03949KAQV AQV20160208170011502/08/16 17:00:31  5-MIN KAQV 082300Z AUTO VRB04G18KT 10SM CLR 12/M14 A3011 210 15 -100 VRB/04G18 RMK AO2 T01171139
03949KAQV AQV20160208214510902/08/16 21:45:31  5-MIN KAQV 090345Z AUTO 00000KT 10SM CLR 06/M10 A3016 160 30 -800 000/00 RMK AO2 T00611100
03949KAQV AQV20160208215011602/08/16 21:50:31  5-MIN KAQV 090350Z AUTO VRB04KT 10SM CLR 06/M10 A3015 160 30 -800 VRB/04 RMK AO2 SLP212 T00611100
03949KAQV AQV20160208215511602/08/16 21:55:31  5-MIN KAQV 090355Z AUTO 28004KT 10SM CLR 06/M10 A3016 160 30 -800 280/04 RMK AO2 SLP213 T00611100
03949KAQV AQV20160208220010902/08/16 22:00:31  5-MIN KAQV 090400Z AUTO VRB04KT 10SM CLR 06/M10 A3016 160 30 -800 VRB/04 RMK AO2 T00611100
03949KAQV AQV20160208220510902/08/16 22:05:31  5-MIN KAQV 090405Z AUTO VRB03KT 10SM CLR 07/M10 A3016 160 29 -700 VRB/03 RMK AO2 T00671100
03949KAQV AQV20160208221010902/08/16 22:10:31  5-MIN KAQV 090410Z AUTO VRB04KT 10SM CLR 07/M10 A3016 160 29 -700 VRB/04 RMK AO2 T00671100
03949KAQV AQV20160208221510902/08/16 22:15:31  5-MIN KAQV 090415Z AUTO 27004KT 10SM CLR 07/M10 A3016 160 29 -700 260/04 RMK AO2 T00671100
03949KAQV AQV20160208222010902/08/16 22:20:31  5-MIN KAQV 090420Z AUTO 27003KT 10SM CLR 07/M10 A3016 160 29 -700 260/03 RMK AO2 T00671100
03949KAQV AQV20160208222510902/08/16 22:25:31  5-MIN KAQV 090425Z AUTO VRB05KT 10SM CLR 06/M10 A3016 150 30 -800 VRB/05 RMK AO2 T00611100
03949KAQV AQV20160208223010902/08/16 22:30:31  5-MIN KAQV 090430Z AUTO VRB05KT 10SM CLR 06/M10 A3016 150 30 -800 VRB/05 RMK AO2 T00611100
03949KAQV AQV20160208223510902/08/16 22:35:31  5-MIN KAQV 090435Z AUTO 27003KT 10SM CLR 06/M10 A3016 150 30 -800 270/03 RMK AO2 T00611100
03949KAQV AQV20160208224010902/08/16 22:40:31  5-MIN KAQV 090440Z AUTO VRB03KT 10SM CLR 06/M09 A3016 150 32 -800 VRB/03 RMK AO2 T00611094
03949KAQV AQV20160208224510902/08/16 22:45:31  5-MIN KAQV 090445Z AUTO VRB03KT 10SM CLR 06/M09 A3016 150 32 -800 VRB/03 RMK AO2 T00611094
03949KAQV AQV20160208225011602/08/16 22:50:31  5-MIN KAQV 090450Z AUTO 28004KT 10SM CLR 06/M10 A3016 150 30 -800 280/04 RMK AO2 SLP215 T00611100
03949KAQV AQV20160208225511602/08/16 22:55:31  5-MIN KAQV 090455Z AUTO 28004KT 10SM CLR 06/M10 A3016 160 30 -800 270/04 RMK AO2 SLP214 T00611100
03949KAQV AQV20160208230010902/08/16 23:00:31  5-MIN KAQV 090500Z AUTO VRB04KT 10SM CLR 06/M10 A3016 150 30 -800 VRB/04 RMK AO2 T00611100
03949KAQV AQV20160208230510902/08/16 23:05:31  5-MIN KAQV 090505Z AUTO VRB04KT 10SM CLR 06/M09 A3016 160 33 -900 VRB/04 RMK AO2 T00561094
03949KAQV AQV20160208231010902/08/16 23:10:31  5-MIN KAQV 090510Z AUTO 26003KT 10SM CLR 06/M10 A3016 160 30 -800 260/03 RMK AO2 T00611100
03949KAQV AQV20160208231510902/08/16 23:15:31  5-MIN KAQV 090515Z AUTO VRB04KT 10SM CLR 06/M10 A3016 160 32 -900 VRB/04 RMK AO2 T00561100
03949KAQV AQV20160208232010902/08/16 23:20:31  5-MIN KAQV 090520Z AUTO VRB06KT 10SM CLR 06/M10 A3016 160 30 -800 VRB/06 RMK AO2 T00611100
03949KAQV AQV20160208232510902/08/16 23:25:31  5-MIN KAQV 090525Z AUTO VRB03KT 10SM CLR 06/M10 A3016 160 30 -800 VRB/03 RMK AO2 T00611100
03949KAQV AQV20160208233010902/08/16 23:30:31  5-MIN KAQV 090530Z AUTO VRB04KT 10SM CLR 06/M10 A3016 160 30 -800 VRB/04 RMK AO2 T00611100
03949KAQV AQV20160208233510902/08/16 23:35:31  5-MIN KAQV 090535Z AUTO VRB04KT 10SM CLR 06/M10 A3016 150 30 -800 VRB/04 RMK AO2 T00611100
03949KAQV AQV20160208234010902/08/16 23:40:31  5-MIN KAQV 090540Z AUTO VRB05KT 10SM CLR 06/M10 A3016 150 30 -800 VRB/05 RMK AO2 T00611100
03949KAQV AQV20160208234510902/08/16 23:45:31  5-MIN KAQV 090545Z AUTO VRB03KT 10SM CLR 06/M10 A3016 150 30 -800 VRB/03 RMK AO2 T00611100
03949KAQV AQV20160208235014402/08/16 23:50:31  5-MIN KAQV 090550Z AUTO VRB03KT 10SM CLR 06/M10 A3016 150 32 -900 VRB/03 RMK AO2 SLP215 T00561100 10100 20056 401330056 51013
03949KAQV AQV20160208235514402/08/16 23:55:31  5-MIN KAQV 090555Z AUTO 26004KT 10SM CLR 06/M09 A3016 150 33 -900 260/04 RMK AO2 SLP215 T00561094 10100 20056 401330056 51013
03949KAQV AQV20160209000010902/09/16 00:00:31  5-MIN KAQV 090600Z AUTO 27003KT 10SM CLR 05/M09 A3016 150 34 -900 270/03 RMK AO2 T00501094
03949KAQV AQV20160209000510902/09/16 00:05:31  5-MIN KAQV 090605Z AUTO VRB03KT 10SM CLR 05/M09 A3016 150 34 -900 VRB/03 RMK AO2 T00501094
03949KAQV AQV20160209001011002/09/16 00:10:31  5-MIN KAQV 090610Z AUTO VRB03KT 10SM CLR 04/M09 A3017 150 37 -1000 VRB/03 RMK AO2 T00441089
03949KAQV AQV20160209001511002/09/16 00:15:31  5-MIN KAQV 090615Z AUTO VRB03KT 10SM CLR 04/M09 A3017 150 37 -1000 VRB/03 RMK AO2 T00441089
03949KAQV AQV20160209002011002/09/16 00:20:31  5-MIN KAQV 090620Z AUTO VRB05KT 10SM CLR 04/M09 A3016 150 37 -1000 VRB/05 RMK AO2 T00441089
03949KAQV AQV20160209002510902/09/16 00:25:31  5-MIN KAQV 090625Z AUTO VRB05KT 10SM CLR 05/M09 A3016 150 36 -900 VRB/05 RMK AO2 T00501089
03949KAQV AQV20160209003011002/09/16 00:30:31  5-MIN KAQV 090630Z AUTO VRB04KT 10SM CLR 04/M09 A3016 160 37 -1000 VRB/04 RMK AO2 T00441089
03949KAQV AQV20160209003510902/09/16 00:35:31  5-MIN KAQV 090635Z AUTO VRB04KT 10SM CLR 05/M09 A3016 160 36 -900 VRB/04 RMK AO2 T00501089
03949KAQV AQV20160209004010902/09/16 00:40:31  5-MIN KAQV 090640Z AUTO 26005KT 10SM CLR 05/M09 A3016 150 34 -900 260/05 RMK AO2 T00501094
03949KAQV AQV20160209004510902/09/16 00:45:31  5-MIN KAQV 090645Z AUTO 28005KT 10SM CLR 05/M09 A3016 150 34 -900 270/05 RMK AO2 T00501094
03949KAQV AQV20160209005011602/09/16 00:50:31  5-MIN KAQV 090650Z AUTO 27005KT 10SM CLR 05/M09 A3017 150 34 -900 270/05 RMK AO2 SLP217 T00501094
03949KAQV AQV20160209005511602/09/16 00:55:31  5-MIN KAQV 090655Z AUTO VRB04KT 10SM CLR 06/M09 A3017 150 33 -900 VRB/04 RMK AO2 SLP217 T00561094
03949KAQV AQV20160209010010902/09/16 01:00:31  5-MIN KAQV 090700Z AUTO 27004KT 10SM CLR 05/M09 A3017 150 34 -900 270/04 RMK AO2 T00501094
03949KAQV AQV20160209010510902/09/16 01:05:31  5-MIN KAQV 090705Z AUTO 28006KT 10SM CLR 06/M09 A3017 140 33 -900 270/06 RMK AO2 T00561094
03949KAQV AQV20160209011010902/09/16 01:10:31  5-MIN KAQV 090710Z AUTO 28006KT 10SM CLR 06/M10 A3018 140 32 -900 280/06 RMK AO2 T00561100
03949KAQV AQV20160209011510902/09/16 01:15:31  5-MIN KAQV 090715Z AUTO VRB05KT 10SM CLR 06/M10 A3018 140 32 -900 VRB/05 RMK AO2 T00561100
03949KAQV AQV20160209012010902/09/16 01:20:31  5-MIN KAQV 090720Z AUTO 00000KT 10SM CLR 06/M10 A3018 140 32 -900 000/00 RMK AO2 T00561100
03949KAQV AQV20160209012510902/09/16 01:25:31  5-MIN KAQV 090725Z AUTO VRB03KT 10SM CLR 06/M10 A3018 140 32 -900 VRB/03 RMK AO2 T00561100
03949KAQV AQV20160209013010902/09/16 01:30:31  5-MIN KAQV 090730Z AUTO 00000KT 10SM CLR 05/M09 A3018 140 34 -900 000/00 RMK AO2 T00501094
03949KAQV AQV20160209013511002/09/16 01:35:31  5-MIN KAQV 090735Z AUTO 00000KT 10SM CLR 04/M09 A3018 140 36 -1000 000/00 RMK AO2 T00441094
03949KAQV AQV20160209014011002/09/16 01:40:31  5-MIN KAQV 090740Z AUTO VRB03KT 10SM CLR 04/M09 A3017 140 36 -1000 VRB/03 RMK AO2 T00441094
03949KAQV AQV20160209014511002/09/16 01:45:31  5-MIN KAQV 090745Z AUTO VRB03KT 10SM CLR 04/M09 A3017 140 37 -1000 VRB/03 RMK AO2 T00441089
03949KAQV AQV20160209015011602/09/16 01:50:31  5-MIN KAQV 090750Z AUTO VRB04KT 10SM CLR 05/M09 A3017 150 36 -900 VRB/04 RMK AO2 SLP218 T00501089
03949KAQV AQV20160209015511702/09/16 01:55:31  5-MIN KAQV 090755Z AUTO VRB04KT 10SM CLR 04/M09 A3017 150 37 -1000 VRB/04 RMK AO2 SLP218 T00441089
03949KAQV AQV20160209020011002/09/16 02:00:31  5-MIN KAQV 090800Z AUTO 00000KT 10SM CLR 04/M09 A3017 150 37 -1000 000/00 RMK AO2 T00441089
03949KAQV AQV20160209020511002/09/16 02:05:31  5-MIN KAQV 090805Z AUTO VRB04KT 10SM CLR 04/M09 A3017 150 36 -1000 VRB/04 RMK AO2 T00441094
03949KAQV AQV20160209021011002/09/16 02:10:31  5-MIN KAQV 090810Z AUTO 27004KT 10SM CLR 04/M09 A3017 150 36 -1000 270/04 RMK AO2 T00441094
03949KAQV AQV20160209021511002/09/16 02:15:31  5-MIN KAQV 090815Z AUTO VRB03KT 10SM CLR 04/M09 A3016 150 37 -1000 VRB/03 RMK AO2 T00441089
03949KAQV AQV20160209022011002/09/16 02:20:31  5-MIN KAQV 090820Z AUTO 28004KT 10SM CLR 04/M09 A3016 150 37 -1000 270/04 RMK AO2 T00441089
03949KAQV AQV20160209022511002/09/16 02:25:31  5-MIN KAQV 090825Z AUTO VRB04KT 10SM CLR 04/M09 A3016 150 36 -1000 VRB/04 RMK AO2 T00441094
03949KAQV AQV20160209023011002/09/16 02:30:31  5-MIN KAQV 090830Z AUTO 26004KT 10SM CLR 04/M09 A3017 150 37 -1000 260/04 RMK AO2 T00441089
03949KAQV AQV20160209023511002/09/16 02:35:31  5-MIN KAQV 090835Z AUTO VRB04KT 10SM CLR 04/M09 A3017 150 37 -1000 VRB/04 RMK AO2 T00441089
03949KAQV AQV20160209024011002/09/16 02:40:31  5-MIN KAQV 090840Z AUTO 27004KT 10SM CLR 04/M09 A3017 150 37 -1000 270/04 RMK AO2 T00441089
03949KAQV AQV20160209024511002/09/16 02:45:31  5-MIN KAQV 090845Z AUTO VRB05KT 10SM CLR 04/M09 A3017 150 37 -1000 VRB/05 RMK AO2 T00441089
03949KAQV AQV20160209025012302/09/16 02:50:31  5-MIN KAQV 090850Z AUTO VRB05KT 10SM CLR 04/M09 A3017 150 37 -1000 VRB/05 RMK AO2 SLP217 T00441089 51002
03949KAQV AQV20160209025512302/09/16 02:55:31  5-MIN KAQV 090855Z AUTO 27005KT 10SM CLR 04/M09 A3017 150 37 -1000 270/05 RMK AO2 SLP217 T00441089 51002
03949KAQV AQV20160209030011002/09/16 03:00:31  5-MIN KAQV 090900Z AUTO VRB04KT 10SM CLR 04/M09 A3017 150 37 -1000 VRB/04 RMK AO2 T00441089
03949KAQV AQV20160209030511002/09/16 03:05:31  5-MIN KAQV 090905Z AUTO VRB03KT 10SM CLR 04/M09 A3017 150 37 -1000 VRB/03 RMK AO2 T00441089
03949KAQV AQV20160209031011002/09/16 03:10:31  5-MIN KAQV 090910Z AUTO VRB04KT 10SM CLR 04/M09 A3017 150 37 -1000 VRB/04 RMK AO2 T00441089
03949KAQV AQV20160209031511002/09/16 03:15:31  5-MIN KAQV 090915Z AUTO VRB03KT 10SM CLR 04/M09 A3017 140 37 -1000 VRB/03 RMK AO2 T00441089
03949KAQV AQV20160209032011002/09/16 03:20:31  5-MIN KAQV 090920Z AUTO VRB04KT 10SM CLR 04/M09 A3017 150 39 -1100 VRB/04 RMK AO2 T00391089
03949KAQV AQV20160209032511002/09/16 03:25:31  5-MIN KAQV 090925Z AUTO 00000KT 10SM CLR 04/M09 A3017 140 39 -1100 000/00 RMK AO2 T00391089
03949KAQV AQV20160209033011002/09/16 03:30:31  5-MIN KAQV 090930Z AUTO 00000KT 10SM CLR 04/M09 A3017 150 39 -1100 000/00 RMK AO2 T00391089
03949KAQV AQV20160209033511002/09/16 03:35:31  5-MIN KAQV 090935Z AUTO VRB05KT 10SM CLR 04/M09 A3017 150 39 -1100 VRB/05 RMK AO2 T00391089
03949KAQV AQV20160209034011002/09/16 03:40:31  5-MIN KAQV 090940Z AUTO 00000KT 10SM CLR 04/M09 A3016 150 39 -1100 000/00 RMK AO2 T00391089
03949KAQV AQV20160209034511002/09/16 03:45:31  5-MIN KAQV 090945Z AUTO VRB05KT 10SM CLR 04/M09 A3017 150 39 -1100 VRB/05 RMK AO2 T00391089
03949KAQV AQV20160209035011702/09/16 03:50:31  5-MIN KAQV 090950Z AUTO VRB04KT 10SM CLR 04/M09 A3017 150 39 -1100 VRB/04 RMK AO2 SLP217 T00391089
03949KAQV AQV20160209035511702/09/16 03:55:31  5-MIN KAQV 090955Z AUTO VRB05KT 10SM CLR 04/M09 A3017 150 39 -1100 VRB/05 RMK AO2 SLP217 T00391089
03949KAQV AQV20160209040011002/09/16 04:00:31  5-MIN KAQV 091000Z AUTO VRB03KT 10SM CLR 04/M09 A3017 140 39 -1100 VRB/03 RMK AO2 T00391089
03949KAQV AQV20160209040511002/09/16 04:05:31  5-MIN KAQV 091005Z AUTO VRB05KT 10SM CLR 04/M09 A3017 140 39 -1100 VRB/05 RMK AO2 T00391089
03949KAQV AQV20160209041011002/09/16 04:10:31  5-MIN KAQV 091010Z AUTO 00000KT 10SM CLR 03/M09 A3018 140 40 -1200 000/00 RMK AO2 T00331089
03949KAQV AQV20160209041511002/09/16 04:15:31  5-MIN KAQV 091015Z AUTO VRB03KT 10SM CLR 04/M09 A3018 140 39 -1100 VRB/03 RMK AO2 T00391089
03949KAQV AQV20160209042011002/09/16 04:20:31  5-MIN KAQV 091020Z AUTO VRB03KT 10SM CLR 04/M09 A3019 130 39 -1100 VRB/03 RMK AO2 T00391089
03949KAQV AQV20160209042511002/09/16 04:25:31  5-MIN KAQV 091025Z AUTO VRB03KT 10SM CLR 03/M09 A3018 130 40 -1200 VRB/03 RMK AO2 T00331089
03949KAQV AQV20160209043011002/09/16 04:30:31  5-MIN KAQV 091030Z AUTO 00000KT 10SM CLR 03/M09 A3018 130 40 -1200 000/00 RMK AO2 T00331089
03949KAQV AQV20160209043511002/09/16 04:35:31  5-MIN KAQV 091035Z AUTO VRB03KT 10SM CLR 03/M09 A3018 130 40 -1200 VRB/03 RMK AO2 T00331089
03949KAQV AQV20160209044011002/09/16 04:40:31  5-MIN KAQV 091040Z AUTO 00000KT 10SM CLR 03/M09 A3019 130 40 -1200 000/00 RMK AO2 T00331089
03949KAQV AQV20160209044511002/09/16 04:45:31  5-MIN KAQV 091045Z AUTO VRB03KT 10SM CLR 03/M08 A3019 130 42 -1200 VRB/03 RMK AO2 T00331083
03949KAQV AQV20160209045011702/09/16 04:50:31  5-MIN KAQV 091050Z AUTO VRB03KT 10SM CLR 03/M08 A3019 130 42 -1200 VRB/03 RMK AO2 SLP223 T00331083
03949KAQV AQV20160209045511702/09/16 04:55:31  5-MIN KAQV 091055Z AUTO VRB04KT 10SM CLR 03/M08 A3018 130 42 -1200 VRB/04 RMK AO2 SLP223 T00331083
03949KAQV AQV20160209050011002/09/16 05:00:31  5-MIN KAQV 091100Z AUTO VRB03KT 10SM CLR 03/M09 A3018 130 40 -1200 VRB/03 RMK AO2 T00331089
03949KAQV AQV20160209050511002/09/16 05:05:31  5-MIN KAQV 091105Z AUTO 00000KT 10SM CLR 03/M08 A3019 130 42 -1200 000/00 RMK AO2 T00331083
03949KAQV AQV20160209051011002/09/16 05:10:31  5-MIN KAQV 091110Z AUTO 00000KT 10SM CLR 03/M08 A3019 130 42 -1200 000/00 RMK AO2 T00331083
03949KAQV AQV20160209051511002/09/16 05:15:31  5-MIN KAQV 091115Z AUTO VRB03KT 10SM CLR 03/M08 A3019 130 42 -1200 VRB/03 RMK AO2 T00331083
03949KAQV AQV20160209052011002/09/16 05:20:31  5-MIN KAQV 091120Z AUTO 28004KT 10SM CLR 03/M08 A3019 130 42 -1200 270/04 RMK AO2 T00331083
03949KAQV AQV20160209052511002/09/16 05:25:31  5-MIN KAQV 091125Z AUTO VRB03KT 10SM CLR 03/M08 A3019 130 42 -1200 VRB/03 RMK AO2 T00331083
03949KAQV AQV20160209053011002/09/16 05:30:31  5-MIN KAQV 091130Z AUTO VRB04KT 10SM CLR 03/M08 A3019 130 42 -1200 VRB/04 RMK AO2 T00331083
03949KAQV AQV20160209053511002/09/16 05:35:31  5-MIN KAQV 091135Z AUTO VRB03KT 10SM CLR 03/M08 A3019 130 42 -1200 VRB/03 RMK AO2 T00331083
03949KAQV AQV20160209054011002/09/16 05:40:31  5-MIN KAQV 091140Z AUTO VRB03KT 10SM CLR 03/M08 A3019 130 42 -1200 VRB/03 RMK AO2 T00331083
03949KAQV AQV20160209054511002/09/16 05:45:31  5-MIN KAQV 091145Z AUTO VRB04KT 10SM CLR 03/M08 A3019 130 42 -1200 VRB/04 RMK AO2 T00331083
03949KAQV AQV20160209055013502/09/16 05:50:31  5-MIN KAQV 091150Z AUTO VRB04KT 10SM CLR 03/M08 A3019 130 42 -1200 VRB/04 RMK AO2 SLP225 T00331083 10056 20033 50003
03949KAQV AQV20160209055513502/09/16 05:55:31  5-MIN KAQV 091155Z AUTO VRB03KT 10SM CLR 03/M08 A3019 130 46 -1200 VRB/03 RMK AO2 SLP225 T00281078 10056 20028 50003
03949KAQV AQV20160209060011002/09/16 06:00:31  5-MIN KAQV 091200Z AUTO VRB03KT 10SM CLR 03/M08 A3019 120 42 -1200 VRB/03 RMK AO2 T00331083
03949KAQV AQV20160209060511002/09/16 06:05:31  5-MIN KAQV 091205Z AUTO VRB03KT 10SM CLR 03/M08 A3019 120 46 -1200 VRB/03 RMK AO2 T00281078
03949KAQV AQV20160209061011002/09/16 06:10:31  5-MIN KAQV 091210Z AUTO VRB03KT 10SM CLR 03/M08 A3019 120 46 -1200 VRB/03 RMK AO2 T00281078
03949KAQV AQV20160209061511002/09/16 06:15:31  5-MIN KAQV 091215Z AUTO VRB03KT 10SM CLR 03/M08 A3020 120 46 -1200 VRB/03 RMK AO2 T00281078
03949KAQV AQV20160209062011002/09/16 06:20:31  5-MIN KAQV 091220Z AUTO VRB04KT 10SM CLR 03/M08 A3019 130 46 -1200 VRB/04 RMK AO2 T00281078
03949KAQV AQV20160209062511002/09/16 06:25:31  5-MIN KAQV 091225Z AUTO 00000KT 10SM CLR 03/M08 A3019 120 46 -1200 000/00 RMK AO2 T00281078
03949KAQV AQV20160209063011002/09/16 06:30:31  5-MIN KAQV 091230Z AUTO 00000KT 10SM CLR 03/M08 A3020 120 46 -1200 000/00 RMK AO2 T00281078
03949KAQV AQV20160209063511002/09/16 06:35:31  5-MIN KAQV 091235Z AUTO VRB03KT 10SM CLR 03/M08 A3020 120 46 -1200 VRB/03 RMK AO2 T00281078
03949KAQV AQV20160209064011002/09/16 06:40:31  5-MIN KAQV 091240Z AUTO 00000KT 10SM CLR 03/M08 A3019 120 46 -1200 000/00 RMK AO2 T00281078
03949KAQV AQV20160209064511002/09/16 06:45:31  5-MIN KAQV 091245Z AUTO VRB03KT 10SM CLR 02/M08 A3020 120 47 -1300 VRB/03 RMK AO2 T00221078
03949KAQV AQV20160209065011702/09/16 06:50:31  5-MIN KAQV 091250Z AUTO VRB03KT 10SM CLR 03/M08 A3020 120 46 -1200 VRB/03 RMK AO2 SLP228 T00281078
03949KAQV AQV20160209065511702/09/16 06:55:31  5-MIN KAQV 091255Z AUTO VRB05KT 10SM CLR 03/M08 A3020 120 46 -1300 VRB/05 RMK AO2 SLP229 T00281078
03949KAQV AQV20160209070011002/09/16 07:00:31  5-MIN KAQV 091300Z AUTO VRB04KT 10SM CLR 02/M08 A3020 120 47 -1300 VRB/04 RMK AO2 T00221078
03949KAQV AQV20160209070511002/09/16 07:05:31  5-MIN KAQV 091305Z AUTO 27005KT 10SM CLR 02/M08 A3020 110 47 -1300 270/05 RMK AO2 T00221078
03949KAQV AQV20160209071011002/09/16 07:10:31  5-MIN KAQV 091310Z AUTO 27003KT 10SM CLR 03/M08 A3021 110 46 -1300 260/03 RMK AO2 T00281078
03949KAQV AQV20160209071511002/09/16 07:15:31  5-MIN KAQV 091315Z AUTO VRB03KT 10SM CLR 03/M08 A3021 110 46 -1300 VRB/03 RMK AO2 T00281078
03949KAQV AQV20160209072011002/09/16 07:20:31  5-MIN KAQV 091320Z AUTO VRB03KT 10SM CLR 03/M08 A3021 110 46 -1300 VRB/03 RMK AO2 T00281078
03949KAQV AQV20160209072511002/09/16 07:25:31  5-MIN KAQV 091325Z AUTO VRB04KT 10SM CLR 03/M08 A3021 110 46 -1300 VRB/04 RMK AO2 T00281078
03949KAQV AQV20160209073011002/09/16 07:30:31  5-MIN KAQV 091330Z AUTO VRB03KT 10SM CLR 03/M08 A3021 110 46 -1300 VRB/03 RMK AO2 T00281078
03949KAQV AQV20160209073511002/09/16 07:35:31  5-MIN KAQV 091335Z AUTO VRB03KT 10SM CLR 03/M08 A3021 110 46 -1300 VRB/03 RMK AO2 T00281078
03949KAQV AQV20160209074011002/09/16 07:40:31  5-MIN KAQV 091340Z AUTO VRB04KT 10SM CLR 03/M08 A3021 110 44 -1200 VRB/04 RMK AO2 T00331078
03949KAQV AQV20160209074511002/09/16 07:45:31  5-MIN KAQV 091345Z AUTO VRB04KT 10SM CLR 03/M08 A3021 110 44 -1200 VRB/04 RMK AO2 T00331078
03949KAQV AQV20160209075011702/09/16 07:50:31  5-MIN KAQV 091350Z AUTO VRB04KT 10SM CLR 04/M07 A3021 110 44 -1100 VRB/04 RMK AO2 SLP233 T00391072
03949KAQV AQV20160209075511702/09/16 07:55:31  5-MIN KAQV 091355Z AUTO VRB06KT 10SM CLR 04/M08 A3021 110 42 -1100 VRB/06 RMK AO2 SLP234 T00391078
03949KAQV AQV20160209080011002/09/16 08:00:31  5-MIN KAQV 091400Z AUTO VRB05KT 10SM CLR 04/M08 A3022 100 41 -1100 VRB/05 RMK AO2 T00441078
03949KAQV AQV20160209080511002/09/16 08:05:31  5-MIN KAQV 091405Z AUTO VRB04KT 10SM CLR 04/M08 A3022 100 41 -1100 VRB/04 RMK AO2 T00441078
03949KAQV AQV20160209081011002/09/16 08:10:31  5-MIN KAQV 091410Z AUTO VRB06KT 10SM CLR 05/M08 A3022 100 39 -1000 VRB/06 RMK AO2 T00501078
03949KAQV AQV20160209081511002/09/16 08:15:31  5-MIN KAQV 091415Z AUTO VRB05KT 10SM CLR 05/M08 A3022 100 39 -1000 VRB/05 RMK AO2 T00501078
03949KAQV AQV20160209082012602/09/16 08:20:31  5-MIN KAQV 091420Z AUTO 30008KT 240V340 10SM CLR 05/M08 A3022 100 39 -1000 300/08 240V340 RMK AO2 T00501078
03949KAQV AQV20160209082510902/09/16 08:25:31  5-MIN KAQV 091425Z AUTO VRB04KT 10SM CLR 05/M08 A3023 90 39 -1000 VRB/04 RMK AO2 T00501078
03949KAQV AQV20160209083010902/09/16 08:30:31  5-MIN KAQV 091430Z AUTO VRB06KT 10SM CLR 05/M08 A3023 90 39 -1000 VRB/06 RMK AO2 T00501078
03949KAQV AQV20160209083510802/09/16 08:35:31  5-MIN KAQV 091435Z AUTO VRB06KT 10SM CLR 06/M08 A3023 90 37 -900 VRB/06 RMK AO2 T00561078
03949KAQV AQV20160209084010802/09/16 08:40:31  5-MIN KAQV 091440Z AUTO VRB05KT 10SM CLR 06/M08 A3023 90 37 -900 VRB/05 RMK AO2 T00561078
03949KAQV AQV20160209084510802/09/16 08:45:31  5-MIN KAQV 091445Z AUTO VRB04KT 10SM CLR 06/M08 A3024 80 36 -900 VRB/04 RMK AO2 T00611078
03949KAQV AQV20160209085012102/09/16 08:50:31  5-MIN KAQV 091450Z AUTO VRB05KT 10SM CLR 06/M08 A3024 80 36 -900 VRB/05 RMK AO2 SLP241 T00611078 53008
03949KAQV AQV20160209085512102/09/16 08:55:31  5-MIN KAQV 091455Z AUTO VRB06KT 10SM CLR 06/M08 A3024 80 36 -900 VRB/06 RMK AO2 SLP241 T00611078 53008
03949KAQV AQV20160209090010802/09/16 09:00:31  5-MIN KAQV 091500Z AUTO VRB04KT 10SM CLR 07/M08 A3024 80 33 -800 VRB/04 RMK AO2 T00671083
03949KAQV AQV20160209090510802/09/16 09:05:31  5-MIN KAQV 091505Z AUTO VRB04KT 10SM CLR 07/M08 A3024 90 33 -700 VRB/04 RMK AO2 T00721078
03949KAQV AQV20160209091010802/09/16 09:10:31  5-MIN KAQV 091510Z AUTO VRB05KT 10SM CLR 07/M08 A3023 90 33 -700 VRB/05 RMK AO2 T00721078
03949KAQV AQV20160209091510802/09/16 09:15:31  5-MIN KAQV 091515Z AUTO VRB06KT 10SM CLR 07/M08 A3023 90 32 -700 VRB/06 RMK AO2 T00721083
03949KAQV AQV20160209092010802/09/16 09:20:31  5-MIN KAQV 091520Z AUTO VRB04KT 10SM CLR 08/M08 A3023 90 31 -700 VRB/04 RMK AO2 T00781083
03949KAQV AQV20160209092512402/09/16 09:25:31  5-MIN KAQV 091525Z AUTO 31008KT 260V020 10SM CLR 08/M08 A3023 90 31 -700 300/08 260V020 RMK AO2 T00781083
03949KAQV AQV20160209093011402/09/16 09:30:31  5-MIN KAQV 091530Z AUTO 31009G17KT 10SM CLR 08/M08 A3023 90 30 -600 310/09G17 RMK AO2 T00831083
03949KAQV AQV20160209093511402/09/16 09:35:31  5-MIN KAQV 091535Z AUTO VRB04G17KT 10SM CLR 08/M08 A3023 90 30 -600 VRB/04G17 RMK AO2 T00831083
03949KAQV AQV20160209094010802/09/16 09:40:31  5-MIN KAQV 091540Z AUTO VRB06KT 10SM CLR 08/M08 A3024 80 30 -600 VRB/06 RMK AO2 T00831083
03949KAQV AQV20160209094513002/09/16 09:45:31  5-MIN KAQV 091545Z AUTO 32008G15KT 270V360 10SM CLR 08/M09 A3024 80 28 -600 320/08G15 270V360 RMK AO2 T00831089
03949KAQV AQV20160209095013702/09/16 09:50:31  5-MIN KAQV 091550Z AUTO 32007G15KT 260V360 10SM CLR 09/M09 A3024 80 27 -500 310/07G15 260V360 RMK AO2 SLP242 T00891089
03949KAQV AQV20160209095513702/09/16 09:55:31  5-MIN KAQV 091555Z AUTO 28007G15KT 210V320 10SM CLR 09/M08 A3024 80 28 -500 280/07G15 210V320 RMK AO2 SLP242 T00891083
03949KAQV AQV20160209100011402/09/16 10:00:31  5-MIN KAQV 091600Z AUTO VRB06G15KT 10SM CLR 09/M09 A3024 80 27 -500 VRB/06G15 RMK AO2 T00891089
03949KAQV AQV20160209100511402/09/16 10:05:31  5-MIN KAQV 091605Z AUTO VRB06G16KT 10SM CLR 09/M09 A3024 80 27 -500 VRB/06G16 RMK AO2 T00891089
03949KAQV AQV20160209101011402/09/16 10:10:31  5-MIN KAQV 091610Z AUTO 32007G16KT 10SM CLR 09/M09 A3024 80 26 -500 310/07G16 RMK AO2 T00941089
03949KAQV AQV20160209101513002/09/16 10:15:31  5-MIN KAQV 091615Z AUTO 33009G19KT 260V040 10SM CLR 09/M09 A3024 80 26 -500 330/09G19 260V040 RMK AO2 T00941089
03949KAQV AQV20160209102013002/09/16 10:20:31  5-MIN KAQV 091620Z AUTO 33008G19KT 280V040 10SM CLR 10/M09 A3024 90 25 -400 330/08G19 280V040 RMK AO2 T01001089
03949KAQV AQV20160209102510802/09/16 10:25:31  5-MIN KAQV 091625Z AUTO VRB06KT 10SM CLR 10/M09 A3024 80 25 -400 VRB/06 RMK AO2 T01001089
03949KAQV AQV20160209103011402/09/16 10:30:31  5-MIN KAQV 091630Z AUTO VRB05G17KT 10SM CLR 10/M10 A3023 90 23 -400 VRB/05G17 RMK AO2 T01001100
03949KAQV AQV20160209103509802/09/16 10:35:31  5-MIN KAQV 091635Z AUTO 10SM CLR 11/M09 A3023 90 23 -300 M /M RMK AO2 T01061094
03949KAQV AQV20160209104012402/09/16 10:40:31  5-MIN KAQV 091640Z AUTO 32008KT 280V020 10SM CLR 11/M10 A3023 90 22 -300 320/08 280V020 RMK AO2 T01061100
03949KAQV AQV20160209104513002/09/16 10:45:31  5-MIN KAQV 091645Z AUTO 31009G18KT 250V090 10SM CLR 11/M10 A3023 90 22 -300 300/09G18 250V090 RMK AO2 T01061100
03949KAQV AQV20160209105013702/09/16 10:50:31  5-MIN KAQV 091650Z AUTO 30008G18KT 270V040 10SM CLR 10/M10 A3023 90 23 -400 300/08G18 270V040 RMK AO2 SLP239 T01001100
03949KAQV AQV20160209105513702/09/16 10:55:31  5-MIN KAQV 091655Z AUTO 33009G17KT 300V020 10SM CLR 11/M10 A3023 90 22 -300 330/09G17 300V020 RMK AO2 SLP237 T01061100
03949KAQV AQV20160209110013002/09/16 11:00:31  5-MIN KAQV 091700Z AUTO 29008G17KT 240V340 10SM CLR 11/M10 A3023 90 22 -300 290/08G17 240V340 RMK AO2 T01061100
03949KAQV AQV20160209110511402/09/16 11:05:31  5-MIN KAQV 091705Z AUTO VRB06G15KT 10SM CLR 11/M09 A3023 90 23 -300 VRB/06G15 RMK AO2 T01061094
03949KAQV AQV20160209111013102/09/16 11:10:31  5-MIN KAQV 091710Z AUTO 29011G19KT 250V320 10SM CLR 11/M10 A3022 100 22 -300 280/11G19 250V320 RMK AO2 T01061100
03949KAQV AQV20160209111513102/09/16 11:15:31  5-MIN KAQV 091715Z AUTO 32009G19KT 270V020 10SM CLR 11/M10 A3022 100 22 -300 320/09G19 270V020 RMK AO2 T01061100
03949KAQV AQV20160209112009902/09/16 11:20:31  5-MIN KAQV 091720Z AUTO 10SM CLR 11/M10 A3022 100 22 -300 M /M RMK AO2 T01061100
03949KAQV AQV20160209112513102/09/16 11:25:31  5-MIN KAQV 091725Z AUTO 30007G15KT 240V350 10SM CLR 11/M09 A3022 100 22 -200 290/07G15 240V350 RMK AO2 T01111094
03949KAQV AQV20160209113013102/09/16 11:30:31  5-MIN KAQV 091730Z AUTO 29012G23KT 250V310 10SM CLR 11/M10 A3022 100 22 -200 280/12G23 250V310 RMK AO2 T01111100
03949KAQV AQV20160209113513102/09/16 11:35:31  5-MIN KAQV 091735Z AUTO 28010G23KT 250V340 10SM CLR 11/M11 A3021 110 21 -300 280/10G23 250V340 RMK AO2 T01061106
03949KAQV AQV20160209114009902/09/16 11:40:31  5-MIN KAQV 091740Z AUTO 10SM CLR 11/M10 A3021 110 22 -200 M /M RMK AO2 T01111100
03949KAQV AQV20160209114511502/09/16 11:45:31  5-MIN KAQV 091745Z AUTO 27013G19KT 10SM CLR 11/M10 A3021 110 22 -300 260/13G19 RMK AO2 T01061100
03949KAQV AQV20160209115015602/09/16 11:50:31  5-MIN KAQV 091750Z AUTO 28009G20KT 240V320 10SM CLR 11/M09 A3020 120 22 -200 270/09G20 240V320 RMK AO2 SLP229 T01111094 10117 20022 53015
03949KAQV AQV20160209115515602/09/16 11:55:31  5-MIN KAQV 091755Z AUTO 30008G20KT 250V080 10SM CLR 11/M09 A3020 120 22 -200 300/08G20 250V080 RMK AO2 SLP227 T01111094 10117 20022 53015
03949KAQV AQV20160209120013102/09/16 12:00:31  5-MIN KAQV 091800Z AUTO 29010G20KT 270V350 10SM CLR 11/M10 A3020 120 22 -300 290/10G20 270V350 RMK AO2 T01061100
03949KAQV AQV20160209120513102/09/16 12:05:31  5-MIN KAQV 091805Z AUTO 28008G18KT 220V320 10SM CLR 11/M10 A3020 120 22 -200 270/08G18 220V320 RMK AO2 T01111100
03949KAQV AQV20160209121011502/09/16 12:10:31  5-MIN KAQV 091810Z AUTO VRB06G16KT 10SM CLR 12/M10 A3020 120 21 -200 VRB/06G16 RMK AO2 T01171100
03949KAQV AQV20160209121513102/09/16 12:15:31  5-MIN KAQV 091815Z AUTO 29011G19KT 240V320 10SM CLR 12/M11 A3019 120 20 -200 280/11G19 240V320 RMK AO2 T01171106
03949KAQV AQV20160209122013102/09/16 12:20:31  5-MIN KAQV 091820Z AUTO 30007G19KT 250V330 10SM CLR 12/M10 A3019 130 20 -100 290/07G19 250V330 RMK AO2 T01221100
03949KAQV AQV20160209122513102/09/16 12:25:31  5-MIN KAQV 091825Z AUTO 31007G19KT 240V360 10SM CLR 12/M10 A3019 130 20 -100 310/07G19 240V360 RMK AO2 T01221100
03949KAQV AQV20160209123011502/09/16 12:30:31  5-MIN KAQV 091830Z AUTO 28009G21KT 10SM CLR 12/M11 A3019 130 20 -100 270/09G21 RMK AO2 T01171106
03949KAQV AQV20160209123513102/09/16 12:35:31  5-MIN KAQV 091835Z AUTO 29007G21KT 250V140 10SM CLR 12/M11 A3018 140 20 -100 280/07G21 250V140 RMK AO2 T01171106
03949KAQV AQV20160209124011502/09/16 12:40:31  5-MIN KAQV 091840Z AUTO VRB06G18KT 10SM CLR 12/M09 A3018 140 21 -100 VRB/06G18 RMK AO2 T01221094
03949KAQV AQV20160209124512802/09/16 12:45:31  5-MIN KAQV 091845Z AUTO 30008G16KT 250V360 10SM CLR 13/M10 A3018 140 19 0 300/08G16 250V360 RMK AO2 T01281100
03949KAQV AQV20160209125012202/09/16 12:50:31  5-MIN KAQV 091850Z AUTO VRB06G16KT 10SM CLR 12/M10 A3017 150 20 -100 VRB/06G16 RMK AO2 SLP218 T01221100
03949KAQV AQV20160209125510602/09/16 12:55:31  5-MIN KAQV 091855Z AUTO 10SM CLR 12/M11 A3017 150 19 -100 M /M RMK AO2 SLP217 T01221106
03949KAQV AQV20160209130011202/09/16 13:00:31  5-MIN KAQV 091900Z AUTO 29012G20KT 10SM CLR 13/M10 A3016 150 19 0 290/12G20 RMK AO2 T01281100
03949KAQV AQV20160209130512802/09/16 13:05:31  5-MIN KAQV 091905Z AUTO 30007G20KT 230V360 10SM CLR 13/M10 A3016 150 19 0 300/07G20 230V360 RMK AO2 T01281100
03949KAQV AQV20160209131012802/09/16 13:10:31  5-MIN KAQV 091910Z AUTO 28012G20KT 230V320 10SM CLR 12/M11 A3016 160 19 0 280/12G20 230V320 RMK AO2 T01221106
03949KAQV AQV20160209131512802/09/16 13:15:31  5-MIN KAQV 091915Z AUTO 29007G20KT 260V340 10SM CLR 13/M11 A3015 160 18 0 280/07G20 260V340 RMK AO2 T01281106
03949KAQV AQV20160209132012802/09/16 13:20:31  5-MIN KAQV 091920Z AUTO 29011G20KT 260V340 10SM CLR 13/M10 A3015 160 19 0 290/11G20 260V340 RMK AO2 T01331100
03949KAQV AQV20160209194510902/09/16 19:45:31  5-MIN KAQV 100145Z AUTO 00000KT 10SM CLR 10/M04 A3019 130 36 -400 000/00 RMK AO2 T01001044
03949KAQV AQV20160209195011602/09/16 19:50:31  5-MIN KAQV 100150Z AUTO 00000KT 10SM CLR 10/M04 A3019 130 36 -400 000/00 RMK AO2 SLP225 T01001044
03949KAQV AQV20160209195511602/09/16 19:55:31  5-MIN KAQV 100155Z AUTO 00000KT 10SM CLR 09/M04 A3019 120 39 -400 000/00 RMK AO2 SLP226 T00941039
03949KAQV AQV20160209200010902/09/16 20:00:31  5-MIN KAQV 100200Z AUTO 00000KT 10SM CLR 09/M04 A3019 120 39 -400 000/00 RMK AO2 T00941039
03949KAQV AQV20160209200510902/09/16 20:05:31  5-MIN KAQV 100205Z AUTO 00000KT 10SM CLR 09/M04 A3019 120 39 -400 000/00 RMK AO2 T00941039
03949KAQV AQV20160209201010902/09/16 20:10:31  5-MIN KAQV 100210Z AUTO 00000KT 10SM CLR 09/M04 A3020 120 40 -500 000/00 RMK AO2 T00891039
03949KAQV AQV20160209201510902/09/16 20:15:31  5-MIN KAQV 100215Z AUTO 00000KT 10SM CLR 08/M03 A3020 120 43 -600 000/00 RMK AO2 T00831033
03949KAQV AQV20160209202010902/09/16 20:20:31  5-MIN KAQV 100220Z AUTO 00000KT 10SM CLR 08/M03 A3020 120 43 -600 000/00 RMK AO2 T00831033
03949KAQV AQV20160209202510902/09/16 20:25:31  5-MIN KAQV 100225Z AUTO 00000KT 10SM CLR 08/M03 A3020 120 43 -600 000/00 RMK AO2 T00831033
03949KAQV AQV20160209203010902/09/16 20:30:31  5-MIN KAQV 100230Z AUTO 00000KT 10SM CLR 09/M04 A3020 120 40 -500 000/00 RMK AO2 T00891039
03949KAQV AQV20160209203510902/09/16 20:35:31  5-MIN KAQV 100235Z AUTO 00000KT 10SM CLR 08/M04 A3020 120 42 -600 000/00 RMK AO2 T00831039
03949KAQV AQV20160209204010902/09/16 20:40:31  5-MIN KAQV 100240Z AUTO 00000KT 10SM CLR 08/M03 A3021 110 45 -600 000/00 RMK AO2 T00781033
03949KAQV AQV20160209204510902/09/16 20:45:31  5-MIN KAQV 100245Z AUTO 00000KT 10SM CLR 07/M03 A3021 110 47 -700 000/00 RMK AO2 T00721033
03949KAQV AQV20160209205012202/09/16 20:50:31  5-MIN KAQV 100250Z AUTO 00000KT 10SM CLR 08/M03 A3021 110 45 -600 000/00 RMK AO2 SLP231 T00781033 53010
03949KAQV AQV20160209205512202/09/16 20:55:31  5-MIN KAQV 100255Z AUTO 00000KT 10SM CLR 07/M03 A3021 110 49 -700 000/00 RMK AO2 SLP231 T00721028 53010
03949KAQV AQV20160209210010902/09/16 21:00:31  5-MIN KAQV 100300Z AUTO 00000KT 10SM CLR 07/M02 A3021 110 53 -800 000/00 RMK AO2 T00671022
03949KAQV AQV20160209210510902/09/16 21:05:31  5-MIN KAQV 100305Z AUTO 00000KT 10SM CLR 07/M03 A3021 110 51 -800 000/00 RMK AO2 T00671028
03949KAQV AQV20160209211010902/09/16 21:10:31  5-MIN KAQV 100310Z AUTO 00000KT 10SM CLR 06/M03 A3021 110 53 -900 000/00 RMK AO2 T00611028
03949KAQV AQV20160209211510902/09/16 21:15:31  5-MIN KAQV 100315Z AUTO 00000KT 10SM CLR 06/M03 A3022 100 55 -900 000/00 RMK AO2 T00561028
03949KAQV AQV20160209212010902/09/16 21:20:31  5-MIN KAQV 100320Z AUTO 00000KT 10SM CLR 06/M02 A3022 100 57 -900 000/00 RMK AO2 T00561022
03949KAQV AQV20160209212510902/09/16 21:25:31  5-MIN KAQV 100325Z AUTO 00000KT 10SM CLR 06/M02 A3022 100 57 -900 000/00 RMK AO2 T00561022
03949KAQV AQV20160209213011002/09/16 21:30:31  5-MIN KAQV 100330Z AUTO 00000KT 10SM CLR 05/M02 A3022 100 62 -1000 000/00 RMK AO2 T00501017
03949KAQV AQV20160209213510902/09/16 21:35:31  5-MIN KAQV 100335Z AUTO 00000KT 10SM CLR 06/M02 A3022 100 57 -900 000/00 RMK AO2 T00561022
03949KAQV AQV20160209214011002/09/16 21:40:31  5-MIN KAQV 100340Z AUTO 35003KT 10SM CLR 05/M03 A3023 100 57 -1000 350/03 RMK AO2 T00501028
03949KAQV AQV20160209214510802/09/16 21:45:31  5-MIN KAQV 100345Z AUTO 00000KT 10SM CLR 06/M03 A3023 90 53 -900 000/00 RMK AO2 T00561033
03949KAQV AQV20160209215011602/09/16 21:50:31  5-MIN KAQV 100350Z AUTO 00000KT 10SM CLR 05/M03 A3023 90 57 -1000 000/00 RMK AO2 SLP237 T00501028
03949KAQV AQV20160209215511602/09/16 21:55:31  5-MIN KAQV 100355Z AUTO 00000KT 10SM CLR 05/M02 A3023 90 59 -1000 000/00 RMK AO2 SLP238 T00501022
03949KAQV AQV20160209220010902/09/16 22:00:31  5-MIN KAQV 100400Z AUTO 00000KT 10SM CLR 05/M03 A3023 90 57 -1000 000/00 RMK AO2 T00501028
03949KAQV AQV20160209220510902/09/16 22:05:31  5-MIN KAQV 100405Z AUTO 00000KT 10SM CLR 04/M02 A3023 90 64 -1100 000/00 RMK AO2 T00441017
03949KAQV AQV20160209221010802/09/16 22:10:31  5-MIN KAQV 100410Z AUTO 00000KT 9SM CLR 05/M03 A3023 90 57 -1000 000/00 RMK AO2 T00501028
03949KAQV AQV20160209221510702/09/16 22:15:31  5-MIN KAQV 100415Z AUTO 00000KT 9SM CLR 06/M03 A3023 90 55 -900 000/00 RMK AO2 T00561028
03949KAQV AQV20160209222010802/09/16 22:20:31  5-MIN KAQV 100420Z AUTO 00000KT 9SM CLR 05/M03 A3024 90 57 -1000 000/00 RMK AO2 T00501028
03949KAQV AQV20160209222510802/09/16 22:25:31  5-MIN KAQV 100425Z AUTO 00000KT 9SM CLR 04/M02 A3024 90 64 -1100 000/00 RMK AO2 T00441017
03949KAQV AQV20160209223010802/09/16 22:30:31  5-MIN KAQV 100430Z AUTO 00000KT 8SM CLR 04/M01 A3024 80 67 -1100 000/00 RMK AO2 T00441011
03949KAQV AQV20160209223510802/09/16 22:35:31  5-MIN KAQV 100435Z AUTO 00000KT 7SM CLR 04/M02 A3024 80 67 -1200 000/00 RMK AO2 T00391017
03949KAQV AQV20160209224010802/09/16 22:40:31  5-MIN KAQV 100440Z AUTO 00000KT 8SM CLR 04/M01 A3024 80 70 -1200 000/00 RMK AO2 T00391011
03949KAQV AQV20160209224510802/09/16 22:45:31  5-MIN KAQV 100445Z AUTO 36003KT 8SM CLR 04/M02 A3024 80 67 -1200 350/03 RMK AO2 T00391017
03949KAQV AQV20160209225011602/09/16 22:50:31  5-MIN KAQV 100450Z AUTO 35003KT 10SM CLR 04/M03 A3024 80 62 -1200 350/03 RMK AO2 SLP242 T00391028
03949KAQV AQV20160209225511602/09/16 22:55:31  5-MIN KAQV 100455Z AUTO 35003KT 10SM CLR 05/M03 A3024 80 57 -1000 350/03 RMK AO2 SLP242 T00501028
03949KAQV AQV20160209230010902/09/16 23:00:31  5-MIN KAQV 100500Z AUTO 00000KT 10SM CLR 05/M03 A3024 80 57 -1000 000/00 RMK AO2 T00501028
03949KAQV AQV20160209230510902/09/16 23:05:31  5-MIN KAQV 100505Z AUTO 00000KT 10SM CLR 05/M03 A3024 80 57 -1000 000/00 RMK AO2 T00501028
03949KAQV AQV20160209231010902/09/16 23:10:31  5-MIN KAQV 100510Z AUTO 00000KT 10SM CLR 04/M02 A3025 80 62 -1100 000/00 RMK AO2 T00441022
03949KAQV AQV20160209231510902/09/16 23:15:31  5-MIN KAQV 100515Z AUTO 35003KT 10SM CLR 05/M03 A3025 70 55 -1000 350/03 RMK AO2 T00501033
03949KAQV AQV20160209232010902/09/16 23:20:31  5-MIN KAQV 100520Z AUTO 00000KT 10SM CLR 05/M03 A3025 70 57 -1000 000/00 RMK AO2 T00501028
03949KAQV AQV20160209232510902/09/16 23:25:31  5-MIN KAQV 100525Z AUTO 35003KT 10SM CLR 06/M03 A3025 70 53 -1000 340/03 RMK AO2 T00561033
03949KAQV AQV20160209233010902/09/16 23:30:31  5-MIN KAQV 100530Z AUTO 00000KT 10SM CLR 05/M03 A3026 70 55 -1000 000/00 RMK AO2 T00501033
03949KAQV AQV20160209233510902/09/16 23:35:31  5-MIN KAQV 100535Z AUTO 00000KT 10SM CLR 04/M02 A3026 60 62 -1100 000/00 RMK AO2 T00441022
03949KAQV AQV20160209234010902/09/16 23:40:31  5-MIN KAQV 100540Z AUTO 00000KT 10SM CLR 04/M03 A3026 60 62 -1200 000/00 RMK AO2 T00391028
03949KAQV AQV20160209234510902/09/16 23:45:31  5-MIN KAQV 100545Z AUTO 00000KT 10SM CLR 04/M03 A3027 60 59 -1200 000/00 RMK AO2 T00391033
03949KAQV AQV20160209235014402/09/16 23:50:31  5-MIN KAQV 100550Z AUTO 00000KT 10SM CLR 04/M03 A3027 60 57 -1100 000/00 RMK AO2 SLP251 T00441033 10128 20039 401500022 51022
03949KAQV AQV20160209235514302/09/16 23:55:31  5-MIN KAQV 100555Z AUTO 00000KT 9SM CLR 04/M03 A3027 60 59 -1200 000/00 RMK AO2 SLP251 T00391033 10128 20039 401500022 51022
03949KAQV AQV20160210000010802/10/16 00:00:31  5-MIN KAQV 100600Z AUTO 00000KT 8SM CLR 03/M03 A3027 60 64 -1300 000/00 RMK AO2 T00331028
03949KAQV AQV20160210000510802/10/16 00:05:31  5-MIN KAQV 100605Z AUTO VRB03KT 9SM CLR 04/M03 A3027 60 59 -1200 VRB/03 RMK AO2 T00391033
03949KAQV AQV20160210001010902/10/16 00:10:31  5-MIN KAQV 100610Z AUTO 00000KT 10SM CLR 05/M04 A3027 60 52 -1100 000/00 RMK AO2 T00501039
03949KAQV AQV20160210001510902/10/16 00:15:31  5-MIN KAQV 100615Z AUTO 35003KT 10SM CLR 05/M04 A3027 60 50 -1100 350/03 RMK AO2 T00501044
03949KAQV AQV20160210002010902/10/16 00:20:31  5-MIN KAQV 100620Z AUTO 00000KT 10SM CLR 04/M04 A3027 60 55 -1100 000/00 RMK AO2 T00441039
03949KAQV AQV20160210002510902/10/16 00:25:31  5-MIN KAQV 100625Z AUTO 00000KT 10SM CLR 05/M04 A3027 60 50 -1100 000/00 RMK AO2 T00501044
03949KAQV AQV20160210003010902/10/16 00:30:31  5-MIN KAQV 100630Z AUTO 00000KT 10SM CLR 04/M04 A3027 50 52 -1100 000/00 RMK AO2 T00441044
03949KAQV AQV20160210003510902/10/16 00:35:31  5-MIN KAQV 100635Z AUTO 00000KT 10SM CLR 03/M03 A3027 50 61 -1300 000/00 RMK AO2 T00331033
03949KAQV AQV20160210004010902/10/16 00:40:31  5-MIN KAQV 100640Z AUTO 00000KT 10SM CLR 03/M03 A3027 50 61 -1300 000/00 RMK AO2 T00331033
03949KAQV AQV20160210004510902/10/16 00:45:31  5-MIN KAQV 100645Z AUTO 00000KT 10SM CLR 04/M04 A3027 50 57 -1200 000/00 RMK AO2 T00391039
03949KAQV AQV20160210005011602/10/16 00:50:31  5-MIN KAQV 100650Z AUTO VRB03KT 10SM CLR 04/M04 A3027 50 52 -1100 VRB/03 RMK AO2 SLP253 T00441044
03949KAQV AQV20160210005511602/10/16 00:55:31  5-MIN KAQV 100655Z AUTO 00000KT 10SM CLR 04/M04 A3027 50 52 -1100 000/00 RMK AO2 SLP253 T00441044
03949KAQV AQV20160210010010902/10/16 01:00:31  5-MIN KAQV 100700Z AUTO 00000KT 10SM CLR 04/M05 A3028 50 50 -1100 000/00 RMK AO2 T00441050
03949KAQV AQV20160210010510902/10/16 01:05:31  5-MIN KAQV 100705Z AUTO 00000KT 10SM CLR 05/M05 A3028 50 48 -1100 000/00 RMK AO2 T00501050
03949KAQV AQV20160210011010902/10/16 01:10:31  5-MIN KAQV 100710Z AUTO 00000KT 10SM CLR 05/M06 A3028 50 46 -1100 000/00 RMK AO2 T00501056
03949KAQV AQV20160210011510902/10/16 01:15:31  5-MIN KAQV 100715Z AUTO 00000KT 10SM CLR 05/M06 A3028 50 46 -1100 000/00 RMK AO2 T00501056
03949KAQV AQV20160210012010902/10/16 01:20:31  5-MIN KAQV 100720Z AUTO 00000KT 10SM CLR 04/M06 A3028 50 48 -1100 000/00 RMK AO2 T00441056
03949KAQV AQV20160210012510902/10/16 01:25:31  5-MIN KAQV 100725Z AUTO 00000KT 10SM CLR 05/M06 A3028 50 46 -1100 000/00 RMK AO2 T00501056
03949KAQV AQV20160210013010902/10/16 01:30:31  5-MIN KAQV 100730Z AUTO 00000KT 10SM CLR 05/M06 A3027 50 46 -1100 000/00 RMK AO2 T00501056
03949KAQV AQV20160210013510902/10/16 01:35:31  5-MIN KAQV 100735Z AUTO VRB03KT 10SM CLR 04/M06 A3028 50 48 -1100 VRB/03 RMK AO2 T00441056
03949KAQV AQV20160210014010902/10/16 01:40:31  5-MIN KAQV 100740Z AUTO 00000KT 10SM CLR 05/M06 A3028 50 46 -1100 000/00 RMK AO2 T00501056
03949KAQV AQV20160210014510902/10/16 01:45:31  5-MIN KAQV 100745Z AUTO 00000KT 10SM CLR 04/M06 A3028 40 48 -1100 000/00 RMK AO2 T00441056
03949KAQV AQV20160210015011602/10/16 01:50:31  5-MIN KAQV 100750Z AUTO 00000KT 10SM CLR 04/M06 A3028 40 48 -1100 000/00 RMK AO2 SLP256 T00441056
03949KAQV AQV20160210015511602/10/16 01:55:31  5-MIN KAQV 100755Z AUTO 35003KT 10SM CLR 04/M06 A3028 40 50 -1200 350/03 RMK AO2 SLP256 T00391056
03949KAQV AQV20160210020010902/10/16 02:00:31  5-MIN KAQV 100800Z AUTO VRB03KT 10SM CLR 04/M06 A3028 40 48 -1100 VRB/03 RMK AO2 T00441056
03949KAQV AQV20160210020510902/10/16 02:05:31  5-MIN KAQV 100805Z AUTO 00000KT 10SM CLR 04/M06 A3028 40 46 -1100 000/00 RMK AO2 T00441061
03949KAQV AQV20160210021010902/10/16 02:10:31  5-MIN KAQV 100810Z AUTO 00000KT 10SM CLR 04/M06 A3028 40 46 -1100 000/00 RMK AO2 T00441061
03949KAQV AQV20160210021510902/10/16 02:15:31  5-MIN KAQV 100815Z AUTO 00000KT 10SM CLR 04/M06 A3028 40 46 -1100 000/00 RMK AO2 T00441061
03949KAQV AQV20160210022010902/10/16 02:20:31  5-MIN KAQV 100820Z AUTO 00000KT 10SM CLR 04/M06 A3028 40 46 -1100 000/00 RMK AO2 T00441061
03949KAQV AQV20160210022510902/10/16 02:25:31  5-MIN KAQV 100825Z AUTO 00000KT 10SM CLR 04/M06 A3028 50 46 -1100 000/00 RMK AO2 T00441061
03949KAQV AQV20160210023010902/10/16 02:30:31  5-MIN KAQV 100830Z AUTO 00000KT 10SM CLR 04/M06 A3028 50 48 -1200 000/00 RMK AO2 T00391061
03949KAQV AQV20160210023510902/10/16 02:35:31  5-MIN KAQV 100835Z AUTO 34003KT 10SM CLR 04/M06 A3028 50 48 -1200 340/03 RMK AO2 T00391061
03949KAQV AQV20160210024010902/10/16 02:40:31  5-MIN KAQV 100840Z AUTO VRB03KT 10SM CLR 04/M06 A3028 50 50 -1200 VRB/03 RMK AO2 T00391056
03949KAQV AQV20160210024510902/10/16 02:45:31  5-MIN KAQV 100845Z AUTO 00000KT 10SM CLR 04/M06 A3028 50 48 -1200 000/00 RMK AO2 T00391061
03949KAQV AQV20160210025012202/10/16 02:50:31  5-MIN KAQV 100850Z AUTO 00000KT 10SM CLR 03/M06 A3028 50 52 -1300 000/00 RMK AO2 SLP255 T00331056 53019
03949KAQV AQV20160210025512202/10/16 02:55:31  5-MIN KAQV 100855Z AUTO 35003KT 10SM CLR 03/M06 A3028 40 52 -1300 340/03 RMK AO2 SLP256 T00331056 53019
03949KAQV AQV20160210030010802/10/16 03:00:31  5-MIN KAQV 100900Z AUTO 00000KT 9SM CLR 03/M05 A3028 40 54 -1300 000/00 RMK AO2 T00331050
03949KAQV AQV20160210030510802/10/16 03:05:31  5-MIN KAQV 100905Z AUTO 00000KT 8SM CLR 03/M04 A3028 40 59 -1300 000/00 RMK AO2 T00281044
03949KAQV AQV20160210031010802/10/16 03:10:31  5-MIN KAQV 100910Z AUTO 00000KT 8SM CLR 03/M05 A3028 40 56 -1300 000/00 RMK AO2 T00281050
03949KAQV AQV20160210031510902/10/16 03:15:31  5-MIN KAQV 100915Z AUTO 00000KT 10SM CLR 02/M06 A3028 40 56 -1400 000/00 RMK AO2 T00221056
03949KAQV AQV20160210032010902/10/16 03:20:31  5-MIN KAQV 100920Z AUTO 00000KT 10SM CLR 03/M06 A3028 40 54 -1300 000/00 RMK AO2 T00281056
03949KAQV AQV20160210032510902/10/16 03:25:31  5-MIN KAQV 100925Z AUTO 00000KT 10SM CLR 02/M06 A3028 40 56 -1400 000/00 RMK AO2 T00221056
03949KAQV AQV20160210033010902/10/16 03:30:31  5-MIN KAQV 100930Z AUTO 00000KT 10SM CLR 02/M06 A3029 40 56 -1400 000/00 RMK AO2 T00221056
03949KAQV AQV20160210033510902/10/16 03:35:31  5-MIN KAQV 100935Z AUTO 00000KT 10SM CLR 02/M04 A3029 40 64 -1500 000/00 RMK AO2 T00171044
03949KAQV AQV20160210034010902/10/16 03:40:31  5-MIN KAQV 100940Z AUTO 00000KT 10SM CLR 02/M04 A3029 40 64 -1500 000/00 RMK AO2 T00171044
03949KAQV AQV20160210034510902/10/16 03:45:31  5-MIN KAQV 100945Z AUTO 00000KT 10SM CLR 02/M05 A3029 40 61 -1500 000/00 RMK AO2 T00171050
03949KAQV AQV20160210035011602/10/16 03:50:31  5-MIN KAQV 100950Z AUTO VRB03KT 10SM CLR 02/M05 A3028 40 59 -1400 VRB/03 RMK AO2 SLP257 T00221050
03949KAQV AQV20160210035511602/10/16 03:55:31  5-MIN KAQV 100955Z AUTO VRB03KT 10SM CLR 03/M06 A3028 40 52 -1300 VRB/03 RMK AO2 SLP257 T00281061
03949KAQV AQV20160210040010902/10/16 04:00:31  5-MIN KAQV 101000Z AUTO 00000KT 10SM CLR 03/M06 A3029 40 50 -1300 000/00 RMK AO2 T00331061
03949KAQV AQV20160210040510902/10/16 04:05:31  5-MIN KAQV 101005Z AUTO VRB03KT 10SM CLR 03/M06 A3029 40 50 -1300 VRB/03 RMK AO2 T00331061
03949KAQV AQV20160210041010902/10/16 04:10:31  5-MIN KAQV 101010Z AUTO 00000KT 10SM CLR 03/M06 A3029 40 52 -1400 000/00 RMK AO2 T00281061
03949KAQV AQV20160210041510902/10/16 04:15:31  5-MIN KAQV 101015Z AUTO 34003KT 10SM CLR 02/M05 A3029 40 59 -1400 340/03 RMK AO2 T00221050
03949KAQV AQV20160210042010902/10/16 04:20:31  5-MIN KAQV 101020Z AUTO 34003KT 10SM CLR 02/M05 A3029 30 59 -1400 340/03 RMK AO2 T00221050
03949KAQV AQV20160210042510902/10/16 04:25:31  5-MIN KAQV 101025Z AUTO VRB03KT 10SM CLR 02/M05 A3029 30 61 -1500 VRB/03 RMK AO2 T00171050
03949KAQV AQV20160210043010802/10/16 04:30:31  5-MIN KAQV 101030Z AUTO 00000KT 9SM CLR 02/M05 A3030 30 59 -1400 000/00 RMK AO2 T00221050
03949KAQV AQV20160210043510802/10/16 04:35:31  5-MIN KAQV 101035Z AUTO 34003KT 9SM CLR 02/M05 A3030 30 61 -1500 340/03 RMK AO2 T00171050
03949KAQV AQV20160210044010802/10/16 04:40:31  5-MIN KAQV 101040Z AUTO 00000KT 9SM CLR 02/M04 A3030 30 64 -1500 000/00 RMK AO2 T00171044
03949KAQV AQV20160210044510802/10/16 04:45:31  5-MIN KAQV 101045Z AUTO 00000KT 9SM CLR 02/M05 A3031 20 61 -1500 000/00 RMK AO2 T00171050
03949KAQV AQV20160210045011602/10/16 04:50:31  5-MIN KAQV 101050Z AUTO 00000KT 10SM CLR 02/M05 A3030 20 61 -1500 000/00 RMK AO2 SLP263 T00171050
03949KAQV AQV20160210045511602/10/16 04:55:31  5-MIN KAQV 101055Z AUTO 00000KT 10SM CLR 02/M06 A3030 20 59 -1500 000/00 RMK AO2 SLP263 T00171056
03949KAQV AQV20160210050010902/10/16 05:00:31  5-MIN KAQV 101100Z AUTO 00000KT 10SM CLR 02/M06 A3031 20 59 -1500 000/00 RMK AO2 T00171056
03949KAQV AQV20160210050510902/10/16 05:05:31  5-MIN KAQV 101105Z AUTO 00000KT 10SM CLR 02/M06 A3031 20 54 -1400 000/00 RMK AO2 T00221061
03949KAQV AQV20160210051010902/10/16 05:10:31  5-MIN KAQV 101110Z AUTO 00000KT 10SM CLR 02/M06 A3031 20 54 -1400 000/00 RMK AO2 T00221061
03949KAQV AQV20160210051510902/10/16 05:15:31  5-MIN KAQV 101115Z AUTO 00000KT 10SM CLR 02/M06 A3031 20 54 -1400 000/00 RMK AO2 T00221061
03949KAQV AQV20160210052010902/10/16 05:20:31  5-MIN KAQV 101120Z AUTO 00000KT 10SM CLR 02/M06 A3031 20 54 -1400 000/00 RMK AO2 T00221061
03949KAQV AQV20160210052510902/10/16 05:25:31  5-MIN KAQV 101125Z AUTO 00000KT 10SM CLR 02/M06 A3031 20 54 -1400 000/00 RMK AO2 T00221061
03949KAQV AQV20160210053010902/10/16 05:30:31  5-MIN KAQV 101130Z AUTO 36003KT 10SM CLR 02/M06 A3031 20 54 -1400 350/03 RMK AO2 T00221061
03949KAQV AQV20160210053510902/10/16 05:35:31  5-MIN KAQV 101135Z AUTO 00000KT 10SM CLR 02/M06 A3031 20 59 -1500 000/00 RMK AO2 T00171056
03949KAQV AQV20160210054010902/10/16 05:40:31  5-MIN KAQV 101140Z AUTO 00000KT 10SM CLR 01/M06 A3031 20 61 -1600 000/00 RMK AO2 T00111056
03949KAQV AQV20160210054510902/10/16 05:45:31  5-MIN KAQV 101145Z AUTO 00000KT 10SM CLR 01/M05 A3031 10 66 -1700 000/00 RMK AO2 T00061050
03949KAQV AQV20160210055013402/10/16 05:50:31  5-MIN KAQV 101150Z AUTO 00000KT 10SM CLR 01/M04 A3032 10 69 -1700 000/00 RMK AO2 SLP267 T00061044 10050 20006 51005
03949KAQV AQV20160210055513402/10/16 05:55:31  5-MIN KAQV 101155Z AUTO 00000KT 10SM CLR 01/M06 A3032 10 63 -1700 000/00 RMK AO2 SLP268 T00061056 10050 20006 51005
03949KAQV AQV20160210060010902/10/16 06:00:31  5-MIN KAQV 101200Z AUTO 00000KT 10SM CLR 00/M04 A3032 10 72 -1700 000/00 RMK AO2 T00001044
03949KAQV AQV20160210060510902/10/16 06:05:31  5-MIN KAQV 101205Z AUTO 00000KT 10SM CLR 01/M06 A3032 10 63 -1700 000/00 RMK AO2 T00061056
03949KAQV AQV20160210061010902/10/16 06:10:31  5-MIN KAQV 101210Z AUTO 00000KT 10SM CLR 00/M04 A3032 10 75 -1700 000/00 RMK AO2 T00001039
03949KAQV AQV20160210061510802/10/16 06:15:31  5-MIN KAQV 101215Z AUTO 00000KT 9SM CLR 00/M03 A3032 10 81 -1700 000/00 RMK AO2 T00001028
03949KAQV AQV20160210062010802/10/16 06:20:31  5-MIN KAQV 101220Z AUTO 00000KT 7SM CLR 00/M04 A3032 10 75 -1700 000/00 RMK AO2 T00001039
03949KAQV AQV20160210062510702/10/16 06:25:31  5-MIN KAQV 101225Z AUTO 00000KT 7SM CLR 00/M03 A3032 0 78 -1700 000/00 RMK AO2 T00001033
03949KAQV AQV20160210063010802/10/16 06:30:31  5-MIN KAQV 101230Z AUTO 36003KT 10SM CLR 00/M03 A3032 0 78 -1700 350/03 RMK AO2 T00001033
03949KAQV AQV20160210063510802/10/16 06:35:31  5-MIN KAQV 101235Z AUTO 00000KT 10SM CLR 01/M04 A3033 0 69 -1700 000/00 RMK AO2 T00061044
03949KAQV AQV20160210064010802/10/16 06:40:31  5-MIN KAQV 101240Z AUTO 36003KT 10SM CLR 01/M05 A3033 0 66 -1700 350/03 RMK AO2 T00061050
03949KAQV AQV20160210064510802/10/16 06:45:31  5-MIN KAQV 101245Z AUTO 00000KT 10SM CLR 01/M04 A3033 0 69 -1700 000/00 RMK AO2 T00061044
03949KAQV AQV20160210065011502/10/16 06:50:31  5-MIN KAQV 101250Z AUTO 35003KT 10SM CLR 01/M05 A3033 0 66 -1700 340/03 RMK AO2 SLP274 T00061050
03949KAQV AQV20160210065511502/10/16 06:55:31  5-MIN KAQV 101255Z AUTO 00000KT 10SM CLR 01/M06 A3033 0 63 -1700 000/00 RMK AO2 SLP274 T00061056
03949KAQV AQV20160210070010802/10/16 07:00:31  5-MIN KAQV 101300Z AUTO 00000KT 10SM CLR 01/M05 A3034 0 64 -1600 000/00 RMK AO2 T00111050
03949KAQV AQV20160210070510902/10/16 07:05:31  5-MIN KAQV 101305Z AUTO 00000KT 10SM CLR M01/M04 A3034 0 78 -1800 000/00 RMK AO2 T10061039
03949KAQV AQV20160210071011102/10/16 07:10:31  5-MIN KAQV 101310Z AUTO 00000KT 10SM CLR M01/M03 A3034 -10 81 -1800 000/00 RMK AO2 T10061033
03949KAQV AQV20160210071511102/10/16 07:15:31  5-MIN KAQV 101315Z AUTO 00000KT 10SM CLR M01/M03 A3034 -10 81 -1800 000/00 RMK AO2 T10061033
03949KAQV AQV20160210072011102/10/16 07:20:31  5-MIN KAQV 101320Z AUTO 00000KT 10SM CLR M01/M03 A3034 -10 81 -1800 000/00 RMK AO2 T10061033
03949KAQV AQV20160210072511002/10/16 07:25:31  5-MIN KAQV 101325Z AUTO 00000KT 10SM CLR 00/M04 A3034 -10 75 -1800 000/00 RMK AO2 T00001039
03949KAQV AQV20160210073010902/10/16 07:30:31  5-MIN KAQV 101330Z AUTO 00000KT 9SM CLR 00/M04 A3034 -10 75 -1800 000/00 RMK AO2 T00001039
03949KAQV AQV20160210073511002/10/16 07:35:31  5-MIN KAQV 101335Z AUTO 00000KT 8SM CLR M01/M03 A3035 -10 85 -1800 000/00 RMK AO2 T10061028
03949KAQV AQV20160210074010902/10/16 07:40:31  5-MIN KAQV 101340Z AUTO 00000KT 8SM CLR 00/M03 A3035 -10 81 -1800 000/00 RMK AO2 T00001028
03949KAQV AQV20160210084511002/10/16 08:45:31  5-MIN KAQV 101445Z AUTO 00000KT 10SM CLR 06/M06 A3037 -30 43 -1100 000/00 RMK AO2 T00561061
03949KAQV AQV20160210085012302/10/16 08:50:31  5-MIN KAQV 101450Z AUTO 34005KT 10SM CLR 06/M07 A3037 -30 41 -1100 330/05 RMK AO2 SLP286 T00561067 53012
03949KAQV AQV20160210085512302/10/16 08:55:31  5-MIN KAQV 101455Z AUTO 36004KT 10SM CLR 06/M07 A3037 -30 39 -1000 360/04 RMK AO2 SLP286 T00611067 53012
03949KAQV AQV20160210090011002/10/16 09:00:31  5-MIN KAQV 101500Z AUTO VRB03KT 10SM CLR 07/M07 A3037 -30 38 -1000 VRB/03 RMK AO2 T00671067
03949KAQV AQV20160210090511002/10/16 09:05:31  5-MIN KAQV 101505Z AUTO 36004KT 10SM CLR 07/M07 A3037 -30 36 -1000 350/04 RMK AO2 T00671072
03949KAQV AQV20160210091011002/10/16 09:10:31  5-MIN KAQV 101510Z AUTO 35005KT 10SM CLR 07/M07 A3037 -30 36 -1000 350/05 RMK AO2 T00671072
03949KAQV AQV20160210091511002/10/16 09:15:31  5-MIN KAQV 101515Z AUTO 36006KT 10SM CLR 07/M07 A3037 -30 36 -1000 360/06 RMK AO2 T00671072
03949KAQV AQV20160210092010902/10/16 09:20:31  5-MIN KAQV 101520Z AUTO 36006KT 10SM CLR 07/M08 A3037 -30 33 -900 360/06 RMK AO2 T00721078
03949KAQV AQV20160210092510902/10/16 09:25:31  5-MIN KAQV 101525Z AUTO 03005KT 10SM CLR 07/M08 A3037 -30 33 -900 030/05 RMK AO2 T00721078
03949KAQV AQV20160210093010902/10/16 09:30:31  5-MIN KAQV 101530Z AUTO 36007KT 10SM CLR 07/M08 A3037 -30 33 -900 360/07 RMK AO2 T00721078
03949KAQV AQV20160210093510902/10/16 09:35:31  5-MIN KAQV 101535Z AUTO VRB04KT 10SM CLR 07/M08 A3037 -30 32 -900 VRB/04 RMK AO2 T00721083
03949KAQV AQV20160210094010902/10/16 09:40:31  5-MIN KAQV 101540Z AUTO VRB03KT 10SM CLR 07/M09 A3037 -30 31 -900 VRB/03 RMK AO2 T00721089
03949KAQV AQV20160210094510902/10/16 09:45:31  5-MIN KAQV 101545Z AUTO 00000KT 10SM CLR 08/M08 A3037 -30 31 -800 000/00 RMK AO2 T00781083
03949KAQV AQV20160210095011602/10/16 09:50:31  5-MIN KAQV 101550Z AUTO 03004KT 10SM CLR 08/M08 A3037 -30 31 -800 020/04 RMK AO2 SLP286 T00781083
03949KAQV AQV20160210095511602/10/16 09:55:31  5-MIN KAQV 101555Z AUTO 00000KT 10SM CLR 08/M08 A3037 -30 30 -800 000/00 RMK AO2 SLP286 T00831083
03949KAQV AQV20160210100010902/10/16 10:00:31  5-MIN KAQV 101600Z AUTO 34004KT 10SM CLR 08/M08 A3037 -30 30 -800 330/04 RMK AO2 T00831083
03949KAQV AQV20160210100510902/10/16 10:05:31  5-MIN KAQV 101605Z AUTO 00000KT 10SM CLR 08/M09 A3037 -30 29 -800 000/00 RMK AO2 T00781089
03949KAQV AQV20160210101010902/10/16 10:10:31  5-MIN KAQV 101610Z AUTO 00000KT 10SM CLR 08/M08 A3037 -30 31 -800 000/00 RMK AO2 T00781083
03949KAQV AQV20160210101510902/10/16 10:15:31  5-MIN KAQV 101615Z AUTO 00000KT 10SM CLR 08/M08 A3037 -30 30 -800 000/00 RMK AO2 T00831083
03949KAQV AQV20160210102010902/10/16 10:20:31  5-MIN KAQV 101620Z AUTO 00000KT 10SM CLR 09/M08 A3037 -30 28 -700 000/00 RMK AO2 T00891083
03949KAQV AQV20160210102510902/10/16 10:25:31  5-MIN KAQV 101625Z AUTO 00000KT 10SM CLR 09/M08 A3036 -30 27 -600 000/00 RMK AO2 T00941083
03949KAQV AQV20160210103010902/10/16 10:30:31  5-MIN KAQV 101630Z AUTO 00000KT 10SM CLR 09/M08 A3036 -20 29 -600 000/00 RMK AO2 T00941078
03949KAQV AQV20160210103510902/10/16 10:35:31  5-MIN KAQV 101635Z AUTO VRB03KT 10SM CLR 09/M08 A3036 -20 27 -600 VRB/03 RMK AO2 T00941083
03949KAQV AQV20160210104010902/10/16 10:40:31  5-MIN KAQV 101640Z AUTO VRB03KT 10SM CLR 09/M08 A3036 -20 29 -600 VRB/03 RMK AO2 T00941078
03949KAQV AQV20160210104510902/10/16 10:45:31  5-MIN KAQV 101645Z AUTO 00000KT 10SM CLR 09/M08 A3036 -20 27 -600 000/00 RMK AO2 T00941083
03949KAQV AQV20160210105011602/10/16 10:50:31  5-MIN KAQV 101650Z AUTO 00000KT 10SM CLR 11/M08 A3036 -20 27 -500 000/00 RMK AO2 SLP281 T01061078
03949KAQV AQV20160210105511602/10/16 10:55:31  5-MIN KAQV 101655Z AUTO 00000KT 10SM CLR 10/M08 A3036 -20 26 -500 000/00 RMK AO2 SLP281 T01001083
03949KAQV AQV20160210110010902/10/16 11:00:31  5-MIN KAQV 101700Z AUTO 00000KT 10SM CLR 10/M08 A3036 -20 26 -500 000/00 RMK AO2 T01001083
03949KAQV AQV20160210110510902/10/16 11:05:31  5-MIN KAQV 101705Z AUTO 02003KT 10SM CLR 11/M08 A3035 -20 25 -500 020/03 RMK AO2 T01061083
03949KAQV AQV20160210111010902/10/16 11:10:31  5-MIN KAQV 101710Z AUTO 00000KT 10SM CLR 11/M08 A3035 -10 25 -400 000/00 RMK AO2 T01111083
03949KAQV AQV20160210111510902/10/16 11:15:31  5-MIN KAQV 101715Z AUTO 00000KT 10SM CLR 11/M08 A3035 -10 26 -400 000/00 RMK AO2 T01111078
03949KAQV AQV20160210112010902/10/16 11:20:31  5-MIN KAQV 101720Z AUTO VRB03KT 10SM CLR 11/M08 A3035 -10 26 -400 VRB/03 RMK AO2 T01111078
03949KAQV AQV20160210112510902/10/16 11:25:31  5-MIN KAQV 101725Z AUTO 00000KT 10SM CLR 11/M08 A3034 -10 26 -400 000/00 RMK AO2 T01111078
03949KAQV AQV20160210113010902/10/16 11:30:31  5-MIN KAQV 101730Z AUTO VRB03KT 10SM CLR 12/M07 A3034 -10 26 -300 VRB/03 RMK AO2 T01171072
03949KAQV AQV20160210113510702/10/16 11:35:31  5-MIN KAQV 101735Z AUTO 00000KT 10SM CLR 11/M08 A3034 0 26 -400 000/00 RMK AO2 T01111078
03949KAQV AQV20160210114010702/10/16 11:40:31  5-MIN KAQV 101740Z AUTO 00000KT 10SM CLR 12/M08 A3034 0 25 -300 000/00 RMK AO2 T01171078
03949KAQV AQV20160210114510702/10/16 11:45:31  5-MIN KAQV 101745Z AUTO 00000KT 10SM CLR 13/M07 A3033 0 25 -200 000/00 RMK AO2 T01281067
03949KAQV AQV20160210115013202/10/16 11:50:31  5-MIN KAQV 101750Z AUTO VRB03KT 10SM CLR 12/M07 A3033 0 27 -300 VRB/03 RMK AO2 SLP273 T01171067 10128 21006 53017
03949KAQV AQV20160210115513202/10/16 11:55:31  5-MIN KAQV 101755Z AUTO 00000KT 10SM CLR 12/M07 A3033 0 26 -200 000/00 RMK AO2 SLP273 T01221067 10128 21006 53017
03949KAQV AQV20160210120010702/10/16 12:00:31  5-MIN KAQV 101800Z AUTO VRB03KT 10SM CLR 13/M07 A3033 0 25 -200 VRB/03 RMK AO2 T01281067
03949KAQV AQV20160210120509702/10/16 12:05:31  5-MIN KAQV 101805Z AUTO 10SM CLR 13/M07 A3032 0 25 -200 M /M RMK AO2 T01281067
03949KAQV AQV20160210121010802/10/16 12:10:31  5-MIN KAQV 101810Z AUTO 23005KT 10SM CLR 12/M06 A3032 10 27 -200 230/05 RMK AO2 T01221061
03949KAQV AQV20160210121510802/10/16 12:15:31  5-MIN KAQV 101815Z AUTO 00000KT 10SM CLR 12/M06 A3032 10 27 -200 000/00 RMK AO2 T01221061
03949KAQV AQV20160210122010802/10/16 12:20:31  5-MIN KAQV 101820Z AUTO VRB04KT 10SM CLR 13/M06 A3032 10 26 -100 VRB/04 RMK AO2 T01331056
03949KAQV AQV20160210122510802/10/16 12:25:31  5-MIN KAQV 101825Z AUTO VRB03KT 10SM CLR 13/M05 A3031 10 27 -100 VRB/03 RMK AO2 T01331050
03949KAQV AQV20160210123010502/10/16 12:30:31  5-MIN KAQV 101830Z AUTO 27006KT 10SM CLR 14/M05 A3031 20 26 0 260/06 RMK AO2 T01391050
03949KAQV AQV20160210123510802/10/16 12:35:31  5-MIN KAQV 101835Z AUTO 00000KT 10SM CLR 13/M05 A3031 20 27 -100 000/00 RMK AO2 T01331050
03949KAQV AQV20160210124010502/10/16 12:40:31  5-MIN KAQV 101840Z AUTO VRB03KT 10SM CLR 14/M04 A3030 30 26 0 VRB/03 RMK AO2 T01441044
03949KAQV AQV20160210124510502/10/16 12:45:31  5-MIN KAQV 101845Z AUTO 20005KT 10SM CLR 14/M04 A3030 30 27 0 190/05 RMK AO2 T01391044
03949KAQV AQV20160210125011202/10/16 12:50:31  5-MIN KAQV 101850Z AUTO 00000KT 10SM CLR 14/M04 A3029 30 26 0 000/00 RMK AO2 SLP259 T01441044
03949KAQV AQV20160210125511202/10/16 12:55:31  5-MIN KAQV 101855Z AUTO 00000KT 10SM CLR 14/M04 A3029 40 26 0 000/00 RMK AO2 SLP258 T01441044
03949KAQV AQV20160210130010502/10/16 13:00:31  5-MIN KAQV 101900Z AUTO VRB05KT 10SM CLR 14/M04 A3028 40 26 0 VRB/05 RMK AO2 T01441044
03949KAQV AQV20160210130510502/10/16 13:05:31  5-MIN KAQV 101905Z AUTO VRB03KT 10SM CLR 14/M04 A3028 40 26 0 VRB/03 RMK AO2 T01441044
03949KAQV AQV20160210131010702/10/16 13:10:31  5-MIN KAQV 101910Z AUTO VRB03KT 10SM CLR 15/M04 A3028 50 25 100 VRB/03 RMK AO2 T01501044
03949KAQV AQV20160210131510702/10/16 13:15:31  5-MIN KAQV 101915Z AUTO VRB04KT 10SM CLR 15/M04 A3027 50 25 100 VRB/04 RMK AO2 T01501044
03949KAQV AQV20160210132010702/10/16 13:20:31  5-MIN KAQV 101920Z AUTO VRB04KT 10SM CLR 15/M04 A3027 50 25 100 VRB/04 RMK AO2 T01501044
03949KAQV AQV20160210132510702/10/16 13:25:31  5-MIN KAQV 101925Z AUTO VRB03KT 10SM CLR 15/M04 A3027 60 25 100 VRB/03 RMK AO2 T01501044
03949KAQV AQV20160210133010702/10/16 13:30:31  5-MIN KAQV 101930Z AUTO VRB04KT 10SM CLR 15/M04 A3027 60 25 100 VRB/04 RMK AO2 T01501044
03949KAQV AQV20160210133510702/10/16 13:35:31  5-MIN KAQV 101935Z AUTO VRB06KT 10SM CLR 15/M04 A3026 60 27 100 VRB/06 RMK AO2 T01501039
03949KAQV AQV20160210134010702/10/16 13:40:31  5-MIN KAQV 101940Z AUTO VRB03KT 10SM CLR 16/M04 A3026 60 26 200 VRB/03 RMK AO2 T01561039
03949KAQV AQV20160210134510702/10/16 13:45:31  5-MIN KAQV 101945Z AUTO VRB03KT 10SM CLR 16/M03 A3026 60 26 300 VRB/03 RMK AO2 T01611033
03949KAQV AQV20160210135011402/10/16 13:50:31  5-MIN KAQV 101950Z AUTO VRB03KT 10SM CLR 16/M04 A3026 70 26 200 VRB/03 RMK AO2 SLP246 T01561039
03949KAQV AQV20160210135511402/10/16 13:55:31  5-MIN KAQV 101955Z AUTO 24006KT 10SM CLR 16/M04 A3025 70 25 300 240/06 RMK AO2 SLP245 T01611039
03949KAQV AQV20160210140010702/10/16 14:00:31  5-MIN KAQV 102000Z AUTO VRB03KT 10SM CLR 16/M04 A3025 70 26 200 VRB/03 RMK AO2 T01561039
03949KAQV AQV20160210140510702/10/16 14:05:31  5-MIN KAQV 102005Z AUTO VRB06KT 10SM CLR 16/M04 A3025 70 25 300 VRB/06 RMK AO2 T01611039
03949KAQV AQV20160212023511002/12/16 02:35:31  5-MIN KAQV 120835Z AUTO VRB05KT 10SM FEW006 13/13 A3013 180 96 100 VRB/05 RMK AO2 T01330128
03949KAQV AQV20160212024011002/12/16 02:40:31  5-MIN KAQV 120840Z AUTO 22004KT 10SM FEW006 13/13 A3014 180 96 100 220/04 RMK AO2 T01330128
03949KAQV AQV20160212024511002/12/16 02:45:31  5-MIN KAQV 120845Z AUTO 22006KT 10SM SCT006 13/13 A3013 180 96 100 220/06 RMK AO2 T01330128
03949KAQV AQV20160212025012302/12/16 02:50:31  5-MIN KAQV 120850Z AUTO VRB04KT 10SM SCT005 13/13 A3014 180 96 100 VRB/04 RMK AO2 SLP203 T01330128 50000
03949KAQV AQV20160212025512302/12/16 02:55:31  5-MIN KAQV 120855Z AUTO VRB04KT 10SM BKN005 13/13 A3014 180 96 100 VRB/04 RMK AO2 SLP204 T01330128 50000
03949KAQV AQV20160212030011002/12/16 03:00:31  5-MIN KAQV 120900Z AUTO VRB03KT 10SM BKN005 13/13 A3014 170 96 100 VRB/03 RMK AO2 T01330128
03949KAQV AQV20160212030511002/12/16 03:05:31  5-MIN KAQV 120905Z AUTO 22004KT 10SM BKN005 13/13 A3014 170 96 100 220/04 RMK AO2 T01330128
03949KAQV AQV20160212031011002/12/16 03:10:31  5-MIN KAQV 120910Z AUTO VRB04KT 10SM OVC005 14/13 A3014 170 93 100 VRB/04 RMK AO2 T01390128
03949KAQV AQV20160212031510002/12/16 03:15:31  5-MIN KAQV 120915Z AUTO 10SM OVC005 14/13 A3014 170 96 100 M /M RMK AO2 T01390133
03949KAQV AQV20160212032011002/12/16 03:20:31  5-MIN KAQV 120920Z AUTO VRB05KT 10SM OVC004 14/13 A3014 170 96 100 VRB/05 RMK AO2 T01390133
03949KAQV AQV20160212032511002/12/16 03:25:31  5-MIN KAQV 120925Z AUTO VRB06KT 10SM OVC004 14/13 A3014 170 96 100 VRB/06 RMK AO2 T01390133
03949KAQV AQV20160212033011002/12/16 03:30:31  5-MIN KAQV 120930Z AUTO VRB04KT 10SM OVC004 14/13 A3014 170 93 200 VRB/04 RMK AO2 T01440133
03949KAQV AQV20160212033512602/12/16 03:35:31  5-MIN KAQV 120935Z AUTO 24007KT 210V280 10SM OVC004 14/13 A3014 170 93 200 230/07 210V280 RMK AO2 T01440133
03949KAQV AQV20160212034011002/12/16 03:40:31  5-MIN KAQV 120940Z AUTO 23006KT 10SM OVC004 14/13 A3015 170 93 200 220/06 RMK AO2 T01440133
03949KAQV AQV20160212034511002/12/16 03:45:31  5-MIN KAQV 120945Z AUTO VRB04KT 10SM OVC004 14/13 A3015 170 93 200 VRB/04 RMK AO2 T01440133
03949KAQV AQV20160212035011702/12/16 03:50:31  5-MIN KAQV 120950Z AUTO VRB05KT 10SM OVC004 14/13 A3015 170 93 200 VRB/05 RMK AO2 SLP207 T01440133
03949KAQV AQV20160212035511702/12/16 03:55:31  5-MIN KAQV 120955Z AUTO VRB05KT 10SM OVC004 14/13 A3015 160 93 200 VRB/05 RMK AO2 SLP208 T01440133
03949KAQV AQV20160212040011002/12/16 04:00:31  5-MIN KAQV 121000Z AUTO VRB06KT 10SM OVC004 14/13 A3015 170 93 200 VRB/06 RMK AO2 T01440133
03949KAQV AQV20160212040511002/12/16 04:05:31  5-MIN KAQV 121005Z AUTO VRB06KT 10SM OVC004 14/14 A3015 170 96 200 VRB/06 RMK AO2 T01440139
03949KAQV AQV20160212041012602/12/16 04:10:31  5-MIN KAQV 121010Z AUTO 24009KT 210V270 10SM OVC004 14/14 A3015 170 96 200 230/09 210V270 RMK AO2 T01440139
03949KAQV AQV20160212041511002/12/16 04:15:31  5-MIN KAQV 121015Z AUTO VRB05KT 10SM OVC005 14/14 A3015 170 96 200 VRB/05 RMK AO2 T01440139
03949KAQV AQV20160212042012602/12/16 04:20:31  5-MIN KAQV 121020Z AUTO 24007KT 200V300 10SM OVC005 14/14 A3015 160 96 200 230/07 200V300 RMK AO2 T01440139
03949KAQV AQV20160212042511002/12/16 04:25:31  5-MIN KAQV 121025Z AUTO VRB06KT 10SM OVC005 14/14 A3015 160 96 200 VRB/06 RMK AO2 T01440139
03949KAQV AQV20160212043012602/12/16 04:30:31  5-MIN KAQV 121030Z AUTO 24008KT 210V280 10SM OVC005 14/14 A3015 160 96 200 240/08 210V280 RMK AO2 T01440139
03949KAQV AQV20160212043511602/12/16 04:35:31  5-MIN KAQV 121035Z AUTO VRB05G15KT 10SM OVC005 14/14 A3016 160 96 200 VRB/05G15 RMK AO2 T01440139
03949KAQV AQV20160212044011602/12/16 04:40:31  5-MIN KAQV 121040Z AUTO 23009G15KT 10SM OVC005 14/13 A3016 160 93 200 230/09G15 RMK AO2 T01440133
03949KAQV AQV20160212044511602/12/16 04:45:31  5-MIN KAQV 121045Z AUTO VRB06G15KT 10SM OVC005 14/13 A3016 160 93 200 VRB/06G15 RMK AO2 T01440133
03949KAQV AQV20160212045011702/12/16 04:50:31  5-MIN KAQV 121050Z AUTO VRB06KT 10SM OVC005 14/13 A3016 160 93 200 VRB/06 RMK AO2 SLP211 T01440133
03949KAQV AQV20160212045511702/12/16 04:55:31  5-MIN KAQV 121055Z AUTO 24006KT 10SM OVC006 14/13 A3016 150 93 200 230/06 RMK AO2 SLP212 T01440133
03949KAQV AQV20160212050011002/12/16 05:00:31  5-MIN KAQV 121100Z AUTO VRB04KT 10SM OVC006 14/13 A3017 150 93 200 VRB/04 RMK AO2 T01440133
03949KAQV AQV20160212050512602/12/16 05:05:31  5-MIN KAQV 121105Z AUTO 25008KT 230V300 10SM OVC006 14/13 A3017 150 93 200 250/08 230V300 RMK AO2 T01440133
03949KAQV AQV20160212051011002/12/16 05:10:31  5-MIN KAQV 121110Z AUTO VRB06KT 10SM OVC006 14/13 A3017 150 93 200 VRB/06 RMK AO2 T01440133
03949KAQV AQV20160212051511002/12/16 05:15:31  5-MIN KAQV 121115Z AUTO VRB05KT 10SM OVC007 14/13 A3017 150 93 200 VRB/05 RMK AO2 T01440133
03949KAQV AQV20160212052012902/12/16 05:20:31  5-MIN KAQV 121120Z AUTO VRB05KT 10SM BKN007 OVC011 14/13 A3017 150 93 200 VRB/05 RMK AO2 CIG 006V010 T01440133
03949KAQV AQV20160212052512202/12/16 05:25:31  5-MIN KAQV 121125Z AUTO VRB05KT 10SM OVC009 15/13 A3017 140 90 200 VRB/05 RMK AO2 CIG 007V012 T01500133
03949KAQV AQV20160212053012202/12/16 05:30:31  5-MIN KAQV 121130Z AUTO VRB03KT 10SM OVC009 15/13 A3017 140 90 200 VRB/03 RMK AO2 CIG 007V011 T01500133
03949KAQV AQV20160212053512202/12/16 05:35:31  5-MIN KAQV 121135Z AUTO 25004KT 10SM OVC009 14/13 A3017 140 93 100 250/04 RMK AO2 CIG 007V013 T01440133
03949KAQV AQV20160212054012202/12/16 05:40:31  5-MIN KAQV 121140Z AUTO 26005KT 10SM OVC009 14/13 A3018 140 93 100 250/05 RMK AO2 CIG 007V014 T01440133
03949KAQV AQV20160212054512202/12/16 05:45:31  5-MIN KAQV 121145Z AUTO VRB05KT 10SM OVC009 14/13 A3018 140 93 100 VRB/05 RMK AO2 CIG 008V014 T01440133
03949KAQV AQV20160212055014702/12/16 05:50:31  5-MIN KAQV 121150Z AUTO VRB03KT 10SM OVC009 14/13 A3018 140 93 100 VRB/03 RMK AO2 CIG 007V011 SLP218 T01440133 10150 20128 53002
03949KAQV AQV20160212055514702/12/16 05:55:31  5-MIN KAQV 121155Z AUTO 25006KT 10SM OVC009 14/13 A3018 140 93 100 250/06 RMK AO2 CIG 007V014 SLP217 T01440133 10150 20128 53002
03949KAQV AQV20160212060012202/12/16 06:00:31  5-MIN KAQV 121200Z AUTO VRB03KT 10SM OVC008 14/13 A3018 140 93 100 VRB/03 RMK AO2 CIG 007V012 T01440133
03949KAQV AQV20160212060512202/12/16 06:05:31  5-MIN KAQV 121205Z AUTO VRB03KT 10SM OVC008 14/13 A3018 140 93 100 VRB/03 RMK AO2 CIG 007V012 T01440133
03949KAQV AQV20160212061012202/12/16 06:10:31  5-MIN KAQV 121210Z AUTO 25006KT 10SM OVC008 14/13 A3018 130 93 100 240/06 RMK AO2 CIG 007V011 T01440133
03949KAQV AQV20160212061512202/12/16 06:15:31  5-MIN KAQV 121215Z AUTO VRB03KT 10SM OVC008 14/13 A3019 130 93 100 VRB/03 RMK AO2 CIG 007V011 T01440133
03949KAQV AQV20160212062011002/12/16 06:20:31  5-MIN KAQV 121220Z AUTO 26005KT 10SM OVC008 14/13 A3019 130 93 100 260/05 RMK AO2 T01440133
03949KAQV AQV20160212062510002/12/16 06:25:31  5-MIN KAQV 121225Z AUTO 10SM OVC008 14/13 A3019 120 93 100 M /M RMK AO2 T01440133
03949KAQV AQV20160212063011002/12/16 06:30:31  5-MIN KAQV 121230Z AUTO VRB03KT 10SM OVC008 14/13 A3020 120 93 100 VRB/03 RMK AO2 T01440133
03949KAQV AQV20160212063511002/12/16 06:35:31  5-MIN KAQV 121235Z AUTO 00000KT 10SM OVC008 14/13 A3020 120 93 100 000/00 RMK AO2 T01440133
03949KAQV AQV20160212064012902/12/16 06:40:31  5-MIN KAQV 121240Z AUTO VRB03KT 10SM BKN008 OVC015 14/13 A3020 120 96 100 VRB/03 RMK AO2 CIG 006V010 T01390133
03949KAQV AQV20160212064514502/12/16 06:45:31  5-MIN KAQV 121245Z AUTO 00000KT 10SM -RA BKN008 OVC015 14/13 A3020 120 96 100 000/00 RMK AO2 RAB44 CIG 006V010 P0000 T01390133
03949KAQV AQV20160212065012302/12/16 06:50:31  5-MIN KAQV 121250Z AUTO 00000KT 10SM -RA SCT008 OVC015 14/13 A3020 120 96 100 000/00 RMK AO2 RAB44 P0000
03949KAQV AQV20160212065514002/12/16 06:55:31  5-MIN KAQV 121255Z AUTO 00000KT 10SM -RA FEW008 OVC015 14/13 A3020 120 93 100 000/00 RMK AO2 RAB44 SLP227 P0000 T01390128
03949KAQV AQV20160212070012702/12/16 07:00:31  5-MIN KAQV 121300Z AUTO 25003KT 10SM -RA FEW008 OVC015 14/13 A3020 120 93 100 250/03 RMK AO2 P0000 T01390128
03949KAQV AQV20160212070512002/12/16 07:05:31  5-MIN KAQV 121305Z AUTO 00000KT 10SM -RA OVC015 14/13 A3020 120 96 100 000/00 RMK AO2 P0000 T01390133
03949KAQV AQV20160212071012002/12/16 07:10:31  5-MIN KAQV 121310Z AUTO 00000KT 10SM -RA OVC015 14/13 A3020 120 93 100 000/00 RMK AO2 P0000 T01390128
03949KAQV AQV20160212071511702/12/16 07:15:31  5-MIN KAQV 121315Z AUTO 00000KT 9SM -RA OVC015 13/13 A3020 110 96 0 000/00 RMK AO2 P0000 T01330128
03949KAQV AQV20160212072011702/12/16 07:20:31  5-MIN KAQV 121320Z AUTO 00000KT 8SM -RA OVC015 13/13 A3020 120 96 0 000/00 RMK AO2 P0000 T01330128
03949KAQV AQV20160212072511902/12/16 07:25:31  5-MIN KAQV 121325Z AUTO 00000KT 9SM -RA OVC014 14/13 A3020 120 93 100 000/00 RMK AO2 P0000 T01390128
03949KAQV AQV20160212073012002/12/16 07:30:31  5-MIN KAQV 121330Z AUTO 00000KT 10SM -RA OVC014 14/13 A3020 120 93 100 000/00 RMK AO2 P0000 T01390128
03949KAQV AQV20160212073512002/12/16 07:35:31  5-MIN KAQV 121335Z AUTO 00000KT 10SM -RA OVC014 14/13 A3020 120 93 100 000/00 RMK AO2 P0000 T01390128
03949KAQV AQV20160212074012002/12/16 07:40:31  5-MIN KAQV 121340Z AUTO 00000KT 10SM -RA OVC014 14/13 A3020 120 96 100 000/00 RMK AO2 P0000 T01390133
03949KAQV AQV20160212074512002/12/16 07:45:31  5-MIN KAQV 121345Z AUTO 00000KT 10SM -RA OVC013 14/13 A3020 120 93 100 000/00 RMK AO2 P0000 T01440133
03949KAQV AQV20160212075012902/12/16 07:50:31  5-MIN KAQV 121350Z AUTO 00000KT 10SM OVC013 14/13 A3021 110 93 100 000/00 RMK AO2 RAE47 SLP229 P0000 T01440133
03949KAQV AQV20160212075512902/12/16 07:55:31  5-MIN KAQV 121355Z AUTO VRB04KT 10SM OVC013 14/13 A3021 110 93 100 VRB/04 RMK AO2 RAE47 SLP230 P0000 T01440133
03949KAQV AQV20160212080011002/12/16 08:00:31  5-MIN KAQV 121400Z AUTO VRB03KT 10SM OVC012 15/13 A3021 110 90 200 VRB/03 RMK AO2 T01500133
03949KAQV AQV20160212080511002/12/16 08:05:31  5-MIN KAQV 121405Z AUTO 00000KT 10SM OVC012 15/13 A3021 110 90 200 000/00 RMK AO2 T01500133
03949KAQV AQV20160212081011002/12/16 08:10:31  5-MIN KAQV 121410Z AUTO VRB03KT 10SM OVC012 15/14 A3021 110 93 200 VRB/03 RMK AO2 T01500139
03949KAQV AQV20160212081511002/12/16 08:15:31  5-MIN KAQV 121415Z AUTO VRB03KT 10SM OVC012 15/14 A3021 110 93 200 VRB/03 RMK AO2 T01500139
03949KAQV AQV20160212082011002/12/16 08:20:31  5-MIN KAQV 121420Z AUTO VRB04KT 10SM OVC012 15/14 A3022 100 93 200 VRB/04 RMK AO2 T01500139
03949KAQV AQV20160212082511002/12/16 08:25:31  5-MIN KAQV 121425Z AUTO 27004KT 10SM OVC012 16/14 A3022 100 90 200 260/04 RMK AO2 T01560139
03949KAQV AQV20160212083011002/12/16 08:30:31  5-MIN KAQV 121430Z AUTO 28003KT 10SM OVC012 16/14 A3022 100 90 200 280/03 RMK AO2 T01560139
03949KAQV AQV20160212083512102/12/16 08:35:31  5-MIN KAQV 121435Z AUTO 27003KT 10SM OVC011 16/14 A3023 90 90 200 270/03 RMK AO2 CIG 009V013 T01560139
03949KAQV AQV20160212084007502/12/16 08:40:31  5-MIN KAQV 121440Z AUTO VRB03KT 10SM OVC011 16/14 A3023 
03949KAQV AQV20160212133511102/12/16 13:35:31  5-MIN KAQV 121935Z AUTO 02006KT 10SM FEW034 23/12 A3019 130 49 1100 010/06 RMK AO2 T02280117
03949KAQV AQV20160212134010802/12/16 13:40:31  5-MIN KAQV 121940Z AUTO 36006KT 10SM CLR 23/12 A3019 130 49 1100 360/06 RMK AO2 T02280117
03949KAQV AQV20160212134510802/12/16 13:45:31  5-MIN KAQV 121945Z AUTO VRB05KT 10SM CLR 23/12 A3019 130 49 1100 VRB/05 RMK AO2 T02280117
03949KAQV AQV20160212135011502/12/16 13:50:31  5-MIN KAQV 121950Z AUTO VRB03KT 10SM CLR 23/12 A3018 130 49 1100 VRB/03 RMK AO2 SLP220 T02280117
03949KAQV AQV20160212135511802/12/16 13:55:31  5-MIN KAQV 121955Z AUTO 00000KT 10SM SCT039 22/11 A3018 130 49 1000 000/00 RMK AO2 SLP219 T02220111
03949KAQV AQV20160212140011102/12/16 14:00:31  5-MIN KAQV 122000Z AUTO 02006KT 10SM SCT039 23/12 A3018 140 47 1200 010/06 RMK AO2 T02330117
03949KAQV AQV20160212140511102/12/16 14:05:31  5-MIN KAQV 122005Z AUTO 01005KT 10SM SCT040 23/12 A3018 140 47 1200 360/05 RMK AO2 T02330117
03949KAQV AQV20160212141011102/12/16 14:10:31  5-MIN KAQV 122010Z AUTO 05003KT 10SM FEW040 22/11 A3018 140 49 1100 050/03 RMK AO2 T02220111
03949KAQV AQV20160212141511102/12/16 14:15:31  5-MIN KAQV 122015Z AUTO 00000KT 10SM FEW040 22/11 A3018 140 49 1100 000/00 RMK AO2 T02220111
03949KAQV AQV20160212142011102/12/16 14:20:31  5-MIN KAQV 122020Z AUTO VRB03KT 10SM FEW040 23/11 A3018 140 45 1200 VRB/03 RMK AO2 T02330111
03949KAQV AQV20160212142511102/12/16 14:25:31  5-MIN KAQV 122025Z AUTO 35005KT 10SM FEW040 23/11 A3018 140 45 1100 350/05 RMK AO2 T02280106
03949KAQV AQV20160212143010802/12/16 14:30:31  5-MIN KAQV 122030Z AUTO 02006KT 10SM CLR 23/11 A3018 140 45 1200 020/06 RMK AO2 T02330111
03949KAQV AQV20160212143510802/12/16 14:35:31  5-MIN KAQV 122035Z AUTO VRB03KT 10SM CLR 23/11 A3018 140 45 1200 VRB/03 RMK AO2 T02330111
03949KAQV AQV20160212144010802/12/16 14:40:31  5-MIN KAQV 122040Z AUTO 00000KT 10SM CLR 23/11 A3018 140 44 1200 000/00 RMK AO2 T02330106
03949KAQV AQV20160212144509802/12/16 14:45:31  5-MIN KAQV 122045Z AUTO 10SM CLR 23/11 A3018 140 44 1200 M /M RMK AO2 T02330106
03949KAQV AQV20160212145012102/12/16 14:50:31  5-MIN KAQV 122050Z AUTO 01007KT 10SM CLR 23/11 A3018 140 44 1200 360/07 RMK AO2 SLP217 T02330106 58002
03949KAQV AQV20160212145512102/12/16 14:55:31  5-MIN KAQV 122055Z AUTO 02005KT 10SM CLR 23/11 A3017 140 44 1200 010/05 RMK AO2 SLP216 T02330106 58002
03949KAQV AQV20160212150010802/12/16 15:00:31  5-MIN KAQV 122100Z AUTO 00000KT 10SM CLR 23/11 A3017 140 45 1200 000/00 RMK AO2 T02330111
03949KAQV AQV20160212150510802/12/16 15:05:31  5-MIN KAQV 122105Z AUTO VRB03KT 10SM CLR 23/11 A3017 140 45 1100 VRB/03 RMK AO2 T02280106
03949KAQV AQV20160212151010802/12/16 15:10:31  5-MIN KAQV 122110Z AUTO 00000KT 10SM CLR 23/11 A3017 140 45 1100 000/00 RMK AO2 T02280106
03949KAQV AQV20160212151510802/12/16 15:15:31  5-MIN KAQV 122115Z AUTO 00000KT 10SM CLR 23/11 A3017 140 44 1200 000/00 RMK AO2 T02330106
03949KAQV AQV20160212152010802/12/16 15:20:31  5-MIN KAQV 122120Z AUTO VRB03KT 10SM CLR 23/11 A3017 150 44 1200 VRB/03 RMK AO2 T02330106
03949KAQV AQV20160212152510802/12/16 15:25:31  5-MIN KAQV 122125Z AUTO 02006KT 10SM CLR 24/11 A3017 150 42 1300 020/06 RMK AO2 T02390106
03949KAQV AQV20160212153010802/12/16 15:30:31  5-MIN KAQV 122130Z AUTO 00000KT 10SM CLR 24/11 A3017 140 42 1200 000/00 RMK AO2 T02390106
03949KAQV AQV20160212153510802/12/16 15:35:31  5-MIN KAQV 122135Z AUTO VRB03KT 10SM CLR 23/10 A3017 140 42 1200 VRB/03 RMK AO2 T02330100
03949KAQV AQV20160212154010802/12/16 15:40:31  5-MIN KAQV 122140Z AUTO 00000KT 10SM CLR 23/10 A3017 140 44 1100 000/00 RMK AO2 T02280100
03949KAQV AQV20160212154510802/12/16 15:45:31  5-MIN KAQV 122145Z AUTO VRB03KT 10SM CLR 24/10 A3018 140 41 1200 VRB/03 RMK AO2 T02390100
03949KAQV AQV20160212155011502/12/16 15:50:31  5-MIN KAQV 122150Z AUTO 00000KT 10SM CLR 24/10 A3018 140 41 1200 000/00 RMK AO2 SLP217 T02390100
03949KAQV AQV20160212155510502/12/16 15:55:31  5-MIN KAQV 122155Z AUTO 10SM CLR 24/10 A3018 140 39 1300 M /M RMK AO2 SLP218 T02440100
03949KAQV AQV20160212160010802/12/16 16:00:31  5-MIN KAQV 122200Z AUTO 00000KT 10SM CLR 24/09 A3018 140 39 1200 000/00 RMK AO2 T02390094
03949KAQV AQV20160212160510802/12/16 16:05:31  5-MIN KAQV 122205Z AUTO VRB06KT 10SM CLR 24/09 A3018 140 39 1200 VRB/06 RMK AO2 T02390094
03949KAQV AQV20160212161010802/12/16 16:10:31  5-MIN KAQV 122210Z AUTO 02007KT 10SM CLR 23/09 A3018 140 39 1200 020/07 RMK AO2 T02330089
03949KAQV AQV20160212161510802/12/16 16:15:31  5-MIN KAQV 122215Z AUTO 01005KT 10SM CLR 23/09 A3018 130 39 1200 010/05 RMK AO2 T02330089
03949KAQV AQV20160212162010802/12/16 16:20:31  5-MIN KAQV 122220Z AUTO 03007KT 10SM CLR 23/09 A3019 130 39 1200 030/07 RMK AO2 T02330089
03949KAQV AQV20160212162510802/12/16 16:25:31  5-MIN KAQV 122225Z AUTO 01006KT 10SM CLR 23/08 A3019 130 38 1200 010/06 RMK AO2 T02330083
03949KAQV AQV20160212163010802/12/16 16:30:31  5-MIN KAQV 122230Z AUTO 02004KT 10SM CLR 23/09 A3019 130 39 1200 020/04 RMK AO2 T02330089
03949KAQV AQV20160212163510802/12/16 16:35:31  5-MIN KAQV 122235Z AUTO VRB06KT 10SM CLR 23/08 A3019 130 38 1200 VRB/06 RMK AO2 T02330083
03949KAQV AQV20160213004510702/13/16 00:45:31  5-MIN KAQV 130645Z AUTO 04003KT 10SM CLR 10/04 A3030 20 68 -500 040/03 RMK AO2 T01000044
03949KAQV AQV20160213005011402/13/16 00:50:31  5-MIN KAQV 130650Z AUTO 05003KT 10SM CLR 09/04 A3030 20 71 -500 050/03 RMK AO2 SLP262 T00940044
03949KAQV AQV20160213005511402/13/16 00:55:31  5-MIN KAQV 130655Z AUTO 04003KT 10SM CLR 10/04 A3030 20 65 -500 040/03 RMK AO2 SLP261 T01000039
03949KAQV AQV20160213010010702/13/16 01:00:31  5-MIN KAQV 130700Z AUTO 05003KT 10SM CLR 10/04 A3031 20 65 -500 040/03 RMK AO2 T01000039
03949KAQV AQV20160213010510702/13/16 01:05:31  5-MIN KAQV 130705Z AUTO VRB03KT 10SM CLR 10/03 A3031 20 63 -500 VRB/03 RMK AO2 T01000033
03949KAQV AQV20160213011010702/13/16 01:10:31  5-MIN KAQV 130710Z AUTO VRB03KT 10SM CLR 10/03 A3031 20 63 -500 VRB/03 RMK AO2 T01000033
03949KAQV AQV20160213011510702/13/16 01:15:31  5-MIN KAQV 130715Z AUTO 04003KT 10SM CLR 11/03 A3031 20 61 -400 040/03 RMK AO2 T01060033
03949KAQV AQV20160213012010702/13/16 01:20:31  5-MIN KAQV 130720Z AUTO 05006KT 10SM CLR 11/03 A3031 20 61 -400 040/06 RMK AO2 T01060033
03949KAQV AQV20160213012510702/13/16 01:25:31  5-MIN KAQV 130725Z AUTO 04004KT 10SM CLR 11/03 A3031 20 58 -400 040/04 RMK AO2 T01060028
03949KAQV AQV20160213013010702/13/16 01:30:31  5-MIN KAQV 130730Z AUTO 04006KT 10SM CLR 11/03 A3031 20 58 -400 040/06 RMK AO2 T01060028
03949KAQV AQV20160213013510702/13/16 01:35:31  5-MIN KAQV 130735Z AUTO 04005KT 10SM CLR 11/03 A3031 20 58 -400 040/05 RMK AO2 T01060028
03949KAQV AQV20160213014010702/13/16 01:40:31  5-MIN KAQV 130740Z AUTO 04005KT 10SM CLR 11/03 A3031 20 58 -400 030/05 RMK AO2 T01060028
03949KAQV AQV20160213014510702/13/16 01:45:31  5-MIN KAQV 130745Z AUTO 03006KT 10SM CLR 11/03 A3031 20 58 -400 030/06 RMK AO2 T01060028
03949KAQV AQV20160213015011402/13/16 01:50:31  5-MIN KAQV 130750Z AUTO 03006KT 10SM CLR 10/03 A3031 20 60 -500 030/06 RMK AO2 SLP264 T01000028
03949KAQV AQV20160213015511402/13/16 01:55:31  5-MIN KAQV 130755Z AUTO VRB06KT 10SM CLR 10/03 A3031 10 60 -500 VRB/06 RMK AO2 SLP265 T01000028
03949KAQV AQV20160213020010702/13/16 02:00:31  5-MIN KAQV 130800Z AUTO 04005KT 10SM CLR 10/02 A3032 10 58 -500 030/05 RMK AO2 T01000022
03949KAQV AQV20160213020510702/13/16 02:05:31  5-MIN KAQV 130805Z AUTO 04006KT 10SM CLR 10/02 A3032 10 58 -500 030/06 RMK AO2 T01000022
03949KAQV AQV20160213021010702/13/16 02:10:31  5-MIN KAQV 130810Z AUTO 04006KT 10SM CLR 10/02 A3032 10 58 -500 040/06 RMK AO2 T01000022
03949KAQV AQV20160213021510702/13/16 02:15:31  5-MIN KAQV 130815Z AUTO 04006KT 10SM CLR 10/02 A3032 10 58 -500 040/06 RMK AO2 T01000022
03949KAQV AQV20160213022010702/13/16 02:20:31  5-MIN KAQV 130820Z AUTO 05007KT 10SM CLR 10/02 A3032 10 58 -500 050/07 RMK AO2 T01000022
03949KAQV AQV20160213022510702/13/16 02:25:31  5-MIN KAQV 130825Z AUTO 04005KT 10SM CLR 10/02 A3032 10 58 -500 040/05 RMK AO2 T01000022
03949KAQV AQV20160213023010702/13/16 02:30:31  5-MIN KAQV 130830Z AUTO VRB05KT 10SM CLR 10/02 A3032 10 58 -500 VRB/05 RMK AO2 T01000022
03949KAQV AQV20160213023510702/13/16 02:35:31  5-MIN KAQV 130835Z AUTO 04005KT 10SM CLR 10/02 A3032 10 58 -500 040/05 RMK AO2 T01000022
03949KAQV AQV20160213024010702/13/16 02:40:31  5-MIN KAQV 130840Z AUTO 03006KT 10SM CLR 10/02 A3032 10 58 -500 030/06 RMK AO2 T01000022
03949KAQV AQV20160213024510702/13/16 02:45:31  5-MIN KAQV 130845Z AUTO 04006KT 10SM CLR 10/02 A3032 10 58 -500 030/06 RMK AO2 T01000022
03949KAQV AQV20160213025012002/13/16 02:50:31  5-MIN KAQV 130850Z AUTO 03007KT 10SM CLR 10/02 A3032 10 58 -500 030/07 RMK AO2 SLP268 T01000022 53006
03949KAQV AQV20160213025512002/13/16 02:55:31  5-MIN KAQV 130855Z AUTO 03006KT 10SM CLR 09/02 A3032 10 60 -600 030/06 RMK AO2 SLP268 T00940022 53006
03949KAQV AQV20160213030010702/13/16 03:00:31  5-MIN KAQV 130900Z AUTO 04006KT 10SM CLR 09/02 A3032 10 60 -600 030/06 RMK AO2 T00940022
03949KAQV AQV20160213030512202/13/16 03:05:31  5-MIN KAQV 130905Z AUTO 04007KT 360V060 10SM CLR 09/02 A3032 0 58 -600 040/07 360V060 RMK AO2 T00940017
03949KAQV AQV20160213031010602/13/16 03:10:31  5-MIN KAQV 130910Z AUTO 05007KT 10SM CLR 09/02 A3033 0 58 -600 040/07 RMK AO2 T00940017
03949KAQV AQV20160213031510602/13/16 03:15:31  5-MIN KAQV 130915Z AUTO 05007KT 10SM CLR 09/02 A3033 0 58 -600 050/07 RMK AO2 T00940017
03949KAQV AQV20160213032010602/13/16 03:20:31  5-MIN KAQV 130920Z AUTO 04007KT 10SM CLR 09/02 A3033 0 58 -600 040/07 RMK AO2 T00940017
03949KAQV AQV20160213032512202/13/16 03:25:31  5-MIN KAQV 130925Z AUTO 05007KT 010V080 10SM CLR 09/02 A3033 0 58 -600 040/07 010V080 RMK AO2 T00940017
03949KAQV AQV20160213033010602/13/16 03:30:31  5-MIN KAQV 130930Z AUTO 04008KT 10SM CLR 09/02 A3033 0 58 -600 030/08 RMK AO2 T00940017
03949KAQV AQV20160213033510602/13/16 03:35:31  5-MIN KAQV 130935Z AUTO VRB06KT 10SM CLR 09/02 A3033 0 58 -600 VRB/06 RMK AO2 T00940017
03949KAQV AQV20160213034010602/13/16 03:40:31  5-MIN KAQV 130940Z AUTO VRB05KT 10SM CLR 09/02 A3034 0 58 -600 VRB/05 RMK AO2 T00940017
03949KAQV AQV20160213034510602/13/16 03:45:31  5-MIN KAQV 130945Z AUTO 06007KT 10SM CLR 09/02 A3034 0 58 -600 060/07 RMK AO2 T00940017
03949KAQV AQV20160213035011302/13/16 03:50:31  5-MIN KAQV 130950Z AUTO 04004KT 10SM CLR 09/01 A3034 0 56 -600 040/04 RMK AO2 SLP273 T00940011
03949KAQV AQV20160213035513102/13/16 03:55:31  5-MIN KAQV 130955Z AUTO 05007KT 010V080 10SM CLR 09/01 A3034 -10 56 -600 050/07 010V080 RMK AO2 SLP273 T00940011
03949KAQV AQV20160213040010802/13/16 04:00:31  5-MIN KAQV 131000Z AUTO 05005KT 10SM CLR 09/01 A3034 -10 58 -700 040/05 RMK AO2 T00890011
03949KAQV AQV20160213040510802/13/16 04:05:31  5-MIN KAQV 131005Z AUTO 04006KT 10SM CLR 09/01 A3034 -10 58 -700 040/06 RMK AO2 T00890011
03949KAQV AQV20160213041010802/13/16 04:10:31  5-MIN KAQV 131010Z AUTO 06008KT 10SM CLR 09/01 A3035 -10 58 -700 060/08 RMK AO2 T00890011
03949KAQV AQV20160213041510802/13/16 04:15:31  5-MIN KAQV 131015Z AUTO VRB03KT 10SM CLR 09/01 A3035 -10 58 -700 VRB/03 RMK AO2 T00890011
03949KAQV AQV20160213042010802/13/16 04:20:31  5-MIN KAQV 131020Z AUTO VRB04KT 10SM CLR 09/01 A3035 -20 58 -700 VRB/04 RMK AO2 T00890011
03949KAQV AQV20160213042512402/13/16 04:25:31  5-MIN KAQV 131025Z AUTO 05007KT 010V080 10SM CLR 09/01 A3035 -20 56 -700 050/07 010V080 RMK AO2 T00890006
03949KAQV AQV20160213043010802/13/16 04:30:31  5-MIN KAQV 131030Z AUTO VRB05KT 10SM CLR 09/01 A3035 -20 56 -700 VRB/05 RMK AO2 T00890006
03949KAQV AQV20160213043510802/13/16 04:35:31  5-MIN KAQV 131035Z AUTO 07006KT 10SM CLR 09/01 A3035 -20 56 -700 070/06 RMK AO2 T00890006
03949KAQV AQV20160213044010802/13/16 04:40:31  5-MIN KAQV 131040Z AUTO VRB06KT 10SM CLR 09/01 A3035 -20 56 -700 VRB/06 RMK AO2 T00890006
03949KAQV AQV20160213044510802/13/16 04:45:31  5-MIN KAQV 131045Z AUTO VRB03KT 10SM CLR 09/01 A3036 -20 56 -700 VRB/03 RMK AO2 T00890006
03949KAQV AQV20160213045011502/13/16 04:50:31  5-MIN KAQV 131050Z AUTO 06006KT 10SM CLR 08/01 A3036 -20 58 -700 050/06 RMK AO2 SLP279 T00830006
03949KAQV AQV20160213045511502/13/16 04:55:31  5-MIN KAQV 131055Z AUTO VRB05KT 10SM CLR 08/01 A3036 -20 58 -700 VRB/05 RMK AO2 SLP280 T00830006
03949KAQV AQV20160213050009802/13/16 05:00:31  5-MIN KAQV 131100Z AUTO 10SM CLR 08/01 A3036 -20 58 -700 M /M RMK AO2 T00830006
03949KAQV AQV20160213050510802/13/16 05:05:31  5-MIN KAQV 131105Z AUTO 07006KT 10SM CLR 08/01 A3036 -20 58 -700 060/06 RMK AO2 T00830006
03949KAQV AQV20160213051010802/13/16 05:10:31  5-MIN KAQV 131110Z AUTO 05006KT 10SM CLR 08/01 A3036 -30 58 -700 050/06 RMK AO2 T00830006
03949KAQV AQV20160213051510802/13/16 05:15:31  5-MIN KAQV 131115Z AUTO VRB04KT 10SM CLR 08/01 A3036 -30 58 -700 VRB/04 RMK AO2 T00830006
03949KAQV AQV20160213052010802/13/16 05:20:31  5-MIN KAQV 131120Z AUTO 05005KT 10SM CLR 08/00 A3036 -20 55 -700 050/05 RMK AO2 T00830000
03949KAQV AQV20160213052510802/13/16 05:25:31  5-MIN KAQV 131125Z AUTO 06005KT 10SM CLR 08/00 A3036 -30 55 -700 060/05 RMK AO2 T00830000
03949KAQV AQV20160213053010802/13/16 05:30:31  5-MIN KAQV 131130Z AUTO VRB03KT 10SM CLR 08/00 A3036 -30 55 -800 VRB/03 RMK AO2 T00830000
03949KAQV AQV20160213053510802/13/16 05:35:31  5-MIN KAQV 131135Z AUTO VRB04KT 10SM CLR 08/00 A3037 -30 55 -800 VRB/04 RMK AO2 T00830000
03949KAQV AQV20160213054010802/13/16 05:40:31  5-MIN KAQV 131140Z AUTO VRB05KT 10SM CLR 08/00 A3037 -30 58 -800 VRB/05 RMK AO2 T00780000
03949KAQV AQV20160213054509802/13/16 05:45:31  5-MIN KAQV 131145Z AUTO 10SM CLR 08/00 A3037 -30 58 -800 M /M RMK AO2 T00780000
03949KAQV AQV20160213055013302/13/16 05:50:31  5-MIN KAQV 131150Z AUTO VRB03KT 10SM CLR 08/00 A3037 -30 58 -800 VRB/03 RMK AO2 SLP284 T00780000 10106 20072 53007
03949KAQV AQV20160213055513302/13/16 05:55:31  5-MIN KAQV 131155Z AUTO VRB04KT 10SM CLR 08/00 A3038 -40 58 -800 VRB/04 RMK AO2 SLP285 T00780000 10106 20072 53007
03949KAQV AQV20160213060010802/13/16 06:00:31  5-MIN KAQV 131200Z AUTO VRB04KT 10SM CLR 08/00 A3038 -40 58 -800 VRB/04 RMK AO2 T00780000
03949KAQV AQV20160213060510802/13/16 06:05:31  5-MIN KAQV 131205Z AUTO 07004KT 10SM CLR 08/00 A3038 -40 58 -800 060/04 RMK AO2 T00780000
03949KAQV AQV20160213061010802/13/16 06:10:31  5-MIN KAQV 131210Z AUTO 06005KT 10SM CLR 08/00 A3039 -50 58 -800 060/05 RMK AO2 T00780000
03949KAQV AQV20160213061510802/13/16 06:15:31  5-MIN KAQV 131215Z AUTO VRB03KT 10SM CLR 08/00 A3039 -50 58 -800 VRB/03 RMK AO2 T00780000
03949KAQV AQV20160213062010802/13/16 06:20:31  5-MIN KAQV 131220Z AUTO VRB03KT 10SM CLR 07/00 A3039 -50 60 -900 VRB/03 RMK AO2 T00720000
03949KAQV AQV20160213062510802/13/16 06:25:31  5-MIN KAQV 131225Z AUTO VRB03KT 10SM CLR 07/00 A3039 -50 60 -900 VRB/03 RMK AO2 T00720000
03949KAQV AQV20160213063010802/13/16 06:30:31  5-MIN KAQV 131230Z AUTO 00000KT 10SM CLR 07/00 A3039 -50 60 -900 000/00 RMK AO2 T00720000
03949KAQV AQV20160213063510802/13/16 06:35:31  5-MIN KAQV 131235Z AUTO 00000KT 10SM CLR 07/00 A3039 -50 60 -900 000/00 RMK AO2 T00720000
03949KAQV AQV20160213064010902/13/16 06:40:31  5-MIN KAQV 131240Z AUTO 09003KT 10SM CLR 07/00 A3040 -60 62 -1000 080/03 RMK AO2 T00670000
03949KAQV AQV20160213064510902/13/16 06:45:31  5-MIN KAQV 131245Z AUTO 00000KT 10SM CLR 07/00 A3040 -60 62 -1000 000/00 RMK AO2 T00670000
03949KAQV AQV20160213065011602/13/16 06:50:31  5-MIN KAQV 131250Z AUTO 00000KT 10SM CLR 07/00 A3040 -60 62 -1000 000/00 RMK AO2 SLP294 T00670000
03949KAQV AQV20160213065511602/13/16 06:55:31  5-MIN KAQV 131255Z AUTO 00000KT 10SM CLR 07/00 A3040 -60 62 -1000 000/00 RMK AO2 SLP295 T00670000
03949KAQV AQV20160213070010902/13/16 07:00:31  5-MIN KAQV 131300Z AUTO 00000KT 10SM CLR 07/00 A3040 -60 62 -1000 000/00 RMK AO2 T00670000
03949KAQV AQV20160213070510902/13/16 07:05:31  5-MIN KAQV 131305Z AUTO 00000KT 10SM CLR 06/01 A3041 -70 67 -1100 000/00 RMK AO2 T00610006
03949KAQV AQV20160213071010902/13/16 07:10:31  5-MIN KAQV 131310Z AUTO 00000KT 10SM CLR 06/01 A3041 -70 67 -1100 000/00 RMK AO2 T00610006
03949KAQV AQV20160213071510902/13/16 07:15:31  5-MIN KAQV 131315Z AUTO 00000KT 10SM CLR 06/01 A3041 -70 67 -1100 000/00 RMK AO2 T00610006
03949KAQV AQV20160213072010902/13/16 07:20:31  5-MIN KAQV 131320Z AUTO 00000KT 10SM CLR 06/01 A3041 -70 67 -1100 000/00 RMK AO2 T00610006
03949KAQV AQV20160213072510902/13/16 07:25:31  5-MIN KAQV 131325Z AUTO 03003KT 10SM CLR 06/01 A3042 -80 67 -1100 030/03 RMK AO2 T00610006
03949KAQV AQV20160213073010902/13/16 07:30:31  5-MIN KAQV 131330Z AUTO 04003KT 10SM CLR 06/01 A3042 -80 67 -1100 040/03 RMK AO2 T00610006
03949KAQV AQV20160213073510902/13/16 07:35:31  5-MIN KAQV 131335Z AUTO 04003KT 10SM CLR 06/01 A3042 -80 67 -1100 040/03 RMK AO2 T00610006
03949KAQV AQV20160213074010902/13/16 07:40:31  5-MIN KAQV 131340Z AUTO 04003KT 10SM CLR 07/01 A3042 -80 65 -1000 040/03 RMK AO2 T00670006
03949KAQV AQV20160213074510902/13/16 07:45:31  5-MIN KAQV 131345Z AUTO 05003KT 10SM CLR 07/01 A3042 -80 65 -1000 040/03 RMK AO2 T00670006
03949KAQV AQV20160213075011602/13/16 07:50:31  5-MIN KAQV 131350Z AUTO VRB03KT 10SM CLR 07/01 A3043 -80 62 -1000 VRB/03 RMK AO2 SLP304 T00720006
03949KAQV AQV20160213075511502/13/16 07:55:31  5-MIN KAQV 131355Z AUTO VRB04KT 10SM CLR 08/01 A3043 -90 60 -900 VRB/04 RMK AO2 SLP305 T00780006
03949KAQV AQV20160213080010802/13/16 08:00:31  5-MIN KAQV 131400Z AUTO 04004KT 10SM CLR 08/01 A3043 -90 60 -900 040/04 RMK AO2 T00780006
03949KAQV AQV20160213080510802/13/16 08:05:31  5-MIN KAQV 131405Z AUTO VRB05KT 10SM CLR 08/01 A3043 -90 60 -900 VRB/05 RMK AO2 T00780006
03949KAQV AQV20160213081010802/13/16 08:10:31  5-MIN KAQV 131410Z AUTO VRB05KT 10SM CLR 08/00 A3043 -90 55 -800 VRB/05 RMK AO2 T00830000
03949KAQV AQV20160213081510802/13/16 08:15:31  5-MIN KAQV 131415Z AUTO 06007KT 10SM CLR 08/00 A3043 -90 55 -800 060/07 RMK AO2 T00830000
03949KAQV AQV20160213082010802/13/16 08:20:31  5-MIN KAQV 131420Z AUTO VRB05KT 10SM CLR 08/00 A3043 -90 55 -800 VRB/05 RMK AO2 T00830000
03949KAQV AQV20160213082510802/13/16 08:25:31  5-MIN KAQV 131425Z AUTO 06003KT 10SM CLR 09/00 A3043 -80 53 -800 050/03 RMK AO2 T00890000
03949KAQV AQV20160213083010802/13/16 08:30:31  5-MIN KAQV 131430Z AUTO VRB05KT 10SM CLR 09/00 A3043 -90 53 -800 VRB/05 RMK AO2 T00890000
03949KAQV AQV20160213083510802/13/16 08:35:31  5-MIN KAQV 131435Z AUTO 06007KT 10SM CLR 09/00 A3043 -90 53 -800 060/07 RMK AO2 T00890000
03949KAQV AQV20160213084012402/13/16 08:40:31  5-MIN KAQV 131440Z AUTO 05007KT 010V080 10SM CLR 09/00 A3043 -90 51 -700 050/07 010V080 RMK AO2 T00940000
03949KAQV AQV20160213084510802/13/16 08:45:31  5-MIN KAQV 131445Z AUTO VRB05KT 10SM CLR 09/00 A3043 -90 51 -700 VRB/05 RMK AO2 T00940000
03949KAQV AQV20160213085011102/13/16 08:50:31  5-MIN KAQV 131450Z AUTO 10SM CLR 09/00 A3043 -90 51 -700 M /M RMK AO2 SLP307 T00940000 52018
03949KAQV AQV20160213085513702/13/16 08:55:31  5-MIN KAQV 131455Z AUTO 08007KT 040V120 10SM CLR 09/00 A3043 -90 53 -800 080/07 040V120 RMK AO2 SLP306 T00890000 52018
03949KAQV AQV20160213090010802/13/16 09:00:31  5-MIN KAQV 131500Z AUTO 08007KT 10SM CLR 09/00 A3043 -90 51 -700 070/07 RMK AO2 T00940000
03949KAQV AQV20160213090512502/13/16 09:05:31  5-MIN KAQV 131505Z AUTO 06007KT 030V100 10SM CLR 09/M01 A3043 -90 49 -700 050/07 030V100 RMK AO2 T00941006
03949KAQV AQV20160213091013002/13/16 09:10:31  5-MIN KAQV 131510Z AUTO 06009G15KT 360V100 10SM CLR 09/00 A3043 -90 51 -700 060/09G15 360V100 RMK AO2 T00940000
03949KAQV AQV20160213091513002/13/16 09:15:31  5-MIN KAQV 131515Z AUTO 06007G15KT 020V090 10SM CLR 09/00 A3043 -90 51 -700 050/07G15 020V090 RMK AO2 T00940000
03949KAQV AQV20160213092012402/13/16 09:20:31  5-MIN KAQV 131520Z AUTO 07008KT 030V110 10SM CLR 10/00 A3043 -90 49 -600 060/08 030V110 RMK AO2 T01000000
03949KAQV AQV20160213092511502/13/16 09:25:31  5-MIN KAQV 131525Z AUTO 07007G17KT 10SM CLR 10/M01 A3043 -90 47 -600 070/07G17 RMK AO2 T01001006
03949KAQV AQV20160213093011402/13/16 09:30:31  5-MIN KAQV 131530Z AUTO 06006G17KT 10SM CLR 10/00 A3043 -90 49 -600 060/06G17 RMK AO2 T01000000
03949KAQV AQV20160213093510802/13/16 09:35:31  5-MIN KAQV 131535Z AUTO 06009KT 10SM CLR 11/00 A3043 -90 48 -600 060/09 RMK AO2 T01060000
03949KAQV AQV20160213094010802/13/16 09:40:31  5-MIN KAQV 131540Z AUTO VRB06KT 10SM CLR 11/00 A3043 -90 48 -600 VRB/06 RMK AO2 T01060000
03949KAQV AQV20160213094513002/13/16 09:45:31  5-MIN KAQV 131545Z AUTO 06007G14KT 030V090 10SM CLR 11/00 A3043 -90 48 -600 060/07G14 030V090 RMK AO2 T01060000
03949KAQV AQV20160213095013702/13/16 09:50:31  5-MIN KAQV 131550Z AUTO 08007G14KT 030V140 10SM CLR 11/00 A3043 -90 48 -600 070/07G14 030V140 RMK AO2 SLP305 T01060000
03949KAQV AQV20160213095513102/13/16 09:55:31  5-MIN KAQV 131555Z AUTO 11007KT 060V150 10SM CLR 11/00 A3043 -80 46 -500 100/07 060V150 RMK AO2 SLP304 T01110000
03949KAQV AQV20160213100011402/13/16 10:00:31  5-MIN KAQV 131600Z AUTO VRB06G17KT 10SM CLR 11/00 A3043 -90 46 -500 VRB/06G17 RMK AO2 T01110000
03949KAQV AQV20160213100513002/13/16 10:05:31  5-MIN KAQV 131605Z AUTO 06008G17KT 030V110 10SM CLR 12/00 A3043 -90 44 -400 050/08G17 030V110 RMK AO2 T01170000
03949KAQV AQV20160213101011502/13/16 10:10:31  5-MIN KAQV 131610Z AUTO 07008G15KT 10SM CLR 11/M01 A3043 -90 44 -500 070/08G15 RMK AO2 T01111006
03949KAQV AQV20160213101511502/13/16 10:15:31  5-MIN KAQV 131615Z AUTO VRB06G15KT 10SM CLR 11/M01 A3044 -90 44 -500 VRB/06G15 RMK AO2 T01111006
03949KAQV AQV20160213102010802/13/16 10:20:31  5-MIN KAQV 131620Z AUTO 06009KT 10SM CLR 12/00 A3043 -90 44 -400 060/09 RMK AO2 T01170000
03949KAQV AQV20160213102512402/13/16 10:25:31  5-MIN KAQV 131625Z AUTO 06007KT 010V130 10SM CLR 12/00 A3043 -90 44 -400 060/07 010V130 RMK AO2 T01170000
03949KAQV AQV20160213103012402/13/16 10:30:31  5-MIN KAQV 131630Z AUTO 06009KT 020V090 10SM CLR 12/00 A3043 -90 43 -400 060/09 020V090 RMK AO2 T01220000
03949KAQV AQV20160213103511502/13/16 10:35:31  5-MIN KAQV 131635Z AUTO 05009G16KT 10SM CLR 12/M01 A3043 -90 42 -400 040/09G16 RMK AO2 T01171006
03949KAQV AQV20160213104011502/13/16 10:40:31  5-MIN KAQV 131640Z AUTO 05009G16KT 10SM CLR 12/M01 A3043 -90 41 -400 040/09G16 RMK AO2 T01221006
03949KAQV AQV20160213104513102/13/16 10:45:31  5-MIN KAQV 131645Z AUTO 06009G15KT 030V090 10SM CLR 12/M01 A3043 -90 41 -400 050/09G15 030V090 RMK AO2 T01221006
03949KAQV AQV20160213105013802/13/16 10:50:31  5-MIN KAQV 131650Z AUTO 05007G15KT 010V100 10SM CLR 12/M01 A3043 -80 41 -400 050/07G15 010V100 RMK AO2 SLP304 T01221006
03949KAQV AQV20160213105512202/13/16 10:55:31  5-MIN KAQV 131655Z AUTO 08010G16KT 10SM CLR 12/M01 A3043 -80 41 -300 070/10G16 RMK AO2 SLP304 T01221006
03949KAQV AQV20160213110013102/13/16 11:00:31  5-MIN KAQV 131700Z AUTO 06007G16KT 040V100 10SM CLR 12/M01 A3042 -80 41 -300 060/07G16 040V100 RMK AO2 T01221006
03949KAQV AQV20160213110510802/13/16 11:05:31  5-MIN KAQV 131705Z AUTO 04007KT 10SM CLR 13/00 A3042 -80 41 -300 040/07 RMK AO2 T01280000
03949KAQV AQV20160213111010802/13/16 11:10:31  5-MIN KAQV 131710Z AUTO 06007KT 10SM CLR 13/00 A3042 -80 41 -300 050/07 RMK AO2 T01280000
03949KAQV AQV20160213111510802/13/16 11:15:31  5-MIN KAQV 131715Z AUTO VRB05KT 10SM CLR 13/00 A3042 -80 41 -300 VRB/05 RMK AO2 T01280000
03949KAQV AQV20160213112010802/13/16 11:20:31  5-MIN KAQV 131720Z AUTO VRB06KT 10SM CLR 13/00 A3042 -80 41 -300 VRB/06 RMK AO2 T01280000
03949KAQV AQV20160213112510802/13/16 11:25:31  5-MIN KAQV 131725Z AUTO VRB06KT 10SM CLR 13/00 A3042 -80 41 -300 VRB/06 RMK AO2 T01280000
03949KAQV AQV20160213113010802/13/16 11:30:31  5-MIN KAQV 131730Z AUTO VRB06KT 10SM CLR 13/00 A3042 -80 41 -300 VRB/06 RMK AO2 T01280000
03949KAQV AQV20160213113510802/13/16 11:35:31  5-MIN KAQV 131735Z AUTO VRB06KT 10SM CLR 13/00 A3042 -80 40 -200 VRB/06 RMK AO2 T01330000
03949KAQV AQV20160213114010802/13/16 11:40:31  5-MIN KAQV 131740Z AUTO 05007KT 10SM CLR 13/00 A3042 -80 41 -300 050/07 RMK AO2 T01280000
03949KAQV AQV20160213114510802/13/16 11:45:31  5-MIN KAQV 131745Z AUTO 05006KT 10SM CLR 13/01 A3042 -80 41 -200 050/06 RMK AO2 T01330006
03949KAQV AQV20160213115013302/13/16 11:50:31  5-MIN KAQV 131750Z AUTO 06007KT 10SM CLR 13/00 A3041 -70 40 -200 060/07 RMK AO2 SLP300 T01330000 10133 20056 51019
03949KAQV AQV20160213115513302/13/16 11:55:31  5-MIN KAQV 131755Z AUTO VRB05KT 10SM CLR 13/01 A3041 -70 41 -200 VRB/05 RMK AO2 SLP299 T01330006 10133 20056 51019
03949KAQV AQV20160213120012402/13/16 12:00:31  5-MIN KAQV 131800Z AUTO 04007KT 360V090 10SM CLR 13/01 A3041 -70 41 -200 030/07 360V090 RMK AO2 T01330006
03949KAQV AQV20160213120510802/13/16 12:05:31  5-MIN KAQV 131805Z AUTO VRB04KT 10SM CLR 14/01 A3041 -70 40 -100 VRB/04 RMK AO2 T01390006
03949KAQV AQV20160213121010802/13/16 12:10:31  5-MIN KAQV 131810Z AUTO 07006KT 10SM CLR 14/01 A3040 -60 40 -100 070/06 RMK AO2 T01440011
03949KAQV AQV20160213121510802/13/16 12:15:31  5-MIN KAQV 131815Z AUTO VRB05KT 10SM CLR 14/01 A3040 -60 38 -100 VRB/05 RMK AO2 T01440006
03949KAQV AQV20160213122012402/13/16 12:20:31  5-MIN KAQV 131820Z AUTO 04007KT 360V100 10SM CLR 14/01 A3039 -50 40 -100 030/07 360V100 RMK AO2 T01390006
03949KAQV AQV20160213122510802/13/16 12:25:31  5-MIN KAQV 131825Z AUTO VRB06KT 10SM CLR 14/01 A3039 -50 40 -100 VRB/06 RMK AO2 T01390006
03949KAQV AQV20160213123012402/13/16 12:30:31  5-MIN KAQV 131830Z AUTO 08007KT 030V120 10SM CLR 14/01 A3039 -50 41 -100 070/07 030V120 RMK AO2 T01390011
03949KAQV AQV20160213123512402/13/16 12:35:31  5-MIN KAQV 131835Z AUTO 07007KT 060V120 10SM CLR 14/01 A3039 -50 41 -100 070/07 060V120 RMK AO2 T01390011
03949KAQV AQV20160213124010802/13/16 12:40:31  5-MIN KAQV 131840Z AUTO VRB05KT 10SM CLR 14/01 A3038 -40 41 -100 VRB/05 RMK AO2 T01390011
03949KAQV AQV20160214204511002/14/16 20:45:31  5-MIN KAQV 150245Z AUTO 16006KT 10SM FEW013 16/14 A2992 380 90 600 160/06 RMK AO2 T01560139
03949KAQV AQV20160214205012302/14/16 20:50:31  5-MIN KAQV 150250Z AUTO VRB05KT 10SM SCT013 16/14 A2992 370 90 600 VRB/05 RMK AO2 SLP132 T01560139 56020
03949KAQV AQV20160214205512302/14/16 20:55:31  5-MIN KAQV 150255Z AUTO VRB05KT 10SM SCT012 16/14 A2992 380 90 600 VRB/05 RMK AO2 SLP131 T01560139 56020
03949KAQV AQV20160214210011002/14/16 21:00:31  5-MIN KAQV 150300Z AUTO 17008KT 10SM BKN012 16/14 A2992 380 90 600 170/08 RMK AO2 T01560139
03949KAQV AQV20160214210511002/14/16 21:05:31  5-MIN KAQV 150305Z AUTO VRB06KT 10SM BKN011 16/14 A2992 380 90 600 VRB/06 RMK AO2 T01560139
03949KAQV AQV20160214211012602/14/16 21:10:31  5-MIN KAQV 150310Z AUTO 17007KT 140V210 10SM BKN011 16/14 A2992 380 90 600 160/07 140V210 RMK AO2 T01560139
03949KAQV AQV20160214211511002/14/16 21:15:31  5-MIN KAQV 150315Z AUTO VRB04KT 10SM BKN010 16/14 A2992 370 90 600 VRB/04 RMK AO2 T01560139
03949KAQV AQV20160214212011002/14/16 21:20:31  5-MIN KAQV 150320Z AUTO 17005KT 10SM BKN010 16/14 A2992 370 90 600 170/05 RMK AO2 T01560139
03949KAQV AQV20160214212511002/14/16 21:25:31  5-MIN KAQV 150325Z AUTO VRB06KT 10SM BKN010 16/14 A2992 370 90 600 VRB/06 RMK AO2 T01560139
03949KAQV AQV20160214213011002/14/16 21:30:31  5-MIN KAQV 150330Z AUTO VRB04KT 10SM OVC010 16/14 A2992 370 90 600 VRB/04 RMK AO2 T01560139
03949KAQV AQV20160214213511002/14/16 21:35:31  5-MIN KAQV 150335Z AUTO 16004KT 10SM OVC010 16/14 A2992 370 90 600 160/04 RMK AO2 T01560139
03949KAQV AQV20160214214011002/14/16 21:40:31  5-MIN KAQV 150340Z AUTO 16004KT 10SM OVC010 16/14 A2993 370 90 600 160/04 RMK AO2 T01560139
03949KAQV AQV20160214214511002/14/16 21:45:31  5-MIN KAQV 150345Z AUTO 16006KT 10SM OVC010 16/14 A2992 380 90 600 160/06 RMK AO2 T01560139
03949KAQV AQV20160214215011702/14/16 21:50:31  5-MIN KAQV 150350Z AUTO 17004KT 10SM OVC010 16/14 A2992 380 90 600 160/04 RMK AO2 SLP131 T01560139
03949KAQV AQV20160214215511702/14/16 21:55:31  5-MIN KAQV 150355Z AUTO 17006KT 10SM OVC010 16/14 A2992 380 90 600 160/06 RMK AO2 SLP131 T01560139
03949KAQV AQV20160214220011002/14/16 22:00:31  5-MIN KAQV 150400Z AUTO 16005KT 10SM OVC010 16/14 A2992 370 90 600 160/05 RMK AO2 T01560139
03949KAQV AQV20160214220511002/14/16 22:05:31  5-MIN KAQV 150405Z AUTO VRB04KT 10SM OVC010 16/14 A2992 370 90 600 VRB/04 RMK AO2 T01560139
03949KAQV AQV20160214221011002/14/16 22:10:31  5-MIN KAQV 150410Z AUTO VRB04KT 10SM OVC010 16/14 A2992 370 90 600 VRB/04 RMK AO2 T01560139
03949KAQV AQV20160214221511002/14/16 22:15:31  5-MIN KAQV 150415Z AUTO 16005KT 10SM OVC010 16/14 A2992 370 90 600 160/05 RMK AO2 T01560139
03949KAQV AQV20160214222011002/14/16 22:20:31  5-MIN KAQV 150420Z AUTO VRB04KT 10SM OVC010 16/14 A2993 370 90 600 VRB/04 RMK AO2 T01560139
03949KAQV AQV20160214222511002/14/16 22:25:31  5-MIN KAQV 150425Z AUTO 16005KT 10SM OVC010 16/14 A2993 360 90 600 160/05 RMK AO2 T01560139
03949KAQV AQV20160214223011002/14/16 22:30:31  5-MIN KAQV 150430Z AUTO 16005KT 10SM OVC010 16/14 A2994 360 90 600 160/05 RMK AO2 T01560139
03949KAQV AQV20160214223511002/14/16 22:35:31  5-MIN KAQV 150435Z AUTO 17006KT 10SM OVC010 16/14 A2993 360 90 600 170/06 RMK AO2 T01560139
03949KAQV AQV20160214224011002/14/16 22:40:31  5-MIN KAQV 150440Z AUTO 17006KT 10SM OVC010 16/14 A2993 360 90 600 160/06 RMK AO2 T01560139
03949KAQV AQV20160214224511002/14/16 22:45:31  5-MIN KAQV 150445Z AUTO VRB03KT 10SM OVC010 16/14 A2993 360 90 600 VRB/03 RMK AO2 T01560139
03949KAQV AQV20160214225011702/14/16 22:50:31  5-MIN KAQV 150450Z AUTO VRB04KT 10SM OVC010 16/14 A2994 360 93 600 VRB/04 RMK AO2 SLP137 T01560144
03949KAQV AQV20160214225511702/14/16 22:55:31  5-MIN KAQV 150455Z AUTO 17004KT 10SM OVC010 16/14 A2994 360 93 500 170/04 RMK AO2 SLP138 T01560144
03949KAQV AQV20160214230011002/14/16 23:00:31  5-MIN KAQV 150500Z AUTO VRB03KT 10SM OVC009 16/14 A2994 360 93 500 VRB/03 RMK AO2 T01560144
03949KAQV AQV20160214230511002/14/16 23:05:31  5-MIN KAQV 150505Z AUTO VRB04KT 10SM OVC009 16/14 A2994 360 93 500 VRB/04 RMK AO2 T01560144
03949KAQV AQV20160214231011002/14/16 23:10:31  5-MIN KAQV 150510Z AUTO VRB04KT 10SM OVC009 16/14 A2994 350 93 500 VRB/04 RMK AO2 T01560144
03949KAQV AQV20160214231511002/14/16 23:15:31  5-MIN KAQV 150515Z AUTO 17004KT 10SM OVC009 16/14 A2994 350 90 600 170/04 RMK AO2 T01610144
03949KAQV AQV20160214232011002/14/16 23:20:31  5-MIN KAQV 150520Z AUTO VRB04KT 10SM OVC009 16/14 A2994 350 90 600 VRB/04 RMK AO2 T01610144
03949KAQV AQV20160214232511002/14/16 23:25:31  5-MIN KAQV 150525Z AUTO VRB03KT 10SM OVC009 16/14 A2994 360 90 600 VRB/03 RMK AO2 T01610144
03949KAQV AQV20160214233010902/14/16 23:30:31  5-MIN KAQV 150530Z AUTO VRB04KT 9SM OVC009 16/14 A2994 360 93 500 VRB/04 RMK AO2 T01560144
03949KAQV AQV20160214233510902/14/16 23:35:31  5-MIN KAQV 150535Z AUTO VRB04KT 8SM OVC009 16/14 A2994 350 93 500 VRB/04 RMK AO2 T01560144
03949KAQV AQV20160214234010902/14/16 23:40:31  5-MIN KAQV 150540Z AUTO 17004KT 9SM OVC008 16/14 A2994 350 93 500 170/04 RMK AO2 T01560144
03949KAQV AQV20160214234511002/14/16 23:45:31  5-MIN KAQV 150545Z AUTO VRB05KT 10SM OVC008 16/14 A2994 350 93 500 VRB/05 RMK AO2 T01560144
03949KAQV AQV20160214235014502/14/16 23:50:31  5-MIN KAQV 150550Z AUTO 18004KT 10SM OVC008 16/14 A2994 360 93 500 170/04 RMK AO2 SLP139 T01560144 10172 20156 402000044 52002
03949KAQV AQV20160214235514502/14/16 23:55:31  5-MIN KAQV 150555Z AUTO VRB04KT 10SM OVC008 16/14 A2994 360 93 500 VRB/04 RMK AO2 SLP138 T01560144 10172 20156 402000044 52002
03949KAQV AQV20160215000011002/15/16 00:00:31  5-MIN KAQV 150600Z AUTO 17005KT 10SM OVC009 16/14 A2993 360 93 600 160/05 RMK AO2 T01560144
03949KAQV AQV20160215000511002/15/16 00:05:31  5-MIN KAQV 150605Z AUTO 17003KT 10SM OVC009 16/14 A2993 360 93 600 170/03 RMK AO2 T01560144
03949KAQV AQV20160215001011002/15/16 00:10:31  5-MIN KAQV 150610Z AUTO 16004KT 10SM OVC009 16/14 A2993 370 93 600 150/04 RMK AO2 T01560144
03949KAQV AQV20160215001511002/15/16 00:15:31  5-MIN KAQV 150615Z AUTO VRB04KT 10SM OVC008 16/14 A2993 370 93 600 VRB/04 RMK AO2 T01560144
03949KAQV AQV20160215002011002/15/16 00:20:31  5-MIN KAQV 150620Z AUTO VRB04KT 10SM OVC008 16/14 A2993 370 93 600 VRB/04 RMK AO2 T01560144
03949KAQV AQV20160215002511002/15/16 00:25:31  5-MIN KAQV 150625Z AUTO 17004KT 10SM OVC008 16/14 A2992 370 93 600 170/04 RMK AO2 T01560144
03949KAQV AQV20160215003011002/15/16 00:30:31  5-MIN KAQV 150630Z AUTO 17005KT 10SM OVC008 16/14 A2992 380 93 600 170/05 RMK AO2 T01560144
03949KAQV AQV20160215003511002/15/16 00:35:31  5-MIN KAQV 150635Z AUTO VRB04KT 10SM OVC008 16/14 A2991 380 93 600 VRB/04 RMK AO2 T01560144
03949KAQV AQV20160215004011002/15/16 00:40:31  5-MIN KAQV 150640Z AUTO VRB05KT 10SM OVC008 16/14 A2991 380 93 600 VRB/05 RMK AO2 T01560144
03949KAQV AQV20160215004511002/15/16 00:45:31  5-MIN KAQV 150645Z AUTO VRB06KT 10SM OVC008 16/14 A2991 380 93 600 VRB/06 RMK AO2 T01560144
03949KAQV AQV20160215005011702/15/16 00:50:31  5-MIN KAQV 150650Z AUTO 17005KT 10SM OVC007 16/14 A2991 390 93 600 170/05 RMK AO2 SLP128 T01560144
03949KAQV AQV20160215005511702/15/16 00:55:31  5-MIN KAQV 150655Z AUTO VRB05KT 10SM OVC007 16/14 A2991 390 93 600 VRB/05 RMK AO2 SLP127 T01560144
03949KAQV AQV20160215010011002/15/16 01:00:31  5-MIN KAQV 150700Z AUTO 17004KT 10SM OVC007 16/14 A2991 390 90 600 160/04 RMK AO2 T01610144
03949KAQV AQV20160215010511002/15/16 01:05:31  5-MIN KAQV 150705Z AUTO 17005KT 10SM OVC007 16/14 A2991 390 93 600 160/05 RMK AO2 T01560144
03949KAQV AQV20160215011011002/15/16 01:10:31  5-MIN KAQV 150710Z AUTO VRB03KT 10SM OVC007 16/14 A2991 390 90 700 VRB/03 RMK AO2 T01610144
03949KAQV AQV20160215011510002/15/16 01:15:31  5-MIN KAQV 150715Z AUTO 10SM OVC007 16/14 A2990 390 90 700 M /M RMK AO2 T01610144
03949KAQV AQV20160215012011002/15/16 01:20:31  5-MIN KAQV 150720Z AUTO VRB04KT 10SM OVC007 16/14 A2990 400 90 700 VRB/04 RMK AO2 T01610144
03949KAQV AQV20160215012511002/15/16 01:25:31  5-MIN KAQV 150725Z AUTO 16005KT 10SM OVC007 16/14 A2990 400 90 700 150/05 RMK AO2 T01610144
03949KAQV AQV20160215013011002/15/16 01:30:31  5-MIN KAQV 150730Z AUTO 16003KT 10SM OVC007 16/14 A2990 400 90 700 160/03 RMK AO2 T01610144
03949KAQV AQV20160215013511002/15/16 01:35:31  5-MIN KAQV 150735Z AUTO 17004KT 10SM OVC007 16/14 A2989 400 90 700 170/04 RMK AO2 T01610144
03949KAQV AQV20160215073514602/15/16 07:35:31  5-MIN KAQV 151335Z AUTO VRB05KT 5SM BR BKN006 OVC031 17/16 A2979 490 96 800 VRB/05 RMK AO2 RAB10E19 CIG 004V011 P0000 T01670161
03949KAQV AQV20160215074015302/15/16 07:40:31  5-MIN KAQV 151340Z AUTO 23005KT 5SM BR BKN006 BKN020 OVC031 17/16 A2979 500 96 800 220/05 RMK AO2 RAB10E19 CIG 004V012 P0000 T01670161
03949KAQV AQV20160215074515302/15/16 07:45:31  5-MIN KAQV 151345Z AUTO 25005KT 6SM BR BKN006 BKN019 OVC030 17/16 A2979 490 96 800 250/05 RMK AO2 RAB10E19 CIG 004V012 P0000 T01670161
03949KAQV AQV20160215075015302/15/16 07:50:31  5-MIN KAQV 151350Z AUTO VRB03KT 5SM BR BKN006 OVC018 17/16 A2979 500 96 800 VRB/03 RMK AO2 RAB10E19 CIG 004V012 SLP087 P0000 T01670161
03949KAQV AQV20160215075515302/15/16 07:55:31  5-MIN KAQV 151355Z AUTO 20003KT 6SM BR BKN008 OVC031 17/16 A2979 500 96 900 200/03 RMK AO2 RAB10E19 CIG 005V012 SLP086 P0000 T01670161
03949KAQV AQV20160215080013102/15/16 08:00:31  5-MIN KAQV 151400Z AUTO VRB03KT 6SM BR BKN008 OVC031 17/16 A2979 500 93 900 VRB/03 RMK AO2 CIG 005V012 T01720161
03949KAQV AQV20160215080511902/15/16 08:05:31  5-MIN KAQV 151405Z AUTO 24004KT 6SM BR BKN006 OVC011 17/16 A2979 500 93 900 240/04 RMK AO2 T01720161
03949KAQV AQV20160215081012402/15/16 08:10:31  5-MIN KAQV 151410Z AUTO VRB04KT 6SM BR OVC006 17/16 A2979 500 93 900 VRB/04 RMK AO2 CIG 004V010 T01720161
03949KAQV AQV20160215081512402/15/16 08:15:31  5-MIN KAQV 151415Z AUTO VRB05KT 6SM BR OVC006 17/16 A2979 490 93 900 VRB/05 RMK AO2 CIG 004V012 T01720161
03949KAQV AQV20160215082012102/15/16 08:20:31  5-MIN KAQV 151420Z AUTO VRB03KT 7SM OVC006 17/16 A2979 500 93 900 VRB/03 RMK AO2 CIG 004V012 T01720161
03949KAQV AQV20160215082512802/15/16 08:25:31  5-MIN KAQV 151425Z AUTO VRB05KT 8SM BKN007 OVC014 17/16 A2979 500 93 900 VRB/05 RMK AO2 CIG 004V010 T01720161
03949KAQV AQV20160215083012102/15/16 08:30:31  5-MIN KAQV 151430Z AUTO VRB05KT 8SM OVC007 17/16 A2979 500 93 900 VRB/05 RMK AO2 CIG 004V011 T01720161
03949KAQV AQV20160215083512802/15/16 08:35:31  5-MIN KAQV 151435Z AUTO 23004KT 9SM BKN009 OVC013 17/16 A2979 500 93 900 230/04 RMK AO2 CIG 004V009 T01720161
03949KAQV AQV20160215084012102/15/16 08:40:31  5-MIN KAQV 151440Z AUTO VRB05KT 9SM OVC009 17/17 A2979 500 96 900 VRB/05 RMK AO2 CIG 006V013 T01720167
03949KAQV AQV20160215084512302/15/16 08:45:31  5-MIN KAQV 151445Z AUTO VRB06KT 10SM OVC009 18/17 A2979 500 93 1000 VRB/06 RMK AO2 CIG 006V013 T01780167
03949KAQV AQV20160215085014202/15/16 08:50:31  5-MIN KAQV 151450Z AUTO VRB06KT 10SM OVC009 18/17 A2979 500 93 1000 VRB/06 RMK AO2 CIG 006V013 SLP086 60002 T01780167 56020
03949KAQV AQV20160215085514202/15/16 08:55:31  5-MIN KAQV 151455Z AUTO VRB06KT 10SM OVC009 18/17 A2979 500 93 1000 VRB/06 RMK AO2 CIG 006V013 SLP086 60002 T01780167 56020
03949KAQV AQV20160215090013602/15/16 09:00:31  5-MIN KAQV 151500Z AUTO VRB05G15KT 10SM BKN009 OVC016 18/17 A2979 500 93 1000 VRB/05G15 RMK AO2 CIG 006V013 T01780167
03949KAQV AQV20160215090515202/15/16 09:05:31  5-MIN KAQV 151505Z AUTO VRB04G15KT 10SM -RA BKN009 OVC012 18/17 A2979 500 93 1000 VRB/04G15 RMK AO2 RAB03 CIG 006V010 P0000 T01780167
03949KAQV AQV20160215091013402/15/16 09:10:31  5-MIN KAQV 151510Z AUTO 22005KT 10SM -RA SCT007 OVC011 18/17 A2979 500 90 1000 210/05 RMK AO2 RAB03 P0000 T01830167
03949KAQV AQV20160215091514202/15/16 09:15:31  5-MIN KAQV 151515Z AUTO 24007KT 180V290 10SM OVC011 18/17 A2979 500 90 1000 240/07 180V290 RMK AO2 RAB03E12 P0000 T01830167
03949KAQV AQV20160215092012602/15/16 09:20:31  5-MIN KAQV 151520Z AUTO 24008KT 10SM OVC011 18/17 A2979 490 90 1000 230/08 RMK AO2 RAB03E12 P0000 T01830167
03949KAQV AQV20160215092514202/15/16 09:25:31  5-MIN KAQV 151525Z AUTO 23008KT 180V270 10SM OVC011 18/17 A2979 500 90 1000 230/08 180V270 RMK AO2 RAB03E12 P0000 T01830167
03949KAQV AQV20160215093014902/15/16 09:30:31  5-MIN KAQV 151530Z AUTO 24008KT 210V280 10SM BKN011 OVC021 18/17 A2979 500 90 1000 240/08 210V280 RMK AO2 RAB03E12 P0000 T01830167
03949KAQV AQV20160215093514002/15/16 09:35:31  5-MIN KAQV 151535Z AUTO VRB04KT 10SM BKN011 BKN020 OVC026 19/17 A2978 500 90 1100 VRB/04 RMK AO2 RAB03E12 P0000 T01890172
03949KAQV AQV20160215094014002/15/16 09:40:31  5-MIN KAQV 151540Z AUTO VRB06KT 10SM BKN011 BKN018 OVC047 19/17 A2978 510 90 1100 VRB/06 RMK AO2 RAB03E12 P0000 T01890172
03949KAQV AQV20160215094514602/15/16 09:45:31  5-MIN KAQV 151545Z AUTO VRB06G15KT 10SM SCT012 BKN021 BKN035 19/17 A2977 510 84 1200 VRB/06G15 RMK AO2 RAB03E12 P0000 T01940167
03949KAQV AQV20160215095015202/15/16 09:50:31  5-MIN KAQV 151550Z AUTO 24008G15KT 210V280 10SM SCT012 BKN019 BKN030 19/17 A2977 520 84 1200 240/08G15 210V280 RMK AO2 RAB03E12 P0000
03949KAQV AQV20160215095516302/15/16 09:55:31  5-MIN KAQV 151555Z AUTO 24007KT 200V270 10SM SCT014 BKN022 BKN046 20/17 A2977 520 84 1300 240/07 200V270 RMK AO2 RAB03E12 SLP078 P0000 T02000172
03949KAQV AQV20160215100012502/15/16 10:00:31  5-MIN KAQV 151600Z AUTO VRB04KT 10SM SCT014 BKN018 BKN029 20/17 A2977 520 81 1300 VRB/04 RMK AO2 T02000167
03949KAQV AQV20160215100514702/15/16 10:05:31  5-MIN KAQV 151605Z AUTO 24012G19KT 200V270 10SM SCT014 BKN022 BKN029 20/17 A2977 520 81 1300 240/12G19 200V270 RMK AO2 T02000167
03949KAQV AQV20160215101012402/15/16 10:10:31  5-MIN KAQV 151610Z AUTO 23009G19KT 10SM SCT014 BKN023 19/17 A2977 520 84 1200 220/09G19 RMK AO2 T01940167
03949KAQV AQV20160215101512402/15/16 10:15:31  5-MIN KAQV 151615Z AUTO 25009G17KT 10SM BKN016 OVC023 19/16 A2977 520 81 1200 250/09G17 RMK AO2 T01940161
03949KAQV AQV20160215102012402/15/16 10:20:31  5-MIN KAQV 151620Z AUTO 27007G17KT 10SM BKN016 OVC025 20/17 A2977 510 81 1300 260/07G17 RMK AO2 T02000167
03949KAQV AQV20160215102511802/15/16 10:25:31  5-MIN KAQV 151625Z AUTO 24006KT 10SM BKN016 OVC025 19/17 A2977 510 84 1200 240/06 RMK AO2 T01940167
03949KAQV AQV20160215103013402/15/16 10:30:31  5-MIN KAQV 151630Z AUTO 25007KT 200V300 10SM BKN015 OVC023 19/17 A2978 510 84 1200 240/07 200V300 RMK AO2 T01940167
03949KAQV AQV20160215103512502/15/16 10:35:31  5-MIN KAQV 151635Z AUTO 27007KT 10SM BKN017 BKN023 OVC029 20/17 A2977 510 81 1300 260/07 RMK AO2 T02000167
03949KAQV AQV20160215104012502/15/16 10:40:31  5-MIN KAQV 151640Z AUTO VRB06KT 10SM BKN017 BKN023 OVC045 20/17 A2977 510 81 1300 VRB/06 RMK AO2 T02000167
03949KAQV AQV20160215104512502/15/16 10:45:31  5-MIN KAQV 151645Z AUTO VRB06KT 10SM SCT017 BKN022 OVC027 20/17 A2977 510 81 1300 VRB/06 RMK AO2 T02000167
03949KAQV AQV20160215105014102/15/16 10:50:31  5-MIN KAQV 151650Z AUTO 25008KT 190V280 10SM BKN019 OVC026 21/17 A2977 520 78 1300 240/08 190V280 RMK AO2 SLP078 T02060167
03949KAQV AQV20160215105513202/15/16 10:55:31  5-MIN KAQV 151655Z AUTO VRB04KT 10SM BKN021 BKN025 OVC043 21/17 A2976 520 75 1400 VRB/04 RMK AO2 SLP076 T02110167
03949KAQV AQV20160215110013402/15/16 11:00:31  5-MIN KAQV 151700Z AUTO 24009G16KT 10SM TS BKN022 BKN030 OVC043 21/16 A2976 530 73 1400 230/09G16 RMK AO2 T02110161
03949KAQV AQV20160215110513402/15/16 11:05:31  5-MIN KAQV 151705Z AUTO VRB06G17KT 10SM TS SCT022 BKN027 BKN032 21/16 A2976 530 75 1300 VRB/06G17 RMK AO2 T02060161
03949KAQV AQV20160215111014302/15/16 11:10:31  5-MIN KAQV 151710Z AUTO 25008G20KT 200V300 10SM TS BKN022 BKN029 21/16 A2976 530 73 1300 240/08G20 200V300 RMK AO2 T02060156
03949KAQV AQV20160215111514302/15/16 11:15:31  5-MIN KAQV 151715Z AUTO 25008G20KT 210V280 10SM TS SCT023 SCT029 21/16 A2976 530 73 1400 250/08G20 210V280 RMK AO2 T02110161
03949KAQV AQV20160215112014302/15/16 11:20:31  5-MIN KAQV 151720Z AUTO 25007G21KT 170V300 10SM TS SCT025 BKN029 22/16 A2976 530 68 1500 240/07G21 170V300 RMK AO2 T02220161
03949KAQV AQV20160215112515002/15/16 11:25:31  5-MIN KAQV 151725Z AUTO 26011G21KT 230V290 10SM TS BKN025 BKN030 BKN035 22/16 A2976 530 70 1500 260/11G21 230V290 RMK AO2 T02170161
03949KAQV AQV20160215113014802/15/16 11:30:31  5-MIN KAQV 151730Z AUTO 25013G24KT 5SM -TSRA FEW023 BKN030 BKN060 21/16 A2976 530 70 1400 250/13G24 RMK AO2 RAB29 P0002 T02110156
03949KAQV AQV20160215113514702/15/16 11:35:31  5-MIN KAQV 151735Z AUTO 26011G24KT 3SM TSRA SCT027 SCT036 BKN047 19/16 A2976 520 81 1200 250/11G24 RMK AO2 RAB29 P0003 T01940161
03949KAQV AQV20160215114016602/15/16 11:40:31  5-MIN KAQV 151740Z AUTO 26007G20KT 240V300 4SM TSRA BR FEW023 BKN045 OVC085 18/16 A2976 530 87 1100 260/07G20 240V300 RMK AO2 RAB29 P0004 T01830161
03949KAQV AQV20160215114516702/15/16 11:45:31  5-MIN KAQV 151745Z AUTO 29012G20KT 250V350 6SM -TSRA BR FEW022 BKN031 OVC070 18/16 A2976 530 87 1100 290/12G20 250V350 RMK AO2 RAB29 P0005 T01830161
03949KAQV AQV20160215115019802/15/16 11:50:31  5-MIN KAQV 151750Z AUTO 27009G21KT 220V300 6SM -TSRA BR SCT022 BKN031 OVC070 18/16 A2977 520 87 1100 260/09G21 220V300 RMK AO2 RAB29 SLP078 P0006 60008 T01830161 10222 20167 55001
03949KAQV AQV20160215115520002/15/16 11:55:31  5-MIN KAQV 151755Z AUTO 29008G21KT 250V340 6SM -TSRA BR SCT020 BKN036 OVC070 18/16 A2977 510 90 1000 290/08G21 250V340 RMK AO2 RAB29 SLP081 P0006 60008 T01780161 10222 20167 55001 $
03949KAQV AQV20160215120018402/15/16 12:00:31  5-MIN KAQV 151800Z AUTO 33016G30KT 280V360 9SM -TSRA SCT020 BKN036 OVC070 17/15 A2979 500 87 900 330/16G30 280V360 RMK AO2 PK WND 36030/1800 PRESRR P0000 T01720150 $
03949KAQV AQV20160215120517702/15/16 12:05:31  5-MIN KAQV 151805Z AUTO 32009G30KT 280V350 7SM -TSRA SCT018 BKN032 OVC049 14/12 A2980 490 86 600 320/09G30 280V350 RMK AO2 PK WND 36030/1800 P0002 T01440122 $
03949KAQV AQV20160215121017302/15/16 12:10:31  5-MIN KAQV 151810Z AUTO 36012G23KT 7SM -TSRA BKN018 BKN032 OVC049 14/12 A2980 490 90 500 360/12G23 RMK AO2 PK WND 36030/1800 CIG 011V024 P0002 T01390122 $
03949KAQV AQV20160215121516902/15/16 12:15:31  5-MIN KAQV 151815Z AUTO 36008G20KT 10SM -TSRA BKN016 BKN026 OVC044 14/12 A2981 480 90 500 350/08G20 RMK AO2 PK WND 36030/1800 PRESRR P0002 T01390122 $
03949KAQV AQV20160215122017402/15/16 12:20:31  5-MIN KAQV 151820Z AUTO 36007G16KT 10SM -TSRA BKN014 BKN039 OVC075 13/12 A2981 480 93 400 360/07G16 RMK AO2 PK WND 36030/1800 CIG 009V023 P0002 T01330122 $
03949KAQV AQV20160215122516202/15/16 12:25:31  5-MIN KAQV 151825Z AUTO 36009G17KT 10SM -TSRA SCT010 BKN016 OVC075 13/12 A2980 490 93 400 350/09G17 RMK AO2 PK WND 36030/1800 P0002 T01330122 $
03949KAQV AQV20160215123018102/15/16 12:30:31  5-MIN KAQV 151830Z AUTO 36008G17KT 320V020 10SM TS BKN012 BKN016 OVC047 13/12 A2981 480 93 400 350/08G17 320V020 RMK AO2 PK WND 36030/1800 RAE29 P0002 T01330122 $
03949KAQV AQV20160215123515502/15/16 12:35:31  5-MIN KAQV 151835Z AUTO VRB06KT 10SM BKN010 OVC016 14/13 A2981 470 93 500 VRB/06 RMK AO2 PK WND 36030/1800 RAE29 TSE31 P0002 T01390128 $
03949KAQV AQV20160215124007202/15/16 12:40:31  5-MIN KAQV 151840Z AUTO 36010G15KT 10SM OVC010 14/13 
03949KAQV AQV20160216162512402/16/16 16:25:31  5-MIN KAQV 162225Z AUTO 27007KT 200V320 10SM CLR 24/03 A2988 420 25 1600 270/07 200V320 RMK AO2 T02440033
03949KAQV AQV20160216163010802/16/16 16:30:31  5-MIN KAQV 162230Z AUTO VRB05KT 10SM CLR 24/03 A2988 410 25 1600 VRB/05 RMK AO2 T02440033
03949KAQV AQV20160216163510802/16/16 16:35:31  5-MIN KAQV 162235Z AUTO VRB03KT 10SM CLR 24/04 A2988 410 26 1600 VRB/03 RMK AO2 T02440039
03949KAQV AQV20160216164010802/16/16 16:40:31  5-MIN KAQV 162240Z AUTO VRB06KT 10SM CLR 24/04 A2988 410 26 1600 VRB/06 RMK AO2 T02440039
03949KAQV AQV20160216164510802/16/16 16:45:31  5-MIN KAQV 162245Z AUTO VRB05KT 10SM CLR 24/04 A2988 410 27 1600 VRB/05 RMK AO2 T02390039
03949KAQV AQV20160216165012102/16/16 16:50:31  5-MIN KAQV 162250Z AUTO 28009G16KT 10SM CLR 24/04 A2988 410 27 1600 280/09G16 RMK AO2 SLP119 T02390039
03949KAQV AQV20160216165512102/16/16 16:55:31  5-MIN KAQV 162255Z AUTO VRB06G17KT 10SM CLR 24/04 A2989 410 27 1600 VRB/06G17 RMK AO2 SLP119 T02390039
03949KAQV AQV20160216170011402/16/16 17:00:31  5-MIN KAQV 162300Z AUTO 27007G17KT 10SM CLR 24/04 A2989 410 28 1600 270/07G17 RMK AO2 T02390044
03949KAQV AQV20160216170510802/16/16 17:05:31  5-MIN KAQV 162305Z AUTO 28003KT 10SM CLR 23/04 A2989 410 29 1500 270/03 RMK AO2 T02330044
03949KAQV AQV20160216171009802/16/16 17:10:31  5-MIN KAQV 162310Z AUTO 10SM CLR 23/04 A2989 400 29 1500 M /M RMK AO2 T02330044
03949KAQV AQV20160216171510802/16/16 17:15:31  5-MIN KAQV 162315Z AUTO VRB05KT 10SM CLR 23/04 A2989 400 29 1500 VRB/05 RMK AO2 T02330044
03949KAQV AQV20160216172010802/16/16 17:20:31  5-MIN KAQV 162320Z AUTO VRB06KT 10SM CLR 23/04 A2989 400 29 1500 VRB/06 RMK AO2 T02330044
03949KAQV AQV20160216172510802/16/16 17:25:31  5-MIN KAQV 162325Z AUTO VRB04KT 10SM CLR 23/04 A2989 400 30 1400 VRB/04 RMK AO2 T02280044
03949KAQV AQV20160216173010802/16/16 17:30:31  5-MIN KAQV 162330Z AUTO 27003KT 10SM CLR 23/04 A2989 400 30 1400 270/03 RMK AO2 T02280044
03949KAQV AQV20160216173510802/16/16 17:35:31  5-MIN KAQV 162335Z AUTO 00000KT 10SM CLR 23/05 A2990 400 31 1400 000/00 RMK AO2 T02280050
03949KAQV AQV20160216174010802/16/16 17:40:31  5-MIN KAQV 162340Z AUTO VRB03KT 10SM CLR 22/05 A2990 400 32 1400 VRB/03 RMK AO2 T02220050
03949KAQV AQV20160216174510802/16/16 17:45:31  5-MIN KAQV 162345Z AUTO 29003KT 10SM CLR 22/05 A2990 400 33 1300 280/03 RMK AO2 T02170050
03949KAQV AQV20160216175013302/16/16 17:50:31  5-MIN KAQV 162350Z AUTO 27003KT 10SM CLR 22/05 A2990 390 33 1300 270/03 RMK AO2 SLP125 T02170050 10250 20211 56019
03949KAQV AQV20160216175513302/16/16 17:55:31  5-MIN KAQV 162355Z AUTO VRB03KT 10SM CLR 22/05 A2990 390 33 1300 VRB/03 RMK AO2 SLP124 T02170050 10250 20211 56019
03949KAQV AQV20160216180010802/16/16 18:00:31  5-MIN KAQV 170000Z AUTO 00000KT 10SM CLR 22/05 A2990 390 33 1300 000/00 RMK AO2 T02170050
03949KAQV AQV20160216180510802/16/16 18:05:31  5-MIN KAQV 170005Z AUTO 00000KT 10SM CLR 21/05 A2990 390 34 1200 000/00 RMK AO2 T02110050
03949KAQV AQV20160216181010802/16/16 18:10:31  5-MIN KAQV 170010Z AUTO 00000KT 10SM CLR 21/06 A2991 390 37 1200 000/00 RMK AO2 T02060056
03949KAQV AQV20160216181510802/16/16 18:15:31  5-MIN KAQV 170015Z AUTO 00000KT 10SM CLR 19/06 A2991 390 40 1000 000/00 RMK AO2 T01940056
03949KAQV AQV20160216182010802/16/16 18:20:31  5-MIN KAQV 170020Z AUTO VRB03KT 10SM CLR 19/06 A2991 380 41 1000 VRB/03 RMK AO2 T01940061
03949KAQV AQV20160216182510802/16/16 18:25:31  5-MIN KAQV 170025Z AUTO VRB03KT 10SM CLR 20/06 A2992 380 38 1100 VRB/03 RMK AO2 T02000056
03949KAQV AQV20160216183010802/16/16 18:30:31  5-MIN KAQV 170030Z AUTO 00000KT 10SM CLR 20/05 A2992 380 37 1100 000/00 RMK AO2 T02000050
03949KAQV AQV20160216183510802/16/16 18:35:31  5-MIN KAQV 170035Z AUTO 00000KT 10SM CLR 20/05 A2992 380 37 1100 000/00 RMK AO2 T02000050
03949KAQV AQV20160216184010802/16/16 18:40:31  5-MIN KAQV 170040Z AUTO VRB03KT 10SM CLR 20/04 A2992 380 35 1100 VRB/03 RMK AO2 T02000044
03949KAQV AQV20160216184510802/16/16 18:45:31  5-MIN KAQV 170045Z AUTO 00000KT 10SM CLR 19/04 A2992 380 37 1000 000/00 RMK AO2 T01940044
03949KAQV AQV20160216185011502/16/16 18:50:31  5-MIN KAQV 170050Z AUTO 00000KT 10SM CLR 19/04 A2992 380 37 1000 000/00 RMK AO2 SLP132 T01940044
03949KAQV AQV20160216185511402/16/16 18:55:31  5-MIN KAQV 170055Z AUTO 00000KT 10SM CLR 18/05 A2992 370 41 900 000/00 RMK AO2 SLP133 T01830050
03949KAQV AQV20160216190010702/16/16 19:00:31  5-MIN KAQV 170100Z AUTO 00000KT 10SM CLR 18/05 A2993 370 42 800 000/00 RMK AO2 T01780050
03949KAQV AQV20160216190510702/16/16 19:05:31  5-MIN KAQV 170105Z AUTO 00000KT 10SM CLR 18/05 A2993 370 42 800 000/00 RMK AO2 T01780050
03949KAQV AQV20160216191010702/16/16 19:10:31  5-MIN KAQV 170110Z AUTO 00000KT 10SM CLR 17/04 A2993 370 42 800 000/00 RMK AO2 T01720044
03949KAQV AQV20160216191510702/16/16 19:15:31  5-MIN KAQV 170115Z AUTO 00000KT 10SM CLR 17/05 A2994 360 45 700 000/00 RMK AO2 T01670050
03949KAQV AQV20160216192010702/16/16 19:20:31  5-MIN KAQV 170120Z AUTO 00000KT 10SM CLR 16/05 A2994 360 47 600 000/00 RMK AO2 T01610050
03949KAQV AQV20160216192510702/16/16 19:25:31  5-MIN KAQV 170125Z AUTO 00000KT 10SM CLR 16/06 A2994 350 51 500 000/00 RMK AO2 T01560056
03949KAQV AQV20160216193010702/16/16 19:30:31  5-MIN KAQV 170130Z AUTO 36005KT 10SM CLR 16/06 A2995 350 51 500 360/05 RMK AO2 T01560056
03949KAQV AQV20160216193510702/16/16 19:35:31  5-MIN KAQV 170135Z AUTO 36006KT 10SM CLR 17/05 A2995 350 45 700 360/06 RMK AO2 T01670050
03949KAQV AQV20160216194010702/16/16 19:40:31  5-MIN KAQV 170140Z AUTO 36005KT 10SM CLR 17/04 A2996 340 42 700 360/05 RMK AO2 T01720044
03949KAQV AQV20160216194510702/16/16 19:45:31  5-MIN KAQV 170145Z AUTO 36005KT 10SM CLR 17/04 A2996 340 42 700 350/05 RMK AO2 T01720044
03949KAQV AQV20160216195011402/16/16 19:50:31  5-MIN KAQV 170150Z AUTO 36005KT 10SM CLR 17/04 A2996 340 44 600 360/05 RMK AO2 SLP146 T01670044
03949KAQV AQV20160216195511402/16/16 19:55:31  5-MIN KAQV 170155Z AUTO 36005KT 10SM CLR 17/04 A2997 330 44 600 360/05 RMK AO2 SLP147 T01670044
03949KAQV AQV20160216200010702/16/16 20:00:31  5-MIN KAQV 170200Z AUTO 36004KT 10SM CLR 17/04 A2997 330 42 600 350/04 RMK AO2 T01670039
03949KAQV AQV20160216200510702/16/16 20:05:31  5-MIN KAQV 170205Z AUTO VRB05KT 10SM CLR 17/04 A2998 320 42 600 VRB/05 RMK AO2 T01670039
03949KAQV AQV20160216201010702/16/16 20:10:31  5-MIN KAQV 170210Z AUTO 35004KT 10SM CLR 16/04 A2998 320 45 600 350/04 RMK AO2 T01610044
03949KAQV AQV20160216201510702/16/16 20:15:31  5-MIN KAQV 170215Z AUTO 36006KT 10SM CLR 16/04 A2999 320 44 600 360/06 RMK AO2 T01610039
03949KAQV AQV20160216202010702/16/16 20:20:31  5-MIN KAQV 170220Z AUTO 01007KT 10SM CLR 17/03 A2999 310 40 600 360/07 RMK AO2 T01670033
03949KAQV AQV20160216202510702/16/16 20:25:31  5-MIN KAQV 170225Z AUTO 36006KT 10SM CLR 17/03 A2999 310 40 600 360/06 RMK AO2 T01670033
03949KAQV AQV20160216203010702/16/16 20:30:31  5-MIN KAQV 170230Z AUTO 36005KT 10SM CLR 16/03 A2999 310 42 600 350/05 RMK AO2 T01610033
03949KAQV AQV20160216203510702/16/16 20:35:31  5-MIN KAQV 170235Z AUTO 36004KT 10SM CLR 16/03 A2999 310 42 600 360/04 RMK AO2 T01610033
03949KAQV AQV20160216204010702/16/16 20:40:31  5-MIN KAQV 170240Z AUTO 36004KT 10SM CLR 16/03 A3000 310 42 500 360/04 RMK AO2 T01560028
03949KAQV AQV20160216204510702/16/16 20:45:31  5-MIN KAQV 170245Z AUTO 36004KT 10SM CLR 15/03 A3000 300 45 400 360/04 RMK AO2 T01500033
03949KAQV AQV20160216205012002/16/16 20:50:31  5-MIN KAQV 170250Z AUTO 36004KT 10SM CLR 15/03 A3000 300 45 400 360/04 RMK AO2 SLP160 T01500033 53011
03949KAQV AQV20160216205512002/16/16 20:55:31  5-MIN KAQV 170255Z AUTO 36004KT 10SM CLR 15/03 A3001 300 45 400 360/04 RMK AO2 SLP160 T01500033 53011
03949KAQV AQV20160216210010702/16/16 21:00:31  5-MIN KAQV 170300Z AUTO 36004KT 10SM CLR 14/04 A3001 300 49 300 360/04 RMK AO2 T01440039
03949KAQV AQV20160216210510702/16/16 21:05:31  5-MIN KAQV 170305Z AUTO 36004KT 10SM CLR 14/04 A3001 300 49 300 360/04 RMK AO2 T01440039
03949KAQV AQV20160216211010702/16/16 21:10:31  5-MIN KAQV 170310Z AUTO 36004KT 10SM CLR 14/04 A3000 300 49 300 350/04 RMK AO2 T01440039
03949KAQV AQV20160216211510702/16/16 21:15:31  5-MIN KAQV 170315Z AUTO 36003KT 10SM CLR 14/04 A3001 300 52 300 350/03 RMK AO2 T01390044
03949KAQV AQV20160216212010702/16/16 21:20:31  5-MIN KAQV 170320Z AUTO 35004KT 10SM CLR 13/04 A3001 290 54 200 350/04 RMK AO2 T01330044
03949KAQV AQV20160216212510702/16/16 21:25:31  5-MIN KAQV 170325Z AUTO 35003KT 10SM CLR 12/06 A3001 290 63 100 350/03 RMK AO2 T01220056
03949KAQV AQV20160216213010702/16/16 21:30:31  5-MIN KAQV 170330Z AUTO 00000KT 10SM CLR 12/06 A3001 290 63 100 000/00 RMK AO2 T01220056
03949KAQV AQV20160216213510502/16/16 21:35:31  5-MIN KAQV 170335Z AUTO 34003KT 10SM CLR 12/06 A3002 290 68 0 340/03 RMK AO2 T01170061
03949KAQV AQV20160216214010502/16/16 21:40:31  5-MIN KAQV 170340Z AUTO 00000KT 10SM CLR 12/06 A3002 280 66 0 000/00 RMK AO2 T01170056
03949KAQV AQV20160216214510502/16/16 21:45:31  5-MIN KAQV 170345Z AUTO 00000KT 10SM CLR 12/06 A3002 280 66 0 000/00 RMK AO2 T01170056
03949KAQV AQV20160216215011202/16/16 21:50:31  5-MIN KAQV 170350Z AUTO 00000KT 10SM CLR 12/05 A3002 280 63 0 000/00 RMK AO2 SLP165 T01170050
03949KAQV AQV20160216215511202/16/16 21:55:31  5-MIN KAQV 170355Z AUTO 00000KT 10SM CLR 12/05 A3002 280 63 0 000/00 RMK AO2 SLP165 T01170050
03949KAQV AQV20160216220010502/16/16 22:00:31  5-MIN KAQV 170400Z AUTO 00000KT 10SM CLR 11/06 A3002 280 68 0 000/00 RMK AO2 T01110056
03949KAQV AQV20160216220510502/16/16 22:05:31  5-MIN KAQV 170405Z AUTO 00000KT 10SM CLR 11/05 A3002 280 66 0 000/00 RMK AO2 T01110050
03949KAQV AQV20160216221010502/16/16 22:10:31  5-MIN KAQV 170410Z AUTO 00000KT 10SM CLR 11/04 A3002 280 63 0 000/00 RMK AO2 T01110044
03949KAQV AQV20160216221510502/16/16 22:15:31  5-MIN KAQV 170415Z AUTO 00000KT 10SM CLR 12/03 A3003 280 56 0 000/00 RMK AO2 T01170033
03949KAQV AQV20160216222010502/16/16 22:20:31  5-MIN KAQV 170420Z AUTO 00000KT 10SM CLR 11/04 A3003 270 61 0 000/00 RMK AO2 T01110039
03949KAQV AQV20160216222510802/16/16 22:25:31  5-MIN KAQV 170425Z AUTO 35003KT 10SM CLR 10/06 A3003 270 74 -200 340/03 RMK AO2 T01000056
03949KAQV AQV20160216223010802/16/16 22:30:31  5-MIN KAQV 170430Z AUTO 35003KT 10SM CLR 10/04 A3004 270 68 -200 350/03 RMK AO2 T01000044
03949KAQV AQV20160216223510802/16/16 22:35:31  5-MIN KAQV 170435Z AUTO 35004KT 10SM CLR 11/04 A3004 270 63 -100 350/04 RMK AO2 T01060039
03949KAQV AQV20160216224010502/16/16 22:40:31  5-MIN KAQV 170440Z AUTO 36005KT 10SM CLR 11/04 A3004 270 61 0 350/05 RMK AO2 T01110039
03949KAQV AQV20160216224510502/16/16 22:45:31  5-MIN KAQV 170445Z AUTO 36004KT 10SM CLR 11/03 A3004 270 58 0 350/04 RMK AO2 T01110033
03949KAQV AQV20160216225011202/16/16 22:50:31  5-MIN KAQV 170450Z AUTO 36004KT 10SM CLR 11/04 A3004 270 61 0 350/04 RMK AO2 SLP172 T01110039
03949KAQV AQV20160216225511502/16/16 22:55:31  5-MIN KAQV 170455Z AUTO 36003KT 10SM CLR 11/04 A3004 270 63 -100 350/03 RMK AO2 SLP172 T01060039
03949KAQV AQV20160216230010802/16/16 23:00:31  5-MIN KAQV 170500Z AUTO 00000KT 10SM CLR 11/04 A3004 260 63 -100 000/00 RMK AO2 T01060039
03949KAQV AQV20160216230510802/16/16 23:05:31  5-MIN KAQV 170505Z AUTO 35003KT 10SM CLR 11/04 A3004 260 63 -100 350/03 RMK AO2 T01060039
03949KAQV AQV20160216231010802/16/16 23:10:31  5-MIN KAQV 170510Z AUTO 00000KT 10SM CLR 11/03 A3005 260 56 -100 000/00 RMK AO2 T01110028
03949KAQV AQV20160216231510802/16/16 23:15:31  5-MIN KAQV 170515Z AUTO 35003KT 10SM CLR 11/03 A3005 260 61 -100 340/03 RMK AO2 T01060033
03949KAQV AQV20160216232010802/16/16 23:20:31  5-MIN KAQV 170520Z AUTO 35003KT 10SM CLR 11/03 A3005 260 61 -100 350/03 RMK AO2 T01060033
03949KAQV AQV20160216232510802/16/16 23:25:31  5-MIN KAQV 170525Z AUTO 36003KT 10SM CLR 11/03 A3005 260 61 -100 350/03 RMK AO2 T01060033
03949KAQV AQV20160216233010802/16/16 23:30:31  5-MIN KAQV 170530Z AUTO 36004KT 10SM CLR 10/04 A3005 250 65 -200 350/04 RMK AO2 T01000039
03949KAQV AQV20160216233510802/16/16 23:35:31  5-MIN KAQV 170535Z AUTO 36004KT 10SM CLR 10/04 A3005 250 65 -200 350/04 RMK AO2 T01000039
03949KAQV AQV20160216234010802/16/16 23:40:31  5-MIN KAQV 170540Z AUTO VRB05KT 10SM CLR 10/04 A3006 250 65 -200 VRB/05 RMK AO2 T01000039
03949KAQV AQV20160216234510802/16/16 23:45:31  5-MIN KAQV 170545Z AUTO 36004KT 10SM CLR 10/03 A3006 250 63 -200 350/04 RMK AO2 T01000033
03949KAQV AQV20160216235014302/16/16 23:50:31  5-MIN KAQV 170550Z AUTO 35004KT 10SM CLR 09/04 A3006 250 68 -300 350/04 RMK AO2 SLP179 T00940039 10217 20094 402500033 53035
03949KAQV AQV20160216235514302/16/16 23:55:31  5-MIN KAQV 170555Z AUTO 36004KT 10SM CLR 09/03 A3006 240 65 -300 360/04 RMK AO2 SLP179 T00940033 10217 20094 402500033 53035
03949KAQV AQV20160217000010802/17/16 00:00:31  5-MIN KAQV 170600Z AUTO 36004KT 10SM CLR 09/03 A3007 240 65 -300 360/04 RMK AO2 T00940033
03949KAQV AQV20160217000510802/17/16 00:05:31  5-MIN KAQV 170605Z AUTO 35003KT 10SM CLR 09/03 A3007 240 65 -300 350/03 RMK AO2 T00940033
03949KAQV AQV20160217001010802/17/16 00:10:31  5-MIN KAQV 170610Z AUTO 36004KT 10SM CLR 10/03 A3007 240 60 -200 360/04 RMK AO2 T01000028
03949KAQV AQV20160217001510802/17/16 00:15:31  5-MIN KAQV 170615Z AUTO 36004KT 10SM CLR 09/03 A3007 240 65 -300 350/04 RMK AO2 T00940033
03949KAQV AQV20160217002010802/17/16 00:20:31  5-MIN KAQV 170620Z AUTO 36004KT 10SM CLR 09/03 A3008 230 65 -300 360/04 RMK AO2 T00940033
03949KAQV AQV20160217002510802/17/16 00:25:31  5-MIN KAQV 170625Z AUTO 36005KT 10SM CLR 09/03 A3008 230 65 -300 350/05 RMK AO2 T00940033
03949KAQV AQV20160217003010802/17/16 00:30:31  5-MIN KAQV 170630Z AUTO 36005KT 10SM CLR 10/02 A3008 230 58 -200 360/05 RMK AO2 T01000022
03949KAQV AQV20160217003510802/17/16 00:35:31  5-MIN KAQV 170635Z AUTO 35004KT 10SM CLR 10/02 A3008 230 58 -200 350/04 RMK AO2 T01000022
03949KAQV AQV20160217004010802/17/16 00:40:31  5-MIN KAQV 170640Z AUTO 36004KT 10SM CLR 10/02 A3009 220 56 -200 360/04 RMK AO2 T01000017
03949KAQV AQV20160217004510802/17/16 00:45:31  5-MIN KAQV 170645Z AUTO 36005KT 10SM CLR 10/02 A3009 220 56 -200 360/05 RMK AO2 T01000017
03949KAQV AQV20160217005011502/17/16 00:50:31  5-MIN KAQV 170650Z AUTO 36005KT 10SM CLR 10/01 A3009 220 54 -200 360/05 RMK AO2 SLP190 T01000011
03949KAQV AQV20160217005511502/17/16 00:55:31  5-MIN KAQV 170655Z AUTO 36005KT 10SM CLR 10/01 A3009 220 54 -200 360/05 RMK AO2 SLP189 T01000011
03949KAQV AQV20160217010010802/17/16 01:00:31  5-MIN KAQV 170700Z AUTO 36005KT 10SM CLR 11/01 A3009 220 50 -200 360/05 RMK AO2 T01060006
03949KAQV AQV20160217010510802/17/16 01:05:31  5-MIN KAQV 170705Z AUTO 36006KT 10SM CLR 11/01 A3010 210 50 -200 360/06 RMK AO2 T01060006
03949KAQV AQV20160217011010802/17/16 01:10:31  5-MIN KAQV 170710Z AUTO 36005KT 10SM CLR 11/01 A3010 210 50 -200 360/05 RMK AO2 T01060006
03949KAQV AQV20160217011510802/17/16 01:15:31  5-MIN KAQV 170715Z AUTO VRB05KT 10SM CLR 11/00 A3011 210 46 -100 VRB/05 RMK AO2 T01110000
03949KAQV AQV20160217012010802/17/16 01:20:31  5-MIN KAQV 170720Z AUTO 36004KT 10SM CLR 11/00 A3011 200 48 -200 360/04 RMK AO2 T01060000
03949KAQV AQV20160217012510802/17/16 01:25:31  5-MIN KAQV 170725Z AUTO 01005KT 10SM CLR 11/00 A3011 200 48 -200 360/05 RMK AO2 T01060000
03949KAQV AQV20160217013010802/17/16 01:30:31  5-MIN KAQV 170730Z AUTO 01006KT 10SM CLR 11/00 A3011 200 46 -100 360/06 RMK AO2 T01110000
03949KAQV AQV20160217013510802/17/16 01:35:31  5-MIN KAQV 170735Z AUTO 36005KT 10SM CLR 11/00 A3011 200 46 -100 360/05 RMK AO2 T01110000
03949KAQV AQV20160217014010802/17/16 01:40:31  5-MIN KAQV 170740Z AUTO 36005KT 10SM CLR 11/00 A3011 200 46 -100 350/05 RMK AO2 T01110000
03949KAQV AQV20160217014510802/17/16 01:45:31  5-MIN KAQV 170745Z AUTO 01006KT 10SM CLR 11/00 A3012 190 46 -100 360/06 RMK AO2 T01110000
03949KAQV AQV20160217015011502/17/16 01:50:31  5-MIN KAQV 170750Z AUTO VRB05KT 10SM CLR 11/00 A3012 190 48 -200 VRB/05 RMK AO2 SLP197 T01060000
03949KAQV AQV20160217015511502/17/16 01:55:31  5-MIN KAQV 170755Z AUTO 01004KT 10SM CLR 11/00 A3012 190 48 -200 010/04 RMK AO2 SLP197 T01060000
03949KAQV AQV20160217020010802/17/16 02:00:31  5-MIN KAQV 170800Z AUTO 01004KT 10SM CLR 11/00 A3012 190 48 -200 010/04 RMK AO2 T01060000
03949KAQV AQV20160217020510802/17/16 02:05:31  5-MIN KAQV 170805Z AUTO 36005KT 10SM CLR 10/00 A3012 190 49 -300 360/05 RMK AO2 T01000000
03949KAQV AQV20160217021010802/17/16 02:10:31  5-MIN KAQV 170810Z AUTO 36005KT 10SM CLR 10/00 A3013 190 49 -300 360/05 RMK AO2 T01000000
03949KAQV AQV20160217021510802/17/16 02:15:31  5-MIN KAQV 170815Z AUTO 01004KT 10SM CLR 10/00 A3013 190 49 -300 010/04 RMK AO2 T01000000
03949KAQV AQV20160217022010802/17/16 02:20:31  5-MIN KAQV 170820Z AUTO 01004KT 10SM CLR 09/01 A3013 180 53 -300 360/04 RMK AO2 T00940006
03949KAQV AQV20160217022510802/17/16 02:25:31  5-MIN KAQV 170825Z AUTO 36003KT 10SM CLR 09/01 A3013 180 58 -400 360/03 RMK AO2 T00890011
03949KAQV AQV20160217023010802/17/16 02:30:31  5-MIN KAQV 170830Z AUTO 01004KT 10SM CLR 08/01 A3013 180 60 -500 360/04 RMK AO2 T00830011
03949KAQV AQV20160217023510802/17/16 02:35:31  5-MIN KAQV 170835Z AUTO 01003KT 10SM CLR 08/01 A3013 180 60 -500 360/03 RMK AO2 T00830011
03949KAQV AQV20160217024010802/17/16 02:40:31  5-MIN KAQV 170840Z AUTO 01003KT 10SM CLR 08/02 A3013 180 65 -500 360/03 RMK AO2 T00830022
03949KAQV AQV20160217024510802/17/16 02:45:31  5-MIN KAQV 170845Z AUTO 36004KT 10SM CLR 08/02 A3013 180 65 -600 360/04 RMK AO2 T00780017
03949KAQV AQV20160217025012102/17/16 02:50:31  5-MIN KAQV 170850Z AUTO 36003KT 10SM CLR 08/02 A3013 180 65 -600 360/03 RMK AO2 SLP204 T00780017 53020
03949KAQV AQV20160217025512102/17/16 02:55:31  5-MIN KAQV 170855Z AUTO 36004KT 10SM CLR 08/02 A3014 180 68 -600 360/04 RMK AO2 SLP204 T00780022 53020
03949KAQV AQV20160217030010802/17/16 03:00:31  5-MIN KAQV 170900Z AUTO 36003KT 10SM CLR 07/02 A3014 180 70 -600 350/03 RMK AO2 T00720022
03949KAQV AQV20160217030510802/17/16 03:05:31  5-MIN KAQV 170905Z AUTO 00000KT 10SM CLR 07/02 A3014 180 70 -600 000/00 RMK AO2 T00720022
03949KAQV AQV20160217031010802/17/16 03:10:31  5-MIN KAQV 170910Z AUTO 00000KT 10SM CLR 07/02 A3014 180 70 -600 000/00 RMK AO2 T00720022
03949KAQV AQV20160217031510802/17/16 03:15:31  5-MIN KAQV 170915Z AUTO 00000KT 10SM CLR 07/02 A3014 170 73 -700 000/00 RMK AO2 T00670022
03949KAQV AQV20160217032010802/17/16 03:20:31  5-MIN KAQV 170920Z AUTO 00000KT 10SM CLR 07/03 A3014 170 76 -700 000/00 RMK AO2 T00670028
03949KAQV AQV20160217032510802/17/16 03:25:31  5-MIN KAQV 170925Z AUTO 00000KT 10SM CLR 06/03 A3014 170 79 -800 000/00 RMK AO2 T00610028
03949KAQV AQV20160217033010802/17/16 03:30:31  5-MIN KAQV 170930Z AUTO 00000KT 10SM CLR 06/03 A3014 170 79 -800 000/00 RMK AO2 T00610028
03949KAQV AQV20160217033510802/17/16 03:35:31  5-MIN KAQV 170935Z AUTO 36003KT 10SM CLR 06/03 A3014 170 82 -800 360/03 RMK AO2 T00610033
03949KAQV AQV20160217034010802/17/16 03:40:31  5-MIN KAQV 170940Z AUTO 00000KT 10SM CLR 06/03 A3014 170 79 -800 000/00 RMK AO2 T00610028
03949KAQV AQV20160217034510802/17/16 03:45:31  5-MIN KAQV 170945Z AUTO 01003KT 10SM CLR 06/02 A3015 170 76 -800 360/03 RMK AO2 T00610022
03949KAQV AQV20160217035011502/17/16 03:50:31  5-MIN KAQV 170950Z AUTO 01003KT 10SM CLR 06/02 A3015 170 79 -800 010/03 RMK AO2 SLP208 T00560022
03949KAQV AQV20160217035511502/17/16 03:55:31  5-MIN KAQV 170955Z AUTO 01003KT 10SM CLR 06/02 A3015 170 79 -800 010/03 RMK AO2 SLP208 T00560022
03949KAQV AQV20160217040010802/17/16 04:00:31  5-MIN KAQV 171000Z AUTO 01004KT 10SM CLR 06/02 A3015 160 76 -800 360/04 RMK AO2 T00610022
03949KAQV AQV20160217040510802/17/16 04:05:31  5-MIN KAQV 171005Z AUTO 01004KT 10SM CLR 06/02 A3015 160 76 -800 010/04 RMK AO2 T00610022
03949KAQV AQV20160217041010802/17/16 04:10:31  5-MIN KAQV 171010Z AUTO 36004KT 10SM CLR 06/02 A3015 160 73 -800 360/04 RMK AO2 T00610017
03949KAQV AQV20160217041510802/17/16 04:15:31  5-MIN KAQV 171015Z AUTO 02005KT 10SM CLR 06/02 A3015 160 73 -800 020/05 RMK AO2 T00610017
03949KAQV AQV20160217042010802/17/16 04:20:31  5-MIN KAQV 171020Z AUTO 01004KT 10SM CLR 08/01 A3015 160 62 -600 010/04 RMK AO2 T00780011
03949KAQV AQV20160217042510802/17/16 04:25:31  5-MIN KAQV 171025Z AUTO 01005KT 10SM CLR 07/01 A3016 160 65 -600 010/05 RMK AO2 T00720011
03949KAQV AQV20160217043010802/17/16 04:30:31  5-MIN KAQV 171030Z AUTO 02004KT 10SM CLR 08/01 A3016 160 62 -600 010/04 RMK AO2 T00780011
03949KAQV AQV20160217043510802/17/16 04:35:31  5-MIN KAQV 171035Z AUTO 02005KT 10SM CLR 08/01 A3016 160 62 -600 010/05 RMK AO2 T00780011
03949KAQV AQV20160217044010802/17/16 04:40:31  5-MIN KAQV 171040Z AUTO 01005KT 10SM CLR 08/01 A3016 150 60 -500 010/05 RMK AO2 T00830011
03949KAQV AQV20160217044510802/17/16 04:45:31  5-MIN KAQV 171045Z AUTO 02004KT 10SM CLR 08/01 A3017 150 60 -500 010/04 RMK AO2 T00830011
03949KAQV AQV20160217045011502/17/16 04:50:31  5-MIN KAQV 171050Z AUTO 01004KT 10SM CLR 08/01 A3017 140 62 -600 010/04 RMK AO2 SLP217 T00780011
03949KAQV AQV20160217045511502/17/16 04:55:31  5-MIN KAQV 171055Z AUTO 02004KT 10SM CLR 08/01 A3017 140 62 -600 020/04 RMK AO2 SLP217 T00780011
03949KAQV AQV20160217050010802/17/16 05:00:31  5-MIN KAQV 171100Z AUTO 02004KT 10SM CLR 08/01 A3017 140 62 -600 020/04 RMK AO2 T00780011
03949KAQV AQV20160217050510802/17/16 05:05:31  5-MIN KAQV 171105Z AUTO 03004KT 10SM CLR 08/01 A3018 140 60 -600 020/04 RMK AO2 T00780006
03949KAQV AQV20160217051010802/17/16 05:10:31  5-MIN KAQV 171110Z AUTO 03004KT 10SM CLR 08/01 A3018 140 60 -600 020/04 RMK AO2 T00780006
03949KAQV AQV20160217051510802/17/16 05:15:31  5-MIN KAQV 171115Z AUTO 02003KT 10SM CLR 08/01 A3018 140 60 -600 010/03 RMK AO2 T00780006
03949KAQV AQV20160217052010802/17/16 05:20:31  5-MIN KAQV 171120Z AUTO 00000KT 10SM CLR 07/01 A3018 140 65 -700 000/00 RMK AO2 T00720011
03949KAQV AQV20160218013510802/18/16 01:35:31  5-MIN KAQV 180735Z AUTO 00000KT 10SM CLR 04/03 A3026 70 89 -1100 000/00 RMK AO2 T00440028
03949KAQV AQV20160218014010802/18/16 01:40:31  5-MIN KAQV 180740Z AUTO 00000KT 10SM CLR 04/03 A3026 70 89 -1100 000/00 RMK AO2 T00440028
03949KAQV AQV20160218014510802/18/16 01:45:31  5-MIN KAQV 180745Z AUTO 00000KT 10SM CLR 04/03 A3025 70 89 -1100 000/00 RMK AO2 T00440028
03949KAQV AQV20160218015011502/18/16 01:50:31  5-MIN KAQV 180750Z AUTO 00000KT 10SM CLR 04/03 A3025 70 89 -1100 000/00 RMK AO2 SLP246 T00440028
03949KAQV AQV20160218015511502/18/16 01:55:31  5-MIN KAQV 180755Z AUTO 00000KT 10SM CLR 04/03 A3026 70 89 -1100 000/00 RMK AO2 SLP246 T00440028
03949KAQV AQV20160218020010802/18/16 02:00:31  5-MIN KAQV 180800Z AUTO 00000KT 10SM CLR 04/03 A3026 70 89 -1100 000/00 RMK AO2 T00440028
03949KAQV AQV20160218020510802/18/16 02:05:31  5-MIN KAQV 180805Z AUTO 00000KT 10SM CLR 04/03 A3026 70 89 -1100 000/00 RMK AO2 T00440028
03949KAQV AQV20160218021010802/18/16 02:10:31  5-MIN KAQV 180810Z AUTO 00000KT 10SM CLR 04/03 A3025 70 89 -1100 000/00 RMK AO2 T00440028
03949KAQV AQV20160218021510802/18/16 02:15:31  5-MIN KAQV 180815Z AUTO 00000KT 10SM CLR 04/03 A3025 70 89 -1100 000/00 RMK AO2 T00440028
03949KAQV AQV20160218022010802/18/16 02:20:31  5-MIN KAQV 180820Z AUTO 00000KT 10SM CLR 04/03 A3025 70 89 -1100 000/00 RMK AO2 T00440028
03949KAQV AQV20160218022510802/18/16 02:25:31  5-MIN KAQV 180825Z AUTO 00000KT 10SM CLR 04/03 A3025 70 89 -1100 000/00 RMK AO2 T00440028
03949KAQV AQV20160218023010802/18/16 02:30:31  5-MIN KAQV 180830Z AUTO 00000KT 10SM CLR 04/03 A3025 80 89 -1100 000/00 RMK AO2 T00440028
03949KAQV AQV20160218023510802/18/16 02:35:31  5-MIN KAQV 180835Z AUTO 00000KT 10SM CLR 04/03 A3025 80 89 -1100 000/00 RMK AO2 T00440028
03949KAQV AQV20160218024010802/18/16 02:40:31  5-MIN KAQV 180840Z AUTO 00000KT 10SM CLR 04/03 A3025 70 89 -1100 000/00 RMK AO2 T00440028
03949KAQV AQV20160218024510802/18/16 02:45:31  5-MIN KAQV 180845Z AUTO 00000KT 10SM CLR 04/03 A3025 70 89 -1100 000/00 RMK AO2 T00440028
03949KAQV AQV20160218025012102/18/16 02:50:31  5-MIN KAQV 180850Z AUTO 00000KT 10SM CLR 04/03 A3025 70 89 -1100 000/00 RMK AO2 SLP243 T00440028 53001
03949KAQV AQV20160218025512102/18/16 02:55:31  5-MIN KAQV 180855Z AUTO 00000KT 10SM CLR 04/03 A3025 80 89 -1100 000/00 RMK AO2 SLP243 T00440028 53001
03949KAQV AQV20160218030010802/18/16 03:00:31  5-MIN KAQV 180900Z AUTO 00000KT 10SM CLR 04/03 A3025 80 89 -1100 000/00 RMK AO2 T00440028
03949KAQV AQV20160218030510802/18/16 03:05:31  5-MIN KAQV 180905Z AUTO 00000KT 10SM CLR 04/03 A3025 70 92 -1200 000/00 RMK AO2 T00390028
03949KAQV AQV20160218031010802/18/16 03:10:31  5-MIN KAQV 180910Z AUTO 00000KT 10SM CLR 04/03 A3025 70 92 -1200 000/00 RMK AO2 T00390028
03949KAQV AQV20160218031510802/18/16 03:15:31  5-MIN KAQV 180915Z AUTO 00000KT 10SM CLR 04/02 A3025 80 89 -1200 000/00 RMK AO2 T00390022
03949KAQV AQV20160218032010802/18/16 03:20:31  5-MIN KAQV 180920Z AUTO 00000KT 10SM CLR 04/02 A3024 80 89 -1200 000/00 RMK AO2 T00390022
03949KAQV AQV20160218032510802/18/16 03:25:31  5-MIN KAQV 180925Z AUTO 00000KT 10SM CLR 04/02 A3024 80 89 -1200 000/00 RMK AO2 T00390022
03949KAQV AQV20160218033010802/18/16 03:30:31  5-MIN KAQV 180930Z AUTO 00000KT 10SM CLR 04/02 A3024 80 89 -1200 000/00 RMK AO2 T00390022
03949KAQV AQV20160218033510802/18/16 03:35:31  5-MIN KAQV 180935Z AUTO 00000KT 10SM CLR 04/02 A3024 80 89 -1200 000/00 RMK AO2 T00390022
03949KAQV AQV20160218034010802/18/16 03:40:31  5-MIN KAQV 180940Z AUTO 00000KT 10SM CLR 03/02 A3024 80 92 -1200 000/00 RMK AO2 T00330022
03949KAQV AQV20160218034510802/18/16 03:45:31  5-MIN KAQV 180945Z AUTO 00000KT 10SM CLR 03/02 A3024 80 92 -1200 000/00 RMK AO2 T00330022
03949KAQV AQV20160218035011502/18/16 03:50:31  5-MIN KAQV 180950Z AUTO 00000KT 10SM CLR 03/02 A3024 80 92 -1200 000/00 RMK AO2 SLP242 T00330022
03949KAQV AQV20160218035511502/18/16 03:55:31  5-MIN KAQV 180955Z AUTO 00000KT 10SM CLR 03/02 A3024 80 92 -1200 000/00 RMK AO2 SLP242 T00330022
03949KAQV AQV20160218040010802/18/16 04:00:31  5-MIN KAQV 181000Z AUTO 00000KT 10SM CLR 04/02 A3024 80 89 -1200 000/00 RMK AO2 T00390022
03949KAQV AQV20160218040510802/18/16 04:05:31  5-MIN KAQV 181005Z AUTO 00000KT 10SM CLR 03/02 A3025 80 92 -1200 000/00 RMK AO2 T00330022
03949KAQV AQV20160218041010802/18/16 04:10:31  5-MIN KAQV 181010Z AUTO 00000KT 10SM CLR 03/02 A3025 80 92 -1200 000/00 RMK AO2 T00330022
03949KAQV AQV20160218041510802/18/16 04:15:31  5-MIN KAQV 181015Z AUTO 00000KT 10SM CLR 03/02 A3025 80 92 -1200 000/00 RMK AO2 T00330022
03949KAQV AQV20160218042010702/18/16 04:20:31  5-MIN KAQV 181020Z AUTO 00000KT 9SM CLR 03/02 A3025 80 92 -1200 000/00 RMK AO2 T00330022
03949KAQV AQV20160218042511002/18/16 04:25:31  5-MIN KAQV 181025Z AUTO 00000KT 6SM BR CLR 03/02 A3025 70 92 -1200 000/00 RMK AO2 T00330022
03949KAQV AQV20160218043011002/18/16 04:30:31  5-MIN KAQV 181030Z AUTO 00000KT 5SM BR CLR 03/02 A3025 70 92 -1200 000/00 RMK AO2 T00330022
03949KAQV AQV20160218043510702/18/16 04:35:31  5-MIN KAQV 181035Z AUTO 00000KT 7SM CLR 03/02 A3025 70 92 -1200 000/00 RMK AO2 T00330022
03949KAQV AQV20160218044010702/18/16 04:40:31  5-MIN KAQV 181040Z AUTO 00000KT 9SM CLR 03/02 A3025 70 92 -1200 000/00 RMK AO2 T00330022
03949KAQV AQV20160218044510702/18/16 04:45:31  5-MIN KAQV 181045Z AUTO 00000KT 9SM CLR 03/02 A3025 70 92 -1200 000/00 RMK AO2 T00330022
03949KAQV AQV20160218045011502/18/16 04:50:31  5-MIN KAQV 181050Z AUTO 00000KT 10SM CLR 03/02 A3025 70 92 -1200 000/00 RMK AO2 SLP244 T00330022
03949KAQV AQV20160218045511502/18/16 04:55:31  5-MIN KAQV 181055Z AUTO 00000KT 10SM CLR 03/02 A3025 70 92 -1200 000/00 RMK AO2 SLP244 T00330022
03949KAQV AQV20160218050010802/18/16 05:00:31  5-MIN KAQV 181100Z AUTO 00000KT 10SM CLR 03/02 A3025 70 92 -1200 000/00 RMK AO2 T00330022
03949KAQV AQV20160218050510802/18/16 05:05:31  5-MIN KAQV 181105Z AUTO 00000KT 10SM CLR 03/02 A3025 70 92 -1200 000/00 RMK AO2 T00330022
03949KAQV AQV20160218051010802/18/16 05:10:31  5-MIN KAQV 181110Z AUTO 00000KT 10SM CLR 03/02 A3025 70 92 -1200 000/00 RMK AO2 T00330022
03949KAQV AQV20160218051510802/18/16 05:15:31  5-MIN KAQV 181115Z AUTO 00000KT 10SM CLR 03/02 A3025 70 92 -1200 000/00 RMK AO2 T00330022
03949KAQV AQV20160218052010802/18/16 05:20:31  5-MIN KAQV 181120Z AUTO 00000KT 10SM CLR 03/02 A3025 70 92 -1200 000/00 RMK AO2 T00330022
03949KAQV AQV20160218052510802/18/16 05:25:31  5-MIN KAQV 181125Z AUTO 00000KT 10SM CLR 03/02 A3025 70 92 -1200 000/00 RMK AO2 T00330022
03949KAQV AQV20160218053010702/18/16 05:30:31  5-MIN KAQV 181130Z AUTO 00000KT 7SM CLR 03/02 A3025 70 92 -1200 000/00 RMK AO2 T00330022
03949KAQV AQV20160218053511002/18/16 05:35:31  5-MIN KAQV 181135Z AUTO 00000KT 6SM BR CLR 03/02 A3025 70 96 -1300 000/00 RMK AO2 T00280022
03949KAQV AQV20160218054011002/18/16 05:40:31  5-MIN KAQV 181140Z AUTO 00000KT 6SM BR CLR 03/02 A3025 70 92 -1300 000/00 RMK AO2 T00280017
03949KAQV AQV20160218054510702/18/16 05:45:31  5-MIN KAQV 181145Z AUTO 00000KT 8SM CLR 03/02 A3025 70 92 -1300 000/00 RMK AO2 T00280017
03949KAQV AQV20160218055013202/18/16 05:50:31  5-MIN KAQV 181150Z AUTO 00000KT 9SM CLR 03/02 A3025 70 92 -1300 000/00 RMK AO2 SLP247 T00280017 10056 20028 56006
03949KAQV AQV20160218055513302/18/16 05:55:31  5-MIN KAQV 181155Z AUTO 00000KT 10SM CLR 03/02 A3026 70 92 -1300 000/00 RMK AO2 SLP247 T00280017 10056 20028 56006
03949KAQV AQV20160218060010802/18/16 06:00:31  5-MIN KAQV 181200Z AUTO 00000KT 10SM CLR 03/02 A3026 60 92 -1300 000/00 RMK AO2 T00280017
03949KAQV AQV20160218060510802/18/16 06:05:31  5-MIN KAQV 181205Z AUTO 00000KT 10SM CLR 03/02 A3026 60 92 -1300 000/00 RMK AO2 T00280017
03949KAQV AQV20160218061010802/18/16 06:10:31  5-MIN KAQV 181210Z AUTO 00000KT 10SM CLR 03/02 A3026 60 92 -1300 000/00 RMK AO2 T00280017
03949KAQV AQV20160218061510802/18/16 06:15:31  5-MIN KAQV 181215Z AUTO 00000KT 10SM CLR 03/02 A3027 60 92 -1300 000/00 RMK AO2 T00280017
03949KAQV AQV20160218062010802/18/16 06:20:31  5-MIN KAQV 181220Z AUTO 00000KT 10SM CLR 03/02 A3027 50 89 -1300 000/00 RMK AO2 T00330017
03949KAQV AQV20160218062510802/18/16 06:25:31  5-MIN KAQV 181225Z AUTO 00000KT 10SM CLR 03/02 A3027 50 89 -1300 000/00 RMK AO2 T00330017
03949KAQV AQV20160218063010802/18/16 06:30:31  5-MIN KAQV 181230Z AUTO 00000KT 10SM CLR 03/02 A3027 50 89 -1300 000/00 RMK AO2 T00330017
03949KAQV AQV20160218063510802/18/16 06:35:31  5-MIN KAQV 181235Z AUTO 00000KT 10SM CLR 03/02 A3027 50 92 -1300 000/00 RMK AO2 T00330022
03949KAQV AQV20160218064010802/18/16 06:40:31  5-MIN KAQV 181240Z AUTO 16003KT 10SM CLR 03/02 A3028 50 92 -1300 160/03 RMK AO2 T00330022
03949KAQV AQV20160218124510702/18/16 12:45:31  5-MIN KAQV 181845Z AUTO VRB05KT 10SM CLR 23/01 A3027 60 23 1100 VRB/05 RMK AO2 T02330011
03949KAQV AQV20160218125013002/18/16 12:50:31  5-MIN KAQV 181850Z AUTO 16007KT 110V200 10SM CLR 23/01 A3026 60 23 1100 160/07 110V200 RMK AO2 SLP247 T02330011
03949KAQV AQV20160218125511402/18/16 12:55:31  5-MIN KAQV 181855Z AUTO 18008KT 10SM CLR 24/02 A3026 60 23 1200 180/08 RMK AO2 SLP246 T02390017
03949KAQV AQV20160218130012902/18/16 13:00:31  5-MIN KAQV 181900Z AUTO 16010G17KT 130V210 10SM CLR 24/01 A3026 70 22 1200 160/10G17 130V210 RMK AO2 T02390011
03949KAQV AQV20160218130511302/18/16 13:05:31  5-MIN KAQV 181905Z AUTO 18009G17KT 10SM CLR 24/01 A3025 70 22 1200 180/09G17 RMK AO2 T02390011
03949KAQV AQV20160218131011302/18/16 13:10:31  5-MIN KAQV 181910Z AUTO VRB05G14KT 10SM CLR 24/01 A3025 70 21 1200 VRB/05G14 RMK AO2 T02390006
03949KAQV AQV20160218131510702/18/16 13:15:31  5-MIN KAQV 181915Z AUTO 16007KT 10SM CLR 24/01 A3024 80 21 1200 160/07 RMK AO2 T02440011
03949KAQV AQV20160218132011302/18/16 13:20:31  5-MIN KAQV 181920Z AUTO 17011G17KT 10SM CLR 23/01 A3024 80 22 1100 170/11G17 RMK AO2 T02330006
03949KAQV AQV20160218132511302/18/16 13:25:31  5-MIN KAQV 181925Z AUTO 17006G17KT 10SM CLR 23/01 A3023 90 23 1100 170/06G17 RMK AO2 T02330011
03949KAQV AQV20160218133010702/18/16 13:30:31  5-MIN KAQV 181930Z AUTO 19005KT 10SM CLR 24/01 A3023 90 22 1200 190/05 RMK AO2 T02390011
03949KAQV AQV20160218133511302/18/16 13:35:31  5-MIN KAQV 181935Z AUTO 17009G15KT 10SM CLR 24/01 A3023 90 21 1200 170/09G15 RMK AO2 T02390006
03949KAQV AQV20160218134012902/18/16 13:40:31  5-MIN KAQV 181940Z AUTO 18010G21KT 150V230 10SM CLR 24/00 A3023 90 20 1200 170/10G21 150V230 RMK AO2 T02390000
03949KAQV AQV20160218134511402/18/16 13:45:31  5-MIN KAQV 181945Z AUTO 17007G21KT 10SM CLR 24/00 A3022 100 20 1200 170/07G21 RMK AO2 T02390000
03949KAQV AQV20160218135012102/18/16 13:50:31  5-MIN KAQV 181950Z AUTO 17009G17KT 10SM CLR 24/00 A3022 100 19 1300 160/09G17 RMK AO2 SLP232 T02440000
03949KAQV AQV20160218135512102/18/16 13:55:31  5-MIN KAQV 181955Z AUTO 18011G18KT 10SM CLR 24/00 A3022 100 20 1200 180/11G18 RMK AO2 SLP231 T02390000
03949KAQV AQV20160218140013002/18/16 14:00:31  5-MIN KAQV 182000Z AUTO 17008G18KT 120V190 10SM CLR 24/01 A3021 110 20 1300 160/08G18 120V190 RMK AO2 T02440006
03949KAQV AQV20160218140511402/18/16 14:05:31  5-MIN KAQV 182005Z AUTO 16009G15KT 10SM CLR 24/00 A3021 110 20 1200 160/09G15 RMK AO2 T02390000
03949KAQV AQV20160218141011402/18/16 14:10:31  5-MIN KAQV 182010Z AUTO VRB06G15KT 10SM CLR 24/00 A3021 110 19 1300 VRB/06G15 RMK AO2 T02440000
03949KAQV AQV20160218141511402/18/16 14:15:31  5-MIN KAQV 182015Z AUTO 19009G17KT 10SM CLR 25/01 A3021 110 20 1300 180/09G17 RMK AO2 T02500006
03949KAQV AQV20160218142011402/18/16 14:20:31  5-MIN KAQV 182020Z AUTO 18008G17KT 10SM CLR 24/00 A3021 110 19 1300 180/08G17 RMK AO2 T02440000
03949KAQV AQV20160218142513102/18/16 14:25:31  5-MIN KAQV 182025Z AUTO 18008G16KT 150V210 10SM CLR 24/M01 A3021 110 19 1300 170/08G16 150V210 RMK AO2 T02441006
03949KAQV AQV20160218143013002/18/16 14:30:31  5-MIN KAQV 182030Z AUTO 18009G18KT 160V220 10SM CLR 25/00 A3021 110 19 1300 180/09G18 160V220 RMK AO2 T02500000
03949KAQV AQV20160218143513002/18/16 14:35:31  5-MIN KAQV 182035Z AUTO 20008G18KT 160V240 10SM CLR 25/00 A3020 120 19 1300 190/08G18 160V240 RMK AO2 T02500000
03949KAQV AQV20160218144012402/18/16 14:40:31  5-MIN KAQV 182040Z AUTO 19009KT 150V220 10SM CLR 24/00 A3020 120 19 1300 180/09 150V220 RMK AO2 T02440000
03949KAQV AQV20160218144510802/18/16 14:45:31  5-MIN KAQV 182045Z AUTO 19008KT 10SM CLR 24/00 A3020 120 19 1300 180/08 RMK AO2 T02440000
03949KAQV AQV20160218145012102/18/16 14:50:31  5-MIN KAQV 182050Z AUTO 19008KT 10SM CLR 24/01 A3020 120 20 1300 190/08 RMK AO2 SLP226 T02440006 58008
03949KAQV AQV20160218145513702/18/16 14:55:31  5-MIN KAQV 182055Z AUTO 19007KT 160V230 10SM CLR 25/01 A3020 120 20 1300 190/07 160V230 RMK AO2 SLP225 T02500011 58008
03949KAQV AQV20160218150013002/18/16 15:00:31  5-MIN KAQV 182100Z AUTO 18010G14KT 150V220 10SM CLR 24/01 A3020 120 20 1300 170/10G14 150V220 RMK AO2 T02440006
03949KAQV AQV20160218150513002/18/16 15:05:31  5-MIN KAQV 182105Z AUTO 18007G14KT 160V220 10SM CLR 25/01 A3020 120 20 1300 180/07G14 160V220 RMK AO2 T02500011
03949KAQV AQV20160218151011402/18/16 15:10:31  5-MIN KAQV 182110Z AUTO 18010G14KT 10SM CLR 24/01 A3019 120 21 1300 180/10G14 RMK AO2 T02440011
03949KAQV AQV20160218151511402/18/16 15:15:31  5-MIN KAQV 182115Z AUTO 16006G15KT 10SM CLR 24/01 A3019 120 21 1300 160/06G15 RMK AO2 T02440011
03949KAQV AQV20160218152011402/18/16 15:20:31  5-MIN KAQV 182120Z AUTO 16007G15KT 10SM CLR 25/01 A3019 130 20 1400 150/07G15 RMK AO2 T02500011
03949KAQV AQV20160218152510802/18/16 15:25:31  5-MIN KAQV 182125Z AUTO VRB05KT 10SM CLR 24/01 A3019 130 21 1300 VRB/05 RMK AO2 T02440011
03949KAQV AQV20160218153010802/18/16 15:30:31  5-MIN KAQV 182130Z AUTO 15008KT 10SM CLR 24/02 A3019 130 22 1300 150/08 RMK AO2 T02440017
03949KAQV AQV20160218153510802/18/16 15:35:31  5-MIN KAQV 182135Z AUTO 19008KT 10SM CLR 24/02 A3019 130 22 1300 180/08 RMK AO2 T02440017
03949KAQV AQV20160218154011402/18/16 15:40:31  5-MIN KAQV 182140Z AUTO 19008G15KT 10SM CLR 24/02 A3019 130 22 1300 180/08G15 RMK AO2 T02440017
03949KAQV AQV20160218154512402/18/16 15:45:31  5-MIN KAQV 182145Z AUTO 15007KT 120V190 10SM CLR 24/02 A3019 130 22 1300 150/07 120V190 RMK AO2 T02440017
03949KAQV AQV20160218155013102/18/16 15:50:31  5-MIN KAQV 182150Z AUTO 17007KT 130V200 10SM CLR 24/02 A3019 130 22 1300 160/07 130V200 RMK AO2 SLP222 T02440017
03949KAQV AQV20160218155513102/18/16 15:55:31  5-MIN KAQV 182155Z AUTO 15008KT 130V190 10SM CLR 24/02 A3019 130 23 1300 150/08 130V190 RMK AO2 SLP222 T02440022
03949KAQV AQV20160218160011402/18/16 16:00:31  5-MIN KAQV 182200Z AUTO VRB06G14KT 10SM CLR 24/02 A3019 130 24 1200 VRB/06G14 RMK AO2 T02390022
03949KAQV AQV20160218160513002/18/16 16:05:31  5-MIN KAQV 182205Z AUTO 18008G14KT 150V220 10SM CLR 24/02 A3019 130 23 1300 170/08G14 150V220 RMK AO2 T02440022
03949KAQV AQV20160218161010802/18/16 16:10:31  5-MIN KAQV 182210Z AUTO 18007KT 10SM CLR 24/02 A3018 130 24 1200 180/07 RMK AO2 T02390022
03949KAQV AQV20160218161512402/18/16 16:15:31  5-MIN KAQV 182215Z AUTO 17008KT 130V200 10SM CLR 24/02 A3018 130 24 1200 170/08 130V200 RMK AO2 T02390022
03949KAQV AQV20160218162010802/18/16 16:20:31  5-MIN KAQV 182220Z AUTO 16008KT 10SM CLR 24/03 A3018 130 25 1200 160/08 RMK AO2 T02390028
03949KAQV AQV20160218162512402/18/16 16:25:31  5-MIN KAQV 182225Z AUTO 16007KT 120V200 10SM CLR 24/03 A3018 130 25 1200 150/07 120V200 RMK AO2 T02390028
03949KAQV AQV20160218163010802/18/16 16:30:31  5-MIN KAQV 182230Z AUTO 16008KT 10SM CLR 23/03 A3018 140 26 1200 160/08 RMK AO2 T02330033
03949KAQV AQV20160218163512402/18/16 16:35:31  5-MIN KAQV 182235Z AUTO 19008KT 160V230 10SM CLR 23/03 A3018 140 26 1200 180/08 160V230 RMK AO2 T02330033
03949KAQV AQV20160218164011402/18/16 16:40:31  5-MIN KAQV 182240Z AUTO 17009G15KT 10SM CLR 23/04 A3018 140 28 1200 170/09G15 RMK AO2 T02330039
03949KAQV AQV20160218164511402/18/16 16:45:31  5-MIN KAQV 182245Z AUTO 17010G16KT 10SM CLR 23/03 A3018 140 27 1100 160/10G16 RMK AO2 T02280033
03949KAQV AQV20160218165012102/18/16 16:50:31  5-MIN KAQV 182250Z AUTO 17009G16KT 10SM CLR 23/04 A3018 140 29 1100 160/09G16 RMK AO2 SLP220 T02280039
03949KAQV AQV20160218165513702/18/16 16:55:31  5-MIN KAQV 182255Z AUTO 17008G16KT 140V220 10SM CLR 23/04 A3018 140 29 1100 170/08G16 140V220 RMK AO2 SLP220 T02280039
03949KAQV AQV20160218170011402/18/16 17:00:31  5-MIN KAQV 182300Z AUTO 19007G15KT 10SM CLR 23/04 A3018 130 29 1100 180/07G15 RMK AO2 T02280039
03949KAQV AQV20160218170511402/18/16 17:05:31  5-MIN KAQV 182305Z AUTO 17006G15KT 10SM CLR 22/04 A3018 130 30 1000 170/06G15 RMK AO2 T02220039
03949KAQV AQV20160218171010802/18/16 17:10:31  5-MIN KAQV 182310Z AUTO 17007KT 10SM CLR 22/04 A3019 130 30 1000 160/07 RMK AO2 T02220039
03949KAQV AQV20160218171512402/18/16 17:15:31  5-MIN KAQV 182315Z AUTO 17007KT 130V210 10SM CLR 22/04 A3019 130 30 1000 160/07 130V210 RMK AO2 T02220039
03949KAQV AQV20160218172010802/18/16 17:20:31  5-MIN KAQV 182320Z AUTO 18007KT 10SM CLR 22/03 A3019 130 29 1000 180/07 RMK AO2 T02170033
03949KAQV AQV20160218172512402/18/16 17:25:31  5-MIN KAQV 182325Z AUTO 17007KT 140V200 10SM CLR 22/03 A3019 130 28 1000 170/07 140V200 RMK AO2 T02170028
03949KAQV AQV20160218173011402/18/16 17:30:31  5-MIN KAQV 182330Z AUTO 17007G14KT 10SM CLR 22/03 A3019 130 28 1000 170/07G14 RMK AO2 T02170028
03949KAQV AQV20160218173510702/18/16 17:35:31  5-MIN KAQV 182335Z AUTO VRB04KT 10SM CLR 21/03 A3019 130 32 800 VRB/04 RMK AO2 T02060033
03949KAQV AQV20160218174010702/18/16 17:40:31  5-MIN KAQV 182340Z AUTO VRB06KT 10SM CLR 21/03 A3019 130 30 800 VRB/06 RMK AO2 T02060028
03949KAQV AQV20160218174510702/18/16 17:45:31  5-MIN KAQV 182345Z AUTO VRB06KT 10SM CLR 21/02 A3019 130 29 800 VRB/06 RMK AO2 T02060022
03949KAQV AQV20160218175013202/18/16 17:50:31  5-MIN KAQV 182350Z AUTO 17006KT 10SM CLR 21/02 A3019 130 29 800 170/06 RMK AO2 SLP223 T02060022 10250 20206 56032
03949KAQV AQV20160218175513202/18/16 17:55:31  5-MIN KAQV 182355Z AUTO 17008KT 10SM CLR 21/02 A3019 130 28 800 170/08 RMK AO2 SLP223 T02060017 10250 20206 56032
03949KAQV AQV20160218180010702/18/16 18:00:31  5-MIN KAQV 190000Z AUTO 17008KT 10SM CLR 20/02 A3019 130 29 800 160/08 RMK AO2 T02000017
03949KAQV AQV20160218180511302/18/16 18:05:31  5-MIN KAQV 190005Z AUTO VRB06G17KT 10SM CLR 20/01 A3019 130 28 800 VRB/06G17 RMK AO2 T02000011
03949KAQV AQV20160218181011302/18/16 18:10:31  5-MIN KAQV 190010Z AUTO 17006G17KT 10SM CLR 20/01 A3019 130 28 800 170/06G17 RMK AO2 T02000011
03949KAQV AQV20160218181510702/18/16 18:15:31  5-MIN KAQV 190015Z AUTO VRB06KT 10SM CLR 19/01 A3019 130 28 700 VRB/06 RMK AO2 T01940006
03949KAQV AQV20160218182010702/18/16 18:20:31  5-MIN KAQV 190020Z AUTO 17006KT 10SM CLR 19/01 A3019 130 28 700 160/06 RMK AO2 T01940006
03949KAQV AQV20160218182512302/18/16 18:25:31  5-MIN KAQV 190025Z AUTO 17007KT 130V190 10SM CLR 19/01 A3019 130 28 700 160/07 130V190 RMK AO2 T01940006
03949KAQV AQV20160218183010702/18/16 18:30:31  5-MIN KAQV 190030Z AUTO 17007KT 10SM CLR 19/01 A3019 130 29 700 160/07 RMK AO2 T01890006
03949KAQV AQV20160218183510702/18/16 18:35:31  5-MIN KAQV 190035Z AUTO 17006KT 10SM CLR 19/01 A3018 130 30 700 160/06 RMK AO2 T01890011
03949KAQV AQV20160218184012302/18/16 18:40:31  5-MIN KAQV 190040Z AUTO 17007KT 140V210 10SM CLR 19/01 A3018 130 30 700 170/07 140V210 RMK AO2 T01890011
03949KAQV AQV20160218184510702/18/16 18:45:31  5-MIN KAQV 190045Z AUTO VRB05KT 10SM CLR 18/02 A3018 130 32 600 VRB/05 RMK AO2 T01830017
03949KAQV AQV20160218185011402/18/16 18:50:31  5-MIN KAQV 190050Z AUTO 17005KT 10SM CLR 18/02 A3019 130 34 600 170/05 RMK AO2 SLP222 T01830022
03949KAQV AQV20160218185511402/18/16 18:55:31  5-MIN KAQV 190055Z AUTO 17005KT 10SM CLR 18/02 A3019 130 35 500 170/05 RMK AO2 SLP222 T01780022
03949KAQV AQV20160218190010702/18/16 19:00:31  5-MIN KAQV 190100Z AUTO 17005KT 10SM CLR 18/03 A3019 130 36 500 160/05 RMK AO2 T01780028
03949KAQV AQV20160218190510702/18/16 19:05:31  5-MIN KAQV 190105Z AUTO 17005KT 10SM CLR 18/03 A3019 130 36 500 160/05 RMK AO2 T01780028
03949KAQV AQV20160218191010702/18/16 19:10:31  5-MIN KAQV 190110Z AUTO 17006KT 10SM CLR 18/03 A3019 130 38 500 170/06 RMK AO2 T01780033
03949KAQV AQV20160218191510702/18/16 19:15:31  5-MIN KAQV 190115Z AUTO 17007KT 10SM CLR 17/04 A3019 130 41 500 170/07 RMK AO2 T01720039
03949KAQV AQV20160218192010702/18/16 19:20:31  5-MIN KAQV 190120Z AUTO 16006KT 10SM CLR 17/04 A3019 130 42 500 160/06 RMK AO2 T01720044
03949KAQV AQV20160218192510702/18/16 19:25:31  5-MIN KAQV 190125Z AUTO 17006KT 10SM CLR 17/05 A3019 130 44 500 170/06 RMK AO2 T01720050
03949KAQV AQV20160218193010702/18/16 19:30:31  5-MIN KAQV 190130Z AUTO 17006KT 10SM CLR 17/06 A3019 130 46 500 170/06 RMK AO2 T01720056
03949KAQV AQV20160218193510702/18/16 19:35:31  5-MIN KAQV 190135Z AUTO VRB06KT 10SM CLR 17/06 A3019 120 47 500 VRB/06 RMK AO2 T01720061
03949KAQV AQV20160218194010702/18/16 19:40:31  5-MIN KAQV 190140Z AUTO 17007KT 10SM CLR 17/06 A3019 120 49 400 160/07 RMK AO2 T01670061
03949KAQV AQV20160218194510702/18/16 19:45:31  5-MIN KAQV 190145Z AUTO 16007KT 10SM CLR 17/07 A3020 120 49 500 160/07 RMK AO2 T01720067
03949KAQV AQV20160218195011402/18/16 19:50:31  5-MIN KAQV 190150Z AUTO VRB06KT 10SM CLR 17/07 A3020 120 49 400 VRB/06 RMK AO2 SLP227 T01720067
03949KAQV AQV20160218195511402/18/16 19:55:31  5-MIN KAQV 190155Z AUTO 17004KT 10SM CLR 17/07 A3020 120 51 400 170/04 RMK AO2 SLP228 T01670067
03949KAQV AQV20160218200010702/18/16 20:00:31  5-MIN KAQV 190200Z AUTO 17005KT 10SM CLR 17/07 A3020 110 53 400 170/05 RMK AO2 T01670072
03949KAQV AQV20160218200510702/18/16 20:05:31  5-MIN KAQV 190205Z AUTO 17006KT 10SM CLR 16/07 A3021 110 55 300 170/06 RMK AO2 T01610072
03949KAQV AQV20160218201010702/18/16 20:10:31  5-MIN KAQV 190210Z AUTO 18006KT 10SM CLR 17/08 A3021 110 55 400 170/06 RMK AO2 T01670078
03949KAQV AQV20160218201510702/18/16 20:15:31  5-MIN KAQV 190215Z AUTO 18006KT 10SM CLR 17/08 A3021 110 55 400 180/06 RMK AO2 T01670078
03949KAQV AQV20160218202010702/18/16 20:20:31  5-MIN KAQV 190220Z AUTO 18006KT 10SM CLR 17/08 A3021 110 55 400 180/06 RMK AO2 T01670078
03949KAQV AQV20160218202510702/18/16 20:25:31  5-MIN KAQV 190225Z AUTO 17005KT 10SM CLR 16/08 A3021 110 57 300 170/05 RMK AO2 T01610078
03949KAQV AQV20160218203012302/18/16 20:30:31  5-MIN KAQV 190230Z AUTO 18007KT 160V220 10SM CLR 16/08 A3021 110 57 300 180/07 160V220 RMK AO2 T01610078
03949KAQV AQV20160218203512302/18/16 20:35:31  5-MIN KAQV 190235Z AUTO 19007KT 160V230 10SM CLR 16/08 A3021 110 59 300 190/07 160V230 RMK AO2 T01610083
03949KAQV AQV20160218204010702/18/16 20:40:31  5-MIN KAQV 190240Z AUTO 18005KT 10SM CLR 16/08 A3021 110 59 300 180/05 RMK AO2 T01610083
03949KAQV AQV20160218204510702/18/16 20:45:31  5-MIN KAQV 190245Z AUTO 18005KT 10SM CLR 16/08 A3021 110 62 200 180/05 RMK AO2 T01560083
03949KAQV AQV20160218205012002/18/16 20:50:31  5-MIN KAQV 190250Z AUTO 18005KT 10SM CLR 16/08 A3021 110 62 200 180/05 RMK AO2 SLP230 T01560083 55002
03949KAQV AQV20160218205512002/18/16 20:55:31  5-MIN KAQV 190255Z AUTO VRB05KT 10SM CLR 16/09 A3021 110 64 200 VRB/05 RMK AO2 SLP230 T01560089 55002
03949KAQV AQV20160218210010702/18/16 21:00:31  5-MIN KAQV 190300Z AUTO VRB06KT 10SM CLR 16/09 A3021 110 64 200 VRB/06 RMK AO2 T01560089
03949KAQV AQV20160218210510702/18/16 21:05:31  5-MIN KAQV 190305Z AUTO 18007KT 10SM CLR 16/09 A3021 110 67 200 180/07 RMK AO2 T01560094
03949KAQV AQV20160218211010702/18/16 21:10:31  5-MIN KAQV 190310Z AUTO 18005KT 10SM CLR 15/09 A3021 110 69 200 170/05 RMK AO2 T01500094
03949KAQV AQV20160218211510702/18/16 21:15:31  5-MIN KAQV 190315Z AUTO 17005KT 10SM CLR 15/09 A3021 110 69 200 160/05 RMK AO2 T01500094
03949KAQV AQV20160218212010702/18/16 21:20:31  5-MIN KAQV 190320Z AUTO 17007KT 10SM CLR 15/09 A3020 110 69 200 160/07 RMK AO2 T01500094
03949KAQV AQV20160218212510702/18/16 21:25:31  5-MIN KAQV 190325Z AUTO 17006KT 10SM CLR 15/09 A3020 120 69 200 170/06 RMK AO2 T01500094
03949KAQV AQV20160218213010702/18/16 21:30:31  5-MIN KAQV 190330Z AUTO 18006KT 10SM CLR 15/10 A3020 120 72 200 170/06 RMK AO2 T01500100
03949KAQV AQV20160218213510702/18/16 21:35:31  5-MIN KAQV 190335Z AUTO VRB06KT 10SM CLR 15/10 A3020 120 72 200 VRB/06 RMK AO2 T01500100
03949KAQV AQV20160218214010702/18/16 21:40:31  5-MIN KAQV 190340Z AUTO 18006KT 10SM CLR 15/11 A3020 120 74 200 180/06 RMK AO2 T01500106
03949KAQV AQV20160218214510702/18/16 21:45:31  5-MIN KAQV 190345Z AUTO VRB05KT 10SM CLR 14/11 A3020 120 77 100 VRB/05 RMK AO2 T01440106
03949KAQV AQV20160218215011402/18/16 21:50:31  5-MIN KAQV 190350Z AUTO 17005KT 10SM CLR 14/11 A3020 120 77 100 170/05 RMK AO2 SLP227 T01440106
03949KAQV AQV20160218215511402/18/16 21:55:31  5-MIN KAQV 190355Z AUTO 18007KT 10SM CLR 14/11 A3020 110 77 100 170/07 RMK AO2 SLP227 T01440106
03949KAQV AQV20160218220010702/18/16 22:00:31  5-MIN KAQV 190400Z AUTO 18005KT 10SM CLR 14/11 A3021 110 77 100 180/05 RMK AO2 T01440106
03949KAQV AQV20160218220510702/18/16 22:05:31  5-MIN KAQV 190405Z AUTO 18005KT 10SM CLR 14/11 A3021 110 80 100 170/05 RMK AO2 T01440111
03949KAQV AQV20160218221010702/18/16 22:10:31  5-MIN KAQV 190410Z AUTO 17006KT 10SM CLR 14/11 A3021 110 80 100 170/06 RMK AO2 T01440111
03949KAQV AQV20160218221510502/18/16 22:15:31  5-MIN KAQV 190415Z AUTO 18005KT 10SM CLR 14/11 A3021 110 83 0 170/05 RMK AO2 T01390111
03949KAQV AQV20160218222010702/18/16 22:20:31  5-MIN KAQV 190420Z AUTO 18006KT 10SM CLR 14/11 A3021 110 80 100 180/06 RMK AO2 T01440111
03949KAQV AQV20160218222510702/18/16 22:25:31  5-MIN KAQV 190425Z AUTO 18006KT 10SM CLR 14/11 A3021 110 80 100 170/06 RMK AO2 T01440111
03949KAQV AQV20160218223010502/18/16 22:30:31  5-MIN KAQV 190430Z AUTO 18006KT 10SM CLR 14/12 A3021 110 86 0 170/06 RMK AO2 T01390117
03949KAQV AQV20160218223510502/18/16 22:35:31  5-MIN KAQV 190435Z AUTO 17007KT 10SM CLR 14/12 A3020 110 86 0 170/07 RMK AO2 T01390117
03949KAQV AQV20160218224010702/18/16 22:40:31  5-MIN KAQV 190440Z AUTO 17007KT 10SM CLR 14/12 A3020 120 86 100 170/07 RMK AO2 T01390117
03949KAQV AQV20160218224510702/18/16 22:45:31  5-MIN KAQV 190445Z AUTO 17007KT 10SM CLR 14/12 A3020 120 86 100 170/07 RMK AO2 T01390117
03949KAQV AQV20160218225011402/18/16 22:50:31  5-MIN KAQV 190450Z AUTO 18008KT 10SM CLR 14/12 A3020 120 86 100 170/08 RMK AO2 SLP225 T01390117
03949KAQV AQV20160218225511702/18/16 22:55:31  5-MIN KAQV 190455Z AUTO 18006KT 10SM FEW013 14/12 A3020 120 86 100 170/06 RMK AO2 SLP224 T01390117
03949KAQV AQV20160218230011002/18/16 23:00:31  5-MIN KAQV 190500Z AUTO 18007KT 10SM FEW013 14/12 A3020 120 86 100 180/07 RMK AO2 T01390117
03949KAQV AQV20160218230512602/18/16 23:05:31  5-MIN KAQV 190505Z AUTO 17007KT 130V200 10SM FEW013 14/12 A3019 130 86 100 170/07 130V200 RMK AO2 T01390117
03949KAQV AQV20160218231011002/18/16 23:10:31  5-MIN KAQV 190510Z AUTO 18007KT 10SM FEW013 14/12 A3019 130 90 100 170/07 RMK AO2 T01390122
03949KAQV AQV20160218231507502/18/16 23:15:31  5-MIN KAQV 190515Z AUTO 18009KT 10SM SCT013 14/12 A3019 
03949KAQV AQV20160218231511002/18/16 23:15:31  5-MIN KAQV 190515Z AUTO 18009KT 10SM SCT013 14/12 A3019 130 90 100 170/09 RMK AO2 T01390122
03949KAQV AQV20160218232011002/18/16 23:20:31  5-MIN KAQV 190520Z AUTO 18007KT 10SM BKN012 14/12 A3019 130 90 100 170/07 RMK AO2 T01390122
03949KAQV AQV20160218232511002/18/16 23:25:31  5-MIN KAQV 190525Z AUTO 18009KT 10SM BKN012 14/12 A3019 130 90 100 180/09 RMK AO2 T01390122
03949KAQV AQV20160218233011002/18/16 23:30:31  5-MIN KAQV 190530Z AUTO 18007KT 10SM BKN012 14/12 A3019 130 90 100 170/07 RMK AO2 T01390122
03949KAQV AQV20160218233511002/18/16 23:35:31  5-MIN KAQV 190535Z AUTO 17009KT 10SM BKN012 14/12 A3018 130 90 100 160/09 RMK AO2 T01390122
03949KAQV AQV20160218234011602/18/16 23:40:31  5-MIN KAQV 190540Z AUTO 17009G15KT 10SM OVC012 14/12 A3019 130 86 100 170/09G15 RMK AO2 T01440122
03949KAQV AQV20160218234511602/18/16 23:45:31  5-MIN KAQV 190545Z AUTO 18010G16KT 10SM OVC010 14/12 A3019 130 86 100 170/10G16 RMK AO2 T01440122
03949KAQV AQV20160218235015102/18/16 23:50:31  5-MIN KAQV 190550Z AUTO 17007G16KT 10SM OVC010 14/12 A3019 130 86 100 170/07G16 RMK AO2 SLP221 T01440122 10200 20139 402500028 53007
03949KAQV AQV20160218235514502/18/16 23:55:31  5-MIN KAQV 190555Z AUTO 17005KT 10SM OVC010 14/12 A3019 130 86 100 160/05 RMK AO2 SLP221 T01440122 10200 20139 402500028 53007
03949KAQV AQV20160219000011002/19/16 00:00:31  5-MIN KAQV 190600Z AUTO 18008KT 10SM OVC010 14/12 A3019 130 86 100 170/08 RMK AO2 T01440122
03949KAQV AQV20160219000511602/19/16 00:05:31  5-MIN KAQV 190605Z AUTO 18007G16KT 10SM OVC010 14/12 A3019 130 86 100 170/07G16 RMK AO2 T01440122
03949KAQV AQV20160219001011602/19/16 00:10:31  5-MIN KAQV 190610Z AUTO VRB05G16KT 10SM OVC010 14/13 A3019 130 90 100 VRB/05G16 RMK AO2 T01440128
03949KAQV AQV20160219001512602/19/16 00:15:31  5-MIN KAQV 190615Z AUTO 17008KT 130V200 10SM OVC010 14/13 A3019 130 90 100 170/08 130V200 RMK AO2 T01440128
03949KAQV AQV20160219002012602/19/16 00:20:31  5-MIN KAQV 190620Z AUTO 18008KT 160V230 10SM OVC010 14/13 A3019 130 90 100 180/08 160V230 RMK AO2 T01440128
03949KAQV AQV20160219002511002/19/16 00:25:31  5-MIN KAQV 190625Z AUTO VRB06KT 10SM OVC011 15/13 A3019 130 86 200 VRB/06 RMK AO2 T01500128
03949KAQV AQV20160219003011002/19/16 00:30:31  5-MIN KAQV 190630Z AUTO 18008KT 10SM OVC011 15/13 A3019 130 86 200 180/08 RMK AO2 T01500128
03949KAQV AQV20160219003511002/19/16 00:35:31  5-MIN KAQV 190635Z AUTO 18006KT 10SM OVC011 15/13 A3019 130 86 200 170/06 RMK AO2 T01500128
03949KAQV AQV20160219004011002/19/16 00:40:31  5-MIN KAQV 190640Z AUTO 17007KT 10SM OVC011 15/13 A3019 130 86 200 170/07 RMK AO2 T01500128
03949KAQV AQV20160219064511002/19/16 06:45:31  5-MIN KAQV 191245Z AUTO 15003KT 10SM OVC032 15/13 A3019 120 90 200 150/03 RMK AO2 T01500133
03949KAQV AQV20160219065011702/19/16 06:50:31  5-MIN KAQV 191250Z AUTO 16003KT 10SM BKN032 15/13 A3020 120 90 200 160/03 RMK AO2 SLP225 T01500133
03949KAQV AQV20160219065511702/19/16 06:55:31  5-MIN KAQV 191255Z AUTO 00000KT 10SM BKN031 15/13 A3020 120 90 200 000/00 RMK AO2 SLP225 T01500133
03949KAQV AQV20160219070011002/19/16 07:00:31  5-MIN KAQV 191300Z AUTO 00000KT 10SM BKN031 14/13 A3020 120 93 100 000/00 RMK AO2 T01440133
03949KAQV AQV20160219070511002/19/16 07:05:31  5-MIN KAQV 191305Z AUTO 15003KT 10SM BKN031 14/13 A3020 120 93 100 150/03 RMK AO2 T01440133
03949KAQV AQV20160219071010902/19/16 07:10:31  5-MIN KAQV 191310Z AUTO 00000KT 9SM BKN030 14/13 A3020 120 93 100 000/00 RMK AO2 T01440133
03949KAQV AQV20160219071510902/19/16 07:15:31  5-MIN KAQV 191315Z AUTO 15003KT 7SM BKN030 14/13 A3020 120 93 100 150/03 RMK AO2 T01440133
03949KAQV AQV20160219072010902/19/16 07:20:31  5-MIN KAQV 191320Z AUTO VRB03KT 7SM BKN030 14/13 A3020 120 93 100 VRB/03 RMK AO2 T01440133
03949KAQV AQV20160219072511002/19/16 07:25:31  5-MIN KAQV 191325Z AUTO 16003KT 10SM BKN030 14/13 A3020 120 93 100 150/03 RMK AO2 T01440133
03949KAQV AQV20160219073011002/19/16 07:30:31  5-MIN KAQV 191330Z AUTO VRB03KT 10SM BKN030 14/13 A3020 120 93 100 VRB/03 RMK AO2 T01440133
03949KAQV AQV20160219073511002/19/16 07:35:31  5-MIN KAQV 191335Z AUTO 15003KT 10SM BKN029 15/13 A3020 120 90 200 150/03 RMK AO2 T01500133
03949KAQV AQV20160219074011002/19/16 07:40:31  5-MIN KAQV 191340Z AUTO VRB04KT 10SM BKN029 15/14 A3020 120 93 200 VRB/04 RMK AO2 T01500139
03949KAQV AQV20160219074511002/19/16 07:45:31  5-MIN KAQV 191345Z AUTO 16006KT 10SM BKN029 15/14 A3020 120 93 200 160/06 RMK AO2 T01500139
03949KAQV AQV20160219075011702/19/16 07:50:31  5-MIN KAQV 191350Z AUTO VRB05KT 10SM BKN029 15/14 A3020 120 93 200 VRB/05 RMK AO2 SLP224 T01500139
03949KAQV AQV20160219075511702/19/16 07:55:31  5-MIN KAQV 191355Z AUTO 16005KT 10SM BKN028 15/14 A3020 120 93 200 160/05 RMK AO2 SLP224 T01500139
03949KAQV AQV20160219080010902/19/16 08:00:31  5-MIN KAQV 191400Z AUTO VRB05KT 9SM SCT028 16/14 A3020 120 90 300 VRB/05 RMK AO2 T01560139
03949KAQV AQV20160219080510902/19/16 08:05:31  5-MIN KAQV 191405Z AUTO 16006KT 9SM SCT027 16/14 A3020 120 90 300 160/06 RMK AO2 T01560139
03949KAQV AQV20160219081010902/19/16 08:10:31  5-MIN KAQV 191410Z AUTO 17006KT 9SM SCT027 16/14 A3020 120 90 300 160/06 RMK AO2 T01560139
03949KAQV AQV20160219081511002/19/16 08:15:31  5-MIN KAQV 191415Z AUTO VRB05KT 10SM FEW027 16/14 A3020 120 86 300 VRB/05 RMK AO2 T01610139
03949KAQV AQV20160219082011002/19/16 08:20:31  5-MIN KAQV 191420Z AUTO VRB06KT 10SM FEW027 16/14 A3020 120 86 300 VRB/06 RMK AO2 T01610139
03949KAQV AQV20160219082510702/19/16 08:25:31  5-MIN KAQV 191425Z AUTO 17007KT 10SM CLR 16/14 A3020 120 86 300 160/07 RMK AO2 T01610139
03949KAQV AQV20160219083010602/19/16 08:30:31  5-MIN KAQV 191430Z AUTO 17009KT 9SM CLR 16/14 A3019 120 86 300 170/09 RMK AO2 T01610139
03949KAQV AQV20160219083510602/19/16 08:35:31  5-MIN KAQV 191435Z AUTO 17005KT 9SM CLR 17/14 A3020 120 83 400 160/05 RMK AO2 T01670139
03949KAQV AQV20160219084010702/19/16 08:40:31  5-MIN KAQV 191440Z AUTO VRB05KT 10SM CLR 17/14 A3020 120 80 400 VRB/05 RMK AO2 T01720139
03949KAQV AQV20160219084510702/19/16 08:45:31  5-MIN KAQV 191445Z AUTO VRB03KT 10SM CLR 18/14 A3021 110 78 500 VRB/03 RMK AO2 T01780139
03949KAQV AQV20160219085012002/19/16 08:50:31  5-MIN KAQV 191450Z AUTO VRB06KT 10SM CLR 18/14 A3021 110 81 500 VRB/06 RMK AO2 SLP229 T01780144 53007
03949KAQV AQV20160219085512002/19/16 08:55:31  5-MIN KAQV 191455Z AUTO 17007KT 10SM CLR 18/14 A3021 110 78 500 160/07 RMK AO2 SLP228 T01780139 53007
03949KAQV AQV20160219090010702/19/16 09:00:31  5-MIN KAQV 191500Z AUTO 17008KT 10SM CLR 18/14 A3021 110 78 500 160/08 RMK AO2 T01780139
03949KAQV AQV20160219090511302/19/16 09:05:31  5-MIN KAQV 191505Z AUTO 17011G17KT 10SM CLR 18/14 A3021 110 78 500 160/11G17 RMK AO2 T01780139
03949KAQV AQV20160219091011302/19/16 09:10:31  5-MIN KAQV 191510Z AUTO 18009G17KT 10SM CLR 18/14 A3020 110 75 600 170/09G17 RMK AO2 T01830139
03949KAQV AQV20160219091511302/19/16 09:15:31  5-MIN KAQV 191515Z AUTO 18010G20KT 10SM CLR 19/14 A3020 110 72 600 170/10G20 RMK AO2 T01890139
03949KAQV AQV20160219092011302/19/16 09:20:31  5-MIN KAQV 191520Z AUTO 18010G20KT 10SM CLR 19/14 A3020 120 72 600 180/10G20 RMK AO2 T01890139
03949KAQV AQV20160219092513202/19/16 09:25:31  5-MIN KAQV 191525Z AUTO 17007G20KT 130V190 10SM FEW019 20/14 A3020 120 70 800 170/07G20 130V190 RMK AO2 T02000144
03949KAQV AQV20160219093011002/19/16 09:30:31  5-MIN KAQV 191530Z AUTO 19009KT 10SM FEW019 19/14 A3020 110 72 700 180/09 RMK AO2 T01940144
03949KAQV AQV20160219093511002/19/16 09:35:31  5-MIN KAQV 191535Z AUTO 18008KT 10SM FEW019 20/14 A3021 110 70 800 180/08 RMK AO2 T02000144
03949KAQV AQV20160219094012602/19/16 09:40:31  5-MIN KAQV 191540Z AUTO 17007KT 130V200 10SM FEW019 19/14 A3021 110 70 700 160/07 130V200 RMK AO2 T01940139
03949KAQV AQV20160219094513202/19/16 09:45:31  5-MIN KAQV 191545Z AUTO 17010G15KT 140V210 10SM FEW021 20/14 A3021 110 67 800 170/10G15 140V210 RMK AO2 T02000139
03949KAQV AQV20160219095012302/19/16 09:50:31  5-MIN KAQV 191550Z AUTO 19006G18KT 10SM FEW021 20/14 A3021 110 67 800 190/06G18 RMK AO2 SLP229 T02000139
03949KAQV AQV20160219095512302/19/16 09:55:31  5-MIN KAQV 191555Z AUTO 18008G21KT 10SM SCT021 20/14 A3022 100 67 800 170/08G21 RMK AO2 SLP231 T02000139
03949KAQV AQV20160219100011602/19/16 10:00:31  5-MIN KAQV 191600Z AUTO 18012G21KT 10SM SCT021 20/14 A3022 100 67 800 180/12G21 RMK AO2 T02000139
03949KAQV AQV20160219100511602/19/16 10:05:31  5-MIN KAQV 191605Z AUTO 18009G21KT 10SM SCT023 20/14 A3022 100 67 800 180/09G21 RMK AO2 T02000139
03949KAQV AQV20160219101012602/19/16 10:10:31  5-MIN KAQV 191610Z AUTO 19007KT 140V220 10SM FEW023 21/14 A3022 100 65 800 180/07 140V220 RMK AO2 T02060139
03949KAQV AQV20160219101511602/19/16 10:15:31  5-MIN KAQV 191615Z AUTO 19011G19KT 10SM FEW023 21/14 A3022 100 65 800 190/11G19 RMK AO2 T02060139
03949KAQV AQV20160219102011602/19/16 10:20:31  5-MIN KAQV 191620Z AUTO 18011G19KT 10SM FEW025 21/14 A3022 100 65 800 180/11G19 RMK AO2 T02060139
03949KAQV AQV20160219102513902/19/16 10:25:31  5-MIN KAQV 191625Z AUTO 19008G17KT 160V220 10SM FEW025 SCT030 21/14 A3022 100 65 800 190/08G17 160V220 RMK AO2 T02060139
03949KAQV AQV20160219103011602/19/16 10:30:31  5-MIN KAQV 191630Z AUTO 20011G15KT 10SM SCT027 21/14 A3022 100 63 900 190/11G15 RMK AO2 T02110139
03949KAQV AQV20160219103511602/19/16 10:35:31  5-MIN KAQV 191635Z AUTO 19010G19KT 10SM SCT027 22/14 A3022 100 61 900 180/10G19 RMK AO2 T02170139
03949KAQV AQV20160219104011702/19/16 10:40:31  5-MIN KAQV 191640Z AUTO 18009G19KT 10SM BKN028 22/13 A3021 110 56 1000 170/09G19 RMK AO2 T02220133
03949KAQV AQV20160219104513302/19/16 10:45:31  5-MIN KAQV 191645Z AUTO 19007G18KT 160V230 10SM BKN028 22/13 A3021 110 56 1000 180/07G18 160V230 RMK AO2 T02220133
03949KAQV AQV20160219105012202/19/16 10:50:31  5-MIN KAQV 191650Z AUTO 19007G15KT 160V220 8SM SCT028 22/13 A3021 110 56 1000 190/07G15 160V220 RMK AO2
03949KAQV AQV20160219105512302/19/16 10:55:31  5-MIN KAQV 191655Z AUTO 19007G15KT 8SM SCT028 23/13 A3021 110 55 1100 190/07G15 RMK AO2 SLP228 T02280133
03949KAQV AQV20160219110011702/19/16 11:00:31  5-MIN KAQV 191700Z AUTO 18010G19KT 10SM SCT028 22/13 A3021 110 56 1000 180/10G19 RMK AO2 T02220133
03949KAQV AQV20160219110511702/19/16 11:05:31  5-MIN KAQV 191705Z AUTO 19009G19KT 10SM FEW028 22/13 A3021 110 56 1000 190/09G19 RMK AO2 T02220133
03949KAQV AQV20160219111011702/19/16 11:10:31  5-MIN KAQV 191710Z AUTO 18010G16KT 10SM FEW031 23/13 A3020 120 55 1100 170/10G16 RMK AO2 T02280133
03949KAQV AQV20160219111513302/19/16 11:15:31  5-MIN KAQV 191715Z AUTO 19008G17KT 160V220 10SM FEW031 23/13 A3020 120 53 1100 180/08G17 160V220 RMK AO2 T02280128
03949KAQV AQV20160219112013302/19/16 11:20:31  5-MIN KAQV 191720Z AUTO 19010G19KT 170V230 10SM FEW031 23/13 A3020 120 51 1200 190/10G19 170V230 RMK AO2 T02330128
03949KAQV AQV20160219112513302/19/16 11:25:31  5-MIN KAQV 191725Z AUTO 18008G19KT 130V230 10SM FEW031 23/13 A3020 120 53 1100 180/08G19 130V230 RMK AO2 T02280128
03949KAQV AQV20160219113013302/19/16 11:30:31  5-MIN KAQV 191730Z AUTO 20008G19KT 180V260 10SM FEW031 23/13 A3020 120 53 1100 200/08G19 180V260 RMK AO2 T02280128
03949KAQV AQV20160219113511402/19/16 11:35:31  5-MIN KAQV 191735Z AUTO VRB06G15KT 10SM CLR 23/13 A3020 120 51 1200 VRB/06G15 RMK AO2 T02330128
03949KAQV AQV20160219114011402/19/16 11:40:31  5-MIN KAQV 191740Z AUTO 18009G18KT 10SM CLR 23/13 A3020 120 51 1200 180/09G18 RMK AO2 T02330128
03949KAQV AQV20160219114511402/19/16 11:45:31  5-MIN KAQV 191745Z AUTO 17009G18KT 10SM CLR 23/13 A3020 120 51 1200 170/09G18 RMK AO2 T02330128
03949KAQV AQV20160219115013902/19/16 11:50:31  5-MIN KAQV 191750Z AUTO VRB06G16KT 10SM CLR 24/13 A3020 120 49 1200 VRB/06G16 RMK AO2 SLP225 T02390128 10239 20144 53001
03949KAQV AQV20160219115515502/19/16 11:55:31  5-MIN KAQV 191755Z AUTO 16008G16KT 130V190 10SM CLR 24/13 A3019 130 49 1200 160/08G16 130V190 RMK AO2 SLP222 T02390128 10239 20144 53001
03949KAQV AQV20160219120010802/19/16 12:00:31  5-MIN KAQV 191800Z AUTO VRB05KT 10SM CLR 24/13 A3019 130 49 1200 VRB/05 RMK AO2 T02390128
03949KAQV AQV20160219120512402/19/16 12:05:31  5-MIN KAQV 191805Z AUTO 19010KT 150V210 10SM CLR 24/13 A3019 130 47 1300 180/10 150V210 RMK AO2 T02440128
03949KAQV AQV20160219121012402/19/16 12:10:31  5-MIN KAQV 191810Z AUTO 17007KT 120V240 10SM CLR 24/13 A3019 130 49 1200 160/07 120V240 RMK AO2 T02390128
03949KAQV AQV20160219121512702/19/16 12:15:31  5-MIN KAQV 191815Z AUTO 20007KT 150V260 10SM FEW040 24/13 A3019 130 49 1200 200/07 150V260 RMK AO2 T02390128
03949KAQV AQV20160219122011102/19/16 12:20:31  5-MIN KAQV 191820Z AUTO VRB05KT 10SM FEW040 24/13 A3019 130 49 1300 VRB/05 RMK AO2 T02440133
03949KAQV AQV20160219122511702/19/16 12:25:31  5-MIN KAQV 191825Z AUTO 20009G14KT 10SM FEW040 24/13 A3019 130 47 1300 190/09G14 RMK AO2 T02440128
03949KAQV AQV20160219123013302/19/16 12:30:31  5-MIN KAQV 191830Z AUTO 21009G14KT 180V240 10SM FEW040 24/13 A3018 140 49 1200 210/09G14 180V240 RMK AO2 T02390128
03949KAQV AQV20160219123513002/19/16 12:35:31  5-MIN KAQV 191835Z AUTO 20007G14KT 170V230 10SM CLR 24/13 A3018 140 47 1300 190/07G14 170V230 RMK AO2 T02440128
03949KAQV AQV20160219124012402/19/16 12:40:31  5-MIN KAQV 191840Z AUTO 18008KT 150V220 10SM CLR 24/13 A3017 140 47 1300 170/08 150V220 RMK AO2 T02440128
03949KAQV AQV20160219124512702/19/16 12:45:31  5-MIN KAQV 191845Z AUTO 16007KT 110V200 10SM FEW040 24/13 A3017 150 47 1300 160/07 110V200 RMK AO2 T02440128
03949KAQV AQV20160219125012402/19/16 12:50:31  5-MIN KAQV 191850Z AUTO 18009G17KT 10SM FEW040 24/13 A3017 140 49 1300 170/09G17 RMK AO2 SLP215 T02440133
03949KAQV AQV20160219125512102/19/16 12:55:31  5-MIN KAQV 191855Z AUTO 19010G17KT 10SM CLR 25/13 A3016 150 46 1400 180/10G17 RMK AO2 SLP213 T02500128
03949KAQV AQV20160219130011402/19/16 13:00:31  5-MIN KAQV 191900Z AUTO 20008G17KT 10SM CLR 24/13 A3015 160 47 1300 200/08G17 RMK AO2 T02440128
03949KAQV AQV20160219130513702/19/16 13:05:31  5-MIN KAQV 191905Z AUTO 18008G17KT 160V230 10SM CLR 24/13 A3015 170 49 1300 180/08G17 160V230 RMK AO2 PRESFR T02440133
03949KAQV AQV20160219131013702/19/16 13:10:31  5-MIN KAQV 191910Z AUTO 19007G15KT 150V230 10SM CLR 24/13 A3014 170 47 1300 180/07G15 150V230 RMK AO2 PRESFR T02440128
03949KAQV AQV20160219131513002/19/16 13:15:31  5-MIN KAQV 191915Z AUTO 20007G15KT 180V240 10SM CLR 25/13 A3014 180 48 1400 200/07G15 180V240 RMK AO2 T02500133
03949KAQV AQV20160219132010802/19/16 13:20:31  5-MIN KAQV 191920Z AUTO VRB05KT 10SM CLR 26/13 A3014 170 46 1500 VRB/05 RMK AO2 T02560133
03949KAQV AQV20160219132510802/19/16 13:25:31  5-MIN KAQV 191925Z AUTO VRB06KT 10SM CLR 26/13 A3014 170 43 1500 VRB/06 RMK AO2 T02610128
03949KAQV AQV20160219133012402/19/16 13:30:31  5-MIN KAQV 191930Z AUTO 20008KT 180V240 10SM CLR 26/13 A3014 170 43 1500 200/08 180V240 RMK AO2 T02610128
03949KAQV AQV20160219133511402/19/16 13:35:31  5-MIN KAQV 191935Z AUTO 20009G17KT 10SM CLR 26/12 A3014 170 43 1500 190/09G17 RMK AO2 T02560122
03949KAQV AQV20160219134011402/19/16 13:40:31  5-MIN KAQV 191940Z AUTO 20009G17KT 10SM CLR 26/13 A3014 180 44 1500 200/09G17 RMK AO2 T02560128
03949KAQV AQV20160219134511702/19/16 13:45:31  5-MIN KAQV 191945Z AUTO 21007G17KT 10SM FEW045 24/13 A3013 180 47 1400 200/07G17 RMK AO2 T02440128
03949KAQV AQV20160219135014002/19/16 13:50:31  5-MIN KAQV 191950Z AUTO 21008G17KT 160V260 10SM SCT045 25/13 A3014 180 46 1400 210/08G17 160V260 RMK AO2 SLP203 T02500128
03949KAQV AQV20160219135514002/19/16 13:55:31  5-MIN KAQV 191955Z AUTO 19011G17KT 170V240 10SM SCT045 25/12 A3014 180 44 1400 190/11G17 170V240 RMK AO2 SLP203 T02500122
03949KAQV AQV20160219140013302/19/16 14:00:31  5-MIN KAQV 192000Z AUTO 19007G17KT 140V220 10SM SCT046 25/13 A3013 180 46 1400 190/07G17 140V220 RMK AO2 T02500128
03949KAQV AQV20160219140513302/19/16 14:05:31  5-MIN KAQV 192005Z AUTO 20008G15KT 170V250 10SM SCT046 26/13 A3013 180 43 1500 200/08G15 170V250 RMK AO2 T02610128
03949KAQV AQV20160219141011702/19/16 14:10:31  5-MIN KAQV 192010Z AUTO VRB05G16KT 10SM SCT046 26/13 A3013 180 44 1500 VRB/05G16 RMK AO2 T02560128
03949KAQV AQV20160219141511702/19/16 14:15:31  5-MIN KAQV 192015Z AUTO VRB06G16KT 10SM SCT046 26/13 A3013 180 44 1500 VRB/06G16 RMK AO2 T02560128
03949KAQV AQV20160219142013302/19/16 14:20:31  5-MIN KAQV 192020Z AUTO 18008G15KT 140V230 10SM SCT046 25/13 A3014 180 46 1400 180/08G15 140V230 RMK AO2 T02500128
03949KAQV AQV20160219142512702/19/16 14:25:31  5-MIN KAQV 192025Z AUTO 20008KT 150V260 10SM SCT047 26/13 A3013 180 44 1500 200/08 150V260 RMK AO2 T02560128
03949KAQV AQV20160219143011102/19/16 14:30:31  5-MIN KAQV 192030Z AUTO VRB04KT 10SM SCT049 25/13 A3013 180 46 1400 VRB/04 RMK AO2 T02500128
03949KAQV AQV20160219143511702/19/16 14:35:31  5-MIN KAQV 192035Z AUTO 19010G15KT 10SM SCT049 25/12 A3013 180 44 1400 190/10G15 RMK AO2 T02500122
03949KAQV AQV20160219144011702/19/16 14:40:31  5-MIN KAQV 192040Z AUTO 19007G15KT 10SM SCT049 25/12 A3013 190 44 1400 190/07G15 RMK AO2 T02500122
03949KAQV AQV20160219144511702/19/16 14:45:31  5-MIN KAQV 192045Z AUTO 20009G16KT 10SM SCT049 26/12 A3012 190 43 1500 200/09G16 RMK AO2 T02560122
03949KAQV AQV20160219145013002/19/16 14:50:31  5-MIN KAQV 192050Z AUTO 17010G17KT 10SM FEW049 25/12 A3012 190 44 1400 170/10G17 RMK AO2 SLP199 T02500122 58008
03949KAQV AQV20160219145514602/19/16 14:55:31  5-MIN KAQV 192055Z AUTO 18008G17KT 140V210 10SM FEW049 25/12 A3012 190 44 1400 170/08G17 140V210 RMK AO2 SLP197 T02500122 58008
03949KAQV AQV20160219150011702/19/16 15:00:31  5-MIN KAQV 192100Z AUTO 18010G18KT 10SM FEW049 25/12 A3012 190 44 1400 170/10G18 RMK AO2 T02500122
03949KAQV AQV20160219150511702/19/16 15:05:31  5-MIN KAQV 192105Z AUTO 21009G18KT 10SM FEW049 25/12 A3012 190 44 1400 210/09G18 RMK AO2 T02500122
03949KAQV AQV20160219151012702/19/16 15:10:31  5-MIN KAQV 192110Z AUTO 20007KT 130V280 10SM FEW049 26/12 A3012 190 43 1500 190/07 130V280 RMK AO2 T02560122
03949KAQV AQV20160219151511102/19/16 15:15:31  5-MIN KAQV 192115Z AUTO 19008KT 10SM FEW049 26/12 A3012 190 43 1500 190/08 RMK AO2 T02560122
03949KAQV AQV20160219152012702/19/16 15:20:31  5-MIN KAQV 192120Z AUTO 18008KT 140V220 10SM FEW049 25/12 A3012 190 44 1400 180/08 140V220 RMK AO2 T02500122
03949KAQV AQV20160219152511102/19/16 15:25:31  5-MIN KAQV 192125Z AUTO VRB05KT 10SM FEW050 25/12 A3012 200 43 1400 VRB/05 RMK AO2 T02500117
03949KAQV AQV20160219153012702/19/16 15:30:31  5-MIN KAQV 192130Z AUTO 19007KT 150V220 10SM FEW050 25/12 A3011 200 44 1400 180/07 150V220 RMK AO2 T02500122
03949KAQV AQV20160219153511102/19/16 15:35:31  5-MIN KAQV 192135Z AUTO 17007KT 10SM FEW050 25/12 A3012 200 44 1400 170/07 RMK AO2 T02500122
03949KAQV AQV20160219154011102/19/16 15:40:31  5-MIN KAQV 192140Z AUTO 17007KT 10SM SCT050 25/12 A3011 200 44 1400 170/07 RMK AO2 T02500122
03949KAQV AQV20160219154511702/19/16 15:45:31  5-MIN KAQV 192145Z AUTO 18005G16KT 10SM FEW050 24/12 A3012 200 46 1400 180/05G16 RMK AO2 T02440122
03949KAQV AQV20160219155014002/19/16 15:50:31  5-MIN KAQV 192150Z AUTO 18008G16KT 160V220 10SM SCT050 24/12 A3011 200 46 1400 170/08G16 160V220 RMK AO2 SLP195 T02440122
03949KAQV AQV20160219155512402/19/16 15:55:31  5-MIN KAQV 192155Z AUTO 16009G14KT 10SM SCT050 24/12 A3011 200 46 1400 160/09G14 RMK AO2 SLP194 T02440122
03949KAQV AQV20160219160011702/19/16 16:00:31  5-MIN KAQV 192200Z AUTO 17009G16KT 10SM FEW050 24/12 A3011 200 46 1400 170/09G16 RMK AO2 T02440122
03949KAQV AQV20160219160511702/19/16 16:05:31  5-MIN KAQV 192205Z AUTO 18008G16KT 10SM SCT050 24/12 A3011 200 47 1300 180/08G16 RMK AO2 T02390122
03949KAQV AQV20160219161013302/19/16 16:10:31  5-MIN KAQV 192210Z AUTO 18008G15KT 160V220 10SM SCT050 24/12 A3011 200 46 1400 180/08G15 160V220 RMK AO2 T02440122
03949KAQV AQV20160219161511702/19/16 16:15:31  5-MIN KAQV 192215Z AUTO 19008G15KT 10SM SCT050 25/13 A3011 200 46 1400 180/08G15 RMK AO2 T02500128
03949KAQV AQV20160219162013302/19/16 16:20:31  5-MIN KAQV 192220Z AUTO 19008G16KT 170V230 10SM FEW050 24/12 A3012 200 47 1300 190/08G16 170V230 RMK AO2 T02390122
03949KAQV AQV20160219162511702/19/16 16:25:31  5-MIN KAQV 192225Z AUTO 19007G16KT 10SM FEW050 24/12 A3012 190 47 1300 190/07G16 RMK AO2 T02390122
03949KAQV AQV20160219163013302/19/16 16:30:31  5-MIN KAQV 192230Z AUTO 19009G15KT 160V250 10SM SCT050 24/12 A3012 190 46 1400 180/09G15 160V250 RMK AO2 T02440122
03949KAQV AQV20160219163511702/19/16 16:35:31  5-MIN KAQV 192235Z AUTO VRB06G15KT 10SM FEW050 24/12 A3013 190 46 1400 VRB/06G15 RMK AO2 T02440122
03949KAQV AQV20160219164011702/19/16 16:40:31  5-MIN KAQV 192240Z AUTO 18009G16KT 10SM SCT050 23/12 A3012 190 49 1200 180/09G16 RMK AO2 T02330122
03949KAQV AQV20160219164511702/19/16 16:45:31  5-MIN KAQV 192245Z AUTO 18009G17KT 10SM SCT050 23/12 A3012 190 49 1200 180/09G17 RMK AO2 T02330122
03949KAQV AQV20160219165010802/19/16 16:50:31  5-MIN KAQV 192250Z AUTO 10SM FEW050 24/13 A3012 200 49 1300 M /M RMK AO2 SLP197 T02390128
03949KAQV AQV20160219165511802/19/16 16:55:31  5-MIN KAQV 192255Z AUTO 19009KT 10SM FEW050 23/13 A3012 200 51 1300 180/09 RMK AO2 SLP196 T02330128
03949KAQV AQV20160219170013302/19/16 17:00:31  5-MIN KAQV 192300Z AUTO 19008G15KT 150V220 10SM FEW050 23/12 A3011 200 49 1300 180/08G15 150V220 RMK AO2 T02330122
03949KAQV AQV20160219170513302/19/16 17:05:31  5-MIN KAQV 192305Z AUTO 19009G16KT 150V220 10SM FEW050 23/13 A3011 200 51 1300 190/09G16 150V220 RMK AO2 T02330128
03949KAQV AQV20160219171011402/19/16 17:10:31  5-MIN KAQV 192310Z AUTO 18011G17KT 10SM CLR 23/13 A3012 200 51 1200 170/11G17 RMK AO2 T02330128
03949KAQV AQV20160219171513002/19/16 17:15:31  5-MIN KAQV 192315Z AUTO 17008G17KT 140V210 10SM CLR 23/12 A3012 190 51 1200 170/08G17 140V210 RMK AO2 T02280122
03949KAQV AQV20160219172011402/19/16 17:20:31  5-MIN KAQV 192320Z AUTO 19007G16KT 10SM CLR 23/12 A3012 190 51 1200 180/07G16 RMK AO2 T02280122
03949KAQV AQV20160219172513002/19/16 17:25:31  5-MIN KAQV 192325Z AUTO 18007G16KT 130V200 10SM CLR 22/12 A3012 190 52 1100 170/07G16 130V200 RMK AO2 T02220122
03949KAQV AQV20160219173010802/19/16 17:30:31  5-MIN KAQV 192330Z AUTO 19008KT 10SM CLR 22/12 A3012 190 52 1100 180/08 RMK AO2 T02220122
03949KAQV AQV20160219173510802/19/16 17:35:31  5-MIN KAQV 192335Z AUTO 18006KT 10SM CLR 22/12 A3012 190 52 1100 180/06 RMK AO2 T02220122
03949KAQV AQV20160219174010802/19/16 17:40:31  5-MIN KAQV 192340Z AUTO VRB05KT 10SM CLR 22/13 A3012 190 54 1100 VRB/05 RMK AO2 T02220128
03949KAQV AQV20160219174510802/19/16 17:45:31  5-MIN KAQV 192345Z AUTO VRB03KT 10SM CLR 22/13 A3013 190 56 1000 VRB/03 RMK AO2 T02170128
03949KAQV AQV20160219175013302/19/16 17:50:31  5-MIN KAQV 192350Z AUTO 18005KT 10SM CLR 21/12 A3013 180 56 1000 180/05 RMK AO2 SLP200 T02110122 10261 20211 56024
03949KAQV AQV20160219175513302/19/16 17:55:31  5-MIN KAQV 192355Z AUTO 18007KT 10SM CLR 22/12 A3013 190 54 1000 180/07 RMK AO2 SLP200 T02170122 10261 20211 56024
03949KAQV AQV20160219180010802/19/16 18:00:31  5-MIN KAQV 200000Z AUTO 19006KT 10SM CLR 21/12 A3012 190 56 1000 180/06 RMK AO2 T02110122
03949KAQV AQV20160219180510802/19/16 18:05:31  5-MIN KAQV 200005Z AUTO 17005KT 10SM CLR 21/12 A3013 190 56 1000 170/05 RMK AO2 T02110122
03949KAQV AQV20160219181010702/19/16 18:10:31  5-MIN KAQV 200010Z AUTO 17004KT 10SM CLR 21/12 A3012 190 58 900 170/04 RMK AO2 T02060122
03949KAQV AQV20160219181512302/19/16 18:15:31  5-MIN KAQV 200015Z AUTO 17007KT 140V200 10SM CLR 21/12 A3012 190 58 900 170/07 140V200 RMK AO2 T02060122
03949KAQV AQV20160219182010702/19/16 18:20:31  5-MIN KAQV 200020Z AUTO 18005KT 10SM CLR 21/12 A3012 190 58 900 170/05 RMK AO2 T02060122
03949KAQV AQV20160219182510702/19/16 18:25:31  5-MIN KAQV 200025Z AUTO 18005KT 10SM CLR 21/12 A3013 190 58 900 170/05 RMK AO2 T02060122
03949KAQV AQV20160219183010702/19/16 18:30:31  5-MIN KAQV 200030Z AUTO VRB04KT 10SM CLR 21/12 A3013 190 58 900 VRB/04 RMK AO2 T02060122
03949KAQV AQV20160219183510702/19/16 18:35:31  5-MIN KAQV 200035Z AUTO 17004KT 10SM CLR 20/12 A3013 190 60 900 170/04 RMK AO2 T02000122
03949KAQV AQV20160219184010702/19/16 18:40:31  5-MIN KAQV 200040Z AUTO 18005KT 10SM CLR 20/12 A3013 180 60 900 180/05 RMK AO2 T02000122
03949KAQV AQV20160219193010702/19/16 19:30:31  5-MIN KAQV 200130Z AUTO VRB05KT 10SM CLR 19/13 A3012 190 70 700 VRB/05 RMK AO2 T01890133
03949KAQV AQV20160219193510702/19/16 19:35:31  5-MIN KAQV 200135Z AUTO 18006KT 10SM CLR 19/13 A3012 190 70 700 180/06 RMK AO2 T01890133
03949KAQV AQV20160219194010702/19/16 19:40:31  5-MIN KAQV 200140Z AUTO 18005KT 10SM CLR 19/13 A3012 190 70 700 180/05 RMK AO2 T01890133
03949KAQV AQV20160219194510702/19/16 19:45:31  5-MIN KAQV 200145Z AUTO 19005KT 10SM CLR 19/13 A3013 190 70 700 180/05 RMK AO2 T01890133
03949KAQV AQV20160219195013002/19/16 19:50:31  5-MIN KAQV 200150Z AUTO 18008KT 150V230 10SM CLR 19/13 A3013 180 70 700 180/08 150V230 RMK AO2 SLP201 T01890133
03949KAQV AQV20160219195513002/19/16 19:55:31  5-MIN KAQV 200155Z AUTO 18007KT 160V220 10SM CLR 19/14 A3013 180 72 700 180/07 160V220 RMK AO2 SLP201 T01890139
03949KAQV AQV20160219200010702/19/16 20:00:31  5-MIN KAQV 200200Z AUTO 19007KT 10SM CLR 19/14 A3013 190 72 700 180/07 RMK AO2 T01890139
03949KAQV AQV20160219200510702/19/16 20:05:31  5-MIN KAQV 200205Z AUTO VRB06KT 10SM CLR 18/14 A3013 190 75 700 VRB/06 RMK AO2 T01830139
03949KAQV AQV20160219201010702/19/16 20:10:31  5-MIN KAQV 200210Z AUTO 18006KT 10SM CLR 18/14 A3013 180 75 700 180/06 RMK AO2 T01830139
03949KAQV AQV20160219201510702/19/16 20:15:31  5-MIN KAQV 200215Z AUTO VRB04KT 10SM CLR 18/14 A3013 180 75 700 VRB/04 RMK AO2 T01830139
03949KAQV AQV20160219202010702/19/16 20:20:31  5-MIN KAQV 200220Z AUTO 19004KT 10SM CLR 18/14 A3014 180 75 600 190/04 RMK AO2 T01830139
03949KAQV AQV20160219202510702/19/16 20:25:31  5-MIN KAQV 200225Z AUTO 18008KT 10SM CLR 18/14 A3014 180 75 600 180/08 RMK AO2 T01830139
03949KAQV AQV20160219203010702/19/16 20:30:31  5-MIN KAQV 200230Z AUTO 19006KT 10SM CLR 18/14 A3014 180 75 600 180/06 RMK AO2 T01830139
03949KAQV AQV20160219203512302/19/16 20:35:31  5-MIN KAQV 200235Z AUTO 17007KT 140V200 10SM CLR 18/14 A3014 180 75 600 160/07 140V200 RMK AO2 T01830139
03949KAQV AQV20160219204010702/19/16 20:40:31  5-MIN KAQV 200240Z AUTO VRB05KT 10SM CLR 18/14 A3014 170 75 600 VRB/05 RMK AO2 T01830139
03949KAQV AQV20160219204510702/19/16 20:45:31  5-MIN KAQV 200245Z AUTO 18005KT 10SM CLR 18/14 A3014 170 75 600 180/05 RMK AO2 T01830139
03949KAQV AQV20160219205007502/19/16 20:50:31  5-MIN KAQV 200250Z AUTO VRB04KT 10SM CLR 18/14 A3014 170
03949KAQV AQV20160220154511702/20/16 15:45:31  5-MIN KAQV 202145Z AUTO VRB05G15KT 10SM FEW046 24/12 A3004 270 46 1500 VRB/05G15 RMK AO2 T02440122
03949KAQV AQV20160220155012402/20/16 15:50:31  5-MIN KAQV 202150Z AUTO VRB04G14KT 10SM FEW047 24/12 A3004 270 46 1500 VRB/04G14 RMK AO2 SLP170 T02440122
03949KAQV AQV20160220155513402/20/16 15:55:31  5-MIN KAQV 202155Z AUTO 19007KT 150V230 10SM FEW047 24/13 A3004 270 47 1500 180/07 150V230 RMK AO2 SLP170 T02440128
03949KAQV AQV20160220160013002/20/16 16:00:31  5-MIN KAQV 202200Z AUTO 20008G15KT 180V240 10SM CLR 24/12 A3004 270 46 1500 200/08G15 180V240 RMK AO2 T02440122
03949KAQV AQV20160220160511402/20/16 16:05:31  5-MIN KAQV 202205Z AUTO VRB06G15KT 10SM CLR 24/12 A3003 270 47 1400 VRB/06G15 RMK AO2 T02390122
03949KAQV AQV20160220161010802/20/16 16:10:31  5-MIN KAQV 202210Z AUTO 19006KT 10SM CLR 24/12 A3003 270 47 1400 180/06 RMK AO2 T02390122
03949KAQV AQV20160220161510802/20/16 16:15:31  5-MIN KAQV 202215Z AUTO VRB05KT 10SM CLR 24/12 A3003 270 47 1400 VRB/05 RMK AO2 T02390122
03949KAQV AQV20160220162010802/20/16 16:20:31  5-MIN KAQV 202220Z AUTO VRB04KT 10SM CLR 24/13 A3003 270 47 1500 VRB/04 RMK AO2 T02440128
03949KAQV AQV20160220162512402/20/16 16:25:31  5-MIN KAQV 202225Z AUTO 18008KT 160V230 10SM CLR 24/13 A3003 270 47 1500 180/08 160V230 RMK AO2 T02440128
03949KAQV AQV20160220163010802/20/16 16:30:31  5-MIN KAQV 202230Z AUTO 20007KT 10SM CLR 24/13 A3003 280 49 1400 190/07 RMK AO2 T02390128
03949KAQV AQV20160220163510802/20/16 16:35:31  5-MIN KAQV 202235Z AUTO 19007KT 10SM CLR 24/13 A3003 280 49 1400 190/07 RMK AO2 T02390128
03949KAQV AQV20160220164012402/20/16 16:40:31  5-MIN KAQV 202240Z AUTO 18008KT 140V210 10SM CLR 24/13 A3002 280 49 1400 170/08 140V210 RMK AO2 T02390128
03949KAQV AQV20160220164510802/20/16 16:45:31  5-MIN KAQV 202245Z AUTO 18006KT 10SM CLR 24/13 A3002 280 49 1400 180/06 RMK AO2 T02390128
03949KAQV AQV20160220165011502/20/16 16:50:31  5-MIN KAQV 202250Z AUTO VRB06KT 10SM CLR 24/13 A3002 280 49 1400 VRB/06 RMK AO2 SLP165 T02390128
03949KAQV AQV20160220165512102/20/16 16:55:31  5-MIN KAQV 202255Z AUTO 19008G15KT 10SM CLR 23/13 A3002 280 51 1400 180/08G15 RMK AO2 SLP164 T02330128
03949KAQV AQV20160220170011402/20/16 17:00:31  5-MIN KAQV 202300Z AUTO VRB06G15KT 10SM CLR 23/12 A3002 280 49 1400 VRB/06G15 RMK AO2 T02330122
03949KAQV AQV20160220170510802/20/16 17:05:31  5-MIN KAQV 202305Z AUTO 18007KT 10SM CLR 23/12 A3002 290 49 1400 170/07 RMK AO2 T02330122
03949KAQV AQV20160220171010802/20/16 17:10:31  5-MIN KAQV 202310Z AUTO 17008KT 10SM CLR 23/12 A3002 290 51 1300 170/08 RMK AO2 T02280122
03949KAQV AQV20160220171510802/20/16 17:15:31  5-MIN KAQV 202315Z AUTO VRB06KT 10SM CLR 23/13 A3002 290 53 1300 VRB/06 RMK AO2 T02280128
03949KAQV AQV20160220172012402/20/16 17:20:31  5-MIN KAQV 202320Z AUTO 19007KT 170V230 10SM CLR 23/13 A3002 280 53 1300 180/07 170V230 RMK AO2 T02280128
03949KAQV AQV20160220172510802/20/16 17:25:31  5-MIN KAQV 202325Z AUTO 18006KT 10SM CLR 23/13 A3002 280 53 1300 180/06 RMK AO2 T02280128
03949KAQV AQV20160220173010802/20/16 17:30:31  5-MIN KAQV 202330Z AUTO 19005KT 10SM CLR 22/13 A3002 280 54 1200 180/05 RMK AO2 T02220128
03949KAQV AQV20160220173510802/20/16 17:35:31  5-MIN KAQV 202335Z AUTO 19005KT 10SM CLR 22/13 A3002 280 54 1200 180/05 RMK AO2 T02220128
03949KAQV AQV20160220174010802/20/16 17:40:31  5-MIN KAQV 202340Z AUTO 19007KT 10SM CLR 22/13 A3003 280 54 1200 190/07 RMK AO2 T02220128
03949KAQV AQV20160220174510802/20/16 17:45:31  5-MIN KAQV 202345Z AUTO VRB04KT 10SM CLR 22/13 A3003 280 56 1200 VRB/04 RMK AO2 T02170128
03949KAQV AQV20160220175013302/20/16 17:50:31  5-MIN KAQV 202350Z AUTO 19004KT 10SM CLR 22/13 A3003 280 56 1200 180/04 RMK AO2 SLP167 T02170128 10250 20217 56030
03949KAQV AQV20160220175513302/20/16 17:55:31  5-MIN KAQV 202355Z AUTO 18006KT 10SM CLR 22/13 A3003 280 56 1200 170/06 RMK AO2 SLP166 T02170128 10250 20217 56030
03949KAQV AQV20160220180010802/20/16 18:00:31  5-MIN KAQV 210000Z AUTO VRB04KT 10SM CLR 22/13 A3002 280 56 1200 VRB/04 RMK AO2 T02170128
03949KAQV AQV20160220180510802/20/16 18:05:31  5-MIN KAQV 210005Z AUTO 17004KT 10SM CLR 21/13 A3002 280 58 1100 170/04 RMK AO2 T02110128
03949KAQV AQV20160220181010802/20/16 18:10:31  5-MIN KAQV 210010Z AUTO 17004KT 10SM CLR 21/13 A3002 280 58 1100 170/04 RMK AO2 T02110128
03949KAQV AQV20160220181510802/20/16 18:15:31  5-MIN KAQV 210015Z AUTO VRB03KT 10SM CLR 21/13 A3003 280 58 1100 VRB/03 RMK AO2 T02110128
03949KAQV AQV20160220182010802/20/16 18:20:31  5-MIN KAQV 210020Z AUTO 18004KT 10SM CLR 21/13 A3003 280 58 1100 170/04 RMK AO2 T02110128
03949KAQV AQV20160220182510802/20/16 18:25:31  5-MIN KAQV 210025Z AUTO 17004KT 10SM CLR 21/13 A3003 280 60 1000 170/04 RMK AO2 T02060128
03949KAQV AQV20160220183010802/20/16 18:30:31  5-MIN KAQV 210030Z AUTO VRB04KT 10SM CLR 21/13 A3003 270 60 1000 VRB/04 RMK AO2 T02060128
03949KAQV AQV20160220183510802/20/16 18:35:31  5-MIN KAQV 210035Z AUTO VRB06KT 10SM CLR 21/13 A3003 270 58 1100 VRB/06 RMK AO2 T02110128
03949KAQV AQV20160220184010802/20/16 18:40:31  5-MIN KAQV 210040Z AUTO 19005KT 10SM CLR 21/13 A3003 270 58 1100 180/05 RMK AO2 T02110128
03949KAQV AQV20160220184510802/20/16 18:45:31  5-MIN KAQV 210045Z AUTO VRB05KT 10SM CLR 21/13 A3004 270 58 1100 VRB/05 RMK AO2 T02110128
03949KAQV AQV20160220185011502/20/16 18:50:31  5-MIN KAQV 210050Z AUTO 17005KT 10SM CLR 21/13 A3004 270 58 1100 170/05 RMK AO2 SLP170 T02110128
03949KAQV AQV20160220185511502/20/16 18:55:31  5-MIN KAQV 210055Z AUTO 18005KT 10SM CLR 21/13 A3004 270 58 1100 170/05 RMK AO2 SLP170 T02110128
03949KAQV AQV20160220190010802/20/16 19:00:31  5-MIN KAQV 210100Z AUTO 18006KT 10SM CLR 21/13 A3004 260 58 1100 170/06 RMK AO2 T02110128
03949KAQV AQV20160220190510802/20/16 19:05:31  5-MIN KAQV 210105Z AUTO 17004KT 10SM CLR 21/13 A3004 260 58 1100 170/04 RMK AO2 T02110128
03949KAQV AQV20160220191010802/20/16 19:10:31  5-MIN KAQV 210110Z AUTO 17005KT 10SM CLR 21/13 A3004 260 60 1000 170/05 RMK AO2 T02060128
03949KAQV AQV20160220191510802/20/16 19:15:31  5-MIN KAQV 210115Z AUTO 18007KT 10SM CLR 21/13 A3004 260 60 1000 180/07 RMK AO2 T02060128
03949KAQV AQV20160220192010802/20/16 19:20:31  5-MIN KAQV 210120Z AUTO 17005KT 10SM CLR 21/13 A3004 260 63 1000 170/05 RMK AO2 T02060133
03949KAQV AQV20160220192510802/20/16 19:25:31  5-MIN KAQV 210125Z AUTO 18005KT 10SM CLR 21/13 A3004 270 63 1000 170/05 RMK AO2 T02060133
03949KAQV AQV20160220193010802/20/16 19:30:31  5-MIN KAQV 210130Z AUTO 17008KT 10SM CLR 21/13 A3004 270 63 1000 170/08 RMK AO2 T02060133
03949KAQV AQV20160220193510802/20/16 19:35:31  5-MIN KAQV 210135Z AUTO 18009KT 10SM CLR 21/13 A3004 270 63 1000 180/09 RMK AO2 T02060133
03949KAQV AQV20160220194010802/20/16 19:40:31  5-MIN KAQV 210140Z AUTO 17006KT 10SM CLR 21/14 A3004 270 65 1000 170/06 RMK AO2 T02060139
03949KAQV AQV20160220194512402/20/16 19:45:31  5-MIN KAQV 210145Z AUTO 17007KT 130V200 10SM CLR 21/14 A3004 270 65 1000 160/07 130V200 RMK AO2 T02060139
03949KAQV AQV20160220195011402/20/16 19:50:31  5-MIN KAQV 210150Z AUTO 18007KT 10SM CLR 20/14 A3004 260 67 900 170/07 RMK AO2 SLP172 T02000139
03949KAQV AQV20160220195512102/20/16 19:55:31  5-MIN KAQV 210155Z AUTO 18007G16KT 10SM CLR 21/14 A3004 270 65 1000 170/07G16 RMK AO2 SLP171 T02060139
03949KAQV AQV20160220200012902/20/16 20:00:31  5-MIN KAQV 210200Z AUTO 19008G16KT 150V230 10SM CLR 20/14 A3004 260 67 900 180/08G16 150V230 RMK AO2 T02000139
03949KAQV AQV20160220200510702/20/16 20:05:31  5-MIN KAQV 210205Z AUTO 18008KT 10SM CLR 20/14 A3004 260 67 900 180/08 RMK AO2 T02000139
03949KAQV AQV20160220201010702/20/16 20:10:31  5-MIN KAQV 210210Z AUTO 18006KT 10SM CLR 20/14 A3005 260 67 900 180/06 RMK AO2 T02000139
03949KAQV AQV20160220201510702/20/16 20:15:31  5-MIN KAQV 210215Z AUTO 18007KT 10SM CLR 20/14 A3005 260 67 900 180/07 RMK AO2 T02000139
03949KAQV AQV20160220202010702/20/16 20:20:31  5-MIN KAQV 210220Z AUTO VRB06KT 10SM CLR 20/14 A3005 260 67 900 VRB/06 RMK AO2 T02000139
03949KAQV AQV20160220202510702/20/16 20:25:31  5-MIN KAQV 210225Z AUTO VRB06KT 10SM CLR 20/14 A3005 260 70 900 VRB/06 RMK AO2 T02000144
03949KAQV AQV20160220203011302/20/16 20:30:31  5-MIN KAQV 210230Z AUTO 19009G15KT 10SM CLR 20/14 A3005 260 70 900 190/09G15 RMK AO2 T02000144
03949KAQV AQV20160220203511302/20/16 20:35:31  5-MIN KAQV 210235Z AUTO 18006G15KT 10SM CLR 20/14 A3005 260 70 900 170/06G15 RMK AO2 T02000144
03949KAQV AQV20160220204010702/20/16 20:40:31  5-MIN KAQV 210240Z AUTO 18007KT 10SM CLR 19/14 A3004 260 72 900 180/07 RMK AO2 T01940144
03949KAQV AQV20160220204510702/20/16 20:45:31  5-MIN KAQV 210245Z AUTO 17008KT 10SM CLR 19/14 A3004 270 72 900 170/08 RMK AO2 T01940144
03949KAQV AQV20160220205012602/20/16 20:50:31  5-MIN KAQV 210250Z AUTO 18006G16KT 10SM CLR 19/14 A3004 270 72 900 180/06G16 RMK AO2 SLP169 T01940144 55010
03949KAQV AQV20160220205512602/20/16 20:55:31  5-MIN KAQV 210255Z AUTO 18007G16KT 10SM CLR 19/14 A3004 260 72 900 180/07G16 RMK AO2 SLP172 T01940144 55010
03949KAQV AQV20160220210011302/20/16 21:00:31  5-MIN KAQV 210300Z AUTO 19007G16KT 10SM CLR 19/14 A3005 260 72 900 190/07G16 RMK AO2 T01940144
03949KAQV AQV20160220210510702/20/16 21:05:31  5-MIN KAQV 210305Z AUTO 20008KT 10SM CLR 19/14 A3005 260 72 900 190/08 RMK AO2 T01940144
03949KAQV AQV20160220211010702/20/16 21:10:31  5-MIN KAQV 210310Z AUTO 18007KT 10SM CLR 19/14 A3006 250 72 900 180/07 RMK AO2 T01940144
03949KAQV AQV20160220211511402/20/16 21:15:31  5-MIN KAQV 210315Z AUTO VRB04KT 10SM CLR 19/15 A3006 240 75 900 VRB/04 RMK AO2 PRESRR T01940150
03949KAQV AQV20160220212010702/20/16 21:20:31  5-MIN KAQV 210320Z AUTO 18006KT 10SM CLR 19/15 A3006 250 75 900 180/06 RMK AO2 T01940150
03949KAQV AQV20160220212510702/20/16 21:25:31  5-MIN KAQV 210325Z AUTO VRB06KT 10SM CLR 19/15 A3006 250 75 900 VRB/06 RMK AO2 T01940150
03949KAQV AQV20160220213010702/20/16 21:30:31  5-MIN KAQV 210330Z AUTO VRB04KT 10SM CLR 19/15 A3006 250 75 900 VRB/04 RMK AO2 T01940150
03949KAQV AQV20160220213510702/20/16 21:35:31  5-MIN KAQV 210335Z AUTO VRB05KT 10SM CLR 19/15 A3006 240 75 900 VRB/05 RMK AO2 T01940150
03949KAQV AQV20160220214010702/20/16 21:40:31  5-MIN KAQV 210340Z AUTO 21006KT 10SM CLR 19/15 A3007 240 75 900 210/06 RMK AO2 T01940150
03949KAQV AQV20160220214510702/20/16 21:45:31  5-MIN KAQV 210345Z AUTO VRB03KT 10SM CLR 19/15 A3007 240 78 800 VRB/03 RMK AO2 T01890150
03949KAQV AQV20160220215011702/20/16 21:50:31  5-MIN KAQV 210350Z AUTO 20004KT 10SM FEW018 19/15 A3007 240 78 800 190/04 RMK AO2 SLP181 T01890150
03949KAQV AQV20160220215511702/20/16 21:55:31  5-MIN KAQV 210355Z AUTO VRB04KT 10SM FEW018 19/15 A3006 240 78 800 VRB/04 RMK AO2 SLP179 T01890150
03949KAQV AQV20160220220011002/20/16 22:00:31  5-MIN KAQV 210400Z AUTO VRB05KT 10SM FEW018 19/15 A3006 250 78 800 VRB/05 RMK AO2 T01890150
03949KAQV AQV20160220220511002/20/16 22:05:31  5-MIN KAQV 210405Z AUTO VRB05KT 10SM FEW018 19/15 A3007 240 78 800 VRB/05 RMK AO2 T01890150
03949KAQV AQV20160220221011002/20/16 22:10:31  5-MIN KAQV 210410Z AUTO VRB03KT 10SM FEW018 19/16 A3007 240 81 800 VRB/03 RMK AO2 T01890156
03949KAQV AQV20160220221510002/20/16 22:15:31  5-MIN KAQV 210415Z AUTO 10SM FEW018 19/15 A3007 240 78 800 M /M RMK AO2 T01890150
03949KAQV AQV20160220222011002/20/16 22:20:31  5-MIN KAQV 210420Z AUTO 00000KT 10SM FEW016 18/15 A3007 230 81 700 000/00 RMK AO2 T01830150
03949KAQV AQV20160220222511002/20/16 22:25:31  5-MIN KAQV 210425Z AUTO 00000KT 10SM SCT016 18/16 A3008 230 84 700 000/00 RMK AO2 T01830156
03949KAQV AQV20160220223011002/20/16 22:30:31  5-MIN KAQV 210430Z AUTO 18004KT 10SM BKN015 18/16 A3007 240 84 700 180/04 RMK AO2 T01830156
03949KAQV AQV20160220223511002/20/16 22:35:31  5-MIN KAQV 210435Z AUTO 18004KT 10SM BKN015 18/16 A3006 240 84 700 180/04 RMK AO2 T01830156
03949KAQV AQV20160220224011002/20/16 22:40:31  5-MIN KAQV 210440Z AUTO 18004KT 10SM BKN015 18/16 A3007 240 84 700 170/04 RMK AO2 T01830156
03949KAQV AQV20160220224511002/20/16 22:45:31  5-MIN KAQV 210445Z AUTO 21003KT 10SM BKN014 18/16 A3007 240 84 700 200/03 RMK AO2 T01830156
03949KAQV AQV20160220225011702/20/16 22:50:31  5-MIN KAQV 210450Z AUTO 18004KT 10SM OVC014 18/16 A3007 240 84 700 180/04 RMK AO2 SLP180 T01830156
03949KAQV AQV20160220225511702/20/16 22:55:31  5-MIN KAQV 210455Z AUTO 19003KT 10SM OVC014 18/16 A3007 240 84 700 180/03 RMK AO2 SLP180 T01830156
03949KAQV AQV20160220230011002/20/16 23:00:31  5-MIN KAQV 210500Z AUTO VRB05KT 10SM OVC014 18/16 A3007 240 84 700 VRB/05 RMK AO2 T01830156
03949KAQV AQV20160220230511002/20/16 23:05:31  5-MIN KAQV 210505Z AUTO 19004KT 10SM OVC014 18/16 A3007 240 84 700 180/04 RMK AO2 T01830156
03949KAQV AQV20160220231011002/20/16 23:10:31  5-MIN KAQV 210510Z AUTO 18004KT 10SM OVC013 18/16 A3007 240 84 700 180/04 RMK AO2 T01830156
03949KAQV AQV20160220231511002/20/16 23:15:31  5-MIN KAQV 210515Z AUTO 18004KT 10SM OVC013 18/16 A3006 240 84 700 170/04 RMK AO2 T01830156
03949KAQV AQV20160220232011002/20/16 23:20:31  5-MIN KAQV 210520Z AUTO 17003KT 10SM OVC013 18/16 A3006 250 84 700 160/03 RMK AO2 T01830156
03949KAQV AQV20160220232511002/20/16 23:25:31  5-MIN KAQV 210525Z AUTO 18005KT 10SM OVC013 18/16 A3006 240 84 700 180/05 RMK AO2 T01830156
03949KAQV AQV20160220233011002/20/16 23:30:31  5-MIN KAQV 210530Z AUTO 17005KT 10SM OVC013 18/16 A3006 250 84 700 170/05 RMK AO2 T01830156
03949KAQV AQV20160220233511002/20/16 23:35:31  5-MIN KAQV 210535Z AUTO VRB04KT 10SM OVC012 18/16 A3006 250 87 700 VRB/04 RMK AO2 T01830161
03949KAQV AQV20160220234011002/20/16 23:40:31  5-MIN KAQV 210540Z AUTO 17004KT 10SM OVC012 18/16 A3006 250 87 700 170/04 RMK AO2 T01830161
03949KAQV AQV20160220234511002/20/16 23:45:31  5-MIN KAQV 210545Z AUTO 17004KT 10SM OVC012 18/16 A3006 250 87 700 160/04 RMK AO2 T01830161
03949KAQV AQV20160220235014502/20/16 23:50:31  5-MIN KAQV 210550Z AUTO 17004KT 10SM OVC012 18/16 A3006 250 87 700 170/04 RMK AO2 SLP176 T01830161 10217 20183 402500139 51006
03949KAQV AQV20160220235514502/20/16 23:55:31  5-MIN KAQV 210555Z AUTO VRB03KT 10SM OVC012 18/16 A3006 250 87 700 VRB/03 RMK AO2 SLP176 T01830161 10217 20183 402500139 51006
03949KAQV AQV20160221000011002/21/16 00:00:31  5-MIN KAQV 210600Z AUTO 17004KT 10SM OVC011 18/16 A3006 250 87 700 170/04 RMK AO2 T01830161
03949KAQV AQV20160221000511002/21/16 00:05:31  5-MIN KAQV 210605Z AUTO 18005KT 10SM OVC011 18/16 A3006 250 87 700 180/05 RMK AO2 T01830161
03949KAQV AQV20160221001011002/21/16 00:10:31  5-MIN KAQV 210610Z AUTO 18004KT 10SM OVC011 18/16 A3006 250 90 700 170/04 RMK AO2 T01780161
03949KAQV AQV20160221001511002/21/16 00:15:31  5-MIN KAQV 210615Z AUTO VRB03KT 10SM BKN011 18/16 A3006 250 90 700 VRB/03 RMK AO2 T01780161
03949KAQV AQV20160221002011002/21/16 00:20:31  5-MIN KAQV 210620Z AUTO 17003KT 10SM BKN011 18/16 A3005 250 90 700 160/03 RMK AO2 T01780161
03949KAQV AQV20160221002511002/21/16 00:25:31  5-MIN KAQV 210625Z AUTO 17004KT 10SM BKN011 18/16 A3005 260 90 700 160/04 RMK AO2 T01780161
03949KAQV AQV20160221003011002/21/16 00:30:31  5-MIN KAQV 210630Z AUTO 17005KT 10SM SCT010 18/16 A3005 260 90 700 170/05 RMK AO2 T01780161
03949KAQV AQV20160221003511002/21/16 00:35:31  5-MIN KAQV 210635Z AUTO 17004KT 10SM SCT010 18/16 A3004 260 90 700 170/04 RMK AO2 T01780161
03949KAQV AQV20160221004011002/21/16 00:40:31  5-MIN KAQV 210640Z AUTO 18004KT 10SM SCT010 18/16 A3005 260 90 700 180/04 RMK AO2 T01780161
03949KAQV AQV20160221004511002/21/16 00:45:31  5-MIN KAQV 210645Z AUTO 18005KT 10SM FEW010 18/16 A3004 260 90 700 170/05 RMK AO2 T01780161
03949KAQV AQV20160221005011702/21/16 00:50:31  5-MIN KAQV 210650Z AUTO VRB05KT 10SM SCT010 18/16 A3003 270 90 700 VRB/05 RMK AO2 SLP168 T01780161
03949KAQV AQV20160221005511702/21/16 00:55:31  5-MIN KAQV 210655Z AUTO 17005KT 10SM BKN012 18/16 A3003 280 90 700 160/05 RMK AO2 SLP166 T01780161
03949KAQV AQV20160221010013302/21/16 01:00:31  5-MIN KAQV 210700Z AUTO 17007KT 130V190 10SM BKN012 18/16 A3002 280 90 700 160/07 130V190 RMK AO2 PRESFR T01780161
03949KAQV AQV20160221010511002/21/16 01:05:31  5-MIN KAQV 210705Z AUTO 17006KT 10SM SCT012 18/16 A3002 280 90 700 170/06 RMK AO2 T01780161
03949KAQV AQV20160221011011002/21/16 01:10:31  5-MIN KAQV 210710Z AUTO 17005KT 10SM FEW012 18/16 A3002 280 90 700 170/05 RMK AO2 T01780161
03949KAQV AQV20160221011511002/21/16 01:15:31  5-MIN KAQV 210715Z AUTO 17006KT 10SM SCT012 18/16 A3002 280 90 700 170/06 RMK AO2 T01780161
03949KAQV AQV20160221012011702/21/16 01:20:31  5-MIN KAQV 210720Z AUTO VRB05KT 10SM SCT012 BKN019 18/16 A3002 280 90 700 VRB/05 RMK AO2 T01780161
03949KAQV AQV20160221012511702/21/16 01:25:31  5-MIN KAQV 210725Z AUTO 18006KT 10SM SCT012 BKN019 18/16 A3002 280 90 700 170/06 RMK AO2 T01780161
03949KAQV AQV20160221013011702/21/16 01:30:31  5-MIN KAQV 210730Z AUTO 18004KT 10SM SCT012 BKN021 18/16 A3002 280 90 700 180/04 RMK AO2 T01780161
03949KAQV AQV20160221013511702/21/16 01:35:31  5-MIN KAQV 210735Z AUTO 19004KT 10SM BKN012 BKN021 18/16 A3003 280 90 700 190/04 RMK AO2 T01780161
03949KAQV AQV20160221014011702/21/16 01:40:31  5-MIN KAQV 210740Z AUTO 19004KT 10SM BKN012 BKN020 18/17 A3003 280 93 700 180/04 RMK AO2 T01780167
03949KAQV AQV20160221014511002/21/16 01:45:31  5-MIN KAQV 210745Z AUTO VRB04KT 10SM BKN012 18/17 A3002 280 93 700 VRB/04 RMK AO2 T01780167
03949KAQV AQV20160221015011702/21/16 01:50:31  5-MIN KAQV 210750Z AUTO 17005KT 10SM OVC010 18/17 A3002 290 90 800 170/05 RMK AO2 SLP162 T01830167
03949KAQV AQV20160221015512902/21/16 01:55:31  5-MIN KAQV 210755Z AUTO 17005KT 10SM OVC010 18/17 A3001 290 90 800 170/05 RMK AO2 CIG 009V013 SLP161 T01830167
03949KAQV AQV20160221020012202/21/16 02:00:31  5-MIN KAQV 210800Z AUTO 17004KT 10SM OVC010 18/17 A3001 290 90 800 170/04 RMK AO2 CIG 009V013 T01830167
03949KAQV AQV20160221020511002/21/16 02:05:31  5-MIN KAQV 210805Z AUTO 17004KT 10SM OVC010 18/17 A3001 290 90 800 170/04 RMK AO2 T01830167
03949KAQV AQV20160221021012202/21/16 02:10:31  5-MIN KAQV 210810Z AUTO 18003KT 10SM OVC010 18/17 A3001 290 90 800 170/03 RMK AO2 CIG 008V013 T01830167
03949KAQV AQV20160221021512202/21/16 02:15:31  5-MIN KAQV 210815Z AUTO 18005KT 10SM OVC010 18/17 A3001 290 90 800 180/05 RMK AO2 CIG 008V013 T01830167
03949KAQV AQV20160221022012202/21/16 02:20:31  5-MIN KAQV 210820Z AUTO 18006KT 10SM OVC009 18/17 A3001 290 90 800 180/06 RMK AO2 CIG 008V013 T01830167
03949KAQV AQV20160221022512202/21/16 02:25:31  5-MIN KAQV 210825Z AUTO 18005KT 10SM OVC009 18/17 A3001 300 90 800 180/05 RMK AO2 CIG 008V013 T01830167
03949KAQV AQV20160221023011002/21/16 02:30:31  5-MIN KAQV 210830Z AUTO 18006KT 10SM OVC009 18/17 A3001 300 90 800 170/06 RMK AO2 T01830167
03949KAQV AQV20160221023512602/21/16 02:35:31  5-MIN KAQV 210835Z AUTO 17007KT 140V200 10SM OVC009 18/17 A3000 300 93 800 170/07 140V200 RMK AO2 T01830172
03949KAQV AQV20160221024011002/21/16 02:40:31  5-MIN KAQV 210840Z AUTO 17006KT 10SM OVC008 18/17 A3000 310 93 800 160/06 RMK AO2 T01830172
03949KAQV AQV20160221024512202/21/16 02:45:31  5-MIN KAQV 210845Z AUTO 18005KT 10SM OVC008 19/17 A3000 300 90 900 180/05 RMK AO2 CIG 008V011 T01890172
03949KAQV AQV20160221025012302/21/16 02:50:31  5-MIN KAQV 210850Z AUTO VRB05KT 10SM OVC008 19/17 A3000 300 90 900 VRB/05 RMK AO2 SLP157 T01890172 50005
03949KAQV AQV20160221025512302/21/16 02:55:31  5-MIN KAQV 210855Z AUTO 21004KT 10SM OVC008 19/17 A3001 300 90 900 210/04 RMK AO2 SLP158 T01890172 50005
03949KAQV AQV20160221030012202/21/16 03:00:31  5-MIN KAQV 210900Z AUTO VRB04KT 10SM OVC008 19/17 A3001 290 90 900 VRB/04 RMK AO2 CIG 008V014 T01890172
03949KAQV AQV20160221030512902/21/16 03:05:31  5-MIN KAQV 210905Z AUTO VRB04KT 10SM OVC009 19/17 A3002 280 90 800 VRB/04 RMK AO2 CIG 008V014 PRESRR T01890172
03949KAQV AQV20160221031012902/21/16 03:10:31  5-MIN KAQV 210910Z AUTO VRB05KT 10SM OVC009 19/17 A3003 280 90 800 VRB/05 RMK AO2 CIG 008V013 PRESRR T01890172
03949KAQV AQV20160221031512202/21/16 03:15:31  5-MIN KAQV 210915Z AUTO VRB05KT 10SM OVC009 19/17 A3002 280 90 800 VRB/05 RMK AO2 CIG 008V014 T01890172
03949KAQV AQV20160221032011002/21/16 03:20:31  5-MIN KAQV 210920Z AUTO VRB04KT 10SM OVC010 19/17 A3002 280 90 800 VRB/04 RMK AO2 T01890172
03949KAQV AQV20160221032511002/21/16 03:25:31  5-MIN KAQV 210925Z AUTO VRB04KT 10SM OVC010 19/17 A3003 280 90 800 VRB/04 RMK AO2 T01890172
03949KAQV AQV20160221033011002/21/16 03:30:31  5-MIN KAQV 210930Z AUTO VRB03KT 10SM OVC011 19/17 A3002 280 90 800 VRB/03 RMK AO2 T01890172
03949KAQV AQV20160221033511002/21/16 03:35:31  5-MIN KAQV 210935Z AUTO 00000KT 10SM OVC011 19/17 A3003 280 90 800 000/00 RMK AO2 T01890172
03949KAQV AQV20160221034011702/21/16 03:40:31  5-MIN KAQV 210940Z AUTO VRB03KT 10SM BKN011 OVC019 19/17 A3002 280 90 800 VRB/03 RMK AO2 T01890172
03949KAQV AQV20160221034511702/21/16 03:45:31  5-MIN KAQV 210945Z AUTO 00000KT 10SM BKN011 OVC021 19/17 A3003 280 90 800 000/00 RMK AO2 T01890172
03949KAQV AQV20160221035012402/21/16 03:50:31  5-MIN KAQV 210950Z AUTO 21004KT 10SM BKN011 OVC018 19/17 A3003 270 90 800 210/04 RMK AO2 SLP166 T01890172
03949KAQV AQV20160221035512402/21/16 03:55:31  5-MIN KAQV 210955Z AUTO VRB03KT 10SM BKN011 OVC021 19/17 A3003 280 90 800 VRB/03 RMK AO2 SLP165 T01890172
03949KAQV AQV20160221040011702/21/16 04:00:31  5-MIN KAQV 211000Z AUTO VRB04KT 10SM BKN011 OVC023 19/17 A3003 280 90 800 VRB/04 RMK AO2 T01890172
03949KAQV AQV20160221040513602/21/16 04:05:31  5-MIN KAQV 211005Z AUTO 00000KT 10SM BKN011 BKN016 OVC029 19/17 A3003 280 90 800 000/00 RMK AO2 CIG 009V012 T01890172
03949KAQV AQV20160221041011702/21/16 04:10:31  5-MIN KAQV 211010Z AUTO VRB03KT 10SM BKN011 OVC029 19/17 A3003 280 90 800 VRB/03 RMK AO2 T01890172
03949KAQV AQV20160221041511602/21/16 04:15:31  5-MIN KAQV 211015Z AUTO VRB03KT 7SM BKN011 OVC027 19/17 A3003 270 90 800 VRB/03 RMK AO2 T01890172
03949KAQV AQV20160221042011602/21/16 04:20:31  5-MIN KAQV 211020Z AUTO 00000KT 7SM BKN011 OVC033 19/17 A3003 280 90 800 000/00 RMK AO2 T01890172
03949KAQV AQV20160221042511602/21/16 04:25:31  5-MIN KAQV 211025Z AUTO 00000KT 9SM BKN012 OVC033 19/17 A3003 280 90 800 000/00 RMK AO2 T01890172
03949KAQV AQV20160221043011602/21/16 04:30:31  5-MIN KAQV 211030Z AUTO VRB03KT 9SM BKN012 OVC035 19/17 A3003 280 90 800 VRB/03 RMK AO2 T01890172
03949KAQV AQV20160221043511602/21/16 04:35:31  5-MIN KAQV 211035Z AUTO VRB03KT 9SM BKN012 OVC037 19/17 A3003 280 90 800 VRB/03 RMK AO2 T01890172
03949KAQV AQV20160221044011602/21/16 04:40:31  5-MIN KAQV 211040Z AUTO VRB03KT 9SM SCT012 OVC037 19/17 A3003 280 90 800 VRB/03 RMK AO2 T01890172
03949KAQV AQV20160221044511702/21/16 04:45:31  5-MIN KAQV 211045Z AUTO 17004KT 10SM SCT012 BKN037 18/17 A3003 280 93 800 170/04 RMK AO2 T01830172
03949KAQV AQV20160221045012302/21/16 04:50:31  5-MIN KAQV 211050Z AUTO 00000KT 9SM FEW010 BKN037 18/17 A3002 280 93 800 000/00 RMK AO2 SLP163 T01830172
03949KAQV AQV20160221045512302/21/16 04:55:31  5-MIN KAQV 211055Z AUTO 19003KT 9SM FEW010 BKN039 18/17 A3002 280 90 800 180/03 RMK AO2 SLP164 T01830167
03949KAQV AQV20160221050011602/21/16 05:00:31  5-MIN KAQV 211100Z AUTO 18004KT 9SM FEW010 SCT039 18/17 A3002 280 90 800 180/04 RMK AO2 T01830167
03949KAQV AQV20160221050511602/21/16 05:05:31  5-MIN KAQV 211105Z AUTO 18004KT 9SM FEW010 SCT039 18/17 A3002 280 93 800 180/04 RMK AO2 T01830172
03949KAQV AQV20160221051010902/21/16 05:10:31  5-MIN KAQV 211110Z AUTO VRB03KT 9SM FEW041 18/17 A3003 280 90 800 VRB/03 RMK AO2 T01830167
03949KAQV AQV20160221051510902/21/16 05:15:31  5-MIN KAQV 211115Z AUTO 00000KT 9SM FEW041 18/17 A3003 280 93 700 000/00 RMK AO2 T01780167
03949KAQV AQV20160221052010602/21/16 05:20:31  5-MIN KAQV 211120Z AUTO 00000KT 9SM CLR 18/17 A3003 270 93 700 000/00 RMK AO2 T01780167
03949KAQV AQV20160221052510902/21/16 05:25:31  5-MIN KAQV 211125Z AUTO 00000KT 8SM FEW011 18/17 A3003 270 93 700 000/00 RMK AO2 T01780167
03949KAQV AQV20160221053010902/21/16 05:30:31  5-MIN KAQV 211130Z AUTO 00000KT 8SM FEW011 18/17 A3003 270 93 700 000/00 RMK AO2 T01780167
03949KAQV AQV20160221053510902/21/16 05:35:31  5-MIN KAQV 211135Z AUTO 00000KT 8SM FEW011 18/17 A3003 270 93 700 000/00 RMK AO2 T01780167
03949KAQV AQV20160221054010902/21/16 05:40:31  5-MIN KAQV 211140Z AUTO 00000KT 8SM FEW011 18/17 A3003 270 93 700 000/00 RMK AO2 T01780167
03949KAQV AQV20160221054510902/21/16 05:45:31  5-MIN KAQV 211145Z AUTO 00000KT 8SM FEW011 17/17 A3004 270 96 600 000/00 RMK AO2 T01720167
03949KAQV AQV20160221055013402/21/16 05:50:31  5-MIN KAQV 211150Z AUTO 00000KT 7SM SCT011 17/17 A3004 270 96 600 000/00 RMK AO2 SLP169 T01720167 10189 20172 56017
03949KAQV AQV20160221055513702/21/16 05:55:31  5-MIN KAQV 211155Z AUTO 00000KT 5SM BR BKN011 17/17 A3003 270 96 600 000/00 RMK AO2 SLP168 T01720167 10189 20172 56017
03949KAQV AQV20160221060011202/21/16 06:00:31  5-MIN KAQV 211200Z AUTO 00000KT 4SM BR BKN010 17/16 A3003 270 96 600 000/00 RMK AO2 T01670161
03949KAQV AQV20160221060511202/21/16 06:05:31  5-MIN KAQV 211205Z AUTO 00000KT 4SM BR BKN010 17/16 A3004 270 96 600 000/00 RMK AO2 T01670161
03949KAQV AQV20160221061011202/21/16 06:10:31  5-MIN KAQV 211210Z AUTO 00000KT 4SM BR OVC010 17/16 A3004 270 96 600 000/00 RMK AO2 T01670161
03949KAQV AQV20160221061511202/21/16 06:15:31  5-MIN KAQV 211215Z AUTO 00000KT 5SM BR OVC010 17/17 A3003 270 96 600 000/00 RMK AO2 T01720167
03949KAQV AQV20160221062011202/21/16 06:20:31  5-MIN KAQV 211220Z AUTO 18003KT 6SM BR OVC009 17/17 A3004 270 96 600 180/03 RMK AO2 T01720167
03949KAQV AQV20160221062511202/21/16 06:25:31  5-MIN KAQV 211225Z AUTO 16003KT 6SM BR OVC009 17/17 A3003 270 96 600 160/03 RMK AO2 T01720167
03949KAQV AQV20160221063011202/21/16 06:30:31  5-MIN KAQV 211230Z AUTO 00000KT 6SM BR OVC009 18/17 A3004 270 93 700 000/00 RMK AO2 T01780167
03949KAQV AQV20160221063511902/21/16 06:35:31  5-MIN KAQV 211235Z AUTO 00000KT 5SM BR BKN009 OVC013 18/17 A3004 270 93 700 000/00 RMK AO2 T01780167
03949KAQV AQV20160221064013102/21/16 06:40:31  5-MIN KAQV 211240Z AUTO 00000KT 6SM BR BKN009 OVC016 18/17 A3004 260 93 700 000/00 RMK AO2 CIG 007V013 T01780167
03949KAQV AQV20160221064512802/21/16 06:45:31  5-MIN KAQV 211245Z AUTO 18003KT 7SM BKN009 OVC019 18/17 A3004 260 93 700 170/03 RMK AO2 CIG 007V013 T01780167
03949KAQV AQV20160221065013802/21/16 06:50:31  5-MIN KAQV 211250Z AUTO 00000KT 6SM BR BKN009 OVC019 17/17 A3004 270 96 600 000/00 RMK AO2 CIG 007V013 SLP170 T01720167
03949KAQV AQV20160221065513302/21/16 06:55:31  5-MIN KAQV 211255Z AUTO 00000KT 6SM BR BKN010 BKN017 OVC022 17/17 A3004 260 96 600 000/00 RMK AO2 SLP171 T01720167
03949KAQV AQV20160221070012602/21/16 07:00:31  5-MIN KAQV 211300Z AUTO 00000KT 5SM BR BKN010 BKN017 OVC022 17/17 A3005 260 96 600 000/00 RMK AO2 T01720167
03949KAQV AQV20160221070511902/21/16 07:05:31  5-MIN KAQV 211305Z AUTO 00000KT 4SM BR BKN010 OVC019 17/17 A3004 260 96 600 000/00 RMK AO2 T01720167
03949KAQV AQV20160221071012602/21/16 07:10:31  5-MIN KAQV 211310Z AUTO 16003KT 3SM BR SCT010 BKN020 OVC028 17/17 A3004 260 96 600 150/03 RMK AO2 T01720167
03949KAQV AQV20160221071512602/21/16 07:15:31  5-MIN KAQV 211315Z AUTO 00000KT 3SM BR SCT010 BKN018 BKN023 17/17 A3004 260 96 600 000/00 RMK AO2 T01720167
03949KAQV AQV20160221072012602/21/16 07:20:31  5-MIN KAQV 211320Z AUTO 17003KT 4SM BR SCT010 BKN019 BKN035 17/17 A3005 260 96 600 160/03 RMK AO2 T01720167
03949KAQV AQV20160221072512602/21/16 07:25:31  5-MIN KAQV 211325Z AUTO 16003KT 3SM BR SCT010 SCT014 BKN020 17/17 A3005 260 96 600 160/03 RMK AO2 T01720167
03949KAQV AQV20160221073012602/21/16 07:30:31  5-MIN KAQV 211330Z AUTO 19003KT 3SM BR FEW010 SCT018 SCT023 17/17 A3005 260 96 600 180/03 RMK AO2 T01720167
03949KAQV AQV20160221073511902/21/16 07:35:31  5-MIN KAQV 211335Z AUTO 18003KT 3SM BR FEW010 SCT023 17/17 A3005 260 96 600 180/03 RMK AO2 T01720167
03949KAQV AQV20160221074011902/21/16 07:40:31  5-MIN KAQV 211340Z AUTO 18003KT 3SM BR FEW012 BKN025 18/17 A3005 250 93 700 180/03 RMK AO2 T01780167
03949KAQV AQV20160221074512602/21/16 07:45:31  5-MIN KAQV 211345Z AUTO 00000KT 4SM BR FEW012 BKN025 BKN031 18/17 A3005 250 96 700 000/00 RMK AO2 T01780172
03949KAQV AQV20160221075012602/21/16 07:50:31  5-MIN KAQV 211350Z AUTO 00000KT 5SM BR BKN023 BKN031 18/17 A3005 250 96 700 000/00 RMK AO2 SLP176 T01780172
03949KAQV AQV20160221075513302/21/16 07:55:31  5-MIN KAQV 211355Z AUTO VRB03KT 6SM BR FEW006 BKN023 BKN032 18/17 A3005 250 93 700 VRB/03 RMK AO2 SLP175 T01830172
03949KAQV AQV20160221080012602/21/16 08:00:31  5-MIN KAQV 211400Z AUTO 00000KT 6SM BR SCT006 BKN023 BKN032 18/17 A3006 250 93 700 000/00 RMK AO2 T01830172
03949KAQV AQV20160221080512602/21/16 08:05:31  5-MIN KAQV 211405Z AUTO 00000KT 6SM BR SCT006 BKN018 OVC032 18/17 A3006 250 93 700 000/00 RMK AO2 T01830172
03949KAQV AQV20160221081012602/21/16 08:10:31  5-MIN KAQV 211410Z AUTO 18003KT 6SM BR SCT006 BKN022 OVC032 18/17 A3006 250 93 700 170/03 RMK AO2 T01830172
03949KAQV AQV20160221081511902/21/16 08:15:31  5-MIN KAQV 211415Z AUTO VRB03KT 6SM BR SCT005 OVC022 18/17 A3005 250 93 700 VRB/03 RMK AO2 T01830172
03949KAQV AQV20160221082012602/21/16 08:20:31  5-MIN KAQV 211420Z AUTO 18005KT 6SM BR SCT005 SCT011 OVC022 18/17 A3005 260 93 700 170/05 RMK AO2 T01830172
03949KAQV AQV20160221082512302/21/16 08:25:31  5-MIN KAQV 211425Z AUTO 18004KT 7SM SCT007 BKN011 OVC022 18/17 A3005 260 93 700 170/04 RMK AO2 T01830172
03949KAQV AQV20160221083011602/21/16 08:30:31  5-MIN KAQV 211430Z AUTO 18004KT 8SM BKN007 OVC022 19/18 A3005 260 90 900 180/04 RMK AO2 T01940178
03949KAQV AQV20160221083512302/21/16 08:35:31  5-MIN KAQV 211435Z AUTO 18005KT 9SM FEW006 BKN009 OVC022 19/18 A3005 250 93 800 180/05 RMK AO2 T01890178
03949KAQV AQV20160221084012302/21/16 08:40:31  5-MIN KAQV 211440Z AUTO 19006KT 9SM SCT009 BKN016 OVC022 19/17 A3005 250 87 900 190/06 RMK AO2 T01940172
03949KAQV AQV20160221084512302/21/16 08:45:31  5-MIN KAQV 211445Z AUTO VRB04KT 9SM BKN009 BKN016 OVC022 19/17 A3006 250 87 900 VRB/04 RMK AO2 T01940172
03949KAQV AQV20160221085012902/21/16 08:50:31  5-MIN KAQV 211450Z AUTO VRB04KT 9SM BKN009 OVC016 19/17 A3006 250 87 900 VRB/04 RMK AO2 SLP178 T01940172 51009
03949KAQV AQV20160221085513002/21/16 08:55:31  5-MIN KAQV 211455Z AUTO VRB05KT 10SM BKN009 OVC016 19/18 A3006 240 90 900 VRB/05 RMK AO2 SLP179 T01940178 51009
03949KAQV AQV20160221090011702/21/16 09:00:31  5-MIN KAQV 211500Z AUTO VRB04KT 10SM BKN009 OVC018 19/17 A3007 240 87 900 VRB/04 RMK AO2 T01940172
03949KAQV AQV20160221090511002/21/16 09:05:31  5-MIN KAQV 211505Z AUTO VRB05KT 10SM OVC011 19/17 A3006 240 87 900 VRB/05 RMK AO2 T01940172
03949KAQV AQV20160221091012902/21/16 09:10:31  5-MIN KAQV 211510Z AUTO VRB04KT 10SM BKN009 OVC013 19/17 A3007 240 87 900 VRB/04 RMK AO2 CIG 007V011 T01940172
03949KAQV AQV20160221091512202/21/16 09:15:31  5-MIN KAQV 211515Z AUTO VRB04KT 10SM OVC011 20/17 A3007 240 84 900 VRB/04 RMK AO2 CIG 007V014 T02000172
03949KAQV AQV20160221092011702/21/16 09:20:31  5-MIN KAQV 211520Z AUTO VRB06KT 10SM BKN011 OVC015 20/17 A3007 240 84 900 VRB/06 RMK AO2 T02000172
03949KAQV AQV20160221092511702/21/16 09:25:31  5-MIN KAQV 211525Z AUTO 23004KT 10SM BKN011 OVC016 20/17 A3007 240 84 900 220/04 RMK AO2 T02000172
03949KAQV AQV20160221093011702/21/16 09:30:31  5-MIN KAQV 211530Z AUTO VRB06KT 10SM BKN011 OVC016 20/17 A3007 240 84 900 VRB/06 RMK AO2 T02000172
03949KAQV AQV20160221093512402/21/16 09:35:31  5-MIN KAQV 211535Z AUTO 23005KT 10SM BKN013 BKN018 OVC025 20/17 A3007 240 84 900 230/05 RMK AO2 T02000172
03949KAQV AQV20160221094012402/21/16 09:40:31  5-MIN KAQV 211540Z AUTO VRB04KT 10SM BKN014 BKN020 OVC025 20/17 A3007 240 84 900 VRB/04 RMK AO2 T02000172
03949KAQV AQV20160221094512502/21/16 09:45:31  5-MIN KAQV 211545Z AUTO VRB05KT 10SM BKN016 BKN022 OVC060 21/17 A3007 240 81 1000 VRB/05 RMK AO2 T02060172
03949KAQV AQV20160221095013202/21/16 09:50:31  5-MIN KAQV 211550Z AUTO 21007KT 10SM BKN014 BKN020 OVC060 21/17 A3007 240 81 1000 210/07 RMK AO2 SLP180 T02060172
03949KAQV AQV20160221095513202/21/16 09:55:31  5-MIN KAQV 211555Z AUTO VRB06KT 10SM SCT014 BKN022 OVC060 21/17 A3006 240 78 1100 VRB/06 RMK AO2 SLP179 T02110172
03949KAQV AQV20160221100012502/21/16 10:00:31  5-MIN KAQV 211600Z AUTO 17006KT 10SM SCT014 BKN022 BKN060 21/17 A3006 240 78 1100 170/06 RMK AO2 T02110172
03949KAQV AQV20160221100511502/21/16 10:05:31  5-MIN KAQV 211605Z AUTO 10SM SCT016 BKN023 BKN033 21/17 A3007 240 78 1100 M /M RMK AO2 T02110172
03949KAQV AQV20160221101012502/21/16 10:10:31  5-MIN KAQV 211610Z AUTO VRB05KT 10SM SCT016 BKN023 BKN033 21/17 A3007 240 75 1000 VRB/05 RMK AO2 T02110167
03949KAQV AQV20160221101512502/21/16 10:15:31  5-MIN KAQV 211615Z AUTO VRB05KT 10SM SCT016 SCT023 BKN033 21/17 A3007 230 75 1000 VRB/05 RMK AO2 T02110167
03949KAQV AQV20160221102012502/21/16 10:20:31  5-MIN KAQV 211620Z AUTO VRB04KT 10SM SCT016 BKN023 BKN033 21/17 A3008 230 75 1000 VRB/04 RMK AO2 T02110167
03949KAQV AQV20160221102512502/21/16 10:25:31  5-MIN KAQV 211625Z AUTO VRB03KT 10SM SCT016 BKN021 BKN065 21/17 A3008 230 75 1000 VRB/03 RMK AO2 T02110167
03949KAQV AQV20160221103012502/21/16 10:30:31  5-MIN KAQV 211630Z AUTO VRB04KT 10SM SCT016 BKN021 BKN032 21/17 A3008 230 75 1000 VRB/04 RMK AO2 T02110167
03949KAQV AQV20160221103512502/21/16 10:35:31  5-MIN KAQV 211635Z AUTO VRB03KT 10SM SCT016 BKN033 OVC065 21/17 A3008 230 75 1000 VRB/03 RMK AO2 T02110167
03949KAQV AQV20160221104012502/21/16 10:40:31  5-MIN KAQV 211640Z AUTO VRB06KT 10SM FEW016 BKN033 OVC065 21/17 A3008 230 75 1000 VRB/06 RMK AO2 T02110167
03949KAQV AQV20160221104512502/21/16 10:45:31  5-MIN KAQV 211645Z AUTO VRB05KT 10SM FEW016 BKN030 OVC065 21/17 A3008 230 75 1000 VRB/05 RMK AO2 T02110167
03949KAQV AQV20160221105013202/21/16 10:50:31  5-MIN KAQV 211650Z AUTO VRB05KT 10SM FEW016 BKN030 OVC065 22/17 A3008 230 73 1100 VRB/05 RMK AO2 SLP183 T02170167
03949KAQV AQV20160221105513202/21/16 10:55:31  5-MIN KAQV 211655Z AUTO VRB05KT 10SM FEW019 SCT028 OVC065 22/17 A3007 230 73 1100 VRB/05 RMK AO2 SLP182 T02170167
03949KAQV AQV20160221110012502/21/16 11:00:31  5-MIN KAQV 211700Z AUTO VRB06KT 10SM FEW021 BKN032 OVC065 22/16 A3007 240 70 1100 VRB/06 RMK AO2 T02170161
03949KAQV AQV20160221110512502/21/16 11:05:31  5-MIN KAQV 211705Z AUTO 22005KT 10SM SCT021 BKN029 OVC065 22/17 A3007 230 73 1100 220/05 RMK AO2 T02170167
03949KAQV AQV20160221111012502/21/16 11:10:31  5-MIN KAQV 211710Z AUTO VRB05KT 10SM FEW021 SCT025 BKN029 22/17 A3007 240 73 1100 VRB/05 RMK AO2 T02170167
03949KAQV AQV20160221111512502/21/16 11:15:31  5-MIN KAQV 211715Z AUTO VRB03KT 10SM FEW021 SCT027 BKN037 22/17 A3007 240 73 1100 VRB/03 RMK AO2 T02170167
03949KAQV AQV20160221112012502/21/16 11:20:31  5-MIN KAQV 211720Z AUTO 21004KT 10SM SCT023 BKN033 BKN065 22/17 A3007 230 70 1200 210/04 RMK AO2 T02220167
03949KAQV AQV20160221112512502/21/16 11:25:31  5-MIN KAQV 211725Z AUTO 23005KT 10SM SCT023 BKN033 BKN065 22/17 A3007 240 73 1100 220/05 RMK AO2 T02170167
03949KAQV AQV20160221113012402/21/16 11:30:31  5-MIN KAQV 211730Z AUTO VRB05KT 9SM SCT024 BKN031 BKN039 22/17 A3007 240 73 1100 VRB/05 RMK AO2 T02170167
03949KAQV AQV20160221113512402/21/16 11:35:31  5-MIN KAQV 211735Z AUTO 23004KT 9SM SCT021 SCT026 BKN031 22/17 A3007 240 73 1100 230/04 RMK AO2 T02170167
03949KAQV AQV20160221114012502/21/16 11:40:31  5-MIN KAQV 211740Z AUTO VRB03KT 10SM FEW021 BKN032 OVC060 22/17 A3007 240 73 1100 VRB/03 RMK AO2 T02170167
03949KAQV AQV20160221114512502/21/16 11:45:31  5-MIN KAQV 211745Z AUTO 20005KT 10SM BKN026 BKN033 OVC060 22/17 A3007 240 73 1100 190/05 RMK AO2 T02170167
03949KAQV AQV20160221115015002/21/16 11:50:31  5-MIN KAQV 211750Z AUTO VRB04KT 10SM FEW021 BKN026 OVC060 22/16 A3007 240 70 1100 VRB/04 RMK AO2 SLP180 T02170161 10222 20167 53011
03949KAQV AQV20160221115515002/21/16 11:55:31  5-MIN KAQV 211755Z AUTO 23005KT 10SM FEW021 BKN034 OVC065 22/17 A3007 240 73 1100 230/05 RMK AO2 SLP180 T02170167 10222 20167 53011
03949KAQV AQV20160221120012402/21/16 12:00:31  5-MIN KAQV 211800Z AUTO VRB06KT 8SM FEW022 BKN036 OVC065 22/16 A3007 240 70 1100 VRB/06 RMK AO2 T02170161
03949KAQV AQV20160221120512402/21/16 12:05:31  5-MIN KAQV 211805Z AUTO VRB04KT 8SM FEW022 BKN036 OVC065 22/16 A3006 240 70 1100 VRB/04 RMK AO2 T02170161
03949KAQV AQV20160221121012502/21/16 12:10:31  5-MIN KAQV 211810Z AUTO 20004KT 10SM FEW022 SCT026 OVC060 22/17 A3006 250 73 1100 190/04 RMK AO2 T02170167
03949KAQV AQV20160221121512502/21/16 12:15:31  5-MIN KAQV 211815Z AUTO VRB03KT 10SM FEW022 FEW036 OVC065 22/17 A3006 240 70 1200 VRB/03 RMK AO2 T02220167
03949KAQV AQV20160221122012502/21/16 12:20:31  5-MIN KAQV 211820Z AUTO VRB04KT 10SM FEW022 FEW036 OVC065 22/17 A3006 250 73 1100 VRB/04 RMK AO2 T02170167
03949KAQV AQV20160221122512502/21/16 12:25:31  5-MIN KAQV 211825Z AUTO VRB03KT 10SM FEW022 FEW036 BKN065 22/17 A3006 250 70 1200 VRB/03 RMK AO2 T02220167
03949KAQV AQV20160221123011802/21/16 12:30:31  5-MIN KAQV 211830Z AUTO VRB04KT 10SM FEW022 BKN060 22/17 A3006 250 73 1100 VRB/04 RMK AO2 T02170167
03949KAQV AQV20160221123511102/21/16 12:35:31  5-MIN KAQV 211835Z AUTO 20004KT 10SM BKN065 22/17 A3005 250 73 1100 190/04 RMK AO2 T02170167
03949KAQV AQV20160221124011802/21/16 12:40:31  5-MIN KAQV 211840Z AUTO 19006KT 10SM SCT065 BKN080 22/17 A3005 260 73 1100 190/06 RMK AO2 T02170167
03949KAQV AQV20160221124512502/21/16 12:45:31  5-MIN KAQV 211845Z AUTO VRB03KT 10SM FEW025 SCT065 BKN085 22/17 A3005 260 73 1100 VRB/03 RMK AO2 T02170167
03949KAQV AQV20160221125013202/21/16 12:50:31  5-MIN KAQV 211850Z AUTO VRB03KT 10SM FEW022 SCT027 BKN065 22/17 A3005 260 73 1100 VRB/03 RMK AO2 SLP173 T02170167
03949KAQV AQV20160221125513202/21/16 12:55:31  5-MIN KAQV 211855Z AUTO VRB04KT 10SM SCT024 BKN060 BKN085 22/17 A3005 260 73 1100 VRB/04 RMK AO2 SLP173 T02170167
03949KAQV AQV20160221130014302/21/16 13:00:31  5-MIN KAQV 211900Z AUTO VRB03KT 10SM -RA SCT024 BKN055 BKN070 22/16 A3004 260 70 1100 VRB/03 RMK AO2 RAB1859 P0000 T02170161
03949KAQV AQV20160221130514302/21/16 13:05:31  5-MIN KAQV 211905Z AUTO VRB04KT 10SM -RA SCT024 BKN055 BKN070 22/17 A3004 260 73 1100 VRB/04 RMK AO2 RAB1859 P0000 T02170167
03949KAQV AQV20160221131014302/21/16 13:10:31  5-MIN KAQV 211910Z AUTO VRB03KT 10SM -RA SCT026 BKN060 OVC080 21/17 A3004 270 75 1100 VRB/03 RMK AO2 RAB1859 P0000 T02110167
03949KAQV AQV20160221131514302/21/16 13:15:31  5-MIN KAQV 211915Z AUTO 00000KT 10SM -RA FEW024 BKN080 OVC110 21/17 A3004 270 75 1100 000/00 RMK AO2 RAB1859 P0000 T02110167
03949KAQV AQV20160221132014102/21/16 13:20:31  5-MIN KAQV 211920Z AUTO 00000KT 4SM RA FEW026 BKN055 OVC110 21/17 A3004 270 78 1000 000/00 RMK AO2 RAB1859 P0001 T02060167
03949KAQV AQV20160221132514502/21/16 13:25:31  5-MIN KAQV 211925Z AUTO 00000KT 5SM -RA BR BKN055 BKN070 OVC110 20/18 A3003 270 87 1000 000/00 RMK AO2 RAB1859 P0001 T02000178
03949KAQV AQV20160221133014302/21/16 13:30:31  5-MIN KAQV 211930Z AUTO 00000KT 10SM -RA SCT055 BKN080 OVC110 20/18 A3003 270 90 1000 000/00 RMK AO2 RAB1859 P0001 T02000183
03949KAQV AQV20160221133514202/21/16 13:35:31  5-MIN KAQV 211935Z AUTO 00000KT 10SM FEW055 BKN090 OVC110 20/18 A3003 270 90 1000 000/00 RMK AO2 RAB1859E35 P0001 T02000183
03949KAQV AQV20160221134014202/21/16 13:40:31  5-MIN KAQV 211940Z AUTO 00000KT 10SM FEW060 SCT085 OVC110 20/18 A3003 270 90 1000 000/00 RMK AO2 RAB1859E35 P0001 T02000183
03949KAQV AQV20160221134514202/21/16 13:45:31  5-MIN KAQV 211945Z AUTO VRB03KT 9SM -RA SCT055 BKN080 OVC110 20/18 A3003 270 87 1000 VRB/03 RMK AO2 RAB1859 P0001 T02000178
03949KAQV AQV20160221135014902/21/16 13:50:31  5-MIN KAQV 211950Z AUTO 00000KT 6SM -RA BKN060 BKN075 OVC110 21/17 A3003 270 81 1000 000/00 RMK AO2 RAB1859 SLP167 P0002 T02060172
03949KAQV AQV20160221135515202/21/16 13:55:31  5-MIN KAQV 211955Z AUTO 00000KT 6SM -RA BR SCT055 BKN070 OVC110 20/18 A3003 280 87 1000 000/00 RMK AO2 RAB1859 SLP166 P0002 T02000178
03949KAQV AQV20160221140013402/21/16 14:00:31  5-MIN KAQV 212000Z AUTO 00000KT 8SM -RA SCT055 BKN070 OVC110 20/18 A3003 280 90 1000 000/00 RMK AO2 P0000 T02000183
03949KAQV AQV20160221140513402/21/16 14:05:31  5-MIN KAQV 212005Z AUTO 00000KT 8SM -RA FEW046 BKN055 OVC110 21/18 A3003 280 87 1000 000/00 RMK AO2 P0000 T02060183
03949KAQV AQV20160221141013402/21/16 14:10:31  5-MIN KAQV 212010Z AUTO 00000KT 8SM -RA FEW046 BKN055 OVC075 21/18 A3003 280 87 1000 000/00 RMK AO2 P0000 T02060183
03949KAQV AQV20160221141512702/21/16 14:15:31  5-MIN KAQV 212015Z AUTO 00000KT 9SM -RA BKN055 OVC070 21/18 A3002 280 87 1000 000/00 RMK AO2 P0000 T02060183
03949KAQV AQV20160221142013502/21/16 14:20:31  5-MIN KAQV 212020Z AUTO 00000KT 10SM -RA BKN050 BKN065 BKN075 21/18 A3002 280 87 1000 000/00 RMK AO2 P0000 T02060183
03949KAQV AQV20160221142513702/21/16 14:25:31  5-MIN KAQV 212025Z AUTO 00000KT 10SM SCT050 BKN060 BKN110 21/18 A3002 280 84 1000 000/00 RMK AO2 RAE22 P0000 T02060178
03949KAQV AQV20160221143013702/21/16 14:30:31  5-MIN KAQV 212030Z AUTO 00000KT 10SM BKN050 BKN065 OVC110 21/18 A3002 280 81 1100 000/00 RMK AO2 RAE22 P0000 T02110178
03949KAQV AQV20160221143513502/21/16 14:35:31  5-MIN KAQV 212035Z AUTO 00000KT 10SM -RA BKN049 BKN060 BKN110 21/18 A3002 280 81 1100 000/00 RMK AO2 P0000 T02110178
03949KAQV AQV20160221144012702/21/16 14:40:31  5-MIN KAQV 212040Z AUTO 00000KT 9SM -RA BKN049 BKN110 21/18 A3002 280 84 1000 000/00 RMK AO2 P0000 T02060178
03949KAQV AQV20160221153014702/21/16 15:30:31  5-MIN KAQV 212130Z AUTO 00000KT 10SM -RA SCT048 BKN065 OVC100 21/18 A3001 300 84 1100 000/00 RMK AO2 RAB03E13B29 P0000 T02060178
03949KAQV AQV20160221153514502/21/16 15:35:31  5-MIN KAQV 212135Z AUTO 31003KT 5SM RA BKN048 BKN060 OVC100 21/18 A3001 290 84 1000 310/03 RMK AO2 RAB03E13B29 P0001 T02060178
03949KAQV AQV20160221154015202/21/16 15:40:31  5-MIN KAQV 212140Z AUTO 00000KT 2 1/2SM RA BR FEW039 BKN046 OVC060 20/18 A3001 290 90 1000 000/00 RMK AO2 RAB03E13B29 P0003 T02000183
03949KAQV AQV20160221154514402/21/16 15:45:31  5-MIN KAQV 212145Z AUTO 00000KT 2 1/2SM RA BR SCT039 OVC048 19/18 A3001 290 93 900 000/00 RMK AO2 RAB03E13B29 P0004 T01940183
03949KAQV AQV20160221155015302/21/16 15:50:31  5-MIN KAQV 212150Z AUTO 00000KT 2 1/2SM -RA BR OVC048 19/18 A3001 290 93 900 000/00 RMK AO2 VIS 2V4 RAB03E13B29 SLP160 P0004 T01940183
03949KAQV AQV20160221155514102/21/16 15:55:31  5-MIN KAQV 212155Z AUTO 00000KT 3SM -RA BR OVC045 19/18 A3001 300 93 900 000/00 RMK AO2 RAB03E13B29 SLP160 P0005 T01940183
03949KAQV AQV20160221160013502/21/16 16:00:31  5-MIN KAQV 212200Z AUTO 00000KT 2SM RA BR SCT038 BKN047 OVC055 19/19 A3000 300 97 900 000/00 RMK AO2 P0003 T01940189
03949KAQV AQV20160221160513902/21/16 16:05:31  5-MIN KAQV 212205Z AUTO 00000KT 1 1/4SM RA BR BKN043 BKN050 OVC060 19/19 A3000 300 97 900 000/00 RMK AO2 P0004 T01940189
03949KAQV AQV20160221161012602/21/16 16:10:31  5-MIN KAQV 212210Z AUTO 00000KT 1 3/4SM -RA BR OVC047 19/19 A3000 300 97 900 000/00 RMK AO2 P0005 T01940189
03949KAQV AQV20160221161512202/21/16 16:15:31  5-MIN KAQV 212215Z AUTO 00000KT 3SM -RA BR OVC045 19/19 A3000 300 97 900 000/00 RMK AO2 P0005 T01940189
03949KAQV AQV20160221162012202/21/16 16:20:31  5-MIN KAQV 212220Z AUTO 00000KT 4SM -RA BR OVC045 19/19 A3000 300 97 900 000/00 RMK AO2 P0005 T01940189
03949KAQV AQV20160221162512202/21/16 16:25:31  5-MIN KAQV 212225Z AUTO 00000KT 4SM -RA BR OVC047 19/19 A3000 300 97 900 000/00 RMK AO2 P0005 T01940189
03949KAQV AQV20160221163012402/21/16 16:30:31  5-MIN KAQV 212230Z AUTO 00000KT 4SM BR OVC049 19/19 A3001 300 97 900 000/00 RMK AO2 RAE27 P0005 T01940189
03949KAQV AQV20160221163513102/21/16 16:35:31  5-MIN KAQV 212235Z AUTO 00000KT 3SM BR BKN049 OVC060 19/19 A3000 300 97 900 000/00 RMK AO2 RAE27 P0005 T01940189
03949KAQV AQV20160221164014202/21/16 16:40:31  5-MIN KAQV 212240Z AUTO 00000KT 2 1/2SM BR BKN049 BKN060 OVC110 19/19 A3000 300 97 900 000/00 RMK AO2 RAE27 P0005 T01940189
03949KAQV AQV20160221164513802/21/16 16:45:31  5-MIN KAQV 212245Z AUTO 00000KT 2SM BR SCT049 BKN060 OVC110 19/19 A3000 300 97 900 000/00 RMK AO2 RAE27 P0005 T01940189
03949KAQV AQV20160221165015202/21/16 16:50:31  5-MIN KAQV 212250Z AUTO 00000KT 2SM -RA BR BKN048 BKN060 OVC120 19/19 A3000 300 97 900 000/00 RMK AO2 RAE27B46 SLP157 P0005 T01940189
03949KAQV AQV20160221165515202/21/16 16:55:31  5-MIN KAQV 212255Z AUTO 00000KT 2SM -RA BR BKN046 BKN060 OVC120 19/19 A3000 300 97 900 000/00 RMK AO2 RAE27B46 SLP158 P0005 T01940189
03949KAQV AQV20160221170014002/21/16 17:00:31  5-MIN KAQV 212300Z AUTO 00000KT 2 1/2SM -RA BR BKN043 BKN060 OVC120 19/18 A3001 300 93 900 000/00 RMK AO2 P0000 T01940183
03949KAQV AQV20160221170507502/21/16 17:05:31  5-MIN KAQV 212305Z AUTO 00000KT 4SM -RA BR BKN041 OVC120
03949KAQV AQV20160223163511002/23/16 16:35:31  5-MIN KAQV 232235Z AUTO VRB05KT 10SM CLR 20/14 A2942 850 70 1700 VRB/05 RMK AO2 T02000144 $
03949KAQV AQV20160223164011002/23/16 16:40:31  5-MIN KAQV 232240Z AUTO 25006KT 10SM CLR 19/14 A2941 850 70 1600 240/06 RMK AO2 T01940139 $
03949KAQV AQV20160223164511002/23/16 16:45:31  5-MIN KAQV 232245Z AUTO 25006KT 10SM CLR 20/14 A2941 850 67 1700 250/06 RMK AO2 T02000139 $
03949KAQV AQV20160223165011702/23/16 16:50:31  5-MIN KAQV 232250Z AUTO 26007KT 10SM CLR 20/14 A2942 850 67 1700 260/07 RMK AO2 SLP960 T02000139 $
03949KAQV AQV20160223165511702/23/16 16:55:31  5-MIN KAQV 232255Z AUTO VRB06KT 10SM CLR 20/14 A2942 850 67 1700 VRB/06 RMK AO2 SLP960 T02000139 $
03949KAQV AQV20160223170012902/23/16 17:00:31  5-MIN KAQV 232300Z AUTO 26008KT 220V310 10SM FEW034 19/14 A2942 850 70 1600 250/08 220V310 RMK AO2 T01940139 $
03949KAQV AQV20160223170512002/23/16 17:05:31  5-MIN KAQV 232305Z AUTO VRB06KT 10SM FEW034 FEW049 20/13 A2942 850 65 1700 VRB/06 RMK AO2 T02000133 $
03949KAQV AQV20160223171011002/23/16 17:10:31  5-MIN KAQV 232310Z AUTO VRB05KT 10SM CLR 19/13 A2942 840 67 1600 VRB/05 RMK AO2 T01940133 $
03949KAQV AQV20160223171513202/23/16 17:15:31  5-MIN KAQV 232315Z AUTO 25009G20KT 220V280 10SM CLR 19/13 A2943 840 67 1600 240/09G20 220V280 RMK AO2 T01940133 $
03949KAQV AQV20160223172011602/23/16 17:20:31  5-MIN KAQV 232320Z AUTO 26011G20KT 10SM CLR 19/13 A2943 830 67 1500 250/11G20 RMK AO2 T01890128 $
03949KAQV AQV20160223172511602/23/16 17:25:31  5-MIN KAQV 232325Z AUTO 25011G19KT 10SM CLR 19/13 A2943 830 67 1500 250/11G19 RMK AO2 T01890128 $
03949KAQV AQV20160223173011602/23/16 17:30:31  5-MIN KAQV 232330Z AUTO 26014G24KT 10SM CLR 18/12 A2943 830 67 1500 250/14G24 RMK AO2 T01830122 $
03949KAQV AQV20160223173513202/23/16 17:35:31  5-MIN KAQV 232335Z AUTO 26008G24KT 230V310 10SM CLR 18/12 A2944 830 65 1400 260/08G24 230V310 RMK AO2 T01830117 $
03949KAQV AQV20160223174011602/23/16 17:40:31  5-MIN KAQV 232340Z AUTO 26012G20KT 10SM CLR 18/11 A2944 820 64 1400 260/12G20 RMK AO2 T01780111 $
03949KAQV AQV20160223174513502/23/16 17:45:31  5-MIN KAQV 232345Z AUTO 26009G20KT 210V280 10SM FEW045 17/11 A2945 820 67 1300 250/09G20 210V280 RMK AO2 T01720111 $
03949KAQV AQV20160223175015002/23/16 17:50:31  5-MIN KAQV 232350Z AUTO 25009G21KT 10SM FEW045 18/11 A2945 810 64 1400 250/09G21 RMK AO2 SLP971 60012 T01780111 10206 20133 56038 $
03949KAQV AQV20160223175515702/23/16 17:55:31  5-MIN KAQV 232355Z AUTO 27008G21KT 10SM FEW042 SCT050 17/11 A2945 810 67 1300 260/08G21 RMK AO2 SLP973 60012 T01720111 10206 20133 56038 $
03949KAQV AQV20160223180011702/23/16 18:00:31  5-MIN KAQV 240000Z AUTO 10SM FEW030 SCT042 SCT055 17/11 A2946 800 67 1300 M /M RMK AO2 T01720111 $
03949KAQV AQV20160223180513302/23/16 18:05:31  5-MIN KAQV 240005Z AUTO 27015G24KT 10SM FEW030 SCT036 BKN044 17/11 A2946 800 69 1200 270/15G24 RMK AO2 T01670111 $
03949KAQV AQV20160223181015802/23/16 18:10:31  5-MIN KAQV 240010Z AUTO 26013G26KT 10SM SCT030 BKN036 BKN044 17/11 A2947 790 67 1200 250/13G26 RMK AO2 PK WND 25026/0008 PRESRR T01670106 $
03949KAQV AQV20160223181515802/23/16 18:15:31  5-MIN KAQV 240015Z AUTO 26011G26KT 10SM SCT028 BKN036 OVC055 16/11 A2948 790 69 1100 250/11G26 RMK AO2 PK WND 25026/0008 PRESRR T01610106 $
03949KAQV AQV20160223182016702/23/16 18:20:31  5-MIN KAQV 240020Z AUTO 26008G22KT 220V300 10SM FEW028 BKN039 OVC055 16/11 A2948 780 69 1100 250/08G22 220V300 RMK AO2 PK WND 25026/0008 T01610106 $
03949KAQV AQV20160223182516002/23/16 18:25:31  5-MIN KAQV 240025Z AUTO 26008G22KT 210V300 10SM SCT028 OVC037 16/11 A2948 780 72 1100 260/08G22 210V300 RMK AO2 PK WND 25026/0008 T01560106 $
03949KAQV AQV20160223183014402/23/16 18:30:31  5-MIN KAQV 240030Z AUTO VRB06G20KT 10SM SCT028 OVC037 16/11 A2949 780 72 1100 VRB/06G20 RMK AO2 PK WND 25026/0008 T01560106 $
03949KAQV AQV20160223183516702/23/16 18:35:31  5-MIN KAQV 240035Z AUTO 27009G15KT 200V300 10SM SCT028 BKN037 OVC050 16/11 A2949 780 72 1100 260/09G15 200V300 RMK AO2 PK WND 25026/0008 T01560106 $
03949KAQV AQV20160223184015102/23/16 18:40:31  5-MIN KAQV 240040Z AUTO 26008G25KT 10SM FEW028 BKN037 OVC050 15/10 A2950 770 72 1000 250/08G25 RMK AO2 PK WND 25026/0008 T01500100 $
03949KAQV AQV20160223184515102/23/16 18:45:31  5-MIN KAQV 240045Z AUTO 27009G25KT 10SM FEW028 BKN039 OVC048 15/10 A2949 770 72 1000 260/09G25 RMK AO2 PK WND 25026/0008 T01500100 $
03949KAQV AQV20160223185015702/23/16 18:50:31  5-MIN KAQV 240050Z AUTO 27011G18KT 10SM FEW028 SCT037 OVC048 14/09 A2950 770 72 900 270/11G18 RMK AO2 PK WND 25026/0008 SLP988 T01440094 $
03949KAQV AQV20160223185515702/23/16 18:55:31  5-MIN KAQV 240055Z AUTO 26005G18KT 10SM FEW028 SCT039 OVC048 14/09 A2950 770 72 900 250/05G18 RMK AO2 PK WND 25026/0008 SLP989 T01440094 $
03949KAQV AQV20160223190014802/23/16 19:00:31  5-MIN KAQV 240100Z AUTO 25010G17KT 180V290 10SM FEW028 BKN039 OVC050 14/09 A2950 770 72 900 250/10G17 180V290 RMK AO2 T01440094 $
03949KAQV AQV20160223190513202/23/16 19:05:31  5-MIN KAQV 240105Z AUTO VRB04G17KT 10SM SCT026 BKN039 OVC050 14/09 A2950 760 72 900 VRB/04G17 RMK AO2 T01440094 $
03949KAQV AQV20160223191014802/23/16 19:10:31  5-MIN KAQV 240110Z AUTO 27008G16KT 240V300 10SM BKN026 BKN038 OVC048 14/09 A2951 760 74 800 260/08G16 240V300 RMK AO2 T01390094 $
03949KAQV AQV20160223191514802/23/16 19:15:31  5-MIN KAQV 240115Z AUTO 28007G16KT 240V320 10SM BKN024 BKN040 OVC048 14/09 A2951 760 74 800 270/07G16 240V320 RMK AO2 T01390094 $
03949KAQV AQV20160223192016302/23/16 19:20:31  5-MIN KAQV 240120Z AUTO 29008G17KT 260V330 8SM -RA SCT022 BKN026 OVC040 14/09 A2952 750 74 800 290/08G17 260V330 RMK AO2 RAB20 P0000 T01390094 $
03949KAQV AQV20160223192517002/23/16 19:25:31  5-MIN KAQV 240125Z AUTO 28012G21KT 250V320 7SM -RA BKN019 BKN026 OVC032 12/10 A2953 740 86 600 270/12G21 250V320 RMK AO2 RAB20 PRESRR P0000 T01220100 $
03949KAQV AQV20160223193015602/23/16 19:30:31  5-MIN KAQV 240130Z AUTO 28007G21KT 220V330 9SM -RA SCT017 OVC024 12/10 A2953 740 86 600 270/07G21 220V330 RMK AO2 RAB20 P0000 T01220100 $
03949KAQV AQV20160223193514102/23/16 19:35:31  5-MIN KAQV 240135Z AUTO 28009G20KT 10SM -RA SCT014 OVC022 12/10 A2953 740 89 600 280/09G20 RMK AO2 RAB20 P0000 T01170100 $
03949KAQV AQV20160223194014102/23/16 19:40:31  5-MIN KAQV 240140Z AUTO 28009G16KT 10SM -RA BKN014 OVC020 12/10 A2954 730 89 600 270/09G16 RMK AO2 RAB20 P0000 T01170100 $
03949KAQV AQV20160223194516302/23/16 19:45:31  5-MIN KAQV 240145Z AUTO 27011G19KT 230V300 9SM -RA BKN014 BKN020 OVC025 12/10 A2954 730 89 500 270/11G19 230V300 RMK AO2 RAB20 P0000 T01170100 $
03949KAQV AQV20160223195017002/23/16 19:50:31  5-MIN KAQV 240150Z AUTO 27011G23KT 230V300 7SM -RA BKN014 BKN020 OVC025 12/09 A2954 730 86 500 260/11G23 230V300 RMK AO2 RAB20 SLP005 P0000 T01170094 $
03949KAQV AQV20160223195516602/23/16 19:55:31  5-MIN KAQV 240155Z AUTO 28007G23KT 230V320 5SM -RA BR BKN014 OVC020 11/09 A2955 720 89 500 280/07G23 230V320 RMK AO2 RAB20 SLP006 P0000 T01110094 $
03949KAQV AQV20160223200016002/23/16 20:00:31  5-MIN KAQV 240200Z AUTO 28010G17KT 240V310 4SM -RA BR BKN014 OVC023 11/09 A2956 720 93 400 270/10G17 240V310 RMK AO2 PRESRR P0000 T01060094 $
03949KAQV AQV20160223200516702/23/16 20:05:31  5-MIN KAQV 240205Z AUTO 28011G20KT 250V320 4SM -RA BR FEW012 BKN017 OVC030 11/09 A2956 710 93 400 280/11G20 250V320 RMK AO2 PRESRR P0001 T01060094 $
03949KAQV AQV20160223201016002/23/16 20:10:31  5-MIN KAQV 240210Z AUTO 28012G23KT 250V330 4SM -RA BR FEW012 BKN019 OVC030 10/09 A2956 710 93 300 280/12G23 250V330 RMK AO2 P0001 T01000089 $
03949KAQV AQV20160223201516002/23/16 20:15:31  5-MIN KAQV 240215Z AUTO 26007G23KT 120V310 4SM -RA BR FEW008 SCT013 OVC021 10/09 A2957 700 93 300 250/07G23 120V310 RMK AO2 P0001 T01000089 $
03949KAQV AQV20160223202016002/23/16 20:20:31  5-MIN KAQV 240220Z AUTO 26007G20KT 230V310 5SM -RA BR FEW008 BKN019 OVC034 10/09 A2957 700 93 300 260/07G20 230V310 RMK AO2 P0001 T01000089 $
03949KAQV AQV20160223202515802/23/16 20:25:31  5-MIN KAQV 240225Z AUTO 27011G17KT 240V310 10SM -RA SCT011 BKN019 OVC034 10/09 A2957 700 93 300 270/11G17 240V310 RMK AO2 P0001 T01000089 $
03949KAQV AQV20160223203014402/23/16 20:30:31  5-MIN KAQV 240230Z AUTO 28010G20KT 10SM SCT011 BKN019 OVC037 10/09 A2958 690 93 300 270/10G20 RMK AO2 RAE27 P0001 T01000089 $
03949KAQV AQV20160223203516002/23/16 20:35:31  5-MIN KAQV 240235Z AUTO 27008G20KT 240V300 10SM FEW007 BKN019 OVC037 10/09 A2958 690 93 300 260/08G20 240V300 RMK AO2 RAE27 P0001 T01000089 $
03949KAQV AQV20160223204016002/23/16 20:40:31  5-MIN KAQV 240240Z AUTO 27007G15KT 230V300 10SM FEW007 BKN014 OVC037 10/08 A2959 690 89 300 270/07G15 230V300 RMK AO2 RAE27 P0001 T01000083 $
03949KAQV AQV20160223204514202/23/16 20:45:31  5-MIN KAQV 240245Z AUTO VRB05KT 8SM -RA SCT008 BKN014 OVC037 10/09 A2959 680 93 300 VRB/05 RMK AO2 PRESRR P0001 T01000089 $
03949KAQV AQV20160223205016102/23/16 20:50:31  5-MIN KAQV 240250Z AUTO 29009G19KT 250V030 4SM RA BR BKN008 BKN015 OVC039 09/08 A2960 680 93 200 280/09G19 250V030 RMK AO2 CIG 007V012 P0001 $
03949KAQV AQV20160223205516302/23/16 20:55:31  5-MIN KAQV 240255Z AUTO VRB06G19KT 4SM -RA BR BKN010 BKN015 OVC030 09/08 A2960 680 93 200 VRB/06G19 RMK AO2 SLP023 P0001 60001 T00940083 53048 $
03949KAQV AQV20160223210015702/23/16 21:00:31  5-MIN KAQV 240300Z AUTO 28007G19KT 240V320 8SM -RA SCT008 BKN016 OVC030 09/08 A2960 670 89 200 280/07G19 240V320 RMK AO2 P0000 T00940078 $
03949KAQV AQV20160223210513802/23/16 21:05:31  5-MIN KAQV 240305Z AUTO VRB06KT 10SM FEW008 BKN013 OVC030 09/08 A2960 670 89 200 VRB/06 RMK AO2 RAE03 P0000 T00940078 $
03949KAQV AQV20160223211016002/23/16 21:10:31  5-MIN KAQV 240310Z AUTO 27009G14KT 230V340 10SM FEW008 BKN020 OVC041 09/08 A2961 670 89 200 260/09G14 230V340 RMK AO2 RAE03 P0001 T00940078 $
03949KAQV AQV20160223211514402/23/16 21:15:31  5-MIN KAQV 240315Z AUTO 26008G14KT 10SM SCT012 BKN017 OVC030 09/08 A2961 670 89 200 260/08G14 RMK AO2 RAE03 P0001 T00940078 $
03949KAQV AQV20160223212014102/23/16 21:20:31  5-MIN KAQV 240320Z AUTO 28005G17KT 9SM -RA SCT012 BKN017 OVC030 09/08 A2961 660 93 100 270/05G17 RMK AO2 P0001 T00890078 $
03949KAQV AQV20160223212515002/23/16 21:25:31  5-MIN KAQV 240325Z AUTO 28008G17KT 240V310 8SM -RA BKN014 OVC023 09/08 A2961 660 93 100 270/08G17 240V310 RMK AO2 P0001 T00890078 $
03949KAQV AQV20160223213014202/23/16 21:30:31  5-MIN KAQV 240330Z AUTO 27010G17KT 10SM -RA BKN014 BKN021 OVC028 09/07 A2962 660 89 100 270/10G17 RMK AO2 P0001 T00890072 $
03949KAQV AQV20160223213514402/23/16 21:35:31  5-MIN KAQV 240335Z AUTO 28009G21KT 10SM SCT014 BKN021 OVC037 09/07 A2962 660 89 100 280/09G21 RMK AO2 RAE35 P0001 T00890072 $
03949KAQV AQV20160223214014402/23/16 21:40:31  5-MIN KAQV 240340Z AUTO 29011G24KT 10SM SCT014 BKN021 OVC039 09/07 A2962 660 86 100 280/11G24 RMK AO2 RAE35 P0001 T00890067 $
03949KAQV AQV20160223214514402/23/16 21:45:31  5-MIN KAQV 240345Z AUTO 28008G24KT 10SM SCT014 BKN021 OVC041 09/07 A2962 650 86 100 270/08G24 RMK AO2 RAE35 P0001 T00890067 $
03949KAQV AQV20160223215015102/23/16 21:50:31  5-MIN KAQV 240350Z AUTO 29009G23KT 10SM FEW014 BKN027 OVC037 09/07 A2963 650 86 100 280/09G23 RMK AO2 RAE35 SLP032 P0001 T00890067 $
03949KAQV AQV20160223215516702/23/16 21:55:31  5-MIN KAQV 240355Z AUTO 28008G17KT 250V310 10SM FEW015 SCT027 OVC037 09/07 A2963 650 86 100 270/08G17 250V310 RMK AO2 RAE35 SLP034 P0001 T00890067 $
03949KAQV AQV20160223220013202/23/16 22:00:31  5-MIN KAQV 240400Z AUTO 29007KT 10SM FEW015 SCT027 OVC035 09/06 A2963 640 83 100 290/07 RMK AO2 P0001 T00890061 $
03949KAQV AQV20160223220513202/23/16 22:05:31  5-MIN KAQV 240405Z AUTO VRB06KT 10SM FEW015 BKN031 OVC038 09/06 A2963 640 83 100 VRB/06 RMK AO2 P0001 T00890061 $
03949KAQV AQV20160223221013202/23/16 22:10:31  5-MIN KAQV 240410Z AUTO VRB06KT 10SM SCT020 BKN030 OVC038 09/06 A2963 640 83 100 VRB/06 RMK AO2 P0001 T00890061 $
03949KAQV AQV20160223221515502/23/16 22:15:31  5-MIN KAQV 240415Z AUTO 28007KT 230V310 9SM -RA BKN018 BKN031 OVC038 08/06 A2963 640 86 0 270/07 230V310 RMK AO2 RAB13 P0001 T00830061 $
03949KAQV AQV20160223222015502/23/16 22:20:31  5-MIN KAQV 240420Z AUTO 28007KT 250V320 8SM -RA SCT013 BKN020 OVC031 08/07 A2964 640 89 0 280/07 250V320 RMK AO2 RAB13 P0001 T00830067 $
03949KAQV AQV20160223222514502/23/16 22:25:31  5-MIN KAQV 240425Z AUTO 28009G17KT 9SM -RA BKN015 BKN020 OVC027 08/07 A2964 640 89 0 270/09G17 RMK AO2 RAB13 P0001 T00830067 $
03949KAQV AQV20160223223014602/23/16 22:30:31  5-MIN KAQV 240430Z AUTO 28009G18KT 10SM -RA BKN013 BKN020 OVC030 08/07 A2964 630 89 0 280/09G18 RMK AO2 RAB13 P0001 T00830067 $
03949KAQV AQV20160223223515502/23/16 22:35:31  5-MIN KAQV 240435Z AUTO 27007G18KT 240V300 10SM -RA BKN013 OVC020 08/07 A2964 630 93 0 270/07G18 240V300 RMK AO2 RAB13 P0001 T00780067 $
03949KAQV AQV20160223224013802/23/16 22:40:31  5-MIN KAQV 240440Z AUTO 27012G20KT 10SM BKN015 OVC020 08/06 A2965 630 89 0 270/12G20 RMK AO2 RAB13E37 P0001 T00780061 $
03949KAQV AQV20160223224515402/23/16 22:45:31  5-MIN KAQV 240445Z AUTO 28010G21KT 240V310 10SM BKN013 OVC020 08/06 A2965 630 86 0 280/10G21 240V310 RMK AO2 RAB13E37 P0001 T00780056 $
03949KAQV AQV20160223225015402/23/16 22:50:31  5-MIN KAQV 240450Z AUTO 28012G21KT 250V340 10SM OVC013 08/06 A2966 620 86 0 270/12G21 250V340 RMK AO2 RAB13E37 SLP043 P0001 T00780056 $
03949KAQV AQV20160223225517502/23/16 22:55:31  5-MIN KAQV 240455Z AUTO 28011G26KT 240V310 10SM OVC013 07/05 A2966 620 86 -100 270/11G26 240V310 RMK AO2 PK WND 28026/0451 RAB13E37 SLP044 P0001 T00720050 $
03949KAQV AQV20160223230014102/23/16 23:00:31  5-MIN KAQV 240500Z AUTO 27008G26KT 230V320 10SM OVC013 07/05 A2967 610 86 -100 270/08G26 230V320 RMK AO2 P0001 T00720050 $
03949KAQV AQV20160223230512502/23/16 23:05:31  5-MIN KAQV 240505Z AUTO 27009G21KT 10SM OVC013 07/04 A2967 610 82 -100 270/09G21 RMK AO2 P0001 T00720044 $
03949KAQV AQV20160223231014102/23/16 23:10:31  5-MIN KAQV 240510Z AUTO 27010G22KT 240V300 10SM OVC013 07/04 A2967 610 86 -200 270/10G22 240V300 RMK AO2 P0001 T00670044 $
03949KAQV AQV20160223231512502/23/16 23:15:31  5-MIN KAQV 240515Z AUTO 28007G22KT 10SM OVC013 07/04 A2967 610 86 -200 280/07G22 RMK AO2 P0001 T00670044 $
03949KAQV AQV20160223232014102/23/16 23:20:31  5-MIN KAQV 240520Z AUTO 27008G16KT 220V350 10SM OVC012 07/04 A2967 610 86 -200 270/08G16 220V350 RMK AO2 P0001 T00670044 $
03949KAQV AQV20160223232515102/23/16 23:25:31  5-MIN KAQV 240525Z AUTO 28008G16KT 220V320 10SM -RA OVC012 07/04 A2968 600 86 -200 270/08G16 220V320 RMK AO2 RAB21 P0001 T00670044 $
03949KAQV AQV20160223233015102/23/16 23:30:31  5-MIN KAQV 240530Z AUTO 28010G18KT 260V330 10SM -RA OVC012 07/04 A2968 600 86 -200 280/10G18 260V330 RMK AO2 RAB21 P0001 T00670044 $
03949KAQV AQV20160223233515102/23/16 23:35:31  5-MIN KAQV 240535Z AUTO 28010G18KT 230V350 10SM -RA OVC012 07/04 A2968 600 86 -200 280/10G18 230V350 RMK AO2 RAB21 P0001 T00670044 $
03949KAQV AQV20160223234015002/23/16 23:40:31  5-MIN KAQV 240540Z AUTO 29007G18KT 240V010 10SM OVC014 07/04 A2969 590 86 -200 280/07G18 240V010 RMK AO2 RAB21E40 P0001 T00670044 $
03949KAQV AQV20160223234514102/23/16 23:45:31  5-MIN KAQV 240545Z AUTO VRB06G18KT 10SM BKN014 OVC019 07/04 A2969 590 86 -200 VRB/06G18 RMK AO2 RAB21E40 P0001 T00670044 $
03949KAQV AQV20160223235019102/23/16 23:50:31  5-MIN KAQV 240550Z AUTO 30010G14KT 270V350 9SM -RA OVC014 06/04 A2969 590 89 -200 290/10G14 270V350 RMK AO2 RAB21 SLP054 P0001 60004 T00610044 10172 20061 402060061 51034 $
03949KAQV AQV20160223235518202/23/16 23:55:31  5-MIN KAQV 240555Z AUTO 28008G17KT 9SM -RA BKN014 OVC019 06/04 A2969 590 89 -300 270/08G17 RMK AO2 RAB21 SLP055 P0001 60004 T00610044 10172 20061 402060061 51034 $
03949KAQV AQV20160224000014502/24/16 00:00:31  5-MIN KAQV 240600Z AUTO 29009G19KT 250V330 10SM -RA OVC016 06/04 A2969 590 89 -300 290/09G19 250V330 RMK AO2 P0000 T00610044 $
03949KAQV AQV20160224000513802/24/16 00:05:31  5-MIN KAQV 240605Z AUTO VRB05G19KT 10SM BKN016 OVC021 06/04 A2969 590 86 -300 VRB/05G19 RMK AO2 RAE01 P0000 T00610039 $
03949KAQV AQV20160224001015402/24/16 00:10:31  5-MIN KAQV 240610Z AUTO 28008G15KT 250V320 10SM BKN016 OVC021 06/04 A2969 590 86 -300 280/08G15 250V320 RMK AO2 RAE01 P0000 T00610039 $
03949KAQV AQV20160224001515102/24/16 00:15:31  5-MIN KAQV 240615Z AUTO 28008G20KT 250V320 7SM -RA BKN014 OVC020 06/04 A2970 580 86 -300 280/08G20 250V320 RMK AO2 P0000 T00610039 $
03949KAQV AQV20160224002015402/24/16 00:20:31  5-MIN KAQV 240620Z AUTO 30007G20KT 240V030 6SM -RA BR BKN014 OVC020 06/04 A2970 580 89 -300 290/07G20 240V030 RMK AO2 P0000 T00610044 $
03949KAQV AQV20160224002514502/24/16 00:25:31  5-MIN KAQV 240625Z AUTO 31009KT 270V020 8SM -RA BKN014 OVC020 06/04 A2971 570 92 -300 310/09 270V020 RMK AO2 P0001 T00560044 $
03949KAQV AQV20160224003012902/24/16 00:30:31  5-MIN KAQV 240630Z AUTO VRB05KT 9SM -RA BKN014 OVC020 06/04 A2971 570 92 -300 VRB/05 RMK AO2 P0001 T00560044 $
03949KAQV AQV20160224003513602/24/16 00:35:31  5-MIN KAQV 240635Z AUTO VRB05KT 9SM -RA BKN014 BKN023 OVC028 06/04 A2971 570 92 -300 VRB/05 RMK AO2 P0001 T00560044 $
03949KAQV AQV20160224004015902/24/16 00:40:31  5-MIN KAQV 240640Z AUTO 29008G17KT 240V350 10SM -RA BKN014 BKN020 OVC026 06/04 A2971 570 89 -300 280/08G17 240V350 RMK AO2 P0001 T00560039 $
03949KAQV AQV20160224004515202/24/16 00:45:31  5-MIN KAQV 240645Z AUTO 29007G17KT 220V010 10SM -RA BKN014 OVC023 06/04 A2971 570 89 -300 290/07G17 220V010 RMK AO2 P0001 T00560039 $
03949KAQV AQV20160224005015302/24/16 00:50:31  5-MIN KAQV 240650Z AUTO 29007KT 250V330 10SM -RA BKN014 OVC023 06/04 A2972 560 89 -400 290/07 250V330 RMK AO2 SLP063 P0001 T00560039 $
03949KAQV AQV20160224005514502/24/16 00:55:31  5-MIN KAQV 240655Z AUTO VRB06G14KT 10SM SCT015 OVC023 06/04 A2972 560 89 -400 VRB/06G14 RMK AO2 RAE54 SLP063 P0001 T00560039 $
03949KAQV AQV20160224010014202/24/16 01:00:31  5-MIN KAQV 240700Z AUTO 29007G14KT 250V320 10SM SCT015 OVC023 06/04 A2972 560 89 -400 290/07G14 250V320 RMK AO2 T00560039 $
03949KAQV AQV20160224010512002/24/16 01:05:31  5-MIN KAQV 240705Z AUTO VRB06KT 10SM BKN015 OVC023 06/04 A2972 560 89 -400 VRB/06 RMK AO2 T00560039 $
03949KAQV AQV20160224011012002/24/16 01:10:31  5-MIN KAQV 240710Z AUTO VRB05KT 10SM BKN013 OVC021 06/04 A2972 560 89 -400 VRB/05 RMK AO2 T00560039 $
03949KAQV AQV20160224011513502/24/16 01:15:31  5-MIN KAQV 240715Z AUTO 30007KT 270V010 9SM SCT013 OVC019 06/04 A2972 560 92 -400 300/07 270V010 RMK AO2 T00560044 $
03949KAQV AQV20160224012013402/24/16 01:20:31  5-MIN KAQV 240720Z AUTO 31007G18KT 260V010 9SM OVC015 06/04 A2973 560 89 -400 300/07G18 260V010 RMK AO2 T00560039 $
03949KAQV AQV20160224012512002/24/16 01:25:31  5-MIN KAQV 240725Z AUTO 00000KT 10SM BKN015 OVC021 06/04 A2973 560 89 -400 000/00 RMK AO2 T00560039 $
03949KAQV AQV20160224013011002/24/16 01:30:31  5-MIN KAQV 240730Z AUTO 10SM BKN015 OVC021 06/04 A2973 560 92 -400 M /M RMK AO2 T00560044 $
03949KAQV AQV20160224013511302/24/16 01:35:31  5-MIN KAQV 240735Z AUTO VRB06KT 10SM OVC016 06/04 A2973 560 89 -400 VRB/06 RMK AO2 T00560039 $
03949KAQV AQV20160224014011302/24/16 01:40:31  5-MIN KAQV 240740Z AUTO VRB06KT 10SM OVC016 06/04 A2973 550 89 -400 VRB/06 RMK AO2 T00560039 $
03949KAQV AQV20160224014513602/24/16 01:45:31  5-MIN KAQV 240745Z AUTO VRB05KT 10SM -RA BKN016 OVC022 06/04 A2973 550 86 -300 VRB/05 RMK AO2 RAB45 P0000 T00610039 $
03949KAQV AQV20160224015007302/24/16 01:50:31  5-MIN KAQV 240750Z AUTO VRB04KT 8SM -RA BKN016 OVC022 
03949KAQV AQV20160224144015002/24/16 14:40:31  5-MIN KAQV 242040Z AUTO 29011G25KT 250V330 10SM CLR 14/M03 A2999 310 30 400 280/11G25 250V330 RMK AO2 PK WND 30026/2008 T01441028 $
03949KAQV AQV20160224144515002/24/16 14:45:31  5-MIN KAQV 242045Z AUTO 29008G25KT 250V010 10SM CLR 14/M02 A2999 310 31 400 290/08G25 250V010 RMK AO2 PK WND 30026/2008 T01441022 $
03949KAQV AQV20160224145016302/24/16 14:50:31  5-MIN KAQV 242050Z AUTO 29008G19KT 250V340 10SM CLR 14/M03 A2999 310 30 400 290/08G19 250V340 RMK AO2 PK WND 30026/2008 SLP156 T01441028 50016 $
03949KAQV AQV20160224145516302/24/16 14:55:31  5-MIN KAQV 242055Z AUTO 30011G17KT 260V020 10SM CLR 14/M03 A2999 310 31 300 290/11G17 260V020 RMK AO2 PK WND 30026/2008 SLP156 T01391028 50016 $
03949KAQV AQV20160224150013202/24/16 15:00:31  5-MIN KAQV 242100Z AUTO 29008G18KT 250V360 10SM CLR 14/M03 A2999 310 30 400 280/08G18 250V360 RMK AO2 T01441028 $
03949KAQV AQV20160224150513202/24/16 15:05:31  5-MIN KAQV 242105Z AUTO 29009G19KT 230V350 10SM CLR 15/M03 A2999 310 29 400 290/09G19 230V350 RMK AO2 T01501028 $
03949KAQV AQV20160224151011602/24/16 15:10:31  5-MIN KAQV 242110Z AUTO VRB06G19KT 10SM CLR 14/M03 A2999 310 31 300 VRB/06G19 RMK AO2 T01391028 $
03949KAQV AQV20160224151510002/24/16 15:15:31  5-MIN KAQV 242115Z AUTO 10SM CLR 14/M03 A2999 310 30 300 M /M RMK AO2 T01391033 $
03949KAQV AQV20160224152013502/24/16 15:20:31  5-MIN KAQV 242120Z AUTO 31008G19KT 250V360 10SM FEW075 14/M03 A2999 310 29 400 300/08G19 250V360 RMK AO2 T01441033 $
03949KAQV AQV20160224152513502/24/16 15:25:31  5-MIN KAQV 242125Z AUTO 30007G19KT 270V340 10SM FEW075 14/M03 A2999 310 30 400 300/07G19 270V340 RMK AO2 T01441028 $
03949KAQV AQV20160224153010302/24/16 15:30:31  5-MIN KAQV 242130Z AUTO 10SM FEW075 15/M03 A2999 310 29 400 M /M RMK AO2 T01501028 $
03949KAQV AQV20160224153513502/24/16 15:35:31  5-MIN KAQV 242135Z AUTO 29010G20KT 260V350 10SM SCT080 14/M04 A2999 310 28 400 290/10G20 260V350 RMK AO2 T01441039 $
03949KAQV AQV20160224154010302/24/16 15:40:31  5-MIN KAQV 242140Z AUTO 10SM SCT080 14/M03 A2999 310 29 400 M /M RMK AO2 T01441033 $
03949KAQV AQV20160224154513502/24/16 15:45:31  5-MIN KAQV 242145Z AUTO 29009G22KT 240V350 10SM SCT080 14/M04 A3000 310 29 300 290/09G22 240V350 RMK AO2 T01391039 $
03949KAQV AQV20160224155014202/24/16 15:50:31  5-MIN KAQV 242150Z AUTO 29008G22KT 230V330 10SM FEW080 14/M03 A3000 300 30 300 280/08G22 230V330 RMK AO2 SLP158 T01391033 $
03949KAQV AQV20160224155514202/24/16 15:55:31  5-MIN KAQV 242155Z AUTO 31009G19KT 230V010 10SM FEW080 14/M03 A3000 300 30 300 300/09G19 230V010 RMK AO2 SLP159 T01391033 $
03949KAQV AQV20160224160013502/24/16 16:00:31  5-MIN KAQV 242200Z AUTO 29010G18KT 250V330 10SM FEW075 14/M03 A3000 300 30 300 280/10G18 250V330 RMK AO2 T01391033 $
03949KAQV AQV20160224160513502/24/16 16:05:31  5-MIN KAQV 242205Z AUTO 30009G18KT 250V340 10SM FEW075 14/M03 A3000 300 29 300 290/09G18 250V340 RMK AO2 T01441033 $
03949KAQV AQV20160224161013202/24/16 16:10:31  5-MIN KAQV 242210Z AUTO 29008G17KT 250V320 10SM CLR 14/M03 A3000 300 30 300 280/08G17 250V320 RMK AO2 T01391033 $
03949KAQV AQV20160224161513202/24/16 16:15:31  5-MIN KAQV 242215Z AUTO 29008G17KT 250V340 10SM CLR 14/M03 A3000 300 29 300 290/08G17 250V340 RMK AO2 T01441033 $
03949KAQV AQV20160224162013202/24/16 16:20:31  5-MIN KAQV 242220Z AUTO 30007G17KT 260V330 10SM CLR 14/M03 A3001 300 30 300 290/07G17 260V330 RMK AO2 T01391033 $
03949KAQV AQV20160224162513202/24/16 16:25:31  5-MIN KAQV 242225Z AUTO 31008G16KT 260V360 10SM CLR 14/M03 A3001 300 31 300 300/08G16 260V360 RMK AO2 T01391028 $
03949KAQV AQV20160224163013202/24/16 16:30:31  5-MIN KAQV 242230Z AUTO 32007G16KT 270V350 10SM CLR 14/M03 A3001 290 30 300 310/07G16 270V350 RMK AO2 T01391033 $
03949KAQV AQV20160224163512602/24/16 16:35:31  5-MIN KAQV 242235Z AUTO 31008KT 270V360 10SM CLR 14/M03 A3001 290 30 300 310/08 270V360 RMK AO2 T01391033 $
03949KAQV AQV20160224164012602/24/16 16:40:31  5-MIN KAQV 242240Z AUTO 30007KT 270V340 10SM CLR 14/M03 A3002 290 30 300 290/07 270V340 RMK AO2 T01391033 $
03949KAQV AQV20160224164511002/24/16 16:45:31  5-MIN KAQV 242245Z AUTO VRB05KT 10SM CLR 14/M03 A3002 290 30 300 VRB/05 RMK AO2 T01391033 $
03949KAQV AQV20160224165011702/24/16 16:50:31  5-MIN KAQV 242250Z AUTO VRB05KT 10SM CLR 14/M03 A3002 290 31 300 VRB/05 RMK AO2 SLP165 T01391028 $
03949KAQV AQV20160224165513302/24/16 16:55:31  5-MIN KAQV 242255Z AUTO 32007KT 250V040 10SM CLR 14/M03 A3002 280 30 300 310/07 250V040 RMK AO2 SLP166 T01391033 $
03949KAQV AQV20160224170013202/24/16 17:00:31  5-MIN KAQV 242300Z AUTO 29008G19KT 210V030 10SM CLR 13/M04 A3002 280 30 200 290/08G19 210V030 RMK AO2 T01331039 $
03949KAQV AQV20160224170513202/24/16 17:05:31  5-MIN KAQV 242305Z AUTO 32008G19KT 270V060 10SM CLR 13/M04 A3002 280 28 200 310/08G19 270V060 RMK AO2 T01331044 $
03949KAQV AQV20160224171011002/24/16 17:10:31  5-MIN KAQV 242310Z AUTO VRB06KT 10SM CLR 13/M04 A3002 280 30 200 VRB/06 RMK AO2 T01331039 $
03949KAQV AQV20160224171511002/24/16 17:15:31  5-MIN KAQV 242315Z AUTO VRB06KT 10SM CLR 13/M04 A3003 280 30 200 VRB/06 RMK AO2 T01331039 $
03949KAQV AQV20160224172013202/24/16 17:20:31  5-MIN KAQV 242320Z AUTO 30008G17KT 220V360 10SM CLR 13/M04 A3003 270 30 200 290/08G17 220V360 RMK AO2 T01331039 $
03949KAQV AQV20160224172513202/24/16 17:25:31  5-MIN KAQV 242325Z AUTO 29007G18KT 250V040 10SM CLR 13/M04 A3003 270 31 100 290/07G18 250V040 RMK AO2 T01281039 $
03949KAQV AQV20160224173011602/24/16 17:30:31  5-MIN KAQV 242330Z AUTO VRB04G18KT 10SM CLR 13/M04 A3004 270 31 100 VRB/04G18 RMK AO2 T01281039 $
03949KAQV AQV20160224173510802/24/16 17:35:31  5-MIN KAQV 242335Z AUTO 29007KT 10SM CLR 12/M04 A3004 260 32 0 290/07 RMK AO2 T01221039 $
03949KAQV AQV20160224174010802/24/16 17:40:31  5-MIN KAQV 242340Z AUTO VRB05KT 10SM CLR 12/M04 A3004 260 32 0 VRB/05 RMK AO2 T01221039 $
03949KAQV AQV20160224174510802/24/16 17:45:31  5-MIN KAQV 242345Z AUTO VRB06KT 10SM CLR 12/M04 A3005 260 32 0 VRB/06 RMK AO2 T01221039 $
03949KAQV AQV20160224175013302/24/16 17:50:31  5-MIN KAQV 242350Z AUTO VRB05KT 10SM CLR 12/M04 A3005 260 33 0 VRB/05 RMK AO2 SLP177 T01171039 10150 20117 55006 $
03949KAQV AQV20160224175513302/24/16 17:55:31  5-MIN KAQV 242355Z AUTO VRB03KT 10SM CLR 12/M04 A3005 250 33 0 VRB/03 RMK AO2 SLP178 T01171039 10150 20117 55006 $
03949KAQV AQV20160224180010802/24/16 18:00:31  5-MIN KAQV 250000Z AUTO VRB05KT 10SM CLR 12/M03 A3006 250 35 0 VRB/05 RMK AO2 T01171033 $
03949KAQV AQV20160224180510802/24/16 18:05:31  5-MIN KAQV 250005Z AUTO VRB04KT 10SM CLR 12/M03 A3006 250 35 0 VRB/04 RMK AO2 T01171033 $
03949KAQV AQV20160224181011102/24/16 18:10:31  5-MIN KAQV 250010Z AUTO VRB04KT 10SM CLR 11/M03 A3006 250 36 -100 VRB/04 RMK AO2 T01111033 $
03949KAQV AQV20160224181511102/24/16 18:15:31  5-MIN KAQV 250015Z AUTO VRB03KT 10SM CLR 11/M03 A3006 250 36 -100 VRB/03 RMK AO2 T01111033 $
03949KAQV AQV20160224182011102/24/16 18:20:31  5-MIN KAQV 250020Z AUTO VRB03KT 10SM CLR 11/M03 A3006 250 39 -100 VRB/03 RMK AO2 T01061028 $
03949KAQV AQV20160224182511102/24/16 18:25:31  5-MIN KAQV 250025Z AUTO VRB04KT 10SM CLR 11/M03 A3006 240 37 -100 VRB/04 RMK AO2 T01061033 $
03949KAQV AQV20160224183011102/24/16 18:30:31  5-MIN KAQV 250030Z AUTO 00000KT 10SM CLR 11/M03 A3007 240 39 -100 000/00 RMK AO2 T01061028 $
03949KAQV AQV20160224183511102/24/16 18:35:31  5-MIN KAQV 250035Z AUTO 33003KT 10SM CLR 11/M03 A3007 240 39 -100 330/03 RMK AO2 T01061028 $
03949KAQV AQV20160224184011102/24/16 18:40:31  5-MIN KAQV 250040Z AUTO VRB03KT 10SM CLR 10/M03 A3007 240 40 -200 VRB/03 RMK AO2 T01001028 $
03949KAQV AQV20160224184511102/24/16 18:45:31  5-MIN KAQV 250045Z AUTO VRB04KT 10SM CLR 11/M03 A3007 240 39 -100 VRB/04 RMK AO2 T01061028 $
03949KAQV AQV20160224185011802/24/16 18:50:31  5-MIN KAQV 250050Z AUTO VRB03KT 10SM CLR 10/M03 A3007 240 40 -200 VRB/03 RMK AO2 SLP184 T01001028 $
03949KAQV AQV20160224185511802/24/16 18:55:31  5-MIN KAQV 250055Z AUTO 00000KT 10SM CLR 10/M03 A3007 240 40 -200 000/00 RMK AO2 SLP184 T01001028 $
03949KAQV AQV20160224190011102/24/16 19:00:31  5-MIN KAQV 250100Z AUTO 00000KT 10SM CLR 10/M02 A3007 230 42 -200 000/00 RMK AO2 T01001022 $
03949KAQV AQV20160224190511102/24/16 19:05:31  5-MIN KAQV 250105Z AUTO 00000KT 10SM CLR 10/M02 A3008 230 42 -200 000/00 RMK AO2 T01001022 $
03949KAQV AQV20160224191011102/24/16 19:10:31  5-MIN KAQV 250110Z AUTO 00000KT 10SM CLR 09/M02 A3008 230 44 -300 000/00 RMK AO2 T00941022 $
03949KAQV AQV20160224191511102/24/16 19:15:31  5-MIN KAQV 250115Z AUTO 00000KT 10SM CLR 09/M02 A3008 230 44 -300 000/00 RMK AO2 T00941022 $
03949KAQV AQV20160224192011102/24/16 19:20:31  5-MIN KAQV 250120Z AUTO 00000KT 10SM CLR 09/M02 A3009 220 44 -300 000/00 RMK AO2 T00941022 $
03949KAQV AQV20160224192511102/24/16 19:25:31  5-MIN KAQV 250125Z AUTO 00000KT 10SM CLR 09/M02 A3009 220 44 -300 000/00 RMK AO2 T00941022 $
03949KAQV AQV20160224193011102/24/16 19:30:31  5-MIN KAQV 250130Z AUTO 00000KT 10SM CLR 09/M02 A3009 220 47 -400 000/00 RMK AO2 T00891017 $
03949KAQV AQV20160224193511102/24/16 19:35:31  5-MIN KAQV 250135Z AUTO 00000KT 10SM CLR 09/M02 A3009 220 47 -400 000/00 RMK AO2 T00891017 $
03949KAQV AQV20160224194011102/24/16 19:40:31  5-MIN KAQV 250140Z AUTO 29003KT 10SM CLR 08/M01 A3010 210 51 -400 280/03 RMK AO2 T00831011 $
03949KAQV AQV20160224194511102/24/16 19:45:31  5-MIN KAQV 250145Z AUTO VRB03KT 10SM CLR 09/M02 A3010 210 47 -400 VRB/03 RMK AO2 T00891017 $
03949KAQV AQV20160224195011802/24/16 19:50:31  5-MIN KAQV 250150Z AUTO 00000KT 10SM CLR 09/M02 A3010 210 47 -400 000/00 RMK AO2 SLP194 T00891017 $
03949KAQV AQV20160224195511802/24/16 19:55:31  5-MIN KAQV 250155Z AUTO 00000KT 10SM CLR 09/M01 A3010 210 49 -400 000/00 RMK AO2 SLP195 T00891011 $
03949KAQV AQV20160224200011102/24/16 20:00:31  5-MIN KAQV 250200Z AUTO 00000KT 10SM CLR 09/M02 A3010 210 47 -400 000/00 RMK AO2 T00891017 $
03949KAQV AQV20160224200511102/24/16 20:05:31  5-MIN KAQV 250205Z AUTO 00000KT 10SM CLR 08/M02 A3011 210 49 -500 000/00 RMK AO2 T00831017 $
03949KAQV AQV20160224201011102/24/16 20:10:31  5-MIN KAQV 250210Z AUTO 00000KT 10SM CLR 08/M01 A3011 200 51 -500 000/00 RMK AO2 T00831011 $
03949KAQV AQV20160224201511102/24/16 20:15:31  5-MIN KAQV 250215Z AUTO 00000KT 10SM CLR 08/M01 A3011 200 51 -500 000/00 RMK AO2 T00831011 $
03949KAQV AQV20160224202011102/24/16 20:20:31  5-MIN KAQV 250220Z AUTO 00000KT 10SM CLR 08/M01 A3011 200 51 -500 000/00 RMK AO2 T00831011 $
03949KAQV AQV20160224202511102/24/16 20:25:31  5-MIN KAQV 250225Z AUTO 00000KT 10SM CLR 08/M01 A3011 200 51 -500 000/00 RMK AO2 T00831011 $
03949KAQV AQV20160224203011002/24/16 20:30:31  5-MIN KAQV 250230Z AUTO 00000KT 10SM CLR 08/00 A3012 200 58 -500 000/00 RMK AO2 T00780000 $
03949KAQV AQV20160224203511002/24/16 20:35:31  5-MIN KAQV 250235Z AUTO 00000KT 10SM CLR 07/01 A3012 190 65 -700 000/00 RMK AO2 T00670006 $
03949KAQV AQV20160224204011002/24/16 20:40:31  5-MIN KAQV 250240Z AUTO 00000KT 10SM CLR 06/01 A3012 190 70 -700 000/00 RMK AO2 T00610011 $
03949KAQV AQV20160224204511002/24/16 20:45:31  5-MIN KAQV 250245Z AUTO 00000KT 10SM CLR 06/01 A3012 190 70 -800 000/00 RMK AO2 T00610011 $
03949KAQV AQV20160224205012302/24/16 20:50:31  5-MIN KAQV 250250Z AUTO 00000KT 10SM CLR 06/01 A3012 190 67 -700 000/00 RMK AO2 SLP202 T00610006 53021 $
03949KAQV AQV20160224205512302/24/16 20:55:31  5-MIN KAQV 250255Z AUTO 00000KT 10SM CLR 06/01 A3013 190 70 -800 000/00 RMK AO2 SLP203 T00610011 53021 $
03949KAQV AQV20160224210011002/24/16 21:00:31  5-MIN KAQV 250300Z AUTO 00000KT 10SM CLR 06/01 A3013 190 70 -800 000/00 RMK AO2 T00610011 $
03949KAQV AQV20160224210511002/24/16 21:05:31  5-MIN KAQV 250305Z AUTO 00000KT 10SM CLR 06/01 A3012 190 70 -800 000/00 RMK AO2 T00560006 $
03949KAQV AQV20160224211011002/24/16 21:10:31  5-MIN KAQV 250310Z AUTO 00000KT 10SM CLR 06/00 A3012 190 67 -800 000/00 RMK AO2 T00560000 $
03949KAQV AQV20160224211511002/24/16 21:15:31  5-MIN KAQV 250315Z AUTO 00000KT 10SM CLR 06/00 A3013 180 67 -800 000/00 RMK AO2 T00560000 $
03949KAQV AQV20160224212011002/24/16 21:20:31  5-MIN KAQV 250320Z AUTO 00000KT 10SM CLR 06/01 A3013 180 73 -800 000/00 RMK AO2 T00560011 $
03949KAQV AQV20160224212511002/24/16 21:25:31  5-MIN KAQV 250325Z AUTO 00000KT 10SM CLR 06/02 A3013 190 76 -800 000/00 RMK AO2 T00560017 $
03949KAQV AQV20160224213011002/24/16 21:30:31  5-MIN KAQV 250330Z AUTO 00000KT 10SM CLR 06/02 A3013 180 76 -800 000/00 RMK AO2 T00560017 $
03949KAQV AQV20160224213511002/24/16 21:35:31  5-MIN KAQV 250335Z AUTO 00000KT 10SM CLR 05/02 A3013 180 82 -900 000/00 RMK AO2 T00500022 $
03949KAQV AQV20160224214011102/24/16 21:40:31  5-MIN KAQV 250340Z AUTO 00000KT 10SM CLR 04/02 A3013 180 85 -1000 000/00 RMK AO2 T00440022 $
03949KAQV AQV20160224214511102/24/16 21:45:31  5-MIN KAQV 250345Z AUTO 00000KT 10SM CLR 04/02 A3013 180 82 -1000 000/00 RMK AO2 T00440017 $
03949KAQV AQV20160224215011802/24/16 21:50:31  5-MIN KAQV 250350Z AUTO 00000KT 10SM CLR 04/02 A3014 180 82 -1000 000/00 RMK AO2 SLP206 T00440017 $
03949KAQV AQV20160224215511802/24/16 21:55:31  5-MIN KAQV 250355Z AUTO 00000KT 10SM CLR 04/02 A3014 180 85 -1000 000/00 RMK AO2 SLP207 T00390017 $
03949KAQV AQV20160224220011102/24/16 22:00:31  5-MIN KAQV 250400Z AUTO 00000KT 10SM CLR 04/01 A3014 170 82 -1000 000/00 RMK AO2 T00390011 $
03949KAQV AQV20160224220511102/24/16 22:05:31  5-MIN KAQV 250405Z AUTO 00000KT 10SM CLR 04/01 A3014 170 82 -1000 000/00 RMK AO2 T00390011 $
03949KAQV AQV20160224221011102/24/16 22:10:31  5-MIN KAQV 250410Z AUTO 00000KT 10SM CLR 04/01 A3014 170 82 -1000 000/00 RMK AO2 T00390011 $
03949KAQV AQV20160224221511102/24/16 22:15:31  5-MIN KAQV 250415Z AUTO 00000KT 10SM CLR 04/02 A3014 170 82 -1000 000/00 RMK AO2 T00440017 $
03949KAQV AQV20160224222011102/24/16 22:20:31  5-MIN KAQV 250420Z AUTO 00000KT 10SM CLR 04/02 A3015 170 82 -1000 000/00 RMK AO2 T00440017 $
03949KAQV AQV20160224222511102/24/16 22:25:31  5-MIN KAQV 250425Z AUTO 00000KT 10SM CLR 04/02 A3015 170 85 -1000 000/00 RMK AO2 T00390017 $
03949KAQV AQV20160224223011102/24/16 22:30:31  5-MIN KAQV 250430Z AUTO 00000KT 10SM CLR 04/02 A3015 170 85 -1000 000/00 RMK AO2 T00390017 $
03949KAQV AQV20160224223511102/24/16 22:35:31  5-MIN KAQV 250435Z AUTO 00000KT 10SM CLR 04/02 A3015 170 85 -1100 000/00 RMK AO2 T00390017 $
03949KAQV AQV20160224224011102/24/16 22:40:31  5-MIN KAQV 250440Z AUTO 00000KT 10SM CLR 04/02 A3015 170 85 -1100 000/00 RMK AO2 T00390017 $
03949KAQV AQV20160224224511102/24/16 22:45:31  5-MIN KAQV 250445Z AUTO 00000KT 10SM CLR 04/02 A3015 160 85 -1100 000/00 RMK AO2 T00390017 $
03949KAQV AQV20160224225011802/24/16 22:50:31  5-MIN KAQV 250450Z AUTO 00000KT 10SM CLR 04/02 A3015 170 85 -1100 000/00 RMK AO2 SLP210 T00390017 $
03949KAQV AQV20160224225511802/24/16 22:55:31  5-MIN KAQV 250455Z AUTO 00000KT 10SM CLR 04/02 A3015 170 85 -1100 000/00 RMK AO2 SLP210 T00390017 $
03949KAQV AQV20160224230011102/24/16 23:00:31  5-MIN KAQV 250500Z AUTO 00000KT 10SM CLR 04/02 A3015 160 85 -1100 000/00 RMK AO2 T00390017 $
03949KAQV AQV20160224230511102/24/16 23:05:31  5-MIN KAQV 250505Z AUTO 00000KT 10SM CLR 04/02 A3015 160 85 -1000 000/00 RMK AO2 T00440022 $
03949KAQV AQV20160224231011102/24/16 23:10:31  5-MIN KAQV 250510Z AUTO 00000KT 10SM CLR 04/02 A3015 160 85 -1000 000/00 RMK AO2 T00440022 $
03949KAQV AQV20160224231511102/24/16 23:15:31  5-MIN KAQV 250515Z AUTO 00000KT 10SM CLR 04/02 A3015 160 89 -1100 000/00 RMK AO2 T00390022 $
03949KAQV AQV20160224232011102/24/16 23:20:31  5-MIN KAQV 250520Z AUTO 00000KT 10SM CLR 03/02 A3016 160 89 -1100 000/00 RMK AO2 T00330017 $
03949KAQV AQV20160224232511102/24/16 23:25:31  5-MIN KAQV 250525Z AUTO 00000KT 10SM CLR 03/01 A3016 160 85 -1100 000/00 RMK AO2 T00330011 $
03949KAQV AQV20160224233011102/24/16 23:30:31  5-MIN KAQV 250530Z AUTO 00000KT 10SM CLR 04/01 A3016 160 82 -1100 000/00 RMK AO2 T00390011 $
03949KAQV AQV20160224233511102/24/16 23:35:31  5-MIN KAQV 250535Z AUTO 00000KT 10SM CLR 04/01 A3016 160 82 -1100 000/00 RMK AO2 T00390011 $
03949KAQV AQV20160224234011102/24/16 23:40:31  5-MIN KAQV 250540Z AUTO 00000KT 10SM CLR 03/02 A3016 160 89 -1100 000/00 RMK AO2 T00330017 $
03949KAQV AQV20160224234511102/24/16 23:45:31  5-MIN KAQV 250545Z AUTO 00000KT 10SM CLR 03/02 A3016 160 89 -1100 000/00 RMK AO2 T00330017 $
03949KAQV AQV20160224235014602/24/16 23:50:31  5-MIN KAQV 250550Z AUTO 00000KT 10SM CLR 03/02 A3016 160 89 -1100 000/00 RMK AO2 SLP214 T00330017 10117 20033 401500033 53025 $
03949KAQV AQV20160224235514602/24/16 23:55:31  5-MIN KAQV 250555Z AUTO 00000KT 10SM CLR 03/01 A3016 160 85 -1100 000/00 RMK AO2 SLP214 T00330011 10117 20033 401500033 53025 $
03949KAQV AQV20160225000011102/25/16 00:00:31  5-MIN KAQV 250600Z AUTO 00000KT 10SM CLR 03/01 A3016 160 85 -1100 000/00 RMK AO2 T00330011 $
03949KAQV AQV20160225000511102/25/16 00:05:31  5-MIN KAQV 250605Z AUTO 00000KT 10SM CLR 03/01 A3016 160 89 -1200 000/00 RMK AO2 T00280011 $
03949KAQV AQV20160225001011102/25/16 00:10:31  5-MIN KAQV 250610Z AUTO 00000KT 10SM CLR 03/01 A3016 160 89 -1200 000/00 RMK AO2 T00280011 $
03949KAQV AQV20160225001511102/25/16 00:15:31  5-MIN KAQV 250615Z AUTO 00000KT 10SM CLR 03/01 A3016 160 85 -1100 000/00 RMK AO2 T00330011 $
03949KAQV AQV20160225002011102/25/16 00:20:31  5-MIN KAQV 250620Z AUTO 00000KT 10SM CLR 03/01 A3015 160 85 -1100 000/00 RMK AO2 T00330011 $
03949KAQV AQV20160225002511102/25/16 00:25:31  5-MIN KAQV 250625Z AUTO 00000KT 10SM CLR 03/02 A3015 160 92 -1200 000/00 RMK AO2 T00280017 $
03949KAQV AQV20160225003011102/25/16 00:30:31  5-MIN KAQV 250630Z AUTO 00000KT 10SM CLR 03/01 A3015 160 89 -1200 000/00 RMK AO2 T00280011 $
03949KAQV AQV20160225003511102/25/16 00:35:31  5-MIN KAQV 250635Z AUTO 00000KT 10SM CLR 03/01 A3015 170 89 -1200 000/00 RMK AO2 T00280011 $
03949KAQV AQV20160225004011102/25/16 00:40:31  5-MIN KAQV 250640Z AUTO 00000KT 10SM CLR 03/01 A3015 160 85 -1100 000/00 RMK AO2 T00330011 $
03949KAQV AQV20160225004511102/25/16 00:45:31  5-MIN KAQV 250645Z AUTO 00000KT 10SM CLR 03/01 A3015 160 89 -1200 000/00 RMK AO2 T00280011 $
03949KAQV AQV20160225005011802/25/16 00:50:31  5-MIN KAQV 250650Z AUTO 23003KT 10SM CLR 03/01 A3015 160 85 -1100 230/03 RMK AO2 SLP211 T00330011 $
03949KAQV AQV20160225005511802/25/16 00:55:31  5-MIN KAQV 250655Z AUTO 00000KT 10SM CLR 03/01 A3015 160 85 -1100 000/00 RMK AO2 SLP211 T00330011 $
03949KAQV AQV20160225010011102/25/16 01:00:31  5-MIN KAQV 250700Z AUTO 00000KT 10SM CLR 03/01 A3015 160 85 -1100 000/00 RMK AO2 T00330011 $
03949KAQV AQV20160225010511102/25/16 01:05:31  5-MIN KAQV 250705Z AUTO 00000KT 10SM CLR 03/01 A3015 160 85 -1100 000/00 RMK AO2 T00330011 $
03949KAQV AQV20160225011011102/25/16 01:10:31  5-MIN KAQV 250710Z AUTO 00000KT 10SM CLR 03/01 A3015 160 85 -1100 000/00 RMK AO2 T00330011 $
03949KAQV AQV20160225011511102/25/16 01:15:31  5-MIN KAQV 250715Z AUTO 00000KT 10SM CLR 03/01 A3015 170 85 -1100 000/00 RMK AO2 T00330011 $
03949KAQV AQV20160225012011102/25/16 01:20:31  5-MIN KAQV 250720Z AUTO 00000KT 10SM CLR 03/01 A3015 170 89 -1200 000/00 RMK AO2 T00280011 $
03949KAQV AQV20160225012511102/25/16 01:25:31  5-MIN KAQV 250725Z AUTO 00000KT 10SM CLR 03/01 A3015 170 89 -1200 000/00 RMK AO2 T00280011 $
03949KAQV AQV20160225013011102/25/16 01:30:31  5-MIN KAQV 250730Z AUTO 18003KT 10SM CLR 03/01 A3014 170 85 -1100 180/03 RMK AO2 T00330011 $
03949KAQV AQV20160225013511102/25/16 01:35:31  5-MIN KAQV 250735Z AUTO 00000KT 10SM CLR 03/01 A3014 170 89 -1200 000/00 RMK AO2 T00280011 $
03949KAQV AQV20160225014011102/25/16 01:40:31  5-MIN KAQV 250740Z AUTO 00000KT 10SM CLR 03/01 A3015 170 89 -1200 000/00 RMK AO2 T00280011 $
03949KAQV AQV20160225014511102/25/16 01:45:31  5-MIN KAQV 250745Z AUTO 19003KT 10SM CLR 03/01 A3015 170 89 -1200 180/03 RMK AO2 T00280011 $
03949KAQV AQV20160225015011802/25/16 01:50:31  5-MIN KAQV 250750Z AUTO 00000KT 10SM CLR 02/01 A3014 170 92 -1300 000/00 RMK AO2 SLP209 T00220011 $
03949KAQV AQV20160225015511802/25/16 01:55:31  5-MIN KAQV 250755Z AUTO 00000KT 10SM CLR 03/01 A3014 170 89 -1200 000/00 RMK AO2 SLP209 T00280011 $
03949KAQV AQV20160225020011102/25/16 02:00:31  5-MIN KAQV 250800Z AUTO 00000KT 10SM CLR 02/01 A3014 170 92 -1300 000/00 RMK AO2 T00220011 $
03949KAQV AQV20160225020511102/25/16 02:05:31  5-MIN KAQV 250805Z AUTO 00000KT 10SM CLR 02/01 A3014 170 92 -1200 000/00 RMK AO2 T00220011 $
03949KAQV AQV20160225021011102/25/16 02:10:31  5-MIN KAQV 250810Z AUTO 00000KT 10SM CLR 02/01 A3014 180 92 -1200 000/00 RMK AO2 T00220011 $
03949KAQV AQV20160225021511102/25/16 02:15:31  5-MIN KAQV 250815Z AUTO 20003KT 10SM CLR 02/01 A3014 180 92 -1200 190/03 RMK AO2 T00220011 $
03949KAQV AQV20160225022011102/25/16 02:20:31  5-MIN KAQV 250820Z AUTO 00000KT 10SM CLR 02/01 A3014 180 92 -1200 000/00 RMK AO2 T00220011 $
03949KAQV AQV20160225022511102/25/16 02:25:31  5-MIN KAQV 250825Z AUTO VRB03KT 10SM CLR 02/01 A3014 180 92 -1200 VRB/03 RMK AO2 T00220011 $
03949KAQV AQV20160225023011102/25/16 02:30:31  5-MIN KAQV 250830Z AUTO 19003KT 10SM CLR 02/01 A3014 180 92 -1200 190/03 RMK AO2 T00220011 $
03949KAQV AQV20160225023511102/25/16 02:35:31  5-MIN KAQV 250835Z AUTO 00000KT 10SM CLR 03/01 A3013 180 89 -1200 000/00 RMK AO2 T00280011 $
03949KAQV AQV20160225024011102/25/16 02:40:31  5-MIN KAQV 250840Z AUTO 00000KT 10SM CLR 03/01 A3013 180 89 -1200 000/00 RMK AO2 T00280011 $
03949KAQV AQV20160225024511102/25/16 02:45:31  5-MIN KAQV 250845Z AUTO 00000KT 10SM CLR 03/01 A3013 180 89 -1200 000/00 RMK AO2 T00280011 $
03949KAQV AQV20160225025012402/25/16 02:50:31  5-MIN KAQV 250850Z AUTO 00000KT 10SM CLR 03/01 A3013 180 89 -1200 000/00 RMK AO2 SLP204 T00280011 53011 $
03949KAQV AQV20160225025512402/25/16 02:55:31  5-MIN KAQV 250855Z AUTO 00000KT 10SM CLR 03/01 A3013 180 85 -1200 000/00 RMK AO2 SLP204 T00280006 53011 $
03949KAQV AQV20160225030011102/25/16 03:00:31  5-MIN KAQV 250900Z AUTO 00000KT 10SM CLR 03/01 A3013 190 85 -1200 000/00 RMK AO2 T00280006 $
03949KAQV AQV20160225030511102/25/16 03:05:31  5-MIN KAQV 250905Z AUTO VRB03KT 10SM CLR 03/01 A3013 190 85 -1200 VRB/03 RMK AO2 T00280006 $
03949KAQV AQV20160225031011102/25/16 03:10:31  5-MIN KAQV 250910Z AUTO 00000KT 10SM CLR 03/01 A3012 190 85 -1200 000/00 RMK AO2 T00280006 $
03949KAQV AQV20160225031511102/25/16 03:15:31  5-MIN KAQV 250915Z AUTO 00000KT 10SM CLR 03/01 A3012 190 85 -1200 000/00 RMK AO2 T00280006 $
03949KAQV AQV20160225032011102/25/16 03:20:31  5-MIN KAQV 250920Z AUTO 19003KT 10SM CLR 03/01 A3012 190 85 -1200 180/03 RMK AO2 T00280006 $
03949KAQV AQV20160225032511102/25/16 03:25:31  5-MIN KAQV 250925Z AUTO 18003KT 10SM CLR 03/01 A3012 190 85 -1200 180/03 RMK AO2 T00280006 $
03949KAQV AQV20160225033011102/25/16 03:30:31  5-MIN KAQV 250930Z AUTO 00000KT 10SM CLR 02/01 A3012 190 89 -1200 000/00 RMK AO2 T00220006 $
03949KAQV AQV20160225033511102/25/16 03:35:31  5-MIN KAQV 250935Z AUTO 00000KT 10SM CLR 02/01 A3012 190 89 -1200 000/00 RMK AO2 T00220006 $
03949KAQV AQV20160225034011102/25/16 03:40:31  5-MIN KAQV 250940Z AUTO 00000KT 10SM CLR 02/01 A3012 190 89 -1200 000/00 RMK AO2 T00220006 $
03949KAQV AQV20160225034511102/25/16 03:45:31  5-MIN KAQV 250945Z AUTO 00000KT 10SM CLR 02/01 A3012 190 89 -1200 000/00 RMK AO2 T00220006 $
03949KAQV AQV20160225035011802/25/16 03:50:31  5-MIN KAQV 250950Z AUTO 00000KT 10SM CLR 02/01 A3012 190 92 -1300 000/00 RMK AO2 SLP201 T00170006 $
03949KAQV AQV20160225035511802/25/16 03:55:31  5-MIN KAQV 250955Z AUTO 00000KT 10SM CLR 02/01 A3012 190 92 -1300 000/00 RMK AO2 SLP201 T00170006 $
03949KAQV AQV20160225040011102/25/16 04:00:31  5-MIN KAQV 251000Z AUTO 00000KT 10SM CLR 02/01 A3012 190 89 -1200 000/00 RMK AO2 T00220006 $
03949KAQV AQV20160225040511102/25/16 04:05:31  5-MIN KAQV 251005Z AUTO 00000KT 10SM CLR 02/01 A3012 190 92 -1300 000/00 RMK AO2 T00170006 $
03949KAQV AQV20160225041011102/25/16 04:10:31  5-MIN KAQV 251010Z AUTO 00000KT 10SM CLR 02/01 A3013 190 92 -1300 000/00 RMK AO2 T00170006 $
03949KAQV AQV20160225041511102/25/16 04:15:31  5-MIN KAQV 251015Z AUTO 00000KT 10SM CLR 02/01 A3013 190 92 -1300 000/00 RMK AO2 T00170006 $
03949KAQV AQV20160225042011102/25/16 04:20:31  5-MIN KAQV 251020Z AUTO 00000KT 10SM CLR 02/01 A3013 180 92 -1300 000/00 RMK AO2 T00170006 $
03949KAQV AQV20160225042511102/25/16 04:25:31  5-MIN KAQV 251025Z AUTO 21003KT 10SM CLR 02/01 A3013 180 92 -1300 200/03 RMK AO2 T00170006 $
03949KAQV AQV20160225043011102/25/16 04:30:31  5-MIN KAQV 251030Z AUTO VRB03KT 10SM CLR 02/01 A3013 180 92 -1300 VRB/03 RMK AO2 T00170006 $
03949KAQV AQV20160225043511102/25/16 04:35:31  5-MIN KAQV 251035Z AUTO 00000KT 10SM CLR 02/01 A3013 180 89 -1200 000/00 RMK AO2 T00220006 $
03949KAQV AQV20160225044011102/25/16 04:40:31  5-MIN KAQV 251040Z AUTO 00000KT 10SM CLR 02/01 A3013 180 89 -1200 000/00 RMK AO2 T00220006 $
03949KAQV AQV20160225044511102/25/16 04:45:31  5-MIN KAQV 251045Z AUTO 00000KT 10SM CLR 02/01 A3013 180 89 -1200 000/00 RMK AO2 T00220006 $
03949KAQV AQV20160225045011802/25/16 04:50:31  5-MIN KAQV 251050Z AUTO 00000KT 10SM CLR 02/01 A3013 180 89 -1200 000/00 RMK AO2 SLP206 T00220006 $
03949KAQV AQV20160225045511802/25/16 04:55:31  5-MIN KAQV 251055Z AUTO 00000KT 10SM CLR 02/01 A3013 180 89 -1200 000/00 RMK AO2 SLP206 T00220006 $
03949KAQV AQV20160225050011102/25/16 05:00:31  5-MIN KAQV 251100Z AUTO 00000KT 10SM CLR 02/01 A3014 180 89 -1200 000/00 RMK AO2 T00220006 $
03949KAQV AQV20160225050511102/25/16 05:05:31  5-MIN KAQV 251105Z AUTO 00000KT 10SM CLR 02/01 A3014 170 89 -1200 000/00 RMK AO2 T00220006 $
03949KAQV AQV20160225051011102/25/16 05:10:31  5-MIN KAQV 251110Z AUTO 00000KT 10SM CLR 02/01 A3014 180 89 -1200 000/00 RMK AO2 T00220006 $
03949KAQV AQV20160225051511102/25/16 05:15:31  5-MIN KAQV 251115Z AUTO 00000KT 10SM CLR 02/01 A3014 170 89 -1200 000/00 RMK AO2 T00220006 $
03949KAQV AQV20160225052011102/25/16 05:20:31  5-MIN KAQV 251120Z AUTO 00000KT 10SM CLR 02/01 A3014 170 89 -1200 000/00 RMK AO2 T00220006 $
03949KAQV AQV20160225052511102/25/16 05:25:31  5-MIN KAQV 251125Z AUTO 00000KT 10SM CLR 02/01 A3014 170 89 -1200 000/00 RMK AO2 T00220006 $
03949KAQV AQV20160225053011102/25/16 05:30:31  5-MIN KAQV 251130Z AUTO 00000KT 10SM CLR 02/01 A3014 170 89 -1300 000/00 RMK AO2 T00220006 $
03949KAQV AQV20160225053511102/25/16 05:35:31  5-MIN KAQV 251135Z AUTO 00000KT 10SM CLR 02/01 A3014 170 89 -1300 000/00 RMK AO2 T00220006 $
03949KAQV AQV20160225054011102/25/16 05:40:31  5-MIN KAQV 251140Z AUTO 20003KT 10SM CLR 02/01 A3014 170 89 -1300 200/03 RMK AO2 T00220006 $
03949KAQV AQV20160225054511102/25/16 05:45:31  5-MIN KAQV 251145Z AUTO VRB03KT 10SM CLR 03/01 A3015 170 85 -1200 VRB/03 RMK AO2 T00280006 $
03949KAQV AQV20160225055013602/25/16 05:50:31  5-MIN KAQV 251150Z AUTO VRB03KT 10SM CLR 03/01 A3015 170 85 -1200 VRB/03 RMK AO2 SLP210 T00280006 10033 20017 58010 $
03949KAQV AQV20160225055513602/25/16 05:55:31  5-MIN KAQV 251155Z AUTO VRB03KT 10SM CLR 03/01 A3015 160 82 -1100 VRB/03 RMK AO2 SLP212 T00330006 10033 20017 58010 $
03949KAQV AQV20160225060011102/25/16 06:00:31  5-MIN KAQV 251200Z AUTO VRB03KT 10SM CLR 03/00 A3015 160 79 -1100 VRB/03 RMK AO2 T00330000 $
03949KAQV AQV20160225060511102/25/16 06:05:31  5-MIN KAQV 251205Z AUTO 23003KT 10SM CLR 04/00 A3016 160 76 -1100 220/03 RMK AO2 T00390000 $
03949KAQV AQV20160225061011102/25/16 06:10:31  5-MIN KAQV 251210Z AUTO 00000KT 10SM CLR 04/00 A3016 160 73 -1000 000/00 RMK AO2 T00440000 $
03949KAQV AQV20160225061511102/25/16 06:15:31  5-MIN KAQV 251215Z AUTO 00000KT 10SM CLR 04/00 A3016 150 73 -1000 000/00 RMK AO2 T00440000 $
03949KAQV AQV20160225062011102/25/16 06:20:31  5-MIN KAQV 251220Z AUTO 00000KT 10SM CLR 04/00 A3016 150 73 -1000 000/00 RMK AO2 T00440000 $
03949KAQV AQV20160225062511102/25/16 06:25:31  5-MIN KAQV 251225Z AUTO 00000KT 10SM CLR 04/00 A3016 150 73 -1000 000/00 RMK AO2 T00440000 $
03949KAQV AQV20160225063011102/25/16 06:30:31  5-MIN KAQV 251230Z AUTO 00000KT 10SM CLR 04/00 A3016 150 76 -1100 000/00 RMK AO2 T00390000 $
03949KAQV AQV20160225063511102/25/16 06:35:31  5-MIN KAQV 251235Z AUTO 00000KT 10SM CLR 04/00 A3017 150 73 -1000 000/00 RMK AO2 T00440000 $
03949KAQV AQV20160225064011102/25/16 06:40:31  5-MIN KAQV 251240Z AUTO VRB03KT 10SM CLR 04/00 A3017 150 76 -1100 VRB/03 RMK AO2 T00390000 $
03949KAQV AQV20160225064511102/25/16 06:45:31  5-MIN KAQV 251245Z AUTO 00000KT 10SM CLR 04/00 A3017 150 73 -1000 000/00 RMK AO2 T00440000 $
03949KAQV AQV20160225065011802/25/16 06:50:31  5-MIN KAQV 251250Z AUTO 00000KT 10SM CLR 04/00 A3017 140 73 -1000 000/00 RMK AO2 SLP219 T00440000 $
03949KAQV AQV20160225065511702/25/16 06:55:31  5-MIN KAQV 251255Z AUTO 00000KT 10SM CLR 05/00 A3018 140 70 -900 000/00 RMK AO2 SLP221 T00500000 $
03949KAQV AQV20160225070011102/25/16 07:00:31  5-MIN KAQV 251300Z AUTO 00000KT 10SM CLR 04/00 A3018 140 73 -1000 000/00 RMK AO2 T00440000 $
03949KAQV AQV20160225070511102/25/16 07:05:31  5-MIN KAQV 251305Z AUTO 00000KT 10SM CLR 05/00 A3018 140 70 -1000 000/00 RMK AO2 T00500000 $
03949KAQV AQV20160225071011102/25/16 07:10:31  5-MIN KAQV 251310Z AUTO 00000KT 10SM CLR 04/01 A3018 130 76 -1000 000/00 RMK AO2 T00440006 $
