54779K12N 12N20160102072010201/02/16 07:20:31  5-MIN K12N 021220Z AUTO VRB03KT M01/M07 A3004 470 61 -1200 VRB/03 RMK AO1 T10061072
54779K12N 12N20160102072510201/02/16 07:25:31  5-MIN K12N 021225Z AUTO 00000KT M01/M07 A3004 470 61 -1200 000/00 RMK AO1 T10061072
54779K12N 12N20160102073010201/02/16 07:30:31  5-MIN K12N 021230Z AUTO 00000KT M01/M07 A3004 470 61 -1200 000/00 RMK AO1 T10061072
54779K12N 12N20160102073510201/02/16 07:35:31  5-MIN K12N 021235Z AUTO 00000KT M01/M07 A3004 470 61 -1200 000/00 RMK AO1 T10061072
54779K12N 12N20160102074010201/02/16 07:40:31  5-MIN K12N 021240Z AUTO VRB04KT M01/M07 A3005 470 61 -1200 VRB/04 RMK AO1 T10061072
54779K12N 12N20160102074510201/02/16 07:45:31  5-MIN K12N 021245Z AUTO VRB04KT M01/M07 A3005 470 61 -1200 VRB/04 RMK AO1 T10061072
54779K12N 12N20160102075010901/02/16 07:50:31  5-MIN K12N 021250Z AUTO 22003KT M01/M07 A3005 470 61 -1200 230/03 RMK AO1 SLP187 T10061072
54779K12N 12N20160102075510201/02/16 07:55:31  5-MIN K12N 021255Z AUTO 00000KT M01/M07 A3005 460 61 -1200 000/00 RMK AO1 T10061072
54779K12N 12N20160102080010201/02/16 08:00:31  5-MIN K12N 021300Z AUTO 00000KT M01/M07 A3005 460 61 -1200 000/00 RMK AO1 T10061072
54779K12N 12N20160102080510201/02/16 08:05:31  5-MIN K12N 021305Z AUTO VRB03KT M01/M07 A3005 470 61 -1200 VRB/03 RMK AO1 T10061072
54779K12N 12N20160102081010201/02/16 08:10:31  5-MIN K12N 021310Z AUTO VRB04KT M01/M07 A3005 470 61 -1200 VRB/04 RMK AO1 T10061072
54779K12N 12N20160102081510201/02/16 08:15:31  5-MIN K12N 021315Z AUTO VRB03KT M01/M07 A3005 470 61 -1200 VRB/03 RMK AO1 T10061072
54779K12N 12N20160102082010201/02/16 08:20:31  5-MIN K12N 021320Z AUTO VRB03KT M01/M07 A3005 470 61 -1200 VRB/03 RMK AO1 T10061072
54779K12N 12N20160102082510201/02/16 08:25:31  5-MIN K12N 021325Z AUTO VRB03KT M01/M07 A3005 470 61 -1200 VRB/03 RMK AO1 T10061072
54779K12N 12N20160102083010201/02/16 08:30:31  5-MIN K12N 021330Z AUTO 00000KT M01/M07 A3005 460 61 -1200 000/00 RMK AO1 T10061072
54779K12N 12N20160102083510201/02/16 08:35:31  5-MIN K12N 021335Z AUTO 00000KT M01/M07 A3006 460 61 -1200 000/00 RMK AO1 T10061072
54779K12N 12N20160102084010101/02/16 08:40:31  5-MIN K12N 021340Z AUTO 00000KT 00/M07 A3006 460 58 -1200 000/00 RMK AO1 T00001072
54779K12N 12N20160102084510101/02/16 08:45:31  5-MIN K12N 021345Z AUTO 00000KT 00/M07 A3006 460 58 -1200 000/00 RMK AO1 T00001072
54779K12N 12N20160102085010801/02/16 08:50:31  5-MIN K12N 021350Z AUTO 00000KT 00/M07 A3006 450 58 -1200 000/00 RMK AO1 SLP191 T00001072
54779K12N 12N20160102085510101/02/16 08:55:31  5-MIN K12N 021355Z AUTO 00000KT 00/M07 A3006 460 58 -1200 000/00 RMK AO1 T00001072
54779K12N 12N20160102090010101/02/16 09:00:31  5-MIN K12N 021400Z AUTO VRB04KT 00/M07 A3006 450 58 -1200 VRB/04 RMK AO1 T00001072
54779K12N 12N20160102090510101/02/16 09:05:31  5-MIN K12N 021405Z AUTO 00000KT 00/M07 A3006 450 58 -1200 000/00 RMK AO1 T00001072
54779K12N 12N20160102091010101/02/16 09:10:31  5-MIN K12N 021410Z AUTO 00000KT 00/M07 A3007 450 58 -1200 000/00 RMK AO1 T00001072
54779K12N 12N20160102091510101/02/16 09:15:31  5-MIN K12N 021415Z AUTO 00000KT 01/M07 A3007 450 56 -1100 000/00 RMK AO1 T00061072
54779K12N 12N20160102092010101/02/16 09:20:31  5-MIN K12N 021420Z AUTO VRB03KT 00/M07 A3007 450 61 -1200 VRB/03 RMK AO1 T00001067
54779K12N 12N20160102092510101/02/16 09:25:31  5-MIN K12N 021425Z AUTO 22004KT 00/M07 A3007 450 58 -1200 240/04 RMK AO1 T00001072
54779K12N 12N20160102093010101/02/16 09:30:31  5-MIN K12N 021430Z AUTO VRB03KT 00/M07 A3007 440 58 -1200 VRB/03 RMK AO1 T00001072
54779K12N 12N20160102093510101/02/16 09:35:31  5-MIN K12N 021435Z AUTO VRB04KT 01/M07 A3008 440 56 -1100 VRB/04 RMK AO1 T00061072
54779K12N 12N20160102094010101/02/16 09:40:31  5-MIN K12N 021440Z AUTO 22003KT 01/M07 A3008 440 56 -1100 230/03 RMK AO1 T00061072
54779K12N 12N20160102094510101/02/16 09:45:31  5-MIN K12N 021445Z AUTO VRB05KT 01/M07 A3007 440 56 -1100 VRB/05 RMK AO1 T00061072
54779K12N 12N20160102095011401/02/16 09:50:31  5-MIN K12N 021450Z AUTO VRB03KT 01/M07 A3007 440 56 -1100 VRB/03 RMK AO1 SLP195 T00061072 53003
54779K12N 12N20160102095510101/02/16 09:55:31  5-MIN K12N 021455Z AUTO VRB03KT 01/M07 A3007 450 56 -1100 VRB/03 RMK AO1 T00061072
54779K12N 12N20160102100010101/02/16 10:00:31  5-MIN K12N 021500Z AUTO 21004KT 01/M07 A3007 450 56 -1100 230/04 RMK AO1 T00061072
54779K12N 12N20160102100510101/02/16 10:05:31  5-MIN K12N 021505Z AUTO VRB06KT 01/M07 A3007 450 54 -1000 VRB/06 RMK AO1 T00111072
54779K12N 12N20160102101010101/02/16 10:10:31  5-MIN K12N 021510Z AUTO VRB04KT 01/M07 A3007 450 56 -1100 VRB/04 RMK AO1 T00061072
54779K12N 12N20160102101510101/02/16 10:15:31  5-MIN K12N 021515Z AUTO VRB03KT 01/M07 A3007 450 54 -1000 VRB/03 RMK AO1 T00111072
54779K12N 12N20160102102010101/02/16 10:20:31  5-MIN K12N 021520Z AUTO VRB03KT 01/M07 A3006 450 56 -1000 VRB/03 RMK AO1 T00111067
54779K12N 12N20160102102510101/02/16 10:25:31  5-MIN K12N 021525Z AUTO 32006KT 02/M07 A3006 450 54 -1000 330/06 RMK AO1 T00171067
54779K12N 12N20160102103010101/02/16 10:30:31  5-MIN K12N 021530Z AUTO VRB04KT 01/M07 A3006 450 54 -1000 VRB/04 RMK AO1 T00111072
54779K12N 12N20160102103510101/02/16 10:35:31  5-MIN K12N 021535Z AUTO VRB04KT 01/M07 A3006 460 54 -1000 VRB/04 RMK AO1 T00111072
54779K12N 12N20160102104010101/02/16 10:40:31  5-MIN K12N 021540Z AUTO 24007KT 01/M07 A3006 460 54 -1000 260/07 RMK AO1 T00111072
54779K12N 12N20160102104511701/02/16 10:45:31  5-MIN K12N 021545Z AUTO 24007KT 210V280 01/M07 A3006 460 54 -1000 250/07 220V290 RMK AO1 T00111072
54779K12N 12N20160102105010801/02/16 10:50:31  5-MIN K12N 021550Z AUTO 25003KT 01/M07 A3006 460 54 -1000 260/03 RMK AO1 SLP189 T00111072
54779K12N 12N20160102105510101/02/16 10:55:31  5-MIN K12N 021555Z AUTO VRB04KT 01/M07 A3006 460 54 -1000 VRB/04 RMK AO1 T00111072
54779K12N 12N20160102110010101/02/16 11:00:31  5-MIN K12N 021600Z AUTO 23007KT 01/M07 A3006 460 54 -1000 240/07 RMK AO1 T00111072
54779K12N 12N20160102110510101/02/16 11:05:31  5-MIN K12N 021605Z AUTO VRB05KT 01/M07 A3006 460 54 -1000 VRB/05 RMK AO1 T00111072
54779K12N 12N20160102111010101/02/16 11:10:31  5-MIN K12N 021610Z AUTO VRB05KT 01/M07 A3006 460 54 -1000 VRB/05 RMK AO1 T00111072
54779K12N 12N20160102111511701/02/16 11:15:31  5-MIN K12N 021615Z AUTO 23007KT 190V250 01/M07 A3005 460 54 -1000 240/07 200V260 RMK AO1 T00111072
54779K12N 12N20160102112010101/02/16 11:20:31  5-MIN K12N 021620Z AUTO 23007KT 01/M07 A3005 470 54 -1000 240/07 RMK AO1 T00111072
54779K12N 12N20160102112510101/02/16 11:25:31  5-MIN K12N 021625Z AUTO VRB06KT 01/M07 A3004 470 54 -1000 VRB/06 RMK AO1 T00111072
54779K12N 12N20160102113010101/02/16 11:30:31  5-MIN K12N 021630Z AUTO VRB06KT 01/M07 A3004 480 56 -1000 VRB/06 RMK AO1 T00111067
54779K12N 12N20160102113510101/02/16 11:35:31  5-MIN K12N 021635Z AUTO 24005KT 01/M07 A3004 480 54 -1000 250/05 RMK AO1 T00111072
54779K12N 12N20160102114010101/02/16 11:40:31  5-MIN K12N 021640Z AUTO VRB04KT 01/M07 A3003 480 56 -1000 VRB/04 RMK AO1 T00111067
54779K12N 12N20160102114511701/02/16 11:45:31  5-MIN K12N 021645Z AUTO 23008KT 210V270 01/M07 A3003 480 56 -1000 240/08 220V280 RMK AO1 T00111067
54779K12N 12N20160102115010801/02/16 11:50:31  5-MIN K12N 021650Z AUTO VRB05KT 01/M07 A3003 480 54 -1000 VRB/05 RMK AO1 SLP180 T00111072
54779K12N 12N20160102115510101/02/16 11:55:31  5-MIN K12N 021655Z AUTO VRB06KT 01/M07 A3003 490 54 -1000 VRB/06 RMK AO1 T00111072
54779K12N 12N20160102120010101/02/16 12:00:31  5-MIN K12N 021700Z AUTO VRB05KT 01/M07 A3002 490 54 -1000 VRB/05 RMK AO1 T00111072
54779K12N 12N20160102120510101/02/16 12:05:31  5-MIN K12N 021705Z AUTO VRB06KT 01/M07 A3002 500 54 -1000 VRB/06 RMK AO1 T00111072
54779K12N 12N20160102121010001/02/16 12:10:31  5-MIN K12N 021710Z AUTO VRB05KT 02/M07 A3001 500 52 -900 VRB/05 RMK AO1 T00171072
54779K12N 12N20160102121510001/02/16 12:15:31  5-MIN K12N 021715Z AUTO VRB04KT 02/M07 A3001 510 54 -900 VRB/04 RMK AO1 T00171067
54779K12N 12N20160102122010001/02/16 12:20:31  5-MIN K12N 021720Z AUTO VRB05KT 02/M07 A3001 510 52 -800 VRB/05 RMK AO1 T00221067
54779K12N 12N20160102122509001/02/16 12:25:31  5-MIN K12N 021725Z AUTO 02/M07 A3000 510 52 -800 M /M RMK AO1 T00221067
54779K12N 12N20160102123010001/02/16 12:30:31  5-MIN K12N 021730Z AUTO VRB03KT 02/M07 A3000 510 52 -800 VRB/03 RMK AO1 T00221067
54779K12N 12N20160102123510001/02/16 12:35:31  5-MIN K12N 021735Z AUTO VRB06KT 03/M06 A3000 510 52 -800 VRB/06 RMK AO1 T00281061
54779K12N 12N20160102124010001/02/16 12:40:31  5-MIN K12N 021740Z AUTO VRB06KT 02/M07 A3000 510 52 -800 VRB/06 RMK AO1 T00221067
54779K12N 12N20160102124510001/02/16 12:45:31  5-MIN K12N 021745Z AUTO 21008KT 02/M07 A3000 510 52 -800 230/08 RMK AO1 T00221067
54779K12N 12N20160102125012501/02/16 12:50:31  5-MIN K12N 021750Z AUTO VRB06KT 02/M07 A3000 520 52 -800 VRB/06 RMK AO1 SLP167 T00221067 10028 21006 51010
54779K12N 12N20160102125510001/02/16 12:55:31  5-MIN K12N 021755Z AUTO VRB05KT 02/M07 A3000 520 52 -800 VRB/05 RMK AO1 T00221067
54779K12N 12N20160102130010001/02/16 13:00:31  5-MIN K12N 021800Z AUTO 23009KT 03/M06 A3000 520 52 -800 240/09 RMK AO1 T00281061
54779K12N 12N20160102130510601/02/16 13:05:31  5-MIN K12N 021805Z AUTO 24006G14KT 03/M06 A2999 520 52 -800 250/06G14 RMK AO1 T00281061
54779K12N 12N20160102131010601/02/16 13:10:31  5-MIN K12N 021810Z AUTO VRB05G14KT 03/M06 A2999 520 50 -700 VRB/05G14 RMK AO1 T00331061
54779K12N 12N20160102131510001/02/16 13:15:31  5-MIN K12N 021815Z AUTO 23007KT 03/M06 A2999 520 52 -700 250/07 RMK AO1 T00281061
54779K12N 12N20160102132010001/02/16 13:20:31  5-MIN K12N 021820Z AUTO VRB06KT 03/M06 A2999 520 52 -700 VRB/06 RMK AO1 T00281061
54779K12N 12N20160102132510001/02/16 13:25:31  5-MIN K12N 021825Z AUTO VRB06KT 02/M07 A2999 520 52 -800 VRB/06 RMK AO1 T00221067
54779K12N 12N20160102133010001/02/16 13:30:31  5-MIN K12N 021830Z AUTO VRB05KT 02/M07 A2998 530 52 -800 VRB/05 RMK AO1 T00221067
54779K12N 12N20160102133510001/02/16 13:35:31  5-MIN K12N 021835Z AUTO 27006KT 02/M07 A2998 530 52 -800 280/06 RMK AO1 T00221067
54779K12N 12N20160102134010001/02/16 13:40:31  5-MIN K12N 021840Z AUTO VRB03KT 02/M07 A2998 530 52 -800 VRB/03 RMK AO1 T00221067
54779K12N 12N20160102134509001/02/16 13:45:31  5-MIN K12N 021845Z AUTO 03/M06 A2998 530 52 -700 M /M RMK AO1 T00281061
54779K12N 12N20160102135010701/02/16 13:50:31  5-MIN K12N 021850Z AUTO VRB04KT 02/M07 A2998 530 52 -800 VRB/04 RMK AO1 SLP163 T00221067
54779K12N 12N20160102135510001/02/16 13:55:31  5-MIN K12N 021855Z AUTO VRB03KT 03/M07 A2998 530 50 -700 VRB/03 RMK AO1 T00281067
54779K12N 12N20160102140010001/02/16 14:00:31  5-MIN K12N 021900Z AUTO VRB04KT 03/M06 A2998 530 52 -700 VRB/04 RMK AO1 T00281061
54779K12N 12N20160102140510001/02/16 14:05:31  5-MIN K12N 021905Z AUTO 24009KT 03/M07 A2998 530 50 -700 250/09 RMK AO1 T00281067
54779K12N 12N20160102141010001/02/16 14:10:31  5-MIN K12N 021910Z AUTO VRB06KT 03/M07 A2997 540 50 -700 VRB/06 RMK AO1 T00281067
54779K12N 12N20160102141510001/02/16 14:15:31  5-MIN K12N 021915Z AUTO VRB05KT 03/M07 A2997 540 50 -700 VRB/05 RMK AO1 T00281067
54779K12N 12N20160102142010001/02/16 14:20:31  5-MIN K12N 021920Z AUTO 24008KT 03/M07 A2997 540 50 -700 260/08 RMK AO1 T00281067
54779K12N 12N20160102142510001/02/16 14:25:31  5-MIN K12N 021925Z AUTO VRB06KT 03/M07 A2998 530 50 -700 VRB/06 RMK AO1 T00281067
54779K12N 12N20160102143010001/02/16 14:30:31  5-MIN K12N 021930Z AUTO VRB05KT 03/M07 A2998 530 50 -700 VRB/05 RMK AO1 T00281067
54779K12N 12N20160102143511601/02/16 14:35:31  5-MIN K12N 021935Z AUTO 31008KT 240V020 03/M07 A2997 530 50 -700 320/08 250V030 RMK AO1 T00281067
54779K12N 12N20160102144011601/02/16 14:40:31  5-MIN K12N 021940Z AUTO 25007KT 220V300 02/M07 A2997 540 52 -800 260/07 230V310 RMK AO1 T00221067
54779K12N 12N20160102144510001/02/16 14:45:31  5-MIN K12N 021945Z AUTO VRB06KT 02/M07 A2997 540 52 -800 VRB/06 RMK AO1 T00221067
54779K12N 12N20160102145010701/02/16 14:50:31  5-MIN K12N 021950Z AUTO VRB05KT 02/M07 A2997 540 52 -800 VRB/05 RMK AO1 SLP160 T00221067
54779K12N 12N20160102145510001/02/16 14:55:31  5-MIN K12N 021955Z AUTO VRB06KT 02/M07 A2998 530 52 -800 VRB/06 RMK AO1 T00221067
54779K12N 12N20160102150011601/02/16 15:00:31  5-MIN K12N 022000Z AUTO 33007KT 300V030 02/M07 A2998 530 52 -800 350/07 310V040 RMK AO1 T00221067
54779K12N 12N20160102150510001/02/16 15:05:31  5-MIN K12N 022005Z AUTO VRB05KT 02/M07 A2998 530 50 -800 VRB/05 RMK AO1 T00221072
54779K12N 12N20160102151010001/02/16 15:10:31  5-MIN K12N 022010Z AUTO VRB06KT 02/M07 A2998 530 52 -900 VRB/06 RMK AO1 T00171072
54779K12N 12N20160102151510001/02/16 15:15:31  5-MIN K12N 022015Z AUTO 31008KT 02/M07 A2998 530 52 -900 320/08 RMK AO1 T00171072
54779K12N 12N20160102152011601/02/16 15:20:31  5-MIN K12N 022020Z AUTO 29007KT 240V330 02/M07 A2998 530 52 -900 300/07 250V340 RMK AO1 T00171072
54779K12N 12N20160102152511601/02/16 15:25:31  5-MIN K12N 022025Z AUTO 32007KT 290V360 02/M07 A2998 530 52 -900 330/07 300V010 RMK AO1 T00171072
54779K12N 12N20160102153010601/02/16 15:30:31  5-MIN K12N 022030Z AUTO VRB06G14KT 02/M08 A2999 520 49 -900 VRB/06G14 RMK AO1 T00171078
54779K12N 12N20160102153510601/02/16 15:35:31  5-MIN K12N 022035Z AUTO VRB03G14KT 02/M08 A2999 520 49 -900 VRB/03G14 RMK AO1 T00171078
54779K12N 12N20160102154010001/02/16 15:40:31  5-MIN K12N 022040Z AUTO VRB04KT 02/M07 A2999 520 52 -900 VRB/04 RMK AO1 T00171072
54779K12N 12N20160102154510101/02/16 15:45:31  5-MIN K12N 022045Z AUTO VRB05KT 01/M08 A2999 520 51 -1000 VRB/05 RMK AO1 T00111078
54779K12N 12N20160102155011401/02/16 15:50:31  5-MIN K12N 022050Z AUTO VRB04KT 01/M08 A2999 520 51 -1000 VRB/04 RMK AO1 SLP167 T00111078 58025
54779K12N 12N20160102155510101/02/16 15:55:31  5-MIN K12N 022055Z AUTO VRB04KT 01/M08 A2999 520 51 -1000 VRB/04 RMK AO1 T00111078
54779K12N 12N20160102160010101/02/16 16:00:31  5-MIN K12N 022100Z AUTO VRB04KT 01/M08 A2999 520 51 -1000 VRB/04 RMK AO1 T00111078
54779K12N 12N20160102160510101/02/16 16:05:31  5-MIN K12N 022105Z AUTO 31006KT 01/M08 A2999 520 51 -1000 320/06 RMK AO1 T00111078
54779K12N 12N20160102161010101/02/16 16:10:31  5-MIN K12N 022110Z AUTO VRB06KT 01/M08 A2999 520 51 -1000 VRB/06 RMK AO1 T00111078
54779K12N 12N20160102161510101/02/16 16:15:31  5-MIN K12N 022115Z AUTO VRB04KT 01/M08 A2999 520 51 -1000 VRB/04 RMK AO1 T00111078
54779K12N 12N20160102162010101/02/16 16:20:31  5-MIN K12N 022120Z AUTO VRB04KT 01/M08 A2999 520 51 -1000 VRB/04 RMK AO1 T00111078
54779K12N 12N20160102162510101/02/16 16:25:31  5-MIN K12N 022125Z AUTO VRB03KT 01/M08 A2999 520 51 -1000 VRB/03 RMK AO1 T00111078
54779K12N 12N20160102163010101/02/16 16:30:31  5-MIN K12N 022130Z AUTO VRB04KT 01/M08 A2999 520 51 -1000 VRB/04 RMK AO1 T00111078
54779K12N 12N20160102163510101/02/16 16:35:31  5-MIN K12N 022135Z AUTO 00000KT 01/M08 A2999 520 51 -1000 000/00 RMK AO1 T00111078
54779K12N 12N20160102164010101/02/16 16:40:31  5-MIN K12N 022140Z AUTO 32003KT 01/M08 A2999 520 51 -1000 330/03 RMK AO1 T00111078
54779K12N 12N20160102164510101/02/16 16:45:31  5-MIN K12N 022145Z AUTO 00000KT 01/M08 A2999 520 51 -1000 000/00 RMK AO1 T00111078
54779K12N 12N20160102165010801/02/16 16:50:31  5-MIN K12N 022150Z AUTO 00000KT 01/M08 A2999 520 51 -1000 000/00 RMK AO1 SLP166 T00111078
54779K12N 12N20160102165510101/02/16 16:55:31  5-MIN K12N 022155Z AUTO 00000KT 01/M08 A2999 520 51 -1000 000/00 RMK AO1 T00111078
54779K12N 12N20160102170010101/02/16 17:00:31  5-MIN K12N 022200Z AUTO 00000KT 01/M08 A2999 520 51 -1000 000/00 RMK AO1 T00111078
54779K12N 12N20160102170510101/02/16 17:05:31  5-MIN K12N 022205Z AUTO VRB04KT 01/M08 A2999 520 51 -1000 VRB/04 RMK AO1 T00111078
54779K12N 12N20160102171010101/02/16 17:10:31  5-MIN K12N 022210Z AUTO VRB04KT 01/M08 A2999 520 51 -1000 VRB/04 RMK AO1 T00111078
54779K12N 12N20160102171510101/02/16 17:15:31  5-MIN K12N 022215Z AUTO VRB04KT 01/M08 A2999 520 51 -1000 VRB/04 RMK AO1 T00111078
54779K12N 12N20160102172010101/02/16 17:20:31  5-MIN K12N 022220Z AUTO 00000KT 01/M08 A3000 520 51 -1000 000/00 RMK AO1 T00111078
54779K12N 12N20160102172510101/02/16 17:25:31  5-MIN K12N 022225Z AUTO VRB03KT 01/M08 A3000 510 51 -1000 VRB/03 RMK AO1 T00111078
54779K12N 12N20160102173010101/02/16 17:30:31  5-MIN K12N 022230Z AUTO VRB04KT 01/M08 A3000 520 51 -1000 VRB/04 RMK AO1 T00111078
54779K12N 12N20160102173510101/02/16 17:35:31  5-MIN K12N 022235Z AUTO 00000KT 01/M07 A2999 520 54 -1000 000/00 RMK AO1 T00111072
54779K12N 12N20160102174010101/02/16 17:40:31  5-MIN K12N 022240Z AUTO 00000KT 01/M07 A2999 520 54 -1000 000/00 RMK AO1 T00111072
54779K12N 12N20160102174510101/02/16 17:45:31  5-MIN K12N 022245Z AUTO 00000KT 01/M07 A2999 520 54 -1000 000/00 RMK AO1 T00111072
54779K12N 12N20160102175010801/02/16 17:50:31  5-MIN K12N 022250Z AUTO 25003KT 01/M07 A2999 520 54 -1000 270/03 RMK AO1 SLP167 T00111072
54779K12N 12N20160102175510101/02/16 17:55:31  5-MIN K12N 022255Z AUTO VRB03KT 01/M07 A3000 520 54 -1000 VRB/03 RMK AO1 T00111072
54779K12N 12N20160102180010101/02/16 18:00:31  5-MIN K12N 022300Z AUTO VRB04KT 01/M07 A3000 520 54 -1000 VRB/04 RMK AO1 T00111072
54779K12N 12N20160102180510101/02/16 18:05:31  5-MIN K12N 022305Z AUTO VRB04KT 01/M07 A3000 510 54 -1000 VRB/04 RMK AO1 T00111072
54779K12N 12N20160102181010101/02/16 18:10:31  5-MIN K12N 022310Z AUTO VRB05KT 01/M07 A3000 510 56 -1000 VRB/05 RMK AO1 T00061072
54779K12N 12N20160102181510101/02/16 18:15:31  5-MIN K12N 022315Z AUTO VRB05KT 01/M07 A3000 510 56 -1000 VRB/05 RMK AO1 T00061072
54779K12N 12N20160102182010101/02/16 18:20:31  5-MIN K12N 022320Z AUTO 00000KT 01/M07 A3000 510 54 -1000 000/00 RMK AO1 T00111072
54779K12N 12N20160102182510101/02/16 18:25:31  5-MIN K12N 022325Z AUTO VRB05KT 01/M07 A3000 510 54 -1000 VRB/05 RMK AO1 T00111072
54779K12N 12N20160102183010101/02/16 18:30:31  5-MIN K12N 022330Z AUTO VRB05KT 01/M07 A3000 510 54 -1000 VRB/05 RMK AO1 T00111072
54779K12N 12N20160102183510101/02/16 18:35:31  5-MIN K12N 022335Z AUTO VRB06KT 01/M07 A3000 520 56 -1000 VRB/06 RMK AO1 T00061072
54779K12N 12N20160102184010101/02/16 18:40:31  5-MIN K12N 022340Z AUTO 29005KT 01/M07 A2999 520 56 -1000 310/05 RMK AO1 T00061072
54779K12N 12N20160102184510101/02/16 18:45:31  5-MIN K12N 022345Z AUTO VRB04KT 01/M07 A3000 520 56 -1000 VRB/04 RMK AO1 T00061072
54779K12N 12N20160102185012601/02/16 18:50:31  5-MIN K12N 022350Z AUTO VRB03KT 01/M07 A3000 510 56 -1000 VRB/03 RMK AO1 SLP169 T00061072 10033 20006 55001
54779K12N 12N20160102185510101/02/16 18:55:31  5-MIN K12N 022355Z AUTO 00000KT 00/M07 A3000 520 58 -1100 000/00 RMK AO1 T00001072
54779K12N 12N20160102190010101/02/16 19:00:31  5-MIN K12N 030000Z AUTO 00000KT 01/M07 A2999 520 56 -1000 000/00 RMK AO1 T00061072
54779K12N 12N20160102190510101/02/16 19:05:31  5-MIN K12N 030005Z AUTO 00000KT 00/M07 A2999 520 58 -1100 000/00 RMK AO1 T00001072
54779K12N 12N20160102191010101/02/16 19:10:31  5-MIN K12N 030010Z AUTO 00000KT 00/M07 A3000 520 58 -1100 000/00 RMK AO1 T00001072
54779K12N 12N20160102191510101/02/16 19:15:31  5-MIN K12N 030015Z AUTO 00000KT 00/M07 A2999 520 58 -1100 000/00 RMK AO1 T00001072
54779K12N 12N20160103002510201/03/16 00:25:31  5-MIN K12N 030525Z AUTO 00000KT M02/M06 A2992 590 75 -1300 000/00 RMK AO1 T10221061
54779K12N 12N20160103003010201/03/16 00:30:31  5-MIN K12N 030530Z AUTO 20003KT M02/M06 A2992 590 72 -1200 210/03 RMK AO1 T10171061
54779K12N 12N20160103003510201/03/16 00:35:31  5-MIN K12N 030535Z AUTO 00000KT M02/M06 A2991 590 75 -1300 000/00 RMK AO1 T10221061
54779K12N 12N20160103004010201/03/16 00:40:31  5-MIN K12N 030540Z AUTO 00000KT M02/M06 A2991 590 75 -1300 000/00 RMK AO1 T10221061
54779K12N 12N20160103004510201/03/16 00:45:31  5-MIN K12N 030545Z AUTO 00000KT M02/M06 A2991 600 75 -1300 000/00 RMK AO1 T10221061
54779K12N 12N20160103005012701/03/16 00:50:31  5-MIN K12N 030550Z AUTO 19003KT M02/M06 A2991 600 75 -1300 210/03 RMK AO1 SLP138 T10221061 10006 21033 58015
54779K12N 12N20160103005510201/03/16 00:55:31  5-MIN K12N 030555Z AUTO 21003KT M02/M06 A2990 600 75 -1300 220/03 RMK AO1 T10221061
54779K12N 12N20160103010010201/03/16 01:00:31  5-MIN K12N 030600Z AUTO VRB04KT M02/M06 A2990 600 75 -1300 VRB/04 RMK AO1 T10221061
54779K12N 12N20160103010510201/03/16 01:05:31  5-MIN K12N 030605Z AUTO 21004KT M02/M06 A2990 600 72 -1200 220/04 RMK AO1 T10171061
54779K12N 12N20160103011010201/03/16 01:10:31  5-MIN K12N 030610Z AUTO 21004KT M02/M06 A2990 600 75 -1300 220/04 RMK AO1 T10221061
54779K12N 12N20160103011510201/03/16 01:15:31  5-MIN K12N 030615Z AUTO 00000KT M02/M06 A2990 600 75 -1300 000/00 RMK AO1 T10221061
54779K12N 12N20160103012010201/03/16 01:20:31  5-MIN K12N 030620Z AUTO 19003KT M02/M06 A2990 610 75 -1300 200/03 RMK AO1 T10221061
54779K12N 12N20160103012510201/03/16 01:25:31  5-MIN K12N 030625Z AUTO 00000KT M02/M06 A2990 610 75 -1300 000/00 RMK AO1 T10221061
54779K12N 12N20160103013010201/03/16 01:30:31  5-MIN K12N 030630Z AUTO 20003KT M02/M06 A2989 610 75 -1300 210/03 RMK AO1 T10221061
54779K12N 12N20160103013510201/03/16 01:35:31  5-MIN K12N 030635Z AUTO 20003KT M02/M06 A2990 610 75 -1300 210/03 RMK AO1 T10221061
54779K12N 12N20160103014010201/03/16 01:40:31  5-MIN K12N 030640Z AUTO 19003KT M02/M06 A2989 610 75 -1300 210/03 RMK AO1 T10221061
54779K12N 12N20160103014510201/03/16 01:45:31  5-MIN K12N 030645Z AUTO 00000KT M02/M06 A2990 610 75 -1300 000/00 RMK AO1 T10221061
54779K12N 12N20160103015010901/03/16 01:50:31  5-MIN K12N 030650Z AUTO 00000KT M02/M06 A2989 610 75 -1300 000/00 RMK AO1 SLP134 T10221061
54779K12N 12N20160103015510201/03/16 01:55:31  5-MIN K12N 030655Z AUTO 00000KT M03/M06 A2989 610 78 -1300 000/00 RMK AO1 T10281061
54779K12N 12N20160103020010201/03/16 02:00:31  5-MIN K12N 030700Z AUTO 00000KT M02/M06 A2989 620 75 -1300 000/00 RMK AO1 T10221061
54779K12N 12N20160103020510201/03/16 02:05:31  5-MIN K12N 030705Z AUTO 00000KT M02/M06 A2989 620 75 -1300 000/00 RMK AO1 T10221061
54779K12N 12N20160103021010201/03/16 02:10:31  5-MIN K12N 030710Z AUTO 00000KT M03/M06 A2988 620 78 -1300 000/00 RMK AO1 T10281061
54779K12N 12N20160103021510201/03/16 02:15:31  5-MIN K12N 030715Z AUTO 00000KT M03/M07 A2988 620 78 -1400 000/00 RMK AO1 T10331067
54779K12N 12N20160103022010201/03/16 02:20:31  5-MIN K12N 030720Z AUTO 20003KT M03/M06 A2988 620 78 -1300 210/03 RMK AO1 T10281061
54779K12N 12N20160103022510201/03/16 02:25:31  5-MIN K12N 030725Z AUTO VRB03KT M02/M06 A2988 620 75 -1300 VRB/03 RMK AO1 T10221061
54779K12N 12N20160103023010201/03/16 02:30:31  5-MIN K12N 030730Z AUTO 20003KT M02/M06 A2988 620 75 -1200 210/03 RMK AO1 T10221061
54779K12N 12N20160103023510201/03/16 02:35:31  5-MIN K12N 030735Z AUTO 18004KT M02/M06 A2988 630 75 -1200 200/04 RMK AO1 T10221061
54779K12N 12N20160103024010201/03/16 02:40:31  5-MIN K12N 030740Z AUTO 18004KT M02/M06 A2988 630 75 -1200 200/04 RMK AO1 T10221061
54779K12N 12N20160103024510401/03/16 02:45:31  5-MIN K12N 030745Z AUTO 18004KT M02/M06 A2988 630 75 -1200 190/04 RMK AO1 T10221061 $
54779K12N 12N20160103025011101/03/16 02:50:31  5-MIN K12N 030750Z AUTO 18003KT M02/M06 A2988 630 75 -1200 190/03 RMK AO1 SLP128 T10221061 $
54779K12N 12N20160103025510401/03/16 02:55:31  5-MIN K12N 030755Z AUTO VRB03KT M02/M06 A2987 630 75 -1200 VRB/03 RMK AO1 T10221061 $
54779K12N 12N20160103030010401/03/16 03:00:31  5-MIN K12N 030800Z AUTO 16003KT M03/M06 A2987 630 78 -1300 180/03 RMK AO1 T10281061 $
54779K12N 12N20160103030510401/03/16 03:05:31  5-MIN K12N 030805Z AUTO 17003KT M02/M06 A2987 640 75 -1200 180/03 RMK AO1 T10221061 $
54779K12N 12N20160103031010401/03/16 03:10:31  5-MIN K12N 030810Z AUTO 00000KT M02/M06 A2986 640 75 -1200 000/00 RMK AO1 T10221061 $
54779K12N 12N20160103031510401/03/16 03:15:31  5-MIN K12N 030815Z AUTO 00000KT M03/M06 A2986 640 78 -1300 000/00 RMK AO1 T10281061 $
54779K12N 12N20160103032010401/03/16 03:20:31  5-MIN K12N 030820Z AUTO 00000KT M03/M06 A2986 640 78 -1300 000/00 RMK AO1 T10281061 $
54779K12N 12N20160103032510401/03/16 03:25:31  5-MIN K12N 030825Z AUTO 00000KT M03/M06 A2985 650 78 -1300 000/00 RMK AO1 T10281061 $
54779K12N 12N20160103033010401/03/16 03:30:31  5-MIN K12N 030830Z AUTO 17003KT M03/M07 A2985 650 75 -1300 180/03 RMK AO1 T10281067 $
54779K12N 12N20160103033510401/03/16 03:35:31  5-MIN K12N 030835Z AUTO 18003KT M03/M06 A2984 660 78 -1300 190/03 RMK AO1 T10281061 $
54779K12N 12N20160103034010401/03/16 03:40:31  5-MIN K12N 030840Z AUTO 00000KT M03/M06 A2984 660 81 -1300 000/00 RMK AO1 T10331061 $
54779K12N 12N20160103034510401/03/16 03:45:31  5-MIN K12N 030845Z AUTO 19003KT M03/M06 A2983 670 81 -1300 200/03 RMK AO1 T10331061 $
54779K12N 12N20160103035011701/03/16 03:50:31  5-MIN K12N 030850Z AUTO 20003KT M03/M06 A2983 670 81 -1300 210/03 RMK AO1 SLP113 T10331061 58016 $
54779K12N 12N20160103035510401/03/16 03:55:31  5-MIN K12N 030855Z AUTO 00000KT M03/M06 A2983 660 78 -1300 000/00 RMK AO1 T10281061 $
54779K12N 12N20160103040010401/03/16 04:00:31  5-MIN K12N 030900Z AUTO 00000KT M03/M06 A2984 660 81 -1300 000/00 RMK AO1 T10331061 $
54779K12N 12N20160103040510401/03/16 04:05:31  5-MIN K12N 030905Z AUTO 00000KT M03/M06 A2985 650 81 -1400 000/00 RMK AO1 T10331061 $
54779K12N 12N20160103041010401/03/16 04:10:31  5-MIN K12N 030910Z AUTO 00000KT M03/M07 A2984 660 78 -1300 000/00 RMK AO1 T10331067 $
54779K12N 12N20160103041510401/03/16 04:15:31  5-MIN K12N 030915Z AUTO 00000KT M03/M06 A2984 660 78 -1300 000/00 RMK AO1 T10281061 $
54779K12N 12N20160103042010401/03/16 04:20:31  5-MIN K12N 030920Z AUTO 00000KT M03/M06 A2984 660 78 -1300 000/00 RMK AO1 T10281061 $
54779K12N 12N20160103042510401/03/16 04:25:31  5-MIN K12N 030925Z AUTO 16003KT M03/M06 A2984 660 78 -1300 170/03 RMK AO1 T10281061 $
54779K12N 12N20160103043010401/03/16 04:30:31  5-MIN K12N 030930Z AUTO 00000KT M03/M06 A2984 660 81 -1300 000/00 RMK AO1 T10331061 $
54779K12N 12N20160103043510401/03/16 04:35:31  5-MIN K12N 030935Z AUTO 00000KT M03/M06 A2983 670 81 -1300 000/00 RMK AO1 T10331061 $
54779K12N 12N20160103044010401/03/16 04:40:31  5-MIN K12N 030940Z AUTO 00000KT M03/M06 A2983 670 81 -1300 000/00 RMK AO1 T10331061 $
54779K12N 12N20160103044510401/03/16 04:45:31  5-MIN K12N 030945Z AUTO 22003KT M03/M06 A2983 670 81 -1300 230/03 RMK AO1 T10331061 $
54779K12N 12N20160103045011101/03/16 04:50:31  5-MIN K12N 030950Z AUTO 21003KT M03/M06 A2983 670 81 -1300 220/03 RMK AO1 SLP113 T10331061 $
54779K12N 12N20160103045510401/03/16 04:55:31  5-MIN K12N 030955Z AUTO 00000KT M03/M06 A2983 670 81 -1300 000/00 RMK AO1 T10331061 $
54779K12N 12N20160103050010401/03/16 05:00:31  5-MIN K12N 031000Z AUTO 00000KT M03/M06 A2983 670 81 -1300 000/00 RMK AO1 T10331061 $
54779K12N 12N20160103050510401/03/16 05:05:31  5-MIN K12N 031005Z AUTO 00000KT M03/M06 A2983 670 81 -1300 000/00 RMK AO1 T10331061 $
54779K12N 12N20160103051010401/03/16 05:10:31  5-MIN K12N 031010Z AUTO 00000KT M04/M06 A2982 670 85 -1400 000/00 RMK AO1 T10391061 $
54779K12N 12N20160103051510401/03/16 05:15:31  5-MIN K12N 031015Z AUTO 00000KT M03/M06 A2982 670 81 -1300 000/00 RMK AO1 T10331061 $
54779K12N 12N20160103052010401/03/16 05:20:31  5-MIN K12N 031020Z AUTO 00000KT M04/M06 A2982 670 85 -1400 000/00 RMK AO1 T10391061 $
54779K12N 12N20160103052510401/03/16 05:25:31  5-MIN K12N 031025Z AUTO 00000KT M04/M06 A2982 680 88 -1500 000/00 RMK AO1 T10441061 $
54779K12N 12N20160103053010401/03/16 05:30:31  5-MIN K12N 031030Z AUTO 00000KT M04/M06 A2982 680 88 -1400 000/00 RMK AO1 T10391056 $
54779K12N 12N20160103053510401/03/16 05:35:31  5-MIN K12N 031035Z AUTO 00000KT M03/M06 A2982 680 85 -1300 000/00 RMK AO1 T10331056 $
54779K12N 12N20160103054010401/03/16 05:40:31  5-MIN K12N 031040Z AUTO 00000KT M04/M06 A2982 680 88 -1400 000/00 RMK AO1 T10391056 $
54779K12N 12N20160103054510401/03/16 05:45:31  5-MIN K12N 031045Z AUTO 00000KT M04/M06 A2982 680 88 -1400 000/00 RMK AO1 T10391056 $
54779K12N 12N20160103055011101/03/16 05:50:31  5-MIN K12N 031050Z AUTO 00000KT M04/M06 A2982 680 85 -1400 000/00 RMK AO1 SLP108 T10391061 $
54779K12N 12N20160103055510401/03/16 05:55:31  5-MIN K12N 031055Z AUTO 00000KT M04/M06 A2982 680 88 -1500 000/00 RMK AO1 T10441061 $
54779K12N 12N20160103060010401/03/16 06:00:31  5-MIN K12N 031100Z AUTO 00000KT M04/M06 A2982 680 88 -1500 000/00 RMK AO1 T10441061 $
54779K12N 12N20160103060510401/03/16 06:05:31  5-MIN K12N 031105Z AUTO 00000KT M04/M07 A2982 670 84 -1500 000/00 RMK AO1 T10441067 $
54779K12N 12N20160103061010401/03/16 06:10:31  5-MIN K12N 031110Z AUTO 00000KT M04/M07 A2982 680 84 -1500 000/00 RMK AO1 T10441067 $
54779K12N 12N20160103061510401/03/16 06:15:31  5-MIN K12N 031115Z AUTO 00000KT M04/M06 A2982 680 88 -1500 000/00 RMK AO1 T10441061 $
54779K12N 12N20160103062010401/03/16 06:20:31  5-MIN K12N 031120Z AUTO 00000KT M04/M06 A2982 680 88 -1500 000/00 RMK AO1 T10441061 $
54779K12N 12N20160103062510401/03/16 06:25:31  5-MIN K12N 031125Z AUTO 00000KT M05/M06 A2982 680 92 -1500 000/00 RMK AO1 T10501061 $
54779K12N 12N20160103063010401/03/16 06:30:31  5-MIN K12N 031130Z AUTO 00000KT M05/M06 A2982 680 92 -1500 000/00 RMK AO1 T10501061 $
54779K12N 12N20160103063510401/03/16 06:35:31  5-MIN K12N 031135Z AUTO 00000KT M04/M06 A2982 680 92 -1500 000/00 RMK AO1 T10441056 $
54779K12N 12N20160103064010401/03/16 06:40:31  5-MIN K12N 031140Z AUTO 00000KT M04/M06 A2983 670 92 -1500 000/00 RMK AO1 T10441056 $
54779K12N 12N20160103064510401/03/16 06:45:31  5-MIN K12N 031145Z AUTO 21003KT M04/M06 A2983 670 92 -1500 220/03 RMK AO1 T10441056 $
54779K12N 12N20160103065012901/03/16 06:50:31  5-MIN K12N 031150Z AUTO 20004KT M04/M06 A2983 670 92 -1500 220/04 RMK AO1 SLP112 T10441056 11017 21050 58024 $
54779K12N 12N20160103065510401/03/16 06:55:31  5-MIN K12N 031155Z AUTO 21003KT M04/M06 A2983 670 88 -1500 220/03 RMK AO1 T10441061 $
54779K12N 12N20160103070010401/03/16 07:00:31  5-MIN K12N 031200Z AUTO 21003KT M04/M06 A2983 670 88 -1500 220/03 RMK AO1 T10441061 $
54779K12N 12N20160103070510401/03/16 07:05:31  5-MIN K12N 031205Z AUTO 20003KT M04/M06 A2983 670 88 -1500 210/03 RMK AO1 T10441061 $
54779K12N 12N20160103071010401/03/16 07:10:31  5-MIN K12N 031210Z AUTO 19003KT M04/M07 A2983 670 84 -1500 210/03 RMK AO1 T10441067 $
54779K12N 12N20160103071510401/03/16 07:15:31  5-MIN K12N 031215Z AUTO 19003KT M05/M07 A2983 670 88 -1500 200/03 RMK AO1 T10501067 $
54779K12N 12N20160103072010401/03/16 07:20:31  5-MIN K12N 031220Z AUTO 20003KT M04/M07 A2983 670 84 -1500 210/03 RMK AO1 T10441067 $
54779K12N 12N20160103072510401/03/16 07:25:31  5-MIN K12N 031225Z AUTO 00000KT M04/M07 A2984 660 84 -1500 000/00 RMK AO1 T10441067 $
54779K12N 12N20160103073010401/03/16 07:30:31  5-MIN K12N 031230Z AUTO 19003KT M04/M07 A2984 660 84 -1500 200/03 RMK AO1 T10441067 $
54779K12N 12N20160103073510401/03/16 07:35:31  5-MIN K12N 031235Z AUTO 00000KT M05/M06 A2984 660 92 -1600 000/00 RMK AO1 T10501061 $
54779K12N 12N20160103074010401/03/16 07:40:31  5-MIN K12N 031240Z AUTO 00000KT M05/M07 A2984 660 88 -1600 000/00 RMK AO1 T10501067 $
54779K12N 12N20160103074510401/03/16 07:45:31  5-MIN K12N 031245Z AUTO 00000KT M06/M07 A2983 670 92 -1600 000/00 RMK AO1 T10561067 $
54779K12N 12N20160103075011101/03/16 07:50:31  5-MIN K12N 031250Z AUTO 00000KT M06/M07 A2983 670 92 -1600 000/00 RMK AO1 SLP116 T10561067 $
54779K12N 12N20160103075510401/03/16 07:55:31  5-MIN K12N 031255Z AUTO 00000KT M05/M06 A2983 670 92 -1500 000/00 RMK AO1 T10501061 $
54779K12N 12N20160103080010401/03/16 08:00:31  5-MIN K12N 031300Z AUTO 00000KT M05/M06 A2983 670 92 -1500 000/00 RMK AO1 T10501061 $
54779K12N 12N20160103080510401/03/16 08:05:31  5-MIN K12N 031305Z AUTO 00000KT M05/M06 A2983 670 92 -1500 000/00 RMK AO1 T10501061 $
54779K12N 12N20160103081010401/03/16 08:10:31  5-MIN K12N 031310Z AUTO 00000KT M05/M06 A2983 670 92 -1500 000/00 RMK AO1 T10501061 $
54779K12N 12N20160103081510401/03/16 08:15:31  5-MIN K12N 031315Z AUTO 00000KT M04/M06 A2983 670 88 -1500 000/00 RMK AO1 T10441061 $
54779K12N 12N20160103082010401/03/16 08:20:31  5-MIN K12N 031320Z AUTO 00000KT M04/M06 A2984 660 92 -1500 000/00 RMK AO1 T10441056 $
54779K12N 12N20160103082510401/03/16 08:25:31  5-MIN K12N 031325Z AUTO 00000KT M04/M06 A2984 660 88 -1500 000/00 RMK AO1 T10441061 $
54779K12N 12N20160103083010401/03/16 08:30:31  5-MIN K12N 031330Z AUTO 00000KT M04/M06 A2984 660 92 -1500 000/00 RMK AO1 T10441056 $
54779K12N 12N20160103083510401/03/16 08:35:31  5-MIN K12N 031335Z AUTO 00000KT M04/M06 A2984 660 88 -1400 000/00 RMK AO1 T10391056 $
54779K12N 12N20160103084010401/03/16 08:40:31  5-MIN K12N 031340Z AUTO 00000KT M03/M05 A2984 660 85 -1300 000/00 RMK AO1 T10281050 $
54779K12N 12N20160103084510401/03/16 08:45:31  5-MIN K12N 031345Z AUTO 00000KT M02/M05 A2984 660 81 -1200 000/00 RMK AO1 T10221050 $
54779K12N 12N20160103085011101/03/16 08:50:31  5-MIN K12N 031350Z AUTO 00000KT M02/M05 A2984 660 78 -1100 000/00 RMK AO1 SLP117 T10171050 $
54779K12N 12N20160103085510401/03/16 08:55:31  5-MIN K12N 031355Z AUTO 14003KT M02/M05 A2984 660 78 -1100 160/03 RMK AO1 T10171050 $
54779K12N 12N20160103090010401/03/16 09:00:31  5-MIN K12N 031400Z AUTO 00000KT M01/M05 A2985 650 75 -1100 000/00 RMK AO1 T10111050 $
54779K12N 12N20160103090510401/03/16 09:05:31  5-MIN K12N 031405Z AUTO 00000KT M01/M04 A2985 650 78 -1100 000/00 RMK AO1 T10111044 $
54779K12N 12N20160103091010401/03/16 09:10:31  5-MIN K12N 031410Z AUTO 15003KT M01/M04 A2984 660 75 -1000 170/03 RMK AO1 T10061044 $
54779K12N 12N20160103091510201/03/16 09:15:31  5-MIN K12N 031415Z AUTO 16003KT 00/M04 A2984 660 72 -900 180/03 RMK AO1 T00001044 $
54779K12N 12N20160103092010201/03/16 09:20:31  5-MIN K12N 031420Z AUTO 00000KT 00/M04 A2984 660 72 -900 000/00 RMK AO1 T00001044 $
54779K12N 12N20160103092510201/03/16 09:25:31  5-MIN K12N 031425Z AUTO 00000KT 01/M04 A2984 660 69 -800 000/00 RMK AO1 T00061044 $
54779K12N 12N20160103093010201/03/16 09:30:31  5-MIN K12N 031430Z AUTO VRB03KT 01/M04 A2984 660 69 -800 VRB/03 RMK AO1 T00061044 $
54779K12N 12N20160103093510201/03/16 09:35:31  5-MIN K12N 031435Z AUTO 21005KT 01/M04 A2984 660 66 -800 220/05 RMK AO1 T00111044 $
54779K12N 12N20160103094010201/03/16 09:40:31  5-MIN K12N 031440Z AUTO VRB05KT 01/M04 A2984 660 66 -800 VRB/05 RMK AO1 T00111044 $
54779K12N 12N20160103094510201/03/16 09:45:31  5-MIN K12N 031445Z AUTO VRB05KT 02/M04 A2984 660 64 -700 VRB/05 RMK AO1 T00171044 $
54779K12N 12N20160103095011501/03/16 09:50:31  5-MIN K12N 031450Z AUTO 22007KT 02/M04 A2984 660 64 -700 230/07 RMK AO1 SLP114 T00171044 55002 $
54779K12N 12N20160103095510201/03/16 09:55:31  5-MIN K12N 031455Z AUTO VRB04KT 02/M05 A2984 660 59 -600 VRB/04 RMK AO1 T00221050 $
54779K12N 12N20160103100010201/03/16 10:00:31  5-MIN K12N 031500Z AUTO 22005KT 02/M04 A2983 660 61 -600 230/05 RMK AO1 T00221044 $
54779K12N 12N20160103100510201/03/16 10:05:31  5-MIN K12N 031505Z AUTO 23007KT 03/M05 A2983 670 56 -600 240/07 RMK AO1 T00281050 $
54779K12N 12N20160103101010201/03/16 10:10:31  5-MIN K12N 031510Z AUTO VRB05KT 03/M05 A2983 660 56 -600 VRB/05 RMK AO1 T00281050 $
54779K12N 12N20160103101510201/03/16 10:15:31  5-MIN K12N 031515Z AUTO 22003KT 03/M05 A2983 670 56 -600 230/03 RMK AO1 T00281050 $
54779K12N 12N20160103102010201/03/16 10:20:31  5-MIN K12N 031520Z AUTO VRB05KT 03/M05 A2983 670 54 -500 VRB/05 RMK AO1 T00331050 $
54779K12N 12N20160103102511801/03/16 10:25:31  5-MIN K12N 031525Z AUTO 25007KT 220V290 03/M05 A2984 660 54 -500 260/07 230V300 RMK AO1 T00331050 $
54779K12N 12N20160103103010201/03/16 10:30:31  5-MIN K12N 031530Z AUTO VRB04KT 03/M05 A2984 660 54 -500 VRB/04 RMK AO1 T00331050 $
54779K12N 12N20160103103510201/03/16 10:35:31  5-MIN K12N 031535Z AUTO VRB03KT 03/M05 A2983 660 54 -500 VRB/03 RMK AO1 T00331050 $
54779K12N 12N20160103104010201/03/16 10:40:31  5-MIN K12N 031540Z AUTO VRB06KT 03/M05 A2983 670 54 -500 VRB/06 RMK AO1 T00331050 $
54779K12N 12N20160103104510201/03/16 10:45:31  5-MIN K12N 031545Z AUTO 23007KT 04/M05 A2983 670 52 -400 250/07 RMK AO1 T00391050 $
54779K12N 12N20160103105010901/03/16 10:50:31  5-MIN K12N 031550Z AUTO 23005KT 03/M05 A2983 670 54 -500 240/05 RMK AO1 SLP110 T00331050 $
54779K12N 12N20160103105510201/03/16 10:55:31  5-MIN K12N 031555Z AUTO VRB03KT 04/M04 A2982 670 52 -300 VRB/03 RMK AO1 T00441044 $
54779K12N 12N20160103110009201/03/16 11:00:31  5-MIN K12N 031600Z AUTO 04/M05 A2983 670 50 -400 M /M RMK AO1 T00441050 $
54779K12N 12N20160103110510201/03/16 11:05:31  5-MIN K12N 031605Z AUTO VRB06KT 04/M05 A2982 670 52 -400 VRB/06 RMK AO1 T00391050 $
54779K12N 12N20160103111010201/03/16 11:10:31  5-MIN K12N 031610Z AUTO VRB05KT 04/M06 A2982 680 50 -400 VRB/05 RMK AO1 T00391056 $
54779K12N 12N20160103111510201/03/16 11:15:31  5-MIN K12N 031615Z AUTO VRB06KT 04/M06 A2982 680 50 -400 VRB/06 RMK AO1 T00391056 $
54779K12N 12N20160103112010201/03/16 11:20:31  5-MIN K12N 031620Z AUTO VRB06KT 04/M05 A2982 680 52 -400 VRB/06 RMK AO1 T00391050 $
54779K12N 12N20160103112510201/03/16 11:25:31  5-MIN K12N 031625Z AUTO VRB06KT 04/M05 A2982 680 50 -300 VRB/06 RMK AO1 T00441050 $
54779K12N 12N20160103113010201/03/16 11:30:31  5-MIN K12N 031630Z AUTO VRB06KT 04/M05 A2982 680 50 -300 VRB/06 RMK AO1 T00441050 $
54779K12N 12N20160103113510201/03/16 11:35:31  5-MIN K12N 031635Z AUTO VRB05KT 04/M05 A2982 680 50 -300 VRB/05 RMK AO1 T00441050 $
54779K12N 12N20160103114011801/03/16 11:40:31  5-MIN K12N 031640Z AUTO 26007KT 210V320 04/M05 A2981 690 50 -300 270/07 220V330 RMK AO1 T00441050 $
54779K12N 12N20160103114510801/03/16 11:45:31  5-MIN K12N 031645Z AUTO 23009G16KT 04/M05 A2981 690 50 -300 240/09G16 RMK AO1 T00441050 $
54779K12N 12N20160103115013101/03/16 11:50:31  5-MIN K12N 031650Z AUTO 30008G17KT 230V340 04/M05 A2981 690 50 -300 310/08G17 240V350 RMK AO1 SLP103 T00441050 $
54779K12N 12N20160103115509201/03/16 11:55:31  5-MIN K12N 031655Z AUTO 05/M05 A2981 690 48 -300 M /M RMK AO1 T00501050 $
54779K12N 12N20160103120011801/03/16 12:00:31  5-MIN K12N 031700Z AUTO 27007KT 240V310 04/M06 A2981 690 48 -300 290/07 250V320 RMK AO1 T00441056 $
54779K12N 12N20160103120510201/03/16 12:05:31  5-MIN K12N 031705Z AUTO VRB06KT 04/M06 A2981 690 50 -400 VRB/06 RMK AO1 T00391056 $
54779K12N 12N20160103121010201/03/16 12:10:31  5-MIN K12N 031710Z AUTO 29006KT 04/M05 A2980 690 50 -300 310/06 RMK AO1 T00441050 $
54779K12N 12N20160103121510201/03/16 12:15:31  5-MIN K12N 031715Z AUTO VRB06KT 05/M05 A2980 690 48 -300 VRB/06 RMK AO1 T00501050 $
54779K12N 12N20160103122010801/03/16 12:20:31  5-MIN K12N 031720Z AUTO 35010G21KT 05/M05 A2980 690 48 -300 360/10G21 RMK AO1 T00501050 $
54779K12N 12N20160104202510801/04/16 20:25:31  5-MIN K12N 050125Z AUTO 36010G16KT M12/M18 A3031 230 58 -3000 010/10G16 RMK AO1 T11171183
54779K12N 12N20160104203010801/04/16 20:30:31  5-MIN K12N 050130Z AUTO 35013G21KT M12/M19 A3031 230 58 -3000 360/13G21 RMK AO1 T11221189
54779K12N 12N20160104203512401/04/16 20:35:31  5-MIN K12N 050135Z AUTO 36010G21KT 330V030 M12/M19 A3031 230 58 -3000 010/10G21 340V040 RMK AO1 T11221189
54779K12N 12N20160104204012401/04/16 20:40:31  5-MIN K12N 050140Z AUTO 34011G19KT 310V020 M12/M19 A3031 230 58 -3100 350/11G19 320V030 RMK AO1 T11221189
54779K12N 12N20160104204512401/04/16 20:45:31  5-MIN K12N 050145Z AUTO 35009G19KT 310V030 M12/M19 A3031 220 58 -3100 360/09G19 320V040 RMK AO1 T11221189
54779K12N 12N20160104205013101/04/16 20:50:31  5-MIN K12N 050150Z AUTO 36008G19KT 320V050 M12/M19 A3031 220 58 -3100 010/08G19 330V060 RMK AO1 SLP283 T11221189
54779K12N 12N20160104205512401/04/16 20:55:31  5-MIN K12N 050155Z AUTO 36008G19KT 330V040 M12/M19 A3032 220 58 -3100 010/08G19 340V050 RMK AO1 T11221189
54779K12N 12N20160104210012401/04/16 21:00:31  5-MIN K12N 050200Z AUTO 35008G17KT 330V050 M13/M19 A3032 220 60 -3100 010/08G17 340V060 RMK AO1 T11281189
54779K12N 12N20160104211512401/04/16 21:15:31  5-MIN K12N 050215Z AUTO 35009G18KT 320V030 M13/M19 A3033 210 60 -3100 360/09G18 330V040 RMK AO1 T11281189
54779K12N 12N20160104212012401/04/16 21:20:31  5-MIN K12N 050220Z AUTO 36009G16KT 330V040 M13/M19 A3033 210 60 -3100 010/09G16 340V050 RMK AO1 T11281189
54779K12N 12N20160104212512401/04/16 21:25:31  5-MIN K12N 050225Z AUTO 36010G18KT 330V030 M13/M19 A3033 210 60 -3100 010/10G18 340V040 RMK AO1 T11281189
54779K12N 12N20160104213010801/04/16 21:30:31  5-MIN K12N 050230Z AUTO 35011G18KT M13/M19 A3033 210 60 -3200 360/11G18 RMK AO1 T11281189
54779K12N 12N20160104213510801/04/16 21:35:31  5-MIN K12N 050235Z AUTO 36010G18KT M13/M19 A3033 210 60 -3200 020/10G18 RMK AO1 T11281189
54779K12N 12N20160104214012401/04/16 21:40:31  5-MIN K12N 050240Z AUTO 36009G17KT 330V050 M13/M19 A3033 200 60 -3200 010/09G17 340V060 RMK AO1 T11281189
54779K12N 12N20160104214510801/04/16 21:45:31  5-MIN K12N 050245Z AUTO 35011G16KT M13/M19 A3033 200 60 -3200 360/11G16 RMK AO1 T11281189
54779K12N 12N20160104215013101/04/16 21:50:31  5-MIN K12N 050250Z AUTO 36010G18KT 330V040 M13/M19 A3034 200 60 -3200 020/10G18 340V050 RMK AO1 SLP291 T11281189
54779K12N 12N20160104215510801/04/16 21:55:31  5-MIN K12N 050255Z AUTO 36011G21KT M13/M19 A3034 200 60 -3200 020/11G21 RMK AO1 T11281189
54779K12N 12N20160104220010801/04/16 22:00:31  5-MIN K12N 050300Z AUTO 35010G21KT M13/M19 A3034 200 60 -3200 010/10G21 RMK AO1 T11281189
54779K12N 12N20160104220512401/04/16 22:05:31  5-MIN K12N 050305Z AUTO 01009G21KT 340V050 M13/M19 A3034 200 60 -3200 020/09G21 350V060 RMK AO1 T11281189
54779K12N 12N20160104221010801/04/16 22:10:31  5-MIN K12N 050310Z AUTO 35012G18KT M13/M19 A3034 200 60 -3200 360/12G18 RMK AO1 T11281189
54779K12N 12N20160104221510801/04/16 22:15:31  5-MIN K12N 050315Z AUTO 36010G20KT M13/M19 A3035 190 60 -3200 010/10G20 RMK AO1 T11281189
54779K12N 12N20160104222010801/04/16 22:20:31  5-MIN K12N 050320Z AUTO 35009G20KT M13/M19 A3035 190 60 -3200 360/09G20 RMK AO1 T11281189
54779K12N 12N20160104222510801/04/16 22:25:31  5-MIN K12N 050325Z AUTO 36009G15KT M13/M19 A3035 190 60 -3200 010/09G15 RMK AO1 T11281189
54779K12N 12N20160104223012401/04/16 22:30:31  5-MIN K12N 050330Z AUTO 34008G15KT 310V020 M13/M19 A3036 190 60 -3200 360/08G15 320V030 RMK AO1 T11281189
54779K12N 12N20160104223510801/04/16 22:35:31  5-MIN K12N 050335Z AUTO 35010G17KT M13/M19 A3035 190 60 -3200 360/10G17 RMK AO1 T11281189
54779K12N 12N20160104224012401/04/16 22:40:31  5-MIN K12N 050340Z AUTO 36010G22KT 340V040 M13/M19 A3036 180 60 -3200 010/10G22 350V050 RMK AO1 T11281189
54779K12N 12N20160104224512401/04/16 22:45:31  5-MIN K12N 050345Z AUTO 36011G22KT 340V050 M13/M19 A3036 180 60 -3200 010/11G22 350V060 RMK AO1 T11281189
54779K12N 12N20160104225013101/04/16 22:50:31  5-MIN K12N 050350Z AUTO 01011G22KT 340V040 M13/M19 A3036 180 60 -3200 020/11G22 350V050 RMK AO1 SLP300 T11281189
54779K12N 12N20160104225510801/04/16 22:55:31  5-MIN K12N 050355Z AUTO 36012G22KT M13/M19 A3037 180 60 -3200 010/12G22 RMK AO1 T11281189
54779K12N 12N20160104230010801/04/16 23:00:31  5-MIN K12N 050400Z AUTO 36009G20KT M13/M19 A3036 180 58 -3200 010/09G20 RMK AO1 T11281194
54779K12N 12N20160104230512401/04/16 23:05:31  5-MIN K12N 050405Z AUTO 36011G19KT 330V030 M13/M19 A3037 180 60 -3200 010/11G19 340V040 RMK AO1 T11281189
54779K12N 12N20160104231012401/04/16 23:10:31  5-MIN K12N 050410Z AUTO 36010G19KT 330V040 M13/M19 A3036 180 63 -3300 010/10G19 340V050 RMK AO1 T11331189
54779K12N 12N20160104231510801/04/16 23:15:31  5-MIN K12N 050415Z AUTO 35010G19KT M13/M19 A3036 180 60 -3300 010/10G19 RMK AO1 T11331194
54779K12N 12N20160104232010801/04/16 23:20:31  5-MIN K12N 050420Z AUTO 36011G18KT M13/M19 A3036 180 63 -3300 020/11G18 RMK AO1 T11331189
54779K12N 12N20160104232510801/04/16 23:25:31  5-MIN K12N 050425Z AUTO 35010G19KT M13/M19 A3036 180 60 -3300 010/10G19 RMK AO1 T11331194
54779K12N 12N20160104233010801/04/16 23:30:31  5-MIN K12N 050430Z AUTO 36014G22KT M13/M19 A3036 180 60 -3300 010/14G22 RMK AO1 T11331194
54779K12N 12N20160104233510801/04/16 23:35:31  5-MIN K12N 050435Z AUTO 36011G22KT M13/M19 A3037 170 60 -3300 010/11G22 RMK AO1 T11331194
54779K12N 12N20160104234010801/04/16 23:40:31  5-MIN K12N 050440Z AUTO 35010G16KT M13/M19 A3037 170 60 -3300 360/10G16 RMK AO1 T11331194
54779K12N 12N20160104234510801/04/16 23:45:31  5-MIN K12N 050445Z AUTO 36008G16KT M13/M19 A3037 170 60 -3300 010/08G16 RMK AO1 T11331194
54779K12N 12N20160104235012501/04/16 23:50:31  5-MIN K12N 050450Z AUTO 36008G15KT M13/M19 A3037 170 60 -3300 020/08G15 RMK AO1 SLP304 T11331194 400111133
54779K12N 12N20160104235510801/04/16 23:55:31  5-MIN K12N 050455Z AUTO 35008G16KT M13/M19 A3038 170 60 -3300 010/08G16 RMK AO1 T11331194
54779K12N 12N20160105000010801/05/16 00:00:31  5-MIN K12N 050500Z AUTO 36010G16KT M13/M19 A3038 170 60 -3300 010/10G16 RMK AO1 T11331194
54779K12N 12N20160105000510801/05/16 00:05:31  5-MIN K12N 050505Z AUTO 35009G17KT M13/M19 A3038 160 60 -3300 010/09G17 RMK AO1 T11331194
54779K12N 12N20160105001010801/05/16 00:10:31  5-MIN K12N 050510Z AUTO 36009G17KT M13/M19 A3038 160 60 -3300 010/09G17 RMK AO1 T11331194
54779K12N 12N20160105001510801/05/16 00:15:31  5-MIN K12N 050515Z AUTO 01009G15KT M13/M19 A3038 160 60 -3300 020/09G15 RMK AO1 T11331194
54779K12N 12N20160105002012401/05/16 00:20:31  5-MIN K12N 050520Z AUTO 01012G18KT 340V050 M13/M19 A3038 160 60 -3300 020/12G18 350V060 RMK AO1 T11331194
54779K12N 12N20160105002512401/05/16 00:25:31  5-MIN K12N 050525Z AUTO 36009G18KT 330V040 M13/M20 A3038 160 58 -3300 010/09G18 340V050 RMK AO1 T11331200
54779K12N 12N20160105003012401/05/16 00:30:31  5-MIN K12N 050530Z AUTO 35008G17KT 320V020 M14/M20 A3039 160 60 -3400 010/08G17 330V030 RMK AO1 T11391200
54779K12N 12N20160105003512401/05/16 00:35:31  5-MIN K12N 050535Z AUTO 35008G17KT 330V030 M14/M19 A3039 160 63 -3400 360/08G17 340V040 RMK AO1 T11391194
54779K12N 12N20160105004010801/05/16 00:40:31  5-MIN K12N 050540Z AUTO 36008G17KT M14/M19 A3039 150 63 -3400 010/08G17 RMK AO1 T11391194
54779K12N 12N20160105004510801/05/16 00:45:31  5-MIN K12N 050545Z AUTO 36011G17KT M14/M20 A3039 150 60 -3400 010/11G17 RMK AO1 T11391200
54779K12N 12N20160105005014301/05/16 00:50:31  5-MIN K12N 050550Z AUTO 01010G17KT 350V050 M14/M20 A3040 150 60 -3400 020/10G17 360V060 RMK AO1 SLP313 T11391200 11106 21139
54779K12N 12N20160105005510801/05/16 00:55:31  5-MIN K12N 050555Z AUTO 35008G16KT M14/M20 A3040 150 60 -3400 360/08G16 RMK AO1 T11391200
54779K12N 12N20160105010010801/05/16 01:00:31  5-MIN K12N 050600Z AUTO 36007G16KT M14/M20 A3040 140 60 -3400 010/07G16 RMK AO1 T11391200
54779K12N 12N20160105010510801/05/16 01:05:31  5-MIN K12N 050605Z AUTO 36009G16KT M14/M20 A3040 140 60 -3400 010/09G16 RMK AO1 T11391200
54779K12N 12N20160105011010801/05/16 01:10:31  5-MIN K12N 050610Z AUTO 35007G16KT M14/M20 A3041 140 60 -3400 010/07G16 RMK AO1 T11391200
54779K12N 12N20160105011510801/05/16 01:15:31  5-MIN K12N 050615Z AUTO 35009G15KT M14/M20 A3041 140 60 -3400 010/09G15 RMK AO1 T11391200
54779K12N 12N20160105012010801/05/16 01:20:31  5-MIN K12N 050620Z AUTO 36010G15KT M14/M19 A3041 130 63 -3400 010/10G15 RMK AO1 T11391194
54779K12N 12N20160105012512401/05/16 01:25:31  5-MIN K12N 050625Z AUTO 01008G14KT 340V050 M14/M20 A3042 130 60 -3400 020/08G14 350V060 RMK AO1 T11391200
54779K12N 12N20160105013010201/05/16 01:30:31  5-MIN K12N 050630Z AUTO 36006KT M14/M20 A3042 130 60 -3400 010/06 RMK AO1 T11391200
54779K12N 12N20160105013510201/05/16 01:35:31  5-MIN K12N 050635Z AUTO 35006KT M14/M20 A3042 120 60 -3400 360/06 RMK AO1 T11391200
54779K12N 12N20160105014010201/05/16 01:40:31  5-MIN K12N 050640Z AUTO 35007KT M14/M20 A3043 120 63 -3500 360/07 RMK AO1 T11441200
54779K12N 12N20160105014511801/05/16 01:45:31  5-MIN K12N 050645Z AUTO 36008KT 330V050 M14/M20 A3043 110 63 -3500 020/08 340V060 RMK AO1 T11441200
54779K12N 12N20160105015010901/05/16 01:50:31  5-MIN K12N 050650Z AUTO 35008KT M14/M20 A3044 110 63 -3500 360/08 RMK AO1 SLP327 T11441200
54779K12N 12N20160105015510801/05/16 01:55:31  5-MIN K12N 050655Z AUTO 01007G15KT M14/M21 A3044 110 60 -3500 020/07G15 RMK AO1 T11441206
54779K12N 12N20160105020010801/05/16 02:00:31  5-MIN K12N 050700Z AUTO 36009G16KT M14/M21 A3044 110 60 -3500 010/09G16 RMK AO1 T11441206
54779K12N 12N20160105020510801/05/16 02:05:31  5-MIN K12N 050705Z AUTO 34008G16KT M14/M21 A3044 100 60 -3500 360/08G16 RMK AO1 T11441206
54779K12N 12N20160105021012401/05/16 02:10:31  5-MIN K12N 050710Z AUTO 01007G16KT 330V030 M14/M21 A3045 100 60 -3500 020/07G16 340V040 RMK AO1 T11441206
54779K12N 12N20160105021510801/05/16 02:15:31  5-MIN K12N 050715Z AUTO VRB06G16KT M14/M21 A3045 100 60 -3500 VRB/06G16 RMK AO1 T11441206
54779K12N 12N20160105022012401/05/16 02:20:31  5-MIN K12N 050720Z AUTO 35007G14KT 320V030 M14/M20 A3045 100 63 -3500 360/07G14 330V040 RMK AO1 T11441200
54779K12N 12N20160105022510801/05/16 02:25:31  5-MIN K12N 050725Z AUTO VRB04G15KT M14/M21 A3045 100 60 -3500 VRB/04G15 RMK AO1 T11441206
54779K12N 12N20160105023009201/05/16 02:30:31  5-MIN K12N 050730Z AUTO M14/M21 A3045 100 60 -3500 M /M RMK AO1 T11441206
54779K12N 12N20160105023511801/05/16 02:35:31  5-MIN K12N 050735Z AUTO 01007KT 330V090 M14/M20 A3045 100 63 -3500 020/07 340V100 RMK AO1 T11441200
54779K12N 12N20160105024011701/05/16 02:40:31  5-MIN K12N 050740Z AUTO 36008KT 330V040 M14/M20 A3046 90 63 -3500 010/08 340V050 RMK AO1 T11441200
54779K12N 12N20160105024510101/05/16 02:45:31  5-MIN K12N 050745Z AUTO 36007KT M14/M21 A3046 90 60 -3500 010/07 RMK AO1 T11441206
54779K12N 12N20160105025010801/05/16 02:50:31  5-MIN K12N 050750Z AUTO 35009KT M14/M20 A3046 90 63 -3500 010/09 RMK AO1 SLP336 T11441200
54779K12N 12N20160105025510701/05/16 02:55:31  5-MIN K12N 050755Z AUTO 35008G17KT M14/M20 A3047 80 63 -3500 360/08G17 RMK AO1 T11441200
54779K12N 12N20160105030010701/05/16 03:00:31  5-MIN K12N 050800Z AUTO 36008G17KT M14/M21 A3047 80 60 -3500 010/08G17 RMK AO1 T11441206
54779K12N 12N20160105030510701/05/16 03:05:31  5-MIN K12N 050805Z AUTO 36007G15KT M14/M20 A3047 80 63 -3500 020/07G15 RMK AO1 T11441200
54779K12N 12N20160105031010701/05/16 03:10:31  5-MIN K12N 050810Z AUTO VRB05G15KT M14/M21 A3047 80 60 -3500 VRB/05G15 RMK AO1 T11441206
54779K12N 12N20160105031510101/05/16 03:15:31  5-MIN K12N 050815Z AUTO 36007KT M14/M20 A3048 80 63 -3500 010/07 RMK AO1 T11441200
54779K12N 12N20160105032010701/05/16 03:20:31  5-MIN K12N 050820Z AUTO 35010G14KT M14/M20 A3048 80 63 -3500 010/10G14 RMK AO1 T11441200
54779K12N 12N20160105032510701/05/16 03:25:31  5-MIN K12N 050825Z AUTO 35009G14KT M14/M21 A3047 80 60 -3500 010/09G14 RMK AO1 T11441206
54779K12N 12N20160105033011701/05/16 03:30:31  5-MIN K12N 050830Z AUTO 35008KT 320V040 M14/M21 A3048 70 60 -3500 010/08 330V050 RMK AO1 T11441206
54779K12N 12N20160105033510701/05/16 03:35:31  5-MIN K12N 050835Z AUTO 35010G15KT M14/M21 A3048 70 60 -3500 360/10G15 RMK AO1 T11441206
54779K12N 12N20160105034010101/05/16 03:40:31  5-MIN K12N 050840Z AUTO 36007KT M14/M21 A3048 70 60 -3500 010/07 RMK AO1 T11441206
54779K12N 12N20160105034510101/05/16 03:45:31  5-MIN K12N 050845Z AUTO 35007KT M14/M21 A3048 70 60 -3500 360/07 RMK AO1 T11441206
54779K12N 12N20160105035013001/05/16 03:50:31  5-MIN K12N 050850Z AUTO 36007KT 340V050 M14/M21 A3048 70 60 -3500 020/07 350V060 RMK AO1 SLP342 T11441206 51021
54779K12N 12N20160105035510101/05/16 03:55:31  5-MIN K12N 050855Z AUTO 36007KT M14/M21 A3048 70 60 -3500 010/07 RMK AO1 T11441206
54779K12N 12N20160105040010101/05/16 04:00:31  5-MIN K12N 050900Z AUTO 36008KT M14/M21 A3048 70 60 -3500 010/08 RMK AO1 T11441206
54779K12N 12N20160105040510101/05/16 04:05:31  5-MIN K12N 050905Z AUTO VRB06KT M14/M20 A3048 70 63 -3500 VRB/06 RMK AO1 T11441200
54779K12N 12N20160105041010101/05/16 04:10:31  5-MIN K12N 050910Z AUTO 36007KT M14/M21 A3048 70 60 -3500 010/07 RMK AO1 T11441206
54779K12N 12N20160105041510101/05/16 04:15:31  5-MIN K12N 050915Z AUTO 36007KT M14/M20 A3049 60 63 -3600 020/07 RMK AO1 T11441200
54779K12N 12N20160105042010101/05/16 04:20:31  5-MIN K12N 050920Z AUTO 35008KT M14/M20 A3049 60 63 -3600 010/08 RMK AO1 T11441200
54779K12N 12N20160105042510101/05/16 04:25:31  5-MIN K12N 050925Z AUTO 36007KT M14/M20 A3049 60 63 -3600 010/07 RMK AO1 T11441200
54779K12N 12N20160105043010701/05/16 04:30:31  5-MIN K12N 050930Z AUTO 01008G14KT M14/M20 A3049 60 63 -3600 020/08G14 RMK AO1 T11441200
54779K12N 12N20160105043512301/05/16 04:35:31  5-MIN K12N 050935Z AUTO 36010G15KT 330V030 M14/M20 A3049 60 63 -3600 010/10G15 340V040 RMK AO1 T11441200
54779K12N 12N20160105044010701/05/16 04:40:31  5-MIN K12N 050940Z AUTO 36011G17KT M14/M20 A3049 60 63 -3600 010/11G17 RMK AO1 T11441200
54779K12N 12N20160105044512301/05/16 04:45:31  5-MIN K12N 050945Z AUTO 01008G17KT 330V040 M14/M21 A3049 60 60 -3600 020/08G17 340V050 RMK AO1 T11441206
54779K12N 12N20160105045013001/05/16 04:50:31  5-MIN K12N 050950Z AUTO 36009G15KT 340V060 M14/M20 A3049 60 63 -3600 020/09G15 350V070 RMK AO1 SLP347 T11441200
54779K12N 12N20160105045510101/05/16 04:55:31  5-MIN K12N 050955Z AUTO VRB06KT M14/M20 A3050 60 63 -3600 VRB/06 RMK AO1 T11441200
54779K12N 12N20160105050010101/05/16 05:00:31  5-MIN K12N 051000Z AUTO 35008KT M14/M20 A3050 60 63 -3600 360/08 RMK AO1 T11441200
54779K12N 12N20160105050510101/05/16 05:05:31  5-MIN K12N 051005Z AUTO 35009KT M14/M20 A3050 60 63 -3600 010/09 RMK AO1 T11441200
54779K12N 12N20160105051011701/05/16 05:10:31  5-MIN K12N 051010Z AUTO 36007KT 330V050 M14/M21 A3050 60 60 -3600 020/07 340V060 RMK AO1 T11441206
54779K12N 12N20160105051510101/05/16 05:15:31  5-MIN K12N 051015Z AUTO 01007KT M14/M20 A3050 60 63 -3600 020/07 RMK AO1 T11441200
54779K12N 12N20160105052010101/05/16 05:20:31  5-MIN K12N 051020Z AUTO 36009KT M14/M21 A3050 60 60 -3600 010/09 RMK AO1 T11441206
54779K12N 12N20160105052510701/05/16 05:25:31  5-MIN K12N 051025Z AUTO 35009G14KT M14/M20 A3050 60 63 -3600 010/09G14 RMK AO1 T11441200
54779K12N 12N20160105053010101/05/16 05:30:31  5-MIN K12N 051030Z AUTO 36009KT M14/M20 A3050 60 63 -3600 010/09 RMK AO1 T11441200
54779K12N 12N20160105053510701/05/16 05:35:31  5-MIN K12N 051035Z AUTO 36010G20KT M14/M20 A3050 50 63 -3600 010/10G20 RMK AO1 T11441200
54779K12N 12N20160105054010701/05/16 05:40:31  5-MIN K12N 051040Z AUTO 36009G20KT M14/M20 A3050 50 63 -3600 010/09G20 RMK AO1 T11441200
54779K12N 12N20160105054510701/05/16 05:45:31  5-MIN K12N 051045Z AUTO 36010G15KT M14/M20 A3051 50 63 -3600 010/10G15 RMK AO1 T11441200
54779K12N 12N20160105055010801/05/16 05:50:31  5-MIN K12N 051050Z AUTO 36009KT M14/M20 A3051 50 63 -3600 010/09 RMK AO1 SLP353 T11441200
54779K12N 12N20160105055510101/05/16 05:55:31  5-MIN K12N 051055Z AUTO 36008KT M14/M20 A3051 50 63 -3600 010/08 RMK AO1 T11441200
54779K12N 12N20160105060010101/05/16 06:00:31  5-MIN K12N 051100Z AUTO 01009KT M14/M20 A3051 40 63 -3600 020/09 RMK AO1 T11441200
54779K12N 12N20160105060510101/05/16 06:05:31  5-MIN K12N 051105Z AUTO 36007KT M14/M21 A3051 40 60 -3600 010/07 RMK AO1 T11441206
54779K12N 12N20160105061010101/05/16 06:10:31  5-MIN K12N 051110Z AUTO 01008KT M14/M20 A3051 40 63 -3600 020/08 RMK AO1 T11441200
54779K12N 12N20160105061510101/05/16 06:15:31  5-MIN K12N 051115Z AUTO 36008KT M14/M20 A3052 40 63 -3600 010/08 RMK AO1 T11441200
54779K12N 12N20160105062010101/05/16 06:20:31  5-MIN K12N 051120Z AUTO 35008KT M14/M20 A3052 30 63 -3600 360/08 RMK AO1 T11441200
54779K12N 12N20160105062510101/05/16 06:25:31  5-MIN K12N 051125Z AUTO 01008KT M14/M20 A3052 40 63 -3600 020/08 RMK AO1 T11441200
54779K12N 12N20160105063011701/05/16 06:30:31  5-MIN K12N 051130Z AUTO 01007KT 340V050 M14/M20 A3052 30 63 -3600 020/07 350V060 RMK AO1 T11441200
54779K12N 12N20160105063510101/05/16 06:35:31  5-MIN K12N 051135Z AUTO 36007KT M14/M19 A3052 30 66 -3600 020/07 RMK AO1 T11441194
54779K12N 12N20160105064011701/05/16 06:40:31  5-MIN K12N 051140Z AUTO 01009KT 340V050 M14/M19 A3052 40 66 -3600 020/09 350V060 RMK AO1 T11441194
54779K12N 12N20160105064510101/05/16 06:45:31  5-MIN K12N 051145Z AUTO 01007KT M14/M19 A3052 40 63 -3500 020/07 RMK AO1 T11391194
54779K12N 12N20160105065012601/05/16 06:50:31  5-MIN K12N 051150Z AUTO 36007KT M14/M19 A3052 40 66 -3600 020/07 RMK AO1 SLP356 T11441194 11139 21144 51027
54779K12N 12N20160105065510101/05/16 06:55:31  5-MIN K12N 051155Z AUTO 36008KT M14/M19 A3052 40 63 -3500 020/08 RMK AO1 T11391194
54779K12N 12N20160105070010701/05/16 07:00:31  5-MIN K12N 051200Z AUTO 36008G15KT M14/M19 A3052 30 63 -3500 020/08G15 RMK AO1 T11391194
54779K12N 12N20160105070510701/05/16 07:05:31  5-MIN K12N 051205Z AUTO 36010G15KT M14/M19 A3053 30 63 -3500 010/10G15 RMK AO1 T11391194
54779K12N 12N20160105071010701/05/16 07:10:31  5-MIN K12N 051210Z AUTO 36008G14KT M14/M20 A3052 30 63 -3600 010/08G14 RMK AO1 T11441200
54779K12N 12N20160105071510101/05/16 07:15:31  5-MIN K12N 051215Z AUTO 35008KT M14/M20 A3052 30 63 -3600 010/08 RMK AO1 T11441200
54779K12N 12N20160105072010101/05/16 07:20:31  5-MIN K12N 051220Z AUTO 36006KT M14/M19 A3053 30 63 -3500 020/06 RMK AO1 T11391194
54779K12N 12N20160105072510101/05/16 07:25:31  5-MIN K12N 051225Z AUTO 36008KT M14/M19 A3053 20 66 -3600 020/08 RMK AO1 T11441194
54779K12N 12N20160105073010701/05/16 07:30:31  5-MIN K12N 051230Z AUTO 36010G14KT M14/M20 A3054 20 63 -3600 020/10G14 RMK AO1 T11441200
54779K12N 12N20160105073510701/05/16 07:35:31  5-MIN K12N 051235Z AUTO 35007G14KT M14/M20 A3054 20 63 -3600 010/07G14 RMK AO1 T11441200
54779K12N 12N20160105074011701/05/16 07:40:31  5-MIN K12N 051240Z AUTO 01007KT 350V050 M14/M20 A3055 10 63 -3600 020/07 360V060 RMK AO1 T11441200
54779K12N 12N20160105074510101/05/16 07:45:31  5-MIN K12N 051245Z AUTO 35006KT M14/M20 A3055 10 63 -3600 360/06 RMK AO1 T11441200
54779K12N 12N20160105075010801/05/16 07:50:31  5-MIN K12N 051250Z AUTO 35006KT M14/M20 A3055 10 63 -3600 360/06 RMK AO1 SLP369 T11441200
54779K12N 12N20160105075510001/05/16 07:55:31  5-MIN K12N 051255Z AUTO 35006KT M14/M21 A3056 0 60 -3600 360/06 RMK AO1 T11441206
54779K12N 12N20160105080010001/05/16 08:00:31  5-MIN K12N 051300Z AUTO 36006KT M14/M21 A3056 0 60 -3600 010/06 RMK AO1 T11441206
54779K12N 12N20160105080510001/05/16 08:05:31  5-MIN K12N 051305Z AUTO 35005KT M14/M20 A3056 0 60 -3600 360/05 RMK AO1 T11391200
54779K12N 12N20160105081010001/05/16 08:10:31  5-MIN K12N 051310Z AUTO 36004KT M14/M20 A3057 0 60 -3600 020/04 RMK AO1 T11391200
54779K12N 12N20160105081510001/05/16 08:15:31  5-MIN K12N 051315Z AUTO 36006KT M14/M20 A3057 0 60 -3600 020/06 RMK AO1 T11391200
54779K12N 12N20160105082010001/05/16 08:20:31  5-MIN K12N 051320Z AUTO VRB06KT M14/M19 A3057 0 63 -3600 VRB/06 RMK AO1 T11391194
54779K12N 12N20160105082510001/05/16 08:25:31  5-MIN K12N 051325Z AUTO VRB06KT M14/M19 A3057 0 63 -3600 VRB/06 RMK AO1 T11391194
54779K12N 12N20160105083010201/05/16 08:30:31  5-MIN K12N 051330Z AUTO VRB05KT M13/M19 A3057 -10 60 -3500 VRB/05 RMK AO1 T11331194
54779K12N 12N20160105185012701/05/16 18:50:31  5-MIN K12N 052350Z AUTO 00000KT M08/M13 A3059 -20 64 -2800 000/00 RMK AO1 SLP380 T10781133 11011 21078 55001
54779K12N 12N20160105185510201/05/16 18:55:31  5-MIN K12N 052355Z AUTO 00000KT M08/M12 A3059 -30 71 -2800 000/00 RMK AO1 T10781122
54779K12N 12N20160105190010201/05/16 19:00:31  5-MIN K12N 060000Z AUTO 00000KT M08/M12 A3059 -30 71 -2800 000/00 RMK AO1 T10781122
54779K12N 12N20160105190510201/05/16 19:05:31  5-MIN K12N 060005Z AUTO 00000KT M07/M13 A3059 -30 65 -2700 000/00 RMK AO1 T10721128
54779K12N 12N20160105191010201/05/16 19:10:31  5-MIN K12N 060010Z AUTO 00000KT M08/M12 A3059 -20 71 -2800 000/00 RMK AO1 T10781122
54779K12N 12N20160105191510201/05/16 19:15:31  5-MIN K12N 060015Z AUTO 00000KT M08/M12 A3059 -30 74 -2900 000/00 RMK AO1 T10831122
54779K12N 12N20160105192010201/05/16 19:20:31  5-MIN K12N 060020Z AUTO 00000KT M08/M13 A3059 -30 67 -2800 000/00 RMK AO1 T10781128
54779K12N 12N20160105192510201/05/16 19:25:31  5-MIN K12N 060025Z AUTO 00000KT M08/M12 A3060 -30 74 -2900 000/00 RMK AO1 T10831122
54779K12N 12N20160105193010201/05/16 19:30:31  5-MIN K12N 060030Z AUTO 00000KT M08/M13 A3059 -30 70 -2900 000/00 RMK AO1 T10831128
54779K12N 12N20160105193510201/05/16 19:35:31  5-MIN K12N 060035Z AUTO 00000KT M08/M13 A3059 -30 67 -2900 000/00 RMK AO1 T10831133
54779K12N 12N20160105194010201/05/16 19:40:31  5-MIN K12N 060040Z AUTO 00000KT M08/M13 A3059 -30 70 -2900 000/00 RMK AO1 T10831128
54779K12N 12N20160105194510201/05/16 19:45:31  5-MIN K12N 060045Z AUTO 00000KT M08/M13 A3059 -30 70 -2900 000/00 RMK AO1 T10831128
54779K12N 12N20160105195010901/05/16 19:50:31  5-MIN K12N 060050Z AUTO 00000KT M09/M12 A3060 -30 77 -2900 000/00 RMK AO1 SLP383 T10891122
54779K12N 12N20160105195510201/05/16 19:55:31  5-MIN K12N 060055Z AUTO 00000KT M09/M13 A3060 -30 74 -2900 000/00 RMK AO1 T10891128
54779K12N 12N20160105200010201/05/16 20:00:31  5-MIN K12N 060100Z AUTO 00000KT M09/M13 A3060 -30 70 -2900 000/00 RMK AO1 T10891133
54779K12N 12N20160105200510201/05/16 20:05:31  5-MIN K12N 060105Z AUTO 00000KT M08/M12 A3060 -30 74 -2900 000/00 RMK AO1 T10831122
54779K12N 12N20160105201010201/05/16 20:10:31  5-MIN K12N 060110Z AUTO 00000KT M08/M13 A3060 -30 70 -2900 000/00 RMK AO1 T10831128
54779K12N 12N20160105201510201/05/16 20:15:31  5-MIN K12N 060115Z AUTO 00000KT M09/M13 A3060 -30 70 -2900 000/00 RMK AO1 T10891133
54779K12N 12N20160105202010201/05/16 20:20:31  5-MIN K12N 060120Z AUTO 00000KT M08/M13 A3060 -30 67 -2900 000/00 RMK AO1 T10831133
54779K12N 12N20160105202510201/05/16 20:25:31  5-MIN K12N 060125Z AUTO 00000KT M09/M13 A3060 -30 70 -2900 000/00 RMK AO1 T10891133
54779K12N 12N20160105203010201/05/16 20:30:31  5-MIN K12N 060130Z AUTO 00000KT M09/M13 A3060 -30 70 -2900 000/00 RMK AO1 T10891133
54779K12N 12N20160105203510201/05/16 20:35:31  5-MIN K12N 060135Z AUTO 00000KT M09/M14 A3060 -30 70 -3000 000/00 RMK AO1 T10941139
54779K12N 12N20160105204010201/05/16 20:40:31  5-MIN K12N 060140Z AUTO 00000KT M09/M13 A3060 -30 73 -3000 000/00 RMK AO1 T10941133
54779K12N 12N20160105204510201/05/16 20:45:31  5-MIN K12N 060145Z AUTO 00000KT M09/M13 A3060 -30 77 -3000 000/00 RMK AO1 T10941128
54779K12N 12N20160105205010901/05/16 20:50:31  5-MIN K12N 060150Z AUTO 00000KT M09/M13 A3060 -30 73 -3000 000/00 RMK AO1 SLP383 T10941133
54779K12N 12N20160105205510201/05/16 20:55:31  5-MIN K12N 060155Z AUTO 00000KT M09/M13 A3060 -30 77 -3000 000/00 RMK AO1 T10941128
54779K12N 12N20160105210010201/05/16 21:00:31  5-MIN K12N 060200Z AUTO 00000KT M09/M13 A3060 -30 77 -3000 000/00 RMK AO1 T10941128
54779K12N 12N20160105210510201/05/16 21:05:31  5-MIN K12N 060205Z AUTO 00000KT M09/M13 A3060 -30 73 -3000 000/00 RMK AO1 T10941133
54779K12N 12N20160105211010201/05/16 21:10:31  5-MIN K12N 060210Z AUTO 00000KT M09/M13 A3060 -30 77 -3000 000/00 RMK AO1 T10941128
54779K12N 12N20160105211510201/05/16 21:15:31  5-MIN K12N 060215Z AUTO 00000KT M09/M13 A3060 -30 77 -3000 000/00 RMK AO1 T10941128
54779K12N 12N20160105212010201/05/16 21:20:31  5-MIN K12N 060220Z AUTO 00000KT M09/M13 A3060 -30 77 -3000 000/00 RMK AO1 T10941128
54779K12N 12N20160105212510201/05/16 21:25:31  5-MIN K12N 060225Z AUTO 00000KT M10/M13 A3060 -30 77 -3100 000/00 RMK AO1 T11001133
54779K12N 12N20160105213010201/05/16 21:30:31  5-MIN K12N 060230Z AUTO 00000KT M10/M14 A3060 -30 73 -3100 000/00 RMK AO1 T11001139
54779K12N 12N20160105213510201/05/16 21:35:31  5-MIN K12N 060235Z AUTO 00000KT M10/M13 A3060 -30 77 -3100 000/00 RMK AO1 T11001133
54779K12N 12N20160105214010201/05/16 21:40:31  5-MIN K12N 060240Z AUTO 00000KT M10/M14 A3060 -30 73 -3100 000/00 RMK AO1 T11001139
54779K12N 12N20160105214510201/05/16 21:45:31  5-MIN K12N 060245Z AUTO 00000KT M10/M13 A3060 -30 77 -3100 000/00 RMK AO1 T11001133
54779K12N 12N20160105215011501/05/16 21:50:31  5-MIN K12N 060250Z AUTO 00000KT M10/M13 A3060 -30 77 -3100 000/00 RMK AO1 SLP381 T11001133 51011
54779K12N 12N20160105215510201/05/16 21:55:31  5-MIN K12N 060255Z AUTO 00000KT M10/M13 A3060 -30 77 -3100 000/00 RMK AO1 T11001133
54779K12N 12N20160105220010201/05/16 22:00:31  5-MIN K12N 060300Z AUTO 00000KT M10/M13 A3060 -30 77 -3100 000/00 RMK AO1 T11001133
54779K12N 12N20160105220510201/05/16 22:05:31  5-MIN K12N 060305Z AUTO 00000KT M10/M13 A3060 -30 77 -3100 000/00 RMK AO1 T11001133
54779K12N 12N20160105221010201/05/16 22:10:31  5-MIN K12N 060310Z AUTO 00000KT M10/M13 A3060 -30 77 -3100 000/00 RMK AO1 T11001133
54779K12N 12N20160105221510201/05/16 22:15:31  5-MIN K12N 060315Z AUTO 00000KT M11/M13 A3060 -30 80 -3200 000/00 RMK AO1 T11061133
54779K12N 12N20160105222010201/05/16 22:20:31  5-MIN K12N 060320Z AUTO 00000KT M10/M13 A3060 -30 80 -3100 000/00 RMK AO1 T11001128
54779K12N 12N20160105222510201/05/16 22:25:31  5-MIN K12N 060325Z AUTO 00000KT M10/M13 A3060 -30 77 -3100 000/00 RMK AO1 T11001133
54779K12N 12N20160105223010201/05/16 22:30:31  5-MIN K12N 060330Z AUTO 00000KT M10/M13 A3060 -30 77 -3100 000/00 RMK AO1 T11001133
54779K12N 12N20160105223510201/05/16 22:35:31  5-MIN K12N 060335Z AUTO 00000KT M11/M14 A3060 -30 77 -3200 000/00 RMK AO1 T11061139
54779K12N 12N20160105224010201/05/16 22:40:31  5-MIN K12N 060340Z AUTO 00000KT M10/M13 A3059 -30 77 -3100 000/00 RMK AO1 T11001133
54779K12N 12N20160105224510201/05/16 22:45:31  5-MIN K12N 060345Z AUTO 00000KT M10/M13 A3059 -30 77 -3100 000/00 RMK AO1 T11001133
54779K12N 12N20160105225010901/05/16 22:50:31  5-MIN K12N 060350Z AUTO 00000KT M10/M13 A3059 -20 77 -3100 000/00 RMK AO1 SLP379 T11001133
54779K12N 12N20160105225510201/05/16 22:55:31  5-MIN K12N 060355Z AUTO 00000KT M11/M13 A3059 -20 80 -3200 000/00 RMK AO1 T11061133
54779K12N 12N20160105230010201/05/16 23:00:31  5-MIN K12N 060400Z AUTO 00000KT M11/M13 A3059 -20 80 -3100 000/00 RMK AO1 T11061133
54779K12N 12N20160105230510201/05/16 23:05:31  5-MIN K12N 060405Z AUTO 00000KT M11/M13 A3058 -20 80 -3100 000/00 RMK AO1 T11061133
54779K12N 12N20160105231010201/05/16 23:10:31  5-MIN K12N 060410Z AUTO 00000KT M11/M13 A3058 -20 80 -3100 000/00 RMK AO1 T11061133
54779K12N 12N20160105231510201/05/16 23:15:31  5-MIN K12N 060415Z AUTO 00000KT M11/M13 A3058 -10 80 -3100 000/00 RMK AO1 T11061133
54779K12N 12N20160105232010201/05/16 23:20:31  5-MIN K12N 060420Z AUTO 00000KT M11/M13 A3058 -10 80 -3100 000/00 RMK AO1 T11061133
54779K12N 12N20160105232510201/05/16 23:25:31  5-MIN K12N 060425Z AUTO 00000KT M11/M14 A3058 -10 77 -3100 000/00 RMK AO1 T11061139
54779K12N 12N20160105233010201/05/16 23:30:31  5-MIN K12N 060430Z AUTO 00000KT M11/M14 A3058 -10 77 -3100 000/00 RMK AO1 T11061139
54779K12N 12N20160105233510201/05/16 23:35:31  5-MIN K12N 060435Z AUTO 00000KT M11/M14 A3058 -10 77 -3100 000/00 RMK AO1 T11061139
54779K12N 12N20160105234010201/05/16 23:40:31  5-MIN K12N 060440Z AUTO 00000KT M11/M14 A3058 -10 80 -3200 000/00 RMK AO1 T11111139
54779K12N 12N20160105234510201/05/16 23:45:31  5-MIN K12N 060445Z AUTO 00000KT M11/M14 A3058 -10 77 -3100 000/00 RMK AO1 T11061139
54779K12N 12N20160105235011901/05/16 23:50:31  5-MIN K12N 060450Z AUTO 00000KT M11/M14 A3058 -10 77 -3100 000/00 RMK AO1 SLP373 T11061139 410111144
54779K12N 12N20160105235510201/05/16 23:55:31  5-MIN K12N 060455Z AUTO 00000KT M11/M13 A3058 -10 80 -3100 000/00 RMK AO1 T11061133
54779K12N 12N20160106000010201/06/16 00:00:31  5-MIN K12N 060500Z AUTO 00000KT M11/M13 A3057 -10 80 -3100 000/00 RMK AO1 T11061133
54779K12N 12N20160106000510201/06/16 00:05:31  5-MIN K12N 060505Z AUTO 00000KT M11/M13 A3057 -10 84 -3200 000/00 RMK AO1 T11111133
54779K12N 12N20160106001010201/06/16 00:10:31  5-MIN K12N 060510Z AUTO 00000KT M11/M14 A3057 -10 80 -3200 000/00 RMK AO1 T11111139
54779K12N 12N20160106001510201/06/16 00:15:31  5-MIN K12N 060515Z AUTO 00000KT M11/M14 A3057 -10 80 -3200 000/00 RMK AO1 T11111139
54779K12N 12N20160106002010001/06/16 00:20:31  5-MIN K12N 060520Z AUTO 00000KT M11/M14 A3057 0 80 -3200 000/00 RMK AO1 T11111139
54779K12N 12N20160106002510201/06/16 00:25:31  5-MIN K12N 060525Z AUTO 00000KT M11/M14 A3057 -10 80 -3200 000/00 RMK AO1 T11111139
54779K12N 12N20160106003010001/06/16 00:30:31  5-MIN K12N 060530Z AUTO 00000KT M11/M13 A3057 0 84 -3200 000/00 RMK AO1 T11111133
54779K12N 12N20160106003510001/06/16 00:35:31  5-MIN K12N 060535Z AUTO 00000KT M11/M13 A3057 0 84 -3200 000/00 RMK AO1 T11111133
54779K12N 12N20160106004010201/06/16 00:40:31  5-MIN K12N 060540Z AUTO 00000KT M11/M13 A3057 -10 84 -3200 000/00 RMK AO1 T11111133
54779K12N 12N20160106004510201/06/16 00:45:31  5-MIN K12N 060545Z AUTO 00000KT M12/M13 A3057 -10 87 -3300 000/00 RMK AO1 T11171133
54779K12N 12N20160106005012501/06/16 00:50:31  5-MIN K12N 060550Z AUTO 00000KT M11/M14 A3057 0 80 -3200 000/00 RMK AO1 SLP370 T11111139 11072 21117 50002
54779K12N 12N20160106005510201/06/16 00:55:31  5-MIN K12N 060555Z AUTO 00000KT M11/M14 A3057 -10 77 -3200 000/00 RMK AO1 T11111144
54779K12N 12N20160106010010001/06/16 01:00:31  5-MIN K12N 060600Z AUTO 00000KT M12/M14 A3057 0 80 -3300 000/00 RMK AO1 T11171144
54779K12N 12N20160106010510001/06/16 01:05:31  5-MIN K12N 060605Z AUTO 00000KT M12/M14 A3057 0 80 -3300 000/00 RMK AO1 T11171144
54779K12N 12N20160106011010001/06/16 01:10:31  5-MIN K12N 060610Z AUTO 00000KT M12/M14 A3057 0 80 -3300 000/00 RMK AO1 T11171144
54779K12N 12N20160106011510001/06/16 01:15:31  5-MIN K12N 060615Z AUTO 00000KT M11/M14 A3057 0 80 -3200 000/00 RMK AO1 T11111139
54779K12N 12N20160106012010201/06/16 01:20:31  5-MIN K12N 060620Z AUTO 22003KT M12/M14 A3057 -10 84 -3300 230/03 RMK AO1 T11171139
54779K12N 12N20160106012510201/06/16 01:25:31  5-MIN K12N 060625Z AUTO 22003KT M12/M14 A3057 -10 84 -3300 230/03 RMK AO1 T11171139
54779K12N 12N20160106013010001/06/16 01:30:31  5-MIN K12N 060630Z AUTO 21003KT M12/M14 A3057 0 84 -3300 230/03 RMK AO1 T11171139
54779K12N 12N20160106013510001/06/16 01:35:31  5-MIN K12N 060635Z AUTO 00000KT M12/M14 A3056 0 84 -3300 000/00 RMK AO1 T11171139
54779K12N 12N20160106014010001/06/16 01:40:31  5-MIN K12N 060640Z AUTO 00000KT M12/M14 A3057 0 84 -3300 000/00 RMK AO1 T11171139
54779K12N 12N20160106014510001/06/16 01:45:31  5-MIN K12N 060645Z AUTO 00000KT M12/M14 A3056 0 84 -3300 000/00 RMK AO1 T11171139
54779K12N 12N20160106015010701/06/16 01:50:31  5-MIN K12N 060650Z AUTO 00000KT M12/M14 A3056 0 84 -3300 000/00 RMK AO1 SLP367 T11171139
54779K12N 12N20160106015510001/06/16 01:55:31  5-MIN K12N 060655Z AUTO 22003KT M12/M14 A3056 0 84 -3300 230/03 RMK AO1 T11171139
54779K12N 12N20160106020010001/06/16 02:00:31  5-MIN K12N 060700Z AUTO 00000KT M12/M14 A3057 0 84 -3300 000/00 RMK AO1 T11171139
54779K12N 12N20160106020510001/06/16 02:05:31  5-MIN K12N 060705Z AUTO 00000KT M12/M14 A3057 0 87 -3300 000/00 RMK AO1 T11221139
54779K12N 12N20160106021010001/06/16 02:10:31  5-MIN K12N 060710Z AUTO 21003KT M12/M14 A3057 0 84 -3300 220/03 RMK AO1 T11171139
54779K12N 12N20160106021510001/06/16 02:15:31  5-MIN K12N 060715Z AUTO 21003KT M12/M14 A3057 0 87 -3300 230/03 RMK AO1 T11221139
54779K12N 12N20160106022010001/06/16 02:20:31  5-MIN K12N 060720Z AUTO 00000KT M12/M14 A3057 0 84 -3300 000/00 RMK AO1 T11221144
54779K12N 12N20160106022510001/06/16 02:25:31  5-MIN K12N 060725Z AUTO 22003KT M12/M14 A3057 0 84 -3300 230/03 RMK AO1 T11221144
54779K12N 12N20160106023010001/06/16 02:30:31  5-MIN K12N 060730Z AUTO 00000KT M12/M14 A3056 0 84 -3300 000/00 RMK AO1 T11221144
54779K12N 12N20160106023510001/06/16 02:35:31  5-MIN K12N 060735Z AUTO 00000KT M12/M14 A3056 0 84 -3300 000/00 RMK AO1 T11221144
54779K12N 12N20160106024010001/06/16 02:40:31  5-MIN K12N 060740Z AUTO 00000KT M12/M14 A3056 0 84 -3300 000/00 RMK AO1 T11221144
54779K12N 12N20160106024510001/06/16 02:45:31  5-MIN K12N 060745Z AUTO 00000KT M12/M14 A3056 0 84 -3300 000/00 RMK AO1 T11221144
54779K12N 12N20160106025010701/06/16 02:50:31  5-MIN K12N 060750Z AUTO 00000KT M12/M14 A3056 0 84 -3300 000/00 RMK AO1 SLP366 T11221144
54779K12N 12N20160106025510001/06/16 02:55:31  5-MIN K12N 060755Z AUTO 00000KT M12/M14 A3056 0 84 -3300 000/00 RMK AO1 T11221144
54779K12N 12N20160106030010001/06/16 03:00:31  5-MIN K12N 060800Z AUTO 00000KT M12/M14 A3056 0 84 -3300 000/00 RMK AO1 T11221144
54779K12N 12N20160106030510001/06/16 03:05:31  5-MIN K12N 060805Z AUTO 00000KT M12/M14 A3056 0 84 -3300 000/00 RMK AO1 T11221144
54779K12N 12N20160106031010001/06/16 03:10:31  5-MIN K12N 060810Z AUTO 00000KT M12/M14 A3056 0 84 -3300 000/00 RMK AO1 T11221144
54779K12N 12N20160106031510001/06/16 03:15:31  5-MIN K12N 060815Z AUTO 00000KT M12/M15 A3056 0 80 -3300 000/00 RMK AO1 T11221150
54779K12N 12N20160106032010001/06/16 03:20:31  5-MIN K12N 060820Z AUTO 00000KT M12/M14 A3056 0 84 -3300 000/00 RMK AO1 T11221144
54779K12N 12N20160106032510001/06/16 03:25:31  5-MIN K12N 060825Z AUTO 00000KT M12/M14 A3055 0 84 -3300 000/00 RMK AO1 T11221144
54779K12N 12N20160106033010101/06/16 03:30:31  5-MIN K12N 060830Z AUTO 00000KT M12/M14 A3055 10 87 -3300 000/00 RMK AO1 T11221139
54779K12N 12N20160106033510101/06/16 03:35:31  5-MIN K12N 060835Z AUTO 00000KT M12/M14 A3055 10 84 -3300 000/00 RMK AO1 T11221144
54779K12N 12N20160106034010101/06/16 03:40:31  5-MIN K12N 060840Z AUTO 00000KT M12/M14 A3055 10 84 -3300 000/00 RMK AO1 T11221144
54779K12N 12N20160106034510101/06/16 03:45:31  5-MIN K12N 060845Z AUTO 00000KT M12/M14 A3055 10 84 -3300 000/00 RMK AO1 T11221144
54779K12N 12N20160106035011401/06/16 03:50:31  5-MIN K12N 060850Z AUTO 00000KT M13/M15 A3055 10 84 -3400 000/00 RMK AO1 SLP362 T11281150 58009
54779K12N 12N20160106035510101/06/16 03:55:31  5-MIN K12N 060855Z AUTO 00000KT M12/M15 A3055 10 80 -3300 000/00 RMK AO1 T11221150
54779K12N 12N20160106040010101/06/16 04:00:31  5-MIN K12N 060900Z AUTO 00000KT M12/M14 A3055 10 84 -3300 000/00 RMK AO1 T11221144
54779K12N 12N20160106040510101/06/16 04:05:31  5-MIN K12N 060905Z AUTO 00000KT M12/M15 A3055 10 80 -3300 000/00 RMK AO1 T11221150
54779K12N 12N20160106041010101/06/16 04:10:31  5-MIN K12N 060910Z AUTO 00000KT M12/M14 A3055 10 84 -3300 000/00 RMK AO1 T11221144
54779K12N 12N20160106041510101/06/16 04:15:31  5-MIN K12N 060915Z AUTO 00000KT M12/M14 A3055 10 84 -3300 000/00 RMK AO1 T11221144
54779K12N 12N20160106042010101/06/16 04:20:31  5-MIN K12N 060920Z AUTO 00000KT M12/M14 A3055 10 84 -3300 000/00 RMK AO1 T11221144
54779K12N 12N20160106042510101/06/16 04:25:31  5-MIN K12N 060925Z AUTO 00000KT M12/M14 A3054 10 84 -3300 000/00 RMK AO1 T11221144
54779K12N 12N20160106043010101/06/16 04:30:31  5-MIN K12N 060930Z AUTO 00000KT M13/M14 A3054 10 87 -3400 000/00 RMK AO1 T11281144
54779K12N 12N20160106043510101/06/16 04:35:31  5-MIN K12N 060935Z AUTO 00000KT M12/M14 A3054 10 84 -3300 000/00 RMK AO1 T11221144
54779K12N 12N20160106044010101/06/16 04:40:31  5-MIN K12N 060940Z AUTO 00000KT M13/M14 A3054 10 87 -3400 000/00 RMK AO1 T11281144
54779K12N 12N20160106044510101/06/16 04:45:31  5-MIN K12N 060945Z AUTO 21003KT M13/M15 A3054 20 84 -3400 230/03 RMK AO1 T11281150
54779K12N 12N20160106045010801/06/16 04:50:31  5-MIN K12N 060950Z AUTO 00000KT M12/M14 A3054 20 84 -3300 000/00 RMK AO1 SLP361 T11221144
54779K12N 12N20160106045510101/06/16 04:55:31  5-MIN K12N 060955Z AUTO 00000KT M13/M14 A3054 20 87 -3400 000/00 RMK AO1 T11281144
54779K12N 12N20160106050010101/06/16 05:00:31  5-MIN K12N 061000Z AUTO 00000KT M13/M15 A3054 20 84 -3400 000/00 RMK AO1 T11281150
54779K12N 12N20160106050510101/06/16 05:05:31  5-MIN K12N 061005Z AUTO 00000KT M13/M15 A3054 20 84 -3400 000/00 RMK AO1 T11281150
54779K12N 12N20160106051010101/06/16 05:10:31  5-MIN K12N 061010Z AUTO 00000KT M13/M15 A3054 10 84 -3400 000/00 RMK AO1 T11281150
54779K12N 12N20160106051510101/06/16 05:15:31  5-MIN K12N 061015Z AUTO 00000KT M13/M15 A3054 10 84 -3400 000/00 RMK AO1 T11281150
54779K12N 12N20160106052010101/06/16 05:20:31  5-MIN K12N 061020Z AUTO 00000KT M13/M15 A3054 10 84 -3400 000/00 RMK AO1 T11281150
54779K12N 12N20160106052510101/06/16 05:25:31  5-MIN K12N 061025Z AUTO 00000KT M13/M16 A3055 10 83 -3500 000/00 RMK AO1 T11331156
54779K12N 12N20160106053010101/06/16 05:30:31  5-MIN K12N 061030Z AUTO 00000KT M13/M16 A3055 10 80 -3400 000/00 RMK AO1 T11281156
54779K12N 12N20160106053510101/06/16 05:35:31  5-MIN K12N 061035Z AUTO 00000KT M13/M16 A3055 10 80 -3400 000/00 RMK AO1 T11281156
54779K12N 12N20160106054010101/06/16 05:40:31  5-MIN K12N 061040Z AUTO 00000KT M13/M16 A3055 10 80 -3400 000/00 RMK AO1 T11281156
54779K12N 12N20160106054510101/06/16 05:45:31  5-MIN K12N 061045Z AUTO 00000KT M13/M16 A3055 10 83 -3500 000/00 RMK AO1 T11331156
54779K12N 12N20160106055010801/06/16 05:50:31  5-MIN K12N 061050Z AUTO 00000KT M13/M16 A3055 10 83 -3500 000/00 RMK AO1 SLP365 T11331156
54779K12N 12N20160106055510101/06/16 05:55:31  5-MIN K12N 061055Z AUTO 00000KT M13/M16 A3055 10 83 -3500 000/00 RMK AO1 T11331156
54779K12N 12N20160106060010101/06/16 06:00:31  5-MIN K12N 061100Z AUTO 00000KT M13/M16 A3055 10 83 -3500 000/00 RMK AO1 T11331156
54779K12N 12N20160106060510001/06/16 06:05:31  5-MIN K12N 061105Z AUTO 00000KT M13/M16 A3056 0 83 -3500 000/00 RMK AO1 T11331156
54779K12N 12N20160106061010001/06/16 06:10:31  5-MIN K12N 061110Z AUTO 00000KT M13/M16 A3056 0 83 -3500 000/00 RMK AO1 T11331156
54779K12N 12N20160106061510001/06/16 06:15:31  5-MIN K12N 061115Z AUTO 00000KT M13/M15 A3056 0 84 -3400 000/00 RMK AO1 T11281150
54779K12N 12N20160106062010001/06/16 06:20:31  5-MIN K12N 061120Z AUTO 00000KT M13/M15 A3056 0 84 -3400 000/00 RMK AO1 T11281150
54779K12N 12N20160106062510001/06/16 06:25:31  5-MIN K12N 061125Z AUTO 00000KT M13/M15 A3056 0 84 -3400 000/00 RMK AO1 T11281150
54779K12N 12N20160106063010001/06/16 06:30:31  5-MIN K12N 061130Z AUTO 00000KT M13/M15 A3056 0 87 -3500 000/00 RMK AO1 T11331150
54779K12N 12N20160106063510001/06/16 06:35:31  5-MIN K12N 061135Z AUTO 00000KT M13/M15 A3056 0 87 -3500 000/00 RMK AO1 T11331150
54779K12N 12N20160106064010001/06/16 06:40:31  5-MIN K12N 061140Z AUTO 00000KT M13/M16 A3056 0 83 -3500 000/00 RMK AO1 T11331156
54779K12N 12N20160106064510001/06/16 06:45:31  5-MIN K12N 061145Z AUTO 00000KT M13/M16 A3056 0 83 -3500 000/00 RMK AO1 T11331156
54779K12N 12N20160108164010001/08/16 16:40:31  5-MIN K12N 082140Z AUTO 00000KT 04/M01 A3016 370 70 -800 000/00 RMK AO1 T00391011
54779K12N 12N20160108164510001/08/16 16:45:31  5-MIN K12N 082145Z AUTO VRB03KT 04/M01 A3016 370 73 -800 VRB/03 RMK AO1 T00391006
54779K12N 12N20160108165010701/08/16 16:50:31  5-MIN K12N 082150Z AUTO 00000KT 04/M01 A3016 370 73 -800 000/00 RMK AO1 SLP224 T00391006
54779K12N 12N20160108165510001/08/16 16:55:31  5-MIN K12N 082155Z AUTO 00000KT 03/M01 A3016 370 72 -900 000/00 RMK AO1 T00331011
54779K12N 12N20160108170010001/08/16 17:00:31  5-MIN K12N 082200Z AUTO 00000KT 03/M01 A3016 360 72 -900 000/00 RMK AO1 T00331011
54779K12N 12N20160108170510001/08/16 17:05:31  5-MIN K12N 082205Z AUTO 00000KT 03/M01 A3016 360 72 -900 000/00 RMK AO1 T00331011
54779K12N 12N20160108171010001/08/16 17:10:31  5-MIN K12N 082210Z AUTO VRB03KT 04/M01 A3016 360 70 -800 VRB/03 RMK AO1 T00391011
54779K12N 12N20160108171510001/08/16 17:15:31  5-MIN K12N 082215Z AUTO 00000KT 04/M01 A3016 360 73 -800 000/00 RMK AO1 T00391006
54779K12N 12N20160108172010001/08/16 17:20:31  5-MIN K12N 082220Z AUTO 00000KT 03/M01 A3016 360 72 -900 000/00 RMK AO1 T00331011
54779K12N 12N20160108172510001/08/16 17:25:31  5-MIN K12N 082225Z AUTO 00000KT 03/M01 A3017 360 72 -900 000/00 RMK AO1 T00331011
54779K12N 12N20160108173010001/08/16 17:30:31  5-MIN K12N 082230Z AUTO 00000KT 03/M01 A3017 350 72 -900 000/00 RMK AO1 T00331011
54779K12N 12N20160108173510001/08/16 17:35:31  5-MIN K12N 082235Z AUTO 00000KT 03/M01 A3017 350 72 -900 000/00 RMK AO1 T00331011
54779K12N 12N20160108174010101/08/16 17:40:31  5-MIN K12N 082240Z AUTO 00000KT 03/M01 A3018 350 75 -1000 000/00 RMK AO1 T00281011
54779K12N 12N20160108174510101/08/16 17:45:31  5-MIN K12N 082245Z AUTO 00000KT 03/M01 A3018 340 75 -1000 000/00 RMK AO1 T00281011
54779K12N 12N20160108175010801/08/16 17:50:31  5-MIN K12N 082250Z AUTO 00000KT 03/M01 A3018 340 75 -1000 000/00 RMK AO1 SLP233 T00281011
54779K12N 12N20160108175507101/08/16 17:55:31  5-MIN K12N 082255Z AUTO 00000KT M M M 000/00 RMK AO1
54779K12N 12N20160108180010101/08/16 18:00:31  5-MIN K12N 082300Z AUTO 00000KT 02/M01 A3018 340 78 -1000 000/00 RMK AO1 T00221011
54779K12N 12N20160108180510101/08/16 18:05:31  5-MIN K12N 082305Z AUTO 00000KT 02/M01 A3018 340 78 -1000 000/00 RMK AO1 T00221011
54779K12N 12N20160108181010101/08/16 18:10:31  5-MIN K12N 082310Z AUTO 00000KT 02/M01 A3018 350 78 -1000 000/00 RMK AO1 T00221011
54779K12N 12N20160108181510101/08/16 18:15:31  5-MIN K12N 082315Z AUTO 00000KT 03/M01 A3018 340 79 -1000 000/00 RMK AO1 T00281006
54779K12N 12N20160108182010101/08/16 18:20:31  5-MIN K12N 082320Z AUTO 00000KT 02/M01 A3018 340 82 -1000 000/00 RMK AO1 T00221006
54779K12N 12N20160108182510101/08/16 18:25:31  5-MIN K12N 082325Z AUTO 00000KT 02/M01 A3018 340 82 -1000 000/00 RMK AO1 T00221006
54779K12N 12N20160108183010101/08/16 18:30:31  5-MIN K12N 082330Z AUTO 00000KT 02/M01 A3018 340 78 -1000 000/00 RMK AO1 T00221011
54779K12N 12N20160108183510101/08/16 18:35:31  5-MIN K12N 082335Z AUTO 00000KT 02/M01 A3019 340 78 -1000 000/00 RMK AO1 T00221011
54779K12N 12N20160108184010101/08/16 18:40:31  5-MIN K12N 082340Z AUTO 00000KT 02/M01 A3019 340 78 -1000 000/00 RMK AO1 T00221011
54779K12N 12N20160108184510101/08/16 18:45:31  5-MIN K12N 082345Z AUTO 00000KT 02/M01 A3019 340 78 -1000 000/00 RMK AO1 T00221011
54779K12N 12N20160108185012001/08/16 18:50:31  5-MIN K12N 082350Z AUTO 00000KT 02/M01 A3019 330 82 -1100 000/00 RMK AO1 SLP237 T00171011 10056 20017
54779K12N 12N20160108185510101/08/16 18:55:31  5-MIN K12N 082355Z AUTO 00000KT 02/M01 A3020 330 82 -1100 000/00 RMK AO1 T00171011
54779K12N 12N20160108190010101/08/16 19:00:31  5-MIN K12N 090000Z AUTO 00000KT 02/M01 A3020 330 78 -1100 000/00 RMK AO1 T00221011
54779K12N 12N20160108190510101/08/16 19:05:31  5-MIN K12N 090005Z AUTO 00000KT 02/M01 A3020 330 78 -1100 000/00 RMK AO1 T00221011
54779K12N 12N20160108191010101/08/16 19:10:31  5-MIN K12N 090010Z AUTO 00000KT 02/M01 A3020 330 82 -1100 000/00 RMK AO1 T00171011
54779K12N 12N20160108191510101/08/16 19:15:31  5-MIN K12N 090015Z AUTO 00000KT 02/M01 A3019 340 78 -1000 000/00 RMK AO1 T00221011
54779K12N 12N20160108192010101/08/16 19:20:31  5-MIN K12N 090020Z AUTO 00000KT 02/M01 A3019 340 82 -1100 000/00 RMK AO1 T00171011
54779K12N 12N20160108192510101/08/16 19:25:31  5-MIN K12N 090025Z AUTO 00000KT 02/M01 A3019 340 82 -1100 000/00 RMK AO1 T00171011
54779K12N 12N20160108193010101/08/16 19:30:31  5-MIN K12N 090030Z AUTO 00000KT 02/M01 A3019 330 82 -1100 000/00 RMK AO1 T00171011
54779K12N 12N20160108193510101/08/16 19:35:31  5-MIN K12N 090035Z AUTO 00000KT 02/M01 A3019 330 82 -1100 000/00 RMK AO1 T00171011
54779K12N 12N20160108194010101/08/16 19:40:31  5-MIN K12N 090040Z AUTO 00000KT 02/M01 A3019 340 78 -1000 000/00 RMK AO1 T00221011
54779K12N 12N20160108194510101/08/16 19:45:31  5-MIN K12N 090045Z AUTO 00000KT 02/M01 A3019 340 78 -1000 000/00 RMK AO1 T00221011
54779K12N 12N20160108195010801/08/16 19:50:31  5-MIN K12N 090050Z AUTO 00000KT 02/M01 A3019 340 82 -1000 000/00 RMK AO1 SLP234 T00221006
54779K12N 12N20160108195510101/08/16 19:55:31  5-MIN K12N 090055Z AUTO 00000KT 02/M01 A3019 340 82 -1000 000/00 RMK AO1 T00221006
54779K12N 12N20160108200010101/08/16 20:00:31  5-MIN K12N 090100Z AUTO 00000KT 02/M01 A3019 340 82 -1000 000/00 RMK AO1 T00221006
54779K12N 12N20160108200510101/08/16 20:05:31  5-MIN K12N 090105Z AUTO 00000KT 02/M01 A3018 340 82 -1000 000/00 RMK AO1 T00221006
54779K12N 12N20160108201010101/08/16 20:10:31  5-MIN K12N 090110Z AUTO 03003KT 02/M01 A3018 350 82 -1100 050/03 RMK AO1 T00171011
54779K12N 12N20160108201510101/08/16 20:15:31  5-MIN K12N 090115Z AUTO 00000KT 02/M01 A3018 350 78 -1000 000/00 RMK AO1 T00221011
54779K12N 12N20160108202010101/08/16 20:20:31  5-MIN K12N 090120Z AUTO 00000KT 02/M01 A3018 350 82 -1000 000/00 RMK AO1 T00221006
54779K12N 12N20160108202510101/08/16 20:25:31  5-MIN K12N 090125Z AUTO 36004KT 02/M01 A3018 350 82 -1000 010/04 RMK AO1 T00221006
54779K12N 12N20160108203010101/08/16 20:30:31  5-MIN K12N 090130Z AUTO 00000KT 02/M01 A3018 340 78 -1000 000/00 RMK AO1 T00221011
54779K12N 12N20160108203510101/08/16 20:35:31  5-MIN K12N 090135Z AUTO 00000KT 02/M01 A3018 340 82 -1100 000/00 RMK AO1 T00171011
54779K12N 12N20160108204010101/08/16 20:40:31  5-MIN K12N 090140Z AUTO 00000KT 02/M01 A3018 340 82 -1100 000/00 RMK AO1 T00171011
54779K12N 12N20160108204510101/08/16 20:45:31  5-MIN K12N 090145Z AUTO 00000KT 01/M01 A3018 340 85 -1200 000/00 RMK AO1 T00111011
54779K12N 12N20160108205010801/08/16 20:50:31  5-MIN K12N 090150Z AUTO 00000KT 01/M02 A3018 340 82 -1200 000/00 RMK AO1 SLP233 T00111017
54779K12N 12N20160108205510101/08/16 20:55:31  5-MIN K12N 090155Z AUTO 00000KT 01/M02 A3018 340 82 -1200 000/00 RMK AO1 T00111017
54779K12N 12N20160108210010101/08/16 21:00:31  5-MIN K12N 090200Z AUTO 00000KT 01/M02 A3018 340 82 -1200 000/00 RMK AO1 T00111017
54779K12N 12N20160108210510101/08/16 21:05:31  5-MIN K12N 090205Z AUTO 00000KT 01/M01 A3018 350 85 -1200 000/00 RMK AO1 T00111011
54779K12N 12N20160108211010101/08/16 21:10:31  5-MIN K12N 090210Z AUTO 00000KT 01/M02 A3018 350 85 -1200 000/00 RMK AO1 T00061017
54779K12N 12N20160108211510101/08/16 21:15:31  5-MIN K12N 090215Z AUTO 00000KT 01/M02 A3018 350 85 -1200 000/00 RMK AO1 T00061017
54779K12N 12N20160108212010101/08/16 21:20:31  5-MIN K12N 090220Z AUTO 00000KT 01/M02 A3017 350 82 -1200 000/00 RMK AO1 T00111017
54779K12N 12N20160108212510101/08/16 21:25:31  5-MIN K12N 090225Z AUTO 00000KT 01/M02 A3018 350 85 -1200 000/00 RMK AO1 T00061017
54779K12N 12N20160108213010101/08/16 21:30:31  5-MIN K12N 090230Z AUTO 00000KT 01/M01 A3018 350 85 -1200 000/00 RMK AO1 T00111011
54779K12N 12N20160108213510101/08/16 21:35:31  5-MIN K12N 090235Z AUTO 00000KT 01/M01 A3018 340 89 -1200 000/00 RMK AO1 T00061011
54779K12N 12N20160108214010101/08/16 21:40:31  5-MIN K12N 090240Z AUTO 00000KT 01/M01 A3019 340 89 -1300 000/00 RMK AO1 T00061011
54779K12N 12N20160108214510101/08/16 21:45:31  5-MIN K12N 090245Z AUTO 00000KT 01/M01 A3019 340 89 -1300 000/00 RMK AO1 T00061011
54779K12N 12N20160108215010801/08/16 21:50:31  5-MIN K12N 090250Z AUTO 00000KT 01/M02 A3019 340 85 -1200 000/00 RMK AO1 SLP233 T00061017
54779K12N 12N20160108215510101/08/16 21:55:31  5-MIN K12N 090255Z AUTO 00000KT 01/M02 A3018 340 85 -1200 000/00 RMK AO1 T00061017
54779K12N 12N20160108220010101/08/16 22:00:31  5-MIN K12N 090300Z AUTO 00000KT 01/M01 A3018 340 85 -1200 000/00 RMK AO1 T00111011
54779K12N 12N20160108220510101/08/16 22:05:31  5-MIN K12N 090305Z AUTO 00000KT 01/M01 A3018 340 85 -1200 000/00 RMK AO1 T00111011
54779K12N 12N20160108221010101/08/16 22:10:31  5-MIN K12N 090310Z AUTO 04003KT 01/M01 A3018 350 85 -1200 060/03 RMK AO1 T00111011
54779K12N 12N20160108221510101/08/16 22:15:31  5-MIN K12N 090315Z AUTO 00000KT 01/M01 A3018 350 85 -1200 000/00 RMK AO1 T00111011
54779K12N 12N20160108222010101/08/16 22:20:31  5-MIN K12N 090320Z AUTO 00000KT 01/M01 A3017 360 85 -1200 000/00 RMK AO1 T00111011
54779K12N 12N20160108222510101/08/16 22:25:31  5-MIN K12N 090325Z AUTO 00000KT 01/M01 A3017 360 85 -1200 000/00 RMK AO1 T00111011
54779K12N 12N20160108223010101/08/16 22:30:31  5-MIN K12N 090330Z AUTO 03005KT 01/M01 A3016 360 89 -1200 050/05 RMK AO1 T00111006
54779K12N 12N20160108223510101/08/16 22:35:31  5-MIN K12N 090335Z AUTO 02003KT 01/M01 A3016 360 85 -1200 030/03 RMK AO1 T00111011
54779K12N 12N20160108224010101/08/16 22:40:31  5-MIN K12N 090340Z AUTO 36005KT 01/M01 A3016 360 85 -1200 010/05 RMK AO1 T00111011
54779K12N 12N20160108224510101/08/16 22:45:31  5-MIN K12N 090345Z AUTO 04004KT 02/M01 A3016 360 85 -1100 060/04 RMK AO1 T00171006
54779K12N 12N20160108225010801/08/16 22:50:31  5-MIN K12N 090350Z AUTO 03003KT 01/M01 A3016 360 85 -1200 050/03 RMK AO1 SLP223 T00111011
54779K12N 12N20160108225510101/08/16 22:55:31  5-MIN K12N 090355Z AUTO 35003KT 01/M01 A3017 360 85 -1200 360/03 RMK AO1 T00111011
54779K12N 12N20160108230010101/08/16 23:00:31  5-MIN K12N 090400Z AUTO 00000KT 02/M01 A3017 360 85 -1100 000/00 RMK AO1 T00171006
54779K12N 12N20160108230510101/08/16 23:05:31  5-MIN K12N 090405Z AUTO 00000KT 01/M01 A3017 360 85 -1200 000/00 RMK AO1 T00111011
54779K12N 12N20160108231010101/08/16 23:10:31  5-MIN K12N 090410Z AUTO 01003KT 01/M01 A3016 360 85 -1200 020/03 RMK AO1 T00111011
54779K12N 12N20160108231510101/08/16 23:15:31  5-MIN K12N 090415Z AUTO 01003KT 01/M01 A3016 360 85 -1200 020/03 RMK AO1 T00111011
54779K12N 12N20160108232010101/08/16 23:20:31  5-MIN K12N 090420Z AUTO 00000KT 01/M01 A3016 360 85 -1200 000/00 RMK AO1 T00111011
54779K12N 12N20160108232510101/08/16 23:25:31  5-MIN K12N 090425Z AUTO 00000KT 01/M01 A3016 360 89 -1200 000/00 RMK AO1 T00111006
54779K12N 12N20160108233010101/08/16 23:30:31  5-MIN K12N 090430Z AUTO 00000KT 02/M01 A3017 360 85 -1100 000/00 RMK AO1 T00171006
54779K12N 12N20160108233510101/08/16 23:35:31  5-MIN K12N 090435Z AUTO 00000KT 02/M01 A3017 350 85 -1100 000/00 RMK AO1 T00171006
54779K12N 12N20160108234010101/08/16 23:40:31  5-MIN K12N 090440Z AUTO 00000KT 01/M01 A3018 350 89 -1200 000/00 RMK AO1 T00111006
54779K12N 12N20160108234510101/08/16 23:45:31  5-MIN K12N 090445Z AUTO 00000KT 02/M01 A3018 350 85 -1100 000/00 RMK AO1 T00171006
54779K12N 12N20160108235011801/08/16 23:50:31  5-MIN K12N 090450Z AUTO 00000KT 01/M01 A3018 350 89 -1200 000/00 RMK AO1 SLP228 T00111006 400561072
54779K12N 12N20160108235510101/08/16 23:55:31  5-MIN K12N 090455Z AUTO 00000KT 01/M01 A3018 350 89 -1200 000/00 RMK AO1 T00111006
54779K12N 12N20160109000010101/09/16 00:00:31  5-MIN K12N 090500Z AUTO 00000KT 01/M01 A3017 350 89 -1200 000/00 RMK AO1 T00111006
54779K12N 12N20160109000510101/09/16 00:05:31  5-MIN K12N 090505Z AUTO 00000KT 02/M01 A3017 360 85 -1100 000/00 RMK AO1 T00171006
54779K12N 12N20160109001010001/09/16 00:10:31  5-MIN K12N 090510Z AUTO 00000KT 02/00 A3017 360 89 -1100 000/00 RMK AO1 T00170000
54779K12N 12N20160109001510101/09/16 00:15:31  5-MIN K12N 090515Z AUTO 04003KT 02/M01 A3016 360 85 -1100 050/03 RMK AO1 T00171006
54779K12N 12N20160109002010101/09/16 00:20:31  5-MIN K12N 090520Z AUTO 00000KT 02/M01 A3017 360 85 -1100 000/00 RMK AO1 T00171006
54779K12N 12N20160109002510101/09/16 00:25:31  5-MIN K12N 090525Z AUTO 36003KT 02/M01 A3017 360 85 -1100 010/03 RMK AO1 T00171006
54779K12N 12N20160109003010101/09/16 00:30:31  5-MIN K12N 090530Z AUTO VRB03KT 02/M01 A3017 360 85 -1100 VRB/03 RMK AO1 T00171006
54779K12N 12N20160109003510101/09/16 00:35:31  5-MIN K12N 090535Z AUTO 00000KT 02/M01 A3017 350 85 -1100 000/00 RMK AO1 T00171006
54779K12N 12N20160109004010101/09/16 00:40:31  5-MIN K12N 090540Z AUTO 03003KT 02/M01 A3017 360 85 -1100 040/03 RMK AO1 T00171006
54779K12N 12N20160109004510101/09/16 00:45:31  5-MIN K12N 090545Z AUTO 03003KT 02/M01 A3017 360 85 -1100 040/03 RMK AO1 T00171006
54779K12N 12N20160109005012601/09/16 00:50:31  5-MIN K12N 090550Z AUTO 03003KT 02/M01 A3017 360 82 -1100 040/03 RMK AO1 SLP223 T00171011 10022 20006 56004
54779K12N 12N20160109005510101/09/16 00:55:31  5-MIN K12N 090555Z AUTO 00000KT 02/M01 A3017 360 82 -1100 000/00 RMK AO1 T00171011
54779K12N 12N20160109010010101/09/16 01:00:31  5-MIN K12N 090600Z AUTO 04005KT 02/M01 A3016 360 82 -1100 050/05 RMK AO1 T00171011
54779K12N 12N20160109010510101/09/16 01:05:31  5-MIN K12N 090605Z AUTO 04003KT 02/M01 A3017 360 82 -1100 050/03 RMK AO1 T00171011
54779K12N 12N20160109011010101/09/16 01:10:31  5-MIN K12N 090610Z AUTO 03004KT 02/M01 A3016 360 82 -1100 050/04 RMK AO1 T00171011
54779K12N 12N20160109011510101/09/16 01:15:31  5-MIN K12N 090615Z AUTO 00000KT 02/M01 A3017 360 82 -1100 000/00 RMK AO1 T00171011
54779K12N 12N20160109012010101/09/16 01:20:31  5-MIN K12N 090620Z AUTO 00000KT 02/M01 A3017 360 82 -1100 000/00 RMK AO1 T00171011
54779K12N 12N20160109012510101/09/16 01:25:31  5-MIN K12N 090625Z AUTO 00000KT 02/M01 A3017 360 82 -1100 000/00 RMK AO1 T00171011
54779K12N 12N20160109013010101/09/16 01:30:31  5-MIN K12N 090630Z AUTO 03003KT 01/M01 A3017 360 85 -1200 040/03 RMK AO1 T00111011
54779K12N 12N20160109013510101/09/16 01:35:31  5-MIN K12N 090635Z AUTO 04003KT 01/M01 A3016 360 85 -1200 050/03 RMK AO1 T00111011
54779K12N 12N20160109014010101/09/16 01:40:31  5-MIN K12N 090640Z AUTO 03004KT 01/M01 A3016 360 85 -1200 040/04 RMK AO1 T00111011
54779K12N 12N20160109014510101/09/16 01:45:31  5-MIN K12N 090645Z AUTO 03003KT 02/M01 A3016 360 82 -1100 040/03 RMK AO1 T00171011
54779K12N 12N20160109015010801/09/16 01:50:31  5-MIN K12N 090650Z AUTO 00000KT 02/M01 A3016 360 82 -1100 000/00 RMK AO1 SLP222 T00171011
54779K12N 12N20160109015510101/09/16 01:55:31  5-MIN K12N 090655Z AUTO VRB03KT 02/M01 A3016 370 85 -1100 VRB/03 RMK AO1 T00171006
54779K12N 12N20160109020010101/09/16 02:00:31  5-MIN K12N 090700Z AUTO VRB03KT 01/M01 A3016 370 85 -1100 VRB/03 RMK AO1 T00111011
54779K12N 12N20160109020510101/09/16 02:05:31  5-MIN K12N 090705Z AUTO 04004KT 01/M01 A3016 360 85 -1200 050/04 RMK AO1 T00111011
54779K12N 12N20160109021010101/09/16 02:10:31  5-MIN K12N 090710Z AUTO 04006KT 01/M01 A3016 370 85 -1100 050/06 RMK AO1 T00111011
54779K12N 12N20160109021510101/09/16 02:15:31  5-MIN K12N 090715Z AUTO VRB03KT 01/M01 A3016 360 85 -1200 VRB/03 RMK AO1 T00111011
54779K12N 12N20160109022010101/09/16 02:20:31  5-MIN K12N 090720Z AUTO 02003KT 01/M01 A3016 360 85 -1200 030/03 RMK AO1 T00111011
54779K12N 12N20160109022510101/09/16 02:25:31  5-MIN K12N 090725Z AUTO 00000KT 02/M01 A3016 360 82 -1100 000/00 RMK AO1 T00171011
54779K12N 12N20160109023010101/09/16 02:30:31  5-MIN K12N 090730Z AUTO 00000KT 02/M01 A3016 360 82 -1100 000/00 RMK AO1 T00171011
54779K12N 12N20160109023510101/09/16 02:35:31  5-MIN K12N 090735Z AUTO VRB03KT 02/M01 A3017 360 82 -1100 VRB/03 RMK AO1 T00171011
54779K12N 12N20160109024010101/09/16 02:40:31  5-MIN K12N 090740Z AUTO VRB03KT 02/M01 A3017 360 82 -1100 VRB/03 RMK AO1 T00171011
54779K12N 12N20160109024510101/09/16 02:45:31  5-MIN K12N 090745Z AUTO VRB03KT 02/M01 A3016 360 82 -1100 VRB/03 RMK AO1 T00171011
54779K12N 12N20160109025010801/09/16 02:50:31  5-MIN K12N 090750Z AUTO VRB03KT 02/M01 A3016 360 82 -1100 VRB/03 RMK AO1 SLP222 T00171011
54779K12N 12N20160109025510101/09/16 02:55:31  5-MIN K12N 090755Z AUTO VRB03KT 02/M01 A3016 360 82 -1100 VRB/03 RMK AO1 T00171011
54779K12N 12N20160109030010101/09/16 03:00:31  5-MIN K12N 090800Z AUTO VRB03KT 02/M01 A3016 360 82 -1100 VRB/03 RMK AO1 T00171011
54779K12N 12N20160109030510101/09/16 03:05:31  5-MIN K12N 090805Z AUTO 02003KT 02/M01 A3017 360 82 -1100 030/03 RMK AO1 T00171011
54779K12N 12N20160109031010101/09/16 03:10:31  5-MIN K12N 090810Z AUTO 00000KT 02/M01 A3017 360 82 -1100 000/00 RMK AO1 T00171011
54779K12N 12N20160109031510101/09/16 03:15:31  5-MIN K12N 090815Z AUTO 00000KT 02/M01 A3017 360 82 -1100 000/00 RMK AO1 T00171011
54779K12N 12N20160109032010101/09/16 03:20:31  5-MIN K12N 090820Z AUTO 00000KT 02/M01 A3016 360 82 -1100 000/00 RMK AO1 T00171011
54779K12N 12N20160109032510101/09/16 03:25:31  5-MIN K12N 090825Z AUTO 00000KT 02/M01 A3016 360 82 -1100 000/00 RMK AO1 T00171011
54779K12N 12N20160109033010101/09/16 03:30:31  5-MIN K12N 090830Z AUTO 00000KT 02/M01 A3016 370 82 -1100 000/00 RMK AO1 T00171011
54779K12N 12N20160109033510101/09/16 03:35:31  5-MIN K12N 090835Z AUTO 00000KT 02/M01 A3015 370 82 -1100 000/00 RMK AO1 T00171011
54779K12N 12N20160109034010101/09/16 03:40:31  5-MIN K12N 090840Z AUTO 00000KT 02/M01 A3015 380 82 -1100 000/00 RMK AO1 T00171011
54779K12N 12N20160109034510101/09/16 03:45:31  5-MIN K12N 090845Z AUTO 01003KT 02/M01 A3014 380 82 -1100 020/03 RMK AO1 T00171011
54779K12N 12N20160109035011401/09/16 03:50:31  5-MIN K12N 090850Z AUTO 36004KT 02/M01 A3014 380 82 -1100 010/04 RMK AO1 SLP216 T00171011 56005
54779K12N 12N20160109035510101/09/16 03:55:31  5-MIN K12N 090855Z AUTO 36004KT 01/M02 A3014 380 82 -1100 010/04 RMK AO1 T00111017
54779K12N 12N20160109040010101/09/16 04:00:31  5-MIN K12N 090900Z AUTO 00000KT 02/M01 A3014 380 82 -1100 000/00 RMK AO1 T00171011
54779K12N 12N20160109040510101/09/16 04:05:31  5-MIN K12N 090905Z AUTO 00000KT 02/M01 A3014 380 82 -1100 000/00 RMK AO1 T00171011
54779K12N 12N20160109041010101/09/16 04:10:31  5-MIN K12N 090910Z AUTO 00000KT 02/M01 A3014 380 82 -1100 000/00 RMK AO1 T00171011
54779K12N 12N20160109041510101/09/16 04:15:31  5-MIN K12N 090915Z AUTO 00000KT 02/M01 A3014 380 82 -1100 000/00 RMK AO1 T00171011
54779K12N 12N20160109042010101/09/16 04:20:31  5-MIN K12N 090920Z AUTO 04004KT 02/M01 A3014 380 82 -1100 050/04 RMK AO1 T00171011
54779K12N 12N20160109042510101/09/16 04:25:31  5-MIN K12N 090925Z AUTO 05004KT 01/M01 A3014 380 85 -1100 060/04 RMK AO1 T00111011
54779K12N 12N20160109043010101/09/16 04:30:31  5-MIN K12N 090930Z AUTO 00000KT 02/M02 A3015 380 78 -1100 000/00 RMK AO1 T00171017
54779K12N 12N20160109043510101/09/16 04:35:31  5-MIN K12N 090935Z AUTO 00000KT 02/M01 A3015 380 82 -1100 000/00 RMK AO1 T00171011
54779K12N 12N20160110014509901/10/16 01:45:31  5-MIN K12N 100645Z AUTO VRB03KT 07/06 A2993 570 89 -100 VRB/03 RMK AO1 T00720056
54779K12N 12N20160110015009601/10/16 01:50:31  5-MIN K12N 100650Z AUTO 07/06 A2992 580 93 -200 M /M RMK AO1 SLP138 T00670056
54779K12N 12N20160110015509901/10/16 01:55:31  5-MIN K12N 100655Z AUTO VRB04KT 07/06 A2993 580 96 -200 VRB/04 RMK AO1 T00670061
54779K12N 12N20160110020009901/10/16 02:00:31  5-MIN K12N 100700Z AUTO 00000KT 07/06 A2993 580 96 -200 000/00 RMK AO1 T00670061
54779K12N 12N20160110020509901/10/16 02:05:31  5-MIN K12N 100705Z AUTO VRB05KT 07/06 A2992 580 96 -200 VRB/05 RMK AO1 T00670061
54779K12N 12N20160110021009901/10/16 02:10:31  5-MIN K12N 100710Z AUTO VRB03KT 07/06 A2993 580 93 -100 VRB/03 RMK AO1 T00720061
54779K12N 12N20160110021509901/10/16 02:15:31  5-MIN K12N 100715Z AUTO VRB04KT 07/06 A2993 580 93 -100 VRB/04 RMK AO1 T00720061
54779K12N 12N20160110022010501/10/16 02:20:31  5-MIN K12N 100720Z AUTO VRB05KT 07/06 A2992 590 93 -100 VRB/05 RMK AO1 P0001 T00720061
54779K12N 12N20160110022510501/10/16 02:25:31  5-MIN K12N 100725Z AUTO VRB04KT 07/06 A2991 600 93 -100 VRB/04 RMK AO1 P0001 T00720061
54779K12N 12N20160110023010501/10/16 02:30:31  5-MIN K12N 100730Z AUTO VRB05KT 07/06 A2990 600 93 -100 VRB/05 RMK AO1 P0001 T00720061
54779K12N 12N20160110023511201/10/16 02:35:31  5-MIN K12N 100735Z AUTO 03004KT 07/06 A2989 610 93 -100 040/04 RMK AO1 PRESFR P0001 T00720061
54779K12N 12N20160110024006901/10/16 02:40:31  5-MIN K12N 100740Z AUTO M M M M /M RMK AO1 P0001 $
54779K12N 12N20160110024510701/10/16 02:45:31  5-MIN K12N 100745Z AUTO VRB04KT 07/06 A2988 630 93 -100 VRB/04 RMK AO1 P0001 T00720061 $
54779K12N 12N20160110025011401/10/16 02:50:31  5-MIN K12N 100750Z AUTO VRB04KT 07/06 A2987 630 93 -100 VRB/04 RMK AO1 SLP121 P0001 T00720061 $
54779K12N 12N20160110025510101/10/16 02:55:31  5-MIN K12N 100755Z AUTO VRB05KT 07/06 A2987 630 93 -100 VRB/05 RMK AO1 T00720061 $
54779K12N 12N20160110030009801/10/16 03:00:31  5-MIN K12N 100800Z AUTO VRB06KT 07/06 A2986 640 93 0 VRB/06 RMK AO1 T00720061 $
54779K12N 12N20160110030509801/10/16 03:05:31  5-MIN K12N 100805Z AUTO VRB05KT 07/06 A2985 650 93 0 VRB/05 RMK AO1 T00720061 $
54779K12N 12N20160110031009801/10/16 03:10:31  5-MIN K12N 100810Z AUTO VRB05KT 07/06 A2985 650 93 0 VRB/05 RMK AO1 T00720061 $
54779K12N 12N20160110031509801/10/16 03:15:31  5-MIN K12N 100815Z AUTO 04005KT 07/06 A2986 650 93 0 050/05 RMK AO1 T00720061 $
54779K12N 12N20160110032009801/10/16 03:20:31  5-MIN K12N 100820Z AUTO VRB05KT 07/06 A2985 650 93 0 VRB/05 RMK AO1 T00720061 $
54779K12N 12N20160110032509801/10/16 03:25:31  5-MIN K12N 100825Z AUTO VRB05KT 07/06 A2986 650 93 0 VRB/05 RMK AO1 T00720061 $
54779K12N 12N20160110033009801/10/16 03:30:31  5-MIN K12N 100830Z AUTO 00000KT 07/06 A2986 640 93 0 000/00 RMK AO1 T00720061 $
54779K12N 12N20160110033510401/10/16 03:35:31  5-MIN K12N 100835Z AUTO VRB06KT 07/06 A2985 650 93 0 VRB/06 RMK AO1 P0001 T00720061 $
54779K12N 12N20160110034010401/10/16 03:40:31  5-MIN K12N 100840Z AUTO VRB05KT 07/06 A2985 650 93 0 VRB/05 RMK AO1 P0003 T00720061 $
54779K12N 12N20160110034510401/10/16 03:45:31  5-MIN K12N 100845Z AUTO 05005KT 07/06 A2984 660 93 0 060/05 RMK AO1 P0005 T00720061 $
54779K12N 12N20160110035011701/10/16 03:50:31  5-MIN K12N 100850Z AUTO VRB04KT 07/06 A2984 660 93 0 VRB/04 RMK AO1 SLP109 P0007 60009 T00720061 $
54779K12N 12N20160110035510401/10/16 03:55:31  5-MIN K12N 100855Z AUTO VRB04KT 07/06 A2983 670 93 0 VRB/04 RMK AO1 P0001 T00720061 $
54779K12N 12N20160110040011101/10/16 04:00:31  5-MIN K12N 100900Z AUTO VRB05KT 07/06 A2982 670 93 0 VRB/05 RMK AO1 PRESFR P0003 T00720061 $
54779K12N 12N20160110040511101/10/16 04:05:31  5-MIN K12N 100905Z AUTO VRB04KT 07/06 A2982 680 93 0 VRB/04 RMK AO1 PRESFR P0005 T00720061 $
54779K12N 12N20160110041011101/10/16 04:10:31  5-MIN K12N 100910Z AUTO VRB05KT 07/06 A2981 690 93 0 VRB/05 RMK AO1 PRESFR P0006 T00720061 $
54779K12N 12N20160110041511101/10/16 04:15:31  5-MIN K12N 100915Z AUTO VRB04KT 07/06 A2980 690 93 0 VRB/04 RMK AO1 PRESFR P0008 T00720061 $
54779K12N 12N20160110042010401/10/16 04:20:31  5-MIN K12N 100920Z AUTO VRB04KT 07/06 A2980 700 89 0 VRB/04 RMK AO1 P0010 T00720056 $
54779K12N 12N20160110042511101/10/16 04:25:31  5-MIN K12N 100925Z AUTO 04006KT 07/06 A2979 710 89 0 060/06 RMK AO1 PRESFR P0011 T00720056 $
54779K12N 12N20160110043010401/10/16 04:30:31  5-MIN K12N 100930Z AUTO VRB05KT 07/06 A2979 710 89 0 VRB/05 RMK AO1 P0013 T00720056 $
54779K12N 12N20160110043510401/10/16 04:35:31  5-MIN K12N 100935Z AUTO 00000KT 07/06 A2979 710 93 0 000/00 RMK AO1 P0014 T00720061 $
54779K12N 12N20160110044010401/10/16 04:40:31  5-MIN K12N 100940Z AUTO 03004KT 07/06 A2978 710 93 0 050/04 RMK AO1 P0016 T00720061 $
54779K12N 12N20160110044510401/10/16 04:45:31  5-MIN K12N 100945Z AUTO VRB05KT 07/06 A2977 720 93 0 VRB/05 RMK AO1 P0018 T00720061 $
54779K12N 12N20160110045013401/10/16 04:50:31  5-MIN K12N 100950Z AUTO 05007KT 010V090 07/06 A2977 730 93 0 070/07 020V100 RMK AO1 PRESFR SLP085 P0020 T00720061 $
54779K12N 12N20160110045510601/10/16 04:55:31  5-MIN K12N 100955Z AUTO VRB03KT 08/06 A2977 730 89 100 VRB/03 RMK AO1 P0001 T00780061 $
54779K12N 12N20160110050010601/10/16 05:00:31  5-MIN K12N 101000Z AUTO VRB03KT 08/06 A2976 730 89 100 VRB/03 RMK AO1 P0004 T00780061 $
54779K12N 12N20160110050509601/10/16 05:05:31  5-MIN K12N 101005Z AUTO 08/06 A2976 740 89 100 M /M RMK AO1 P0006 T00780061 $
54779K12N 12N20160110051010401/10/16 05:10:31  5-MIN K12N 101010Z AUTO VRB04KT 07/06 A2975 740 93 0 VRB/04 RMK AO1 P0008 T00720061 $
54779K12N 12N20160110051510601/10/16 05:15:31  5-MIN K12N 101015Z AUTO VRB06KT 08/06 A2975 750 89 100 VRB/06 RMK AO1 P0011 T00780061 $
54779K12N 12N20160110052011301/10/16 05:20:31  5-MIN K12N 101020Z AUTO VRB05KT 08/06 A2974 760 89 100 VRB/05 RMK AO1 PRESFR P0014 T00780061 $
54779K12N 12N20160110052512901/10/16 05:25:31  5-MIN K12N 101025Z AUTO 05008KT 340V100 08/07 A2971 780 93 100 070/08 350V110 RMK AO1 PRESFR P0018 T00780067 $
54779K12N 12N20160110053012201/10/16 05:30:31  5-MIN K12N 101030Z AUTO 05007KT 030V130 08/07 A2971 780 93 100 070/07 040V140 RMK AO1 P0022 T00780067 $
54779K12N 12N20160110053512201/10/16 05:35:31  5-MIN K12N 101035Z AUTO 04007KT 350V060 08/07 A2971 780 93 100 060/07 360V070 RMK AO1 P0024 T00780067 $
54779K12N 12N20160110054012901/10/16 05:40:31  5-MIN K12N 101040Z AUTO 05007KT 330V110 08/07 A2970 790 93 200 070/07 340V120 RMK AO1 PRESFR P0026 T00780067 $
54779K12N 12N20160110054510601/10/16 05:45:31  5-MIN K12N 101045Z AUTO VRB04KT 08/07 A2970 790 93 100 VRB/04 RMK AO1 P0028 T00780067 $
54779K12N 12N20160110055013501/10/16 05:50:31  5-MIN K12N 101050Z AUTO 07009G16KT 030V100 08/07 A2969 800 93 200 090/09G16 040V110 RMK AO1 SLP059 P0030 T00780067 $
54779K12N 12N20160110055511301/10/16 05:55:31  5-MIN K12N 101055Z AUTO 04007G16KT 08/07 A2967 810 93 200 050/07G16 RMK AO1 PRESFR T00780067 $
54779K12N 12N20160110060011901/10/16 06:00:31  5-MIN K12N 101100Z AUTO VRB06G16KT 08/07 A2967 820 93 200 VRB/06G16 RMK AO1 PRESFR P0002 T00780067 $
54779K12N 12N20160110060511201/10/16 06:05:31  5-MIN K12N 101105Z AUTO VRB05G16KT 08/07 A2966 820 89 300 VRB/05G16 RMK AO1 P0002 T00830067 $
54779K12N 12N20160110061010601/10/16 06:10:31  5-MIN K12N 101110Z AUTO VRB03KT 08/07 A2966 820 89 300 VRB/03 RMK AO1 P0002 T00830067 $
54779K12N 12N20160110061510601/10/16 06:15:31  5-MIN K12N 101115Z AUTO 00000KT 08/07 A2966 830 89 300 000/00 RMK AO1 P0003 T00830067 $
54779K12N 12N20160110062009601/10/16 06:20:31  5-MIN K12N 101120Z AUTO 08/07 A2965 830 89 300 M /M RMK AO1 P0004 T00830067 $
54779K12N 12N20160110062513501/10/16 06:25:31  5-MIN K12N 101125Z AUTO 10008G15KT 050V150 08/07 A2964 850 93 300 110/08G15 060V160 RMK AO1 PRESFR P0005 T00830072 $
54779K12N 12N20160110063011201/10/16 06:30:31  5-MIN K12N 101130Z AUTO VRB06G15KT 09/07 A2964 850 89 400 VRB/06G15 RMK AO1 P0007 T00890072 $
54779K12N 12N20160110063510601/10/16 06:35:31  5-MIN K12N 101135Z AUTO VRB06KT 09/07 A2963 850 89 400 VRB/06 RMK AO1 P0008 T00890072 $
54779K12N 12N20160110064010601/10/16 06:40:31  5-MIN K12N 101140Z AUTO VRB04KT 09/07 A2963 860 89 400 VRB/04 RMK AO1 P0010 T00890072 $
54779K12N 12N20160110064510601/10/16 06:45:31  5-MIN K12N 101145Z AUTO VRB03KT 09/07 A2962 860 89 400 VRB/03 RMK AO1 P0012 T00890072 $
54779K12N 12N20160110065013701/10/16 06:50:31  5-MIN K12N 101150Z AUTO VRB05KT 09/07 A2962 870 89 400 VRB/05 RMK AO1 SLP034 P0013 60078 70080 T00890072 10089 20067 $
54779K12N 12N20160110065509001/10/16 06:55:31  5-MIN K12N 101155Z AUTO 09/07 A2961 870 89 400 M /M RMK AO1 T00890072 $
54779K12N 12N20160110070010001/10/16 07:00:31  5-MIN K12N 101200Z AUTO VRB05KT 09/07 A2961 870 89 400 VRB/05 RMK AO1 T00890072 $
54779K12N 12N20160110070512801/10/16 07:05:31  5-MIN K12N 101205Z AUTO 13007G16KT 040V250 09/07 A2961 870 86 500 140/07G16 050V260 RMK AO1 P0002 T00940072 $
54779K12N 12N20160110071012801/10/16 07:10:31  5-MIN K12N 101210Z AUTO 13008G16KT 060V190 09/07 A2961 870 86 500 140/08G16 070V200 RMK AO1 P0002 T00940072 $
54779K12N 12N20160110071512801/10/16 07:15:31  5-MIN K12N 101215Z AUTO 10008G16KT 070V130 09/07 A2960 880 89 400 110/08G16 080V140 RMK AO1 P0004 T00890072 $
54779K12N 12N20160110072009601/10/16 07:20:31  5-MIN K12N 101220Z AUTO 09/07 A2960 880 89 400 M /M RMK AO1 P0006 T00890072 $
54779K12N 12N20160110072509601/10/16 07:25:31  5-MIN K12N 101225Z AUTO 09/07 A2959 890 89 400 M /M RMK AO1 P0008 T00890072 $
54779K12N 12N20160110073011301/10/16 07:30:31  5-MIN K12N 101230Z AUTO VRB05KT 09/07 A2958 900 89 400 VRB/05 RMK AO1 PRESFR P0009 T00890072 $
54779K12N 12N20160110073512201/10/16 07:35:31  5-MIN K12N 101235Z AUTO 13008KT 070V210 09/07 A2958 910 89 400 150/08 080V220 RMK AO1 P0009 T00890072 $
54779K12N 12N20160110074011301/10/16 07:40:31  5-MIN K12N 101240Z AUTO VRB06KT 09/07 A2957 910 89 400 VRB/06 RMK AO1 PRESFR P0011 T00890072 $
54779K12N 12N20160110074512801/10/16 07:45:31  5-MIN K12N 101245Z AUTO 14009G15KT 060V200 09/07 A2956 920 89 400 160/09G15 070V210 RMK AO1 P0014 T00890072 $
54779K12N 12N20160110075011901/10/16 07:50:31  5-MIN K12N 101250Z AUTO VRB05G15KT 09/07 A2957 910 89 400 VRB/05G15 RMK AO1 SLP017 P0015 T00890072 $
54779K12N 12N20160110075510001/10/16 07:55:31  5-MIN K12N 101255Z AUTO VRB03KT 09/07 A2957 910 89 400 VRB/03 RMK AO1 T00890072 $
54779K12N 12N20160110080010001/10/16 08:00:31  5-MIN K12N 101300Z AUTO VRB06KT 09/07 A2956 920 89 400 VRB/06 RMK AO1 T00890072 $
54779K12N 12N20160110080510601/10/16 08:05:31  5-MIN K12N 101305Z AUTO VRB04KT 09/07 A2956 920 89 400 VRB/04 RMK AO1 P0002 T00890072 $
54779K12N 12N20160110081010601/10/16 08:10:31  5-MIN K12N 101310Z AUTO VRB06KT 09/08 A2956 920 93 400 VRB/06 RMK AO1 P0003 T00890078 $
54779K12N 12N20160110081510601/10/16 08:15:31  5-MIN K12N 101315Z AUTO VRB06KT 09/08 A2956 920 93 500 VRB/06 RMK AO1 P0004 T00890078 $
54779K12N 12N20160110082009601/10/16 08:20:31  5-MIN K12N 101320Z AUTO 09/08 A2956 920 89 500 M /M RMK AO1 P0006 T00940078 $
54779K12N 12N20160110082510601/10/16 08:25:31  5-MIN K12N 101325Z AUTO VRB03KT 09/08 A2955 930 89 500 VRB/03 RMK AO1 P0006 T00940078 $
54779K12N 12N20160110083010601/10/16 08:30:31  5-MIN K12N 101330Z AUTO 15005KT 09/08 A2955 930 89 500 170/05 RMK AO1 P0006 T00940078 $
54779K12N 12N20160110083510601/10/16 08:35:31  5-MIN K12N 101335Z AUTO VRB04KT 09/08 A2955 930 89 500 VRB/04 RMK AO1 P0007 T00940078 $
54779K12N 12N20160110084010601/10/16 08:40:31  5-MIN K12N 101340Z AUTO VRB04KT 09/08 A2954 940 89 500 VRB/04 RMK AO1 P0007 T00940078 $
54779K12N 12N20160110084510601/10/16 08:45:31  5-MIN K12N 101345Z AUTO VRB05KT 09/08 A2953 940 89 500 VRB/05 RMK AO1 P0007 T00940078 $
54779K12N 12N20160110085011301/10/16 08:50:31  5-MIN K12N 101350Z AUTO VRB03KT 09/08 A2953 950 93 500 VRB/03 RMK AO1 SLP005 P0007 T00940083 $
54779K12N 12N20160110085509001/10/16 08:55:31  5-MIN K12N 101355Z AUTO 09/08 A2953 950 93 600 M /M RMK AO1 T00940083 $
54779K12N 12N20160110090010001/10/16 09:00:31  5-MIN K12N 101400Z AUTO VRB05KT 10/08 A2952 950 89 600 VRB/05 RMK AO1 T01000083 $
54779K12N 12N20160110090510001/10/16 09:05:31  5-MIN K12N 101405Z AUTO VRB03KT 10/09 A2952 960 93 600 VRB/03 RMK AO1 T01000089 $
54779K12N 12N20160110091009001/10/16 09:10:31  5-MIN K12N 101410Z AUTO 10/09 A2952 960 93 600 M /M RMK AO1 T01000089 $
54779K12N 12N20160110091510001/10/16 09:15:31  5-MIN K12N 101415Z AUTO VRB03KT 10/09 A2951 960 93 600 VRB/03 RMK AO1 T01000089 $
54779K12N 12N20160110092010001/10/16 09:20:31  5-MIN K12N 101420Z AUTO VRB05KT 10/09 A2951 970 93 600 VRB/05 RMK AO1 T01000089 $
54779K12N 12N20160110092510701/10/16 09:25:31  5-MIN K12N 101425Z AUTO VRB05KT 10/09 A2950 980 93 700 VRB/05 RMK AO1 PRESFR T01000089 $
54779K12N 12N20160110093010601/10/16 09:30:31  5-MIN K12N 101430Z AUTO VRB04KT 10/09 A2949 980 96 700 VRB/04 RMK AO1 P0001 T01000094 $
54779K12N 12N20160110093510601/10/16 09:35:31  5-MIN K12N 101435Z AUTO VRB05KT 11/09 A2950 980 93 700 VRB/05 RMK AO1 P0001 T01060094 $
54779K12N 12N20160110094010601/10/16 09:40:31  5-MIN K12N 101440Z AUTO VRB04KT 11/09 A2949 980 93 700 VRB/04 RMK AO1 P0001 T01060094 $
54779K12N 12N20160110094509601/10/16 09:45:31  5-MIN K12N 101445Z AUTO 11/09 A2949 990 93 700 M /M RMK AO1 P0001 T01060094 $
54779K12N 12N20160110095012501/10/16 09:50:31  5-MIN K12N 101450Z AUTO VRB04KT 11/09 A2949 990 93 700 VRB/04 RMK AO1 SLP989 P0001 60023 T01060094 56073 $
54779K12N 12N20160110095511601/10/16 09:55:31  5-MIN K12N 101455Z AUTO 16008KT 100V200 11/10 A2949 990 93 800 170/08 110V210 RMK AO1 T01110100 $
54779K12N 12N20160110100010001/10/16 10:00:31  5-MIN K12N 101500Z AUTO VRB04KT 11/10 A2948 990 93 800 VRB/04 RMK AO1 T01110100 $
54779K12N 12N20160110100510101/10/16 10:05:31  5-MIN K12N 101505Z AUTO VRB04KT 11/10 A2948 1000 93 800 VRB/04 RMK AO1 T01110100 $
54779K12N 12N20160110101010101/10/16 10:10:31  5-MIN K12N 101510Z AUTO VRB04KT 12/11 A2947 1000 93 900 VRB/04 RMK AO1 T01170106 $
54779K12N 12N20160110101510801/10/16 10:15:31  5-MIN K12N 101515Z AUTO VRB04KT 12/11 A2946 1010 93 900 VRB/04 RMK AO1 PRESFR T01170106 $
54779K12N 12N20160110102010101/10/16 10:20:31  5-MIN K12N 101520Z AUTO VRB05KT 12/11 A2946 1010 93 900 VRB/05 RMK AO1 T01170106 $
54779K12N 12N20160110102510201/10/16 10:25:31  5-MIN K12N 101525Z AUTO VRB05KT 12/11 A2946 1010 93 1000 VRB/05 RMK AO1 T01220111 $
54779K12N 12N20160110103010201/10/16 10:30:31  5-MIN K12N 101530Z AUTO VRB06KT 12/11 A2946 1010 93 1000 VRB/06 RMK AO1 T01220111 $
54779K12N 12N20160110103510201/10/16 10:35:31  5-MIN K12N 101535Z AUTO VRB06KT 12/11 A2946 1020 93 1000 VRB/06 RMK AO1 T01220111 $
54779K12N 12N20160110104011801/10/16 10:40:31  5-MIN K12N 101540Z AUTO 19007KT 150V220 12/11 A2945 1020 93 1000 200/07 160V230 RMK AO1 T01220111 $
54779K12N 12N20160110104510201/10/16 10:45:31  5-MIN K12N 101545Z AUTO VRB06KT 12/11 A2945 1030 93 1000 VRB/06 RMK AO1 T01220111 $
54779K12N 12N20160110105010901/10/16 10:50:31  5-MIN K12N 101550Z AUTO 19006KT 12/11 A2945 1030 93 1000 200/06 RMK AO1 SLP974 T01220111 $
54779K12N 12N20160110105510201/10/16 10:55:31  5-MIN K12N 101555Z AUTO 17007KT 12/12 A2944 1040 96 1000 180/07 RMK AO1 T01220117 $
54779K12N 12N20160110110013101/10/16 11:00:31  5-MIN K12N 101600Z AUTO 17007KT 150V210 12/12 A2943 1040 96 1000 190/07 160V220 RMK AO1 PRESFR P0001 T01220117 $
54779K12N 12N20160110110510801/10/16 11:05:31  5-MIN K12N 101605Z AUTO 20006KT 12/12 A2943 1050 96 1000 210/06 RMK AO1 P0002 T01220117 $
54779K12N 12N20160110111011501/10/16 11:10:31  5-MIN K12N 101610Z AUTO VRB05KT 13/12 A2941 1060 93 1100 VRB/05 RMK AO1 PRESFR P0002 T01280117 $
54779K12N 12N20160110111511501/10/16 11:15:31  5-MIN K12N 101615Z AUTO VRB05KT 13/12 A2940 1070 93 1100 VRB/05 RMK AO1 PRESFR P0002 T01280117 $
54779K12N 12N20160110112010801/10/16 11:20:31  5-MIN K12N 101620Z AUTO VRB06KT 13/12 A2940 1070 96 1100 VRB/06 RMK AO1 P0002 T01280122 $
54779K12N 12N20160110112510801/10/16 11:25:31  5-MIN K12N 101625Z AUTO VRB05KT 13/12 A2940 1070 93 1200 VRB/05 RMK AO1 P0002 T01330122 $
54779K12N 12N20160110113010801/10/16 11:30:31  5-MIN K12N 101630Z AUTO VRB05KT 13/13 A2939 1080 96 1200 VRB/05 RMK AO1 P0002 T01330128 $
54779K12N 12N20160110113510801/10/16 11:35:31  5-MIN K12N 101635Z AUTO VRB05KT 13/13 A2939 1080 96 1200 VRB/05 RMK AO1 P0002 T01330128 $
54779K12N 12N20160110114011501/10/16 11:40:31  5-MIN K12N 101640Z AUTO VRB04KT 14/13 A2938 1090 93 1300 VRB/04 RMK AO1 PRESFR P0002 T01390128 $
54779K12N 12N20160110114510801/10/16 11:45:31  5-MIN K12N 101645Z AUTO VRB05KT 14/13 A2938 1090 93 1300 VRB/05 RMK AO1 P0002 T01390128 $
54779K12N 12N20160110115012101/10/16 11:50:31  5-MIN K12N 101650Z AUTO 18006G15KT 14/13 A2938 1090 93 1300 200/06G15 RMK AO1 SLP950 P0002 T01390128 $
54779K12N 12N20160110115512401/10/16 11:55:31  5-MIN K12N 101655Z AUTO 18009G15KT 140V210 14/13 A2937 1090 90 1300 190/09G15 150V220 RMK AO1 T01440128 $
54779K12N 12N20160110120010201/10/16 12:00:31  5-MIN K12N 101700Z AUTO 18008KT 14/13 A2937 1100 93 1300 190/08 RMK AO1 T01440133 $
54779K12N 12N20160110120510801/10/16 12:05:31  5-MIN K12N 101705Z AUTO 18005G15KT 14/13 A2937 1100 93 1300 190/05G15 RMK AO1 T01440133 $
54779K12N 12N20160110121010201/10/16 12:10:31  5-MIN K12N 101710Z AUTO 19008KT 14/13 A2937 1100 93 1300 200/08 RMK AO1 T01440133 $
54779K12N 12N20160110121510801/10/16 12:15:31  5-MIN K12N 101715Z AUTO 19009G16KT 14/13 A2936 1110 90 1300 200/09G16 RMK AO1 T01440128 $
54779K12N 12N20160110122010801/10/16 12:20:31  5-MIN K12N 101720Z AUTO VRB06G16KT 14/13 A2935 1110 93 1300 VRB/06G16 RMK AO1 T01440133 $
54779K12N 12N20160110122510901/10/16 12:25:31  5-MIN K12N 101725Z AUTO 18006KT 15/13 A2934 1130 90 1400 200/06 RMK AO1 PRESFR T01500133 $
54779K12N 12N20160110123011801/10/16 12:30:31  5-MIN K12N 101730Z AUTO 20008KT 150V220 16/13 A2933 1130 86 1500 210/08 160V230 RMK AO1 T01560133 $
54779K12N 12N20160110123511501/10/16 12:35:31  5-MIN K12N 101735Z AUTO 19009G18KT 16/13 A2933 1140 86 1500 210/09G18 RMK AO1 PRESFR T01560133 $
54779K12N 12N20160110124013101/10/16 12:40:31  5-MIN K12N 101740Z AUTO 19009G16KT 160V230 16/13 A2932 1140 86 1500 200/09G16 170V240 RMK AO1 PRESFR T01560133 $
54779K12N 12N20160110124512401/10/16 12:45:31  5-MIN K12N 101745Z AUTO 20007G16KT 150V230 16/13 A2932 1140 86 1500 210/07G16 160V240 RMK AO1 T01560133 $
54779K12N 12N20160110125015501/10/16 12:50:31  5-MIN K12N 101750Z AUTO 19011G18KT 160V230 16/13 A2932 1140 83 1600 210/11G18 170V240 RMK AO1 SLP929 60025 T01610133 10161 20089 57043 $
54779K12N 12N20160110125512401/10/16 12:55:31  5-MIN K12N 101755Z AUTO 19010G18KT 150V210 16/13 A2931 1150 83 1600 200/10G18 160V220 RMK AO1 T01610133 $
54779K12N 12N20160110130012401/10/16 13:00:31  5-MIN K12N 101800Z AUTO 18008G17KT 140V210 16/13 A2931 1150 83 1500 200/08G17 150V220 RMK AO1 T01560128 $
54779K12N 12N20160110130510801/10/16 13:05:31  5-MIN K12N 101805Z AUTO 19011G20KT 16/13 A2931 1150 83 1500 200/11G20 RMK AO1 T01560128 $
54779K12N 12N20160110131012401/10/16 13:10:31  5-MIN K12N 101810Z AUTO 19009G20KT 160V220 16/13 A2931 1160 83 1500 200/09G20 170V230 RMK AO1 T01560128 $
54779K12N 12N20160110131512401/10/16 13:15:31  5-MIN K12N 101815Z AUTO 19009G21KT 140V220 16/12 A2931 1160 80 1500 200/09G21 150V230 RMK AO1 T01560122 $
54779K12N 12N20160110132010801/10/16 13:20:31  5-MIN K12N 101820Z AUTO 19007G21KT 16/12 A2930 1160 80 1500 210/07G21 RMK AO1 T01560122 $
54779K12N 12N20160110132510201/10/16 13:25:31  5-MIN K12N 101825Z AUTO 19008KT 16/12 A2930 1160 80 1500 210/08 RMK AO1 T01560122 $
54779K12N 12N20160110133010801/10/16 13:30:31  5-MIN K12N 101830Z AUTO 19011G20KT 16/13 A2930 1170 83 1500 200/11G20 RMK AO1 T01560128 $
54779K12N 12N20160110133512401/10/16 13:35:31  5-MIN K12N 101835Z AUTO 20010G20KT 160V230 16/13 A2929 1170 80 1600 210/10G20 170V240 RMK AO1 T01610128 $
54779K12N 12N20160110134010801/10/16 13:40:31  5-MIN K12N 101840Z AUTO 21008G16KT 17/13 A2928 1180 77 1700 220/08G16 RMK AO1 T01670128 $
54779K12N 12N20160110134510801/10/16 13:45:31  5-MIN K12N 101845Z AUTO 20010G16KT 17/12 A2928 1180 75 1700 220/10G16 RMK AO1 T01670122 $
54779K12N 12N20160110135011501/10/16 13:50:31  5-MIN K12N 101850Z AUTO 20007G16KT 16/12 A2927 1190 77 1600 210/07G16 RMK AO1 SLP913 T01610122 $
54779K12N 12N20160110135510201/10/16 13:55:31  5-MIN K12N 101855Z AUTO 19007KT 16/12 A2927 1190 77 1600 210/07 RMK AO1 T01610122 $
54779K12N 12N20160110140011801/10/16 14:00:31  5-MIN K12N 101900Z AUTO 19008KT 160V230 16/12 A2927 1200 77 1600 200/08 170V240 RMK AO1 T01610122 $
54779K12N 12N20160110140510801/10/16 14:05:31  5-MIN K12N 101905Z AUTO 20006G14KT 16/12 A2926 1200 77 1700 210/06G14 RMK AO1 T01610122 $
54779K12N 12N20160110141010801/10/16 14:10:31  5-MIN K12N 101910Z AUTO 20006G14KT 16/12 A2926 1200 77 1600 220/06G14 RMK AO1 T01560117 $
54779K12N 12N20160110141510801/10/16 14:15:31  5-MIN K12N 101915Z AUTO 22013G23KT 15/12 A2927 1190 80 1500 240/13G23 RMK AO1 T01500117 $
54779K12N 12N20160110142012401/10/16 14:20:31  5-MIN K12N 101920Z AUTO 21010G23KT 180V240 14/09 A2927 1190 72 1400 220/10G23 190V250 RMK AO1 T01440094 $
54779K12N 12N20160110142514801/10/16 14:25:31  5-MIN K12N 101925Z AUTO 19010G26KT 150V230 13/09 A2928 1190 80 1200 210/10G26 160V240 RMK AO1 PK WND 23026/1923 P0003 T01280094 $
54779K12N 12N20160110143014801/10/16 14:30:31  5-MIN K12N 101930Z AUTO 19007G26KT 160V230 12/10 A2927 1190 86 1200 210/07G26 170V240 RMK AO1 PK WND 23026/1923 P0024 T01220100 $
54779K12N 12N20160110143513201/10/16 14:35:31  5-MIN K12N 101935Z AUTO 21008G22KT 12/11 A2928 1190 89 1200 220/08G22 RMK AO1 PK WND 23026/1923 P0026 T01220106 $
54779K12N 12N20160110144013201/10/16 14:40:31  5-MIN K12N 101940Z AUTO VRB05G19KT 12/11 A2928 1190 93 1200 VRB/05G19 RMK AO1 PK WND 23026/1923 P0029 T01220111 $
54779K12N 12N20160110144513201/10/16 14:45:31  5-MIN K12N 101945Z AUTO VRB05G15KT 12/11 A2928 1180 93 1200 VRB/05G15 RMK AO1 PK WND 23026/1923 P0031 T01220111 $
54779K12N 12N20160110145013301/10/16 14:50:31  5-MIN K12N 101950Z AUTO 21006KT 12/11 A2929 1180 93 1200 230/06 RMK AO1 PK WND 23026/1923 SLP918 P0031 T01220111 $
54779K12N 12N20160110145510201/10/16 14:55:31  5-MIN K12N 101955Z AUTO VRB05KT 12/12 A2928 1180 96 1200 VRB/05 RMK AO1 T01220117 $
54779K12N 12N20160110150010201/10/16 15:00:31  5-MIN K12N 102000Z AUTO 22005KT 13/11 A2929 1170 89 1200 230/05 RMK AO1 T01280111 $
54779K12N 12N20160110150510201/10/16 15:05:31  5-MIN K12N 102005Z AUTO 23007KT 13/11 A2929 1170 86 1200 240/07 RMK AO1 T01280106 $
54779K12N 12N20160110151010201/10/16 15:10:31  5-MIN K12N 102010Z AUTO VRB05KT 13/10 A2929 1170 83 1200 VRB/05 RMK AO1 T01280100 $
54779K12N 12N20160110151510201/10/16 15:15:31  5-MIN K12N 102015Z AUTO VRB06KT 13/09 A2929 1170 80 1200 VRB/06 RMK AO1 T01280094 $
54779K12N 12N20160110152011801/10/16 15:20:31  5-MIN K12N 102020Z AUTO 23007KT 180V250 12/07 A2929 1170 71 1200 240/07 190V260 RMK AO1 T01220072 $
54779K12N 12N20160110152510201/10/16 15:25:31  5-MIN K12N 102025Z AUTO VRB05KT 12/07 A2930 1170 71 1200 VRB/05 RMK AO1 T01220072 $
54779K12N 12N20160110153010201/10/16 15:30:31  5-MIN K12N 102030Z AUTO 21005KT 12/07 A2930 1170 71 1200 220/05 RMK AO1 T01220072 $
54779K12N 12N20160110153511801/10/16 15:35:31  5-MIN K12N 102035Z AUTO 21007KT 190V260 12/07 A2930 1170 71 1100 230/07 200V270 RMK AO1 T01220072 $
54779K12N 12N20160110154010801/10/16 15:40:31  5-MIN K12N 102040Z AUTO VRB05G16KT 13/07 A2930 1170 66 1200 VRB/05G16 RMK AO1 T01280067 $
54779K12N 12N20160110154510801/10/16 15:45:31  5-MIN K12N 102045Z AUTO 21007G16KT 13/06 A2930 1160 63 1200 220/07G16 RMK AO1 T01280061 $
54779K12N 12N20160110155012101/10/16 15:50:31  5-MIN K12N 102050Z AUTO 22006KT 12/06 A2930 1160 63 1100 230/06 RMK AO1 SLP924 60032 T01220056 58057 $
54779K12N 12N20160110155510201/10/16 15:55:31  5-MIN K12N 102055Z AUTO VRB05KT 13/06 A2930 1160 61 1200 VRB/05 RMK AO1 T01280056 $
54779K12N 12N20160110160010201/10/16 16:00:31  5-MIN K12N 102100Z AUTO 22006KT 12/06 A2930 1160 63 1100 240/06 RMK AO1 T01220056 $
54779K12N 12N20160110160510201/10/16 16:05:31  5-MIN K12N 102105Z AUTO VRB03KT 12/06 A2930 1160 63 1100 VRB/03 RMK AO1 T01220056 $
54779K12N 12N20160110161010201/10/16 16:10:31  5-MIN K12N 102110Z AUTO 21005KT 12/06 A2931 1160 66 1100 220/05 RMK AO1 T01170056 $
54779K12N 12N20160110161510201/10/16 16:15:31  5-MIN K12N 102115Z AUTO 20004KT 12/06 A2931 1160 68 1100 220/04 RMK AO1 T01170061 $
54779K12N 12N20160110162010201/10/16 16:20:31  5-MIN K12N 102120Z AUTO 18004KT 11/06 A2931 1150 71 1000 190/04 RMK AO1 T01110061 $
54779K12N 12N20160110162510201/10/16 16:25:31  5-MIN K12N 102125Z AUTO VRB06KT 11/07 A2932 1150 74 1000 VRB/06 RMK AO1 T01110067 $
54779K12N 12N20160110163010801/10/16 16:30:31  5-MIN K12N 102130Z AUTO 21011G19KT 11/07 A2932 1150 74 1000 220/11G19 RMK AO1 T01110067 $
54779K12N 12N20160110163510801/10/16 16:35:31  5-MIN K12N 102135Z AUTO 22011G19KT 12/05 A2932 1150 63 1100 230/11G19 RMK AO1 T01170050 $
54779K12N 12N20160110164010801/10/16 16:40:31  5-MIN K12N 102140Z AUTO 21011G20KT 12/05 A2933 1140 63 1000 220/11G20 RMK AO1 T01170050 $
54779K12N 12N20160110164512401/10/16 16:45:31  5-MIN K12N 102145Z AUTO 22008G20KT 200V270 12/05 A2933 1140 63 1000 240/08G20 210V280 RMK AO1 T01170050 $
54779K12N 12N20160110165011501/10/16 16:50:31  5-MIN K12N 102150Z AUTO 21010G16KT 11/05 A2933 1130 66 1000 230/10G16 RMK AO1 SLP935 T01110050 $
54779K12N 12N20160110165510801/10/16 16:55:31  5-MIN K12N 102155Z AUTO 21007G16KT 11/05 A2933 1130 66 1000 230/07G16 RMK AO1 T01110050 $
54779K12N 12N20160110170010101/10/16 17:00:31  5-MIN K12N 102200Z AUTO 22007KT 11/05 A2933 1130 68 900 230/07 RMK AO1 T01060050 $
54779K12N 12N20160110170510201/10/16 17:05:31  5-MIN K12N 102205Z AUTO VRB04KT 11/05 A2933 1130 66 1000 VRB/04 RMK AO1 T01110050 $
54779K12N 12N20160110171010101/10/16 17:10:31  5-MIN K12N 102210Z AUTO VRB05KT 11/05 A2934 1130 68 900 VRB/05 RMK AO1 T01060050 $
54779K12N 12N20160110171510101/10/16 17:15:31  5-MIN K12N 102215Z AUTO VRB05KT 11/05 A2934 1130 68 900 VRB/05 RMK AO1 T01060050 $
54779K12N 12N20160110172010101/10/16 17:20:31  5-MIN K12N 102220Z AUTO 19004KT 10/05 A2934 1130 71 800 200/04 RMK AO1 T01000050 $
54779K12N 12N20160110172510101/10/16 17:25:31  5-MIN K12N 102225Z AUTO VRB04KT 10/05 A2934 1120 71 800 VRB/04 RMK AO1 T01000050 $
54779K12N 12N20160110173010101/10/16 17:30:31  5-MIN K12N 102230Z AUTO VRB04KT 10/06 A2934 1120 74 800 VRB/04 RMK AO1 T01000056 $
54779K12N 12N20160110173510101/10/16 17:35:31  5-MIN K12N 102235Z AUTO 19003KT 10/06 A2934 1120 74 800 200/03 RMK AO1 T01000056 $
54779K12N 12N20160110174010101/10/16 17:40:31  5-MIN K12N 102240Z AUTO 19003KT 10/06 A2934 1120 74 800 200/03 RMK AO1 T01000056 $
54779K12N 12N20160110174510101/10/16 17:45:31  5-MIN K12N 102245Z AUTO 19004KT 09/06 A2935 1120 76 800 200/04 RMK AO1 T00940056 $
54779K12N 12N20160110175010801/10/16 17:50:31  5-MIN K12N 102250Z AUTO 21008KT 09/06 A2935 1120 76 800 220/08 RMK AO1 SLP941 T00940056 $
54779K12N 12N20160110175512301/10/16 17:55:31  5-MIN K12N 102255Z AUTO 21012G23KT 170V240 10/05 A2935 1120 71 800 220/12G23 180V250 RMK AO1 T01000050 $
54779K12N 12N20160110180010701/10/16 18:00:31  5-MIN K12N 102300Z AUTO 22011G23KT 10/05 A2935 1120 71 800 230/11G23 RMK AO1 T01000050 $
54779K12N 12N20160110180510701/10/16 18:05:31  5-MIN K12N 102305Z AUTO 21010G18KT 10/04 A2935 1120 68 800 220/10G18 RMK AO1 T01000044 $
54779K12N 12N20160110181010701/10/16 18:10:31  5-MIN K12N 102310Z AUTO 21010G18KT 10/04 A2935 1110 68 800 220/10G18 RMK AO1 T01000044 $
54779K12N 12N20160110181510701/10/16 18:15:31  5-MIN K12N 102315Z AUTO 21010G18KT 10/04 A2936 1110 68 800 220/10G18 RMK AO1 T01000044 $
54779K12N 12N20160110182010701/10/16 18:20:31  5-MIN K12N 102320Z AUTO 22010G16KT 10/04 A2936 1110 68 800 230/10G16 RMK AO1 T01000044 $
54779K12N 12N20160110182510701/10/16 18:25:31  5-MIN K12N 102325Z AUTO 21007G16KT 10/05 A2936 1110 71 800 220/07G16 RMK AO1 T01000050 $
54779K12N 12N20160110183010701/10/16 18:30:31  5-MIN K12N 102330Z AUTO 22010G16KT 09/05 A2937 1100 74 700 230/10G16 RMK AO1 T00940050 $
54779K12N 12N20160110183510701/10/16 18:35:31  5-MIN K12N 102335Z AUTO 22008G16KT 09/05 A2937 1100 74 700 230/08G16 RMK AO1 T00940050 $
54779K12N 12N20160110184010101/10/16 18:40:31  5-MIN K12N 102340Z AUTO 22009KT 09/05 A2937 1090 74 700 230/09 RMK AO1 T00940050 $
54779K12N 12N20160110184510701/10/16 18:45:31  5-MIN K12N 102345Z AUTO 23007G14KT 09/05 A2938 1090 74 700 240/07G14 RMK AO1 T00940050 $
54779K12N 12N20160110185016101/10/16 18:50:31  5-MIN K12N 102350Z AUTO 22010G17KT 180V260 09/05 A2939 1080 74 700 240/10G17 190V270 RMK AO1 PRESRR SLP955 60032 T00940050 10167 20094 55004 $
54779K12N 12N20160110185513001/10/16 18:55:31  5-MIN K12N 102355Z AUTO 24010G20KT 200V270 09/04 A2940 1070 68 700 250/10G20 210V280 RMK AO1 PRESRR T00940039 $
54779K12N 12N20160110190012301/10/16 19:00:31  5-MIN K12N 110000Z AUTO 22011G20KT 190V260 09/02 A2940 1070 60 700 240/11G20 200V270 RMK AO1 T00940022 $
54779K12N 12N20160110190513001/10/16 19:05:31  5-MIN K12N 110005Z AUTO 24008G25KT 200V290 09/01 A2941 1060 58 600 250/08G25 210V300 RMK AO1 PRESRR T00890011 $
54779K12N 12N20160110191013001/10/16 19:10:31  5-MIN K12N 110010Z AUTO 25009G25KT 200V310 09/01 A2941 1060 58 600 270/09G25 210V320 RMK AO1 PRESRR T00890011 $
54779K12N 12N20160110191513001/10/16 19:15:31  5-MIN K12N 110015Z AUTO 22008G17KT 150V260 08/01 A2942 1050 60 500 240/08G17 160V270 RMK AO1 PRESRR T00830011 $
54779K12N 12N20160110192013001/10/16 19:20:31  5-MIN K12N 110020Z AUTO 25009G18KT 210V300 08/01 A2943 1040 62 500 260/09G18 220V310 RMK AO1 PRESRR T00780011 $
54779K12N 12N20160110192513001/10/16 19:25:31  5-MIN K12N 110025Z AUTO 30009G23KT 220V040 08/00 A2943 1040 58 500 310/09G23 230V050 RMK AO1 PRESRR T00780000 $
54779K12N 12N20160110193013101/10/16 19:30:31  5-MIN K12N 110030Z AUTO 29007G23KT 210V020 07/M01 A2944 1030 55 400 300/07G23 220V030 RMK AO1 PRESRR T00721011 $
54779K12N 12N20160110193509901/10/16 19:35:31  5-MIN K12N 110035Z AUTO 07/M01 A2945 1030 55 400 M /M RMK AO1 PRESRR T00721011 $
54779K12N 12N20160110194012401/10/16 19:40:31  5-MIN K12N 110040Z AUTO 28007G20KT 230V330 07/M02 A2945 1020 55 300 300/07G20 240V340 RMK AO1 T00671017 $
54779K12N 12N20160110194513101/10/16 19:45:31  5-MIN K12N 110045Z AUTO 24010G20KT 180V310 07/M02 A2946 1020 55 300 260/10G20 190V320 RMK AO1 PRESRR T00671017 $
54779K12N 12N20160110195013101/10/16 19:50:31  5-MIN K12N 110050Z AUTO 24011G19KT 190V300 06/M03 A2946 1010 53 200 250/11G19 200V310 RMK AO1 SLP980 T00611028 $
54779K12N 12N20160110195510801/10/16 19:55:31  5-MIN K12N 110055Z AUTO 22012G22KT 06/M03 A2947 1010 55 200 230/12G22 RMK AO1 T00561028 $
54779K12N 12N20160110200010801/10/16 20:00:31  5-MIN K12N 110100Z AUTO 22008G22KT 06/M03 A2947 1000 55 100 240/08G22 RMK AO1 T00561028 $
54779K12N 12N20160110200510801/10/16 20:05:31  5-MIN K12N 110105Z AUTO VRB06G19KT 06/M03 A2947 1000 55 100 VRB/06G19 RMK AO1 T00561028 $
54779K12N 12N20160110201012401/10/16 20:10:31  5-MIN K12N 110110Z AUTO 23010G17KT 190V270 05/M03 A2947 1000 57 100 240/10G17 200V280 RMK AO1 T00501028 $
54779K12N 12N20160110201510801/10/16 20:15:31  5-MIN K12N 110115Z AUTO 22007G17KT 05/M03 A2948 1000 57 100 230/07G17 RMK AO1 T00501028 $
54779K12N 12N20160110202012301/10/16 20:20:31  5-MIN K12N 110120Z AUTO 24008G22KT 190V300 05/M03 A2948 990 57 100 250/08G22 200V310 RMK AO1 T00501028 $
54779K12N 12N20160110202509901/10/16 20:25:31  5-MIN K12N 110125Z AUTO 00000KT 04/M03 A2949 990 59 0 000/00 RMK AO1 T00441028 $
54779K12N 12N20160110203009901/10/16 20:30:31  5-MIN K12N 110130Z AUTO 30009KT 04/M03 A2949 980 57 0 310/09 RMK AO1 T00441033 $
54779K12N 12N20160110203509601/10/16 20:35:31  5-MIN K12N 110135Z AUTO 04/M03 A2950 980 57 0 M /M RMK AO1 PRESRR T00441033 $
54779K12N 12N20160110204012501/10/16 20:40:31  5-MIN K12N 110140Z AUTO 24007KT 210V290 04/M03 A2951 970 59 -100 260/07 220V300 RMK AO1 PRESRR T00391033 $
54779K12N 12N20160110204511801/10/16 20:45:31  5-MIN K12N 110145Z AUTO 26007KT 170V300 04/M03 A2951 970 59 -100 270/07 180V310 RMK AO1 T00391033 $
54779K12N 12N20160110205010901/10/16 20:50:31  5-MIN K12N 110150Z AUTO VRB04KT 04/M03 A2951 970 59 -100 VRB/04 RMK AO1 SLP998 T00391033 $
54779K12N 12N20160110205512401/10/16 20:55:31  5-MIN K12N 110155Z AUTO 26007G16KT 200V330 04/M04 A2952 960 57 -100 280/07G16 210V340 RMK AO1 T00391039 $
54779K12N 12N20160110210009201/10/16 21:00:31  5-MIN K12N 110200Z AUTO 03/M04 A2952 950 59 -100 M /M RMK AO1 T00331039 $
54779K12N 12N20160110210512401/10/16 21:05:31  5-MIN K12N 110205Z AUTO 27009G19KT 230V300 03/M04 A2952 950 59 -100 280/09G19 240V310 RMK AO1 T00331039 $
54779K12N 12N20160110211012401/10/16 21:10:31  5-MIN K12N 110210Z AUTO 23010G19KT 190V270 03/M04 A2952 960 59 -100 250/10G19 200V280 RMK AO1 T00331039 $
54779K12N 12N20160110211512401/10/16 21:15:31  5-MIN K12N 110215Z AUTO 24008G17KT 210V290 03/M04 A2952 960 59 -100 250/08G17 220V300 RMK AO1 T00331039 $
54779K12N 12N20160110212012401/10/16 21:20:31  5-MIN K12N 110220Z AUTO 24009G17KT 200V270 03/M04 A2952 960 59 -100 260/09G17 210V280 RMK AO1 T00331039 $
54779K12N 12N20160110212512401/10/16 21:25:31  5-MIN K12N 110225Z AUTO 25008G16KT 170V300 03/M04 A2953 950 59 -100 260/08G16 180V310 RMK AO1 T00331039 $
54779K12N 12N20160110213012401/10/16 21:30:31  5-MIN K12N 110230Z AUTO 23008G18KT 170V290 03/M04 A2953 950 59 -100 240/08G18 180V300 RMK AO1 T00331039 $
54779K12N 12N20160110213510801/10/16 21:35:31  5-MIN K12N 110235Z AUTO VRB05G18KT 03/M03 A2953 940 61 -200 VRB/05G18 RMK AO1 T00331033 $
54779K12N 12N20160110214011801/10/16 21:40:31  5-MIN K12N 110240Z AUTO 24008KT 190V280 03/M04 A2954 940 59 -200 250/08 200V290 RMK AO1 T00331039 $
54779K12N 12N20160110214510801/10/16 21:45:31  5-MIN K12N 110245Z AUTO VRB04G20KT 03/M04 A2954 940 59 -200 VRB/04G20 RMK AO1 T00331039 $
54779K12N 12N20160110215012101/10/16 21:50:31  5-MIN K12N 110250Z AUTO VRB06G20KT 03/M04 A2955 930 59 -200 VRB/06G20 RMK AO1 SLP009 T00331039 53031 $
54779K12N 12N20160110215511801/10/16 21:55:31  5-MIN K12N 110255Z AUTO 25008KT 180V310 03/M04 A2955 930 59 -200 260/08 190V320 RMK AO1 T00331039 $
54779K12N 12N20160110220012401/10/16 22:00:31  5-MIN K12N 110300Z AUTO 26011G18KT 210V310 03/M04 A2955 930 59 -200 280/11G18 220V320 RMK AO1 T00331039 $
54779K12N 12N20160110220510801/10/16 22:05:31  5-MIN K12N 110305Z AUTO VRB05G18KT 03/M04 A2956 920 59 -200 VRB/05G18 RMK AO1 T00331039 $
54779K12N 12N20160110221011801/10/16 22:10:31  5-MIN K12N 110310Z AUTO 24007KT 170V310 03/M04 A2956 920 59 -200 250/07 180V320 RMK AO1 T00331039 $
54779K12N 12N20160110221510201/10/16 22:15:31  5-MIN K12N 110315Z AUTO VRB05KT 03/M04 A2957 920 59 -200 VRB/05 RMK AO1 T00331039 $
54779K12N 12N20160110222009201/10/16 22:20:31  5-MIN K12N 110320Z AUTO 03/M04 A2957 910 59 -200 M /M RMK AO1 T00331039 $
54779K12N 12N20160110222510801/10/16 22:25:31  5-MIN K12N 110325Z AUTO VRB04G22KT 03/M04 A2957 910 59 -200 VRB/04G22 RMK AO1 T00331039 $
54779K12N 12N20160110223010801/10/16 22:30:31  5-MIN K12N 110330Z AUTO VRB06G22KT 03/M04 A2957 910 59 -200 VRB/06G22 RMK AO1 T00331039 $
54779K12N 12N20160110223510201/10/16 22:35:31  5-MIN K12N 110335Z AUTO VRB04KT 03/M04 A2958 910 59 -200 VRB/04 RMK AO1 T00331039 $
54779K12N 12N20160110224010201/10/16 22:40:31  5-MIN K12N 110340Z AUTO VRB05KT 03/M04 A2958 900 59 -200 VRB/05 RMK AO1 T00331039 $
54779K12N 12N20160110224510201/10/16 22:45:31  5-MIN K12N 110345Z AUTO VRB05KT 03/M04 A2959 900 57 -200 VRB/05 RMK AO1 T00331044 $
54779K12N 12N20160110225011501/10/16 22:50:31  5-MIN K12N 110350Z AUTO VRB06G15KT 03/M04 A2959 890 59 -300 VRB/06G15 RMK AO1 SLP023 T00281044 $
54779K12N 12N20160110225510801/10/16 22:55:31  5-MIN K12N 110355Z AUTO VRB06G15KT 03/M04 A2959 890 61 -300 VRB/06G15 RMK AO1 T00281039 $
54779K12N 12N20160110230010201/10/16 23:00:31  5-MIN K12N 110400Z AUTO 21007KT 03/M04 A2959 890 59 -300 230/07 RMK AO1 T00281044 $
54779K12N 12N20160110230510201/10/16 23:05:31  5-MIN K12N 110405Z AUTO VRB05KT 03/M04 A2959 890 59 -300 VRB/05 RMK AO1 T00281044 $
54779K12N 12N20160110231009201/10/16 23:10:31  5-MIN K12N 110410Z AUTO 03/M05 A2959 890 56 -300 M /M RMK AO1 T00281050 $
54779K12N 12N20160110231510201/10/16 23:15:31  5-MIN K12N 110415Z AUTO VRB05KT 03/M05 A2960 890 56 -300 VRB/05 RMK AO1 T00281050 $
54779K12N 12N20160110232010201/10/16 23:20:31  5-MIN K12N 110420Z AUTO VRB06KT 03/M05 A2960 880 56 -300 VRB/06 RMK AO1 T00281050 $
54779K12N 12N20160110232509201/10/16 23:25:31  5-MIN K12N 110425Z AUTO 03/M05 A2961 880 56 -300 M /M RMK AO1 T00281050 $
54779K12N 12N20160110233010801/10/16 23:30:31  5-MIN K12N 110430Z AUTO VRB05G15KT 02/M05 A2961 880 59 -400 VRB/05G15 RMK AO1 T00221050 $
54779K12N 12N20160110233510801/10/16 23:35:31  5-MIN K12N 110435Z AUTO VRB04G19KT 02/M06 A2961 880 56 -400 VRB/04G19 RMK AO1 T00221056 $
54779K12N 12N20160110234012401/10/16 23:40:31  5-MIN K12N 110440Z AUTO 28009G19KT 240V340 02/M06 A2961 880 56 -400 290/09G19 250V350 RMK AO1 T00221056 $
54779K12N 12N20160110234512401/10/16 23:45:31  5-MIN K12N 110445Z AUTO 25008G14KT 200V280 02/M06 A2961 870 56 -400 260/08G14 210V290 RMK AO1 T00221056 $
54779K12N 12N20160110235011901/10/16 23:50:31  5-MIN K12N 110450Z AUTO VRB05KT 02/M06 A2961 870 56 -400 VRB/05 RMK AO1 SLP031 T00221056 401670022 $
54779K12N 12N20160110235511801/10/16 23:55:31  5-MIN K12N 110455Z AUTO 30007KT 110V030 02/M06 A2961 870 54 -400 320/07 120V040 RMK AO1 T00221061 $
54779K12N 12N20160111000010201/11/16 00:00:31  5-MIN K12N 110500Z AUTO VRB05KT 02/M06 A2961 870 54 -400 VRB/05 RMK AO1 T00221061 $
54779K12N 12N20160111000509201/11/16 00:05:31  5-MIN K12N 110505Z AUTO 02/M06 A2962 870 56 -400 M /M RMK AO1 T00221056 $
54779K12N 12N20160111001010801/11/16 00:10:31  5-MIN K12N 110510Z AUTO VRB06G15KT 02/M06 A2962 870 56 -400 VRB/06G15 RMK AO1 T00221056 $
54779K12N 12N20160111001510801/11/16 00:15:31  5-MIN K12N 110515Z AUTO VRB05G15KT 02/M06 A2962 860 54 -400 VRB/05G15 RMK AO1 T00221061 $
54779K12N 12N20160111002009201/11/16 00:20:31  5-MIN K12N 110520Z AUTO 02/M06 A2962 860 54 -400 M /M RMK AO1 T00221061 $
54779K12N 12N20160111002510201/11/16 00:25:31  5-MIN K12N 110525Z AUTO VRB03KT 02/M06 A2962 860 54 -400 VRB/03 RMK AO1 T00221061 $
54779K12N 12N20160111003010201/11/16 00:30:31  5-MIN K12N 110530Z AUTO VRB05KT 02/M06 A2962 860 54 -400 VRB/05 RMK AO1 T00221061 $
54779K12N 12N20160112075009901/12/16 07:50:31  5-MIN K12N 121250Z AUTO M06/M14 A2995 560 52 -1800 M /M RMK AO1 SLP157 T10611144
54779K12N 12N20160112075509201/12/16 07:55:31  5-MIN K12N 121255Z AUTO M06/M14 A2995 560 52 -1800 M /M RMK AO1 T10611144
54779K12N 12N20160112080009201/12/16 08:00:31  5-MIN K12N 121300Z AUTO M06/M14 A2995 560 54 -1800 M /M RMK AO1 T10611139
54779K12N 12N20160112080509201/12/16 08:05:31  5-MIN K12N 121305Z AUTO M06/M14 A2995 560 54 -1800 M /M RMK AO1 T10611139
54779K12N 12N20160112081009201/12/16 08:10:31  5-MIN K12N 121310Z AUTO M06/M14 A2994 560 52 -1800 M /M RMK AO1 T10611144
54779K12N 12N20160112081509201/12/16 08:15:31  5-MIN K12N 121315Z AUTO M06/M14 A2994 560 54 -1800 M /M RMK AO1 T10611139
54779K12N 12N20160112082009201/12/16 08:20:31  5-MIN K12N 121320Z AUTO M06/M14 A2994 570 52 -1700 M /M RMK AO1 T10561139
54779K12N 12N20160112082509201/12/16 08:25:31  5-MIN K12N 121325Z AUTO M06/M14 A2994 570 52 -1700 M /M RMK AO1 T10561139
54779K12N 12N20160112083009201/12/16 08:30:31  5-MIN K12N 121330Z AUTO M06/M14 A2994 560 52 -1700 M /M RMK AO1 T10561139
54779K12N 12N20160112083509201/12/16 08:35:31  5-MIN K12N 121335Z AUTO M05/M14 A2994 570 50 -1700 M /M RMK AO1 T10501139
54779K12N 12N20160112084009201/12/16 08:40:31  5-MIN K12N 121340Z AUTO M05/M14 A2994 570 50 -1700 M /M RMK AO1 T10501139
54779K12N 12N20160112084509201/12/16 08:45:31  5-MIN K12N 121345Z AUTO M04/M14 A2993 570 48 -1600 M /M RMK AO1 T10441139
54779K12N 12N20160112085009901/12/16 08:50:31  5-MIN K12N 121350Z AUTO M04/M14 A2993 580 48 -1600 M /M RMK AO1 SLP150 T10441139
54779K12N 12N20160112085509201/12/16 08:55:31  5-MIN K12N 121355Z AUTO M04/M13 A2993 580 50 -1600 M /M RMK AO1 T10441133
54779K12N 12N20160112090009201/12/16 09:00:31  5-MIN K12N 121400Z AUTO M04/M14 A2992 580 48 -1600 M /M RMK AO1 T10441139
54779K12N 12N20160112090509201/12/16 09:05:31  5-MIN K12N 121405Z AUTO M04/M14 A2992 590 46 -1500 M /M RMK AO1 T10391139
54779K12N 12N20160112091009201/12/16 09:10:31  5-MIN K12N 121410Z AUTO M04/M14 A2991 590 46 -1500 M /M RMK AO1 T10391139
54779K12N 12N20160112091509201/12/16 09:15:31  5-MIN K12N 121415Z AUTO M04/M14 A2991 590 46 -1500 M /M RMK AO1 T10391139
54779K12N 12N20160112092009201/12/16 09:20:31  5-MIN K12N 121420Z AUTO M03/M14 A2991 590 44 -1400 M /M RMK AO1 T10331139
54779K12N 12N20160112092509201/12/16 09:25:31  5-MIN K12N 121425Z AUTO M03/M14 A2991 600 44 -1400 M /M RMK AO1 T10331139
54779K12N 12N20160112093009201/12/16 09:30:31  5-MIN K12N 121430Z AUTO M03/M13 A2991 600 46 -1400 M /M RMK AO1 T10331133
54779K12N 12N20160112093509201/12/16 09:35:31  5-MIN K12N 121435Z AUTO M03/M13 A2991 590 46 -1400 M /M RMK AO1 T10331133
54779K12N 12N20160112094009201/12/16 09:40:31  5-MIN K12N 121440Z AUTO M03/M13 A2991 590 46 -1400 M /M RMK AO1 T10331133
54779K12N 12N20160112094509201/12/16 09:45:31  5-MIN K12N 121445Z AUTO M03/M13 A2991 590 46 -1400 M /M RMK AO1 T10331133
54779K12N 12N20160112095010501/12/16 09:50:31  5-MIN K12N 121450Z AUTO M03/M13 A2991 600 46 -1400 M /M RMK AO1 SLP142 T10281128 56028
54779K12N 12N20160112095509201/12/16 09:55:31  5-MIN K12N 121455Z AUTO M03/M13 A2991 600 44 -1300 M /M RMK AO1 T10281133
54779K12N 12N20160112100009201/12/16 10:00:31  5-MIN K12N 121500Z AUTO M03/M13 A2990 600 46 -1300 M /M RMK AO1 T10281128
54779K12N 12N20160112100509201/12/16 10:05:31  5-MIN K12N 121505Z AUTO M03/M13 A2990 600 46 -1300 M /M RMK AO1 T10281128
54779K12N 12N20160112101009201/12/16 10:10:31  5-MIN K12N 121510Z AUTO M02/M12 A2990 610 46 -1300 M /M RMK AO1 T10221122
54779K12N 12N20160112101509201/12/16 10:15:31  5-MIN K12N 121515Z AUTO M02/M12 A2989 610 46 -1300 M /M RMK AO1 T10221122
54779K12N 12N20160112102009201/12/16 10:20:31  5-MIN K12N 121520Z AUTO M02/M13 A2989 610 44 -1300 M /M RMK AO1 T10221128
54779K12N 12N20160112102509201/12/16 10:25:31  5-MIN K12N 121525Z AUTO M02/M12 A2988 620 44 -1200 M /M RMK AO1 T10171122
54779K12N 12N20160112103009201/12/16 10:30:31  5-MIN K12N 121530Z AUTO M02/M12 A2988 620 44 -1200 M /M RMK AO1 T10171122
54779K12N 12N20160112103509201/12/16 10:35:31  5-MIN K12N 121535Z AUTO M02/M12 A2988 630 44 -1200 M /M RMK AO1 T10171122
54779K12N 12N20160112104009201/12/16 10:40:31  5-MIN K12N 121540Z AUTO M01/M12 A2987 630 45 -1100 M /M RMK AO1 T10111117
54779K12N 12N20160112104509201/12/16 10:45:31  5-MIN K12N 121545Z AUTO M01/M12 A2987 630 45 -1100 M /M RMK AO1 T10111117
54779K12N 12N20160112105009901/12/16 10:50:31  5-MIN K12N 121550Z AUTO M01/M12 A2986 640 45 -1100 M /M RMK AO1 SLP126 T10111117
54779K12N 12N20160112105509201/12/16 10:55:31  5-MIN K12N 121555Z AUTO M01/M12 A2986 640 43 -1000 M /M RMK AO1 T10061117
54779K12N 12N20160112110009901/12/16 11:00:31  5-MIN K12N 121600Z AUTO M01/M12 A2985 650 43 -1000 M /M RMK AO1 PRESFR T10061117
54779K12N 12N20160112110509901/12/16 11:05:31  5-MIN K12N 121605Z AUTO M01/M11 A2985 650 45 -1000 M /M RMK AO1 PRESFR T10061111
54779K12N 12N20160112111009901/12/16 11:10:31  5-MIN K12N 121610Z AUTO M01/M11 A2984 660 45 -1000 M /M RMK AO1 PRESFR T10061111
54779K12N 12N20160112111509701/12/16 11:15:31  5-MIN K12N 121615Z AUTO 00/M11 A2983 670 43 -900 M /M RMK AO1 PRESFR T00001111
54779K12N 12N20160112112010701/12/16 11:20:31  5-MIN K12N 121620Z AUTO VRB06KT 00/M11 A2983 670 45 -900 VRB/06 RMK AO1 PRESFR T00001106
54779K12N 12N20160112112510301/12/16 11:25:31  5-MIN K12N 121625Z AUTO 00/M11 A2982 680 45 -900 M /M RMK AO1 PRESFR T00001106 PNO $
54779K12N 12N20160112113010301/12/16 11:30:31  5-MIN K12N 121630Z AUTO 00/M11 A2981 690 45 -900 M /M RMK AO1 PRESFR T00001106 PNO $
54779K12N 12N20160112113510301/12/16 11:35:31  5-MIN K12N 121635Z AUTO 00/M11 A2980 690 45 -900 M /M RMK AO1 PRESFR T00001106 PNO $
54779K12N 12N20160112114008001/12/16 11:40:31  5-MIN K12N 121640Z AUTO A2979 M M M M /M RMK AO1 PRESFR PNO $
54779K12N 12N20160112114507301/12/16 11:45:31  5-MIN K12N 121645Z AUTO A2979 M M M M /M RMK AO1 PNO $
54779K12N 12N20160112115007901/12/16 11:50:31  5-MIN K12N 121650Z AUTO A2979 M M M M /M RMK AO1 SLPNO PNO $
54779K12N 12N20160112115507301/12/16 11:55:31  5-MIN K12N 121655Z AUTO A2979 M M M M /M RMK AO1 PNO $
54779K12N 12N20160112120007301/12/16 12:00:31  5-MIN K12N 121700Z AUTO A2978 M M M M /M RMK AO1 PNO $
54779K12N 12N20160112120507301/12/16 12:05:31  5-MIN K12N 121705Z AUTO A2978 M M M M /M RMK AO1 PNO $
54779K12N 12N20160112121007301/12/16 12:10:31  5-MIN K12N 121710Z AUTO A2977 M M M M /M RMK AO1 PNO $
54779K12N 12N20160112121508001/12/16 12:15:31  5-MIN K12N 121715Z AUTO A2976 M M M M /M RMK AO1 PRESFR PNO $
54779K12N 12N20160112122007301/12/16 12:20:31  5-MIN K12N 121720Z AUTO A2976 M M M M /M RMK AO1 PNO $
54779K12N 12N20160112122507301/12/16 12:25:31  5-MIN K12N 121725Z AUTO A2975 M M M M /M RMK AO1 PNO $
54779K12N 12N20160112123007301/12/16 12:30:31  5-MIN K12N 121730Z AUTO A2975 M M M M /M RMK AO1 PNO $
54779K12N 12N20160112123507301/12/16 12:35:31  5-MIN K12N 121735Z AUTO A2974 M M M M /M RMK AO1 PNO $
54779K12N 12N20160112124007301/12/16 12:40:31  5-MIN K12N 121740Z AUTO A2974 M M M M /M RMK AO1 PNO $
54779K12N 12N20160112124507301/12/16 12:45:31  5-MIN K12N 121745Z AUTO A2973 M M M M /M RMK AO1 PNO $
54779K12N 12N20160112125009401/12/16 12:50:31  5-MIN K12N 121750Z AUTO A2972 M M M M /M RMK AO1 PRESFR SLPNO 6//// 56021 $
54779K12N 12N20160112125509701/12/16 12:55:31  5-MIN K12N 121755Z AUTO 01/M09 A2972 770 47 -600 M /M RMK AO1 PRESFR T00111089
54779K12N 12N20160112130010701/12/16 13:00:31  5-MIN K12N 121800Z AUTO 19005KT 01/M08 A2971 780 49 -600 200/05 RMK AO1 PRESFR T00111083
54779K12N 12N20160112130510701/12/16 13:05:31  5-MIN K12N 121805Z AUTO VRB05KT 02/M08 A2970 790 47 -600 VRB/05 RMK AO1 PRESFR T00171083
54779K12N 12N20160112131010701/12/16 13:10:31  5-MIN K12N 121810Z AUTO VRB04KT 02/M08 A2970 790 47 -500 VRB/04 RMK AO1 PRESFR T00171083
54779K12N 12N20160112131510701/12/16 13:15:31  5-MIN K12N 121815Z AUTO VRB05KT 02/M08 A2969 800 47 -500 VRB/05 RMK AO1 PRESFR T00171083
54779K12N 12N20160112132012201/12/16 13:20:31  5-MIN K12N 121820Z AUTO 20009G18KT 140V250 02/M08 A2969 800 47 -500 210/09G18 150V260 RMK AO1 T00171083
54779K12N 12N20160112132509901/12/16 13:25:31  5-MIN K12N 121825Z AUTO 02/M08 A2968 810 47 -500 M /M RMK AO1 PRESFR T00171083 $
54779K12N 12N20160112133009901/12/16 13:30:31  5-MIN K12N 121830Z AUTO 02/M08 A2967 820 47 -500 M /M RMK AO1 PRESFR T00171083 $
54779K12N 12N20160112133509201/12/16 13:35:31  5-MIN K12N 121835Z AUTO 02/M08 A2967 820 47 -500 M /M RMK AO1 T00171083 $
54779K12N 12N20160112134009201/12/16 13:40:31  5-MIN K12N 121840Z AUTO 02/M08 A2966 830 45 -400 M /M RMK AO1 T00221083 $
54779K12N 12N20160112134513101/12/16 13:45:31  5-MIN K12N 121845Z AUTO 17009G15KT 140V210 02/M09 A2966 830 44 -400 180/09G15 150V220 RMK AO1 PRESFR T00221089 $
54779K12N 12N20160112135011301/12/16 13:50:31  5-MIN K12N 121850Z AUTO 19008G15KT 02/M09 A2965 830 44 -400 200/08G15 RMK AO1 SLP054 T00221089
54779K12N 12N20160112135510601/12/16 13:55:31  5-MIN K12N 121855Z AUTO 16010G17KT 02/M08 A2965 840 45 -400 170/10G17 RMK AO1 T00221083
54779K12N 12N20160112140012201/12/16 14:00:31  5-MIN K12N 121900Z AUTO 19007G18KT 150V230 02/M08 A2965 830 45 -400 200/07G18 160V240 RMK AO1 T00221083
54779K12N 12N20160112140512201/12/16 14:05:31  5-MIN K12N 121905Z AUTO 19007G18KT 160V220 02/M08 A2965 830 45 -400 200/07G18 170V230 RMK AO1 T00221083
54779K12N 12N20160112141010001/12/16 14:10:31  5-MIN K12N 121910Z AUTO VRB05KT 02/M08 A2965 830 45 -400 VRB/05 RMK AO1 T00221083
54779K12N 12N20160112141512201/12/16 14:15:31  5-MIN K12N 121915Z AUTO 18010G16KT 160V220 02/M08 A2966 830 45 -400 200/10G16 170V230 RMK AO1 T00221083
54779K12N 12N20160112142010601/12/16 14:20:31  5-MIN K12N 121920Z AUTO 21006G16KT 02/M08 A2966 830 45 -400 220/06G16 RMK AO1 T00221083
54779K12N 12N20160112142510601/12/16 14:25:31  5-MIN K12N 121925Z AUTO 23015G20KT 02/M08 A2966 830 47 -400 250/15G20 RMK AO1 T00221078
54779K12N 12N20160112143010601/12/16 14:30:31  5-MIN K12N 121930Z AUTO VRB06G20KT 02/M07 A2966 830 50 -400 VRB/06G20 RMK AO1 T00221072
54779K12N 12N20160112143510601/12/16 14:35:31  5-MIN K12N 121935Z AUTO 22013G18KT 02/M07 A2966 830 52 -400 230/13G18 RMK AO1 T00221067
54779K12N 12N20160112144010601/12/16 14:40:31  5-MIN K12N 121940Z AUTO 22008G18KT 02/M06 A2966 830 59 -500 230/08G18 RMK AO1 T00171056
54779K12N 12N20160112144510601/12/16 14:45:31  5-MIN K12N 121945Z AUTO 23011G18KT 01/M05 A2966 820 64 -600 240/11G18 RMK AO1 T00111050
54779K12N 12N20160112145011301/12/16 14:50:31  5-MIN K12N 121950Z AUTO 23012G18KT 01/M04 A2967 820 72 -700 240/12G18 RMK AO1 SLP059 T00061039
54779K12N 12N20160112145510601/12/16 14:55:31  5-MIN K12N 121955Z AUTO 22008G18KT 01/M03 A2966 820 75 -600 230/08G18 RMK AO1 T00061033
54779K12N 12N20160112150010601/12/16 15:00:31  5-MIN K12N 122000Z AUTO 22010G18KT 00/M03 A2966 820 78 -700 240/10G18 RMK AO1 T00001033
54779K12N 12N20160112150510601/12/16 15:05:31  5-MIN K12N 122005Z AUTO 22009G18KT 00/M03 A2966 820 81 -700 230/09G18 RMK AO1 T00001028
54779K12N 12N20160112151010601/12/16 15:10:31  5-MIN K12N 122010Z AUTO 22007G18KT 00/M03 A2966 820 81 -700 230/07G18 RMK AO1 T00001028
54779K12N 12N20160112151510001/12/16 15:15:31  5-MIN K12N 122015Z AUTO 21006KT 00/M02 A2966 820 85 -700 230/06 RMK AO1 T00001022
54779K12N 12N20160112152010601/12/16 15:20:31  5-MIN K12N 122020Z AUTO 22006KT 00/M02 A2966 820 85 -700 230/06 RMK AO1 P0001 T00001022
54779K12N 12N20160112152510601/12/16 15:25:31  5-MIN K12N 122025Z AUTO 23005KT 00/M02 A2966 820 85 -700 240/05 RMK AO1 P0001 T00001022
54779K12N 12N20160112153010701/12/16 15:30:31  5-MIN K12N 122030Z AUTO 22004KT M01/M02 A2966 820 92 -800 230/04 RMK AO1 P0001 T10061017
54779K12N 12N20160112153510701/12/16 15:35:31  5-MIN K12N 122035Z AUTO 22005KT M01/M02 A2966 830 92 -800 230/05 RMK AO1 P0001 T10061017
54779K12N 12N20160112154010701/12/16 15:40:31  5-MIN K12N 122040Z AUTO 22005KT M01/M02 A2966 830 92 -800 230/05 RMK AO1 P0002 T10061017
54779K12N 12N20160112154510701/12/16 15:45:31  5-MIN K12N 122045Z AUTO VRB04KT M01/M02 A2966 830 92 -800 VRB/04 RMK AO1 P0002 T10061017
54779K12N 12N20160112155012601/12/16 15:50:31  5-MIN K12N 122050Z AUTO 21003KT M01/M02 A2966 830 92 -800 220/03 RMK AO1 SLP056 P0002 60002 T10061017 58061
54779K12N 12N20160112155510101/12/16 15:55:31  5-MIN K12N 122055Z AUTO 21004KT M01/M02 A2966 830 92 -800 220/04 RMK AO1 T10061017
54779K12N 12N20160112160010101/12/16 16:00:31  5-MIN K12N 122100Z AUTO 21004KT M01/M02 A2965 830 92 -800 220/04 RMK AO1 T10061017
54779K12N 12N20160112160510701/12/16 16:05:31  5-MIN K12N 122105Z AUTO 21004KT M01/M02 A2965 830 92 -800 220/04 RMK AO1 P0001 T10061017
54779K12N 12N20160112161010701/12/16 16:10:31  5-MIN K12N 122110Z AUTO 20003KT M01/M02 A2965 830 92 -800 210/03 RMK AO1 P0001 T10061017
54779K12N 12N20160112161510701/12/16 16:15:31  5-MIN K12N 122115Z AUTO 21004KT M01/M02 A2965 830 92 -800 220/04 RMK AO1 P0001 T10061017
54779K12N 12N20160112162010701/12/16 16:20:31  5-MIN K12N 122120Z AUTO 21004KT M01/M02 A2965 840 92 -800 230/04 RMK AO1 P0001 T10061017
54779K12N 12N20160112162510701/12/16 16:25:31  5-MIN K12N 122125Z AUTO 21005KT M01/M02 A2965 840 92 -800 220/05 RMK AO1 P0001 T10061017
54779K12N 12N20160112163010701/12/16 16:30:31  5-MIN K12N 122130Z AUTO 22006KT M01/M02 A2965 840 92 -800 230/06 RMK AO1 P0001 T10061017
54779K12N 12N20160112163510701/12/16 16:35:31  5-MIN K12N 122135Z AUTO 20003KT M01/M02 A2965 840 92 -800 210/03 RMK AO1 P0001 T10061017
54779K12N 12N20160112164010701/12/16 16:40:31  5-MIN K12N 122140Z AUTO 20005KT M01/M02 A2964 840 92 -800 210/05 RMK AO1 P0001 T10061017
54779K12N 12N20160112164510701/12/16 16:45:31  5-MIN K12N 122145Z AUTO 21004KT M01/M02 A2964 840 88 -800 220/04 RMK AO1 P0001 T10061022
54779K12N 12N20160112165011401/12/16 16:50:31  5-MIN K12N 122150Z AUTO 21005KT M01/M02 A2964 850 88 -800 220/05 RMK AO1 SLP051 P0001 T10061022
54779K12N 12N20160112165510101/12/16 16:55:31  5-MIN K12N 122155Z AUTO 21003KT M01/M02 A2964 850 88 -800 220/03 RMK AO1 T10061022
54779K12N 12N20160112170010101/12/16 17:00:31  5-MIN K12N 122200Z AUTO 00000KT M01/M03 A2964 850 88 -800 000/00 RMK AO1 T10111028
54779K12N 12N20160112170510101/12/16 17:05:31  5-MIN K12N 122205Z AUTO 00000KT M01/M03 A2964 850 88 -800 000/00 RMK AO1 T10111028
54779K12N 12N20160112171010101/12/16 17:10:31  5-MIN K12N 122210Z AUTO 00000KT M01/M03 A2963 850 88 -800 000/00 RMK AO1 T10111028
54779K12N 12N20160112171510101/12/16 17:15:31  5-MIN K12N 122215Z AUTO 00000KT M01/M03 A2964 850 88 -800 000/00 RMK AO1 T10111028
54779K12N 12N20160112172010201/12/16 17:20:31  5-MIN K12N 122220Z AUTO 00000KT M02/M03 A2964 850 92 -1000 000/00 RMK AO1 T10221033
54779K12N 12N20160112172510201/12/16 17:25:31  5-MIN K12N 122225Z AUTO 00000KT M03/M04 A2964 850 96 -1100 000/00 RMK AO1 T10331039
54779K12N 12N20160112173010201/12/16 17:30:31  5-MIN K12N 122230Z AUTO 00000KT M02/M04 A2964 850 88 -1000 000/00 RMK AO1 T10221039
54779K12N 12N20160112173510201/12/16 17:35:31  5-MIN K12N 122235Z AUTO 00000KT M02/M04 A2964 850 88 -1000 000/00 RMK AO1 T10221039
54779K12N 12N20160112174010201/12/16 17:40:31  5-MIN K12N 122240Z AUTO 00000KT M02/M04 A2964 850 88 -1000 000/00 RMK AO1 T10221039
54779K12N 12N20160112174510201/12/16 17:45:31  5-MIN K12N 122245Z AUTO 00000KT M03/M04 A2964 850 92 -1000 000/00 RMK AO1 T10281039
54779K12N 12N20160112175010901/12/16 17:50:31  5-MIN K12N 122250Z AUTO 00000KT M03/M04 A2964 850 92 -1000 000/00 RMK AO1 SLP050 T10281039
54779K12N 12N20160112175510201/12/16 17:55:31  5-MIN K12N 122255Z AUTO 00000KT M03/M04 A2964 850 92 -1000 000/00 RMK AO1 T10281039
54779K12N 12N20160112180010201/12/16 18:00:31  5-MIN K12N 122300Z AUTO 00000KT M03/M04 A2963 850 92 -1100 000/00 RMK AO1 T10331044
54779K12N 12N20160112180510201/12/16 18:05:31  5-MIN K12N 122305Z AUTO 00000KT M03/M04 A2964 850 92 -1000 000/00 RMK AO1 T10281039
54779K12N 12N20160112181010201/12/16 18:10:31  5-MIN K12N 122310Z AUTO 00000KT M03/M04 A2963 850 92 -1000 000/00 RMK AO1 T10281039
54779K12N 12N20160112181510201/12/16 18:15:31  5-MIN K12N 122315Z AUTO 00000KT M03/M04 A2963 850 92 -1000 000/00 RMK AO1 T10281039
54779K12N 12N20160112182010201/12/16 18:20:31  5-MIN K12N 122320Z AUTO 00000KT M03/M04 A2963 850 92 -1000 000/00 RMK AO1 T10281039
54779K12N 12N20160112182510201/12/16 18:25:31  5-MIN K12N 122325Z AUTO 00000KT M03/M04 A2963 860 96 -1100 000/00 RMK AO1 T10331039
54779K12N 12N20160112183010201/12/16 18:30:31  5-MIN K12N 122330Z AUTO 00000KT M03/M04 A2963 860 92 -1000 000/00 RMK AO1 T10281039
54779K12N 12N20160112183510201/12/16 18:35:31  5-MIN K12N 122335Z AUTO 00000KT M03/M04 A2962 860 96 -1100 000/00 RMK AO1 T10331039
54779K12N 12N20160112184010201/12/16 18:40:31  5-MIN K12N 122340Z AUTO 00000KT M03/M04 A2962 860 92 -1100 000/00 RMK AO1 T10331044
54779K12N 12N20160112184510201/12/16 18:45:31  5-MIN K12N 122345Z AUTO 00000KT M03/M05 A2962 860 88 -1100 000/00 RMK AO1 T10331050
54779K12N 12N20160112185013301/12/16 18:50:31  5-MIN K12N 122350Z AUTO 00000KT M04/M05 A2962 860 92 -1200 000/00 RMK AO1 SLP045 60003 T10391050 10022 21039 56022
54779K12N 12N20160112185510201/12/16 18:55:31  5-MIN K12N 122355Z AUTO 00000KT M03/M05 A2962 860 88 -1100 000/00 RMK AO1 T10331050
54779K12N 12N20160112190010201/12/16 19:00:31  5-MIN K12N 130000Z AUTO 00000KT M04/M05 A2962 860 92 -1200 000/00 RMK AO1 T10391050
54779K12N 12N20160112190510201/12/16 19:05:31  5-MIN K12N 130005Z AUTO 00000KT M04/M06 A2962 860 92 -1200 000/00 RMK AO1 T10441056
54779K12N 12N20160112191010201/12/16 19:10:31  5-MIN K12N 130010Z AUTO 00000KT M04/M06 A2962 860 88 -1200 000/00 RMK AO1 T10391056
54779K12N 12N20160112191510201/12/16 19:15:31  5-MIN K12N 130015Z AUTO 00000KT M04/M05 A2962 860 92 -1200 000/00 RMK AO1 T10391050
54779K12N 12N20160112192010201/12/16 19:20:31  5-MIN K12N 130020Z AUTO 00000KT M04/M05 A2963 860 92 -1200 000/00 RMK AO1 T10391050
54779K12N 12N20160112192510201/12/16 19:25:31  5-MIN K12N 130025Z AUTO 00000KT M03/M04 A2963 850 92 -1100 000/00 RMK AO1 T10331044
54779K12N 12N20160112193010901/12/16 19:30:31  5-MIN K12N 130030Z AUTO 30003KT M03/M04 A2964 840 88 -1000 320/03 RMK AO1 PRESRR T10281044
54779K12N 12N20160112193510901/12/16 19:35:31  5-MIN K12N 130035Z AUTO 34003KT M02/M04 A2965 840 88 -1000 360/03 RMK AO1 PRESRR T10221039
54779K12N 12N20160112194010101/12/16 19:40:31  5-MIN K12N 130040Z AUTO VRB03KT M02/M03 A2965 830 92 -900 VRB/03 RMK AO1 T10171028
54779K12N 12N20160112194510101/12/16 19:45:31  5-MIN K12N 130045Z AUTO VRB03KT M02/M03 A2966 830 92 -900 VRB/03 RMK AO1 T10171028
54779K12N 12N20160113094010801/13/16 09:40:31  5-MIN K12N 131440Z AUTO VRB03G15KT M07/M15 A2998 530 52 -1900 VRB/03G15 RMK AO1 T10671150
54779K12N 12N20160113094509201/13/16 09:45:31  5-MIN K12N 131445Z AUTO M06/M15 A2999 520 50 -1900 M /M RMK AO1 T10611150
54779K12N 12N20160113095011501/13/16 09:50:31  5-MIN K12N 131450Z AUTO VRB04KT M06/M15 A2999 520 50 -1900 VRB/04 RMK AO1 SLP170 T10611150 53024
54779K12N 12N20160113095510201/13/16 09:55:31  5-MIN K12N 131455Z AUTO VRB05KT M06/M15 A2999 520 50 -1900 VRB/05 RMK AO1 T10611150
54779K12N 12N20160113100011801/13/16 10:00:31  5-MIN K12N 131500Z AUTO 29008KT 250V330 M06/M15 A2999 520 50 -1900 300/08 260V340 RMK AO1 T10611150
54779K12N 12N20160113100510201/13/16 10:05:31  5-MIN K12N 131505Z AUTO VRB06KT M06/M15 A2999 520 50 -1900 VRB/06 RMK AO1 T10611150
54779K12N 12N20160113101012401/13/16 10:10:31  5-MIN K12N 131510Z AUTO 33008G15KT 230V040 M06/M15 A2999 520 50 -1900 340/08G15 240V050 RMK AO1 T10611150
54779K12N 12N20160113101510801/13/16 10:15:31  5-MIN K12N 131515Z AUTO VRB06G16KT M06/M15 A2999 520 50 -1900 VRB/06G16 RMK AO1 T10611150
54779K12N 12N20160113102012401/13/16 10:20:31  5-MIN K12N 131520Z AUTO 30008G16KT 240V360 M06/M16 A2999 520 47 -1900 320/08G16 250V010 RMK AO1 T10611156
54779K12N 12N20160113102509201/13/16 10:25:31  5-MIN K12N 131525Z AUTO M06/M15 A2999 520 48 -1800 M /M RMK AO1 T10561150
54779K12N 12N20160113103011801/13/16 10:30:31  5-MIN K12N 131530Z AUTO 29007KT 230V330 M06/M15 A2999 520 48 -1800 300/07 240V340 RMK AO1 T10561150
54779K12N 12N20160113103510201/13/16 10:35:31  5-MIN K12N 131535Z AUTO VRB05KT M06/M15 A2999 520 48 -1800 VRB/05 RMK AO1 T10561150
54779K12N 12N20160113104010801/13/16 10:40:31  5-MIN K12N 131540Z AUTO VRB05G17KT M06/M15 A3000 520 48 -1800 VRB/05G17 RMK AO1 T10561150
54779K12N 12N20160113104509201/13/16 10:45:31  5-MIN K12N 131545Z AUTO M05/M15 A3000 510 46 -1700 M /M RMK AO1 T10501150
54779K12N 12N20160113105009901/13/16 10:50:31  5-MIN K12N 131550Z AUTO M06/M16 A3000 510 45 -1800 M /M RMK AO1 SLP172 T10561156
54779K12N 12N20160113105510801/13/16 10:55:31  5-MIN K12N 131555Z AUTO VRB06G15KT M06/M16 A3000 510 45 -1800 VRB/06G15 RMK AO1 T10561156
54779K12N 12N20160113110010801/13/16 11:00:31  5-MIN K12N 131600Z AUTO VRB04G15KT M05/M16 A3000 510 44 -1700 VRB/04G15 RMK AO1 T10501156
54779K12N 12N20160113110510201/13/16 11:05:31  5-MIN K12N 131605Z AUTO VRB04KT M05/M15 A3000 510 46 -1700 VRB/04 RMK AO1 T10501150
54779K12N 12N20160113111009201/13/16 11:10:31  5-MIN K12N 131610Z AUTO M06/M16 A3000 510 45 -1800 M /M RMK AO1 T10561156
54779K12N 12N20160113111510801/13/16 11:15:31  5-MIN K12N 131615Z AUTO VRB06G18KT M06/M16 A3000 510 43 -1800 VRB/06G18 RMK AO1 T10561161
54779K12N 12N20160113112009201/13/16 11:20:31  5-MIN K12N 131620Z AUTO M06/M16 A3000 510 45 -1800 M /M RMK AO1 T10561156
54779K12N 12N20160113112510801/13/16 11:25:31  5-MIN K12N 131625Z AUTO 31008G17KT M05/M16 A3000 520 42 -1700 320/08G17 RMK AO1 T10501161
54779K12N 12N20160113113009201/13/16 11:30:31  5-MIN K12N 131630Z AUTO M05/M16 A2999 520 44 -1700 M /M RMK AO1 T10501156
54779K12N 12N20160113113512401/13/16 11:35:31  5-MIN K12N 131635Z AUTO 29008G16KT 260V360 M06/M16 A3000 520 43 -1800 300/08G16 270V010 RMK AO1 T10561161
54779K12N 12N20160113114010801/13/16 11:40:31  5-MIN K12N 131640Z AUTO 28008G16KT M06/M16 A2999 520 43 -1800 300/08G16 RMK AO1 T10561161
54779K12N 12N20160113114512401/13/16 11:45:31  5-MIN K12N 131645Z AUTO 33008G16KT 240V010 M06/M16 A2999 520 43 -1800 340/08G16 250V020 RMK AO1 T10561161
54779K12N 12N20160113115012501/13/16 11:50:31  5-MIN K12N 131650Z AUTO 31007KT 260V340 M06/M16 A2999 520 45 -1900 320/07 270V350 RMK AO1 SLP171 T10611161
54779K12N 12N20160113115510201/13/16 11:55:31  5-MIN K12N 131655Z AUTO 30007KT M06/M16 A2999 520 43 -1800 310/07 RMK AO1 T10561161
54779K12N 12N20160113120010201/13/16 12:00:31  5-MIN K12N 131700Z AUTO 30005KT M05/M16 A2999 520 42 -1700 310/05 RMK AO1 T10501161
54779K12N 12N20160113120512401/13/16 12:05:31  5-MIN K12N 131705Z AUTO 30009G16KT 230V330 M04/M16 A2998 530 42 -1700 310/09G16 240V340 RMK AO1 T10441156
54779K12N 12N20160113121009201/13/16 12:10:31  5-MIN K12N 131710Z AUTO M05/M16 A2998 530 44 -1700 M /M RMK AO1 T10501156
54779K12N 12N20160113121510201/13/16 12:15:31  5-MIN K12N 131715Z AUTO 29006KT M06/M16 A2999 530 45 -1800 300/06 RMK AO1 T10561156
54779K12N 12N20160113122011801/13/16 12:20:31  5-MIN K12N 131720Z AUTO 31008KT 260V340 M05/M16 A2998 530 44 -1700 320/08 270V350 RMK AO1 T10501156
54779K12N 12N20160113122510201/13/16 12:25:31  5-MIN K12N 131725Z AUTO VRB05KT M05/M16 A2998 530 42 -1700 VRB/05 RMK AO1 T10501161
54779K12N 12N20160113123011801/13/16 12:30:31  5-MIN K12N 131730Z AUTO 31008KT 230V360 M05/M16 A2998 530 42 -1700 320/08 240V010 RMK AO1 T10501161
54779K12N 12N20160113123512401/13/16 12:35:31  5-MIN K12N 131735Z AUTO 32007G16KT 270V010 M05/M16 A2997 540 42 -1700 330/07G16 280V020 RMK AO1 T10501161
54779K12N 12N20160113124011801/13/16 12:40:31  5-MIN K12N 131740Z AUTO 26009KT 220V300 M05/M16 A2997 540 42 -1700 270/09 230V310 RMK AO1 T10501161
54779K12N 12N20160113124511801/13/16 12:45:31  5-MIN K12N 131745Z AUTO 32007KT 280V360 M04/M16 A2997 540 40 -1600 330/07 290V010 RMK AO1 T10441161
54779K12N 12N20160113125013301/13/16 12:50:31  5-MIN K12N 131750Z AUTO VRB06G15KT M04/M16 A2996 540 40 -1600 VRB/06G15 RMK AO1 SLP162 T10441161 11044 21083 51021
54779K12N 12N20160113125509201/13/16 12:55:31  5-MIN K12N 131755Z AUTO M04/M16 A2996 550 40 -1600 M /M RMK AO1 T10391156
54779K12N 12N20160113130011801/13/16 13:00:31  5-MIN K12N 131800Z AUTO 29008KT 240V340 M04/M16 A2996 550 40 -1600 300/08 250V350 RMK AO1 T10391156
54779K12N 12N20160113130512401/13/16 13:05:31  5-MIN K12N 131805Z AUTO 28007G15KT 230V330 M04/M16 A2996 550 42 -1600 300/07G15 240V340 RMK AO1 T10441156
54779K12N 12N20160113131011801/13/16 13:10:31  5-MIN K12N 131810Z AUTO 25008KT 210V290 M04/M16 A2995 550 42 -1600 270/08 220V300 RMK AO1 T10441156
54779K12N 12N20160113131511801/13/16 13:15:31  5-MIN K12N 131815Z AUTO 25007KT 210V320 M05/M16 A2995 560 44 -1700 270/07 220V330 RMK AO1 T10501156
54779K12N 12N20160113132010201/13/16 13:20:31  5-MIN K12N 131820Z AUTO VRB05KT M04/M16 A2995 560 42 -1600 VRB/05 RMK AO1 T10441156
54779K12N 12N20160113132512401/13/16 13:25:31  5-MIN K12N 131825Z AUTO 30007G17KT 250V350 M04/M15 A2995 560 42 -1500 310/07G17 260V360 RMK AO1 T10391150
54779K12N 12N20160113133010801/13/16 13:30:31  5-MIN K12N 131830Z AUTO VRB05G17KT M04/M15 A2994 560 44 -1600 VRB/05G17 RMK AO1 T10441150
54779K12N 12N20160113133510201/13/16 13:35:31  5-MIN K12N 131835Z AUTO 28004KT M04/M15 A2994 560 44 -1600 300/04 RMK AO1 T10441150
54779K12N 12N20160113134009201/13/16 13:40:31  5-MIN K12N 131840Z AUTO M04/M14 A2994 570 44 -1500 M /M RMK AO1 T10391144
54779K12N 12N20160113134510801/13/16 13:45:31  5-MIN K12N 131845Z AUTO VRB06G15KT M04/M14 A2994 570 44 -1500 VRB/06G15 RMK AO1 T10391144
54779K12N 12N20160113135013101/13/16 13:50:31  5-MIN K12N 131850Z AUTO 30009G15KT 260V320 M04/M15 A2994 570 42 -1500 310/09G15 270V330 RMK AO1 SLP153 T10391150
54779K12N 12N20160113135510201/13/16 13:55:31  5-MIN K12N 131855Z AUTO VRB04KT M04/M15 A2994 570 44 -1600 VRB/04 RMK AO1 T10441150
54779K12N 12N20160113140010201/13/16 14:00:31  5-MIN K12N 131900Z AUTO VRB05KT M04/M15 A2994 570 44 -1600 VRB/05 RMK AO1 T10441150
54779K12N 12N20160113140510201/13/16 14:05:31  5-MIN K12N 131905Z AUTO 31006KT M04/M14 A2993 570 44 -1500 320/06 RMK AO1 T10391144
54779K12N 12N20160113141012401/13/16 14:10:31  5-MIN K12N 131910Z AUTO 27007G14KT 220V360 M04/M15 A2993 570 44 -1600 280/07G14 230V010 RMK AO1 T10441150
54779K12N 12N20160113141510801/13/16 14:15:31  5-MIN K12N 131915Z AUTO VRB05G14KT M04/M15 A2993 580 44 -1600 VRB/05G14 RMK AO1 T10441150
54779K12N 12N20160113142010201/13/16 14:20:31  5-MIN K12N 131920Z AUTO VRB06KT M04/M15 A2993 570 44 -1600 VRB/06 RMK AO1 T10441150
54779K12N 12N20160113142509201/13/16 14:25:31  5-MIN K12N 131925Z AUTO M04/M14 A2994 570 46 -1600 M /M RMK AO1 T10441144
54779K12N 12N20160113143010201/13/16 14:30:31  5-MIN K12N 131930Z AUTO VRB05KT M04/M15 A2994 570 44 -1600 VRB/05 RMK AO1 T10441150
54779K12N 12N20160113143510201/13/16 14:35:31  5-MIN K12N 131935Z AUTO 31008KT M04/M15 A2994 560 42 -1500 320/08 RMK AO1 T10391150
54779K12N 12N20160113144010801/13/16 14:40:31  5-MIN K12N 131940Z AUTO VRB05G16KT M04/M15 A2994 570 42 -1500 VRB/05G16 RMK AO1 T10391150
54779K12N 12N20160113144512401/13/16 14:45:31  5-MIN K12N 131945Z AUTO 22009G16KT 210V270 M04/M14 A2994 560 44 -1500 240/09G16 220V280 RMK AO1 T10391144
54779K12N 12N20160113145011501/13/16 14:50:31  5-MIN K12N 131950Z AUTO 25007G15KT M04/M14 A2995 560 44 -1500 260/07G15 RMK AO1 SLP156 T10391144
54779K12N 12N20160113145511801/13/16 14:55:31  5-MIN K12N 131955Z AUTO 25008KT 210V290 M04/M14 A2994 560 44 -1500 260/08 220V300 RMK AO1 T10391144
54779K12N 12N20160113150010801/13/16 15:00:31  5-MIN K12N 132000Z AUTO VRB06G15KT M04/M15 A2995 560 44 -1600 VRB/06G15 RMK AO1 T10441150
54779K12N 12N20160113150512401/13/16 15:05:31  5-MIN K12N 132005Z AUTO 24007G15KT 200V290 M04/M15 A2995 560 42 -1500 260/07G15 210V300 RMK AO1 T10391150
54779K12N 12N20160113151012401/13/16 15:10:31  5-MIN K12N 132010Z AUTO 27008G15KT 220V300 M04/M16 A2995 560 42 -1600 280/08G15 230V310 RMK AO1 T10441156
54779K12N 12N20160113151510801/13/16 15:15:31  5-MIN K12N 132015Z AUTO VRB06G15KT M04/M16 A2995 560 42 -1600 VRB/06G15 RMK AO1 T10441156
54779K12N 12N20160113152009201/13/16 15:20:31  5-MIN K12N 132020Z AUTO M04/M16 A2995 560 42 -1600 M /M RMK AO1 T10441156
54779K12N 12N20160113152509201/13/16 15:25:31  5-MIN K12N 132025Z AUTO M04/M16 A2995 560 42 -1600 M /M RMK AO1 T10441156
54779K12N 12N20160113153010201/13/16 15:30:31  5-MIN K12N 132030Z AUTO 25005KT M04/M15 A2995 560 44 -1600 260/05 RMK AO1 T10441150
54779K12N 12N20160113153510201/13/16 15:35:31  5-MIN K12N 132035Z AUTO VRB06KT M04/M16 A2995 560 42 -1600 VRB/06 RMK AO1 T10441156
54779K12N 12N20160113154010201/13/16 15:40:31  5-MIN K12N 132040Z AUTO 26006KT M04/M16 A2995 560 42 -1600 270/06 RMK AO1 T10441156
54779K12N 12N20160113154511801/13/16 15:45:31  5-MIN K12N 132045Z AUTO 32007KT 280V020 M04/M16 A2995 560 42 -1600 330/07 290V030 RMK AO1 T10441156
54779K12N 12N20160113155013101/13/16 15:50:31  5-MIN K12N 132050Z AUTO 29007KT 270V330 M04/M16 A2995 560 42 -1600 310/07 280V340 RMK AO1 SLP157 T10441156 58009
54779K12N 12N20160113155510201/13/16 15:55:31  5-MIN K12N 132055Z AUTO VRB05KT M04/M16 A2995 560 42 -1600 VRB/05 RMK AO1 T10441156
54779K12N 12N20160113160010201/13/16 16:00:31  5-MIN K12N 132100Z AUTO VRB06KT M04/M16 A2995 560 42 -1600 VRB/06 RMK AO1 T10441156
54779K12N 12N20160113160510201/13/16 16:05:31  5-MIN K12N 132105Z AUTO VRB06KT M04/M16 A2995 560 42 -1600 VRB/06 RMK AO1 T10441156
54779K12N 12N20160113161011801/13/16 16:10:31  5-MIN K12N 132110Z AUTO 29007KT 240V330 M05/M16 A2995 560 44 -1700 300/07 250V340 RMK AO1 T10501156
54779K12N 12N20160113161510201/13/16 16:15:31  5-MIN K12N 132115Z AUTO VRB04KT M05/M16 A2995 560 44 -1700 VRB/04 RMK AO1 T10501156
54779K12N 12N20160113162010201/13/16 16:20:31  5-MIN K12N 132120Z AUTO 00000KT M06/M16 A2995 560 45 -1800 000/00 RMK AO1 T10561156
54779K12N 12N20160113162510201/13/16 16:25:31  5-MIN K12N 132125Z AUTO VRB04KT M06/M16 A2995 560 45 -1800 VRB/04 RMK AO1 T10561156
54779K12N 12N20160113163010201/13/16 16:30:31  5-MIN K12N 132130Z AUTO VRB06KT M06/M16 A2995 560 45 -1800 VRB/06 RMK AO1 T10561156
54779K12N 12N20160113163510201/13/16 16:35:31  5-MIN K12N 132135Z AUTO 00000KT M06/M16 A2995 550 45 -1800 000/00 RMK AO1 T10561156
54779K12N 12N20160113164010201/13/16 16:40:31  5-MIN K12N 132140Z AUTO 31004KT M06/M16 A2996 550 45 -1800 320/04 RMK AO1 T10561156
54779K12N 12N20160113164510201/13/16 16:45:31  5-MIN K12N 132145Z AUTO 32005KT M06/M16 A2996 550 45 -1800 340/05 RMK AO1 T10561156
54779K12N 12N20160113165010901/13/16 16:50:31  5-MIN K12N 132150Z AUTO 00000KT M06/M16 A2996 550 45 -1800 000/00 RMK AO1 SLP160 T10561156
54779K12N 12N20160113165510201/13/16 16:55:31  5-MIN K12N 132155Z AUTO VRB03KT M06/M16 A2996 550 47 -1800 VRB/03 RMK AO1 T10611156
54779K12N 12N20160113170010201/13/16 17:00:31  5-MIN K12N 132200Z AUTO VRB03KT M06/M16 A2997 540 47 -1800 VRB/03 RMK AO1 T10611156
54779K12N 12N20160113170510201/13/16 17:05:31  5-MIN K12N 132205Z AUTO 00000KT M06/M16 A2997 540 45 -1900 000/00 RMK AO1 T10611161
54779K12N 12N20160113171010201/13/16 17:10:31  5-MIN K12N 132210Z AUTO 00000KT M06/M16 A2997 540 47 -1900 000/00 RMK AO1 T10611156
54779K12N 12N20160113171510201/13/16 17:15:31  5-MIN K12N 132215Z AUTO VRB03KT M06/M16 A2997 540 47 -1900 VRB/03 RMK AO1 T10611156
54779K12N 12N20160113172010201/13/16 17:20:31  5-MIN K12N 132220Z AUTO VRB04KT M06/M16 A2997 540 47 -1900 VRB/04 RMK AO1 T10611156
54779K12N 12N20160113172510201/13/16 17:25:31  5-MIN K12N 132225Z AUTO VRB04KT M06/M16 A2998 530 47 -1900 VRB/04 RMK AO1 T10611156
54779K12N 12N20160113173010201/13/16 17:30:31  5-MIN K12N 132230Z AUTO VRB05KT M06/M16 A2998 530 47 -1900 VRB/05 RMK AO1 T10611156
54779K12N 12N20160113173509201/13/16 17:35:31  5-MIN K12N 132235Z AUTO M07/M16 A2998 530 49 -1900 M /M RMK AO1 T10671156
54779K12N 12N20160113174010201/13/16 17:40:31  5-MIN K12N 132240Z AUTO VRB04KT M07/M16 A2998 530 49 -1900 VRB/04 RMK AO1 T10671156
54779K12N 12N20160113174510201/13/16 17:45:31  5-MIN K12N 132245Z AUTO VRB03KT M07/M16 A2998 530 49 -1900 VRB/03 RMK AO1 T10671156
54779K12N 12N20160113175010901/13/16 17:50:31  5-MIN K12N 132250Z AUTO VRB04KT M07/M16 A2999 520 49 -1900 VRB/04 RMK AO1 SLP171 T10671156
54779K12N 12N20160113175510201/13/16 17:55:31  5-MIN K12N 132255Z AUTO VRB04KT M07/M16 A2999 520 49 -1900 VRB/04 RMK AO1 T10671156
54779K12N 12N20160113180010201/13/16 18:00:31  5-MIN K12N 132300Z AUTO 00000KT M07/M16 A2999 520 49 -1900 000/00 RMK AO1 T10671156
54779K12N 12N20160113180509201/13/16 18:05:31  5-MIN K12N 132305Z AUTO M07/M16 A2999 520 49 -1900 M /M RMK AO1 T10671156
54779K12N 12N20160113181010201/13/16 18:10:31  5-MIN K12N 132310Z AUTO 24004KT M07/M16 A2999 520 49 -2000 250/04 RMK AO1 T10671156
54779K12N 12N20160113181510201/13/16 18:15:31  5-MIN K12N 132315Z AUTO VRB06KT M07/M16 A2999 520 52 -2000 VRB/06 RMK AO1 T10721156
54779K12N 12N20160113182010201/13/16 18:20:31  5-MIN K12N 132320Z AUTO 23006KT M07/M16 A3000 510 52 -2000 240/06 RMK AO1 T10721156
54779K12N 12N20160113182510201/13/16 18:25:31  5-MIN K12N 132325Z AUTO 23004KT M07/M16 A3000 510 52 -2000 240/04 RMK AO1 T10721156
54779K12N 12N20160113183010201/13/16 18:30:31  5-MIN K12N 132330Z AUTO VRB04KT M07/M16 A3000 510 52 -2000 VRB/04 RMK AO1 T10721156
54779K12N 12N20160113183510201/13/16 18:35:31  5-MIN K12N 132335Z AUTO VRB04KT M07/M16 A3000 510 52 -2000 VRB/04 RMK AO1 T10721156
54779K12N 12N20160113184010201/13/16 18:40:31  5-MIN K12N 132340Z AUTO VRB04KT M07/M16 A3000 510 52 -2000 VRB/04 RMK AO1 T10721156
54779K12N 12N20160113184510201/13/16 18:45:31  5-MIN K12N 132345Z AUTO VRB04KT M07/M16 A3001 510 52 -2000 VRB/04 RMK AO1 T10721156
54779K12N 12N20160113185012701/13/16 18:50:31  5-MIN K12N 132350Z AUTO VRB03KT M07/M16 A3001 510 52 -2000 VRB/03 RMK AO1 SLP178 T10721156 11039 21072 55004
54779K12N 12N20160113185510201/13/16 18:55:31  5-MIN K12N 132355Z AUTO VRB04KT M07/M16 A3000 510 52 -2000 VRB/04 RMK AO1 T10721156
54779K12N 12N20160113190010201/13/16 19:00:31  5-MIN K12N 140000Z AUTO VRB04KT M07/M16 A3000 510 52 -2000 VRB/04 RMK AO1 T10721156
54779K12N 12N20160113190510201/13/16 19:05:31  5-MIN K12N 140005Z AUTO 22007KT M07/M16 A3000 510 52 -2000 240/07 RMK AO1 T10721156
54779K12N 12N20160113191010201/13/16 19:10:31  5-MIN K12N 140010Z AUTO VRB04KT M07/M16 A3000 510 49 -2000 VRB/04 RMK AO1 T10671156
54779K12N 12N20160113191510201/13/16 19:15:31  5-MIN K12N 140015Z AUTO VRB05KT M07/M16 A3000 510 49 -2000 VRB/05 RMK AO1 T10671156
54779K12N 12N20160113192010201/13/16 19:20:31  5-MIN K12N 140020Z AUTO VRB04KT M07/M16 A3000 510 52 -2000 VRB/04 RMK AO1 T10721156
54779K12N 12N20160113192510201/13/16 19:25:31  5-MIN K12N 140025Z AUTO 22004KT M07/M16 A3000 510 52 -2000 230/04 RMK AO1 T10721156
54779K12N 12N20160113193010201/13/16 19:30:31  5-MIN K12N 140030Z AUTO 00000KT M07/M16 A2999 520 52 -2000 000/00 RMK AO1 T10721156
54779K12N 12N20160113193509201/13/16 19:35:31  5-MIN K12N 140035Z AUTO M07/M16 A3000 510 52 -2000 M /M RMK AO1 T10721156
54779K12N 12N20160113194010201/13/16 19:40:31  5-MIN K12N 140040Z AUTO VRB04KT M07/M16 A3000 510 49 -2000 VRB/04 RMK AO1 T10671156
54779K12N 12N20160113194510201/13/16 19:45:31  5-MIN K12N 140045Z AUTO VRB05KT M07/M16 A3000 510 49 -2000 VRB/05 RMK AO1 T10671156
54779K12N 12N20160113195010901/13/16 19:50:31  5-MIN K12N 140050Z AUTO 25004KT M07/M16 A3000 510 49 -2000 270/04 RMK AO1 SLP175 T10671156
54779K12N 12N20160113195510201/13/16 19:55:31  5-MIN K12N 140055Z AUTO VRB03KT M07/M16 A3000 520 49 -2000 VRB/03 RMK AO1 T10671156
54779K12N 12N20160113200010201/13/16 20:00:31  5-MIN K12N 140100Z AUTO VRB05KT M07/M16 A2999 520 52 -2000 VRB/05 RMK AO1 T10721156
54779K12N 12N20160113200510201/13/16 20:05:31  5-MIN K12N 140105Z AUTO 00000KT M07/M16 A2999 520 52 -2000 000/00 RMK AO1 T10721156
54779K12N 12N20160113201010201/13/16 20:10:31  5-MIN K12N 140110Z AUTO VRB04KT M07/M16 A2999 520 52 -2000 VRB/04 RMK AO1 T10721156
54779K12N 12N20160113201510201/13/16 20:15:31  5-MIN K12N 140115Z AUTO VRB04KT M07/M16 A2999 520 52 -2000 VRB/04 RMK AO1 T10721156
54779K12N 12N20160113202010201/13/16 20:20:31  5-MIN K12N 140120Z AUTO 00000KT M07/M16 A2999 520 52 -2000 000/00 RMK AO1 T10721156
54779K12N 12N20160113202510201/13/16 20:25:31  5-MIN K12N 140125Z AUTO 28003KT M07/M16 A2998 530 52 -2000 290/03 RMK AO1 T10721156
54779K12N 12N20160113203010201/13/16 20:30:31  5-MIN K12N 140130Z AUTO VRB03KT M07/M16 A2999 520 52 -2000 VRB/03 RMK AO1 T10721156
54779K12N 12N20160113203510201/13/16 20:35:31  5-MIN K12N 140135Z AUTO VRB04KT M07/M16 A2999 520 52 -2000 VRB/04 RMK AO1 T10721156
54779K12N 12N20160113204010201/13/16 20:40:31  5-MIN K12N 140140Z AUTO 00000KT M07/M16 A2998 530 52 -2000 000/00 RMK AO1 T10721156
54779K12N 12N20160113204510201/13/16 20:45:31  5-MIN K12N 140145Z AUTO 00000KT M07/M16 A2998 530 52 -2000 000/00 RMK AO1 T10721156
54779K12N 12N20160113205010901/13/16 20:50:31  5-MIN K12N 140150Z AUTO 00000KT M07/M16 A2998 530 52 -2000 000/00 RMK AO1 SLP169 T10721156
54779K12N 12N20160113205011801/13/16 20:50:31  5-MIN K12N 140150Z AUTO 00000KT M07/M16 A2998 530 52 -2000 000/00 RMK AO1 SLP169 T107211561 FERNG,#
54779K12N 12N20160113205510201/13/16 20:55:31  5-MIN K12N 140155Z AUTO 00000KT M07/M16 A2998 530 52 -2000 000/00 RMK AO1 T10721156
54779K12N 12N20160113210010201/13/16 21:00:31  5-MIN K12N 140200Z AUTO 00000KT M07/M15 A2998 530 54 -2000 000/00 RMK AO1 T10721150
54779K12N 12N20160113210510201/13/16 21:05:31  5-MIN K12N 140205Z AUTO VRB04KT M07/M15 A2998 530 54 -2000 VRB/04 RMK AO1 T10721150
54779K12N 12N20160113211010201/13/16 21:10:31  5-MIN K12N 140210Z AUTO VRB03KT M07/M15 A2998 530 54 -2000 VRB/03 RMK AO1 T10721150
54779K12N 12N20160113211510201/13/16 21:15:31  5-MIN K12N 140215Z AUTO 24005KT M07/M15 A2998 530 54 -2000 250/05 RMK AO1 T10721150
54779K12N 12N20160113212010201/13/16 21:20:31  5-MIN K12N 140220Z AUTO VRB05KT M07/M15 A2998 530 54 -2000 VRB/05 RMK AO1 T10721150
54779K12N 12N20160113212510201/13/16 21:25:31  5-MIN K12N 140225Z AUTO 21004KT M07/M15 A2998 530 54 -2000 220/04 RMK AO1 T10721150
54779K12N 12N20160113213010201/13/16 21:30:31  5-MIN K12N 140230Z AUTO VRB06KT M07/M15 A2998 530 54 -2000 VRB/06 RMK AO1 T10721150
54779K12N 12N20160113213510201/13/16 21:35:31  5-MIN K12N 140235Z AUTO 22004KT M07/M15 A2998 530 54 -2000 240/04 RMK AO1 T10721150
54779K12N 12N20160113214010201/13/16 21:40:31  5-MIN K12N 140240Z AUTO VRB05KT M07/M15 A2998 530 54 -2000 VRB/05 RMK AO1 T10721150
54779K12N 12N20160113214510201/13/16 21:45:31  5-MIN K12N 140245Z AUTO 23006KT M07/M15 A2999 520 54 -2000 240/06 RMK AO1 T10721150
54779K12N 12N20160113215011501/13/16 21:50:31  5-MIN K12N 140250Z AUTO VRB03KT M07/M15 A2999 520 54 -2000 VRB/03 RMK AO1 SLP171 T10721150 53018
54779K12N 12N20160113215510201/13/16 21:55:31  5-MIN K12N 140255Z AUTO 21006KT M07/M15 A2999 520 54 -2000 230/06 RMK AO1 T10721150
54779K12N 12N20160113220010201/13/16 22:00:31  5-MIN K12N 140300Z AUTO VRB05KT M07/M15 A2999 520 54 -2000 VRB/05 RMK AO1 T10721150
54779K12N 12N20160113220510201/13/16 22:05:31  5-MIN K12N 140305Z AUTO VRB05KT M07/M16 A2999 520 52 -2000 VRB/05 RMK AO1 T10721156
54779K12N 12N20160113221010201/13/16 22:10:31  5-MIN K12N 140310Z AUTO 26007KT M07/M15 A2998 530 54 -2000 270/07 RMK AO1 T10721150
54779K12N 12N20160113221510201/13/16 22:15:31  5-MIN K12N 140315Z AUTO 00000KT M07/M15 A2999 520 54 -2000 000/00 RMK AO1 T10721150
54779K12N 12N20160113222010201/13/16 22:20:31  5-MIN K12N 140320Z AUTO 23005KT M07/M16 A2999 520 52 -2000 250/05 RMK AO1 T10721156
54779K12N 12N20160113222510201/13/16 22:25:31  5-MIN K12N 140325Z AUTO VRB06KT M07/M16 A2999 520 52 -2000 VRB/06 RMK AO1 T10721156
54779K12N 12N20160113223010201/13/16 22:30:31  5-MIN K12N 140330Z AUTO VRB04KT M07/M16 A2999 530 52 -2000 VRB/04 RMK AO1 T10721156
54779K12N 12N20160114074510201/14/16 07:45:31  5-MIN K12N 141245Z AUTO 21004KT M07/M09 A2991 590 84 -1900 220/04 RMK AO1 T10721094
54779K12N 12N20160114075007201/14/16 07:50:31  5-MIN K12N 141250Z AUTO VRB04KT M07/M09 A2991 590 84 
54779K12N 12N20160114212510201/14/16 21:25:31  5-MIN K12N 150225Z AUTO 00000KT M03/M05 A2994 560 85 -1400 000/00 RMK AO1 T10281050
54779K12N 12N20160114213010201/14/16 21:30:31  5-MIN K12N 150230Z AUTO 00000KT M03/M05 A2995 560 85 -1400 000/00 RMK AO1 T10281050
54779K12N 12N20160114213510201/14/16 21:35:31  5-MIN K12N 150235Z AUTO 00000KT M03/M04 A2995 560 88 -1400 000/00 RMK AO1 T10281044
54779K12N 12N20160114214010201/14/16 21:40:31  5-MIN K12N 150240Z AUTO 00000KT M02/M04 A2995 560 85 -1300 000/00 RMK AO1 T10221044
54779K12N 12N20160114214510201/14/16 21:45:31  5-MIN K12N 150245Z AUTO 00000KT M02/M04 A2995 560 88 -1300 000/00 RMK AO1 T10221039
54779K12N 12N20160114215011501/14/16 21:50:31  5-MIN K12N 150250Z AUTO 00000KT M02/M04 A2995 560 88 -1300 000/00 RMK AO1 SLP156 T10221039 51013
54779K12N 12N20160114215510201/14/16 21:55:31  5-MIN K12N 150255Z AUTO 00000KT M02/M04 A2995 560 88 -1300 000/00 RMK AO1 T10221039
54779K12N 12N20160114220010201/14/16 22:00:31  5-MIN K12N 150300Z AUTO 00000KT M02/M04 A2995 560 88 -1300 000/00 RMK AO1 T10221039
54779K12N 12N20160114220510201/14/16 22:05:31  5-MIN K12N 150305Z AUTO 00000KT M02/M04 A2994 560 85 -1300 000/00 RMK AO1 T10221044
54779K12N 12N20160114221010201/14/16 22:10:31  5-MIN K12N 150310Z AUTO 00000KT M02/M04 A2995 560 88 -1300 000/00 RMK AO1 T10221039
54779K12N 12N20160114221510201/14/16 22:15:31  5-MIN K12N 150315Z AUTO 00000KT M02/M04 A2994 560 85 -1300 000/00 RMK AO1 T10221044
54779K12N 12N20160114222010201/14/16 22:20:31  5-MIN K12N 150320Z AUTO 00000KT M02/M04 A2994 570 81 -1300 000/00 RMK AO1 T10171044
54779K12N 12N20160114222510201/14/16 22:25:31  5-MIN K12N 150325Z AUTO 00000KT M02/M04 A2994 570 81 -1200 000/00 RMK AO1 T10171044
54779K12N 12N20160114223010201/14/16 22:30:31  5-MIN K12N 150330Z AUTO 00000KT M02/M04 A2994 570 88 -1300 000/00 RMK AO1 T10221039
54779K12N 12N20160114223510201/14/16 22:35:31  5-MIN K12N 150335Z AUTO 00000KT M02/M04 A2994 570 85 -1300 000/00 RMK AO1 T10221044
54779K12N 12N20160114224010201/14/16 22:40:31  5-MIN K12N 150340Z AUTO 00000KT M02/M04 A2994 570 81 -1200 000/00 RMK AO1 T10171044
54779K12N 12N20160114224510201/14/16 22:45:31  5-MIN K12N 150345Z AUTO 00000KT M02/M04 A2994 570 81 -1200 000/00 RMK AO1 T10171044
54779K12N 12N20160114225010901/14/16 22:50:31  5-MIN K12N 150350Z AUTO 00000KT M02/M05 A2994 570 78 -1200 000/00 RMK AO1 SLP150 T10171050
54779K12N 12N20160114225510201/14/16 22:55:31  5-MIN K12N 150355Z AUTO 00000KT M02/M04 A2993 570 81 -1200 000/00 RMK AO1 T10171044
54779K12N 12N20160114230010201/14/16 23:00:31  5-MIN K12N 150400Z AUTO 00000KT M02/M04 A2993 570 81 -1200 000/00 RMK AO1 T10171044
54779K12N 12N20160114230510201/14/16 23:05:31  5-MIN K12N 150405Z AUTO 00000KT M02/M04 A2994 570 85 -1300 000/00 RMK AO1 T10221044
54779K12N 12N20160114231010201/14/16 23:10:31  5-MIN K12N 150410Z AUTO 00000KT M02/M04 A2993 570 81 -1200 000/00 RMK AO1 T10171044
54779K12N 12N20160114231510201/14/16 23:15:31  5-MIN K12N 150415Z AUTO 00000KT M02/M04 A2993 570 85 -1300 000/00 RMK AO1 T10221044
54779K12N 12N20160114232010201/14/16 23:20:31  5-MIN K12N 150420Z AUTO 00000KT M02/M04 A2993 570 85 -1300 000/00 RMK AO1 T10221044
54779K12N 12N20160114232510201/14/16 23:25:31  5-MIN K12N 150425Z AUTO 00000KT M02/M05 A2993 570 81 -1300 000/00 RMK AO1 T10221050
54779K12N 12N20160114233010201/14/16 23:30:31  5-MIN K12N 150430Z AUTO 00000KT M02/M04 A2993 570 85 -1300 000/00 RMK AO1 T10221044
54779K12N 12N20160114233510201/14/16 23:35:31  5-MIN K12N 150435Z AUTO 00000KT M02/M04 A2993 580 85 -1300 000/00 RMK AO1 T10221044
54779K12N 12N20160114234010201/14/16 23:40:31  5-MIN K12N 150440Z AUTO 00000KT M02/M04 A2993 580 85 -1300 000/00 RMK AO1 T10221044
54779K12N 12N20160114234510201/14/16 23:45:31  5-MIN K12N 150445Z AUTO 00000KT M02/M05 A2993 580 81 -1300 000/00 RMK AO1 T10221050
54779K12N 12N20160114235011901/14/16 23:50:31  5-MIN K12N 150450Z AUTO 00000KT M03/M05 A2992 580 85 -1400 000/00 RMK AO1 SLP146 T10281050 400061083
54779K12N 12N20160114235510201/14/16 23:55:31  5-MIN K12N 150455Z AUTO 00000KT M03/M05 A2993 580 85 -1400 000/00 RMK AO1 T10281050
54779K12N 12N20160115000010201/15/16 00:00:31  5-MIN K12N 150500Z AUTO 00000KT M03/M06 A2992 580 81 -1400 000/00 RMK AO1 T10281056
54779K12N 12N20160115000510201/15/16 00:05:31  5-MIN K12N 150505Z AUTO 00000KT M03/M06 A2992 580 85 -1400 000/00 RMK AO1 T10331056
54779K12N 12N20160115001010201/15/16 00:10:31  5-MIN K12N 150510Z AUTO 00000KT M03/M06 A2992 590 85 -1400 000/00 RMK AO1 T10331056
54779K12N 12N20160115001510201/15/16 00:15:31  5-MIN K12N 150515Z AUTO 00000KT M03/M06 A2992 590 85 -1400 000/00 RMK AO1 T10331056
54779K12N 12N20160115002010201/15/16 00:20:31  5-MIN K12N 150520Z AUTO 00000KT M03/M06 A2992 590 85 -1400 000/00 RMK AO1 T10331056
54779K12N 12N20160115002510201/15/16 00:25:31  5-MIN K12N 150525Z AUTO 00000KT M03/M05 A2992 590 88 -1400 000/00 RMK AO1 T10331050
54779K12N 12N20160115003010201/15/16 00:30:31  5-MIN K12N 150530Z AUTO 00000KT M04/M06 A2991 590 88 -1500 000/00 RMK AO1 T10391056
54779K12N 12N20160115003510201/15/16 00:35:31  5-MIN K12N 150535Z AUTO 00000KT M04/M06 A2991 590 88 -1500 000/00 RMK AO1 T10391056
54779K12N 12N20160115004010201/15/16 00:40:31  5-MIN K12N 150540Z AUTO 00000KT M04/M06 A2991 600 92 -1600 000/00 RMK AO1 T10441056
54779K12N 12N20160115004510201/15/16 00:45:31  5-MIN K12N 150545Z AUTO 00000KT M04/M06 A2991 600 92 -1600 000/00 RMK AO1 T10441056
54779K12N 12N20160115005012701/15/16 00:50:31  5-MIN K12N 150550Z AUTO 00000KT M04/M06 A2991 600 88 -1500 000/00 RMK AO1 SLP140 T10391056 10000 21044 51003
54779K12N 12N20160115005510201/15/16 00:55:31  5-MIN K12N 150555Z AUTO 00000KT M04/M06 A2991 590 88 -1500 000/00 RMK AO1 T10391056
54779K12N 12N20160115010010201/15/16 01:00:31  5-MIN K12N 150600Z AUTO 00000KT M04/M06 A2991 590 92 -1600 000/00 RMK AO1 T10441056
54779K12N 12N20160115010510201/15/16 01:05:31  5-MIN K12N 150605Z AUTO 00000KT M04/M06 A2991 590 88 -1500 000/00 RMK AO1 T10391056
54779K12N 12N20160115011010201/15/16 01:10:31  5-MIN K12N 150610Z AUTO 00000KT M04/M06 A2991 590 88 -1500 000/00 RMK AO1 T10391056
54779K12N 12N20160115011510201/15/16 01:15:31  5-MIN K12N 150615Z AUTO 00000KT M04/M06 A2991 590 88 -1600 000/00 RMK AO1 T10441061
54779K12N 12N20160115012010201/15/16 01:20:31  5-MIN K12N 150620Z AUTO 00000KT M04/M06 A2991 590 88 -1600 000/00 RMK AO1 T10441061
54779K12N 12N20160115012510201/15/16 01:25:31  5-MIN K12N 150625Z AUTO 00000KT M04/M06 A2991 600 88 -1600 000/00 RMK AO1 T10441061
54779K12N 12N20160115013010201/15/16 01:30:31  5-MIN K12N 150630Z AUTO 00000KT M04/M06 A2991 600 88 -1600 000/00 RMK AO1 T10441061
54779K12N 12N20160115013510201/15/16 01:35:31  5-MIN K12N 150635Z AUTO 00000KT M04/M06 A2991 590 88 -1600 000/00 RMK AO1 T10441061
54779K12N 12N20160115014010201/15/16 01:40:31  5-MIN K12N 150640Z AUTO 00000KT M04/M06 A2991 590 88 -1600 000/00 RMK AO1 T10441061
54779K12N 12N20160115014510201/15/16 01:45:31  5-MIN K12N 150645Z AUTO 00000KT M04/M06 A2992 590 88 -1600 000/00 RMK AO1 T10441061
54779K12N 12N20160115015010901/15/16 01:50:31  5-MIN K12N 150650Z AUTO 00000KT M04/M06 A2992 580 88 -1600 000/00 RMK AO1 SLP144 T10441061
54779K12N 12N20160115015510201/15/16 01:55:31  5-MIN K12N 150655Z AUTO 00000KT M04/M06 A2992 580 88 -1600 000/00 RMK AO1 T10441061
54779K12N 12N20160115020010201/15/16 02:00:31  5-MIN K12N 150700Z AUTO 00000KT M04/M06 A2992 580 88 -1600 000/00 RMK AO1 T10441061
54779K12N 12N20160115020510201/15/16 02:05:31  5-MIN K12N 150705Z AUTO 00000KT M05/M06 A2993 580 92 -1700 000/00 RMK AO1 T10501061
54779K12N 12N20160115021010201/15/16 02:10:31  5-MIN K12N 150710Z AUTO 00000KT M04/M06 A2993 580 88 -1600 000/00 RMK AO1 T10441061
54779K12N 12N20160115021510201/15/16 02:15:31  5-MIN K12N 150715Z AUTO 00000KT M05/M06 A2993 580 92 -1700 000/00 RMK AO1 T10501061
54779K12N 12N20160115022010201/15/16 02:20:31  5-MIN K12N 150720Z AUTO 00000KT M04/M06 A2993 580 88 -1600 000/00 RMK AO1 T10441061
54779K12N 12N20160115022510201/15/16 02:25:31  5-MIN K12N 150725Z AUTO 00000KT M05/M06 A2993 580 92 -1700 000/00 RMK AO1 T10501061
54779K12N 12N20160115023010201/15/16 02:30:31  5-MIN K12N 150730Z AUTO 00000KT M05/M06 A2992 580 92 -1700 000/00 RMK AO1 T10501061
54779K12N 12N20160115023510201/15/16 02:35:31  5-MIN K12N 150735Z AUTO 00000KT M04/M06 A2992 580 88 -1600 000/00 RMK AO1 T10441061
54779K12N 12N20160115024010201/15/16 02:40:31  5-MIN K12N 150740Z AUTO 00000KT M04/M06 A2992 590 88 -1600 000/00 RMK AO1 T10441061
54779K12N 12N20160115024510201/15/16 02:45:31  5-MIN K12N 150745Z AUTO 00000KT M04/M06 A2992 580 88 -1600 000/00 RMK AO1 T10441061
54779K12N 12N20160115025010901/15/16 02:50:31  5-MIN K12N 150750Z AUTO 00000KT M04/M06 A2992 580 88 -1600 000/00 RMK AO1 SLP145 T10441061
54779K12N 12N20160115025510201/15/16 02:55:31  5-MIN K12N 150755Z AUTO 00000KT M04/M06 A2992 580 88 -1600 000/00 RMK AO1 T10441061
54779K12N 12N20160115030010201/15/16 03:00:31  5-MIN K12N 150800Z AUTO 00000KT M04/M06 A2993 580 88 -1600 000/00 RMK AO1 T10441061
54779K12N 12N20160115030510201/15/16 03:05:31  5-MIN K12N 150805Z AUTO 00000KT M05/M06 A2992 580 92 -1700 000/00 RMK AO1 T10501061
54779K12N 12N20160115031010201/15/16 03:10:31  5-MIN K12N 150810Z AUTO 00000KT M05/M06 A2992 580 92 -1700 000/00 RMK AO1 T10501061
54779K12N 12N20160115031510201/15/16 03:15:31  5-MIN K12N 150815Z AUTO 00000KT M06/M07 A2992 580 92 -1700 000/00 RMK AO1 T10561067
54779K12N 12N20160115032010201/15/16 03:20:31  5-MIN K12N 150820Z AUTO 00000KT M06/M07 A2992 580 92 -1700 000/00 RMK AO1 T10561067
54779K12N 12N20160115032510201/15/16 03:25:31  5-MIN K12N 150825Z AUTO 00000KT M06/M07 A2992 580 92 -1700 000/00 RMK AO1 T10561067
54779K12N 12N20160115033010201/15/16 03:30:31  5-MIN K12N 150830Z AUTO 00000KT M06/M07 A2992 580 92 -1700 000/00 RMK AO1 T10561067
54779K12N 12N20160115033510201/15/16 03:35:31  5-MIN K12N 150835Z AUTO 00000KT M06/M07 A2992 580 92 -1700 000/00 RMK AO1 T10561067
54779K12N 12N20160115034010201/15/16 03:40:31  5-MIN K12N 150840Z AUTO 00000KT M06/M07 A2992 590 92 -1700 000/00 RMK AO1 T10561067
54779K12N 12N20160115034510201/15/16 03:45:31  5-MIN K12N 150845Z AUTO 00000KT M05/M07 A2992 590 88 -1600 000/00 RMK AO1 T10501067
54779K12N 12N20160115035011501/15/16 03:50:31  5-MIN K12N 150850Z AUTO 00000KT M05/M07 A2992 590 88 -1700 000/00 RMK AO1 SLP143 T10501067 58013
54779K12N 12N20160115035510201/15/16 03:55:31  5-MIN K12N 150855Z AUTO 00000KT M06/M07 A2992 580 92 -1700 000/00 RMK AO1 T10561067
54779K12N 12N20160115040010201/15/16 04:00:31  5-MIN K12N 150900Z AUTO 00000KT M05/M07 A2992 580 88 -1700 000/00 RMK AO1 T10501067
54779K12N 12N20160115040510201/15/16 04:05:31  5-MIN K12N 150905Z AUTO 00000KT M05/M07 A2992 590 88 -1700 000/00 RMK AO1 T10501067
54779K12N 12N20160115041010201/15/16 04:10:31  5-MIN K12N 150910Z AUTO 00000KT M06/M07 A2992 590 92 -1700 000/00 RMK AO1 T10561067
54779K12N 12N20160115041510201/15/16 04:15:31  5-MIN K12N 150915Z AUTO 00000KT M06/M07 A2992 590 92 -1700 000/00 RMK AO1 T10561067
54779K12N 12N20160115042010201/15/16 04:20:31  5-MIN K12N 150920Z AUTO 00000KT M05/M07 A2992 590 88 -1700 000/00 RMK AO1 T10501067
54779K12N 12N20160115042510201/15/16 04:25:31  5-MIN K12N 150925Z AUTO 00000KT M06/M07 A2992 580 92 -1700 000/00 RMK AO1 T10561067
54779K12N 12N20160115043010201/15/16 04:30:31  5-MIN K12N 150930Z AUTO 00000KT M06/M07 A2992 590 92 -1700 000/00 RMK AO1 T10561067
54779K12N 12N20160115043510201/15/16 04:35:31  5-MIN K12N 150935Z AUTO 00000KT M06/M07 A2992 590 92 -1700 000/00 RMK AO1 T10561067
54779K12N 12N20160115044010201/15/16 04:40:31  5-MIN K12N 150940Z AUTO 00000KT M06/M07 A2992 590 92 -1700 000/00 RMK AO1 T10561067
54779K12N 12N20160115044510201/15/16 04:45:31  5-MIN K12N 150945Z AUTO 00000KT M06/M07 A2992 580 92 -1700 000/00 RMK AO1 T10561067
54779K12N 12N20160115045010901/15/16 04:50:31  5-MIN K12N 150950Z AUTO 00000KT M06/M07 A2992 580 92 -1700 000/00 RMK AO1 SLP145 T10561067
54779K12N 12N20160115045510201/15/16 04:55:31  5-MIN K12N 150955Z AUTO 00000KT M06/M07 A2992 580 92 -1700 000/00 RMK AO1 T10561067
54779K12N 12N20160115050010201/15/16 05:00:31  5-MIN K12N 151000Z AUTO 00000KT M06/M07 A2992 580 92 -1700 000/00 RMK AO1 T10561067
54779K12N 12N20160115050510201/15/16 05:05:31  5-MIN K12N 151005Z AUTO 00000KT M05/M06 A2992 590 92 -1700 000/00 RMK AO1 T10501061
54779K12N 12N20160115051010201/15/16 05:10:31  5-MIN K12N 151010Z AUTO 00000KT M05/M06 A2992 590 92 -1700 000/00 RMK AO1 T10501061
54779K12N 12N20160115051510201/15/16 05:15:31  5-MIN K12N 151015Z AUTO 00000KT M05/M06 A2992 580 92 -1700 000/00 RMK AO1 T10501061
54779K12N 12N20160115052010201/15/16 05:20:31  5-MIN K12N 151020Z AUTO 00000KT M05/M06 A2992 590 92 -1700 000/00 RMK AO1 T10501061
54779K12N 12N20160115052510201/15/16 05:25:31  5-MIN K12N 151025Z AUTO 00000KT M05/M06 A2992 580 92 -1700 000/00 RMK AO1 T10501061
54779K12N 12N20160115053010201/15/16 05:30:31  5-MIN K12N 151030Z AUTO 00000KT M05/M06 A2992 580 92 -1700 000/00 RMK AO1 T10501061
54779K12N 12N20160115053510201/15/16 05:35:31  5-MIN K12N 151035Z AUTO 00000KT M05/M06 A2993 580 92 -1700 000/00 RMK AO1 T10501061
54779K12N 12N20160115054010201/15/16 05:40:31  5-MIN K12N 151040Z AUTO 00000KT M05/M07 A2993 580 88 -1700 000/00 RMK AO1 T10501067
54779K12N 12N20160115054510201/15/16 05:45:31  5-MIN K12N 151045Z AUTO 00000KT M05/M06 A2992 580 92 -1700 000/00 RMK AO1 T10501061
54779K12N 12N20160115055010901/15/16 05:50:31  5-MIN K12N 151050Z AUTO 00000KT M06/M07 A2993 580 92 -1700 000/00 RMK AO1 SLP148 T10561067
54779K12N 12N20160115055510201/15/16 05:55:31  5-MIN K12N 151055Z AUTO 00000KT M06/M07 A2993 580 92 -1700 000/00 RMK AO1 T10561067
54779K12N 12N20160115060010201/15/16 06:00:31  5-MIN K12N 151100Z AUTO 00000KT M05/M07 A2993 580 88 -1700 000/00 RMK AO1 T10501067
54779K12N 12N20160115060510201/15/16 06:05:31  5-MIN K12N 151105Z AUTO 00000KT M05/M07 A2992 580 88 -1700 000/00 RMK AO1 T10501067
54779K12N 12N20160115061010201/15/16 06:10:31  5-MIN K12N 151110Z AUTO 00000KT M05/M07 A2993 580 88 -1700 000/00 RMK AO1 T10501067
54779K12N 12N20160115061510201/15/16 06:15:31  5-MIN K12N 151115Z AUTO 00000KT M05/M06 A2993 580 92 -1700 000/00 RMK AO1 T10501061
54779K12N 12N20160115062010201/15/16 06:20:31  5-MIN K12N 151120Z AUTO 00000KT M05/M06 A2993 580 92 -1700 000/00 RMK AO1 T10501061
54779K12N 12N20160115062510201/15/16 06:25:31  5-MIN K12N 151125Z AUTO 00000KT M05/M06 A2993 580 92 -1700 000/00 RMK AO1 T10501061
54779K12N 12N20160115063010201/15/16 06:30:31  5-MIN K12N 151130Z AUTO 00000KT M05/M06 A2993 580 96 -1700 000/00 RMK AO1 T10501056
54779K12N 12N20160115063510201/15/16 06:35:31  5-MIN K12N 151135Z AUTO 00000KT M04/M06 A2992 580 92 -1600 000/00 RMK AO1 T10441056
54779K12N 12N20160115064010201/15/16 06:40:31  5-MIN K12N 151140Z AUTO 00000KT M04/M06 A2992 580 92 -1600 000/00 RMK AO1 T10441056
54779K12N 12N20160115064510201/15/16 06:45:31  5-MIN K12N 151145Z AUTO 00000KT M04/M06 A2992 580 92 -1600 000/00 RMK AO1 T10441056
54779K12N 12N20160115065013301/15/16 06:50:31  5-MIN K12N 151150Z AUTO 00000KT M04/M06 A2993 580 92 -1600 000/00 RMK AO1 SLP146 70001 T10441056 11039 21056 50004
54779K12N 12N20160115065510201/15/16 06:55:31  5-MIN K12N 151155Z AUTO 00000KT M04/M06 A2992 580 92 -1600 000/00 RMK AO1 T10441056
54779K12N 12N20160115070010201/15/16 07:00:31  5-MIN K12N 151200Z AUTO 00000KT M04/M05 A2992 580 96 -1600 000/00 RMK AO1 T10441050
54779K12N 12N20160115070510201/15/16 07:05:31  5-MIN K12N 151205Z AUTO 00000KT M04/M05 A2993 580 92 -1500 000/00 RMK AO1 T10391050
54779K12N 12N20160115071010201/15/16 07:10:31  5-MIN K12N 151210Z AUTO 00000KT M04/M05 A2993 580 92 -1500 000/00 RMK AO1 T10391050
54779K12N 12N20160115071510201/15/16 07:15:31  5-MIN K12N 151215Z AUTO 00000KT M04/M05 A2992 580 92 -1500 000/00 RMK AO1 T10391050
54779K12N 12N20160115072010201/15/16 07:20:31  5-MIN K12N 151220Z AUTO 00000KT M04/M06 A2992 590 88 -1500 000/00 RMK AO1 T10391056
54779K12N 12N20160115072510201/15/16 07:25:31  5-MIN K12N 151225Z AUTO 00000KT M04/M06 A2992 590 88 -1500 000/00 RMK AO1 T10391056
54779K12N 12N20160115073010201/15/16 07:30:31  5-MIN K12N 151230Z AUTO 00000KT M04/M06 A2992 590 85 -1500 000/00 RMK AO1 T10391061
54779K12N 12N20160115073510201/15/16 07:35:31  5-MIN K12N 151235Z AUTO 00000KT M04/M06 A2992 590 88 -1600 000/00 RMK AO1 T10441061
54779K12N 12N20160115074010201/15/16 07:40:31  5-MIN K12N 151240Z AUTO 00000KT M04/M06 A2992 580 88 -1600 000/00 RMK AO1 T10441061
54779K12N 12N20160115074510201/15/16 07:45:31  5-MIN K12N 151245Z AUTO 00000KT M04/M06 A2992 580 88 -1600 000/00 RMK AO1 T10441061
54779K12N 12N20160115075010901/15/16 07:50:31  5-MIN K12N 151250Z AUTO 00000KT M04/M06 A2992 590 88 -1600 000/00 RMK AO1 SLP145 T10441061
54779K12N 12N20160115075510201/15/16 07:55:31  5-MIN K12N 151255Z AUTO 00000KT M04/M06 A2992 590 88 -1600 000/00 RMK AO1 T10441061
54779K12N 12N20160115080010201/15/16 08:00:31  5-MIN K12N 151300Z AUTO 00000KT M04/M06 A2992 590 88 -1600 000/00 RMK AO1 T10441061
54779K12N 12N20160115080510201/15/16 08:05:31  5-MIN K12N 151305Z AUTO 00000KT M04/M06 A2992 590 88 -1600 000/00 RMK AO1 T10441061
54779K12N 12N20160115081010201/15/16 08:10:31  5-MIN K12N 151310Z AUTO 00000KT M04/M06 A2992 590 92 -1600 000/00 RMK AO1 T10441056
54779K12N 12N20160115081510201/15/16 08:15:31  5-MIN K12N 151315Z AUTO 00000KT M04/M06 A2992 590 88 -1500 000/00 RMK AO1 T10391056
54779K12N 12N20160115082010201/15/16 08:20:31  5-MIN K12N 151320Z AUTO 00000KT M04/M06 A2991 590 88 -1500 000/00 RMK AO1 T10391056
54779K12N 12N20160115082510201/15/16 08:25:31  5-MIN K12N 151325Z AUTO 00000KT M04/M06 A2990 600 88 -1500 000/00 RMK AO1 T10391056
54779K12N 12N20160115083010201/15/16 08:30:31  5-MIN K12N 151330Z AUTO 04003KT M03/M06 A2990 600 85 -1400 050/03 RMK AO1 T10331056
54779K12N 12N20160115083510201/15/16 08:35:31  5-MIN K12N 151335Z AUTO 04004KT M03/M05 A2990 610 88 -1400 050/04 RMK AO1 T10331050
54779K12N 12N20160115084010201/15/16 08:40:31  5-MIN K12N 151340Z AUTO 04003KT M03/M04 A2990 610 92 -1400 050/03 RMK AO1 T10331044
54779K12N 12N20160115084510201/15/16 08:45:31  5-MIN K12N 151345Z AUTO VRB03KT M03/M05 A2990 610 85 -1300 VRB/03 RMK AO1 T10281050
54779K12N 12N20160115085010901/15/16 08:50:31  5-MIN K12N 151350Z AUTO 00000KT M03/M04 A2990 610 88 -1300 000/00 RMK AO1 SLP137 T10281044
54779K12N 12N20160115085510201/15/16 08:55:31  5-MIN K12N 151355Z AUTO 04003KT M02/M04 A2990 600 85 -1300 050/03 RMK AO1 T10221044
54779K12N 12N20160115090010201/15/16 09:00:31  5-MIN K12N 151400Z AUTO 04003KT M02/M05 A2991 600 81 -1300 050/03 RMK AO1 T10221050
54779K12N 12N20160115090510201/15/16 09:05:31  5-MIN K12N 151405Z AUTO 04003KT M02/M05 A2991 600 81 -1300 050/03 RMK AO1 T10221050
54779K12N 12N20160115091010201/15/16 09:10:31  5-MIN K12N 151410Z AUTO 04003KT M02/M05 A2990 600 78 -1200 050/03 RMK AO1 T10171050
54779K12N 12N20160115091510201/15/16 09:15:31  5-MIN K12N 151415Z AUTO 00000KT M01/M04 A2990 600 78 -1100 000/00 RMK AO1 T10111044
54779K12N 12N20160115092010201/15/16 09:20:31  5-MIN K12N 151420Z AUTO 00000KT M01/M04 A2990 600 81 -1100 000/00 RMK AO1 T10111039
54779K12N 12N20160115184010001/15/16 18:40:31  5-MIN K12N 152340Z AUTO 00000KT 01/M01 A2972 770 85 -600 000/00 RMK AO1 T00111011
54779K12N 12N20160115184510001/15/16 18:45:31  5-MIN K12N 152345Z AUTO 00000KT 01/M02 A2972 770 85 -700 000/00 RMK AO1 T00061017
54779K12N 12N20160115185012501/15/16 18:50:31  5-MIN K12N 152350Z AUTO 00000KT 01/M02 A2973 770 85 -700 000/00 RMK AO1 SLP078 T00061017 10078 20006 58034
54779K12N 12N20160115185510001/15/16 18:55:31  5-MIN K12N 152355Z AUTO 00000KT 01/M02 A2972 770 85 -700 000/00 RMK AO1 T00061017
54779K12N 12N20160115190010001/15/16 19:00:31  5-MIN K12N 160000Z AUTO 00000KT 01/M02 A2972 770 85 -700 000/00 RMK AO1 T00061017
54779K12N 12N20160115190510001/15/16 19:05:31  5-MIN K12N 160005Z AUTO 00000KT 01/M02 A2971 780 82 -600 000/00 RMK AO1 T00111017
54779K12N 12N20160115191010701/15/16 19:10:31  5-MIN K12N 160010Z AUTO 00000KT 01/M02 A2971 780 85 -700 000/00 RMK AO1 PRESFR T00061017
54779K12N 12N20160115191510701/15/16 19:15:31  5-MIN K12N 160015Z AUTO 00000KT 01/M02 A2970 790 85 -700 000/00 RMK AO1 PRESFR T00061017
54779K12N 12N20160115192010001/15/16 19:20:31  5-MIN K12N 160020Z AUTO 00000KT 01/M02 A2970 790 85 -700 000/00 RMK AO1 T00061017
54779K12N 12N20160115192510001/15/16 19:25:31  5-MIN K12N 160025Z AUTO 00000KT 01/M02 A2969 800 85 -700 000/00 RMK AO1 T00061017
54779K12N 12N20160115193010001/15/16 19:30:31  5-MIN K12N 160030Z AUTO 00000KT 01/M02 A2969 800 85 -700 000/00 RMK AO1 T00061017
54779K12N 12N20160115193510001/15/16 19:35:31  5-MIN K12N 160035Z AUTO 00000KT 01/M02 A2969 800 85 -700 000/00 RMK AO1 T00061017
54779K12N 12N20160115194010001/15/16 19:40:31  5-MIN K12N 160040Z AUTO 00000KT 01/M02 A2968 810 85 -700 000/00 RMK AO1 T00061017
54779K12N 12N20160115194510001/15/16 19:45:31  5-MIN K12N 160045Z AUTO 00000KT 01/M02 A2968 810 85 -700 000/00 RMK AO1 T00061017
54779K12N 12N20160115195010701/15/16 19:50:31  5-MIN K12N 160050Z AUTO 00000KT 01/M02 A2968 810 85 -700 000/00 RMK AO1 SLP062 T00061017
54779K12N 12N20160115195510001/15/16 19:55:31  5-MIN K12N 160055Z AUTO 00000KT 01/M01 A2968 810 89 -700 000/00 RMK AO1 T00061011
54779K12N 12N20160115200010001/15/16 20:00:31  5-MIN K12N 160100Z AUTO 00000KT 01/M01 A2968 810 89 -700 000/00 RMK AO1 T00061011
54779K12N 12N20160115200510001/15/16 20:05:31  5-MIN K12N 160105Z AUTO 00000KT 01/M01 A2968 810 89 -700 000/00 RMK AO1 T00061011
54779K12N 12N20160115201010001/15/16 20:10:31  5-MIN K12N 160110Z AUTO 04003KT 01/M01 A2967 820 85 -600 050/03 RMK AO1 T00111011
54779K12N 12N20160115201510001/15/16 20:15:31  5-MIN K12N 160115Z AUTO 00000KT 01/M01 A2967 820 85 -600 000/00 RMK AO1 T00111011
54779K12N 12N20160115202010001/15/16 20:20:31  5-MIN K12N 160120Z AUTO 00000KT 01/M01 A2967 820 85 -600 000/00 RMK AO1 T00111011
54779K12N 12N20160115202510001/15/16 20:25:31  5-MIN K12N 160125Z AUTO 00000KT 01/M01 A2966 820 85 -600 000/00 RMK AO1 T00111011
54779K12N 12N20160115203010001/15/16 20:30:31  5-MIN K12N 160130Z AUTO 00000KT 01/M01 A2966 830 85 -600 000/00 RMK AO1 T00111011
54779K12N 12N20160115203510001/15/16 20:35:31  5-MIN K12N 160135Z AUTO 00000KT 01/M01 A2966 830 85 -600 000/00 RMK AO1 T00111011
54779K12N 12N20160115204006101/15/16 20:40:31  5-MIN K12N 160140Z AUTO M M M M /M RMK AO1
54779K12N 12N20160115204510001/15/16 20:45:31  5-MIN K12N 160145Z AUTO 36004KT 01/M01 A2965 830 85 -600 020/04 RMK AO1 T00111011
54779K12N 12N20160115205010701/15/16 20:50:31  5-MIN K12N 160150Z AUTO VRB03KT 01/M01 A2965 830 85 -600 VRB/03 RMK AO1 SLP052 T00111011
54779K12N 12N20160115205510701/15/16 20:55:31  5-MIN K12N 160155Z AUTO 00000KT 02/M02 A2965 830 78 -500 000/00 RMK AO1 SLP052 T00171017
54779K12N 12N20160115210010701/15/16 21:00:31  5-MIN K12N 160200Z AUTO 00000KT 01/M01 A2965 840 85 -600 000/00 RMK AO1 SLP050 T00111011
54779K12N 12N20160115210510701/15/16 21:05:31  5-MIN K12N 160205Z AUTO 04003KT 01/M02 A2964 850 82 -600 050/03 RMK AO1 SLP048 T00111017
54779K12N 12N20160115211010701/15/16 21:10:31  5-MIN K12N 160210Z AUTO 04003KT 01/M01 A2963 850 85 -500 050/03 RMK AO1 SLP046 T00111011
54779K12N 12N20160115211510701/15/16 21:15:31  5-MIN K12N 160215Z AUTO 00000KT 01/M01 A2963 850 85 -500 000/00 RMK AO1 SLP044 T00111011
54779K12N 12N20160115212010701/15/16 21:20:31  5-MIN K12N 160220Z AUTO 00000KT 01/M01 A2963 850 85 -500 000/00 RMK AO1 SLP044 T00111011
54779K12N 12N20160115212510701/15/16 21:25:31  5-MIN K12N 160225Z AUTO 00000KT 01/M01 A2963 850 85 -500 000/00 RMK AO1 SLP043 T00111011
54779K12N 12N20160115213010701/15/16 21:30:31  5-MIN K12N 160230Z AUTO 00000KT 01/M01 A2963 860 85 -500 000/00 RMK AO1 SLP042 T00111011
54779K12N 12N20160115213510701/15/16 21:35:31  5-MIN K12N 160235Z AUTO 00000KT 01/M01 A2962 860 85 -500 000/00 RMK AO1 SLP041 T00111011
54779K12N 12N20160115214010701/15/16 21:40:31  5-MIN K12N 160240Z AUTO 00000KT 02/M01 A2962 860 82 -500 000/00 RMK AO1 SLP040 T00171011
54779K12N 12N20160115214510701/15/16 21:45:31  5-MIN K12N 160245Z AUTO 00000KT 01/M01 A2962 870 85 -500 000/00 RMK AO1 SLP039 T00111011
54779K12N 12N20160115215010701/15/16 21:50:31  5-MIN K12N 160250Z AUTO 00000KT 01/M01 A2962 870 85 -500 000/00 RMK AO1 SLP039 T00111011
54779K12N 12N20160115215510001/15/16 21:55:31  5-MIN K12N 160255Z AUTO 00000KT 02/M01 A2961 870 82 -500 000/00 RMK AO1 T00171011
54779K12N 12N20160115220010001/15/16 22:00:31  5-MIN K12N 160300Z AUTO 00000KT 02/M02 A2960 880 78 -400 000/00 RMK AO1 T00171017
54779K12N 12N20160115220510001/15/16 22:05:31  5-MIN K12N 160305Z AUTO 00000KT 02/M01 A2960 880 82 -400 000/00 RMK AO1 T00171011
54779K12N 12N20160115221010001/15/16 22:10:31  5-MIN K12N 160310Z AUTO VRB04KT 02/M01 A2960 880 82 -400 VRB/04 RMK AO1 T00171011
54779K12N 12N20160115221510001/15/16 22:15:31  5-MIN K12N 160315Z AUTO 01003KT 02/M01 A2960 880 82 -400 020/03 RMK AO1 T00171011
54779K12N 12N20160115222010001/15/16 22:20:31  5-MIN K12N 160320Z AUTO 00000KT 02/M02 A2960 880 78 -400 000/00 RMK AO1 T00171017
54779K12N 12N20160115222510001/15/16 22:25:31  5-MIN K12N 160325Z AUTO 01004KT 02/M01 A2960 890 82 -400 020/04 RMK AO1 T00171011
54779K12N 12N20160115223010001/15/16 22:30:31  5-MIN K12N 160330Z AUTO 00000KT 02/M02 A2960 880 78 -400 000/00 RMK AO1 T00171017
54779K12N 12N20160115223510001/15/16 22:35:31  5-MIN K12N 160335Z AUTO 00000KT 02/M01 A2960 890 82 -400 000/00 RMK AO1 T00171011
54779K12N 12N20160115224010001/15/16 22:40:31  5-MIN K12N 160340Z AUTO 00000KT 02/M01 A2959 890 82 -400 000/00 RMK AO1 T00171011
54779K12N 12N20160115224510001/15/16 22:45:31  5-MIN K12N 160345Z AUTO 04004KT 02/M01 A2959 890 82 -400 050/04 RMK AO1 T00171011
54779K12N 12N20160115225010701/15/16 22:50:31  5-MIN K12N 160350Z AUTO 00000KT 02/M01 A2959 890 82 -400 000/00 RMK AO1 SLP028 T00171011
54779K12N 12N20160115225510001/15/16 22:55:31  5-MIN K12N 160355Z AUTO 34003KT 02/M01 A2959 900 82 -400 350/03 RMK AO1 T00171011
54779K12N 12N20160115230010001/15/16 23:00:31  5-MIN K12N 160400Z AUTO 36003KT 02/M01 A2958 900 85 -400 010/03 RMK AO1 T00171006
54779K12N 12N20160115230510001/15/16 23:05:31  5-MIN K12N 160405Z AUTO 00000KT 02/M01 A2958 910 85 -400 000/00 RMK AO1 T00171006
54779K12N 12N20160115231010001/15/16 23:10:31  5-MIN K12N 160410Z AUTO 00000KT 01/M01 A2957 910 89 -500 000/00 RMK AO1 T00111006
54779K12N 12N20160115231510601/15/16 23:15:31  5-MIN K12N 160415Z AUTO 36003KT 01/M01 A2957 910 89 -500 010/03 RMK AO1 P0001 T00111006
54779K12N 12N20160115232010501/15/16 23:20:31  5-MIN K12N 160420Z AUTO 00000KT 01/00 A2956 920 92 -500 000/00 RMK AO1 P0001 T00110000
54779K12N 12N20160115232511201/15/16 23:25:31  5-MIN K12N 160425Z AUTO 02003KT 01/00 A2955 930 92 -400 030/03 RMK AO1 PRESFR P0002 T00110000
54779K12N 12N20160115233010501/15/16 23:30:31  5-MIN K12N 160430Z AUTO 00000KT 01/00 A2955 930 92 -400 000/00 RMK AO1 P0002 T00110000
54779K12N 12N20160115233510501/15/16 23:35:31  5-MIN K12N 160435Z AUTO VRB04KT 01/00 A2954 940 92 -400 VRB/04 RMK AO1 P0003 T00110000
54779K12N 12N20160115234010501/15/16 23:40:31  5-MIN K12N 160440Z AUTO VRB03KT 01/00 A2954 940 92 -400 VRB/03 RMK AO1 P0003 T00110000
54779K12N 12N20160115234510501/15/16 23:45:31  5-MIN K12N 160445Z AUTO 03004KT 01/00 A2954 940 92 -400 050/04 RMK AO1 P0004 T00110000
54779K12N 12N20160115235012201/15/16 23:50:31  5-MIN K12N 160450Z AUTO 00000KT 01/00 A2954 940 92 -400 000/00 RMK AO1 SLP009 P0004 T00110000 400781056
54779K12N 12N20160115235509901/15/16 23:55:31  5-MIN K12N 160455Z AUTO 00000KT 01/00 A2953 950 92 -400 000/00 RMK AO1 T00110000
54779K12N 12N20160116000009901/16/16 00:00:31  5-MIN K12N 160500Z AUTO 00000KT 01/00 A2953 950 92 -400 000/00 RMK AO1 T00110000
54779K12N 12N20160116000510501/16/16 00:05:31  5-MIN K12N 160505Z AUTO VRB03KT 01/00 A2952 950 92 -400 VRB/03 RMK AO1 P0001 T00110000
54779K12N 12N20160116001011201/16/16 00:10:31  5-MIN K12N 160510Z AUTO 00000KT 01/00 A2951 960 92 -400 000/00 RMK AO1 PRESFR P0001 T00110000
54779K12N 12N20160116001511201/16/16 00:15:31  5-MIN K12N 160515Z AUTO VRB03KT 01/00 A2951 970 92 -400 VRB/03 RMK AO1 PRESFR P0001 T00110000
54779K12N 12N20160116002011201/16/16 00:20:31  5-MIN K12N 160520Z AUTO 36004KT 01/00 A2950 980 92 -400 010/04 RMK AO1 PRESFR P0002 T00110000
54779K12N 12N20160116002511201/16/16 00:25:31  5-MIN K12N 160525Z AUTO 01004KT 01/00 A2949 980 92 -400 020/04 RMK AO1 PRESFR P0002 T00110000
54779K12N 12N20160116003011201/16/16 00:30:31  5-MIN K12N 160530Z AUTO 36004KT 01/00 A2949 990 92 -400 010/04 RMK AO1 PRESFR P0002 T00110000
54779K12N 12N20160116003511301/16/16 00:35:31  5-MIN K12N 160535Z AUTO VRB03KT 01/00 A2948 1000 92 -400 VRB/03 RMK AO1 PRESFR P0002 T00110000
54779K12N 12N20160116004010601/16/16 00:40:31  5-MIN K12N 160540Z AUTO VRB03KT 01/01 A2948 1000 96 -400 VRB/03 RMK AO1 P0002 T00110006
54779K12N 12N20160116004510601/16/16 00:45:31  5-MIN K12N 160545Z AUTO VRB03KT 01/01 A2947 1000 96 -400 VRB/03 RMK AO1 P0002 T00110006
54779K12N 12N20160116005013101/16/16 00:50:31  5-MIN K12N 160550Z AUTO 03003KT 02/01 A2947 1000 92 -300 040/03 RMK AO1 SLP986 P0002 60006 T00170006 10022 20006
54779K12N 12N20160116005509901/16/16 00:55:31  5-MIN K12N 160555Z AUTO VRB05KT 02/01 A2948 990 92 -300 VRB/05 RMK AO1 T00170006
54779K12N 12N20160116010009901/16/16 01:00:31  5-MIN K12N 160600Z AUTO 04003KT 03/01 A2948 990 89 -200 050/03 RMK AO1 T00280011
54779K12N 12N20160116010510001/16/16 01:05:31  5-MIN K12N 160605Z AUTO 00000KT 03/02 A2948 1000 92 -200 000/00 RMK AO1 T00280017
54779K12N 12N20160116011010001/16/16 01:10:31  5-MIN K12N 160610Z AUTO 00000KT 03/02 A2947 1000 92 -200 000/00 RMK AO1 T00280017
54779K12N 12N20160116011510001/16/16 01:15:31  5-MIN K12N 160615Z AUTO 00000KT 02/02 A2947 1000 96 -200 000/00 RMK AO1 T00220017
54779K12N 12N20160116012010001/16/16 01:20:31  5-MIN K12N 160620Z AUTO 00000KT 02/02 A2947 1010 96 -200 000/00 RMK AO1 T00220017
54779K12N 12N20160116012510001/16/16 01:25:31  5-MIN K12N 160625Z AUTO 34003KT 02/02 A2946 1010 96 -200 360/03 RMK AO1 T00220017
54779K12N 12N20160116013010001/16/16 01:30:31  5-MIN K12N 160630Z AUTO 00000KT 02/02 A2946 1020 96 -200 000/00 RMK AO1 T00220017
54779K12N 12N20160116013510001/16/16 01:35:31  5-MIN K12N 160635Z AUTO 00000KT 02/01 A2945 1020 92 -200 000/00 RMK AO1 T00220011
54779K12N 12N20160116014010601/16/16 01:40:31  5-MIN K12N 160640Z AUTO 36003KT 02/01 A2945 1020 92 -200 010/03 RMK AO1 P0001 T00220011
54779K12N 12N20160116014510601/16/16 01:45:31  5-MIN K12N 160645Z AUTO 36003KT 02/01 A2945 1020 92 -200 010/03 RMK AO1 P0001 T00220011
54779K12N 12N20160116015011301/16/16 01:50:31  5-MIN K12N 160650Z AUTO 00000KT 02/01 A2945 1030 92 -200 000/00 RMK AO1 SLP977 P0001 T00220011
54779K12N 12N20160116015510001/16/16 01:55:31  5-MIN K12N 160655Z AUTO 03003KT 02/01 A2944 1030 96 -300 040/03 RMK AO1 T00170011
54779K12N 12N20160116020010001/16/16 02:00:31  5-MIN K12N 160700Z AUTO 04005KT 02/02 A2944 1030 96 -200 050/05 RMK AO1 T00220017
54779K12N 12N20160116020510601/16/16 02:05:31  5-MIN K12N 160705Z AUTO 03004KT 02/02 A2944 1030 96 -200 040/04 RMK AO1 P0001 T00220017
54779K12N 12N20160116021010601/16/16 02:10:31  5-MIN K12N 160710Z AUTO 03003KT 02/02 A2944 1040 96 -200 040/03 RMK AO1 P0001 T00220017
54779K12N 12N20160116021510601/16/16 02:15:31  5-MIN K12N 160715Z AUTO 03005KT 02/02 A2943 1040 96 -200 050/05 RMK AO1 P0001 T00220017
54779K12N 12N20160116022010601/16/16 02:20:31  5-MIN K12N 160720Z AUTO 04005KT 02/02 A2943 1040 96 -200 050/05 RMK AO1 P0002 T00220017
54779K12N 12N20160116022510601/16/16 02:25:31  5-MIN K12N 160725Z AUTO 04005KT 02/02 A2942 1050 96 -200 050/05 RMK AO1 P0002 T00220017
54779K12N 12N20160116023010601/16/16 02:30:31  5-MIN K12N 160730Z AUTO 03004KT 02/02 A2942 1050 96 -200 050/04 RMK AO1 P0003 T00220017
54779K12N 12N20160116023510601/16/16 02:35:31  5-MIN K12N 160735Z AUTO VRB04KT 02/02 A2942 1050 96 -200 VRB/04 RMK AO1 P0003 T00220017
54779K12N 12N20160116024010601/16/16 02:40:31  5-MIN K12N 160740Z AUTO 00000KT 02/02 A2942 1060 96 -200 000/00 RMK AO1 P0004 T00220017
54779K12N 12N20160116024510701/16/16 02:45:31  5-MIN K12N 160745Z AUTO 00000KT 02/02 A2941 1060 100 -100 000/00 RMK AO1 P0005 T00220022
54779K12N 12N20160116025011301/16/16 02:50:31  5-MIN K12N 160750Z AUTO VRB03KT 02/02 A2941 1060 96 -100 VRB/03 RMK AO1 SLP965 P0006 T00220017
54779K12N 12N20160116025510001/16/16 02:55:31  5-MIN K12N 160755Z AUTO VRB03KT 02/02 A2941 1060 96 -100 VRB/03 RMK AO1 T00220017
54779K12N 12N20160116030010601/16/16 03:00:31  5-MIN K12N 160800Z AUTO 00000KT 02/02 A2940 1070 96 -100 000/00 RMK AO1 P0001 T00220017
54779K12N 12N20160116030510601/16/16 03:05:31  5-MIN K12N 160805Z AUTO 00000KT 02/02 A2940 1070 96 -100 000/00 RMK AO1 P0002 T00220017
54779K12N 12N20160116031010601/16/16 03:10:31  5-MIN K12N 160810Z AUTO 00000KT 02/02 A2940 1070 96 -100 000/00 RMK AO1 P0003 T00220017
54779K12N 12N20160116031510601/16/16 03:15:31  5-MIN K12N 160815Z AUTO 00000KT 02/02 A2939 1080 96 -100 000/00 RMK AO1 P0003 T00220017
54779K12N 12N20160116032010601/16/16 03:20:31  5-MIN K12N 160820Z AUTO 00000KT 02/02 A2939 1080 96 -100 000/00 RMK AO1 P0004 T00220017
54779K12N 12N20160116032510601/16/16 03:25:31  5-MIN K12N 160825Z AUTO 00000KT 02/02 A2939 1080 96 -100 000/00 RMK AO1 P0004 T00220017
54779K12N 12N20160116033010701/16/16 03:30:31  5-MIN K12N 160830Z AUTO VRB03KT 02/02 A2939 1080 100 -100 VRB/03 RMK AO1 P0004 T00220022
54779K12N 12N20160116033510601/16/16 03:35:31  5-MIN K12N 160835Z AUTO 03003KT 02/02 A2939 1080 96 -100 040/03 RMK AO1 P0005 T00220017
54779K12N 12N20160116034010701/16/16 03:40:31  5-MIN K12N 160840Z AUTO 00000KT 02/02 A2939 1080 100 -100 000/00 RMK AO1 P0005 T00220022
54779K12N 12N20160116034510701/16/16 03:45:31  5-MIN K12N 160845Z AUTO 00000KT 02/02 A2939 1080 100 -100 000/00 RMK AO1 P0005 T00220022
54779K12N 12N20160116035012501/16/16 03:50:31  5-MIN K12N 160850Z AUTO 00000KT 03/02 A2939 1080 96 -100 000/00 RMK AO1 SLP960 P0006 60014 T00280022 58041
54779K12N 12N20160116035510101/16/16 03:55:31  5-MIN K12N 160855Z AUTO 00000KT 02/02 A2940 1070 100 -100 000/00 RMK AO1 T00220022
54779K12N 12N20160116040010601/16/16 04:00:31  5-MIN K12N 160900Z AUTO 00000KT 03/02 A2939 1080 96 -100 000/00 RMK AO1 P0001 T00280022
54779K12N 12N20160116040510601/16/16 04:05:31  5-MIN K12N 160905Z AUTO 03003KT 03/02 A2939 1080 96 -100 050/03 RMK AO1 P0001 T00280022
54779K12N 12N20160116041010601/16/16 04:10:31  5-MIN K12N 160910Z AUTO 00000KT 03/02 A2939 1080 96 -100 000/00 RMK AO1 P0002 T00280022
54779K12N 12N20160116041510601/16/16 04:15:31  5-MIN K12N 160915Z AUTO 00000KT 03/02 A2939 1080 96 -100 000/00 RMK AO1 P0002 T00280022
54779K12N 12N20160116042010301/16/16 04:20:31  5-MIN K12N 160920Z AUTO 00000KT 03/02 A2939 1080 96 0 000/00 RMK AO1 P0003 T00280022
54779K12N 12N20160116042510301/16/16 04:25:31  5-MIN K12N 160925Z AUTO 00000KT 03/02 A2939 1080 96 0 000/00 RMK AO1 P0004 T00280022
54779K12N 12N20160116043010601/16/16 04:30:31  5-MIN K12N 160930Z AUTO 00000KT 02/02 A2939 1080 96 -100 000/00 RMK AO1 P0004 T00220017
54779K12N 12N20160116043510301/16/16 04:35:31  5-MIN K12N 160935Z AUTO 00000KT 03/02 A2938 1080 96 0 000/00 RMK AO1 P0004 T00280022
54779K12N 12N20160116044010701/16/16 04:40:31  5-MIN K12N 160940Z AUTO 00000KT 02/02 A2938 1090 100 -100 000/00 RMK AO1 P0004 T00220022
54779K12N 12N20160116044510701/16/16 04:45:31  5-MIN K12N 160945Z AUTO 00000KT 02/02 A2938 1090 100 -100 000/00 RMK AO1 P0005 T00220022
54779K12N 12N20160116045011401/16/16 04:50:31  5-MIN K12N 160950Z AUTO 00000KT 02/02 A2938 1090 100 -100 000/00 RMK AO1 SLP956 P0005 T00220022
54779K12N 12N20160116045510101/16/16 04:55:31  5-MIN K12N 160955Z AUTO 00000KT 02/02 A2938 1090 100 -100 000/00 RMK AO1 T00220022
54779K12N 12N20160116050010101/16/16 05:00:31  5-MIN K12N 161000Z AUTO 00000KT 02/02 A2938 1080 100 -100 000/00 RMK AO1 T00220022
54779K12N 12N20160116050510701/16/16 05:05:31  5-MIN K12N 161005Z AUTO 00000KT 02/02 A2939 1080 100 -100 000/00 RMK AO1 P0001 T00220022
54779K12N 12N20160116051010701/16/16 05:10:31  5-MIN K12N 161010Z AUTO 00000KT 02/02 A2939 1080 100 -100 000/00 RMK AO1 P0001 T00220022
54779K12N 12N20160116051510701/16/16 05:15:31  5-MIN K12N 161015Z AUTO 00000KT 02/02 A2939 1080 100 -200 000/00 RMK AO1 P0002 T00170017
54779K12N 12N20160116052010601/16/16 05:20:31  5-MIN K12N 161020Z AUTO 17003KT 02/02 A2939 1080 96 -100 180/03 RMK AO1 P0002 T00220017
54779K12N 12N20160116052510601/16/16 05:25:31  5-MIN K12N 161025Z AUTO 20003KT 02/02 A2939 1080 96 -100 210/03 RMK AO1 P0003 T00220017
54779K12N 12N20160116053010601/16/16 05:30:31  5-MIN K12N 161030Z AUTO 00000KT 02/02 A2940 1070 96 -100 000/00 RMK AO1 P0004 T00220017
54779K12N 12N20160116053510701/16/16 05:35:31  5-MIN K12N 161035Z AUTO 00000KT 02/02 A2940 1070 100 -100 000/00 RMK AO1 P0005 T00220022
54779K12N 12N20160116054010701/16/16 05:40:31  5-MIN K12N 161040Z AUTO 00000KT 02/02 A2940 1070 100 -100 000/00 RMK AO1 P0005 T00220022
54779K12N 12N20160116054510701/16/16 05:45:31  5-MIN K12N 161045Z AUTO 00000KT 02/02 A2940 1070 100 -100 000/00 RMK AO1 P0006 T00220022
54779K12N 12N20160116055011301/16/16 05:50:31  5-MIN K12N 161050Z AUTO 00000KT 03/02 A2940 1070 96 -100 000/00 RMK AO1 SLP964 P0006 T00280022
54779K12N 12N20160116055510701/16/16 05:55:31  5-MIN K12N 161055Z AUTO 00000KT 02/02 A2940 1070 100 -100 000/00 RMK AO1 P0001 T00220022
54779K12N 12N20160116060010701/16/16 06:00:31  5-MIN K12N 161100Z AUTO 00000KT 02/02 A2940 1070 100 -100 000/00 RMK AO1 P0001 T00220022
54779K12N 12N20160116060510701/16/16 06:05:31  5-MIN K12N 161105Z AUTO 00000KT 02/02 A2940 1070 100 -100 000/00 RMK AO1 P0002 T00220022
54779K12N 12N20160116061010701/16/16 06:10:31  5-MIN K12N 161110Z AUTO 00000KT 02/02 A2940 1070 100 -100 000/00 RMK AO1 P0002 T00220022
54779K12N 12N20160116061510601/16/16 06:15:31  5-MIN K12N 161115Z AUTO 00000KT 02/02 A2940 1070 96 -100 000/00 RMK AO1 P0002 T00220017
54779K12N 12N20160116062010701/16/16 06:20:31  5-MIN K12N 161120Z AUTO 00000KT 02/02 A2941 1060 100 -100 000/00 RMK AO1 P0003 T00220022
54779K12N 12N20160116062510601/16/16 06:25:31  5-MIN K12N 161125Z AUTO 00000KT 02/02 A2941 1060 96 -100 000/00 RMK AO1 P0003 T00220017
54779K12N 12N20160116063010601/16/16 06:30:31  5-MIN K12N 161130Z AUTO 30003KT 02/02 A2941 1060 96 -200 310/03 RMK AO1 P0004 T00220017
54779K12N 12N20160116063510601/16/16 06:35:31  5-MIN K12N 161135Z AUTO 00000KT 02/02 A2941 1060 96 -100 000/00 RMK AO1 P0005 T00220017
54779K12N 12N20160117143510001/17/16 14:35:31  5-MIN K12N 171935Z AUTO 00000KT 01/M07 A2975 740 58 -800 000/00 RMK AO1 T00061067
54779K12N 12N20160117144010001/17/16 14:40:31  5-MIN K12N 171940Z AUTO 00000KT 01/M07 A2976 740 58 -800 000/00 RMK AO1 T00061067
54779K12N 12N20160117144510001/17/16 14:45:31  5-MIN K12N 171945Z AUTO 03003KT 01/M07 A2976 740 58 -800 040/03 RMK AO1 T00061067
54779K12N 12N20160117145010701/17/16 14:50:31  5-MIN K12N 171950Z AUTO 03003KT 00/M07 A2975 740 61 -800 050/03 RMK AO1 SLP085 T00001067
54779K12N 12N20160117145510001/17/16 14:55:31  5-MIN K12N 171955Z AUTO 07003KT 00/M07 A2975 750 61 -800 080/03 RMK AO1 T00001067
54779K12N 12N20160117150010001/17/16 15:00:31  5-MIN K12N 172000Z AUTO 04003KT 00/M07 A2974 750 61 -800 060/03 RMK AO1 T00001067
54779K12N 12N20160117150510001/17/16 15:05:31  5-MIN K12N 172005Z AUTO 04003KT 00/M07 A2974 750 58 -800 060/03 RMK AO1 T00001072
54779K12N 12N20160117151010001/17/16 15:10:31  5-MIN K12N 172010Z AUTO 04005KT 00/M07 A2974 750 61 -800 050/05 RMK AO1 T00001067
54779K12N 12N20160117151510001/17/16 15:15:31  5-MIN K12N 172015Z AUTO 05004KT 00/M07 A2974 750 58 -800 060/04 RMK AO1 T00001072
54779K12N 12N20160117152010001/17/16 15:20:31  5-MIN K12N 172020Z AUTO VRB04KT 00/M07 A2974 750 58 -800 VRB/04 RMK AO1 T00001072
54779K12N 12N20160117152510001/17/16 15:25:31  5-MIN K12N 172025Z AUTO 04005KT 00/M07 A2974 760 58 -800 050/05 RMK AO1 T00001072
54779K12N 12N20160117153010001/17/16 15:30:31  5-MIN K12N 172030Z AUTO VRB03KT 00/M07 A2973 760 61 -800 VRB/03 RMK AO1 T00001067
54779K12N 12N20160117153510101/17/16 15:35:31  5-MIN K12N 172035Z AUTO 04004KT M01/M06 A2973 760 66 -900 050/04 RMK AO1 T10061061
54779K12N 12N20160117154010101/17/16 15:40:31  5-MIN K12N 172040Z AUTO VRB04KT M01/M06 A2973 760 69 -900 VRB/04 RMK AO1 T10061056
54779K12N 12N20160117154510101/17/16 15:45:31  5-MIN K12N 172045Z AUTO VRB04KT M01/M06 A2973 770 69 -900 VRB/04 RMK AO1 T10061056
54779K12N 12N20160117155011401/17/16 15:50:31  5-MIN K12N 172050Z AUTO VRB03KT M01/M05 A2973 760 75 -900 VRB/03 RMK AO1 SLP077 T10111050 58028
54779K12N 12N20160117155510101/17/16 15:55:31  5-MIN K12N 172055Z AUTO 04003KT M01/M05 A2972 770 75 -900 050/03 RMK AO1 T10111050
54779K12N 12N20160117160010101/17/16 16:00:31  5-MIN K12N 172100Z AUTO VRB03KT M01/M05 A2972 770 75 -900 VRB/03 RMK AO1 T10111050
54779K12N 12N20160117160510101/17/16 16:05:31  5-MIN K12N 172105Z AUTO VRB03KT M01/M05 A2972 770 75 -900 VRB/03 RMK AO1 T10111050
54779K12N 12N20160117161010101/17/16 16:10:31  5-MIN K12N 172110Z AUTO 01003KT M01/M04 A2972 770 78 -900 020/03 RMK AO1 T10111044
54779K12N 12N20160117161510101/17/16 16:15:31  5-MIN K12N 172115Z AUTO 36004KT M01/M04 A2972 770 78 -900 010/04 RMK AO1 T10111044
54779K12N 12N20160117162010101/17/16 16:20:31  5-MIN K12N 172120Z AUTO 35005KT M01/M04 A2972 770 78 -900 010/05 RMK AO1 T10111044
54779K12N 12N20160117162510101/17/16 16:25:31  5-MIN K12N 172125Z AUTO VRB03KT M01/M04 A2973 770 78 -900 VRB/03 RMK AO1 T10111044
54779K12N 12N20160117163010201/17/16 16:30:31  5-MIN K12N 172130Z AUTO 03005KT M02/M04 A2973 760 85 -1000 050/05 RMK AO1 T10171039
54779K12N 12N20160117163510201/17/16 16:35:31  5-MIN K12N 172135Z AUTO VRB03KT M02/M04 A2973 760 85 -1000 VRB/03 RMK AO1 T10171039
54779K12N 12N20160117164010201/17/16 16:40:31  5-MIN K12N 172140Z AUTO 04005KT M02/M04 A2973 760 85 -1000 050/05 RMK AO1 T10171039
54779K12N 12N20160117164510201/17/16 16:45:31  5-MIN K12N 172145Z AUTO 03003KT M02/M04 A2973 770 85 -1000 040/03 RMK AO1 T10171039
54779K12N 12N20160117165010901/17/16 16:50:31  5-MIN K12N 172150Z AUTO 03003KT M02/M04 A2973 760 85 -1000 050/03 RMK AO1 SLP077 T10171039
54779K12N 12N20160117165510201/17/16 16:55:31  5-MIN K12N 172155Z AUTO 00000KT M02/M04 A2973 760 85 -1000 000/00 RMK AO1 T10171039
54779K12N 12N20160117170010201/17/16 17:00:31  5-MIN K12N 172200Z AUTO 00000KT M02/M04 A2973 770 85 -1000 000/00 RMK AO1 T10171039
54779K12N 12N20160117170510201/17/16 17:05:31  5-MIN K12N 172205Z AUTO 00000KT M02/M04 A2972 770 85 -1000 000/00 RMK AO1 T10171039
54779K12N 12N20160117171010201/17/16 17:10:31  5-MIN K12N 172210Z AUTO 00000KT M02/M03 A2972 770 88 -1000 000/00 RMK AO1 T10171033
54779K12N 12N20160117171510201/17/16 17:15:31  5-MIN K12N 172215Z AUTO VRB03KT M02/M03 A2972 770 88 -1000 VRB/03 RMK AO1 T10171033
54779K12N 12N20160117172010201/17/16 17:20:31  5-MIN K12N 172220Z AUTO 00000KT M02/M03 A2972 770 88 -1000 000/00 RMK AO1 T10171033
54779K12N 12N20160117172510201/17/16 17:25:31  5-MIN K12N 172225Z AUTO 00000KT M02/M03 A2972 770 92 -1100 000/00 RMK AO1 T10221033
54779K12N 12N20160117173010201/17/16 17:30:31  5-MIN K12N 172230Z AUTO VRB03KT M02/M04 A2972 770 88 -1100 VRB/03 RMK AO1 T10221039
54779K12N 12N20160117173510201/17/16 17:35:31  5-MIN K12N 172235Z AUTO 05003KT M02/M04 A2972 780 88 -1100 060/03 RMK AO1 T10221039
54779K12N 12N20160117174010201/17/16 17:40:31  5-MIN K12N 172240Z AUTO 05003KT M02/M04 A2972 780 88 -1100 070/03 RMK AO1 T10221039
54779K12N 12N20160117174510201/17/16 17:45:31  5-MIN K12N 172245Z AUTO 04003KT M02/M04 A2972 770 88 -1100 060/03 RMK AO1 T10221039
54779K12N 12N20160117175010901/17/16 17:50:31  5-MIN K12N 172250Z AUTO 00000KT M02/M04 A2972 770 88 -1100 000/00 RMK AO1 SLP074 T10221039
54779K12N 12N20160117175510201/17/16 17:55:31  5-MIN K12N 172255Z AUTO 00000KT M02/M04 A2972 770 88 -1100 000/00 RMK AO1 T10221039
54779K12N 12N20160117180010201/17/16 18:00:31  5-MIN K12N 172300Z AUTO 05003KT M02/M04 A2972 780 88 -1100 060/03 RMK AO1 T10221039
54779K12N 12N20160117180510201/17/16 18:05:31  5-MIN K12N 172305Z AUTO 00000KT M02/M04 A2972 770 88 -1100 000/00 RMK AO1 T10221039
54779K12N 12N20160117181010201/17/16 18:10:31  5-MIN K12N 172310Z AUTO 35003KT M02/M04 A2972 780 88 -1100 010/03 RMK AO1 T10221039
54779K12N 12N20160117181510201/17/16 18:15:31  5-MIN K12N 172315Z AUTO 35003KT M02/M04 A2971 780 88 -1100 360/03 RMK AO1 T10221039
54779K12N 12N20160117182010201/17/16 18:20:31  5-MIN K12N 172320Z AUTO 35003KT M02/M04 A2971 780 88 -1100 010/03 RMK AO1 T10221039
54779K12N 12N20160117182510201/17/16 18:25:31  5-MIN K12N 172325Z AUTO 00000KT M02/M04 A2971 780 88 -1100 000/00 RMK AO1 T10221039
54779K12N 12N20160117183010201/17/16 18:30:31  5-MIN K12N 172330Z AUTO 00000KT M03/M04 A2972 770 88 -1100 000/00 RMK AO1 T10281044
54779K12N 12N20160117183510201/17/16 18:35:31  5-MIN K12N 172335Z AUTO 33003KT M03/M04 A2972 770 88 -1100 350/03 RMK AO1 T10281044
54779K12N 12N20160117184010201/17/16 18:40:31  5-MIN K12N 172340Z AUTO 00000KT M03/M04 A2972 770 88 -1100 000/00 RMK AO1 T10281044
54779K12N 12N20160117184510201/17/16 18:45:31  5-MIN K12N 172345Z AUTO 00000KT M03/M04 A2972 770 88 -1100 000/00 RMK AO1 T10281044
54779K12N 12N20160117185012701/17/16 18:50:31  5-MIN K12N 172350Z AUTO 00000KT M03/M04 A2972 770 88 -1100 000/00 RMK AO1 SLP075 T10281044 10006 21028 57020
54779K12N 12N20160117185510201/17/16 18:55:31  5-MIN K12N 172355Z AUTO 00000KT M03/M04 A2972 770 88 -1100 000/00 RMK AO1 T10281044
54779K12N 12N20160117190010201/17/16 19:00:31  5-MIN K12N 180000Z AUTO 00000KT M03/M04 A2972 770 88 -1100 000/00 RMK AO1 T10281044
54779K12N 12N20160117190510201/17/16 19:05:31  5-MIN K12N 180005Z AUTO 00000KT M03/M04 A2972 770 92 -1200 000/00 RMK AO1 T10331044
54779K12N 12N20160117191010201/17/16 19:10:31  5-MIN K12N 180010Z AUTO 00000KT M04/M05 A2972 770 92 -1300 000/00 RMK AO1 T10391050
54779K12N 12N20160117191510201/17/16 19:15:31  5-MIN K12N 180015Z AUTO 00000KT M04/M05 A2972 770 92 -1300 000/00 RMK AO1 T10391050
54779K12N 12N20160117192010201/17/16 19:20:31  5-MIN K12N 180020Z AUTO 00000KT M03/M05 A2972 770 88 -1200 000/00 RMK AO1 T10331050
54779K12N 12N20160117192510201/17/16 19:25:31  5-MIN K12N 180025Z AUTO 00000KT M03/M05 A2972 770 88 -1200 000/00 RMK AO1 T10331050
54779K12N 12N20160117193010201/17/16 19:30:31  5-MIN K12N 180030Z AUTO 00000KT M03/M05 A2972 770 88 -1200 000/00 RMK AO1 T10331050
54779K12N 12N20160117193510201/17/16 19:35:31  5-MIN K12N 180035Z AUTO 00000KT M03/M04 A2972 780 92 -1200 000/00 RMK AO1 T10331044
54779K12N 12N20160117194010201/17/16 19:40:31  5-MIN K12N 180040Z AUTO 00000KT M03/M04 A2971 780 88 -1100 000/00 RMK AO1 T10281044
54779K12N 12N20160117194510201/17/16 19:45:31  5-MIN K12N 180045Z AUTO 00000KT M03/M04 A2971 780 92 -1100 000/00 RMK AO1 T10281039
54779K12N 12N20160117195010901/17/16 19:50:31  5-MIN K12N 180050Z AUTO 00000KT M03/M04 A2971 780 92 -1100 000/00 RMK AO1 SLP071 T10281039
54779K12N 12N20160117195510201/17/16 19:55:31  5-MIN K12N 180055Z AUTO 00000KT M03/M04 A2971 780 92 -1100 000/00 RMK AO1 T10281039
54779K12N 12N20160117200010201/17/16 20:00:31  5-MIN K12N 180100Z AUTO 00000KT M03/M04 A2971 780 92 -1100 000/00 RMK AO1 T10281039
54779K12N 12N20160117200510201/17/16 20:05:31  5-MIN K12N 180105Z AUTO 00000KT M03/M04 A2971 780 92 -1100 000/00 RMK AO1 T10281039
54779K12N 12N20160117201010201/17/16 20:10:31  5-MIN K12N 180110Z AUTO 00000KT M03/M04 A2971 780 92 -1100 000/00 RMK AO1 T10281039
54779K12N 12N20160117201510201/17/16 20:15:31  5-MIN K12N 180115Z AUTO 00000KT M02/M04 A2971 780 88 -1100 000/00 RMK AO1 T10221039
54779K12N 12N20160117202010201/17/16 20:20:31  5-MIN K12N 180120Z AUTO 00000KT M02/M04 A2971 780 88 -1000 000/00 RMK AO1 T10221039
54779K12N 12N20160117202510201/17/16 20:25:31  5-MIN K12N 180125Z AUTO 00000KT M02/M04 A2971 780 88 -1000 000/00 RMK AO1 T10221039
54779K12N 12N20160117203010201/17/16 20:30:31  5-MIN K12N 180130Z AUTO 00000KT M02/M04 A2970 790 88 -1000 000/00 RMK AO1 T10221039
54779K12N 12N20160117203510201/17/16 20:35:31  5-MIN K12N 180135Z AUTO 00000KT M03/M04 A2970 790 92 -1100 000/00 RMK AO1 T10281039
54779K12N 12N20160117204010201/17/16 20:40:31  5-MIN K12N 180140Z AUTO 00000KT M02/M04 A2970 790 88 -1000 000/00 RMK AO1 T10221039
54779K12N 12N20160117204510201/17/16 20:45:31  5-MIN K12N 180145Z AUTO 00000KT M02/M04 A2970 790 88 -1000 000/00 RMK AO1 T10221039
54779K12N 12N20160117205010901/17/16 20:50:31  5-MIN K12N 180150Z AUTO 00000KT M02/M04 A2970 790 88 -1000 000/00 RMK AO1 SLP066 T10221039
54779K12N 12N20160117205510201/17/16 20:55:31  5-MIN K12N 180155Z AUTO 25003KT M02/M04 A2970 790 88 -1000 260/03 RMK AO1 T10221039
54779K12N 12N20160117210010201/17/16 21:00:31  5-MIN K12N 180200Z AUTO 00000KT M02/M04 A2969 800 85 -1000 000/00 RMK AO1 T10221044
54779K12N 12N20160117210510201/17/16 21:05:31  5-MIN K12N 180205Z AUTO 22003KT M02/M04 A2969 800 85 -1000 240/03 RMK AO1 T10221044
54779K12N 12N20160117211010201/17/16 21:10:31  5-MIN K12N 180210Z AUTO 22003KT M02/M04 A2969 800 85 -1000 230/03 RMK AO1 T10221044
54779K12N 12N20160117211510201/17/16 21:15:31  5-MIN K12N 180215Z AUTO 22003KT M02/M04 A2969 800 88 -1000 240/03 RMK AO1 T10221039
54779K12N 12N20160117212010201/17/16 21:20:31  5-MIN K12N 180220Z AUTO 22003KT M02/M04 A2969 800 88 -1000 230/03 RMK AO1 T10221039
54779K12N 12N20160117212510201/17/16 21:25:31  5-MIN K12N 180225Z AUTO 00000KT M02/M04 A2969 800 85 -1000 000/00 RMK AO1 T10221044
54779K12N 12N20160117213010201/17/16 21:30:31  5-MIN K12N 180230Z AUTO 00000KT M02/M04 A2969 800 88 -1000 000/00 RMK AO1 T10221039
54779K12N 12N20160117213510201/17/16 21:35:31  5-MIN K12N 180235Z AUTO 00000KT M02/M04 A2969 800 88 -1000 000/00 RMK AO1 T10221039
54779K12N 12N20160117214010201/17/16 21:40:31  5-MIN K12N 180240Z AUTO 25003KT M03/M04 A2969 800 92 -1100 260/03 RMK AO1 T10281039
54779K12N 12N20160117214510201/17/16 21:45:31  5-MIN K12N 180245Z AUTO 23003KT M03/M04 A2969 800 88 -1100 240/03 RMK AO1 T10281044
54779K12N 12N20160117215011501/17/16 21:50:31  5-MIN K12N 180250Z AUTO 22003KT M03/M04 A2968 810 88 -1100 230/03 RMK AO1 SLP062 T10281044 57003
54779K12N 12N20160117215510201/17/16 21:55:31  5-MIN K12N 180255Z AUTO 21003KT M03/M04 A2968 810 88 -1100 230/03 RMK AO1 T10281044
54779K12N 12N20160117220010201/17/16 22:00:31  5-MIN K12N 180300Z AUTO 00000KT M03/M04 A2968 810 88 -1100 000/00 RMK AO1 T10281044
54779K12N 12N20160117220510201/17/16 22:05:31  5-MIN K12N 180305Z AUTO 00000KT M03/M04 A2968 810 88 -1100 000/00 RMK AO1 T10281044
54779K12N 12N20160117221010201/17/16 22:10:31  5-MIN K12N 180310Z AUTO 00000KT M03/M04 A2968 810 92 -1100 000/00 RMK AO1 T10281039
54779K12N 12N20160117221510201/17/16 22:15:31  5-MIN K12N 180315Z AUTO 00000KT M03/M04 A2968 810 92 -1100 000/00 RMK AO1 T10281039
54779K12N 12N20160117222010201/17/16 22:20:31  5-MIN K12N 180320Z AUTO 00000KT M03/M04 A2969 800 92 -1100 000/00 RMK AO1 T10281039
54779K12N 12N20160117222510201/17/16 22:25:31  5-MIN K12N 180325Z AUTO 22003KT M03/M04 A2969 800 92 -1100 240/03 RMK AO1 T10281039
54779K12N 12N20160117223010201/17/16 22:30:31  5-MIN K12N 180330Z AUTO 21003KT M03/M04 A2969 800 92 -1100 230/03 RMK AO1 T10281039
54779K12N 12N20160117223510201/17/16 22:35:31  5-MIN K12N 180335Z AUTO VRB03KT M03/M04 A2969 800 92 -1100 VRB/03 RMK AO1 T10281039
54779K12N 12N20160117224010201/17/16 22:40:31  5-MIN K12N 180340Z AUTO 00000KT M03/M04 A2969 800 92 -1100 000/00 RMK AO1 T10281039
54779K12N 12N20160117224510201/17/16 22:45:31  5-MIN K12N 180345Z AUTO 00000KT M03/M04 A2969 800 88 -1100 000/00 RMK AO1 T10281044
54779K12N 12N20160117225010901/17/16 22:50:31  5-MIN K12N 180350Z AUTO 00000KT M03/M04 A2969 800 88 -1100 000/00 RMK AO1 SLP063 T10281044
54779K12N 12N20160117225510201/17/16 22:55:31  5-MIN K12N 180355Z AUTO 00000KT M03/M04 A2969 800 88 -1100 000/00 RMK AO1 T10281044
54779K12N 12N20160117230010201/17/16 23:00:31  5-MIN K12N 180400Z AUTO 23003KT M03/M04 A2969 800 92 -1100 240/03 RMK AO1 T10281039
54779K12N 12N20160117230510201/17/16 23:05:31  5-MIN K12N 180405Z AUTO VRB03KT M03/M04 A2969 800 92 -1100 VRB/03 RMK AO1 T10281039
54779K12N 12N20160117231010201/17/16 23:10:31  5-MIN K12N 180410Z AUTO 00000KT M03/M04 A2969 800 92 -1100 000/00 RMK AO1 T10281039
54779K12N 12N20160117231510201/17/16 23:15:31  5-MIN K12N 180415Z AUTO 00000KT M03/M04 A2968 800 88 -1100 000/00 RMK AO1 T10281044
54779K12N 12N20160117232010201/17/16 23:20:31  5-MIN K12N 180420Z AUTO 00000KT M03/M04 A2969 800 88 -1100 000/00 RMK AO1 T10281044
54779K12N 12N20160117232510201/17/16 23:25:31  5-MIN K12N 180425Z AUTO 00000KT M03/M04 A2968 810 88 -1100 000/00 RMK AO1 T10281044
54779K12N 12N20160117233010201/17/16 23:30:31  5-MIN K12N 180430Z AUTO 00000KT M03/M04 A2968 810 92 -1200 000/00 RMK AO1 T10331044
54779K12N 12N20160117233510201/17/16 23:35:31  5-MIN K12N 180435Z AUTO 00000KT M03/M04 A2968 810 92 -1200 000/00 RMK AO1 T10331044
54779K12N 12N20160117234010201/17/16 23:40:31  5-MIN K12N 180440Z AUTO 00000KT M03/M04 A2968 810 92 -1200 000/00 RMK AO1 T10331044
54779K12N 12N20160117234510201/17/16 23:45:31  5-MIN K12N 180445Z AUTO 00000KT M03/M04 A2968 810 92 -1200 000/00 RMK AO1 T10331044
54779K12N 12N20160117235011901/17/16 23:50:31  5-MIN K12N 180450Z AUTO 00000KT M03/M04 A2968 810 92 -1200 000/00 RMK AO1 SLP061 T10331044 400281039
54779K12N 12N20160117235510201/17/16 23:55:31  5-MIN K12N 180455Z AUTO 00000KT M03/M04 A2968 810 92 -1200 000/00 RMK AO1 T10331044
54779K12N 12N20160118000010201/18/16 00:00:31  5-MIN K12N 180500Z AUTO 00000KT M04/M05 A2968 810 92 -1200 000/00 RMK AO1 T10391050
54779K12N 12N20160118000510201/18/16 00:05:31  5-MIN K12N 180505Z AUTO 00000KT M04/M05 A2967 810 92 -1200 000/00 RMK AO1 T10391050
54779K12N 12N20160118001010201/18/16 00:10:31  5-MIN K12N 180510Z AUTO 00000KT M03/M04 A2967 820 92 -1100 000/00 RMK AO1 T10331044
54779K12N 12N20160118001510201/18/16 00:15:31  5-MIN K12N 180515Z AUTO 00000KT M04/M05 A2967 820 92 -1200 000/00 RMK AO1 T10391050
54779K12N 12N20160118002010201/18/16 00:20:31  5-MIN K12N 180520Z AUTO 00000KT M04/M05 A2967 820 92 -1200 000/00 RMK AO1 T10391050
54779K12N 12N20160118002510201/18/16 00:25:31  5-MIN K12N 180525Z AUTO 00000KT M04/M05 A2967 820 92 -1200 000/00 RMK AO1 T10391050
54779K12N 12N20160118003010201/18/16 00:30:31  5-MIN K12N 180530Z AUTO 00000KT M04/M05 A2967 820 92 -1200 000/00 RMK AO1 T10391050
54779K12N 12N20160118003510201/18/16 00:35:31  5-MIN K12N 180535Z AUTO 00000KT M04/M05 A2966 820 92 -1200 000/00 RMK AO1 T10391050
54779K12N 12N20160118004010201/18/16 00:40:31  5-MIN K12N 180540Z AUTO 00000KT M04/M05 A2966 820 96 -1300 000/00 RMK AO1 T10441050
54779K12N 12N20160118004510201/18/16 00:45:31  5-MIN K12N 180545Z AUTO 00000KT M04/M06 A2966 830 92 -1300 000/00 RMK AO1 T10441056
54779K12N 12N20160118005012701/18/16 00:50:31  5-MIN K12N 180550Z AUTO 00000KT M04/M05 A2966 830 92 -1200 000/00 RMK AO1 SLP055 T10391050 11022 21044 58012
54779K12N 12N20160118005510201/18/16 00:55:31  5-MIN K12N 180555Z AUTO 00000KT M04/M05 A2966 830 92 -1200 000/00 RMK AO1 T10391050
54779K12N 12N20160118010010201/18/16 01:00:31  5-MIN K12N 180600Z AUTO 00000KT M04/M05 A2966 830 92 -1200 000/00 RMK AO1 T10391050
54779K12N 12N20160118010510201/18/16 01:05:31  5-MIN K12N 180605Z AUTO 00000KT M04/M06 A2966 830 92 -1300 000/00 RMK AO1 T10441056
54779K12N 12N20160118011010201/18/16 01:10:31  5-MIN K12N 180610Z AUTO 00000KT M04/M06 A2966 830 92 -1300 000/00 RMK AO1 T10441056
54779K12N 12N20160118011510201/18/16 01:15:31  5-MIN K12N 180615Z AUTO 00000KT M04/M05 A2966 830 92 -1200 000/00 RMK AO1 T10391050
54779K12N 12N20160118012010201/18/16 01:20:31  5-MIN K12N 180620Z AUTO 00000KT M03/M05 A2966 820 88 -1100 000/00 RMK AO1 T10331050
54779K12N 12N20160118012510201/18/16 01:25:31  5-MIN K12N 180625Z AUTO 18003KT M03/M04 A2967 820 92 -1100 190/03 RMK AO1 T10331044
54779K12N 12N20160118013010201/18/16 01:30:31  5-MIN K12N 180630Z AUTO 18003KT M03/M04 A2967 820 92 -1100 190/03 RMK AO1 T10331044
54779K12N 12N20160118013510201/18/16 01:35:31  5-MIN K12N 180635Z AUTO 00000KT M03/M04 A2967 820 92 -1100 000/00 RMK AO1 T10331044
54779K12N 12N20160118014010201/18/16 01:40:31  5-MIN K12N 180640Z AUTO 21004KT M03/M04 A2967 820 92 -1100 220/04 RMK AO1 T10331044
54779K12N 12N20160118014510201/18/16 01:45:31  5-MIN K12N 180645Z AUTO 18003KT M03/M04 A2967 820 92 -1100 190/03 RMK AO1 T10331044
54779K12N 12N20160118015010901/18/16 01:50:31  5-MIN K12N 180650Z AUTO 00000KT M03/M04 A2967 820 92 -1100 000/00 RMK AO1 SLP056 T10331044
54779K12N 12N20160118015510201/18/16 01:55:31  5-MIN K12N 180655Z AUTO VRB03KT M03/M04 A2967 820 92 -1100 VRB/03 RMK AO1 T10331044
54779K12N 12N20160118020010201/18/16 02:00:31  5-MIN K12N 180700Z AUTO 20003KT M03/M05 A2967 820 88 -1100 210/03 RMK AO1 T10331050
54779K12N 12N20160118020510201/18/16 02:05:31  5-MIN K12N 180705Z AUTO 00000KT M03/M05 A2967 820 88 -1100 000/00 RMK AO1 T10331050
54779K12N 12N20160118021010201/18/16 02:10:31  5-MIN K12N 180710Z AUTO 00000KT M03/M05 A2967 820 88 -1100 000/00 RMK AO1 T10331050
54779K12N 12N20160118021510201/18/16 02:15:31  5-MIN K12N 180715Z AUTO 00000KT M03/M05 A2967 820 88 -1100 000/00 RMK AO1 T10331050
54779K12N 12N20160118022010201/18/16 02:20:31  5-MIN K12N 180720Z AUTO VRB03KT M03/M05 A2967 810 88 -1200 VRB/03 RMK AO1 T10331050
54779K12N 12N20160118022510201/18/16 02:25:31  5-MIN K12N 180725Z AUTO 21004KT M03/M05 A2968 810 88 -1200 230/04 RMK AO1 T10331050
54779K12N 12N20160118023010201/18/16 02:30:31  5-MIN K12N 180730Z AUTO 22004KT M03/M05 A2968 810 85 -1100 230/04 RMK AO1 T10281050
54779K12N 12N20160118023510201/18/16 02:35:31  5-MIN K12N 180735Z AUTO 00000KT M03/M06 A2968 810 81 -1100 000/00 RMK AO1 T10281056
54779K12N 12N20160118024010201/18/16 02:40:31  5-MIN K12N 180740Z AUTO VRB04KT M03/M06 A2969 800 78 -1100 VRB/04 RMK AO1 T10281061
54779K12N 12N20160118024510201/18/16 02:45:31  5-MIN K12N 180745Z AUTO VRB06KT M03/M08 A2968 800 68 -1100 VRB/06 RMK AO1 T10281078
54779K12N 12N20160118025012501/18/16 02:50:31  5-MIN K12N 180750Z AUTO 32007KT 280V010 M03/M09 A2969 800 63 -1100 330/07 290V020 RMK AO1 SLP063 T10281089
54779K12N 12N20160118025510201/18/16 02:55:31  5-MIN K12N 180755Z AUTO 00000KT M03/M09 A2969 800 60 -1100 000/00 RMK AO1 T10281094
54779K12N 12N20160118030009201/18/16 03:00:31  5-MIN K12N 180800Z AUTO M03/M10 A2969 800 58 -1100 M /M RMK AO1 T10281100
54779K12N 12N20160118030509201/18/16 03:05:31  5-MIN K12N 180805Z AUTO M03/M10 A2969 800 58 -1100 M /M RMK AO1 T10281100
54779K12N 12N20160118031012401/18/16 03:10:31  5-MIN K12N 180810Z AUTO 30007G17KT 220V350 M03/M11 A2969 800 53 -1100 310/07G17 230V360 RMK AO1 T10281111
54779K12N 12N20160118031509201/18/16 03:15:31  5-MIN K12N 180815Z AUTO M03/M12 A2969 800 50 -1200 M /M RMK AO1 T10331122
54779K12N 12N20160118032011801/18/16 03:20:31  5-MIN K12N 180820Z AUTO 29007KT 260V350 M03/M14 A2969 800 44 -1200 310/07 270V360 RMK AO1 T10331139
54779K12N 12N20160118032510201/18/16 03:25:31  5-MIN K12N 180825Z AUTO VRB04KT M03/M14 A2969 800 44 -1200 VRB/04 RMK AO1 T10331139
54779K12N 12N20160118033010201/18/16 03:30:31  5-MIN K12N 180830Z AUTO VRB04KT M03/M14 A2969 800 44 -1200 VRB/04 RMK AO1 T10331139
54779K12N 12N20160118033510201/18/16 03:35:31  5-MIN K12N 180835Z AUTO VRB06KT M03/M14 A2969 800 44 -1200 VRB/06 RMK AO1 T10331139
54779K12N 12N20160118034010201/18/16 03:40:31  5-MIN K12N 180840Z AUTO VRB03KT M04/M14 A2969 800 46 -1200 VRB/03 RMK AO1 T10391139
54779K12N 12N20160118034509201/18/16 03:45:31  5-MIN K12N 180845Z AUTO M04/M14 A2970 790 44 -1300 M /M RMK AO1 T10391144
54779K12N 12N20160118035011501/18/16 03:50:31  5-MIN K12N 180850Z AUTO 00000KT M04/M14 A2970 790 44 -1300 000/00 RMK AO1 SLP069 T10391144 58008
54779K12N 12N20160118035510201/18/16 03:55:31  5-MIN K12N 180855Z AUTO 25006KT M04/M15 A2970 790 42 -1300 260/06 RMK AO1 T10391150
54779K12N 12N20160118040010201/18/16 04:00:31  5-MIN K12N 180900Z AUTO VRB05KT M04/M16 A2970 790 40 -1300 VRB/05 RMK AO1 T10391156
54779K12N 12N20160118040510801/18/16 04:05:31  5-MIN K12N 180905Z AUTO VRB06G16KT M04/M16 A2971 780 40 -1300 VRB/06G16 RMK AO1 T10391156
54779K12N 12N20160118041010801/18/16 04:10:31  5-MIN K12N 180910Z AUTO VRB05G16KT M04/M16 A2971 780 40 -1300 VRB/05G16 RMK AO1 T10391156
54779K12N 12N20160118041512401/18/16 04:15:31  5-MIN K12N 180915Z AUTO 22007G16KT 160V280 M04/M16 A2971 780 38 -1300 240/07G16 170V290 RMK AO1 T10391161
54779K12N 12N20160118042012401/18/16 04:20:31  5-MIN K12N 180920Z AUTO 23009G21KT 190V280 M04/M17 A2971 780 38 -1300 240/09G21 200V290 RMK AO1 T10441167
54779K12N 12N20160118042512401/18/16 04:25:31  5-MIN K12N 180925Z AUTO 25007G22KT 230V300 M04/M17 A2971 780 38 -1300 260/07G22 240V310 RMK AO1 T10441167
54779K12N 12N20160118043012401/18/16 04:30:31  5-MIN K12N 180930Z AUTO 24008G22KT 200V270 M04/M17 A2971 780 38 -1300 250/08G22 210V280 RMK AO1 T10441167
54779K12N 12N20160118043510201/18/16 04:35:31  5-MIN K12N 180935Z AUTO 23004KT M05/M16 A2971 780 42 -1400 240/04 RMK AO1 T10501161
54779K12N 12N20160118044011801/18/16 04:40:31  5-MIN K12N 180940Z AUTO 27007KT 200V320 M05/M16 A2971 780 42 -1400 280/07 210V330 RMK AO1 T10501161
54779K12N 12N20160118044510201/18/16 04:45:31  5-MIN K12N 180945Z AUTO VRB06KT M05/M16 A2971 780 44 -1400 VRB/06 RMK AO1 T10501156
54779K12N 12N20160118045010901/18/16 04:50:31  5-MIN K12N 180950Z AUTO VRB05KT M05/M16 A2971 780 44 -1400 VRB/05 RMK AO1 SLP075 T10501156
54779K12N 12N20160118045510201/18/16 04:55:31  5-MIN K12N 180955Z AUTO VRB06KT M06/M15 A2972 770 48 -1500 VRB/06 RMK AO1 T10561150
54779K12N 12N20160118050010201/18/16 05:00:31  5-MIN K12N 181000Z AUTO VRB05KT M06/M15 A2972 770 48 -1500 VRB/05 RMK AO1 T10561150
54779K12N 12N20160118050510201/18/16 05:05:31  5-MIN K12N 181005Z AUTO VRB04KT M06/M15 A2972 770 48 -1500 VRB/04 RMK AO1 T10561150
54779K12N 12N20160118051010201/18/16 05:10:31  5-MIN K12N 181010Z AUTO VRB05KT M06/M14 A2972 770 50 -1500 VRB/05 RMK AO1 T10561144
54779K12N 12N20160118051512401/18/16 05:15:31  5-MIN K12N 181015Z AUTO 34008G19KT 300V040 M06/M14 A2973 760 52 -1500 350/08G19 310V050 RMK AO1 T10561139
54779K12N 12N20160118052013101/18/16 05:20:31  5-MIN K12N 181020Z AUTO 34009G19KT 250V020 M06/M11 A2974 750 68 -1600 350/09G19 260V030 RMK AO1 PRESRR T10611111
54779K12N 12N20160118052512401/18/16 05:25:31  5-MIN K12N 181025Z AUTO 30010G19KT 240V340 M07/M10 A2974 750 81 -1700 320/10G19 250V350 RMK AO1 T10721100
54779K12N 12N20160118053011401/18/16 05:30:31  5-MIN K12N 181030Z AUTO VRB06G19KT M07/M10 A2974 760 81 -1700 VRB/06G19 RMK AO1 P0001 T10721100
54779K12N 12N20160118053513001/18/16 05:35:31  5-MIN K12N 181035Z AUTO 30008G17KT 270V330 M07/M10 A2974 750 77 -1700 320/08G17 280V340 RMK AO1 P0001 T10671100
54779K12N 12N20160118054010801/18/16 05:40:31  5-MIN K12N 181040Z AUTO VRB05KT M07/M10 A2974 750 77 -1700 VRB/05 RMK AO1 P0001 T10671100
54779K12N 12N20160118054510801/18/16 05:45:31  5-MIN K12N 181045Z AUTO VRB06KT M07/M10 A2974 750 77 -1700 VRB/06 RMK AO1 P0001 T10671100
54779K12N 12N20160118055011501/18/16 05:50:31  5-MIN K12N 181050Z AUTO VRB06KT M07/M10 A2975 750 77 -1700 VRB/06 RMK AO1 SLP086 P0001 T10671100
54779K12N 12N20160118055511801/18/16 05:55:31  5-MIN K12N 181055Z AUTO 31007KT 250V350 M07/M10 A2975 740 77 -1700 320/07 260V360 RMK AO1 T10671100
54779K12N 12N20160118060010201/18/16 06:00:31  5-MIN K12N 181100Z AUTO VRB06KT M07/M09 A2976 740 84 -1700 VRB/06 RMK AO1 T10721094
54779K12N 12N20160118060510201/18/16 06:05:31  5-MIN K12N 181105Z AUTO VRB06KT M07/M09 A2976 740 84 -1800 VRB/06 RMK AO1 T10721094
54779K12N 12N20160118061010801/18/16 06:10:31  5-MIN K12N 181110Z AUTO VRB05KT M07/M09 A2976 730 84 -1800 VRB/05 RMK AO1 P0001 T10721094
54779K12N 12N20160118061510801/18/16 06:15:31  5-MIN K12N 181115Z AUTO VRB05KT M07/M09 A2976 730 84 -1800 VRB/05 RMK AO1 P0001 T10721094
54779K12N 12N20160118062010801/18/16 06:20:31  5-MIN K12N 181120Z AUTO VRB06KT M07/M09 A2977 730 84 -1800 VRB/06 RMK AO1 P0001 T10721094
54779K12N 12N20160118062510801/18/16 06:25:31  5-MIN K12N 181125Z AUTO VRB06KT M07/M09 A2977 720 84 -1800 VRB/06 RMK AO1 P0001 T10721094
54779K12N 12N20160118063010801/18/16 06:30:31  5-MIN K12N 181130Z AUTO VRB06KT M08/M09 A2977 720 88 -1800 VRB/06 RMK AO1 P0001 T10781094
54779K12N 12N20160118063510801/18/16 06:35:31  5-MIN K12N 181135Z AUTO VRB06KT M07/M10 A2978 720 81 -1800 VRB/06 RMK AO1 P0001 T10721100
54779K12N 12N20160118064013001/18/16 06:40:31  5-MIN K12N 181140Z AUTO 33008G18KT 300V010 M07/M11 A2978 720 77 -1800 340/08G18 310V020 RMK AO1 P0001 T10721106
54779K12N 12N20160118064513001/18/16 06:45:31  5-MIN K12N 181145Z AUTO 33008G18KT 290V360 M08/M12 A2978 720 74 -1800 340/08G18 300V010 RMK AO1 P0001 T10781117
54779K12N 12N20160118065015101/18/16 06:50:31  5-MIN K12N 181150Z AUTO VRB06G16KT M08/M13 A2978 710 67 -1900 VRB/06G16 RMK AO1 SLP100 P0001 60002 70002 T10781128 11022 21078 53014
54779K12N 12N20160118065512401/18/16 06:55:31  5-MIN K12N 181155Z AUTO 32008G16KT 290V360 M08/M13 A2979 710 67 -1900 340/08G16 300V010 RMK AO1 T10781128
54779K12N 12N20160118070010201/18/16 07:00:31  5-MIN K12N 181200Z AUTO VRB06KT M08/M13 A2978 710 64 -1900 VRB/06 RMK AO1 T10781133
54779K12N 12N20160118070510201/18/16 07:05:31  5-MIN K12N 181205Z AUTO VRB04KT M08/M13 A2979 710 64 -1900 VRB/04 RMK AO1 T10781133
54779K12N 12N20160118071010201/18/16 07:10:31  5-MIN K12N 181210Z AUTO VRB05KT M08/M14 A2979 700 62 -1900 VRB/05 RMK AO1 T10781139
54779K12N 12N20160118071511801/18/16 07:15:31  5-MIN K12N 181215Z AUTO 30008KT 250V340 M08/M14 A2979 700 62 -1900 310/08 260V350 RMK AO1 T10781139
54779K12N 12N20160118072012401/18/16 07:20:31  5-MIN K12N 181220Z AUTO 31010G17KT 260V350 M08/M14 A2979 700 59 -1900 320/10G17 270V360 RMK AO1 T10781144
54779K12N 12N20160118072512401/18/16 07:25:31  5-MIN K12N 181225Z AUTO 33008G17KT 280V020 M08/M16 A2979 700 54 -1900 340/08G17 290V030 RMK AO1 T10781156
54779K12N 12N20160118073010201/18/16 07:30:31  5-MIN K12N 181230Z AUTO VRB06KT M08/M16 A2980 700 51 -1900 VRB/06 RMK AO1 T10781161
54779K12N 12N20160118073510201/18/16 07:35:31  5-MIN K12N 181235Z AUTO VRB06KT M08/M16 A2980 700 51 -1900 VRB/06 RMK AO1 T10781161
54779K12N 12N20160118074012401/18/16 07:40:31  5-MIN K12N 181240Z AUTO 30009G17KT 250V350 M08/M17 A2980 700 49 -1900 310/09G17 260V360 RMK AO1 T10781167
54779K12N 12N20160118074512401/18/16 07:45:31  5-MIN K12N 181245Z AUTO 31007G17KT 260V360 M08/M17 A2980 690 49 -1900 330/07G17 270V010 RMK AO1 T10781167
54779K12N 12N20160118075009901/18/16 07:50:31  5-MIN K12N 181250Z AUTO M08/M17 A2980 690 51 -1900 M /M RMK AO1 SLP107 T10831167
54779K12N 12N20160118075510201/18/16 07:55:31  5-MIN K12N 181255Z AUTO VRB05KT M08/M17 A2980 690 49 -1900 VRB/05 RMK AO1 T10831172
54779K12N 12N20160118080011801/18/16 08:00:31  5-MIN K12N 181300Z AUTO 29008KT 260V330 M08/M17 A2981 690 49 -2000 310/08 270V340 RMK AO1 T10831172
54779K12N 12N20160118080510201/18/16 08:05:31  5-MIN K12N 181305Z AUTO VRB04KT M08/M17 A2981 690 49 -2000 VRB/04 RMK AO1 T10831172
54779K12N 12N20160118081010201/18/16 08:10:31  5-MIN K12N 181310Z AUTO VRB05KT M08/M17 A2981 680 49 -2000 VRB/05 RMK AO1 T10831172
54779K12N 12N20160118081511801/18/16 08:15:31  5-MIN K12N 181315Z AUTO 31008KT 270V360 M08/M17 A2982 680 49 -2000 320/08 280V010 RMK AO1 T10831172
54779K12N 12N20160118082010201/18/16 08:20:31  5-MIN K12N 181320Z AUTO VRB04KT M08/M17 A2982 680 49 -2000 VRB/04 RMK AO1 T10831172
54779K12N 12N20160118082510801/18/16 08:25:31  5-MIN K12N 181325Z AUTO VRB05KT M08/M17 A2982 670 49 -2000 VRB/05 RMK AO1 P0001 T10831172
54779K12N 12N20160118083010801/18/16 08:30:31  5-MIN K12N 181330Z AUTO VRB03KT M08/M17 A2982 670 47 -1900 VRB/03 RMK AO1 P0001 T10781172
54779K12N 12N20160118083510801/18/16 08:35:31  5-MIN K12N 181335Z AUTO VRB03KT M08/M17 A2982 670 47 -1900 VRB/03 RMK AO1 P0001 T10781172
54779K12N 12N20160118084010801/18/16 08:40:31  5-MIN K12N 181340Z AUTO 29004KT M07/M17 A2983 670 45 -1800 300/04 RMK AO1 P0001 T10721172
54779K12N 12N20160118084510801/18/16 08:45:31  5-MIN K12N 181345Z AUTO VRB04KT M07/M17 A2983 670 47 -1800 VRB/04 RMK AO1 P0001 T10721167
54779K12N 12N20160118085011501/18/16 08:50:31  5-MIN K12N 181350Z AUTO VRB04KT M07/M17 A2983 670 47 -1800 VRB/04 RMK AO1 SLP116 P0001 T10721167
54779K12N 12N20160118085511801/18/16 08:55:31  5-MIN K12N 181355Z AUTO 31007KT 270V340 M07/M17 A2983 670 47 -1800 320/07 280V350 RMK AO1 T10721167
54779K12N 12N20160118090010201/18/16 09:00:31  5-MIN K12N 181400Z AUTO VRB04KT M07/M17 A2983 670 47 -1800 VRB/04 RMK AO1 T10721167
54779K12N 12N20160118090510201/18/16 09:05:31  5-MIN K12N 181405Z AUTO VRB06KT M07/M17 A2983 660 47 -1800 VRB/06 RMK AO1 T10721167
54779K12N 12N20160118091011801/18/16 09:10:31  5-MIN K12N 181410Z AUTO 29007KT 250V320 M07/M17 A2983 670 47 -1800 300/07 260V330 RMK AO1 T10721167
54779K12N 12N20160118091511801/18/16 09:15:31  5-MIN K12N 181415Z AUTO 27007KT 220V310 M07/M17 A2983 670 47 -1800 290/07 230V320 RMK AO1 T10721167
54779K12N 12N20160118092011801/18/16 09:20:31  5-MIN K12N 181420Z AUTO 30007KT 250V340 M07/M16 A2983 660 49 -1800 310/07 260V350 RMK AO1 T10721161
54779K12N 12N20160118092511801/18/16 09:25:31  5-MIN K12N 181425Z AUTO 30007KT 270V330 M07/M17 A2983 670 47 -1800 320/07 280V340 RMK AO1 T10721167
54779K12N 12N20160118093010201/18/16 09:30:31  5-MIN K12N 181430Z AUTO VRB05KT M07/M17 A2983 670 47 -1800 VRB/05 RMK AO1 T10721167
54779K12N 12N20160118093510201/18/16 09:35:31  5-MIN K12N 181435Z AUTO VRB06KT M07/M17 A2983 670 45 -1800 VRB/06 RMK AO1 T10671167
54779K12N 12N20160118094010201/18/16 09:40:31  5-MIN K12N 181440Z AUTO VRB06KT M07/M16 A2983 670 47 -1800 VRB/06 RMK AO1 T10671161
54779K12N 12N20160118094511801/18/16 09:45:31  5-MIN K12N 181445Z AUTO 29007KT 240V360 M07/M16 A2983 660 47 -1800 300/07 250V010 RMK AO1 T10671161
54779K12N 12N20160118095013701/18/16 09:50:31  5-MIN K12N 181450Z AUTO 33007KT 280V010 M07/M17 A2983 670 45 -1800 340/07 290V020 RMK AO1 SLP117 60001 T10671167 53028
54779K12N 12N20160118095510201/18/16 09:55:31  5-MIN K12N 181455Z AUTO VRB05KT M07/M16 A2983 660 47 -1800 VRB/05 RMK AO1 T10671161
54779K12N 12N20160118100012401/18/16 10:00:31  5-MIN K12N 181500Z AUTO 28009G15KT 230V320 M07/M17 A2984 660 45 -1800 290/09G15 240V330 RMK AO1 T10671167
54779K12N 12N20160118100512401/18/16 10:05:31  5-MIN K12N 181505Z AUTO 26008G15KT 230V300 M07/M16 A2984 660 47 -1800 270/08G15 240V310 RMK AO1 T10671161
54779K12N 12N20160118101011801/18/16 10:10:31  5-MIN K12N 181510Z AUTO 27009KT 230V330 M07/M17 A2984 660 45 -1800 280/09 240V340 RMK AO1 T10671167
54779K12N 12N20160118101510801/18/16 10:15:31  5-MIN K12N 181515Z AUTO VRB05G16KT M06/M17 A2984 660 43 -1700 VRB/05G16 RMK AO1 T10611167
54779K12N 12N20160118102012401/18/16 10:20:31  5-MIN K12N 181520Z AUTO 33008G15KT 280V350 M06/M17 A2984 660 43 -1700 340/08G15 290V360 RMK AO1 T10611167
54779K12N 12N20160118102510801/18/16 10:25:31  5-MIN K12N 181525Z AUTO 30010G16KT M06/M17 A2985 650 43 -1700 320/10G16 RMK AO1 T10611167
54779K12N 12N20160118103010801/18/16 10:30:31  5-MIN K12N 181530Z AUTO VRB06G16KT M06/M16 A2985 650 43 -1600 VRB/06G16 RMK AO1 T10561161
54779K12N 12N20160118103512401/18/16 10:35:31  5-MIN K12N 181535Z AUTO 28007G16KT 210V340 M06/M17 A2984 660 43 -1700 290/07G16 220V350 RMK AO1 T10611167
54779K12N 12N20160118104012401/18/16 10:40:31  5-MIN K12N 181540Z AUTO 34009G19KT 300V360 M06/M17 A2985 650 41 -1600 350/09G19 310V010 RMK AO1 T10561167
54779K12N 12N20160118104512401/18/16 10:45:31  5-MIN K12N 181545Z AUTO 29009G19KT 230V330 M06/M17 A2985 650 41 -1600 300/09G19 240V340 RMK AO1 T10561167
54779K12N 12N20160118105013101/18/16 10:50:31  5-MIN K12N 181550Z AUTO 34008G17KT 280V020 M06/M17 A2985 650 41 -1600 350/08G17 290V030 RMK AO1 SLP121 T10561167
54779K12N 12N20160118105512401/18/16 10:55:31  5-MIN K12N 181555Z AUTO 34009G18KT 290V010 M06/M17 A2984 660 41 -1600 350/09G18 300V020 RMK AO1 T10561167
54779K12N 12N20160118110012401/18/16 11:00:31  5-MIN K12N 181600Z AUTO 29007G18KT 240V340 M06/M17 A2984 660 41 -1600 300/07G18 250V350 RMK AO1 T10561167
54779K12N 12N20160118110510201/18/16 11:05:31  5-MIN K12N 181605Z AUTO 30008KT M06/M17 A2984 660 40 -1600 310/08 RMK AO1 T10561172
54779K12N 12N20160118111010201/18/16 11:10:31  5-MIN K12N 181610Z AUTO VRB05KT M06/M17 A2984 660 41 -1600 VRB/05 RMK AO1 T10561167
54779K12N 12N20160118111512401/18/16 11:15:31  5-MIN K12N 181615Z AUTO 30011G20KT 270V340 M06/M17 A2984 660 40 -1600 320/11G20 280V350 RMK AO1 T10561172
54779K12N 12N20160118112012401/18/16 11:20:31  5-MIN K12N 181620Z AUTO 33010G20KT 290V020 M06/M17 A2983 660 40 -1600 340/10G20 300V030 RMK AO1 T10561172
54779K12N 12N20160118112510801/18/16 11:25:31  5-MIN K12N 181625Z AUTO VRB05G16KT M06/M17 A2983 670 40 -1600 VRB/05G16 RMK AO1 T10561172
54779K12N 12N20160118113010201/18/16 11:30:31  5-MIN K12N 181630Z AUTO VRB06KT M05/M17 A2983 670 40 -1500 VRB/06 RMK AO1 T10501167
54779K12N 12N20160118113510201/18/16 11:35:31  5-MIN K12N 181635Z AUTO VRB06KT M05/M17 A2983 670 40 -1500 VRB/06 RMK AO1 T10501167
54779K12N 12N20160118114010201/18/16 11:40:31  5-MIN K12N 181640Z AUTO VRB05KT M05/M17 A2983 670 40 -1500 VRB/05 RMK AO1 T10501167
54779K12N 12N20160118114512401/18/16 11:45:31  5-MIN K12N 181645Z AUTO 29012G19KT 250V350 M05/M17 A2983 670 38 -1500 310/12G19 260V360 RMK AO1 T10501172
54779K12N 12N20160118115013101/18/16 11:50:31  5-MIN K12N 181650Z AUTO 31010G19KT 260V340 M06/M18 A2984 660 38 -1600 320/10G19 270V350 RMK AO1 SLP117 T10561178
54779K12N 12N20160118115510801/18/16 11:55:31  5-MIN K12N 181655Z AUTO 35012G17KT M06/M18 A2983 670 38 -1700 360/12G17 RMK AO1 T10611183
54779K12N 12N20160118120012401/18/16 12:00:31  5-MIN K12N 181700Z AUTO 32010G17KT 290V010 M06/M18 A2983 670 38 -1600 340/10G17 300V020 RMK AO1 T10561178
54779K12N 12N20160118120512401/18/16 12:05:31  5-MIN K12N 181705Z AUTO 33007G17KT 260V050 M06/M18 A2983 670 38 -1600 350/07G17 270V060 RMK AO1 T10561178
54779K12N 12N20160118121012401/18/16 12:10:31  5-MIN K12N 181710Z AUTO 33011G19KT 300V360 M05/M18 A2983 670 36 -1500 340/11G19 310V010 RMK AO1 T10501178
54779K12N 12N20160118121510801/18/16 12:15:31  5-MIN K12N 181715Z AUTO VRB06G21KT M06/M18 A2983 670 36 -1600 VRB/06G21 RMK AO1 T10561183
54779K12N 12N20160118122012401/18/16 12:20:31  5-MIN K12N 181720Z AUTO 32009G21KT 300V010 M06/M18 A2983 670 36 -1600 340/09G21 310V020 RMK AO1 T10561183
54779K12N 12N20160118122512401/18/16 12:25:31  5-MIN K12N 181725Z AUTO 34007G17KT 270V020 M05/M18 A2983 670 35 -1500 360/07G17 280V030 RMK AO1 T10501183
54779K12N 12N20160118123012401/18/16 12:30:31  5-MIN K12N 181730Z AUTO 33008G14KT 270V060 M04/M18 A2983 670 33 -1500 350/08G14 280V070 RMK AO1 T10441183
54779K12N 12N20160118123512401/18/16 12:35:31  5-MIN K12N 181735Z AUTO 34009G16KT 290V010 M04/M18 A2983 670 33 -1500 350/09G16 300V020 RMK AO1 T10441183
54779K12N 12N20160118124010801/18/16 12:40:31  5-MIN K12N 181740Z AUTO 30012G18KT M05/M19 A2982 670 33 -1500 320/12G18 RMK AO1 T10501189
54779K12N 12N20160118124512401/18/16 12:45:31  5-MIN K12N 181745Z AUTO 32007G21KT 280V360 M05/M19 A2982 680 33 -1500 330/07G21 290V010 RMK AO1 T10501189
54779K12N 12N20160118125013901/18/16 12:50:31  5-MIN K12N 181750Z AUTO 34007G21KT M04/M18 A2982 680 35 -1500 350/07G21 RMK AO1 SLP112 60001 T10441178 11044 21083 51017
54779K12N 12N20160118125512401/18/16 12:55:31  5-MIN K12N 181755Z AUTO 31010G18KT 260V360 M05/M18 A2982 680 35 -1500 330/10G18 270V010 RMK AO1 T10501183
54779K12N 12N20160118130010801/18/16 13:00:31  5-MIN K12N 181800Z AUTO 32009G16KT M05/M18 A2982 670 35 -1500 330/09G16 RMK AO1 T10501183
54779K12N 12N20160118130512401/18/16 13:05:31  5-MIN K12N 181805Z AUTO 30007G15KT 270V340 M05/M18 A2982 670 35 -1500 320/07G15 280V350 RMK AO1 T10501183
54779K12N 12N20160118131011801/18/16 13:10:31  5-MIN K12N 181810Z AUTO 31008KT 250V360 M05/M18 A2983 670 35 -1500 330/08 260V010 RMK AO1 T10501183
54779K12N 12N20160118131512401/18/16 13:15:31  5-MIN K12N 181815Z AUTO 31009G17KT 270V330 M06/M19 A2982 670 34 -1600 320/09G17 280V340 RMK AO1 T10561189
54779K12N 12N20160118132010801/18/16 13:20:31  5-MIN K12N 181820Z AUTO VRB06G17KT M06/M18 A2983 670 36 -1600 VRB/06G17 RMK AO1 T10561183
54779K12N 12N20160118132510801/18/16 13:25:31  5-MIN K12N 181825Z AUTO 30007G15KT M06/M18 A2983 670 36 -1600 310/07G15 RMK AO1 T10561183
54779K12N 12N20160118133012401/18/16 13:30:31  5-MIN K12N 181830Z AUTO 31009G18KT 270V340 M06/M18 A2983 670 36 -1600 320/09G18 280V350 RMK AO1 T10561183
54779K12N 12N20160118133512401/18/16 13:35:31  5-MIN K12N 181835Z AUTO 31008G18KT 280V340 M06/M18 A2982 680 38 -1600 320/08G18 290V350 RMK AO1 T10561178
54779K12N 12N20160118134012401/18/16 13:40:31  5-MIN K12N 181840Z AUTO 33007G17KT 270V360 M05/M17 A2982 680 38 -1500 340/07G17 280V010 RMK AO1 T10501172
54779K12N 12N20160118134510801/18/16 13:45:31  5-MIN K12N 181845Z AUTO VRB05G14KT M04/M17 A2982 680 36 -1500 VRB/05G14 RMK AO1 T10441172
54779K12N 12N20160118135013101/18/16 13:50:31  5-MIN K12N 181850Z AUTO 35008G16KT 300V020 M05/M18 A2982 670 36 -1500 360/08G16 310V030 RMK AO1 SLP113 T10501178
54779K12N 12N20160118135512401/18/16 13:55:31  5-MIN K12N 181855Z AUTO 32008G16KT 280V010 M04/M17 A2983 670 38 -1500 330/08G16 290V020 RMK AO1 T10441167
54779K12N 12N20160118140011801/18/16 14:00:31  5-MIN K12N 181900Z AUTO 33009KT 290V020 M05/M17 A2982 680 38 -1500 340/09 300V030 RMK AO1 T10501172
54779K12N 12N20160118140512401/18/16 14:05:31  5-MIN K12N 181905Z AUTO 32008G17KT 270V010 M05/M17 A2982 670 38 -1500 340/08G17 280V020 RMK AO1 T10501172
54779K12N 12N20160118141012401/18/16 14:10:31  5-MIN K12N 181910Z AUTO 30009G18KT 260V350 M06/M18 A2983 670 38 -1600 320/09G18 270V360 RMK AO1 T10561178
54779K12N 12N20160118141512401/18/16 14:15:31  5-MIN K12N 181915Z AUTO 27007G17KT 240V300 M06/M18 A2983 670 38 -1600 290/07G17 250V310 RMK AO1 T10561178
54779K12N 12N20160118142012401/18/16 14:20:31  5-MIN K12N 181920Z AUTO 31011G18KT 270V340 M06/M18 A2983 670 38 -1700 330/11G18 280V350 RMK AO1 T10611183
54779K12N 12N20160118142512401/18/16 14:25:31  5-MIN K12N 181925Z AUTO 30011G18KT 260V360 M06/M18 A2983 670 38 -1700 320/11G18 270V010 RMK AO1 T10611183
54779K12N 12N20160118143010801/18/16 14:30:31  5-MIN K12N 181930Z AUTO 34010G17KT M06/M18 A2983 670 38 -1700 360/10G17 RMK AO1 T10611183
54779K12N 12N20160118143512401/18/16 14:35:31  5-MIN K12N 181935Z AUTO 34008G17KT 300V010 M06/M18 A2984 660 39 -1700 350/08G17 310V020 RMK AO1 T10611178
54779K12N 12N20160118144010801/18/16 14:40:31  5-MIN K12N 181940Z AUTO 31007G16KT M06/M17 A2984 660 41 -1700 320/07G16 RMK AO1 T10611172
54779K12N 12N20160118144510201/18/16 14:45:31  5-MIN K12N 181945Z AUTO VRB06KT M06/M17 A2984 660 41 -1700 VRB/06 RMK AO1 T10611172
54779K12N 12N20160118145012501/18/16 14:50:31  5-MIN K12N 181950Z AUTO 33007KT 300V010 M06/M17 A2984 660 43 -1700 340/07 310V020 RMK AO1 SLP118 T10611167
54779K12N 12N20160118145511801/18/16 14:55:31  5-MIN K12N 181955Z AUTO 32007KT 290V020 M06/M17 A2984 660 43 -1700 330/07 300V030 RMK AO1 T10611167
54779K12N 12N20160118150011801/18/16 15:00:31  5-MIN K12N 182000Z AUTO 29008KT 220V340 M06/M17 A2985 650 43 -1700 310/08 230V350 RMK AO1 T10611167
54779K12N 12N20160118150510801/18/16 15:05:31  5-MIN K12N 182005Z AUTO VRB06G15KT M06/M17 A2985 650 41 -1700 VRB/06G15 RMK AO1 T10611172
54779K12N 12N20160118151010801/18/16 15:10:31  5-MIN K12N 182010Z AUTO 30007G15KT M06/M17 A2985 650 41 -1700 310/07G15 RMK AO1 T10611172
54779K12N 12N20160118151512401/18/16 15:15:31  5-MIN K12N 182015Z AUTO 29011G15KT 260V320 M06/M17 A2985 650 41 -1700 310/11G15 270V330 RMK AO1 T10611172
54779K12N 12N20160118152012401/18/16 15:20:31  5-MIN K12N 182020Z AUTO 31012G24KT 270V340 M06/M17 A2986 640 43 -1700 320/12G24 280V350 RMK AO1 T10611167
54779K12N 12N20160118152512401/18/16 15:25:31  5-MIN K12N 182025Z AUTO 31008G24KT 280V350 M07/M16 A2986 640 47 -1800 330/08G24 290V360 RMK AO1 T10671161
54779K12N 12N20160118153010801/18/16 15:30:31  5-MIN K12N 182030Z AUTO VRB06G16KT M06/M16 A2985 650 47 -1700 VRB/06G16 RMK AO1 T10611156
54779K12N 12N20160118153510201/18/16 15:35:31  5-MIN K12N 182035Z AUTO VRB05KT M06/M16 A2986 640 45 -1700 VRB/05 RMK AO1 T10611161
54779K12N 12N20160118154011801/18/16 15:40:31  5-MIN K12N 182040Z AUTO 30007KT 250V340 M07/M16 A2986 640 47 -1800 320/07 260V350 RMK AO1 T10671161
54779K12N 12N20160118154512401/18/16 15:45:31  5-MIN K12N 182045Z AUTO 31007G16KT 260V010 M07/M16 A2986 640 47 -1800 320/07G16 270V020 RMK AO1 T10671161
54779K12N 12N20160118155012101/18/16 15:50:31  5-MIN K12N 182050Z AUTO VRB06G17KT M07/M16 A2986 640 49 -1900 VRB/06G17 RMK AO1 SLP128 T10721161 58004
54779K12N 12N20160118155510801/18/16 15:55:31  5-MIN K12N 182055Z AUTO VRB05G18KT M07/M16 A2986 640 49 -1900 VRB/05G18 RMK AO1 T10721161
54779K12N 12N20160118160009201/18/16 16:00:31  5-MIN K12N 182100Z AUTO M07/M16 A2987 640 52 -1900 M /M RMK AO1 T10721156
54779K12N 12N20160118160510201/18/16 16:05:31  5-MIN K12N 182105Z AUTO 33006KT M07/M16 A2987 630 49 -1900 340/06 RMK AO1 T10721161
54779K12N 12N20160118161010201/18/16 16:10:31  5-MIN K12N 182110Z AUTO VRB05KT M07/M16 A2987 630 52 -1900 VRB/05 RMK AO1 T10721156
54779K12N 12N20160118161510201/18/16 16:15:31  5-MIN K12N 182115Z AUTO VRB03KT M07/M16 A2987 630 49 -1800 VRB/03 RMK AO1 T10671156
54779K12N 12N20160118162009201/18/16 16:20:31  5-MIN K12N 182120Z AUTO M07/M16 A2987 630 49 -1800 M /M RMK AO1 T10671156
54779K12N 12N20160118162512401/18/16 16:25:31  5-MIN K12N 182125Z AUTO 30012G17KT 280V340 M07/M16 A2988 630 47 -1800 320/12G17 290V350 RMK AO1 T10671161
54779K12N 12N20160118163010801/18/16 16:30:31  5-MIN K12N 182130Z AUTO VRB06G17KT M07/M17 A2988 620 47 -1900 VRB/06G17 RMK AO1 T10721167
54779K12N 12N20160118163509201/18/16 16:35:31  5-MIN K12N 182135Z AUTO M07/M17 A2988 630 47 -1900 M /M RMK AO1 T10721167
54779K12N 12N20160118164011801/18/16 16:40:31  5-MIN K12N 182140Z AUTO 32007KT 250V360 M07/M17 A2988 620 47 -1900 330/07 260V010 RMK AO1 T10721167
54779K12N 12N20160118164510201/18/16 16:45:31  5-MIN K12N 182145Z AUTO VRB06KT M07/M16 A2988 620 49 -1900 VRB/06 RMK AO1 T10721161
54779K12N 12N20160118165010901/18/16 16:50:31  5-MIN K12N 182150Z AUTO 29006KT M07/M17 A2988 630 47 -1900 300/06 RMK AO1 SLP133 T10721167
54779K12N 12N20160118165512401/18/16 16:55:31  5-MIN K12N 182155Z AUTO 26009G17KT 200V290 M07/M17 A2988 620 47 -1900 270/09G17 210V300 RMK AO1 T10721167
54779K12N 12N20160118170012401/18/16 17:00:31  5-MIN K12N 182200Z AUTO 29008G19KT 200V330 M07/M17 A2988 620 47 -1900 300/08G19 210V340 RMK AO1 T10721167
54779K12N 12N20160118170510801/18/16 17:05:31  5-MIN K12N 182205Z AUTO VRB03G19KT M07/M17 A2988 620 47 -1900 VRB/03G19 RMK AO1 T10721167
54779K12N 12N20160118171009201/18/16 17:10:31  5-MIN K12N 182210Z AUTO M07/M16 A2989 620 49 -1900 M /M RMK AO1 T10721161
54779K12N 12N20160118171510201/18/16 17:15:31  5-MIN K12N 182215Z AUTO VRB05KT M08/M16 A2989 610 54 -2000 VRB/05 RMK AO1 T10781156
54779K12N 12N20160118172010201/18/16 17:20:31  5-MIN K12N 182220Z AUTO VRB05KT M08/M16 A2989 610 54 -2000 VRB/05 RMK AO1 T10781156
54779K12N 12N20160118172511801/18/16 17:25:31  5-MIN K12N 182225Z AUTO 28008KT 230V340 M08/M16 A2989 610 51 -2000 290/08 240V350 RMK AO1 T10781161
54779K12N 12N20160118173010801/18/16 17:30:31  5-MIN K12N 182230Z AUTO VRB06G16KT M08/M16 A2989 610 51 -2000 VRB/06G16 RMK AO1 T10781161
54779K12N 12N20160118173510801/18/16 17:35:31  5-MIN K12N 182235Z AUTO VRB04G16KT M08/M16 A2989 610 51 -2000 VRB/04G16 RMK AO1 T10781161
54779K12N 12N20160118174010201/18/16 17:40:31  5-MIN K12N 182240Z AUTO 00000KT M08/M16 A2989 610 51 -2000 000/00 RMK AO1 T10781161
54779K12N 12N20160118174510201/18/16 17:45:31  5-MIN K12N 182245Z AUTO 26008KT M08/M16 A2990 610 51 -2000 270/08 RMK AO1 T10781161
54779K12N 12N20160118175012501/18/16 17:50:31  5-MIN K12N 182250Z AUTO 29008KT 260V360 M08/M16 A2990 600 56 -2100 310/08 270V010 RMK AO1 SLP142 T10831156
54779K12N 12N20160118175510201/18/16 17:55:31  5-MIN K12N 182255Z AUTO VRB05KT M08/M16 A2990 600 56 -2100 VRB/05 RMK AO1 T10831156
54779K12N 12N20160118180010201/18/16 18:00:31  5-MIN K12N 182300Z AUTO VRB05KT M08/M16 A2990 600 56 -2100 VRB/05 RMK AO1 T10831156
54779K12N 12N20160118180512401/18/16 18:05:31  5-MIN K12N 182305Z AUTO 29010G16KT 220V340 M08/M16 A2991 600 54 -2100 300/10G16 230V350 RMK AO1 T10831161
54779K12N 12N20160118181010801/18/16 18:10:31  5-MIN K12N 182310Z AUTO VRB05G16KT M08/M16 A2991 600 54 -2100 VRB/05G16 RMK AO1 T10831161
54779K12N 12N20160118181509201/18/16 18:15:31  5-MIN K12N 182315Z AUTO M08/M16 A2991 600 56 -2100 M /M RMK AO1 T10831156
54779K12N 12N20160118182009201/18/16 18:20:31  5-MIN K12N 182320Z AUTO M08/M16 A2991 600 56 -2100 M /M RMK AO1 T10831156
54779K12N 12N20160118182510201/18/16 18:25:31  5-MIN K12N 182325Z AUTO VRB06KT M08/M16 A2991 590 56 -2100 VRB/06 RMK AO1 T10831156
54779K12N 12N20160118183009201/18/16 18:30:31  5-MIN K12N 182330Z AUTO M08/M16 A2991 590 56 -2100 M /M RMK AO1 T10831156
54779K12N 12N20160118183510201/18/16 18:35:31  5-MIN K12N 182335Z AUTO VRB05KT M08/M16 A2991 590 56 -2100 VRB/05 RMK AO1 T10831156
54779K12N 12N20160118184011801/18/16 18:40:31  5-MIN K12N 182340Z AUTO 28007KT 240V320 M08/M16 A2992 590 56 -2100 290/07 250V330 RMK AO1 T10831156
54779K12N 12N20160118184509201/18/16 18:45:31  5-MIN K12N 182345Z AUTO M08/M16 A2992 590 54 -2100 M /M RMK AO1 T10831161
54779K12N 12N20160118185012701/18/16 18:50:31  5-MIN K12N 182350Z AUTO VRB05KT M08/M16 A2992 580 54 -2100 VRB/05 RMK AO1 SLP150 T10831161 11044 21083 53014
54779K12N 12N20160118185510201/18/16 18:55:31  5-MIN K12N 182355Z AUTO VRB06KT M08/M16 A2992 580 54 -2100 VRB/06 RMK AO1 T10831161
54779K12N 12N20160118190010201/18/16 19:00:31  5-MIN K12N 190000Z AUTO VRB05KT M08/M16 A2993 580 54 -2100 VRB/05 RMK AO1 T10831161
54779K12N 12N20160118190511801/18/16 19:05:31  5-MIN K12N 190005Z AUTO 28007KT 240V340 M08/M17 A2993 580 51 -2100 290/07 250V350 RMK AO1 T10831167
54779K12N 12N20160118191010201/18/16 19:10:31  5-MIN K12N 190010Z AUTO VRB06KT M08/M17 A2993 580 51 -2100 VRB/06 RMK AO1 T10831167
54779K12N 12N20160118191511801/18/16 19:15:31  5-MIN K12N 190015Z AUTO 27008KT 220V020 M08/M17 A2993 570 49 -2100 280/08 230V030 RMK AO1 T10831172
54779K12N 12N20160118192010201/18/16 19:20:31  5-MIN K12N 190020Z AUTO VRB06KT M08/M17 A2994 570 49 -2100 VRB/06 RMK AO1 T10831172
54779K12N 12N20160118192510201/18/16 19:25:31  5-MIN K12N 190025Z AUTO VRB05KT M08/M17 A2994 570 49 -2100 VRB/05 RMK AO1 T10831172
54779K12N 12N20160118193010201/18/16 19:30:31  5-MIN K12N 190030Z AUTO VRB05KT M08/M17 A2994 570 49 -2100 VRB/05 RMK AO1 T10831172
54779K12N 12N20160118193509201/18/16 19:35:31  5-MIN K12N 190035Z AUTO M09/M18 A2994 570 49 -2200 M /M RMK AO1 T10891178
54779K12N 12N20160118194010201/18/16 19:40:31  5-MIN K12N 190040Z AUTO VRB04KT M09/M18 A2994 570 49 -2200 VRB/04 RMK AO1 T10891178
54779K12N 12N20160118194510201/18/16 19:45:31  5-MIN K12N 190045Z AUTO VRB04KT M09/M18 A2994 560 49 -2200 VRB/04 RMK AO1 T10891178
54779K12N 12N20160118195013101/18/16 19:50:31  5-MIN K12N 190050Z AUTO 27011G17KT 220V320 M09/M18 A2994 570 49 -2200 280/11G17 230V330 RMK AO1 SLP157 T10891178
54779K12N 12N20160118195510801/18/16 19:55:31  5-MIN K12N 190055Z AUTO VRB05G17KT M09/M18 A2994 570 49 -2200 VRB/05G17 RMK AO1 T10891178
54779K12N 12N20160118200010801/18/16 20:00:31  5-MIN K12N 190100Z AUTO VRB05G15KT M09/M18 A2994 560 49 -2200 VRB/05G15 RMK AO1 T10891178
54779K12N 12N20160118200512401/18/16 20:05:31  5-MIN K12N 190105Z AUTO 28008G14KT 230V350 M09/M18 A2994 560 49 -2200 290/08G14 240V360 RMK AO1 T10891178
54779K12N 12N20160118201010801/18/16 20:10:31  5-MIN K12N 190110Z AUTO VRB05G14KT M09/M18 A2994 560 49 -2200 VRB/05G14 RMK AO1 T10891178
54779K12N 12N20160118201510201/18/16 20:15:31  5-MIN K12N 190115Z AUTO VRB06KT M09/M18 A2994 570 49 -2200 VRB/06 RMK AO1 T10891178
54779K12N 12N20160118202010201/18/16 20:20:31  5-MIN K12N 190120Z AUTO VRB05KT M09/M18 A2994 560 49 -2200 VRB/05 RMK AO1 T10891178
54779K12N 12N20160118202510201/18/16 20:25:31  5-MIN K12N 190125Z AUTO VRB04KT M09/M18 A2994 560 49 -2200 VRB/04 RMK AO1 T10891178
54779K12N 12N20160118203010201/18/16 20:30:31  5-MIN K12N 190130Z AUTO VRB04KT M09/M18 A2994 560 49 -2200 VRB/04 RMK AO1 T10891178
54779K12N 12N20160118203509201/18/16 20:35:31  5-MIN K12N 190135Z AUTO M09/M18 A2994 570 49 -2200 M /M RMK AO1 T10891178
54779K12N 12N20160118204010201/18/16 20:40:31  5-MIN K12N 190140Z AUTO VRB05KT M09/M18 A2995 560 49 -2200 VRB/05 RMK AO1 T10891178
54779K12N 12N20160118204510201/18/16 20:45:31  5-MIN K12N 190145Z AUTO VRB05KT M09/M18 A2994 560 49 -2200 VRB/05 RMK AO1 T10891178
54779K12N 12N20160118205010901/18/16 20:50:31  5-MIN K12N 190150Z AUTO VRB06KT M09/M18 A2995 560 49 -2200 VRB/06 RMK AO1 SLP158 T10891178
54779K12N 12N20160118205510201/18/16 20:55:31  5-MIN K12N 190155Z AUTO VRB06KT M09/M18 A2995 560 49 -2200 VRB/06 RMK AO1 T10891178
54779K12N 12N20160118210010201/18/16 21:00:31  5-MIN K12N 190200Z AUTO VRB06KT M09/M18 A2995 560 49 -2200 VRB/06 RMK AO1 T10891178
54779K12N 12N20160118210510201/18/16 21:05:31  5-MIN K12N 190205Z AUTO VRB03KT M09/M18 A2995 560 51 -2300 VRB/03 RMK AO1 T10941178
54779K12N 12N20160118211010201/18/16 21:10:31  5-MIN K12N 190210Z AUTO VRB03KT M09/M18 A2995 560 51 -2300 VRB/03 RMK AO1 T10941178
54779K12N 12N20160118211509201/18/16 21:15:31  5-MIN K12N 190215Z AUTO M09/M18 A2995 560 51 -2300 M /M RMK AO1 T10941178
54779K12N 12N20160118212010201/18/16 21:20:31  5-MIN K12N 190220Z AUTO VRB06KT M09/M18 A2995 560 51 -2300 VRB/06 RMK AO1 T10941178
54779K12N 12N20160118212510201/18/16 21:25:31  5-MIN K12N 190225Z AUTO VRB05KT M09/M17 A2995 560 53 -2300 VRB/05 RMK AO1 T10941172
54779K12N 12N20160118213009201/18/16 21:30:31  5-MIN K12N 190230Z AUTO M09/M18 A2995 560 51 -2300 M /M RMK AO1 T10941178
54779K12N 12N20160118213510201/18/16 21:35:31  5-MIN K12N 190235Z AUTO 27006KT M09/M17 A2995 560 53 -2300 280/06 RMK AO1 T10941172
54779K12N 12N20160118214011801/18/16 21:40:31  5-MIN K12N 190240Z AUTO 28007KT 160V100 M09/M17 A2995 550 53 -2300 290/07 170V110 RMK AO1 T10941172
54779K12N 12N20160118214510201/18/16 21:45:31  5-MIN K12N 190245Z AUTO VRB06KT M09/M18 A2995 560 51 -2300 VRB/06 RMK AO1 T10941178
54779K12N 12N20160118215010501/18/16 21:50:31  5-MIN K12N 190250Z AUTO M09/M17 A2995 550 53 -2300 M /M RMK AO1 SLP160 T10941172 53020
54779K12N 12N20160118215510201/18/16 21:55:31  5-MIN K12N 190255Z AUTO VRB06KT M09/M17 A2996 550 53 -2300 VRB/06 RMK AO1 T10941172
54779K12N 12N20160118220009201/18/16 22:00:31  5-MIN K12N 190300Z AUTO M09/M17 A2996 550 53 -2300 M /M RMK AO1 T10941172
54779K12N 12N20160118220510201/18/16 22:05:31  5-MIN K12N 190305Z AUTO VRB06KT M09/M18 A2996 550 51 -2300 VRB/06 RMK AO1 T10941178
54779K12N 12N20160118221010201/18/16 22:10:31  5-MIN K12N 190310Z AUTO VRB05KT M09/M18 A2996 550 51 -2300 VRB/05 RMK AO1 T10941178
54779K12N 12N20160118221510201/18/16 22:15:31  5-MIN K12N 190315Z AUTO VRB03KT M09/M17 A2996 550 53 -2300 VRB/03 RMK AO1 T10941172
54779K12N 12N20160118222010201/18/16 22:20:31  5-MIN K12N 190320Z AUTO 22003KT M10/M17 A2996 550 56 -2300 230/03 RMK AO1 T11001172
54779K12N 12N20160118222511801/18/16 22:25:31  5-MIN K12N 190325Z AUTO 24007KT 190V310 M10/M17 A2996 550 56 -2300 250/07 200V320 RMK AO1 T11001172
54779K12N 12N20160118223010201/18/16 22:30:31  5-MIN K12N 190330Z AUTO VRB04KT M10/M17 A2996 550 56 -2400 VRB/04 RMK AO1 T11001172
54779K12N 12N20160118223511801/18/16 22:35:31  5-MIN K12N 190335Z AUTO 25007KT 200V270 M10/M18 A2996 550 53 -2400 260/07 210V280 RMK AO1 T11001178
54779K12N 12N20160118224010201/18/16 22:40:31  5-MIN K12N 190340Z AUTO VRB05KT M10/M17 A2996 550 56 -2400 VRB/05 RMK AO1 T11001172
54779K12N 12N20160118224511801/18/16 22:45:31  5-MIN K12N 190345Z AUTO 25007KT 210V280 M10/M17 A2996 540 56 -2400 270/07 220V290 RMK AO1 T11001172
54779K12N 12N20160118225010901/18/16 22:50:31  5-MIN K12N 190350Z AUTO 00000KT M10/M17 A2996 550 56 -2400 000/00 RMK AO1 SLP164 T11001172
54779K12N 12N20160118225511801/18/16 22:55:31  5-MIN K12N 190355Z AUTO 25008KT 200V280 M10/M17 A2996 540 56 -2400 270/08 210V290 RMK AO1 T11001172
54779K12N 12N20160118230010201/18/16 23:00:31  5-MIN K12N 190400Z AUTO VRB06KT M10/M17 A2997 540 56 -2400 VRB/06 RMK AO1 T11001172
54779K12N 12N20160118230510201/18/16 23:05:31  5-MIN K12N 190405Z AUTO VRB06KT M10/M17 A2997 540 56 -2400 VRB/06 RMK AO1 T11001172
54779K12N 12N20160118231010201/18/16 23:10:31  5-MIN K12N 190410Z AUTO VRB06KT M10/M17 A2997 540 56 -2400 VRB/06 RMK AO1 T11001172
54779K12N 12N20160118231510201/18/16 23:15:31  5-MIN K12N 190415Z AUTO VRB05KT M10/M17 A2997 540 56 -2400 VRB/05 RMK AO1 T11001172
54779K12N 12N20160118232012401/18/16 23:20:31  5-MIN K12N 190420Z AUTO 23008G15KT 190V260 M10/M17 A2997 540 56 -2400 240/08G15 200V270 RMK AO1 T11001172
54779K12N 12N20160118232510801/18/16 23:25:31  5-MIN K12N 190425Z AUTO VRB05G15KT M10/M17 A2997 540 56 -2400 VRB/05G15 RMK AO1 T11001172
54779K12N 12N20160118233010201/18/16 23:30:31  5-MIN K12N 190430Z AUTO VRB04KT M10/M17 A2997 540 56 -2400 VRB/04 RMK AO1 T11001172
54779K12N 12N20160118233510201/18/16 23:35:31  5-MIN K12N 190435Z AUTO VRB06KT M10/M17 A2997 540 56 -2400 VRB/06 RMK AO1 T11001172
54779K12N 12N20160118234011801/18/16 23:40:31  5-MIN K12N 190440Z AUTO 28007KT 240V320 M10/M17 A2997 540 56 -2400 290/07 250V330 RMK AO1 T11001172
54779K12N 12N20160118234510201/18/16 23:45:31  5-MIN K12N 190445Z AUTO VRB04KT M10/M17 A2997 540 56 -2400 VRB/04 RMK AO1 T11001172
54779K12N 12N20160118235011901/18/16 23:50:31  5-MIN K12N 190450Z AUTO VRB05KT M10/M17 A2997 540 56 -2400 VRB/05 RMK AO1 SLP166 T11001172 410221100
54779K12N 12N20160118235510801/18/16 23:55:31  5-MIN K12N 190455Z AUTO VRB05G15KT M10/M17 A2997 540 56 -2400 VRB/05G15 RMK AO1 T11001172
54779K12N 12N20160119000010801/19/16 00:00:31  5-MIN K12N 190500Z AUTO VRB04G15KT M10/M17 A2997 540 56 -2400 VRB/04G15 RMK AO1 T11001172
54779K12N 12N20160119000510201/19/16 00:05:31  5-MIN K12N 190505Z AUTO VRB05KT M10/M17 A2997 540 56 -2400 VRB/05 RMK AO1 T11001172
54779K12N 12N20160119001010201/19/16 00:10:31  5-MIN K12N 190510Z AUTO VRB04KT M10/M17 A2997 540 56 -2400 VRB/04 RMK AO1 T11001172
54779K12N 12N20160119001510201/19/16 00:15:31  5-MIN K12N 190515Z AUTO VRB05KT M10/M17 A2997 540 56 -2400 VRB/05 RMK AO1 T11001172
54779K12N 12N20160119002010201/19/16 00:20:31  5-MIN K12N 190520Z AUTO VRB06KT M11/M17 A2997 540 58 -2400 VRB/06 RMK AO1 T11061172
54779K12N 12N20160119002510201/19/16 00:25:31  5-MIN K12N 190525Z AUTO VRB05KT M11/M17 A2997 540 58 -2400 VRB/05 RMK AO1 T11061172
54779K12N 12N20160119003010201/19/16 00:30:31  5-MIN K12N 190530Z AUTO VRB03KT M11/M17 A2997 540 58 -2400 VRB/03 RMK AO1 T11061172
54779K12N 12N20160119003510201/19/16 00:35:31  5-MIN K12N 190535Z AUTO VRB03KT M11/M17 A2997 540 58 -2400 VRB/03 RMK AO1 T11061172
54779K12N 12N20160119004010201/19/16 00:40:31  5-MIN K12N 190540Z AUTO VRB04KT M11/M17 A2997 540 58 -2400 VRB/04 RMK AO1 T11061172
54779K12N 12N20160119004510201/19/16 00:45:31  5-MIN K12N 190545Z AUTO VRB03KT M11/M17 A2997 540 58 -2400 VRB/03 RMK AO1 T11061172
54779K12N 12N20160119005011701/19/16 00:50:31  5-MIN K12N 190550Z AUTO M11/M17 A2997 540 58 -2400 M /M RMK AO1 SLP165 T11061172 11083 21106 51010
54779K12N 12N20160119005509201/19/16 00:55:31  5-MIN K12N 190555Z AUTO M11/M17 A2997 540 58 -2400 M /M RMK AO1 T11061172
54779K12N 12N20160119010010201/19/16 01:00:31  5-MIN K12N 190600Z AUTO 29008KT M11/M18 A2997 540 56 -2400 310/08 RMK AO1 T11061178
54779K12N 12N20160119010509201/19/16 01:05:31  5-MIN K12N 190605Z AUTO M11/M17 A2997 540 58 -2400 M /M RMK AO1 T11061172
54779K12N 12N20160119011010201/19/16 01:10:31  5-MIN K12N 190610Z AUTO VRB03KT M11/M17 A2997 540 58 -2400 VRB/03 RMK AO1 T11061172
54779K12N 12N20160119011510201/19/16 01:15:31  5-MIN K12N 190615Z AUTO VRB05KT M11/M17 A2997 540 58 -2400 VRB/05 RMK AO1 T11061172
54779K12N 12N20160119012010201/19/16 01:20:31  5-MIN K12N 190620Z AUTO VRB04KT M11/M17 A2997 540 58 -2400 VRB/04 RMK AO1 T11061172
54779K12N 12N20160119012511801/19/16 01:25:31  5-MIN K12N 190625Z AUTO 24007KT 190V260 M11/M17 A2997 540 58 -2400 250/07 200V270 RMK AO1 T11061172
54779K12N 12N20160119013010201/19/16 01:30:31  5-MIN K12N 190630Z AUTO 23005KT M11/M17 A2997 540 58 -2400 250/05 RMK AO1 T11061172
54779K12N 12N20160119013511801/19/16 01:35:31  5-MIN K12N 190635Z AUTO 23008KT 180V250 M11/M18 A2997 540 56 -2400 250/08 190V260 RMK AO1 T11061178
54779K12N 12N20160119014010201/19/16 01:40:31  5-MIN K12N 190640Z AUTO VRB04KT M11/M17 A2997 540 58 -2400 VRB/04 RMK AO1 T11061172
54779K12N 12N20160119014510201/19/16 01:45:31  5-MIN K12N 190645Z AUTO 22006KT M11/M17 A2997 530 58 -2400 230/06 RMK AO1 T11061172
54779K12N 12N20160119015012501/19/16 01:50:31  5-MIN K12N 190650Z AUTO 24007KT 220V290 M11/M17 A2998 530 58 -2400 260/07 230V300 RMK AO1 SLP168 T11061172
54779K12N 12N20160119015511801/19/16 01:55:31  5-MIN K12N 190655Z AUTO 24007KT 210V280 M11/M18 A2998 530 56 -2400 260/07 220V290 RMK AO1 T11061178
54779K12N 12N20160119020011801/19/16 02:00:31  5-MIN K12N 190700Z AUTO 25007KT 210V270 M11/M18 A2998 530 56 -2400 260/07 220V280 RMK AO1 T11061178
54779K12N 12N20160119020510201/19/16 02:05:31  5-MIN K12N 190705Z AUTO VRB04KT M11/M18 A2998 530 56 -2400 VRB/04 RMK AO1 T11061178
54779K12N 12N20160119021011801/19/16 02:10:31  5-MIN K12N 190710Z AUTO 23007KT 190V280 M11/M18 A2998 530 56 -2400 250/07 200V290 RMK AO1 T11061178
54779K12N 12N20160119021509201/19/16 02:15:31  5-MIN K12N 190715Z AUTO M11/M18 A2998 530 56 -2400 M /M RMK AO1 T11061178
54779K12N 12N20160119022011801/19/16 02:20:31  5-MIN K12N 190720Z AUTO 23007KT 200V270 M11/M17 A2998 530 58 -2400 240/07 210V280 RMK AO1 T11061172
54779K12N 12N20160119022511801/19/16 02:25:31  5-MIN K12N 190725Z AUTO 24008KT 200V270 M11/M18 A2998 530 56 -2500 250/08 210V280 RMK AO1 T11061178
54779K12N 12N20160119023010201/19/16 02:30:31  5-MIN K12N 190730Z AUTO VRB06KT M11/M18 A2999 520 56 -2500 VRB/06 RMK AO1 T11061178
54779K12N 12N20160119023510201/19/16 02:35:31  5-MIN K12N 190735Z AUTO VRB04KT M11/M18 A2999 520 56 -2500 VRB/04 RMK AO1 T11061178
54779K12N 12N20160119024012401/19/16 02:40:31  5-MIN K12N 190740Z AUTO 23008G14KT 200V280 M11/M18 A2999 520 56 -2500 240/08G14 210V290 RMK AO1 T11061178
54779K12N 12N20160119024510801/19/16 02:45:31  5-MIN K12N 190745Z AUTO VRB05G14KT M11/M18 A2999 520 56 -2500 VRB/05G14 RMK AO1 T11061178
54779K12N 12N20160119025013101/19/16 02:50:31  5-MIN K12N 190750Z AUTO 23008G15KT 170V250 M11/M18 A2999 520 56 -2500 240/08G15 180V260 RMK AO1 SLP173 T11061178
54779K12N 12N20160119025510801/19/16 02:55:31  5-MIN K12N 190755Z AUTO 24009G15KT M11/M18 A2999 520 56 -2500 250/09G15 RMK AO1 T11061178
54779K12N 12N20160119030011801/19/16 03:00:31  5-MIN K12N 190800Z AUTO 23007KT 170V260 M11/M18 A2999 520 56 -2500 240/07 180V270 RMK AO1 T11061178
54779K12N 12N20160119030511801/19/16 03:05:31  5-MIN K12N 190805Z AUTO 24008KT 180V300 M11/M18 A2999 520 58 -2500 250/08 190V310 RMK AO1 T11111178
54779K12N 12N20160119031010801/19/16 03:10:31  5-MIN K12N 190810Z AUTO VRB04G15KT M11/M18 A2999 520 56 -2500 VRB/04G15 RMK AO1 T11061178
54779K12N 12N20160119031510801/19/16 03:15:31  5-MIN K12N 190815Z AUTO VRB06G15KT M11/M18 A2999 520 58 -2500 VRB/06G15 RMK AO1 T11111178
54779K12N 12N20160119032010201/19/16 03:20:31  5-MIN K12N 190820Z AUTO VRB04KT M11/M18 A2999 520 58 -2500 VRB/04 RMK AO1 T11111178
54779K12N 12N20160119032510201/19/16 03:25:31  5-MIN K12N 190825Z AUTO VRB05KT M11/M18 A2999 520 58 -2500 VRB/05 RMK AO1 T11111178
54779K12N 12N20160119033010201/19/16 03:30:31  5-MIN K12N 190830Z AUTO VRB06KT M11/M18 A2999 520 58 -2500 VRB/06 RMK AO1 T11111178
54779K12N 12N20160119033510201/19/16 03:35:31  5-MIN K12N 190835Z AUTO VRB04KT M11/M18 A2999 520 58 -2500 VRB/04 RMK AO1 T11111178
54779K12N 12N20160119034010201/19/16 03:40:31  5-MIN K12N 190840Z AUTO VRB04KT M11/M18 A2999 520 58 -2500 VRB/04 RMK AO1 T11111178
54779K12N 12N20160119034510201/19/16 03:45:31  5-MIN K12N 190845Z AUTO 21006KT M11/M18 A3000 520 58 -2500 220/06 RMK AO1 T11111178
54779K12N 12N20160119035011501/19/16 03:50:31  5-MIN K12N 190850Z AUTO VRB04KT M11/M18 A3000 520 58 -2500 VRB/04 RMK AO1 SLP176 T11111178 50004
54779K12N 12N20160119035510201/19/16 03:55:31  5-MIN K12N 190855Z AUTO VRB03KT M11/M18 A3000 510 58 -2500 VRB/03 RMK AO1 T11111178
54779K12N 12N20160119040010201/19/16 04:00:31  5-MIN K12N 190900Z AUTO VRB03KT M11/M18 A3000 510 58 -2500 VRB/03 RMK AO1 T11111178
54779K12N 12N20160119040510201/19/16 04:05:31  5-MIN K12N 190905Z AUTO VRB04KT M11/M18 A3000 510 58 -2500 VRB/04 RMK AO1 T11111178
54779K12N 12N20160119041010201/19/16 04:10:31  5-MIN K12N 190910Z AUTO 24007KT M11/M18 A3000 510 58 -2500 250/07 RMK AO1 T11111178
54779K12N 12N20160119041510201/19/16 04:15:31  5-MIN K12N 190915Z AUTO VRB03KT M11/M18 A3000 510 58 -2500 VRB/03 RMK AO1 T11111178
54779K12N 12N20160119042009201/19/16 04:20:31  5-MIN K12N 190920Z AUTO M11/M18 A3000 510 58 -2500 M /M RMK AO1 T11111178
54779K12N 12N20160119042510201/19/16 04:25:31  5-MIN K12N 190925Z AUTO VRB04KT M11/M18 A3000 510 58 -2500 VRB/04 RMK AO1 T11111178
54779K12N 12N20160119043010201/19/16 04:30:31  5-MIN K12N 190930Z AUTO VRB05KT M11/M18 A3000 510 58 -2500 VRB/05 RMK AO1 T11111178
54779K12N 12N20160119043510201/19/16 04:35:31  5-MIN K12N 190935Z AUTO VRB06KT M11/M18 A3000 510 58 -2500 VRB/06 RMK AO1 T11111178
54779K12N 12N20160119044010201/19/16 04:40:31  5-MIN K12N 190940Z AUTO VRB04KT M11/M18 A3001 500 58 -2600 VRB/04 RMK AO1 T11111178
54779K12N 12N20160119044510201/19/16 04:45:31  5-MIN K12N 190945Z AUTO 22006KT M11/M18 A3001 500 58 -2600 240/06 RMK AO1 T11111178
54779K12N 12N20160119045010901/19/16 04:50:31  5-MIN K12N 190950Z AUTO VRB05KT M11/M18 A3001 500 58 -2600 VRB/05 RMK AO1 SLP180 T11111178
54779K12N 12N20160119045510201/19/16 04:55:31  5-MIN K12N 190955Z AUTO 23006KT M11/M17 A3001 510 61 -2600 250/06 RMK AO1 T11111172
54779K12N 12N20160119050010201/19/16 05:00:31  5-MIN K12N 191000Z AUTO VRB04KT M11/M17 A3001 500 61 -2600 VRB/04 RMK AO1 T11111172
54779K12N 12N20160119050510201/19/16 05:05:31  5-MIN K12N 191005Z AUTO VRB05KT M11/M18 A3001 500 58 -2600 VRB/05 RMK AO1 T11111178
54779K12N 12N20160119051010201/19/16 05:10:31  5-MIN K12N 191010Z AUTO 23006KT M11/M17 A3001 510 61 -2600 240/06 RMK AO1 T11111172
54779K12N 12N20160119051510201/19/16 05:15:31  5-MIN K12N 191015Z AUTO VRB06KT M11/M17 A3001 500 61 -2600 VRB/06 RMK AO1 T11111172
54779K12N 12N20160119052010201/19/16 05:20:31  5-MIN K12N 191020Z AUTO VRB05KT M11/M17 A3001 500 61 -2600 VRB/05 RMK AO1 T11111172
54779K12N 12N20160119052510201/19/16 05:25:31  5-MIN K12N 191025Z AUTO VRB06KT M11/M18 A3001 510 58 -2500 VRB/06 RMK AO1 T11111178
54779K12N 12N20160119053010201/19/16 05:30:31  5-MIN K12N 191030Z AUTO 23007KT M11/M17 A3000 510 61 -2500 240/07 RMK AO1 T11111172
54779K12N 12N20160119053511801/19/16 05:35:31  5-MIN K12N 191035Z AUTO 23007KT 180V250 M11/M17 A3000 510 61 -2500 240/07 190V260 RMK AO1 T11111172
54779K12N 12N20160119054010201/19/16 05:40:31  5-MIN K12N 191040Z AUTO VRB03KT M11/M17 A3001 510 61 -2600 VRB/03 RMK AO1 T11111172
54779K12N 12N20160119054510201/19/16 05:45:31  5-MIN K12N 191045Z AUTO VRB05KT M11/M17 A3001 500 61 -2600 VRB/05 RMK AO1 T11111172
54779K12N 12N20160119055010901/19/16 05:50:31  5-MIN K12N 191050Z AUTO VRB04KT M11/M17 A3001 500 61 -2600 VRB/04 RMK AO1 SLP182 T11111172
54779K12N 12N20160119055510201/19/16 05:55:31  5-MIN K12N 191055Z AUTO VRB04KT M11/M17 A3001 500 61 -2600 VRB/04 RMK AO1 T11111172
54779K12N 12N20160119060010201/19/16 06:00:31  5-MIN K12N 191100Z AUTO 21005KT M11/M17 A3001 500 61 -2600 230/05 RMK AO1 T11111172
54779K12N 12N20160119060510201/19/16 06:05:31  5-MIN K12N 191105Z AUTO 22004KT M11/M17 A3002 500 61 -2600 230/04 RMK AO1 T11111172
54779K12N 12N20160119061010201/19/16 06:10:31  5-MIN K12N 191110Z AUTO VRB04KT M11/M17 A3002 490 61 -2600 VRB/04 RMK AO1 T11111172
54779K12N 12N20160119061510201/19/16 06:15:31  5-MIN K12N 191115Z AUTO VRB06KT M11/M18 A3002 490 58 -2600 VRB/06 RMK AO1 T11111178
54779K12N 12N20160119062010201/19/16 06:20:31  5-MIN K12N 191120Z AUTO 22004KT M11/M17 A3003 490 61 -2600 240/04 RMK AO1 T11111172
54779K12N 12N20160119062510201/19/16 06:25:31  5-MIN K12N 191125Z AUTO VRB05KT M12/M17 A3003 490 64 -2600 VRB/05 RMK AO1 T11171172
54779K12N 12N20160119063010201/19/16 06:30:31  5-MIN K12N 191130Z AUTO 24006KT M11/M18 A3002 490 58 -2600 260/06 RMK AO1 T11111178
54779K12N 12N20160119063510201/19/16 06:35:31  5-MIN K12N 191135Z AUTO VRB05KT M11/M18 A3002 490 58 -2600 VRB/05 RMK AO1 T11111178
54779K12N 12N20160119064010201/19/16 06:40:31  5-MIN K12N 191140Z AUTO VRB03KT M11/M18 A3002 490 58 -2600 VRB/03 RMK AO1 T11111178
54779K12N 12N20160119064510201/19/16 06:45:31  5-MIN K12N 191145Z AUTO VRB06KT M11/M18 A3002 490 58 -2600 VRB/06 RMK AO1 T11111178
54779K12N 12N20160119065013301/19/16 06:50:31  5-MIN K12N 191150Z AUTO VRB06KT M11/M17 A3002 500 61 -2600 VRB/06 RMK AO1 SLP184 70001 T11111172 11106 21117 53010
54779K12N 12N20160119065510201/19/16 06:55:31  5-MIN K12N 191155Z AUTO VRB04KT M11/M17 A3002 500 61 -2600 VRB/04 RMK AO1 T11111172
54779K12N 12N20160119070010201/19/16 07:00:31  5-MIN K12N 191200Z AUTO VRB03KT M11/M18 A3002 500 58 -2600 VRB/03 RMK AO1 T11111178
54779K12N 12N20160119070510201/19/16 07:05:31  5-MIN K12N 191205Z AUTO VRB03KT M11/M18 A3002 500 58 -2600 VRB/03 RMK AO1 T11111178
54779K12N 12N20160119071010201/19/16 07:10:31  5-MIN K12N 191210Z AUTO VRB04KT M11/M18 A3002 490 58 -2600 VRB/04 RMK AO1 T11111178
54779K12N 12N20160119071510201/19/16 07:15:31  5-MIN K12N 191215Z AUTO VRB03KT M11/M18 A3002 490 58 -2600 VRB/03 RMK AO1 T11111178
54779K12N 12N20160119072010201/19/16 07:20:31  5-MIN K12N 191220Z AUTO 24006KT M11/M18 A3003 490 58 -2600 250/06 RMK AO1 T11111178
54779K12N 12N20160119072510201/19/16 07:25:31  5-MIN K12N 191225Z AUTO VRB05KT M11/M17 A3003 490 61 -2600 VRB/05 RMK AO1 T11111172
54779K12N 12N20160119073010201/19/16 07:30:31  5-MIN K12N 191230Z AUTO VRB05KT M11/M17 A3003 480 61 -2600 VRB/05 RMK AO1 T11111172
54779K12N 12N20160119073510201/19/16 07:35:31  5-MIN K12N 191235Z AUTO 23004KT M11/M17 A3003 480 61 -2600 240/04 RMK AO1 T11111172
54779K12N 12N20160119074010201/19/16 07:40:31  5-MIN K12N 191240Z AUTO VRB03KT M11/M17 A3003 480 61 -2600 VRB/03 RMK AO1 T11111172
54779K12N 12N20160119074510201/19/16 07:45:31  5-MIN K12N 191245Z AUTO VRB04KT M11/M17 A3003 480 61 -2600 VRB/04 RMK AO1 T11111172
54779K12N 12N20160119075010901/19/16 07:50:31  5-MIN K12N 191250Z AUTO VRB04KT M11/M17 A3003 480 61 -2600 VRB/04 RMK AO1 SLP188 T11111172
54779K12N 12N20160119075510201/19/16 07:55:31  5-MIN K12N 191255Z AUTO VRB03KT M11/M17 A3003 480 61 -2600 VRB/03 RMK AO1 T11111172
54779K12N 12N20160119080010201/19/16 08:00:31  5-MIN K12N 191300Z AUTO VRB03KT M11/M17 A3003 480 61 -2600 VRB/03 RMK AO1 T11111172
54779K12N 12N20160119080510201/19/16 08:05:31  5-MIN K12N 191305Z AUTO VRB04KT M11/M17 A3003 480 61 -2600 VRB/04 RMK AO1 T11111172
54779K12N 12N20160119081010201/19/16 08:10:31  5-MIN K12N 191310Z AUTO VRB03KT M11/M17 A3003 480 58 -2500 VRB/03 RMK AO1 T11061172
54779K12N 12N20160119081509201/19/16 08:15:31  5-MIN K12N 191315Z AUTO M11/M17 A3003 480 58 -2500 M /M RMK AO1 T11061172
54779K12N 12N20160119082010201/19/16 08:20:31  5-MIN K12N 191320Z AUTO VRB03KT M11/M17 A3003 480 58 -2500 VRB/03 RMK AO1 T11061172
54779K12N 12N20160119082509201/19/16 08:25:31  5-MIN K12N 191325Z AUTO M11/M17 A3003 480 58 -2500 M /M RMK AO1 T11061172
54779K12N 12N20160119083010201/19/16 08:30:31  5-MIN K12N 191330Z AUTO VRB05KT M10/M17 A3003 490 58 -2400 VRB/05 RMK AO1 T11001167
54779K12N 12N20160119083510201/19/16 08:35:31  5-MIN K12N 191335Z AUTO VRB06KT M10/M17 A3002 490 58 -2400 VRB/06 RMK AO1 T11001167
54779K12N 12N20160119084011801/19/16 08:40:31  5-MIN K12N 191340Z AUTO 27007KT 210V330 M10/M17 A3002 490 58 -2400 290/07 220V340 RMK AO1 T11001167
54779K12N 12N20160119084510801/19/16 08:45:31  5-MIN K12N 191345Z AUTO 21006G15KT M10/M17 A3002 490 58 -2400 230/06G15 RMK AO1 T11001167
54779K12N 12N20160119085010901/19/16 08:50:31  5-MIN K12N 191350Z AUTO VRB06KT M09/M17 A3003 490 56 -2400 VRB/06 RMK AO1 SLP187 T10941167
54779K12N 12N20160119085510201/19/16 08:55:31  5-MIN K12N 191355Z AUTO VRB04KT M09/M17 A3003 480 56 -2400 VRB/04 RMK AO1 T10941167
54779K12N 12N20160119090010201/19/16 09:00:31  5-MIN K12N 191400Z AUTO VRB03KT M09/M17 A3003 480 56 -2400 VRB/03 RMK AO1 T10941167
54779K12N 12N20160119090511801/19/16 09:05:31  5-MIN K12N 191405Z AUTO 31007KT 270V020 M09/M17 A3004 480 56 -2400 320/07 280V030 RMK AO1 T10941167
54779K12N 12N20160119091010201/19/16 09:10:31  5-MIN K12N 191410Z AUTO VRB05KT M09/M17 A3003 480 53 -2400 VRB/05 RMK AO1 T10941172
54779K12N 12N20160119091509201/19/16 09:15:31  5-MIN K12N 191415Z AUTO M09/M17 A3003 480 54 -2300 M /M RMK AO1 T10891167
54779K12N 12N20160119092010201/19/16 09:20:31  5-MIN K12N 191420Z AUTO 00000KT M09/M17 A3003 480 54 -2300 000/00 RMK AO1 T10891167
54779K12N 12N20160119092510201/19/16 09:25:31  5-MIN K12N 191425Z AUTO 32007KT M09/M17 A3003 480 54 -2300 330/07 RMK AO1 T10891167
54779K12N 12N20160119093010201/19/16 09:30:31  5-MIN K12N 191430Z AUTO VRB04KT M09/M17 A3003 480 54 -2300 VRB/04 RMK AO1 T10891167
54779K12N 12N20160119093509201/19/16 09:35:31  5-MIN K12N 191435Z AUTO M09/M17 A3003 480 54 -2300 M /M RMK AO1 T10891167
54779K12N 12N20160119094012401/19/16 09:40:31  5-MIN K12N 191440Z AUTO 32008G17KT 260V350 M08/M17 A3004 480 51 -2200 330/08G17 270V360 RMK AO1 T10831167
54779K12N 12N20160119094512401/19/16 09:45:31  5-MIN K12N 191445Z AUTO 30012G22KT 270V340 M08/M17 A3004 480 49 -2200 320/12G22 280V350 RMK AO1 T10831172
54779K12N 12N20160119095010501/19/16 09:50:31  5-MIN K12N 191450Z AUTO M08/M17 A3004 480 49 -2200 M /M RMK AO1 SLP190 T10781167 51006
54779K12N 12N20160119095512401/19/16 09:55:31  5-MIN K12N 191455Z AUTO 33009G20KT 300V360 M08/M17 A3004 480 49 -2100 350/09G20 310V010 RMK AO1 T10781167
54779K12N 12N20160119100010801/19/16 10:00:31  5-MIN K12N 191500Z AUTO 30009G20KT M08/M17 A3004 480 49 -2200 310/09G20 RMK AO1 T10781167
54779K12N 12N20160119100510801/19/16 10:05:31  5-MIN K12N 191505Z AUTO VRB05G18KT M08/M17 A3004 480 49 -2100 VRB/05G18 RMK AO1 T10781167
54779K12N 12N20160119101012401/19/16 10:10:31  5-MIN K12N 191510Z AUTO 32008G16KT 290V010 M07/M17 A3004 480 47 -2100 330/08G16 300V020 RMK AO1 T10721167
54779K12N 12N20160119101510801/19/16 10:15:31  5-MIN K12N 191515Z AUTO VRB05G18KT M07/M17 A3004 480 47 -2100 VRB/05G18 RMK AO1 T10721167
54779K12N 12N20160119102010801/19/16 10:20:31  5-MIN K12N 191520Z AUTO 30011G19KT M07/M17 A3004 480 47 -2100 320/11G19 RMK AO1 T10721167
54779K12N 12N20160119102512401/19/16 10:25:31  5-MIN K12N 191525Z AUTO 30010G19KT 260V330 M07/M17 A3003 480 47 -2100 310/10G19 270V340 RMK AO1 T10721167
54779K12N 12N20160119103012401/19/16 10:30:31  5-MIN K12N 191530Z AUTO 32009G18KT 270V360 M07/M16 A3004 480 47 -2000 330/09G18 280V010 RMK AO1 T10671161
54779K12N 12N20160119103512401/19/16 10:35:31  5-MIN K12N 191535Z AUTO 33007G17KT 260V050 M07/M16 A3004 480 47 -2000 350/07G17 270V060 RMK AO1 T10671161
54779K12N 12N20160119104012401/19/16 10:40:31  5-MIN K12N 191540Z AUTO 33008G18KT 280V040 M07/M17 A3004 480 45 -2000 340/08G18 290V050 RMK AO1 T10671167
54779K12N 12N20160119104510801/19/16 10:45:31  5-MIN K12N 191545Z AUTO VRB06G18KT M07/M17 A3003 480 45 -2000 VRB/06G18 RMK AO1 T10671167
54779K12N 12N20160119105013101/19/16 10:50:31  5-MIN K12N 191550Z AUTO 33008G14KT 270V060 M06/M16 A3003 490 45 -1900 340/08G14 280V070 RMK AO1 SLP186 T10611161
54779K12N 12N20160119105511801/19/16 10:55:31  5-MIN K12N 191555Z AUTO 32007KT 250V020 M07/M17 A3003 490 45 -2000 330/07 260V030 RMK AO1 T10671167
54779K12N 12N20160119110010801/19/16 11:00:31  5-MIN K12N 191600Z AUTO VRB06G18KT M06/M16 A3003 490 45 -1900 VRB/06G18 RMK AO1 T10611161
54779K12N 12N20160119110512401/19/16 11:05:31  5-MIN K12N 191605Z AUTO 32008G18KT 260V020 M06/M16 A3003 490 43 -1800 330/08G18 270V030 RMK AO1 T10561161
54779K12N 12N20160119111011801/19/16 11:10:31  5-MIN K12N 191610Z AUTO 32009KT 270V350 M06/M16 A3002 490 43 -1800 330/09 280V360 RMK AO1 T10561161
54779K12N 12N20160119111512401/19/16 11:15:31  5-MIN K12N 191615Z AUTO 34007G20KT 270V050 M06/M16 A3002 490 45 -1900 350/07G20 280V060 RMK AO1 T10611161
54779K12N 12N20160119112010801/19/16 11:20:31  5-MIN K12N 191620Z AUTO 34011G22KT M06/M16 A3002 490 45 -1900 360/11G22 RMK AO1 T10611161
54779K12N 12N20160119112512401/19/16 11:25:31  5-MIN K12N 191625Z AUTO 35010G22KT 310V020 M06/M17 A3001 500 43 -1900 360/10G22 320V030 RMK AO1 T10611167
54779K12N 12N20160119113012401/19/16 11:30:31  5-MIN K12N 191630Z AUTO 32008G18KT 290V010 M06/M16 A3001 500 45 -1900 340/08G18 300V020 RMK AO1 T10611161
54779K12N 12N20160119113512401/19/16 11:35:31  5-MIN K12N 191635Z AUTO 30011G20KT 270V340 M06/M16 A3001 510 45 -1900 310/11G20 280V350 RMK AO1 T10611161
54779K12N 12N20160119114012401/19/16 11:40:31  5-MIN K12N 191640Z AUTO 32010G23KT 280V360 M06/M16 A3000 510 45 -1900 340/10G23 290V010 RMK AO1 T10611161
54779K12N 12N20160119114510801/19/16 11:45:31  5-MIN K12N 191645Z AUTO VRB06G23KT M06/M16 A3000 510 45 -1900 VRB/06G23 RMK AO1 T10611161
54779K12N 12N20160119115013101/19/16 11:50:31  5-MIN K12N 191650Z AUTO 33009G21KT 270V070 M06/M16 A3001 510 43 -1800 350/09G21 280V080 RMK AO1 SLP178 T10561161
54779K12N 12N20160119115512401/19/16 11:55:31  5-MIN K12N 191655Z AUTO 31008G21KT 260V340 M06/M16 A3001 500 43 -1800 320/08G21 270V350 RMK AO1 T10561161
54779K12N 12N20160119120009201/19/16 12:00:31  5-MIN K12N 191700Z AUTO M06/M16 A3001 500 43 -1800 M /M RMK AO1 T10561161
54779K12N 12N20160119120511801/19/16 12:05:31  5-MIN K12N 191705Z AUTO 31008KT 190V020 M06/M16 A3001 510 43 -1800 330/08 200V030 RMK AO1 T10561161
54779K12N 12N20160119121012401/19/16 12:10:31  5-MIN K12N 191710Z AUTO 30010G17KT 260V350 M06/M16 A3000 510 45 -1800 310/10G17 270V360 RMK AO1 T10561156
54779K12N 12N20160119121512401/19/16 12:15:31  5-MIN K12N 191715Z AUTO 32011G20KT 280V360 M06/M16 A3001 510 45 -1800 330/11G20 290V010 RMK AO1 T10561156
54779K12N 12N20160119122012401/19/16 12:20:31  5-MIN K12N 191720Z AUTO 28011G22KT 260V330 M06/M16 A3001 500 43 -1800 300/11G22 270V340 RMK AO1 T10561161
54779K12N 12N20160119122512401/19/16 12:25:31  5-MIN K12N 191725Z AUTO 32011G22KT 280V360 M06/M16 A3001 510 43 -1800 330/11G22 290V010 RMK AO1 T10561161
54779K12N 12N20160119123010801/19/16 12:30:31  5-MIN K12N 191730Z AUTO 34011G24KT M06/M16 A3001 500 43 -1800 350/11G24 RMK AO1 T10561161
54779K12N 12N20160119123512401/19/16 12:35:31  5-MIN K12N 191735Z AUTO 33009G24KT 300V010 M06/M16 A3001 510 45 -1800 350/09G24 310V020 RMK AO1 T10561156
54779K12N 12N20160119124012401/19/16 12:40:31  5-MIN K12N 191740Z AUTO 33008G21KT 290V360 M05/M16 A3001 500 44 -1800 340/08G21 300V010 RMK AO1 T10501156
54779K12N 12N20160119124512401/19/16 12:45:31  5-MIN K12N 191745Z AUTO 33009G17KT 260V360 M05/M16 A3001 500 44 -1800 340/09G17 270V010 RMK AO1 T10501156
54779K12N 12N20160119125013301/19/16 12:50:31  5-MIN K12N 191750Z AUTO 35011G16KT M05/M16 A3001 510 44 -1800 360/11G16 RMK AO1 SLP178 T10501156 11050 21117 51007
54779K12N 12N20160119125512401/19/16 12:55:31  5-MIN K12N 191755Z AUTO 33008G20KT 290V010 M05/M16 A3000 510 44 -1700 340/08G20 300V020 RMK AO1 T10501156
54779K12N 12N20160119130012401/19/16 13:00:31  5-MIN K12N 191800Z AUTO 33009G20KT 290V010 M05/M16 A3001 510 44 -1800 340/09G20 300V020 RMK AO1 T10501156
54779K12N 12N20160119130510801/19/16 13:05:31  5-MIN K12N 191805Z AUTO VRB06G17KT M06/M16 A3000 510 45 -1800 VRB/06G17 RMK AO1 T10561156
54779K12N 12N20160119131012401/19/16 13:10:31  5-MIN K12N 191810Z AUTO 31007G17KT 280V360 M04/M15 A3000 510 44 -1700 330/07G17 290V010 RMK AO1 T10441150
54779K12N 12N20160119131512401/19/16 13:15:31  5-MIN K12N 191815Z AUTO 31010G18KT 260V010 M05/M15 A3000 520 46 -1700 330/10G18 270V020 RMK AO1 T10501150
54779K12N 12N20160119132010801/19/16 13:20:31  5-MIN K12N 191820Z AUTO VRB06G18KT M06/M16 A2999 520 45 -1800 VRB/06G18 RMK AO1 T10561156
54779K12N 12N20160119132512401/19/16 13:25:31  5-MIN K12N 191825Z AUTO 31008G16KT 250V360 M05/M16 A2999 520 44 -1700 320/08G16 260V010 RMK AO1 T10501156
54779K12N 12N20160119133010801/19/16 13:30:31  5-MIN K12N 191830Z AUTO VRB05G15KT M05/M15 A2999 520 46 -1700 VRB/05G15 RMK AO1 T10501150
54779K12N 12N20160119133512401/19/16 13:35:31  5-MIN K12N 191835Z AUTO 31008G15KT 270V350 M04/M15 A2999 520 44 -1700 320/08G15 280V360 RMK AO1 T10441150
54779K12N 12N20160119134012401/19/16 13:40:31  5-MIN K12N 191840Z AUTO 29010G20KT 260V330 M05/M16 A2999 520 44 -1700 300/10G20 270V340 RMK AO1 T10501156
54779K12N 12N20160119134510801/19/16 13:45:31  5-MIN K12N 191845Z AUTO VRB06G20KT M05/M15 A2999 520 46 -1700 VRB/06G20 RMK AO1 T10501150
54779K12N 12N20160119135013101/19/16 13:50:31  5-MIN K12N 191850Z AUTO 31007G16KT 220V010 M04/M15 A2999 520 44 -1700 330/07G16 230V020 RMK AO1 SLP174 T10441150
54779K12N 12N20160119135509201/19/16 13:55:31  5-MIN K12N 191855Z AUTO M04/M15 A3000 520 42 -1600 M /M RMK AO1 T10391150
54779K12N 12N20160119140012401/19/16 14:00:31  5-MIN K12N 191900Z AUTO 33011G20KT 280V040 M04/M16 A2999 520 40 -1600 350/11G20 290V050 RMK AO1 T10391156
54779K12N 12N20160119140512401/19/16 14:05:31  5-MIN K12N 191905Z AUTO 34010G22KT 290V360 M04/M16 A2999 520 40 -1600 350/10G22 300V010 RMK AO1 T10391156
54779K12N 12N20160119141012401/19/16 14:10:31  5-MIN K12N 191910Z AUTO 33009G22KT 260V020 M04/M16 A2999 520 40 -1600 350/09G22 270V030 RMK AO1 T10391156
54779K12N 12N20160119141512401/19/16 14:15:31  5-MIN K12N 191915Z AUTO 34009G19KT 300V010 M04/M16 A3000 520 40 -1600 350/09G19 310V020 RMK AO1 T10391156
54779K12N 12N20160119142012401/19/16 14:20:31  5-MIN K12N 191920Z AUTO 33008G21KT 280V020 M04/M16 A2999 520 40 -1600 350/08G21 290V030 RMK AO1 T10391156
54779K12N 12N20160119142510801/19/16 14:25:31  5-MIN K12N 191925Z AUTO 34008G21KT M03/M16 A2999 520 38 -1500 350/08G21 RMK AO1 T10331156
54779K12N 12N20160119143010801/19/16 14:30:31  5-MIN K12N 191930Z AUTO 31012G19KT M03/M16 A2999 520 38 -1500 320/12G19 RMK AO1 T10331156
54779K12N 12N20160119143512401/19/16 14:35:31  5-MIN K12N 191935Z AUTO 34009G19KT 240V020 M03/M16 A2999 520 38 -1500 350/09G19 250V030 RMK AO1 T10331156
54779K12N 12N20160119144010801/19/16 14:40:31  5-MIN K12N 191940Z AUTO VRB05G18KT M03/M16 A2999 520 37 -1500 VRB/05G18 RMK AO1 T10331161
54779K12N 12N20160119144510801/19/16 14:45:31  5-MIN K12N 191945Z AUTO 34005G18KT M03/M16 A2999 520 37 -1500 360/05G18 RMK AO1 T10331161
54779K12N 12N20160119145010901/19/16 14:50:31  5-MIN K12N 191950Z AUTO VRB06KT M03/M16 A3000 510 35 -1500 VRB/06 RMK AO1 SLP174 T10281161
54779K12N 12N20160119145510201/19/16 14:55:31  5-MIN K12N 191955Z AUTO VRB04KT M03/M16 A3000 520 38 -1500 VRB/04 RMK AO1 T10331156
54779K12N 12N20160119150010801/19/16 15:00:31  5-MIN K12N 192000Z AUTO 30012G18KT M03/M16 A2999 520 37 -1500 310/12G18 RMK AO1 T10281156
54779K12N 12N20160119150512401/19/16 15:05:31  5-MIN K12N 192005Z AUTO 36012G24KT 320V050 M03/M16 A2999 520 35 -1400 010/12G24 330V060 RMK AO1 T10281161
54779K12N 12N20160119151012401/19/16 15:10:31  5-MIN K12N 192010Z AUTO 34011G24KT 250V010 M03/M17 A3000 510 35 -1500 350/11G24 260V020 RMK AO1 T10331167
54779K12N 12N20160119151510801/19/16 15:15:31  5-MIN K12N 192015Z AUTO VRB06G24KT M03/M17 A3000 510 34 -1500 VRB/06G24 RMK AO1 T10281167
54779K12N 12N20160119152009201/19/16 15:20:31  5-MIN K12N 192020Z AUTO M03/M17 A3000 510 34 -1500 M /M RMK AO1 T10281167
54779K12N 12N20160119152509201/19/16 15:25:31  5-MIN K12N 192025Z AUTO M03/M17 A3000 510 34 -1500 M /M RMK AO1 T10281167
54779K12N 12N20160119153012401/19/16 15:30:31  5-MIN K12N 192030Z AUTO 32010G18KT 270V010 M03/M17 A3000 510 34 -1500 330/10G18 280V020 RMK AO1 T10281167
54779K12N 12N20160119153512401/19/16 15:35:31  5-MIN K12N 192035Z AUTO 33009G20KT 250V040 M03/M17 A3000 510 34 -1500 340/09G20 260V050 RMK AO1 T10281167
54779K12N 12N20160119154012401/19/16 15:40:31  5-MIN K12N 192040Z AUTO 31011G20KT 270V350 M03/M17 A3001 510 34 -1500 320/11G20 280V360 RMK AO1 T10281167
54779K12N 12N20160119154512401/19/16 15:45:31  5-MIN K12N 192045Z AUTO 33008G19KT 290V040 M03/M17 A3001 500 32 -1500 350/08G19 300V050 RMK AO1 T10281172
54779K12N 12N20160119155013701/19/16 15:50:31  5-MIN K12N 192050Z AUTO 33012G19KT 280V010 M03/M17 A3001 500 34 -1500 350/12G19 290V020 RMK AO1 SLP179 T10281167 56011
54779K12N 12N20160119155512401/19/16 15:55:31  5-MIN K12N 192055Z AUTO 31010G19KT 280V350 M03/M17 A3001 500 32 -1500 330/10G19 290V360 RMK AO1 T10281172
54779K12N 12N20160119160012401/19/16 16:00:31  5-MIN K12N 192100Z AUTO 35007G18KT 310V050 M03/M17 A3001 500 34 -1500 360/07G18 320V060 RMK AO1 T10281167
54779K12N 12N20160119160512401/19/16 16:05:31  5-MIN K12N 192105Z AUTO 36014G21KT 320V030 M03/M17 A3002 500 33 -1500 010/14G21 330V040 RMK AO1 T10331172
54779K12N 12N20160119161012401/19/16 16:10:31  5-MIN K12N 192110Z AUTO 32009G21KT 270V350 M03/M17 A3002 500 33 -1500 330/09G21 280V360 RMK AO1 T10331172
54779K12N 12N20160119161512401/19/16 16:15:31  5-MIN K12N 192115Z AUTO 35009G19KT 320V050 M03/M17 A3002 500 35 -1500 360/09G19 330V060 RMK AO1 T10331167
54779K12N 12N20160119162012401/19/16 16:20:31  5-MIN K12N 192120Z AUTO 35010G19KT 320V040 M03/M17 A3002 500 33 -1600 360/10G19 330V050 RMK AO1 T10331172
54779K12N 12N20160119162510801/19/16 16:25:31  5-MIN K12N 192125Z AUTO VRB06G16KT M04/M17 A3002 490 35 -1600 VRB/06G16 RMK AO1 T10391172
54779K12N 12N20160119163010801/19/16 16:30:31  5-MIN K12N 192130Z AUTO 30012G20KT M04/M17 A3002 490 35 -1600 310/12G20 RMK AO1 T10391172
54779K12N 12N20160119163510801/19/16 16:35:31  5-MIN K12N 192135Z AUTO 34009G20KT M04/M17 A3002 490 35 -1600 360/09G20 RMK AO1 T10391172
54779K12N 12N20160119164012401/19/16 16:40:31  5-MIN K12N 192140Z AUTO 33011G21KT 280V010 M04/M17 A3002 490 35 -1600 350/11G21 290V020 RMK AO1 T10391172
54779K12N 12N20160119164512401/19/16 16:45:31  5-MIN K12N 192145Z AUTO 34009G21KT 300V030 M04/M17 A3002 490 35 -1600 360/09G21 310V040 RMK AO1 T10391172
54779K12N 12N20160119165013101/19/16 16:50:31  5-MIN K12N 192150Z AUTO 35012G20KT 300V020 M04/M17 A3003 490 35 -1600 010/12G20 310V030 RMK AO1 SLP185 T10391172
54779K12N 12N20160119165510801/19/16 16:55:31  5-MIN K12N 192155Z AUTO 33011G22KT M04/M17 A3003 480 35 -1600 340/11G22 RMK AO1 T10391172
54779K12N 12N20160119170012401/19/16 17:00:31  5-MIN K12N 192200Z AUTO 31009G22KT 280V360 M04/M17 A3003 480 35 -1600 330/09G22 290V010 RMK AO1 T10391172
54779K12N 12N20160119170510801/19/16 17:05:31  5-MIN K12N 192205Z AUTO 34011G21KT M04/M17 A3003 480 35 -1600 350/11G21 RMK AO1 T10391172
54779K12N 12N20160119171012401/19/16 17:10:31  5-MIN K12N 192210Z AUTO 33009G21KT 280V360 M04/M17 A3004 480 35 -1600 340/09G21 290V010 RMK AO1 T10391172
54779K12N 12N20160119171510801/19/16 17:15:31  5-MIN K12N 192215Z AUTO 34010G19KT M04/M17 A3004 480 35 -1600 350/10G19 RMK AO1 T10391172
54779K12N 12N20160119172012401/19/16 17:20:31  5-MIN K12N 192220Z AUTO 36010G19KT 310V020 M04/M17 A3004 470 37 -1600 010/10G19 320V030 RMK AO1 T10391167
54779K12N 12N20160119172512401/19/16 17:25:31  5-MIN K12N 192225Z AUTO 33010G17KT 290V360 M04/M17 A3004 470 37 -1600 340/10G17 300V010 RMK AO1 T10391167
54779K12N 12N20160119173012401/19/16 17:30:31  5-MIN K12N 192230Z AUTO 34011G20KT 300V010 M04/M17 A3004 470 38 -1700 350/11G20 310V020 RMK AO1 T10441167
54779K12N 12N20160119173510801/19/16 17:35:31  5-MIN K12N 192235Z AUTO VRB06G20KT M04/M17 A3005 470 38 -1700 VRB/06G20 RMK AO1 T10441167
54779K12N 12N20160119174012401/19/16 17:40:31  5-MIN K12N 192240Z AUTO 33008G15KT 300V010 M04/M17 A3005 470 38 -1700 340/08G15 310V020 RMK AO1 T10441167
54779K12N 12N20160119174512401/19/16 17:45:31  5-MIN K12N 192245Z AUTO 36007G19KT 330V030 M04/M17 A3005 460 38 -1700 010/07G19 340V040 RMK AO1 T10441167
54779K12N 12N20160119175013101/19/16 17:50:31  5-MIN K12N 192250Z AUTO 34009G19KT 290V020 M04/M16 A3005 460 40 -1700 350/09G19 300V030 RMK AO1 SLP194 T10441161
54779K12N 12N20160119175510801/19/16 17:55:31  5-MIN K12N 192255Z AUTO VRB06G17KT M04/M16 A3006 460 40 -1700 VRB/06G17 RMK AO1 T10441161
54779K12N 12N20160119180012401/19/16 18:00:31  5-MIN K12N 192300Z AUTO 33008G17KT 270V040 M04/M16 A3006 460 40 -1700 350/08G17 280V050 RMK AO1 T10441161
54779K12N 12N20160119180512401/19/16 18:05:31  5-MIN K12N 192305Z AUTO 32010G14KT 300V010 M04/M16 A3006 450 42 -1700 340/10G14 310V020 RMK AO1 T10441156
54779K12N 12N20160119181010801/19/16 18:10:31  5-MIN K12N 192310Z AUTO VRB06G14KT M04/M16 A3006 450 42 -1700 VRB/06G14 RMK AO1 T10441156
54779K12N 12N20160119181512401/19/16 18:15:31  5-MIN K12N 192315Z AUTO 34011G21KT 300V010 M04/M16 A3006 450 42 -1700 360/11G21 310V020 RMK AO1 T10441156
54779K12N 12N20160119182012401/19/16 18:20:31  5-MIN K12N 192320Z AUTO 33007G21KT 290V010 M04/M16 A3007 450 42 -1700 350/07G21 300V020 RMK AO1 T10441156
54779K12N 12N20160119182510801/19/16 18:25:31  5-MIN K12N 192325Z AUTO VRB06G15KT M04/M16 A3007 450 42 -1700 VRB/06G15 RMK AO1 T10441156
54779K12N 12N20160119183012401/19/16 18:30:31  5-MIN K12N 192330Z AUTO 32009G17KT 280V020 M04/M16 A3007 450 42 -1800 340/09G17 290V030 RMK AO1 T10441156
54779K12N 12N20160119183510801/19/16 18:35:31  5-MIN K12N 192335Z AUTO 34008G17KT M04/M16 A3007 450 42 -1800 360/08G17 RMK AO1 T10441156
54779K12N 12N20160119184010801/19/16 18:40:31  5-MIN K12N 192340Z AUTO VRB05G14KT M04/M16 A3007 440 42 -1800 VRB/05G14 RMK AO1 T10441156
54779K12N 12N20160119184510201/19/16 18:45:31  5-MIN K12N 192345Z AUTO VRB06KT M04/M15 A3008 440 44 -1800 VRB/06 RMK AO1 T10441150
54779K12N 12N20160119185013301/19/16 18:50:31  5-MIN K12N 192350Z AUTO 35009G18KT M04/M15 A3008 440 44 -1800 010/09G18 RMK AO1 SLP204 T10441150 11028 21056 53004
54779K12N 12N20160119185510801/19/16 18:55:31  5-MIN K12N 192355Z AUTO VRB05G18KT M04/M15 A3008 430 44 -1800 VRB/05G18 RMK AO1 T10441150
54779K12N 12N20160119190010801/19/16 19:00:31  5-MIN K12N 200000Z AUTO VRB06G17KT M04/M15 A3009 430 44 -1800 VRB/06G17 RMK AO1 T10441150
54779K12N 12N20160119190512401/19/16 19:05:31  5-MIN K12N 200005Z AUTO 35007G14KT 320V020 M04/M15 A3009 430 44 -1800 010/07G14 330V030 RMK AO1 T10441150
54779K12N 12N20160119191012401/19/16 19:10:31  5-MIN K12N 200010Z AUTO 34008G16KT 300V050 M04/M15 A3009 420 44 -1800 360/08G16 310V060 RMK AO1 T10441150
54779K12N 12N20160119191512401/19/16 19:15:31  5-MIN K12N 200015Z AUTO 34009G19KT 270V010 M04/M15 A3010 420 44 -1800 350/09G19 280V020 RMK AO1 T10441150
54779K12N 12N20160119192010801/19/16 19:20:31  5-MIN K12N 200020Z AUTO VRB06G19KT M04/M15 A3009 420 44 -1800 VRB/06G19 RMK AO1 T10441150
54779K12N 12N20160119192509201/19/16 19:25:31  5-MIN K12N 200025Z AUTO M04/M14 A3009 430 46 -1800 M /M RMK AO1 T10441144
54779K12N 12N20160119193010801/19/16 19:30:31  5-MIN K12N 200030Z AUTO 35009G20KT M04/M14 A3010 420 46 -1800 360/09G20 RMK AO1 T10441144
54779K12N 12N20160119193509201/19/16 19:35:31  5-MIN K12N 200035Z AUTO M05/M14 A3010 420 48 -1900 M /M RMK AO1 T10501144
54779K12N 12N20160119194010201/19/16 19:40:31  5-MIN K12N 200040Z AUTO 01005KT M04/M14 A3010 420 46 -1800 020/05 RMK AO1 T10441144
54779K12N 12N20160119194512401/19/16 19:45:31  5-MIN K12N 200045Z AUTO 31008G17KT 260V340 M04/M14 A3010 420 46 -1800 330/08G17 270V350 RMK AO1 T10441144
54779K12N 12N20160119195013101/19/16 19:50:31  5-MIN K12N 200050Z AUTO 35008G17KT 310V020 M05/M14 A3010 420 48 -1900 360/08G17 320V030 RMK AO1 SLP211 T10501144
54779K12N 12N20160119195512401/19/16 19:55:31  5-MIN K12N 200055Z AUTO 33007G18KT 270V020 M05/M14 A3011 410 50 -1900 350/07G18 280V030 RMK AO1 T10501139
54779K12N 12N20160119200012401/19/16 20:00:31  5-MIN K12N 200100Z AUTO 31012G20KT 280V010 M04/M14 A3010 420 48 -1800 330/12G20 290V020 RMK AO1 T10441139
54779K12N 12N20160119200512401/19/16 20:05:31  5-MIN K12N 200105Z AUTO 34009G20KT 300V050 M04/M14 A3011 410 48 -1800 350/09G20 310V060 RMK AO1 T10441139
54779K12N 12N20160119201012401/19/16 20:10:31  5-MIN K12N 200110Z AUTO 32010G20KT 280V360 M05/M14 A3011 410 50 -1900 330/10G20 290V010 RMK AO1 T10501139
54779K12N 12N20160119201512401/19/16 20:15:31  5-MIN K12N 200115Z AUTO 32012G19KT 300V010 M05/M14 A3011 410 50 -1900 340/12G19 310V020 RMK AO1 T10501139
54779K12N 12N20160119202012401/19/16 20:20:31  5-MIN K12N 200120Z AUTO 32010G20KT 290V350 M04/M14 A3011 410 48 -1800 330/10G20 300V360 RMK AO1 T10441139
54779K12N 12N20160119202510801/19/16 20:25:31  5-MIN K12N 200125Z AUTO 34009G20KT M05/M14 A3011 410 50 -1900 350/09G20 RMK AO1 T10501139
54779K12N 12N20160119203012401/19/16 20:30:31  5-MIN K12N 200130Z AUTO 34009G18KT 300V360 M05/M13 A3011 410 52 -1900 350/09G18 310V010 RMK AO1 T10501133
54779K12N 12N20160119203512401/19/16 20:35:31  5-MIN K12N 200135Z AUTO 33011G18KT 300V010 M05/M13 A3011 410 52 -1900 340/11G18 310V020 RMK AO1 T10501133
54779K12N 12N20160119204012401/19/16 20:40:31  5-MIN K12N 200140Z AUTO 34009G18KT 290V010 M05/M13 A3010 420 52 -1900 350/09G18 300V020 RMK AO1 T10501133
54779K12N 12N20160119204512401/19/16 20:45:31  5-MIN K12N 200145Z AUTO 34007G18KT 290V020 M05/M13 A3011 410 52 -1900 350/07G18 300V030 RMK AO1 T10501133
54779K12N 12N20160119205010901/19/16 20:50:31  5-MIN K12N 200150Z AUTO VRB05KT M05/M13 A3011 410 52 -1900 VRB/05 RMK AO1 SLP212 T10501133
54779K12N 12N20160119205512401/19/16 20:55:31  5-MIN K12N 200155Z AUTO 32011G17KT 280V360 M05/M13 A3011 410 52 -1900 330/11G17 290V010 RMK AO1 T10501133
54779K12N 12N20160119210010801/19/16 21:00:31  5-MIN K12N 200200Z AUTO VRB06G17KT M05/M13 A3011 410 52 -1900 VRB/06G17 RMK AO1 T10501133
54779K12N 12N20160119210511801/19/16 21:05:31  5-MIN K12N 200205Z AUTO 34007KT 300V010 M05/M13 A3011 410 55 -1900 350/07 310V020 RMK AO1 T10501128
54779K12N 12N20160119211011801/19/16 21:10:31  5-MIN K12N 200210Z AUTO 33007KT 280V010 M05/M13 A3011 410 55 -1900 350/07 290V020 RMK AO1 T10501128
54779K12N 12N20160119211510201/19/16 21:15:31  5-MIN K12N 200215Z AUTO VRB03KT M05/M13 A3011 410 55 -1900 VRB/03 RMK AO1 T10501128
54779K12N 12N20160119212010201/19/16 21:20:31  5-MIN K12N 200220Z AUTO 35006KT M05/M13 A3011 410 55 -1900 010/06 RMK AO1 T10501128
54779K12N 12N20160119212511801/19/16 21:25:31  5-MIN K12N 200225Z AUTO 34007KT 310V030 M05/M13 A3011 410 55 -1900 350/07 320V040 RMK AO1 T10501128
54779K12N 12N20160119213011801/19/16 21:30:31  5-MIN K12N 200230Z AUTO 31007KT 280V350 M05/M13 A3011 410 55 -1900 330/07 290V360 RMK AO1 T10501128
54779K12N 12N20160119213510201/19/16 21:35:31  5-MIN K12N 200235Z AUTO VRB05KT M05/M13 A3011 410 55 -1900 VRB/05 RMK AO1 T10501128
54779K12N 12N20160119214010201/19/16 21:40:31  5-MIN K12N 200240Z AUTO VRB05KT M05/M13 A3011 410 55 -1900 VRB/05 RMK AO1 T10501128
54779K12N 12N20160119214512401/19/16 21:45:31  5-MIN K12N 200245Z AUTO 32008G18KT 290V020 M04/M13 A3012 410 52 -1800 330/08G18 300V030 RMK AO1 T10441128
54779K12N 12N20160119215012101/19/16 21:50:31  5-MIN K12N 200250Z AUTO VRB06G18KT M04/M12 A3011 410 55 -1800 VRB/06G18 RMK AO1 SLP214 T10441122 53023
54779K12N 12N20160119215512401/19/16 21:55:31  5-MIN K12N 200255Z AUTO 32008G15KT 280V360 M04/M12 A3012 400 55 -1800 340/08G15 290V010 RMK AO1 T10441122
54779K12N 12N20160119220012401/19/16 22:00:31  5-MIN K12N 200300Z AUTO 33007G17KT 290V360 M04/M12 A3011 410 55 -1800 340/07G17 300V010 RMK AO1 T10441122
54779K12N 12N20160119220510801/19/16 22:05:31  5-MIN K12N 200305Z AUTO VRB06G17KT M04/M12 A3012 400 55 -1800 VRB/06G17 RMK AO1 T10441122
54779K12N 12N20160119221010201/19/16 22:10:31  5-MIN K12N 200310Z AUTO VRB06KT M04/M12 A3012 400 55 -1800 VRB/06 RMK AO1 T10441122
54779K12N 12N20160119221511801/19/16 22:15:31  5-MIN K12N 200315Z AUTO 31008KT 270V340 M04/M12 A3012 400 55 -1800 330/08 280V350 RMK AO1 T10441122
54779K12N 12N20160119222012401/19/16 22:20:31  5-MIN K12N 200320Z AUTO 31008G14KT 250V360 M04/M12 A3013 400 57 -1800 320/08G14 260V010 RMK AO1 T10441117
54779K12N 12N20160119222510801/19/16 22:25:31  5-MIN K12N 200325Z AUTO 30008G16KT M04/M12 A3013 390 57 -1800 310/08G16 RMK AO1 T10441117
54779K12N 12N20160119223009201/19/16 22:30:31  5-MIN K12N 200330Z AUTO M04/M12 A3013 390 57 -1800 M /M RMK AO1 T10441117
54779K12N 12N20160119223511801/19/16 22:35:31  5-MIN K12N 200335Z AUTO 30008KT 210V330 M04/M12 A3013 390 55 -1800 310/08 220V340 RMK AO1 T10391117
54779K12N 12N20160119224012401/19/16 22:40:31  5-MIN K12N 200340Z AUTO 33007G17KT 290V360 M04/M12 A3014 390 55 -1800 340/07G17 300V010 RMK AO1 T10391117
54779K12N 12N20160119224512401/19/16 22:45:31  5-MIN K12N 200345Z AUTO 31008G17KT 270V360 M04/M12 A3014 390 55 -1800 330/08G17 280V010 RMK AO1 T10391117
54779K12N 12N20160119225010901/19/16 22:50:31  5-MIN K12N 200350Z AUTO VRB03KT M04/M12 A3014 380 55 -1800 VRB/03 RMK AO1 SLP221 T10391117
54779K12N 12N20160119225510201/19/16 22:55:31  5-MIN K12N 200355Z AUTO VRB05KT M04/M12 A3014 380 55 -1800 VRB/05 RMK AO1 T10391117
54779K12N 12N20160119230011801/19/16 23:00:31  5-MIN K12N 200400Z AUTO 30008KT 260V360 M04/M12 A3014 380 55 -1800 310/08 270V010 RMK AO1 T10391117
54779K12N 12N20160119230511801/19/16 23:05:31  5-MIN K12N 200405Z AUTO 30007KT 260V360 M04/M12 A3014 380 55 -1800 320/07 270V010 RMK AO1 T10391117
54779K12N 12N20160119231012401/19/16 23:10:31  5-MIN K12N 200410Z AUTO 28009G15KT 240V320 M04/M12 A3014 380 55 -1800 300/09G15 250V330 RMK AO1 T10391117
54779K12N 12N20160119231512401/19/16 23:15:31  5-MIN K12N 200415Z AUTO 30009G15KT 260V340 M04/M12 A3014 380 55 -1800 320/09G15 270V350 RMK AO1 T10391117
54779K12N 12N20160119232011801/19/16 23:20:31  5-MIN K12N 200420Z AUTO 32007KT 260V030 M04/M12 A3014 380 55 -1800 330/07 270V040 RMK AO1 T10391117
54779K12N 12N20160119232510201/19/16 23:25:31  5-MIN K12N 200425Z AUTO VRB06KT M04/M12 A3014 380 57 -1800 VRB/06 RMK AO1 T10441117
54779K12N 12N20160119233012401/19/16 23:30:31  5-MIN K12N 200430Z AUTO 34007G18KT 310V010 M04/M12 A3014 380 55 -1800 350/07G18 320V020 RMK AO1 T10391117
54779K12N 12N20160119233510801/19/16 23:35:31  5-MIN K12N 200435Z AUTO VRB06G18KT M04/M12 A3014 380 57 -1800 VRB/06G18 RMK AO1 T10441117
54779K12N 12N20160119234010201/19/16 23:40:31  5-MIN K12N 200440Z AUTO VRB04KT M04/M12 A3014 380 57 -1800 VRB/04 RMK AO1 T10441117
54779K12N 12N20160119234511801/19/16 23:45:31  5-MIN K12N 200445Z AUTO 34007KT 280V030 M04/M12 A3014 380 57 -1800 350/07 290V040 RMK AO1 T10441117
54779K12N 12N20160119235011901/19/16 23:50:31  5-MIN K12N 200450Z AUTO VRB06KT M04/M12 A3014 390 57 -1800 VRB/06 RMK AO1 SLP221 T10441117 410281117
54779K12N 12N20160119235511801/19/16 23:55:31  5-MIN K12N 200455Z AUTO 32007KT 270V030 M04/M12 A3014 390 57 -1800 340/07 280V040 RMK AO1 T10441117
54779K12N 12N20160120000010201/20/16 00:00:31  5-MIN K12N 200500Z AUTO VRB05KT M04/M11 A3014 390 60 -1800 VRB/05 RMK AO1 T10441111
54779K12N 12N20160120000511801/20/16 00:05:31  5-MIN K12N 200505Z AUTO 31008KT 270V120 M04/M12 A3014 390 57 -1800 330/08 280V130 RMK AO1 T10441117
54779K12N 12N20160120001009201/20/16 00:10:31  5-MIN K12N 200510Z AUTO M04/M11 A3014 390 60 -1800 M /M RMK AO1 T10441111
54779K12N 12N20160120001510801/20/16 00:15:31  5-MIN K12N 200515Z AUTO VRB05G15KT M04/M11 A3013 390 60 -1800 VRB/05G15 RMK AO1 T10441111
54779K12N 12N20160120002011801/20/16 00:20:31  5-MIN K12N 200520Z AUTO 30007KT 230V340 M04/M11 A3013 390 60 -1800 320/07 240V350 RMK AO1 T10441111
54779K12N 12N20160120002510201/20/16 00:25:31  5-MIN K12N 200525Z AUTO VRB05KT M04/M11 A3013 390 60 -1800 VRB/05 RMK AO1 T10441111
54779K12N 12N20160120003012401/20/16 00:30:31  5-MIN K12N 200530Z AUTO 30008G15KT 230V010 M04/M11 A3013 390 60 -1800 310/08G15 240V020 RMK AO1 T10441111
54779K12N 12N20160120003510801/20/16 00:35:31  5-MIN K12N 200535Z AUTO VRB05G15KT M04/M11 A3013 390 60 -1800 VRB/05G15 RMK AO1 T10441111
54779K12N 12N20160120004012401/20/16 00:40:31  5-MIN K12N 200540Z AUTO 35008G15KT 310V020 M04/M11 A3013 390 60 -1800 360/08G15 320V030 RMK AO1 T10441111
54779K12N 12N20160120004512401/20/16 00:45:31  5-MIN K12N 200545Z AUTO 30007G15KT 240V330 M04/M11 A3013 390 60 -1800 310/07G15 250V340 RMK AO1 T10441111
54779K12N 12N20160120005012701/20/16 00:50:31  5-MIN K12N 200550Z AUTO VRB04KT M04/M11 A3013 390 60 -1800 VRB/04 RMK AO1 SLP218 T10441111 11039 21050 51010
54779K12N 12N20160120005511801/20/16 00:55:31  5-MIN K12N 200555Z AUTO 31008KT 210V340 M04/M11 A3013 390 60 -1800 320/08 220V350 RMK AO1 T10441111
54779K12N 12N20160120010012401/20/16 01:00:31  5-MIN K12N 200600Z AUTO 33008G16KT 260V010 M04/M11 A3013 390 60 -1800 340/08G16 270V020 RMK AO1 T10441111
54779K12N 12N20160120010510801/20/16 01:05:31  5-MIN K12N 200605Z AUTO VRB05G16KT M04/M11 A3013 390 60 -1800 VRB/05G16 RMK AO1 T10441111
54779K12N 12N20160120011011801/20/16 01:10:31  5-MIN K12N 200610Z AUTO 33008KT 290V040 M04/M11 A3013 390 60 -1800 340/08 300V050 RMK AO1 T10441111
54779K12N 12N20160120011510801/20/16 01:15:31  5-MIN K12N 200615Z AUTO VRB04G21KT M04/M11 A3013 390 57 -1800 VRB/04G21 RMK AO1 T10391111
54779K12N 12N20160120012010801/20/16 01:20:31  5-MIN K12N 200620Z AUTO VRB05G21KT M04/M11 A3013 390 60 -1800 VRB/05G21 RMK AO1 T10441111
54779K12N 12N20160120012511801/20/16 01:25:31  5-MIN K12N 200625Z AUTO 30008KT 250V330 M04/M11 A3014 390 60 -1800 310/08 260V340 RMK AO1 T10441111
54779K12N 12N20160120013010201/20/16 01:30:31  5-MIN K12N 200630Z AUTO VRB05KT M04/M11 A3014 380 60 -1800 VRB/05 RMK AO1 T10441111
54779K12N 12N20160120013510201/20/16 01:35:31  5-MIN K12N 200635Z AUTO VRB04KT M04/M11 A3014 380 60 -1800 VRB/04 RMK AO1 T10441111
54779K12N 12N20160120014010201/20/16 01:40:31  5-MIN K12N 200640Z AUTO VRB06KT M04/M11 A3015 370 60 -1800 VRB/06 RMK AO1 T10441111
54779K12N 12N20160120014512501/20/16 01:45:31  5-MIN K12N 200645Z AUTO 32007KT 280V360 M04/M11 A3016 370 57 -1800 330/07 290V010 RMK AO1 PRESRR T10391111
54779K12N 12N20160120015010901/20/16 01:50:31  5-MIN K12N 200650Z AUTO VRB05KT M04/M11 A3016 370 57 -1800 VRB/05 RMK AO1 SLP227 T10391111
54779K12N 12N20160120015510201/20/16 01:55:31  5-MIN K12N 200655Z AUTO VRB06KT M04/M11 A3016 370 57 -1800 VRB/06 RMK AO1 T10391111
54779K12N 12N20160120020010801/20/16 02:00:31  5-MIN K12N 200700Z AUTO VRB06G17KT M04/M11 A3016 360 60 -1800 VRB/06G17 RMK AO1 T10391106
54779K12N 12N20160120020512401/20/16 02:05:31  5-MIN K12N 200705Z AUTO 32007G17KT 290V350 M04/M11 A3016 370 60 -1800 330/07G17 300V360 RMK AO1 T10391106
54779K12N 12N20160120021011801/20/16 02:10:31  5-MIN K12N 200710Z AUTO 33007KT 280V360 M04/M11 A3016 370 60 -1800 340/07 290V010 RMK AO1 T10391106
54779K12N 12N20160120021510201/20/16 02:15:31  5-MIN K12N 200715Z AUTO VRB06KT M04/M11 A3016 370 60 -1800 VRB/06 RMK AO1 T10391106
54779K12N 12N20160120022010201/20/16 02:20:31  5-MIN K12N 200720Z AUTO VRB06KT M04/M11 A3015 370 60 -1800 VRB/06 RMK AO1 T10391106
54779K12N 12N20160120022510201/20/16 02:25:31  5-MIN K12N 200725Z AUTO 35010KT M04/M11 A3015 370 60 -1800 360/10 RMK AO1 T10391106
54779K12N 12N20160120023010801/20/16 02:30:31  5-MIN K12N 200730Z AUTO 33009G17KT M04/M11 A3015 370 60 -1800 340/09G17 RMK AO1 T10391106
54779K12N 12N20160120023512401/20/16 02:35:31  5-MIN K12N 200735Z AUTO 35012G17KT 300V010 M04/M11 A3016 370 60 -1800 360/12G17 310V020 RMK AO1 T10391106
54779K12N 12N20160120024012401/20/16 02:40:31  5-MIN K12N 200740Z AUTO 33010G19KT 280V360 M04/M11 A3016 370 60 -1800 340/10G19 290V010 RMK AO1 T10391106
54779K12N 12N20160120024510801/20/16 02:45:31  5-MIN K12N 200745Z AUTO 35011G23KT M04/M11 A3015 370 60 -1800 010/11G23 RMK AO1 T10391106
54779K12N 12N20160120025011501/20/16 02:50:31  5-MIN K12N 200750Z AUTO 35010G23KT M04/M11 A3015 370 60 -1800 010/10G23 RMK AO1 SLP223 T10391106
54779K12N 12N20160120025512401/20/16 02:55:31  5-MIN K12N 200755Z AUTO 34009G20KT 310V040 M04/M10 A3015 380 63 -1800 360/09G20 320V050 RMK AO1 T10391100
54779K12N 12N20160120030010801/20/16 03:00:31  5-MIN K12N 200800Z AUTO 36009G20KT M04/M10 A3014 380 63 -1800 010/09G20 RMK AO1 T10391100
54779K12N 12N20160120030510801/20/16 03:05:31  5-MIN K12N 200805Z AUTO 33011G20KT M04/M10 A3015 380 63 -1800 350/11G20 RMK AO1 T10391100
54779K12N 12N20160120031010801/20/16 03:10:31  5-MIN K12N 200810Z AUTO 35010G19KT M04/M10 A3015 370 63 -1800 360/10G19 RMK AO1 T10391100
54779K12N 12N20160120031512401/20/16 03:15:31  5-MIN K12N 200815Z AUTO 35008G19KT 300V020 M04/M10 A3015 370 63 -1800 360/08G19 310V030 RMK AO1 T10391100
54779K12N 12N20160120032010801/20/16 03:20:31  5-MIN K12N 200820Z AUTO VRB06G16KT M04/M10 A3016 370 63 -1800 VRB/06G16 RMK AO1 T10391100
54779K12N 12N20160120032512401/20/16 03:25:31  5-MIN K12N 200825Z AUTO 33010G17KT 300V360 M04/M10 A3016 370 63 -1800 350/10G17 310V010 RMK AO1 T10391100
54779K12N 12N20160120033010801/20/16 03:30:31  5-MIN K12N 200830Z AUTO 36008G17KT M04/M10 A3015 370 63 -1800 010/08G17 RMK AO1 T10391100
54779K12N 12N20160120033510201/20/16 03:35:31  5-MIN K12N 200835Z AUTO VRB05KT M04/M10 A3016 370 63 -1800 VRB/05 RMK AO1 T10391100
54779K12N 12N20160120034012401/20/16 03:40:31  5-MIN K12N 200840Z AUTO 34007G17KT 290V040 M04/M10 A3016 370 63 -1800 350/07G17 300V050 RMK AO1 T10391100
54779K12N 12N20160120034512401/20/16 03:45:31  5-MIN K12N 200845Z AUTO 34008G17KT 290V010 M04/M10 A3016 360 63 -1800 350/08G17 300V020 RMK AO1 T10391100
54779K12N 12N20160120035013701/20/16 03:50:31  5-MIN K12N 200850Z AUTO 33007G17KT 290V040 M04/M10 A3016 360 63 -1800 350/07G17 300V050 RMK AO1 SLP227 T10391100 50006
54779K12N 12N20160120035510801/20/16 03:55:31  5-MIN K12N 200855Z AUTO VRB05G14KT M04/M10 A3017 360 63 -1800 VRB/05G14 RMK AO1 T10391100
54779K12N 12N20160120040012401/20/16 04:00:31  5-MIN K12N 200900Z AUTO 33011G19KT 300V030 M04/M10 A3017 360 63 -1800 340/11G19 310V040 RMK AO1 T10391100
54779K12N 12N20160120040512401/20/16 04:05:31  5-MIN K12N 200905Z AUTO 33007G19KT 290V010 M04/M10 A3017 360 63 -1800 350/07G19 300V020 RMK AO1 T10391100
54779K12N 12N20160120041011801/20/16 04:10:31  5-MIN K12N 200910Z AUTO 33007KT 290V020 M04/M10 A3017 360 63 -1800 350/07 300V030 RMK AO1 T10391100
54779K12N 12N20160120041511801/20/16 04:15:31  5-MIN K12N 200915Z AUTO 35007KT 270V050 M04/M10 A3017 350 63 -1800 360/07 280V060 RMK AO1 T10391100
54779K12N 12N20160120042012401/20/16 04:20:31  5-MIN K12N 200920Z AUTO 33010G15KT 290V010 M04/M09 A3018 350 65 -1800 340/10G15 300V020 RMK AO1 T10391094
54779K12N 12N20160120042512401/20/16 04:25:31  5-MIN K12N 200925Z AUTO 33008G16KT 280V010 M04/M09 A3018 340 65 -1800 340/08G16 290V020 RMK AO1 T10391094
54779K12N 12N20160120043012401/20/16 04:30:31  5-MIN K12N 200930Z AUTO 33007G16KT 300V360 M04/M09 A3018 340 65 -1800 350/07G16 310V010 RMK AO1 T10391094
54779K12N 12N20160120043510801/20/16 04:35:31  5-MIN K12N 200935Z AUTO 34007G17KT M03/M09 A3018 340 63 -1700 360/07G17 RMK AO1 T10331094
54779K12N 12N20160120044010801/20/16 04:40:31  5-MIN K12N 200940Z AUTO VRB06G17KT M03/M09 A3018 340 63 -1700 VRB/06G17 RMK AO1 T10331094
54779K12N 12N20160120044512401/20/16 04:45:31  5-MIN K12N 200945Z AUTO 33007G15KT 280V020 M03/M09 A3018 340 63 -1700 350/07G15 290V030 RMK AO1 T10331094
54779K12N 12N20160120045011501/20/16 04:50:31  5-MIN K12N 200950Z AUTO VRB04G15KT M03/M09 A3019 330 63 -1800 VRB/04G15 RMK AO1 SLP237 T10331094
54779K12N 12N20160120045509201/20/16 04:55:31  5-MIN K12N 200955Z AUTO M03/M09 A3019 330 63 -1800 M /M RMK AO1 T10331094
54779K12N 12N20160120050011801/20/16 05:00:31  5-MIN K12N 201000Z AUTO 32008KT 280V360 M03/M09 A3019 330 63 -1800 330/08 290V010 RMK AO1 T10331094
54779K12N 12N20160120050510201/20/16 05:05:31  5-MIN K12N 201005Z AUTO VRB05KT M03/M09 A3019 330 63 -1800 VRB/05 RMK AO1 T10331094
54779K12N 12N20160120051010201/20/16 05:10:31  5-MIN K12N 201010Z AUTO 30006KT M03/M09 A3019 330 63 -1800 320/06 RMK AO1 T10331094
54779K12N 12N20160120051510201/20/16 05:15:31  5-MIN K12N 201015Z AUTO VRB03KT M03/M09 A3020 330 63 -1800 VRB/03 RMK AO1 T10331094
54779K12N 12N20160120052010201/20/16 05:20:31  5-MIN K12N 201020Z AUTO 32005KT M03/M09 A3020 330 63 -1800 340/05 RMK AO1 T10331094
54779K12N 12N20160120052511801/20/16 05:25:31  5-MIN K12N 201025Z AUTO 30009KT 270V340 M03/M09 A3020 330 63 -1800 310/09 280V350 RMK AO1 T10331094
54779K12N 12N20160120053011801/20/16 05:30:31  5-MIN K12N 201030Z AUTO 30008KT 270V330 M03/M09 A3020 330 63 -1800 310/08 280V340 RMK AO1 T10331094
54779K12N 12N20160120053510201/20/16 05:35:31  5-MIN K12N 201035Z AUTO VRB06KT M03/M09 A3020 330 63 -1800 VRB/06 RMK AO1 T10331094
54779K12N 12N20160120054011801/20/16 05:40:31  5-MIN K12N 201040Z AUTO 33007KT 310V010 M03/M09 A3020 330 63 -1800 340/07 320V020 RMK AO1 T10331094
54779K12N 12N20160120054512401/20/16 05:45:31  5-MIN K12N 201045Z AUTO 32010G18KT 280V350 M03/M09 A3020 330 63 -1800 330/10G18 290V360 RMK AO1 T10331094
54779K12N 12N20160120055013101/20/16 05:50:31  5-MIN K12N 201050Z AUTO 34007G18KT 310V020 M03/M09 A3020 330 63 -1800 360/07G18 320V030 RMK AO1 SLP240 T10331094
54779K12N 12N20160120055510201/20/16 05:55:31  5-MIN K12N 201055Z AUTO 34008KT M03/M09 A3020 330 63 -1800 350/08 RMK AO1 T10331094
54779K12N 12N20160120060010201/20/16 06:00:31  5-MIN K12N 201100Z AUTO 32007KT M03/M09 A3020 330 63 -1800 340/07 RMK AO1 T10331094
54779K12N 12N20160120060512401/20/16 06:05:31  5-MIN K12N 201105Z AUTO 35007G14KT 310V010 M03/M09 A3020 330 63 -1800 360/07G14 320V020 RMK AO1 T10331094
54779K12N 12N20160120061010801/20/16 06:10:31  5-MIN K12N 201110Z AUTO 34010G17KT M03/M09 A3020 330 63 -1800 350/10G17 RMK AO1 T10331094
54779K12N 12N20160120061512401/20/16 06:15:31  5-MIN K12N 201115Z AUTO 35007G17KT 310V020 M03/M09 A3020 330 63 -1800 360/07G17 320V030 RMK AO1 T10331094
54779K12N 12N20160120062010201/20/16 06:20:31  5-MIN K12N 201120Z AUTO VRB06KT M03/M09 A3020 320 63 -1800 VRB/06 RMK AO1 T10331094
54779K12N 12N20160120062510201/20/16 06:25:31  5-MIN K12N 201125Z AUTO 35006KT M03/M09 A3020 320 63 -1800 360/06 RMK AO1 T10331094
54779K12N 12N20160120063011801/20/16 06:30:31  5-MIN K12N 201130Z AUTO 34009KT 290V010 M03/M09 A3020 320 63 -1800 350/09 300V020 RMK AO1 T10331094
54779K12N 12N20160120063512401/20/16 06:35:31  5-MIN K12N 201135Z AUTO 34008G16KT 290V360 M03/M09 A3021 320 63 -1800 350/08G16 300V010 RMK AO1 T10331094
54779K12N 12N20160120064012401/20/16 06:40:31  5-MIN K12N 201140Z AUTO 31007G16KT 250V350 M03/M09 A3021 320 63 -1800 320/07G16 260V360 RMK AO1 T10331094
54779K12N 12N20160120064512401/20/16 06:45:31  5-MIN K12N 201145Z AUTO 33007G15KT 310V010 M03/M09 A3021 320 63 -1800 350/07G15 320V020 RMK AO1 T10331094
54779K12N 12N20160120065014901/20/16 06:50:31  5-MIN K12N 201150Z AUTO 33008G15KT 280V350 M03/M09 A3020 320 65 -1800 350/08G15 290V360 RMK AO1 SLP242 T10331089 11033 21044 51011
54779K12N 12N20160120065512401/20/16 06:55:31  5-MIN K12N 201155Z AUTO 34009G20KT 300V010 M03/M09 A3020 330 65 -1800 350/09G20 310V020 RMK AO1 T10331089
54779K12N 12N20160120070010801/20/16 07:00:31  5-MIN K12N 201200Z AUTO 35010G20KT M03/M09 A3020 330 65 -1800 360/10G20 RMK AO1 T10331089
54779K12N 12N20160120070510201/20/16 07:05:31  5-MIN K12N 201205Z AUTO 34009KT M03/M09 A3020 330 65 -1800 360/09 RMK AO1 T10331089
54779K12N 12N20160120071012401/20/16 07:10:31  5-MIN K12N 201210Z AUTO 34009G15KT 300V020 M03/M09 A3020 330 65 -1800 350/09G15 310V030 RMK AO1 T10331089
54779K12N 12N20160120071510201/20/16 07:15:31  5-MIN K12N 201215Z AUTO 36009KT M03/M09 A3020 330 65 -1800 010/09 RMK AO1 T10331089
54779K12N 12N20160120072010801/20/16 07:20:31  5-MIN K12N 201220Z AUTO 36011G16KT M03/M09 A3020 330 65 -1800 010/11G16 RMK AO1 T10331089
54779K12N 12N20160120072510801/20/16 07:25:31  5-MIN K12N 201225Z AUTO 35012G19KT M03/M09 A3020 330 65 -1800 360/12G19 RMK AO1 T10331089
54779K12N 12N20160120073012401/20/16 07:30:31  5-MIN K12N 201230Z AUTO 35008G19KT 300V030 M03/M09 A3020 330 65 -1800 360/08G19 310V040 RMK AO1 T10331089
54779K12N 12N20160120073510801/20/16 07:35:31  5-MIN K12N 201235Z AUTO VRB05G17KT M03/M09 A3020 320 65 -1800 VRB/05G17 RMK AO1 T10331089
54779K12N 12N20160120074011801/20/16 07:40:31  5-MIN K12N 201240Z AUTO 36007KT 280V050 M03/M09 A3021 320 65 -1800 020/07 290V060 RMK AO1 T10331089
54779K12N 12N20160120074511801/20/16 07:45:31  5-MIN K12N 201245Z AUTO 35007KT 300V040 M03/M09 A3021 320 65 -1800 360/07 310V050 RMK AO1 T10331089
54779K12N 12N20160120075010901/20/16 07:50:31  5-MIN K12N 201250Z AUTO VRB05KT M03/M09 A3021 320 65 -1800 VRB/05 RMK AO1 SLP244 T10331089
54779K12N 12N20160120075510201/20/16 07:55:31  5-MIN K12N 201255Z AUTO 33005KT M03/M09 A3021 320 65 -1800 340/05 RMK AO1 T10331089
54779K12N 12N20160120080010201/20/16 08:00:31  5-MIN K12N 201300Z AUTO VRB03KT M03/M09 A3021 320 65 -1800 VRB/03 RMK AO1 T10331089
54779K12N 12N20160120080510201/20/16 08:05:31  5-MIN K12N 201305Z AUTO VRB05KT M03/M09 A3021 320 65 -1800 VRB/05 RMK AO1 T10331089
54779K12N 12N20160120081010201/20/16 08:10:31  5-MIN K12N 201310Z AUTO VRB03KT M03/M09 A3021 320 65 -1800 VRB/03 RMK AO1 T10331089
54779K12N 12N20160120081510201/20/16 08:15:31  5-MIN K12N 201315Z AUTO VRB05KT M03/M09 A3021 320 65 -1800 VRB/05 RMK AO1 T10331089
54779K12N 12N20160120082011801/20/16 08:20:31  5-MIN K12N 201320Z AUTO 32007KT 280V010 M03/M09 A3021 320 65 -1800 340/07 290V020 RMK AO1 T10331089
54779K12N 12N20160120082510201/20/16 08:25:31  5-MIN K12N 201325Z AUTO VRB04KT M03/M09 A3021 320 63 -1700 VRB/04 RMK AO1 T10281089
54779K12N 12N20160120083010201/20/16 08:30:31  5-MIN K12N 201330Z AUTO 31004KT M03/M09 A3021 320 63 -1700 320/04 RMK AO1 T10281089
54779K12N 12N20160120083510201/20/16 08:35:31  5-MIN K12N 201335Z AUTO VRB05KT M03/M09 A3021 320 63 -1700 VRB/05 RMK AO1 T10281089
54779K12N 12N20160120084010201/20/16 08:40:31  5-MIN K12N 201340Z AUTO VRB03KT M03/M09 A3021 320 63 -1700 VRB/03 RMK AO1 T10281089
54779K12N 12N20160120084510201/20/16 08:45:31  5-MIN K12N 201345Z AUTO 33005KT M03/M09 A3021 320 63 -1700 340/05 RMK AO1 T10281089
54779K12N 12N20160120085010901/20/16 08:50:31  5-MIN K12N 201350Z AUTO 30005KT M03/M09 A3021 320 63 -1700 320/05 RMK AO1 SLP244 T10281089
54779K12N 12N20160120085512401/20/16 08:55:31  5-MIN K12N 201355Z AUTO 33007G14KT 280V020 M03/M09 A3021 320 63 -1700 340/07G14 290V030 RMK AO1 T10281089
54779K12N 12N20160120090010801/20/16 09:00:31  5-MIN K12N 201400Z AUTO VRB03G14KT M03/M09 A3021 320 63 -1700 VRB/03G14 RMK AO1 T10281089
54779K12N 12N20160120090510201/20/16 09:05:31  5-MIN K12N 201405Z AUTO 34006KT M03/M09 A3021 320 63 -1700 350/06 RMK AO1 T10281089
54779K12N 12N20160120091010201/20/16 09:10:31  5-MIN K12N 201410Z AUTO VRB03KT M02/M09 A3021 320 60 -1600 VRB/03 RMK AO1 T10221089
54779K12N 12N20160120091511801/20/16 09:15:31  5-MIN K12N 201415Z AUTO 32008KT 290V010 M02/M09 A3021 320 60 -1600 340/08 300V020 RMK AO1 T10221089
54779K12N 12N20160120092011801/20/16 09:20:31  5-MIN K12N 201420Z AUTO 34007KT 290V360 M02/M09 A3020 320 60 -1600 350/07 300V010 RMK AO1 T10221089
54779K12N 12N20160120092510201/20/16 09:25:31  5-MIN K12N 201425Z AUTO VRB06KT M02/M09 A3020 330 58 -1600 VRB/06 RMK AO1 T10171089
54779K12N 12N20160120093010201/20/16 09:30:31  5-MIN K12N 201430Z AUTO VRB05KT M02/M09 A3020 320 58 -1600 VRB/05 RMK AO1 T10171089
54779K12N 12N20160120093510201/20/16 09:35:31  5-MIN K12N 201435Z AUTO VRB03KT M02/M09 A3021 320 58 -1600 VRB/03 RMK AO1 T10171089
54779K12N 12N20160120094009201/20/16 09:40:31  5-MIN K12N 201440Z AUTO M02/M09 A3021 320 58 -1600 M /M RMK AO1 T10171089
54779K12N 12N20160120094510201/20/16 09:45:31  5-MIN K12N 201445Z AUTO VRB06KT M02/M09 A3021 320 58 -1600 VRB/06 RMK AO1 T10171089
54779K12N 12N20160120095013701/20/16 09:50:31  5-MIN K12N 201450Z AUTO 34008G14KT 300V030 M02/M09 A3021 320 55 -1600 360/08G14 310V040 RMK AO1 SLP242 T10171094 51012
54779K12N 12N20160120095512401/20/16 09:55:31  5-MIN K12N 201455Z AUTO 35008G14KT 310V040 M02/M09 A3021 320 58 -1600 360/08G14 320V050 RMK AO1 T10171089
54779K12N 12N20160120100011801/20/16 10:00:31  5-MIN K12N 201500Z AUTO 34008KT 300V010 M02/M09 A3021 320 58 -1600 350/08 310V020 RMK AO1 T10171089
54779K12N 12N20160120100511801/20/16 10:05:31  5-MIN K12N 201505Z AUTO 34007KT 310V040 M02/M09 A3021 310 58 -1600 350/07 320V050 RMK AO1 T10171089
54779K12N 12N20160120101010801/20/16 10:10:31  5-MIN K12N 201510Z AUTO 34011G15KT M02/M09 A3021 310 55 -1600 350/11G15 RMK AO1 T10171094
54779K12N 12N20160120101510801/20/16 10:15:31  5-MIN K12N 201515Z AUTO VRB06G15KT M02/M09 A3021 320 55 -1600 VRB/06G15 RMK AO1 T10171094
54779K12N 12N20160120102010201/20/16 10:20:31  5-MIN K12N 201520Z AUTO VRB05KT M01/M09 A3021 310 55 -1500 VRB/05 RMK AO1 T10111089
54779K12N 12N20160120102510201/20/16 10:25:31  5-MIN K12N 201525Z AUTO VRB06KT M01/M09 A3021 320 53 -1500 VRB/06 RMK AO1 T10111094
54779K12N 12N20160120103009201/20/16 10:30:31  5-MIN K12N 201530Z AUTO M01/M09 A3021 320 53 -1400 M /M RMK AO1 T10061089
54779K12N 12N20160120103510201/20/16 10:35:31  5-MIN K12N 201535Z AUTO 33005KT M01/M09 A3021 320 51 -1400 340/05 RMK AO1 T10061094
54779K12N 12N20160120104011801/20/16 10:40:31  5-MIN K12N 201540Z AUTO 34007KT 300V010 M01/M09 A3021 320 53 -1400 350/07 310V020 RMK AO1 T10061089
54779K12N 12N20160120104511801/20/16 10:45:31  5-MIN K12N 201545Z AUTO 34008KT 310V010 M01/M09 A3021 320 53 -1500 360/08 320V020 RMK AO1 T10111094
54779K12N 12N20160120105013101/20/16 10:50:31  5-MIN K12N 201550Z AUTO 35008G16KT 310V020 M01/M09 A3020 320 53 -1500 360/08G16 320V030 RMK AO1 SLP241 T10111094
54779K12N 12N20160120105510801/20/16 10:55:31  5-MIN K12N 201555Z AUTO 34008G16KT M01/M09 A3020 330 53 -1500 360/08G16 RMK AO1 T10111094
54779K12N 12N20160120110012401/20/16 11:00:31  5-MIN K12N 201600Z AUTO 34007G16KT 300V010 M01/M09 A3020 330 51 -1400 350/07G16 310V020 RMK AO1 T10061094
54779K12N 12N20160120110512401/20/16 11:05:31  5-MIN K12N 201605Z AUTO 35009G16KT 310V030 M01/M09 A3020 330 51 -1400 360/09G16 320V040 RMK AO1 T10061094
54779K12N 12N20160120111009201/20/16 11:10:31  5-MIN K12N 201610Z AUTO M01/M09 A3019 330 51 -1400 M /M RMK AO1 T10061094
54779K12N 12N20160120111510201/20/16 11:15:31  5-MIN K12N 201615Z AUTO 34009KT M01/M10 A3019 340 51 -1500 350/09 RMK AO1 T10111100
54779K12N 12N20160120112011801/20/16 11:20:31  5-MIN K12N 201620Z AUTO 01007KT 340V040 M01/M09 A3018 340 51 -1400 030/07 350V050 RMK AO1 T10061094
54779K12N 12N20160120112510201/20/16 11:25:31  5-MIN K12N 201625Z AUTO VRB05KT M01/M09 A3018 340 51 -1400 VRB/05 RMK AO1 T10061094
54779K12N 12N20160120113010101/20/16 11:30:31  5-MIN K12N 201630Z AUTO 32005KT 00/M09 A3018 340 49 -1300 330/05 RMK AO1 T00001094
54779K12N 12N20160120113510101/20/16 11:35:31  5-MIN K12N 201635Z AUTO VRB05KT 00/M09 A3017 350 49 -1300 VRB/05 RMK AO1 T00001094
54779K12N 12N20160120114010701/20/16 11:40:31  5-MIN K12N 201640Z AUTO 35009G14KT 00/M09 A3017 360 49 -1300 360/09G14 RMK AO1 T00001094
54779K12N 12N20160120114510701/20/16 11:45:31  5-MIN K12N 201645Z AUTO 01006G14KT 00/M09 A3017 360 49 -1300 030/06G14 RMK AO1 T00001094
54779K12N 12N20160120115010801/20/16 11:50:31  5-MIN K12N 201650Z AUTO VRB05KT 00/M09 A3016 360 51 -1300 VRB/05 RMK AO1 SLP227 T00001089
54779K12N 12N20160120115510101/20/16 11:55:31  5-MIN K12N 201655Z AUTO VRB05KT 00/M09 A3016 360 49 -1300 VRB/05 RMK AO1 T00001094
54779K12N 12N20160120120010101/20/16 12:00:31  5-MIN K12N 201700Z AUTO 30007KT 00/M09 A3016 360 49 -1300 320/07 RMK AO1 T00001094
54779K12N 12N20160120120510101/20/16 12:05:31  5-MIN K12N 201705Z AUTO 34008KT 01/M09 A3016 370 47 -1200 350/08 RMK AO1 T00061094
54779K12N 12N20160120121010101/20/16 12:10:31  5-MIN K12N 201710Z AUTO VRB05KT 01/M09 A3015 370 47 -1200 VRB/05 RMK AO1 T00061094
54779K12N 12N20160120121510101/20/16 12:15:31  5-MIN K12N 201715Z AUTO VRB05KT 01/M09 A3015 370 49 -1200 VRB/05 RMK AO1 T00061089
54779K12N 12N20160120122010101/20/16 12:20:31  5-MIN K12N 201720Z AUTO VRB05KT 00/M09 A3015 370 49 -1300 VRB/05 RMK AO1 T00001094
54779K12N 12N20160120122510101/20/16 12:25:31  5-MIN K12N 201725Z AUTO VRB06KT 00/M09 A3014 380 49 -1300 VRB/06 RMK AO1 T00001094
54779K12N 12N20160120123010101/20/16 12:30:31  5-MIN K12N 201730Z AUTO 29009KT 00/M09 A3014 380 49 -1300 310/09 RMK AO1 T00001094
54779K12N 12N20160120123510101/20/16 12:35:31  5-MIN K12N 201735Z AUTO VRB06KT 01/M09 A3014 380 49 -1200 VRB/06 RMK AO1 T00061089
54779K12N 12N20160120124010101/20/16 12:40:31  5-MIN K12N 201740Z AUTO VRB06KT 01/M09 A3014 390 49 -1200 VRB/06 RMK AO1 T00061089
54779K12N 12N20160120124510101/20/16 12:45:31  5-MIN K12N 201745Z AUTO 30008KT 01/M09 A3013 390 49 -1200 310/08 RMK AO1 T00061089
54779K12N 12N20160120125012601/20/16 12:50:31  5-MIN K12N 201750Z AUTO VRB06KT 00/M09 A3013 390 49 -1300 VRB/06 RMK AO1 SLP215 T00001094 10006 21033 51003
54779K12N 12N20160120125510101/20/16 12:55:31  5-MIN K12N 201755Z AUTO VRB05KT 01/M09 A3013 390 49 -1200 VRB/05 RMK AO1 T00061089
54779K12N 12N20160120130010101/20/16 13:00:31  5-MIN K12N 201800Z AUTO 34009KT 01/M09 A3012 400 49 -1200 360/09 RMK AO1 T00061089
54779K12N 12N20160120130510101/20/16 13:05:31  5-MIN K12N 201805Z AUTO 33004KT 01/M09 A3012 400 47 -1200 350/04 RMK AO1 T00061094
54779K12N 12N20160120131010101/20/16 13:10:31  5-MIN K12N 201810Z AUTO VRB05KT 01/M09 A3012 400 49 -1200 VRB/05 RMK AO1 T00061089
54779K12N 12N20160120131510101/20/16 13:15:31  5-MIN K12N 201815Z AUTO VRB05KT 01/M09 A3012 400 49 -1200 VRB/05 RMK AO1 T00061089
54779K12N 12N20160120132010101/20/16 13:20:31  5-MIN K12N 201820Z AUTO 35006KT 01/M09 A3012 410 49 -1200 360/06 RMK AO1 T00061089
54779K12N 12N20160120132510101/20/16 13:25:31  5-MIN K12N 201825Z AUTO VRB04KT 01/M09 A3011 410 49 -1200 VRB/04 RMK AO1 T00061089
54779K12N 12N20160120133010101/20/16 13:30:31  5-MIN K12N 201830Z AUTO VRB03KT 01/M09 A3011 410 47 -1200 VRB/03 RMK AO1 T00061094
54779K12N 12N20160120133510101/20/16 13:35:31  5-MIN K12N 201835Z AUTO 35005KT 01/M09 A3011 410 49 -1200 010/05 RMK AO1 T00061089
54779K12N 12N20160120134010101/20/16 13:40:31  5-MIN K12N 201840Z AUTO VRB04KT 00/M09 A3011 410 51 -1200 VRB/04 RMK AO1 T00001089
54779K12N 12N20160120134510101/20/16 13:45:31  5-MIN K12N 201845Z AUTO VRB05KT 00/M09 A3011 410 51 -1200 VRB/05 RMK AO1 T00001089
54779K12N 12N20160120135010801/20/16 13:50:31  5-MIN K12N 201850Z AUTO VRB06KT 00/M09 A3011 410 51 -1200 VRB/06 RMK AO1 SLP207 T00001089
54779K12N 12N20160120135510101/20/16 13:55:31  5-MIN K12N 201855Z AUTO VRB06KT 00/M09 A3010 420 49 -1200 VRB/06 RMK AO1 T00001094
54779K12N 12N20160120140010101/20/16 14:00:31  5-MIN K12N 201900Z AUTO 31007KT 00/M09 A3010 420 51 -1200 320/07 RMK AO1 T00001089
54779K12N 12N20160120140510101/20/16 14:05:31  5-MIN K12N 201905Z AUTO 34007KT 00/M09 A3010 420 51 -1200 350/07 RMK AO1 T00001089
54779K12N 12N20160120141010101/20/16 14:10:31  5-MIN K12N 201910Z AUTO VRB04KT 00/M09 A3010 420 51 -1200 VRB/04 RMK AO1 T00001089
54779K12N 12N20160120141510101/20/16 14:15:31  5-MIN K12N 201915Z AUTO VRB04KT 01/M09 A3010 420 49 -1100 VRB/04 RMK AO1 T00061089
54779K12N 12N20160120142010101/20/16 14:20:31  5-MIN K12N 201920Z AUTO 30004KT 00/M09 A3010 420 51 -1200 320/04 RMK AO1 T00001089
54779K12N 12N20160120142510101/20/16 14:25:31  5-MIN K12N 201925Z AUTO 32004KT 00/M09 A3009 420 51 -1200 330/04 RMK AO1 T00001089
54779K12N 12N20160120143010101/20/16 14:30:31  5-MIN K12N 201930Z AUTO VRB05KT 01/M09 A3010 420 49 -1100 VRB/05 RMK AO1 T00061089
54779K12N 12N20160120143510101/20/16 14:35:31  5-MIN K12N 201935Z AUTO VRB03KT 01/M09 A3009 420 49 -1100 VRB/03 RMK AO1 T00061089
54779K12N 12N20160120144010101/20/16 14:40:31  5-MIN K12N 201940Z AUTO VRB04KT 00/M09 A3009 430 49 -1200 VRB/04 RMK AO1 T00001094
54779K12N 12N20160120144510101/20/16 14:45:31  5-MIN K12N 201945Z AUTO VRB06KT 00/M09 A3010 420 51 -1200 VRB/06 RMK AO1 T00001089
54779K12N 12N20160120145010801/20/16 14:50:31  5-MIN K12N 201950Z AUTO VRB04KT 00/M09 A3009 430 49 -1200 VRB/04 RMK AO1 SLP202 T00001094
54779K12N 12N20160120145510101/20/16 14:55:31  5-MIN K12N 201955Z AUTO VRB04KT 00/M09 A3009 430 51 -1200 VRB/04 RMK AO1 T00001089
54779K12N 12N20160120150010101/20/16 15:00:31  5-MIN K12N 202000Z AUTO 35005KT 00/M09 A3009 430 51 -1200 360/05 RMK AO1 T00001089
54779K12N 12N20160120150510101/20/16 15:05:31  5-MIN K12N 202005Z AUTO 34004KT 00/M09 A3009 430 51 -1200 350/04 RMK AO1 T00001089
54779K12N 12N20160120151010201/20/16 15:10:31  5-MIN K12N 202010Z AUTO 33007KT M01/M09 A3009 430 51 -1300 350/07 RMK AO1 T10061094
54779K12N 12N20160120151510201/20/16 15:15:31  5-MIN K12N 202015Z AUTO 35005KT M01/M09 A3008 430 51 -1300 360/05 RMK AO1 T10061094
54779K12N 12N20160120152010201/20/16 15:20:31  5-MIN K12N 202020Z AUTO 36005KT M01/M09 A3008 440 51 -1300 010/05 RMK AO1 T10061094
54779K12N 12N20160120152510201/20/16 15:25:31  5-MIN K12N 202025Z AUTO 00000KT M01/M09 A3008 440 53 -1300 000/00 RMK AO1 T10061089
54779K12N 12N20160120153010201/20/16 15:30:31  5-MIN K12N 202030Z AUTO 00000KT M01/M09 A3008 440 51 -1300 000/00 RMK AO1 T10061094
54779K12N 12N20160120153510201/20/16 15:35:31  5-MIN K12N 202035Z AUTO 00000KT M01/M09 A3008 440 53 -1300 000/00 RMK AO1 T10061089
54779K12N 12N20160120154010101/20/16 15:40:31  5-MIN K12N 202040Z AUTO 36003KT 00/M09 A3008 440 51 -1200 010/03 RMK AO1 T00001089
54779K12N 12N20160120154510101/20/16 15:45:31  5-MIN K12N 202045Z AUTO VRB03KT 00/M09 A3008 440 51 -1200 VRB/03 RMK AO1 T00001089
54779K12N 12N20160120155011501/20/16 15:50:31  5-MIN K12N 202050Z AUTO 34004KT M01/M09 A3008 440 51 -1300 360/04 RMK AO1 SLP197 T10061094 58027
54779K12N 12N20160120155510201/20/16 15:55:31  5-MIN K12N 202055Z AUTO 35004KT M01/M09 A3008 440 51 -1300 010/04 RMK AO1 T10061094
54779K12N 12N20160120160010201/20/16 16:00:31  5-MIN K12N 202100Z AUTO VRB03KT M01/M09 A3008 440 53 -1300 VRB/03 RMK AO1 T10061089
54779K12N 12N20160120160510201/20/16 16:05:31  5-MIN K12N 202105Z AUTO VRB03KT M01/M09 A3008 440 53 -1300 VRB/03 RMK AO1 T10061089
54779K12N 12N20160120161010201/20/16 16:10:31  5-MIN K12N 202110Z AUTO 01003KT M01/M09 A3008 440 53 -1300 020/03 RMK AO1 T10061089
54779K12N 12N20160120161510201/20/16 16:15:31  5-MIN K12N 202115Z AUTO 00000KT M01/M09 A3008 440 53 -1300 000/00 RMK AO1 T10061089
54779K12N 12N20160120162010201/20/16 16:20:31  5-MIN K12N 202120Z AUTO 00000KT M01/M09 A3008 440 53 -1300 000/00 RMK AO1 T10061089
54779K12N 12N20160120162510201/20/16 16:25:31  5-MIN K12N 202125Z AUTO 00000KT M01/M09 A3008 440 53 -1300 000/00 RMK AO1 T10061089
54779K12N 12N20160120201510401/20/16 20:15:31  5-MIN K12N 210115Z AUTO 34003KT M02/M09 A3007 450 60 -1500 360/03 RMK AO1 T10221089 $
54779K12N 12N20160120202010401/20/16 20:20:31  5-MIN K12N 210120Z AUTO 36003KT M02/M09 A3007 450 60 -1500 010/03 RMK AO1 T10221089 $
54779K12N 12N20160120202510401/20/16 20:25:31  5-MIN K12N 210125Z AUTO 36003KT M02/M09 A3007 450 60 -1500 010/03 RMK AO1 T10221089 $
54779K12N 12N20160120203010401/20/16 20:30:31  5-MIN K12N 210130Z AUTO VRB03KT M02/M09 A3007 440 60 -1500 VRB/03 RMK AO1 T10221089 $
54779K12N 12N20160120203510401/20/16 20:35:31  5-MIN K12N 210135Z AUTO VRB03KT M02/M09 A3007 450 60 -1500 VRB/03 RMK AO1 T10221089 $
54779K12N 12N20160120204010401/20/16 20:40:31  5-MIN K12N 210140Z AUTO 01004KT M02/M09 A3007 450 60 -1500 020/04 RMK AO1 T10221089 $
54779K12N 12N20160120204510401/20/16 20:45:31  5-MIN K12N 210145Z AUTO VRB04KT M02/M09 A3007 450 60 -1500 VRB/04 RMK AO1 T10221089 $
54779K12N 12N20160120205011101/20/16 20:50:31  5-MIN K12N 210150Z AUTO 36003KT M03/M09 A3007 450 63 -1500 010/03 RMK AO1 SLP195 T10281089 $
54779K12N 12N20160120205510401/20/16 20:55:31  5-MIN K12N 210155Z AUTO 36003KT M03/M09 A3007 450 63 -1500 010/03 RMK AO1 T10281089 $
54779K12N 12N20160120210010401/20/16 21:00:31  5-MIN K12N 210200Z AUTO 35003KT M03/M09 A3007 450 63 -1500 360/03 RMK AO1 T10281089 $
54779K12N 12N20160120210510401/20/16 21:05:31  5-MIN K12N 210205Z AUTO 35004KT M03/M09 A3007 450 63 -1500 010/04 RMK AO1 T10281089 $
54779K12N 12N20160120211010401/20/16 21:10:31  5-MIN K12N 210210Z AUTO 35003KT M03/M09 A3007 450 63 -1500 360/03 RMK AO1 T10281089 $
54779K12N 12N20160120211510401/20/16 21:15:31  5-MIN K12N 210215Z AUTO 36004KT M03/M09 A3007 450 63 -1500 010/04 RMK AO1 T10281089 $
54779K12N 12N20160120212010401/20/16 21:20:31  5-MIN K12N 210220Z AUTO 34003KT M02/M09 A3007 450 58 -1500 360/03 RMK AO1 T10221094 $
54779K12N 12N20160120212510401/20/16 21:25:31  5-MIN K12N 210225Z AUTO 35003KT M03/M09 A3007 450 60 -1500 360/03 RMK AO1 T10281094 $
54779K12N 12N20160120213010401/20/16 21:30:31  5-MIN K12N 210230Z AUTO 00000KT M03/M09 A3007 450 60 -1500 000/00 RMK AO1 T10281094 $
54779K12N 12N20160120213510401/20/16 21:35:31  5-MIN K12N 210235Z AUTO 35004KT M03/M09 A3006 450 63 -1500 360/04 RMK AO1 T10281089 $
54779K12N 12N20160120214010401/20/16 21:40:31  5-MIN K12N 210240Z AUTO 33003KT M03/M09 A3006 460 63 -1500 350/03 RMK AO1 T10281089 $
54779K12N 12N20160120214510401/20/16 21:45:31  5-MIN K12N 210245Z AUTO 36003KT M03/M09 A3006 460 63 -1500 010/03 RMK AO1 T10281089 $
54779K12N 12N20160120215011701/20/16 21:50:31  5-MIN K12N 210250Z AUTO 36003KT M03/M09 A3006 460 63 -1500 010/03 RMK AO1 SLP191 T10281089 57001 $
54779K12N 12N20160120215510401/20/16 21:55:31  5-MIN K12N 210255Z AUTO 34003KT M03/M09 A3006 460 63 -1500 360/03 RMK AO1 T10281089 $
54779K12N 12N20160120220010401/20/16 22:00:31  5-MIN K12N 210300Z AUTO 01003KT M03/M09 A3006 460 63 -1500 020/03 RMK AO1 T10281089 $
54779K12N 12N20160120220510401/20/16 22:05:31  5-MIN K12N 210305Z AUTO 34004KT M03/M09 A3006 460 60 -1500 360/04 RMK AO1 T10281094 $
54779K12N 12N20160120221010401/20/16 22:10:31  5-MIN K12N 210310Z AUTO 35003KT M03/M09 A3006 460 60 -1500 360/03 RMK AO1 T10281094 $
54779K12N 12N20160120221510401/20/16 22:15:31  5-MIN K12N 210315Z AUTO 36003KT M03/M09 A3006 460 60 -1500 020/03 RMK AO1 T10281094 $
54779K12N 12N20160120222010401/20/16 22:20:31  5-MIN K12N 210320Z AUTO 35004KT M03/M09 A3006 460 63 -1500 010/04 RMK AO1 T10281089 $
54779K12N 12N20160120222510401/20/16 22:25:31  5-MIN K12N 210325Z AUTO 35003KT M03/M09 A3006 460 65 -1600 360/03 RMK AO1 T10331089 $
54779K12N 12N20160120223010401/20/16 22:30:31  5-MIN K12N 210330Z AUTO 36004KT M03/M09 A3006 460 63 -1600 010/04 RMK AO1 T10331094 $
54779K12N 12N20160120223510401/20/16 22:35:31  5-MIN K12N 210335Z AUTO 36004KT M03/M09 A3006 460 63 -1600 010/04 RMK AO1 T10331094 $
54779K12N 12N20160120224010401/20/16 22:40:31  5-MIN K12N 210340Z AUTO 35005KT M03/M09 A3006 460 63 -1600 010/05 RMK AO1 T10331094 $
54779K12N 12N20160120224510401/20/16 22:45:31  5-MIN K12N 210345Z AUTO 36003KT M03/M09 A3006 460 63 -1600 010/03 RMK AO1 T10331094 $
54779K12N 12N20160120225011101/20/16 22:50:31  5-MIN K12N 210350Z AUTO 35003KT M03/M09 A3006 450 63 -1600 010/03 RMK AO1 SLP192 T10331094 $
54779K12N 12N20160120225510401/20/16 22:55:31  5-MIN K12N 210355Z AUTO 34003KT M03/M09 A3006 450 63 -1600 360/03 RMK AO1 T10331094 $
54779K12N 12N20160120230010401/20/16 23:00:31  5-MIN K12N 210400Z AUTO 36004KT M03/M09 A3006 450 63 -1600 010/04 RMK AO1 T10331094 $
54779K12N 12N20160120230510401/20/16 23:05:31  5-MIN K12N 210405Z AUTO 36003KT M03/M09 A3006 450 65 -1600 010/03 RMK AO1 T10331089 $
54779K12N 12N20160120231010401/20/16 23:10:31  5-MIN K12N 210410Z AUTO 35003KT M03/M09 A3007 450 65 -1600 010/03 RMK AO1 T10331089 $
54779K12N 12N20160120231510401/20/16 23:15:31  5-MIN K12N 210415Z AUTO 36004KT M03/M09 A3007 450 63 -1600 010/04 RMK AO1 T10331094 $
54779K12N 12N20160120232010401/20/16 23:20:31  5-MIN K12N 210420Z AUTO 36004KT M03/M09 A3006 450 65 -1600 010/04 RMK AO1 T10331089 $
54779K12N 12N20160120232510401/20/16 23:25:31  5-MIN K12N 210425Z AUTO 36004KT M03/M09 A3006 450 65 -1600 010/04 RMK AO1 T10331089 $
54779K12N 12N20160120233010401/20/16 23:30:31  5-MIN K12N 210430Z AUTO 36004KT M03/M09 A3006 450 65 -1600 010/04 RMK AO1 T10331089 $
54779K12N 12N20160120233510401/20/16 23:35:31  5-MIN K12N 210435Z AUTO 35004KT M03/M09 A3006 450 65 -1600 010/04 RMK AO1 T10331089 $
54779K12N 12N20160120234010401/20/16 23:40:31  5-MIN K12N 210440Z AUTO 36003KT M03/M09 A3006 450 65 -1600 010/03 RMK AO1 T10331089 $
54779K12N 12N20160120234510401/20/16 23:45:31  5-MIN K12N 210445Z AUTO 34003KT M03/M09 A3006 450 65 -1600 360/03 RMK AO1 T10331089 $
54779K12N 12N20160120235012101/20/16 23:50:31  5-MIN K12N 210450Z AUTO 36004KT M03/M09 A3006 450 65 -1600 010/04 RMK AO1 SLP192 T10331089 400111044 $
54779K12N 12N20160120235510401/20/16 23:55:31  5-MIN K12N 210455Z AUTO 36004KT M03/M09 A3006 450 65 -1600 010/04 RMK AO1 T10331089 $
54779K12N 12N20160121000010401/21/16 00:00:31  5-MIN K12N 210500Z AUTO VRB04KT M03/M09 A3006 450 63 -1600 VRB/04 RMK AO1 T10331094 $
54779K12N 12N20160121000510401/21/16 00:05:31  5-MIN K12N 210505Z AUTO 36005KT M03/M09 A3006 460 65 -1600 010/05 RMK AO1 T10331089 $
54779K12N 12N20160121001010401/21/16 00:10:31  5-MIN K12N 210510Z AUTO 36005KT M03/M09 A3006 460 63 -1600 010/05 RMK AO1 T10331094 $
54779K12N 12N20160121001510401/21/16 00:15:31  5-MIN K12N 210515Z AUTO 35003KT M03/M09 A3006 460 63 -1600 010/03 RMK AO1 T10331094 $
54779K12N 12N20160121002010401/21/16 00:20:31  5-MIN K12N 210520Z AUTO 35003KT M03/M09 A3006 460 63 -1600 360/03 RMK AO1 T10331094 $
54779K12N 12N20160121002510401/21/16 00:25:31  5-MIN K12N 210525Z AUTO 36004KT M03/M09 A3006 460 63 -1600 010/04 RMK AO1 T10331094 $
54779K12N 12N20160121003010401/21/16 00:30:31  5-MIN K12N 210530Z AUTO 35004KT M04/M09 A3006 450 65 -1700 360/04 RMK AO1 T10391094 $
54779K12N 12N20160121003510401/21/16 00:35:31  5-MIN K12N 210535Z AUTO 35004KT M04/M09 A3006 460 65 -1700 010/04 RMK AO1 T10391094 $
54779K12N 12N20160121004010401/21/16 00:40:31  5-MIN K12N 210540Z AUTO 35006KT M04/M09 A3006 460 65 -1700 010/06 RMK AO1 T10391094 $
54779K12N 12N20160121004510401/21/16 00:45:31  5-MIN K12N 210545Z AUTO 35006KT M04/M09 A3006 460 65 -1700 010/06 RMK AO1 T10391094 $
54779K12N 12N20160121005012901/21/16 00:50:31  5-MIN K12N 210550Z AUTO 36004KT M04/M09 A3006 460 65 -1700 010/04 RMK AO1 SLP192 T10391094 11017 21039 58005 $
54779K12N 12N20160121005510401/21/16 00:55:31  5-MIN K12N 210555Z AUTO 01005KT M04/M10 A3006 460 63 -1700 020/05 RMK AO1 T10391100 $
54779K12N 12N20160121010010401/21/16 01:00:31  5-MIN K12N 210600Z AUTO 35005KT M04/M10 A3006 460 63 -1700 360/05 RMK AO1 T10391100 $
54779K12N 12N20160121010510401/21/16 01:05:31  5-MIN K12N 210605Z AUTO 36005KT M04/M10 A3006 460 63 -1700 010/05 RMK AO1 T10391100 $
54779K12N 12N20160121011010401/21/16 01:10:31  5-MIN K12N 210610Z AUTO 34004KT M04/M10 A3006 450 63 -1700 360/04 RMK AO1 T10391100 $
54779K12N 12N20160121011510401/21/16 01:15:31  5-MIN K12N 210615Z AUTO 35005KT M04/M10 A3006 460 63 -1700 360/05 RMK AO1 T10391100 $
54779K12N 12N20160121012010401/21/16 01:20:31  5-MIN K12N 210620Z AUTO 34004KT M04/M10 A3006 460 63 -1700 350/04 RMK AO1 T10391100 $
54779K12N 12N20160121012510401/21/16 01:25:31  5-MIN K12N 210625Z AUTO 34004KT M04/M10 A3006 460 63 -1700 350/04 RMK AO1 T10391100 $
54779K12N 12N20160121013010401/21/16 01:30:31  5-MIN K12N 210630Z AUTO VRB04KT M04/M10 A3006 450 63 -1700 VRB/04 RMK AO1 T10391100 $
54779K12N 12N20160121013510401/21/16 01:35:31  5-MIN K12N 210635Z AUTO VRB04KT M04/M10 A3006 450 63 -1700 VRB/04 RMK AO1 T10391100 $
54779K12N 12N20160121014010401/21/16 01:40:31  5-MIN K12N 210640Z AUTO 35006KT M04/M10 A3006 450 63 -1700 010/06 RMK AO1 T10391100 $
54779K12N 12N20160121014510401/21/16 01:45:31  5-MIN K12N 210645Z AUTO 36005KT M04/M10 A3006 450 63 -1700 010/05 RMK AO1 T10391100 $
54779K12N 12N20160121015011101/21/16 01:50:31  5-MIN K12N 210650Z AUTO 01003KT M04/M10 A3006 450 63 -1700 020/03 RMK AO1 SLP192 T10391100 $
54779K12N 12N20160121015510401/21/16 01:55:31  5-MIN K12N 210655Z AUTO 35008KT M04/M11 A3006 450 60 -1700 360/08 RMK AO1 T10391106 $
54779K12N 12N20160121020010401/21/16 02:00:31  5-MIN K12N 210700Z AUTO 36006KT M04/M11 A3006 450 60 -1700 010/06 RMK AO1 T10391106 $
54779K12N 12N20160121020510401/21/16 02:05:31  5-MIN K12N 210705Z AUTO 36005KT M04/M11 A3006 450 60 -1700 010/05 RMK AO1 T10391106 $
54779K12N 12N20160121021010401/21/16 02:10:31  5-MIN K12N 210710Z AUTO 36004KT M04/M11 A3007 450 60 -1700 020/04 RMK AO1 T10391106 $
54779K12N 12N20160121021510401/21/16 02:15:31  5-MIN K12N 210715Z AUTO VRB05KT M04/M11 A3007 450 60 -1700 VRB/05 RMK AO1 T10391106 $
54779K12N 12N20160121022010401/21/16 02:20:31  5-MIN K12N 210720Z AUTO 36006KT M04/M11 A3007 450 60 -1700 010/06 RMK AO1 T10391106 $
54779K12N 12N20160121022510401/21/16 02:25:31  5-MIN K12N 210725Z AUTO 36006KT M04/M11 A3007 450 60 -1700 020/06 RMK AO1 T10391106 $
54779K12N 12N20160121023010401/21/16 02:30:31  5-MIN K12N 210730Z AUTO 36007KT M04/M11 A3007 450 60 -1700 010/07 RMK AO1 T10391106 $
54779K12N 12N20160121023510401/21/16 02:35:31  5-MIN K12N 210735Z AUTO 01006KT M04/M11 A3007 450 62 -1700 020/06 RMK AO1 T10441106 $
54779K12N 12N20160121024010401/21/16 02:40:31  5-MIN K12N 210740Z AUTO 36004KT M04/M11 A3007 450 62 -1700 010/04 RMK AO1 T10441106 $
54779K12N 12N20160121024510401/21/16 02:45:31  5-MIN K12N 210745Z AUTO 36004KT M04/M11 A3007 450 62 -1800 020/04 RMK AO1 T10441106 $
54779K12N 12N20160121025011101/21/16 02:50:31  5-MIN K12N 210750Z AUTO 36006KT M04/M11 A3007 450 62 -1800 010/06 RMK AO1 SLP194 T10441106 $
54779K12N 12N20160121025510401/21/16 02:55:31  5-MIN K12N 210755Z AUTO 35006KT M04/M11 A3007 450 62 -1800 360/06 RMK AO1 T10441106 $
54779K12N 12N20160121030010401/21/16 03:00:31  5-MIN K12N 210800Z AUTO 36006KT M04/M11 A3007 450 62 -1800 010/06 RMK AO1 T10441106 $
54779K12N 12N20160121030510401/21/16 03:05:31  5-MIN K12N 210805Z AUTO 35005KT M04/M11 A3007 450 62 -1800 360/05 RMK AO1 T10441106 $
54779K12N 12N20160121031010401/21/16 03:10:31  5-MIN K12N 210810Z AUTO 34005KT M04/M11 A3007 450 62 -1800 350/05 RMK AO1 T10441106 $
54779K12N 12N20160121031510401/21/16 03:15:31  5-MIN K12N 210815Z AUTO 35004KT M04/M11 A3007 450 62 -1800 360/04 RMK AO1 T10441106 $
54779K12N 12N20160121032010401/21/16 03:20:31  5-MIN K12N 210820Z AUTO 34004KT M04/M11 A3007 450 62 -1800 350/04 RMK AO1 T10441106 $
54779K12N 12N20160121032510401/21/16 03:25:31  5-MIN K12N 210825Z AUTO 35005KT M04/M11 A3007 450 62 -1800 010/05 RMK AO1 T10441106 $
54779K12N 12N20160121033010401/21/16 03:30:31  5-MIN K12N 210830Z AUTO VRB03KT M04/M11 A3007 450 62 -1700 VRB/03 RMK AO1 T10441106 $
54779K12N 12N20160121033510401/21/16 03:35:31  5-MIN K12N 210835Z AUTO 36005KT M04/M11 A3007 450 62 -1800 010/05 RMK AO1 T10441106 $
54779K12N 12N20160121034010401/21/16 03:40:31  5-MIN K12N 210840Z AUTO 35003KT M04/M11 A3007 450 62 -1800 360/03 RMK AO1 T10441106 $
54779K12N 12N20160121034510401/21/16 03:45:31  5-MIN K12N 210845Z AUTO VRB03KT M04/M11 A3007 450 62 -1800 VRB/03 RMK AO1 T10441106 $
54779K12N 12N20160121035011701/21/16 03:50:31  5-MIN K12N 210850Z AUTO VRB03KT M04/M11 A3007 450 62 -1700 VRB/03 RMK AO1 SLP193 T10441106 58000 $
54779K12N 12N20160121035510401/21/16 03:55:31  5-MIN K12N 210855Z AUTO VRB05KT M04/M11 A3007 450 62 -1700 VRB/05 RMK AO1 T10441106 $
54779K12N 12N20160121040010401/21/16 04:00:31  5-MIN K12N 210900Z AUTO 35004KT M04/M11 A3007 450 62 -1800 360/04 RMK AO1 T10441106 $
54779K12N 12N20160121040510401/21/16 04:05:31  5-MIN K12N 210905Z AUTO VRB05KT M04/M11 A3007 450 62 -1800 VRB/05 RMK AO1 T10441106 $
54779K12N 12N20160121041010401/21/16 04:10:31  5-MIN K12N 210910Z AUTO 35003KT M05/M11 A3007 450 65 -1800 360/03 RMK AO1 T10501106 $
54779K12N 12N20160121041510401/21/16 04:15:31  5-MIN K12N 210915Z AUTO 35004KT M05/M11 A3007 450 65 -1800 360/04 RMK AO1 T10501106 $
54779K12N 12N20160121042010401/21/16 04:20:31  5-MIN K12N 210920Z AUTO 35004KT M05/M11 A3007 450 65 -1800 010/04 RMK AO1 T10501106 $
54779K12N 12N20160121042510401/21/16 04:25:31  5-MIN K12N 210925Z AUTO 34003KT M05/M11 A3008 440 65 -1800 350/03 RMK AO1 T10501106 $
54779K12N 12N20160121043010401/21/16 04:30:31  5-MIN K12N 210930Z AUTO 35003KT M05/M11 A3008 440 65 -1800 010/03 RMK AO1 T10501106 $
54779K12N 12N20160121043510401/21/16 04:35:31  5-MIN K12N 210935Z AUTO 00000KT M05/M11 A3008 440 65 -1800 000/00 RMK AO1 T10501106 $
54779K12N 12N20160121044010401/21/16 04:40:31  5-MIN K12N 210940Z AUTO 00000KT M06/M11 A3008 440 68 -1900 000/00 RMK AO1 T10561106 $
54779K12N 12N20160121044510401/21/16 04:45:31  5-MIN K12N 210945Z AUTO 00000KT M07/M11 A3008 430 74 -2100 000/00 RMK AO1 T10671106 $
54779K12N 12N20160121045011101/21/16 04:50:31  5-MIN K12N 210950Z AUTO 35003KT M06/M11 A3009 430 71 -2000 360/03 RMK AO1 SLP201 T10611106 $
54779K12N 12N20160121045510401/21/16 04:55:31  5-MIN K12N 210955Z AUTO 01003KT M06/M11 A3009 430 71 -2000 020/03 RMK AO1 T10611106 $
54779K12N 12N20160121050010401/21/16 05:00:31  5-MIN K12N 211000Z AUTO 35004KT M05/M11 A3009 430 65 -1800 360/04 RMK AO1 T10501106 $
54779K12N 12N20160121050510401/21/16 05:05:31  5-MIN K12N 211005Z AUTO 36003KT M05/M11 A3009 430 65 -1800 010/03 RMK AO1 T10501106 $
54779K12N 12N20160121051010401/21/16 05:10:31  5-MIN K12N 211010Z AUTO 35005KT M06/M10 A3009 430 71 -1900 360/05 RMK AO1 T10561100 $
54779K12N 12N20160121051510401/21/16 05:15:31  5-MIN K12N 211015Z AUTO 35004KT M05/M10 A3010 420 68 -1900 360/04 RMK AO1 T10501100 $
54779K12N 12N20160121052010401/21/16 05:20:31  5-MIN K12N 211020Z AUTO 35004KT M05/M11 A3009 420 65 -1900 360/04 RMK AO1 T10501106 $
54779K12N 12N20160121052510401/21/16 05:25:31  5-MIN K12N 211025Z AUTO 35004KT M05/M11 A3009 430 65 -1900 360/04 RMK AO1 T10501106 $
54779K12N 12N20160121053010401/21/16 05:30:31  5-MIN K12N 211030Z AUTO 01003KT M06/M11 A3009 430 68 -1900 020/03 RMK AO1 T10561106 $
54779K12N 12N20160121053510401/21/16 05:35:31  5-MIN K12N 211035Z AUTO VRB03KT M05/M10 A3009 430 68 -1800 VRB/03 RMK AO1 T10501100 $
54779K12N 12N20160121054010401/21/16 05:40:31  5-MIN K12N 211040Z AUTO 34003KT M06/M11 A3009 430 68 -1900 360/03 RMK AO1 T10561106 $
54779K12N 12N20160121054510401/21/16 05:45:31  5-MIN K12N 211045Z AUTO 35003KT M06/M11 A3009 430 68 -1900 360/03 RMK AO1 T10561106 $
54779K12N 12N20160121055011101/21/16 05:50:31  5-MIN K12N 211050Z AUTO 00000KT M06/M11 A3009 430 71 -2000 000/00 RMK AO1 SLP205 T10611106 $
54779K12N 12N20160121055510401/21/16 05:55:31  5-MIN K12N 211055Z AUTO 00000KT M06/M11 A3010 420 71 -2000 000/00 RMK AO1 T10611106 $
54779K12N 12N20160121060010401/21/16 06:00:31  5-MIN K12N 211100Z AUTO VRB03KT M06/M11 A3010 420 71 -2000 VRB/03 RMK AO1 T10611106 $
54779K12N 12N20160121060510401/21/16 06:05:31  5-MIN K12N 211105Z AUTO 35003KT M06/M11 A3010 420 71 -2000 360/03 RMK AO1 T10611106 $
54779K12N 12N20160121061010401/21/16 06:10:31  5-MIN K12N 211110Z AUTO 35003KT M06/M11 A3011 410 68 -1900 010/03 RMK AO1 T10561106 $
54779K12N 12N20160121061510401/21/16 06:15:31  5-MIN K12N 211115Z AUTO 33003KT M06/M11 A3012 400 68 -2000 350/03 RMK AO1 T10561106 $
54779K12N 12N20160121062010401/21/16 06:20:31  5-MIN K12N 211120Z AUTO 00000KT M06/M10 A3012 400 71 -2000 000/00 RMK AO1 T10561100 $
54779K12N 12N20160121062510401/21/16 06:25:31  5-MIN K12N 211125Z AUTO 00000KT M06/M11 A3012 400 68 -2000 000/00 RMK AO1 T10561106 $
54779K12N 12N20160121063010401/21/16 06:30:31  5-MIN K12N 211130Z AUTO 00000KT M06/M10 A3012 400 74 -2000 000/00 RMK AO1 T10611100 $
54779K12N 12N20160121063510401/21/16 06:35:31  5-MIN K12N 211135Z AUTO 00000KT M07/M11 A3013 390 74 -2100 000/00 RMK AO1 T10671106 $
54779K12N 12N20160121064010401/21/16 06:40:31  5-MIN K12N 211140Z AUTO 35004KT M06/M11 A3013 390 71 -2000 360/04 RMK AO1 T10611106 $
54779K12N 12N20160121064510401/21/16 06:45:31  5-MIN K12N 211145Z AUTO 34004KT M06/M10 A3014 390 74 -2000 360/04 RMK AO1 T10611100 $
54779K12N 12N20160121065012901/21/16 06:50:31  5-MIN K12N 211150Z AUTO 36004KT M06/M10 A3013 390 71 -2000 010/04 RMK AO1 SLP217 T10561100 11039 21067 50002 $
54779K12N 12N20160121065510401/21/16 06:55:31  5-MIN K12N 211155Z AUTO 35005KT M06/M10 A3014 390 74 -2000 360/05 RMK AO1 T10611100 $
54779K12N 12N20160121070010401/21/16 07:00:31  5-MIN K12N 211200Z AUTO 35005KT M06/M10 A3013 390 74 -2000 360/05 RMK AO1 T10611100 $
54779K12N 12N20160121070510401/21/16 07:05:31  5-MIN K12N 211205Z AUTO 34003KT M06/M10 A3014 380 74 -2000 360/03 RMK AO1 T10611100 $
54779K12N 12N20160121071010401/21/16 07:10:31  5-MIN K12N 211210Z AUTO VRB03KT M06/M10 A3014 380 74 -2000 VRB/03 RMK AO1 T10611100 $
54779K12N 12N20160121071510401/21/16 07:15:31  5-MIN K12N 211215Z AUTO 36004KT M06/M10 A3014 390 74 -2000 010/04 RMK AO1 T10611100 $
54779K12N 12N20160121072010401/21/16 07:20:31  5-MIN K12N 211220Z AUTO 34004KT M06/M10 A3014 380 74 -2100 360/04 RMK AO1 T10611100 $
54779K12N 12N20160121072510401/21/16 07:25:31  5-MIN K12N 211225Z AUTO 36004KT M06/M10 A3014 380 74 -2000 010/04 RMK AO1 T10611100 $
54779K12N 12N20160121073010401/21/16 07:30:31  5-MIN K12N 211230Z AUTO 35003KT M06/M10 A3014 380 71 -2000 360/03 RMK AO1 T10561100 $
54779K12N 12N20160121073510401/21/16 07:35:31  5-MIN K12N 211235Z AUTO 33003KT M06/M10 A3014 380 74 -2100 340/03 RMK AO1 T10611100 $
54779K12N 12N20160121074010401/21/16 07:40:31  5-MIN K12N 211240Z AUTO 00000KT M07/M10 A3015 380 77 -2100 000/00 RMK AO1 T10671100 $
54779K12N 12N20160121074510401/21/16 07:45:31  5-MIN K12N 211245Z AUTO 00000KT M07/M10 A3014 380 81 -2200 000/00 RMK AO1 T10721100 $
54779K12N 12N20160121075011101/21/16 07:50:31  5-MIN K12N 211250Z AUTO 00000KT M07/M10 A3014 380 81 -2200 000/00 RMK AO1 SLP221 T10721100 $
54779K12N 12N20160121075510401/21/16 07:55:31  5-MIN K12N 211255Z AUTO 00000KT M07/M10 A3014 380 77 -2100 000/00 RMK AO1 T10671100 $
54779K12N 12N20160121080010401/21/16 08:00:31  5-MIN K12N 211300Z AUTO 00000KT M07/M10 A3014 380 77 -2100 000/00 RMK AO1 T10671100 $
54779K12N 12N20160121080510401/21/16 08:05:31  5-MIN K12N 211305Z AUTO 00000KT M07/M10 A3014 380 77 -2100 000/00 RMK AO1 T10671100 $
54779K12N 12N20160121081010401/21/16 08:10:31  5-MIN K12N 211310Z AUTO 00000KT M07/M09 A3014 380 81 -2100 000/00 RMK AO1 T10671094 $
54779K12N 12N20160121081510401/21/16 08:15:31  5-MIN K12N 211315Z AUTO 00000KT M07/M09 A3015 380 81 -2100 000/00 RMK AO1 T10671094 $
54779K12N 12N20160121082010401/21/16 08:20:31  5-MIN K12N 211320Z AUTO 00000KT M07/M09 A3015 380 84 -2100 000/00 RMK AO1 T10671089 $
54779K12N 12N20160121082510401/21/16 08:25:31  5-MIN K12N 211325Z AUTO 00000KT M06/M09 A3014 380 81 -2100 000/00 RMK AO1 T10611089 $
54779K12N 12N20160121083010401/21/16 08:30:31  5-MIN K12N 211330Z AUTO 07003KT M06/M09 A3013 390 81 -2000 080/03 RMK AO1 T10611089 $
54779K12N 12N20160121083510401/21/16 08:35:31  5-MIN K12N 211335Z AUTO 04003KT M05/M08 A3013 390 77 -1900 060/03 RMK AO1 T10501083 $
54779K12N 12N20160121084010401/21/16 08:40:31  5-MIN K12N 211340Z AUTO 06004KT M04/M08 A3012 400 74 -1800 070/04 RMK AO1 T10441083 $
54779K12N 12N20160121084510401/21/16 08:45:31  5-MIN K12N 211345Z AUTO 05004KT M04/M09 A3012 400 71 -1800 060/04 RMK AO1 T10441089 $
54779K12N 12N20160121085011101/21/16 08:50:31  5-MIN K12N 211350Z AUTO 04004KT M04/M09 A3012 400 68 -1700 060/04 RMK AO1 SLP214 T10391089 $
54779K12N 12N20160121085510401/21/16 08:55:31  5-MIN K12N 211355Z AUTO 05003KT M04/M09 A3013 390 68 -1800 060/03 RMK AO1 T10391089 $
54779K12N 12N20160121090010401/21/16 09:00:31  5-MIN K12N 211400Z AUTO VRB03KT M03/M09 A3013 390 65 -1700 VRB/03 RMK AO1 T10331089 $
54779K12N 12N20160121090510401/21/16 09:05:31  5-MIN K12N 211405Z AUTO 00000KT M03/M08 A3014 390 68 -1700 000/00 RMK AO1 T10331083 $
54779K12N 12N20160121091009401/21/16 09:10:31  5-MIN K12N 211410Z AUTO M03/M08 A3014 380 66 -1600 M /M RMK AO1 T10281083 $
54779K12N 12N20160121091511001/21/16 09:15:31  5-MIN K12N 211415Z AUTO 36010G16KT M03/M09 A3015 370 63 -1600 010/10G16 RMK AO1 T10281089 $
54779K12N 12N20160121092011001/21/16 09:20:31  5-MIN K12N 211420Z AUTO 35006G16KT M03/M09 A3015 370 63 -1600 360/06G16 RMK AO1 T10281089 $
54779K12N 12N20160121092510401/21/16 09:25:31  5-MIN K12N 211425Z AUTO VRB04KT M03/M09 A3015 370 63 -1600 VRB/04 RMK AO1 T10281089 $
54779K12N 12N20160121093010401/21/16 09:30:31  5-MIN K12N 211430Z AUTO VRB05KT M02/M08 A3015 370 63 -1600 VRB/05 RMK AO1 T10221083 $
54779K12N 12N20160121093510401/21/16 09:35:31  5-MIN K12N 211435Z AUTO 34005KT M02/M09 A3016 370 60 -1600 350/05 RMK AO1 T10221089 $
54779K12N 12N20160121094010401/21/16 09:40:31  5-MIN K12N 211440Z AUTO VRB03KT M02/M09 A3016 370 60 -1600 VRB/03 RMK AO1 T10221089 $
54779K12N 12N20160121094510401/21/16 09:45:31  5-MIN K12N 211445Z AUTO VRB05KT M02/M09 A3016 360 58 -1500 VRB/05 RMK AO1 T10171089 $
54779K12N 12N20160121095011701/21/16 09:50:31  5-MIN K12N 211450Z AUTO 33005KT M02/M09 A3017 360 58 -1600 350/05 RMK AO1 SLP227 T10221094 53023 $
54779K12N 12N20160121095510401/21/16 09:55:31  5-MIN K12N 211455Z AUTO 33005KT M02/M09 A3017 360 58 -1600 340/05 RMK AO1 T10221094 $
54779K12N 12N20160121100012601/21/16 10:00:31  5-MIN K12N 211500Z AUTO 34009G15KT 300V010 M02/M09 A3017 360 58 -1600 360/09G15 310V020 RMK AO1 T10221094 $
54779K12N 12N20160121100511001/21/16 10:05:31  5-MIN K12N 211505Z AUTO 34008G15KT M02/M09 A3017 360 58 -1600 350/08G15 RMK AO1 T10221094 $
54779K12N 12N20160121101011001/21/16 10:10:31  5-MIN K12N 211510Z AUTO 34006G14KT M02/M09 A3017 350 55 -1500 360/06G14 RMK AO1 T10171094 $
54779K12N 12N20160121101511001/21/16 10:15:31  5-MIN K12N 211515Z AUTO 36007G14KT M02/M09 A3017 350 55 -1500 020/07G14 RMK AO1 T10171094 $
54779K12N 12N20160121102010401/21/16 10:20:31  5-MIN K12N 211520Z AUTO 34007KT M02/M09 A3017 350 55 -1500 360/07 RMK AO1 T10171094 $
54779K12N 12N20160121102510401/21/16 10:25:31  5-MIN K12N 211525Z AUTO VRB06KT M02/M09 A3018 350 55 -1500 VRB/06 RMK AO1 T10171094 $
54779K12N 12N20160121103010401/21/16 10:30:31  5-MIN K12N 211530Z AUTO VRB06KT M01/M09 A3018 350 53 -1500 VRB/06 RMK AO1 T10111094 $
54779K12N 12N20160121103510401/21/16 10:35:31  5-MIN K12N 211535Z AUTO VRB06KT M01/M09 A3018 350 53 -1500 VRB/06 RMK AO1 T10111094 $
54779K12N 12N20160121104011001/21/16 10:40:31  5-MIN K12N 211540Z AUTO 33009G15KT M01/M09 A3018 340 53 -1500 340/09G15 RMK AO1 T10111094 $
54779K12N 12N20160121104512601/21/16 10:45:31  5-MIN K12N 211545Z AUTO 34009G15KT 290V360 M01/M10 A3018 350 51 -1500 360/09G15 300V010 RMK AO1 T10111100 $
54779K12N 12N20160121105012701/21/16 10:50:31  5-MIN K12N 211550Z AUTO 35008KT 310V040 M01/M10 A3018 350 51 -1500 360/08 320V050 RMK AO1 SLP232 T10111100 $
54779K12N 12N20160121105511001/21/16 10:55:31  5-MIN K12N 211555Z AUTO 34012G17KT M01/M10 A3018 350 51 -1500 350/12G17 RMK AO1 T10111100 $
54779K12N 12N20160121110011001/21/16 11:00:31  5-MIN K12N 211600Z AUTO 36012G18KT M01/M11 A3018 350 49 -1500 020/12G18 RMK AO1 T10111106 $
54779K12N 12N20160121110511001/21/16 11:05:31  5-MIN K12N 211605Z AUTO 35011G18KT M01/M11 A3018 350 49 -1400 010/11G18 RMK AO1 T10111106 $
54779K12N 12N20160121111011001/21/16 11:10:31  5-MIN K12N 211610Z AUTO 33008G18KT M01/M11 A3018 350 49 -1400 350/08G18 RMK AO1 T10111106 $
54779K12N 12N20160121111512601/21/16 11:15:31  5-MIN K12N 211615Z AUTO 34009G19KT 300V010 M01/M11 A3018 350 49 -1400 350/09G19 310V020 RMK AO1 T10111106 $
54779K12N 12N20160121112012601/21/16 11:20:31  5-MIN K12N 211620Z AUTO 01009G19KT 340V050 M01/M11 A3017 350 47 -1400 020/09G19 350V060 RMK AO1 T10061106 $
54779K12N 12N20160121112512601/21/16 11:25:31  5-MIN K12N 211625Z AUTO 34009G19KT 300V020 M01/M11 A3017 350 49 -1400 350/09G19 310V030 RMK AO1 T10111106 $
54779K12N 12N20160121113012601/21/16 11:30:31  5-MIN K12N 211630Z AUTO 35007G15KT 300V010 M01/M11 A3017 360 47 -1400 360/07G15 310V020 RMK AO1 T10061106 $
54779K12N 12N20160121113512601/21/16 11:35:31  5-MIN K12N 211635Z AUTO 31007G15KT 280V340 M01/M11 A3016 360 47 -1400 320/07G15 290V350 RMK AO1 T10061106 $
54779K12N 12N20160121114012001/21/16 11:40:31  5-MIN K12N 211640Z AUTO 32007KT 290V360 M01/M10 A3016 360 49 -1400 330/07 300V010 RMK AO1 T10061100 $
54779K12N 12N20160121114510401/21/16 11:45:31  5-MIN K12N 211645Z AUTO 30005KT M01/M11 A3016 360 47 -1400 320/05 RMK AO1 T10061106 $
54779K12N 12N20160121115011101/21/16 11:50:31  5-MIN K12N 211650Z AUTO 33005KT M01/M11 A3016 360 47 -1400 340/05 RMK AO1 SLP227 T10061106 $
54779K12N 12N20160121115512601/21/16 11:55:31  5-MIN K12N 211655Z AUTO 01010G17KT 320V040 M01/M11 A3016 360 49 -1400 020/10G17 330V050 RMK AO1 T10111106 $
54779K12N 12N20160121120012601/21/16 12:00:31  5-MIN K12N 211700Z AUTO 34007G17KT 290V360 M01/M11 A3016 370 47 -1400 350/07G17 300V010 RMK AO1 T10061106 $
54779K12N 12N20160121120512601/21/16 12:05:31  5-MIN K12N 211705Z AUTO 01008G17KT 270V140 M01/M11 A3015 370 47 -1400 020/08G17 280V150 RMK AO1 T10061106 $
54779K12N 12N20160121121012601/21/16 12:10:31  5-MIN K12N 211710Z AUTO 31007G17KT 280V360 M01/M11 A3015 370 47 -1400 320/07G17 290V010 RMK AO1 T10061106 $
54779K12N 12N20160121121510301/21/16 12:15:31  5-MIN K12N 211715Z AUTO 34008KT 00/M11 A3015 380 45 -1300 360/08 RMK AO1 T00001106 $
54779K12N 12N20160121122010301/21/16 12:20:31  5-MIN K12N 211720Z AUTO 36005KT 00/M10 A3015 380 47 -1300 010/05 RMK AO1 T00001100 $
54779K12N 12N20160121122510301/21/16 12:25:31  5-MIN K12N 211725Z AUTO VRB04KT 01/M10 A3014 380 45 -1200 VRB/04 RMK AO1 T00061100 $
54779K12N 12N20160121123010301/21/16 12:30:31  5-MIN K12N 211730Z AUTO VRB05KT 01/M10 A3015 380 45 -1200 VRB/05 RMK AO1 T00061100 $
54779K12N 12N20160121123511901/21/16 12:35:31  5-MIN K12N 211735Z AUTO 31007KT 270V350 00/M11 A3014 380 45 -1300 320/07 280V360 RMK AO1 T00001106 $
54779K12N 12N20160121124010301/21/16 12:40:31  5-MIN K12N 211740Z AUTO VRB05KT 01/M10 A3014 380 45 -1200 VRB/05 RMK AO1 T00061100 $
54779K12N 12N20160121124510301/21/16 12:45:31  5-MIN K12N 211745Z AUTO 36007KT 01/M10 A3014 380 45 -1200 010/07 RMK AO1 T00061100 $
54779K12N 12N20160121125014401/21/16 12:50:31  5-MIN K12N 211750Z AUTO 02007KT 350V050 00/M11 A3014 380 45 -1300 030/07 360V060 RMK AO1 SLP219 T00001106 10006 21072 53010 $
54779K12N 12N20160121125510401/21/16 12:55:31  5-MIN K12N 211755Z AUTO VRB04KT M01/M11 A3014 380 47 -1300 VRB/04 RMK AO1 T10061106 $
54779K12N 12N20160121130012601/21/16 13:00:31  5-MIN K12N 211800Z AUTO 34010G15KT 300V040 M01/M11 A3014 380 45 -1300 360/10G15 310V050 RMK AO1 T10061111 $
54779K12N 12N20160121130512601/21/16 13:05:31  5-MIN K12N 211805Z AUTO 33007G15KT 260V030 M01/M11 A3014 390 47 -1300 350/07G15 270V040 RMK AO1 T10061106 $
54779K12N 12N20160121131012601/21/16 13:10:31  5-MIN K12N 211810Z AUTO 02007G15KT 350V050 M01/M11 A3014 390 45 -1300 030/07G15 360V060 RMK AO1 T10061111 $
54779K12N 12N20160121131510901/21/16 13:15:31  5-MIN K12N 211815Z AUTO VRB06G15KT 00/M11 A3014 390 45 -1300 VRB/06G15 RMK AO1 T00001106 $
54779K12N 12N20160121132009301/21/16 13:20:31  5-MIN K12N 211820Z AUTO 01/M11 A3014 380 43 -1200 M /M RMK AO1 T00061106 $
54779K12N 12N20160121132512601/21/16 13:25:31  5-MIN K12N 211825Z AUTO 34007G15KT 300V010 M01/M11 A3014 380 45 -1300 350/07G15 310V020 RMK AO1 T10061111 $
54779K12N 12N20160121133012601/21/16 13:30:31  5-MIN K12N 211830Z AUTO 34007G15KT 310V020 M01/M11 A3014 390 47 -1400 350/07G15 320V030 RMK AO1 T10111111 $
54779K12N 12N20160121133511001/21/16 13:35:31  5-MIN K12N 211835Z AUTO VRB06G15KT M01/M11 A3013 390 47 -1400 VRB/06G15 RMK AO1 T10111111 $
54779K12N 12N20160121134010401/21/16 13:40:31  5-MIN K12N 211840Z AUTO VRB04KT M01/M11 A3013 390 47 -1400 VRB/04 RMK AO1 T10111111 $
54779K12N 12N20160121134511001/21/16 13:45:31  5-MIN K12N 211845Z AUTO VRB06G14KT M01/M11 A3013 390 47 -1400 VRB/06G14 RMK AO1 T10111111 $
54779K12N 12N20160121135011701/21/16 13:50:31  5-MIN K12N 211850Z AUTO VRB05G14KT M01/M11 A3013 390 47 -1400 VRB/05G14 RMK AO1 SLP215 T10111111 $
54779K12N 12N20160121135512001/21/16 13:55:31  5-MIN K12N 211855Z AUTO 35007KT 290V060 M01/M11 A3013 390 47 -1400 010/07 300V070 RMK AO1 T10111111 $
54779K12N 12N20160121140010401/21/16 14:00:31  5-MIN K12N 211900Z AUTO VRB05KT M01/M11 A3013 390 47 -1400 VRB/05 RMK AO1 T10111111 $
54779K12N 12N20160121140512001/21/16 14:05:31  5-MIN K12N 211905Z AUTO 31007KT 280V010 M01/M11 A3013 390 47 -1400 320/07 290V020 RMK AO1 T10111111 $
54779K12N 12N20160121141010401/21/16 14:10:31  5-MIN K12N 211910Z AUTO 34007KT M01/M11 A3013 390 47 -1400 350/07 RMK AO1 T10111111 $
54779K12N 12N20160121141510401/21/16 14:15:31  5-MIN K12N 211915Z AUTO VRB06KT M01/M11 A3013 390 47 -1400 VRB/06 RMK AO1 T10111111 $
54779K12N 12N20160121142012001/21/16 14:20:31  5-MIN K12N 211920Z AUTO 32008KT 280V360 M01/M11 A3013 390 45 -1300 340/08 290V010 RMK AO1 T10061111 $
54779K12N 12N20160121142511001/21/16 14:25:31  5-MIN K12N 211925Z AUTO VRB05G15KT M01/M11 A3013 390 47 -1400 VRB/05G15 RMK AO1 T10111111 $
54779K12N 12N20160121143010401/21/16 14:30:31  5-MIN K12N 211930Z AUTO 35008KT M01/M11 A3013 390 45 -1300 010/08 RMK AO1 T10061111 $
54779K12N 12N20160121143510401/21/16 14:35:31  5-MIN K12N 211935Z AUTO 35006KT M01/M11 A3014 390 45 -1300 010/06 RMK AO1 T10061111 $
54779K12N 12N20160121144012001/21/16 14:40:31  5-MIN K12N 211940Z AUTO 36007KT 330V030 M01/M11 A3014 380 45 -1300 010/07 340V040 RMK AO1 T10061111 $
54779K12N 12N20160121144510401/21/16 14:45:31  5-MIN K12N 211945Z AUTO 36009KT M01/M11 A3014 380 45 -1300 010/09 RMK AO1 T10061111 $
54779K12N 12N20160121145011701/21/16 14:50:31  5-MIN K12N 211950Z AUTO 36009G16KT M01/M11 A3014 380 45 -1300 010/09G16 RMK AO1 SLP219 T10061111 $
54779K12N 12N20160121145511001/21/16 14:55:31  5-MIN K12N 211955Z AUTO 36008G16KT M01/M12 A3014 380 45 -1400 010/08G16 RMK AO1 T10111117 $
54779K12N 12N20160121150010401/21/16 15:00:31  5-MIN K12N 212000Z AUTO 36007KT M01/M12 A3014 380 43 -1300 020/07 RMK AO1 T10061117 $
54779K12N 12N20160121150510401/21/16 15:05:31  5-MIN K12N 212005Z AUTO 35009KT M01/M11 A3014 380 45 -1300 010/09 RMK AO1 T10061111 $
54779K12N 12N20160121151011001/21/16 15:10:31  5-MIN K12N 212010Z AUTO VRB06G19KT M01/M11 A3014 380 47 -1400 VRB/06G19 RMK AO1 T10111111 $
54779K12N 12N20160121151512601/21/16 15:15:31  5-MIN K12N 212015Z AUTO 34009G19KT 320V020 M01/M11 A3014 380 47 -1400 350/09G19 330V030 RMK AO1 T10111111 $
54779K12N 12N20160121152011001/21/16 15:20:31  5-MIN K12N 212020Z AUTO VRB06G16KT M01/M12 A3014 380 43 -1300 VRB/06G16 RMK AO1 T10061117 $
54779K12N 12N20160121152510401/21/16 15:25:31  5-MIN K12N 212025Z AUTO VRB06KT M01/M12 A3015 380 45 -1400 VRB/06 RMK AO1 T10111117 $
54779K12N 12N20160121153010401/21/16 15:30:31  5-MIN K12N 212030Z AUTO 35006KT M01/M11 A3015 380 47 -1400 360/06 RMK AO1 T10111111 $
54779K12N 12N20160121153510401/21/16 15:35:31  5-MIN K12N 212035Z AUTO 35007KT M01/M11 A3015 370 47 -1400 360/07 RMK AO1 T10111111 $
54779K12N 12N20160121154010401/21/16 15:40:31  5-MIN K12N 212040Z AUTO 34006KT M02/M11 A3015 370 49 -1500 360/06 RMK AO1 T10171111 $
54779K12N 12N20160121154510401/21/16 15:45:31  5-MIN K12N 212045Z AUTO 34005KT M02/M11 A3015 370 49 -1500 350/05 RMK AO1 T10171111 $
54779K12N 12N20160121155013301/21/16 15:50:31  5-MIN K12N 212050Z AUTO 34007KT 290V010 M02/M11 A3015 370 49 -1500 350/07 300V020 RMK AO1 SLP224 T10171111 58009 $
54779K12N 12N20160121155510401/21/16 15:55:31  5-MIN K12N 212055Z AUTO 32006KT M02/M11 A3015 370 49 -1500 330/06 RMK AO1 T10171111 $
54779K12N 12N20160121160010401/21/16 16:00:31  5-MIN K12N 212100Z AUTO 36005KT M02/M11 A3015 370 49 -1500 010/05 RMK AO1 T10171111 $
54779K12N 12N20160121160510201/21/16 16:05:31  5-MIN K12N 212105Z AUTO 33007KT M02/M11 A3016 370 49 -1500 340/07 RMK AO1 T10171111
54779K12N 12N20160121161010201/21/16 16:10:31  5-MIN K12N 212110Z AUTO VRB04KT M02/M11 A3016 370 49 -1500 VRB/04 RMK AO1 T10171111
54779K12N 12N20160121161510201/21/16 16:15:31  5-MIN K12N 212115Z AUTO 30005KT M02/M11 A3016 360 49 -1500 310/05 RMK AO1 T10171111
54779K12N 12N20160121162010801/21/16 16:20:31  5-MIN K12N 212120Z AUTO 30010G16KT M02/M11 A3016 360 51 -1500 310/10G16 RMK AO1 T10171106
54779K12N 12N20160121162510801/21/16 16:25:31  5-MIN K12N 212125Z AUTO VRB06G16KT M02/M11 A3017 360 51 -1500 VRB/06G16 RMK AO1 T10171106
54779K12N 12N20160121163010201/21/16 16:30:31  5-MIN K12N 212130Z AUTO VRB06KT M02/M11 A3016 360 51 -1500 VRB/06 RMK AO1 T10171106
54779K12N 12N20160121163510201/21/16 16:35:31  5-MIN K12N 212135Z AUTO VRB06KT M02/M11 A3016 360 51 -1500 VRB/06 RMK AO1 T10171106
54779K12N 12N20160121164010201/21/16 16:40:31  5-MIN K12N 212140Z AUTO VRB05KT M02/M11 A3016 360 51 -1500 VRB/05 RMK AO1 T10171106
54779K12N 12N20160121164511801/21/16 16:45:31  5-MIN K12N 212145Z AUTO 36007KT 300V020 M02/M11 A3017 360 49 -1500 010/07 310V030 RMK AO1 T10171111
54779K12N 12N20160121165011501/21/16 16:50:31  5-MIN K12N 212150Z AUTO 33005G14KT M02/M11 A3016 360 49 -1500 340/05G14 RMK AO1 SLP229 T10171111
54779K12N 12N20160121165510801/21/16 16:55:31  5-MIN K12N 212155Z AUTO VRB04G14KT M02/M11 A3016 360 49 -1500 VRB/04G14 RMK AO1 T10171111
54779K12N 12N20160121170010201/21/16 17:00:31  5-MIN K12N 212200Z AUTO 36005KT M02/M11 A3016 360 51 -1500 010/05 RMK AO1 T10171106
54779K12N 12N20160121170510201/21/16 17:05:31  5-MIN K12N 212205Z AUTO VRB05KT M02/M11 A3016 360 49 -1500 VRB/05 RMK AO1 T10171111
54779K12N 12N20160121171011801/21/16 17:10:31  5-MIN K12N 212210Z AUTO 35007KT 310V010 M02/M11 A3016 360 51 -1600 360/07 320V020 RMK AO1 T10221111
54779K12N 12N20160121171510201/21/16 17:15:31  5-MIN K12N 212215Z AUTO 35005KT M02/M11 A3016 360 51 -1600 360/05 RMK AO1 T10221111
54779K12N 12N20160121172011801/21/16 17:20:31  5-MIN K12N 212220Z AUTO 34007KT 300V020 M02/M11 A3016 360 51 -1600 360/07 310V030 RMK AO1 T10221111
54779K12N 12N20160121172510201/21/16 17:25:31  5-MIN K12N 212225Z AUTO VRB06KT M02/M12 A3017 360 48 -1600 VRB/06 RMK AO1 T10221117
54779K12N 12N20160121173010201/21/16 17:30:31  5-MIN K12N 212230Z AUTO 34005KT M02/M12 A3017 360 48 -1600 360/05 RMK AO1 T10221117
54779K12N 12N20160121173510201/21/16 17:35:31  5-MIN K12N 212235Z AUTO VRB05KT M02/M12 A3017 360 48 -1600 VRB/05 RMK AO1 T10221117
54779K12N 12N20160121174010201/21/16 17:40:31  5-MIN K12N 212240Z AUTO VRB03KT M03/M12 A3017 360 50 -1700 VRB/03 RMK AO1 T10281117
54779K12N 12N20160121174511801/21/16 17:45:31  5-MIN K12N 212245Z AUTO 33007KT 300V360 M03/M12 A3017 350 50 -1700 340/07 310V010 RMK AO1 T10281117
54779K12N 12N20160121175010901/21/16 17:50:31  5-MIN K12N 212250Z AUTO VRB05KT M03/M12 A3018 350 50 -1700 VRB/05 RMK AO1 SLP233 T10281117
54779K12N 12N20160121175510201/21/16 17:55:31  5-MIN K12N 212255Z AUTO 35007KT M03/M12 A3018 350 50 -1700 360/07 RMK AO1 T10281117
54779K12N 12N20160121180010201/21/16 18:00:31  5-MIN K12N 212300Z AUTO 34004KT M03/M12 A3017 350 50 -1700 360/04 RMK AO1 T10281117
54779K12N 12N20160121180510201/21/16 18:05:31  5-MIN K12N 212305Z AUTO VRB05KT M03/M12 A3017 350 50 -1700 VRB/05 RMK AO1 T10281117
54779K12N 12N20160121181010201/21/16 18:10:31  5-MIN K12N 212310Z AUTO VRB05KT M03/M12 A3018 350 50 -1700 VRB/05 RMK AO1 T10281117
54779K12N 12N20160121181510201/21/16 18:15:31  5-MIN K12N 212315Z AUTO VRB03KT M03/M12 A3018 350 50 -1700 VRB/03 RMK AO1 T10281117
54779K12N 12N20160121182010201/21/16 18:20:31  5-MIN K12N 212320Z AUTO 34005KT M03/M12 A3018 340 50 -1700 350/05 RMK AO1 T10281117
54779K12N 12N20160121182510201/21/16 18:25:31  5-MIN K12N 212325Z AUTO 35003KT M03/M12 A3019 340 53 -1700 360/03 RMK AO1 T10331117
54779K12N 12N20160121183010201/21/16 18:30:31  5-MIN K12N 212330Z AUTO VRB04KT M03/M12 A3019 340 53 -1700 VRB/04 RMK AO1 T10331117
54779K12N 12N20160121183510201/21/16 18:35:31  5-MIN K12N 212335Z AUTO 34004KT M03/M11 A3019 340 55 -1700 360/04 RMK AO1 T10331111
54779K12N 12N20160121184010201/21/16 18:40:31  5-MIN K12N 212340Z AUTO 34004KT M03/M12 A3019 340 53 -1800 350/04 RMK AO1 T10331117
54779K12N 12N20160121184510201/21/16 18:45:31  5-MIN K12N 212345Z AUTO 34006KT M03/M12 A3019 330 53 -1800 350/06 RMK AO1 T10331117
54779K12N 12N20160121185012701/21/16 18:50:31  5-MIN K12N 212350Z AUTO 34004KT M03/M12 A3020 330 53 -1800 350/04 RMK AO1 SLP240 T10331117 10006 21033 53005
54779K12N 12N20160121185510201/21/16 18:55:31  5-MIN K12N 212355Z AUTO 35005KT M03/M12 A3020 330 53 -1800 360/05 RMK AO1 T10331117
54779K12N 12N20160121190010201/21/16 19:00:31  5-MIN K12N 220000Z AUTO 36005KT M03/M11 A3020 320 55 -1800 010/05 RMK AO1 T10331111
54779K12N 12N20160121190510201/21/16 19:05:31  5-MIN K12N 220005Z AUTO 35005KT M03/M11 A3020 330 55 -1800 360/05 RMK AO1 T10331111
54779K12N 12N20160121191010201/21/16 19:10:31  5-MIN K12N 220010Z AUTO VRB06KT M03/M11 A3020 330 55 -1800 VRB/06 RMK AO1 T10331111
54779K12N 12N20160121191511801/21/16 19:15:31  5-MIN K12N 220015Z AUTO 35007KT 330V030 M03/M11 A3020 320 55 -1800 010/07 340V040 RMK AO1 T10331111
54779K12N 12N20160121192010201/21/16 19:20:31  5-MIN K12N 220020Z AUTO 34005KT M03/M11 A3021 320 55 -1800 350/05 RMK AO1 T10331111
54779K12N 12N20160122045010901/22/16 04:50:31  5-MIN K12N 220950Z AUTO 35005KT M09/M14 A3023 300 70 -2600 360/05 RMK AO1 SLP253 T10941139
54779K12N 12N20160122045510201/22/16 04:55:31  5-MIN K12N 220955Z AUTO 36006KT M09/M14 A3023 300 70 -2600 010/06 RMK AO1 T10941139
54779K12N 12N20160122050010201/22/16 05:00:31  5-MIN K12N 221000Z AUTO 34006KT M09/M14 A3023 300 67 -2500 350/06 RMK AO1 T10891139
54779K12N 12N20160122050510201/22/16 05:05:31  5-MIN K12N 221005Z AUTO 36004KT M09/M14 A3023 300 67 -2500 010/04 RMK AO1 T10891139
54779K12N 12N20160122051010201/22/16 05:10:31  5-MIN K12N 221010Z AUTO 36004KT M09/M14 A3023 300 67 -2500 010/04 RMK AO1 T10891139
54779K12N 12N20160122051510201/22/16 05:15:31  5-MIN K12N 221015Z AUTO 36004KT M09/M14 A3024 290 67 -2500 010/04 RMK AO1 T10891139
54779K12N 12N20160122052010201/22/16 05:20:31  5-MIN K12N 221020Z AUTO VRB03KT M09/M14 A3025 290 67 -2500 VRB/03 RMK AO1 T10891139
54779K12N 12N20160122052510201/22/16 05:25:31  5-MIN K12N 221025Z AUTO 00000KT M09/M14 A3025 280 67 -2500 000/00 RMK AO1 T10891139
54779K12N 12N20160122053010201/22/16 05:30:31  5-MIN K12N 221030Z AUTO 00000KT M09/M14 A3025 280 70 -2600 000/00 RMK AO1 T10941139
54779K12N 12N20160122053510201/22/16 05:35:31  5-MIN K12N 221035Z AUTO 00000KT M09/M13 A3026 280 73 -2600 000/00 RMK AO1 T10941133
54779K12N 12N20160122054010201/22/16 05:40:31  5-MIN K12N 221040Z AUTO 00000KT M09/M14 A3026 270 70 -2600 000/00 RMK AO1 T10941139
54779K12N 12N20160122054510201/22/16 05:45:31  5-MIN K12N 221045Z AUTO 00000KT M10/M14 A3027 260 73 -2700 000/00 RMK AO1 T11001139
54779K12N 12N20160122055011601/22/16 05:50:31  5-MIN K12N 221050Z AUTO 00000KT M10/M14 A3028 260 73 -2700 000/00 RMK AO1 PRESRR SLP269 T11001139
54779K12N 12N20160122055510201/22/16 05:55:31  5-MIN K12N 221055Z AUTO 00000KT M11/M13 A3028 260 80 -2800 000/00 RMK AO1 T11061133
54779K12N 12N20160122060010201/22/16 06:00:31  5-MIN K12N 221100Z AUTO 00000KT M11/M13 A3028 250 80 -2800 000/00 RMK AO1 T11061133
54779K12N 12N20160122060510201/22/16 06:05:31  5-MIN K12N 221105Z AUTO 00000KT M11/M13 A3028 250 84 -2800 000/00 RMK AO1 T11061128
54779K12N 12N20160122061010201/22/16 06:10:31  5-MIN K12N 221110Z AUTO 00000KT M11/M13 A3028 260 80 -2800 000/00 RMK AO1 T11061133
54779K12N 12N20160122061510201/22/16 06:15:31  5-MIN K12N 221115Z AUTO 00000KT M11/M13 A3028 260 80 -2800 000/00 RMK AO1 T11061133
54779K12N 12N20160122062010201/22/16 06:20:31  5-MIN K12N 221120Z AUTO 00000KT M11/M14 A3028 250 77 -2800 000/00 RMK AO1 T11061139
54779K12N 12N20160122062510201/22/16 06:25:31  5-MIN K12N 221125Z AUTO 00000KT M11/M14 A3029 250 77 -2800 000/00 RMK AO1 T11061139
54779K12N 12N20160122063010201/22/16 06:30:31  5-MIN K12N 221130Z AUTO 00000KT M11/M14 A3029 250 77 -2800 000/00 RMK AO1 T11061139
54779K12N 12N20160122063510201/22/16 06:35:31  5-MIN K12N 221135Z AUTO 00000KT M11/M14 A3029 250 77 -2800 000/00 RMK AO1 T11061139
54779K12N 12N20160122064010201/22/16 06:40:31  5-MIN K12N 221140Z AUTO 00000KT M11/M13 A3028 250 80 -2800 000/00 RMK AO1 T11061133
54779K12N 12N20160122064510201/22/16 06:45:31  5-MIN K12N 221145Z AUTO 00000KT M11/M13 A3029 250 80 -2800 000/00 RMK AO1 T11061133
54779K12N 12N20160122065012701/22/16 06:50:31  5-MIN K12N 221150Z AUTO 00000KT M11/M13 A3029 250 80 -2800 000/00 RMK AO1 SLP273 T11061133 11072 21106 55004
54779K12N 12N20160122065510201/22/16 06:55:31  5-MIN K12N 221155Z AUTO 00000KT M11/M13 A3029 240 84 -2900 000/00 RMK AO1 T11111133
54779K12N 12N20160122070010201/22/16 07:00:31  5-MIN K12N 221200Z AUTO 00000KT M11/M13 A3030 240 80 -2800 000/00 RMK AO1 T11061133
54779K12N 12N20160122070510201/22/16 07:05:31  5-MIN K12N 221205Z AUTO 00000KT M11/M13 A3030 240 84 -2900 000/00 RMK AO1 T11111133
54779K12N 12N20160122071010201/22/16 07:10:31  5-MIN K12N 221210Z AUTO 00000KT M11/M13 A3030 240 84 -2900 000/00 RMK AO1 T11111133
54779K12N 12N20160122071510201/22/16 07:15:31  5-MIN K12N 221215Z AUTO 00000KT M11/M13 A3029 240 84 -2900 000/00 RMK AO1 T11111133
54779K12N 12N20160122072010201/22/16 07:20:31  5-MIN K12N 221220Z AUTO 00000KT M11/M13 A3029 240 84 -2900 000/00 RMK AO1 T11111133
54779K12N 12N20160122072510201/22/16 07:25:31  5-MIN K12N 221225Z AUTO 00000KT M11/M13 A3029 250 84 -2900 000/00 RMK AO1 T11111133
54779K12N 12N20160122073010201/22/16 07:30:31  5-MIN K12N 221230Z AUTO 00000KT M11/M13 A3028 250 84 -2900 000/00 RMK AO1 T11111133
54779K12N 12N20160122073510201/22/16 07:35:31  5-MIN K12N 221235Z AUTO 00000KT M11/M13 A3028 260 84 -2900 000/00 RMK AO1 T11111133
54779K12N 12N20160122074010201/22/16 07:40:31  5-MIN K12N 221240Z AUTO 00000KT M11/M13 A3027 260 84 -2900 000/00 RMK AO1 T11111133
54779K12N 12N20160122074510201/22/16 07:45:31  5-MIN K12N 221245Z AUTO 00000KT M12/M13 A3027 260 87 -2900 000/00 RMK AO1 T11171133
54779K12N 12N20160122075010901/22/16 07:50:31  5-MIN K12N 221250Z AUTO 00000KT M11/M13 A3027 260 84 -2900 000/00 RMK AO1 SLP269 T11111133
54779K12N 12N20160122075510201/22/16 07:55:31  5-MIN K12N 221255Z AUTO 00000KT M11/M13 A3027 260 80 -2800 000/00 RMK AO1 T11061133
54779K12N 12N20160122080010201/22/16 08:00:31  5-MIN K12N 221300Z AUTO 00000KT M11/M13 A3028 260 88 -2900 000/00 RMK AO1 T11111128
54779K12N 12N20160122080510201/22/16 08:05:31  5-MIN K12N 221305Z AUTO 00000KT M11/M13 A3028 250 84 -2800 000/00 RMK AO1 T11061128
54779K12N 12N20160122081010201/22/16 08:10:31  5-MIN K12N 221310Z AUTO 00000KT M10/M13 A3028 260 80 -2700 000/00 RMK AO1 T11001128
54779K12N 12N20160122081510201/22/16 08:15:31  5-MIN K12N 221315Z AUTO 00000KT M10/M13 A3028 250 80 -2700 000/00 RMK AO1 T11001128
54779K12N 12N20160122082010201/22/16 08:20:31  5-MIN K12N 221320Z AUTO 00000KT M10/M13 A3028 250 80 -2700 000/00 RMK AO1 T11001128
54779K12N 12N20160122082510201/22/16 08:25:31  5-MIN K12N 221325Z AUTO VRB03KT M09/M13 A3028 250 77 -2600 VRB/03 RMK AO1 T10941128
54779K12N 12N20160122083010201/22/16 08:30:31  5-MIN K12N 221330Z AUTO 04003KT M09/M13 A3028 250 70 -2600 050/03 RMK AO1 T10891133
54779K12N 12N20160122083510201/22/16 08:35:31  5-MIN K12N 221335Z AUTO 07003KT M09/M13 A3028 260 70 -2600 080/03 RMK AO1 T10891133
54779K12N 12N20160122084010201/22/16 08:40:31  5-MIN K12N 221340Z AUTO 07003KT M09/M13 A3027 260 70 -2600 080/03 RMK AO1 T10891133
54779K12N 12N20160122084510201/22/16 08:45:31  5-MIN K12N 221345Z AUTO 06004KT M08/M13 A3028 260 67 -2500 080/04 RMK AO1 T10831133
54779K12N 12N20160122085010901/22/16 08:50:31  5-MIN K12N 221350Z AUTO 06003KT M08/M13 A3028 260 67 -2500 080/03 RMK AO1 SLP269 T10831133
54779K12N 12N20160122085510201/22/16 08:55:31  5-MIN K12N 221355Z AUTO 04003KT M08/M13 A3028 260 67 -2500 050/03 RMK AO1 T10831133
54779K12N 12N20160122090010201/22/16 09:00:31  5-MIN K12N 221400Z AUTO 04003KT M08/M13 A3027 260 67 -2500 050/03 RMK AO1 T10831133
54779K12N 12N20160122090510201/22/16 09:05:31  5-MIN K12N 221405Z AUTO 07003KT M08/M13 A3027 270 64 -2400 080/03 RMK AO1 T10781133
54779K12N 12N20160122091010201/22/16 09:10:31  5-MIN K12N 221410Z AUTO 00000KT M08/M13 A3027 260 64 -2400 000/00 RMK AO1 T10781133
54779K12N 12N20160122091510201/22/16 09:15:31  5-MIN K12N 221415Z AUTO 00000KT M07/M13 A3027 260 62 -2300 000/00 RMK AO1 T10721133
54779K12N 12N20160122092010201/22/16 09:20:31  5-MIN K12N 221420Z AUTO VRB03KT M07/M13 A3027 260 62 -2300 VRB/03 RMK AO1 T10721133
54779K12N 12N20160122092510201/22/16 09:25:31  5-MIN K12N 221425Z AUTO 00000KT M07/M14 A3027 260 59 -2300 000/00 RMK AO1 T10721139
54779K12N 12N20160122093010201/22/16 09:30:31  5-MIN K12N 221430Z AUTO 04004KT M07/M14 A3027 260 59 -2300 050/04 RMK AO1 T10721139
54779K12N 12N20160122093510201/22/16 09:35:31  5-MIN K12N 221435Z AUTO 34005KT M07/M14 A3027 260 59 -2300 350/05 RMK AO1 T10721139
54779K12N 12N20160122094010201/22/16 09:40:31  5-MIN K12N 221440Z AUTO VRB03KT M07/M14 A3027 260 59 -2300 VRB/03 RMK AO1 T10721139
54779K12N 12N20160122094510201/22/16 09:45:31  5-MIN K12N 221445Z AUTO 00000KT M07/M14 A3027 260 57 -2300 000/00 RMK AO1 T10671139
54779K12N 12N20160122095011501/22/16 09:50:31  5-MIN K12N 221450Z AUTO 08003KT M07/M14 A3028 260 57 -2300 100/03 RMK AO1 SLP269 T10671139 53018
54779K12N 12N20160122095510201/22/16 09:55:31  5-MIN K12N 221455Z AUTO 05004KT M07/M14 A3028 250 57 -2300 060/04 RMK AO1 T10671139
54779K12N 12N20160122100010201/22/16 10:00:31  5-MIN K12N 221500Z AUTO VRB03KT M07/M14 A3029 250 57 -2300 VRB/03 RMK AO1 T10671139
54779K12N 12N20160122100510201/22/16 10:05:31  5-MIN K12N 221505Z AUTO 00000KT M06/M14 A3029 250 54 -2200 000/00 RMK AO1 T10611139
54779K12N 12N20160122101010201/22/16 10:10:31  5-MIN K12N 221510Z AUTO 00000KT M06/M14 A3029 250 54 -2200 000/00 RMK AO1 T10611139
54779K12N 12N20160122101510201/22/16 10:15:31  5-MIN K12N 221515Z AUTO VRB04KT M06/M14 A3028 250 54 -2200 VRB/04 RMK AO1 T10611139
54779K12N 12N20160122102010201/22/16 10:20:31  5-MIN K12N 221520Z AUTO VRB03KT M06/M14 A3028 250 54 -2200 VRB/03 RMK AO1 T10611139
54779K12N 12N20160122102510201/22/16 10:25:31  5-MIN K12N 221525Z AUTO VRB04KT M06/M14 A3028 250 54 -2200 VRB/04 RMK AO1 T10611139
54779K12N 12N20160122103010201/22/16 10:30:31  5-MIN K12N 221530Z AUTO 03004KT M06/M14 A3028 250 54 -2200 050/04 RMK AO1 T10611139
54779K12N 12N20160122103510201/22/16 10:35:31  5-MIN K12N 221535Z AUTO VRB04KT M06/M14 A3028 260 52 -2200 VRB/04 RMK AO1 T10611144
54779K12N 12N20160122104010201/22/16 10:40:31  5-MIN K12N 221540Z AUTO 05003KT M06/M14 A3027 260 54 -2200 060/03 RMK AO1 T10611139
54779K12N 12N20160122104510201/22/16 10:45:31  5-MIN K12N 221545Z AUTO 06003KT M06/M14 A3028 260 52 -2200 070/03 RMK AO1 T10611144
54779K12N 12N20160122105010901/22/16 10:50:31  5-MIN K12N 221550Z AUTO 00000KT M06/M14 A3027 260 52 -2200 000/00 RMK AO1 SLP267 T10611144
54779K12N 12N20160122105510201/22/16 10:55:31  5-MIN K12N 221555Z AUTO 00000KT M06/M14 A3027 260 52 -2200 000/00 RMK AO1 T10611144
54779K12N 12N20160122110010201/22/16 11:00:31  5-MIN K12N 221600Z AUTO 05003KT M06/M14 A3027 270 50 -2100 060/03 RMK AO1 T10561144
54779K12N 12N20160122110510201/22/16 11:05:31  5-MIN K12N 221605Z AUTO 05003KT M06/M14 A3026 270 50 -2100 060/03 RMK AO1 T10561144
54779K12N 12N20160122111010201/22/16 11:10:31  5-MIN K12N 221610Z AUTO 00000KT M05/M14 A3027 270 48 -2000 000/00 RMK AO1 T10501144
54779K12N 12N20160122111510201/22/16 11:15:31  5-MIN K12N 221615Z AUTO VRB04KT M05/M14 A3026 270 50 -2000 VRB/04 RMK AO1 T10501139
54779K12N 12N20160122112010201/22/16 11:20:31  5-MIN K12N 221620Z AUTO VRB03KT M05/M14 A3026 280 48 -2000 VRB/03 RMK AO1 T10501144
54779K12N 12N20160122112510201/22/16 11:25:31  5-MIN K12N 221625Z AUTO VRB04KT M04/M14 A3026 270 48 -2000 VRB/04 RMK AO1 T10441139
54779K12N 12N20160122113010201/22/16 11:30:31  5-MIN K12N 221630Z AUTO VRB06KT M04/M14 A3026 270 46 -2000 VRB/06 RMK AO1 T10441144
54779K12N 12N20160122113510201/22/16 11:35:31  5-MIN K12N 221635Z AUTO VRB04KT M04/M15 A3025 280 44 -2000 VRB/04 RMK AO1 T10441150
54779K12N 12N20160122114010201/22/16 11:40:31  5-MIN K12N 221640Z AUTO 00000KT M04/M14 A3025 280 46 -2000 000/00 RMK AO1 T10441144
54779K12N 12N20160122114510201/22/16 11:45:31  5-MIN K12N 221645Z AUTO VRB04KT M04/M14 A3025 290 46 -2000 VRB/04 RMK AO1 T10441144
54779K12N 12N20160122115010901/22/16 11:50:31  5-MIN K12N 221650Z AUTO VRB05KT M04/M14 A3025 290 46 -2000 VRB/05 RMK AO1 SLP257 T10441144
54779K12N 12N20160122115510201/22/16 11:55:31  5-MIN K12N 221655Z AUTO VRB04KT M04/M14 A3024 290 44 -1900 VRB/04 RMK AO1 T10391144
54779K12N 12N20160122120010201/22/16 12:00:31  5-MIN K12N 221700Z AUTO VRB04KT M04/M14 A3024 290 44 -1900 VRB/04 RMK AO1 T10391144
54779K12N 12N20160122120510201/22/16 12:05:31  5-MIN K12N 221705Z AUTO VRB05KT M04/M14 A3024 290 46 -1900 VRB/05 RMK AO1 T10441144
54779K12N 12N20160122121010201/22/16 12:10:31  5-MIN K12N 221710Z AUTO VRB05KT M04/M15 A3023 300 44 -1900 VRB/05 RMK AO1 T10441150
54779K12N 12N20160122121510201/22/16 12:15:31  5-MIN K12N 221715Z AUTO VRB06KT M04/M15 A3023 300 44 -1900 VRB/06 RMK AO1 T10441150
54779K12N 12N20160122122010201/22/16 12:20:31  5-MIN K12N 221720Z AUTO VRB04KT M04/M14 A3022 310 44 -1900 VRB/04 RMK AO1 T10391144
54779K12N 12N20160122122510201/22/16 12:25:31  5-MIN K12N 221725Z AUTO 01005KT M04/M15 A3022 310 44 -1900 020/05 RMK AO1 T10441150
54779K12N 12N20160122123010201/22/16 12:30:31  5-MIN K12N 221730Z AUTO VRB04KT M04/M15 A3022 310 44 -1900 VRB/04 RMK AO1 T10441150
54779K12N 12N20160122123510201/22/16 12:35:31  5-MIN K12N 221735Z AUTO 04007KT M04/M15 A3021 310 44 -1900 050/07 RMK AO1 T10441150
54779K12N 12N20160122124010201/22/16 12:40:31  5-MIN K12N 221740Z AUTO 04006KT M04/M15 A3021 320 44 -1900 060/06 RMK AO1 T10441150
54779K12N 12N20160122124510201/22/16 12:45:31  5-MIN K12N 221745Z AUTO 04004KT M04/M15 A3021 320 44 -1900 050/04 RMK AO1 T10441150
54779K12N 12N20160122125012701/22/16 12:50:31  5-MIN K12N 221750Z AUTO 34004KT M04/M15 A3021 320 44 -1900 360/04 RMK AO1 SLP245 T10441150 11039 21117 55004
54779K12N 12N20160122125510201/22/16 12:55:31  5-MIN K12N 221755Z AUTO VRB04KT M04/M14 A3021 320 44 -1800 VRB/04 RMK AO1 T10391144
54779K12N 12N20160122130010201/22/16 13:00:31  5-MIN K12N 221800Z AUTO VRB04KT M04/M14 A3020 330 46 -1900 VRB/04 RMK AO1 T10441144
54779K12N 12N20160122130510201/22/16 13:05:31  5-MIN K12N 221805Z AUTO VRB04KT M04/M15 A3020 330 44 -1900 VRB/04 RMK AO1 T10441150
54779K12N 12N20160122131010901/22/16 13:10:31  5-MIN K12N 221810Z AUTO 36007KT M04/M15 A3019 340 44 -1900 010/07 RMK AO1 PRESFR T10441150
54779K12N 12N20160122131510201/22/16 13:15:31  5-MIN K12N 221815Z AUTO 01006KT M04/M15 A3019 340 44 -1900 020/06 RMK AO1 T10441150
54779K12N 12N20160122132010201/22/16 13:20:31  5-MIN K12N 221820Z AUTO VRB05KT M04/M14 A3018 340 44 -1800 VRB/05 RMK AO1 T10391144
54779K12N 12N20160122132510201/22/16 13:25:31  5-MIN K12N 221825Z AUTO 00000KT M04/M14 A3018 340 46 -1900 000/00 RMK AO1 T10441144
54779K12N 12N20160122133010201/22/16 13:30:31  5-MIN K12N 221830Z AUTO 02003KT M04/M15 A3018 340 44 -1900 040/03 RMK AO1 T10441150
54779K12N 12N20160122133510201/22/16 13:35:31  5-MIN K12N 221835Z AUTO VRB03KT M04/M14 A3018 340 44 -1800 VRB/03 RMK AO1 T10391144
54779K12N 12N20160122134010201/22/16 13:40:31  5-MIN K12N 221840Z AUTO 03004KT M04/M15 A3018 340 42 -1800 050/04 RMK AO1 T10391150
54779K12N 12N20160122134510201/22/16 13:45:31  5-MIN K12N 221845Z AUTO 00000KT M04/M15 A3018 350 42 -1800 000/00 RMK AO1 T10391150
54779K12N 12N20160122135010901/22/16 13:50:31  5-MIN K12N 221850Z AUTO 04004KT M04/M15 A3017 350 42 -1800 050/04 RMK AO1 SLP232 T10391150
54779K12N 12N20160122135510201/22/16 13:55:31  5-MIN K12N 221855Z AUTO VRB03KT M04/M15 A3017 350 42 -1800 VRB/03 RMK AO1 T10391150
54779K12N 12N20160122140010201/22/16 14:00:31  5-MIN K12N 221900Z AUTO 36005KT M04/M15 A3017 350 42 -1800 010/05 RMK AO1 T10391150
54779K12N 12N20160122140510201/22/16 14:05:31  5-MIN K12N 221905Z AUTO 04005KT M04/M15 A3017 350 42 -1800 050/05 RMK AO1 T10391150
54779K12N 12N20160122141010201/22/16 14:10:31  5-MIN K12N 221910Z AUTO 00000KT M04/M15 A3017 350 44 -1900 000/00 RMK AO1 T10441150
54779K12N 12N20160122141510201/22/16 14:15:31  5-MIN K12N 221915Z AUTO VRB04KT M04/M15 A3017 350 42 -1800 VRB/04 RMK AO1 T10391150
54779K12N 12N20160122142010201/22/16 14:20:31  5-MIN K12N 221920Z AUTO VRB04KT M04/M15 A3017 350 42 -1800 VRB/04 RMK AO1 T10391150
54779K12N 12N20160122142510201/22/16 14:25:31  5-MIN K12N 221925Z AUTO 00000KT M04/M14 A3017 350 44 -1800 000/00 RMK AO1 T10391144
54779K12N 12N20160122143010201/22/16 14:30:31  5-MIN K12N 221930Z AUTO VRB03KT M04/M14 A3017 360 44 -1800 VRB/03 RMK AO1 T10391144
54779K12N 12N20160122143510201/22/16 14:35:31  5-MIN K12N 221935Z AUTO VRB04KT M04/M15 A3016 360 42 -1800 VRB/04 RMK AO1 T10391150
54779K12N 12N20160122144010201/22/16 14:40:31  5-MIN K12N 221940Z AUTO 36004KT M04/M15 A3016 360 42 -1800 010/04 RMK AO1 T10391150
54779K12N 12N20160122144510201/22/16 14:45:31  5-MIN K12N 221945Z AUTO VRB03KT M04/M15 A3016 360 42 -1800 VRB/03 RMK AO1 T10391150
54779K12N 12N20160122145010901/22/16 14:50:31  5-MIN K12N 221950Z AUTO VRB03KT M04/M15 A3016 360 42 -1800 VRB/03 RMK AO1 SLP229 T10391150
54779K12N 12N20160122145510201/22/16 14:55:31  5-MIN K12N 221955Z AUTO 04005KT M04/M15 A3016 360 42 -1800 050/05 RMK AO1 T10391150
54779K12N 12N20160122150010201/22/16 15:00:31  5-MIN K12N 222000Z AUTO VRB03KT M04/M15 A3016 370 42 -1800 VRB/03 RMK AO1 T10391150
54779K12N 12N20160122150510201/22/16 15:05:31  5-MIN K12N 222005Z AUTO VRB05KT M04/M15 A3015 370 42 -1800 VRB/05 RMK AO1 T10391150
54779K12N 12N20160122151010201/22/16 15:10:31  5-MIN K12N 222010Z AUTO VRB03KT M04/M15 A3015 370 42 -1800 VRB/03 RMK AO1 T10391150
54779K12N 12N20160122151510201/22/16 15:15:31  5-MIN K12N 222015Z AUTO 03005KT M04/M15 A3015 370 42 -1800 050/05 RMK AO1 T10391150
54779K12N 12N20160122152010201/22/16 15:20:31  5-MIN K12N 222020Z AUTO 36006KT M04/M15 A3016 370 42 -1800 020/06 RMK AO1 T10391150
54779K12N 12N20160122152510201/22/16 15:25:31  5-MIN K12N 222025Z AUTO 36004KT M04/M15 A3015 370 42 -1800 010/04 RMK AO1 T10391150
54779K12N 12N20160122153010201/22/16 15:30:31  5-MIN K12N 222030Z AUTO 36004KT M04/M15 A3016 370 42 -1800 010/04 RMK AO1 T10391150
54779K12N 12N20160122153510201/22/16 15:35:31  5-MIN K12N 222035Z AUTO 00000KT M04/M15 A3016 370 42 -1800 000/00 RMK AO1 T10391150
54779K12N 12N20160122154010201/22/16 15:40:31  5-MIN K12N 222040Z AUTO VRB03KT M04/M15 A3016 360 42 -1800 VRB/03 RMK AO1 T10391150
54779K12N 12N20160122154510201/22/16 15:45:31  5-MIN K12N 222045Z AUTO 03004KT M04/M15 A3016 370 42 -1800 050/04 RMK AO1 T10391150
54779K12N 12N20160122155011501/22/16 15:50:31  5-MIN K12N 222050Z AUTO 01004KT M04/M14 A3016 370 44 -1800 020/04 RMK AO1 SLP228 T10391144 58025
54779K12N 12N20160122155510201/22/16 15:55:31  5-MIN K12N 222055Z AUTO VRB04KT M04/M15 A3016 370 42 -1800 VRB/04 RMK AO1 T10391150
54779K12N 12N20160122160010201/22/16 16:00:31  5-MIN K12N 222100Z AUTO 00000KT M04/M14 A3016 370 44 -1800 000/00 RMK AO1 T10391144
54779K12N 12N20160122160510201/22/16 16:05:31  5-MIN K12N 222105Z AUTO VRB04KT M04/M14 A3016 370 44 -1800 VRB/04 RMK AO1 T10391144
54779K12N 12N20160122161010201/22/16 16:10:31  5-MIN K12N 222110Z AUTO 00000KT M04/M15 A3016 370 42 -1800 000/00 RMK AO1 T10391150
54779K12N 12N20160122161510201/22/16 16:15:31  5-MIN K12N 222115Z AUTO 00000KT M04/M15 A3016 370 42 -1800 000/00 RMK AO1 T10391150
54779K12N 12N20160122162010201/22/16 16:20:31  5-MIN K12N 222120Z AUTO 00000KT M04/M15 A3016 370 42 -1800 000/00 RMK AO1 T10391150
54779K12N 12N20160122162510201/22/16 16:25:31  5-MIN K12N 222125Z AUTO VRB04KT M04/M15 A3016 370 42 -1800 VRB/04 RMK AO1 T10391150
54779K12N 12N20160122163010201/22/16 16:30:31  5-MIN K12N 222130Z AUTO VRB03KT M04/M14 A3016 370 44 -1800 VRB/03 RMK AO1 T10391144
54779K12N 12N20160122163510201/22/16 16:35:31  5-MIN K12N 222135Z AUTO 36003KT M04/M14 A3016 370 44 -1800 020/03 RMK AO1 T10391144
54779K12N 12N20160122164010201/22/16 16:40:31  5-MIN K12N 222140Z AUTO 36003KT M04/M15 A3016 370 42 -1800 010/03 RMK AO1 T10391150
54779K12N 12N20160122164510201/22/16 16:45:31  5-MIN K12N 222145Z AUTO 04003KT M04/M15 A3015 370 42 -1800 050/03 RMK AO1 T10391150
54779K12N 12N20160122165010901/22/16 16:50:31  5-MIN K12N 222150Z AUTO 01003KT M04/M14 A3014 380 44 -1800 020/03 RMK AO1 SLP224 T10391144
54779K12N 12N20160122165510201/22/16 16:55:31  5-MIN K12N 222155Z AUTO 00000KT M04/M14 A3014 380 44 -1800 000/00 RMK AO1 T10391144
54779K12N 12N20160122170010201/22/16 17:00:31  5-MIN K12N 222200Z AUTO 00000KT M04/M14 A3014 380 44 -1800 000/00 RMK AO1 T10391144
54779K12N 12N20160122170510201/22/16 17:05:31  5-MIN K12N 222205Z AUTO 36004KT M04/M14 A3015 370 44 -1800 010/04 RMK AO1 T10391144
54779K12N 12N20160122171010201/22/16 17:10:31  5-MIN K12N 222210Z AUTO 35004KT M04/M14 A3015 370 44 -1800 360/04 RMK AO1 T10391144
54779K12N 12N20160122171510201/22/16 17:15:31  5-MIN K12N 222215Z AUTO 35003KT M04/M15 A3015 380 42 -1800 010/03 RMK AO1 T10391150
54779K12N 12N20160122172010201/22/16 17:20:31  5-MIN K12N 222220Z AUTO 00000KT M04/M15 A3015 370 42 -1800 000/00 RMK AO1 T10391150
54779K12N 12N20160122172510201/22/16 17:25:31  5-MIN K12N 222225Z AUTO 00000KT M04/M15 A3015 370 42 -1800 000/00 RMK AO1 T10391150
54779K12N 12N20160122173010201/22/16 17:30:31  5-MIN K12N 222230Z AUTO 00000KT M04/M14 A3015 370 44 -1800 000/00 RMK AO1 T10391144
54779K12N 12N20160122173510201/22/16 17:35:31  5-MIN K12N 222235Z AUTO 00000KT M04/M14 A3016 360 44 -1800 000/00 RMK AO1 T10391144
54779K12N 12N20160122174010201/22/16 17:40:31  5-MIN K12N 222240Z AUTO 04003KT M04/M14 A3015 370 44 -1800 060/03 RMK AO1 T10391144
54779K12N 12N20160122174510201/22/16 17:45:31  5-MIN K12N 222245Z AUTO 05003KT M04/M14 A3015 370 44 -1800 060/03 RMK AO1 T10391144
54779K12N 12N20160122175010901/22/16 17:50:31  5-MIN K12N 222250Z AUTO 05003KT M04/M15 A3015 370 42 -1800 060/03 RMK AO1 SLP227 T10391150
54779K12N 12N20160122175510201/22/16 17:55:31  5-MIN K12N 222255Z AUTO 05004KT M04/M15 A3015 380 42 -1800 060/04 RMK AO1 T10391150
54779K12N 12N20160122180010201/22/16 18:00:31  5-MIN K12N 222300Z AUTO 04004KT M04/M15 A3014 380 42 -1800 050/04 RMK AO1 T10391150
54779K12N 12N20160122180510201/22/16 18:05:31  5-MIN K12N 222305Z AUTO 05003KT M04/M14 A3014 380 44 -1800 060/03 RMK AO1 T10391144
54779K12N 12N20160122181010201/22/16 18:10:31  5-MIN K12N 222310Z AUTO 00000KT M04/M14 A3016 370 44 -1800 000/00 RMK AO1 T10391144
54779K12N 12N20160122181510201/22/16 18:15:31  5-MIN K12N 222315Z AUTO 02003KT M04/M14 A3016 370 44 -1800 030/03 RMK AO1 T10391144
54779K12N 12N20160122182010201/22/16 18:20:31  5-MIN K12N 222320Z AUTO 04003KT M04/M15 A3015 380 42 -1800 060/03 RMK AO1 T10391150
54779K12N 12N20160122182510201/22/16 18:25:31  5-MIN K12N 222325Z AUTO 04003KT M04/M14 A3015 380 44 -1800 050/03 RMK AO1 T10391144
54779K12N 12N20160122183010201/22/16 18:30:31  5-MIN K12N 222330Z AUTO 04005KT M04/M14 A3015 380 44 -1800 050/05 RMK AO1 T10391144
54779K12N 12N20160122183510201/22/16 18:35:31  5-MIN K12N 222335Z AUTO VRB03KT M04/M15 A3015 370 42 -1800 VRB/03 RMK AO1 T10391150
54779K12N 12N20160122184010201/22/16 18:40:31  5-MIN K12N 222340Z AUTO VRB04KT M04/M14 A3015 370 44 -1800 VRB/04 RMK AO1 T10391144
54779K12N 12N20160122184510201/22/16 18:45:31  5-MIN K12N 222345Z AUTO 04005KT M04/M14 A3016 370 44 -1800 050/05 RMK AO1 T10391144
54779K12N 12N20160122185012701/22/16 18:50:31  5-MIN K12N 222350Z AUTO VRB04KT M04/M15 A3016 370 42 -1800 VRB/04 RMK AO1 SLP230 T10391150 11039 21044 56016
54779K12N 12N20160122185510201/22/16 18:55:31  5-MIN K12N 222355Z AUTO 02005KT M04/M15 A3016 370 42 -1800 040/05 RMK AO1 T10391150
54779K12N 12N20160122190010201/22/16 19:00:31  5-MIN K12N 230000Z AUTO 04006KT M04/M14 A3016 370 44 -1800 050/06 RMK AO1 T10391144
54779K12N 12N20160122190510201/22/16 19:05:31  5-MIN K12N 230005Z AUTO 04006KT M04/M14 A3016 370 44 -1800 050/06 RMK AO1 T10391144
54779K12N 12N20160122191010201/22/16 19:10:31  5-MIN K12N 230010Z AUTO 04006KT M04/M14 A3016 370 44 -1800 050/06 RMK AO1 T10391144
54779K12N 12N20160122191510201/22/16 19:15:31  5-MIN K12N 230015Z AUTO 04005KT M04/M14 A3016 370 44 -1800 050/05 RMK AO1 T10391144
54779K12N 12N20160122192010201/22/16 19:20:31  5-MIN K12N 230020Z AUTO VRB05KT M04/M14 A3016 360 44 -1800 VRB/05 RMK AO1 T10391144
54779K12N 12N20160122192510201/22/16 19:25:31  5-MIN K12N 230025Z AUTO VRB05KT M04/M14 A3016 370 44 -1800 VRB/05 RMK AO1 T10391144
54779K12N 12N20160122193010201/22/16 19:30:31  5-MIN K12N 230030Z AUTO 04008KT M04/M15 A3015 370 42 -1800 060/08 RMK AO1 T10391150
54779K12N 12N20160122193510201/22/16 19:35:31  5-MIN K12N 230035Z AUTO 03006KT M04/M14 A3014 380 44 -1800 040/06 RMK AO1 T10391144
54779K12N 12N20160122194010201/22/16 19:40:31  5-MIN K12N 230040Z AUTO 04007KT M04/M14 A3014 380 44 -1800 050/07 RMK AO1 T10391144
54779K12N 12N20160122194510201/22/16 19:45:31  5-MIN K12N 230045Z AUTO VRB06KT M04/M14 A3014 380 44 -1800 VRB/06 RMK AO1 T10391144
54779K12N 12N20160122195010901/22/16 19:50:31  5-MIN K12N 230050Z AUTO 03007KT M04/M14 A3014 380 44 -1800 050/07 RMK AO1 SLP224 T10391144
54779K12N 12N20160122195510201/22/16 19:55:31  5-MIN K12N 230055Z AUTO 03007KT M04/M15 A3014 380 42 -1800 050/07 RMK AO1 T10391150
54779K12N 12N20160122200010201/22/16 20:00:31  5-MIN K12N 230100Z AUTO 04008KT M04/M15 A3014 380 42 -1800 050/08 RMK AO1 T10391150
54779K12N 12N20160122200510201/22/16 20:05:31  5-MIN K12N 230105Z AUTO VRB06KT M04/M15 A3014 380 42 -1800 VRB/06 RMK AO1 T10391150
54779K12N 12N20160122201010201/22/16 20:10:31  5-MIN K12N 230110Z AUTO 04006KT M04/M15 A3013 390 42 -1800 060/06 RMK AO1 T10391150
54779K12N 12N20160122201510201/22/16 20:15:31  5-MIN K12N 230115Z AUTO 04005KT M04/M14 A3014 390 44 -1800 050/05 RMK AO1 T10391144
54779K12N 12N20160122202010201/22/16 20:20:31  5-MIN K12N 230120Z AUTO VRB04KT M04/M14 A3014 390 44 -1800 VRB/04 RMK AO1 T10391144
54779K12N 12N20160122202510201/22/16 20:25:31  5-MIN K12N 230125Z AUTO VRB05KT M04/M14 A3013 390 44 -1800 VRB/05 RMK AO1 T10391144
54779K12N 12N20160122203010201/22/16 20:30:31  5-MIN K12N 230130Z AUTO VRB06KT M04/M14 A3013 390 44 -1700 VRB/06 RMK AO1 T10391144
54779K12N 12N20160122203510201/22/16 20:35:31  5-MIN K12N 230135Z AUTO 04008KT M04/M15 A3012 400 42 -1700 060/08 RMK AO1 T10391150
54779K12N 12N20160122204010801/22/16 20:40:31  5-MIN K12N 230140Z AUTO 04009G15KT M04/M14 A3012 400 44 -1700 050/09G15 RMK AO1 T10391144
54779K12N 12N20160122204510801/22/16 20:45:31  5-MIN K12N 230145Z AUTO 04005G15KT M04/M14 A3012 400 44 -1700 050/05G15 RMK AO1 T10391144
54779K12N 12N20160122205010901/22/16 20:50:31  5-MIN K12N 230150Z AUTO VRB06KT M04/M14 A3013 400 44 -1700 VRB/06 RMK AO1 SLP218 T10391144
54779K12N 12N20160122205510201/22/16 20:55:31  5-MIN K12N 230155Z AUTO 04007KT M04/M14 A3012 400 44 -1700 050/07 RMK AO1 T10391144
54779K12N 12N20160122210010201/22/16 21:00:31  5-MIN K12N 230200Z AUTO 04005KT M04/M14 A3012 400 44 -1700 060/05 RMK AO1 T10391144
54779K12N 12N20160122210510201/22/16 21:05:31  5-MIN K12N 230205Z AUTO 06003KT M04/M14 A3013 390 44 -1700 070/03 RMK AO1 T10391144
54779K12N 12N20160122211010201/22/16 21:10:31  5-MIN K12N 230210Z AUTO VRB04KT M04/M14 A3013 390 44 -1800 VRB/04 RMK AO1 T10391144
54779K12N 12N20160122211510201/22/16 21:15:31  5-MIN K12N 230215Z AUTO 04005KT M04/M14 A3012 400 44 -1700 050/05 RMK AO1 T10391144
54779K12N 12N20160122212010201/22/16 21:20:31  5-MIN K12N 230220Z AUTO 04005KT M04/M14 A3012 400 44 -1700 050/05 RMK AO1 T10391144
54779K12N 12N20160122212510201/22/16 21:25:31  5-MIN K12N 230225Z AUTO VRB04KT M04/M14 A3013 390 44 -1800 VRB/04 RMK AO1 T10391144
54779K12N 12N20160122213010201/22/16 21:30:31  5-MIN K12N 230230Z AUTO 04004KT M04/M14 A3014 390 44 -1800 060/04 RMK AO1 T10391144
54779K12N 12N20160122213510201/22/16 21:35:31  5-MIN K12N 230235Z AUTO 03006KT M04/M14 A3014 380 44 -1800 050/06 RMK AO1 T10391144
54779K12N 12N20160122214010201/22/16 21:40:31  5-MIN K12N 230240Z AUTO VRB04KT M04/M14 A3013 390 44 -1800 VRB/04 RMK AO1 T10391144
54779K12N 12N20160122214510201/22/16 21:45:31  5-MIN K12N 230245Z AUTO 04004KT M04/M14 A3013 390 44 -1800 060/04 RMK AO1 T10391144
54779K12N 12N20160122215011501/22/16 21:50:31  5-MIN K12N 230250Z AUTO VRB04KT M04/M14 A3012 400 46 -1700 VRB/04 RMK AO1 SLP216 T10391139 55000
54779K12N 12N20160122215510201/22/16 21:55:31  5-MIN K12N 230255Z AUTO 03005KT M04/M14 A3012 400 44 -1700 040/05 RMK AO1 T10391144
54779K12N 12N20160122220010201/22/16 22:00:31  5-MIN K12N 230300Z AUTO 03006KT M04/M14 A3011 410 46 -1700 050/06 RMK AO1 T10391139
54779K12N 12N20160122220510201/22/16 22:05:31  5-MIN K12N 230305Z AUTO VRB06KT M04/M14 A3011 410 48 -1800 VRB/06 RMK AO1 T10441139
54779K12N 12N20160122221010201/22/16 22:10:31  5-MIN K12N 230310Z AUTO 04006KT M04/M14 A3010 420 48 -1800 050/06 RMK AO1 T10441139
54779K12N 12N20160122221510201/22/16 22:15:31  5-MIN K12N 230315Z AUTO 04004KT M04/M14 A3010 420 48 -1800 050/04 RMK AO1 T10441139
54779K12N 12N20160122222010201/22/16 22:20:31  5-MIN K12N 230320Z AUTO VRB06KT M04/M14 A3010 420 48 -1800 VRB/06 RMK AO1 T10441139
54779K12N 12N20160122222510201/22/16 22:25:31  5-MIN K12N 230325Z AUTO VRB05KT M04/M14 A3010 420 48 -1800 VRB/05 RMK AO1 T10441139
54779K12N 12N20160122223010201/22/16 22:30:31  5-MIN K12N 230330Z AUTO 04007KT M04/M14 A3009 430 48 -1800 050/07 RMK AO1 T10441139
54779K12N 12N20160122223510201/22/16 22:35:31  5-MIN K12N 230335Z AUTO 04007KT M04/M14 A3009 430 48 -1800 050/07 RMK AO1 T10441139
54779K12N 12N20160122224010201/22/16 22:40:31  5-MIN K12N 230340Z AUTO 04007KT M04/M14 A3008 430 48 -1800 050/07 RMK AO1 T10441139
54779K12N 12N20160122224510201/22/16 22:45:31  5-MIN K12N 230345Z AUTO VRB06KT M04/M13 A3009 430 50 -1800 VRB/06 RMK AO1 T10441133
54779K12N 12N20160122225010901/22/16 22:50:31  5-MIN K12N 230350Z AUTO 04005KT M04/M13 A3009 430 50 -1800 050/05 RMK AO1 SLP204 T10441133
54779K12N 12N20160122225510201/22/16 22:55:31  5-MIN K12N 230355Z AUTO 03007KT M04/M14 A3009 430 48 -1800 040/07 RMK AO1 T10441139
54779K12N 12N20160122230010201/22/16 23:00:31  5-MIN K12N 230400Z AUTO 03006KT M04/M14 A3009 430 48 -1800 050/06 RMK AO1 T10441139
54779K12N 12N20160122230511801/22/16 23:05:31  5-MIN K12N 230405Z AUTO 04007KT 340V070 M04/M14 A3008 430 48 -1800 050/07 350V080 RMK AO1 T10441139
54779K12N 12N20160122231010201/22/16 23:10:31  5-MIN K12N 230410Z AUTO VRB06KT M04/M14 A3008 430 48 -1800 VRB/06 RMK AO1 T10441139
54779K12N 12N20160122231510201/22/16 23:15:31  5-MIN K12N 230415Z AUTO 04007KT M04/M13 A3009 430 50 -1800 050/07 RMK AO1 T10441133
54779K12N 12N20160122232010201/22/16 23:20:31  5-MIN K12N 230420Z AUTO 03006KT M04/M14 A3008 430 48 -1800 050/06 RMK AO1 T10441139
54779K12N 12N20160122232510201/22/16 23:25:31  5-MIN K12N 230425Z AUTO 05007KT M04/M14 A3008 440 48 -1800 060/07 RMK AO1 T10441139
54779K12N 12N20160122233010201/22/16 23:30:31  5-MIN K12N 230430Z AUTO 04006KT M04/M14 A3008 440 48 -1800 050/06 RMK AO1 T10441139
54779K12N 12N20160122233510201/22/16 23:35:31  5-MIN K12N 230435Z AUTO 04008KT M04/M13 A3008 440 50 -1800 050/08 RMK AO1 T10441133
54779K12N 12N20160122234010201/22/16 23:40:31  5-MIN K12N 230440Z AUTO VRB06KT M04/M13 A3007 440 50 -1800 VRB/06 RMK AO1 T10441133
54779K12N 12N20160122234510201/22/16 23:45:31  5-MIN K12N 230445Z AUTO 04008KT M04/M13 A3007 450 50 -1700 050/08 RMK AO1 T10441133
54779K12N 12N20160122235011901/22/16 23:50:31  5-MIN K12N 230450Z AUTO VRB06KT M04/M13 A3007 450 50 -1800 VRB/06 RMK AO1 SLP197 T10441133 410391117
54779K12N 12N20160122235510201/22/16 23:55:31  5-MIN K12N 230455Z AUTO 04008KT M04/M13 A3007 450 50 -1800 050/08 RMK AO1 T10441133
54779K12N 12N20160123000010201/23/16 00:00:31  5-MIN K12N 230500Z AUTO 04007KT M04/M13 A3007 450 52 -1800 050/07 RMK AO1 T10441128
54779K12N 12N20160123000511801/23/16 00:05:31  5-MIN K12N 230505Z AUTO 04007KT 010V080 M04/M13 A3007 450 52 -1800 060/07 020V090 RMK AO1 T10441128
54779K12N 12N20160123001010201/23/16 00:10:31  5-MIN K12N 230510Z AUTO VRB06KT M04/M12 A3007 450 55 -1800 VRB/06 RMK AO1 T10441122
54779K12N 12N20160123001511801/23/16 00:15:31  5-MIN K12N 230515Z AUTO 03008KT 330V070 M05/M12 A3007 450 60 -1800 050/08 340V080 RMK AO1 T10501117
54779K12N 12N20160123002009201/23/16 00:20:31  5-MIN K12N 230520Z AUTO M05/M11 A3006 460 65 -1800 M /M RMK AO1 T10501106
54779K12N 12N20160123002510201/23/16 00:25:31  5-MIN K12N 230525Z AUTO 04007KT M05/M11 A3006 460 65 -1800 060/07 RMK AO1 T10501106
54779K12N 12N20160123003010201/23/16 00:30:31  5-MIN K12N 230530Z AUTO 04007KT M06/M10 A3005 460 71 -1900 050/07 RMK AO1 T10561100
54779K12N 12N20160123003510901/23/16 00:35:31  5-MIN K12N 230535Z AUTO VRB06KT M06/M10 A3004 470 71 -1900 VRB/06 RMK AO1 PRESFR T10561100
54779K12N 12N20160123004010901/23/16 00:40:31  5-MIN K12N 230540Z AUTO VRB04KT M06/M09 A3004 480 74 -1900 VRB/04 RMK AO1 PRESFR T10561094
54779K12N 12N20160123004510901/23/16 00:45:31  5-MIN K12N 230545Z AUTO 04007KT M06/M09 A3003 480 74 -1900 050/07 RMK AO1 PRESFR T10561094
54779K12N 12N20160123005014301/23/16 00:50:31  5-MIN K12N 230550Z AUTO 04007KT 010V070 M06/M09 A3003 480 74 -1900 050/07 020V080 RMK AO1 SLP184 T10561094 11039 21056 55013
54779K12N 12N20160123005510901/23/16 00:55:31  5-MIN K12N 230555Z AUTO 04009KT M06/M09 A3002 490 74 -1800 050/09 RMK AO1 PRESFR T10561094
54779K12N 12N20160123010010901/23/16 01:00:31  5-MIN K12N 230600Z AUTO 04009KT M06/M09 A3002 500 74 -1800 050/09 RMK AO1 PRESFR T10561094
54779K12N 12N20160123010510901/23/16 01:05:31  5-MIN K12N 230605Z AUTO 04009KT M06/M09 A3001 500 74 -1800 050/09 RMK AO1 PRESFR T10561094
54779K12N 12N20160123011011801/23/16 01:10:31  5-MIN K12N 230610Z AUTO 04007KT 340V110 M06/M09 A3000 510 74 -1800 050/07 350V120 RMK AO1 T10561094
54779K12N 12N20160123011512401/23/16 01:15:31  5-MIN K12N 230615Z AUTO 04007G17KT 330V080 M06/M09 A3000 510 74 -1800 050/07G17 340V090 RMK AO1 T10561094
54779K12N 12N20160123012012401/23/16 01:20:31  5-MIN K12N 230620Z AUTO 04008G16KT 340V060 M06/M09 A3000 510 74 -1800 050/08G16 350V070 RMK AO1 T10561094
54779K12N 12N20160123012510801/23/16 01:25:31  5-MIN K12N 230625Z AUTO 04010G17KT M06/M09 A3000 520 74 -1800 050/10G17 RMK AO1 T10561094
54779K12N 12N20160123013012401/23/16 01:30:31  5-MIN K12N 230630Z AUTO 03008G17KT 360V060 M06/M09 A3000 520 74 -1800 040/08G17 010V070 RMK AO1 T10561094
54779K12N 12N20160123013510801/23/16 01:35:31  5-MIN K12N 230635Z AUTO 04008G14KT M06/M09 A3000 510 74 -1800 060/08G14 RMK AO1 T10561094
54779K12N 12N20160123014010801/23/16 01:40:31  5-MIN K12N 230640Z AUTO 05009G14KT M06/M09 A3000 510 77 -1900 060/09G14 RMK AO1 T10611094
54779K12N 12N20160123014510201/23/16 01:45:31  5-MIN K12N 230645Z AUTO 04009KT M06/M09 A2999 520 77 -1900 050/09 RMK AO1 T10611094
54779K12N 12N20160123015011501/23/16 01:50:31  5-MIN K12N 230650Z AUTO 04009KT M06/M09 A2999 520 81 -1900 050/09 RMK AO1 SLP170 P0001 T10611089
54779K12N 12N20160123015510801/23/16 01:55:31  5-MIN K12N 230655Z AUTO 04009G15KT M06/M09 A2999 520 81 -1900 050/09G15 RMK AO1 T10611089
54779K12N 12N20160123020010801/23/16 02:00:31  5-MIN K12N 230700Z AUTO 04007G15KT M06/M09 A2999 520 77 -1900 050/07G15 RMK AO1 T10611094
54779K12N 12N20160123020510801/23/16 02:05:31  5-MIN K12N 230705Z AUTO 03008G17KT M06/M09 A2998 530 81 -1900 050/08G17 RMK AO1 T10611089
54779K12N 12N20160123021010801/23/16 02:10:31  5-MIN K12N 230710Z AUTO 04009G17KT M06/M09 A2997 540 81 -1900 050/09G17 RMK AO1 T10611089
54779K12N 12N20160123021511501/23/16 02:15:31  5-MIN K12N 230715Z AUTO 04007G15KT M06/M09 A2996 540 81 -1800 050/07G15 RMK AO1 PRESFR T10611089
54779K12N 12N20160123022011501/23/16 02:20:31  5-MIN K12N 230720Z AUTO 04012G17KT M06/M09 A2995 550 81 -1800 060/12G17 RMK AO1 PRESFR T10611089
54779K12N 12N20160123022511501/23/16 02:25:31  5-MIN K12N 230725Z AUTO 04010G17KT M06/M09 A2994 560 81 -1800 050/10G17 RMK AO1 PRESFR T10611089
54779K12N 12N20160123023011501/23/16 02:30:31  5-MIN K12N 230730Z AUTO 04011G17KT M06/M09 A2994 570 81 -1800 050/11G17 RMK AO1 PRESFR T10611089
54779K12N 12N20160123023510801/23/16 02:35:31  5-MIN K12N 230735Z AUTO 04011G18KT M06/M09 A2994 570 81 -1800 050/11G18 RMK AO1 T10611089
54779K12N 12N20160123024011401/23/16 02:40:31  5-MIN K12N 230740Z AUTO 04010G18KT M06/M09 A2994 570 81 -1800 050/10G18 RMK AO1 P0001 T10611089
54779K12N 12N20160123024511401/23/16 02:45:31  5-MIN K12N 230745Z AUTO 04011G18KT M06/M09 A2994 570 81 -1800 050/11G18 RMK AO1 P0001 T10611089
54779K12N 12N20160123025012101/23/16 02:50:31  5-MIN K12N 230750Z AUTO 04009G18KT M07/M09 A2993 580 84 -1900 050/09G18 RMK AO1 SLP151 P0001 T10671089
54779K12N 12N20160123025512401/23/16 02:55:31  5-MIN K12N 230755Z AUTO 04011G19KT 350V060 M07/M09 A2993 580 84 -1900 050/11G19 360V070 RMK AO1 T10671089
54779K12N 12N20160123030012401/23/16 03:00:31  5-MIN K12N 230800Z AUTO 04010G19KT 360V070 M07/M09 A2992 590 84 -1900 050/10G19 010V080 RMK AO1 T10671089
54779K12N 12N20160123030513701/23/16 03:05:31  5-MIN K12N 230805Z AUTO 03012G20KT 350V080 M07/M09 A2991 590 84 -1900 050/12G20 360V090 RMK AO1 PRESFR P0001 T10671089
54779K12N 12N20160123031013001/23/16 03:10:31  5-MIN K12N 230810Z AUTO 03009G20KT 340V060 M07/M09 A2992 590 84 -1900 040/09G20 350V070 RMK AO1 P0001 T10671089
54779K12N 12N20160123031513001/23/16 03:15:31  5-MIN K12N 230815Z AUTO 05011G19KT 010V080 M07/M09 A2992 580 84 -1900 060/11G19 020V090 RMK AO1 P0001 T10671089
54779K12N 12N20160123032011401/23/16 03:20:31  5-MIN K12N 230820Z AUTO 04010G18KT M07/M09 A2992 580 84 -1900 050/10G18 RMK AO1 P0001 T10671089
54779K12N 12N20160123032513001/23/16 03:25:31  5-MIN K12N 230825Z AUTO 05008G17KT 010V080 M07/M09 A2992 590 84 -1900 060/08G17 020V090 RMK AO1 P0002 T10671089
54779K12N 12N20160123033011401/23/16 03:30:31  5-MIN K12N 230830Z AUTO 04011G19KT M07/M09 A2991 590 84 -1900 050/11G19 RMK AO1 P0002 T10671089
54779K12N 12N20160123033512101/23/16 03:35:31  5-MIN K12N 230835Z AUTO 03011G19KT M07/M09 A2990 600 84 -1800 050/11G19 RMK AO1 PRESFR P0002 T10671089
54779K12N 12N20160123034012101/23/16 03:40:31  5-MIN K12N 230840Z AUTO 03012G18KT M07/M09 A2989 610 84 -1800 050/12G18 RMK AO1 PRESFR P0002 T10671089
54779K12N 12N20160123034511401/23/16 03:45:31  5-MIN K12N 230845Z AUTO 04013G21KT M07/M09 A2989 610 84 -1800 050/13G21 RMK AO1 P0002 T10671089
54779K12N 12N20160123035014901/23/16 03:50:31  5-MIN K12N 230850Z AUTO 03008G21KT 330V050 M07/M09 A2989 610 84 -1800 040/08G21 340V060 RMK AO1 SLP138 P0003 60005 T10671089 58033
54779K12N 12N20160123035510801/23/16 03:55:31  5-MIN K12N 230855Z AUTO 03011G18KT M07/M08 A2989 610 88 -1800 050/11G18 RMK AO1 T10671083
54779K12N 12N20160123040012401/23/16 04:00:31  5-MIN K12N 230900Z AUTO 04011G19KT 350V050 M07/M08 A2989 620 88 -1800 050/11G19 360V060 RMK AO1 T10671083
54779K12N 12N20160123040513001/23/16 04:05:31  5-MIN K12N 230905Z AUTO 04010G19KT 350V060 M07/M09 A2989 620 84 -1800 050/10G19 360V070 RMK AO1 P0001 T10671089
54779K12N 12N20160123041011401/23/16 04:10:31  5-MIN K12N 230910Z AUTO 04010G19KT M07/M08 A2989 610 88 -1800 050/10G19 RMK AO1 P0001 T10671083
54779K12N 12N20160123041511401/23/16 04:15:31  5-MIN K12N 230915Z AUTO 04010G15KT M07/M09 A2989 610 84 -1800 050/10G15 RMK AO1 P0002 T10671089
54779K12N 12N20160123042011401/23/16 04:20:31  5-MIN K12N 230920Z AUTO 05011G18KT M07/M09 A2989 610 84 -1800 060/11G18 RMK AO1 P0002 T10671089
54779K12N 12N20160123042511401/23/16 04:25:31  5-MIN K12N 230925Z AUTO 04010G18KT M07/M09 A2989 610 84 -1800 050/10G18 RMK AO1 P0002 T10671089
54779K12N 12N20160123043011401/23/16 04:30:31  5-MIN K12N 230930Z AUTO 04009G16KT M07/M09 A2989 610 84 -1800 050/09G16 RMK AO1 P0003 T10671089
54779K12N 12N20160123043513001/23/16 04:35:31  5-MIN K12N 230935Z AUTO 04010G17KT 360V060 M07/M09 A2988 620 84 -1800 050/10G17 010V070 RMK AO1 P0004 T10671089
54779K12N 12N20160123044012101/23/16 04:40:31  5-MIN K12N 230940Z AUTO 04011G17KT M07/M09 A2987 630 84 -1800 050/11G17 RMK AO1 PRESFR P0004 T10671089
54779K12N 12N20160123044511401/23/16 04:45:31  5-MIN K12N 230945Z AUTO 03008G15KT M07/M09 A2987 630 84 -1800 050/08G15 RMK AO1 P0005 T10671089
54779K12N 12N20160123045012101/23/16 04:50:31  5-MIN K12N 230950Z AUTO 03011G19KT M07/M09 A2987 630 84 -1800 050/11G19 RMK AO1 SLP130 P0005 T10671089
54779K12N 12N20160123045510801/23/16 04:55:31  5-MIN K12N 230955Z AUTO 03009G19KT M07/M09 A2987 630 84 -1800 050/09G19 RMK AO1 T10671089
54779K12N 12N20160123050010801/23/16 05:00:31  5-MIN K12N 231000Z AUTO 04009G19KT M07/M09 A2987 630 84 -1800 050/09G19 RMK AO1 T10671089
54779K12N 12N20160123050511401/23/16 05:05:31  5-MIN K12N 231005Z AUTO 03009G18KT M07/M09 A2986 640 84 -1800 050/09G18 RMK AO1 P0001 T10671089
54779K12N 12N20160123051012101/23/16 05:10:31  5-MIN K12N 231010Z AUTO 04011G19KT M07/M09 A2985 650 84 -1800 050/11G19 RMK AO1 PRESFR P0001 T10671089
54779K12N 12N20160123051512101/23/16 05:15:31  5-MIN K12N 231015Z AUTO 03010G19KT M07/M09 A2984 660 84 -1800 050/10G19 RMK AO1 PRESFR P0001 T10671089
54779K12N 12N20160123052011401/23/16 05:20:31  5-MIN K12N 231020Z AUTO 03009G17KT M07/M09 A2983 670 84 -1800 040/09G17 RMK AO1 P0002 T10671089
54779K12N 12N20160123052511401/23/16 05:25:31  5-MIN K12N 231025Z AUTO 04011G19KT M07/M09 A2983 670 84 -1800 050/11G19 RMK AO1 P0002 T10671089
54779K12N 12N20160123053011401/23/16 05:30:31  5-MIN K12N 231030Z AUTO 03009G19KT M07/M09 A2983 670 84 -1800 050/09G19 RMK AO1 P0002 T10671089
54779K12N 12N20160123053511401/23/16 05:35:31  5-MIN K12N 231035Z AUTO 04012G21KT M07/M09 A2983 670 88 -1800 050/12G21 RMK AO1 P0002 T10721089
54779K12N 12N20160123054013001/23/16 05:40:31  5-MIN K12N 231040Z AUTO 04010G21KT 350V050 M07/M09 A2983 670 88 -1800 050/10G21 360V060 RMK AO1 P0003 T10721089
54779K12N 12N20160123054511401/23/16 05:45:31  5-MIN K12N 231045Z AUTO 03010G19KT M07/M09 A2982 680 88 -1800 050/10G19 RMK AO1 P0003 T10721089
54779K12N 12N20160123055012101/23/16 05:50:31  5-MIN K12N 231050Z AUTO 04012G24KT M07/M09 A2982 680 88 -1800 050/12G24 RMK AO1 SLP111 P0003 T10721089
54779K12N 12N20160123055512401/23/16 05:55:31  5-MIN K12N 231055Z AUTO 04008G24KT 320V060 M07/M09 A2983 670 84 -1800 050/08G24 330V070 RMK AO1 T10671089
54779K12N 12N20160123060010801/23/16 06:00:31  5-MIN K12N 231100Z AUTO 04010G20KT M07/M09 A2983 670 88 -1800 050/10G20 RMK AO1 T10721089
54779K12N 12N20160123060511401/23/16 06:05:31  5-MIN K12N 231105Z AUTO 03013G18KT M07/M09 A2982 670 84 -1800 050/13G18 RMK AO1 P0001 T10671089
54779K12N 12N20160123061011401/23/16 06:10:31  5-MIN K12N 231110Z AUTO 04013G24KT M07/M09 A2982 680 88 -1800 050/13G24 RMK AO1 P0002 T10721089
54779K12N 12N20160123061513001/23/16 06:15:31  5-MIN K12N 231115Z AUTO 04009G24KT 360V060 M07/M09 A2983 670 88 -1800 060/09G24 010V070 RMK AO1 P0003 T10721089
54779K12N 12N20160123062011401/23/16 06:20:31  5-MIN K12N 231120Z AUTO 04009G20KT M07/M08 A2983 670 92 -1800 050/09G20 RMK AO1 P0004 T10721083
54779K12N 12N20160123062511401/23/16 06:25:31  5-MIN K12N 231125Z AUTO 03010G21KT M07/M09 A2983 670 84 -1800 050/10G21 RMK AO1 P0005 T10671089
54779K12N 12N20160123063011401/23/16 06:30:31  5-MIN K12N 231130Z AUTO 04010G21KT M07/M09 A2982 680 88 -1800 050/10G21 RMK AO1 P0006 T10721089
54779K12N 12N20160123063513701/23/16 06:35:31  5-MIN K12N 231135Z AUTO 04012G18KT 340V050 M07/M09 A2980 690 88 -1800 050/12G18 350V060 RMK AO1 PRESFR P0007 T10721089
54779K12N 12N20160123064012101/23/16 06:40:31  5-MIN K12N 231140Z AUTO 04013G22KT M07/M09 A2979 710 88 -1800 050/13G22 RMK AO1 PRESFR P0008 T10721089
54779K12N 12N20160123064511401/23/16 06:45:31  5-MIN K12N 231145Z AUTO 04012G22KT M07/M09 A2979 710 88 -1800 050/12G22 RMK AO1 P0009 T10721089
54779K12N 12N20160123065015101/23/16 06:50:31  5-MIN K12N 231150Z AUTO 03010G21KT M07/M09 A2978 710 88 -1800 050/10G21 RMK AO1 SLP101 P0010 60024 70025 T10721089 11056 21072 56044
54779K12N 12N20160123065511401/23/16 06:55:31  5-MIN K12N 231155Z AUTO 04011G18KT M07/M09 A2977 720 88 -1800 050/11G18 RMK AO1 P0001 T10721089
54779K12N 12N20160123070013701/23/16 07:00:31  5-MIN K12N 231200Z AUTO 03011G19KT 340V050 M07/M09 A2976 730 88 -1800 050/11G19 350V060 RMK AO1 PRESFR P0002 T10721089
54779K12N 12N20160123070512101/23/16 07:05:31  5-MIN K12N 231205Z AUTO 04012G20KT M07/M09 A2976 740 88 -1700 050/12G20 RMK AO1 PRESFR P0004 T10721089
54779K12N 12N20160123071013701/23/16 07:10:31  5-MIN K12N 231210Z AUTO 04011G21KT 010V090 M07/M08 A2973 760 92 -1700 050/11G21 020V100 RMK AO1 PRESFR P0004 T10721083
54779K12N 12N20160123071513001/23/16 07:15:31  5-MIN K12N 231215Z AUTO 04010G21KT 360V080 M07/M08 A2977 720 92 -1800 050/10G21 010V090 RMK AO1 P0005 T10721083
54779K12N 12N20160123072011401/23/16 07:20:31  5-MIN K12N 231220Z AUTO 04012G19KT M07/M08 A2977 730 92 -1800 050/12G19 RMK AO1 P0006 T10721083
54779K12N 12N20160123072513001/23/16 07:25:31  5-MIN K12N 231225Z AUTO 03011G21KT 360V080 M07/M08 A2976 730 92 -1800 050/11G21 010V090 RMK AO1 P0006 T10721083
54779K12N 12N20160123073011401/23/16 07:30:31  5-MIN K12N 231230Z AUTO 04011G21KT M07/M08 A2975 740 92 -1700 050/11G21 RMK AO1 P0007 T10721083
54779K12N 12N20160123073510501/23/16 07:35:31  5-MIN K12N 231235Z AUTO M07/M08 A2975 750 92 -1700 M /M RMK AO1 PRESFR P0007 T10721083
54779K12N 12N20160123074011401/23/16 07:40:31  5-MIN K12N 231240Z AUTO 04012G21KT M07/M08 A2975 740 92 -1700 050/12G21 RMK AO1 P0008 T10721083
54779K12N 12N20160123074509801/23/16 07:45:31  5-MIN K12N 231245Z AUTO M07/M08 A2976 730 92 -1800 M /M RMK AO1 P0008 T10721083
54779K12N 12N20160123075012101/23/16 07:50:31  5-MIN K12N 231250Z AUTO 04011G19KT M07/M08 A2976 730 92 -1800 050/11G19 RMK AO1 SLP093 P0009 T10721083
54779K12N 12N20160123075511501/23/16 07:55:31  5-MIN K12N 231255Z AUTO 04012G20KT M07/M08 A2977 720 92 -1800 050/12G20 RMK AO1 PRESRR T10721083
54779K12N 12N20160123080012401/23/16 08:00:31  5-MIN K12N 231300Z AUTO 04011G20KT 360V060 M07/M08 A2977 720 88 -1700 050/11G20 010V070 RMK AO1 T10671083
54779K12N 12N20160123080511401/23/16 08:05:31  5-MIN K12N 231305Z AUTO 04011G19KT M07/M08 A2977 730 92 -1800 050/11G19 RMK AO1 P0001 T10721083
54779K12N 12N20160123081011401/23/16 08:10:31  5-MIN K12N 231310Z AUTO 04012G23KT M07/M08 A2977 720 88 -1700 050/12G23 RMK AO1 P0001 T10671083
54779K12N 12N20160123081511401/23/16 08:15:31  5-MIN K12N 231315Z AUTO 03010G23KT M07/M08 A2976 740 88 -1700 050/10G23 RMK AO1 P0001 T10671083
54779K12N 12N20160123082013001/23/16 08:20:31  5-MIN K12N 231320Z AUTO 03013G22KT 340V050 M07/M08 A2975 740 92 -1700 040/13G22 350V060 RMK AO1 P0002 T10721083
54779K12N 12N20160123082513001/23/16 08:25:31  5-MIN K12N 231325Z AUTO 04011G22KT 340V070 M07/M08 A2976 730 92 -1800 050/11G22 350V080 RMK AO1 P0003 T10721083
54779K12N 12N20160123083011401/23/16 08:30:31  5-MIN K12N 231330Z AUTO 04011G21KT M07/M08 A2976 730 92 -1800 050/11G21 RMK AO1 P0004 T10721083
54779K12N 12N20160123083511401/23/16 08:35:31  5-MIN K12N 231335Z AUTO 04012G22KT M07/M08 A2977 730 92 -1800 060/12G22 RMK AO1 P0004 T10721083
54779K12N 12N20160123084011401/23/16 08:40:31  5-MIN K12N 231340Z AUTO 05011G22KT M07/M08 A2977 720 88 -1700 060/11G22 RMK AO1 P0005 T10671083
54779K12N 12N20160123084511401/23/16 08:45:31  5-MIN K12N 231345Z AUTO 04009G22KT M07/M08 A2977 720 88 -1700 050/09G22 RMK AO1 P0006 T10671083
54779K12N 12N20160123085013701/23/16 08:50:31  5-MIN K12N 231350Z AUTO 03010G18KT 290V050 M07/M08 A2978 720 88 -1700 040/10G18 300V060 RMK AO1 SLP098 P0007 T10671083
54779K12N 12N20160123085510801/23/16 08:55:31  5-MIN K12N 231355Z AUTO 04010G18KT M07/M08 A2978 720 88 -1700 050/10G18 RMK AO1 T10671083
54779K12N 12N20160123090011401/23/16 09:00:31  5-MIN K12N 231400Z AUTO 03011G20KT M07/M08 A2977 720 88 -1700 050/11G20 RMK AO1 P0001 T10671083
54779K12N 12N20160123090511401/23/16 09:05:31  5-MIN K12N 231405Z AUTO 04012G20KT M07/M08 A2976 730 88 -1700 050/12G20 RMK AO1 P0002 T10671083
54779K12N 12N20160123091013701/23/16 09:10:31  5-MIN K12N 231410Z AUTO 03011G20KT 350V050 M07/M08 A2975 740 92 -1700 050/11G20 360V060 RMK AO1 PRESFR P0003 T10721083
54779K12N 12N20160123091512101/23/16 09:15:31  5-MIN K12N 231415Z AUTO 03011G19KT M07/M08 A2975 750 92 -1700 050/11G19 RMK AO1 PRESFR P0003 T10721083
54779K12N 12N20160123092009801/23/16 09:20:31  5-MIN K12N 231420Z AUTO M07/M08 A2974 750 92 -1700 M /M RMK AO1 P0004 T10721083
54779K12N 12N20160123092509801/23/16 09:25:31  5-MIN K12N 231425Z AUTO M07/M08 A2974 750 92 -1700 M /M RMK AO1 P0004 T10721083
54779K12N 12N20160123093009801/23/16 09:30:31  5-MIN K12N 231430Z AUTO M07/M08 A2974 750 92 -1700 M /M RMK AO1 P0005 T10721083
54779K12N 12N20160123093513201/23/16 09:35:31  5-MIN K12N 231435Z AUTO 03014G55KT M07/M08 A2974 750 92 -1700 050/14G55 RMK AO1 PK WND 28055/1432 P0006 T10721083
54779K12N 12N20160123094013201/23/16 09:40:31  5-MIN K12N 231440Z AUTO 04012G55KT M07/M08 A2974 750 92 -1700 050/12G55 RMK AO1 PK WND 28055/1432 P0006 T10721083
54779K12N 12N20160123094513201/23/16 09:45:31  5-MIN K12N 231445Z AUTO 04014G26KT M07/M08 A2975 750 88 -1700 050/14G26 RMK AO1 PK WND 28055/1432 P0007 T10671083
54779K12N 12N20160123095015101/23/16 09:50:31  5-MIN K12N 231450Z AUTO 04012G22KT M07/M08 A2974 750 88 -1700 050/12G22 RMK AO1 PK WND 28055/1432 SLP087 P0008 60025 T10671083 58039
54779K12N 12N20160123095510801/23/16 09:55:31  5-MIN K12N 231455Z AUTO 04013G23KT M07/M08 A2974 750 88 -1700 050/13G23 RMK AO1 T10671083
54779K12N 12N20160123100011401/23/16 10:00:31  5-MIN K12N 231500Z AUTO 04013G23KT M07/M08 A2974 750 88 -1700 050/13G23 RMK AO1 P0001 T10671083
54779K12N 12N20160123100511401/23/16 10:05:31  5-MIN K12N 231505Z AUTO 04013G22KT M07/M08 A2975 750 88 -1700 050/13G22 RMK AO1 P0002 T10671083
54779K12N 12N20160123101013001/23/16 10:10:31  5-MIN K12N 231510Z AUTO 04011G22KT 360V060 M07/M08 A2974 750 88 -1700 050/11G22 010V070 RMK AO1 P0002 T10671083
54779K12N 12N20160123101513001/23/16 10:15:31  5-MIN K12N 231515Z AUTO 03012G20KT 330V050 M07/M08 A2974 760 88 -1700 040/12G20 340V060 RMK AO1 P0003 T10671083
54779K12N 12N20160123102011401/23/16 10:20:31  5-MIN K12N 231520Z AUTO 03013G23KT M07/M08 A2973 760 88 -1600 050/13G23 RMK AO1 P0004 T10671083
54779K12N 12N20160123102511401/23/16 10:25:31  5-MIN K12N 231525Z AUTO 04013G23KT M07/M08 A2973 760 88 -1600 050/13G23 RMK AO1 P0004 T10671083
54779K12N 12N20160123103013701/23/16 10:30:31  5-MIN K12N 231530Z AUTO 03010G22KT 290V050 M07/M08 A2972 770 88 -1600 040/10G22 300V060 RMK AO1 PRESFR P0005 T10671083
54779K12N 12N20160123103511401/23/16 10:35:31  5-MIN K12N 231535Z AUTO 03010G24KT M07/M08 A2972 770 88 -1600 040/10G24 RMK AO1 P0005 T10671083
54779K12N 12N20160123104013001/23/16 10:40:31  5-MIN K12N 231540Z AUTO 03011G24KT 350V050 M07/M08 A2971 780 88 -1600 040/11G24 360V060 RMK AO1 P0005 T10671083
54779K12N 12N20160123104513001/23/16 10:45:31  5-MIN K12N 231545Z AUTO 03009G22KT 310V050 M07/M08 A2972 770 88 -1600 040/09G22 320V060 RMK AO1 P0005 T10671083
54779K12N 12N20160123105013701/23/16 10:50:31  5-MIN K12N 231550Z AUTO 02010G21KT 330V050 M07/M08 A2972 770 88 -1600 040/10G21 340V060 RMK AO1 SLP079 P0006 T10671083
54779K12N 12N20160123105512401/23/16 10:55:31  5-MIN K12N 231555Z AUTO 03009G19KT 340V060 M07/M08 A2972 770 88 -1600 050/09G19 350V070 RMK AO1 T10671083
54779K12N 12N20160123110012401/23/16 11:00:31  5-MIN K12N 231600Z AUTO 03011G20KT 350V060 M07/M08 A2971 780 88 -1600 040/11G20 360V070 RMK AO1 T10671083
54779K12N 12N20160123110513001/23/16 11:05:31  5-MIN K12N 231605Z AUTO 03012G21KT 340V050 M07/M08 A2970 790 88 -1600 040/12G21 350V060 RMK AO1 P0001 T10671083
54779K12N 12N20160123111013701/23/16 11:10:31  5-MIN K12N 231610Z AUTO 03009G21KT 350V060 M07/M08 A2969 790 88 -1600 050/09G21 360V070 RMK AO1 PRESFR P0001 T10671083
54779K12N 12N20160123111513001/23/16 11:15:31  5-MIN K12N 231615Z AUTO 03013G25KT 340V050 M07/M08 A2969 800 88 -1600 050/13G25 350V060 RMK AO1 P0002 T10671083
54779K12N 12N20160123112013001/23/16 11:20:31  5-MIN K12N 231620Z AUTO 03009G25KT 340V050 M07/M08 A2969 800 88 -1600 040/09G25 350V060 RMK AO1 P0002 T10671083
54779K12N 12N20160123112511401/23/16 11:25:31  5-MIN K12N 231625Z AUTO 04014G22KT M07/M08 A2969 800 88 -1600 050/14G22 RMK AO1 P0003 T10671083
54779K12N 12N20160123113011401/23/16 11:30:31  5-MIN K12N 231630Z AUTO 04009G22KT M07/M08 A2968 810 88 -1600 050/09G22 RMK AO1 P0003 T10671083
54779K12N 12N20160123113513001/23/16 11:35:31  5-MIN K12N 231635Z AUTO 03008G21KT 360V060 M07/M08 A2967 810 88 -1600 040/08G21 010V070 RMK AO1 P0004 T10671083
54779K12N 12N20160123114011401/23/16 11:40:31  5-MIN K12N 231640Z AUTO 04010G20KT M07/M08 A2967 820 88 -1600 050/10G20 RMK AO1 P0004 T10671083
54779K12N 12N20160123114511401/23/16 11:45:31  5-MIN K12N 231645Z AUTO 04009G20KT M07/M08 A2967 810 88 -1600 050/09G20 RMK AO1 P0005 T10671083
54779K12N 12N20160123115013701/23/16 11:50:31  5-MIN K12N 231650Z AUTO 03009G18KT 330V050 M07/M08 A2967 820 88 -1600 050/09G18 340V060 RMK AO1 SLP062 P0005 T10671083
54779K12N 12N20160123115510801/23/16 11:55:31  5-MIN K12N 231655Z AUTO 04010G19KT M07/M08 A2967 820 88 -1600 050/10G19 RMK AO1 T10671083
54779K12N 12N20160123120011401/23/16 12:00:31  5-MIN K12N 231700Z AUTO 04012G19KT M07/M08 A2967 820 88 -1600 050/12G19 RMK AO1 P0001 T10671083
54779K12N 12N20160123120511401/23/16 12:05:31  5-MIN K12N 231705Z AUTO 03009G19KT M07/M08 A2966 820 88 -1600 050/09G19 RMK AO1 P0001 T10671083
54779K12N 12N20160123121013001/23/16 12:10:31  5-MIN K12N 231710Z AUTO 03011G19KT 350V050 M07/M08 A2966 830 92 -1600 050/11G19 360V060 RMK AO1 P0002 T10671078
54779K12N 12N20160123121511401/23/16 12:15:31  5-MIN K12N 231715Z AUTO 04010G19KT M07/M08 A2966 830 88 -1600 050/10G19 RMK AO1 P0002 T10671083
54779K12N 12N20160123122011401/23/16 12:20:31  5-MIN K12N 231720Z AUTO 03012G17KT M07/M08 A2966 830 92 -1600 040/12G17 RMK AO1 P0003 T10671078
54779K12N 12N20160123122511401/23/16 12:25:31  5-MIN K12N 231725Z AUTO 03008G17KT M07/M08 A2966 830 92 -1600 040/08G17 RMK AO1 P0003 T10671078
54779K12N 12N20160123123013001/23/16 12:30:31  5-MIN K12N 231730Z AUTO 03007G18KT 340V050 M07/M08 A2966 830 92 -1600 040/07G18 350V060 RMK AO1 P0004 T10671078
54779K12N 12N20160123123513001/23/16 12:35:31  5-MIN K12N 231735Z AUTO 03007G18KT 350V050 M06/M08 A2966 830 88 -1500 040/07G18 360V060 RMK AO1 P0004 T10611078
54779K12N 12N20160123124013001/23/16 12:40:31  5-MIN K12N 231740Z AUTO 03007G17KT 340V050 M06/M08 A2966 830 88 -1500 040/07G17 350V060 RMK AO1 P0005 T10611078
54779K12N 12N20160123124513001/23/16 12:45:31  5-MIN K12N 231745Z AUTO 03008G17KT 330V060 M06/M08 A2966 830 88 -1500 040/08G17 340V070 RMK AO1 P0005 T10611078
54779K12N 12N20160123125013901/23/16 12:50:31  5-MIN K12N 231750Z AUTO VRB06KT M06/M08 A2966 820 88 -1500 VRB/06 RMK AO1 SLP059 P0005 60042 T10611078 11061 21072 58010
54779K12N 12N20160123125510201/23/16 12:55:31  5-MIN K12N 231755Z AUTO 04008KT M06/M08 A2967 820 88 -1500 050/08 RMK AO1 T10611078
54779K12N 12N20160123130011801/23/16 13:00:31  5-MIN K12N 231800Z AUTO 04008KT 350V050 M06/M08 A2967 810 88 -1500 050/08 360V060 RMK AO1 T10611078
54779K12N 12N20160123130510801/23/16 13:05:31  5-MIN K12N 231805Z AUTO VRB06KT M06/M08 A2967 820 88 -1500 VRB/06 RMK AO1 P0001 T10611078
54779K12N 12N20160123131012401/23/16 13:10:31  5-MIN K12N 231810Z AUTO 03007KT 340V060 M06/M08 A2967 820 88 -1500 040/07 350V070 RMK AO1 P0001 T10611078
54779K12N 12N20160123131510801/23/16 13:15:31  5-MIN K12N 231815Z AUTO 03008KT M06/M08 A2967 820 88 -1500 040/08 RMK AO1 P0002 T10611078
54779K12N 12N20160123132013001/23/16 13:20:31  5-MIN K12N 231820Z AUTO 03009G18KT 340V050 M06/M08 A2967 820 88 -1500 050/09G18 350V060 RMK AO1 P0002 T10611078
54779K12N 12N20160123132511401/23/16 13:25:31  5-MIN K12N 231825Z AUTO 03009G18KT M06/M08 A2966 820 88 -1500 040/09G18 RMK AO1 P0002 T10611078
54779K12N 12N20160123133011401/23/16 13:30:31  5-MIN K12N 231830Z AUTO 04011G18KT M06/M08 A2966 830 88 -1500 050/11G18 RMK AO1 P0003 T10611078
54779K12N 12N20160123133511401/23/16 13:35:31  5-MIN K12N 231835Z AUTO 04011G17KT M06/M08 A2966 830 88 -1500 050/11G17 RMK AO1 P0004 T10611078
54779K12N 12N20160123134011401/23/16 13:40:31  5-MIN K12N 231840Z AUTO 03009G16KT M06/M07 A2966 830 92 -1500 050/09G16 RMK AO1 P0005 T10611072
54779K12N 12N20160123134513001/23/16 13:45:31  5-MIN K12N 231845Z AUTO 03009G18KT 330V060 M06/M07 A2966 830 92 -1500 040/09G18 340V070 RMK AO1 P0006 T10611072
54779K12N 12N20160123135012101/23/16 13:50:31  5-MIN K12N 231850Z AUTO 04011G18KT M06/M07 A2966 830 92 -1500 050/11G18 RMK AO1 SLP059 P0007 T10611072
54779K12N 12N20160123135510801/23/16 13:55:31  5-MIN K12N 231855Z AUTO 03010G18KT M06/M07 A2966 830 92 -1500 050/10G18 RMK AO1 T10611072
54779K12N 12N20160123140013001/23/16 14:00:31  5-MIN K12N 231900Z AUTO 04008G18KT 330V080 M06/M07 A2966 830 92 -1500 050/08G18 340V090 RMK AO1 P0002 T10611072
54779K12N 12N20160123140513001/23/16 14:05:31  5-MIN K12N 231905Z AUTO 03008G18KT 340V060 M06/M07 A2966 830 92 -1500 040/08G18 350V070 RMK AO1 P0003 T10611072
54779K12N 12N20160123141011401/23/16 14:10:31  5-MIN K12N 231910Z AUTO 03010G19KT M06/M07 A2966 820 92 -1500 050/10G19 RMK AO1 P0003 T10611072
54779K12N 12N20160123141511401/23/16 14:15:31  5-MIN K12N 231915Z AUTO 03010G19KT M06/M07 A2967 820 92 -1500 050/10G19 RMK AO1 P0005 T10611072
54779K12N 12N20160123142011401/23/16 14:20:31  5-MIN K12N 231920Z AUTO 04009G17KT M06/M07 A2967 820 92 -1500 050/09G17 RMK AO1 P0005 T10611072
54779K12N 12N20160123142511401/23/16 14:25:31  5-MIN K12N 231925Z AUTO 04009G19KT M06/M07 A2967 810 92 -1500 050/09G19 RMK AO1 P0007 T10611072
54779K12N 12N20160123143013001/23/16 14:30:31  5-MIN K12N 231930Z AUTO 04010G19KT 340V060 M06/M07 A2968 810 92 -1500 050/10G19 350V070 RMK AO1 P0007 T10611072
54779K12N 12N20160123143513001/23/16 14:35:31  5-MIN K12N 231935Z AUTO 04012G19KT 360V070 M06/M07 A2968 810 92 -1500 050/12G19 010V080 RMK AO1 P0008 T10611072
54779K12N 12N20160123144013001/23/16 14:40:31  5-MIN K12N 231940Z AUTO 04008G18KT 350V060 M06/M07 A2968 810 92 -1500 050/08G18 360V070 RMK AO1 P0009 T10611072
54779K12N 12N20160123144513001/23/16 14:45:31  5-MIN K12N 231945Z AUTO 03008G18KT 340V060 M06/M07 A2968 810 92 -1500 040/08G18 350V070 RMK AO1 P0010 T10611072
54779K12N 12N20160123145013701/23/16 14:50:31  5-MIN K12N 231950Z AUTO 03011G18KT 350V050 M06/M07 A2968 810 92 -1500 050/11G18 360V060 RMK AO1 SLP066 P0012 T10611072
54779K12N 12N20160123145512401/23/16 14:55:31  5-MIN K12N 231955Z AUTO 03008G20KT 350V050 M06/M07 A2968 810 92 -1500 040/08G20 360V060 RMK AO1 T10611072
54779K12N 12N20160123150013001/23/16 15:00:31  5-MIN K12N 232000Z AUTO 04008G20KT 350V050 M06/M07 A2968 810 92 -1500 050/08G20 360V060 RMK AO1 P0001 T10611072
54779K12N 12N20160123150511401/23/16 15:05:31  5-MIN K12N 232005Z AUTO 03007G17KT M06/M07 A2968 800 92 -1500 040/07G17 RMK AO1 P0003 T10611072
54779K12N 12N20160123151011401/23/16 15:10:31  5-MIN K12N 232010Z AUTO 03008G17KT M06/M07 A2968 800 92 -1500 050/08G17 RMK AO1 P0004 T10611072
54779K12N 12N20160123151513001/23/16 15:15:31  5-MIN K12N 232015Z AUTO 03008G17KT 350V060 M06/M07 A2969 800 96 -1500 040/08G17 360V070 RMK AO1 P0006 T10611067
54779K12N 12N20160123152013001/23/16 15:20:31  5-MIN K12N 232020Z AUTO 03008G17KT 320V070 M06/M07 A2969 800 96 -1500 040/08G17 330V080 RMK AO1 P0006 T10611067
54779K12N 12N20160123152513001/23/16 15:25:31  5-MIN K12N 232025Z AUTO 03007G14KT 360V060 M06/M07 A2969 800 96 -1500 050/07G14 010V070 RMK AO1 P0009 T10611067
54779K12N 12N20160123153010801/23/16 15:30:31  5-MIN K12N 232030Z AUTO 04010KT M06/M07 A2969 800 96 -1500 050/10 RMK AO1 P0010 T10611067
54779K12N 12N20160123153513001/23/16 15:35:31  5-MIN K12N 232035Z AUTO 03010G16KT 340V040 M06/M07 A2969 800 96 -1500 040/10G16 350V050 RMK AO1 P0011 T10611067
54779K12N 12N20160123154011401/23/16 15:40:31  5-MIN K12N 232040Z AUTO 03008G16KT M06/M07 A2969 800 92 -1500 040/08G16 RMK AO1 P0012 T10561067
54779K12N 12N20160123154511401/23/16 15:45:31  5-MIN K12N 232045Z AUTO 03009G19KT M06/M07 A2969 800 92 -1500 050/09G19 RMK AO1 P0013 T10561067
54779K12N 12N20160123155013301/23/16 15:50:31  5-MIN K12N 232050Z AUTO 03010G19KT M06/M07 A2969 800 92 -1500 050/10G19 RMK AO1 SLP070 P0028 60048 T10561067 56024
54779K12N 12N20160123155512401/23/16 15:55:31  5-MIN K12N 232055Z AUTO 04008G17KT 360V120 M06/M07 A2970 790 92 -1500 050/08G17 010V130 RMK AO1 T10561067
54779K12N 12N20160123160011401/23/16 16:00:31  5-MIN K12N 232100Z AUTO VRB06G15KT M06/M07 A2970 790 88 -1500 VRB/06G15 RMK AO1 P0001 T10561072
54779K12N 12N20160123160511401/23/16 16:05:31  5-MIN K12N 232105Z AUTO 04009G15KT M06/M07 A2970 790 92 -1500 050/09G15 RMK AO1 P0002 T10561067
54779K12N 12N20160123161013001/23/16 16:10:31  5-MIN K12N 232110Z AUTO 04011G18KT 360V060 M06/M07 A2970 790 92 -1500 050/11G18 010V070 RMK AO1 P0003 T10561067
54779K12N 12N20160123161513001/23/16 16:15:31  5-MIN K12N 232115Z AUTO 03008G18KT 010V070 M06/M07 A2970 790 92 -1500 040/08G18 020V080 RMK AO1 P0003 T10561067
54779K12N 12N20160123162013001/23/16 16:20:31  5-MIN K12N 232120Z AUTO 02008G18KT 330V060 M06/M07 A2970 790 92 -1500 040/08G18 340V070 RMK AO1 P0004 T10561067
54779K12N 12N20160123162511401/23/16 16:25:31  5-MIN K12N 232125Z AUTO 03008G16KT M06/M07 A2970 790 92 -1500 040/08G16 RMK AO1 P0005 T10561067
54779K12N 12N20160123163011401/23/16 16:30:31  5-MIN K12N 232130Z AUTO 02010G16KT M06/M07 A2970 790 92 -1500 030/10G16 RMK AO1 P0006 T10561067
54779K12N 12N20160123163511401/23/16 16:35:31  5-MIN K12N 232135Z AUTO VRB06G19KT M06/M07 A2970 790 92 -1500 VRB/06G19 RMK AO1 P0006 T10561067
54779K12N 12N20160123164013001/23/16 16:40:31  5-MIN K12N 232140Z AUTO 02010G19KT 310V040 M06/M07 A2970 790 92 -1500 040/10G19 320V050 RMK AO1 P0007 T10561067
54779K12N 12N20160123164513001/23/16 16:45:31  5-MIN K12N 232145Z AUTO 03008G19KT 350V070 M06/M07 A2970 790 92 -1500 050/08G19 360V080 RMK AO1 P0007 T10561067
54779K12N 12N20160123165013701/23/16 16:50:31  5-MIN K12N 232150Z AUTO 02008G17KT 350V050 M06/M07 A2970 790 92 -1500 040/08G17 360V060 RMK AO1 SLP073 P0008 T10561067
54779K12N 12N20160123165512401/23/16 16:55:31  5-MIN K12N 232155Z AUTO 02008G18KT 340V060 M06/M07 A2970 790 92 -1500 030/08G18 350V070 RMK AO1 T10561067
54779K12N 12N20160123170012401/23/16 17:00:31  5-MIN K12N 232200Z AUTO 02007G17KT 340V060 M06/M07 A2970 790 92 -1500 030/07G17 350V070 RMK AO1 T10561067
54779K12N 12N20160123170511401/23/16 17:05:31  5-MIN K12N 232205Z AUTO 04011G19KT M06/M07 A2970 790 92 -1500 050/11G19 RMK AO1 P0008 T10561067
54779K12N 12N20160123171013001/23/16 17:10:31  5-MIN K12N 232210Z AUTO 02009G19KT 340V050 M06/M07 A2970 790 92 -1500 040/09G19 350V060 RMK AO1 P0009 T10561067
54779K12N 12N20160123171513001/23/16 17:15:31  5-MIN K12N 232215Z AUTO 03009G19KT 350V050 M06/M07 A2971 790 92 -1500 040/09G19 360V060 RMK AO1 P0009 T10561067
54779K12N 12N20160123172013001/23/16 17:20:31  5-MIN K12N 232220Z AUTO 03008G20KT 360V090 M06/M07 A2971 780 92 -1500 040/08G20 010V100 RMK AO1 P0010 T10561067
54779K12N 12N20160123172513001/23/16 17:25:31  5-MIN K12N 232225Z AUTO 02007G20KT 340V050 M06/M07 A2971 780 92 -1500 030/07G20 350V060 RMK AO1 P0010 T10561067
54779K12N 12N20160123173013001/23/16 17:30:31  5-MIN K12N 232230Z AUTO 02008G20KT 340V050 M06/M07 A2971 780 92 -1500 030/08G20 350V060 RMK AO1 P0010 T10561067
54779K12N 12N20160123173513001/23/16 17:35:31  5-MIN K12N 232235Z AUTO 03008G18KT 340V050 M06/M07 A2971 780 92 -1500 040/08G18 350V060 RMK AO1 P0011 T10561067
54779K12N 12N20160123174013001/23/16 17:40:31  5-MIN K12N 232240Z AUTO 03008G18KT 350V080 M06/M07 A2972 770 92 -1500 040/08G18 360V090 RMK AO1 P0012 T10561067
54779K12N 12N20160123174513001/23/16 17:45:31  5-MIN K12N 232245Z AUTO 03007G18KT 360V080 M06/M07 A2972 770 92 -1500 050/07G18 010V090 RMK AO1 P0012 T10561067
54779K12N 12N20160123175013701/23/16 17:50:31  5-MIN K12N 232250Z AUTO 02010G18KT 340V050 M06/M07 A2972 770 88 -1500 040/10G18 350V060 RMK AO1 SLP081 P0012 T10561072
54779K12N 12N20160123175512401/23/16 17:55:31  5-MIN K12N 232255Z AUTO 03009G18KT 350V060 M06/M07 A2973 760 88 -1500 040/09G18 360V070 RMK AO1 T10561072
54779K12N 12N20160123180013001/23/16 18:00:31  5-MIN K12N 232300Z AUTO 03008G19KT 340V060 M06/M07 A2973 760 88 -1500 040/08G19 350V070 RMK AO1 P0001 T10561072
54779K12N 12N20160123180513001/23/16 18:05:31  5-MIN K12N 232305Z AUTO 03009G19KT 360V060 M06/M07 A2973 760 88 -1500 050/09G19 010V070 RMK AO1 P0001 T10561072
54779K12N 12N20160123181013001/23/16 18:10:31  5-MIN K12N 232310Z AUTO 03010G18KT 350V070 M06/M07 A2974 760 88 -1500 040/10G18 360V080 RMK AO1 P0001 T10561072
54779K12N 12N20160123181511401/23/16 18:15:31  5-MIN K12N 232315Z AUTO 03009G18KT M06/M07 A2974 760 88 -1500 040/09G18 RMK AO1 P0002 T10561072
54779K12N 12N20160123182011401/23/16 18:20:31  5-MIN K12N 232320Z AUTO 03010G17KT M06/M07 A2974 750 88 -1500 050/10G17 RMK AO1 P0002 T10561072
54779K12N 12N20160123182513001/23/16 18:25:31  5-MIN K12N 232325Z AUTO 03010G17KT 350V050 M06/M07 A2974 750 88 -1500 040/10G17 360V060 RMK AO1 P0003 T10561072
54779K12N 12N20160123183013001/23/16 18:30:31  5-MIN K12N 232330Z AUTO 03009G17KT 350V060 M06/M07 A2974 750 88 -1500 050/09G17 360V070 RMK AO1 P0003 T10561072
54779K12N 12N20160123183511401/23/16 18:35:31  5-MIN K12N 232335Z AUTO 03011G18KT M06/M07 A2974 750 88 -1500 050/11G18 RMK AO1 P0003 T10561072
54779K12N 12N20160123184013001/23/16 18:40:31  5-MIN K12N 232340Z AUTO 03008G18KT 340V060 M06/M07 A2975 750 88 -1500 050/08G18 350V070 RMK AO1 P0003 T10561072
54779K12N 12N20160123184511401/23/16 18:45:31  5-MIN K12N 232345Z AUTO VRB06G19KT M06/M07 A2975 750 88 -1500 VRB/06G19 RMK AO1 P0003 T10561072
54779K12N 12N20160123185014501/23/16 18:50:31  5-MIN K12N 232350Z AUTO 04010G19KT M06/M07 A2975 750 88 -1500 050/10G19 RMK AO1 SLP088 P0008 60077 T10561072 11056 21061 53009
54779K12N 12N20160123185510801/23/16 18:55:31  5-MIN K12N 232355Z AUTO 03008G18KT M06/M07 A2975 750 88 -1500 040/08G18 RMK AO1 T10561072
54779K12N 12N20160123190012401/23/16 19:00:31  5-MIN K12N 240000Z AUTO 03009G18KT 340V050 M06/M07 A2975 750 88 -1500 050/09G18 350V060 RMK AO1 T10561072
54779K12N 12N20160123190510801/23/16 19:05:31  5-MIN K12N 240005Z AUTO 03010G18KT M06/M08 A2975 750 84 -1500 050/10G18 RMK AO1 T10561078
54779K12N 12N20160123191012401/23/16 19:10:31  5-MIN K12N 240010Z AUTO 03008G18KT 310V050 M05/M08 A2975 750 81 -1400 040/08G18 320V060 RMK AO1 T10501078
54779K12N 12N20160123191510801/23/16 19:15:31  5-MIN K12N 240015Z AUTO 03008G15KT M05/M08 A2975 750 77 -1400 040/08G15 RMK AO1 T10501083
54779K12N 12N20160123192010801/23/16 19:20:31  5-MIN K12N 240020Z AUTO VRB05G15KT M04/M09 A2975 750 71 -1400 VRB/05G15 RMK AO1 T10441089
54779K12N 12N20160123192510201/23/16 19:25:31  5-MIN K12N 240025Z AUTO VRB05KT M04/M09 A2975 740 68 -1400 VRB/05 RMK AO1 T10441094
54779K12N 12N20160123193010201/23/16 19:30:31  5-MIN K12N 240030Z AUTO 01005KT M04/M09 A2975 740 68 -1400 020/05 RMK AO1 T10441094
54779K12N 12N20160123193510201/23/16 19:35:31  5-MIN K12N 240035Z AUTO VRB05KT M04/M09 A2975 740 68 -1400 VRB/05 RMK AO1 T10441094
54779K12N 12N20160123194012401/23/16 19:40:31  5-MIN K12N 240040Z AUTO 03008G15KT 340V050 M04/M10 A2975 740 65 -1400 040/08G15 350V060 RMK AO1 T10441100
54779K12N 12N20160123194512401/23/16 19:45:31  5-MIN K12N 240045Z AUTO 03007G15KT 360V060 M04/M11 A2974 750 60 -1300 040/07G15 010V070 RMK AO1 T10391106
54779K12N 12N20160123195011501/23/16 19:50:31  5-MIN K12N 240050Z AUTO VRB04G14KT M04/M11 A2975 750 60 -1300 VRB/04G14 RMK AO1 SLP087 T10391106
54779K12N 12N20160123195510201/23/16 19:55:31  5-MIN K12N 240055Z AUTO VRB05KT M03/M11 A2975 750 55 -1200 VRB/05 RMK AO1 T10331111
54779K12N 12N20160123200010201/23/16 20:00:31  5-MIN K12N 240100Z AUTO VRB03KT M03/M12 A2974 750 53 -1200 VRB/03 RMK AO1 T10331117
54779K12N 12N20160123200510201/23/16 20:05:31  5-MIN K12N 240105Z AUTO VRB05KT M03/M12 A2974 750 53 -1200 VRB/05 RMK AO1 T10331117
54779K12N 12N20160123201010201/23/16 20:10:31  5-MIN K12N 240110Z AUTO 01004KT M03/M12 A2974 750 50 -1200 030/04 RMK AO1 T10331122
54779K12N 12N20160123201510201/23/16 20:15:31  5-MIN K12N 240115Z AUTO 36006KT M03/M12 A2974 750 53 -1200 010/06 RMK AO1 T10331117
54779K12N 12N20160123202010201/23/16 20:20:31  5-MIN K12N 240120Z AUTO VRB05KT M03/M12 A2974 750 50 -1200 VRB/05 RMK AO1 T10331122
54779K12N 12N20160123202510201/23/16 20:25:31  5-MIN K12N 240125Z AUTO VRB04KT M03/M12 A2974 750 50 -1200 VRB/04 RMK AO1 T10331122
54779K12N 12N20160123203010201/23/16 20:30:31  5-MIN K12N 240130Z AUTO 01004KT M03/M12 A2974 750 50 -1200 020/04 RMK AO1 T10331122
54779K12N 12N20160123203510201/23/16 20:35:31  5-MIN K12N 240135Z AUTO VRB04KT M03/M12 A2974 750 53 -1200 VRB/04 RMK AO1 T10331117
54779K12N 12N20160123204010201/23/16 20:40:31  5-MIN K12N 240140Z AUTO VRB05KT M03/M12 A2974 750 53 -1200 VRB/05 RMK AO1 T10331117
54779K12N 12N20160123204510201/23/16 20:45:31  5-MIN K12N 240145Z AUTO 36006KT M03/M12 A2974 750 50 -1200 010/06 RMK AO1 T10331122
54779K12N 12N20160123205010901/23/16 20:50:31  5-MIN K12N 240150Z AUTO VRB05KT M03/M12 A2974 750 50 -1200 VRB/05 RMK AO1 SLP085 T10331122
54779K12N 12N20160123205510201/23/16 20:55:31  5-MIN K12N 240155Z AUTO 36006KT M03/M12 A2974 760 50 -1200 010/06 RMK AO1 T10331122
54779K12N 12N20160123210010201/23/16 21:00:31  5-MIN K12N 240200Z AUTO 36007KT M03/M12 A2974 750 48 -1200 010/07 RMK AO1 T10281122
54779K12N 12N20160123210510201/23/16 21:05:31  5-MIN K12N 240205Z AUTO 36008KT M03/M12 A2974 750 50 -1200 010/08 RMK AO1 T10281117
54779K12N 12N20160123211011801/23/16 21:10:31  5-MIN K12N 240210Z AUTO 01007KT 340V040 M03/M12 A2974 750 48 -1200 020/07 350V050 RMK AO1 T10281122
54779K12N 12N20160123211511801/23/16 21:15:31  5-MIN K12N 240215Z AUTO 36007KT 340V050 M03/M12 A2974 750 50 -1200 010/07 350V060 RMK AO1 T10331122
54779K12N 12N20160123212010201/23/16 21:20:31  5-MIN K12N 240220Z AUTO 36007KT M03/M12 A2974 750 50 -1200 010/07 RMK AO1 T10331122
54779K12N 12N20160123212510201/23/16 21:25:31  5-MIN K12N 240225Z AUTO 36007KT M03/M12 A2974 750 48 -1200 010/07 RMK AO1 T10281122
54779K12N 12N20160123213010801/23/16 21:30:31  5-MIN K12N 240230Z AUTO 36008G14KT M03/M12 A2974 750 50 -1200 020/08G14 RMK AO1 T10331122
54779K12N 12N20160123213510201/23/16 21:35:31  5-MIN K12N 240235Z AUTO 36008KT M03/M12 A2974 760 48 -1200 020/08 RMK AO1 T10281122
54779K12N 12N20160123214010201/23/16 21:40:31  5-MIN K12N 240240Z AUTO 36008KT M03/M13 A2974 760 46 -1200 010/08 RMK AO1 T10281128
54779K12N 12N20160123214510201/23/16 21:45:31  5-MIN K12N 240245Z AUTO 35009KT M03/M13 A2974 760 48 -1200 010/09 RMK AO1 T10331128
54779K12N 12N20160123215011501/23/16 21:50:31  5-MIN K12N 240250Z AUTO 36008KT M03/M12 A2973 760 50 -1200 010/08 RMK AO1 SLP084 T10331122 53018
54779K12N 12N20160123215510201/23/16 21:55:31  5-MIN K12N 240255Z AUTO 36009KT M03/M13 A2973 760 48 -1200 010/09 RMK AO1 T10331128
54779K12N 12N20160123220010801/23/16 22:00:31  5-MIN K12N 240300Z AUTO 01006G14KT M03/M13 A2973 760 48 -1200 020/06G14 RMK AO1 T10331128
54779K12N 12N20160123220510801/23/16 22:05:31  5-MIN K12N 240305Z AUTO 36008G14KT M03/M13 A2973 760 48 -1200 010/08G14 RMK AO1 T10331128
54779K12N 12N20160123221010801/23/16 22:10:31  5-MIN K12N 240310Z AUTO 36009G15KT M03/M13 A2973 760 48 -1200 010/09G15 RMK AO1 T10331128
54779K12N 12N20160123221510801/23/16 22:15:31  5-MIN K12N 240315Z AUTO 36010G16KT M03/M13 A2973 760 48 -1200 010/10G16 RMK AO1 T10331128
54779K12N 12N20160123222010801/23/16 22:20:31  5-MIN K12N 240320Z AUTO 36008G16KT M03/M13 A2973 760 48 -1200 010/08G16 RMK AO1 T10331128
54779K12N 12N20160123222510201/23/16 22:25:31  5-MIN K12N 240325Z AUTO 01008KT M03/M13 A2973 760 48 -1200 020/08 RMK AO1 T10331128
54779K12N 12N20160123223010201/23/16 22:30:31  5-MIN K12N 240330Z AUTO 36008KT M03/M13 A2973 760 48 -1200 020/08 RMK AO1 T10331128
54779K12N 12N20160123223510201/23/16 22:35:31  5-MIN K12N 240335Z AUTO 01008KT M03/M13 A2973 760 48 -1200 020/08 RMK AO1 T10331128
54779K12N 12N20160123224010201/23/16 22:40:31  5-MIN K12N 240340Z AUTO 36007KT M03/M13 A2973 760 48 -1200 010/07 RMK AO1 T10331128
54779K12N 12N20160123224511801/23/16 22:45:31  5-MIN K12N 240345Z AUTO 01008KT 340V040 M03/M13 A2973 760 48 -1200 020/08 350V050 RMK AO1 T10331128
54779K12N 12N20160123225010901/23/16 22:50:31  5-MIN K12N 240350Z AUTO 36008KT M03/M13 A2974 760 48 -1200 010/08 RMK AO1 SLP084 T10331128
54779K12N 12N20160123225510801/23/16 22:55:31  5-MIN K12N 240355Z AUTO 01009G18KT M03/M13 A2974 750 46 -1200 020/09G18 RMK AO1 T10331133
54779K12N 12N20160123230010801/23/16 23:00:31  5-MIN K12N 240400Z AUTO 36010G18KT M03/M13 A2974 760 48 -1200 010/10G18 RMK AO1 T10331128
54779K12N 12N20160123230510801/23/16 23:05:31  5-MIN K12N 240405Z AUTO 36009G16KT M03/M13 A2974 750 46 -1200 010/09G16 RMK AO1 T10331133
54779K12N 12N20160123231010801/23/16 23:10:31  5-MIN K12N 240410Z AUTO 36009G15KT M03/M13 A2974 750 48 -1200 020/09G15 RMK AO1 T10331128
54779K12N 12N20160123231512401/23/16 23:15:31  5-MIN K12N 240415Z AUTO 01008G15KT 330V050 M03/M13 A2974 750 48 -1200 020/08G15 340V060 RMK AO1 T10331128
54779K12N 12N20160123232012401/23/16 23:20:31  5-MIN K12N 240420Z AUTO 01007G17KT 340V040 M03/M13 A2974 750 48 -1200 020/07G17 350V050 RMK AO1 T10331128
54779K12N 12N20160123232510801/23/16 23:25:31  5-MIN K12N 240425Z AUTO 36009G17KT M03/M13 A2974 750 46 -1200 020/09G17 RMK AO1 T10331133
54779K12N 12N20160123233010801/23/16 23:30:31  5-MIN K12N 240430Z AUTO 01009G16KT M03/M13 A2974 750 46 -1200 020/09G16 RMK AO1 T10331133
54779K12N 12N20160123233510801/23/16 23:35:31  5-MIN K12N 240435Z AUTO 36010G15KT M03/M13 A2975 750 46 -1200 010/10G15 RMK AO1 T10331133
54779K12N 12N20160123234010801/23/16 23:40:31  5-MIN K12N 240440Z AUTO 36008G15KT M03/M13 A2975 740 46 -1200 020/08G15 RMK AO1 T10331133
54779K12N 12N20160123234511801/23/16 23:45:31  5-MIN K12N 240445Z AUTO 36008KT 340V070 M04/M13 A2975 740 48 -1300 020/08 350V080 RMK AO1 T10391133
54779K12N 12N20160123235011901/23/16 23:50:31  5-MIN K12N 240450Z AUTO VRB06KT M04/M13 A2975 740 48 -1300 VRB/06 RMK AO1 SLP090 T10391133 410281072
54779K12N 12N20160123235511801/23/16 23:55:31  5-MIN K12N 240455Z AUTO 01007KT 340V060 M04/M13 A2975 740 48 -1300 020/07 350V070 RMK AO1 T10391133
54779K12N 12N20160124000010201/24/16 00:00:31  5-MIN K12N 240500Z AUTO 36008KT M04/M13 A2975 740 48 -1300 010/08 RMK AO1 T10391133
54779K12N 12N20160124000510801/24/16 00:05:31  5-MIN K12N 240505Z AUTO 35008G17KT M04/M13 A2976 740 48 -1300 010/08G17 RMK AO1 T10391133
54779K12N 12N20160124001010801/24/16 00:10:31  5-MIN K12N 240510Z AUTO 01007G17KT M04/M13 A2976 730 48 -1300 020/07G17 RMK AO1 T10391133
54779K12N 12N20160124001510801/24/16 00:15:31  5-MIN K12N 240515Z AUTO 36008G15KT M04/M13 A2976 730 50 -1400 020/08G15 RMK AO1 T10441133
54779K12N 12N20160124002010801/24/16 00:20:31  5-MIN K12N 240520Z AUTO 36008G14KT M04/M13 A2976 730 50 -1400 020/08G14 RMK AO1 T10441133
54779K12N 12N20160124002510801/24/16 00:25:31  5-MIN K12N 240525Z AUTO VRB06G16KT M04/M13 A2976 730 50 -1400 VRB/06G16 RMK AO1 T10441133
54779K12N 12N20160124003010801/24/16 00:30:31  5-MIN K12N 240530Z AUTO 36007G16KT M04/M13 A2976 730 50 -1400 020/07G16 RMK AO1 T10441133
54779K12N 12N20160124003510201/24/16 00:35:31  5-MIN K12N 240535Z AUTO VRB06KT M04/M13 A2977 730 50 -1400 VRB/06 RMK AO1 T10441133
54779K12N 12N20160124004010201/24/16 00:40:31  5-MIN K12N 240540Z AUTO 36010KT M04/M13 A2977 730 50 -1400 020/10 RMK AO1 T10441133
54779K12N 12N20160124004510801/24/16 00:45:31  5-MIN K12N 240545Z AUTO 36007G16KT M04/M13 A2977 730 50 -1400 010/07G16 RMK AO1 T10441133
54779K12N 12N20160124005013301/24/16 00:50:31  5-MIN K12N 240550Z AUTO 01007G16KT M05/M13 A2977 720 52 -1500 020/07G16 RMK AO1 SLP096 T10501133 11028 21056 58005
54779K12N 12N20160124005510201/24/16 00:55:31  5-MIN K12N 240555Z AUTO 01009KT M05/M13 A2977 720 52 -1500 020/09 RMK AO1 T10501133
54779K12N 12N20160124010010201/24/16 01:00:31  5-MIN K12N 240600Z AUTO 36007KT M05/M13 A2977 720 52 -1500 010/07 RMK AO1 T10501133
54779K12N 12N20160124010510801/24/16 01:05:31  5-MIN K12N 240605Z AUTO 01006G14KT M05/M13 A2977 720 52 -1500 020/06G14 RMK AO1 T10501133
54779K12N 12N20160124011010801/24/16 01:10:31  5-MIN K12N 240610Z AUTO 36006G14KT M05/M13 A2977 720 52 -1500 020/06G14 RMK AO1 T10501133
54779K12N 12N20160124011511801/24/16 01:15:31  5-MIN K12N 240615Z AUTO 01007KT 350V060 M06/M13 A2977 720 54 -1600 020/07 360V070 RMK AO1 T10561133
54779K12N 12N20160124012010201/24/16 01:20:31  5-MIN K12N 240620Z AUTO 01007KT M06/M13 A2977 720 54 -1600 020/07 RMK AO1 T10561133
54779K12N 12N20160124012510201/24/16 01:25:31  5-MIN K12N 240625Z AUTO 01005KT M06/M13 A2978 720 54 -1600 020/05 RMK AO1 T10561133
54779K12N 12N20160124013010201/24/16 01:30:31  5-MIN K12N 240630Z AUTO VRB05KT M06/M13 A2978 720 54 -1600 VRB/05 RMK AO1 T10561133
54779K12N 12N20160124013510201/24/16 01:35:31  5-MIN K12N 240635Z AUTO 36007KT M06/M13 A2978 720 54 -1600 020/07 RMK AO1 T10561133
54779K12N 12N20160124014010201/24/16 01:40:31  5-MIN K12N 240640Z AUTO 36007KT M06/M13 A2978 720 54 -1600 020/07 RMK AO1 T10561133
54779K12N 12N20160124014510201/24/16 01:45:31  5-MIN K12N 240645Z AUTO 01007KT M06/M13 A2978 710 54 -1600 020/07 RMK AO1 T10561133
54779K12N 12N20160124015010901/24/16 01:50:31  5-MIN K12N 240650Z AUTO VRB05KT M06/M13 A2978 710 57 -1600 VRB/05 RMK AO1 SLP102 T10611133
54779K12N 12N20160124015510801/24/16 01:55:31  5-MIN K12N 240655Z AUTO 36008G16KT M06/M13 A2979 710 57 -1600 010/08G16 RMK AO1 T10611133
54779K12N 12N20160124020010801/24/16 02:00:31  5-MIN K12N 240700Z AUTO 01007G16KT M06/M13 A2979 710 57 -1600 020/07G16 RMK AO1 T10611133
54779K12N 12N20160124020512401/24/16 02:05:31  5-MIN K12N 240705Z AUTO 02007G15KT 340V060 M06/M13 A2979 700 57 -1600 030/07G15 350V070 RMK AO1 T10611133
54779K12N 12N20160124021011801/24/16 02:10:31  5-MIN K12N 240710Z AUTO 01008KT 350V050 M06/M13 A2979 700 57 -1600 020/08 360V060 RMK AO1 T10611133
54779K12N 12N20160124021510801/24/16 02:15:31  5-MIN K12N 240715Z AUTO 36006G18KT M06/M14 A2979 700 54 -1600 020/06G18 RMK AO1 T10611139
54779K12N 12N20160124022010801/24/16 02:20:31  5-MIN K12N 240720Z AUTO 01008G18KT M06/M13 A2980 700 57 -1700 020/08G18 RMK AO1 T10611133
54779K12N 12N20160124022511801/24/16 02:25:31  5-MIN K12N 240725Z AUTO 36008KT 340V040 M06/M13 A2980 700 57 -1700 020/08 350V050 RMK AO1 T10611133
54779K12N 12N20160124023010801/24/16 02:30:31  5-MIN K12N 240730Z AUTO 01006G17KT M06/M13 A2980 700 57 -1700 020/06G17 RMK AO1 T10611133
54779K12N 12N20160124023510801/24/16 02:35:31  5-MIN K12N 240735Z AUTO 36008G17KT M06/M13 A2980 690 57 -1700 010/08G17 RMK AO1 T10611133
54779K12N 12N20160124024010201/24/16 02:40:31  5-MIN K12N 240740Z AUTO 01006KT M07/M13 A2981 690 59 -1700 020/06 RMK AO1 T10671133
54779K12N 12N20160124024510201/24/16 02:45:31  5-MIN K12N 240745Z AUTO VRB05KT M07/M13 A2981 690 59 -1700 VRB/05 RMK AO1 T10671133
54779K12N 12N20160124025010901/24/16 02:50:31  5-MIN K12N 240750Z AUTO 36006KT M07/M13 A2981 690 59 -1700 010/06 RMK AO1 SLP111 T10671133
54779K12N 12N20160124025510201/24/16 02:55:31  5-MIN K12N 240755Z AUTO 36006KT M07/M13 A2981 680 59 -1700 010/06 RMK AO1 T10671133
54779K12N 12N20160124030010201/24/16 03:00:31  5-MIN K12N 240800Z AUTO 36007KT M07/M13 A2982 680 59 -1700 010/07 RMK AO1 T10671133
54779K12N 12N20160124030510201/24/16 03:05:31  5-MIN K12N 240805Z AUTO VRB05KT M07/M13 A2982 680 59 -1700 VRB/05 RMK AO1 T10671133
54779K12N 12N20160124031010201/24/16 03:10:31  5-MIN K12N 240810Z AUTO 36006KT M07/M13 A2982 680 62 -1800 020/06 RMK AO1 T10721133
54779K12N 12N20160124031510201/24/16 03:15:31  5-MIN K12N 240815Z AUTO VRB05KT M07/M13 A2982 670 62 -1800 VRB/05 RMK AO1 T10721133
54779K12N 12N20160124032009201/24/16 03:20:31  5-MIN K12N 240820Z AUTO M07/M14 A2983 670 59 -1800 M /M RMK AO1 T10721139
54779K12N 12N20160124032511801/24/16 03:25:31  5-MIN K12N 240825Z AUTO 01008KT 300V060 M07/M14 A2983 670 59 -1800 020/08 310V070 RMK AO1 T10721139
54779K12N 12N20160124033011801/24/16 03:30:31  5-MIN K12N 240830Z AUTO 02007KT 350V060 M07/M14 A2983 670 59 -1800 030/07 360V070 RMK AO1 T10721139
54779K12N 12N20160124033510201/24/16 03:35:31  5-MIN K12N 240835Z AUTO VRB05KT M07/M13 A2983 670 62 -1800 VRB/05 RMK AO1 T10721133
54779K12N 12N20160124034010201/24/16 03:40:31  5-MIN K12N 240840Z AUTO 36004KT M07/M14 A2983 670 59 -1800 010/04 RMK AO1 T10721139
54779K12N 12N20160124034510201/24/16 03:45:31  5-MIN K12N 240845Z AUTO VRB03KT M08/M14 A2983 660 62 -1900 VRB/03 RMK AO1 T10781139
54779K12N 12N20160124035011501/24/16 03:50:31  5-MIN K12N 240850Z AUTO VRB05KT M08/M14 A2984 660 62 -1900 VRB/05 RMK AO1 SLP119 T10781139 53013
54779K12N 12N20160124035510201/24/16 03:55:31  5-MIN K12N 240855Z AUTO VRB04KT M07/M14 A2984 660 59 -1800 VRB/04 RMK AO1 T10721139
54779K12N 12N20160124040010201/24/16 04:00:31  5-MIN K12N 240900Z AUTO VRB04KT M08/M14 A2984 660 62 -1900 VRB/04 RMK AO1 T10781139
54779K12N 12N20160124040510201/24/16 04:05:31  5-MIN K12N 240905Z AUTO VRB03KT M08/M14 A2984 660 62 -1900 VRB/03 RMK AO1 T10781139
54779K12N 12N20160124041010201/24/16 04:10:31  5-MIN K12N 240910Z AUTO VRB03KT M08/M14 A2984 660 64 -2000 VRB/03 RMK AO1 T10831139
54779K12N 12N20160124041510201/24/16 04:15:31  5-MIN K12N 240915Z AUTO VRB04KT M08/M14 A2984 660 64 -2000 VRB/04 RMK AO1 T10831139
54779K12N 12N20160124042010201/24/16 04:20:31  5-MIN K12N 240920Z AUTO VRB06KT M08/M14 A2984 660 62 -1900 VRB/06 RMK AO1 T10781139
54779K12N 12N20160124042510201/24/16 04:25:31  5-MIN K12N 240925Z AUTO 01006KT M08/M14 A2985 650 62 -1900 020/06 RMK AO1 T10781139
54779K12N 12N20160124043010201/24/16 04:30:31  5-MIN K12N 240930Z AUTO VRB05KT M08/M14 A2985 650 62 -1900 VRB/05 RMK AO1 T10781139
54779K12N 12N20160124043510201/24/16 04:35:31  5-MIN K12N 240935Z AUTO 36007KT M08/M14 A2985 650 62 -1900 020/07 RMK AO1 T10781139
54779K12N 12N20160124044010201/24/16 04:40:31  5-MIN K12N 240940Z AUTO VRB06KT M08/M14 A2985 650 62 -1900 VRB/06 RMK AO1 T10781139
54779K12N 12N20160124044510201/24/16 04:45:31  5-MIN K12N 240945Z AUTO 01007KT M08/M14 A2986 650 62 -1900 020/07 RMK AO1 T10781139
54779K12N 12N20160124045010901/24/16 04:50:31  5-MIN K12N 240950Z AUTO 01007KT M08/M14 A2986 640 62 -1900 020/07 RMK AO1 SLP127 T10781139
54779K12N 12N20160124045510201/24/16 04:55:31  5-MIN K12N 240955Z AUTO 01007KT M08/M14 A2986 640 64 -2000 020/07 RMK AO1 T10831139
54779K12N 12N20160124050010201/24/16 05:00:31  5-MIN K12N 241000Z AUTO VRB03KT M08/M14 A2986 640 64 -2000 VRB/03 RMK AO1 T10831139
54779K12N 12N20160124050510201/24/16 05:05:31  5-MIN K12N 241005Z AUTO 01004KT M08/M14 A2986 640 64 -2000 020/04 RMK AO1 T10831139
54779K12N 12N20160124051010201/24/16 05:10:31  5-MIN K12N 241010Z AUTO 36004KT M09/M14 A2987 640 67 -2100 010/04 RMK AO1 T10891139
54779K12N 12N20160124051510201/24/16 05:15:31  5-MIN K12N 241015Z AUTO 36004KT M09/M14 A2987 630 64 -2100 010/04 RMK AO1 T10891144
54779K12N 12N20160124052010201/24/16 05:20:31  5-MIN K12N 241020Z AUTO 35005KT M09/M14 A2987 630 64 -2100 010/05 RMK AO1 T10891144
54779K12N 12N20160124052510201/24/16 05:25:31  5-MIN K12N 241025Z AUTO 35004KT M09/M14 A2988 620 67 -2200 010/04 RMK AO1 T10941144
54779K12N 12N20160124053010201/24/16 05:30:31  5-MIN K12N 241030Z AUTO 36003KT M10/M14 A2988 620 70 -2300 020/03 RMK AO1 T11001144
54779K12N 12N20160124053510201/24/16 05:35:31  5-MIN K12N 241035Z AUTO 00000KT M10/M14 A2988 620 70 -2300 000/00 RMK AO1 T11001144
54779K12N 12N20160124054010201/24/16 05:40:31  5-MIN K12N 241040Z AUTO 00000KT M11/M14 A2988 620 77 -2400 000/00 RMK AO1 T11111144
54779K12N 12N20160124054510201/24/16 05:45:31  5-MIN K12N 241045Z AUTO 00000KT M11/M14 A2989 620 77 -2400 000/00 RMK AO1 T11111144
54779K12N 12N20160124055010901/24/16 05:50:31  5-MIN K12N 241050Z AUTO 00000KT M11/M15 A2989 610 73 -2400 000/00 RMK AO1 SLP139 T11111150
54779K12N 12N20160124055510201/24/16 05:55:31  5-MIN K12N 241055Z AUTO 00000KT M12/M15 A2989 610 76 -2500 000/00 RMK AO1 T11171150
54779K12N 12N20160124060010201/24/16 06:00:31  5-MIN K12N 241100Z AUTO 34003KT M12/M16 A2990 610 76 -2600 360/03 RMK AO1 T11221156
54779K12N 12N20160124060510201/24/16 06:05:31  5-MIN K12N 241105Z AUTO 00000KT M12/M16 A2990 610 76 -2600 000/00 RMK AO1 T11221156
54779K12N 12N20160124061010201/24/16 06:10:31  5-MIN K12N 241110Z AUTO 00000KT M12/M15 A2990 610 76 -2500 000/00 RMK AO1 T11171150
54779K12N 12N20160124061510201/24/16 06:15:31  5-MIN K12N 241115Z AUTO 00000KT M13/M16 A2990 600 83 -2700 000/00 RMK AO1 T11331156
54779K12N 12N20160124062010201/24/16 06:20:31  5-MIN K12N 241120Z AUTO 00000KT M13/M16 A2990 600 83 -2700 000/00 RMK AO1 T11331156
54779K12N 12N20160124062510201/24/16 06:25:31  5-MIN K12N 241125Z AUTO 00000KT M13/M16 A2991 600 80 -2700 000/00 RMK AO1 T11281156
54779K12N 12N20160124063010201/24/16 06:30:31  5-MIN K12N 241130Z AUTO 00000KT M13/M16 A2991 590 80 -2700 000/00 RMK AO1 T11281156
54779K12N 12N20160124063510201/24/16 06:35:31  5-MIN K12N 241135Z AUTO 00000KT M14/M16 A2991 590 87 -2800 000/00 RMK AO1 T11391156
54779K12N 12N20160124064010201/24/16 06:40:31  5-MIN K12N 241140Z AUTO 00000KT M14/M16 A2992 590 83 -2800 000/00 RMK AO1 T11391161
54779K12N 12N20160124064510201/24/16 06:45:31  5-MIN K12N 241145Z AUTO 00000KT M14/M16 A2992 590 87 -2900 000/00 RMK AO1 T11441161
54779K12N 12N20160124065013301/24/16 06:50:31  5-MIN K12N 241150Z AUTO 00000KT M14/M16 A2992 590 87 -2900 000/00 RMK AO1 SLP150 70120 T11441161 11050 21144 53021
54779K12N 12N20160124065510201/24/16 06:55:31  5-MIN K12N 241155Z AUTO 00000KT M15/M17 A2992 590 87 -3000 000/00 RMK AO1 T11501167
54779K12N 12N20160124070010201/24/16 07:00:31  5-MIN K12N 241200Z AUTO 00000KT M14/M17 A2992 580 80 -2800 000/00 RMK AO1 T11391167
54779K12N 12N20160124070510201/24/16 07:05:31  5-MIN K12N 241205Z AUTO 00000KT M14/M17 A2992 580 83 -2900 000/00 RMK AO1 T11441167
54779K12N 12N20160124071010201/24/16 07:10:31  5-MIN K12N 241210Z AUTO 36004KT M14/M17 A2993 580 80 -2800 010/04 RMK AO1 T11391167
54779K12N 12N20160124071510201/24/16 07:15:31  5-MIN K12N 241215Z AUTO 36004KT M13/M16 A2993 580 80 -2700 010/04 RMK AO1 T11281156
54779K12N 12N20160124072010201/24/16 07:20:31  5-MIN K12N 241220Z AUTO 36004KT M11/M14 A2993 570 77 -2500 010/04 RMK AO1 T11111144
54779K12N 12N20160124072510201/24/16 07:25:31  5-MIN K12N 241225Z AUTO 36005KT M11/M14 A2993 570 77 -2400 010/05 RMK AO1 T11061139
54779K12N 12N20160124073010201/24/16 07:30:31  5-MIN K12N 241230Z AUTO 36007KT M09/M13 A2993 570 73 -2200 010/07 RMK AO1 T10941133
54779K12N 12N20160124073510201/24/16 07:35:31  5-MIN K12N 241235Z AUTO 36005KT M09/M13 A2994 570 73 -2200 010/05 RMK AO1 T10941133
54779K12N 12N20160124074010201/24/16 07:40:31  5-MIN K12N 241240Z AUTO 00000KT M09/M14 A2994 570 70 -2200 000/00 RMK AO1 T10941139
54779K12N 12N20160124074510201/24/16 07:45:31  5-MIN K12N 241245Z AUTO 00000KT M10/M14 A2994 570 73 -2300 000/00 RMK AO1 T11001139
54779K12N 12N20160124075010901/24/16 07:50:31  5-MIN K12N 241250Z AUTO 00000KT M10/M14 A2994 570 73 -2300 000/00 RMK AO1 SLP155 T11001139
54779K12N 12N20160124075510201/24/16 07:55:31  5-MIN K12N 241255Z AUTO 00000KT M10/M14 A2994 570 70 -2300 000/00 RMK AO1 T11001144
54779K12N 12N20160124080010201/24/16 08:00:31  5-MIN K12N 241300Z AUTO VRB03KT M10/M14 A2994 560 70 -2300 VRB/03 RMK AO1 T11001144
54779K12N 12N20160124080510201/24/16 08:05:31  5-MIN K12N 241305Z AUTO 01003KT M10/M14 A2994 560 73 -2300 030/03 RMK AO1 T11001139
54779K12N 12N20160124081010201/24/16 08:10:31  5-MIN K12N 241310Z AUTO 00000KT M10/M14 A2995 560 73 -2300 000/00 RMK AO1 T11001139
54779K12N 12N20160124081510201/24/16 08:15:31  5-MIN K12N 241315Z AUTO VRB04KT M09/M14 A2995 560 70 -2300 VRB/04 RMK AO1 T10941139
54779K12N 12N20160124082010201/24/16 08:20:31  5-MIN K12N 241320Z AUTO VRB05KT M09/M14 A2995 560 67 -2200 VRB/05 RMK AO1 T10891139
54779K12N 12N20160124082510201/24/16 08:25:31  5-MIN K12N 241325Z AUTO 05004KT M09/M13 A2995 560 70 -2200 060/04 RMK AO1 T10891133
54779K12N 12N20160124083010201/24/16 08:30:31  5-MIN K12N 241330Z AUTO VRB03KT M08/M13 A2995 560 67 -2100 VRB/03 RMK AO1 T10831133
54779K12N 12N20160124083510201/24/16 08:35:31  5-MIN K12N 241335Z AUTO VRB03KT M08/M13 A2995 560 64 -2000 VRB/03 RMK AO1 T10781133
54779K12N 12N20160124084010201/24/16 08:40:31  5-MIN K12N 241340Z AUTO 04005KT M07/M13 A2995 560 62 -2000 050/05 RMK AO1 T10721133
54779K12N 12N20160124084510201/24/16 08:45:31  5-MIN K12N 241345Z AUTO VRB05KT M07/M13 A2995 560 62 -2000 VRB/05 RMK AO1 T10721133
54779K12N 12N20160124085010901/24/16 08:50:31  5-MIN K12N 241350Z AUTO VRB05KT M07/M13 A2995 560 62 -2000 VRB/05 RMK AO1 SLP158 T10721133
54779K12N 12N20160124085510201/24/16 08:55:31  5-MIN K12N 241355Z AUTO 35005KT M07/M13 A2996 550 59 -1900 010/05 RMK AO1 T10671133
54779K12N 12N20160124090010201/24/16 09:00:31  5-MIN K12N 241400Z AUTO 35004KT M07/M13 A2996 550 59 -1900 010/04 RMK AO1 T10671133
54779K12N 12N20160124090510201/24/16 09:05:31  5-MIN K12N 241405Z AUTO 36006KT M07/M13 A2996 550 59 -1900 010/06 RMK AO1 T10671133
54779K12N 12N20160124091010201/24/16 09:10:31  5-MIN K12N 241410Z AUTO 35005KT M06/M13 A2996 550 57 -1800 360/05 RMK AO1 T10611133
54779K12N 12N20160124091510201/24/16 09:15:31  5-MIN K12N 241415Z AUTO VRB05KT M06/M13 A2996 550 57 -1800 VRB/05 RMK AO1 T10611133
54779K12N 12N20160124092010201/24/16 09:20:31  5-MIN K12N 241420Z AUTO 35007KT M06/M13 A2996 540 57 -1800 010/07 RMK AO1 T10611133
54779K12N 12N20160124092511801/24/16 09:25:31  5-MIN K12N 241425Z AUTO 35007KT 320V040 M06/M14 A2996 550 54 -1800 360/07 330V050 RMK AO1 T10611139
54779K12N 12N20160124093010201/24/16 09:30:31  5-MIN K12N 241430Z AUTO VRB05KT M06/M13 A2997 540 54 -1800 VRB/05 RMK AO1 T10561133
54779K12N 12N20160124093510201/24/16 09:35:31  5-MIN K12N 241435Z AUTO 01007KT M06/M13 A2997 540 54 -1800 020/07 RMK AO1 T10561133
54779K12N 12N20160124094011801/24/16 09:40:31  5-MIN K12N 241440Z AUTO 34007KT 310V010 M06/M14 A2997 540 52 -1800 350/07 320V020 RMK AO1 T10561139
54779K12N 12N20160124094510201/24/16 09:45:31  5-MIN K12N 241445Z AUTO 35006KT M06/M13 A2997 540 54 -1800 360/06 RMK AO1 T10561133
54779K12N 12N20160124095011501/24/16 09:50:31  5-MIN K12N 241450Z AUTO VRB06KT M05/M13 A2996 550 52 -1700 VRB/06 RMK AO1 SLP161 T10501133 53028
54779K12N 12N20160124095510801/24/16 09:55:31  5-MIN K12N 241455Z AUTO VRB06G14KT M05/M13 A2997 540 52 -1700 VRB/06G14 RMK AO1 T10501133
54779K12N 12N20160124100010801/24/16 10:00:31  5-MIN K12N 241500Z AUTO VRB05G14KT M05/M13 A2997 540 52 -1700 VRB/05G14 RMK AO1 T10501133
54779K12N 12N20160124100510201/24/16 10:05:31  5-MIN K12N 241505Z AUTO VRB06KT M04/M13 A2997 540 50 -1600 VRB/06 RMK AO1 T10441133
54779K12N 12N20160124101010201/24/16 10:10:31  5-MIN K12N 241510Z AUTO 01005KT M04/M13 A2997 540 50 -1600 020/05 RMK AO1 T10441133
54779K12N 12N20160124101510201/24/16 10:15:31  5-MIN K12N 241515Z AUTO 35007KT M04/M13 A2997 540 50 -1600 360/07 RMK AO1 T10441133
54779K12N 12N20160124102010201/24/16 10:20:31  5-MIN K12N 241520Z AUTO 34008KT M04/M13 A2997 540 50 -1600 350/08 RMK AO1 T10441133
54779K12N 12N20160124102510201/24/16 10:25:31  5-MIN K12N 241525Z AUTO 34007KT M04/M13 A2997 540 50 -1600 350/07 RMK AO1 T10441133
54779K12N 12N20160124103010201/24/16 10:30:31  5-MIN K12N 241530Z AUTO VRB05KT M04/M13 A2997 540 48 -1600 VRB/05 RMK AO1 T10391133
54779K12N 12N20160124103510201/24/16 10:35:31  5-MIN K12N 241535Z AUTO VRB04KT M04/M13 A2997 540 48 -1600 VRB/04 RMK AO1 T10391133
54779K12N 12N20160124104010201/24/16 10:40:31  5-MIN K12N 241540Z AUTO VRB05KT M04/M13 A2997 540 48 -1600 VRB/05 RMK AO1 T10391133
54779K12N 12N20160124104511801/24/16 10:45:31  5-MIN K12N 241545Z AUTO 36007KT 330V040 M03/M14 A2997 540 44 -1500 020/07 340V050 RMK AO1 T10331139
54779K12N 12N20160124105010901/24/16 10:50:31  5-MIN K12N 241550Z AUTO 36008KT M03/M14 A2997 540 44 -1500 010/08 RMK AO1 SLP163 T10331139
54779K12N 12N20160124105510201/24/16 10:55:31  5-MIN K12N 241555Z AUTO 35004KT M03/M13 A2997 540 46 -1500 360/04 RMK AO1 T10331133
54779K12N 12N20160124110011801/24/16 11:00:31  5-MIN K12N 241600Z AUTO 32008KT 280V350 M03/M13 A2997 540 44 -1400 330/08 290V360 RMK AO1 T10281133
54779K12N 12N20160124110510201/24/16 11:05:31  5-MIN K12N 241605Z AUTO VRB06KT M03/M14 A2997 540 44 -1500 VRB/06 RMK AO1 T10331139
54779K12N 12N20160124111010201/24/16 11:10:31  5-MIN K12N 241610Z AUTO 35009KT M03/M13 A2998 530 44 -1400 360/09 RMK AO1 T10281133
54779K12N 12N20160124111510201/24/16 11:15:31  5-MIN K12N 241615Z AUTO 33006KT M03/M14 A2997 540 42 -1400 340/06 RMK AO1 T10281139
54779K12N 12N20160124112010801/24/16 11:20:31  5-MIN K12N 241620Z AUTO 32009G14KT M03/M13 A2997 540 44 -1400 330/09G14 RMK AO1 T10281133
54779K12N 12N20160124112510201/24/16 11:25:31  5-MIN K12N 241625Z AUTO 35009KT M02/M13 A2997 540 42 -1400 360/09 RMK AO1 T10221133
54779K12N 12N20160124113010201/24/16 11:30:31  5-MIN K12N 241630Z AUTO 34007KT M02/M13 A2997 540 42 -1400 350/07 RMK AO1 T10221133
54779K12N 12N20160124113510201/24/16 11:35:31  5-MIN K12N 241635Z AUTO 34005KT M02/M13 A2997 540 44 -1400 360/05 RMK AO1 T10221128
54779K12N 12N20160124114010201/24/16 11:40:31  5-MIN K12N 241640Z AUTO VRB05KT M02/M13 A2997 540 42 -1400 VRB/05 RMK AO1 T10221133
54779K12N 12N20160124114510201/24/16 11:45:31  5-MIN K12N 241645Z AUTO VRB04KT M02/M13 A2997 540 44 -1400 VRB/04 RMK AO1 T10221128
54779K12N 12N20160124115012501/24/16 11:50:31  5-MIN K12N 241650Z AUTO 35007KT 320V020 M02/M13 A2997 540 42 -1300 360/07 330V030 RMK AO1 SLP160 T10221133
54779K12N 12N20160124115510201/24/16 11:55:31  5-MIN K12N 241655Z AUTO VRB06KT M02/M13 A2996 550 41 -1300 VRB/06 RMK AO1 T10171133
54779K12N 12N20160124120010201/24/16 12:00:31  5-MIN K12N 241700Z AUTO VRB05KT M02/M13 A2996 550 42 -1300 VRB/05 RMK AO1 T10171128
54779K12N 12N20160124120510201/24/16 12:05:31  5-MIN K12N 241705Z AUTO VRB05KT M01/M13 A2995 550 39 -1200 VRB/05 RMK AO1 T10111133
54779K12N 12N20160124121010201/24/16 12:10:31  5-MIN K12N 241710Z AUTO VRB04KT M01/M13 A2996 550 39 -1200 VRB/04 RMK AO1 T10111133
54779K12N 12N20160124121510201/24/16 12:15:31  5-MIN K12N 241715Z AUTO VRB03KT M01/M13 A2996 550 39 -1100 VRB/03 RMK AO1 T10061128
54779K12N 12N20160124122010201/24/16 12:20:31  5-MIN K12N 241720Z AUTO VRB04KT M01/M13 A2995 550 37 -1100 VRB/04 RMK AO1 T10061133
54779K12N 12N20160124122510201/24/16 12:25:31  5-MIN K12N 241725Z AUTO 36006KT M01/M13 A2995 550 37 -1100 020/06 RMK AO1 T10061133
54779K12N 12N20160124123010201/24/16 12:30:31  5-MIN K12N 241730Z AUTO 34005KT M01/M13 A2995 550 37 -1100 350/05 RMK AO1 T10061133
54779K12N 12N20160124123510201/24/16 12:35:31  5-MIN K12N 241735Z AUTO VRB05KT M01/M13 A2995 560 39 -1100 VRB/05 RMK AO1 T10061128
54779K12N 12N20160124124009101/24/16 12:40:31  5-MIN K12N 241740Z AUTO 00/M13 A2995 560 38 -1000 M /M RMK AO1 T00001128
54779K12N 12N20160124124510101/24/16 12:45:31  5-MIN K12N 241745Z AUTO 34006KT 00/M13 A2995 560 36 -1000 350/06 RMK AO1 T00001133
54779K12N 12N20160124125014201/24/16 12:50:31  5-MIN K12N 241750Z AUTO 33008KT 300V360 00/M13 A2995 560 38 -1000 350/08 310V010 RMK AO1 SLP153 T00001128 10000 21150 51016
54779K12N 12N20160124125510101/24/16 12:55:31  5-MIN K12N 241755Z AUTO 35007KT 00/M13 A2994 560 36 -1000 360/07 RMK AO1 T00001133
54779K12N 12N20160124130010101/24/16 13:00:31  5-MIN K12N 241800Z AUTO 36005KT 00/M13 A2995 560 36 -1000 020/05 RMK AO1 T00001133
54779K12N 12N20160124130510101/24/16 13:05:31  5-MIN K12N 241805Z AUTO 35005KT 00/M13 A2995 560 36 -1000 360/05 RMK AO1 T00001133
54779K12N 12N20160124131010101/24/16 13:10:31  5-MIN K12N 241810Z AUTO VRB06KT 01/M13 A2995 560 36 -1000 VRB/06 RMK AO1 T00061128
54779K12N 12N20160124131510101/24/16 13:15:31  5-MIN K12N 241815Z AUTO 36007KT 01/M13 A2995 560 35 -1000 010/07 RMK AO1 T00061133
54779K12N 12N20160124132010101/24/16 13:20:31  5-MIN K12N 241820Z AUTO VRB04KT 01/M13 A2994 560 35 -1000 VRB/04 RMK AO1 T00061133
54779K12N 12N20160124132510001/24/16 13:25:31  5-MIN K12N 241825Z AUTO VRB04KT 01/M13 A2995 560 33 -900 VRB/04 RMK AO1 T00111133
54779K12N 12N20160124133010001/24/16 13:30:31  5-MIN K12N 241830Z AUTO VRB05KT 01/M13 A2995 560 33 -900 VRB/05 RMK AO1 T00111133
54779K12N 12N20160124133511601/24/16 13:35:31  5-MIN K12N 241835Z AUTO 35007KT 320V040 01/M13 A2995 560 33 -900 360/07 330V050 RMK AO1 T00111133
54779K12N 12N20160124134010001/24/16 13:40:31  5-MIN K12N 241840Z AUTO VRB06KT 01/M13 A2995 560 33 -900 VRB/06 RMK AO1 T00111133
54779K12N 12N20160124134510001/24/16 13:45:31  5-MIN K12N 241845Z AUTO VRB03KT 01/M13 A2995 560 33 -900 VRB/03 RMK AO1 T00111133
54779K12N 12N20160124135012301/24/16 13:50:31  5-MIN K12N 241850Z AUTO 33007KT 280V010 01/M13 A2995 560 35 -900 350/07 290V020 RMK AO1 SLP153 T00111128
54779K12N 12N20160124135510001/24/16 13:55:31  5-MIN K12N 241855Z AUTO VRB04KT 02/M13 A2995 560 33 -800 VRB/04 RMK AO1 T00171128
54779K12N 12N20160124140009001/24/16 14:00:31  5-MIN K12N 241900Z AUTO 02/M13 A2995 560 32 -800 M /M RMK AO1 T00171133
54779K12N 12N20160124140510001/24/16 14:05:31  5-MIN K12N 241905Z AUTO VRB05KT 02/M13 A2995 560 33 -800 VRB/05 RMK AO1 T00171128
54779K12N 12N20160124141010001/24/16 14:10:31  5-MIN K12N 241910Z AUTO 36007KT 01/M13 A2995 560 33 -900 010/07 RMK AO1 T00111133
54779K12N 12N20160124141510001/24/16 14:15:31  5-MIN K12N 241915Z AUTO 34006KT 01/M13 A2995 560 33 -900 350/06 RMK AO1 T00111133
54779K12N 12N20160124142010001/24/16 14:20:31  5-MIN K12N 241920Z AUTO VRB06KT 01/M13 A2995 560 35 -900 VRB/06 RMK AO1 T00111128
54779K12N 12N20160124142510001/24/16 14:25:31  5-MIN K12N 241925Z AUTO 35007KT 01/M13 A2995 560 33 -900 360/07 RMK AO1 T00111133
54779K12N 12N20160124143010101/24/16 14:30:31  5-MIN K12N 241930Z AUTO 34006KT 01/M13 A2995 560 35 -1000 350/06 RMK AO1 T00061133
54779K12N 12N20160124143510001/24/16 14:35:31  5-MIN K12N 241935Z AUTO VRB05KT 01/M13 A2996 550 33 -900 VRB/05 RMK AO1 T00111133
54779K12N 12N20160124144010001/24/16 14:40:31  5-MIN K12N 241940Z AUTO 35006KT 01/M13 A2996 550 33 -900 360/06 RMK AO1 T00111133
54779K12N 12N20160124144510001/24/16 14:45:31  5-MIN K12N 241945Z AUTO VRB04KT 01/M13 A2996 550 35 -900 VRB/04 RMK AO1 T00111128
54779K12N 12N20160124145010701/24/16 14:50:31  5-MIN K12N 241950Z AUTO 00000KT 02/M13 A2996 550 32 -800 000/00 RMK AO1 SLP157 T00171133
54779K12N 12N20160124145510001/24/16 14:55:31  5-MIN K12N 241955Z AUTO 00000KT 02/M13 A2996 550 32 -800 000/00 RMK AO1 T00221128
54779K12N 12N20160124150010001/24/16 15:00:31  5-MIN K12N 242000Z AUTO 33008KT 02/M13 A2996 550 32 -800 340/08 RMK AO1 T00221128
54779K12N 12N20160124150510001/24/16 15:05:31  5-MIN K12N 242005Z AUTO 35006KT 02/M13 A2996 550 32 -900 360/06 RMK AO1 T00171133
54779K12N 12N20160124151010001/24/16 15:10:31  5-MIN K12N 242010Z AUTO VRB06KT 02/M13 A2996 550 33 -900 VRB/06 RMK AO1 T00171128
54779K12N 12N20160124151510001/24/16 15:15:31  5-MIN K12N 242015Z AUTO 34005KT 02/M13 A2996 550 33 -900 350/05 RMK AO1 T00171128
54779K12N 12N20160124152010001/24/16 15:20:31  5-MIN K12N 242020Z AUTO VRB04KT 02/M13 A2996 540 32 -900 VRB/04 RMK AO1 T00171133
54779K12N 12N20160124152510001/24/16 15:25:31  5-MIN K12N 242025Z AUTO 35005KT 02/M13 A2996 550 33 -900 360/05 RMK AO1 T00171128
54779K12N 12N20160124153010001/24/16 15:30:31  5-MIN K12N 242030Z AUTO VRB03KT 01/M13 A2996 550 33 -900 VRB/03 RMK AO1 T00111133
54779K12N 12N20160124153510001/24/16 15:35:31  5-MIN K12N 242035Z AUTO 00000KT 01/M13 A2996 550 35 -900 000/00 RMK AO1 T00111128
54779K12N 12N20160124154010001/24/16 15:40:31  5-MIN K12N 242040Z AUTO VRB03KT 01/M13 A2997 540 35 -900 VRB/03 RMK AO1 T00111128
54779K12N 12N20160124154510001/24/16 15:45:31  5-MIN K12N 242045Z AUTO VRB04KT 01/M13 A2996 550 35 -900 VRB/04 RMK AO1 T00111128
54779K12N 12N20160124155011301/24/16 15:50:31  5-MIN K12N 242050Z AUTO 35006KT 02/M12 A2997 540 35 -900 360/06 RMK AO1 SLP162 T00171122 58008
54779K12N 12N20160124155510001/24/16 15:55:31  5-MIN K12N 242055Z AUTO VRB06KT 01/M13 A2997 540 35 -900 VRB/06 RMK AO1 T00111128
54779K12N 12N20160124160010001/24/16 16:00:31  5-MIN K12N 242100Z AUTO 35005KT 01/M12 A2998 530 36 -900 010/05 RMK AO1 T00111122
54779K12N 12N20160124160510001/24/16 16:05:31  5-MIN K12N 242105Z AUTO 35006KT 01/M12 A2998 530 36 -900 010/06 RMK AO1 T00111122
54779K12N 12N20160124161010001/24/16 16:10:31  5-MIN K12N 242110Z AUTO VRB04KT 01/M12 A2998 530 36 -900 VRB/04 RMK AO1 T00111122
54779K12N 12N20160124161511701/24/16 16:15:31  5-MIN K12N 242115Z AUTO 35007KT 320V020 01/M12 A2999 520 36 -1000 010/07 330V030 RMK AO1 T00111122
54779K12N 12N20160124162010101/24/16 16:20:31  5-MIN K12N 242120Z AUTO 33006KT 01/M13 A2999 520 35 -1000 340/06 RMK AO1 T00111128
54779K12N 12N20160124162510101/24/16 16:25:31  5-MIN K12N 242125Z AUTO VRB05KT 01/M13 A2999 520 36 -1000 VRB/05 RMK AO1 T00061128
54779K12N 12N20160124163010101/24/16 16:30:31  5-MIN K12N 242130Z AUTO VRB05KT 01/M13 A2999 520 36 -1000 VRB/05 RMK AO1 T00061128
54779K12N 12N20160124163510101/24/16 16:35:31  5-MIN K12N 242135Z AUTO 00000KT 00/M12 A2999 520 39 -1100 000/00 RMK AO1 T00001122
54779K12N 12N20160124164010201/24/16 16:40:31  5-MIN K12N 242140Z AUTO 34003KT M01/M12 A2999 520 43 -1200 350/03 RMK AO1 T10061117
54779K12N 12N20160124164510201/24/16 16:45:31  5-MIN K12N 242145Z AUTO 35003KT M01/M12 A2999 520 41 -1200 360/03 RMK AO1 T10061122
54779K12N 12N20160124165010901/24/16 16:50:31  5-MIN K12N 242150Z AUTO 00000KT M01/M11 A2999 520 47 -1200 000/00 RMK AO1 SLP170 T10111111
54779K12N 12N20160124165510201/24/16 16:55:31  5-MIN K12N 242155Z AUTO 00000KT M03/M11 A3000 510 55 -1500 000/00 RMK AO1 T10281106
54779K12N 12N20160124170010201/24/16 17:00:31  5-MIN K12N 242200Z AUTO 00000KT M03/M11 A2999 520 55 -1500 000/00 RMK AO1 T10281106
54779K12N 12N20160124170510201/24/16 17:05:31  5-MIN K12N 242205Z AUTO 00000KT M03/M10 A2999 520 58 -1500 000/00 RMK AO1 T10281100
54779K12N 12N20160124171010201/24/16 17:10:31  5-MIN K12N 242210Z AUTO 00000KT M04/M09 A3000 520 65 -1600 000/00 RMK AO1 T10391094
54779K12N 12N20160124171510201/24/16 17:15:31  5-MIN K12N 242215Z AUTO 00000KT M04/M10 A3000 510 63 -1600 000/00 RMK AO1 T10391100
54779K12N 12N20160124172010201/24/16 17:20:31  5-MIN K12N 242220Z AUTO 00000KT M02/M11 A3000 510 53 -1400 000/00 RMK AO1 T10221106
54779K12N 12N20160124172510201/24/16 17:25:31  5-MIN K12N 242225Z AUTO 00000KT M03/M10 A3001 510 60 -1500 000/00 RMK AO1 T10331100
54779K12N 12N20160124173010201/24/16 17:30:31  5-MIN K12N 242230Z AUTO 00000KT M03/M10 A3001 510 60 -1500 000/00 RMK AO1 T10331100
54779K12N 12N20160124173510201/24/16 17:35:31  5-MIN K12N 242235Z AUTO 00000KT M03/M10 A3000 510 60 -1500 000/00 RMK AO1 T10331100
54779K12N 12N20160124174010201/24/16 17:40:31  5-MIN K12N 242240Z AUTO 00000KT M04/M09 A3001 500 65 -1600 000/00 RMK AO1 T10391094
54779K12N 12N20160124174510201/24/16 17:45:31  5-MIN K12N 242245Z AUTO 00000KT M03/M09 A3001 500 63 -1500 000/00 RMK AO1 T10331094
54779K12N 12N20160124175010901/24/16 17:50:31  5-MIN K12N 242250Z AUTO 00000KT M04/M09 A3001 500 65 -1600 000/00 RMK AO1 SLP180 T10391094
54779K12N 12N20160124175510201/24/16 17:55:31  5-MIN K12N 242255Z AUTO 00000KT M04/M09 A3001 500 65 -1600 000/00 RMK AO1 T10391094
54779K12N 12N20160124180010201/24/16 18:00:31  5-MIN K12N 242300Z AUTO 00000KT M04/M10 A3001 500 65 -1700 000/00 RMK AO1 T10441100
54779K12N 12N20160124180510201/24/16 18:05:31  5-MIN K12N 242305Z AUTO 00000KT M04/M09 A3002 500 68 -1700 000/00 RMK AO1 T10441094
54779K12N 12N20160124181010201/24/16 18:10:31  5-MIN K12N 242310Z AUTO 00000KT M04/M09 A3002 490 68 -1700 000/00 RMK AO1 T10441094
54779K12N 12N20160124181510201/24/16 18:15:31  5-MIN K12N 242315Z AUTO 00000KT M06/M09 A3002 490 74 -1800 000/00 RMK AO1 T10561094
54779K12N 12N20160124182010201/24/16 18:20:31  5-MIN K12N 242320Z AUTO 00000KT M06/M10 A3002 490 71 -1800 000/00 RMK AO1 T10561100
54779K12N 12N20160124182510201/24/16 18:25:31  5-MIN K12N 242325Z AUTO 00000KT M05/M10 A3003 490 68 -1800 000/00 RMK AO1 T10501100
54779K12N 12N20160124183010201/24/16 18:30:31  5-MIN K12N 242330Z AUTO 00000KT M06/M09 A3002 490 74 -1800 000/00 RMK AO1 T10561094
54779K12N 12N20160124183510201/24/16 18:35:31  5-MIN K12N 242335Z AUTO 00000KT M06/M09 A3003 480 77 -1900 000/00 RMK AO1 T10611094
54779K12N 12N20160124184010201/24/16 18:40:31  5-MIN K12N 242340Z AUTO 00000KT M06/M09 A3003 480 77 -1900 000/00 RMK AO1 T10611094
54779K12N 12N20160124184510201/24/16 18:45:31  5-MIN K12N 242345Z AUTO 00000KT M06/M09 A3004 480 77 -1900 000/00 RMK AO1 T10611094
54779K12N 12N20160124185012701/24/16 18:50:31  5-MIN K12N 242350Z AUTO 00000KT M07/M09 A3004 480 81 -2000 000/00 RMK AO1 SLP192 T10671094 10022 21067 53008
54779K12N 12N20160124185510201/24/16 18:55:31  5-MIN K12N 242355Z AUTO 00000KT M07/M09 A3004 470 81 -2000 000/00 RMK AO1 T10671094
54779K12N 12N20160124190010201/24/16 19:00:31  5-MIN K12N 250000Z AUTO 00000KT M07/M09 A3004 470 81 -2000 000/00 RMK AO1 T10671094
54779K12N 12N20160124190510201/24/16 19:05:31  5-MIN K12N 250005Z AUTO 00000KT M07/M09 A3004 480 81 -2000 000/00 RMK AO1 T10671094
54779K12N 12N20160124191010201/24/16 19:10:31  5-MIN K12N 250010Z AUTO 00000KT M07/M09 A3004 470 81 -2000 000/00 RMK AO1 T10671094
54779K12N 12N20160124191510201/24/16 19:15:31  5-MIN K12N 250015Z AUTO 00000KT M07/M09 A3004 470 84 -2000 000/00 RMK AO1 T10671089
54779K12N 12N20160124192010201/24/16 19:20:31  5-MIN K12N 250020Z AUTO 00000KT M07/M09 A3004 480 84 -2000 000/00 RMK AO1 T10671089
54779K12N 12N20160124192510201/24/16 19:25:31  5-MIN K12N 250025Z AUTO 00000KT M07/M09 A3004 470 84 -2000 000/00 RMK AO1 T10671089
54779K12N 12N20160124193010201/24/16 19:30:31  5-MIN K12N 250030Z AUTO 00000KT M07/M09 A3004 470 84 -2000 000/00 RMK AO1 T10671089
54779K12N 12N20160124193510201/24/16 19:35:31  5-MIN K12N 250035Z AUTO 00000KT M07/M09 A3004 470 84 -2000 000/00 RMK AO1 T10671089
54779K12N 12N20160124194010201/24/16 19:40:31  5-MIN K12N 250040Z AUTO 00000KT M07/M09 A3004 470 84 -2000 000/00 RMK AO1 T10671089
54779K12N 12N20160124194510201/24/16 19:45:31  5-MIN K12N 250045Z AUTO 00000KT M07/M09 A3005 470 84 -2000 000/00 RMK AO1 T10671089
54779K12N 12N20160124195010901/24/16 19:50:31  5-MIN K12N 250050Z AUTO 17003KT M07/M09 A3005 470 88 -2100 180/03 RMK AO1 SLP194 T10721089
54779K12N 12N20160124195510201/24/16 19:55:31  5-MIN K12N 250055Z AUTO 00000KT M07/M09 A3005 460 84 -2000 000/00 RMK AO1 T10671089
54779K12N 12N20160124200010201/24/16 20:00:31  5-MIN K12N 250100Z AUTO 00000KT M07/M09 A3006 460 84 -2000 000/00 RMK AO1 T10671089
54779K12N 12N20160124200510201/24/16 20:05:31  5-MIN K12N 250105Z AUTO 00000KT M07/M09 A3006 460 88 -2100 000/00 RMK AO1 T10721089
54779K12N 12N20160124201010201/24/16 20:10:31  5-MIN K12N 250110Z AUTO 00000KT M07/M09 A3006 450 88 -2100 000/00 RMK AO1 T10721089
54779K12N 12N20160124201510201/24/16 20:15:31  5-MIN K12N 250115Z AUTO 00000KT M07/M09 A3006 450 84 -2000 000/00 RMK AO1 T10671089
54779K12N 12N20160124202010201/24/16 20:20:31  5-MIN K12N 250120Z AUTO 00000KT M07/M09 A3007 450 84 -2100 000/00 RMK AO1 T10721094
54779K12N 12N20160124202510201/24/16 20:25:31  5-MIN K12N 250125Z AUTO 00000KT M07/M09 A3007 450 84 -2100 000/00 RMK AO1 T10721094
54779K12N 12N20160124203010201/24/16 20:30:31  5-MIN K12N 250130Z AUTO 00000KT M07/M09 A3008 440 81 -2000 000/00 RMK AO1 T10671094
54779K12N 12N20160124203510201/24/16 20:35:31  5-MIN K12N 250135Z AUTO 00000KT M07/M09 A3007 440 88 -2100 000/00 RMK AO1 T10721089
54779K12N 12N20160124204010201/24/16 20:40:31  5-MIN K12N 250140Z AUTO 00000KT M07/M09 A3007 440 88 -2100 000/00 RMK AO1 T10721089
54779K12N 12N20160124204510201/24/16 20:45:31  5-MIN K12N 250145Z AUTO 00000KT M07/M09 A3007 440 88 -2100 000/00 RMK AO1 T10721089
54779K12N 12N20160124205010901/24/16 20:50:31  5-MIN K12N 250150Z AUTO 00000KT M07/M09 A3007 440 84 -2000 000/00 RMK AO1 SLP200 T10671089
54779K12N 12N20160124205510201/24/16 20:55:31  5-MIN K12N 250155Z AUTO 00000KT M07/M08 A3007 440 88 -2000 000/00 RMK AO1 T10671083
54779K12N 12N20160124210010201/24/16 21:00:31  5-MIN K12N 250200Z AUTO 00000KT M07/M09 A3008 440 88 -2100 000/00 RMK AO1 T10721089
54779K12N 12N20160124210510201/24/16 21:05:31  5-MIN K12N 250205Z AUTO 00000KT M07/M09 A3008 440 84 -2000 000/00 RMK AO1 T10671089
54779K12N 12N20160124211010201/24/16 21:10:31  5-MIN K12N 250210Z AUTO 00000KT M07/M09 A3008 440 84 -2000 000/00 RMK AO1 T10671089
54779K12N 12N20160124211510201/24/16 21:15:31  5-MIN K12N 250215Z AUTO 00000KT M07/M09 A3007 450 84 -2000 000/00 RMK AO1 T10671089
54779K12N 12N20160124212010201/24/16 21:20:31  5-MIN K12N 250220Z AUTO 00000KT M07/M09 A3007 440 84 -2000 000/00 RMK AO1 T10671089
54779K12N 12N20160124212510201/24/16 21:25:31  5-MIN K12N 250225Z AUTO 00000KT M07/M09 A3007 440 84 -2000 000/00 RMK AO1 T10671089
54779K12N 12N20160124213010201/24/16 21:30:31  5-MIN K12N 250230Z AUTO 00000KT M07/M09 A3007 440 84 -2000 000/00 RMK AO1 T10671089
54779K12N 12N20160124213510201/24/16 21:35:31  5-MIN K12N 250235Z AUTO 00000KT M06/M09 A3008 440 81 -2000 000/00 RMK AO1 T10611089
54779K12N 12N20160124214010201/24/16 21:40:31  5-MIN K12N 250240Z AUTO 00000KT M07/M09 A3008 440 84 -2100 000/00 RMK AO1 T10671089
54779K12N 12N20160124214510201/24/16 21:45:31  5-MIN K12N 250245Z AUTO 00000KT M07/M08 A3008 440 88 -2000 000/00 RMK AO1 T10671083
54779K12N 12N20160124215011501/24/16 21:50:31  5-MIN K12N 250250Z AUTO 00000KT M07/M08 A3008 440 88 -2000 000/00 RMK AO1 SLP200 T10671083 53023
54779K12N 12N20160124215510201/24/16 21:55:31  5-MIN K12N 250255Z AUTO 00000KT M06/M08 A3008 440 84 -2000 000/00 RMK AO1 T10611083
54779K12N 12N20160124220010201/24/16 22:00:31  5-MIN K12N 250300Z AUTO 00000KT M06/M08 A3008 440 84 -2000 000/00 RMK AO1 T10611083
54779K12N 12N20160124220510201/24/16 22:05:31  5-MIN K12N 250305Z AUTO 00000KT M06/M08 A3008 430 88 -2000 000/00 RMK AO1 T10611078
54779K12N 12N20160124221010201/24/16 22:10:31  5-MIN K12N 250310Z AUTO 00000KT M06/M08 A3009 430 88 -2000 000/00 RMK AO1 T10611078
54779K12N 12N20160124221510201/24/16 22:15:31  5-MIN K12N 250315Z AUTO 00000KT M06/M08 A3009 430 84 -1900 000/00 RMK AO1 T10561078
54779K12N 12N20160124222010201/24/16 22:20:31  5-MIN K12N 250320Z AUTO 00000KT M06/M08 A3009 430 84 -1900 000/00 RMK AO1 T10561078
54779K12N 12N20160124222510201/24/16 22:25:31  5-MIN K12N 250325Z AUTO 00000KT M06/M08 A3009 430 88 -2000 000/00 RMK AO1 T10611078
54779K12N 12N20160124223010201/24/16 22:30:31  5-MIN K12N 250330Z AUTO 00000KT M06/M08 A3009 430 88 -2000 000/00 RMK AO1 T10611078
54779K12N 12N20160124223510201/24/16 22:35:31  5-MIN K12N 250335Z AUTO 00000KT M06/M08 A3009 430 84 -2000 000/00 RMK AO1 T10611083
54779K12N 12N20160124224010201/24/16 22:40:31  5-MIN K12N 250340Z AUTO 00000KT M06/M08 A3009 430 81 -1900 000/00 RMK AO1 T10561083
54779K12N 12N20160124224510201/24/16 22:45:31  5-MIN K12N 250345Z AUTO 00000KT M06/M08 A3009 430 84 -2000 000/00 RMK AO1 T10611083
54779K12N 12N20160124225010901/24/16 22:50:31  5-MIN K12N 250350Z AUTO 22003KT M06/M08 A3009 430 84 -2000 230/03 RMK AO1 SLP204 T10611083
54779K12N 12N20160124225510201/24/16 22:55:31  5-MIN K12N 250355Z AUTO 00000KT M06/M08 A3009 430 84 -2000 000/00 RMK AO1 T10611083
54779K12N 12N20160124230010201/24/16 23:00:31  5-MIN K12N 250400Z AUTO 00000KT M06/M08 A3009 430 84 -2000 000/00 RMK AO1 T10611083
54779K12N 12N20160124230510201/24/16 23:05:31  5-MIN K12N 250405Z AUTO 21003KT M07/M08 A3009 420 88 -2100 220/03 RMK AO1 T10671083
54779K12N 12N20160124231010201/24/16 23:10:31  5-MIN K12N 250410Z AUTO 20003KT M06/M09 A3010 420 81 -2000 210/03 RMK AO1 T10611089
54779K12N 12N20160124231510201/24/16 23:15:31  5-MIN K12N 250415Z AUTO 00000KT M06/M09 A3009 430 81 -2000 000/00 RMK AO1 T10611089
54779K12N 12N20160124232010201/24/16 23:20:31  5-MIN K12N 250420Z AUTO 00000KT M07/M09 A3009 430 84 -2100 000/00 RMK AO1 T10671089
54779K12N 12N20160124232510201/24/16 23:25:31  5-MIN K12N 250425Z AUTO 00000KT M07/M09 A3009 430 84 -2100 000/00 RMK AO1 T10671089
54779K12N 12N20160124233010201/24/16 23:30:31  5-MIN K12N 250430Z AUTO 00000KT M07/M09 A3009 430 84 -2100 000/00 RMK AO1 T10671089
54779K12N 12N20160124233510201/24/16 23:35:31  5-MIN K12N 250435Z AUTO 00000KT M07/M09 A3010 420 84 -2100 000/00 RMK AO1 T10671089
54779K12N 12N20160124234010201/24/16 23:40:31  5-MIN K12N 250440Z AUTO 00000KT M07/M09 A3010 420 84 -2100 000/00 RMK AO1 T10671089
54779K12N 12N20160124234510201/24/16 23:45:31  5-MIN K12N 250445Z AUTO 00000KT M07/M09 A3010 420 84 -2100 000/00 RMK AO1 T10671089
54779K12N 12N20160124235011901/24/16 23:50:31  5-MIN K12N 250450Z AUTO 00000KT M07/M08 A3010 420 88 -2100 000/00 RMK AO1 SLP208 T10671083 400221150
54779K12N 12N20160124235510201/24/16 23:55:31  5-MIN K12N 250455Z AUTO 00000KT M06/M08 A3010 420 84 -2000 000/00 RMK AO1 T10611083
54779K12N 12N20160125000010201/25/16 00:00:31  5-MIN K12N 250500Z AUTO 00000KT M06/M08 A3011 410 84 -2000 000/00 RMK AO1 T10611083
54779K12N 12N20160125000510201/25/16 00:05:31  5-MIN K12N 250505Z AUTO 00000KT M07/M08 A3011 410 88 -2100 000/00 RMK AO1 T10671083
54779K12N 12N20160125001010201/25/16 00:10:31  5-MIN K12N 250510Z AUTO 00000KT M07/M08 A3011 410 88 -2100 000/00 RMK AO1 T10671083
54779K12N 12N20160125001510201/25/16 00:15:31  5-MIN K12N 250515Z AUTO 00000KT M07/M08 A3011 410 88 -2100 000/00 RMK AO1 T10671083
54779K12N 12N20160125002010201/25/16 00:20:31  5-MIN K12N 250520Z AUTO 00000KT M06/M08 A3011 410 84 -2000 000/00 RMK AO1 T10611083
54779K12N 12N20160125002510201/25/16 00:25:31  5-MIN K12N 250525Z AUTO 00000KT M07/M08 A3011 410 88 -2100 000/00 RMK AO1 T10671083
54779K12N 12N20160125003010201/25/16 00:30:31  5-MIN K12N 250530Z AUTO 00000KT M07/M08 A3011 410 88 -2100 000/00 RMK AO1 T10671083
54779K12N 12N20160125003510201/25/16 00:35:31  5-MIN K12N 250535Z AUTO 00000KT M07/M08 A3011 410 88 -2100 000/00 RMK AO1 T10671083
54779K12N 12N20160125004010201/25/16 00:40:31  5-MIN K12N 250540Z AUTO 00000KT M07/M08 A3011 410 88 -2100 000/00 RMK AO1 T10671083
54779K12N 12N20160125004510201/25/16 00:45:31  5-MIN K12N 250545Z AUTO 00000KT M07/M08 A3011 410 88 -2100 000/00 RMK AO1 T10671083
54779K12N 12N20160125005012701/25/16 00:50:31  5-MIN K12N 250550Z AUTO 00000KT M07/M08 A3012 400 88 -2100 000/00 RMK AO1 SLP211 T10671083 11056 21072 51013
54779K12N 12N20160125005510201/25/16 00:55:31  5-MIN K12N 250555Z AUTO 20003KT M07/M08 A3012 400 88 -2100 210/03 RMK AO1 T10671083
54779K12N 12N20160125010010201/25/16 01:00:31  5-MIN K12N 250600Z AUTO 00000KT M07/M08 A3012 400 88 -2100 000/00 RMK AO1 T10671083
54779K12N 12N20160125010510201/25/16 01:05:31  5-MIN K12N 250605Z AUTO 00000KT M07/M08 A3012 400 88 -2100 000/00 RMK AO1 T10671083
54779K12N 12N20160125011010201/25/16 01:10:31  5-MIN K12N 250610Z AUTO 00000KT M07/M09 A3012 400 88 -2200 000/00 RMK AO1 T10721089
54779K12N 12N20160125011510201/25/16 01:15:31  5-MIN K12N 250615Z AUTO 00000KT M08/M09 A3012 400 92 -2200 000/00 RMK AO1 T10781089
54779K12N 12N20160125012010201/25/16 01:20:31  5-MIN K12N 250620Z AUTO 00000KT M08/M09 A3012 400 88 -2200 000/00 RMK AO1 T10781094
54779K12N 12N20160125012510201/25/16 01:25:31  5-MIN K12N 250625Z AUTO 00000KT M07/M09 A3012 400 84 -2200 000/00 RMK AO1 T10721094
54779K12N 12N20160125013010201/25/16 01:30:31  5-MIN K12N 250630Z AUTO 00000KT M08/M09 A3012 400 88 -2200 000/00 RMK AO1 T10781094
54779K12N 12N20160125013510201/25/16 01:35:31  5-MIN K12N 250635Z AUTO 00000KT M08/M11 A3012 400 84 -2300 000/00 RMK AO1 T10831106
54779K12N 12N20160125014010201/25/16 01:40:31  5-MIN K12N 250640Z AUTO 00000KT M08/M11 A3012 400 84 -2300 000/00 RMK AO1 T10831106
54779K12N 12N20160125014510201/25/16 01:45:31  5-MIN K12N 250645Z AUTO 00000KT M08/M11 A3012 400 84 -2300 000/00 RMK AO1 T10831106
54779K12N 12N20160125015010901/25/16 01:50:31  5-MIN K12N 250650Z AUTO 00000KT M08/M11 A3012 400 84 -2300 000/00 RMK AO1 SLP214 T10831106
54779K12N 12N20160125015510201/25/16 01:55:31  5-MIN K12N 250655Z AUTO 00000KT M09/M11 A3013 390 92 -2500 000/00 RMK AO1 T10941106
54779K12N 12N20160125020010201/25/16 02:00:31  5-MIN K12N 250700Z AUTO 00000KT M09/M11 A3013 390 92 -2500 000/00 RMK AO1 T10941106
54779K12N 12N20160125020510201/25/16 02:05:31  5-MIN K12N 250705Z AUTO 00000KT M09/M11 A3013 390 92 -2500 000/00 RMK AO1 T10941106
54779K12N 12N20160125021010201/25/16 02:10:31  5-MIN K12N 250710Z AUTO 00000KT M09/M11 A3013 390 92 -2500 000/00 RMK AO1 T10941106
54779K12N 12N20160125021510201/25/16 02:15:31  5-MIN K12N 250715Z AUTO 00000KT M10/M11 A3013 390 92 -2600 000/00 RMK AO1 T11001111
54779K12N 12N20160125022010201/25/16 02:20:31  5-MIN K12N 250720Z AUTO 00000KT M10/M12 A3013 390 88 -2600 000/00 RMK AO1 T11001117
54779K12N 12N20160125022510201/25/16 02:25:31  5-MIN K12N 250725Z AUTO 00000KT M10/M12 A3014 390 84 -2600 000/00 RMK AO1 T11001122
54779K12N 12N20160125023010201/25/16 02:30:31  5-MIN K12N 250730Z AUTO 00000KT M10/M12 A3014 380 84 -2600 000/00 RMK AO1 T11001122
54779K12N 12N20160125023510201/25/16 02:35:31  5-MIN K12N 250735Z AUTO 00000KT M10/M12 A3014 380 88 -2600 000/00 RMK AO1 T11001117
54779K12N 12N20160125024010201/25/16 02:40:31  5-MIN K12N 250740Z AUTO 00000KT M10/M12 A3014 380 88 -2600 000/00 RMK AO1 T11001117
54779K12N 12N20160125024510201/25/16 02:45:31  5-MIN K12N 250745Z AUTO 00000KT M10/M12 A3014 380 88 -2600 000/00 RMK AO1 T11001117
54779K12N 12N20160125025010901/25/16 02:50:31  5-MIN K12N 250750Z AUTO 00000KT M11/M12 A3014 380 88 -2600 000/00 RMK AO1 SLP220 T11061122
54779K12N 12N20160125025510201/25/16 02:55:31  5-MIN K12N 250755Z AUTO 00000KT M11/M12 A3014 380 88 -2600 000/00 RMK AO1 T11061122
54779K12N 12N20160125030010201/25/16 03:00:31  5-MIN K12N 250800Z AUTO 00000KT M11/M12 A3014 380 92 -2600 000/00 RMK AO1 T11061117
54779K12N 12N20160125030510201/25/16 03:05:31  5-MIN K12N 250805Z AUTO 00000KT M11/M12 A3014 380 92 -2600 000/00 RMK AO1 T11061117
54779K12N 12N20160125031010201/25/16 03:10:31  5-MIN K12N 250810Z AUTO 00000KT M11/M12 A3015 380 92 -2600 000/00 RMK AO1 T11061117
54779K12N 12N20160125031510201/25/16 03:15:31  5-MIN K12N 250815Z AUTO 00000KT M11/M12 A3015 380 88 -2600 000/00 RMK AO1 T11061122
54779K12N 12N20160125032010201/25/16 03:20:31  5-MIN K12N 250820Z AUTO 00000KT M11/M12 A3015 370 92 -2700 000/00 RMK AO1 T11111122
54779K12N 12N20160125032510201/25/16 03:25:31  5-MIN K12N 250825Z AUTO 00000KT M11/M12 A3015 370 88 -2600 000/00 RMK AO1 T11061122
54779K12N 12N20160125033010201/25/16 03:30:31  5-MIN K12N 250830Z AUTO 00000KT M10/M12 A3015 370 84 -2600 000/00 RMK AO1 T11001122
54779K12N 12N20160125033510201/25/16 03:35:31  5-MIN K12N 250835Z AUTO 00000KT M10/M12 A3015 370 88 -2600 000/00 RMK AO1 T11001117
54779K12N 12N20160125034010201/25/16 03:40:31  5-MIN K12N 250840Z AUTO 00000KT M09/M12 A3015 370 84 -2500 000/00 RMK AO1 T10941117
54779K12N 12N20160125034510201/25/16 03:45:31  5-MIN K12N 250845Z AUTO 00000KT M10/M11 A3016 370 92 -2600 000/00 RMK AO1 T11001111
54779K12N 12N20160125035011501/25/16 03:50:31  5-MIN K12N 250850Z AUTO 00000KT M09/M11 A3016 370 88 -2500 000/00 RMK AO1 SLP227 T10941111 52013
54779K12N 12N20160125035510201/25/16 03:55:31  5-MIN K12N 250855Z AUTO 00000KT M09/M11 A3016 370 88 -2500 000/00 RMK AO1 T10941111
54779K12N 12N20160125040010201/25/16 04:00:31  5-MIN K12N 250900Z AUTO 00000KT M09/M11 A3016 370 88 -2500 000/00 RMK AO1 T10941111
54779K12N 12N20160125040510201/25/16 04:05:31  5-MIN K12N 250905Z AUTO 00000KT M09/M11 A3016 360 88 -2400 000/00 RMK AO1 T10891106
54779K12N 12N20160125041010201/25/16 04:10:31  5-MIN K12N 250910Z AUTO 00000KT M09/M11 A3016 360 92 -2500 000/00 RMK AO1 T10941106
54779K12N 12N20160125041510201/25/16 04:15:31  5-MIN K12N 250915Z AUTO 00000KT M09/M11 A3016 360 88 -2500 000/00 RMK AO1 T10941111
54779K12N 12N20160125042010201/25/16 04:20:31  5-MIN K12N 250920Z AUTO 00000KT M09/M11 A3016 360 88 -2500 000/00 RMK AO1 T10941111
54779K12N 12N20160125042510201/25/16 04:25:31  5-MIN K12N 250925Z AUTO 00000KT M09/M11 A3016 360 88 -2500 000/00 RMK AO1 T10941111
54779K12N 12N20160125043010201/25/16 04:30:31  5-MIN K12N 250930Z AUTO 00000KT M10/M12 A3016 360 88 -2600 000/00 RMK AO1 T11001117
54779K12N 12N20160125043510201/25/16 04:35:31  5-MIN K12N 250935Z AUTO 00000KT M09/M12 A3016 360 84 -2500 000/00 RMK AO1 T10941117
54779K12N 12N20160125044010201/25/16 04:40:31  5-MIN K12N 250940Z AUTO 00000KT M10/M12 A3017 350 88 -2600 000/00 RMK AO1 T11001117
54779K12N 12N20160125044510201/25/16 04:45:31  5-MIN K12N 250945Z AUTO 00000KT M11/M12 A3017 350 88 -2700 000/00 RMK AO1 T11061122
54779K12N 12N20160125045010901/25/16 04:50:31  5-MIN K12N 250950Z AUTO 00000KT M11/M13 A3017 350 88 -2700 000/00 RMK AO1 SLP234 T11111128
54779K12N 12N20160125045510201/25/16 04:55:31  5-MIN K12N 250955Z AUTO 00000KT M11/M13 A3017 350 84 -2700 000/00 RMK AO1 T11061128
54779K12N 12N20160125050010201/25/16 05:00:31  5-MIN K12N 251000Z AUTO 00000KT M11/M13 A3018 350 84 -2700 000/00 RMK AO1 T11111133
54779K12N 12N20160125050510201/25/16 05:05:31  5-MIN K12N 251005Z AUTO 00000KT M11/M13 A3018 350 84 -2800 000/00 RMK AO1 T11111133
54779K12N 12N20160125051010201/25/16 05:10:31  5-MIN K12N 251010Z AUTO 00000KT M11/M13 A3018 340 88 -2800 000/00 RMK AO1 T11111128
54779K12N 12N20160125051510201/25/16 05:15:31  5-MIN K12N 251015Z AUTO 00000KT M12/M13 A3018 340 91 -2800 000/00 RMK AO1 T11171128
54779K12N 12N20160125052010201/25/16 05:20:31  5-MIN K12N 251020Z AUTO 00000KT M12/M13 A3018 340 87 -2800 000/00 RMK AO1 T11171133
54779K12N 12N20160125052510201/25/16 05:25:31  5-MIN K12N 251025Z AUTO 00000KT M12/M13 A3018 340 87 -2800 000/00 RMK AO1 T11171133
54779K12N 12N20160125053010201/25/16 05:30:31  5-MIN K12N 251030Z AUTO 00000KT M12/M13 A3019 340 91 -2900 000/00 RMK AO1 T11221133
54779K12N 12N20160125053510201/25/16 05:35:31  5-MIN K12N 251035Z AUTO 00000KT M12/M14 A3019 340 87 -2900 000/00 RMK AO1 T11221139
54779K12N 12N20160125054010201/25/16 05:40:31  5-MIN K12N 251040Z AUTO 00000KT M12/M14 A3019 340 84 -2800 000/00 RMK AO1 T11171139
54779K12N 12N20160125054510201/25/16 05:45:31  5-MIN K12N 251045Z AUTO 00000KT M12/M14 A3019 340 84 -2800 000/00 RMK AO1 T11171139
54779K12N 12N20160125055010901/25/16 05:50:31  5-MIN K12N 251050Z AUTO 00000KT M12/M14 A3020 330 84 -2800 000/00 RMK AO1 SLP242 T11171139
54779K12N 12N20160125055510201/25/16 05:55:31  5-MIN K12N 251055Z AUTO 00000KT M12/M14 A3020 330 87 -2900 000/00 RMK AO1 T11221139
54779K12N 12N20160125060010201/25/16 06:00:31  5-MIN K12N 251100Z AUTO 00000KT M12/M14 A3020 330 87 -2900 000/00 RMK AO1 T11221139
54779K12N 12N20160125060510201/25/16 06:05:31  5-MIN K12N 251105Z AUTO 00000KT M12/M14 A3020 330 87 -2900 000/00 RMK AO1 T11221139
54779K12N 12N20160125061010201/25/16 06:10:31  5-MIN K12N 251110Z AUTO 00000KT M13/M14 A3020 320 87 -3000 000/00 RMK AO1 T11281144
54779K12N 12N20160125061510201/25/16 06:15:31  5-MIN K12N 251115Z AUTO 00000KT M13/M15 A3021 320 84 -3000 000/00 RMK AO1 T11281150
54779K12N 12N20160125062010201/25/16 06:20:31  5-MIN K12N 251120Z AUTO 00000KT M12/M14 A3020 320 84 -2900 000/00 RMK AO1 T11221144
54779K12N 12N20160125062510201/25/16 06:25:31  5-MIN K12N 251125Z AUTO 00000KT M12/M14 A3021 320 84 -2900 000/00 RMK AO1 T11221144
54779K12N 12N20160125063010201/25/16 06:30:31  5-MIN K12N 251130Z AUTO 00000KT M13/M14 A3021 320 87 -3000 000/00 RMK AO1 T11281144
54779K12N 12N20160125063510201/25/16 06:35:31  5-MIN K12N 251135Z AUTO 00000KT M13/M14 A3021 320 87 -3000 000/00 RMK AO1 T11281144
54779K12N 12N20160125064010201/25/16 06:40:31  5-MIN K12N 251140Z AUTO 00000KT M13/M14 A3021 320 87 -3000 000/00 RMK AO1 T11281144
54779K12N 12N20160125064510201/25/16 06:45:31  5-MIN K12N 251145Z AUTO 00000KT M13/M15 A3022 310 84 -3000 000/00 RMK AO1 T11281150
54779K12N 12N20160125065012701/25/16 06:50:31  5-MIN K12N 251150Z AUTO 00000KT M12/M15 A3022 310 80 -2900 000/00 RMK AO1 SLP253 T11221150 11067 21133 53014
54779K12N 12N20160125065510201/25/16 06:55:31  5-MIN K12N 251155Z AUTO 00000KT M13/M15 A3022 310 84 -3000 000/00 RMK AO1 T11281150
54779K12N 12N20160125070010201/25/16 07:00:31  5-MIN K12N 251200Z AUTO 00000KT M13/M15 A3022 300 84 -3000 000/00 RMK AO1 T11281150
54779K12N 12N20160125070510201/25/16 07:05:31  5-MIN K12N 251205Z AUTO 00000KT M13/M15 A3023 300 84 -3000 000/00 RMK AO1 T11281150
54779K12N 12N20160125071010201/25/16 07:10:31  5-MIN K12N 251210Z AUTO 00000KT M13/M14 A3023 300 87 -3000 000/00 RMK AO1 T11281144
54779K12N 12N20160125071510201/25/16 07:15:31  5-MIN K12N 251215Z AUTO 00000KT M13/M15 A3023 300 87 -3100 000/00 RMK AO1 T11331150
54779K12N 12N20160125072010201/25/16 07:20:31  5-MIN K12N 251220Z AUTO 00000KT M13/M15 A3023 300 87 -3100 000/00 RMK AO1 T11331150
54779K12N 12N20160125072510201/25/16 07:25:31  5-MIN K12N 251225Z AUTO 00000KT M13/M15 A3023 300 84 -3000 000/00 RMK AO1 T11281150
54779K12N 12N20160125073010201/25/16 07:30:31  5-MIN K12N 251230Z AUTO 00000KT M13/M15 A3023 300 84 -3000 000/00 RMK AO1 T11281150
54779K12N 12N20160125073510201/25/16 07:35:31  5-MIN K12N 251235Z AUTO 00000KT M13/M15 A3023 300 84 -3000 000/00 RMK AO1 T11281150
54779K12N 12N20160125074010201/25/16 07:40:31  5-MIN K12N 251240Z AUTO 00000KT M13/M15 A3024 300 87 -3100 000/00 RMK AO1 T11331150
54779K12N 12N20160125074510201/25/16 07:45:31  5-MIN K12N 251245Z AUTO 00000KT M13/M15 A3024 290 87 -3100 000/00 RMK AO1 T11331150
54779K12N 12N20160125075010901/25/16 07:50:31  5-MIN K12N 251250Z AUTO 00000KT M13/M15 A3024 290 84 -3000 000/00 RMK AO1 SLP258 T11281150
54779K12N 12N20160125075510201/25/16 07:55:31  5-MIN K12N 251255Z AUTO 00000KT M13/M14 A3024 290 87 -3000 000/00 RMK AO1 T11281144
54779K12N 12N20160125080010201/25/16 08:00:31  5-MIN K12N 251300Z AUTO 00000KT M13/M14 A3024 290 87 -3000 000/00 RMK AO1 T11281144
54779K12N 12N20160125080510201/25/16 08:05:31  5-MIN K12N 251305Z AUTO 00000KT M13/M14 A3024 290 87 -3000 000/00 RMK AO1 T11281144
54779K12N 12N20160125081010201/25/16 08:10:31  5-MIN K12N 251310Z AUTO 00000KT M12/M14 A3024 290 87 -3000 000/00 RMK AO1 T11221139
54779K12N 12N20160125081510201/25/16 08:15:31  5-MIN K12N 251315Z AUTO 00000KT M12/M14 A3025 290 87 -3000 000/00 RMK AO1 T11221139
54779K12N 12N20160125082010201/25/16 08:20:31  5-MIN K12N 251320Z AUTO 00000KT M12/M14 A3025 280 87 -3000 000/00 RMK AO1 T11221139
54779K12N 12N20160125082510201/25/16 08:25:31  5-MIN K12N 251325Z AUTO 00000KT M12/M13 A3025 280 87 -2900 000/00 RMK AO1 T11171133
54779K12N 12N20160125083010201/25/16 08:30:31  5-MIN K12N 251330Z AUTO 00000KT M12/M12 A3025 280 96 -2900 000/00 RMK AO1 T11171122
54779K12N 12N20160125083510201/25/16 08:35:31  5-MIN K12N 251335Z AUTO 00000KT M11/M12 A3025 280 96 -2800 000/00 RMK AO1 T11111117
54779K12N 12N20160125084010301/25/16 08:40:31  5-MIN K12N 251340Z AUTO 00000KT M11/M11 A3025 280 100 -2800 000/00 RMK AO1 T11061106
54779K12N 12N20160125084510301/25/16 08:45:31  5-MIN K12N 251345Z AUTO 00000KT M11/M11 A3026 280 100 -2800 000/00 RMK AO1 T11061106
54779K12N 12N20160125085011001/25/16 08:50:31  5-MIN K12N 251350Z AUTO 00000KT M10/M10 A3026 280 100 -2700 000/00 RMK AO1 SLP265 T11001100
54779K12N 12N20160125085510301/25/16 08:55:31  5-MIN K12N 251355Z AUTO 00000KT M10/M10 A3026 270 100 -2700 000/00 RMK AO1 T11001100
54779K12N 12N20160125090010301/25/16 09:00:31  5-MIN K12N 251400Z AUTO 00000KT M09/M09 A3026 270 100 -2500 000/00 RMK AO1 T10891089
54779K12N 12N20160125090510301/25/16 09:05:31  5-MIN K12N 251405Z AUTO 00000KT M09/M09 A3026 270 100 -2600 000/00 RMK AO1 T10941094
54779K12N 12N20160125091010301/25/16 09:10:31  5-MIN K12N 251410Z AUTO 00000KT M09/M09 A3027 270 100 -2600 000/00 RMK AO1 T10891089
54779K12N 12N20160125091510301/25/16 09:15:31  5-MIN K12N 251415Z AUTO 00000KT M08/M08 A3027 270 100 -2500 000/00 RMK AO1 T10831083
54779K12N 12N20160125092010301/25/16 09:20:31  5-MIN K12N 251420Z AUTO 00000KT M08/M08 A3027 270 100 -2400 000/00 RMK AO1 T10781078
54779K12N 12N20160125092510201/25/16 09:25:31  5-MIN K12N 251425Z AUTO 00000KT M08/M09 A3027 260 92 -2400 000/00 RMK AO1 T10781089
54779K12N 12N20160125093010201/25/16 09:30:31  5-MIN K12N 251430Z AUTO 00000KT M08/M09 A3027 260 88 -2400 000/00 RMK AO1 T10781094
54779K12N 12N20160125093510201/25/16 09:35:31  5-MIN K12N 251435Z AUTO 00000KT M08/M09 A3028 260 92 -2400 000/00 RMK AO1 T10781089
54779K12N 12N20160125094010201/25/16 09:40:31  5-MIN K12N 251440Z AUTO 00000KT M08/M09 A3028 250 92 -2400 000/00 RMK AO1 T10781089
54779K12N 12N20160125094510201/25/16 09:45:31  5-MIN K12N 251445Z AUTO 00000KT M07/M08 A3028 250 92 -2400 000/00 RMK AO1 T10721083
54779K12N 12N20160125095011501/25/16 09:50:31  5-MIN K12N 251450Z AUTO 00000KT M07/M08 A3028 250 96 -2400 000/00 RMK AO1 SLP271 T10721078 53021
54779K12N 12N20160125095510201/25/16 09:55:31  5-MIN K12N 251455Z AUTO 00000KT M07/M08 A3029 250 92 -2300 000/00 RMK AO1 T10671078
54779K12N 12N20160125100010201/25/16 10:00:31  5-MIN K12N 251500Z AUTO 00000KT M07/M08 A3029 250 92 -2300 000/00 RMK AO1 T10671078
54779K12N 12N20160125100510201/25/16 10:05:31  5-MIN K12N 251505Z AUTO 00000KT M06/M08 A3029 250 84 -2100 000/00 RMK AO1 T10561078
54779K12N 12N20160125101010201/25/16 10:10:31  5-MIN K12N 251510Z AUTO 00000KT M05/M07 A3029 240 84 -2100 000/00 RMK AO1 T10501072
54779K12N 12N20160125101510201/25/16 10:15:31  5-MIN K12N 251515Z AUTO 00000KT M05/M07 A3029 250 88 -2100 000/00 RMK AO1 T10501067
54779K12N 12N20160125102010201/25/16 10:20:31  5-MIN K12N 251520Z AUTO 00000KT M04/M06 A3029 250 88 -2000 000/00 RMK AO1 T10441061
54779K12N 12N20160125102510201/25/16 10:25:31  5-MIN K12N 251525Z AUTO 00000KT M04/M07 A3029 240 81 -2000 000/00 RMK AO1 T10441072
54779K12N 12N20160125103010201/25/16 10:30:31  5-MIN K12N 251530Z AUTO 00000KT M04/M08 A3029 250 78 -2000 000/00 RMK AO1 T10441078
54779K12N 12N20160125103510201/25/16 10:35:31  5-MIN K12N 251535Z AUTO 00000KT M04/M08 A3029 250 74 -1900 000/00 RMK AO1 T10391078
54779K12N 12N20160125104010201/25/16 10:40:31  5-MIN K12N 251540Z AUTO 00000KT M04/M08 A3029 250 71 -1900 000/00 RMK AO1 T10391083
54779K12N 12N20160125104510201/25/16 10:45:31  5-MIN K12N 251545Z AUTO 00000KT M04/M08 A3029 250 71 -1900 000/00 RMK AO1 T10391083
54779K12N 12N20160125105010901/25/16 10:50:31  5-MIN K12N 251550Z AUTO 00000KT M03/M08 A3029 250 68 -1900 000/00 RMK AO1 SLP270 T10331083
54779K12N 12N20160125105510201/25/16 10:55:31  5-MIN K12N 251555Z AUTO 22003KT M03/M09 A3029 250 65 -1900 240/03 RMK AO1 T10331089
54779K12N 12N20160125110010201/25/16 11:00:31  5-MIN K12N 251600Z AUTO 00000KT M03/M09 A3029 240 65 -1900 000/00 RMK AO1 T10331089
54779K12N 12N20160125110510201/25/16 11:05:31  5-MIN K12N 251605Z AUTO 00000KT M03/M09 A3029 240 65 -1900 000/00 RMK AO1 T10331089
54779K12N 12N20160125111010201/25/16 11:10:31  5-MIN K12N 251610Z AUTO 00000KT M03/M09 A3029 240 65 -1900 000/00 RMK AO1 T10331089
54779K12N 12N20160125111510201/25/16 11:15:31  5-MIN K12N 251615Z AUTO 00000KT M03/M09 A3029 240 63 -1800 000/00 RMK AO1 T10281089
54779K12N 12N20160125112010201/25/16 11:20:31  5-MIN K12N 251620Z AUTO 00000KT M03/M09 A3029 250 60 -1800 000/00 RMK AO1 T10281094
54779K12N 12N20160125112510201/25/16 11:25:31  5-MIN K12N 251625Z AUTO 00000KT M03/M09 A3029 250 60 -1800 000/00 RMK AO1 T10281094
54779K12N 12N20160125113010201/25/16 11:30:31  5-MIN K12N 251630Z AUTO 00000KT M02/M09 A3028 250 58 -1700 000/00 RMK AO1 T10221094
54779K12N 12N20160125113510201/25/16 11:35:31  5-MIN K12N 251635Z AUTO 00000KT M02/M09 A3028 250 58 -1700 000/00 RMK AO1 T10221094
54779K12N 12N20160125114010201/25/16 11:40:31  5-MIN K12N 251640Z AUTO 00000KT M02/M09 A3029 250 58 -1700 000/00 RMK AO1 T10221094
54779K12N 12N20160125114510201/25/16 11:45:31  5-MIN K12N 251645Z AUTO 00000KT M02/M09 A3028 250 58 -1700 000/00 RMK AO1 T10221094
54779K12N 12N20160125115010901/25/16 11:50:31  5-MIN K12N 251650Z AUTO 00000KT M02/M09 A3028 250 55 -1600 000/00 RMK AO1 SLP269 T10171094
54779K12N 12N20160125115510201/25/16 11:55:31  5-MIN K12N 251655Z AUTO 00000KT M02/M09 A3028 250 58 -1700 000/00 RMK AO1 T10221094
54779K12N 12N20160125120010201/25/16 12:00:31  5-MIN K12N 251700Z AUTO 00000KT M02/M09 A3028 260 58 -1700 000/00 RMK AO1 T10221094
54779K12N 12N20160125120510201/25/16 12:05:31  5-MIN K12N 251705Z AUTO 00000KT M02/M09 A3028 260 58 -1700 000/00 RMK AO1 T10221094
54779K12N 12N20160125121010201/25/16 12:10:31  5-MIN K12N 251710Z AUTO 00000KT M02/M09 A3028 260 58 -1600 000/00 RMK AO1 T10171089
54779K12N 12N20160125121510201/25/16 12:15:31  5-MIN K12N 251715Z AUTO 00000KT M02/M09 A3028 260 58 -1600 000/00 RMK AO1 T10171089
54779K12N 12N20160125122010201/25/16 12:20:31  5-MIN K12N 251720Z AUTO 21003KT M02/M09 A3027 260 58 -1600 220/03 RMK AO1 T10171089
54779K12N 12N20160125122510201/25/16 12:25:31  5-MIN K12N 251725Z AUTO 21003KT M01/M09 A3027 260 55 -1600 230/03 RMK AO1 T10111089
54779K12N 12N20160125123010201/25/16 12:30:31  5-MIN K12N 251730Z AUTO 23003KT M01/M09 A3027 260 55 -1600 240/03 RMK AO1 T10111089
54779K12N 12N20160125123510201/25/16 12:35:31  5-MIN K12N 251735Z AUTO 00000KT M01/M09 A3027 260 53 -1500 000/00 RMK AO1 T10061089
54779K12N 12N20160125124010201/25/16 12:40:31  5-MIN K12N 251740Z AUTO 00000KT M01/M09 A3026 270 53 -1500 000/00 RMK AO1 T10061089
54779K12N 12N20160125124510201/25/16 12:45:31  5-MIN K12N 251745Z AUTO 00000KT M01/M09 A3026 270 53 -1500 000/00 RMK AO1 T10061089
54779K12N 12N20160125125012601/25/16 12:50:31  5-MIN K12N 251750Z AUTO 00000KT 01/M09 A3026 270 49 -1300 000/00 RMK AO1 SLP261 T00061089 10006 21133 53022
54779K12N 12N20160125125510101/25/16 12:55:31  5-MIN K12N 251755Z AUTO 00000KT 01/M09 A3026 280 47 -1300 000/00 RMK AO1 T00111089
54779K12N 12N20160125130010101/25/16 13:00:31  5-MIN K12N 251800Z AUTO 22003KT 00/M09 A3026 280 51 -1400 240/03 RMK AO1 T00001089
54779K12N 12N20160125130510101/25/16 13:05:31  5-MIN K12N 251805Z AUTO 00000KT 01/M09 A3025 280 47 -1300 000/00 RMK AO1 T00111089
54779K12N 12N20160125131010101/25/16 13:10:31  5-MIN K12N 251810Z AUTO 00000KT 01/M09 A3025 280 49 -1300 000/00 RMK AO1 T00061089
54779K12N 12N20160125131510101/25/16 13:15:31  5-MIN K12N 251815Z AUTO 00000KT 01/M09 A3025 280 47 -1300 000/00 RMK AO1 T00111089
54779K12N 12N20160125132010101/25/16 13:20:31  5-MIN K12N 251820Z AUTO 22003KT 01/M08 A3025 280 49 -1300 230/03 RMK AO1 T00111083
54779K12N 12N20160125132510101/25/16 13:25:31  5-MIN K12N 251825Z AUTO 21003KT 01/M08 A3025 280 51 -1300 220/03 RMK AO1 T00061083
54779K12N 12N20160125133010101/25/16 13:30:31  5-MIN K12N 251830Z AUTO 00000KT 01/M08 A3025 280 49 -1300 000/00 RMK AO1 T00111083
54779K12N 12N20160125133510101/25/16 13:35:31  5-MIN K12N 251835Z AUTO 00000KT 02/M08 A3025 280 47 -1200 000/00 RMK AO1 T00171083
54779K12N 12N20160125134010101/25/16 13:40:31  5-MIN K12N 251840Z AUTO 00000KT 02/M08 A3025 280 47 -1200 000/00 RMK AO1 T00171083
54779K12N 12N20160125134510101/25/16 13:45:31  5-MIN K12N 251845Z AUTO 22003KT 01/M08 A3025 280 49 -1300 240/03 RMK AO1 T00111083
54779K12N 12N20160125135010801/25/16 13:50:31  5-MIN K12N 251850Z AUTO VRB04KT 01/M08 A3025 280 49 -1300 VRB/04 RMK AO1 SLP257 T00111083
54779K12N 12N20160125135510101/25/16 13:55:31  5-MIN K12N 251855Z AUTO 00000KT 02/M08 A3025 280 49 -1200 000/00 RMK AO1 T00171078
54779K12N 12N20160125140010101/25/16 14:00:31  5-MIN K12N 251900Z AUTO 23003KT 02/M08 A3025 280 45 -1100 240/03 RMK AO1 T00221083
54779K12N 12N20160125140510101/25/16 14:05:31  5-MIN K12N 251905Z AUTO VRB03KT 02/M08 A3025 290 47 -1200 VRB/03 RMK AO1 T00171083
54779K12N 12N20160125141010101/25/16 14:10:31  5-MIN K12N 251910Z AUTO 20004KT 02/M08 A3024 290 47 -1200 210/04 RMK AO1 T00171083
54779K12N 12N20160125141510101/25/16 14:15:31  5-MIN K12N 251915Z AUTO 23004KT 02/M08 A3024 290 47 -1200 240/04 RMK AO1 T00171083
54779K12N 12N20160125142010101/25/16 14:20:31  5-MIN K12N 251920Z AUTO VRB03KT 02/M09 A3024 290 44 -1100 VRB/03 RMK AO1 T00221089
54779K12N 12N20160125142510101/25/16 14:25:31  5-MIN K12N 251925Z AUTO 00000KT 02/M08 A3024 290 47 -1200 000/00 RMK AO1 T00171083
54779K12N 12N20160125143010101/25/16 14:30:31  5-MIN K12N 251930Z AUTO 00000KT 02/M08 A3024 290 45 -1100 000/00 RMK AO1 T00221083
54779K12N 12N20160125143510101/25/16 14:35:31  5-MIN K12N 251935Z AUTO 00000KT 02/M08 A3024 290 45 -1100 000/00 RMK AO1 T00221083
54779K12N 12N20160125144010101/25/16 14:40:31  5-MIN K12N 251940Z AUTO 00000KT 02/M08 A3024 290 45 -1100 000/00 RMK AO1 T00221083
54779K12N 12N20160125144510101/25/16 14:45:31  5-MIN K12N 251945Z AUTO 23005KT 02/M08 A3024 290 45 -1100 240/05 RMK AO1 T00221083
54779K12N 12N20160125145010801/25/16 14:50:31  5-MIN K12N 251950Z AUTO VRB03KT 02/M08 A3024 290 47 -1200 VRB/03 RMK AO1 SLP254 T00171083
54779K12N 12N20160125145510101/25/16 14:55:31  5-MIN K12N 251955Z AUTO VRB03KT 02/M08 A3024 290 45 -1100 VRB/03 RMK AO1 T00221083
54779K12N 12N20160125150010101/25/16 15:00:31  5-MIN K12N 252000Z AUTO 00000KT 03/M08 A3024 290 44 -1000 000/00 RMK AO1 T00281083
54779K12N 12N20160125150510101/25/16 15:05:31  5-MIN K12N 252005Z AUTO 24005KT 02/M08 A3024 290 45 -1100 260/05 RMK AO1 T00221083
54779K12N 12N20160125151010101/25/16 15:10:31  5-MIN K12N 252010Z AUTO 21004KT 02/M08 A3024 290 47 -1200 220/04 RMK AO1 T00171083
54779K12N 12N20160125151510101/25/16 15:15:31  5-MIN K12N 252015Z AUTO 24003KT 02/M09 A3024 290 44 -1100 250/03 RMK AO1 T00221089
54779K12N 12N20160125152010101/25/16 15:20:31  5-MIN K12N 252020Z AUTO 22004KT 02/M09 A3024 290 45 -1200 240/04 RMK AO1 T00171089
54779K12N 12N20160125152510101/25/16 15:25:31  5-MIN K12N 252025Z AUTO 23004KT 02/M09 A3024 290 44 -1100 240/04 RMK AO1 T00221089
54779K12N 12N20160125153010101/25/16 15:30:31  5-MIN K12N 252030Z AUTO 23003KT 02/M08 A3024 290 47 -1200 240/03 RMK AO1 T00171083
54779K12N 12N20160125153510101/25/16 15:35:31  5-MIN K12N 252035Z AUTO 22003KT 02/M09 A3024 290 45 -1200 240/03 RMK AO1 T00171089
54779K12N 12N20160125154010101/25/16 15:40:31  5-MIN K12N 252040Z AUTO 00000KT 02/M09 A3023 300 45 -1200 000/00 RMK AO1 T00171089
54779K12N 12N20160125154510101/25/16 15:45:31  5-MIN K12N 252045Z AUTO 00000KT 02/M08 A3023 300 49 -1200 000/00 RMK AO1 T00171078
54779K12N 12N20160125155011401/25/16 15:50:31  5-MIN K12N 252050Z AUTO 22004KT 02/M08 A3023 300 47 -1200 240/04 RMK AO1 SLP252 T00171083 58010
54779K12N 12N20160125155510101/25/16 15:55:31  5-MIN K12N 252055Z AUTO 24004KT 02/M08 A3023 300 45 -1100 250/04 RMK AO1 T00221083
54779K12N 12N20160125160010101/25/16 16:00:31  5-MIN K12N 252100Z AUTO 22004KT 02/M08 A3023 300 45 -1100 230/04 RMK AO1 T00221083
54779K12N 12N20160125160510101/25/16 16:05:31  5-MIN K12N 252105Z AUTO VRB04KT 02/M08 A3023 300 45 -1100 VRB/04 RMK AO1 T00221083
54779K12N 12N20160125161010101/25/16 16:10:31  5-MIN K12N 252110Z AUTO 20003KT 02/M08 A3023 300 45 -1100 220/03 RMK AO1 T00221083
54779K12N 12N20160125161510101/25/16 16:15:31  5-MIN K12N 252115Z AUTO VRB04KT 02/M08 A3023 300 45 -1100 VRB/04 RMK AO1 T00221083
54779K12N 12N20160125162010101/25/16 16:20:31  5-MIN K12N 252120Z AUTO 16004KT 02/M08 A3023 300 45 -1100 170/04 RMK AO1 T00221083
54779K12N 12N20160125162510101/25/16 16:25:31  5-MIN K12N 252125Z AUTO 00000KT 02/M08 A3023 300 45 -1100 000/00 RMK AO1 T00221083
54779K12N 12N20160125163010101/25/16 16:30:31  5-MIN K12N 252130Z AUTO 00000KT 02/M08 A3023 300 45 -1100 000/00 RMK AO1 T00221083
54779K12N 12N20160125163510101/25/16 16:35:31  5-MIN K12N 252135Z AUTO 20003KT 01/M08 A3024 290 51 -1200 210/03 RMK AO1 T00111078
54779K12N 12N20160125164010101/25/16 16:40:31  5-MIN K12N 252140Z AUTO 19004KT 01/M08 A3024 290 49 -1200 210/04 RMK AO1 T00111083
54779K12N 12N20160125164510101/25/16 16:45:31  5-MIN K12N 252145Z AUTO 20003KT 01/M08 A3024 290 51 -1200 210/03 RMK AO1 T00111078
54779K12N 12N20160125165010801/25/16 16:50:31  5-MIN K12N 252150Z AUTO 19003KT 01/M08 A3024 290 51 -1200 210/03 RMK AO1 SLP255 T00111078
54779K12N 12N20160125165510101/25/16 16:55:31  5-MIN K12N 252155Z AUTO 20004KT 01/M08 A3024 290 51 -1200 210/04 RMK AO1 T00111078
54779K12N 12N20160125170010101/25/16 17:00:31  5-MIN K12N 252200Z AUTO 00000KT 01/M08 A3024 290 54 -1300 000/00 RMK AO1 T00061078
54779K12N 12N20160125170510101/25/16 17:05:31  5-MIN K12N 252205Z AUTO VRB03KT 01/M08 A3024 290 54 -1300 VRB/03 RMK AO1 T00061078
54779K12N 12N20160125171010101/25/16 17:10:31  5-MIN K12N 252210Z AUTO 00000KT 00/M07 A3024 290 58 -1400 000/00 RMK AO1 T00001072
54779K12N 12N20160125171510101/25/16 17:15:31  5-MIN K12N 252215Z AUTO 18003KT 00/M07 A3024 290 58 -1400 190/03 RMK AO1 T00001072
54779K12N 12N20160125172010201/25/16 17:20:31  5-MIN K12N 252220Z AUTO 19003KT M01/M07 A3024 290 61 -1500 200/03 RMK AO1 T10061072
54779K12N 12N20160125172510201/25/16 17:25:31  5-MIN K12N 252225Z AUTO VRB03KT M01/M08 A3024 290 60 -1500 VRB/03 RMK AO1 T10111078
54779K12N 12N20160125173010201/25/16 17:30:31  5-MIN K12N 252230Z AUTO 00000KT M02/M08 A3024 290 63 -1600 000/00 RMK AO1 T10171078
54779K12N 12N20160125173510201/25/16 17:35:31  5-MIN K12N 252235Z AUTO 00000KT M02/M08 A3024 290 66 -1700 000/00 RMK AO1 T10221078
54779K12N 12N20160125174010201/25/16 17:40:31  5-MIN K12N 252240Z AUTO 00000KT M02/M07 A3024 290 69 -1700 000/00 RMK AO1 T10221072
54779K12N 12N20160125174510201/25/16 17:45:31  5-MIN K12N 252245Z AUTO 00000KT M02/M07 A3024 290 69 -1700 000/00 RMK AO1 T10221072
54779K12N 12N20160125175010901/25/16 17:50:31  5-MIN K12N 252250Z AUTO 00000KT M03/M07 A3024 290 71 -1700 000/00 RMK AO1 SLP257 T10281072
54779K12N 12N20160125175510201/25/16 17:55:31  5-MIN K12N 252255Z AUTO 00000KT M03/M07 A3025 290 74 -1800 000/00 RMK AO1 T10331072
54779K12N 12N20160125180010201/25/16 18:00:31  5-MIN K12N 252300Z AUTO 00000KT M04/M08 A3025 290 74 -1900 000/00 RMK AO1 T10391078
54779K12N 12N20160125180510201/25/16 18:05:31  5-MIN K12N 252305Z AUTO 00000KT M04/M07 A3025 280 78 -1900 000/00 RMK AO1 T10391072
54779K12N 12N20160125181010201/25/16 18:10:31  5-MIN K12N 252310Z AUTO 00000KT M04/M07 A3025 280 78 -1900 000/00 RMK AO1 T10391072
54779K12N 12N20160125181510201/25/16 18:15:31  5-MIN K12N 252315Z AUTO 00000KT M04/M08 A3025 280 78 -2000 000/00 RMK AO1 T10441078
54779K12N 12N20160125182010201/25/16 18:20:31  5-MIN K12N 252320Z AUTO 00000KT M04/M08 A3026 270 74 -1900 000/00 RMK AO1 T10391078
54779K12N 12N20160125182510201/25/16 18:25:31  5-MIN K12N 252325Z AUTO 00000KT M04/M08 A3026 270 78 -2000 000/00 RMK AO1 T10441078
54779K12N 12N20160125183010201/25/16 18:30:31  5-MIN K12N 252330Z AUTO 00000KT M05/M08 A3026 270 81 -2000 000/00 RMK AO1 T10501078
54779K12N 12N20160125183510201/25/16 18:35:31  5-MIN K12N 252335Z AUTO 00000KT M05/M08 A3026 270 81 -2000 000/00 RMK AO1 T10501078
54779K12N 12N20160125184010201/25/16 18:40:31  5-MIN K12N 252340Z AUTO 00000KT M05/M08 A3026 270 81 -2000 000/00 RMK AO1 T10501078
54779K12N 12N20160125184510201/25/16 18:45:31  5-MIN K12N 252345Z AUTO 00000KT M06/M08 A3026 270 84 -2100 000/00 RMK AO1 T10561078
54779K12N 12N20160125185012701/25/16 18:50:31  5-MIN K12N 252350Z AUTO 00000KT M06/M08 A3026 270 81 -2100 000/00 RMK AO1 SLP265 T10561083 10028 21056 56008
54779K12N 12N20160125185510201/25/16 18:55:31  5-MIN K12N 252355Z AUTO 00000KT M05/M08 A3025 280 81 -2000 000/00 RMK AO1 T10501078
54779K12N 12N20160125190010201/25/16 19:00:31  5-MIN K12N 260000Z AUTO 00000KT M06/M08 A3026 280 84 -2100 000/00 RMK AO1 T10561078
54779K12N 12N20160125190510201/25/16 19:05:31  5-MIN K12N 260005Z AUTO 00000KT M06/M08 A3026 280 81 -2100 000/00 RMK AO1 T10561083
54779K12N 12N20160125191010201/25/16 19:10:31  5-MIN K12N 260010Z AUTO 00000KT M05/M08 A3026 280 77 -2000 000/00 RMK AO1 T10501083
54779K12N 12N20160125191510201/25/16 19:15:31  5-MIN K12N 260015Z AUTO 00000KT M06/M08 A3025 280 81 -2100 000/00 RMK AO1 T10561083
54779K12N 12N20160125192010201/25/16 19:20:31  5-MIN K12N 260020Z AUTO 00000KT M06/M08 A3025 280 84 -2200 000/00 RMK AO1 T10611083
54779K12N 12N20160125192510201/25/16 19:25:31  5-MIN K12N 260025Z AUTO 00000KT M06/M08 A3026 280 84 -2200 000/00 RMK AO1 T10611083
54779K12N 12N20160125193010201/25/16 19:30:31  5-MIN K12N 260030Z AUTO 00000KT M06/M08 A3026 280 84 -2200 000/00 RMK AO1 T10611083
54779K12N 12N20160125193510201/25/16 19:35:31  5-MIN K12N 260035Z AUTO 00000KT M07/M09 A3026 280 84 -2300 000/00 RMK AO1 T10671089
54779K12N 12N20160125194010201/25/16 19:40:31  5-MIN K12N 260040Z AUTO 00000KT M06/M08 A3025 280 84 -2200 000/00 RMK AO1 T10611083
54779K12N 12N20160125194510201/25/16 19:45:31  5-MIN K12N 260045Z AUTO 00000KT M06/M08 A3025 280 84 -2200 000/00 RMK AO1 T10611083
54779K12N 12N20160125195010901/25/16 19:50:31  5-MIN K12N 260050Z AUTO 00000KT M06/M08 A3025 280 84 -2200 000/00 RMK AO1 SLP265 T10611083
54779K12N 12N20160125195510201/25/16 19:55:31  5-MIN K12N 260055Z AUTO 00000KT M07/M08 A3025 280 88 -2300 000/00 RMK AO1 T10671083
54779K12N 12N20160125200010201/25/16 20:00:31  5-MIN K12N 260100Z AUTO 00000KT M07/M08 A3025 280 88 -2300 000/00 RMK AO1 T10671083
54779K12N 12N20160125200510201/25/16 20:05:31  5-MIN K12N 260105Z AUTO 00000KT M07/M08 A3025 280 92 -2300 000/00 RMK AO1 T10721083
54779K12N 12N20160125201010201/25/16 20:10:31  5-MIN K12N 260110Z AUTO 00000KT M08/M09 A3025 280 92 -2400 000/00 RMK AO1 T10781089
54779K12N 12N20160125201510201/25/16 20:15:31  5-MIN K12N 260115Z AUTO 00000KT M08/M09 A3025 280 92 -2400 000/00 RMK AO1 T10781089
54779K12N 12N20160125202010201/25/16 20:20:31  5-MIN K12N 260120Z AUTO 00000KT M08/M09 A3025 280 92 -2400 000/00 RMK AO1 T10781089
54779K12N 12N20160125202510201/25/16 20:25:31  5-MIN K12N 260125Z AUTO 00000KT M08/M09 A3025 280 88 -2400 000/00 RMK AO1 T10781094
54779K12N 12N20160125203010201/25/16 20:30:31  5-MIN K12N 260130Z AUTO 00000KT M07/M09 A3024 290 88 -2300 000/00 RMK AO1 T10721089
54779K12N 12N20160125203510201/25/16 20:35:31  5-MIN K12N 260135Z AUTO 00000KT M08/M09 A3024 290 88 -2400 000/00 RMK AO1 T10781094
54779K12N 12N20160125204010201/25/16 20:40:31  5-MIN K12N 260140Z AUTO 00000KT M07/M09 A3024 290 84 -2300 000/00 RMK AO1 T10721094
54779K12N 12N20160125204510201/25/16 20:45:31  5-MIN K12N 260145Z AUTO 00000KT M07/M09 A3024 290 88 -2300 000/00 RMK AO1 T10721089
54779K12N 12N20160125205010901/25/16 20:50:31  5-MIN K12N 260150Z AUTO 00000KT M08/M09 A3024 290 92 -2400 000/00 RMK AO1 SLP258 T10781089
54779K12N 12N20160125205510201/25/16 20:55:31  5-MIN K12N 260155Z AUTO 00000KT M08/M09 A3024 290 88 -2400 000/00 RMK AO1 T10781094
54779K12N 12N20160125210010201/25/16 21:00:31  5-MIN K12N 260200Z AUTO 00000KT M08/M09 A3024 290 88 -2400 000/00 RMK AO1 T10781094
54779K12N 12N20160125210510201/25/16 21:05:31  5-MIN K12N 260205Z AUTO 00000KT M08/M09 A3024 290 88 -2400 000/00 RMK AO1 T10781094
54779K12N 12N20160125211010201/25/16 21:10:31  5-MIN K12N 260210Z AUTO 00000KT M08/M09 A3023 300 92 -2400 000/00 RMK AO1 T10831094
54779K12N 12N20160125211510201/25/16 21:15:31  5-MIN K12N 260215Z AUTO 00000KT M08/M09 A3023 300 92 -2400 000/00 RMK AO1 T10831094
54779K12N 12N20160125212010201/25/16 21:20:31  5-MIN K12N 260220Z AUTO 00000KT M08/M10 A3023 300 88 -2400 000/00 RMK AO1 T10831100
54779K12N 12N20160125212510201/25/16 21:25:31  5-MIN K12N 260225Z AUTO 00000KT M08/M10 A3023 300 88 -2400 000/00 RMK AO1 T10831100
54779K12N 12N20160125213010201/25/16 21:30:31  5-MIN K12N 260230Z AUTO 00000KT M08/M09 A3023 300 88 -2400 000/00 RMK AO1 T10781094
54779K12N 12N20160125213510201/25/16 21:35:31  5-MIN K12N 260235Z AUTO 00000KT M08/M09 A3023 300 88 -2400 000/00 RMK AO1 T10781094
54779K12N 12N20160125214010201/25/16 21:40:31  5-MIN K12N 260240Z AUTO 00000KT M08/M10 A3023 300 84 -2400 000/00 RMK AO1 T10781100
54779K12N 12N20160125214510201/25/16 21:45:31  5-MIN K12N 260245Z AUTO 00000KT M08/M10 A3023 300 84 -2400 000/00 RMK AO1 T10781100
54779K12N 12N20160125215011501/25/16 21:50:31  5-MIN K12N 260250Z AUTO 00000KT M08/M10 A3023 300 88 -2400 000/00 RMK AO1 SLP254 T10831100 53007
54779K12N 12N20160125215510201/25/16 21:55:31  5-MIN K12N 260255Z AUTO 00000KT M08/M10 A3023 300 84 -2400 000/00 RMK AO1 T10781100
54779K12N 12N20160125220010201/25/16 22:00:31  5-MIN K12N 260300Z AUTO 00000KT M08/M09 A3023 300 88 -2400 000/00 RMK AO1 T10781094
54779K12N 12N20160125220510201/25/16 22:05:31  5-MIN K12N 260305Z AUTO 00000KT M07/M09 A3023 300 84 -2300 000/00 RMK AO1 T10721094
54779K12N 12N20160125221010201/25/16 22:10:31  5-MIN K12N 260310Z AUTO 00000KT M08/M09 A3023 300 88 -2400 000/00 RMK AO1 T10781094
54779K12N 12N20160125221510201/25/16 22:15:31  5-MIN K12N 260315Z AUTO 00000KT M07/M09 A3022 310 88 -2300 000/00 RMK AO1 T10721089
54779K12N 12N20160125222010201/25/16 22:20:31  5-MIN K12N 260320Z AUTO 24003KT M07/M09 A3023 300 88 -2300 250/03 RMK AO1 T10721089
54779K12N 12N20160125222510201/25/16 22:25:31  5-MIN K12N 260325Z AUTO 00000KT M07/M09 A3023 300 88 -2300 000/00 RMK AO1 T10721089
54779K12N 12N20160125223010201/25/16 22:30:31  5-MIN K12N 260330Z AUTO 00000KT M07/M08 A3022 310 92 -2300 000/00 RMK AO1 T10721083
54779K12N 12N20160125223510201/25/16 22:35:31  5-MIN K12N 260335Z AUTO 00000KT M07/M08 A3022 310 88 -2200 000/00 RMK AO1 T10671083
54779K12N 12N20160125224010201/25/16 22:40:31  5-MIN K12N 260340Z AUTO 00000KT M06/M08 A3021 320 84 -2100 000/00 RMK AO1 T10611083
54779K12N 12N20160125224510201/25/16 22:45:31  5-MIN K12N 260345Z AUTO 00000KT M06/M08 A3021 310 84 -2100 000/00 RMK AO1 T10611083
54779K12N 12N20160125225010901/25/16 22:50:31  5-MIN K12N 260350Z AUTO 00000KT M06/M08 A3021 320 88 -2100 000/00 RMK AO1 SLP245 T10611078
54779K12N 12N20160125225510201/25/16 22:55:31  5-MIN K12N 260355Z AUTO 00000KT M07/M08 A3021 320 88 -2200 000/00 RMK AO1 T10671083
54779K12N 12N20160125230010201/25/16 23:00:31  5-MIN K12N 260400Z AUTO 00000KT M06/M08 A3020 320 84 -2100 000/00 RMK AO1 T10611083
54779K12N 12N20160125230510201/25/16 23:05:31  5-MIN K12N 260405Z AUTO 00000KT M07/M09 A3020 330 84 -2200 000/00 RMK AO1 T10671089
54779K12N 12N20160125231010201/25/16 23:10:31  5-MIN K12N 260410Z AUTO 00000KT M06/M09 A3020 330 81 -2100 000/00 RMK AO1 T10611089
54779K12N 12N20160125231510201/25/16 23:15:31  5-MIN K12N 260415Z AUTO 00000KT M07/M09 A3020 330 84 -2200 000/00 RMK AO1 T10671089
54779K12N 12N20160125232010201/25/16 23:20:31  5-MIN K12N 260420Z AUTO 00000KT M07/M09 A3019 330 84 -2200 000/00 RMK AO1 T10671089
54779K12N 12N20160125232510201/25/16 23:25:31  5-MIN K12N 260425Z AUTO 00000KT M07/M09 A3019 340 84 -2200 000/00 RMK AO1 T10671089
54779K12N 12N20160125233010201/25/16 23:30:31  5-MIN K12N 260430Z AUTO 00000KT M08/M09 A3018 340 88 -2300 000/00 RMK AO1 T10781094
54779K12N 12N20160125233510201/25/16 23:35:31  5-MIN K12N 260435Z AUTO 00000KT M07/M09 A3019 340 81 -2200 000/00 RMK AO1 T10671094
54779K12N 12N20160125234010201/25/16 23:40:31  5-MIN K12N 260440Z AUTO 00000KT M07/M09 A3019 340 88 -2200 000/00 RMK AO1 T10721089
54779K12N 12N20160125234510201/25/16 23:45:31  5-MIN K12N 260445Z AUTO 00000KT M07/M09 A3018 340 88 -2200 000/00 RMK AO1 T10721089
54779K12N 12N20160125235011901/25/16 23:50:31  5-MIN K12N 260450Z AUTO 00000KT M07/M09 A3018 340 88 -2200 000/00 RMK AO1 SLP235 T10721089 400281133
54779K12N 12N20160125235510201/25/16 23:55:31  5-MIN K12N 260455Z AUTO 00000KT M07/M09 A3018 350 88 -2200 000/00 RMK AO1 T10721089
54779K12N 12N20160126000010201/26/16 00:00:31  5-MIN K12N 260500Z AUTO 00000KT M07/M09 A3017 350 84 -2200 000/00 RMK AO1 T10671089
54779K12N 12N20160126000510201/26/16 00:05:31  5-MIN K12N 260505Z AUTO 00000KT M07/M09 A3018 350 88 -2200 000/00 RMK AO1 T10721089
54779K12N 12N20160126001010201/26/16 00:10:31  5-MIN K12N 260510Z AUTO 00000KT M07/M09 A3017 360 88 -2200 000/00 RMK AO1 T10721089
54779K12N 12N20160126001510201/26/16 00:15:31  5-MIN K12N 260515Z AUTO 00000KT M07/M08 A3017 360 88 -2200 000/00 RMK AO1 T10671083
54779K12N 12N20160126002010201/26/16 00:20:31  5-MIN K12N 260520Z AUTO 00000KT M07/M08 A3017 350 92 -2200 000/00 RMK AO1 T10721083
54779K12N 12N20160126002510201/26/16 00:25:31  5-MIN K12N 260525Z AUTO 00000KT M07/M08 A3017 350 88 -2200 000/00 RMK AO1 T10671083
54779K12N 12N20160126003010201/26/16 00:30:31  5-MIN K12N 260530Z AUTO 00000KT M07/M08 A3018 350 88 -2200 000/00 RMK AO1 T10671083
54779K12N 12N20160126003510201/26/16 00:35:31  5-MIN K12N 260535Z AUTO 00000KT M06/M08 A3018 350 84 -2100 000/00 RMK AO1 T10611083
54779K12N 12N20160126004010201/26/16 00:40:31  5-MIN K12N 260540Z AUTO 00000KT M07/M08 A3018 350 88 -2200 000/00 RMK AO1 T10671083
54779K12N 12N20160126004510201/26/16 00:45:31  5-MIN K12N 260545Z AUTO 00000KT M07/M08 A3017 350 88 -2200 000/00 RMK AO1 T10671083
54779K12N 12N20160126005012701/26/16 00:50:31  5-MIN K12N 260550Z AUTO 00000KT M07/M08 A3017 350 88 -2200 000/00 RMK AO1 SLP231 T10671083 11050 21083 58008
54779K12N 12N20160126005510201/26/16 00:55:31  5-MIN K12N 260555Z AUTO 00000KT M07/M08 A3017 350 92 -2200 000/00 RMK AO1 T10721083
54779K12N 12N20160126010010201/26/16 01:00:31  5-MIN K12N 260600Z AUTO 00000KT M07/M08 A3017 350 88 -2200 000/00 RMK AO1 T10671083
54779K12N 12N20160126010510201/26/16 01:05:31  5-MIN K12N 260605Z AUTO 00000KT M07/M08 A3017 350 92 -2200 000/00 RMK AO1 T10721083
54779K12N 12N20160126011010201/26/16 01:10:31  5-MIN K12N 260610Z AUTO 00000KT M07/M09 A3017 360 88 -2200 000/00 RMK AO1 T10721089
54779K12N 12N20160126011510201/26/16 01:15:31  5-MIN K12N 260615Z AUTO 00000KT M07/M09 A3017 360 88 -2200 000/00 RMK AO1 T10721089
54779K12N 12N20160126012010201/26/16 01:20:31  5-MIN K12N 260620Z AUTO 00000KT M08/M09 A3017 360 92 -2300 000/00 RMK AO1 T10781089
54779K12N 12N20160126012510201/26/16 01:25:31  5-MIN K12N 260625Z AUTO 00000KT M08/M09 A3016 360 88 -2300 000/00 RMK AO1 T10781094
54779K12N 12N20160126013010201/26/16 01:30:31  5-MIN K12N 260630Z AUTO 00000KT M08/M09 A3015 370 92 -2400 000/00 RMK AO1 T10831094
54779K12N 12N20160126013510201/26/16 01:35:31  5-MIN K12N 260635Z AUTO 00000KT M09/M10 A3015 380 92 -2400 000/00 RMK AO1 T10891100
54779K12N 12N20160126014010201/26/16 01:40:31  5-MIN K12N 260640Z AUTO 00000KT M08/M10 A3015 380 88 -2300 000/00 RMK AO1 T10831100
54779K12N 12N20160126014510201/26/16 01:45:31  5-MIN K12N 260645Z AUTO 00000KT M09/M11 A3015 370 88 -2400 000/00 RMK AO1 T10891106
54779K12N 12N20160126015010901/26/16 01:50:31  5-MIN K12N 260650Z AUTO 00000KT M08/M11 A3015 370 84 -2400 000/00 RMK AO1 SLP224 T10831106
54779K12N 12N20160126015510201/26/16 01:55:31  5-MIN K12N 260655Z AUTO 00000KT M09/M11 A3016 370 88 -2400 000/00 RMK AO1 T10891106
54779K12N 12N20160126020010201/26/16 02:00:31  5-MIN K12N 260700Z AUTO 00000KT M08/M11 A3015 370 84 -2400 000/00 RMK AO1 T10831106
54779K12N 12N20160126020510201/26/16 02:05:31  5-MIN K12N 260705Z AUTO 24003KT M09/M11 A3015 370 88 -2400 250/03 RMK AO1 T10891106
54779K12N 12N20160126021010201/26/16 02:10:31  5-MIN K12N 260710Z AUTO 00000KT M08/M10 A3015 380 88 -2300 000/00 RMK AO1 T10831100
54779K12N 12N20160126021510201/26/16 02:15:31  5-MIN K12N 260715Z AUTO 00000KT M09/M11 A3014 380 88 -2400 000/00 RMK AO1 T10891106
54779K12N 12N20160126022010201/26/16 02:20:31  5-MIN K12N 260720Z AUTO 00000KT M08/M10 A3014 380 88 -2300 000/00 RMK AO1 T10831100
54779K12N 12N20160126022510901/26/16 02:25:31  5-MIN K12N 260725Z AUTO 00000KT M09/M11 A3013 390 88 -2400 000/00 RMK AO1 PRESFR T10891106
54779K12N 12N20160126023010201/26/16 02:30:31  5-MIN K12N 260730Z AUTO 00000KT M09/M11 A3013 400 88 -2400 000/00 RMK AO1 T10891106
54779K12N 12N20160126023510201/26/16 02:35:31  5-MIN K12N 260735Z AUTO 00000KT M09/M11 A3013 400 92 -2500 000/00 RMK AO1 T10941106
54779K12N 12N20160126024010201/26/16 02:40:31  5-MIN K12N 260740Z AUTO 00000KT M09/M11 A3012 400 88 -2400 000/00 RMK AO1 T10891106
54779K12N 12N20160126024510201/26/16 02:45:31  5-MIN K12N 260745Z AUTO 00000KT M09/M11 A3012 400 92 -2500 000/00 RMK AO1 T10941106
54779K12N 12N20160126025010901/26/16 02:50:31  5-MIN K12N 260750Z AUTO 00000KT M09/M11 A3012 400 92 -2500 000/00 RMK AO1 SLP215 T10941106
54779K12N 12N20160126025510201/26/16 02:55:31  5-MIN K12N 260755Z AUTO 00000KT M08/M11 A3012 400 84 -2300 000/00 RMK AO1 T10831106
54779K12N 12N20160126030010201/26/16 03:00:31  5-MIN K12N 260800Z AUTO 00000KT M09/M11 A3011 410 92 -2500 000/00 RMK AO1 T10941106
54779K12N 12N20160126030510201/26/16 03:05:31  5-MIN K12N 260805Z AUTO 00000KT M09/M11 A3011 410 92 -2500 000/00 RMK AO1 T10941106
54779K12N 12N20160126031010201/26/16 03:10:31  5-MIN K12N 260810Z AUTO 00000KT M09/M11 A3011 410 92 -2500 000/00 RMK AO1 T10941106
54779K12N 12N20160126031510201/26/16 03:15:31  5-MIN K12N 260815Z AUTO 00000KT M10/M11 A3011 410 92 -2500 000/00 RMK AO1 T11001111
54779K12N 12N20160126032010201/26/16 03:20:31  5-MIN K12N 260820Z AUTO 21003KT M10/M12 A3011 410 88 -2500 220/03 RMK AO1 T11001117
54779K12N 12N20160126032510201/26/16 03:25:31  5-MIN K12N 260825Z AUTO 22003KT M10/M11 A3012 400 92 -2500 230/03 RMK AO1 T11001111
54779K12N 12N20160126033010201/26/16 03:30:31  5-MIN K12N 260830Z AUTO 00000KT M10/M12 A3012 400 88 -2500 000/00 RMK AO1 T11001117
54779K12N 12N20160126033510201/26/16 03:35:31  5-MIN K12N 260835Z AUTO 00000KT M10/M12 A3012 400 88 -2500 000/00 RMK AO1 T11001117
54779K12N 12N20160126034010201/26/16 03:40:31  5-MIN K12N 260840Z AUTO 19003KT M10/M12 A3011 410 88 -2500 210/03 RMK AO1 T11001117
54779K12N 12N20160126034510201/26/16 03:45:31  5-MIN K12N 260845Z AUTO 21003KT M10/M11 A3011 410 92 -2500 220/03 RMK AO1 T11001111
54779K12N 12N20160126035011501/26/16 03:50:31  5-MIN K12N 260850Z AUTO 19003KT M09/M11 A3011 410 88 -2400 200/03 RMK AO1 SLP209 T10941111 56020
54779K12N 12N20160126035510201/26/16 03:55:31  5-MIN K12N 260855Z AUTO 21003KT M10/M11 A3011 410 92 -2500 220/03 RMK AO1 T11001111
54779K12N 12N20160126040010201/26/16 04:00:31  5-MIN K12N 260900Z AUTO VRB03KT M10/M11 A3011 410 92 -2500 VRB/03 RMK AO1 T11001111
54779K12N 12N20160126040510201/26/16 04:05:31  5-MIN K12N 260905Z AUTO 00000KT M10/M11 A3011 410 92 -2500 000/00 RMK AO1 T11001111
54779K12N 12N20160126041010201/26/16 04:10:31  5-MIN K12N 260910Z AUTO 00000KT M10/M12 A3011 410 88 -2500 000/00 RMK AO1 T11001117
54779K12N 12N20160126041510201/26/16 04:15:31  5-MIN K12N 260915Z AUTO 00000KT M10/M12 A3011 410 88 -2500 000/00 RMK AO1 T11001117
54779K12N 12N20160126042010201/26/16 04:20:31  5-MIN K12N 260920Z AUTO 00000KT M11/M12 A3010 420 92 -2600 000/00 RMK AO1 T11061117
54779K12N 12N20160126042510201/26/16 04:25:31  5-MIN K12N 260925Z AUTO 00000KT M10/M12 A3010 420 88 -2500 000/00 RMK AO1 T11001117
54779K12N 12N20160126043010201/26/16 04:30:31  5-MIN K12N 260930Z AUTO 00000KT M10/M12 A3010 420 88 -2500 000/00 RMK AO1 T11001117
54779K12N 12N20160126043510201/26/16 04:35:31  5-MIN K12N 260935Z AUTO 00000KT M10/M12 A3010 420 88 -2500 000/00 RMK AO1 T11001117
54779K12N 12N20160126044010201/26/16 04:40:31  5-MIN K12N 260940Z AUTO 00000KT M09/M11 A3010 420 88 -2400 000/00 RMK AO1 T10941111
54779K12N 12N20160126044510201/26/16 04:45:31  5-MIN K12N 260945Z AUTO 00000KT M09/M11 A3009 430 88 -2400 000/00 RMK AO1 T10941111
54779K12N 12N20160126045010901/26/16 04:50:31  5-MIN K12N 260950Z AUTO 00000KT M10/M11 A3009 430 92 -2500 000/00 RMK AO1 SLP203 T11001111
54779K12N 12N20160126045510201/26/16 04:55:31  5-MIN K12N 260955Z AUTO 00000KT M10/M12 A3009 430 88 -2500 000/00 RMK AO1 T11001117
54779K12N 12N20160126050010201/26/16 05:00:31  5-MIN K12N 261000Z AUTO 00000KT M09/M11 A3008 440 88 -2400 000/00 RMK AO1 T10941111
54779K12N 12N20160126050510201/26/16 05:05:31  5-MIN K12N 261005Z AUTO 00000KT M10/M12 A3008 440 88 -2500 000/00 RMK AO1 T11001117
54779K12N 12N20160126051010201/26/16 05:10:31  5-MIN K12N 261010Z AUTO 00000KT M10/M12 A3008 440 88 -2500 000/00 RMK AO1 T11001117
54779K12N 12N20160126051510201/26/16 05:15:31  5-MIN K12N 261015Z AUTO 00000KT M10/M12 A3007 440 88 -2500 000/00 RMK AO1 T11001117
54779K12N 12N20160126052010201/26/16 05:20:31  5-MIN K12N 261020Z AUTO 00000KT M10/M12 A3008 440 88 -2500 000/00 RMK AO1 T11001117
54779K12N 12N20160126052510201/26/16 05:25:31  5-MIN K12N 261025Z AUTO 00000KT M10/M12 A3008 440 88 -2500 000/00 RMK AO1 T11001117
54779K12N 12N20160126053010201/26/16 05:30:31  5-MIN K12N 261030Z AUTO 00000KT M10/M12 A3009 430 88 -2500 000/00 RMK AO1 T11001117
54779K12N 12N20160126053510201/26/16 05:35:31  5-MIN K12N 261035Z AUTO 00000KT M11/M12 A3009 430 92 -2600 000/00 RMK AO1 T11061117
54779K12N 12N20160126054010201/26/16 05:40:31  5-MIN K12N 261040Z AUTO 00000KT M10/M12 A3009 430 88 -2500 000/00 RMK AO1 T11001117
54779K12N 12N20160126054510201/26/16 05:45:31  5-MIN K12N 261045Z AUTO 00000KT M10/M12 A3009 430 88 -2500 000/00 RMK AO1 T11001117
54779K12N 12N20160126055010901/26/16 05:50:31  5-MIN K12N 261050Z AUTO 00000KT M10/M12 A3008 430 88 -2500 000/00 RMK AO1 SLP204 T11001117
54779K12N 12N20160126055510201/26/16 05:55:31  5-MIN K12N 261055Z AUTO 22005KT M10/M12 A3007 440 88 -2500 230/05 RMK AO1 T11001117
54779K12N 12N20160126060010201/26/16 06:00:31  5-MIN K12N 261100Z AUTO 00000KT M10/M12 A3007 440 88 -2500 000/00 RMK AO1 T11001117
54779K12N 12N20160126060510201/26/16 06:05:31  5-MIN K12N 261105Z AUTO 00000KT M10/M12 A3008 440 88 -2500 000/00 RMK AO1 T11001117
54779K12N 12N20160126061010201/26/16 06:10:31  5-MIN K12N 261110Z AUTO 00000KT M10/M12 A3007 450 88 -2500 000/00 RMK AO1 T11001117
54779K12N 12N20160126061510201/26/16 06:15:31  5-MIN K12N 261115Z AUTO 00000KT M10/M12 A3007 440 88 -2500 000/00 RMK AO1 T11001117
54779K12N 12N20160126062010201/26/16 06:20:31  5-MIN K12N 261120Z AUTO 00000KT M09/M11 A3007 450 88 -2400 000/00 RMK AO1 T10941111
54779K12N 12N20160126062510201/26/16 06:25:31  5-MIN K12N 261125Z AUTO 00000KT M09/M11 A3007 450 88 -2400 000/00 RMK AO1 T10941111
54779K12N 12N20160126063010201/26/16 06:30:31  5-MIN K12N 261130Z AUTO 22003KT M09/M11 A3006 450 88 -2400 230/03 RMK AO1 T10941111
54779K12N 12N20160126063510201/26/16 06:35:31  5-MIN K12N 261135Z AUTO 00000KT M10/M11 A3006 450 92 -2500 000/00 RMK AO1 T11001111
54779K12N 12N20160126064010201/26/16 06:40:31  5-MIN K12N 261140Z AUTO 00000KT M09/M11 A3006 460 84 -2300 000/00 RMK AO1 T10891111
54779K12N 12N20160126064510201/26/16 06:45:31  5-MIN K12N 261145Z AUTO 00000KT M09/M11 A3006 460 92 -2400 000/00 RMK AO1 T10941106
54779K12N 12N20160126065012701/26/16 06:50:31  5-MIN K12N 261150Z AUTO 16003KT M09/M11 A3005 470 88 -2400 170/03 RMK AO1 SLP191 T10941111 11067 21106 56020
54779K12N 12N20160126065510201/26/16 06:55:31  5-MIN K12N 261155Z AUTO 22004KT M09/M11 A3004 470 88 -2400 240/04 RMK AO1 T10941111
54779K12N 12N20160126070010201/26/16 07:00:31  5-MIN K12N 261200Z AUTO 00000KT M09/M11 A3005 470 92 -2400 000/00 RMK AO1 T10941106
54779K12N 12N20160126070510201/26/16 07:05:31  5-MIN K12N 261205Z AUTO 00000KT M09/M11 A3005 470 92 -2400 000/00 RMK AO1 T10941106
54779K12N 12N20160126071010201/26/16 07:10:31  5-MIN K12N 261210Z AUTO 21003KT M09/M11 A3005 470 92 -2400 220/03 RMK AO1 T10941106
54779K12N 12N20160126071510201/26/16 07:15:31  5-MIN K12N 261215Z AUTO 20003KT M09/M11 A3005 470 92 -2400 210/03 RMK AO1 T10941106
54779K12N 12N20160126072010201/26/16 07:20:31  5-MIN K12N 261220Z AUTO 00000KT M09/M11 A3005 460 88 -2300 000/00 RMK AO1 T10891106
54779K12N 12N20160126072510201/26/16 07:25:31  5-MIN K12N 261225Z AUTO 00000KT M09/M10 A3006 460 92 -2300 000/00 RMK AO1 T10891100
54779K12N 12N20160126073010201/26/16 07:30:31  5-MIN K12N 261230Z AUTO 00000KT M09/M10 A3005 460 92 -2300 000/00 RMK AO1 T10891100
54779K12N 12N20160126073510201/26/16 07:35:31  5-MIN K12N 261235Z AUTO 25003KT M08/M10 A3006 460 88 -2200 260/03 RMK AO1 T10831100
54779K12N 12N20160126074010201/26/16 07:40:31  5-MIN K12N 261240Z AUTO 00000KT M08/M09 A3006 450 92 -2200 000/00 RMK AO1 T10831094
54779K12N 12N20160126074510201/26/16 07:45:31  5-MIN K12N 261245Z AUTO 00000KT M08/M09 A3007 450 88 -2200 000/00 RMK AO1 T10781094
54779K12N 12N20160126075010901/26/16 07:50:31  5-MIN K12N 261250Z AUTO 00000KT M08/M09 A3007 450 92 -2200 000/00 RMK AO1 SLP198 T10781089
54779K12N 12N20160126075510201/26/16 07:55:31  5-MIN K12N 261255Z AUTO 00000KT M07/M08 A3007 440 92 -2100 000/00 RMK AO1 T10721083
54779K12N 12N20160126080010201/26/16 08:00:31  5-MIN K12N 261300Z AUTO 00000KT M07/M08 A3007 440 92 -2100 000/00 RMK AO1 T10721083
54779K12N 12N20160126080510201/26/16 08:05:31  5-MIN K12N 261305Z AUTO 00000KT M07/M08 A3008 440 92 -2000 000/00 RMK AO1 T10671078
54779K12N 12N20160126081010201/26/16 08:10:31  5-MIN K12N 261310Z AUTO 17003KT M07/M08 A3008 440 92 -2000 180/03 RMK AO1 T10671078
54779K12N 12N20160126081510201/26/16 08:15:31  5-MIN K12N 261315Z AUTO 17003KT M07/M08 A3007 440 92 -2000 180/03 RMK AO1 T10671078
54779K12N 12N20160126082010201/26/16 08:20:31  5-MIN K12N 261320Z AUTO 00000KT M06/M07 A3007 450 92 -2000 000/00 RMK AO1 T10611072
54779K12N 12N20160126082510201/26/16 08:25:31  5-MIN K12N 261325Z AUTO 00000KT M06/M07 A3006 450 92 -2000 000/00 RMK AO1 T10611072
54779K12N 12N20160126083010201/26/16 08:30:31  5-MIN K12N 261330Z AUTO 00000KT M06/M07 A3006 460 92 -1900 000/00 RMK AO1 T10561067
54779K12N 12N20160126083510201/26/16 08:35:31  5-MIN K12N 261335Z AUTO 00000KT M05/M06 A3006 460 92 -1800 000/00 RMK AO1 T10501061
54779K12N 12N20160126084010201/26/16 08:40:31  5-MIN K12N 261340Z AUTO 00000KT M04/M06 A3006 460 92 -1700 000/00 RMK AO1 T10441056
54779K12N 12N20160126084510201/26/16 08:45:31  5-MIN K12N 261345Z AUTO 00000KT M04/M05 A3006 460 92 -1700 000/00 RMK AO1 T10391050
54779K12N 12N20160126085010901/26/16 08:50:31  5-MIN K12N 261350Z AUTO 00000KT M04/M05 A3005 460 92 -1700 000/00 RMK AO1 SLP192 T10391050
54779K12N 12N20160126085510201/26/16 08:55:31  5-MIN K12N 261355Z AUTO 19003KT M04/M04 A3005 460 96 -1700 200/03 RMK AO1 T10391044
54779K12N 12N20160126090010201/26/16 09:00:31  5-MIN K12N 261400Z AUTO VRB03KT M03/M04 A3006 460 88 -1500 VRB/03 RMK AO1 T10281044
54779K12N 12N20160126090510201/26/16 09:05:31  5-MIN K12N 261405Z AUTO 20003KT M02/M04 A3005 460 88 -1500 210/03 RMK AO1 T10221039
54779K12N 12N20160126091010201/26/16 09:10:31  5-MIN K12N 261410Z AUTO 20003KT M01/M03 A3005 470 85 -1300 210/03 RMK AO1 T10111033
54779K12N 12N20160126091510201/26/16 09:15:31  5-MIN K12N 261415Z AUTO 18003KT M01/M03 A3004 470 85 -1200 190/03 RMK AO1 T10061028
54779K12N 12N20160126092010101/26/16 09:20:31  5-MIN K12N 261420Z AUTO 00000KT 00/M03 A3004 480 81 -1200 000/00 RMK AO1 T00001028
54779K12N 12N20160126092510901/26/16 09:25:31  5-MIN K12N 261425Z AUTO 19003KT M01/M03 A3003 490 88 -1300 200/03 RMK AO1 PRESFR T10111028
54779K12N 12N20160126093010201/26/16 09:30:31  5-MIN K12N 261430Z AUTO 21003KT M01/M02 A3002 490 92 -1300 230/03 RMK AO1 T10111022
54779K12N 12N20160126093510201/26/16 09:35:31  5-MIN K12N 261435Z AUTO 23004KT M01/M02 A3003 490 88 -1200 240/04 RMK AO1 T10061022
54779K12N 12N20160126094010101/26/16 09:40:31  5-MIN K12N 261440Z AUTO VRB03KT 01/M02 A3004 480 82 -1100 VRB/03 RMK AO1 T00061022
54779K12N 12N20160126094510101/26/16 09:45:31  5-MIN K12N 261445Z AUTO 24005KT 01/M02 A3004 470 78 -1000 260/05 RMK AO1 T00111022
54779K12N 12N20160126095011301/26/16 09:50:31  5-MIN K12N 261450Z AUTO 22003KT 02/M03 A3004 480 72 -900 230/03 RMK AO1 SLP185 T00171028 58023
54779K12N 12N20160126095510001/26/16 09:55:31  5-MIN K12N 261455Z AUTO VRB03KT 02/M03 A3004 480 72 -900 VRB/03 RMK AO1 T00171028
54779K12N 12N20160126100010001/26/16 10:00:31  5-MIN K12N 261500Z AUTO 22005KT 02/M03 A3004 480 72 -900 230/05 RMK AO1 T00171028
54779K12N 12N20160126100510001/26/16 10:05:31  5-MIN K12N 261505Z AUTO 22006KT 02/M03 A3003 480 69 -900 230/06 RMK AO1 T00171033
54779K12N 12N20160126101010001/26/16 10:10:31  5-MIN K12N 261510Z AUTO 21005KT 02/M03 A3003 480 69 -900 230/05 RMK AO1 T00171033
54779K12N 12N20160126101510001/26/16 10:15:31  5-MIN K12N 261515Z AUTO 22006KT 02/M03 A3003 480 69 -900 230/06 RMK AO1 T00171033
54779K12N 12N20160126102010001/26/16 10:20:31  5-MIN K12N 261520Z AUTO 21004KT 02/M03 A3003 480 69 -900 220/04 RMK AO1 T00171033
54779K12N 12N20160126102510001/26/16 10:25:31  5-MIN K12N 261525Z AUTO 21006KT 02/M03 A3003 480 67 -900 220/06 RMK AO1 T00221033
54779K12N 12N20160126103010001/26/16 10:30:31  5-MIN K12N 261530Z AUTO 21005KT 02/M03 A3003 480 67 -900 220/05 RMK AO1 T00221033
54779K12N 12N20160126103510001/26/16 10:35:31  5-MIN K12N 261535Z AUTO 23007KT 02/M03 A3003 480 67 -900 240/07 RMK AO1 T00221033
54779K12N 12N20160126104010001/26/16 10:40:31  5-MIN K12N 261540Z AUTO 22007KT 02/M03 A3003 490 67 -900 240/07 RMK AO1 T00221033
54779K12N 12N20160126104510001/26/16 10:45:31  5-MIN K12N 261545Z AUTO 22007KT 03/M03 A3002 490 64 -800 240/07 RMK AO1 T00281033
54779K12N 12N20160126105010701/26/16 10:50:31  5-MIN K12N 261550Z AUTO 23005KT 03/M03 A3002 490 64 -800 240/05 RMK AO1 SLP178 T00281033
54779K12N 12N20160126105510001/26/16 10:55:31  5-MIN K12N 261555Z AUTO 23007KT 03/M03 A3002 490 64 -800 240/07 RMK AO1 T00281033
54779K12N 12N20160126110011601/26/16 11:00:31  5-MIN K12N 261600Z AUTO 21007KT 180V240 03/M03 A3001 500 64 -800 230/07 190V250 RMK AO1 T00281033
54779K12N 12N20160126110510001/26/16 11:05:31  5-MIN K12N 261605Z AUTO 22007KT 03/M03 A3001 500 64 -800 230/07 RMK AO1 T00281033
54779K12N 12N20160126111010001/26/16 11:10:31  5-MIN K12N 261610Z AUTO VRB06KT 03/M03 A3001 500 64 -800 VRB/06 RMK AO1 T00281033
54779K12N 12N20160126111510001/26/16 11:15:31  5-MIN K12N 261615Z AUTO 22006KT 03/M03 A3000 510 61 -700 230/06 RMK AO1 T00331033
54779K12N 12N20160126112010001/26/16 11:20:31  5-MIN K12N 261620Z AUTO 22007KT 03/M03 A3000 510 61 -700 230/07 RMK AO1 T00331033
54779K12N 12N20160126112510001/26/16 11:25:31  5-MIN K12N 261625Z AUTO 22006KT 03/M03 A3000 510 61 -700 230/06 RMK AO1 T00331033
54779K12N 12N20160126113010001/26/16 11:30:31  5-MIN K12N 261630Z AUTO 21008KT 03/M03 A2999 520 64 -700 230/08 RMK AO1 T00331028
54779K12N 12N20160126113510001/26/16 11:35:31  5-MIN K12N 261635Z AUTO 21007KT 03/M03 A2999 520 64 -700 230/07 RMK AO1 T00331028
54779K12N 12N20160126114010001/26/16 11:40:31  5-MIN K12N 261640Z AUTO 22008KT 04/M03 A2999 520 62 -600 230/08 RMK AO1 T00391028
54779K12N 12N20160126114510001/26/16 11:45:31  5-MIN K12N 261645Z AUTO VRB05KT 04/M03 A2998 530 62 -600 VRB/05 RMK AO1 T00391028
54779K12N 12N20160126115010701/26/16 11:50:31  5-MIN K12N 261650Z AUTO 20005KT 04/M03 A2998 530 62 -600 210/05 RMK AO1 SLP163 T00391028
54779K12N 12N20160126115510001/26/16 11:55:31  5-MIN K12N 261655Z AUTO 21005KT 04/M03 A2998 530 59 -500 220/05 RMK AO1 T00441028
54779K12N 12N20160126120010001/26/16 12:00:31  5-MIN K12N 261700Z AUTO 21009KT 04/M03 A2998 530 62 -600 220/09 RMK AO1 T00391028
54779K12N 12N20160126120511601/26/16 12:05:31  5-MIN K12N 261705Z AUTO 22007KT 180V240 04/M03 A2997 540 62 -600 230/07 190V250 RMK AO1 T00391028
54779K12N 12N20160126121010001/26/16 12:10:31  5-MIN K12N 261710Z AUTO 22009KT 04/M03 A2996 540 62 -600 240/09 RMK AO1 T00391028
54779K12N 12N20160126121510001/26/16 12:15:31  5-MIN K12N 261715Z AUTO 23006KT 04/M03 A2996 550 59 -600 240/06 RMK AO1 T00391033
54779K12N 12N20160126122010001/26/16 12:20:31  5-MIN K12N 261720Z AUTO 21007KT 04/M03 A2996 550 57 -500 220/07 RMK AO1 T00441033
54779K12N 12N20160126122510001/26/16 12:25:31  5-MIN K12N 261725Z AUTO 21005KT 04/M03 A2996 550 59 -500 220/05 RMK AO1 T00441028
54779K12N 12N20160126123010001/26/16 12:30:31  5-MIN K12N 261730Z AUTO 21005KT 04/M03 A2996 550 59 -500 230/05 RMK AO1 T00441028
54779K12N 12N20160126123510001/26/16 12:35:31  5-MIN K12N 261735Z AUTO 21005KT 04/M03 A2995 560 59 -500 230/05 RMK AO1 T00441028
54779K12N 12N20160126124010001/26/16 12:40:31  5-MIN K12N 261740Z AUTO 23008KT 04/M03 A2995 560 59 -500 240/08 RMK AO1 T00441028
54779K12N 12N20160126124510001/26/16 12:45:31  5-MIN K12N 261745Z AUTO VRB06KT 04/M03 A2994 560 57 -500 VRB/06 RMK AO1 T00441033
54779K12N 12N20160126125012501/26/16 12:50:31  5-MIN K12N 261750Z AUTO 22006KT 04/M03 A2994 570 57 -500 230/06 RMK AO1 SLP150 T00441033 10050 21094 58002
54779K12N 12N20160126125510001/26/16 12:55:31  5-MIN K12N 261755Z AUTO 22008KT 05/M03 A2994 570 55 -400 230/08 RMK AO1 T00501033
54779K12N 12N20160126130010001/26/16 13:00:31  5-MIN K12N 261800Z AUTO 22006KT 05/M03 A2994 570 55 -400 230/06 RMK AO1 T00501033
54779K12N 12N20160126130510001/26/16 13:05:31  5-MIN K12N 261805Z AUTO 23008KT 05/M03 A2993 570 55 -400 240/08 RMK AO1 T00501033
54779K12N 12N20160126131010001/26/16 13:10:31  5-MIN K12N 261810Z AUTO 21007KT 05/M03 A2993 580 55 -400 220/07 RMK AO1 T00501033
54779K12N 12N20160126131510001/26/16 13:15:31  5-MIN K12N 261815Z AUTO 21007KT 05/M03 A2992 580 55 -400 220/07 RMK AO1 T00501033
54779K12N 12N20160126132011601/26/16 13:20:31  5-MIN K12N 261820Z AUTO 21007KT 170V240 05/M03 A2992 590 55 -400 230/07 180V250 RMK AO1 T00501033
54779K12N 12N20160126132510001/26/16 13:25:31  5-MIN K12N 261825Z AUTO 22006KT 05/M03 A2991 590 57 -400 230/06 RMK AO1 T00501028
54779K12N 12N20160126133010001/26/16 13:30:31  5-MIN K12N 261830Z AUTO 22008KT 06/M03 A2991 590 55 -300 240/08 RMK AO1 T00561028
54779K12N 12N20160126133510001/26/16 13:35:31  5-MIN K12N 261835Z AUTO 22006KT 06/M03 A2991 590 55 -300 230/06 RMK AO1 T00561028
54779K12N 12N20160126134010001/26/16 13:40:31  5-MIN K12N 261840Z AUTO 22008KT 06/M03 A2991 590 55 -300 240/08 RMK AO1 T00561028
54779K12N 12N20160126134510001/26/16 13:45:31  5-MIN K12N 261845Z AUTO 22007KT 06/M03 A2991 600 55 -300 230/07 RMK AO1 T00561028
54779K12N 12N20160126135010701/26/16 13:50:31  5-MIN K12N 261850Z AUTO 21006KT 06/M03 A2991 600 55 -300 220/06 RMK AO1 SLP139 T00561028
54779K12N 12N20160126135510001/26/16 13:55:31  5-MIN K12N 261855Z AUTO 21006KT 06/M03 A2991 600 53 -200 220/06 RMK AO1 T00611028
54779K12N 12N20160126140010001/26/16 14:00:31  5-MIN K12N 261900Z AUTO 21009KT 06/M03 A2991 600 53 -200 230/09 RMK AO1 T00611028
54779K12N 12N20160126140510001/26/16 14:05:31  5-MIN K12N 261905Z AUTO 21008KT 06/M03 A2991 600 53 -200 220/08 RMK AO1 T00611028
54779K12N 12N20160126141010001/26/16 14:10:31  5-MIN K12N 261910Z AUTO 21008KT 06/M02 A2991 600 55 -200 230/08 RMK AO1 T00611022
54779K12N 12N20160126141510001/26/16 14:15:31  5-MIN K12N 261915Z AUTO 21007KT 06/M03 A2991 600 53 -200 230/07 RMK AO1 T00611028
54779K12N 12N20160126142010001/26/16 14:20:31  5-MIN K12N 261920Z AUTO 21006KT 06/M02 A2990 600 55 -200 220/06 RMK AO1 T00611022
54779K12N 12N20160126142510001/26/16 14:25:31  5-MIN K12N 261925Z AUTO VRB04KT 07/M02 A2991 600 53 -200 VRB/04 RMK AO1 T00671022
54779K12N 12N20160126143010001/26/16 14:30:31  5-MIN K12N 261930Z AUTO 22007KT 07/M02 A2991 600 53 -200 230/07 RMK AO1 T00671022
54779K12N 12N20160126143510001/26/16 14:35:31  5-MIN K12N 261935Z AUTO 21006KT 07/M02 A2991 600 53 -200 230/06 RMK AO1 T00671022
54779K12N 12N20160126144010001/26/16 14:40:31  5-MIN K12N 261940Z AUTO 21006KT 07/M02 A2991 600 53 -200 220/06 RMK AO1 T00671022
54779K12N 12N20160126144510001/26/16 14:45:31  5-MIN K12N 261945Z AUTO 22005KT 07/M02 A2991 600 53 -200 230/05 RMK AO1 T00671022
54779K12N 12N20160126145012301/26/16 14:50:31  5-MIN K12N 261950Z AUTO 21007KT 180V240 07/M02 A2991 600 53 -200 220/07 190V250 RMK AO1 SLP138 T00671022
54779K12N 12N20160126145510601/26/16 14:55:31  5-MIN K12N 261955Z AUTO 21006G14KT 06/M02 A2990 610 55 -200 220/06G14 RMK AO1 T00611022
54779K12N 12N20160126150010601/26/16 15:00:31  5-MIN K12N 262000Z AUTO 22007G14KT 06/M02 A2990 600 55 -200 240/07G14 RMK AO1 T00611022
54779K12N 12N20160126150510001/26/16 15:05:31  5-MIN K12N 262005Z AUTO 21007KT 06/M02 A2991 600 55 -200 230/07 RMK AO1 T00611022
54779K12N 12N20160126151010001/26/16 15:10:31  5-MIN K12N 262010Z AUTO 22005KT 06/M02 A2991 590 55 -200 230/05 RMK AO1 T00611022
54779K12N 12N20160126151510001/26/16 15:15:31  5-MIN K12N 262015Z AUTO 22008KT 06/M02 A2991 590 55 -200 240/08 RMK AO1 T00611022
54779K12N 12N20160126152010001/26/16 15:20:31  5-MIN K12N 262020Z AUTO 22006KT 06/M02 A2990 600 55 -200 230/06 RMK AO1 T00611022
54779K12N 12N20160126152510001/26/16 15:25:31  5-MIN K12N 262025Z AUTO 21005KT 06/M02 A2991 600 55 -200 220/05 RMK AO1 T00611022
54779K12N 12N20160126153010001/26/16 15:30:31  5-MIN K12N 262030Z AUTO 21005KT 06/M02 A2991 600 55 -200 230/05 RMK AO1 T00611022
54779K12N 12N20160126153510001/26/16 15:35:31  5-MIN K12N 262035Z AUTO 21007KT 06/M02 A2991 600 57 -300 230/07 RMK AO1 T00561022
54779K12N 12N20160126154010001/26/16 15:40:31  5-MIN K12N 262040Z AUTO 22006KT 06/M02 A2992 590 57 -300 230/06 RMK AO1 T00561022
54779K12N 12N20160126154510001/26/16 15:45:31  5-MIN K12N 262045Z AUTO VRB05KT 06/M02 A2991 590 57 -300 VRB/05 RMK AO1 T00561022
54779K12N 12N20160126155011301/26/16 15:50:31  5-MIN K12N 262050Z AUTO 20005KT 06/M02 A2991 590 57 -300 220/05 RMK AO1 SLP141 T00561022 58031
54779K12N 12N20160126155510001/26/16 15:55:31  5-MIN K12N 262055Z AUTO 20006KT 05/M02 A2992 590 59 -400 220/06 RMK AO1 T00501022
54779K12N 12N20160126160010001/26/16 16:00:31  5-MIN K12N 262100Z AUTO 20005KT 06/M02 A2993 580 57 -300 220/05 RMK AO1 T00561022
54779K12N 12N20160126160510001/26/16 16:05:31  5-MIN K12N 262105Z AUTO VRB04KT 05/M02 A2992 580 59 -400 VRB/04 RMK AO1 T00501022
54779K12N 12N20160126161010001/26/16 16:10:31  5-MIN K12N 262110Z AUTO 21005KT 05/M02 A2992 580 59 -400 230/05 RMK AO1 T00501022
54779K12N 12N20160126161510001/26/16 16:15:31  5-MIN K12N 262115Z AUTO 21005KT 05/M02 A2993 580 59 -400 220/05 RMK AO1 T00501022
54779K12N 12N20160126162010001/26/16 16:20:31  5-MIN K12N 262120Z AUTO 20004KT 05/M02 A2992 590 59 -400 210/04 RMK AO1 T00501022
54779K12N 12N20160126162510001/26/16 16:25:31  5-MIN K12N 262125Z AUTO 21004KT 05/M02 A2991 590 59 -400 220/04 RMK AO1 T00501022
54779K12N 12N20160126163010001/26/16 16:30:31  5-MIN K12N 262130Z AUTO 20005KT 05/M02 A2991 590 59 -400 210/05 RMK AO1 T00501022
54779K12N 12N20160126163510001/26/16 16:35:31  5-MIN K12N 262135Z AUTO 20004KT 04/M02 A2991 600 62 -400 220/04 RMK AO1 T00441022
54779K12N 12N20160126164010001/26/16 16:40:31  5-MIN K12N 262140Z AUTO 21005KT 05/M02 A2991 600 59 -400 220/05 RMK AO1 T00501022
54779K12N 12N20160126164510001/26/16 16:45:31  5-MIN K12N 262145Z AUTO 20005KT 04/M02 A2992 590 62 -500 220/05 RMK AO1 T00441022
54779K12N 12N20160126165010701/26/16 16:50:31  5-MIN K12N 262150Z AUTO 21003KT 04/M02 A2991 590 62 -500 220/03 RMK AO1 SLP143 T00441022
54779K12N 12N20160126165510001/26/16 16:55:31  5-MIN K12N 262155Z AUTO 19004KT 04/M02 A2991 590 62 -500 200/04 RMK AO1 T00441022
54779K12N 12N20160126170010001/26/16 17:00:31  5-MIN K12N 262200Z AUTO 22004KT 04/M02 A2991 590 62 -500 230/04 RMK AO1 T00441022
54779K12N 12N20160126170510001/26/16 17:05:31  5-MIN K12N 262205Z AUTO VRB04KT 04/M02 A2991 590 67 -500 VRB/04 RMK AO1 T00391017
54779K12N 12N20160126171010001/26/16 17:10:31  5-MIN K12N 262210Z AUTO 20003KT 04/M02 A2992 590 67 -500 220/03 RMK AO1 T00391017
54779K12N 12N20160126171510001/26/16 17:15:31  5-MIN K12N 262215Z AUTO 20005KT 04/M02 A2992 580 67 -500 220/05 RMK AO1 T00391017
54779K12N 12N20160126172010001/26/16 17:20:31  5-MIN K12N 262220Z AUTO 20005KT 04/M02 A2991 590 67 -500 210/05 RMK AO1 T00391017
54779K12N 12N20160126172510001/26/16 17:25:31  5-MIN K12N 262225Z AUTO 22005KT 04/M02 A2992 590 67 -500 230/05 RMK AO1 T00391017
54779K12N 12N20160126173010001/26/16 17:30:31  5-MIN K12N 262230Z AUTO 21006KT 04/M02 A2992 590 67 -500 230/06 RMK AO1 T00391017
54779K12N 12N20160126173510001/26/16 17:35:31  5-MIN K12N 262235Z AUTO 21005KT 04/M02 A2993 580 67 -500 220/05 RMK AO1 T00391017
54779K12N 12N20160126174010001/26/16 17:40:31  5-MIN K12N 262240Z AUTO 21005KT 04/M02 A2993 580 67 -500 220/05 RMK AO1 T00391017
54779K12N 12N20160126174510001/26/16 17:45:31  5-MIN K12N 262245Z AUTO 20005KT 04/M02 A2992 580 67 -500 210/05 RMK AO1 T00391017
54779K12N 12N20160126175010701/26/16 17:50:31  5-MIN K12N 262250Z AUTO 19005KT 04/M02 A2992 590 67 -500 210/05 RMK AO1 SLP143 T00391017
54779K12N 12N20160126175510001/26/16 17:55:31  5-MIN K12N 262255Z AUTO 20004KT 04/M02 A2992 590 67 -500 220/04 RMK AO1 T00391017
54779K12N 12N20160126180010001/26/16 18:00:31  5-MIN K12N 262300Z AUTO 21005KT 04/M02 A2993 580 67 -500 220/05 RMK AO1 T00391017
54779K12N 12N20160126180510001/26/16 18:05:31  5-MIN K12N 262305Z AUTO 21006KT 04/M02 A2994 570 67 -500 230/06 RMK AO1 T00391017
54779K12N 12N20160126181010701/26/16 18:10:31  5-MIN K12N 262310Z AUTO 21004KT 04/M02 A2994 560 67 -600 220/04 RMK AO1 PRESRR T00391017
54779K12N 12N20160126181510001/26/16 18:15:31  5-MIN K12N 262315Z AUTO VRB04KT 04/M02 A2994 570 67 -600 VRB/04 RMK AO1 T00391017
54779K12N 12N20160126182010001/26/16 18:20:31  5-MIN K12N 262320Z AUTO 20004KT 04/M02 A2994 570 67 -600 210/04 RMK AO1 T00391017
54779K12N 12N20160126182510001/26/16 18:25:31  5-MIN K12N 262325Z AUTO 20004KT 04/M02 A2994 570 67 -600 210/04 RMK AO1 T00391017
54779K12N 12N20160126183010001/26/16 18:30:31  5-MIN K12N 262330Z AUTO 20003KT 04/M02 A2994 560 67 -600 210/03 RMK AO1 T00391017
54779K12N 12N20160126183510001/26/16 18:35:31  5-MIN K12N 262335Z AUTO 20004KT 04/M02 A2994 560 67 -600 220/04 RMK AO1 T00391017
54779K12N 12N20160126184010001/26/16 18:40:31  5-MIN K12N 262340Z AUTO 20003KT 04/M02 A2995 560 67 -600 210/03 RMK AO1 T00391017
54779K12N 12N20160126184510001/26/16 18:45:31  5-MIN K12N 262345Z AUTO 00000KT 04/M02 A2994 570 67 -600 000/00 RMK AO1 T00391017
54779K12N 12N20160126185012501/26/16 18:50:31  5-MIN K12N 262350Z AUTO 20003KT 03/M02 A2994 560 70 -600 220/03 RMK AO1 SLP153 T00331017 10067 20033 55008
54779K12N 12N20160126185510001/26/16 18:55:31  5-MIN K12N 262355Z AUTO 19003KT 03/M02 A2994 560 70 -600 210/03 RMK AO1 T00331017
54779K12N 12N20160126190010001/26/16 19:00:31  5-MIN K12N 270000Z AUTO 00000KT 03/M02 A2994 570 72 -700 000/00 RMK AO1 T00281017
54779K12N 12N20160126190510001/26/16 19:05:31  5-MIN K12N 270005Z AUTO 18003KT 03/M02 A2994 560 70 -600 200/03 RMK AO1 T00331017
54779K12N 12N20160126191010001/26/16 19:10:31  5-MIN K12N 270010Z AUTO 18003KT 03/M02 A2994 570 70 -600 200/03 RMK AO1 T00331017
54779K12N 12N20160126191510001/26/16 19:15:31  5-MIN K12N 270015Z AUTO 00000KT 02/M01 A2994 560 78 -800 000/00 RMK AO1 T00221011
54779K12N 12N20160126192010001/26/16 19:20:31  5-MIN K12N 270020Z AUTO 19003KT 02/M02 A2995 560 75 -800 200/03 RMK AO1 T00221017
54779K12N 12N20160126192510001/26/16 19:25:31  5-MIN K12N 270025Z AUTO 18003KT 02/M02 A2994 560 75 -800 200/03 RMK AO1 T00221017
54779K12N 12N20160126193010001/26/16 19:30:31  5-MIN K12N 270030Z AUTO 00000KT 02/M02 A2994 560 78 -800 000/00 RMK AO1 T00171017
54779K12N 12N20160126193510001/26/16 19:35:31  5-MIN K12N 270035Z AUTO 00000KT 02/M01 A2995 560 82 -800 000/00 RMK AO1 T00171011
54779K12N 12N20160126194010001/26/16 19:40:31  5-MIN K12N 270040Z AUTO 00000KT 02/M01 A2994 560 82 -800 000/00 RMK AO1 T00171011
54779K12N 12N20160126194510001/26/16 19:45:31  5-MIN K12N 270045Z AUTO 00000KT 02/M01 A2994 560 78 -800 000/00 RMK AO1 T00221011
54779K12N 12N20160126195010701/26/16 19:50:31  5-MIN K12N 270050Z AUTO 00000KT 02/M01 A2994 560 78 -800 000/00 RMK AO1 SLP153 T00221011
54779K12N 12N20160126195510001/26/16 19:55:31  5-MIN K12N 270055Z AUTO 19003KT 02/M01 A2994 560 78 -800 200/03 RMK AO1 T00221011
54779K12N 12N20160126200010001/26/16 20:00:31  5-MIN K12N 270100Z AUTO 00000KT 03/M01 A2994 570 75 -700 000/00 RMK AO1 T00281011
54779K12N 12N20160126200510001/26/16 20:05:31  5-MIN K12N 270105Z AUTO 00000KT 02/M01 A2994 570 78 -800 000/00 RMK AO1 T00221011
54779K12N 12N20160126201010001/26/16 20:10:31  5-MIN K12N 270110Z AUTO 19003KT 02/M01 A2994 570 78 -800 200/03 RMK AO1 T00221011
54779K12N 12N20160126201510001/26/16 20:15:31  5-MIN K12N 270115Z AUTO 00000KT 02/M01 A2994 570 78 -800 000/00 RMK AO1 T00221011
54779K12N 12N20160126202010001/26/16 20:20:31  5-MIN K12N 270120Z AUTO 18003KT 02/M01 A2994 570 78 -800 200/03 RMK AO1 T00221011
54779K12N 12N20160126202510001/26/16 20:25:31  5-MIN K12N 270125Z AUTO 00000KT 02/M01 A2994 570 82 -800 000/00 RMK AO1 T00171011
54779K12N 12N20160126203010001/26/16 20:30:31  5-MIN K12N 270130Z AUTO 00000KT 02/M01 A2994 570 78 -800 000/00 RMK AO1 T00221011
54779K12N 12N20160126203510001/26/16 20:35:31  5-MIN K12N 270135Z AUTO 18003KT 01/M01 A2994 570 85 -900 190/03 RMK AO1 T00111011
54779K12N 12N20160126204010001/26/16 20:40:31  5-MIN K12N 270140Z AUTO 00000KT 02/M01 A2994 570 78 -800 000/00 RMK AO1 T00221011
54779K12N 12N20160126204510001/26/16 20:45:31  5-MIN K12N 270145Z AUTO 18003KT 02/M01 A2994 570 82 -800 200/03 RMK AO1 T00171011
54779K12N 12N20160126205010701/26/16 20:50:31  5-MIN K12N 270150Z AUTO 18003KT 02/M01 A2994 570 78 -800 200/03 RMK AO1 SLP148 T00221011
54779K12N 12N20160126205510001/26/16 20:55:31  5-MIN K12N 270155Z AUTO 19003KT 02/M01 A2994 570 82 -800 200/03 RMK AO1 T00171011
54779K12N 12N20160126210010001/26/16 21:00:31  5-MIN K12N 270200Z AUTO 00000KT 02/M01 A2993 570 82 -800 000/00 RMK AO1 T00171011
54779K12N 12N20160126210510001/26/16 21:05:31  5-MIN K12N 270205Z AUTO 19003KT 02/M01 A2994 570 82 -800 200/03 RMK AO1 T00171011
54779K12N 12N20160126211010001/26/16 21:10:31  5-MIN K12N 270210Z AUTO 18003KT 02/M01 A2994 570 82 -800 190/03 RMK AO1 T00171011
54779K12N 12N20160126211510001/26/16 21:15:31  5-MIN K12N 270215Z AUTO 18004KT 03/M01 A2994 570 75 -700 200/04 RMK AO1 T00281011
54779K12N 12N20160126212010001/26/16 21:20:31  5-MIN K12N 270220Z AUTO 18003KT 02/M01 A2994 570 78 -800 200/03 RMK AO1 T00221011
54779K12N 12N20160126212510001/26/16 21:25:31  5-MIN K12N 270225Z AUTO 19003KT 02/M01 A2994 570 78 -800 200/03 RMK AO1 T00221011
54779K12N 12N20160126213010001/26/16 21:30:31  5-MIN K12N 270230Z AUTO 18003KT 02/M01 A2993 570 78 -800 200/03 RMK AO1 T00221011
54779K12N 12N20160126213510001/26/16 21:35:31  5-MIN K12N 270235Z AUTO 18003KT 02/M01 A2993 570 78 -800 200/03 RMK AO1 T00221011
54779K12N 12N20160126214010001/26/16 21:40:31  5-MIN K12N 270240Z AUTO 19003KT 02/M01 A2993 570 78 -800 200/03 RMK AO1 T00221011
54779K12N 12N20160126214510001/26/16 21:45:31  5-MIN K12N 270245Z AUTO 19003KT 03/M01 A2993 570 75 -700 200/03 RMK AO1 T00281011
54779K12N 12N20160126215011301/26/16 21:50:31  5-MIN K12N 270250Z AUTO 18003KT 03/M01 A2994 570 75 -700 190/03 RMK AO1 SLP147 T00281011 53008
54779K12N 12N20160126215510001/26/16 21:55:31  5-MIN K12N 270255Z AUTO 18004KT 03/M01 A2993 570 75 -700 200/04 RMK AO1 T00281011
54779K12N 12N20160126220010001/26/16 22:00:31  5-MIN K12N 270300Z AUTO 18003KT 03/M01 A2993 580 72 -600 190/03 RMK AO1 T00331011
54779K12N 12N20160126220510001/26/16 22:05:31  5-MIN K12N 270305Z AUTO 18003KT 03/M01 A2993 580 72 -600 190/03 RMK AO1 T00331011
54779K12N 12N20160126221010001/26/16 22:10:31  5-MIN K12N 270310Z AUTO 00000KT 03/M01 A2993 580 72 -600 000/00 RMK AO1 T00331011
54779K12N 12N20160126221510001/26/16 22:15:31  5-MIN K12N 270315Z AUTO 00000KT 03/M01 A2993 580 75 -700 000/00 RMK AO1 T00281011
54779K12N 12N20160126222010001/26/16 22:20:31  5-MIN K12N 270320Z AUTO VRB03KT 03/M01 A2993 580 75 -700 VRB/03 RMK AO1 T00281011
54779K12N 12N20160126222510001/26/16 22:25:31  5-MIN K12N 270325Z AUTO 20003KT 03/M01 A2993 580 72 -600 220/03 RMK AO1 T00331011
54779K12N 12N20160126223010001/26/16 22:30:31  5-MIN K12N 270330Z AUTO 00000KT 03/M01 A2993 580 75 -700 000/00 RMK AO1 T00281011
54779K12N 12N20160126223510001/26/16 22:35:31  5-MIN K12N 270335Z AUTO 19003KT 03/M01 A2993 580 75 -700 210/03 RMK AO1 T00281011
54779K12N 12N20160126224010001/26/16 22:40:31  5-MIN K12N 270340Z AUTO 19003KT 03/M01 A2993 570 72 -600 210/03 RMK AO1 T00331011
54779K12N 12N20160126224510001/26/16 22:45:31  5-MIN K12N 270345Z AUTO 00000KT 02/M01 A2994 570 78 -800 000/00 RMK AO1 T00221011
54779K12N 12N20160126225010701/26/16 22:50:31  5-MIN K12N 270350Z AUTO 00000KT 02/M01 A2994 570 78 -800 000/00 RMK AO1 SLP146 T00221011
54779K12N 12N20160126225510001/26/16 22:55:31  5-MIN K12N 270355Z AUTO 19003KT 02/M01 A2994 570 78 -800 200/03 RMK AO1 T00221011
54779K12N 12N20160126230010001/26/16 23:00:31  5-MIN K12N 270400Z AUTO 00000KT 02/M01 A2994 570 78 -800 000/00 RMK AO1 T00221011
54779K12N 12N20160126230510001/26/16 23:05:31  5-MIN K12N 270405Z AUTO 18003KT 02/M01 A2993 570 78 -800 190/03 RMK AO1 T00221011
54779K12N 12N20160126231010001/26/16 23:10:31  5-MIN K12N 270410Z AUTO 00000KT 02/M01 A2993 570 78 -700 000/00 RMK AO1 T00221011
54779K12N 12N20160126231510001/26/16 23:15:31  5-MIN K12N 270415Z AUTO 00000KT 01/M01 A2993 580 85 -900 000/00 RMK AO1 T00111011
54779K12N 12N20160126232010001/26/16 23:20:31  5-MIN K12N 270420Z AUTO 00000KT 02/M01 A2993 570 82 -800 000/00 RMK AO1 T00171011
54779K12N 12N20160126232510001/26/16 23:25:31  5-MIN K12N 270425Z AUTO 00000KT 02/M01 A2993 570 82 -800 000/00 RMK AO1 T00171011
54779K12N 12N20160126233010001/26/16 23:30:31  5-MIN K12N 270430Z AUTO 00000KT 02/M01 A2993 580 82 -800 000/00 RMK AO1 T00171011
54779K12N 12N20160126233510001/26/16 23:35:31  5-MIN K12N 270435Z AUTO 00000KT 02/M01 A2993 580 82 -800 000/00 RMK AO1 T00171011
54779K12N 12N20160126234010001/26/16 23:40:31  5-MIN K12N 270440Z AUTO 00000KT 02/M01 A2993 570 82 -800 000/00 RMK AO1 T00171011
54779K12N 12N20160126234510001/26/16 23:45:31  5-MIN K12N 270445Z AUTO 00000KT 01/M01 A2993 570 85 -900 000/00 RMK AO1 T00111011
54779K12N 12N20160126235011701/26/16 23:50:31  5-MIN K12N 270450Z AUTO 19003KT 02/M01 A2993 580 78 -700 210/03 RMK AO1 SLP143 T00221011 400671106
54779K12N 12N20160126235510001/26/16 23:55:31  5-MIN K12N 270455Z AUTO 19003KT 03/M01 A2993 580 76 -600 200/03 RMK AO1 T00331006
54779K12N 12N20160127000010001/27/16 00:00:31  5-MIN K12N 270500Z AUTO 18003KT 03/M01 A2992 580 76 -600 200/03 RMK AO1 T00331006
54779K12N 12N20160127000510001/27/16 00:05:31  5-MIN K12N 270505Z AUTO 19003KT 03/M01 A2993 580 79 -700 200/03 RMK AO1 T00281006
54779K12N 12N20160127001010001/27/16 00:10:31  5-MIN K12N 270510Z AUTO 20004KT 03/M01 A2993 580 79 -700 210/04 RMK AO1 T00281006
54779K12N 12N20160127001510001/27/16 00:15:31  5-MIN K12N 270515Z AUTO 20003KT 04/M01 A2993 580 73 -500 210/03 RMK AO1 T00391006
54779K12N 12N20160127002010001/27/16 00:20:31  5-MIN K12N 270520Z AUTO 19004KT 04/M01 A2992 580 73 -500 200/04 RMK AO1 T00391006
54779K12N 12N20160127002510001/27/16 00:25:31  5-MIN K12N 270525Z AUTO 19003KT 03/M01 A2992 580 76 -600 200/03 RMK AO1 T00331006
54779K12N 12N20160127003010001/27/16 00:30:31  5-MIN K12N 270530Z AUTO 00000KT 03/M01 A2992 580 79 -700 000/00 RMK AO1 T00281006
54779K12N 12N20160127003510001/27/16 00:35:31  5-MIN K12N 270535Z AUTO 00000KT 03/M01 A2992 580 79 -700 000/00 RMK AO1 T00281006
54779K12N 12N20160127004010001/27/16 00:40:31  5-MIN K12N 270540Z AUTO 00000KT 02/M01 A2992 580 82 -700 000/00 RMK AO1 T00221006
54779K12N 12N20160127004510001/27/16 00:45:31  5-MIN K12N 270545Z AUTO 00000KT 02/M01 A2992 580 82 -700 000/00 RMK AO1 T00221006
54779K12N 12N20160127005012501/27/16 00:50:31  5-MIN K12N 270550Z AUTO 00000KT 02/M01 A2992 580 82 -700 000/00 RMK AO1 SLP140 T00221006 10039 20011 58004
54779K12N 12N20160127005510001/27/16 00:55:31  5-MIN K12N 270555Z AUTO 00000KT 02/M01 A2993 580 85 -800 000/00 RMK AO1 T00171006
54779K12N 12N20160127010010001/27/16 01:00:31  5-MIN K12N 270600Z AUTO 00000KT 02/M01 A2992 580 85 -800 000/00 RMK AO1 T00171006
54779K12N 12N20160127010510001/27/16 01:05:31  5-MIN K12N 270605Z AUTO 00000KT 02/M01 A2992 580 85 -800 000/00 RMK AO1 T00171006
54779K12N 12N20160127011010001/27/16 01:10:31  5-MIN K12N 270610Z AUTO 00000KT 02/M01 A2992 580 85 -800 000/00 RMK AO1 T00171006
54779K12N 12N20160127011510001/27/16 01:15:31  5-MIN K12N 270615Z AUTO 00000KT 01/M01 A2992 580 89 -900 000/00 RMK AO1 T00111006
54779K12N 12N20160127012010001/27/16 01:20:31  5-MIN K12N 270620Z AUTO 00000KT 02/M01 A2992 590 85 -800 000/00 RMK AO1 T00171006
54779K12N 12N20160127012510001/27/16 01:25:31  5-MIN K12N 270625Z AUTO 00000KT 02/M01 A2992 590 85 -800 000/00 RMK AO1 T00171006
54779K12N 12N20160127013010001/27/16 01:30:31  5-MIN K12N 270630Z AUTO 00000KT 02/M01 A2992 580 85 -800 000/00 RMK AO1 T00171006
54779K12N 12N20160127013510001/27/16 01:35:31  5-MIN K12N 270635Z AUTO 00000KT 02/M01 A2992 590 85 -800 000/00 RMK AO1 T00171006
54779K12N 12N20160127014010001/27/16 01:40:31  5-MIN K12N 270640Z AUTO 00000KT 01/M01 A2992 590 89 -900 000/00 RMK AO1 T00111006
54779K12N 12N20160127014510001/27/16 01:45:31  5-MIN K12N 270645Z AUTO 00000KT 01/M01 A2992 580 89 -900 000/00 RMK AO1 T00111006
54779K12N 12N20160127015010701/27/16 01:50:31  5-MIN K12N 270650Z AUTO 00000KT 01/M01 A2992 580 89 -900 000/00 RMK AO1 SLP141 T00111006
54779K12N 12N20160127015510001/27/16 01:55:31  5-MIN K12N 270655Z AUTO 00000KT 01/M01 A2992 580 89 -900 000/00 RMK AO1 T00111006
54779K12N 12N20160127020010001/27/16 02:00:31  5-MIN K12N 270700Z AUTO 00000KT 01/M01 A2993 580 89 -900 000/00 RMK AO1 T00111006
54779K12N 12N20160127020510001/27/16 02:05:31  5-MIN K12N 270705Z AUTO 00000KT 01/M01 A2993 580 89 -900 000/00 RMK AO1 T00111006
54779K12N 12N20160127021010001/27/16 02:10:31  5-MIN K12N 270710Z AUTO 17003KT 02/M01 A2993 570 85 -800 180/03 RMK AO1 T00171006
54779K12N 12N20160127021510001/27/16 02:15:31  5-MIN K12N 270715Z AUTO 00000KT 01/M01 A2993 570 89 -900 000/00 RMK AO1 T00111006
54779K12N 12N20160127022010001/27/16 02:20:31  5-MIN K12N 270720Z AUTO 00000KT 01/M01 A2994 570 89 -900 000/00 RMK AO1 T00111006
54779K12N 12N20160127022510001/27/16 02:25:31  5-MIN K12N 270725Z AUTO 00000KT 01/M01 A2994 570 89 -900 000/00 RMK AO1 T00111006
54779K12N 12N20160127023010001/27/16 02:30:31  5-MIN K12N 270730Z AUTO 00000KT 02/M01 A2994 570 85 -800 000/00 RMK AO1 T00171006
54779K12N 12N20160127023510001/27/16 02:35:31  5-MIN K12N 270735Z AUTO 19003KT 02/M01 A2993 570 85 -800 200/03 RMK AO1 T00171006
54779K12N 12N20160127024010001/27/16 02:40:31  5-MIN K12N 270740Z AUTO 00000KT 02/M01 A2994 570 82 -800 000/00 RMK AO1 T00221006
54779K12N 12N20160127024510001/27/16 02:45:31  5-MIN K12N 270745Z AUTO 19003KT 02/M01 A2994 570 82 -800 200/03 RMK AO1 T00221006
54779K12N 12N20160127025010701/27/16 02:50:31  5-MIN K12N 270750Z AUTO 00000KT 02/M01 A2994 570 85 -800 000/00 RMK AO1 SLP145 T00171006
54779K12N 12N20160127025510001/27/16 02:55:31  5-MIN K12N 270755Z AUTO 00000KT 02/M01 A2993 570 85 -800 000/00 RMK AO1 T00171006
54779K12N 12N20160127030010001/27/16 03:00:31  5-MIN K12N 270800Z AUTO 00000KT 02/M01 A2993 570 85 -800 000/00 RMK AO1 T00171006
54779K12N 12N20160127030510001/27/16 03:05:31  5-MIN K12N 270805Z AUTO 00000KT 02/M01 A2993 580 85 -800 000/00 RMK AO1 T00171006
54779K12N 12N20160127031010001/27/16 03:10:31  5-MIN K12N 270810Z AUTO 00000KT 02/M01 A2993 580 85 -800 000/00 RMK AO1 T00171006
54779K12N 12N20160127031510001/27/16 03:15:31  5-MIN K12N 270815Z AUTO 00000KT 02/M01 A2992 580 85 -800 000/00 RMK AO1 T00171006
54779K12N 12N20160127032010001/27/16 03:20:31  5-MIN K12N 270820Z AUTO 00000KT 02/M01 A2993 580 85 -800 000/00 RMK AO1 T00171006
54779K12N 12N20160127032510001/27/16 03:25:31  5-MIN K12N 270825Z AUTO 00000KT 02/M01 A2993 570 85 -800 000/00 RMK AO1 T00171006
54779K12N 12N20160127033010001/27/16 03:30:31  5-MIN K12N 270830Z AUTO 00000KT 02/M01 A2993 570 85 -800 000/00 RMK AO1 T00171006
54779K12N 12N20160127033510001/27/16 03:35:31  5-MIN K12N 270835Z AUTO 00000KT 02/M01 A2994 570 82 -800 000/00 RMK AO1 T00221006
54779K12N 12N20160127034010001/27/16 03:40:31  5-MIN K12N 270840Z AUTO 00000KT 03/M01 A2994 570 79 -700 000/00 RMK AO1 T00281006
54779K12N 12N20160127034510001/27/16 03:45:31  5-MIN K12N 270845Z AUTO 00000KT 03/M01 A2994 570 75 -700 000/00 RMK AO1 T00281011
54779K12N 12N20160127035011301/27/16 03:50:31  5-MIN K12N 270850Z AUTO 00000KT 03/M01 A2994 560 72 -600 000/00 RMK AO1 SLP147 T00331011 58003
54779K12N 12N20160127035510001/27/16 03:55:31  5-MIN K12N 270855Z AUTO 00000KT 03/M01 A2994 570 75 -700 000/00 RMK AO1 T00281011
54779K12N 12N20160127040010001/27/16 04:00:31  5-MIN K12N 270900Z AUTO 00000KT 03/M01 A2995 560 75 -700 000/00 RMK AO1 T00281011
54779K12N 12N20160127040510001/27/16 04:05:31  5-MIN K12N 270905Z AUTO 00000KT 03/M01 A2995 560 72 -600 000/00 RMK AO1 T00331011
54779K12N 12N20160127041010001/27/16 04:10:31  5-MIN K12N 270910Z AUTO 00000KT 03/M01 A2995 560 75 -700 000/00 RMK AO1 T00281011
54779K12N 12N20160127041510001/27/16 04:15:31  5-MIN K12N 270915Z AUTO 00000KT 03/M01 A2995 560 75 -700 000/00 RMK AO1 T00281011
54779K12N 12N20160127042010001/27/16 04:20:31  5-MIN K12N 270920Z AUTO 00000KT 03/M01 A2995 560 72 -600 000/00 RMK AO1 T00331011
54779K12N 12N20160127042510001/27/16 04:25:31  5-MIN K12N 270925Z AUTO 31004KT 04/M02 A2995 560 67 -600 320/04 RMK AO1 T00391017
54779K12N 12N20160127043010001/27/16 04:30:31  5-MIN K12N 270930Z AUTO 00000KT 04/M02 A2995 550 67 -600 000/00 RMK AO1 T00391017
54779K12N 12N20160127043510001/27/16 04:35:31  5-MIN K12N 270935Z AUTO 00000KT 04/M02 A2995 550 67 -600 000/00 RMK AO1 T00391017
54779K12N 12N20160127044010001/27/16 04:40:31  5-MIN K12N 270940Z AUTO VRB03KT 04/M02 A2996 550 67 -600 VRB/03 RMK AO1 T00391017
54779K12N 12N20160127044510001/27/16 04:45:31  5-MIN K12N 270945Z AUTO VRB04KT 04/M02 A2995 560 64 -500 VRB/04 RMK AO1 T00441017
54779K12N 12N20160127045010701/27/16 04:50:31  5-MIN K12N 270950Z AUTO 34003KT 04/M02 A2995 560 64 -500 350/03 RMK AO1 SLP149 T00441017
54779K12N 12N20160127045510001/27/16 04:55:31  5-MIN K12N 270955Z AUTO 00000KT 04/M02 A2995 560 62 -500 000/00 RMK AO1 T00441022
54779K12N 12N20160127050010001/27/16 05:00:31  5-MIN K12N 271000Z AUTO 34004KT 04/M02 A2995 560 67 -600 360/04 RMK AO1 T00391017
54779K12N 12N20160127050510001/27/16 05:05:31  5-MIN K12N 271005Z AUTO 35004KT 04/M02 A2995 560 62 -500 360/04 RMK AO1 T00441022
54779K12N 12N20160127051010001/27/16 05:10:31  5-MIN K12N 271010Z AUTO VRB03KT 04/M02 A2995 560 62 -500 VRB/03 RMK AO1 T00441022
54779K12N 12N20160127051510001/27/16 05:15:31  5-MIN K12N 271015Z AUTO VRB03KT 04/M02 A2995 550 62 -500 VRB/03 RMK AO1 T00441022
54779K12N 12N20160127052010001/27/16 05:20:31  5-MIN K12N 271020Z AUTO VRB06KT 04/M02 A2995 560 62 -500 VRB/06 RMK AO1 T00441022
54779K12N 12N20160127052510001/27/16 05:25:31  5-MIN K12N 271025Z AUTO 33003KT 04/M02 A2996 550 64 -600 350/03 RMK AO1 T00391022
54779K12N 12N20160127053010001/27/16 05:30:31  5-MIN K12N 271030Z AUTO VRB03KT 04/M02 A2996 550 64 -600 VRB/03 RMK AO1 T00391022
54779K12N 12N20160127053510001/27/16 05:35:31  5-MIN K12N 271035Z AUTO 32005KT 04/M02 A2996 540 64 -600 330/05 RMK AO1 T00391022
54779K12N 12N20160127054010001/27/16 05:40:31  5-MIN K12N 271040Z AUTO VRB03KT 04/M02 A2996 540 64 -600 VRB/03 RMK AO1 T00391022
54779K12N 12N20160127054510001/27/16 05:45:31  5-MIN K12N 271045Z AUTO VRB05KT 04/M02 A2997 540 64 -600 VRB/05 RMK AO1 T00391022
54779K12N 12N20160127055010701/27/16 05:50:31  5-MIN K12N 271050Z AUTO 00000KT 04/M03 A2997 540 62 -600 000/00 RMK AO1 SLP156 T00391028
54779K12N 12N20160127055510001/27/16 05:55:31  5-MIN K12N 271055Z AUTO 32003KT 04/M02 A2997 540 64 -600 330/03 RMK AO1 T00391022
54779K12N 12N20160127060010001/27/16 06:00:31  5-MIN K12N 271100Z AUTO 00000KT 04/M02 A2997 540 64 -600 000/00 RMK AO1 T00391022
54779K12N 12N20160127060510001/27/16 06:05:31  5-MIN K12N 271105Z AUTO 00000KT 04/M03 A2997 540 62 -600 000/00 RMK AO1 T00391028
54779K12N 12N20160127061010001/27/16 06:10:31  5-MIN K12N 271110Z AUTO 00000KT 04/M03 A2998 530 62 -600 000/00 RMK AO1 T00391028
54779K12N 12N20160127061510001/27/16 06:15:31  5-MIN K12N 271115Z AUTO 35004KT 04/M03 A2998 530 62 -600 360/04 RMK AO1 T00391028
54779K12N 12N20160127062010001/27/16 06:20:31  5-MIN K12N 271120Z AUTO 34005KT 04/M03 A2998 530 62 -600 350/05 RMK AO1 T00391028
54779K12N 12N20160127062510001/27/16 06:25:31  5-MIN K12N 271125Z AUTO VRB03KT 04/M03 A2999 530 62 -600 VRB/03 RMK AO1 T00391028
54779K12N 12N20160127063010001/27/16 06:30:31  5-MIN K12N 271130Z AUTO 00000KT 04/M03 A2999 520 62 -600 000/00 RMK AO1 T00391028
54779K12N 12N20160127063510001/27/16 06:35:31  5-MIN K12N 271135Z AUTO VRB04KT 03/M03 A2999 520 64 -700 VRB/04 RMK AO1 T00331028
54779K12N 12N20160127064010001/27/16 06:40:31  5-MIN K12N 271140Z AUTO VRB06KT 04/M03 A3000 520 62 -600 VRB/06 RMK AO1 T00391028
54779K12N 12N20160127064510001/27/16 06:45:31  5-MIN K12N 271145Z AUTO VRB06KT 04/M03 A3000 510 59 -600 VRB/06 RMK AO1 T00391033
54779K12N 12N20160127065012501/27/16 06:50:31  5-MIN K12N 271150Z AUTO 35006KT 04/M03 A3000 510 59 -600 010/06 RMK AO1 SLP168 T00391033 10044 20011 53005
54779K12N 12N20160127065510001/27/16 06:55:31  5-MIN K12N 271155Z AUTO VRB05KT 04/M03 A3001 510 59 -600 VRB/05 RMK AO1 T00391033
54779K12N 12N20160127070010001/27/16 07:00:31  5-MIN K12N 271200Z AUTO 34006KT 03/M03 A3001 500 61 -700 360/06 RMK AO1 T00331033
54779K12N 12N20160127070510001/27/16 07:05:31  5-MIN K12N 271205Z AUTO VRB04KT 03/M03 A3001 500 61 -700 VRB/04 RMK AO1 T00331033
54779K12N 12N20160127071010001/27/16 07:10:31  5-MIN K12N 271210Z AUTO 34007KT 03/M03 A3001 500 61 -700 360/07 RMK AO1 T00331033
54779K12N 12N20160127071510001/27/16 07:15:31  5-MIN K12N 271215Z AUTO VRB05KT 03/M03 A3002 500 61 -700 VRB/05 RMK AO1 T00331033
54779K12N 12N20160127072010001/27/16 07:20:31  5-MIN K12N 271220Z AUTO 34008KT 03/M03 A3002 500 61 -700 360/08 RMK AO1 T00331033
54779K12N 12N20160127072510001/27/16 07:25:31  5-MIN K12N 271225Z AUTO VRB06KT 03/M03 A3002 490 61 -700 VRB/06 RMK AO1 T00331033
54779K12N 12N20160127073011601/27/16 07:30:31  5-MIN K12N 271230Z AUTO 32008KT 280V360 03/M04 A3002 490 59 -700 340/08 290V010 RMK AO1 T00331039
54779K12N 12N20160127073511601/27/16 07:35:31  5-MIN K12N 271235Z AUTO 32007KT 290V020 03/M04 A3003 490 59 -700 330/07 300V030 RMK AO1 T00331039
54779K12N 12N20160127074012201/27/16 07:40:31  5-MIN K12N 271240Z AUTO 32008G14KT 270V350 03/M04 A3003 480 57 -700 330/08G14 280V360 RMK AO1 T00331044
54779K12N 12N20160127074510601/27/16 07:45:31  5-MIN K12N 271245Z AUTO 35004G14KT 03/M04 A3003 480 59 -700 010/04G14 RMK AO1 T00331039
54779K12N 12N20160127075010701/27/16 07:50:31  5-MIN K12N 271250Z AUTO 34008KT 03/M04 A3003 480 61 -800 360/08 RMK AO1 SLP179 T00281039
54779K12N 12N20160127075512201/27/16 07:55:31  5-MIN K12N 271255Z AUTO 34007G16KT 320V020 03/M04 A3003 480 59 -800 360/07G16 330V030 RMK AO1 T00281044
54779K12N 12N20160127080011601/27/16 08:00:31  5-MIN K12N 271300Z AUTO 30007KT 270V350 03/M04 A3004 480 59 -800 320/07 280V360 RMK AO1 T00281044
54779K12N 12N20160127080510001/27/16 08:05:31  5-MIN K12N 271305Z AUTO 34005KT 03/M04 A3004 480 59 -800 360/05 RMK AO1 T00281044
54779K12N 12N20160127081010001/27/16 08:10:31  5-MIN K12N 271310Z AUTO VRB06KT 03/M04 A3004 470 59 -800 VRB/06 RMK AO1 T00281044
54779K12N 12N20160127081510001/27/16 08:15:31  5-MIN K12N 271315Z AUTO 31007KT 03/M04 A3004 470 59 -800 320/07 RMK AO1 T00281044
54779K12N 12N20160127082010001/27/16 08:20:31  5-MIN K12N 271320Z AUTO VRB04KT 03/M04 A3005 470 59 -800 VRB/04 RMK AO1 T00281044
54779K12N 12N20160127082510001/27/16 08:25:31  5-MIN K12N 271325Z AUTO 35005KT 03/M04 A3005 470 59 -800 010/05 RMK AO1 T00281044
54779K12N 12N20160127083010001/27/16 08:30:31  5-MIN K12N 271330Z AUTO 00000KT 03/M04 A3005 460 59 -800 000/00 RMK AO1 T00281044
54779K12N 12N20160127083510001/27/16 08:35:31  5-MIN K12N 271335Z AUTO 35006KT 03/M04 A3005 460 59 -800 360/06 RMK AO1 T00281044
54779K12N 12N20160127084010001/27/16 08:40:31  5-MIN K12N 271340Z AUTO VRB05KT 03/M05 A3005 460 56 -800 VRB/05 RMK AO1 T00281050
54779K12N 12N20160127084510001/27/16 08:45:31  5-MIN K12N 271345Z AUTO 31007KT 03/M05 A3005 460 56 -800 320/07 RMK AO1 T00281050
54779K12N 12N20160127085010701/27/16 08:50:31  5-MIN K12N 271350Z AUTO VRB04KT 03/M05 A3005 460 56 -800 VRB/04 RMK AO1 SLP184 T00281050
54779K12N 12N20160127085510001/27/16 08:55:31  5-MIN K12N 271355Z AUTO VRB04KT 03/M05 A3005 460 56 -800 VRB/04 RMK AO1 T00281050
54779K12N 12N20160127090010001/27/16 09:00:31  5-MIN K12N 271400Z AUTO VRB06KT 03/M05 A3005 460 56 -800 VRB/06 RMK AO1 T00281050
54779K12N 12N20160127090510001/27/16 09:05:31  5-MIN K12N 271405Z AUTO 31005KT 03/M05 A3006 460 56 -800 330/05 RMK AO1 T00281050
54779K12N 12N20160127091010001/27/16 09:10:31  5-MIN K12N 271410Z AUTO VRB03KT 03/M05 A3006 460 56 -800 VRB/03 RMK AO1 T00281050
54779K12N 12N20160127091510001/27/16 09:15:31  5-MIN K12N 271415Z AUTO VRB04KT 03/M05 A3006 460 56 -800 VRB/04 RMK AO1 T00281050
54779K12N 12N20160127092010001/27/16 09:20:31  5-MIN K12N 271420Z AUTO VRB05KT 03/M05 A3006 460 54 -800 VRB/05 RMK AO1 T00331050
54779K12N 12N20160127092510001/27/16 09:25:31  5-MIN K12N 271425Z AUTO VRB03KT 03/M05 A3006 460 54 -800 VRB/03 RMK AO1 T00331050
54779K12N 12N20160127093009001/27/16 09:30:31  5-MIN K12N 271430Z AUTO 03/M05 A3006 460 54 -800 M /M RMK AO1 T00331050
54779K12N 12N20160127093510001/27/16 09:35:31  5-MIN K12N 271435Z AUTO VRB05KT 03/M05 A3006 460 56 -800 VRB/05 RMK AO1 T00281050
54779K12N 12N20160127094010001/27/16 09:40:31  5-MIN K12N 271440Z AUTO VRB06KT 03/M06 A3006 460 54 -800 VRB/06 RMK AO1 T00281056
54779K12N 12N20160127094510001/27/16 09:45:31  5-MIN K12N 271445Z AUTO VRB05KT 03/M06 A3006 460 52 -800 VRB/05 RMK AO1 T00331056
54779K12N 12N20160127095011301/27/16 09:50:31  5-MIN K12N 271450Z AUTO VRB04KT 04/M06 A3006 460 50 -700 VRB/04 RMK AO1 SLP186 T00391056 53022
54779K12N 12N20160127095511601/27/16 09:55:31  5-MIN K12N 271455Z AUTO 35008KT 300V040 04/M06 A3005 460 50 -700 010/08 310V050 RMK AO1 T00391056
54779K12N 12N20160127100010001/27/16 10:00:31  5-MIN K12N 271500Z AUTO VRB04KT 04/M06 A3005 460 48 -700 VRB/04 RMK AO1 T00391061
54779K12N 12N20160127100510001/27/16 10:05:31  5-MIN K12N 271505Z AUTO 35007KT 04/M06 A3005 460 46 -600 360/07 RMK AO1 T00441061
54779K12N 12N20160127101011601/27/16 10:10:31  5-MIN K12N 271510Z AUTO 34007KT 290V010 04/M06 A3005 460 48 -700 350/07 300V020 RMK AO1 T00391061
54779K12N 12N20160127101512201/27/16 10:15:31  5-MIN K12N 271515Z AUTO 30009G14KT 280V350 04/M06 A3005 460 48 -700 320/09G14 290V360 RMK AO1 T00391061
54779K12N 12N20160127102010601/27/16 10:20:31  5-MIN K12N 271520Z AUTO VRB05G14KT 04/M07 A3005 470 46 -700 VRB/05G14 RMK AO1 T00391067
54779K12N 12N20160127102512201/27/16 10:25:31  5-MIN K12N 271525Z AUTO 30007G14KT 270V340 04/M07 A3004 470 46 -700 310/07G14 280V350 RMK AO1 T00391067
54779K12N 12N20160127103010001/27/16 10:30:31  5-MIN K12N 271530Z AUTO 31007KT 04/M07 A3004 470 42 -600 330/07 RMK AO1 T00441072
54779K12N 12N20160127103512201/27/16 10:35:31  5-MIN K12N 271535Z AUTO 31009G17KT 270V350 04/M08 A3005 470 41 -600 320/09G17 280V360 RMK AO1 T00441078
54779K12N 12N20160127104012201/27/16 10:40:31  5-MIN K12N 271540Z AUTO 28008G17KT 250V060 04/M08 A3005 470 41 -600 290/08G17 260V070 RMK AO1 T00441078
54779K12N 12N20160127104511601/27/16 10:45:31  5-MIN K12N 271545Z AUTO 26007KT 200V310 04/M07 A3005 470 42 -600 270/07 210V320 RMK AO1 T00441072
54779K12N 12N20160127105012901/27/16 10:50:31  5-MIN K12N 271550Z AUTO 32009G16KT 290V360 04/M07 A3004 470 42 -600 330/09G16 300V010 RMK AO1 SLP182 T00441072
54779K12N 12N20160127105512201/27/16 10:55:31  5-MIN K12N 271555Z AUTO 31007G16KT 280V340 05/M07 A3005 470 41 -500 320/07G16 290V350 RMK AO1 T00501072
54779K12N 12N20160127110010601/27/16 11:00:31  5-MIN K12N 271600Z AUTO VRB06G14KT 05/M07 A3005 470 41 -500 VRB/06G14 RMK AO1 T00501072
54779K12N 12N20160127110510601/27/16 11:05:31  5-MIN K12N 271605Z AUTO VRB05G16KT 04/M08 A3005 470 41 -600 VRB/05G16 RMK AO1 T00441078
54779K12N 12N20160127111010601/27/16 11:10:31  5-MIN K12N 271610Z AUTO VRB05G16KT 04/M07 A3005 460 42 -600 VRB/05G16 RMK AO1 T00441072
54779K12N 12N20160127111510001/27/16 11:15:31  5-MIN K12N 271615Z AUTO VRB05KT 05/M07 A3005 470 41 -500 VRB/05 RMK AO1 T00501072
54779K12N 12N20160127112010001/27/16 11:20:31  5-MIN K12N 271620Z AUTO VRB06KT 05/M07 A3005 470 42 -500 VRB/06 RMK AO1 T00501067
54779K12N 12N20160127112510001/27/16 11:25:31  5-MIN K12N 271625Z AUTO VRB06KT 04/M07 A3005 470 44 -600 VRB/06 RMK AO1 T00441067
54779K12N 12N20160127113010001/27/16 11:30:31  5-MIN K12N 271630Z AUTO VRB03KT 06/M07 A3005 460 41 -500 VRB/03 RMK AO1 T00561067
54779K12N 12N20160127113510001/27/16 11:35:31  5-MIN K12N 271635Z AUTO VRB03KT 06/M07 A3005 460 41 -500 VRB/03 RMK AO1 T00561067
54779K12N 12N20160127114010001/27/16 11:40:31  5-MIN K12N 271640Z AUTO 00000KT 06/M07 A3005 460 41 -500 000/00 RMK AO1 T00561067
54779K12N 12N20160127114509001/27/16 11:45:31  5-MIN K12N 271645Z AUTO 06/M07 A3006 460 39 -500 M /M RMK AO1 T00561072
54779K12N 12N20160127115012901/27/16 11:50:31  5-MIN K12N 271650Z AUTO 30009G14KT 260V340 06/M08 A3005 460 37 -500 310/09G14 270V350 RMK AO1 SLP184 T00561078
54779K12N 12N20160127115510601/27/16 11:55:31  5-MIN K12N 271655Z AUTO VRB05G14KT 06/M08 A3005 460 36 -500 VRB/05G14 RMK AO1 T00561083
54779K12N 12N20160127120012201/27/16 12:00:31  5-MIN K12N 271700Z AUTO 31008G18KT 270V350 06/M08 A3005 460 36 -500 320/08G18 280V360 RMK AO1 T00561083
54779K12N 12N20160127120510601/27/16 12:05:31  5-MIN K12N 271705Z AUTO VRB06G18KT 06/M08 A3005 470 36 -500 VRB/06G18 RMK AO1 T00561083
54779K12N 12N20160127121012201/27/16 12:10:31  5-MIN K12N 271710Z AUTO 32008G17KT 280V020 06/M08 A3005 460 36 -500 330/08G17 290V030 RMK AO1 T00561083
54779K12N 12N20160127121512201/27/16 12:15:31  5-MIN K12N 271715Z AUTO 30008G20KT 270V350 05/M08 A3005 460 37 -500 310/08G20 280V360 RMK AO1 T00501083
54779K12N 12N20160127122012201/27/16 12:20:31  5-MIN K12N 271720Z AUTO 34008G20KT 280V020 06/M08 A3005 470 36 -500 350/08G20 290V030 RMK AO1 T00561083
54779K12N 12N20160127122510001/27/16 12:25:31  5-MIN K12N 271725Z AUTO 35007KT 06/M08 A3005 470 36 -500 360/07 RMK AO1 T00561083
54779K12N 12N20160127123010001/27/16 12:30:31  5-MIN K12N 271730Z AUTO VRB05KT 06/M08 A3004 470 37 -500 VRB/05 RMK AO1 T00561078
54779K12N 12N20160127123510001/27/16 12:35:31  5-MIN K12N 271735Z AUTO 31007KT 06/M08 A3004 470 36 -400 330/07 RMK AO1 T00611078
54779K12N 12N20160127124010001/27/16 12:40:31  5-MIN K12N 271740Z AUTO VRB06KT 06/M08 A3004 480 37 -500 VRB/06 RMK AO1 T00561078
54779K12N 12N20160127124510001/27/16 12:45:31  5-MIN K12N 271745Z AUTO VRB05KT 05/M08 A3004 480 39 -500 VRB/05 RMK AO1 T00501078
54779K12N 12N20160127125014701/27/16 12:50:31  5-MIN K12N 271750Z AUTO 32009G15KT 290V010 06/M08 A3004 480 37 -500 330/09G15 300V020 RMK AO1 SLP179 T00561078 10061 20028 51016
54779K12N 12N20160127125512201/27/16 12:55:31  5-MIN K12N 271755Z AUTO 35007G15KT 300V040 05/M08 A3004 480 39 -500 360/07G15 310V050 RMK AO1 T00501078
54779K12N 12N20160127130010001/27/16 13:00:31  5-MIN K12N 271800Z AUTO VRB04KT 06/M08 A3003 480 37 -500 VRB/04 RMK AO1 T00561078
54779K12N 12N20160127130510001/27/16 13:05:31  5-MIN K12N 271805Z AUTO VRB04KT 06/M08 A3003 480 36 -500 VRB/04 RMK AO1 T00561083
54779K12N 12N20160127131009001/27/16 13:10:31  5-MIN K12N 271810Z AUTO 06/M08 A3003 480 36 -400 M /M RMK AO1 T00611078
54779K12N 12N20160127131511601/27/16 13:15:31  5-MIN K12N 271815Z AUTO 34007KT 300V020 06/M08 A3003 480 35 -400 360/07 310V030 RMK AO1 T00611083
54779K12N 12N20160127132011601/27/16 13:20:31  5-MIN K12N 271820Z AUTO 34008KT 310V030 06/M09 A3003 480 34 -400 360/08 320V040 RMK AO1 T00561089
54779K12N 12N20160127132510601/27/16 13:25:31  5-MIN K12N 271825Z AUTO 35010G17KT 06/M09 A3003 490 34 -400 360/10G17 RMK AO1 T00561089
54779K12N 12N20160127133010601/27/16 13:30:31  5-MIN K12N 271830Z AUTO 36010G17KT 06/M09 A3003 490 34 -400 010/10G17 RMK AO1 T00561089
54779K12N 12N20160127133510601/27/16 13:35:31  5-MIN K12N 271835Z AUTO VRB06G17KT 06/M09 A3003 490 34 -400 VRB/06G17 RMK AO1 T00561089
54779K12N 12N20160127134011601/27/16 13:40:31  5-MIN K12N 271840Z AUTO 31008KT 290V360 05/M09 A3003 490 36 -500 330/08 300V010 RMK AO1 T00501089
54779K12N 12N20160127134510001/27/16 13:45:31  5-MIN K12N 271845Z AUTO VRB04KT 05/M09 A3003 490 36 -500 VRB/04 RMK AO1 T00501089
54779K12N 12N20160127135010701/27/16 13:50:31  5-MIN K12N 271850Z AUTO 31005KT 06/M09 A3003 490 33 -400 330/05 RMK AO1 SLP175 T00611089
54779K12N 12N20160127135510601/27/16 13:55:31  5-MIN K12N 271855Z AUTO VRB06G15KT 06/M09 A3002 490 33 -400 VRB/06G15 RMK AO1 T00611089
54779K12N 12N20160127140010601/27/16 14:00:31  5-MIN K12N 271900Z AUTO VRB04G15KT 06/M09 A3003 490 34 -400 VRB/04G15 RMK AO1 T00561089
54779K12N 12N20160127140510001/27/16 14:05:31  5-MIN K12N 271905Z AUTO VRB06KT 06/M09 A3003 490 34 -400 VRB/06 RMK AO1 T00561089
54779K12N 12N20160127141009001/27/16 14:10:31  5-MIN K12N 271910Z AUTO 06/M09 A3003 480 34 -500 M /M RMK AO1 T00561089
54779K12N 12N20160127141510001/27/16 14:15:31  5-MIN K12N 271915Z AUTO VRB06KT 06/M09 A3003 480 34 -400 VRB/06 RMK AO1 T00561089
54779K12N 12N20160127142010001/27/16 14:20:31  5-MIN K12N 271920Z AUTO VRB04KT 06/M09 A3003 480 33 -400 VRB/04 RMK AO1 T00611089
54779K12N 12N20160127142511601/27/16 14:25:31  5-MIN K12N 271925Z AUTO 35008KT 320V050 06/M09 A3003 480 33 -400 010/08 330V060 RMK AO1 T00611089
54779K12N 12N20160127143010001/27/16 14:30:31  5-MIN K12N 271930Z AUTO VRB03KT 06/M09 A3004 480 33 -400 VRB/03 RMK AO1 T00611089
54779K12N 12N20160127143509001/27/16 14:35:31  5-MIN K12N 271935Z AUTO 07/M08 A3004 480 33 -300 M /M RMK AO1 T00671083
54779K12N 12N20160127144010001/27/16 14:40:31  5-MIN K12N 271940Z AUTO VRB06KT 06/M09 A3004 480 33 -400 VRB/06 RMK AO1 T00611089
54779K12N 12N20160127144510001/27/16 14:45:31  5-MIN K12N 271945Z AUTO 36008KT 06/M08 A3004 470 36 -500 010/08 RMK AO1 T00561083
54779K12N 12N20160127145012901/27/16 14:50:31  5-MIN K12N 271950Z AUTO 01007G15KT 340V050 05/M09 A3004 470 36 -500 020/07G15 350V060 RMK AO1 SLP182 T00501089
54779K12N 12N20160127145510601/27/16 14:55:31  5-MIN K12N 271955Z AUTO 34009G15KT 06/M08 A3004 470 36 -500 360/09G15 RMK AO1 T00561083
54779K12N 12N20160127150012201/27/16 15:00:31  5-MIN K12N 272000Z AUTO 34007G15KT 290V010 06/M08 A3005 470 36 -500 350/07G15 300V020 RMK AO1 T00561083
54779K12N 12N20160127150512201/27/16 15:05:31  5-MIN K12N 272005Z AUTO 33008G14KT 290V350 06/M08 A3005 470 36 -500 340/08G14 300V360 RMK AO1 T00561083
54779K12N 12N20160127151011601/27/16 15:10:31  5-MIN K12N 272010Z AUTO 35007KT 330V040 06/M08 A3005 460 36 -500 360/07 340V050 RMK AO1 T00561083
54779K12N 12N20160127151510001/27/16 15:15:31  5-MIN K12N 272015Z AUTO 34007KT 05/M08 A3006 460 39 -600 350/07 RMK AO1 T00501078
54779K12N 12N20160127152010001/27/16 15:20:31  5-MIN K12N 272020Z AUTO 35008KT 05/M08 A3006 460 39 -600 010/08 RMK AO1 T00501078
54779K12N 12N20160127152510001/27/16 15:25:31  5-MIN K12N 272025Z AUTO 36008KT 04/M08 A3006 450 41 -600 010/08 RMK AO1 T00441078
54779K12N 12N20160127153011601/27/16 15:30:31  5-MIN K12N 272030Z AUTO 35007KT 320V020 04/M07 A3006 450 42 -600 360/07 330V030 RMK AO1 T00441072
54779K12N 12N20160127153510001/27/16 15:35:31  5-MIN K12N 272035Z AUTO 36008KT 04/M07 A3007 450 42 -600 010/08 RMK AO1 T00441072
54779K12N 12N20160127154010601/27/16 15:40:31  5-MIN K12N 272040Z AUTO 35010G17KT 04/M07 A3007 450 42 -600 360/10G17 RMK AO1 T00441072
54779K12N 12N20160127154510601/27/16 15:45:31  5-MIN K12N 272045Z AUTO 36010G17KT 04/M08 A3007 450 42 -700 010/10G17 RMK AO1 T00391078
54779K12N 12N20160127155011901/27/16 15:50:31  5-MIN K12N 272050Z AUTO VRB05G18KT 04/M08 A3007 440 42 -700 VRB/05G18 RMK AO1 SLP191 T00391078 58005
54779K12N 12N20160127155510601/27/16 15:55:31  5-MIN K12N 272055Z AUTO VRB06G18KT 04/M07 A3008 440 44 -700 VRB/06G18 RMK AO1 T00391072
54779K12N 12N20160127160010001/27/16 16:00:31  5-MIN K12N 272100Z AUTO VRB05KT 04/M07 A3008 440 44 -700 VRB/05 RMK AO1 T00391072
54779K12N 12N20160127160510001/27/16 16:05:31  5-MIN K12N 272105Z AUTO 33008KT 04/M08 A3008 440 42 -700 350/08 RMK AO1 T00391078
54779K12N 12N20160127161010001/27/16 16:10:31  5-MIN K12N 272110Z AUTO VRB06KT 04/M07 A3008 440 44 -700 VRB/06 RMK AO1 T00391072
54779K12N 12N20160127161510001/27/16 16:15:31  5-MIN K12N 272115Z AUTO VRB06KT 04/M08 A3008 440 42 -700 VRB/06 RMK AO1 T00391078
54779K12N 12N20160127162010001/27/16 16:20:31  5-MIN K12N 272120Z AUTO VRB04KT 04/M08 A3008 440 42 -700 VRB/04 RMK AO1 T00391078
54779K12N 12N20160127162510001/27/16 16:25:31  5-MIN K12N 272125Z AUTO VRB03KT 04/M08 A3008 440 42 -700 VRB/03 RMK AO1 T00391078
54779K12N 12N20160127163010001/27/16 16:30:31  5-MIN K12N 272130Z AUTO 35003KT 04/M07 A3008 440 44 -700 010/03 RMK AO1 T00391072
54779K12N 12N20160127163510001/27/16 16:35:31  5-MIN K12N 272135Z AUTO 00000KT 04/M07 A3008 440 44 -700 000/00 RMK AO1 T00391072
54779K12N 12N20160127164010001/27/16 16:40:31  5-MIN K12N 272140Z AUTO 00000KT 04/M07 A3008 440 44 -700 000/00 RMK AO1 T00391072
54779K12N 12N20160127164510001/27/16 16:45:31  5-MIN K12N 272145Z AUTO 00000KT 04/M07 A3008 440 44 -700 000/00 RMK AO1 T00391072
54779K12N 12N20160127165010701/27/16 16:50:31  5-MIN K12N 272150Z AUTO VRB03KT 04/M07 A3008 440 44 -700 VRB/03 RMK AO1 SLP193 T00391072
54779K12N 12N20160127165510001/27/16 16:55:31  5-MIN K12N 272155Z AUTO VRB04KT 03/M07 A3008 440 46 -800 VRB/04 RMK AO1 T00331072
54779K12N 12N20160127170010001/27/16 17:00:31  5-MIN K12N 272200Z AUTO VRB05KT 03/M07 A3008 440 46 -800 VRB/05 RMK AO1 T00331072
54779K12N 12N20160127170510001/27/16 17:05:31  5-MIN K12N 272205Z AUTO 34005KT 03/M07 A3008 440 46 -800 360/05 RMK AO1 T00331072
54779K12N 12N20160127171010001/27/16 17:10:31  5-MIN K12N 272210Z AUTO VRB05KT 03/M07 A3007 440 48 -800 VRB/05 RMK AO1 T00281072
54779K12N 12N20160127171510001/27/16 17:15:31  5-MIN K12N 272215Z AUTO 36007KT 03/M07 A3008 440 48 -800 020/07 RMK AO1 T00281072
54779K12N 12N20160127172010001/27/16 17:20:31  5-MIN K12N 272220Z AUTO 35004KT 03/M07 A3008 440 48 -900 360/04 RMK AO1 T00281072
54779K12N 12N20160127172510001/27/16 17:25:31  5-MIN K12N 272225Z AUTO 34005KT 03/M07 A3008 440 48 -800 350/05 RMK AO1 T00281072
54779K12N 12N20160127173010001/27/16 17:30:31  5-MIN K12N 272230Z AUTO VRB05KT 03/M07 A3008 440 48 -800 VRB/05 RMK AO1 T00281072
54779K12N 12N20160127173510001/27/16 17:35:31  5-MIN K12N 272235Z AUTO VRB04KT 03/M07 A3008 440 48 -900 VRB/04 RMK AO1 T00281072
54779K12N 12N20160127174010001/27/16 17:40:31  5-MIN K12N 272240Z AUTO VRB03KT 02/M07 A3009 430 50 -900 VRB/03 RMK AO1 T00221072
54779K12N 12N20160127174510001/27/16 17:45:31  5-MIN K12N 272245Z AUTO 01003KT 02/M07 A3009 430 50 -900 020/03 RMK AO1 T00221072
54779K12N 12N20160127175010701/27/16 17:50:31  5-MIN K12N 272250Z AUTO VRB03KT 02/M07 A3009 430 50 -900 VRB/03 RMK AO1 SLP198 T00221072
54779K12N 12N20160127175510101/27/16 17:55:31  5-MIN K12N 272255Z AUTO 00000KT 02/M07 A3009 430 52 -1000 000/00 RMK AO1 T00171072
54779K12N 12N20160127180010101/27/16 18:00:31  5-MIN K12N 272300Z AUTO 00000KT 02/M07 A3010 420 52 -1000 000/00 RMK AO1 T00171072
54779K12N 12N20160127180510101/27/16 18:05:31  5-MIN K12N 272305Z AUTO 00000KT 01/M07 A3010 420 54 -1100 000/00 RMK AO1 T00111072
54779K12N 12N20160127181010101/27/16 18:10:31  5-MIN K12N 272310Z AUTO 00000KT 01/M07 A3010 420 56 -1100 000/00 RMK AO1 T00111067
54779K12N 12N20160127181510101/27/16 18:15:31  5-MIN K12N 272315Z AUTO 34003KT 01/M07 A3010 420 58 -1100 360/03 RMK AO1 T00061067
54779K12N 12N20160127182010101/27/16 18:20:31  5-MIN K12N 272320Z AUTO 00000KT 00/M06 A3010 420 63 -1200 000/00 RMK AO1 T00001061
54779K12N 12N20160127182510101/27/16 18:25:31  5-MIN K12N 272325Z AUTO 00000KT 00/M07 A3010 420 61 -1200 000/00 RMK AO1 T00001067
54779K12N 12N20160127183010201/27/16 18:30:31  5-MIN K12N 272330Z AUTO 00000KT M01/M06 A3010 420 69 -1400 000/00 RMK AO1 T10111061
54779K12N 12N20160127183510201/27/16 18:35:31  5-MIN K12N 272335Z AUTO 00000KT M01/M06 A3010 420 69 -1400 000/00 RMK AO1 T10111061
54779K12N 12N20160127184010201/27/16 18:40:31  5-MIN K12N 272340Z AUTO 00000KT M02/M06 A3010 420 72 -1400 000/00 RMK AO1 T10171061
54779K12N 12N20160127184510201/27/16 18:45:31  5-MIN K12N 272345Z AUTO 00000KT M01/M06 A3010 420 69 -1400 000/00 RMK AO1 T10111061
54779K12N 12N20160127185012701/27/16 18:50:31  5-MIN K12N 272350Z AUTO 00000KT M01/M06 A3010 420 69 -1400 000/00 RMK AO1 SLP202 T10111061 10067 21017 53013
54779K12N 12N20160127185510201/27/16 18:55:31  5-MIN K12N 272355Z AUTO 00000KT M02/M06 A3010 420 72 -1400 000/00 RMK AO1 T10171061
54779K12N 12N20160127190010201/27/16 19:00:31  5-MIN K12N 280000Z AUTO 10003KT M03/M07 A3010 420 75 -1600 120/03 RMK AO1 T10281067
54779K12N 12N20160127190510201/27/16 19:05:31  5-MIN K12N 280005Z AUTO 00000KT M02/M06 A3009 430 75 -1500 000/00 RMK AO1 T10221061
54779K12N 12N20160127191010201/27/16 19:10:31  5-MIN K12N 280010Z AUTO 00000KT M02/M06 A3008 440 75 -1500 000/00 RMK AO1 T10221061
54779K12N 12N20160127191510201/27/16 19:15:31  5-MIN K12N 280015Z AUTO 00000KT M02/M07 A3008 430 72 -1500 000/00 RMK AO1 T10221067
54779K12N 12N20160127192010201/27/16 19:20:31  5-MIN K12N 280020Z AUTO 00000KT M02/M06 A3009 430 75 -1500 000/00 RMK AO1 T10221061
54779K12N 12N20160127192510201/27/16 19:25:31  5-MIN K12N 280025Z AUTO 00000KT M02/M06 A3010 420 75 -1500 000/00 RMK AO1 T10221061
54779K12N 12N20160127193010201/27/16 19:30:31  5-MIN K12N 280030Z AUTO 00000KT M03/M07 A3010 420 75 -1600 000/00 RMK AO1 T10281067
54779K12N 12N20160127193510201/27/16 19:35:31  5-MIN K12N 280035Z AUTO 00000KT M02/M07 A3010 420 72 -1500 000/00 RMK AO1 T10221067
54779K12N 12N20160127194010201/27/16 19:40:31  5-MIN K12N 280040Z AUTO 00000KT M03/M07 A3011 410 75 -1600 000/00 RMK AO1 T10281067
54779K12N 12N20160127194510201/27/16 19:45:31  5-MIN K12N 280045Z AUTO 00000KT M03/M07 A3010 420 78 -1600 000/00 RMK AO1 T10331067
54779K12N 12N20160127195010901/27/16 19:50:31  5-MIN K12N 280050Z AUTO 00000KT M03/M07 A3010 420 78 -1600 000/00 RMK AO1 SLP203 T10331067
54779K12N 12N20160127195510201/27/16 19:55:31  5-MIN K12N 280055Z AUTO 34003KT M03/M07 A3010 420 75 -1600 350/03 RMK AO1 T10281067
54779K12N 12N20160127200010201/27/16 20:00:31  5-MIN K12N 280100Z AUTO 00000KT M04/M07 A3010 420 81 -1700 000/00 RMK AO1 T10391067
54779K12N 12N20160127200510201/27/16 20:05:31  5-MIN K12N 280105Z AUTO 00000KT M04/M07 A3009 430 81 -1700 000/00 RMK AO1 T10391067
54779K12N 12N20160127201010201/27/16 20:10:31  5-MIN K12N 280110Z AUTO 00000KT M03/M06 A3009 420 78 -1600 000/00 RMK AO1 T10281061
54779K12N 12N20160127201510201/27/16 20:15:31  5-MIN K12N 280115Z AUTO 00000KT M03/M06 A3009 430 81 -1600 000/00 RMK AO1 T10331061
54779K12N 12N20160127202010201/27/16 20:20:31  5-MIN K12N 280120Z AUTO 05003KT M04/M07 A3009 430 84 -1800 070/03 RMK AO1 T10441067
54779K12N 12N20160127202510201/27/16 20:25:31  5-MIN K12N 280125Z AUTO 00000KT M03/M06 A3009 430 81 -1600 000/00 RMK AO1 T10281056
54779K12N 12N20160127203010201/27/16 20:30:31  5-MIN K12N 280130Z AUTO 00000KT M04/M06 A3009 430 85 -1700 000/00 RMK AO1 T10391061
54779K12N 12N20160127203510201/27/16 20:35:31  5-MIN K12N 280135Z AUTO 00000KT M03/M06 A3009 430 85 -1600 000/00 RMK AO1 T10331056
54779K12N 12N20160127204010201/27/16 20:40:31  5-MIN K12N 280140Z AUTO 00000KT M04/M06 A3009 430 85 -1700 000/00 RMK AO1 T10391061
54779K12N 12N20160127204510201/27/16 20:45:31  5-MIN K12N 280145Z AUTO 00000KT M04/M07 A3009 420 81 -1700 000/00 RMK AO1 T10391067
54779K12N 12N20160127205010901/27/16 20:50:31  5-MIN K12N 280150Z AUTO 00000KT M04/M07 A3009 430 81 -1700 000/00 RMK AO1 SLP201 T10391067
54779K12N 12N20160127205510201/27/16 20:55:31  5-MIN K12N 280155Z AUTO 00000KT M04/M07 A3010 420 84 -1800 000/00 RMK AO1 T10441067
54779K12N 12N20160127210010201/27/16 21:00:31  5-MIN K12N 280200Z AUTO 20003KT M04/M07 A3010 420 81 -1700 220/03 RMK AO1 T10391067
54779K12N 12N20160127210510201/27/16 21:05:31  5-MIN K12N 280205Z AUTO 00000KT M03/M06 A3010 420 81 -1600 000/00 RMK AO1 T10331061
54779K12N 12N20160127211010201/27/16 21:10:31  5-MIN K12N 280210Z AUTO 00000KT M04/M06 A3010 420 88 -1800 000/00 RMK AO1 T10441061
54779K12N 12N20160127211510201/27/16 21:15:31  5-MIN K12N 280215Z AUTO 00000KT M04/M06 A3011 410 85 -1700 000/00 RMK AO1 T10391061
54779K12N 12N20160127212010201/27/16 21:20:31  5-MIN K12N 280220Z AUTO 00000KT M04/M06 A3010 420 88 -1800 000/00 RMK AO1 T10441061
54779K12N 12N20160127212510201/27/16 21:25:31  5-MIN K12N 280225Z AUTO 00000KT M04/M07 A3011 410 84 -1800 000/00 RMK AO1 T10441067
54779K12N 12N20160127213010201/27/16 21:30:31  5-MIN K12N 280230Z AUTO 00000KT M04/M06 A3011 410 88 -1800 000/00 RMK AO1 T10441061
54779K12N 12N20160127213510201/27/16 21:35:31  5-MIN K12N 280235Z AUTO 00000KT M05/M06 A3011 410 92 -1900 000/00 RMK AO1 T10501061
54779K12N 12N20160127214010201/27/16 21:40:31  5-MIN K12N 280240Z AUTO 00000KT M04/M06 A3010 420 88 -1800 000/00 RMK AO1 T10441061
54779K12N 12N20160127214510201/27/16 21:45:31  5-MIN K12N 280245Z AUTO 00000KT M04/M06 A3010 420 88 -1800 000/00 RMK AO1 T10441061
54779K12N 12N20160127215011501/27/16 21:50:31  5-MIN K12N 280250Z AUTO 21003KT M04/M06 A3010 420 88 -1800 220/03 RMK AO1 SLP205 T10441061 51007
54779K12N 12N20160127215510201/27/16 21:55:31  5-MIN K12N 280255Z AUTO 00000KT M04/M06 A3010 420 85 -1700 000/00 RMK AO1 T10391061
54779K12N 12N20160127220010201/27/16 22:00:31  5-MIN K12N 280300Z AUTO 00000KT M04/M06 A3010 420 85 -1700 000/00 RMK AO1 T10391061
54779K12N 12N20160127220510201/27/16 22:05:31  5-MIN K12N 280305Z AUTO 00000KT M03/M06 A3010 420 85 -1600 000/00 RMK AO1 T10331056
54779K12N 12N20160127221010201/27/16 22:10:31  5-MIN K12N 280310Z AUTO 00000KT M03/M06 A3010 420 85 -1600 000/00 RMK AO1 T10331056
54779K12N 12N20160127221510201/27/16 22:15:31  5-MIN K12N 280315Z AUTO 00000KT M04/M06 A3010 420 85 -1700 000/00 RMK AO1 T10391061
54779K12N 12N20160127222010201/27/16 22:20:31  5-MIN K12N 280320Z AUTO 00000KT M03/M06 A3010 420 81 -1600 000/00 RMK AO1 T10331061
54779K12N 12N20160127222510201/27/16 22:25:31  5-MIN K12N 280325Z AUTO 00000KT M04/M06 A3010 420 85 -1700 000/00 RMK AO1 T10391061
54779K12N 12N20160127223010201/27/16 22:30:31  5-MIN K12N 280330Z AUTO 00000KT M04/M06 A3010 420 85 -1700 000/00 RMK AO1 T10391061
54779K12N 12N20160127223510201/27/16 22:35:31  5-MIN K12N 280335Z AUTO 00000KT M04/M07 A3009 420 81 -1700 000/00 RMK AO1 T10391067
54779K12N 12N20160127224010201/27/16 22:40:31  5-MIN K12N 280340Z AUTO 15003KT M04/M07 A3010 420 84 -1800 160/03 RMK AO1 T10441067
54779K12N 12N20160127224510201/27/16 22:45:31  5-MIN K12N 280345Z AUTO VRB03KT M04/M07 A3011 410 84 -1800 VRB/03 RMK AO1 T10441067
54779K12N 12N20160127225010901/27/16 22:50:31  5-MIN K12N 280350Z AUTO 00000KT M04/M07 A3010 420 81 -1700 000/00 RMK AO1 SLP205 T10391067
54779K12N 12N20160127225510201/27/16 22:55:31  5-MIN K12N 280355Z AUTO 00000KT M04/M06 A3010 420 85 -1700 000/00 RMK AO1 T10391061
54779K12N 12N20160127230010201/27/16 23:00:31  5-MIN K12N 280400Z AUTO 00000KT M04/M07 A3010 420 84 -1800 000/00 RMK AO1 T10441067
54779K12N 12N20160127230510201/27/16 23:05:31  5-MIN K12N 280405Z AUTO 00000KT M05/M07 A3010 420 84 -1900 000/00 RMK AO1 T10501072
54779K12N 12N20160127231010201/27/16 23:10:31  5-MIN K12N 280410Z AUTO 00000KT M06/M07 A3010 420 88 -1900 000/00 RMK AO1 T10561072
54779K12N 12N20160127231510201/27/16 23:15:31  5-MIN K12N 280415Z AUTO 23003KT M06/M08 A3010 420 84 -1900 240/03 RMK AO1 T10561078
54779K12N 12N20160127232010201/27/16 23:20:31  5-MIN K12N 280420Z AUTO 19003KT M06/M07 A3011 410 88 -1900 210/03 RMK AO1 T10561072
54779K12N 12N20160127232510201/27/16 23:25:31  5-MIN K12N 280425Z AUTO 00000KT M06/M07 A3010 420 88 -1900 000/00 RMK AO1 T10561072
54779K12N 12N20160127233010201/27/16 23:30:31  5-MIN K12N 280430Z AUTO 00000KT M06/M07 A3011 410 88 -1900 000/00 RMK AO1 T10561072
54779K12N 12N20160127233510201/27/16 23:35:31  5-MIN K12N 280435Z AUTO 00000KT M06/M07 A3010 420 92 -2000 000/00 RMK AO1 T10611072
54779K12N 12N20160127234010201/27/16 23:40:31  5-MIN K12N 280440Z AUTO 00000KT M06/M07 A3010 420 92 -2000 000/00 RMK AO1 T10611072
54779K12N 12N20160127234510201/27/16 23:45:31  5-MIN K12N 280445Z AUTO 00000KT M06/M07 A3011 410 88 -1900 000/00 RMK AO1 T10561072
54779K12N 12N20160127235011901/27/16 23:50:31  5-MIN K12N 280450Z AUTO 19003KT M06/M07 A3011 410 88 -1900 210/03 RMK AO1 SLP208 T10561072 400671061
54779K12N 12N20160127235510201/27/16 23:55:31  5-MIN K12N 280455Z AUTO 00000KT M05/M07 A3011 410 88 -1900 000/00 RMK AO1 T10501067
54779K12N 12N20160128000010201/28/16 00:00:31  5-MIN K12N 280500Z AUTO 20003KT M06/M07 A3011 410 92 -2000 210/03 RMK AO1 T10611072
54779K12N 12N20160128000510201/28/16 00:05:31  5-MIN K12N 280505Z AUTO 00000KT M06/M07 A3011 410 88 -1900 000/00 RMK AO1 T10561072
54779K12N 12N20160128001010201/28/16 00:10:31  5-MIN K12N 280510Z AUTO 00000KT M06/M07 A3010 420 92 -2000 000/00 RMK AO1 T10611072
54779K12N 12N20160128001510201/28/16 00:15:31  5-MIN K12N 280515Z AUTO 00000KT M06/M08 A3010 420 88 -2000 000/00 RMK AO1 T10611078
54779K12N 12N20160128002010201/28/16 00:20:31  5-MIN K12N 280520Z AUTO 00000KT M06/M08 A3010 420 88 -2000 000/00 RMK AO1 T10611078
54779K12N 12N20160128002510201/28/16 00:25:31  5-MIN K12N 280525Z AUTO 00000KT M06/M08 A3010 420 88 -2000 000/00 RMK AO1 T10611078
54779K12N 12N20160128003010201/28/16 00:30:31  5-MIN K12N 280530Z AUTO 00000KT M06/M08 A3010 420 88 -2000 000/00 RMK AO1 T10611078
54779K12N 12N20160128003510201/28/16 00:35:31  5-MIN K12N 280535Z AUTO 21003KT M07/M08 A3010 420 88 -2100 220/03 RMK AO1 T10671083
54779K12N 12N20160128004010201/28/16 00:40:31  5-MIN K12N 280540Z AUTO 20003KT M06/M08 A3010 420 88 -2000 220/03 RMK AO1 T10611078
54779K12N 12N20160128004510201/28/16 00:45:31  5-MIN K12N 280545Z AUTO 00000KT M07/M08 A3011 410 88 -2100 000/00 RMK AO1 T10671083
54779K12N 12N20160128005012701/28/16 00:50:31  5-MIN K12N 280550Z AUTO 19003KT M06/M08 A3011 410 84 -2000 200/03 RMK AO1 SLP207 T10611083 11017 21067 57000
54779K12N 12N20160128005510201/28/16 00:55:31  5-MIN K12N 280555Z AUTO 00000KT M07/M08 A3011 410 92 -2100 000/00 RMK AO1 T10671078
54779K12N 12N20160128010010201/28/16 01:00:31  5-MIN K12N 280600Z AUTO 00000KT M07/M09 A3010 420 88 -2200 000/00 RMK AO1 T10721089
54779K12N 12N20160128010510201/28/16 01:05:31  5-MIN K12N 280605Z AUTO 00000KT M08/M09 A3010 420 92 -2200 000/00 RMK AO1 T10781089
54779K12N 12N20160128011010201/28/16 01:10:31  5-MIN K12N 280610Z AUTO 00000KT M08/M09 A3010 420 92 -2200 000/00 RMK AO1 T10781089
54779K12N 12N20160128011510201/28/16 01:15:31  5-MIN K12N 280615Z AUTO 00000KT M08/M09 A3010 420 88 -2200 000/00 RMK AO1 T10781094
54779K12N 12N20160128012010201/28/16 01:20:31  5-MIN K12N 280620Z AUTO 00000KT M07/M09 A3009 430 84 -2100 000/00 RMK AO1 T10721094
54779K12N 12N20160128012510201/28/16 01:25:31  5-MIN K12N 280625Z AUTO 00000KT M07/M09 A3009 430 84 -2100 000/00 RMK AO1 T10721094
54779K12N 12N20160128013010201/28/16 01:30:31  5-MIN K12N 280630Z AUTO 00000KT M07/M09 A3009 430 88 -2100 000/00 RMK AO1 T10721089
54779K12N 12N20160128013510201/28/16 01:35:31  5-MIN K12N 280635Z AUTO 00000KT M08/M09 A3008 430 88 -2200 000/00 RMK AO1 T10781094
54779K12N 12N20160128014010201/28/16 01:40:31  5-MIN K12N 280640Z AUTO 00000KT M08/M09 A3008 430 88 -2200 000/00 RMK AO1 T10781094
54779K12N 12N20160128014510201/28/16 01:45:31  5-MIN K12N 280645Z AUTO 00000KT M08/M09 A3008 440 88 -2200 000/00 RMK AO1 T10781094
54779K12N 12N20160128015010901/28/16 01:50:31  5-MIN K12N 280650Z AUTO 00000KT M08/M10 A3008 440 84 -2200 000/00 RMK AO1 SLP197 T10781100
54779K12N 12N20160128015510201/28/16 01:55:31  5-MIN K12N 280655Z AUTO 00000KT M08/M10 A3008 440 84 -2200 000/00 RMK AO1 T10781100
54779K12N 12N20160128020010201/28/16 02:00:31  5-MIN K12N 280700Z AUTO 00000KT M08/M09 A3008 440 88 -2200 000/00 RMK AO1 T10781094
54779K12N 12N20160128020510201/28/16 02:05:31  5-MIN K12N 280705Z AUTO 00000KT M08/M10 A3008 440 84 -2200 000/00 RMK AO1 T10781100
54779K12N 12N20160128021010201/28/16 02:10:31  5-MIN K12N 280710Z AUTO 00000KT M08/M10 A3008 440 84 -2200 000/00 RMK AO1 T10781100
54779K12N 12N20160128021510201/28/16 02:15:31  5-MIN K12N 280715Z AUTO 00000KT M08/M10 A3008 440 88 -2300 000/00 RMK AO1 T10831100
54779K12N 12N20160128022010201/28/16 02:20:31  5-MIN K12N 280720Z AUTO 00000KT M08/M10 A3008 440 88 -2300 000/00 RMK AO1 T10831100
54779K12N 12N20160128022510201/28/16 02:25:31  5-MIN K12N 280725Z AUTO 00000KT M09/M10 A3008 430 92 -2300 000/00 RMK AO1 T10891100
54779K12N 12N20160128023010201/28/16 02:30:31  5-MIN K12N 280730Z AUTO 00000KT M09/M11 A3008 430 88 -2300 000/00 RMK AO1 T10891106
54779K12N 12N20160128023510201/28/16 02:35:31  5-MIN K12N 280735Z AUTO 00000KT M09/M11 A3009 430 88 -2300 000/00 RMK AO1 T10891106
54779K12N 12N20160128024010201/28/16 02:40:31  5-MIN K12N 280740Z AUTO 00000KT M09/M11 A3008 440 88 -2400 000/00 RMK AO1 T10941111
54779K12N 12N20160128024510201/28/16 02:45:31  5-MIN K12N 280745Z AUTO 00000KT M09/M11 A3008 440 84 -2300 000/00 RMK AO1 T10891111
54779K12N 12N20160128025010901/28/16 02:50:31  5-MIN K12N 280750Z AUTO 00000KT M09/M11 A3008 440 88 -2300 000/00 RMK AO1 SLP198 T10891106
54779K12N 12N20160128025510201/28/16 02:55:31  5-MIN K12N 280755Z AUTO 00000KT M09/M11 A3008 440 84 -2300 000/00 RMK AO1 T10891111
54779K12N 12N20160128030010201/28/16 03:00:31  5-MIN K12N 280800Z AUTO 00000KT M09/M11 A3007 440 88 -2300 000/00 RMK AO1 T10891106
54779K12N 12N20160128030510201/28/16 03:05:31  5-MIN K12N 280805Z AUTO 00000KT M08/M11 A3007 450 84 -2300 000/00 RMK AO1 T10831106
54779K12N 12N20160128031010201/28/16 03:10:31  5-MIN K12N 280810Z AUTO 00000KT M09/M11 A3007 450 92 -2400 000/00 RMK AO1 T10941106
54779K12N 12N20160128031510201/28/16 03:15:31  5-MIN K12N 280815Z AUTO 00000KT M09/M11 A3007 450 88 -2300 000/00 RMK AO1 T10891106
54779K12N 12N20160128032010201/28/16 03:20:31  5-MIN K12N 280820Z AUTO 00000KT M09/M11 A3007 450 88 -2300 000/00 RMK AO1 T10891106
54779K12N 12N20160128032510201/28/16 03:25:31  5-MIN K12N 280825Z AUTO 00000KT M09/M11 A3007 450 88 -2400 000/00 RMK AO1 T10941111
54779K12N 12N20160128033010201/28/16 03:30:31  5-MIN K12N 280830Z AUTO 00000KT M09/M11 A3006 450 88 -2400 000/00 RMK AO1 T10941111
54779K12N 12N20160128033510201/28/16 03:35:31  5-MIN K12N 280835Z AUTO 00000KT M10/M12 A3006 460 88 -2500 000/00 RMK AO1 T11001117
54779K12N 12N20160128034010201/28/16 03:40:31  5-MIN K12N 280840Z AUTO 00000KT M09/M11 A3006 460 88 -2400 000/00 RMK AO1 T10941111
54779K12N 12N20160128034510201/28/16 03:45:31  5-MIN K12N 280845Z AUTO 00000KT M09/M11 A3006 460 88 -2400 000/00 RMK AO1 T10941111
54779K12N 12N20160128035011501/28/16 03:50:31  5-MIN K12N 280850Z AUTO 00000KT M09/M11 A3005 460 88 -2400 000/00 RMK AO1 SLP190 T10941111 50004
54779K12N 12N20160128035510201/28/16 03:55:31  5-MIN K12N 280855Z AUTO 00000KT M09/M11 A3005 460 88 -2400 000/00 RMK AO1 T10941111
54779K12N 12N20160128040010201/28/16 04:00:31  5-MIN K12N 280900Z AUTO 00000KT M09/M11 A3005 470 88 -2400 000/00 RMK AO1 T10941111
54779K12N 12N20160128040510201/28/16 04:05:31  5-MIN K12N 280905Z AUTO 00000KT M09/M11 A3005 470 88 -2400 000/00 RMK AO1 T10941111
54779K12N 12N20160128041010201/28/16 04:10:31  5-MIN K12N 280910Z AUTO 00000KT M09/M11 A3004 470 84 -2300 000/00 RMK AO1 T10891111
54779K12N 12N20160128041510201/28/16 04:15:31  5-MIN K12N 280915Z AUTO 00000KT M09/M11 A3004 470 88 -2400 000/00 RMK AO1 T10941111
54779K12N 12N20160128042010201/28/16 04:20:31  5-MIN K12N 280920Z AUTO 00000KT M09/M11 A3004 470 88 -2400 000/00 RMK AO1 T10941111
54779K12N 12N20160128042510201/28/16 04:25:31  5-MIN K12N 280925Z AUTO 00000KT M10/M12 A3004 470 88 -2400 000/00 RMK AO1 T11001117
54779K12N 12N20160128043010201/28/16 04:30:31  5-MIN K12N 280930Z AUTO 00000KT M10/M12 A3004 480 88 -2400 000/00 RMK AO1 T11001117
54779K12N 12N20160128043510201/28/16 04:35:31  5-MIN K12N 280935Z AUTO 00000KT M10/M12 A3004 480 84 -2400 000/00 RMK AO1 T11001122
54779K12N 12N20160128044010201/28/16 04:40:31  5-MIN K12N 280940Z AUTO 00000KT M09/M12 A3004 480 80 -2400 000/00 RMK AO1 T10941122
54779K12N 12N20160128044510201/28/16 04:45:31  5-MIN K12N 280945Z AUTO 00000KT M10/M12 A3003 480 88 -2400 000/00 RMK AO1 T11001117
54779K12N 12N20160128045010901/28/16 04:50:31  5-MIN K12N 280950Z AUTO 00000KT M10/M12 A3003 480 84 -2400 000/00 RMK AO1 SLP183 T11001122
54779K12N 12N20160128045510201/28/16 04:55:31  5-MIN K12N 280955Z AUTO 00000KT M10/M12 A3003 480 88 -2400 000/00 RMK AO1 T11001117
54779K12N 12N20160128050010201/28/16 05:00:31  5-MIN K12N 281000Z AUTO 00000KT M10/M12 A3003 480 84 -2400 000/00 RMK AO1 T11001122
54779K12N 12N20160128050510201/28/16 05:05:31  5-MIN K12N 281005Z AUTO 00000KT M10/M12 A3003 490 84 -2400 000/00 RMK AO1 T11001122
54779K12N 12N20160128051010201/28/16 05:10:31  5-MIN K12N 281010Z AUTO 00000KT M10/M12 A3003 490 84 -2400 000/00 RMK AO1 T11001122
54779K12N 12N20160128051510201/28/16 05:15:31  5-MIN K12N 281015Z AUTO 00000KT M10/M12 A3002 490 84 -2400 000/00 RMK AO1 T11001122
54779K12N 12N20160128052010201/28/16 05:20:31  5-MIN K12N 281020Z AUTO 00000KT M11/M13 A3002 490 84 -2500 000/00 RMK AO1 T11061128
54779K12N 12N20160128052510201/28/16 05:25:31  5-MIN K12N 281025Z AUTO 00000KT M10/M12 A3002 490 84 -2400 000/00 RMK AO1 T11001122
54779K12N 12N20160128053010201/28/16 05:30:31  5-MIN K12N 281030Z AUTO 00000KT M11/M13 A3002 490 84 -2500 000/00 RMK AO1 T11061128
54779K12N 12N20160128053510201/28/16 05:35:31  5-MIN K12N 281035Z AUTO 00000KT M10/M13 A3002 490 80 -2400 000/00 RMK AO1 T11001128
54779K12N 12N20160128054010201/28/16 05:40:31  5-MIN K12N 281040Z AUTO 00000KT M11/M13 A3002 490 84 -2500 000/00 RMK AO1 T11061128
54779K12N 12N20160128054510201/28/16 05:45:31  5-MIN K12N 281045Z AUTO 00000KT M11/M13 A3002 490 88 -2600 000/00 RMK AO1 T11111128
54779K12N 12N20160128055010901/28/16 05:50:31  5-MIN K12N 281050Z AUTO 00000KT M11/M13 A3002 490 84 -2500 000/00 RMK AO1 SLP180 T11061128
54779K12N 12N20160128055510201/28/16 05:55:31  5-MIN K12N 281055Z AUTO 21003KT M11/M13 A3002 490 84 -2500 220/03 RMK AO1 T11061128
54779K12N 12N20160128060010201/28/16 06:00:31  5-MIN K12N 281100Z AUTO 21003KT M11/M12 A3002 500 88 -2500 220/03 RMK AO1 T11061122
54779K12N 12N20160128060510201/28/16 06:05:31  5-MIN K12N 281105Z AUTO 21003KT M11/M12 A3002 500 88 -2500 230/03 RMK AO1 T11061122
54779K12N 12N20160128061010201/28/16 06:10:31  5-MIN K12N 281110Z AUTO 00000KT M11/M13 A3001 500 88 -2600 000/00 RMK AO1 T11111128
54779K12N 12N20160128061510201/28/16 06:15:31  5-MIN K12N 281115Z AUTO 00000KT M11/M13 A3001 500 84 -2500 000/00 RMK AO1 T11061128
54779K12N 12N20160128062010201/28/16 06:20:31  5-MIN K12N 281120Z AUTO 00000KT M11/M13 A3002 500 88 -2600 000/00 RMK AO1 T11111128
54779K12N 12N20160128062510201/28/16 06:25:31  5-MIN K12N 281125Z AUTO 00000KT M11/M13 A3002 500 84 -2600 000/00 RMK AO1 T11111133
54779K12N 12N20160128063010201/28/16 06:30:31  5-MIN K12N 281130Z AUTO 00000KT M11/M13 A3002 500 84 -2600 000/00 RMK AO1 T11111133
54779K12N 12N20160128063510201/28/16 06:35:31  5-MIN K12N 281135Z AUTO 00000KT M11/M13 A3002 500 80 -2500 000/00 RMK AO1 T11061133
54779K12N 12N20160128064010201/28/16 06:40:31  5-MIN K12N 281140Z AUTO 00000KT M11/M13 A3001 500 84 -2600 000/00 RMK AO1 T11111133
54779K12N 12N20160128064510201/28/16 06:45:31  5-MIN K12N 281145Z AUTO 00000KT M11/M13 A3001 500 84 -2600 000/00 RMK AO1 T11111133
54779K12N 12N20160128065012701/28/16 06:50:31  5-MIN K12N 281150Z AUTO 00000KT M11/M13 A3001 500 84 -2600 000/00 RMK AO1 SLP178 T11111133 11067 21111 56018
54779K12N 12N20160128065510201/28/16 06:55:31  5-MIN K12N 281155Z AUTO 00000KT M11/M13 A3001 500 84 -2600 000/00 RMK AO1 T11111133
54779K12N 12N20160128070010201/28/16 07:00:31  5-MIN K12N 281200Z AUTO 00000KT M11/M13 A3001 500 84 -2600 000/00 RMK AO1 T11111133
54779K12N 12N20160128070510201/28/16 07:05:31  5-MIN K12N 281205Z AUTO 00000KT M11/M13 A3001 500 84 -2600 000/00 RMK AO1 T11111133
54779K12N 12N20160128071010201/28/16 07:10:31  5-MIN K12N 281210Z AUTO 00000KT M12/M13 A3001 510 87 -2600 000/00 RMK AO1 T11171133
54779K12N 12N20160128071510201/28/16 07:15:31  5-MIN K12N 281215Z AUTO 00000KT M11/M14 A3000 510 80 -2500 000/00 RMK AO1 T11111139
54779K12N 12N20160128072010201/28/16 07:20:31  5-MIN K12N 281220Z AUTO 00000KT M11/M13 A3000 510 84 -2500 000/00 RMK AO1 T11111133
54779K12N 12N20160128072510201/28/16 07:25:31  5-MIN K12N 281225Z AUTO 00000KT M12/M13 A3000 510 87 -2600 000/00 RMK AO1 T11171133
54779K12N 12N20160128073010201/28/16 07:30:31  5-MIN K12N 281230Z AUTO 00000KT M12/M13 A3000 510 87 -2600 000/00 RMK AO1 T11171133
54779K12N 12N20160128073510201/28/16 07:35:31  5-MIN K12N 281235Z AUTO 00000KT M11/M13 A3000 510 84 -2500 000/00 RMK AO1 T11111133
54779K12N 12N20160128074010201/28/16 07:40:31  5-MIN K12N 281240Z AUTO 00000KT M12/M13 A3000 510 87 -2600 000/00 RMK AO1 T11171133
54779K12N 12N20160128074510201/28/16 07:45:31  5-MIN K12N 281245Z AUTO 00000KT M12/M13 A3000 510 87 -2600 000/00 RMK AO1 T11171133
54779K12N 12N20160128075010901/28/16 07:50:31  5-MIN K12N 281250Z AUTO 00000KT M11/M13 A3000 510 84 -2500 000/00 RMK AO1 SLP177 T11111133
54779K12N 12N20160128075510201/28/16 07:55:31  5-MIN K12N 281255Z AUTO 00000KT M11/M13 A3001 510 84 -2500 000/00 RMK AO1 T11061128
54779K12N 12N20160128080010201/28/16 08:00:31  5-MIN K12N 281300Z AUTO 00000KT M11/M13 A3000 510 84 -2500 000/00 RMK AO1 T11061128
54779K12N 12N20160128080510201/28/16 08:05:31  5-MIN K12N 281305Z AUTO 00000KT M11/M12 A3000 510 88 -2500 000/00 RMK AO1 T11061122
54779K12N 12N20160128081010201/28/16 08:10:31  5-MIN K12N 281310Z AUTO 00000KT M11/M12 A2999 520 88 -2500 000/00 RMK AO1 T11061122
54779K12N 12N20160128081510201/28/16 08:15:31  5-MIN K12N 281315Z AUTO 00000KT M11/M12 A2999 520 88 -2500 000/00 RMK AO1 T11061122
54779K12N 12N20160128082010201/28/16 08:20:31  5-MIN K12N 281320Z AUTO 00000KT M11/M12 A2999 520 88 -2500 000/00 RMK AO1 T11061122
54779K12N 12N20160128082510201/28/16 08:25:31  5-MIN K12N 281325Z AUTO 00000KT M10/M12 A2998 530 88 -2400 000/00 RMK AO1 T11001117
54779K12N 12N20160128083010201/28/16 08:30:31  5-MIN K12N 281330Z AUTO 00000KT M09/M10 A2998 530 96 -2300 000/00 RMK AO1 T10941100
54779K12N 12N20160128083510301/28/16 08:35:31  5-MIN K12N 281335Z AUTO 00000KT M09/M09 A2998 530 100 -2300 000/00 RMK AO1 T10941094
54779K12N 12N20160128084010301/28/16 08:40:31  5-MIN K12N 281340Z AUTO 00000KT M09/M09 A2998 530 100 -2200 000/00 RMK AO1 T10891089
54779K12N 12N20160128084510201/28/16 08:45:31  5-MIN K12N 281345Z AUTO 00000KT M08/M09 A2998 530 96 -2200 000/00 RMK AO1 T10831089
54779K12N 12N20160128085011001/28/16 08:50:31  5-MIN K12N 281350Z AUTO 00000KT M08/M08 A2998 530 100 -2100 000/00 RMK AO1 SLP167 T10781078
54779K12N 12N20160128085510301/28/16 08:55:31  5-MIN K12N 281355Z AUTO 00000KT M07/M07 A2998 530 100 -2000 000/00 RMK AO1 T10721072
54779K12N 12N20160128090010301/28/16 09:00:31  5-MIN K12N 281400Z AUTO 00000KT M07/M07 A2998 530 100 -1900 000/00 RMK AO1 T10671067
54779K12N 12N20160128090510301/28/16 09:05:31  5-MIN K12N 281405Z AUTO 00000KT M07/M07 A2997 540 100 -1900 000/00 RMK AO1 T10671067
54779K12N 12N20160128091010301/28/16 09:10:31  5-MIN K12N 281410Z AUTO 00000KT M06/M06 A2997 540 100 -1900 000/00 RMK AO1 T10611061
54779K12N 12N20160128091510301/28/16 09:15:31  5-MIN K12N 281415Z AUTO 00000KT M06/M06 A2997 540 100 -1800 000/00 RMK AO1 T10561056
54779K12N 12N20160128092010201/28/16 09:20:31  5-MIN K12N 281420Z AUTO 00000KT M05/M06 A2997 540 96 -1700 000/00 RMK AO1 T10501056
54779K12N 12N20160128092510201/28/16 09:25:31  5-MIN K12N 281425Z AUTO 00000KT M05/M06 A2997 540 96 -1700 000/00 RMK AO1 T10501056
54779K12N 12N20160128093010201/28/16 09:30:31  5-MIN K12N 281430Z AUTO 00000KT M04/M05 A2997 540 96 -1600 000/00 RMK AO1 T10441050
54779K12N 12N20160128093510201/28/16 09:35:31  5-MIN K12N 281435Z AUTO 00000KT M04/M05 A2997 540 92 -1600 000/00 RMK AO1 T10391050
54779K12N 12N20160128094010201/28/16 09:40:31  5-MIN K12N 281440Z AUTO 00000KT M03/M05 A2997 540 88 -1500 000/00 RMK AO1 T10331050
54779K12N 12N20160128094510201/28/16 09:45:31  5-MIN K12N 281445Z AUTO 00000KT M03/M06 A2997 540 81 -1400 000/00 RMK AO1 T10281056
54779K12N 12N20160128095011501/28/16 09:50:31  5-MIN K12N 281450Z AUTO 00000KT M03/M05 A2997 540 85 -1400 000/00 RMK AO1 SLP162 T10281050 56014
54779K12N 12N20160128095510201/28/16 09:55:31  5-MIN K12N 281455Z AUTO 00000KT M02/M06 A2997 540 75 -1300 000/00 RMK AO1 T10171056
54779K12N 12N20160128100010201/28/16 10:00:31  5-MIN K12N 281500Z AUTO VRB03KT M02/M06 A2997 540 78 -1400 VRB/03 RMK AO1 T10221056
54779K12N 12N20160128100510201/28/16 10:05:31  5-MIN K12N 281505Z AUTO 00000KT M01/M06 A2997 540 69 -1200 000/00 RMK AO1 T10111061
54779K12N 12N20160128101010201/28/16 10:10:31  5-MIN K12N 281510Z AUTO 21004KT M02/M06 A2997 540 72 -1300 220/04 RMK AO1 T10171061
54779K12N 12N20160128101510201/28/16 10:15:31  5-MIN K12N 281515Z AUTO 00000KT M01/M06 A2997 540 69 -1200 000/00 RMK AO1 T10111061
54779K12N 12N20160128102010201/28/16 10:20:31  5-MIN K12N 281520Z AUTO 21006KT M01/M07 A2997 540 66 -1200 230/06 RMK AO1 T10111067
54779K12N 12N20160128102510201/28/16 10:25:31  5-MIN K12N 281525Z AUTO 20005KT M01/M07 A2996 540 63 -1200 220/05 RMK AO1 T10111072
54779K12N 12N20160128103010201/28/16 10:30:31  5-MIN K12N 281530Z AUTO 22006KT M01/M07 A2996 550 61 -1100 230/06 RMK AO1 T10061072
54779K12N 12N20160128103510201/28/16 10:35:31  5-MIN K12N 281535Z AUTO VRB05KT M01/M07 A2996 550 61 -1100 VRB/05 RMK AO1 T10061072
54779K12N 12N20160128104010101/28/16 10:40:31  5-MIN K12N 281540Z AUTO 22006KT 00/M07 A2995 550 58 -1100 230/06 RMK AO1 T00001072
54779K12N 12N20160128104510101/28/16 10:45:31  5-MIN K12N 281545Z AUTO 21005KT 00/M07 A2995 560 58 -1100 230/05 RMK AO1 T00001072
54779K12N 12N20160128105012401/28/16 10:50:31  5-MIN K12N 281550Z AUTO 21007KT 180V250 00/M07 A2995 560 58 -1100 230/07 190V260 RMK AO1 SLP154 T00001072
54779K12N 12N20160128105510101/28/16 10:55:31  5-MIN K12N 281555Z AUTO VRB06KT 01/M08 A2995 560 54 -1000 VRB/06 RMK AO1 T00061078
54779K12N 12N20160128110010101/28/16 11:00:31  5-MIN K12N 281600Z AUTO VRB05KT 01/M08 A2994 570 54 -1000 VRB/05 RMK AO1 T00061078
54779K12N 12N20160128110510101/28/16 11:05:31  5-MIN K12N 281605Z AUTO 21004KT 01/M08 A2994 570 54 -1000 230/04 RMK AO1 T00061078
54779K12N 12N20160128111010101/28/16 11:10:31  5-MIN K12N 281610Z AUTO 22006KT 01/M07 A2994 570 56 -1000 230/06 RMK AO1 T00061072
54779K12N 12N20160128111510001/28/16 11:15:31  5-MIN K12N 281615Z AUTO 23007KT 01/M08 A2993 570 51 -900 240/07 RMK AO1 T00111078
54779K12N 12N20160128112010001/28/16 11:20:31  5-MIN K12N 281620Z AUTO 23006KT 01/M08 A2993 580 51 -900 240/06 RMK AO1 T00111078
54779K12N 12N20160128112510001/28/16 11:25:31  5-MIN K12N 281625Z AUTO 23007KT 01/M08 A2992 580 49 -900 240/07 RMK AO1 T00111083
54779K12N 12N20160128113010001/28/16 11:30:31  5-MIN K12N 281630Z AUTO 22007KT 01/M08 A2992 590 49 -900 230/07 RMK AO1 T00111083
54779K12N 12N20160128113510001/28/16 11:35:31  5-MIN K12N 281635Z AUTO 23008KT 02/M08 A2992 590 47 -800 240/08 RMK AO1 T00171083
54779K12N 12N20160128114010001/28/16 11:40:31  5-MIN K12N 281640Z AUTO 22008KT 02/M08 A2991 590 47 -800 230/08 RMK AO1 T00171083
54779K12N 12N20160128114510001/28/16 11:45:31  5-MIN K12N 281645Z AUTO 24009KT 02/M08 A2991 600 47 -800 250/09 RMK AO1 T00171083
54779K12N 12N20160128115010701/28/16 11:50:31  5-MIN K12N 281650Z AUTO 22008KT 02/M08 A2991 600 45 -700 240/08 RMK AO1 SLP139 T00221083
54779K12N 12N20160128115510001/28/16 11:55:31  5-MIN K12N 281655Z AUTO VRB05KT 02/M08 A2990 600 45 -700 VRB/05 RMK AO1 T00221083
54779K12N 12N20160128120010001/28/16 12:00:31  5-MIN K12N 281700Z AUTO VRB06KT 02/M08 A2990 610 47 -700 VRB/06 RMK AO1 T00221078
54779K12N 12N20160128120510001/28/16 12:05:31  5-MIN K12N 281705Z AUTO 21005KT 03/M08 A2989 610 44 -600 230/05 RMK AO1 T00281083
54779K12N 12N20160128121010601/28/16 12:10:31  5-MIN K12N 281710Z AUTO 22011G15KT 03/M08 A2989 610 46 -600 230/11G15 RMK AO1 T00281078
54779K12N 12N20160128121510601/28/16 12:15:31  5-MIN K12N 281715Z AUTO VRB06G15KT 02/M08 A2989 620 47 -700 VRB/06G15 RMK AO1 T00221078
54779K12N 12N20160128122012201/28/16 12:20:31  5-MIN K12N 281720Z AUTO 23009G14KT 190V270 03/M08 A2988 620 46 -600 240/09G14 200V280 RMK AO1 T00281078
54779K12N 12N20160128122510601/28/16 12:25:31  5-MIN K12N 281725Z AUTO 22007G14KT 03/M08 A2988 620 44 -600 230/07G14 RMK AO1 T00281083
54779K12N 12N20160128123010601/28/16 12:30:31  5-MIN K12N 281730Z AUTO 21008G15KT 03/M08 A2988 630 46 -600 220/08G15 RMK AO1 T00281078
54779K12N 12N20160128123512201/28/16 12:35:31  5-MIN K12N 281735Z AUTO 22009G15KT 180V240 03/M08 A2987 630 46 -600 230/09G15 190V250 RMK AO1 T00281078
54779K12N 12N20160128124010001/28/16 12:40:31  5-MIN K12N 281740Z AUTO VRB05KT 03/M08 A2987 630 46 -600 VRB/05 RMK AO1 T00281078
54779K12N 12N20160128124510601/28/16 12:45:31  5-MIN K12N 281745Z AUTO 23010G16KT 03/M08 A2987 640 46 -600 250/10G16 RMK AO1 T00281078
54779K12N 12N20160128125013101/28/16 12:50:31  5-MIN K12N 281750Z AUTO 22007G16KT 03/M08 A2986 640 46 -600 240/07G16 RMK AO1 SLP125 T00281078 10028 21117 58014
54779K12N 12N20160128125511601/28/16 12:55:31  5-MIN K12N 281755Z AUTO 22008KT 190V260 03/M08 A2986 640 46 -600 240/08 200V270 RMK AO1 T00281078
54779K12N 12N20160128130010601/28/16 13:00:31  5-MIN K12N 281800Z AUTO 22007G15KT 03/M08 A2986 640 46 -600 230/07G15 RMK AO1 T00281078
54779K12N 12N20160128130510601/28/16 13:05:31  5-MIN K12N 281805Z AUTO 21008G15KT 03/M08 A2986 640 46 -600 230/08G15 RMK AO1 T00281078
54779K12N 12N20160128131011601/28/16 13:10:31  5-MIN K12N 281810Z AUTO 21010KT 180V240 03/M08 A2986 640 46 -600 230/10 190V250 RMK AO1 T00281078
54779K12N 12N20160128131512201/28/16 13:15:31  5-MIN K12N 281815Z AUTO 21007G14KT 160V240 02/M08 A2985 650 47 -700 220/07G14 170V250 RMK AO1 T00221078
54779K12N 12N20160128132010601/28/16 13:20:31  5-MIN K12N 281820Z AUTO 22008G14KT 03/M08 A2985 650 46 -600 230/08G14 RMK AO1 T00281078
54779K12N 12N20160128132510601/28/16 13:25:31  5-MIN K12N 281825Z AUTO VRB06G14KT 03/M08 A2985 650 46 -600 VRB/06G14 RMK AO1 T00281078
54779K12N 12N20160128133010001/28/16 13:30:31  5-MIN K12N 281830Z AUTO 22006KT 03/M07 A2985 650 48 -600 230/06 RMK AO1 T00281072
54779K12N 12N20160128133510001/28/16 13:35:31  5-MIN K12N 281835Z AUTO 21006KT 03/M08 A2985 650 46 -600 220/06 RMK AO1 T00281078
54779K12N 12N20160128134012201/28/16 13:40:31  5-MIN K12N 281840Z AUTO 20008G14KT 160V230 03/M08 A2984 660 46 -600 220/08G14 170V240 RMK AO1 T00281078
54779K12N 12N20160128134510601/28/16 13:45:31  5-MIN K12N 281845Z AUTO 20008G14KT 03/M07 A2983 660 48 -600 220/08G14 RMK AO1 T00281072
54779K12N 12N20160128135010701/28/16 13:50:31  5-MIN K12N 281850Z AUTO 21006KT 03/M08 A2983 670 46 -600 220/06 RMK AO1 SLP113 T00281078
54779K12N 12N20160128135510001/28/16 13:55:31  5-MIN K12N 281855Z AUTO VRB05KT 03/M08 A2982 670 46 -600 VRB/05 RMK AO1 T00281078
54779K12N 12N20160128140010001/28/16 14:00:31  5-MIN K12N 281900Z AUTO 21007KT 03/M07 A2983 670 48 -600 220/07 RMK AO1 T00281072
54779K12N 12N20160128140511601/28/16 14:05:31  5-MIN K12N 281905Z AUTO 22008KT 180V240 03/M07 A2982 680 48 -600 230/08 190V250 RMK AO1 T00281072
54779K12N 12N20160128141010001/28/16 14:10:31  5-MIN K12N 281910Z AUTO VRB06KT 03/M07 A2982 680 48 -500 VRB/06 RMK AO1 T00281072
54779K12N 12N20160128141510001/28/16 14:15:31  5-MIN K12N 281915Z AUTO VRB06KT 03/M07 A2981 690 48 -500 VRB/06 RMK AO1 T00281072
54779K12N 12N20160128142010001/28/16 14:20:31  5-MIN K12N 281920Z AUTO VRB06KT 03/M07 A2981 690 48 -500 VRB/06 RMK AO1 T00281072
54779K12N 12N20160128142510001/28/16 14:25:31  5-MIN K12N 281925Z AUTO 22009KT 03/M08 A2981 690 44 -500 240/09 RMK AO1 T00331078
54779K12N 12N20160128143010001/28/16 14:30:31  5-MIN K12N 281930Z AUTO 22008KT 03/M08 A2981 690 46 -500 230/08 RMK AO1 T00281078
54779K12N 12N20160128143510001/28/16 14:35:31  5-MIN K12N 281935Z AUTO 21006KT 03/M08 A2980 700 46 -500 230/06 RMK AO1 T00281078
54779K12N 12N20160128144010001/28/16 14:40:31  5-MIN K12N 281940Z AUTO 24007KT 03/M08 A2980 700 46 -500 250/07 RMK AO1 T00281078
54779K12N 12N20160128144510001/28/16 14:45:31  5-MIN K12N 281945Z AUTO VRB05KT 03/M08 A2981 690 46 -500 VRB/05 RMK AO1 T00281078
54779K12N 12N20160128145010701/28/16 14:50:31  5-MIN K12N 281950Z AUTO 21004KT 03/M08 A2980 690 46 -500 230/04 RMK AO1 SLP105 T00281078
54779K12N 12N20160128145510001/28/16 14:55:31  5-MIN K12N 281955Z AUTO VRB06KT 03/M07 A2980 690 48 -500 VRB/06 RMK AO1 T00281072
54779K12N 12N20160128150010001/28/16 15:00:31  5-MIN K12N 282000Z AUTO 22006KT 03/M08 A2981 690 46 -500 230/06 RMK AO1 T00281078
54779K12N 12N20160128150510001/28/16 15:05:31  5-MIN K12N 282005Z AUTO 22007KT 03/M08 A2980 690 46 -500 240/07 RMK AO1 T00281078
54779K12N 12N20160128151010001/28/16 15:10:31  5-MIN K12N 282010Z AUTO 21005KT 03/M08 A2980 700 46 -500 220/05 RMK AO1 T00281078
54779K12N 12N20160128151510001/28/16 15:15:31  5-MIN K12N 282015Z AUTO 21007KT 03/M08 A2980 700 46 -500 230/07 RMK AO1 T00281078
54779K12N 12N20160128152010001/28/16 15:20:31  5-MIN K12N 282020Z AUTO 22006KT 03/M08 A2980 700 46 -500 240/06 RMK AO1 T00281078
54779K12N 12N20160128152510001/28/16 15:25:31  5-MIN K12N 282025Z AUTO 21005KT 03/M08 A2979 700 46 -500 220/05 RMK AO1 T00281078
54779K12N 12N20160128153010001/28/16 15:30:31  5-MIN K12N 282030Z AUTO 22009KT 03/M07 A2979 700 48 -500 230/09 RMK AO1 T00281072
54779K12N 12N20160128153511601/28/16 15:35:31  5-MIN K12N 282035Z AUTO 21007KT 180V240 03/M08 A2979 700 46 -500 220/07 190V250 RMK AO1 T00281078
54779K12N 12N20160128154010001/28/16 15:40:31  5-MIN K12N 282040Z AUTO 22004KT 03/M08 A2979 710 46 -500 230/04 RMK AO1 T00281078
54779K12N 12N20160128154510001/28/16 15:45:31  5-MIN K12N 282045Z AUTO 23005KT 03/M08 A2979 710 46 -500 250/05 RMK AO1 T00281078
54779K12N 12N20160128155011301/28/16 15:50:31  5-MIN K12N 282050Z AUTO 21005KT 03/M08 A2978 710 46 -500 230/05 RMK AO1 SLP098 T00281078 58036
54779K12N 12N20160128155510001/28/16 15:55:31  5-MIN K12N 282055Z AUTO 22005KT 03/M08 A2978 720 46 -500 230/05 RMK AO1 T00281078
54779K12N 12N20160128160010001/28/16 16:00:31  5-MIN K12N 282100Z AUTO 22005KT 03/M08 A2977 720 46 -500 240/05 RMK AO1 T00281078
54779K12N 12N20160128160510001/28/16 16:05:31  5-MIN K12N 282105Z AUTO 22005KT 03/M08 A2977 720 46 -500 230/05 RMK AO1 T00281078
54779K12N 12N20160128161010001/28/16 16:10:31  5-MIN K12N 282110Z AUTO 23005KT 03/M08 A2977 720 46 -500 240/05 RMK AO1 T00281078
54779K12N 12N20160128161510001/28/16 16:15:31  5-MIN K12N 282115Z AUTO 21005KT 03/M08 A2977 720 46 -500 220/05 RMK AO1 T00281078
54779K12N 12N20160128162010001/28/16 16:20:31  5-MIN K12N 282120Z AUTO 21005KT 03/M08 A2977 730 46 -500 230/05 RMK AO1 T00281078
54779K12N 12N20160128162510001/28/16 16:25:31  5-MIN K12N 282125Z AUTO 22004KT 03/M08 A2977 720 46 -500 230/04 RMK AO1 T00281078
54779K12N 12N20160128163010001/28/16 16:30:31  5-MIN K12N 282130Z AUTO 22006KT 03/M08 A2977 720 46 -500 230/06 RMK AO1 T00281078
54779K12N 12N20160128163510001/28/16 16:35:31  5-MIN K12N 282135Z AUTO 22005KT 02/M08 A2977 720 47 -600 240/05 RMK AO1 T00221078
54779K12N 12N20160128164010001/28/16 16:40:31  5-MIN K12N 282140Z AUTO 23004KT 02/M08 A2977 730 47 -600 240/04 RMK AO1 T00221078
54779K12N 12N20160128164510001/28/16 16:45:31  5-MIN K12N 282145Z AUTO 21003KT 02/M07 A2976 730 50 -600 220/03 RMK AO1 T00221072
54779K12N 12N20160128165010701/28/16 16:50:31  5-MIN K12N 282150Z AUTO 20004KT 02/M07 A2976 730 52 -600 210/04 RMK AO1 SLP092 T00171072
54779K12N 12N20160128165510001/28/16 16:55:31  5-MIN K12N 282155Z AUTO 00000KT 02/M07 A2976 740 52 -600 000/00 RMK AO1 T00171072
54779K12N 12N20160128170010001/28/16 17:00:31  5-MIN K12N 282200Z AUTO 00000KT 02/M07 A2976 740 52 -600 000/00 RMK AO1 T00171072
54779K12N 12N20160128170510001/28/16 17:05:31  5-MIN K12N 282205Z AUTO 00000KT 01/M07 A2976 740 54 -700 000/00 RMK AO1 T00111072
54779K12N 12N20160128171010001/28/16 17:10:31  5-MIN K12N 282210Z AUTO 00000KT 00/M07 A2976 740 61 -800 000/00 RMK AO1 T00001067
54779K12N 12N20160128171510001/28/16 17:15:31  5-MIN K12N 282215Z AUTO 00000KT 00/M07 A2975 740 61 -800 000/00 RMK AO1 T00001067
54779K12N 12N20160128172010001/28/16 17:20:31  5-MIN K12N 282220Z AUTO 00000KT 01/M07 A2975 740 58 -800 000/00 RMK AO1 T00061067
54779K12N 12N20160128172510001/28/16 17:25:31  5-MIN K12N 282225Z AUTO 00000KT 00/M06 A2975 740 63 -800 000/00 RMK AO1 T00001061
54779K12N 12N20160128173010001/28/16 17:30:31  5-MIN K12N 282230Z AUTO 00000KT 00/M06 A2976 740 63 -800 000/00 RMK AO1 T00001061
54779K12N 12N20160128173510101/28/16 17:35:31  5-MIN K12N 282235Z AUTO 00000KT M01/M07 A2976 730 63 -900 000/00 RMK AO1 T10061067
54779K12N 12N20160128174010101/28/16 17:40:31  5-MIN K12N 282240Z AUTO 00000KT M01/M06 A2976 730 66 -900 000/00 RMK AO1 T10061061
54779K12N 12N20160128174510101/28/16 17:45:31  5-MIN K12N 282245Z AUTO 00000KT M01/M06 A2976 740 69 -900 000/00 RMK AO1 T10061056
54779K12N 12N20160128175010901/28/16 17:50:31  5-MIN K12N 282250Z AUTO 00000KT M02/M06 A2975 740 72 -1000 000/00 RMK AO1 SLP090 T10171061
54779K12N 12N20160128175510201/28/16 17:55:31  5-MIN K12N 282255Z AUTO 00000KT M02/M06 A2975 740 72 -1000 000/00 RMK AO1 T10171061
54779K12N 12N20160128180010201/28/16 18:00:31  5-MIN K12N 282300Z AUTO 00000KT M01/M06 A2975 740 69 -1000 000/00 RMK AO1 T10111061
54779K12N 12N20160128180510201/28/16 18:05:31  5-MIN K12N 282305Z AUTO 00000KT M02/M06 A2976 740 72 -1000 000/00 RMK AO1 T10171061
54779K12N 12N20160128181010201/28/16 18:10:31  5-MIN K12N 282310Z AUTO 00000KT M02/M06 A2976 740 75 -1000 000/00 RMK AO1 T10171056
54779K12N 12N20160128181510201/28/16 18:15:31  5-MIN K12N 282315Z AUTO 00000KT M02/M06 A2976 740 78 -1100 000/00 RMK AO1 T10221056
54779K12N 12N20160128182010201/28/16 18:20:31  5-MIN K12N 282320Z AUTO 00000KT M02/M06 A2976 730 78 -1100 000/00 RMK AO1 T10221056
54779K12N 12N20160128182510201/28/16 18:25:31  5-MIN K12N 282325Z AUTO 00000KT M02/M06 A2976 730 78 -1100 000/00 RMK AO1 T10221056
54779K12N 12N20160128183010201/28/16 18:30:31  5-MIN K12N 282330Z AUTO 22004KT M02/M06 A2976 730 75 -1000 230/04 RMK AO1 T10171056
54779K12N 12N20160128183510201/28/16 18:35:31  5-MIN K12N 282335Z AUTO 00000KT M02/M06 A2976 730 78 -1100 000/00 RMK AO1 T10221056
54779K12N 12N20160128184010201/28/16 18:40:31  5-MIN K12N 282340Z AUTO 00000KT M02/M06 A2976 740 78 -1100 000/00 RMK AO1 T10221056
54779K12N 12N20160128184510201/28/16 18:45:31  5-MIN K12N 282345Z AUTO 00000KT M03/M06 A2976 740 78 -1200 000/00 RMK AO1 T10281061
54779K12N 12N20160128185012701/28/16 18:50:31  5-MIN K12N 282350Z AUTO 00000KT M02/M06 A2975 740 78 -1100 000/00 RMK AO1 SLP091 T10221056 10033 21028 56028
54779K12N 12N20160128185510201/28/16 18:55:31  5-MIN K12N 282355Z AUTO 00000KT M03/M06 A2975 740 81 -1200 000/00 RMK AO1 T10281056
54779K12N 12N20160128190010201/28/16 19:00:31  5-MIN K12N 290000Z AUTO 00000KT M03/M06 A2975 740 81 -1200 000/00 RMK AO1 T10331061
54779K12N 12N20160128190510201/28/16 19:05:31  5-MIN K12N 290005Z AUTO 00000KT M03/M06 A2975 740 81 -1200 000/00 RMK AO1 T10331061
54779K12N 12N20160128191010201/28/16 19:10:31  5-MIN K12N 290010Z AUTO 00000KT M03/M06 A2975 740 81 -1200 000/00 RMK AO1 T10331061
54779K12N 12N20160128191510201/28/16 19:15:31  5-MIN K12N 290015Z AUTO 00000KT M03/M06 A2975 750 81 -1200 000/00 RMK AO1 T10281056
54779K12N 12N20160128192010201/28/16 19:20:31  5-MIN K12N 290020Z AUTO 00000KT M03/M06 A2974 750 81 -1200 000/00 RMK AO1 T10281056
54779K12N 12N20160128192510201/28/16 19:25:31  5-MIN K12N 290025Z AUTO 00000KT M04/M06 A2974 750 88 -1300 000/00 RMK AO1 T10391056
54779K12N 12N20160128193010201/28/16 19:30:31  5-MIN K12N 290030Z AUTO 00000KT M04/M06 A2974 750 85 -1300 000/00 RMK AO1 T10391061
54779K12N 12N20160128193510201/28/16 19:35:31  5-MIN K12N 290035Z AUTO 00000KT M04/M06 A2974 750 85 -1300 000/00 RMK AO1 T10391061
54779K12N 12N20160128194010201/28/16 19:40:31  5-MIN K12N 290040Z AUTO 00000KT M03/M06 A2974 750 81 -1200 000/00 RMK AO1 T10331061
54779K12N 12N20160128194510201/28/16 19:45:31  5-MIN K12N 290045Z AUTO 00000KT M03/M06 A2973 760 81 -1200 000/00 RMK AO1 T10331061
54779K12N 12N20160128195010901/28/16 19:50:31  5-MIN K12N 290050Z AUTO 00000KT M03/M06 A2972 770 85 -1200 000/00 RMK AO1 SLP082 T10331056
54779K12N 12N20160128195510201/28/16 19:55:31  5-MIN K12N 290055Z AUTO 00000KT M03/M06 A2972 770 85 -1200 000/00 RMK AO1 T10331056
54779K12N 12N20160128200010201/28/16 20:00:31  5-MIN K12N 290100Z AUTO 00000KT M03/M06 A2972 770 85 -1200 000/00 RMK AO1 T10331056
54779K12N 12N20160128200510201/28/16 20:05:31  5-MIN K12N 290105Z AUTO 21003KT M03/M05 A2971 780 85 -1100 230/03 RMK AO1 T10281050
54779K12N 12N20160128201010201/28/16 20:10:31  5-MIN K12N 290110Z AUTO 21003KT M03/M05 A2972 770 85 -1100 220/03 RMK AO1 T10281050
54779K12N 12N20160128201510201/28/16 20:15:31  5-MIN K12N 290115Z AUTO 21003KT M03/M05 A2972 770 85 -1100 220/03 RMK AO1 T10281050
54779K12N 12N20160128202010201/28/16 20:20:31  5-MIN K12N 290120Z AUTO 21003KT M03/M05 A2971 780 85 -1100 230/03 RMK AO1 T10281050
54779K12N 12N20160128202510201/28/16 20:25:31  5-MIN K12N 290125Z AUTO 22004KT M03/M05 A2971 780 85 -1100 230/04 RMK AO1 T10281050
54779K12N 12N20160128203010201/28/16 20:30:31  5-MIN K12N 290130Z AUTO 22004KT M02/M06 A2971 780 78 -1100 230/04 RMK AO1 T10221056
54779K12N 12N20160128203510201/28/16 20:35:31  5-MIN K12N 290135Z AUTO 22003KT M02/M06 A2971 780 78 -1100 230/03 RMK AO1 T10221056
54779K12N 12N20160128204010201/28/16 20:40:31  5-MIN K12N 290140Z AUTO 22004KT M02/M06 A2971 780 78 -1100 230/04 RMK AO1 T10221056
54779K12N 12N20160128204510201/28/16 20:45:31  5-MIN K12N 290145Z AUTO 21003KT M02/M06 A2970 790 78 -1000 230/03 RMK AO1 T10221056
54779K12N 12N20160128205010901/28/16 20:50:31  5-MIN K12N 290150Z AUTO 21003KT M02/M06 A2970 790 78 -1000 230/03 RMK AO1 SLP073 T10221056
54779K12N 12N20160128205510201/28/16 20:55:31  5-MIN K12N 290155Z AUTO 21003KT M02/M06 A2970 790 75 -1000 230/03 RMK AO1 T10171056
54779K12N 12N20160128210010101/28/16 21:00:31  5-MIN K12N 290200Z AUTO 21003KT M01/M06 A2970 790 72 -900 230/03 RMK AO1 T10111056
54779K12N 12N20160128210510201/28/16 21:05:31  5-MIN K12N 290205Z AUTO 21003KT M02/M06 A2970 790 75 -1000 220/03 RMK AO1 T10171056
54779K12N 12N20160128211010201/28/16 21:10:31  5-MIN K12N 290210Z AUTO 21004KT M02/M06 A2971 780 75 -1000 220/04 RMK AO1 T10171056
54779K12N 12N20160128211510201/28/16 21:15:31  5-MIN K12N 290215Z AUTO 20003KT M02/M05 A2971 780 78 -1000 220/03 RMK AO1 T10171050
54779K12N 12N20160128212010201/28/16 21:20:31  5-MIN K12N 290220Z AUTO 21003KT M02/M05 A2970 790 78 -1000 230/03 RMK AO1 T10171050
54779K12N 12N20160128212510201/28/16 21:25:31  5-MIN K12N 290225Z AUTO 22003KT M02/M05 A2970 790 78 -1000 230/03 RMK AO1 T10171050
54779K12N 12N20160128213010201/28/16 21:30:31  5-MIN K12N 290230Z AUTO 22003KT M02/M05 A2969 800 78 -1000 230/03 RMK AO1 T10171050
54779K12N 12N20160128213510201/28/16 21:35:31  5-MIN K12N 290235Z AUTO 20003KT M02/M05 A2969 800 78 -1000 220/03 RMK AO1 T10171050
54779K12N 12N20160128214010201/28/16 21:40:31  5-MIN K12N 290240Z AUTO 20003KT M02/M05 A2969 800 78 -1000 210/03 RMK AO1 T10171050
54779K12N 12N20160128214510101/28/16 21:45:31  5-MIN K12N 290245Z AUTO 00000KT M01/M06 A2968 810 72 -900 000/00 RMK AO1 T10111056
54779K12N 12N20160128215011401/28/16 21:50:31  5-MIN K12N 290250Z AUTO 21003KT M02/M06 A2968 810 75 -900 220/03 RMK AO1 SLP061 T10171056 55008
54779K12N 12N20160128215510101/28/16 21:55:31  5-MIN K12N 290255Z AUTO 00000KT M01/M06 A2967 820 72 -900 000/00 RMK AO1 T10111056
54779K12N 12N20160128220010101/28/16 22:00:31  5-MIN K12N 290300Z AUTO 00000KT M01/M06 A2967 820 72 -900 000/00 RMK AO1 T10111056
54779K12N 12N20160128220510101/28/16 22:05:31  5-MIN K12N 290305Z AUTO 00000KT M02/M05 A2968 810 78 -900 000/00 RMK AO1 T10171050
54779K12N 12N20160128221010101/28/16 22:10:31  5-MIN K12N 290310Z AUTO 00000KT M01/M06 A2968 810 69 -800 000/00 RMK AO1 T10061056
54779K12N 12N20160128221510101/28/16 22:15:31  5-MIN K12N 290315Z AUTO 21003KT M02/M05 A2968 810 78 -900 220/03 RMK AO1 T10171050
54779K12N 12N20160128222010101/28/16 22:20:31  5-MIN K12N 290320Z AUTO 20003KT M01/M05 A2968 810 75 -900 220/03 RMK AO1 T10111050
54779K12N 12N20160128222510101/28/16 22:25:31  5-MIN K12N 290325Z AUTO 22003KT M01/M05 A2968 810 75 -900 230/03 RMK AO1 T10111050
54779K12N 12N20160128223010101/28/16 22:30:31  5-MIN K12N 290330Z AUTO 21003KT M01/M06 A2967 810 72 -900 220/03 RMK AO1 T10111056
54779K12N 12N20160128223510101/28/16 22:35:31  5-MIN K12N 290335Z AUTO 20003KT M01/M05 A2968 810 75 -900 220/03 RMK AO1 T10111050
54779K12N 12N20160128224010101/28/16 22:40:31  5-MIN K12N 290340Z AUTO 20003KT M01/M06 A2968 810 69 -800 210/03 RMK AO1 T10061056
54779K12N 12N20160128224510101/28/16 22:45:31  5-MIN K12N 290345Z AUTO 00000KT M01/M06 A2967 820 69 -800 000/00 RMK AO1 T10061056
54779K12N 12N20160128225010801/28/16 22:50:31  5-MIN K12N 290350Z AUTO 21003KT M01/M05 A2967 820 75 -900 220/03 RMK AO1 SLP057 T10111050
54779K12N 12N20160128225510101/28/16 22:55:31  5-MIN K12N 290355Z AUTO 22003KT M01/M06 A2966 820 72 -900 230/03 RMK AO1 T10111056
54779K12N 12N20160128230010101/28/16 23:00:31  5-MIN K12N 290400Z AUTO 00000KT M01/M06 A2966 830 69 -800 000/00 RMK AO1 T10061056
54779K12N 12N20160128230510101/28/16 23:05:31  5-MIN K12N 290405Z AUTO 00000KT M01/M05 A2965 830 75 -800 000/00 RMK AO1 T10111050
54779K12N 12N20160128231010101/28/16 23:10:31  5-MIN K12N 290410Z AUTO 00000KT M01/M06 A2965 830 69 -800 000/00 RMK AO1 T10061056
54779K12N 12N20160128231510101/28/16 23:15:31  5-MIN K12N 290415Z AUTO 00000KT M02/M05 A2966 830 78 -900 000/00 RMK AO1 T10171050
54779K12N 12N20160128232010101/28/16 23:20:31  5-MIN K12N 290420Z AUTO 00000KT M01/M05 A2966 830 75 -800 000/00 RMK AO1 T10111050
54779K12N 12N20160128232510101/28/16 23:25:31  5-MIN K12N 290425Z AUTO 00000KT M01/M06 A2966 830 69 -800 000/00 RMK AO1 T10061056
54779K12N 12N20160128233010101/28/16 23:30:31  5-MIN K12N 290430Z AUTO 00000KT M01/M06 A2965 830 69 -800 000/00 RMK AO1 T10061056
54779K12N 12N20160128233510101/28/16 23:35:31  5-MIN K12N 290435Z AUTO 00000KT M01/M06 A2965 830 72 -800 000/00 RMK AO1 T10111056
54779K12N 12N20160128234010101/28/16 23:40:31  5-MIN K12N 290440Z AUTO 00000KT M02/M05 A2966 830 78 -900 000/00 RMK AO1 T10171050
54779K12N 12N20160128234510101/28/16 23:45:31  5-MIN K12N 290445Z AUTO 00000KT M02/M05 A2966 830 78 -900 000/00 RMK AO1 T10171050
54779K12N 12N20160128235011801/28/16 23:50:31  5-MIN K12N 290450Z AUTO 00000KT M01/M05 A2967 820 75 -900 000/00 RMK AO1 SLP056 T10111050 400331117
54779K12N 12N20160128235510101/28/16 23:55:31  5-MIN K12N 290455Z AUTO 00000KT M01/M05 A2966 820 75 -900 000/00 RMK AO1 T10111050
54779K12N 12N20160129000010101/29/16 00:00:31  5-MIN K12N 290500Z AUTO 00000KT M01/M06 A2966 830 69 -800 000/00 RMK AO1 T10061056
54779K12N 12N20160129000510101/29/16 00:05:31  5-MIN K12N 290505Z AUTO 00000KT M02/M05 A2966 830 78 -900 000/00 RMK AO1 T10171050
54779K12N 12N20160129001010101/29/16 00:10:31  5-MIN K12N 290510Z AUTO 00000KT M01/M06 A2965 840 72 -800 000/00 RMK AO1 T10111056
54779K12N 12N20160129001510801/29/16 00:15:31  5-MIN K12N 290515Z AUTO 00000KT M01/M06 A2964 850 69 -800 000/00 RMK AO1 PRESFR T10061056
54779K12N 12N20160129002010101/29/16 00:20:31  5-MIN K12N 290520Z AUTO 00000KT M01/M05 A2963 850 75 -800 000/00 RMK AO1 T10111050
54779K12N 12N20160129002510801/29/16 00:25:31  5-MIN K12N 290525Z AUTO 00000KT M02/M05 A2963 860 78 -900 000/00 RMK AO1 PRESFR T10171050
54779K12N 12N20160129003010801/29/16 00:30:31  5-MIN K12N 290530Z AUTO 00000KT M02/M05 A2962 870 78 -900 000/00 RMK AO1 PRESFR T10171050
54779K12N 12N20160129003510101/29/16 00:35:31  5-MIN K12N 290535Z AUTO 00000KT M02/M05 A2961 870 78 -900 000/00 RMK AO1 T10171050
54779K12N 12N20160129004010101/29/16 00:40:31  5-MIN K12N 290540Z AUTO 00000KT M02/M05 A2961 870 78 -900 000/00 RMK AO1 T10171050
54779K12N 12N20160129004510101/29/16 00:45:31  5-MIN K12N 290545Z AUTO 00000KT M02/M05 A2961 870 78 -900 000/00 RMK AO1 T10171050
54779K12N 12N20160129005012601/29/16 00:50:31  5-MIN K12N 290550Z AUTO 00000KT M02/M05 A2961 880 78 -900 000/00 RMK AO1 SLP035 T10171050 11006 21039 56027
54779K12N 12N20160129005510101/29/16 00:55:31  5-MIN K12N 290555Z AUTO 00000KT M02/M05 A2960 880 78 -900 000/00 RMK AO1 T10171050
54779K12N 12N20160129010010101/29/16 01:00:31  5-MIN K12N 290600Z AUTO 00000KT M02/M05 A2960 890 78 -800 000/00 RMK AO1 T10171050
54779K12N 12N20160129010510101/29/16 01:05:31  5-MIN K12N 290605Z AUTO 00000KT M01/M05 A2959 890 75 -800 000/00 RMK AO1 T10111050
54779K12N 12N20160129011010101/29/16 01:10:31  5-MIN K12N 290610Z AUTO 00000KT M02/M06 A2959 890 75 -800 000/00 RMK AO1 T10171056
54779K12N 12N20160129011510101/29/16 01:15:31  5-MIN K12N 290615Z AUTO 00000KT M02/M05 A2959 900 78 -800 000/00 RMK AO1 T10171050
54779K12N 12N20160129012010101/29/16 01:20:31  5-MIN K12N 290620Z AUTO 00000KT M02/M05 A2959 890 81 -900 000/00 RMK AO1 T10221050
54779K12N 12N20160129012510101/29/16 01:25:31  5-MIN K12N 290625Z AUTO 00000KT M02/M05 A2959 890 81 -900 000/00 RMK AO1 T10221050
54779K12N 12N20160129013010101/29/16 01:30:31  5-MIN K12N 290630Z AUTO 00000KT M02/M04 A2959 890 85 -900 000/00 RMK AO1 T10221044
54779K12N 12N20160129013510101/29/16 01:35:31  5-MIN K12N 290635Z AUTO 00000KT M02/M04 A2958 900 81 -800 000/00 RMK AO1 T10171044
54779K12N 12N20160129014010101/29/16 01:40:31  5-MIN K12N 290640Z AUTO 00000KT M02/M04 A2958 900 85 -900 000/00 RMK AO1 T10221044
54779K12N 12N20160129014510101/29/16 01:45:31  5-MIN K12N 290645Z AUTO 00000KT M02/M04 A2957 910 85 -900 000/00 RMK AO1 T10221044
54779K12N 12N20160129015010801/29/16 01:50:31  5-MIN K12N 290650Z AUTO 00000KT M02/M04 A2957 910 81 -800 000/00 RMK AO1 SLP024 T10171044
54779K12N 12N20160129015510101/29/16 01:55:31  5-MIN K12N 290655Z AUTO 00000KT M02/M04 A2958 910 85 -900 000/00 RMK AO1 T10221044
54779K12N 12N20160129020010101/29/16 02:00:31  5-MIN K12N 290700Z AUTO 00000KT M02/M04 A2957 910 85 -900 000/00 RMK AO1 T10221044
54779K12N 12N20160129020510101/29/16 02:05:31  5-MIN K12N 290705Z AUTO 00000KT M02/M04 A2957 910 85 -900 000/00 RMK AO1 T10221044
54779K12N 12N20160129021010101/29/16 02:10:31  5-MIN K12N 290710Z AUTO 00000KT M02/M05 A2956 920 81 -900 000/00 RMK AO1 T10221050
54779K12N 12N20160129021510801/29/16 02:15:31  5-MIN K12N 290715Z AUTO 00000KT M03/M05 A2955 930 85 -900 000/00 RMK AO1 PRESFR T10281050
54779K12N 12N20160129022010101/29/16 02:20:31  5-MIN K12N 290720Z AUTO 00000KT M02/M05 A2955 930 81 -900 000/00 RMK AO1 T10221050
54779K12N 12N20160129022510101/29/16 02:25:31  5-MIN K12N 290725Z AUTO 00000KT M02/M06 A2955 930 78 -900 000/00 RMK AO1 T10221056
54779K12N 12N20160129023010101/29/16 02:30:31  5-MIN K12N 290730Z AUTO 00000KT M02/M05 A2955 930 81 -900 000/00 RMK AO1 T10221050
54779K12N 12N20160129023510101/29/16 02:35:31  5-MIN K12N 290735Z AUTO 23003KT M03/M06 A2955 930 81 -900 240/03 RMK AO1 T10281056
54779K12N 12N20160129024010101/29/16 02:40:31  5-MIN K12N 290740Z AUTO 00000KT M03/M06 A2954 940 81 -900 000/00 RMK AO1 T10281056
54779K12N 12N20160129024510101/29/16 02:45:31  5-MIN K12N 290745Z AUTO 00000KT M03/M05 A2954 940 85 -900 000/00 RMK AO1 T10281050
54779K12N 12N20160129025010801/29/16 02:50:31  5-MIN K12N 290750Z AUTO 00000KT M03/M06 A2954 940 81 -900 000/00 RMK AO1 SLP013 T10281056
54779K12N 12N20160129025510101/29/16 02:55:31  5-MIN K12N 290755Z AUTO 00000KT M03/M06 A2954 940 81 -900 000/00 RMK AO1 T10281056
54779K12N 12N20160129030010101/29/16 03:00:31  5-MIN K12N 290800Z AUTO 00000KT M03/M06 A2955 930 81 -900 000/00 RMK AO1 T10281056
54779K12N 12N20160129030510101/29/16 03:05:31  5-MIN K12N 290805Z AUTO 00000KT M03/M06 A2955 930 81 -900 000/00 RMK AO1 T10281056
54779K12N 12N20160129031010201/29/16 03:10:31  5-MIN K12N 290810Z AUTO 00000KT M03/M06 A2954 940 85 -1000 000/00 RMK AO1 T10331056
54779K12N 12N20160129031510201/29/16 03:15:31  5-MIN K12N 290815Z AUTO 00000KT M03/M05 A2954 940 88 -1000 000/00 RMK AO1 T10331050
54779K12N 12N20160129032010201/29/16 03:20:31  5-MIN K12N 290820Z AUTO 00000KT M03/M06 A2954 940 85 -1000 000/00 RMK AO1 T10331056
54779K12N 12N20160129032510201/29/16 03:25:31  5-MIN K12N 290825Z AUTO 00000KT M03/M06 A2953 940 85 -1000 000/00 RMK AO1 T10331056
54779K12N 12N20160129033010201/29/16 03:30:31  5-MIN K12N 290830Z AUTO 00000KT M03/M05 A2953 950 88 -1000 000/00 RMK AO1 T10331050
54779K12N 12N20160129033510201/29/16 03:35:31  5-MIN K12N 290835Z AUTO 00000KT M03/M05 A2952 950 88 -1000 000/00 RMK AO1 T10331050
54779K12N 12N20160129034010201/29/16 03:40:31  5-MIN K12N 290840Z AUTO 00000KT M04/M06 A2952 950 88 -1000 000/00 RMK AO1 T10391056
54779K12N 12N20160129034510201/29/16 03:45:31  5-MIN K12N 290845Z AUTO 00000KT M04/M06 A2952 950 88 -1000 000/00 RMK AO1 T10391056
54779K12N 12N20160129035011501/29/16 03:50:31  5-MIN K12N 290850Z AUTO 00000KT M04/M06 A2952 960 88 -1000 000/00 RMK AO1 SLP006 T10391056 58024
54779K12N 12N20160129035510201/29/16 03:55:31  5-MIN K12N 290855Z AUTO 00000KT M04/M06 A2952 960 88 -1000 000/00 RMK AO1 T10391056
54779K12N 12N20160129040010201/29/16 04:00:31  5-MIN K12N 290900Z AUTO 00000KT M04/M06 A2952 960 88 -1000 000/00 RMK AO1 T10391056
54779K12N 12N20160129040510201/29/16 04:05:31  5-MIN K12N 290905Z AUTO 00000KT M04/M06 A2951 960 88 -1000 000/00 RMK AO1 T10391056
54779K12N 12N20160129041010201/29/16 04:10:31  5-MIN K12N 290910Z AUTO 00000KT M04/M06 A2951 970 88 -1000 000/00 RMK AO1 T10391056
54779K12N 12N20160129041510201/29/16 04:15:31  5-MIN K12N 290915Z AUTO 00000KT M04/M06 A2951 970 88 -1000 000/00 RMK AO1 T10391056
54779K12N 12N20160129042010201/29/16 04:20:31  5-MIN K12N 290920Z AUTO 00000KT M04/M06 A2951 970 88 -1000 000/00 RMK AO1 T10391056
54779K12N 12N20160129042510201/29/16 04:25:31  5-MIN K12N 290925Z AUTO 00000KT M04/M06 A2951 970 85 -1000 000/00 RMK AO1 T10391061
54779K12N 12N20160129043010201/29/16 04:30:31  5-MIN K12N 290930Z AUTO 00000KT M04/M06 A2950 970 88 -1100 000/00 RMK AO1 T10441061
54779K12N 12N20160129043510201/29/16 04:35:31  5-MIN K12N 290935Z AUTO 00000KT M04/M06 A2950 980 88 -1100 000/00 RMK AO1 T10441061
54779K12N 12N20160129044010201/29/16 04:40:31  5-MIN K12N 290940Z AUTO 00000KT M04/M06 A2949 980 88 -1100 000/00 RMK AO1 T10441061
54779K12N 12N20160129044510201/29/16 04:45:31  5-MIN K12N 290945Z AUTO 00000KT M04/M06 A2949 980 88 -1100 000/00 RMK AO1 T10441061
54779K12N 12N20160129045010901/29/16 04:50:31  5-MIN K12N 290950Z AUTO 00000KT M04/M06 A2949 980 88 -1100 000/00 RMK AO1 SLP997 T10441061
54779K12N 12N20160129045510201/29/16 04:55:31  5-MIN K12N 290955Z AUTO 00000KT M04/M06 A2949 990 88 -1100 000/00 RMK AO1 T10441061
54779K12N 12N20160129050010201/29/16 05:00:31  5-MIN K12N 291000Z AUTO 00000KT M04/M06 A2948 990 85 -1000 000/00 RMK AO1 T10391061
54779K12N 12N20160129050510301/29/16 05:05:31  5-MIN K12N 291005Z AUTO 00000KT M04/M06 A2948 1000 88 -1100 000/00 RMK AO1 T10441061
54779K12N 12N20160129051010301/29/16 05:10:31  5-MIN K12N 291010Z AUTO 00000KT M05/M06 A2947 1000 92 -1100 000/00 RMK AO1 T10501061
54779K12N 12N20160129051510301/29/16 05:15:31  5-MIN K12N 291015Z AUTO 00000KT M05/M07 A2947 1000 88 -1100 000/00 RMK AO1 T10501067
54779K12N 12N20160129052010301/29/16 05:20:31  5-MIN K12N 291020Z AUTO 00000KT M05/M07 A2947 1000 88 -1100 000/00 RMK AO1 T10501067
54779K12N 12N20160129052510301/29/16 05:25:31  5-MIN K12N 291025Z AUTO 00000KT M04/M06 A2948 1000 88 -1100 000/00 RMK AO1 T10441061
54779K12N 12N20160129053010201/29/16 05:30:31  5-MIN K12N 291030Z AUTO 00000KT M05/M07 A2948 990 88 -1100 000/00 RMK AO1 T10501067
54779K12N 12N20160129053510201/29/16 05:35:31  5-MIN K12N 291035Z AUTO 00000KT M05/M06 A2948 990 92 -1100 000/00 RMK AO1 T10501061
54779K12N 12N20160129054010201/29/16 05:40:31  5-MIN K12N 291040Z AUTO 00000KT M05/M06 A2948 990 92 -1100 000/00 RMK AO1 T10501061
54779K12N 12N20160129054510201/29/16 05:45:31  5-MIN K12N 291045Z AUTO 00000KT M05/M06 A2949 990 92 -1100 000/00 RMK AO1 T10501061
54779K12N 12N20160129055010901/29/16 05:50:31  5-MIN K12N 291050Z AUTO 00000KT M05/M06 A2949 990 92 -1100 000/00 RMK AO1 SLP998 T10501061
54779K12N 12N20160129055510201/29/16 05:55:31  5-MIN K12N 291055Z AUTO 00000KT M05/M06 A2949 980 92 -1200 000/00 RMK AO1 T10501061
54779K12N 12N20160129060010201/29/16 06:00:31  5-MIN K12N 291100Z AUTO 00000KT M05/M06 A2949 980 92 -1200 000/00 RMK AO1 T10501061
54779K12N 12N20160129060510201/29/16 06:05:31  5-MIN K12N 291105Z AUTO 00000KT M06/M07 A2949 980 92 -1200 000/00 RMK AO1 T10561067
54779K12N 12N20160129061010201/29/16 06:10:31  5-MIN K12N 291110Z AUTO 00000KT M06/M07 A2950 980 92 -1200 000/00 RMK AO1 T10561067
54779K12N 12N20160129061510201/29/16 06:15:31  5-MIN K12N 291115Z AUTO 00000KT M05/M07 A2950 980 88 -1200 000/00 RMK AO1 T10501067
54779K12N 12N20160129062010201/29/16 06:20:31  5-MIN K12N 291120Z AUTO 00000KT M05/M07 A2950 980 88 -1200 000/00 RMK AO1 T10501067
54779K12N 12N20160129062510201/29/16 06:25:31  5-MIN K12N 291125Z AUTO 00000KT M05/M07 A2950 980 88 -1200 000/00 RMK AO1 T10501067
54779K12N 12N20160129063010201/29/16 06:30:31  5-MIN K12N 291130Z AUTO 00000KT M05/M07 A2950 980 88 -1200 000/00 RMK AO1 T10501067
54779K12N 12N20160129063510201/29/16 06:35:31  5-MIN K12N 291135Z AUTO 00000KT M06/M07 A2949 980 92 -1200 000/00 RMK AO1 T10561067
54779K12N 12N20160129064010201/29/16 06:40:31  5-MIN K12N 291140Z AUTO 00000KT M06/M07 A2949 990 88 -1200 000/00 RMK AO1 T10561072
54779K12N 12N20160129064510201/29/16 06:45:31  5-MIN K12N 291145Z AUTO 00000KT M06/M08 A2948 990 88 -1300 000/00 RMK AO1 T10611078
54779K12N 12N20160129065012701/29/16 06:50:31  5-MIN K12N 291150Z AUTO 00000KT M07/M08 A2948 990 92 -1400 000/00 RMK AO1 SLP997 T10671078 11011 21067 58028
54779K12N 12N20160129065510201/29/16 06:55:31  5-MIN K12N 291155Z AUTO 00000KT M06/M08 A2948 990 84 -1300 000/00 RMK AO1 T10611083
54779K12N 12N20160129070010201/29/16 07:00:31  5-MIN K12N 291200Z AUTO 00000KT M06/M08 A2949 990 88 -1300 000/00 RMK AO1 T10611078
54779K12N 12N20160129070510201/29/16 07:05:31  5-MIN K12N 291205Z AUTO 00000KT M06/M08 A2949 990 88 -1300 000/00 RMK AO1 T10611078
54779K12N 12N20160129071010201/29/16 07:10:31  5-MIN K12N 291210Z AUTO 00000KT M07/M08 A2948 990 92 -1400 000/00 RMK AO1 T10671078
54779K12N 12N20160129071510301/29/16 07:15:31  5-MIN K12N 291215Z AUTO 00000KT M06/M08 A2948 1000 88 -1300 000/00 RMK AO1 T10611078
54779K12N 12N20160129072010301/29/16 07:20:31  5-MIN K12N 291220Z AUTO 00000KT M06/M07 A2948 1000 88 -1200 000/00 RMK AO1 T10561072
54779K12N 12N20160129072510301/29/16 07:25:31  5-MIN K12N 291225Z AUTO 00000KT M06/M07 A2947 1000 92 -1300 000/00 RMK AO1 T10611072
54779K12N 12N20160129073010301/29/16 07:30:31  5-MIN K12N 291230Z AUTO 00000KT M06/M07 A2947 1000 92 -1300 000/00 RMK AO1 T10611072
54779K12N 12N20160129073510301/29/16 07:35:31  5-MIN K12N 291235Z AUTO 00000KT M06/M07 A2947 1000 92 -1300 000/00 RMK AO1 T10611072
54779K12N 12N20160129074010301/29/16 07:40:31  5-MIN K12N 291240Z AUTO 00000KT M06/M07 A2947 1000 92 -1300 000/00 RMK AO1 T10611072
54779K12N 12N20160129074510301/29/16 07:45:31  5-MIN K12N 291245Z AUTO 00000KT M06/M07 A2947 1000 92 -1200 000/00 RMK AO1 T10561067
54779K12N 12N20160129075011001/29/16 07:50:31  5-MIN K12N 291250Z AUTO 00000KT M06/M07 A2947 1000 92 -1200 000/00 RMK AO1 SLP993 T10561067
54779K12N 12N20160129075510301/29/16 07:55:31  5-MIN K12N 291255Z AUTO 00000KT M06/M06 A2947 1000 96 -1200 000/00 RMK AO1 T10561061
54779K12N 12N20160129080010301/29/16 08:00:31  5-MIN K12N 291300Z AUTO 00000KT M06/M06 A2947 1000 96 -1200 000/00 RMK AO1 T10561061
54779K12N 12N20160129080510301/29/16 08:05:31  5-MIN K12N 291305Z AUTO 00000KT M04/M06 A2947 1000 88 -1100 000/00 RMK AO1 T10441061
54779K12N 12N20160129081010301/29/16 08:10:31  5-MIN K12N 291310Z AUTO 00000KT M05/M06 A2948 1000 96 -1100 000/00 RMK AO1 T10501056
54779K12N 12N20160129081510301/29/16 08:15:31  5-MIN K12N 291315Z AUTO 00000KT M04/M06 A2948 1000 92 -1100 000/00 RMK AO1 T10441056
54779K12N 12N20160129082010301/29/16 08:20:31  5-MIN K12N 291320Z AUTO 00000KT M04/M06 A2948 1000 92 -1100 000/00 RMK AO1 T10441056
54779K12N 12N20160129082510301/29/16 08:25:31  5-MIN K12N 291325Z AUTO 00000KT M04/M06 A2948 1000 88 -1100 000/00 RMK AO1 T10441061
54779K12N 12N20160129083010301/29/16 08:30:31  5-MIN K12N 291330Z AUTO 00000KT M04/M06 A2948 1000 92 -1100 000/00 RMK AO1 T10441056
54779K12N 12N20160129083510301/29/16 08:35:31  5-MIN K12N 291335Z AUTO 00000KT M04/M06 A2948 1000 88 -1000 000/00 RMK AO1 T10391056
54779K12N 12N20160129084010301/29/16 08:40:31  5-MIN K12N 291340Z AUTO 00000KT M04/M05 A2948 1000 92 -1000 000/00 RMK AO1 T10391050
54779K12N 12N20160129084510301/29/16 08:45:31  5-MIN K12N 291345Z AUTO 00000KT M04/M06 A2948 1000 88 -1000 000/00 RMK AO1 T10391056
54779K12N 12N20160129085010801/29/16 08:50:31  5-MIN K12N 291350Z AUTO 00000KT M03/M05 A2948 990 88 -900 000/00 RMK AO1 SLP995 T10331050
54779K12N 12N20160129085510101/29/16 08:55:31  5-MIN K12N 291355Z AUTO 00000KT M03/M05 A2948 990 88 -900 000/00 RMK AO1 T10331050
54779K12N 12N20160129090010201/29/16 09:00:31  5-MIN K12N 291400Z AUTO 00000KT M03/M05 A2948 1000 88 -900 000/00 RMK AO1 T10331050
54779K12N 12N20160129090510201/29/16 09:05:31  5-MIN K12N 291405Z AUTO 00000KT M03/M05 A2948 1000 85 -900 000/00 RMK AO1 T10281050
54779K12N 12N20160129091010101/29/16 09:10:31  5-MIN K12N 291410Z AUTO 00000KT M03/M05 A2948 990 85 -900 000/00 RMK AO1 T10281050
54779K12N 12N20160129091510201/29/16 09:15:31  5-MIN K12N 291415Z AUTO 00000KT M03/M05 A2948 1000 85 -900 000/00 RMK AO1 T10281050
54779K12N 12N20160129092010101/29/16 09:20:31  5-MIN K12N 291420Z AUTO 00000KT M02/M05 A2948 990 81 -800 000/00 RMK AO1 T10221050
54779K12N 12N20160129092510101/29/16 09:25:31  5-MIN K12N 291425Z AUTO 00000KT M02/M05 A2948 990 81 -800 000/00 RMK AO1 T10221050
54779K12N 12N20160129093010101/29/16 09:30:31  5-MIN K12N 291430Z AUTO 00000KT M02/M05 A2948 990 78 -700 000/00 RMK AO1 T10171050
54779K12N 12N20160129093510101/29/16 09:35:31  5-MIN K12N 291435Z AUTO 00000KT M02/M05 A2948 990 78 -700 000/00 RMK AO1 T10171050
54779K12N 12N20160129094010101/29/16 09:40:31  5-MIN K12N 291440Z AUTO 00000KT M01/M05 A2948 990 75 -600 000/00 RMK AO1 T10111050
54779K12N 12N20160129094510101/29/16 09:45:31  5-MIN K12N 291445Z AUTO 00000KT M01/M05 A2949 990 75 -700 000/00 RMK AO1 T10111050
54779K12N 12N20160129095011401/29/16 09:50:31  5-MIN K12N 291450Z AUTO 00000KT M01/M05 A2949 990 75 -600 000/00 RMK AO1 SLP995 T10111050 56011
54779K12N 12N20160129095510101/29/16 09:55:31  5-MIN K12N 291455Z AUTO 00000KT M01/M05 A2949 990 72 -600 000/00 RMK AO1 T10061050
54779K12N 12N20160129100010101/29/16 10:00:31  5-MIN K12N 291500Z AUTO 00000KT M01/M05 A2949 990 75 -700 000/00 RMK AO1 T10111050
54779K12N 12N20160129100510101/29/16 10:05:31  5-MIN K12N 291505Z AUTO 00000KT M01/M06 A2949 990 69 -600 000/00 RMK AO1 T10061056
54779K12N 12N20160129101010101/29/16 10:10:31  5-MIN K12N 291510Z AUTO 00000KT M01/M06 A2949 990 69 -600 000/00 RMK AO1 T10061056
54779K12N 12N20160129101510101/29/16 10:15:31  5-MIN K12N 291515Z AUTO 00000KT M01/M05 A2949 980 72 -600 000/00 RMK AO1 T10061050
54779K12N 12N20160129102010001/29/16 10:20:31  5-MIN K12N 291520Z AUTO 00000KT 00/M05 A2949 980 69 -500 000/00 RMK AO1 T00001050
54779K12N 12N20160129102510001/29/16 10:25:31  5-MIN K12N 291525Z AUTO 00000KT 00/M05 A2949 990 69 -500 000/00 RMK AO1 T00001050
54779K12N 12N20160129103010001/29/16 10:30:31  5-MIN K12N 291530Z AUTO 00000KT 00/M05 A2949 980 69 -500 000/00 RMK AO1 T00001050
54779K12N 12N20160129103510001/29/16 10:35:31  5-MIN K12N 291535Z AUTO 00000KT 00/M05 A2949 980 69 -500 000/00 RMK AO1 T00001050
54779K12N 12N20160129104010001/29/16 10:40:31  5-MIN K12N 291540Z AUTO 00000KT 00/M05 A2949 980 69 -500 000/00 RMK AO1 T00001050
54779K12N 12N20160129104510001/29/16 10:45:31  5-MIN K12N 291545Z AUTO 00000KT 00/M05 A2949 980 69 -500 000/00 RMK AO1 T00001050
54779K12N 12N20160129105010701/29/16 10:50:31  5-MIN K12N 291550Z AUTO 00000KT 01/M05 A2949 980 66 -400 000/00 RMK AO1 SLP997 T00061050
54779K12N 12N20160129105510001/29/16 10:55:31  5-MIN K12N 291555Z AUTO 00000KT 01/M05 A2949 990 64 -400 000/00 RMK AO1 T00111050
54779K12N 12N20160129110010001/29/16 11:00:31  5-MIN K12N 291600Z AUTO 00000KT 01/M04 A2949 990 66 -400 000/00 RMK AO1 T00111044
54779K12N 12N20160129110510001/29/16 11:05:31  5-MIN K12N 291605Z AUTO 00000KT 02/M04 A2949 990 64 -300 000/00 RMK AO1 T00171044
54779K12N 12N20160129111010001/29/16 11:10:31  5-MIN K12N 291610Z AUTO 00000KT 02/M04 A2949 990 64 -300 000/00 RMK AO1 T00171044
54779K12N 12N20160129111510001/29/16 11:15:31  5-MIN K12N 291615Z AUTO 00000KT 02/M04 A2949 990 64 -300 000/00 RMK AO1 T00171044
54779K12N 12N20160129112010001/29/16 11:20:31  5-MIN K12N 291620Z AUTO 00000KT 02/M04 A2949 990 64 -200 000/00 RMK AO1 T00221039
54779K12N 12N20160129112510001/29/16 11:25:31  5-MIN K12N 291625Z AUTO 00000KT 02/M04 A2949 990 64 -200 000/00 RMK AO1 T00221039
54779K12N 12N20160129113010001/29/16 11:30:31  5-MIN K12N 291630Z AUTO 00000KT 02/M04 A2949 990 64 -200 000/00 RMK AO1 T00221039
54779K12N 12N20160129113510001/29/16 11:35:31  5-MIN K12N 291635Z AUTO 00000KT 02/M04 A2948 990 64 -200 000/00 RMK AO1 T00221039
54779K12N 12N20160129114010001/29/16 11:40:31  5-MIN K12N 291640Z AUTO 00000KT 03/M03 A2948 990 64 -200 000/00 RMK AO1 T00281033
54779K12N 12N20160129114510001/29/16 11:45:31  5-MIN K12N 291645Z AUTO 00000KT 03/M03 A2948 990 64 -200 000/00 RMK AO1 T00281033
54779K12N 12N20160129115009701/29/16 11:50:31  5-MIN K12N 291650Z AUTO 03/M03 A2948 990 64 -200 M /M RMK AO1 SLP993 T00281033
54779K12N 12N20160129115510001/29/16 11:55:31  5-MIN K12N 291655Z AUTO VRB05KT 03/M03 A2948 990 64 -200 VRB/05 RMK AO1 T00281033
54779K12N 12N20160129120010001/29/16 12:00:31  5-MIN K12N 291700Z AUTO 00000KT 03/M03 A2948 990 64 -200 000/00 RMK AO1 T00281033
54779K12N 12N20160129120510001/29/16 12:05:31  5-MIN K12N 291705Z AUTO VRB06KT 03/M03 A2949 990 64 -200 VRB/06 RMK AO1 T00281033
54779K12N 12N20160129121010601/29/16 12:10:31  5-MIN K12N 291710Z AUTO 36008G15KT 03/M03 A2948 990 64 -200 010/08G15 RMK AO1 T00281033
54779K12N 12N20160129121512201/29/16 12:15:31  5-MIN K12N 291715Z AUTO 34007G15KT 290V010 03/M03 A2949 990 64 -200 350/07G15 300V020 RMK AO1 T00281033
54779K12N 12N20160129122011601/29/16 12:20:31  5-MIN K12N 291720Z AUTO 33008KT 290V010 02/M03 A2949 990 67 -200 340/08 300V020 RMK AO1 T00221033
54779K12N 12N20160129122512201/29/16 12:25:31  5-MIN K12N 291725Z AUTO 33007G16KT 300V360 02/M03 A2949 990 67 -200 350/07G16 310V010 RMK AO1 T00221033
54779K12N 12N20160129123010601/29/16 12:30:31  5-MIN K12N 291730Z AUTO VRB05G16KT 03/M04 A2948 990 61 -200 VRB/05G16 RMK AO1 T00281039
54779K12N 12N20160129123511601/29/16 12:35:31  5-MIN K12N 291735Z AUTO 32007KT 280V010 03/M04 A2948 990 61 -200 330/07 290V020 RMK AO1 T00281039
54779K12N 12N20160129124010001/29/16 12:40:31  5-MIN K12N 291740Z AUTO 35007KT 03/M04 A2948 990 59 -200 360/07 RMK AO1 T00281044
54779K12N 12N20160129124511601/29/16 12:45:31  5-MIN K12N 291745Z AUTO 36007KT 330V030 03/M04 A2948 990 59 -200 010/07 340V040 RMK AO1 T00281044
54779K12N 12N20160129125012501/29/16 12:50:31  5-MIN K12N 291750Z AUTO VRB05KT 03/M04 A2948 990 57 -100 VRB/05 RMK AO1 SLP992 T00331044 10033 21067 53001
54779K12N 12N20160129125510001/29/16 12:55:31  5-MIN K12N 291755Z AUTO VRB06KT 03/M04 A2948 990 59 -100 VRB/06 RMK AO1 T00331039
54779K12N 12N20160129130011701/29/16 13:00:31  5-MIN K12N 291800Z AUTO 34007KT 310V030 03/M04 A2948 1000 59 -100 360/07 320V040 RMK AO1 T00331039
54779K12N 12N20160129130511701/29/16 13:05:31  5-MIN K12N 291805Z AUTO 35007KT 320V040 03/M04 A2948 1000 59 -100 010/07 330V050 RMK AO1 T00331039
54779K12N 12N20160129131010101/29/16 13:10:31  5-MIN K12N 291810Z AUTO 34008KT 03/M04 A2948 1000 59 -100 360/08 RMK AO1 T00331039
54779K12N 12N20160129131510101/29/16 13:15:31  5-MIN K12N 291815Z AUTO VRB04KT 03/M04 A2948 1000 59 -100 VRB/04 RMK AO1 T00331039
54779K12N 12N20160129132008701/29/16 13:20:31  5-MIN K12N 291820Z AUTO 04/M04 A2948 990 57 0 M /M RMK AO1 T00391039
54779K12N 12N20160129132509801/29/16 13:25:31  5-MIN K12N 291825Z AUTO VRB06KT 04/M04 A2948 1000 54 0 VRB/06 RMK AO1 T00391044
54779K12N 12N20160129133011401/29/16 13:30:31  5-MIN K12N 291830Z AUTO 35007KT 330V030 04/M04 A2948 1000 54 0 010/07 340V040 RMK AO1 T00391044
54779K12N 12N20160129133512201/29/16 13:35:31  5-MIN K12N 291835Z AUTO 34008G16KT 310V020 03/M04 A2948 990 57 -100 350/08G16 320V030 RMK AO1 T00331044
54779K12N 12N20160129134012201/29/16 13:40:31  5-MIN K12N 291840Z AUTO 35008G17KT 300V010 03/M05 A2948 990 54 -100 360/08G17 310V020 RMK AO1 T00331050
54779K12N 12N20160129134510601/29/16 13:45:31  5-MIN K12N 291845Z AUTO VRB04G17KT 03/M05 A2949 990 54 -100 VRB/04G17 RMK AO1 T00331050
54779K12N 12N20160129135011301/29/16 13:50:31  5-MIN K12N 291850Z AUTO 33009G14KT 03/M04 A2949 990 57 -100 340/09G14 RMK AO1 SLP995 T00331044
54779K12N 12N20160129135512201/29/16 13:55:31  5-MIN K12N 291855Z AUTO 33007G14KT 260V360 03/M04 A2949 990 57 -100 350/07G14 270V010 RMK AO1 T00331044
54779K12N 12N20160129140010001/29/16 14:00:31  5-MIN K12N 291900Z AUTO VRB05KT 03/M04 A2949 980 57 -100 VRB/05 RMK AO1 T00331044
54779K12N 12N20160129140509001/29/16 14:05:31  5-MIN K12N 291905Z AUTO 03/M04 A2949 980 57 -100 M /M RMK AO1 T00331044
54779K12N 12N20160129141010001/29/16 14:10:31  5-MIN K12N 291910Z AUTO VRB06KT 03/M04 A2950 980 59 -100 VRB/06 RMK AO1 T00331039
54779K12N 12N20160129141512201/29/16 14:15:31  5-MIN K12N 291915Z AUTO 36008G15KT 340V050 03/M04 A2950 970 59 -100 010/08G15 350V060 RMK AO1 T00331039
54779K12N 12N20160129142010601/29/16 14:20:31  5-MIN K12N 291920Z AUTO 36007G17KT 03/M04 A2950 970 61 -200 010/07G17 RMK AO1 T00281039
54779K12N 12N20160129142512201/29/16 14:25:31  5-MIN K12N 291925Z AUTO 34007G17KT 300V360 03/M04 A2951 970 59 -200 350/07G17 310V010 RMK AO1 T00281044
54779K12N 12N20160129143010001/29/16 14:30:31  5-MIN K12N 291930Z AUTO 35005KT 03/M04 A2951 970 57 -100 360/05 RMK AO1 T00331044
54779K12N 12N20160129143510001/29/16 14:35:31  5-MIN K12N 291935Z AUTO VRB05KT 03/M05 A2951 970 54 -100 VRB/05 RMK AO1 T00331050
54779K12N 12N20160129144010001/29/16 14:40:31  5-MIN K12N 291940Z AUTO 01004KT 03/M05 A2951 970 54 -100 020/04 RMK AO1 T00331050
54779K12N 12N20160129144510001/29/16 14:45:31  5-MIN K12N 291945Z AUTO 35006KT 03/M06 A2951 970 52 -100 360/06 RMK AO1 T00331056
54779K12N 12N20160129145010701/29/16 14:50:31  5-MIN K12N 291950Z AUTO 35007KT 03/M06 A2951 960 50 -100 360/07 RMK AO1 SLP004 T00331061
54779K12N 12N20160129145512201/29/16 14:55:31  5-MIN K12N 291955Z AUTO 36012G22KT 300V060 03/M07 A2952 960 48 -100 010/12G22 310V070 RMK AO1 T00331067
54779K12N 12N20160129150012201/29/16 15:00:31  5-MIN K12N 292000Z AUTO 35008G22KT 320V030 03/M07 A2953 950 48 -200 360/08G22 330V040 RMK AO1 T00281072
54779K12N 12N20160129150512201/29/16 15:05:31  5-MIN K12N 292005Z AUTO 33010G19KT 280V010 03/M07 A2953 950 48 -200 340/10G19 290V020 RMK AO1 T00281072
54779K12N 12N20160129151010601/29/16 15:10:31  5-MIN K12N 292010Z AUTO VRB06G19KT 03/M07 A2953 940 48 -200 VRB/06G19 RMK AO1 T00281072
54779K12N 12N20160129151512201/29/16 15:15:31  5-MIN K12N 292015Z AUTO 32008G16KT 260V040 03/M08 A2954 940 46 -200 330/08G16 270V050 RMK AO1 T00281078
54779K12N 12N20160129152012201/29/16 15:20:31  5-MIN K12N 292020Z AUTO 33008G16KT 290V010 03/M08 A2954 940 44 -200 340/08G16 300V020 RMK AO1 T00281083
54779K12N 12N20160129152511601/29/16 15:25:31  5-MIN K12N 292025Z AUTO 33008KT 290V020 03/M08 A2954 940 44 -200 340/08 300V030 RMK AO1 T00281083
54779K12N 12N20160129153010001/29/16 15:30:31  5-MIN K12N 292030Z AUTO VRB06KT 03/M08 A2954 930 44 -200 VRB/06 RMK AO1 T00281083
54779K12N 12N20160129153510001/29/16 15:35:31  5-MIN K12N 292035Z AUTO 34005KT 03/M08 A2955 930 44 -200 360/05 RMK AO1 T00281083
54779K12N 12N20160129154010001/29/16 15:40:31  5-MIN K12N 292040Z AUTO 30009KT 03/M08 A2955 930 44 -200 310/09 RMK AO1 T00281083
54779K12N 12N20160129154512201/29/16 15:45:31  5-MIN K12N 292045Z AUTO 32009G16KT 280V010 02/M08 A2955 930 45 -300 340/09G16 290V020 RMK AO1 T00221083
54779K12N 12N20160129155013501/29/16 15:50:31  5-MIN K12N 292050Z AUTO 34007G16KT 190V030 02/M08 A2956 920 45 -300 360/07G16 200V040 RMK AO1 SLP019 T00221083 58002
54779K12N 12N20160129155512201/29/16 15:55:31  5-MIN K12N 292055Z AUTO 35007G19KT 300V020 02/M09 A2956 920 44 -300 360/07G19 310V030 RMK AO1 T00221089
54779K12N 12N20160129160012201/29/16 16:00:31  5-MIN K12N 292100Z AUTO 34008G19KT 310V040 02/M08 A2957 910 45 -300 360/08G19 320V050 RMK AO1 T00221083
54779K12N 12N20160129160510001/29/16 16:05:31  5-MIN K12N 292105Z AUTO 36010KT 02/M09 A2957 910 44 -300 010/10 RMK AO1 T00221089
54779K12N 12N20160129161010601/29/16 16:10:31  5-MIN K12N 292110Z AUTO 34008G18KT 02/M09 A2957 910 44 -300 360/08G18 RMK AO1 T00221089
54779K12N 12N20160129161512201/29/16 16:15:31  5-MIN K12N 292115Z AUTO 34007G18KT 290V010 02/M08 A2958 900 47 -400 350/07G18 300V020 RMK AO1 T00171083
54779K12N 12N20160129162012201/29/16 16:20:31  5-MIN K12N 292120Z AUTO 33009G17KT 290V360 02/M09 A2958 900 45 -400 340/09G17 300V010 RMK AO1 T00171089
54779K12N 12N20160129162512201/29/16 16:25:31  5-MIN K12N 292125Z AUTO 35007G20KT 270V070 02/M09 A2959 890 45 -400 360/07G20 280V080 RMK AO1 T00171089
54779K12N 12N20160129163010601/29/16 16:30:31  5-MIN K12N 292130Z AUTO 34009G20KT 02/M09 A2959 890 45 -400 350/09G20 RMK AO1 T00171089
54779K12N 12N20160129163511601/29/16 16:35:31  5-MIN K12N 292135Z AUTO 36008KT 330V050 02/M09 A2959 890 45 -400 020/08 340V060 RMK AO1 T00171089
54779K12N 12N20160129164011601/29/16 16:40:31  5-MIN K12N 292140Z AUTO 35008KT 310V030 02/M09 A2960 890 45 -400 010/08 320V040 RMK AO1 T00171089
54779K12N 12N20160129164511601/29/16 16:45:31  5-MIN K12N 292145Z AUTO 33007KT 260V020 02/M09 A2960 880 45 -400 350/07 270V030 RMK AO1 T00171089
54779K12N 12N20160129165012301/29/16 16:50:31  5-MIN K12N 292150Z AUTO 32007KT 290V360 02/M09 A2961 880 45 -400 330/07 300V010 RMK AO1 SLP036 T00171089
54779K12N 12N20160129165510601/29/16 16:55:31  5-MIN K12N 292155Z AUTO 34010G15KT 01/M09 A2961 870 47 -500 350/10G15 RMK AO1 T00111089
54779K12N 12N20160129170010601/29/16 17:00:31  5-MIN K12N 292200Z AUTO 35009G17KT 01/M08 A2962 870 49 -500 360/09G17 RMK AO1 T00111083
54779K12N 12N20160129170512201/29/16 17:05:31  5-MIN K12N 292205Z AUTO 32009G18KT 280V360 01/M08 A2962 860 49 -500 340/09G18 290V010 RMK AO1 T00111083
54779K12N 12N20160129171010601/29/16 17:10:31  5-MIN K12N 292210Z AUTO 31009G18KT 01/M08 A2962 860 49 -500 320/09G18 RMK AO1 T00111083
54779K12N 12N20160129171510601/29/16 17:15:31  5-MIN K12N 292215Z AUTO VRB04G19KT 01/M08 A2963 860 49 -500 VRB/04G19 RMK AO1 T00111083
54779K12N 12N20160129172010601/29/16 17:20:31  5-MIN K12N 292220Z AUTO VRB05G19KT 01/M08 A2963 860 49 -500 VRB/05G19 RMK AO1 T00111083
54779K12N 12N20160129172512201/29/16 17:25:31  5-MIN K12N 292225Z AUTO 32007G16KT 280V060 01/M08 A2963 850 49 -500 340/07G16 290V070 RMK AO1 T00111083
54779K12N 12N20160129173010601/29/16 17:30:31  5-MIN K12N 292230Z AUTO 30008G16KT 01/M08 A2964 850 49 -500 310/08G16 RMK AO1 T00111083
54779K12N 12N20160129173510601/29/16 17:35:31  5-MIN K12N 292235Z AUTO 31008G15KT 01/M09 A2964 840 49 -600 330/08G15 RMK AO1 T00061089
54779K12N 12N20160129174012901/29/16 17:40:31  5-MIN K12N 292240Z AUTO 30007G15KT 250V010 01/M09 A2965 840 49 -600 310/07G15 260V020 RMK AO1 PRESRR T00061089
54779K12N 12N20160129174512901/29/16 17:45:31  5-MIN K12N 292245Z AUTO 30007G15KT 260V340 01/M09 A2966 830 49 -600 320/07G15 270V350 RMK AO1 PRESRR T00061089
54779K12N 12N20160129175012901/29/16 17:50:31  5-MIN K12N 292250Z AUTO 31008G15KT 250V340 01/M09 A2966 820 49 -600 320/08G15 260V350 RMK AO1 SLP056 T00061089
54779K12N 12N20160129175511601/29/16 17:55:31  5-MIN K12N 292255Z AUTO 33007KT 290V010 01/M09 A2967 820 47 -700 340/07 300V020 RMK AO1 T00061094
54779K12N 12N20160129180011601/29/16 18:00:31  5-MIN K12N 292300Z AUTO 33007KT 300V010 00/M09 A2967 820 49 -700 340/07 310V020 RMK AO1 T00001094
54779K12N 12N20160129180509001/29/16 18:05:31  5-MIN K12N 292305Z AUTO 00/M09 A2967 810 51 -700 M /M RMK AO1 T00001089
54779K12N 12N20160129181011601/29/16 18:10:31  5-MIN K12N 292310Z AUTO 32008KT 290V010 00/M09 A2968 810 51 -700 330/08 300V020 RMK AO1 T00001089
54779K12N 12N20160129181510001/29/16 18:15:31  5-MIN K12N 292315Z AUTO VRB04KT 00/M09 A2968 810 49 -700 VRB/04 RMK AO1 T00001094
54779K12N 12N20160129182010001/29/16 18:20:31  5-MIN K12N 292320Z AUTO VRB05KT 00/M09 A2968 800 49 -700 VRB/05 RMK AO1 T00001094
54779K12N 12N20160129182510001/29/16 18:25:31  5-MIN K12N 292325Z AUTO VRB03KT 00/M09 A2969 800 51 -700 VRB/03 RMK AO1 T00001089
54779K12N 12N20160129183010001/29/16 18:30:31  5-MIN K12N 292330Z AUTO VRB05KT 00/M09 A2969 800 51 -700 VRB/05 RMK AO1 T00001089
54779K12N 12N20160129183510001/29/16 18:35:31  5-MIN K12N 292335Z AUTO 34005KT 00/M09 A2969 800 51 -700 350/05 RMK AO1 T00001089
54779K12N 12N20160129184010001/29/16 18:40:31  5-MIN K12N 292340Z AUTO 35009KT 00/M09 A2970 790 49 -800 360/09 RMK AO1 T00001094
54779K12N 12N20160129184510001/29/16 18:45:31  5-MIN K12N 292345Z AUTO 34005KT 00/M09 A2970 790 49 -800 350/05 RMK AO1 T00001094
54779K12N 12N20160129185013101/29/16 18:50:31  5-MIN K12N 292350Z AUTO 34009G16KT 00/M09 A2970 790 49 -800 350/09G16 RMK AO1 SLP071 T00001094 10039 20000 53026
54779K12N 12N20160129185512201/29/16 18:55:31  5-MIN K12N 292355Z AUTO 35012G18KT 320V020 00/M09 A2971 780 49 -800 360/12G18 330V030 RMK AO1 T00001094
54779K12N 12N20160129190012201/29/16 19:00:31  5-MIN K12N 300000Z AUTO 34007G18KT 310V020 00/M09 A2971 780 49 -800 360/07G18 320V030 RMK AO1 T00001094
54779K12N 12N20160129190510001/29/16 19:05:31  5-MIN K12N 300005Z AUTO VRB04KT 00/M09 A2971 780 49 -800 VRB/04 RMK AO1 T00001094
54779K12N 12N20160129191010101/29/16 19:10:31  5-MIN K12N 300010Z AUTO VRB04KT M01/M09 A2972 770 51 -900 VRB/04 RMK AO1 T10061094
54779K12N 12N20160129191510101/29/16 19:15:31  5-MIN K12N 300015Z AUTO VRB06KT M01/M09 A2972 770 51 -900 VRB/06 RMK AO1 T10061094
54779K12N 12N20160129192009101/29/16 19:20:31  5-MIN K12N 300020Z AUTO M01/M09 A2973 760 51 -900 M /M RMK AO1 T10061094
54779K12N 12N20160129192512301/29/16 19:25:31  5-MIN K12N 300025Z AUTO 33008G18KT 300V020 M01/M09 A2973 760 51 -900 340/08G18 310V030 RMK AO1 T10061094
54779K12N 12N20160129193012301/29/16 19:30:31  5-MIN K12N 300030Z AUTO 31007G18KT 280V010 M01/M09 A2973 760 51 -900 330/07G18 290V020 RMK AO1 T10061094
54779K12N 12N20160129193510101/29/16 19:35:31  5-MIN K12N 300035Z AUTO VRB06KT M01/M09 A2974 760 51 -900 VRB/06 RMK AO1 T10061094
54779K12N 12N20160129194010101/29/16 19:40:31  5-MIN K12N 300040Z AUTO VRB06KT M01/M09 A2974 750 51 -900 VRB/06 RMK AO1 T10061094
54779K12N 12N20160129194510101/29/16 19:45:31  5-MIN K12N 300045Z AUTO VRB05KT M01/M09 A2974 750 51 -900 VRB/05 RMK AO1 T10061094
54779K12N 12N20160129195010801/29/16 19:50:31  5-MIN K12N 300050Z AUTO 30007KT M01/M09 A2974 750 51 -900 310/07 RMK AO1 SLP084 T10061094
54779K12N 12N20160129195512301/29/16 19:55:31  5-MIN K12N 300055Z AUTO 35007G17KT 330V030 M01/M09 A2974 750 51 -900 010/07G17 340V040 RMK AO1 T10061094
54779K12N 12N20160129200012301/29/16 20:00:31  5-MIN K12N 300100Z AUTO 32007G17KT 280V010 M01/M09 A2974 750 51 -900 330/07G17 290V020 RMK AO1 T10061094
54779K12N 12N20160129200510101/29/16 20:05:31  5-MIN K12N 300105Z AUTO VRB05KT M01/M09 A2975 750 51 -900 VRB/05 RMK AO1 T10061094
54779K12N 12N20160129201010101/29/16 20:10:31  5-MIN K12N 300110Z AUTO 33007KT M01/M09 A2975 740 51 -900 340/07 RMK AO1 T10061094
54779K12N 12N20160129201510101/29/16 20:15:31  5-MIN K12N 300115Z AUTO 33006KT M01/M09 A2975 740 51 -900 340/06 RMK AO1 T10061094
54779K12N 12N20160129202010101/29/16 20:20:31  5-MIN K12N 300120Z AUTO VRB06KT M01/M09 A2976 740 51 -900 VRB/06 RMK AO1 T10061094
54779K12N 12N20160129202510101/29/16 20:25:31  5-MIN K12N 300125Z AUTO VRB03KT M01/M09 A2977 730 51 -900 VRB/03 RMK AO1 T10061094
54779K12N 12N20160129203011701/29/16 20:30:31  5-MIN K12N 300130Z AUTO 33007KT 290V360 M01/M09 A2977 730 51 -900 340/07 300V010 RMK AO1 T10061094
54779K12N 12N20160129203510201/29/16 20:35:31  5-MIN K12N 300135Z AUTO 32007KT M01/M09 A2977 730 53 -1000 340/07 RMK AO1 T10111094
54779K12N 12N20160129204011801/29/16 20:40:31  5-MIN K12N 300140Z AUTO 34007KT 280V030 M01/M09 A2977 720 53 -1000 350/07 290V040 RMK AO1 T10111094
54779K12N 12N20160129204510201/29/16 20:45:31  5-MIN K12N 300145Z AUTO VRB06KT M01/M09 A2977 720 53 -1000 VRB/06 RMK AO1 T10111094
54779K12N 12N20160129205010901/29/16 20:50:31  5-MIN K12N 300150Z AUTO VRB06KT M01/M09 A2978 720 53 -1000 VRB/06 RMK AO1 SLP096 T10111094
54779K12N 12N20160129205510801/29/16 20:55:31  5-MIN K12N 300155Z AUTO VRB06G17KT M01/M09 A2978 710 53 -1000 VRB/06G17 RMK AO1 T10111094
54779K12N 12N20160129210010801/29/16 21:00:31  5-MIN K12N 300200Z AUTO VRB06G17KT M01/M09 A2979 710 53 -1000 VRB/06G17 RMK AO1 T10111094
54779K12N 12N20160129210512401/29/16 21:05:31  5-MIN K12N 300205Z AUTO 31008G18KT 260V360 M01/M09 A2979 710 53 -1000 330/08G18 270V010 RMK AO1 T10111094
54779K12N 12N20160129211010801/29/16 21:10:31  5-MIN K12N 300210Z AUTO 30009G18KT M02/M09 A2979 700 55 -1100 320/09G18 RMK AO1 T10171094
54779K12N 12N20160129211512401/29/16 21:15:31  5-MIN K12N 300215Z AUTO 31007G16KT 280V360 M02/M09 A2980 700 55 -1100 330/07G16 290V010 RMK AO1 T10171094
54779K12N 12N20160129212011801/29/16 21:20:31  5-MIN K12N 300220Z AUTO 31007KT 260V360 M02/M09 A2980 700 55 -1100 320/07 270V010 RMK AO1 T10171094
54779K12N 12N20160129212510801/29/16 21:25:31  5-MIN K12N 300225Z AUTO 31010G17KT M02/M10 A2980 700 53 -1100 320/10G17 RMK AO1 T10171100
54779K12N 12N20160129213012401/29/16 21:30:31  5-MIN K12N 300230Z AUTO 32009G17KT 300V010 M02/M09 A2980 690 55 -1100 330/09G17 310V020 RMK AO1 T10171094
54779K12N 12N20160129213512401/29/16 21:35:31  5-MIN K12N 300235Z AUTO 32008G17KT 290V350 M02/M10 A2980 690 53 -1100 330/08G17 300V360 RMK AO1 T10171100
54779K12N 12N20160129214010801/29/16 21:40:31  5-MIN K12N 300240Z AUTO 34008G17KT M02/M10 A2981 690 53 -1100 350/08G17 RMK AO1 T10171100
54779K12N 12N20160129214512401/29/16 21:45:31  5-MIN K12N 300245Z AUTO 34008G15KT 290V010 M02/M09 A2981 680 55 -1100 360/08G15 300V020 RMK AO1 T10171094
54779K12N 12N20160129215012101/29/16 21:50:31  5-MIN K12N 300250Z AUTO 30012G17KT M02/M10 A2981 690 53 -1100 310/12G17 RMK AO1 SLP106 T10171100 51048
54779K12N 12N20160129215512401/29/16 21:55:31  5-MIN K12N 300255Z AUTO 35009G17KT 310V020 M02/M09 A2981 690 55 -1100 360/09G17 320V030 RMK AO1 T10171094
54779K12N 12N20160129220010801/29/16 22:00:31  5-MIN K12N 300300Z AUTO VRB06G19KT M02/M09 A2982 680 55 -1100 VRB/06G19 RMK AO1 T10171094
54779K12N 12N20160129220512401/29/16 22:05:31  5-MIN K12N 300305Z AUTO 34009G19KT 280V010 M02/M09 A2982 680 55 -1100 350/09G19 290V020 RMK AO1 T10171094
54779K12N 12N20160129221012401/29/16 22:10:31  5-MIN K12N 300310Z AUTO 36012G19KT 320V060 M02/M09 A2982 680 58 -1200 010/12G19 330V070 RMK AO1 T10221094
54779K12N 12N20160129221512401/29/16 22:15:31  5-MIN K12N 300315Z AUTO 32007G19KT 280V350 M02/M09 A2982 680 58 -1200 330/07G19 290V360 RMK AO1 T10221094
54779K12N 12N20160129222011801/29/16 22:20:31  5-MIN K12N 300320Z AUTO 36007KT 190V040 M02/M09 A2983 670 58 -1200 010/07 200V050 RMK AO1 T10221094
54779K12N 12N20160129222510801/29/16 22:25:31  5-MIN K12N 300325Z AUTO 35008G21KT M02/M09 A2983 670 58 -1200 360/08G21 RMK AO1 T10221094
54779K12N 12N20160129223012401/29/16 22:30:31  5-MIN K12N 300330Z AUTO 32009G21KT 290V360 M02/M09 A2983 670 58 -1200 330/09G21 300V010 RMK AO1 T10221094
54779K12N 12N20160129223510801/29/16 22:35:31  5-MIN K12N 300335Z AUTO VRB05G15KT M02/M09 A2984 660 58 -1200 VRB/05G15 RMK AO1 T10221094
54779K12N 12N20160129224012401/29/16 22:40:31  5-MIN K12N 300340Z AUTO 35007G15KT 320V070 M02/M09 A2984 660 58 -1200 360/07G15 330V080 RMK AO1 T10221094
54779K12N 12N20160129224512401/29/16 22:45:31  5-MIN K12N 300345Z AUTO 33008G15KT 300V010 M02/M09 A2984 660 58 -1200 350/08G15 310V020 RMK AO1 T10221094
54779K12N 12N20160129225011501/29/16 22:50:31  5-MIN K12N 300350Z AUTO 35010G15KT M02/M10 A2984 660 55 -1200 360/10G15 RMK AO1 SLP116 T10221100
54779K12N 12N20160129225512401/29/16 22:55:31  5-MIN K12N 300355Z AUTO 32007G15KT 280V010 M02/M09 A2984 660 58 -1200 330/07G15 290V020 RMK AO1 T10221094
54779K12N 12N20160129230010201/29/16 23:00:31  5-MIN K12N 300400Z AUTO VRB06KT M03/M09 A2984 660 60 -1300 VRB/06 RMK AO1 T10281094
54779K12N 12N20160129230510201/29/16 23:05:31  5-MIN K12N 300405Z AUTO VRB06KT M03/M09 A2985 650 60 -1300 VRB/06 RMK AO1 T10281094
54779K12N 12N20160129231010201/29/16 23:10:31  5-MIN K12N 300410Z AUTO VRB04KT M03/M09 A2985 650 60 -1300 VRB/04 RMK AO1 T10281094
54779K12N 12N20160129231510201/29/16 23:15:31  5-MIN K12N 300415Z AUTO 34007KT M03/M09 A2985 650 60 -1300 360/07 RMK AO1 T10281094
54779K12N 12N20160129232011801/29/16 23:20:31  5-MIN K12N 300420Z AUTO 32007KT 280V350 M03/M09 A2986 650 60 -1300 330/07 290V360 RMK AO1 T10281094
54779K12N 12N20160129232510201/29/16 23:25:31  5-MIN K12N 300425Z AUTO 35005KT M03/M09 A2985 650 60 -1300 360/05 RMK AO1 T10281094
54779K12N 12N20160129233010801/29/16 23:30:31  5-MIN K12N 300430Z AUTO VRB06G18KT M03/M10 A2986 650 58 -1300 VRB/06G18 RMK AO1 T10281100
54779K12N 12N20160129233510801/29/16 23:35:31  5-MIN K12N 300435Z AUTO VRB05G18KT M03/M10 A2985 650 58 -1300 VRB/05G18 RMK AO1 T10281100
54779K12N 12N20160129234011801/29/16 23:40:31  5-MIN K12N 300440Z AUTO 36007KT 320V030 M03/M09 A2985 650 60 -1300 010/07 330V040 RMK AO1 T10281094
54779K12N 12N20160129234510801/29/16 23:45:31  5-MIN K12N 300445Z AUTO 36010G17KT M03/M10 A2986 640 58 -1300 010/10G17 RMK AO1 T10281100
54779K12N 12N20160129235012501/29/16 23:50:31  5-MIN K12N 300450Z AUTO 36007G17KT M03/M10 A2986 640 58 -1300 010/07G17 RMK AO1 SLP122 T10281100 400391067
54779K12N 12N20160129235510201/29/16 23:55:31  5-MIN K12N 300455Z AUTO 35007KT M03/M10 A2986 640 60 -1400 360/07 RMK AO1 T10331100
54779K12N 12N20160130000010201/30/16 00:00:31  5-MIN K12N 300500Z AUTO VRB04KT M03/M10 A2986 640 60 -1400 VRB/04 RMK AO1 T10331100
54779K12N 12N20160130000510201/30/16 00:05:31  5-MIN K12N 300505Z AUTO VRB06KT M03/M10 A2987 630 60 -1400 VRB/06 RMK AO1 T10331100
54779K12N 12N20160130001010801/30/16 00:10:31  5-MIN K12N 300510Z AUTO 34009G14KT M03/M10 A2987 630 60 -1400 350/09G14 RMK AO1 T10331100
54779K12N 12N20160130001510801/30/16 00:15:31  5-MIN K12N 300515Z AUTO 36007G14KT M03/M10 A2987 630 60 -1400 010/07G14 RMK AO1 T10331100
54779K12N 12N20160130002011801/30/16 00:20:31  5-MIN K12N 300520Z AUTO 35007KT 320V020 M03/M10 A2988 630 60 -1400 010/07 330V030 RMK AO1 T10331100
54779K12N 12N20160130002510201/30/16 00:25:31  5-MIN K12N 300525Z AUTO 34008KT M03/M10 A2988 620 60 -1400 360/08 RMK AO1 T10331100
54779K12N 12N20160130003010201/30/16 00:30:31  5-MIN K12N 300530Z AUTO 35008KT M03/M10 A2988 620 60 -1400 360/08 RMK AO1 T10331100
54779K12N 12N20160130003510201/30/16 00:35:31  5-MIN K12N 300535Z AUTO 36006KT M03/M10 A2988 620 60 -1400 010/06 RMK AO1 T10331100
54779K12N 12N20160130004010201/30/16 00:40:31  5-MIN K12N 300540Z AUTO VRB05KT M03/M10 A2988 620 60 -1400 VRB/05 RMK AO1 T10331100
54779K12N 12N20160130004510201/30/16 00:45:31  5-MIN K12N 300545Z AUTO 36005KT M03/M10 A2988 620 60 -1400 010/05 RMK AO1 T10331100
54779K12N 12N20160130005012701/30/16 00:50:31  5-MIN K12N 300550Z AUTO VRB06KT M03/M10 A2988 620 60 -1400 VRB/06 RMK AO1 SLP130 T10331100 10000 21033 51035
54779K12N 12N20160130005510201/30/16 00:55:31  5-MIN K12N 300555Z AUTO 35006KT M03/M10 A2989 620 60 -1400 360/06 RMK AO1 T10331100
54779K12N 12N20160130010010201/30/16 01:00:31  5-MIN K12N 300600Z AUTO VRB05KT M03/M10 A2989 620 60 -1400 VRB/05 RMK AO1 T10331100
54779K12N 12N20160130010510201/30/16 01:05:31  5-MIN K12N 300605Z AUTO VRB04KT M03/M10 A2989 610 60 -1400 VRB/04 RMK AO1 T10331100
54779K12N 12N20160130011009201/30/16 01:10:31  5-MIN K12N 300610Z AUTO M04/M10 A2989 610 63 -1500 M /M RMK AO1 T10391100
54779K12N 12N20160130011510201/30/16 01:15:31  5-MIN K12N 300615Z AUTO 34005KT M03/M10 A2989 610 60 -1400 350/05 RMK AO1 T10331100
54779K12N 12N20160130012010201/30/16 01:20:31  5-MIN K12N 300620Z AUTO VRB06KT M03/M10 A2990 610 60 -1400 VRB/06 RMK AO1 T10331100
54779K12N 12N20160130012510201/30/16 01:25:31  5-MIN K12N 300625Z AUTO 36004KT M03/M10 A2990 610 60 -1400 010/04 RMK AO1 T10331100
54779K12N 12N20160130013010201/30/16 01:30:31  5-MIN K12N 300630Z AUTO 00000KT M03/M10 A2989 610 60 -1400 000/00 RMK AO1 T10331100
54779K12N 12N20160130013510201/30/16 01:35:31  5-MIN K12N 300635Z AUTO 26006KT M04/M10 A2990 610 63 -1500 280/06 RMK AO1 T10391100
54779K12N 12N20160130014010201/30/16 01:40:31  5-MIN K12N 300640Z AUTO 00000KT M04/M10 A2990 600 63 -1500 000/00 RMK AO1 T10391100
54779K12N 12N20160130014510201/30/16 01:45:31  5-MIN K12N 300645Z AUTO 33003KT M03/M10 A2991 600 60 -1400 350/03 RMK AO1 T10331100
54779K12N 12N20160130015010901/30/16 01:50:31  5-MIN K12N 300650Z AUTO 29004KT M03/M10 A2991 590 60 -1400 310/04 RMK AO1 SLP140 T10331100
54779K12N 12N20160130015510201/30/16 01:55:31  5-MIN K12N 300655Z AUTO 00000KT M04/M10 A2992 590 63 -1500 000/00 RMK AO1 T10391100
54779K12N 12N20160130020010901/30/16 02:00:31  5-MIN K12N 300700Z AUTO 00000KT M04/M10 A2992 580 63 -1500 000/00 RMK AO1 PRESRR T10391100
54779K12N 12N20160130020510201/30/16 02:05:31  5-MIN K12N 300705Z AUTO 00000KT M04/M10 A2993 580 63 -1500 000/00 RMK AO1 T10391100
54779K12N 12N20160130021010201/30/16 02:10:31  5-MIN K12N 300710Z AUTO 00000KT M04/M10 A2993 580 63 -1500 000/00 RMK AO1 T10391100
54779K12N 12N20160130021510201/30/16 02:15:31  5-MIN K12N 300715Z AUTO 00000KT M04/M10 A2994 570 65 -1600 000/00 RMK AO1 T10441100
54779K12N 12N20160130022010201/30/16 02:20:31  5-MIN K12N 300720Z AUTO 00000KT M04/M10 A2994 570 63 -1500 000/00 RMK AO1 T10391100
54779K12N 12N20160130022510201/30/16 02:25:31  5-MIN K12N 300725Z AUTO 22003KT M04/M10 A2994 560 65 -1600 230/03 RMK AO1 T10441100
54779K12N 12N20160130023010201/30/16 02:30:31  5-MIN K12N 300730Z AUTO 00000KT M04/M09 A2994 570 68 -1600 000/00 RMK AO1 T10441094
54779K12N 12N20160130023510201/30/16 02:35:31  5-MIN K12N 300735Z AUTO 25003KT M04/M10 A2994 560 63 -1500 260/03 RMK AO1 T10391100
54779K12N 12N20160130024010201/30/16 02:40:31  5-MIN K12N 300740Z AUTO 00000KT M04/M10 A2995 560 63 -1500 000/00 RMK AO1 T10391100
54779K12N 12N20160130024510201/30/16 02:45:31  5-MIN K12N 300745Z AUTO 00000KT M04/M10 A2995 560 63 -1500 000/00 RMK AO1 T10391100
54779K12N 12N20160130025010901/30/16 02:50:31  5-MIN K12N 300750Z AUTO 00000KT M04/M10 A2995 560 63 -1500 000/00 RMK AO1 SLP154 T10391100
54779K12N 12N20160130025510201/30/16 02:55:31  5-MIN K12N 300755Z AUTO VRB03KT M04/M10 A2995 550 63 -1500 VRB/03 RMK AO1 T10391100
54779K12N 12N20160130030010201/30/16 03:00:31  5-MIN K12N 300800Z AUTO 00000KT M04/M10 A2995 560 63 -1500 000/00 RMK AO1 T10391100
54779K12N 12N20160130030510201/30/16 03:05:31  5-MIN K12N 300805Z AUTO 00000KT M04/M09 A2995 550 65 -1500 000/00 RMK AO1 T10391094
54779K12N 12N20160130031010201/30/16 03:10:31  5-MIN K12N 300810Z AUTO 00000KT M04/M10 A2996 550 63 -1600 000/00 RMK AO1 T10391100
54779K12N 12N20160130031510201/30/16 03:15:31  5-MIN K12N 300815Z AUTO 00000KT M04/M10 A2996 550 65 -1600 000/00 RMK AO1 T10441100
54779K12N 12N20160130032010201/30/16 03:20:31  5-MIN K12N 300820Z AUTO 00000KT M04/M10 A2996 550 63 -1600 000/00 RMK AO1 T10391100
54779K12N 12N20160130032510201/30/16 03:25:31  5-MIN K12N 300825Z AUTO 00000KT M04/M10 A2996 550 63 -1600 000/00 RMK AO1 T10391100
54779K12N 12N20160130033010201/30/16 03:30:31  5-MIN K12N 300830Z AUTO VRB03KT M04/M09 A2997 540 68 -1600 VRB/03 RMK AO1 T10441094
54779K12N 12N20160130033510201/30/16 03:35:31  5-MIN K12N 300835Z AUTO 00000KT M04/M09 A2997 540 68 -1600 000/00 RMK AO1 T10441094
54779K12N 12N20160130034010201/30/16 03:40:31  5-MIN K12N 300840Z AUTO 00000KT M04/M09 A2997 540 68 -1600 000/00 RMK AO1 T10441094
54779K12N 12N20160130034510201/30/16 03:45:31  5-MIN K12N 300845Z AUTO 00000KT M04/M09 A2997 540 65 -1600 000/00 RMK AO1 T10391094
54779K12N 12N20160130035011501/30/16 03:50:31  5-MIN K12N 300850Z AUTO 00000KT M04/M09 A2997 540 65 -1600 000/00 RMK AO1 SLP160 T10391094 51024
54779K12N 12N20160130035510201/30/16 03:55:31  5-MIN K12N 300855Z AUTO 00000KT M04/M09 A2997 540 68 -1600 000/00 RMK AO1 T10441094
54779K12N 12N20160130040010201/30/16 04:00:31  5-MIN K12N 300900Z AUTO 00000KT M04/M09 A2997 540 68 -1600 000/00 RMK AO1 T10441094
54779K12N 12N20160130040510201/30/16 04:05:31  5-MIN K12N 300905Z AUTO 00000KT M04/M09 A2997 540 68 -1600 000/00 RMK AO1 T10441094
54779K12N 12N20160130041010201/30/16 04:10:31  5-MIN K12N 300910Z AUTO 32005KT M04/M09 A2997 540 65 -1600 330/05 RMK AO1 T10391094
54779K12N 12N20160130041510201/30/16 04:15:31  5-MIN K12N 300915Z AUTO VRB04KT M04/M09 A2997 540 65 -1600 VRB/04 RMK AO1 T10391094
54779K12N 12N20160130042010201/30/16 04:20:31  5-MIN K12N 300920Z AUTO 00000KT M04/M09 A2998 530 65 -1600 000/00 RMK AO1 T10391094
54779K12N 12N20160130042510201/30/16 04:25:31  5-MIN K12N 300925Z AUTO 00000KT M04/M09 A2998 530 65 -1600 000/00 RMK AO1 T10391094
54779K12N 12N20160130043010201/30/16 04:30:31  5-MIN K12N 300930Z AUTO 00000KT M04/M09 A2998 530 65 -1600 000/00 RMK AO1 T10391094
54779K12N 12N20160130043510201/30/16 04:35:31  5-MIN K12N 300935Z AUTO VRB03KT M04/M09 A2999 520 65 -1600 VRB/03 RMK AO1 T10391094
54779K12N 12N20160130044010201/30/16 04:40:31  5-MIN K12N 300940Z AUTO 22003KT M04/M09 A2999 520 65 -1600 230/03 RMK AO1 T10391094
54779K12N 12N20160130044510201/30/16 04:45:31  5-MIN K12N 300945Z AUTO 00000KT M04/M09 A2999 520 65 -1600 000/00 RMK AO1 T10391094
54779K12N 12N20160130045010901/30/16 04:50:31  5-MIN K12N 300950Z AUTO VRB03KT M04/M09 A2999 520 65 -1600 VRB/03 RMK AO1 SLP168 T10391094
54779K12N 12N20160130045510201/30/16 04:55:31  5-MIN K12N 300955Z AUTO 00000KT M04/M09 A3000 510 65 -1600 000/00 RMK AO1 T10391094
54779K12N 12N20160130050010201/30/16 05:00:31  5-MIN K12N 301000Z AUTO 00000KT M04/M09 A3000 510 68 -1700 000/00 RMK AO1 T10441094
54779K12N 12N20160130050510201/30/16 05:05:31  5-MIN K12N 301005Z AUTO 00000KT M04/M09 A3001 510 68 -1700 000/00 RMK AO1 T10441094
54779K12N 12N20160130051010201/30/16 05:10:31  5-MIN K12N 301010Z AUTO 00000KT M04/M09 A3001 500 65 -1600 000/00 RMK AO1 T10391094
54779K12N 12N20160130051510201/30/16 05:15:31  5-MIN K12N 301015Z AUTO 00000KT M04/M09 A3000 510 68 -1700 000/00 RMK AO1 T10441094
54779K12N 12N20160130052010201/30/16 05:20:31  5-MIN K12N 301020Z AUTO 00000KT M04/M09 A3001 510 68 -1700 000/00 RMK AO1 T10441094
54779K12N 12N20160130052510201/30/16 05:25:31  5-MIN K12N 301025Z AUTO 00000KT M06/M09 A3001 500 74 -1800 000/00 RMK AO1 T10561094
54779K12N 12N20160130053010201/30/16 05:30:31  5-MIN K12N 301030Z AUTO 00000KT M05/M09 A3002 500 71 -1800 000/00 RMK AO1 T10501094
54779K12N 12N20160130053510201/30/16 05:35:31  5-MIN K12N 301035Z AUTO 00000KT M06/M09 A3002 500 74 -1800 000/00 RMK AO1 T10561094
54779K12N 12N20160130054010201/30/16 05:40:31  5-MIN K12N 301040Z AUTO VRB03KT M06/M09 A3002 490 74 -1800 VRB/03 RMK AO1 T10561094
54779K12N 12N20160130054510201/30/16 05:45:31  5-MIN K12N 301045Z AUTO VRB03KT M04/M09 A3003 480 68 -1700 VRB/03 RMK AO1 T10441094
54779K12N 12N20160130055011601/30/16 05:50:31  5-MIN K12N 301050Z AUTO 00000KT M04/M09 A3004 470 68 -1700 000/00 RMK AO1 PRESRR SLP185 T10441094
54779K12N 12N20160130055510201/30/16 05:55:31  5-MIN K12N 301055Z AUTO 00000KT M04/M09 A3004 470 68 -1700 000/00 RMK AO1 T10441094
54779K12N 12N20160130060010201/30/16 06:00:31  5-MIN K12N 301100Z AUTO 00000KT M04/M09 A3005 470 68 -1700 000/00 RMK AO1 T10441094
54779K12N 12N20160130060510201/30/16 06:05:31  5-MIN K12N 301105Z AUTO 00000KT M05/M09 A3005 470 71 -1800 000/00 RMK AO1 T10501094
54779K12N 12N20160130061010201/30/16 06:10:31  5-MIN K12N 301110Z AUTO 00000KT M06/M10 A3005 470 71 -1900 000/00 RMK AO1 T10561100
54779K12N 12N20160130061510201/30/16 06:15:31  5-MIN K12N 301115Z AUTO 00000KT M06/M10 A3004 470 71 -1900 000/00 RMK AO1 T10561100
54779K12N 12N20160130062010201/30/16 06:20:31  5-MIN K12N 301120Z AUTO VRB03KT M06/M10 A3004 470 74 -1900 VRB/03 RMK AO1 T10611100
54779K12N 12N20160130062510201/30/16 06:25:31  5-MIN K12N 301125Z AUTO 00000KT M05/M10 A3004 470 68 -1800 000/00 RMK AO1 T10501100
54779K12N 12N20160130063010201/30/16 06:30:31  5-MIN K12N 301130Z AUTO 00000KT M05/M10 A3004 470 68 -1800 000/00 RMK AO1 T10501100
54779K12N 12N20160130063510201/30/16 06:35:31  5-MIN K12N 301135Z AUTO 00000KT M06/M09 A3004 470 74 -1900 000/00 RMK AO1 T10561094
54779K12N 12N20160130064010201/30/16 06:40:31  5-MIN K12N 301140Z AUTO 00000KT M07/M10 A3004 470 77 -2000 000/00 RMK AO1 T10671100
54779K12N 12N20160130064510201/30/16 06:45:31  5-MIN K12N 301145Z AUTO 34003KT M07/M10 A3005 460 77 -2000 360/03 RMK AO1 T10671100
54779K12N 12N20160130065012701/30/16 06:50:31  5-MIN K12N 301150Z AUTO 00000KT M07/M10 A3005 460 77 -2000 000/00 RMK AO1 SLP190 T10671100 11033 21067 51029
54779K12N 12N20160130065510201/30/16 06:55:31  5-MIN K12N 301155Z AUTO 00000KT M07/M10 A3005 470 77 -2000 000/00 RMK AO1 T10671100
54779K12N 12N20160130070010201/30/16 07:00:31  5-MIN K12N 301200Z AUTO 00000KT M06/M10 A3005 470 74 -1900 000/00 RMK AO1 T10611100
54779K12N 12N20160130070510201/30/16 07:05:31  5-MIN K12N 301205Z AUTO 00000KT M07/M10 A3005 470 81 -2100 000/00 RMK AO1 T10721100
54779K12N 12N20160130071010201/30/16 07:10:31  5-MIN K12N 301210Z AUTO 00000KT M06/M10 A3005 470 74 -1900 000/00 RMK AO1 T10611100
54779K12N 12N20160130071510201/30/16 07:15:31  5-MIN K12N 301215Z AUTO 00000KT M07/M10 A3005 460 81 -2100 000/00 RMK AO1 T10721100
54779K12N 12N20160130072010201/30/16 07:20:31  5-MIN K12N 301220Z AUTO 00000KT M07/M10 A3006 460 81 -2100 000/00 RMK AO1 T10721100
54779K12N 12N20160130072510201/30/16 07:25:31  5-MIN K12N 301225Z AUTO 00000KT M07/M10 A3005 460 81 -2100 000/00 RMK AO1 T10721100
54779K12N 12N20160130073010201/30/16 07:30:31  5-MIN K12N 301230Z AUTO 00000KT M07/M10 A3005 470 81 -2100 000/00 RMK AO1 T10721100
54779K12N 12N20160130073510201/30/16 07:35:31  5-MIN K12N 301235Z AUTO 00000KT M07/M10 A3004 470 81 -2100 000/00 RMK AO1 T10721100
54779K12N 12N20160130074010201/30/16 07:40:31  5-MIN K12N 301240Z AUTO 00000KT M07/M10 A3005 460 81 -2100 000/00 RMK AO1 T10721100
54779K12N 12N20160130074510201/30/16 07:45:31  5-MIN K12N 301245Z AUTO 00000KT M07/M09 A3006 450 81 -2000 000/00 RMK AO1 T10671094
54779K12N 12N20160130075010901/30/16 07:50:31  5-MIN K12N 301250Z AUTO 00000KT M07/M09 A3006 450 84 -2100 000/00 RMK AO1 SLP194 T10721094
54779K12N 12N20160130075510201/30/16 07:55:31  5-MIN K12N 301255Z AUTO 00000KT M07/M09 A3006 450 81 -2000 000/00 RMK AO1 T10671094
54779K12N 12N20160130080010201/30/16 08:00:31  5-MIN K12N 301300Z AUTO 00000KT M07/M09 A3006 450 84 -2100 000/00 RMK AO1 T10721094
54779K12N 12N20160130080510201/30/16 08:05:31  5-MIN K12N 301305Z AUTO 00000KT M07/M09 A3006 450 81 -2000 000/00 RMK AO1 T10671094
54779K12N 12N20160130081010201/30/16 08:10:31  5-MIN K12N 301310Z AUTO 00000KT M06/M09 A3006 460 81 -2000 000/00 RMK AO1 T10611089
54779K12N 12N20160130081510201/30/16 08:15:31  5-MIN K12N 301315Z AUTO 00000KT M06/M09 A3006 460 81 -2000 000/00 RMK AO1 T10611089
54779K12N 12N20160130082010201/30/16 08:20:31  5-MIN K12N 301320Z AUTO 00000KT M06/M08 A3005 470 81 -1900 000/00 RMK AO1 T10561083
54779K12N 12N20160130082510201/30/16 08:25:31  5-MIN K12N 301325Z AUTO 00000KT M06/M08 A3005 470 84 -1900 000/00 RMK AO1 T10561078
54779K12N 12N20160130083010201/30/16 08:30:31  5-MIN K12N 301330Z AUTO 00000KT M05/M08 A3005 470 81 -1800 000/00 RMK AO1 T10501078
54779K12N 12N20160130083510201/30/16 08:35:31  5-MIN K12N 301335Z AUTO 00000KT M05/M08 A3004 470 77 -1800 000/00 RMK AO1 T10501083
54779K12N 12N20160130084010201/30/16 08:40:31  5-MIN K12N 301340Z AUTO 00000KT M04/M08 A3005 470 74 -1700 000/00 RMK AO1 T10391078
54779K12N 12N20160130084510201/30/16 08:45:31  5-MIN K12N 301345Z AUTO 32003KT M03/M08 A3005 460 71 -1600 340/03 RMK AO1 T10331078
54779K12N 12N20160130085010901/30/16 08:50:31  5-MIN K12N 301350Z AUTO VRB04KT M02/M09 A3005 460 60 -1500 VRB/04 RMK AO1 SLP189 T10221089
54779K12N 12N20160130085510201/30/16 08:55:31  5-MIN K12N 301355Z AUTO 00000KT M02/M09 A3005 470 60 -1400 000/00 RMK AO1 T10221089
54779K12N 12N20160130090010201/30/16 09:00:31  5-MIN K12N 301400Z AUTO 00000KT M03/M09 A3004 470 63 -1500 000/00 RMK AO1 T10281089
54779K12N 12N20160130090510201/30/16 09:05:31  5-MIN K12N 301405Z AUTO 00000KT M02/M09 A3005 470 58 -1400 000/00 RMK AO1 T10171089
54779K12N 12N20160130091010201/30/16 09:10:31  5-MIN K12N 301410Z AUTO 00000KT M02/M09 A3004 470 60 -1400 000/00 RMK AO1 T10221089
54779K12N 12N20160130091510201/30/16 09:15:31  5-MIN K12N 301415Z AUTO 25003KT M02/M09 A3004 480 60 -1400 260/03 RMK AO1 T10221089
54779K12N 12N20160130092010201/30/16 09:20:31  5-MIN K12N 301420Z AUTO 00000KT M02/M09 A3004 470 60 -1400 000/00 RMK AO1 T10221089
54779K12N 12N20160130092510201/30/16 09:25:31  5-MIN K12N 301425Z AUTO 00000KT M02/M09 A3004 470 60 -1400 000/00 RMK AO1 T10221089
54779K12N 12N20160130093010201/30/16 09:30:31  5-MIN K12N 301430Z AUTO 00000KT M02/M09 A3005 470 58 -1400 000/00 RMK AO1 T10171089
54779K12N 12N20160130093510201/30/16 09:35:31  5-MIN K12N 301435Z AUTO 00000KT M01/M08 A3005 470 56 -1200 000/00 RMK AO1 T10061083
54779K12N 12N20160130094010201/30/16 09:40:31  5-MIN K12N 301440Z AUTO 30003KT M01/M09 A3004 470 55 -1300 310/03 RMK AO1 T10111089
54779K12N 12N20160130094510201/30/16 09:45:31  5-MIN K12N 301445Z AUTO VRB03KT M02/M09 A3006 460 58 -1400 VRB/03 RMK AO1 T10171089
54779K12N 12N20160130095011501/30/16 09:50:31  5-MIN K12N 301450Z AUTO VRB03KT M02/M09 A3005 460 58 -1400 VRB/03 RMK AO1 SLP189 T10171089 51025
54779K12N 12N20160130095510201/30/16 09:55:31  5-MIN K12N 301455Z AUTO 19003KT M02/M09 A3005 470 58 -1400 210/03 RMK AO1 T10171089
54779K12N 12N20160130100010201/30/16 10:00:31  5-MIN K12N 301500Z AUTO 00000KT M02/M09 A3004 470 60 -1400 000/00 RMK AO1 T10221089
54779K12N 12N20160130100510201/30/16 10:05:31  5-MIN K12N 301505Z AUTO 00000KT M02/M09 A3005 470 58 -1400 000/00 RMK AO1 T10171089
54779K12N 12N20160130101010201/30/16 10:10:31  5-MIN K12N 301510Z AUTO 00000KT M02/M09 A3004 470 58 -1400 000/00 RMK AO1 T10171089
54779K12N 12N20160130101510201/30/16 10:15:31  5-MIN K12N 301515Z AUTO 00000KT M01/M09 A3005 470 55 -1300 000/00 RMK AO1 T10111089
54779K12N 12N20160130102010201/30/16 10:20:31  5-MIN K12N 301520Z AUTO 00000KT M01/M09 A3005 470 55 -1300 000/00 RMK AO1 T10111089
54779K12N 12N20160130102510201/30/16 10:25:31  5-MIN K12N 301525Z AUTO 24003KT M01/M09 A3006 460 55 -1300 250/03 RMK AO1 T10111089
54779K12N 12N20160130103010201/30/16 10:30:31  5-MIN K12N 301530Z AUTO VRB04KT M01/M09 A3006 460 53 -1200 VRB/04 RMK AO1 T10061089
54779K12N 12N20160130103510201/30/16 10:35:31  5-MIN K12N 301535Z AUTO 23003KT M01/M09 A3006 450 55 -1300 240/03 RMK AO1 T10111089
54779K12N 12N20160130104010201/30/16 10:40:31  5-MIN K12N 301540Z AUTO VRB05KT M01/M08 A3007 450 56 -1300 VRB/05 RMK AO1 T10061083
54779K12N 12N20160130104510201/30/16 10:45:31  5-MIN K12N 301545Z AUTO 28005KT M01/M09 A3007 450 53 -1300 290/05 RMK AO1 T10061089
54779K12N 12N20160130105010801/30/16 10:50:31  5-MIN K12N 301550Z AUTO VRB04KT 01/M09 A3007 450 49 -1100 VRB/04 RMK AO1 SLP193 T00061089
54779K12N 12N20160130105510201/30/16 10:55:31  5-MIN K12N 301555Z AUTO 20005KT M01/M09 A3007 450 53 -1300 220/05 RMK AO1 T10061089
54779K12N 12N20160130110010201/30/16 11:00:31  5-MIN K12N 301600Z AUTO VRB04KT M01/M09 A3007 450 55 -1300 VRB/04 RMK AO1 T10111089
54779K12N 12N20160130110510201/30/16 11:05:31  5-MIN K12N 301605Z AUTO VRB03KT M01/M08 A3006 460 56 -1200 VRB/03 RMK AO1 T10061083
54779K12N 12N20160130111010201/30/16 11:10:31  5-MIN K12N 301610Z AUTO VRB05KT M01/M08 A3005 460 56 -1200 VRB/05 RMK AO1 T10061083
54779K12N 12N20160130111510201/30/16 11:15:31  5-MIN K12N 301615Z AUTO VRB03KT M01/M09 A3005 470 53 -1200 VRB/03 RMK AO1 T10061089
54779K12N 12N20160130112010101/30/16 11:20:31  5-MIN K12N 301620Z AUTO 23003KT 00/M09 A3005 470 51 -1200 250/03 RMK AO1 T00001089
54779K12N 12N20160130112510101/30/16 11:25:31  5-MIN K12N 301625Z AUTO 20005KT 00/M09 A3005 470 51 -1200 220/05 RMK AO1 T00001089
54779K12N 12N20160130113010101/30/16 11:30:31  5-MIN K12N 301630Z AUTO 23005KT 00/M09 A3004 470 51 -1200 240/05 RMK AO1 T00001089
54779K12N 12N20160130113510101/30/16 11:35:31  5-MIN K12N 301635Z AUTO VRB04KT 00/M09 A3004 470 51 -1200 VRB/04 RMK AO1 T00001089
54779K12N 12N20160130114010101/30/16 11:40:31  5-MIN K12N 301640Z AUTO 22006KT 00/M09 A3004 480 51 -1100 240/06 RMK AO1 T00001089
54779K12N 12N20160130114510101/30/16 11:45:31  5-MIN K12N 301645Z AUTO VRB04KT 00/M08 A3003 490 53 -1100 VRB/04 RMK AO1 T00001083
54779K12N 12N20160130115010801/30/16 11:50:31  5-MIN K12N 301650Z AUTO 23006KT 01/M09 A3002 490 49 -1100 240/06 RMK AO1 SLP178 T00061089
54779K12N 12N20160130115510801/30/16 11:55:31  5-MIN K12N 301655Z AUTO 23003KT 01/M09 A3002 500 49 -1100 240/03 RMK AO1 PRESFR T00061089
54779K12N 12N20160130120010101/30/16 12:00:31  5-MIN K12N 301700Z AUTO VRB04KT 01/M09 A3001 500 49 -1100 VRB/04 RMK AO1 T00061089
54779K12N 12N20160130120510101/30/16 12:05:31  5-MIN K12N 301705Z AUTO 22006KT 01/M08 A3001 500 49 -1000 230/06 RMK AO1 T00111083
54779K12N 12N20160130121010101/30/16 12:10:31  5-MIN K12N 301710Z AUTO 21007KT 01/M08 A3001 500 49 -1000 220/07 RMK AO1 T00111083
54779K12N 12N20160130121510101/30/16 12:15:31  5-MIN K12N 301715Z AUTO 21005KT 01/M08 A3001 500 49 -1000 220/05 RMK AO1 T00111083
54779K12N 12N20160130122010101/30/16 12:20:31  5-MIN K12N 301720Z AUTO 23006KT 01/M08 A3001 500 49 -1000 240/06 RMK AO1 T00111083
54779K12N 12N20160130122510001/30/16 12:25:31  5-MIN K12N 301725Z AUTO 23007KT 02/M09 A3001 500 45 -900 240/07 RMK AO1 T00171089
54779K12N 12N20160130123010001/30/16 12:30:31  5-MIN K12N 301730Z AUTO 20006KT 02/M09 A3001 500 45 -900 220/06 RMK AO1 T00171089
54779K12N 12N20160130123510001/30/16 12:35:31  5-MIN K12N 301735Z AUTO 21004KT 02/M08 A3001 500 47 -900 220/04 RMK AO1 T00171083
54779K12N 12N20160130124010001/30/16 12:40:31  5-MIN K12N 301740Z AUTO 20004KT 02/M08 A3001 500 47 -900 210/04 RMK AO1 T00171083
54779K12N 12N20160130124510001/30/16 12:45:31  5-MIN K12N 301745Z AUTO 22009KT 02/M08 A3001 500 45 -800 240/09 RMK AO1 T00221083
54779K12N 12N20160130125012501/30/16 12:50:31  5-MIN K12N 301750Z AUTO 24008KT 02/M08 A3001 510 47 -900 250/08 RMK AO1 SLP172 T00171083 10022 21078 51001
54779K12N 12N20160130125510001/30/16 12:55:31  5-MIN K12N 301755Z AUTO 22007KT 02/M08 A3000 510 45 -800 240/07 RMK AO1 T00221083
54779K12N 12N20160130130010001/30/16 13:00:31  5-MIN K12N 301800Z AUTO 22006KT 02/M09 A3000 510 44 -800 230/06 RMK AO1 T00221089
54779K12N 12N20160130130510001/30/16 13:05:31  5-MIN K12N 301805Z AUTO 22006KT 02/M09 A3000 510 44 -800 230/06 RMK AO1 T00221089
54779K12N 12N20160130131010001/30/16 13:10:31  5-MIN K12N 301810Z AUTO 21007KT 02/M08 A3000 520 45 -800 220/07 RMK AO1 T00221083
54779K12N 12N20160130131510001/30/16 13:15:31  5-MIN K12N 301815Z AUTO 19005KT 02/M08 A2999 520 45 -800 200/05 RMK AO1 T00221083
54779K12N 12N20160130132010001/30/16 13:20:31  5-MIN K12N 301820Z AUTO 23010KT 02/M09 A2999 520 44 -800 240/10 RMK AO1 T00221089
54779K12N 12N20160130132510001/30/16 13:25:31  5-MIN K12N 301825Z AUTO 22006KT 03/M09 A2998 530 40 -700 230/06 RMK AO1 T00281094
54779K12N 12N20160130133010001/30/16 13:30:31  5-MIN K12N 301830Z AUTO 22009KT 02/M09 A2999 520 42 -800 240/09 RMK AO1 T00221094
54779K12N 12N20160130133510001/30/16 13:35:31  5-MIN K12N 301835Z AUTO 21009KT 02/M11 A2998 530 38 -800 230/09 RMK AO1 T00221106
54779K12N 12N20160130134010601/30/16 13:40:31  5-MIN K12N 301840Z AUTO 23007G15KT 03/M11 A2998 530 37 -700 240/07G15 RMK AO1 T00281106
54779K12N 12N20160130134510601/30/16 13:45:31  5-MIN K12N 301845Z AUTO 23008G15KT 03/M11 A2998 530 37 -700 250/08G15 RMK AO1 T00281106
54779K12N 12N20160130135010701/30/16 13:50:31  5-MIN K12N 301850Z AUTO 23008KT 03/M11 A2998 530 37 -700 240/08 RMK AO1 SLP163 T00281106
54779K12N 12N20160130135511601/30/16 13:55:31  5-MIN K12N 301855Z AUTO 21008KT 170V240 03/M11 A2998 530 37 -700 220/08 180V250 RMK AO1 T00281106
54779K12N 12N20160130140010001/30/16 14:00:31  5-MIN K12N 301900Z AUTO 22010KT 03/M11 A2998 530 35 -700 230/10 RMK AO1 T00281111
54779K12N 12N20160130140510001/30/16 14:05:31  5-MIN K12N 301905Z AUTO 23009KT 03/M11 A2997 540 37 -700 240/09 RMK AO1 T00281106
54779K12N 12N20160130141010001/30/16 14:10:31  5-MIN K12N 301910Z AUTO 21009KT 03/M11 A2997 540 35 -700 220/09 RMK AO1 T00281111
54779K12N 12N20160130141510001/30/16 14:15:31  5-MIN K12N 301915Z AUTO 22008KT 03/M11 A2997 540 35 -700 230/08 RMK AO1 T00281111
54779K12N 12N20160130142010601/30/16 14:20:31  5-MIN K12N 301920Z AUTO 23009G15KT 03/M11 A2997 530 35 -700 240/09G15 RMK AO1 T00281111
54779K12N 12N20160130142510601/30/16 14:25:31  5-MIN K12N 301925Z AUTO 22009G15KT 03/M11 A2997 530 35 -700 230/09G15 RMK AO1 T00281111
54779K12N 12N20160130143010001/30/16 14:30:31  5-MIN K12N 301930Z AUTO 22010KT 03/M11 A2997 530 37 -700 230/10 RMK AO1 T00281106
54779K12N 12N20160130143510001/30/16 14:35:31  5-MIN K12N 301935Z AUTO 22012KT 03/M12 A2997 540 34 -700 230/12 RMK AO1 T00281117
54779K12N 12N20160130144010001/30/16 14:40:31  5-MIN K12N 301940Z AUTO 23010KT 03/M11 A2997 540 35 -700 250/10 RMK AO1 T00281111
54779K12N 12N20160130144510001/30/16 14:45:31  5-MIN K12N 301945Z AUTO 23009KT 03/M11 A2997 540 35 -700 240/09 RMK AO1 T00281111
54779K12N 12N20160130145011301/30/16 14:50:31  5-MIN K12N 301950Z AUTO 21007G15KT 03/M11 A2997 540 35 -700 230/07G15 RMK AO1 SLP159 T00281111
54779K12N 12N20160130145510001/30/16 14:55:31  5-MIN K12N 301955Z AUTO 22010KT 03/M11 A2997 540 37 -700 240/10 RMK AO1 T00281106
54779K12N 12N20160130150010601/30/16 15:00:31  5-MIN K12N 302000Z AUTO 23009G14KT 03/M11 A2997 540 35 -700 240/09G14 RMK AO1 T00281111
54779K12N 12N20160130150510601/30/16 15:05:31  5-MIN K12N 302005Z AUTO 22008G14KT 03/M11 A2996 540 37 -700 230/08G14 RMK AO1 T00281106
54779K12N 12N20160130151010001/30/16 15:10:31  5-MIN K12N 302010Z AUTO 22007KT 03/M11 A2997 540 37 -700 230/07 RMK AO1 T00281106
54779K12N 12N20160130151510001/30/16 15:15:31  5-MIN K12N 302015Z AUTO 23007KT 03/M11 A2997 540 35 -700 240/07 RMK AO1 T00331106
54779K12N 12N20160130152010001/30/16 15:20:31  5-MIN K12N 302020Z AUTO 22010KT 03/M11 A2997 540 35 -700 230/10 RMK AO1 T00331106
54779K12N 12N20160130152510001/30/16 15:25:31  5-MIN K12N 302025Z AUTO 22006KT 03/M11 A2997 540 37 -700 230/06 RMK AO1 T00281106
54779K12N 12N20160130153010601/30/16 15:30:31  5-MIN K12N 302030Z AUTO 22011G16KT 03/M11 A2997 540 35 -700 230/11G16 RMK AO1 T00331106
54779K12N 12N20160130153510601/30/16 15:35:31  5-MIN K12N 302035Z AUTO 23007G16KT 03/M10 A2997 540 38 -700 240/07G16 RMK AO1 T00281100
54779K12N 12N20160130154010001/30/16 15:40:31  5-MIN K12N 302040Z AUTO 22007KT 03/M11 A2997 540 35 -700 230/07 RMK AO1 T00331106
54779K12N 12N20160130154510001/30/16 15:45:31  5-MIN K12N 302045Z AUTO 21006KT 03/M10 A2996 550 37 -600 230/06 RMK AO1 T00331100
54779K12N 12N20160130155011301/30/16 15:50:31  5-MIN K12N 302050Z AUTO 21006KT 03/M09 A2996 550 40 -700 220/06 RMK AO1 SLP157 T00281094 58016
54779K12N 12N20160130155510001/30/16 15:55:31  5-MIN K12N 302055Z AUTO VRB05KT 03/M09 A2996 550 40 -700 VRB/05 RMK AO1 T00281094
54779K12N 12N20160130160010001/30/16 16:00:31  5-MIN K12N 302100Z AUTO 22008KT 03/M09 A2996 550 40 -700 240/08 RMK AO1 T00281094
54779K12N 12N20160130160510001/30/16 16:05:31  5-MIN K12N 302105Z AUTO VRB05KT 03/M09 A2995 550 40 -700 VRB/05 RMK AO1 T00281094
54779K12N 12N20160130161010001/30/16 16:10:31  5-MIN K12N 302110Z AUTO 21005KT 03/M09 A2995 560 40 -700 220/05 RMK AO1 T00281094
54779K12N 12N20160130161510001/30/16 16:15:31  5-MIN K12N 302115Z AUTO VRB04KT 03/M09 A2994 560 42 -700 VRB/04 RMK AO1 T00281089
54779K12N 12N20160130162010001/30/16 16:20:31  5-MIN K12N 302120Z AUTO VRB05KT 03/M09 A2994 560 40 -600 VRB/05 RMK AO1 T00331089
54779K12N 12N20160130162510001/30/16 16:25:31  5-MIN K12N 302125Z AUTO 21005KT 03/M09 A2994 560 42 -700 220/05 RMK AO1 T00281089
54779K12N 12N20160130163010001/30/16 16:30:31  5-MIN K12N 302130Z AUTO 21007KT 03/M09 A2995 560 42 -700 230/07 RMK AO1 T00281089
54779K12N 12N20160130163510001/30/16 16:35:31  5-MIN K12N 302135Z AUTO VRB05KT 03/M09 A2995 560 42 -700 VRB/05 RMK AO1 T00281089
54779K12N 12N20160130164010001/30/16 16:40:31  5-MIN K12N 302140Z AUTO 20006KT 03/M09 A2995 560 40 -700 210/06 RMK AO1 T00281094
54779K12N 12N20160130164510001/30/16 16:45:31  5-MIN K12N 302145Z AUTO 21006KT 03/M09 A2995 560 40 -700 220/06 RMK AO1 T00281094
54779K12N 12N20160130165010701/30/16 16:50:31  5-MIN K12N 302150Z AUTO 21004KT 02/M09 A2995 560 42 -800 220/04 RMK AO1 SLP153 T00221094
54779K12N 12N20160130165510001/30/16 16:55:31  5-MIN K12N 302155Z AUTO 20007KT 02/M09 A2995 560 42 -800 220/07 RMK AO1 T00221094
54779K12N 12N20160130170010001/30/16 17:00:31  5-MIN K12N 302200Z AUTO 20004KT 02/M09 A2995 560 42 -800 210/04 RMK AO1 T00221094
54779K12N 12N20160130170510001/30/16 17:05:31  5-MIN K12N 302205Z AUTO 19005KT 02/M09 A2995 560 42 -800 210/05 RMK AO1 T00221094
54779K12N 12N20160130171010001/30/16 17:10:31  5-MIN K12N 302210Z AUTO VRB04KT 02/M09 A2995 550 42 -800 VRB/04 RMK AO1 T00221094
54779K12N 12N20160130171510001/30/16 17:15:31  5-MIN K12N 302215Z AUTO 20005KT 02/M09 A2996 550 43 -800 210/05 RMK AO1 T00171094
54779K12N 12N20160130172010001/30/16 17:20:31  5-MIN K12N 302220Z AUTO VRB04KT 02/M09 A2996 550 43 -900 VRB/04 RMK AO1 T00171094
54779K12N 12N20160130172510001/30/16 17:25:31  5-MIN K12N 302225Z AUTO 20003KT 01/M08 A2997 540 49 -900 210/03 RMK AO1 T00111083
54779K12N 12N20160130173010001/30/16 17:30:31  5-MIN K12N 302230Z AUTO VRB03KT 02/M09 A2996 540 45 -900 VRB/03 RMK AO1 T00171089
54779K12N 12N20160130173510001/30/16 17:35:31  5-MIN K12N 302235Z AUTO 20004KT 02/M09 A2997 540 43 -900 220/04 RMK AO1 T00171094
54779K12N 12N20160130174010001/30/16 17:40:31  5-MIN K12N 302240Z AUTO 20004KT 01/M09 A2997 540 47 -900 210/04 RMK AO1 T00111089
54779K12N 12N20160130174510001/30/16 17:45:31  5-MIN K12N 302245Z AUTO 20004KT 02/M09 A2997 540 43 -900 210/04 RMK AO1 T00171094
54779K12N 12N20160130175010701/30/16 17:50:31  5-MIN K12N 302250Z AUTO 21004KT 01/M09 A2997 540 47 -900 220/04 RMK AO1 SLP161 T00111089
54779K12N 12N20160130175510001/30/16 17:55:31  5-MIN K12N 302255Z AUTO 20003KT 01/M09 A2997 540 47 -900 210/03 RMK AO1 T00111089
54779K12N 12N20160130180010101/30/16 18:00:31  5-MIN K12N 302300Z AUTO 19004KT 01/M09 A2997 540 49 -1000 210/04 RMK AO1 T00061089
54779K12N 12N20160130180510001/30/16 18:05:31  5-MIN K12N 302305Z AUTO 20004KT 01/M09 A2997 540 47 -900 220/04 RMK AO1 T00111089
54779K12N 12N20160130181010101/30/16 18:10:31  5-MIN K12N 302310Z AUTO 20004KT 01/M08 A2997 540 51 -1000 210/04 RMK AO1 T00061083
54779K12N 12N20160130181510001/30/16 18:15:31  5-MIN K12N 302315Z AUTO 20004KT 01/M08 A2997 540 49 -900 210/04 RMK AO1 T00111083
54779K12N 12N20160130182010001/30/16 18:20:31  5-MIN K12N 302320Z AUTO 19005KT 01/M09 A2996 540 47 -900 210/05 RMK AO1 T00111089
54779K12N 12N20160130182510001/30/16 18:25:31  5-MIN K12N 302325Z AUTO 21007KT 01/M09 A2997 540 47 -900 220/07 RMK AO1 T00111089
54779K12N 12N20160130183010001/30/16 18:30:31  5-MIN K12N 302330Z AUTO 20005KT 01/M08 A2997 540 49 -900 220/05 RMK AO1 T00111083
54779K12N 12N20160130183510001/30/16 18:35:31  5-MIN K12N 302335Z AUTO 21007KT 01/M08 A2997 540 49 -900 220/07 RMK AO1 T00111083
54779K12N 12N20160130184010001/30/16 18:40:31  5-MIN K12N 302340Z AUTO 20006KT 01/M08 A2997 540 49 -900 210/06 RMK AO1 T00111083
54779K12N 12N20160130184510001/30/16 18:45:31  5-MIN K12N 302345Z AUTO 19006KT 01/M09 A2997 540 47 -900 200/06 RMK AO1 T00111089
54779K12N 12N20160130185012501/30/16 18:50:31  5-MIN K12N 302350Z AUTO VRB05KT 01/M08 A2997 540 49 -900 VRB/05 RMK AO1 SLP161 T00111083 10033 20006 56015
54779K12N 12N20160130185510001/30/16 18:55:31  5-MIN K12N 302355Z AUTO VRB06KT 01/M08 A2997 540 49 -900 VRB/06 RMK AO1 T00111083
54779K12N 12N20160130190010101/30/16 19:00:31  5-MIN K12N 310000Z AUTO 20005KT 01/M08 A2997 540 51 -1000 210/05 RMK AO1 T00061083
54779K12N 12N20160130190510101/30/16 19:05:31  5-MIN K12N 310005Z AUTO 21007KT 01/M08 A2998 530 51 -1000 220/07 RMK AO1 T00061083
54779K12N 12N20160130191010101/30/16 19:10:31  5-MIN K12N 310010Z AUTO 21007KT 01/M08 A2998 530 51 -1000 220/07 RMK AO1 T00061083
54779K12N 12N20160130191510101/30/16 19:15:31  5-MIN K12N 310015Z AUTO 20005KT 01/M08 A2998 530 51 -1000 210/05 RMK AO1 T00061083
54779K12N 12N20160130192010001/30/16 19:20:31  5-MIN K12N 310020Z AUTO 19006KT 01/M08 A2997 540 49 -900 200/06 RMK AO1 T00111083
54779K12N 12N20160130192510001/30/16 19:25:31  5-MIN K12N 310025Z AUTO 19006KT 01/M08 A2997 540 49 -900 210/06 RMK AO1 T00111083
54779K12N 12N20160130193010101/30/16 19:30:31  5-MIN K12N 310030Z AUTO 20005KT 01/M08 A2998 530 51 -1000 210/05 RMK AO1 T00061083
54779K12N 12N20160130193510001/30/16 19:35:31  5-MIN K12N 310035Z AUTO 21008KT 01/M08 A2998 530 49 -900 220/08 RMK AO1 T00111083
54779K12N 12N20160130194010601/30/16 19:40:31  5-MIN K12N 310040Z AUTO 20006G16KT 01/M08 A2998 530 49 -900 210/06G16 RMK AO1 T00111083
54779K12N 12N20160130194510701/30/16 19:45:31  5-MIN K12N 310045Z AUTO 20005G16KT 01/M08 A2998 530 51 -1000 210/05G16 RMK AO1 T00061083
54779K12N 12N20160130195010701/30/16 19:50:31  5-MIN K12N 310050Z AUTO 20005KT 01/M08 A2997 540 49 -900 210/05 RMK AO1 SLP161 T00111083
54779K12N 12N20160130195510001/30/16 19:55:31  5-MIN K12N 310055Z AUTO 20006KT 01/M08 A2997 540 49 -900 220/06 RMK AO1 T00111083
54779K12N 12N20160130200010001/30/16 20:00:31  5-MIN K12N 310100Z AUTO 21007KT 01/M08 A2997 540 49 -900 230/07 RMK AO1 T00111083
54779K12N 12N20160130200510001/30/16 20:05:31  5-MIN K12N 310105Z AUTO 20007KT 01/M08 A2997 540 49 -900 220/07 RMK AO1 T00111083
54779K12N 12N20160130201010001/30/16 20:10:31  5-MIN K12N 310110Z AUTO 20006KT 01/M08 A2996 550 49 -900 210/06 RMK AO1 T00111083
54779K12N 12N20160130201510601/30/16 20:15:31  5-MIN K12N 310115Z AUTO 22009G15KT 01/M08 A2997 540 49 -900 230/09G15 RMK AO1 T00111083
54779K12N 12N20160130202010601/30/16 20:20:31  5-MIN K12N 310120Z AUTO 21006G15KT 01/M08 A2997 540 49 -900 220/06G15 RMK AO1 T00111083
54779K12N 12N20160130202510001/30/16 20:25:31  5-MIN K12N 310125Z AUTO 21009KT 01/M08 A2996 550 51 -900 220/09 RMK AO1 T00111078
54779K12N 12N20160130203010601/30/16 20:30:31  5-MIN K12N 310130Z AUTO 21009G15KT 01/M08 A2996 550 51 -900 220/09G15 RMK AO1 T00111078
54779K12N 12N20160130203510001/30/16 20:35:31  5-MIN K12N 310135Z AUTO 20007KT 01/M08 A2996 550 51 -900 220/07 RMK AO1 T00111078
54779K12N 12N20160130204011601/30/16 20:40:31  5-MIN K12N 310140Z AUTO 21008KT 160V230 01/M08 A2996 550 51 -900 220/08 170V240 RMK AO1 T00111078
54779K12N 12N20160130204510601/30/16 20:45:31  5-MIN K12N 310145Z AUTO 20006G15KT 02/M08 A2996 550 49 -900 220/06G15 RMK AO1 T00171078
54779K12N 12N20160130205011301/30/16 20:50:31  5-MIN K12N 310150Z AUTO 21008G15KT 02/M08 A2996 550 49 -900 220/08G15 RMK AO1 SLP156 T00171078
54779K12N 12N20160130205510001/30/16 20:55:31  5-MIN K12N 310155Z AUTO 21007KT 01/M08 A2996 550 51 -900 230/07 RMK AO1 T00111078
54779K12N 12N20160130210010001/30/16 21:00:31  5-MIN K12N 310200Z AUTO VRB06KT 01/M08 A2996 550 51 -900 VRB/06 RMK AO1 T00111078
54779K12N 12N20160130210510001/30/16 21:05:31  5-MIN K12N 310205Z AUTO 21007KT 01/M08 A2996 550 51 -900 230/07 RMK AO1 T00111078
54779K12N 12N20160130211010001/30/16 21:10:31  5-MIN K12N 310210Z AUTO 22006KT 01/M08 A2997 540 51 -900 230/06 RMK AO1 T00111078
54779K12N 12N20160130211510001/30/16 21:15:31  5-MIN K12N 310215Z AUTO 22006KT 02/M08 A2997 540 49 -900 230/06 RMK AO1 T00171078
54779K12N 12N20160130212010001/30/16 21:20:31  5-MIN K12N 310220Z AUTO 21005KT 01/M08 A2997 540 51 -900 220/05 RMK AO1 T00111078
54779K12N 12N20160130212510001/30/16 21:25:31  5-MIN K12N 310225Z AUTO 22007KT 01/M08 A2997 540 51 -900 230/07 RMK AO1 T00111078
54779K12N 12N20160130213010001/30/16 21:30:31  5-MIN K12N 310230Z AUTO 20005KT 01/M08 A2996 550 51 -900 220/05 RMK AO1 T00111078
54779K12N 12N20160130213510001/30/16 21:35:31  5-MIN K12N 310235Z AUTO 21005KT 01/M08 A2997 540 51 -900 230/05 RMK AO1 T00111078
54779K12N 12N20160130214010001/30/16 21:40:31  5-MIN K12N 310240Z AUTO 22006KT 01/M08 A2997 540 51 -900 230/06 RMK AO1 T00111078
54779K12N 12N20160130214510001/30/16 21:45:31  5-MIN K12N 310245Z AUTO 20005KT 01/M08 A2997 540 51 -900 220/05 RMK AO1 T00111078
54779K12N 12N20160130215011301/30/16 21:50:31  5-MIN K12N 310250Z AUTO 20004KT 01/M08 A2997 540 51 -900 210/04 RMK AO1 SLP159 T00111078 53003
54779K12N 12N20160130215510001/30/16 21:55:31  5-MIN K12N 310255Z AUTO 20005KT 01/M08 A2996 540 51 -900 210/05 RMK AO1 T00111078
54779K12N 12N20160130220010101/30/16 22:00:31  5-MIN K12N 310300Z AUTO 21005KT 01/M07 A2996 550 56 -1000 220/05 RMK AO1 T00061072
54779K12N 12N20160130220510101/30/16 22:05:31  5-MIN K12N 310305Z AUTO VRB05KT 01/M07 A2996 550 56 -1000 VRB/05 RMK AO1 T00061072
54779K12N 12N20160130221010101/30/16 22:10:31  5-MIN K12N 310310Z AUTO 20004KT 01/M07 A2996 550 56 -1000 220/04 RMK AO1 T00061072
54779K12N 12N20160130221510001/30/16 22:15:31  5-MIN K12N 310315Z AUTO 21004KT 01/M07 A2996 550 54 -900 220/04 RMK AO1 T00111072
54779K12N 12N20160130222010101/30/16 22:20:31  5-MIN K12N 310320Z AUTO 20004KT 01/M07 A2996 550 56 -1000 220/04 RMK AO1 T00061072
54779K12N 12N20160130222510101/30/16 22:25:31  5-MIN K12N 310325Z AUTO 20003KT 01/M07 A2996 550 56 -1000 210/03 RMK AO1 T00061072
54779K12N 12N20160130223010001/30/16 22:30:31  5-MIN K12N 310330Z AUTO 20004KT 01/M07 A2996 550 54 -900 220/04 RMK AO1 T00111072
54779K12N 12N20160130223510101/30/16 22:35:31  5-MIN K12N 310335Z AUTO 21006KT 01/M07 A2996 550 56 -1000 220/06 RMK AO1 T00061072
54779K12N 12N20160130224010001/30/16 22:40:31  5-MIN K12N 310340Z AUTO VRB04KT 01/M07 A2996 550 54 -900 VRB/04 RMK AO1 T00111072
54779K12N 12N20160130224510101/30/16 22:45:31  5-MIN K12N 310345Z AUTO 20005KT 01/M07 A2996 550 56 -1000 220/05 RMK AO1 T00061072
54779K12N 12N20160130225010701/30/16 22:50:31  5-MIN K12N 310350Z AUTO 20004KT 01/M07 A2996 550 54 -900 220/04 RMK AO1 SLP156 T00111072
54779K12N 12N20160130225510001/30/16 22:55:31  5-MIN K12N 310355Z AUTO 21005KT 01/M07 A2996 550 54 -900 220/05 RMK AO1 T00111072
54779K12N 12N20160130230010001/30/16 23:00:31  5-MIN K12N 310400Z AUTO VRB05KT 01/M07 A2996 550 56 -900 VRB/05 RMK AO1 T00111067
54779K12N 12N20160130230510001/30/16 23:05:31  5-MIN K12N 310405Z AUTO VRB06KT 01/M07 A2996 550 56 -900 VRB/06 RMK AO1 T00111067
54779K12N 12N20160130231010001/30/16 23:10:31  5-MIN K12N 310410Z AUTO VRB05KT 01/M07 A2995 550 56 -900 VRB/05 RMK AO1 T00111067
54779K12N 12N20160130231510001/30/16 23:15:31  5-MIN K12N 310415Z AUTO 21004KT 01/M07 A2995 550 56 -900 220/04 RMK AO1 T00111067
54779K12N 12N20160130232010101/30/16 23:20:31  5-MIN K12N 310420Z AUTO 20005KT 01/M07 A2995 550 58 -1000 220/05 RMK AO1 T00061067
54779K12N 12N20160130232510101/30/16 23:25:31  5-MIN K12N 310425Z AUTO 21005KT 01/M07 A2996 550 58 -1000 220/05 RMK AO1 T00061067
54779K12N 12N20160130233010101/30/16 23:30:31  5-MIN K12N 310430Z AUTO 22005KT 01/M07 A2996 550 58 -1000 230/05 RMK AO1 T00061067
54779K12N 12N20160130233510101/30/16 23:35:31  5-MIN K12N 310435Z AUTO VRB03KT 01/M07 A2996 550 58 -1000 VRB/03 RMK AO1 T00061067
54779K12N 12N20160130234010001/30/16 23:40:31  5-MIN K12N 310440Z AUTO 21004KT 01/M07 A2996 550 56 -900 220/04 RMK AO1 T00111067
54779K12N 12N20160130234510001/30/16 23:45:31  5-MIN K12N 310445Z AUTO 22005KT 01/M07 A2996 550 56 -900 230/05 RMK AO1 T00111067
54779K12N 12N20160130235011701/30/16 23:50:31  5-MIN K12N 310450Z AUTO 21006KT 01/M07 A2996 550 56 -900 220/06 RMK AO1 SLP155 T00111067 400331078
54779K12N 12N20160130235510101/30/16 23:55:31  5-MIN K12N 310455Z AUTO VRB05KT 01/M07 A2996 550 58 -1000 VRB/05 RMK AO1 T00061067
54779K12N 12N20160131000010101/31/16 00:00:31  5-MIN K12N 310500Z AUTO 20006KT 01/M07 A2995 550 58 -1000 210/06 RMK AO1 T00061067
54779K12N 12N20160131000510101/31/16 00:05:31  5-MIN K12N 310505Z AUTO 20003KT 01/M07 A2995 550 58 -1000 210/03 RMK AO1 T00061067
54779K12N 12N20160131001010101/31/16 00:10:31  5-MIN K12N 310510Z AUTO VRB05KT 01/M07 A2995 560 58 -1000 VRB/05 RMK AO1 T00061067
54779K12N 12N20160131001510101/31/16 00:15:31  5-MIN K12N 310515Z AUTO VRB05KT 01/M07 A2995 560 58 -1000 VRB/05 RMK AO1 T00061067
54779K12N 12N20160131002010101/31/16 00:20:31  5-MIN K12N 310520Z AUTO 21004KT 01/M07 A2995 560 58 -1000 220/04 RMK AO1 T00061067
54779K12N 12N20160131002510101/31/16 00:25:31  5-MIN K12N 310525Z AUTO 21004KT 01/M06 A2995 560 61 -1000 220/04 RMK AO1 T00061061
54779K12N 12N20160131003010101/31/16 00:30:31  5-MIN K12N 310530Z AUTO 21006KT 01/M06 A2995 560 61 -1000 220/06 RMK AO1 T00061061
54779K12N 12N20160131003510101/31/16 00:35:31  5-MIN K12N 310535Z AUTO 21005KT 01/M06 A2995 560 61 -1000 220/05 RMK AO1 T00061061
54779K12N 12N20160131004010101/31/16 00:40:31  5-MIN K12N 310540Z AUTO 21004KT 01/M06 A2995 560 61 -1000 220/04 RMK AO1 T00061061
54779K12N 12N20160131004510101/31/16 00:45:31  5-MIN K12N 310545Z AUTO 20005KT 01/M06 A2995 560 61 -1000 220/05 RMK AO1 T00061061
54779K12N 12N20160131005012601/31/16 00:50:31  5-MIN K12N 310550Z AUTO VRB04KT 01/M06 A2995 560 61 -1000 VRB/04 RMK AO1 SLP152 T00061061 10017 20006 55002
54779K12N 12N20160131005510101/31/16 00:55:31  5-MIN K12N 310555Z AUTO VRB03KT 01/M06 A2995 560 61 -1000 VRB/03 RMK AO1 T00061061
54779K12N 12N20160131010010101/31/16 01:00:31  5-MIN K12N 310600Z AUTO 19004KT 01/M06 A2995 560 61 -1000 200/04 RMK AO1 T00061061
54779K12N 12N20160131010510101/31/16 01:05:31  5-MIN K12N 310605Z AUTO 19004KT 01/M06 A2995 560 61 -1000 210/04 RMK AO1 T00061061
54779K12N 12N20160131011010101/31/16 01:10:31  5-MIN K12N 310610Z AUTO 20003KT 01/M06 A2995 560 61 -1000 210/03 RMK AO1 T00061061
54779K12N 12N20160131011510101/31/16 01:15:31  5-MIN K12N 310615Z AUTO 00000KT 01/M06 A2995 560 61 -1000 000/00 RMK AO1 T00061061
54779K12N 12N20160131012010101/31/16 01:20:31  5-MIN K12N 310620Z AUTO 18003KT 01/M06 A2994 560 61 -1000 200/03 RMK AO1 T00061061
54779K12N 12N20160131012510101/31/16 01:25:31  5-MIN K12N 310625Z AUTO 00000KT 01/M06 A2994 570 61 -1000 000/00 RMK AO1 T00061061
54779K12N 12N20160131013010101/31/16 01:30:31  5-MIN K12N 310630Z AUTO 00000KT 00/M06 A2994 560 63 -1000 000/00 RMK AO1 T00001061
54779K12N 12N20160131013510101/31/16 01:35:31  5-MIN K12N 310635Z AUTO 20003KT 00/M06 A2994 560 66 -1000 220/03 RMK AO1 T00001056
54779K12N 12N20160131014010101/31/16 01:40:31  5-MIN K12N 310640Z AUTO 19003KT 00/M06 A2994 570 63 -1000 200/03 RMK AO1 T00001061
54779K12N 12N20160131014510101/31/16 01:45:31  5-MIN K12N 310645Z AUTO 20003KT 00/M06 A2994 560 63 -1000 210/03 RMK AO1 T00001061
54779K12N 12N20160131015010901/31/16 01:50:31  5-MIN K12N 310650Z AUTO 00000KT M01/M06 A2994 570 69 -1100 000/00 RMK AO1 SLP149 T10061056
54779K12N 12N20160131015510201/31/16 01:55:31  5-MIN K12N 310655Z AUTO 00000KT M01/M06 A2994 560 66 -1100 000/00 RMK AO1 T10061061
54779K12N 12N20160131020010201/31/16 02:00:31  5-MIN K12N 310700Z AUTO 00000KT M01/M06 A2994 560 72 -1200 000/00 RMK AO1 T10111056
54779K12N 12N20160131020510201/31/16 02:05:31  5-MIN K12N 310705Z AUTO 00000KT M01/M06 A2994 560 69 -1200 000/00 RMK AO1 T10111061
54779K12N 12N20160131021010201/31/16 02:10:31  5-MIN K12N 310710Z AUTO 00000KT M02/M06 A2994 570 72 -1200 000/00 RMK AO1 T10171061
54779K12N 12N20160131021510201/31/16 02:15:31  5-MIN K12N 310715Z AUTO 00000KT M02/M06 A2994 570 78 -1300 000/00 RMK AO1 T10221056
54779K12N 12N20160131022010201/31/16 02:20:31  5-MIN K12N 310720Z AUTO 00000KT M02/M06 A2994 570 78 -1300 000/00 RMK AO1 T10221056
54779K12N 12N20160131022510201/31/16 02:25:31  5-MIN K12N 310725Z AUTO 00000KT M02/M06 A2994 570 75 -1200 000/00 RMK AO1 T10171056
54779K12N 12N20160131023010201/31/16 02:30:31  5-MIN K12N 310730Z AUTO 00000KT M02/M06 A2994 570 72 -1200 000/00 RMK AO1 T10171061
54779K12N 12N20160131023510201/31/16 02:35:31  5-MIN K12N 310735Z AUTO 21003KT M02/M06 A2993 570 75 -1300 220/03 RMK AO1 T10221061
54779K12N 12N20160131024010201/31/16 02:40:31  5-MIN K12N 310740Z AUTO 00000KT M02/M06 A2993 570 72 -1200 000/00 RMK AO1 T10171061
54779K12N 12N20160131024510201/31/16 02:45:31  5-MIN K12N 310745Z AUTO 20003KT M02/M06 A2994 570 78 -1300 220/03 RMK AO1 T10221056
54779K12N 12N20160131025010901/31/16 02:50:31  5-MIN K12N 310750Z AUTO 20003KT M02/M06 A2994 570 72 -1200 220/03 RMK AO1 SLP148 T10171061
54779K12N 12N20160131025510201/31/16 02:55:31  5-MIN K12N 310755Z AUTO 00000KT M01/M06 A2994 570 69 -1200 000/00 RMK AO1 T10111061
54779K12N 12N20160131030010201/31/16 03:00:31  5-MIN K12N 310800Z AUTO 00000KT M02/M06 A2994 570 72 -1200 000/00 RMK AO1 T10171061
54779K12N 12N20160131030510201/31/16 03:05:31  5-MIN K12N 310805Z AUTO 19003KT M01/M06 A2993 570 69 -1200 200/03 RMK AO1 T10111061
54779K12N 12N20160131031010201/31/16 03:10:31  5-MIN K12N 310810Z AUTO 00000KT M02/M06 A2993 570 75 -1300 000/00 RMK AO1 T10221061
54779K12N 12N20160131031510201/31/16 03:15:31  5-MIN K12N 310815Z AUTO 00000KT M03/M06 A2993 580 81 -1400 000/00 RMK AO1 T10281056
54779K12N 12N20160131032010201/31/16 03:20:31  5-MIN K12N 310820Z AUTO 00000KT M02/M06 A2993 580 78 -1300 000/00 RMK AO1 T10221056
54779K12N 12N20160131032510201/31/16 03:25:31  5-MIN K12N 310825Z AUTO 00000KT M02/M06 A2993 580 78 -1300 000/00 RMK AO1 T10221056
54779K12N 12N20160131033010201/31/16 03:30:31  5-MIN K12N 310830Z AUTO 00000KT M02/M06 A2993 580 78 -1300 000/00 RMK AO1 T10221056
54779K12N 12N20160131033510201/31/16 03:35:31  5-MIN K12N 310835Z AUTO 00000KT M02/M06 A2992 580 78 -1300 000/00 RMK AO1 T10221056
54779K12N 12N20160131034010201/31/16 03:40:31  5-MIN K12N 310840Z AUTO 00000KT M02/M06 A2992 580 78 -1300 000/00 RMK AO1 T10221056
54779K12N 12N20160131034510201/31/16 03:45:31  5-MIN K12N 310845Z AUTO 00000KT M02/M06 A2992 590 78 -1300 000/00 RMK AO1 T10221056
54779K12N 12N20160131035011501/31/16 03:50:31  5-MIN K12N 310850Z AUTO 00000KT M02/M06 A2992 590 75 -1200 000/00 RMK AO1 SLP141 T10171056 58005
54779K12N 12N20160131035510201/31/16 03:55:31  5-MIN K12N 310855Z AUTO 00000KT M02/M06 A2992 590 78 -1300 000/00 RMK AO1 T10221056
54779K12N 12N20160131040010201/31/16 04:00:31  5-MIN K12N 310900Z AUTO 00000KT M02/M06 A2991 590 78 -1300 000/00 RMK AO1 T10221056
54779K12N 12N20160131040510201/31/16 04:05:31  5-MIN K12N 310905Z AUTO 00000KT M02/M06 A2991 590 75 -1200 000/00 RMK AO1 T10171056
54779K12N 12N20160131041010201/31/16 04:10:31  5-MIN K12N 310910Z AUTO 00000KT M02/M05 A2991 590 81 -1300 000/00 RMK AO1 T10221050
54779K12N 12N20160131041510201/31/16 04:15:31  5-MIN K12N 310915Z AUTO 00000KT M02/M06 A2991 590 75 -1200 000/00 RMK AO1 T10171056
54779K12N 12N20160131042010201/31/16 04:20:31  5-MIN K12N 310920Z AUTO 20003KT M02/M05 A2991 600 78 -1200 210/03 RMK AO1 T10171050
54779K12N 12N20160131042510201/31/16 04:25:31  5-MIN K12N 310925Z AUTO 00000KT M02/M05 A2991 600 78 -1200 000/00 RMK AO1 T10171050
54779K12N 12N20160131043010201/31/16 04:30:31  5-MIN K12N 310930Z AUTO 00000KT M02/M05 A2991 590 78 -1200 000/00 RMK AO1 T10171050
54779K12N 12N20160131043510201/31/16 04:35:31  5-MIN K12N 310935Z AUTO 20003KT M02/M05 A2992 590 78 -1200 220/03 RMK AO1 T10171050
54779K12N 12N20160131044010201/31/16 04:40:31  5-MIN K12N 310940Z AUTO 00000KT M01/M06 A2992 590 72 -1100 000/00 RMK AO1 T10111056
54779K12N 12N20160131044510201/31/16 04:45:31  5-MIN K12N 310945Z AUTO 00000KT M01/M06 A2992 590 72 -1200 000/00 RMK AO1 T10111056
54779K12N 12N20160131045010901/31/16 04:50:31  5-MIN K12N 310950Z AUTO 00000KT M01/M06 A2992 590 72 -1200 000/00 RMK AO1 SLP142 T10111056
54779K12N 12N20160131045510201/31/16 04:55:31  5-MIN K12N 310955Z AUTO 00000KT M01/M06 A2992 590 72 -1200 000/00 RMK AO1 T10111056
54779K12N 12N20160131050010201/31/16 05:00:31  5-MIN K12N 311000Z AUTO 00000KT M02/M05 A2992 580 78 -1200 000/00 RMK AO1 T10171050
54779K12N 12N20160131050510201/31/16 05:05:31  5-MIN K12N 311005Z AUTO 00000KT M01/M05 A2991 590 75 -1100 000/00 RMK AO1 T10111050
54779K12N 12N20160131051010201/31/16 05:10:31  5-MIN K12N 311010Z AUTO 00000KT M02/M05 A2991 590 78 -1200 000/00 RMK AO1 T10171050
54779K12N 12N20160131051510201/31/16 05:15:31  5-MIN K12N 311015Z AUTO 22003KT M02/M05 A2992 590 78 -1200 230/03 RMK AO1 T10171050
54779K12N 12N20160131052010201/31/16 05:20:31  5-MIN K12N 311020Z AUTO 00000KT M01/M05 A2992 580 75 -1200 000/00 RMK AO1 T10111050
54779K12N 12N20160131052510201/31/16 05:25:31  5-MIN K12N 311025Z AUTO 20003KT M01/M05 A2992 580 75 -1200 210/03 RMK AO1 T10111050
54779K12N 12N20160131053010201/31/16 05:30:31  5-MIN K12N 311030Z AUTO VRB03KT M01/M05 A2992 580 72 -1100 VRB/03 RMK AO1 T10061050
54779K12N 12N20160131053510201/31/16 05:35:31  5-MIN K12N 311035Z AUTO 00000KT M01/M05 A2993 580 72 -1100 000/00 RMK AO1 T10061050
54779K12N 12N20160131054010201/31/16 05:40:31  5-MIN K12N 311040Z AUTO 00000KT M01/M05 A2993 580 72 -1100 000/00 RMK AO1 T10061050
54779K12N 12N20160131054510201/31/16 05:45:31  5-MIN K12N 311045Z AUTO 18003KT M01/M05 A2993 580 72 -1100 200/03 RMK AO1 T10061050
54779K12N 12N20160131055010901/31/16 05:50:31  5-MIN K12N 311050Z AUTO 00000KT M01/M06 A2993 580 69 -1100 000/00 RMK AO1 SLP143 T10061056
54779K12N 12N20160131055510201/31/16 05:55:31  5-MIN K12N 311055Z AUTO 00000KT M01/M05 A2993 580 72 -1100 000/00 RMK AO1 T10061050
54779K12N 12N20160131060010201/31/16 06:00:31  5-MIN K12N 311100Z AUTO 00000KT M01/M05 A2993 580 75 -1200 000/00 RMK AO1 T10111050
54779K12N 12N20160131060510201/31/16 06:05:31  5-MIN K12N 311105Z AUTO 00000KT M01/M05 A2993 580 72 -1100 000/00 RMK AO1 T10061050
54779K12N 12N20160131061010201/31/16 06:10:31  5-MIN K12N 311110Z AUTO 20003KT M01/M06 A2993 580 69 -1100 210/03 RMK AO1 T10061056
54779K12N 12N20160131061510201/31/16 06:15:31  5-MIN K12N 311115Z AUTO 20003KT M01/M06 A2992 580 69 -1100 210/03 RMK AO1 T10061056
54779K12N 12N20160131062010201/31/16 06:20:31  5-MIN K12N 311120Z AUTO 21003KT M01/M06 A2993 580 69 -1100 230/03 RMK AO1 T10061056
54779K12N 12N20160131062510201/31/16 06:25:31  5-MIN K12N 311125Z AUTO 00000KT M01/M06 A2993 580 69 -1100 000/00 RMK AO1 T10061056
54779K12N 12N20160131063010201/31/16 06:30:31  5-MIN K12N 311130Z AUTO 00000KT M01/M06 A2993 580 69 -1100 000/00 RMK AO1 T10061056
54779K12N 12N20160131063510101/31/16 06:35:31  5-MIN K12N 311135Z AUTO 00000KT 00/M06 A2993 580 66 -1000 000/00 RMK AO1 T00001056
54779K12N 12N20160131064010101/31/16 06:40:31  5-MIN K12N 311140Z AUTO 00000KT 00/M06 A2993 580 66 -1000 000/00 RMK AO1 T00001056
54779K12N 12N20160131064510201/31/16 06:45:31  5-MIN K12N 311145Z AUTO 00000KT M01/M06 A2993 570 69 -1100 000/00 RMK AO1 T10061056
54779K12N 12N20160131065012601/31/16 06:50:31  5-MIN K12N 311150Z AUTO 19003KT 00/M06 A2993 570 66 -1000 200/03 RMK AO1 SLP147 T00001056 10006 21028 58010
54779K12N 12N20160131065510101/31/16 06:55:31  5-MIN K12N 311155Z AUTO 00000KT 00/M06 A2994 570 66 -1000 000/00 RMK AO1 T00001056
54779K12N 12N20160131070010201/31/16 07:00:31  5-MIN K12N 311200Z AUTO 20003KT M01/M05 A2994 570 72 -1100 210/03 RMK AO1 T10061050
54779K12N 12N20160131070510201/31/16 07:05:31  5-MIN K12N 311205Z AUTO 00000KT M01/M06 A2994 570 69 -1100 000/00 RMK AO1 T10061056
54779K12N 12N20160131071010201/31/16 07:10:31  5-MIN K12N 311210Z AUTO 19003KT M01/M05 A2994 560 75 -1200 210/03 RMK AO1 T10111050
54779K12N 12N20160131071510201/31/16 07:15:31  5-MIN K12N 311215Z AUTO 00000KT M01/M04 A2994 570 78 -1200 000/00 RMK AO1 T10111044
54779K12N 12N20160131072010201/31/16 07:20:31  5-MIN K12N 311220Z AUTO 00000KT M01/M05 A2994 560 72 -1100 000/00 RMK AO1 T10061050
54779K12N 12N20160131072510201/31/16 07:25:31  5-MIN K12N 311225Z AUTO 00000KT M01/M04 A2994 570 75 -1100 000/00 RMK AO1 T10061044
54779K12N 12N20160131073010201/31/16 07:30:31  5-MIN K12N 311230Z AUTO 00000KT M01/M04 A2994 570 78 -1200 000/00 RMK AO1 T10111044
54779K12N 12N20160131073510201/31/16 07:35:31  5-MIN K12N 311235Z AUTO 00000KT M01/M04 A2994 560 78 -1200 000/00 RMK AO1 T10111044
54779K12N 12N20160131074010201/31/16 07:40:31  5-MIN K12N 311240Z AUTO 00000KT M01/M04 A2995 560 75 -1100 000/00 RMK AO1 T10061044
54779K12N 12N20160131074510201/31/16 07:45:31  5-MIN K12N 311245Z AUTO 00000KT M01/M04 A2995 560 75 -1100 000/00 RMK AO1 T10061044
54779K12N 12N20160131075010901/31/16 07:50:31  5-MIN K12N 311250Z AUTO 00000KT M01/M04 A2995 560 75 -1100 000/00 RMK AO1 SLP151 T10061044
54779K12N 12N20160131075510201/31/16 07:55:31  5-MIN K12N 311255Z AUTO 20003KT M01/M04 A2995 560 75 -1100 210/03 RMK AO1 T10061044
54779K12N 12N20160131080010201/31/16 08:00:31  5-MIN K12N 311300Z AUTO 00000KT M01/M04 A2995 560 75 -1100 000/00 RMK AO1 T10061044
54779K12N 12N20160131080510201/31/16 08:05:31  5-MIN K12N 311305Z AUTO 18003KT M01/M04 A2995 560 75 -1100 190/03 RMK AO1 T10061044
54779K12N 12N20160131081010101/31/16 08:10:31  5-MIN K12N 311310Z AUTO 19003KT 01/M05 A2995 560 66 -1000 210/03 RMK AO1 T00061050
54779K12N 12N20160131081510101/31/16 08:15:31  5-MIN K12N 311315Z AUTO 19003KT 01/M04 A2995 560 69 -1000 210/03 RMK AO1 T00061044
54779K12N 12N20160131082010101/31/16 08:20:31  5-MIN K12N 311320Z AUTO VRB03KT 01/M04 A2995 560 69 -1000 VRB/03 RMK AO1 T00061044
54779K12N 12N20160131082510101/31/16 08:25:31  5-MIN K12N 311325Z AUTO 19003KT 01/M05 A2995 560 66 -1000 200/03 RMK AO1 T00061050
54779K12N 12N20160131083010001/31/16 08:30:31  5-MIN K12N 311330Z AUTO 19004KT 01/M05 A2994 560 64 -900 210/04 RMK AO1 T00111050
54779K12N 12N20160131083510001/31/16 08:35:31  5-MIN K12N 311335Z AUTO VRB03KT 01/M05 A2995 560 64 -900 VRB/03 RMK AO1 T00111050
54779K12N 12N20160131084010001/31/16 08:40:31  5-MIN K12N 311340Z AUTO VRB03KT 01/M05 A2995 560 64 -900 VRB/03 RMK AO1 T00111050
54779K12N 12N20160131084510001/31/16 08:45:31  5-MIN K12N 311345Z AUTO 20004KT 01/M05 A2995 560 64 -900 210/04 RMK AO1 T00111050
54779K12N 12N20160131085010701/31/16 08:50:31  5-MIN K12N 311350Z AUTO 20004KT 02/M05 A2995 560 61 -800 210/04 RMK AO1 SLP151 T00171050
54779K12N 12N20160131085510001/31/16 08:55:31  5-MIN K12N 311355Z AUTO 20005KT 02/M05 A2995 560 61 -800 210/05 RMK AO1 T00171050
54779K12N 12N20160131090010001/31/16 09:00:31  5-MIN K12N 311400Z AUTO 20004KT 02/M05 A2995 560 59 -800 210/04 RMK AO1 T00221050
54779K12N 12N20160131090510001/31/16 09:05:31  5-MIN K12N 311405Z AUTO 20004KT 02/M05 A2995 560 59 -800 210/04 RMK AO1 T00221050
54779K12N 12N20160131091010001/31/16 09:10:31  5-MIN K12N 311410Z AUTO 20004KT 02/M05 A2995 560 59 -800 210/04 RMK AO1 T00221050
54779K12N 12N20160131091510001/31/16 09:15:31  5-MIN K12N 311415Z AUTO 21004KT 02/M04 A2995 550 61 -800 220/04 RMK AO1 T00221044
54779K12N 12N20160131092010001/31/16 09:20:31  5-MIN K12N 311420Z AUTO 21005KT 03/M04 A2995 550 59 -700 220/05 RMK AO1 T00281044
54779K12N 12N20160131092510001/31/16 09:25:31  5-MIN K12N 311425Z AUTO 20004KT 03/M04 A2995 560 59 -700 210/04 RMK AO1 T00281044
54779K12N 12N20160131093010001/31/16 09:30:31  5-MIN K12N 311430Z AUTO 20004KT 03/M04 A2995 550 57 -600 210/04 RMK AO1 T00331044
54779K12N 12N20160131093510001/31/16 09:35:31  5-MIN K12N 311435Z AUTO 20006KT 03/M04 A2995 560 57 -600 210/06 RMK AO1 T00331044
54779K12N 12N20160131094010001/31/16 09:40:31  5-MIN K12N 311440Z AUTO VRB05KT 03/M04 A2995 560 57 -600 VRB/05 RMK AO1 T00331044
54779K12N 12N20160131094510001/31/16 09:45:31  5-MIN K12N 311445Z AUTO VRB05KT 04/M04 A2995 560 54 -600 VRB/05 RMK AO1 T00391044
54779K12N 12N20160131095011301/31/16 09:50:31  5-MIN K12N 311450Z AUTO 20005KT 04/M04 A2994 560 54 -600 210/05 RMK AO1 SLP148 T00391044 53006
54779K12N 12N20160131095510001/31/16 09:55:31  5-MIN K12N 311455Z AUTO 21007KT 04/M04 A2994 560 54 -600 230/07 RMK AO1 T00391044
54779K12N 12N20160131100010001/31/16 10:00:31  5-MIN K12N 311500Z AUTO 22008KT 04/M04 A2995 560 54 -600 230/08 RMK AO1 T00391044
54779K12N 12N20160131100510001/31/16 10:05:31  5-MIN K12N 311505Z AUTO 21006KT 04/M04 A2995 560 52 -500 220/06 RMK AO1 T00441044
54779K12N 12N20160131101010001/31/16 10:10:31  5-MIN K12N 311510Z AUTO 21005KT 04/M04 A2994 560 52 -500 220/05 RMK AO1 T00441044
54779K12N 12N20160131101510001/31/16 10:15:31  5-MIN K12N 311515Z AUTO 21007KT 05/M04 A2994 570 50 -400 220/07 RMK AO1 T00501044
54779K12N 12N20160131102010001/31/16 10:20:31  5-MIN K12N 311520Z AUTO 21006KT 05/M04 A2994 570 50 -400 220/06 RMK AO1 T00501044
54779K12N 12N20160131102510001/31/16 10:25:31  5-MIN K12N 311525Z AUTO 21006KT 06/M04 A2993 570 48 -300 230/06 RMK AO1 T00561044
54779K12N 12N20160131103010001/31/16 10:30:31  5-MIN K12N 311530Z AUTO VRB06KT 06/M04 A2993 570 48 -300 VRB/06 RMK AO1 T00561044
54779K12N 12N20160131103510001/31/16 10:35:31  5-MIN K12N 311535Z AUTO 22004KT 06/M04 A2993 570 48 -300 230/04 RMK AO1 T00561044
54779K12N 12N20160131104010001/31/16 10:40:31  5-MIN K12N 311540Z AUTO 21007KT 06/M04 A2994 570 46 -300 230/07 RMK AO1 T00611044
54779K12N 12N20160131104510001/31/16 10:45:31  5-MIN K12N 311545Z AUTO 21006KT 06/M04 A2994 570 48 -300 220/06 RMK AO1 T00561044
54779K12N 12N20160131105010701/31/16 10:50:31  5-MIN K12N 311550Z AUTO VRB04KT 06/M04 A2994 570 46 -300 VRB/04 RMK AO1 SLP146 T00611044
54779K12N 12N20160131105510001/31/16 10:55:31  5-MIN K12N 311555Z AUTO 20005KT 06/M04 A2994 570 48 -300 210/05 RMK AO1 T00611039
54779K12N 12N20160131110010001/31/16 11:00:31  5-MIN K12N 311600Z AUTO VRB05KT 06/M04 A2993 570 46 -300 VRB/05 RMK AO1 T00611044
54779K12N 12N20160131110510001/31/16 11:05:31  5-MIN K12N 311605Z AUTO 21004KT 07/M04 A2993 570 45 -200 220/04 RMK AO1 T00671044
54779K12N 12N20160131111010001/31/16 11:10:31  5-MIN K12N 311610Z AUTO 21007KT 07/M04 A2993 580 45 -200 230/07 RMK AO1 T00671044
54779K12N 12N20160131111510001/31/16 11:15:31  5-MIN K12N 311615Z AUTO 20005KT 07/M04 A2993 580 45 -200 210/05 RMK AO1 T00671044
54779K12N 12N20160131112010001/31/16 11:20:31  5-MIN K12N 311620Z AUTO 20006KT 07/M04 A2993 580 45 -200 220/06 RMK AO1 T00671044
54779K12N 12N20160131112510001/31/16 11:25:31  5-MIN K12N 311625Z AUTO 18005KT 07/M04 A2993 580 43 -100 200/05 RMK AO1 T00721044
54779K12N 12N20160131113010001/31/16 11:30:31  5-MIN K12N 311630Z AUTO 21006KT 08/M04 A2993 580 41 -100 230/06 RMK AO1 T00781044
54779K12N 12N20160131113510001/31/16 11:35:31  5-MIN K12N 311635Z AUTO 21005KT 08/M04 A2993 570 41 -100 230/05 RMK AO1 T00781044
54779K12N 12N20160131114009701/31/16 11:40:31  5-MIN K12N 311640Z AUTO VRB05KT 08/M04 A2993 580 40 0 VRB/05 RMK AO1 T00831044
54779K12N 12N20160131114509701/31/16 11:45:31  5-MIN K12N 311645Z AUTO 20006KT 08/M04 A2992 580 40 0 210/06 RMK AO1 T00831044
54779K12N 12N20160131115010401/31/16 11:50:31  5-MIN K12N 311650Z AUTO 21005KT 08/M04 A2992 590 40 0 220/05 RMK AO1 SLP137 T00831044
54779K12N 12N20160131115509701/31/16 11:55:31  5-MIN K12N 311655Z AUTO VRB05KT 08/M04 A2992 590 42 0 VRB/05 RMK AO1 T00831039
54779K12N 12N20160131120009701/31/16 12:00:31  5-MIN K12N 311700Z AUTO 19006KT 08/M04 A2991 590 40 0 200/06 RMK AO1 T00831044
54779K12N 12N20160131120509701/31/16 12:05:31  5-MIN K12N 311705Z AUTO 21008KT 08/M04 A2991 590 40 0 230/08 RMK AO1 T00831044
54779K12N 12N20160131121009701/31/16 12:10:31  5-MIN K12N 311710Z AUTO 21006KT 09/M04 A2991 590 40 0 220/06 RMK AO1 T00891039
54779K12N 12N20160131121509701/31/16 12:15:31  5-MIN K12N 311715Z AUTO 21006KT 09/M04 A2991 600 38 0 220/06 RMK AO1 T00891044
54779K12N 12N20160131122011501/31/16 12:20:31  5-MIN K12N 311720Z AUTO 21007KT 170V230 09/M04 A2990 600 38 100 220/07 180V240 RMK AO1 T00891044
54779K12N 12N20160131122511501/31/16 12:25:31  5-MIN K12N 311725Z AUTO 20007KT 170V230 09/M04 A2990 610 38 100 220/07 180V240 RMK AO1 T00891044
54779K12N 12N20160131123009901/31/16 12:30:31  5-MIN K12N 311730Z AUTO 20005KT 09/M04 A2989 610 37 100 220/05 RMK AO1 T00941044
54779K12N 12N20160131123509901/31/16 12:35:31  5-MIN K12N 311735Z AUTO 21005KT 09/M04 A2989 610 38 100 220/05 RMK AO1 T00891044
54779K12N 12N20160131124011501/31/16 12:40:31  5-MIN K12N 311740Z AUTO 22007KT 180V250 09/M04 A2989 610 37 100 230/07 190V260 RMK AO1 T00941044
54779K12N 12N20160131124510501/31/16 12:45:31  5-MIN K12N 311745Z AUTO 22012G16KT 09/M04 A2989 610 37 100 230/12G16 RMK AO1 T00941044
54779K12N 12N20160131125013001/31/16 12:50:31  5-MIN K12N 311750Z AUTO 21008G16KT 09/M04 A2989 610 37 100 220/08G16 RMK AO1 SLP129 T00941044 10094 21017 50003
54779K12N 12N20160131125509901/31/16 12:55:31  5-MIN K12N 311755Z AUTO VRB05KT 10/M04 A2989 610 36 200 VRB/05 RMK AO1 T01001044
54779K12N 12N20160131130009901/31/16 13:00:31  5-MIN K12N 311800Z AUTO 21007KT 10/M04 A2989 610 36 200 220/07 RMK AO1 T01001044
54779K12N 12N20160131130509901/31/16 13:05:31  5-MIN K12N 311805Z AUTO 20006KT 10/M04 A2989 610 36 200 210/06 RMK AO1 T01001044
54779K12N 12N20160131131009901/31/16 13:10:31  5-MIN K12N 311810Z AUTO 22006KT 10/M04 A2989 620 37 200 230/06 RMK AO1 T01001039
54779K12N 12N20160131131509901/31/16 13:15:31  5-MIN K12N 311815Z AUTO 20005KT 11/M04 A2988 620 36 300 210/05 RMK AO1 T01061039
54779K12N 12N20160131132009901/31/16 13:20:31  5-MIN K12N 311820Z AUTO 20006KT 11/M04 A2988 620 36 300 210/06 RMK AO1 T01061039
54779K12N 12N20160131132509901/31/16 13:25:31  5-MIN K12N 311825Z AUTO 21005KT 11/M04 A2988 620 34 300 220/05 RMK AO1 T01061044
54779K12N 12N20160131133009901/31/16 13:30:31  5-MIN K12N 311830Z AUTO VRB05KT 11/M04 A2988 630 36 300 VRB/05 RMK AO1 T01061039
54779K12N 12N20160131133509901/31/16 13:35:31  5-MIN K12N 311835Z AUTO 23005KT 11/M04 A2987 630 36 300 240/05 RMK AO1 T01061039
54779K12N 12N20160131134009901/31/16 13:40:31  5-MIN K12N 311840Z AUTO 20003KT 11/M04 A2987 630 34 400 210/03 RMK AO1 T01111039
54779K12N 12N20160131134509901/31/16 13:45:31  5-MIN K12N 311845Z AUTO VRB04KT 11/M04 A2987 640 34 400 VRB/04 RMK AO1 T01111039
54779K12N 12N20160131135010601/31/16 13:50:31  5-MIN K12N 311850Z AUTO 24004KT 12/M04 A2987 640 33 400 250/04 RMK AO1 SLP119 T01171039
54779K12N 12N20160131135509901/31/16 13:55:31  5-MIN K12N 311855Z AUTO VRB04KT 12/M04 A2986 640 33 400 VRB/04 RMK AO1 T01171039
54779K12N 12N20160131140009901/31/16 14:00:31  5-MIN K12N 311900Z AUTO 23005KT 11/M04 A2986 640 33 400 240/05 RMK AO1 T01111044
54779K12N 12N20160131140509901/31/16 14:05:31  5-MIN K12N 311905Z AUTO VRB03KT 12/M04 A2986 640 32 400 VRB/03 RMK AO1 T01171044
54779K12N 12N20160131141009901/31/16 14:10:31  5-MIN K12N 311910Z AUTO VRB04KT 11/M04 A2986 640 33 400 VRB/04 RMK AO1 T01111044
54779K12N 12N20160131141509901/31/16 14:15:31  5-MIN K12N 311915Z AUTO VRB04KT 12/M04 A2985 650 32 400 VRB/04 RMK AO1 T01171044
54779K12N 12N20160131142009901/31/16 14:20:31  5-MIN K12N 311920Z AUTO VRB03KT 12/M04 A2985 650 32 400 VRB/03 RMK AO1 T01171044
54779K12N 12N20160131142509901/31/16 14:25:31  5-MIN K12N 311925Z AUTO VRB03KT 12/M04 A2985 650 31 500 VRB/03 RMK AO1 T01221044
54779K12N 12N20160131143009901/31/16 14:30:31  5-MIN K12N 311930Z AUTO 22004KT 12/M04 A2985 650 33 400 240/04 RMK AO1 T01171039
54779K12N 12N20160131143509901/31/16 14:35:31  5-MIN K12N 311935Z AUTO 00000KT 12/M04 A2985 650 33 500 000/00 RMK AO1 T01171039
54779K12N 12N20160131144009901/31/16 14:40:31  5-MIN K12N 311940Z AUTO 00000KT 12/M04 A2984 660 33 500 000/00 RMK AO1 T01171039
54779K12N 12N20160131144509901/31/16 14:45:31  5-MIN K12N 311945Z AUTO 00000KT 12/M04 A2984 660 33 500 000/00 RMK AO1 T01171039
54779K12N 12N20160131145010601/31/16 14:50:31  5-MIN K12N 311950Z AUTO 00000KT 12/M04 A2984 660 33 500 000/00 RMK AO1 SLP112 T01171039
54779K12N 12N20160131145509901/31/16 14:55:31  5-MIN K12N 311955Z AUTO 00000KT 12/M04 A2984 660 32 500 000/00 RMK AO1 T01221039
54779K12N 12N20160131150009901/31/16 15:00:31  5-MIN K12N 312000Z AUTO 00000KT 13/M04 A2984 660 31 600 000/00 RMK AO1 T01281039
54779K12N 12N20160131150509901/31/16 15:05:31  5-MIN K12N 312005Z AUTO 22003KT 12/M04 A2984 660 32 500 230/03 RMK AO1 T01221039
54779K12N 12N20160131151009901/31/16 15:10:31  5-MIN K12N 312010Z AUTO 23003KT 12/M04 A2984 660 33 500 240/03 RMK AO1 T01171039
54779K12N 12N20160131151509901/31/16 15:15:31  5-MIN K12N 312015Z AUTO 00000KT 12/M04 A2984 660 33 500 000/00 RMK AO1 T01171039
54779K12N 12N20160131152009901/31/16 15:20:31  5-MIN K12N 312020Z AUTO 00000KT 13/M04 A2983 660 31 600 000/00 RMK AO1 T01281039
54779K12N 12N20160131152509901/31/16 15:25:31  5-MIN K12N 312025Z AUTO 20003KT 12/M03 A2983 670 35 500 210/03 RMK AO1 T01171033
54779K12N 12N20160131153009901/31/16 15:30:31  5-MIN K12N 312030Z AUTO 00000KT 12/M03 A2983 670 35 500 000/00 RMK AO1 T01171033
54779K12N 12N20160131153509901/31/16 15:35:31  5-MIN K12N 312035Z AUTO 22004KT 12/M03 A2983 670 35 500 230/04 RMK AO1 T01171033
54779K12N 12N20160131154009901/31/16 15:40:31  5-MIN K12N 312040Z AUTO 22003KT 12/M03 A2983 670 35 500 230/03 RMK AO1 T01171033
54779K12N 12N20160131154509901/31/16 15:45:31  5-MIN K12N 312045Z AUTO 24004KT 12/M03 A2983 670 33 500 260/04 RMK AO1 T01221033
54779K12N 12N20160131155011201/31/16 15:50:31  5-MIN K12N 312050Z AUTO 22004KT 12/M03 A2983 670 35 500 240/04 RMK AO1 SLP106 T01171033 58017
54779K12N 12N20160131155509901/31/16 15:55:31  5-MIN K12N 312055Z AUTO 00000KT 12/M03 A2983 670 35 500 000/00 RMK AO1 T01171033
54779K12N 12N20160131160009901/31/16 16:00:31  5-MIN K12N 312100Z AUTO 00000KT 12/M03 A2983 670 35 500 000/00 RMK AO1 T01171033
54779K12N 12N20160131160509901/31/16 16:05:31  5-MIN K12N 312105Z AUTO 21003KT 11/M03 A2983 670 37 400 230/03 RMK AO1 T01111028
54779K12N 12N20160131161009901/31/16 16:10:31  5-MIN K12N 312110Z AUTO 21003KT 11/M03 A2983 670 37 400 230/03 RMK AO1 T01111028
54779K12N 12N20160131161509901/31/16 16:15:31  5-MIN K12N 312115Z AUTO 00000KT 10/M03 A2983 670 40 300 000/00 RMK AO1 T01001028
54779K12N 12N20160131162009901/31/16 16:20:31  5-MIN K12N 312120Z AUTO 21003KT 10/M02 A2983 670 42 300 220/03 RMK AO1 T01001022
54779K12N 12N20160131162509901/31/16 16:25:31  5-MIN K12N 312125Z AUTO 00000KT 10/M02 A2983 670 42 300 000/00 RMK AO1 T01001022
54779K12N 12N20160131163009901/31/16 16:30:31  5-MIN K12N 312130Z AUTO 00000KT 09/M02 A2983 670 45 100 000/00 RMK AO1 T00891022
54779K12N 12N20160131163509901/31/16 16:35:31  5-MIN K12N 312135Z AUTO 00000KT 08/M02 A2983 670 47 100 000/00 RMK AO1 T00831022
54779K12N 12N20160131164009901/31/16 16:40:31  5-MIN K12N 312140Z AUTO 00000KT 08/M02 A2983 670 47 100 000/00 RMK AO1 T00831022
54779K12N 12N20160131164509701/31/16 16:45:31  5-MIN K12N 312145Z AUTO 00000KT 08/M02 A2983 670 49 0 000/00 RMK AO1 T00781022
54779K12N 12N20160131165010701/31/16 16:50:31  5-MIN K12N 312150Z AUTO 00000KT 07/M02 A2983 670 55 -100 000/00 RMK AO1 SLP108 T00671017
54779K12N 12N20160131165510001/31/16 16:55:31  5-MIN K12N 312155Z AUTO 00000KT 06/M02 A2983 670 59 -200 000/00 RMK AO1 T00561017
54779K12N 12N20160131170010001/31/16 17:00:31  5-MIN K12N 312200Z AUTO 00000KT 05/M01 A2983 670 64 -300 000/00 RMK AO1 T00501011
54779K12N 12N20160131170510001/31/16 17:05:31  5-MIN K12N 312205Z AUTO 00000KT 04/M01 A2982 670 67 -400 000/00 RMK AO1 T00441011
54779K12N 12N20160131171010001/31/16 17:10:31  5-MIN K12N 312210Z AUTO 00000KT 04/M01 A2982 670 67 -400 000/00 RMK AO1 T00441011
54779K12N 12N20160131171510001/31/16 17:15:31  5-MIN K12N 312215Z AUTO 00000KT 04/M01 A2982 680 67 -300 000/00 RMK AO1 T00441011
54779K12N 12N20160131172010001/31/16 17:20:31  5-MIN K12N 312220Z AUTO 00000KT 04/M01 A2982 680 70 -400 000/00 RMK AO1 T00391011
54779K12N 12N20160131172510001/31/16 17:25:31  5-MIN K12N 312225Z AUTO 00000KT 04/M02 A2981 690 67 -400 000/00 RMK AO1 T00391017
54779K12N 12N20160131173010001/31/16 17:30:31  5-MIN K12N 312230Z AUTO 00000KT 03/M01 A2981 690 72 -500 000/00 RMK AO1 T00331011
54779K12N 12N20160131173510001/31/16 17:35:31  5-MIN K12N 312235Z AUTO 00000KT 04/M02 A2981 690 67 -400 000/00 RMK AO1 T00391017
54779K12N 12N20160131174010001/31/16 17:40:31  5-MIN K12N 312240Z AUTO 00000KT 04/M02 A2981 680 67 -400 000/00 RMK AO1 T00391017
54779K12N 12N20160131174510001/31/16 17:45:31  5-MIN K12N 312245Z AUTO 00000KT 03/M02 A2981 680 72 -500 000/00 RMK AO1 T00281017
54779K12N 12N20160131175010701/31/16 17:50:31  5-MIN K12N 312250Z AUTO 00000KT 02/M01 A2981 690 78 -600 000/00 RMK AO1 SLP104 T00221011
54779K12N 12N20160131175510001/31/16 17:55:31  5-MIN K12N 312255Z AUTO 00000KT 02/M01 A2981 690 78 -600 000/00 RMK AO1 T00221011
54779K12N 12N20160131180010001/31/16 18:00:31  5-MIN K12N 312300Z AUTO 00000KT 03/M01 A2981 690 75 -500 000/00 RMK AO1 T00281011
54779K12N 12N20160131180510001/31/16 18:05:31  5-MIN K12N 312305Z AUTO 00000KT 03/M02 A2981 690 72 -500 000/00 RMK AO1 T00281017
54779K12N 12N20160131181010001/31/16 18:10:31  5-MIN K12N 312310Z AUTO 00000KT 02/M02 A2981 690 75 -600 000/00 RMK AO1 T00221017
54779K12N 12N20160131181510001/31/16 18:15:31  5-MIN K12N 312315Z AUTO 00000KT 02/M01 A2981 690 78 -600 000/00 RMK AO1 T00221011
54779K12N 12N20160131182010001/31/16 18:20:31  5-MIN K12N 312320Z AUTO 00000KT 02/M01 A2981 690 78 -600 000/00 RMK AO1 T00221011
54779K12N 12N20160131182510001/31/16 18:25:31  5-MIN K12N 312325Z AUTO 00000KT 02/M02 A2981 690 75 -600 000/00 RMK AO1 T00221017
54779K12N 12N20160131183010001/31/16 18:30:31  5-MIN K12N 312330Z AUTO 00000KT 02/M02 A2981 690 75 -600 000/00 RMK AO1 T00221017
54779K12N 12N20160131183510001/31/16 18:35:31  5-MIN K12N 312335Z AUTO 00000KT 02/M02 A2981 690 75 -600 000/00 RMK AO1 T00221017
54779K12N 12N20160131184010001/31/16 18:40:31  5-MIN K12N 312340Z AUTO 00000KT 01/M02 A2981 690 82 -700 000/00 RMK AO1 T00111017
54779K12N 12N20160131184510001/31/16 18:45:31  5-MIN K12N 312345Z AUTO 00000KT 01/M02 A2981 690 82 -700 000/00 RMK AO1 T00111017
54779K12N 12N20160131185012501/31/16 18:50:31  5-MIN K12N 312350Z AUTO 00000KT 02/M02 A2980 690 78 -700 000/00 RMK AO1 SLP103 T00171017 10128 20011 56021
54779K12N 12N20160131185510001/31/16 18:55:31  5-MIN K12N 312355Z AUTO 22004KT 01/M02 A2981 690 82 -700 230/04 RMK AO1 T00111017
54779K12N 12N20160131190010001/31/16 19:00:31  5-MIN K12N 010000Z AUTO 20003KT 01/M02 A2981 690 82 -700 210/03 RMK AO1 T00111017
54779K12N 12N20160131190510001/31/16 19:05:31  5-MIN K12N 010005Z AUTO 20004KT 02/M02 A2981 680 75 -600 210/04 RMK AO1 T00221017
54779K12N 12N20160131191010001/31/16 19:10:31  5-MIN K12N 010010Z AUTO 20004KT 02/M02 A2982 680 75 -600 210/04 RMK AO1 T00221017
54779K12N 12N20160131191510001/31/16 19:15:31  5-MIN K12N 010015Z AUTO 23004KT 04/M02 A2982 670 64 -400 240/04 RMK AO1 T00441017
54779K12N 12N20160131192010001/31/16 19:20:31  5-MIN K12N 010020Z AUTO 22003KT 05/M02 A2983 670 62 -300 230/03 RMK AO1 T00501017
54779K12N 12N20160131192510001/31/16 19:25:31  5-MIN K12N 010025Z AUTO 19003KT 04/M02 A2982 680 64 -300 200/03 RMK AO1 T00441017
54779K12N 12N20160131193010001/31/16 19:30:31  5-MIN K12N 010030Z AUTO 00000KT 03/M02 A2982 680 70 -500 000/00 RMK AO1 T00331017
54779K12N 12N20160131193510001/31/16 19:35:31  5-MIN K12N 010035Z AUTO 00000KT 03/M02 A2982 680 72 -600 000/00 RMK AO1 T00281017
54779K12N 12N20160131194010001/31/16 19:40:31  5-MIN K12N 010040Z AUTO 00000KT 03/M02 A2982 680 72 -600 000/00 RMK AO1 T00281017
54779K12N 12N20160131194510001/31/16 19:45:31  5-MIN K12N 010045Z AUTO 00000KT 03/M02 A2982 680 72 -500 000/00 RMK AO1 T00281017
54779K12N 12N20160131195010701/31/16 19:50:31  5-MIN K12N 010050Z AUTO 19003KT 02/M02 A2981 690 75 -600 210/03 RMK AO1 SLP105 T00221017
54779K12N 12N20160131195510001/31/16 19:55:31  5-MIN K12N 010055Z AUTO 20003KT 02/M02 A2981 690 75 -600 220/03 RMK AO1 T00221017
54779K12N 12N20160131200010001/31/16 20:00:31  5-MIN K12N 010100Z AUTO 21003KT 02/M02 A2981 690 75 -600 220/03 RMK AO1 T00221017
54779K12N 12N20160131200510001/31/16 20:05:31  5-MIN K12N 010105Z AUTO 22004KT 02/M02 A2981 690 75 -600 230/04 RMK AO1 T00221017
54779K12N 12N20160131201010001/31/16 20:10:31  5-MIN K12N 010110Z AUTO 22004KT 02/M02 A2981 690 78 -700 230/04 RMK AO1 T00171017
54779K12N 12N20160131201510001/31/16 20:15:31  5-MIN K12N 010115Z AUTO 20003KT 01/M02 A2980 690 78 -700 210/03 RMK AO1 T00111022
54779K12N 12N20160131202010001/31/16 20:20:31  5-MIN K12N 010120Z AUTO 22003KT 01/M02 A2980 690 82 -800 240/03 RMK AO1 T00061022
54779K12N 12N20160131202510001/31/16 20:25:31  5-MIN K12N 010125Z AUTO 00000KT 01/M02 A2980 690 78 -700 000/00 RMK AO1 T00111022
54779K12N 12N20160131203010001/31/16 20:30:31  5-MIN K12N 010130Z AUTO 00000KT 01/M02 A2980 700 82 -800 000/00 RMK AO1 T00061022
54779K12N 12N20160131203510001/31/16 20:35:31  5-MIN K12N 010135Z AUTO 00000KT 01/M02 A2980 700 82 -800 000/00 RMK AO1 T00061022
54779K12N 12N20160131204010001/31/16 20:40:31  5-MIN K12N 010140Z AUTO 00000KT 01/M02 A2980 700 82 -800 000/00 RMK AO1 T00061022
54779K12N 12N20160131204510001/31/16 20:45:31  5-MIN K12N 010145Z AUTO 00000KT 01/M02 A2980 700 82 -800 000/00 RMK AO1 T00061022
54779K12N 12N20160131205010701/31/16 20:50:31  5-MIN K12N 010150Z AUTO 00000KT 01/M02 A2980 700 82 -800 000/00 RMK AO1 SLP100 T00061022
54779K12N 12N20160131205510001/31/16 20:55:31  5-MIN K12N 010155Z AUTO 00000KT 01/M02 A2980 700 82 -800 000/00 RMK AO1 T00061022
54779K12N 12N20160131210010001/31/16 21:00:31  5-MIN K12N 010200Z AUTO 00000KT 01/M02 A2980 700 82 -800 000/00 RMK AO1 T00061022
54779K12N 12N20160131210510001/31/16 21:05:31  5-MIN K12N 010205Z AUTO 00000KT 01/M02 A2979 700 82 -800 000/00 RMK AO1 T00061022
54779K12N 12N20160131211010001/31/16 21:10:31  5-MIN K12N 010210Z AUTO 00000KT 01/M02 A2979 700 85 -800 000/00 RMK AO1 T00061017
54779K12N 12N20160131211510001/31/16 21:15:31  5-MIN K12N 010215Z AUTO 00000KT 01/M02 A2979 700 85 -800 000/00 RMK AO1 T00061017
54779K12N 12N20160131212010001/31/16 21:20:31  5-MIN K12N 010220Z AUTO 00000KT 01/M02 A2979 700 82 -800 000/00 RMK AO1 T00061022
54779K12N 12N20160131212510001/31/16 21:25:31  5-MIN K12N 010225Z AUTO 00000KT 01/M02 A2979 710 85 -800 000/00 RMK AO1 T00061017
54779K12N 12N20160131213010001/31/16 21:30:31  5-MIN K12N 010230Z AUTO 00000KT 01/M02 A2979 710 85 -800 000/00 RMK AO1 T00061017
54779K12N 12N20160131213510001/31/16 21:35:31  5-MIN K12N 010235Z AUTO 00000KT 01/M02 A2979 710 85 -800 000/00 RMK AO1 T00061017
54779K12N 12N20160131214010001/31/16 21:40:31  5-MIN K12N 010240Z AUTO 00000KT 01/M02 A2979 710 85 -800 000/00 RMK AO1 T00061017
54779K12N 12N20160131214510001/31/16 21:45:31  5-MIN K12N 010245Z AUTO 00000KT 01/M02 A2978 710 82 -800 000/00 RMK AO1 T00061022
54779K12N 12N20160131215011301/31/16 21:50:31  5-MIN K12N 010250Z AUTO 00000KT 00/M02 A2978 710 85 -900 000/00 RMK AO1 SLP094 T00001022 58008
54779K12N 12N20160131215510001/31/16 21:55:31  5-MIN K12N 010255Z AUTO 00000KT 00/M02 A2978 710 85 -900 000/00 RMK AO1 T00001022
54779K12N 12N20160131220010001/31/16 22:00:31  5-MIN K12N 010300Z AUTO 00000KT 00/M02 A2978 710 85 -900 000/00 RMK AO1 T00001022
54779K12N 12N20160131220510001/31/16 22:05:31  5-MIN K12N 010305Z AUTO 00000KT 01/M02 A2978 720 82 -800 000/00 RMK AO1 T00061022
54779K12N 12N20160131221010001/31/16 22:10:31  5-MIN K12N 010310Z AUTO 00000KT 01/M02 A2978 720 82 -800 000/00 RMK AO1 T00061022
54779K12N 12N20160131221510001/31/16 22:15:31  5-MIN K12N 010315Z AUTO 00000KT 00/M02 A2978 720 88 -900 000/00 RMK AO1 T00001017
54779K12N 12N20160131222010001/31/16 22:20:31  5-MIN K12N 010320Z AUTO 00000KT 00/M02 A2978 720 88 -800 000/00 RMK AO1 T00001017
54779K12N 12N20160131222510001/31/16 22:25:31  5-MIN K12N 010325Z AUTO 00000KT 00/M02 A2978 720 88 -800 000/00 RMK AO1 T00001017
54779K12N 12N20160131223010001/31/16 22:30:31  5-MIN K12N 010330Z AUTO 00000KT 00/M02 A2978 720 88 -900 000/00 RMK AO1 T00001017
54779K12N 12N20160131223510001/31/16 22:35:31  5-MIN K12N 010335Z AUTO 00000KT 00/M02 A2978 720 88 -900 000/00 RMK AO1 T00001017
54779K12N 12N20160131224010001/31/16 22:40:31  5-MIN K12N 010340Z AUTO 00000KT 00/M02 A2978 720 88 -900 000/00 RMK AO1 T00001017
54779K12N 12N20160131224510001/31/16 22:45:31  5-MIN K12N 010345Z AUTO 00000KT 00/M02 A2978 710 88 -900 000/00 RMK AO1 T00001017
54779K12N 12N20160131225010701/31/16 22:50:31  5-MIN K12N 010350Z AUTO 00000KT 00/M02 A2979 710 88 -900 000/00 RMK AO1 SLP095 T00001017
54779K12N 12N20160131225510001/31/16 22:55:31  5-MIN K12N 010355Z AUTO 00000KT 00/M02 A2979 700 88 -900 000/00 RMK AO1 T00001017
54779K12N 12N20160131230010001/31/16 23:00:31  5-MIN K12N 010400Z AUTO 18003KT 00/M02 A2979 700 88 -900 190/03 RMK AO1 T00001017
54779K12N 12N20160131230510001/31/16 23:05:31  5-MIN K12N 010405Z AUTO 18003KT 00/M02 A2979 710 88 -900 190/03 RMK AO1 T00001017
54779K12N 12N20160131231010001/31/16 23:10:31  5-MIN K12N 010410Z AUTO 18004KT 01/M02 A2979 710 85 -800 190/04 RMK AO1 T00061017
54779K12N 12N20160131231510001/31/16 23:15:31  5-MIN K12N 010415Z AUTO 19003KT 01/M01 A2979 710 89 -800 200/03 RMK AO1 T00061011
54779K12N 12N20160131232010001/31/16 23:20:31  5-MIN K12N 010420Z AUTO 00000KT 01/M01 A2979 710 85 -700 000/00 RMK AO1 T00111011
54779K12N 12N20160131232510001/31/16 23:25:31  5-MIN K12N 010425Z AUTO 00000KT 01/M01 A2979 710 85 -700 000/00 RMK AO1 T00111011
54779K12N 12N20160131233010001/31/16 23:30:31  5-MIN K12N 010430Z AUTO 00000KT 02/M01 A2979 710 82 -600 000/00 RMK AO1 T00221006
54779K12N 12N20160131233510001/31/16 23:35:31  5-MIN K12N 010435Z AUTO 00000KT 01/M01 A2979 710 89 -700 000/00 RMK AO1 T00111006
54779K12N 12N20160131234010001/31/16 23:40:31  5-MIN K12N 010440Z AUTO 00000KT 01/M01 A2978 710 85 -700 000/00 RMK AO1 T00111011
54779K12N 12N20160131234510001/31/16 23:45:31  5-MIN K12N 010445Z AUTO 00000KT 01/M01 A2978 710 89 -700 000/00 RMK AO1 T00111006
54779K12N 12N20160131235011701/31/16 23:50:31  5-MIN K12N 010450Z AUTO 00000KT 01/M01 A2978 710 89 -800 000/00 RMK AO1 SLP092 T00061011 401281028
54779K12N 12N20160131235510001/31/16 23:55:31  5-MIN K12N 010455Z AUTO 00000KT 01/M01 A2978 710 85 -700 000/00 RMK AO1 T00111011
