13962KABI ABI20160301000011003/01/16 00:00:31  5-MIN KABI 010600Z 21021G34KT 10SM CLR 17/12 A2987 1840 72 2600 200/21G34 RMK AO2 T01720122
13962KABI ABI20160301000512803/01/16 00:05:31  5-MIN KABI 010605Z 21020G31KT 10SM CLR 17/12 A2987 1840 72 2600 200/20G31 RMK AO2 PK WND 20029/0602 T01720122
13962KABI ABI20160301001012803/01/16 00:10:31  5-MIN KABI 010610Z 21022G30KT 10SM CLR 17/12 A2987 1840 72 2600 200/22G30 RMK AO2 PK WND 19030/0608 T01720122
13962KABI ABI20160301001512803/01/16 00:15:31  5-MIN KABI 010615Z 21022G30KT 10SM CLR 17/12 A2987 1840 72 2600 200/22G30 RMK AO2 PK WND 19030/0608 T01720122
13962KABI ABI20160301002012803/01/16 00:20:31  5-MIN KABI 010620Z 21021G29KT 10SM CLR 17/12 A2987 1840 72 2600 210/21G29 RMK AO2 PK WND 19030/0608 T01720122
13962KABI ABI20160301002512803/01/16 00:25:31  5-MIN KABI 010625Z 21022G30KT 10SM CLR 17/12 A2986 1840 72 2600 200/22G30 RMK AO2 PK WND 19030/0608 T01720122
13962KABI ABI20160301003012803/01/16 00:30:31  5-MIN KABI 010630Z 21019G30KT 10SM CLR 17/12 A2987 1840 72 2600 200/19G30 RMK AO2 PK WND 19030/0608 T01720122
13962KABI ABI20160301003512203/01/16 00:35:31  5-MIN KABI 010635Z 21018KT 10SM CLR 17/12 A2987 1840 72 2600 210/18 RMK AO2 PK WND 19030/0608 T01720122
13962KABI ABI20160301004012803/01/16 00:40:31  5-MIN KABI 010640Z 21020G28KT 10SM CLR 17/12 A2986 1840 72 2600 210/20G28 RMK AO2 PK WND 19030/0608 T01720122
13962KABI ABI20160301004512803/01/16 00:45:31  5-MIN KABI 010645Z 21018G28KT 10SM CLR 17/12 A2986 1850 72 2600 210/18G28 RMK AO2 PK WND 19030/0608 T01720122
13962KABI ABI20160301005013503/01/16 00:50:31  5-MIN KABI 010650Z 21018G27KT 10SM CLR 17/12 A2986 1850 72 2600 210/18G27 RMK AO2 PK WND 19030/0608 SLP092 T01720122
13962KABI ABI20160301005511003/01/16 00:55:31  5-MIN KABI 010655Z 21018G27KT 10SM CLR 17/12 A2987 1840 72 2600 210/18G27 RMK AO2 T01720122
13962KABI ABI20160301010012803/01/16 01:00:31  5-MIN KABI 010700Z 22019G27KT 10SM CLR 17/12 A2986 1840 72 2600 210/19G27 RMK AO2 PK WND 22027/0700 T01720122
13962KABI ABI20160301010512803/01/16 01:05:31  5-MIN KABI 010705Z 22018G27KT 10SM CLR 17/12 A2986 1840 72 2600 210/18G27 RMK AO2 PK WND 22027/0700 T01720122
13962KABI ABI20160301011012803/01/16 01:10:31  5-MIN KABI 010710Z 21019G25KT 10SM CLR 17/12 A2986 1840 72 2600 210/19G25 RMK AO2 PK WND 22027/0700 T01720122
13962KABI ABI20160301011512803/01/16 01:15:31  5-MIN KABI 010715Z 21018G28KT 10SM CLR 17/12 A2986 1850 72 2600 210/18G28 RMK AO2 PK WND 22028/0711 T01720122
13962KABI ABI20160301012012803/01/16 01:20:31  5-MIN KABI 010720Z 22018G28KT 10SM CLR 17/12 A2986 1840 72 2600 210/18G28 RMK AO2 PK WND 22028/0711 T01720122
13962KABI ABI20160301012512803/01/16 01:25:31  5-MIN KABI 010725Z 21016G26KT 10SM CLR 17/12 A2986 1840 72 2600 210/16G26 RMK AO2 PK WND 22028/0711 T01720122
13962KABI ABI20160301013012803/01/16 01:30:31  5-MIN KABI 010730Z 21017G26KT 10SM CLR 17/12 A2986 1840 75 2500 210/17G26 RMK AO2 PK WND 22028/0711 T01670122
13962KABI ABI20160301013512803/01/16 01:35:31  5-MIN KABI 010735Z 21017G23KT 10SM CLR 17/12 A2986 1840 75 2500 210/17G23 RMK AO2 PK WND 22028/0711 T01670122
13962KABI ABI20160301014012803/01/16 01:40:31  5-MIN KABI 010740Z 22018G23KT 10SM CLR 17/12 A2987 1840 75 2500 210/18G23 RMK AO2 PK WND 22028/0711 T01670122
13962KABI ABI20160301014512203/01/16 01:45:31  5-MIN KABI 010745Z 22016KT 10SM CLR 17/12 A2988 1830 75 2500 220/16 RMK AO2 PK WND 22028/0711 T01670122
13962KABI ABI20160301015012903/01/16 01:50:31  5-MIN KABI 010750Z 22016KT 10SM CLR 17/12 A2988 1830 75 2500 220/16 RMK AO2 PK WND 22028/0711 SLP098 T01670122
13962KABI ABI20160301015511003/01/16 01:55:31  5-MIN KABI 010755Z 23015G22KT 10SM CLR 16/12 A2988 1830 77 2400 220/15G22 RMK AO2 T01610122
13962KABI ABI20160301020010403/01/16 02:00:31  5-MIN KABI 010800Z 22012KT 10SM CLR 16/12 A2988 1830 77 2400 220/12 RMK AO2 T01610122
13962KABI ABI20160301020510403/01/16 02:05:31  5-MIN KABI 010805Z 22012KT 10SM CLR 16/12 A2988 1830 77 2400 220/12 RMK AO2 T01610122
13962KABI ABI20160301021011003/01/16 02:10:31  5-MIN KABI 010810Z 22014G21KT 10SM CLR 16/12 A2988 1830 77 2400 220/14G21 RMK AO2 T01610122
13962KABI ABI20160301021511003/01/16 02:15:31  5-MIN KABI 010815Z 22012G21KT 10SM CLR 16/12 A2988 1830 77 2400 210/12G21 RMK AO2 T01610122
13962KABI ABI20160301022011003/01/16 02:20:31  5-MIN KABI 010820Z 22015G20KT 10SM CLR 16/12 A2988 1830 77 2400 210/15G20 RMK AO2 T01610122
13962KABI ABI20160301022510403/01/16 02:25:31  5-MIN KABI 010825Z 22018KT 10SM CLR 16/12 A2988 1830 77 2400 210/18 RMK AO2 T01610122
13962KABI ABI20160301023010403/01/16 02:30:31  5-MIN KABI 010830Z 22015KT 10SM CLR 17/12 A2988 1830 75 2500 220/15 RMK AO2 T01670122
13962KABI ABI20160301023511003/01/16 02:35:31  5-MIN KABI 010835Z 22017G22KT 10SM CLR 17/12 A2988 1830 75 2500 220/17G22 RMK AO2 T01670122
13962KABI ABI20160301024011003/01/16 02:40:31  5-MIN KABI 010840Z 23013G22KT 10SM CLR 17/12 A2988 1830 75 2500 230/13G22 RMK AO2 T01670122
13962KABI ABI20160301024511003/01/16 02:45:31  5-MIN KABI 010845Z 22015G21KT 10SM CLR 17/12 A2987 1830 75 2500 210/15G21 RMK AO2 T01670122
13962KABI ABI20160301025011703/01/16 02:50:31  5-MIN KABI 010850Z 22016KT 10SM CLR 17/12 A2988 1830 75 2500 220/16 RMK AO2 SLP095 T01670122 58006
13962KABI ABI20160301025510403/01/16 02:55:31  5-MIN KABI 010855Z 23013KT 10SM CLR 17/12 A2987 1830 75 2500 220/13 RMK AO2 T01670122
13962KABI ABI20160301030010403/01/16 03:00:31  5-MIN KABI 010900Z 22015KT 10SM CLR 17/12 A2987 1840 75 2500 220/15 RMK AO2 T01670122
13962KABI ABI20160301030510403/01/16 03:05:31  5-MIN KABI 010905Z 23014KT 10SM CLR 17/12 A2987 1840 75 2500 220/14 RMK AO2 T01670122
13962KABI ABI20160301031011003/01/16 03:10:31  5-MIN KABI 010910Z 24013G20KT 10SM CLR 17/12 A2987 1840 75 2500 230/13G20 RMK AO2 T01670122
13962KABI ABI20160301031510403/01/16 03:15:31  5-MIN KABI 010915Z 23015KT 10SM CLR 17/12 A2987 1840 75 2500 230/15 RMK AO2 T01670122
13962KABI ABI20160301032010403/01/16 03:20:31  5-MIN KABI 010920Z 23014KT 10SM CLR 17/12 A2987 1840 75 2500 230/14 RMK AO2 T01670122
13962KABI ABI20160301032510403/01/16 03:25:31  5-MIN KABI 010925Z 23014KT 10SM CLR 17/12 A2987 1840 75 2500 220/14 RMK AO2 T01670122
13962KABI ABI20160301033010403/01/16 03:30:31  5-MIN KABI 010930Z 22016KT 10SM CLR 17/12 A2987 1840 75 2500 220/16 RMK AO2 T01670122
13962KABI ABI20160301033510403/01/16 03:35:31  5-MIN KABI 010935Z 23015KT 10SM CLR 17/12 A2987 1840 75 2500 220/15 RMK AO2 T01670122
13962KABI ABI20160301034011003/01/16 03:40:31  5-MIN KABI 010940Z 23013G21KT 10SM CLR 17/12 A2987 1840 75 2500 220/13G21 RMK AO2 T01670122
13962KABI ABI20160301034510403/01/16 03:45:31  5-MIN KABI 010945Z 23014KT 10SM CLR 17/12 A2987 1840 75 2500 220/14 RMK AO2 T01670122
13962KABI ABI20160301035011103/01/16 03:50:31  5-MIN KABI 010950Z 23015KT 10SM CLR 16/12 A2987 1840 77 2400 220/15 RMK AO2 SLP093 T01610122
13962KABI ABI20160301035510403/01/16 03:55:31  5-MIN KABI 010955Z 23014KT 10SM CLR 16/12 A2987 1840 77 2400 230/14 RMK AO2 T01610122
13962KABI ABI20160301040010403/01/16 04:00:31  5-MIN KABI 011000Z 23014KT 10SM CLR 16/12 A2987 1840 77 2400 230/14 RMK AO2 T01610122
13962KABI ABI20160301040510403/01/16 04:05:31  5-MIN KABI 011005Z 23014KT 10SM CLR 16/12 A2987 1840 77 2400 220/14 RMK AO2 T01610122
13962KABI ABI20160301041010403/01/16 04:10:31  5-MIN KABI 011010Z 23014KT 10SM CLR 16/12 A2987 1840 77 2400 220/14 RMK AO2 T01610122
13962KABI ABI20160301041511003/01/16 04:15:31  5-MIN KABI 011015Z 22014G21KT 10SM CLR 16/12 A2987 1840 77 2400 220/14G21 RMK AO2 T01610122
13962KABI ABI20160301042010403/01/16 04:20:31  5-MIN KABI 011020Z 23015KT 10SM CLR 16/12 A2987 1840 77 2400 220/15 RMK AO2 T01610122
13962KABI ABI20160301042510403/01/16 04:25:31  5-MIN KABI 011025Z 23014KT 10SM CLR 16/12 A2987 1840 77 2400 220/14 RMK AO2 T01610122
13962KABI ABI20160301043010403/01/16 04:30:31  5-MIN KABI 011030Z 23014KT 10SM CLR 16/12 A2987 1840 77 2400 220/14 RMK AO2 T01610122
13962KABI ABI20160301043510403/01/16 04:35:31  5-MIN KABI 011035Z 23013KT 10SM CLR 16/12 A2988 1830 77 2400 230/13 RMK AO2 T01610122
13962KABI ABI20160301044010403/01/16 04:40:31  5-MIN KABI 011040Z 23014KT 10SM CLR 16/12 A2988 1830 77 2400 230/14 RMK AO2 T01610122
13962KABI ABI20160301044510403/01/16 04:45:31  5-MIN KABI 011045Z 23014KT 10SM CLR 16/12 A2988 1830 77 2400 220/14 RMK AO2 T01610122
13962KABI ABI20160301045011103/01/16 04:50:31  5-MIN KABI 011050Z 23014KT 10SM CLR 16/12 A2989 1820 77 2400 230/14 RMK AO2 SLP102 T01610122
13962KABI ABI20160301045511103/01/16 04:55:31  5-MIN KABI 011055Z 24012KT 10SM CLR 16/12 A2991 1800 77 2400 240/12 RMK AO2 PRESRR T01610122
13962KABI ABI20160301050010403/01/16 05:00:31  5-MIN KABI 011100Z 24012KT 10SM CLR 16/12 A2991 1800 77 2400 230/12 RMK AO2 T01610122
13962KABI ABI20160301050511103/01/16 05:05:31  5-MIN KABI 011105Z 27008KT 10SM CLR 16/12 A2993 1780 80 2300 270/08 RMK AO2 PRESRR T01560122
13962KABI ABI20160301051011103/01/16 05:10:31  5-MIN KABI 011110Z 25011KT 10SM CLR 16/12 A2994 1780 77 2300 250/11 RMK AO2 PRESRR T01560117
13962KABI ABI20160301051511103/01/16 05:15:31  5-MIN KABI 011115Z 26008KT 10SM CLR 15/12 A2995 1770 80 2200 260/08 RMK AO2 PRESRR T01500117
13962KABI ABI20160301052011103/01/16 05:20:31  5-MIN KABI 011120Z 28007KT 10SM CLR 15/12 A2996 1760 80 2200 280/07 RMK AO2 PRESRR T01500117
13962KABI ABI20160301052510403/01/16 05:25:31  5-MIN KABI 011125Z 28007KT 10SM CLR 15/11 A2996 1760 77 2200 280/07 RMK AO2 T01500111
13962KABI ABI20160301053011003/01/16 05:30:31  5-MIN KABI 011130Z 29013G17KT 10SM CLR 15/11 A2996 1750 77 2200 290/13G17 RMK AO2 T01500111
13962KABI ABI20160301053512803/01/16 05:35:31  5-MIN KABI 011135Z 31020G26KT 10SM CLR 16/09 A2997 1750 67 2300 310/20G26 RMK AO2 PK WND 31026/1135 T01560094
13962KABI ABI20160301054012803/01/16 05:40:31  5-MIN KABI 011140Z 32023G30KT 10SM CLR 16/08 A2997 1750 59 2300 310/23G30 RMK AO2 PK WND 32030/1139 T01560078
13962KABI ABI20160301054513503/01/16 05:45:31  5-MIN KABI 011145Z 33021G30KT 10SM CLR 15/07 A2998 1740 59 2200 330/21G30 RMK AO2 PK WND 32030/1139 PRESRR T01500072
13962KABI ABI20160301055016003/01/16 05:50:31  5-MIN KABI 011150Z 33022G28KT 10SM CLR 14/06 A2999 1730 59 2000 330/22G28 RMK AO2 PK WND 32030/1139 PRESRR SLP138 T01390061 10172 20139 50002
13962KABI ABI20160301055513503/01/16 05:55:31  5-MIN KABI 011155Z 33022G29KT 10SM CLR 13/05 A3000 1720 57 2000 330/22G29 RMK AO2 PK WND 33029/1153 PRESRR T01330050
13962KABI ABI20160301060013503/01/16 06:00:31  5-MIN KABI 011200Z 34024G31KT 10SM CLR 13/05 A3001 1710 59 1900 340/24G31 RMK AO2 PK WND 33031/1159 PRESRR T01280050
13962KABI ABI20160301060513503/01/16 06:05:31  5-MIN KABI 011205Z 34015G31KT 10SM CLR 13/05 A3002 1700 59 1900 330/15G31 RMK AO2 PK WND 33031/1159 PRESRR T01280050
13962KABI ABI20160301061013503/01/16 06:10:31  5-MIN KABI 011210Z 34019G24KT 10SM CLR 12/04 A3003 1690 59 1800 340/19G24 RMK AO2 PK WND 33031/1159 PRESRR T01220044
13962KABI ABI20160301061512903/01/16 06:15:31  5-MIN KABI 011215Z 34018KT 10SM CLR 12/04 A3004 1690 56 1800 340/18 RMK AO2 PK WND 33031/1159 PRESRR T01220039
13962KABI ABI20160301062012203/01/16 06:20:31  5-MIN KABI 011220Z 35020KT 10SM CLR 12/04 A3004 1680 56 1800 340/20 RMK AO2 PK WND 33031/1159 T01220039
13962KABI ABI20160301062512203/01/16 06:25:31  5-MIN KABI 011225Z 34018KT 10SM CLR 12/04 A3004 1680 58 1700 340/18 RMK AO2 PK WND 33031/1159 T01170039
13962KABI ABI20160301063012203/01/16 06:30:31  5-MIN KABI 011230Z 33019KT 10SM CLR 12/04 A3005 1680 58 1700 330/19 RMK AO2 PK WND 33031/1159 T01170039
13962KABI ABI20160301063512203/01/16 06:35:31  5-MIN KABI 011235Z 35017KT 10SM CLR 12/04 A3005 1670 58 1700 340/17 RMK AO2 PK WND 33031/1159 T01170039
13962KABI ABI20160301064012203/01/16 06:40:31  5-MIN KABI 011240Z 35017KT 10SM CLR 11/03 A3006 1670 58 1600 340/17 RMK AO2 PK WND 33031/1159 T01110033
13962KABI ABI20160301064512203/01/16 06:45:31  5-MIN KABI 011245Z 34015KT 10SM CLR 11/03 A3006 1660 58 1600 340/15 RMK AO2 PK WND 33031/1159 T01110033
13962KABI ABI20160301065012903/01/16 06:50:31  5-MIN KABI 011250Z 35013KT 10SM CLR 11/03 A3006 1660 58 1600 340/13 RMK AO2 PK WND 33031/1159 SLP166 T01110033
13962KABI ABI20160301065510403/01/16 06:55:31  5-MIN KABI 011255Z 34016KT 10SM CLR 11/03 A3007 1660 58 1600 340/16 RMK AO2 T01110033
13962KABI ABI20160301070010403/01/16 07:00:31  5-MIN KABI 011300Z 34016KT 10SM CLR 11/03 A3007 1660 61 1600 340/16 RMK AO2 T01060033
13962KABI ABI20160301070510403/01/16 07:05:31  5-MIN KABI 011305Z 33012KT 10SM CLR 11/03 A3007 1650 61 1600 330/12 RMK AO2 T01060033
13962KABI ABI20160301071010403/01/16 07:10:31  5-MIN KABI 011310Z 35015KT 10SM CLR 11/03 A3008 1650 58 1500 340/15 RMK AO2 T01060028
13962KABI ABI20160301071510403/01/16 07:15:31  5-MIN KABI 011315Z 35015KT 10SM CLR 11/03 A3008 1640 58 1500 340/15 RMK AO2 T01060028
13962KABI ABI20160301072010403/01/16 07:20:31  5-MIN KABI 011320Z 34015KT 10SM CLR 11/03 A3008 1650 58 1500 340/15 RMK AO2 T01060028
13962KABI ABI20160301072510403/01/16 07:25:31  5-MIN KABI 011325Z 33014KT 10SM CLR 11/03 A3008 1640 58 1500 330/14 RMK AO2 T01060028
13962KABI ABI20160301073010403/01/16 07:30:31  5-MIN KABI 011330Z 34015KT 10SM CLR 11/02 A3008 1640 56 1500 340/15 RMK AO2 T01060022
13962KABI ABI20160301073510403/01/16 07:35:31  5-MIN KABI 011335Z 34014KT 10SM CLR 11/02 A3009 1640 56 1500 340/14 RMK AO2 T01060022
13962KABI ABI20160301074010403/01/16 07:40:31  5-MIN KABI 011340Z 34012KT 10SM CLR 11/02 A3009 1630 56 1500 330/12 RMK AO2 T01060022
13962KABI ABI20160301074510403/01/16 07:45:31  5-MIN KABI 011345Z 34011KT 10SM CLR 11/02 A3010 1630 56 1500 340/11 RMK AO2 T01060022
13962KABI ABI20160301075011103/01/16 07:50:31  5-MIN KABI 011350Z 35011KT 10SM CLR 11/02 A3010 1630 56 1500 340/11 RMK AO2 SLP181 T01060022
13962KABI ABI20160301075510403/01/16 07:55:31  5-MIN KABI 011355Z 34013KT 10SM CLR 11/02 A3010 1630 54 1600 340/13 RMK AO2 T01110022
13962KABI ABI20160301080010403/01/16 08:00:31  5-MIN KABI 011400Z 34013KT 10SM CLR 11/02 A3010 1620 54 1600 330/13 RMK AO2 T01110022
13962KABI ABI20160301080510403/01/16 08:05:31  5-MIN KABI 011405Z 34012KT 10SM CLR 11/02 A3011 1620 54 1600 330/12 RMK AO2 T01110022
13962KABI ABI20160301081010403/01/16 08:10:31  5-MIN KABI 011410Z 34013KT 10SM CLR 11/02 A3011 1620 54 1600 340/13 RMK AO2 T01110022
13962KABI ABI20160301081510403/01/16 08:15:31  5-MIN KABI 011415Z 34012KT 10SM CLR 12/02 A3012 1610 52 1600 340/12 RMK AO2 T01170022
13962KABI ABI20160301082011003/01/16 08:20:31  5-MIN KABI 011420Z 34010G18KT 10SM CLR 12/02 A3012 1610 52 1600 340/10G18 RMK AO2 T01170022
13962KABI ABI20160301082510403/01/16 08:25:31  5-MIN KABI 011425Z 34014KT 10SM CLR 12/02 A3012 1610 52 1600 330/14 RMK AO2 T01170022
13962KABI ABI20160301083010403/01/16 08:30:31  5-MIN KABI 011430Z 34013KT 10SM CLR 12/02 A3013 1600 52 1600 340/13 RMK AO2 T01170022
13962KABI ABI20160301083510403/01/16 08:35:31  5-MIN KABI 011435Z 34016KT 10SM CLR 12/02 A3013 1600 50 1700 340/16 RMK AO2 T01220022
13962KABI ABI20160301084010403/01/16 08:40:31  5-MIN KABI 011440Z 35015KT 10SM CLR 12/02 A3012 1600 50 1700 350/15 RMK AO2 T01220022
13962KABI ABI20160301084510403/01/16 08:45:31  5-MIN KABI 011445Z 35013KT 10SM CLR 12/02 A3013 1600 50 1700 340/13 RMK AO2 T01220022
13962KABI ABI20160301085012303/01/16 08:50:31  5-MIN KABI 011450Z 35016G21KT 10SM CLR 12/02 A3013 1600 50 1700 350/16G21 RMK AO2 SLP189 T01220022 53038
13962KABI ABI20160301085510403/01/16 08:55:31  5-MIN KABI 011455Z 35016KT 10SM CLR 13/02 A3013 1600 48 1800 350/16 RMK AO2 T01280022
13962KABI ABI20160301090010403/01/16 09:00:31  5-MIN KABI 011500Z 36018KT 10SM CLR 13/02 A3013 1600 48 1800 360/18 RMK AO2 T01280022
13962KABI ABI20160301090510403/01/16 09:05:31  5-MIN KABI 011505Z 36017KT 10SM CLR 13/02 A3013 1600 46 1700 350/17 RMK AO2 T01280017
13962KABI ABI20160301091010403/01/16 09:10:31  5-MIN KABI 011510Z 35017KT 10SM CLR 13/02 A3013 1600 48 1700 350/17 RMK AO2 T01280022
13962KABI ABI20160301091510403/01/16 09:15:31  5-MIN KABI 011515Z 36017KT 10SM CLR 13/02 A3013 1600 48 1700 350/17 RMK AO2 T01280022
13962KABI ABI20160301092010403/01/16 09:20:31  5-MIN KABI 011520Z 01015KT 10SM CLR 13/02 A3014 1590 46 1700 360/15 RMK AO2 T01280017
13962KABI ABI20160301092510403/01/16 09:25:31  5-MIN KABI 011525Z 36018KT 10SM CLR 13/02 A3014 1590 45 1800 360/18 RMK AO2 T01330017
13962KABI ABI20160301093010403/01/16 09:30:31  5-MIN KABI 011530Z 36013KT 10SM CLR 13/02 A3014 1590 45 1800 360/13 RMK AO2 T01330017
13962KABI ABI20160301093510403/01/16 09:35:31  5-MIN KABI 011535Z 01011KT 10SM CLR 14/02 A3015 1580 45 1900 360/11 RMK AO2 T01390022
13962KABI ABI20160301094011003/01/16 09:40:31  5-MIN KABI 011540Z 36014G20KT 10SM CLR 14/02 A3015 1580 43 1900 360/14G20 RMK AO2 T01390017
13962KABI ABI20160301094511003/01/16 09:45:31  5-MIN KABI 011545Z 36015G21KT 10SM CLR 14/02 A3016 1580 45 1900 360/15G21 RMK AO2 T01390022
13962KABI ABI20160301095011703/01/16 09:50:31  5-MIN KABI 011550Z 36016G21KT 10SM CLR 14/02 A3016 1570 43 1900 360/16G21 RMK AO2 SLP200 T01440022
13962KABI ABI20160301095511003/01/16 09:55:31  5-MIN KABI 011555Z 36019G23KT 10SM CLR 14/02 A3016 1570 41 1900 350/19G23 RMK AO2 T01440017
13962KABI ABI20160301100012803/01/16 10:00:31  5-MIN KABI 011600Z 36019G26KT 10SM CLR 14/02 A3016 1570 41 1900 360/19G26 RMK AO2 PK WND 36026/1559 T01440017
13962KABI ABI20160301100512803/01/16 10:05:31  5-MIN KABI 011605Z 01016G26KT 10SM CLR 14/02 A3017 1570 41 1900 360/16G26 RMK AO2 PK WND 36026/1559 T01440017
13962KABI ABI20160301101012803/01/16 10:10:31  5-MIN KABI 011610Z 01016G23KT 10SM CLR 15/02 A3017 1570 40 2000 010/16G23 RMK AO2 PK WND 36026/1559 T01500017
13962KABI ABI20160301101512803/01/16 10:15:31  5-MIN KABI 011615Z 01018G25KT 10SM CLR 15/02 A3017 1560 40 2000 360/18G25 RMK AO2 PK WND 36026/1559 T01500017
13962KABI ABI20160301102012803/01/16 10:20:31  5-MIN KABI 011620Z 01016G25KT 10SM CLR 15/02 A3017 1560 40 2000 360/16G25 RMK AO2 PK WND 36026/1559 T01500017
13962KABI ABI20160301102512803/01/16 10:25:31  5-MIN KABI 011625Z 36017G23KT 10SM CLR 15/02 A3018 1560 40 2000 360/17G23 RMK AO2 PK WND 36026/1559 T01500017
13962KABI ABI20160301103012803/01/16 10:30:31  5-MIN KABI 011630Z 01015G25KT 10SM CLR 15/01 A3018 1550 38 2000 360/15G25 RMK AO2 PK WND 36026/1559 T01500011
13962KABI ABI20160301103512803/01/16 10:35:31  5-MIN KABI 011635Z 36021G25KT 10SM CLR 16/01 A3018 1550 37 2000 350/21G25 RMK AO2 PK WND 36026/1559 T01560011
13962KABI ABI20160301104012803/01/16 10:40:31  5-MIN KABI 011640Z 01017G24KT 10SM CLR 16/01 A3019 1550 37 2000 360/17G24 RMK AO2 PK WND 36026/1559 T01560011
13962KABI ABI20160301104512203/01/16 10:45:31  5-MIN KABI 011645Z 01018KT 10SM CLR 16/02 A3019 1550 39 2000 010/18 RMK AO2 PK WND 36026/1559 T01560017
13962KABI ABI20160301105013503/01/16 10:50:31  5-MIN KABI 011650Z 36017G27KT 10SM CLR 16/02 A3019 1550 39 2000 360/17G27 RMK AO2 PK WND 36027/1650 SLP209 T01560017
13962KABI ABI20160301105511003/01/16 10:55:31  5-MIN KABI 011655Z 36017G27KT 10SM CLR 16/02 A3019 1540 39 2000 360/17G27 RMK AO2 T01560017
13962KABI ABI20160301110012803/01/16 11:00:31  5-MIN KABI 011700Z 01018G26KT 10SM CLR 16/02 A3019 1540 39 2000 360/18G26 RMK AO2 PK WND 36026/1700 T01560017
13962KABI ABI20160301110512803/01/16 11:05:31  5-MIN KABI 011705Z 02018G26KT 10SM CLR 16/01 A3019 1540 37 2000 010/18G26 RMK AO2 PK WND 36026/1700 T01560011
13962KABI ABI20160301111012803/01/16 11:10:31  5-MIN KABI 011710Z 36021G28KT 10SM CLR 16/02 A3020 1540 37 2100 360/21G28 RMK AO2 PK WND 01028/1710 T01610017
13962KABI ABI20160301111512803/01/16 11:15:31  5-MIN KABI 011715Z 01019G28KT 10SM CLR 16/01 A3019 1540 37 2000 010/19G28 RMK AO2 PK WND 01028/1710 T01560011
13962KABI ABI20160301112012803/01/16 11:20:31  5-MIN KABI 011720Z 36021G27KT 10SM CLR 16/01 A3019 1540 36 2100 360/21G27 RMK AO2 PK WND 01028/1710 T01610011
13962KABI ABI20160301112512803/01/16 11:25:31  5-MIN KABI 011725Z 01014G27KT 10SM CLR 16/01 A3020 1540 36 2100 010/14G27 RMK AO2 PK WND 01028/1710 T01610011
13962KABI ABI20160301113012803/01/16 11:30:31  5-MIN KABI 011730Z 36018G25KT 10SM CLR 16/02 A3020 1540 37 2100 360/18G25 RMK AO2 PK WND 01028/1710 T01610017
13962KABI ABI20160301113512803/01/16 11:35:31  5-MIN KABI 011735Z 01015G27KT 10SM CLR 16/01 A3020 1530 36 2100 360/15G27 RMK AO2 PK WND 01028/1710 T01610011
13962KABI ABI20160301114012803/01/16 11:40:31  5-MIN KABI 011740Z 02015G27KT 10SM CLR 16/01 A3020 1530 36 2100 020/15G27 RMK AO2 PK WND 01028/1710 T01610011
13962KABI ABI20160301114512803/01/16 11:45:31  5-MIN KABI 011745Z 01019G27KT 10SM CLR 17/01 A3020 1530 34 2100 360/19G27 RMK AO2 PK WND 01028/1710 T01670011
13962KABI ABI20160301115015303/01/16 11:50:31  5-MIN KABI 011750Z 36016G27KT 10SM CLR 17/01 A3021 1530 34 2100 360/16G27 RMK AO2 PK WND 01028/1710 SLP214 T01670011 10167 20106 51043
13962KABI ABI20160301115512803/01/16 11:55:31  5-MIN KABI 011755Z 36021G27KT 10SM CLR 17/02 A3021 1530 36 2100 350/21G27 RMK AO2 PK WND 35027/1755 T01670017
13962KABI ABI20160301120012803/01/16 12:00:31  5-MIN KABI 011800Z 36018G27KT 10SM CLR 17/02 A3021 1530 36 2100 350/18G27 RMK AO2 PK WND 35027/1755 T01670017
13962KABI ABI20160301120512803/01/16 12:05:31  5-MIN KABI 011805Z 01016G27KT 10SM CLR 17/01 A3021 1530 33 2200 360/16G27 RMK AO2 PK WND 35027/1755 T01720011
13962KABI ABI20160301121012803/01/16 12:10:31  5-MIN KABI 011810Z 36017G27KT 10SM CLR 16/02 A3021 1530 37 2100 360/17G27 RMK AO2 PK WND 35027/1755 T01610017
13962KABI ABI20160301121512803/01/16 12:15:31  5-MIN KABI 011815Z 36021G26KT 10SM CLR 17/02 A3021 1530 36 2100 360/21G26 RMK AO2 PK WND 35027/1755 T01670017
13962KABI ABI20160301122012803/01/16 12:20:31  5-MIN KABI 011820Z 36020G26KT 10SM CLR 17/01 A3021 1530 34 2100 360/20G26 RMK AO2 PK WND 35027/1755 T01670011
13962KABI ABI20160301122512203/01/16 12:25:31  5-MIN KABI 011825Z 01020KT 10SM CLR 17/01 A3021 1530 33 2100 360/20 RMK AO2 PK WND 35027/1755 T01670006
13962KABI ABI20160301123012203/01/16 12:30:31  5-MIN KABI 011830Z 01018KT 10SM CLR 17/01 A3021 1530 33 2100 010/18 RMK AO2 PK WND 35027/1755 T01670006
13962KABI ABI20160301123512803/01/16 12:35:31  5-MIN KABI 011835Z 36017G25KT 10SM CLR 17/01 A3021 1530 33 2200 350/17G25 RMK AO2 PK WND 35027/1755 T01720011
13962KABI ABI20160301124012803/01/16 12:40:31  5-MIN KABI 011840Z 01020G28KT 10SM CLR 17/01 A3021 1530 33 2200 360/20G28 RMK AO2 PK WND 36028/1838 T01720011
13962KABI ABI20160301124512803/01/16 12:45:31  5-MIN KABI 011845Z 01018G28KT 10SM CLR 17/01 A3020 1530 33 2100 360/18G28 RMK AO2 PK WND 36028/1838 T01670006
13962KABI ABI20160301125013503/01/16 12:50:31  5-MIN KABI 011850Z 36017G24KT 10SM CLR 17/01 A3021 1530 32 2200 360/17G24 RMK AO2 PK WND 36028/1838 SLP214 T01720006
13962KABI ABI20160301125511003/01/16 12:55:31  5-MIN KABI 011855Z 36016G24KT 10SM CLR 17/01 A3021 1530 32 2200 350/16G24 RMK AO2 T01720006
13962KABI ABI20160301130012803/01/16 13:00:31  5-MIN KABI 011900Z 36016G26KT 10SM CLR 17/00 A3020 1530 31 2200 360/16G26 RMK AO2 PK WND 35026/1856 T01720000
13962KABI ABI20160301130512803/01/16 13:05:31  5-MIN KABI 011905Z 01015G26KT 10SM CLR 18/00 A3020 1530 30 2300 360/15G26 RMK AO2 PK WND 35026/1856 T01780000
13962KABI ABI20160301131012903/01/16 13:10:31  5-MIN KABI 011910Z 01016G23KT 10SM CLR 18/M01 A3020 1530 28 2300 010/16G23 RMK AO2 PK WND 35026/1856 T01781006
13962KABI ABI20160301131512903/01/16 13:15:31  5-MIN KABI 011915Z 36018G23KT 10SM CLR 18/M01 A3020 1540 28 2300 360/18G23 RMK AO2 PK WND 35026/1856 T01781006
13962KABI ABI20160301132012803/01/16 13:20:31  5-MIN KABI 011920Z 02010G23KT 10SM CLR 18/00 A3020 1540 30 2300 010/10G23 RMK AO2 PK WND 35026/1856 T01780000
13962KABI ABI20160301132512803/01/16 13:25:31  5-MIN KABI 011925Z 01012G23KT 10SM CLR 18/00 A3020 1540 29 2300 010/12G23 RMK AO2 PK WND 35026/1856 T01830000
13962KABI ABI20160301133012803/01/16 13:30:31  5-MIN KABI 011930Z 36019G23KT 10SM CLR 18/00 A3020 1540 29 2300 360/19G23 RMK AO2 PK WND 35026/1856 T01830000
13962KABI ABI20160301133512903/01/16 13:35:31  5-MIN KABI 011935Z 02011G23KT 10SM CLR 18/M01 A3020 1530 27 2300 010/11G23 RMK AO2 PK WND 35026/1856 T01781011
13962KABI ABI20160301134012903/01/16 13:40:31  5-MIN KABI 011940Z 01014G20KT 10SM CLR 18/M01 A3020 1530 26 2300 010/14G20 RMK AO2 PK WND 35026/1856 T01831011
13962KABI ABI20160301134512903/01/16 13:45:31  5-MIN KABI 011945Z 01016G21KT 10SM CLR 18/M02 A3020 1530 25 2300 360/16G21 RMK AO2 PK WND 35026/1856 T01831017
13962KABI ABI20160301135013603/01/16 13:50:31  5-MIN KABI 011950Z 01012G21KT 10SM CLR 18/M02 A3020 1530 24 2300 010/12G21 RMK AO2 PK WND 35026/1856 SLP212 T01831022
13962KABI ABI20160301135511103/01/16 13:55:31  5-MIN KABI 011955Z 36016G21KT 10SM CLR 18/M02 A3020 1540 25 2300 360/16G21 RMK AO2 T01831017
13962KABI ABI20160301140011103/01/16 14:00:31  5-MIN KABI 012000Z 36018G23KT 10SM CLR 18/M02 A3019 1540 24 2300 360/18G23 RMK AO2 T01831022
13962KABI ABI20160301140511103/01/16 14:05:31  5-MIN KABI 012005Z 04012G23KT 10SM CLR 18/M02 A3019 1540 24 2300 030/12G23 RMK AO2 T01831022
13962KABI ABI20160301141011103/01/16 14:10:31  5-MIN KABI 012010Z 02012G19KT 10SM CLR 18/M02 A3019 1540 24 2300 020/12G19 RMK AO2 T01831022
13962KABI ABI20160301141511103/01/16 14:15:31  5-MIN KABI 012015Z 01015G19KT 10SM CLR 18/M03 A3019 1550 23 2300 360/15G19 RMK AO2 T01831028
13962KABI ABI20160301142011103/01/16 14:20:31  5-MIN KABI 012020Z 02012G22KT 10SM CLR 18/M02 A3019 1550 24 2300 010/12G22 RMK AO2 T01831022
13962KABI ABI20160301142511103/01/16 14:25:31  5-MIN KABI 012025Z 01014G22KT 10SM CLR 18/M02 A3018 1550 24 2300 010/14G22 RMK AO2 T01831022
13962KABI ABI20160301143011103/01/16 14:30:31  5-MIN KABI 012030Z 02013G20KT 10SM CLR 18/M03 A3018 1550 23 2300 010/13G20 RMK AO2 T01831028
13962KABI ABI20160301143511103/01/16 14:35:31  5-MIN KABI 012035Z 03015G20KT 10SM CLR 18/M03 A3018 1550 22 2300 030/15G20 RMK AO2 T01831033
13962KABI ABI20160301144011103/01/16 14:40:31  5-MIN KABI 012040Z 03012G20KT 10SM CLR 18/M03 A3018 1560 23 2300 030/12G20 RMK AO2 T01831028
13962KABI ABI20160301144511103/01/16 14:45:31  5-MIN KABI 012045Z 04014G20KT 10SM CLR 18/M03 A3018 1560 22 2300 030/14G20 RMK AO2 T01831033
13962KABI ABI20160301145012403/01/16 14:50:31  5-MIN KABI 012050Z 04011G20KT 10SM CLR 18/M03 A3018 1560 22 2300 040/11G20 RMK AO2 SLP203 T01831033 51026
13962KABI ABI20160301145511103/01/16 14:55:31  5-MIN KABI 012055Z 03010G18KT 10SM CLR 19/M02 A3018 1560 23 2400 030/10G18 RMK AO2 T01891022
13962KABI ABI20160301150011103/01/16 15:00:31  5-MIN KABI 012100Z 02009G18KT 10SM CLR 18/M03 A3017 1560 23 2300 010/09G18 RMK AO2 T01831028
13962KABI ABI20160301150511103/01/16 15:05:31  5-MIN KABI 012105Z 03014G19KT 10SM CLR 18/M03 A3017 1560 23 2300 030/14G19 RMK AO2 T01831028
13962KABI ABI20160301151011103/01/16 15:10:31  5-MIN KABI 012110Z 02012G19KT 10SM CLR 18/M03 A3017 1560 23 2300 020/12G19 RMK AO2 T01831028
13962KABI ABI20160301151511103/01/16 15:15:31  5-MIN KABI 012115Z 02010G19KT 10SM CLR 19/M03 A3017 1560 22 2400 020/10G19 RMK AO2 T01891028
13962KABI ABI20160301152011103/01/16 15:20:31  5-MIN KABI 012120Z 01016G23KT 10SM CLR 18/M03 A3017 1560 22 2400 360/16G23 RMK AO2 T01831033
13962KABI ABI20160301152511103/01/16 15:25:31  5-MIN KABI 012125Z 01012G23KT 10SM CLR 18/M04 A3017 1560 21 2400 010/12G23 RMK AO2 T01831039
13962KABI ABI20160301153010503/01/16 15:30:31  5-MIN KABI 012130Z 01012KT 10SM CLR 18/M03 A3017 1560 22 2400 360/12 RMK AO2 T01831033
13962KABI ABI20160301153511103/01/16 15:35:31  5-MIN KABI 012135Z 01012G18KT 10SM CLR 19/M03 A3017 1560 22 2400 360/12G18 RMK AO2 T01891033
13962KABI ABI20160301154011103/01/16 15:40:31  5-MIN KABI 012140Z 02010G17KT 10SM CLR 18/M03 A3017 1560 23 2300 020/10G17 RMK AO2 T01831028
13962KABI ABI20160301154511103/01/16 15:45:31  5-MIN KABI 012145Z 02011G17KT 10SM CLR 18/M03 A3017 1560 22 2400 010/11G17 RMK AO2 T01831033
13962KABI ABI20160301155011203/01/16 15:50:31  5-MIN KABI 012150Z 02007KT 10SM CLR 18/M03 A3017 1560 23 2400 020/07 RMK AO2 SLP201 T01831028
13962KABI ABI20160301155511103/01/16 15:55:31  5-MIN KABI 012155Z 02010G18KT 10SM CLR 18/M03 A3017 1560 23 2300 020/10G18 RMK AO2 T01831028
13962KABI ABI20160301160011103/01/16 16:00:31  5-MIN KABI 012200Z 03009G18KT 10SM CLR 18/M03 A3017 1560 22 2300 020/09G18 RMK AO2 T01831033
13962KABI ABI20160301160510503/01/16 16:05:31  5-MIN KABI 012205Z 01011KT 10SM CLR 18/M03 A3017 1560 23 2400 010/11 RMK AO2 T01831028
13962KABI ABI20160301161011103/01/16 16:10:31  5-MIN KABI 012210Z 04012G19KT 10SM CLR 18/M03 A3017 1560 23 2400 040/12G19 RMK AO2 T01831028
13962KABI ABI20160301161511103/01/16 16:15:31  5-MIN KABI 012215Z 06010G19KT 10SM CLR 18/M03 A3017 1560 23 2400 050/10G19 RMK AO2 T01831028
13962KABI ABI20160301162011103/01/16 16:20:31  5-MIN KABI 012220Z 04014G17KT 10SM CLR 18/M03 A3017 1560 22 2400 040/14G17 RMK AO2 T01831033
13962KABI ABI20160301162511103/01/16 16:25:31  5-MIN KABI 012225Z 03010G17KT 10SM CLR 18/M03 A3017 1570 22 2400 020/10G17 RMK AO2 T01831033
13962KABI ABI20160301163010503/01/16 16:30:31  5-MIN KABI 012230Z 04009KT 10SM CLR 18/M03 A3016 1570 22 2400 030/09 RMK AO2 T01831033
13962KABI ABI20160301163511103/01/16 16:35:31  5-MIN KABI 012235Z 03013G18KT 10SM CLR 18/M04 A3016 1570 21 2400 020/13G18 RMK AO2 T01831039
13962KABI ABI20160301164011103/01/16 16:40:31  5-MIN KABI 012240Z 05013G18KT 10SM CLR 18/M05 A3016 1570 20 2300 050/13G18 RMK AO2 T01781050
13962KABI ABI20160301164510503/01/16 16:45:31  5-MIN KABI 012245Z 05011KT 10SM CLR 18/M04 A3016 1570 21 2300 050/11 RMK AO2 T01781044
13962KABI ABI20160301165011203/01/16 16:50:31  5-MIN KABI 012250Z 03011KT 10SM CLR 18/M04 A3016 1570 21 2300 030/11 RMK AO2 SLP199 T01781044
13962KABI ABI20160301165510503/01/16 16:55:31  5-MIN KABI 012255Z 04011KT 10SM CLR 18/M05 A3016 1570 20 2300 030/11 RMK AO2 T01781050
13962KABI ABI20160301170010503/01/16 17:00:31  5-MIN KABI 012300Z 02011KT 10SM CLR 18/M04 A3017 1570 21 2300 010/11 RMK AO2 T01781044
13962KABI ABI20160301170511103/01/16 17:05:31  5-MIN KABI 012305Z 04008G16KT 10SM CLR 18/M04 A3017 1570 22 2300 040/08G16 RMK AO2 T01781039
13962KABI ABI20160301171010503/01/16 17:10:31  5-MIN KABI 012310Z 03007KT 10SM CLR 18/M04 A3017 1560 22 2300 020/07 RMK AO2 T01781039
13962KABI ABI20160301171510503/01/16 17:15:31  5-MIN KABI 012315Z 03009KT 10SM CLR 17/M04 A3017 1560 22 2200 020/09 RMK AO2 T01721044
13962KABI ABI20160301172010503/01/16 17:20:31  5-MIN KABI 012320Z 04008KT 10SM CLR 17/M04 A3018 1560 23 2200 040/08 RMK AO2 T01671044
13962KABI ABI20160301172510503/01/16 17:25:31  5-MIN KABI 012325Z 05009KT 10SM CLR 17/M04 A3018 1560 23 2200 050/09 RMK AO2 T01671044
13962KABI ABI20160301173010503/01/16 17:30:31  5-MIN KABI 012330Z 06010KT 10SM CLR 17/M04 A3018 1560 23 2200 050/10 RMK AO2 T01721039
13962KABI ABI20160301173510503/01/16 17:35:31  5-MIN KABI 012335Z 05006KT 10SM CLR 17/M04 A3018 1550 23 2200 050/06 RMK AO2 T01721039
13962KABI ABI20160301174010503/01/16 17:40:31  5-MIN KABI 012340Z 04008KT 10SM CLR 17/M03 A3018 1550 24 2200 030/08 RMK AO2 T01721033
13962KABI ABI20160301174510503/01/16 17:45:31  5-MIN KABI 012345Z 03009KT 10SM CLR 17/M04 A3019 1550 23 2100 020/09 RMK AO2 T01671044
13962KABI ABI20160301175013003/01/16 17:50:31  5-MIN KABI 012350Z 04009KT 10SM CLR 17/M04 A3019 1550 23 2100 030/09 RMK AO2 SLP210 T01671044 10189 20161 58010
13962KABI ABI20160301175510503/01/16 17:55:31  5-MIN KABI 012355Z 04008KT 10SM CLR 17/M06 A3019 1550 21 2100 040/08 RMK AO2 T01671056
13962KABI ABI20160301180010503/01/16 18:00:31  5-MIN KABI 020000Z 04008KT 10SM CLR 17/M06 A3019 1540 21 2100 040/08 RMK AO2 T01671056
13962KABI ABI20160301180510503/01/16 18:05:31  5-MIN KABI 020005Z 04008KT 10SM CLR 17/M05 A3019 1540 22 2100 030/08 RMK AO2 T01671050
13962KABI ABI20160301181010503/01/16 18:10:31  5-MIN KABI 020010Z 04008KT 10SM CLR 16/M06 A3020 1540 22 2100 030/08 RMK AO2 T01611056
13962KABI ABI20160301181510503/01/16 18:15:31  5-MIN KABI 020015Z 04007KT 10SM CLR 16/M06 A3020 1540 22 2100 040/07 RMK AO2 T01611056
13962KABI ABI20160301182010503/01/16 18:20:31  5-MIN KABI 020020Z 05006KT 10SM CLR 16/M06 A3019 1540 22 2100 040/06 RMK AO2 T01611056
13962KABI ABI20160301182510503/01/16 18:25:31  5-MIN KABI 020025Z 06006KT 10SM CLR 16/M05 A3019 1540 24 2000 050/06 RMK AO2 T01561050
13962KABI ABI20160301183010503/01/16 18:30:31  5-MIN KABI 020030Z 06005KT 10SM CLR 15/M05 A3019 1550 24 1900 060/05 RMK AO2 T01501050
13962KABI ABI20160301183510503/01/16 18:35:31  5-MIN KABI 020035Z 06005KT 10SM CLR 15/M04 A3019 1550 25 1900 060/05 RMK AO2 T01501044
13962KABI ABI20160301184010503/01/16 18:40:31  5-MIN KABI 020040Z 05006KT 10SM CLR 14/M04 A3019 1540 26 1900 040/06 RMK AO2 T01441044
13962KABI ABI20160301184510503/01/16 18:45:31  5-MIN KABI 020045Z 05006KT 10SM CLR 14/M04 A3019 1540 26 1900 040/06 RMK AO2 T01441044
13962KABI ABI20160301185011203/01/16 18:50:31  5-MIN KABI 020050Z 06007KT 10SM CLR 14/M04 A3019 1540 26 1900 050/07 RMK AO2 SLP215 T01441044
13962KABI ABI20160301185510503/01/16 18:55:31  5-MIN KABI 020055Z 06005KT 10SM CLR 14/M04 A3020 1540 26 1900 050/05 RMK AO2 T01441044
13962KABI ABI20160301190010503/01/16 19:00:31  5-MIN KABI 020100Z 06005KT 10SM CLR 14/M04 A3019 1540 27 1800 060/05 RMK AO2 T01391044
13962KABI ABI20160301190510503/01/16 19:05:31  5-MIN KABI 020105Z 05005KT 10SM CLR 14/M04 A3020 1540 27 1800 050/05 RMK AO2 T01391044
13962KABI ABI20160301191010503/01/16 19:10:31  5-MIN KABI 020110Z 05005KT 10SM CLR 14/M04 A3020 1530 29 1800 050/05 RMK AO2 T01391039
13962KABI ABI20160301191510503/01/16 19:15:31  5-MIN KABI 020115Z 06004KT 10SM CLR 14/M04 A3021 1530 29 1800 050/04 RMK AO2 T01391039
13962KABI ABI20160301192010503/01/16 19:20:31  5-MIN KABI 020120Z 05004KT 10SM CLR 13/M04 A3021 1530 30 1700 050/04 RMK AO2 T01331039
13962KABI ABI20160301192510503/01/16 19:25:31  5-MIN KABI 020125Z 05005KT 10SM CLR 14/M04 A3022 1520 29 1800 040/05 RMK AO2 T01391039
13962KABI ABI20160301193010503/01/16 19:30:31  5-MIN KABI 020130Z 05005KT 10SM CLR 13/M04 A3022 1520 30 1700 050/05 RMK AO2 T01331039
13962KABI ABI20160301193510503/01/16 19:35:31  5-MIN KABI 020135Z 06004KT 10SM CLR 13/M04 A3022 1520 30 1700 050/04 RMK AO2 T01331039
13962KABI ABI20160301194010503/01/16 19:40:31  5-MIN KABI 020140Z 07005KT 10SM CLR 13/M04 A3022 1520 30 1700 060/05 RMK AO2 T01331039
13962KABI ABI20160301194510503/01/16 19:45:31  5-MIN KABI 020145Z 07005KT 10SM CLR 13/M04 A3022 1520 30 1700 070/05 RMK AO2 T01331039
13962KABI ABI20160301195011203/01/16 19:50:31  5-MIN KABI 020150Z 07005KT 10SM CLR 13/M03 A3022 1510 31 1700 070/05 RMK AO2 SLP226 T01331033
13962KABI ABI20160301195510503/01/16 19:55:31  5-MIN KABI 020155Z 08004KT 10SM CLR 13/M03 A3022 1510 32 1600 080/04 RMK AO2 T01281033
13962KABI ABI20160301200010503/01/16 20:00:31  5-MIN KABI 020200Z 09004KT 10SM CLR 12/M03 A3023 1510 36 1500 090/04 RMK AO2 T01171028
13962KABI ABI20160301200510503/01/16 20:05:31  5-MIN KABI 020205Z 10004KT 10SM CLR 12/M02 A3023 1510 38 1500 090/04 RMK AO2 T01171022
13962KABI ABI20160301201010503/01/16 20:10:31  5-MIN KABI 020210Z 10005KT 10SM CLR 11/M02 A3023 1510 42 1400 090/05 RMK AO2 T01061017
13962KABI ABI20160301201510503/01/16 20:15:31  5-MIN KABI 020215Z 09005KT 10SM CLR 11/M02 A3023 1510 42 1400 090/05 RMK AO2 T01061017
13962KABI ABI20160301202010503/01/16 20:20:31  5-MIN KABI 020220Z 10005KT 10SM CLR 11/M02 A3023 1510 42 1400 100/05 RMK AO2 T01061017
13962KABI ABI20160301202510503/01/16 20:25:31  5-MIN KABI 020225Z 10005KT 10SM CLR 11/M02 A3023 1510 42 1400 100/05 RMK AO2 T01061017
13962KABI ABI20160301203010503/01/16 20:30:31  5-MIN KABI 020230Z 09006KT 10SM CLR 11/M02 A3023 1510 40 1400 090/06 RMK AO2 T01061022
13962KABI ABI20160301203510503/01/16 20:35:31  5-MIN KABI 020235Z 08006KT 10SM CLR 11/M02 A3023 1510 40 1400 070/06 RMK AO2 T01061022
13962KABI ABI20160301204010503/01/16 20:40:31  5-MIN KABI 020240Z 07005KT 10SM CLR 11/M03 A3023 1500 37 1400 070/05 RMK AO2 T01111028
13962KABI ABI20160301204510503/01/16 20:45:31  5-MIN KABI 020245Z 08007KT 10SM CLR 11/M03 A3023 1500 37 1400 070/07 RMK AO2 T01111028
13962KABI ABI20160301205011803/01/16 20:50:31  5-MIN KABI 020250Z 09007KT 10SM CLR 11/M02 A3023 1510 40 1400 080/07 RMK AO2 SLP229 T01061022 53004
13962KABI ABI20160301205510503/01/16 20:55:31  5-MIN KABI 020255Z 08007KT 10SM CLR 11/M02 A3023 1510 40 1400 080/07 RMK AO2 T01061022
13962KABI ABI20160301210010503/01/16 21:00:31  5-MIN KABI 020300Z 08006KT 10SM CLR 11/M02 A3023 1510 40 1400 080/06 RMK AO2 T01061022
13962KABI ABI20160301210510503/01/16 21:05:31  5-MIN KABI 020305Z 08008KT 10SM CLR 10/M02 A3023 1510 42 1300 080/08 RMK AO2 T01001022
13962KABI ABI20160301211010503/01/16 21:10:31  5-MIN KABI 020310Z 09008KT 10SM CLR 10/M02 A3023 1510 42 1300 080/08 RMK AO2 T01001022
13962KABI ABI20160301211510503/01/16 21:15:31  5-MIN KABI 020315Z 09009KT 10SM CLR 10/M02 A3023 1510 42 1300 080/09 RMK AO2 T01001022
13962KABI ABI20160301212010503/01/16 21:20:31  5-MIN KABI 020320Z 10006KT 10SM CLR 10/M02 A3023 1510 42 1300 100/06 RMK AO2 T01001022
13962KABI ABI20160301212510503/01/16 21:25:31  5-MIN KABI 020325Z 09008KT 10SM CLR 09/M02 A3023 1510 45 1200 080/08 RMK AO2 T00941017
13962KABI ABI20160301213010503/01/16 21:30:31  5-MIN KABI 020330Z 08008KT 10SM CLR 09/M02 A3023 1510 44 1200 080/08 RMK AO2 T00941022
13962KABI ABI20160301213510503/01/16 21:35:31  5-MIN KABI 020335Z 08008KT 10SM CLR 09/M02 A3023 1510 44 1200 080/08 RMK AO2 T00941022
13962KABI ABI20160301214010503/01/16 21:40:31  5-MIN KABI 020340Z 08009KT 10SM CLR 09/M02 A3023 1510 44 1200 080/09 RMK AO2 T00941022
13962KABI ABI20160301214510503/01/16 21:45:31  5-MIN KABI 020345Z 10007KT 10SM CLR 09/M03 A3023 1510 42 1200 090/07 RMK AO2 T00941028
13962KABI ABI20160301215011203/01/16 21:50:31  5-MIN KABI 020350Z 10007KT 10SM CLR 09/M02 A3023 1510 44 1200 100/07 RMK AO2 SLP228 T00941022
13962KABI ABI20160301215510503/01/16 21:55:31  5-MIN KABI 020355Z 09006KT 10SM CLR 09/M02 A3023 1510 44 1200 090/06 RMK AO2 T00941022
13962KABI ABI20160301220010503/01/16 22:00:31  5-MIN KABI 020400Z 08008KT 10SM CLR 09/M03 A3023 1510 42 1200 080/08 RMK AO2 T00941028
13962KABI ABI20160301220510503/01/16 22:05:31  5-MIN KABI 020405Z 08006KT 10SM CLR 11/M03 A3023 1500 39 1400 070/06 RMK AO2 T01061028
13962KABI ABI20160301221010503/01/16 22:10:31  5-MIN KABI 020410Z 08007KT 10SM CLR 10/M03 A3024 1500 40 1300 080/07 RMK AO2 T01001028
13962KABI ABI20160301221510503/01/16 22:15:31  5-MIN KABI 020415Z 09007KT 10SM CLR 10/M03 A3024 1500 40 1300 080/07 RMK AO2 T01001028
13962KABI ABI20160301222010503/01/16 22:20:31  5-MIN KABI 020420Z 09006KT 10SM CLR 09/M02 A3024 1500 44 1200 080/06 RMK AO2 T00941022
13962KABI ABI20160301222510503/01/16 22:25:31  5-MIN KABI 020425Z 09007KT 10SM CLR 09/M02 A3024 1500 44 1200 080/07 RMK AO2 T00941022
13962KABI ABI20160301223010503/01/16 22:30:31  5-MIN KABI 020430Z 08008KT 10SM CLR 10/M03 A3024 1500 40 1300 080/08 RMK AO2 T01001028
13962KABI ABI20160301223510503/01/16 22:35:31  5-MIN KABI 020435Z 08006KT 10SM CLR 10/M03 A3024 1500 40 1300 080/06 RMK AO2 T01001028
13962KABI ABI20160301224010503/01/16 22:40:31  5-MIN KABI 020440Z 09006KT 10SM CLR 09/M03 A3023 1510 43 1200 080/06 RMK AO2 T00891028
13962KABI ABI20160301224510503/01/16 22:45:31  5-MIN KABI 020445Z 09007KT 10SM CLR 09/M03 A3023 1510 43 1200 090/07 RMK AO2 T00891028
13962KABI ABI20160301225011203/01/16 22:50:31  5-MIN KABI 020450Z 10007KT 10SM CLR 09/M02 A3023 1510 45 1200 090/07 RMK AO2 SLP227 T00891022
13962KABI ABI20160301225510503/01/16 22:55:31  5-MIN KABI 020455Z 10008KT 10SM CLR 08/M02 A3022 1510 47 1100 090/08 RMK AO2 T00831022
13962KABI ABI20160301230010503/01/16 23:00:31  5-MIN KABI 020500Z 09007KT 10SM CLR 08/M02 A3023 1510 47 1100 090/07 RMK AO2 T00831022
13962KABI ABI20160301230510503/01/16 23:05:31  5-MIN KABI 020505Z 09007KT 10SM CLR 08/M02 A3022 1510 49 1000 090/07 RMK AO2 T00781022
13962KABI ABI20160301231010503/01/16 23:10:31  5-MIN KABI 020510Z 10007KT 10SM CLR 08/M02 A3022 1520 47 1100 090/07 RMK AO2 T00831022
13962KABI ABI20160301231510503/01/16 23:15:31  5-MIN KABI 020515Z 10007KT 10SM CLR 08/M02 A3022 1520 47 1100 090/07 RMK AO2 T00831022
13962KABI ABI20160301232010503/01/16 23:20:31  5-MIN KABI 020520Z 09007KT 10SM CLR 08/M02 A3022 1520 47 1100 090/07 RMK AO2 T00831022
13962KABI ABI20160301232510503/01/16 23:25:31  5-MIN KABI 020525Z 10007KT 10SM CLR 08/M02 A3022 1520 47 1100 090/07 RMK AO2 T00831022
13962KABI ABI20160301233010503/01/16 23:30:31  5-MIN KABI 020530Z 10007KT 10SM CLR 08/M02 A3022 1520 47 1100 100/07 RMK AO2 T00831022
13962KABI ABI20160301233510503/01/16 23:35:31  5-MIN KABI 020535Z 10006KT 10SM CLR 08/M02 A3021 1520 47 1100 100/06 RMK AO2 T00831022
13962KABI ABI20160301234010503/01/16 23:40:31  5-MIN KABI 020540Z 10006KT 10SM CLR 08/M02 A3021 1520 49 1100 100/06 RMK AO2 T00831017
13962KABI ABI20160301234510503/01/16 23:45:31  5-MIN KABI 020545Z 12006KT 10SM CLR 08/M02 A3021 1520 51 1100 120/06 RMK AO2 T00781017
13962KABI ABI20160301235013903/01/16 23:50:31  5-MIN KABI 020550Z 18006KT 10SM CLR 06/M01 A3021 1520 60 900 170/06 RMK AO2 SLP224 T00611011 10167 20061 401890061 53014
13962KABI ABI20160301235510403/01/16 23:55:31  5-MIN KABI 020555Z 17006KT 10SM CLR 06/M02 A3021 1520 57 900 160/06 RMK AO2 T00611017
13962KABI ABI20160302000010403/02/16 00:00:31  5-MIN KABI 020600Z 18006KT 10SM CLR 06/M02 A3021 1520 57 900 170/06 RMK AO2 T00611017
13962KABI ABI20160302000510403/02/16 00:05:31  5-MIN KABI 020605Z 18007KT 10SM CLR 06/M01 A3021 1520 62 800 170/07 RMK AO2 T00561011
13962KABI ABI20160302001010403/02/16 00:10:31  5-MIN KABI 020610Z 17007KT 10SM CLR 06/M01 A3021 1530 62 800 170/07 RMK AO2 T00561011
13962KABI ABI20160302001510403/02/16 00:15:31  5-MIN KABI 020615Z 17007KT 10SM CLR 06/M02 A3021 1530 57 900 160/07 RMK AO2 T00611017
13962KABI ABI20160302002010403/02/16 00:20:31  5-MIN KABI 020620Z 17006KT 10SM CLR 06/M02 A3021 1530 57 900 160/06 RMK AO2 T00611017
13962KABI ABI20160302002510403/02/16 00:25:31  5-MIN KABI 020625Z 17006KT 10SM CLR 06/M02 A3020 1530 57 900 160/06 RMK AO2 T00611017
13962KABI ABI20160302003010403/02/16 00:30:31  5-MIN KABI 020630Z 16006KT 10SM CLR 06/M02 A3020 1530 57 900 160/06 RMK AO2 T00611017
13962KABI ABI20160302003510403/02/16 00:35:31  5-MIN KABI 020635Z 16005KT 10SM CLR 06/M02 A3020 1530 57 900 150/05 RMK AO2 T00611017
13962KABI ABI20160302004010403/02/16 00:40:31  5-MIN KABI 020640Z 15006KT 10SM CLR 06/M02 A3020 1530 57 900 150/06 RMK AO2 T00611017
13962KABI ABI20160302004510403/02/16 00:45:31  5-MIN KABI 020645Z 14006KT 10SM CLR 06/M02 A3020 1540 59 800 140/06 RMK AO2 T00561017
13962KABI ABI20160302005011103/02/16 00:50:31  5-MIN KABI 020650Z 14005KT 10SM CLR 06/M02 A3020 1540 59 800 140/05 RMK AO2 SLP218 T00561017
13962KABI ABI20160302005510403/02/16 00:55:31  5-MIN KABI 020655Z 14005KT 10SM CLR 06/M02 A3019 1540 57 900 130/05 RMK AO2 T00611017
13962KABI ABI20160302010010403/02/16 01:00:31  5-MIN KABI 020700Z 13004KT 10SM CLR 06/M02 A3019 1540 59 800 130/04 RMK AO2 T00561017
13962KABI ABI20160302010510403/02/16 01:05:31  5-MIN KABI 020705Z 14005KT 10SM CLR 06/M02 A3020 1540 59 800 140/05 RMK AO2 T00561017
13962KABI ABI20160302011010403/02/16 01:10:31  5-MIN KABI 020710Z 15006KT 10SM CLR 05/M02 A3019 1540 62 700 150/06 RMK AO2 T00501017
13962KABI ABI20160302011510403/02/16 01:15:31  5-MIN KABI 020715Z 15007KT 10SM CLR 06/M02 A3019 1540 59 800 150/07 RMK AO2 T00561017
13962KABI ABI20160302012010403/02/16 01:20:31  5-MIN KABI 020720Z 15008KT 10SM CLR 06/M02 A3019 1550 59 800 150/08 RMK AO2 T00561017
13962KABI ABI20160302012510403/02/16 01:25:31  5-MIN KABI 020725Z 15007KT 10SM CLR 06/M02 A3019 1550 57 900 150/07 RMK AO2 T00611017
13962KABI ABI20160302013010403/02/16 01:30:31  5-MIN KABI 020730Z 14007KT 10SM CLR 06/M02 A3019 1550 57 900 140/07 RMK AO2 T00611017
13962KABI ABI20160302013510403/02/16 01:35:31  5-MIN KABI 020735Z 14007KT 10SM CLR 06/M02 A3019 1550 59 800 130/07 RMK AO2 T00561017
13962KABI ABI20160302014010403/02/16 01:40:31  5-MIN KABI 020740Z 14009KT 10SM CLR 06/M01 A3018 1550 60 900 130/09 RMK AO2 T00611011
13962KABI ABI20160302014510503/02/16 01:45:31  5-MIN KABI 020745Z 13008KT 10SM CLR 07/M02 A3018 1550 55 1000 130/08 RMK AO2 T00671017
13962KABI ABI20160302015011203/02/16 01:50:31  5-MIN KABI 020750Z 13007KT 10SM CLR 07/M02 A3018 1550 55 1000 120/07 RMK AO2 SLP212 T00671017
13962KABI ABI20160302015510403/02/16 01:55:31  5-MIN KABI 020755Z 14008KT 10SM CLR 06/M02 A3018 1550 57 900 130/08 RMK AO2 T00611017
13962KABI ABI20160302020010403/02/16 02:00:31  5-MIN KABI 020800Z 14005KT 10SM CLR 06/M02 A3018 1550 59 800 130/05 RMK AO2 T00561017
13962KABI ABI20160302020510403/02/16 02:05:31  5-MIN KABI 020805Z 13006KT 10SM CLR 06/M02 A3018 1550 59 800 130/06 RMK AO2 T00561017
13962KABI ABI20160302021010403/02/16 02:10:31  5-MIN KABI 020810Z 14007KT 10SM CLR 06/M02 A3017 1560 59 800 130/07 RMK AO2 T00561017
13962KABI ABI20160302021510403/02/16 02:15:31  5-MIN KABI 020815Z 13007KT 10SM CLR 06/M02 A3017 1560 59 800 130/07 RMK AO2 T00561017
13962KABI ABI20160302022010403/02/16 02:20:31  5-MIN KABI 020820Z 13007KT 10SM CLR 06/M02 A3017 1560 59 800 120/07 RMK AO2 T00561017
13962KABI ABI20160302022510403/02/16 02:25:31  5-MIN KABI 020825Z 13007KT 10SM CLR 06/M02 A3017 1560 59 800 120/07 RMK AO2 T00561017
13962KABI ABI20160302023010403/02/16 02:30:31  5-MIN KABI 020830Z 13006KT 10SM CLR 05/M02 A3017 1560 62 800 120/06 RMK AO2 T00501017
13962KABI ABI20160302023510403/02/16 02:35:31  5-MIN KABI 020835Z 12007KT 10SM CLR 05/M02 A3017 1570 59 800 120/07 RMK AO2 T00501022
13962KABI ABI20160302024010403/02/16 02:40:31  5-MIN KABI 020840Z 13009KT 10SM CLR 05/M02 A3016 1570 62 800 130/09 RMK AO2 T00501017
13962KABI ABI20160302024510403/02/16 02:45:31  5-MIN KABI 020845Z 15008KT 10SM CLR 05/M02 A3016 1570 62 800 140/08 RMK AO2 T00501017
13962KABI ABI20160302025011703/02/16 02:50:31  5-MIN KABI 020850Z VRB05KT 10SM CLR 05/M02 A3015 1580 59 800 VRB/05 RMK AO2 SLP203 T00501022 58005
13962KABI ABI20160302025510403/02/16 02:55:31  5-MIN KABI 020855Z 16005KT 10SM CLR 05/M02 A3015 1580 59 800 150/05 RMK AO2 T00501022
13962KABI ABI20160302030010403/02/16 03:00:31  5-MIN KABI 020900Z 17004KT 10SM CLR 05/M02 A3016 1570 59 800 160/04 RMK AO2 T00501022
13962KABI ABI20160302030510403/02/16 03:05:31  5-MIN KABI 020905Z 17006KT 10SM CLR 06/M02 A3016 1570 57 900 160/06 RMK AO2 T00561022
13962KABI ABI20160302031010403/02/16 03:10:31  5-MIN KABI 020910Z 16006KT 10SM CLR 06/M02 A3016 1570 57 900 160/06 RMK AO2 T00561022
13962KABI ABI20160302031510403/02/16 03:15:31  5-MIN KABI 020915Z 16006KT 10SM CLR 06/M02 A3016 1570 57 900 150/06 RMK AO2 T00561022
13962KABI ABI20160302032010403/02/16 03:20:31  5-MIN KABI 020920Z 15005KT 10SM CLR 05/M02 A3016 1570 62 800 140/05 RMK AO2 T00501017
13962KABI ABI20160302032510403/02/16 03:25:31  5-MIN KABI 020925Z 14004KT 10SM CLR 06/M02 A3016 1570 59 900 130/04 RMK AO2 T00561017
13962KABI ABI20160302033010403/02/16 03:30:31  5-MIN KABI 020930Z 13006KT 10SM CLR 06/M02 A3015 1580 57 900 130/06 RMK AO2 T00561022
13962KABI ABI20160302033510403/02/16 03:35:31  5-MIN KABI 020935Z 14007KT 10SM CLR 05/M02 A3015 1580 59 800 130/07 RMK AO2 T00501022
13962KABI ABI20160302034010403/02/16 03:40:31  5-MIN KABI 020940Z 13005KT 10SM CLR 04/M02 A3015 1580 64 700 130/05 RMK AO2 T00441017
13962KABI ABI20160302034510403/02/16 03:45:31  5-MIN KABI 020945Z 13005KT 10SM CLR 05/M02 A3015 1580 59 800 130/05 RMK AO2 T00501022
13962KABI ABI20160302035011103/02/16 03:50:31  5-MIN KABI 020950Z 14006KT 10SM CLR 06/M02 A3014 1590 57 900 140/06 RMK AO2 SLP199 T00561022
13962KABI ABI20160302035510403/02/16 03:55:31  5-MIN KABI 020955Z 15005KT 10SM CLR 04/M02 A3014 1590 62 700 150/05 RMK AO2 T00441022
13962KABI ABI20160302040010403/02/16 04:00:31  5-MIN KABI 021000Z 16004KT 10SM CLR 05/M02 A3014 1590 59 800 160/04 RMK AO2 T00501022
13962KABI ABI20160302040510403/02/16 04:05:31  5-MIN KABI 021005Z 16005KT 10SM CLR 05/M02 A3014 1590 59 800 160/05 RMK AO2 T00501022
13962KABI ABI20160302041010403/02/16 04:10:31  5-MIN KABI 021010Z 16007KT 10SM CLR 05/M02 A3014 1590 59 800 150/07 RMK AO2 T00501022
13962KABI ABI20160302041510403/02/16 04:15:31  5-MIN KABI 021015Z 16007KT 10SM CLR 05/M02 A3014 1590 62 800 160/07 RMK AO2 T00501017
13962KABI ABI20160302042010403/02/16 04:20:31  5-MIN KABI 021020Z 16008KT 10SM CLR 05/M02 A3013 1590 62 800 160/08 RMK AO2 T00501017
13962KABI ABI20160302042510403/02/16 04:25:31  5-MIN KABI 021025Z 16007KT 10SM CLR 05/M02 A3013 1600 62 800 150/07 RMK AO2 T00501017
13962KABI ABI20160302043010403/02/16 04:30:31  5-MIN KABI 021030Z 16007KT 10SM CLR 05/M02 A3013 1600 62 800 150/07 RMK AO2 T00501017
13962KABI ABI20160302043510403/02/16 04:35:31  5-MIN KABI 021035Z 17006KT 10SM CLR 05/M02 A3013 1600 62 800 160/06 RMK AO2 T00501017
13962KABI ABI20160302044010403/02/16 04:40:31  5-MIN KABI 021040Z 16007KT 10SM CLR 05/M02 A3013 1600 62 800 160/07 RMK AO2 T00501017
13962KABI ABI20160303104511003/03/16 10:45:31  5-MIN KABI 031645Z 01011G20KT 10SM CLR 18/04 A3016 1580 39 2300 360/11G20 RMK AO2 T01780039
13962KABI ABI20160303105011703/03/16 10:50:31  5-MIN KABI 031650Z 01016G20KT 10SM CLR 18/03 A3016 1580 38 2300 010/16G20 RMK AO2 SLP194 T01780033
13962KABI ABI20160303105511003/03/16 10:55:31  5-MIN KABI 031655Z 02016G20KT 10SM CLR 17/03 A3016 1580 39 2200 010/16G20 RMK AO2 T01720033
13962KABI ABI20160303110010403/03/16 11:00:31  5-MIN KABI 031700Z 36016KT 10SM CLR 17/03 A3016 1570 39 2200 360/16 RMK AO2 T01720033
13962KABI ABI20160303110511003/03/16 11:05:31  5-MIN KABI 031705Z 01016G20KT 10SM CLR 18/03 A3016 1570 38 2300 010/16G20 RMK AO2 T01780033
13962KABI ABI20160303111011003/03/16 11:10:31  5-MIN KABI 031710Z 01013G19KT 10SM CLR 18/03 A3016 1570 38 2300 010/13G19 RMK AO2 T01780033
13962KABI ABI20160303111510403/03/16 11:15:31  5-MIN KABI 031715Z 01013KT 10SM CLR 18/03 A3016 1570 36 2400 010/13 RMK AO2 T01830033
13962KABI ABI20160303112010403/03/16 11:20:31  5-MIN KABI 031720Z 35017KT 10SM CLR 18/03 A3016 1570 38 2300 340/17 RMK AO2 T01780033
13962KABI ABI20160303112510403/03/16 11:25:31  5-MIN KABI 031725Z 36017KT 10SM CLR 18/03 A3016 1570 38 2300 360/17 RMK AO2 T01780033
13962KABI ABI20160303113010403/03/16 11:30:31  5-MIN KABI 031730Z 01017KT 10SM CLR 18/03 A3016 1570 35 2400 360/17 RMK AO2 T01830028
13962KABI ABI20160303113511003/03/16 11:35:31  5-MIN KABI 031735Z 36015G23KT 10SM CLR 18/03 A3017 1570 36 2400 350/15G23 RMK AO2 T01830033
13962KABI ABI20160303114011003/03/16 11:40:31  5-MIN KABI 031740Z 35013G23KT 10SM CLR 18/03 A3017 1560 36 2400 350/13G23 RMK AO2 T01830033
13962KABI ABI20160303114511003/03/16 11:45:31  5-MIN KABI 031745Z 35017G22KT 10SM CLR 19/04 A3017 1560 36 2400 350/17G22 RMK AO2 T01890039
13962KABI ABI20160303115012903/03/16 11:50:31  5-MIN KABI 031750Z 36014KT 10SM CLR 19/03 A3017 1560 35 2400 360/14 RMK AO2 SLP200 T01890033 10189 20083 53040
13962KABI ABI20160303115510403/03/16 11:55:31  5-MIN KABI 031755Z 36016KT 10SM CLR 19/03 A3017 1560 35 2400 350/16 RMK AO2 T01890033
13962KABI ABI20160303120011003/03/16 12:00:31  5-MIN KABI 031800Z 01015G22KT 10SM CLR 19/03 A3017 1560 34 2400 010/15G22 RMK AO2 T01890028
13962KABI ABI20160303120511003/03/16 12:05:31  5-MIN KABI 031805Z 01015G22KT 10SM CLR 19/03 A3017 1560 34 2400 010/15G22 RMK AO2 T01890028
13962KABI ABI20160303121011003/03/16 12:10:31  5-MIN KABI 031810Z 36014G21KT 10SM CLR 19/03 A3017 1560 34 2400 350/14G21 RMK AO2 T01890028
13962KABI ABI20160303121511003/03/16 12:15:31  5-MIN KABI 031815Z 02012G19KT 10SM CLR 19/03 A3017 1560 34 2500 010/12G19 RMK AO2 T01940033
13962KABI ABI20160303122011003/03/16 12:20:31  5-MIN KABI 031820Z 02013G17KT 10SM CLR 19/03 A3017 1560 33 2500 010/13G17 RMK AO2 T01940028
13962KABI ABI20160303122511003/03/16 12:25:31  5-MIN KABI 031825Z 01016G19KT 10SM CLR 19/03 A3017 1570 33 2500 360/16G19 RMK AO2 T01940028
13962KABI ABI20160303123011003/03/16 12:30:31  5-MIN KABI 031830Z 36014G20KT 10SM CLR 19/03 A3017 1560 34 2400 360/14G20 RMK AO2 T01890028
13962KABI ABI20160303123511003/03/16 12:35:31  5-MIN KABI 031835Z 36018G22KT 10SM CLR 19/02 A3017 1560 31 2500 360/18G22 RMK AO2 T01940022
13962KABI ABI20160303124011003/03/16 12:40:31  5-MIN KABI 031840Z 36013G22KT 10SM CLR 19/03 A3017 1560 33 2500 350/13G22 RMK AO2 T01940028
13962KABI ABI20160303124511003/03/16 12:45:31  5-MIN KABI 031845Z 36017G23KT 10SM CLR 20/03 A3017 1560 31 2500 350/17G23 RMK AO2 T02000028
13962KABI ABI20160303125011703/03/16 12:50:31  5-MIN KABI 031850Z 36014G23KT 10SM CLR 20/03 A3017 1570 31 2500 360/14G23 RMK AO2 SLP197 T02000028
13962KABI ABI20160303125510403/03/16 12:55:31  5-MIN KABI 031855Z 36016KT 10SM CLR 20/02 A3017 1570 29 2500 360/16 RMK AO2 T02000017
13962KABI ABI20160303130011003/03/16 13:00:31  5-MIN KABI 031900Z 36013G22KT 10SM CLR 20/02 A3016 1570 30 2600 360/13G22 RMK AO2 T02000022
13962KABI ABI20160303130511003/03/16 13:05:31  5-MIN KABI 031905Z 35016G21KT 10SM CLR 21/02 A3016 1570 28 2600 350/16G21 RMK AO2 T02060017
13962KABI ABI20160303131011003/03/16 13:10:31  5-MIN KABI 031910Z 01011G20KT 10SM CLR 20/02 A3016 1570 29 2600 360/11G20 RMK AO2 T02000017
13962KABI ABI20160303131511003/03/16 13:15:31  5-MIN KABI 031915Z 02011G20KT 10SM CLR 20/01 A3016 1570 28 2600 020/11G20 RMK AO2 T02000011
13962KABI ABI20160303132011003/03/16 13:20:31  5-MIN KABI 031920Z 36016G23KT 10SM CLR 21/01 A3016 1570 26 2600 350/16G23 RMK AO2 T02060006
13962KABI ABI20160303132511003/03/16 13:25:31  5-MIN KABI 031925Z 36018G23KT 10SM CLR 21/00 A3015 1580 25 2600 350/18G23 RMK AO2 T02060000
13962KABI ABI20160303133011103/03/16 13:30:31  5-MIN KABI 031930Z 36019G24KT 10SM CLR 21/M01 A3015 1580 23 2700 360/19G24 RMK AO2 T02111006
13962KABI ABI20160303133511103/03/16 13:35:31  5-MIN KABI 031935Z 36018G24KT 10SM CLR 21/M01 A3015 1580 22 2700 360/18G24 RMK AO2 T02111011
13962KABI ABI20160303134011103/03/16 13:40:31  5-MIN KABI 031940Z 01019G24KT 10SM CLR 21/M01 A3014 1590 23 2700 360/19G24 RMK AO2 T02111006
13962KABI ABI20160303134512903/03/16 13:45:31  5-MIN KABI 031945Z 35021G26KT 10SM CLR 21/M02 A3014 1590 20 2700 350/21G26 RMK AO2 PK WND 35026/1941 T02111022
13962KABI ABI20160303135013603/03/16 13:50:31  5-MIN KABI 031950Z 01017G26KT 10SM CLR 21/M01 A3014 1590 22 2700 360/17G26 RMK AO2 PK WND 35026/1941 SLP189 T02111011
13962KABI ABI20160303135511103/03/16 13:55:31  5-MIN KABI 031955Z 36015G25KT 10SM CLR 21/M02 A3014 1590 20 2700 360/15G25 RMK AO2 T02111022
13962KABI ABI20160303140011103/03/16 14:00:31  5-MIN KABI 032000Z 02016G24KT 10SM CLR 21/M02 A3014 1590 21 2700 010/16G24 RMK AO2 T02111017
13962KABI ABI20160303140511103/03/16 14:05:31  5-MIN KABI 032005Z 01018G24KT 10SM CLR 21/M02 A3014 1590 22 2600 360/18G24 RMK AO2 T02061017
13962KABI ABI20160303141011103/03/16 14:10:31  5-MIN KABI 032010Z 02014G23KT 10SM CLR 21/M02 A3014 1590 21 2600 010/14G23 RMK AO2 T02061022
13962KABI ABI20160303141511103/03/16 14:15:31  5-MIN KABI 032015Z 01018G23KT 10SM CLR 21/M02 A3014 1590 22 2600 360/18G23 RMK AO2 T02061017
13962KABI ABI20160303142011103/03/16 14:20:31  5-MIN KABI 032020Z 02013G22KT 10SM CLR 21/M02 A3014 1590 21 2700 020/13G22 RMK AO2 T02111017
13962KABI ABI20160303142511103/03/16 14:25:31  5-MIN KABI 032025Z 36018G24KT 10SM CLR 21/M01 A3014 1590 22 2700 350/18G24 RMK AO2 T02111011
13962KABI ABI20160303143011103/03/16 14:30:31  5-MIN KABI 032030Z 36016G24KT 10SM CLR 21/M01 A3014 1590 23 2600 360/16G24 RMK AO2 T02061011
13962KABI ABI20160303143511103/03/16 14:35:31  5-MIN KABI 032035Z 01015G23KT 10SM CLR 21/M01 A3014 1590 23 2600 360/15G23 RMK AO2 T02061011
13962KABI ABI20160303144011103/03/16 14:40:31  5-MIN KABI 032040Z 36016G23KT 10SM CLR 21/M01 A3013 1600 23 2600 350/16G23 RMK AO2 T02061011
13962KABI ABI20160303144511103/03/16 14:45:31  5-MIN KABI 032045Z 02011G22KT 10SM CLR 21/M01 A3013 1600 23 2600 010/11G22 RMK AO2 T02061011
13962KABI ABI20160303145012403/03/16 14:50:31  5-MIN KABI 032050Z 36016G22KT 10SM CLR 21/M01 A3013 1600 22 2700 350/16G22 RMK AO2 SLP186 T02111011 51024
13962KABI ABI20160303145511103/03/16 14:55:31  5-MIN KABI 032055Z 01011G22KT 10SM CLR 21/M02 A3013 1600 21 2700 360/11G22 RMK AO2 T02111017
13962KABI ABI20160303150011103/03/16 15:00:31  5-MIN KABI 032100Z 02015G19KT 10SM CLR 21/M02 A3013 1600 20 2700 010/15G19 RMK AO2 T02111022
13962KABI ABI20160303150511103/03/16 15:05:31  5-MIN KABI 032105Z 01015G21KT 10SM CLR 21/M02 A3013 1600 21 2700 360/15G21 RMK AO2 T02061022
13962KABI ABI20160303151011103/03/16 15:10:31  5-MIN KABI 032110Z 01014G21KT 10SM CLR 21/M02 A3013 1600 21 2700 360/14G21 RMK AO2 T02061022
13962KABI ABI20160303151510503/03/16 15:15:31  5-MIN KABI 032115Z 02012KT 10SM CLR 21/M03 A3013 1600 20 2700 020/12 RMK AO2 T02061028
13962KABI ABI20160303152011103/03/16 15:20:31  5-MIN KABI 032120Z 03014G20KT 10SM CLR 21/M02 A3013 1600 21 2700 020/14G20 RMK AO2 T02061022
13962KABI ABI20160303152511103/03/16 15:25:31  5-MIN KABI 032125Z 02013G20KT 10SM CLR 21/M02 A3013 1600 21 2700 020/13G20 RMK AO2 T02061022
13962KABI ABI20160303153011103/03/16 15:30:31  5-MIN KABI 032130Z 01013G20KT 10SM CLR 21/M02 A3013 1600 22 2700 360/13G20 RMK AO2 T02061017
13962KABI ABI20160303153510503/03/16 15:35:31  5-MIN KABI 032135Z 36011KT 10SM CLR 21/M01 A3013 1600 23 2700 360/11 RMK AO2 T02061011
13962KABI ABI20160303154010503/03/16 15:40:31  5-MIN KABI 032140Z 36013KT 10SM CLR 21/M02 A3012 1600 22 2700 360/13 RMK AO2 T02061017
13962KABI ABI20160303154510503/03/16 15:45:31  5-MIN KABI 032145Z 01013KT 10SM CLR 21/M01 A3013 1600 23 2700 010/13 RMK AO2 T02061011
13962KABI ABI20160303155011203/03/16 15:50:31  5-MIN KABI 032150Z 35010KT 10SM CLR 21/M01 A3012 1610 24 2700 350/10 RMK AO2 SLP185 T02061006
13962KABI ABI20160303155511103/03/16 15:55:31  5-MIN KABI 032155Z 01013G22KT 10SM CLR 21/M01 A3012 1610 23 2700 360/13G22 RMK AO2 T02061011
13962KABI ABI20160303160011103/03/16 16:00:31  5-MIN KABI 032200Z 01011G22KT 10SM CLR 21/M02 A3012 1610 22 2700 360/11G22 RMK AO2 T02061017
13962KABI ABI20160303160511103/03/16 16:05:31  5-MIN KABI 032205Z 36011G17KT 10SM CLR 21/M02 A3012 1610 22 2700 360/11G17 RMK AO2 T02061017
13962KABI ABI20160303161010503/03/16 16:10:31  5-MIN KABI 032210Z 36011KT 10SM CLR 21/M01 A3012 1610 23 2700 350/11 RMK AO2 T02061011
13962KABI ABI20160303161510503/03/16 16:15:31  5-MIN KABI 032215Z 36008KT 10SM CLR 21/M02 A3011 1610 22 2700 350/08 RMK AO2 T02061017
13962KABI ABI20160303162010503/03/16 16:20:31  5-MIN KABI 032220Z 36008KT 10SM CLR 21/M02 A3012 1610 22 2700 350/08 RMK AO2 T02061017
13962KABI ABI20160303162510503/03/16 16:25:31  5-MIN KABI 032225Z 36009KT 10SM CLR 21/M01 A3012 1610 24 2700 360/09 RMK AO2 T02061006
13962KABI ABI20160303163010503/03/16 16:30:31  5-MIN KABI 032230Z 01009KT 10SM CLR 21/M01 A3012 1610 23 2700 360/09 RMK AO2 T02111006
13962KABI ABI20160303163510503/03/16 16:35:31  5-MIN KABI 032235Z 01010KT 10SM CLR 21/M01 A3012 1610 23 2700 360/10 RMK AO2 T02061011
13962KABI ABI20160303164010503/03/16 16:40:31  5-MIN KABI 032240Z 01008KT 10SM CLR 21/M01 A3012 1610 23 2700 010/08 RMK AO2 T02061011
13962KABI ABI20160303164510503/03/16 16:45:31  5-MIN KABI 032245Z 34010KT 10SM CLR 21/M01 A3012 1610 24 2700 340/10 RMK AO2 T02061006
13962KABI ABI20160303165011203/03/16 16:50:31  5-MIN KABI 032250Z 34012KT 10SM CLR 21/M01 A3012 1600 24 2700 340/12 RMK AO2 SLP187 T02061006
13962KABI ABI20160303165510503/03/16 16:55:31  5-MIN KABI 032255Z 35011KT 10SM CLR 21/M01 A3013 1600 23 2700 340/11 RMK AO2 T02061011
13962KABI ABI20160303170010503/03/16 17:00:31  5-MIN KABI 032300Z 35012KT 10SM CLR 20/M01 A3013 1600 24 2600 350/12 RMK AO2 T02001011
13962KABI ABI20160303170510503/03/16 17:05:31  5-MIN KABI 032305Z 01009KT 10SM CLR 21/M02 A3013 1600 21 2700 360/09 RMK AO2 T02061022
13962KABI ABI20160303171010503/03/16 17:10:31  5-MIN KABI 032310Z 36012KT 10SM CLR 20/M02 A3013 1600 22 2600 360/12 RMK AO2 T02001022
13962KABI ABI20160303171510503/03/16 17:15:31  5-MIN KABI 032315Z 36012KT 10SM CLR 20/M03 A3013 1600 21 2600 360/12 RMK AO2 T02001028
13962KABI ABI20160303172010503/03/16 17:20:31  5-MIN KABI 032320Z 36010KT 10SM CLR 20/M03 A3013 1600 21 2600 350/10 RMK AO2 T02001028
13962KABI ABI20160303172510503/03/16 17:25:31  5-MIN KABI 032325Z 33011KT 10SM CLR 19/M02 A3013 1600 23 2500 330/11 RMK AO2 T01891022
13962KABI ABI20160303173010503/03/16 17:30:31  5-MIN KABI 032330Z 36011KT 10SM CLR 19/M02 A3013 1590 24 2500 350/11 RMK AO2 T01891017
13962KABI ABI20160303173510503/03/16 17:35:31  5-MIN KABI 032335Z 36010KT 10SM CLR 19/M02 A3014 1590 24 2500 350/10 RMK AO2 T01941017
13962KABI ABI20160303174010503/03/16 17:40:31  5-MIN KABI 032340Z 35011KT 10SM CLR 19/M02 A3014 1590 24 2500 350/11 RMK AO2 T01941017
13962KABI ABI20160303174510503/03/16 17:45:31  5-MIN KABI 032345Z 36010KT 10SM CLR 19/M02 A3014 1590 23 2500 350/10 RMK AO2 T01941022
13962KABI ABI20160303175013003/03/16 17:50:31  5-MIN KABI 032350Z 35009KT 10SM CLR 19/M02 A3014 1590 24 2500 350/09 RMK AO2 SLP195 T01941017 10211 20189 58014
13962KABI ABI20160303175510503/03/16 17:55:31  5-MIN KABI 032355Z 35007KT 10SM CLR 19/M01 A3014 1590 25 2400 350/07 RMK AO2 T01891011
13962KABI ABI20160303180010503/03/16 18:00:31  5-MIN KABI 040000Z 36007KT 10SM CLR 19/M02 A3014 1590 24 2400 350/07 RMK AO2 T01891017
13962KABI ABI20160303180510503/03/16 18:05:31  5-MIN KABI 040005Z 35007KT 10SM CLR 18/M01 A3015 1580 26 2400 340/07 RMK AO2 T01831011
13962KABI ABI20160303181010503/03/16 18:10:31  5-MIN KABI 040010Z 34006KT 10SM CLR 18/M01 A3015 1580 27 2300 340/06 RMK AO2 T01781011
13962KABI ABI20160303181510503/03/16 18:15:31  5-MIN KABI 040015Z 35007KT 10SM CLR 17/M01 A3015 1580 29 2200 340/07 RMK AO2 T01721006
13962KABI ABI20160303182010503/03/16 18:20:31  5-MIN KABI 040020Z 36006KT 10SM CLR 17/M01 A3015 1580 29 2200 350/06 RMK AO2 T01671011
13962KABI ABI20160303182510503/03/16 18:25:31  5-MIN KABI 040025Z 35006KT 10SM CLR 17/M01 A3015 1580 29 2200 350/06 RMK AO2 T01671011
13962KABI ABI20160303183010503/03/16 18:30:31  5-MIN KABI 040030Z 36006KT 10SM CLR 17/M01 A3016 1580 29 2200 350/06 RMK AO2 T01671011
13962KABI ABI20160303183510503/03/16 18:35:31  5-MIN KABI 040035Z 36006KT 10SM CLR 17/M01 A3016 1570 29 2200 360/06 RMK AO2 T01671011
13962KABI ABI20160303184010503/03/16 18:40:31  5-MIN KABI 040040Z 01004KT 10SM CLR 17/M02 A3016 1570 28 2200 010/04 RMK AO2 T01671017
13962KABI ABI20160303184510503/03/16 18:45:31  5-MIN KABI 040045Z 36004KT 10SM CLR 17/M02 A3016 1570 28 2200 360/04 RMK AO2 T01671017
13962KABI ABI20160303185011203/03/16 18:50:31  5-MIN KABI 040050Z 36004KT 10SM CLR 17/M02 A3016 1570 28 2200 360/04 RMK AO2 SLP204 T01671017
13962KABI ABI20160303185510503/03/16 18:55:31  5-MIN KABI 040055Z 01004KT 10SM CLR 17/M02 A3016 1570 28 2200 360/04 RMK AO2 T01671017
13962KABI ABI20160303190010503/03/16 19:00:31  5-MIN KABI 040100Z 01004KT 10SM CLR 17/M02 A3016 1570 28 2200 010/04 RMK AO2 T01671017
13962KABI ABI20160303190510503/03/16 19:05:31  5-MIN KABI 040105Z 01004KT 10SM CLR 17/M02 A3016 1570 28 2200 360/04 RMK AO2 T01671017
13962KABI ABI20160303191010503/03/16 19:10:31  5-MIN KABI 040110Z 03004KT 10SM CLR 17/M02 A3016 1570 28 2200 020/04 RMK AO2 T01671017
13962KABI ABI20160303191510503/03/16 19:15:31  5-MIN KABI 040115Z 03004KT 10SM CLR 17/M02 A3016 1570 28 2200 020/04 RMK AO2 T01671017
13962KABI ABI20160303192010503/03/16 19:20:31  5-MIN KABI 040120Z 03004KT 10SM CLR 17/M02 A3016 1570 28 2200 020/04 RMK AO2 T01671017
13962KABI ABI20160303192510503/03/16 19:25:31  5-MIN KABI 040125Z 02005KT 10SM CLR 16/M02 A3017 1570 29 2100 010/05 RMK AO2 T01611017
13962KABI ABI20160303193010503/03/16 19:30:31  5-MIN KABI 040130Z 03005KT 10SM CLR 16/M01 A3016 1570 30 2100 020/05 RMK AO2 T01611011
13962KABI ABI20160303193510503/03/16 19:35:31  5-MIN KABI 040135Z 03004KT 10SM CLR 16/M02 A3016 1570 29 2100 030/04 RMK AO2 T01611017
13962KABI ABI20160303194010503/03/16 19:40:31  5-MIN KABI 040140Z 03006KT 10SM CLR 16/M02 A3016 1570 29 2100 020/06 RMK AO2 T01611017
13962KABI ABI20160303194510503/03/16 19:45:31  5-MIN KABI 040145Z 02006KT 10SM CLR 16/M02 A3016 1570 30 2000 020/06 RMK AO2 T01561017
13962KABI ABI20160303195011203/03/16 19:50:31  5-MIN KABI 040150Z 04006KT 10SM CLR 16/M02 A3016 1570 29 2100 030/06 RMK AO2 SLP204 T01611017
13962KABI ABI20160303195510503/03/16 19:55:31  5-MIN KABI 040155Z 05005KT 10SM CLR 16/M01 A3016 1570 31 2000 050/05 RMK AO2 T01561011
13962KABI ABI20160303200010503/03/16 20:00:31  5-MIN KABI 040200Z 05005KT 10SM CLR 15/M01 A3016 1570 33 2000 050/05 RMK AO2 T01501011
13962KABI ABI20160303200510503/03/16 20:05:31  5-MIN KABI 040205Z 05005KT 10SM CLR 15/M01 A3017 1570 33 2000 040/05 RMK AO2 T01501011
13962KABI ABI20160303201010503/03/16 20:10:31  5-MIN KABI 040210Z 04005KT 10SM CLR 15/M02 A3017 1560 31 2000 030/05 RMK AO2 T01501017
13962KABI ABI20160303201510503/03/16 20:15:31  5-MIN KABI 040215Z 04004KT 10SM CLR 15/M02 A3017 1560 31 2000 040/04 RMK AO2 T01501017
13962KABI ABI20160303202010503/03/16 20:20:31  5-MIN KABI 040220Z 06006KT 10SM CLR 15/M02 A3017 1560 31 2000 050/06 RMK AO2 T01501017
13962KABI ABI20160303202510503/03/16 20:25:31  5-MIN KABI 040225Z 08005KT 10SM CLR 13/M01 A3017 1560 38 1800 070/05 RMK AO2 T01331006
13962KABI ABI20160303203010503/03/16 20:30:31  5-MIN KABI 040230Z 08005KT 10SM CLR 13/M01 A3017 1560 38 1800 080/05 RMK AO2 T01331006
13962KABI ABI20160303203510503/03/16 20:35:31  5-MIN KABI 040235Z 08006KT 10SM CLR 13/M01 A3017 1560 36 1800 070/06 RMK AO2 T01331011
13962KABI ABI20160303204010503/03/16 20:40:31  5-MIN KABI 040240Z 07007KT 10SM CLR 14/M01 A3017 1570 35 1800 060/07 RMK AO2 T01391011
13962KABI ABI20160303204510503/03/16 20:45:31  5-MIN KABI 040245Z 06006KT 10SM CLR 14/M01 A3017 1570 35 1800 050/06 RMK AO2 T01391011
13962KABI ABI20160303205011803/03/16 20:50:31  5-MIN KABI 040250Z 07006KT 10SM CLR 14/M02 A3017 1560 34 1800 060/06 RMK AO2 SLP207 T01391017 53003
13962KABI ABI20160303205510503/03/16 20:55:31  5-MIN KABI 040255Z 09006KT 10SM CLR 13/M01 A3017 1560 36 1800 090/06 RMK AO2 T01331011
13962KABI ABI20160303210010503/03/16 21:00:31  5-MIN KABI 040300Z 08007KT 10SM CLR 12/M01 A3017 1560 39 1600 080/07 RMK AO2 T01221011
13962KABI ABI20160303210510503/03/16 21:05:31  5-MIN KABI 040305Z 08007KT 10SM CLR 13/M01 A3017 1560 38 1700 070/07 RMK AO2 T01281011
13962KABI ABI20160303211010503/03/16 21:10:31  5-MIN KABI 040310Z 07007KT 10SM CLR 13/M01 A3017 1560 36 1800 060/07 RMK AO2 T01331011
13962KABI ABI20160303211510503/03/16 21:15:31  5-MIN KABI 040315Z 09005KT 10SM CLR 13/M02 A3018 1560 35 1800 090/05 RMK AO2 T01331017
13962KABI ABI20160303212010503/03/16 21:20:31  5-MIN KABI 040320Z 11005KT 10SM CLR 12/M01 A3018 1560 42 1600 100/05 RMK AO2 T01171006
13962KABI ABI20160303212510503/03/16 21:25:31  5-MIN KABI 040325Z 10003KT 10SM CLR 12/M01 A3018 1560 42 1600 090/03 RMK AO2 T01171006
13962KABI ABI20160303213010503/03/16 21:30:31  5-MIN KABI 040330Z 09005KT 10SM CLR 12/M01 A3018 1560 42 1600 090/05 RMK AO2 T01171006
13962KABI ABI20160303213510503/03/16 21:35:31  5-MIN KABI 040335Z 09005KT 10SM CLR 12/M01 A3018 1560 42 1600 090/05 RMK AO2 T01171006
13962KABI ABI20160303214010503/03/16 21:40:31  5-MIN KABI 040340Z 10005KT 10SM CLR 12/M01 A3018 1550 42 1600 100/05 RMK AO2 T01171006
13962KABI ABI20160303214510503/03/16 21:45:31  5-MIN KABI 040345Z 13004KT 10SM CLR 11/M01 A3018 1550 44 1500 120/04 RMK AO2 T01111006
13962KABI ABI20160303215011103/03/16 21:50:31  5-MIN KABI 040350Z 19004KT 10SM CLR 09/00 A3018 1550 51 1300 180/04 RMK AO2 SLP212 T00940000
13962KABI ABI20160303215510403/03/16 21:55:31  5-MIN KABI 040355Z 18004KT 10SM CLR 10/00 A3018 1550 49 1400 180/04 RMK AO2 T01000000
13962KABI ABI20160303220010503/03/16 22:00:31  5-MIN KABI 040400Z 19005KT 10SM CLR 09/M01 A3018 1550 49 1300 190/05 RMK AO2 T00941006
13962KABI ABI20160303220510403/03/16 22:05:31  5-MIN KABI 040405Z 20005KT 10SM CLR 10/00 A3018 1550 49 1400 200/05 RMK AO2 T01000000
13962KABI ABI20160303221010403/03/16 22:10:31  5-MIN KABI 040410Z 18004KT 10SM CLR 10/00 A3018 1550 49 1400 170/04 RMK AO2 T01000000
13962KABI ABI20160303221510503/03/16 22:15:31  5-MIN KABI 040415Z 19004KT 10SM CLR 10/M01 A3018 1550 47 1400 190/04 RMK AO2 T01001006
13962KABI ABI20160303222010503/03/16 22:20:31  5-MIN KABI 040420Z 18005KT 10SM CLR 10/M01 A3018 1550 47 1400 180/05 RMK AO2 T01001006
13962KABI ABI20160303222510503/03/16 22:25:31  5-MIN KABI 040425Z 18005KT 10SM CLR 09/M01 A3018 1550 49 1300 180/05 RMK AO2 T00941006
13962KABI ABI20160303223010503/03/16 22:30:31  5-MIN KABI 040430Z 20004KT 10SM CLR 09/M01 A3018 1550 51 1200 190/04 RMK AO2 T00891006
13962KABI ABI20160303223510403/03/16 22:35:31  5-MIN KABI 040435Z 19004KT 10SM CLR 09/00 A3018 1550 53 1200 190/04 RMK AO2 T00890000
13962KABI ABI20160303224010403/03/16 22:40:31  5-MIN KABI 040440Z 18005KT 10SM CLR 09/00 A3018 1550 53 1200 180/05 RMK AO2 T00890000
13962KABI ABI20160303224510403/03/16 22:45:31  5-MIN KABI 040445Z 18005KT 10SM CLR 09/01 A3018 1550 56 1200 180/05 RMK AO2 T00890006
13962KABI ABI20160303225011103/03/16 22:50:31  5-MIN KABI 040450Z 19004KT 10SM CLR 08/01 A3018 1550 58 1200 180/04 RMK AO2 SLP211 T00830006
13962KABI ABI20160303225510403/03/16 22:55:31  5-MIN KABI 040455Z 18004KT 10SM CLR 08/01 A3018 1550 58 1200 170/04 RMK AO2 T00830006
13962KABI ABI20160303230010403/03/16 23:00:31  5-MIN KABI 040500Z 19006KT 10SM CLR 08/01 A3018 1550 58 1200 180/06 RMK AO2 T00830006
13962KABI ABI20160303230510403/03/16 23:05:31  5-MIN KABI 040505Z 19004KT 10SM CLR 07/00 A3018 1550 60 1000 180/04 RMK AO2 T00720000
13962KABI ABI20160303231010403/03/16 23:10:31  5-MIN KABI 040510Z 18005KT 10SM CLR 08/00 A3018 1550 55 1200 180/05 RMK AO2 T00830000
13962KABI ABI20160303231510403/03/16 23:15:31  5-MIN KABI 040515Z 17005KT 10SM CLR 08/00 A3018 1550 58 1100 170/05 RMK AO2 T00780000
13962KABI ABI20160303232010403/03/16 23:20:31  5-MIN KABI 040520Z 17005KT 10SM CLR 08/01 A3018 1560 58 1200 170/05 RMK AO2 T00830006
13962KABI ABI20160303232510403/03/16 23:25:31  5-MIN KABI 040525Z 18005KT 10SM CLR 08/00 A3018 1560 58 1100 180/05 RMK AO2 T00780000
13962KABI ABI20160303233010403/03/16 23:30:31  5-MIN KABI 040530Z 17005KT 10SM CLR 07/00 A3018 1560 60 1000 160/05 RMK AO2 T00720000
13962KABI ABI20160303233510403/03/16 23:35:31  5-MIN KABI 040535Z 16006KT 10SM CLR 08/00 A3017 1560 58 1100 160/06 RMK AO2 T00780000
13962KABI ABI20160303234010403/03/16 23:40:31  5-MIN KABI 040540Z 16006KT 10SM CLR 08/00 A3018 1560 58 1100 150/06 RMK AO2 T00780000
13962KABI ABI20160303234510403/03/16 23:45:31  5-MIN KABI 040545Z 16007KT 10SM CLR 08/00 A3018 1560 58 1100 160/07 RMK AO2 T00780000
13962KABI ABI20160303235013903/03/16 23:50:31  5-MIN KABI 040550Z 17006KT 10SM CLR 08/00 A3017 1560 55 1200 160/06 RMK AO2 SLP208 T00830000 10189 20072 402110072 51010
13962KABI ABI20160303235510403/03/16 23:55:31  5-MIN KABI 040555Z 18007KT 10SM CLR 08/00 A3018 1550 58 1100 170/07 RMK AO2 T00780000
13962KABI ABI20160304000010403/04/16 00:00:31  5-MIN KABI 040600Z 17006KT 10SM CLR 07/00 A3018 1550 60 1000 170/06 RMK AO2 T00720000
13962KABI ABI20160304000510403/04/16 00:05:31  5-MIN KABI 040605Z 17006KT 10SM CLR 07/00 A3017 1560 60 1000 160/06 RMK AO2 T00720000
13962KABI ABI20160304001010403/04/16 00:10:31  5-MIN KABI 040610Z 18008KT 10SM CLR 07/00 A3017 1560 62 1000 170/08 RMK AO2 T00670000
13962KABI ABI20160304001510403/04/16 00:15:31  5-MIN KABI 040615Z 16008KT 10SM CLR 07/01 A3017 1560 65 1000 160/08 RMK AO2 T00670006
13962KABI ABI20160304002010403/04/16 00:20:31  5-MIN KABI 040620Z 17008KT 10SM CLR 07/01 A3017 1560 65 1000 160/08 RMK AO2 T00670006
13962KABI ABI20160304002510403/04/16 00:25:31  5-MIN KABI 040625Z 16007KT 10SM CLR 07/01 A3017 1560 62 1000 160/07 RMK AO2 T00720006
13962KABI ABI20160304003010403/04/16 00:30:31  5-MIN KABI 040630Z 15007KT 10SM CLR 07/00 A3017 1560 60 1000 150/07 RMK AO2 T00720000
13962KABI ABI20160304003510403/04/16 00:35:31  5-MIN KABI 040635Z 14007KT 10SM CLR 07/00 A3017 1570 60 1000 130/07 RMK AO2 T00720000
13962KABI ABI20160304004010403/04/16 00:40:31  5-MIN KABI 040640Z 14007KT 10SM CLR 08/00 A3016 1570 58 1100 130/07 RMK AO2 T00780000
13962KABI ABI20160304004510503/04/16 00:45:31  5-MIN KABI 040645Z 13007KT 10SM CLR 08/M01 A3017 1570 53 1200 130/07 RMK AO2 T00831006
13962KABI ABI20160304005011203/04/16 00:50:31  5-MIN KABI 040650Z 13006KT 10SM CLR 08/M01 A3016 1570 53 1200 120/06 RMK AO2 SLP203 T00831006
13962KABI ABI20160304005510503/04/16 00:55:31  5-MIN KABI 040655Z 13006KT 10SM CLR 08/M01 A3017 1570 53 1200 130/06 RMK AO2 T00831006
13962KABI ABI20160304010010503/04/16 01:00:31  5-MIN KABI 040700Z 14006KT 10SM CLR 08/M01 A3016 1570 53 1100 130/06 RMK AO2 T00781011
13962KABI ABI20160304010510503/04/16 01:05:31  5-MIN KABI 040705Z 14006KT 10SM CLR 07/M01 A3016 1570 57 1000 130/06 RMK AO2 T00671011
13962KABI ABI20160304011010503/04/16 01:10:31  5-MIN KABI 040710Z 15007KT 10SM CLR 07/M01 A3016 1570 57 1000 140/07 RMK AO2 T00671011
13962KABI ABI20160304011510503/04/16 01:15:31  5-MIN KABI 040715Z 15007KT 10SM CLR 07/M01 A3016 1570 60 1000 150/07 RMK AO2 T00671006
13962KABI ABI20160304012010503/04/16 01:20:31  5-MIN KABI 040720Z 17007KT 10SM CLR 07/M01 A3016 1570 60 1000 160/07 RMK AO2 T00671006
13962KABI ABI20160304012510503/04/16 01:25:31  5-MIN KABI 040725Z 16006KT 10SM CLR 07/M01 A3016 1570 57 1000 150/06 RMK AO2 T00671011
13962KABI ABI20160304013010403/04/16 01:30:31  5-MIN KABI 040730Z 16007KT 10SM CLR 06/M01 A3016 1570 62 900 160/07 RMK AO2 T00611006
13962KABI ABI20160304013510403/04/16 01:35:31  5-MIN KABI 040735Z 18007KT 10SM CLR 05/M01 A3016 1570 67 800 170/07 RMK AO2 T00501006
13962KABI ABI20160304014010303/04/16 01:40:31  5-MIN KABI 040740Z 19008KT 10SM CLR 05/00 A3016 1580 70 800 180/08 RMK AO2 T00500000
13962KABI ABI20160304014510303/04/16 01:45:31  5-MIN KABI 040745Z 18008KT 10SM CLR 05/00 A3016 1580 70 800 180/08 RMK AO2 T00500000
13962KABI ABI20160304015011003/04/16 01:50:31  5-MIN KABI 040750Z 21008KT 10SM CLR 05/00 A3016 1570 70 800 200/08 RMK AO2 SLP202 T00500000
13962KABI ABI20160304015510303/04/16 01:55:31  5-MIN KABI 040755Z 20008KT 10SM CLR 05/00 A3016 1570 70 800 190/08 RMK AO2 T00500000
13962KABI ABI20160304020010303/04/16 02:00:31  5-MIN KABI 040800Z 20008KT 10SM CLR 05/00 A3016 1570 70 800 190/08 RMK AO2 T00500000
13962KABI ABI20160304020510303/04/16 02:05:31  5-MIN KABI 040805Z 18007KT 10SM CLR 06/00 A3016 1570 67 800 180/07 RMK AO2 T00560000
13962KABI ABI20160304021010303/04/16 02:10:31  5-MIN KABI 040810Z 17007KT 10SM CLR 06/00 A3016 1570 67 900 160/07 RMK AO2 T00560000
13962KABI ABI20160304021510303/04/16 02:15:31  5-MIN KABI 040815Z 15008KT 10SM CLR 06/00 A3015 1580 65 900 140/08 RMK AO2 T00610000
13962KABI ABI20160304022010303/04/16 02:20:31  5-MIN KABI 040820Z 14008KT 10SM CLR 06/00 A3015 1580 65 900 130/08 RMK AO2 T00610000
13962KABI ABI20160304022510403/04/16 02:25:31  5-MIN KABI 040825Z 13009KT 10SM CLR 07/00 A3015 1590 62 1000 120/09 RMK AO2 T00670000
13962KABI ABI20160304023010503/04/16 02:30:31  5-MIN KABI 040830Z 12009KT 10SM CLR 07/M01 A3014 1590 60 1000 120/09 RMK AO2 T00671006
13962KABI ABI20160304023510503/04/16 02:35:31  5-MIN KABI 040835Z 13009KT 10SM CLR 07/M01 A3014 1590 60 1000 120/09 RMK AO2 T00671006
13962KABI ABI20160304024010503/04/16 02:40:31  5-MIN KABI 040840Z 14008KT 10SM CLR 07/M01 A3014 1590 60 1000 130/08 RMK AO2 T00671006
13962KABI ABI20160304024510503/04/16 02:45:31  5-MIN KABI 040845Z 13009KT 10SM CLR 07/M01 A3014 1590 60 1000 120/09 RMK AO2 T00671006
13962KABI ABI20160304025011803/04/16 02:50:31  5-MIN KABI 040850Z 13009KT 10SM CLR 07/M01 A3014 1590 57 1100 120/09 RMK AO2 SLP193 T00721006 50002
13962KABI ABI20160304025510503/04/16 02:55:31  5-MIN KABI 040855Z 13009KT 10SM CLR 07/M01 A3013 1600 60 1000 120/09 RMK AO2 T00671006
13962KABI ABI20160304030010503/04/16 03:00:31  5-MIN KABI 040900Z 13009KT 10SM CLR 07/M01 A3013 1600 60 1000 120/09 RMK AO2 T00671006
13962KABI ABI20160304030510503/04/16 03:05:31  5-MIN KABI 040905Z 12010KT 10SM CLR 07/M01 A3013 1600 57 1100 120/10 RMK AO2 T00721006
13962KABI ABI20160304031010503/04/16 03:10:31  5-MIN KABI 040910Z 13009KT 10SM CLR 07/M01 A3013 1600 57 1100 120/09 RMK AO2 T00721006
13962KABI ABI20160304031510503/04/16 03:15:31  5-MIN KABI 040915Z 14008KT 10SM CLR 07/M01 A3013 1600 60 1000 140/08 RMK AO2 T00671006
13962KABI ABI20160304032010503/04/16 03:20:31  5-MIN KABI 040920Z 14009KT 10SM CLR 07/M01 A3013 1600 60 1000 140/09 RMK AO2 T00671006
13962KABI ABI20160304032510503/04/16 03:25:31  5-MIN KABI 040925Z 15007KT 10SM CLR 07/M01 A3012 1600 60 1000 140/07 RMK AO2 T00671006
13962KABI ABI20160304033010503/04/16 03:30:31  5-MIN KABI 040930Z 16008KT 10SM CLR 07/M01 A3012 1600 57 1100 150/08 RMK AO2 T00721006
13962KABI ABI20160304033510403/04/16 03:35:31  5-MIN KABI 040935Z 17007KT 10SM CLR 08/00 A3012 1610 58 1200 170/07 RMK AO2 T00780000
13962KABI ABI20160304034010503/04/16 03:40:31  5-MIN KABI 040940Z 17008KT 10SM CLR 06/M01 A3012 1610 62 1000 170/08 RMK AO2 T00611006
13962KABI ABI20160304034510403/04/16 03:45:31  5-MIN KABI 040945Z 17008KT 10SM CLR 06/00 A3012 1610 65 1000 160/08 RMK AO2 T00610000
13962KABI ABI20160304035011003/04/16 03:50:31  5-MIN KABI 040950Z 18007KT 10SM CLR 06/00 A3012 1610 67 900 170/07 RMK AO2 SLP190 T00560000
13962KABI ABI20160304035510303/04/16 03:55:31  5-MIN KABI 040955Z 18008KT 10SM CLR 06/00 A3012 1610 67 900 170/08 RMK AO2 T00560000
13962KABI ABI20160304040010503/04/16 04:00:31  5-MIN KABI 041000Z 17008KT 10SM CLR 06/M01 A3012 1610 62 1000 170/08 RMK AO2 T00611006
13962KABI ABI20160304040510503/04/16 04:05:31  5-MIN KABI 041005Z 17007KT 10SM CLR 06/M01 A3012 1610 62 1000 170/07 RMK AO2 T00611006
13962KABI ABI20160304041010503/04/16 04:10:31  5-MIN KABI 041010Z 17007KT 10SM CLR 06/M01 A3012 1610 62 1000 160/07 RMK AO2 T00611006
13962KABI ABI20160304041510403/04/16 04:15:31  5-MIN KABI 041015Z 17007KT 10SM CLR 06/M01 A3012 1610 65 900 170/07 RMK AO2 T00561006
13962KABI ABI20160304042010403/04/16 04:20:31  5-MIN KABI 041020Z 17007KT 10SM CLR 06/M01 A3012 1610 65 900 170/07 RMK AO2 T00561006
13962KABI ABI20160304042510503/04/16 04:25:31  5-MIN KABI 041025Z 17008KT 10SM CLR 06/M01 A3012 1610 62 1000 160/08 RMK AO2 T00611006
13962KABI ABI20160304043010503/04/16 04:30:31  5-MIN KABI 041030Z 16007KT 10SM CLR 06/M01 A3012 1610 62 1000 160/07 RMK AO2 T00611006
13962KABI ABI20160304043510503/04/16 04:35:31  5-MIN KABI 041035Z 17006KT 10SM CLR 06/M01 A3012 1610 62 1000 160/06 RMK AO2 T00611006
13962KABI ABI20160304044010503/04/16 04:40:31  5-MIN KABI 041040Z 16008KT 10SM CLR 06/M01 A3012 1610 62 1000 160/08 RMK AO2 T00611006
13962KABI ABI20160304044510503/04/16 04:45:31  5-MIN KABI 041045Z 16007KT 10SM CLR 06/M01 A3012 1610 62 1000 160/07 RMK AO2 T00611006
13962KABI ABI20160304045011203/04/16 04:50:31  5-MIN KABI 041050Z 18006KT 10SM CLR 06/M01 A3012 1610 62 1000 170/06 RMK AO2 SLP191 T00611006
13962KABI ABI20160304045510503/04/16 04:55:31  5-MIN KABI 041055Z 17007KT 10SM CLR 06/M01 A3012 1610 62 1000 170/07 RMK AO2 T00611006
13962KABI ABI20160304050010503/04/16 05:00:31  5-MIN KABI 041100Z 18007KT 10SM CLR 06/M01 A3012 1600 62 1000 170/07 RMK AO2 T00611006
13962KABI ABI20160304050510503/04/16 05:05:31  5-MIN KABI 041105Z 20004KT 10SM CLR 06/M01 A3012 1600 62 1000 190/04 RMK AO2 T00611006
13962KABI ABI20160304051010403/04/16 05:10:31  5-MIN KABI 041110Z 18005KT 10SM CLR 06/M01 A3013 1600 65 900 180/05 RMK AO2 T00561006
13962KABI ABI20160304051510403/04/16 05:15:31  5-MIN KABI 041115Z 19004KT 10SM CLR 05/M01 A3013 1600 67 800 190/04 RMK AO2 T00501006
13962KABI ABI20160304052010403/04/16 05:20:31  5-MIN KABI 041120Z 21005KT 10SM CLR 05/M01 A3013 1600 67 800 210/05 RMK AO2 T00501006
13962KABI ABI20160304052510403/04/16 05:25:31  5-MIN KABI 041125Z 18005KT 10SM CLR 04/M01 A3013 1600 70 700 180/05 RMK AO2 T00441006
13962KABI ABI20160304053010403/04/16 05:30:31  5-MIN KABI 041130Z 18004KT 10SM CLR 04/M01 A3013 1600 70 700 170/04 RMK AO2 T00441006
13962KABI ABI20160304053510403/04/16 05:35:31  5-MIN KABI 041135Z 18005KT 10SM CLR 04/M01 A3013 1600 70 700 170/05 RMK AO2 T00441006
13962KABI ABI20160304054010403/04/16 05:40:31  5-MIN KABI 041140Z 17006KT 10SM CLR 06/M01 A3013 1600 65 900 170/06 RMK AO2 T00561006
13962KABI ABI20160304054510403/04/16 05:45:31  5-MIN KABI 041145Z 17006KT 10SM CLR 06/M01 A3013 1600 62 900 160/06 RMK AO2 T00611006
13962KABI ABI20160304055012903/04/16 05:50:31  5-MIN KABI 041150Z 16007KT 10SM CLR 06/M01 A3013 1600 60 900 160/07 RMK AO2 SLP195 T00611011 10083 20044 58014
13962KABI ABI20160304055510503/04/16 05:55:31  5-MIN KABI 041155Z 16008KT 10SM CLR 07/M01 A3013 1600 60 1000 160/08 RMK AO2 T00671006
13962KABI ABI20160304060010403/04/16 06:00:31  5-MIN KABI 041200Z 17007KT 10SM CLR 06/M01 A3013 1600 62 900 160/07 RMK AO2 T00611006
13962KABI ABI20160304060510503/04/16 06:05:31  5-MIN KABI 041205Z 17007KT 10SM CLR 07/M01 A3013 1600 60 1000 170/07 RMK AO2 T00671006
13962KABI ABI20160304061010403/04/16 06:10:31  5-MIN KABI 041210Z 17007KT 10SM CLR 06/M01 A3013 1590 65 900 170/07 RMK AO2 T00561006
13962KABI ABI20160304061510403/04/16 06:15:31  5-MIN KABI 041215Z 18006KT 10SM CLR 06/M01 A3014 1590 65 900 170/06 RMK AO2 T00561006
13962KABI ABI20160304062010403/04/16 06:20:31  5-MIN KABI 041220Z 18007KT 10SM CLR 06/M01 A3014 1590 62 900 170/07 RMK AO2 T00611006
13962KABI ABI20160304062510403/04/16 06:25:31  5-MIN KABI 041225Z 18007KT 10SM CLR 06/M01 A3014 1590 62 900 170/07 RMK AO2 T00611006
13962KABI ABI20160304063010503/04/16 06:30:31  5-MIN KABI 041230Z 17006KT 10SM CLR 07/M01 A3014 1590 60 1000 170/06 RMK AO2 T00671006
13962KABI ABI20160304063510503/04/16 06:35:31  5-MIN KABI 041235Z 16006KT 10SM CLR 07/M01 A3013 1590 57 1100 150/06 RMK AO2 T00721006
13962KABI ABI20160304064010403/04/16 06:40:31  5-MIN KABI 041240Z 17005KT 10SM CLR 06/M01 A3014 1590 62 900 170/05 RMK AO2 T00611006
13962KABI ABI20160304064510503/04/16 06:45:31  5-MIN KABI 041245Z 18004KT 10SM CLR 07/M01 A3014 1590 60 1000 180/04 RMK AO2 T00671006
13962KABI ABI20160304065011103/04/16 06:50:31  5-MIN KABI 041250Z 19004KT 10SM CLR 06/M01 A3014 1590 62 900 190/04 RMK AO2 SLP199 T00611006
13962KABI ABI20160304065510503/04/16 06:55:31  5-MIN KABI 041255Z 18005KT 10SM CLR 07/M01 A3014 1590 60 1000 180/05 RMK AO2 T00671006
13962KABI ABI20160304070010503/04/16 07:00:31  5-MIN KABI 041300Z 18005KT 10SM CLR 07/M01 A3014 1590 57 1100 180/05 RMK AO2 T00721006
13962KABI ABI20160304070510503/04/16 07:05:31  5-MIN KABI 041305Z 18004KT 10SM CLR 07/M01 A3014 1590 57 1100 170/04 RMK AO2 T00721006
13962KABI ABI20160304071010503/04/16 07:10:31  5-MIN KABI 041310Z 17005KT 10SM CLR 07/M01 A3015 1590 57 1100 160/05 RMK AO2 T00721006
13962KABI ABI20160304071510503/04/16 07:15:31  5-MIN KABI 041315Z 17005KT 10SM CLR 07/M01 A3014 1590 57 1100 160/05 RMK AO2 T00721006
13962KABI ABI20160304072010503/04/16 07:20:31  5-MIN KABI 041320Z 17005KT 10SM CLR 07/M01 A3015 1580 57 1100 170/05 RMK AO2 T00721006
13962KABI ABI20160304072510503/04/16 07:25:31  5-MIN KABI 041325Z 17006KT 10SM CLR 07/M01 A3015 1580 57 1100 160/06 RMK AO2 T00721006
13962KABI ABI20160304073010403/04/16 07:30:31  5-MIN KABI 041330Z 18005KT 10SM CLR 07/00 A3015 1580 60 1100 170/05 RMK AO2 T00720000
13962KABI ABI20160304073510403/04/16 07:35:31  5-MIN KABI 041335Z 18005KT 10SM CLR 08/01 A3015 1580 60 1100 170/05 RMK AO2 T00780006
13962KABI ABI20160304074010403/04/16 07:40:31  5-MIN KABI 041340Z 17004KT 10SM CLR 08/01 A3015 1580 58 1200 170/04 RMK AO2 T00830006
13962KABI ABI20160304074510403/04/16 07:45:31  5-MIN KABI 041345Z 18005KT 10SM CLR 08/01 A3015 1580 58 1200 170/05 RMK AO2 T00830006
13962KABI ABI20160304075011103/04/16 07:50:31  5-MIN KABI 041350Z 18006KT 10SM CLR 09/01 A3016 1570 58 1300 180/06 RMK AO2 SLP203 T00890011
13962KABI ABI20160304075510403/04/16 07:55:31  5-MIN KABI 041355Z 19008KT 10SM CLR 09/01 A3016 1570 56 1300 180/08 RMK AO2 T00940011
13962KABI ABI20160304080010403/04/16 08:00:31  5-MIN KABI 041400Z 18009KT 10SM CLR 10/01 A3016 1570 52 1400 180/09 RMK AO2 T01000006
13962KABI ABI20160304080510403/04/16 08:05:31  5-MIN KABI 041405Z 19009KT 10SM CLR 11/01 A3016 1570 52 1400 180/09 RMK AO2 T01060011
13962KABI ABI20160304081010403/04/16 08:10:31  5-MIN KABI 041410Z 19007KT 10SM CLR 11/01 A3017 1570 52 1400 180/07 RMK AO2 T01060011
13962KABI ABI20160304081510403/04/16 08:15:31  5-MIN KABI 041415Z 18008KT 10SM CLR 11/01 A3016 1570 50 1500 180/08 RMK AO2 T01110011
13962KABI ABI20160304082010403/04/16 08:20:31  5-MIN KABI 041420Z 19009KT 10SM CLR 12/01 A3017 1570 48 1600 180/09 RMK AO2 T01170011
13962KABI ABI20160304082510403/04/16 08:25:31  5-MIN KABI 041425Z 19011KT 10SM CLR 12/01 A3017 1560 46 1600 180/11 RMK AO2 T01220011
13962KABI ABI20160304083010403/04/16 08:30:31  5-MIN KABI 041430Z 18012KT 10SM CLR 12/01 A3017 1560 44 1600 180/12 RMK AO2 T01220006
13962KABI ABI20160304083510403/04/16 08:35:31  5-MIN KABI 041435Z 19010KT 10SM CLR 12/01 A3017 1560 44 1600 180/10 RMK AO2 T01220006
13962KABI ABI20160304084010403/04/16 08:40:31  5-MIN KABI 041440Z 18013KT 10SM CLR 13/01 A3017 1560 44 1700 180/13 RMK AO2 T01280011
13962KABI ABI20160304084510403/04/16 08:45:31  5-MIN KABI 041445Z 18011KT 10SM CLR 13/01 A3017 1560 44 1700 180/11 RMK AO2 T01280011
13962KABI ABI20160304085011703/04/16 08:50:31  5-MIN KABI 041450Z 18013KT 10SM CLR 13/01 A3017 1560 43 1700 170/13 RMK AO2 SLP208 T01280006 55001
13962KABI ABI20160304085510403/04/16 08:55:31  5-MIN KABI 041455Z 18011KT 10SM CLR 13/01 A3018 1560 43 1700 170/11 RMK AO2 T01280006
13962KABI ABI20160304090010403/04/16 09:00:31  5-MIN KABI 041500Z 18011KT 10SM CLR 13/01 A3018 1560 43 1700 180/11 RMK AO2 T01280006
13962KABI ABI20160304090510403/04/16 09:05:31  5-MIN KABI 041505Z 19011KT 10SM CLR 12/01 A3018 1550 44 1600 190/11 RMK AO2 T01220006
13962KABI ABI20160304091010403/04/16 09:10:31  5-MIN KABI 041510Z 19011KT 10SM CLR 12/01 A3018 1550 44 1600 190/11 RMK AO2 T01220006
13962KABI ABI20160304091511003/04/16 09:15:31  5-MIN KABI 041515Z 19014G18KT 10SM CLR 12/01 A3018 1550 44 1600 180/14G18 RMK AO2 T01220006
13962KABI ABI20160304092010403/04/16 09:20:31  5-MIN KABI 041520Z 18013KT 10SM CLR 13/01 A3018 1550 43 1700 180/13 RMK AO2 T01280006
13962KABI ABI20160304092510403/04/16 09:25:31  5-MIN KABI 041525Z 18011KT 10SM CLR 13/01 A3018 1550 43 1700 180/11 RMK AO2 T01280006
13962KABI ABI20160304093010403/04/16 09:30:31  5-MIN KABI 041530Z 19012KT 10SM CLR 13/01 A3018 1560 43 1700 180/12 RMK AO2 T01280006
13962KABI ABI20160304093510403/04/16 09:35:31  5-MIN KABI 041535Z 18012KT 10SM CLR 13/01 A3018 1560 43 1800 180/12 RMK AO2 T01330011
13962KABI ABI20160304194010403/04/16 19:40:31  5-MIN KABI 050140Z 16010KT 10SM CLR 17/03 A2998 1730 39 2400 160/10 RMK AO2 T01720033
13962KABI ABI20160304194510403/04/16 19:45:31  5-MIN KABI 050145Z 16011KT 10SM CLR 17/03 A2998 1740 39 2400 160/11 RMK AO2 T01720033
13962KABI ABI20160304195011103/04/16 19:50:31  5-MIN KABI 050150Z 16011KT 10SM CLR 17/03 A2998 1740 39 2400 160/11 RMK AO2 SLP142 T01720033
13962KABI ABI20160304195510403/04/16 19:55:31  5-MIN KABI 050155Z 16011KT 10SM CLR 17/03 A2998 1730 39 2400 160/11 RMK AO2 T01720033
13962KABI ABI20160304200010403/04/16 20:00:31  5-MIN KABI 050200Z 16011KT 10SM CLR 17/03 A2999 1730 39 2400 150/11 RMK AO2 T01720033
13962KABI ABI20160304200510403/04/16 20:05:31  5-MIN KABI 050205Z 16010KT 10SM CLR 17/03 A2999 1730 39 2400 160/10 RMK AO2 T01720033
13962KABI ABI20160304201010403/04/16 20:10:31  5-MIN KABI 050210Z 16011KT 10SM CLR 17/03 A2999 1730 40 2400 150/11 RMK AO2 T01670033
13962KABI ABI20160304201510403/04/16 20:15:31  5-MIN KABI 050215Z 16011KT 10SM CLR 17/03 A2999 1730 40 2400 160/11 RMK AO2 T01670033
13962KABI ABI20160304202010403/04/16 20:20:31  5-MIN KABI 050220Z 16010KT 10SM CLR 17/03 A2999 1720 40 2400 160/10 RMK AO2 T01670033
13962KABI ABI20160304202510403/04/16 20:25:31  5-MIN KABI 050225Z 16009KT 10SM CLR 17/03 A3000 1720 40 2400 160/09 RMK AO2 T01670033
13962KABI ABI20160304203010403/04/16 20:30:31  5-MIN KABI 050230Z 16009KT 10SM CLR 16/03 A3000 1720 42 2300 160/09 RMK AO2 T01610033
13962KABI ABI20160304203510403/04/16 20:35:31  5-MIN KABI 050235Z 16010KT 10SM CLR 16/03 A3000 1710 42 2300 150/10 RMK AO2 T01610033
13962KABI ABI20160304204010403/04/16 20:40:31  5-MIN KABI 050240Z 16008KT 10SM CLR 16/03 A3001 1710 42 2300 160/08 RMK AO2 T01610033
13962KABI ABI20160304204510403/04/16 20:45:31  5-MIN KABI 050245Z 16009KT 10SM CLR 16/03 A3001 1710 43 2200 160/09 RMK AO2 T01560033
13962KABI ABI20160304205011703/04/16 20:50:31  5-MIN KABI 050250Z 16009KT 10SM CLR 16/04 A3001 1710 45 2200 160/09 RMK AO2 SLP151 T01560039 56013
13962KABI ABI20160304205510403/04/16 20:55:31  5-MIN KABI 050255Z 16009KT 10SM CLR 16/04 A3002 1700 45 2200 160/09 RMK AO2 T01560039
13962KABI ABI20160304210010403/04/16 21:00:31  5-MIN KABI 050300Z 16009KT 10SM CLR 16/04 A3002 1700 45 2200 150/09 RMK AO2 T01560039
13962KABI ABI20160304210510403/04/16 21:05:31  5-MIN KABI 050305Z 16009KT 10SM CLR 16/04 A3002 1700 45 2200 150/09 RMK AO2 T01560039
13962KABI ABI20160304211010403/04/16 21:10:31  5-MIN KABI 050310Z 15009KT 10SM CLR 15/04 A3002 1700 47 2100 150/09 RMK AO2 T01500039
13962KABI ABI20160304211510403/04/16 21:15:31  5-MIN KABI 050315Z 15010KT 10SM CLR 15/04 A3002 1700 47 2100 150/10 RMK AO2 T01500039
13962KABI ABI20160304212010403/04/16 21:20:31  5-MIN KABI 050320Z 16009KT 10SM CLR 15/04 A3003 1700 47 2100 150/09 RMK AO2 T01500039
13962KABI ABI20160304212510403/04/16 21:25:31  5-MIN KABI 050325Z 16009KT 10SM CLR 15/04 A3002 1700 47 2100 160/09 RMK AO2 T01500039
13962KABI ABI20160304213010403/04/16 21:30:31  5-MIN KABI 050330Z 16008KT 10SM CLR 15/04 A3003 1700 47 2100 160/08 RMK AO2 T01500039
13962KABI ABI20160304213510403/04/16 21:35:31  5-MIN KABI 050335Z 16009KT 10SM CLR 15/04 A3003 1690 47 2100 160/09 RMK AO2 T01500039
13962KABI ABI20160304214010403/04/16 21:40:31  5-MIN KABI 050340Z 15008KT 10SM CLR 15/04 A3003 1690 47 2100 150/08 RMK AO2 T01500039
13962KABI ABI20160304214510403/04/16 21:45:31  5-MIN KABI 050345Z 15007KT 10SM CLR 15/04 A3003 1690 47 2100 150/07 RMK AO2 T01500039
13962KABI ABI20160304215011103/04/16 21:50:31  5-MIN KABI 050350Z 15008KT 10SM CLR 15/04 A3003 1690 47 2100 150/08 RMK AO2 SLP158 T01500039
13962KABI ABI20160304215510403/04/16 21:55:31  5-MIN KABI 050355Z 15008KT 10SM CLR 15/04 A3003 1690 47 2100 140/08 RMK AO2 T01500039
13962KABI ABI20160304220010403/04/16 22:00:31  5-MIN KABI 050400Z 15008KT 10SM CLR 14/04 A3003 1690 49 2100 140/08 RMK AO2 T01440039
13962KABI ABI20160304220510403/04/16 22:05:31  5-MIN KABI 050405Z 15008KT 10SM CLR 14/04 A3003 1690 50 2000 140/08 RMK AO2 T01390039
13962KABI ABI20160304221010403/04/16 22:10:31  5-MIN KABI 050410Z 15009KT 10SM CLR 14/04 A3003 1690 50 2000 150/09 RMK AO2 T01390039
13962KABI ABI20160304221510403/04/16 22:15:31  5-MIN KABI 050415Z 16009KT 10SM CLR 14/04 A3003 1690 49 2100 150/09 RMK AO2 T01440039
13962KABI ABI20160304222010403/04/16 22:20:31  5-MIN KABI 050420Z 16010KT 10SM CLR 14/04 A3003 1690 49 2100 150/10 RMK AO2 T01440039
13962KABI ABI20160304222510403/04/16 22:25:31  5-MIN KABI 050425Z 16009KT 10SM CLR 14/04 A3003 1690 49 2100 150/09 RMK AO2 T01440039
13962KABI ABI20160304223010403/04/16 22:30:31  5-MIN KABI 050430Z 16009KT 10SM CLR 14/04 A3003 1690 49 2100 150/09 RMK AO2 T01440039
13962KABI ABI20160304223510403/04/16 22:35:31  5-MIN KABI 050435Z 16009KT 10SM CLR 14/04 A3003 1690 49 2100 150/09 RMK AO2 T01440039
13962KABI ABI20160304224010403/04/16 22:40:31  5-MIN KABI 050440Z 16008KT 10SM CLR 14/04 A3003 1690 49 2100 150/08 RMK AO2 T01440039
13962KABI ABI20160304224510403/04/16 22:45:31  5-MIN KABI 050445Z 16009KT 10SM CLR 14/04 A3003 1690 50 2000 150/09 RMK AO2 T01390039
13962KABI ABI20160304225011103/04/16 22:50:31  5-MIN KABI 050450Z 16010KT 10SM CLR 14/04 A3003 1690 50 2000 160/10 RMK AO2 SLP156 T01390039
13962KABI ABI20160304225510403/04/16 22:55:31  5-MIN KABI 050455Z 16009KT 10SM CLR 14/04 A3003 1690 50 2000 150/09 RMK AO2 T01390039
13962KABI ABI20160304230010403/04/16 23:00:31  5-MIN KABI 050500Z 16010KT 10SM CLR 14/04 A3003 1690 50 2000 160/10 RMK AO2 T01390039
13962KABI ABI20160304230510403/04/16 23:05:31  5-MIN KABI 050505Z 16009KT 10SM CLR 14/04 A3004 1690 50 2000 150/09 RMK AO2 T01390039
13962KABI ABI20160304231010403/04/16 23:10:31  5-MIN KABI 050510Z 16009KT 10SM CLR 14/04 A3004 1690 50 2000 150/09 RMK AO2 T01390039
13962KABI ABI20160304231510403/04/16 23:15:31  5-MIN KABI 050515Z 15008KT 10SM CLR 13/04 A3004 1690 52 1900 150/08 RMK AO2 T01330039
13962KABI ABI20160304232010403/04/16 23:20:31  5-MIN KABI 050520Z 16010KT 10SM CLR 13/04 A3003 1690 54 1900 150/10 RMK AO2 T01280039
13962KABI ABI20160304232510403/04/16 23:25:31  5-MIN KABI 050525Z 16009KT 10SM CLR 13/04 A3003 1690 52 1900 160/09 RMK AO2 T01330039
13962KABI ABI20160304233010403/04/16 23:30:31  5-MIN KABI 050530Z 16009KT 10SM CLR 13/04 A3003 1690 52 1900 160/09 RMK AO2 T01330039
13962KABI ABI20160304233510403/04/16 23:35:31  5-MIN KABI 050535Z 17009KT 10SM CLR 14/04 A3003 1690 50 2000 160/09 RMK AO2 T01390039
13962KABI ABI20160304234010403/04/16 23:40:31  5-MIN KABI 050540Z 17009KT 10SM CLR 14/04 A3003 1690 50 2000 160/09 RMK AO2 T01390039
13962KABI ABI20160304234510403/04/16 23:45:31  5-MIN KABI 050545Z 17009KT 10SM CLR 14/04 A3003 1690 52 2000 170/09 RMK AO2 T01390044
13962KABI ABI20160304235013903/04/16 23:50:31  5-MIN KABI 050550Z 17009KT 10SM CLR 14/04 A3003 1690 52 2000 170/09 RMK AO2 SLP156 T01390044 10217 20128 402330044 53010
13962KABI ABI20160304235510403/04/16 23:55:31  5-MIN KABI 050555Z 18009KT 10SM CLR 14/04 A3003 1690 52 2000 170/09 RMK AO2 T01390044
13962KABI ABI20160305000010403/05/16 00:00:31  5-MIN KABI 050600Z 18008KT 10SM CLR 14/04 A3003 1690 51 2100 170/08 RMK AO2 T01440044
13962KABI ABI20160305000510403/05/16 00:05:31  5-MIN KABI 050605Z 18008KT 10SM CLR 14/04 A3003 1690 51 2100 170/08 RMK AO2 T01440044
13962KABI ABI20160305001010403/05/16 00:10:31  5-MIN KABI 050610Z 18008KT 10SM CLR 15/04 A3003 1690 49 2100 170/08 RMK AO2 T01500044
13962KABI ABI20160305001510403/05/16 00:15:31  5-MIN KABI 050615Z 18006KT 10SM CLR 15/04 A3004 1680 49 2100 180/06 RMK AO2 T01500044
13962KABI ABI20160305002010403/05/16 00:20:31  5-MIN KABI 050620Z 19006KT 10SM CLR 15/04 A3004 1680 49 2100 190/06 RMK AO2 T01500044
13962KABI ABI20160305002510403/05/16 00:25:31  5-MIN KABI 050625Z 19006KT 10SM CLR 14/04 A3004 1690 51 2100 180/06 RMK AO2 T01440044
13962KABI ABI20160305003010403/05/16 00:30:31  5-MIN KABI 050630Z 18006KT 10SM CLR 14/04 A3004 1690 51 2100 180/06 RMK AO2 T01440044
13962KABI ABI20160305003510403/05/16 00:35:31  5-MIN KABI 050635Z 18006KT 10SM CLR 14/04 A3003 1690 51 2100 170/06 RMK AO2 T01440044
13962KABI ABI20160305004010403/05/16 00:40:31  5-MIN KABI 050640Z 17007KT 10SM CLR 14/04 A3004 1680 51 2100 160/07 RMK AO2 T01440044
13962KABI ABI20160305004510403/05/16 00:45:31  5-MIN KABI 050645Z 17006KT 10SM CLR 15/05 A3004 1680 51 2100 160/06 RMK AO2 T01500050
13962KABI ABI20160305005011103/05/16 00:50:31  5-MIN KABI 050650Z 16005KT 10SM CLR 14/04 A3005 1680 51 2000 160/05 RMK AO2 SLP159 T01440044
13962KABI ABI20160305005510403/05/16 00:55:31  5-MIN KABI 050655Z 16005KT 10SM CLR 14/04 A3005 1670 51 2000 150/05 RMK AO2 T01440044
13962KABI ABI20160305010010403/05/16 01:00:31  5-MIN KABI 050700Z 15005KT 10SM CLR 14/04 A3005 1670 52 2000 140/05 RMK AO2 T01390044
13962KABI ABI20160305010510403/05/16 01:05:31  5-MIN KABI 050705Z 14006KT 10SM CLR 13/04 A3005 1670 54 1900 140/06 RMK AO2 T01330044
13962KABI ABI20160305011010403/05/16 01:10:31  5-MIN KABI 050710Z 15006KT 10SM CLR 13/04 A3005 1670 56 1800 140/06 RMK AO2 T01280044
13962KABI ABI20160305011510403/05/16 01:15:31  5-MIN KABI 050715Z 14005KT 10SM CLR 13/04 A3006 1670 54 1900 130/05 RMK AO2 T01330044
13962KABI ABI20160305012010403/05/16 01:20:31  5-MIN KABI 050720Z 13006KT 10SM CLR 14/04 A3006 1670 52 2000 130/06 RMK AO2 T01390044
13962KABI ABI20160305012510403/05/16 01:25:31  5-MIN KABI 050725Z 13005KT 10SM CLR 14/04 A3006 1670 51 2000 120/05 RMK AO2 T01440044
13962KABI ABI20160305013010403/05/16 01:30:31  5-MIN KABI 050730Z 14006KT 10SM CLR 14/04 A3006 1670 52 2000 140/06 RMK AO2 T01390044
13962KABI ABI20160305013510403/05/16 01:35:31  5-MIN KABI 050735Z 13006KT 10SM CLR 13/04 A3006 1670 54 1900 130/06 RMK AO2 T01330044
13962KABI ABI20160305014010403/05/16 01:40:31  5-MIN KABI 050740Z 12007KT 10SM CLR 13/04 A3006 1660 56 1800 120/07 RMK AO2 T01280044
13962KABI ABI20160305014510403/05/16 01:45:31  5-MIN KABI 050745Z 13008KT 10SM CLR 12/04 A3006 1660 59 1800 130/08 RMK AO2 T01220044
13962KABI ABI20160305015011103/05/16 01:50:31  5-MIN KABI 050750Z 14009KT 10SM CLR 12/04 A3006 1660 61 1700 140/09 RMK AO2 SLP164 T01170044
13962KABI ABI20160305015510403/05/16 01:55:31  5-MIN KABI 050755Z 15008KT 10SM CLR 11/04 A3006 1660 63 1600 140/08 RMK AO2 T01110044
13962KABI ABI20160305020010403/05/16 02:00:31  5-MIN KABI 050800Z 15009KT 10SM CLR 11/04 A3006 1660 66 1600 140/09 RMK AO2 T01060044
13962KABI ABI20160305020510403/05/16 02:05:31  5-MIN KABI 050805Z 14009KT 10SM CLR 11/04 A3006 1660 63 1600 140/09 RMK AO2 T01110044
13962KABI ABI20160305021010403/05/16 02:10:31  5-MIN KABI 050810Z 15009KT 10SM CLR 11/04 A3007 1660 63 1600 140/09 RMK AO2 T01110044
13962KABI ABI20160305021510403/05/16 02:15:31  5-MIN KABI 050815Z 14009KT 10SM CLR 11/04 A3007 1660 66 1600 130/09 RMK AO2 T01060044
13962KABI ABI20160305022010403/05/16 02:20:31  5-MIN KABI 050820Z 14009KT 10SM CLR 10/04 A3007 1660 65 1500 130/09 RMK AO2 T01000039
13962KABI ABI20160305022510403/05/16 02:25:31  5-MIN KABI 050825Z 14009KT 10SM CLR 10/04 A3007 1660 65 1500 130/09 RMK AO2 T01000039
13962KABI ABI20160305023010403/05/16 02:30:31  5-MIN KABI 050830Z 13008KT 10SM CLR 11/04 A3007 1650 66 1600 130/08 RMK AO2 T01060044
13962KABI ABI20160305023510403/05/16 02:35:31  5-MIN KABI 050835Z 14008KT 10SM CLR 11/04 A3007 1660 66 1600 130/08 RMK AO2 T01060044
13962KABI ABI20160305024010403/05/16 02:40:31  5-MIN KABI 050840Z 15008KT 10SM CLR 11/04 A3007 1660 66 1600 150/08 RMK AO2 T01060044
13962KABI ABI20160305024510403/05/16 02:45:31  5-MIN KABI 050845Z 16009KT 10SM CLR 10/04 A3007 1660 68 1500 150/09 RMK AO2 T01000044
13962KABI ABI20160305025011703/05/16 02:50:31  5-MIN KABI 050850Z 16009KT 10SM CLR 10/04 A3007 1660 68 1500 150/09 RMK AO2 SLP167 T01000044 51006
13962KABI ABI20160305025510403/05/16 02:55:31  5-MIN KABI 050855Z 16008KT 10SM CLR 11/04 A3007 1660 66 1600 150/08 RMK AO2 T01060044
13962KABI ABI20160305030010403/05/16 03:00:31  5-MIN KABI 050900Z 15008KT 10SM CLR 11/04 A3007 1650 66 1600 150/08 RMK AO2 T01060044
13962KABI ABI20160305030510403/05/16 03:05:31  5-MIN KABI 050905Z 14007KT 10SM CLR 10/04 A3007 1660 65 1500 140/07 RMK AO2 T01000039
13962KABI ABI20160305031010403/05/16 03:10:31  5-MIN KABI 050910Z 12007KT 10SM CLR 10/04 A3007 1660 65 1500 120/07 RMK AO2 T01000039
13962KABI ABI20160305031510403/05/16 03:15:31  5-MIN KABI 050915Z 13008KT 10SM CLR 09/04 A3007 1660 71 1400 130/08 RMK AO2 T00940044
13962KABI ABI20160305032010403/05/16 03:20:31  5-MIN KABI 050920Z 14009KT 10SM CLR 09/04 A3006 1660 71 1400 140/09 RMK AO2 T00890039
13962KABI ABI20160305032510403/05/16 03:25:31  5-MIN KABI 050925Z 15006KT 10SM CLR 09/04 A3007 1660 71 1400 140/06 RMK AO2 T00890039
13962KABI ABI20160305033010403/05/16 03:30:31  5-MIN KABI 050930Z 15010KT 10SM CLR 09/04 A3007 1660 68 1400 140/10 RMK AO2 T00940039
13962KABI ABI20160305033510403/05/16 03:35:31  5-MIN KABI 050935Z 15009KT 10SM CLR 10/04 A3007 1650 68 1500 140/09 RMK AO2 T01000044
13962KABI ABI20160305034010403/05/16 03:40:31  5-MIN KABI 050940Z 15008KT 10SM CLR 09/04 A3007 1650 71 1400 140/08 RMK AO2 T00940044
13962KABI ABI20160305034510403/05/16 03:45:31  5-MIN KABI 050945Z 14007KT 10SM CLR 10/04 A3007 1650 68 1500 140/07 RMK AO2 T01000044
13962KABI ABI20160305035011103/05/16 03:50:31  5-MIN KABI 050950Z 14006KT 10SM CLR 11/04 A3007 1650 66 1600 140/06 RMK AO2 SLP168 T01060044
13962KABI ABI20160305035510403/05/16 03:55:31  5-MIN KABI 050955Z 15007KT 10SM CLR 11/04 A3007 1650 63 1600 140/07 RMK AO2 T01060039
13962KABI ABI20160305040010403/05/16 04:00:31  5-MIN KABI 051000Z 14006KT 10SM CLR 11/04 A3007 1650 63 1600 140/06 RMK AO2 T01060039
13962KABI ABI20160305040510403/05/16 04:05:31  5-MIN KABI 051005Z 15006KT 10SM CLR 11/04 A3007 1650 63 1500 140/06 RMK AO2 T01060039
13962KABI ABI20160305041010403/05/16 04:10:31  5-MIN KABI 051010Z 15007KT 10SM CLR 11/04 A3007 1650 63 1600 150/07 RMK AO2 T01060039
13962KABI ABI20160305041510403/05/16 04:15:31  5-MIN KABI 051015Z 15006KT 10SM CLR 10/04 A3007 1650 65 1500 140/06 RMK AO2 T01000039
13962KABI ABI20160305042010403/05/16 04:20:31  5-MIN KABI 051020Z 15007KT 10SM CLR 11/04 A3007 1650 63 1600 140/07 RMK AO2 T01060039
13962KABI ABI20160305042510403/05/16 04:25:31  5-MIN KABI 051025Z 14006KT 10SM CLR 10/04 A3007 1650 65 1500 140/06 RMK AO2 T01000039
13962KABI ABI20160305043010403/05/16 04:30:31  5-MIN KABI 051030Z 15007KT 10SM CLR 10/04 A3007 1650 65 1500 140/07 RMK AO2 T01000039
13962KABI ABI20160305043510403/05/16 04:35:31  5-MIN KABI 051035Z 15007KT 10SM CLR 09/04 A3007 1650 71 1400 140/07 RMK AO2 T00890039
13962KABI ABI20160305044010403/05/16 04:40:31  5-MIN KABI 051040Z 15008KT 10SM CLR 09/04 A3007 1650 68 1400 140/08 RMK AO2 T00940039
13962KABI ABI20160305044510403/05/16 04:45:31  5-MIN KABI 051045Z 15008KT 10SM CLR 11/04 A3008 1650 63 1500 150/08 RMK AO2 T01060039
13962KABI ABI20160305045011103/05/16 04:50:31  5-MIN KABI 051050Z 14007KT 10SM CLR 10/04 A3008 1650 65 1500 130/07 RMK AO2 SLP170 T01000039
13962KABI ABI20160305045510403/05/16 04:55:31  5-MIN KABI 051055Z 14007KT 10SM CLR 10/04 A3008 1650 65 1500 140/07 RMK AO2 T01000039
13962KABI ABI20160305050010403/05/16 05:00:31  5-MIN KABI 051100Z 13007KT 10SM CLR 10/04 A3008 1640 65 1500 130/07 RMK AO2 T01000039
13962KABI ABI20160305050510403/05/16 05:05:31  5-MIN KABI 051105Z 14008KT 10SM CLR 10/04 A3008 1640 65 1500 130/08 RMK AO2 T01000039
13962KABI ABI20160305051010403/05/16 05:10:31  5-MIN KABI 051110Z 15009KT 10SM CLR 10/04 A3008 1640 65 1500 150/09 RMK AO2 T01000039
13962KABI ABI20160305051510403/05/16 05:15:31  5-MIN KABI 051115Z 14008KT 10SM CLR 10/04 A3009 1640 65 1500 140/08 RMK AO2 T01000039
13962KABI ABI20160305052010403/05/16 05:20:31  5-MIN KABI 051120Z 14008KT 10SM CLR 10/04 A3009 1640 65 1500 130/08 RMK AO2 T01000039
13962KABI ABI20160305052510403/05/16 05:25:31  5-MIN KABI 051125Z 14008KT 10SM CLR 10/04 A3009 1640 65 1500 140/08 RMK AO2 T01000039
13962KABI ABI20160305053010403/05/16 05:30:31  5-MIN KABI 051130Z 14008KT 10SM CLR 10/04 A3009 1640 65 1500 130/08 RMK AO2 T01000039
13962KABI ABI20160305053510403/05/16 05:35:31  5-MIN KABI 051135Z 13008KT 10SM CLR 10/04 A3009 1630 65 1500 120/08 RMK AO2 T01000039
13962KABI ABI20160305054010403/05/16 05:40:31  5-MIN KABI 051140Z 15009KT 10SM CLR 10/04 A3009 1640 65 1500 140/09 RMK AO2 T01000039
13962KABI ABI20160305054510403/05/16 05:45:31  5-MIN KABI 051145Z 15010KT 10SM CLR 10/04 A3009 1640 65 1500 150/10 RMK AO2 T01000039
13962KABI ABI20160305055012903/05/16 05:50:31  5-MIN KABI 051150Z 14009KT 10SM CLR 10/04 A3009 1630 65 1500 140/09 RMK AO2 SLP177 T01000039 10150 20089 51011
13962KABI ABI20160305055510403/05/16 05:55:31  5-MIN KABI 051155Z 14009KT 10SM CLR 09/04 A3010 1630 68 1400 140/09 RMK AO2 T00940039
13962KABI ABI20160305060010403/05/16 06:00:31  5-MIN KABI 051200Z 15008KT 10SM CLR 10/04 A3010 1630 65 1500 140/08 RMK AO2 T01000039
13962KABI ABI20160305060510403/05/16 06:05:31  5-MIN KABI 051205Z 14007KT 10SM CLR 09/04 A3010 1630 68 1400 140/07 RMK AO2 T00940039
13962KABI ABI20160305061010403/05/16 06:10:31  5-MIN KABI 051210Z 14008KT 10SM CLR 09/04 A3010 1630 68 1400 140/08 RMK AO2 T00940039
13962KABI ABI20160305061510403/05/16 06:15:31  5-MIN KABI 051215Z 14008KT 10SM CLR 09/04 A3010 1620 68 1400 140/08 RMK AO2 T00940039
13962KABI ABI20160305062010403/05/16 06:20:31  5-MIN KABI 051220Z 14007KT 10SM CLR 09/04 A3011 1620 68 1400 140/07 RMK AO2 T00940039
13962KABI ABI20160305062510403/05/16 06:25:31  5-MIN KABI 051225Z 14009KT 10SM CLR 09/04 A3011 1620 68 1400 130/09 RMK AO2 T00940039
13962KABI ABI20160305063010403/05/16 06:30:31  5-MIN KABI 051230Z 15009KT 10SM CLR 09/04 A3011 1620 68 1400 140/09 RMK AO2 T00940039
13962KABI ABI20160305063510403/05/16 06:35:31  5-MIN KABI 051235Z 14008KT 10SM CLR 09/04 A3012 1610 68 1400 130/08 RMK AO2 T00940039
13962KABI ABI20160305064010403/05/16 06:40:31  5-MIN KABI 051240Z 15008KT 10SM CLR 09/04 A3012 1610 68 1400 140/08 RMK AO2 T00940039
13962KABI ABI20160305064510403/05/16 06:45:31  5-MIN KABI 051245Z 14007KT 10SM CLR 09/04 A3012 1610 68 1400 140/07 RMK AO2 T00940039
13962KABI ABI20160305065011103/05/16 06:50:31  5-MIN KABI 051250Z 15004KT 10SM CLR 09/04 A3012 1610 71 1300 150/04 RMK AO2 SLP189 T00890039
13962KABI ABI20160305065510403/05/16 06:55:31  5-MIN KABI 051255Z 00000KT 10SM CLR 08/03 A3012 1600 70 1200 000/00 RMK AO2 T00830033
13962KABI ABI20160305070010403/05/16 07:00:31  5-MIN KABI 051300Z 14003KT 10SM CLR 09/03 A3012 1600 65 1400 130/03 RMK AO2 T00940033
13962KABI ABI20160305070510403/05/16 07:05:31  5-MIN KABI 051305Z 16003KT 10SM CLR 09/03 A3013 1600 68 1300 160/03 RMK AO2 T00890033
13962KABI ABI20160305071010403/05/16 07:10:31  5-MIN KABI 051310Z 00000KT 10SM CLR 09/03 A3013 1600 68 1300 000/00 RMK AO2 T00890033
13962KABI ABI20160305071510403/05/16 07:15:31  5-MIN KABI 051315Z 00000KT 10SM CLR 10/03 A3013 1600 63 1400 000/00 RMK AO2 T01000033
13962KABI ABI20160305072010403/05/16 07:20:31  5-MIN KABI 051320Z 17003KT 10SM CLR 10/03 A3013 1600 63 1400 170/03 RMK AO2 T01000033
13962KABI ABI20160305072510403/05/16 07:25:31  5-MIN KABI 051325Z 25004KT 10SM CLR 09/04 A3013 1600 68 1400 250/04 RMK AO2 T00940039
13962KABI ABI20160305073010403/05/16 07:30:31  5-MIN KABI 051330Z 25003KT 10SM CLR 09/04 A3014 1590 71 1300 250/03 RMK AO2 T00890039
13962KABI ABI20160305073510403/05/16 07:35:31  5-MIN KABI 051335Z 00000KT 10SM CLR 09/04 A3014 1590 68 1300 000/00 RMK AO2 T00940039
13962KABI ABI20160305074010403/05/16 07:40:31  5-MIN KABI 051340Z 00000KT 10SM CLR 10/04 A3015 1590 65 1400 000/00 RMK AO2 T01000039
13962KABI ABI20160305074510403/05/16 07:45:31  5-MIN KABI 051345Z 00000KT 10SM CLR 11/04 A3015 1580 63 1500 000/00 RMK AO2 T01060039
13962KABI ABI20160305075011103/05/16 07:50:31  5-MIN KABI 051350Z VRB03KT 10SM CLR 11/04 A3015 1580 63 1500 VRB/03 RMK AO2 SLP198 T01110044
13962KABI ABI20160305075510403/05/16 07:55:31  5-MIN KABI 051355Z 33004KT 10SM CLR 11/05 A3015 1580 66 1500 330/04 RMK AO2 T01110050
13962KABI ABI20160305080010403/05/16 08:00:31  5-MIN KABI 051400Z 34004KT 10SM CLR 11/05 A3016 1570 66 1500 340/04 RMK AO2 T01110050
13962KABI ABI20160305080510403/05/16 08:05:31  5-MIN KABI 051405Z 33004KT 10SM CLR 11/06 A3016 1570 68 1500 330/04 RMK AO2 T01110056
13962KABI ABI20160305081010403/05/16 08:10:31  5-MIN KABI 051410Z 34006KT 10SM CLR 12/06 A3016 1570 66 1600 330/06 RMK AO2 T01170056
13962KABI ABI20160305081510403/05/16 08:15:31  5-MIN KABI 051415Z 33006KT 10SM CLR 12/06 A3017 1570 66 1600 330/06 RMK AO2 T01170056
13962KABI ABI20160305082010403/05/16 08:20:31  5-MIN KABI 051420Z 34006KT 10SM CLR 12/06 A3017 1560 63 1600 340/06 RMK AO2 T01220056
13962KABI ABI20160305082510403/05/16 08:25:31  5-MIN KABI 051425Z 35007KT 10SM CLR 12/05 A3017 1560 61 1600 340/07 RMK AO2 T01220050
13962KABI ABI20160305083010403/05/16 08:30:31  5-MIN KABI 051430Z 34006KT 10SM CLR 12/05 A3017 1560 61 1600 330/06 RMK AO2 T01220050
13962KABI ABI20160305083510403/05/16 08:35:31  5-MIN KABI 051435Z 33006KT 10SM CLR 12/05 A3018 1560 61 1600 330/06 RMK AO2 T01220050
13962KABI ABI20160305084010403/05/16 08:40:31  5-MIN KABI 051440Z 34004KT 10SM CLR 13/05 A3018 1560 59 1700 340/04 RMK AO2 T01280050
13962KABI ABI20160305084510403/05/16 08:45:31  5-MIN KABI 051445Z 35004KT 10SM CLR 13/06 A3018 1550 59 1800 350/04 RMK AO2 T01330056
13962KABI ABI20160305085011703/05/16 08:50:31  5-MIN KABI 051450Z 02004KT 10SM CLR 14/05 A3018 1550 55 1800 010/04 RMK AO2 SLP209 T01390050 53008
13962KABI ABI20160305085510403/05/16 08:55:31  5-MIN KABI 051455Z 02003KT 10SM CLR 14/05 A3018 1550 55 1800 020/03 RMK AO2 T01390050
13962KABI ABI20160305090010403/05/16 09:00:31  5-MIN KABI 051500Z 02003KT 10SM CLR 14/06 A3019 1550 55 1900 010/03 RMK AO2 T01440056
13962KABI ABI20160305090510403/05/16 09:05:31  5-MIN KABI 051505Z 00000KT 10SM CLR 15/05 A3019 1550 51 1900 000/00 RMK AO2 T01500050
13962KABI ABI20160305091010403/05/16 09:10:31  5-MIN KABI 051510Z 00000KT 10SM CLR 16/05 A3019 1550 49 2000 000/00 RMK AO2 T01560050
13962KABI ABI20160305091510403/05/16 09:15:31  5-MIN KABI 051515Z 00000KT 10SM CLR 16/05 A3019 1540 49 2000 000/00 RMK AO2 T01560050
13962KABI ABI20160305092010403/05/16 09:20:31  5-MIN KABI 051520Z 00000KT 10SM CLR 16/04 A3019 1540 47 2000 000/00 RMK AO2 T01560044
13962KABI ABI20160305092510403/05/16 09:25:31  5-MIN KABI 051525Z 00000KT 10SM CLR 16/05 A3019 1540 49 2000 000/00 RMK AO2 T01560050
13962KABI ABI20160305093010403/05/16 09:30:31  5-MIN KABI 051530Z 00000KT 10SM CLR 16/05 A3019 1540 47 2100 000/00 RMK AO2 T01610050
13962KABI ABI20160305093510403/05/16 09:35:31  5-MIN KABI 051535Z 00000KT 10SM CLR 16/06 A3019 1540 49 2100 000/00 RMK AO2 T01610056
13962KABI ABI20160305094010403/05/16 09:40:31  5-MIN KABI 051540Z 00000KT 10SM CLR 16/05 A3019 1540 47 2100 000/00 RMK AO2 T01610050
13962KABI ABI20160305094510403/05/16 09:45:31  5-MIN KABI 051545Z 00000KT 10SM CLR 17/05 A3020 1540 45 2100 000/00 RMK AO2 T01670050
13962KABI ABI20160305095011103/05/16 09:50:31  5-MIN KABI 051550Z 00000KT 10SM CLR 17/06 A3020 1540 46 2200 000/00 RMK AO2 SLP212 T01720056
13962KABI ABI20160305095510403/05/16 09:55:31  5-MIN KABI 051555Z 00000KT 10SM CLR 17/05 A3020 1540 45 2100 000/00 RMK AO2 T01670050
13962KABI ABI20160305100010403/05/16 10:00:31  5-MIN KABI 051600Z 00000KT 10SM CLR 17/05 A3020 1540 44 2200 000/00 RMK AO2 T01720050
13962KABI ABI20160305100510403/05/16 10:05:31  5-MIN KABI 051605Z 00000KT 10SM CLR 17/05 A3020 1540 45 2100 000/00 RMK AO2 T01670050
13962KABI ABI20160305101010403/05/16 10:10:31  5-MIN KABI 051610Z 00000KT 10SM CLR 18/05 A3020 1540 42 2300 000/00 RMK AO2 T01780050
13962KABI ABI20160305101510403/05/16 10:15:31  5-MIN KABI 051615Z VRB03KT 10SM CLR 18/06 A3020 1540 42 2300 VRB/03 RMK AO2 T01830056
13962KABI ABI20160305102010403/05/16 10:20:31  5-MIN KABI 051620Z 00000KT 10SM CLR 18/06 A3020 1540 42 2300 000/00 RMK AO2 T01830056
13962KABI ABI20160305102510403/05/16 10:25:31  5-MIN KABI 051625Z 00000KT 10SM CLR 18/06 A3020 1540 42 2300 000/00 RMK AO2 T01830056
13962KABI ABI20160305103010403/05/16 10:30:31  5-MIN KABI 051630Z 00000KT 10SM CLR 18/06 A3020 1540 42 2300 000/00 RMK AO2 T01830056
13962KABI ABI20160305103510403/05/16 10:35:31  5-MIN KABI 051635Z 00000KT 10SM CLR 19/06 A3019 1540 41 2400 000/00 RMK AO2 T01890056
13962KABI ABI20160305104010403/05/16 10:40:31  5-MIN KABI 051640Z 00000KT 10SM CLR 19/06 A3019 1540 43 2400 000/00 RMK AO2 T01890061
13962KABI ABI20160305104510403/05/16 10:45:31  5-MIN KABI 051645Z 00000KT 10SM CLR 19/06 A3019 1540 43 2400 000/00 RMK AO2 T01890061
13962KABI ABI20160305105011103/05/16 10:50:31  5-MIN KABI 051650Z 10003KT 10SM CLR 19/06 A3019 1540 43 2400 090/03 RMK AO2 SLP210 T01890061
13962KABI ABI20160305105510403/05/16 10:55:31  5-MIN KABI 051655Z 00000KT 10SM CLR 19/06 A3019 1540 43 2400 000/00 RMK AO2 T01890061
13962KABI ABI20160305110010403/05/16 11:00:31  5-MIN KABI 051700Z 10004KT 10SM CLR 19/06 A3019 1540 41 2500 100/04 RMK AO2 T01940061
13962KABI ABI20160305110510403/05/16 11:05:31  5-MIN KABI 051705Z 00000KT 10SM CLR 19/06 A3019 1550 41 2500 000/00 RMK AO2 T01940061
13962KABI ABI20160305111010403/05/16 11:10:31  5-MIN KABI 051710Z 14004KT 10SM CLR 20/07 A3019 1550 41 2500 130/04 RMK AO2 T02000067
13962KABI ABI20160305111510403/05/16 11:15:31  5-MIN KABI 051715Z VRB03KT 10SM CLR 20/07 A3019 1550 41 2500 VRB/03 RMK AO2 T02000067
13962KABI ABI20160305112010403/05/16 11:20:31  5-MIN KABI 051720Z 00000KT 10SM CLR 20/06 A3019 1550 40 2500 000/00 RMK AO2 T02000061
13962KABI ABI20160305112510403/05/16 11:25:31  5-MIN KABI 051725Z 05003KT 10SM CLR 20/07 A3019 1550 41 2500 050/03 RMK AO2 T02000067
13962KABI ABI20160305113010403/05/16 11:30:31  5-MIN KABI 051730Z 00000KT 10SM CLR 21/07 A3018 1550 40 2600 000/00 RMK AO2 T02060067
13962KABI ABI20160305113510403/05/16 11:35:31  5-MIN KABI 051735Z VRB03KT 10SM CLR 22/07 A3018 1550 39 2700 VRB/03 RMK AO2 T02170072
13962KABI ABI20160305114010403/05/16 11:40:31  5-MIN KABI 051740Z VRB03KT 10SM CLR 22/07 A3018 1550 37 2800 VRB/03 RMK AO2 T02220072
13962KABI ABI20160305114510403/05/16 11:45:31  5-MIN KABI 051745Z 00000KT 10SM CLR 22/07 A3018 1560 37 2800 000/00 RMK AO2 T02220072
13962KABI ABI20160305115012903/05/16 11:50:31  5-MIN KABI 051750Z 00000KT 10SM CLR 23/08 A3018 1560 37 2900 000/00 RMK AO2 SLP202 T02280078 10228 20083 51028
13962KABI ABI20160305115509403/05/16 11:55:31  5-MIN KABI 051755Z 10SM CLR 23/07 A3017 1560 36 2900 M /M RMK AO2 T02280072
13962KABI ABI20160305120010403/05/16 12:00:31  5-MIN KABI 051800Z 07007KT 10SM CLR 23/07 A3017 1560 36 2900 070/07 RMK AO2 T02280072
13962KABI ABI20160305120510403/05/16 12:05:31  5-MIN KABI 051805Z 11007KT 10SM CLR 23/08 A3017 1560 37 2900 110/07 RMK AO2 T02280078
13962KABI ABI20160305121010403/05/16 12:10:31  5-MIN KABI 051810Z 11009KT 10SM CLR 23/08 A3017 1560 37 2900 100/09 RMK AO2 T02280078
13962KABI ABI20160305121510403/05/16 12:15:31  5-MIN KABI 051815Z 09010KT 10SM CLR 23/08 A3017 1570 36 2900 090/10 RMK AO2 T02330078
13962KABI ABI20160305122010403/05/16 12:20:31  5-MIN KABI 051820Z 11010KT 10SM CLR 23/08 A3016 1570 36 2900 110/10 RMK AO2 T02330078
13962KABI ABI20160305122510403/05/16 12:25:31  5-MIN KABI 051825Z 11011KT 10SM CLR 23/07 A3016 1570 35 2900 100/11 RMK AO2 T02330072
13962KABI ABI20160305123010403/05/16 12:30:31  5-MIN KABI 051830Z 11012KT 10SM CLR 23/07 A3016 1570 35 2900 110/12 RMK AO2 T02330072
13962KABI ABI20160305123510403/05/16 12:35:31  5-MIN KABI 051835Z 13008KT 10SM CLR 24/07 A3016 1570 34 3000 130/08 RMK AO2 T02390072
13962KABI ABI20160305124011003/05/16 12:40:31  5-MIN KABI 051840Z 11015G18KT 10SM CLR 24/07 A3015 1580 32 3000 110/15G18 RMK AO2 T02390067
13962KABI ABI20160305124510403/05/16 12:45:31  5-MIN KABI 051845Z 11012KT 10SM CLR 23/06 A3015 1580 32 2900 100/12 RMK AO2 T02330061
13962KABI ABI20160305125011103/05/16 12:50:31  5-MIN KABI 051850Z 12013KT 10SM CLR 24/07 A3015 1580 32 3000 120/13 RMK AO2 SLP191 T02390067
13962KABI ABI20160305125511003/05/16 12:55:31  5-MIN KABI 051855Z 10011G18KT 10SM CLR 24/07 A3015 1580 32 3000 100/11G18 RMK AO2 T02390067
13962KABI ABI20160305130011003/05/16 13:00:31  5-MIN KABI 051900Z 11013G18KT 10SM CLR 24/07 A3014 1590 31 3100 110/13G18 RMK AO2 T02440067
13962KABI ABI20160305130510403/05/16 13:05:31  5-MIN KABI 051905Z 11012KT 10SM CLR 24/07 A3014 1590 32 3000 110/12 RMK AO2 T02390067
13962KABI ABI20160305131010403/05/16 13:10:31  5-MIN KABI 051910Z 13014KT 10SM CLR 24/07 A3014 1590 31 3100 120/14 RMK AO2 T02440067
13962KABI ABI20160305131510403/05/16 13:15:31  5-MIN KABI 051915Z 12015KT 10SM CLR 25/06 A3014 1590 29 3100 110/15 RMK AO2 T02500061
13962KABI ABI20160305132011003/05/16 13:20:31  5-MIN KABI 051920Z 13015G20KT 10SM CLR 24/06 A3013 1600 30 3100 120/15G20 RMK AO2 T02440061
13962KABI ABI20160305132511003/05/16 13:25:31  5-MIN KABI 051925Z 13015G23KT 10SM CLR 24/06 A3013 1600 30 3100 120/15G23 RMK AO2 T02440061
13962KABI ABI20160305133011003/05/16 13:30:31  5-MIN KABI 051930Z 11012G23KT 10SM CLR 24/06 A3012 1600 30 3100 110/12G23 RMK AO2 T02440061
13962KABI ABI20160305133511003/05/16 13:35:31  5-MIN KABI 051935Z 11015G23KT 10SM CLR 25/06 A3012 1600 29 3200 110/15G23 RMK AO2 T02500061
13962KABI ABI20160305134011003/05/16 13:40:31  5-MIN KABI 051940Z 11013G23KT 10SM CLR 24/06 A3012 1610 30 3100 110/13G23 RMK AO2 T02440061
13962KABI ABI20160305134510403/05/16 13:45:31  5-MIN KABI 051945Z 14013KT 10SM CLR 24/07 A3012 1610 31 3100 130/13 RMK AO2 T02440067
13962KABI ABI20160305135011103/05/16 13:50:31  5-MIN KABI 051950Z 11015KT 10SM CLR 24/06 A3012 1610 30 3100 110/15 RMK AO2 SLP182 T02440061
13962KABI ABI20160305135510403/05/16 13:55:31  5-MIN KABI 051955Z 12015KT 10SM CLR 24/06 A3012 1610 30 3100 120/15 RMK AO2 T02440061
13962KABI ABI20160305140011003/05/16 14:00:31  5-MIN KABI 052000Z 13015G22KT 10SM CLR 24/06 A3011 1610 30 3100 120/15G22 RMK AO2 T02440061
13962KABI ABI20160305140511003/05/16 14:05:31  5-MIN KABI 052005Z 13013G23KT 10SM CLR 24/06 A3011 1610 30 3100 120/13G23 RMK AO2 T02440061
13962KABI ABI20160305141011003/05/16 14:10:31  5-MIN KABI 052010Z 14013G23KT 10SM CLR 25/06 A3011 1620 28 3200 130/13G23 RMK AO2 T02500056
13962KABI ABI20160305141511003/05/16 14:15:31  5-MIN KABI 052015Z 15014G20KT 10SM CLR 25/06 A3011 1620 29 3200 140/14G20 RMK AO2 T02500061
13962KABI ABI20160305142010403/05/16 14:20:31  5-MIN KABI 052020Z 13015KT 10SM CLR 25/06 A3011 1620 29 3200 120/15 RMK AO2 T02500061
13962KABI ABI20160305142511003/05/16 14:25:31  5-MIN KABI 052025Z 14014G21KT 10SM CLR 25/06 A3010 1620 29 3200 130/14G21 RMK AO2 T02500061
13962KABI ABI20160305143011003/05/16 14:30:31  5-MIN KABI 052030Z 16013G21KT 10SM CLR 25/06 A3010 1630 29 3200 160/13G21 RMK AO2 T02500061
13962KABI ABI20160305143511003/05/16 14:35:31  5-MIN KABI 052035Z 14012G20KT 10SM CLR 25/07 A3010 1630 30 3200 140/12G20 RMK AO2 T02500067
13962KABI ABI20160305144010403/05/16 14:40:31  5-MIN KABI 052040Z 12013KT 10SM CLR 25/07 A3010 1630 30 3200 120/13 RMK AO2 T02500067
13962KABI ABI20160305144510403/05/16 14:45:31  5-MIN KABI 052045Z 13015KT 10SM CLR 25/06 A3010 1630 29 3200 120/15 RMK AO2 T02500061
13962KABI ABI20160305145011703/05/16 14:50:31  5-MIN KABI 052050Z 14014KT 10SM CLR 25/07 A3010 1630 31 3200 140/14 RMK AO2 SLP176 T02500072 58002
13962KABI ABI20160305145510403/05/16 14:55:31  5-MIN KABI 052055Z 14015KT 10SM CLR 25/07 A3010 1630 30 3200 140/15 RMK AO2 T02500067
13962KABI ABI20160305150010403/05/16 15:00:31  5-MIN KABI 052100Z 14018KT 10SM CLR 25/06 A3009 1630 29 3200 140/18 RMK AO2 T02500061
13962KABI ABI20160305150510403/05/16 15:05:31  5-MIN KABI 052105Z 15014KT 10SM CLR 25/05 A3010 1630 27 3200 150/14 RMK AO2 T02500050
13962KABI ABI20160305151010403/05/16 15:10:31  5-MIN KABI 052110Z 14015KT 10SM CLR 25/05 A3009 1630 27 3200 130/15 RMK AO2 T02500050
13962KABI ABI20160305151511003/05/16 15:15:31  5-MIN KABI 052115Z 14012G20KT 10SM CLR 25/06 A3009 1640 28 3200 140/12G20 RMK AO2 T02500056
13962KABI ABI20160305152011003/05/16 15:20:31  5-MIN KABI 052120Z 16015G19KT 10SM CLR 25/06 A3009 1640 28 3200 150/15G19 RMK AO2 T02500056
13962KABI ABI20160305152511003/05/16 15:25:31  5-MIN KABI 052125Z 15013G19KT 10SM CLR 24/05 A3009 1630 28 3100 140/13G19 RMK AO2 T02440050
13962KABI ABI20160305153010403/05/16 15:30:31  5-MIN KABI 052130Z 16013KT 10SM CLR 24/06 A3009 1640 29 3100 150/13 RMK AO2 T02440056
13962KABI ABI20160305153510403/05/16 15:35:31  5-MIN KABI 052135Z 15012KT 10SM CLR 24/06 A3009 1640 29 3100 150/12 RMK AO2 T02440056
13962KABI ABI20160305154010403/05/16 15:40:31  5-MIN KABI 052140Z 13013KT 10SM CLR 24/06 A3009 1640 29 3100 120/13 RMK AO2 T02440056
13962KABI ABI20160305154510403/05/16 15:45:31  5-MIN KABI 052145Z 14014KT 10SM CLR 25/06 A3009 1640 29 3200 140/14 RMK AO2 T02500061
13962KABI ABI20160305155011103/05/16 15:50:31  5-MIN KABI 052150Z 15013KT 10SM CLR 25/06 A3009 1640 28 3200 150/13 RMK AO2 SLP172 T02500056
13962KABI ABI20160305155510403/05/16 15:55:31  5-MIN KABI 052155Z 15014KT 10SM CLR 25/06 A3008 1640 28 3200 150/14 RMK AO2 T02500056
13962KABI ABI20160305160010403/05/16 16:00:31  5-MIN KABI 052200Z 13017KT 10SM CLR 24/05 A3009 1640 28 3100 130/17 RMK AO2 T02440050
13962KABI ABI20160305160510403/05/16 16:05:31  5-MIN KABI 052205Z 14016KT 10SM CLR 25/05 A3008 1640 27 3200 140/16 RMK AO2 T02500050
13962KABI ABI20160305161010403/05/16 16:10:31  5-MIN KABI 052210Z 16016KT 10SM CLR 25/05 A3008 1650 27 3200 150/16 RMK AO2 T02500050
13962KABI ABI20160305161510403/05/16 16:15:31  5-MIN KABI 052215Z 15017KT 10SM CLR 24/06 A3008 1650 29 3100 150/17 RMK AO2 T02440056
13962KABI ABI20160305162010403/05/16 16:20:31  5-MIN KABI 052220Z 13015KT 10SM CLR 24/05 A3008 1650 28 3200 130/15 RMK AO2 T02440050
13962KABI ABI20160305162510403/05/16 16:25:31  5-MIN KABI 052225Z 15014KT 10SM CLR 24/05 A3008 1650 28 3200 140/14 RMK AO2 T02440050
13962KABI ABI20160305163011003/05/16 16:30:31  5-MIN KABI 052230Z 14017G20KT 10SM CLR 24/06 A3008 1650 29 3200 130/17G20 RMK AO2 T02440056
13962KABI ABI20160305163511003/05/16 16:35:31  5-MIN KABI 052235Z 14012G20KT 10SM CLR 24/06 A3008 1650 29 3100 130/12G20 RMK AO2 T02440056
13962KABI ABI20160305164010403/05/16 16:40:31  5-MIN KABI 052240Z 16014KT 10SM CLR 24/06 A3008 1650 30 3100 160/14 RMK AO2 T02390056
13962KABI ABI20160305164510403/05/16 16:45:31  5-MIN KABI 052245Z 15014KT 10SM CLR 23/06 A3008 1650 31 3000 140/14 RMK AO2 T02330056
13962KABI ABI20160305165011703/05/16 16:50:31  5-MIN KABI 052250Z 15014G23KT 10SM CLR 24/06 A3008 1650 30 3100 140/14G23 RMK AO2 SLP170 T02390056
13962KABI ABI20160305165511003/05/16 16:55:31  5-MIN KABI 052255Z 15014G23KT 10SM CLR 23/06 A3008 1650 31 3000 150/14G23 RMK AO2 T02330056
13962KABI ABI20160305170010403/05/16 17:00:31  5-MIN KABI 052300Z 15011KT 10SM CLR 23/06 A3008 1640 31 3000 150/11 RMK AO2 T02330056
13962KABI ABI20160305170510403/05/16 17:05:31  5-MIN KABI 052305Z 15013KT 10SM CLR 23/06 A3008 1650 32 3000 140/13 RMK AO2 T02330061
13962KABI ABI20160305171010403/05/16 17:10:31  5-MIN KABI 052310Z 14015KT 10SM CLR 24/06 A3008 1650 31 3100 130/15 RMK AO2 T02390061
13962KABI ABI20160305171510403/05/16 17:15:31  5-MIN KABI 052315Z 14013KT 10SM CLR 23/06 A3008 1640 32 3000 140/13 RMK AO2 T02330061
13962KABI ABI20160305172010403/05/16 17:20:31  5-MIN KABI 052320Z 15014KT 10SM CLR 23/06 A3008 1640 32 3000 140/14 RMK AO2 T02330061
13962KABI ABI20160305172510403/05/16 17:25:31  5-MIN KABI 052325Z 15014KT 10SM CLR 23/06 A3008 1640 32 3000 150/14 RMK AO2 T02330061
13962KABI ABI20160305173010403/05/16 17:30:31  5-MIN KABI 052330Z 13013KT 10SM CLR 23/06 A3009 1640 32 3000 130/13 RMK AO2 T02330061
13962KABI ABI20160305173510403/05/16 17:35:31  5-MIN KABI 052335Z 15012KT 10SM CLR 23/06 A3009 1640 33 3000 140/12 RMK AO2 T02280061
13962KABI ABI20160305174010403/05/16 17:40:31  5-MIN KABI 052340Z 14011KT 10SM CLR 23/06 A3009 1630 33 2900 140/11 RMK AO2 T02280061
13962KABI ABI20160305174510403/05/16 17:45:31  5-MIN KABI 052345Z 14016KT 10SM CLR 22/06 A3009 1640 35 2900 130/16 RMK AO2 T02220061
13962KABI ABI20160305175012903/05/16 17:50:31  5-MIN KABI 052350Z 15014KT 10SM CLR 22/06 A3009 1630 35 2900 140/14 RMK AO2 SLP176 T02220061 10256 20222 56025
13962KABI ABI20160305175510403/05/16 17:55:31  5-MIN KABI 052355Z 14012KT 10SM CLR 22/06 A3009 1630 35 2900 140/12 RMK AO2 T02220061
13962KABI ABI20160305180010403/05/16 18:00:31  5-MIN KABI 060000Z 14015KT 10SM CLR 22/06 A3009 1630 33 2900 140/15 RMK AO2 T02220056
13962KABI ABI20160305180510403/05/16 18:05:31  5-MIN KABI 060005Z 14014KT 10SM CLR 22/06 A3009 1630 34 2800 140/14 RMK AO2 T02170056
13962KABI ABI20160305181010403/05/16 18:10:31  5-MIN KABI 060010Z 15014KT 10SM CLR 22/06 A3010 1630 36 2800 140/14 RMK AO2 T02170061
13962KABI ABI20160305181510403/05/16 18:15:31  5-MIN KABI 060015Z 15014KT 10SM CLR 22/06 A3010 1630 36 2800 140/14 RMK AO2 T02170061
13962KABI ABI20160305182010403/05/16 18:20:31  5-MIN KABI 060020Z 15011KT 10SM CLR 21/06 A3010 1620 37 2700 140/11 RMK AO2 T02110061
13962KABI ABI20160305182510403/05/16 18:25:31  5-MIN KABI 060025Z 15012KT 10SM CLR 21/06 A3010 1620 37 2700 140/12 RMK AO2 T02110061
13962KABI ABI20160305183010403/05/16 18:30:31  5-MIN KABI 060030Z 14011KT 10SM CLR 21/06 A3011 1620 37 2700 140/11 RMK AO2 T02110061
13962KABI ABI20160305183510403/05/16 18:35:31  5-MIN KABI 060035Z 14011KT 10SM CLR 21/06 A3010 1620 37 2700 140/11 RMK AO2 T02060056
13962KABI ABI20160305184010403/05/16 18:40:31  5-MIN KABI 060040Z 14010KT 10SM CLR 21/06 A3010 1620 38 2700 130/10 RMK AO2 T02060061
13962KABI ABI20160305184510403/05/16 18:45:31  5-MIN KABI 060045Z 14010KT 10SM CLR 20/06 A3010 1620 40 2600 130/10 RMK AO2 T02000061
13962KABI ABI20160305185011103/05/16 18:50:31  5-MIN KABI 060050Z 14009KT 10SM CLR 20/06 A3011 1620 40 2600 130/09 RMK AO2 SLP183 T02000061
13962KABI ABI20160305185510403/05/16 18:55:31  5-MIN KABI 060055Z 14009KT 10SM CLR 19/06 A3010 1620 41 2600 140/09 RMK AO2 T01940061
13962KABI ABI20160305190010403/05/16 19:00:31  5-MIN KABI 060100Z 14009KT 10SM CLR 19/06 A3010 1630 43 2500 140/09 RMK AO2 T01890061
13962KABI ABI20160305190510403/05/16 19:05:31  5-MIN KABI 060105Z 14009KT 10SM CLR 19/06 A3010 1630 43 2500 140/09 RMK AO2 T01890061
13962KABI ABI20160305191010403/05/16 19:10:31  5-MIN KABI 060110Z 14009KT 10SM CLR 18/06 A3010 1620 44 2400 140/09 RMK AO2 T01830061
13962KABI ABI20160305191510403/05/16 19:15:31  5-MIN KABI 060115Z 14009KT 10SM CLR 18/06 A3010 1620 44 2400 130/09 RMK AO2 T01830061
13962KABI ABI20160305192010403/05/16 19:20:31  5-MIN KABI 060120Z 14008KT 10SM CLR 18/06 A3010 1620 46 2400 130/08 RMK AO2 T01780061
13962KABI ABI20160305192510403/05/16 19:25:31  5-MIN KABI 060125Z 14008KT 10SM CLR 18/06 A3010 1620 46 2400 130/08 RMK AO2 T01780061
13962KABI ABI20160305193010403/05/16 19:30:31  5-MIN KABI 060130Z 14008KT 10SM CLR 17/06 A3010 1620 47 2300 130/08 RMK AO2 T01720061
13962KABI ABI20160305193510403/05/16 19:35:31  5-MIN KABI 060135Z 14008KT 10SM CLR 17/06 A3010 1620 47 2300 140/08 RMK AO2 T01720061
13962KABI ABI20160305194010403/05/16 19:40:31  5-MIN KABI 060140Z 14007KT 10SM CLR 17/06 A3011 1620 47 2300 140/07 RMK AO2 T01720061
13962KABI ABI20160305194510403/05/16 19:45:31  5-MIN KABI 060145Z 15007KT 10SM CLR 17/06 A3011 1620 47 2300 150/07 RMK AO2 T01720061
13962KABI ABI20160305195011103/05/16 19:50:31  5-MIN KABI 060150Z 15007KT 10SM CLR 18/06 A3011 1620 46 2400 150/07 RMK AO2 SLP185 T01780061
13962KABI ABI20160305195510403/05/16 19:55:31  5-MIN KABI 060155Z 15007KT 10SM CLR 17/06 A3011 1620 47 2300 150/07 RMK AO2 T01720061
13962KABI ABI20160305200010403/05/16 20:00:31  5-MIN KABI 060200Z 15007KT 10SM CLR 17/06 A3011 1610 49 2200 140/07 RMK AO2 T01670061
13962KABI ABI20160305200510403/05/16 20:05:31  5-MIN KABI 060205Z 14008KT 10SM CLR 17/06 A3011 1620 49 2200 140/08 RMK AO2 T01670061
13962KABI ABI20160305201010403/05/16 20:10:31  5-MIN KABI 060210Z 14008KT 10SM CLR 16/06 A3011 1620 51 2200 130/08 RMK AO2 T01610061
13962KABI ABI20160305201510403/05/16 20:15:31  5-MIN KABI 060215Z 11008KT 10SM CLR 16/06 A3011 1620 51 2200 100/08 RMK AO2 T01610061
13962KABI ABI20160305202010403/05/16 20:20:31  5-MIN KABI 060220Z 12009KT 10SM CLR 17/06 A3011 1620 49 2200 120/09 RMK AO2 T01670061
13962KABI ABI20160305202510403/05/16 20:25:31  5-MIN KABI 060225Z 12009KT 10SM CLR 16/06 A3011 1620 51 2200 110/09 RMK AO2 T01610061
13962KABI ABI20160305203010403/05/16 20:30:31  5-MIN KABI 060230Z 12008KT 10SM CLR 16/06 A3011 1620 51 2200 110/08 RMK AO2 T01610061
13962KABI ABI20160305203510403/05/16 20:35:31  5-MIN KABI 060235Z 12009KT 10SM CLR 16/06 A3011 1620 51 2200 120/09 RMK AO2 T01610061
13962KABI ABI20160305204010403/05/16 20:40:31  5-MIN KABI 060240Z 13009KT 10SM CLR 16/06 A3011 1620 51 2200 120/09 RMK AO2 T01610061
13962KABI ABI20160305204510403/05/16 20:45:31  5-MIN KABI 060245Z 13008KT 10SM CLR 16/06 A3011 1620 53 2100 120/08 RMK AO2 T01560061
13962KABI ABI20160305205011703/05/16 20:50:31  5-MIN KABI 060250Z 13008KT 10SM CLR 15/06 A3011 1620 55 2000 130/08 RMK AO2 SLP184 T01500061 55001
13962KABI ABI20160305205510403/05/16 20:55:31  5-MIN KABI 060255Z 14006KT 10SM CLR 14/06 A3011 1620 57 2000 130/06 RMK AO2 T01440061
13962KABI ABI20160305210010403/05/16 21:00:31  5-MIN KABI 060300Z 14007KT 10SM CLR 14/06 A3011 1620 57 2000 130/07 RMK AO2 T01440061
13962KABI ABI20160305210510403/05/16 21:05:31  5-MIN KABI 060305Z 13009KT 10SM CLR 15/06 A3011 1620 55 2000 130/09 RMK AO2 T01500061
13962KABI ABI20160305211010403/05/16 21:10:31  5-MIN KABI 060310Z 13008KT 10SM CLR 15/07 A3011 1610 57 2000 130/08 RMK AO2 T01500067
13962KABI ABI20160305211510403/05/16 21:15:31  5-MIN KABI 060315Z 14008KT 10SM CLR 15/07 A3012 1610 57 2000 130/08 RMK AO2 T01500067
13962KABI ABI20160305212010403/05/16 21:20:31  5-MIN KABI 060320Z 14010KT 10SM CLR 15/07 A3012 1610 57 2000 130/10 RMK AO2 T01500067
13962KABI ABI20160305212510403/05/16 21:25:31  5-MIN KABI 060325Z 14010KT 10SM CLR 16/07 A3012 1610 55 2100 140/10 RMK AO2 T01560067
13962KABI ABI20160305213010403/05/16 21:30:31  5-MIN KABI 060330Z 14010KT 10SM CLR 16/07 A3012 1610 55 2100 130/10 RMK AO2 T01560067
13962KABI ABI20160305213510403/05/16 21:35:31  5-MIN KABI 060335Z 14009KT 10SM CLR 16/07 A3012 1600 55 2100 140/09 RMK AO2 T01560067
13962KABI ABI20160305214010403/05/16 21:40:31  5-MIN KABI 060340Z 14011KT 10SM CLR 16/07 A3012 1610 55 2100 140/11 RMK AO2 T01560067
13962KABI ABI20160305214510403/05/16 21:45:31  5-MIN KABI 060345Z 14012KT 10SM CLR 16/07 A3012 1610 55 2100 140/12 RMK AO2 T01560067
13962KABI ABI20160305215011103/05/16 21:50:31  5-MIN KABI 060350Z 14014KT 10SM CLR 16/07 A3011 1610 57 2100 140/14 RMK AO2 SLP183 T01560072
13962KABI ABI20160305215510403/05/16 21:55:31  5-MIN KABI 060355Z 14014KT 10SM CLR 16/07 A3011 1620 55 2200 140/14 RMK AO2 T01610072
13962KABI ABI20160305220010403/05/16 22:00:31  5-MIN KABI 060400Z 14013KT 10SM CLR 16/07 A3012 1610 55 2200 140/13 RMK AO2 T01610072
13962KABI ABI20160305220510403/05/16 22:05:31  5-MIN KABI 060405Z 14012KT 10SM CLR 16/07 A3012 1610 55 2200 140/12 RMK AO2 T01610072
13962KABI ABI20160305221010403/05/16 22:10:31  5-MIN KABI 060410Z 15012KT 10SM CLR 16/07 A3012 1610 57 2100 140/12 RMK AO2 T01560072
13962KABI ABI20160305221510403/05/16 22:15:31  5-MIN KABI 060415Z 15011KT 10SM CLR 16/07 A3012 1610 57 2100 140/11 RMK AO2 T01560072
13962KABI ABI20160305222010403/05/16 22:20:31  5-MIN KABI 060420Z 15012KT 10SM CLR 16/07 A3012 1610 57 2100 140/12 RMK AO2 T01560072
13962KABI ABI20160305222510403/05/16 22:25:31  5-MIN KABI 060425Z 15014KT 10SM CLR 16/07 A3011 1610 57 2100 140/14 RMK AO2 T01560072
13962KABI ABI20160305223010403/05/16 22:30:31  5-MIN KABI 060430Z 15014KT 10SM CLR 16/07 A3011 1610 55 2200 140/14 RMK AO2 T01610072
13962KABI ABI20160305223510403/05/16 22:35:31  5-MIN KABI 060435Z 15014KT 10SM CLR 16/07 A3011 1620 55 2200 140/14 RMK AO2 T01610072
13962KABI ABI20160305224010403/05/16 22:40:31  5-MIN KABI 060440Z 14014KT 10SM CLR 16/07 A3011 1620 55 2200 140/14 RMK AO2 T01610072
13962KABI ABI20160305224510403/05/16 22:45:31  5-MIN KABI 060445Z 14014KT 10SM CLR 16/07 A3011 1620 55 2200 140/14 RMK AO2 T01610072
13962KABI ABI20160305225011103/05/16 22:50:31  5-MIN KABI 060450Z 14013KT 10SM CLR 16/07 A3011 1620 55 2200 140/13 RMK AO2 SLP180 T01610072
13962KABI ABI20160305225510403/05/16 22:55:31  5-MIN KABI 060455Z 14014KT 10SM CLR 16/07 A3011 1620 57 2100 140/14 RMK AO2 T01560072
13962KABI ABI20160305230010403/05/16 23:00:31  5-MIN KABI 060500Z 14014KT 10SM CLR 16/07 A3011 1620 57 2100 140/14 RMK AO2 T01560072
13962KABI ABI20160305230510403/05/16 23:05:31  5-MIN KABI 060505Z 14013KT 10SM CLR 16/08 A3011 1620 59 2100 140/13 RMK AO2 T01560078
13962KABI ABI20160305231010403/05/16 23:10:31  5-MIN KABI 060510Z 15013KT 10SM CLR 16/08 A3011 1620 59 2100 140/13 RMK AO2 T01560078
13962KABI ABI20160305231510403/05/16 23:15:31  5-MIN KABI 060515Z 15014KT 10SM CLR 16/08 A3011 1620 59 2100 140/14 RMK AO2 T01560078
13962KABI ABI20160305232010403/05/16 23:20:31  5-MIN KABI 060520Z 15013KT 10SM CLR 16/08 A3011 1620 59 2100 140/13 RMK AO2 T01560078
13962KABI ABI20160305232510403/05/16 23:25:31  5-MIN KABI 060525Z 16012KT 10SM CLR 16/08 A3011 1620 59 2100 150/12 RMK AO2 T01560078
13962KABI ABI20160305233010403/05/16 23:30:31  5-MIN KABI 060530Z 15014KT 10SM CLR 16/08 A3011 1620 59 2100 140/14 RMK AO2 T01560078
13962KABI ABI20160305233510403/05/16 23:35:31  5-MIN KABI 060535Z 15012KT 10SM CLR 16/08 A3011 1610 59 2100 140/12 RMK AO2 T01560078
13962KABI ABI20160305234010403/05/16 23:40:31  5-MIN KABI 060540Z 15013KT 10SM CLR 15/08 A3011 1620 62 2000 140/13 RMK AO2 T01500078
13962KABI ABI20160305234510403/05/16 23:45:31  5-MIN KABI 060545Z 15012KT 10SM CLR 15/08 A3011 1620 62 2000 140/12 RMK AO2 T01500078
13962KABI ABI20160305235013903/05/16 23:50:31  5-MIN KABI 060550Z 15013KT 10SM CLR 15/08 A3010 1620 64 2000 140/13 RMK AO2 SLP177 T01500083 10222 20144 402560083 50006
13962KABI ABI20160305235510403/05/16 23:55:31  5-MIN KABI 060555Z 15012KT 10SM CLR 15/08 A3010 1620 64 2000 150/12 RMK AO2 T01500083
13962KABI ABI20160306000010403/06/16 00:00:31  5-MIN KABI 060600Z 15013KT 10SM CLR 15/08 A3010 1620 64 2000 150/13 RMK AO2 T01500083
13962KABI ABI20160306000510403/06/16 00:05:31  5-MIN KABI 060605Z 16013KT 10SM CLR 16/08 A3011 1620 62 2100 150/13 RMK AO2 T01560083
13962KABI ABI20160306001010403/06/16 00:10:31  5-MIN KABI 060610Z 15013KT 10SM CLR 15/08 A3010 1620 64 2000 150/13 RMK AO2 T01500083
13962KABI ABI20160306001510403/06/16 00:15:31  5-MIN KABI 060615Z 15012KT 10SM CLR 15/08 A3010 1620 64 2000 150/12 RMK AO2 T01500083
13962KABI ABI20160306002010403/06/16 00:20:31  5-MIN KABI 060620Z 15012KT 10SM CLR 15/08 A3010 1630 64 2000 150/12 RMK AO2 T01500083
13962KABI ABI20160306002510403/06/16 00:25:31  5-MIN KABI 060625Z 15011KT 10SM CLR 15/08 A3010 1620 64 2000 150/11 RMK AO2 T01500083
13962KABI ABI20160306003010403/06/16 00:30:31  5-MIN KABI 060630Z 16010KT 10SM CLR 15/08 A3010 1620 64 2000 150/10 RMK AO2 T01500083
13962KABI ABI20160306003510403/06/16 00:35:31  5-MIN KABI 060635Z 16010KT 10SM CLR 15/09 A3010 1630 66 2000 160/10 RMK AO2 T01500089
13962KABI ABI20160306004010403/06/16 00:40:31  5-MIN KABI 060640Z 16012KT 10SM CLR 15/09 A3010 1630 66 2000 160/12 RMK AO2 T01500089
13962KABI ABI20160306004510403/06/16 00:45:31  5-MIN KABI 060645Z 16013KT 10SM CLR 15/09 A3009 1630 66 2100 150/13 RMK AO2 T01500089
13962KABI ABI20160306005011103/06/16 00:50:31  5-MIN KABI 060650Z 16016KT 10SM CLR 16/09 A3009 1640 64 2100 160/16 RMK AO2 SLP169 T01560089
13962KABI ABI20160306005510403/06/16 00:55:31  5-MIN KABI 060655Z 16016KT 10SM CLR 16/09 A3008 1640 67 2100 160/16 RMK AO2 T01560094
13962KABI ABI20160306010010403/06/16 01:00:31  5-MIN KABI 060700Z 17016KT 10SM CLR 16/09 A3008 1640 67 2100 160/16 RMK AO2 T01560094
13962KABI ABI20160306010510403/06/16 01:05:31  5-MIN KABI 060705Z 16016KT 10SM CLR 16/09 A3008 1640 67 2100 160/16 RMK AO2 T01560094
13962KABI ABI20160306011010403/06/16 01:10:31  5-MIN KABI 060710Z 16015KT 10SM CLR 16/09 A3008 1640 67 2100 160/15 RMK AO2 T01560094
13962KABI ABI20160306011510403/06/16 01:15:31  5-MIN KABI 060715Z 16015KT 10SM CLR 16/09 A3008 1640 67 2100 160/15 RMK AO2 T01560094
13962KABI ABI20160306012010403/06/16 01:20:31  5-MIN KABI 060720Z 16014KT 10SM CLR 16/09 A3008 1640 67 2100 160/14 RMK AO2 T01560094
13962KABI ABI20160306012510403/06/16 01:25:31  5-MIN KABI 060725Z 16014KT 10SM CLR 16/09 A3008 1640 64 2200 160/14 RMK AO2 T01610094
13962KABI ABI20160306013010403/06/16 01:30:31  5-MIN KABI 060730Z 16013KT 10SM CLR 16/09 A3009 1640 67 2100 160/13 RMK AO2 T01560094
13962KABI ABI20160306013510403/06/16 01:35:31  5-MIN KABI 060735Z 16013KT 10SM CLR 15/09 A3009 1640 69 2100 150/13 RMK AO2 T01500094
13962KABI ABI20160306014010403/06/16 01:40:31  5-MIN KABI 060740Z 16012KT 10SM CLR 15/09 A3009 1640 69 2100 150/12 RMK AO2 T01500094
13962KABI ABI20160306014510403/06/16 01:45:31  5-MIN KABI 060745Z 16012KT 10SM CLR 15/09 A3009 1640 69 2100 150/12 RMK AO2 T01500094
13962KABI ABI20160306015011103/06/16 01:50:31  5-MIN KABI 060750Z 16012KT 10SM CLR 15/09 A3009 1640 69 2100 150/12 RMK AO2 SLP169 T01500094
13962KABI ABI20160306015510403/06/16 01:55:31  5-MIN KABI 060755Z 16013KT 10SM CLR 15/10 A3008 1640 72 2100 150/13 RMK AO2 T01500100
13962KABI ABI20160306020010403/06/16 02:00:31  5-MIN KABI 060800Z 16013KT 10SM CLR 15/10 A3008 1640 72 2100 150/13 RMK AO2 T01500100
13962KABI ABI20160306020510403/06/16 02:05:31  5-MIN KABI 060805Z 16013KT 10SM CLR 15/10 A3008 1650 72 2100 150/13 RMK AO2 T01500100
13962KABI ABI20160306021010403/06/16 02:10:31  5-MIN KABI 060810Z 16012KT 10SM CLR 16/10 A3008 1650 69 2100 160/12 RMK AO2 T01560100
13962KABI ABI20160306021510403/06/16 02:15:31  5-MIN KABI 060815Z 16014KT 10SM CLR 16/10 A3008 1650 69 2100 160/14 RMK AO2 T01560100
13962KABI ABI20160306022011003/06/16 02:20:31  5-MIN KABI 060820Z 16015G21KT 10SM CLR 16/10 A3007 1650 69 2100 150/15G21 RMK AO2 T01560100
13962KABI ABI20160306022510403/06/16 02:25:31  5-MIN KABI 060825Z 16017KT 10SM CLR 16/10 A3006 1660 69 2100 150/17 RMK AO2 T01560100
13962KABI ABI20160306023010403/06/16 02:30:31  5-MIN KABI 060830Z 16014KT 10SM CLR 16/10 A3007 1660 69 2100 160/14 RMK AO2 T01560100
13962KABI ABI20160306023510403/06/16 02:35:31  5-MIN KABI 060835Z 16015KT 10SM CLR 16/10 A3007 1660 69 2100 150/15 RMK AO2 T01560100
13962KABI ABI20160306024010403/06/16 02:40:31  5-MIN KABI 060840Z 16012KT 10SM CLR 16/10 A3007 1650 69 2100 150/12 RMK AO2 T01560100
13962KABI ABI20160306024510403/06/16 02:45:31  5-MIN KABI 060845Z 15014KT 10SM CLR 15/10 A3007 1660 72 2100 150/14 RMK AO2 T01500100
13962KABI ABI20160306025011703/06/16 02:50:31  5-MIN KABI 060850Z 16012KT 10SM CLR 15/10 A3006 1660 72 2100 150/12 RMK AO2 SLP161 T01500100 58002
13962KABI ABI20160306025510403/06/16 02:55:31  5-MIN KABI 060855Z 15012KT 10SM CLR 15/10 A3006 1660 72 2100 150/12 RMK AO2 T01500100
13962KABI ABI20160306030010403/06/16 03:00:31  5-MIN KABI 060900Z 16013KT 10SM CLR 14/10 A3006 1670 74 2000 150/13 RMK AO2 T01440100
13962KABI ABI20160306030510403/06/16 03:05:31  5-MIN KABI 060905Z 16010KT 10SM CLR 14/10 A3006 1670 74 2000 160/10 RMK AO2 T01440100
13962KABI ABI20160306031010403/06/16 03:10:31  5-MIN KABI 060910Z 16011KT 10SM CLR 14/10 A3006 1660 74 2000 150/11 RMK AO2 T01440100
13962KABI ABI20160306031510403/06/16 03:15:31  5-MIN KABI 060915Z 16011KT 10SM CLR 14/10 A3006 1670 74 2000 150/11 RMK AO2 T01440100
13962KABI ABI20160306032010403/06/16 03:20:31  5-MIN KABI 060920Z 17012KT 10SM CLR 14/10 A3005 1670 74 2000 160/12 RMK AO2 T01440100
13962KABI ABI20160306032510403/06/16 03:25:31  5-MIN KABI 060925Z 17012KT 10SM CLR 15/10 A3005 1670 72 2100 170/12 RMK AO2 T01500100
13962KABI ABI20160306033010403/06/16 03:30:31  5-MIN KABI 060930Z 18010KT 10SM CLR 15/11 A3005 1670 74 2100 170/10 RMK AO2 T01500106
13962KABI ABI20160306033510403/06/16 03:35:31  5-MIN KABI 060935Z 18009KT 10SM CLR 15/11 A3005 1670 74 2100 180/09 RMK AO2 T01500106
13962KABI ABI20160306034010403/06/16 03:40:31  5-MIN KABI 060940Z 18009KT 10SM CLR 15/11 A3005 1670 74 2100 170/09 RMK AO2 T01500106
13962KABI ABI20160306034510403/06/16 03:45:31  5-MIN KABI 060945Z 18009KT 10SM CLR 14/11 A3005 1680 77 2000 170/09 RMK AO2 T01440106
13962KABI ABI20160306035011403/06/16 03:50:31  5-MIN KABI 060950Z 18010KT 10SM FEW047 14/11 A3004 1680 77 2000 170/10 RMK AO2 SLP154 T01440106
13962KABI ABI20160306035510703/06/16 03:55:31  5-MIN KABI 060955Z 18011KT 10SM SCT047 14/11 A3005 1680 77 2000 170/11 RMK AO2 T01440106
13962KABI ABI20160306040010703/06/16 04:00:31  5-MIN KABI 061000Z 18011KT 10SM BKN047 15/11 A3005 1670 74 2100 180/11 RMK AO2 T01500106
13962KABI ABI20160306040510703/06/16 04:05:31  5-MIN KABI 061005Z 18009KT 10SM BKN046 15/11 A3005 1670 74 2100 170/09 RMK AO2 T01500106
13962KABI ABI20160306041010703/06/16 04:10:31  5-MIN KABI 061010Z 18011KT 10SM BKN046 15/11 A3005 1670 74 2100 170/11 RMK AO2 T01500106
13962KABI ABI20160306041510703/06/16 04:15:31  5-MIN KABI 061015Z 18008KT 10SM OVC046 15/11 A3005 1670 74 2100 170/08 RMK AO2 T01500106
13962KABI ABI20160306042010703/06/16 04:20:31  5-MIN KABI 061020Z 18008KT 10SM OVC045 15/11 A3006 1670 74 2100 170/08 RMK AO2 T01500106
13962KABI ABI20160306042510703/06/16 04:25:31  5-MIN KABI 061025Z 18009KT 10SM OVC045 15/11 A3006 1670 74 2100 170/09 RMK AO2 T01500106
13962KABI ABI20160306043010703/06/16 04:30:31  5-MIN KABI 061030Z 17009KT 10SM OVC045 15/11 A3006 1670 77 2100 170/09 RMK AO2 T01500111
13962KABI ABI20160306043510703/06/16 04:35:31  5-MIN KABI 061035Z 17008KT 10SM OVC045 16/11 A3006 1660 74 2200 170/08 RMK AO2 T01560111
13962KABI ABI20160306044010703/06/16 04:40:31  5-MIN KABI 061040Z 17008KT 10SM OVC045 16/11 A3006 1660 74 2200 160/08 RMK AO2 T01560111
13962KABI ABI20160306044510703/06/16 04:45:31  5-MIN KABI 061045Z 17009KT 10SM OVC047 16/11 A3006 1670 74 2200 170/09 RMK AO2 T01560111
13962KABI ABI20160306045011403/06/16 04:50:31  5-MIN KABI 061050Z 17009KT 10SM OVC047 16/11 A3006 1670 74 2200 170/09 RMK AO2 SLP158 T01560111
13962KABI ABI20160306045510703/06/16 04:55:31  5-MIN KABI 061055Z 17012KT 10SM OVC047 16/11 A3005 1670 74 2200 160/12 RMK AO2 T01560111
13962KABI ABI20160306050010703/06/16 05:00:31  5-MIN KABI 061100Z 17013KT 10SM OVC047 16/11 A3005 1670 74 2200 170/13 RMK AO2 T01560111
13962KABI ABI20160306050510703/06/16 05:05:31  5-MIN KABI 061105Z 18012KT 10SM OVC047 16/11 A3005 1670 74 2200 170/12 RMK AO2 T01560111
13962KABI ABI20160306051010703/06/16 05:10:31  5-MIN KABI 061110Z 17013KT 10SM OVC047 16/11 A3005 1670 74 2200 170/13 RMK AO2 T01560111
13962KABI ABI20160306051510703/06/16 05:15:31  5-MIN KABI 061115Z 17014KT 10SM OVC047 16/11 A3005 1670 74 2200 160/14 RMK AO2 T01560111
13962KABI ABI20160306052010703/06/16 05:20:31  5-MIN KABI 061120Z 17011KT 10SM OVC047 16/11 A3005 1670 74 2200 160/11 RMK AO2 T01560111
13962KABI ABI20160306052510703/06/16 05:25:31  5-MIN KABI 061125Z 17014KT 10SM OVC047 15/11 A3005 1670 77 2100 160/14 RMK AO2 T01500111
13962KABI ABI20160306053010703/06/16 05:30:31  5-MIN KABI 061130Z 17011KT 10SM OVC047 15/11 A3005 1670 77 2100 160/11 RMK AO2 T01500111
13962KABI ABI20160306155511303/06/16 15:55:31  5-MIN KABI 062155Z 18017G25KT 10SM BKN030 22/15 A2989 1820 63 3100 180/17G25 RMK AO2 T02220150
13962KABI ABI20160306160011303/06/16 16:00:31  5-MIN KABI 062200Z 19015G25KT 10SM BKN030 22/15 A2989 1820 65 3000 180/15G25 RMK AO2 T02170150
13962KABI ABI20160306160511303/06/16 16:05:31  5-MIN KABI 062205Z 18016G23KT 10SM BKN030 21/15 A2989 1820 68 3000 170/16G23 RMK AO2 T02110150
13962KABI ABI20160306161010703/06/16 16:10:31  5-MIN KABI 062210Z 18016KT 10SM BKN030 21/15 A2989 1820 68 3000 170/16 RMK AO2 T02110150
13962KABI ABI20160306161511303/06/16 16:15:31  5-MIN KABI 062215Z 17016G20KT 10SM BKN030 21/15 A2989 1830 68 3000 170/16G20 RMK AO2 T02110150
13962KABI ABI20160306162011303/06/16 16:20:31  5-MIN KABI 062220Z 17017G22KT 10SM BKN030 21/15 A2988 1830 70 2900 160/17G22 RMK AO2 T02060150
13962KABI ABI20160306162510703/06/16 16:25:31  5-MIN KABI 062225Z 17017KT 10SM BKN030 21/15 A2988 1830 70 2900 170/17 RMK AO2 T02060150
13962KABI ABI20160306163011303/06/16 16:30:31  5-MIN KABI 062230Z 16018G23KT 10SM BKN030 21/15 A2988 1830 70 2900 160/18G23 RMK AO2 T02060150
13962KABI ABI20160306163511303/06/16 16:35:31  5-MIN KABI 062235Z 16019G23KT 10SM BKN030 21/15 A2988 1830 70 2900 160/19G23 RMK AO2 T02060150
13962KABI ABI20160306164011303/06/16 16:40:31  5-MIN KABI 062240Z 17017G24KT 10SM BKN030 21/15 A2988 1830 70 2900 160/17G24 RMK AO2 T02060150
13962KABI ABI20160306164511303/06/16 16:45:31  5-MIN KABI 062245Z 17017G25KT 10SM BKN030 20/15 A2988 1830 72 2900 160/17G25 RMK AO2 T02000150
13962KABI ABI20160306165012003/06/16 16:50:31  5-MIN KABI 062250Z 16019G25KT 10SM BKN030 20/15 A2987 1830 72 2900 160/19G25 RMK AO2 SLP100 T02000150
13962KABI ABI20160306165511003/06/16 16:55:31  5-MIN KABI 062255Z 16016G23KT 10SM CLR 20/15 A2987 1840 72 2900 160/16G23 RMK AO2 T02000150
13962KABI ABI20160306170010403/06/16 17:00:31  5-MIN KABI 062300Z 16016KT 10SM CLR 20/15 A2987 1840 72 2900 160/16 RMK AO2 T02000150
13962KABI ABI20160306170510403/06/16 17:05:31  5-MIN KABI 062305Z 16019KT 10SM CLR 20/15 A2987 1840 72 2900 150/19 RMK AO2 T02000150
13962KABI ABI20160306171010403/06/16 17:10:31  5-MIN KABI 062310Z 17019KT 10SM CLR 19/15 A2987 1840 75 2800 160/19 RMK AO2 T01940150
13962KABI ABI20160306171510403/06/16 17:15:31  5-MIN KABI 062315Z 17019KT 10SM CLR 19/15 A2986 1850 75 2800 160/19 RMK AO2 T01940150
13962KABI ABI20160306172011003/06/16 17:20:31  5-MIN KABI 062320Z 16017G25KT 10SM CLR 19/15 A2986 1850 75 2800 160/17G25 RMK AO2 T01940150
13962KABI ABI20160306172511003/06/16 17:25:31  5-MIN KABI 062325Z 16018G23KT 10SM CLR 19/15 A2986 1850 75 2800 160/18G23 RMK AO2 T01940150
13962KABI ABI20160306173010403/06/16 17:30:31  5-MIN KABI 062330Z 16018KT 10SM CLR 19/15 A2986 1850 75 2800 160/18 RMK AO2 T01940150
13962KABI ABI20160306173511003/06/16 17:35:31  5-MIN KABI 062335Z 17014G23KT 10SM CLR 19/15 A2986 1850 75 2800 160/14G23 RMK AO2 T01940150
13962KABI ABI20160306174011003/06/16 17:40:31  5-MIN KABI 062340Z 17016G22KT 10SM CLR 19/15 A2986 1850 75 2800 160/16G22 RMK AO2 T01940150
13962KABI ABI20160306174511303/06/16 17:45:31  5-MIN KABI 062345Z 17017G23KT 10SM BKN035 19/15 A2986 1850 75 2800 160/17G23 RMK AO2 T01940150
13962KABI ABI20160306175013803/06/16 17:50:31  5-MIN KABI 062350Z 17015G23KT 10SM BKN035 19/15 A2986 1850 75 2800 160/15G23 RMK AO2 SLP093 T01940150 10228 20172 58034
13962KABI ABI20160306175511003/06/16 17:55:31  5-MIN KABI 062355Z 17018G22KT 10SM CLR 19/15 A2985 1860 75 2800 160/18G22 RMK AO2 T01940150
13962KABI ABI20160306180011003/06/16 18:00:31  5-MIN KABI 070000Z 17020G25KT 10SM CLR 19/15 A2985 1860 75 2800 160/20G25 RMK AO2 T01940150
13962KABI ABI20160306180511003/06/16 18:05:31  5-MIN KABI 070005Z 17016G25KT 10SM CLR 19/15 A2985 1860 75 2800 160/16G25 RMK AO2 T01940150
13962KABI ABI20160306181011003/06/16 18:10:31  5-MIN KABI 070010Z 17018G24KT 10SM CLR 19/15 A2985 1860 75 2800 160/18G24 RMK AO2 T01940150
13962KABI ABI20160306181511003/06/16 18:15:31  5-MIN KABI 070015Z 16017G24KT 10SM CLR 19/15 A2985 1860 75 2800 160/17G24 RMK AO2 T01940150
13962KABI ABI20160306182011003/06/16 18:20:31  5-MIN KABI 070020Z 17018G24KT 10SM CLR 19/15 A2985 1860 78 2800 160/18G24 RMK AO2 T01890150
13962KABI ABI20160306182511003/06/16 18:25:31  5-MIN KABI 070025Z 17018G24KT 10SM CLR 19/15 A2985 1860 78 2800 160/18G24 RMK AO2 T01890150
13962KABI ABI20160306183010403/06/16 18:30:31  5-MIN KABI 070030Z 17017KT 10SM CLR 19/15 A2985 1860 78 2800 170/17 RMK AO2 T01890150
13962KABI ABI20160306183510403/06/16 18:35:31  5-MIN KABI 070035Z 16016KT 10SM CLR 19/15 A2985 1860 78 2800 160/16 RMK AO2 T01890150
13962KABI ABI20160306184010403/06/16 18:40:31  5-MIN KABI 070040Z 17016KT 10SM CLR 18/15 A2985 1860 81 2700 160/16 RMK AO2 T01830150
13962KABI ABI20160306184511003/06/16 18:45:31  5-MIN KABI 070045Z 17018G24KT 10SM CLR 18/15 A2984 1860 81 2700 160/18G24 RMK AO2 T01830150
13962KABI ABI20160306185011703/06/16 18:50:31  5-MIN KABI 070050Z 17017G24KT 10SM CLR 18/15 A2984 1860 81 2700 160/17G24 RMK AO2 SLP090 T01830150
13962KABI ABI20160306185511003/06/16 18:55:31  5-MIN KABI 070055Z 16017G25KT 10SM CLR 18/15 A2984 1870 81 2700 160/17G25 RMK AO2 T01830150
13962KABI ABI20160306190011003/06/16 19:00:31  5-MIN KABI 070100Z 17019G25KT 10SM CLR 18/15 A2984 1870 81 2700 160/19G25 RMK AO2 T01830150
13962KABI ABI20160306190512803/06/16 19:05:31  5-MIN KABI 070105Z 16021G26KT 10SM CLR 18/15 A2984 1870 83 2700 160/21G26 RMK AO2 PK WND 17026/0105 T01780150
13962KABI ABI20160306191012803/06/16 19:10:31  5-MIN KABI 070110Z 16018G26KT 10SM CLR 18/15 A2983 1870 81 2700 160/18G26 RMK AO2 PK WND 16026/0108 T01830150
13962KABI ABI20160306191512803/06/16 19:15:31  5-MIN KABI 070115Z 16020G27KT 10SM CLR 18/15 A2983 1880 83 2700 160/20G27 RMK AO2 PK WND 17027/0112 T01780150
13962KABI ABI20160306192012803/06/16 19:20:31  5-MIN KABI 070120Z 17019G27KT 10SM CLR 18/15 A2983 1880 83 2700 160/19G27 RMK AO2 PK WND 17027/0112 T01780150
13962KABI ABI20160306192512803/06/16 19:25:31  5-MIN KABI 070125Z 17020G28KT 10SM CLR 18/15 A2983 1880 83 2700 170/20G28 RMK AO2 PK WND 17028/0123 T01780150
13962KABI ABI20160306193012803/06/16 19:30:31  5-MIN KABI 070130Z 17018G28KT 10SM CLR 18/15 A2983 1870 83 2700 170/18G28 RMK AO2 PK WND 17028/0123 T01780150
13962KABI ABI20160306193512803/06/16 19:35:31  5-MIN KABI 070135Z 18017G25KT 10SM CLR 18/15 A2985 1860 83 2700 170/17G25 RMK AO2 PK WND 17028/0123 T01780150
13962KABI ABI20160306194012903/06/16 19:40:31  5-MIN KABI 070140Z 18018KT 10SM CLR 18/15 A2985 1860 81 2700 170/18 RMK AO2 PK WND 17028/0123 PRESRR T01830150
13962KABI ABI20160306194512203/06/16 19:45:31  5-MIN KABI 070145Z 17015KT 10SM CLR 18/15 A2985 1860 81 2700 160/15 RMK AO2 PK WND 17028/0123 T01830150
13962KABI ABI20160306195012903/06/16 19:50:31  5-MIN KABI 070150Z 17016KT 10SM CLR 18/15 A2985 1860 83 2700 160/16 RMK AO2 PK WND 17028/0123 SLP093 T01780150
13962KABI ABI20160306195510403/06/16 19:55:31  5-MIN KABI 070155Z 16015KT 10SM CLR 18/15 A2985 1860 81 2700 150/15 RMK AO2 T01830150
13962KABI ABI20160306200011003/06/16 20:00:31  5-MIN KABI 070200Z 17015G21KT 10SM CLR 18/15 A2985 1860 83 2700 160/15G21 RMK AO2 T01780150
13962KABI ABI20160306200511003/06/16 20:05:31  5-MIN KABI 070205Z 17016G22KT 10SM CLR 18/15 A2985 1860 81 2700 170/16G22 RMK AO2 T01830150
13962KABI ABI20160306201010403/06/16 20:10:31  5-MIN KABI 070210Z 17016KT 10SM CLR 18/15 A2985 1860 81 2700 170/16 RMK AO2 T01830150
13962KABI ABI20160306201510403/06/16 20:15:31  5-MIN KABI 070215Z 18013KT 10SM CLR 18/15 A2986 1850 81 2700 170/13 RMK AO2 T01830150
13962KABI ABI20160306202010403/06/16 20:20:31  5-MIN KABI 070220Z 17012KT 10SM CLR 18/15 A2986 1850 81 2700 160/12 RMK AO2 T01830150
13962KABI ABI20160306202510403/06/16 20:25:31  5-MIN KABI 070225Z 17014KT 10SM CLR 18/15 A2986 1850 81 2700 160/14 RMK AO2 T01830150
13962KABI ABI20160306203010403/06/16 20:30:31  5-MIN KABI 070230Z 17013KT 10SM CLR 18/15 A2986 1850 81 2700 160/13 RMK AO2 T01830150
13962KABI ABI20160306203510403/06/16 20:35:31  5-MIN KABI 070235Z 17012KT 10SM CLR 18/15 A2986 1850 81 2700 170/12 RMK AO2 T01830150
13962KABI ABI20160306204010403/06/16 20:40:31  5-MIN KABI 070240Z 17012KT 10SM CLR 18/15 A2986 1850 81 2700 170/12 RMK AO2 T01830150
13962KABI ABI20160306204510403/06/16 20:45:31  5-MIN KABI 070245Z 17016KT 10SM CLR 18/15 A2986 1850 81 2700 160/16 RMK AO2 T01830150
13962KABI ABI20160306205011703/06/16 20:50:31  5-MIN KABI 070250Z 17016KT 10SM CLR 18/15 A2985 1850 81 2700 160/16 RMK AO2 SLP093 T01830150 58015
13962KABI ABI20160306205510303/06/16 20:55:31  5-MIN KABI 070255Z 17018KT 9SM CLR 18/15 A2985 1860 81 2700 160/18 RMK AO2 T01830150
13962KABI ABI20160306210010903/06/16 21:00:31  5-MIN KABI 070300Z 17016G22KT 9SM CLR 18/15 A2984 1860 81 2700 160/16G22 RMK AO2 T01830150
13962KABI ABI20160306210510303/06/16 21:05:31  5-MIN KABI 070305Z 17017KT 9SM CLR 18/15 A2984 1860 81 2700 160/17 RMK AO2 T01830150
13962KABI ABI20160306211010903/06/16 21:10:31  5-MIN KABI 070310Z 17019G25KT 9SM CLR 18/15 A2985 1860 81 2700 160/19G25 RMK AO2 T01830150
13962KABI ABI20160306211510903/06/16 21:15:31  5-MIN KABI 070315Z 17018G25KT 9SM CLR 18/15 A2985 1860 81 2700 160/18G25 RMK AO2 T01830150
13962KABI ABI20160306212010903/06/16 21:20:31  5-MIN KABI 070320Z 17015G23KT 9SM CLR 18/15 A2985 1860 81 2700 170/15G23 RMK AO2 T01830150
13962KABI ABI20160306212510903/06/16 21:25:31  5-MIN KABI 070325Z 17017G24KT 9SM CLR 18/15 A2985 1860 81 2700 170/17G24 RMK AO2 T01830150
13962KABI ABI20160306213010903/06/16 21:30:31  5-MIN KABI 070330Z 17015G24KT 9SM CLR 18/15 A2985 1850 81 2700 170/15G24 RMK AO2 T01830150
13962KABI ABI20160306213510903/06/16 21:35:31  5-MIN KABI 070335Z 18015G22KT 9SM CLR 18/15 A2985 1860 81 2700 170/15G22 RMK AO2 T01830150
13962KABI ABI20160306214010903/06/16 21:40:31  5-MIN KABI 070340Z 17016G22KT 9SM CLR 18/15 A2985 1860 81 2700 170/16G22 RMK AO2 T01830150
13962KABI ABI20160306214510903/06/16 21:45:31  5-MIN KABI 070345Z 17018G24KT 8SM CLR 18/15 A2984 1860 81 2700 170/18G24 RMK AO2 T01830150
13962KABI ABI20160306215011603/06/16 21:50:31  5-MIN KABI 070350Z 18017G24KT 8SM CLR 18/15 A2984 1860 81 2700 170/17G24 RMK AO2 SLP089 T01830150
13962KABI ABI20160306215510903/06/16 21:55:31  5-MIN KABI 070355Z 18015G24KT 8SM CLR 18/15 A2984 1860 81 2700 170/15G24 RMK AO2 T01830150
13962KABI ABI20160306220010903/06/16 22:00:31  5-MIN KABI 070400Z 18016G24KT 8SM CLR 18/15 A2985 1860 81 2700 180/16G24 RMK AO2 T01830150
13962KABI ABI20160306220510903/06/16 22:05:31  5-MIN KABI 070405Z 18016G23KT 8SM CLR 18/15 A2985 1860 81 2700 170/16G23 RMK AO2 T01830150
13962KABI ABI20160306221010903/06/16 22:10:31  5-MIN KABI 070410Z 18015G23KT 8SM CLR 18/15 A2985 1860 81 2700 180/15G23 RMK AO2 T01830150
13962KABI ABI20160306221510903/06/16 22:15:31  5-MIN KABI 070415Z 18015G21KT 8SM CLR 18/15 A2985 1860 81 2700 170/15G21 RMK AO2 T01830150
13962KABI ABI20160306222010303/06/16 22:20:31  5-MIN KABI 070420Z 18015KT 8SM CLR 18/15 A2985 1860 81 2700 180/15 RMK AO2 T01830150
13962KABI ABI20160306222510303/06/16 22:25:31  5-MIN KABI 070425Z 18016KT 8SM CLR 18/15 A2985 1860 81 2700 180/16 RMK AO2 T01830150
13962KABI ABI20160306223012703/06/16 22:30:31  5-MIN KABI 070430Z 18018G26KT 8SM CLR 18/15 A2985 1860 81 2700 170/18G26 RMK AO2 PK WND 17026/0430 T01830150
13962KABI ABI20160306223512703/06/16 22:35:31  5-MIN KABI 070435Z 18015G26KT 8SM CLR 18/15 A2985 1860 81 2700 180/15G26 RMK AO2 PK WND 17026/0430 T01830150
13962KABI ABI20160306224012703/06/16 22:40:31  5-MIN KABI 070440Z 18014G21KT 8SM CLR 18/15 A2985 1860 81 2700 180/14G21 RMK AO2 PK WND 17026/0430 T01830150
13962KABI ABI20160306224512703/06/16 22:45:31  5-MIN KABI 070445Z 19014G22KT 8SM CLR 18/15 A2985 1860 81 2700 180/14G22 RMK AO2 PK WND 17026/0430 T01830150
13962KABI ABI20160306225013703/06/16 22:50:31  5-MIN KABI 070450Z 19014G22KT 8SM FEW032 18/15 A2985 1860 81 2700 180/14G22 RMK AO2 PK WND 17026/0430 SLP092 T01830150
13962KABI ABI20160306225510603/06/16 22:55:31  5-MIN KABI 070455Z 18015KT 8SM FEW032 18/15 A2984 1860 81 2700 180/15 RMK AO2 T01830150
13962KABI ABI20160306230011203/06/16 23:00:31  5-MIN KABI 070500Z 18015G20KT 8SM FEW032 18/15 A2984 1870 81 2700 180/15G20 RMK AO2 T01830150
13962KABI ABI20160306230510903/06/16 23:05:31  5-MIN KABI 070505Z 18014G21KT 8SM CLR 18/15 A2984 1870 81 2700 170/14G21 RMK AO2 T01830150
13962KABI ABI20160306231010903/06/16 23:10:31  5-MIN KABI 070510Z 18014G22KT 8SM CLR 18/15 A2983 1870 81 2700 170/14G22 RMK AO2 T01830150
13962KABI ABI20160306231510903/06/16 23:15:31  5-MIN KABI 070515Z 18016G22KT 8SM CLR 18/15 A2983 1870 81 2700 170/16G22 RMK AO2 T01830150
13962KABI ABI20160306232010903/06/16 23:20:31  5-MIN KABI 070520Z 18017G23KT 8SM CLR 18/15 A2983 1880 81 2700 170/17G23 RMK AO2 T01830150
13962KABI ABI20160306232510903/06/16 23:25:31  5-MIN KABI 070525Z 18018G23KT 8SM CLR 18/15 A2983 1880 81 2700 170/18G23 RMK AO2 T01830150
13962KABI ABI20160306233010903/06/16 23:30:31  5-MIN KABI 070530Z 18017G23KT 8SM CLR 18/15 A2982 1880 83 2700 170/17G23 RMK AO2 T01780150
13962KABI ABI20160306233510903/06/16 23:35:31  5-MIN KABI 070535Z 18016G24KT 8SM CLR 18/15 A2982 1890 83 2700 170/16G24 RMK AO2 T01780150
13962KABI ABI20160306234012703/06/16 23:40:31  5-MIN KABI 070540Z 18017G26KT 8SM CLR 18/15 A2982 1890 81 2800 170/17G26 RMK AO2 PK WND 18026/0536 T01830150
13962KABI ABI20160306234512703/06/16 23:45:31  5-MIN KABI 070545Z 18016G26KT 8SM CLR 18/15 A2982 1890 83 2700 180/16G26 RMK AO2 PK WND 18026/0536 T01780150
13962KABI ABI20160306235016203/06/16 23:50:31  5-MIN KABI 070550Z 18016G22KT 8SM CLR 18/15 A2982 1890 83 2700 180/16G22 RMK AO2 PK WND 18026/0536 SLP080 T01780150 10194 20178 402280139 56001
13962KABI ABI20160306235510903/06/16 23:55:31  5-MIN KABI 070555Z 18014G21KT 8SM CLR 18/14 A2982 1890 81 2700 180/14G21 RMK AO2 T01780144
13962KABI ABI20160307000011203/07/16 00:00:31  5-MIN KABI 070600Z 17013G24KT 9SM FEW026 18/14 A2981 1890 81 2700 170/13G24 RMK AO2 T01780144
13962KABI ABI20160307000511203/07/16 00:05:31  5-MIN KABI 070605Z 17017G24KT 9SM FEW026 18/14 A2981 1900 81 2700 170/17G24 RMK AO2 T01780144
13962KABI ABI20160307001011203/07/16 00:10:31  5-MIN KABI 070610Z 17018G24KT 9SM FEW026 18/14 A2981 1900 78 2800 170/18G24 RMK AO2 T01830144
13962KABI ABI20160307001511203/07/16 00:15:31  5-MIN KABI 070615Z 18016G24KT 9SM FEW025 18/14 A2981 1890 78 2800 170/16G24 RMK AO2 T01830144
13962KABI ABI20160307002011203/07/16 00:20:31  5-MIN KABI 070620Z 18014G24KT 9SM SCT023 18/14 A2981 1900 78 2800 180/14G24 RMK AO2 T01830144
13962KABI ABI20160307002510603/07/16 00:25:31  5-MIN KABI 070625Z 18020KT 9SM BKN023 18/14 A2980 1900 78 2800 170/20 RMK AO2 T01830144
13962KABI ABI20160307003011203/07/16 00:30:31  5-MIN KABI 070630Z 17018G25KT 9SM BKN023 18/14 A2980 1910 78 2800 170/18G25 RMK AO2 T01830144
13962KABI ABI20160307003513003/07/16 00:35:31  5-MIN KABI 070635Z 18021G30KT 9SM BKN023 18/14 A2980 1900 78 2800 170/21G30 RMK AO2 PK WND 18030/0635 T01830144
13962KABI ABI20160307004013003/07/16 00:40:31  5-MIN KABI 070640Z 18019G30KT 9SM BKN023 18/14 A2980 1900 78 2800 170/19G30 RMK AO2 PK WND 18030/0635 T01830144
13962KABI ABI20160307004513103/07/16 00:45:31  5-MIN KABI 070645Z 18019G26KT 10SM BKN021 18/14 A2980 1910 78 2800 180/19G26 RMK AO2 PK WND 18030/0635 T01830144
13962KABI ABI20160307005013803/07/16 00:50:31  5-MIN KABI 070650Z 18016G26KT 10SM BKN021 18/14 A2980 1910 78 2800 170/16G26 RMK AO2 PK WND 18030/0635 SLP073 T01830144
13962KABI ABI20160307005511303/07/16 00:55:31  5-MIN KABI 070655Z 18018G27KT 10SM BKN021 18/14 A2979 1910 78 2800 170/18G27 RMK AO2 T01830144
13962KABI ABI20160307010013103/07/16 01:00:31  5-MIN KABI 070700Z 17019G28KT 10SM BKN021 18/14 A2979 1910 78 2800 170/19G28 RMK AO2 PK WND 18028/0656 T01830144
13962KABI ABI20160307010513103/07/16 01:05:31  5-MIN KABI 070705Z 17018G28KT 10SM BKN020 18/14 A2979 1910 78 2800 170/18G28 RMK AO2 PK WND 18028/0656 T01830144
13962KABI ABI20160307011013103/07/16 01:10:31  5-MIN KABI 070710Z 18017G28KT 10SM BKN020 18/14 A2979 1910 81 2700 170/17G28 RMK AO2 PK WND 18028/0656 T01780144
13962KABI ABI20160307011513003/07/16 01:15:31  5-MIN KABI 070715Z 18019G25KT 9SM BKN020 18/14 A2979 1910 81 2700 170/19G25 RMK AO2 PK WND 18028/0656 T01780144
13962KABI ABI20160307012013003/07/16 01:20:31  5-MIN KABI 070720Z 18017G27KT 9SM BKN020 18/14 A2978 1920 81 2700 170/17G27 RMK AO2 PK WND 18028/0656 T01780144
13962KABI ABI20160307012513003/07/16 01:25:31  5-MIN KABI 070725Z 18019G28KT 9SM SCT020 18/14 A2978 1920 81 2700 170/19G28 RMK AO2 PK WND 18028/0724 T01780144
13962KABI ABI20160307013013003/07/16 01:30:31  5-MIN KABI 070730Z 17020G29KT 9SM SCT020 18/14 A2978 1930 81 2700 170/20G29 RMK AO2 PK WND 17029/0730 T01780144
13962KABI ABI20160307013513103/07/16 01:35:31  5-MIN KABI 070735Z 18022G29KT 10SM FEW020 18/14 A2978 1920 81 2700 170/22G29 RMK AO2 PK WND 17029/0730 T01780144
13962KABI ABI20160307014013103/07/16 01:40:31  5-MIN KABI 070740Z 18018G28KT 10SM FEW019 18/14 A2978 1920 81 2700 170/18G28 RMK AO2 PK WND 17029/0730 T01780144
13962KABI ABI20160307014513103/07/16 01:45:31  5-MIN KABI 070745Z 18018G27KT 10SM FEW019 18/14 A2978 1920 81 2700 170/18G27 RMK AO2 PK WND 17029/0730 T01780144
13962KABI ABI20160307015013803/07/16 01:50:31  5-MIN KABI 070750Z 18018G26KT 10SM FEW019 18/14 A2978 1920 81 2700 170/18G26 RMK AO2 PK WND 17029/0730 SLP068 T01780144
13962KABI ABI20160307015511303/07/16 01:55:31  5-MIN KABI 070755Z 18016G25KT 10SM SCT020 18/14 A2978 1920 81 2700 170/16G25 RMK AO2 T01780144
13962KABI ABI20160307020011303/07/16 02:00:31  5-MIN KABI 070800Z 18018G25KT 10SM SCT020 18/14 A2978 1920 81 2700 170/18G25 RMK AO2 T01780144
13962KABI ABI20160307020513103/07/16 02:05:31  5-MIN KABI 070805Z 18016G27KT 10SM SCT020 18/14 A2978 1920 81 2700 170/16G27 RMK AO2 PK WND 17027/0803 T01780144
13962KABI ABI20160307021013103/07/16 02:10:31  5-MIN KABI 070810Z 18017G27KT 10SM SCT020 18/14 A2978 1920 81 2700 170/17G27 RMK AO2 PK WND 17027/0803 T01780144
13962KABI ABI20160307021513103/07/16 02:15:31  5-MIN KABI 070815Z 17018G23KT 10SM SCT020 18/14 A2978 1930 81 2700 170/18G23 RMK AO2 PK WND 17027/0803 T01780144
13962KABI ABI20160307022013103/07/16 02:20:31  5-MIN KABI 070820Z 17016G23KT 10SM SCT020 18/14 A2977 1930 81 2700 170/16G23 RMK AO2 PK WND 17027/0803 T01780144
13962KABI ABI20160307022513103/07/16 02:25:31  5-MIN KABI 070825Z 17015G23KT 10SM SCT020 18/14 A2977 1930 81 2700 170/15G23 RMK AO2 PK WND 17027/0803 T01780144
13962KABI ABI20160307023013103/07/16 02:30:31  5-MIN KABI 070830Z 17017G24KT 10SM SCT020 18/14 A2977 1930 81 2700 170/17G24 RMK AO2 PK WND 17027/0803 T01780144
13962KABI ABI20160307023513103/07/16 02:35:31  5-MIN KABI 070835Z 17016G24KT 10SM SCT020 18/14 A2977 1930 81 2700 170/16G24 RMK AO2 PK WND 17027/0803 T01780144
13962KABI ABI20160307024013103/07/16 02:40:31  5-MIN KABI 070840Z 17016G24KT 10SM SCT020 18/14 A2977 1930 81 2700 170/16G24 RMK AO2 PK WND 17027/0803 T01780144
13962KABI ABI20160307024513103/07/16 02:45:31  5-MIN KABI 070845Z 17014G23KT 10SM SCT020 18/14 A2977 1940 81 2700 170/14G23 RMK AO2 PK WND 17027/0803 T01780144
13962KABI ABI20160307025012103/07/16 02:50:31  5-MIN KABI 070850Z 18014G23KT 10SM OVC020 18/14 A2976 1940 81 2800 170/14G23 RMK AO2 PK WND 17027/0803
13962KABI ABI20160307025511303/07/16 02:55:31  5-MIN KABI 070855Z 17019G24KT 10SM OVC020 18/14 A2976 1940 81 2800 170/19G24 RMK AO2 T01780144
13962KABI ABI20160307030011303/07/16 03:00:31  5-MIN KABI 070900Z 18016G24KT 10SM OVC019 18/14 A2976 1940 81 2800 170/16G24 RMK AO2 T01780144
13962KABI ABI20160307030511303/07/16 03:05:31  5-MIN KABI 070905Z 17020G25KT 10SM OVC019 18/14 A2976 1940 81 2800 170/20G25 RMK AO2 T01780144
13962KABI ABI20160307031011303/07/16 03:10:31  5-MIN KABI 070910Z 17018G25KT 10SM OVC019 18/14 A2975 1950 81 2800 170/18G25 RMK AO2 T01780144
13962KABI ABI20160307031511303/07/16 03:15:31  5-MIN KABI 070915Z 17019G25KT 10SM OVC019 18/15 A2975 1950 83 2800 170/19G25 RMK AO2 T01780150
13962KABI ABI20160307032011303/07/16 03:20:31  5-MIN KABI 070920Z 17018G25KT 10SM OVC019 18/15 A2974 1960 83 2800 170/18G25 RMK AO2 T01780150
13962KABI ABI20160307032511303/07/16 03:25:31  5-MIN KABI 070925Z 17018G25KT 10SM OVC019 18/15 A2974 1960 83 2800 170/18G25 RMK AO2 T01780150
13962KABI ABI20160307033013103/07/16 03:30:31  5-MIN KABI 070930Z 18021G29KT 10SM OVC019 18/15 A2974 1960 83 2800 170/21G29 RMK AO2 PK WND 17029/0930 T01780150
13962KABI ABI20160307033513103/07/16 03:35:31  5-MIN KABI 070935Z 18017G29KT 10SM OVC019 18/15 A2974 1960 83 2800 170/17G29 RMK AO2 PK WND 17029/0930 T01780150
13962KABI ABI20160307034013103/07/16 03:40:31  5-MIN KABI 070940Z 18020G28KT 10SM OVC019 18/15 A2973 1960 83 2800 170/20G28 RMK AO2 PK WND 17029/0930 T01780150
13962KABI ABI20160307034513103/07/16 03:45:31  5-MIN KABI 070945Z 18020G28KT 10SM OVC019 18/15 A2973 1970 83 2800 170/20G28 RMK AO2 PK WND 17029/0930 T01780150
13962KABI ABI20160307035013803/07/16 03:50:31  5-MIN KABI 070950Z 18021G27KT 10SM OVC019 18/15 A2973 1970 83 2800 170/21G27 RMK AO2 PK WND 17029/0930 SLP047 T01780150
13962KABI ABI20160307035513103/07/16 03:55:31  5-MIN KABI 070955Z 18022G29KT 10SM BKN019 18/15 A2973 1970 83 2800 170/22G29 RMK AO2 PK WND 18027/0955 T01780150
13962KABI ABI20160307040013103/07/16 04:00:31  5-MIN KABI 071000Z 18020G29KT 10SM BKN019 18/15 A2973 1970 83 2800 170/20G29 RMK AO2 PK WND 18027/0955 T01780150
13962KABI ABI20160307040513103/07/16 04:05:31  5-MIN KABI 071005Z 18019G27KT 10SM BKN019 18/15 A2973 1970 83 2800 170/19G27 RMK AO2 PK WND 19027/1005 T01780150
13962KABI ABI20160307041013103/07/16 04:10:31  5-MIN KABI 071010Z 18022G31KT 10SM BKN019 18/15 A2972 1980 83 2800 170/22G31 RMK AO2 PK WND 18031/1008 T01780150
13962KABI ABI20160307041513103/07/16 04:15:31  5-MIN KABI 071015Z 18021G31KT 10SM BKN019 18/15 A2973 1970 83 2800 180/21G31 RMK AO2 PK WND 18031/1008 T01780150
13962KABI ABI20160307042013103/07/16 04:20:31  5-MIN KABI 071020Z 18021G28KT 10SM BKN019 18/16 A2972 1980 87 2800 180/21G28 RMK AO2 PK WND 18031/1008 T01780156
13962KABI ABI20160307042513103/07/16 04:25:31  5-MIN KABI 071025Z 18021G30KT 10SM BKN019 18/16 A2972 1980 87 2800 180/21G30 RMK AO2 PK WND 18031/1008 T01780156
13962KABI ABI20160307043013103/07/16 04:30:31  5-MIN KABI 071030Z 18019G30KT 10SM BKN019 18/16 A2972 1980 87 2800 170/19G30 RMK AO2 PK WND 18031/1008 T01780156
13962KABI ABI20160307043513103/07/16 04:35:31  5-MIN KABI 071035Z 18019G29KT 10SM BKN019 18/16 A2972 1980 87 2800 170/19G29 RMK AO2 PK WND 18031/1008 T01780156
13962KABI ABI20160307044013103/07/16 04:40:31  5-MIN KABI 071040Z 18024G30KT 10SM BKN019 18/16 A2973 1970 87 2800 170/24G30 RMK AO2 PK WND 18031/1008 T01780156
13962KABI ABI20160307044513103/07/16 04:45:31  5-MIN KABI 071045Z 18021G30KT 10SM BKN018 18/16 A2973 1970 84 2900 180/21G30 RMK AO2 PK WND 18031/1008 T01830156
13962KABI ABI20160307045013803/07/16 04:50:31  5-MIN KABI 071050Z 18020G30KT 10SM BKN018 18/16 A2973 1970 84 2800 180/20G30 RMK AO2 PK WND 18031/1008 SLP048 T01830156
13962KABI ABI20160307045513103/07/16 04:55:31  5-MIN KABI 071055Z 18023G29KT 10SM BKN018 18/16 A2973 1970 84 2900 170/23G29 RMK AO2 PK WND 17027/1055 T01830156
13962KABI ABI20160307050013103/07/16 05:00:31  5-MIN KABI 071100Z 18021G32KT 10SM OVC018 18/16 A2972 1980 84 2900 170/21G32 RMK AO2 PK WND 18032/1056 T01830156
13962KABI ABI20160307050513103/07/16 05:05:31  5-MIN KABI 071105Z 18021G32KT 10SM OVC018 18/16 A2973 1970 84 2900 180/21G32 RMK AO2 PK WND 18032/1056 T01830156
13962KABI ABI20160307051013103/07/16 05:10:31  5-MIN KABI 071110Z 18023G32KT 10SM OVC018 18/16 A2972 1970 84 2900 170/23G32 RMK AO2 PK WND 18032/1107 T01830156
13962KABI ABI20160307051513103/07/16 05:15:31  5-MIN KABI 071115Z 17021G32KT 10SM OVC018 18/16 A2972 1980 84 2900 170/21G32 RMK AO2 PK WND 18032/1107 T01830156
13962KABI ABI20160307052013103/07/16 05:20:31  5-MIN KABI 071120Z 17021G28KT 10SM OVC017 18/16 A2972 1970 84 2900 170/21G28 RMK AO2 PK WND 18032/1107 T01830156
13962KABI ABI20160307052513103/07/16 05:25:31  5-MIN KABI 071125Z 17021G27KT 10SM OVC016 18/16 A2973 1970 84 2900 170/21G27 RMK AO2 PK WND 18032/1107 T01830156
13962KABI ABI20160307053013103/07/16 05:30:31  5-MIN KABI 071130Z 18019G27KT 10SM OVC016 18/16 A2973 1970 87 2800 180/19G27 RMK AO2 PK WND 18032/1107 T01780156
13962KABI ABI20160307053513103/07/16 05:35:31  5-MIN KABI 071135Z 18017G26KT 10SM OVC014 18/16 A2973 1970 87 2800 170/17G26 RMK AO2 PK WND 18032/1107 T01780156
13962KABI ABI20160307054013103/07/16 05:40:31  5-MIN KABI 071140Z 18019G25KT 10SM OVC014 18/16 A2974 1960 87 2800 170/19G25 RMK AO2 PK WND 18032/1107 T01780156
13962KABI ABI20160307054513103/07/16 05:45:31  5-MIN KABI 071145Z 18018G26KT 10SM OVC014 18/16 A2974 1960 87 2800 170/18G26 RMK AO2 PK WND 18032/1107 T01780156
13962KABI ABI20160307055015603/07/16 05:50:31  5-MIN KABI 071150Z 17017G26KT 10SM OVC014 18/16 A2974 1960 87 2800 170/17G26 RMK AO2 PK WND 18032/1107 SLP053 T01780156 10183 20172 57018
13962KABI ABI20160307055511303/07/16 05:55:31  5-MIN KABI 071155Z 17018G25KT 10SM OVC014 18/16 A2974 1960 87 2800 170/18G25 RMK AO2 T01780156
13962KABI ABI20160307060011303/07/16 06:00:31  5-MIN KABI 071200Z 17017G25KT 10SM OVC014 18/16 A2974 1960 87 2800 170/17G25 RMK AO2 T01780156
13962KABI ABI20160307060511303/07/16 06:05:31  5-MIN KABI 071205Z 18016G24KT 10SM OVC013 18/16 A2974 1960 87 2800 170/16G24 RMK AO2 T01780156
13962KABI ABI20160307061011303/07/16 06:10:31  5-MIN KABI 071210Z 17016G24KT 10SM OVC013 18/16 A2974 1960 87 2800 170/16G24 RMK AO2 T01780156
13962KABI ABI20160307061510703/07/16 06:15:31  5-MIN KABI 071215Z 17018KT 10SM OVC013 18/16 A2975 1950 87 2800 170/18 RMK AO2 T01780156
13962KABI ABI20160307062011303/07/16 06:20:31  5-MIN KABI 071220Z 17015G22KT 10SM OVC013 18/16 A2974 1960 87 2800 170/15G22 RMK AO2 T01780156
13962KABI ABI20160307062511303/07/16 06:25:31  5-MIN KABI 071225Z 18016G23KT 10SM OVC013 18/16 A2975 1950 87 2800 170/16G23 RMK AO2 T01780156
13962KABI ABI20160307063013103/07/16 06:30:31  5-MIN KABI 071230Z 17019G27KT 10SM OVC013 18/16 A2974 1960 87 2800 160/19G27 RMK AO2 PK WND 17027/1229 T01780156
13962KABI ABI20160307063513003/07/16 06:35:31  5-MIN KABI 071235Z 17019G27KT 9SM OVC012 18/16 A2974 1960 87 2800 160/19G27 RMK AO2 PK WND 17027/1229 T01780156
13962KABI ABI20160307064013003/07/16 06:40:31  5-MIN KABI 071240Z 17017G25KT 9SM OVC012 18/16 A2974 1960 87 2800 170/17G25 RMK AO2 PK WND 17027/1229 T01780156
13962KABI ABI20160307064513003/07/16 06:45:31  5-MIN KABI 071245Z 17016G25KT 9SM OVC012 17/16 A2975 1950 90 2700 170/16G25 RMK AO2 PK WND 17027/1229 T01720156
13962KABI ABI20160307065014403/07/16 06:50:31  5-MIN KABI 071250Z 17016G23KT 9SM BKN012 OVC018 17/16 A2975 1950 93 2700 160/16G23 RMK AO2 PK WND 17027/1229 SLP057 T01720161
13962KABI ABI20160307065511903/07/16 06:55:31  5-MIN KABI 071255Z 17014G23KT 9SM BKN012 OVC018 17/16 A2975 1950 93 2700 160/14G23 RMK AO2 T01720161
13962KABI ABI20160307070012003/07/16 07:00:31  5-MIN KABI 071300Z 17015G23KT 10SM BKN012 OVC018 17/16 A2975 1950 90 2700 170/15G23 RMK AO2 T01720156
13962KABI ABI20160307070512003/07/16 07:05:31  5-MIN KABI 071305Z 17015G23KT 10SM BKN012 OVC018 17/16 A2975 1950 90 2700 160/15G23 RMK AO2 T01720156
13962KABI ABI20160307071012003/07/16 07:10:31  5-MIN KABI 071310Z 17015G22KT 10SM BKN012 OVC018 17/16 A2975 1950 90 2700 170/15G22 RMK AO2 T01720156
13962KABI ABI20160307071512003/07/16 07:15:31  5-MIN KABI 071315Z 18012G22KT 10SM BKN010 OVC016 17/16 A2976 1940 93 2700 170/12G22 RMK AO2 T01720161
13962KABI ABI20160307072013203/07/16 07:20:31  5-MIN KABI 071320Z 18013G19KT 10SM BKN010 OVC016 17/16 A2977 1930 93 2700 170/13G19 RMK AO2 CIG 009V014 T01720161
13962KABI ABI20160307072513203/07/16 07:25:31  5-MIN KABI 071325Z 18012G19KT 10SM BKN010 OVC017 17/16 A2977 1930 93 2700 180/12G19 RMK AO2 CIG 009V014 T01720161
13962KABI ABI20160307073012003/07/16 07:30:31  5-MIN KABI 071330Z 18013G19KT 10SM BKN010 OVC015 17/16 A2977 1930 93 2700 180/13G19 RMK AO2 T01720161
13962KABI ABI20160307073511303/07/16 07:35:31  5-MIN KABI 071335Z 18014G19KT 10SM OVC010 17/16 A2978 1930 93 2700 170/14G19 RMK AO2 T01720161
13962KABI ABI20160307074012403/07/16 07:40:31  5-MIN KABI 071340Z 17010G19KT 8SM OVC009 17/16 A2977 1930 93 2700 170/10G19 RMK AO2 CIG 008V013 T01720161
13962KABI ABI20160307074511503/07/16 07:45:31  5-MIN KABI 071345Z 17014G23KT 6SM BR OVC009 17/16 A2977 1930 93 2700 160/14G23 RMK AO2 T01720161
13962KABI ABI20160307075013403/07/16 07:50:31  5-MIN KABI 071350Z 17013G23KT 5SM BR OVC009 17/16 A2977 1930 93 2700 160/13G23 RMK AO2 CIG 007V013 SLP064 T01720161
13962KABI ABI20160307075512703/07/16 07:55:31  5-MIN KABI 071355Z 17016G23KT 5SM BR OVC009 17/16 A2977 1930 93 2700 160/16G23 RMK AO2 CIG 007V012 T01720161
13962KABI ABI20160307080012703/07/16 08:00:31  5-MIN KABI 071400Z 17014G20KT 6SM BR OVC009 17/16 A2977 1930 93 2700 170/14G20 RMK AO2 CIG 007V012 T01720161
13962KABI ABI20160307080510603/07/16 08:05:31  5-MIN KABI 071405Z 18013KT 7SM OVC009 17/16 A2977 1930 93 2700 170/13 RMK AO2 T01720161
13962KABI ABI20160307081011803/07/16 08:10:31  5-MIN KABI 071410Z 17014KT 8SM OVC009 17/16 A2977 1930 93 2700 170/14 RMK AO2 CIG 007V013 T01720161
13962KABI ABI20160307081511803/07/16 08:15:31  5-MIN KABI 071415Z 18012KT 9SM OVC009 17/16 A2978 1920 93 2700 180/12 RMK AO2 CIG 007V012 T01720161
13962KABI ABI20160307082011803/07/16 08:20:31  5-MIN KABI 071420Z 18013KT 9SM OVC009 17/16 A2978 1920 93 2700 170/13 RMK AO2 CIG 007V014 T01720161
13962KABI ABI20160307082511803/07/16 08:25:31  5-MIN KABI 071425Z 18016KT 9SM OVC009 17/16 A2978 1920 93 2700 180/16 RMK AO2 CIG 007V015 T01720161
13962KABI ABI20160307083011803/07/16 08:30:31  5-MIN KABI 071430Z 18015KT 9SM OVC010 17/16 A2978 1920 93 2700 170/15 RMK AO2 CIG 007V014 T01720161
13962KABI ABI20160307083511203/07/16 08:35:31  5-MIN KABI 071435Z 17015G21KT 9SM OVC009 18/16 A2978 1920 90 2700 170/15G21 RMK AO2 T01780161
13962KABI ABI20160307084011203/07/16 08:40:31  5-MIN KABI 071440Z 18017G21KT 9SM OVC009 18/16 A2978 1920 90 2700 180/17G21 RMK AO2 T01780161
13962KABI ABI20160307084511203/07/16 08:45:31  5-MIN KABI 071445Z 18017G22KT 9SM OVC009 18/16 A2979 1920 90 2700 170/17G22 RMK AO2 T01780161
13962KABI ABI20160307085015103/07/16 08:50:31  5-MIN KABI 071450Z 19017G22KT 9SM BKN009 BKN017 OVC024 18/16 A2978 1920 90 2700 180/17G22 RMK AO2 CIG 008V014 SLP068 T01780161 55007
13962KABI ABI20160307085512703/07/16 08:55:31  5-MIN KABI 071455Z 18014G22KT 10SM BKN009 BKN017 OVC024 18/16 A2978 1920 90 2700 180/14G22 RMK AO2 T01780161
13962KABI ABI20160307090012103/07/16 09:00:31  5-MIN KABI 071500Z 19016KT 10SM BKN009 BKN017 OVC024 18/16 A2979 1920 90 2700 180/16 RMK AO2 T01780161
13962KABI ABI20160307090512103/07/16 09:05:31  5-MIN KABI 071505Z 19016KT 10SM BKN009 BKN017 OVC024 18/16 A2978 1920 90 2700 180/16 RMK AO2 T01780161
13962KABI ABI20160307091012103/07/16 09:10:31  5-MIN KABI 071510Z 19016KT 10SM BKN009 BKN017 OVC024 18/16 A2979 1920 90 2700 180/16 RMK AO2 T01780161
13962KABI ABI20160307091512703/07/16 09:15:31  5-MIN KABI 071515Z 18016G23KT 10SM BKN009 BKN017 OVC024 18/17 A2978 1920 93 2700 180/16G23 RMK AO2 T01780167
13962KABI ABI20160307092012703/07/16 09:20:31  5-MIN KABI 071520Z 19017G23KT 10SM BKN009 BKN017 OVC024 18/17 A2979 1920 90 2800 180/17G23 RMK AO2 T01830167
13962KABI ABI20160307092512703/07/16 09:25:31  5-MIN KABI 071525Z 19017G23KT 10SM BKN009 BKN017 OVC024 18/17 A2978 1920 90 2800 180/17G23 RMK AO2 T01830167
13962KABI ABI20160307093012703/07/16 09:30:31  5-MIN KABI 071530Z 19017G24KT 10SM BKN009 BKN017 OVC024 18/17 A2978 1920 90 2800 180/17G24 RMK AO2 T01830167
13962KABI ABI20160307093512703/07/16 09:35:31  5-MIN KABI 071535Z 19016G24KT 10SM BKN009 BKN017 OVC024 18/17 A2978 1920 90 2800 180/16G24 RMK AO2 T01830167
13962KABI ABI20160307094012103/07/16 09:40:31  5-MIN KABI 071540Z 19015KT 10SM BKN009 BKN017 OVC024 18/17 A2979 1920 90 2800 190/15 RMK AO2 T01830167
13962KABI ABI20160307094512103/07/16 09:45:31  5-MIN KABI 071545Z 19016KT 10SM BKN009 BKN017 OVC024 18/17 A2979 1920 90 2800 180/16 RMK AO2 T01830167
13962KABI ABI20160307095009703/07/16 09:50:31  5-MIN KABI 071550Z 19017KT 10SM BKN011 18/17 A2978 1920 90 2800 180/17 RMK AO2
13962KABI ABI20160307095511303/07/16 09:55:31  5-MIN KABI 071555Z 19014G23KT 10SM BKN009 19/17 A2979 1920 87 2900 190/14G23 RMK AO2 T01890167
13962KABI ABI20160307100011303/07/16 10:00:31  5-MIN KABI 071600Z 19016G24KT 10SM BKN009 19/17 A2978 1920 87 2900 190/16G24 RMK AO2 T01890167
13962KABI ABI20160307100511303/07/16 10:05:31  5-MIN KABI 071605Z 19017G24KT 10SM BKN009 19/17 A2978 1920 87 2900 180/17G24 RMK AO2 T01890167
13962KABI ABI20160307101013103/07/16 10:10:31  5-MIN KABI 071610Z 19018G26KT 10SM BKN009 19/17 A2978 1920 87 2900 180/18G26 RMK AO2 PK WND 19026/1609 T01890167
13962KABI ABI20160307101513103/07/16 10:15:31  5-MIN KABI 071615Z 18017G26KT 10SM BKN009 19/17 A2978 1920 87 2900 180/17G26 RMK AO2 PK WND 19026/1609 T01890167
13962KABI ABI20160307102012503/07/16 10:20:31  5-MIN KABI 071620Z 18017KT 10SM BKN009 19/17 A2978 1920 87 2900 180/17 RMK AO2 PK WND 19026/1609 T01890167
13962KABI ABI20160307102513103/07/16 10:25:31  5-MIN KABI 071625Z 18018G22KT 10SM BKN009 19/17 A2978 1920 87 2900 180/18G22 RMK AO2 PK WND 19026/1609 T01890167
13962KABI ABI20160307103013103/07/16 10:30:31  5-MIN KABI 071630Z 19017G22KT 10SM BKN009 19/17 A2978 1920 87 2900 180/17G22 RMK AO2 PK WND 19026/1609 T01890167
13962KABI ABI20160307103513103/07/16 10:35:31  5-MIN KABI 071635Z 19020G24KT 10SM BKN009 19/17 A2978 1930 84 2900 180/20G24 RMK AO2 PK WND 19026/1609 T01940167
13962KABI ABI20160307104013103/07/16 10:40:31  5-MIN KABI 071640Z 19019G27KT 10SM BKN009 19/17 A2978 1930 84 2900 180/19G27 RMK AO2 PK WND 19027/1637 T01940167
13962KABI ABI20160307104513103/07/16 10:45:31  5-MIN KABI 071645Z 19017G27KT 10SM BKN009 20/17 A2978 1920 81 3000 180/17G27 RMK AO2 PK WND 19027/1637 T02000167
13962KABI ABI20160307105012103/07/16 10:50:31  5-MIN KABI 071650Z 20020G25KT 10SM BKN014 20/17 A2979 1910 81 3000 190/20G25 RMK AO2 PK WND 19027/1637
13962KABI ABI20160307105511303/07/16 10:55:31  5-MIN KABI 071655Z 20019G25KT 10SM BKN014 19/17 A2979 1920 84 2900 190/19G25 RMK AO2 T01940167
13962KABI ABI20160307110011303/07/16 11:00:31  5-MIN KABI 071700Z 20018G24KT 10SM BKN014 19/17 A2978 1920 84 2900 190/18G24 RMK AO2 T01940167
13962KABI ABI20160307110511303/07/16 11:05:31  5-MIN KABI 071705Z 19016G25KT 10SM BKN014 19/17 A2978 1930 84 2900 190/16G25 RMK AO2 T01940167
13962KABI ABI20160307111011303/07/16 11:10:31  5-MIN KABI 071710Z 19016G25KT 10SM BKN014 19/17 A2978 1920 84 2900 190/16G25 RMK AO2 T01940167
13962KABI ABI20160307111513103/07/16 11:15:31  5-MIN KABI 071715Z 19019G26KT 10SM BKN014 19/17 A2978 1930 84 2900 180/19G26 RMK AO2 PK WND 19026/1715 T01940167
13962KABI ABI20160307112013103/07/16 11:20:31  5-MIN KABI 071720Z 19015G26KT 10SM BKN014 19/17 A2978 1920 84 2900 190/15G26 RMK AO2 PK WND 19026/1715 T01940167
13962KABI ABI20160307112513103/07/16 11:25:31  5-MIN KABI 071725Z 20016G26KT 10SM BKN014 20/17 A2978 1920 81 3000 190/16G26 RMK AO2 PK WND 19026/1722 T02000167
13962KABI ABI20160307113013103/07/16 11:30:31  5-MIN KABI 071730Z 20022G28KT 10SM BKN014 19/17 A2978 1920 84 2900 190/22G28 RMK AO2 PK WND 20028/1729 T01940167
13962KABI ABI20160307113513103/07/16 11:35:31  5-MIN KABI 071735Z 20017G28KT 10SM BKN014 19/17 A2978 1930 84 2900 190/17G28 RMK AO2 PK WND 20028/1729 T01940167
13962KABI ABI20160307114013103/07/16 11:40:31  5-MIN KABI 071740Z 19018G24KT 10SM BKN014 19/17 A2977 1930 84 2900 180/18G24 RMK AO2 PK WND 20028/1729 T01940167
13962KABI ABI20160307114513103/07/16 11:45:31  5-MIN KABI 071745Z 19016G24KT 10SM BKN015 19/16 A2977 1930 81 2900 190/16G24 RMK AO2 PK WND 20028/1729 T01940161
13962KABI ABI20160307115015003/07/16 11:50:31  5-MIN KABI 071750Z 19015KT 10SM SCT015 19/16 A2976 1940 81 2900 180/15 RMK AO2 PK WND 20028/1729 SLP060 T01940161 10200 20172 58006
13962KABI ABI20160307115510703/07/16 11:55:31  5-MIN KABI 071755Z 19013KT 10SM FEW015 19/16 A2976 1940 81 2900 180/13 RMK AO2 T01940161
13962KABI ABI20160307120012003/07/16 12:00:31  5-MIN KABI 071800Z 18013G18KT 10SM FEW015 19/17 A2975 1950 84 3000 170/13G18 RMK AO2 PRESFR T01940167
13962KABI ABI20160307120512003/07/16 12:05:31  5-MIN KABI 071805Z 19014G18KT 10SM FEW015 SCT120 19/17 A2975 1950 84 3000 180/14G18 RMK AO2 T01940167
13962KABI ABI20160307121012003/07/16 12:10:31  5-MIN KABI 071810Z 19016G21KT 10SM FEW015 SCT120 19/17 A2976 1940 84 2900 190/16G21 RMK AO2 T01940167
13962KABI ABI20160307121511303/07/16 12:15:31  5-MIN KABI 071815Z 19016G24KT 10SM FEW120 20/17 A2976 1940 81 3000 190/16G24 RMK AO2 T02000167
13962KABI ABI20160307122012003/07/16 12:20:31  5-MIN KABI 071820Z 19018G24KT 10SM FEW015 SCT120 20/17 A2976 1940 81 3000 180/18G24 RMK AO2 T02000167
13962KABI ABI20160307122512003/07/16 12:25:31  5-MIN KABI 071825Z 19015G23KT 10SM SCT015 SCT120 21/17 A2976 1940 75 3100 190/15G23 RMK AO2 T02110167
13962KABI ABI20160307123013803/07/16 12:30:31  5-MIN KABI 071830Z 19020G27KT 10SM SCT017 SCT120 22/17 A2976 1950 75 3200 190/20G27 RMK AO2 PK WND 19027/1829 T02170172
13962KABI ABI20160307123513803/07/16 12:35:31  5-MIN KABI 071835Z 19021G27KT 10SM SCT017 SCT120 21/17 A2975 1950 75 3100 190/21G27 RMK AO2 PK WND 19027/1829 T02110167
13962KABI ABI20160307124013803/07/16 12:40:31  5-MIN KABI 071840Z 19017G27KT 10SM SCT017 SCT120 21/17 A2974 1960 75 3200 180/17G27 RMK AO2 PK WND 19027/1829 T02110167
13962KABI ABI20160307124513803/07/16 12:45:31  5-MIN KABI 071845Z 20020G27KT 10SM SCT017 SCT120 22/17 A2974 1960 70 3300 200/20G27 RMK AO2 PK WND 19027/1829 T02220167
13962KABI ABI20160307125014503/07/16 12:50:31  5-MIN KABI 071850Z 19018G29KT 10SM SCT017 22/17 A2973 1970 70 3300 180/18G29 RMK AO2 PK WND 18029/1847 PRESFR SLP046 T02220167
13962KABI ABI20160307125511303/07/16 12:55:31  5-MIN KABI 071855Z 19019G29KT 10SM SCT019 22/17 A2973 1970 70 3300 180/19G29 RMK AO2 T02220167
13962KABI ABI20160307130013103/07/16 13:00:31  5-MIN KABI 071900Z 20020G26KT 10SM SCT019 23/17 A2973 1970 68 3400 190/20G26 RMK AO2 PK WND 18026/1858 T02280167
13962KABI ABI20160307130513103/07/16 13:05:31  5-MIN KABI 071905Z 18017G26KT 10SM FEW019 23/17 A2972 1980 66 3400 180/17G26 RMK AO2 PK WND 18026/1858 T02330167
13962KABI ABI20160307131013103/07/16 13:10:31  5-MIN KABI 071910Z 19021G27KT 10SM FEW019 23/17 A2972 1980 66 3400 190/21G27 RMK AO2 PK WND 18027/1908 T02330167
13962KABI ABI20160307131513103/07/16 13:15:31  5-MIN KABI 071915Z 19020G27KT 10SM FEW021 23/17 A2972 1980 66 3400 190/20G27 RMK AO2 PK WND 18027/1908 T02330167
13962KABI ABI20160307132013103/07/16 13:20:31  5-MIN KABI 071920Z 18017G26KT 10SM SCT024 23/17 A2972 1980 66 3400 170/17G26 RMK AO2 PK WND 18027/1908 T02330167
13962KABI ABI20160307132513103/07/16 13:25:31  5-MIN KABI 071925Z 19019G26KT 10SM SCT024 23/17 A2971 1980 66 3400 180/19G26 RMK AO2 PK WND 18027/1908 T02330167
13962KABI ABI20160307133013103/07/16 13:30:31  5-MIN KABI 071930Z 17020G26KT 10SM SCT024 23/16 A2972 1980 65 3400 170/20G26 RMK AO2 PK WND 18027/1908 T02280161
13962KABI ABI20160307133513803/07/16 13:35:31  5-MIN KABI 071935Z 18016G26KT 10SM SCT026 BKN033 23/17 A2971 1990 68 3400 170/16G26 RMK AO2 PK WND 18027/1908 T02280167
13962KABI ABI20160307134012503/07/16 13:40:31  5-MIN KABI 071940Z 18018KT 10SM SCT017 23/17 A2971 1990 66 3400 170/18 RMK AO2 PK WND 18027/1908 T02330167
13962KABI ABI20160307134513103/07/16 13:45:31  5-MIN KABI 071945Z 19015G23KT 10SM SCT017 23/17 A2971 1990 66 3400 180/15G23 RMK AO2 PK WND 18027/1908 T02330167
13962KABI ABI20160307135012103/07/16 13:50:31  5-MIN KABI 071950Z 18017G25KT 10SM BKN027 24/16 A2971 1990 61 3500 180/17G25 RMK AO2 PK WND 18027/1908
13962KABI ABI20160307135511303/07/16 13:55:31  5-MIN KABI 071955Z 18019G25KT 10SM SCT027 24/16 A2971 1990 61 3500 180/19G25 RMK AO2 T02390161
13962KABI ABI20160307140011303/07/16 14:00:31  5-MIN KABI 072000Z 17017G25KT 10SM SCT027 24/16 A2970 2000 59 3500 170/17G25 RMK AO2 T02390156
13962KABI ABI20160307140513103/07/16 14:05:31  5-MIN KABI 072005Z 19018G26KT 10SM FEW027 24/16 A2970 1990 59 3500 190/18G26 RMK AO2 PK WND 17026/2001 T02390156
13962KABI ABI20160307141013103/07/16 14:10:31  5-MIN KABI 072010Z 19015G26KT 10SM FEW027 24/16 A2970 2000 59 3500 180/15G26 RMK AO2 PK WND 17026/2001 T02390156
13962KABI ABI20160307141513103/07/16 14:15:31  5-MIN KABI 072015Z 18017G23KT 10SM FEW029 24/16 A2969 2000 59 3500 170/17G23 RMK AO2 PK WND 17026/2001 T02390156
13962KABI ABI20160307142012503/07/16 14:20:31  5-MIN KABI 072020Z 17017KT 10SM FEW029 24/16 A2969 2000 59 3500 170/17 RMK AO2 PK WND 17026/2001 T02390156
13962KABI ABI20160307142512503/07/16 14:25:31  5-MIN KABI 072025Z 19018KT 10SM FEW029 24/16 A2969 2010 59 3500 180/18 RMK AO2 PK WND 17026/2001 T02390156
13962KABI ABI20160307143012803/07/16 14:30:31  5-MIN KABI 072030Z 18016G22KT 10SM CLR 23/15 A2969 2010 59 3500 180/16G22 RMK AO2 PK WND 17026/2001 T02330150
13962KABI ABI20160307143512803/07/16 14:35:31  5-MIN KABI 072035Z 18013G22KT 10SM CLR 23/16 A2968 2010 63 3500 180/13G22 RMK AO2 PK WND 17026/2001 T02330161
13962KABI ABI20160307144012203/07/16 14:40:31  5-MIN KABI 072040Z 19014KT 10SM CLR 23/16 A2968 2010 65 3400 180/14 RMK AO2 PK WND 17026/2001 T02280161
13962KABI ABI20160307144512803/07/16 14:45:31  5-MIN KABI 072045Z 17013G20KT 10SM CLR 22/16 A2968 2010 68 3300 170/13G20 RMK AO2 PK WND 17026/2001 T02220161
13962KABI ABI20160307145014103/07/16 14:50:31  5-MIN KABI 072050Z 17018G21KT 10SM CLR 22/16 A2968 2010 68 3300 170/18G21 RMK AO2 PK WND 17026/2001 SLP031 T02220161 58007
13962KABI ABI20160307145510403/07/16 14:55:31  5-MIN KABI 072055Z 18015KT 10SM CLR 22/16 A2968 2010 68 3300 170/15 RMK AO2 T02220161
13962KABI ABI20160307150010703/07/16 15:00:31  5-MIN KABI 072100Z 17015KT 10SM FEW110 23/16 A2968 2020 65 3400 170/15 RMK AO2 T02280161
13962KABI ABI20160307150511303/07/16 15:05:31  5-MIN KABI 072105Z 16018G22KT 10SM FEW110 23/17 A2968 2020 66 3500 150/18G22 RMK AO2 T02330167
13962KABI ABI20160307151011403/07/16 15:10:31  5-MIN KABI 072110Z 17017KT 10SM FEW025 FEW110 23/17 A2967 2020 68 3400 160/17 RMK AO2 T02280167
13962KABI ABI20160307151510703/07/16 15:15:31  5-MIN KABI 072115Z 17017KT 10SM FEW110 23/16 A2967 2020 65 3400 160/17 RMK AO2 T02280161
13962KABI ABI20160307152010703/07/16 15:20:31  5-MIN KABI 072120Z 17017KT 10SM FEW110 23/16 A2967 2030 65 3400 170/17 RMK AO2 T02280161
13962KABI ABI20160307152511303/07/16 15:25:31  5-MIN KABI 072125Z 17015G22KT 10SM FEW110 23/16 A2967 2030 65 3400 170/15G22 RMK AO2 T02280161
13962KABI ABI20160307153011303/07/16 15:30:31  5-MIN KABI 072130Z 17015G22KT 10SM FEW025 23/16 A2967 2030 65 3400 160/15G22 RMK AO2 T02280161
13962KABI ABI20160307153511303/07/16 15:35:31  5-MIN KABI 072135Z 16019G23KT 10SM FEW025 23/16 A2967 2020 65 3400 160/19G23 RMK AO2 T02280161
13962KABI ABI20160307154011403/07/16 15:40:31  5-MIN KABI 072140Z 16017KT 10SM FEW025 SCT032 22/16 A2967 2020 70 3300 150/17 RMK AO2 T02170161
13962KABI ABI20160307154511403/07/16 15:45:31  5-MIN KABI 072145Z 16018KT 10SM FEW025 FEW032 22/16 A2967 2030 68 3400 160/18 RMK AO2 T02220161
13962KABI ABI20160307155012103/07/16 15:50:31  5-MIN KABI 072150Z 17016KT 10SM FEW025 FEW034 22/16 A2967 2030 68 3400 170/16 RMK AO2 SLP025 T02220161
13962KABI ABI20160307155511403/07/16 15:55:31  5-MIN KABI 072155Z 17018KT 10SM FEW025 FEW034 23/16 A2966 2030 65 3400 160/18 RMK AO2 T02280161
13962KABI ABI20160307160011403/07/16 16:00:31  5-MIN KABI 072200Z 16015KT 10SM FEW025 FEW033 23/16 A2966 2030 65 3400 160/15 RMK AO2 T02280161
13962KABI ABI20160307160510703/07/16 16:05:31  5-MIN KABI 072205Z 16021KT 10SM FEW033 22/16 A2966 2030 68 3400 150/21 RMK AO2 T02220161
13962KABI ABI20160307161010403/07/16 16:10:31  5-MIN KABI 072210Z 16019KT 10SM CLR 22/16 A2966 2030 70 3300 150/19 RMK AO2 T02170161
13962KABI ABI20160307161510403/07/16 16:15:31  5-MIN KABI 072215Z 16016KT 10SM CLR 21/16 A2966 2040 73 3300 150/16 RMK AO2 T02110161
13962KABI ABI20160307162010403/07/16 16:20:31  5-MIN KABI 072220Z 17015KT 10SM CLR 21/16 A2966 2040 73 3300 170/15 RMK AO2 T02110161
13962KABI ABI20160307162510403/07/16 16:25:31  5-MIN KABI 072225Z 17016KT 10SM CLR 21/16 A2966 2040 73 3200 170/16 RMK AO2 T02110161
13962KABI ABI20160307163010403/07/16 16:30:31  5-MIN KABI 072230Z 17017KT 10SM CLR 21/16 A2966 2040 73 3200 160/17 RMK AO2 T02110161
13962KABI ABI20160307163511003/07/16 16:35:31  5-MIN KABI 072235Z 16013G21KT 10SM CLR 21/16 A2966 2040 73 3300 160/13G21 RMK AO2 T02110161
13962KABI ABI20160307164010403/07/16 16:40:31  5-MIN KABI 072240Z 17016KT 10SM CLR 22/16 A2966 2030 70 3300 170/16 RMK AO2 T02170161
13962KABI ABI20160307164511003/07/16 16:45:31  5-MIN KABI 072245Z 17018G23KT 10SM CLR 21/16 A2966 2040 73 3200 160/18G23 RMK AO2 T02110161
13962KABI ABI20160307165011703/07/16 16:50:31  5-MIN KABI 072250Z 16017G23KT 10SM CLR 21/16 A2966 2030 73 3200 160/17G23 RMK AO2 SLP023 T02110161
13962KABI ABI20160307165510403/07/16 16:55:31  5-MIN KABI 072255Z 16016KT 10SM CLR 21/16 A2966 2040 73 3300 160/16 RMK AO2 T02110161
13962KABI ABI20160307170010303/07/16 17:00:31  5-MIN KABI 072300Z 16017KT 9SM CLR 21/16 A2966 2040 75 3200 150/17 RMK AO2 T02060161
13962KABI ABI20160307170511003/07/16 17:05:31  5-MIN KABI 072305Z 16016G21KT 10SM CLR 21/16 A2966 2030 75 3200 160/16G21 RMK AO2 T02060161
13962KABI ABI20160307171010403/07/16 17:10:31  5-MIN KABI 072310Z 16013KT 10SM CLR 21/16 A2966 2030 75 3200 160/13 RMK AO2 T02060161
13962KABI ABI20160307171510403/07/16 17:15:31  5-MIN KABI 072315Z 15013KT 10SM CLR 21/16 A2966 2030 75 3200 150/13 RMK AO2 T02060161
13962KABI ABI20160307172010403/07/16 17:20:31  5-MIN KABI 072320Z 15014KT 10SM CLR 20/16 A2966 2030 78 3100 150/14 RMK AO2 T02000161
13962KABI ABI20160307172510403/07/16 17:25:31  5-MIN KABI 072325Z 15015KT 10SM CLR 20/16 A2966 2030 78 3100 140/15 RMK AO2 T02000161
13962KABI ABI20160307173010403/07/16 17:30:31  5-MIN KABI 072330Z 16014KT 10SM CLR 20/16 A2966 2030 78 3100 150/14 RMK AO2 T02000161
13962KABI ABI20160307173510403/07/16 17:35:31  5-MIN KABI 072335Z 16013KT 10SM CLR 20/16 A2966 2030 78 3100 150/13 RMK AO2 T02000161
13962KABI ABI20160307174010403/07/16 17:40:31  5-MIN KABI 072340Z 16012KT 10SM CLR 20/16 A2966 2030 78 3100 150/12 RMK AO2 T02000161
13962KABI ABI20160307174510403/07/16 17:45:31  5-MIN KABI 072345Z 16015KT 10SM CLR 20/16 A2966 2040 78 3100 160/15 RMK AO2 T02000161
13962KABI ABI20160307175012903/07/16 17:50:31  5-MIN KABI 072350Z 16013KT 10SM CLR 20/16 A2965 2040 78 3100 150/13 RMK AO2 SLP023 T02000161 10239 20194 56024
13962KABI ABI20160307175510403/07/16 17:55:31  5-MIN KABI 072355Z 15014KT 10SM CLR 20/16 A2966 2040 78 3100 150/14 RMK AO2 T02000161
13962KABI ABI20160307180010403/07/16 18:00:31  5-MIN KABI 080000Z 16014KT 10SM CLR 19/16 A2966 2030 81 3100 150/14 RMK AO2 T01940161
13962KABI ABI20160307180510403/07/16 18:05:31  5-MIN KABI 080005Z 16014KT 10SM CLR 19/16 A2967 2030 81 3100 150/14 RMK AO2 T01940161
13962KABI ABI20160307181010403/07/16 18:10:31  5-MIN KABI 080010Z 16014KT 10SM CLR 19/16 A2967 2030 81 3000 150/14 RMK AO2 T01940161
13962KABI ABI20160307181510403/07/16 18:15:31  5-MIN KABI 080015Z 16013KT 10SM CLR 19/16 A2967 2030 81 3000 150/13 RMK AO2 T01940161
13962KABI ABI20160307182010403/07/16 18:20:31  5-MIN KABI 080020Z 15014KT 10SM CLR 19/16 A2967 2030 81 3100 150/14 RMK AO2 T01940161
13962KABI ABI20160307182510403/07/16 18:25:31  5-MIN KABI 080025Z 16014KT 10SM CLR 19/16 A2967 2030 84 3000 160/14 RMK AO2 T01890161
13962KABI ABI20160307183010403/07/16 18:30:31  5-MIN KABI 080030Z 16014KT 10SM CLR 19/16 A2967 2020 84 3000 160/14 RMK AO2 T01890161
13962KABI ABI20160307183510403/07/16 18:35:31  5-MIN KABI 080035Z 17014KT 10SM CLR 19/16 A2967 2020 84 3000 160/14 RMK AO2 T01890161
13962KABI ABI20160307184010403/07/16 18:40:31  5-MIN KABI 080040Z 17012KT 10SM CLR 19/16 A2967 2020 84 3000 160/12 RMK AO2 T01890161
13962KABI ABI20160307184510403/07/16 18:45:31  5-MIN KABI 080045Z 16012KT 10SM CLR 19/16 A2967 2030 84 3000 160/12 RMK AO2 T01890161
13962KABI ABI20160307185011103/07/16 18:50:31  5-MIN KABI 080050Z 16012KT 10SM CLR 19/16 A2967 2020 84 3000 160/12 RMK AO2 SLP029 T01890161
13962KABI ABI20160307185510403/07/16 18:55:31  5-MIN KABI 080055Z 16012KT 10SM CLR 19/16 A2968 2020 84 3000 160/12 RMK AO2 T01890161
13962KABI ABI20160307190010403/07/16 19:00:31  5-MIN KABI 080100Z 16012KT 10SM CLR 19/17 A2968 2020 87 3000 160/12 RMK AO2 T01890167
13962KABI ABI20160307190510403/07/16 19:05:31  5-MIN KABI 080105Z 16013KT 10SM CLR 18/16 A2968 2020 87 2900 150/13 RMK AO2 T01830161
13962KABI ABI20160307191010403/07/16 19:10:31  5-MIN KABI 080110Z 16011KT 10SM CLR 18/17 A2968 2010 90 2900 160/11 RMK AO2 T01830167
13962KABI ABI20160307191510403/07/16 19:15:31  5-MIN KABI 080115Z 16014KT 10SM CLR 18/17 A2968 2020 90 2900 160/14 RMK AO2 T01830167
13962KABI ABI20160307192010403/07/16 19:20:31  5-MIN KABI 080120Z 16014KT 10SM CLR 18/17 A2968 2020 90 2900 150/14 RMK AO2 T01830167
13962KABI ABI20160307192510403/07/16 19:25:31  5-MIN KABI 080125Z 16014KT 10SM CLR 18/17 A2967 2020 90 2900 160/14 RMK AO2 T01830167
13962KABI ABI20160307193010403/07/16 19:30:31  5-MIN KABI 080130Z 16015KT 10SM CLR 18/17 A2967 2030 90 2900 150/15 RMK AO2 T01830167
13962KABI ABI20160307193511003/07/16 19:35:31  5-MIN KABI 080135Z 16012G19KT 10SM CLR 18/17 A2967 2020 90 2900 160/12G19 RMK AO2 T01830167
13962KABI ABI20160307194011003/07/16 19:40:31  5-MIN KABI 080140Z 16015G19KT 10SM CLR 18/17 A2967 2020 90 2900 150/15G19 RMK AO2 T01830167
13962KABI ABI20160307194511003/07/16 19:45:31  5-MIN KABI 080145Z 16015G22KT 10SM CLR 18/17 A2967 2030 90 2900 150/15G22 RMK AO2 T01830167
13962KABI ABI20160307195011703/07/16 19:50:31  5-MIN KABI 080150Z 16014G22KT 10SM CLR 18/17 A2967 2030 90 2900 150/14G22 RMK AO2 SLP030 T01830167
13962KABI ABI20160307195510403/07/16 19:55:31  5-MIN KABI 080155Z 16013KT 10SM CLR 18/17 A2967 2020 90 2900 160/13 RMK AO2 T01830167
13962KABI ABI20160307200010403/07/16 20:00:31  5-MIN KABI 080200Z 17014KT 10SM CLR 18/17 A2968 2010 90 2900 160/14 RMK AO2 T01830167
13962KABI ABI20160307200510403/07/16 20:05:31  5-MIN KABI 080205Z 16016KT 10SM CLR 18/17 A2968 2010 90 2900 160/16 RMK AO2 T01830167
13962KABI ABI20160307201011003/07/16 20:10:31  5-MIN KABI 080210Z 16017G22KT 10SM CLR 18/16 A2968 2020 87 2900 150/17G22 RMK AO2 T01830161
13962KABI ABI20160307201510403/07/16 20:15:31  5-MIN KABI 080215Z 16016KT 10SM CLR 18/16 A2968 2010 90 2800 160/16 RMK AO2 T01780161
13962KABI ABI20160307202010403/07/16 20:20:31  5-MIN KABI 080220Z 17016KT 10SM CLR 18/16 A2969 2010 90 2800 160/16 RMK AO2 T01780161
13962KABI ABI20160307202510403/07/16 20:25:31  5-MIN KABI 080225Z 16014KT 10SM CLR 18/16 A2969 2010 90 2800 160/14 RMK AO2 T01780161
13962KABI ABI20160307203010403/07/16 20:30:31  5-MIN KABI 080230Z 16015KT 10SM CLR 18/16 A2968 2010 90 2800 150/15 RMK AO2 T01780161
13962KABI ABI20160307203510403/07/16 20:35:31  5-MIN KABI 080235Z 16013KT 10SM CLR 18/16 A2969 2010 90 2800 150/13 RMK AO2 T01780161
13962KABI ABI20160307204010403/07/16 20:40:31  5-MIN KABI 080240Z 16012KT 10SM CLR 18/16 A2969 2000 90 2800 160/12 RMK AO2 T01780161
13962KABI ABI20160307204510403/07/16 20:45:31  5-MIN KABI 080245Z 17012KT 10SM CLR 18/16 A2970 2000 90 2800 160/12 RMK AO2 T01780161
13962KABI ABI20160307205012403/07/16 20:50:31  5-MIN KABI 080250Z 17012KT 10SM CLR 18/16 A2971 1990 90 2800 170/12 RMK AO2 PRESRR SLP043 T01780161 56010
13962KABI ABI20160307205510403/07/16 20:55:31  5-MIN KABI 080255Z 17014KT 10SM CLR 18/16 A2971 1990 90 2800 170/14 RMK AO2 T01780161
13962KABI ABI20160307210010403/07/16 21:00:31  5-MIN KABI 080300Z 17011KT 10SM CLR 18/16 A2971 1980 90 2800 170/11 RMK AO2 T01780161
13962KABI ABI20160307210510403/07/16 21:05:31  5-MIN KABI 080305Z 17010KT 10SM CLR 18/16 A2972 1980 90 2800 160/10 RMK AO2 T01780161
13962KABI ABI20160307211010403/07/16 21:10:31  5-MIN KABI 080310Z 16009KT 10SM CLR 18/16 A2972 1980 90 2800 160/09 RMK AO2 T01780161
13962KABI ABI20160307211510403/07/16 21:15:31  5-MIN KABI 080315Z 15008KT 10SM CLR 18/16 A2972 1980 90 2800 150/08 RMK AO2 T01780161
13962KABI ABI20160307212010403/07/16 21:20:31  5-MIN KABI 080320Z 15008KT 10SM CLR 18/16 A2972 1980 90 2800 140/08 RMK AO2 T01780161
13962KABI ABI20160307212510403/07/16 21:25:31  5-MIN KABI 080325Z 15008KT 10SM CLR 17/16 A2972 1980 93 2700 140/08 RMK AO2 T01720161
13962KABI ABI20160307213010403/07/16 21:30:31  5-MIN KABI 080330Z 15006KT 10SM CLR 17/16 A2972 1980 93 2700 140/06 RMK AO2 T01720161
13962KABI ABI20160307213510403/07/16 21:35:31  5-MIN KABI 080335Z 15006KT 10SM CLR 17/16 A2972 1980 93 2700 150/06 RMK AO2 T01720161
13962KABI ABI20160307214010303/07/16 21:40:31  5-MIN KABI 080340Z 15006KT 9SM CLR 17/16 A2972 1980 93 2700 150/06 RMK AO2 T01720161
13962KABI ABI20160307214510303/07/16 21:45:31  5-MIN KABI 080345Z 15008KT 9SM CLR 17/16 A2972 1980 93 2700 150/08 RMK AO2 T01720161
13962KABI ABI20160307215011003/07/16 21:50:31  5-MIN KABI 080350Z 16009KT 9SM CLR 17/16 A2972 1980 93 2700 150/09 RMK AO2 SLP047 T01720161
13962KABI ABI20160307215510303/07/16 21:55:31  5-MIN KABI 080355Z 16010KT 9SM CLR 18/16 A2972 1980 90 2800 150/10 RMK AO2 T01780161
13962KABI ABI20160307220010303/07/16 22:00:31  5-MIN KABI 080400Z 16007KT 9SM CLR 17/16 A2972 1970 93 2700 150/07 RMK AO2 T01720161
13962KABI ABI20160307220510303/07/16 22:05:31  5-MIN KABI 080405Z 15010KT 9SM CLR 17/16 A2973 1970 93 2700 150/10 RMK AO2 T01720161
13962KABI ABI20160307221010303/07/16 22:10:31  5-MIN KABI 080410Z 16010KT 9SM CLR 17/16 A2973 1970 93 2700 150/10 RMK AO2 T01720161
13962KABI ABI20160307221510303/07/16 22:15:31  5-MIN KABI 080415Z 16011KT 9SM CLR 17/16 A2972 1980 93 2700 150/11 RMK AO2 T01720161
13962KABI ABI20160307222010303/07/16 22:20:31  5-MIN KABI 080420Z 15012KT 8SM CLR 17/16 A2972 1980 93 2700 150/12 RMK AO2 T01720161
13962KABI ABI20160307222510303/07/16 22:25:31  5-MIN KABI 080425Z 16013KT 8SM CLR 17/16 A2972 1980 93 2700 150/13 RMK AO2 T01720161
13962KABI ABI20160307223010303/07/16 22:30:31  5-MIN KABI 080430Z 16012KT 8SM CLR 17/16 A2972 1980 93 2700 160/12 RMK AO2 T01720161
13962KABI ABI20160307223510303/07/16 22:35:31  5-MIN KABI 080435Z 17011KT 9SM CLR 17/16 A2972 1980 93 2700 160/11 RMK AO2 T01720161
13962KABI ABI20160307224010303/07/16 22:40:31  5-MIN KABI 080440Z 16012KT 9SM CLR 17/16 A2972 1980 93 2700 160/12 RMK AO2 T01720161
13962KABI ABI20160307224510303/07/16 22:45:31  5-MIN KABI 080445Z 16011KT 8SM CLR 17/16 A2971 1990 93 2700 160/11 RMK AO2 T01720161
13962KABI ABI20160307225011003/07/16 22:50:31  5-MIN KABI 080450Z 16013KT 8SM CLR 17/16 A2971 1990 93 2800 160/13 RMK AO2 SLP040 T01720161
13962KABI ABI20160307225511003/07/16 22:55:31  5-MIN KABI 080455Z 16015KT 8SM CLR 18/16 A2970 2000 90 2800 150/15 RMK AO2 PRESFR T01780161
13962KABI ABI20160307230011003/07/16 23:00:31  5-MIN KABI 080500Z 16015KT 8SM CLR 17/16 A2969 2000 93 2800 150/15 RMK AO2 PRESFR T01720161
13962KABI ABI20160307230510903/07/16 23:05:31  5-MIN KABI 080505Z 16018G23KT 8SM CLR 18/17 A2969 2010 93 2800 150/18G23 RMK AO2 T01780167
13962KABI ABI20160307231010303/07/16 23:10:31  5-MIN KABI 080510Z 16016KT 8SM CLR 18/17 A2970 2000 93 2800 160/16 RMK AO2 T01780167
13962KABI ABI20160307231510303/07/16 23:15:31  5-MIN KABI 080515Z 16016KT 8SM CLR 18/17 A2970 2000 93 2800 160/16 RMK AO2 T01780167
13962KABI ABI20160307232010903/07/16 23:20:31  5-MIN KABI 080520Z 16015G23KT 8SM CLR 18/17 A2969 2000 93 2800 160/15G23 RMK AO2 T01780167
13962KABI ABI20160307232510903/07/16 23:25:31  5-MIN KABI 080525Z 16015G23KT 8SM CLR 18/17 A2969 2000 93 2800 160/15G23 RMK AO2 T01780167
13962KABI ABI20160307233010603/07/16 23:30:31  5-MIN KABI 080530Z 16016KT 8SM FEW010 18/17 A2969 2000 93 2800 160/16 RMK AO2 T01780167
13962KABI ABI20160307233510603/07/16 23:35:31  5-MIN KABI 080535Z 17016KT 8SM SCT010 18/17 A2969 2000 93 2800 160/16 RMK AO2 T01780167
13962KABI ABI20160307234010603/07/16 23:40:31  5-MIN KABI 080540Z 17018KT 8SM SCT010 18/17 A2969 2000 93 2800 160/18 RMK AO2 T01780167
13962KABI ABI20160307234511203/07/16 23:45:31  5-MIN KABI 080545Z 16017G24KT 8SM BKN010 18/17 A2969 2010 93 2800 160/17G24 RMK AO2 T01780167
13962KABI ABI20160307235014703/07/16 23:50:31  5-MIN KABI 080550Z 16017G25KT 9SM BKN010 18/17 A2969 2010 93 2800 160/17G25 RMK AO2 SLP034 T01780167 10200 20172 402390172 58006
13962KABI ABI20160307235511203/07/16 23:55:31  5-MIN KABI 080555Z 16018G25KT 9SM BKN011 18/17 A2969 2010 93 2800 160/18G25 RMK AO2 T01780167
13962KABI ABI20160308000010603/08/16 00:00:31  5-MIN KABI 080600Z 17019KT 9SM BKN011 18/17 A2969 2010 90 2900 160/19 RMK AO2 T01830167
13962KABI ABI20160308000511203/08/16 00:05:31  5-MIN KABI 080605Z 17020G25KT 9SM BKN011 18/17 A2969 2010 90 2900 160/20G25 RMK AO2 T01830167
13962KABI ABI20160308001011203/08/16 00:10:31  5-MIN KABI 080610Z 17019G25KT 9SM BKN011 18/17 A2969 2000 90 2900 160/19G25 RMK AO2 T01830167
13962KABI ABI20160308001511203/08/16 00:15:31  5-MIN KABI 080615Z 17017G25KT 9SM BKN011 18/17 A2969 2000 90 2900 160/17G25 RMK AO2 T01830167
13962KABI ABI20160308002010603/08/16 00:20:31  5-MIN KABI 080620Z 17019KT 9SM BKN013 18/17 A2969 2000 90 2900 160/19 RMK AO2 T01830167
13962KABI ABI20160308002513003/08/16 00:25:31  5-MIN KABI 080625Z 17018G26KT 9SM BKN013 18/17 A2969 2000 90 2900 160/18G26 RMK AO2 PK WND 16026/0623 T01830167
13962KABI ABI20160308003013703/08/16 00:30:31  5-MIN KABI 080630Z 17018G26KT 9SM BKN013 BKN019 18/17 A2970 2000 90 2900 160/18G26 RMK AO2 PK WND 16026/0623 T01830167
13962KABI ABI20160308003513703/08/16 00:35:31  5-MIN KABI 080635Z 17018G26KT 9SM BKN013 BKN019 18/17 A2970 2000 90 2900 160/18G26 RMK AO2 PK WND 16026/0623 T01830167
13962KABI ABI20160308004013703/08/16 00:40:31  5-MIN KABI 080640Z 17019G24KT 9SM SCT013 BKN021 18/17 A2970 2000 90 2900 170/19G24 RMK AO2 PK WND 16026/0623 T01830167
13962KABI ABI20160308004513703/08/16 00:45:31  5-MIN KABI 080645Z 17021G27KT 9SM SCT014 BKN023 18/17 A2970 2000 90 2900 160/21G27 RMK AO2 PK WND 17027/0645 T01830167
13962KABI ABI20160308005014403/08/16 00:50:31  5-MIN KABI 080650Z 17018G27KT 9SM FEW016 BKN021 18/17 A2970 1990 90 2900 160/18G27 RMK AO2 PK WND 17027/0645 SLP038 T01830167
13962KABI ABI20160308005512003/08/16 00:55:31  5-MIN KABI 080655Z 17016KT 9SM FEW013 BKN018 OVC024 18/17 A2971 1990 90 2900 160/16 RMK AO2 T01830167
13962KABI ABI20160308010011303/08/16 01:00:31  5-MIN KABI 080700Z 17016KT 9SM BKN016 OVC022 18/17 A2971 1990 90 2900 170/16 RMK AO2 T01830167
13962KABI ABI20160308010511303/08/16 01:05:31  5-MIN KABI 080705Z 17013KT 9SM BKN014 OVC022 18/17 A2971 1980 90 2900 160/13 RMK AO2 T01830167
13962KABI ABI20160308011011403/08/16 01:10:31  5-MIN KABI 080710Z 17014KT 10SM BKN014 OVC022 18/17 A2972 1980 90 2900 160/14 RMK AO2 T01830167
13962KABI ABI20160308011511403/08/16 01:15:31  5-MIN KABI 080715Z 17013KT 10SM BKN016 OVC022 18/17 A2972 1980 90 2900 160/13 RMK AO2 T01830167
13962KABI ABI20160308012012103/08/16 01:20:31  5-MIN KABI 080720Z 16014KT 10SM BKN016 BKN021 OVC028 18/17 A2971 1990 90 2900 150/14 RMK AO2 T01830167
13962KABI ABI20160308012512103/08/16 01:25:31  5-MIN KABI 080725Z 16013KT 10SM BKN016 BKN025 OVC035 19/17 A2971 1990 87 2900 160/13 RMK AO2 T01890167
13962KABI ABI20160308013012103/08/16 01:30:31  5-MIN KABI 080730Z 16016KT 10SM SCT014 BKN020 OVC035 19/17 A2970 2000 87 2900 150/16 RMK AO2 T01890167
13962KABI ABI20160308013512103/08/16 01:35:31  5-MIN KABI 080735Z 16015KT 10SM FEW014 BKN021 OVC032 19/17 A2970 2000 87 3000 150/15 RMK AO2 T01890167
13962KABI ABI20160308014012103/08/16 01:40:31  5-MIN KABI 080740Z 16015KT 10SM FEW014 BKN027 OVC034 19/17 A2970 2000 87 3000 160/15 RMK AO2 T01890167
13962KABI ABI20160308014512703/08/16 01:45:31  5-MIN KABI 080745Z 16016G22KT 10SM FEW015 BKN029 OVC034 19/17 A2970 2000 87 2900 160/16G22 RMK AO2 T01890167
13962KABI ABI20160308015011703/08/16 01:50:31  5-MIN KABI 080750Z 16015G22KT 10SM FEW019 SCT025 OVC032 19/17 A2969 2000 87 3000 160/15G22 RMK AO2
13962KABI ABI20160308015511403/08/16 01:55:31  5-MIN KABI 080755Z 16014KT 10SM FEW019 BKN030 19/16 A2969 2010 84 3000 160/14 RMK AO2 T01890161
13962KABI ABI20160308020012103/08/16 02:00:31  5-MIN KABI 080800Z 17016KT 10SM FEW021 BKN030 OVC037 19/16 A2969 2010 84 3000 160/16 RMK AO2 T01890161
13962KABI ABI20160308020512103/08/16 02:05:31  5-MIN KABI 080805Z 16013KT 10SM FEW021 BKN030 OVC036 18/16 A2968 2010 87 2900 160/13 RMK AO2 T01830161
13962KABI ABI20160308021010703/08/16 02:10:31  5-MIN KABI 080810Z 17012KT 10SM BKN033 18/16 A2969 2010 87 2900 160/12 RMK AO2 T01830161
13962KABI ABI20160308021510703/08/16 02:15:31  5-MIN KABI 080815Z 17012KT 10SM BKN033 18/16 A2969 2010 87 2900 160/12 RMK AO2 T01830161
13962KABI ABI20160308022010703/08/16 02:20:31  5-MIN KABI 080820Z 16013KT 10SM BKN035 18/16 A2969 2010 87 2900 160/13 RMK AO2 T01830161
13962KABI ABI20160308022510703/08/16 02:25:31  5-MIN KABI 080825Z 17012KT 10SM BKN035 18/16 A2969 2010 87 2900 160/12 RMK AO2 T01830161
13962KABI ABI20160308023011403/08/16 02:30:31  5-MIN KABI 080830Z 16012KT 10SM FEW029 BKN037 18/16 A2969 2010 87 2900 160/12 RMK AO2 T01830161
13962KABI ABI20160308023511403/08/16 02:35:31  5-MIN KABI 080835Z 16012KT 10SM FEW028 BKN037 18/16 A2969 2010 87 2900 160/12 RMK AO2 T01830161
13962KABI ABI20160308024011403/08/16 02:40:31  5-MIN KABI 080840Z 16011KT 10SM FEW028 BKN035 18/16 A2968 2020 87 2900 160/11 RMK AO2 T01830161
13962KABI ABI20160308024511403/08/16 02:45:31  5-MIN KABI 080845Z 16013KT 10SM BKN035 18/16 A2967 2030 87 2900 160/13 RMK AO2 PRESFR T01830161
13962KABI ABI20160308025012003/08/16 02:50:31  5-MIN KABI 080850Z 16014KT 10SM SCT035 18/16 A2967 2030 87 2900 160/14 RMK AO2 SLP025 T01830161 56010
13962KABI ABI20160308025510703/08/16 02:55:31  5-MIN KABI 080855Z 17013KT 10SM SCT034 18/16 A2968 2020 87 2900 170/13 RMK AO2 T01830161
13962KABI ABI20160308030012603/08/16 03:00:31  5-MIN KABI 080900Z 19010KT 10SM BKN034 19/16 A2970 2000 84 3000 190/10 RMK AO2 OCNL LTG ICCCCG SE T01890161
13962KABI ABI20160308030514003/08/16 03:05:31  5-MIN KABI 080905Z 19010KT 10SM FEW021 BKN034 19/16 A2970 1990 84 2900 180/10 RMK AO2 PRESRR OCNL LTG ICCCCG SE T01890161
13962KABI ABI20160308031013303/08/16 03:10:31  5-MIN KABI 080910Z 18010KT 10SM FEW021 BKN036 19/16 A2970 2000 84 2900 180/10 RMK AO2 OCNL LTG ICCCCG SW T01890161
13962KABI ABI20160308031516403/08/16 03:15:31  5-MIN KABI 080915Z 17008KT 10SM TS FEW025 BKN036 BKN048 19/16 A2970 2000 84 3000 170/08 RMK AO2 TSB15 OCNL LTG ICCCCG OHD TS OHD MOV NE T01890161
13962KABI ABI20160308032016403/08/16 03:20:31  5-MIN KABI 080920Z 16008KT 10SM TS BKN025 BKN036 OVC048 19/16 A2969 2010 84 3000 160/08 RMK AO2 TSB15 OCNL LTG ICCCCG OHD TS OHD MOV NE T01890161
13962KABI ABI20160308032517803/08/16 03:25:31  5-MIN KABI 080925Z 16007KT 9SM -TSRA BKN025 BKN036 OVC048 18/16 A2968 2010 87 2900 160/07 RMK AO2 RAB22 TSB15 OCNL LTG ICCCCG OHD TS OHD MOV NE P0000 T01830161
13962KABI ABI20160308033017803/08/16 03:30:31  5-MIN KABI 080930Z 14008KT 9SM -TSRA BKN022 BKN048 OVC100 18/16 A2969 2010 87 2900 130/08 RMK AO2 RAB22 TSB15 OCNL LTG ICCCCG OHD TS OHD MOV NE P0000 T01830161
13962KABI ABI20160308033517803/08/16 03:35:31  5-MIN KABI 080935Z 15006KT 9SM -TSRA BKN022 BKN048 OVC100 18/16 A2969 2010 87 2900 140/06 RMK AO2 RAB22 TSB15 OCNL LTG ICCCCG OHD TS OHD MOV NE P0000 T01830161
13962KABI ABI20160308034017803/08/16 03:40:31  5-MIN KABI 080940Z 14005KT 8SM -TSRA BKN022 BKN048 OVC100 18/17 A2969 2010 90 2900 130/05 RMK AO2 RAB22 TSB15 OCNL LTG ICCCCG OHD TS OHD MOV NE P0000 T01830167
13962KABI ABI20160308034517803/08/16 03:45:31  5-MIN KABI 080945Z VRB04KT 9SM -TSRA BKN022 BKN048 OVC100 18/17 A2967 2030 90 2900 VRB/04 RMK AO2 RAB22 TSB15 OCNL LTG ICCCCG OHD TS OHD MOV NE P0001 T01830167
13962KABI ABI20160308035019303/08/16 03:50:31  5-MIN KABI 080950Z 12003KT 10SM -TSRA BKN022 BKN048 OVC100 18/16 A2966 2030 87 2900 120/03 RMK AO2 RAB22 TSB15 PRESFR SLP023 OCNL LTG ICCCCG OHD TS OHD MOV NE P0001 T01830161
13962KABI ABI20160308035516603/08/16 03:55:31  5-MIN KABI 080955Z 14004KT 9SM -TSRA SCT019 BKN032 OVC095 18/16 A2967 2020 87 2900 130/04 RMK AO2 FRQ LTG ICCCCG OHD TS OVHD MOV NE P0000 T01830161
13962KABI ABI20160308040016603/08/16 04:00:31  5-MIN KABI 081000Z 00000KT 8SM -TSRA BKN019 BKN032 OVC100 18/17 A2966 2030 90 2900 000/00 RMK AO2 FRQ LTG ICCCCG OHD TS OVHD MOV NE P0000 T01830167
13962KABI ABI20160308040516803/08/16 04:05:31  5-MIN KABI 081005Z 14003KT 6SM TSRA BR SCT014 BKN022 OVC095 18/17 A2967 2030 90 2900 140/03 RMK AO2 FRQ LTG ICCCCG OHD TS OVHD MOV NE P0002 T01830167
13962KABI ABI20160308041016903/08/16 04:10:31  5-MIN KABI 081010Z 07005KT 4SM +TSRA BR BKN014 BKN022 OVC095 18/17 A2966 2040 93 2900 060/05 RMK AO2 FRQ LTG ICCCCG OHD TS OVHD MOV NE P0005 T01780167
13962KABI ABI20160308041518103/08/16 04:15:31  5-MIN KABI 081015Z VRB03KT 2 1/2SM +TSRA BR BKN016 BKN034 OVC090 18/17 A2966 2040 96 2900 VRB/03 RMK AO2 VIS 2V4 FRQ LTG ICCCCG OHD TS OVHD MOV NE P0011 T01780172
13962KABI ABI20160308042017103/08/16 04:20:31  5-MIN KABI 081020Z 1 1/2SM +TSRA BR FEW007 BKN016 OVC032 17/17 A2969 2010 100 2800 M /M RMK AO2 PRESRR FRQ LTG ICCCCG OHD TS OVHD MOV NE P0019 T01720172
13962KABI ABI20160308042520203/08/16 04:25:31  5-MIN KABI 081025Z 30027G35KT 3/4SM +TSRA BR FEW007 BKN016 OVC032 13/13 A2967 2020 100 2300 290/27G35 RMK AO2 PK WND 22039/1022 FRQ LTG ICCCCG OHD TS OVHD MOV NE P0030 T01330133 RVRNO
13962KABI ABI20160308043022403/08/16 04:30:31  5-MIN KABI 081030Z 28017G35KT 230V310 3/4SM +TSRA BR FEW007 BKN023 OVC033 12/12 A2973 1970 96 2100 270/17G35 230V310 RMK AO2 PK WND 22039/1022 PRESRR FRQ LTG ICCCCG OHD TS OVHD MOV NE P0054 T01220117 RVRNO
13962KABI ABI20160308043520303/08/16 04:35:31  5-MIN KABI 081035Z 26010G34KT 1 3/4SM TSRA BR FEW006 BKN034 OVC065 12/12 A2975 1950 96 2100 250/10G34 RMK AO2 PK WND 22039/1022 PRESRR FRQ LTG ICCCCG OHD TS OVHD MOV NE P0056 T01220117
13962KABI ABI20160308044018703/08/16 04:40:31  5-MIN KABI 081040Z 30009KT 5SM -TSRA BR FEW008 BKN038 OVC065 12/12 A2973 1970 96 2100 300/09 RMK AO2 PK WND 22039/1022 FRQ LTG ICCCCG OHD TS OVHD MOV NE P0057 T01220117
13962KABI ABI20160308044518503/08/16 04:45:31  5-MIN KABI 081045Z 30009KT 7SM -TSRA FEW019 SCT036 OVC070 12/12 A2973 1970 100 2100 300/09 RMK AO2 PK WND 22039/1022 FRQ LTG ICCCCG OHD TS OVHD MOV NE P0057 T01220122
13962KABI ABI20160308045018503/08/16 04:50:31  5-MIN KABI 081050Z 32011KT 7SM -TSRA SCT043 OVC070 13/13 A2973 1970 100 2200 320/11 RMK AO2 PK WND 22039/1022 SLP050 FRQ LTG ICCCCG OHD TS OVHD MOV NE P0058 T01280128
13962KABI ABI20160308045512803/08/16 04:55:31  5-MIN KABI 081055Z 31008KT 5SM TSRA BR BKN055 OVC070 13/13 A2974 1960 100 2200 310/08 RMK AO2 P0002 T01280128
13962KABI ABI20160308050012103/08/16 05:00:31  5-MIN KABI 081100Z 30005KT 4SM TSRA BR OVC065 13/13 A2974 1960 100 2200 300/05 RMK AO2 P0004 T01280128
13962KABI ABI20160308050512103/08/16 05:05:31  5-MIN KABI 081105Z VRB04KT 4SM TSRA BR OVC065 13/13 A2974 1960 100 2300 VRB/04 RMK AO2 P0006 T01330133
13962KABI ABI20160308051013503/08/16 05:10:31  5-MIN KABI 081110Z 25005KT 3SM TSRA BR BKN060 OVC075 14/14 A2976 1940 100 2300 250/05 RMK AO2 PRESRR P0008 T01390139
13962KABI ABI20160308051513003/08/16 05:15:31  5-MIN KABI 081115Z 23003KT 3SM TSRA BR BKN060 OVC075 14/14 A2976 1940 100 2300 220/03 RMK AO2 P0011 T01390139 $
13962KABI ABI20160308052013003/08/16 05:20:31  5-MIN KABI 081120Z 21005KT 4SM TSRA BR BKN060 OVC075 14/14 A2976 1940 100 2300 200/05 RMK AO2 P0013 T01390139 $
13962KABI ABI20160308052513003/08/16 05:25:31  5-MIN KABI 081125Z 20007KT 3SM TSRA BR BKN055 OVC075 13/13 A2975 1950 100 2200 200/07 RMK AO2 P0016 T01330133 $
13962KABI ABI20160308053011203/08/16 05:30:31  5-MIN KABI 081130Z 21007KT 3SM TSRA OVC055 13/ A2975 1950 M 2200 200/07 RMK AO2 P0018 T0128 $
13962KABI ABI20160308053511903/08/16 05:35:31  5-MIN KABI 081135Z 20005KT 3SM TSRA BKN055 OVC075 13/ A2975 1950 M 2200 200/05 RMK AO2 P0020 T0128 $
13962KABI ABI20160308054011903/08/16 05:40:31  5-MIN KABI 081140Z 18007KT 4SM TSRA BKN055 OVC070 13/ A2976 1950 M 2200 180/07 RMK AO2 P0022 T0128 $
13962KABI ABI20160308054511203/08/16 05:45:31  5-MIN KABI 081145Z 17008KT 4SM TSRA OVC055 13/ A2976 1940 M 2200 160/08 RMK AO2 P0024 T0128 $
13962KABI ABI20160308055018803/08/16 05:50:31  5-MIN KABI 081150Z 15009KT 4SM +TSRA BKN055 OVC070 13/ A2976 1940 M 2200 140/09 RMK AO2 SLP062 OCNL LTGCGIC OHD TS OHD MOV NE P0027 60086 70086 T0128 10189 20122 58005 $
13962KABI ABI20160308055513003/08/16 05:55:31  5-MIN KABI 081155Z 14009KT 4SM TSRA BR BKN055 OVC070 13/13 A2976 1940 100 2200 140/09 RMK AO2 P0002 T01280128 $
13962KABI ABI20160308060013003/08/16 06:00:31  5-MIN KABI 081200Z 12012KT 4SM TSRA BR BKN060 OVC075 13/13 A2975 1950 100 2200 120/12 RMK AO2 P0004 T01280128 $
13962KABI ABI20160308060513003/08/16 06:05:31  5-MIN KABI 081205Z 14013KT 5SM TSRA BR BKN060 OVC070 13/13 A2975 1950 100 2200 130/13 RMK AO2 P0006 T01280128 $
13962KABI ABI20160308061013003/08/16 06:10:31  5-MIN KABI 081210Z 12015KT 5SM TSRA BR OVC060 13/13 A2973 1970 100 2200 110/15 RMK AO2 PRESFR P0008 T01280128 $
13962KABI ABI20160308061513703/08/16 06:15:31  5-MIN KABI 081215Z 11016KT 6SM TSRA BR BKN060 OVC075 13/13 A2972 1980 100 2200 110/16 RMK AO2 PRESFR P0010 T01280128 $
13962KABI ABI20160308062012803/08/16 06:20:31  5-MIN KABI 081220Z 11013KT 9SM -TSRA BKN065 OVC080 13/13 A2972 1980 100 2200 110/13 RMK AO2 P0010 T01280128 $
13962KABI ABI20160308062512903/08/16 06:25:31  5-MIN KABI 081225Z 12013KT 10SM -TSRA BKN065 OVC080 13/13 A2972 1980 100 2200 110/13 RMK AO2 P0011 T01280128 $
13962KABI ABI20160308063012903/08/16 06:30:31  5-MIN KABI 081230Z 11012KT 10SM -TSRA SCT065 OVC080 13/13 A2971 1990 100 2300 100/12 RMK AO2 P0011 T01330133 $
13962KABI ABI20160308063513503/08/16 06:35:31  5-MIN KABI 081235Z 10016G20KT 10SM -TSRA OVC075 13/13 A2968 2020 100 2300 090/16G20 RMK AO2 PRESFR P0011 T01330133 $
13962KABI ABI20160308064012803/08/16 06:40:31  5-MIN KABI 081240Z 09018KT 10SM -TSRA OVC085 13/13 A2966 2040 96 2400 090/18 RMK AO2 PRESFR P0012 T01330128 $
13962KABI ABI20160308064512803/08/16 06:45:31  5-MIN KABI 081245Z 08015KT 10SM -TSRA OVC085 13/12 A2963 2060 93 2400 070/15 RMK AO2 PRESFR P0012 T01330122 $
13962KABI ABI20160308065014403/08/16 06:50:31  5-MIN KABI 081250Z 06011G21KT 10SM TS BKN085 OVC110 13/12 A2963 2060 93 2400 060/11G21 RMK AO2 RAE50 SLP018 P0012 T01330122 $
13962KABI ABI20160308065511903/08/16 06:55:31  5-MIN KABI 081255Z 07011KT 10SM TS BKN085 OVC110 13/13 A2962 2070 96 2400 060/11 RMK AO2 T01330128 $
13962KABI ABI20160308070011903/08/16 07:00:31  5-MIN KABI 081300Z 07005KT 10SM TS SCT090 OVC110 14/13 A2963 2060 93 2500 070/05 RMK AO2 T01390128 $
13962KABI ABI20160308070511903/08/16 07:05:31  5-MIN KABI 081305Z 06003KT 10SM TS FEW090 BKN110 14/13 A2964 2060 96 2400 050/03 RMK AO2 T01390133 $
13962KABI ABI20160308071012003/08/16 07:10:31  5-MIN KABI 081310Z 00000KT 10SM TS FEW090 BKN110 14/14 A2964 2060 100 2400 000/00 RMK AO2 T01390139 $
13962KABI ABI20160308071511303/08/16 07:15:31  5-MIN KABI 081315Z 20003KT 10SM TS SCT110 13/13 A2964 2050 100 2400 190/03 RMK AO2 T01330133 $
13962KABI ABI20160308072011303/08/16 07:20:31  5-MIN KABI 081320Z 27005KT 10SM TS FEW120 13/13 A2964 2050 100 2300 260/05 RMK AO2 T01280128 $
13962KABI ABI20160308072511203/08/16 07:25:31  5-MIN KABI 081325Z 22004KT 10SM TS FEW120 13/12 A2965 2040 96 2300 210/04 RMK AO2 T01280122 $
13962KABI ABI20160308073011703/08/16 07:30:31  5-MIN KABI 081330Z 18007KT 10SM TS CLR 13/13 A2966 2030 100 2300 180/07 RMK AO2 PRESRR T01280128 $
13962KABI ABI20160308073512503/08/16 07:35:31  5-MIN KABI 081335Z 25013G21KT 10SM TS SCT075 13/12 A2970 2000 96 2200 250/13G21 RMK AO2 PRESRR T01280122 $
13962KABI ABI20160308074012503/08/16 07:40:31  5-MIN KABI 081340Z 27014G21KT 10SM TS SCT075 13/12 A2971 1990 96 2200 260/14G21 RMK AO2 PRESRR T01280122 $
13962KABI ABI20160308074511203/08/16 07:45:31  5-MIN KABI 081345Z 29012KT 10SM TS SCT075 13/12 A2971 1980 93 2300 280/12 RMK AO2 T01330122 $
13962KABI ABI20160308075013303/08/16 07:50:31  5-MIN KABI 081350Z 29007KT 10SM BKN075 13/13 A2972 1980 96 2300 280/07 RMK AO2 WSHFT 1332 TSE49 SLP049 T01330128 $
13962KABI ABI20160308075510803/08/16 07:55:31  5-MIN KABI 081355Z 32004KT 10SM BKN075 13/13 A2972 1980 100 2300 310/04 RMK AO2 T01330133
13962KABI ABI20160308080010803/08/16 08:00:31  5-MIN KABI 081400Z 28004KT 10SM BKN075 13/13 A2972 1970 100 2300 280/04 RMK AO2 T01330133
13962KABI ABI20160308080510803/08/16 08:05:31  5-MIN KABI 081405Z 25004KT 10SM BKN075 13/13 A2973 1970 100 2300 250/04 RMK AO2 T01330133
13962KABI ABI20160308081011503/08/16 08:10:31  5-MIN KABI 081410Z 00000KT 10SM SCT070 BKN085 13/13 A2973 1970 100 2300 000/00 RMK AO2 T01330133
13962KABI ABI20160308081511503/08/16 08:15:31  5-MIN KABI 081415Z 00000KT 10SM SCT065 BKN080 13/13 A2973 1970 100 2300 000/00 RMK AO2 T01330133
13962KABI ABI20160308082011503/08/16 08:20:31  5-MIN KABI 081420Z 16003KT 10SM SCT060 BKN080 13/13 A2973 1970 100 2300 160/03 RMK AO2 T01330133
13962KABI ABI20160308082512203/08/16 08:25:31  5-MIN KABI 081425Z 13004KT 10SM FEW060 BKN070 BKN085 13/13 A2973 1970 100 2300 120/04 RMK AO2 T01330133
13962KABI ABI20160308083011503/08/16 08:30:31  5-MIN KABI 081430Z 15006KT 10SM BKN060 OVC085 13/13 A2974 1960 100 2300 150/06 RMK AO2 T01330133
13962KABI ABI20160308083511503/08/16 08:35:31  5-MIN KABI 081435Z 14006KT 10SM BKN060 OVC085 13/13 A2974 1960 100 2300 130/06 RMK AO2 T01330133
13962KABI ABI20160308084012103/08/16 08:40:31  5-MIN KABI 081440Z 16006KT 10SM BKN055 BKN070 OVC110 14/13 A2975 1950 96 2300 150/06 RMK AO2 T01390133
13962KABI ABI20160308084512103/08/16 08:45:31  5-MIN KABI 081445Z 16005KT 10SM BKN050 BKN065 OVC085 14/13 A2976 1940 96 2300 160/05 RMK AO2 T01390133
13962KABI ABI20160308085014103/08/16 08:50:31  5-MIN KABI 081450Z 19003KT 10SM BKN050 BKN065 OVC090 14/14 A2976 1950 100 2300 180/03 RMK AO2 SLP061 60012 T01390139 53029
13962KABI ABI20160308085511403/08/16 08:55:31  5-MIN KABI 081455Z 00000KT 10SM BKN050 OVC065 14/13 A2975 1950 96 2300 000/00 RMK AO2 T01390133
13962KABI ABI20160308090011403/08/16 09:00:31  5-MIN KABI 081500Z 00000KT 10SM BKN055 OVC070 14/12 A2975 1950 86 2400 000/00 RMK AO2 T01440122
13962KABI ABI20160308090511403/08/16 09:05:31  5-MIN KABI 081505Z 00000KT 10SM BKN050 OVC065 14/12 A2974 1960 86 2400 000/00 RMK AO2 T01440122
13962KABI ABI20160308091011403/08/16 09:10:31  5-MIN KABI 081510Z 00000KT 10SM BKN050 BKN065 14/12 A2974 1960 86 2400 000/00 RMK AO2 T01440122
13962KABI ABI20160308091511403/08/16 09:15:31  5-MIN KABI 081515Z 20003KT 10SM BKN048 BKN065 15/12 A2974 1960 83 2500 200/03 RMK AO2 T01500122
13962KABI ABI20160308092010703/08/16 09:20:31  5-MIN KABI 081520Z 21004KT 10SM BKN047 15/12 A2974 1960 83 2500 210/04 RMK AO2 T01500122
13962KABI ABI20160308092510703/08/16 09:25:31  5-MIN KABI 081525Z 19004KT 10SM BKN043 15/12 A2974 1960 83 2500 180/04 RMK AO2 T01500122
13962KABI ABI20160308093011403/08/16 09:30:31  5-MIN KABI 081530Z 00000KT 10SM BKN039 BKN048 15/12 A2974 1960 83 2500 000/00 RMK AO2 T01500122
13962KABI ABI20160308093511403/08/16 09:35:31  5-MIN KABI 081535Z 20004KT 10SM BKN039 BKN048 15/12 A2974 1960 83 2400 200/04 RMK AO2 T01500122
13962KABI ABI20160308094011403/08/16 09:40:31  5-MIN KABI 081540Z VRB03KT 10SM SCT039 BKN048 15/12 A2974 1960 83 2500 VRB/03 RMK AO2 T01500122
13962KABI ABI20160308094511403/08/16 09:45:31  5-MIN KABI 081545Z 20004KT 10SM SCT039 SCT047 16/13 A2975 1960 83 2500 190/04 RMK AO2 T01560128
13962KABI ABI20160308095011403/08/16 09:50:31  5-MIN KABI 081550Z 15003KT 10SM FEW039 16/12 A2974 1960 80 2500 150/03 RMK AO2 SLP056 T01560122
13962KABI ABI20160308095510703/08/16 09:55:31  5-MIN KABI 081555Z 00000KT 10SM FEW037 16/12 A2975 1950 77 2600 000/00 RMK AO2 T01610122
13962KABI ABI20160308100010703/08/16 10:00:31  5-MIN KABI 081600Z VRB04KT 10SM FEW037 17/13 A2975 1950 80 2600 VRB/04 RMK AO2 T01670133
13962KABI ABI20160308100510703/08/16 10:05:31  5-MIN KABI 081605Z VRB04KT 10SM SCT037 16/13 A2975 1950 80 2600 VRB/04 RMK AO2 T01610128
13962KABI ABI20160308101010703/08/16 10:10:31  5-MIN KABI 081610Z 15004KT 10SM BKN036 17/13 A2975 1950 77 2600 150/04 RMK AO2 T01670128
13962KABI ABI20160308101510703/08/16 10:15:31  5-MIN KABI 081615Z 14006KT 10SM SCT036 17/13 A2975 1950 77 2600 130/06 RMK AO2 T01670128
13962KABI ABI20160308102010703/08/16 10:20:31  5-MIN KABI 081620Z 14006KT 10SM SCT035 17/13 A2975 1950 77 2600 130/06 RMK AO2 T01670128
13962KABI ABI20160308102510703/08/16 10:25:31  5-MIN KABI 081625Z 15007KT 10SM SCT035 17/13 A2974 1960 77 2600 140/07 RMK AO2 T01670128
13962KABI ABI20160308103010703/08/16 10:30:31  5-MIN KABI 081630Z 13009KT 10SM FEW035 17/13 A2974 1960 75 2700 130/09 RMK AO2 T01720128
13962KABI ABI20160308103510703/08/16 10:35:31  5-MIN KABI 081635Z 13008KT 10SM FEW035 17/13 A2974 1960 75 2700 130/08 RMK AO2 T01720128
13962KABI ABI20160308104010403/08/16 10:40:31  5-MIN KABI 081640Z 13009KT 10SM CLR 17/13 A2974 1960 75 2700 130/09 RMK AO2 T01720128
13962KABI ABI20160308104510403/08/16 10:45:31  5-MIN KABI 081645Z 14008KT 10SM CLR 18/13 A2974 1960 72 2800 140/08 RMK AO2 T01780128
13962KABI ABI20160308105011103/08/16 10:50:31  5-MIN KABI 081650Z 15008KT 10SM CLR 18/13 A2974 1960 72 2800 150/08 RMK AO2 SLP054 T01780128
13962KABI ABI20160308105510403/08/16 10:55:31  5-MIN KABI 081655Z 13007KT 10SM CLR 18/13 A2973 1970 70 2800 130/07 RMK AO2 T01830128
13962KABI ABI20160308110010403/08/16 11:00:31  5-MIN KABI 081700Z 14008KT 10SM CLR 18/12 A2973 1970 67 2800 140/08 RMK AO2 T01830122
13962KABI ABI20160308110510403/08/16 11:05:31  5-MIN KABI 081705Z 16008KT 10SM CLR 19/13 A2973 1970 67 2900 160/08 RMK AO2 T01890128
13962KABI ABI20160308111010403/08/16 11:10:31  5-MIN KABI 081710Z 16008KT 10SM CLR 19/12 A2973 1970 62 3000 150/08 RMK AO2 T01940122
13962KABI ABI20160308111510403/08/16 11:15:31  5-MIN KABI 081715Z 14008KT 10SM CLR 19/13 A2973 1970 65 3000 140/08 RMK AO2 T01940128
13962KABI ABI20160308112010403/08/16 11:20:31  5-MIN KABI 081720Z 16009KT 10SM CLR 19/12 A2973 1970 62 3000 150/09 RMK AO2 T01940122
13962KABI ABI20160308112510403/08/16 11:25:31  5-MIN KABI 081725Z 16008KT 10SM CLR 19/12 A2973 1970 60 3000 150/08 RMK AO2 T01940117
13962KABI ABI20160308113010403/08/16 11:30:31  5-MIN KABI 081730Z 17007KT 10SM CLR 19/12 A2973 1970 60 3000 160/07 RMK AO2 T01940117
13962KABI ABI20160308113510403/08/16 11:35:31  5-MIN KABI 081735Z 16008KT 10SM CLR 20/13 A2973 1970 63 3000 150/08 RMK AO2 T02000128
13962KABI ABI20160308114010403/08/16 11:40:31  5-MIN KABI 081740Z 19010KT 10SM CLR 21/13 A2973 1970 60 3100 190/10 RMK AO2 T02060128
13962KABI ABI20160308114510403/08/16 11:45:31  5-MIN KABI 081745Z 20010KT 10SM CLR 21/13 A2973 1970 60 3100 190/10 RMK AO2 T02060128
13962KABI ABI20160308115013503/08/16 11:50:31  5-MIN KABI 081750Z 19007KT 10SM CLR 20/13 A2973 1970 63 3000 190/07 RMK AO2 SLP047 60012 T02000128 10206 20128 55002
13962KABI ABI20160308115510403/08/16 11:55:31  5-MIN KABI 081755Z 19006KT 10SM CLR 21/13 A2972 1980 63 3100 180/06 RMK AO2 T02060133
13962KABI ABI20160308120010403/08/16 12:00:31  5-MIN KABI 081800Z 21006KT 10SM CLR 21/13 A2972 1980 63 3100 210/06 RMK AO2 T02060133
13962KABI ABI20160308120510403/08/16 12:05:31  5-MIN KABI 081805Z 20007KT 10SM CLR 21/13 A2972 1980 63 3100 200/07 RMK AO2 T02060133
13962KABI ABI20160308121010403/08/16 12:10:31  5-MIN KABI 081810Z 22007KT 10SM CLR 21/13 A2972 1980 63 3100 210/07 RMK AO2 T02060133
13962KABI ABI20160308121510403/08/16 12:15:31  5-MIN KABI 081815Z 24007KT 10SM CLR 21/13 A2972 1980 61 3200 230/07 RMK AO2 T02110133
13962KABI ABI20160308122010403/08/16 12:20:31  5-MIN KABI 081820Z 22007KT 10SM CLR 21/13 A2972 1980 63 3100 210/07 RMK AO2 T02060133
13962KABI ABI20160308122510403/08/16 12:25:31  5-MIN KABI 081825Z 21010KT 10SM CLR 21/13 A2972 1980 63 3100 210/10 RMK AO2 T02060133
13962KABI ABI20160308123010403/08/16 12:30:31  5-MIN KABI 081830Z 23010KT 10SM CLR 21/13 A2972 1980 63 3100 230/10 RMK AO2 T02060133
13962KABI ABI20160308123510403/08/16 12:35:31  5-MIN KABI 081835Z 20010KT 10SM CLR 21/13 A2972 1980 63 3100 200/10 RMK AO2 T02060133
13962KABI ABI20160308124010403/08/16 12:40:31  5-MIN KABI 081840Z 22009KT 10SM CLR 21/13 A2972 1980 63 3100 220/09 RMK AO2 T02060133
13962KABI ABI20160308124510403/08/16 12:45:31  5-MIN KABI 081845Z 19010KT 10SM CLR 21/14 A2972 1980 65 3100 190/10 RMK AO2 T02060139
13962KABI ABI20160308125011103/08/16 12:50:31  5-MIN KABI 081850Z 20009KT 10SM CLR 21/13 A2972 1980 63 3100 200/09 RMK AO2 SLP043 T02060133
13962KABI ABI20160308125510403/08/16 12:55:31  5-MIN KABI 081855Z 19011KT 10SM CLR 20/13 A2971 1990 63 3100 180/11 RMK AO2 T02000128
13962KABI ABI20160308130010403/08/16 13:00:31  5-MIN KABI 081900Z 20010KT 10SM CLR 21/14 A2971 1990 63 3200 200/10 RMK AO2 T02110139
13962KABI ABI20160308130510403/08/16 13:05:31  5-MIN KABI 081905Z 21007KT 10SM CLR 21/13 A2971 1990 63 3100 200/07 RMK AO2 T02060133
13962KABI ABI20160308131010403/08/16 13:10:31  5-MIN KABI 081910Z 18008KT 10SM CLR 21/13 A2971 1990 61 3200 170/08 RMK AO2 T02110133
13962KABI ABI20160308131510403/08/16 13:15:31  5-MIN KABI 081915Z 18008KT 10SM CLR 21/14 A2970 1990 63 3200 180/08 RMK AO2 T02110139
13962KABI ABI20160308132010403/08/16 13:20:31  5-MIN KABI 081920Z 23003KT 10SM CLR 21/14 A2970 2000 63 3200 230/03 RMK AO2 T02110139
13962KABI ABI20160308132509403/08/16 13:25:31  5-MIN KABI 081925Z 10SM CLR 21/14 A2970 2000 63 3200 M /M RMK AO2 T02110139
13962KABI ABI20160308133010403/08/16 13:30:31  5-MIN KABI 081930Z 24006KT 10SM CLR 22/14 A2970 2000 61 3300 230/06 RMK AO2 T02170139
13962KABI ABI20160308133510403/08/16 13:35:31  5-MIN KABI 081935Z 23006KT 10SM CLR 22/14 A2969 2000 61 3300 230/06 RMK AO2 T02170139
13962KABI ABI20160308134010403/08/16 13:40:31  5-MIN KABI 081940Z 26005KT 10SM CLR 22/14 A2969 2010 61 3300 260/05 RMK AO2 T02170139
13962KABI ABI20160308134510403/08/16 13:45:31  5-MIN KABI 081945Z 22007KT 10SM CLR 22/14 A2969 2010 59 3300 210/07 RMK AO2 T02220139
13962KABI ABI20160308135011103/08/16 13:50:31  5-MIN KABI 081950Z VRB04KT 10SM CLR 22/14 A2969 2010 59 3300 VRB/04 RMK AO2 SLP033 T02220139
13962KABI ABI20160308135510403/08/16 13:55:31  5-MIN KABI 081955Z 24007KT 10SM CLR 22/14 A2969 2010 59 3300 230/07 RMK AO2 T02220139
13962KABI ABI20160308140010403/08/16 14:00:31  5-MIN KABI 082000Z 20006KT 10SM CLR 22/14 A2968 2010 61 3300 190/06 RMK AO2 T02220144
13962KABI ABI20160308140510403/08/16 14:05:31  5-MIN KABI 082005Z 00000KT 10SM CLR 22/14 A2969 2010 61 3300 000/00 RMK AO2 T02170139
13962KABI ABI20160308141010403/08/16 14:10:31  5-MIN KABI 082010Z VRB04KT 10SM CLR 22/14 A2968 2020 59 3400 VRB/04 RMK AO2 T02220139
13962KABI ABI20160308141510403/08/16 14:15:31  5-MIN KABI 082015Z 18005KT 10SM CLR 22/13 A2968 2020 56 3400 170/05 RMK AO2 T02220133
13962KABI ABI20160308142010403/08/16 14:20:31  5-MIN KABI 082020Z 23005KT 10SM CLR 22/13 A2968 2020 56 3400 230/05 RMK AO2 T02220133
13962KABI ABI20160308142510403/08/16 14:25:31  5-MIN KABI 082025Z 00000KT 10SM CLR 22/13 A2968 2020 56 3400 000/00 RMK AO2 T02220133
13962KABI ABI20160308143010403/08/16 14:30:31  5-MIN KABI 082030Z 22005KT 10SM CLR 23/13 A2967 2020 55 3400 220/05 RMK AO2 T02280133
13962KABI ABI20160309094012603/09/16 09:40:31  5-MIN KABI 091540Z 06011KT 10SM BKN008 OVC055 14/13 A2986 1850 93 2200 050/11 RMK AO2 RAE10 P0000 T01390128
13962KABI ABI20160309094513803/09/16 09:45:31  5-MIN KABI 091545Z 06009KT 10SM BKN008 OVC055 14/13 A2987 1840 93 2200 060/09 RMK AO2 RAE10 CIG 007V011 P0000 T01390128
13962KABI ABI20160309095014503/09/16 09:50:31  5-MIN KABI 091550Z 07008KT 10SM BKN008 BKN055 14/13 A2987 1840 93 2200 060/08 RMK AO2 RAE10 CIG 007V011 SLP103 P0000 T01390128
13962KABI ABI20160309095511903/09/16 09:55:31  5-MIN KABI 091555Z 06008KT 10SM BKN008 14/13 A2988 1830 90 2200 060/08 RMK AO2 CIG 007V011 T01440128
13962KABI ABI20160309100510303/09/16 10:05:31  5-MIN KABI 091605Z 07010KT 14/13 A2989 1820 93 2200 070/10 RMK AO2 T01390128 RVRNO $
13962KABI ABI20160309101010903/09/16 10:10:31  5-MIN KABI 091610Z 06008KT 10SM OVC008 14/13 A2989 1820 93 2200 050/08 RMK AO2 T01390128 $
13962KABI ABI20160309101510903/09/16 10:15:31  5-MIN KABI 091615Z 05008KT 10SM OVC008 14/13 A2990 1810 93 2100 050/08 RMK AO2 T01390128 $
13962KABI ABI20160309102010903/09/16 10:20:31  5-MIN KABI 091620Z 06007KT 10SM OVC008 14/12 A2990 1810 90 2100 060/07 RMK AO2 T01390122 $
13962KABI ABI20160309102510903/09/16 10:25:31  5-MIN KABI 091625Z 05010KT 10SM BKN008 14/12 A2989 1820 90 2200 050/10 RMK AO2 T01390122 $
13962KABI ABI20160309103010903/09/16 10:30:31  5-MIN KABI 091630Z 05014KT 10SM BKN008 14/12 A2988 1830 90 2200 050/14 RMK AO2 T01390122 $
13962KABI ABI20160309103513203/09/16 10:35:31  5-MIN KABI 091635Z 06011KT 10SM -RA SCT012 OVC055 14/12 A2988 1830 86 2200 050/11 RMK AO2 RAB34 P0000 T01440122 $
13962KABI ABI20160309104013903/09/16 10:40:31  5-MIN KABI 091640Z 05012KT 10SM -RA BKN012 OVC055 14/13 A2986 1840 90 2200 040/12 RMK AO2 RAB34 PRESFR P0000 T01440128 $
13962KABI ABI20160309104513903/09/16 10:45:31  5-MIN KABI 091645Z 04011KT 10SM -RA BKN012 OVC055 15/13 A2985 1860 86 2300 040/11 RMK AO2 RAB34 PRESFR P0000 T01500128 $
13962KABI ABI20160309105013503/09/16 10:50:31  5-MIN KABI 091650Z 04013G19KT 10SM -RA SCT012 BKN021 OVC060 15/13 A2986 1850 86 2300 040/13G19 RMK AO2 RAB34 P0000 $
13962KABI ABI20160309105513903/09/16 10:55:31  5-MIN KABI 091655Z 05011G20KT 10SM -RA SCT015 BKN021 OVC060 15/13 A2986 1850 86 2300 040/11G20 RMK AO2 P0000 T01500128 $
13962KABI ABI20160309110013903/09/16 11:00:31  5-MIN KABI 091700Z 05010G20KT 10SM -RA SCT015 BKN021 OVC060 15/13 A2986 1850 86 2300 050/10G20 RMK AO2 P0000 T01500128 $
13962KABI ABI20160309110513503/09/16 11:05:31  5-MIN KABI 091705Z 05013KT 10SM SCT015 BKN021 OVC060 15/13 A2986 1850 86 2300 050/13 RMK AO2 RAE03 P0000 T01500128 $
13962KABI ABI20160309111013503/09/16 11:10:31  5-MIN KABI 091710Z 04013KT 10SM SCT012 BKN018 OVC043 16/12 A2985 1850 80 2400 030/13 RMK AO2 RAE03 P0000 T01560122 $
13962KABI ABI20160309111513503/09/16 11:15:31  5-MIN KABI 091715Z 04009KT 10SM SCT014 BKN020 OVC041 16/13 A2985 1860 83 2400 030/09 RMK AO2 RAE03 P0000 T01560128 $
13962KABI ABI20160309112013503/09/16 11:20:31  5-MIN KABI 091720Z 04013KT 10SM SCT014 BKN020 OVC041 16/13 A2985 1850 83 2400 040/13 RMK AO2 RAE03 P0000 T01560128 $
13962KABI ABI20160309112514103/09/16 11:25:31  5-MIN KABI 091725Z 04011G18KT 10SM SCT014 BKN020 OVC041 15/12 A2986 1850 83 2300 040/11G18 RMK AO2 RAE03 P0000 T01500122 $
13962KABI ABI20160309113014103/09/16 11:30:31  5-MIN KABI 091730Z 06013G18KT 10SM SCT014 BKN020 OVC025 16/12 A2987 1840 80 2400 060/13G18 RMK AO2 RAE03 P0000 T01560122 $
13962KABI ABI20160309113513503/09/16 11:35:31  5-MIN KABI 091735Z 06011KT 10SM BKN016 BKN022 OVC027 15/12 A2987 1840 83 2300 060/11 RMK AO2 RAE03 P0000 T01500122 $
13962KABI ABI20160309114013403/09/16 11:40:31  5-MIN KABI 091740Z 06008G18KT 10SM BKN016 OVC024 15/12 A2987 1840 83 2300 050/08G18 RMK AO2 RAE03 P0000 T01500122 $
13962KABI ABI20160309114513503/09/16 11:45:31  5-MIN KABI 091745Z 07011KT 10SM BKN016 BKN020 OVC026 16/12 A2987 1830 80 2400 060/11 RMK AO2 RAE03 P0000 T01560122 $
13962KABI ABI20160309115016003/09/16 11:50:31  5-MIN KABI 091750Z 07011KT 10SM SCT016 BKN020 OVC031 15/12 A2988 1830 83 2300 060/11 RMK AO2 RAE03 SLP104 P0000 60002 T01500122 10156 20122 $
13962KABI ABI20160309115512303/09/16 11:55:31  5-MIN KABI 091755Z 08012KT 10SM SCT016 BKN024 OVC030 15/12 A2988 1830 83 2300 070/12 RMK AO2 T01500122 $
13962KABI ABI20160309120012303/09/16 12:00:31  5-MIN KABI 091800Z 07010KT 10SM SCT016 BKN026 OVC033 15/12 A2988 1830 80 2300 060/10 RMK AO2 T01500117 $
13962KABI ABI20160309120512303/09/16 12:05:31  5-MIN KABI 091805Z 07010KT 10SM SCT016 BKN020 OVC037 15/12 A2988 1830 80 2300 060/10 RMK AO2 T01500117 $
13962KABI ABI20160309121012303/09/16 12:10:31  5-MIN KABI 091810Z 06011KT 10SM SCT016 BKN030 OVC037 15/12 A2988 1830 83 2300 060/11 RMK AO2 T01500122 $
13962KABI ABI20160309121513903/09/16 12:15:31  5-MIN KABI 091815Z 07010KT 10SM -RA FEW018 BKN027 OVC035 15/12 A2989 1820 80 2300 070/10 RMK AO2 RAB15 P0000 T01500117 $
13962KABI ABI20160309122013803/09/16 12:20:31  5-MIN KABI 091820Z 08012KT 9SM -RA FEW018 BKN027 OVC035 15/12 A2988 1830 83 2300 070/12 RMK AO2 RAB15 P0000 T01500122 $
13962KABI ABI20160309122513803/09/16 12:25:31  5-MIN KABI 091825Z 07010KT 9SM -RA FEW020 BKN029 OVC035 14/12 A2988 1830 86 2200 070/10 RMK AO2 RAB15 P0000 T01440122 $
13962KABI ABI20160309123013903/09/16 12:30:31  5-MIN KABI 091830Z 08009KT 10SM -RA FEW017 BKN029 OVC037 15/12 A2989 1820 83 2300 070/09 RMK AO2 RAB15 P0000 T01500122 $
13962KABI ABI20160309123513903/09/16 12:35:31  5-MIN KABI 091835Z 08009KT 10SM -RA SCT017 BKN020 OVC035 15/12 A2989 1820 83 2300 070/09 RMK AO2 RAB15 P0000 T01500122 $
13962KABI ABI20160309124013903/09/16 12:40:31  5-MIN KABI 091840Z 07010KT 10SM -RA SCT017 BKN020 OVC035 14/12 A2989 1820 86 2200 070/10 RMK AO2 RAB15 P0000 T01440122 $
13962KABI ABI20160309124513903/09/16 12:45:31  5-MIN KABI 091845Z 08012KT 10SM -RA SCT017 BKN020 OVC035 14/12 A2989 1820 86 2200 070/12 RMK AO2 RAB15 P0000 T01440122 $
13962KABI ABI20160309125014603/09/16 12:50:31  5-MIN KABI 091850Z 08009KT 10SM -RA SCT017 BKN020 OVC035 14/12 A2988 1830 86 2200 070/09 RMK AO2 RAB15 SLP107 P0000 T01440122 $
13962KABI ABI20160309125513203/09/16 12:55:31  5-MIN KABI 091855Z 08009KT 8SM -RA SCT014 BKN023 OVC050 14/13 A2988 1830 90 2200 080/09 RMK AO2 P0000 T01440128 $
13962KABI ABI20160309130013203/09/16 13:00:31  5-MIN KABI 091900Z 08008KT 8SM -RA BKN014 BKN023 OVC032 14/13 A2989 1820 90 2200 080/08 RMK AO2 P0000 T01440128 $
13962KABI ABI20160309130513303/09/16 13:05:31  5-MIN KABI 091905Z 08009KT 10SM -RA BKN015 BKN023 OVC032 14/13 A2989 1820 90 2200 070/09 RMK AO2 P0000 T01440128 $
13962KABI ABI20160309131012603/09/16 13:10:31  5-MIN KABI 091910Z 10016KT 10SM -RA BKN015 OVC020 14/12 A2989 1820 86 2200 100/16 RMK AO2 P0000 T01440122 $
13962KABI ABI20160309131513903/09/16 13:15:31  5-MIN KABI 091915Z 11016G20KT 10SM -RA BKN013 BKN018 OVC030 14/12 A2989 1820 90 2200 100/16G20 RMK AO2 P0000 T01390122 $
13962KABI ABI20160309132013303/09/16 13:20:31  5-MIN KABI 091920Z 10014KT 10SM -RA SCT013 BKN018 OVC032 14/12 A2989 1820 90 2200 100/14 RMK AO2 P0000 T01390122 $
13962KABI ABI20160309132513303/09/16 13:25:31  5-MIN KABI 091925Z 10010KT 10SM -RA BKN013 BKN018 OVC030 14/12 A2988 1830 90 2200 090/10 RMK AO2 P0000 T01390122 $
13962KABI ABI20160309133013303/09/16 13:30:31  5-MIN KABI 091930Z 09013KT 10SM -RA SCT012 BKN018 OVC029 14/12 A2988 1830 90 2200 090/13 RMK AO2 P0000 T01390122 $
13962KABI ABI20160309133513303/09/16 13:35:31  5-MIN KABI 091935Z 08013KT 10SM -RA BKN013 BKN015 OVC029 14/12 A2987 1840 90 2200 080/13 RMK AO2 P0000 T01390122 $
13962KABI ABI20160309134013103/09/16 13:40:31  5-MIN KABI 091940Z 10013KT 10SM -RA BKN013 BKN015 OVC029 14/12 A2987 1840 86 2200 100/13 RMK AO2 P0000 T01440122
13962KABI ABI20160309134513103/09/16 13:45:31  5-MIN KABI 091945Z 10012KT 10SM -RA BKN013 BKN015 OVC029 14/12 A2988 1830 90 2200 090/12 RMK AO2 P0000 T01390122
13962KABI ABI20160309135014003/09/16 13:50:31  5-MIN KABI 091950Z 09010KT 10SM BKN013 BKN019 OVC029 14/12 A2987 1830 86 2200 080/10 RMK AO2 RAE47 SLP105 P0000 T01440122
13962KABI ABI20160309135512103/09/16 13:55:31  5-MIN KABI 091955Z 08012KT 10SM BKN013 BKN018 OVC029 14/12 A2987 1840 86 2200 080/12 RMK AO2 T01440122
13962KABI ABI20160309140012103/09/16 14:00:31  5-MIN KABI 092000Z 08011KT 10SM BKN013 BKN029 OVC037 15/12 A2987 1840 80 2300 070/11 RMK AO2 T01500117
13962KABI ABI20160309140512103/09/16 14:05:31  5-MIN KABI 092005Z 08011KT 10SM SCT013 BKN019 OVC037 15/12 A2986 1840 83 2300 080/11 RMK AO2 T01500122
13962KABI ABI20160309141012103/09/16 14:10:31  5-MIN KABI 092010Z 08012KT 10SM FEW013 BKN027 OVC033 16/12 A2986 1850 80 2400 080/12 RMK AO2 T01560122
13962KABI ABI20160309141512103/09/16 14:15:31  5-MIN KABI 092015Z 07010KT 10SM FEW013 BKN027 OVC035 16/12 A2986 1850 77 2400 070/10 RMK AO2 T01560117
13962KABI ABI20160309142012103/09/16 14:20:31  5-MIN KABI 092020Z 06011KT 10SM SCT016 BKN024 OVC035 15/12 A2986 1850 80 2300 060/11 RMK AO2 T01500117
13962KABI ABI20160309142512103/09/16 14:25:31  5-MIN KABI 092025Z 06007KT 10SM BKN018 BKN027 OVC037 16/12 A2985 1850 77 2400 060/07 RMK AO2 T01560117
13962KABI ABI20160309143011403/09/16 14:30:31  5-MIN KABI 092030Z 08008KT 10SM BKN018 OVC027 16/12 A2985 1860 77 2400 070/08 RMK AO2 T01560117
13962KABI ABI20160309143512103/09/16 14:35:31  5-MIN KABI 092035Z 06008KT 10SM BKN018 BKN025 OVC038 16/12 A2985 1860 77 2400 060/08 RMK AO2 T01560117
13962KABI ABI20160309144011403/09/16 14:40:31  5-MIN KABI 092040Z 09008KT 10SM BKN018 BKN038 16/12 A2985 1860 75 2500 080/08 RMK AO2 T01610117
13962KABI ABI20160309144512103/09/16 14:45:31  5-MIN KABI 092045Z 04005KT 10SM SCT018 BKN024 BKN038 17/12 A2985 1860 75 2500 040/05 RMK AO2 T01670122
13962KABI ABI20160309145012703/09/16 14:50:31  5-MIN KABI 092050Z 06007KT 10SM BKN018 BKN024 17/12 A2985 1860 75 2500 050/07 RMK AO2 SLP095 60000 T01670122
13962KABI ABI20160309145512103/09/16 14:55:31  5-MIN KABI 092055Z 06007KT 10SM BKN018 BKN024 BKN060 17/12 A2985 1860 72 2600 060/07 RMK AO2 T01720122
13962KABI ABI20160309150012103/09/16 15:00:31  5-MIN KABI 092100Z VRB05KT 10SM SCT018 BKN023 BKN060 17/12 A2985 1850 69 2600 VRB/05 RMK AO2 T01720117
13962KABI ABI20160309150511403/09/16 15:05:31  5-MIN KABI 092105Z 08009KT 10SM BKN020 BKN060 17/12 A2986 1850 69 2600 080/09 RMK AO2 T01720117
13962KABI ABI20160309151011403/09/16 15:10:31  5-MIN KABI 092110Z 06009KT 10SM BKN020 BKN065 17/12 A2986 1850 72 2500 060/09 RMK AO2 T01670117
13962KABI ABI20160309151511403/09/16 15:15:31  5-MIN KABI 092115Z 06009KT 10SM BKN020 OVC065 16/11 A2986 1850 72 2400 050/09 RMK AO2 T01610111
13962KABI ABI20160309152012103/09/16 15:20:31  5-MIN KABI 092120Z 08008KT 10SM BKN022 BKN030 OVC065 16/11 A2986 1840 72 2400 080/08 RMK AO2 T01610111
13962KABI ABI20160309152512103/09/16 15:25:31  5-MIN KABI 092125Z 06007KT 10SM BKN022 BKN030 OVC040 16/12 A2987 1840 75 2400 060/07 RMK AO2 T01610117
13962KABI ABI20160309153012103/09/16 15:30:31  5-MIN KABI 092130Z 08009KT 10SM BKN022 BKN030 OVC065 16/11 A2988 1830 72 2400 070/09 RMK AO2 T01610111
13962KABI ABI20160309153512103/09/16 15:35:31  5-MIN KABI 092135Z 05007KT 10SM BKN022 BKN030 OVC038 16/11 A2987 1840 72 2400 050/07 RMK AO2 T01610111
13962KABI ABI20160309154012103/09/16 15:40:31  5-MIN KABI 092140Z 06008KT 10SM BKN022 BKN027 OVC038 16/11 A2988 1830 72 2400 060/08 RMK AO2 T01610111
13962KABI ABI20160309154511403/09/16 15:45:31  5-MIN KABI 092145Z 05008KT 10SM BKN022 OVC038 16/12 A2988 1830 75 2400 050/08 RMK AO2 T01610117
13962KABI ABI20160309155011103/09/16 15:50:31  5-MIN KABI 092150Z 04007KT 10SM SCT022 SCT031 OVC038 16/11 A2987 1840 74 2400 030/07 RMK AO2
13962KABI ABI20160309155511403/09/16 15:55:31  5-MIN KABI 092155Z 03007KT 10SM FEW022 OVC040 16/12 A2987 1840 75 2400 030/07 RMK AO2 T01610117
13962KABI ABI20160309160011403/09/16 16:00:31  5-MIN KABI 092200Z 04007KT 10SM FEW022 OVC040 16/11 A2987 1840 72 2400 030/07 RMK AO2 T01610111
13962KABI ABI20160309160511403/09/16 16:05:31  5-MIN KABI 092205Z 05005KT 10SM FEW022 OVC040 16/12 A2988 1830 75 2400 040/05 RMK AO2 T01610117
13962KABI ABI20160309161011403/09/16 16:10:31  5-MIN KABI 092210Z 03006KT 10SM FEW021 OVC040 16/12 A2988 1830 75 2400 020/06 RMK AO2 T01610117
13962KABI ABI20160309161511403/09/16 16:15:31  5-MIN KABI 092215Z 03007KT 10SM BKN040 BKN090 16/11 A2988 1830 72 2400 020/07 RMK AO2 T01610111
13962KABI ABI20160309162011403/09/16 16:20:31  5-MIN KABI 092220Z 04005KT 10SM BKN040 BKN090 16/11 A2988 1830 72 2400 030/05 RMK AO2 T01610111
13962KABI ABI20160309162511403/09/16 16:25:31  5-MIN KABI 092225Z 04008KT 10SM FEW020 OVC041 16/11 A2988 1830 72 2400 030/08 RMK AO2 T01610111
13962KABI ABI20160309163012103/09/16 16:30:31  5-MIN KABI 092230Z 04007KT 10SM FEW020 BKN041 OVC080 16/11 A2988 1830 72 2400 040/07 RMK AO2 T01610111
13962KABI ABI20160309163510703/09/16 16:35:31  5-MIN KABI 092235Z 03008KT 10SM BKN041 16/11 A2988 1830 72 2400 020/08 RMK AO2 T01610111
13962KABI ABI20160309164010703/09/16 16:40:31  5-MIN KABI 092240Z 03009KT 10SM BKN041 16/12 A2987 1840 75 2400 020/09 RMK AO2 T01610117
13962KABI ABI20160309164510703/09/16 16:45:31  5-MIN KABI 092245Z 01010KT 10SM OVC041 16/11 A2987 1840 74 2400 010/10 RMK AO2 T01560111
13962KABI ABI20160309165011403/09/16 16:50:31  5-MIN KABI 092250Z 02009KT 10SM OVC041 16/12 A2988 1830 77 2400 020/09 RMK AO2 SLP104 T01560117
13962KABI ABI20160309165510703/09/16 16:55:31  5-MIN KABI 092255Z 03008KT 10SM OVC043 16/12 A2988 1830 77 2400 020/08 RMK AO2 T01560117
13962KABI ABI20160309170010703/09/16 17:00:31  5-MIN KABI 092300Z 04008KT 10SM OVC043 16/11 A2988 1830 74 2400 030/08 RMK AO2 T01560111
13962KABI ABI20160309170510703/09/16 17:05:31  5-MIN KABI 092305Z 02009KT 10SM OVC043 16/11 A2988 1830 74 2400 010/09 RMK AO2 T01560111
13962KABI ABI20160309171010703/09/16 17:10:31  5-MIN KABI 092310Z 02009KT 10SM OVC043 16/11 A2988 1830 74 2400 010/09 RMK AO2 T01560111
13962KABI ABI20160309171510703/09/16 17:15:31  5-MIN KABI 092315Z 02009KT 10SM OVC043 16/12 A2987 1840 77 2400 010/09 RMK AO2 T01560117
13962KABI ABI20160309172010703/09/16 17:20:31  5-MIN KABI 092320Z 01009KT 10SM OVC041 16/11 A2987 1840 74 2400 010/09 RMK AO2 T01560111
13962KABI ABI20160309172510703/09/16 17:25:31  5-MIN KABI 092325Z 02008KT 10SM OVC039 16/12 A2988 1830 77 2400 020/08 RMK AO2 T01560117
13962KABI ABI20160309173010703/09/16 17:30:31  5-MIN KABI 092330Z 02007KT 10SM OVC037 16/12 A2988 1830 77 2400 020/07 RMK AO2 T01560117
13962KABI ABI20160309173510703/09/16 17:35:31  5-MIN KABI 092335Z 02006KT 10SM OVC037 16/11 A2988 1830 74 2400 020/06 RMK AO2 T01560111
13962KABI ABI20160309174011403/09/16 17:40:31  5-MIN KABI 092340Z 03006KT 10SM FEW024 OVC035 16/11 A2988 1830 74 2400 020/06 RMK AO2 T01560111
13962KABI ABI20160309174511403/09/16 17:45:31  5-MIN KABI 092345Z 03008KT 10SM FEW022 OVC035 16/11 A2988 1830 74 2400 020/08 RMK AO2 T01560111
13962KABI ABI20160309175014503/09/16 17:50:31  5-MIN KABI 092350Z 03008KT 10SM FEW022 OVC035 16/11 A2988 1830 74 2400 030/08 RMK AO2 SLP106 60000 T01560111 10172 20139 58009
13962KABI ABI20160309175511403/09/16 17:55:31  5-MIN KABI 092355Z 04008KT 10SM FEW022 OVC035 15/11 A2988 1830 77 2300 030/08 RMK AO2 T01500111
13962KABI ABI20160309180011403/09/16 18:00:31  5-MIN KABI 100000Z 06008KT 10SM FEW022 OVC035 15/11 A2988 1830 77 2300 050/08 RMK AO2 T01500111
13962KABI ABI20160309180511403/09/16 18:05:31  5-MIN KABI 100005Z 04007KT 10SM FEW022 OVC035 15/11 A2989 1820 77 2300 040/07 RMK AO2 T01500111
13962KABI ABI20160309181011403/09/16 18:10:31  5-MIN KABI 100010Z 05005KT 10SM FEW022 OVC033 15/11 A2989 1820 77 2300 040/05 RMK AO2 T01500111
13962KABI ABI20160309181510703/09/16 18:15:31  5-MIN KABI 100015Z 04005KT 10SM OVC033 15/11 A2988 1830 77 2300 030/05 RMK AO2 T01500111
13962KABI ABI20160309182010703/09/16 18:20:31  5-MIN KABI 100020Z 05010KT 10SM OVC033 15/11 A2988 1830 77 2300 050/10 RMK AO2 T01500111
13962KABI ABI20160309182511403/09/16 18:25:31  5-MIN KABI 100025Z 06007KT 10SM FEW026 OVC033 14/11 A2989 1820 80 2200 060/07 RMK AO2 T01440111
13962KABI ABI20160309183010703/09/16 18:30:31  5-MIN KABI 100030Z 06006KT 10SM OVC033 14/11 A2989 1820 80 2200 050/06 RMK AO2 T01440111
13962KABI ABI20160309183511403/09/16 18:35:31  5-MIN KABI 100035Z 06008KT 10SM FEW028 OVC034 14/11 A2989 1820 80 2200 050/08 RMK AO2 T01440111
13962KABI ABI20160309184010703/09/16 18:40:31  5-MIN KABI 100040Z 05006KT 10SM OVC034 14/11 A2988 1830 80 2200 050/06 RMK AO2 T01440111
13962KABI ABI20160309184510703/09/16 18:45:31  5-MIN KABI 100045Z 06006KT 10SM OVC034 14/11 A2989 1820 80 2200 050/06 RMK AO2 T01440111
13962KABI ABI20160309185012103/09/16 18:50:31  5-MIN KABI 100050Z 06005KT 10SM FEW028 OVC035 14/11 A2989 1820 80 2200 060/05 RMK AO2 SLP110 T01440111
13962KABI ABI20160309185510703/09/16 18:55:31  5-MIN KABI 100055Z 05007KT 10SM OVC033 14/11 A2989 1820 80 2200 050/07 RMK AO2 T01440111
13962KABI ABI20160309190010703/09/16 19:00:31  5-MIN KABI 100100Z 06008KT 10SM OVC033 14/11 A2990 1810 83 2100 050/08 RMK AO2 T01390111
13962KABI ABI20160309190510703/09/16 19:05:31  5-MIN KABI 100105Z 05006KT 10SM OVC033 14/12 A2989 1820 86 2200 040/06 RMK AO2 T01390117
13962KABI ABI20160309191010703/09/16 19:10:31  5-MIN KABI 100110Z 05004KT 10SM OVC033 14/12 A2989 1820 86 2100 040/04 RMK AO2 T01390117
13962KABI ABI20160309191510703/09/16 19:15:31  5-MIN KABI 100115Z 05005KT 10SM OVC035 14/12 A2990 1810 86 2100 050/05 RMK AO2 T01390117
13962KABI ABI20160309192010703/09/16 19:20:31  5-MIN KABI 100120Z 04005KT 10SM OVC035 14/12 A2990 1810 86 2100 040/05 RMK AO2 T01390117
13962KABI ABI20160309192510703/09/16 19:25:31  5-MIN KABI 100125Z 03004KT 10SM OVC035 14/12 A2990 1810 86 2100 030/04 RMK AO2 T01390117
13962KABI ABI20160309193010703/09/16 19:30:31  5-MIN KABI 100130Z 04005KT 10SM OVC035 14/12 A2990 1810 86 2100 040/05 RMK AO2 T01390117
13962KABI ABI20160309193511403/09/16 19:35:31  5-MIN KABI 100135Z 04006KT 10SM BKN037 OVC049 14/12 A2990 1810 86 2100 040/06 RMK AO2 T01390117
13962KABI ABI20160309194011403/09/16 19:40:31  5-MIN KABI 100140Z 04005KT 10SM BKN037 OVC047 14/12 A2990 1810 83 2200 030/05 RMK AO2 T01440117
13962KABI ABI20160309194511403/09/16 19:45:31  5-MIN KABI 100145Z 03005KT 10SM SCT037 OVC045 14/12 A2990 1810 83 2200 030/05 RMK AO2 T01440117
13962KABI ABI20160309195012103/09/16 19:50:31  5-MIN KABI 100150Z 03005KT 10SM SCT037 OVC045 14/12 A2990 1810 83 2200 020/05 RMK AO2 SLP112 T01440117
13962KABI ABI20160309195510703/09/16 19:55:31  5-MIN KABI 100155Z 04004KT 10SM OVC045 14/12 A2990 1810 86 2100 030/04 RMK AO2 T01390117
13962KABI ABI20160309200010703/09/16 20:00:31  5-MIN KABI 100200Z 04005KT 10SM OVC045 14/12 A2990 1810 83 2200 040/05 RMK AO2 T01440117
13962KABI ABI20160309200510703/09/16 20:05:31  5-MIN KABI 100205Z 03005KT 10SM OVC045 14/12 A2990 1810 83 2200 030/05 RMK AO2 T01440117
13962KABI ABI20160309201010703/09/16 20:10:31  5-MIN KABI 100210Z 04006KT 10SM OVC045 14/12 A2991 1810 83 2200 030/06 RMK AO2 T01440117
13962KABI ABI20160309201510703/09/16 20:15:31  5-MIN KABI 100215Z 04005KT 10SM OVC047 14/12 A2990 1810 83 2200 030/05 RMK AO2 T01440117
13962KABI ABI20160309202010703/09/16 20:20:31  5-MIN KABI 100220Z 03005KT 10SM OVC047 14/11 A2990 1810 80 2200 020/05 RMK AO2 T01440111
13962KABI ABI20160309202510703/09/16 20:25:31  5-MIN KABI 100225Z 03006KT 10SM OVC049 14/11 A2990 1810 80 2200 030/06 RMK AO2 T01440111
13962KABI ABI20160309203010703/09/16 20:30:31  5-MIN KABI 100230Z 04006KT 10SM OVC049 14/11 A2991 1800 80 2200 040/06 RMK AO2 T01440111
13962KABI ABI20160309203511403/09/16 20:35:31  5-MIN KABI 100235Z 05008KT 10SM FEW017 OVC049 14/11 A2991 1800 80 2200 050/08 RMK AO2 T01440111
13962KABI ABI20160309204011403/09/16 20:40:31  5-MIN KABI 100240Z 04007KT 10SM FEW017 OVC049 14/11 A2991 1800 83 2100 040/07 RMK AO2 T01390111
13962KABI ABI20160309204511403/09/16 20:45:31  5-MIN KABI 100245Z 03008KT 10SM FEW017 OVC049 14/11 A2991 1800 83 2100 020/08 RMK AO2 T01390111
13962KABI ABI20160309205013403/09/16 20:50:31  5-MIN KABI 100250Z 02008KT 10SM FEW016 BKN050 BKN090 14/11 A2991 1800 83 2100 020/08 RMK AO2 SLP117 T01390111 50009
13962KABI ABI20160309205512103/09/16 20:55:31  5-MIN KABI 100255Z 03007KT 10SM SCT016 BKN050 BKN090 14/11 A2991 1800 83 2100 020/07 RMK AO2 T01390111
13962KABI ABI20160309210011403/09/16 21:00:31  5-MIN KABI 100300Z 03009KT 10SM SCT016 BKN050 14/11 A2992 1800 83 2100 020/09 RMK AO2 T01390111
13962KABI ABI20160309210511403/09/16 21:05:31  5-MIN KABI 100305Z 04007KT 10SM FEW017 BKN050 14/11 A2992 1790 83 2100 030/07 RMK AO2 T01390111
13962KABI ABI20160309211011403/09/16 21:10:31  5-MIN KABI 100310Z 04006KT 10SM FEW017 BKN055 14/11 A2993 1790 83 2100 030/06 RMK AO2 T01390111
13962KABI ABI20160309211512103/09/16 21:15:31  5-MIN KABI 100315Z 04006KT 10SM FEW017 BKN055 BKN090 14/11 A2993 1790 83 2100 030/06 RMK AO2 T01390111
13962KABI ABI20160309212012103/09/16 21:20:31  5-MIN KABI 100320Z 04005KT 10SM FEW017 SCT023 BKN055 13/12 A2993 1780 89 2000 030/05 RMK AO2 T01330117
13962KABI ABI20160309212511403/09/16 21:25:31  5-MIN KABI 100325Z 05005KT 10SM SCT025 BKN055 13/12 A2993 1780 89 2000 040/05 RMK AO2 T01330117
13962KABI ABI20160309213011403/09/16 21:30:31  5-MIN KABI 100330Z 04005KT 10SM FEW025 OVC055 13/12 A2994 1780 89 2000 040/05 RMK AO2 T01330117
13962KABI ABI20160309213511403/09/16 21:35:31  5-MIN KABI 100335Z 02003KT 10SM FEW023 OVC055 13/12 A2994 1770 89 2000 020/03 RMK AO2 T01330117
13962KABI ABI20160309214011403/09/16 21:40:31  5-MIN KABI 100340Z 02004KT 10SM FEW023 OVC055 13/12 A2993 1780 89 2000 010/04 RMK AO2 T01330117
13962KABI ABI20160309214511403/09/16 21:45:31  5-MIN KABI 100345Z 02004KT 10SM FEW023 BKN055 13/12 A2993 1790 89 2000 020/04 RMK AO2 T01330117
13962KABI ABI20160309215011403/09/16 21:50:31  5-MIN KABI 100350Z 02003KT 10SM SCT055 13/12 A2993 1780 89 2000 010/03 RMK AO2 SLP124 T01330117
13962KABI ABI20160309215510703/09/16 21:55:31  5-MIN KABI 100355Z 03003KT 10SM SCT055 13/12 A2994 1780 89 2000 020/03 RMK AO2 T01330117
13962KABI ABI20160309220010703/09/16 22:00:31  5-MIN KABI 100400Z 01003KT 10SM FEW055 13/12 A2994 1780 93 2000 010/03 RMK AO2 T01280117
13962KABI ABI20160309220510703/09/16 22:05:31  5-MIN KABI 100405Z 36005KT 10SM FEW055 13/11 A2994 1780 89 2000 360/05 RMK AO2 T01280111
13962KABI ABI20160309221010403/09/16 22:10:31  5-MIN KABI 100410Z 01005KT 10SM CLR 13/11 A2994 1780 89 2000 360/05 RMK AO2 T01280111
13962KABI ABI20160309221510403/09/16 22:15:31  5-MIN KABI 100415Z 01005KT 10SM CLR 13/11 A2993 1780 89 2000 360/05 RMK AO2 T01280111
13962KABI ABI20160309222010403/09/16 22:20:31  5-MIN KABI 100420Z 02005KT 10SM CLR 13/11 A2993 1780 89 2000 010/05 RMK AO2 T01280111
13962KABI ABI20160309222510403/09/16 22:25:31  5-MIN KABI 100425Z 36006KT 10SM CLR 13/11 A2993 1780 89 2000 360/06 RMK AO2 T01280111
13962KABI ABI20160309223010403/09/16 22:30:31  5-MIN KABI 100430Z 01005KT 10SM CLR 13/11 A2993 1780 89 2000 360/05 RMK AO2 T01280111
13962KABI ABI20160309223510403/09/16 22:35:31  5-MIN KABI 100435Z 01005KT 10SM CLR 13/11 A2994 1780 89 2000 360/05 RMK AO2 T01280111
13962KABI ABI20160309224010403/09/16 22:40:31  5-MIN KABI 100440Z 01005KT 10SM CLR 13/11 A2994 1770 89 2000 360/05 RMK AO2 T01280111
13962KABI ABI20160309224510703/09/16 22:45:31  5-MIN KABI 100445Z 36006KT 10SM FEW090 12/11 A2994 1770 93 1900 350/06 RMK AO2 T01220111
13962KABI ABI20160309225011403/09/16 22:50:31  5-MIN KABI 100450Z 35006KT 10SM SCT090 12/11 A2994 1770 93 1900 350/06 RMK AO2 SLP128 T01220111
13962KABI ABI20160309225511403/09/16 22:55:31  5-MIN KABI 100455Z 01004KT 10SM FEW060 BKN090 12/11 A2995 1770 93 1900 010/04 RMK AO2 T01220111
13962KABI ABI20160309230011403/09/16 23:00:31  5-MIN KABI 100500Z 01003KT 10SM SCT060 BKN090 13/11 A2995 1770 89 2000 360/03 RMK AO2 T01280111
13962KABI ABI20160309230511403/09/16 23:05:31  5-MIN KABI 100505Z 02004KT 10SM BKN060 BKN090 13/11 A2995 1770 89 2000 010/04 RMK AO2 T01280111
13962KABI ABI20160309231011403/09/16 23:10:31  5-MIN KABI 100510Z 03003KT 10SM BKN060 OVC090 13/11 A2995 1760 89 2000 020/03 RMK AO2 T01280111
13962KABI ABI20160309231512103/09/16 23:15:31  5-MIN KABI 100515Z 03004KT 10SM FEW018 BKN060 OVC090 13/11 A2995 1760 89 2000 020/04 RMK AO2 T01280111
13962KABI ABI20160309232011403/09/16 23:20:31  5-MIN KABI 100520Z 02003KT 10SM FEW018 BKN060 13/11 A2995 1770 89 2000 020/03 RMK AO2 T01280111
13962KABI ABI20160309232511403/09/16 23:25:31  5-MIN KABI 100525Z 03004KT 10SM FEW017 BKN060 12/11 A2995 1770 93 1900 020/04 RMK AO2 T01220111
13962KABI ABI20160309233011403/09/16 23:30:31  5-MIN KABI 100530Z 02004KT 10SM FEW017 SCT060 12/11 A2995 1760 93 1900 010/04 RMK AO2 T01220111
13962KABI ABI20160309233512103/09/16 23:35:31  5-MIN KABI 100535Z 01003KT 10SM FEW017 SCT060 BKN095 12/11 A2995 1770 93 1900 010/03 RMK AO2 T01220111
13962KABI ABI20160309234012103/09/16 23:40:31  5-MIN KABI 100540Z 02004KT 10SM FEW017 FEW060 BKN095 12/11 A2994 1770 93 1900 010/04 RMK AO2 T01220111
13962KABI ABI20160309234510703/09/16 23:45:31  5-MIN KABI 100545Z 03004KT 10SM BKN095 12/11 A2994 1770 93 1900 030/04 RMK AO2 T01220111
13962KABI ABI20160309235014203/09/16 23:50:31  5-MIN KABI 100550Z 04004KT 10SM BKN095 12/11 A2994 1770 93 1900 040/04 RMK AO2 SLP128 T01220111 10150 20122 401720117 53011
13962KABI ABI20160309235510703/09/16 23:55:31  5-MIN KABI 100555Z 06005KT 10SM BKN095 12/11 A2995 1770 93 1900 050/05 RMK AO2 T01220111
13962KABI ABI20160310000010703/10/16 00:00:31  5-MIN KABI 100600Z 06004KT 10SM OVC095 12/11 A2995 1770 93 1900 050/04 RMK AO2 T01220111
13962KABI ABI20160310000510703/10/16 00:05:31  5-MIN KABI 100605Z 05004KT 10SM OVC090 13/11 A2995 1760 89 2000 040/04 RMK AO2 T01280111
13962KABI ABI20160310001011403/10/16 00:10:31  5-MIN KABI 100610Z 06003KT 10SM FEW070 OVC090 13/11 A2995 1760 89 2000 060/03 RMK AO2 T01280111
13962KABI ABI20160310001511403/10/16 00:15:31  5-MIN KABI 100615Z 07003KT 10SM SCT070 OVC090 13/11 A2995 1760 89 1900 070/03 RMK AO2 T01280111
13962KABI ABI20160310002011403/10/16 00:20:31  5-MIN KABI 100620Z 05003KT 10SM SCT070 OVC090 13/11 A2995 1770 89 2000 040/03 RMK AO2 T01280111
13962KABI ABI20160310002511403/10/16 00:25:31  5-MIN KABI 100625Z 00000KT 10SM SCT070 OVC090 13/11 A2995 1770 89 2000 000/00 RMK AO2 T01280111
13962KABI ABI20160310003011403/10/16 00:30:31  5-MIN KABI 100630Z 04003KT 10SM BKN070 OVC090 13/11 A2995 1770 89 2000 040/03 RMK AO2 T01280111
13962KABI ABI20160310003511403/10/16 00:35:31  5-MIN KABI 100635Z 05003KT 10SM BKN070 OVC090 13/11 A2994 1770 89 2000 040/03 RMK AO2 T01280111
13962KABI ABI20160310004011403/10/16 00:40:31  5-MIN KABI 100640Z 04003KT 10SM SCT070 OVC090 13/11 A2994 1770 89 2000 040/03 RMK AO2 T01280111
13962KABI ABI20160310004511403/10/16 00:45:31  5-MIN KABI 100645Z 01003KT 10SM SCT070 OVC090 13/11 A2994 1770 89 2000 360/03 RMK AO2 T01280111
13962KABI ABI20160310005012103/10/16 00:50:31  5-MIN KABI 100650Z 34004KT 10SM SCT075 OVC090 13/11 A2995 1770 89 2000 340/04 RMK AO2 SLP129 T01280111
13962KABI ABI20160310005511403/10/16 00:55:31  5-MIN KABI 100655Z 34005KT 10SM BKN075 OVC090 12/11 A2994 1770 93 1900 340/05 RMK AO2 T01220111
13962KABI ABI20160310010011403/10/16 01:00:31  5-MIN KABI 100700Z 34005KT 10SM BKN075 OVC090 12/11 A2994 1770 93 1900 340/05 RMK AO2 T01220111
13962KABI ABI20160310010511403/10/16 01:05:31  5-MIN KABI 100705Z 35004KT 10SM BKN075 OVC090 12/12 A2994 1770 96 1900 340/04 RMK AO2 T01220117
13962KABI ABI20160310011010703/10/16 01:10:31  5-MIN KABI 100710Z 34005KT 10SM OVC075 12/12 A2994 1770 96 1900 340/05 RMK AO2 T01220117
13962KABI ABI20160310011511403/10/16 01:15:31  5-MIN KABI 100715Z 34005KT 10SM BKN075 OVC090 12/12 A2994 1770 96 1900 340/05 RMK AO2 T01220117
13962KABI ABI20160310012011403/10/16 01:20:31  5-MIN KABI 100720Z 34004KT 10SM BKN075 OVC090 12/12 A2994 1770 96 1900 340/04 RMK AO2 T01220117
13962KABI ABI20160310012510703/10/16 01:25:31  5-MIN KABI 100725Z 32005KT 10SM OVC085 13/12 A2994 1770 93 2000 320/05 RMK AO2 T01280117
13962KABI ABI20160310013010703/10/16 01:30:31  5-MIN KABI 100730Z 33005KT 10SM OVC085 12/11 A2995 1770 93 1900 320/05 RMK AO2 T01220111
13962KABI ABI20160310013510703/10/16 01:35:31  5-MIN KABI 100735Z 33006KT 10SM OVC090 12/11 A2995 1770 93 1900 330/06 RMK AO2 T01220111
13962KABI ABI20160310014010703/10/16 01:40:31  5-MIN KABI 100740Z 34007KT 10SM OVC090 12/11 A2995 1770 93 1900 330/07 RMK AO2 T01220111
13962KABI ABI20160310014510703/10/16 01:45:31  5-MIN KABI 100745Z 33006KT 10SM OVC090 12/12 A2995 1770 96 1900 330/06 RMK AO2 T01220117
13962KABI ABI20160310015011403/10/16 01:50:31  5-MIN KABI 100750Z 34007KT 10SM OVC090 12/12 A2995 1770 96 1900 330/07 RMK AO2 SLP131 T01220117
13962KABI ABI20160310015510703/10/16 01:55:31  5-MIN KABI 100755Z 34006KT 10SM OVC090 12/12 A2995 1760 96 1900 340/06 RMK AO2 T01220117
13962KABI ABI20160310020010703/10/16 02:00:31  5-MIN KABI 100800Z 34006KT 10SM OVC090 12/12 A2995 1760 96 1900 330/06 RMK AO2 T01220117
13962KABI ABI20160310020510703/10/16 02:05:31  5-MIN KABI 100805Z 34006KT 10SM OVC090 12/12 A2995 1760 96 1900 340/06 RMK AO2 T01220117
13962KABI ABI20160310021010703/10/16 02:10:31  5-MIN KABI 100810Z 34006KT 10SM OVC090 12/12 A2995 1760 96 1900 340/06 RMK AO2 T01220117
13962KABI ABI20160310021510703/10/16 02:15:31  5-MIN KABI 100815Z 35006KT 10SM OVC090 12/12 A2995 1770 96 1900 350/06 RMK AO2 T01220117
13962KABI ABI20160310022010703/10/16 02:20:31  5-MIN KABI 100820Z 35005KT 10SM OVC090 12/12 A2994 1770 96 1900 350/05 RMK AO2 T01220117
13962KABI ABI20160310022510703/10/16 02:25:31  5-MIN KABI 100825Z 36004KT 10SM OVC090 12/12 A2994 1770 96 1900 350/04 RMK AO2 T01220117
13962KABI ABI20160310023010703/10/16 02:30:31  5-MIN KABI 100830Z 36006KT 10SM OVC095 12/12 A2994 1770 96 1900 360/06 RMK AO2 T01220117
13962KABI ABI20160310023510703/10/16 02:35:31  5-MIN KABI 100835Z 36005KT 10SM OVC095 12/12 A2994 1770 96 1900 360/05 RMK AO2 T01220117
13962KABI ABI20160310024010703/10/16 02:40:31  5-MIN KABI 100840Z 35004KT 10SM OVC095 12/12 A2994 1770 96 1900 350/04 RMK AO2 T01220117
13962KABI ABI20160310024510703/10/16 02:45:31  5-MIN KABI 100845Z 36005KT 10SM OVC095 12/12 A2994 1780 96 1900 360/05 RMK AO2 T01220117
13962KABI ABI20160310025012703/10/16 02:50:31  5-MIN KABI 100850Z 35006KT 10SM SCT015 OVC095 12/12 A2993 1780 96 1900 350/06 RMK AO2 SLP123 T01220117 50010
13962KABI ABI20160310025510703/10/16 02:55:31  5-MIN KABI 100855Z 35006KT 10SM OVC100 12/12 A2993 1790 96 1900 350/06 RMK AO2 T01220117
13962KABI ABI20160310030010703/10/16 03:00:31  5-MIN KABI 100900Z 01004KT 10SM OVC100 12/12 A2993 1790 96 1900 010/04 RMK AO2 T01220117
13962KABI ABI20160310030510703/10/16 03:05:31  5-MIN KABI 100905Z 01004KT 10SM OVC100 12/12 A2992 1790 96 1900 360/04 RMK AO2 T01220117
13962KABI ABI20160310031011403/10/16 03:10:31  5-MIN KABI 100910Z 36007KT 10SM FEW003 OVC100 12/12 A2993 1780 96 1900 350/07 RMK AO2 T01220117
13962KABI ABI20160310031511303/10/16 03:15:31  5-MIN KABI 100915Z 35008KT 9SM SCT003 OVC100 12/12 A2994 1780 96 1900 340/08 RMK AO2 T01220117
13962KABI ABI20160310032011303/10/16 03:20:31  5-MIN KABI 100920Z 35009KT 9SM BKN003 OVC100 12/12 A2994 1780 96 1900 350/09 RMK AO2 T01220117
13962KABI ABI20160310032511303/10/16 03:25:31  5-MIN KABI 100925Z 36008KT 9SM BKN003 OVC100 12/12 A2993 1780 96 1900 350/08 RMK AO2 T01220117
13962KABI ABI20160310033011303/10/16 03:30:31  5-MIN KABI 100930Z 36008KT 8SM BKN003 OVC100 12/12 A2993 1780 96 1900 360/08 RMK AO2 T01220117
13962KABI ABI20160310033511303/10/16 03:35:31  5-MIN KABI 100935Z 36010KT 8SM BKN003 OVC110 12/12 A2993 1780 96 1900 350/10 RMK AO2 T01220117
13962KABI ABI20160310034010603/10/16 03:40:31  5-MIN KABI 100940Z 36009KT 8SM OVC003 12/12 A2994 1780 96 1900 350/09 RMK AO2 T01220117
13962KABI ABI20160310034510603/10/16 03:45:31  5-MIN KABI 100945Z 35010KT 8SM OVC003 12/12 A2994 1770 96 1900 350/10 RMK AO2 T01220117
13962KABI ABI20160310035011303/10/16 03:50:31  5-MIN KABI 100950Z 36009KT 8SM OVC003 12/12 A2994 1770 96 1900 360/09 RMK AO2 SLP128 T01220117
13962KABI ABI20160310035510603/10/16 03:55:31  5-MIN KABI 100955Z 36008KT 9SM OVC003 12/12 A2994 1770 96 1900 350/08 RMK AO2 T01220117
13962KABI ABI20160310040010603/10/16 04:00:31  5-MIN KABI 101000Z 36010KT 9SM OVC004 12/12 A2994 1770 96 1900 360/10 RMK AO2 T01220117
13962KABI ABI20160310040510603/10/16 04:05:31  5-MIN KABI 101005Z 36010KT 9SM OVC004 12/12 A2994 1770 96 1900 360/10 RMK AO2 T01220117
13962KABI ABI20160310041010703/10/16 04:10:31  5-MIN KABI 101010Z 01009KT 10SM OVC004 12/12 A2994 1770 96 1900 360/09 RMK AO2 T01220117
13962KABI ABI20160310041511903/10/16 04:15:31  5-MIN KABI 101015Z 36010KT 10SM OVC005 12/12 A2994 1770 96 1900 360/10 RMK AO2 CIG 004V009 T01220117
13962KABI ABI20160310042012603/10/16 04:20:31  5-MIN KABI 101020Z 36010KT 10SM BKN005 OVC013 12/12 A2994 1770 96 1900 360/10 RMK AO2 CIG 004V009 T01220117
13962KABI ABI20160310042512603/10/16 04:25:31  5-MIN KABI 101025Z 36011KT 10SM BKN005 OVC013 12/11 A2995 1770 93 1900 360/11 RMK AO2 CIG 004V009 T01220111
13962KABI ABI20160310043012603/10/16 04:30:31  5-MIN KABI 101030Z 01009KT 10SM BKN005 OVC015 12/11 A2995 1770 93 1900 360/09 RMK AO2 CIG 004V009 T01220111
13962KABI ABI20160310043512103/10/16 04:35:31  5-MIN KABI 101035Z 01010KT 10SM SCT006 BKN015 OVC020 12/11 A2995 1770 93 1900 360/10 RMK AO2 T01220111
13962KABI ABI20160310044012003/10/16 04:40:31  5-MIN KABI 101040Z 01009KT 9SM BKN006 BKN015 OVC020 12/12 A2994 1770 96 1900 010/09 RMK AO2 T01220117
13962KABI ABI20160310044512003/10/16 04:45:31  5-MIN KABI 101045Z 02009KT 9SM BKN006 BKN015 OVC020 12/12 A2995 1770 96 1900 010/09 RMK AO2 T01220117
13962KABI ABI20160310045012703/10/16 04:50:31  5-MIN KABI 101050Z 02008KT 8SM BKN006 BKN015 OVC020 12/12 A2995 1770 96 1900 010/08 RMK AO2 SLP130 T01220117
13962KABI ABI20160310045511303/10/16 04:55:31  5-MIN KABI 101055Z 01010KT 8SM BKN005 OVC018 12/12 A2995 1760 96 1900 360/10 RMK AO2 T01220117
13962KABI ABI20160310050011303/10/16 05:00:31  5-MIN KABI 101100Z 01008KT 8SM BKN005 OVC020 12/12 A2995 1760 96 1900 010/08 RMK AO2 T01220117
13962KABI ABI20160310050511303/10/16 05:05:31  5-MIN KABI 101105Z 02007KT 7SM BKN005 OVC020 12/12 A2995 1760 96 1900 010/07 RMK AO2 T01220117
13962KABI ABI20160310051010603/10/16 05:10:31  5-MIN KABI 101110Z 02007KT 7SM OVC005 12/12 A2996 1760 96 1900 010/07 RMK AO2 T01220117
13962KABI ABI20160310051510603/10/16 05:15:31  5-MIN KABI 101115Z 01008KT 7SM OVC005 12/12 A2996 1760 96 1900 360/08 RMK AO2 T01220117
13962KABI ABI20160310052010603/10/16 05:20:31  5-MIN KABI 101120Z 01009KT 7SM OVC005 12/12 A2996 1760 96 1900 360/09 RMK AO2 T01220117
13962KABI ABI20160310052510603/10/16 05:25:31  5-MIN KABI 101125Z 01009KT 7SM OVC005 12/12 A2996 1760 96 1900 360/09 RMK AO2 T01220117
13962KABI ABI20160310053010903/10/16 05:30:31  5-MIN KABI 101130Z 36010KT 6SM BR OVC005 12/12 A2996 1760 96 1900 360/10 RMK AO2 T01220117
13962KABI ABI20160310053510903/10/16 05:35:31  5-MIN KABI 101135Z 36009KT 6SM BR OVC005 12/12 A2996 1760 96 1900 360/09 RMK AO2 T01220117
13962KABI ABI20160310054010903/10/16 05:40:31  5-MIN KABI 101140Z 01010KT 6SM BR OVC005 12/12 A2996 1760 96 1900 360/10 RMK AO2 T01220117
13962KABI ABI20160310054510603/10/16 05:45:31  5-MIN KABI 101145Z 01009KT 7SM OVC005 12/12 A2996 1760 96 1900 360/09 RMK AO2 T01220117
13962KABI ABI20160310055013703/10/16 05:50:31  5-MIN KABI 101150Z 01010KT 7SM OVC005 12/12 A2996 1750 96 1900 360/10 RMK AO2 SLP136 70002 T01220117 10128 20122 58004
13962KABI ABI20160310055510603/10/16 05:55:31  5-MIN KABI 101155Z 01010KT 7SM OVC005 12/12 A2996 1750 96 1900 360/10 RMK AO2 T01220117
13962KABI ABI20160310060010603/10/16 06:00:31  5-MIN KABI 101200Z 01010KT 7SM OVC005 12/12 A2996 1750 96 1900 360/10 RMK AO2 T01220117
13962KABI ABI20160310060510603/10/16 06:05:31  5-MIN KABI 101205Z 01009KT 7SM OVC005 12/12 A2997 1750 96 1900 360/09 RMK AO2 T01220117
13962KABI ABI20160310061010903/10/16 06:10:31  5-MIN KABI 101210Z 01010KT 6SM BR OVC005 12/12 A2996 1750 96 1900 360/10 RMK AO2 T01220117
13962KABI ABI20160310061510903/10/16 06:15:31  5-MIN KABI 101215Z 01011KT 6SM BR OVC005 12/12 A2996 1750 96 1900 360/11 RMK AO2 T01220117
13962KABI ABI20160310062010903/10/16 06:20:31  5-MIN KABI 101220Z 36010KT 6SM BR OVC005 12/12 A2997 1750 96 1900 360/10 RMK AO2 T01220117
13962KABI ABI20160310062510903/10/16 06:25:31  5-MIN KABI 101225Z 36008KT 6SM BR OVC005 12/12 A2997 1740 96 1900 360/08 RMK AO2 T01220117
13962KABI ABI20160310063010903/10/16 06:30:31  5-MIN KABI 101230Z 36011KT 6SM BR OVC005 12/12 A2997 1740 96 1900 360/11 RMK AO2 T01220117
13962KABI ABI20160310063510903/10/16 06:35:31  5-MIN KABI 101235Z 01010KT 6SM BR OVC005 12/12 A2998 1740 96 1900 010/10 RMK AO2 T01220117
13962KABI ABI20160310064010903/10/16 06:40:31  5-MIN KABI 101240Z 01008KT 6SM BR OVC005 12/12 A2998 1740 96 1900 010/08 RMK AO2 T01220117
13962KABI ABI20160310064510903/10/16 06:45:31  5-MIN KABI 101245Z 01008KT 6SM BR OVC005 12/12 A2998 1740 96 1900 010/08 RMK AO2 T01220117
13962KABI ABI20160310065011603/10/16 06:50:31  5-MIN KABI 101250Z 01008KT 6SM BR OVC005 12/12 A2998 1740 96 1900 360/08 RMK AO2 SLP142 T01220117
13962KABI ABI20160310065510903/10/16 06:55:31  5-MIN KABI 101255Z 36010KT 6SM BR OVC005 12/12 A2998 1740 96 1900 360/10 RMK AO2 T01220117
13962KABI ABI20160310070010903/10/16 07:00:31  5-MIN KABI 101300Z 36010KT 6SM BR OVC005 12/12 A2999 1730 96 1800 350/10 RMK AO2 T01220117
13962KABI ABI20160310070510903/10/16 07:05:31  5-MIN KABI 101305Z 36008KT 6SM BR OVC005 12/12 A2999 1730 96 1800 360/08 RMK AO2 T01220117
13962KABI ABI20160310071010903/10/16 07:10:31  5-MIN KABI 101310Z 36008KT 6SM BR OVC005 12/12 A2999 1730 96 1800 350/08 RMK AO2 T01220117
13962KABI ABI20160310071510903/10/16 07:15:31  5-MIN KABI 101315Z 36008KT 5SM BR OVC005 12/12 A3000 1720 96 1800 350/08 RMK AO2 T01220117
13962KABI ABI20160310072010903/10/16 07:20:31  5-MIN KABI 101320Z 36009KT 5SM BR OVC005 12/12 A2999 1720 96 1800 360/09 RMK AO2 T01220117
13962KABI ABI20160310072510903/10/16 07:25:31  5-MIN KABI 101325Z 36008KT 5SM BR OVC005 12/12 A3000 1720 96 1800 360/08 RMK AO2 T01220117
13962KABI ABI20160310073010903/10/16 07:30:31  5-MIN KABI 101330Z 36009KT 5SM BR OVC005 12/12 A3000 1720 96 1800 350/09 RMK AO2 T01220117
13962KABI ABI20160310181511403/10/16 18:15:31  5-MIN KABI 110015Z 01010KT 10SM FEW026 BKN110 15/11 A3004 1680 77 2100 360/10 RMK AO2 T01500111
13962KABI ABI20160310182011403/10/16 18:20:31  5-MIN KABI 110020Z 36010KT 10SM FEW024 BKN110 15/11 A3004 1680 77 2100 360/10 RMK AO2 T01500111
13962KABI ABI20160310182511403/10/16 18:25:31  5-MIN KABI 110025Z 36010KT 10SM FEW024 BKN110 15/11 A3004 1680 77 2100 360/10 RMK AO2 T01500111
13962KABI ABI20160310183011403/10/16 18:30:31  5-MIN KABI 110030Z 36009KT 10SM FEW024 BKN110 15/11 A3004 1680 77 2100 350/09 RMK AO2 T01500111
13962KABI ABI20160310183511403/10/16 18:35:31  5-MIN KABI 110035Z 36010KT 10SM FEW024 OVC110 15/11 A3004 1690 77 2100 350/10 RMK AO2 T01500111
13962KABI ABI20160310184011403/10/16 18:40:31  5-MIN KABI 110040Z 36012KT 10SM FEW026 OVC110 15/11 A3004 1690 77 2100 350/12 RMK AO2 T01500111
13962KABI ABI20160310184511403/10/16 18:45:31  5-MIN KABI 110045Z 36011KT 10SM FEW026 OVC110 15/11 A3004 1680 77 2100 360/11 RMK AO2 T01500111
13962KABI ABI20160310185012103/10/16 18:50:31  5-MIN KABI 110050Z 36010KT 10SM FEW026 OVC110 15/11 A3004 1680 77 2100 360/10 RMK AO2 SLP161 T01500111
13962KABI ABI20160310185511403/10/16 18:55:31  5-MIN KABI 110055Z 36010KT 10SM FEW026 OVC110 15/11 A3004 1680 74 2100 360/10 RMK AO2 T01500106
13962KABI ABI20160310190012103/10/16 19:00:31  5-MIN KABI 110100Z 36010KT 10SM FEW026 FEW075 OVC100 15/11 A3004 1680 74 2100 360/10 RMK AO2 T01500106
13962KABI ABI20160310190512103/10/16 19:05:31  5-MIN KABI 110105Z 01010KT 10SM FEW055 SCT075 OVC100 15/11 A3005 1680 74 2100 360/10 RMK AO2 T01500106
13962KABI ABI20160310191012103/10/16 19:10:31  5-MIN KABI 110110Z 01009KT 10SM FEW055 BKN080 OVC100 15/11 A3005 1670 74 2100 360/09 RMK AO2 T01500106
13962KABI ABI20160310191513003/10/16 19:15:31  5-MIN KABI 110115Z 01009KT 10SM -RA FEW050 OVC085 15/11 A3005 1670 77 2100 360/09 RMK AO2 RAB12 P0000 T01500111
13962KABI ABI20160310192013003/10/16 19:20:31  5-MIN KABI 110120Z 02007KT 10SM -RA FEW055 OVC090 14/11 A3005 1670 80 2000 010/07 RMK AO2 RAB12 P0000 T01440111
13962KABI ABI20160310192513003/10/16 19:25:31  5-MIN KABI 110125Z 02007KT 10SM -RA FEW055 OVC090 14/11 A3005 1670 80 2000 010/07 RMK AO2 RAB12 P0000 T01440111
13962KABI ABI20160310193013703/10/16 19:30:31  5-MIN KABI 110130Z 02007KT 10SM -RA FEW055 FEW075 OVC090 14/11 A3005 1670 80 2000 020/07 RMK AO2 RAB12 P0001 T01440111
13962KABI ABI20160310193512303/10/16 19:35:31  5-MIN KABI 110135Z 03006KT 10SM -RA OVC090 14/11 A3006 1670 83 2000 020/06 RMK AO2 RAB12 P0001 T01390111
13962KABI ABI20160310194012303/10/16 19:40:31  5-MIN KABI 110140Z 03005KT 10SM -RA OVC090 14/11 A3006 1670 83 2000 020/05 RMK AO2 RAB12 P0001 T01390111
13962KABI ABI20160310194512303/10/16 19:45:31  5-MIN KABI 110145Z 02005KT 10SM -RA OVC090 14/11 A3006 1670 83 2000 020/05 RMK AO2 RAB12 P0001 T01390111
13962KABI ABI20160310195013003/10/16 19:50:31  5-MIN KABI 110150Z 02005KT 10SM -RA OVC090 14/12 A3005 1670 86 2000 010/05 RMK AO2 RAB12 SLP167 P0001 T01390117
13962KABI ABI20160310195511703/10/16 19:55:31  5-MIN KABI 110155Z 01005KT 10SM -RA OVC090 14/12 A3005 1670 86 2000 360/05 RMK AO2 P0000 T01390117
13962KABI ABI20160310200011903/10/16 20:00:31  5-MIN KABI 110200Z 01004KT 10SM OVC090 14/12 A3005 1670 86 2000 010/04 RMK AO2 RAE00 P0000 T01390117
13962KABI ABI20160310200511903/10/16 20:05:31  5-MIN KABI 110205Z 02003KT 10SM OVC090 14/12 A3006 1670 86 2000 010/03 RMK AO2 RAE00 P0000 T01390117
13962KABI ABI20160310201011903/10/16 20:10:31  5-MIN KABI 110210Z 03004KT 10SM OVC090 14/12 A3006 1660 86 2000 020/04 RMK AO2 RAE00 P0000 T01390117
13962KABI ABI20160310201511903/10/16 20:15:31  5-MIN KABI 110215Z 02004KT 10SM OVC090 14/12 A3006 1660 86 2000 020/04 RMK AO2 RAE00 P0000 T01390117
13962KABI ABI20160310202011903/10/16 20:20:31  5-MIN KABI 110220Z 02004KT 10SM OVC090 14/12 A3006 1660 86 2000 020/04 RMK AO2 RAE00 P0000 T01390117
13962KABI ABI20160310202511903/10/16 20:25:31  5-MIN KABI 110225Z 03004KT 10SM OVC090 14/12 A3007 1660 86 2000 030/04 RMK AO2 RAE00 P0000 T01390117
13962KABI ABI20160310203012603/10/16 20:30:31  5-MIN KABI 110230Z 03004KT 10SM -RA OVC085 14/12 A3007 1650 86 1900 020/04 RMK AO2 RAE00B29 P0000 T01390117
13962KABI ABI20160310203512603/10/16 20:35:31  5-MIN KABI 110235Z 04004KT 10SM -RA OVC085 14/12 A3007 1650 86 1900 030/04 RMK AO2 RAE00B29 P0000 T01390117
13962KABI ABI20160310204012603/10/16 20:40:31  5-MIN KABI 110240Z 02004KT 10SM -RA OVC085 14/12 A3008 1650 86 1900 020/04 RMK AO2 RAE00B29 P0000 T01390117
13962KABI ABI20160310204512603/10/16 20:45:31  5-MIN KABI 110245Z 02004KT 10SM -RA OVC085 14/12 A3008 1650 86 1900 010/04 RMK AO2 RAE00B29 P0000 T01390117
13962KABI ABI20160310205014403/10/16 20:50:31  5-MIN KABI 110250Z 01006KT 10SM OVC085 14/12 A3007 1650 86 1900 360/06 RMK AO2 RAE00B29E46 SLP174 P0000 60001 T01390117 51009
13962KABI ABI20160310205510703/10/16 20:55:31  5-MIN KABI 110255Z 36006KT 10SM OVC085 14/12 A3007 1650 86 1900 360/06 RMK AO2 T01390117
13962KABI ABI20160310210010703/10/16 21:00:31  5-MIN KABI 110300Z 01005KT 10SM OVC085 14/12 A3008 1650 86 1900 010/05 RMK AO2 T01390117
13962KABI ABI20160310210510703/10/16 21:05:31  5-MIN KABI 110305Z 02004KT 10SM OVC085 14/12 A3008 1640 86 1900 020/04 RMK AO2 T01390117
13962KABI ABI20160310211010703/10/16 21:10:31  5-MIN KABI 110310Z 01004KT 10SM OVC085 14/12 A3008 1640 86 1900 010/04 RMK AO2 T01390117
13962KABI ABI20160310211510703/10/16 21:15:31  5-MIN KABI 110315Z 01005KT 10SM OVC085 14/12 A3008 1650 86 1900 010/05 RMK AO2 T01390117
13962KABI ABI20160310212010703/10/16 21:20:31  5-MIN KABI 110320Z 02004KT 10SM OVC085 14/12 A3008 1640 86 1900 020/04 RMK AO2 T01390117
13962KABI ABI20160310212510703/10/16 21:25:31  5-MIN KABI 110325Z 03004KT 10SM OVC085 14/12 A3008 1640 86 1900 020/04 RMK AO2 T01390117
13962KABI ABI20160310213010703/10/16 21:30:31  5-MIN KABI 110330Z 03004KT 10SM OVC080 14/12 A3009 1640 86 1900 030/04 RMK AO2 T01390117
13962KABI ABI20160310213510703/10/16 21:35:31  5-MIN KABI 110335Z 03005KT 10SM OVC080 14/12 A3009 1640 86 1900 020/05 RMK AO2 T01390117
13962KABI ABI20160310214011403/10/16 21:40:31  5-MIN KABI 110340Z 03005KT 10SM FEW048 OVC080 14/12 A3009 1640 86 1900 030/05 RMK AO2 T01390117
13962KABI ABI20160310214511403/10/16 21:45:31  5-MIN KABI 110345Z 03005KT 10SM SCT048 OVC080 14/12 A3009 1640 86 1900 020/05 RMK AO2 T01390117
13962KABI ABI20160310215012103/10/16 21:50:31  5-MIN KABI 110350Z 03005KT 10SM BKN048 OVC085 14/12 A3009 1640 86 1900 030/05 RMK AO2 SLP178 T01390117
13962KABI ABI20160310215511403/10/16 21:55:31  5-MIN KABI 110355Z 03005KT 10SM BKN048 OVC080 14/12 A3009 1640 86 1900 020/05 RMK AO2 T01390117
13962KABI ABI20160310220011403/10/16 22:00:31  5-MIN KABI 110400Z 03006KT 10SM BKN047 OVC080 14/12 A3009 1640 86 1900 030/06 RMK AO2 T01390117
13962KABI ABI20160310220511403/10/16 22:05:31  5-MIN KABI 110405Z 03007KT 10SM BKN047 OVC080 14/12 A3008 1640 86 1900 020/07 RMK AO2 T01390117
13962KABI ABI20160310221011403/10/16 22:10:31  5-MIN KABI 110410Z 03007KT 10SM BKN046 OVC080 14/12 A3008 1640 86 1900 020/07 RMK AO2 T01390117
13962KABI ABI20160310221512103/10/16 22:15:31  5-MIN KABI 110415Z 02008KT 10SM BKN046 BKN065 OVC080 14/11 A3008 1640 83 1900 010/08 RMK AO2 T01390111
13962KABI ABI20160310222012103/10/16 22:20:31  5-MIN KABI 110420Z 02008KT 10SM BKN044 BKN065 OVC080 14/11 A3008 1640 83 1900 020/08 RMK AO2 T01390111
13962KABI ABI20160310222511403/10/16 22:25:31  5-MIN KABI 110425Z 03008KT 10SM BKN044 OVC080 14/11 A3009 1640 83 1900 020/08 RMK AO2 T01390111
13962KABI ABI20160310223011403/10/16 22:30:31  5-MIN KABI 110430Z 03006KT 10SM BKN042 OVC080 14/11 A3009 1640 83 1900 020/06 RMK AO2 T01390111
13962KABI ABI20160310223510703/10/16 22:35:31  5-MIN KABI 110435Z 03008KT 10SM OVC042 14/11 A3009 1630 80 2000 030/08 RMK AO2 T01440111
13962KABI ABI20160310224010703/10/16 22:40:31  5-MIN KABI 110440Z 03007KT 10SM OVC042 14/11 A3009 1640 80 2000 020/07 RMK AO2 T01440111
13962KABI ABI20160310224510703/10/16 22:45:31  5-MIN KABI 110445Z 02008KT 10SM OVC040 14/11 A3009 1640 77 2000 020/08 RMK AO2 T01440106
13962KABI ABI20160310225011403/10/16 22:50:31  5-MIN KABI 110450Z 02007KT 10SM OVC040 14/11 A3008 1640 80 1900 020/07 RMK AO2 SLP177 T01390106
13962KABI ABI20160310225510703/10/16 22:55:31  5-MIN KABI 110455Z 02007KT 10SM OVC040 14/11 A3008 1640 80 1900 010/07 RMK AO2 T01390106
13962KABI ABI20160310230010703/10/16 23:00:31  5-MIN KABI 110500Z 02007KT 10SM OVC039 14/11 A3008 1640 80 1900 010/07 RMK AO2 T01390106
13962KABI ABI20160310230510703/10/16 23:05:31  5-MIN KABI 110505Z 03006KT 10SM OVC039 14/11 A3009 1640 80 1900 020/06 RMK AO2 T01390106
13962KABI ABI20160310231012303/10/16 23:10:31  5-MIN KABI 110510Z 02007KT 10SM -RA OVC038 14/11 A3009 1640 80 1900 020/07 RMK AO2 RAB10 P0000 T01390106
13962KABI ABI20160310231512303/10/16 23:15:31  5-MIN KABI 110515Z 02007KT 10SM -RA OVC038 14/11 A3009 1640 80 1900 010/07 RMK AO2 RAB10 P0000 T01390106
13962KABI ABI20160310232013003/10/16 23:20:31  5-MIN KABI 110520Z 03006KT 10SM -RA BKN038 OVC085 14/11 A3009 1640 80 1900 020/06 RMK AO2 RAB10 P0000 T01390106
13962KABI ABI20160310232512903/10/16 23:25:31  5-MIN KABI 110525Z 04007KT 10SM BKN040 OVC085 14/11 A3009 1640 80 1900 030/07 RMK AO2 RAB10E24 P0000 T01390106
13962KABI ABI20160310233012203/10/16 23:30:31  5-MIN KABI 110530Z 04008KT 10SM OVC040 14/10 A3009 1640 77 1900 030/08 RMK AO2 RAB10E24 P0000 T01390100
13962KABI ABI20160310233512203/10/16 23:35:31  5-MIN KABI 110535Z 04007KT 10SM OVC040 14/10 A3009 1640 77 1900 030/07 RMK AO2 RAB10E24 P0000 T01390100
13962KABI ABI20160310234012203/10/16 23:40:31  5-MIN KABI 110540Z 04007KT 10SM OVC040 14/11 A3009 1640 80 1900 040/07 RMK AO2 RAB10E24 P0000 T01390106
13962KABI ABI20160310234512203/10/16 23:45:31  5-MIN KABI 110545Z 04008KT 10SM OVC040 14/10 A3009 1640 77 1900 040/08 RMK AO2 RAB10E24 P0000 T01390100
13962KABI ABI20160310235017003/10/16 23:50:31  5-MIN KABI 110550Z 04006KT 10SM -RA OVC041 14/11 A3009 1640 80 1900 030/06 RMK AO2 RAB10E24B46 SLP179 P0000 60001 T01390106 10156 20139 401560122 53014
13962KABI ABI20160310235511703/10/16 23:55:31  5-MIN KABI 110555Z 04009KT 10SM -RA OVC041 14/11 A3009 1630 80 1900 040/09 RMK AO2 P0000 T01390106
13962KABI ABI20160311000012103/11/16 00:00:31  5-MIN KABI 110600Z 04009KT 10SM OVC043 14/10 A3009 1640 77 1900 040/09 RMK AO2 RAE0556 P0000 T01390100
13962KABI ABI20160311000512803/11/16 00:05:31  5-MIN KABI 110605Z 04010KT 10SM BKN043 OVC065 14/11 A3009 1640 80 1900 040/10 RMK AO2 RAE0556 P0000 T01390106
13962KABI ABI20160311001012103/11/16 00:10:31  5-MIN KABI 110610Z 04009KT 10SM OVC042 14/11 A3009 1640 80 1900 040/09 RMK AO2 RAE0556 P0000 T01390106
13962KABI ABI20160311001512103/11/16 00:15:31  5-MIN KABI 110615Z 04009KT 10SM OVC042 14/11 A3009 1640 80 1900 040/09 RMK AO2 RAE0556 P0000 T01390106
13962KABI ABI20160311002012103/11/16 00:20:31  5-MIN KABI 110620Z 04009KT 10SM OVC042 14/10 A3008 1640 77 1900 030/09 RMK AO2 RAE0556 P0000 T01390100
13962KABI ABI20160311002512103/11/16 00:25:31  5-MIN KABI 110625Z 03010KT 10SM OVC042 14/10 A3008 1640 77 1900 030/10 RMK AO2 RAE0556 P0000 T01390100
13962KABI ABI20160311003012103/11/16 00:30:31  5-MIN KABI 110630Z 03007KT 10SM OVC042 14/10 A3008 1640 77 1900 030/07 RMK AO2 RAE0556 P0000 T01390100
13962KABI ABI20160311003512103/11/16 00:35:31  5-MIN KABI 110635Z 03007KT 10SM OVC042 14/10 A3008 1640 77 1900 030/07 RMK AO2 RAE0556 P0000 T01390100
13962KABI ABI20160311004012803/11/16 00:40:31  5-MIN KABI 110640Z 03008KT 10SM BKN042 OVC048 14/10 A3008 1640 77 1900 030/08 RMK AO2 RAE0556 P0000 T01390100
13962KABI ABI20160311004512103/11/16 00:45:31  5-MIN KABI 110645Z 03009KT 10SM OVC044 13/10 A3009 1640 80 1900 030/09 RMK AO2 RAE0556 P0000 T01330100
13962KABI ABI20160311005013503/11/16 00:50:31  5-MIN KABI 110650Z 03009KT 10SM SCT041 OVC048 13/10 A3009 1640 80 1900 030/09 RMK AO2 RAE0556 SLP178 P0000 T01330100
13962KABI ABI20160311005511403/11/16 00:55:31  5-MIN KABI 110655Z 04008KT 10SM BKN041 OVC048 13/10 A3009 1640 80 1900 030/08 RMK AO2 T01330100
13962KABI ABI20160311010011403/11/16 01:00:31  5-MIN KABI 110700Z 04007KT 10SM BKN039 OVC048 13/11 A3009 1630 83 1900 040/07 RMK AO2 T01330106
13962KABI ABI20160311010512103/11/16 01:05:31  5-MIN KABI 110705Z 05008KT 10SM FEW018 BKN039 OVC048 13/11 A3009 1630 83 1900 050/08 RMK AO2 T01330106
13962KABI ABI20160311011012103/11/16 01:10:31  5-MIN KABI 110710Z 05008KT 10SM SCT018 BKN037 OVC048 13/11 A3009 1630 83 1900 050/08 RMK AO2 T01330106
13962KABI ABI20160311011511403/11/16 01:15:31  5-MIN KABI 110715Z 05008KT 10SM BKN016 OVC037 13/11 A3009 1630 83 1900 040/08 RMK AO2 T01330106
13962KABI ABI20160311012011303/11/16 01:20:31  5-MIN KABI 110720Z 05008KT 9SM BKN016 OVC037 13/11 A3009 1630 83 1900 040/08 RMK AO2 T01330106
13962KABI ABI20160311012511303/11/16 01:25:31  5-MIN KABI 110725Z 04008KT 7SM BKN016 OVC037 13/11 A3009 1640 86 1900 030/08 RMK AO2 T01330111
13962KABI ABI20160311013011603/11/16 01:30:31  5-MIN KABI 110730Z 02008KT 6SM BR BKN016 OVC037 13/11 A3009 1640 89 1800 020/08 RMK AO2 T01280111
13962KABI ABI20160311013511303/11/16 01:35:31  5-MIN KABI 110735Z 03007KT 7SM BKN016 OVC037 12/11 A3009 1630 93 1700 020/07 RMK AO2 T01220111
13962KABI ABI20160311014011303/11/16 01:40:31  5-MIN KABI 110740Z 03008KT 7SM BKN014 OVC037 12/11 A3009 1640 93 1700 020/08 RMK AO2 T01220111
13962KABI ABI20160311014512903/11/16 01:45:31  5-MIN KABI 110745Z 02007KT 8SM -RA BKN012 OVC037 12/11 A3009 1640 93 1700 020/07 RMK AO2 RAB44 P0000 T01220111
13962KABI ABI20160311015013603/11/16 01:50:31  5-MIN KABI 110750Z 02008KT 8SM -RA BKN012 OVC037 12/11 A3009 1640 93 1700 020/08 RMK AO2 RAB44 SLP179 P0000 T01220111
13962KABI ABI20160311015512403/11/16 01:55:31  5-MIN KABI 110755Z 01009KT 10SM -RA BKN012 OVC037 12/11 A3008 1640 93 1700 010/09 RMK AO2 P0000 T01220111
13962KABI ABI20160311020013103/11/16 02:00:31  5-MIN KABI 110800Z 02010KT 10SM -RA BKN011 BKN026 OVC035 12/11 A3008 1640 93 1700 010/10 RMK AO2 P0000 T01220111
13962KABI ABI20160311020513303/11/16 02:05:31  5-MIN KABI 110805Z 02007KT 10SM BKN011 BKN026 OVC035 12/11 A3008 1640 93 1700 020/07 RMK AO2 RAE01 P0000 T01220111
13962KABI ABI20160311021012603/11/16 02:10:31  5-MIN KABI 110810Z 02008KT 10SM BKN011 OVC026 12/11 A3008 1640 93 1700 010/08 RMK AO2 RAE01 P0000 T01220111
13962KABI ABI20160311021512603/11/16 02:15:31  5-MIN KABI 110815Z 01010KT 10SM SCT011 OVC026 12/11 A3008 1650 93 1700 010/10 RMK AO2 RAE01 P0000 T01220111
13962KABI ABI20160311022012603/11/16 02:20:31  5-MIN KABI 110820Z 01008KT 10SM SCT011 OVC028 12/11 A3008 1650 93 1700 010/08 RMK AO2 RAE01 P0000 T01220111
13962KABI ABI20160311022512603/11/16 02:25:31  5-MIN KABI 110825Z 01009KT 10SM SCT011 OVC028 12/11 A3007 1650 93 1700 360/09 RMK AO2 RAE01 P0000 T01220111
13962KABI ABI20160311023012603/11/16 02:30:31  5-MIN KABI 110830Z 01010KT 10SM FEW011 OVC028 12/11 A3007 1650 93 1800 360/10 RMK AO2 RAE01 P0000 T01220111
13962KABI ABI20160311023512603/11/16 02:35:31  5-MIN KABI 110835Z 01009KT 10SM FEW011 OVC028 12/11 A3007 1660 93 1800 360/09 RMK AO2 RAE01 P0000 T01220111
13962KABI ABI20160311024013303/11/16 02:40:31  5-MIN KABI 110840Z 36010KT 10SM SCT013 BKN025 OVC030 13/11 A3007 1660 89 1800 360/10 RMK AO2 RAE01 P0000 T01280111
13962KABI ABI20160311024512603/11/16 02:45:31  5-MIN KABI 110845Z 36010KT 10SM BKN013 OVC027 13/11 A3006 1660 89 1800 360/10 RMK AO2 RAE01 P0000 T01280111
13962KABI ABI20160311025014503/11/16 02:50:31  5-MIN KABI 110850Z 36011KT 10SM BKN013 OVC027 12/11 A3007 1660 93 1800 360/11 RMK AO2 RAE01 SLP171 P0000 60000 T01220111 58008
13962KABI ABI20160311025511403/11/16 02:55:31  5-MIN KABI 110855Z 01009KT 10SM BKN013 OVC025 12/11 A3007 1660 93 1800 360/09 RMK AO2 T01220111
13962KABI ABI20160311030011403/11/16 03:00:31  5-MIN KABI 110900Z 01010KT 10SM BKN013 OVC025 12/11 A3007 1660 93 1800 360/10 RMK AO2 T01220111
13962KABI ABI20160311030510603/11/16 03:05:31  5-MIN KABI 110905Z 36011KT 9SM OVC011 12/11 A3006 1660 93 1800 360/11 RMK AO2 T01220111
13962KABI ABI20160311031011803/11/16 03:10:31  5-MIN KABI 110910Z 36011KT 9SM OVC011 12/11 A3006 1660 93 1800 360/11 RMK AO2 CIG 007V014 T01220111
13962KABI ABI20160311031511803/11/16 03:15:31  5-MIN KABI 110915Z 36011KT 8SM OVC011 12/11 A3007 1660 93 1800 360/11 RMK AO2 CIG 006V014 T01220111
13962KABI ABI20160311032012503/11/16 03:20:31  5-MIN KABI 110920Z 01009KT 8SM BKN008 OVC012 12/11 A3007 1660 96 1700 360/09 RMK AO2 CIG 005V010 T01170111
13962KABI ABI20160311032511803/11/16 03:25:31  5-MIN KABI 110925Z 36011KT 8SM OVC008 12/11 A3007 1660 96 1700 360/11 RMK AO2 CIG 005V010 T01170111
13962KABI ABI20160311033011803/11/16 03:30:31  5-MIN KABI 110930Z 36011KT 8SM OVC006 12/11 A3006 1660 96 1700 360/11 RMK AO2 CIG 005V010 T01170111
13962KABI ABI20160311033512503/11/16 03:35:31  5-MIN KABI 110935Z 36011KT 9SM BKN006 OVC010 12/11 A3006 1660 93 1700 360/11 RMK AO2 CIG 005V009 T01170106
13962KABI ABI20160311034011403/11/16 03:40:31  5-MIN KABI 110940Z 36011KT 10SM SCT006 OVC010 12/11 A3006 1660 93 1700 360/11 RMK AO2 T01170106
13962KABI ABI20160311034511403/11/16 03:45:31  5-MIN KABI 110945Z 01010KT 10SM SCT006 OVC010 12/11 A3006 1660 93 1700 360/10 RMK AO2 T01170106
13962KABI ABI20160311035010403/11/16 03:50:31  5-MIN KABI 110950Z 36010KT 10SM FEW006 OVC011 12/11 A3006 1670 93 1700 360/10 RMK AO2
13962KABI ABI20160311035511403/11/16 03:55:31  5-MIN KABI 110955Z 36011KT 10SM FEW006 OVC011 12/11 A3006 1670 93 1700 360/11 RMK AO2 T01170106
13962KABI ABI20160311040010703/11/16 04:00:31  5-MIN KABI 111000Z 36011KT 10SM OVC011 12/11 A3006 1670 93 1700 360/11 RMK AO2 T01170106
13962KABI ABI20160311040510703/11/16 04:05:31  5-MIN KABI 111005Z 01009KT 10SM OVC013 12/11 A3006 1670 93 1700 360/09 RMK AO2 T01170106
13962KABI ABI20160311041010703/11/16 04:10:31  5-MIN KABI 111010Z 36009KT 10SM OVC013 12/11 A3005 1670 93 1700 360/09 RMK AO2 T01170106
13962KABI ABI20160311041510703/11/16 04:15:31  5-MIN KABI 111015Z 36009KT 10SM OVC013 12/11 A3005 1680 93 1700 360/09 RMK AO2 T01170106
13962KABI ABI20160311042010703/11/16 04:20:31  5-MIN KABI 111020Z 35008KT 10SM OVC013 12/11 A3005 1680 93 1700 340/08 RMK AO2 T01170106
13962KABI ABI20160311042509703/11/16 04:25:31  5-MIN KABI 111025Z 10SM OVC013 12/11 A3004 1680 93 1700 M /M RMK AO2 T01170106
13962KABI ABI20160311043009703/11/16 04:30:31  5-MIN KABI 111030Z 10SM OVC013 12/11 A3005 1680 93 1700 M /M RMK AO2 T01170106
13962KABI ABI20160311043510703/11/16 04:35:31  5-MIN KABI 111035Z 36009KT 10SM OVC011 12/10 A3005 1680 89 1700 360/09 RMK AO2 T01170100
13962KABI ABI20160311044010703/11/16 04:40:31  5-MIN KABI 111040Z 01011KT 10SM OVC011 12/10 A3005 1680 89 1700 360/11 RMK AO2 T01170100
13962KABI ABI20160311044511903/11/16 04:45:31  5-MIN KABI 111045Z 01010KT 10SM OVC011 12/10 A3005 1680 89 1700 360/10 RMK AO2 CIG 009V013 T01170100
13962KABI ABI20160311045010903/11/16 04:50:31  5-MIN KABI 111050Z 02009KT 10SM OVC009 12/10 A3005 1670 89 1700 010/09 RMK AO2 CIG 009V013
13962KABI ABI20160311045510703/11/16 04:55:31  5-MIN KABI 111055Z 01011KT 10SM OVC009 12/11 A3005 1670 93 1700 360/11 RMK AO2 T01170106
13962KABI ABI20160311050010703/11/16 05:00:31  5-MIN KABI 111100Z 01008KT 10SM OVC010 12/11 A3005 1670 93 1700 360/08 RMK AO2 T01170106
13962KABI ABI20160311050510703/11/16 05:05:31  5-MIN KABI 111105Z 36008KT 10SM OVC010 12/11 A3006 1670 93 1700 360/08 RMK AO2 T01170106
13962KABI ABI20160311051010703/11/16 05:10:31  5-MIN KABI 111110Z 36009KT 10SM OVC010 12/11 A3005 1670 93 1700 360/09 RMK AO2 T01170106
13962KABI ABI20160311051510703/11/16 05:15:31  5-MIN KABI 111115Z 01009KT 10SM OVC010 12/11 A3006 1670 93 1700 360/09 RMK AO2 T01170106
13962KABI ABI20160311052010703/11/16 05:20:31  5-MIN KABI 111120Z 01011KT 10SM OVC010 12/10 A3006 1670 89 1700 010/11 RMK AO2 T01170100
13962KABI ABI20160311052510703/11/16 05:25:31  5-MIN KABI 111125Z 01012KT 10SM OVC010 12/10 A3005 1670 89 1700 360/12 RMK AO2 T01170100
13962KABI ABI20160311053010703/11/16 05:30:31  5-MIN KABI 111130Z 36013KT 10SM OVC009 12/10 A3005 1680 89 1700 360/13 RMK AO2 T01170100
13962KABI ABI20160311053510703/11/16 05:35:31  5-MIN KABI 111135Z 36014KT 10SM OVC009 12/10 A3004 1680 89 1700 360/14 RMK AO2 T01170100
13962KABI ABI20160311054010703/11/16 05:40:31  5-MIN KABI 111140Z 01013KT 10SM OVC011 12/10 A3004 1690 89 1700 360/13 RMK AO2 T01170100
13962KABI ABI20160311054511403/11/16 05:45:31  5-MIN KABI 111145Z 36014KT 10SM OVC011 12/10 A3003 1690 89 1700 360/14 RMK AO2 PRESFR T01170100
13962KABI ABI20160311055009703/11/16 05:50:31  5-MIN KABI 111150Z 36013KT 10SM OVC011 12/10 A3003 1700 89 1700 350/13 RMK AO2
13962KABI ABI20160311055510703/11/16 05:55:31  5-MIN KABI 111155Z 36015KT 10SM OVC011 11/10 A3002 1700 93 1700 360/15 RMK AO2 T01110100
13962KABI ABI20160311060010703/11/16 06:00:31  5-MIN KABI 111200Z 01014KT 10SM OVC012 11/09 A3003 1690 89 1700 360/14 RMK AO2 T01110094
13962KABI ABI20160311060510703/11/16 06:05:31  5-MIN KABI 111205Z 01013KT 10SM OVC012 11/09 A3003 1690 89 1700 360/13 RMK AO2 T01110094
13962KABI ABI20160311061010703/11/16 06:10:31  5-MIN KABI 111210Z 01015KT 10SM OVC012 11/09 A3003 1690 89 1700 360/15 RMK AO2 T01110094
13962KABI ABI20160311061510703/11/16 06:15:31  5-MIN KABI 111215Z 01014KT 10SM OVC012 11/09 A3003 1690 89 1700 360/14 RMK AO2 T01110094
13962KABI ABI20160311062010703/11/16 06:20:31  5-MIN KABI 111220Z 01012KT 10SM OVC012 11/09 A3003 1690 89 1700 360/12 RMK AO2 T01110094
13962KABI ABI20160311062510703/11/16 06:25:31  5-MIN KABI 111225Z 01011KT 10SM OVC012 11/09 A3003 1690 89 1700 010/11 RMK AO2 T01110094
13962KABI ABI20160311063010703/11/16 06:30:31  5-MIN KABI 111230Z 01010KT 10SM OVC012 11/09 A3004 1690 86 1700 360/10 RMK AO2 T01110089
13962KABI ABI20160311063511303/11/16 06:35:31  5-MIN KABI 111235Z 01014G18KT 10SM OVC012 11/09 A3004 1690 86 1700 360/14G18 RMK AO2 T01110089
13962KABI ABI20160311064011303/11/16 06:40:31  5-MIN KABI 111240Z 01014G18KT 10SM OVC012 11/09 A3004 1680 86 1700 360/14G18 RMK AO2 T01110089
13962KABI ABI20160311064510703/11/16 06:45:31  5-MIN KABI 111245Z 02012KT 10SM OVC012 11/09 A3005 1670 86 1600 010/12 RMK AO2 T01110089
13962KABI ABI20160311065011403/11/16 06:50:31  5-MIN KABI 111250Z 02013KT 10SM OVC011 11/09 A3006 1670 86 1600 010/13 RMK AO2 SLP168 T01110089
13962KABI ABI20160311065510703/11/16 06:55:31  5-MIN KABI 111255Z 01011KT 10SM OVC011 11/09 A3006 1660 86 1600 010/11 RMK AO2 T01110089
13962KABI ABI20160311070010703/11/16 07:00:31  5-MIN KABI 111300Z 01012KT 10SM OVC010 11/09 A3006 1660 89 1600 010/12 RMK AO2 T01060089
13962KABI ABI20160311070510603/11/16 07:05:31  5-MIN KABI 111305Z 01012KT 9SM OVC010 11/09 A3006 1660 89 1600 010/12 RMK AO2 T01060089
13962KABI ABI20160311071011203/11/16 07:10:31  5-MIN KABI 111310Z 02010G17KT 7SM OVC009 11/09 A3006 1660 89 1600 010/10G17 RMK AO2 T01060089
13962KABI ABI20160311071512503/11/16 07:15:31  5-MIN KABI 111315Z 02012KT 5SM -RA BR OVC009 11/09 A3006 1660 93 1600 010/12 RMK AO2 RAB12 P0000 T01060094
13962KABI ABI20160311072012503/11/16 07:20:31  5-MIN KABI 111320Z 01010KT 5SM -RA BR OVC009 10/09 A3006 1670 96 1500 360/10 RMK AO2 RAB12 P0000 T01000094
13962KABI ABI20160311072512503/11/16 07:25:31  5-MIN KABI 111325Z 01013KT 5SM -RA BR OVC008 10/09 A3005 1670 96 1500 360/13 RMK AO2 RAB12 P0000 T01000094
13962KABI ABI20160311073012503/11/16 07:30:31  5-MIN KABI 111330Z 36012KT 4SM -RA BR OVC008 10/09 A3005 1670 96 1500 360/12 RMK AO2 RAB12 P0000 T01000094
13962KABI ABI20160311073512503/11/16 07:35:31  5-MIN KABI 111335Z 36014KT 3SM -RA BR OVC008 10/09 A3005 1670 96 1500 360/14 RMK AO2 RAB12 P0000 T01000094
13962KABI ABI20160311074012503/11/16 07:40:31  5-MIN KABI 111340Z 01011KT 4SM -RA BR OVC008 10/09 A3006 1670 96 1500 360/11 RMK AO2 RAB12 P0000 T01000094
13962KABI ABI20160311074512403/11/16 07:45:31  5-MIN KABI 111345Z 01010KT 6SM BR OVC008 11/09 A3006 1660 93 1600 360/10 RMK AO2 RAB12E45 P0000 T01060094
13962KABI ABI20160311075013803/11/16 07:50:31  5-MIN KABI 111350Z 01012G18KT 3SM -RA BR OVC008 11/09 A3006 1660 93 1600 360/12G18 RMK AO2 RAB12 SLP171 P0000 T01060094
13962KABI ABI20160311075512903/11/16 07:55:31  5-MIN KABI 111355Z 02012G18KT 1 1/2SM -RA BR OVC008 10/09 A3007 1660 96 1500 010/12G18 RMK AO2 P0001 T01000094
13962KABI ABI20160311080012303/11/16 08:00:31  5-MIN KABI 111400Z 01012KT 1 1/2SM -RA BR OVC006 10/09 A3007 1660 96 1500 360/12 RMK AO2 P0001 T01000094
13962KABI ABI20160311080513103/11/16 08:05:31  5-MIN KABI 111405Z 02009KT 2SM -RA BR OVC006 10/09 A3007 1650 96 1500 010/09 RMK AO2 CIG 004V009 P0001 T01000094
13962KABI ABI20160311081013603/11/16 08:10:31  5-MIN KABI 111410Z 02009KT 1 3/4SM -RA BR OVC006 10/10 A3007 1650 100 1500 010/09 RMK AO2 CIG 004V009 P0001 T01000100
13962KABI ABI20160311081512303/11/16 08:15:31  5-MIN KABI 111415Z 01010KT 1 1/4SM -RA BR OVC006 11/10 A3007 1660 96 1600 360/10 RMK AO2 P0001 T01060100
13962KABI ABI20160311082012303/11/16 08:20:31  5-MIN KABI 111420Z 36011KT 1 1/4SM -RA BR OVC005 11/10 A3006 1660 96 1600 360/11 RMK AO2 P0002 T01060100
13962KABI ABI20160311082513503/11/16 08:25:31  5-MIN KABI 111425Z 01010KT 1 1/4SM -RA BR OVC005 11/10 A3006 1660 96 1600 360/10 RMK AO2 CIG 003V008 P0002 T01060100
13962KABI ABI20160311083013503/11/16 08:30:31  5-MIN KABI 111430Z 36008KT 1 3/4SM -RA BR OVC005 11/10 A3006 1660 96 1600 350/08 RMK AO2 CIG 003V008 P0002 T01060100
13962KABI ABI20160311083513503/11/16 08:35:31  5-MIN KABI 111435Z 36010KT 2 1/2SM -RA BR OVC005 11/10 A3007 1660 96 1600 360/10 RMK AO2 CIG 002V008 P0002 T01060100
13962KABI ABI20160311084013703/11/16 08:40:31  5-MIN KABI 111440Z 36010KT 2 1/2SM BR OVC005 11/10 A3007 1660 96 1600 360/10 RMK AO2 RAE38 CIG 002V008 P0002 T01060100
13962KABI ABI20160311084513303/11/16 08:45:31  5-MIN KABI 111445Z 36011KT 3SM BR OVC004 11/10 A3007 1650 96 1600 350/11 RMK AO2 RAE38 CIG 002V008 P0002 T01060100
13962KABI ABI20160311085015203/11/16 08:50:31  5-MIN KABI 111450Z 36010KT 5SM BR OVC004 11/10 A3008 1650 96 1500 360/10 RMK AO2 RAE38 CIG 002V008 SLP176 P0002 60002 T01060100 58014
13962KABI ABI20160311085512103/11/16 08:55:31  5-MIN KABI 111455Z 36010KT 6SM BR OVC004 11/10 A3007 1650 96 1500 350/10 RMK AO2 CIG 002V008 T01060100
13962KABI ABI20160311090012803/11/16 09:00:31  5-MIN KABI 111500Z 01011KT 5SM BR BKN004 OVC010 11/10 A3007 1650 96 1600 360/11 RMK AO2 CIG 002V008 T01060100
13962KABI ABI20160311090512803/11/16 09:05:31  5-MIN KABI 111505Z 36012KT 4SM BR BKN005 OVC010 11/10 A3007 1650 96 1600 360/12 RMK AO2 CIG 003V007 T01060100
13962KABI ABI20160311091012103/11/16 09:10:31  5-MIN KABI 111510Z 36009KT 4SM BR OVC007 11/10 A3007 1650 96 1600 360/09 RMK AO2 CIG 003V011 T01060100
13962KABI ABI20160311091512103/11/16 09:15:31  5-MIN KABI 111515Z 36010KT 4SM BR OVC007 11/10 A3007 1650 96 1600 360/10 RMK AO2 CIG 004V011 T01060100
13962KABI ABI20160311092012103/11/16 09:20:31  5-MIN KABI 111520Z 36012KT 5SM BR OVC007 11/10 A3007 1650 96 1600 360/12 RMK AO2 CIG 004V011 T01060100
13962KABI ABI20160311092510903/11/16 09:25:31  5-MIN KABI 111525Z 36011KT 5SM BR OVC007 11/10 A3007 1650 96 1600 350/11 RMK AO2 T01060100
13962KABI ABI20160311093011603/11/16 09:30:31  5-MIN KABI 111530Z 36011KT 3SM BR BKN007 OVC011 11/10 A3007 1650 96 1600 360/11 RMK AO2 T01060100
13962KABI ABI20160311093512103/11/16 09:35:31  5-MIN KABI 111535Z 01010KT 3SM BR OVC006 11/10 A3008 1650 96 1500 010/10 RMK AO2 CIG 005V010 T01060100
13962KABI ABI20160311094012103/11/16 09:40:31  5-MIN KABI 111540Z 01009KT 3SM BR OVC006 11/11 A3008 1650 96 1600 010/09 RMK AO2 CIG 005V009 T01110106
13962KABI ABI20160311094512103/11/16 09:45:31  5-MIN KABI 111545Z 01009KT 4SM BR OVC006 11/11 A3008 1640 96 1600 010/09 RMK AO2 CIG 005V009 T01110106
13962KABI ABI20160311095011603/11/16 09:50:31  5-MIN KABI 111550Z 36009KT 4SM BR OVC007 11/11 A3008 1640 96 1600 360/09 RMK AO2 SLP177 T01110106
13962KABI ABI20160311095510903/11/16 09:55:31  5-MIN KABI 111555Z 36011KT 4SM BR OVC007 11/11 A3008 1640 96 1600 350/11 RMK AO2 T01110106
13962KABI ABI20160311100012103/11/16 10:00:31  5-MIN KABI 111600Z 36011KT 5SM BR OVC007 11/11 A3008 1640 96 1600 350/11 RMK AO2 CIG 005V009 T01110106
13962KABI ABI20160311100511803/11/16 10:05:31  5-MIN KABI 111605Z 36010KT 7SM OVC007 11/11 A3008 1640 96 1600 350/10 RMK AO2 CIG 005V009 T01110106
13962KABI ABI20160311101011803/11/16 10:10:31  5-MIN KABI 111610Z 01008KT 9SM OVC007 11/11 A3008 1640 96 1600 360/08 RMK AO2 CIG 005V010 T01110106
13962KABI ABI20160311101511903/11/16 10:15:31  5-MIN KABI 111615Z 36010KT 10SM OVC007 12/11 A3008 1640 93 1700 360/10 RMK AO2 CIG 005V010 T01170106
13962KABI ABI20160311102011903/11/16 10:20:31  5-MIN KABI 111620Z 01012KT 10SM OVC007 12/11 A3008 1640 93 1700 360/12 RMK AO2 CIG 005V010 T01170106
13962KABI ABI20160311102511903/11/16 10:25:31  5-MIN KABI 111625Z 01010KT 10SM OVC007 12/11 A3008 1640 93 1700 010/10 RMK AO2 CIG 005V010 T01170106
13962KABI ABI20160311103013703/11/16 10:30:31  5-MIN KABI 111630Z 36012KT 4SM -RA BR OVC007 12/11 A3008 1650 93 1700 360/12 RMK AO2 RAB29 CIG 005V010 P0000 T01170106
13962KABI ABI20160311103514103/11/16 10:35:31  5-MIN KABI 111635Z 36011KT 2 1/2SM -RA BR OVC007 12/11 A3008 1650 93 1700 360/11 RMK AO2 RAB29 CIG 006V010 P0000 T01170106
13962KABI ABI20160311104013703/11/16 10:40:31  5-MIN KABI 111640Z 35011KT 3SM -RA BR OVC007 12/11 A3008 1650 96 1700 350/11 RMK AO2 RAB29 CIG 005V010 P0001 T01170111
13962KABI ABI20160311104513703/11/16 10:45:31  5-MIN KABI 111645Z 36010KT 3SM -RA BR OVC007 12/11 A3008 1650 96 1700 350/10 RMK AO2 RAB29 CIG 005V009 P0001 T01170111
13962KABI ABI20160311105015103/11/16 10:50:31  5-MIN KABI 111650Z 36012KT 4SM -RA BR BKN007 OVC010 12/11 A3007 1650 96 1700 350/12 RMK AO2 RAB29 CIG 005V009 SLP175 P0002 T01170111
13962KABI ABI20160311105513803/11/16 10:55:31  5-MIN KABI 111655Z 36010KT 5SM -RA BR BKN007 OVC010 12/11 A3007 1650 96 1700 350/10 RMK AO2 CIG 005V009 P0000 T01170111
13962KABI ABI20160311110013103/11/16 11:00:31  5-MIN KABI 111700Z 36012KT 6SM -RA BR OVC007 12/11 A3007 1650 96 1700 350/12 RMK AO2 CIG 005V012 P0000 T01170111
13962KABI ABI20160311110512803/11/16 11:05:31  5-MIN KABI 111705Z 36011KT 9SM -RA OVC007 12/11 A3007 1650 96 1700 360/11 RMK AO2 CIG 005V012 P0000 T01170111
13962KABI ABI20160311111012903/11/16 11:10:31  5-MIN KABI 111710Z 36011KT 10SM -RA OVC007 12/11 A3007 1650 93 1700 360/11 RMK AO2 CIG 006V012 P0000 T01170106
13962KABI ABI20160311111512803/11/16 11:15:31  5-MIN KABI 111715Z 01012KT 8SM -RA OVC007 12/11 A3007 1650 93 1700 360/12 RMK AO2 CIG 006V012 P0000 T01170106
13962KABI ABI20160311112013103/11/16 11:20:31  5-MIN KABI 111720Z 01011KT 6SM -RA BR OVC007 12/11 A3007 1650 93 1700 360/11 RMK AO2 CIG 006V011 P0000 T01170106
13962KABI ABI20160311112513103/11/16 11:25:31  5-MIN KABI 111725Z 01010KT 4SM -RA BR OVC007 12/11 A3007 1650 96 1700 360/10 RMK AO2 CIG 006V011 P0000 T01170111
13962KABI ABI20160311113013103/11/16 11:30:31  5-MIN KABI 111730Z 36012KT 4SM -RA BR OVC007 12/11 A3007 1660 96 1700 350/12 RMK AO2 CIG 006V011 P0001 T01170111
13962KABI ABI20160311113513103/11/16 11:35:31  5-MIN KABI 111735Z 35012KT 5SM -RA BR OVC007 12/11 A3006 1660 96 1700 350/12 RMK AO2 CIG 006V010 P0001 T01170111
13962KABI ABI20160311114012803/11/16 11:40:31  5-MIN KABI 111740Z 35011KT 7SM -RA OVC007 12/11 A3006 1660 96 1700 340/11 RMK AO2 CIG 006V010 P0001 T01170111
13962KABI ABI20160311114512803/11/16 11:45:31  5-MIN KABI 111745Z 35012KT 7SM -RA OVC007 12/11 A3006 1660 93 1800 350/12 RMK AO2 CIG 006V012 P0001 T01220111
13962KABI ABI20160311115015903/11/16 11:50:31  5-MIN KABI 111750Z 35013KT 7SM -RA OVC008 12/11 A3006 1670 93 1800 340/13 RMK AO2 CIG 006V012 SLP168 P0001 60005 T01220111 10122 20100 51017
13962KABI ABI20160311115513103/11/16 11:55:31  5-MIN KABI 111755Z 35014KT 5SM -RA BR OVC008 12/11 A3006 1670 93 1800 350/14 RMK AO2 CIG 006V012 P0000 T01220111
13962KABI ABI20160311120011903/11/16 12:00:31  5-MIN KABI 111800Z 35014KT 3SM -RA BR OVC008 12/11 A3005 1670 93 1800 350/14 RMK AO2 P0001 T01220111
13962KABI ABI20160311120512203/11/16 12:05:31  5-MIN KABI 111805Z 35015KT 2 1/2SM RA BR OVC008 12/11 A3005 1670 93 1800 340/15 RMK AO2 P0003 T01220111
13962KABI ABI20160311121011903/11/16 12:10:31  5-MIN KABI 111810Z 35013KT 4SM -RA BR OVC008 12/11 A3005 1680 96 1700 350/13 RMK AO2 P0004 T01170111
13962KABI ABI20160311121511903/11/16 12:15:31  5-MIN KABI 111815Z 35011KT 4SM -RA BR OVC008 12/11 A3005 1680 93 1800 340/11 RMK AO2 P0004 T01220111
13962KABI ABI20160311122011903/11/16 12:20:31  5-MIN KABI 111820Z 36014KT 4SM -RA BR OVC008 12/11 A3005 1670 93 1800 360/14 RMK AO2 P0004 T01220111
13962KABI ABI20160311122511903/11/16 12:25:31  5-MIN KABI 111825Z 01010KT 4SM -RA BR OVC008 12/11 A3006 1670 89 1800 360/10 RMK AO2 P0004 T01220106
13962KABI ABI20160311123011903/11/16 12:30:31  5-MIN KABI 111830Z 01008KT 4SM -RA BR OVC008 12/11 A3005 1670 93 1800 010/08 RMK AO2 P0004 T01220111
13962KABI ABI20160311123512503/11/16 12:35:31  5-MIN KABI 111835Z 01013G16KT 4SM -RA BR OVC008 12/11 A3005 1670 89 1800 010/13G16 RMK AO2 P0004 T01220106
13962KABI ABI20160311124011903/11/16 12:40:31  5-MIN KABI 111840Z 36013KT 3SM -RA BR OVC008 12/11 A3004 1680 89 1800 360/13 RMK AO2 P0004 T01220106
13962KABI ABI20160311124512203/11/16 12:45:31  5-MIN KABI 111845Z 36010KT 2 1/2SM RA BR OVC008 12/11 A3004 1680 89 1800 350/10 RMK AO2 P0004 T01220106
13962KABI ABI20160311125013003/11/16 12:50:31  5-MIN KABI 111850Z 36009KT 2 1/2SM -RA BR OVC008 12/11 A3004 1680 93 1800 350/09 RMK AO2 SLP163 P0005 T01220111
13962KABI ABI20160311125511903/11/16 12:55:31  5-MIN KABI 111855Z 36010KT 3SM -RA BR OVC013 12/11 A3004 1690 93 1800 350/10 RMK AO2 P0000 T01220111
13962KABI ABI20160311130011903/11/16 13:00:31  5-MIN KABI 111900Z 36011KT 2SM -RA BR OVC013 12/12 A3003 1690 96 1800 350/11 RMK AO2 P0000 T01220117
13962KABI ABI20160311130511903/11/16 13:05:31  5-MIN KABI 111905Z 36010KT 2SM -RA BR OVC013 12/12 A3004 1680 96 1800 350/10 RMK AO2 P0001 T01220117
13962KABI ABI20160311131012603/11/16 13:10:31  5-MIN KABI 111910Z 36009KT 2SM -RA BR FEW010 OVC015 12/12 A3004 1690 96 1800 350/09 RMK AO2 P0001 T01220117
13962KABI ABI20160311131512603/11/16 13:15:31  5-MIN KABI 111915Z 36009KT 2SM -RA BR FEW006 OVC013 12/12 A3003 1690 96 1800 350/09 RMK AO2 P0001 T01220117
13962KABI ABI20160311132012603/11/16 13:20:31  5-MIN KABI 111920Z 36008KT 2SM -RA BR SCT008 OVC013 12/12 A3003 1690 96 1800 360/08 RMK AO2 P0001 T01220117
13962KABI ABI20160311132512603/11/16 13:25:31  5-MIN KABI 111925Z 35010KT 2SM -RA BR SCT006 OVC013 12/12 A3002 1700 96 1800 350/10 RMK AO2 P0001 T01220117
13962KABI ABI20160311133013803/11/16 13:30:31  5-MIN KABI 111930Z 35011KT 2SM -RA BR BKN006 OVC013 13/12 A3002 1700 96 1900 350/11 RMK AO2 CIG 004V008 P0002 T01280122
13962KABI ABI20160311133513803/11/16 13:35:31  5-MIN KABI 111935Z 35010KT 2SM -RA BR BKN006 OVC013 13/12 A3002 1700 96 1900 350/10 RMK AO2 CIG 004V008 P0002 T01280122
13962KABI ABI20160311134013803/11/16 13:40:31  5-MIN KABI 111940Z 34012KT 2SM -RA BR BKN006 OVC012 12/12 A3001 1710 96 1800 340/12 RMK AO2 CIG 004V008 P0002 T01220117
13962KABI ABI20160311134513103/11/16 13:45:31  5-MIN KABI 111945Z 34012KT 2SM -RA BR OVC006 12/12 A3002 1700 96 1800 340/12 RMK AO2 CIG 004V010 P0002 T01220117
13962KABI ABI20160311135014503/11/16 13:50:31  5-MIN KABI 111950Z 36011KT 2SM -RA BR BKN006 OVC012 12/12 A3002 1700 96 1800 360/11 RMK AO2 CIG 004V008 SLP156 P0002 T01220117
13962KABI ABI20160311135514203/11/16 13:55:31  5-MIN KABI 111955Z 36011KT 2 1/2SM -RA BR BKN006 OVC012 12/12 A3002 1700 96 1800 360/11 RMK AO2 CIG 004V008 P0000 T01220117
13962KABI ABI20160311140013803/11/16 14:00:31  5-MIN KABI 112000Z 36012KT 2SM -RA BR BKN006 OVC014 12/12 A3001 1710 96 1800 350/12 RMK AO2 CIG 004V010 P0000 T01220117
13962KABI ABI20160311140513703/11/16 14:05:31  5-MIN KABI 112005Z 35010KT 2SM RA BR BKN008 OVC012 12/12 A3001 1710 96 1800 350/10 RMK AO2 CIG 004V011 P0001 T01220117
13962KABI ABI20160311141013703/11/16 14:10:31  5-MIN KABI 112010Z 34011KT 2SM RA BR BKN008 OVC012 12/12 A3000 1720 96 1800 330/11 RMK AO2 CIG 004V010 P0003 T01220117
13962KABI ABI20160311141513703/11/16 14:15:31  5-MIN KABI 112015Z 34013KT 2SM RA BR BKN006 OVC012 12/12 A2999 1720 96 1800 330/13 RMK AO2 CIG 004V008 P0004 T01220117
13962KABI ABI20160311142013803/11/16 14:20:31  5-MIN KABI 112020Z 34012KT 2SM -RA BR BKN006 OVC011 12/12 A2999 1730 96 1800 330/12 RMK AO2 CIG 004V008 P0005 T01220117
13962KABI ABI20160311142513803/11/16 14:25:31  5-MIN KABI 112025Z 35012KT 2SM -RA BR BKN006 OVC011 12/12 A2999 1720 96 1800 340/12 RMK AO2 CIG 003V008 P0005 T01220117
13962KABI ABI20160311143013703/11/16 14:30:31  5-MIN KABI 112030Z 35013KT 2SM RA BR BKN006 OVC011 12/12 A2999 1720 96 1800 340/13 RMK AO2 CIG 003V008 P0006 T01220117
13962KABI ABI20160311143511903/11/16 14:35:31  5-MIN KABI 112035Z 35010KT 2SM RA BR OVC005 12/12 A2999 1730 100 1800 350/10 RMK AO2 P0007 T01220122
13962KABI ABI20160311144011903/11/16 14:40:31  5-MIN KABI 112040Z 36012KT 2SM RA BR OVC005 12/12 A2999 1730 100 1800 350/12 RMK AO2 P0009 T01220122
13962KABI ABI20160311144513003/11/16 14:45:31  5-MIN KABI 112045Z 36012KT 2 1/2SM RA BR BKN005 OVC025 12/12 A2999 1730 100 1800 350/12 RMK AO2 P0010 T01220122
13962KABI ABI20160311145015003/11/16 14:50:31  5-MIN KABI 112050Z 36011KT 2 1/2SM -RA BR BKN005 OVC025 12/12 A2999 1730 100 1800 350/11 RMK AO2 SLP146 P0011 60019 T01220122 58006
13962KABI ABI20160311145513103/11/16 14:55:31  5-MIN KABI 112055Z 36009KT 2 1/2SM -RA BR BKN005 OVC025 12/12 A2999 1730 100 1800 360/09 RMK AO2 P0000 T01220122
13962KABI ABI20160311150013103/11/16 15:00:31  5-MIN KABI 112100Z 36008KT 2 1/2SM -RA BR BKN005 OVC025 12/12 A2999 1730 100 1800 350/08 RMK AO2 P0001 T01220122
13962KABI ABI20160311150513103/11/16 15:05:31  5-MIN KABI 112105Z 35009KT 2 1/2SM -RA BR BKN005 OVC025 12/12 A2998 1730 100 1800 350/09 RMK AO2 P0001 T01220122
13962KABI ABI20160311151013703/11/16 15:10:31  5-MIN KABI 112110Z 36007KT 2 1/2SM -RA BR BKN005 BKN011 OVC021 13/12 A2998 1730 96 1900 350/07 RMK AO2 P0002 T01280122
13962KABI ABI20160311151513103/11/16 15:15:31  5-MIN KABI 112115Z 01008KT 2 1/2SM -RA BR BKN005 OVC011 12/12 A2999 1730 100 1800 010/08 RMK AO2 P0003 T01220122
13962KABI ABI20160311152013103/11/16 15:20:31  5-MIN KABI 112120Z 02007KT 2 1/2SM -RA BR BKN005 OVC011 12/12 A2998 1730 100 1800 010/07 RMK AO2 P0003 T01220122
13962KABI ABI20160311152512303/11/16 15:25:31  5-MIN KABI 112125Z 36007KT 2 1/2SM RA BR OVC005 12/12 A2998 1740 100 1900 360/07 RMK AO2 P0004 T01220122
13962KABI ABI20160311153012303/11/16 15:30:31  5-MIN KABI 112130Z 01007KT 2 1/2SM -RA BR OVC005 13/12 A2998 1740 96 1900 360/07 RMK AO2 P0005 T01280122
13962KABI ABI20160311153513503/11/16 15:35:31  5-MIN KABI 112135Z 02007KT 2 1/2SM -RA BR OVC005 13/12 A2998 1730 96 1900 010/07 RMK AO2 CIG 003V009 P0005 T01280122
13962KABI ABI20160311154013403/11/16 15:40:31  5-MIN KABI 112140Z 03007KT 2 1/2SM RA BR OVC005 13/12 A2998 1730 96 1900 030/07 RMK AO2 CIG 003V009 P0006 T01280122
13962KABI ABI20160311154513003/11/16 15:45:31  5-MIN KABI 112145Z 03007KT 2 1/2SM -RA BR BKN005 OVC011 13/12 A2999 1730 96 1900 030/07 RMK AO2 P0006 T01280122
13962KABI ABI20160311155014403/11/16 15:50:31  5-MIN KABI 112150Z 04008KT 2 1/2SM -RA BR BKN005 BKN009 OVC019 13/12 A2999 1730 96 1900 040/08 RMK AO2 SLP146 P0007 T01280122
13962KABI ABI20160311155513203/11/16 15:55:31  5-MIN KABI 112155Z 04009KT 2SM RA BR BKN005 BKN011 OVC017 13/12 A2999 1730 96 1900 030/09 RMK AO2 P0001 T01280122
13962KABI ABI20160311160013703/11/16 16:00:31  5-MIN KABI 112200Z 04008KT 2 1/2SM -RA BR BKN005 BKN011 OVC017 13/12 A2999 1730 96 1900 030/08 RMK AO2 P0003 T01280122
13962KABI ABI20160311160512603/11/16 16:05:31  5-MIN KABI 112205Z 05008KT 2SM -RA BR BKN005 OVC013 13/12 A2999 1720 96 1900 040/08 RMK AO2 P0003 T01280122
13962KABI ABI20160311161013203/11/16 16:10:31  5-MIN KABI 112210Z 06011KT 2SM RA BR BKN005 BKN011 OVC018 13/12 A3000 1720 96 1900 050/11 RMK AO2 P0005 T01280122
13962KABI ABI20160311161513203/11/16 16:15:31  5-MIN KABI 112215Z 05008KT 2SM RA BR BKN006 BKN011 OVC021 12/12 A2999 1720 96 1800 040/08 RMK AO2 P0007 T01220117
13962KABI ABI20160311162013203/11/16 16:20:31  5-MIN KABI 112220Z 05007KT 2SM RA BR BKN006 BKN011 OVC027 12/12 A2999 1720 96 1800 050/07 RMK AO2 P0009 T01220117
13962KABI ABI20160311162513303/11/16 16:25:31  5-MIN KABI 112225Z 04006KT 2SM +RA BR BKN006 BKN011 OVC027 12/12 A2999 1730 96 1800 030/06 RMK AO2 P0011 T01220117
13962KABI ABI20160311163013303/11/16 16:30:31  5-MIN KABI 112230Z 04007KT 2SM +RA BR BKN006 BKN011 OVC027 12/12 A2999 1730 96 1800 030/07 RMK AO2 P0015 T01220117
13962KABI ABI20160311163513303/11/16 16:35:31  5-MIN KABI 112235Z 09009KT 2SM +RA BR BKN006 BKN011 OVC027 12/12 A3000 1720 96 1800 080/09 RMK AO2 P0018 T01220117
13962KABI ABI20160311164013303/11/16 16:40:31  5-MIN KABI 112240Z 09008KT 2SM +RA BR BKN006 BKN011 OVC027 12/12 A3000 1720 96 1800 080/08 RMK AO2 P0022 T01220117
13962KABI ABI20160311164513603/11/16 16:45:31  5-MIN KABI 112245Z 09007KT 2SM +RA BR BKN006 BKN011 OVC027 12/12 A3000 1720 100 1800 080/07 RMK AO2 P0027 T01220122 $
13962KABI ABI20160311165014303/11/16 16:50:31  5-MIN KABI 112250Z 08006KT 2SM +RA BR BKN006 BKN011 OVC027 12/12 A3000 1720 100 1800 070/06 RMK AO2 SLP150 P0031 T01220122 $
13962KABI ABI20160311165513903/11/16 16:55:31  5-MIN KABI 112255Z 06005KT 2 1/2SM RA BR BKN006 BKN029 OVC050 12/12 A3000 1720 100 1800 060/05 RMK AO2 P0002 T01220122 $
13962KABI ABI20160311170013503/11/16 17:00:31  5-MIN KABI 112300Z 07004KT 4SM RA BR BKN006 BKN029 OVC050 12/12 A3000 1720 100 1800 070/04 RMK AO2 P0004 T01220122 $
13962KABI ABI20160311170513503/11/16 17:05:31  5-MIN KABI 112305Z 10004KT 4SM RA BR BKN006 BKN029 OVC050 12/12 A3000 1720 100 1800 090/04 RMK AO2 P0005 T01220122 $
13962KABI ABI20160311171013503/11/16 17:10:31  5-MIN KABI 112310Z 11003KT 4SM RA BR BKN006 BKN029 OVC050 12/12 A3000 1720 100 1800 100/03 RMK AO2 P0006 T01220122 $
13962KABI ABI20160311171513503/11/16 17:15:31  5-MIN KABI 112315Z 09004KT 4SM RA BR BKN006 BKN029 OVC050 12/12 A3000 1720 100 1800 080/04 RMK AO2 P0008 T01220122 $
13962KABI ABI20160311172012803/11/16 17:20:31  5-MIN KABI 112320Z 08006KT 4SM RA BR BKN009 OVC035 12/12 A3000 1720 100 1800 080/06 RMK AO2 P0009 T01220122 $
13962KABI ABI20160311172512803/11/16 17:25:31  5-MIN KABI 112325Z 08005KT 4SM RA BR BKN009 OVC035 12/12 A3000 1720 100 1800 070/05 RMK AO2 P0010 T01220122 $
13962KABI ABI20160311173012903/11/16 17:30:31  5-MIN KABI 112330Z 08004KT 5SM -RA BR BKN009 OVC035 12/12 A3000 1720 100 1800 080/04 RMK AO2 P0011 T01220122 $
13962KABI ABI20160311173512603/11/16 17:35:31  5-MIN KABI 112335Z 09003KT 7SM -RA BKN009 OVC035 12/12 A2999 1730 100 1800 080/03 RMK AO2 P0011 T01220122 $
13962KABI ABI20160311174012703/11/16 17:40:31  5-MIN KABI 112340Z 00000KT 10SM -RA BKN009 OVC035 12/12 A2999 1730 100 1800 000/00 RMK AO2 P0011 T01220122 $
13962KABI ABI20160311174512703/11/16 17:45:31  5-MIN KABI 112345Z 00000KT 10SM -RA BKN009 OVC035 12/12 A2999 1730 100 1800 000/00 RMK AO2 P0012 T01220122 $
13962KABI ABI20160311175015803/11/16 17:50:31  5-MIN KABI 112350Z 06003KT 10SM -RA BKN009 OVC035 12/12 A2999 1730 100 1800 050/03 RMK AO2 SLP147 P0012 60070 T01220122 10128 20117 58016 $
13962KABI ABI20160311175513403/11/16 17:55:31  5-MIN KABI 112355Z 07003KT 10SM -RA BKN009 BKN029 OVC035 12/12 A2999 1720 100 1800 060/03 RMK AO2 P0000 T01220122 $
13962KABI ABI20160311180012603/11/16 18:00:31  5-MIN KABI 120000Z 07004KT 9SM -RA BKN009 OVC037 12/12 A3000 1720 100 1800 070/04 RMK AO2 P0000 T01220122 $
13962KABI ABI20160311180513103/11/16 18:05:31  5-MIN KABI 120005Z 06003KT 8SM -RA OVC009 12/12 A2999 1720 100 1800 060/03 RMK AO2 CIG 006V012 P0000 T01220122 $
13962KABI ABI20160311181013103/11/16 18:10:31  5-MIN KABI 120010Z 05003KT 8SM -RA OVC009 12/12 A2999 1730 100 1800 050/03 RMK AO2 CIG 006V012 P0000 T01220122 $
13962KABI ABI20160311181513203/11/16 18:15:31  5-MIN KABI 120015Z 05003KT 10SM -RA OVC007 12/12 A2999 1730 100 1800 040/03 RMK AO2 CIG 006V012 P0000 T01220122 $
13962KABI ABI20160311182012003/11/16 18:20:31  5-MIN KABI 120020Z 05003KT 10SM -RA OVC007 12/12 A2999 1730 100 1800 040/03 RMK AO2 P0000 T01220122 $
13962KABI ABI20160311182512203/11/16 18:25:31  5-MIN KABI 120025Z 05003KT 10SM OVC007 12/12 A2999 1730 100 1800 040/03 RMK AO2 RAE21 P0000 T01220122 $
13962KABI ABI20160311183012203/11/16 18:30:31  5-MIN KABI 120030Z 03004KT 10SM OVC006 12/12 A2999 1730 100 1800 030/04 RMK AO2 RAE21 P0000 T01220122 $
13962KABI ABI20160311183512903/11/16 18:35:31  5-MIN KABI 120035Z 03004KT 10SM BKN006 OVC011 12/12 A2999 1730 100 1800 030/04 RMK AO2 RAE21 P0000 T01220122 $
13962KABI ABI20160311184014103/11/16 18:40:31  5-MIN KABI 120040Z 04005KT 10SM BKN006 OVC011 12/12 A2999 1730 100 1800 030/05 RMK AO2 RAE21 CIG 006V009 P0000 T01220122 $
13962KABI ABI20160311184513403/11/16 18:45:31  5-MIN KABI 120045Z 04005KT 10SM OVC009 12/12 A2999 1730 100 1800 040/05 RMK AO2 RAE21 CIG 006V012 P0000 T01220122 $
13962KABI ABI20160311185014103/11/16 18:50:31  5-MIN KABI 120050Z 04005KT 10SM OVC009 12/12 A2999 1720 100 1800 040/05 RMK AO2 RAE21 CIG 006V012 SLP148 P0000 T01220122 $
13962KABI ABI20160311185512903/11/16 18:55:31  5-MIN KABI 120055Z 05003KT 10SM BKN007 OVC011 12/12 A3000 1720 100 1800 050/03 RMK AO2 CIG 006V009 T01220122 $
13962KABI ABI20160311190012203/11/16 19:00:31  5-MIN KABI 120100Z 05007KT 10SM OVC009 12/12 A2999 1720 100 1800 050/07 RMK AO2 CIG 006V012 T01220122 $
13962KABI ABI20160311190512203/11/16 19:05:31  5-MIN KABI 120105Z 05005KT 10SM OVC009 12/12 A2999 1730 100 1800 050/05 RMK AO2 CIG 006V012 T01220122 $
13962KABI ABI20160311191011003/11/16 19:10:31  5-MIN KABI 120110Z 05005KT 10SM OVC008 12/12 A2999 1730 100 1800 050/05 RMK AO2 T01220122 $
13962KABI ABI20160311191511003/11/16 19:15:31  5-MIN KABI 120115Z 04004KT 10SM OVC008 12/12 A2999 1730 100 1800 040/04 RMK AO2 T01220122 $
13962KABI ABI20160311192011003/11/16 19:20:31  5-MIN KABI 120120Z 05004KT 10SM OVC008 12/12 A3000 1720 100 1800 040/04 RMK AO2 T01220122 $
13962KABI ABI20160311192512203/11/16 19:25:31  5-MIN KABI 120125Z 06007KT 10SM OVC008 12/12 A3000 1720 100 1800 050/07 RMK AO2 CIG 006V010 T01220122 $
13962KABI ABI20160311193011003/11/16 19:30:31  5-MIN KABI 120130Z 07007KT 10SM OVC007 12/12 A3000 1720 100 1800 060/07 RMK AO2 T01220122 $
13962KABI ABI20160311193511003/11/16 19:35:31  5-MIN KABI 120135Z 06006KT 10SM OVC007 12/12 A3000 1720 100 1800 060/06 RMK AO2 T01220122 $
13962KABI ABI20160311194011003/11/16 19:40:31  5-MIN KABI 120140Z 06006KT 10SM OVC007 12/12 A3000 1720 100 1800 050/06 RMK AO2 T01220122 $
13962KABI ABI20160311194511003/11/16 19:45:31  5-MIN KABI 120145Z 05006KT 10SM OVC007 12/12 A3000 1720 100 1800 050/06 RMK AO2 T01220122 $
13962KABI ABI20160311195011703/11/16 19:50:31  5-MIN KABI 120150Z 06006KT 10SM OVC006 12/12 A3000 1720 100 1800 050/06 RMK AO2 SLP151 T01220122 $
13962KABI ABI20160311195511003/11/16 19:55:31  5-MIN KABI 120155Z 06006KT 10SM OVC006 12/12 A3000 1720 100 1800 050/06 RMK AO2 T01220122 $
13962KABI ABI20160311200011003/11/16 20:00:31  5-MIN KABI 120200Z 05006KT 10SM OVC006 12/12 A3000 1720 100 1800 050/06 RMK AO2 T01220122 $
13962KABI ABI20160311200511003/11/16 20:05:31  5-MIN KABI 120205Z 06005KT 10SM OVC006 12/12 A2999 1730 100 1800 060/05 RMK AO2 T01220122 $
13962KABI ABI20160311201011003/11/16 20:10:31  5-MIN KABI 120210Z 05006KT 10SM OVC006 12/12 A2999 1730 100 1800 050/06 RMK AO2 T01220122 $
13962KABI ABI20160311201511003/11/16 20:15:31  5-MIN KABI 120215Z 06005KT 10SM OVC006 12/12 A3000 1720 100 1800 050/05 RMK AO2 T01220122 $
13962KABI ABI20160311202011003/11/16 20:20:31  5-MIN KABI 120220Z 07004KT 10SM OVC006 12/12 A2999 1720 100 1800 060/04 RMK AO2 T01220122 $
13962KABI ABI20160311202511003/11/16 20:25:31  5-MIN KABI 120225Z 05004KT 10SM OVC006 12/12 A2999 1720 100 1800 050/04 RMK AO2 T01220122 $
13962KABI ABI20160311203011003/11/16 20:30:31  5-MIN KABI 120230Z 06004KT 10SM OVC006 12/12 A2999 1720 100 1800 060/04 RMK AO2 T01220122 $
13962KABI ABI20160311203511003/11/16 20:35:31  5-MIN KABI 120235Z 06006KT 10SM OVC006 12/12 A3000 1720 100 1800 050/06 RMK AO2 T01220122 $
13962KABI ABI20160311204011003/11/16 20:40:31  5-MIN KABI 120240Z 06006KT 10SM OVC006 12/12 A3000 1720 100 1800 050/06 RMK AO2 T01220122 $
13962KABI ABI20160311204511003/11/16 20:45:31  5-MIN KABI 120245Z 07005KT 10SM OVC006 12/12 A3000 1720 100 1800 060/05 RMK AO2 T01220122 $
13962KABI ABI20160311205012903/11/16 20:50:31  5-MIN KABI 120250Z 07005KT 10SM OVC005 12/12 A3001 1710 100 1800 070/05 RMK AO2 SLP152 60000 T01220122 50001 $
13962KABI ABI20160311205512203/11/16 20:55:31  5-MIN KABI 120255Z 05007KT 10SM OVC005 12/12 A3001 1710 100 1800 050/07 RMK AO2 CIG 004V009 T01220122 $
13962KABI ABI20160311210012203/11/16 21:00:31  5-MIN KABI 120300Z 06005KT 10SM OVC005 12/12 A3001 1710 100 1800 050/05 RMK AO2 CIG 004V009 T01220122 $
13962KABI ABI20160311210512103/11/16 21:05:31  5-MIN KABI 120305Z 05004KT 9SM OVC005 12/12 A3001 1710 100 1800 050/04 RMK AO2 CIG 004V009 T01220122 $
13962KABI ABI20160311211012103/11/16 21:10:31  5-MIN KABI 120310Z 05004KT 7SM OVC005 12/12 A3001 1710 100 1800 040/04 RMK AO2 CIG 004V009 T01220122 $
13962KABI ABI20160311211512403/11/16 21:15:31  5-MIN KABI 120315Z 06005KT 5SM BR OVC005 12/12 A3001 1710 100 1800 050/05 RMK AO2 CIG 004V009 T01220122 $
13962KABI ABI20160311212012403/11/16 21:20:31  5-MIN KABI 120320Z 07004KT 4SM BR OVC005 12/12 A3001 1710 100 1800 060/04 RMK AO2 CIG 003V009 T01220122 $
13962KABI ABI20160311212512303/11/16 21:25:31  5-MIN KABI 120325Z 06003KT 3SM BR OVC005 12/12 A3001 1710 96 1800 050/03 RMK AO2 CIG 003V009 T01220117 $
13962KABI ABI20160311213012303/11/16 21:30:31  5-MIN KABI 120330Z 04004KT 5SM BR OVC005 12/12 A3001 1710 96 1800 040/04 RMK AO2 CIG 003V007 T01220117 $
13962KABI ABI20160311213512303/11/16 21:35:31  5-MIN KABI 120335Z 06004KT 4SM BR OVC005 12/12 A3001 1710 96 1800 050/04 RMK AO2 CIG 003V007 T01220117 $
13962KABI ABI20160311214011103/11/16 21:40:31  5-MIN KABI 120340Z 05003KT 3SM BR OVC005 12/12 A3001 1710 96 1800 040/03 RMK AO2 T01220117 $
13962KABI ABI20160311214511503/11/16 21:45:31  5-MIN KABI 120345Z 05004KT 2 1/2SM BR OVC005 12/12 A3001 1710 96 1800 050/04 RMK AO2 T01220117 $
13962KABI ABI20160311215011303/11/16 21:50:31  5-MIN KABI 120350Z 05005KT 3SM BR OVC004 12/12 A3001 1710 96 1800 050/05 RMK AO2 CIG 003V007 $
13962KABI ABI20160311215512303/11/16 21:55:31  5-MIN KABI 120355Z 07004KT 4SM BR OVC004 12/12 A3001 1710 96 1800 070/04 RMK AO2 CIG 003V009 T01220117 $
13962KABI ABI20160311220013003/11/16 22:00:31  5-MIN KABI 120400Z 07004KT 6SM BR BKN005 OVC014 12/12 A3001 1710 96 1800 070/04 RMK AO2 CIG 003V008 T01220117 $
13962KABI ABI20160311220513003/11/16 22:05:31  5-MIN KABI 120405Z 08003KT 6SM BR BKN005 OVC014 12/12 A3002 1700 96 1800 070/03 RMK AO2 CIG 003V008 T01220117 $
13962KABI ABI20160311221012703/11/16 22:10:31  5-MIN KABI 120410Z 09003KT 7SM BKN005 OVC012 12/12 A3002 1700 96 1800 090/03 RMK AO2 CIG 003V007 T01220117 $
13962KABI ABI20160311221511803/11/16 22:15:31  5-MIN KABI 120415Z 10003KT 5SM BR BKN005 OVC012 12/12 A3002 1700 96 1800 100/03 RMK AO2 T01220117 $
13962KABI ABI20160311222012503/11/16 22:20:31  5-MIN KABI 120420Z 11005KT 4SM BR BKN005 BKN010 OVC015 12/12 A3001 1710 96 1800 100/05 RMK AO2 T01220117 $
13962KABI ABI20160311222511803/11/16 22:25:31  5-MIN KABI 120425Z 10005KT 5SM BR BKN005 OVC012 12/12 A3001 1710 96 1800 100/05 RMK AO2 T01220117 $
13962KABI ABI20160311223011503/11/16 22:30:31  5-MIN KABI 120430Z 10005KT 7SM BKN005 OVC012 12/12 A3001 1710 96 1800 090/05 RMK AO2 T01220117 $
13962KABI ABI20160311223511803/11/16 22:35:31  5-MIN KABI 120435Z 09004KT 6SM BR BKN005 OVC010 12/12 A3001 1710 96 1800 080/04 RMK AO2 T01220117 $
13962KABI ABI20160311224011803/11/16 22:40:31  5-MIN KABI 120440Z 09004KT 4SM BR BKN007 OVC013 12/12 A3001 1710 96 1800 080/04 RMK AO2 T01220117 $
13962KABI ABI20160311224513003/11/16 22:45:31  5-MIN KABI 120445Z 07004KT 4SM BR BKN007 OVC013 12/12 A3001 1710 96 1800 070/04 RMK AO2 CIG 005V010 T01220117 $
13962KABI ABI20160311225012503/11/16 22:50:31  5-MIN KABI 120450Z 09004KT 5SM BR BKN007 OVC013 12/12 A3001 1710 96 1800 080/04 RMK AO2 SLP153 T01220117 $
13962KABI ABI20160311225511803/11/16 22:55:31  5-MIN KABI 120455Z 08003KT 4SM BR BKN008 OVC012 12/12 A3001 1710 96 1800 080/03 RMK AO2 T01220117 $
13962KABI ABI20160311230011803/11/16 23:00:31  5-MIN KABI 120500Z 08003KT 3SM BR BKN006 OVC012 12/12 A3001 1710 96 1800 080/03 RMK AO2 T01220117 $
13962KABI ABI20160311230511803/11/16 23:05:31  5-MIN KABI 120505Z 09003KT 3SM BR BKN006 OVC010 12/12 A3001 1710 96 1800 090/03 RMK AO2 T01220117 $
13962KABI ABI20160311231011803/11/16 23:10:31  5-MIN KABI 120510Z 09003KT 3SM BR BKN006 OVC010 12/12 A3001 1710 96 1800 090/03 RMK AO2 T01220117 $
13962KABI ABI20160311231511103/11/16 23:15:31  5-MIN KABI 120515Z 00000KT 4SM BR OVC006 12/12 A3001 1710 96 1800 000/00 RMK AO2 T01220117 $
13962KABI ABI20160311232012303/11/16 23:20:31  5-MIN KABI 120520Z 12003KT 5SM BR OVC006 12/12 A3001 1710 96 1800 110/03 RMK AO2 CIG 003V010 T01220117 $
13962KABI ABI20160311232512303/11/16 23:25:31  5-MIN KABI 120525Z 09003KT 6SM BR OVC006 12/12 A3001 1710 96 1800 090/03 RMK AO2 CIG 003V008 T01220117 $
13962KABI ABI20160311233012303/11/16 23:30:31  5-MIN KABI 120530Z 00000KT 6SM BR OVC006 12/12 A3001 1710 96 1800 000/00 RMK AO2 CIG 003V010 T01220117 $
13962KABI ABI20160311233513003/11/16 23:35:31  5-MIN KABI 120535Z 00000KT 5SM BR BKN006 OVC012 12/12 A3001 1710 96 1800 000/00 RMK AO2 CIG 003V009 T01220117 $
13962KABI ABI20160311234013103/11/16 23:40:31  5-MIN KABI 120540Z 00000KT 6SM BR BKN006 OVC012 12/12 A3001 1710 100 1800 000/00 RMK AO2 CIG 004V008 T01170117 $
13962KABI ABI20160311234511603/11/16 23:45:31  5-MIN KABI 120545Z 14003KT 9SM SCT006 OVC014 12/12 A3001 1710 100 1800 140/03 RMK AO2 T01170117 $
13962KABI ABI20160311235015803/11/16 23:50:31  5-MIN KABI 120550Z 14003KT 10SM SCT006 OVC012 12/12 A3001 1710 100 1800 140/03 RMK AO2 SLP152 60000 T01170117 10122 20117 401390100 58002 $
13962KABI ABI20160311235511603/11/16 23:55:31  5-MIN KABI 120555Z 14003KT 10SM FEW006 OVC012 12/12 A3001 1710 96 1800 140/03 RMK AO2 T01220117 $
13962KABI ABI20160312000010903/12/16 00:00:31  5-MIN KABI 120600Z 14003KT 9SM OVC013 12/12 A3001 1710 100 1800 130/03 RMK AO2 T01170117 $
13962KABI ABI20160312000510903/12/16 00:05:31  5-MIN KABI 120605Z 14003KT 9SM OVC013 12/12 A3000 1720 100 1800 140/03 RMK AO2 T01170117 $
13962KABI ABI20160312001011003/12/16 00:10:31  5-MIN KABI 120610Z 13003KT 10SM OVC013 12/12 A3000 1720 100 1800 130/03 RMK AO2 T01170117 $
13962KABI ABI20160312001511003/12/16 00:15:31  5-MIN KABI 120615Z 13003KT 10SM OVC014 12/12 A3000 1720 100 1800 130/03 RMK AO2 T01170117 $
13962KABI ABI20160312002010903/12/16 00:20:31  5-MIN KABI 120620Z 14005KT 8SM OVC014 12/12 A3000 1720 100 1800 140/05 RMK AO2 T01170117 $
13962KABI ABI20160312002510903/12/16 00:25:31  5-MIN KABI 120625Z 12004KT 7SM OVC014 12/12 A3000 1720 100 1800 120/04 RMK AO2 T01170117 $
13962KABI ABI20160312003010903/12/16 00:30:31  5-MIN KABI 120630Z 13003KT 9SM OVC014 12/12 A3000 1720 100 1800 120/03 RMK AO2 T01170117 $
13962KABI ABI20160312003511003/12/16 00:35:31  5-MIN KABI 120635Z 13003KT 10SM OVC016 12/12 A2999 1730 100 1800 120/03 RMK AO2 T01170117 $
13962KABI ABI20160312004010903/12/16 00:40:31  5-MIN KABI 120640Z 13003KT 10SM OVC016 12/11 A2999 1730 96 1800 120/03 RMK AO2 T01170111 $
13962KABI ABI20160312004510903/12/16 00:45:31  5-MIN KABI 120645Z 12004KT 10SM OVC016 12/11 A2999 1730 96 1800 110/04 RMK AO2 T01170111 $
13962KABI ABI20160312005011603/12/16 00:50:31  5-MIN KABI 120650Z 11003KT 10SM BKN017 12/11 A2998 1730 96 1800 100/03 RMK AO2 SLP144 T01170111 $
13962KABI ABI20160312005510903/12/16 00:55:31  5-MIN KABI 120655Z 10003KT 10SM BKN017 12/11 A2998 1730 96 1800 090/03 RMK AO2 T01170111 $
13962KABI ABI20160312010011603/12/16 01:00:31  5-MIN KABI 120700Z 09003KT 10SM FEW004 BKN017 12/11 A2998 1740 96 1800 080/03 RMK AO2 T01170111 $
13962KABI ABI20160312010511603/12/16 01:05:31  5-MIN KABI 120705Z 00000KT 10SM FEW004 BKN017 12/11 A2998 1740 96 1800 000/00 RMK AO2 T01170111 $
13962KABI ABI20160312011011603/12/16 01:10:31  5-MIN KABI 120710Z 09004KT 10SM SCT004 BKN015 12/11 A2998 1740 96 1800 090/04 RMK AO2 T01170111 $
13962KABI ABI20160312011511603/12/16 01:15:31  5-MIN KABI 120715Z 08004KT 10SM BKN004 BKN015 12/11 A2998 1740 96 1800 080/04 RMK AO2 T01170111 $
13962KABI ABI20160312012011603/12/16 01:20:31  5-MIN KABI 120720Z 09004KT 10SM BKN003 BKN015 12/11 A2998 1740 96 1800 080/04 RMK AO2 T01170111 $
13962KABI ABI20160312012510803/12/16 01:25:31  5-MIN KABI 120725Z 00000KT 9SM BKN003 12/12 A2998 1740 96 1900 000/00 RMK AO2 T01220117 $
13962KABI ABI20160312013010903/12/16 01:30:31  5-MIN KABI 120730Z 00000KT 9SM OVC003 12/12 A2997 1740 100 1800 000/00 RMK AO2 T01170117 $
13962KABI ABI20160312013512203/12/16 01:35:31  5-MIN KABI 120735Z 06003KT 10SM OVC004 12/12 A2998 1740 100 1800 060/03 RMK AO2 CIG 002V007 T01170117 $
13962KABI ABI20160312014012903/12/16 01:40:31  5-MIN KABI 120740Z 00000KT 10SM BKN004 OVC013 12/12 A2997 1740 100 1800 000/00 RMK AO2 CIG 002V007 T01170117 $
13962KABI ABI20160312014511603/12/16 01:45:31  5-MIN KABI 120745Z 09003KT 10SM BKN004 OVC013 12/11 A2997 1740 96 1800 090/03 RMK AO2 T01170111 $
13962KABI ABI20160312015010703/12/16 01:50:31  5-MIN KABI 120750Z 00000KT 10SM SCT004 OVC012 12/12 A2997 1750 100 1800 000/00 RMK AO2 $
13962KABI ABI20160312015511703/12/16 01:55:31  5-MIN KABI 120755Z 00000KT 10SM SCT004 OVC012 12/12 A2997 1750 100 1800 000/00 RMK AO2 T01170117 $
13962KABI ABI20160312020011703/12/16 02:00:31  5-MIN KABI 120800Z 00000KT 10SM FEW004 OVC011 12/12 A2997 1750 100 1800 000/00 RMK AO2 T01170117 $
13962KABI ABI20160312020510903/12/16 02:05:31  5-MIN KABI 120805Z 00000KT 10SM OVC011 12/11 A2997 1750 96 1800 000/00 RMK AO2 T01170111 $
13962KABI ABI20160312021010903/12/16 02:10:31  5-MIN KABI 120810Z 25004KT 10SM OVC011 12/11 A2997 1750 96 1800 250/04 RMK AO2 T01170111 $
13962KABI ABI20160312021510803/12/16 02:15:31  5-MIN KABI 120815Z 27004KT 8SM OVC011 12/11 A2997 1750 96 1800 260/04 RMK AO2 T01170111 $
13962KABI ABI20160312022012003/12/16 02:20:31  5-MIN KABI 120820Z 27003KT 8SM OVC011 12/11 A2997 1750 96 1800 270/03 RMK AO2 CIG 005V012 T01170111 $
13962KABI ABI20160312022512003/12/16 02:25:31  5-MIN KABI 120825Z 26004KT 8SM OVC011 12/11 A2997 1750 96 1800 260/04 RMK AO2 CIG 007V012 T01170111 $
13962KABI ABI20160312023012103/12/16 02:30:31  5-MIN KABI 120830Z 27003KT 7SM OVC009 12/12 A2997 1750 100 1800 260/03 RMK AO2 CIG 007V011 T01170117 $
13962KABI ABI20160312023512103/12/16 02:35:31  5-MIN KABI 120835Z 00000KT 7SM OVC009 12/12 A2997 1750 100 1800 000/00 RMK AO2 CIG 007V011 T01170117 $
13962KABI ABI20160312024012103/12/16 02:40:31  5-MIN KABI 120840Z 26003KT 7SM OVC009 12/12 A2997 1750 100 1800 260/03 RMK AO2 CIG 007V012 T01170117 $
13962KABI ABI20160312024512103/12/16 02:45:31  5-MIN KABI 120845Z 00000KT 8SM OVC009 12/12 A2997 1750 100 1800 000/00 RMK AO2 CIG 005V010 T01170117 $
13962KABI ABI20160312025013403/12/16 02:50:31  5-MIN KABI 120850Z 00000KT 7SM OVC009 12/12 A2996 1750 100 1800 000/00 RMK AO2 CIG 003V010 SLP137 T01170117 56001 $
13962KABI ABI20160312025512003/12/16 02:55:31  5-MIN KABI 120855Z 00000KT 7SM OVC008 12/11 A2996 1750 96 1800 000/00 RMK AO2 CIG 005V010 T01170111 $
13962KABI ABI20160312030012103/12/16 03:00:31  5-MIN KABI 120900Z 00000KT 7SM OVC008 12/12 A2996 1760 100 1800 000/00 RMK AO2 CIG 003V010 T01170117 $
13962KABI ABI20160312030511203/12/16 03:05:31  5-MIN KABI 120905Z 00000KT 6SM BR OVC006 12/12 A2996 1760 100 1800 000/00 RMK AO2 T01170117 $
13962KABI ABI20160312031011203/12/16 03:10:31  5-MIN KABI 120910Z 00000KT 5SM BR OVC006 12/12 A2995 1760 100 1800 000/00 RMK AO2 T01170117 $
13962KABI ABI20160312031512303/12/16 03:15:31  5-MIN KABI 120915Z 25003KT 4SM BR OVC006 12/11 A2996 1760 96 1800 250/03 RMK AO2 CIG 003V009 T01170111 $
13962KABI ABI20160312032012303/12/16 03:20:31  5-MIN KABI 120920Z 23003KT 5SM BR OVC006 12/11 A2995 1760 96 1800 230/03 RMK AO2 CIG 005V010 T01170111 $
13962KABI ABI20160312032512303/12/16 03:25:31  5-MIN KABI 120925Z 24003KT 6SM BR OVC007 12/11 A2995 1760 96 1800 240/03 RMK AO2 CIG 005V010 T01170111 $
13962KABI ABI20160312033012403/12/16 03:30:31  5-MIN KABI 120930Z 00000KT 6SM BR OVC007 12/12 A2995 1760 100 1800 000/00 RMK AO2 CIG 005V010 T01170117 $
13962KABI ABI20160312033512103/12/16 03:35:31  5-MIN KABI 120935Z 00000KT 7SM OVC007 12/12 A2996 1760 100 1800 000/00 RMK AO2 CIG 005V010 T01170117 $
13962KABI ABI20160312034010903/12/16 03:40:31  5-MIN KABI 120940Z 00000KT 8SM OVC007 12/12 A2995 1760 100 1800 000/00 RMK AO2 T01170117 $
13962KABI ABI20160312034510903/12/16 03:45:31  5-MIN KABI 120945Z 00000KT 9SM OVC008 12/12 A2995 1760 100 1800 000/00 RMK AO2 T01170117 $
13962KABI ABI20160312035011603/12/16 03:50:31  5-MIN KABI 120950Z 00000KT 9SM OVC008 12/12 A2995 1770 100 1800 000/00 RMK AO2 SLP132 T01170117 $
13962KABI ABI20160312035512103/12/16 03:55:31  5-MIN KABI 120955Z 00000KT 7SM OVC008 12/12 A2995 1770 100 1800 000/00 RMK AO2 CIG 003V010 T01170117 $
13962KABI ABI20160312040012303/12/16 04:00:31  5-MIN KABI 121000Z 00000KT 6SM BR OVC006 12/11 A2995 1770 96 1800 000/00 RMK AO2 CIG 003V010 T01170111 $
13962KABI ABI20160312040512303/12/16 04:05:31  5-MIN KABI 121005Z 00000KT 5SM BR OVC006 12/11 A2995 1770 96 1800 000/00 RMK AO2 CIG 003V009 T01170111 $
13962KABI ABI20160312041012303/12/16 04:10:31  5-MIN KABI 121010Z 00000KT 5SM BR OVC006 12/11 A2994 1770 96 1800 000/00 RMK AO2 CIG 003V009 T01170111 $
13962KABI ABI20160312041512703/12/16 04:15:31  5-MIN KABI 121015Z 00000KT 7SM BKN006 OVC011 12/11 A2994 1770 96 1800 000/00 RMK AO2 CIG 003V008 T01170111 $
13962KABI ABI20160312042012703/12/16 04:20:31  5-MIN KABI 121020Z 00000KT 9SM BKN006 OVC011 12/11 A2994 1780 96 1800 000/00 RMK AO2 CIG 003V008 T01170111 $
13962KABI ABI20160312042511503/12/16 04:25:31  5-MIN KABI 121025Z 00000KT 9SM BKN004 OVC011 12/11 A2994 1770 96 1800 000/00 RMK AO2 T01170111 $
13962KABI ABI20160312043012703/12/16 04:30:31  5-MIN KABI 121030Z 00000KT 9SM BKN006 OVC011 12/11 A2994 1770 96 1800 000/00 RMK AO2 CIG 003V010 T01170111 $
13962KABI ABI20160312043511603/12/16 04:35:31  5-MIN KABI 121035Z 00000KT 10SM BKN006 OVC011 12/11 A2995 1770 96 1800 000/00 RMK AO2 T01170111 $
13962KABI ABI20160312044011603/12/16 04:40:31  5-MIN KABI 121040Z 00000KT 10SM BKN005 OVC011 12/11 A2994 1770 96 1800 000/00 RMK AO2 T01170111 $
13962KABI ABI20160312044511603/12/16 04:45:31  5-MIN KABI 121045Z 00000KT 10SM SCT005 OVC011 12/11 A2994 1770 96 1800 000/00 RMK AO2 T01170111 $
13962KABI ABI20160312045012303/12/16 04:50:31  5-MIN KABI 121050Z 00000KT 10SM SCT005 OVC011 12/11 A2994 1770 96 1800 000/00 RMK AO2 SLP131 T01170111 $
13962KABI ABI20160312045511603/12/16 04:55:31  5-MIN KABI 121055Z 00000KT 10SM FEW005 OVC011 12/11 A2994 1770 96 1800 000/00 RMK AO2 T01170111 $
13962KABI ABI20160312050011603/12/16 05:00:31  5-MIN KABI 121100Z 11003KT 10SM FEW005 OVC011 12/11 A2995 1770 96 1800 110/03 RMK AO2 T01170111 $
13962KABI ABI20160312050511603/12/16 05:05:31  5-MIN KABI 121105Z 13004KT 10SM BKN011 OVC017 12/11 A2995 1770 96 1800 120/04 RMK AO2 T01170111 $
13962KABI ABI20160312051010903/12/16 05:10:31  5-MIN KABI 121110Z 13004KT 10SM OVC014 12/11 A2995 1770 96 1800 130/04 RMK AO2 T01170111 $
13962KABI ABI20160312051510903/12/16 05:15:31  5-MIN KABI 121115Z 14003KT 10SM OVC014 12/11 A2995 1770 96 1800 140/03 RMK AO2 T01170111 $
13962KABI ABI20160312052011803/12/16 05:20:31  5-MIN KABI 121120Z 00000KT 6SM BR BKN012 OVC017 12/11 A2995 1770 96 1800 000/00 RMK AO2 T01170111 $
13962KABI ABI20160312052511803/12/16 05:25:31  5-MIN KABI 121125Z 00000KT 5SM BR BKN012 OVC017 12/11 A2995 1770 96 1800 000/00 RMK AO2 T01170111 $
13962KABI ABI20160312053011103/12/16 05:30:31  5-MIN KABI 121130Z 00000KT 6SM BR OVC012 12/11 A2994 1770 96 1800 000/00 RMK AO2 T01170111 $
13962KABI ABI20160312053510803/12/16 05:35:31  5-MIN KABI 121135Z 00000KT 7SM OVC012 12/11 A2994 1770 96 1800 000/00 RMK AO2 T01170111 $
13962KABI ABI20160312054010803/12/16 05:40:31  5-MIN KABI 121140Z 00000KT 9SM OVC011 12/11 A2995 1770 96 1800 000/00 RMK AO2 T01170111 $
13962KABI ABI20160312054510803/12/16 05:45:31  5-MIN KABI 121145Z 05003KT 9SM OVC011 12/11 A2995 1770 96 1800 050/03 RMK AO2 T01170111 $
13962KABI ABI20160312055014603/12/16 05:50:31  5-MIN KABI 121150Z 00000KT 9SM BKN011 OVC017 12/11 A2995 1760 96 1800 000/00 RMK AO2 SLP133 70075 T01170111 10122 20117 56014 $
13962KABI ABI20160312055511503/12/16 05:55:31  5-MIN KABI 121155Z 00000KT 9SM BKN013 OVC019 12/11 A2995 1760 96 1800 000/00 RMK AO2 T01170111 $
13962KABI ABI20160312060012303/12/16 06:00:31  5-MIN KABI 121200Z 00000KT 10SM FEW004 BKN013 OVC019 12/11 A2996 1760 96 1800 000/00 RMK AO2 T01170111 $
13962KABI ABI20160312060512403/12/16 06:05:31  5-MIN KABI 121205Z 00000KT 10SM SCT004 BKN013 OVC019 11/11 A2996 1760 100 1800 000/00 RMK AO2 T01110111 $
13962KABI ABI20160312061013603/12/16 06:10:31  5-MIN KABI 121210Z 00000KT 10SM BKN004 BKN013 OVC019 11/11 A2995 1760 100 1800 000/00 RMK AO2 CIG 003V007 T01110111 $
13962KABI ABI20160312061512803/12/16 06:15:31  5-MIN KABI 121215Z 00000KT 10SM BKN004 OVC019 11/11 A2995 1760 96 1800 000/00 RMK AO2 CIG 002V007 T01110106 $
13962KABI ABI20160312062012803/12/16 06:20:31  5-MIN KABI 121220Z 00000KT 10SM BKN003 OVC019 11/11 A2996 1760 96 1800 000/00 RMK AO2 CIG 002V007 T01110106 $
13962KABI ABI20160312062512903/12/16 06:25:31  5-MIN KABI 121225Z 00000KT 10SM BKN003 OVC019 11/11 A2996 1760 100 1800 000/00 RMK AO2 CIG 002V007 T01110111 $
13962KABI ABI20160312063011703/12/16 06:30:31  5-MIN KABI 121230Z 00000KT 10SM SCT003 OVC019 11/11 A2996 1760 100 1800 000/00 RMK AO2 T01110111 $
13962KABI ABI20160312063511703/12/16 06:35:31  5-MIN KABI 121235Z 00000KT 10SM BKN003 OVC019 11/11 A2996 1760 100 1700 000/00 RMK AO2 T01110111 $
13962KABI ABI20160312064011703/12/16 06:40:31  5-MIN KABI 121240Z 00000KT 10SM BKN003 OVC019 11/11 A2996 1760 100 1700 000/00 RMK AO2 T01110111 $
13962KABI ABI20160312064511703/12/16 06:45:31  5-MIN KABI 121245Z 00000KT 10SM BKN003 OVC019 11/11 A2996 1750 100 1700 000/00 RMK AO2 T01110111 $
13962KABI ABI20160312065012403/12/16 06:50:31  5-MIN KABI 121250Z 00000KT 10SM BKN003 OVC019 11/11 A2996 1750 100 1700 000/00 RMK AO2 SLP138 T01110111 $
13962KABI ABI20160312065511603/12/16 06:55:31  5-MIN KABI 121255Z 00000KT 8SM FEW005 OVC017 11/11 A2996 1760 100 1700 000/00 RMK AO2 T01110111 $
13962KABI ABI20160312070010803/12/16 07:00:31  5-MIN KABI 121300Z 00000KT 7SM OVC017 11/11 A2996 1760 96 1700 000/00 RMK AO2 T01110106 $
13962KABI ABI20160312070511803/12/16 07:05:31  5-MIN KABI 121305Z 00000KT 5SM BR FEW003 OVC016 11/11 A2996 1750 96 1700 000/00 RMK AO2 T01110106 $
13962KABI ABI20160312071012303/12/16 07:10:31  5-MIN KABI 121310Z 18003KT 1 1/2SM BR SCT003 OVC016 11/11 A2996 1750 100 1700 170/03 RMK AO2 T01110111 $
13962KABI ABI20160312071512303/12/16 07:15:31  5-MIN KABI 121315Z 17003KT 1 1/2SM BR FEW003 OVC016 11/11 A2996 1750 100 1700 170/03 RMK AO2 T01110111 $
13962KABI ABI20160312072012303/12/16 07:20:31  5-MIN KABI 121320Z 18003KT 1 1/2SM BR FEW003 OVC015 11/11 A2996 1760 100 1700 180/03 RMK AO2 T01110111 $
13962KABI ABI20160312072511503/12/16 07:25:31  5-MIN KABI 121325Z 19003KT 7SM FEW003 OVC015 12/11 A2996 1750 96 1800 190/03 RMK AO2 T01170111 $
13962KABI ABI20160312073011503/12/16 07:30:31  5-MIN KABI 121330Z 16004KT 8SM FEW003 BKN014 12/11 A2996 1750 96 1800 160/04 RMK AO2 T01170111 $
13962KABI ABI20160312073511703/12/16 07:35:31  5-MIN KABI 121335Z 16003KT 10SM FEW003 OVC014 11/11 A2997 1750 100 1700 150/03 RMK AO2 T01110111 $
13962KABI ABI20160312074011603/12/16 07:40:31  5-MIN KABI 121340Z 14005KT 10SM FEW003 OVC012 12/11 A2997 1750 96 1800 140/05 RMK AO2 T01170111 $
13962KABI ABI20160312074511603/12/16 07:45:31  5-MIN KABI 121345Z 13007KT 10SM FEW004 OVC012 12/11 A2997 1750 96 1800 130/07 RMK AO2 T01170111 $
13962KABI ABI20160312075012303/12/16 07:50:31  5-MIN KABI 121350Z 14007KT 10SM SCT004 OVC012 12/11 A2997 1750 96 1800 140/07 RMK AO2 SLP138 T01170111 $
13962KABI ABI20160312075512803/12/16 07:55:31  5-MIN KABI 121355Z 15005KT 10SM BKN004 BKN012 12/11 A2997 1740 96 1800 150/05 RMK AO2 CIG 003V009 T01170111 $
13962KABI ABI20160312080011703/12/16 08:00:31  5-MIN KABI 121400Z 14006KT 10SM SCT004 BKN012 12/12 A2997 1750 100 1800 140/06 RMK AO2 T01170117 $
13962KABI ABI20160312080511603/12/16 08:05:31  5-MIN KABI 121405Z 15007KT 10SM SCT004 BKN012 12/11 A2997 1750 96 1800 140/07 RMK AO2 T01170111 $
13962KABI ABI20160312081011603/12/16 08:10:31  5-MIN KABI 121410Z 15007KT 10SM SCT004 BKN012 12/12 A2997 1750 96 1900 140/07 RMK AO2 T01220117 $
13962KABI ABI20160312081511603/12/16 08:15:31  5-MIN KABI 121415Z 15005KT 10SM SCT004 SCT015 12/12 A2997 1750 96 1900 140/05 RMK AO2 T01220117 $
13962KABI ABI20160312082011603/12/16 08:20:31  5-MIN KABI 121420Z 18005KT 10SM SCT004 SCT015 13/12 A2997 1740 93 1900 170/05 RMK AO2 T01280117 $
13962KABI ABI20160312082511603/12/16 08:25:31  5-MIN KABI 121425Z 20006KT 10SM SCT004 SCT015 12/12 A2998 1740 96 1900 200/06 RMK AO2 T01220117 $
13962KABI ABI20160312083011603/12/16 08:30:31  5-MIN KABI 121430Z 23009KT 10SM SCT006 BKN015 12/11 A2998 1740 93 1900 230/09 RMK AO2 T01220111 $
13962KABI ABI20160312083511603/12/16 08:35:31  5-MIN KABI 121435Z 23010KT 10SM SCT008 BKN016 12/11 A2998 1730 93 1900 230/10 RMK AO2 T01220111 $
13962KABI ABI20160312084011603/12/16 08:40:31  5-MIN KABI 121440Z 23008KT 10SM BKN008 BKN016 12/11 A2998 1740 93 1900 230/08 RMK AO2 T01220111 $
13962KABI ABI20160312084511603/12/16 08:45:31  5-MIN KABI 121445Z 24007KT 10SM BKN008 BKN016 12/11 A2998 1740 93 1900 230/07 RMK AO2 T01220111 $
13962KABI ABI20160312085012903/12/16 08:50:31  5-MIN KABI 121450Z 25007KT 10SM BKN008 BKN016 12/11 A2999 1730 93 1800 240/07 RMK AO2 SLP144 T01220111 53001 $
13962KABI ABI20160312085511603/12/16 08:55:31  5-MIN KABI 121455Z 24007KT 10SM BKN008 OVC016 12/11 A2999 1730 93 1800 240/07 RMK AO2 T01220111 $
13962KABI ABI20160312090011603/12/16 09:00:31  5-MIN KABI 121500Z 23006KT 10SM BKN008 OVC016 12/11 A2999 1720 93 1800 230/06 RMK AO2 T01220111 $
13962KABI ABI20160312090511603/12/16 09:05:31  5-MIN KABI 121505Z 25006KT 10SM BKN008 OVC016 12/11 A2999 1720 89 1800 250/06 RMK AO2 T01220106 $
13962KABI ABI20160312091011603/12/16 09:10:31  5-MIN KABI 121510Z 24006KT 10SM BKN008 OVC016 12/11 A2999 1720 93 1800 230/06 RMK AO2 T01220111 $
13962KABI ABI20160312091511603/12/16 09:15:31  5-MIN KABI 121515Z 23006KT 10SM BKN008 OVC016 12/11 A2999 1720 89 1800 220/06 RMK AO2 T01220106 $
13962KABI ABI20160312092011603/12/16 09:20:31  5-MIN KABI 121520Z 22005KT 10SM BKN008 OVC016 12/11 A2999 1720 89 1800 210/05 RMK AO2 T01220106 $
13962KABI ABI20160312092511603/12/16 09:25:31  5-MIN KABI 121525Z 23005KT 10SM BKN008 OVC016 12/11 A3000 1720 89 1800 230/05 RMK AO2 T01220106 $
13962KABI ABI20160312093011603/12/16 09:30:31  5-MIN KABI 121530Z 24006KT 10SM BKN008 OVC016 13/11 A3000 1720 89 1900 230/06 RMK AO2 T01280111 $
13962KABI ABI20160312093511603/12/16 09:35:31  5-MIN KABI 121535Z 23006KT 10SM BKN008 OVC016 13/11 A2999 1720 89 1900 230/06 RMK AO2 T01280111 $
13962KABI ABI20160312094011603/12/16 09:40:31  5-MIN KABI 121540Z 24008KT 10SM BKN008 OVC016 12/11 A2999 1730 89 1800 240/08 RMK AO2 T01220106 $
13962KABI ABI20160312094510903/12/16 09:45:31  5-MIN KABI 121545Z 24008KT 10SM OVC014 12/11 A2999 1730 89 1800 240/08 RMK AO2 T01220106 $
13962KABI ABI20160312095009903/12/16 09:50:31  5-MIN KABI 121550Z 24007KT 10SM OVC014 12/11 A2999 1730 89 1800 240/07 RMK AO2 $
13962KABI ABI20160312095511603/12/16 09:55:31  5-MIN KABI 121555Z 27010KT 10SM SCT010 OVC014 12/11 A2998 1740 89 1900 260/10 RMK AO2 T01220106 $
13962KABI ABI20160312100012803/12/16 10:00:31  5-MIN KABI 121600Z 26009KT 10SM BKN010 OVC014 12/11 A2998 1740 93 1800 260/09 RMK AO2 CIG 008V013 T01170106 $
13962KABI ABI20160312100511603/12/16 10:05:31  5-MIN KABI 121605Z 25009KT 10SM FEW010 OVC015 12/11 A2998 1740 89 1900 240/09 RMK AO2 T01220106 $
13962KABI ABI20160312101011603/12/16 10:10:31  5-MIN KABI 121610Z 24007KT 10SM FEW010 OVC015 12/11 A2998 1740 89 1900 240/07 RMK AO2 T01220106 $
13962KABI ABI20160312101511603/12/16 10:15:31  5-MIN KABI 121615Z 26005KT 10SM FEW010 OVC015 12/11 A2998 1740 89 1900 260/05 RMK AO2 T01220106 $
13962KABI ABI20160312102011603/12/16 10:20:31  5-MIN KABI 121620Z 24005KT 10SM FEW008 OVC015 12/11 A2997 1740 89 1900 240/05 RMK AO2 T01220106 $
13962KABI ABI20160312102511603/12/16 10:25:31  5-MIN KABI 121625Z 24005KT 10SM FEW010 OVC015 13/11 A2997 1740 86 1900 230/05 RMK AO2 T01280106 $
13962KABI ABI20160312103010903/12/16 10:30:31  5-MIN KABI 121630Z 24005KT 10SM OVC016 13/11 A2997 1740 86 1900 230/05 RMK AO2 T01280106 $
13962KABI ABI20160312103510903/12/16 10:35:31  5-MIN KABI 121635Z 24006KT 10SM OVC016 13/11 A2997 1740 86 1900 230/06 RMK AO2 T01280106 $
13962KABI ABI20160312104010903/12/16 10:40:31  5-MIN KABI 121640Z 23006KT 10SM OVC016 13/11 A2997 1740 86 1900 230/06 RMK AO2 T01280106 $
13962KABI ABI20160312104510903/12/16 10:45:31  5-MIN KABI 121645Z 22005KT 10SM OVC016 13/11 A2997 1750 83 2000 220/05 RMK AO2 T01330106 $
13962KABI ABI20160312105011603/12/16 10:50:31  5-MIN KABI 121650Z 19004KT 10SM OVC017 13/11 A2997 1750 83 2000 180/04 RMK AO2 SLP140 T01330106 $
13962KABI ABI20160312105510903/12/16 10:55:31  5-MIN KABI 121655Z 20005KT 10SM OVC017 13/11 A2997 1750 86 2000 200/05 RMK AO2 T01330111 $
13962KABI ABI20160312110010903/12/16 11:00:31  5-MIN KABI 121700Z VRB03KT 10SM OVC017 13/11 A2997 1750 83 2000 VRB/03 RMK AO2 T01330106 $
13962KABI ABI20160312110510903/12/16 11:05:31  5-MIN KABI 121705Z 19006KT 10SM OVC017 14/11 A2997 1750 80 2100 180/06 RMK AO2 T01390106 $
13962KABI ABI20160312111010903/12/16 11:10:31  5-MIN KABI 121710Z 17008KT 10SM OVC015 14/11 A2997 1750 80 2100 170/08 RMK AO2 T01390106 $
13962KABI ABI20160312111510903/12/16 11:15:31  5-MIN KABI 121715Z 18005KT 10SM OVC015 14/11 A2997 1750 80 2100 180/05 RMK AO2 T01390106 $
13962KABI ABI20160312112010903/12/16 11:20:31  5-MIN KABI 121720Z 18007KT 10SM OVC015 14/11 A2996 1750 80 2100 180/07 RMK AO2 T01390106 $
13962KABI ABI20160312112510903/12/16 11:25:31  5-MIN KABI 121725Z 16007KT 10SM OVC015 14/11 A2996 1760 80 2100 160/07 RMK AO2 T01390106 $
13962KABI ABI20160312113010903/12/16 11:30:31  5-MIN KABI 121730Z 15007KT 10SM OVC016 14/11 A2996 1760 80 2100 140/07 RMK AO2 T01390106 $
13962KABI ABI20160312113510903/12/16 11:35:31  5-MIN KABI 121735Z 14008KT 10SM OVC016 14/11 A2995 1760 77 2100 130/08 RMK AO2 T01440106 $
13962KABI ABI20160312114010903/12/16 11:40:31  5-MIN KABI 121740Z VRB06KT 10SM BKN016 14/11 A2995 1760 80 2100 VRB/06 RMK AO2 T01440111 $
13962KABI ABI20160312114510903/12/16 11:45:31  5-MIN KABI 121745Z 13006KT 10SM BKN016 14/11 A2995 1760 80 2100 120/06 RMK AO2 T01440111 $
13962KABI ABI20160312115013403/12/16 11:50:31  5-MIN KABI 121750Z 16007KT 10SM BKN016 15/11 A2995 1770 77 2200 150/07 RMK AO2 SLP131 T01500111 10150 20111 53011 $
13962KABI ABI20160312115509903/12/16 11:55:31  5-MIN KABI 121755Z 10SM BKN016 15/11 A2994 1770 77 2200 M /M RMK AO2 T01500111 $
13962KABI ABI20160312120010903/12/16 12:00:31  5-MIN KABI 121800Z 15004KT 10SM BKN016 16/11 A2994 1780 74 2300 140/04 RMK AO2 T01560111 $
13962KABI ABI20160312120510903/12/16 12:05:31  5-MIN KABI 121805Z 15006KT 10SM SCT016 15/11 A2994 1780 77 2200 140/06 RMK AO2 T01500111 $
13962KABI ABI20160312121012503/12/16 12:10:31  5-MIN KABI 121810Z 18007KT 140V210 10SM BKN016 16/11 A2994 1780 74 2300 180/07 140V210 RMK AO2 T01560111 $
13962KABI ABI20160312121510903/12/16 12:15:31  5-MIN KABI 121815Z VRB05KT 10SM BKN016 16/11 A2994 1780 74 2300 VRB/05 RMK AO2 T01560111 $
13962KABI ABI20160312122010903/12/16 12:20:31  5-MIN KABI 121820Z 23005KT 10SM BKN016 16/12 A2993 1790 75 2400 230/05 RMK AO2 T01610117 $
13962KABI ABI20160312122510903/12/16 12:25:31  5-MIN KABI 121825Z VRB03KT 10SM BKN016 16/12 A2992 1790 77 2300 VRB/03 RMK AO2 T01560117 $
13962KABI ABI20160312123010903/12/16 12:30:31  5-MIN KABI 121830Z VRB06KT 10SM BKN016 17/12 A2992 1790 72 2400 VRB/06 RMK AO2 T01670117 $
13962KABI ABI20160312123510903/12/16 12:35:31  5-MIN KABI 121835Z 21005KT 10SM BKN016 17/12 A2992 1790 72 2400 200/05 RMK AO2 T01670117 $
13962KABI ABI20160312124010903/12/16 12:40:31  5-MIN KABI 121840Z VRB06KT 10SM BKN016 17/12 A2992 1790 72 2400 VRB/06 RMK AO2 T01670117 $
13962KABI ABI20160312124510903/12/16 12:45:31  5-MIN KABI 121845Z VRB04KT 10SM BKN016 17/12 A2991 1800 72 2400 VRB/04 RMK AO2 T01670117 $
13962KABI ABI20160312125009903/12/16 12:50:31  5-MIN KABI 121850Z VRB04KT 10SM SCT021 17/12 A2991 1800 72 2500 VRB/04 RMK AO2 $
13962KABI ABI20160312125510903/12/16 12:55:31  5-MIN KABI 121855Z 20006KT 10SM SCT021 17/12 A2990 1810 69 2500 190/06 RMK AO2 T01720117 $
13962KABI ABI20160312130011603/12/16 13:00:31  5-MIN KABI 121900Z 21005KT 10SM FEW021 17/12 A2990 1810 69 2500 200/05 RMK AO2 PRESFR T01720117 $
13962KABI ABI20160312130510903/12/16 13:05:31  5-MIN KABI 121905Z 17005KT 10SM FEW021 17/12 A2990 1820 69 2500 170/05 RMK AO2 T01720117 $
13962KABI ABI20160312131009903/12/16 13:10:31  5-MIN KABI 121910Z 10SM FEW021 18/12 A2989 1820 67 2600 M /M RMK AO2 T01780117 $
13962KABI ABI20160312131510603/12/16 13:15:31  5-MIN KABI 121915Z 20007KT 10SM CLR 18/12 A2989 1820 69 2600 200/07 RMK AO2 T01780122 $
13962KABI ABI20160312132010603/12/16 13:20:31  5-MIN KABI 121920Z VRB04KT 10SM CLR 18/12 A2989 1830 67 2600 VRB/04 RMK AO2 T01780117 $
13962KABI ABI20160312132510603/12/16 13:25:31  5-MIN KABI 121925Z VRB05KT 10SM CLR 18/12 A2988 1830 67 2600 VRB/05 RMK AO2 T01780117 $
13962KABI ABI20160312133009903/12/16 13:30:31  5-MIN KABI 121930Z 10SM FEW025 18/12 A2988 1830 67 2600 M /M RMK AO2 T01780117 $
13962KABI ABI20160312133510903/12/16 13:35:31  5-MIN KABI 121935Z 18006KT 10SM FEW025 18/12 A2988 1830 65 2700 180/06 RMK AO2 T01830117 $
13962KABI ABI20160312134010903/12/16 13:40:31  5-MIN KABI 121940Z 17008KT 10SM FEW026 18/12 A2987 1830 65 2700 170/08 RMK AO2 T01830117 $
13962KABI ABI20160312134510603/12/16 13:45:31  5-MIN KABI 121945Z 19006KT 10SM CLR 18/11 A2987 1840 64 2600 180/06 RMK AO2 T01780111 $
13962KABI ABI20160312135011603/12/16 13:50:31  5-MIN KABI 121950Z 21004KT 10SM SCT024 18/12 A2987 1840 65 2700 210/04 RMK AO2 SLP102 T01830117 $
13962KABI ABI20160312135511603/12/16 13:55:31  5-MIN KABI 121955Z 23005KT 10SM FEW027 BKN033 18/12 A2986 1840 65 2700 230/05 RMK AO2 T01830117 $
13962KABI ABI20160312140010903/12/16 14:00:31  5-MIN KABI 122000Z 19006KT 10SM BKN033 18/11 A2986 1850 62 2700 180/06 RMK AO2 T01830111 $
13962KABI ABI20160312140510903/12/16 14:05:31  5-MIN KABI 122005Z VRB03KT 10SM BKN033 18/11 A2986 1850 64 2600 VRB/03 RMK AO2 T01780111 $
13962KABI ABI20160312141010903/12/16 14:10:31  5-MIN KABI 122010Z VRB05KT 10SM BKN033 19/12 A2985 1850 62 2800 VRB/05 RMK AO2 T01890117 $
13962KABI ABI20160312141510903/12/16 14:15:31  5-MIN KABI 122015Z 15008KT 10SM BKN033 19/12 A2985 1860 60 2800 150/08 RMK AO2 T01940117 $
13962KABI ABI20160312142010903/12/16 14:20:31  5-MIN KABI 122020Z VRB04KT 10SM BKN033 18/11 A2985 1860 62 2700 VRB/04 RMK AO2 T01830111 $
13962KABI ABI20160312142510903/12/16 14:25:31  5-MIN KABI 122025Z 20008KT 10SM BKN033 19/12 A2984 1860 62 2800 190/08 RMK AO2 T01890117 $
13962KABI ABI20160312143010903/12/16 14:30:31  5-MIN KABI 122030Z 20009KT 10SM BKN033 19/12 A2985 1860 60 2800 200/09 RMK AO2 T01940117 $
13962KABI ABI20160312143510903/12/16 14:35:31  5-MIN KABI 122035Z 20007KT 10SM BKN033 19/11 A2985 1860 60 2800 200/07 RMK AO2 T01890111 $
13962KABI ABI20160312144010903/12/16 14:40:31  5-MIN KABI 122040Z VRB03KT 10SM BKN035 19/11 A2984 1860 60 2800 VRB/03 RMK AO2 T01890111 $
13962KABI ABI20160312144510903/12/16 14:45:31  5-MIN KABI 122045Z 22008KT 10SM BKN035 18/11 A2984 1870 62 2700 210/08 RMK AO2 T01830111 $
13962KABI ABI20160312145012203/12/16 14:50:31  5-MIN KABI 122050Z 18009KT 10SM BKN035 19/12 A2984 1870 60 2900 180/09 RMK AO2 SLP091 T01940117 58012 $
13962KABI ABI20160312145511503/12/16 14:55:31  5-MIN KABI 122055Z 21010G14KT 10SM BKN035 19/12 A2984 1870 60 2900 210/10G14 RMK AO2 T01940117 $
13962KABI ABI20160312150010903/12/16 15:00:31  5-MIN KABI 122100Z 21009KT 10SM BKN035 19/11 A2983 1870 60 2800 210/09 RMK AO2 T01890111 $
13962KABI ABI20160312150510903/12/16 15:05:31  5-MIN KABI 122105Z 21010KT 10SM BKN035 19/11 A2984 1870 60 2800 210/10 RMK AO2 T01890111 $
13962KABI ABI20160312151010903/12/16 15:10:31  5-MIN KABI 122110Z 21010KT 10SM BKN034 19/11 A2983 1870 60 2800 210/10 RMK AO2 T01890111 $
13962KABI ABI20160312151510903/12/16 15:15:31  5-MIN KABI 122115Z 21009KT 10SM SCT034 19/11 A2983 1880 60 2800 210/09 RMK AO2 T01890111 $
13962KABI ABI20160312152010903/12/16 15:20:31  5-MIN KABI 122120Z 19009KT 10SM FEW034 19/11 A2982 1880 58 2900 190/09 RMK AO2 T01940111 $
13962KABI ABI20160312152510903/12/16 15:25:31  5-MIN KABI 122125Z 21012KT 10SM FEW034 19/11 A2982 1880 58 2900 210/12 RMK AO2 T01940111 $
13962KABI ABI20160312153010903/12/16 15:30:31  5-MIN KABI 122130Z 22010KT 10SM FEW034 19/11 A2982 1880 60 2800 210/10 RMK AO2 T01890111 $
13962KABI ABI20160312153510903/12/16 15:35:31  5-MIN KABI 122135Z 22008KT 10SM FEW034 19/11 A2982 1880 58 2900 210/08 RMK AO2 T01940111 $
13962KABI ABI20160312154010903/12/16 15:40:31  5-MIN KABI 122140Z 21007KT 10SM FEW034 19/11 A2982 1880 58 2900 210/07 RMK AO2 T01940111 $
13962KABI ABI20160312154512503/12/16 15:45:31  5-MIN KABI 122145Z 21009KT 180V240 10SM FEW034 19/12 A2982 1890 60 2900 200/09 180V240 RMK AO2 T01940117 $
13962KABI ABI20160312155011603/12/16 15:50:31  5-MIN KABI 122150Z 19010KT 10SM FEW034 19/12 A2982 1890 60 2900 190/10 RMK AO2 SLP082 T01940117 $
13962KABI ABI20160312155510903/12/16 15:55:31  5-MIN KABI 122155Z 22010KT 10SM FEW034 19/11 A2981 1890 58 2900 210/10 RMK AO2 T01940111 $
13962KABI ABI20160312160010903/12/16 16:00:31  5-MIN KABI 122200Z 21012KT 10SM FEW034 19/11 A2981 1890 58 2900 210/12 RMK AO2 T01940111 $
13962KABI ABI20160312160510903/12/16 16:05:31  5-MIN KABI 122205Z 22009KT 10SM FEW034 19/11 A2981 1890 60 2800 210/09 RMK AO2 T01890111 $
13962KABI ABI20160312161010903/12/16 16:10:31  5-MIN KABI 122210Z 21011KT 10SM FEW034 19/11 A2981 1890 58 2900 200/11 RMK AO2 T01940111 $
13962KABI ABI20160312161510603/12/16 16:15:31  5-MIN KABI 122215Z 20009KT 10SM CLR 19/11 A2981 1890 58 2900 200/09 RMK AO2 T01940111 $
13962KABI ABI20160312162010603/12/16 16:20:31  5-MIN KABI 122220Z 19006KT 10SM CLR 19/11 A2981 1900 58 2900 190/06 RMK AO2 T01940111 $
13962KABI ABI20160312162510603/12/16 16:25:31  5-MIN KABI 122225Z 22007KT 10SM CLR 19/11 A2981 1890 58 2900 220/07 RMK AO2 T01940111 $
13962KABI ABI20160312163010903/12/16 16:30:31  5-MIN KABI 122230Z 20009KT 10SM FEW035 19/11 A2981 1890 58 2900 190/09 RMK AO2 T01940111 $
13962KABI ABI20160312163510903/12/16 16:35:31  5-MIN KABI 122235Z 22008KT 10SM FEW035 19/11 A2981 1900 58 2900 210/08 RMK AO2 T01940111 $
13962KABI ABI20160312164010603/12/16 16:40:31  5-MIN KABI 122240Z 19008KT 10SM CLR 19/11 A2980 1900 60 2800 190/08 RMK AO2 T01890111 $
13962KABI ABI20160312164511203/12/16 16:45:31  5-MIN KABI 122245Z 19010G15KT 10SM CLR 19/11 A2979 1910 60 2800 180/10G15 RMK AO2 T01890111 $
13962KABI ABI20160312165012603/12/16 16:50:31  5-MIN KABI 122250Z 16008G15KT 10SM CLR 19/11 A2978 1920 58 2900 160/08G15 RMK AO2 PRESFR SLP072 T01940111 $
13962KABI ABI20160312165510603/12/16 16:55:31  5-MIN KABI 122255Z 20010KT 10SM CLR 19/11 A2979 1910 58 2900 190/10 RMK AO2 T01940111 $
13962KABI ABI20160312170010603/12/16 17:00:31  5-MIN KABI 122300Z 17010KT 10SM CLR 19/12 A2978 1920 60 2900 170/10 RMK AO2 T01940117 $
13962KABI ABI20160312170510603/12/16 17:05:31  5-MIN KABI 122305Z 17010KT 10SM CLR 19/12 A2978 1920 62 2900 170/10 RMK AO2 T01890117 $
13962KABI ABI20160312171010603/12/16 17:10:31  5-MIN KABI 122310Z 18008KT 10SM CLR 19/12 A2978 1920 62 2900 170/08 RMK AO2 T01890117 $
13962KABI ABI20160312171510603/12/16 17:15:31  5-MIN KABI 122315Z 21012KT 10SM CLR 19/12 A2978 1920 60 2900 200/12 RMK AO2 T01940117 $
13962KABI ABI20160312172010603/12/16 17:20:31  5-MIN KABI 122320Z 19010KT 10SM CLR 19/11 A2978 1920 60 2900 180/10 RMK AO2 T01890111 $
13962KABI ABI20160312172510603/12/16 17:25:31  5-MIN KABI 122325Z 21011KT 10SM CLR 19/11 A2978 1920 60 2900 200/11 RMK AO2 T01890111 $
13962KABI ABI20160312173010603/12/16 17:30:31  5-MIN KABI 122330Z 19009KT 10SM CLR 19/11 A2978 1930 60 2900 180/09 RMK AO2 T01890111 $
13962KABI ABI20160312173510603/12/16 17:35:31  5-MIN KABI 122335Z 21011KT 10SM CLR 19/12 A2978 1920 62 2900 200/11 RMK AO2 T01890117 $
13962KABI ABI20160312174010603/12/16 17:40:31  5-MIN KABI 122340Z 20011KT 10SM CLR 19/12 A2978 1920 62 2900 200/11 RMK AO2 T01890117 $
13962KABI ABI20160312174510603/12/16 17:45:31  5-MIN KABI 122345Z 20012KT 10SM CLR 18/12 A2978 1920 65 2800 190/12 RMK AO2 T01830117 $
13962KABI ABI20160312175013103/12/16 17:50:31  5-MIN KABI 122350Z 20010KT 10SM CLR 18/12 A2978 1920 65 2800 190/10 RMK AO2 SLP071 T01830117 10194 20150 56035 $
13962KABI ABI20160312175510603/12/16 17:55:31  5-MIN KABI 122355Z 20011KT 10SM CLR 18/12 A2978 1920 65 2800 190/11 RMK AO2 T01830117 $
13962KABI ABI20160312180010603/12/16 18:00:31  5-MIN KABI 130000Z 20010KT 10SM CLR 18/12 A2978 1920 65 2800 200/10 RMK AO2 T01830117 $
13962KABI ABI20160312180510603/12/16 18:05:31  5-MIN KABI 130005Z 20010KT 10SM CLR 18/12 A2978 1920 67 2700 190/10 RMK AO2 T01780117 $
13962KABI ABI20160312181010603/12/16 18:10:31  5-MIN KABI 130010Z 20012KT 10SM CLR 18/12 A2978 1920 67 2700 190/12 RMK AO2 T01780117 $
13962KABI ABI20160312181510603/12/16 18:15:31  5-MIN KABI 130015Z 19010KT 10SM CLR 18/12 A2978 1920 67 2700 190/10 RMK AO2 T01780117 $
13962KABI ABI20160312182010603/12/16 18:20:31  5-MIN KABI 130020Z 20011KT 10SM CLR 18/12 A2978 1920 67 2700 190/11 RMK AO2 T01780117 $
13962KABI ABI20160312182510603/12/16 18:25:31  5-MIN KABI 130025Z 19008KT 10SM CLR 17/12 A2978 1920 69 2700 190/08 RMK AO2 T01720117 $
13962KABI ABI20160312183010603/12/16 18:30:31  5-MIN KABI 130030Z 19009KT 10SM CLR 17/12 A2978 1920 69 2700 180/09 RMK AO2 T01720117 $
13962KABI ABI20160312183510603/12/16 18:35:31  5-MIN KABI 130035Z 19008KT 10SM CLR 17/12 A2978 1920 72 2600 180/08 RMK AO2 T01670117 $
13962KABI ABI20160312184010603/12/16 18:40:31  5-MIN KABI 130040Z 19008KT 10SM CLR 17/11 A2978 1920 69 2600 190/08 RMK AO2 T01670111 $
13962KABI ABI20160313034510603/13/16 03:45:31  5-MIN KABI 130945Z 20010KT 10SM CLR 13/10 A2972 1980 83 2200 200/10 RMK AO2 T01280100 $
13962KABI ABI20160313035011303/13/16 03:50:31  5-MIN KABI 130950Z 21009KT 10SM CLR 12/09 A2971 1980 83 2200 210/09 RMK AO2 SLP047 T01220094 $
13962KABI ABI20160313035510603/13/16 03:55:31  5-MIN KABI 130955Z 21009KT 10SM CLR 12/09 A2972 1980 83 2200 210/09 RMK AO2 T01220094 $
13962KABI ABI20160313040010603/13/16 04:00:31  5-MIN KABI 131000Z 22009KT 10SM CLR 12/09 A2972 1980 83 2200 210/09 RMK AO2 T01220094 $
13962KABI ABI20160313040510603/13/16 04:05:31  5-MIN KABI 131005Z 22009KT 10SM CLR 12/09 A2971 1980 83 2200 210/09 RMK AO2 T01220094 $
13962KABI ABI20160313041010603/13/16 04:10:31  5-MIN KABI 131010Z 21009KT 10SM CLR 12/09 A2971 1990 83 2100 210/09 RMK AO2 T01170089 $
13962KABI ABI20160313041510603/13/16 04:15:31  5-MIN KABI 131015Z 20009KT 10SM CLR 12/09 A2971 1990 83 2100 200/09 RMK AO2 T01170089 $
13962KABI ABI20160313042010603/13/16 04:20:31  5-MIN KABI 131020Z 20009KT 10SM CLR 12/09 A2971 1990 83 2100 200/09 RMK AO2 T01170089 $
13962KABI ABI20160313042510603/13/16 04:25:31  5-MIN KABI 131025Z 20010KT 10SM CLR 12/09 A2971 1990 83 2100 200/10 RMK AO2 T01170089 $
13962KABI ABI20160313043010603/13/16 04:30:31  5-MIN KABI 131030Z 20010KT 10SM CLR 12/09 A2971 1990 83 2100 200/10 RMK AO2 T01170089 $
13962KABI ABI20160313043510603/13/16 04:35:31  5-MIN KABI 131035Z 20010KT 10SM CLR 12/08 A2970 2000 80 2100 200/10 RMK AO2 T01170083 $
13962KABI ABI20160313044010603/13/16 04:40:31  5-MIN KABI 131040Z 20010KT 10SM CLR 12/08 A2970 2000 80 2100 200/10 RMK AO2 T01170083 $
13962KABI ABI20160313044510603/13/16 04:45:31  5-MIN KABI 131045Z 20010KT 10SM CLR 12/08 A2970 2000 77 2100 200/10 RMK AO2 T01170078 $
13962KABI ABI20160313045011303/13/16 04:50:31  5-MIN KABI 131050Z AUTO 20011KT 12/08 A2970 2000 77 2100 200/11 RMK AO2 T01170078 TSNO RVRNO $
13962KABI ABI20160313045510303/13/16 04:55:31  5-MIN KABI 131055Z 21012KT 12/07 A2970 2000 74 2100 200/12 RMK AO2 T01170072 RVRNO $
13962KABI ABI20160313050010203/13/16 05:00:31  5-MIN KABI 131100Z 21011KT 10SM 12/07 A2970 2000 68 2200 210/11 RMK AO2 T01220067 $
13962KABI ABI20160313050510203/13/16 05:05:31  5-MIN KABI 131105Z 21012KT 10SM 12/07 A2970 2000 68 2200 200/12 RMK AO2 T01220067 $
13962KABI ABI20160313051010203/13/16 05:10:31  5-MIN KABI 131110Z 21011KT 10SM 12/07 A2969 2000 68 2200 210/11 RMK AO2 T01220067 $
13962KABI ABI20160313051510203/13/16 05:15:31  5-MIN KABI 131115Z 21013KT 10SM 12/07 A2969 2000 71 2100 210/13 RMK AO2 T01170067 $
13962KABI ABI20160313052010603/13/16 05:20:31  5-MIN KABI 131120Z 21011KT 10SM CLR 12/07 A2969 2000 71 2100 210/11 RMK AO2 T01170067 $
13962KABI ABI20160313052510603/13/16 05:25:31  5-MIN KABI 131125Z 21012KT 10SM CLR 12/07 A2969 2000 71 2100 210/12 RMK AO2 T01170067 $
13962KABI ABI20160313053010603/13/16 05:30:31  5-MIN KABI 131130Z 22011KT 10SM CLR 12/06 A2969 2000 68 2100 210/11 RMK AO2 T01170061 $
13962KABI ABI20160313053510603/13/16 05:35:31  5-MIN KABI 131135Z 22010KT 10SM CLR 12/06 A2970 2000 68 2100 210/10 RMK AO2 T01170061 $
13962KABI ABI20160313054010603/13/16 05:40:31  5-MIN KABI 131140Z 21010KT 10SM CLR 11/06 A2970 2000 71 2000 210/10 RMK AO2 T01110061 $
13962KABI ABI20160313054510603/13/16 05:45:31  5-MIN KABI 131145Z 21010KT 10SM CLR 11/06 A2970 2000 68 2000 210/10 RMK AO2 T01110056 $
13962KABI ABI20160313055012503/13/16 05:50:31  5-MIN KABI 131150Z 21010KT 10SM CLR 11/05 A2970 2000 66 2000 210/10 RMK AO2 SLP045 T01110050 10156 20111 $
13962KABI ABI20160313055510603/13/16 05:55:31  5-MIN KABI 131155Z 22009KT 10SM CLR 11/05 A2971 1990 66 2000 220/09 RMK AO2 T01110050 $
13962KABI ABI20160313060010603/13/16 06:00:31  5-MIN KABI 131200Z 22009KT 10SM CLR 11/06 A2970 1990 68 2000 210/09 RMK AO2 T01110056 $
13962KABI ABI20160313060510603/13/16 06:05:31  5-MIN KABI 131205Z 21010KT 10SM CLR 11/05 A2970 1990 66 2000 210/10 RMK AO2 T01110050 $
13962KABI ABI20160313061010603/13/16 06:10:31  5-MIN KABI 131210Z 21010KT 10SM CLR 11/05 A2970 1990 66 2000 210/10 RMK AO2 T01110050 $
13962KABI ABI20160313061510603/13/16 06:15:31  5-MIN KABI 131215Z 22009KT 10SM CLR 11/05 A2971 1990 68 2000 210/09 RMK AO2 T01060050 $
13962KABI ABI20160313062010603/13/16 06:20:31  5-MIN KABI 131220Z 22009KT 10SM CLR 11/04 A2971 1990 66 2000 210/09 RMK AO2 T01060044 $
13962KABI ABI20160313062510603/13/16 06:25:31  5-MIN KABI 131225Z 22009KT 10SM CLR 11/04 A2971 1990 66 2000 210/09 RMK AO2 T01060044 $
13962KABI ABI20160313063010603/13/16 06:30:31  5-MIN KABI 131230Z 21010KT 10SM CLR 11/04 A2971 1990 66 2000 210/10 RMK AO2 T01060044 $
13962KABI ABI20160313063510603/13/16 06:35:31  5-MIN KABI 131235Z 21010KT 10SM CLR 11/04 A2971 1990 63 2000 200/10 RMK AO2 T01060039 $
13962KABI ABI20160313064010603/13/16 06:40:31  5-MIN KABI 131240Z 21011KT 10SM CLR 11/04 A2971 1990 63 2000 200/11 RMK AO2 T01060039 $
13962KABI ABI20160313064510603/13/16 06:45:31  5-MIN KABI 131245Z 21010KT 10SM CLR 11/03 A2971 1990 61 2000 200/10 RMK AO2 T01060033 $
13962KABI ABI20160313065011303/13/16 06:50:31  5-MIN KABI 131250Z 22010KT 10SM CLR 11/03 A2971 1980 56 2000 210/10 RMK AO2 SLP049 T01110028 $
13962KABI ABI20160313065510603/13/16 06:55:31  5-MIN KABI 131255Z 21009KT 10SM CLR 11/03 A2971 1980 56 2000 210/09 RMK AO2 T01110028 $
13962KABI ABI20160313070010603/13/16 07:00:31  5-MIN KABI 131300Z 24009KT 10SM CLR 12/02 A2971 1980 50 2100 230/09 RMK AO2 T01170017 $
13962KABI ABI20160313070511303/13/16 07:05:31  5-MIN KABI 131305Z 25014G20KT 10SM CLR 13/M01 A2972 1980 38 2300 250/14G20 RMK AO2 T01331006 $
13962KABI ABI20160313071011303/13/16 07:10:31  5-MIN KABI 131310Z 25011G20KT 10SM CLR 14/M01 A2972 1980 37 2400 240/11G20 RMK AO2 T01391006 $
13962KABI ABI20160313071510703/13/16 07:15:31  5-MIN KABI 131315Z 25012KT 10SM CLR 13/M01 A2972 1980 38 2300 240/12 RMK AO2 T01331006 $
13962KABI ABI20160313072010703/13/16 07:20:31  5-MIN KABI 131320Z 25013KT 10SM CLR 14/M01 A2972 1980 35 2300 240/13 RMK AO2 T01391011 $
13962KABI ABI20160313072511303/13/16 07:25:31  5-MIN KABI 131325Z 25011G19KT 10SM CLR 14/M01 A2972 1980 37 2300 240/11G19 RMK AO2 T01391006 $
13962KABI ABI20160313073010703/13/16 07:30:31  5-MIN KABI 131330Z 25013KT 10SM CLR 14/M01 A2972 1980 37 2300 240/13 RMK AO2 T01391006 $
13962KABI ABI20160313073510703/13/16 07:35:31  5-MIN KABI 131335Z 25010KT 10SM CLR 14/M01 A2972 1980 37 2300 240/10 RMK AO2 T01391006 $
13962KABI ABI20160313074010703/13/16 07:40:31  5-MIN KABI 131340Z 25012KT 10SM CLR 14/M01 A2972 1980 37 2300 250/12 RMK AO2 T01391006 $
13962KABI ABI20160313074510703/13/16 07:45:31  5-MIN KABI 131345Z 25012KT 10SM CLR 14/M01 A2972 1980 37 2300 240/12 RMK AO2 T01391006 $
13962KABI ABI20160313075011403/13/16 07:50:31  5-MIN KABI 131350Z 25012KT 10SM CLR 14/M01 A2972 1970 35 2400 250/12 RMK AO2 SLP052 T01441006 $
13962KABI ABI20160313075510603/13/16 07:55:31  5-MIN KABI 131355Z 25012KT 10SM CLR 14/00 A2973 1970 37 2400 250/12 RMK AO2 T01440000 $
13962KABI ABI20160313080010703/13/16 08:00:31  5-MIN KABI 131400Z 25013KT 10SM CLR 14/M01 A2973 1970 35 2400 250/13 RMK AO2 T01441006 $
13962KABI ABI20160313080511303/13/16 08:05:31  5-MIN KABI 131405Z 26014G20KT 10SM CLR 14/M01 A2973 1970 35 2400 250/14G20 RMK AO2 T01441006 $
13962KABI ABI20160313081011203/13/16 08:10:31  5-MIN KABI 131410Z 26013G20KT 10SM CLR 15/00 A2973 1970 35 2500 250/13G20 RMK AO2 T01500000 $
13962KABI ABI20160313081510703/13/16 08:15:31  5-MIN KABI 131415Z 25014KT 10SM CLR 15/M01 A2973 1970 34 2500 250/14 RMK AO2 T01501006 $
13962KABI ABI20160313082011203/13/16 08:20:31  5-MIN KABI 131420Z 25010G19KT 10SM CLR 15/01 A2973 1970 37 2500 250/10G19 RMK AO2 T01500006 $
13962KABI ABI20160313082511203/13/16 08:25:31  5-MIN KABI 131425Z 26013G19KT 10SM CLR 16/00 A2973 1970 34 2500 250/13G19 RMK AO2 T01560000 $
13962KABI ABI20160313083010603/13/16 08:30:31  5-MIN KABI 131430Z 26013KT 10SM CLR 16/00 A2974 1960 34 2500 250/13 RMK AO2 T01560000 $
13962KABI ABI20160313083511203/13/16 08:35:31  5-MIN KABI 131435Z 25013G20KT 10SM CLR 16/01 A2974 1960 36 2500 250/13G20 RMK AO2 T01560006 $
13962KABI ABI20160313084011203/13/16 08:40:31  5-MIN KABI 131440Z 25014G20KT 10SM CLR 16/00 A2974 1960 33 2600 250/14G20 RMK AO2 T01610000 $
13962KABI ABI20160313084511203/13/16 08:45:31  5-MIN KABI 131445Z 26016G19KT 10SM CLR 16/01 A2974 1960 34 2600 260/16G19 RMK AO2 T01610006 $
13962KABI ABI20160313085011903/13/16 08:50:31  5-MIN KABI 131450Z 25013G19KT 10SM CLR 16/00 A2974 1960 33 2600 250/13G19 RMK AO2 SLP057 T01610000 $
13962KABI ABI20160313085511203/13/16 08:55:31  5-MIN KABI 131455Z 25013G19KT 10SM CLR 17/01 A2974 1960 33 2600 250/13G19 RMK AO2 T01670006 $
13962KABI ABI20160313090011203/13/16 09:00:31  5-MIN KABI 131500Z 26014G21KT 10SM CLR 17/01 A2974 1960 33 2600 250/14G21 RMK AO2 T01670006 $
13962KABI ABI20160313090511203/13/16 09:05:31  5-MIN KABI 131505Z 26014G21KT 10SM CLR 17/01 A2974 1960 32 2700 250/14G21 RMK AO2 T01720006 $
13962KABI ABI20160313091011203/13/16 09:10:31  5-MIN KABI 131510Z 26012G19KT 10SM CLR 17/01 A2974 1960 33 2700 250/12G19 RMK AO2 T01720011 $
13962KABI ABI20160313091511203/13/16 09:15:31  5-MIN KABI 131515Z 25015G20KT 10SM CLR 17/01 A2974 1960 33 2700 250/15G20 RMK AO2 T01720011 $
13962KABI ABI20160313092011203/13/16 09:20:31  5-MIN KABI 131520Z 26013G20KT 10SM CLR 17/01 A2975 1950 33 2700 260/13G20 RMK AO2 T01720011 $
13962KABI ABI20160313092510603/13/16 09:25:31  5-MIN KABI 131525Z 27014KT 10SM CLR 18/01 A2974 1960 32 2800 260/14 RMK AO2 T01780011 $
13962KABI ABI20160313093010603/13/16 09:30:31  5-MIN KABI 131530Z 26012KT 10SM CLR 18/02 A2974 1960 33 2800 250/12 RMK AO2 T01780017 $
13962KABI ABI20160313093511203/13/16 09:35:31  5-MIN KABI 131535Z 27018G24KT 10SM CLR 18/01 A2974 1960 32 2800 260/18G24 RMK AO2 T01780011 $
13962KABI ABI20160313094011203/13/16 09:40:31  5-MIN KABI 131540Z 28016G24KT 10SM CLR 18/01 A2974 1960 32 2800 270/16G24 RMK AO2 T01780011 $
13962KABI ABI20160313094511203/13/16 09:45:31  5-MIN KABI 131545Z 27011G22KT 10SM CLR 18/02 A2974 1960 32 2800 270/11G22 RMK AO2 T01830017 $
13962KABI ABI20160313095011903/13/16 09:50:31  5-MIN KABI 131550Z 26016G21KT 10SM CLR 19/02 A2974 1960 32 2900 260/16G21 RMK AO2 SLP054 T01890022 $
13962KABI ABI20160313095511203/13/16 09:55:31  5-MIN KABI 131555Z 27016G21KT 10SM CLR 18/02 A2974 1960 32 2800 270/16G21 RMK AO2 T01830017 $
13962KABI ABI20160313100010603/13/16 10:00:31  5-MIN KABI 131600Z 27015KT 10SM CLR 18/02 A2974 1960 34 2800 260/15 RMK AO2 T01830022 $
13962KABI ABI20160313100510603/13/16 10:05:31  5-MIN KABI 131605Z 25015KT 10SM CLR 19/03 A2974 1960 34 2900 250/15 RMK AO2 T01890028 $
13962KABI ABI20160313101011203/13/16 10:10:31  5-MIN KABI 131610Z 25013G22KT 10SM CLR 19/03 A2973 1970 34 2900 240/13G22 RMK AO2 T01890028 $
13962KABI ABI20160313101511203/13/16 10:15:31  5-MIN KABI 131615Z 25015G22KT 10SM CLR 19/03 A2974 1960 34 3000 240/15G22 RMK AO2 T01940033 $
13962KABI ABI20160313102010603/13/16 10:20:31  5-MIN KABI 131620Z 26015KT 10SM CLR 19/03 A2974 1960 34 2900 250/15 RMK AO2 T01890028 $
13962KABI ABI20160313102510603/13/16 10:25:31  5-MIN KABI 131625Z 25015KT 10SM CLR 19/03 A2974 1960 34 3000 250/15 RMK AO2 T01940033 $
13962KABI ABI20160313103010603/13/16 10:30:31  5-MIN KABI 131630Z 26016KT 10SM CLR 19/03 A2975 1950 33 3000 260/16 RMK AO2 T01940028 $
13962KABI ABI20160313103511203/13/16 10:35:31  5-MIN KABI 131635Z 26015G24KT 10SM CLR 20/03 A2974 1960 33 3000 260/15G24 RMK AO2 T02000033 $
13962KABI ABI20160313104011203/13/16 10:40:31  5-MIN KABI 131640Z 27014G24KT 10SM CLR 20/03 A2975 1950 33 3000 260/14G24 RMK AO2 T02000033 $
13962KABI ABI20160313104511203/13/16 10:45:31  5-MIN KABI 131645Z 28019G25KT 10SM CLR 20/04 A2974 1960 34 3000 270/19G25 RMK AO2 T02000039 $
13962KABI ABI20160313105011903/13/16 10:50:31  5-MIN KABI 131650Z 27018G25KT 10SM CLR 20/03 A2975 1950 33 3000 270/18G25 RMK AO2 SLP056 T02000033 $
13962KABI ABI20160313105511203/13/16 10:55:31  5-MIN KABI 131655Z 28015G25KT 10SM CLR 20/04 A2975 1950 34 3000 280/15G25 RMK AO2 T02000039 $
13962KABI ABI20160313110011203/13/16 11:00:31  5-MIN KABI 131700Z 27019G25KT 10SM CLR 21/04 A2975 1950 34 3100 270/19G25 RMK AO2 T02060044 $
13962KABI ABI20160313110513003/13/16 11:05:31  5-MIN KABI 131705Z 27019G26KT 10SM CLR 21/04 A2975 1960 33 3100 270/19G26 RMK AO2 PK WND 26026/1703 T02060039 $
13962KABI ABI20160313111013003/13/16 11:10:31  5-MIN KABI 131710Z 28021G26KT 10SM CLR 21/04 A2975 1950 34 3100 280/21G26 RMK AO2 PK WND 26026/1703 T02060044 $
13962KABI ABI20160313111513003/13/16 11:15:31  5-MIN KABI 131715Z 28019G27KT 10SM CLR 21/04 A2975 1950 33 3100 280/19G27 RMK AO2 PK WND 28027/1713 T02060039 $
13962KABI ABI20160313112013003/13/16 11:20:31  5-MIN KABI 131720Z 30020G28KT 10SM CLR 21/04 A2975 1950 33 3100 290/20G28 RMK AO2 PK WND 30028/1719 T02060039 $
13962KABI ABI20160313112513003/13/16 11:25:31  5-MIN KABI 131725Z 28023G28KT 10SM CLR 21/04 A2975 1950 32 3100 270/23G28 RMK AO2 PK WND 27028/1723 T02110039 $
13962KABI ABI20160313113013003/13/16 11:30:31  5-MIN KABI 131730Z 30021G28KT 10SM CLR 21/04 A2975 1950 32 3200 290/21G28 RMK AO2 PK WND 27028/1723 T02110039 $
13962KABI ABI20160313113513003/13/16 11:35:31  5-MIN KABI 131735Z 29019G28KT 10SM CLR 22/04 A2975 1950 32 3200 280/19G28 RMK AO2 PK WND 27028/1723 T02170044 $
13962KABI ABI20160313114013003/13/16 11:40:31  5-MIN KABI 131740Z 29020G27KT 10SM CLR 22/04 A2975 1950 32 3200 290/20G27 RMK AO2 PK WND 27028/1723 T02170044 $
13962KABI ABI20160313114512403/13/16 11:45:31  5-MIN KABI 131745Z 29020KT 10SM CLR 22/04 A2975 1950 31 3200 290/20 RMK AO2 PK WND 27028/1723 T02170039 $
13962KABI ABI20160313115014903/13/16 11:50:31  5-MIN KABI 131750Z 30018KT 10SM CLR 22/04 A2975 1950 32 3200 290/18 RMK AO2 PK WND 27028/1723 SLP056 T02170044 10217 20106 53012 $
13962KABI ABI20160313115511203/13/16 11:55:31  5-MIN KABI 131755Z 30020G25KT 10SM CLR 22/04 A2975 1950 31 3300 300/20G25 RMK AO2 T02220044 $
13962KABI ABI20160313120013003/13/16 12:00:31  5-MIN KABI 131800Z 29021G28KT 10SM CLR 22/04 A2975 1950 31 3300 280/21G28 RMK AO2 PK WND 28028/1759 T02220044 $
13962KABI ABI20160313120513003/13/16 12:05:31  5-MIN KABI 131805Z 29020G28KT 10SM CLR 22/05 A2975 1950 32 3300 290/20G28 RMK AO2 PK WND 28028/1759 T02220050 $
13962KABI ABI20160313121013003/13/16 12:10:31  5-MIN KABI 131810Z 29019G26KT 10SM CLR 22/04 A2975 1950 31 3300 290/19G26 RMK AO2 PK WND 28028/1759 T02220044 $
13962KABI ABI20160313121513003/13/16 12:15:31  5-MIN KABI 131815Z 28021G29KT 10SM CLR 22/04 A2975 1950 31 3300 270/21G29 RMK AO2 PK WND 29029/1813 T02220044 $
13962KABI ABI20160313122013003/13/16 12:20:31  5-MIN KABI 131820Z 29018G29KT 10SM CLR 23/04 A2975 1950 30 3300 280/18G29 RMK AO2 PK WND 29029/1813 T02280044 $
13962KABI ABI20160313122512403/13/16 12:25:31  5-MIN KABI 131825Z 28018KT 10SM CLR 23/05 A2975 1950 31 3300 270/18 RMK AO2 PK WND 29029/1813 T02280050 $
13962KABI ABI20160313123013003/13/16 12:30:31  5-MIN KABI 131830Z 31021G27KT 10SM CLR 23/06 A2975 1950 31 3400 300/21G27 RMK AO2 PK WND 29029/1813 T02330056 $
13962KABI ABI20160313123513003/13/16 12:35:31  5-MIN KABI 131835Z 30022G29KT 10SM CLR 23/06 A2975 1950 31 3400 290/22G29 RMK AO2 PK WND 29029/1813 T02330056 $
13962KABI ABI20160313124013003/13/16 12:40:31  5-MIN KABI 131840Z 31024G29KT 10SM CLR 23/06 A2975 1950 32 3400 300/24G29 RMK AO2 PK WND 29029/1813 T02330061 $
13962KABI ABI20160313124513003/13/16 12:45:31  5-MIN KABI 131845Z 30023G30KT 10SM CLR 23/05 A2975 1950 30 3400 300/23G30 RMK AO2 PK WND 31030/1843 T02330050 $
13962KABI ABI20160313125013703/13/16 12:50:31  5-MIN KABI 131850Z 30020G30KT 10SM CLR 23/05 A2975 1950 30 3400 290/20G30 RMK AO2 PK WND 31030/1843 SLP056 T02330050 $
13962KABI ABI20160313125511203/13/16 12:55:31  5-MIN KABI 131855Z 31019G29KT 10SM CLR 23/05 A2975 1950 30 3400 300/19G29 RMK AO2 T02330050 $
13962KABI ABI20160313130013003/13/16 13:00:31  5-MIN KABI 131900Z 30021G26KT 10SM CLR 23/05 A2975 1950 30 3400 300/21G26 RMK AO2 PK WND 31026/1856 T02330050 $
13962KABI ABI20160313130513003/13/16 13:05:31  5-MIN KABI 131905Z 29020G28KT 10SM CLR 23/05 A2975 1950 30 3400 290/20G28 RMK AO2 PK WND 29028/1901 T02330050 $
13962KABI ABI20160313131013003/13/16 13:10:31  5-MIN KABI 131910Z 29018G28KT 10SM CLR 24/05 A2975 1950 29 3500 290/18G28 RMK AO2 PK WND 29028/1901 T02390050 $
13962KABI ABI20160313131513003/13/16 13:15:31  5-MIN KABI 131915Z 30021G29KT 10SM CLR 24/06 A2975 1950 30 3500 290/21G29 RMK AO2 PK WND 30029/1913 T02390056 $
13962KABI ABI20160313132013003/13/16 13:20:31  5-MIN KABI 131920Z 29017G29KT 10SM CLR 24/06 A2975 1950 30 3500 280/17G29 RMK AO2 PK WND 30029/1913 T02390056 $
13962KABI ABI20160313132512403/13/16 13:25:31  5-MIN KABI 131925Z 31018KT 10SM CLR 24/06 A2975 1950 30 3500 300/18 RMK AO2 PK WND 30029/1913 T02440061 $
13962KABI ABI20160313133013003/13/16 13:30:31  5-MIN KABI 131930Z 31020G27KT 10SM CLR 24/05 A2975 1950 29 3500 310/20G27 RMK AO2 PK WND 30029/1913 T02390050 $
13962KABI ABI20160313133513003/13/16 13:35:31  5-MIN KABI 131935Z 31020G27KT 10SM CLR 24/06 A2975 1950 29 3500 300/20G27 RMK AO2 PK WND 30029/1913 T02440056 $
13962KABI ABI20160313134013003/13/16 13:40:31  5-MIN KABI 131940Z 29019G27KT 10SM CLR 24/06 A2975 1950 29 3500 290/19G27 RMK AO2 PK WND 30029/1913 T02440056 $
13962KABI ABI20160313134513003/13/16 13:45:31  5-MIN KABI 131945Z 29020G28KT 10SM CLR 24/05 A2975 1950 28 3500 290/20G28 RMK AO2 PK WND 30029/1913 T02440050 $
13962KABI ABI20160313135013703/13/16 13:50:31  5-MIN KABI 131950Z 30017G28KT 10SM CLR 24/05 A2974 1960 28 3500 290/17G28 RMK AO2 PK WND 30029/1913 SLP053 T02440050 $
13962KABI ABI20160313135513003/13/16 13:55:31  5-MIN KABI 131955Z 30022G28KT 10SM CLR 24/06 A2974 1960 29 3500 300/22G28 RMK AO2 PK WND 31028/1954 T02440056 $
13962KABI ABI20160313140013003/13/16 14:00:31  5-MIN KABI 132000Z 30017G28KT 10SM CLR 24/05 A2974 1960 28 3500 300/17G28 RMK AO2 PK WND 31028/1954 T02440050 $
13962KABI ABI20160313140513003/13/16 14:05:31  5-MIN KABI 132005Z 31019G26KT 10SM CLR 24/05 A2974 1960 28 3500 300/19G26 RMK AO2 PK WND 31028/1954 T02440050 $
13962KABI ABI20160313141013003/13/16 14:10:31  5-MIN KABI 132010Z 31019G27KT 10SM CLR 24/05 A2974 1960 28 3500 300/19G27 RMK AO2 PK WND 31028/1954 T02440050 $
13962KABI ABI20160313141513003/13/16 14:15:31  5-MIN KABI 132015Z 29017G27KT 10SM CLR 24/05 A2974 1960 28 3500 280/17G27 RMK AO2 PK WND 31028/1954 T02440050 $
13962KABI ABI20160313142013003/13/16 14:20:31  5-MIN KABI 132020Z 32020G26KT 10SM CLR 25/06 A2974 1960 28 3600 310/20G26 RMK AO2 PK WND 31028/1954 T02500056 $
13962KABI ABI20160313142513003/13/16 14:25:31  5-MIN KABI 132025Z 30021G26KT 10SM CLR 24/04 A2974 1960 27 3500 290/21G26 RMK AO2 PK WND 31028/1954 T02440044 $
13962KABI ABI20160313143013003/13/16 14:30:31  5-MIN KABI 132030Z 30019G26KT 10SM CLR 24/05 A2974 1960 28 3500 300/19G26 RMK AO2 PK WND 31028/1954 T02440050 $
13962KABI ABI20160313143513003/13/16 14:35:31  5-MIN KABI 132035Z 31022G28KT 10SM CLR 25/05 A2974 1960 27 3600 300/22G28 RMK AO2 PK WND 31028/2035 T02500050 $
13962KABI ABI20160313144013003/13/16 14:40:31  5-MIN KABI 132040Z 31017G28KT 10SM CLR 25/06 A2974 1960 28 3600 310/17G28 RMK AO2 PK WND 31028/2035 T02500056 $
13962KABI ABI20160313144513003/13/16 14:45:31  5-MIN KABI 132045Z 30019G25KT 10SM CLR 25/05 A2974 1960 27 3600 300/19G25 RMK AO2 PK WND 31028/2035 T02500050 $
13962KABI ABI20160313145014303/13/16 14:50:31  5-MIN KABI 132050Z 31016G25KT 10SM CLR 25/05 A2974 1960 27 3600 310/16G25 RMK AO2 PK WND 31028/2035 SLP052 T02500050 53003 $
13962KABI ABI20160313145511203/13/16 14:55:31  5-MIN KABI 132055Z 31016G25KT 10SM CLR 26/06 A2974 1960 28 3700 300/16G25 RMK AO2 T02560061 $
13962KABI ABI20160313150013003/13/16 15:00:31  5-MIN KABI 132100Z 30018G26KT 10SM CLR 25/06 A2974 1960 28 3600 290/18G26 RMK AO2 PK WND 30026/2058 T02500056 $
13962KABI ABI20160313150513003/13/16 15:05:31  5-MIN KABI 132105Z 31014G26KT 10SM CLR 25/05 A2974 1960 27 3600 310/14G26 RMK AO2 PK WND 30026/2058 T02500050 $
13962KABI ABI20160313151013003/13/16 15:10:31  5-MIN KABI 132110Z 32017G25KT 10SM CLR 26/05 A2974 1960 26 3700 310/17G25 RMK AO2 PK WND 30026/2058 T02560050 $
13962KABI ABI20160313151513003/13/16 15:15:31  5-MIN KABI 132115Z 31017G25KT 10SM CLR 25/05 A2974 1960 27 3600 310/17G25 RMK AO2 PK WND 30026/2058 T02500050 $
13962KABI ABI20160313152012403/13/16 15:20:31  5-MIN KABI 132120Z 31015KT 10SM CLR 26/06 A2974 1960 27 3700 310/15 RMK AO2 PK WND 30026/2058 T02560056 $
13962KABI ABI20160313152513003/13/16 15:25:31  5-MIN KABI 132125Z 32014G23KT 10SM CLR 26/06 A2974 1960 27 3700 320/14G23 RMK AO2 PK WND 30026/2058 T02560056 $
13962KABI ABI20160313153013003/13/16 15:30:31  5-MIN KABI 132130Z 33015G23KT 10SM CLR 26/06 A2974 1960 27 3700 330/15G23 RMK AO2 PK WND 30026/2058 T02560056 $
13962KABI ABI20160313153512403/13/16 15:35:31  5-MIN KABI 132135Z 33016KT 10SM CLR 26/06 A2974 1960 28 3700 320/16 RMK AO2 PK WND 30026/2058 T02560061 $
13962KABI ABI20160313154012403/13/16 15:40:31  5-MIN KABI 132140Z 33014KT 10SM CLR 26/07 A2974 1960 29 3700 320/14 RMK AO2 PK WND 30026/2058 T02560067 $
13962KABI ABI20160313154513003/13/16 15:45:31  5-MIN KABI 132145Z 33011G21KT 10SM CLR 25/07 A2975 1950 30 3600 320/11G21 RMK AO2 PK WND 30026/2058 T02500067 $
13962KABI ABI20160313155013703/13/16 15:50:31  5-MIN KABI 132150Z 33009G21KT 10SM CLR 26/07 A2975 1950 30 3600 330/09G21 RMK AO2 PK WND 30026/2058 SLP054 T02560072 $
13962KABI ABI20160313155511203/13/16 15:55:31  5-MIN KABI 132155Z 33014G19KT 10SM CLR 26/07 A2975 1950 29 3600 330/14G19 RMK AO2 T02560067 $
13962KABI ABI20160313160011203/13/16 16:00:31  5-MIN KABI 132200Z 31014G19KT 10SM CLR 25/06 A2975 1950 29 3600 310/14G19 RMK AO2 T02500061 $
13962KABI ABI20160313160514203/13/16 16:05:31  5-MIN KABI 132205Z 32014KT 10SM CLR 26/07 A2975 1950 29 3700 310/14 RMK AO2 T02560061950 29 3600 310/12 RMK AO2 T02560067 $
13962KABI ABI20160313163510603/13/16 16:35:31  5-MIN KABI 132235Z 32009KT 10SM CLR 25/07 A2975 1950 30 3600 310/09 RMK AO2 T02500067 $
13962KABI ABI20160313164010603/13/16 16:40:31  5-MIN KABI 132240Z 32012KT 10SM CLR 26/07 A2975 1950 29 3600 320/12 RMK AO2 T02560067 $
13962KABI ABI20160313164510603/13/16 16:45:31  5-MIN KABI 132245Z 33014KT 10SM CLR 25/06 A2975 1950 29 3600 330/14 RMK AO2 T02500061 $
13962KABI ABI20160313165011303/13/16 16:50:31  5-MIN KABI 132250Z 33013KT 10SM CLR 25/07 A2975 1950 30 3600 320/13 RMK AO2 SLP056 T02500067 $
13962KABI ABI20160313165510603/13/16 16:55:31  5-MIN KABI 132255Z 33014KT 10SM CLR 25/07 A2975 1950 30 3600 330/14 RMK AO2 T02500067 $
13962KABI ABI20160313170010603/13/16 17:00:31  5-MIN KABI 132300Z 32008KT 10SM CLR 25/07 A2975 1950 30 3600 310/08 RMK AO2 T02500067 $
13962KABI ABI20160313170514203/13/16 17:05:31  5-MIN KABI 132305Z 35011KT 10SM CLR 25/07 A2975 1950 31 1010KT 10SM CLR 24/08 A2975 1950 35 3500 360/10 RMK AO2 T02440083 $
13962KABI ABI20160313173510603/13/16 17:35:31  5-MIN KABI 132335Z 02009KT 10SM CLR 24/08 A2976 1950 36 3500 020/09 RMK AO2 T02390083 $
13962KABI ABI20160313174010603/13/16 17:40:31  5-MIN KABI 132340Z 02007KT 10SM CLR 24/09 A2976 1940 38 3500 020/07 RMK AO2 T02390089 $
13962KABI ABI20160313174510603/13/16 17:45:31  5-MIN KABI 132345Z 03008KT 10SM CLR 24/09 A2976 1940 38 3400 030/07 RMK AO2 T02330094 $
13962KABI ABI20160313180510603/13/16 18:05:31  5-MIN KABI 140005Z 04006KT 10SM CLR 23/09 A2976 1940 42 3300 030/06 RMK AO2 T02280094 $
13962KABI ABI20160313181010603/13/16 18:10:31  5-MIN KABI 140010Z 04005KT 10SM CLR 23/09 A2976 1940 42 3300 040/05 RMK AO2 T02280094 $
13962KABI ABI20160313181511403/13/16 18:15:31  5-MIN KABI 140015Z 04006KT 10SM CLR 23/09 A2977 1940 42  3000 030/05 RMK AO2 SLP069 T02060100 $
13962KABI ABI20160313185510603/13/16 18:55:31  5-MIN KABI 140055Z 05005KT 10SM CLR 21/10 A2978 1920 50 3000 040/05 RMK AO2 T02060100 $
13962KABI ABI20160313190010603/13/16 19:00:31  5-MIN KABI 140100Z 05005KT 10SM CLR 21/10 A2978 1920 50 3000 050/05 RMK AO2 T02060100 $
13962KABI ABI20160313190510603/13/16 19:05:31  5-MIN KABI 140105Z 06005KT 10SM CLR 20/10 A2978 1920 52 3000 050/05 RMK AO2 T02000100 $
13962KABI ABI20160313191010603/13/16 19:10:31  5-MIN KABI 140110Z 05004KT 10SM CLR 20/09 A2979 1920 50 3000 050/04 RMK AO2 T02000094 $
13962KABI ABI20160313191510603/13/16 19:15:31  5-MIN KABI 140115Z 05005KT 10SM CLR 20/09 A2979 1920 50 3000 050/05 RMK AO2 T02000094 $
13962KABI ABI20160313192010603/13/16 19:20:31  5-MIN KABI 140120Z 05006KT 10SM CLR 20/09 A2979 1920 50 3000 050/06 RMK AO2 T02000094 $
13962KABI ABI20160313192513203/13/16 19:25:31  5-MIN KABI 140125Z 06005KT 10SM CLR 20/09 A2979 1910 50 3000 050/05 RMK AO2 T02000094 $140/05 RMK AO2 T01390094 $
13962KABI ABI20160313215011303/13/16 21:50:31  5-MIN KABI 140350Z 17007KT 10SM CLR 13/09 A2983 1880 77 2200 160/07 RMK AO2 SLP086 T01330094 $
13962KABI ABI20160313215510603/13/16 21:55:31  5-MIN KABI 140355Z 18009KT 10SM CLR 13/09 A2983 1870 77 2200 180/09 RMK AO2 T01330094 $
13962KABI ABI20160313220010603/13/16 22:00:31  5-MIN KABI 140400Z 18008KT 10SM CLR 14/09 A2984 1870 74 2200 170/08 RMK AO2 T01390094 $
13962KABI ABI20160313220510603/13/16 22:05:31  5-MIN KABI 140405Z 16007KT 10SM CLR 14/09 A2983 1870 74 2200 160/07 RMK AO2 T01390094 $
13962KABI ABI20160313221010603/13/16 22:10:31  5-MIN KABI 140410Z 14006KT 10SM CLR 14/10 A2983 1880 74 2300 140/06 RMK AO2 T01440100 $
13962KABI ABI20160313221510603/13/16 22:15:31  5-MIN KABI 140415Z 15007KT 10SM CLR 14/09 A2983 1880 74 2200 150/07 RMK AO2 T01390094 $
13962KABI ABI20160313222010603/13/16 22:20:31  5-MIN KABI 140420Z 16007KT 10SM CLR 13/09 A2983 1880 77 2200 150/07 RMK AO2 T01330094 $
13962KABI ABI20160313222510603/13/16 22:25:31  5-MIN KABI 140425Z 14007KT 10SM CLR 13/09 A2983 1880 77 2200 140/07 RMK AO2 T01330094 $
13962KABI ABI20160313223010603/13/16 22:30:31  5-MIN KABI 140430Z 14005KT 10SM CLR 13/09 A2983 1880 77 2200 140/05 RMK AO2 T01330094 $
13962KABI ABI20160313223510603/13/16 22:35:31  5-MIN KABI 140435Z 15006KT 10SM CLR 13/09 A2983 1880 77 2200 140/06 RMK AO2 T01330094 $
13962KABI ABI20160313224010603/13/16 22:40:31  5-MIN KABI 140440Z 15005KT 10SM CLR 13/09 A2983 1880 77 2200 140/05 RMK AO2 T01330094 $
13962KABI ABI20160313224510603/13/16 22:45:31  5-MIN KABI 140445Z 15006KT 10SM CLR 13/09 A2983 1880 77 2200 150/06 RMK AO2 T01330094 $
13962KABI ABI20160313225011303/13/16 22:50:31  5-MIN KABI 140450Z 16006KT 10SM CLR 13/09 A2983 1880 80 2100 160/06 RMK AO2 SLP084 T01280094 $
13962KABI ABI20160313225510603/13/16 22:55:31  5-MIN KABI 140455Z 17007KT 10SM CLR 13/09 A2983 1880 80 2100 160/07 RMK AO2 T01280094 $
13962KABI ABI20160313230010603/13/16 23:00:31  5-MIN KABI 140500Z 17007KT 10SM CLR 13/09 A2983 1880 80 2100 170/07 RMK AO2 T01280094 $
13962KABI ABI20160313230510603/13/16 23:05:31  5-MIN KABI 140505Z 17007KT 10SM CLR 13/09 A2983 1880 80 2100 160/07 RMK AO2 T01280094 $
13962KABI ABI20160313231010603/13/16 23:10:31  5-MIN KABI 140510Z 17008KT 10SM CLR 13/09 A2983 1870 80 2100 170/08 RMK AO2 T01280094 $
13962KABI ABI20160313231507203/13/16 23:15:31  5-MIN KABI 140515Z 17008KT 10SM CLR 13/09 A29830094 $
13962KABI ABI20160313233010603/13/16 23:30:31  5-MIN KABI 140530Z 17007KT 10SM CLR 13/09 A2983 1880 77 2200 160/07 RMK AO2 T01330094 $
13962KABI ABI20160313233510603/13/16 23:35:31  5-MIN KABI 140535Z 17006KT 10SM CLR 13/09 A2983 1870 80 2100 170/06 RMK AO2 T01280094 $
13962KABI ABI20160313234010603/13/16 23:40:31  5-MIN KABI 140540Z 18006KT 10SM CLR 12/09 A2983 1870 83 2000 170/06 RMK AO2 T01220094 $
13962KABI ABI20160313234510603/13/16 23:45:31  5-MIN KABI 140545Z 19006KT 10SM CLR 12/09 A2983 1870 83 2000 190/06 RMK AO2 T01220094 $
13962KABI ABI20160313235014103/13/16 23:50:31  5-MIN KABI 140550Z 19006KT 10SM CLR 12/09 A2983 1870 83 2000 190/06 RMK AO2 SLP086 T01220094 10233 20122 402560106 52019 $
13962KABI ABI20160313235510603/13/16 23:55:31  5-MIN KABI 140555Z 19005KT 10SM CLR 12/09 A2983 1870 83 2000 190/05 RMK AO2 T01220094 $
13962KABI ABI20160314000010603/14/16 00:00:31  5-MIN KABI 140600Z 19007KT 10SM CLR 12/09 A2983 1870 83 2000 190/07 RMK AO2 T01220094 $
13962KABI ABI20160314000510603/14/16 00:05:31  5-MIN KABI 140605Z 19007KT 10SM CLR 12/09 A2983 1870 83 2000 190/07 RMK AO2 T01220094 $
13962KABI ABI20160314001010603/14/16 00:10:31  5-MIN KABI 140610Z 20006KT 10SM CLR 12/09 A2983 1870 83 2000 190/06 RMK AO2 T01220094 $
13962KABI ABI20160314001510603/14/16 00:15:31  5-MIN KABI 140615Z 18007KT 10SM CLR 12/09 A2983 1880 83 2000 170/07 RMK AO2 T01220094 $
13962KABI ABI20160314002010603/14/16 00:20:31  5-MIN KABI 140620Z 19005KT 10SM CLR 12/09 A2983 1880 83 2000 180/05 RMK AO2 T01220094 $
13962KABI ABI20160314002510603/14/16 00:25:31  5-MIN KABI 140625Z 17006KT 10SM CLR 12/09 A2983 1880 86 2000 160/06 RMK AO2 T01170094 $
13962KABI ABI20160314003010603/14/16 00:30:31  5-MIN KABI 140630Z 17006KT 10SM CLR 12/09 A2983 1880 86 2000 160/06 RMK AO2 T01170094 $
13962KABI ABI20160314003510603/14/16 00:35:31  5-MIN KABI 140635Z 16006KT 10SM CLR 12/09 A2983 1880 83 2000 160/06 RMK AO2 T01170089 $
13962KABI ABI20160314004010603/14/16 00:40:31  5-MIN KABI 140640Z 16007KT 10SM CLR 12/09 A2982 1880 83 2000 150/07 RMK AO2 T01170089 $
13962KABI ABI20160314004510603/14/16 00:45:31  5-MIN KABI 140645Z 16008KT 10SM CLR 12/09 A2982 1880 83 2000 160/08 RMK AO2 T01170089 $
13962KABI ABI20160314005011303/14/16 00:50:31  5-MIN KABI 140650Z 17008KT 10SM CLR 12/09 A2982 1880 83 2000 160/08 RMK AO2 SLP082 T01170089 $
13962KABI ABI20160314005510603/14/16 00:55:31  5-MIN KABI 140655Z 17008KT 10SM CLR 12/09 A2982 1890 80 2000 160/08 RMK AO2 T01220089 $
13962KABI ABI20160314010010603/14/16 01:00:31  5-MIN KABI 140700Z 17007KT 10SM CLR 12/09 A2982 1890 80 2000 160/07 RMK AO2 T01220089 $
13962KABI ABI20160314010510603/14/16 01:05:31  5-MIN KABI 140705Z 17007KT 10SM CLR 12/09 A2982 1890 80 2000 160/07 RMK AO2 T01220089 $
13962KABI ABI20160314011010603/14/16 01:10:31  5-MIN KABI 140710Z 17007KT 10SM CLR 12/09 A2982 1890 83 2000 170/07 RMK AO2 T01170089 $
13962KABI ABI20160314011510603/14/16 01:15:31  5-MIN KABI 140715Z 18007KT 10SM CLR 12/09 A2982 1890 83 2000 170/07 RMK AO2 T01170089 $
13962KABI ABI20160314012010603/14/16 01:20:31  5-MIN KABI 140720Z 19005KT 10SM CLR 12/09 A2982 1890 83 2000 190/05 RMK AO2 T01170089 $
13962KABI ABI20160314012510603/14/16 01:25:31  5-MIN KABI 140725Z 19006KT 10SM CLR 12/09 A2982 1890 80 2000 190/06 RMK AO2 T01220089 $
13962KABI ABI20160314013010603/14/16 01:30:31  5-MIN KABI 140730Z 18006KT 10SM CLR 12/09 A2982 1890 80 2000 180/06 RMK AO2 T01220089 $
13962KABI ABI20160314013510603/14/16 01:35:31  5-MIN KABI 140735Z VRB05KT 10SM CLR 12/09 A2982 1890 80 2000 VRB/05 RMK AO2 T01220089 $
13962KABI ABI20160314014010603/14/16 01:40:31  5-MIN KABI 140740Z 18008KT 10SM CLR 12/09 A2982 1890 80 2000 170/08 RMK AO2 T01220089 $
13962KABI ABI20160314014512203/14/16 01:45:31  5-MIN KABI 140745Z 17009KT 120V180 10SM CLR 13/09 A2982 1890 77 2200 170/09 120V180 RMK AO2 T01330094 $
13962KABI ABI20160314015010303/14/16 01:50:31  5-MIN KABI 140750Z 10SM CLR 13/09 A2982 1880 80 2100 M /M RMK AO2 SLP080 T01280094 $
13962KABI ABI20160314015509603/14/16 01:55:31  5-MIN KABI 140755Z 10SM CLR 13/09 A2982 1880 77 2100 M /M RMK AO2 T01280089 $
13962KABI ABI20160314020009603/14/16 02:00:31  5-MIN KABI 140800Z 10SM CLR 11/09 A2982 1890 86 1900 M /M RMK AO2 T01110089 $
13962KABI ABI20160314020510603/14/16 02:05:31  5-MIN KABI 140805Z 17008KT 10SM CLR 12/09 A2982 1890 83 2000 160/08 RMK AO2 T01170089 $
13962KABI ABI20160314021010603/14/16 02:10:31  5-MIN KABI 140810Z 16008KT 10SM CLR 12/09 A2982 1890 80 2000 160/08 RMK AO2 T01220089 $
13962KABI ABI20160314021510603/14/16 02:15:31  5-MIN KABI 140815Z 16008KT 10SM CLR 12/09 A2982 1890 80 2000 150/08 RMK AO2 T01220089 $
13962KABI ABI20160314022010603/14/16 02:20:31  5-MIN KABI 140820Z 17007KT 10SM CLR 12/09 A2982 1890 80 2000 160/07 RMK AO2 T01220089 $
13962KABI ABI20160314022510603/14/16 02:25:31  5-MIN KABI 140825Z 17007KT 10SM CLR 12/09 A2982 1890 83 2000 170/07 RMK AO2 T01170089 $
13962KABI ABI20160314023010603/14/16 02:30:31  5-MIN KABI 140830Z 17007KT 10SM CLR 12/09 A2982 1890 83 2000 170/07 RMK AO2 T01170089 $
13962KABI ABI20160314023510603/14/16 02:35:31  5-MIN KABI 140835Z 17007KT 10SM CLR 12/09 A2981 1890 83 2000 160/07 RMK AO2 T01170089 $
13962KABI ABI20160314060010603/14/16 06:00:31  5-MIN KABI 141200Z 20008KT 10SM CLR 11/04 A2981 1900 63 1900 190/08 RMK AO2 T01110044 $
13962KABI ABI20160314060510603/14/16 06:05:31  5-MIN KABI 141205Z 20008KT 10SM CLR 11/04 A2980 1900 63 1900 190/08 RMK AO2 T01110044 $
13962KABI ABI20160314061010603/14/16 06:10:31  5-MIN KABI 141210Z 19007KT 10SM CLR 11/04 A2980 1900 63 1900 180/07 RMK AO2 T01110044 $
13962KABI ABI20160314061510603/14/16 06:15:31  5-MIN KABI 141215Z 19008KT 10SM CLR 11/04 A2980 1900 63 1900 180/08 RMK AO2 T01060039 $
13962KABI ABI20160314062010603/14/16 06:20:31  5-MIN KABI 141220Z 18009KT 10SM CLR 11/04 A2980 1900 63 1900 170/09 RMK AO2 T01060039 $
13962KABI ABI20160314062510403/14/16 06:25:31  5-MIN KABI 141225Z 18009KT 10SM CLR 11/04 A2980 1900 63 1900 170/09 RMK AO2 T01060039
13962KABI ABI20160314063010403/14/16 06:30:31  5-MIN KABI 141230Z 17008KT 10SM CLR 11/03 A2980 1900 58 1900 160/08 RMK AO2 T01110033
13962KABI ABI20160314063510403/14/16 06:35:31  5-MIN KABI 141235Z 18009KT 10SM CLR 11/03 A2981 1900 58 1900 180/09 RMK AO2 T01110033
13962KABI ABI20160314064010403/14/16 06:40:31  5-MIN KABI 141240Z 18008KT 10SM CLR 11/03 A2981 1900 56 1900 170/08 RMK AO2 T01110028
13962KABI ABI20160314064510403/14/16 06:45:31  5-MIN KABI 141245Z 18008KT 10SM CLR 11/03 A2981 1900 56 1900 170/08 RMK AO2 T01110028
13962KABI ABI20160314065011103/14/16 06:50:31  5-MIN KABI 141250Z 18007KT 10SM CLR 12/02 A2981 1900 52 2000 170/07 RMK AO2 SLP079 T01170022
13962KABI ABI20160314065510403/14/16 06:55:31  5-MIN KABI 141255Z 17007KT 10SM CLR 11/03 A2981 1900 56 1900 170/07 RMK AO2 T01110028
13962KABI ABI20160314070010403/14/16 07:00:31  5-MIN KABI 141300Z 17006KT 10SM CLR 11/03 A2981 1890 56 1900 160/06 RMK AO2 T01110028
13962KABI ABI20160314070510403/14/16 07:05:31  5-MIN KABI 141305Z 18006KT 10SM CLR 11/03 A2981 1890 56 1900 170/06 RMK AO2 T01110028
13962KABI ABI20160314071010403/14/16 07:10:31  5-MIN KABI 141310Z 17007KT 10SM CLR 11/03 A2981 1890 58 1800 170/07 RMK AO2 T01060028
13962KABI ABI20160314071510403/14/16 07:15:31  5-MIN KABI 141315Z 18008KT 10SM CLR 11/03 A2982 1890 56 1900 170/08 RMK AO2 T01110028
13962KABI ABI20160314072010403/14/16 07:20:31  5-MIN KABI 141320Z 18007KT 10SM CLR 12/03 A2982 1890 54 2000 180/07 RMK AO2 T01170028
13962KABI ABI20160314072510403/14/16 07:25:31  5-MIN KABI 141325Z 17007KT 10SM CLR 12/03 A2982 1890 54 2000 170/07 RMK AO2 T01170028
13962KABI ABI20160314073010403/14/16 07:30:31  5-MIN KABI 141330Z 18008KT 10SM CLR 12/03 A2982 1890 56 2000 170/08 RMK AO2 T01170033
13962KABI ABI20160314073510403/14/16 07:35:31  5-MIN KABI 141335Z 18008KT 10SM CLR 12/03 A2982 1890 54 2000 180/08 RMK AO2 T01220033
13962KABI ABI20160314074010403/14/16 07:40:31  5-MIN KABI 141340Z 18008KT 10SM CLR 12/04 A2982 1890 56 2000 180/08 RMK AO2 T01220039
13962KABI ABI20160314074510403/14/16 07:45:31  5-MIN KABI 141345Z 18007KT 10SM CLR 12/04 A2982 1890 59 2000 180/07 RMK AO2 T01220044
13962KABI ABI20160314075011103/14/16 07:50:31  5-MIN KABI 141350Z 19009KT 10SM CLR 13/05 A2982 1890 59 2100 180/09 RMK AO2 SLP083 T01280050
13962KABI ABI20160314075510403/14/16 07:55:31  5-MIN KABI 141355Z 19008KT 10SM CLR 13/05 A2982 1880 59 2100 190/08 RMK AO2 T01280050
13962KABI ABI20160314080010403/14/16 08:00:31  5-MIN KABI 141400Z 20009KT 10SM CLR 13/05 A2982 1880 57 2200 200/09 RMK AO2 T01330050
13962KABI ABI20160314080510403/14/16 08:05:31  5-MIN KABI 141405Z 20008KT 10SM CLR 13/05 A2983 1880 57 2200 200/08 RMK AO2 T01330050
13962KABI ABI20160314081010403/14/16 08:10:31  5-MIN KABI 141410Z 20009KT 10SM CLR 14/04 A2983 1880 52 2200 200/09 RMK AO2 T01390044
13962KABI ABI20160314081510403/14/16 08:15:31  5-MIN KABI 141415Z 20010KT 10SM CLR 14/04 A2983 1880 52 2200 200/10 RMK AO2 T01390044
13962KABI ABI20160314082010403/14/16 08:20:31  5-MIN KABI 141420Z 20010KT 10SM CLR 14/04 A2983 1880 51 2300 200/10 RMK AO2 T01440044
13962KABI ABI20160314082510403/14/16 08:25:31  5-MIN KABI 141425Z 20009KT 10SM CLR 15/04 A2983 1880 49 2400 200/09 RMK AO2 T01500044
13962KABI ABI20160314083010403/14/16 08:30:31  5-MIN KABI 141430Z 20008KT 10SM CLR 15/04 A2983 1880 49 2400 190/08 RMK AO2 T01500044
13962KABI ABI20160314083510403/14/16 08:35:31  5-MIN KABI 141435Z 20009KT 10SM CLR 16/04 A2983 1880 45 2400 200/09 RMK AO2 T01560039
13962KABI ABI20160314084010403/14/16 08:40:31  5-MIN KABI 141440Z 20008KT 10SM CLR 16/04 A2983 1880 44 2500 200/08 RMK AO2 T01610039
13962KABI ABI20160314084510403/14/16 08:45:31  5-MIN KABI 141445Z 20007KT 10SM CLR 17/04 A2983 1880 44 2500 190/07 RMK AO2 T01670044
13962KABI ABI20160314085011703/14/16 08:50:31  5-MIN KABI 141450Z 21008KT 10SM CLR 17/04 A2983 1880 44 2500 210/08 RMK AO2 SLP085 T01670044 55000
13962KABI ABI20160314085510403/14/16 08:55:31  5-MIN KABI 141455Z 21010KT 10SM CLR 17/04 A2983 1880 44 2500 210/10 RMK AO2 T01670044
13962KABI ABI20160314090010403/14/16 09:00:31  5-MIN KABI 141500Z 22009KT 10SM CLR 17/04 A2983 1880 42 2600 220/09 RMK AO2 T01720044
13962KABI ABI20160314090510403/14/16 09:05:31  5-MIN KABI 141505Z 22010KT 10SM CLR 18/04 A2982 1880 41 2700 220/10 RMK AO2 T01780044
13962KABI ABI20160314091010403/14/16 09:10:31  5-MIN KABI 141510Z 22011KT 10SM CLR 18/04 A2982 1880 39 2700 220/11 RMK AO2 T01780039
13962KABI ABI20160314091510403/14/16 09:15:31  5-MIN KABI 141515Z 21010KT 10SM CLR 18/04 A2983 1880 39 2700 210/10 RMK AO2 T01830044
13962KABI ABI20160314092010303/14/16 09:20:31  5-MIN KABI 141520Z 22011KT 9SM CLR 19/04 A2983 1880 38 2800 210/11 RMK AO2 T01890044
13962KABI ABI20160314092510303/14/16 09:25:31  5-MIN KABI 141525Z 21010KT 9SM CLR 19/05 A2983 1880 39 2800 210/10 RMK AO2 T01890050
13962KABI ABI20160314093010603/14/16 09:30:31  5-MIN KABI 141530Z 22008KT 8SM FEW002 20/06 A2983 1870 40 2900 220/08 RMK AO2 T02000061
13962KABI ABI20160314093510603/14/16 09:35:31  5-MIN KABI 141535Z 23011KT 8SM FEW002 21/04 A2983 1880 32 3100 220/11 RMK AO2 T02110039
13962KABI ABI20160314094010603/14/16 09:40:31  5-MIN KABI 141540Z 24010KT 9SM FEW002 21/03 A2983 1880 29 3100 230/10 RMK AO2 T02110028
13962KABI ABI20160314094510603/14/16 09:45:31  5-MIN KABI 141545Z 23010KT 9SM FEW002 22/03 A2983 1870 29 3100 220/10 RMK AO2 T02170033
13962KABI ABI20160314095011303/14/16 09:50:31  5-MIN KABI 141550Z 22010KT 9SM FEW002 22/04 A2983 1870 30 3200 220/10 RMK AO2 SLP086 T02220039
13962KABI ABI20160314095510303/14/16 09:55:31  5-MIN KABI 141555Z 24011KT 9SM CLR 23/03 A2983 1870 26 3200 240/11 RMK AO2 T02280028
13962KABI ABI20160314100010403/14/16 10:00:31  5-MIN KABI 141600Z 24011KT 10SM CLR 23/03 A2983 1870 25 3300 230/11 RMK AO2 T02330028
13962KABI ABI20160314100510403/14/16 10:05:31  5-MIN KABI 141605Z 25012KT 10SM CLR 23/02 A2983 1870 24 3300 250/12 RMK AO2 T02330017
13962KABI ABI20160314101010403/14/16 10:10:31  5-MIN KABI 141610Z 24012KT 10SM CLR 23/02 A2983 1870 24 3300 240/12 RMK AO2 T02330022
13962KABI ABI20160314101511003/14/16 10:15:31  5-MIN KABI 141615Z 25014G19KT 10SM CLR 24/02 A2983 1870 23 3400 240/14G19 RMK AO2 T02390017
13962KABI ABI20160314102011003/14/16 10:20:31  5-MIN KABI 141620Z 24015G19KT 10SM CLR 24/01 A2983 1870 22 3400 240/15G19 RMK AO2 T02390011
13962KABI ABI20160314102510403/14/16 10:25:31  5-MIN KABI 141625Z 24014KT 10SM CLR 24/01 A2983 1870 22 3400 230/14 RMK AO2 T02390011
13962KABI ABI20160314103010403/14/16 10:30:31  5-MIN KABI 141630Z 25013KT 10SM CLR 24/02 A2983 1870 23 3400 240/13 RMK AO2 T02390017
13962KABI ABI20160314103511003/14/16 10:35:31  5-MIN KABI 141635Z 25015G19KT 10SM CLR 24/02 A2983 1870 24 3400 240/15G19 RMK AO2 T02390022
13962KABI ABI20160314104011003/14/16 10:40:31  5-MIN KABI 141640Z 25013G18KT 10SM CLR 24/01 A2983 1870 22 3400 250/13G18 RMK AO2 T02390011
13962KABI ABI20160314104511003/14/16 10:45:31  5-MIN KABI 141645Z 25016G21KT 10SM CLR 24/01 A2983 1870 20 3400 240/16G21 RMK AO2 T02440006
13962KABI ABI20160314105011703/14/16 10:50:31  5-MIN KABI 141650Z 25015G22KT 10SM CLR 24/01 A2983 1870 20 3400 250/15G22 RMK AO2 SLP084 T02440006
13962KABI ABI20160314105511003/14/16 10:55:31  5-MIN KABI 141655Z 26015G22KT 10SM CLR 24/01 A2983 1870 20 3400 250/15G22 RMK AO2 T02440006
13962KABI ABI20160314110010403/14/16 11:00:31  5-MIN KABI 141700Z 26014KT 10SM CLR 25/01 A2983 1870 20 3500 250/14 RMK AO2 T02500011
13962KABI ABI20160314110510403/14/16 11:05:31  5-MIN KABI 141705Z 27016KT 10SM CLR 25/01 A2983 1880 20 3500 260/16 RMK AO2 T02500006
13962KABI ABI20160314111010403/14/16 11:10:31  5-MIN KABI 141710Z 24015KT 10SM CLR 25/02 A2983 1880 21 3500 240/15 RMK AO2 T02500017
13962KABI ABI20160314111511003/14/16 11:15:31  5-MIN KABI 141715Z 25017G21KT 10SM CLR 25/01 A2983 1880 20 3500 250/17G21 RMK AO2 T02500011
13962KABI ABI20160314112010403/14/16 11:20:31  5-MIN KABI 141720Z 25017KT 10SM CLR 25/01 A2983 1880 20 3500 250/17 RMK AO2 T02500011
13962KABI ABI20160314112510403/14/16 11:25:31  5-MIN KABI 141725Z 26014KT 10SM CLR 25/01 A2982 1880 20 3500 250/14 RMK AO2 T02500006
13962KABI ABI20160314113010403/14/16 11:30:31  5-MIN KABI 141730Z 27016KT 10SM CLR 25/01 A2982 1880 20 3500 270/16 RMK AO2 T02500011
13962KABI ABI20160314113511003/14/16 11:35:31  5-MIN KABI 141735Z 27012G20KT 10SM CLR 25/02 A2982 1880 21 3500 260/12G20 RMK AO2 T02500017
13962KABI ABI20160314114010403/14/16 11:40:31  5-MIN KABI 141740Z 26013KT 10SM CLR 26/02 A2982 1890 21 3600 250/13 RMK AO2 T02560022
13962KABI ABI20160314114510403/14/16 11:45:31  5-MIN KABI 141745Z 26014KT 10SM CLR 26/02 A2982 1890 21 3600 260/14 RMK AO2 T02560022
13962KABI ABI20160314115012903/14/16 11:50:31  5-MIN KABI 141750Z 25013KT 10SM CLR 26/02 A2982 1890 21 3600 250/13 RMK AO2 SLP079 T02560017 10256 20106 53006
13962KABI ABI20160314115510403/14/16 11:55:31  5-MIN KABI 141755Z 26012KT 10SM CLR 26/02 A2982 1890 21 3600 260/12 RMK AO2 T02560017
13962KABI ABI20160314120011003/14/16 12:00:31  5-MIN KABI 141800Z 26014G19KT 10SM CLR 26/01 A2982 1890 20 3600 260/14G19 RMK AO2 T02560011
13962KABI ABI20160314120511003/14/16 12:05:31  5-MIN KABI 141805Z 26013G21KT 10SM CLR 26/01 A2981 1890 20 3600 250/13G21 RMK AO2 T02560011
13962KABI ABI20160314121011003/14/16 12:10:31  5-MIN KABI 141810Z 26013G21KT 10SM CLR 26/02 A2981 1890 20 3600 250/13G21 RMK AO2 T02610017
13962KABI ABI20160314121511003/14/16 12:15:31  5-MIN KABI 141815Z 25014G19KT 10SM CLR 26/02 A2981 1890 21 3600 240/14G19 RMK AO2 T02610022
13962KABI ABI20160314122011003/14/16 12:20:31  5-MIN KABI 141820Z 26015G21KT 10SM CLR 26/01 A2981 1900 19 3600 260/15G21 RMK AO2 T02610011
13962KABI ABI20160314122511003/14/16 12:25:31  5-MIN KABI 141825Z 25012G21KT 10SM CLR 27/02 A2980 1900 20 3700 240/12G21 RMK AO2 T02670022
13962KABI ABI20160314123011003/14/16 12:30:31  5-MIN KABI 141830Z 25016G22KT 10SM CLR 27/02 A2980 1900 20 3700 250/16G22 RMK AO2 T02670022
13962KABI ABI20160314123510403/14/16 12:35:31  5-MIN KABI 141835Z 25016KT 10SM CLR 26/02 A2980 1910 20 3700 240/16 RMK AO2 T02610017
13962KABI ABI20160314124010403/14/16 12:40:31  5-MIN KABI 141840Z 25016KT 10SM CLR 26/02 A2980 1910 20 3700 250/16 RMK AO2 T02610017
13962KABI ABI20160314124510403/14/16 12:45:31  5-MIN KABI 141845Z 27016KT 10SM CLR 26/01 A2980 1910 19 3700 260/16 RMK AO2 T02610011
13962KABI ABI20160314125011103/14/16 12:50:31  5-MIN KABI 141850Z 25016KT 10SM CLR 26/01 A2979 1910 19 3700 250/16 RMK AO2 SLP069 T02610011
13962KABI ABI20160314125511003/14/16 12:55:31  5-MIN KABI 141855Z 25015G21KT 10SM CLR 27/02 A2979 1910 20 3700 240/15G21 RMK AO2 T02670022
13962KABI ABI20160314130011003/14/16 13:00:31  5-MIN KABI 141900Z 24016G21KT 10SM CLR 27/02 A2979 1920 19 3700 240/16G21 RMK AO2 T02670017
13962KABI ABI20160314130510403/14/16 13:05:31  5-MIN KABI 141905Z 24015KT 10SM CLR 27/01 A2978 1920 18 3700 230/15 RMK AO2 T02670011
13962KABI ABI20160314131011003/14/16 13:10:31  5-MIN KABI 141910Z 25016G22KT 10SM CLR 27/01 A2978 1920 18 3700 240/16G22 RMK AO2 T02670011
13962KABI ABI20160314131511003/14/16 13:15:31  5-MIN KABI 141915Z 24017G22KT 10SM CLR 27/01 A2978 1920 18 3700 240/17G22 RMK AO2 T02670011
13962KABI ABI20160314132010403/14/16 13:20:31  5-MIN KABI 141920Z 24016KT 10SM CLR 27/01 A2978 1920 18 3700 240/16 RMK AO2 T02670011
13962KABI ABI20160314132510403/14/16 13:25:31  5-MIN KABI 141925Z 24015KT 10SM CLR 27/02 A2978 1930 19 3800 230/15 RMK AO2 T02720017
13962KABI ABI20160314133010403/14/16 13:30:31  5-MIN KABI 141930Z 23015KT 10SM CLR 27/01 A2977 1930 17 3800 220/15 RMK AO2 T02720006
13962KABI ABI20160314133511003/14/16 13:35:31  5-MIN KABI 141935Z 25015G23KT 10SM CLR 27/01 A2977 1930 18 3800 250/15G23 RMK AO2 T02720011
13962KABI ABI20160314134011003/14/16 13:40:31  5-MIN KABI 141940Z 25017G24KT 10SM CLR 27/01 A2977 1930 17 3800 250/17G24 RMK AO2 T02720006
13962KABI ABI20160314134511003/14/16 13:45:31  5-MIN KABI 141945Z 25012G24KT 10SM CLR 27/02 A2977 1930 19 3800 240/12G24 RMK AO2 T02720017
13962KABI ABI20160314135011103/14/16 13:50:31  5-MIN KABI 141950Z 25015KT 10SM CLR 27/01 A2976 1940 18 3800 240/15 RMK AO2 SLP057 T02720011
13962KABI ABI20160314135510403/14/16 13:55:31  5-MIN KABI 141955Z 26014KT 10SM CLR 27/02 A2976 1940 19 3800 250/14 RMK AO2 T02720017
13962KABI ABI20160314140010403/14/16 14:00:31  5-MIN KABI 142000Z 23017KT 10SM CLR 28/01 A2975 1950 17 3900 220/17 RMK AO2 T02780011
13962KABI ABI20160314140511003/14/16 14:05:31  5-MIN KABI 142005Z 25017G22KT 10SM CLR 28/02 A2975 1950 18 3900 240/17G22 RMK AO2 T02780017
13962KABI ABI20160314141011003/14/16 14:10:31  5-MIN KABI 142010Z 23014G22KT 10SM CLR 28/02 A2974 1960 18 3900 220/14G22 RMK AO2 T02780017
13962KABI ABI20160314141511003/14/16 14:15:31  5-MIN KABI 142015Z 23017G24KT 10SM CLR 28/02 A2974 1960 18 4000 230/17G24 RMK AO2 T02830022
13962KABI ABI20160314142011003/14/16 14:20:31  5-MIN KABI 142020Z 24018G24KT 10SM CLR 28/01 A2974 1960 16 4000 240/18G24 RMK AO2 T02830006
13962KABI ABI20160314142510403/14/16 14:25:31  5-MIN KABI 142025Z 25020KT 10SM CLR 28/01 A2974 1960 17 4000 240/20 RMK AO2 T02830011
13962KABI ABI20160314143011003/14/16 14:30:31  5-MIN KABI 142030Z 23017G25KT 10SM CLR 28/01 A2974 1960 16 4000 230/17G25 RMK AO2 T02830006
13962KABI ABI20160314143511003/14/16 14:35:31  5-MIN KABI 142035Z 23016G25KT 10SM CLR 28/01 A2974 1960 17 4000 220/16G25 RMK AO2 T02830011
13962KABI ABI20160314144010403/14/16 14:40:31  5-MIN KABI 142040Z 24018KT 10SM CLR 28/02 A2973 1970 17 4000 230/18 RMK AO2 T02830017
13962KABI ABI20160314144511003/14/16 14:45:31  5-MIN KABI 142045Z 24018G23KT 10SM CLR 28/01 A2973 1970 16 4000 230/18G23 RMK AO2 T02830006
13962KABI ABI20160314145014103/14/16 14:50:31  5-MIN KABI 142050Z 25016G26KT 10SM CLR 28/01 A2973 1970 16 4000 240/16G26 RMK AO2 PK WND 24026/2047 SLP047 T02830006 58003
13962KABI ABI20160314145511003/14/16 14:55:31  5-MIN KABI 142055Z 25017G26KT 10SM CLR 28/01 A2973 1970 17 3900 250/17G26 RMK AO2 T02780011
13962KABI ABI20160314150010403/14/16 15:00:31  5-MIN KABI 142100Z 25018KT 10SM CLR 28/02 A2973 1970 18 3900 250/18 RMK AO2 T02780017
13962KABI ABI20160314150511003/14/16 15:05:31  5-MIN KABI 142105Z 25014G21KT 10SM CLR 28/02 A2973 1970 18 3900 240/14G21 RMK AO2 T02780017
13962KABI ABI20160314151011003/14/16 15:10:31  5-MIN KABI 142110Z 24015G21KT 10SM CLR 28/02 A2972 1970 19 3900 240/15G21 RMK AO2 T02780022
13962KABI ABI20160314151511003/14/16 15:15:31  5-MIN KABI 142115Z 23017G22KT 10SM CLR 28/02 A2972 1980 19 3900 230/17G22 RMK AO2 T02780022
13962KABI ABI20160314152011003/14/16 15:20:31  5-MIN KABI 142120Z 24017G23KT 10SM CLR 28/02 A2972 1980 18 3900 230/17G23 RMK AO2 T02780017
13962KABI ABI20160314152511003/14/16 15:25:31  5-MIN KABI 142125Z 24017G23KT 10SM CLR 28/01 A2972 1980 17 3900 240/17G23 RMK AO2 T02780011
13962KABI ABI20160314153011003/14/16 15:30:31  5-MIN KABI 142130Z 24013G22KT 10SM CLR 28/02 A2972 1980 18 3900 230/13G22 RMK AO2 T02780017
13962KABI ABI20160314153510403/14/16 15:35:31  5-MIN KABI 142135Z 22013KT 10SM CLR 28/02 A2972 1980 19 3900 220/13 RMK AO2 T02780022
13962KABI ABI20160314154010403/14/16 15:40:31  5-MIN KABI 142140Z 23013KT 10SM CLR 28/03 A2972 1980 19 3900 220/13 RMK AO2 T02780028
13962KABI ABI20160314154511003/14/16 15:45:31  5-MIN KABI 142145Z 22016G22KT 10SM CLR 28/03 A2972 1980 19 4000 220/16G22 RMK AO2 T02830028
13962KABI ABI20160314155011703/14/16 15:50:31  5-MIN KABI 142150Z 24017G23KT 10SM CLR 28/02 A2971 1980 18 3900 240/17G23 RMK AO2 SLP041 T02780017
13962KABI ABI20160314155511003/14/16 15:55:31  5-MIN KABI 142155Z 23015G23KT 10SM CLR 28/02 A2971 1980 18 3900 230/15G23 RMK AO2 T02780017
13962KABI ABI20160314160010403/14/16 16:00:31  5-MIN KABI 142200Z 24016KT 10SM CLR 28/02 A2971 1990 18 3900 240/16 RMK AO2 T02780017
13962KABI ABI20160314160511003/14/16 16:05:31  5-MIN KABI 142205Z 24015G23KT 10SM CLR 28/02 A2971 1990 18 3900 230/15G23 RMK AO2 T02780017
13962KABI ABI20160314161011003/14/16 16:10:31  5-MIN KABI 142210Z 24014G23KT 10SM CLR 28/02 A2971 1990 18 3900 230/14G23 RMK AO2 T02780017
13962KABI ABI20160314161511003/14/16 16:15:31  5-MIN KABI 142215Z 24013G23KT 10SM CLR 28/02 A2971 1990 18 3900 230/13G23 RMK AO2 T02780017
13962KABI ABI20160314162010403/14/16 16:20:31  5-MIN KABI 142220Z 23014KT 10SM CLR 28/02 A2970 1990 19 3900 230/14 RMK AO2 T02780022
13962KABI ABI20160314162510403/14/16 16:25:31  5-MIN KABI 142225Z 25015KT 10SM CLR 28/02 A2970 1990 19 3900 240/15 RMK AO2 T02780022
13962KABI ABI20160314163010403/14/16 16:30:31  5-MIN KABI 142230Z 23011KT 10SM CLR 28/03 A2970 1990 19 3900 230/11 RMK AO2 T02780028
13962KABI ABI20160314163511003/14/16 16:35:31  5-MIN KABI 142235Z 22014G19KT 10SM CLR 28/03 A2970 2000 19 3900 220/14G19 RMK AO2 T02780028
13962KABI ABI20160314164011003/14/16 16:40:31  5-MIN KABI 142240Z 23014G20KT 10SM CLR 28/03 A2970 2000 20 4000 220/14G20 RMK AO2 T02780033
13962KABI ABI20160314164511003/14/16 16:45:31  5-MIN KABI 142245Z 23015G20KT 10SM CLR 28/03 A2970 2000 19 3900 220/15G20 RMK AO2 T02780028
13962KABI ABI20160314165011103/14/16 16:50:31  5-MIN KABI 142250Z 22012KT 10SM CLR 28/03 A2970 2000 19 3900 220/12 RMK AO2 SLP037 T02780028
13962KABI ABI20160314165510403/14/16 16:55:31  5-MIN KABI 142255Z 22011KT 10SM CLR 28/03 A2970 2000 20 4000 210/11 RMK AO2 T02780033
13962KABI ABI20160314170010403/14/16 17:00:31  5-MIN KABI 142300Z 22011KT 10SM CLR 28/04 A2970 2000 21 4000 220/11 RMK AO2 T02780039
13962KABI ABI20160314170510403/14/16 17:05:31  5-MIN KABI 142305Z 23010KT 10SM CLR 28/04 A2970 2000 22 4000 220/10 RMK AO2 T02780044
13962KABI ABI20160314171010403/14/16 17:10:31  5-MIN KABI 142310Z 23011KT 10SM CLR 28/04 A2970 2000 22 4000 220/11 RMK AO2 T02780044
13962KABI ABI20160314171510403/14/16 17:15:31  5-MIN KABI 142315Z 23010KT 10SM CLR 27/04 A2970 2000 22 3900 230/10 RMK AO2 T02720039
13962KABI ABI20160314172010403/14/16 17:20:31  5-MIN KABI 142320Z 23010KT 10SM CLR 27/04 A2970 2000 22 3900 220/10 RMK AO2 T02720039
13962KABI ABI20160314172510403/14/16 17:25:31  5-MIN KABI 142325Z 23009KT 10SM CLR 27/04 A2969 2000 22 3900 220/09 RMK AO2 T02720039
13962KABI ABI20160314173010403/14/16 17:30:31  5-MIN KABI 142330Z 23008KT 10SM CLR 27/04 A2969 2000 22 3900 220/08 RMK AO2 T02720039
13962KABI ABI20160314173510403/14/16 17:35:31  5-MIN KABI 142335Z 23008KT 10SM CLR 27/04 A2969 2000 22 3900 220/08 RMK AO2 T02720039
13962KABI ABI20160314174010303/14/16 17:40:31  5-MIN KABI 142340Z 23007KT 9SM CLR 27/04 A2969 2000 23 3800 220/07 RMK AO2 T02670044
13962KABI ABI20160314174510303/14/16 17:45:31  5-MIN KABI 142345Z 23007KT 9SM CLR 27/04 A2970 2000 23 3800 220/07 RMK AO2 T02670044
13962KABI ABI20160314175012903/14/16 17:50:31  5-MIN KABI 142350Z 23009KT 10SM CLR 26/04 A2970 2000 24 3800 230/09 RMK AO2 SLP038 T02610044 10283 20256 58028
13962KABI ABI20160314175510403/14/16 17:55:31  5-MIN KABI 142355Z 23007KT 10SM CLR 26/04 A2969 2000 24 3800 220/07 RMK AO2 T02610044
13962KABI ABI20160314180010403/14/16 18:00:31  5-MIN KABI 150000Z 23008KT 10SM CLR 26/04 A2970 2000 24 3800 230/08 RMK AO2 T02610044
13962KABI ABI20160314180510403/14/16 18:05:31  5-MIN KABI 150005Z 23007KT 10SM CLR 26/04 A2970 2000 25 3700 220/07 RMK AO2 T02560044
13962KABI ABI20160314181010403/14/16 18:10:31  5-MIN KABI 150010Z 23007KT 10SM CLR 26/04 A2970 2000 25 3700 230/07 RMK AO2 T02560044
13962KABI ABI20160314181510603/14/16 18:15:31  5-MIN KABI 150015Z 24006KT 10SM CLR 25/04 A2970 2000 26 3600 230/06 RMK AO2 T02500044 $
13962KABI ABI20160314182010603/14/16 18:20:31  5-MIN KABI 150020Z 24004KT 10SM CLR 25/04 A2970 2000 26 3600 230/04 RMK AO2 T02500044 $
13962KABI ABI20160314182510603/14/16 18:25:31  5-MIN KABI 150025Z 23004KT 10SM CLR 25/04 A2970 2000 26 3600 230/04 RMK AO2 T02500044 $
13962KABI ABI20160314183010603/14/16 18:30:31  5-MIN KABI 150030Z 22005KT 10SM CLR 25/04 A2970 2000 26 3600 220/05 RMK AO2 T02500044 $
13962KABI ABI20160314183510603/14/16 18:35:31  5-MIN KABI 150035Z 19004KT 10SM CLR 24/04 A2970 2000 27 3600 190/04 RMK AO2 T02440044 $
13962KABI ABI20160314184010603/14/16 18:40:31  5-MIN KABI 150040Z 20005KT 10SM CLR 23/05 A2970 2000 30 3500 190/05 RMK AO2 T02330050 $
13962KABI ABI20160314184510603/14/16 18:45:31  5-MIN KABI 150045Z 19004KT 10SM CLR 23/05 A2970 2000 30 3500 190/04 RMK AO2 T02330050 $
13962KABI ABI20160314185011303/14/16 18:50:31  5-MIN KABI 150050Z 19006KT 10SM CLR 23/05 A2970 2000 30 3500 190/06 RMK AO2 SLP040 T02330050 $
13962KABI ABI20160314185510603/14/16 18:55:31  5-MIN KABI 150055Z 19006KT 10SM CLR 23/06 A2970 2000 32 3400 180/06 RMK AO2 T02280056 $
13962KABI ABI20160314190010603/14/16 19:00:31  5-MIN KABI 150100Z 20008KT 10SM CLR 23/06 A2970 2000 32 3400 200/08 RMK AO2 T02280056 $
13962KABI ABI20160314190510603/14/16 19:05:31  5-MIN KABI 150105Z 20008KT 10SM CLR 23/05 A2970 2000 31 3400 200/08 RMK AO2 T02280050 $
13962KABI ABI20160314191010603/14/16 19:10:31  5-MIN KABI 150110Z 21007KT 10SM CLR 23/05 A2970 2000 31 3400 200/07 RMK AO2 T02280050 $
13962KABI ABI20160314191510603/14/16 19:15:31  5-MIN KABI 150115Z 21006KT 10SM CLR 23/05 A2970 2000 31 3400 200/06 RMK AO2 T02280050 $
13962KABI ABI20160314192010603/14/16 19:20:31  5-MIN KABI 150120Z 20006KT 10SM CLR 23/04 A2970 1990 30 3400 200/06 RMK AO2 T02280044 $
13962KABI ABI20160314192510603/14/16 19:25:31  5-MIN KABI 150125Z 20005KT 10SM CLR 23/04 A2971 1990 30 3400 190/05 RMK AO2 T02280044 $
13962KABI ABI20160314193010603/14/16 19:30:31  5-MIN KABI 150130Z 20004KT 10SM CLR 22/04 A2971 1990 31 3300 200/04 RMK AO2 T02220044 $
13962KABI ABI20160314193510603/14/16 19:35:31  5-MIN KABI 150135Z 20005KT 10SM CLR 22/04 A2971 1990 31 3300 200/05 RMK AO2 T02220044 $
13962KABI ABI20160314194010603/14/16 19:40:31  5-MIN KABI 150140Z 20005KT 10SM CLR 22/04 A2971 1990 32 3300 190/05 RMK AO2 T02170044 $
13962KABI ABI20160314194510603/14/16 19:45:31  5-MIN KABI 150145Z 20005KT 10SM CLR 21/04 A2971 1990 33 3200 190/05 RMK AO2 T02110044 $
13962KABI ABI20160314195011303/14/16 19:50:31  5-MIN KABI 150150Z 19006KT 10SM CLR 21/04 A2971 1990 33 3200 190/06 RMK AO2 SLP044 T02110044 $
13962KABI ABI20160314195510603/14/16 19:55:31  5-MIN KABI 150155Z 20005KT 10SM CLR 21/04 A2971 1980 33 3200 190/05 RMK AO2 T02110044 $
13962KABI ABI20160314200010603/14/16 20:00:31  5-MIN KABI 150200Z 20004KT 10SM CLR 21/04 A2972 1980 33 3200 190/04 RMK AO2 T02110044 $
13962KABI ABI20160314200510603/14/16 20:05:31  5-MIN KABI 150205Z 20005KT 10SM CLR 21/05 A2972 1980 34 3200 200/05 RMK AO2 T02110050 $
13962KABI ABI20160314201010603/14/16 20:10:31  5-MIN KABI 150210Z 19006KT 10SM CLR 21/05 A2972 1980 35 3100 190/06 RMK AO2 T02060050 $
13962KABI ABI20160314201510603/14/16 20:15:31  5-MIN KABI 150215Z 19008KT 10SM CLR 20/05 A2972 1980 37 3100 190/08 RMK AO2 T02000050 $
13962KABI ABI20160314202010603/14/16 20:20:31  5-MIN KABI 150220Z 19007KT 10SM CLR 19/05 A2972 1980 38 3000 190/07 RMK AO2 T01940050 $
13962KABI ABI20160314202510603/14/16 20:25:31  5-MIN KABI 150225Z 18008KT 10SM CLR 19/05 A2972 1980 38 3000 180/08 RMK AO2 T01940050 $
13962KABI ABI20160314203010603/14/16 20:30:31  5-MIN KABI 150230Z 18007KT 10SM CLR 19/06 A2972 1970 41 2900 170/07 RMK AO2 T01890056 $
13962KABI ABI20160314203510603/14/16 20:35:31  5-MIN KABI 150235Z 17007KT 10SM CLR 18/06 A2973 1970 44 2900 170/07 RMK AO2 T01830061 $
13962KABI ABI20160314204010603/14/16 20:40:31  5-MIN KABI 150240Z 17008KT 10SM CLR 18/06 A2973 1970 46 2800 160/08 RMK AO2 T01780061 $
13962KABI ABI20160314204510603/14/16 20:45:31  5-MIN KABI 150245Z 17008KT 10SM CLR 18/06 A2973 1970 46 2800 160/08 RMK AO2 T01780061 $
13962KABI ABI20160314205011903/14/16 20:50:31  5-MIN KABI 150250Z 17010KT 10SM CLR 18/06 A2973 1970 46 2800 170/10 RMK AO2 SLP050 T01780061 56011 $
13962KABI ABI20160314205510603/14/16 20:55:31  5-MIN KABI 150255Z 18009KT 10SM CLR 18/06 A2973 1970 46 2800 170/09 RMK AO2 T01780061 $
13962KABI ABI20160314210010603/14/16 21:00:31  5-MIN KABI 150300Z 18009KT 10SM CLR 18/06 A2973 1970 46 2800 170/09 RMK AO2 T01780061 $
13962KABI ABI20160314210510603/14/16 21:05:31  5-MIN KABI 150305Z 17007KT 10SM CLR 18/06 A2973 1970 46 2800 170/07 RMK AO2 T01780061 $
13962KABI ABI20160314211010603/14/16 21:10:31  5-MIN KABI 150310Z 18008KT 10SM CLR 17/06 A2973 1970 47 2700 170/08 RMK AO2 T01720061 $
13962KABI ABI20160314211510603/14/16 21:15:31  5-MIN KABI 150315Z 19007KT 10SM CLR 18/06 A2974 1960 46 2800 190/07 RMK AO2 T01780061 $
13962KABI ABI20160314212010603/14/16 21:20:31  5-MIN KABI 150320Z 20010KT 10SM CLR 18/06 A2974 1960 42 2800 190/10 RMK AO2 T01830056 $
13962KABI ABI20160314212510603/14/16 21:25:31  5-MIN KABI 150325Z 20010KT 10SM CLR 19/06 A2974 1960 41 2900 200/10 RMK AO2 T01890056 $
13962KABI ABI20160314213010603/14/16 21:30:31  5-MIN KABI 150330Z 20010KT 10SM CLR 19/06 A2974 1960 41 2900 200/10 RMK AO2 T01890056 $
13962KABI ABI20160314213510603/14/16 21:35:31  5-MIN KABI 150335Z 20009KT 10SM CLR 18/06 A2974 1960 42 2800 200/09 RMK AO2 T01830056 $
13962KABI ABI20160314214010603/14/16 21:40:31  5-MIN KABI 150340Z 20009KT 10SM CLR 18/06 A2974 1960 42 2800 200/09 RMK AO2 T01830056 $
13962KABI ABI20160314214510603/14/16 21:45:31  5-MIN KABI 150345Z 20009KT 10SM CLR 18/06 A2974 1960 42 2800 200/09 RMK AO2 T01830056 $
13962KABI ABI20160314215011303/14/16 21:50:31  5-MIN KABI 150350Z 21009KT 10SM CLR 18/06 A2974 1960 42 2800 200/09 RMK AO2 SLP050 T01830056 $
13962KABI ABI20160314215510603/14/16 21:55:31  5-MIN KABI 150355Z 21008KT 10SM CLR 18/05 A2974 1960 41 2800 200/08 RMK AO2 T01830050 $
13962KABI ABI20160314220010603/14/16 22:00:31  5-MIN KABI 150400Z 21008KT 10SM CLR 18/06 A2974 1960 44 2800 200/08 RMK AO2 T01780056 $
13962KABI ABI20160314220510603/14/16 22:05:31  5-MIN KABI 150405Z 21007KT 10SM CLR 18/06 A2974 1960 44 2800 200/07 RMK AO2 T01780056 $
13962KABI ABI20160314221010603/14/16 22:10:31  5-MIN KABI 150410Z 20009KT 10SM CLR 18/05 A2974 1960 42 2800 200/09 RMK AO2 T01780050 $
13962KABI ABI20160314221510603/14/16 22:15:31  5-MIN KABI 150415Z 20009KT 10SM CLR 18/05 A2974 1960 42 2800 200/09 RMK AO2 T01780050 $
13962KABI ABI20160314222010603/14/16 22:20:31  5-MIN KABI 150420Z 21008KT 10SM CLR 17/05 A2974 1960 44 2700 200/08 RMK AO2 T01720050 $
13962KABI ABI20160314222510603/14/16 22:25:31  5-MIN KABI 150425Z 21008KT 10SM CLR 17/05 A2974 1960 44 2700 200/08 RMK AO2 T01720050 $
13962KABI ABI20160314223010603/14/16 22:30:31  5-MIN KABI 150430Z 21008KT 10SM CLR 17/05 A2973 1970 44 2700 200/08 RMK AO2 T01720050 $
13962KABI ABI20160314223510603/14/16 22:35:31  5-MIN KABI 150435Z 21008KT 10SM CLR 17/05 A2973 1960 44 2700 210/08 RMK AO2 T01720050 $
13962KABI ABI20160314224010603/14/16 22:40:31  5-MIN KABI 150440Z 22008KT 10SM CLR 18/05 A2974 1960 42 2800 210/08 RMK AO2 T01780050 $
13962KABI ABI20160314224510603/14/16 22:45:31  5-MIN KABI 150445Z 21009KT 10SM CLR 18/05 A2973 1970 42 2800 210/09 RMK AO2 T01780050 $
13962KABI ABI20160314225011303/14/16 22:50:31  5-MIN KABI 150450Z 21009KT 10SM CLR 17/05 A2973 1970 44 2700 200/09 RMK AO2 SLP046 T01720050 $
13962KABI ABI20160314225510603/14/16 22:55:31  5-MIN KABI 150455Z 21009KT 10SM CLR 17/05 A2973 1970 44 2700 200/09 RMK AO2 T01720050 $
13962KABI ABI20160314230010603/14/16 23:00:31  5-MIN KABI 150500Z 22007KT 10SM CLR 17/05 A2973 1970 44 2700 220/07 RMK AO2 T01720050 $
13962KABI ABI20160314230510603/14/16 23:05:31  5-MIN KABI 150505Z 22007KT 10SM CLR 17/05 A2973 1970 44 2700 210/07 RMK AO2 T01720050 $
13962KABI ABI20160314231010603/14/16 23:10:31  5-MIN KABI 150510Z 22006KT 10SM CLR 17/05 A2973 1970 44 2700 220/06 RMK AO2 T01720050 $
13962KABI ABI20160314231510603/14/16 23:15:31  5-MIN KABI 150515Z 22008KT 10SM CLR 18/04 A2973 1970 41 2800 220/08 RMK AO2 T01780044 $
13962KABI ABI20160314232010603/14/16 23:20:31  5-MIN KABI 150520Z 22009KT 10SM CLR 18/04 A2973 1970 39 2800 210/09 RMK AO2 T01780039 $
13962KABI ABI20160314232510603/14/16 23:25:31  5-MIN KABI 150525Z 22010KT 10SM CLR 19/03 A2973 1970 35 2900 210/10 RMK AO2 T01890033 $
13962KABI ABI20160314233010603/14/16 23:30:31  5-MIN KABI 150530Z 22010KT 10SM CLR 19/03 A2972 1970 33 3000 220/10 RMK AO2 T01940028 $
13962KABI ABI20160314233510603/14/16 23:35:31  5-MIN KABI 150535Z 22013KT 10SM CLR 19/02 A2972 1970 31 3000 210/13 RMK AO2 T01940022 $
13962KABI ABI20160314234010603/14/16 23:40:31  5-MIN KABI 150540Z 22013KT 10SM CLR 20/02 A2972 1980 30 3100 210/13 RMK AO2 T02000022 $
13962KABI ABI20160314234510603/14/16 23:45:31  5-MIN KABI 150545Z 22013KT 10SM CLR 20/02 A2972 1980 30 3100 220/13 RMK AO2 T02000022 $
13962KABI ABI20160314235014103/14/16 23:50:31  5-MIN KABI 150550Z 23009KT 10SM CLR 20/02 A2972 1980 29 3100 220/09 RMK AO2 SLP041 T02000017 10261 20172 402830106 53011 $
13962KABI ABI20160314235510603/14/16 23:55:31  5-MIN KABI 150555Z 21009KT 10SM CLR 19/02 A2972 1980 31 3000 210/09 RMK AO2 T01940022 $
13962KABI ABI20160315000010603/15/16 00:00:31  5-MIN KABI 150600Z 21008KT 10SM CLR 19/02 A2972 1980 32 2900 200/08 RMK AO2 T01890022 $
13962KABI ABI20160315000510603/15/16 00:05:31  5-MIN KABI 150605Z 21008KT 10SM CLR 18/02 A2972 1980 34 2900 210/08 RMK AO2 T01830022 $
13962KABI ABI20160315001010603/15/16 00:10:31  5-MIN KABI 150610Z 21009KT 10SM CLR 18/02 A2972 1980 34 2900 210/09 RMK AO2 T01830022 $
13962KABI ABI20160315001510603/15/16 00:15:31  5-MIN KABI 150615Z 22009KT 10SM CLR 19/02 A2972 1980 32 2900 210/09 RMK AO2 T01890022 $
13962KABI ABI20160315002010603/15/16 00:20:31  5-MIN KABI 150620Z 22009KT 10SM CLR 19/02 A2972 1980 32 2900 210/09 RMK AO2 T01890022 $
13962KABI ABI20160315002510603/15/16 00:25:31  5-MIN KABI 150625Z 22009KT 10SM CLR 19/02 A2972 1980 32 2900 210/09 RMK AO2 T01890022 $
13962KABI ABI20160315003010603/15/16 00:30:31  5-MIN KABI 150630Z 22008KT 10SM CLR 19/02 A2972 1980 32 2900 210/08 RMK AO2 T01890022 $
13962KABI ABI20160315003510603/15/16 00:35:31  5-MIN KABI 150635Z 21008KT 10SM CLR 18/02 A2972 1980 34 2900 210/08 RMK AO2 T01830022 $
13962KABI ABI20160315004010603/15/16 00:40:31  5-MIN KABI 150640Z 21008KT 10SM CLR 18/02 A2971 1980 34 2900 210/08 RMK AO2 T01830022 $
13962KABI ABI20160315004510603/15/16 00:45:31  5-MIN KABI 150645Z 21010KT 10SM CLR 19/02 A2972 1980 32 2900 210/10 RMK AO2 T01890022 $
13962KABI ABI20160315005011303/15/16 00:50:31  5-MIN KABI 150650Z 21010KT 10SM CLR 19/02 A2972 1980 32 2900 210/10 RMK AO2 SLP039 T01890022 $
13962KABI ABI20160315005510603/15/16 00:55:31  5-MIN KABI 150655Z 21010KT 10SM CLR 19/02 A2971 1980 32 2900 210/10 RMK AO2 T01890022 $
13962KABI ABI20160315010010603/15/16 01:00:31  5-MIN KABI 150700Z 21009KT 10SM CLR 19/02 A2971 1980 32 2900 210/09 RMK AO2 T01890022 $
13962KABI ABI20160315010510603/15/16 01:05:31  5-MIN KABI 150705Z 21010KT 10SM CLR 19/02 A2971 1980 32 2900 210/10 RMK AO2 T01890022 $
13962KABI ABI20160315011010603/15/16 01:10:31  5-MIN KABI 150710Z 21010KT 10SM CLR 18/02 A2971 1980 34 2900 210/10 RMK AO2 T01830022 $
13962KABI ABI20160315011510603/15/16 01:15:31  5-MIN KABI 150715Z 21010KT 10SM CLR 18/02 A2972 1980 34 2900 210/10 RMK AO2 T01830022 $
13962KABI ABI20160315012010603/15/16 01:20:31  5-MIN KABI 150720Z 22010KT 10SM CLR 18/02 A2971 1980 34 2900 210/10 RMK AO2 T01830022 $
13962KABI ABI20160315012510603/15/16 01:25:31  5-MIN KABI 150725Z 22010KT 10SM CLR 19/02 A2971 1980 30 3000 210/10 RMK AO2 T01940017 $
13962KABI ABI20160315013010603/15/16 01:30:31  5-MIN KABI 150730Z 21011KT 10SM CLR 18/02 A2971 1990 34 2900 210/11 RMK AO2 T01830022 $
13962KABI ABI20160315013510603/15/16 01:35:31  5-MIN KABI 150735Z 21010KT 10SM CLR 18/02 A2971 1980 32 2900 210/10 RMK AO2 T01830017 $
13962KABI ABI20160315014010603/15/16 01:40:31  5-MIN KABI 150740Z 22010KT 10SM CLR 18/02 A2971 1990 32 2900 210/10 RMK AO2 T01830017 $
13962KABI ABI20160315014510603/15/16 01:45:31  5-MIN KABI 150745Z 21009KT 10SM CLR 18/02 A2971 1990 32 2900 210/09 RMK AO2 T01830017 $
13962KABI ABI20160315015011303/15/16 01:50:31  5-MIN KABI 150750Z 22010KT 10SM CLR 18/02 A2971 1990 32 2900 210/10 RMK AO2 SLP038 T01830017 $
13962KABI ABI20160315015510603/15/16 01:55:31  5-MIN KABI 150755Z 22010KT 10SM CLR 18/02 A2971 1990 32 2900 210/10 RMK AO2 T01830017 $
13962KABI ABI20160315020010603/15/16 02:00:31  5-MIN KABI 150800Z 22010KT 10SM CLR 18/02 A2971 1990 32 2900 210/10 RMK AO2 T01830017 $
13962KABI ABI20160315020510603/15/16 02:05:31  5-MIN KABI 150805Z 22011KT 10SM CLR 18/02 A2971 1990 32 2900 210/11 RMK AO2 T01830017 $
13962KABI ABI20160315021010603/15/16 02:10:31  5-MIN KABI 150810Z 21011KT 10SM CLR 18/02 A2971 1990 32 2900 210/11 RMK AO2 T01830017 $
13962KABI ABI20160315021510603/15/16 02:15:31  5-MIN KABI 150815Z 21010KT 10SM CLR 18/02 A2971 1990 32 2900 210/10 RMK AO2 T01830017 $
13962KABI ABI20160315022010603/15/16 02:20:31  5-MIN KABI 150820Z 21009KT 10SM CLR 18/02 A2971 1990 32 2900 200/09 RMK AO2 T01830017 $
13962KABI ABI20160315022510603/15/16 02:25:31  5-MIN KABI 150825Z 20009KT 10SM CLR 17/02 A2970 1990 35 2800 200/09 RMK AO2 T01720017 $
13962KABI ABI20160315023010603/15/16 02:30:31  5-MIN KABI 150830Z 21010KT 10SM CLR 17/02 A2970 2000 35 2800 200/10 RMK AO2 T01720017 $
13962KABI ABI20160315023510603/15/16 02:35:31  5-MIN KABI 150835Z 21009KT 10SM CLR 18/02 A2970 2000 33 2800 210/09 RMK AO2 T01780017 $
13962KABI ABI20160315024010603/15/16 02:40:31  5-MIN KABI 150840Z 21009KT 10SM CLR 17/02 A2970 2000 35 2800 210/09 RMK AO2 T01720017 $
13962KABI ABI20160315024510603/15/16 02:45:31  5-MIN KABI 150845Z 21009KT 10SM CLR 17/02 A2970 2000 35 2800 200/09 RMK AO2 T01720017 $
13962KABI ABI20160315025011903/15/16 02:50:31  5-MIN KABI 150850Z 21009KT 10SM CLR 17/02 A2970 2000 35 2800 210/09 RMK AO2 SLP033 T01720017 58003 $
13962KABI ABI20160315025510603/15/16 02:55:31  5-MIN KABI 150855Z 21009KT 10SM CLR 18/02 A2970 2000 33 2800 210/09 RMK AO2 T01780017 $
13962KABI ABI20160315030010603/15/16 03:00:31  5-MIN KABI 150900Z 22008KT 10SM CLR 17/02 A2970 2000 35 2800 210/08 RMK AO2 T01720017 $
13962KABI ABI20160315030510603/15/16 03:05:31  5-MIN KABI 150905Z 22009KT 10SM CLR 17/02 A2970 2000 35 2800 220/09 RMK AO2 T01720017 $
13962KABI ABI20160315031010603/15/16 03:10:31  5-MIN KABI 150910Z 22008KT 10SM CLR 17/02 A2970 2000 35 2800 220/08 RMK AO2 T01720017 $
13962KABI ABI20160315031510603/15/16 03:15:31  5-MIN KABI 150915Z 23009KT 10SM CLR 17/02 A2970 2000 35 2800 220/09 RMK AO2 T01720017 $
13962KABI ABI20160315032010603/15/16 03:20:31  5-MIN KABI 150920Z 23009KT 10SM CLR 17/02 A2970 2000 36 2800 230/09 RMK AO2 T01720022 $
13962KABI ABI20160315032510603/15/16 03:25:31  5-MIN KABI 150925Z 23008KT 10SM CLR 17/02 A2970 2000 35 2800 230/08 RMK AO2 T01720017 $
13962KABI ABI20160315033010603/15/16 03:30:31  5-MIN KABI 150930Z 23007KT 10SM CLR 17/02 A2970 2000 36 2700 220/07 RMK AO2 T01670017 $
13962KABI ABI20160315033510603/15/16 03:35:31  5-MIN KABI 150935Z 23008KT 10SM CLR 17/02 A2970 1990 37 2700 220/08 RMK AO2 T01670022 $
13962KABI ABI20160315034010603/15/16 03:40:31  5-MIN KABI 150940Z 22007KT 10SM CLR 17/02 A2970 1990 37 2700 220/07 RMK AO2 T01670022 $
13962KABI ABI20160315034510603/15/16 03:45:31  5-MIN KABI 150945Z 22006KT 10SM CLR 16/02 A2970 1990 39 2600 220/06 RMK AO2 T01610022 $
13962KABI ABI20160315035011303/15/16 03:50:31  5-MIN KABI 150950Z 21007KT 10SM CLR 16/02 A2970 2000 40 2600 200/07 RMK AO2 SLP034 T01560022 $
13962KABI ABI20160315035510603/15/16 03:55:31  5-MIN KABI 150955Z 21008KT 10SM CLR 15/02 A2970 2000 42 2500 200/08 RMK AO2 T01500022 $
13962KABI ABI20160315040010603/15/16 04:00:31  5-MIN KABI 151000Z 21008KT 10SM CLR 15/03 A2970 2000 43 2500 200/08 RMK AO2 T01500028 $
13962KABI ABI20160315040510603/15/16 04:05:31  5-MIN KABI 151005Z 21008KT 10SM CLR 14/03 A2970 2000 45 2400 200/08 RMK AO2 T01440028 $
13962KABI ABI20160315041010603/15/16 04:10:31  5-MIN KABI 151010Z 21008KT 10SM CLR 14/02 A2970 2000 43 2400 200/08 RMK AO2 T01440022 $
13962KABI ABI20160315041510603/15/16 04:15:31  5-MIN KABI 151015Z 20007KT 10SM CLR 14/02 A2970 2000 43 2400 200/07 RMK AO2 T01440022 $
13962KABI ABI20160315042010603/15/16 04:20:31  5-MIN KABI 151020Z 20008KT 10SM CLR 14/02 A2970 2000 43 2400 190/08 RMK AO2 T01440022 $
13962KABI ABI20160315042510603/15/16 04:25:31  5-MIN KABI 151025Z 21008KT 10SM CLR 14/02 A2970 2000 43 2400 200/08 RMK AO2 T01440022 $
13962KABI ABI20160315043010603/15/16 04:30:31  5-MIN KABI 151030Z 21008KT 10SM CLR 14/02 A2970 2000 43 2400 200/08 RMK AO2 T01440022 $
13962KABI ABI20160315043510603/15/16 04:35:31  5-MIN KABI 151035Z 21008KT 10SM CLR 14/02 A2970 2000 43 2400 200/08 RMK AO2 T01440022 $
13962KABI ABI20160315044010603/15/16 04:40:31  5-MIN KABI 151040Z 20009KT 10SM CLR 14/02 A2970 2000 43 2400 200/09 RMK AO2 T01440022 $
13962KABI ABI20160315044510603/15/16 04:45:31  5-MIN KABI 151045Z 20010KT 10SM CLR 14/02 A2970 2000 43 2400 200/10 RMK AO2 T01440022 $
13962KABI ABI20160315045011303/15/16 04:50:31  5-MIN KABI 151050Z 21010KT 10SM CLR 15/02 A2970 2000 40 2500 200/10 RMK AO2 SLP034 T01500017 $
13962KABI ABI20160315045510603/15/16 04:55:31  5-MIN KABI 151055Z 22010KT 10SM CLR 16/02 A2970 2000 39 2600 210/10 RMK AO2 T01560017 $
13962KABI ABI20160315050010603/15/16 05:00:31  5-MIN KABI 151100Z 22010KT 10SM CLR 16/02 A2970 2000 37 2600 210/10 RMK AO2 T01610017 $
13962KABI ABI20160315050510603/15/16 05:05:31  5-MIN KABI 151105Z 22009KT 10SM CLR 16/02 A2970 2000 39 2600 210/09 RMK AO2 T01560017 $
13962KABI ABI20160315051010603/15/16 05:10:31  5-MIN KABI 151110Z 23009KT 10SM CLR 16/02 A2970 2000 39 2600 220/09 RMK AO2 T01560017 $
13962KABI ABI20160315051510603/15/16 05:15:31  5-MIN KABI 151115Z 23009KT 10SM CLR 16/02 A2970 1990 37 2600 220/09 RMK AO2 T01610017 $
13962KABI ABI20160315052010603/15/16 05:20:31  5-MIN KABI 151120Z 23009KT 10SM CLR 16/02 A2971 1990 37 2600 220/09 RMK AO2 T01610017 $
13962KABI ABI20160315052510603/15/16 05:25:31  5-MIN KABI 151125Z 23010KT 10SM CLR 16/02 A2971 1990 37 2600 230/10 RMK AO2 T01610017 $
13962KABI ABI20160315053010603/15/16 05:30:31  5-MIN KABI 151130Z 24009KT 10SM CLR 16/02 A2971 1990 37 2600 230/09 RMK AO2 T01610017 $
13962KABI ABI20160315053510603/15/16 05:35:31  5-MIN KABI 151135Z 25010KT 10SM CLR 16/02 A2971 1990 37 2600 240/10 RMK AO2 T01610017 $
13962KABI ABI20160315054010603/15/16 05:40:31  5-MIN KABI 151140Z 26011KT 10SM CLR 17/01 A2971 1990 33 2700 250/11 RMK AO2 T01720011 $
13962KABI ABI20160315054510603/15/16 05:45:31  5-MIN KABI 151145Z 27012KT 10SM CLR 18/01 A2971 1990 32 2800 260/12 RMK AO2 T01780011 $
13962KABI ABI20160315055013103/15/16 05:50:31  5-MIN KABI 151150Z 27013KT 10SM CLR 18/01 A2971 1990 30 2900 260/13 RMK AO2 SLP037 T01830006 10194 20139 58007 $
13962KABI ABI20160315055511203/15/16 05:55:31  5-MIN KABI 151155Z 27016G20KT 10SM CLR 19/01 A2971 1990 29 2900 260/16G20 RMK AO2 T01890006 $
13962KABI ABI20160315060010603/15/16 06:00:31  5-MIN KABI 151200Z 27015KT 10SM CLR 19/01 A2971 1980 28 3000 270/15 RMK AO2 T01940006 $
13962KABI ABI20160315060510603/15/16 06:05:31  5-MIN KABI 151205Z 27016KT 10SM CLR 19/01 A2972 1980 28 3000 270/16 RMK AO2 T01940006 $
13962KABI ABI20160315061010603/15/16 06:10:31  5-MIN KABI 151210Z 27016KT 10SM CLR 19/01 A2972 1980 28 3000 270/16 RMK AO2 T01940006 $
13962KABI ABI20160315061511203/15/16 06:15:31  5-MIN KABI 151215Z 27016G22KT 10SM CLR 19/01 A2972 1980 28 3000 270/16G22 RMK AO2 T01940006 $
13962KABI ABI20160315062010603/15/16 06:20:31  5-MIN KABI 151220Z 28016KT 10SM CLR 19/01 A2972 1980 28 3000 270/16 RMK AO2 T01940006 $
13962KABI ABI20160315062513003/15/16 06:25:31  5-MIN KABI 151225Z 28020G26KT 10SM CLR 19/00 A2973 1970 27 3000 270/20G26 RMK AO2 PK WND 27026/1225 T01940000 $
13962KABI ABI20160315063013003/15/16 06:30:31  5-MIN KABI 151230Z 28018G26KT 10SM CLR 20/00 A2973 1970 26 3000 270/18G26 RMK AO2 PK WND 27026/1225 T02000000 $
13962KABI ABI20160315063513003/15/16 06:35:31  5-MIN KABI 151235Z 28017G25KT 10SM CLR 19/00 A2973 1970 27 3000 270/17G25 RMK AO2 PK WND 27026/1225 T01940000 $
13962KABI ABI20160315064013003/15/16 06:40:31  5-MIN KABI 151240Z 28019G24KT 10SM CLR 19/00 A2974 1960 27 3000 270/19G24 RMK AO2 PK WND 27026/1225 T01940000 $
13962KABI ABI20160315064513003/15/16 06:45:31  5-MIN KABI 151245Z 28018G24KT 10SM CLR 19/00 A2974 1960 27 3000 270/18G24 RMK AO2 PK WND 27026/1225 T01940000 $
13962KABI ABI20160315065013703/15/16 06:50:31  5-MIN KABI 151250Z 28019G27KT 10SM CLR 19/00 A2974 1960 27 3000 270/19G27 RMK AO2 PK WND 27027/1247 SLP048 T01940000 $
13962KABI ABI20160315065511203/15/16 06:55:31  5-MIN KABI 151255Z 28018G27KT 10SM CLR 19/00 A2974 1960 27 3000 270/18G27 RMK AO2 T01940000 $
13962KABI ABI20160315070011203/15/16 07:00:31  5-MIN KABI 151300Z 28019G26KT 10SM CLR 19/00 A2975 1950 27 3000 270/19G26 RMK AO2 T01940000 $
13962KABI ABI20160315070510603/15/16 07:05:31  5-MIN KABI 151305Z 28020KT 10SM CLR 19/00 A2975 1950 27 3000 280/20 RMK AO2 T01940000 $
13962KABI ABI20160315071012403/15/16 07:10:31  5-MIN KABI 151310Z 28018KT 10SM CLR 19/00 A2975 1950 27 3000 280/18 RMK AO2 PK WND 28027/1308 T01940000 $
13962KABI ABI20160315071513003/15/16 07:15:31  5-MIN KABI 151315Z 28018G27KT 10SM CLR 19/00 A2975 1950 27 3000 280/18G27 RMK AO2 PK WND 28027/1308 T01940000 $
13962KABI ABI20160315072013003/15/16 07:20:31  5-MIN KABI 151320Z 28017G24KT 10SM CLR 19/01 A2976 1950 28 2900 280/17G24 RMK AO2 PK WND 28027/1308 T01940006 $
13962KABI ABI20160315072513003/15/16 07:25:31  5-MIN KABI 151325Z 28019G26KT 10SM CLR 19/01 A2976 1940 28 2900 280/19G26 RMK AO2 PK WND 28027/1308 T01940006 $
13962KABI ABI20160315073013003/15/16 07:30:31  5-MIN KABI 151330Z 28017G27KT 10SM CLR 19/01 A2976 1940 28 2900 280/17G27 RMK AO2 PK WND 28027/1328 T01940006 $
13962KABI ABI20160315073513003/15/16 07:35:31  5-MIN KABI 151335Z 28015G27KT 10SM CLR 19/01 A2976 1940 28 2900 280/15G27 RMK AO2 PK WND 28027/1328 T01940006 $
13962KABI ABI20160315074012403/15/16 07:40:31  5-MIN KABI 151340Z 29016KT 10SM CLR 19/01 A2976 1940 28 2900 280/16 RMK AO2 PK WND 28027/1328 T01940006 $
13962KABI ABI20160315074513003/15/16 07:45:31  5-MIN KABI 151345Z 29016G23KT 10SM CLR 19/01 A2977 1940 29 2900 280/16G23 RMK AO2 PK WND 28027/1328 T01940011 $
13962KABI ABI20160315075013703/15/16 07:50:31  5-MIN KABI 151350Z 29016G23KT 10SM CLR 19/01 A2977 1930 29 2900 280/16G23 RMK AO2 PK WND 28027/1328 SLP060 T01940011 $
13962KABI ABI20160315075510603/15/16 07:55:31  5-MIN KABI 151355Z 29014KT 10SM CLR 19/01 A2977 1930 29 2900 290/14 RMK AO2 T01940011 $
13962KABI ABI20160315080011203/15/16 08:00:31  5-MIN KABI 151400Z 29015G23KT 10SM CLR 19/02 A2977 1930 30 2900 290/15G23 RMK AO2 T01940017 $
13962KABI ABI20160315080511203/15/16 08:05:31  5-MIN KABI 151405Z 29016G23KT 10SM CLR 19/02 A2977 1930 30 2900 280/16G23 RMK AO2 T01940017 $
13962KABI ABI20160315081011203/15/16 08:10:31  5-MIN KABI 151410Z 29017G23KT 10SM CLR 19/02 A2978 1920 30 2900 280/17G23 RMK AO2 T01940017 $
13962KABI ABI20160315081510603/15/16 08:15:31  5-MIN KABI 151415Z 28016KT 10SM CLR 20/02 A2978 1920 29 3000 280/16 RMK AO2 T02000017 $
13962KABI ABI20160315082010603/15/16 08:20:31  5-MIN KABI 151420Z 28016KT 10SM CLR 20/02 A2978 1920 29 3000 280/16 RMK AO2 T02000017 $
13962KABI ABI20160315082511203/15/16 08:25:31  5-MIN KABI 151425Z 28017G23KT 10SM CLR 20/02 A2979 1910 29 3000 280/17G23 RMK AO2 T02000017 $
13962KABI ABI20160315083011203/15/16 08:30:31  5-MIN KABI 151430Z 28017G23KT 10SM CLR 20/02 A2979 1910 30 3000 280/17G23 RMK AO2 T02000022 $
13962KABI ABI20160315083511203/15/16 08:35:31  5-MIN KABI 151435Z 28015G23KT 10SM CLR 21/02 A2980 1910 29 3000 280/15G23 RMK AO2 T02060022 $
13962KABI ABI20160315084010603/15/16 08:40:31  5-MIN KABI 151440Z 29016KT 10SM CLR 21/02 A2980 1900 29 3000 280/16 RMK AO2 T02060022 $
13962KABI ABI20160315084511203/15/16 08:45:31  5-MIN KABI 151445Z 29016G25KT 10SM CLR 21/02 A2980 1900 29 3000 290/16G25 RMK AO2 T02060022 $
13962KABI ABI20160315085012503/15/16 08:50:31  5-MIN KABI 151450Z 29015G25KT 10SM CLR 21/03 A2981 1900 30 3000 280/15G25 RMK AO2 SLP074 T02060028 53004 $
13962KABI ABI20160315085511203/15/16 08:55:31  5-MIN KABI 151455Z 28018G23KT 10SM CLR 21/02 A2981 1890 29 3000 280/18G23 RMK AO2 T02060022 $
13962KABI ABI20160315090011203/15/16 09:00:31  5-MIN KABI 151500Z 29015G23KT 10SM CLR 21/03 A2981 1890 29 3100 290/15G23 RMK AO2 T02110028 $
13962KABI ABI20160315090511203/15/16 09:05:31  5-MIN KABI 151505Z 29013G23KT 10SM CLR 21/03 A2981 1890 29 3100 280/13G23 RMK AO2 T02110028 $
13962KABI ABI20160315091011203/15/16 09:10:31  5-MIN KABI 151510Z 29015G23KT 10SM CLR 21/03 A2982 1890 29 3100 290/15G23 RMK AO2 T02110028 $
13962KABI ABI20160315091510603/15/16 09:15:31  5-MIN KABI 151515Z 29015KT 10SM CLR 22/03 A2982 1880 28 3100 290/15 RMK AO2 T02170028 $
13962KABI ABI20160315092011203/15/16 09:20:31  5-MIN KABI 151520Z 29016G23KT 10SM CLR 22/03 A2982 1880 28 3100 290/16G23 RMK AO2 T02170028 $
13962KABI ABI20160315092511203/15/16 09:25:31  5-MIN KABI 151525Z 29015G23KT 10SM CLR 22/03 A2983 1880 29 3100 290/15G23 RMK AO2 T02170033 $
13962KABI ABI20160315093011203/15/16 09:30:31  5-MIN KABI 151530Z 30017G22KT 10SM CLR 22/03 A2983 1880 28 3100 290/17G22 RMK AO2 T02170028 $
13962KABI ABI20160315093510603/15/16 09:35:31  5-MIN KABI 151535Z 31020KT 10SM CLR 22/03 A2983 1870 27 3200 300/20 RMK AO2 T02220028 $
13962KABI ABI20160315094010603/15/16 09:40:31  5-MIN KABI 151540Z 31020KT 10SM CLR 22/03 A2983 1870 27 3200 310/20 RMK AO2 T02220028 $
13962KABI ABI20160315094511203/15/16 09:45:31  5-MIN KABI 151545Z 30020G25KT 10SM CLR 22/03 A2983 1870 27 3200 300/20G25 RMK AO2 T02220028 $
13962KABI ABI20160315095011903/15/16 09:50:31  5-MIN KABI 151550Z 30016G25KT 10SM CLR 22/03 A2984 1870 27 3200 290/16G25 RMK AO2 SLP083 T02220028 $
13962KABI ABI20160315095511203/15/16 09:55:31  5-MIN KABI 151555Z 31018G25KT 10SM CLR 22/03 A2984 1870 28 3200 300/18G25 RMK AO2 T02220033 $
13962KABI ABI20160315100013003/15/16 10:00:31  5-MIN KABI 151600Z 32018G26KT 10SM CLR 22/03 A2984 1870 27 3200 310/18G26 RMK AO2 PK WND 32026/1556 T02220028 $
13962KABI ABI20160315100512403/15/16 10:05:31  5-MIN KABI 151605Z 32018KT 10SM CLR 22/03 A2985 1860 27 3200 310/18 RMK AO2 PK WND 32026/1556 T02220028 $
13962KABI ABI20160315101013003/15/16 10:10:31  5-MIN KABI 151610Z 31019G24KT 10SM CLR 22/03 A2985 1860 27 3200 310/19G24 RMK AO2 PK WND 32026/1556 T02220028 $
13962KABI ABI20160315101513003/15/16 10:15:31  5-MIN KABI 151615Z 31015G24KT 10SM CLR 22/02 A2985 1860 26 3200 300/15G24 RMK AO2 PK WND 32026/1556 T02220022 $
13962KABI ABI20160315102013003/15/16 10:20:31  5-MIN KABI 151620Z 31015G24KT 10SM CLR 23/03 A2985 1860 27 3200 310/15G24 RMK AO2 PK WND 32026/1556 T02280033 $
13962KABI ABI20160315102512403/15/16 10:25:31  5-MIN KABI 151625Z 30015KT 10SM CLR 23/03 A2985 1850 27 3200 290/15 RMK AO2 PK WND 32026/1556 T02280033 $
13962KABI ABI20160315103012403/15/16 10:30:31  5-MIN KABI 151630Z 30015KT 10SM CLR 23/04 A2986 1850 29 3200 300/15 RMK AO2 PK WND 32026/1556 T02280039 $
13962KABI ABI20160315103512403/15/16 10:35:31  5-MIN KABI 151635Z 31016KT 10SM CLR 23/03 A2986 1850 26 3300 310/16 RMK AO2 PK WND 32026/1556 T02330033 $
13962KABI ABI20160315104012403/15/16 10:40:31  5-MIN KABI 151640Z 33015KT 10SM CLR 23/04 A2985 1850 28 3300 320/15 RMK AO2 PK WND 32026/1556 T02330039 $
13962KABI ABI20160315104512403/15/16 10:45:31  5-MIN KABI 151645Z 32016KT 10SM CLR 23/03 A2986 1850 26 3300 320/16 RMK AO2 PK WND 32026/1556 T02330033 $
13962KABI ABI20160315105013703/15/16 10:50:31  5-MIN KABI 151650Z 33016G21KT 10SM CLR 23/03 A2986 1850 26 3300 330/16G21 RMK AO2 PK WND 32026/1556 SLP091 T02330033 $
13962KABI ABI20160315105510603/15/16 10:55:31  5-MIN KABI 151655Z 33015KT 10SM CLR 23/03 A2986 1850 26 3300 330/15 RMK AO2 T02330033 $
13962KABI ABI20160315110010603/15/16 11:00:31  5-MIN KABI 151700Z 32013KT 10SM CLR 23/04 A2987 1840 29 3300 320/13 RMK AO2 T02330044 $
13962KABI ABI20160315110510603/15/16 11:05:31  5-MIN KABI 151705Z 33015KT 10SM CLR 23/04 A2987 1840 28 3300 320/15 RMK AO2 T02330039 $
13962KABI ABI20160315111010603/15/16 11:10:31  5-MIN KABI 151710Z 33014KT 10SM CLR 23/04 A2987 1840 28 3300 320/14 RMK AO2 T02330039 $
13962KABI ABI20160315111511203/15/16 11:15:31  5-MIN KABI 151715Z 32015G20KT 10SM CLR 23/04 A2987 1840 28 3300 310/15G20 RMK AO2 T02330039 $
13962KABI ABI20160315112011203/15/16 11:20:31  5-MIN KABI 151720Z 33019G23KT 10SM CLR 23/04 A2987 1840 28 3300 320/19G23 RMK AO2 T02330039 $
13962KABI ABI20160315112511203/15/16 11:25:31  5-MIN KABI 151725Z 33015G23KT 10SM CLR 23/04 A2988 1830 28 3300 330/15G23 RMK AO2 T02330039 $
13962KABI ABI20160315113011203/15/16 11:30:31  5-MIN KABI 151730Z 34017G23KT 10SM CLR 23/04 A2988 1830 28 3200 330/17G23 RMK AO2 T02330039 $
13962KABI ABI20160315113510603/15/16 11:35:31  5-MIN KABI 151735Z 32019KT 10SM CLR 23/04 A2988 1830 28 3200 310/19 RMK AO2 T02330039 $
13962KABI ABI20160315114010603/15/16 11:40:31  5-MIN KABI 151740Z 33019KT 10SM CLR 23/03 A2988 1830 26 3200 320/19 RMK AO2 T02330033 $
13962KABI ABI20160315114510603/15/16 11:45:31  5-MIN KABI 151745Z 32013KT 10SM CLR 23/03 A2989 1820 27 3200 320/13 RMK AO2 T02280033 $
13962KABI ABI20160315115013703/15/16 11:50:31  5-MIN KABI 151750Z 33016G21KT 10SM CLR 23/04 A2989 1820 28 3200 320/16G21 RMK AO2 SLP099 T02330039 10239 20189 53031 $
13962KABI ABI20160315115511203/15/16 11:55:31  5-MIN KABI 151755Z 34018G21KT 10SM CLR 23/04 A2989 1820 28 3200 330/18G21 RMK AO2 T02330039 $
13962KABI ABI20160315120010603/15/16 12:00:31  5-MIN KABI 151800Z 34016KT 10SM CLR 23/04 A2989 1820 28 3200 340/16 RMK AO2 T02330039 $
13962KABI ABI20160315120510603/15/16 12:05:31  5-MIN KABI 151805Z 32017KT 10SM CLR 23/04 A2989 1820 28 3200 310/17 RMK AO2 T02330039 $
13962KABI ABI20160315121010403/15/16 12:10:31  5-MIN KABI 151810Z 33012KT 10SM CLR 23/03 A2989 1820 27 3200 320/12 RMK AO2 T02280033
13962KABI ABI20160315121512803/15/16 12:15:31  5-MIN KABI 151815Z 33017G28KT 10SM CLR 23/04 A2989 1820 29 3200 320/17G28 RMK AO2 PK WND 34028/1813 T02330044
13962KABI ABI20160315122012803/15/16 12:20:31  5-MIN KABI 151820Z 32014G28KT 10SM CLR 23/04 A2989 1820 29 3200 310/14G28 RMK AO2 PK WND 34028/1813 T02280039
13962KABI ABI20160315122512203/15/16 12:25:31  5-MIN KABI 151825Z 34017KT 10SM CLR 23/04 A2989 1820 28 3200 330/17 RMK AO2 PK WND 34028/1813 T02330039
13962KABI ABI20160315123012803/15/16 12:30:31  5-MIN KABI 151830Z 32013G23KT 10SM CLR 23/04 A2989 1820 28 3200 310/13G23 RMK AO2 PK WND 34028/1813 T02330039
13962KABI ABI20160315123512203/15/16 12:35:31  5-MIN KABI 151835Z 31011KT 10SM CLR 23/04 A2989 1820 29 3200 310/11 RMK AO2 PK WND 34028/1813 T02330044
13962KABI ABI20160315124012803/15/16 12:40:31  5-MIN KABI 151840Z 33011G21KT 10SM CLR 23/04 A2990 1810 29 3200 320/11G21 RMK AO2 PK WND 34028/1813 T02330044
13962KABI ABI20160315124512803/15/16 12:45:31  5-MIN KABI 151845Z 33014G21KT 10SM CLR 23/04 A2990 1810 28 3200 320/14G21 RMK AO2 PK WND 34028/1813 T02330039
13962KABI ABI20160315125013503/15/16 12:50:31  5-MIN KABI 151850Z 33014G17KT 10SM CLR 23/04 A2990 1820 28 3200 330/14G17 RMK AO2 PK WND 34028/1813 SLP102 T02330039
13962KABI ABI20160315125510403/15/16 12:55:31  5-MIN KABI 151855Z 32012KT 10SM CLR 23/04 A2989 1820 29 3200 320/12 RMK AO2 T02330044
13962KABI ABI20160315130010403/15/16 13:00:31  5-MIN KABI 151900Z 33011KT 10SM CLR 23/04 A2990 1810 28 3200 330/11 RMK AO2 T02330039
13962KABI ABI20160315130510403/15/16 13:05:31  5-MIN KABI 151905Z 33014KT 10SM CLR 23/03 A2989 1820 26 3200 330/14 RMK AO2 T02330033
13962KABI ABI20160315131011003/15/16 13:10:31  5-MIN KABI 151910Z 31014G22KT 10SM CLR 24/04 A2989 1820 28 3300 310/14G22 RMK AO2 T02390044
13962KABI ABI20160315131511003/15/16 13:15:31  5-MIN KABI 151915Z 30015G22KT 10SM CLR 23/03 A2989 1820 26 3200 300/15G22 RMK AO2 T02330033
13962KABI ABI20160315132011003/15/16 13:20:31  5-MIN KABI 151920Z 32017G22KT 10SM CLR 23/03 A2989 1820 25 3200 320/17G22 RMK AO2 T02330028
13962KABI ABI20160315132511003/15/16 13:25:31  5-MIN KABI 151925Z 34015G22KT 10SM CLR 23/03 A2989 1820 25 3200 330/15G22 RMK AO2 T02330028
13962KABI ABI20160315133011003/15/16 13:30:31  5-MIN KABI 151930Z 32010G19KT 10SM CLR 24/03 A2989 1820 26 3300 320/10G19 RMK AO2 T02390033
13962KABI ABI20160315133510403/15/16 13:35:31  5-MIN KABI 151935Z 32012KT 10SM CLR 24/03 A2989 1820 26 3300 320/12 RMK AO2 T02390033
13962KABI ABI20160315134011003/15/16 13:40:31  5-MIN KABI 151940Z 34014G18KT 10SM CLR 24/03 A2989 1820 25 3300 330/14G18 RMK AO2 T02390028
13962KABI ABI20160315134511003/15/16 13:45:31  5-MIN KABI 151945Z 31008G16KT 10SM CLR 24/03 A2989 1820 25 3300 310/08G16 RMK AO2 T02390028
13962KABI ABI20160315135011103/15/16 13:50:31  5-MIN KABI 151950Z 34010KT 10SM CLR 24/03 A2989 1820 26 3300 330/10 RMK AO2 SLP099 T02390033
13962KABI ABI20160315135510403/15/16 13:55:31  5-MIN KABI 151955Z 34012KT 10SM CLR 24/03 A2988 1830 25 3300 330/12 RMK AO2 T02390028
13962KABI ABI20160315140010403/15/16 14:00:31  5-MIN KABI 152000Z 34013KT 10SM CLR 24/02 A2988 1830 24 3300 330/13 RMK AO2 T02390022
13962KABI ABI20160315140510403/15/16 14:05:31  5-MIN KABI 152005Z 32014KT 10SM CLR 24/03 A2988 1830 25 3300 320/14 RMK AO2 T02390028
13962KABI ABI20160315141011003/15/16 14:10:31  5-MIN KABI 152010Z 33011G21KT 10SM CLR 24/03 A2988 1830 24 3400 330/11G21 RMK AO2 T02440028
13962KABI ABI20160315141510403/15/16 14:15:31  5-MIN KABI 152015Z 32014KT 10SM CLR 24/03 A2988 1830 24 3400 310/14 RMK AO2 T02440028
13962KABI ABI20160315142010403/15/16 14:20:31  5-MIN KABI 152020Z 34014KT 10SM CLR 24/02 A2988 1830 23 3300 330/14 RMK AO2 T02390017
13962KABI ABI20160315142511003/15/16 14:25:31  5-MIN KABI 152025Z 32012G20KT 10SM CLR 24/02 A2988 1830 23 3400 320/12G20 RMK AO2 T02440022
13962KABI ABI20160315143011003/15/16 14:30:31  5-MIN KABI 152030Z 31012G20KT 10SM CLR 24/03 A2988 1830 24 3400 310/12G20 RMK AO2 T02440028
13962KABI ABI20160315143511003/15/16 14:35:31  5-MIN KABI 152035Z 33014G21KT 10SM CLR 24/02 A2988 1830 23 3400 320/14G21 RMK AO2 T02440022
13962KABI ABI20160315144010403/15/16 14:40:31  5-MIN KABI 152040Z 34017KT 10SM CLR 24/02 A2988 1830 22 3400 340/17 RMK AO2 T02440017
13962KABI ABI20160315144510403/15/16 14:45:31  5-MIN KABI 152045Z 33015KT 10SM CLR 24/02 A2988 1830 22 3400 320/15 RMK AO2 T02440017
13962KABI ABI20160315145011703/15/16 14:50:31  5-MIN KABI 152050Z 33013KT 10SM CLR 24/02 A2988 1830 23 3400 330/13 RMK AO2 SLP097 T02440022 53025
13962KABI ABI20160315145511003/15/16 14:55:31  5-MIN KABI 152055Z 34016G22KT 10SM CLR 24/01 A2988 1830 21 3400 340/16G22 RMK AO2 T02440011
13962KABI ABI20160315150011003/15/16 15:00:31  5-MIN KABI 152100Z 34018G23KT 10SM CLR 24/02 A2988 1830 22 3400 340/18G23 RMK AO2 T02440017
13962KABI ABI20160315150511003/15/16 15:05:31  5-MIN KABI 152105Z 35014G23KT 10SM CLR 24/01 A2989 1820 21 3400 350/14G23 RMK AO2 T02440011
13962KABI ABI20160315151011003/15/16 15:10:31  5-MIN KABI 152110Z 31017G24KT 10SM CLR 24/01 A2988 1830 21 3400 310/17G24 RMK AO2 T02440011
13962KABI ABI20160315151511003/15/16 15:15:31  5-MIN KABI 152115Z 33010G24KT 10SM CLR 24/01 A2989 1820 20 3400 320/10G24 RMK AO2 T02440006
13962KABI ABI20160315152010403/15/16 15:20:31  5-MIN KABI 152120Z 34011KT 10SM CLR 24/01 A2989 1820 20 3400 330/11 RMK AO2 T02440006
13962KABI ABI20160315152510403/15/16 15:25:31  5-MIN KABI 152125Z 32017KT 10SM CLR 24/01 A2989 1820 21 3400 310/17 RMK AO2 T02440011
13962KABI ABI20160315153010403/15/16 15:30:31  5-MIN KABI 152130Z 32016KT 10SM CLR 24/01 A2989 1820 20 3400 320/16 RMK AO2 T02440006
13962KABI ABI20160315153510403/15/16 15:35:31  5-MIN KABI 152135Z 32012KT 10SM CLR 24/01 A2989 1820 20 3400 310/12 RMK AO2 T02440006
13962KABI ABI20160315154011003/15/16 15:40:31  5-MIN KABI 152140Z 34016G20KT 10SM CLR 24/01 A2989 1820 20 3400 330/16G20 RMK AO2 T02440006
13962KABI ABI20160315154511003/15/16 15:45:31  5-MIN KABI 152145Z 35014G20KT 10SM CLR 24/01 A2989 1820 21 3400 340/14G20 RMK AO2 T02440011
13962KABI ABI20160316014510403/16/16 01:45:31  5-MIN KABI 160745Z 17005KT 10SM CLR 11/03 A2998 1740 58 1700 160/05 RMK AO2 T01110033
13962KABI ABI20160316015011103/16/16 01:50:31  5-MIN KABI 160750Z 15004KT 10SM CLR 09/03 A2998 1740 65 1500 140/04 RMK AO2 SLP137 T00940033
13962KABI ABI20160316015510403/16/16 01:55:31  5-MIN KABI 160755Z 15003KT 10SM CLR 09/03 A2998 1730 65 1500 140/03 RMK AO2 T00940033
13962KABI ABI20160316020010403/16/16 02:00:31  5-MIN KABI 160800Z 00000KT 10SM CLR 10/03 A2998 1730 63 1600 000/00 RMK AO2 T01000033
13962KABI ABI20160316020510403/16/16 02:05:31  5-MIN KABI 160805Z 13003KT 10SM CLR 10/03 A2998 1730 63 1600 120/03 RMK AO2 T01000033
13962KABI ABI20160316021010403/16/16 02:10:31  5-MIN KABI 160810Z 12003KT 10SM CLR 10/03 A2998 1730 63 1600 120/03 RMK AO2 T01000033
13962KABI ABI20160316021510403/16/16 02:15:31  5-MIN KABI 160815Z 13003KT 10SM CLR 10/03 A2998 1730 63 1600 120/03 RMK AO2 T01000033
13962KABI ABI20160316022010403/16/16 02:20:31  5-MIN KABI 160820Z 14004KT 10SM CLR 11/03 A2998 1730 58 1700 130/04 RMK AO2 T01110033
13962KABI ABI20160316022510403/16/16 02:25:31  5-MIN KABI 160825Z 13005KT 10SM CLR 12/03 A2998 1740 54 1800 120/05 RMK AO2 T01170028
13962KABI ABI20160316023010403/16/16 02:30:31  5-MIN KABI 160830Z 13006KT 10SM CLR 11/03 A2998 1740 61 1700 120/06 RMK AO2 T01060033
13962KABI ABI20160316023510403/16/16 02:35:31  5-MIN KABI 160835Z 14004KT 10SM CLR 11/03 A2998 1740 61 1700 130/04 RMK AO2 T01060033
13962KABI ABI20160316024010403/16/16 02:40:31  5-MIN KABI 160840Z 16003KT 10SM CLR 09/03 A2998 1740 65 1500 160/03 RMK AO2 T00940033
13962KABI ABI20160316024510403/16/16 02:45:31  5-MIN KABI 160845Z 15005KT 10SM CLR 09/03 A2998 1740 65 1500 140/05 RMK AO2 T00940033
13962KABI ABI20160316025011703/16/16 02:50:31  5-MIN KABI 160850Z 14005KT 10SM CLR 11/03 A2998 1740 61 1700 140/05 RMK AO2 SLP135 T01060033 51008
13962KABI ABI20160316025510403/16/16 02:55:31  5-MIN KABI 160855Z 13004KT 10SM CLR 11/03 A2997 1740 56 1700 130/04 RMK AO2 T01110028
13962KABI ABI20160316030010403/16/16 03:00:31  5-MIN KABI 160900Z 15003KT 10SM CLR 11/03 A2997 1740 56 1700 150/03 RMK AO2 T01110028
13962KABI ABI20160316030510403/16/16 03:05:31  5-MIN KABI 160905Z 17003KT 10SM CLR 11/03 A2998 1740 56 1700 160/03 RMK AO2 T01110028
13962KABI ABI20160316031010403/16/16 03:10:31  5-MIN KABI 160910Z 00000KT 10SM CLR 10/03 A2997 1750 60 1600 000/00 RMK AO2 T01000028
13962KABI ABI20160316031510403/16/16 03:15:31  5-MIN KABI 160915Z 19004KT 10SM CLR 09/03 A2997 1740 65 1500 190/04 RMK AO2 T00940033
13962KABI ABI20160316032010403/16/16 03:20:31  5-MIN KABI 160920Z 19004KT 10SM CLR 09/03 A2997 1740 65 1500 180/04 RMK AO2 T00940033
13962KABI ABI20160316032510403/16/16 03:25:31  5-MIN KABI 160925Z 18004KT 10SM CLR 09/03 A2997 1740 68 1500 180/04 RMK AO2 T00890033
13962KABI ABI20160316033010403/16/16 03:30:31  5-MIN KABI 160930Z 17005KT 10SM CLR 09/03 A2997 1740 68 1500 170/05 RMK AO2 T00890033
13962KABI ABI20160316033510403/16/16 03:35:31  5-MIN KABI 160935Z 17005KT 10SM CLR 09/03 A2997 1750 68 1500 160/05 RMK AO2 T00890033
13962KABI ABI20160316034010403/16/16 03:40:31  5-MIN KABI 160940Z 18004KT 10SM CLR 08/03 A2997 1750 70 1400 170/04 RMK AO2 T00830033
13962KABI ABI20160316034510403/16/16 03:45:31  5-MIN KABI 160945Z 17005KT 10SM CLR 09/03 A2997 1750 68 1500 160/05 RMK AO2 T00890033
13962KABI ABI20160316035011103/16/16 03:50:31  5-MIN KABI 160950Z 16005KT 10SM CLR 09/03 A2997 1750 68 1500 150/05 RMK AO2 SLP134 T00890033
13962KABI ABI20160316035510403/16/16 03:55:31  5-MIN KABI 160955Z 16007KT 10SM CLR 08/04 A2997 1740 73 1400 150/07 RMK AO2 T00830039
13962KABI ABI20160316040010403/16/16 04:00:31  5-MIN KABI 161000Z 15007KT 10SM CLR 08/04 A2997 1750 73 1400 150/07 RMK AO2 T00830039
13962KABI ABI20160316040510403/16/16 04:05:31  5-MIN KABI 161005Z 14007KT 10SM CLR 08/03 A2997 1740 70 1400 130/07 RMK AO2 T00830033
13962KABI ABI20160316041010403/16/16 04:10:31  5-MIN KABI 161010Z 14006KT 10SM CLR 08/03 A2997 1740 73 1300 130/06 RMK AO2 T00780033
13962KABI ABI20160316041510403/16/16 04:15:31  5-MIN KABI 161015Z 15006KT 10SM CLR 08/03 A2997 1740 73 1300 150/06 RMK AO2 T00780033
13962KABI ABI20160316042010403/16/16 04:20:31  5-MIN KABI 161020Z 16005KT 10SM CLR 08/03 A2998 1740 73 1300 160/05 RMK AO2 T00780033
13962KABI ABI20160316042510403/16/16 04:25:31  5-MIN KABI 161025Z 18005KT 10SM CLR 08/03 A2998 1740 70 1400 170/05 RMK AO2 T00830033
13962KABI ABI20160316043010403/16/16 04:30:31  5-MIN KABI 161030Z 18005KT 10SM CLR 08/03 A2998 1740 70 1400 170/05 RMK AO2 T00830033
13962KABI ABI20160316043510403/16/16 04:35:31  5-MIN KABI 161035Z 20003KT 10SM CLR 08/03 A2999 1730 70 1400 190/03 RMK AO2 T00830033
13962KABI ABI20160316044010403/16/16 04:40:31  5-MIN KABI 161040Z 00000KT 10SM CLR 08/03 A2999 1720 70 1400 000/00 RMK AO2 T00830033
13962KABI ABI20160316044510403/16/16 04:45:31  5-MIN KABI 161045Z 33004KT 10SM CLR 08/03 A3000 1720 73 1300 330/04 RMK AO2 T00780033
13962KABI ABI20160316045011103/16/16 04:50:31  5-MIN KABI 161050Z 33004KT 10SM CLR 07/03 A3000 1720 79 1200 320/04 RMK AO2 SLP146 T00670033
13962KABI ABI20160316045510403/16/16 04:55:31  5-MIN KABI 161055Z 30003KT 10SM CLR 07/03 A3000 1720 76 1200 300/03 RMK AO2 T00720033
13962KABI ABI20160316050010403/16/16 05:00:31  5-MIN KABI 161100Z 00000KT 10SM CLR 08/03 A3000 1720 73 1300 000/00 RMK AO2 T00780033
13962KABI ABI20160316050510403/16/16 05:05:31  5-MIN KABI 161105Z 00000KT 10SM CLR 08/03 A3000 1720 73 1300 000/00 RMK AO2 T00780033
13962KABI ABI20160316051010403/16/16 05:10:31  5-MIN KABI 161110Z 00000KT 10SM CLR 08/03 A3000 1720 70 1400 000/00 RMK AO2 T00830033
13962KABI ABI20160316051510403/16/16 05:15:31  5-MIN KABI 161115Z 00000KT 10SM CLR 09/03 A3001 1710 68 1400 000/00 RMK AO2 T00890033
13962KABI ABI20160316052010403/16/16 05:20:31  5-MIN KABI 161120Z 20003KT 10SM CLR 09/03 A3001 1710 68 1400 190/03 RMK AO2 T00890033
13962KABI ABI20160316052510403/16/16 05:25:31  5-MIN KABI 161125Z 20004KT 10SM CLR 09/03 A3001 1710 68 1400 200/04 RMK AO2 T00890033
13962KABI ABI20160316053010403/16/16 05:30:31  5-MIN KABI 161130Z 20003KT 10SM CLR 09/03 A3002 1700 68 1400 190/03 RMK AO2 T00890033
13962KABI ABI20160316053510403/16/16 05:35:31  5-MIN KABI 161135Z 19003KT 10SM CLR 08/04 A3002 1700 73 1300 180/03 RMK AO2 T00830039
13962KABI ABI20160316054010403/16/16 05:40:31  5-MIN KABI 161140Z 18003KT 10SM CLR 09/03 A3002 1700 68 1400 180/03 RMK AO2 T00890033
13962KABI ABI20160316054510403/16/16 05:45:31  5-MIN KABI 161145Z 18003KT 10SM CLR 09/03 A3002 1700 68 1400 170/03 RMK AO2 T00890033
13962KABI ABI20160316055012903/16/16 05:50:31  5-MIN KABI 161150Z 15003KT 10SM CLR 09/03 A3002 1700 65 1500 150/03 RMK AO2 SLP153 T00940033 10122 20067 56002
13962KABI ABI20160316055510403/16/16 05:55:31  5-MIN KABI 161155Z 14003KT 10SM CLR 10/03 A3002 1700 63 1500 130/03 RMK AO2 T01000033
13962KABI ABI20160316060010403/16/16 06:00:31  5-MIN KABI 161200Z 13003KT 10SM CLR 11/03 A3003 1690 61 1600 120/03 RMK AO2 T01060033
13962KABI ABI20160316060510403/16/16 06:05:31  5-MIN KABI 161205Z 13003KT 10SM CLR 11/03 A3003 1690 61 1600 120/03 RMK AO2 T01060033
13962KABI ABI20160316061010403/16/16 06:10:31  5-MIN KABI 161210Z 12003KT 10SM CLR 11/03 A3003 1690 61 1600 110/03 RMK AO2 T01060033
13962KABI ABI20160316061510403/16/16 06:15:31  5-MIN KABI 161215Z 08003KT 10SM CLR 11/03 A3004 1690 61 1600 070/03 RMK AO2 T01060033
13962KABI ABI20160316062010403/16/16 06:20:31  5-MIN KABI 161220Z 06003KT 10SM CLR 10/03 A3004 1680 63 1500 050/03 RMK AO2 T01000033
13962KABI ABI20160316062510403/16/16 06:25:31  5-MIN KABI 161225Z 06004KT 10SM CLR 10/03 A3004 1680 63 1500 060/04 RMK AO2 T01000033
13962KABI ABI20160316063010403/16/16 06:30:31  5-MIN KABI 161230Z 09004KT 10SM CLR 10/03 A3004 1680 63 1500 080/04 RMK AO2 T01000033
13962KABI ABI20160316063510403/16/16 06:35:31  5-MIN KABI 161235Z 10004KT 10SM CLR 10/03 A3004 1680 63 1500 100/04 RMK AO2 T01000033
13962KABI ABI20160316064010403/16/16 06:40:31  5-MIN KABI 161240Z 11005KT 10SM CLR 09/04 A3004 1680 68 1500 100/05 RMK AO2 T00940039
13962KABI ABI20160316064510403/16/16 06:45:31  5-MIN KABI 161245Z 12003KT 10SM CLR 09/04 A3004 1680 68 1500 110/03 RMK AO2 T00940039
13962KABI ABI20160316065011103/16/16 06:50:31  5-MIN KABI 161250Z 11003KT 10SM CLR 09/04 A3004 1680 68 1500 110/03 RMK AO2 SLP161 T00940039
13962KABI ABI20160316065510403/16/16 06:55:31  5-MIN KABI 161255Z 11004KT 10SM CLR 09/04 A3004 1680 71 1400 110/04 RMK AO2 T00890039
13962KABI ABI20160316070010403/16/16 07:00:31  5-MIN KABI 161300Z 13004KT 10SM CLR 08/04 A3004 1680 73 1300 130/04 RMK AO2 T00830039
13962KABI ABI20160316070510403/16/16 07:05:31  5-MIN KABI 161305Z 13005KT 10SM CLR 07/04 A3004 1680 82 1100 130/05 RMK AO2 T00670039
13962KABI ABI20160316071010403/16/16 07:10:31  5-MIN KABI 161310Z 13004KT 10SM CLR 07/04 A3004 1680 82 1200 120/04 RMK AO2 T00720044
13962KABI ABI20160316071510403/16/16 07:15:31  5-MIN KABI 161315Z 00000KT 10SM CLR 08/04 A3005 1670 76 1300 000/00 RMK AO2 T00830044
13962KABI ABI20160316072010403/16/16 07:20:31  5-MIN KABI 161320Z 08003KT 10SM CLR 09/04 A3005 1670 68 1400 080/03 RMK AO2 T00940039
13962KABI ABI20160316072510403/16/16 07:25:31  5-MIN KABI 161325Z 12004KT 10SM CLR 10/04 A3005 1670 65 1500 110/04 RMK AO2 T01000039
13962KABI ABI20160316073010403/16/16 07:30:31  5-MIN KABI 161330Z 11004KT 10SM CLR 09/04 A3005 1670 71 1400 110/04 RMK AO2 T00940044
13962KABI ABI20160316073510403/16/16 07:35:31  5-MIN KABI 161335Z 10004KT 10SM CLR 10/04 A3005 1670 68 1500 100/04 RMK AO2 T01000044
13962KABI ABI20160316074010403/16/16 07:40:31  5-MIN KABI 161340Z 07003KT 10SM CLR 10/04 A3006 1670 68 1500 070/03 RMK AO2 T01000044
13962KABI ABI20160316074510403/16/16 07:45:31  5-MIN KABI 161345Z 06003KT 10SM CLR 11/04 A3006 1670 66 1600 050/03 RMK AO2 T01060044
13962KABI ABI20160316075011103/16/16 07:50:31  5-MIN KABI 161350Z 00000KT 10SM CLR 11/05 A3006 1670 68 1600 000/00 RMK AO2 SLP167 T01060050
13962KABI ABI20160316075510403/16/16 07:55:31  5-MIN KABI 161355Z 00000KT 10SM CLR 11/05 A3006 1660 68 1600 000/00 RMK AO2 T01060050
13962KABI ABI20160316080010403/16/16 08:00:31  5-MIN KABI 161400Z 10003KT 10SM CLR 11/05 A3006 1660 66 1600 090/03 RMK AO2 T01110050
13962KABI ABI20160316080510403/16/16 08:05:31  5-MIN KABI 161405Z 09003KT 10SM CLR 11/06 A3006 1660 68 1600 090/03 RMK AO2 T01110056
13962KABI ABI20160316081010403/16/16 08:10:31  5-MIN KABI 161410Z 09003KT 10SM CLR 11/05 A3006 1660 66 1600 080/03 RMK AO2 T01110050
13962KABI ABI20160316081510403/16/16 08:15:31  5-MIN KABI 161415Z 08003KT 10SM CLR 12/06 A3007 1660 66 1700 080/03 RMK AO2 T01170056
13962KABI ABI20160316082010403/16/16 08:20:31  5-MIN KABI 161420Z 00000KT 10SM CLR 12/05 A3007 1650 61 1800 000/00 RMK AO2 T01220050
13962KABI ABI20160316082510403/16/16 08:25:31  5-MIN KABI 161425Z 12003KT 10SM CLR 12/05 A3007 1650 61 1800 120/03 RMK AO2 T01220050
13962KABI ABI20160316083010403/16/16 08:30:31  5-MIN KABI 161430Z 13003KT 10SM CLR 13/06 A3007 1650 61 1800 130/03 RMK AO2 T01280056
13962KABI ABI20160316083510403/16/16 08:35:31  5-MIN KABI 161435Z 00000KT 10SM CLR 13/06 A3007 1650 61 1800 000/00 RMK AO2 T01280056
13962KABI ABI20160316084010403/16/16 08:40:31  5-MIN KABI 161440Z 00000KT 10SM CLR 13/06 A3007 1650 59 1900 000/00 RMK AO2 T01330056
13962KABI ABI20160316084510403/16/16 08:45:31  5-MIN KABI 161445Z 00000KT 10SM CLR 14/06 A3008 1650 57 1900 000/00 RMK AO2 T01390056
13962KABI ABI20160316085011703/16/16 08:50:31  5-MIN KABI 161450Z 00000KT 10SM CLR 14/06 A3008 1650 55 2000 000/00 RMK AO2 SLP173 T01440056 53015
13962KABI ABI20160316085510403/16/16 08:55:31  5-MIN KABI 161455Z 00000KT 10SM CLR 14/06 A3008 1650 57 2000 000/00 RMK AO2 T01440061
13962KABI ABI20160316090010403/16/16 09:00:31  5-MIN KABI 161500Z VRB04KT 10SM CLR 15/06 A3008 1650 55 2100 VRB/04 RMK AO2 T01500061
13962KABI ABI20160316090510403/16/16 09:05:31  5-MIN KABI 161505Z 18004KT 10SM CLR 15/06 A3008 1650 53 2100 180/04 RMK AO2 T01500056
13962KABI ABI20160316091010403/16/16 09:10:31  5-MIN KABI 161510Z 18004KT 10SM CLR 15/06 A3008 1650 53 2100 170/04 RMK AO2 T01500056
13962KABI ABI20160316091510403/16/16 09:15:31  5-MIN KABI 161515Z 17006KT 10SM CLR 15/06 A3008 1650 53 2100 170/06 RMK AO2 T01500056
13962KABI ABI20160316092010403/16/16 09:20:31  5-MIN KABI 161520Z 16006KT 10SM CLR 16/06 A3007 1650 51 2100 150/06 RMK AO2 T01560056
13962KABI ABI20160316092510403/16/16 09:25:31  5-MIN KABI 161525Z 17007KT 10SM CLR 16/07 A3007 1650 53 2200 170/07 RMK AO2 T01610067
13962KABI ABI20160316093010403/16/16 09:30:31  5-MIN KABI 161530Z 17009KT 10SM CLR 17/06 A3007 1650 49 2300 170/09 RMK AO2 T01670061
13962KABI ABI20160316093510403/16/16 09:35:31  5-MIN KABI 161535Z 16009KT 10SM CLR 17/06 A3007 1650 47 2300 160/09 RMK AO2 T01720061
13962KABI ABI20160316094011003/16/16 09:40:31  5-MIN KABI 161540Z 16011G16KT 10SM CLR 18/06 A3007 1650 46 2400 160/11G16 RMK AO2 T01780061
13962KABI ABI20160316094511003/16/16 09:45:31  5-MIN KABI 161545Z 16010G16KT 10SM CLR 18/06 A3007 1650 46 2400 150/10G16 RMK AO2 T01780061
13962KABI ABI20160316095011103/16/16 09:50:31  5-MIN KABI 161550Z 17013KT 10SM CLR 18/06 A3007 1650 44 2500 160/13 RMK AO2 SLP169 T01830061
13962KABI ABI20160316095510403/16/16 09:55:31  5-MIN KABI 161555Z 16015KT 10SM CLR 18/06 A3007 1650 44 2400 150/15 RMK AO2 T01780056
13962KABI ABI20160316100010403/16/16 10:00:31  5-MIN KABI 161600Z 15013KT 10SM CLR 18/06 A3007 1650 42 2500 150/13 RMK AO2 T01830056
13962KABI ABI20160316100510403/16/16 10:05:31  5-MIN KABI 161605Z 16012KT 10SM CLR 18/06 A3007 1660 42 2500 150/12 RMK AO2 T01830056
13962KABI ABI20160316101010403/16/16 10:10:31  5-MIN KABI 161610Z 15013KT 10SM CLR 18/05 A3007 1660 41 2500 150/13 RMK AO2 T01830050
13962KABI ABI20160316101510403/16/16 10:15:31  5-MIN KABI 161615Z 15012KT 10SM CLR 19/05 A3007 1660 39 2500 150/12 RMK AO2 T01890050
13962KABI ABI20160316102010403/16/16 10:20:31  5-MIN KABI 161620Z 15013KT 10SM CLR 19/06 A3006 1660 40 2600 150/13 RMK AO2 T01940056
13962KABI ABI20160316102510403/16/16 10:25:31  5-MIN KABI 161625Z 15016KT 10SM CLR 19/06 A3006 1660 40 2600 140/16 RMK AO2 T01940056
13962KABI ABI20160316103010403/16/16 10:30:31  5-MIN KABI 161630Z 15012KT 10SM CLR 19/05 A3006 1660 39 2500 150/12 RMK AO2 T01890050
13962KABI ABI20160316103510403/16/16 10:35:31  5-MIN KABI 161635Z 15014KT 10SM CLR 19/06 A3006 1660 40 2600 140/14 RMK AO2 T01940056
13962KABI ABI20160316104010403/16/16 10:40:31  5-MIN KABI 161640Z 16011KT 10SM CLR 19/05 A3006 1660 38 2600 160/11 RMK AO2 T01940050
13962KABI ABI20160316104510403/16/16 10:45:31  5-MIN KABI 161645Z 15012KT 10SM CLR 20/05 A3006 1660 37 2700 150/12 RMK AO2 T02000050
13962KABI ABI20160316105011103/16/16 10:50:31  5-MIN KABI 161650Z 16013KT 10SM CLR 20/04 A3006 1670 35 2700 160/13 RMK AO2 SLP162 T02000044
13962KABI ABI20160316105511003/16/16 10:55:31  5-MIN KABI 161655Z 16015G21KT 10SM CLR 20/04 A3005 1670 34 2700 160/15G21 RMK AO2 T02000039
13962KABI ABI20160316110011003/16/16 11:00:31  5-MIN KABI 161700Z 15014G21KT 10SM CLR 21/04 A3005 1670 33 2700 150/14G21 RMK AO2 T02060039
13962KABI ABI20160316110510403/16/16 11:05:31  5-MIN KABI 161705Z 17015KT 10SM CLR 21/03 A3005 1670 32 2700 170/15 RMK AO2 T02060033
13962KABI ABI20160316111010403/16/16 11:10:31  5-MIN KABI 161710Z 17013KT 10SM CLR 21/03 A3005 1670 32 2700 160/13 RMK AO2 T02060033
13962KABI ABI20160316111510403/16/16 11:15:31  5-MIN KABI 161715Z 16015KT 10SM CLR 21/03 A3005 1680 30 2800 150/15 RMK AO2 T02110033
13962KABI ABI20160316112010403/16/16 11:20:31  5-MIN KABI 161720Z 15014KT 10SM CLR 21/03 A3004 1680 29 2800 150/14 RMK AO2 T02110028
13962KABI ABI20160316112510403/16/16 11:25:31  5-MIN KABI 161725Z 16012KT 10SM CLR 21/03 A3004 1680 30 2800 150/12 RMK AO2 T02110033
13962KABI ABI20160316113011003/16/16 11:30:31  5-MIN KABI 161730Z 17011G19KT 10SM CLR 22/03 A3004 1680 29 2900 160/11G19 RMK AO2 T02170033
13962KABI ABI20160316113511003/16/16 11:35:31  5-MIN KABI 161735Z 17017G22KT 10SM CLR 22/02 A3004 1680 27 2900 170/17G22 RMK AO2 T02170022
13962KABI ABI20160316114011003/16/16 11:40:31  5-MIN KABI 161740Z 17015G22KT 10SM CLR 22/02 A3004 1690 26 2900 160/15G22 RMK AO2 T02170017
13962KABI ABI20160316114511003/16/16 11:45:31  5-MIN KABI 161745Z 16017G22KT 10SM CLR 22/02 A3003 1690 27 2900 150/17G22 RMK AO2 T02170022
13962KABI ABI20160316115013503/16/16 11:50:31  5-MIN KABI 161750Z 17015G22KT 10SM CLR 22/02 A3003 1690 27 2900 160/15G22 RMK AO2 SLP154 T02170022 10217 20067 53017
13962KABI ABI20160316115511003/16/16 11:55:31  5-MIN KABI 161755Z 16015G21KT 10SM CLR 22/02 A3003 1690 27 2900 160/15G21 RMK AO2 T02170022
13962KABI ABI20160316120011003/16/16 12:00:31  5-MIN KABI 161800Z 16014G21KT 10SM CLR 22/03 A3002 1700 27 3000 160/14G21 RMK AO2 T02220028
13962KABI ABI20160316120511003/16/16 12:05:31  5-MIN KABI 161805Z 15015G22KT 10SM CLR 22/02 A3002 1700 26 2900 150/15G22 RMK AO2 T02170017
13962KABI ABI20160316121010403/16/16 12:10:31  5-MIN KABI 161810Z 17014KT 10SM CLR 22/02 A3002 1700 26 3000 170/14 RMK AO2 T02220022
13962KABI ABI20160316121510403/16/16 12:15:31  5-MIN KABI 161815Z 17015KT 10SM CLR 22/03 A3001 1710 27 3000 160/15 RMK AO2 T02220028
13962KABI ABI20160316122010403/16/16 12:20:31  5-MIN KABI 161820Z 16014KT 10SM CLR 22/03 A3001 1710 28 3000 160/14 RMK AO2 T02220033
13962KABI ABI20160316122510403/16/16 12:25:31  5-MIN KABI 161825Z 16014KT 10SM CLR 23/03 A3001 1710 26 3000 160/14 RMK AO2 T02280028
13962KABI ABI20160316123010403/16/16 12:30:31  5-MIN KABI 161830Z 16015KT 10SM CLR 23/03 A3001 1710 26 3000 150/15 RMK AO2 T02280028
13962KABI ABI20160316123511003/16/16 12:35:31  5-MIN KABI 161835Z 15011G20KT 10SM CLR 23/03 A3001 1710 27 3000 140/11G20 RMK AO2 T02280033
13962KABI ABI20160316124011003/16/16 12:40:31  5-MIN KABI 161840Z 16011G20KT 10SM CLR 23/03 A3000 1710 27 3000 150/11G20 RMK AO2 T02280033
13962KABI ABI20160316124511003/16/16 12:45:31  5-MIN KABI 161845Z 16016G20KT 10SM CLR 23/03 A3000 1720 26 3000 160/16G20 RMK AO2 T02280028
13962KABI ABI20160316125011703/16/16 12:50:31  5-MIN KABI 161850Z 15012G20KT 10SM CLR 23/04 A3000 1720 28 3100 140/12G20 RMK AO2 SLP144 T02330039
13962KABI ABI20160316125510403/16/16 12:55:31  5-MIN KABI 161855Z 17011KT 10SM CLR 23/04 A3000 1720 28 3100 170/11 RMK AO2 T02330039
13962KABI ABI20160316130010403/16/16 13:00:31  5-MIN KABI 161900Z 16011KT 10SM CLR 23/03 A3000 1720 27 3100 150/11 RMK AO2 T02280033
13962KABI ABI20160316130510403/16/16 13:05:31  5-MIN KABI 161905Z 16011KT 10SM CLR 23/04 A2999 1730 28 3100 150/11 RMK AO2 T02330039
13962KABI ABI20160316131010403/16/16 13:10:31  5-MIN KABI 161910Z 16011KT 10SM CLR 24/03 A2999 1730 26 3200 150/11 RMK AO2 T02390033
13962KABI ABI20160316131511003/16/16 13:15:31  5-MIN KABI 161915Z 17014G19KT 10SM CLR 24/04 A2999 1730 27 3200 160/14G19 RMK AO2 T02390039
13962KABI ABI20160316132011003/16/16 13:20:31  5-MIN KABI 161920Z 16011G19KT 10SM CLR 23/03 A2998 1730 26 3100 150/11G19 RMK AO2 T02330033
13962KABI ABI20160316132511003/16/16 13:25:31  5-MIN KABI 161925Z 16014G20KT 10SM CLR 24/03 A2998 1740 25 3200 160/14G20 RMK AO2 T02390028
13962KABI ABI20160316133010403/16/16 13:30:31  5-MIN KABI 161930Z 17013KT 10SM CLR 24/03 A2997 1740 25 3200 160/13 RMK AO2 T02390028
13962KABI ABI20160316133510403/16/16 13:35:31  5-MIN KABI 161935Z 16013KT 10SM CLR 24/03 A2997 1740 25 3200 160/13 RMK AO2 T02390028
13962KABI ABI20160316134010403/16/16 13:40:31  5-MIN KABI 161940Z 16013KT 10SM CLR 24/03 A2997 1750 26 3200 160/13 RMK AO2 T02390033
13962KABI ABI20160316134510403/16/16 13:45:31  5-MIN KABI 161945Z 17009KT 10SM CLR 24/03 A2997 1750 26 3200 160/09 RMK AO2 T02390033
13962KABI ABI20160316135011703/16/16 13:50:31  5-MIN KABI 161950Z 16011G17KT 10SM CLR 24/03 A2996 1750 26 3200 160/11G17 RMK AO2 SLP132 T02390033
13962KABI ABI20160316135511003/16/16 13:55:31  5-MIN KABI 161955Z 15008G17KT 10SM CLR 24/04 A2996 1750 27 3200 150/08G17 RMK AO2 T02390039
13962KABI ABI20160316140010403/16/16 14:00:31  5-MIN KABI 162000Z 18009KT 10SM CLR 24/04 A2996 1760 27 3300 170/09 RMK AO2 T02440044
13962KABI ABI20160316140510403/16/16 14:05:31  5-MIN KABI 162005Z 15012KT 10SM CLR 24/04 A2996 1760 28 3200 140/12 RMK AO2 T02390044
13962KABI ABI20160316141010403/16/16 14:10:31  5-MIN KABI 162010Z 18010KT 10SM CLR 24/05 A2995 1760 29 3200 170/10 RMK AO2 T02390050
13962KABI ABI20160316141510403/16/16 14:15:31  5-MIN KABI 162015Z 17008KT 10SM CLR 24/04 A2995 1760 28 3200 160/08 RMK AO2 T02390044
13962KABI ABI20160316142010403/16/16 14:20:31  5-MIN KABI 162020Z 14009KT 10SM CLR 24/05 A2995 1770 29 3200 140/09 RMK AO2 T02390050
13962KABI ABI20160316142510403/16/16 14:25:31  5-MIN KABI 162025Z 18010KT 10SM CLR 24/06 A2995 1770 30 3300 180/10 RMK AO2 T02440061
13962KABI ABI20160316143010403/16/16 14:30:31  5-MIN KABI 162030Z 19009KT 10SM CLR 24/06 A2994 1770 30 3200 180/09 RMK AO2 T02390056
13962KABI ABI20160316143511003/16/16 14:35:31  5-MIN KABI 162035Z 19009G16KT 10SM CLR 24/06 A2994 1780 30 3300 190/09G16 RMK AO2 T02440061
13962KABI ABI20160316144011003/16/16 14:40:31  5-MIN KABI 162040Z 17012G16KT 10SM CLR 24/07 A2994 1780 31 3300 160/12G16 RMK AO2 T02440067
13962KABI ABI20160316144510403/16/16 14:45:31  5-MIN KABI 162045Z 16008KT 10SM CLR 24/06 A2993 1780 30 3300 150/08 RMK AO2 T02440061
13962KABI ABI20160316145012303/16/16 14:50:31  5-MIN KABI 162050Z 16011G15KT 10SM CLR 24/07 A2993 1780 31 3300 160/11G15 RMK AO2 SLP120 T02440067 58015
13962KABI ABI20160316145510403/16/16 14:55:31  5-MIN KABI 162055Z 15007KT 10SM CLR 24/06 A2993 1780 30 3300 150/07 RMK AO2 T02440061
13962KABI ABI20160316150010403/16/16 15:00:31  5-MIN KABI 162100Z 16005KT 10SM CLR 24/06 A2993 1790 30 3300 160/05 RMK AO2 T02440061
13962KABI ABI20160316150510403/16/16 15:05:31  5-MIN KABI 162105Z 16008KT 10SM CLR 24/07 A2993 1790 31 3300 150/08 RMK AO2 T02440067
13962KABI ABI20160316151010403/16/16 15:10:31  5-MIN KABI 162110Z 17008KT 10SM CLR 24/06 A2992 1790 30 3300 170/08 RMK AO2 T02440061
13962KABI ABI20160316151510403/16/16 15:15:31  5-MIN KABI 162115Z 18009KT 10SM CLR 25/07 A2992 1790 31 3400 180/09 RMK AO2 T02500072
13962KABI ABI20160316152010403/16/16 15:20:31  5-MIN KABI 162120Z 16007KT 10SM CLR 25/07 A2992 1790 31 3400 160/07 RMK AO2 T02500072
13962KABI ABI20160316152510403/16/16 15:25:31  5-MIN KABI 162125Z 18009KT 10SM CLR 25/07 A2992 1800 30 3400 170/09 RMK AO2 T02500067
13962KABI ABI20160316153010403/16/16 15:30:31  5-MIN KABI 162130Z 19007KT 10SM CLR 25/06 A2992 1800 29 3400 180/07 RMK AO2 T02500061
13962KABI ABI20160316153510403/16/16 15:35:31  5-MIN KABI 162135Z 18009KT 10SM CLR 25/07 A2992 1800 30 3400 180/09 RMK AO2 T02500067
13962KABI ABI20160316154010403/16/16 15:40:31  5-MIN KABI 162140Z 16009KT 10SM CLR 25/07 A2991 1800 30 3400 160/09 RMK AO2 T02500067
13962KABI ABI20160316154510403/16/16 15:45:31  5-MIN KABI 162145Z 21009KT 10SM CLR 25/07 A2991 1800 31 3400 210/09 RMK AO2 T02500072
13962KABI ABI20160316155011103/16/16 15:50:31  5-MIN KABI 162150Z 21007KT 10SM CLR 25/07 A2991 1800 30 3400 210/07 RMK AO2 SLP113 T02500067
13962KABI ABI20160316155510403/16/16 15:55:31  5-MIN KABI 162155Z 20010KT 10SM CLR 25/07 A2991 1800 30 3400 200/10 RMK AO2 T02500067
13962KABI ABI20160316160010403/16/16 16:00:31  5-MIN KABI 162200Z 20010KT 10SM CLR 25/07 A2991 1800 30 3400 200/10 RMK AO2 T02500067
13962KABI ABI20160316160510403/16/16 16:05:31  5-MIN KABI 162205Z 18007KT 10SM CLR 25/07 A2991 1810 31 3400 180/07 RMK AO2 T02500072
13962KABI ABI20160316161010403/16/16 16:10:31  5-MIN KABI 162210Z 18009KT 10SM CLR 25/07 A2990 1810 31 3400 170/09 RMK AO2 T02500072
13962KABI ABI20160316161510403/16/16 16:15:31  5-MIN KABI 162215Z 18005KT 10SM CLR 25/07 A2990 1810 31 3400 170/05 RMK AO2 T02500072
13962KABI ABI20160316162010403/16/16 16:20:31  5-MIN KABI 162220Z 19007KT 10SM CLR 25/07 A2990 1810 31 3400 180/07 RMK AO2 T02500072
13962KABI ABI20160316162510403/16/16 16:25:31  5-MIN KABI 162225Z 18011KT 10SM CLR 25/07 A2990 1810 31 3400 180/11 RMK AO2 T02500072
13962KABI ABI20160316163010403/16/16 16:30:31  5-MIN KABI 162230Z 17010KT 10SM CLR 25/07 A2990 1810 31 3400 170/10 RMK AO2 T02500072
13962KABI ABI20160316163510403/16/16 16:35:31  5-MIN KABI 162235Z 20009KT 10SM CLR 25/07 A2990 1810 31 3400 200/09 RMK AO2 T02500072
13962KABI ABI20160316164010403/16/16 16:40:31  5-MIN KABI 162240Z 17007KT 10SM CLR 25/07 A2990 1810 31 3400 170/07 RMK AO2 T02500072
13962KABI ABI20160316164510403/16/16 16:45:31  5-MIN KABI 162245Z 18007KT 10SM CLR 25/07 A2990 1810 31 3400 180/07 RMK AO2 T02500072
13962KABI ABI20160316165011103/16/16 16:50:31  5-MIN KABI 162250Z 18006KT 10SM CLR 25/07 A2990 1810 31 3400 170/06 RMK AO2 SLP110 T02500072
13962KABI ABI20160316165510403/16/16 16:55:31  5-MIN KABI 162255Z 17005KT 10SM CLR 25/07 A2989 1820 31 3400 170/05 RMK AO2 T02500072
13962KABI ABI20160316170010403/16/16 17:00:31  5-MIN KABI 162300Z 18007KT 10SM CLR 25/08 A2989 1820 33 3400 170/07 RMK AO2 T02500078
13962KABI ABI20160316170510403/16/16 17:05:31  5-MIN KABI 162305Z 21006KT 10SM CLR 25/07 A2989 1820 31 3400 210/06 RMK AO2 T02500072
13962KABI ABI20160316171010403/16/16 17:10:31  5-MIN KABI 162310Z 18008KT 10SM CLR 25/07 A2989 1820 31 3400 170/08 RMK AO2 T02500072
13962KABI ABI20160316171510403/16/16 17:15:31  5-MIN KABI 162315Z 19009KT 10SM CLR 25/08 A2989 1820 33 3400 190/09 RMK AO2 T02500078
13962KABI ABI20160316172010403/16/16 17:20:31  5-MIN KABI 162320Z 21007KT 10SM CLR 25/08 A2989 1820 33 3400 200/07 RMK AO2 T02500078
13962KABI ABI20160316172510403/16/16 17:25:31  5-MIN KABI 162325Z 18006KT 10SM CLR 25/08 A2989 1820 33 3400 170/06 RMK AO2 T02500078
13962KABI ABI20160316173010403/16/16 17:30:31  5-MIN KABI 162330Z 15005KT 10SM CLR 25/08 A2989 1820 34 3400 150/05 RMK AO2 T02500083
13962KABI ABI20160316173510403/16/16 17:35:31  5-MIN KABI 162335Z 16007KT 10SM CLR 25/08 A2989 1820 34 3400 150/07 RMK AO2 T02500083
13962KABI ABI20160316174010403/16/16 17:40:31  5-MIN KABI 162340Z 20005KT 10SM CLR 24/08 A2989 1820 35 3400 190/05 RMK AO2 T02440083
13962KABI ABI20160316174510403/16/16 17:45:31  5-MIN KABI 162345Z 17005KT 10SM CLR 24/08 A2989 1820 35 3400 170/05 RMK AO2 T02440083
13962KABI ABI20160316175012903/16/16 17:50:31  5-MIN KABI 162350Z 17005KT 10SM CLR 24/08 A2989 1820 35 3400 160/05 RMK AO2 SLP105 T02440083 10250 20217 58032
13962KABI ABI20160316175510403/16/16 17:55:31  5-MIN KABI 162355Z 14004KT 10SM CLR 24/09 A2989 1820 36 3400 130/04 RMK AO2 T02440089
13962KABI ABI20160316180010403/16/16 18:00:31  5-MIN KABI 170000Z 16003KT 10SM CLR 24/08 A2989 1820 35 3400 150/03 RMK AO2 T02440083
13962KABI ABI20160316180510403/16/16 18:05:31  5-MIN KABI 170005Z 17004KT 10SM CLR 24/09 A2989 1820 38 3300 170/04 RMK AO2 T02390089
13962KABI ABI20160316181010403/16/16 18:10:31  5-MIN KABI 170010Z 17004KT 10SM CLR 24/09 A2989 1820 38 3300 160/04 RMK AO2 T02390089
13962KABI ABI20160316181510403/16/16 18:15:31  5-MIN KABI 170015Z 15007KT 10SM CLR 23/09 A2989 1820 41 3200 140/07 RMK AO2 T02330094
13962KABI ABI20160316182010403/16/16 18:20:31  5-MIN KABI 170020Z 14005KT 10SM CLR 23/09 A2989 1820 42 3200 130/05 RMK AO2 T02280094
13962KABI ABI20160316182510403/16/16 18:25:31  5-MIN KABI 170025Z 13006KT 10SM CLR 23/09 A2989 1820 40 3200 130/06 RMK AO2 T02280089
13962KABI ABI20160316183010403/16/16 18:30:31  5-MIN KABI 170030Z 13007KT 10SM CLR 23/09 A2989 1820 42 3200 130/07 RMK AO2 T02280094
13962KABI ABI20160316183510403/16/16 18:35:31  5-MIN KABI 170035Z 13007KT 10SM CLR 22/09 A2989 1820 43 3100 120/07 RMK AO2 T02220094
13962KABI ABI20160316184010403/16/16 18:40:31  5-MIN KABI 170040Z 13007KT 10SM CLR 22/09 A2989 1820 45 3000 120/07 RMK AO2 T02170094
13962KABI ABI20160316184510403/16/16 18:45:31  5-MIN KABI 170045Z 12007KT 10SM CLR 21/09 A2989 1820 47 3000 110/07 RMK AO2 T02110094
13962KABI ABI20160316185011103/16/16 18:50:31  5-MIN KABI 170050Z 12009KT 10SM CLR 21/09 A2989 1820 45 3000 120/09 RMK AO2 SLP109 T02110089
13962KABI ABI20160316185510403/16/16 18:55:31  5-MIN KABI 170055Z 12008KT 10SM CLR 21/09 A2989 1820 45 3000 120/08 RMK AO2 T02110089
13962KABI ABI20160316190010403/16/16 19:00:31  5-MIN KABI 170100Z 12007KT 10SM CLR 21/09 A2989 1820 45 3000 110/07 RMK AO2 T02110089
13962KABI ABI20160316190510403/16/16 19:05:31  5-MIN KABI 170105Z 12006KT 10SM CLR 21/09 A2989 1820 46 2900 110/06 RMK AO2 T02060089
13962KABI ABI20160316191010403/16/16 19:10:31  5-MIN KABI 170110Z 12007KT 10SM CLR 20/09 A2989 1820 48 2900 110/07 RMK AO2 T02000089
13962KABI ABI20160316191510403/16/16 19:15:31  5-MIN KABI 170115Z 12009KT 10SM CLR 20/09 A2989 1820 48 2900 120/09 RMK AO2 T02000089
13962KABI ABI20160316192010703/16/16 19:20:31  5-MIN KABI 170120Z 12009KT 10SM FEW070 20/08 A2990 1820 46 2900 120/09 RMK AO2 T02000083
13962KABI ABI20160316192510703/16/16 19:25:31  5-MIN KABI 170125Z 12010KT 10SM SCT070 21/08 A2990 1810 45 2900 120/10 RMK AO2 T02060083
13962KABI ABI20160316193010703/16/16 19:30:31  5-MIN KABI 170130Z 12009KT 10SM SCT070 21/08 A2990 1810 45 2900 120/09 RMK AO2 T02060083
13962KABI ABI20160316193510703/16/16 19:35:31  5-MIN KABI 170135Z 12010KT 10SM SCT070 21/08 A2990 1810 45 2900 120/10 RMK AO2 T02060083
13962KABI ABI20160316194010703/16/16 19:40:31  5-MIN KABI 170140Z 12010KT 10SM BKN070 21/08 A2990 1810 43 2900 120/10 RMK AO2 T02060078
13962KABI ABI20160316194510703/16/16 19:45:31  5-MIN KABI 170145Z 12009KT 10SM BKN070 21/08 A2990 1810 43 2900 110/09 RMK AO2 T02060078
13962KABI ABI20160316195011403/16/16 19:50:31  5-MIN KABI 170150Z 12009KT 10SM SCT070 20/08 A2990 1810 46 2800 110/09 RMK AO2 SLP112 T02000083
13962KABI ABI20160316195510703/16/16 19:55:31  5-MIN KABI 170155Z 12009KT 10SM SCT070 20/08 A2990 1810 46 2800 110/09 RMK AO2 T02000083
13962KABI ABI20160316200010703/16/16 20:00:31  5-MIN KABI 170200Z 12009KT 10SM SCT070 20/08 A2990 1810 46 2800 120/09 RMK AO2 T02000083
13962KABI ABI20160316200510703/16/16 20:05:31  5-MIN KABI 170205Z 12008KT 10SM FEW070 19/08 A2990 1810 48 2800 110/08 RMK AO2 T01940083
13962KABI ABI20160316201010703/16/16 20:10:31  5-MIN KABI 170210Z 12008KT 10SM FEW070 19/08 A2990 1810 48 2800 110/08 RMK AO2 T01940083
13962KABI ABI20160316201510703/16/16 20:15:31  5-MIN KABI 170215Z 11008KT 10SM FEW070 19/09 A2991 1810 52 2700 110/08 RMK AO2 T01890089
13962KABI ABI20160316202010703/16/16 20:20:31  5-MIN KABI 170220Z 11009KT 10SM FEW070 19/09 A2991 1810 52 2700 110/09 RMK AO2 T01890089
13962KABI ABI20160316202510403/16/16 20:25:31  5-MIN KABI 170225Z 12008KT 10SM CLR 18/09 A2991 1800 54 2600 110/08 RMK AO2 T01830089
13962KABI ABI20160316203010403/16/16 20:30:31  5-MIN KABI 170230Z 12009KT 10SM CLR 18/08 A2991 1800 52 2600 110/09 RMK AO2 T01830083
13962KABI ABI20160316203510403/16/16 20:35:31  5-MIN KABI 170235Z 11009KT 10SM CLR 18/08 A2991 1800 52 2600 110/09 RMK AO2 T01830083
13962KABI ABI20160316204010403/16/16 20:40:31  5-MIN KABI 170240Z 11008KT 10SM CLR 18/09 A2991 1800 54 2600 110/08 RMK AO2 T01830089
13962KABI ABI20160316204510403/16/16 20:45:31  5-MIN KABI 170245Z 11008KT 10SM CLR 18/08 A2991 1800 53 2600 110/08 RMK AO2 T01780083
13962KABI ABI20160316205011703/16/16 20:50:31  5-MIN KABI 170250Z 12009KT 10SM CLR 18/08 A2991 1800 53 2600 110/09 RMK AO2 SLP115 T01780083 56013
13962KABI ABI20160316205510403/16/16 20:55:31  5-MIN KABI 170255Z 11009KT 10SM CLR 18/08 A2991 1800 52 2600 110/09 RMK AO2 T01830083
13962KABI ABI20160316210010403/16/16 21:00:31  5-MIN KABI 170300Z 12009KT 10SM CLR 18/08 A2992 1800 53 2600 110/09 RMK AO2 T01780083
13962KABI ABI20160316210510403/16/16 21:05:31  5-MIN KABI 170305Z 12009KT 10SM CLR 18/08 A2992 1800 53 2600 110/09 RMK AO2 T01780083
13962KABI ABI20160316211010403/16/16 21:10:31  5-MIN KABI 170310Z 12009KT 10SM CLR 18/08 A2992 1790 53 2600 110/09 RMK AO2 T01780083
13962KABI ABI20160316211510403/16/16 21:15:31  5-MIN KABI 170315Z 12008KT 10SM CLR 18/08 A2992 1790 53 2600 110/08 RMK AO2 T01780083
13962KABI ABI20160316212010403/16/16 21:20:31  5-MIN KABI 170320Z 12010KT 10SM CLR 17/08 A2992 1790 55 2500 110/10 RMK AO2 T01720083
13962KABI ABI20160316212510403/16/16 21:25:31  5-MIN KABI 170325Z 12010KT 10SM CLR 17/08 A2992 1790 55 2500 110/10 RMK AO2 T01720083
13962KABI ABI20160316213010403/16/16 21:30:31  5-MIN KABI 170330Z 12011KT 10SM CLR 18/08 A2992 1790 51 2600 110/11 RMK AO2 T01780078
13962KABI ABI20160316213510403/16/16 21:35:31  5-MIN KABI 170335Z 12010KT 10SM CLR 18/08 A2992 1790 51 2600 110/10 RMK AO2 T01780078
13962KABI ABI20160316214010403/16/16 21:40:31  5-MIN KABI 170340Z 11010KT 10SM CLR 17/08 A2992 1790 53 2500 110/10 RMK AO2 T01720078
13962KABI ABI20160316214510403/16/16 21:45:31  5-MIN KABI 170345Z 12011KT 10SM CLR 18/08 A2992 1790 51 2600 110/11 RMK AO2 T01780078
13962KABI ABI20160316215011103/16/16 21:50:31  5-MIN KABI 170350Z 12010KT 10SM CLR 18/08 A2992 1790 51 2600 110/10 RMK AO2 SLP115 T01780078
13962KABI ABI20160316215510403/16/16 21:55:31  5-MIN KABI 170355Z 12010KT 10SM CLR 18/08 A2992 1790 53 2600 110/10 RMK AO2 T01780083
13962KABI ABI20160316220010403/16/16 22:00:31  5-MIN KABI 170400Z 12009KT 10SM CLR 18/08 A2992 1790 53 2600 110/09 RMK AO2 T01780083
13962KABI ABI20160316220510403/16/16 22:05:31  5-MIN KABI 170405Z 11009KT 10SM CLR 18/08 A2992 1790 53 2600 110/09 RMK AO2 T01780083
13962KABI ABI20160316221010403/16/16 22:10:31  5-MIN KABI 170410Z 11009KT 10SM CLR 17/08 A2992 1790 55 2500 110/09 RMK AO2 T01720083
13962KABI ABI20160316221510403/16/16 22:15:31  5-MIN KABI 170415Z 11010KT 10SM CLR 17/08 A2992 1790 55 2500 110/10 RMK AO2 T01720083
13962KABI ABI20160316222010403/16/16 22:20:31  5-MIN KABI 170420Z 12011KT 10SM CLR 17/08 A2992 1790 55 2500 110/11 RMK AO2 T01720083
13962KABI ABI20160316222510403/16/16 22:25:31  5-MIN KABI 170425Z 10010KT 10SM CLR 18/08 A2992 1790 53 2600 100/10 RMK AO2 T01780083
13962KABI ABI20160316223010403/16/16 22:30:31  5-MIN KABI 170430Z 11010KT 10SM CLR 18/08 A2992 1800 53 2600 100/10 RMK AO2 T01780083
13962KABI ABI20160316223510403/16/16 22:35:31  5-MIN KABI 170435Z 13012KT 10SM CLR 18/09 A2991 1800 55 2600 120/12 RMK AO2 T01780089
13962KABI ABI20160316224010403/16/16 22:40:31  5-MIN KABI 170440Z 13013KT 10SM CLR 18/09 A2991 1800 55 2600 120/13 RMK AO2 T01780089
13962KABI ABI20160316224510403/16/16 22:45:31  5-MIN KABI 170445Z 12012KT 10SM CLR 18/09 A2991 1800 54 2600 110/12 RMK AO2 T01830089
13962KABI ABI20160316225011103/16/16 22:50:31  5-MIN KABI 170450Z 14012KT 10SM CLR 18/09 A2991 1800 58 2600 130/12 RMK AO2 SLP110 T01780094
13962KABI ABI20160316225510403/16/16 22:55:31  5-MIN KABI 170455Z 14012KT 10SM CLR 18/09 A2991 1800 58 2600 130/12 RMK AO2 T01780094
13962KABI ABI20160316230010403/16/16 23:00:31  5-MIN KABI 170500Z 13012KT 10SM CLR 18/09 A2991 1800 58 2600 120/12 RMK AO2 T01780094
13962KABI ABI20160316230510403/16/16 23:05:31  5-MIN KABI 170505Z 12012KT 10SM CLR 18/09 A2991 1800 58 2600 120/12 RMK AO2 T01780094
13962KABI ABI20160316231010403/16/16 23:10:31  5-MIN KABI 170510Z 12014KT 10SM CLR 18/09 A2991 1800 58 2600 120/14 RMK AO2 T01780094
13962KABI ABI20160316231510403/16/16 23:15:31  5-MIN KABI 170515Z 12012KT 10SM CLR 18/09 A2991 1810 58 2600 120/12 RMK AO2 T01780094
13962KABI ABI20160316232010403/16/16 23:20:31  5-MIN KABI 170520Z 12013KT 10SM CLR 18/10 A2991 1810 60 2600 120/13 RMK AO2 T01780100
13962KABI ABI20160316232510403/16/16 23:25:31  5-MIN KABI 170525Z 12011KT 10SM CLR 17/10 A2990 1810 62 2500 120/11 RMK AO2 T01720100
13962KABI ABI20160316233010403/16/16 23:30:31  5-MIN KABI 170530Z 12012KT 10SM CLR 17/10 A2990 1810 62 2500 120/12 RMK AO2 T01720100
13962KABI ABI20160316233510403/16/16 23:35:31  5-MIN KABI 170535Z 12012KT 10SM CLR 17/10 A2990 1810 62 2500 120/12 RMK AO2 T01720100
13962KABI ABI20160316234010403/16/16 23:40:31  5-MIN KABI 170540Z 13014KT 10SM CLR 17/10 A2990 1810 62 2500 120/14 RMK AO2 T01720100
13962KABI ABI20160316234510403/16/16 23:45:31  5-MIN KABI 170545Z 12014KT 10SM CLR 17/10 A2989 1820 62 2500 120/14 RMK AO2 T01720100
13962KABI ABI20160316235013903/16/16 23:50:31  5-MIN KABI 170550Z 12014KT 10SM CLR 18/10 A2989 1820 60 2600 120/14 RMK AO2 SLP102 T01780100 10244 20172 402500067 53007
13962KABI ABI20160316235510403/16/16 23:55:31  5-MIN KABI 170555Z 13014KT 10SM CLR 18/11 A2989 1820 62 2600 120/14 RMK AO2 T01780106
13962KABI ABI20160317000010403/17/16 00:00:31  5-MIN KABI 170600Z 13013KT 10SM CLR 17/11 A2989 1820 64 2500 130/13 RMK AO2 T01720106
13962KABI ABI20160317000510403/17/16 00:05:31  5-MIN KABI 170605Z 13012KT 10SM CLR 17/11 A2989 1820 67 2500 130/12 RMK AO2 T01720111
13962KABI ABI20160317001010403/17/16 00:10:31  5-MIN KABI 170610Z 13011KT 10SM CLR 17/11 A2989 1820 67 2500 130/11 RMK AO2 T01720111
13962KABI ABI20160317001510403/17/16 00:15:31  5-MIN KABI 170615Z 14011KT 10SM CLR 17/11 A2989 1820 69 2500 130/11 RMK AO2 T01670111
13962KABI ABI20160317002010403/17/16 00:20:31  5-MIN KABI 170620Z 14010KT 10SM CLR 17/11 A2989 1820 69 2500 130/10 RMK AO2 T01670111
13962KABI ABI20160317002510403/17/16 00:25:31  5-MIN KABI 170625Z 14009KT 10SM CLR 17/11 A2989 1820 69 2500 140/09 RMK AO2 T01670111
13962KABI ABI20160317003010403/17/16 00:30:31  5-MIN KABI 170630Z 14010KT 10SM CLR 16/12 A2990 1820 75 2400 140/10 RMK AO2 T01610117
13962KABI ABI20160317003510403/17/16 00:35:31  5-MIN KABI 170635Z 14009KT 10SM CLR 16/12 A2990 1810 75 2400 140/09 RMK AO2 T01610117
13962KABI ABI20160317004010403/17/16 00:40:31  5-MIN KABI 170640Z 14008KT 10SM CLR 16/12 A2990 1810 75 2400 130/08 RMK AO2 T01610117
13962KABI ABI20160317004510403/17/16 00:45:31  5-MIN KABI 170645Z 13010KT 10SM CLR 17/12 A2990 1810 75 2500 120/10 RMK AO2 T01670122
13962KABI ABI20160317005011103/17/16 00:50:31  5-MIN KABI 170650Z 14008KT 10SM CLR 16/12 A2990 1820 77 2400 140/08 RMK AO2 SLP104 T01610122
13962KABI ABI20160317005510403/17/16 00:55:31  5-MIN KABI 170655Z 17007KT 10SM CLR 16/12 A2990 1810 77 2400 170/07 RMK AO2 T01610122
13962KABI ABI20160317010010303/17/16 01:00:31  5-MIN KABI 170700Z 14012KT 9SM CLR 17/13 A2989 1820 77 2500 130/12 RMK AO2 T01670128
13962KABI ABI20160317010510303/17/16 01:05:31  5-MIN KABI 170705Z 16007KT 9SM CLR 16/13 A2990 1810 83 2400 160/07 RMK AO2 T01610133
13962KABI ABI20160317011010303/17/16 01:10:31  5-MIN KABI 170710Z 17006KT 9SM CLR 16/13 A2990 1810 83 2400 170/06 RMK AO2 T01610133
13962KABI ABI20160317011510303/17/16 01:15:31  5-MIN KABI 170715Z 15008KT 8SM CLR 16/13 A2990 1810 83 2400 150/08 RMK AO2 T01610133
13962KABI ABI20160317012010303/17/16 01:20:31  5-MIN KABI 170720Z 15010KT 8SM CLR 17/13 A2990 1810 80 2500 140/10 RMK AO2 T01670133
13962KABI ABI20160317012510303/17/16 01:25:31  5-MIN KABI 170725Z 15009KT 8SM CLR 17/14 A2990 1810 83 2500 150/09 RMK AO2 T01670139
13962KABI ABI20160317013010303/17/16 01:30:31  5-MIN KABI 170730Z 16007KT 8SM CLR 16/14 A2990 1810 86 2400 160/07 RMK AO2 T01610139
13962KABI ABI20160317013510303/17/16 01:35:31  5-MIN KABI 170735Z 16008KT 8SM CLR 16/13 A2990 1810 83 2400 160/08 RMK AO2 T01610133
13962KABI ABI20160317014010303/17/16 01:40:31  5-MIN KABI 170740Z 16009KT 8SM CLR 16/14 A2990 1820 86 2400 150/09 RMK AO2 T01610139
13962KABI ABI20160317014510303/17/16 01:45:31  5-MIN KABI 170745Z 16011KT 8SM CLR 16/14 A2989 1820 86 2400 160/11 RMK AO2 T01610139
13962KABI ABI20160317015011003/17/16 01:50:31  5-MIN KABI 170750Z 16009KT 8SM CLR 16/14 A2990 1820 86 2400 160/09 RMK AO2 SLP103 T01610139
13962KABI ABI20160317015510303/17/16 01:55:31  5-MIN KABI 170755Z 16010KT 8SM CLR 16/14 A2990 1820 86 2400 150/10 RMK AO2 T01610139
13962KABI ABI20160317020010303/17/16 02:00:31  5-MIN KABI 170800Z 16011KT 8SM CLR 16/14 A2990 1810 86 2400 150/11 RMK AO2 T01610139
13962KABI ABI20160317020510303/17/16 02:05:31  5-MIN KABI 170805Z 16011KT 8SM CLR 16/14 A2990 1820 86 2400 150/11 RMK AO2 T01610139
13962KABI ABI20160317021010303/17/16 02:10:31  5-MIN KABI 170810Z 16011KT 8SM CLR 16/14 A2989 1820 86 2400 150/11 RMK AO2 T01610139
13962KABI ABI20160317021510303/17/16 02:15:31  5-MIN KABI 170815Z 15009KT 8SM CLR 16/14 A2989 1820 86 2400 150/09 RMK AO2 T01610139
13962KABI ABI20160317022010303/17/16 02:20:31  5-MIN KABI 170820Z 15009KT 8SM CLR 16/14 A2989 1820 90 2300 150/09 RMK AO2 T01560139
13962KABI ABI20160317022510303/17/16 02:25:31  5-MIN KABI 170825Z 16013KT 7SM CLR 16/14 A2989 1820 90 2300 150/13 RMK AO2 T01560139
13962KABI ABI20160317023010303/17/16 02:30:31  5-MIN KABI 170830Z 15010KT 7SM CLR 16/14 A2989 1820 86 2400 150/10 RMK AO2 T01610139
13962KABI ABI20160317023510303/17/16 02:35:31  5-MIN KABI 170835Z 15009KT 7SM CLR 16/14 A2989 1820 90 2300 150/09 RMK AO2 T01560139
13962KABI ABI20160317024010303/17/16 02:40:31  5-MIN KABI 170840Z 15011KT 7SM CLR 16/14 A2989 1820 90 2400 150/11 RMK AO2 T01560139
13962KABI ABI20160317024510303/17/16 02:45:31  5-MIN KABI 170845Z 15009KT 7SM CLR 16/14 A2988 1830 93 2400 150/09 RMK AO2 T01560144
13962KABI ABI20160317025011903/17/16 02:50:31  5-MIN KABI 170850Z 15010KT 6SM BR CLR 16/14 A2988 1830 93 2400 150/10 RMK AO2 SLP099 T01560144 58006
13962KABI ABI20160317025510603/17/16 02:55:31  5-MIN KABI 170855Z 15008KT 6SM BR CLR 16/14 A2988 1830 93 2400 150/08 RMK AO2 T01560144
13962KABI ABI20160317030010603/17/16 03:00:31  5-MIN KABI 170900Z 16010KT 6SM BR CLR 16/14 A2988 1830 93 2400 150/10 RMK AO2 T01560144
13962KABI ABI20160317030510603/17/16 03:05:31  5-MIN KABI 170905Z 15009KT 6SM BR CLR 16/14 A2988 1830 93 2400 150/09 RMK AO2 T01560144
13962KABI ABI20160317031010603/17/16 03:10:31  5-MIN KABI 170910Z 15007KT 6SM BR CLR 16/14 A2988 1830 93 2400 140/07 RMK AO2 T01560144
13962KABI ABI20160317031510603/17/16 03:15:31  5-MIN KABI 170915Z 14006KT 5SM BR CLR 16/14 A2988 1830 93 2400 140/06 RMK AO2 T01560144
13962KABI ABI20160317032010603/17/16 03:20:31  5-MIN KABI 170920Z 14005KT 5SM BR CLR 16/14 A2988 1830 93 2400 130/05 RMK AO2 T01560144
13962KABI ABI20160317032510603/17/16 03:25:31  5-MIN KABI 170925Z 13005KT 5SM BR CLR 16/14 A2988 1830 93 2400 130/05 RMK AO2 T01560144
13962KABI ABI20160317033010603/17/16 03:30:31  5-MIN KABI 170930Z 12006KT 5SM BR CLR 15/14 A2988 1830 96 2300 110/06 RMK AO2 T01500144
13962KABI ABI20160317033510603/17/16 03:35:31  5-MIN KABI 170935Z 11006KT 4SM BR CLR 15/14 A2988 1830 96 2300 110/06 RMK AO2 T01500144
13962KABI ABI20160317034010603/17/16 03:40:31  5-MIN KABI 170940Z 12006KT 4SM BR CLR 15/14 A2988 1830 96 2300 110/06 RMK AO2 T01500144
13962KABI ABI20160317034510603/17/16 03:45:31  5-MIN KABI 170945Z 11005KT 4SM BR CLR 15/14 A2988 1830 96 2300 100/05 RMK AO2 T01500144
13962KABI ABI20160317035011303/17/16 03:50:31  5-MIN KABI 170950Z 11003KT 4SM BR CLR 15/14 A2989 1820 96 2300 100/03 RMK AO2 SLP100 T01500144
13962KABI ABI20160317035510603/17/16 03:55:31  5-MIN KABI 170955Z 00000KT 4SM BR CLR 16/14 A2988 1830 93 2400 000/00 RMK AO2 T01560144
13962KABI ABI20160317040010603/17/16 04:00:31  5-MIN KABI 171000Z 14004KT 4SM BR CLR 16/14 A2988 1830 93 2400 130/04 RMK AO2 T01560144
13962KABI ABI20160317040510603/17/16 04:05:31  5-MIN KABI 171005Z 14005KT 3SM BR CLR 14/14 A2988 1830 96 2200 140/05 RMK AO2 T01440139
13962KABI ABI20160317041011103/17/16 04:10:31  5-MIN KABI 171010Z 00000KT 2 1/2SM BR CLR 14/14 A2988 1830 100 2200 000/00 RMK AO2 T01390139
13962KABI ABI20160317041511103/17/16 04:15:31  5-MIN KABI 171015Z 00000KT 2 1/2SM BR CLR 14/14 A2989 1820 100 2200 000/00 RMK AO2 T01440144
13962KABI ABI20160317042010703/17/16 04:20:31  5-MIN KABI 171020Z 36003KT 3SM BR CLR 14/14 A2989 1820 100 2200 350/03 RMK AO2 T01390139
13962KABI ABI20160317042510603/17/16 04:25:31  5-MIN KABI 171025Z 00000KT 3SM BR CLR 14/14 A2989 1820 96 2200 000/00 RMK AO2 T01440139
13962KABI ABI20160317043010603/17/16 04:30:31  5-MIN KABI 171030Z 00000KT 4SM BR CLR 15/14 A2989 1820 96 2300 000/00 RMK AO2 T01500144
13962KABI ABI20160317043510603/17/16 04:35:31  5-MIN KABI 171035Z 13003KT 4SM BR CLR 14/14 A2989 1820 96 2200 120/03 RMK AO2 T01440139
13962KABI ABI20160317044010603/17/16 04:40:31  5-MIN KABI 171040Z 00000KT 4SM BR CLR 14/14 A2990 1820 96 2200 000/00 RMK AO2 T01440139
13962KABI ABI20160317044510603/17/16 04:45:31  5-MIN KABI 171045Z 00000KT 4SM BR CLR 14/14 A2990 1810 96 2200 000/00 RMK AO2 T01440139
13962KABI ABI20160317045011403/17/16 04:50:31  5-MIN KABI 171050Z 15005KT 3SM BR CLR 14/14 A2990 1810 100 2200 140/05 RMK AO2 SLP105 T01440144
13962KABI ABI20160317045511703/17/16 04:55:31  5-MIN KABI 171055Z 15006KT 1/2SM FG VV014 14/14 A2990 1810 100 2100 150/06 RMK AO2 T01390139 RVRNO
13962KABI ABI20160317050011703/17/16 05:00:31  5-MIN KABI 171100Z 16006KT 1/4SM FG VV007 14/14 A2990 1810 100 2100 150/06 RMK AO2 T01390139 RVRNO
13962KABI ABI20160317050511703/17/16 05:05:31  5-MIN KABI 171105Z 17005KT 1/4SM FG VV004 14/14 A2990 1810 100 2100 160/05 RMK AO2 T01390139 RVRNO
13962KABI ABI20160317051011703/17/16 05:10:31  5-MIN KABI 171110Z 16003KT 1/4SM FG VV005 14/14 A2991 1800 100 2100 150/03 RMK AO2 T01390139 RVRNO
13962KABI ABI20160317051512503/17/16 05:15:31  5-MIN KABI 171115Z 16003KT 1/4SM FG BKN005 BKN022 14/14 A2991 1800 100 2100 160/03 RMK AO2 T01390139 RVRNO
13962KABI ABI20160317052012503/17/16 05:20:31  5-MIN KABI 171120Z 17004KT 1/4SM FG BKN005 OVC020 14/14 A2991 1800 100 2100 160/04 RMK AO2 T01390139 RVRNO
13962KABI ABI20160317052512503/17/16 05:25:31  5-MIN KABI 171125Z 17003KT 1/2SM FG SCT005 OVC018 14/14 A2991 1800 100 2100 160/03 RMK AO2 T01390139 RVRNO
13962KABI ABI20160317053012103/17/16 05:30:31  5-MIN KABI 171130Z 18003KT 1 1/4SM BR FEW005 OVC016 14/14 A2991 1800 100 2100 180/03 RMK AO2 T01390139
13962KABI ABI20160317053511403/17/16 05:35:31  5-MIN KABI 171135Z 21004KT 10SM FEW005 OVC016 14/14 A2991 1800 96 2200 210/04 RMK AO2 T01440139
13962KABI ABI20160317054010703/17/16 05:40:31  5-MIN KABI 171140Z 26008KT 10SM OVC016 14/14 A2992 1800 96 2200 250/08 RMK AO2 T01440139
13962KABI ABI20160317054510803/17/16 05:45:31  5-MIN KABI 171145Z 28008KT 10SM OVC016 13/13 A2992 1800 100 2100 270/08 RMK AO2 T01330133
13962KABI ABI20160317055013303/17/16 05:50:31  5-MIN KABI 171150Z 28009KT 10SM OVC016 12/12 A2992 1790 100 1900 280/09 RMK AO2 SLP114 T01220122 10178 20122 58003
13962KABI ABI20160317055510603/17/16 05:55:31  5-MIN KABI 171155Z 29010KT 9SM OVC016 11/10 A2992 1790 96 1700 280/10 RMK AO2 T01060100
13962KABI ABI20160317060010703/17/16 06:00:31  5-MIN KABI 171200Z 28009KT 10SM OVC016 11/09 A2993 1790 93 1700 280/09 RMK AO2 T01060094
13962KABI ABI20160317060511403/17/16 06:05:31  5-MIN KABI 171205Z 28008KT 10SM BKN014 OVC019 10/09 A2993 1790 93 1700 280/08 RMK AO2 T01000089
13962KABI ABI20160317061010703/17/16 06:10:31  5-MIN KABI 171210Z 29009KT 10SM OVC016 10/08 A2993 1780 89 1600 280/09 RMK AO2 T01000083
13962KABI ABI20160317061511403/17/16 06:15:31  5-MIN KABI 171215Z 29010KT 10SM BKN013 OVC019 09/08 A2993 1780 89 1600 290/10 RMK AO2 T00940078
13962KABI ABI20160317062010703/17/16 06:20:31  5-MIN KABI 171220Z 30009KT 10SM OVC013 09/08 A2993 1780 89 1600 290/09 RMK AO2 T00940078
13962KABI ABI20160317062510703/17/16 06:25:31  5-MIN KABI 171225Z 29008KT 10SM OVC012 10/08 A2993 1780 86 1600 280/08 RMK AO2 T01000078
13962KABI ABI20160317063010703/17/16 06:30:31  5-MIN KABI 171230Z 28008KT 10SM OVC012 11/08 A2993 1780 83 1700 280/08 RMK AO2 T01060078
13962KABI ABI20160317063510703/17/16 06:35:31  5-MIN KABI 171235Z 28007KT 10SM OVC012 11/08 A2993 1780 83 1700 270/07 RMK AO2 T01060078
13962KABI ABI20160317064010703/17/16 06:40:31  5-MIN KABI 171240Z 28007KT 10SM OVC011 11/07 A2994 1780 80 1700 270/07 RMK AO2 T01060072
13962KABI ABI20160317064510703/17/16 06:45:31  5-MIN KABI 171245Z 27005KT 10SM OVC011 11/07 A2994 1780 80 1700 270/05 RMK AO2 T01060072
13962KABI ABI20160317065011403/17/16 06:50:31  5-MIN KABI 171250Z 28005KT 10SM OVC011 11/07 A2994 1770 80 1700 280/05 RMK AO2 SLP124 T01060072
13962KABI ABI20160317065510703/17/16 06:55:31  5-MIN KABI 171255Z 28005KT 10SM OVC010 11/07 A2994 1770 80 1700 270/05 RMK AO2 T01060072
13962KABI ABI20160317070010703/17/16 07:00:31  5-MIN KABI 171300Z 27005KT 10SM OVC010 11/07 A2994 1770 80 1700 270/05 RMK AO2 T01060072
13962KABI ABI20160317070510703/17/16 07:05:31  5-MIN KABI 171305Z 27005KT 10SM OVC010 11/07 A2995 1770 80 1700 270/05 RMK AO2 T01060072
13962KABI ABI20160317071010703/17/16 07:10:31  5-MIN KABI 171310Z 28005KT 10SM OVC010 11/07 A2995 1770 77 1700 270/05 RMK AO2 T01060067
13962KABI ABI20160317071510703/17/16 07:15:31  5-MIN KABI 171315Z 27005KT 10SM OVC010 11/07 A2995 1770 77 1700 260/05 RMK AO2 T01060067
13962KABI ABI20160317072010703/17/16 07:20:31  5-MIN KABI 171320Z 26004KT 10SM OVC010 11/07 A2995 1760 77 1700 250/04 RMK AO2 T01060067
13962KABI ABI20160317072510703/17/16 07:25:31  5-MIN KABI 171325Z 25005KT 10SM OVC009 11/07 A2995 1760 77 1700 250/05 RMK AO2 T01060067
13962KABI ABI20160317073010703/17/16 07:30:31  5-MIN KABI 171330Z 27005KT 10SM OVC009 11/06 A2995 1760 74 1700 260/05 RMK AO2 T01060061
13962KABI ABI20160317073511403/17/16 07:35:31  5-MIN KABI 171335Z 24004KT 10SM BKN010 OVC015 11/06 A2995 1760 74 1700 240/04 RMK AO2 T01060061
13962KABI ABI20160317074010703/17/16 07:40:31  5-MIN KABI 171340Z 24003KT 10SM OVC010 11/06 A2995 1760 74 1700 230/03 RMK AO2 T01060061
13962KABI ABI20160317074510703/17/16 07:45:31  5-MIN KABI 171345Z 23004KT 10SM OVC010 11/07 A2995 1760 77 1700 230/04 RMK AO2 T01060067
13962KABI ABI20160317075009703/17/16 07:50:31  5-MIN KABI 171350Z 24004KT 10SM OVC009 11/06 A2996 1760 74 1700 240/04 RMK AO2
13962KABI ABI20160317075510703/17/16 07:55:31  5-MIN KABI 171355Z 25004KT 10SM OVC009 11/06 A2995 1760 74 1700 250/04 RMK AO2 T01060061
13962KABI ABI20160317080010703/17/16 08:00:31  5-MIN KABI 171400Z 25003KT 10SM OVC009 11/06 A2995 1760 74 1700 240/03 RMK AO2 T01060061
13962KABI ABI20160317080510703/17/16 08:05:31  5-MIN KABI 171405Z 26004KT 10SM OVC009 11/06 A2996 1760 74 1700 250/04 RMK AO2 T01060061
13962KABI ABI20160317081010703/17/16 08:10:31  5-MIN KABI 171410Z 24003KT 10SM OVC009 11/06 A2996 1760 74 1700 240/03 RMK AO2 T01060061
13962KABI ABI20160317081510703/17/16 08:15:31  5-MIN KABI 171415Z 26004KT 10SM OVC009 11/06 A2996 1760 71 1700 250/04 RMK AO2 T01110061
13962KABI ABI20160317082010703/17/16 08:20:31  5-MIN KABI 171420Z 27004KT 10SM OVC009 11/06 A2996 1750 71 1700 270/04 RMK AO2 T01110061
13962KABI ABI20160317082510703/17/16 08:25:31  5-MIN KABI 171425Z 27003KT 10SM OVC009 11/06 A2996 1750 71 1700 260/03 RMK AO2 T01110061
13962KABI ABI20160317083010703/17/16 08:30:31  5-MIN KABI 171430Z 26003KT 10SM OVC009 11/06 A2996 1750 71 1700 250/03 RMK AO2 T01110061
13962KABI ABI20160317083510703/17/16 08:35:31  5-MIN KABI 171435Z 28004KT 10SM OVC009 11/07 A2996 1750 74 1700 280/04 RMK AO2 T01110067
13962KABI ABI20160317084010703/17/16 08:40:31  5-MIN KABI 171440Z 28005KT 10SM OVC009 12/06 A2997 1750 68 1800 270/05 RMK AO2 T01170061
13962KABI ABI20160317084510703/17/16 08:45:31  5-MIN KABI 171445Z 28004KT 10SM OVC009 12/06 A2997 1750 68 1800 270/04 RMK AO2 T01170061
13962KABI ABI20160317085012003/17/16 08:50:31  5-MIN KABI 171450Z 00000KT 10SM OVC009 12/06 A2997 1750 68 1800 000/00 RMK AO2 SLP135 T01170061 53012
13962KABI ABI20160317085510703/17/16 08:55:31  5-MIN KABI 171455Z 30003KT 10SM OVC009 12/06 A2997 1750 68 1800 290/03 RMK AO2 T01170061
13962KABI ABI20160317090010703/17/16 09:00:31  5-MIN KABI 171500Z 00000KT 10SM OVC009 12/06 A2997 1750 68 1800 000/00 RMK AO2 T01170061
13962KABI ABI20160317090510703/17/16 09:05:31  5-MIN KABI 171505Z 27003KT 10SM OVC009 12/06 A2997 1750 66 1900 270/03 RMK AO2 T01220061
13962KABI ABI20160317091010703/17/16 09:10:31  5-MIN KABI 171510Z 28003KT 10SM OVC009 12/07 A2997 1750 68 1900 270/03 RMK AO2 T01220067
13962KABI ABI20160317091510703/17/16 09:15:31  5-MIN KABI 171515Z 28003KT 10SM OVC009 12/07 A2997 1750 68 1900 280/03 RMK AO2 T01220067
13962KABI ABI20160317092010703/17/16 09:20:31  5-MIN KABI 171520Z 00000KT 10SM OVC009 12/07 A2997 1740 68 1900 000/00 RMK AO2 T01220067
13962KABI ABI20160317092510703/17/16 09:25:31  5-MIN KABI 171525Z 27003KT 10SM OVC009 13/07 A2998 1740 66 1900 270/03 RMK AO2 T01280067
13962KABI ABI20160317093010703/17/16 09:30:31  5-MIN KABI 171530Z 28004KT 10SM OVC009 13/07 A2997 1740 66 1900 270/04 RMK AO2 T01280067
13962KABI ABI20160317093510703/17/16 09:35:31  5-MIN KABI 171535Z 32005KT 10SM OVC010 13/07 A2997 1740 66 1900 320/05 RMK AO2 T01280067
13962KABI ABI20160317094010703/17/16 09:40:31  5-MIN KABI 171540Z 30004KT 10SM OVC010 13/07 A2997 1750 66 1900 290/04 RMK AO2 T01280067
13962KABI ABI20160317094510703/17/16 09:45:31  5-MIN KABI 171545Z 30005KT 10SM OVC010 13/07 A2997 1750 66 1900 290/05 RMK AO2 T01280067
13962KABI ABI20160317095011403/17/16 09:50:31  5-MIN KABI 171550Z 31005KT 10SM OVC010 13/07 A2997 1750 66 1900 300/05 RMK AO2 SLP135 T01280067
13962KABI ABI20160317095510703/17/16 09:55:31  5-MIN KABI 171555Z 28005KT 10SM OVC010 13/07 A2997 1750 66 1900 280/05 RMK AO2 T01280067
13962KABI ABI20160317100010703/17/16 10:00:31  5-MIN KABI 171600Z 27004KT 10SM OVC010 13/07 A2997 1750 66 1900 260/04 RMK AO2 T01280067
13962KABI ABI20160317100510703/17/16 10:05:31  5-MIN KABI 171605Z 30004KT 10SM OVC010 13/07 A2997 1750 66 2000 290/04 RMK AO2 T01330072
13962KABI ABI20160317101010703/17/16 10:10:31  5-MIN KABI 171610Z 30003KT 10SM OVC010 13/07 A2997 1750 64 2000 300/03 RMK AO2 T01330067
13962KABI ABI20160317101510703/17/16 10:15:31  5-MIN KABI 171615Z 36003KT 10SM OVC010 13/07 A2997 1750 66 2000 360/03 RMK AO2 T01330072
13962KABI ABI20160317102010703/17/16 10:20:31  5-MIN KABI 171620Z 36005KT 10SM OVC010 14/07 A2996 1750 61 2100 350/05 RMK AO2 T01390067
13962KABI ABI20160317102511403/17/16 10:25:31  5-MIN KABI 171625Z VRB03KT 10SM BKN010 OVC035 14/07 A2997 1750 61 2100 VRB/03 RMK AO2 T01390067
13962KABI ABI20160317103011403/17/16 10:30:31  5-MIN KABI 171630Z 29003KT 10SM BKN009 OVC035 13/07 A2997 1750 64 2000 280/03 RMK AO2 T01330067
13962KABI ABI20160317103510703/17/16 10:35:31  5-MIN KABI 171635Z 00000KT 10SM OVC009 13/07 A2998 1740 64 2000 000/00 RMK AO2 T01330067
13962KABI ABI20160317104010703/17/16 10:40:31  5-MIN KABI 171640Z 00000KT 10SM OVC010 14/07 A2997 1740 61 2100 000/00 RMK AO2 T01390067
13962KABI ABI20160317104510703/17/16 10:45:31  5-MIN KABI 171645Z 00000KT 10SM OVC010 14/07 A2997 1740 64 2100 000/00 RMK AO2 T01390072
13962KABI ABI20160317105009703/17/16 10:50:31  5-MIN KABI 171650Z 00000KT 10SM OVC010 14/07 A2997 1750 64 2100 000/00 RMK AO2
13962KABI ABI20160317105510703/17/16 10:55:31  5-MIN KABI 171655Z 00000KT 10SM OVC010 14/07 A2997 1740 64 2100 000/00 RMK AO2 T01390072
13962KABI ABI20160317110010703/17/16 11:00:31  5-MIN KABI 171700Z 00000KT 10SM OVC010 14/07 A2997 1740 61 2100 000/00 RMK AO2 T01440072
13962KABI ABI20160317110510703/17/16 11:05:31  5-MIN KABI 171705Z 00000KT 10SM OVC010 14/07 A2997 1750 61 2100 000/00 RMK AO2 T01440072
13962KABI ABI20160317111010703/17/16 11:10:31  5-MIN KABI 171710Z VRB03KT 10SM OVC010 14/08 A2997 1750 64 2100 VRB/03 RMK AO2 T01440078
13962KABI ABI20160317111510703/17/16 11:15:31  5-MIN KABI 171715Z 28003KT 10SM OVC010 14/08 A2997 1750 64 2100 270/03 RMK AO2 T01440078
13962KABI ABI20160317112010703/17/16 11:20:31  5-MIN KABI 171720Z 33004KT 10SM OVC010 14/08 A2997 1750 64 2100 320/04 RMK AO2 T01440078
13962KABI ABI20160317112510703/17/16 11:25:31  5-MIN KABI 171725Z 31004KT 10SM OVC011 14/08 A2997 1750 64 2100 310/04 RMK AO2 T01440078
13962KABI ABI20160317113010703/17/16 11:30:31  5-MIN KABI 171730Z 32004KT 10SM OVC011 14/08 A2997 1750 64 2100 320/04 RMK AO2 T01440078
13962KABI ABI20160317113510703/17/16 11:35:31  5-MIN KABI 171735Z 31005KT 10SM OVC011 15/08 A2997 1750 64 2200 310/05 RMK AO2 T01500083
13962KABI ABI20160317114010703/17/16 11:40:31  5-MIN KABI 171740Z 33005KT 10SM OVC011 15/08 A2996 1750 64 2200 320/05 RMK AO2 T01500083
13962KABI ABI20160317114511403/17/16 11:45:31  5-MIN KABI 171745Z 33005KT 10SM BKN011 OVC043 16/08 A2996 1760 59 2300 320/05 RMK AO2 T01560078
13962KABI ABI20160317115013903/17/16 11:50:31  5-MIN KABI 171750Z 29004KT 10SM BKN012 OVC043 16/08 A2996 1760 62 2300 280/04 RMK AO2 SLP130 T01560083 10161 20106 51015
13962KABI ABI20160317115511403/17/16 11:55:31  5-MIN KABI 171755Z 35005KT 10SM BKN012 OVC043 17/09 A2996 1760 60 2400 340/05 RMK AO2 T01670089
13962KABI ABI20160317120011403/17/16 12:00:31  5-MIN KABI 171800Z 33006KT 10SM BKN012 OVC044 16/08 A2996 1760 59 2300 330/06 RMK AO2 T01610083
13962KABI ABI20160317120511403/17/16 12:05:31  5-MIN KABI 171805Z 01004KT 10SM BKN012 OVC044 17/09 A2995 1760 60 2400 010/04 RMK AO2 T01670089
13962KABI ABI20160317121011403/17/16 12:10:31  5-MIN KABI 171810Z 00000KT 10SM SCT012 OVC044 16/08 A2995 1770 59 2300 000/00 RMK AO2 T01610083
13962KABI ABI20160317121511403/17/16 12:15:31  5-MIN KABI 171815Z 00000KT 10SM BKN012 OVC043 16/09 A2995 1770 62 2300 000/00 RMK AO2 T01610089
13962KABI ABI20160317122011403/17/16 12:20:31  5-MIN KABI 171820Z 00000KT 10SM BKN012 OVC043 17/09 A2994 1770 57 2500 000/00 RMK AO2 T01720089
13962KABI ABI20160317122511403/17/16 12:25:31  5-MIN KABI 171825Z 00000KT 10SM BKN012 OVC043 17/09 A2994 1770 62 2400 000/00 RMK AO2 T01670094
13962KABI ABI20160317123011403/17/16 12:30:31  5-MIN KABI 171830Z 00000KT 10SM BKN012 OVC043 17/09 A2994 1780 60 2500 000/00 RMK AO2 T01720094
13962KABI ABI20160317123511403/17/16 12:35:31  5-MIN KABI 171835Z 00000KT 10SM BKN012 OVC043 17/09 A2994 1780 57 2500 000/00 RMK AO2 T01720089
13962KABI ABI20160317124011403/17/16 12:40:31  5-MIN KABI 171840Z 00000KT 10SM BKN012 OVC043 17/10 A2994 1780 62 2500 000/00 RMK AO2 T01720100
13962KABI ABI20160317124511403/17/16 12:45:31  5-MIN KABI 171845Z 00000KT 10SM BKN012 OVC043 18/10 A2993 1780 60 2600 000/00 RMK AO2 T01780100
13962KABI ABI20160317125012103/17/16 12:50:31  5-MIN KABI 171850Z 00000KT 10SM BKN012 OVC043 18/10 A2993 1780 58 2600 000/00 RMK AO2 SLP119 T01830100
13962KABI ABI20160317125510703/17/16 12:55:31  5-MIN KABI 171855Z 00000KT 10SM OVC046 18/11 A2993 1790 60 2600 000/00 RMK AO2 T01830106
13962KABI ABI20160317130010703/17/16 13:00:31  5-MIN KABI 171900Z VRB03KT 10SM OVC046 18/11 A2992 1790 60 2600 VRB/03 RMK AO2 T01830106
13962KABI ABI20160317130510703/17/16 13:05:31  5-MIN KABI 171905Z VRB03KT 10SM OVC046 19/11 A2992 1790 58 2700 VRB/03 RMK AO2 T01890106
13962KABI ABI20160317131010703/17/16 13:10:31  5-MIN KABI 171910Z VRB03KT 10SM OVC046 19/12 A2992 1790 60 2800 VRB/03 RMK AO2 T01940117
13962KABI ABI20160317131510703/17/16 13:15:31  5-MIN KABI 171915Z VRB05KT 10SM OVC047 19/12 A2991 1800 60 2800 VRB/05 RMK AO2 T01940117
13962KABI ABI20160317132010603/17/16 13:20:31  5-MIN KABI 171920Z 32005KT 9SM BKN047 20/13 A2991 1800 63 2800 310/05 RMK AO2 T02000128
13962KABI ABI20160317132510603/17/16 13:25:31  5-MIN KABI 171925Z 01005KT 9SM BKN047 20/12 A2991 1800 60 2800 010/05 RMK AO2 T02000122
13962KABI ABI20160317133010603/17/16 13:30:31  5-MIN KABI 171930Z 04003KT 9SM BKN047 19/12 A2990 1810 60 2800 030/03 RMK AO2 T01940117
13962KABI ABI20160317133510603/17/16 13:35:31  5-MIN KABI 171935Z 03003KT 9SM BKN047 20/12 A2990 1810 58 2800 020/03 RMK AO2 T02000117
13962KABI ABI20160317134010603/17/16 13:40:31  5-MIN KABI 171940Z 36004KT 9SM BKN048 20/12 A2990 1820 58 2900 350/04 RMK AO2 T02000117
13962KABI ABI20160317134510603/17/16 13:45:31  5-MIN KABI 171945Z 00000KT 9SM BKN048 20/12 A2989 1820 58 2900 000/00 RMK AO2 T02000117
13962KABI ABI20160317135011303/17/16 13:50:31  5-MIN KABI 171950Z 00000KT 9SM BKN048 20/12 A2989 1820 58 2900 000/00 RMK AO2 SLP104 T02000117
13962KABI ABI20160317135510603/17/16 13:55:31  5-MIN KABI 171955Z 00000KT 9SM BKN048 21/12 A2989 1820 58 2900 000/00 RMK AO2 T02060122
13962KABI ABI20160317140010603/17/16 14:00:31  5-MIN KABI 172000Z 32003KT 9SM BKN048 21/12 A2989 1820 58 2900 310/03 RMK AO2 T02060122
13962KABI ABI20160317140510603/17/16 14:05:31  5-MIN KABI 172005Z 30003KT 9SM BKN049 20/12 A2989 1820 60 2900 300/03 RMK AO2 T02000122
13962KABI ABI20160317141010603/17/16 14:10:31  5-MIN KABI 172010Z 32003KT 9SM BKN049 21/12 A2988 1830 58 2900 320/03 RMK AO2 T02060122
13962KABI ABI20160317141510603/17/16 14:15:31  5-MIN KABI 172015Z 00000KT 9SM BKN049 20/12 A2988 1830 60 2900 000/00 RMK AO2 T02000122
13962KABI ABI20160317142010603/17/16 14:20:31  5-MIN KABI 172020Z 00000KT 8SM BKN050 21/12 A2988 1830 58 2900 000/00 RMK AO2 T02060122
13962KABI ABI20160317142510603/17/16 14:25:31  5-MIN KABI 172025Z 00000KT 8SM BKN050 21/13 A2987 1830 60 2900 000/00 RMK AO2 T02060128
13962KABI ABI20160317143010603/17/16 14:30:31  5-MIN KABI 172030Z 00000KT 8SM BKN050 22/13 A2987 1840 58 3100 000/00 RMK AO2 T02170133
13962KABI ABI20160317143510603/17/16 14:35:31  5-MIN KABI 172035Z 01003KT 8SM BKN050 22/13 A2987 1840 56 3100 360/03 RMK AO2 T02170128
13962KABI ABI20160317144010603/17/16 14:40:31  5-MIN KABI 172040Z 00000KT 9SM BKN050 22/14 A2987 1840 59 3100 000/00 RMK AO2 T02220139
13962KABI ABI20160317144510603/17/16 14:45:31  5-MIN KABI 172045Z VRB05KT 8SM BKN050 22/13 A2986 1850 56 3100 VRB/05 RMK AO2 T02220133
13962KABI ABI20160317145011903/17/16 14:50:31  5-MIN KABI 172050Z 00000KT 8SM SCT050 21/13 A2986 1850 58 3000 000/00 RMK AO2 SLP095 T02110128 58003
13962KABI ABI20160317145510603/17/16 14:55:31  5-MIN KABI 172055Z 00000KT 9SM FEW050 22/13 A2986 1850 54 3100 000/00 RMK AO2 T02220128
13962KABI ABI20160317150010603/17/16 15:00:31  5-MIN KABI 172100Z 34003KT 9SM FEW050 23/13 A2986 1850 55 3200 330/03 RMK AO2 T02280133
13962KABI ABI20160317150510603/17/16 15:05:31  5-MIN KABI 172105Z 00000KT 9SM FEW050 22/13 A2986 1850 56 3100 000/00 RMK AO2 T02220133
13962KABI ABI20160317151010603/17/16 15:10:31  5-MIN KABI 172110Z 00000KT 9SM FEW050 22/13 A2986 1850 56 3100 000/00 RMK AO2 T02170128
13962KABI ABI20160317151510303/17/16 15:15:31  5-MIN KABI 172115Z 00000KT 9SM CLR 22/13 A2985 1850 54 3200 000/00 RMK AO2 T02220128
13962KABI ABI20160317152010303/17/16 15:20:31  5-MIN KABI 172120Z 35004KT 9SM CLR 22/13 A2985 1850 54 3200 350/04 RMK AO2 T02220128
13962KABI ABI20160317152510303/17/16 15:25:31  5-MIN KABI 172125Z 32004KT 9SM CLR 22/13 A2985 1860 54 3200 320/04 RMK AO2 T02220128
13962KABI ABI20160317153010303/17/16 15:30:31  5-MIN KABI 172130Z 00000KT 9SM CLR 22/12 A2985 1860 52 3200 000/00 RMK AO2 T02220122
13962KABI ABI20160317153510403/17/16 15:35:31  5-MIN KABI 172135Z 00000KT 10SM CLR 22/13 A2985 1860 54 3200 000/00 RMK AO2 T02220128
13962KABI ABI20160317154010403/17/16 15:40:31  5-MIN KABI 172140Z 00000KT 10SM CLR 23/13 A2985 1860 53 3200 000/00 RMK AO2 T02280128
13962KABI ABI20160317154510403/17/16 15:45:31  5-MIN KABI 172145Z 00000KT 10SM CLR 22/13 A2984 1860 54 3200 000/00 RMK AO2 T02220128
13962KABI ABI20160317155011103/17/16 15:50:31  5-MIN KABI 172150Z 36004KT 10SM CLR 23/13 A2984 1860 53 3300 360/04 RMK AO2 SLP086 T02330133
13962KABI ABI20160317155510303/17/16 15:55:31  5-MIN KABI 172155Z 33006KT 9SM CLR 23/13 A2984 1870 53 3200 330/06 RMK AO2 T02280128
13962KABI ABI20160317160010303/17/16 16:00:31  5-MIN KABI 172200Z 33004KT 9SM CLR 23/13 A2984 1870 53 3200 330/04 RMK AO2 T02280128
13962KABI ABI20160317160510303/17/16 16:05:31  5-MIN KABI 172205Z 30004KT 9SM CLR 23/13 A2984 1870 53 3200 290/04 RMK AO2 T02280128
13962KABI ABI20160317161010303/17/16 16:10:31  5-MIN KABI 172210Z 00000KT 9SM CLR 23/13 A2984 1870 55 3200 000/00 RMK AO2 T02280133
13962KABI ABI20160317161510303/17/16 16:15:31  5-MIN KABI 172215Z 02003KT 9SM CLR 23/13 A2983 1870 55 3200 010/03 RMK AO2 T02280133
13962KABI ABI20160317162010303/17/16 16:20:31  5-MIN KABI 172220Z VRB04KT 9SM CLR 23/13 A2983 1870 53 3300 VRB/04 RMK AO2 T02330133
13962KABI ABI20160317162510303/17/16 16:25:31  5-MIN KABI 172225Z 35005KT 9SM CLR 23/13 A2983 1880 53 3300 340/05 RMK AO2 T02330133
13962KABI ABI20160317163010303/17/16 16:30:31  5-MIN KABI 172230Z 34005KT 9SM CLR 23/13 A2983 1880 53 3200 330/05 RMK AO2 T02280128
13962KABI ABI20160317163510303/17/16 16:35:31  5-MIN KABI 172235Z 00000KT 9SM CLR 23/13 A2983 1880 55 3200 000/00 RMK AO2 T02280133
13962KABI ABI20160317164010303/17/16 16:40:31  5-MIN KABI 172240Z 33003KT 9SM CLR 23/13 A2983 1880 51 3300 320/03 RMK AO2 T02330128
13962KABI ABI20160317164510303/17/16 16:45:31  5-MIN KABI 172245Z 00000KT 9SM CLR 23/13 A2982 1880 53 3300 000/00 RMK AO2 T02280128
13962KABI ABI20160317165011003/17/16 16:50:31  5-MIN KABI 172250Z 11003KT 9SM CLR 23/13 A2982 1880 53 3300 100/03 RMK AO2 SLP080 T02330133
13962KABI ABI20160317165510303/17/16 16:55:31  5-MIN KABI 172255Z 00000KT 9SM CLR 22/13 A2982 1880 54 3200 000/00 RMK AO2 T02220128
13962KABI ABI20160317170010303/17/16 17:00:31  5-MIN KABI 172300Z 00000KT 9SM CLR 23/13 A2982 1880 55 3300 000/00 RMK AO2 T02280133
13962KABI ABI20160317170510303/17/16 17:05:31  5-MIN KABI 172305Z 09003KT 9SM CLR 23/13 A2982 1880 55 3300 080/03 RMK AO2 T02280133
13962KABI ABI20160317171010303/17/16 17:10:31  5-MIN KABI 172310Z 00000KT 9SM CLR 22/13 A2982 1880 54 3200 000/00 RMK AO2 T02220128
13962KABI ABI20160317171510303/17/16 17:15:31  5-MIN KABI 172315Z 00000KT 9SM CLR 23/13 A2982 1880 53 3300 000/00 RMK AO2 T02280128
13962KABI ABI20160317172010303/17/16 17:20:31  5-MIN KABI 172320Z 00000KT 9SM CLR 23/13 A2982 1880 53 3200 000/00 RMK AO2 T02280128
13962KABI ABI20160317172510303/17/16 17:25:31  5-MIN KABI 172325Z 00000KT 9SM CLR 23/13 A2983 1880 53 3200 000/00 RMK AO2 T02280128
13962KABI ABI20160317173010403/17/16 17:30:31  5-MIN KABI 172330Z 00000KT 10SM CLR 23/13 A2983 1880 55 3200 000/00 RMK AO2 T02280133
13962KABI ABI20160317173510303/17/16 17:35:31  5-MIN KABI 172335Z 00000KT 9SM CLR 22/13 A2983 1880 56 3200 000/00 RMK AO2 T02220133
13962KABI ABI20160317174010303/17/16 17:40:31  5-MIN KABI 172340Z 00000KT 9SM CLR 23/13 A2983 1880 53 3200 000/00 RMK AO2 T02280128
13962KABI ABI20160317174510303/17/16 17:45:31  5-MIN KABI 172345Z 00000KT 9SM CLR 23/13 A2983 1880 55 3200 000/00 RMK AO2 T02280133
13962KABI ABI20160317175012803/17/16 17:50:31  5-MIN KABI 172350Z 00000KT 9SM CLR 23/13 A2983 1880 53 3200 000/00 RMK AO2 SLP084 T02280128 10233 20161 56031
13962KABI ABI20160317175510303/17/16 17:55:31  5-MIN KABI 172355Z 05004KT 9SM CLR 23/13 A2983 1880 55 3200 040/04 RMK AO2 T02280133
13962KABI ABI20160317180010303/17/16 18:00:31  5-MIN KABI 180000Z 04003KT 9SM CLR 22/13 A2983 1880 54 3200 040/03 RMK AO2 T02220128
13962KABI ABI20160317180510303/17/16 18:05:31  5-MIN KABI 180005Z 03003KT 9SM CLR 22/13 A2983 1880 54 3200 020/03 RMK AO2 T02220128
13962KABI ABI20160317181010303/17/16 18:10:31  5-MIN KABI 180010Z 04003KT 9SM CLR 22/13 A2983 1870 54 3200 030/03 RMK AO2 T02220128
13962KABI ABI20160317181510303/17/16 18:15:31  5-MIN KABI 180015Z 03003KT 9SM CLR 22/13 A2983 1870 56 3200 020/03 RMK AO2 T02220133
13962KABI ABI20160317182010303/17/16 18:20:31  5-MIN KABI 180020Z 03003KT 9SM CLR 22/13 A2983 1870 54 3200 030/03 RMK AO2 T02220128
13962KABI ABI20160317182510303/17/16 18:25:31  5-MIN KABI 180025Z 03003KT 9SM CLR 22/13 A2983 1870 54 3200 020/03 RMK AO2 T02220128
13962KABI ABI20160317183010303/17/16 18:30:31  5-MIN KABI 180030Z 02004KT 9SM CLR 22/13 A2983 1870 58 3100 020/04 RMK AO2 T02170133
13962KABI ABI20160317183510303/17/16 18:35:31  5-MIN KABI 180035Z 03004KT 9SM CLR 22/13 A2983 1870 58 3100 030/04 RMK AO2 T02170133
13962KABI ABI20160317184010303/17/16 18:40:31  5-MIN KABI 180040Z 04004KT 9SM CLR 21/13 A2984 1870 61 3000 030/04 RMK AO2 T02110133
13962KABI ABI20160317184510303/17/16 18:45:31  5-MIN KABI 180045Z 05005KT 9SM CLR 21/13 A2984 1870 61 3000 050/05 RMK AO2 T02110133
13962KABI ABI20160317185011303/17/16 18:50:31  5-MIN KABI 180050Z 08007KT 9SM FEW046 21/13 A2984 1870 63 3000 080/07 RMK AO2 SLP090 T02060133
13962KABI ABI20160317185510603/17/16 18:55:31  5-MIN KABI 180055Z 09008KT 9SM FEW046 20/13 A2984 1870 65 2900 080/08 RMK AO2 T02000133
13962KABI ABI20160317190010403/17/16 19:00:31  5-MIN KABI 180100Z 09007KT 10SM CLR 20/13 A2984 1870 65 2900 090/07 RMK AO2 T02000133
13962KABI ABI20160317190510403/17/16 19:05:31  5-MIN KABI 180105Z 10006KT 10SM CLR 19/13 A2984 1870 67 2900 090/06 RMK AO2 T01940133
13962KABI ABI20160317191010403/17/16 19:10:31  5-MIN KABI 180110Z 09006KT 10SM CLR 19/13 A2984 1870 67 2900 080/06 RMK AO2 T01940133
13962KABI ABI20160317191510403/17/16 19:15:31  5-MIN KABI 180115Z 08006KT 10SM CLR 19/13 A2984 1870 70 2800 080/06 RMK AO2 T01890133
13962KABI ABI20160317192010403/17/16 19:20:31  5-MIN KABI 180120Z 08005KT 10SM CLR 19/13 A2984 1860 70 2800 080/05 RMK AO2 T01890133
13962KABI ABI20160317192510403/17/16 19:25:31  5-MIN KABI 180125Z 07005KT 10SM CLR 19/13 A2984 1860 70 2800 070/05 RMK AO2 T01890133
13962KABI ABI20160317193010403/17/16 19:30:31  5-MIN KABI 180130Z 08006KT 10SM CLR 18/13 A2984 1860 72 2700 080/06 RMK AO2 T01830133
13962KABI ABI20160317193510403/17/16 19:35:31  5-MIN KABI 180135Z 08005KT 10SM CLR 19/13 A2985 1860 70 2800 070/05 RMK AO2 T01890133
13962KABI ABI20160317194010403/17/16 19:40:31  5-MIN KABI 180140Z 07006KT 10SM CLR 18/13 A2985 1860 72 2700 070/06 RMK AO2 T01830133
13962KABI ABI20160317194510403/17/16 19:45:31  5-MIN KABI 180145Z 08006KT 10SM CLR 18/13 A2985 1860 72 2700 080/06 RMK AO2 T01830133
13962KABI ABI20160317195011103/17/16 19:50:31  5-MIN KABI 180150Z 07006KT 10SM CLR 18/13 A2985 1860 72 2700 060/06 RMK AO2 SLP094 T01830133
13962KABI ABI20160317195510403/17/16 19:55:31  5-MIN KABI 180155Z 07007KT 10SM CLR 18/13 A2985 1860 75 2700 070/07 RMK AO2 T01780133
13962KABI ABI20160317200010403/17/16 20:00:31  5-MIN KABI 180200Z 07006KT 10SM CLR 18/13 A2985 1860 75 2700 070/06 RMK AO2 T01780133
13962KABI ABI20160317200510403/17/16 20:05:31  5-MIN KABI 180205Z 08006KT 10SM CLR 18/13 A2985 1860 75 2700 070/06 RMK AO2 T01780133
13962KABI ABI20160317201010403/17/16 20:10:31  5-MIN KABI 180210Z 09007KT 10SM CLR 17/13 A2985 1860 78 2600 080/07 RMK AO2 T01720133
13962KABI ABI20160317201510403/17/16 20:15:31  5-MIN KABI 180215Z 08007KT 10SM CLR 17/13 A2985 1860 78 2600 080/07 RMK AO2 T01720133
13962KABI ABI20160317202010403/17/16 20:20:31  5-MIN KABI 180220Z 07007KT 10SM CLR 17/13 A2985 1860 78 2600 060/07 RMK AO2 T01720133
13962KABI ABI20160317202510403/17/16 20:25:31  5-MIN KABI 180225Z 07008KT 10SM CLR 17/13 A2985 1860 78 2600 070/08 RMK AO2 T01720133
13962KABI ABI20160317203010403/17/16 20:30:31  5-MIN KABI 180230Z 08008KT 10SM CLR 17/13 A2985 1850 78 2600 070/08 RMK AO2 T01720133
13962KABI ABI20160317203510403/17/16 20:35:31  5-MIN KABI 180235Z 09007KT 10SM CLR 17/13 A2985 1850 78 2600 080/07 RMK AO2 T01720133
13962KABI ABI20160317204010403/17/16 20:40:31  5-MIN KABI 180240Z 09008KT 10SM CLR 17/13 A2986 1850 78 2600 090/08 RMK AO2 T01720133
13962KABI ABI20160317204510403/17/16 20:45:31  5-MIN KABI 180245Z 09008KT 10SM CLR 17/13 A2986 1850 80 2500 090/08 RMK AO2 T01670133
13962KABI ABI20160317205011703/17/16 20:50:31  5-MIN KABI 180250Z 10008KT 10SM CLR 17/13 A2985 1850 80 2500 090/08 RMK AO2 SLP097 T01670133 55011
13962KABI ABI20160317205510403/17/16 20:55:31  5-MIN KABI 180255Z 10008KT 10SM CLR 17/13 A2985 1850 78 2600 090/08 RMK AO2 T01720133
13962KABI ABI20160317210010403/17/16 21:00:31  5-MIN KABI 180300Z 09009KT 10SM CLR 17/13 A2985 1860 77 2500 080/09 RMK AO2 T01670128
13962KABI ABI20160317210510403/17/16 21:05:31  5-MIN KABI 180305Z 09008KT 10SM CLR 17/13 A2985 1850 77 2500 080/08 RMK AO2 T01670128
13962KABI ABI20160317211010403/17/16 21:10:31  5-MIN KABI 180310Z 09007KT 10SM CLR 17/13 A2985 1860 77 2500 080/07 RMK AO2 T01670128
13962KABI ABI20160317211510403/17/16 21:15:31  5-MIN KABI 180315Z 09007KT 10SM CLR 17/13 A2985 1860 77 2500 080/07 RMK AO2 T01670128
13962KABI ABI20160317212010303/17/16 21:20:31  5-MIN KABI 180320Z 09007KT 9SM CLR 16/13 A2985 1860 80 2500 090/07 RMK AO2 T01610128
13962KABI ABI20160317212510303/17/16 21:25:31  5-MIN KABI 180325Z 10007KT 9SM CLR 16/13 A2985 1860 80 2500 090/07 RMK AO2 T01610128
13962KABI ABI20160317213010303/17/16 21:30:31  5-MIN KABI 180330Z 10007KT 9SM CLR 16/13 A2985 1860 80 2500 100/07 RMK AO2 T01610128
13962KABI ABI20160317213510303/17/16 21:35:31  5-MIN KABI 180335Z 11006KT 9SM CLR 16/13 A2985 1860 80 2500 100/06 RMK AO2 T01610128
13962KABI ABI20160317214010303/17/16 21:40:31  5-MIN KABI 180340Z 11004KT 9SM CLR 16/13 A2985 1860 83 2400 100/04 RMK AO2 T01560128
13962KABI ABI20160317214510303/17/16 21:45:31  5-MIN KABI 180345Z 13004KT 9SM CLR 15/12 A2985 1860 83 2300 120/04 RMK AO2 T01500122
13962KABI ABI20160317215011003/17/16 21:50:31  5-MIN KABI 180350Z 13005KT 9SM CLR 14/12 A2985 1860 86 2300 130/05 RMK AO2 SLP096 T01440122
13962KABI ABI20160317215510303/17/16 21:55:31  5-MIN KABI 180355Z 13005KT 9SM CLR 14/12 A2985 1860 86 2300 130/05 RMK AO2 T01440122
13962KABI ABI20160317220010303/17/16 22:00:31  5-MIN KABI 180400Z 13005KT 9SM CLR 14/12 A2985 1860 86 2300 120/05 RMK AO2 T01440122
13962KABI ABI20160317220510303/17/16 22:05:31  5-MIN KABI 180405Z 12005KT 9SM CLR 15/12 A2985 1860 83 2300 120/05 RMK AO2 T01500122
13962KABI ABI20160317221010303/17/16 22:10:31  5-MIN KABI 180410Z 11006KT 9SM CLR 16/13 A2985 1860 83 2400 100/06 RMK AO2 T01560128
13962KABI ABI20160317221510303/17/16 22:15:31  5-MIN KABI 180415Z 12006KT 9SM CLR 16/13 A2985 1860 83 2400 120/06 RMK AO2 T01560128
13962KABI ABI20160317222010303/17/16 22:20:31  5-MIN KABI 180420Z 13007KT 9SM CLR 16/13 A2985 1860 83 2400 120/07 RMK AO2 T01560128
13962KABI ABI20160317222510303/17/16 22:25:31  5-MIN KABI 180425Z 13006KT 9SM CLR 15/12 A2985 1860 83 2300 130/06 RMK AO2 T01500122
13962KABI ABI20160317223010303/17/16 22:30:31  5-MIN KABI 180430Z 14007KT 9SM CLR 14/12 A2985 1860 86 2300 130/07 RMK AO2 T01440122
13962KABI ABI20160317223510403/17/16 22:35:31  5-MIN KABI 180435Z 13007KT 10SM CLR 15/12 A2985 1860 83 2300 120/07 RMK AO2 T01500122
13962KABI ABI20160317224010403/17/16 22:40:31  5-MIN KABI 180440Z 13007KT 10SM CLR 15/12 A2985 1860 83 2300 120/07 RMK AO2 T01500122
13962KABI ABI20160317224510403/17/16 22:45:31  5-MIN KABI 180445Z 11006KT 10SM CLR 15/12 A2985 1860 83 2300 110/06 RMK AO2 T01500122
13962KABI ABI20160317225011103/17/16 22:50:31  5-MIN KABI 180450Z 10006KT 10SM CLR 15/12 A2985 1860 83 2300 090/06 RMK AO2 SLP095 T01500122
13962KABI ABI20160317225510403/17/16 22:55:31  5-MIN KABI 180455Z 10006KT 10SM CLR 16/12 A2985 1860 80 2400 100/06 RMK AO2 T01560122
13962KABI ABI20160317230010403/17/16 23:00:31  5-MIN KABI 180500Z 11005KT 10SM CLR 15/12 A2985 1860 83 2300 100/05 RMK AO2 T01500122
13962KABI ABI20160317230510403/17/16 23:05:31  5-MIN KABI 180505Z 10003KT 10SM CLR 15/12 A2985 1860 83 2300 100/03 RMK AO2 T01500122
13962KABI ABI20160317231010403/17/16 23:10:31  5-MIN KABI 180510Z 09004KT 10SM CLR 15/12 A2985 1860 83 2300 080/04 RMK AO2 T01500122
13962KABI ABI20160317231510403/17/16 23:15:31  5-MIN KABI 180515Z 09004KT 10SM CLR 15/12 A2985 1860 83 2300 080/04 RMK AO2 T01500122
13962KABI ABI20160317232010403/17/16 23:20:31  5-MIN KABI 180520Z 11004KT 10SM CLR 15/12 A2985 1860 83 2300 110/04 RMK AO2 T01500122
13962KABI ABI20160317232510403/17/16 23:25:31  5-MIN KABI 180525Z 11005KT 10SM CLR 15/12 A2984 1860 83 2300 110/05 RMK AO2 T01500122
13962KABI ABI20160317233010403/17/16 23:30:31  5-MIN KABI 180530Z 11005KT 10SM CLR 14/12 A2984 1860 86 2300 110/05 RMK AO2 T01440122
13962KABI ABI20160317233510403/17/16 23:35:31  5-MIN KABI 180535Z 10004KT 10SM CLR 15/12 A2984 1870 83 2300 090/04 RMK AO2 T01500122
13962KABI ABI20160317234010403/17/16 23:40:31  5-MIN KABI 180540Z 12006KT 10SM CLR 14/12 A2984 1870 86 2300 110/06 RMK AO2 T01440122
13962KABI ABI20160317234510303/17/16 23:45:31  5-MIN KABI 180545Z 13007KT 9SM CLR 14/12 A2984 1870 86 2300 120/07 RMK AO2 T01440122
13962KABI ABI20160317235013803/17/16 23:50:31  5-MIN KABI 180550Z 13007KT 9SM CLR 14/12 A2983 1870 86 2300 120/07 RMK AO2 SLP089 T01440122 10228 20144 402330094 51009
13962KABI ABI20160317235510303/17/16 23:55:31  5-MIN KABI 180555Z 13008KT 9SM CLR 14/12 A2983 1880 86 2300 120/08 RMK AO2 T01440122
13962KABI ABI20160318000010303/18/16 00:00:31  5-MIN KABI 180600Z 12007KT 9SM CLR 14/12 A2983 1880 86 2300 120/07 RMK AO2 T01440122
13962KABI ABI20160318000510303/18/16 00:05:31  5-MIN KABI 180605Z 12007KT 9SM CLR 14/12 A2983 1880 86 2300 110/07 RMK AO2 T01440122
13962KABI ABI20160318001010303/18/16 00:10:31  5-MIN KABI 180610Z 12007KT 9SM CLR 14/12 A2983 1880 86 2300 110/07 RMK AO2 T01440122
13962KABI ABI20160318001510303/18/16 00:15:31  5-MIN KABI 180615Z 12006KT 9SM CLR 14/12 A2983 1880 86 2300 110/06 RMK AO2 T01440122
13962KABI ABI20160318002010303/18/16 00:20:31  5-MIN KABI 180620Z 12007KT 9SM CLR 14/12 A2983 1880 86 2300 120/07 RMK AO2 T01440122
13962KABI ABI20160318002510303/18/16 00:25:31  5-MIN KABI 180625Z 13008KT 9SM CLR 14/12 A2983 1880 90 2200 120/08 RMK AO2 T01390122
13962KABI ABI20160318003010303/18/16 00:30:31  5-MIN KABI 180630Z 12007KT 9SM CLR 14/12 A2983 1880 86 2300 120/07 RMK AO2 T01440122
13962KABI ABI20160318003510303/18/16 00:35:31  5-MIN KABI 180635Z 13007KT 9SM CLR 14/12 A2983 1880 90 2200 120/07 RMK AO2 T01390122
13962KABI ABI20160318004010303/18/16 00:40:31  5-MIN KABI 180640Z 12007KT 9SM CLR 14/12 A2983 1880 90 2200 120/07 RMK AO2 T01390122
13962KABI ABI20160318004510303/18/16 00:45:31  5-MIN KABI 180645Z 12007KT 8SM CLR 14/12 A2983 1880 90 2200 120/07 RMK AO2 T01390122
13962KABI ABI20160318005011003/18/16 00:50:31  5-MIN KABI 180650Z 11006KT 8SM CLR 14/12 A2982 1880 90 2200 110/06 RMK AO2 SLP085 T01390122
13962KABI ABI20160318005510303/18/16 00:55:31  5-MIN KABI 180655Z 13006KT 8SM CLR 14/12 A2982 1880 90 2200 120/06 RMK AO2 T01390122
13962KABI ABI20160318010010303/18/16 01:00:31  5-MIN KABI 180700Z 14006KT 8SM CLR 13/12 A2982 1880 93 2200 130/06 RMK AO2 T01330122
13962KABI ABI20160318010510303/18/16 01:05:31  5-MIN KABI 180705Z 15004KT 8SM CLR 13/12 A2982 1890 93 2200 150/04 RMK AO2 T01330122
13962KABI ABI20160318011010303/18/16 01:10:31  5-MIN KABI 180710Z 14004KT 7SM CLR 13/12 A2982 1890 93 2100 140/04 RMK AO2 T01280117
13962KABI ABI20160318011510303/18/16 01:15:31  5-MIN KABI 180715Z 13003KT 7SM CLR 13/12 A2982 1880 93 2100 130/03 RMK AO2 T01280117
13962KABI ABI20160318012010303/18/16 01:20:31  5-MIN KABI 180720Z 11003KT 8SM CLR 13/12 A2982 1890 89 2200 110/03 RMK AO2 T01330117
13962KABI ABI20160318012510303/18/16 01:25:31  5-MIN KABI 180725Z 13003KT 8SM CLR 14/12 A2982 1890 90 2200 120/03 RMK AO2 T01390122
13962KABI ABI20160318013010303/18/16 01:30:31  5-MIN KABI 180730Z 14006KT 8SM CLR 13/12 A2982 1890 93 2100 140/06 RMK AO2 T01280117
13962KABI ABI20160318013510303/18/16 01:35:31  5-MIN KABI 180735Z 14008KT 7SM CLR 13/12 A2982 1890 93 2100 140/08 RMK AO2 T01280117
13962KABI ABI20160318014010303/18/16 01:40:31  5-MIN KABI 180740Z 14008KT 7SM CLR 13/12 A2981 1890 93 2100 140/08 RMK AO2 T01280117
13962KABI ABI20160318014510303/18/16 01:45:31  5-MIN KABI 180745Z 14009KT 7SM CLR 13/12 A2981 1890 93 2100 140/09 RMK AO2 T01280117
13962KABI ABI20160318015011003/18/16 01:50:31  5-MIN KABI 180750Z 14010KT 7SM CLR 13/12 A2981 1890 96 2100 140/10 RMK AO2 SLP079 T01280122
13962KABI ABI20160318015510303/18/16 01:55:31  5-MIN KABI 180755Z 14010KT 7SM CLR 13/12 A2981 1900 96 2100 140/10 RMK AO2 T01280122
13962KABI ABI20160318020010603/18/16 02:00:31  5-MIN KABI 180800Z 15009KT 7SM FEW006 13/12 A2981 1900 96 2100 140/09 RMK AO2 T01280122
13962KABI ABI20160318020510903/18/16 02:05:31  5-MIN KABI 180805Z 15010KT 6SM BR SCT006 13/13 A2981 1900 96 2200 140/10 RMK AO2 T01330128
13962KABI ABI20160318021010903/18/16 02:10:31  5-MIN KABI 180810Z 15012KT 6SM BR BKN006 13/13 A2980 1900 96 2200 140/12 RMK AO2 T01330128
13962KABI ABI20160318021510903/18/16 02:15:31  5-MIN KABI 180815Z 15011KT 6SM BR BKN005 14/13 A2980 1900 96 2300 140/11 RMK AO2 T01390133
13962KABI ABI20160318022010903/18/16 02:20:31  5-MIN KABI 180820Z 15012KT 5SM BR BKN005 14/13 A2980 1900 96 2300 150/12 RMK AO2 T01390133
13962KABI ABI20160318022510903/18/16 02:25:31  5-MIN KABI 180825Z 15010KT 5SM BR OVC005 14/13 A2980 1900 96 2300 150/10 RMK AO2 T01390133
13962KABI ABI20160318023011003/18/16 02:30:31  5-MIN KABI 180830Z 15012KT 4SM BR OVC004 14/14 A2980 1900 100 2300 150/12 RMK AO2 T01390139
13962KABI ABI20160318023511003/18/16 02:35:31  5-MIN KABI 180835Z 15013KT 4SM BR OVC004 14/14 A2980 1910 100 2300 140/13 RMK AO2 T01390139
13962KABI ABI20160318024011003/18/16 02:40:31  5-MIN KABI 180840Z 15013KT 3SM BR OVC004 14/14 A2980 1910 100 2300 140/13 RMK AO2 T01390139
13962KABI ABI20160318024511403/18/16 02:45:31  5-MIN KABI 180845Z 15012KT 2 1/2SM BR OVC003 14/14 A2979 1910 100 2300 140/12 RMK AO2 T01390139
13962KABI ABI20160318025011403/18/16 02:50:31  5-MIN KABI 180850Z 15014KT 1 3/4SM BR OVC003 14/14 A2979 1910 100 2300 140/14 RMK AO2 T01390139
13962KABI ABI20160318025511403/18/16 02:55:31  5-MIN KABI 180855Z 15011KT 1 1/4SM BR OVC002 14/14 A2979 1910 100 2300 140/11 RMK AO2 T01390139
13962KABI ABI20160318030011403/18/16 03:00:31  5-MIN KABI 180900Z 14011KT 1 1/4SM BR OVC002 14/14 A2979 1910 100 2300 140/11 RMK AO2 T01390139
13962KABI ABI20160318030511403/18/16 03:05:31  5-MIN KABI 180905Z 14009KT 1 1/4SM BR OVC002 14/14 A2979 1910 100 2300 140/09 RMK AO2 T01390139
13962KABI ABI20160318031011403/18/16 03:10:31  5-MIN KABI 180910Z 14009KT 1 1/4SM BR OVC002 14/14 A2979 1910 100 2300 140/09 RMK AO2 T01390139
13962KABI ABI20160318031511403/18/16 03:15:31  5-MIN KABI 180915Z 15010KT 1 1/2SM BR OVC002 14/14 A2979 1910 100 2300 140/10 RMK AO2 T01390139
13962KABI ABI20160318032011003/18/16 03:20:31  5-MIN KABI 180920Z 15008KT 2SM BR OVC002 14/14 A2979 1920 100 2300 140/08 RMK AO2 T01390139
13962KABI ABI20160318032511403/18/16 03:25:31  5-MIN KABI 180925Z 14008KT 2 1/2SM BR OVC002 14/14 A2979 1920 100 2300 140/08 RMK AO2 T01390139
13962KABI ABI20160318033011003/18/16 03:30:31  5-MIN KABI 180930Z 14007KT 3SM BR OVC002 14/14 A2979 1920 100 2300 140/07 RMK AO2 T01390139
13962KABI ABI20160318033511003/18/16 03:35:31  5-MIN KABI 180935Z 14007KT 3SM BR OVC002 14/14 A2979 1920 100 2300 140/07 RMK AO2 T01390139
13962KABI ABI20160318034011003/18/16 03:40:31  5-MIN KABI 180940Z 14006KT 4SM BR OVC002 14/14 A2979 1920 100 2300 130/06 RMK AO2 T01390139
13962KABI ABI20160318034511003/18/16 03:45:31  5-MIN KABI 180945Z 14007KT 4SM BR OVC003 14/14 A2979 1920 100 2300 140/07 RMK AO2 T01390139
13962KABI ABI20160318035011703/18/16 03:50:31  5-MIN KABI 180950Z 14008KT 4SM BR OVC003 14/14 A2979 1920 100 2300 130/08 RMK AO2 SLP068 T01390139
13962KABI ABI20160318035511003/18/16 03:55:31  5-MIN KABI 180955Z 14010KT 4SM BR OVC003 14/14 A2978 1920 100 2300 140/10 RMK AO2 T01390139
13962KABI ABI20160318040011003/18/16 04:00:31  5-MIN KABI 181000Z 14011KT 3SM BR OVC003 14/14 A2978 1920 100 2300 140/11 RMK AO2 T01390139
13962KABI ABI20160318040511403/18/16 04:05:31  5-MIN KABI 181005Z 14011KT 2 1/2SM BR OVC003 14/14 A2979 1920 100 2300 140/11 RMK AO2 T01390139
13962KABI ABI20160318041011403/18/16 04:10:31  5-MIN KABI 181010Z 14011KT 1 3/4SM BR OVC002 14/14 A2979 1920 100 2300 140/11 RMK AO2 T01390139
13962KABI ABI20160318041511403/18/16 04:15:31  5-MIN KABI 181015Z 14010KT 1 1/2SM BR OVC002 14/14 A2979 1920 100 2300 140/10 RMK AO2 T01390139
13962KABI ABI20160318042011403/18/16 04:20:31  5-MIN KABI 181020Z 14009KT 1 3/4SM BR OVC002 14/14 A2979 1910 100 2300 140/09 RMK AO2 T01390139
13962KABI ABI20160318042511403/18/16 04:25:31  5-MIN KABI 181025Z 14010KT 1 3/4SM BR OVC002 14/14 A2979 1910 100 2300 140/10 RMK AO2 T01390139
13962KABI ABI20160318043011403/18/16 04:30:31  5-MIN KABI 181030Z 14008KT 1 3/4SM BR OVC002 14/14 A2979 1910 100 2300 140/08 RMK AO2 T01390139
13962KABI ABI20160318043511403/18/16 04:35:31  5-MIN KABI 181035Z 14009KT 1 1/2SM BR OVC002 14/14 A2979 1910 100 2300 140/09 RMK AO2 T01390139
13962KABI ABI20160318044011403/18/16 04:40:31  5-MIN KABI 181040Z 15009KT 1 1/2SM BR OVC002 14/14 A2979 1910 100 2300 140/09 RMK AO2 T01390139
13962KABI ABI20160318044511403/18/16 04:45:31  5-MIN KABI 181045Z 15007KT 1 1/2SM BR OVC002 14/14 A2979 1910 100 2300 150/07 RMK AO2 T01390139
13962KABI ABI20160318045012103/18/16 04:50:31  5-MIN KABI 181050Z 15008KT 1 1/2SM BR OVC002 14/14 A2979 1910 100 2300 140/08 RMK AO2 SLP069 T01390139
13962KABI ABI20160318045511403/18/16 04:55:31  5-MIN KABI 181055Z 15007KT 1 1/2SM BR OVC002 14/14 A2979 1910 100 2300 140/07 RMK AO2 T01390139
13962KABI ABI20160318050011403/18/16 05:00:31  5-MIN KABI 181100Z 14007KT 1 1/2SM BR OVC002 14/14 A2979 1910 100 2300 140/07 RMK AO2 T01390139
13962KABI ABI20160318050511403/18/16 05:05:31  5-MIN KABI 181105Z 14006KT 1 3/4SM BR OVC002 14/14 A2979 1910 100 2300 140/06 RMK AO2 T01390139
13962KABI ABI20160318051011003/18/16 05:10:31  5-MIN KABI 181110Z 14005KT 2SM BR OVC002 14/14 A2979 1910 100 2300 130/05 RMK AO2 T01390139
13962KABI ABI20160318051511003/18/16 05:15:31  5-MIN KABI 181115Z 14005KT 3SM BR OVC002 14/14 A2979 1910 100 2300 140/05 RMK AO2 T01390139
13962KABI ABI20160318052011003/18/16 05:20:31  5-MIN KABI 181120Z 15006KT 4SM BR OVC002 14/14 A2979 1910 100 2300 140/06 RMK AO2 T01390139
13962KABI ABI20160318052511003/18/16 05:25:31  5-MIN KABI 181125Z 16005KT 4SM BR OVC002 13/13 A2979 1910 100 2200 150/05 RMK AO2 T01330133
13962KABI ABI20160318053011003/18/16 05:30:31  5-MIN KABI 181130Z 16004KT 4SM BR OVC002 13/13 A2979 1910 100 2200 160/04 RMK AO2 T01330133
13962KABI ABI20160318053511003/18/16 05:35:31  5-MIN KABI 181135Z 16005KT 4SM BR BKN002 13/13 A2979 1910 100 2200 150/05 RMK AO2 T01330133
13962KABI ABI20160318054011003/18/16 05:40:31  5-MIN KABI 181140Z 16006KT 4SM BR BKN002 13/13 A2979 1910 100 2200 150/06 RMK AO2 T01330133
13962KABI ABI20160318054511003/18/16 05:45:31  5-MIN KABI 181145Z 17005KT 4SM BR BKN002 13/13 A2979 1910 100 2200 160/05 RMK AO2 T01330133
13962KABI ABI20160318055010003/18/16 05:50:31  5-MIN KABI 181150Z 15005KT 4SM BR SCT002 13/13 A2979 1910 100 2200 150/05 RMK AO2
13962KABI ABI20160318055511003/18/16 05:55:31  5-MIN KABI 181155Z 15005KT 4SM BR FEW002 13/13 A2979 1910 100 2200 150/05 RMK AO2 T01330133
13962KABI ABI20160318060011003/18/16 06:00:31  5-MIN KABI 181200Z 14005KT 5SM BR FEW002 13/13 A2980 1910 100 2100 140/05 RMK AO2 T01280128
13962KABI ABI20160318060511003/18/16 06:05:31  5-MIN KABI 181205Z 14007KT 5SM BR FEW002 13/13 A2980 1910 100 2100 140/07 RMK AO2 T01280128
13962KABI ABI20160318061010703/18/16 06:10:31  5-MIN KABI 181210Z 14006KT 5SM BR CLR 13/13 A2980 1910 100 2200 140/06 RMK AO2 T01330133
13962KABI ABI20160318061510703/18/16 06:15:31  5-MIN KABI 181215Z 14006KT 5SM BR CLR 13/13 A2980 1900 100 2200 130/06 RMK AO2 T01330133
13962KABI ABI20160318062010603/18/16 06:20:31  5-MIN KABI 181220Z 14005KT 5SM BR CLR 13/13 A2980 1900 96 2200 140/05 RMK AO2 T01330128
13962KABI ABI20160318062510703/18/16 06:25:31  5-MIN KABI 181225Z 15004KT 5SM BR CLR 13/13 A2980 1900 100 2100 140/04 RMK AO2 T01280128
13962KABI ABI20160318063010703/18/16 06:30:31  5-MIN KABI 181230Z 15004KT 4SM BR CLR 13/13 A2980 1900 100 2100 140/04 RMK AO2 T01280128
13962KABI ABI20160318063511103/18/16 06:35:31  5-MIN KABI 181235Z 16004KT 2 1/2SM BR CLR 13/13 A2980 1900 100 2200 160/04 RMK AO2 T01330133
13962KABI ABI20160318064011103/18/16 06:40:31  5-MIN KABI 181240Z 17003KT 1 3/4SM BR CLR 13/13 A2980 1900 100 2200 170/03 RMK AO2 T01330133
13962KABI ABI20160318064511503/18/16 06:45:31  5-MIN KABI 181245Z 16003KT 3/4SM BR CLR 13/13 A2980 1900 100 2200 160/03 RMK AO2 T01330133 RVRNO
13962KABI ABI20160318065010403/18/16 06:50:31  5-MIN KABI 181250Z 14004KT 1/2SM FG CLR 13/13 A2980 1900 96 2200 130/04 RMK AO2 RVRNO
13962KABI ABI20160318065511403/18/16 06:55:31  5-MIN KABI 181255Z 15003KT 3/4SM BR CLR 13/13 A2980 1900 96 2200 140/03 RMK AO2 T01330128 RVRNO
13962KABI ABI20160318070011103/18/16 07:00:31  5-MIN KABI 181300Z 14003KT 2 1/2SM BR CLR 12/12 A2980 1900 100 2100 140/03 RMK AO2 T01220122
13962KABI ABI20160318070510703/18/16 07:05:31  5-MIN KABI 181305Z 15004KT 2SM BR CLR 13/13 A2980 1900 100 2100 150/04 RMK AO2 T01280128
13962KABI ABI20160318071011103/18/16 07:10:31  5-MIN KABI 181310Z 16003KT 1 1/4SM BR CLR 13/13 A2980 1900 100 2100 160/03 RMK AO2 T01280128
13962KABI ABI20160318071511503/18/16 07:15:31  5-MIN KABI 181315Z 00000KT 3/4SM BR CLR 13/13 A2980 1900 100 2200 000/00 RMK AO2 T01330133 RVRNO
13962KABI ABI20160318072011703/18/16 07:20:31  5-MIN KABI 181320Z 00000KT 1/4SM FG VV010 12/12 A2980 1900 100 2100 000/00 RMK AO2 T01220122 RVRNO
13962KABI ABI20160318072511803/18/16 07:25:31  5-MIN KABI 181325Z 00000KT M1/4SM FG VV010 12/12 A2981 1900 100 2100 000/00 RMK AO2 T01220122 RVRNO
13962KABI ABI20160318073011703/18/16 07:30:31  5-MIN KABI 181330Z 36005KT 1/4SM FG VV011 13/13 A2982 1880 100 2100 360/05 RMK AO2 T01280128 RVRNO
13962KABI ABI20160318073513103/18/16 07:35:31  5-MIN KABI 181335Z 34017KT 3/4SM BR FEW002 BKN009 13/13 A2984 1860 96 2100 340/17 RMK AO2 PRESRR T01330128 RVRNO
13962KABI ABI20160318074012703/18/16 07:40:31  5-MIN KABI 181340Z 34005KT 1 1/4SM BR FEW002 BKN009 BKN012 14/13 A2984 1870 96 2200 330/05 RMK AO2 T01390133
13962KABI ABI20160318074511703/18/16 07:45:31  5-MIN KABI 181345Z 34009KT 3SM BR SCT002 OVC009 14/14 A2985 1860 100 2200 330/09 RMK AO2 T01390139
13962KABI ABI20160318075012403/18/16 07:50:31  5-MIN KABI 181350Z 34004KT 4SM BR FEW004 BKN009 14/14 A2985 1860 100 2300 330/04 RMK AO2 SLP091 T01440144
13962KABI ABI20160318075512403/18/16 07:55:31  5-MIN KABI 181355Z 34004KT 4SM BR SCT004 BKN010 BKN015 14/14 A2985 1860 100 2300 330/04 RMK AO2 T01440144
13962KABI ABI20160318080012403/18/16 08:00:31  5-MIN KABI 181400Z 35005KT 4SM BR FEW004 BKN010 OVC017 14/14 A2985 1860 100 2300 350/05 RMK AO2 T01440144
13962KABI ABI20160318080512403/18/16 08:05:31  5-MIN KABI 181405Z 36003KT 4SM BR FEW004 BKN012 OVC017 14/14 A2985 1860 100 2300 350/03 RMK AO2 T01440144
13962KABI ABI20160318081011703/18/16 08:10:31  5-MIN KABI 181410Z 33004KT 4SM BR BKN012 OVC017 14/14 A2986 1850 100 2300 330/04 RMK AO2 T01440144
13962KABI ABI20160318081512403/18/16 08:15:31  5-MIN KABI 181415Z 33003KT 4SM BR FEW004 BKN012 OVC017 14/14 A2986 1850 100 2300 330/03 RMK AO2 T01440144
13962KABI ABI20160318082012303/18/16 08:20:31  5-MIN KABI 181420Z 33012KT 4SM BR SCT004 BKN010 OVC017 15/14 A2986 1840 96 2300 330/12 RMK AO2 T01500144
13962KABI ABI20160318082513503/18/16 08:25:31  5-MIN KABI 181425Z 32010KT 3SM BR BKN004 BKN010 OVC019 14/14 A2987 1840 96 2200 320/10 RMK AO2 CIG 002V007 T01440139
13962KABI ABI20160318083014103/18/16 08:30:31  5-MIN KABI 181430Z 33013KT 1/8SM BR BKN002 BKN012 OVC019 14/14 A2987 1840 96 2200 320/13 RMK AO2 SFC VIS 1 T01440139 RVRNO
13962KABI ABI20160318083513703/18/16 08:35:31  5-MIN KABI 181435Z 32009KT 1/8SM FG BKN002 OVC012 14/14 A2987 1840 100 2200 320/09 RMK AO2 SFC VIS 1/2 T01390139 RVRNO
13962KABI ABI20160318084012903/18/16 08:40:31  5-MIN KABI 181440Z 33009KT 1/8SM FG VV002 14/14 A2988 1830 100 2200 330/09 RMK AO2 SFC VIS 1/2 T01390139 RVRNO
13962KABI ABI20160318084512903/18/16 08:45:31  5-MIN KABI 181445Z 33008KT 1/8SM FG VV002 14/14 A2988 1830 100 2200 330/08 RMK AO2 SFC VIS 1/2 T01390139 RVRNO
13962KABI ABI20160318085014203/18/16 08:50:31  5-MIN KABI 181450Z 32008KT 1/8SM FG VV002 14/14 A2988 1830 100 2200 320/08 RMK AO2 SFC VIS 1/2 SLP105 T01390139 55000 RVRNO
13962KABI ABI20160318085512903/18/16 08:55:31  5-MIN KABI 181455Z 32009KT 1/8SM FG VV002 14/14 A2989 1820 100 2200 320/09 RMK AO2 SFC VIS 1/4 T01390139 RVRNO
13962KABI ABI20160318090012903/18/16 09:00:31  5-MIN KABI 181500Z 33009KT 1/8SM FG VV002 14/14 A2989 1820 100 2200 320/09 RMK AO2 SFC VIS 1/4 T01390139 RVRNO
13962KABI ABI20160318090512903/18/16 09:05:31  5-MIN KABI 181505Z 33012KT 1/8SM FG VV002 14/14 A2989 1820 100 2200 330/12 RMK AO2 SFC VIS 1/4 T01390139 RVRNO
13962KABI ABI20160318091012903/18/16 09:10:31  5-MIN KABI 181510Z 35013KT 1/8SM FG VV002 13/13 A2989 1820 100 2100 350/13 RMK AO2 SFC VIS 1/4 T01330133 RVRNO
13962KABI ABI20160318091512903/18/16 09:15:31  5-MIN KABI 181515Z 35013KT 1/8SM FG VV002 13/13 A2989 1820 100 2100 340/13 RMK AO2 SFC VIS 1/4 T01330133 RVRNO
13962KABI ABI20160318092012903/18/16 09:20:31  5-MIN KABI 181520Z 35012KT 1/8SM FG VV002 13/13 A2989 1820 100 2100 340/12 RMK AO2 SFC VIS 1/4 T01330133 RVRNO
13962KABI ABI20160318092512903/18/16 09:25:31  5-MIN KABI 181525Z 34013KT 1/8SM FG VV002 13/13 A2990 1810 100 2100 340/13 RMK AO2 SFC VIS 1/4 T01330133 RVRNO
13962KABI ABI20160318093012903/18/16 09:30:31  5-MIN KABI 181530Z 35009KT 1/8SM FG VV002 13/13 A2990 1810 100 2000 340/09 RMK AO2 SFC VIS 1/4 T01280128 RVRNO
13962KABI ABI20160318093512903/18/16 09:35:31  5-MIN KABI 181535Z 34013KT 1/8SM FG VV002 13/13 A2990 1810 100 2000 330/13 RMK AO2 SFC VIS 1/4 T01280128 RVRNO
13962KABI ABI20160318094012903/18/16 09:40:31  5-MIN KABI 181540Z 34012KT 1/8SM FG VV002 13/13 A2990 1810 100 2000 340/12 RMK AO2 SFC VIS 1/4 T01280128 RVRNO
13962KABI ABI20160318094512903/18/16 09:45:31  5-MIN KABI 181545Z 34011KT 1/8SM FG VV002 13/13 A2990 1810 100 2000 330/11 RMK AO2 SFC VIS 1/4 T01280128 RVRNO
13962KABI ABI20160318095013603/18/16 09:50:31  5-MIN KABI 181550Z 34012KT 1/8SM FG VV002 12/12 A2991 1810 100 1900 330/12 RMK AO2 SFC VIS 1/4 SLP116 T01220122 RVRNO
13962KABI ABI20160318193511303/18/16 19:35:31  5-MIN KABI 190135Z 03011G17KT 10SM OVC032 10/03 A3006 1670 63 1500 020/11G17 RMK AO2 T01000033
13962KABI ABI20160318194010703/18/16 19:40:31  5-MIN KABI 190140Z 03009KT 10SM OVC034 10/03 A3006 1660 63 1500 030/09 RMK AO2 T01000033
13962KABI ABI20160318194511403/18/16 19:45:31  5-MIN KABI 190145Z 03009KT 10SM BKN034 OVC043 10/03 A3007 1660 63 1500 030/09 RMK AO2 T01000033
13962KABI ABI20160318195012103/18/16 19:50:31  5-MIN KABI 190150Z 03011KT 10SM BKN034 OVC043 10/03 A3007 1660 63 1500 020/11 RMK AO2 SLP173 T01000033
13962KABI ABI20160318195512003/18/16 19:55:31  5-MIN KABI 190155Z 03013G20KT 10SM SCT035 OVC043 10/03 A3007 1650 63 1500 030/13G20 RMK AO2 T01000033
13962KABI ABI20160318200012003/18/16 20:00:31  5-MIN KABI 190200Z 03012G20KT 10SM FEW035 OVC043 11/03 A3008 1650 61 1500 030/12G20 RMK AO2 T01060033
13962KABI ABI20160318200511303/18/16 20:05:31  5-MIN KABI 190205Z 03012G18KT 10SM OVC043 10/03 A3008 1640 63 1500 020/12G18 RMK AO2 T01000033
13962KABI ABI20160318201011303/18/16 20:10:31  5-MIN KABI 190210Z 03011G18KT 10SM OVC043 11/03 A3009 1640 61 1500 030/11G18 RMK AO2 T01060033
13962KABI ABI20160318201511303/18/16 20:15:31  5-MIN KABI 190215Z 03010G19KT 10SM OVC043 11/03 A3009 1630 61 1500 030/10G19 RMK AO2 T01060033
13962KABI ABI20160318202011303/18/16 20:20:31  5-MIN KABI 190220Z 03009G19KT 10SM OVC043 11/03 A3010 1630 61 1500 030/09G19 RMK AO2 T01060033
13962KABI ABI20160318202511303/18/16 20:25:31  5-MIN KABI 190225Z 04011G21KT 10SM OVC043 11/03 A3010 1630 61 1500 030/11G21 RMK AO2 T01060033
13962KABI ABI20160318203011303/18/16 20:30:31  5-MIN KABI 190230Z 02016G25KT 10SM OVC041 11/03 A3010 1630 61 1500 020/16G25 RMK AO2 T01060033
13962KABI ABI20160318203513803/18/16 20:35:31  5-MIN KABI 190235Z 01017G26KT 10SM BKN036 OVC043 10/04 A3010 1620 65 1400 010/17G26 RMK AO2 PK WND 02026/0231 T01000039
13962KABI ABI20160318204013803/18/16 20:40:31  5-MIN KABI 190240Z 01017G26KT 10SM BKN033 OVC041 09/04 A3011 1620 68 1400 010/17G26 RMK AO2 PK WND 02026/0231 T00940039
13962KABI ABI20160318204512503/18/16 20:45:31  5-MIN KABI 190245Z 02015KT 10SM OVC035 09/04 A3011 1620 68 1400 010/15 RMK AO2 PK WND 02026/0231 T00940039
13962KABI ABI20160318205014403/18/16 20:50:31  5-MIN KABI 190250Z 02013G23KT 10SM OVC035 09/04 A3012 1610 68 1400 020/13G23 RMK AO2 PK WND 02026/0231 SLP191 T00940039 53008
13962KABI ABI20160318205511303/18/16 20:55:31  5-MIN KABI 190255Z 02013G23KT 10SM OVC035 09/03 A3012 1610 65 1400 020/13G23 RMK AO2 T00940033
13962KABI ABI20160318210011303/18/16 21:00:31  5-MIN KABI 190300Z 02017G25KT 10SM OVC035 09/03 A3012 1610 68 1300 010/17G25 RMK AO2 T00890033
13962KABI ABI20160318210512003/18/16 21:05:31  5-MIN KABI 190305Z 02016G25KT 10SM BKN035 OVC043 09/03 A3012 1610 68 1300 020/16G25 RMK AO2 T00890033
13962KABI ABI20160318211012003/18/16 21:10:31  5-MIN KABI 190310Z 02010G22KT 10SM BKN035 OVC043 09/03 A3012 1610 68 1300 010/10G22 RMK AO2 T00890033
13962KABI ABI20160318211512003/18/16 21:15:31  5-MIN KABI 190315Z 01013G21KT 10SM SCT035 OVC043 09/04 A3012 1610 71 1300 010/13G21 RMK AO2 T00890039
13962KABI ABI20160318212012003/18/16 21:20:31  5-MIN KABI 190320Z 01015G20KT 10SM SCT035 OVC043 09/04 A3012 1610 71 1300 010/15G20 RMK AO2 T00890039
13962KABI ABI20160318212511303/18/16 21:25:31  5-MIN KABI 190325Z 01017G21KT 10SM OVC041 09/04 A3012 1610 71 1300 360/17G21 RMK AO2 T00890039
13962KABI ABI20160318213011303/18/16 21:30:31  5-MIN KABI 190330Z 01017G21KT 10SM OVC041 09/03 A3012 1610 68 1300 010/17G21 RMK AO2 T00890033
13962KABI ABI20160318213510703/18/16 21:35:31  5-MIN KABI 190335Z 01018KT 10SM OVC042 09/03 A3012 1610 68 1300 010/18 RMK AO2 T00890033
13962KABI ABI20160318214011303/18/16 21:40:31  5-MIN KABI 190340Z 01018G24KT 10SM OVC042 08/03 A3012 1610 70 1200 360/18G24 RMK AO2 T00830033
13962KABI ABI20160318214510703/18/16 21:45:31  5-MIN KABI 190345Z 01020KT 10SM OVC042 08/03 A3011 1610 70 1200 360/20 RMK AO2 T00830033
13962KABI ABI20160318215012003/18/16 21:50:31  5-MIN KABI 190350Z 01016G24KT 10SM OVC040 08/03 A3012 1610 70 1200 010/16G24 RMK AO2 SLP193 T00830033
13962KABI ABI20160318215511303/18/16 21:55:31  5-MIN KABI 190355Z 01015G24KT 10SM OVC040 08/03 A3012 1610 70 1200 010/15G24 RMK AO2 T00830033
13962KABI ABI20160318220013103/18/16 22:00:31  5-MIN KABI 190400Z 01019G28KT 10SM OVC040 08/03 A3012 1610 68 1200 010/19G28 RMK AO2 PK WND 01028/0400 T00830028
13962KABI ABI20160318220513103/18/16 22:05:31  5-MIN KABI 190405Z 02018G28KT 10SM OVC038 08/03 A3012 1600 68 1200 010/18G28 RMK AO2 PK WND 01028/0400 T00830028
13962KABI ABI20160318221013103/18/16 22:10:31  5-MIN KABI 190410Z 01017G25KT 10SM OVC038 08/03 A3013 1600 68 1200 010/17G25 RMK AO2 PK WND 01028/0400 T00830028
13962KABI ABI20160318221513103/18/16 22:15:31  5-MIN KABI 190415Z 01015G23KT 10SM OVC038 08/03 A3013 1590 70 1100 010/15G23 RMK AO2 PK WND 01028/0400 T00780028
13962KABI ABI20160318222013103/18/16 22:20:31  5-MIN KABI 190420Z 01020G27KT 10SM OVC038 08/03 A3014 1590 70 1100 010/20G27 RMK AO2 PK WND 01028/0400 T00780028
13962KABI ABI20160318222513103/18/16 22:25:31  5-MIN KABI 190425Z 01016G27KT 10SM OVC038 08/03 A3014 1590 70 1100 010/16G27 RMK AO2 PK WND 01028/0400 T00780028
13962KABI ABI20160318223013103/18/16 22:30:31  5-MIN KABI 190430Z 01020G28KT 10SM OVC038 08/03 A3015 1580 70 1100 010/20G28 RMK AO2 PK WND 01028/0400 T00780028
13962KABI ABI20160318223513103/18/16 22:35:31  5-MIN KABI 190435Z 01020G28KT 10SM OVC038 08/03 A3014 1590 70 1100 360/20G28 RMK AO2 PK WND 01028/0400 T00780028
13962KABI ABI20160318224013103/18/16 22:40:31  5-MIN KABI 190440Z 01019G30KT 10SM OVC038 08/02 A3015 1590 68 1100 010/19G30 RMK AO2 PK WND 01030/0438 T00780022
13962KABI ABI20160318224513103/18/16 22:45:31  5-MIN KABI 190445Z 01021G31KT 10SM OVC038 07/02 A3015 1590 70 1100 010/21G31 RMK AO2 PK WND 01031/0444 T00720022
13962KABI ABI20160318225013803/18/16 22:50:31  5-MIN KABI 190450Z 01015G31KT 10SM OVC038 07/02 A3014 1590 70 1100 010/15G31 RMK AO2 PK WND 01031/0444 SLP202 T00720022
13962KABI ABI20160318225513803/18/16 22:55:31  5-MIN KABI 190455Z 01018G26KT 10SM FEW024 OVC038 07/02 A3014 1590 70 1100 360/18G26 RMK AO2 PK WND 36026/0453 T00720022
13962KABI ABI20160318230013803/18/16 23:00:31  5-MIN KABI 190500Z 01020G28KT 10SM SCT022 OVC038 07/02 A3015 1580 70 1100 010/20G28 RMK AO2 PK WND 01028/0457 T00720022
13962KABI ABI20160318230513803/18/16 23:05:31  5-MIN KABI 190505Z 01021G28KT 10SM SCT022 OVC038 07/02 A3015 1590 70 1100 360/21G28 RMK AO2 PK WND 01028/0457 T00720022
13962KABI ABI20160318231013803/18/16 23:10:31  5-MIN KABI 190510Z 01020G28KT 10SM BKN022 OVC038 07/02 A3015 1580 70 1100 360/20G28 RMK AO2 PK WND 36028/0507 T00720022
13962KABI ABI20160318231514503/18/16 23:15:31  5-MIN KABI 190515Z 01018G28KT 10SM BKN022 OVC038 07/02 A3017 1570 73 1000 360/18G28 RMK AO2 PK WND 36028/0507 PRESRR T00670022
13962KABI ABI20160318232013803/18/16 23:20:31  5-MIN KABI 190520Z 01020G27KT 10SM OVC022 07/02 A3017 1560 73 1000 010/20G27 RMK AO2 PK WND 36028/0507 PRESRR T00670022
13962KABI ABI20160318232513103/18/16 23:25:31  5-MIN KABI 190525Z 01019G27KT 10SM OVC022 07/02 A3017 1560 73 1000 010/19G27 RMK AO2 PK WND 36028/0507 T00670022
13962KABI ABI20160318233013003/18/16 23:30:31  5-MIN KABI 190530Z 36023G27KT 10SM OVC022 06/02 A3017 1560 73 900 360/23G27 RMK AO2 PK WND 36028/0507 T00610017
13962KABI ABI20160318233513703/18/16 23:35:31  5-MIN KABI 190535Z 01022G28KT 10SM BKN021 OVC035 06/02 A3018 1560 73 900 360/22G28 RMK AO2 PK WND 36028/0507 T00610017
13962KABI ABI20160318234013703/18/16 23:40:31  5-MIN KABI 190540Z 01017G28KT 10SM BKN021 OVC035 06/02 A3019 1550 73 900 360/17G28 RMK AO2 PK WND 36028/0507 T00610017
13962KABI ABI20160318234513703/18/16 23:45:31  5-MIN KABI 190545Z 01019G25KT 10SM BKN021 OVC035 06/02 A3019 1540 76 800 360/19G25 RMK AO2 PK WND 36028/0507 T00560017
13962KABI ABI20160318235017903/18/16 23:50:31  5-MIN KABI 190550Z 01018G25KT 10SM BKN021 OVC037 06/02 A3020 1530 76 800 360/18G25 RMK AO2 PK WND 36028/0507 PRESRR SLP224 T00560017 10106 20056 401500056 53039
13962KABI ABI20160318235512003/18/16 23:55:31  5-MIN KABI 190555Z 01018KT 10SM SCT021 OVC037 06/01 A3021 1530 73 800 360/18 RMK AO2 PRESRR T00560011
13962KABI ABI20160319000012603/19/16 00:00:31  5-MIN KABI 190600Z 01020G26KT 10SM BKN021 OVC037 06/01 A3022 1520 73 800 010/20G26 RMK AO2 PRESRR T00560011
13962KABI ABI20160319000511903/19/16 00:05:31  5-MIN KABI 190605Z 36016G26KT 10SM BKN021 OVC037 06/01 A3022 1520 73 800 360/16G26 RMK AO2 T00560011
13962KABI ABI20160319001011303/19/16 00:10:31  5-MIN KABI 190610Z 01016KT 10SM BKN021 OVC037 06/01 A3022 1520 73 800 010/16 RMK AO2 T00560011
13962KABI ABI20160319001511903/19/16 00:15:31  5-MIN KABI 190615Z 01015G22KT 10SM BKN021 OVC037 06/01 A3022 1520 73 800 360/15G22 RMK AO2 T00560011
13962KABI ABI20160319002011203/19/16 00:20:31  5-MIN KABI 190620Z 01015G25KT 10SM OVC021 06/01 A3022 1520 73 800 360/15G25 RMK AO2 T00560011
13962KABI ABI20160319002511203/19/16 00:25:31  5-MIN KABI 190625Z 01018G25KT 10SM OVC020 06/01 A3021 1520 73 800 010/18G25 RMK AO2 T00560011
13962KABI ABI20160319003011203/19/16 00:30:31  5-MIN KABI 190630Z 01015G24KT 10SM OVC020 06/01 A3021 1530 73 800 360/15G24 RMK AO2 T00560011
13962KABI ABI20160319003510603/19/16 00:35:31  5-MIN KABI 190635Z 01014KT 10SM OVC020 05/01 A3021 1530 76 700 360/14 RMK AO2 T00500011
13962KABI ABI20160319004011203/19/16 00:40:31  5-MIN KABI 190640Z 36018G23KT 10SM OVC019 05/01 A3021 1530 76 700 360/18G23 RMK AO2 T00500011
13962KABI ABI20160319004511903/19/16 00:45:31  5-MIN KABI 190645Z 01017G23KT 10SM BKN019 OVC033 05/01 A3021 1530 76 700 360/17G23 RMK AO2 T00500011
13962KABI ABI20160319005012003/19/16 00:50:31  5-MIN KABI 190650Z 36016KT 10SM BKN019 OVC033 05/01 A3021 1530 76 700 360/16 RMK AO2 SLP228 T00500011
13962KABI ABI20160319005511903/19/16 00:55:31  5-MIN KABI 190655Z 36018G23KT 10SM BKN019 OVC033 05/01 A3021 1530 76 700 360/18G23 RMK AO2 T00500011
13962KABI ABI20160319010011903/19/16 01:00:31  5-MIN KABI 190700Z 01020G25KT 10SM SCT019 OVC033 05/01 A3022 1520 76 700 360/20G25 RMK AO2 T00500011
13962KABI ABI20160319010511903/19/16 01:05:31  5-MIN KABI 190705Z 01015G25KT 10SM FEW019 OVC033 05/01 A3022 1520 73 700 010/15G25 RMK AO2 T00500006
13962KABI ABI20160319011011903/19/16 01:10:31  5-MIN KABI 190710Z 01017G24KT 10SM FEW019 OVC033 05/01 A3022 1510 73 700 010/17G24 RMK AO2 T00500006
13962KABI ABI20160319011511303/19/16 01:15:31  5-MIN KABI 190715Z 01015KT 10SM FEW019 OVC033 05/01 A3023 1510 76 700 360/15 RMK AO2 T00500011
13962KABI ABI20160319012011303/19/16 01:20:31  5-MIN KABI 190720Z 01013KT 10SM SCT018 OVC033 05/01 A3023 1510 76 700 010/13 RMK AO2 T00500011
13962KABI ABI20160319012511903/19/16 01:25:31  5-MIN KABI 190725Z 36018G23KT 10SM BKN018 OVC033 06/01 A3023 1510 73 800 360/18G23 RMK AO2 T00560011
13962KABI ABI20160319013011903/19/16 01:30:31  5-MIN KABI 190730Z 36016G23KT 10SM BKN018 OVC033 05/01 A3023 1510 76 700 360/16G23 RMK AO2 T00500011
13962KABI ABI20160319013511903/19/16 01:35:31  5-MIN KABI 190735Z 36017G23KT 10SM BKN018 OVC033 05/01 A3023 1500 76 700 350/17G23 RMK AO2 T00500011
13962KABI ABI20160319014011203/19/16 01:40:31  5-MIN KABI 190740Z 36017G22KT 10SM OVC018 04/01 A3023 1510 76 600 360/17G22 RMK AO2 T00440006
13962KABI ABI20160319014513003/19/16 01:45:31  5-MIN KABI 190745Z 01020G26KT 10SM OVC018 04/01 A3023 1510 76 600 360/20G26 RMK AO2 PK WND 36026/0745 T00440006
13962KABI ABI20160319015013703/19/16 01:50:31  5-MIN KABI 190750Z 01017G26KT 10SM OVC018 04/01 A3024 1500 76 600 360/17G26 RMK AO2 PK WND 36026/0745 SLP238 T00440006
13962KABI ABI20160319015513003/19/16 01:55:31  5-MIN KABI 190755Z 01019G26KT 10SM OVC018 04/01 A3024 1500 76 600 010/19G26 RMK AO2 PK WND 01026/0755 T00440006
13962KABI ABI20160319020013003/19/16 02:00:31  5-MIN KABI 190800Z 01017G26KT 10SM OVC018 04/01 A3024 1500 76 600 360/17G26 RMK AO2 PK WND 01026/0755 T00440006
13962KABI ABI20160319020513003/19/16 02:05:31  5-MIN KABI 190805Z 01016G24KT 10SM OVC018 04/01 A3024 1500 76 600 010/16G24 RMK AO2 PK WND 01026/0755 T00440006
13962KABI ABI20160319021013003/19/16 02:10:31  5-MIN KABI 190810Z 01019G25KT 10SM OVC018 04/01 A3024 1500 76 600 010/19G25 RMK AO2 PK WND 01026/0755 T00440006
13962KABI ABI20160319021513003/19/16 02:15:31  5-MIN KABI 190815Z 01017G25KT 10SM OVC019 04/01 A3024 1500 76 600 010/17G25 RMK AO2 PK WND 01026/0755 T00440006
13962KABI ABI20160319022013003/19/16 02:20:31  5-MIN KABI 190820Z 01018G24KT 10SM OVC019 04/01 A3025 1490 76 600 010/18G24 RMK AO2 PK WND 01026/0755 T00440006
13962KABI ABI20160319022512403/19/16 02:25:31  5-MIN KABI 190825Z 01017KT 10SM OVC019 04/01 A3025 1490 76 600 010/17 RMK AO2 PK WND 01026/0755 T00440006
13962KABI ABI20160319023013003/19/16 02:30:31  5-MIN KABI 190830Z 01017G23KT 10SM OVC019 04/01 A3024 1500 76 600 360/17G23 RMK AO2 PK WND 01026/0755 T00440006
13962KABI ABI20160319023512403/19/16 02:35:31  5-MIN KABI 190835Z 01012KT 10SM OVC019 04/01 A3024 1500 76 600 360/12 RMK AO2 PK WND 01026/0755 T00440006
13962KABI ABI20160319024013003/19/16 02:40:31  5-MIN KABI 190840Z 01016G23KT 10SM OVC019 04/01 A3024 1500 76 600 360/16G23 RMK AO2 PK WND 01026/0755 T00440006
13962KABI ABI20160319024513003/19/16 02:45:31  5-MIN KABI 190845Z 01015G23KT 10SM OVC019 04/00 A3024 1500 73 600 010/15G23 RMK AO2 PK WND 01026/0755 T00440000
13962KABI ABI20160319025014303/19/16 02:50:31  5-MIN KABI 190850Z 01016G22KT 10SM OVC019 04/00 A3024 1500 73 600 010/16G22 RMK AO2 PK WND 01026/0755 SLP238 T00440000 53027
13962KABI ABI20160319025511203/19/16 02:55:31  5-MIN KABI 190855Z 01014G21KT 10SM OVC021 04/00 A3023 1510 73 600 360/14G21 RMK AO2 T00440000
13962KABI ABI20160319030010603/19/16 03:00:31  5-MIN KABI 190900Z 01012KT 10SM OVC021 04/01 A3023 1500 76 600 360/12 RMK AO2 T00440006
13962KABI ABI20160319030511203/19/16 03:05:31  5-MIN KABI 190905Z 01016G23KT 10SM OVC021 04/01 A3023 1500 76 600 360/16G23 RMK AO2 T00440006
13962KABI ABI20160319031011203/19/16 03:10:31  5-MIN KABI 190910Z 01016G23KT 10SM OVC021 04/01 A3023 1510 76 600 360/16G23 RMK AO2 T00440006
13962KABI ABI20160319031510603/19/16 03:15:31  5-MIN KABI 190915Z 01015KT 10SM OVC021 04/00 A3023 1510 73 600 360/15 RMK AO2 T00440000
13962KABI ABI20160319032010603/19/16 03:20:31  5-MIN KABI 190920Z 36016KT 10SM OVC021 04/00 A3023 1500 73 600 360/16 RMK AO2 T00440000
13962KABI ABI20160319032510603/19/16 03:25:31  5-MIN KABI 190925Z 01016KT 10SM OVC021 04/00 A3023 1500 73 600 360/16 RMK AO2 T00440000
13962KABI ABI20160319033010603/19/16 03:30:31  5-MIN KABI 190930Z 01018KT 10SM OVC021 04/00 A3023 1500 73 600 360/18 RMK AO2 T00440000
13962KABI ABI20160319033510603/19/16 03:35:31  5-MIN KABI 190935Z 01015KT 10SM OVC021 04/00 A3023 1500 76 600 360/15 RMK AO2 T00390000
13962KABI ABI20160319034010603/19/16 03:40:31  5-MIN KABI 190940Z 36015KT 10SM OVC021 04/00 A3023 1510 76 600 360/15 RMK AO2 T00390000
13962KABI ABI20160319034510603/19/16 03:45:31  5-MIN KABI 190945Z 36018KT 10SM OVC021 04/00 A3023 1510 76 600 360/18 RMK AO2 T00390000
13962KABI ABI20160319035011303/19/16 03:50:31  5-MIN KABI 190950Z 36018KT 10SM OVC021 04/00 A3022 1510 76 600 360/18 RMK AO2 SLP233 T00390000
13962KABI ABI20160319035510603/19/16 03:55:31  5-MIN KABI 190955Z 01017KT 10SM OVC021 04/00 A3022 1510 76 600 360/17 RMK AO2 T00390000
13962KABI ABI20160319040010603/19/16 04:00:31  5-MIN KABI 191000Z 01018KT 10SM BKN021 04/00 A3023 1510 76 600 360/18 RMK AO2 T00390000
13962KABI ABI20160319040511203/19/16 04:05:31  5-MIN KABI 191005Z 36014G23KT 10SM OVC021 03/00 A3022 1510 79 500 350/14G23 RMK AO2 T00330000
13962KABI ABI20160319041011203/19/16 04:10:31  5-MIN KABI 191010Z 36016G22KT 10SM BKN021 03/00 A3023 1510 79 500 350/16G22 RMK AO2 T00330000
13962KABI ABI20160319041510603/19/16 04:15:31  5-MIN KABI 191015Z 36015KT 10SM BKN021 03/00 A3023 1510 79 500 360/15 RMK AO2 T00330000
13962KABI ABI20160319042010603/19/16 04:20:31  5-MIN KABI 191020Z 36018KT 10SM BKN021 03/00 A3023 1510 79 500 350/18 RMK AO2 T00330000
13962KABI ABI20160319042511203/19/16 04:25:31  5-MIN KABI 191025Z 36014G22KT 10SM BKN020 03/00 A3023 1510 79 500 360/14G22 RMK AO2 T00330000
13962KABI ABI20160319043011203/19/16 04:30:31  5-MIN KABI 191030Z 36015G22KT 10SM SCT020 03/00 A3023 1500 79 500 360/15G22 RMK AO2 T00330000
13962KABI ABI20160319043511203/19/16 04:35:31  5-MIN KABI 191035Z 36013G22KT 10SM SCT020 03/00 A3024 1500 79 500 360/13G22 RMK AO2 T00330000
13962KABI ABI20160319044010603/19/16 04:40:31  5-MIN KABI 191040Z 36013KT 10SM FEW020 03/00 A3024 1500 79 500 360/13 RMK AO2 T00330000
13962KABI ABI20160319044511303/19/16 04:45:31  5-MIN KABI 191045Z 36012KT 10SM FEW019 SCT027 03/00 A3024 1490 79 500 360/12 RMK AO2 T00330000
13962KABI ABI20160319045011303/19/16 04:50:31  5-MIN KABI 191050Z 36013KT 10SM SCT027 03/00 A3024 1500 79 500 350/13 RMK AO2 SLP240 T00330000
13962KABI ABI20160319045510603/19/16 04:55:31  5-MIN KABI 191055Z 36013KT 10SM BKN027 03/00 A3024 1490 79 500 360/13 RMK AO2 T00330000
13962KABI ABI20160319050010603/19/16 05:00:31  5-MIN KABI 191100Z 36013KT 10SM BKN027 03/00 A3025 1490 79 500 360/13 RMK AO2 T00330000
13962KABI ABI20160319050510603/19/16 05:05:31  5-MIN KABI 191105Z 36014KT 10SM BKN027 03/00 A3025 1490 79 500 350/14 RMK AO2 T00330000
13962KABI ABI20160319051010603/19/16 05:10:31  5-MIN KABI 191110Z 36013KT 10SM OVC027 03/00 A3025 1490 79 500 360/13 RMK AO2 T00330000
13962KABI ABI20160319051510603/19/16 05:15:31  5-MIN KABI 191115Z 36013KT 10SM OVC028 03/00 A3026 1480 79 500 360/13 RMK AO2 T00330000
13962KABI ABI20160319052010603/19/16 05:20:31  5-MIN KABI 191120Z 36012KT 10SM OVC028 03/00 A3026 1480 79 500 360/12 RMK AO2 T00330000
13962KABI ABI20160319052510603/19/16 05:25:31  5-MIN KABI 191125Z 01012KT 10SM OVC028 03/00 A3026 1480 79 500 360/12 RMK AO2 T00330000
13962KABI ABI20160319053010603/19/16 05:30:31  5-MIN KABI 191130Z 01012KT 10SM OVC028 03/00 A3026 1480 79 500 360/12 RMK AO2 T00330000
13962KABI ABI20160319053510603/19/16 05:35:31  5-MIN KABI 191135Z 36010KT 10SM OVC028 03/00 A3026 1480 79 500 360/10 RMK AO2 T00330000
13962KABI ABI20160319054010603/19/16 05:40:31  5-MIN KABI 191140Z 36011KT 10SM OVC028 03/00 A3026 1480 79 500 360/11 RMK AO2 T00330000
13962KABI ABI20160319054511203/19/16 05:45:31  5-MIN KABI 191145Z 36015G20KT 10SM OVC028 03/00 A3026 1480 79 500 360/15G20 RMK AO2 T00330000
13962KABI ABI20160319055013103/19/16 05:50:31  5-MIN KABI 191150Z 36013KT 10SM OVC028 03/00 A3026 1480 82 400 360/13 RMK AO2 SLP246 T00280000 10056 20028 50010
13962KABI ABI20160319055510603/19/16 05:55:31  5-MIN KABI 191155Z 36014KT 10SM OVC028 03/00 A3026 1480 82 400 350/14 RMK AO2 T00280000
13962KABI ABI20160319060010603/19/16 06:00:31  5-MIN KABI 191200Z 36014KT 10SM OVC029 03/00 A3026 1480 82 400 360/14 RMK AO2 T00280000
13962KABI ABI20160319060510603/19/16 06:05:31  5-MIN KABI 191205Z 01013KT 10SM OVC029 03/00 A3026 1480 82 400 360/13 RMK AO2 T00280000
13962KABI ABI20160319061010703/19/16 06:10:31  5-MIN KABI 191210Z 36014KT 10SM OVC029 03/M01 A3026 1480 79 400 360/14 RMK AO2 T00281006
13962KABI ABI20160319061510703/19/16 06:15:31  5-MIN KABI 191215Z 36015KT 10SM OVC029 03/M01 A3026 1480 79 400 350/15 RMK AO2 T00281006
13962KABI ABI20160319062010703/19/16 06:20:31  5-MIN KABI 191220Z 36011KT 10SM OVC029 03/M01 A3026 1480 79 400 360/11 RMK AO2 T00281006
13962KABI ABI20160319062511203/19/16 06:25:31  5-MIN KABI 191225Z 36011G19KT 10SM OVC029 03/00 A3026 1480 82 400 350/11G19 RMK AO2 T00280000
13962KABI ABI20160319063011303/19/16 06:30:31  5-MIN KABI 191230Z 36012G19KT 10SM OVC029 03/M01 A3026 1480 79 400 350/12G19 RMK AO2 T00281006
13962KABI ABI20160319063510703/19/16 06:35:31  5-MIN KABI 191235Z 35010KT 10SM BKN029 02/M01 A3026 1480 82 300 350/10 RMK AO2 T00221006
13962KABI ABI20160319064010703/19/16 06:40:31  5-MIN KABI 191240Z 35011KT 10SM BKN029 02/M01 A3026 1480 82 300 350/11 RMK AO2 T00221006
13962KABI ABI20160319064510703/19/16 06:45:31  5-MIN KABI 191245Z 35011KT 10SM BKN029 02/M01 A3026 1480 82 300 340/11 RMK AO2 T00221006
13962KABI ABI20160319065009703/19/16 06:50:31  5-MIN KABI 191250Z 35012KT 10SM FEW029 02/M01 A3027 1470 85 300 340/12 RMK AO2
13962KABI ABI20160319065510703/19/16 06:55:31  5-MIN KABI 191255Z 35011KT 10SM FEW029 02/M01 A3027 1470 85 200 340/11 RMK AO2 T00171006
13962KABI ABI20160319070010703/19/16 07:00:31  5-MIN KABI 191300Z 35011KT 10SM FEW029 02/M01 A3027 1470 85 200 340/11 RMK AO2 T00171006
13962KABI ABI20160319070510703/19/16 07:05:31  5-MIN KABI 191305Z 35013KT 10SM FEW029 02/M01 A3027 1470 85 200 340/13 RMK AO2 T00171006
13962KABI ABI20160319071010403/19/16 07:10:31  5-MIN KABI 191310Z 35014KT 10SM CLR 02/M01 A3027 1470 85 200 340/14 RMK AO2 T00171006
13962KABI ABI20160319071510403/19/16 07:15:31  5-MIN KABI 191315Z 35013KT 10SM CLR 02/M01 A3027 1470 85 200 340/13 RMK AO2 T00171006
13962KABI ABI20160319072010403/19/16 07:20:31  5-MIN KABI 191320Z 35013KT 10SM CLR 02/M01 A3027 1470 82 300 340/13 RMK AO2 T00221006
13962KABI ABI20160319072510403/19/16 07:25:31  5-MIN KABI 191325Z 35013KT 10SM CLR 02/M01 A3028 1460 82 300 350/13 RMK AO2 T00221006
13962KABI ABI20160319073010403/19/16 07:30:31  5-MIN KABI 191330Z 35011KT 10SM CLR 02/M01 A3028 1460 82 300 350/11 RMK AO2 T00221006
13962KABI ABI20160319174011103/19/16 17:40:31  5-MIN KABI 192340Z 06011G16KT 10SM CLR 12/M05 A3024 1500 29 1600 050/11G16 RMK AO2 T01221050
13962KABI ABI20160319174511103/19/16 17:45:31  5-MIN KABI 192345Z 05011G16KT 10SM CLR 12/M05 A3024 1490 30 1500 040/11G16 RMK AO2 T01171050
13962KABI ABI20160319175013603/19/16 17:50:31  5-MIN KABI 192350Z 03009G16KT 10SM CLR 12/M04 A3025 1490 32 1500 020/09G16 RMK AO2 SLP240 T01171044 10133 20094 56025
13962KABI ABI20160319175510503/19/16 17:55:31  5-MIN KABI 192355Z 04008KT 10SM CLR 12/M05 A3025 1490 30 1500 040/08 RMK AO2 T01171050
13962KABI ABI20160319180010503/19/16 18:00:31  5-MIN KABI 200000Z 06008KT 10SM CLR 12/M05 A3025 1490 30 1500 060/08 RMK AO2 T01171050
13962KABI ABI20160319180510503/19/16 18:05:31  5-MIN KABI 200005Z 05009KT 10SM CLR 12/M06 A3025 1490 29 1500 050/09 RMK AO2 T01171056
13962KABI ABI20160319181010503/19/16 18:10:31  5-MIN KABI 200010Z 04007KT 10SM CLR 12/M05 A3025 1490 30 1500 030/07 RMK AO2 T01171050
13962KABI ABI20160319181510503/19/16 18:15:31  5-MIN KABI 200015Z 03008KT 10SM CLR 11/M05 A3025 1490 32 1400 020/08 RMK AO2 T01111050
13962KABI ABI20160319182010503/19/16 18:20:31  5-MIN KABI 200020Z 03007KT 10SM CLR 11/M05 A3025 1490 32 1400 030/07 RMK AO2 T01111050
13962KABI ABI20160319182510503/19/16 18:25:31  5-MIN KABI 200025Z 04010KT 10SM CLR 11/M05 A3026 1480 32 1400 030/10 RMK AO2 T01111050
13962KABI ABI20160319183010503/19/16 18:30:31  5-MIN KABI 200030Z 04008KT 10SM CLR 11/M05 A3026 1480 32 1400 040/08 RMK AO2 T01111050
13962KABI ABI20160319183510503/19/16 18:35:31  5-MIN KABI 200035Z 04006KT 10SM CLR 11/M04 A3026 1480 34 1300 040/06 RMK AO2 T01061044
13962KABI ABI20160319184010503/19/16 18:40:31  5-MIN KABI 200040Z 05006KT 10SM CLR 11/M04 A3026 1480 34 1300 050/06 RMK AO2 T01061044
13962KABI ABI20160319184510503/19/16 18:45:31  5-MIN KABI 200045Z 05006KT 10SM CLR 11/M04 A3026 1480 34 1300 050/06 RMK AO2 T01061044
13962KABI ABI20160319185011203/19/16 18:50:31  5-MIN KABI 200050Z 05007KT 10SM CLR 10/M04 A3027 1470 36 1300 040/07 RMK AO2 SLP250 T01001044
13962KABI ABI20160319185510503/19/16 18:55:31  5-MIN KABI 200055Z 04006KT 10SM CLR 10/M04 A3027 1470 36 1300 040/06 RMK AO2 T01001044
13962KABI ABI20160319190010503/19/16 19:00:31  5-MIN KABI 200100Z 04007KT 10SM CLR 10/M04 A3027 1470 36 1300 040/07 RMK AO2 T01001044
13962KABI ABI20160319190510503/19/16 19:05:31  5-MIN KABI 200105Z 05006KT 10SM CLR 10/M04 A3027 1470 36 1300 040/06 RMK AO2 T01001044
13962KABI ABI20160319191010503/19/16 19:10:31  5-MIN KABI 200110Z 05005KT 10SM CLR 09/M04 A3027 1470 37 1200 050/05 RMK AO2 T00941044
13962KABI ABI20160319191510503/19/16 19:15:31  5-MIN KABI 200115Z 05005KT 10SM CLR 09/M04 A3027 1470 39 1200 040/05 RMK AO2 T00941039
13962KABI ABI20160319192010503/19/16 19:20:31  5-MIN KABI 200120Z 05006KT 10SM CLR 09/M04 A3027 1470 39 1200 050/06 RMK AO2 T00941039
13962KABI ABI20160319192510503/19/16 19:25:31  5-MIN KABI 200125Z 06006KT 10SM CLR 09/M04 A3027 1470 39 1200 050/06 RMK AO2 T00941039
13962KABI ABI20160319193010503/19/16 19:30:31  5-MIN KABI 200130Z 06005KT 10SM CLR 09/M04 A3028 1470 40 1100 050/05 RMK AO2 T00891039
13962KABI ABI20160319193510503/19/16 19:35:31  5-MIN KABI 200135Z 06004KT 10SM CLR 09/M04 A3028 1460 40 1100 050/04 RMK AO2 T00891039
13962KABI ABI20160319194010503/19/16 19:40:31  5-MIN KABI 200140Z 06004KT 10SM CLR 09/M03 A3028 1460 42 1100 050/04 RMK AO2 T00891033
13962KABI ABI20160319194510503/19/16 19:45:31  5-MIN KABI 200145Z 06005KT 10SM CLR 08/M03 A3028 1460 43 1000 050/05 RMK AO2 T00831033
13962KABI ABI20160319195011203/19/16 19:50:31  5-MIN KABI 200150Z 06006KT 10SM CLR 08/M03 A3028 1460 43 1000 060/06 RMK AO2 SLP255 T00831033
13962KABI ABI20160319195510503/19/16 19:55:31  5-MIN KABI 200155Z 06006KT 10SM CLR 08/M03 A3028 1460 43 1000 060/06 RMK AO2 T00831033
13962KABI ABI20160319200010503/19/16 20:00:31  5-MIN KABI 200200Z 06005KT 10SM CLR 08/M03 A3028 1460 43 1000 050/05 RMK AO2 T00831033
13962KABI ABI20160319200510503/19/16 20:05:31  5-MIN KABI 200205Z 07005KT 10SM CLR 08/M03 A3029 1460 43 1000 060/05 RMK AO2 T00831033
13962KABI ABI20160319201010503/19/16 20:10:31  5-MIN KABI 200210Z 06005KT 10SM CLR 08/M03 A3029 1450 45 1000 060/05 RMK AO2 T00781033
13962KABI ABI20160319201510503/19/16 20:15:31  5-MIN KABI 200215Z 06005KT 10SM CLR 08/M03 A3029 1450 45 1000 060/05 RMK AO2 T00781033
13962KABI ABI20160319202010503/19/16 20:20:31  5-MIN KABI 200220Z 07005KT 10SM CLR 08/M03 A3029 1450 45 1000 060/05 RMK AO2 T00781033
13962KABI ABI20160319202510503/19/16 20:25:31  5-MIN KABI 200225Z 07005KT 10SM CLR 08/M03 A3029 1450 45 1000 060/05 RMK AO2 T00781033
13962KABI ABI20160319203010403/19/16 20:30:31  5-MIN KABI 200230Z 07006KT 10SM CLR 07/M03 A3030 1450 47 900 060/06 RMK AO2 T00721033
13962KABI ABI20160319203510403/19/16 20:35:31  5-MIN KABI 200235Z 06005KT 10SM CLR 07/M03 A3030 1450 47 900 060/05 RMK AO2 T00721033
13962KABI ABI20160319204010403/19/16 20:40:31  5-MIN KABI 200240Z 07005KT 10SM CLR 07/M03 A3030 1440 47 900 060/05 RMK AO2 T00721033
13962KABI ABI20160319204510403/19/16 20:45:31  5-MIN KABI 200245Z 07005KT 10SM CLR 07/M03 A3030 1440 47 900 060/05 RMK AO2 T00721033
13962KABI ABI20160319205011703/19/16 20:50:31  5-MIN KABI 200250Z 07005KT 10SM CLR 07/M03 A3030 1440 47 900 070/05 RMK AO2 SLP263 T00721033 55001
13962KABI ABI20160319205510403/19/16 20:55:31  5-MIN KABI 200255Z 07004KT 10SM CLR 07/M03 A3030 1440 47 900 060/04 RMK AO2 T00721033
13962KABI ABI20160319210010403/19/16 21:00:31  5-MIN KABI 200300Z 07004KT 10SM CLR 07/M03 A3030 1440 47 900 060/04 RMK AO2 T00721033
13962KABI ABI20160319210510403/19/16 21:05:31  5-MIN KABI 200305Z 06004KT 10SM CLR 07/M03 A3031 1440 47 900 060/04 RMK AO2 T00721033
13962KABI ABI20160319211010403/19/16 21:10:31  5-MIN KABI 200310Z 06003KT 10SM CLR 07/M04 A3031 1430 45 900 060/03 RMK AO2 T00721039
13962KABI ABI20160319211510403/19/16 21:15:31  5-MIN KABI 200315Z 07003KT 10SM CLR 07/M03 A3031 1430 49 800 060/03 RMK AO2 T00671033
13962KABI ABI20160319212010403/19/16 21:20:31  5-MIN KABI 200320Z 07004KT 10SM CLR 07/M04 A3031 1430 45 900 070/04 RMK AO2 T00721039
13962KABI ABI20160319212510403/19/16 21:25:31  5-MIN KABI 200325Z 08003KT 10SM CLR 07/M04 A3032 1430 47 800 070/03 RMK AO2 T00671039
13962KABI ABI20160319213010403/19/16 21:30:31  5-MIN KABI 200330Z 07004KT 10SM CLR 07/M04 A3032 1430 47 800 070/04 RMK AO2 T00671039
13962KABI ABI20160319213510403/19/16 21:35:31  5-MIN KABI 200335Z 08004KT 10SM CLR 07/M04 A3032 1420 47 800 080/04 RMK AO2 T00671039
13962KABI ABI20160319214010403/19/16 21:40:31  5-MIN KABI 200340Z 08003KT 10SM CLR 07/M04 A3032 1420 47 800 080/03 RMK AO2 T00671039
13962KABI ABI20160319214510403/19/16 21:45:31  5-MIN KABI 200345Z 08004KT 10SM CLR 07/M04 A3032 1420 47 800 080/04 RMK AO2 T00671039
13962KABI ABI20160319215011103/19/16 21:50:31  5-MIN KABI 200350Z 07003KT 10SM CLR 07/M04 A3032 1420 47 800 070/03 RMK AO2 SLP268 T00671039
13962KABI ABI20160319215510403/19/16 21:55:31  5-MIN KABI 200355Z 07004KT 10SM CLR 07/M04 A3032 1420 47 800 070/04 RMK AO2 T00671039
13962KABI ABI20160319220010403/19/16 22:00:31  5-MIN KABI 200400Z 08004KT 10SM CLR 07/M04 A3033 1420 47 800 080/04 RMK AO2 T00671039
13962KABI ABI20160319220510403/19/16 22:05:31  5-MIN KABI 200405Z 08003KT 10SM CLR 07/M04 A3033 1420 47 800 080/03 RMK AO2 T00671039
13962KABI ABI20160319221010403/19/16 22:10:31  5-MIN KABI 200410Z 00000KT 10SM CLR 07/M04 A3033 1420 47 800 000/00 RMK AO2 T00671039
13962KABI ABI20160319221510403/19/16 22:15:31  5-MIN KABI 200415Z 00000KT 10SM CLR 07/M04 A3033 1410 47 800 000/00 RMK AO2 T00671039
13962KABI ABI20160319222010403/19/16 22:20:31  5-MIN KABI 200420Z 00000KT 10SM CLR 07/M04 A3033 1410 47 800 000/00 RMK AO2 T00671039
13962KABI ABI20160319222510403/19/16 22:25:31  5-MIN KABI 200425Z 00000KT 10SM CLR 05/M03 A3033 1410 55 600 000/00 RMK AO2 T00501033
13962KABI ABI20160319223010403/19/16 22:30:31  5-MIN KABI 200430Z 00000KT 10SM CLR 05/M03 A3034 1410 55 600 000/00 RMK AO2 T00501033
13962KABI ABI20160319223510403/19/16 22:35:31  5-MIN KABI 200435Z 00000KT 10SM CLR 06/M04 A3034 1410 50 700 000/00 RMK AO2 T00561039
13962KABI ABI20160319224010403/19/16 22:40:31  5-MIN KABI 200440Z 08003KT 10SM CLR 06/M04 A3034 1410 48 700 070/03 RMK AO2 T00611039
13962KABI ABI20160319224510403/19/16 22:45:31  5-MIN KABI 200445Z 08003KT 10SM CLR 06/M04 A3034 1410 48 700 080/03 RMK AO2 T00611039
13962KABI ABI20160319225011103/19/16 22:50:31  5-MIN KABI 200450Z 00000KT 10SM CLR 06/M04 A3034 1410 48 700 000/00 RMK AO2 SLP272 T00611039
13962KABI ABI20160319225510403/19/16 22:55:31  5-MIN KABI 200455Z 08003KT 10SM CLR 06/M03 A3034 1410 51 700 080/03 RMK AO2 T00611033
13962KABI ABI20160319230010403/19/16 23:00:31  5-MIN KABI 200500Z 09003KT 10SM CLR 06/M03 A3034 1410 53 600 080/03 RMK AO2 T00561033
13962KABI ABI20160319230510403/19/16 23:05:31  5-MIN KABI 200505Z 00000KT 10SM CLR 06/M04 A3033 1410 50 700 000/00 RMK AO2 T00561039
13962KABI ABI20160319231010403/19/16 23:10:31  5-MIN KABI 200510Z 07003KT 10SM CLR 06/M04 A3034 1410 48 700 060/03 RMK AO2 T00611039
13962KABI ABI20160319231510403/19/16 23:15:31  5-MIN KABI 200515Z 06003KT 10SM CLR 06/M04 A3034 1410 50 600 060/03 RMK AO2 T00561039
13962KABI ABI20160319232010403/19/16 23:20:31  5-MIN KABI 200520Z 00000KT 10SM CLR 06/M04 A3034 1410 50 600 000/00 RMK AO2 T00561039
13962KABI ABI20160319232510403/19/16 23:25:31  5-MIN KABI 200525Z 00000KT 10SM CLR 06/M04 A3034 1410 50 600 000/00 RMK AO2 T00561039
13962KABI ABI20160319233010403/19/16 23:30:31  5-MIN KABI 200530Z 00000KT 10SM CLR 06/M04 A3034 1410 50 600 000/00 RMK AO2 T00561039
13962KABI ABI20160319233510403/19/16 23:35:31  5-MIN KABI 200535Z 00000KT 10SM CLR 05/M04 A3034 1410 52 600 000/00 RMK AO2 T00501039
13962KABI ABI20160319234010403/19/16 23:40:31  5-MIN KABI 200540Z 00000KT 10SM CLR 04/M03 A3034 1400 57 500 000/00 RMK AO2 T00441033
13962KABI ABI20160319234510403/19/16 23:45:31  5-MIN KABI 200545Z 00000KT 10SM CLR 04/M03 A3034 1400 57 500 000/00 RMK AO2 T00441033
13962KABI ABI20160319235013903/19/16 23:50:31  5-MIN KABI 200550Z 00000KT 10SM CLR 04/M03 A3035 1400 59 400 000/00 RMK AO2 SLP276 T00391033 10117 20039 401330017 51018
13962KABI ABI20160319235510403/19/16 23:55:31  5-MIN KABI 200555Z 00000KT 10SM CLR 04/M03 A3035 1400 62 400 000/00 RMK AO2 T00391028
13962KABI ABI20160320000010403/20/16 00:00:31  5-MIN KABI 200600Z 00000KT 10SM CLR 04/M03 A3035 1400 59 400 000/00 RMK AO2 T00391033
13962KABI ABI20160320000510403/20/16 00:05:31  5-MIN KABI 200605Z 00000KT 10SM CLR 04/M03 A3035 1390 62 400 000/00 RMK AO2 T00391028
13962KABI ABI20160320001010403/20/16 00:10:31  5-MIN KABI 200610Z 00000KT 10SM CLR 04/M02 A3035 1390 64 400 000/00 RMK AO2 T00391022
13962KABI ABI20160320001510403/20/16 00:15:31  5-MIN KABI 200615Z 00000KT 10SM CLR 04/M02 A3036 1390 64 400 000/00 RMK AO2 T00391022
13962KABI ABI20160320002010403/20/16 00:20:31  5-MIN KABI 200620Z 00000KT 10SM CLR 04/M02 A3036 1390 64 400 000/00 RMK AO2 T00391022
13962KABI ABI20160320002510403/20/16 00:25:31  5-MIN KABI 200625Z 00000KT 10SM CLR 04/M03 A3036 1390 62 400 000/00 RMK AO2 T00391028
13962KABI ABI20160320003010403/20/16 00:30:31  5-MIN KABI 200630Z 32003KT 10SM CLR 04/M02 A3036 1390 64 400 310/03 RMK AO2 T00391022
13962KABI ABI20160320003510403/20/16 00:35:31  5-MIN KABI 200635Z 32003KT 10SM CLR 04/M02 A3036 1390 64 400 320/03 RMK AO2 T00391022
13962KABI ABI20160320004010403/20/16 00:40:31  5-MIN KABI 200640Z 34003KT 10SM CLR 04/M02 A3036 1390 67 400 330/03 RMK AO2 T00391017
13962KABI ABI20160320004510403/20/16 00:45:31  5-MIN KABI 200645Z 35003KT 10SM CLR 04/M02 A3036 1390 67 400 340/03 RMK AO2 T00391017
13962KABI ABI20160320005011103/20/16 00:50:31  5-MIN KABI 200650Z 35003KT 10SM CLR 04/M01 A3036 1390 70 400 340/03 RMK AO2 SLP281 T00391011
13962KABI ABI20160320005509403/20/16 00:55:31  5-MIN KABI 200655Z 10SM CLR 04/M02 A3036 1380 67 400 M /M RMK AO2 T00391017
13962KABI ABI20160320010010403/20/16 01:00:31  5-MIN KABI 200700Z 00000KT 10SM CLR 04/M03 A3037 1380 59 500 000/00 RMK AO2 T00441028
13962KABI ABI20160320010510403/20/16 01:05:31  5-MIN KABI 200705Z 00000KT 10SM CLR 05/M03 A3036 1380 55 500 000/00 RMK AO2 T00501033
13962KABI ABI20160320011010403/20/16 01:10:31  5-MIN KABI 200710Z 00000KT 10SM CLR 04/M02 A3037 1380 64 400 000/00 RMK AO2 T00391022
13962KABI ABI20160320011510403/20/16 01:15:31  5-MIN KABI 200715Z 00000KT 10SM CLR 04/M02 A3037 1380 64 400 000/00 RMK AO2 T00391022
13962KABI ABI20160320012010403/20/16 01:20:31  5-MIN KABI 200720Z 00000KT 10SM CLR 04/M02 A3037 1380 67 400 000/00 RMK AO2 T00391017
13962KABI ABI20160320012510403/20/16 01:25:31  5-MIN KABI 200725Z 28003KT 10SM CLR 04/M02 A3038 1370 67 400 280/03 RMK AO2 T00391017
13962KABI ABI20160320013010403/20/16 01:30:31  5-MIN KABI 200730Z 28003KT 10SM CLR 03/M01 A3038 1370 72 300 280/03 RMK AO2 T00331011
13962KABI ABI20160320013510403/20/16 01:35:31  5-MIN KABI 200735Z 00000KT 10SM CLR 03/M02 A3038 1370 72 300 000/00 RMK AO2 T00281017
13962KABI ABI20160320014010403/20/16 01:40:31  5-MIN KABI 200740Z 00000KT 10SM CLR 03/M02 A3038 1370 72 300 000/00 RMK AO2 T00281017
13962KABI ABI20160320014510403/20/16 01:45:31  5-MIN KABI 200745Z 00000KT 10SM CLR 03/M02 A3038 1370 72 300 000/00 RMK AO2 T00281017
13962KABI ABI20160320015011103/20/16 01:50:31  5-MIN KABI 200750Z 31003KT 10SM CLR 03/M02 A3038 1370 72 300 310/03 RMK AO2 SLP287 T00281017
13962KABI ABI20160320015510403/20/16 01:55:31  5-MIN KABI 200755Z 30004KT 10SM CLR 03/M01 A3038 1370 75 300 300/04 RMK AO2 T00281011
13962KABI ABI20160320020010403/20/16 02:00:31  5-MIN KABI 200800Z 32004KT 10SM CLR 03/M01 A3038 1370 75 300 310/04 RMK AO2 T00281011
13962KABI ABI20160320020510403/20/16 02:05:31  5-MIN KABI 200805Z 34005KT 10SM CLR 03/M01 A3039 1360 75 200 340/05 RMK AO2 T00281011
13962KABI ABI20160320021010403/20/16 02:10:31  5-MIN KABI 200810Z 35005KT 10SM CLR 03/M02 A3039 1360 72 200 350/05 RMK AO2 T00281017
13962KABI ABI20160320021510403/20/16 02:15:31  5-MIN KABI 200815Z 01004KT 10SM CLR 03/M02 A3039 1360 67 300 010/04 RMK AO2 T00331022
13962KABI ABI20160320022010403/20/16 02:20:31  5-MIN KABI 200820Z 36005KT 10SM CLR 03/M03 A3040 1360 64 300 350/05 RMK AO2 T00331028
13962KABI ABI20160320022510403/20/16 02:25:31  5-MIN KABI 200825Z 36005KT 10SM CLR 03/M03 A3040 1350 64 300 360/05 RMK AO2 T00331028
13962KABI ABI20160320023010403/20/16 02:30:31  5-MIN KABI 200830Z 36005KT 10SM CLR 03/M03 A3040 1350 64 300 360/05 RMK AO2 T00331028
13962KABI ABI20160320023510403/20/16 02:35:31  5-MIN KABI 200835Z 35004KT 10SM CLR 03/M03 A3040 1350 64 300 350/04 RMK AO2 T00331028
13962KABI ABI20160320024010403/20/16 02:40:31  5-MIN KABI 200840Z 34004KT 10SM CLR 03/M03 A3040 1350 67 200 340/04 RMK AO2 T00281028
13962KABI ABI20160320024510403/20/16 02:45:31  5-MIN KABI 200845Z 35003KT 10SM CLR 03/M03 A3040 1350 67 200 340/03 RMK AO2 T00281028
13962KABI ABI20160320025011703/20/16 02:50:31  5-MIN KABI 200850Z 35003KT 10SM CLR 03/M03 A3040 1360 64 300 350/03 RMK AO2 SLP292 T00331028 51014
13962KABI ABI20160320025510403/20/16 02:55:31  5-MIN KABI 200855Z 35003KT 10SM CLR 03/M03 A3040 1350 64 300 350/03 RMK AO2 T00331028
13962KABI ABI20160320030010403/20/16 03:00:31  5-MIN KABI 200900Z 00000KT 10SM CLR 03/M03 A3040 1360 64 300 000/00 RMK AO2 T00331028
13962KABI ABI20160320030510403/20/16 03:05:31  5-MIN KABI 200905Z 01003KT 10SM CLR 03/M03 A3039 1360 61 300 010/03 RMK AO2 T00331033
13962KABI ABI20160320031010403/20/16 03:10:31  5-MIN KABI 200910Z 00000KT 10SM CLR 03/M03 A3039 1360 61 300 000/00 RMK AO2 T00331033
13962KABI ABI20160320031510403/20/16 03:15:31  5-MIN KABI 200915Z 03003KT 10SM CLR 04/M03 A3039 1360 59 400 030/03 RMK AO2 T00391033
13962KABI ABI20160320032010403/20/16 03:20:31  5-MIN KABI 200920Z 05003KT 10SM CLR 03/M04 A3039 1360 59 300 040/03 RMK AO2 T00331039
13962KABI ABI20160320032510403/20/16 03:25:31  5-MIN KABI 200925Z 07003KT 10SM CLR 04/M04 A3039 1360 54 400 060/03 RMK AO2 T00391044
13962KABI ABI20160320033010403/20/16 03:30:31  5-MIN KABI 200930Z 14003KT 10SM CLR 03/M04 A3039 1360 61 200 130/03 RMK AO2 T00281039
13962KABI ABI20160320033510203/20/16 03:35:31  5-MIN KABI 200935Z 00000KT 10SM CLR 01/M02 A3039 1360 78 0 000/00 RMK AO2 T00111022
13962KABI ABI20160320034010203/20/16 03:40:31  5-MIN KABI 200940Z 00000KT 10SM CLR 01/M02 A3039 1360 78 0 000/00 RMK AO2 T00111022
13962KABI ABI20160320034510203/20/16 03:45:31  5-MIN KABI 200945Z 21003KT 10SM CLR 01/M02 A3039 1360 78 0 210/03 RMK AO2 T00111022
13962KABI ABI20160320035010903/20/16 03:50:31  5-MIN KABI 200950Z 22004KT 10SM CLR 01/M02 A3039 1360 85 0 210/04 RMK AO2 SLP292 T00061017
13962KABI ABI20160320035510203/20/16 03:55:31  5-MIN KABI 200955Z 24004KT 10SM CLR 01/M02 A3040 1360 85 0 230/04 RMK AO2 T00061017
13962KABI ABI20160320040010203/20/16 04:00:31  5-MIN KABI 201000Z 25003KT 10SM CLR 01/M02 A3040 1350 85 0 250/03 RMK AO2 T00061017
13962KABI ABI20160320040510203/20/16 04:05:31  5-MIN KABI 201005Z 26003KT 10SM CLR 01/M02 A3040 1350 82 0 250/03 RMK AO2 T00061022
13962KABI ABI20160320041010203/20/16 04:10:31  5-MIN KABI 201010Z 27003KT 10SM CLR 01/M02 A3040 1360 78 0 270/03 RMK AO2 T00111022
13962KABI ABI20160320041510203/20/16 04:15:31  5-MIN KABI 201015Z 00000KT 10SM CLR 01/M03 A3040 1360 75 0 000/00 RMK AO2 T00111028
13962KABI ABI20160320042010203/20/16 04:20:31  5-MIN KABI 201020Z 00000KT 10SM CLR 01/M03 A3040 1360 75 0 000/00 RMK AO2 T00111028
13962KABI ABI20160320042510203/20/16 04:25:31  5-MIN KABI 201025Z 00000KT 10SM CLR 01/M03 A3040 1360 75 0 000/00 RMK AO2 T00111028
13962KABI ABI20160320043009203/20/16 04:30:31  5-MIN KABI 201030Z 10SM CLR 01/M03 A3040 1350 78 0 M /M RMK AO2 T00061028
13962KABI ABI20160320043509203/20/16 04:35:31  5-MIN KABI 201035Z 10SM CLR 01/M03 A3040 1360 78 0 M /M RMK AO2 T00061028
13962KABI ABI20160320044010403/20/16 04:40:31  5-MIN KABI 201040Z 00000KT 10SM CLR 02/M03 A3040 1360 69 100 000/00 RMK AO2 T00171033
13962KABI ABI20160320044510403/20/16 04:45:31  5-MIN KABI 201045Z 00000KT 10SM CLR 02/M03 A3040 1360 67 200 000/00 RMK AO2 T00221033
13962KABI ABI20160320045011103/20/16 04:50:31  5-MIN KABI 201050Z 00000KT 10SM CLR 02/M04 A3040 1360 64 200 000/00 RMK AO2 SLP292 T00221039
13962KABI ABI20160320045510403/20/16 04:55:31  5-MIN KABI 201055Z 00000KT 10SM CLR 03/M04 A3040 1360 61 200 000/00 RMK AO2 T00281039
13962KABI ABI20160320050010403/20/16 05:00:31  5-MIN KABI 201100Z 00000KT 10SM CLR 03/M04 A3040 1350 59 200 000/00 RMK AO2 T00281044
13962KABI ABI20160320050510403/20/16 05:05:31  5-MIN KABI 201105Z 00000KT 10SM CLR 03/M04 A3040 1350 59 200 000/00 RMK AO2 T00281044
13962KABI ABI20160320051010403/20/16 05:10:31  5-MIN KABI 201110Z 32003KT 10SM CLR 02/M04 A3040 1350 66 100 310/03 RMK AO2 T00171039
13962KABI ABI20160320051510203/20/16 05:15:31  5-MIN KABI 201115Z 00000KT 10SM CLR 01/M02 A3040 1350 82 0 000/00 RMK AO2 T00061022
13962KABI ABI20160320052010203/20/16 05:20:31  5-MIN KABI 201120Z 00000KT 10SM CLR 01/M03 A3040 1350 75 0 000/00 RMK AO2 T00111028
13962KABI ABI20160320052510203/20/16 05:25:31  5-MIN KABI 201125Z 27004KT 10SM CLR 01/M03 A3040 1350 75 0 260/04 RMK AO2 T00061033
13962KABI ABI20160320053010203/20/16 05:30:31  5-MIN KABI 201130Z 27005KT 10SM CLR 01/M03 A3040 1350 78 0 270/05 RMK AO2 T00061028
13962KABI ABI20160320053510203/20/16 05:35:31  5-MIN KABI 201135Z 28004KT 10SM CLR 01/M03 A3040 1350 75 0 280/04 RMK AO2 T00111028
13962KABI ABI20160320054010203/20/16 05:40:31  5-MIN KABI 201140Z 28004KT 10SM CLR 01/M03 A3041 1350 75 0 280/04 RMK AO2 T00111028
13962KABI ABI20160320054510503/20/16 05:45:31  5-MIN KABI 201145Z 28004KT 10SM CLR 00/M03 A3041 1340 81 -100 280/04 RMK AO2 T00001028
13962KABI ABI20160320055012703/20/16 05:50:31  5-MIN KABI 201150Z 29004KT 10SM CLR 01/M03 A3041 1340 78 0 280/04 RMK AO2 SLP299 T00061028 10050 20000 51016
13962KABI ABI20160320055510203/20/16 05:55:31  5-MIN KABI 201155Z 29004KT 10SM CLR 01/M03 A3041 1340 78 0 280/04 RMK AO2 T00061028
13962KABI ABI20160320060010503/20/16 06:00:31  5-MIN KABI 201200Z 29004KT 10SM CLR 00/M03 A3041 1340 81 -100 290/04 RMK AO2 T00001028
13962KABI ABI20160320060510503/20/16 06:05:31  5-MIN KABI 201205Z 29004KT 10SM CLR 00/M03 A3042 1340 81 -100 290/04 RMK AO2 T00001028
13962KABI ABI20160320061010503/20/16 06:10:31  5-MIN KABI 201210Z 29004KT 10SM CLR 00/M03 A3042 1330 81 -100 290/04 RMK AO2 T00001028
13962KABI ABI20160320061510503/20/16 06:15:31  5-MIN KABI 201215Z 29004KT 10SM CLR 00/M02 A3042 1330 85 -100 290/04 RMK AO2 T00001022
13962KABI ABI20160320062010503/20/16 06:20:31  5-MIN KABI 201220Z 29004KT 10SM CLR 00/M03 A3043 1330 81 -100 290/04 RMK AO2 T00001028
13962KABI ABI20160320062510503/20/16 06:25:31  5-MIN KABI 201225Z 30004KT 10SM CLR 00/M03 A3043 1330 81 -100 290/04 RMK AO2 T00001028
13962KABI ABI20160320063010503/20/16 06:30:31  5-MIN KABI 201230Z 29004KT 10SM CLR 00/M02 A3043 1320 85 -100 290/04 RMK AO2 T00001022
13962KABI ABI20160320063510503/20/16 06:35:31  5-MIN KABI 201235Z 29004KT 10SM CLR 00/M02 A3043 1320 85 -100 290/04 RMK AO2 T00001022
13962KABI ABI20160320064010503/20/16 06:40:31  5-MIN KABI 201240Z 29005KT 10SM CLR 00/M03 A3044 1320 81 -100 290/05 RMK AO2 T00001028
13962KABI ABI20160320064510503/20/16 06:45:31  5-MIN KABI 201245Z 31005KT 10SM CLR 00/M03 A3044 1320 81 -100 300/05 RMK AO2 T00001028
13962KABI ABI20160320065011203/20/16 06:50:31  5-MIN KABI 201250Z 33005KT 10SM CLR 00/M03 A3044 1320 81 -100 320/05 RMK AO2 SLP310 T00001028
13962KABI ABI20160320065510503/20/16 06:55:31  5-MIN KABI 201255Z 34005KT 10SM CLR 00/M03 A3044 1310 81 -100 330/05 RMK AO2 T00001028
13962KABI ABI20160320070010503/20/16 07:00:31  5-MIN KABI 201300Z 33006KT 10SM CLR 00/M03 A3044 1310 78 -100 320/06 RMK AO2 T00001033
13962KABI ABI20160320070510603/20/16 07:05:31  5-MIN KABI 201305Z 33006KT 10SM CLR M01/M03 A3045 1310 81 -200 330/06 RMK AO2 T10061033
13962KABI ABI20160320071010503/20/16 07:10:31  5-MIN KABI 201310Z 34006KT 10SM CLR 00/M03 A3045 1310 78 -100 330/06 RMK AO2 T00001033
13962KABI ABI20160320071510503/20/16 07:15:31  5-MIN KABI 201315Z 34005KT 10SM CLR 00/M03 A3045 1310 78 -100 330/05 RMK AO2 T00001033
13962KABI ABI20160320072010503/20/16 07:20:31  5-MIN KABI 201320Z 34006KT 10SM CLR 00/M03 A3045 1310 78 -100 330/06 RMK AO2 T00001033
13962KABI ABI20160320072510203/20/16 07:25:31  5-MIN KABI 201325Z 34006KT 10SM CLR 01/M03 A3045 1310 75 0 340/06 RMK AO2 T00061033
13962KABI ABI20160320073010203/20/16 07:30:31  5-MIN KABI 201330Z 34006KT 10SM CLR 01/M03 A3045 1310 78 0 340/06 RMK AO2 T00061028
13962KABI ABI20160320073510203/20/16 07:35:31  5-MIN KABI 201335Z 34006KT 10SM CLR 01/M03 A3045 1300 75 0 340/06 RMK AO2 T00111028
13962KABI ABI20160320074010203/20/16 07:40:31  5-MIN KABI 201340Z 35006KT 10SM CLR 01/M02 A3046 1300 78 0 340/06 RMK AO2 T00111022
13962KABI ABI20160320074510203/20/16 07:45:31  5-MIN KABI 201345Z 35005KT 10SM CLR 02/M03 A3046 1300 72 0 340/05 RMK AO2 T00171028
13962KABI ABI20160320075011103/20/16 07:50:31  5-MIN KABI 201350Z 35006KT 10SM CLR 02/M02 A3046 1290 72 100 350/06 RMK AO2 SLP318 T00221022
13962KABI ABI20160320075510403/20/16 07:55:31  5-MIN KABI 201355Z 35007KT 10SM CLR 02/M03 A3046 1290 69 100 350/07 RMK AO2 T00221028
13962KABI ABI20160320080010403/20/16 08:00:31  5-MIN KABI 201400Z 35006KT 10SM CLR 02/M03 A3047 1290 69 100 340/06 RMK AO2 T00221028
13962KABI ABI20160320080510403/20/16 08:05:31  5-MIN KABI 201405Z 36005KT 10SM CLR 03/M02 A3047 1290 69 200 350/05 RMK AO2 T00281022
13962KABI ABI20160320081010403/20/16 08:10:31  5-MIN KABI 201410Z 35006KT 10SM CLR 03/M02 A3047 1290 69 200 340/06 RMK AO2 T00281022
13962KABI ABI20160320081510403/20/16 08:15:31  5-MIN KABI 201415Z 35005KT 10SM CLR 03/M02 A3047 1290 69 200 350/05 RMK AO2 T00281022
13962KABI ABI20160320082010403/20/16 08:20:31  5-MIN KABI 201420Z 34005KT 10SM CLR 03/M02 A3047 1280 67 200 340/05 RMK AO2 T00331022
13962KABI ABI20160320082510403/20/16 08:25:31  5-MIN KABI 201425Z 35006KT 10SM CLR 03/M02 A3047 1280 70 200 340/06 RMK AO2 T00331017
13962KABI ABI20160320083010403/20/16 08:30:31  5-MIN KABI 201430Z 35004KT 10SM CLR 04/M02 A3047 1280 67 300 340/04 RMK AO2 T00391017
13962KABI ABI20160320083510403/20/16 08:35:31  5-MIN KABI 201435Z 01004KT 10SM CLR 04/M02 A3047 1280 67 300 360/04 RMK AO2 T00391017
13962KABI ABI20160320084010403/20/16 08:40:31  5-MIN KABI 201440Z 01004KT 10SM CLR 04/M02 A3048 1280 62 400 010/04 RMK AO2 T00441022
13962KABI ABI20160320084510403/20/16 08:45:31  5-MIN KABI 201445Z 36003KT 10SM CLR 04/M03 A3048 1280 59 400 360/03 RMK AO2 T00441028
13962KABI ABI20160320085011703/20/16 08:50:31  5-MIN KABI 201450Z 01003KT 10SM CLR 05/M02 A3048 1280 59 400 360/03 RMK AO2 SLP322 T00501022 53005
13962KABI ABI20160320085510403/20/16 08:55:31  5-MIN KABI 201455Z 02004KT 10SM CLR 06/M02 A3048 1280 57 500 010/04 RMK AO2 T00561022
13962KABI ABI20160320090010403/20/16 09:00:31  5-MIN KABI 201500Z VRB03KT 10SM CLR 05/M03 A3048 1280 55 400 VRB/03 RMK AO2 T00501033
13962KABI ABI20160320090510403/20/16 09:05:31  5-MIN KABI 201505Z 07003KT 10SM CLR 05/M03 A3048 1270 55 400 060/03 RMK AO2 T00501033
13962KABI ABI20160320091010403/20/16 09:10:31  5-MIN KABI 201510Z 04003KT 10SM CLR 06/M04 A3049 1270 50 500 040/03 RMK AO2 T00561039
13962KABI ABI20160320091510403/20/16 09:15:31  5-MIN KABI 201515Z VRB03KT 10SM CLR 06/M03 A3049 1270 51 500 VRB/03 RMK AO2 T00611033
13962KABI ABI20160320092010403/20/16 09:20:31  5-MIN KABI 201520Z VRB03KT 10SM CLR 06/M03 A3049 1270 51 500 VRB/03 RMK AO2 T00611033
13962KABI ABI20160320092510403/20/16 09:25:31  5-MIN KABI 201525Z VRB04KT 10SM CLR 06/M04 A3049 1270 48 500 VRB/04 RMK AO2 T00611039
13962KABI ABI20160320093010403/20/16 09:30:31  5-MIN KABI 201530Z 35006KT 10SM CLR 06/M03 A3049 1270 51 500 350/06 RMK AO2 T00611033
13962KABI ABI20160320093510403/20/16 09:35:31  5-MIN KABI 201535Z 03005KT 10SM CLR 07/M03 A3049 1270 49 600 020/05 RMK AO2 T00671033
13962KABI ABI20160320094010403/20/16 09:40:31  5-MIN KABI 201540Z 01004KT 10SM CLR 06/M04 A3049 1270 48 500 360/04 RMK AO2 T00611039
13962KABI ABI20160320094510403/20/16 09:45:31  5-MIN KABI 201545Z 00000KT 10SM CLR 07/M03 A3049 1270 49 600 000/00 RMK AO2 T00671033
13962KABI ABI20160320095011103/20/16 09:50:31  5-MIN KABI 201550Z VRB05KT 10SM CLR 07/M03 A3049 1270 47 700 VRB/05 RMK AO2 SLP326 T00721033
13962KABI ABI20160320095510403/20/16 09:55:31  5-MIN KABI 201555Z VRB04KT 10SM CLR 07/M03 A3050 1260 47 700 VRB/04 RMK AO2 T00721033
13962KABI ABI20160320100010403/20/16 10:00:31  5-MIN KABI 201600Z 00000KT 10SM CLR 07/M03 A3050 1260 47 700 000/00 RMK AO2 T00721033
13962KABI ABI20160320100510403/20/16 10:05:31  5-MIN KABI 201605Z 04006KT 10SM CLR 07/M04 A3050 1260 45 700 030/06 RMK AO2 T00721039
13962KABI ABI20160320101010403/20/16 10:10:31  5-MIN KABI 201610Z VRB04KT 10SM CLR 08/M03 A3050 1260 45 700 VRB/04 RMK AO2 T00781033
13962KABI ABI20160320101510403/20/16 10:15:31  5-MIN KABI 201615Z 05004KT 10SM CLR 08/M03 A3050 1260 45 700 040/04 RMK AO2 T00781033
13962KABI ABI20160320102010403/20/16 10:20:31  5-MIN KABI 201620Z 00000KT 10SM CLR 07/M04 A3050 1260 45 700 000/00 RMK AO2 T00721039
13962KABI ABI20160320102510403/20/16 10:25:31  5-MIN KABI 201625Z 00000KT 10SM CLR 08/M03 A3050 1260 45 700 000/00 RMK AO2 T00781033
13962KABI ABI20160320103010403/20/16 10:30:31  5-MIN KABI 201630Z 00000KT 10SM CLR 09/M03 A3050 1260 43 900 000/00 RMK AO2 T00891028
13962KABI ABI20160320103510403/20/16 10:35:31  5-MIN KABI 201635Z VRB04KT 10SM CLR 09/M03 A3050 1260 42 900 VRB/04 RMK AO2 T00891033
13962KABI ABI20160320104010403/20/16 10:40:31  5-MIN KABI 201640Z VRB04KT 10SM CLR 08/M04 A3050 1260 40 800 VRB/04 RMK AO2 T00831044
13962KABI ABI20160320104510403/20/16 10:45:31  5-MIN KABI 201645Z VRB06KT 10SM CLR 09/M05 A3050 1260 37 900 VRB/06 RMK AO2 T00891050
13962KABI ABI20160320105011103/20/16 10:50:31  5-MIN KABI 201650Z 00000KT 10SM CLR 08/M04 A3050 1260 40 800 000/00 RMK AO2 SLP328 T00831044
13962KABI ABI20160320105510403/20/16 10:55:31  5-MIN KABI 201655Z 34008KT 10SM CLR 09/M04 A3050 1260 40 900 340/08 RMK AO2 T00891039
13962KABI ABI20160320110012003/20/16 11:00:31  5-MIN KABI 201700Z 35007KT 320V020 10SM CLR 08/M04 A3050 1260 42 800 340/07 320V020 RMK AO2 T00831039
13962KABI ABI20160320110510403/20/16 11:05:31  5-MIN KABI 201705Z 35005KT 10SM CLR 09/M03 A3050 1260 42 900 350/05 RMK AO2 T00891033
13962KABI ABI20160320111010403/20/16 11:10:31  5-MIN KABI 201710Z 00000KT 10SM CLR 09/M03 A3050 1260 42 900 000/00 RMK AO2 T00891033
13962KABI ABI20160320111510403/20/16 11:15:31  5-MIN KABI 201715Z VRB06KT 10SM CLR 09/M03 A3049 1270 40 900 VRB/06 RMK AO2 T00941033
13962KABI ABI20160320112009503/20/16 11:20:31  5-MIN KABI 201720Z 10SM CLR 10/M03 A3049 1270 39 1000 M /M RMK AO2 T01001033
13962KABI ABI20160320112510503/20/16 11:25:31  5-MIN KABI 201725Z 33007KT 10SM CLR 10/M03 A3049 1270 39 1000 320/07 RMK AO2 T01001033
13962KABI ABI20160320113012003/20/16 11:30:31  5-MIN KABI 201730Z 36007KT 330V030 10SM CLR 09/M04 A3049 1270 39 900 350/07 330V030 RMK AO2 T00941039
13962KABI ABI20160320113510503/20/16 11:35:31  5-MIN KABI 201735Z 02005KT 10SM CLR 10/M03 A3049 1270 39 1000 020/05 RMK AO2 T01001033
13962KABI ABI20160320114010503/20/16 11:40:31  5-MIN KABI 201740Z 36006KT 10SM CLR 10/M03 A3049 1270 39 1000 360/06 RMK AO2 T01001033
13962KABI ABI20160320114510503/20/16 11:45:31  5-MIN KABI 201745Z 34006KT 10SM CLR 11/M03 A3048 1270 37 1100 330/06 RMK AO2 T01061033
13962KABI ABI20160320115014603/20/16 11:50:31  5-MIN KABI 201750Z 34007KT 280V010 10SM CLR 11/M03 A3048 1280 39 1100 330/07 280V010 RMK AO2 SLP322 T01061028 10106 21006 51022
13962KABI ABI20160320115510503/20/16 11:55:31  5-MIN KABI 201755Z 36006KT 10SM CLR 10/M03 A3048 1280 39 1000 350/06 RMK AO2 T01001033
13962KABI ABI20160320120010503/20/16 12:00:31  5-MIN KABI 201800Z 00000KT 10SM CLR 11/M03 A3048 1280 39 1100 000/00 RMK AO2 T01061028
13962KABI ABI20160320120509503/20/16 12:05:31  5-MIN KABI 201805Z 10SM CLR 11/M03 A3048 1280 37 1100 M /M RMK AO2 T01061033
13962KABI ABI20160320121010503/20/16 12:10:31  5-MIN KABI 201810Z VRB06KT 10SM CLR 11/M04 A3047 1280 36 1100 VRB/06 RMK AO2 T01061039
13962KABI ABI20160320121510503/20/16 12:15:31  5-MIN KABI 201815Z 02006KT 10SM CLR 11/M04 A3047 1290 34 1200 020/06 RMK AO2 T01111039
13962KABI ABI20160320122010503/20/16 12:20:31  5-MIN KABI 201820Z 02006KT 10SM CLR 11/M04 A3047 1290 34 1100 020/06 RMK AO2 T01061044
13962KABI ABI20160320122510503/20/16 12:25:31  5-MIN KABI 201825Z VRB03KT 10SM CLR 11/M04 A3047 1290 36 1100 VRB/03 RMK AO2 T01061039
13962KABI ABI20160320123010503/20/16 12:30:31  5-MIN KABI 201830Z 36007KT 10SM CLR 11/M04 A3047 1290 36 1100 350/07 RMK AO2 T01061039
13962KABI ABI20160320123510503/20/16 12:35:31  5-MIN KABI 201835Z 36007KT 10SM CLR 11/M03 A3046 1290 36 1200 350/07 RMK AO2 T01111033
13962KABI ABI20160320124010503/20/16 12:40:31  5-MIN KABI 201840Z 34010KT 10SM CLR 12/M03 A3046 1300 35 1200 330/10 RMK AO2 T01171033
13962KABI ABI20160320124510503/20/16 12:45:31  5-MIN KABI 201845Z 33010KT 10SM CLR 11/M04 A3046 1300 34 1200 330/10 RMK AO2 T01111039
13962KABI ABI20160320125010203/20/16 12:50:31  5-MIN KABI 201850Z 10SM CLR 11/M04 A3046 1300 33 1200 M /M RMK AO2 SLP313 T01111044
13962KABI ABI20160320125510503/20/16 12:55:31  5-MIN KABI 201855Z 33008KT 10SM CLR 11/M04 A3045 1300 33 1200 320/08 RMK AO2 T01111044
13962KABI ABI20160320130010503/20/16 13:00:31  5-MIN KABI 201900Z 35010KT 10SM CLR 12/M04 A3045 1310 33 1300 340/10 RMK AO2 T01171039
13962KABI ABI20160320130510503/20/16 13:05:31  5-MIN KABI 201905Z 35011KT 10SM CLR 11/M04 A3045 1310 33 1200 350/11 RMK AO2 T01111044
13962KABI ABI20160320131010503/20/16 13:10:31  5-MIN KABI 201910Z 34006KT 10SM CLR 11/M04 A3044 1310 34 1200 330/06 RMK AO2 T01111039
13962KABI ABI20160320131510503/20/16 13:15:31  5-MIN KABI 201915Z 35011KT 10SM CLR 12/M04 A3044 1310 33 1300 340/11 RMK AO2 T01171039
13962KABI ABI20160320132010503/20/16 13:20:31  5-MIN KABI 201920Z 36008KT 10SM CLR 12/M04 A3044 1310 32 1300 360/08 RMK AO2 T01171044
13962KABI ABI20160320132510503/20/16 13:25:31  5-MIN KABI 201925Z 03007KT 10SM CLR 12/M04 A3044 1320 32 1300 030/07 RMK AO2 T01171044
13962KABI ABI20160320133011103/20/16 13:30:31  5-MIN KABI 201930Z 35010G16KT 10SM CLR 12/M04 A3044 1320 32 1300 350/10G16 RMK AO2 T01171044
13962KABI ABI20160320133511103/20/16 13:35:31  5-MIN KABI 201935Z VRB05G16KT 10SM CLR 12/M05 A3044 1320 30 1300 VRB/05G16 RMK AO2 T01171050
13962KABI ABI20160320134010503/20/16 13:40:31  5-MIN KABI 201940Z 36013KT 10SM CLR 12/M05 A3043 1320 29 1300 360/13 RMK AO2 T01221050
13962KABI ABI20160320134510503/20/16 13:45:31  5-MIN KABI 201945Z 33009KT 10SM CLR 12/M04 A3043 1320 31 1300 320/09 RMK AO2 T01221044
13962KABI ABI20160320135011203/20/16 13:50:31  5-MIN KABI 201950Z 30007KT 10SM CLR 12/M04 A3043 1320 32 1300 290/07 RMK AO2 SLP303 T01171044
13962KABI ABI20160320135510503/20/16 13:55:31  5-MIN KABI 201955Z 35007KT 10SM CLR 12/M04 A3043 1330 31 1300 350/07 RMK AO2 T01221044
13962KABI ABI20160320140011103/20/16 14:00:31  5-MIN KABI 202000Z 36011G15KT 10SM CLR 12/M04 A3043 1330 31 1400 350/11G15 RMK AO2 T01221044
13962KABI ABI20160320140510503/20/16 14:05:31  5-MIN KABI 202005Z 35008KT 10SM CLR 12/M05 A3042 1330 29 1400 340/08 RMK AO2 T01221050
13962KABI ABI20160320141010503/20/16 14:10:31  5-MIN KABI 202010Z 36008KT 10SM CLR 12/M05 A3042 1330 29 1400 350/08 RMK AO2 T01221050
13962KABI ABI20160320141510503/20/16 14:15:31  5-MIN KABI 202015Z VRB04KT 10SM CLR 13/M06 A3042 1340 27 1400 VRB/04 RMK AO2 T01281056
13962KABI ABI20160320142012103/20/16 14:20:31  5-MIN KABI 202020Z 36009KT 330V030 10SM CLR 12/M05 A3042 1340 29 1400 360/09 330V030 RMK AO2 T01221050
13962KABI ABI20160320142510503/20/16 14:25:31  5-MIN KABI 202025Z 01009KT 10SM CLR 13/M05 A3041 1340 28 1400 010/09 RMK AO2 T01281050
13962KABI ABI20160320143010503/20/16 14:30:31  5-MIN KABI 202030Z 35010KT 10SM CLR 13/M05 A3041 1340 28 1400 350/10 RMK AO2 T01281050
13962KABI ABI20160320143510503/20/16 14:35:31  5-MIN KABI 202035Z 35008KT 10SM CLR 13/M06 A3041 1340 27 1400 350/08 RMK AO2 T01281056
13962KABI ABI20160320144010503/20/16 14:40:31  5-MIN KABI 202040Z 32008KT 10SM CLR 13/M04 A3041 1350 30 1400 320/08 RMK AO2 T01281044
13962KABI ABI20160320144510503/20/16 14:45:31  5-MIN KABI 202045Z 02005KT 10SM CLR 12/M06 A3041 1350 28 1400 010/05 RMK AO2 T01221056
13962KABI ABI20160320145010803/20/16 14:50:31  5-MIN KABI 202050Z 10SM CLR 13/M05 A3040 1350 28 1400 M /M RMK AO2 SLP293 T01281050 50001
13962KABI ABI20160320145510503/20/16 14:55:31  5-MIN KABI 202055Z 33007KT 10SM CLR 13/M05 A3040 1350 28 1400 330/07 RMK AO2 T01281050
13962KABI ABI20160320150010503/20/16 15:00:31  5-MIN KABI 202100Z 34008KT 10SM CLR 13/M05 A3040 1350 28 1400 340/08 RMK AO2 T01281050
13962KABI ABI20160320150510503/20/16 15:05:31  5-MIN KABI 202105Z VRB06KT 10SM CLR 13/M05 A3040 1350 27 1500 VRB/06 RMK AO2 T01331050
13962KABI ABI20160320151010503/20/16 15:10:31  5-MIN KABI 202110Z 33008KT 10SM CLR 13/M05 A3040 1350 28 1400 330/08 RMK AO2 T01281050
13962KABI ABI20160320151511103/20/16 15:15:31  5-MIN KABI 202115Z 36007G17KT 10SM CLR 13/M04 A3040 1350 28 1500 350/07G17 RMK AO2 T01331044
13962KABI ABI20160320152012703/20/16 15:20:31  5-MIN KABI 202120Z 02009G17KT 350V070 10SM CLR 13/M06 A3040 1360 26 1400 010/09G17 350V070 RMK AO2 T01281061
13962KABI ABI20160320152510503/20/16 15:25:31  5-MIN KABI 202125Z VRB04KT 10SM CLR 13/M05 A3040 1360 27 1500 VRB/04 RMK AO2 T01331050
13962KABI ABI20160320153010503/20/16 15:30:31  5-MIN KABI 202130Z 01005KT 10SM CLR 13/M06 A3039 1360 26 1500 360/05 RMK AO2 T01281061
13962KABI ABI20160320153510503/20/16 15:35:31  5-MIN KABI 202135Z VRB05KT 10SM CLR 13/M06 A3039 1360 26 1500 VRB/05 RMK AO2 T01281061
13962KABI ABI20160320154010503/20/16 15:40:31  5-MIN KABI 202140Z 03007KT 10SM CLR 13/M06 A3039 1360 26 1500 020/07 RMK AO2 T01331056
13962KABI ABI20160320154510503/20/16 15:45:31  5-MIN KABI 202145Z 36007KT 10SM CLR 13/M06 A3039 1360 25 1500 350/07 RMK AO2 T01331061
13962KABI ABI20160320155011203/20/16 15:50:31  5-MIN KABI 202150Z 01010KT 10SM CLR 13/M06 A3039 1360 25 1500 360/10 RMK AO2 SLP289 T01331061
13962KABI ABI20160320155510503/20/16 15:55:31  5-MIN KABI 202155Z 36007KT 10SM CLR 13/M06 A3039 1360 25 1500 350/07 RMK AO2 T01331061
13962KABI ABI20160320160010503/20/16 16:00:31  5-MIN KABI 202200Z 32009KT 10SM CLR 13/M06 A3038 1370 26 1500 320/09 RMK AO2 T01331056
13962KABI ABI20160320160510503/20/16 16:05:31  5-MIN KABI 202205Z 33008KT 10SM CLR 13/M06 A3038 1370 27 1500 330/08 RMK AO2 T01281056
13962KABI ABI20160320161010503/20/16 16:10:31  5-MIN KABI 202210Z 01010KT 10SM CLR 13/M06 A3038 1370 25 1500 360/10 RMK AO2 T01331061
13962KABI ABI20160320161510503/20/16 16:15:31  5-MIN KABI 202215Z 00000KT 10SM CLR 13/M07 A3038 1370 25 1500 000/00 RMK AO2 T01281067
13962KABI ABI20160320162010503/20/16 16:20:31  5-MIN KABI 202220Z 35008KT 10SM CLR 13/M07 A3037 1380 24 1500 340/08 RMK AO2 T01331067
13962KABI ABI20160320162510503/20/16 16:25:31  5-MIN KABI 202225Z 01007KT 10SM CLR 13/M06 A3037 1380 25 1500 360/07 RMK AO2 T01331061
13962KABI ABI20160320163010503/20/16 16:30:31  5-MIN KABI 202230Z 36007KT 10SM CLR 13/M06 A3037 1380 26 1500 360/07 RMK AO2 T01331056
13962KABI ABI20160320163510503/20/16 16:35:31  5-MIN KABI 202235Z 04004KT 10SM CLR 13/M07 A3037 1380 24 1500 040/04 RMK AO2 T01331067
13962KABI ABI20160320164010503/20/16 16:40:31  5-MIN KABI 202240Z 35006KT 10SM CLR 13/M06 A3036 1380 25 1500 350/06 RMK AO2 T01331061
13962KABI ABI20160320164510503/20/16 16:45:31  5-MIN KABI 202245Z 35009KT 10SM CLR 13/M06 A3036 1380 25 1500 340/09 RMK AO2 T01331061
13962KABI ABI20160320165011203/20/16 16:50:31  5-MIN KABI 202250Z 32003KT 10SM CLR 13/M06 A3036 1380 25 1500 310/03 RMK AO2 SLP281 T01331061
13962KABI ABI20160320165510503/20/16 16:55:31  5-MIN KABI 202255Z 01005KT 10SM CLR 13/M06 A3036 1380 25 1600 360/05 RMK AO2 T01331061
13962KABI ABI20160320170010503/20/16 17:00:31  5-MIN KABI 202300Z 35008KT 10SM CLR 13/M06 A3036 1380 25 1600 350/08 RMK AO2 T01331061
13962KABI ABI20160320170510503/20/16 17:05:31  5-MIN KABI 202305Z 33008KT 10SM CLR 13/M06 A3036 1390 25 1600 320/08 RMK AO2 T01331061
13962KABI ABI20160320171010503/20/16 17:10:31  5-MIN KABI 202310Z 34007KT 10SM CLR 13/M07 A3036 1390 25 1500 340/07 RMK AO2 T01281067
13962KABI ABI20160320171510503/20/16 17:15:31  5-MIN KABI 202315Z 33005KT 10SM CLR 13/M07 A3036 1380 25 1500 320/05 RMK AO2 T01281067
13962KABI ABI20160320172010503/20/16 17:20:31  5-MIN KABI 202320Z 01005KT 10SM CLR 13/M07 A3036 1380 25 1500 010/05 RMK AO2 T01281067
13962KABI ABI20160320172510503/20/16 17:25:31  5-MIN KABI 202325Z 01006KT 10SM CLR 13/M06 A3036 1380 25 1500 010/06 RMK AO2 T01331061
13962KABI ABI20160320173010503/20/16 17:30:31  5-MIN KABI 202330Z 01005KT 10SM CLR 13/M07 A3037 1380 25 1500 010/05 RMK AO2 T01281067
13962KABI ABI20160320173510503/20/16 17:35:31  5-MIN KABI 202335Z 01003KT 10SM CLR 13/M07 A3036 1390 25 1500 360/03 RMK AO2 T01281067
13962KABI ABI20160320174010503/20/16 17:40:31  5-MIN KABI 202340Z 02005KT 10SM CLR 13/M06 A3036 1390 26 1500 020/05 RMK AO2 T01281061
13962KABI ABI20160320174510503/20/16 17:45:31  5-MIN KABI 202345Z 01004KT 10SM CLR 13/M07 A3036 1390 25 1500 010/04 RMK AO2 T01281067
13962KABI ABI20160320175013003/20/16 17:50:31  5-MIN KABI 202350Z 35006KT 10SM CLR 13/M06 A3036 1390 26 1500 350/06 RMK AO2 SLP281 T01281061 10133 20100 56026
13962KABI ABI20160320175510503/20/16 17:55:31  5-MIN KABI 202355Z 34006KT 10SM CLR 12/M07 A3036 1380 26 1400 340/06 RMK AO2 T01221067
13962KABI ABI20160320180010503/20/16 18:00:31  5-MIN KABI 210000Z 02003KT 10SM CLR 12/M07 A3036 1380 25 1400 020/03 RMK AO2 T01221072
13962KABI ABI20160320180510503/20/16 18:05:31  5-MIN KABI 210005Z 36007KT 10SM CLR 12/M07 A3036 1390 26 1400 360/07 RMK AO2 T01221067
13962KABI ABI20160320181010503/20/16 18:10:31  5-MIN KABI 210010Z 03005KT 10SM CLR 12/M07 A3036 1380 26 1400 020/05 RMK AO2 T01221067
13962KABI ABI20160320181510503/20/16 18:15:31  5-MIN KABI 210015Z 01004KT 10SM CLR 12/M07 A3036 1380 26 1400 010/04 RMK AO2 T01221067
13962KABI ABI20160320182010503/20/16 18:20:31  5-MIN KABI 210020Z 02005KT 10SM CLR 12/M07 A3037 1380 27 1400 020/05 RMK AO2 T01171067
13962KABI ABI20160320182510503/20/16 18:25:31  5-MIN KABI 210025Z 03004KT 10SM CLR 12/M07 A3037 1380 26 1400 020/04 RMK AO2 T01171072
13962KABI ABI20160320183010503/20/16 18:30:31  5-MIN KABI 210030Z 03004KT 10SM CLR 12/M07 A3037 1380 27 1400 030/04 RMK AO2 T01171067
13962KABI ABI20160320183510503/20/16 18:35:31  5-MIN KABI 210035Z 05003KT 10SM CLR 12/M07 A3037 1380 26 1400 040/03 RMK AO2 T01171072
13962KABI ABI20160320184010503/20/16 18:40:31  5-MIN KABI 210040Z 06004KT 10SM CLR 11/M07 A3036 1380 28 1300 050/04 RMK AO2 T01111067
13962KABI ABI20160320184510503/20/16 18:45:31  5-MIN KABI 210045Z 05004KT 10SM CLR 11/M07 A3036 1380 28 1300 050/04 RMK AO2 T01111067
13962KABI ABI20160320185011203/20/16 18:50:31  5-MIN KABI 210050Z 05005KT 10SM CLR 11/M07 A3036 1380 28 1300 050/05 RMK AO2 SLP284 T01111067
13962KABI ABI20160320185510503/20/16 18:55:31  5-MIN KABI 210055Z 05004KT 10SM CLR 11/M06 A3037 1380 29 1300 050/04 RMK AO2 T01111061
13962KABI ABI20160320190010503/20/16 19:00:31  5-MIN KABI 210100Z 05004KT 10SM CLR 11/M06 A3037 1380 30 1200 050/04 RMK AO2 T01061061
13962KABI ABI20160320190510503/20/16 19:05:31  5-MIN KABI 210105Z 06004KT 10SM CLR 11/M06 A3037 1380 30 1200 050/04 RMK AO2 T01061061
13962KABI ABI20160320191010503/20/16 19:10:31  5-MIN KABI 210110Z 05005KT 10SM CLR 11/M06 A3037 1380 30 1200 050/05 RMK AO2 T01061061
13962KABI ABI20160320191510503/20/16 19:15:31  5-MIN KABI 210115Z 05005KT 10SM CLR 11/M07 A3037 1380 29 1200 050/05 RMK AO2 T01061067
13962KABI ABI20160320192010503/20/16 19:20:31  5-MIN KABI 210120Z 06004KT 10SM CLR 11/M07 A3037 1380 29 1200 050/04 RMK AO2 T01061067
13962KABI ABI20160320192510503/20/16 19:25:31  5-MIN KABI 210125Z 06004KT 10SM CLR 11/M07 A3037 1380 29 1200 050/04 RMK AO2 T01061067
13962KABI ABI20160320193010503/20/16 19:30:31  5-MIN KABI 210130Z 06005KT 10SM CLR 11/M07 A3037 1380 29 1200 050/05 RMK AO2 T01061067
13962KABI ABI20160320193510503/20/16 19:35:31  5-MIN KABI 210135Z 06005KT 10SM CLR 10/M06 A3037 1380 31 1100 060/05 RMK AO2 T01001061
13962KABI ABI20160320194010503/20/16 19:40:31  5-MIN KABI 210140Z 08004KT 10SM CLR 09/M06 A3037 1380 34 1100 080/04 RMK AO2 T00941056
13962KABI ABI20160320194510503/20/16 19:45:31  5-MIN KABI 210145Z 09004KT 10SM CLR 09/M04 A3037 1380 38 1000 080/04 RMK AO2 T00891044
13962KABI ABI20160320195011203/20/16 19:50:31  5-MIN KABI 210150Z 08006KT 10SM CLR 09/M05 A3037 1380 37 1000 080/06 RMK AO2 SLP287 T00891050
13962KABI ABI20160320195510503/20/16 19:55:31  5-MIN KABI 210155Z 08006KT 10SM CLR 09/M05 A3037 1380 37 1000 070/06 RMK AO2 T00891050
13962KABI ABI20160320200010503/20/16 20:00:31  5-MIN KABI 210200Z 07007KT 10SM CLR 09/M06 A3037 1380 34 1100 070/07 RMK AO2 T00941056
13962KABI ABI20160320200510503/20/16 20:05:31  5-MIN KABI 210205Z 08006KT 10SM CLR 09/M06 A3037 1370 34 1100 070/06 RMK AO2 T00941056
13962KABI ABI20160320201010503/20/16 20:10:31  5-MIN KABI 210210Z 08006KT 10SM CLR 09/M06 A3038 1370 35 1000 080/06 RMK AO2 T00891056
13962KABI ABI20160320201510403/20/16 20:15:31  5-MIN KABI 210215Z 09005KT 10SM CLR 08/M04 A3038 1370 40 900 090/05 RMK AO2 T00831044
13962KABI ABI20160320202010403/20/16 20:20:31  5-MIN KABI 210220Z 08006KT 10SM CLR 08/M04 A3038 1370 40 900 080/06 RMK AO2 T00831044
13962KABI ABI20160320202510503/20/16 20:25:31  5-MIN KABI 210225Z 08007KT 10SM CLR 09/M05 A3038 1370 37 1000 080/07 RMK AO2 T00891050
13962KABI ABI20160320203010503/20/16 20:30:31  5-MIN KABI 210230Z 08007KT 10SM CLR 09/M05 A3038 1370 37 1000 070/07 RMK AO2 T00891050
13962KABI ABI20160320203510403/20/16 20:35:31  5-MIN KABI 210235Z 07007KT 10SM CLR 08/M04 A3037 1370 40 900 070/07 RMK AO2 T00831044
13962KABI ABI20160320204010403/20/16 20:40:31  5-MIN KABI 210240Z 08007KT 10SM CLR 08/M04 A3037 1370 41 900 080/07 RMK AO2 T00781044
13962KABI ABI20160320204510403/20/16 20:45:31  5-MIN KABI 210245Z 09006KT 10SM CLR 07/M04 A3038 1370 43 800 090/06 RMK AO2 T00721044
13962KABI ABI20160320205011703/20/16 20:50:31  5-MIN KABI 210250Z 10007KT 10SM CLR 07/M04 A3038 1370 43 800 090/07 RMK AO2 SLP287 T00721044 56013
13962KABI ABI20160320205510403/20/16 20:55:31  5-MIN KABI 210255Z 10005KT 10SM CLR 07/M04 A3038 1370 45 800 100/05 RMK AO2 T00721039
13962KABI ABI20160320210010403/20/16 21:00:31  5-MIN KABI 210300Z 11005KT 10SM CLR 07/M04 A3038 1370 47 700 110/05 RMK AO2 T00671039
13962KABI ABI20160320210510403/20/16 21:05:31  5-MIN KABI 210305Z 11007KT 10SM CLR 07/M03 A3038 1370 49 700 100/07 RMK AO2 T00671033
13962KABI ABI20160320211010403/20/16 21:10:31  5-MIN KABI 210310Z 10008KT 10SM CLR 07/M04 A3038 1370 47 700 100/08 RMK AO2 T00671039
13962KABI ABI20160320211510403/20/16 21:15:31  5-MIN KABI 210315Z 11006KT 10SM CLR 07/M04 A3038 1370 47 700 100/06 RMK AO2 T00671039
13962KABI ABI20160320212010403/20/16 21:20:31  5-MIN KABI 210320Z 12006KT 10SM CLR 06/M03 A3038 1370 51 700 110/06 RMK AO2 T00611033
13962KABI ABI20160320212510403/20/16 21:25:31  5-MIN KABI 210325Z 16006KT 10SM CLR 04/M03 A3038 1370 57 500 160/06 RMK AO2 T00441033
13962KABI ABI20160320213010403/20/16 21:30:31  5-MIN KABI 210330Z 12007KT 10SM CLR 06/M04 A3038 1370 50 600 110/07 RMK AO2 T00561039
13962KABI ABI20160320213510403/20/16 21:35:31  5-MIN KABI 210335Z 13006KT 10SM CLR 06/M04 A3038 1370 48 700 120/06 RMK AO2 T00611039
13962KABI ABI20160320214010403/20/16 21:40:31  5-MIN KABI 210340Z 13007KT 10SM CLR 06/M04 A3038 1370 50 600 130/07 RMK AO2 T00561039
13962KABI ABI20160320214510403/20/16 21:45:31  5-MIN KABI 210345Z 17007KT 10SM CLR 04/M03 A3038 1370 57 500 170/07 RMK AO2 T00441033
13962KABI ABI20160320215011103/20/16 21:50:31  5-MIN KABI 210350Z 16007KT 10SM CLR 04/M03 A3038 1370 62 400 160/07 RMK AO2 SLP290 T00391028
13962KABI ABI20160320215510403/20/16 21:55:31  5-MIN KABI 210355Z 16007KT 10SM CLR 04/M03 A3038 1370 57 500 160/07 RMK AO2 T00441033
13962KABI ABI20160320220010403/20/16 22:00:31  5-MIN KABI 210400Z 14007KT 10SM CLR 04/M03 A3038 1370 59 500 140/07 RMK AO2 T00441028
13962KABI ABI20160320220510403/20/16 22:05:31  5-MIN KABI 210405Z 14007KT 10SM CLR 04/M03 A3039 1370 62 400 140/07 RMK AO2 T00391028
13962KABI ABI20160320221010403/20/16 22:10:31  5-MIN KABI 210410Z 14006KT 10SM CLR 04/M03 A3039 1360 59 400 140/06 RMK AO2 T00391033
13962KABI ABI20160320221510403/20/16 22:15:31  5-MIN KABI 210415Z 13007KT 10SM CLR 04/M03 A3039 1370 59 400 130/07 RMK AO2 T00391033
13962KABI ABI20160320222010403/20/16 22:20:31  5-MIN KABI 210420Z 13007KT 10SM CLR 04/M03 A3039 1370 57 500 120/07 RMK AO2 T00441033
13962KABI ABI20160320222510403/20/16 22:25:31  5-MIN KABI 210425Z 14007KT 10SM CLR 04/M03 A3039 1370 59 400 140/07 RMK AO2 T00391033
13962KABI ABI20160320223010403/20/16 22:30:31  5-MIN KABI 210430Z 15006KT 10SM CLR 03/M03 A3039 1360 64 300 150/06 RMK AO2 T00331028
13962KABI ABI20160320223510403/20/16 22:35:31  5-MIN KABI 210435Z 15006KT 10SM CLR 03/M03 A3038 1370 61 300 140/06 RMK AO2 T00331033
13962KABI ABI20160320224010403/20/16 22:40:31  5-MIN KABI 210440Z 14005KT 10SM CLR 04/M03 A3038 1370 59 400 130/05 RMK AO2 T00391033
13962KABI ABI20160320224510403/20/16 22:45:31  5-MIN KABI 210445Z 13005KT 10SM CLR 04/M03 A3038 1370 59 400 130/05 RMK AO2 T00391033
13962KABI ABI20160320225011103/20/16 22:50:31  5-MIN KABI 210450Z 13006KT 10SM CLR 03/M03 A3038 1370 61 300 130/06 RMK AO2 SLP288 T00331033
13962KABI ABI20160320225510403/20/16 22:55:31  5-MIN KABI 210455Z 15006KT 10SM CLR 03/M03 A3038 1370 61 300 140/06 RMK AO2 T00331033
13962KABI ABI20160320230010403/20/16 23:00:31  5-MIN KABI 210500Z 14006KT 10SM CLR 03/M03 A3038 1370 61 300 140/06 RMK AO2 T00331033
13962KABI ABI20160320230510403/20/16 23:05:31  5-MIN KABI 210505Z 14007KT 10SM CLR 03/M03 A3038 1370 61 300 140/07 RMK AO2 T00331033
13962KABI ABI20160320231010403/20/16 23:10:31  5-MIN KABI 210510Z 15007KT 10SM CLR 03/M03 A3038 1370 61 300 150/07 RMK AO2 T00331033
13962KABI ABI20160320231510403/20/16 23:15:31  5-MIN KABI 210515Z 14007KT 10SM CLR 03/M03 A3037 1380 61 300 140/07 RMK AO2 T00331033
13962KABI ABI20160320232010403/20/16 23:20:31  5-MIN KABI 210520Z 14007KT 10SM CLR 03/M03 A3037 1380 61 300 140/07 RMK AO2 T00331033
13962KABI ABI20160320232510403/20/16 23:25:31  5-MIN KABI 210525Z 15007KT 10SM CLR 03/M03 A3037 1380 64 300 140/07 RMK AO2 T00281033
13962KABI ABI20160320233010403/20/16 23:30:31  5-MIN KABI 210530Z 14007KT 10SM CLR 03/M03 A3037 1380 61 300 140/07 RMK AO2 T00331033
13962KABI ABI20160320233510403/20/16 23:35:31  5-MIN KABI 210535Z 14006KT 10SM CLR 03/M03 A3037 1380 61 300 140/06 RMK AO2 T00331033
13962KABI ABI20160320234010403/20/16 23:40:31  5-MIN KABI 210540Z 15007KT 10SM CLR 03/M03 A3037 1380 61 300 140/07 RMK AO2 T00331033
13962KABI ABI20160320234510403/20/16 23:45:31  5-MIN KABI 210545Z 16008KT 10SM CLR 03/M04 A3037 1380 59 300 150/08 RMK AO2 T00331039
13962KABI ABI20160320235013903/20/16 23:50:31  5-MIN KABI 210550Z 16008KT 10SM CLR 03/M03 A3037 1380 61 300 150/08 RMK AO2 SLP284 T00331033 10122 20028 401331006 53005
13962KABI ABI20160320235510403/20/16 23:55:31  5-MIN KABI 210555Z 16006KT 10SM CLR 03/M03 A3037 1380 61 300 150/06 RMK AO2 T00331033
13962KABI ABI20160321000010403/21/16 00:00:31  5-MIN KABI 210600Z 17005KT 10SM CLR 03/M03 A3037 1380 64 300 170/05 RMK AO2 T00281033
13962KABI ABI20160321000510403/21/16 00:05:31  5-MIN KABI 210605Z 16006KT 10SM CLR 03/M03 A3037 1380 64 300 150/06 RMK AO2 T00281033
13962KABI ABI20160321001010403/21/16 00:10:31  5-MIN KABI 210610Z 15007KT 10SM CLR 03/M03 A3037 1380 64 300 150/07 RMK AO2 T00281033
13962KABI ABI20160321001510403/21/16 00:15:31  5-MIN KABI 210615Z 15007KT 10SM CLR 03/M03 A3037 1380 64 300 150/07 RMK AO2 T00281033
13962KABI ABI20160321002010403/21/16 00:20:31  5-MIN KABI 210620Z 15008KT 10SM CLR 03/M03 A3037 1380 64 300 150/08 RMK AO2 T00281033
13962KABI ABI20160321002510403/21/16 00:25:31  5-MIN KABI 210625Z 15008KT 10SM CLR 03/M03 A3037 1380 61 300 150/08 RMK AO2 T00331033
13962KABI ABI20160321003010403/21/16 00:30:31  5-MIN KABI 210630Z 15008KT 10SM CLR 03/M03 A3037 1380 61 300 150/08 RMK AO2 T00331033
13962KABI ABI20160321003510403/21/16 00:35:31  5-MIN KABI 210635Z 15008KT 10SM CLR 03/M03 A3037 1380 61 300 150/08 RMK AO2 T00331033
13962KABI ABI20160321004010403/21/16 00:40:31  5-MIN KABI 210640Z 15008KT 10SM CLR 04/M03 A3037 1380 59 400 150/08 RMK AO2 T00391033
13962KABI ABI20160321004510403/21/16 00:45:31  5-MIN KABI 210645Z 15008KT 10SM CLR 03/M03 A3037 1380 61 300 150/08 RMK AO2 T00331033
13962KABI ABI20160321005011103/21/16 00:50:31  5-MIN KABI 210650Z 16007KT 10SM CLR 03/M03 A3037 1380 61 300 150/07 RMK AO2 SLP282 T00331033
13962KABI ABI20160321005510403/21/16 00:55:31  5-MIN KABI 210655Z 16008KT 10SM CLR 03/M04 A3037 1380 59 300 150/08 RMK AO2 T00331039
13962KABI ABI20160321010010403/21/16 01:00:31  5-MIN KABI 210700Z 15008KT 10SM CLR 04/M04 A3036 1380 57 400 150/08 RMK AO2 T00391039
13962KABI ABI20160321010510403/21/16 01:05:31  5-MIN KABI 210705Z 15008KT 10SM CLR 04/M04 A3036 1380 57 400 150/08 RMK AO2 T00391039
13962KABI ABI20160321011010403/21/16 01:10:31  5-MIN KABI 210710Z 15008KT 10SM CLR 04/M04 A3036 1380 57 400 150/08 RMK AO2 T00391039
13962KABI ABI20160321011510403/21/16 01:15:31  5-MIN KABI 210715Z 15009KT 10SM CLR 04/M04 A3036 1380 57 400 150/09 RMK AO2 T00391039
13962KABI ABI20160321012010403/21/16 01:20:31  5-MIN KABI 210720Z 15009KT 10SM CLR 04/M04 A3036 1380 55 500 150/09 RMK AO2 T00441039
13962KABI ABI20160321012510403/21/16 01:25:31  5-MIN KABI 210725Z 15009KT 10SM CLR 04/M04 A3036 1390 55 500 150/09 RMK AO2 T00441039
13962KABI ABI20160321013010403/21/16 01:30:31  5-MIN KABI 210730Z 15009KT 10SM CLR 04/M04 A3036 1390 55 500 150/09 RMK AO2 T00441039
13962KABI ABI20160321013510403/21/16 01:35:31  5-MIN KABI 210735Z 16010KT 10SM CLR 04/M04 A3036 1390 52 500 150/10 RMK AO2 T00441044
13962KABI ABI20160321014010403/21/16 01:40:31  5-MIN KABI 210740Z 16011KT 10SM CLR 04/M04 A3036 1390 52 500 150/11 RMK AO2 T00441044
13962KABI ABI20160321014510403/21/16 01:45:31  5-MIN KABI 210745Z 15010KT 10SM CLR 04/M04 A3036 1390 52 500 150/10 RMK AO2 T00441044
13962KABI ABI20160321015011103/21/16 01:50:31  5-MIN KABI 210750Z 16010KT 10SM CLR 04/M04 A3036 1390 52 500 150/10 RMK AO2 SLP278 T00441044
13962KABI ABI20160321015510403/21/16 01:55:31  5-MIN KABI 210755Z 16010KT 10SM CLR 04/M04 A3036 1390 52 500 150/10 RMK AO2 T00441044
13962KABI ABI20160321020010403/21/16 02:00:31  5-MIN KABI 210800Z 16010KT 10SM CLR 04/M04 A3036 1390 52 500 150/10 RMK AO2 T00441044
13962KABI ABI20160321020510403/21/16 02:05:31  5-MIN KABI 210805Z 15010KT 10SM CLR 04/M04 A3035 1390 57 400 150/10 RMK AO2 T00391039
13962KABI ABI20160321021010403/21/16 02:10:31  5-MIN KABI 210810Z 15009KT 10SM CLR 04/M04 A3035 1400 57 400 150/09 RMK AO2 T00391039
13962KABI ABI20160321021510403/21/16 02:15:31  5-MIN KABI 210815Z 15009KT 10SM CLR 04/M04 A3035 1400 57 400 150/09 RMK AO2 T00391039
13962KABI ABI20160321022010403/21/16 02:20:31  5-MIN KABI 210820Z 15008KT 10SM CLR 04/M04 A3035 1400 57 400 150/08 RMK AO2 T00391039
13962KABI ABI20160321022510403/21/16 02:25:31  5-MIN KABI 210825Z 16010KT 10SM CLR 04/M04 A3035 1400 54 400 150/10 RMK AO2 T00391044
13962KABI ABI20160321023010403/21/16 02:30:31  5-MIN KABI 210830Z 16009KT 10SM CLR 04/M04 A3035 1400 54 400 150/09 RMK AO2 T00391044
13962KABI ABI20160321023510403/21/16 02:35:31  5-MIN KABI 210835Z 16010KT 10SM CLR 04/M04 A3035 1400 52 500 150/10 RMK AO2 T00441044
13962KABI ABI20160321024010403/21/16 02:40:31  5-MIN KABI 210840Z 16010KT 10SM CLR 04/M04 A3035 1400 52 500 160/10 RMK AO2 T00441044
13962KABI ABI20160321024510403/21/16 02:45:31  5-MIN KABI 210845Z 16011KT 10SM CLR 05/M04 A3034 1400 50 600 150/11 RMK AO2 T00501044
13962KABI ABI20160321025011703/21/16 02:50:31  5-MIN KABI 210850Z 16010KT 10SM CLR 05/M04 A3034 1410 50 600 160/10 RMK AO2 SLP271 T00501044 58002
13962KABI ABI20160321025510403/21/16 02:55:31  5-MIN KABI 210855Z 16008KT 10SM CLR 04/M04 A3034 1410 52 500 160/08 RMK AO2 T00441044
13962KABI ABI20160321030010403/21/16 03:00:31  5-MIN KABI 210900Z 16007KT 10SM CLR 04/M04 A3034 1410 52 500 160/07 RMK AO2 T00441044
13962KABI ABI20160321030510403/21/16 03:05:31  5-MIN KABI 210905Z 17008KT 10SM CLR 04/M04 A3033 1410 52 500 160/08 RMK AO2 T00441044
13962KABI ABI20160321031010403/21/16 03:10:31  5-MIN KABI 210910Z 17007KT 10SM CLR 04/M04 A3033 1410 54 400 160/07 RMK AO2 T00391044
13962KABI ABI20160321031510403/21/16 03:15:31  5-MIN KABI 210915Z 17007KT 10SM CLR 04/M04 A3033 1420 54 500 160/07 RMK AO2 T00391044
13962KABI ABI20160321032010403/21/16 03:20:31  5-MIN KABI 210920Z 17008KT 10SM CLR 04/M04 A3033 1420 52 500 160/08 RMK AO2 T00441044
13962KABI ABI20160321032510403/21/16 03:25:31  5-MIN KABI 210925Z 17009KT 10SM CLR 04/M04 A3033 1420 52 500 160/09 RMK AO2 T00441044
13962KABI ABI20160321033010403/21/16 03:30:31  5-MIN KABI 210930Z 17009KT 10SM CLR 05/M04 A3033 1420 50 600 170/09 RMK AO2 T00501044
13962KABI ABI20160321033510403/21/16 03:35:31  5-MIN KABI 210935Z 17009KT 10SM CLR 05/M04 A3033 1420 50 600 170/09 RMK AO2 T00501044
13962KABI ABI20160321034010403/21/16 03:40:31  5-MIN KABI 210940Z 17009KT 10SM CLR 05/M05 A3033 1420 48 600 160/09 RMK AO2 T00501050
13962KABI ABI20160321034510403/21/16 03:45:31  5-MIN KABI 210945Z 17010KT 10SM CLR 05/M05 A3032 1420 48 600 170/10 RMK AO2 T00501050
13962KABI ABI20160321035011103/21/16 03:50:31  5-MIN KABI 210950Z 18009KT 10SM CLR 05/M05 A3033 1420 48 600 170/09 RMK AO2 SLP265 T00501050
13962KABI ABI20160321035510403/21/16 03:55:31  5-MIN KABI 210955Z 17008KT 10SM CLR 05/M05 A3033 1420 48 600 170/08 RMK AO2 T00501050
13962KABI ABI20160321040010403/21/16 04:00:31  5-MIN KABI 211000Z 17009KT 10SM CLR 05/M05 A3032 1420 48 600 160/09 RMK AO2 T00501050
13962KABI ABI20160321114512803/21/16 11:45:31  5-MIN KABI 211745Z 21018G26KT 10SM CLR 16/00 A3029 1450 33 2000 200/18G26 RMK AO2 PK WND 20028/1704 T01610000
13962KABI ABI20160321115015303/21/16 11:50:31  5-MIN KABI 211750Z 19019G26KT 10SM CLR 16/00 A3029 1450 33 2000 190/19G26 RMK AO2 PK WND 20028/1704 SLP251 T01610000 10161 20039 50003
13962KABI ABI20160321115510403/21/16 11:55:31  5-MIN KABI 211755Z 18016KT 10SM CLR 16/01 A3028 1460 34 2000 180/16 RMK AO2 T01610006
13962KABI ABI20160321120012803/21/16 12:00:31  5-MIN KABI 211800Z 20020G28KT 10SM CLR 17/01 A3028 1460 33 2000 190/20G28 RMK AO2 PK WND 18028/1757 T01670006
13962KABI ABI20160321120512803/21/16 12:05:31  5-MIN KABI 211805Z 20020G28KT 10SM CLR 17/00 A3027 1470 32 2000 200/20G28 RMK AO2 PK WND 18028/1757 T01670000
13962KABI ABI20160321121012803/21/16 12:10:31  5-MIN KABI 211810Z 20015G27KT 10SM CLR 17/00 A3028 1460 32 2000 190/15G27 RMK AO2 PK WND 18028/1757 T01670000
13962KABI ABI20160321121512803/21/16 12:15:31  5-MIN KABI 211815Z 20020G27KT 10SM CLR 17/00 A3027 1470 31 2100 200/20G27 RMK AO2 PK WND 18028/1757 T01720000
13962KABI ABI20160321122012803/21/16 12:20:31  5-MIN KABI 211820Z 19020G27KT 10SM CLR 17/00 A3027 1470 31 2100 180/20G27 RMK AO2 PK WND 18028/1757 T01720000
13962KABI ABI20160321122512803/21/16 12:25:31  5-MIN KABI 211825Z 20016G25KT 10SM CLR 17/01 A3027 1470 32 2100 190/16G25 RMK AO2 PK WND 18028/1757 T01720006
13962KABI ABI20160321123012803/21/16 12:30:31  5-MIN KABI 211830Z 21019G23KT 10SM CLR 18/01 A3026 1480 31 2200 200/19G23 RMK AO2 PK WND 18028/1757 T01780006
13962KABI ABI20160321123512803/21/16 12:35:31  5-MIN KABI 211835Z 21019G27KT 10SM CLR 18/01 A3026 1480 31 2200 200/19G27 RMK AO2 PK WND 18028/1757 T01780006
13962KABI ABI20160321124012803/21/16 12:40:31  5-MIN KABI 211840Z 20020G27KT 10SM CLR 18/00 A3025 1480 30 2200 190/20G27 RMK AO2 PK WND 18028/1757 T01780000
13962KABI ABI20160321124512803/21/16 12:45:31  5-MIN KABI 211845Z 20020G27KT 10SM CLR 18/01 A3025 1490 31 2200 190/20G27 RMK AO2 PK WND 18028/1757 T01780006
13962KABI ABI20160321125013503/21/16 12:50:31  5-MIN KABI 211850Z 20017G25KT 10SM CLR 18/01 A3025 1490 30 2300 190/17G25 RMK AO2 PK WND 18028/1757 SLP237 T01830006
13962KABI ABI20160321125512803/21/16 12:55:31  5-MIN KABI 211855Z 20021G30KT 10SM CLR 18/01 A3025 1490 31 2300 190/21G30 RMK AO2 PK WND 19030/1854 T01830011
13962KABI ABI20160321130012803/21/16 13:00:31  5-MIN KABI 211900Z 20017G30KT 10SM CLR 18/01 A3024 1500 30 2300 190/17G30 RMK AO2 PK WND 19030/1854 T01830006
13962KABI ABI20160321130512803/21/16 13:05:31  5-MIN KABI 211905Z 19021G27KT 10SM CLR 18/01 A3023 1500 30 2300 180/21G27 RMK AO2 PK WND 19030/1854 T01830006
13962KABI ABI20160321131012803/21/16 13:10:31  5-MIN KABI 211910Z 18019G27KT 10SM CLR 18/01 A3023 1500 30 2300 180/19G27 RMK AO2 PK WND 19030/1854 T01830006
13962KABI ABI20160321131512803/21/16 13:15:31  5-MIN KABI 211915Z 20019G26KT 10SM CLR 19/01 A3024 1500 30 2300 200/19G26 RMK AO2 PK WND 19030/1854 T01890011
13962KABI ABI20160321132012803/21/16 13:20:31  5-MIN KABI 211920Z 20018G24KT 10SM CLR 19/01 A3023 1510 30 2300 200/18G24 RMK AO2 PK WND 19030/1854 T01890011
13962KABI ABI20160321132512803/21/16 13:25:31  5-MIN KABI 211925Z 20018G26KT 10SM CLR 19/01 A3023 1510 29 2400 200/18G26 RMK AO2 PK WND 19030/1854 T01890006
13962KABI ABI20160321133012803/21/16 13:30:31  5-MIN KABI 211930Z 19017G26KT 10SM CLR 19/01 A3022 1520 30 2400 180/17G26 RMK AO2 PK WND 19030/1854 T01890011
13962KABI ABI20160321133512803/21/16 13:35:31  5-MIN KABI 211935Z 19019G25KT 10SM CLR 19/02 A3022 1520 30 2400 180/19G25 RMK AO2 PK WND 19030/1854 T01940017
13962KABI ABI20160321134012803/21/16 13:40:31  5-MIN KABI 211940Z 20019G26KT 10SM CLR 19/01 A3022 1520 29 2400 190/19G26 RMK AO2 PK WND 19030/1854 T01890006
13962KABI ABI20160321134512803/21/16 13:45:31  5-MIN KABI 211945Z 21017G26KT 10SM CLR 19/01 A3021 1520 29 2400 210/17G26 RMK AO2 PK WND 19030/1854 T01940011
13962KABI ABI20160321135013503/21/16 13:50:31  5-MIN KABI 211950Z 19019G26KT 10SM CLR 19/01 A3021 1530 29 2400 180/19G26 RMK AO2 PK WND 19030/1854 SLP220 T01940011
13962KABI ABI20160321135511003/21/16 13:55:31  5-MIN KABI 211955Z 19019G26KT 10SM CLR 19/01 A3020 1530 29 2400 180/19G26 RMK AO2 T01890006
13962KABI ABI20160321140011003/21/16 14:00:31  5-MIN KABI 212000Z 19017G24KT 10SM CLR 19/01 A3020 1540 29 2400 180/17G24 RMK AO2 T01940011
13962KABI ABI20160321140512803/21/16 14:05:31  5-MIN KABI 212005Z 20016G26KT 10SM CLR 19/01 A3020 1540 28 2500 190/16G26 RMK AO2 PK WND 20026/2003 T01940006
13962KABI ABI20160321141012803/21/16 14:10:31  5-MIN KABI 212010Z 20021G26KT 10SM CLR 19/01 A3019 1550 29 2500 200/21G26 RMK AO2 PK WND 20026/2010 T01940011
13962KABI ABI20160321141512803/21/16 14:15:31  5-MIN KABI 212015Z 20017G24KT 10SM CLR 19/01 A3018 1550 28 2500 200/17G24 RMK AO2 PK WND 19027/2012 T01940006
13962KABI ABI20160321142012803/21/16 14:20:31  5-MIN KABI 212020Z 20018G24KT 10SM CLR 19/01 A3018 1550 29 2500 200/18G24 RMK AO2 PK WND 19027/2012 T01940011
13962KABI ABI20160321142512803/21/16 14:25:31  5-MIN KABI 212025Z 18015G24KT 10SM CLR 20/02 A3018 1550 29 2500 180/15G24 RMK AO2 PK WND 19027/2012 T02000017
13962KABI ABI20160321143012803/21/16 14:30:31  5-MIN KABI 212030Z 18019G25KT 10SM CLR 19/01 A3018 1560 29 2500 180/19G25 RMK AO2 PK WND 19027/2012 T01940011
13962KABI ABI20160321143512203/21/16 14:35:31  5-MIN KABI 212035Z 19020KT 10SM CLR 19/01 A3017 1560 29 2500 190/20 RMK AO2 PK WND 19027/2012 T01940011
13962KABI ABI20160321144012803/21/16 14:40:31  5-MIN KABI 212040Z 20019G28KT 10SM CLR 19/01 A3017 1560 29 2500 190/19G28 RMK AO2 PK WND 19028/2038 T01940011
13962KABI ABI20160321144512803/21/16 14:45:31  5-MIN KABI 212045Z 19020G28KT 10SM CLR 19/01 A3016 1570 29 2500 180/20G28 RMK AO2 PK WND 19028/2044 T01940011
13962KABI ABI20160321145014103/21/16 14:50:31  5-MIN KABI 212050Z 18019G28KT 10SM CLR 20/01 A3016 1570 28 2600 180/19G28 RMK AO2 PK WND 19028/2044 SLP205 T02000011 58017
13962KABI ABI20160321145512803/21/16 14:55:31  5-MIN KABI 212055Z 18019G26KT 10SM CLR 20/02 A3016 1570 29 2600 170/19G26 RMK AO2 PK WND 19026/2055 T02000017
13962KABI ABI20160321150012803/21/16 15:00:31  5-MIN KABI 212100Z 18019G27KT 10SM CLR 20/01 A3016 1580 28 2600 170/19G27 RMK AO2 PK WND 19027/2056 T02000011
13962KABI ABI20160321150512803/21/16 15:05:31  5-MIN KABI 212105Z 19017G27KT 10SM CLR 20/02 A3015 1580 29 2600 190/17G27 RMK AO2 PK WND 19027/2056 T02000017
13962KABI ABI20160321151012803/21/16 15:10:31  5-MIN KABI 212110Z 19019G30KT 10SM CLR 20/01 A3015 1580 28 2600 190/19G30 RMK AO2 PK WND 17030/2107 T02000011
13962KABI ABI20160321151512803/21/16 15:15:31  5-MIN KABI 212115Z 19018G30KT 10SM CLR 20/01 A3015 1580 28 2600 180/18G30 RMK AO2 PK WND 17030/2107 T02000011
13962KABI ABI20160321152012803/21/16 15:20:31  5-MIN KABI 212120Z 19020G26KT 10SM CLR 20/02 A3015 1580 29 2600 180/20G26 RMK AO2 PK WND 17030/2107 T02000017
13962KABI ABI20160321152512803/21/16 15:25:31  5-MIN KABI 212125Z 18017G25KT 10SM CLR 20/02 A3014 1590 29 2600 180/17G25 RMK AO2 PK WND 17030/2107 T02000017
13962KABI ABI20160321153012803/21/16 15:30:31  5-MIN KABI 212130Z 20021G26KT 10SM CLR 20/01 A3014 1590 28 2600 190/21G26 RMK AO2 PK WND 17030/2107 T02000011
13962KABI ABI20160321153512803/21/16 15:35:31  5-MIN KABI 212135Z 20021G27KT 10SM CLR 20/01 A3014 1590 28 2600 190/21G27 RMK AO2 PK WND 17030/2107 T02000011
13962KABI ABI20160321154012803/21/16 15:40:31  5-MIN KABI 212140Z 20020G27KT 10SM CLR 20/01 A3014 1590 28 2600 190/20G27 RMK AO2 PK WND 17030/2107 T02000011
13962KABI ABI20160321154512203/21/16 15:45:31  5-MIN KABI 212145Z 18021KT 10SM CLR 21/01 A3013 1600 27 2600 180/21 RMK AO2 PK WND 17030/2107 T02060011
13962KABI ABI20160321155013503/21/16 15:50:31  5-MIN KABI 212150Z 18018G24KT 10SM CLR 20/01 A3013 1600 28 2600 180/18G24 RMK AO2 PK WND 17030/2107 SLP194 T02000011
13962KABI ABI20160321155511003/21/16 15:55:31  5-MIN KABI 212155Z 19020G28KT 10SM CLR 20/01 A3013 1600 28 2600 190/20G28 RMK AO2 T02000011
13962KABI ABI20160321160011003/21/16 16:00:31  5-MIN KABI 212200Z 19020G28KT 10SM CLR 20/02 A3013 1600 29 2600 180/20G28 RMK AO2 T02000017
13962KABI ABI20160321160512803/21/16 16:05:31  5-MIN KABI 212205Z 21018G26KT 10SM CLR 21/01 A3013 1600 27 2700 200/18G26 RMK AO2 PK WND 21026/2205 T02060011
13962KABI ABI20160321161012803/21/16 16:10:31  5-MIN KABI 212210Z 21018G27KT 10SM CLR 20/01 A3013 1600 27 2600 200/18G27 RMK AO2 PK WND 20027/2206 T02000006
13962KABI ABI20160321161512203/21/16 16:15:31  5-MIN KABI 212215Z 19015KT 10SM CLR 21/01 A3012 1610 27 2700 190/15 RMK AO2 PK WND 20027/2206 T02060011
13962KABI ABI20160321162012803/21/16 16:20:31  5-MIN KABI 212220Z 20018G28KT 10SM CLR 20/01 A3012 1610 28 2600 190/18G28 RMK AO2 PK WND 19028/2217 T02000011
13962KABI ABI20160321162512803/21/16 16:25:31  5-MIN KABI 212225Z 19013G28KT 10SM CLR 20/02 A3012 1610 29 2600 190/13G28 RMK AO2 PK WND 19028/2217 T02000017
13962KABI ABI20160321163012803/21/16 16:30:31  5-MIN KABI 212230Z 18016G23KT 10SM CLR 20/02 A3012 1610 29 2600 170/16G23 RMK AO2 PK WND 19028/2217 T02000017
13962KABI ABI20160321163512803/21/16 16:35:31  5-MIN KABI 212235Z 20015G24KT 10SM CLR 20/02 A3012 1610 29 2600 200/15G24 RMK AO2 PK WND 19028/2217 T02000017
13962KABI ABI20160321164012803/21/16 16:40:31  5-MIN KABI 212240Z 20020G24KT 10SM CLR 20/01 A3012 1610 28 2600 200/20G24 RMK AO2 PK WND 19028/2217 T02000011
13962KABI ABI20160321164512803/21/16 16:45:31  5-MIN KABI 212245Z 19017G24KT 10SM CLR 20/02 A3011 1620 29 2600 190/17G24 RMK AO2 PK WND 19028/2217 T02000017
13962KABI ABI20160321165013503/21/16 16:50:31  5-MIN KABI 212250Z 19018G26KT 10SM CLR 20/02 A3011 1620 29 2600 180/18G26 RMK AO2 PK WND 19028/2217 SLP188 T02000017
13962KABI ABI20160321165511003/21/16 16:55:31  5-MIN KABI 212255Z 18018G26KT 10SM CLR 20/01 A3011 1620 28 2600 180/18G26 RMK AO2 T02000011
13962KABI ABI20160321170012803/21/16 17:00:31  5-MIN KABI 212300Z 18020G26KT 10SM CLR 20/02 A3010 1620 29 2600 180/20G26 RMK AO2 PK WND 19026/2259 T02000017
13962KABI ABI20160321170512803/21/16 17:05:31  5-MIN KABI 212305Z 19016G26KT 10SM CLR 20/02 A3010 1620 29 2600 190/16G26 RMK AO2 PK WND 19026/2259 T02000017
13962KABI ABI20160321171012803/21/16 17:10:31  5-MIN KABI 212310Z 19017G23KT 10SM CLR 20/02 A3010 1630 29 2600 180/17G23 RMK AO2 PK WND 19026/2259 T02000017
13962KABI ABI20160321171512803/21/16 17:15:31  5-MIN KABI 212315Z 18018G24KT 10SM CLR 20/02 A3009 1630 29 2600 170/18G24 RMK AO2 PK WND 19026/2259 T02000017
13962KABI ABI20160321172012803/21/16 17:20:31  5-MIN KABI 212320Z 19020G26KT 10SM CLR 19/02 A3009 1630 30 2600 180/20G26 RMK AO2 PK WND 18026/2316 T01940017
13962KABI ABI20160321172512803/21/16 17:25:31  5-MIN KABI 212325Z 19016G26KT 10SM CLR 19/01 A3010 1630 29 2600 180/16G26 RMK AO2 PK WND 18026/2316 T01940011
13962KABI ABI20160321173012803/21/16 17:30:31  5-MIN KABI 212330Z 18018G25KT 10SM CLR 19/01 A3010 1630 29 2600 170/18G25 RMK AO2 PK WND 18026/2316 T01940011
13962KABI ABI20160321173512803/21/16 17:35:31  5-MIN KABI 212335Z 18018G26KT 10SM CLR 19/01 A3010 1630 29 2600 180/18G26 RMK AO2 PK WND 18026/2316 T01940011
13962KABI ABI20160321174012803/21/16 17:40:31  5-MIN KABI 212340Z 18020G28KT 10SM CLR 19/01 A3009 1630 29 2600 180/20G28 RMK AO2 PK WND 17028/2339 T01940011
13962KABI ABI20160321174512803/21/16 17:45:31  5-MIN KABI 212345Z 19019G28KT 10SM CLR 19/01 A3009 1640 30 2500 180/19G28 RMK AO2 PK WND 17028/2339 T01890011
13962KABI ABI20160321175015303/21/16 17:50:31  5-MIN KABI 212350Z 18020G26KT 10SM CLR 19/01 A3009 1640 30 2500 170/20G26 RMK AO2 PK WND 17028/2339 SLP180 T01890011 10206 20161 58040
13962KABI ABI20160321175512803/21/16 17:55:31  5-MIN KABI 212355Z 18020G26KT 10SM CLR 19/01 A3009 1640 30 2500 180/20G26 RMK AO2 PK WND 18026/2354 T01890011
13962KABI ABI20160321180012803/21/16 18:00:31  5-MIN KABI 220000Z 19018G26KT 10SM CLR 19/01 A3009 1640 30 2500 180/18G26 RMK AO2 PK WND 18026/2357 T01890011
13962KABI ABI20160321180512803/21/16 18:05:31  5-MIN KABI 220005Z 18020G28KT 10SM CLR 19/01 A3009 1640 30 2500 180/20G28 RMK AO2 PK WND 19028/0003 T01890011
13962KABI ABI20160321181012803/21/16 18:10:31  5-MIN KABI 220010Z 19019G28KT 10SM CLR 19/01 A3009 1640 29 2500 180/19G28 RMK AO2 PK WND 19028/0003 T01890006
13962KABI ABI20160321181512803/21/16 18:15:31  5-MIN KABI 220015Z 19019G27KT 10SM CLR 18/01 A3008 1640 31 2400 180/19G27 RMK AO2 PK WND 19028/0003 T01830011
13962KABI ABI20160321182012803/21/16 18:20:31  5-MIN KABI 220020Z 19015G25KT 10SM CLR 18/01 A3009 1640 31 2400 180/15G25 RMK AO2 PK WND 19028/0003 T01830011
13962KABI ABI20160321182512203/21/16 18:25:31  5-MIN KABI 220025Z 19016KT 10SM CLR 18/01 A3009 1640 31 2400 180/16 RMK AO2 PK WND 19028/0003 T01830011
13962KABI ABI20160321183012203/21/16 18:30:31  5-MIN KABI 220030Z 19016KT 10SM CLR 18/01 A3009 1640 31 2400 180/16 RMK AO2 PK WND 19028/0003 T01830011
13962KABI ABI20160321183512803/21/16 18:35:31  5-MIN KABI 220035Z 19014G22KT 10SM CLR 18/01 A3009 1640 32 2400 180/14G22 RMK AO2 PK WND 19028/0003 T01780011
13962KABI ABI20160321184012203/21/16 18:40:31  5-MIN KABI 220040Z 19015KT 10SM CLR 18/01 A3009 1640 32 2400 180/15 RMK AO2 PK WND 19028/0003 T01780011
13962KABI ABI20160321184512203/21/16 18:45:31  5-MIN KABI 220045Z 18013KT 10SM CLR 18/01 A3008 1640 32 2400 180/13 RMK AO2 PK WND 19028/0003 T01780011
13962KABI ABI20160321185012903/21/16 18:50:31  5-MIN KABI 220050Z 19014KT 10SM CLR 17/01 A3008 1640 33 2300 180/14 RMK AO2 PK WND 19028/0003 SLP180 T01720011
13962KABI ABI20160321185510403/21/16 18:55:31  5-MIN KABI 220055Z 18013KT 10SM CLR 17/01 A3008 1650 33 2300 180/13 RMK AO2 T01720011
13962KABI ABI20160321190010403/21/16 19:00:31  5-MIN KABI 220100Z 18012KT 10SM CLR 17/01 A3008 1650 34 2300 170/12 RMK AO2 T01670011
13962KABI ABI20160321190510403/21/16 19:05:31  5-MIN KABI 220105Z 18013KT 10SM CLR 17/01 A3008 1650 34 2300 180/13 RMK AO2 T01670011
13962KABI ABI20160321191010403/21/16 19:10:31  5-MIN KABI 220110Z 18012KT 10SM CLR 17/01 A3008 1650 34 2300 170/12 RMK AO2 T01670011
13962KABI ABI20160321191510403/21/16 19:15:31  5-MIN KABI 220115Z 18012KT 10SM CLR 17/02 A3008 1650 36 2300 180/12 RMK AO2 T01670017
13962KABI ABI20160321192010403/21/16 19:20:31  5-MIN KABI 220120Z 18013KT 10SM CLR 17/02 A3008 1650 36 2300 170/13 RMK AO2 T01670017
13962KABI ABI20160321192510403/21/16 19:25:31  5-MIN KABI 220125Z 18012KT 10SM CLR 16/02 A3007 1650 37 2200 170/12 RMK AO2 T01610017
13962KABI ABI20160321193010403/21/16 19:30:31  5-MIN KABI 220130Z 18013KT 10SM CLR 16/02 A3007 1650 37 2200 170/13 RMK AO2 T01610017
13962KABI ABI20160321193510403/21/16 19:35:31  5-MIN KABI 220135Z 18013KT 10SM CLR 16/02 A3007 1650 37 2200 170/13 RMK AO2 T01610017
13962KABI ABI20160321194010403/21/16 19:40:31  5-MIN KABI 220140Z 18012KT 10SM CLR 16/02 A3007 1650 37 2200 170/12 RMK AO2 T01610017
13962KABI ABI20160321194510403/21/16 19:45:31  5-MIN KABI 220145Z 18013KT 10SM CLR 16/02 A3007 1650 39 2100 170/13 RMK AO2 T01560017
13962KABI ABI20160321195011103/21/16 19:50:31  5-MIN KABI 220150Z 18012KT 10SM CLR 16/02 A3008 1650 37 2200 170/12 RMK AO2 SLP176 T01610017
13962KABI ABI20160321195510403/21/16 19:55:31  5-MIN KABI 220155Z 17014KT 10SM CLR 16/02 A3008 1650 39 2100 170/14 RMK AO2 T01560017
13962KABI ABI20160321200010403/21/16 20:00:31  5-MIN KABI 220200Z 18012KT 10SM CLR 16/02 A3007 1650 39 2100 170/12 RMK AO2 T01560017
13962KABI ABI20160321200510403/21/16 20:05:31  5-MIN KABI 220205Z 18013KT 10SM CLR 16/02 A3007 1650 39 2100 170/13 RMK AO2 T01560017
13962KABI ABI20160321201010403/21/16 20:10:31  5-MIN KABI 220210Z 17013KT 10SM CLR 16/02 A3007 1650 39 2100 170/13 RMK AO2 T01560017
13962KABI ABI20160321201510403/21/16 20:15:31  5-MIN KABI 220215Z 18014KT 10SM CLR 16/02 A3007 1650 39 2100 180/14 RMK AO2 T01560017
13962KABI ABI20160321202010403/21/16 20:20:31  5-MIN KABI 220220Z 18014KT 10SM CLR 16/02 A3007 1650 39 2100 170/14 RMK AO2 T01560017
13962KABI ABI20160321202511003/21/16 20:25:31  5-MIN KABI 220225Z 17015G22KT 10SM CLR 16/02 A3007 1650 39 2100 170/15G22 RMK AO2 T01560017
13962KABI ABI20160321203010403/21/16 20:30:31  5-MIN KABI 220230Z 18016KT 10SM CLR 16/02 A3007 1650 39 2100 170/16 RMK AO2 T01560017
13962KABI ABI20160321203511003/21/16 20:35:31  5-MIN KABI 220235Z 17014G20KT 10SM CLR 15/02 A3007 1650 40 2100 170/14G20 RMK AO2 T01500017
13962KABI ABI20160321204011003/21/16 20:40:31  5-MIN KABI 220240Z 18015G20KT 10SM CLR 15/02 A3007 1650 40 2100 170/15G20 RMK AO2 T01500017
13962KABI ABI20160321204511003/21/16 20:45:31  5-MIN KABI 220245Z 18018G23KT 10SM CLR 16/02 A3007 1650 39 2100 170/18G23 RMK AO2 T01560017
13962KABI ABI20160321205012303/21/16 20:50:31  5-MIN KABI 220250Z 18016G23KT 10SM CLR 16/02 A3007 1650 39 2100 170/16G23 RMK AO2 SLP174 T01560017 56023
13962KABI ABI20160321205512803/21/16 20:55:31  5-MIN KABI 220255Z 18019G28KT 10SM CLR 16/02 A3007 1650 39 2100 180/19G28 RMK AO2 PK WND 18028/0255 T01560017
13962KABI ABI20160321210012803/21/16 21:00:31  5-MIN KABI 220300Z 18020G28KT 10SM CLR 16/02 A3008 1650 39 2100 180/20G28 RMK AO2 PK WND 18028/0255 T01560017
13962KABI ABI20160321210512203/21/16 21:05:31  5-MIN KABI 220305Z 18018KT 10SM CLR 16/02 A3008 1650 39 2100 180/18 RMK AO2 PK WND 18028/0255 T01560017
13962KABI ABI20160321211012803/21/16 21:10:31  5-MIN KABI 220310Z 18018G26KT 10SM CLR 15/02 A3008 1650 40 2100 180/18G26 RMK AO2 PK WND 18028/0255 T01500017
13962KABI ABI20160321211512803/21/16 21:15:31  5-MIN KABI 220315Z 18016G26KT 10SM CLR 15/02 A3008 1650 40 2100 180/16G26 RMK AO2 PK WND 18028/0255 T01500017
13962KABI ABI20160321212012803/21/16 21:20:31  5-MIN KABI 220320Z 18017G26KT 10SM CLR 15/02 A3008 1650 40 2100 180/17G26 RMK AO2 PK WND 18028/0255 T01500017
13962KABI ABI20160321212512803/21/16 21:25:31  5-MIN KABI 220325Z 18019G26KT 10SM CLR 15/02 A3008 1650 40 2100 180/19G26 RMK AO2 PK WND 18028/0255 T01500017
13962KABI ABI20160321213012803/21/16 21:30:31  5-MIN KABI 220330Z 18017G26KT 10SM CLR 15/02 A3008 1650 40 2100 180/17G26 RMK AO2 PK WND 18028/0255 T01500017
13962KABI ABI20160321213512803/21/16 21:35:31  5-MIN KABI 220335Z 18019G29KT 10SM CLR 15/02 A3008 1650 40 2100 180/19G29 RMK AO2 PK WND 19029/0333 T01500017
13962KABI ABI20160321214012803/21/16 21:40:31  5-MIN KABI 220340Z 18020G29KT 10SM CLR 15/02 A3008 1650 40 2100 180/20G29 RMK AO2 PK WND 19029/0333 T01500017
13962KABI ABI20160321214512803/21/16 21:45:31  5-MIN KABI 220345Z 19020G28KT 10SM CLR 15/02 A3008 1650 40 2100 180/20G28 RMK AO2 PK WND 19029/0333 T01500017
13962KABI ABI20160321215013503/21/16 21:50:31  5-MIN KABI 220350Z 19018G27KT 10SM CLR 14/02 A3007 1650 41 2000 180/18G27 RMK AO2 PK WND 19029/0333 SLP174 T01440017
13962KABI ABI20160321215511003/21/16 21:55:31  5-MIN KABI 220355Z 19018G25KT 10SM CLR 14/02 A3007 1650 41 2000 180/18G25 RMK AO2 T01440017
13962KABI ABI20160321220012803/21/16 22:00:31  5-MIN KABI 220400Z 19020G27KT 10SM CLR 14/02 A3007 1650 41 2000 180/20G27 RMK AO2 PK WND 18027/0400 T01440017
13962KABI ABI20160321220512803/21/16 22:05:31  5-MIN KABI 220405Z 19019G28KT 10SM CLR 14/02 A3007 1660 41 2000 180/19G28 RMK AO2 PK WND 18028/0404 T01440017
13962KABI ABI20160321221012803/21/16 22:10:31  5-MIN KABI 220410Z 19019G28KT 10SM CLR 14/02 A3007 1660 41 2000 180/19G28 RMK AO2 PK WND 18028/0404 T01440017
13962KABI ABI20160321221512803/21/16 22:15:31  5-MIN KABI 220415Z 19020G30KT 10SM CLR 14/02 A3007 1660 41 2000 180/20G30 RMK AO2 PK WND 18030/0413 T01440017
13962KABI ABI20160321222012803/21/16 22:20:31  5-MIN KABI 220420Z 19018G30KT 10SM CLR 14/02 A3007 1660 43 2000 180/18G30 RMK AO2 PK WND 18030/0413 T01390017
13962KABI ABI20160321222512803/21/16 22:25:31  5-MIN KABI 220425Z 18020G27KT 10SM CLR 14/02 A3006 1660 43 2000 180/20G27 RMK AO2 PK WND 18030/0413 T01390017
13962KABI ABI20160321223012803/21/16 22:30:31  5-MIN KABI 220430Z 18017G27KT 10SM CLR 14/02 A3006 1660 43 2000 180/17G27 RMK AO2 PK WND 18030/0413 T01390017
13962KABI ABI20160321223512803/21/16 22:35:31  5-MIN KABI 220435Z 18020G26KT 10SM CLR 14/02 A3006 1660 43 2000 170/20G26 RMK AO2 PK WND 18030/0413 T01390017
13962KABI ABI20160321224012803/21/16 22:40:31  5-MIN KABI 220440Z 18018G26KT 10SM CLR 14/02 A3006 1660 43 2000 170/18G26 RMK AO2 PK WND 18030/0413 T01390017
13962KABI ABI20160321224512803/21/16 22:45:31  5-MIN KABI 220445Z 18019G27KT 10SM CLR 14/02 A3006 1660 43 2000 180/19G27 RMK AO2 PK WND 18030/0413 T01390017
13962KABI ABI20160321225013503/21/16 22:50:31  5-MIN KABI 220450Z 18020G27KT 10SM CLR 14/02 A3006 1660 43 2000 180/20G27 RMK AO2 PK WND 18030/0413 SLP168 T01390017
13962KABI ABI20160321225511003/21/16 22:55:31  5-MIN KABI 220455Z 18015G27KT 10SM CLR 14/02 A3006 1670 43 2000 170/15G27 RMK AO2 T01390017
13962KABI ABI20160321230012803/21/16 23:00:31  5-MIN KABI 220500Z 18018G28KT 10SM CLR 14/02 A3006 1660 43 2000 170/18G28 RMK AO2 PK WND 17028/0500 T01390017
13962KABI ABI20160321230512803/21/16 23:05:31  5-MIN KABI 220505Z 17017G28KT 10SM CLR 14/02 A3006 1670 43 2000 170/17G28 RMK AO2 PK WND 17028/0500 T01390017
13962KABI ABI20160321231012803/21/16 23:10:31  5-MIN KABI 220510Z 17018G27KT 10SM CLR 13/02 A3005 1670 45 1900 170/18G27 RMK AO2 PK WND 17028/0500 T01330017
13962KABI ABI20160321231512803/21/16 23:15:31  5-MIN KABI 220515Z 17018G28KT 10SM CLR 13/02 A3005 1670 45 1900 170/18G28 RMK AO2 PK WND 17028/0500 T01330017
13962KABI ABI20160321232012803/21/16 23:20:31  5-MIN KABI 220520Z 18019G28KT 10SM CLR 13/02 A3005 1670 45 1900 170/19G28 RMK AO2 PK WND 17028/0500 T01330017
13962KABI ABI20160321232512803/21/16 23:25:31  5-MIN KABI 220525Z 18019G26KT 10SM CLR 13/02 A3005 1680 45 1900 180/19G26 RMK AO2 PK WND 17028/0500 T01330017
13962KABI ABI20160321233012803/21/16 23:30:31  5-MIN KABI 220530Z 18018G26KT 10SM CLR 13/02 A3005 1680 45 1900 180/18G26 RMK AO2 PK WND 17028/0500 T01330017
13962KABI ABI20160321233512803/21/16 23:35:31  5-MIN KABI 220535Z 18023G31KT 10SM CLR 13/02 A3004 1680 45 1900 180/23G31 RMK AO2 PK WND 17031/0532 T01330017
13962KABI ABI20160321234012803/21/16 23:40:31  5-MIN KABI 220540Z 18021G31KT 10SM CLR 13/02 A3004 1680 45 1900 180/21G31 RMK AO2 PK WND 17031/0538 T01330017
13962KABI ABI20160321234512803/21/16 23:45:31  5-MIN KABI 220545Z 18022G31KT 10SM CLR 13/02 A3004 1680 45 1900 180/22G31 RMK AO2 PK WND 17031/0538 T01330017
13962KABI ABI20160321235016303/21/16 23:50:31  5-MIN KABI 220550Z 18021G30KT 10SM CLR 13/02 A3004 1680 45 1900 180/21G30 RMK AO2 PK WND 17031/0538 SLP159 T01330017 10189 20133 402060028 56005
13962KABI ABI20160321235511003/21/16 23:55:31  5-MIN KABI 220555Z 18019G30KT 10SM CLR 13/02 A3004 1690 46 1900 180/19G30 RMK AO2 T01280017
13962KABI ABI20160322000011003/22/16 00:00:31  5-MIN KABI 220600Z 18019G28KT 10SM CLR 13/02 A3004 1680 46 1900 180/19G28 RMK AO2 T01280017
13962KABI ABI20160322000512803/22/16 00:05:31  5-MIN KABI 220605Z 18017G28KT 10SM CLR 13/02 A3003 1690 46 1900 170/17G28 RMK AO2 PK WND 18028/0603 T01280017
13962KABI ABI20160322001012803/22/16 00:10:31  5-MIN KABI 220610Z 18020G28KT 10SM CLR 13/02 A3003 1690 46 1900 180/20G28 RMK AO2 PK WND 18028/0603 T01280017
13962KABI ABI20160322001512803/22/16 00:15:31  5-MIN KABI 220615Z 18021G28KT 10SM CLR 13/02 A3003 1690 46 1900 180/21G28 RMK AO2 PK WND 18028/0615 T01280017
13962KABI ABI20160322002012803/22/16 00:20:31  5-MIN KABI 220620Z 18018G28KT 10SM CLR 13/02 A3002 1700 46 1900 180/18G28 RMK AO2 PK WND 18028/0615 T01280017
13962KABI ABI20160322002512803/22/16 00:25:31  5-MIN KABI 220625Z 19020G28KT 10SM CLR 12/02 A3002 1700 48 1800 180/20G28 RMK AO2 PK WND 18028/0615 T01220017
13962KABI ABI20160322003012803/22/16 00:30:31  5-MIN KABI 220630Z 18020G28KT 10SM CLR 12/02 A3002 1700 48 1800 180/20G28 RMK AO2 PK WND 19028/0626 T01220017
13962KABI ABI20160322003512803/22/16 00:35:31  5-MIN KABI 220635Z 18021G28KT 10SM CLR 12/02 A3002 1700 48 1800 180/21G28 RMK AO2 PK WND 19028/0626 T01220017
13962KABI ABI20160322004012803/22/16 00:40:31  5-MIN KABI 220640Z 18021G29KT 10SM CLR 12/02 A3002 1700 48 1800 180/21G29 RMK AO2 PK WND 18029/0636 T01220017
13962KABI ABI20160322004512803/22/16 00:45:31  5-MIN KABI 220645Z 19020G30KT 10SM CLR 12/02 A3002 1700 48 1800 180/20G30 RMK AO2 PK WND 18030/0645 T01220017
13962KABI ABI20160322005013503/22/16 00:50:31  5-MIN KABI 220650Z 19019G30KT 10SM CLR 12/02 A3002 1700 48 1800 180/19G30 RMK AO2 PK WND 18030/0645 SLP153 T01220017
13962KABI ABI20160322005512803/22/16 00:55:31  5-MIN KABI 220655Z 19018G28KT 10SM CLR 12/02 A3002 1700 48 1800 180/18G28 RMK AO2 PK WND 18027/0653 T01220017
13962KABI ABI20160322010012803/22/16 01:00:31  5-MIN KABI 220700Z 18018G27KT 10SM CLR 12/02 A3002 1700 48 1800 180/18G27 RMK AO2 PK WND 19027/0658 T01220017
13962KABI ABI20160322010512803/22/16 01:05:31  5-MIN KABI 220705Z 19021G27KT 10SM CLR 12/02 A3002 1700 48 1800 180/21G27 RMK AO2 PK WND 19027/0658 T01220017
13962KABI ABI20160322011012803/22/16 01:10:31  5-MIN KABI 220710Z 19019G26KT 10SM CLR 12/02 A3002 1700 48 1800 180/19G26 RMK AO2 PK WND 19027/0658 T01220017
13962KABI ABI20160322011512803/22/16 01:15:31  5-MIN KABI 220715Z 18019G26KT 10SM CLR 12/02 A3002 1700 48 1800 180/19G26 RMK AO2 PK WND 19027/0658 T01220017
13962KABI ABI20160322012012803/22/16 01:20:31  5-MIN KABI 220720Z 19019G27KT 10SM CLR 12/02 A3002 1700 48 1800 180/19G27 RMK AO2 PK WND 19027/0658 T01220017
13962KABI ABI20160322012512803/22/16 01:25:31  5-MIN KABI 220725Z 19019G27KT 10SM CLR 13/02 A3001 1710 46 1900 180/19G27 RMK AO2 PK WND 19027/0658 T01280017
13962KABI ABI20160322013012803/22/16 01:30:31  5-MIN KABI 220730Z 19018G28KT 10SM CLR 12/02 A3002 1700 48 1800 180/18G28 RMK AO2 PK WND 18028/0726 T01220017
13962KABI ABI20160322013512803/22/16 01:35:31  5-MIN KABI 220735Z 18018G28KT 10SM CLR 12/02 A3002 1700 48 1800 180/18G28 RMK AO2 PK WND 18028/0726 T01220017
13962KABI ABI20160322014012803/22/16 01:40:31  5-MIN KABI 220740Z 19018G25KT 10SM CLR 12/02 A3002 1700 50 1800 180/18G25 RMK AO2 PK WND 18028/0726 T01220022
13962KABI ABI20160322014512803/22/16 01:45:31  5-MIN KABI 220745Z 19015G25KT 10SM CLR 12/02 A3001 1710 52 1800 180/15G25 RMK AO2 PK WND 18028/0726 T01170022
13962KABI ABI20160322015013503/22/16 01:50:31  5-MIN KABI 220750Z 19019G23KT 10SM CLR 12/02 A3001 1710 52 1800 180/19G23 RMK AO2 PK WND 18028/0726 SLP149 T01170022
13962KABI ABI20160322015511003/22/16 01:55:31  5-MIN KABI 220755Z 19017G25KT 10SM CLR 12/02 A3001 1710 52 1800 180/17G25 RMK AO2 T01170022
13962KABI ABI20160322020012803/22/16 02:00:31  5-MIN KABI 220800Z 18018G26KT 10SM CLR 12/02 A3001 1710 52 1800 180/18G26 RMK AO2 PK WND 19026/0758 T01170022
13962KABI ABI20160322020512803/22/16 02:05:31  5-MIN KABI 220805Z 19018G26KT 10SM CLR 12/02 A3000 1710 52 1800 180/18G26 RMK AO2 PK WND 19026/0758 T01170022
13962KABI ABI20160322021012803/22/16 02:10:31  5-MIN KABI 220810Z 19018G25KT 10SM CLR 12/02 A3000 1720 52 1800 180/18G25 RMK AO2 PK WND 19026/0758 T01170022
13962KABI ABI20160322021512803/22/16 02:15:31  5-MIN KABI 220815Z 18016G25KT 10SM CLR 12/02 A3000 1720 52 1800 180/16G25 RMK AO2 PK WND 19026/0758 T01170022
13962KABI ABI20160322022012803/22/16 02:20:31  5-MIN KABI 220820Z 18017G25KT 10SM CLR 12/02 A3000 1720 52 1800 180/17G25 RMK AO2 PK WND 19026/0758 T01170022
13962KABI ABI20160322022512803/22/16 02:25:31  5-MIN KABI 220825Z 18018G24KT 10SM CLR 12/02 A3000 1720 52 1800 180/18G24 RMK AO2 PK WND 19026/0758 T01170022
13962KABI ABI20160322023012803/22/16 02:30:31  5-MIN KABI 220830Z 18016G24KT 10SM CLR 12/02 A3000 1720 52 1800 180/16G24 RMK AO2 PK WND 19026/0758 T01170022
13962KABI ABI20160322023512803/22/16 02:35:31  5-MIN KABI 220835Z 18017G23KT 10SM CLR 12/02 A3000 1720 52 1800 180/17G23 RMK AO2 PK WND 19026/0758 T01170022
13962KABI ABI20160322024012803/22/16 02:40:31  5-MIN KABI 220840Z 18018G26KT 10SM CLR 12/02 A3000 1720 52 1800 170/18G26 RMK AO2 PK WND 19026/0758 T01170022
13962KABI ABI20160322024512803/22/16 02:45:31  5-MIN KABI 220845Z 18016G26KT 10SM CLR 12/02 A2999 1720 52 1800 170/16G26 RMK AO2 PK WND 19026/0758 T01170022
13962KABI ABI20160322025014103/22/16 02:50:31  5-MIN KABI 220850Z 18016G26KT 10SM CLR 12/02 A2999 1720 52 1800 180/16G26 RMK AO2 PK WND 19026/0758 SLP143 T01170022 58012
13962KABI ABI20160322025511003/22/16 02:55:31  5-MIN KABI 220855Z 18015G24KT 10SM CLR 12/02 A2999 1730 52 1800 180/15G24 RMK AO2 T01170022
13962KABI ABI20160322030011003/22/16 03:00:31  5-MIN KABI 220900Z 18017G24KT 10SM CLR 12/02 A2999 1730 52 1800 170/17G24 RMK AO2 T01170022
13962KABI ABI20160322030511003/22/16 03:05:31  5-MIN KABI 220905Z 18016G23KT 10SM CLR 11/02 A2999 1730 54 1700 170/16G23 RMK AO2 T01110022
13962KABI ABI20160322031011003/22/16 03:10:31  5-MIN KABI 220910Z 17016G22KT 10SM CLR 11/02 A2998 1730 54 1700 170/16G22 RMK AO2 T01110022
13962KABI ABI20160322031510403/22/16 03:15:31  5-MIN KABI 220915Z 17014KT 10SM CLR 11/02 A2998 1730 54 1700 170/14 RMK AO2 T01110022
13962KABI ABI20160322032011003/22/16 03:20:31  5-MIN KABI 220920Z 18015G22KT 10SM CLR 11/02 A2998 1740 54 1700 170/15G22 RMK AO2 T01110022
13962KABI ABI20160322032511003/22/16 03:25:31  5-MIN KABI 220925Z 17015G22KT 10SM CLR 11/02 A2998 1740 54 1700 170/15G22 RMK AO2 T01110022
13962KABI ABI20160322033010403/22/16 03:30:31  5-MIN KABI 220930Z 18015KT 10SM CLR 12/02 A2997 1740 52 1800 170/15 RMK AO2 T01170022
13962KABI ABI20160322033511003/22/16 03:35:31  5-MIN KABI 220935Z 17015G25KT 10SM CLR 12/02 A2997 1740 52 1800 170/15G25 RMK AO2 T01170022
13962KABI ABI20160322034011003/22/16 03:40:31  5-MIN KABI 220940Z 17017G25KT 10SM CLR 12/02 A2997 1750 52 1800 170/17G25 RMK AO2 T01170022
13962KABI ABI20160322034511003/22/16 03:45:31  5-MIN KABI 220945Z 17017G24KT 10SM CLR 12/02 A2997 1750 52 1800 170/17G24 RMK AO2 T01170022
13962KABI ABI20160322035013503/22/16 03:50:31  5-MIN KABI 220950Z 17018G27KT 10SM CLR 12/03 A2996 1750 54 1800 170/18G27 RMK AO2 PK WND 17027/0947 SLP133 T01170028
13962KABI ABI20160322035511003/22/16 03:55:31  5-MIN KABI 220955Z 17016G27KT 10SM CLR 12/03 A2996 1750 54 1800 170/16G27 RMK AO2 T01170028
13962KABI ABI20160322040011003/22/16 04:00:31  5-MIN KABI 221000Z 18014G22KT 10SM CLR 12/03 A2996 1750 54 1800 170/14G22 RMK AO2 T01170028
13962KABI ABI20160322040511003/22/16 04:05:31  5-MIN KABI 221005Z 18016G24KT 10SM CLR 12/03 A2996 1750 54 1800 170/16G24 RMK AO2 T01170028
13962KABI ABI20160322041011003/22/16 04:10:31  5-MIN KABI 221010Z 18014G24KT 10SM CLR 12/03 A2996 1760 54 1800 170/14G24 RMK AO2 T01170028
13962KABI ABI20160322041511003/22/16 04:15:31  5-MIN KABI 221015Z 18016G24KT 10SM CLR 12/03 A2996 1760 54 1800 170/16G24 RMK AO2 T01170028
13962KABI ABI20160322042011003/22/16 04:20:31  5-MIN KABI 221020Z 18017G24KT 10SM CLR 11/03 A2995 1760 56 1800 180/17G24 RMK AO2 T01110028
13962KABI ABI20160322042512803/22/16 04:25:31  5-MIN KABI 221025Z 18020G28KT 10SM CLR 12/03 A2995 1760 54 1800 180/20G28 RMK AO2 PK WND 17028/1023 T01170028
13962KABI ABI20160322043012803/22/16 04:30:31  5-MIN KABI 221030Z 18020G29KT 10SM CLR 12/03 A2995 1770 54 1800 170/20G29 RMK AO2 PK WND 17029/1029 T01170028
13962KABI ABI20160322043512803/22/16 04:35:31  5-MIN KABI 221035Z 18020G29KT 10SM CLR 12/03 A2995 1770 54 1800 180/20G29 RMK AO2 PK WND 17029/1029 T01170028
13962KABI ABI20160322044012803/22/16 04:40:31  5-MIN KABI 221040Z 18020G29KT 10SM CLR 11/03 A2995 1770 56 1800 180/20G29 RMK AO2 PK WND 17029/1029 T01110028
13962KABI ABI20160322044512803/22/16 04:45:31  5-MIN KABI 221045Z 19018G28KT 10SM CLR 12/03 A2995 1770 54 1800 180/18G28 RMK AO2 PK WND 17029/1029 T01170028
13962KABI ABI20160322045013503/22/16 04:50:31  5-MIN KABI 221050Z 19019G27KT 10SM CLR 11/03 A2995 1770 56 1800 180/19G27 RMK AO2 PK WND 17029/1029 SLP127 T01110028
13962KABI ABI20160322045512803/22/16 04:55:31  5-MIN KABI 221055Z 19021G27KT 10SM CLR 11/03 A2994 1770 56 1800 180/21G27 RMK AO2 PK WND 19027/1054 T01110028
13962KABI ABI20160322050012803/22/16 05:00:31  5-MIN KABI 221100Z 19020G29KT 10SM CLR 11/03 A2995 1770 56 1800 180/20G29 RMK AO2 PK WND 18029/1059 T01110028
13962KABI ABI20160322050512803/22/16 05:05:31  5-MIN KABI 221105Z 19018G29KT 10SM CLR 11/03 A2994 1770 58 1800 180/18G29 RMK AO2 PK WND 18029/1059 T01110033
13962KABI ABI20160322051012803/22/16 05:10:31  5-MIN KABI 221110Z 19019G31KT 10SM CLR 11/03 A2994 1770 58 1800 180/19G31 RMK AO2 PK WND 19031/1107 T01110033
13962KABI ABI20160322051512803/22/16 05:15:31  5-MIN KABI 221115Z 19019G31KT 10SM CLR 11/03 A2994 1770 58 1800 180/19G31 RMK AO2 PK WND 19031/1107 T01110033
13962KABI ABI20160322052012803/22/16 05:20:31  5-MIN KABI 221120Z 19021G30KT 10SM CLR 11/03 A2994 1770 58 1800 190/21G30 RMK AO2 PK WND 19031/1107 T01110033
13962KABI ABI20160322052512803/22/16 05:25:31  5-MIN KABI 221125Z 18022G30KT 10SM CLR 11/03 A2994 1770 58 1800 180/22G30 RMK AO2 PK WND 19031/1107 T01110033
13962KABI ABI20160322053012803/22/16 05:30:31  5-MIN KABI 221130Z 18019G32KT 10SM CLR 11/03 A2994 1780 58 1800 180/19G32 RMK AO2 PK WND 19032/1126 T01110033
13962KABI ABI20160322053512803/22/16 05:35:31  5-MIN KABI 221135Z 18019G32KT 10SM CLR 11/03 A2994 1770 58 1800 170/19G32 RMK AO2 PK WND 19032/1126 T01110033
13962KABI ABI20160322054012803/22/16 05:40:31  5-MIN KABI 221140Z 19017G32KT 10SM CLR 11/03 A2994 1770 58 1800 180/17G32 RMK AO2 PK WND 19032/1126 T01110033
13962KABI ABI20160322054512803/22/16 05:45:31  5-MIN KABI 221145Z 18017G32KT 10SM CLR 11/03 A2994 1770 58 1800 170/17G32 RMK AO2 PK WND 19032/1126 T01110033
13962KABI ABI20160322055015303/22/16 05:50:31  5-MIN KABI 221150Z 18017G27KT 10SM CLR 11/03 A2994 1770 58 1800 170/17G27 RMK AO2 PK WND 19032/1126 SLP127 T01110033 10133 20111 57014
13962KABI ABI20160322055511003/22/16 05:55:31  5-MIN KABI 221155Z 18017G25KT 10SM CLR 11/03 A2994 1770 61 1700 180/17G25 RMK AO2 T01060033
13962KABI ABI20160322060011003/22/16 06:00:31  5-MIN KABI 221200Z 19014G25KT 10SM CLR 11/03 A2994 1770 61 1700 180/14G25 RMK AO2 T01060033
13962KABI ABI20160322060512803/22/16 06:05:31  5-MIN KABI 221205Z 18018G26KT 10SM CLR 11/03 A2994 1770 61 1700 180/18G26 RMK AO2 PK WND 18026/1203 T01060033
13962KABI ABI20160322061012803/22/16 06:10:31  5-MIN KABI 221210Z 18020G26KT 10SM CLR 11/03 A2995 1770 61 1700 180/20G26 RMK AO2 PK WND 18026/1203 T01060033
13962KABI ABI20160322061512803/22/16 06:15:31  5-MIN KABI 221215Z 18018G29KT 10SM CLR 11/03 A2994 1770 61 1700 180/18G29 RMK AO2 PK WND 17029/1215 T01060033
13962KABI ABI20160322062012803/22/16 06:20:31  5-MIN KABI 221220Z 18019G29KT 10SM CLR 11/03 A2994 1770 61 1700 180/19G29 RMK AO2 PK WND 17029/1215 T01060033
13962KABI ABI20160322062512803/22/16 06:25:31  5-MIN KABI 221225Z 18015G28KT 10SM CLR 11/03 A2994 1770 61 1700 170/15G28 RMK AO2 PK WND 17029/1215 T01060033
13962KABI ABI20160322063012803/22/16 06:30:31  5-MIN KABI 221230Z 18014G26KT 10SM CLR 11/03 A2994 1770 61 1700 170/14G26 RMK AO2 PK WND 17029/1215 T01060033
13962KABI ABI20160322063512803/22/16 06:35:31  5-MIN KABI 221235Z 18017G26KT 10SM CLR 11/03 A2995 1770 61 1700 170/17G26 RMK AO2 PK WND 17029/1215 T01060033
13962KABI ABI20160322064012803/22/16 06:40:31  5-MIN KABI 221240Z 18014G26KT 10SM CLR 10/03 A2995 1770 63 1600 180/14G26 RMK AO2 PK WND 17029/1215 T01000033
13962KABI ABI20160322064512803/22/16 06:45:31  5-MIN KABI 221245Z 18016G27KT 10SM CLR 10/03 A2994 1770 63 1600 180/16G27 RMK AO2 PK WND 17029/1215 T01000033
13962KABI ABI20160322065013503/22/16 06:50:31  5-MIN KABI 221250Z 18014G27KT 10SM CLR 10/03 A2995 1770 63 1600 180/14G27 RMK AO2 PK WND 17029/1215 SLP129 T01000033
13962KABI ABI20160322065512803/22/16 06:55:31  5-MIN KABI 221255Z 18017G29KT 10SM CLR 10/03 A2994 1770 63 1600 180/17G29 RMK AO2 PK WND 18029/1255 T01000033
13962KABI ABI20160322070012803/22/16 07:00:31  5-MIN KABI 221300Z 18019G29KT 10SM CLR 10/03 A2994 1770 63 1600 180/19G29 RMK AO2 PK WND 18029/1255 T01000033
13962KABI ABI20160322070512803/22/16 07:05:31  5-MIN KABI 221305Z 19017G25KT 10SM CLR 10/03 A2995 1770 63 1600 180/17G25 RMK AO2 PK WND 18029/1255 T01000033
13962KABI ABI20160322071012803/22/16 07:10:31  5-MIN KABI 221310Z 19017G25KT 10SM CLR 10/03 A2995 1770 63 1600 180/17G25 RMK AO2 PK WND 18029/1255 T01000033
13962KABI ABI20160322071512803/22/16 07:15:31  5-MIN KABI 221315Z 19018G24KT 10SM CLR 10/04 A2995 1770 65 1600 180/18G24 RMK AO2 PK WND 18029/1255 T01000039
13962KABI ABI20160322072012803/22/16 07:20:31  5-MIN KABI 221320Z 19015G27KT 10SM CLR 11/04 A2994 1770 63 1700 180/15G27 RMK AO2 PK WND 18029/1255 T01060039
13962KABI ABI20160322072512803/22/16 07:25:31  5-MIN KABI 221325Z 19016G27KT 10SM CLR 11/04 A2995 1770 63 1700 180/16G27 RMK AO2 PK WND 18029/1255 T01060039
13962KABI ABI20160322073012803/22/16 07:30:31  5-MIN KABI 221330Z 20019G32KT 10SM CLR 11/04 A2995 1770 63 1700 190/19G32 RMK AO2 PK WND 20032/1330 T01060039
13962KABI ABI20160322073512803/22/16 07:35:31  5-MIN KABI 221335Z 19017G32KT 10SM CLR 11/04 A2995 1770 63 1700 180/17G32 RMK AO2 PK WND 20032/1330 T01060039
13962KABI ABI20160322074012803/22/16 07:40:31  5-MIN KABI 221340Z 19018G26KT 10SM CLR 11/04 A2995 1760 63 1800 180/18G26 RMK AO2 PK WND 20032/1330 T01110044
13962KABI ABI20160322074512803/22/16 07:45:31  5-MIN KABI 221345Z 19014G26KT 10SM CLR 11/04 A2996 1760 63 1800 190/14G26 RMK AO2 PK WND 20032/1330 T01110044
13962KABI ABI20160322075013503/22/16 07:50:31  5-MIN KABI 221350Z 20013G25KT 10SM CLR 11/04 A2996 1760 63 1700 190/13G25 RMK AO2 PK WND 20032/1330 SLP134 T01110044
13962KABI ABI20160322075511003/22/16 07:55:31  5-MIN KABI 221355Z 19014G20KT 10SM CLR 11/04 A2996 1760 63 1700 190/14G20 RMK AO2 T01110044
13962KABI ABI20160322080011003/22/16 08:00:31  5-MIN KABI 221400Z 19016G20KT 10SM CLR 11/04 A2995 1760 63 1800 190/16G20 RMK AO2 T01110044
13962KABI ABI20160322080510403/22/16 08:05:31  5-MIN KABI 221405Z 19015KT 10SM CLR 12/04 A2995 1760 61 1800 190/15 RMK AO2 T01170044
13962KABI ABI20160322081012803/22/16 08:10:31  5-MIN KABI 221410Z 19021G29KT 10SM CLR 12/05 A2995 1760 63 1800 190/21G29 RMK AO2 PK WND 20029/1409 T01170050
13962KABI ABI20160322081512803/22/16 08:15:31  5-MIN KABI 221415Z 19021G29KT 10SM CLR 12/05 A2996 1760 63 1800 190/21G29 RMK AO2 PK WND 20029/1409 T01170050
13962KABI ABI20160322082012803/22/16 08:20:31  5-MIN KABI 221420Z 19021G32KT 10SM CLR 12/05 A2995 1760 63 1800 190/21G32 RMK AO2 PK WND 20032/1417 T01170050
13962KABI ABI20160322082512803/22/16 08:25:31  5-MIN KABI 221425Z 19022G34KT 10SM CLR 12/05 A2995 1760 61 1900 180/22G34 RMK AO2 PK WND 19034/1422 T01220050
13962KABI ABI20160322083012803/22/16 08:30:31  5-MIN KABI 221430Z 20023G35KT 10SM CLR 12/05 A2995 1760 61 1900 190/23G35 RMK AO2 PK WND 18035/1426 T01220050
13962KABI ABI20160322083512803/22/16 08:35:31  5-MIN KABI 221435Z 19020G35KT 10SM CLR 12/05 A2995 1770 61 1900 180/20G35 RMK AO2 PK WND 18035/1426 T01220050
13962KABI ABI20160322084012803/22/16 08:40:31  5-MIN KABI 221440Z 19024G33KT 10SM CLR 13/05 A2995 1770 59 2000 190/24G33 RMK AO2 PK WND 18035/1426 T01280050
13962KABI ABI20160322084512803/22/16 08:45:31  5-MIN KABI 221445Z 20021G35KT 10SM CLR 13/05 A2995 1760 59 2000 190/21G35 RMK AO2 PK WND 20035/1441 T01280050
13962KABI ABI20160322085014103/22/16 08:50:31  5-MIN KABI 221450Z 20019G35KT 10SM CLR 13/06 A2995 1760 59 2000 190/19G35 RMK AO2 PK WND 20035/1441 SLP130 T01330056 56017
13962KABI ABI20160322085512803/22/16 08:55:31  5-MIN KABI 221455Z 19018G31KT 10SM CLR 13/06 A2995 1770 59 2000 190/18G31 RMK AO2 PK WND 19029/1455 T01330056
13962KABI ABI20160322090012803/22/16 09:00:31  5-MIN KABI 221500Z 19021G35KT 10SM CLR 13/06 A2994 1770 59 2000 190/21G35 RMK AO2 PK WND 19035/1457 T01330056
13962KABI ABI20160322090512803/22/16 09:05:31  5-MIN KABI 221505Z 19022G35KT 10SM CLR 14/06 A2995 1770 57 2100 190/22G35 RMK AO2 PK WND 19035/1457 T01390056
13962KABI ABI20160322091012803/22/16 09:10:31  5-MIN KABI 221510Z 19019G30KT 10SM CLR 14/06 A2995 1770 57 2100 190/19G30 RMK AO2 PK WND 19035/1457 T01390056
13962KABI ABI20160322091512803/22/16 09:15:31  5-MIN KABI 221515Z 19019G32KT 10SM CLR 14/06 A2995 1770 55 2200 190/19G32 RMK AO2 PK WND 19035/1457 T01440056
13962KABI ABI20160322092012803/22/16 09:20:31  5-MIN KABI 221520Z 19018G32KT 10SM CLR 14/06 A2995 1760 55 2100 180/18G32 RMK AO2 PK WND 19035/1457 T01440056
13962KABI ABI20160322092512803/22/16 09:25:31  5-MIN KABI 221525Z 19017G32KT 10SM CLR 15/06 A2995 1760 53 2200 180/17G32 RMK AO2 PK WND 19035/1457 T01500056
13962KABI ABI20160322093012803/22/16 09:30:31  5-MIN KABI 221530Z 19023G33KT 10SM CLR 15/06 A2995 1760 53 2200 190/23G33 RMK AO2 PK WND 19035/1457 T01500056
13962KABI ABI20160322093512803/22/16 09:35:31  5-MIN KABI 221535Z 18022G33KT 10SM CLR 15/06 A2995 1760 53 2200 180/22G33 RMK AO2 PK WND 19035/1457 T01500056
13962KABI ABI20160322094012803/22/16 09:40:31  5-MIN KABI 221540Z 18017G29KT 10SM CLR 16/06 A2996 1760 53 2300 170/17G29 RMK AO2 PK WND 19035/1457 T01560061
13962KABI ABI20160322094512803/22/16 09:45:31  5-MIN KABI 221545Z 19017G27KT 10SM CLR 16/06 A2996 1760 51 2300 180/17G27 RMK AO2 PK WND 19035/1457 T01610061
13962KABI ABI20160322095013503/22/16 09:50:31  5-MIN KABI 221550Z 19018G25KT 10SM CLR 16/06 A2996 1760 51 2300 180/18G25 RMK AO2 PK WND 19035/1457 SLP132 T01610061
13962KABI ABI20160322095511003/22/16 09:55:31  5-MIN KABI 221555Z 18014G23KT 10SM CLR 16/06 A2996 1750 51 2300 170/14G23 RMK AO2 T01610061
13962KABI ABI20160322100011003/22/16 10:00:31  5-MIN KABI 221600Z 19018G22KT 10SM CLR 16/06 A2996 1760 51 2300 190/18G22 RMK AO2 T01610061
13962KABI ABI20160322100512803/22/16 10:05:31  5-MIN KABI 221605Z 19015G27KT 10SM CLR 16/06 A2996 1760 51 2300 180/15G27 RMK AO2 PK WND 18027/1602 T01610061
13962KABI ABI20160322101012803/22/16 10:10:31  5-MIN KABI 221610Z 19015G27KT 10SM CLR 17/07 A2996 1760 51 2400 190/15G27 RMK AO2 PK WND 18027/1602 T01670067
13962KABI ABI20160322101512203/22/16 10:15:31  5-MIN KABI 221615Z 17013KT 10SM CLR 17/07 A2996 1760 49 2500 170/13 RMK AO2 PK WND 18027/1602 T01720067
13962KABI ABI20160322102012803/22/16 10:20:31  5-MIN KABI 221620Z 19016G24KT 10SM CLR 17/07 A2996 1760 49 2500 180/16G24 RMK AO2 PK WND 18027/1602 T01720067
13962KABI ABI20160322102512803/22/16 10:25:31  5-MIN KABI 221625Z 18014G26KT 10SM CLR 17/07 A2996 1760 49 2500 180/14G26 RMK AO2 PK WND 18027/1602 T01720067
13962KABI ABI20160322103012803/22/16 10:30:31  5-MIN KABI 221630Z 18012G26KT 10SM CLR 18/07 A2996 1760 48 2500 170/12G26 RMK AO2 PK WND 18027/1602 T01780067
13962KABI ABI20160322103512803/22/16 10:35:31  5-MIN KABI 221635Z 17015G23KT 10SM CLR 18/07 A2995 1760 48 2500 170/15G23 RMK AO2 PK WND 18027/1602 T01780067
13962KABI ABI20160322104012803/22/16 10:40:31  5-MIN KABI 221640Z 18015G23KT 10SM CLR 18/07 A2996 1760 48 2600 180/15G23 RMK AO2 PK WND 18027/1602 T01830072
13962KABI ABI20160322104512803/22/16 10:45:31  5-MIN KABI 221645Z 19015G23KT 10SM CLR 18/07 A2996 1760 48 2600 180/15G23 RMK AO2 PK WND 18027/1602 T01830072
13962KABI ABI20160322203012803/22/16 20:30:31  5-MIN KABI 230230Z 17023G30KT 10SM CLR 22/08 A2974 1960 42 3200 170/23G30 RMK AO2 PK WND 17031/0207 T02170083
13962KABI ABI20160322203512803/22/16 20:35:31  5-MIN KABI 230235Z 17022G29KT 10SM CLR 22/08 A2974 1960 42 3200 170/22G29 RMK AO2 PK WND 17031/0207 T02170083
13962KABI ABI20160322204012803/22/16 20:40:31  5-MIN KABI 230240Z 17019G29KT 10SM CLR 21/08 A2974 1960 43 3200 170/19G29 RMK AO2 PK WND 17031/0207 T02110083
13962KABI ABI20160322204512803/22/16 20:45:31  5-MIN KABI 230245Z 17022G29KT 10SM CLR 21/08 A2974 1960 43 3200 170/22G29 RMK AO2 PK WND 17031/0207 T02110083
13962KABI ABI20160322205014103/22/16 20:50:31  5-MIN KABI 230250Z 17021G30KT 10SM CLR 21/08 A2974 1960 43 3200 170/21G30 RMK AO2 PK WND 17031/0207 SLP053 T02110083 56013
13962KABI ABI20160322205512803/22/16 20:55:31  5-MIN KABI 230255Z 17021G30KT 10SM CLR 21/08 A2974 1960 45 3100 170/21G30 RMK AO2 PK WND 18027/0255 T02060083
13962KABI ABI20160322210012803/22/16 21:00:31  5-MIN KABI 230300Z 17020G27KT 10SM CLR 21/08 A2974 1960 45 3100 160/20G27 RMK AO2 PK WND 18027/0255 T02060083
13962KABI ABI20160322210512803/22/16 21:05:31  5-MIN KABI 230305Z 17018G28KT 10SM CLR 21/08 A2975 1950 45 3100 170/18G28 RMK AO2 PK WND 17028/0305 T02060083
13962KABI ABI20160322211012803/22/16 21:10:31  5-MIN KABI 230310Z 17019G28KT 10SM CLR 21/09 A2974 1960 46 3100 160/19G28 RMK AO2 PK WND 17028/0305 T02060089
13962KABI ABI20160322211512203/22/16 21:15:31  5-MIN KABI 230315Z 17017KT 10SM CLR 20/09 A2974 1960 48 3000 170/17 RMK AO2 PK WND 17028/0305 T02000089
13962KABI ABI20160322212012203/22/16 21:20:31  5-MIN KABI 230320Z 17019KT 10SM CLR 20/09 A2974 1960 48 3000 160/19 RMK AO2 PK WND 17028/0305 T02000089
13962KABI ABI20160322212512803/22/16 21:25:31  5-MIN KABI 230325Z 17020G26KT 10SM CLR 20/09 A2974 1960 48 3000 170/20G26 RMK AO2 PK WND 17028/0305 T02000089
13962KABI ABI20160322213012803/22/16 21:30:31  5-MIN KABI 230330Z 17021G28KT 10SM CLR 20/09 A2974 1960 50 3000 170/21G28 RMK AO2 PK WND 17028/0305 T02000094
13962KABI ABI20160322213512803/22/16 21:35:31  5-MIN KABI 230335Z 17021G29KT 10SM CLR 20/09 A2974 1960 50 3000 170/21G29 RMK AO2 PK WND 17029/0334 T02000094
13962KABI ABI20160322214012803/22/16 21:40:31  5-MIN KABI 230340Z 17018G30KT 10SM CLR 19/09 A2974 1960 52 3000 170/18G30 RMK AO2 PK WND 17030/0338 T01940094
13962KABI ABI20160322214512803/22/16 21:45:31  5-MIN KABI 230345Z 18020G30KT 10SM CLR 19/10 A2973 1970 54 3000 170/20G30 RMK AO2 PK WND 17030/0338 T01940100
13962KABI ABI20160322215013503/22/16 21:50:31  5-MIN KABI 230350Z 17023G33KT 10SM CLR 19/10 A2973 1970 54 3000 170/23G33 RMK AO2 PK WND 18033/0349 SLP051 T01940100
13962KABI ABI20160322215512803/22/16 21:55:31  5-MIN KABI 230355Z 18023G33KT 10SM CLR 19/10 A2973 1970 54 3000 170/23G33 RMK AO2 PK WND 18029/0354 T01940100
13962KABI ABI20160322220012803/22/16 22:00:31  5-MIN KABI 230400Z 18017G29KT 10SM CLR 19/10 A2973 1970 54 3000 170/17G29 RMK AO2 PK WND 18029/0354 T01940100
13962KABI ABI20160322220512803/22/16 22:05:31  5-MIN KABI 230405Z 18021G26KT 10SM CLR 19/10 A2973 1970 56 2900 170/21G26 RMK AO2 PK WND 18029/0354 T01890100
13962KABI ABI20160322221012803/22/16 22:10:31  5-MIN KABI 230410Z 18017G27KT 10SM CLR 19/10 A2973 1970 54 3000 180/17G27 RMK AO2 PK WND 18029/0354 T01940100
13962KABI ABI20160322221512803/22/16 22:15:31  5-MIN KABI 230415Z 18020G27KT 10SM CLR 19/10 A2973 1970 56 2900 170/20G27 RMK AO2 PK WND 18029/0354 T01890100
13962KABI ABI20160322222012803/22/16 22:20:31  5-MIN KABI 230420Z 18018G26KT 10SM CLR 19/10 A2973 1970 56 2900 170/18G26 RMK AO2 PK WND 18029/0354 T01890100
13962KABI ABI20160322222512803/22/16 22:25:31  5-MIN KABI 230425Z 18020G29KT 10SM CLR 19/10 A2973 1970 56 2900 170/20G29 RMK AO2 PK WND 18029/0354 T01890100
13962KABI ABI20160322223012803/22/16 22:30:31  5-MIN KABI 230430Z 18019G29KT 10SM CLR 19/11 A2972 1970 58 2900 170/19G29 RMK AO2 PK WND 18029/0354 T01890106
13962KABI ABI20160322223512803/22/16 22:35:31  5-MIN KABI 230435Z 18021G27KT 10SM CLR 19/11 A2973 1970 58 2900 170/21G27 RMK AO2 PK WND 18029/0354 T01890106
13962KABI ABI20160322224012803/22/16 22:40:31  5-MIN KABI 230440Z 18022G28KT 10SM CLR 19/11 A2973 1970 58 2900 170/22G28 RMK AO2 PK WND 18029/0354 T01890106
13962KABI ABI20160322224512803/22/16 22:45:31  5-MIN KABI 230445Z 18020G28KT 10SM CLR 19/11 A2973 1970 58 2900 170/20G28 RMK AO2 PK WND 18029/0354 T01890106
13962KABI ABI20160322225013503/22/16 22:50:31  5-MIN KABI 230450Z 18019G26KT 10SM CLR 19/11 A2973 1970 58 2900 170/19G26 RMK AO2 PK WND 18029/0354 SLP047 T01890106
13962KABI ABI20160322225512203/22/16 22:55:31  5-MIN KABI 230455Z 18020KT 10SM CLR 18/11 A2972 1970 60 2900 170/20 RMK AO2 PK WND 18026/0453 T01830106
13962KABI ABI20160322230012803/22/16 23:00:31  5-MIN KABI 230500Z 18021G28KT 10SM CLR 18/11 A2972 1980 60 2900 170/21G28 RMK AO2 PK WND 18028/0456 T01830106
13962KABI ABI20160322230512803/22/16 23:05:31  5-MIN KABI 230505Z 18020G28KT 10SM CLR 18/11 A2972 1980 60 2900 170/20G28 RMK AO2 PK WND 18028/0456 T01830106
13962KABI ABI20160322231012803/22/16 23:10:31  5-MIN KABI 230510Z 18020G27KT 10SM CLR 18/11 A2972 1980 60 2900 170/20G27 RMK AO2 PK WND 18028/0456 T01830106
13962KABI ABI20160322231512803/22/16 23:15:31  5-MIN KABI 230515Z 18021G29KT 10SM CLR 18/11 A2972 1980 60 2900 170/21G29 RMK AO2 PK WND 18029/0512 T01830106
13962KABI ABI20160322232012803/22/16 23:20:31  5-MIN KABI 230520Z 18019G29KT 10SM CLR 18/11 A2971 1980 62 2900 170/19G29 RMK AO2 PK WND 18029/0512 T01830111
13962KABI ABI20160322232512803/22/16 23:25:31  5-MIN KABI 230525Z 18020G27KT 10SM CLR 18/11 A2972 1980 62 2900 170/20G27 RMK AO2 PK WND 18029/0512 T01830111
13962KABI ABI20160322233012803/22/16 23:30:31  5-MIN KABI 230530Z 18018G28KT 10SM CLR 18/11 A2972 1980 62 2900 170/18G28 RMK AO2 PK WND 18029/0512 T01830111
13962KABI ABI20160322233512803/22/16 23:35:31  5-MIN KABI 230535Z 18022G28KT 10SM CLR 18/11 A2972 1980 62 2900 170/22G28 RMK AO2 PK WND 18029/0512 T01830111
13962KABI ABI20160322234012803/22/16 23:40:31  5-MIN KABI 230540Z 18021G31KT 10SM CLR 18/11 A2972 1980 62 2900 170/21G31 RMK AO2 PK WND 18031/0536 T01830111
13962KABI ABI20160322234512803/22/16 23:45:31  5-MIN KABI 230545Z 18021G31KT 10SM CLR 18/11 A2972 1980 64 2800 170/21G31 RMK AO2 PK WND 18031/0536 T01780111
13962KABI ABI20160322235016303/22/16 23:50:31  5-MIN KABI 230550Z 18020G28KT 10SM CLR 18/11 A2972 1980 62 2900 170/20G28 RMK AO2 PK WND 18031/0536 SLP042 T01830111 10250 20178 402670100 55006
13962KABI ABI20160322235512803/22/16 23:55:31  5-MIN KABI 230555Z 18017G28KT 10SM CLR 18/11 A2971 1990 64 2800 170/17G28 RMK AO2 PK WND 18027/0553 T01780111
13962KABI ABI20160323000011003/23/16 00:00:31  5-MIN KABI 230600Z 18018G27KT 10SM CLR 18/11 A2971 1980 64 2800 170/18G27 RMK AO2 T01780111
13962KABI ABI20160323000512803/23/16 00:05:31  5-MIN KABI 230605Z 18020G29KT 10SM CLR 18/11 A2971 1990 64 2800 170/20G29 RMK AO2 PK WND 18029/0604 T01780111
13962KABI ABI20160323001012803/23/16 00:10:31  5-MIN KABI 230610Z 18019G29KT 10SM CLR 18/11 A2971 1990 64 2800 170/19G29 RMK AO2 PK WND 18029/0604 T01780111
13962KABI ABI20160323001512803/23/16 00:15:31  5-MIN KABI 230615Z 18019G27KT 10SM CLR 18/11 A2971 1990 64 2800 170/19G27 RMK AO2 PK WND 18029/0604 T01780111
13962KABI ABI20160323002012803/23/16 00:20:31  5-MIN KABI 230620Z 18022G28KT 10SM CLR 18/12 A2971 1990 67 2800 170/22G28 RMK AO2 PK WND 18029/0604 T01780117
13962KABI ABI20160323002512803/23/16 00:25:31  5-MIN KABI 230625Z 18019G29KT 10SM CLR 18/12 A2971 1990 67 2800 170/19G29 RMK AO2 PK WND 17029/0623 T01780117
13962KABI ABI20160323003012803/23/16 00:30:31  5-MIN KABI 230630Z 18019G29KT 10SM CLR 18/12 A2971 1990 67 2800 170/19G29 RMK AO2 PK WND 17029/0623 T01780117
13962KABI ABI20160323003512803/23/16 00:35:31  5-MIN KABI 230635Z 18019G29KT 10SM CLR 18/12 A2970 1990 67 2800 170/19G29 RMK AO2 PK WND 17029/0623 T01780117
13962KABI ABI20160323004012803/23/16 00:40:31  5-MIN KABI 230640Z 18021G29KT 10SM CLR 18/12 A2970 1990 67 2800 170/21G29 RMK AO2 PK WND 17029/0623 T01780117
13962KABI ABI20160323004512803/23/16 00:45:31  5-MIN KABI 230645Z 18021G27KT 10SM CLR 18/12 A2970 2000 67 2800 170/21G27 RMK AO2 PK WND 17029/0623 T01780117
13962KABI ABI20160323005013503/23/16 00:50:31  5-MIN KABI 230650Z 18019G27KT 10SM CLR 18/12 A2970 2000 67 2800 170/19G27 RMK AO2 PK WND 17029/0623 SLP035 T01780117
13962KABI ABI20160323005512803/23/16 00:55:31  5-MIN KABI 230655Z 18021G28KT 10SM CLR 18/12 A2970 2000 67 2800 170/21G28 RMK AO2 PK WND 19028/0654 T01780117
13962KABI ABI20160323010012803/23/16 01:00:31  5-MIN KABI 230700Z 18020G29KT 10SM CLR 18/12 A2970 2000 67 2800 170/20G29 RMK AO2 PK WND 17029/0658 T01780117
13962KABI ABI20160323010512803/23/16 01:05:31  5-MIN KABI 230705Z 18023G29KT 10SM CLR 18/12 A2969 2000 67 2800 180/23G29 RMK AO2 PK WND 17029/0658 T01780117
13962KABI ABI20160323011012803/23/16 01:10:31  5-MIN KABI 230710Z 18021G28KT 10SM CLR 18/12 A2969 2000 67 2800 180/21G28 RMK AO2 PK WND 17029/0658 T01780117
13962KABI ABI20160323011512803/23/16 01:15:31  5-MIN KABI 230715Z 18019G28KT 10SM CLR 17/12 A2969 2000 72 2800 180/19G28 RMK AO2 PK WND 17029/0658 T01720122
13962KABI ABI20160323012012803/23/16 01:20:31  5-MIN KABI 230720Z 18019G28KT 10SM CLR 17/12 A2969 2010 72 2800 180/19G28 RMK AO2 PK WND 17029/0658 T01720122
13962KABI ABI20160323012512803/23/16 01:25:31  5-MIN KABI 230725Z 18019G29KT 10SM CLR 18/12 A2969 2010 69 2800 170/19G29 RMK AO2 PK WND 18029/0724 T01780122
13962KABI ABI20160323013012803/23/16 01:30:31  5-MIN KABI 230730Z 18020G29KT 10SM CLR 17/12 A2969 2010 72 2800 170/20G29 RMK AO2 PK WND 18029/0724 T01720122
13962KABI ABI20160323013512203/23/16 01:35:31  5-MIN KABI 230735Z 18020KT 10SM CLR 17/12 A2969 2010 72 2800 170/20 RMK AO2 PK WND 18029/0724 T01720122
13962KABI ABI20160323014012803/23/16 01:40:31  5-MIN KABI 230740Z 18020G27KT 10SM CLR 17/12 A2969 2010 72 2800 180/20G27 RMK AO2 PK WND 18029/0724 T01720122
13962KABI ABI20160323014512803/23/16 01:45:31  5-MIN KABI 230745Z 18019G27KT 10SM CLR 17/12 A2968 2010 72 2800 170/19G27 RMK AO2 PK WND 18029/0724 T01720122
13962KABI ABI20160323015013503/23/16 01:50:31  5-MIN KABI 230750Z 18020G26KT 10SM CLR 17/12 A2968 2010 72 2800 170/20G26 RMK AO2 PK WND 18029/0724 SLP030 T01720122
13962KABI ABI20160323015512803/23/16 01:55:31  5-MIN KABI 230755Z 18021G26KT 10SM CLR 17/12 A2969 2010 72 2800 170/21G26 RMK AO2 PK WND 18026/0754 T01720122
13962KABI ABI20160323020012803/23/16 02:00:31  5-MIN KABI 230800Z 18023G30KT 10SM CLR 17/13 A2968 2010 75 2800 170/23G30 RMK AO2 PK WND 19030/0800 T01720128
13962KABI ABI20160323020512803/23/16 02:05:31  5-MIN KABI 230805Z 18022G30KT 10SM CLR 17/13 A2968 2010 75 2800 170/22G30 RMK AO2 PK WND 19030/0800 T01720128
13962KABI ABI20160323021012803/23/16 02:10:31  5-MIN KABI 230810Z 18021G27KT 10SM CLR 17/13 A2968 2010 75 2800 170/21G27 RMK AO2 PK WND 19030/0800 T01720128
13962KABI ABI20160323021512803/23/16 02:15:31  5-MIN KABI 230815Z 18020G28KT 10SM CLR 17/13 A2969 2010 75 2800 180/20G28 RMK AO2 PK WND 19030/0800 T01720128
13962KABI ABI20160323022012803/23/16 02:20:31  5-MIN KABI 230820Z 18022G28KT 10SM CLR 17/13 A2968 2020 77 2700 170/22G28 RMK AO2 PK WND 19030/0800 T01670128
13962KABI ABI20160323022512803/23/16 02:25:31  5-MIN KABI 230825Z 18019G27KT 10SM CLR 17/13 A2969 2010 77 2700 180/19G27 RMK AO2 PK WND 19030/0800 T01670128
13962KABI ABI20160323023012803/23/16 02:30:31  5-MIN KABI 230830Z 18018G28KT 10SM CLR 17/13 A2969 2010 77 2700 180/18G28 RMK AO2 PK WND 19030/0800 T01670128
13962KABI ABI20160323023512803/23/16 02:35:31  5-MIN KABI 230835Z 18022G28KT 10SM CLR 17/13 A2968 2010 77 2700 170/22G28 RMK AO2 PK WND 19030/0800 T01670128
13962KABI ABI20160323024012803/23/16 02:40:31  5-MIN KABI 230840Z 18018G27KT 10SM CLR 17/13 A2968 2010 77 2700 170/18G27 RMK AO2 PK WND 19030/0800 T01670128
13962KABI ABI20160323024512803/23/16 02:45:31  5-MIN KABI 230845Z 18019G27KT 10SM CLR 17/13 A2969 2010 77 2700 180/19G27 RMK AO2 PK WND 19030/0800 T01670128
13962KABI ABI20160323025014103/23/16 02:50:31  5-MIN KABI 230850Z 18018G27KT 10SM CLR 17/13 A2968 2010 77 2700 170/18G27 RMK AO2 PK WND 19030/0800 SLP029 T01670128 58008
13962KABI ABI20160323025511003/23/16 02:55:31  5-MIN KABI 230855Z 18018G26KT 10SM CLR 17/13 A2968 2010 77 2700 170/18G26 RMK AO2 T01670128
13962KABI ABI20160323030012803/23/16 03:00:31  5-MIN KABI 230900Z 18019G26KT 10SM CLR 17/13 A2968 2010 77 2700 180/19G26 RMK AO2 PK WND 17026/0858 T01670128
13962KABI ABI20160323030512803/23/16 03:05:31  5-MIN KABI 230905Z 18017G26KT 10SM CLR 16/13 A2968 2020 80 2700 170/17G26 RMK AO2 PK WND 17026/0858 T01610128
13962KABI ABI20160323031012803/23/16 03:10:31  5-MIN KABI 230910Z 18016G24KT 10SM CLR 16/13 A2968 2020 80 2700 170/16G24 RMK AO2 PK WND 17026/0858 T01610128
13962KABI ABI20160323031512803/23/16 03:15:31  5-MIN KABI 230915Z 18017G26KT 10SM CLR 16/13 A2968 2020 80 2700 170/17G26 RMK AO2 PK WND 18026/0911 T01610128
13962KABI ABI20160323032012803/23/16 03:20:31  5-MIN KABI 230920Z 18018G27KT 10SM CLR 16/13 A2968 2020 80 2700 170/18G27 RMK AO2 PK WND 18027/0919 T01610128
13962KABI ABI20160323032512803/23/16 03:25:31  5-MIN KABI 230925Z 18019G27KT 10SM CLR 16/13 A2967 2020 80 2700 180/19G27 RMK AO2 PK WND 18027/0919 T01610128
13962KABI ABI20160323033012803/23/16 03:30:31  5-MIN KABI 230930Z 18018G25KT 10SM CLR 16/13 A2967 2020 80 2700 180/18G25 RMK AO2 PK WND 18027/0919 T01610128
13962KABI ABI20160323033512803/23/16 03:35:31  5-MIN KABI 230935Z 18016G25KT 10SM CLR 16/13 A2967 2020 80 2700 180/16G25 RMK AO2 PK WND 18027/0919 T01610128
13962KABI ABI20160323034012803/23/16 03:40:31  5-MIN KABI 230940Z 18020G26KT 10SM CLR 16/13 A2967 2020 80 2700 180/20G26 RMK AO2 PK WND 18027/0919 T01610128
13962KABI ABI20160323034512803/23/16 03:45:31  5-MIN KABI 230945Z 18017G26KT 10SM CLR 17/13 A2967 2020 77 2700 180/17G26 RMK AO2 PK WND 18027/0919 T01670128
13962KABI ABI20160323035013503/23/16 03:50:31  5-MIN KABI 230950Z 18018G25KT 10SM CLR 16/13 A2967 2030 80 2700 180/18G25 RMK AO2 PK WND 18027/0919 SLP024 T01610128
13962KABI ABI20160323035512803/23/16 03:55:31  5-MIN KABI 230955Z 18020G26KT 10SM CLR 16/13 A2967 2030 80 2700 180/20G26 RMK AO2 PK WND 19026/0953 T01610128
13962KABI ABI20160323040012803/23/16 04:00:31  5-MIN KABI 231000Z 19021G28KT 10SM CLR 17/13 A2967 2030 77 2700 180/21G28 RMK AO2 PK WND 18028/0956 T01670128
13962KABI ABI20160323040512803/23/16 04:05:31  5-MIN KABI 231005Z 19021G30KT 10SM CLR 17/13 A2967 2030 77 2700 180/21G30 RMK AO2 PK WND 18030/1001 T01670128
13962KABI ABI20160323041012803/23/16 04:10:31  5-MIN KABI 231010Z 18024G32KT 10SM CLR 17/13 A2967 2030 77 2700 180/24G32 RMK AO2 PK WND 19032/1008 T01670128
13962KABI ABI20160323041512803/23/16 04:15:31  5-MIN KABI 231015Z 18022G33KT 10SM CLR 17/13 A2967 2030 77 2700 180/22G33 RMK AO2 PK WND 18033/1011 T01670128
13962KABI ABI20160323042012803/23/16 04:20:31  5-MIN KABI 231020Z 19022G33KT 10SM CLR 17/13 A2967 2030 77 2700 180/22G33 RMK AO2 PK WND 18033/1011 T01670128
13962KABI ABI20160323042512803/23/16 04:25:31  5-MIN KABI 231025Z 19024G34KT 10SM CLR 17/13 A2967 2030 77 2700 180/24G34 RMK AO2 PK WND 19034/1024 T01670128
13962KABI ABI20160323043012803/23/16 04:30:31  5-MIN KABI 231030Z 19021G34KT 10SM CLR 17/13 A2967 2020 77 2700 190/21G34 RMK AO2 PK WND 19034/1024 T01670128
13962KABI ABI20160323043512803/23/16 04:35:31  5-MIN KABI 231035Z 19025G33KT 10SM CLR 17/13 A2967 2030 77 2700 190/25G33 RMK AO2 PK WND 19034/1024 T01670128
13962KABI ABI20160323044012803/23/16 04:40:31  5-MIN KABI 231040Z 19023G33KT 10SM CLR 17/13 A2967 2030 77 2700 180/23G33 RMK AO2 PK WND 19034/1024 T01670128
13962KABI ABI20160323044512803/23/16 04:45:31  5-MIN KABI 231045Z 19021G31KT 10SM CLR 16/13 A2967 2030 80 2700 180/21G31 RMK AO2 PK WND 19034/1024 T01610128
13962KABI ABI20160323045013503/23/16 04:50:31  5-MIN KABI 231050Z 19025G34KT 10SM CLR 16/13 A2967 2030 80 2700 190/25G34 RMK AO2 PK WND 19034/1024 SLP025 T01610128
13962KABI ABI20160323045512803/23/16 04:55:31  5-MIN KABI 231055Z 19022G34KT 10SM CLR 16/13 A2967 2030 80 2700 190/22G34 RMK AO2 PK WND 19033/1055 T01610128
13962KABI ABI20160323050012803/23/16 05:00:31  5-MIN KABI 231100Z 19025G33KT 10SM CLR 16/13 A2967 2020 80 2700 190/25G33 RMK AO2 PK WND 19033/1055 T01610128
13962KABI ABI20160323050512803/23/16 05:05:31  5-MIN KABI 231105Z 19022G33KT 10SM CLR 16/13 A2967 2030 80 2700 190/22G33 RMK AO2 PK WND 19033/1105 T01610128
13962KABI ABI20160323051012803/23/16 05:10:31  5-MIN KABI 231110Z 19022G33KT 10SM CLR 16/13 A2967 2020 80 2700 190/22G33 RMK AO2 PK WND 19033/1105 T01610128
13962KABI ABI20160323051512803/23/16 05:15:31  5-MIN KABI 231115Z 19025G34KT 10SM CLR 16/13 A2967 2020 80 2700 190/25G34 RMK AO2 PK WND 20034/1114 T01610128
13962KABI ABI20160323052012803/23/16 05:20:31  5-MIN KABI 231120Z 19022G34KT 10SM CLR 16/13 A2967 2020 83 2600 190/22G34 RMK AO2 PK WND 20034/1114 T01560128
13962KABI ABI20160323052512803/23/16 05:25:31  5-MIN KABI 231125Z 19027G34KT 10SM CLR 16/13 A2968 2020 80 2700 190/27G34 RMK AO2 PK WND 20034/1114 T01610128
13962KABI ABI20160323053012803/23/16 05:30:31  5-MIN KABI 231130Z 19023G34KT 10SM CLR 16/13 A2968 2020 80 2700 190/23G34 RMK AO2 PK WND 20034/1114 T01610128
13962KABI ABI20160323053512803/23/16 05:35:31  5-MIN KABI 231135Z 19021G31KT 10SM CLR 16/13 A2968 2020 83 2600 180/21G31 RMK AO2 PK WND 20034/1114 T01560128
13962KABI ABI20160323054012803/23/16 05:40:31  5-MIN KABI 231140Z 19021G29KT 10SM CLR 16/13 A2968 2020 83 2600 180/21G29 RMK AO2 PK WND 20034/1114 T01560128
13962KABI ABI20160323054512803/23/16 05:45:31  5-MIN KABI 231145Z 19022G29KT 10SM CLR 16/13 A2968 2020 83 2600 180/22G29 RMK AO2 PK WND 20034/1114 T01560128
13962KABI ABI20160323055015303/23/16 05:50:31  5-MIN KABI 231150Z 19019G29KT 10SM CLR 16/13 A2968 2020 83 2600 180/19G29 RMK AO2 PK WND 20034/1114 SLP029 T01560128 10178 20156 55009
13962KABI ABI20160323055512803/23/16 05:55:31  5-MIN KABI 231155Z 19021G28KT 10SM CLR 16/13 A2968 2020 83 2600 180/21G28 RMK AO2 PK WND 19028/1155 T01560128
13962KABI ABI20160323060012803/23/16 06:00:31  5-MIN KABI 231200Z 19021G30KT 10SM CLR 16/13 A2968 2010 83 2600 180/21G30 RMK AO2 PK WND 19030/1158 T01560128
13962KABI ABI20160323060512803/23/16 06:05:31  5-MIN KABI 231205Z 19021G30KT 10SM CLR 16/13 A2968 2010 83 2600 190/21G30 RMK AO2 PK WND 19030/1158 T01560128
13962KABI ABI20160323061012803/23/16 06:10:31  5-MIN KABI 231210Z 20018G32KT 10SM CLR 16/13 A2969 2010 83 2600 190/18G32 RMK AO2 PK WND 19032/1208 T01560128
13962KABI ABI20160323061513503/23/16 06:15:31  5-MIN KABI 231215Z 20015G32KT 10SM CLR 16/13 A2970 2000 83 2600 200/15G32 RMK AO2 PK WND 19032/1208 PRESRR T01560128
13962KABI ABI20160323062012803/23/16 06:20:31  5-MIN KABI 231220Z 20018G27KT 10SM CLR 16/13 A2970 2000 83 2600 190/18G27 RMK AO2 PK WND 19032/1208 T01560128
13962KABI ABI20160323062512803/23/16 06:25:31  5-MIN KABI 231225Z 20018G25KT 10SM CLR 16/13 A2970 1990 83 2600 200/18G25 RMK AO2 PK WND 19032/1208 T01560128
13962KABI ABI20160323063012803/23/16 06:30:31  5-MIN KABI 231230Z 20021G33KT 10SM CLR 16/13 A2970 2000 83 2600 190/21G33 RMK AO2 PK WND 19033/1227 T01560128
13962KABI ABI20160323063512803/23/16 06:35:31  5-MIN KABI 231235Z 19021G33KT 10SM CLR 16/13 A2970 2000 83 2600 190/21G33 RMK AO2 PK WND 19033/1227 T01560128
13962KABI ABI20160323064012803/23/16 06:40:31  5-MIN KABI 231240Z 20021G29KT 10SM CLR 16/13 A2970 2000 83 2600 190/21G29 RMK AO2 PK WND 19033/1227 T01560128
13962KABI ABI20160323064512803/23/16 06:45:31  5-MIN KABI 231245Z 20018G29KT 10SM CLR 16/13 A2971 1990 83 2600 190/18G29 RMK AO2 PK WND 19033/1227 T01560128
13962KABI ABI20160323065013503/23/16 06:50:31  5-MIN KABI 231250Z 20020G26KT 10SM CLR 16/13 A2971 1990 83 2600 190/20G26 RMK AO2 PK WND 19033/1227 SLP039 T01560128
13962KABI ABI20160323065512803/23/16 06:55:31  5-MIN KABI 231255Z 19020G29KT 10SM CLR 16/13 A2971 1990 83 2600 190/20G29 RMK AO2 PK WND 19026/1254 T01560128
13962KABI ABI20160323070012803/23/16 07:00:31  5-MIN KABI 231300Z 19019G31KT 10SM CLR 16/13 A2971 1990 83 2600 190/19G31 RMK AO2 PK WND 19031/1257 T01560128
13962KABI ABI20160323070512803/23/16 07:05:31  5-MIN KABI 231305Z 20020G31KT 10SM CLR 16/13 A2971 1990 83 2600 190/20G31 RMK AO2 PK WND 19031/1257 T01560128
13962KABI ABI20160323071012803/23/16 07:10:31  5-MIN KABI 231310Z 19019G28KT 10SM CLR 16/13 A2971 1990 83 2600 190/19G28 RMK AO2 PK WND 19031/1257 T01560128
13962KABI ABI20160323071512803/23/16 07:15:31  5-MIN KABI 231315Z 19019G31KT 10SM CLR 16/13 A2971 1990 83 2600 190/19G31 RMK AO2 PK WND 19031/1257 T01560128
13962KABI ABI20160323072012803/23/16 07:20:31  5-MIN KABI 231320Z 19020G31KT 10SM CLR 16/13 A2970 1990 83 2600 190/20G31 RMK AO2 PK WND 19031/1257 T01560128
13962KABI ABI20160323072512803/23/16 07:25:31  5-MIN KABI 231325Z 20019G28KT 10SM CLR 16/13 A2971 1990 83 2600 190/19G28 RMK AO2 PK WND 19031/1257 T01560128
13962KABI ABI20160323073012803/23/16 07:30:31  5-MIN KABI 231330Z 19021G28KT 10SM CLR 16/13 A2970 1990 80 2600 190/21G28 RMK AO2 PK WND 19031/1257 T01610128
13962KABI ABI20160323073512803/23/16 07:35:31  5-MIN KABI 231335Z 20020G28KT 10SM CLR 16/13 A2971 1990 80 2600 190/20G28 RMK AO2 PK WND 19031/1257 T01610128
13962KABI ABI20160323074012803/23/16 07:40:31  5-MIN KABI 231340Z 20022G31KT 10SM CLR 16/13 A2971 1990 80 2600 190/22G31 RMK AO2 PK WND 19031/1257 T01610128
13962KABI ABI20160323074512803/23/16 07:45:31  5-MIN KABI 231345Z 20023G31KT 10SM CLR 16/13 A2971 1990 80 2600 190/23G31 RMK AO2 PK WND 19031/1257 T01610128
13962KABI ABI20160323075013503/23/16 07:50:31  5-MIN KABI 231350Z 19020G30KT 10SM CLR 17/13 A2971 1990 77 2700 190/20G30 RMK AO2 PK WND 19031/1257 SLP040 T01670128
13962KABI ABI20160323075512803/23/16 07:55:31  5-MIN KABI 231355Z 20023G29KT 10SM CLR 17/13 A2971 1990 77 2700 200/23G29 RMK AO2 PK WND 20029/1355 T01670128
13962KABI ABI20160323080012803/23/16 08:00:31  5-MIN KABI 231400Z 20021G29KT 10SM CLR 17/13 A2971 1990 77 2700 190/21G29 RMK AO2 PK WND 20029/1356 T01670128
13962KABI ABI20160323080512803/23/16 08:05:31  5-MIN KABI 231405Z 20021G30KT 10SM CLR 17/13 A2971 1990 77 2700 190/21G30 RMK AO2 PK WND 19030/1403 T01670128
13962KABI ABI20160323081012803/23/16 08:10:31  5-MIN KABI 231410Z 19022G30KT 10SM CLR 17/13 A2971 1990 77 2700 180/22G30 RMK AO2 PK WND 19030/1410 T01670128
13962KABI ABI20160323081512803/23/16 08:15:31  5-MIN KABI 231415Z 20025G32KT 10SM CLR 17/13 A2972 1980 75 2700 190/25G32 RMK AO2 PK WND 20032/1414 T01720128
13962KABI ABI20160323082012803/23/16 08:20:31  5-MIN KABI 231420Z 19023G32KT 10SM CLR 17/13 A2971 1990 78 2700 190/23G32 RMK AO2 PK WND 20032/1414 T01720133
13962KABI ABI20160323082512803/23/16 08:25:31  5-MIN KABI 231425Z 20020G34KT 10SM CLR 17/13 A2971 1980 75 2700 190/20G34 RMK AO2 PK WND 19034/1421 T01720128
13962KABI ABI20160323184010703/23/16 18:40:31  5-MIN KABI 240040Z 22005KT 10SM SCT055 24/01 A2967 2030 21 3600 220/05 RMK AO2 T02440011
13962KABI ABI20160323184510703/23/16 18:45:31  5-MIN KABI 240045Z 23004KT 10SM SCT055 24/01 A2967 2020 20 3600 220/04 RMK AO2 T02440006
13962KABI ABI20160323185011403/23/16 18:50:31  5-MIN KABI 240050Z 24007KT 10SM SCT055 24/00 A2967 2020 19 3600 240/07 RMK AO2 SLP027 T02440000
13962KABI ABI20160323185510803/23/16 18:55:31  5-MIN KABI 240055Z 25010KT 10SM BKN055 24/M01 A2967 2020 19 3600 250/10 RMK AO2 T02441006
13962KABI ABI20160323190011403/23/16 19:00:31  5-MIN KABI 240100Z 28011G18KT 10SM BKN055 25/M02 A2968 2010 17 3700 280/11G18 RMK AO2 T02501017
13962KABI ABI20160323190513903/23/16 19:05:31  5-MIN KABI 240105Z 33021G32KT 10SM SCT055 24/M02 A2970 2000 18 3500 330/21G32 RMK AO2 PK WND 32032/0105 PRESRR T02391017
13962KABI ABI20160323191014203/23/16 19:10:31  5-MIN KABI 240110Z 33022G33KT 9SM FEW055 23/M03 A2970 2000 16 3500 330/22G33 RMK AO2 PK WND 32033/0106 WSHFT 0055 T02331033
13962KABI ABI20160323191514903/23/16 19:15:31  5-MIN KABI 240115Z 33024G37KT 9SM FEW055 23/M06 A2971 1990 14 3400 320/24G37 RMK AO2 PK WND 33037/0112 WSHFT 0055 PRESRR T02281056
13962KABI ABI20160323192014203/23/16 19:20:31  5-MIN KABI 240120Z 33019G37KT 9SM FEW055 22/M06 A2971 1980 14 3300 320/19G37 RMK AO2 PK WND 33037/0112 WSHFT 0055 T02221061
13962KABI ABI20160323192514703/23/16 19:25:31  5-MIN KABI 240125Z 33016G33KT 10SM CLR 22/M07 A2972 1980 14 3300 320/16G33 RMK AO2 PK WND 33037/0112 WSHFT 0055 PRESRR T02221067
13962KABI ABI20160323193014703/23/16 19:30:31  5-MIN KABI 240130Z 33018G33KT 10SM CLR 22/M07 A2973 1970 13 3200 320/18G33 RMK AO2 PK WND 33037/0112 WSHFT 0055 PRESRR T02171072
13962KABI ABI20160323193514003/23/16 19:35:31  5-MIN KABI 240135Z 33017G27KT 10SM CLR 22/M07 A2973 1970 13 3200 320/17G27 RMK AO2 PK WND 33037/0112 WSHFT 0055 T02171072
13962KABI ABI20160323194014703/23/16 19:40:31  5-MIN KABI 240140Z 33015G24KT 10SM CLR 22/M07 A2974 1960 13 3200 320/15G24 RMK AO2 PK WND 33037/0112 WSHFT 0055 PRESRR T02171072
13962KABI ABI20160323194514003/23/16 19:45:31  5-MIN KABI 240145Z 33017G24KT 10SM CLR 21/M07 A2974 1960 14 3200 320/17G24 RMK AO2 PK WND 33037/0112 WSHFT 0055 T02111072
13962KABI ABI20160323195014703/23/16 19:50:31  5-MIN KABI 240150Z 32014G23KT 10SM CLR 21/M08 A2975 1950 13 3100 320/14G23 RMK AO2 PK WND 33037/0112 WSHFT 0055 SLP055 T02111078
13962KABI ABI20160323195510503/23/16 19:55:31  5-MIN KABI 240155Z 31017KT 10SM CLR 21/M07 A2975 1950 14 3100 310/17 RMK AO2 T02111072
13962KABI ABI20160323200011803/23/16 20:00:31  5-MIN KABI 240200Z 32018G24KT 10SM CLR 21/M08 A2976 1940 13 3100 310/18G24 RMK AO2 PRESRR T02111078
13962KABI ABI20160323200511103/23/16 20:05:31  5-MIN KABI 240205Z 32017G24KT 10SM CLR 21/M07 A2976 1940 14 3100 310/17G24 RMK AO2 T02111072
13962KABI ABI20160323201011103/23/16 20:10:31  5-MIN KABI 240210Z 32017G22KT 10SM CLR 21/M08 A2976 1940 13 3100 320/17G22 RMK AO2 T02111078
13962KABI ABI20160323201510503/23/16 20:15:31  5-MIN KABI 240215Z 32014KT 10SM CLR 21/M08 A2977 1930 13 3100 310/14 RMK AO2 T02111083
13962KABI ABI20160323202010503/23/16 20:20:31  5-MIN KABI 240220Z 32015KT 10SM CLR 21/M08 A2978 1930 13 3100 310/15 RMK AO2 T02061083
13962KABI ABI20160323202510503/23/16 20:25:31  5-MIN KABI 240225Z 32014KT 10SM CLR 21/M08 A2977 1930 13 3100 320/14 RMK AO2 T02061083
13962KABI ABI20160323203010503/23/16 20:30:31  5-MIN KABI 240230Z 32014KT 10SM CLR 21/M08 A2978 1920 13 3000 310/14 RMK AO2 T02061083
13962KABI ABI20160323203510503/23/16 20:35:31  5-MIN KABI 240235Z 31012KT 10SM CLR 21/M08 A2978 1920 14 3000 310/12 RMK AO2 T02061078
13962KABI ABI20160323204010803/23/16 20:40:31  5-MIN KABI 240240Z 32014KT 10SM FEW120 20/M08 A2979 1920 14 3000 310/14 RMK AO2 T02001078
13962KABI ABI20160323204511403/23/16 20:45:31  5-MIN KABI 240245Z 32015G22KT 10SM FEW120 21/M09 A2979 1910 13 3000 310/15G22 RMK AO2 T02061089
13962KABI ABI20160323205012703/23/16 20:50:31  5-MIN KABI 240250Z 31013G22KT 10SM FEW120 21/M09 A2980 1900 13 3000 310/13G22 RMK AO2 SLP072 T02061089 53004
13962KABI ABI20160323205511403/23/16 20:55:31  5-MIN KABI 240255Z 31014G21KT 10SM FEW120 20/M08 A2980 1900 14 3000 310/14G21 RMK AO2 T02001083
13962KABI ABI20160323210013903/23/16 21:00:31  5-MIN KABI 240300Z 31018G26KT 10SM FEW120 21/M10 A2983 1880 12 3000 300/18G26 RMK AO2 PK WND 31026/0259 PRESRR T02061100
13962KABI ABI20160323210513203/23/16 21:05:31  5-MIN KABI 240305Z 31018G26KT 10SM SCT120 21/M11 A2982 1890 11 3000 300/18G26 RMK AO2 PK WND 31026/0259 T02061106
13962KABI ABI20160323211013203/23/16 21:10:31  5-MIN KABI 240310Z 31012G23KT 10SM SCT110 20/M10 A2981 1890 12 2900 310/12G23 RMK AO2 PK WND 31026/0259 T02001100
13962KABI ABI20160323211512603/23/16 21:15:31  5-MIN KABI 240315Z 31013KT 10SM SCT110 20/M09 A2982 1890 13 2900 300/13 RMK AO2 PK WND 31026/0259 T02001094
13962KABI ABI20160323212012603/23/16 21:20:31  5-MIN KABI 240320Z 31013KT 10SM SCT110 20/M10 A2982 1890 12 2900 310/13 RMK AO2 PK WND 31026/0259 T02001100
13962KABI ABI20160323212512603/23/16 21:25:31  5-MIN KABI 240325Z 31015KT 10SM FEW110 20/M11 A2982 1890 12 2900 310/15 RMK AO2 PK WND 31026/0259 T02001106
13962KABI ABI20160323213012603/23/16 21:30:31  5-MIN KABI 240330Z 32015KT 10SM FEW110 20/M11 A2981 1890 12 2900 310/15 RMK AO2 PK WND 31026/0259 T02001106
13962KABI ABI20160323213512603/23/16 21:35:31  5-MIN KABI 240335Z 31014KT 10SM FEW110 20/M11 A2982 1890 11 2900 310/14 RMK AO2 PK WND 31026/0259 T02001111
13962KABI ABI20160323214012303/23/16 21:40:31  5-MIN KABI 240340Z 30012KT 10SM CLR 19/M11 A2983 1870 11 2900 290/12 RMK AO2 PK WND 31026/0259 T01941111
13962KABI ABI20160323214513003/23/16 21:45:31  5-MIN KABI 240345Z 30012KT 10SM CLR 19/M12 A2984 1870 11 2900 300/12 RMK AO2 PK WND 31026/0259 PRESRR T01941117
13962KABI ABI20160323215013003/23/16 21:50:31  5-MIN KABI 240350Z 30011KT 10SM CLR 19/M11 A2984 1870 11 2900 300/11 RMK AO2 PK WND 31026/0259 SLP084 T01941111
13962KABI ABI20160323215510803/23/16 21:55:31  5-MIN KABI 240355Z 30010KT 10SM FEW120 19/M11 A2984 1870 11 2900 300/10 RMK AO2 T01941111
13962KABI ABI20160323220011403/23/16 22:00:31  5-MIN KABI 240400Z 30014G20KT 10SM FEW120 19/M11 A2986 1850 11 2800 300/14G20 RMK AO2 T01941111
13962KABI ABI20160323220513103/23/16 22:05:31  5-MIN KABI 240405Z 33030G37KT 9SM FEW120 19/M11 A2984 1860 11 2800 330/30G37 RMK AO2 PK WND 33037/0404 T01941111
13962KABI ABI20160323221013403/23/16 22:10:31  5-MIN KABI 240410Z 35035G45KT 5SM HZ SCT110 17/M04 A2985 1860 22 2600 350/35G45 RMK AO2 PK WND 34045/0407 T01721044
13962KABI ABI20160323221515203/23/16 22:15:31  5-MIN KABI 240415Z 36031G45KT 6SM HZ BKN100 BKN120 17/M02 A2985 1860 27 2500 350/31G45 RMK AO2 PK WND 34045/0407 WSHFT 0401 T01671022
13962KABI ABI20160323222014303/23/16 22:20:31  5-MIN KABI 240420Z 35027G41KT 10SM BKN110 16/M02 A2986 1850 28 2400 350/27G41 RMK AO2 PK WND 34045/0407 WSHFT 0401 T01611022
13962KABI ABI20160323222515003/23/16 22:25:31  5-MIN KABI 240425Z 34022G39KT 10SM BKN110 16/M02 A2988 1830 30 2400 340/22G39 RMK AO2 PK WND 34045/0407 WSHFT 0401 PRESRR T01561017
13962KABI ABI20160323223014303/23/16 22:30:31  5-MIN KABI 240430Z 34024G34KT 10SM BKN110 16/M02 A2989 1820 30 2400 340/24G34 RMK AO2 PK WND 34045/0407 WSHFT 0401 T01561017
13962KABI ABI20160323223514303/23/16 22:35:31  5-MIN KABI 240435Z 35024G31KT 10SM BKN110 16/M02 A2989 1820 30 2300 340/24G31 RMK AO2 PK WND 34045/0407 WSHFT 0401 T01561017
13962KABI ABI20160323224014303/23/16 22:40:31  5-MIN KABI 240440Z 34020G30KT 10SM BKN110 16/M02 A2990 1810 30 2300 340/20G30 RMK AO2 PK WND 34045/0407 WSHFT 0401 T01561017
13962KABI ABI20160323224514303/23/16 22:45:31  5-MIN KABI 240445Z 34017G29KT 10SM BKN110 15/M02 A2991 1810 31 2300 340/17G29 RMK AO2 PK WND 34045/0407 WSHFT 0401 T01501017
13962KABI ABI20160323225015003/23/16 22:50:31  5-MIN KABI 240450Z 34023G29KT 10SM OVC110 15/M02 A2991 1800 31 2300 340/23G29 RMK AO2 PK WND 34045/0407 WSHFT 0401 SLP109 T01501017
13962KABI ABI20160323225513903/23/16 22:55:31  5-MIN KABI 240455Z 34025G34KT 10SM OVC100 15/M02 A2992 1790 30 2300 340/25G34 RMK AO2 PK WND 34032/0455 PRESRR T01501022
13962KABI ABI20160323230013203/23/16 23:00:31  5-MIN KABI 240500Z 34021G34KT 10SM OVC100 15/M02 A2992 1790 30 2200 340/21G34 RMK AO2 PK WND 34032/0455 T01501022
13962KABI ABI20160323230513203/23/16 23:05:31  5-MIN KABI 240505Z 34024G34KT 10SM OVC110 14/M02 A2992 1800 31 2200 340/24G34 RMK AO2 PK WND 34034/0505 T01441022
13962KABI ABI20160323231013203/23/16 23:10:31  5-MIN KABI 240510Z 34023G34KT 10SM BKN110 14/M02 A2992 1790 31 2200 340/23G34 RMK AO2 PK WND 34034/0505 T01441022
13962KABI ABI20160323231513203/23/16 23:15:31  5-MIN KABI 240515Z 34023G33KT 10SM BKN110 14/M02 A2993 1790 31 2200 340/23G33 RMK AO2 PK WND 34034/0505 T01441022
13962KABI ABI20160323232013203/23/16 23:20:31  5-MIN KABI 240520Z 35025G32KT 10SM SCT110 14/M03 A2994 1780 31 2100 340/25G32 RMK AO2 PK WND 34034/0505 T01391028
13962KABI ABI20160323232513203/23/16 23:25:31  5-MIN KABI 240525Z 33025G32KT 10SM FEW110 14/M03 A2994 1770 30 2100 330/25G32 RMK AO2 PK WND 34034/0505 T01391033
13962KABI ABI20160323233013203/23/16 23:30:31  5-MIN KABI 240530Z 34024G32KT 10SM FEW120 14/M04 A2994 1780 29 2100 340/24G32 RMK AO2 PK WND 34034/0505 T01391039
13962KABI ABI20160323233513203/23/16 23:35:31  5-MIN KABI 240535Z 34019G32KT 10SM FEW120 13/M03 A2995 1760 31 2000 340/19G32 RMK AO2 PK WND 34034/0505 T01331033
13962KABI ABI20160323234013203/23/16 23:40:31  5-MIN KABI 240540Z 35017G25KT 10SM SCT120 13/M03 A2995 1760 31 2000 340/17G25 RMK AO2 PK WND 34034/0505 T01331033
13962KABI ABI20160323234513203/23/16 23:45:31  5-MIN KABI 240545Z 35023G27KT 10SM SCT120 13/M03 A2996 1760 31 2000 350/23G27 RMK AO2 PK WND 34034/0505 T01331033
13962KABI ABI20160323235016703/23/16 23:50:31  5-MIN KABI 240550Z 35022G27KT 10SM SCT120 13/M04 A2996 1750 31 1900 340/22G27 RMK AO2 PK WND 34034/0505 SLP129 T01281039 10256 20128 402940128 53043
13962KABI ABI20160323235513203/23/16 23:55:31  5-MIN KABI 240555Z 36022G29KT 10SM SCT120 13/M04 A2996 1750 31 1900 350/22G29 RMK AO2 PK WND 35029/0553 T01281039
13962KABI ABI20160324000013203/24/16 00:00:31  5-MIN KABI 240600Z 35022G29KT 10SM FEW120 13/M04 A2997 1750 31 1900 340/22G29 RMK AO2 PK WND 34026/0600 T01281039
13962KABI ABI20160324000513203/24/16 00:05:31  5-MIN KABI 240605Z 34023G30KT 10SM FEW110 13/M04 A2996 1750 31 1900 330/23G30 RMK AO2 PK WND 34030/0605 T01281039
13962KABI ABI20160324001013203/24/16 00:10:31  5-MIN KABI 240610Z 34023G31KT 10SM FEW110 12/M04 A2997 1750 32 1900 340/23G31 RMK AO2 PK WND 34031/0610 T01221039
13962KABI ABI20160324001513203/24/16 00:15:31  5-MIN KABI 240615Z 35020G31KT 10SM FEW110 12/M04 A2997 1750 32 1900 340/20G31 RMK AO2 PK WND 34031/0611 T01221039
13962KABI ABI20160324002013203/24/16 00:20:31  5-MIN KABI 240620Z 35025G31KT 10SM FEW110 12/M04 A2999 1730 32 1800 340/25G31 RMK AO2 PK WND 34031/0611 T01221039
13962KABI ABI20160324002512903/24/16 00:25:31  5-MIN KABI 240625Z 35024G30KT 10SM CLR 12/M04 A2997 1750 32 1900 350/24G30 RMK AO2 PK WND 34031/0611 T01221039
13962KABI ABI20160324003012303/24/16 00:30:31  5-MIN KABI 240630Z 34020KT 10SM CLR 12/M03 A2999 1730 35 1800 340/20 RMK AO2 PK WND 34031/0611 T01171033
13962KABI ABI20160324003512303/24/16 00:35:31  5-MIN KABI 240635Z 35022KT 10SM CLR 12/M03 A3000 1720 35 1800 340/22 RMK AO2 PK WND 34031/0611 T01171033
13962KABI ABI20160324004012903/24/16 00:40:31  5-MIN KABI 240640Z 36023G27KT 10SM CLR 11/M03 A2997 1740 36 1700 350/23G27 RMK AO2 PK WND 34031/0611 T01111033
13962KABI ABI20160324004513603/24/16 00:45:31  5-MIN KABI 240645Z 34024G28KT 10SM CLR 11/M03 A3001 1710 36 1700 330/24G28 RMK AO2 PK WND 34031/0611 PRESRR T01111033
13962KABI ABI20160324005013603/24/16 00:50:31  5-MIN KABI 240650Z 34025G32KT 10SM CLR 11/M03 A3000 1720 37 1600 340/25G32 RMK AO2 PK WND 34032/0647 SLP140 T01061033
13962KABI ABI20160324005512903/24/16 00:55:31  5-MIN KABI 240655Z 34024G32KT 10SM CLR 11/M03 A3000 1720 37 1600 330/24G32 RMK AO2 PK WND 34031/0654 T01061033
13962KABI ABI20160324010012903/24/16 01:00:31  5-MIN KABI 240700Z 33025G31KT 10SM CLR 10/M03 A3001 1710 39 1600 330/25G31 RMK AO2 PK WND 34031/0654 T01001033
13962KABI ABI20160324010512903/24/16 01:05:31  5-MIN KABI 240705Z 33024G30KT 10SM CLR 10/M03 A3002 1710 39 1600 330/24G30 RMK AO2 PK WND 34031/0654 T01001033
13962KABI ABI20160324011013603/24/16 01:10:31  5-MIN KABI 240710Z 33020G30KT 10SM CLR 10/M03 A3002 1700 39 1500 330/20G30 RMK AO2 PK WND 34031/0654 PRESRR T01001033
13962KABI ABI20160324011512903/24/16 01:15:31  5-MIN KABI 240715Z 34021G28KT 10SM CLR 09/M03 A3001 1710 40 1500 330/21G28 RMK AO2 PK WND 34031/0654 T00941033
13962KABI ABI20160324012012903/24/16 01:20:31  5-MIN KABI 240720Z 34019G25KT 10SM CLR 09/M03 A3001 1710 40 1500 330/19G25 RMK AO2 PK WND 34031/0654 T00941033
13962KABI ABI20160324012512903/24/16 01:25:31  5-MIN KABI 240725Z 33017G24KT 10SM CLR 10/M03 A3001 1710 39 1600 330/17G24 RMK AO2 PK WND 34031/0654 T01001033
13962KABI ABI20160324013012303/24/16 01:30:31  5-MIN KABI 240730Z 34014KT 10SM CLR 09/M03 A3001 1710 42 1400 340/14 RMK AO2 PK WND 34031/0654 T00891033
13962KABI ABI20160324013512303/24/16 01:35:31  5-MIN KABI 240735Z 33015KT 10SM CLR 09/M03 A3002 1700 43 1400 320/15 RMK AO2 PK WND 34031/0654 T00891028
13962KABI ABI20160324014012303/24/16 01:40:31  5-MIN KABI 240740Z 32012KT 10SM CLR 09/M03 A3002 1700 43 1400 320/12 RMK AO2 PK WND 34031/0654 T00891028
13962KABI ABI20160324014512303/24/16 01:45:31  5-MIN KABI 240745Z 33013KT 10SM CLR 09/M03 A3001 1710 43 1400 320/13 RMK AO2 PK WND 34031/0654 T00891028
13962KABI ABI20160324015013003/24/16 01:50:31  5-MIN KABI 240750Z 33012KT 10SM CLR 08/M03 A3001 1710 45 1400 330/12 RMK AO2 PK WND 34031/0654 SLP145 T00831028
13962KABI ABI20160324015510503/24/16 01:55:31  5-MIN KABI 240755Z 32009KT 10SM CLR 08/M03 A3002 1700 45 1300 320/09 RMK AO2 T00831028
13962KABI ABI20160324020010503/24/16 02:00:31  5-MIN KABI 240800Z 33009KT 10SM CLR 08/M03 A3002 1700 47 1300 320/09 RMK AO2 T00781028
13962KABI ABI20160324020510503/24/16 02:05:31  5-MIN KABI 240805Z 34010KT 10SM CLR 08/M03 A3001 1710 47 1300 330/10 RMK AO2 T00781028
13962KABI ABI20160324021010503/24/16 02:10:31  5-MIN KABI 240810Z 36009KT 10SM CLR 08/M03 A3001 1710 47 1300 350/09 RMK AO2 T00781028
13962KABI ABI20160324021510503/24/16 02:15:31  5-MIN KABI 240815Z 34007KT 10SM CLR 08/M03 A3002 1700 45 1300 340/07 RMK AO2 T00831028
13962KABI ABI20160324022010503/24/16 02:20:31  5-MIN KABI 240820Z VRB06KT 10SM CLR 08/M03 A3002 1700 47 1300 VRB/06 RMK AO2 T00781028
13962KABI ABI20160324022511103/24/16 02:25:31  5-MIN KABI 240825Z 35013G17KT 10SM CLR 08/M03 A3001 1710 47 1300 340/13G17 RMK AO2 T00781028
13962KABI ABI20160324023011103/24/16 02:30:31  5-MIN KABI 240830Z 35011G17KT 10SM CLR 08/M03 A3000 1720 47 1300 340/11G17 RMK AO2 T00781028
13962KABI ABI20160324023510503/24/16 02:35:31  5-MIN KABI 240835Z 35012KT 10SM CLR 08/M03 A3000 1720 47 1300 340/12 RMK AO2 T00781028
13962KABI ABI20160324024010503/24/16 02:40:31  5-MIN KABI 240840Z 34010KT 10SM CLR 08/M03 A3000 1710 47 1300 330/10 RMK AO2 T00781028
13962KABI ABI20160324024510503/24/16 02:45:31  5-MIN KABI 240845Z 34011KT 10SM CLR 07/M02 A3001 1710 51 1200 330/11 RMK AO2 T00721022
13962KABI ABI20160324025011803/24/16 02:50:31  5-MIN KABI 240850Z 33009KT 10SM CLR 07/M03 A3001 1710 49 1200 330/09 RMK AO2 SLP146 T00721028 53056
13962KABI ABI20160324025510503/24/16 02:55:31  5-MIN KABI 240855Z 33008KT 10SM CLR 07/M03 A3001 1710 49 1200 330/08 RMK AO2 T00721028
13962KABI ABI20160324030010503/24/16 03:00:31  5-MIN KABI 240900Z 33009KT 10SM CLR 07/M02 A3001 1710 53 1200 330/09 RMK AO2 T00671022
13962KABI ABI20160324030510503/24/16 03:05:31  5-MIN KABI 240905Z 33009KT 10SM CLR 07/M02 A3001 1710 51 1200 330/09 RMK AO2 T00721022
13962KABI ABI20160324031010503/24/16 03:10:31  5-MIN KABI 240910Z 33009KT 10SM CLR 07/M02 A3000 1720 53 1200 330/09 RMK AO2 T00671022
13962KABI ABI20160324031510503/24/16 03:15:31  5-MIN KABI 240915Z 33010KT 10SM CLR 07/M02 A3000 1720 53 1200 330/10 RMK AO2 T00671022
13962KABI ABI20160324032010503/24/16 03:20:31  5-MIN KABI 240920Z 33012KT 10SM CLR 07/M02 A2999 1730 53 1200 330/12 RMK AO2 T00671022
13962KABI ABI20160324032510503/24/16 03:25:31  5-MIN KABI 240925Z 33012KT 10SM CLR 07/M02 A2999 1730 53 1200 330/12 RMK AO2 T00671022
13962KABI ABI20160324033010503/24/16 03:30:31  5-MIN KABI 240930Z 33014KT 10SM CLR 07/M02 A2999 1730 51 1200 320/14 RMK AO2 T00721022
13962KABI ABI20160324033510503/24/16 03:35:31  5-MIN KABI 240935Z 32013KT 10SM CLR 07/M02 A2998 1730 51 1300 320/13 RMK AO2 T00721022
13962KABI ABI20160324034010503/24/16 03:40:31  5-MIN KABI 240940Z 33013KT 10SM CLR 07/M02 A2998 1730 53 1200 320/13 RMK AO2 T00671022
13962KABI ABI20160324034510503/24/16 03:45:31  5-MIN KABI 240945Z 32014KT 10SM CLR 07/M02 A2998 1730 53 1200 320/14 RMK AO2 T00671022
13962KABI ABI20160324035011803/24/16 03:50:31  5-MIN KABI 240950Z 33018G21KT 10SM CLR 07/M02 A2999 1730 51 1200 330/18G21 RMK AO2 SLP140 T00721022
13962KABI ABI20160324035511103/24/16 03:55:31  5-MIN KABI 240955Z 33016G21KT 10SM CLR 07/M02 A2999 1730 51 1200 320/16G21 RMK AO2 T00721022
13962KABI ABI20160324040010503/24/16 04:00:31  5-MIN KABI 241000Z 34016KT 10SM CLR 07/M02 A3000 1720 51 1200 330/16 RMK AO2 T00721022
13962KABI ABI20160324040511103/24/16 04:05:31  5-MIN KABI 241005Z 33021G25KT 10SM CLR 07/M02 A3000 1720 51 1200 330/21G25 RMK AO2 T00721022
13962KABI ABI20160324041012903/24/16 04:10:31  5-MIN KABI 241010Z 33021G27KT 10SM CLR 07/M02 A3000 1720 51 1200 330/21G27 RMK AO2 PK WND 34027/1009 T00721022
13962KABI ABI20160324041512903/24/16 04:15:31  5-MIN KABI 241015Z 34021G29KT 10SM CLR 07/M02 A3000 1720 51 1200 330/21G29 RMK AO2 PK WND 34029/1011 T00721022
13962KABI ABI20160324042012903/24/16 04:20:31  5-MIN KABI 241020Z 34019G32KT 10SM CLR 08/M02 A3000 1720 49 1300 330/19G32 RMK AO2 PK WND 34032/1016 T00781022
13962KABI ABI20160324042512903/24/16 04:25:31  5-MIN KABI 241025Z 34021G32KT 10SM CLR 07/M02 A3001 1710 51 1200 340/21G32 RMK AO2 PK WND 34032/1016 T00721022
13962KABI ABI20160324043013903/24/16 04:30:31  5-MIN KABI 241030Z AUTO 34022G28KT 10SM CLR 07/M02 A3001 1710 51 1200 330/22G28 RMK AO2 PK WND 34032/1016 T00721022 TSNO
13962KABI ABI20160324043513903/24/16 04:35:31  5-MIN KABI 241035Z AUTO 34019G27KT 10SM CLR 07/M02 A3002 1700 51 1200 340/19G27 RMK AO2 PK WND 34032/1016 T00721022 TSNO
13962KABI ABI20160324044013903/24/16 04:40:31  5-MIN KABI 241040Z AUTO 34023G30KT 10SM CLR 07/M02 A3002 1700 51 1200 340/23G30 RMK AO2 PK WND 34032/1016 T00721022 TSNO
13962KABI ABI20160324044512903/24/16 04:45:31  5-MIN KABI 241045Z 35022G30KT 10SM CLR 07/M02 A3002 1700 51 1200 340/22G30 RMK AO2 PK WND 34032/1016 T00721022
13962KABI ABI20160324045013603/24/16 04:50:31  5-MIN KABI 241050Z 34021G28KT 10SM CLR 07/M02 A3003 1700 51 1200 340/21G28 RMK AO2 PK WND 34032/1016 SLP152 T00721022
13962KABI ABI20160324045512903/24/16 04:55:31  5-MIN KABI 241055Z 34020G27KT 10SM CLR 07/M02 A3003 1690 51 1200 340/20G27 RMK AO2 PK WND 34026/1055 T00721022
13962KABI ABI20160324050012903/24/16 05:00:31  5-MIN KABI 241100Z 34017G26KT 10SM CLR 07/M02 A3004 1690 51 1200 340/17G26 RMK AO2 PK WND 34026/1055 T00721022
13962KABI ABI20160324050512903/24/16 05:05:31  5-MIN KABI 241105Z 34019G26KT 10SM CLR 07/M02 A3004 1680 51 1200 340/19G26 RMK AO2 PK WND 34026/1055 T00721022
13962KABI ABI20160324051012903/24/16 05:10:31  5-MIN KABI 241110Z 34018G26KT 10SM CLR 07/M02 A3004 1680 53 1100 340/18G26 RMK AO2 PK WND 34026/1055 T00671022
13962KABI ABI20160324051512903/24/16 05:15:31  5-MIN KABI 241115Z 34021G29KT 10SM CLR 07/M02 A3004 1680 51 1200 330/21G29 RMK AO2 PK WND 34029/1111 T00721022
13962KABI ABI20160324052012903/24/16 05:20:31  5-MIN KABI 241120Z 34021G29KT 10SM CLR 07/M02 A3004 1680 53 1100 330/21G29 RMK AO2 PK WND 34029/1111 T00671022
13962KABI ABI20160324052512303/24/16 05:25:31  5-MIN KABI 241125Z 34020KT 10SM CLR 07/M02 A3004 1680 53 1100 340/20 RMK AO2 PK WND 34029/1111 T00671022
13962KABI ABI20160324053012903/24/16 05:30:31  5-MIN KABI 241130Z 34022G26KT 10SM CLR 07/M02 A3005 1670 53 1100 340/22G26 RMK AO2 PK WND 34029/1111 T00671022
13962KABI ABI20160324053512903/24/16 05:35:31  5-MIN KABI 241135Z 34017G26KT 10SM CLR 07/M02 A3005 1670 53 1100 340/17G26 RMK AO2 PK WND 34029/1111 T00671022
13962KABI ABI20160324054012303/24/16 05:40:31  5-MIN KABI 241140Z 34014KT 10SM CLR 07/M02 A3005 1670 53 1100 340/14 RMK AO2 PK WND 34029/1111 T00671022
13962KABI ABI20160324054512303/24/16 05:45:31  5-MIN KABI 241145Z 34017KT 10SM CLR 07/M02 A3006 1660 53 1100 340/17 RMK AO2 PK WND 34029/1111 T00671022
13962KABI ABI20160324055014803/24/16 05:50:31  5-MIN KABI 241150Z 35014KT 10SM CLR 06/M02 A3006 1660 55 1000 340/14 RMK AO2 PK WND 34029/1111 SLP168 T00611022 10128 20061 50013
13962KABI ABI20160324055511103/24/16 05:55:31  5-MIN KABI 241155Z 34014G21KT 10SM CLR 06/M02 A3007 1660 55 1000 340/14G21 RMK AO2 T00611022
13962KABI ABI20160324060011103/24/16 06:00:31  5-MIN KABI 241200Z 35014G21KT 10SM CLR 06/M02 A3007 1650 55 1000 340/14G21 RMK AO2 T00611022
13962KABI ABI20160324060510503/24/16 06:05:31  5-MIN KABI 241205Z 35015KT 10SM CLR 06/M02 A3007 1650 55 1000 340/15 RMK AO2 T00611022
13962KABI ABI20160324061010503/24/16 06:10:31  5-MIN KABI 241210Z 35013KT 10SM CLR 06/M02 A3007 1650 55 1000 350/13 RMK AO2 T00611022
13962KABI ABI20160324061510503/24/16 06:15:31  5-MIN KABI 241215Z 35012KT 10SM CLR 06/M02 A3008 1650 55 1000 350/12 RMK AO2 T00611022
13962KABI ABI20160324062010403/24/16 06:20:31  5-MIN KABI 241220Z 35011KT 10SM CLR 06/M02 A3008 1650 57 900 340/11 RMK AO2 T00561022
13962KABI ABI20160324062510403/24/16 06:25:31  5-MIN KABI 241225Z 35010KT 10SM CLR 06/M02 A3008 1640 57 900 340/10 RMK AO2 T00561022
13962KABI ABI20160324063010403/24/16 06:30:31  5-MIN KABI 241230Z 35011KT 10SM CLR 06/M02 A3008 1640 57 900 350/11 RMK AO2 T00561022
13962KABI ABI20160324063510403/24/16 06:35:31  5-MIN KABI 241235Z 35010KT 10SM CLR 06/M02 A3008 1640 57 900 350/10 RMK AO2 T00561022
13962KABI ABI20160324170010503/24/16 17:00:31  5-MIN KABI 242300Z 35009KT 10SM CLR 17/M03 A3000 1720 24 2400 350/09 RMK AO2 T01721033
13962KABI ABI20160324170510503/24/16 17:05:31  5-MIN KABI 242305Z 36009KT 10SM CLR 17/M04 A2999 1720 24 2400 350/09 RMK AO2 T01671039
13962KABI ABI20160324171010503/24/16 17:10:31  5-MIN KABI 242310Z 01007KT 10SM CLR 17/M04 A2999 1730 23 2400 360/07 RMK AO2 T01671044
13962KABI ABI20160324171510503/24/16 17:15:31  5-MIN KABI 242315Z 01008KT 10SM CLR 17/M04 A2999 1730 23 2400 360/08 RMK AO2 T01671044
13962KABI ABI20160324172010503/24/16 17:20:31  5-MIN KABI 242320Z 32004KT 10SM CLR 17/M04 A2999 1730 24 2400 320/04 RMK AO2 T01671039
13962KABI ABI20160324172510503/24/16 17:25:31  5-MIN KABI 242325Z 33008KT 10SM CLR 17/M04 A2999 1730 24 2400 330/08 RMK AO2 T01671039
13962KABI ABI20160324173010503/24/16 17:30:31  5-MIN KABI 242330Z 33008KT 10SM CLR 17/M04 A2999 1730 24 2400 320/08 RMK AO2 T01671039
13962KABI ABI20160324173510503/24/16 17:35:31  5-MIN KABI 242335Z 35006KT 10SM CLR 17/M04 A2999 1730 24 2400 350/06 RMK AO2 T01671039
13962KABI ABI20160324174010503/24/16 17:40:31  5-MIN KABI 242340Z 34006KT 10SM CLR 17/M04 A2999 1730 24 2400 340/06 RMK AO2 T01671039
13962KABI ABI20160324174510503/24/16 17:45:31  5-MIN KABI 242345Z 33007KT 10SM CLR 16/M04 A2999 1730 25 2300 330/07 RMK AO2 T01611039
13962KABI ABI20160324175013003/24/16 17:50:31  5-MIN KABI 242350Z 36008KT 10SM CLR 16/M04 A2999 1720 25 2300 360/08 RMK AO2 SLP150 T01611039 10172 20128 58025
13962KABI ABI20160324175510503/24/16 17:55:31  5-MIN KABI 242355Z 02006KT 10SM CLR 16/M04 A3000 1720 24 2300 010/06 RMK AO2 T01611044
13962KABI ABI20160324180010503/24/16 18:00:31  5-MIN KABI 250000Z 35006KT 10SM CLR 16/M04 A2999 1720 25 2300 340/06 RMK AO2 T01611039
13962KABI ABI20160324180510503/24/16 18:05:31  5-MIN KABI 250005Z 01007KT 10SM CLR 16/M04 A2999 1720 24 2300 360/07 RMK AO2 T01611044
13962KABI ABI20160324181010503/24/16 18:10:31  5-MIN KABI 250010Z VRB06KT 10SM CLR 16/M04 A2999 1720 25 2300 VRB/06 RMK AO2 T01611039
13962KABI ABI20160324181510503/24/16 18:15:31  5-MIN KABI 250015Z 02007KT 10SM CLR 16/M04 A2999 1720 25 2300 010/07 RMK AO2 T01611039
13962KABI ABI20160324182010503/24/16 18:20:31  5-MIN KABI 250020Z 03004KT 10SM CLR 16/M04 A3000 1720 26 2200 020/04 RMK AO2 T01561039
13962KABI ABI20160324182510503/24/16 18:25:31  5-MIN KABI 250025Z 03004KT 10SM CLR 16/M04 A3000 1720 26 2200 020/04 RMK AO2 T01561039
13962KABI ABI20160324183010503/24/16 18:30:31  5-MIN KABI 250030Z 03005KT 10SM CLR 16/M03 A3000 1720 27 2200 020/05 RMK AO2 T01561033
13962KABI ABI20160324183510503/24/16 18:35:31  5-MIN KABI 250035Z 03005KT 10SM CLR 15/M04 A3000 1720 25 2200 030/05 RMK AO2 T01501044
13962KABI ABI20160324184010503/24/16 18:40:31  5-MIN KABI 250040Z 05004KT 10SM CLR 15/M04 A3000 1720 25 2200 040/04 RMK AO2 T01501044
13962KABI ABI20160324184510503/24/16 18:45:31  5-MIN KABI 250045Z 04005KT 10SM CLR 15/M04 A3000 1720 25 2200 040/05 RMK AO2 T01501044
13962KABI ABI20160324185011203/24/16 18:50:31  5-MIN KABI 250050Z 04004KT 10SM CLR 14/M04 A3000 1720 26 2100 030/04 RMK AO2 SLP152 T01441044
13962KABI ABI20160324185510503/24/16 18:55:31  5-MIN KABI 250055Z 05004KT 10SM CLR 14/M04 A3000 1720 26 2100 040/04 RMK AO2 T01441044
13962KABI ABI20160324190010503/24/16 19:00:31  5-MIN KABI 250100Z 05005KT 10SM CLR 14/M04 A3000 1720 26 2100 050/05 RMK AO2 T01441044
13962KABI ABI20160324190510503/24/16 19:05:31  5-MIN KABI 250105Z 04004KT 10SM CLR 14/M04 A3000 1720 27 2000 040/04 RMK AO2 T01391044
13962KABI ABI20160324191010503/24/16 19:10:31  5-MIN KABI 250110Z 05004KT 10SM CLR 14/M04 A3001 1710 27 2000 040/04 RMK AO2 T01391044
13962KABI ABI20160324191510503/24/16 19:15:31  5-MIN KABI 250115Z 05004KT 10SM CLR 14/M04 A3001 1710 29 2000 040/04 RMK AO2 T01391039
13962KABI ABI20160324192010503/24/16 19:20:31  5-MIN KABI 250120Z 05004KT 10SM CLR 14/M04 A3001 1710 27 2000 050/04 RMK AO2 T01391044
13962KABI ABI20160324192510503/24/16 19:25:31  5-MIN KABI 250125Z 05004KT 10SM CLR 14/M04 A3001 1710 29 2000 050/04 RMK AO2 T01391039
13962KABI ABI20160324193010503/24/16 19:30:31  5-MIN KABI 250130Z 06003KT 10SM CLR 14/M04 A3001 1710 29 2000 060/03 RMK AO2 T01391039
13962KABI ABI20160324193510503/24/16 19:35:31  5-MIN KABI 250135Z 06003KT 10SM CLR 14/M04 A3001 1710 29 2000 050/03 RMK AO2 T01391039
13962KABI ABI20160324194010503/24/16 19:40:31  5-MIN KABI 250140Z 05004KT 10SM CLR 14/M04 A3001 1710 29 2000 050/04 RMK AO2 T01391039
13962KABI ABI20160324194510503/24/16 19:45:31  5-MIN KABI 250145Z 06003KT 10SM CLR 13/M04 A3002 1700 30 1900 050/03 RMK AO2 T01331039
13962KABI ABI20160324195011203/24/16 19:50:31  5-MIN KABI 250150Z 06004KT 10SM CLR 13/M04 A3002 1700 30 1900 060/04 RMK AO2 SLP158 T01331039
13962KABI ABI20160324195510503/24/16 19:55:31  5-MIN KABI 250155Z 07005KT 10SM CLR 13/M04 A3002 1700 30 1900 060/05 RMK AO2 T01331039
13962KABI ABI20160324200010503/24/16 20:00:31  5-MIN KABI 250200Z 07005KT 10SM CLR 13/M03 A3002 1700 31 1900 070/05 RMK AO2 T01331033
13962KABI ABI20160324200510503/24/16 20:05:31  5-MIN KABI 250205Z 06004KT 10SM CLR 13/M03 A3002 1700 32 1900 050/04 RMK AO2 T01281033
13962KABI ABI20160324201010503/24/16 20:10:31  5-MIN KABI 250210Z 07005KT 10SM CLR 13/M04 A3002 1700 31 1900 060/05 RMK AO2 T01281039
13962KABI ABI20160324201510503/24/16 20:15:31  5-MIN KABI 250215Z 07006KT 10SM CLR 13/M04 A3002 1700 31 1900 070/06 RMK AO2 T01281039
13962KABI ABI20160324202010503/24/16 20:20:31  5-MIN KABI 250220Z 07005KT 10SM CLR 13/M04 A3003 1690 31 1900 060/05 RMK AO2 T01281039
13962KABI ABI20160324202510503/24/16 20:25:31  5-MIN KABI 250225Z 07006KT 10SM CLR 13/M04 A3003 1690 31 1900 070/06 RMK AO2 T01281039
13962KABI ABI20160324203010503/24/16 20:30:31  5-MIN KABI 250230Z 08006KT 10SM CLR 12/M04 A3003 1690 32 1800 070/06 RMK AO2 T01221039
13962KABI ABI20160324203510503/24/16 20:35:31  5-MIN KABI 250235Z 08005KT 10SM CLR 12/M04 A3003 1690 33 1700 080/05 RMK AO2 T01171039
13962KABI ABI20160324204010503/24/16 20:40:31  5-MIN KABI 250240Z 08006KT 10SM CLR 11/M03 A3003 1690 37 1700 080/06 RMK AO2 T01111028
13962KABI ABI20160324204510503/24/16 20:45:31  5-MIN KABI 250245Z 09006KT 10SM CLR 11/M02 A3003 1690 40 1600 080/06 RMK AO2 T01061022
13962KABI ABI20160324205011803/24/16 20:50:31  5-MIN KABI 250250Z 08006KT 10SM CLR 10/M02 A3003 1690 42 1500 080/06 RMK AO2 SLP164 T01001022 56015
13962KABI ABI20160324205510503/24/16 20:55:31  5-MIN KABI 250255Z 09006KT 10SM CLR 10/M02 A3003 1690 42 1500 080/06 RMK AO2 T01001022
13962KABI ABI20160324210010503/24/16 21:00:31  5-MIN KABI 250300Z 09006KT 10SM CLR 10/M02 A3003 1690 42 1500 090/06 RMK AO2 T01001022
13962KABI ABI20160324210510503/24/16 21:05:31  5-MIN KABI 250305Z 09005KT 10SM CLR 09/M02 A3003 1690 44 1500 090/05 RMK AO2 T00941022
13962KABI ABI20160324211010503/24/16 21:10:31  5-MIN KABI 250310Z 09005KT 10SM CLR 09/M02 A3003 1690 44 1500 090/05 RMK AO2 T00941022
13962KABI ABI20160324211510503/24/16 21:15:31  5-MIN KABI 250315Z 09005KT 10SM CLR 09/M02 A3003 1690 47 1400 090/05 RMK AO2 T00891017
13962KABI ABI20160324212010503/24/16 21:20:31  5-MIN KABI 250320Z 10005KT 10SM CLR 09/M02 A3004 1690 47 1400 100/05 RMK AO2 T00891017
13962KABI ABI20160324212510503/24/16 21:25:31  5-MIN KABI 250325Z 10006KT 10SM CLR 08/M02 A3004 1680 49 1300 100/06 RMK AO2 T00831017
13962KABI ABI20160324213010503/24/16 21:30:31  5-MIN KABI 250330Z 11006KT 10SM CLR 08/M02 A3004 1680 49 1300 100/06 RMK AO2 T00831017
13962KABI ABI20160324213510503/24/16 21:35:31  5-MIN KABI 250335Z 10006KT 10SM CLR 08/M02 A3004 1690 49 1300 100/06 RMK AO2 T00831017
13962KABI ABI20160324214010503/24/16 21:40:31  5-MIN KABI 250340Z 11007KT 10SM CLR 09/M02 A3004 1690 47 1400 100/07 RMK AO2 T00891017
13962KABI ABI20160324214510503/24/16 21:45:31  5-MIN KABI 250345Z 11006KT 10SM CLR 09/M02 A3003 1690 47 1400 100/06 RMK AO2 T00891017
13962KABI ABI20160324215011203/24/16 21:50:31  5-MIN KABI 250350Z 10006KT 10SM CLR 08/M02 A3003 1690 49 1300 100/06 RMK AO2 SLP164 T00831017
13962KABI ABI20160324215510503/24/16 21:55:31  5-MIN KABI 250355Z 10006KT 10SM CLR 08/M02 A3003 1690 49 1300 100/06 RMK AO2 T00831017
13962KABI ABI20160324220010503/24/16 22:00:31  5-MIN KABI 250400Z 11007KT 10SM CLR 08/M02 A3003 1690 51 1300 100/07 RMK AO2 T00781017
13962KABI ABI20160324220510503/24/16 22:05:31  5-MIN KABI 250405Z 11007KT 10SM CLR 08/M02 A3003 1690 49 1300 100/07 RMK AO2 T00831017
13962KABI ABI20160324221010503/24/16 22:10:31  5-MIN KABI 250410Z 10007KT 10SM CLR 08/M02 A3003 1690 49 1300 100/07 RMK AO2 T00831017
13962KABI ABI20160324221510503/24/16 22:15:31  5-MIN KABI 250415Z 10008KT 10SM CLR 09/M02 A3003 1690 45 1400 090/08 RMK AO2 T00891022
13962KABI ABI20160324222010503/24/16 22:20:31  5-MIN KABI 250420Z 09008KT 10SM CLR 09/M02 A3003 1690 45 1400 090/08 RMK AO2 T00891022
13962KABI ABI20160324222510503/24/16 22:25:31  5-MIN KABI 250425Z 10007KT 10SM CLR 09/M02 A3003 1690 45 1400 090/07 RMK AO2 T00891022
13962KABI ABI20160324223010503/24/16 22:30:31  5-MIN KABI 250430Z 09007KT 10SM CLR 09/M02 A3003 1690 45 1400 090/07 RMK AO2 T00891022
13962KABI ABI20160324223510503/24/16 22:35:31  5-MIN KABI 250435Z 10006KT 10SM CLR 09/M02 A3003 1700 45 1400 100/06 RMK AO2 T00891022
13962KABI ABI20160324224010503/24/16 22:40:31  5-MIN KABI 250440Z 11007KT 10SM CLR 08/M02 A3003 1700 49 1300 110/07 RMK AO2 T00831017
13962KABI ABI20160324224510503/24/16 22:45:31  5-MIN KABI 250445Z 10007KT 10SM CLR 08/M02 A3002 1700 49 1300 100/07 RMK AO2 T00831017
13962KABI ABI20160324225011203/24/16 22:50:31  5-MIN KABI 250450Z 11006KT 10SM CLR 08/M02 A3002 1700 51 1300 110/06 RMK AO2 SLP161 T00781017
13962KABI ABI20160324225510503/24/16 22:55:31  5-MIN KABI 250455Z 11007KT 10SM CLR 08/M01 A3002 1700 53 1300 110/07 RMK AO2 T00781011
13962KABI ABI20160324230010503/24/16 23:00:31  5-MIN KABI 250500Z 12007KT 10SM CLR 08/M02 A3002 1700 51 1300 110/07 RMK AO2 T00781017
13962KABI ABI20160324230510503/24/16 23:05:31  5-MIN KABI 250505Z 11008KT 10SM CLR 08/M02 A3002 1700 51 1300 110/08 RMK AO2 T00781017
13962KABI ABI20160324231010503/24/16 23:10:31  5-MIN KABI 250510Z 12008KT 10SM CLR 08/M02 A3002 1700 51 1300 110/08 RMK AO2 T00781017
13962KABI ABI20160324231510503/24/16 23:15:31  5-MIN KABI 250515Z 11008KT 10SM CLR 08/M02 A3002 1700 49 1300 110/08 RMK AO2 T00831017
13962KABI ABI20160324232010503/24/16 23:20:31  5-MIN KABI 250520Z 11007KT 10SM CLR 08/M02 A3002 1700 49 1300 110/07 RMK AO2 T00831017
13962KABI ABI20160324232510503/24/16 23:25:31  5-MIN KABI 250525Z 14004KT 10SM CLR 07/M02 A3002 1700 53 1200 140/04 RMK AO2 T00721017
13962KABI ABI20160324233010503/24/16 23:30:31  5-MIN KABI 250530Z 15005KT 10SM CLR 06/M01 A3002 1700 62 1000 150/05 RMK AO2 T00561011
13962KABI ABI20160324233510503/24/16 23:35:31  5-MIN KABI 250535Z 14006KT 10SM CLR 07/M02 A3001 1710 55 1200 140/06 RMK AO2 T00671017
13962KABI ABI20160324234010503/24/16 23:40:31  5-MIN KABI 250540Z 15007KT 10SM CLR 07/M02 A3001 1710 55 1200 140/07 RMK AO2 T00671017
13962KABI ABI20160324234510503/24/16 23:45:31  5-MIN KABI 250545Z 16007KT 10SM CLR 06/M01 A3001 1710 62 1000 150/07 RMK AO2 T00561011
13962KABI ABI20160324235014003/24/16 23:50:31  5-MIN KABI 250550Z 17006KT 10SM CLR 05/M01 A3001 1710 64 1000 170/06 RMK AO2 SLP159 T00501011 10161 20050 401720050 53012
13962KABI ABI20160324235510503/24/16 23:55:31  5-MIN KABI 250555Z 16006KT 10SM CLR 05/M01 A3001 1710 64 1000 160/06 RMK AO2 T00501011
13962KABI ABI20160325000010503/25/16 00:00:31  5-MIN KABI 250600Z 16007KT 10SM CLR 05/M01 A3001 1710 64 1000 160/07 RMK AO2 T00501011
13962KABI ABI20160325000510503/25/16 00:05:31  5-MIN KABI 250605Z 16006KT 10SM CLR 05/M01 A3001 1710 64 1000 160/06 RMK AO2 T00501011
13962KABI ABI20160325001010403/25/16 00:10:31  5-MIN KABI 250610Z 15006KT 10SM CLR 04/M01 A3001 1710 67 900 150/06 RMK AO2 T00441011
13962KABI ABI20160325001510503/25/16 00:15:31  5-MIN KABI 250615Z 15007KT 10SM CLR 05/M01 A3001 1710 64 1000 140/07 RMK AO2 T00501011
13962KABI ABI20160325002010503/25/16 00:20:31  5-MIN KABI 250620Z 16007KT 10SM CLR 05/M01 A3001 1710 64 1000 150/07 RMK AO2 T00501011
13962KABI ABI20160325002510503/25/16 00:25:31  5-MIN KABI 250625Z 15008KT 10SM CLR 06/M01 A3001 1710 62 1000 150/08 RMK AO2 T00561011
13962KABI ABI20160325003010503/25/16 00:30:31  5-MIN KABI 250630Z 15008KT 10SM CLR 06/M01 A3001 1710 62 1000 140/08 RMK AO2 T00561011
13962KABI ABI20160325003510503/25/16 00:35:31  5-MIN KABI 250635Z 14007KT 10SM CLR 05/M01 A3001 1710 64 1000 130/07 RMK AO2 T00501011
13962KABI ABI20160325004010503/25/16 00:40:31  5-MIN KABI 250640Z 13007KT 10SM CLR 06/M02 A3000 1710 59 1000 130/07 RMK AO2 T00561017
13962KABI ABI20160325004510503/25/16 00:45:31  5-MIN KABI 250645Z 13007KT 10SM CLR 06/M02 A3000 1720 59 1000 120/07 RMK AO2 T00561017
13962KABI ABI20160325005011203/25/16 00:50:31  5-MIN KABI 250650Z 12006KT 10SM CLR 06/M01 A3000 1720 62 1000 120/06 RMK AO2 SLP155 T00561011
13962KABI ABI20160325005510503/25/16 00:55:31  5-MIN KABI 250655Z 12006KT 10SM CLR 06/M02 A3000 1720 59 1000 110/06 RMK AO2 T00561017
13962KABI ABI20160325010010503/25/16 01:00:31  5-MIN KABI 250700Z 13006KT 10SM CLR 06/M02 A3000 1720 59 1000 120/06 RMK AO2 T00561017
13962KABI ABI20160325010510503/25/16 01:05:31  5-MIN KABI 250705Z 13008KT 10SM CLR 06/M02 A3000 1720 59 1000 120/08 RMK AO2 T00561017
13962KABI ABI20160325011010503/25/16 01:10:31  5-MIN KABI 250710Z 13008KT 10SM CLR 06/M02 A3000 1720 59 1000 120/08 RMK AO2 T00561017
13962KABI ABI20160325011510503/25/16 01:15:31  5-MIN KABI 250715Z 12008KT 10SM CLR 06/M02 A2999 1730 59 1000 120/08 RMK AO2 T00561017
13962KABI ABI20160325012010503/25/16 01:20:31  5-MIN KABI 250720Z 12008KT 10SM CLR 06/M02 A2999 1730 59 1000 120/08 RMK AO2 T00561017
13962KABI ABI20160325012510503/25/16 01:25:31  5-MIN KABI 250725Z 13008KT 10SM CLR 06/M01 A2999 1730 62 1000 120/08 RMK AO2 T00561011
13962KABI ABI20160325013010403/25/16 01:30:31  5-MIN KABI 250730Z 14009KT 10SM CLR 04/M01 A2998 1730 67 900 130/09 RMK AO2 T00441011
13962KABI ABI20160325013510503/25/16 01:35:31  5-MIN KABI 250735Z 14008KT 10SM CLR 05/M01 A2998 1740 64 1000 130/08 RMK AO2 T00501011
13962KABI ABI20160325014010503/25/16 01:40:31  5-MIN KABI 250740Z 14008KT 10SM CLR 05/M01 A2998 1740 64 1000 130/08 RMK AO2 T00501011
13962KABI ABI20160325014510503/25/16 01:45:31  5-MIN KABI 250745Z 14008KT 10SM CLR 06/M02 A2998 1740 59 1100 130/08 RMK AO2 T00561017
13962KABI ABI20160325015011203/25/16 01:50:31  5-MIN KABI 250750Z 15009KT 10SM CLR 06/M02 A2998 1740 59 1100 140/09 RMK AO2 SLP144 T00561017
13962KABI ABI20160325015510503/25/16 01:55:31  5-MIN KABI 250755Z 13009KT 10SM CLR 06/M02 A2997 1750 59 1100 120/09 RMK AO2 T00561017
13962KABI ABI20160325020010503/25/16 02:00:31  5-MIN KABI 250800Z 12011KT 10SM CLR 06/M02 A2997 1750 57 1100 110/11 RMK AO2 T00611017
13962KABI ABI20160325020510503/25/16 02:05:31  5-MIN KABI 250805Z 13009KT 10SM CLR 07/M01 A2996 1760 57 1200 120/09 RMK AO2 T00671011
13962KABI ABI20160325021010503/25/16 02:10:31  5-MIN KABI 250810Z 14007KT 10SM CLR 06/M01 A2996 1750 60 1100 130/07 RMK AO2 T00611011
13962KABI ABI20160325021510503/25/16 02:15:31  5-MIN KABI 250815Z 16007KT 10SM CLR 06/M01 A2996 1750 60 1100 160/07 RMK AO2 T00611011
13962KABI ABI20160325022010503/25/16 02:20:31  5-MIN KABI 250820Z 17007KT 10SM CLR 06/M02 A2996 1750 57 1100 160/07 RMK AO2 T00611017
13962KABI ABI20160325022510503/25/16 02:25:31  5-MIN KABI 250825Z 15008KT 10SM CLR 06/M02 A2996 1750 57 1100 140/08 RMK AO2 T00611017
13962KABI ABI20160325023010503/25/16 02:30:31  5-MIN KABI 250830Z 16007KT 10SM CLR 06/M02 A2996 1750 57 1100 160/07 RMK AO2 T00611017
13962KABI ABI20160325023510503/25/16 02:35:31  5-MIN KABI 250835Z 16007KT 10SM CLR 06/M01 A2997 1750 62 1100 160/07 RMK AO2 T00561011
13962KABI ABI20160325024010503/25/16 02:40:31  5-MIN KABI 250840Z 15008KT 10SM CLR 06/M01 A2997 1750 62 1100 150/08 RMK AO2 T00561011
13962KABI ABI20160325024510503/25/16 02:45:31  5-MIN KABI 250845Z 15007KT 10SM CLR 06/M01 A2996 1750 62 1100 150/07 RMK AO2 T00561011
13962KABI ABI20160325025011803/25/16 02:50:31  5-MIN KABI 250850Z 16005KT 10SM CLR 05/M01 A2996 1750 64 1000 160/05 RMK AO2 SLP140 T00501011 58006
13962KABI ABI20160325025510503/25/16 02:55:31  5-MIN KABI 250855Z 16006KT 10SM CLR 06/M01 A2996 1750 62 1100 160/06 RMK AO2 T00561011
13962KABI ABI20160325030010503/25/16 03:00:31  5-MIN KABI 250900Z 17006KT 10SM CLR 05/M01 A2996 1760 64 1000 160/06 RMK AO2 T00501011
13962KABI ABI20160325030510503/25/16 03:05:31  5-MIN KABI 250905Z 17005KT 10SM CLR 05/M01 A2996 1760 64 1000 160/05 RMK AO2 T00501011
13962KABI ABI20160325031010503/25/16 03:10:31  5-MIN KABI 250910Z 16006KT 10SM CLR 05/M01 A2996 1760 64 1000 160/06 RMK AO2 T00501011
13962KABI ABI20160325031510503/25/16 03:15:31  5-MIN KABI 250915Z 19005KT 10SM CLR 05/M01 A2996 1750 64 1000 180/05 RMK AO2 T00501011
13962KABI ABI20160325032010503/25/16 03:20:31  5-MIN KABI 250920Z 18006KT 10SM CLR 05/M01 A2996 1750 64 1000 180/06 RMK AO2 T00501011
13962KABI ABI20160325032510503/25/16 03:25:31  5-MIN KABI 250925Z 17007KT 10SM CLR 05/M01 A2996 1750 64 1000 160/07 RMK AO2 T00501011
13962KABI ABI20160325033010503/25/16 03:30:31  5-MIN KABI 250930Z 16008KT 10SM CLR 06/M01 A2996 1750 62 1100 160/08 RMK AO2 T00561011
13962KABI ABI20160325033510503/25/16 03:35:31  5-MIN KABI 250935Z 16007KT 10SM CLR 06/M01 A2996 1750 62 1100 150/07 RMK AO2 T00561011
13962KABI ABI20160325034010503/25/16 03:40:31  5-MIN KABI 250940Z 17006KT 10SM CLR 05/M01 A2997 1750 64 1000 160/06 RMK AO2 T00501011
13962KABI ABI20160325034510503/25/16 03:45:31  5-MIN KABI 250945Z 16007KT 10SM CLR 05/M01 A2997 1750 64 1000 150/07 RMK AO2 T00501011
13962KABI ABI20160325035011203/25/16 03:50:31  5-MIN KABI 250950Z 15008KT 10SM CLR 06/M01 A2996 1750 62 1100 150/08 RMK AO2 SLP139 T00561011
13962KABI ABI20160325035510503/25/16 03:55:31  5-MIN KABI 250955Z 15008KT 10SM CLR 05/M01 A2996 1750 64 1000 140/08 RMK AO2 T00501011
13962KABI ABI20160325040010503/25/16 04:00:31  5-MIN KABI 251000Z 15009KT 10SM CLR 05/M01 A2996 1750 64 1000 140/09 RMK AO2 T00501011
13962KABI ABI20160325040510503/25/16 04:05:31  5-MIN KABI 251005Z 15008KT 10SM CLR 05/M01 A2996 1750 64 1000 140/08 RMK AO2 T00501011
13962KABI ABI20160325041010503/25/16 04:10:31  5-MIN KABI 251010Z 16008KT 10SM CLR 06/M01 A2996 1750 62 1100 150/08 RMK AO2 T00561011
13962KABI ABI20160325041510503/25/16 04:15:31  5-MIN KABI 251015Z 17007KT 10SM CLR 06/M01 A2996 1750 62 1100 170/07 RMK AO2 T00561011
13962KABI ABI20160325042010503/25/16 04:20:31  5-MIN KABI 251020Z 20006KT 10SM CLR 05/M01 A2997 1750 64 1000 190/06 RMK AO2 T00501011
13962KABI ABI20160325042510503/25/16 04:25:31  5-MIN KABI 251025Z 19005KT 10SM CLR 05/M01 A2997 1750 64 1000 190/05 RMK AO2 T00501011
13962KABI ABI20160325043010503/25/16 04:30:31  5-MIN KABI 251030Z 19005KT 10SM CLR 05/M02 A2997 1750 62 1000 190/05 RMK AO2 T00501017
13962KABI ABI20160325043510503/25/16 04:35:31  5-MIN KABI 251035Z 19006KT 10SM CLR 05/M02 A2996 1750 62 1000 190/06 RMK AO2 T00501017
13962KABI ABI20160325044010503/25/16 04:40:31  5-MIN KABI 251040Z 18008KT 10SM CLR 05/M02 A2996 1750 62 1000 180/08 RMK AO2 T00501017
13962KABI ABI20160325044510503/25/16 04:45:31  5-MIN KABI 251045Z 18006KT 10SM CLR 06/M01 A2996 1750 62 1100 180/06 RMK AO2 T00561011
13962KABI ABI20160325045011203/25/16 04:50:31  5-MIN KABI 251050Z 19005KT 10SM CLR 05/M01 A2996 1750 64 1000 180/05 RMK AO2 SLP139 T00501011
13962KABI ABI20160325045510503/25/16 04:55:31  5-MIN KABI 251055Z 18005KT 10SM CLR 06/M02 A2996 1750 59 1100 180/05 RMK AO2 T00561017
13962KABI ABI20160325144512803/25/16 14:45:31  5-MIN KABI 252045Z 19016G21KT 10SM CLR 23/02 A2978 1930 24 3300 180/16G21 RMK AO2 PK WND 18026/2021 T02280017
13962KABI ABI20160325145014103/25/16 14:50:31  5-MIN KABI 252050Z 17019G24KT 10SM CLR 23/02 A2977 1930 24 3300 160/19G24 RMK AO2 PK WND 18026/2021 SLP070 T02280017 58017
13962KABI ABI20160325145511003/25/16 14:55:31  5-MIN KABI 252055Z 18014G24KT 10SM CLR 23/02 A2977 1930 24 3300 180/14G24 RMK AO2 T02280017
13962KABI ABI20160325150011003/25/16 15:00:31  5-MIN KABI 252100Z 19018G24KT 10SM CLR 23/02 A2977 1930 25 3300 180/18G24 RMK AO2 T02280022
13962KABI ABI20160325150511003/25/16 15:05:31  5-MIN KABI 252105Z 19018G24KT 10SM CLR 23/03 A2977 1940 25 3400 190/18G24 RMK AO2 T02330028
13962KABI ABI20160325151011003/25/16 15:10:31  5-MIN KABI 252110Z 19019G25KT 10SM CLR 23/02 A2976 1940 25 3300 180/19G25 RMK AO2 T02280022
13962KABI ABI20160325151511003/25/16 15:15:31  5-MIN KABI 252115Z 19016G25KT 10SM CLR 23/02 A2976 1940 25 3300 180/16G25 RMK AO2 T02280022
13962KABI ABI20160325152011003/25/16 15:20:31  5-MIN KABI 252120Z 18019G24KT 10SM CLR 23/03 A2976 1940 26 3300 180/19G24 RMK AO2 T02280028
13962KABI ABI20160325152511003/25/16 15:25:31  5-MIN KABI 252125Z 17020G25KT 10SM CLR 23/03 A2976 1940 26 3300 160/20G25 RMK AO2 T02280028
13962KABI ABI20160325153012803/25/16 15:30:31  5-MIN KABI 252130Z 18019G26KT 10SM CLR 23/03 A2976 1950 26 3300 170/19G26 RMK AO2 PK WND 17026/2128 T02280028
13962KABI ABI20160325153512803/25/16 15:35:31  5-MIN KABI 252135Z 19015G26KT 10SM CLR 23/03 A2975 1950 27 3300 190/15G26 RMK AO2 PK WND 17026/2128 T02280033
13962KABI ABI20160325154012803/25/16 15:40:31  5-MIN KABI 252140Z 19017G23KT 10SM CLR 23/03 A2975 1950 27 3300 190/17G23 RMK AO2 PK WND 17026/2128 T02280033
13962KABI ABI20160325154512803/25/16 15:45:31  5-MIN KABI 252145Z 18017G23KT 10SM CLR 23/03 A2975 1950 27 3300 170/17G23 RMK AO2 PK WND 17026/2128 T02280033
13962KABI ABI20160325155013503/25/16 15:50:31  5-MIN KABI 252150Z 18017G26KT 10SM CLR 23/03 A2975 1950 27 3300 180/17G26 RMK AO2 PK WND 17026/2128 SLP061 T02280033
13962KABI ABI20160325155511003/25/16 15:55:31  5-MIN KABI 252155Z 19018G26KT 10SM CLR 23/03 A2974 1960 27 3300 190/18G26 RMK AO2 T02280033
13962KABI ABI20160325160011003/25/16 16:00:31  5-MIN KABI 252200Z 18017G25KT 10SM CLR 23/03 A2974 1960 27 3300 170/17G25 RMK AO2 T02280033
13962KABI ABI20160325160512803/25/16 16:05:31  5-MIN KABI 252205Z 18016G28KT 10SM CLR 23/03 A2974 1960 26 3300 170/16G28 RMK AO2 PK WND 18028/2201 T02280028
13962KABI ABI20160325161012803/25/16 16:10:31  5-MIN KABI 252210Z 19017G28KT 10SM CLR 23/03 A2974 1960 26 3300 180/17G28 RMK AO2 PK WND 18028/2201 T02280028
13962KABI ABI20160325161512803/25/16 16:15:31  5-MIN KABI 252215Z 17015G24KT 10SM CLR 23/03 A2974 1960 27 3300 170/15G24 RMK AO2 PK WND 18028/2201 T02280033
13962KABI ABI20160325162012803/25/16 16:20:31  5-MIN KABI 252220Z 18017G24KT 10SM CLR 23/03 A2974 1960 27 3300 170/17G24 RMK AO2 PK WND 18028/2201 T02280033
13962KABI ABI20160325162512803/25/16 16:25:31  5-MIN KABI 252225Z 18014G24KT 10SM CLR 23/03 A2973 1970 27 3400 180/14G24 RMK AO2 PK WND 18028/2201 T02280033
13962KABI ABI20160325163012803/25/16 16:30:31  5-MIN KABI 252230Z 17018G25KT 10SM CLR 23/03 A2973 1970 26 3400 170/18G25 RMK AO2 PK WND 18028/2201 T02280028
13962KABI ABI20160325163512803/25/16 16:35:31  5-MIN KABI 252235Z 18016G26KT 10SM CLR 23/03 A2973 1970 26 3400 170/16G26 RMK AO2 PK WND 18028/2201 T02280028
13962KABI ABI20160325164012803/25/16 16:40:31  5-MIN KABI 252240Z 18016G26KT 10SM CLR 23/03 A2973 1970 27 3400 170/16G26 RMK AO2 PK WND 18028/2201 T02280033
13962KABI ABI20160325164512803/25/16 16:45:31  5-MIN KABI 252245Z 17018G25KT 10SM CLR 22/03 A2973 1970 27 3300 160/18G25 RMK AO2 PK WND 18028/2201 T02220028
13962KABI ABI20160325165013503/25/16 16:50:31  5-MIN KABI 252250Z 17020G25KT 10SM CLR 23/03 A2973 1970 26 3400 170/20G25 RMK AO2 PK WND 18028/2201 SLP054 T02280028
13962KABI ABI20160325165511003/25/16 16:55:31  5-MIN KABI 252255Z 17017G27KT 10SM CLR 22/03 A2972 1970 27 3300 160/17G27 RMK AO2 T02220028
13962KABI ABI20160325170011003/25/16 17:00:31  5-MIN KABI 252300Z 18017G27KT 10SM CLR 22/03 A2972 1980 27 3300 170/17G27 RMK AO2 T02220028
13962KABI ABI20160325170511003/25/16 17:05:31  5-MIN KABI 252305Z 17017G25KT 10SM CLR 23/03 A2972 1980 27 3400 170/17G25 RMK AO2 T02280033
13962KABI ABI20160325171011003/25/16 17:10:31  5-MIN KABI 252310Z 17015G25KT 10SM CLR 22/03 A2972 1980 28 3300 170/15G25 RMK AO2 T02220033
13962KABI ABI20160325171510403/25/16 17:15:31  5-MIN KABI 252315Z 17016KT 10SM CLR 22/03 A2972 1980 27 3300 160/16 RMK AO2 T02220028
13962KABI ABI20160325172011003/25/16 17:20:31  5-MIN KABI 252320Z 17015G22KT 10SM CLR 22/03 A2972 1980 28 3300 170/15G22 RMK AO2 T02220033
13962KABI ABI20160325172511003/25/16 17:25:31  5-MIN KABI 252325Z 16020G25KT 10SM CLR 22/03 A2972 1980 27 3300 160/20G25 RMK AO2 T02220028
13962KABI ABI20160325173011003/25/16 17:30:31  5-MIN KABI 252330Z 18015G25KT 10SM CLR 22/03 A2972 1980 27 3300 170/15G25 RMK AO2 T02220028
13962KABI ABI20160325173512803/25/16 17:35:31  5-MIN KABI 252335Z 17019G26KT 10SM CLR 22/03 A2972 1980 27 3300 170/19G26 RMK AO2 PK WND 18026/2335 T02220028
13962KABI ABI20160325174012803/25/16 17:40:31  5-MIN KABI 252340Z 18015G26KT 10SM CLR 22/02 A2972 1980 26 3300 170/15G26 RMK AO2 PK WND 18026/2335 T02220022
13962KABI ABI20160325174512803/25/16 17:45:31  5-MIN KABI 252345Z 17018G24KT 10SM CLR 22/03 A2972 1980 28 3200 170/18G24 RMK AO2 PK WND 18026/2335 T02170028
13962KABI ABI20160325175015303/25/16 17:50:31  5-MIN KABI 252350Z 16017G23KT 10SM CLR 22/03 A2972 1980 28 3200 160/17G23 RMK AO2 PK WND 18026/2335 SLP053 T02170028 10233 20189 58040
13962KABI ABI20160325175511003/25/16 17:55:31  5-MIN KABI 252355Z 16018G22KT 10SM CLR 22/03 A2972 1980 28 3200 160/18G22 RMK AO2 T02170028
13962KABI ABI20160325180011003/25/16 18:00:31  5-MIN KABI 260000Z 16015G22KT 10SM CLR 21/03 A2972 1980 30 3200 150/15G22 RMK AO2 T02110033
13962KABI ABI20160325180511003/25/16 18:05:31  5-MIN KABI 260005Z 16015G21KT 10SM CLR 21/03 A2972 1970 30 3200 150/15G21 RMK AO2 T02110033
13962KABI ABI20160325181010403/25/16 18:10:31  5-MIN KABI 260010Z 15014KT 10SM CLR 21/03 A2972 1970 30 3200 150/14 RMK AO2 T02110033
13962KABI ABI20160325181511003/25/16 18:15:31  5-MIN KABI 260015Z 16013G19KT 10SM CLR 21/03 A2972 1970 30 3100 150/13G19 RMK AO2 T02060028
13962KABI ABI20160325182010403/25/16 18:20:31  5-MIN KABI 260020Z 16012KT 10SM CLR 21/03 A2973 1970 32 3100 150/12 RMK AO2 T02060033
13962KABI ABI20160325182510403/25/16 18:25:31  5-MIN KABI 260025Z 16012KT 10SM CLR 21/03 A2973 1970 32 3100 160/12 RMK AO2 T02060033
13962KABI ABI20160325183010403/25/16 18:30:31  5-MIN KABI 260030Z 16012KT 10SM CLR 21/03 A2973 1970 30 3100 150/12 RMK AO2 T02060028
13962KABI ABI20160325183510403/25/16 18:35:31  5-MIN KABI 260035Z 16012KT 10SM CLR 20/03 A2973 1970 33 3000 150/12 RMK AO2 T02000033
13962KABI ABI20160325184010403/25/16 18:40:31  5-MIN KABI 260040Z 15013KT 10SM CLR 19/03 A2973 1970 34 3000 150/13 RMK AO2 T01940033
13962KABI ABI20160325184510403/25/16 18:45:31  5-MIN KABI 260045Z 15011KT 10SM CLR 19/03 A2973 1970 34 3000 150/11 RMK AO2 T01940033
13962KABI ABI20160325185011103/25/16 18:50:31  5-MIN KABI 260050Z 15012KT 10SM CLR 19/03 A2973 1970 35 2900 140/12 RMK AO2 SLP057 T01890033
13962KABI ABI20160325185510403/25/16 18:55:31  5-MIN KABI 260055Z 15012KT 10SM CLR 19/03 A2973 1970 35 2900 140/12 RMK AO2 T01890033
13962KABI ABI20160325190010403/25/16 19:00:31  5-MIN KABI 260100Z 15012KT 10SM CLR 18/03 A2973 1970 36 2800 140/12 RMK AO2 T01830033
13962KABI ABI20160325190510403/25/16 19:05:31  5-MIN KABI 260105Z 15012KT 10SM CLR 18/03 A2973 1970 36 2800 140/12 RMK AO2 T01830033
13962KABI ABI20160325191010403/25/16 19:10:31  5-MIN KABI 260110Z 15013KT 10SM CLR 18/03 A2973 1970 36 2800 140/13 RMK AO2 T01830033
13962KABI ABI20160325191510403/25/16 19:15:31  5-MIN KABI 260115Z 16014KT 10SM CLR 18/03 A2973 1970 36 2800 150/14 RMK AO2 T01830033
13962KABI ABI20160325192010403/25/16 19:20:31  5-MIN KABI 260120Z 16014KT 10SM CLR 18/03 A2973 1960 36 2800 150/14 RMK AO2 T01830033
13962KABI ABI20160325192510403/25/16 19:25:31  5-MIN KABI 260125Z 16014KT 10SM CLR 18/03 A2974 1960 36 2800 150/14 RMK AO2 T01780028
13962KABI ABI20160325193010403/25/16 19:30:31  5-MIN KABI 260130Z 15013KT 10SM CLR 18/03 A2974 1960 36 2800 150/13 RMK AO2 T01780028
13962KABI ABI20160325193510403/25/16 19:35:31  5-MIN KABI 260135Z 15012KT 10SM CLR 18/03 A2974 1960 38 2800 150/12 RMK AO2 T01780033
13962KABI ABI20160325194010403/25/16 19:40:31  5-MIN KABI 260140Z 15015KT 10SM CLR 18/03 A2974 1960 38 2800 150/15 RMK AO2 T01780033
13962KABI ABI20160325194510403/25/16 19:45:31  5-MIN KABI 260145Z 16015KT 10SM CLR 18/03 A2974 1960 36 2800 150/15 RMK AO2 T01780028
13962KABI ABI20160325195011703/25/16 19:50:31  5-MIN KABI 260150Z 16016G23KT 10SM CLR 18/03 A2974 1960 36 2800 150/16G23 RMK AO2 SLP060 T01780028
13962KABI ABI20160325195511003/25/16 19:55:31  5-MIN KABI 260155Z 15014G23KT 10SM CLR 18/03 A2974 1960 36 2800 150/14G23 RMK AO2 T01780028
13962KABI ABI20160325200010403/25/16 20:00:31  5-MIN KABI 260200Z 15015KT 10SM CLR 17/03 A2975 1950 39 2700 150/15 RMK AO2 T01720033
13962KABI ABI20160325200510403/25/16 20:05:31  5-MIN KABI 260205Z 15013KT 10SM CLR 17/03 A2975 1950 39 2700 150/13 RMK AO2 T01720033
13962KABI ABI20160325201010403/25/16 20:10:31  5-MIN KABI 260210Z 15013KT 10SM CLR 17/03 A2975 1950 40 2600 140/13 RMK AO2 T01670033
13962KABI ABI20160325201510403/25/16 20:15:31  5-MIN KABI 260215Z 15014KT 10SM CLR 17/03 A2975 1950 40 2600 140/14 RMK AO2 T01670033
13962KABI ABI20160325202010403/25/16 20:20:31  5-MIN KABI 260220Z 15016KT 10SM CLR 17/03 A2975 1950 40 2600 140/16 RMK AO2 T01670033
13962KABI ABI20160325202510403/25/16 20:25:31  5-MIN KABI 260225Z 15016KT 10SM CLR 16/03 A2975 1950 42 2600 140/16 RMK AO2 T01610033
13962KABI ABI20160325203010403/25/16 20:30:31  5-MIN KABI 260230Z 15014KT 10SM CLR 17/03 A2975 1950 40 2600 150/14 RMK AO2 T01670033
13962KABI ABI20160325203510403/25/16 20:35:31  5-MIN KABI 260235Z 15016KT 10SM CLR 17/03 A2975 1950 40 2600 150/16 RMK AO2 T01670033
13962KABI ABI20160325204010403/25/16 20:40:31  5-MIN KABI 260240Z 15017KT 10SM CLR 16/03 A2975 1950 42 2600 150/17 RMK AO2 T01610033
13962KABI ABI20160325204510403/25/16 20:45:31  5-MIN KABI 260245Z 15015KT 10SM CLR 16/03 A2976 1940 42 2600 150/15 RMK AO2 T01610033
13962KABI ABI20160325205012303/25/16 20:50:31  5-MIN KABI 260250Z 15015G21KT 10SM CLR 16/03 A2976 1940 42 2600 140/15G21 RMK AO2 SLP064 T01610033 56017
13962KABI ABI20160325205511003/25/16 20:55:31  5-MIN KABI 260255Z 15016G21KT 10SM CLR 16/03 A2976 1940 42 2600 150/16G21 RMK AO2 T01610033
13962KABI ABI20160325210011003/25/16 21:00:31  5-MIN KABI 260300Z 15017G22KT 10SM CLR 16/03 A2976 1940 42 2600 150/17G22 RMK AO2 T01610033
13962KABI ABI20160325210510403/25/16 21:05:31  5-MIN KABI 260305Z 15016KT 10SM CLR 16/03 A2976 1940 42 2600 140/16 RMK AO2 T01610033
13962KABI ABI20160325211010403/25/16 21:10:31  5-MIN KABI 260310Z 15015KT 10SM CLR 16/04 A2976 1940 45 2500 140/15 RMK AO2 T01560039
13962KABI ABI20160325211510403/25/16 21:15:31  5-MIN KABI 260315Z 15017KT 10SM CLR 16/03 A2976 1940 43 2500 140/17 RMK AO2 T01560033
13962KABI ABI20160325212010403/25/16 21:20:31  5-MIN KABI 260320Z 15015KT 10SM CLR 16/03 A2976 1940 43 2500 140/15 RMK AO2 T01560033
13962KABI ABI20160325212510403/25/16 21:25:31  5-MIN KABI 260325Z 15017KT 10SM CLR 16/03 A2976 1940 43 2500 150/17 RMK AO2 T01560033
13962KABI ABI20160325213010403/25/16 21:30:31  5-MIN KABI 260330Z 15017KT 10SM CLR 16/03 A2976 1940 43 2500 150/17 RMK AO2 T01560033
13962KABI ABI20160325213510403/25/16 21:35:31  5-MIN KABI 260335Z 15018KT 10SM CLR 16/03 A2977 1940 42 2600 150/18 RMK AO2 T01610033
13962KABI ABI20160325214011003/25/16 21:40:31  5-MIN KABI 260340Z 15018G24KT 10SM CLR 16/03 A2977 1940 42 2600 150/18G24 RMK AO2 T01610033
13962KABI ABI20160325214511003/25/16 21:45:31  5-MIN KABI 260345Z 15015G24KT 10SM CLR 16/04 A2977 1940 45 2500 150/15G24 RMK AO2 T01560039
13962KABI ABI20160325215011703/25/16 21:50:31  5-MIN KABI 260350Z 16017G24KT 10SM CLR 16/04 A2976 1940 45 2500 150/17G24 RMK AO2 SLP064 T01560039
13962KABI ABI20160325215511003/25/16 21:55:31  5-MIN KABI 260355Z 16020G25KT 10SM CLR 16/04 A2976 1940 45 2500 150/20G25 RMK AO2 T01560039
13962KABI ABI20160325220011003/25/16 22:00:31  5-MIN KABI 260400Z 16019G25KT 10SM CLR 16/04 A2976 1940 45 2500 150/19G25 RMK AO2 T01560039
13962KABI ABI20160325220510403/25/16 22:05:31  5-MIN KABI 260405Z 16018KT 10SM CLR 16/04 A2976 1940 45 2500 150/18 RMK AO2 T01560039
13962KABI ABI20160325221012803/25/16 22:10:31  5-MIN KABI 260410Z 16020G26KT 10SM CLR 16/04 A2976 1940 45 2500 150/20G26 RMK AO2 PK WND 16026/0410 T01560039
13962KABI ABI20160325221512803/25/16 22:15:31  5-MIN KABI 260415Z 16019G26KT 10SM CLR 16/04 A2976 1940 45 2500 160/19G26 RMK AO2 PK WND 15026/0412 T01560039
13962KABI ABI20160325222012803/25/16 22:20:31  5-MIN KABI 260420Z 16019G26KT 10SM CLR 16/03 A2976 1940 43 2500 160/19G26 RMK AO2 PK WND 15026/0412 T01560033
13962KABI ABI20160325222512203/25/16 22:25:31  5-MIN KABI 260425Z 16019KT 10SM CLR 16/04 A2976 1940 45 2500 150/19 RMK AO2 PK WND 15026/0412 T01560039
13962KABI ABI20160325223012803/25/16 22:30:31  5-MIN KABI 260430Z 16017G24KT 10SM CLR 16/04 A2976 1940 45 2500 160/17G24 RMK AO2 PK WND 15026/0412 T01560039
13962KABI ABI20160325223512203/25/16 22:35:31  5-MIN KABI 260435Z 16016KT 10SM CLR 16/04 A2977 1940 45 2500 160/16 RMK AO2 PK WND 15026/0412 T01560039
13962KABI ABI20160325224012203/25/16 22:40:31  5-MIN KABI 260440Z 16017KT 10SM CLR 15/04 A2977 1940 47 2400 160/17 RMK AO2 PK WND 15026/0412 T01500039
13962KABI ABI20160325224512203/25/16 22:45:31  5-MIN KABI 260445Z 16016KT 10SM CLR 15/04 A2977 1930 47 2400 160/16 RMK AO2 PK WND 15026/0412 T01500039
13962KABI ABI20160325225012903/25/16 22:50:31  5-MIN KABI 260450Z 16018KT 10SM CLR 15/04 A2977 1930 47 2400 160/18 RMK AO2 PK WND 15026/0412 SLP064 T01500039
13962KABI ABI20160325225510403/25/16 22:55:31  5-MIN KABI 260455Z 16015KT 10SM CLR 15/04 A2977 1930 47 2400 160/15 RMK AO2 T01500039
13962KABI ABI20160325230010403/25/16 23:00:31  5-MIN KABI 260500Z 16016KT 10SM CLR 15/04 A2977 1930 47 2400 150/16 RMK AO2 T01500039
13962KABI ABI20160325230510403/25/16 23:05:31  5-MIN KABI 260505Z 16018KT 10SM CLR 15/04 A2977 1930 47 2400 150/18 RMK AO2 T01500039
13962KABI ABI20160325231010403/25/16 23:10:31  5-MIN KABI 260510Z 16017KT 10SM CLR 15/04 A2977 1930 47 2400 160/17 RMK AO2 T01500039
13962KABI ABI20160325231510403/25/16 23:15:31  5-MIN KABI 260515Z 16016KT 10SM CLR 15/04 A2977 1930 47 2400 160/16 RMK AO2 T01500039
13962KABI ABI20160325232011003/25/16 23:20:31  5-MIN KABI 260520Z 17016G24KT 10SM CLR 15/04 A2977 1930 47 2400 160/16G24 RMK AO2 T01500039
13962KABI ABI20160325232511003/25/16 23:25:31  5-MIN KABI 260525Z 16017G23KT 10SM CLR 15/04 A2977 1930 47 2400 160/17G23 RMK AO2 T01500039
13962KABI ABI20160325233011003/25/16 23:30:31  5-MIN KABI 260530Z 16016G23KT 10SM CLR 15/04 A2977 1940 47 2400 160/16G23 RMK AO2 T01500039
13962KABI ABI20160325233511003/25/16 23:35:31  5-MIN KABI 260535Z 16018G24KT 10SM CLR 15/04 A2976 1940 47 2400 160/18G24 RMK AO2 T01500039
13962KABI ABI20160325234010403/25/16 23:40:31  5-MIN KABI 260540Z 17019KT 10SM CLR 15/04 A2976 1940 47 2400 160/19 RMK AO2 T01500039
13962KABI ABI20160325234512803/25/16 23:45:31  5-MIN KABI 260545Z 17020G27KT 10SM CLR 15/04 A2977 1930 47 2400 160/20G27 RMK AO2 PK WND 17027/0542 T01500039
13962KABI ABI20160325235016303/25/16 23:50:31  5-MIN KABI 260550Z 17019G27KT 10SM CLR 15/04 A2977 1930 47 2400 170/19G27 RMK AO2 PK WND 17027/0542 SLP063 T01500039 10217 20144 402330044 53012
13962KABI ABI20160325235512803/25/16 23:55:31  5-MIN KABI 260555Z 17020G26KT 10SM CLR 15/04 A2977 1930 47 2400 160/20G26 RMK AO2 PK WND 17026/0553 T01500039
13962KABI ABI20160326000011003/26/16 00:00:31  5-MIN KABI 260600Z 17020G26KT 10SM CLR 15/04 A2977 1930 47 2400 160/20G26 RMK AO2 T01500039
13962KABI ABI20160326000512803/26/16 00:05:31  5-MIN KABI 260605Z 17019G29KT 10SM CLR 14/04 A2977 1930 49 2400 170/19G29 RMK AO2 PK WND 18029/0603 T01440039
13962KABI ABI20160326001012803/26/16 00:10:31  5-MIN KABI 260610Z 17017G29KT 10SM CLR 14/04 A2977 1930 51 2400 170/17G29 RMK AO2 PK WND 18029/0603 T01440044
13962KABI ABI20160326001512803/26/16 00:15:31  5-MIN KABI 260615Z 17016G24KT 10SM CLR 14/04 A2977 1930 51 2400 160/16G24 RMK AO2 PK WND 18029/0603 T01440044
13962KABI ABI20160326002012803/26/16 00:20:31  5-MIN KABI 260620Z 17018G24KT 10SM CLR 14/04 A2977 1940 51 2400 160/18G24 RMK AO2 PK WND 18029/0603 T01440044
13962KABI ABI20160326002512803/26/16 00:25:31  5-MIN KABI 260625Z 17020G27KT 10SM CLR 14/04 A2977 1940 51 2400 160/20G27 RMK AO2 PK WND 18029/0603 T01440044
13962KABI ABI20160326003012803/26/16 00:30:31  5-MIN KABI 260630Z 17018G27KT 10SM CLR 14/04 A2977 1940 51 2400 170/18G27 RMK AO2 PK WND 18029/0603 T01440044
13962KABI ABI20160326003512203/26/16 00:35:31  5-MIN KABI 260635Z 17018KT 10SM CLR 14/04 A2976 1940 51 2400 160/18 RMK AO2 PK WND 18029/0603 T01440044
13962KABI ABI20160326004012803/26/16 00:40:31  5-MIN KABI 260640Z 17017G26KT 10SM CLR 14/04 A2976 1940 49 2400 160/17G26 RMK AO2 PK WND 18029/0603 T01440039
13962KABI ABI20160326004512803/26/16 00:45:31  5-MIN KABI 260645Z 17017G26KT 10SM CLR 14/04 A2976 1940 50 2300 170/17G26 RMK AO2 PK WND 18029/0603 T01390039
13962KABI ABI20160326005013503/26/16 00:50:31  5-MIN KABI 260650Z 17018G30KT 10SM CLR 14/04 A2976 1940 49 2400 160/18G30 RMK AO2 PK WND 17030/0648 SLP062 T01440039
13962KABI ABI20160326005511003/26/16 00:55:31  5-MIN KABI 260655Z 17018G30KT 10SM CLR 14/04 A2976 1940 50 2300 170/18G30 RMK AO2 T01390039
13962KABI ABI20160326010012803/26/16 01:00:31  5-MIN KABI 260700Z 18020G26KT 10SM CLR 14/04 A2976 1940 50 2300 170/20G26 RMK AO2 PK WND 19026/0700 T01390039
13962KABI ABI20160326010512803/26/16 01:05:31  5-MIN KABI 260705Z 17019G26KT 10SM CLR 14/04 A2977 1940 49 2400 170/19G26 RMK AO2 PK WND 19026/0700 T01440039
13962KABI ABI20160326011012803/26/16 01:10:31  5-MIN KABI 260710Z 18020G28KT 10SM CLR 14/04 A2977 1930 50 2300 170/20G28 RMK AO2 PK WND 18028/0709 T01390039
13962KABI ABI20160326011512803/26/16 01:15:31  5-MIN KABI 260715Z 18016G28KT 10SM CLR 14/04 A2977 1940 50 2300 170/16G28 RMK AO2 PK WND 18028/0709 T01390039
13962KABI ABI20160326012012803/26/16 01:20:31  5-MIN KABI 260720Z 18016G25KT 10SM CLR 14/04 A2977 1930 49 2400 170/16G25 RMK AO2 PK WND 18028/0709 T01440039
13962KABI ABI20160326012512803/26/16 01:25:31  5-MIN KABI 260725Z 18017G29KT 10SM CLR 14/04 A2977 1930 49 2400 170/17G29 RMK AO2 PK WND 18029/0725 T01440039
13962KABI ABI20160326013012803/26/16 01:30:31  5-MIN KABI 260730Z 18018G29KT 10SM CLR 14/04 A2977 1930 50 2300 170/18G29 RMK AO2 PK WND 18029/0725 T01390039
13962KABI ABI20160326013512803/26/16 01:35:31  5-MIN KABI 260735Z 18016G25KT 10SM CLR 14/04 A2977 1930 50 2300 170/16G25 RMK AO2 PK WND 18029/0725 T01390039
13962KABI ABI20160326014012803/26/16 01:40:31  5-MIN KABI 260740Z 17016G25KT 10SM CLR 14/04 A2977 1930 50 2300 170/16G25 RMK AO2 PK WND 18029/0725 T01390039
13962KABI ABI20160326014512803/26/16 01:45:31  5-MIN KABI 260745Z 17016G24KT 10SM CLR 13/04 A2977 1930 52 2200 170/16G24 RMK AO2 PK WND 18029/0725 T01330039
13962KABI ABI20160326015013503/26/16 01:50:31  5-MIN KABI 260750Z 18015G21KT 10SM CLR 13/04 A2977 1930 52 2200 170/15G21 RMK AO2 PK WND 18029/0725 SLP064 T01330039
13962KABI ABI20160326015510403/26/16 01:55:31  5-MIN KABI 260755Z 17015KT 10SM CLR 13/04 A2977 1930 52 2200 170/15 RMK AO2 T01330039
13962KABI ABI20160326020010403/26/16 02:00:31  5-MIN KABI 260800Z 17014KT 10SM CLR 13/04 A2977 1930 52 2200 170/14 RMK AO2 T01330039
13962KABI ABI20160326020510403/26/16 02:05:31  5-MIN KABI 260805Z 17017KT 10SM CLR 13/04 A2977 1940 52 2200 160/17 RMK AO2 T01330039
13962KABI ABI20160326021011003/26/16 02:10:31  5-MIN KABI 260810Z 17015G22KT 10SM CLR 13/04 A2977 1930 52 2200 170/15G22 RMK AO2 T01330039
13962KABI ABI20160326021511003/26/16 02:15:31  5-MIN KABI 260815Z 17017G24KT 10SM CLR 13/04 A2977 1930 52 2200 170/17G24 RMK AO2 T01330039
13962KABI ABI20160326022011003/26/16 02:20:31  5-MIN KABI 260820Z 17017G24KT 10SM CLR 13/04 A2977 1940 52 2200 160/17G24 RMK AO2 T01330039
13962KABI ABI20160326022511003/26/16 02:25:31  5-MIN KABI 260825Z 17017G24KT 10SM CLR 13/04 A2977 1930 54 2200 170/17G24 RMK AO2 T01280039
13962KABI ABI20160326023011003/26/16 02:30:31  5-MIN KABI 260830Z 17017G24KT 10SM CLR 13/04 A2977 1930 54 2200 170/17G24 RMK AO2 T01280039
13962KABI ABI20160326023511003/26/16 02:35:31  5-MIN KABI 260835Z 17018G24KT 10SM CLR 13/04 A2977 1930 54 2200 170/18G24 RMK AO2 T01280039
13962KABI ABI20160326024011003/26/16 02:40:31  5-MIN KABI 260840Z 17017G24KT 10SM CLR 13/04 A2977 1930 54 2200 170/17G24 RMK AO2 T01280039
13962KABI ABI20160326024511003/26/16 02:45:31  5-MIN KABI 260845Z 17018G24KT 10SM CLR 13/04 A2977 1930 54 2200 170/18G24 RMK AO2 T01280039
13962KABI ABI20160326025012303/26/16 02:50:31  5-MIN KABI 260850Z 17017G24KT 10SM CLR 13/04 A2977 1930 54 2200 170/17G24 RMK AO2 SLP064 T01280039 51003
13962KABI ABI20160326025511003/26/16 02:55:31  5-MIN KABI 260855Z 17016G24KT 10SM CLR 12/04 A2977 1930 56 2100 170/16G24 RMK AO2 T01220039
13962KABI ABI20160326030010403/26/16 03:00:31  5-MIN KABI 260900Z 17016KT 10SM CLR 13/04 A2977 1930 54 2200 170/16 RMK AO2 T01280039
13962KABI ABI20160326030510403/26/16 03:05:31  5-MIN KABI 260905Z 17016KT 10SM CLR 12/04 A2978 1930 56 2100 170/16 RMK AO2 T01220039
13962KABI ABI20160326031010403/26/16 03:10:31  5-MIN KABI 260910Z 17017KT 10SM CLR 12/04 A2977 1930 56 2100 170/17 RMK AO2 T01220039
13962KABI ABI20160326031510403/26/16 03:15:31  5-MIN KABI 260915Z 17016KT 10SM CLR 12/04 A2977 1930 56 2100 170/16 RMK AO2 T01220039
13962KABI ABI20160326032010403/26/16 03:20:31  5-MIN KABI 260920Z 17016KT 10SM CLR 12/04 A2977 1930 56 2100 170/16 RMK AO2 T01220039
13962KABI ABI20160326032510403/26/16 03:25:31  5-MIN KABI 260925Z 17014KT 10SM CLR 12/04 A2977 1930 56 2100 170/14 RMK AO2 T01220039
13962KABI ABI20160326033010403/26/16 03:30:31  5-MIN KABI 260930Z 17014KT 10SM CLR 12/04 A2977 1930 59 2100 170/14 RMK AO2 T01220044
13962KABI ABI20160326033510403/26/16 03:35:31  5-MIN KABI 260935Z 17013KT 10SM CLR 12/04 A2978 1930 59 2100 160/13 RMK AO2 T01220044
13962KABI ABI20160326034011003/26/16 03:40:31  5-MIN KABI 260940Z 16014G21KT 10SM CLR 12/04 A2978 1930 59 2100 160/14G21 RMK AO2 T01220044
13962KABI ABI20160326034510403/26/16 03:45:31  5-MIN KABI 260945Z 16013KT 10SM CLR 12/04 A2978 1930 59 2100 160/13 RMK AO2 T01220044
13962KABI ABI20160326035011103/26/16 03:50:31  5-MIN KABI 260950Z 16013KT 10SM CLR 12/04 A2977 1930 61 2000 160/13 RMK AO2 SLP066 T01170044
13962KABI ABI20160326035511003/26/16 03:55:31  5-MIN KABI 260955Z 17014G24KT 10SM CLR 12/04 A2978 1930 61 2000 160/14G24 RMK AO2 T01170044
13962KABI ABI20160326040011003/26/16 04:00:31  5-MIN KABI 261000Z 17014G24KT 10SM CLR 12/04 A2977 1930 61 2000 160/14G24 RMK AO2 T01170044
13962KABI ABI20160326040510403/26/16 04:05:31  5-MIN KABI 261005Z 17013KT 10SM CLR 12/04 A2977 1930 61 2000 160/13 RMK AO2 T01170044
13962KABI ABI20160326041010403/26/16 04:10:31  5-MIN KABI 261010Z 17014KT 10SM CLR 12/05 A2977 1930 63 2000 160/14 RMK AO2 T01170050
13962KABI ABI20160326041510403/26/16 04:15:31  5-MIN KABI 261015Z 17014KT 10SM CLR 12/05 A2977 1930 63 2000 170/14 RMK AO2 T01170050
13962KABI ABI20160326042011003/26/16 04:20:31  5-MIN KABI 261020Z 17015G21KT 10SM CLR 12/05 A2977 1930 63 2000 170/15G21 RMK AO2 T01170050
13962KABI ABI20160326042511003/26/16 04:25:31  5-MIN KABI 261025Z 17013G21KT 10SM CLR 12/05 A2977 1930 63 2000 160/13G21 RMK AO2 T01170050
13962KABI ABI20160326043011003/26/16 04:30:31  5-MIN KABI 261030Z 17017G23KT 10SM CLR 12/05 A2977 1930 63 2000 170/17G23 RMK AO2 T01170050
13962KABI ABI20160326043511003/26/16 04:35:31  5-MIN KABI 261035Z 17016G23KT 10SM CLR 12/05 A2977 1930 63 2000 170/16G23 RMK AO2 T01170050
13962KABI ABI20160326044011003/26/16 04:40:31  5-MIN KABI 261040Z 18017G24KT 10SM CLR 12/05 A2977 1930 63 2000 170/17G24 RMK AO2 T01170050
13962KABI ABI20160326044511003/26/16 04:45:31  5-MIN KABI 261045Z 17017G25KT 10SM CLR 12/06 A2977 1930 66 2000 170/17G25 RMK AO2 T01170056
13962KABI ABI20160326045011703/26/16 04:50:31  5-MIN KABI 261050Z 18017G25KT 10SM CLR 12/06 A2977 1930 66 2000 170/17G25 RMK AO2 SLP065 T01170056
13962KABI ABI20160326045511003/26/16 04:55:31  5-MIN KABI 261055Z 18016G22KT 10SM CLR 12/06 A2978 1920 66 2000 180/16G22 RMK AO2 T01170056
13962KABI ABI20160326050011003/26/16 05:00:31  5-MIN KABI 261100Z 18014G21KT 10SM CLR 12/06 A2978 1920 66 2000 180/14G21 RMK AO2 T01170056
13962KABI ABI20160326050511003/26/16 05:05:31  5-MIN KABI 261105Z 18016G20KT 10SM CLR 12/06 A2978 1920 66 2000 170/16G20 RMK AO2 T01170056
13962KABI ABI20160326051011003/26/16 05:10:31  5-MIN KABI 261110Z 18018G21KT 10SM CLR 12/06 A2978 1920 66 2000 170/18G21 RMK AO2 T01170056
13962KABI ABI20160326051511003/26/16 05:15:31  5-MIN KABI 261115Z 18013G21KT 10SM CLR 12/06 A2979 1920 66 2000 170/13G21 RMK AO2 T01170056
13962KABI ABI20160326052010403/26/16 05:20:31  5-MIN KABI 261120Z 18014KT 10SM CLR 11/06 A2979 1920 68 1900 170/14 RMK AO2 T01110056
13962KABI ABI20160326052510403/26/16 05:25:31  5-MIN KABI 261125Z 18012KT 10SM CLR 12/06 A2979 1910 66 2000 180/12 RMK AO2 T01170056
13962KABI ABI20160326053010403/26/16 05:30:31  5-MIN KABI 261130Z 18014KT 10SM CLR 11/06 A2980 1910 71 1900 170/14 RMK AO2 T01110061
13962KABI ABI20160326053510403/26/16 05:35:31  5-MIN KABI 261135Z 18013KT 10SM CLR 11/06 A2980 1910 71 1900 170/13 RMK AO2 T01110061
13962KABI ABI20160326054010403/26/16 05:40:31  5-MIN KABI 261140Z 18012KT 10SM CLR 11/06 A2980 1910 71 1900 170/12 RMK AO2 T01110061
13962KABI ABI20160326054510403/26/16 05:45:31  5-MIN KABI 261145Z 18012KT 10SM CLR 11/06 A2980 1900 71 1900 170/12 RMK AO2 T01110061
13962KABI ABI20160326055012903/26/16 05:50:31  5-MIN KABI 261150Z 18011KT 10SM CLR 11/06 A2980 1900 71 1900 170/11 RMK AO2 SLP076 T01110061 10150 20111 53001
13962KABI ABI20160326055510403/26/16 05:55:31  5-MIN KABI 261155Z 17011KT 10SM CLR 11/06 A2980 1900 71 1900 170/11 RMK AO2 T01110061
13962KABI ABI20160326060010403/26/16 06:00:31  5-MIN KABI 261200Z 17010KT 10SM CLR 11/06 A2980 1900 71 1900 170/10 RMK AO2 T01110061
13962KABI ABI20160326060510403/26/16 06:05:31  5-MIN KABI 261205Z 17010KT 10SM CLR 11/06 A2981 1900 71 1900 160/10 RMK AO2 T01110061
13962KABI ABI20160326061010403/26/16 06:10:31  5-MIN KABI 261210Z 17011KT 10SM CLR 11/06 A2981 1900 71 1900 160/11 RMK AO2 T01110061
13962KABI ABI20160326061510403/26/16 06:15:31  5-MIN KABI 261215Z 17009KT 10SM CLR 11/06 A2981 1890 74 1800 160/09 RMK AO2 T01060061
13962KABI ABI20160326062010403/26/16 06:20:31  5-MIN KABI 261220Z 16010KT 10SM CLR 11/06 A2981 1890 74 1800 160/10 RMK AO2 T01060061
13962KABI ABI20160326062510403/26/16 06:25:31  5-MIN KABI 261225Z 16010KT 10SM CLR 11/06 A2982 1890 74 1800 150/10 RMK AO2 T01060061
13962KABI ABI20160326063010403/26/16 06:30:31  5-MIN KABI 261230Z 16009KT 10SM CLR 11/06 A2982 1890 74 1800 150/09 RMK AO2 T01060061
13962KABI ABI20160326063510403/26/16 06:35:31  5-MIN KABI 261235Z 15008KT 10SM CLR 10/06 A2982 1880 77 1800 140/08 RMK AO2 T01000061
13962KABI ABI20160326064010403/26/16 06:40:31  5-MIN KABI 261240Z 15009KT 10SM CLR 10/06 A2982 1880 77 1800 140/09 RMK AO2 T01000061
13962KABI ABI20160326064510403/26/16 06:45:31  5-MIN KABI 261245Z 15009KT 10SM CLR 10/06 A2983 1880 77 1800 140/09 RMK AO2 T01000061
13962KABI ABI20160326065011103/26/16 06:50:31  5-MIN KABI 261250Z 15007KT 10SM CLR 09/06 A2983 1880 79 1700 150/07 RMK AO2 SLP088 T00940061
13962KABI ABI20160326065510403/26/16 06:55:31  5-MIN KABI 261255Z 15009KT 10SM CLR 10/06 A2983 1870 77 1800 150/09 RMK AO2 T01000061
13962KABI ABI20160326070010403/26/16 07:00:31  5-MIN KABI 261300Z 16008KT 10SM CLR 10/06 A2983 1870 77 1800 150/08 RMK AO2 T01000061
13962KABI ABI20160326070510403/26/16 07:05:31  5-MIN KABI 261305Z 17009KT 10SM CLR 10/07 A2983 1870 80 1800 160/09 RMK AO2 T01000067
13962KABI ABI20160326071010403/26/16 07:10:31  5-MIN KABI 261310Z 17008KT 10SM CLR 11/07 A2984 1870 77 1800 160/08 RMK AO2 T01060067
13962KABI ABI20160326071510403/26/16 07:15:31  5-MIN KABI 261315Z 18006KT 10SM CLR 11/07 A2984 1870 77 1800 170/06 RMK AO2 T01060067
13962KABI ABI20160326072010403/26/16 07:20:31  5-MIN KABI 261320Z 18007KT 10SM CLR 11/07 A2984 1870 74 1900 170/07 RMK AO2 T01110067
13962KABI ABI20160326072510403/26/16 07:25:31  5-MIN KABI 261325Z 20008KT 10SM CLR 12/07 A2985 1860 74 1900 200/08 RMK AO2 T01170072
13962KABI ABI20160326073010403/26/16 07:30:31  5-MIN KABI 261330Z 21008KT 10SM CLR 12/07 A2985 1850 71 2000 210/08 RMK AO2 T01220072
13962KABI ABI20160326073510403/26/16 07:35:31  5-MIN KABI 261335Z 21008KT 10SM CLR 12/07 A2986 1850 71 2000 210/08 RMK AO2 T01220072
13962KABI ABI20160326074010403/26/16 07:40:31  5-MIN KABI 261340Z 20010KT 10SM CLR 12/07 A2985 1850 71 2000 190/10 RMK AO2 T01220072
13962KABI ABI20160326074510403/26/16 07:45:31  5-MIN KABI 261345Z 20010KT 10SM CLR 12/07 A2985 1850 71 2000 200/10 RMK AO2 T01220072
13962KABI ABI20160326075011103/26/16 07:50:31  5-MIN KABI 261350Z 20008KT 10SM CLR 13/07 A2985 1850 69 2100 200/08 RMK AO2 SLP096 T01280072
13962KABI ABI20160326075510403/26/16 07:55:31  5-MIN KABI 261355Z 22009KT 10SM CLR 13/08 A2986 1850 71 2100 220/09 RMK AO2 T01280078
13962KABI ABI20160326080011003/26/16 08:00:31  5-MIN KABI 261400Z 22010G18KT 10SM CLR 13/08 A2986 1850 71 2100 210/10G18 RMK AO2 T01280078
13962KABI ABI20160326080511003/26/16 08:05:31  5-MIN KABI 261405Z 21009G18KT 10SM CLR 13/08 A2986 1850 71 2100 210/09G18 RMK AO2 T01280078
13962KABI ABI20160326081010403/26/16 08:10:31  5-MIN KABI 261410Z 21011KT 10SM CLR 13/08 A2986 1850 69 2100 200/11 RMK AO2 T01330078
13962KABI ABI20160326081510403/26/16 08:15:31  5-MIN KABI 261415Z 21011KT 10SM CLR 13/08 A2986 1850 69 2100 210/11 RMK AO2 T01330078
13962KABI ABI20160326082010403/26/16 08:20:31  5-MIN KABI 261420Z 20012KT 10SM CLR 13/08 A2986 1850 69 2100 200/12 RMK AO2 T01330078
13962KABI ABI20160326082510403/26/16 08:25:31  5-MIN KABI 261425Z 21013KT 10SM CLR 14/08 A2986 1850 66 2200 210/13 RMK AO2 T01390078
13962KABI ABI20160326083010403/26/16 08:30:31  5-MIN KABI 261430Z 20010KT 10SM CLR 14/08 A2986 1850 66 2200 200/10 RMK AO2 T01390078
13962KABI ABI20160326083511003/26/16 08:35:31  5-MIN KABI 261435Z 20013G18KT 10SM CLR 14/08 A2986 1840 66 2200 200/13G18 RMK AO2 T01440083
13962KABI ABI20160326084011003/26/16 08:40:31  5-MIN KABI 261440Z 21011G18KT 10SM CLR 14/08 A2987 1840 66 2200 210/11G18 RMK AO2 T01390078
13962KABI ABI20160326084510403/26/16 08:45:31  5-MIN KABI 261445Z 22012KT 10SM CLR 14/08 A2987 1840 66 2200 210/12 RMK AO2 T01440083
13962KABI ABI20160326085011703/26/16 08:50:31  5-MIN KABI 261450Z 22011KT 10SM CLR 14/08 A2987 1840 66 2200 220/11 RMK AO2 SLP102 T01440083 53009
13962KABI ABI20160326085510403/26/16 08:55:31  5-MIN KABI 261455Z 22009KT 10SM CLR 15/08 A2987 1830 64 2300 210/09 RMK AO2 T01500083
13962KABI ABI20160326090010403/26/16 09:00:31  5-MIN KABI 261500Z 24009KT 10SM CLR 16/09 A2988 1830 64 2400 230/09 RMK AO2 T01560089
13962KABI ABI20160326090510403/26/16 09:05:31  5-MIN KABI 261505Z 24009KT 10SM CLR 16/09 A2988 1830 64 2400 240/09 RMK AO2 T01560089
13962KABI ABI20160326091010403/26/16 09:10:31  5-MIN KABI 261510Z 23010KT 10SM CLR 16/09 A2988 1830 62 2400 230/10 RMK AO2 T01610089
13962KABI ABI20160326091510403/26/16 09:15:31  5-MIN KABI 261515Z 23010KT 10SM CLR 16/09 A2988 1830 64 2400 230/10 RMK AO2 T01610094
13962KABI ABI20160326092011003/26/16 09:20:31  5-MIN KABI 261520Z 24011G16KT 10SM CLR 17/09 A2988 1830 62 2500 240/11G16 RMK AO2 T01670094
13962KABI ABI20160326092511003/26/16 09:25:31  5-MIN KABI 261525Z 24013G16KT 10SM CLR 17/09 A2988 1830 62 2500 230/13G16 RMK AO2 T01670094
13962KABI ABI20160326093010403/26/16 09:30:31  5-MIN KABI 261530Z 23011KT 10SM CLR 17/09 A2989 1820 62 2500 220/11 RMK AO2 T01670094
13962KABI ABI20160326093510403/26/16 09:35:31  5-MIN KABI 261535Z 24012KT 10SM CLR 17/09 A2989 1820 60 2500 240/12 RMK AO2 T01720094
13962KABI ABI20160326094010403/26/16 09:40:31  5-MIN KABI 261540Z 23012KT 10SM CLR 17/09 A2989 1820 60 2500 220/12 RMK AO2 T01720094
13962KABI ABI20160326094510403/26/16 09:45:31  5-MIN KABI 261545Z 22012KT 10SM CLR 17/09 A2989 1830 60 2500 210/12 RMK AO2 T01720094
13962KABI ABI20160326095011103/26/16 09:50:31  5-MIN KABI 261550Z 22009KT 10SM CLR 17/09 A2988 1830 60 2500 210/09 RMK AO2 SLP104 T01720094
13962KABI ABI20160326095510403/26/16 09:55:31  5-MIN KABI 261555Z 21010KT 10SM CLR 18/10 A2988 1830 60 2600 210/10 RMK AO2 T01780100
13962KABI ABI20160326100010403/26/16 10:00:31  5-MIN KABI 261600Z 22008KT 10SM CLR 18/09 A2989 1820 58 2600 220/08 RMK AO2 T01780094
13962KABI ABI20160326100510403/26/16 10:05:31  5-MIN KABI 261605Z 24007KT 10SM CLR 18/10 A2989 1820 58 2700 240/07 RMK AO2 T01830100
13962KABI ABI20160326101010403/26/16 10:10:31  5-MIN KABI 261610Z 21006KT 10SM CLR 18/09 A2989 1830 56 2700 210/06 RMK AO2 T01830094
13962KABI ABI20160326101510403/26/16 10:15:31  5-MIN KABI 261615Z 23008KT 10SM CLR 19/10 A2988 1830 56 2700 220/08 RMK AO2 T01890100
13962KABI ABI20160326102010403/26/16 10:20:31  5-MIN KABI 261620Z 22009KT 10SM CLR 19/10 A2989 1820 56 2700 220/09 RMK AO2 T01890100
13962KABI ABI20160326102510403/26/16 10:25:31  5-MIN KABI 261625Z 21007KT 10SM CLR 19/10 A2989 1820 56 2700 210/07 RMK AO2 T01890100
13962KABI ABI20160326103010403/26/16 10:30:31  5-MIN KABI 261630Z 21007KT 10SM CLR 19/10 A2989 1820 54 2800 200/07 RMK AO2 T01940100
13962KABI ABI20160326103510403/26/16 10:35:31  5-MIN KABI 261635Z 22007KT 10SM CLR 19/10 A2989 1820 54 2800 220/07 RMK AO2 T01940100
13962KABI ABI20160326104010403/26/16 10:40:31  5-MIN KABI 261640Z 20007KT 10SM CLR 19/10 A2989 1820 54 2800 200/07 RMK AO2 T01940100
13962KABI ABI20160326104510403/26/16 10:45:31  5-MIN KABI 261645Z 20010KT 10SM CLR 20/10 A2989 1820 52 2900 190/10 RMK AO2 T02000100
13962KABI ABI20160326105011103/26/16 10:50:31  5-MIN KABI 261650Z VRB06KT 10SM CLR 20/10 A2989 1820 52 2900 VRB/06 RMK AO2 SLP106 T02000100
13962KABI ABI20160326105510403/26/16 10:55:31  5-MIN KABI 261655Z VRB03KT 10SM CLR 20/10 A2989 1820 52 2900 VRB/03 RMK AO2 T02000100
13962KABI ABI20160326110010403/26/16 11:00:31  5-MIN KABI 261700Z 19007KT 10SM CLR 20/10 A2989 1820 52 2900 190/07 RMK AO2 T02000100
13962KABI ABI20160326110510403/26/16 11:05:31  5-MIN KABI 261705Z 22010KT 10SM CLR 21/10 A2989 1820 50 2900 220/10 RMK AO2 T02060100
13962KABI ABI20160326111010403/26/16 11:10:31  5-MIN KABI 261710Z 22007KT 10SM CLR 21/10 A2989 1820 50 2900 210/07 RMK AO2 T02060100
13962KABI ABI20160326111510403/26/16 11:15:31  5-MIN KABI 261715Z 20006KT 10SM CLR 21/10 A2989 1820 50 2900 200/06 RMK AO2 T02060100
13962KABI ABI20160326112009403/26/16 11:20:31  5-MIN KABI 261720Z 10SM CLR 21/10 A2988 1830 50 2900 M /M RMK AO2 T02060100
13962KABI ABI20160326112510403/26/16 11:25:31  5-MIN KABI 261725Z 19007KT 10SM CLR 21/11 A2988 1830 52 2900 190/07 RMK AO2 T02060106
13962KABI ABI20160326113012003/26/16 11:30:31  5-MIN KABI 261730Z 24007KT 210V270 10SM CLR 21/11 A2988 1830 50 3000 240/07 210V270 RMK AO2 T02110106
13962KABI ABI20160326113510403/26/16 11:35:31  5-MIN KABI 261735Z 23006KT 10SM CLR 21/10 A2988 1830 48 3000 230/06 RMK AO2 T02110100
13962KABI ABI20160326114010403/26/16 11:40:31  5-MIN KABI 261740Z 25007KT 10SM CLR 21/10 A2988 1830 48 3000 250/07 RMK AO2 T02110100
13962KABI ABI20160326114512003/26/16 11:45:31  5-MIN KABI 261745Z 22007KT 180V260 10SM CLR 21/10 A2988 1830 48 3000 220/07 180V260 RMK AO2 T02110100
13962KABI ABI20160326115012903/26/16 11:50:31  5-MIN KABI 261750Z 00000KT 10SM CLR 21/10 A2988 1830 48 3000 000/00 RMK AO2 SLP101 T02110100 10217 20094 51023
13962KABI ABI20160326115509403/26/16 11:55:31  5-MIN KABI 261755Z 10SM CLR 22/10 A2988 1830 47 3100 M /M RMK AO2 T02170100
13962KABI ABI20160326120010403/26/16 12:00:31  5-MIN KABI 261800Z 23007KT 10SM CLR 22/09 A2987 1840 45 3100 230/07 RMK AO2 T02170094
13962KABI ABI20160326120510403/26/16 12:05:31  5-MIN KABI 261805Z 25006KT 10SM CLR 22/10 A2987 1840 45 3100 240/06 RMK AO2 T02220100
13962KABI ABI20160326121010403/26/16 12:10:31  5-MIN KABI 261810Z VRB04KT 10SM CLR 22/10 A2987 1840 45 3100 VRB/04 RMK AO2 T02220100
13962KABI ABI20160326121510403/26/16 12:15:31  5-MIN KABI 261815Z 30005KT 10SM CLR 22/10 A2987 1840 45 3100 290/05 RMK AO2 T02220100
13962KABI ABI20160326122009403/26/16 12:20:31  5-MIN KABI 261820Z 10SM CLR 22/09 A2987 1840 43 3100 M /M RMK AO2 T02220094
13962KABI ABI20160326122510403/26/16 12:25:31  5-MIN KABI 261825Z VRB04KT 10SM CLR 22/09 A2987 1840 42 3100 VRB/04 RMK AO2 T02220089
13962KABI ABI20160326123010403/26/16 12:30:31  5-MIN KABI 261830Z 24003KT 10SM CLR 22/09 A2987 1840 43 3100 240/03 RMK AO2 T02220094
13962KABI ABI20160326123510403/26/16 12:35:31  5-MIN KABI 261835Z 22005KT 10SM CLR 23/09 A2987 1840 42 3200 210/05 RMK AO2 T02280094
13962KABI ABI20160326124009403/26/16 12:40:31  5-MIN KABI 261840Z 10SM CLR 22/09 A2987 1840 43 3100 M /M RMK AO2 T02220094
13962KABI ABI20160326124510403/26/16 12:45:31  5-MIN KABI 261845Z 26005KT 10SM CLR 23/09 A2986 1840 42 3200 260/05 RMK AO2 T02280094
13962KABI ABI20160326125011103/26/16 12:50:31  5-MIN KABI 261850Z 27005KT 10SM CLR 23/09 A2986 1850 42 3200 260/05 RMK AO2 SLP094 T02280094
13962KABI ABI20160326125510403/26/16 12:55:31  5-MIN KABI 261855Z 28005KT 10SM CLR 23/09 A2986 1850 40 3200 280/05 RMK AO2 T02280089
13962KABI ABI20160326130010403/26/16 13:00:31  5-MIN KABI 261900Z VRB04KT 10SM CLR 23/09 A2986 1850 41 3300 VRB/04 RMK AO2 T02330094
13962KABI ABI20160326130510403/26/16 13:05:31  5-MIN KABI 261905Z 20003KT 10SM CLR 23/09 A2986 1850 40 3200 200/03 RMK AO2 T02280089
13962KABI ABI20160326131010403/26/16 13:10:31  5-MIN KABI 261910Z VRB06KT 10SM CLR 23/09 A2986 1850 40 3200 VRB/06 RMK AO2 T02280089
13962KABI ABI20160326131510403/26/16 13:15:31  5-MIN KABI 261915Z 17007KT 10SM CLR 23/09 A2986 1850 39 3300 170/07 RMK AO2 T02330089
13962KABI ABI20160326132010403/26/16 13:20:31  5-MIN KABI 261920Z 19006KT 10SM CLR 23/09 A2985 1850 42 3200 180/06 RMK AO2 T02280094
13962KABI ABI20160326132510403/26/16 13:25:31  5-MIN KABI 261925Z 19005KT 10SM CLR 23/09 A2985 1860 41 3300 190/05 RMK AO2 T02330094
13962KABI ABI20160326133010403/26/16 13:30:31  5-MIN KABI 261930Z 16006KT 10SM CLR 24/09 A2985 1860 39 3300 150/06 RMK AO2 T02390094
13962KABI ABI20160326133510403/26/16 13:35:31  5-MIN KABI 261935Z 24006KT 10SM CLR 24/09 A2985 1860 39 3300 240/06 RMK AO2 T02390094
13962KABI ABI20160326134010403/26/16 13:40:31  5-MIN KABI 261940Z VRB04KT 10SM CLR 23/09 A2985 1860 39 3300 VRB/04 RMK AO2 T02330089
13962KABI ABI20160326234010403/26/16 23:40:31  5-MIN KABI 270540Z 16013KT 10SM CLR 16/12 A2987 1840 77 2400 160/13 RMK AO2 T01560117
13962KABI ABI20160326234510403/26/16 23:45:31  5-MIN KABI 270545Z 16012KT 10SM CLR 16/12 A2987 1840 77 2400 160/12 RMK AO2 T01560117
13962KABI ABI20160326235013903/26/16 23:50:31  5-MIN KABI 270550Z 16012KT 10SM CLR 16/12 A2987 1840 77 2400 160/12 RMK AO2 SLP097 T01560117 10239 20156 402610094 53009
13962KABI ABI20160326235510403/26/16 23:55:31  5-MIN KABI 270555Z 16012KT 10SM CLR 16/12 A2987 1840 77 2400 160/12 RMK AO2 T01560117
13962KABI ABI20160327000010403/27/16 00:00:31  5-MIN KABI 270600Z 16012KT 10SM CLR 16/12 A2987 1840 77 2400 150/12 RMK AO2 T01560117
13962KABI ABI20160327000510403/27/16 00:05:31  5-MIN KABI 270605Z 16012KT 10SM CLR 15/12 A2986 1840 80 2300 150/12 RMK AO2 T01500117
13962KABI ABI20160327001010403/27/16 00:10:31  5-MIN KABI 270610Z 17011KT 10SM CLR 15/12 A2986 1850 80 2300 160/11 RMK AO2 T01500117
13962KABI ABI20160327001510403/27/16 00:15:31  5-MIN KABI 270615Z 17011KT 10SM CLR 16/12 A2986 1850 77 2400 170/11 RMK AO2 T01560117
13962KABI ABI20160327002010403/27/16 00:20:31  5-MIN KABI 270620Z 18013KT 10SM CLR 16/12 A2986 1850 75 2400 180/13 RMK AO2 T01610117
13962KABI ABI20160327002510403/27/16 00:25:31  5-MIN KABI 270625Z 18015KT 10SM CLR 17/12 A2985 1850 72 2500 170/15 RMK AO2 T01670117
13962KABI ABI20160327003010403/27/16 00:30:31  5-MIN KABI 270630Z 18015KT 10SM CLR 17/12 A2985 1860 72 2500 170/15 RMK AO2 T01670117
13962KABI ABI20160327004010303/27/16 00:40:31  5-MIN KABI 270640Z 17015KT 17/12 A2985 1860 72 2500 170/15 RMK AO2 T01670117 RVRNO $
13962KABI ABI20160327004510303/27/16 00:45:31  5-MIN KABI 270645Z 17014KT 17/12 A2985 1850 72 2500 160/14 RMK AO2 T01670117 RVRNO $
13962KABI ABI20160327005011303/27/16 00:50:31  5-MIN KABI 270650Z 17012KT 10SM CLR 16/12 A2985 1860 75 2500 160/12 RMK AO2 SLP090 T01610117 $
13962KABI ABI20160327005510603/27/16 00:55:31  5-MIN KABI 270655Z 17014KT 10SM CLR 17/12 A2985 1860 72 2500 170/14 RMK AO2 T01670117 $
13962KABI ABI20160327010013503/27/16 01:00:31  5-MIN KABI 270700Z 21010G20KT 170V250 10SM CLR 17/12 A2987 1840 72 2500 200/10G20 170V250 RMK AO2 PRESRR T01670117 $
13962KABI ABI20160327010513003/27/16 01:05:31  5-MIN KABI 270705Z 32017G21KT 10SM CLR 17/12 A2992 1800 75 2400 310/17G21 RMK AO2 WSHFT 0650 PRESRR T01670122 $
13962KABI ABI20160327011012303/27/16 01:10:31  5-MIN KABI 270710Z 32014G21KT 10SM CLR 17/12 A2992 1790 69 2500 310/14G21 RMK AO2 WSHFT 0653 T01720117 $
13962KABI ABI20160327011512303/27/16 01:15:31  5-MIN KABI 270715Z 23011G20KT 10SM CLR 17/12 A2991 1800 69 2500 230/11G20 RMK AO2 WSHFT 0657 T01720117 $
13962KABI ABI20160327012014103/27/16 01:20:31  5-MIN KABI 270720Z 27016G26KT 10SM CLR 18/12 A2993 1780 69 2600 270/16G26 RMK AO2 PK WND 22026/0717 WSHFT 0704 T01780122 $
13962KABI ABI20160327012514103/27/16 01:25:31  5-MIN KABI 270725Z 29010G26KT 10SM CLR 18/12 A2994 1770 69 2500 280/10G26 RMK AO2 PK WND 22026/0717 WSHFT 0704 T01780122 $
13962KABI ABI20160327013013503/27/16 01:30:31  5-MIN KABI 270730Z 28013KT 10SM CLR 18/12 A2994 1770 69 2500 270/13 RMK AO2 PK WND 22026/0717 WSHFT 0704 T01780122 $
13962KABI ABI20160327013513503/27/16 01:35:31  5-MIN KABI 270735Z 27012KT 10SM CLR 18/12 A2994 1770 69 2500 260/12 RMK AO2 PK WND 22026/0717 WSHFT 0704 T01780122 $
13962KABI ABI20160327014014103/27/16 01:40:31  5-MIN KABI 270740Z 30017G21KT 10SM CLR 18/12 A2995 1770 67 2500 300/17G21 RMK AO2 PK WND 22026/0717 WSHFT 0704 T01780117 $
13962KABI ABI20160327014514103/27/16 01:45:31  5-MIN KABI 270745Z 33025G30KT 10SM CLR 16/09 A2996 1760 64 2300 330/25G30 RMK AO2 PK WND 33030/0745 WSHFT 0704 T01560089 $
13962KABI ABI20160327015013103/27/16 01:50:31  5-MIN KABI 270750Z 34022G30KT 10SM CLR 13/07 A2996 1750 64 2000 340/22G30 RMK AO2 PK WND 34030/0748 WSHFT 0734 $
13962KABI ABI20160327015515203/27/16 01:55:31  5-MIN KABI 270755Z 35022KT 10SM SCT038 OVC047 13/06 A2997 1750 63 1900 340/22 RMK AO2 PK WND 35027/0754 WSHFT 0739 PRESRR T01280061 $
13962KABI ABI20160327020015103/27/16 02:00:31  5-MIN KABI 270800Z 35020G27KT 10SM FEW037 OVC046 13/06 A2997 1740 63 1900 350/20G27 RMK AO2 PK WND 35027/0754 WSHFT 0739 T01280061 $
13962KABI ABI20160327020514403/27/16 02:05:31  5-MIN KABI 270805Z 34023G28KT 10SM BKN045 12/06 A2998 1740 68 1800 340/23G28 RMK AO2 PK WND 35029/0802 WSHFT 0739 T01170061 $
13962KABI ABI20160327021014403/27/16 02:10:31  5-MIN KABI 270810Z 35024G31KT 10SM BKN045 11/06 A2998 1730 71 1700 340/24G31 RMK AO2 PK WND 34031/0810 WSHFT 0739 T01110061 $
13962KABI ABI20160327021514403/27/16 02:15:31  5-MIN KABI 270815Z 34021G31KT 10SM BKN047 11/06 A2999 1730 74 1600 340/21G31 RMK AO2 PK WND 34031/0810 WSHFT 0739 T01060061 $
13962KABI ABI20160327022014403/27/16 02:20:31  5-MIN KABI 270820Z 35028G33KT 10SM BKN047 11/06 A2999 1730 74 1600 340/28G33 RMK AO2 PK WND 35033/0820 WSHFT 0739 T01060061 $
13962KABI ABI20160327022514403/27/16 02:25:31  5-MIN KABI 270825Z 35022G33KT 10SM BKN047 11/06 A3000 1720 71 1600 340/22G33 RMK AO2 PK WND 35033/0820 WSHFT 0739 T01060056 $
13962KABI ABI20160327023015103/27/16 02:30:31  5-MIN KABI 270830Z 35020G29KT 10SM BKN047 10/06 A3001 1710 74 1600 340/20G29 RMK AO2 PK WND 35033/0820 WSHFT 0739 PRESRR T01000056 $
13962KABI ABI20160327023514503/27/16 02:35:31  5-MIN KABI 270835Z 35021KT 10SM BKN047 10/06 A3002 1700 74 1500 340/21 RMK AO2 PK WND 35033/0820 WSHFT 0739 PRESRR T01000056 $
13962KABI ABI20160327024013803/27/16 02:40:31  5-MIN KABI 270840Z 35021KT 10SM BKN047 10/06 A3002 1700 74 1500 340/21 RMK AO2 PK WND 35033/0820 WSHFT 0739 T01000056 $
13962KABI ABI20160327024514503/27/16 02:45:31  5-MIN KABI 270845Z 34020KT 10SM BKN047 10/06 A3003 1690 74 1500 340/20 RMK AO2 PK WND 35033/0820 WSHFT 0739 PRESRR T01000056 $
13962KABI ABI20160327025015203/27/16 02:50:31  5-MIN KABI 270850Z 34020KT 10SM FEW020 BKN047 09/06 A3003 1690 76 1500 340/20 RMK AO2 PK WND 35033/0820 WSHFT 0739 SLP155 T00940056 $
13962KABI ABI20160327025514003/27/16 02:55:31  5-MIN KABI 270855Z 35022G26KT 10SM SCT020 BKN047 09/06 A3004 1680 76 1500 340/22G26 RMK AO2 PK WND 35026/0854 T00940056 $
13962KABI ABI20160327030014003/27/16 03:00:31  5-MIN KABI 270900Z 35017G26KT 10SM BKN020 BKN047 09/06 A3004 1680 76 1500 340/17G26 RMK AO2 PK WND 35026/0854 T00940056 $
13962KABI ABI20160327030513303/27/16 03:05:31  5-MIN KABI 270905Z 35025G33KT 10SM BKN020 09/05 A3005 1670 74 1400 340/25G33 RMK AO2 PK WND 35033/0903 T00940050 $
13962KABI ABI20160327031013303/27/16 03:10:31  5-MIN KABI 270910Z 35018G33KT 10SM BKN020 09/05 A3005 1670 74 1400 350/18G33 RMK AO2 PK WND 35033/0903 T00940050 $
13962KABI ABI20160327031512703/27/16 03:15:31  5-MIN KABI 270915Z 35016KT 10SM OVC019 10/06 A3005 1670 74 1500 350/16 RMK AO2 PK WND 35033/0903 T01000056 $
13962KABI ABI20160327032013303/27/16 03:20:31  5-MIN KABI 270920Z 35018G25KT 10SM OVC019 09/06 A3005 1670 76 1400 350/18G25 RMK AO2 PK WND 35033/0903 T00940056 $
13962KABI ABI20160327032513303/27/16 03:25:31  5-MIN KABI 270925Z 34020G26KT 10SM OVC019 09/06 A3005 1670 76 1400 340/20G26 RMK AO2 PK WND 35033/0903 T00940056 $
13962KABI ABI20160327033013303/27/16 03:30:31  5-MIN KABI 270930Z 35021G26KT 10SM OVC019 09/05 A3005 1670 74 1400 340/21G26 RMK AO2 PK WND 35033/0903 T00940050 $
13962KABI ABI20160327033513303/27/16 03:35:31  5-MIN KABI 270935Z 36020G26KT 10SM OVC019 09/05 A3006 1660 74 1400 350/20G26 RMK AO2 PK WND 35033/0903 T00940050 $
13962KABI ABI20160327034012703/27/16 03:40:31  5-MIN KABI 270940Z 34017KT 10SM OVC019 09/05 A3007 1660 74 1400 340/17 RMK AO2 PK WND 35033/0903 T00940050 $
13962KABI ABI20160327034513303/27/16 03:45:31  5-MIN KABI 270945Z 35022G28KT 10SM OVC019 09/04 A3007 1660 73 1400 340/22G28 RMK AO2 PK WND 35033/0903 T00890044 $
13962KABI ABI20160327035013403/27/16 03:50:31  5-MIN KABI 270950Z 35022KT 10SM OVC019 09/04 A3007 1650 73 1400 340/22 RMK AO2 PK WND 35033/0903 SLP168 T00890044 $
13962KABI ABI20160327035513303/27/16 03:55:31  5-MIN KABI 270955Z 35021G30KT 10SM OVC019 09/04 A3007 1650 71 1400 340/21G30 RMK AO2 PK WND 35028/0953 T00890039 $
13962KABI ABI20160327040013303/27/16 04:00:31  5-MIN KABI 271000Z 35023G30KT 10SM OVC019 09/03 A3008 1650 68 1300 350/23G30 RMK AO2 PK WND 35029/0956 T00890033 $
13962KABI ABI20160327040513303/27/16 04:05:31  5-MIN KABI 271005Z 35023G29KT 10SM OVC021 09/03 A3008 1640 68 1300 340/23G29 RMK AO2 PK WND 35029/0956 T00890033 $
13962KABI ABI20160327041013303/27/16 04:10:31  5-MIN KABI 271010Z 36022G29KT 10SM OVC021 08/03 A3009 1640 68 1300 350/22G29 RMK AO2 PK WND 34029/1006 T00830028 $
13962KABI ABI20160327041513303/27/16 04:15:31  5-MIN KABI 271015Z 35020G29KT 10SM OVC023 08/03 A3009 1630 68 1300 350/20G29 RMK AO2 PK WND 34029/1006 T00830028 $
13962KABI ABI20160327042013303/27/16 04:20:31  5-MIN KABI 271020Z 36020G29KT 10SM OVC023 08/02 A3009 1630 65 1300 350/20G29 RMK AO2 PK WND 36029/1017 T00830022 $
13962KABI ABI20160327042513303/27/16 04:25:31  5-MIN KABI 271025Z 35022G29KT 10SM OVC025 08/02 A3010 1630 65 1300 350/22G29 RMK AO2 PK WND 36029/1017 T00830022 $
13962KABI ABI20160327043013303/27/16 04:30:31  5-MIN KABI 271030Z 36025G30KT 10SM OVC025 08/02 A3009 1630 63 1300 360/25G30 RMK AO2 PK WND 36030/1030 T00830017 $
13962KABI ABI20160327043513303/27/16 04:35:31  5-MIN KABI 271035Z 01022G30KT 10SM OVC025 08/01 A3010 1630 60 1300 360/22G30 RMK AO2 PK WND 36030/1030 T00830011 $
13962KABI ABI20160327044013303/27/16 04:40:31  5-MIN KABI 271040Z 36019G30KT 10SM OVC027 08/01 A3010 1630 60 1300 360/19G30 RMK AO2 PK WND 36030/1030 T00830011 $
13962KABI ABI20160327044513303/27/16 04:45:31  5-MIN KABI 271045Z 01022G28KT 10SM OVC027 08/01 A3010 1620 60 1300 360/22G28 RMK AO2 PK WND 36030/1030 T00830011 $
13962KABI ABI20160327045014003/27/16 04:50:31  5-MIN KABI 271050Z 01019G28KT 10SM OVC027 08/01 A3010 1620 60 1300 360/19G28 RMK AO2 PK WND 36030/1030 SLP178 T00830011 $
13962KABI ABI20160327045511503/27/16 04:55:31  5-MIN KABI 271055Z 01017G27KT 10SM OVC027 08/01 A3011 1620 60 1200 360/17G27 RMK AO2 T00830011 $
13962KABI ABI20160327050011503/27/16 05:00:31  5-MIN KABI 271100Z 35021G25KT 10SM OVC028 08/01 A3011 1620 60 1200 350/21G25 RMK AO2 T00830011 $
13962KABI ABI20160327050511503/27/16 05:05:31  5-MIN KABI 271105Z 35019G25KT 10SM OVC028 08/01 A3011 1610 60 1200 340/19G25 RMK AO2 T00830011 $
13962KABI ABI20160327051013303/27/16 05:10:31  5-MIN KABI 271110Z 35024G28KT 10SM OVC030 08/01 A3012 1610 62 1200 340/24G28 RMK AO2 PK WND 35028/1109 T00780011 $
13962KABI ABI20160327051513303/27/16 05:15:31  5-MIN KABI 271115Z 35018G28KT 10SM OVC030 08/01 A3012 1610 62 1200 350/18G28 RMK AO2 PK WND 35028/1109 T00780011 $
13962KABI ABI20160327052013303/27/16 05:20:31  5-MIN KABI 271120Z 35020G28KT 10SM OVC030 08/01 A3013 1600 62 1200 350/20G28 RMK AO2 PK WND 35028/1118 T00780011 $
13962KABI ABI20160327052513303/27/16 05:25:31  5-MIN KABI 271125Z 36017G28KT 10SM OVC030 08/01 A3013 1600 62 1200 350/17G28 RMK AO2 PK WND 35028/1118 T00780011 $
13962KABI ABI20160327053013303/27/16 05:30:31  5-MIN KABI 271130Z 01019G27KT 10SM OVC030 08/01 A3013 1600 62 1200 360/19G27 RMK AO2 PK WND 35028/1118 T00780011 $
13962KABI ABI20160327053512703/27/16 05:35:31  5-MIN KABI 271135Z 36019KT 10SM OVC030 08/01 A3014 1590 62 1100 360/19 RMK AO2 PK WND 35028/1118 T00780011 $
13962KABI ABI20160327054013303/27/16 05:40:31  5-MIN KABI 271140Z 36017G25KT 10SM OVC030 08/01 A3014 1590 60 1100 360/17G25 RMK AO2 PK WND 35028/1118 T00780006 $
13962KABI ABI20160327054513303/27/16 05:45:31  5-MIN KABI 271145Z 36017G28KT 10SM OVC030 08/01 A3014 1590 60 1100 360/17G28 RMK AO2 PK WND 35028/1118 T00780006 $
13962KABI ABI20160327055015203/27/16 05:50:31  5-MIN KABI 271150Z 36019G28KT 10SM OVC030 08/01 A3015 1580 60 1100 350/19G28 RMK AO2 PK WND 35028/1118 SLP195 T00780006 10178 20078 $
13962KABI ABI20160327055511503/27/16 05:55:31  5-MIN KABI 271155Z 36017G25KT 10SM OVC030 08/01 A3015 1580 60 1100 360/17G25 RMK AO2 T00780006 $
13962KABI ABI20160327060011503/27/16 06:00:31  5-MIN KABI 271200Z 36015G24KT 10SM OVC030 08/01 A3015 1580 60 1100 360/15G24 RMK AO2 T00780006 $
13962KABI ABI20160327060511503/27/16 06:05:31  5-MIN KABI 271205Z 01018G24KT 10SM OVC032 08/01 A3015 1580 60 1100 360/18G24 RMK AO2 T00780006 $
13962KABI ABI20160327061011503/27/16 06:10:31  5-MIN KABI 271210Z 01016G23KT 10SM OVC032 08/01 A3016 1580 60 1100 360/16G23 RMK AO2 T00780006 $
13962KABI ABI20160327061513303/27/16 06:15:31  5-MIN KABI 271215Z 01016G26KT 10SM OVC032 08/01 A3016 1570 60 1100 360/16G26 RMK AO2 PK WND 01026/1211 T00780006 $
13962KABI ABI20160327062013303/27/16 06:20:31  5-MIN KABI 271220Z 01014G26KT 10SM OVC033 08/01 A3016 1570 60 1100 360/14G26 RMK AO2 PK WND 01026/1211 T00780006 $
13962KABI ABI20160327062513303/27/16 06:25:31  5-MIN KABI 271225Z 01013G24KT 10SM OVC033 08/01 A3016 1570 62 1100 360/13G24 RMK AO2 PK WND 01026/1211 T00780011 $
13962KABI ABI20160327063012703/27/16 06:30:31  5-MIN KABI 271230Z 36014KT 10SM OVC033 08/01 A3016 1570 62 1100 360/14 RMK AO2 PK WND 01026/1211 T00780011 $
13962KABI ABI20160327063512703/27/16 06:35:31  5-MIN KABI 271235Z 01013KT 10SM OVC033 08/01 A3017 1570 62 1100 010/13 RMK AO2 PK WND 01026/1211 T00780011 $
13962KABI ABI20160327064012703/27/16 06:40:31  5-MIN KABI 271240Z 01011KT 10SM OVC033 08/01 A3017 1570 62 1100 360/11 RMK AO2 PK WND 01026/1211 T00780011 $
13962KABI ABI20160327064512703/27/16 06:45:31  5-MIN KABI 271245Z 01014KT 10SM OVC033 08/01 A3017 1570 62 1100 360/14 RMK AO2 PK WND 01026/1211 T00780011 $
13962KABI ABI20160327065013403/27/16 06:50:31  5-MIN KABI 271250Z 01016KT 10SM OVC033 08/01 A3017 1560 62 1100 360/16 RMK AO2 PK WND 01026/1211 SLP204 T00780011 $
13962KABI ABI20160327065510903/27/16 06:55:31  5-MIN KABI 271255Z 36015KT 10SM OVC033 08/01 A3017 1560 62 1100 360/15 RMK AO2 T00780011 $
13962KABI ABI20160327070010903/27/16 07:00:31  5-MIN KABI 271300Z 36013KT 10SM OVC033 08/01 A3017 1560 62 1100 360/13 RMK AO2 T00780011 $
13962KABI ABI20160327070511503/27/16 07:05:31  5-MIN KABI 271305Z 01018G24KT 10SM OVC033 08/01 A3018 1560 62 1100 360/18G24 RMK AO2 T00780011 $
13962KABI ABI20160327071011503/27/16 07:10:31  5-MIN KABI 271310Z 36015G24KT 10SM OVC035 08/01 A3018 1560 62 1100 360/15G24 RMK AO2 T00780011 $
13962KABI ABI20160327071510903/27/16 07:15:31  5-MIN KABI 271315Z 36014KT 10SM OVC035 08/02 A3018 1550 65 1100 360/14 RMK AO2 T00780017 $
13962KABI ABI20160327072010903/27/16 07:20:31  5-MIN KABI 271320Z 36018KT 10SM OVC035 08/02 A3018 1550 65 1100 360/18 RMK AO2 T00780017 $
13962KABI ABI20160327072510903/27/16 07:25:31  5-MIN KABI 271325Z 36014KT 10SM OVC035 08/01 A3019 1550 62 1100 360/14 RMK AO2 T00780011 $
13962KABI ABI20160327073010903/27/16 07:30:31  5-MIN KABI 271330Z 36019KT 10SM OVC037 08/02 A3019 1540 65 1100 350/19 RMK AO2 T00780017 $
13962KABI ABI20160327073510903/27/16 07:35:31  5-MIN KABI 271335Z 35016KT 10SM OVC037 08/01 A3019 1540 62 1100 350/16 RMK AO2 T00780011 $
13962KABI ABI20160327074010903/27/16 07:40:31  5-MIN KABI 271340Z 34018KT 10SM OVC037 08/01 A3020 1540 62 1100 340/18 RMK AO2 T00780011 $
13962KABI ABI20160327074510903/27/16 07:45:31  5-MIN KABI 271345Z 35019KT 10SM OVC037 08/01 A3020 1540 62 1100 350/19 RMK AO2 T00780011 $
13962KABI ABI20160327075011603/27/16 07:50:31  5-MIN KABI 271350Z 35018KT 10SM OVC039 08/02 A3020 1540 65 1100 350/18 RMK AO2 SLP216 T00780017 $
13962KABI ABI20160327075510903/27/16 07:55:31  5-MIN KABI 271355Z 35016KT 10SM OVC039 08/02 A3020 1530 65 1100 350/16 RMK AO2 T00780017 $
13962KABI ABI20160327080010903/27/16 08:00:31  5-MIN KABI 271400Z 35018KT 10SM OVC041 08/02 A3021 1530 65 1100 340/18 RMK AO2 T00780017 $
13962KABI ABI20160327080510903/27/16 08:05:31  5-MIN KABI 271405Z 35017KT 10SM OVC041 08/02 A3021 1520 65 1100 340/17 RMK AO2 T00780017 $
13962KABI ABI20160327081010903/27/16 08:10:31  5-MIN KABI 271410Z 34019KT 10SM OVC041 08/02 A3021 1520 65 1100 340/19 RMK AO2 T00780017 $
13962KABI ABI20160327081510903/27/16 08:15:31  5-MIN KABI 271415Z 35019KT 10SM OVC043 08/02 A3022 1520 65 1100 340/19 RMK AO2 T00780017 $
13962KABI ABI20160327082010903/27/16 08:20:31  5-MIN KABI 271420Z 35015KT 10SM OVC043 08/02 A3022 1520 65 1100 350/15 RMK AO2 T00780017 $
13962KABI ABI20160327082510903/27/16 08:25:31  5-MIN KABI 271425Z 35017KT 10SM OVC043 08/02 A3022 1520 65 1100 340/17 RMK AO2 T00780017 $
13962KABI ABI20160327083010903/27/16 08:30:31  5-MIN KABI 271430Z 34018KT 10SM OVC045 08/02 A3022 1520 65 1100 340/18 RMK AO2 T00830022 $
13962KABI ABI20160327083511503/27/16 08:35:31  5-MIN KABI 271435Z 36015G23KT 10SM BKN045 08/02 A3022 1520 65 1100 350/15G23 RMK AO2 T00780017 $
13962KABI ABI20160327084010903/27/16 08:40:31  5-MIN KABI 271440Z 35015KT 10SM BKN045 09/02 A3022 1520 63 1200 340/15 RMK AO2 T00890022 $
13962KABI ABI20160327084510903/27/16 08:45:31  5-MIN KABI 271445Z 36018KT 10SM SCT045 09/02 A3022 1520 63 1200 350/18 RMK AO2 T00890022 $
13962KABI ABI20160327085012803/27/16 08:50:31  5-MIN KABI 271450Z 36015G22KT 10SM SCT045 09/02 A3022 1520 63 1200 360/15G22 RMK AO2 SLP223 T00890022 53036 $
13962KABI ABI20160327085510903/27/16 08:55:31  5-MIN KABI 271455Z 35016KT 10SM FEW045 09/02 A3022 1510 63 1200 340/16 RMK AO2 T00890022 $
13962KABI ABI20160327090010603/27/16 09:00:31  5-MIN KABI 271500Z 34016KT 10SM CLR 09/02 A3022 1510 63 1200 340/16 RMK AO2 T00890022 $
13962KABI ABI20160327090511203/27/16 09:05:31  5-MIN KABI 271505Z 36018G24KT 10SM CLR 09/02 A3022 1510 63 1200 350/18G24 RMK AO2 T00890022 $
13962KABI ABI20160327091011203/27/16 09:10:31  5-MIN KABI 271510Z 35014G24KT 10SM CLR 09/03 A3023 1510 63 1200 340/14G24 RMK AO2 T00940028 $
13962KABI ABI20160327091510603/27/16 09:15:31  5-MIN KABI 271515Z 35017KT 10SM CLR 09/03 A3023 1510 63 1200 350/17 RMK AO2 T00940028 $
13962KABI ABI20160327092010603/27/16 09:20:31  5-MIN KABI 271520Z 36019KT 10SM CLR 09/03 A3023 1510 63 1200 350/19 RMK AO2 T00940028 $
13962KABI ABI20160327092511203/27/16 09:25:31  5-MIN KABI 271525Z 34016G22KT 10SM CLR 09/02 A3023 1510 60 1200 340/16G22 RMK AO2 T00940022 $
13962KABI ABI20160327093011203/27/16 09:30:31  5-MIN KABI 271530Z 34016G22KT 10SM CLR 09/03 A3023 1500 63 1200 330/16G22 RMK AO2 T00940028 $
13962KABI ABI20160327093510603/27/16 09:35:31  5-MIN KABI 271535Z 35018KT 10SM CLR 10/03 A3024 1500 60 1300 350/18 RMK AO2 T01000028 $
13962KABI ABI20160327094010603/27/16 09:40:31  5-MIN KABI 271540Z 36018KT 10SM CLR 10/03 A3024 1500 60 1300 350/18 RMK AO2 T01000028 $
13962KABI ABI20160327094510603/27/16 09:45:31  5-MIN KABI 271545Z 33019KT 10SM CLR 10/03 A3024 1500 60 1300 330/19 RMK AO2 T01000028 $
13962KABI ABI20160327095011903/27/16 09:50:31  5-MIN KABI 271550Z 33019G24KT 10SM CLR 10/03 A3024 1500 60 1300 330/19G24 RMK AO2 SLP227 T01000028 $
13962KABI ABI20160327095511203/27/16 09:55:31  5-MIN KABI 271555Z 35017G24KT 10SM CLR 10/03 A3024 1500 60 1300 350/17G24 RMK AO2 T01000028 $
13962KABI ABI20160327100010603/27/16 10:00:31  5-MIN KABI 271600Z 35017KT 10SM CLR 11/03 A3024 1500 58 1400 350/17 RMK AO2 T01060028 $
13962KABI ABI20160327100510603/27/16 10:05:31  5-MIN KABI 271605Z 35017KT 10SM CLR 11/03 A3024 1500 58 1400 340/17 RMK AO2 T01060028 $
13962KABI ABI20160327101010603/27/16 10:10:31  5-MIN KABI 271610Z 36016KT 10SM CLR 11/03 A3024 1490 58 1400 350/16 RMK AO2 T01060028 $
13962KABI ABI20160327101510603/27/16 10:15:31  5-MIN KABI 271615Z 34017KT 10SM CLR 11/03 A3025 1490 58 1400 340/17 RMK AO2 T01060028 $
13962KABI ABI20160327102010603/27/16 10:20:31  5-MIN KABI 271620Z 34018KT 10SM CLR 11/02 A3024 1490 56 1400 340/18 RMK AO2 T01060022 $
13962KABI ABI20160327102510603/27/16 10:25:31  5-MIN KABI 271625Z 35017KT 10SM CLR 10/02 A3024 1500 58 1300 340/17 RMK AO2 T01000022 $
13962KABI ABI20160327103010603/27/16 10:30:31  5-MIN KABI 271630Z 35014KT 10SM CLR 11/03 A3024 1500 56 1400 350/14 RMK AO2 T01110028 $
13962KABI ABI20160327103510603/27/16 10:35:31  5-MIN KABI 271635Z 35014KT 10SM CLR 11/03 A3024 1500 56 1400 340/14 RMK AO2 T01110028 $
13962KABI ABI20160327104010603/27/16 10:40:31  5-MIN KABI 271640Z 35016KT 10SM CLR 11/03 A3024 1500 56 1400 340/16 RMK AO2 T01110028 $
13962KABI ABI20160327104510603/27/16 10:45:31  5-MIN KABI 271645Z 34015KT 10SM CLR 11/02 A3024 1500 54 1400 340/15 RMK AO2 T01110022 $
13962KABI ABI20160327105011303/27/16 10:50:31  5-MIN KABI 271650Z 34015KT 10SM CLR 11/03 A3024 1500 56 1400 330/15 RMK AO2 SLP229 T01110028 $
13962KABI ABI20160327105510603/27/16 10:55:31  5-MIN KABI 271655Z 36014KT 10SM CLR 11/02 A3024 1500 54 1400 360/14 RMK AO2 T01110022 $
13962KABI ABI20160327110011203/27/16 11:00:31  5-MIN KABI 271700Z 35016G22KT 10SM CLR 11/02 A3024 1500 54 1400 340/16G22 RMK AO2 T01110022 $
13962KABI ABI20160327110511203/27/16 11:05:31  5-MIN KABI 271705Z 35013G22KT 10SM CLR 12/02 A3024 1500 52 1500 340/13G22 RMK AO2 T01170022 $
13962KABI ABI20160327111010603/27/16 11:10:31  5-MIN KABI 271710Z 36014KT 10SM CLR 12/02 A3024 1500 50 1500 350/14 RMK AO2 T01170017 $
13962KABI ABI20160327111510603/27/16 11:15:31  5-MIN KABI 271715Z 35014KT 10SM CLR 12/02 A3024 1500 52 1500 340/14 RMK AO2 T01170022 $
13962KABI ABI20160327112010603/27/16 11:20:31  5-MIN KABI 271720Z 35012KT 10SM CLR 12/02 A3024 1500 50 1600 340/12 RMK AO2 T01220022 $
13962KABI ABI20160327112510603/27/16 11:25:31  5-MIN KABI 271725Z 01014KT 10SM CLR 13/02 A3024 1500 48 1600 360/14 RMK AO2 T01280022 $
13962KABI ABI20160327113010603/27/16 11:30:31  5-MIN KABI 271730Z 36014KT 10SM CLR 12/02 A3023 1510 48 1600 360/14 RMK AO2 T01220017 $
13962KABI ABI20160327113510603/27/16 11:35:31  5-MIN KABI 271735Z 01013KT 10SM CLR 13/02 A3023 1500 48 1600 010/13 RMK AO2 T01280022 $
13962KABI ABI20160327114010603/27/16 11:40:31  5-MIN KABI 271740Z 36013KT 10SM CLR 13/02 A3024 1500 48 1600 350/13 RMK AO2 T01280022 $
13962KABI ABI20160327114510603/27/16 11:45:31  5-MIN KABI 271745Z 36015KT 10SM CLR 13/02 A3024 1500 46 1600 360/15 RMK AO2 T01280017 $
13962KABI ABI20160327115013703/27/16 11:50:31  5-MIN KABI 271750Z 01010G19KT 10SM CLR 13/02 A3024 1500 46 1600 360/10G19 RMK AO2 SLP227 T01280017 10133 20078 51024 $
13962KABI ABI20160327115511203/27/16 11:55:31  5-MIN KABI 271755Z 36018G22KT 10SM CLR 13/02 A3023 1500 45 1700 360/18G22 RMK AO2 T01330017 $
13962KABI ABI20160327120011203/27/16 12:00:31  5-MIN KABI 271800Z 01009G22KT 10SM CLR 13/02 A3023 1500 46 1600 010/09G22 RMK AO2 T01280017 $
13962KABI ABI20160327120511203/27/16 12:05:31  5-MIN KABI 271805Z 36010G17KT 10SM CLR 13/02 A3023 1500 46 1600 350/10G17 RMK AO2 T01280017 $
13962KABI ABI20160327121011203/27/16 12:10:31  5-MIN KABI 271810Z 36013G20KT 10SM CLR 13/02 A3024 1500 45 1700 360/13G20 RMK AO2 T01330017 $
13962KABI ABI20160327121511203/27/16 12:15:31  5-MIN KABI 271815Z 35012G20KT 10SM CLR 13/02 A3023 1510 45 1700 350/12G20 RMK AO2 T01330017 $
13962KABI ABI20160327122011203/27/16 12:20:31  5-MIN KABI 271820Z 35009G20KT 10SM CLR 13/02 A3023 1510 45 1700 340/09G20 RMK AO2 T01330017 $
13962KABI ABI20160327122511203/27/16 12:25:31  5-MIN KABI 271825Z 36014G20KT 10SM CLR 14/02 A3023 1510 43 1800 360/14G20 RMK AO2 T01390017 $
13962KABI ABI20160327123011203/27/16 12:30:31  5-MIN KABI 271830Z 36012G18KT 10SM CLR 14/02 A3023 1510 43 1800 350/12G18 RMK AO2 T01390017 $
13962KABI ABI20160327123511203/27/16 12:35:31  5-MIN KABI 271835Z 01009G19KT 10SM CLR 13/02 A3023 1510 45 1700 360/09G19 RMK AO2 T01330017 $
13962KABI ABI20160327124011203/27/16 12:40:31  5-MIN KABI 271840Z 01013G19KT 10SM CLR 14/02 A3023 1510 43 1800 360/13G19 RMK AO2 T01390017 $
13962KABI ABI20160327124511203/27/16 12:45:31  5-MIN KABI 271845Z 34012G18KT 10SM CLR 14/01 A3023 1510 41 1800 340/12G18 RMK AO2 T01390011 $
13962KABI ABI20160327125011303/27/16 12:50:31  5-MIN KABI 271850Z 36012KT 10SM CLR 14/01 A3023 1510 41 1800 360/12 RMK AO2 SLP224 T01390011 $
13962KABI ABI20160327125510603/27/16 12:55:31  5-MIN KABI 271855Z 34010KT 10SM CLR 14/02 A3022 1510 43 1800 340/10 RMK AO2 T01390017 $
13962KABI ABI20160327130010603/27/16 13:00:31  5-MIN KABI 271900Z 36012KT 10SM CLR 14/01 A3022 1520 40 1800 360/12 RMK AO2 T01440011 $
13962KABI ABI20160327130510603/27/16 13:05:31  5-MIN KABI 271905Z 35013KT 10SM CLR 14/02 A3022 1520 41 1800 350/13 RMK AO2 T01440017 $
13962KABI ABI20160327131011203/27/16 13:10:31  5-MIN KABI 271910Z 36014G17KT 10SM CLR 15/02 A3022 1520 40 1900 360/14G17 RMK AO2 T01500017 $
13962KABI ABI20160327131511203/27/16 13:15:31  5-MIN KABI 271915Z 34007G17KT 10SM CLR 14/02 A3021 1520 41 1900 330/07G17 RMK AO2 T01440017 $
13962KABI ABI20160327132011203/27/16 13:20:31  5-MIN KABI 271920Z 01014G17KT 10SM CLR 15/01 A3021 1530 38 1900 360/14G17 RMK AO2 T01500011 $
13962KABI ABI20160327132511203/27/16 13:25:31  5-MIN KABI 271925Z 35011G18KT 10SM CLR 15/01 A3021 1530 37 1900 340/11G18 RMK AO2 T01500006 $
13962KABI ABI20160327133010603/27/16 13:30:31  5-MIN KABI 271930Z 01014KT 10SM CLR 15/01 A3021 1530 37 1900 360/14 RMK AO2 T01500006 $
13962KABI ABI20160327133511203/27/16 13:35:31  5-MIN KABI 271935Z 35007G19KT 10SM CLR 15/01 A3020 1530 38 1900 350/07G19 RMK AO2 T01500011 $
13962KABI ABI20160327134010603/27/16 13:40:31  5-MIN KABI 271940Z 36013KT 10SM CLR 16/01 A3020 1530 37 2000 360/13 RMK AO2 T01560011 $
13962KABI ABI20160327134511203/27/16 13:45:31  5-MIN KABI 271945Z 36011G18KT 10SM CLR 16/01 A3020 1540 36 2000 360/11G18 RMK AO2 T01560006 $
13962KABI ABI20160327135011903/27/16 13:50:31  5-MIN KABI 271950Z 36016G19KT 10SM CLR 16/01 A3020 1540 37 2000 360/16G19 RMK AO2 SLP214 T01560011 $
13962KABI ABI20160327135511203/27/16 13:55:31  5-MIN KABI 271955Z 36011G19KT 10SM CLR 15/01 A3020 1540 37 1900 360/11G19 RMK AO2 T01500006 $
13962KABI ABI20160327140010603/27/16 14:00:31  5-MIN KABI 272000Z 34013KT 10SM CLR 16/02 A3019 1540 37 2100 330/13 RMK AO2 T01610017 $
13962KABI ABI20160327140511203/27/16 14:05:31  5-MIN KABI 272005Z 35012G18KT 10SM CLR 16/01 A3019 1540 36 2100 340/12G18 RMK AO2 T01610011 $
13962KABI ABI20160327141011203/27/16 14:10:31  5-MIN KABI 272010Z 36011G18KT 10SM CLR 16/01 A3019 1540 34 2100 350/11G18 RMK AO2 T01610006 $
13962KABI ABI20160327141510603/27/16 14:15:31  5-MIN KABI 272015Z 36015KT 10SM CLR 16/01 A3019 1550 34 2100 350/15 RMK AO2 T01610006 $
13962KABI ABI20160327142011203/27/16 14:20:31  5-MIN KABI 272020Z 36011G16KT 10SM CLR 16/01 A3019 1550 34 2100 350/11G16 RMK AO2 T01610006 $
13962KABI ABI20160327142510603/27/16 14:25:31  5-MIN KABI 272025Z 02008KT 10SM CLR 17/01 A3018 1550 34 2100 010/08 RMK AO2 T01670011 $
13962KABI ABI20160327143011203/27/16 14:30:31  5-MIN KABI 272030Z 36013G18KT 10SM CLR 17/01 A3018 1550 33 2100 360/13G18 RMK AO2 T01670006 $
13962KABI ABI20160327143511203/27/16 14:35:31  5-MIN KABI 272035Z 36014G18KT 10SM CLR 16/00 A3018 1550 33 2100 360/14G18 RMK AO2 T01610000 $
13962KABI ABI20160327144011203/27/16 14:40:31  5-MIN KABI 272040Z 01011G18KT 10SM CLR 16/00 A3018 1550 33 2100 360/11G18 RMK AO2 T01610000 $
13962KABI ABI20160327144510603/27/16 14:45:31  5-MIN KABI 272045Z 01012KT 10SM CLR 17/00 A3017 1560 32 2200 360/12 RMK AO2 T01670000 $
13962KABI ABI20160327145011903/27/16 14:50:31  5-MIN KABI 272050Z 35012KT 10SM CLR 17/00 A3018 1560 32 2200 340/12 RMK AO2 SLP209 T01670000 50004 $
13962KABI ABI20160327145511203/27/16 14:55:31  5-MIN KABI 272055Z 01010G18KT 10SM CLR 17/00 A3017 1560 32 2200 360/10G18 RMK AO2 T01670000 $
13962KABI ABI20160327150011203/27/16 15:00:31  5-MIN KABI 272100Z 34012G18KT 10SM CLR 17/00 A3017 1560 32 2200 340/12G18 RMK AO2 T01670000 $
13962KABI ABI20160327150510603/27/16 15:05:31  5-MIN KABI 272105Z 03010KT 10SM CLR 17/00 A3017 1560 31 2200 020/10 RMK AO2 T01720000 $
13962KABI ABI20160327151010703/27/16 15:10:31  5-MIN KABI 272110Z 01010KT 10SM CLR 17/M01 A3017 1570 31 2200 010/10 RMK AO2 T01671006 $
13962KABI ABI20160327151510603/27/16 15:15:31  5-MIN KABI 272115Z 35008KT 10SM CLR 17/00 A3017 1570 31 2200 350/08 RMK AO2 T01720000 $
13962KABI ABI20160327152010703/27/16 15:20:31  5-MIN KABI 272120Z 36013KT 10SM CLR 17/M01 A3016 1570 31 2200 360/13 RMK AO2 T01671006 $
13962KABI ABI20160327152511303/27/16 15:25:31  5-MIN KABI 272125Z 36010G17KT 10SM CLR 17/M01 A3016 1570 29 2200 350/10G17 RMK AO2 T01721006 $
13962KABI ABI20160327153010603/27/16 15:30:31  5-MIN KABI 272130Z 02012KT 10SM CLR 17/00 A3016 1570 31 2200 010/12 RMK AO2 T01720000 $
13962KABI ABI20160327153510703/27/16 15:35:31  5-MIN KABI 272135Z 36010KT 10SM CLR 17/M01 A3016 1570 29 2200 350/10 RMK AO2 T01671011 $
13962KABI ABI20160327154010703/27/16 15:40:31  5-MIN KABI 272140Z 36011KT 10SM CLR 17/M01 A3016 1570 29 2200 360/11 RMK AO2 T01721006 $
13962KABI ABI20160327154511303/27/16 15:45:31  5-MIN KABI 272145Z 36013G16KT 10SM CLR 17/M01 A3016 1570 29 2200 350/13G16 RMK AO2 T01721006 $
13962KABI ABI20160327155012003/27/16 15:50:31  5-MIN KABI 272150Z 35009G16KT 10SM CLR 17/M01 A3016 1570 28 2200 350/09G16 RMK AO2 SLP204 T01721011 $
13962KABI ABI20160327155510703/27/16 15:55:31  5-MIN KABI 272155Z 01011KT 10SM CLR 17/M01 A3016 1570 28 2200 360/11 RMK AO2 T01721011 $
13962KABI ABI20160327160010703/27/16 16:00:31  5-MIN KABI 272200Z 01010KT 10SM CLR 17/M01 A3016 1570 28 2200 010/10 RMK AO2 T01721011 $
13962KABI ABI20160327160510703/27/16 16:05:31  5-MIN KABI 272205Z 02010KT 10SM CLR 17/M01 A3016 1570 29 2200 010/10 RMK AO2 T01721006 $
13962KABI ABI20160327161010703/27/16 16:10:31  5-MIN KABI 272210Z 02010KT 10SM CLR 17/M01 A3016 1580 29 2200 010/10 RMK AO2 T01721006 $
13962KABI ABI20160327161510703/27/16 16:15:31  5-MIN KABI 272215Z 04008KT 10SM CLR 17/M01 A3016 1580 28 2200 030/08 RMK AO2 T01721011 $
13962KABI ABI20160327162011303/27/16 16:20:31  5-MIN KABI 272220Z 02011G16KT 10SM CLR 17/M02 A3016 1580 27 2200 010/11G16 RMK AO2 T01721017 $
13962KABI ABI20160327162511303/27/16 16:25:31  5-MIN KABI 272225Z 02008G16KT 10SM CLR 17/M02 A3016 1570 27 2200 020/08G16 RMK AO2 T01721017 $
13962KABI ABI20160327163010703/27/16 16:30:31  5-MIN KABI 272230Z 35011KT 10SM CLR 17/M02 A3016 1570 26 2200 350/11 RMK AO2 T01721022 $
13962KABI ABI20160327163510703/27/16 16:35:31  5-MIN KABI 272235Z 02010KT 10SM CLR 17/M02 A3016 1570 27 2200 010/10 RMK AO2 T01721017 $
13962KABI ABI20160327164011303/27/16 16:40:31  5-MIN KABI 272240Z 36010G16KT 10SM CLR 17/M02 A3016 1570 28 2200 360/10G16 RMK AO2 T01671017 $
13962KABI ABI20160327164510703/27/16 16:45:31  5-MIN KABI 272245Z 02011KT 10SM CLR 17/M01 A3015 1580 28 2200 010/11 RMK AO2 T01721011 $
13962KABI ABI20160327165011403/27/16 16:50:31  5-MIN KABI 272250Z 36008KT 10SM CLR 17/M02 A3015 1580 28 2200 360/08 RMK AO2 SLP203 T01671017 $
13962KABI ABI20160327165510703/27/16 16:55:31  5-MIN KABI 272255Z 33007KT 10SM CLR 17/M02 A3015 1580 27 2200 330/07 RMK AO2 T01721017 $
13962KABI ABI20160327170010703/27/16 17:00:31  5-MIN KABI 272300Z 35008KT 10SM CLR 17/M02 A3015 1580 27 2200 350/08 RMK AO2 T01721017 $
13962KABI ABI20160327170510703/27/16 17:05:31  5-MIN KABI 272305Z 01012KT 10SM CLR 17/M01 A3015 1580 28 2200 360/12 RMK AO2 T01721011 $
13962KABI ABI20160327171010703/27/16 17:10:31  5-MIN KABI 272310Z 03009KT 10SM CLR 17/M02 A3015 1580 28 2200 020/09 RMK AO2 T01671017 $
13962KABI ABI20160327171510703/27/16 17:15:31  5-MIN KABI 272315Z 02005KT 10SM CLR 17/M02 A3015 1580 27 2200 020/05 RMK AO2 T01721017 $
13962KABI ABI20160327172010703/27/16 17:20:31  5-MIN KABI 272320Z 03009KT 10SM CLR 17/M02 A3015 1580 27 2200 020/09 RMK AO2 T01671022 $
13962KABI ABI20160327172510703/27/16 17:25:31  5-MIN KABI 272325Z 01003KT 10SM CLR 17/M02 A3015 1580 28 2200 010/03 RMK AO2 T01671017 $
13962KABI ABI20160327173010703/27/16 17:30:31  5-MIN KABI 272330Z 02007KT 10SM CLR 17/M01 A3015 1580 29 2200 010/07 RMK AO2 T01671011 $
13962KABI ABI20160327173510703/27/16 17:35:31  5-MIN KABI 272335Z 03006KT 10SM CLR 17/M02 A3015 1580 27 2200 030/06 RMK AO2 T01671022 $
13962KABI ABI20160327174010703/27/16 17:40:31  5-MIN KABI 272340Z 36006KT 10SM CLR 17/M02 A3015 1580 28 2200 350/06 RMK AO2 T01671017 $
13962KABI ABI20160327174510703/27/16 17:45:31  5-MIN KABI 272345Z 35006KT 10SM CLR 17/M01 A3015 1580 29 2200 350/06 RMK AO2 T01671011 $
13962KABI ABI20160327175013203/27/16 17:50:31  5-MIN KABI 272350Z 01008KT 10SM CLR 16/M02 A3015 1580 29 2100 010/08 RMK AO2 SLP202 T01611017 10178 20128 58019 $
13962KABI ABI20160327175510703/27/16 17:55:31  5-MIN KABI 272355Z 02006KT 10SM CLR 16/M02 A3016 1580 29 2100 020/06 RMK AO2 T01611017 $
13962KABI ABI20160327180010703/27/16 18:00:31  5-MIN KABI 280000Z 03007KT 10SM CLR 16/M02 A3015 1580 28 2100 030/07 RMK AO2 T01611022 $
13962KABI ABI20160327180510703/27/16 18:05:31  5-MIN KABI 280005Z 03006KT 10SM CLR 16/M02 A3016 1580 29 2100 020/06 RMK AO2 T01611017 $
13962KABI ABI20160327181010703/27/16 18:10:31  5-MIN KABI 280010Z 02006KT 10SM CLR 16/M02 A3016 1580 28 2100 010/06 RMK AO2 T01611022 $
13962KABI ABI20160327181510703/27/16 18:15:31  5-MIN KABI 280015Z 02004KT 10SM CLR 16/M02 A3016 1570 29 2000 010/04 RMK AO2 T01561022 $
13962KABI ABI20160327182010703/27/16 18:20:31  5-MIN KABI 280020Z 03005KT 10SM CLR 16/M02 A3016 1570 29 2000 020/05 RMK AO2 T01561022 $
13962KABI ABI20160327182510703/27/16 18:25:31  5-MIN KABI 280025Z 02005KT 10SM CLR 16/M02 A3016 1570 29 2000 010/05 RMK AO2 T01561022 $
13962KABI ABI20160327183010703/27/16 18:30:31  5-MIN KABI 280030Z 02006KT 10SM CLR 16/M02 A3016 1570 29 2000 020/06 RMK AO2 T01561022 $
13962KABI ABI20160327183510703/27/16 18:35:31  5-MIN KABI 280035Z 01005KT 10SM CLR 15/M02 A3016 1570 30 2000 360/05 RMK AO2 T01501022 $
13962KABI ABI20160327184010703/27/16 18:40:31  5-MIN KABI 280040Z 36005KT 10SM CLR 15/M02 A3016 1570 30 2000 360/05 RMK AO2 T01501022 $
13962KABI ABI20160327184510703/27/16 18:45:31  5-MIN KABI 280045Z 01005KT 10SM CLR 14/M02 A3016 1570 31 1900 010/05 RMK AO2 T01441022 $
13962KABI ABI20160327185011403/27/16 18:50:31  5-MIN KABI 280050Z 01004KT 10SM CLR 14/M02 A3016 1570 31 1900 360/04 RMK AO2 SLP206 T01441022 $
13962KABI ABI20160327185510703/27/16 18:55:31  5-MIN KABI 280055Z 36004KT 10SM CLR 14/M02 A3016 1570 31 1900 360/04 RMK AO2 T01441022 $
13962KABI ABI20160327190010703/27/16 19:00:31  5-MIN KABI 280100Z 01005KT 10SM CLR 14/M02 A3016 1570 32 1800 360/05 RMK AO2 T01391022 $
13962KABI ABI20160327190510703/27/16 19:05:31  5-MIN KABI 280105Z 01003KT 10SM CLR 14/M02 A3016 1570 32 1800 010/03 RMK AO2 T01391022 $
13962KABI ABI20160327191010703/27/16 19:10:31  5-MIN KABI 280110Z 01003KT 10SM CLR 14/M02 A3016 1570 31 1900 010/03 RMK AO2 T01441022 $
13962KABI ABI20160327191510703/27/16 19:15:31  5-MIN KABI 280115Z 01004KT 10SM CLR 14/M02 A3016 1570 32 1800 360/04 RMK AO2 T01391022 $
13962KABI ABI20160327192010703/27/16 19:20:31  5-MIN KABI 280120Z 01004KT 10SM CLR 14/M02 A3016 1570 32 1800 360/04 RMK AO2 T01391022 $
13962KABI ABI20160327192510703/27/16 19:25:31  5-MIN KABI 280125Z 01004KT 10SM CLR 14/M02 A3016 1570 32 1800 010/04 RMK AO2 T01391022 $
13962KABI ABI20160327193010703/27/16 19:30:31  5-MIN KABI 280130Z 01004KT 10SM CLR 14/M02 A3016 1570 32 1800 010/04 RMK AO2 T01391022 $
13962KABI ABI20160327193510703/27/16 19:35:31  5-MIN KABI 280135Z 01004KT 10SM CLR 14/M02 A3016 1570 32 1800 010/04 RMK AO2 T01391022 $
13962KABI ABI20160327194010703/27/16 19:40:31  5-MIN KABI 280140Z 01004KT 10SM CLR 13/M02 A3016 1570 34 1800 010/04 RMK AO2 T01331022 $
13962KABI ABI20160327194510703/27/16 19:45:31  5-MIN KABI 280145Z 02005KT 10SM CLR 13/M02 A3017 1570 34 1800 020/05 RMK AO2 T01331022 $
13962KABI ABI20160327195011403/27/16 19:50:31  5-MIN KABI 280150Z 02005KT 10SM CLR 13/M02 A3017 1570 36 1700 020/05 RMK AO2 SLP210 T01281017 $
13962KABI ABI20160327195510703/27/16 19:55:31  5-MIN KABI 280155Z 03004KT 10SM CLR 13/M02 A3017 1560 35 1800 020/04 RMK AO2 T01331017 $
13962KABI ABI20160327200010703/27/16 20:00:31  5-MIN KABI 280200Z 03004KT 10SM CLR 13/M02 A3017 1560 36 1700 030/04 RMK AO2 T01281017 $
13962KABI ABI20160327200510703/27/16 20:05:31  5-MIN KABI 280205Z 03003KT 10SM CLR 13/M02 A3017 1560 36 1700 030/03 RMK AO2 T01281017 $
13962KABI ABI20160327201010703/27/16 20:10:31  5-MIN KABI 280210Z 03004KT 10SM CLR 13/M02 A3017 1560 36 1700 030/04 RMK AO2 T01281017 $
13962KABI ABI20160327201510703/27/16 20:15:31  5-MIN KABI 280215Z 04004KT 10SM CLR 13/M01 A3017 1560 38 1700 040/04 RMK AO2 T01281011 $
13962KABI ABI20160327202010703/27/16 20:20:31  5-MIN KABI 280220Z 05004KT 10SM CLR 12/M01 A3017 1560 41 1600 040/04 RMK AO2 T01221006 $
13962KABI ABI20160327202510703/27/16 20:25:31  5-MIN KABI 280225Z 05004KT 10SM CLR 12/M01 A3018 1560 41 1600 050/04 RMK AO2 T01221006 $
13962KABI ABI20160327203010703/27/16 20:30:31  5-MIN KABI 280230Z 05005KT 10SM CLR 12/M01 A3018 1560 42 1600 040/05 RMK AO2 T01171006 $
13962KABI ABI20160327203510703/27/16 20:35:31  5-MIN KABI 280235Z 04004KT 10SM CLR 12/M01 A3018 1560 39 1600 040/04 RMK AO2 T01221011 $
13962KABI ABI20160327204010703/27/16 20:40:31  5-MIN KABI 280240Z 05004KT 10SM CLR 12/M01 A3018 1550 39 1600 040/04 RMK AO2 T01221011 $
13962KABI ABI20160327204510703/27/16 20:45:31  5-MIN KABI 280245Z 05004KT 10SM CLR 12/M01 A3018 1550 39 1600 050/04 RMK AO2 T01221011 $
13962KABI ABI20160327205012003/27/16 20:50:31  5-MIN KABI 280250Z 06004KT 10SM CLR 12/M01 A3018 1550 39 1600 060/04 RMK AO2 SLP214 T01221011 56007 $
13962KABI ABI20160327205510703/27/16 20:55:31  5-MIN KABI 280255Z 06005KT 10SM CLR 12/M01 A3018 1550 39 1600 060/05 RMK AO2 T01221011 $
13962KABI ABI20160327210010703/27/16 21:00:31  5-MIN KABI 280300Z 07004KT 10SM CLR 12/M01 A3018 1550 41 1600 060/04 RMK AO2 T01171011 $
13962KABI ABI20160327210510703/27/16 21:05:31  5-MIN KABI 280305Z 07004KT 10SM CLR 12/M01 A3018 1550 41 1600 070/04 RMK AO2 T01171011 $
13962KABI ABI20160327211010703/27/16 21:10:31  5-MIN KABI 280310Z 07004KT 10SM CLR 11/M01 A3019 1550 42 1500 070/04 RMK AO2 T01111011 $
13962KABI ABI20160327211510703/27/16 21:15:31  5-MIN KABI 280315Z 08005KT 10SM CLR 11/M01 A3019 1550 42 1500 070/05 RMK AO2 T01111011 $
13962KABI ABI20160327212010703/27/16 21:20:31  5-MIN KABI 280320Z 08005KT 10SM CLR 11/M01 A3019 1540 42 1500 070/05 RMK AO2 T01111011 $
13962KABI ABI20160327212510703/27/16 21:25:31  5-MIN KABI 280325Z 08005KT 10SM CLR 11/M01 A3019 1540 44 1400 070/05 RMK AO2 T01061011 $
13962KABI ABI20160327213010703/27/16 21:30:31  5-MIN KABI 280330Z 08005KT 10SM CLR 10/M01 A3019 1540 46 1300 080/05 RMK AO2 T01001011 $
13962KABI ABI20160327213510703/27/16 21:35:31  5-MIN KABI 280335Z 08004KT 10SM CLR 10/M01 A3019 1540 46 1300 070/04 RMK AO2 T01001011 $
13962KABI ABI20160327214010703/27/16 21:40:31  5-MIN KABI 280340Z 08005KT 10SM CLR 10/M01 A3019 1540 47 1300 080/05 RMK AO2 T01001006 $
13962KABI ABI20160327214510703/27/16 21:45:31  5-MIN KABI 280345Z 12006KT 10SM CLR 09/M01 A3020 1540 51 1200 120/06 RMK AO2 T00891006 $
13962KABI ABI20160327215011303/27/16 21:50:31  5-MIN KABI 280350Z 11006KT 10SM CLR 07/00 A3019 1540 60 1000 110/06 RMK AO2 SLP221 T00720000 $
13962KABI ABI20160327215510603/27/16 21:55:31  5-MIN KABI 280355Z 11006KT 10SM CLR 08/00 A3020 1540 55 1100 100/06 RMK AO2 T00830000 $
13962KABI ABI20160327220010603/27/16 22:00:31  5-MIN KABI 280400Z 09006KT 10SM CLR 08/00 A3019 1540 55 1100 080/06 RMK AO2 T00830000 $
13962KABI ABI20160327220510703/27/16 22:05:31  5-MIN KABI 280405Z 08006KT 10SM CLR 09/M01 A3019 1540 49 1300 070/06 RMK AO2 T00941006 $
13962KABI ABI20160327221010703/27/16 22:10:31  5-MIN KABI 280410Z 10006KT 10SM CLR 09/M01 A3019 1540 49 1300 090/06 RMK AO2 T00941006 $
13962KABI ABI20160327221510703/27/16 22:15:31  5-MIN KABI 280415Z 13006KT 10SM CLR 08/M01 A3020 1540 55 1100 120/06 RMK AO2 T00781006 $
13962KABI ABI20160327222010503/27/16 22:20:31  5-MIN KABI 280420Z 14005KT 10SM CLR 07/00 A3020 1540 62 900 130/05 RMK AO2 T00670000 $
13962KABI ABI20160327222510603/27/16 22:25:31  5-MIN KABI 280425Z 12005KT 10SM CLR 07/M01 A3020 1540 60 900 110/05 RMK AO2 T00671006 $
13962KABI ABI20160327223010703/27/16 22:30:31  5-MIN KABI 280430Z 11005KT 10SM CLR 07/M01 A3020 1540 57 1000 110/05 RMK AO2 T00721006 $
13962KABI ABI20160327223510703/27/16 22:35:31  5-MIN KABI 280435Z 11006KT 10SM CLR 08/M01 A3019 1540 55 1100 100/06 RMK AO2 T00781006 $
13962KABI ABI20160327224010703/27/16 22:40:31  5-MIN KABI 280440Z 11007KT 10SM CLR 08/M01 A3019 1540 55 1100 110/07 RMK AO2 T00781006 $
13962KABI ABI20160327224510603/27/16 22:45:31  5-MIN KABI 280445Z 14005KT 10SM CLR 07/M01 A3019 1540 60 900 140/05 RMK AO2 T00671006 $
13962KABI ABI20160327225011303/27/16 22:50:31  5-MIN KABI 280450Z 12005KT 10SM CLR 06/M01 A3019 1540 62 900 110/05 RMK AO2 SLP220 T00611006 $
13962KABI ABI20160327225510703/27/16 22:55:31  5-MIN KABI 280455Z 11006KT 10SM CLR 07/M01 A3019 1540 57 1000 100/06 RMK AO2 T00721006 $
13962KABI ABI20160327230010703/27/16 23:00:31  5-MIN KABI 280500Z 11005KT 10SM CLR 07/M01 A3019 1540 57 1000 110/05 RMK AO2 T00721006 $
13962KABI ABI20160327230510503/27/16 23:05:31  5-MIN KABI 280505Z 12005KT 10SM CLR 06/00 A3019 1540 65 900 120/05 RMK AO2 T00610000 $
13962KABI ABI20160327231010603/27/16 23:10:31  5-MIN KABI 280510Z 11005KT 10SM CLR 06/M01 A3019 1540 62 900 100/05 RMK AO2 T00611006 $
13962KABI ABI20160327231510703/27/16 23:15:31  5-MIN KABI 280515Z 10006KT 10SM CLR 07/M01 A3019 1550 57 1000 100/06 RMK AO2 T00721006 $
13962KABI ABI20160327232010703/27/16 23:20:31  5-MIN KABI 280520Z 11005KT 10SM CLR 08/M01 A3019 1550 55 1100 100/05 RMK AO2 T00781006 $
13962KABI ABI20160327232510603/27/16 23:25:31  5-MIN KABI 280525Z 11006KT 10SM CLR 08/00 A3019 1550 58 1100 100/06 RMK AO2 T00780000 $
13962KABI ABI20160327233010603/27/16 23:30:31  5-MIN KABI 280530Z 11005KT 10SM CLR 07/00 A3019 1550 60 1000 100/05 RMK AO2 T00720000 $
13962KABI ABI20160327233510603/27/16 23:35:31  5-MIN KABI 280535Z 11005KT 10SM CLR 07/00 A3019 1550 62 1000 110/05 RMK AO2 T00670000 $
13962KABI ABI20160327234010603/27/16 23:40:31  5-MIN KABI 280540Z 12006KT 10SM CLR 07/00 A3019 1550 62 1000 110/06 RMK AO2 T00670000 $
13962KABI ABI20160327234510703/27/16 23:45:31  5-MIN KABI 280545Z 11006KT 10SM CLR 07/M01 A3018 1550 57 1000 100/06 RMK AO2 T00721006 $
13962KABI ABI20160327235014203/27/16 23:50:31  5-MIN KABI 280550Z 12007KT 10SM CLR 07/M01 A3019 1550 57 1000 110/07 RMK AO2 SLP216 T00721006 10161 20056 401780056 53008 $
13962KABI ABI20160327235510703/27/16 23:55:31  5-MIN KABI 280555Z 11006KT 10SM CLR 07/M01 A3019 1550 60 1000 110/06 RMK AO2 T00671006 $
13962KABI ABI20160328000010703/28/16 00:00:31  5-MIN KABI 280600Z 10007KT 10SM CLR 07/M01 A3018 1550 57 1000 100/07 RMK AO2 T00721006 $
13962KABI ABI20160328000510703/28/16 00:05:31  5-MIN KABI 280605Z 10007KT 10SM CLR 07/M01 A3018 1550 57 1000 100/07 RMK AO2 T00721006 $
13962KABI ABI20160328001010703/28/16 00:10:31  5-MIN KABI 280610Z 10007KT 10SM CLR 07/M01 A3018 1550 57 1000 100/07 RMK AO2 T00721006 $
13962KABI ABI20160328001510703/28/16 00:15:31  5-MIN KABI 280615Z 11007KT 10SM CLR 07/M01 A3018 1560 60 1000 110/07 RMK AO2 T00671006 $
13962KABI ABI20160328002010603/28/16 00:20:31  5-MIN KABI 280620Z 12006KT 10SM CLR 07/00 A3018 1560 62 1000 120/06 RMK AO2 T00670000 $
13962KABI ABI20160328002510603/28/16 00:25:31  5-MIN KABI 280625Z 13005KT 10SM CLR 05/M01 A3018 1550 67 800 130/05 RMK AO2 T00501006 $
13962KABI ABI20160328003010703/28/16 00:30:31  5-MIN KABI 280630Z 12008KT 10SM CLR 07/M01 A3018 1550 60 1000 120/08 RMK AO2 T00671006 $
13962KABI ABI20160328003510603/28/16 00:35:31  5-MIN KABI 280635Z 13007KT 10SM CLR 06/M01 A3018 1560 65 800 120/07 RMK AO2 T00561006 $
13962KABI ABI20160328004010603/28/16 00:40:31  5-MIN KABI 280640Z 12008KT 10SM CLR 06/M01 A3017 1560 62 900 110/08 RMK AO2 T00611006 $
13962KABI ABI20160328004510703/28/16 00:45:31  5-MIN KABI 280645Z 12007KT 10SM CLR 07/M01 A3017 1560 60 1000 110/07 RMK AO2 T00671006 $
13962KABI ABI20160328005011203/28/16 00:50:31  5-MIN KABI 280650Z 12007KT 10SM CLR 06/00 A3017 1560 65 900 120/07 RMK AO2 SLP210 T00610000 $
13962KABI ABI20160328005510603/28/16 00:55:31  5-MIN KABI 280655Z 12007KT 10SM CLR 06/M01 A3017 1560 62 900 110/07 RMK AO2 T00611006 $
13962KABI ABI20160328010010603/28/16 01:00:31  5-MIN KABI 280700Z 14006KT 10SM CLR 06/M01 A3017 1560 62 900 130/06 RMK AO2 T00611006 $
13962KABI ABI20160328010510603/28/16 01:05:31  5-MIN KABI 280705Z 16006KT 10SM CLR 04/M01 A3017 1560 70 700 150/06 RMK AO2 T00441006 $
13962KABI ABI20160328011010603/28/16 01:10:31  5-MIN KABI 280710Z 15007KT 10SM CLR 04/M01 A3017 1570 73 600 140/07 RMK AO2 T00391006 $
13962KABI ABI20160328011510603/28/16 01:15:31  5-MIN KABI 280715Z 15007KT 10SM CLR 04/M01 A3016 1570 73 600 140/07 RMK AO2 T00391006 $
13962KABI ABI20160328012010503/28/16 01:20:31  5-MIN KABI 280720Z 16007KT 10SM CLR 04/00 A3016 1570 73 700 150/07 RMK AO2 T00440000 $
13962KABI ABI20160328012510603/28/16 01:25:31  5-MIN KABI 280725Z 13006KT 10SM CLR 04/M01 A3016 1570 70 700 130/06 RMK AO2 T00441006 $
13962KABI ABI20160328013010603/28/16 01:30:31  5-MIN KABI 280730Z 15007KT 10SM CLR 04/M01 A3016 1570 73 600 150/07 RMK AO2 T00391006 $
13962KABI ABI20160328013510603/28/16 01:35:31  5-MIN KABI 280735Z 15006KT 10SM CLR 04/M01 A3016 1570 73 600 140/06 RMK AO2 T00391006 $
13962KABI ABI20160328014010603/28/16 01:40:31  5-MIN KABI 280740Z 15007KT 10SM CLR 03/M01 A3016 1570 76 600 150/07 RMK AO2 T00331006 $
13962KABI ABI20160328014510603/28/16 01:45:31  5-MIN KABI 280745Z 16007KT 10SM CLR 03/M01 A3016 1570 76 600 150/07 RMK AO2 T00331006 $
13962KABI ABI20160328015011303/28/16 01:50:31  5-MIN KABI 280750Z 15007KT 10SM CLR 03/M01 A3016 1570 76 600 150/07 RMK AO2 SLP207 T00331006 $
13962KABI ABI20160328015510603/28/16 01:55:31  5-MIN KABI 280755Z 14007KT 10SM CLR 03/M01 A3016 1570 76 600 140/07 RMK AO2 T00331006 $
13962KABI ABI20160328020010603/28/16 02:00:31  5-MIN KABI 280800Z 14007KT 10SM CLR 03/M01 A3015 1580 76 600 140/07 RMK AO2 T00331006 $
13962KABI ABI20160328020510603/28/16 02:05:31  5-MIN KABI 280805Z 14007KT 10SM CLR 04/M01 A3015 1580 73 700 130/07 RMK AO2 T00391006 $
13962KABI ABI20160328021010603/28/16 02:10:31  5-MIN KABI 280810Z 14008KT 10SM CLR 04/M01 A3015 1580 73 700 140/08 RMK AO2 T00391006 $
13962KABI ABI20160328021510603/28/16 02:15:31  5-MIN KABI 280815Z 15007KT 10SM CLR 04/M01 A3015 1580 73 700 150/07 RMK AO2 T00391006 $
13962KABI ABI20160328022010603/28/16 02:20:31  5-MIN KABI 280820Z 14007KT 10SM CLR 04/M01 A3015 1580 73 700 140/07 RMK AO2 T00391006 $
13962KABI ABI20160328022510603/28/16 02:25:31  5-MIN KABI 280825Z 15007KT 10SM CLR 04/M01 A3014 1590 73 700 140/07 RMK AO2 T00391006 $
13962KABI ABI20160328023010603/28/16 02:30:31  5-MIN KABI 280830Z 16008KT 10SM CLR 04/M01 A3014 1590 73 700 150/08 RMK AO2 T00391006 $
13962KABI ABI20160328023510603/28/16 02:35:31  5-MIN KABI 280835Z 16008KT 10SM CLR 04/M01 A3014 1590 70 700 150/08 RMK AO2 T00441006 $
13962KABI ABI20160328024010603/28/16 02:40:31  5-MIN KABI 280840Z 15006KT 10SM CLR 04/M01 A3014 1590 73 700 150/06 RMK AO2 T00391006 $
13962KABI ABI20160328024510603/28/16 02:45:31  5-MIN KABI 280845Z 15006KT 10SM CLR 04/M01 A3014 1590 73 700 140/06 RMK AO2 T00391006 $
13962KABI ABI20160328025011903/28/16 02:50:31  5-MIN KABI 280850Z 13006KT 10SM CLR 04/M01 A3014 1590 73 700 130/06 RMK AO2 SLP199 T00391006 50002 $
13962KABI ABI20160328025510603/28/16 02:55:31  5-MIN KABI 280855Z 14007KT 10SM CLR 04/M01 A3013 1600 70 700 130/07 RMK AO2 T00441006 $
13962KABI ABI20160328030010603/28/16 03:00:31  5-MIN KABI 280900Z 14007KT 10SM CLR 04/M01 A3014 1590 73 700 140/07 RMK AO2 T00391006 $
13962KABI ABI20160328030510603/28/16 03:05:31  5-MIN KABI 280905Z 15006KT 10SM CLR 04/M01 A3014 1590 73 700 150/06 RMK AO2 T00391006 $
13962KABI ABI20160328031010603/28/16 03:10:31  5-MIN KABI 280910Z 15005KT 10SM CLR 04/M01 A3013 1590 73 700 140/05 RMK AO2 T00391006 $
13962KABI ABI20160328031510603/28/16 03:15:31  5-MIN KABI 280915Z 15005KT 10SM CLR 04/M01 A3014 1590 73 700 140/05 RMK AO2 T00391006 $
13962KABI ABI20160328032010603/28/16 03:20:31  5-MIN KABI 280920Z 15006KT 10SM CLR 03/M01 A3013 1590 76 600 150/06 RMK AO2 T00331006 $
13962KABI ABI20160328032510603/28/16 03:25:31  5-MIN KABI 280925Z 16007KT 10SM CLR 03/M01 A3014 1590 76 600 160/07 RMK AO2 T00331006 $
13962KABI ABI20160328033010603/28/16 03:30:31  5-MIN KABI 280930Z 16007KT 10SM CLR 03/M01 A3013 1600 76 600 160/07 RMK AO2 T00331006 $
13962KABI ABI20160328033510603/28/16 03:35:31  5-MIN KABI 280935Z 16007KT 10SM CLR 04/M01 A3013 1600 73 700 160/07 RMK AO2 T00391006 $
13962KABI ABI20160328034010503/28/16 03:40:31  5-MIN KABI 280940Z 16007KT 10SM CLR 04/00 A3013 1600 76 700 150/07 RMK AO2 T00390000 $
13962KABI ABI20160328034510603/28/16 03:45:31  5-MIN KABI 280945Z 16006KT 10SM CLR 04/M01 A3013 1600 73 700 150/06 RMK AO2 T00391006 $
13962KABI ABI20160328035011303/28/16 03:50:31  5-MIN KABI 280950Z 16005KT 10SM CLR 04/M01 A3013 1600 73 700 150/05 RMK AO2 SLP198 T00391006 $
13962KABI ABI20160328035510603/28/16 03:55:31  5-MIN KABI 280955Z 16005KT 10SM CLR 04/M01 A3013 1600 73 700 150/05 RMK AO2 T00391006 $
13962KABI ABI20160328040010603/28/16 04:00:31  5-MIN KABI 281000Z 16006KT 10SM CLR 04/M01 A3013 1600 73 700 150/06 RMK AO2 T00391006 $
13962KABI ABI20160328040510603/28/16 04:05:31  5-MIN KABI 281005Z 15006KT 10SM CLR 04/M01 A3013 1600 73 700 150/06 RMK AO2 T00391006 $
13962KABI ABI20160328041010603/28/16 04:10:31  5-MIN KABI 281010Z 15007KT 10SM CLR 04/M01 A3013 1600 73 700 140/07 RMK AO2 T00391006 $
13962KABI ABI20160328041510603/28/16 04:15:31  5-MIN KABI 281015Z 15007KT 10SM CLR 04/M01 A3013 1600 73 700 140/07 RMK AO2 T00391006 $
13962KABI ABI20160328042010603/28/16 04:20:31  5-MIN KABI 281020Z 14006KT 10SM CLR 04/M01 A3013 1600 70 700 130/06 RMK AO2 T00441006 $
13962KABI ABI20160328042510603/28/16 04:25:31  5-MIN KABI 281025Z 14005KT 10SM CLR 04/M01 A3013 1600 70 700 130/05 RMK AO2 T00441006 $
13962KABI ABI20160328043010603/28/16 04:30:31  5-MIN KABI 281030Z 14005KT 10SM CLR 04/M01 A3013 1600 70 700 130/05 RMK AO2 T00441006 $
13962KABI ABI20160328043510603/28/16 04:35:31  5-MIN KABI 281035Z 13006KT 10SM CLR 04/M01 A3013 1600 70 700 130/06 RMK AO2 T00441006 $
13962KABI ABI20160328044010603/28/16 04:40:31  5-MIN KABI 281040Z 14006KT 10SM CLR 04/M01 A3013 1600 70 700 130/06 RMK AO2 T00441006 $
13962KABI ABI20160328044510603/28/16 04:45:31  5-MIN KABI 281045Z 14006KT 10SM CLR 04/M01 A3013 1600 73 700 130/06 RMK AO2 T00391006 $
13962KABI ABI20160328045011303/28/16 04:50:31  5-MIN KABI 281050Z 14005KT 10SM CLR 04/M01 A3013 1600 73 700 140/05 RMK AO2 SLP198 T00391006 $
13962KABI ABI20160328045510603/28/16 04:55:31  5-MIN KABI 281055Z 15005KT 10SM CLR 03/M01 A3013 1600 76 600 140/05 RMK AO2 T00331006 $
13962KABI ABI20160328050010603/28/16 05:00:31  5-MIN KABI 281100Z 15007KT 10SM CLR 04/M01 A3013 1600 73 700 150/07 RMK AO2 T00391006 $
13962KABI ABI20160328050510603/28/16 05:05:31  5-MIN KABI 281105Z 16006KT 10SM CLR 04/M01 A3013 1600 73 700 150/06 RMK AO2 T00391006 $
13962KABI ABI20160328051010603/28/16 05:10:31  5-MIN KABI 281110Z 16006KT 10SM CLR 04/M01 A3014 1590 73 700 160/06 RMK AO2 T00391006 $
13962KABI ABI20160328051510603/28/16 05:15:31  5-MIN KABI 281115Z 16007KT 10SM CLR 03/M01 A3014 1590 76 600 160/07 RMK AO2 T00331006 $
13962KABI ABI20160328052010503/28/16 05:20:31  5-MIN KABI 281120Z 15007KT 10SM CLR 03/00 A3013 1600 79 600 150/07 RMK AO2 T00330000 $
13962KABI ABI20160328052510503/28/16 05:25:31  5-MIN KABI 281125Z 15007KT 10SM CLR 03/00 A3013 1600 79 600 150/07 RMK AO2 T00330000 $
13962KABI ABI20160328053010503/28/16 05:30:31  5-MIN KABI 281130Z 15006KT 10SM CLR 04/00 A3013 1600 76 700 140/06 RMK AO2 T00390000 $
13962KABI ABI20160328053510503/28/16 05:35:31  5-MIN KABI 281135Z 14007KT 10SM CLR 04/00 A3014 1590 76 700 140/07 RMK AO2 T00390000 $
13962KABI ABI20160328054010503/28/16 05:40:31  5-MIN KABI 281140Z 14007KT 10SM CLR 04/00 A3014 1590 76 700 130/07 RMK AO2 T00390000 $
13962KABI ABI20160328054510503/28/16 05:45:31  5-MIN KABI 281145Z 13007KT 10SM CLR 04/00 A3014 1590 76 700 120/07 RMK AO2 T00390000 $
13962KABI ABI20160328055013003/28/16 05:50:31  5-MIN KABI 281150Z 13007KT 10SM CLR 04/00 A3014 1590 73 700 120/07 RMK AO2 SLP200 T00440000 10072 20033 58017 $
13962KABI ABI20160328055510503/28/16 05:55:31  5-MIN KABI 281155Z 14006KT 10SM CLR 04/00 A3014 1590 73 700 130/06 RMK AO2 T00440000 $
13962KABI ABI20160328060010503/28/16 06:00:31  5-MIN KABI 281200Z 13006KT 10SM CLR 04/00 A3013 1600 76 700 120/06 RMK AO2 T00390000 $
13962KABI ABI20160328060510503/28/16 06:05:31  5-MIN KABI 281205Z 13006KT 10SM CLR 04/00 A3013 1600 76 700 130/06 RMK AO2 T00390000 $
13962KABI ABI20160328061010503/28/16 06:10:31  5-MIN KABI 281210Z 15006KT 10SM CLR 04/00 A3013 1600 76 700 140/06 RMK AO2 T00390000 $
13962KABI ABI20160328061510503/28/16 06:15:31  5-MIN KABI 281215Z 15005KT 10SM CLR 03/00 A3013 1600 79 600 150/05 RMK AO2 T00330000 $
13962KABI ABI20160328062010503/28/16 06:20:31  5-MIN KABI 281220Z 16004KT 10SM CLR 03/00 A3014 1590 79 600 160/04 RMK AO2 T00330000 $
13962KABI ABI20160328062510603/28/16 06:25:31  5-MIN KABI 281225Z 16005KT 10SM CLR 03/M01 A3013 1600 76 600 160/05 RMK AO2 T00331006 $
13962KABI ABI20160328063010503/28/16 06:30:31  5-MIN KABI 281230Z 15006KT 10SM CLR 04/00 A3013 1600 76 700 150/06 RMK AO2 T00390000 $
13962KABI ABI20160328063510503/28/16 06:35:31  5-MIN KABI 281235Z 15007KT 10SM CLR 04/00 A3013 1600 76 700 140/07 RMK AO2 T00390000 $
13962KABI ABI20160328064010503/28/16 06:40:31  5-MIN KABI 281240Z 15008KT 10SM CLR 03/00 A3013 1590 79 600 140/08 RMK AO2 T00330000 $
13962KABI ABI20160328064510503/28/16 06:45:31  5-MIN KABI 281245Z 15007KT 10SM CLR 04/00 A3014 1590 76 700 150/07 RMK AO2 T00390000 $
13962KABI ABI20160328065011203/28/16 06:50:31  5-MIN KABI 281250Z 16007KT 10SM CLR 04/01 A3014 1590 79 700 150/07 RMK AO2 SLP201 T00390006 $
13962KABI ABI20160328065510503/28/16 06:55:31  5-MIN KABI 281255Z 15007KT 10SM CLR 04/01 A3014 1590 76 700 150/07 RMK AO2 T00440006 $
13962KABI ABI20160328070010503/28/16 07:00:31  5-MIN KABI 281300Z 16008KT 10SM CLR 04/01 A3014 1590 76 700 150/08 RMK AO2 T00440006 $
13962KABI ABI20160328070510503/28/16 07:05:31  5-MIN KABI 281305Z 15006KT 10SM CLR 05/01 A3014 1590 76 800 150/06 RMK AO2 T00500011 $
13962KABI ABI20160328071010503/28/16 07:10:31  5-MIN KABI 281310Z 14006KT 10SM CLR 05/01 A3014 1590 76 800 140/06 RMK AO2 T00500011 $
13962KABI ABI20160328071510503/28/16 07:15:31  5-MIN KABI 281315Z 15005KT 10SM CLR 06/01 A3014 1590 73 900 140/05 RMK AO2 T00560011 $
13962KABI ABI20160328072010503/28/16 07:20:31  5-MIN KABI 281320Z 13005KT 10SM CLR 06/02 A3014 1590 73 900 130/05 RMK AO2 T00610017 $
13962KABI ABI20160328072510603/28/16 07:25:31  5-MIN KABI 281325Z 14007KT 10SM CLR 07/02 A3014 1590 70 1000 130/07 RMK AO2 T00670017 $
13962KABI ABI20160328073010603/28/16 07:30:31  5-MIN KABI 281330Z 15006KT 10SM CLR 08/02 A3014 1590 68 1100 140/06 RMK AO2 T00780022 $
13962KABI ABI20160328073510603/28/16 07:35:31  5-MIN KABI 281335Z 15007KT 10SM CLR 08/02 A3014 1590 68 1100 150/07 RMK AO2 T00780022 $
13962KABI ABI20160328074010603/28/16 07:40:31  5-MIN KABI 281340Z 15008KT 10SM CLR 08/02 A3014 1590 65 1200 150/08 RMK AO2 T00830022 $
13962KABI ABI20160328074510603/28/16 07:45:31  5-MIN KABI 281345Z 16007KT 10SM CLR 09/02 A3015 1580 63 1300 150/07 RMK AO2 T00890022 $
13962KABI ABI20160328075011303/28/16 07:50:31  5-MIN KABI 281350Z 16007KT 10SM CLR 09/03 A3015 1580 65 1300 150/07 RMK AO2 SLP202 T00890028 $
13962KABI ABI20160328075510603/28/16 07:55:31  5-MIN KABI 281355Z 15008KT 10SM CLR 09/03 A3014 1590 63 1300 150/08 RMK AO2 T00940028 $
13962KABI ABI20160328080010603/28/16 08:00:31  5-MIN KABI 281400Z 14009KT 10SM CLR 10/02 A3014 1590 58 1400 140/09 RMK AO2 T01000022 $
13962KABI ABI20160328080510603/28/16 08:05:31  5-MIN KABI 281405Z 14010KT 10SM CLR 10/02 A3014 1590 58 1400 140/10 RMK AO2 T01000022 $
13962KABI ABI20160328081010603/28/16 08:10:31  5-MIN KABI 281410Z 14009KT 10SM CLR 11/02 A3014 1590 56 1500 130/09 RMK AO2 T01060022 $
13962KABI ABI20160328081510603/28/16 08:15:31  5-MIN KABI 281415Z 14009KT 10SM CLR 11/03 A3014 1590 56 1500 130/09 RMK AO2 T01110028 $
13962KABI ABI20160328082010603/28/16 08:20:31  5-MIN KABI 281420Z 13011KT 10SM CLR 11/02 A3014 1590 54 1500 130/11 RMK AO2 T01110022 $
13962KABI ABI20160328082510603/28/16 08:25:31  5-MIN KABI 281425Z 14012KT 10SM CLR 12/02 A3015 1580 52 1600 130/12 RMK AO2 T01170022 $
13962KABI ABI20160328083010603/28/16 08:30:31  5-MIN KABI 281430Z 14010KT 10SM CLR 12/03 A3015 1590 54 1600 130/10 RMK AO2 T01170028 $
13962KABI ABI20160328083510603/28/16 08:35:31  5-MIN KABI 281435Z 14011KT 10SM CLR 12/02 A3014 1590 50 1700 140/11 RMK AO2 T01220022 $
13962KABI ABI20160328084010603/28/16 08:40:31  5-MIN KABI 281440Z 14012KT 10SM CLR 12/02 A3014 1590 50 1700 140/12 RMK AO2 T01220022 $
13962KABI ABI20160328084510603/28/16 08:45:31  5-MIN KABI 281445Z 16012KT 10SM CLR 13/03 A3014 1590 50 1700 160/12 RMK AO2 T01280028 $
13962KABI ABI20160328085011903/28/16 08:50:31  5-MIN KABI 281450Z 17012KT 10SM CLR 13/02 A3014 1590 48 1700 160/12 RMK AO2 SLP198 T01280022 53001 $
13962KABI ABI20160328085510603/28/16 08:55:31  5-MIN KABI 281455Z 17013KT 10SM CLR 12/02 A3014 1590 50 1700 160/13 RMK AO2 T01220022 $
13962KABI ABI20160328090010603/28/16 09:00:31  5-MIN KABI 281500Z 15013KT 10SM CLR 13/02 A3014 1590 48 1700 150/13 RMK AO2 T01280022 $
13962KABI ABI20160328090510603/28/16 09:05:31  5-MIN KABI 281505Z 15012KT 10SM CLR 13/02 A3014 1590 46 1800 140/12 RMK AO2 T01330022 $
13962KABI ABI20160328091010603/28/16 09:10:31  5-MIN KABI 281510Z 15011KT 10SM CLR 13/02 A3014 1590 46 1800 150/11 RMK AO2 T01330022 $
13962KABI ABI20160328091510603/28/16 09:15:31  5-MIN KABI 281515Z 15010KT 10SM CLR 13/02 A3014 1590 46 1800 140/10 RMK AO2 T01330022 $
13962KABI ABI20160328092010603/28/16 09:20:31  5-MIN KABI 281520Z 14011KT 10SM CLR 13/02 A3014 1590 46 1800 140/11 RMK AO2 T01330022 $
13962KABI ABI20160328092510603/28/16 09:25:31  5-MIN KABI 281525Z 17010KT 10SM CLR 14/03 A3014 1590 47 1900 160/10 RMK AO2 T01390028 $
13962KABI ABI20160328093010603/28/16 09:30:31  5-MIN KABI 281530Z 17010KT 10SM CLR 14/03 A3014 1590 47 1900 160/10 RMK AO2 T01390028 $
13962KABI ABI20160328093510603/28/16 09:35:31  5-MIN KABI 281535Z 17010KT 10SM CLR 14/03 A3014 1590 45 1900 170/10 RMK AO2 T01440028 $
13962KABI ABI20160328094010603/28/16 09:40:31  5-MIN KABI 281540Z 15010KT 10SM CLR 14/03 A3014 1590 45 1900 150/10 RMK AO2 T01440028 $
13962KABI ABI20160328094510603/28/16 09:45:31  5-MIN KABI 281545Z 15009KT 10SM CLR 14/02 A3014 1590 43 1900 150/09 RMK AO2 T01440022 $
13962KABI ABI20160328095011303/28/16 09:50:31  5-MIN KABI 281550Z 15010KT 10SM CLR 15/02 A3014 1590 42 2000 140/10 RMK AO2 SLP200 T01500022 $
13962KABI ABI20160328095510603/28/16 09:55:31  5-MIN KABI 281555Z 15008KT 10SM CLR 15/03 A3014 1590 43 2000 140/08 RMK AO2 T01500028 $
13962KABI ABI20160328100010603/28/16 10:00:31  5-MIN KABI 281600Z 14010KT 10SM CLR 16/03 A3014 1590 40 2100 140/10 RMK AO2 T01610028 $
13962KABI ABI20160328100510603/28/16 10:05:31  5-MIN KABI 281605Z 13012KT 10SM CLR 16/02 A3013 1600 40 2100 120/12 RMK AO2 T01560022 $
13962KABI ABI20160328101010603/28/16 10:10:31  5-MIN KABI 281610Z 15010KT 10SM CLR 16/02 A3013 1600 39 2100 150/10 RMK AO2 T01560017 $
13962KABI ABI20160328101510603/28/16 10:15:31  5-MIN KABI 281615Z 16008KT 10SM CLR 16/03 A3013 1600 40 2100 150/08 RMK AO2 T01610028 $
13962KABI ABI20160328102010603/28/16 10:20:31  5-MIN KABI 281620Z 15007KT 10SM CLR 16/03 A3013 1600 40 2100 140/07 RMK AO2 T01610028 $
13962KABI ABI20160328102510603/28/16 10:25:31  5-MIN KABI 281625Z 15008KT 10SM CLR 17/03 A3013 1600 39 2200 150/08 RMK AO2 T01670028 $
13962KABI ABI20160328103010603/28/16 10:30:31  5-MIN KABI 281630Z 16011KT 10SM CLR 17/03 A3013 1600 37 2300 150/11 RMK AO2 T01720028 $
13962KABI ABI20160328103510603/28/16 10:35:31  5-MIN KABI 281635Z 12010KT 10SM CLR 17/03 A3013 1600 39 2200 110/10 RMK AO2 T01670028 $
13962KABI ABI20160328104010603/28/16 10:40:31  5-MIN KABI 281640Z 14010KT 10SM CLR 17/03 A3012 1610 37 2300 140/10 RMK AO2 T01720028 $
13962KABI ABI20160328104510603/28/16 10:45:31  5-MIN KABI 281645Z 16010KT 10SM CLR 17/03 A3012 1610 37 2300 160/10 RMK AO2 T01720028 $
13962KABI ABI20160328105011303/28/16 10:50:31  5-MIN KABI 281650Z 15009KT 10SM CLR 17/03 A3012 1610 37 2300 150/09 RMK AO2 SLP191 T01720028 $
13962KABI ABI20160328105510603/28/16 10:55:31  5-MIN KABI 281655Z 15010KT 10SM CLR 18/03 A3012 1610 36 2300 140/10 RMK AO2 T01780028 $
13962KABI ABI20160328110010603/28/16 11:00:31  5-MIN KABI 281700Z 14010KT 10SM CLR 18/02 A3012 1610 35 2300 130/10 RMK AO2 T01780022 $
13962KABI ABI20160328110510603/28/16 11:05:31  5-MIN KABI 281705Z 15012KT 10SM CLR 18/02 A3011 1610 35 2400 150/12 RMK AO2 T01780022 $
13962KABI ABI20160328111010603/28/16 11:10:31  5-MIN KABI 281710Z 14012KT 10SM CLR 18/02 A3011 1620 33 2400 130/12 RMK AO2 T01780017 $
13962KABI ABI20160328111510603/28/16 11:15:31  5-MIN KABI 281715Z 14011KT 10SM CLR 18/02 A3011 1620 32 2400 130/11 RMK AO2 T01830017 $
13962KABI ABI20160328112010603/28/16 11:20:31  5-MIN KABI 281720Z 14011KT 10SM CLR 18/02 A3011 1620 34 2400 130/11 RMK AO2 T01830022 $
13962KABI ABI20160328112510403/28/16 11:25:31  5-MIN KABI 281725Z 13012KT 10SM CLR 18/02 A3011 1620 32 2400 130/12 RMK AO2 T01830017
13962KABI ABI20160328113010403/28/16 11:30:31  5-MIN KABI 281730Z 16012KT 10SM CLR 18/02 A3011 1620 32 2400 160/12 RMK AO2 T01830017
13962KABI ABI20160328113510403/28/16 11:35:31  5-MIN KABI 281735Z 15012KT 10SM CLR 19/02 A3011 1620 31 2500 140/12 RMK AO2 T01890017
13962KABI ABI20160328114010403/28/16 11:40:31  5-MIN KABI 281740Z 16012KT 10SM CLR 19/02 A3010 1620 31 2500 150/12 RMK AO2 T01890017
13962KABI ABI20160328114510403/28/16 11:45:31  5-MIN KABI 281745Z 17010KT 10SM CLR 19/02 A3010 1630 31 2500 160/10 RMK AO2 T01890017
13962KABI ABI20160328115012903/28/16 11:50:31  5-MIN KABI 281750Z 16009KT 10SM CLR 19/02 A3010 1630 32 2500 160/09 RMK AO2 SLP182 T01890022 10194 20033 50002
13962KABI ABI20160328115510403/28/16 11:55:31  5-MIN KABI 281755Z 14014KT 10SM CLR 20/02 A3009 1630 30 2600 140/14 RMK AO2 T02000022
13962KABI ABI20160328120010403/28/16 12:00:31  5-MIN KABI 281800Z 15014KT 10SM CLR 20/03 A3009 1640 33 2600 150/14 RMK AO2 T02000033
13962KABI ABI20160328120510403/28/16 12:05:31  5-MIN KABI 281805Z 14012KT 10SM CLR 20/03 A3009 1640 33 2600 140/12 RMK AO2 T02000033
13962KABI ABI20160328121010403/28/16 12:10:31  5-MIN KABI 281810Z 15013KT 10SM CLR 20/03 A3008 1640 31 2600 140/13 RMK AO2 T02000028
13962KABI ABI20160328121510403/28/16 12:15:31  5-MIN KABI 281815Z 16013KT 10SM CLR 20/03 A3008 1640 33 2600 150/13 RMK AO2 T02000033
13962KABI ABI20160328122010403/28/16 12:20:31  5-MIN KABI 281820Z 15011KT 10SM CLR 21/03 A3008 1650 32 2700 150/11 RMK AO2 T02060033
13962KABI ABI20160328122510403/28/16 12:25:31  5-MIN KABI 281825Z 15012KT 10SM CLR 21/03 A3007 1650 30 2700 150/12 RMK AO2 T02060028
13962KABI ABI20160328123010403/28/16 12:30:31  5-MIN KABI 281830Z 15013KT 10SM CLR 21/03 A3007 1660 30 2700 150/13 RMK AO2 T02060028
13962KABI ABI20160328123510403/28/16 12:35:31  5-MIN KABI 281835Z 16010KT 10SM CLR 21/02 A3007 1660 29 2700 150/10 RMK AO2 T02060022
13962KABI ABI20160328124010403/28/16 12:40:31  5-MIN KABI 281840Z 16013KT 10SM CLR 21/03 A3006 1660 30 2700 150/13 RMK AO2 T02060028
13962KABI ABI20160328124510403/28/16 12:45:31  5-MIN KABI 281845Z 15012KT 10SM CLR 21/02 A3006 1660 28 2800 150/12 RMK AO2 T02110022
13962KABI ABI20160328125011103/28/16 12:50:31  5-MIN KABI 281850Z 15010KT 10SM CLR 21/02 A3006 1670 28 2800 150/10 RMK AO2 SLP167 T02110022
13962KABI ABI20160328125510403/28/16 12:55:31  5-MIN KABI 281855Z 15011KT 10SM CLR 21/03 A3005 1670 29 2800 150/11 RMK AO2 T02110028
13962KABI ABI20160328130010403/28/16 13:00:31  5-MIN KABI 281900Z 16011KT 10SM CLR 22/03 A3005 1670 29 2900 160/11 RMK AO2 T02170033
13962KABI ABI20160328130511003/28/16 13:05:31  5-MIN KABI 281905Z 16013G17KT 10SM CLR 22/03 A3005 1680 29 2900 150/13G17 RMK AO2 T02170033
13962KABI ABI20160328131011003/28/16 13:10:31  5-MIN KABI 281910Z 14012G17KT 10SM CLR 21/03 A3005 1680 30 2800 140/12G17 RMK AO2 T02110033
13962KABI ABI20160328131510403/28/16 13:15:31  5-MIN KABI 281915Z 13011KT 10SM CLR 22/03 A3004 1680 28 2900 130/11 RMK AO2 T02170028
13962KABI ABI20160328132010403/28/16 13:20:31  5-MIN KABI 281920Z 16009KT 10SM CLR 22/04 A3004 1680 31 2900 160/09 RMK AO2 T02170039
13962KABI ABI20160328132510403/28/16 13:25:31  5-MIN KABI 281925Z 16011KT 10SM CLR 22/04 A3004 1680 30 2900 150/11 RMK AO2 T02220039
13962KABI ABI20160328133010403/28/16 13:30:31  5-MIN KABI 281930Z 15012KT 10SM CLR 22/04 A3004 1690 30 2900 150/12 RMK AO2 T02220039
13962KABI ABI20160328133510403/28/16 13:35:31  5-MIN KABI 281935Z 14011KT 10SM CLR 22/03 A3003 1690 29 2900 130/11 RMK AO2 T02170033
13962KABI ABI20160328134011003/28/16 13:40:31  5-MIN KABI 281940Z 15013G18KT 10SM CLR 22/04 A3003 1690 31 3000 150/13G18 RMK AO2 T02220044
13962KABI ABI20160328134511003/28/16 13:45:31  5-MIN KABI 281945Z 15011G18KT 10SM CLR 22/05 A3003 1690 32 3000 150/11G18 RMK AO2 T02220050
13962KABI ABI20160328135011703/28/16 13:50:31  5-MIN KABI 281950Z 15014G18KT 10SM CLR 23/05 A3002 1700 31 3000 150/14G18 RMK AO2 SLP156 T02280050
13962KABI ABI20160328135511003/28/16 13:55:31  5-MIN KABI 281955Z 14011G19KT 10SM CLR 22/04 A3002 1700 31 3000 140/11G19 RMK AO2 T02220044
13962KABI ABI20160328140011003/28/16 14:00:31  5-MIN KABI 282000Z 15013G19KT 10SM CLR 23/04 A3001 1710 30 3000 140/13G19 RMK AO2 T02280044
13962KABI ABI20160328140510403/28/16 14:05:31  5-MIN KABI 282005Z 14013KT 10SM CLR 23/04 A3001 1710 30 3000 130/13 RMK AO2 T02280044
13962KABI ABI20160328141011003/28/16 14:10:31  5-MIN KABI 282010Z 14012G19KT 10SM CLR 23/04 A3001 1710 29 3000 140/12G19 RMK AO2 T02280039
13962KABI ABI20160328141511003/28/16 14:15:31  5-MIN KABI 282015Z 14013G19KT 10SM CLR 23/05 A3000 1710 31 3000 130/13G19 RMK AO2 T02280050
13962KABI ABI20160328142010403/28/16 14:20:31  5-MIN KABI 282020Z 12014KT 10SM CLR 23/05 A3000 1720 30 3100 120/14 RMK AO2 T02330050
13962KABI ABI20160328142511003/28/16 14:25:31  5-MIN KABI 282025Z 14014G21KT 10SM CLR 23/04 A3000 1720 30 3100 130/14G21 RMK AO2 T02280044
13962KABI ABI20160328143011003/28/16 14:30:31  5-MIN KABI 282030Z 15009G21KT 10SM CLR 23/04 A2999 1730 30 3100 140/09G21 RMK AO2 T02280044
13962KABI ABI20160328143511003/28/16 14:35:31  5-MIN KABI 282035Z 14013G19KT 10SM CLR 23/05 A2999 1730 30 3100 130/13G19 RMK AO2 T02330050
13962KABI ABI20160328144011003/28/16 14:40:31  5-MIN KABI 282040Z 13017G23KT 10SM CLR 23/05 A2999 1730 30 3100 130/17G23 RMK AO2 T02330050
13962KABI ABI20160328144511003/28/16 14:45:31  5-MIN KABI 282045Z 16011G23KT 10SM CLR 23/06 A2998 1730 32 3100 150/11G23 RMK AO2 T02280056
13962KABI ABI20160328145011703/28/16 14:50:31  5-MIN KABI 282050Z 16012KT 10SM CLR 23/06 A2998 1740 32 3100 150/12 RMK AO2 SLP142 T02280056 58015
13962KABI ABI20160328145510403/28/16 14:55:31  5-MIN KABI 282055Z 17012KT 10SM CLR 23/06 A2998 1740 31 3100 160/12 RMK AO2 T02330056
13962KABI ABI20160328150010403/28/16 15:00:31  5-MIN KABI 282100Z 15013KT 10SM CLR 23/07 A2998 1740 33 3100 140/13 RMK AO2 T02330067
13962KABI ABI20160328150510403/28/16 15:05:31  5-MIN KABI 282105Z 14014KT 10SM CLR 23/06 A2997 1750 32 3100 130/14 RMK AO2 T02330061
13962KABI ABI20160328151010403/28/16 15:10:31  5-MIN KABI 282110Z 16014KT 10SM CLR 23/06 A2997 1750 32 3100 160/14 RMK AO2 T02330061
13962KABI ABI20160328151510403/28/16 15:15:31  5-MIN KABI 282115Z 15014KT 10SM CLR 23/07 A2997 1750 33 3200 150/14 RMK AO2 T02330067
13962KABI ABI20160328152011003/28/16 15:20:31  5-MIN KABI 282120Z 16014G20KT 10SM CLR 23/07 A2996 1750 33 3200 150/14G20 RMK AO2 T02330067
13962KABI ABI20160328152511003/28/16 15:25:31  5-MIN KABI 282125Z 14014G20KT 10SM CLR 23/06 A2996 1750 32 3200 140/14G20 RMK AO2 T02330061
13962KABI ABI20160328153010403/28/16 15:30:31  5-MIN KABI 282130Z 16014KT 10SM CLR 23/07 A2996 1760 33 3200 150/14 RMK AO2 T02330067
13962KABI ABI20160328153510403/28/16 15:35:31  5-MIN KABI 282135Z 14016KT 10SM CLR 23/06 A2996 1760 32 3200 130/16 RMK AO2 T02330061
13962KABI ABI20160328154011003/28/16 15:40:31  5-MIN KABI 282140Z 15013G21KT 10SM CLR 23/06 A2996 1760 32 3200 150/13G21 RMK AO2 T02330061
13962KABI ABI20160328154511003/28/16 15:45:31  5-MIN KABI 282145Z 14017G20KT 10SM CLR 23/06 A2995 1760 32 3200 130/17G20 RMK AO2 T02330061
13962KABI ABI20160328155011103/28/16 15:50:31  5-MIN KABI 282150Z 14017KT 10SM CLR 23/06 A2995 1760 32 3200 130/17 RMK AO2 SLP131 T02330061
13962KABI ABI20160328155510403/28/16 15:55:31  5-MIN KABI 282155Z 15014KT 10SM CLR 23/06 A2995 1760 32 3200 150/14 RMK AO2 T02330061
13962KABI ABI20160328160011003/28/16 16:00:31  5-MIN KABI 282200Z 14016G21KT 10SM CLR 23/07 A2995 1770 33 3200 140/16G21 RMK AO2 T02330067
13962KABI ABI20160328160511003/28/16 16:05:31  5-MIN KABI 282205Z 15014G24KT 10SM CLR 23/07 A2995 1770 33 3200 150/14G24 RMK AO2 T02330067
13962KABI ABI20160328161011003/28/16 16:10:31  5-MIN KABI 282210Z 15013G24KT 10SM CLR 23/06 A2995 1770 32 3200 150/13G24 RMK AO2 T02330061
13962KABI ABI20160328161511003/28/16 16:15:31  5-MIN KABI 282215Z 15015G22KT 10SM CLR 23/07 A2995 1770 35 3100 140/15G22 RMK AO2 T02280067
13962KABI ABI20160328162011003/28/16 16:20:31  5-MIN KABI 282220Z 15013G22KT 10SM CLR 23/07 A2994 1770 35 3100 140/13G22 RMK AO2 T02280067
13962KABI ABI20160328162511003/28/16 16:25:31  5-MIN KABI 282225Z 16012G20KT 10SM CLR 23/07 A2994 1770 35 3100 160/12G20 RMK AO2 T02280067
13962KABI ABI20160328163011003/28/16 16:30:31  5-MIN KABI 282230Z 15016G20KT 10SM CLR 23/07 A2994 1770 35 3100 150/16G20 RMK AO2 T02280067
13962KABI ABI20160328163511003/28/16 16:35:31  5-MIN KABI 282235Z 16016G22KT 10SM CLR 23/07 A2994 1770 35 3100 150/16G22 RMK AO2 T02280067
13962KABI ABI20160328164011003/28/16 16:40:31  5-MIN KABI 282240Z 15011G22KT 10SM CLR 23/07 A2994 1770 35 3100 150/11G22 RMK AO2 T02280067
13962KABI ABI20160328164510403/28/16 16:45:31  5-MIN KABI 282245Z 16013KT 10SM CLR 23/07 A2994 1780 35 3100 160/13 RMK AO2 T02280067
13962KABI ABI20160328165011703/28/16 16:50:31  5-MIN KABI 282250Z 17015G21KT 10SM CLR 23/07 A2994 1780 36 3100 160/15G21 RMK AO2 SLP128 T02280072
13962KABI ABI20160328165510403/28/16 16:55:31  5-MIN KABI 282255Z 15017KT 10SM CLR 23/07 A2994 1780 35 3100 150/17 RMK AO2 T02280067
13962KABI ABI20160328170011003/28/16 17:00:31  5-MIN KABI 282300Z 16015G21KT 10SM CLR 23/07 A2993 1780 35 3100 150/15G21 RMK AO2 T02280067
13962KABI ABI20160328170511003/28/16 17:05:31  5-MIN KABI 282305Z 16015G23KT 10SM CLR 22/07 A2993 1780 36 3100 150/15G23 RMK AO2 T02220067
13962KABI ABI20160328171011003/28/16 17:10:31  5-MIN KABI 282310Z 15017G23KT 10SM CLR 22/07 A2993 1780 36 3100 150/17G23 RMK AO2 T02220067
13962KABI ABI20160328171510403/28/16 17:15:31  5-MIN KABI 282315Z 15015KT 10SM CLR 22/07 A2993 1780 37 3100 150/15 RMK AO2 T02220072
13962KABI ABI20160328172010403/28/16 17:20:31  5-MIN KABI 282320Z 15016KT 10SM CLR 22/07 A2993 1780 36 3100 150/16 RMK AO2 T02220067
13962KABI ABI20160328172510403/28/16 17:25:31  5-MIN KABI 282325Z 16016KT 10SM CLR 22/07 A2993 1780 37 3000 150/16 RMK AO2 T02170067
13962KABI ABI20160328173010403/28/16 17:30:31  5-MIN KABI 282330Z 15016KT 10SM CLR 22/07 A2994 1780 37 3000 140/16 RMK AO2 T02170067
13962KABI ABI20160328173511003/28/16 17:35:31  5-MIN KABI 282335Z 14018G22KT 10SM CLR 22/07 A2993 1780 39 3000 140/18G22 RMK AO2 T02170072
13962KABI ABI20160328174011003/28/16 17:40:31  5-MIN KABI 282340Z 15015G22KT 10SM CLR 22/07 A2993 1780 39 3000 140/15G22 RMK AO2 T02170072
13962KABI ABI20160328174510403/28/16 17:45:31  5-MIN KABI 282345Z 15016KT 10SM CLR 22/07 A2993 1780 39 3000 150/16 RMK AO2 T02170072
13962KABI ABI20160328175012903/28/16 17:50:31  5-MIN KABI 282350Z 14017KT 10SM CLR 22/07 A2994 1780 37 3000 140/17 RMK AO2 SLP127 T02170067 10239 20194 56038
13962KABI ABI20160328175510403/28/16 17:55:31  5-MIN KABI 282355Z 15014KT 10SM CLR 21/07 A2994 1780 40 2900 140/14 RMK AO2 T02110072
13962KABI ABI20160328180010403/28/16 18:00:31  5-MIN KABI 290000Z 16013KT 10SM CLR 21/07 A2994 1780 40 2900 150/13 RMK AO2 T02110072
13962KABI ABI20160328180510403/28/16 18:05:31  5-MIN KABI 290005Z 15015KT 10SM CLR 21/07 A2994 1780 40 2900 140/15 RMK AO2 T02110072
13962KABI ABI20160328181010403/28/16 18:10:31  5-MIN KABI 290010Z 15015KT 10SM CLR 21/07 A2994 1770 40 2900 140/15 RMK AO2 T02110072
13962KABI ABI20160328181510403/28/16 18:15:31  5-MIN KABI 290015Z 15014KT 10SM CLR 21/07 A2994 1770 40 2900 150/14 RMK AO2 T02060067
13962KABI ABI20160328182010403/28/16 18:20:31  5-MIN KABI 290020Z 14015KT 10SM CLR 21/07 A2994 1770 40 2900 140/15 RMK AO2 T02060067
13962KABI ABI20160328182510403/28/16 18:25:31  5-MIN KABI 290025Z 14014KT 10SM CLR 20/07 A2994 1780 41 2800 130/14 RMK AO2 T02000067
13962KABI ABI20160328183010403/28/16 18:30:31  5-MIN KABI 290030Z 14013KT 10SM CLR 20/07 A2994 1770 41 2800 140/13 RMK AO2 T02000067
13962KABI ABI20160328183510403/28/16 18:35:31  5-MIN KABI 290035Z 14014KT 10SM CLR 19/07 A2994 1770 43 2700 140/14 RMK AO2 T01940067
13962KABI ABI20160328184010403/28/16 18:40:31  5-MIN KABI 290040Z 15013KT 10SM CLR 19/07 A2994 1770 43 2700 140/13 RMK AO2 T01940067
13962KABI ABI20160328184510403/28/16 18:45:31  5-MIN KABI 290045Z 14013KT 10SM CLR 19/07 A2994 1770 43 2700 140/13 RMK AO2 T01940067
13962KABI ABI20160328185011103/28/16 18:50:31  5-MIN KABI 290050Z 14012KT 10SM CLR 19/07 A2994 1770 44 2700 130/12 RMK AO2 SLP130 T01890067
13962KABI ABI20160328185510403/28/16 18:55:31  5-MIN KABI 290055Z 14012KT 10SM CLR 19/07 A2994 1770 44 2700 130/12 RMK AO2 T01890067
13962KABI ABI20160328190010403/28/16 19:00:31  5-MIN KABI 290100Z 14014KT 10SM CLR 19/07 A2994 1770 44 2700 130/14 RMK AO2 T01890067
13962KABI ABI20160328190510403/28/16 19:05:31  5-MIN KABI 290105Z 13013KT 10SM CLR 19/06 A2994 1770 43 2700 130/13 RMK AO2 T01890061
13962KABI ABI20160328191010403/28/16 19:10:31  5-MIN KABI 290110Z 13013KT 10SM CLR 18/07 A2994 1770 46 2600 130/13 RMK AO2 T01830067
13962KABI ABI20160328191510403/28/16 19:15:31  5-MIN KABI 290115Z 13013KT 10SM CLR 18/07 A2994 1770 46 2600 130/13 RMK AO2 T01830067
13962KABI ABI20160328192010403/28/16 19:20:31  5-MIN KABI 290120Z 14013KT 10SM CLR 18/07 A2994 1770 46 2600 130/13 RMK AO2 T01830067
13962KABI ABI20160328192510403/28/16 19:25:31  5-MIN KABI 290125Z 14013KT 10SM CLR 18/07 A2994 1770 46 2600 130/13 RMK AO2 T01830067
13962KABI ABI20160328193010403/28/16 19:30:31  5-MIN KABI 290130Z 13011KT 10SM CLR 18/07 A2994 1770 48 2500 130/11 RMK AO2 T01780067
13962KABI ABI20160328193510403/28/16 19:35:31  5-MIN KABI 290135Z 13011KT 10SM CLR 18/07 A2994 1770 48 2500 120/11 RMK AO2 T01780067
13962KABI ABI20160328194010403/28/16 19:40:31  5-MIN KABI 290140Z 13013KT 10SM CLR 17/06 A2994 1770 47 2500 130/13 RMK AO2 T01720061
13962KABI ABI20160328194510403/28/16 19:45:31  5-MIN KABI 290145Z 13014KT 10SM CLR 17/06 A2994 1770 47 2500 130/14 RMK AO2 T01720061
13962KABI ABI20160328195011103/28/16 19:50:31  5-MIN KABI 290150Z 13015KT 10SM CLR 17/06 A2994 1770 47 2500 130/15 RMK AO2 SLP128 T01720061
13962KABI ABI20160328195510403/28/16 19:55:31  5-MIN KABI 290155Z 14014KT 10SM CLR 17/06 A2994 1770 47 2500 130/14 RMK AO2 T01720061
13962KABI ABI20160328200010403/28/16 20:00:31  5-MIN KABI 290200Z 14016KT 10SM CLR 17/06 A2994 1770 47 2500 130/16 RMK AO2 T01720061
13962KABI ABI20160328200510403/28/16 20:05:31  5-MIN KABI 290205Z 14015KT 10SM CLR 17/06 A2994 1770 47 2500 130/15 RMK AO2 T01720061
13962KABI ABI20160328201010403/28/16 20:10:31  5-MIN KABI 290210Z 13015KT 10SM CLR 17/06 A2994 1770 47 2500 130/15 RMK AO2 T01720061
13962KABI ABI20160328201510403/28/16 20:15:31  5-MIN KABI 290215Z 13015KT 10SM CLR 17/06 A2994 1770 46 2500 130/15 RMK AO2 T01720056
13962KABI ABI20160328202010403/28/16 20:20:31  5-MIN KABI 290220Z 13015KT 10SM CLR 17/06 A2994 1770 47 2400 130/15 RMK AO2 T01670056
13962KABI ABI20160328202510403/28/16 20:25:31  5-MIN KABI 290225Z 13016KT 10SM CLR 17/06 A2994 1770 47 2400 130/16 RMK AO2 T01670056
13962KABI ABI20160328203010403/28/16 20:30:31  5-MIN KABI 290230Z 13014KT 10SM CLR 17/06 A2994 1770 47 2400 120/14 RMK AO2 T01670056
13962KABI ABI20160328203510403/28/16 20:35:31  5-MIN KABI 290235Z 13014KT 10SM CLR 17/06 A2994 1770 47 2400 120/14 RMK AO2 T01670056
13962KABI ABI20160328204010403/28/16 20:40:31  5-MIN KABI 290240Z 13016KT 10SM CLR 17/06 A2994 1770 47 2400 120/16 RMK AO2 T01670056
13962KABI ABI20160328204510403/28/16 20:45:31  5-MIN KABI 290245Z 13015KT 10SM CLR 17/06 A2994 1770 47 2400 120/15 RMK AO2 T01670056
13962KABI ABI20160330044514103/30/16 04:45:31  5-MIN KABI 301045Z 19008KT 10SM SCT019 BKN024 BKN033 20/17 A2973 1970 84 3000 190/08 RMK AO2 PK WND 18032/1002 T02000172 $
13962KABI ABI20160330045013103/30/16 04:50:31  5-MIN KABI 301050Z 18010KT 10SM SCT017 BKN024 OVC044 20/17 A2973 1970 84 3000 180/10 RMK AO2 PK WND 18032/1002 $
13962KABI ABI20160330045512303/30/16 04:55:31  5-MIN KABI 301055Z 17010KT 10SM SCT017 BKN022 OVC045 20/17 A2972 1980 84 3100 160/10 RMK AO2 T02000172 $
13962KABI ABI20160330050012303/30/16 05:00:31  5-MIN KABI 301100Z 16009KT 10SM SCT017 BKN024 BKN032 20/17 A2972 1980 84 3100 160/09 RMK AO2 T02000172 $
13962KABI ABI20160330050512303/30/16 05:05:31  5-MIN KABI 301105Z 17009KT 10SM SCT019 BKN024 BKN032 20/17 A2972 1980 84 3100 160/09 RMK AO2 T02000172 $
13962KABI ABI20160330051012303/30/16 05:10:31  5-MIN KABI 301110Z 16009KT 10SM FEW019 SCT024 SCT055 20/17 A2972 1980 84 3100 160/09 RMK AO2 T02000172 $
13962KABI ABI20160330051512903/30/16 05:15:31  5-MIN KABI 301115Z 16005G17KT 10SM FEW019 FEW024 SCT045 19/17 A2972 1980 87 3000 160/05G17 RMK AO2 T01940172 $
13962KABI ABI20160330052012303/30/16 05:20:31  5-MIN KABI 301120Z 16007KT 10SM FEW017 FEW024 FEW042 19/17 A2973 1970 87 3000 160/07 RMK AO2 T01940172 $
13962KABI ABI20160330052511603/30/16 05:25:31  5-MIN KABI 301125Z VRB04KT 10SM FEW017 FEW032 20/17 A2973 1970 84 3000 VRB/04 RMK AO2 T02000172 $
13962KABI ABI20160330053012303/30/16 05:30:31  5-MIN KABI 301130Z 19005KT 10SM FEW018 SCT025 SCT033 19/17 A2973 1970 87 3000 190/05 RMK AO2 T01940172 $
13962KABI ABI20160330053512303/30/16 05:35:31  5-MIN KABI 301135Z 22005KT 10SM SCT020 BKN030 BKN035 20/17 A2974 1960 84 3000 220/05 RMK AO2 T02000172 $
13962KABI ABI20160330054012303/30/16 05:40:31  5-MIN KABI 301140Z 18008KT 10SM SCT020 BKN028 BKN033 20/17 A2973 1970 84 3000 180/08 RMK AO2 T02000172 $
13962KABI ABI20160330054512303/30/16 05:45:31  5-MIN KABI 301145Z 18010KT 10SM SCT020 SCT028 BKN033 20/17 A2973 1970 84 3000 180/10 RMK AO2 T02000172 $
13962KABI ABI20160330055011303/30/16 05:50:31  5-MIN KABI 301150Z 19011KT 10SM SCT020 BKN028 BKN033 20/17 A2973 1970 84 3000 190/11 RMK AO2 $
13962KABI ABI20160330055512303/30/16 05:55:31  5-MIN KABI 301155Z 19010KT 10SM BKN020 BKN028 BKN033 20/17 A2973 1970 84 3000 180/10 RMK AO2 T02000172 $
13962KABI ABI20160330060011603/30/16 06:00:31  5-MIN KABI 301200Z 17009KT 10SM BKN020 BKN032 20/17 A2973 1970 84 3000 160/09 RMK AO2 T02000172 $
13962KABI ABI20160330060512303/30/16 06:05:31  5-MIN KABI 301205Z 18010KT 10SM BKN020 BKN026 BKN032 20/17 A2973 1970 84 3000 170/10 RMK AO2 T02000172 $
13962KABI ABI20160330061012303/30/16 06:10:31  5-MIN KABI 301210Z 18010KT 10SM BKN020 BKN026 BKN035 20/17 A2973 1970 84 3000 170/10 RMK AO2 T02000172 $
13962KABI ABI20160330061512303/30/16 06:15:31  5-MIN KABI 301215Z 18011KT 10SM BKN020 BKN027 OVC038 20/17 A2974 1960 84 3000 180/11 RMK AO2 T02000172 $
13962KABI ABI20160330062012303/30/16 06:20:31  5-MIN KABI 301220Z 19010KT 10SM BKN020 BKN027 OVC038 20/17 A2973 1970 84 3000 180/10 RMK AO2 T02000172 $
13962KABI ABI20160330062511603/30/16 06:25:31  5-MIN KABI 301225Z 18015KT 10SM BKN020 BKN027 20/17 A2973 1970 84 3000 170/15 RMK AO2 T02000172 $
13962KABI ABI20160330063011603/30/16 06:30:31  5-MIN KABI 301230Z 17013KT 10SM SCT019 BKN027 20/17 A2973 1970 81 3000 160/13 RMK AO2 T02000167 $
13962KABI ABI20160330063512203/30/16 06:35:31  5-MIN KABI 301235Z 17015G21KT 10SM SCT019 BKN027 20/17 A2973 1970 81 3000 160/15G21 RMK AO2 T02000167 $
13962KABI ABI20160330064012203/30/16 06:40:31  5-MIN KABI 301240Z 17013G21KT 10SM FEW019 SCT027 20/17 A2973 1970 81 3000 160/13G21 RMK AO2 T02000167 $
13962KABI ABI20160330064511603/30/16 06:45:31  5-MIN KABI 301245Z 17013KT 10SM FEW019 SCT027 20/17 A2973 1970 81 3000 170/13 RMK AO2 T02000167 $
13962KABI ABI20160330065011603/30/16 06:50:31  5-MIN KABI 301250Z 17014KT 10SM FEW021 20/17 A2973 1970 81 3000 170/14 RMK AO2 SLP048 T02000167 $
13962KABI ABI20160330065511203/30/16 06:55:31  5-MIN KABI 301255Z 17013G20KT 10SM CLR 20/17 A2973 1970 81 3000 170/13G20 RMK AO2 T02000167 $
13962KABI ABI20160330070011203/30/16 07:00:31  5-MIN KABI 301300Z 17011G20KT 10SM CLR 20/17 A2973 1970 81 3000 170/11G20 RMK AO2 T02000167 $
13962KABI ABI20160330070510903/30/16 07:05:31  5-MIN KABI 301305Z 18011KT 10SM OVC021 20/17 A2973 1970 81 3000 170/11 RMK AO2 T02000167 $
13962KABI ABI20160330071010903/30/16 07:10:31  5-MIN KABI 301310Z 18010KT 10SM OVC021 20/17 A2973 1970 81 3000 170/10 RMK AO2 T02000167 $
13962KABI ABI20160330071510903/30/16 07:15:31  5-MIN KABI 301315Z 18010KT 10SM OVC021 20/17 A2973 1970 81 3000 180/10 RMK AO2 T02000167 $
13962KABI ABI20160330072010903/30/16 07:20:31  5-MIN KABI 301320Z 18011KT 10SM OVC021 20/17 A2973 1970 81 3000 180/11 RMK AO2 T02000167 $
13962KABI ABI20160330072510903/30/16 07:25:31  5-MIN KABI 301325Z 18013KT 10SM OVC021 20/17 A2973 1970 81 3000 170/13 RMK AO2 T02000167 $
13962KABI ABI20160330073011503/30/16 07:30:31  5-MIN KABI 301330Z 17009G19KT 10SM OVC021 20/17 A2973 1970 81 3000 170/09G19 RMK AO2 T02000167 $
13962KABI ABI20160330073510903/30/16 07:35:31  5-MIN KABI 301335Z 17009KT 10SM OVC021 20/17 A2973 1970 81 3000 170/09 RMK AO2 T02000167 $
13962KABI ABI20160330074010903/30/16 07:40:31  5-MIN KABI 301340Z 18009KT 10SM OVC021 20/17 A2973 1970 81 3000 170/09 RMK AO2 T02000167 $
13962KABI ABI20160330074510903/30/16 07:45:31  5-MIN KABI 301345Z 17009KT 10SM OVC021 20/17 A2973 1970 81 3000 170/09 RMK AO2 T02000167 $
13962KABI ABI20160330075009603/30/16 07:50:31  5-MIN KABI 301350Z 17011KT 10SM CLR 20/17 A2973 1970 81 3000 170/11 RMK AO2 $
13962KABI ABI20160330075510603/30/16 07:55:31  5-MIN KABI 301355Z 17013KT 10SM CLR 20/17 A2972 1980 81 3100 170/13 RMK AO2 T02000167 $
13962KABI ABI20160330080010603/30/16 08:00:31  5-MIN KABI 301400Z 18012KT 10SM CLR 20/17 A2972 1980 81 3100 170/12 RMK AO2 T02000167 $
13962KABI ABI20160330080510603/30/16 08:05:31  5-MIN KABI 301405Z 17012KT 10SM CLR 20/17 A2972 1980 81 3100 170/12 RMK AO2 T02000167 $
13962KABI ABI20160330081010603/30/16 08:10:31  5-MIN KABI 301410Z 17013KT 10SM CLR 20/17 A2972 1980 81 3100 160/13 RMK AO2 T02000167 $
13962KABI ABI20160330081510603/30/16 08:15:31  5-MIN KABI 301415Z 16012KT 10SM CLR 20/17 A2972 1980 81 3100 160/12 RMK AO2 T02000167 $
13962KABI ABI20160330082010603/30/16 08:20:31  5-MIN KABI 301420Z 17012KT 10SM CLR 20/17 A2972 1980 81 3100 160/12 RMK AO2 T02000167 $
13962KABI ABI20160330082510603/30/16 08:25:31  5-MIN KABI 301425Z 16011KT 10SM CLR 20/17 A2972 1980 84 3100 160/11 RMK AO2 T02000172 $
13962KABI ABI20160330083010603/30/16 08:30:31  5-MIN KABI 301430Z 16011KT 10SM CLR 21/17 A2972 1980 81 3100 160/11 RMK AO2 T02060172 $
13962KABI ABI20160330083510603/30/16 08:35:31  5-MIN KABI 301435Z 16012KT 10SM CLR 21/17 A2972 1980 81 3100 160/12 RMK AO2 T02060172 $
13962KABI ABI20160330084010603/30/16 08:40:31  5-MIN KABI 301440Z 17012KT 10SM CLR 21/17 A2972 1980 81 3100 160/12 RMK AO2 T02060172 $
13962KABI ABI20160330084510903/30/16 08:45:31  5-MIN KABI 301445Z 17011KT 10SM FEW021 21/17 A2972 1980 81 3100 170/11 RMK AO2 T02060172 $
13962KABI ABI20160330085012203/30/16 08:50:31  5-MIN KABI 301450Z 17012KT 10SM FEW021 21/17 A2972 1980 78 3200 170/12 RMK AO2 SLP043 T02110172 51019 $
13962KABI ABI20160330085510603/30/16 08:55:31  5-MIN KABI 301455Z 17012KT 10SM CLR 21/17 A2972 1980 78 3200 160/12 RMK AO2 T02110172 $
13962KABI ABI20160330090011203/30/16 09:00:31  5-MIN KABI 301500Z 18013G18KT 10SM CLR 22/17 A2972 1980 73 3300 170/13G18 RMK AO2 T02220172 $
13962KABI ABI20160330090511503/30/16 09:05:31  5-MIN KABI 301505Z 18014G19KT 10SM FEW021 22/17 A2972 1980 73 3300 170/14G19 RMK AO2 T02220172 $
13962KABI ABI20160330091010903/30/16 09:10:31  5-MIN KABI 301510Z 18014KT 10SM FEW021 23/17 A2972 1980 70 3400 180/14 RMK AO2 T02280172 $
13962KABI ABI20160330091511403/30/16 09:15:31  5-MIN KABI 301515Z 19011G20KT 9SM FEW021 23/17 A2972 1980 70 3400 190/11G20 RMK AO2 T02280172 $
13962KABI ABI20160330092011403/30/16 09:20:31  5-MIN KABI 301520Z 18011G19KT 9SM FEW021 22/17 A2972 1980 73 3300 180/11G19 RMK AO2 T02220172 $
13962KABI ABI20160330092511403/30/16 09:25:31  5-MIN KABI 301525Z 20012G19KT 9SM FEW021 22/17 A2971 1980 73 3300 190/12G19 RMK AO2 T02220172 $
13962KABI ABI20160330093011403/30/16 09:30:31  5-MIN KABI 301530Z 19013G22KT 9SM FEW021 22/17 A2971 1980 73 3300 190/13G22 RMK AO2 T02220172 $
13962KABI ABI20160330093511403/30/16 09:35:31  5-MIN KABI 301535Z 21015G22KT 9SM FEW021 23/18 A2972 1980 73 3400 200/15G22 RMK AO2 T02280178 $
13962KABI ABI20160330094011403/30/16 09:40:31  5-MIN KABI 301540Z 20020G24KT 9SM FEW021 23/17 A2971 1990 70 3400 190/20G24 RMK AO2 T02280172 $
13962KABI ABI20160330094511403/30/16 09:45:31  5-MIN KABI 301545Z 20017G25KT 9SM FEW021 23/17 A2971 1990 70 3400 190/17G25 RMK AO2 T02280172 $
13962KABI ABI20160330095012103/30/16 09:50:31  5-MIN KABI 301550Z 20019G25KT 9SM FEW023 23/17 A2971 1980 70 3400 200/19G25 RMK AO2 SLP041 T02280172 $
13962KABI ABI20160330095511403/30/16 09:55:31  5-MIN KABI 301555Z 21012G24KT 9SM FEW023 23/17 A2971 1980 70 3400 200/12G24 RMK AO2 T02280172 $
13962KABI ABI20160330100010803/30/16 10:00:31  5-MIN KABI 301600Z 20012KT 9SM FEW025 23/17 A2972 1980 70 3400 190/12 RMK AO2 T02280172 $
13962KABI ABI20160330100511403/30/16 10:05:31  5-MIN KABI 301605Z 19009G17KT 9SM FEW025 23/17 A2972 1980 70 3400 190/09G17 RMK AO2 T02280172 $
13962KABI ABI20160330101011403/30/16 10:10:31  5-MIN KABI 301610Z 20012G16KT 9SM SCT025 23/17 A2972 1980 70 3400 190/12G16 RMK AO2 T02280172 $
13962KABI ABI20160330101511403/30/16 10:15:31  5-MIN KABI 301615Z 21010G18KT 9SM SCT025 23/17 A2972 1980 68 3400 200/10G18 RMK AO2 T02330172 $
13962KABI ABI20160330102011403/30/16 10:20:31  5-MIN KABI 301620Z 21012G18KT 9SM SCT025 23/18 A2971 1980 70 3400 200/12G18 RMK AO2 T02330178 $
13962KABI ABI20160330102511503/30/16 10:25:31  5-MIN KABI 301625Z 21013G21KT 10SM SCT025 23/18 A2971 1980 70 3400 200/13G21 RMK AO2 T02330178 $
13962KABI ABI20160330103011503/30/16 10:30:31  5-MIN KABI 301630Z 20017G25KT 10SM SCT025 24/17 A2971 1990 66 3500 190/17G25 RMK AO2 T02390172 $
13962KABI ABI20160330103511503/30/16 10:35:31  5-MIN KABI 301635Z 20014G25KT 10SM SCT027 24/17 A2971 1990 66 3500 190/14G25 RMK AO2 T02390172 $
13962KABI ABI20160330104011503/30/16 10:40:31  5-MIN KABI 301640Z 21017G23KT 10SM BKN027 24/18 A2971 1990 66 3600 210/17G23 RMK AO2 T02440178 $
13962KABI ABI20160330104511503/30/16 10:45:31  5-MIN KABI 301645Z 21018G25KT 10SM SCT027 24/17 A2970 1990 63 3600 210/18G25 RMK AO2 T02440172 $
13962KABI ABI20160330105012103/30/16 10:50:31  5-MIN KABI 301650Z 21017G25KT 9SM SCT027 24/17 A2970 1990 63 3600 210/17G25 RMK AO2 SLP036 T02440172 $
13962KABI ABI20160330105511503/30/16 10:55:31  5-MIN KABI 301655Z 21015G24KT 10SM FEW029 25/17 A2971 1990 61 3600 210/15G24 RMK AO2 T02500172 $
13962KABI ABI20160330110011503/30/16 11:00:31  5-MIN KABI 301700Z 21015G21KT 10SM FEW029 25/17 A2971 1990 61 3600 210/15G21 RMK AO2 T02500172 $
13962KABI ABI20160330110510903/30/16 11:05:31  5-MIN KABI 301705Z 22013KT 10SM SCT030 25/17 A2971 1990 61 3600 220/13 RMK AO2 T02500172 $
13962KABI ABI20160330111010903/30/16 11:10:31  5-MIN KABI 301710Z 22013KT 10SM FEW032 25/17 A2970 1990 59 3600 210/13 RMK AO2 T02500167 $
13962KABI ABI20160330111510903/30/16 11:15:31  5-MIN KABI 301715Z 23016KT 10SM FEW032 25/17 A2970 2000 59 3600 220/16 RMK AO2 T02500167 $
13962KABI ABI20160330112011503/30/16 11:20:31  5-MIN KABI 301720Z 22017G22KT 10SM FEW032 25/17 A2970 2000 59 3600 220/17G22 RMK AO2 T02500167 $
13962KABI ABI20160330112511503/30/16 11:25:31  5-MIN KABI 301725Z 22014G22KT 10SM FEW032 26/17 A2970 1990 59 3700 210/14G22 RMK AO2 T02560172 $
13962KABI ABI20160330113010903/30/16 11:30:31  5-MIN KABI 301730Z 23014KT 10SM SCT032 26/17 A2971 1990 59 3700 220/14 RMK AO2 T02560172 $
13962KABI ABI20160330113510803/30/16 11:35:31  5-MIN KABI 301735Z 24013KT 9SM SCT034 25/17 A2971 1990 61 3600 240/13 RMK AO2 T02500172 $
13962KABI ABI20160330114011503/30/16 11:40:31  5-MIN KABI 301740Z 24013KT 9SM FEW034 SCT048 24/17 A2971 1990 61 3600 230/13 RMK AO2 T02440167 $
13962KABI ABI20160330114511503/30/16 11:45:31  5-MIN KABI 301745Z 22012KT 9SM FEW034 BKN048 24/17 A2971 1990 63 3600 220/12 RMK AO2 T02440172 $
13962KABI ABI20160330115014603/30/16 11:50:31  5-MIN KABI 301750Z 23015G20KT 9SM FEW034 BKN048 24/17 A2971 1990 61 3600 220/15G20 RMK AO2 SLP036 T02440167 10256 20200 58002 $
13962KABI ABI20160330115511503/30/16 11:55:31  5-MIN KABI 301755Z 23012KT 9SM FEW034 BKN042 24/17 A2970 1990 61 3600 220/12 RMK AO2 T02440167 $
13962KABI ABI20160330120011503/30/16 12:00:31  5-MIN KABI 301800Z 22013KT 9SM FEW034 BKN042 24/17 A2970 2000 63 3600 220/13 RMK AO2 T02440172 $
13962KABI ABI20160330120511503/30/16 12:05:31  5-MIN KABI 301805Z 22015KT 9SM FEW034 BKN042 26/17 A2970 2000 59 3700 220/15 RMK AO2 T02560172 $
13962KABI ABI20160330121011603/30/16 12:10:31  5-MIN KABI 301810Z 21014KT 10SM FEW034 BKN042 25/17 A2969 2000 59 3600 210/14 RMK AO2 T02500167 $
13962KABI ABI20160330121511603/30/16 12:15:31  5-MIN KABI 301815Z 21013KT 10SM FEW034 BKN042 26/17 A2969 2010 57 3800 210/13 RMK AO2 T02610172 $
13962KABI ABI20160330122011603/30/16 12:20:31  5-MIN KABI 301820Z 23015KT 10SM FEW034 BKN042 26/17 A2969 2010 57 3800 220/15 RMK AO2 T02610172 $
13962KABI ABI20160330122512203/30/16 12:25:31  5-MIN KABI 301825Z 20014G24KT 10SM FEW034 BKN042 26/17 A2969 2010 57 3800 190/14G24 RMK AO2 T02610172 $
13962KABI ABI20160330123012203/30/16 12:30:31  5-MIN KABI 301830Z 21014G24KT 10SM FEW034 BKN042 27/17 A2969 2010 55 3800 210/14G24 RMK AO2 T02670172 $
13962KABI ABI20160330123512203/30/16 12:35:31  5-MIN KABI 301835Z 20013G22KT 10SM FEW034 BKN042 26/17 A2968 2010 55 3800 200/13G22 RMK AO2 T02610167 $
13962KABI ABI20160330124012203/30/16 12:40:31  5-MIN KABI 301840Z 21013G19KT 10SM FEW034 BKN042 27/17 A2968 2020 55 3800 200/13G19 RMK AO2 T02670172 $
13962KABI ABI20160330124511603/30/16 12:45:31  5-MIN KABI 301845Z 20013KT 10SM FEW034 BKN042 27/17 A2968 2020 53 3900 190/13 RMK AO2 T02670167 $
13962KABI ABI20160330125012303/30/16 12:50:31  5-MIN KABI 301850Z 19012KT 10SM FEW034 BKN042 27/17 A2967 2020 55 3900 180/12 RMK AO2 SLP022 T02670172 $
13962KABI ABI20160330125510603/30/16 12:55:31  5-MIN KABI 301855Z 19008KT 10SM CLR 27/17 A2967 2030 55 3900 190/08 RMK AO2 T02670172 $
13962KABI ABI20160330130010603/30/16 13:00:31  5-MIN KABI 301900Z 19013KT 10SM CLR 27/17 A2966 2030 54 3900 190/13 RMK AO2 T02720172 $
13962KABI ABI20160330130510903/30/16 13:05:31  5-MIN KABI 301905Z 22009KT 10SM FEW100 27/17 A2966 2030 54 3900 210/09 RMK AO2 T02720172 $
13962KABI ABI20160330131010903/30/16 13:10:31  5-MIN KABI 301910Z 19010KT 10SM FEW110 27/17 A2965 2040 54 3900 190/10 RMK AO2 T02720172 $
13962KABI ABI20160330131511603/30/16 13:15:31  5-MIN KABI 301915Z 18008KT 10SM FEW110 26/16 A2964 2050 53 3800 170/08 RMK AO2 PRESFR T02610161 $
13962KABI ABI20160330132011603/30/16 13:20:31  5-MIN KABI 301920Z VRB04KT 10SM FEW090 SCT110 27/16 A2965 2050 52 3900 VRB/04 RMK AO2 T02670161 $
13962KABI ABI20160330132512303/30/16 13:25:31  5-MIN KABI 301925Z 19007KT 10SM FEW060 SCT085 BKN110 27/16 A2964 2050 48 4000 190/07 RMK AO2 T02720156 $
13962KABI ABI20160330133013903/30/16 13:30:31  5-MIN KABI 301930Z 21009KT 180V240 10SM FEW050 SCT080 BKN110 27/16 A2964 2050 50 4000 210/09 180V240 RMK AO2 T02720161 $
13962KABI ABI20160330133512303/30/16 13:35:31  5-MIN KABI 301935Z 18008KT 10SM FEW050 SCT085 BKN110 27/16 A2964 2050 50 3900 180/08 RMK AO2 T02670156 $
13962KABI ABI20160330134012303/30/16 13:40:31  5-MIN KABI 301940Z 20009KT 10SM FEW050 SCT085 SCT110 27/15 A2964 2050 48 3900 190/09 RMK AO2 T02670150 $
13962KABI ABI20160330134512303/30/16 13:45:31  5-MIN KABI 301945Z 22008KT 10SM FEW050 FEW060 SCT080 27/13 A2964 2050 43 3900 220/08 RMK AO2 T02670133 $
13962KABI ABI20160330135013003/30/16 13:50:31  5-MIN KABI 301950Z 24007KT 10SM FEW050 SCT065 SCT080 27/12 A2963 2060 40 3900 240/07 RMK AO2 SLP010 T02670122 $
13962KABI ABI20160330135511603/30/16 13:55:31  5-MIN KABI 301955Z 28006KT 10SM FEW050 SCT070 27/13 A2963 2060 43 3900 280/06 RMK AO2 T02670133 $
13962KABI ABI20160330140010903/30/16 14:00:31  5-MIN KABI 302000Z 27009KT 10SM SCT070 27/13 A2963 2060 41 3900 270/09 RMK AO2 T02670128 $
13962KABI ABI20160330140512203/30/16 14:05:31  5-MIN KABI 302005Z 23010G14KT 10SM SCT070 SCT080 27/13 A2963 2060 40 4000 230/10G14 RMK AO2 T02720128 $
13962KABI ABI20160330141011503/30/16 14:10:31  5-MIN KABI 302010Z 22014G18KT 10SM BKN070 27/12 A2963 2060 40 3900 220/14G18 RMK AO2 T02670122 $
13962KABI ABI20160330141510903/30/16 14:15:31  5-MIN KABI 302015Z 22014KT 10SM BKN070 27/13 A2963 2060 41 3900 220/14 RMK AO2 T02670128 $
13962KABI ABI20160330142011603/30/16 14:20:31  5-MIN KABI 302020Z 24014KT 10SM SCT070 SCT120 28/13 A2963 2070 40 4000 230/14 RMK AO2 T02780133 $
13962KABI ABI20160330142511403/30/16 14:25:31  5-MIN KABI 302025Z 23017KT 10SM FEW070 SCT120 28/13 A2962 2070 39 4100 220/17 RMK AO2 T02830133
13962KABI ABI20160330143013003/30/16 14:30:31  5-MIN KABI 302030Z 22021G26KT 9SM FEW070 28/12 A2962 2080 37 4000 210/21G26 RMK AO2 PK WND 23026/2027 T02780122
13962KABI ABI20160330143513003/30/16 14:35:31  5-MIN KABI 302035Z 21019G26KT 9SM FEW070 28/11 A2962 2080 35 4000 210/19G26 RMK AO2 PK WND 23026/2027 T02780111
13962KABI ABI20160330144012803/30/16 14:40:31  5-MIN KABI 302040Z 21015G25KT 10SM CLR 28/09 A2962 2070 30 4000 200/15G25 RMK AO2 PK WND 23026/2027 T02780089
13962KABI ABI20160330144512203/30/16 14:45:31  5-MIN KABI 302045Z 20011KT 10SM CLR 28/08 A2961 2080 28 4000 200/11 RMK AO2 PK WND 23026/2027 T02780078
13962KABI ABI20160330145014103/30/16 14:50:31  5-MIN KABI 302050Z 20011G18KT 10SM CLR 28/07 A2961 2080 27 4000 190/11G18 RMK AO2 PK WND 23026/2027 SLP001 T02780072 56005
13962KABI ABI20160330145510403/30/16 14:55:31  5-MIN KABI 302055Z 20013KT 10SM CLR 28/07 A2961 2080 26 4100 190/13 RMK AO2 T02780067
13962KABI ABI20160330150010403/30/16 15:00:31  5-MIN KABI 302100Z 20010KT 10SM CLR 28/06 A2960 2090 25 4100 190/10 RMK AO2 T02780061
13962KABI ABI20160330150510403/30/16 15:05:31  5-MIN KABI 302105Z 21010KT 10SM CLR 29/07 A2960 2090 24 4200 210/10 RMK AO2 T02890067
13962KABI ABI20160330151010403/30/16 15:10:31  5-MIN KABI 302110Z 20009KT 10SM CLR 28/06 A2960 2090 24 4100 190/09 RMK AO2 T02830061
13962KABI ABI20160330151510403/30/16 15:15:31  5-MIN KABI 302115Z 18012KT 10SM CLR 28/07 A2959 2100 25 4100 180/12 RMK AO2 T02830067
13962KABI ABI20160330152010403/30/16 15:20:31  5-MIN KABI 302120Z 18009KT 10SM CLR 28/07 A2959 2100 25 4100 180/09 RMK AO2 T02830067
13962KABI ABI20160330152512003/30/16 15:25:31  5-MIN KABI 302125Z 19009KT 160V230 10SM CLR 28/07 A2959 2100 25 4100 180/09 160V230 RMK AO2 T02830067
13962KABI ABI20160330153010403/30/16 15:30:31  5-MIN KABI 302130Z 20010KT 10SM CLR 28/06 A2959 2100 24 4100 200/10 RMK AO2 T02830061
13962KABI ABI20160330153510403/30/16 15:35:31  5-MIN KABI 302135Z 23007KT 10SM CLR 28/06 A2958 2110 24 4100 230/07 RMK AO2 T02830061
13962KABI ABI20160330154012003/30/16 15:40:31  5-MIN KABI 302140Z 22010KT 200V270 10SM CLR 28/06 A2958 2110 24 4100 210/10 200V270 RMK AO2 T02830061
13962KABI ABI20160330154510403/30/16 15:45:31  5-MIN KABI 302145Z 25006KT 10SM CLR 29/07 A2958 2110 24 4200 240/06 RMK AO2 T02890067
13962KABI ABI20160330155011103/30/16 15:50:31  5-MIN KABI 302150Z 24006KT 10SM CLR 29/07 A2958 2110 24 4200 240/06 RMK AO2 SLP990 T02890067
13962KABI ABI20160330155510403/30/16 15:55:31  5-MIN KABI 302155Z 24010KT 10SM CLR 29/07 A2958 2110 25 4200 240/10 RMK AO2 T02890072
13962KABI ABI20160330160010403/30/16 16:00:31  5-MIN KABI 302200Z 23010KT 10SM CLR 29/07 A2957 2110 24 4200 230/10 RMK AO2 T02890067
13962KABI ABI20160330160510403/30/16 16:05:31  5-MIN KABI 302205Z 23006KT 10SM CLR 29/07 A2957 2120 25 4200 230/06 RMK AO2 T02890072
13962KABI ABI20160330161010403/30/16 16:10:31  5-MIN KABI 302210Z 25010KT 10SM CLR 28/08 A2957 2120 27 4200 250/10 RMK AO2 T02830078
13962KABI ABI20160330161510403/30/16 16:15:31  5-MIN KABI 302215Z 22010KT 10SM CLR 29/08 A2957 2120 26 4200 210/10 RMK AO2 T02890078
13962KABI ABI20160330162010403/30/16 16:20:31  5-MIN KABI 302220Z 22008KT 10SM CLR 29/07 A2957 2120 25 4200 220/08 RMK AO2 T02890072
13962KABI ABI20160330162510403/30/16 16:25:31  5-MIN KABI 302225Z 26011KT 10SM CLR 29/08 A2957 2120 26 4200 250/11 RMK AO2 T02890078
13962KABI ABI20160330163010303/30/16 16:30:31  5-MIN KABI 302230Z 23011KT 9SM CLR 29/08 A2957 2120 26 4200 220/11 RMK AO2 T02890078
13962KABI ABI20160330163510603/30/16 16:35:31  5-MIN KABI 302235Z 25010KT 8SM FEW002 29/08 A2957 2120 26 4200 250/10 RMK AO2 T02890078
13962KABI ABI20160330164010303/30/16 16:40:31  5-MIN KABI 302240Z 24012KT 8SM CLR 29/08 A2957 2120 27 4200 230/12 RMK AO2 T02890083
13962KABI ABI20160330164510303/30/16 16:45:31  5-MIN KABI 302245Z 25012KT 7SM CLR 29/08 A2957 2120 26 4200 250/12 RMK AO2 T02890078
13962KABI ABI20160330165011103/30/16 16:50:31  5-MIN KABI 302250Z 25008KT 10SM CLR 29/08 A2957 2120 26 4200 240/08 RMK AO2 SLP987 T02890078
13962KABI ABI20160330165510303/30/16 16:55:31  5-MIN KABI 302255Z 23009KT 7SM CLR 28/07 A2957 2120 26 4200 230/09 RMK AO2 T02830072
13962KABI ABI20160330170010303/30/16 17:00:31  5-MIN KABI 302300Z 26006KT 9SM CLR 28/07 A2957 2120 27 4100 250/06 RMK AO2 T02780072
13962KABI ABI20160330170510303/30/16 17:05:31  5-MIN KABI 302305Z 24006KT 8SM CLR 27/09 A2957 2120 32 4000 240/06 RMK AO2 T02670089
13962KABI ABI20160330171010303/30/16 17:10:31  5-MIN KABI 302310Z 25004KT 8SM CLR 27/08 A2957 2120 30 4000 240/04 RMK AO2 T02720083
13962KABI ABI20160330171510303/30/16 17:15:31  5-MIN KABI 302315Z 25007KT 8SM CLR 27/09 A2957 2120 31 4000 240/07 RMK AO2 T02720089
13962KABI ABI20160330172010603/30/16 17:20:31  5-MIN KABI 302320Z 28005KT 7SM FEW110 27/09 A2957 2120 31 4000 280/05 RMK AO2 T02720089
13962KABI ABI20160330172510603/30/16 17:25:31  5-MIN KABI 302325Z 27008KT 8SM FEW110 28/09 A2957 2120 29 4200 270/08 RMK AO2 T02830089
13962KABI ABI20160330173010303/30/16 17:30:31  5-MIN KABI 302330Z 27007KT 9SM CLR 28/09 A2957 2120 31 4100 260/07 RMK AO2 T02780094
13962KABI ABI20160330173510403/30/16 17:35:31  5-MIN KABI 302335Z 30008KT 10SM CLR 28/09 A2957 2120 31 4100 290/08 RMK AO2 T02780094
13962KABI ABI20160330174010403/30/16 17:40:31  5-MIN KABI 302340Z 30007KT 10SM CLR 27/10 A2957 2120 33 4000 290/07 RMK AO2 T02720100
13962KABI ABI20160330174510403/30/16 17:45:31  5-MIN KABI 302345Z 28005KT 10SM CLR 28/10 A2957 2120 32 4100 280/05 RMK AO2 T02780100
13962KABI ABI20160330175013103/30/16 17:50:31  5-MIN KABI 302350Z 29007KT 9SM FEW100 27/10 A2957 2120 33 4000 290/07 RMK AO2 SLP987 T02720100 10289 20244 56031
13962KABI ABI20160330175510603/30/16 17:55:31  5-MIN KABI 302355Z 28003KT 8SM FEW100 27/11 A2957 2120 34 4000 270/03 RMK AO2 T02720106
13962KABI ABI20160330180010603/30/16 18:00:31  5-MIN KABI 310000Z 23005KT 9SM FEW100 27/11 A2957 2120 34 4000 230/05 RMK AO2 T02720106
13962KABI ABI20160330180510703/30/16 18:05:31  5-MIN KABI 310005Z 23004KT 10SM FEW100 27/11 A2957 2120 36 4000 230/04 RMK AO2 T02670106
13962KABI ABI20160330181010703/30/16 18:10:31  5-MIN KABI 310010Z 27003KT 10SM FEW100 27/10 A2957 2120 33 4000 270/03 RMK AO2 T02720100
13962KABI ABI20160330181510703/30/16 18:15:31  5-MIN KABI 310015Z 25003KT 10SM FEW100 27/10 A2957 2110 33 4000 250/03 RMK AO2 T02720100
13962KABI ABI20160330182010703/30/16 18:20:31  5-MIN KABI 310020Z 23005KT 10SM FEW100 27/11 A2958 2110 36 4000 220/05 RMK AO2 T02670106
13962KABI ABI20160330182510703/30/16 18:25:31  5-MIN KABI 310025Z 23004KT 10SM FEW100 26/11 A2958 2110 37 3900 230/04 RMK AO2 T02610106
13962KABI ABI20160330183010703/30/16 18:30:31  5-MIN KABI 310030Z 23003KT 10SM FEW100 26/11 A2958 2110 37 3900 230/03 RMK AO2 T02610106
13962KABI ABI20160330183510703/30/16 18:35:31  5-MIN KABI 310035Z 26004KT 10SM FEW100 27/10 A2958 2110 34 4000 250/04 RMK AO2 T02670100
13962KABI ABI20160330184010703/30/16 18:40:31  5-MIN KABI 310040Z 25003KT 10SM FEW100 26/10 A2958 2110 36 3900 240/03 RMK AO2 T02610100
13962KABI ABI20160330184510703/30/16 18:45:31  5-MIN KABI 310045Z 24003KT 10SM FEW100 26/10 A2958 2110 36 3900 230/03 RMK AO2 T02610100
13962KABI ABI20160330185011103/30/16 18:50:31  5-MIN KABI 310050Z 23003KT 10SM CLR 26/10 A2958 2110 36 3900 220/03 RMK AO2 SLP991 T02610100
13962KABI ABI20160330185510403/30/16 18:55:31  5-MIN KABI 310055Z 00000KT 10SM CLR 26/10 A2958 2110 36 3900 000/00 RMK AO2 T02610100
13962KABI ABI20160330190010403/30/16 19:00:31  5-MIN KABI 310100Z 21003KT 10SM CLR 26/09 A2958 2110 35 3800 210/03 RMK AO2 T02560094
13962KABI ABI20160330190510403/30/16 19:05:31  5-MIN KABI 310105Z 20004KT 10SM CLR 25/09 A2958 2110 37 3800 200/04 RMK AO2 T02500094
13962KABI ABI20160330191010403/30/16 19:10:31  5-MIN KABI 310110Z 18005KT 10SM CLR 25/09 A2958 2110 37 3800 180/05 RMK AO2 T02500094
13962KABI ABI20160330191510403/30/16 19:15:31  5-MIN KABI 310115Z 17005KT 10SM CLR 23/11 A2958 2110 44 3600 170/05 RMK AO2 T02330106
13962KABI ABI20160330192010403/30/16 19:20:31  5-MIN KABI 310120Z 18005KT 10SM CLR 23/11 A2959 2100 45 3500 170/05 RMK AO2 T02280106
13962KABI ABI20160330192510403/30/16 19:25:31  5-MIN KABI 310125Z 17005KT 10SM CLR 23/11 A2959 2100 44 3600 170/05 RMK AO2 T02330106
13962KABI ABI20160330193010403/30/16 19:30:31  5-MIN KABI 310130Z 18005KT 10SM CLR 23/11 A2959 2100 45 3500 170/05 RMK AO2 T02280106
13962KABI ABI20160330193510403/30/16 19:35:31  5-MIN KABI 310135Z 18005KT 10SM CLR 23/11 A2959 2100 44 3600 180/05 RMK AO2 T02330106
13962KABI ABI20160330194010403/30/16 19:40:31  5-MIN KABI 310140Z 18005KT 10SM CLR 23/10 A2959 2100 42 3600 170/05 RMK AO2 T02330100
13962KABI ABI20160330194510403/30/16 19:45:31  5-MIN KABI 310145Z 18004KT 10SM CLR 24/10 A2959 2100 41 3600 180/04 RMK AO2 T02390100
13962KABI ABI20160330195011103/30/16 19:50:31  5-MIN KABI 310150Z 19004KT 10SM CLR 23/10 A2959 2100 42 3600 180/04 RMK AO2 SLP999 T02330100
13962KABI ABI20160330195510403/30/16 19:55:31  5-MIN KABI 310155Z 16003KT 10SM CLR 23/10 A2960 2090 44 3500 150/03 RMK AO2 T02280100
13962KABI ABI20160330200010403/30/16 20:00:31  5-MIN KABI 310200Z 16005KT 10SM CLR 23/10 A2960 2090 42 3600 160/05 RMK AO2 T02330100
13962KABI ABI20160330200510403/30/16 20:05:31  5-MIN KABI 310205Z 15007KT 10SM CLR 22/10 A2960 2090 45 3400 150/07 RMK AO2 T02220100
13962KABI ABI20160330201010403/30/16 20:10:31  5-MIN KABI 310210Z 17004KT 10SM CLR 21/10 A2960 2090 48 3300 160/04 RMK AO2 T02110100
13962KABI ABI20160330201510403/30/16 20:15:31  5-MIN KABI 310215Z 17005KT 10SM CLR 21/10 A2961 2090 50 3200 170/05 RMK AO2 T02060100
13962KABI ABI20160330202010403/30/16 20:20:31  5-MIN KABI 310220Z 17006KT 10SM CLR 20/10 A2961 2080 52 3200 160/06 RMK AO2 T02000100
13962KABI ABI20160330202510403/30/16 20:25:31  5-MIN KABI 310225Z 18008KT 10SM CLR 20/11 A2961 2080 54 3200 170/08 RMK AO2 T02000106
13962KABI ABI20160330203010403/30/16 20:30:31  5-MIN KABI 310230Z 18006KT 10SM CLR 19/11 A2961 2080 56 3100 180/06 RMK AO2 T01940106
13962KABI ABI20160330203510403/30/16 20:35:31  5-MIN KABI 310235Z 18006KT 10SM CLR 20/11 A2961 2080 54 3200 180/06 RMK AO2 T02000106
13962KABI ABI20160330204010403/30/16 20:40:31  5-MIN KABI 310240Z 17006KT 10SM CLR 21/11 A2962 2070 52 3200 170/06 RMK AO2 T02060106
13962KABI ABI20160330204510403/30/16 20:45:31  5-MIN KABI 310245Z 17006KT 10SM CLR 20/11 A2962 2070 54 3200 170/06 RMK AO2 T02000106
13962KABI ABI20160330205011703/30/16 20:50:31  5-MIN KABI 310250Z 18005KT 10SM CLR 21/11 A2962 2070 52 3200 180/05 RMK AO2 SLP010 T02060106 55013
13962KABI ABI20160330205510403/30/16 20:55:31  5-MIN KABI 310255Z 21003KT 10SM CLR 19/11 A2963 2060 56 3100 200/03 RMK AO2 T01940106
13962KABI ABI20160330210011103/30/16 21:00:31  5-MIN KABI 310300Z 00000KT 10SM CLR 19/11 A2964 2050 58 3000 000/00 RMK AO2 PRESRR T01890106
13962KABI ABI20160330210510403/30/16 21:05:31  5-MIN KABI 310305Z 00000KT 10SM CLR 20/11 A2964 2050 54 3100 000/00 RMK AO2 T02000106
13962KABI ABI20160330211010403/30/16 21:10:31  5-MIN KABI 310310Z 00000KT 10SM CLR 21/11 A2964 2050 50 3300 000/00 RMK AO2 T02110106
13962KABI ABI20160330211510403/30/16 21:15:31  5-MIN KABI 310315Z 00000KT 10SM CLR 22/11 A2964 2050 49 3300 000/00 RMK AO2 T02170106
13962KABI ABI20160330212010403/30/16 21:20:31  5-MIN KABI 310320Z 10004KT 10SM CLR 21/11 A2965 2050 52 3200 100/04 RMK AO2 T02060106
13962KABI ABI20160330212510403/30/16 21:25:31  5-MIN KABI 310325Z 10006KT 10SM CLR 19/11 A2964 2050 56 3100 100/06 RMK AO2 T01940106
13962KABI ABI20160330213010403/30/16 21:30:31  5-MIN KABI 310330Z 12006KT 10SM CLR 18/11 A2964 2050 60 2900 110/06 RMK AO2 T01830106
13962KABI ABI20160330213510403/30/16 21:35:31  5-MIN KABI 310335Z 13004KT 10SM CLR 18/11 A2965 2050 60 2900 120/04 RMK AO2 T01830106
13962KABI ABI20160330214010403/30/16 21:40:31  5-MIN KABI 310340Z 13004KT 10SM CLR 19/10 A2965 2050 54 3100 120/04 RMK AO2 T01940100
13962KABI ABI20160330214510403/30/16 21:45:31  5-MIN KABI 310345Z 14005KT 10SM CLR 20/10 A2965 2050 52 3100 130/05 RMK AO2 T02000100
13962KABI ABI20160330215011103/30/16 21:50:31  5-MIN KABI 310350Z 13005KT 10SM CLR 19/10 A2965 2050 54 3100 120/05 RMK AO2 SLP018 T01940100
13962KABI ABI20160330215510403/30/16 21:55:31  5-MIN KABI 310355Z 14004KT 10SM CLR 19/10 A2965 2040 56 3000 130/04 RMK AO2 T01890100
13962KABI ABI20160330220010403/30/16 22:00:31  5-MIN KABI 310400Z 13004KT 10SM CLR 19/10 A2965 2040 54 3100 120/04 RMK AO2 T01940100
13962KABI ABI20160330220510403/30/16 22:05:31  5-MIN KABI 310405Z 00000KT 10SM CLR 19/11 A2965 2040 56 3100 000/00 RMK AO2 T01940106
13962KABI ABI20160330221010403/30/16 22:10:31  5-MIN KABI 310410Z 00000KT 10SM CLR 19/11 A2965 2040 56 3100 000/00 RMK AO2 T01940106
13962KABI ABI20160330221510403/30/16 22:15:31  5-MIN KABI 310415Z 08003KT 10SM CLR 20/10 A2965 2040 52 3100 070/03 RMK AO2 T02000100
13962KABI ABI20160330222010403/30/16 22:20:31  5-MIN KABI 310420Z 00000KT 10SM CLR 20/10 A2966 2040 52 3100 000/00 RMK AO2 T02000100
13962KABI ABI20160330222510403/30/16 22:25:31  5-MIN KABI 310425Z 00000KT 10SM CLR 20/08 A2966 2040 46 3100 000/00 RMK AO2 T02000083
13962KABI ABI20160330223010403/30/16 22:30:31  5-MIN KABI 310430Z 00000KT 10SM CLR 19/09 A2966 2030 52 3100 000/00 RMK AO2 T01940094
13962KABI ABI20160330223510403/30/16 22:35:31  5-MIN KABI 310435Z 00000KT 10SM CLR 20/09 A2966 2030 50 3100 000/00 RMK AO2 T02000094
13962KABI ABI20160330224010403/30/16 22:40:31  5-MIN KABI 310440Z VRB03KT 10SM CLR 19/09 A2966 2030 52 3000 VRB/03 RMK AO2 T01890089
13962KABI ABI20160330224510403/30/16 22:45:31  5-MIN KABI 310445Z 00000KT 10SM CLR 19/08 A2966 2030 48 3000 000/00 RMK AO2 T01890078
13962KABI ABI20160330225011103/30/16 22:50:31  5-MIN KABI 310450Z 00000KT 10SM CLR 20/07 A2966 2030 41 3100 000/00 RMK AO2 SLP021 T02000067
13962KABI ABI20160330225510403/30/16 22:55:31  5-MIN KABI 310455Z 00000KT 10SM CLR 20/07 A2967 2030 41 3100 000/00 RMK AO2 T02000067
13962KABI ABI20160330230010403/30/16 23:00:31  5-MIN KABI 310500Z 00000KT 10SM CLR 18/07 A2967 2030 48 2900 000/00 RMK AO2 T01780067
13962KABI ABI20160330230510403/30/16 23:05:31  5-MIN KABI 310505Z 00000KT 10SM CLR 18/06 A2967 2030 44 2900 000/00 RMK AO2 T01830061
13962KABI ABI20160330231010403/30/16 23:10:31  5-MIN KABI 310510Z 00000KT 10SM CLR 19/05 A2967 2030 38 3100 000/00 RMK AO2 T01940050
13962KABI ABI20160330231510403/30/16 23:15:31  5-MIN KABI 310515Z 22004KT 10SM CLR 19/06 A2967 2030 41 3000 220/04 RMK AO2 T01890056
13962KABI ABI20160330232010403/30/16 23:20:31  5-MIN KABI 310520Z 20004KT 10SM CLR 17/07 A2967 2030 51 2700 190/04 RMK AO2 T01670067
13962KABI ABI20160330232510403/30/16 23:25:31  5-MIN KABI 310525Z 20004KT 10SM CLR 16/08 A2967 2030 62 2600 190/04 RMK AO2 T01560083
13962KABI ABI20160330233010403/30/16 23:30:31  5-MIN KABI 310530Z 20005KT 10SM CLR 16/08 A2967 2030 59 2600 200/05 RMK AO2 T01560078
13962KABI ABI20160330233510403/30/16 23:35:31  5-MIN KABI 310535Z 22004KT 10SM CLR 16/08 A2967 2030 59 2600 220/04 RMK AO2 T01560078
13962KABI ABI20160330234010403/30/16 23:40:31  5-MIN KABI 310540Z 24004KT 10SM CLR 16/07 A2967 2030 57 2600 230/04 RMK AO2 T01560072
13962KABI ABI20160330234510403/30/16 23:45:31  5-MIN KABI 310545Z 23004KT 10SM CLR 17/07 A2967 2030 53 2700 230/04 RMK AO2 T01670072
13962KABI ABI20160330235013903/30/16 23:50:31  5-MIN KABI 310550Z 24005KT 10SM CLR 17/07 A2967 2030 51 2700 240/05 RMK AO2 SLP026 T01670067 10272 20150 402890150 53019
13962KABI ABI20160330235510403/30/16 23:55:31  5-MIN KABI 310555Z 24005KT 10SM CLR 17/06 A2967 2020 49 2700 240/05 RMK AO2 T01670061
13962KABI ABI20160331000010403/31/16 00:00:31  5-MIN KABI 310600Z 23003KT 10SM CLR 16/06 A2967 2020 51 2700 230/03 RMK AO2 T01610061
13962KABI ABI20160331000510403/31/16 00:05:31  5-MIN KABI 310605Z 00000KT 10SM CLR 16/07 A2968 2020 53 2700 000/00 RMK AO2 T01610067
13962KABI ABI20160331001010403/31/16 00:10:31  5-MIN KABI 310610Z 00000KT 10SM CLR 16/07 A2968 2020 55 2700 000/00 RMK AO2 T01610072
13962KABI ABI20160331001510403/31/16 00:15:31  5-MIN KABI 310615Z 00000KT 10SM CLR 17/07 A2968 2020 51 2700 000/00 RMK AO2 T01670067
13962KABI ABI20160331002010403/31/16 00:20:31  5-MIN KABI 310620Z 00000KT 10SM CLR 16/07 A2968 2010 55 2600 000/00 RMK AO2 T01610072
13962KABI ABI20160331002510403/31/16 00:25:31  5-MIN KABI 310625Z 19003KT 10SM CLR 16/07 A2968 2010 55 2600 180/03 RMK AO2 T01560067
13962KABI ABI20160331003010403/31/16 00:30:31  5-MIN KABI 310630Z 20003KT 10SM CLR 16/07 A2968 2010 55 2600 200/03 RMK AO2 T01560067
13962KABI ABI20160331003510403/31/16 00:35:31  5-MIN KABI 310635Z 20005KT 10SM CLR 15/07 A2969 2010 57 2500 190/05 RMK AO2 T01500067
13962KABI ABI20160331004010703/31/16 00:40:31  5-MIN KABI 310640Z 21004KT 10SM FEW085 14/06 A2968 2010 57 2500 210/04 RMK AO2 T01440061
13962KABI ABI20160331004510703/31/16 00:45:31  5-MIN KABI 310645Z 23004KT 10SM SCT085 15/06 A2969 2010 53 2500 220/04 RMK AO2 T01500056
13962KABI ABI20160331005011403/31/16 00:50:31  5-MIN KABI 310650Z 24005KT 10SM BKN090 15/06 A2969 2010 55 2500 230/05 RMK AO2 SLP031 T01500061
13962KABI ABI20160331005510703/31/16 00:55:31  5-MIN KABI 310655Z 26006KT 10SM BKN085 15/06 A2969 2010 53 2500 250/06 RMK AO2 T01500056
13962KABI ABI20160331010010703/31/16 01:00:31  5-MIN KABI 310700Z 28007KT 10SM BKN085 15/06 A2969 2000 53 2500 280/07 RMK AO2 T01500056
13962KABI ABI20160331010510703/31/16 01:05:31  5-MIN KABI 310705Z 31009KT 10SM BKN085 14/06 A2969 2000 55 2400 300/09 RMK AO2 T01440056
13962KABI ABI20160331011010703/31/16 01:10:31  5-MIN KABI 310710Z 30009KT 10SM SCT085 15/06 A2970 2000 53 2500 300/09 RMK AO2 T01500056
13962KABI ABI20160331011510703/31/16 01:15:31  5-MIN KABI 310715Z 30009KT 10SM SCT085 15/05 A2970 2000 51 2500 300/09 RMK AO2 T01500050
13962KABI ABI20160331012010703/31/16 01:20:31  5-MIN KABI 310720Z 30009KT 10SM SCT080 16/04 A2970 2000 45 2600 300/09 RMK AO2 T01560039
13962KABI ABI20160331012510703/31/16 01:25:31  5-MIN KABI 310725Z 30007KT 10SM SCT080 16/04 A2970 2000 45 2600 290/07 RMK AO2 T01560039
13962KABI ABI20160331013010703/31/16 01:30:31  5-MIN KABI 310730Z 31009KT 10SM FEW080 16/03 A2970 2000 42 2600 300/09 RMK AO2 T01560028
13962KABI ABI20160331013510703/31/16 01:35:31  5-MIN KABI 310735Z 31010KT 10SM FEW080 16/03 A2970 2000 42 2600 310/10 RMK AO2 T01560028
13962KABI ABI20160331014010703/31/16 01:40:31  5-MIN KABI 310740Z 32011KT 10SM FEW080 16/03 A2970 2000 42 2600 310/11 RMK AO2 T01560028
13962KABI ABI20160331014510703/31/16 01:45:31  5-MIN KABI 310745Z 32013KT 10SM FEW085 16/02 A2970 2000 40 2600 320/13 RMK AO2 T01560022
13962KABI ABI20160331015011403/31/16 01:50:31  5-MIN KABI 310750Z 32011KT 10SM FEW085 16/02 A2971 1990 39 2600 310/11 RMK AO2 SLP037 T01610022
13962KABI ABI20160331015510403/31/16 01:55:31  5-MIN KABI 310755Z 32012KT 10SM CLR 16/02 A2971 1990 37 2600 320/12 RMK AO2 T01610017
13962KABI ABI20160331020010403/31/16 02:00:31  5-MIN KABI 310800Z 32011KT 10SM CLR 16/02 A2971 1990 39 2600 310/11 RMK AO2 T01560017
13962KABI ABI20160331020510403/31/16 02:05:31  5-MIN KABI 310805Z 32011KT 10SM CLR 16/01 A2971 1990 37 2600 310/11 RMK AO2 T01560011
13962KABI ABI20160331021010403/31/16 02:10:31  5-MIN KABI 310810Z 32010KT 10SM CLR 16/01 A2971 1990 36 2600 310/10 RMK AO2 T01560006
13962KABI ABI20160331021510403/31/16 02:15:31  5-MIN KABI 310815Z 31011KT 10SM CLR 16/01 A2972 1980 36 2500 310/11 RMK AO2 T01560006
13962KABI ABI20160331022010403/31/16 02:20:31  5-MIN KABI 310820Z 31010KT 10SM CLR 16/01 A2972 1980 36 2500 310/10 RMK AO2 T01560006
13962KABI ABI20160331022510403/31/16 02:25:31  5-MIN KABI 310825Z 31009KT 10SM CLR 15/01 A2972 1980 37 2500 310/09 RMK AO2 T01500006
13962KABI ABI20160331023010403/31/16 02:30:31  5-MIN KABI 310830Z 31009KT 10SM CLR 15/01 A2972 1980 37 2500 310/09 RMK AO2 T01500006
13962KABI ABI20160331023510403/31/16 02:35:31  5-MIN KABI 310835Z 31010KT 10SM CLR 15/00 A2972 1980 35 2500 300/10 RMK AO2 T01500000
13962KABI ABI20160331024010403/31/16 02:40:31  5-MIN KABI 310840Z 30009KT 10SM CLR 14/00 A2972 1980 37 2400 300/09 RMK AO2 T01440000
13962KABI ABI20160331024510403/31/16 02:45:31  5-MIN KABI 310845Z 31008KT 10SM CLR 14/00 A2972 1980 37 2400 300/08 RMK AO2 T01440000
13962KABI ABI20160331025011803/31/16 02:50:31  5-MIN KABI 310850Z 31008KT 10SM CLR 14/M01 A2972 1980 35 2400 300/08 RMK AO2 SLP042 T01441006 51013
13962KABI ABI20160331025510503/31/16 02:55:31  5-MIN KABI 310855Z 31007KT 10SM CLR 14/M01 A2972 1980 37 2300 300/07 RMK AO2 T01391006
13962KABI ABI20160331030010503/31/16 03:00:31  5-MIN KABI 310900Z 31006KT 10SM CLR 14/M01 A2972 1980 37 2300 300/06 RMK AO2 T01391006
13962KABI ABI20160331030510403/31/16 03:05:31  5-MIN KABI 310905Z 32006KT 10SM CLR 13/00 A2972 1980 40 2300 310/06 RMK AO2 T01330000
13962KABI ABI20160331031010403/31/16 03:10:31  5-MIN KABI 310910Z 32006KT 10SM CLR 13/00 A2972 1980 40 2300 310/06 RMK AO2 T01330000
13962KABI ABI20160331031510503/31/16 03:15:31  5-MIN KABI 310915Z 32008KT 10SM CLR 13/M01 A2972 1980 38 2300 320/08 RMK AO2 T01331006
13962KABI ABI20160331032010503/31/16 03:20:31  5-MIN KABI 310920Z 33009KT 10SM CLR 14/M01 A2972 1980 35 2400 320/09 RMK AO2 T01391011
13962KABI ABI20160331032510503/31/16 03:25:31  5-MIN KABI 310925Z 33009KT 10SM CLR 14/M01 A2972 1980 35 2400 320/09 RMK AO2 T01391011
13962KABI ABI20160331033010503/31/16 03:30:31  5-MIN KABI 310930Z 33009KT 10SM CLR 13/M01 A2972 1980 36 2300 320/09 RMK AO2 T01331011
13962KABI ABI20160331033510503/31/16 03:35:31  5-MIN KABI 310935Z 32009KT 10SM CLR 13/M02 A2972 1980 35 2300 320/09 RMK AO2 T01331017
13962KABI ABI20160331034010503/31/16 03:40:31  5-MIN KABI 310940Z 33008KT 10SM CLR 13/M01 A2972 1980 36 2300 320/08 RMK AO2 T01331011
13962KABI ABI20160331034510503/31/16 03:45:31  5-MIN KABI 310945Z 32007KT 10SM CLR 13/M01 A2972 1980 39 2200 320/07 RMK AO2 T01281006
13962KABI ABI20160331035011203/31/16 03:50:31  5-MIN KABI 310950Z 33006KT 10SM CLR 12/M01 A2972 1980 41 2100 320/06 RMK AO2 SLP044 T01221006
13962KABI ABI20160331035510503/31/16 03:55:31  5-MIN KABI 310955Z 32006KT 10SM CLR 12/M01 A2972 1980 41 2100 320/06 RMK AO2 T01221006
13962KABI ABI20160331040010503/31/16 04:00:31  5-MIN KABI 311000Z 32005KT 10SM CLR 12/M01 A2972 1980 41 2100 310/05 RMK AO2 T01221006
13962KABI ABI20160331040510403/31/16 04:05:31  5-MIN KABI 311005Z 31005KT 10SM CLR 12/00 A2972 1980 43 2100 310/05 RMK AO2 T01220000
13962KABI ABI20160331041010403/31/16 04:10:31  5-MIN KABI 311010Z 32006KT 10SM CLR 12/00 A2973 1970 44 2100 310/06 RMK AO2 T01170000
13962KABI ABI20160331041510403/31/16 04:15:31  5-MIN KABI 311015Z 32006KT 10SM CLR 11/01 A2973 1970 48 2000 320/06 RMK AO2 T01110006
13962KABI ABI20160331042010703/31/16 04:20:31  5-MIN KABI 311020Z 32007KT 10SM FEW095 12/01 A2973 1970 46 2100 320/07 RMK AO2 T01170006
13962KABI ABI20160331042510703/31/16 04:25:31  5-MIN KABI 311025Z 33009KT 10SM FEW095 12/00 A2973 1970 43 2100 320/09 RMK AO2 T01220000
13962KABI ABI20160331043011203/31/16 04:30:31  5-MIN KABI 311030Z AUTO 33010KT 10SM FEW095 12/00 A2973 1970 43 2100 320/10 RMK AO2 T01220000
13962KABI ABI20160331043511803/31/16 04:35:31  5-MIN KABI 311035Z AUTO 33009KT 10SM SCT095 13/M01 A2973 1970 39 2200 320/09 RMK AO2 T01281006 TSNO
13962KABI ABI20160331044011803/31/16 04:40:31  5-MIN KABI 311040Z AUTO 33009KT 10SM BKN095 13/M01 A2974 1960 39 2200 320/09 RMK AO2 T01281006 TSNO
13962KABI ABI20160331044511803/31/16 04:45:31  5-MIN KABI 311045Z AUTO 32010KT 10SM BKN100 13/M01 A2974 1960 36 2300 320/10 RMK AO2 T01331011 TSNO
13962KABI ABI20160331045012503/31/16 04:50:31  5-MIN KABI 311050Z AUTO 33011KT 10SM BKN100 13/M01 A2974 1960 36 2300 320/11 RMK AO2 SLP048 T01331011 TSNO
13962KABI ABI20160331045511803/31/16 04:55:31  5-MIN KABI 311055Z AUTO 33011KT 10SM OVC100 13/M01 A2973 1960 36 2300 320/11 RMK AO2 T01331011 TSNO
13962KABI ABI20160331050011803/31/16 05:00:31  5-MIN KABI 311100Z AUTO 33009KT 10SM BKN100 13/M01 A2973 1960 38 2200 320/09 RMK AO2 T01281011 TSNO
13962KABI ABI20160331050511803/31/16 05:05:31  5-MIN KABI 311105Z AUTO 32008KT 10SM BKN100 12/M01 A2974 1960 41 2100 310/08 RMK AO2 T01221006 TSNO
13962KABI ABI20160331051011803/31/16 05:10:31  5-MIN KABI 311110Z AUTO 32008KT 10SM BKN100 13/M01 A2974 1960 38 2200 320/08 RMK AO2 T01281011 TSNO
13962KABI ABI20160331051511803/31/16 05:15:31  5-MIN KABI 311115Z AUTO 32008KT 10SM BKN100 13/M01 A2974 1960 38 2200 320/08 RMK AO2 T01281011 TSNO
13962KABI ABI20160331052011803/31/16 05:20:31  5-MIN KABI 311120Z AUTO 32008KT 10SM BKN100 12/M01 A2974 1960 39 2100 320/08 RMK AO2 T01221011 TSNO
13962KABI ABI20160331052511803/31/16 05:25:31  5-MIN KABI 311125Z AUTO 32008KT 10SM BKN100 12/M01 A2974 1960 41 2100 320/08 RMK AO2 T01221006 TSNO
13962KABI ABI20160331053011803/31/16 05:30:31  5-MIN KABI 311130Z AUTO 32008KT 10SM BKN110 12/M01 A2975 1950 39 2100 320/08 RMK AO2 T01221011 TSNO
13962KABI ABI20160331053511803/31/16 05:35:31  5-MIN KABI 311135Z AUTO 33008KT 10SM BKN110 12/M01 A2975 1950 39 2100 320/08 RMK AO2 T01221011 TSNO
13962KABI ABI20160331054011803/31/16 05:40:31  5-MIN KABI 311140Z AUTO 33009KT 10SM BKN110 12/M01 A2975 1950 39 2100 320/09 RMK AO2 T01221011 TSNO
13962KABI ABI20160331054511803/31/16 05:45:31  5-MIN KABI 311145Z AUTO 33008KT 10SM BKN110 12/M01 A2975 1950 41 2000 320/08 RMK AO2 T01171011 TSNO
13962KABI ABI20160331055014303/31/16 05:50:31  5-MIN KABI 311150Z AUTO 32008KT 10SM SCT110 12/M01 A2976 1940 41 2000 320/08 RMK AO2 SLP058 T01171011 10167 20111 51016 TSNO
13962KABI ABI20160331055511803/31/16 05:55:31  5-MIN KABI 311155Z AUTO 32007KT 10SM SCT110 11/M01 A2977 1940 42 2000 310/07 RMK AO2 T01111011 TSNO
13962KABI ABI20160331060011803/31/16 06:00:31  5-MIN KABI 311200Z AUTO 32006KT 10SM SCT100 11/M02 A2977 1930 41 2000 320/06 RMK AO2 T01111017 TSNO
13962KABI ABI20160331060511803/31/16 06:05:31  5-MIN KABI 311205Z AUTO 32007KT 10SM BKN100 11/M01 A2977 1930 42 2000 320/07 RMK AO2 T01111011 TSNO
13962KABI ABI20160331061011803/31/16 06:10:31  5-MIN KABI 311210Z AUTO 32006KT 10SM BKN100 12/M01 A2978 1930 41 2000 310/06 RMK AO2 T01171011 TSNO
13962KABI ABI20160331061511803/31/16 06:15:31  5-MIN KABI 311215Z AUTO 32006KT 10SM BKN110 12/M01 A2978 1920 41 2000 320/06 RMK AO2 T01171011 TSNO
13962KABI ABI20160331062011803/31/16 06:20:31  5-MIN KABI 311220Z AUTO 32005KT 10SM OVC110 12/M01 A2978 1920 41 2000 310/05 RMK AO2 T01171011 TSNO
13962KABI ABI20160331062511803/31/16 06:25:31  5-MIN KABI 311225Z AUTO 32006KT 10SM OVC110 12/M01 A2978 1920 42 2000 310/06 RMK AO2 T01171006 TSNO
13962KABI ABI20160331063011803/31/16 06:30:31  5-MIN KABI 311230Z AUTO 33008KT 10SM OVC100 12/M01 A2979 1920 41 2000 320/08 RMK AO2 T01171011 TSNO
13962KABI ABI20160331063511803/31/16 06:35:31  5-MIN KABI 311235Z AUTO 34008KT 10SM BKN100 12/M01 A2979 1910 41 2000 330/08 RMK AO2 T01171011 TSNO
13962KABI ABI20160331064010803/31/16 06:40:31  5-MIN KABI 311240Z 34008KT 10SM BKN100 11/M01 A2979 1910 42 1900 330/08 RMK AO2 T01111011
13962KABI ABI20160331064510803/31/16 06:45:31  5-MIN KABI 311245Z 34009KT 10SM BKN100 11/M01 A2980 1910 42 1900 330/09 RMK AO2 T01111011
13962KABI ABI20160331065011503/31/16 06:50:31  5-MIN KABI 311250Z 34009KT 10SM SCT100 11/M01 A2980 1900 42 1900 340/09 RMK AO2 SLP072 T01111011
13962KABI ABI20160331065510803/31/16 06:55:31  5-MIN KABI 311255Z 34008KT 10SM FEW100 11/M01 A2980 1900 42 1900 340/08 RMK AO2 T01111011
13962KABI ABI20160331070010803/31/16 07:00:31  5-MIN KABI 311300Z 34009KT 10SM FEW100 11/M01 A2980 1900 42 1900 340/09 RMK AO2 T01111011
13962KABI ABI20160331070510803/31/16 07:05:31  5-MIN KABI 311305Z 34010KT 10SM FEW100 11/M01 A2980 1900 42 1900 340/10 RMK AO2 T01111011
13962KABI ABI20160331071010503/31/16 07:10:31  5-MIN KABI 311310Z 34009KT 10SM CLR 11/M01 A2981 1900 44 1900 330/09 RMK AO2 T01061011
13962KABI ABI20160331071510503/31/16 07:15:31  5-MIN KABI 311315Z 34009KT 10SM CLR 11/M01 A2981 1900 46 1900 330/09 RMK AO2 T01061006
13962KABI ABI20160331072010403/31/16 07:20:31  5-MIN KABI 311320Z 34009KT 10SM CLR 11/00 A2981 1890 46 1900 330/09 RMK AO2 T01110000
13962KABI ABI20160331072510403/31/16 07:25:31  5-MIN KABI 311325Z 34009KT 10SM CLR 12/00 A2981 1890 44 2000 330/09 RMK AO2 T01170000
13962KABI ABI20160331073010403/31/16 07:30:31  5-MIN KABI 311330Z 33008KT 10SM CLR 12/00 A2981 1890 43 2000 330/08 RMK AO2 T01220000
13962KABI ABI20160331073510403/31/16 07:35:31  5-MIN KABI 311335Z 32007KT 10SM CLR 12/00 A2981 1890 43 2000 320/07 RMK AO2 T01220000
13962KABI ABI20160331074010503/31/16 07:40:31  5-MIN KABI 311340Z 34013KT 10SM CLR 13/M01 A2981 1890 39 2100 330/13 RMK AO2 T01281006
13962KABI ABI20160331074510403/31/16 07:45:31  5-MIN KABI 311345Z 34014KT 10SM CLR 13/00 A2981 1890 41 2100 330/14 RMK AO2 T01280000
13962KABI ABI20160331075011103/31/16 07:50:31  5-MIN KABI 311350Z 34012KT 10SM CLR 13/00 A2981 1890 41 2100 340/12 RMK AO2 SLP078 T01280000
13962KABI ABI20160331075510403/31/16 07:55:31  5-MIN KABI 311355Z 34014KT 10SM CLR 13/01 A2981 1890 43 2100 340/14 RMK AO2 T01280006
13962KABI ABI20160331080010403/31/16 08:00:31  5-MIN KABI 311400Z 34015KT 10SM CLR 13/01 A2982 1890 41 2200 330/15 RMK AO2 T01330006
13962KABI ABI20160331080510403/31/16 08:05:31  5-MIN KABI 311405Z 34015KT 10SM CLR 13/01 A2982 1890 41 2200 330/15 RMK AO2 T01330006
13962KABI ABI20160331081010403/31/16 08:10:31  5-MIN KABI 311410Z 34014KT 10SM CLR 13/01 A2982 1890 41 2200 330/14 RMK AO2 T01330006
13962KABI ABI20160331081510403/31/16 08:15:31  5-MIN KABI 311415Z 33013KT 10SM CLR 14/01 A2982 1880 41 2200 330/13 RMK AO2 T01390011
13962KABI ABI20160331082010403/31/16 08:20:31  5-MIN KABI 311420Z 33016KT 10SM CLR 13/01 A2983 1880 43 2200 320/16 RMK AO2 T01330011
13962KABI ABI20160331082510403/31/16 08:25:31  5-MIN KABI 311425Z 34014KT 10SM CLR 13/01 A2983 1880 41 2200 340/14 RMK AO2 T01330006
13962KABI ABI20160331083010403/31/16 08:30:31  5-MIN KABI 311430Z 33014KT 10SM CLR 14/01 A2983 1870 41 2200 320/14 RMK AO2 T01390011
13962KABI ABI20160331083510403/31/16 08:35:31  5-MIN KABI 311435Z 34015KT 10SM CLR 14/01 A2984 1870 41 2200 330/15 RMK AO2 T01390011
13962KABI ABI20160331084010403/31/16 08:40:31  5-MIN KABI 311440Z 35013KT 10SM CLR 14/01 A2984 1860 41 2200 340/13 RMK AO2 T01390011
13962KABI ABI20160331084510403/31/16 08:45:31  5-MIN KABI 311445Z 34015KT 10SM CLR 14/02 A2985 1860 41 2300 330/15 RMK AO2 T01440017
13962KABI ABI20160331085011703/31/16 08:50:31  5-MIN KABI 311450Z 34012KT 10SM CLR 14/01 A2985 1860 40 2300 330/12 RMK AO2 SLP090 T01440011 53014
13962KABI ABI20160331085510703/31/16 08:55:31  5-MIN KABI 311455Z 35016KT 10SM FEW120 14/01 A2985 1860 40 2300 340/16 RMK AO2 T01440011
13962KABI ABI20160331090010703/31/16 09:00:31  5-MIN KABI 311500Z 34013KT 10SM FEW120 14/01 A2985 1860 40 2200 340/13 RMK AO2 T01390006
13962KABI ABI20160331090510703/31/16 09:05:31  5-MIN KABI 311505Z 35012KT 10SM FEW120 13/01 A2985 1860 41 2100 350/12 RMK AO2 T01330006
13962KABI ABI20160331091010703/31/16 09:10:31  5-MIN KABI 311510Z 34012KT 10SM FEW120 13/01 A2985 1850 43 2100 330/12 RMK AO2 T01280006
13962KABI ABI20160331091510703/31/16 09:15:31  5-MIN KABI 311515Z 33012KT 10SM FEW120 13/01 A2986 1850 41 2100 330/12 RMK AO2 T01330006
13962KABI ABI20160331092010703/31/16 09:20:31  5-MIN KABI 311520Z 35012KT 10SM FEW120 14/01 A2985 1850 40 2300 350/12 RMK AO2 T01440011
13962KABI ABI20160331092510403/31/16 09:25:31  5-MIN KABI 311525Z 34011KT 10SM CLR 14/01 A2985 1860 38 2300 330/11 RMK AO2 T01440006
13962KABI ABI20160331093010403/31/16 09:30:31  5-MIN KABI 311530Z 35011KT 10SM CLR 14/01 A2985 1860 40 2300 340/11 RMK AO2 T01440011
13962KABI ABI20160331093510403/31/16 09:35:31  5-MIN KABI 311535Z 35013KT 10SM CLR 14/01 A2985 1860 38 2300 340/13 RMK AO2 T01440006
13962KABI ABI20160331094010403/31/16 09:40:31  5-MIN KABI 311540Z 35012KT 10SM CLR 15/01 A2985 1850 37 2300 350/12 RMK AO2 T01500006
13962KABI ABI20160331094510403/31/16 09:45:31  5-MIN KABI 311545Z 36013KT 10SM CLR 15/01 A2986 1850 37 2300 360/13 RMK AO2 T01500006
13962KABI ABI20160331095011103/31/16 09:50:31  5-MIN KABI 311550Z 01011KT 10SM CLR 14/01 A2986 1850 38 2300 360/11 RMK AO2 SLP094 T01440006
13962KABI ABI20160331095511003/31/16 09:55:31  5-MIN KABI 311555Z 36012G18KT 10SM CLR 15/01 A2986 1850 37 2300 360/12G18 RMK AO2 T01500006
13962KABI ABI20160331100011003/31/16 10:00:31  5-MIN KABI 311600Z 35011G18KT 10SM CLR 15/01 A2986 1850 37 2300 340/11G18 RMK AO2 T01500006
13962KABI ABI20160331100510403/31/16 10:05:31  5-MIN KABI 311605Z 01011KT 10SM CLR 15/01 A2986 1850 37 2300 360/11 RMK AO2 T01500006
13962KABI ABI20160331101010403/31/16 10:10:31  5-MIN KABI 311610Z 36009KT 10SM CLR 16/01 A2986 1850 37 2400 360/09 RMK AO2 T01560011
13962KABI ABI20160331101510403/31/16 10:15:31  5-MIN KABI 311615Z 34011KT 10SM CLR 16/01 A2986 1850 37 2400 340/11 RMK AO2 T01560011
13962KABI ABI20160331102010403/31/16 10:20:31  5-MIN KABI 311620Z 35009KT 10SM CLR 16/01 A2985 1850 36 2400 350/09 RMK AO2 T01560006
13962KABI ABI20160331102511003/31/16 10:25:31  5-MIN KABI 311625Z 01011G18KT 10SM CLR 16/01 A2985 1850 36 2500 360/11G18 RMK AO2 T01610011
13962KABI ABI20160331103011003/31/16 10:30:31  5-MIN KABI 311630Z 01012G18KT 10SM CLR 16/01 A2985 1850 37 2400 360/12G18 RMK AO2 T01560011
13962KABI ABI20160331103510403/31/16 10:35:31  5-MIN KABI 311635Z 01010KT 10SM CLR 16/01 A2985 1850 37 2400 010/10 RMK AO2 T01560011
13962KABI ABI20160331104010403/31/16 10:40:31  5-MIN KABI 311640Z 35010KT 10SM CLR 16/01 A2985 1850 37 2400 340/10 RMK AO2 T01560011
13962KABI ABI20160331104510403/31/16 10:45:31  5-MIN KABI 311645Z 01011KT 10SM CLR 16/01 A2985 1850 36 2500 360/11 RMK AO2 T01610011
13962KABI ABI20160331105011103/31/16 10:50:31  5-MIN KABI 311650Z 35011KT 10SM CLR 17/01 A2986 1850 34 2500 340/11 RMK AO2 SLP093 T01670011
13962KABI ABI20160331105510403/31/16 10:55:31  5-MIN KABI 311655Z 35009KT 10SM CLR 17/02 A2986 1850 36 2500 340/09 RMK AO2 T01670017
13962KABI ABI20160331110010403/31/16 11:00:31  5-MIN KABI 311700Z 01010KT 10SM CLR 17/02 A2986 1850 36 2500 010/10 RMK AO2 T01670017
13962KABI ABI20160331110510403/31/16 11:05:31  5-MIN KABI 311705Z 33011KT 10SM CLR 17/02 A2986 1850 36 2500 330/11 RMK AO2 T01670017
13962KABI ABI20160331111010403/31/16 11:10:31  5-MIN KABI 311710Z 36012KT 10SM CLR 17/01 A2986 1850 34 2500 350/12 RMK AO2 T01670011
13962KABI ABI20160331111511003/31/16 11:15:31  5-MIN KABI 311715Z 35011G17KT 10SM CLR 17/01 A2985 1850 34 2500 340/11G17 RMK AO2 T01670011
13962KABI ABI20160331112011003/31/16 11:20:31  5-MIN KABI 311720Z 35010G17KT 10SM CLR 17/02 A2985 1860 35 2600 340/10G17 RMK AO2 T01720017
13962KABI ABI20160331112510403/31/16 11:25:31  5-MIN KABI 311725Z 34010KT 10SM CLR 17/02 A2985 1860 35 2600 340/10 RMK AO2 T01720017
13962KABI ABI20160331113010403/31/16 11:30:31  5-MIN KABI 311730Z 33010KT 10SM CLR 17/02 A2985 1860 35 2600 320/10 RMK AO2 T01720017
13962KABI ABI20160331113510403/31/16 11:35:31  5-MIN KABI 311735Z 34010KT 10SM CLR 17/01 A2985 1860 34 2500 340/10 RMK AO2 T01670011
13962KABI ABI20160331114010403/31/16 11:40:31  5-MIN KABI 311740Z 01008KT 10SM CLR 17/02 A2985 1860 35 2600 010/08 RMK AO2 T01720017
13962KABI ABI20160331114510403/31/16 11:45:31  5-MIN KABI 311745Z 33010KT 10SM CLR 18/02 A2984 1860 35 2700 330/10 RMK AO2 T01780022
13962KABI ABI20160331115012903/31/16 11:50:31  5-MIN KABI 311750Z 01009KT 10SM CLR 18/02 A2985 1860 33 2700 360/09 RMK AO2 SLP090 T01780017 10178 20106 51027
13962KABI ABI20160331115510403/31/16 11:55:31  5-MIN KABI 311755Z 35010KT 10SM CLR 18/02 A2984 1860 33 2700 350/10 RMK AO2 T01780017
13962KABI ABI20160331120010403/31/16 12:00:31  5-MIN KABI 311800Z 36010KT 10SM CLR 18/01 A2984 1860 32 2700 350/10 RMK AO2 T01780011
13962KABI ABI20160331120511003/31/16 12:05:31  5-MIN KABI 311805Z 35009G15KT 10SM CLR 18/02 A2984 1870 34 2700 350/09G15 RMK AO2 T01830022
13962KABI ABI20160331121011003/31/16 12:10:31  5-MIN KABI 311810Z 35010G15KT 10SM CLR 18/02 A2984 1870 33 2700 350/10G15 RMK AO2 T01780017
13962KABI ABI20160331121511003/31/16 12:15:31  5-MIN KABI 311815Z 34007G15KT 10SM CLR 18/02 A2984 1870 33 2700 330/07G15 RMK AO2 T01780017
13962KABI ABI20160331122010403/31/16 12:20:31  5-MIN KABI 311820Z 34010KT 10SM CLR 18/02 A2983 1870 32 2700 330/10 RMK AO2 T01830017
13962KABI ABI20160331122510403/31/16 12:25:31  5-MIN KABI 311825Z 34010KT 10SM CLR 18/02 A2983 1880 33 2700 330/10 RMK AO2 T01780017
13962KABI ABI20160331123010403/31/16 12:30:31  5-MIN KABI 311830Z 35010KT 10SM CLR 18/02 A2983 1880 32 2700 350/10 RMK AO2 T01830017
13962KABI ABI20160331123510403/31/16 12:35:31  5-MIN KABI 311835Z 33010KT 10SM CLR 18/02 A2983 1880 32 2700 320/10 RMK AO2 T01830017
13962KABI ABI20160331124012003/31/16 12:40:31  5-MIN KABI 311840Z 01007KT 330V030 10SM CLR 18/02 A2982 1880 32 2700 010/07 330V030 RMK AO2 T01830017
13962KABI ABI20160331124510403/31/16 12:45:31  5-MIN KABI 311845Z 33007KT 10SM CLR 19/02 A2982 1880 32 2800 330/07 RMK AO2 T01890022
13962KABI ABI20160331125011103/31/16 12:50:31  5-MIN KABI 311850Z 34008KT 10SM CLR 19/02 A2982 1890 32 2800 340/08 RMK AO2 SLP081 T01890022
13962KABI ABI20160331125512003/31/16 12:55:31  5-MIN KABI 311855Z 33009KT 300V010 10SM CLR 19/02 A2982 1890 31 2800 330/09 300V010 RMK AO2 T01890017
13962KABI ABI20160331130012003/31/16 13:00:31  5-MIN KABI 311900Z 01008KT 340V050 10SM CLR 19/01 A2982 1890 30 2800 010/08 340V050 RMK AO2 T01890011
13962KABI ABI20160331130510403/31/16 13:05:31  5-MIN KABI 311905Z 36009KT 10SM CLR 19/02 A2982 1890 32 2800 350/09 RMK AO2 T01890022
13962KABI ABI20160331131010403/31/16 13:10:31  5-MIN KABI 311910Z 35006KT 10SM CLR 19/02 A2981 1890 30 2900 350/06 RMK AO2 T01940017
13962KABI ABI20160331131509403/31/16 13:15:31  5-MIN KABI 311915Z 10SM CLR 19/02 A2981 1890 30 2900 M /M RMK AO2 T01940017
13962KABI ABI20160331132010403/31/16 13:20:31  5-MIN KABI 311920Z 33007KT 10SM CLR 19/02 A2981 1900 30 2900 330/07 RMK AO2 T01940017
13962KABI ABI20160331132510403/31/16 13:25:31  5-MIN KABI 311925Z 36011KT 10SM CLR 19/02 A2981 1900 31 2900 350/11 RMK AO2 T01940022
13962KABI ABI20160331133010403/31/16 13:30:31  5-MIN KABI 311930Z 34007KT 10SM CLR 19/02 A2980 1900 31 2900 340/07 RMK AO2 T01940022
13962KABI ABI20160331133511003/31/16 13:35:31  5-MIN KABI 311935Z 34010G15KT 10SM CLR 20/02 A2980 1900 30 3000 340/10G15 RMK AO2 T02000022
13962KABI ABI20160331134011003/31/16 13:40:31  5-MIN KABI 311940Z 35005G15KT 10SM CLR 19/02 A2980 1900 30 2900 340/05G15 RMK AO2 T01940017
13962KABI ABI20160331134510403/31/16 13:45:31  5-MIN KABI 311945Z 32007KT 10SM CLR 20/01 A2980 1900 28 3000 320/07 RMK AO2 T02000011
13962KABI ABI20160331135011103/31/16 13:50:31  5-MIN KABI 311950Z 01010KT 10SM CLR 20/02 A2980 1900 29 3000 010/10 RMK AO2 SLP074 T02000017
13962KABI ABI20160331135511003/31/16 13:55:31  5-MIN KABI 311955Z 34011G14KT 10SM CLR 20/02 A2980 1910 29 3000 340/11G14 RMK AO2 T02000017
13962KABI ABI20160331140010403/31/16 14:00:31  5-MIN KABI 312000Z 34008KT 10SM CLR 19/01 A2980 1910 29 2900 340/08 RMK AO2 T01940011
13962KABI ABI20160331140511003/31/16 14:05:31  5-MIN KABI 312005Z 35011G14KT 10SM CLR 21/02 A2980 1910 28 3000 340/11G14 RMK AO2 T02060017
13962KABI ABI20160331141011003/31/16 14:10:31  5-MIN KABI 312010Z 35008G14KT 10SM CLR 21/02 A2979 1910 29 3000 340/08G14 RMK AO2 T02060022
13962KABI ABI20160331141510403/31/16 14:15:31  5-MIN KABI 312015Z 34010KT 10SM CLR 21/02 A2979 1910 28 3000 340/10 RMK AO2 T02060017
13962KABI ABI20160331142009403/31/16 14:20:31  5-MIN KABI 312020Z 10SM CLR 20/02 A2979 1910 29 3000 M /M RMK AO2 T02000017
13962KABI ABI20160331142510403/31/16 14:25:31  5-MIN KABI 312025Z 36009KT 10SM CLR 21/02 A2979 1920 28 3000 360/09 RMK AO2 T02060017
13962KABI ABI20160331143010403/31/16 14:30:31  5-MIN KABI 312030Z 36010KT 10SM CLR 21/02 A2978 1920 29 3000 360/10 RMK AO2 T02060022
13962KABI ABI20160331143510403/31/16 14:35:31  5-MIN KABI 312035Z 01008KT 10SM CLR 21/02 A2978 1920 28 3000 010/08 RMK AO2 T02060017
13962KABI ABI20160331144010403/31/16 14:40:31  5-MIN KABI 312040Z 03009KT 10SM CLR 21/01 A2978 1920 27 3000 020/09 RMK AO2 T02060011
13962KABI ABI20160331144510403/31/16 14:45:31  5-MIN KABI 312045Z VRB05KT 10SM CLR 21/02 A2978 1930 28 3100 VRB/05 RMK AO2 T02110022
13962KABI ABI20160331145013303/31/16 14:50:31  5-MIN KABI 312050Z 03007KT 350V050 10SM CLR 21/02 A2977 1930 27 3100 020/07 350V050 RMK AO2 SLP066 T02110017 50000
13962KABI ABI20160331145510403/31/16 14:55:31  5-MIN KABI 312055Z 01009KT 10SM CLR 21/02 A2977 1930 27 3100 010/09 RMK AO2 T02110017
13962KABI ABI20160331150010403/31/16 15:00:31  5-MIN KABI 312100Z 33008KT 10SM CLR 21/02 A2977 1930 27 3100 330/08 RMK AO2 T02110017
13962KABI ABI20160331150510403/31/16 15:05:31  5-MIN KABI 312105Z 36005KT 10SM CLR 21/02 A2977 1930 28 3100 350/05 RMK AO2 T02110022
13962KABI ABI20160331151010403/31/16 15:10:31  5-MIN KABI 312110Z 01010KT 10SM CLR 21/02 A2977 1930 28 3100 360/10 RMK AO2 T02110022
13962KABI ABI20160331151510403/31/16 15:15:31  5-MIN KABI 312115Z VRB04KT 10SM CLR 21/02 A2977 1930 27 3100 VRB/04 RMK AO2 T02110017
13962KABI ABI20160331152010403/31/16 15:20:31  5-MIN KABI 312120Z 01006KT 10SM CLR 21/02 A2977 1940 27 3100 010/06 RMK AO2 T02110017
13962KABI ABI20160331152510403/31/16 15:25:31  5-MIN KABI 312125Z 04006KT 10SM CLR 22/02 A2977 1930 26 3200 040/06 RMK AO2 T02170017
13962KABI ABI20160331153010403/31/16 15:30:31  5-MIN KABI 312130Z 03006KT 10SM CLR 21/01 A2977 1940 26 3100 020/06 RMK AO2 T02110011
13962KABI ABI20160331153510403/31/16 15:35:31  5-MIN KABI 312135Z 04006KT 10SM CLR 22/02 A2976 1940 26 3200 040/06 RMK AO2 T02170017
13962KABI ABI20160331154010403/31/16 15:40:31  5-MIN KABI 312140Z 01006KT 10SM CLR 22/02 A2976 1940 27 3200 010/06 RMK AO2 T02170022
13962KABI ABI20160331154509403/31/16 15:45:31  5-MIN KABI 312145Z 10SM CLR 21/02 A2976 1940 27 3100 M /M RMK AO2 T02110017
13962KABI ABI20160331155011103/31/16 15:50:31  5-MIN KABI 312150Z 02007KT 10SM CLR 22/01 A2976 1940 25 3200 020/07 RMK AO2 SLP062 T02170011
13962KABI ABI20160331155511003/31/16 15:55:31  5-MIN KABI 312155Z 01010G15KT 10SM CLR 22/01 A2976 1940 25 3200 010/10G15 RMK AO2 T02170011
13962KABI ABI20160331160011003/31/16 16:00:31  5-MIN KABI 312200Z 01007G15KT 10SM CLR 22/02 A2976 1940 26 3200 010/07G15 RMK AO2 T02170017
13962KABI ABI20160331160510403/31/16 16:05:31  5-MIN KABI 312205Z 34003KT 10SM CLR 21/01 A2977 1940 25 3100 340/03 RMK AO2 T02110006
13962KABI ABI20160331161010403/31/16 16:10:31  5-MIN KABI 312210Z VRB04KT 10SM CLR 22/01 A2977 1930 25 3200 VRB/04 RMK AO2 T02170011
13962KABI ABI20160331161510403/31/16 16:15:31  5-MIN KABI 312215Z 35005KT 10SM CLR 21/01 A2977 1930 25 3100 340/05 RMK AO2 T02110006
13962KABI ABI20160331162010403/31/16 16:20:31  5-MIN KABI 312220Z VRB03KT 10SM CLR 22/01 A2977 1930 24 3200 VRB/03 RMK AO2 T02170006
13962KABI ABI20160331162510403/31/16 16:25:31  5-MIN KABI 312225Z 00000KT 10SM CLR 22/01 A2977 1930 24 3200 000/00 RMK AO2 T02170006
13962KABI ABI20160331163010403/31/16 16:30:31  5-MIN KABI 312230Z 00000KT 10SM CLR 22/01 A2977 1930 24 3200 000/00 RMK AO2 T02170006
13962KABI ABI20160331163510403/31/16 16:35:31  5-MIN KABI 312235Z VRB03KT 10SM CLR 22/01 A2977 1930 24 3200 VRB/03 RMK AO2 T02170006
13962KABI ABI20160331164010403/31/16 16:40:31  5-MIN KABI 312240Z 03005KT 10SM CLR 22/01 A2977 1930 24 3200 030/05 RMK AO2 T02170006
13962KABI ABI20160331164510403/31/16 16:45:31  5-MIN KABI 312245Z 36005KT 10SM CLR 22/01 A2978 1930 24 3200 360/05 RMK AO2 T02170006
13962KABI ABI20160331165011103/31/16 16:50:31  5-MIN KABI 312250Z 04006KT 10SM CLR 22/01 A2978 1920 24 3200 040/06 RMK AO2 SLP067 T02170006
13962KABI ABI20160331165510403/31/16 16:55:31  5-MIN KABI 312255Z VRB03KT 10SM CLR 22/00 A2978 1920 23 3200 VRB/03 RMK AO2 T02170000
13962KABI ABI20160331170010403/31/16 17:00:31  5-MIN KABI 312300Z 34009KT 10SM CLR 22/01 A2978 1920 24 3200 340/09 RMK AO2 T02170006
13962KABI ABI20160331170510403/31/16 17:05:31  5-MIN KABI 312305Z 36009KT 10SM CLR 22/00 A2979 1920 23 3200 350/09 RMK AO2 T02170000
13962KABI ABI20160331171010403/31/16 17:10:31  5-MIN KABI 312310Z 36006KT 10SM CLR 21/00 A2979 1910 24 3100 350/06 RMK AO2 T02110000
13962KABI ABI20160331171510403/31/16 17:15:31  5-MIN KABI 312315Z 01005KT 10SM CLR 22/00 A2979 1910 23 3200 010/05 RMK AO2 T02170000
13962KABI ABI20160331172010403/31/16 17:20:31  5-MIN KABI 312320Z 34005KT 10SM CLR 21/00 A2979 1910 24 3100 330/05 RMK AO2 T02110000
13962KABI ABI20160331172510503/31/16 17:25:31  5-MIN KABI 312325Z 02004KT 10SM CLR 21/M01 A2980 1910 23 3100 010/04 RMK AO2 T02111006
13962KABI ABI20160331173010403/31/16 17:30:31  5-MIN KABI 312330Z 36006KT 10SM CLR 22/00 A2979 1910 23 3200 360/06 RMK AO2 T02170000
13962KABI ABI20160331173510403/31/16 17:35:31  5-MIN KABI 312335Z 35008KT 10SM CLR 21/00 A2980 1910 24 3100 350/08 RMK AO2 T02110000
13962KABI ABI20160331174010403/31/16 17:40:31  5-MIN KABI 312340Z 35008KT 10SM CLR 21/00 A2980 1910 24 3100 340/08 RMK AO2 T02110000
13962KABI ABI20160331174510503/31/16 17:45:31  5-MIN KABI 312345Z 35005KT 10SM CLR 21/M01 A2980 1910 23 3100 350/05 RMK AO2 T02111006
13962KABI ABI20160331175013003/31/16 17:50:31  5-MIN KABI 312350Z 36005KT 10SM CLR 21/M01 A2980 1900 23 3100 350/05 RMK AO2 SLP075 T02111006 10217 20178 56023
13962KABI ABI20160331175510403/31/16 17:55:31  5-MIN KABI 312355Z 36007KT 10SM CLR 21/00 A2980 1900 24 3100 350/07 RMK AO2 T02110000
13962KABI ABI20160331180010503/31/16 18:00:31  5-MIN KABI 010000Z VRB05KT 10SM CLR 21/M01 A2980 1900 23 3100 VRB/05 RMK AO2 T02111006
13962KABI ABI20160331180510503/31/16 18:05:31  5-MIN KABI 010005Z 04008KT 10SM CLR 21/M01 A2980 1900 24 3000 030/08 RMK AO2 T02061006
13962KABI ABI20160331181010403/31/16 18:10:31  5-MIN KABI 010010Z 04005KT 10SM CLR 21/00 A2980 1900 25 3000 040/05 RMK AO2 T02060000
13962KABI ABI20160331181510403/31/16 18:15:31  5-MIN KABI 010015Z 04007KT 10SM CLR 21/00 A2980 1900 25 3000 040/07 RMK AO2 T02060000
13962KABI ABI20160331182010403/31/16 18:20:31  5-MIN KABI 010020Z 03006KT 10SM CLR 20/00 A2981 1900 26 3000 030/06 RMK AO2 T02000000
13962KABI ABI20160331182510403/31/16 18:25:31  5-MIN KABI 010025Z 04006KT 10SM CLR 20/01 A2981 1900 27 3000 040/06 RMK AO2 T02000006
13962KABI ABI20160331183010403/31/16 18:30:31  5-MIN KABI 010030Z 04006KT 10SM CLR 20/00 A2981 1900 26 3000 040/06 RMK AO2 T02000000
13962KABI ABI20160331183510403/31/16 18:35:31  5-MIN KABI 010035Z 04005KT 10SM CLR 20/00 A2981 1900 26 3000 040/05 RMK AO2 T02000000
13962KABI ABI20160331184010403/31/16 18:40:31  5-MIN KABI 010040Z 05005KT 10SM CLR 19/01 A2981 1900 28 2900 040/05 RMK AO2 T01940006
13962KABI ABI20160331184510403/31/16 18:45:31  5-MIN KABI 010045Z 05006KT 10SM CLR 19/01 A2981 1900 29 2800 040/06 RMK AO2 T01890006
13962KABI ABI20160331185011103/31/16 18:50:31  5-MIN KABI 010050Z 04005KT 10SM CLR 19/01 A2981 1900 29 2800 040/05 RMK AO2 SLP081 T01890006
13962KABI ABI20160331185510403/31/16 18:55:31  5-MIN KABI 010055Z 05007KT 10SM CLR 19/01 A2981 1900 29 2800 040/07 RMK AO2 T01890006
13962KABI ABI20160331190010403/31/16 19:00:31  5-MIN KABI 010100Z 05006KT 10SM CLR 19/01 A2981 1890 29 2800 040/06 RMK AO2 T01890006
13962KABI ABI20160331190510403/31/16 19:05:31  5-MIN KABI 010105Z 05006KT 10SM CLR 18/01 A2981 1890 30 2800 050/06 RMK AO2 T01830006
13962KABI ABI20160331191010403/31/16 19:10:31  5-MIN KABI 010110Z 05007KT 10SM CLR 18/01 A2981 1890 30 2800 050/07 RMK AO2 T01830006
13962KABI ABI20160331191510403/31/16 19:15:31  5-MIN KABI 010115Z 05007KT 10SM CLR 18/00 A2981 1890 29 2800 050/07 RMK AO2 T01830000
13962KABI ABI20160331192010403/31/16 19:20:31  5-MIN KABI 010120Z 05007KT 10SM CLR 18/01 A2981 1890 31 2700 050/07 RMK AO2 T01780006
13962KABI ABI20160331192510403/31/16 19:25:31  5-MIN KABI 010125Z 05007KT 10SM CLR 17/01 A2980 1900 32 2600 040/07 RMK AO2 T01720006
13962KABI ABI20160331193010403/31/16 19:30:31  5-MIN KABI 010130Z 04006KT 10SM CLR 18/00 A2980 1900 30 2700 030/06 RMK AO2 T01780000
13962KABI ABI20160331193510403/31/16 19:35:31  5-MIN KABI 010135Z 04008KT 10SM CLR 18/00 A2980 1900 30 2700 030/08 RMK AO2 T01780000
13962KABI ABI20160331194010403/31/16 19:40:31  5-MIN KABI 010140Z 04007KT 10SM CLR 17/00 A2980 1910 31 2600 040/07 RMK AO2 T01720000
13962KABI ABI20160331194510403/31/16 19:45:31  5-MIN KABI 010145Z 05007KT 10SM CLR 17/00 A2979 1910 31 2600 040/07 RMK AO2 T01720000
13962KABI ABI20160331195011103/31/16 19:50:31  5-MIN KABI 010150Z 04008KT 10SM CLR 17/00 A2979 1910 31 2700 040/08 RMK AO2 SLP076 T01720000
13962KABI ABI20160331195510403/31/16 19:55:31  5-MIN KABI 010155Z 06006KT 10SM CLR 17/00 A2980 1900 31 2600 060/06 RMK AO2 T01720000
13962KABI ABI20160331200010403/31/16 20:00:31  5-MIN KABI 010200Z 06008KT 10SM CLR 16/01 A2980 1900 34 2500 060/08 RMK AO2 T01610006
13962KABI ABI20160331200510403/31/16 20:05:31  5-MIN KABI 010205Z 06008KT 10SM CLR 16/01 A2980 1900 34 2500 060/08 RMK AO2 T01610006
13962KABI ABI20160331201010403/31/16 20:10:31  5-MIN KABI 010210Z 06008KT 10SM CLR 16/01 A2980 1900 37 2400 050/08 RMK AO2 T01560011
13962KABI ABI20160331201510403/31/16 20:15:31  5-MIN KABI 010215Z 06008KT 10SM CLR 16/01 A2980 1900 37 2400 050/08 RMK AO2 T01560011
13962KABI ABI20160331202010403/31/16 20:20:31  5-MIN KABI 010220Z 06008KT 10SM CLR 16/01 A2980 1900 37 2500 050/08 RMK AO2 T01560011
13962KABI ABI20160331202510403/31/16 20:25:31  5-MIN KABI 010225Z 06007KT 10SM CLR 16/01 A2980 1900 37 2500 060/07 RMK AO2 T01560011
13962KABI ABI20160331203010403/31/16 20:30:31  5-MIN KABI 010230Z 06008KT 10SM CLR 16/02 A2980 1900 39 2500 050/08 RMK AO2 T01560017
13962KABI ABI20160331203510403/31/16 20:35:31  5-MIN KABI 010235Z 06007KT 10SM CLR 16/02 A2980 1900 39 2500 060/07 RMK AO2 T01560017
13962KABI ABI20160331204010403/31/16 20:40:31  5-MIN KABI 010240Z 07008KT 10SM CLR 16/02 A2980 1900 39 2400 060/08 RMK AO2 T01560017
13962KABI ABI20160331204510403/31/16 20:45:31  5-MIN KABI 010245Z 08008KT 10SM CLR 16/01 A2981 1900 37 2400 070/08 RMK AO2 T01560011
13962KABI ABI20160331205011703/31/16 20:50:31  5-MIN KABI 010250Z 08009KT 10SM CLR 16/01 A2981 1890 37 2400 070/09 RMK AO2 SLP082 T01560011 53008
13962KABI ABI20160331205510403/31/16 20:55:31  5-MIN KABI 010255Z 08010KT 10SM CLR 16/01 A2981 1900 37 2400 070/10 RMK AO2 T01560011
13962KABI ABI20160331210010403/31/16 21:00:31  5-MIN KABI 010300Z 07010KT 10SM CLR 16/01 A2981 1890 37 2400 070/10 RMK AO2 T01560011
13962KABI ABI20160331210510403/31/16 21:05:31  5-MIN KABI 010305Z 08009KT 10SM CLR 16/01 A2982 1890 37 2400 070/09 RMK AO2 T01560011
13962KABI ABI20160331211010403/31/16 21:10:31  5-MIN KABI 010310Z 08010KT 10SM CLR 16/01 A2982 1890 37 2400 070/10 RMK AO2 T01560011
13962KABI ABI20160331211510403/31/16 21:15:31  5-MIN KABI 010315Z 08010KT 10SM CLR 16/01 A2982 1880 37 2400 080/10 RMK AO2 T01560011
13962KABI ABI20160331212010403/31/16 21:20:31  5-MIN KABI 010320Z 09010KT 10SM CLR 15/01 A2982 1880 38 2400 080/10 RMK AO2 T01500011
13962KABI ABI20160331212510403/31/16 21:25:31  5-MIN KABI 010325Z 10009KT 10SM CLR 15/01 A2983 1880 38 2400 100/09 RMK AO2 T01500011
13962KABI ABI20160331213010403/31/16 21:30:31  5-MIN KABI 010330Z 09009KT 10SM CLR 14/02 A2983 1870 41 2300 090/09 RMK AO2 T01440017
13962KABI ABI20160331213510403/31/16 21:35:31  5-MIN KABI 010335Z 09008KT 10SM CLR 14/02 A2983 1870 41 2300 080/08 RMK AO2 T01440017
13962KABI ABI20160331214010403/31/16 21:40:31  5-MIN KABI 010340Z 09007KT 10SM CLR 14/02 A2984 1870 41 2300 090/07 RMK AO2 T01440017
13962KABI ABI20160331214510403/31/16 21:45:31  5-MIN KABI 010345Z 08009KT 10SM CLR 14/02 A2984 1870 43 2200 080/09 RMK AO2 T01390017
13962KABI ABI20160331215011103/31/16 21:50:31  5-MIN KABI 010350Z 09007KT 10SM CLR 14/02 A2984 1870 43 2200 090/07 RMK AO2 SLP091 T01390017
13962KABI ABI20160331215510403/31/16 21:55:31  5-MIN KABI 010355Z 08007KT 10SM CLR 14/02 A2984 1870 43 2200 080/07 RMK AO2 T01390017
13962KABI ABI20160331220010403/31/16 22:00:31  5-MIN KABI 010400Z 08006KT 10SM CLR 14/02 A2985 1860 43 2200 080/06 RMK AO2 T01390017
13962KABI ABI20160331220510403/31/16 22:05:31  5-MIN KABI 010405Z 08007KT 10SM CLR 14/02 A2985 1860 43 2200 070/07 RMK AO2 T01390017
13962KABI ABI20160331221010403/31/16 22:10:31  5-MIN KABI 010410Z 08009KT 10SM CLR 14/02 A2985 1860 43 2200 080/09 RMK AO2 T01390017
13962KABI ABI20160331221510403/31/16 22:15:31  5-MIN KABI 010415Z 07008KT 10SM CLR 14/02 A2985 1860 43 2200 070/08 RMK AO2 T01390017
13962KABI ABI20160331222010403/31/16 22:20:31  5-MIN KABI 010420Z 07007KT 10SM CLR 14/02 A2985 1860 43 2200 060/07 RMK AO2 T01390017
13962KABI ABI20160331222510403/31/16 22:25:31  5-MIN KABI 010425Z 07007KT 10SM CLR 13/02 A2985 1850 45 2100 060/07 RMK AO2 T01330017
13962KABI ABI20160331223010403/31/16 22:30:31  5-MIN KABI 010430Z 07007KT 10SM CLR 13/02 A2986 1850 45 2100 070/07 RMK AO2 T01330017
13962KABI ABI20160331223510403/31/16 22:35:31  5-MIN KABI 010435Z 07008KT 10SM CLR 13/02 A2986 1850 45 2100 070/08 RMK AO2 T01330017
13962KABI ABI20160331224010403/31/16 22:40:31  5-MIN KABI 010440Z 07007KT 10SM CLR 13/02 A2986 1850 45 2100 070/07 RMK AO2 T01330017
13962KABI ABI20160331224510403/31/16 22:45:31  5-MIN KABI 010445Z 07007KT 10SM CLR 13/02 A2986 1850 45 2100 060/07 RMK AO2 T01330017
13962KABI ABI20160331225011103/31/16 22:50:31  5-MIN KABI 010450Z 06006KT 10SM CLR 13/02 A2986 1850 46 2100 060/06 RMK AO2 SLP097 T01330022
13962KABI ABI20160331225510403/31/16 22:55:31  5-MIN KABI 010455Z 06006KT 10SM CLR 13/02 A2986 1850 46 2100 050/06 RMK AO2 T01330022
13962KABI ABI20160331230010403/31/16 23:00:31  5-MIN KABI 010500Z 06006KT 10SM CLR 13/02 A2986 1850 46 2100 050/06 RMK AO2 T01330022
13962KABI ABI20160331230510403/31/16 23:05:31  5-MIN KABI 010505Z 06006KT 10SM CLR 13/02 A2986 1850 48 2100 050/06 RMK AO2 T01280022
13962KABI ABI20160331231010403/31/16 23:10:31  5-MIN KABI 010510Z 06005KT 10SM CLR 13/02 A2986 1850 46 2100 060/05 RMK AO2 T01330022
13962KABI ABI20160331231510403/31/16 23:15:31  5-MIN KABI 010515Z 07005KT 10SM CLR 13/02 A2987 1840 46 2100 060/05 RMK AO2 T01330022
13962KABI ABI20160331232010403/31/16 23:20:31  5-MIN KABI 010520Z 09006KT 10SM CLR 13/02 A2988 1830 46 2100 090/06 RMK AO2 T01330022
13962KABI ABI20160331232510703/31/16 23:25:31  5-MIN KABI 010525Z 08005KT 10SM FEW120 13/02 A2988 1830 48 2000 080/05 RMK AO2 T01280022
13962KABI ABI20160331233010703/31/16 23:30:31  5-MIN KABI 010530Z 07006KT 10SM SCT110 13/02 A2988 1830 46 2100 060/06 RMK AO2 T01330022
13962KABI ABI20160331233510703/31/16 23:35:31  5-MIN KABI 010535Z 08005KT 10SM BKN110 13/02 A2989 1820 46 2100 070/05 RMK AO2 T01330022
13962KABI ABI20160331234010703/31/16 23:40:31  5-MIN KABI 010540Z 08007KT 10SM BKN110 14/02 A2989 1820 45 2200 080/07 RMK AO2 T01390022
13962KABI ABI20160331234510703/31/16 23:45:31  5-MIN KABI 010545Z 09006KT 10SM BKN110 14/02 A2989 1820 45 2100 080/06 RMK AO2 T01390022
13962KABI ABI20160331235014203/31/16 23:50:31  5-MIN KABI 010550Z 09006KT 10SM OVC110 14/02 A2990 1810 45 2100 080/06 RMK AO2 SLP110 T01390022 10211 20128 402170106 53003
13962KABI ABI20160331235510703/31/16 23:55:31  5-MIN KABI 010555Z 10005KT 10SM OVC110 14/02 A2990 1810 45 2100 100/05 RMK AO2 T01390022
