54779K12N 12N20160301000010003/01/16 00:00:31  5-MIN K12N 010500Z AUTO VRB05KT 06/M02 A2993 580 55 -300 VRB/05 RMK AO1 T00611022
54779K12N 12N20160301000510003/01/16 00:05:31  5-MIN K12N 010505Z AUTO 22006KT 06/M02 A2993 580 55 -300 240/06 RMK AO1 T00611022
54779K12N 12N20160301001010003/01/16 00:10:31  5-MIN K12N 010510Z AUTO 22006KT 06/M02 A2993 570 55 -300 230/06 RMK AO1 T00611022
54779K12N 12N20160301001510003/01/16 00:15:31  5-MIN K12N 010515Z AUTO VRB05KT 06/M02 A2994 570 55 -300 VRB/05 RMK AO1 T00611022
54779K12N 12N20160301002010003/01/16 00:20:31  5-MIN K12N 010520Z AUTO 23005KT 06/M02 A2994 570 55 -300 240/05 RMK AO1 T00611022
54779K12N 12N20160301002510003/01/16 00:25:31  5-MIN K12N 010525Z AUTO VRB04KT 07/M02 A2994 560 53 -200 VRB/04 RMK AO1 T00671022
54779K12N 12N20160301003010003/01/16 00:30:31  5-MIN K12N 010530Z AUTO 00000KT 07/M02 A2995 560 53 -200 000/00 RMK AO1 T00671022
54779K12N 12N20160301003510003/01/16 00:35:31  5-MIN K12N 010535Z AUTO VRB05KT 06/M02 A2995 560 55 -300 VRB/05 RMK AO1 T00611022
54779K12N 12N20160301004010003/01/16 00:40:31  5-MIN K12N 010540Z AUTO VRB05KT 06/M02 A2995 560 55 -300 VRB/05 RMK AO1 T00611022
54779K12N 12N20160301004510003/01/16 00:45:31  5-MIN K12N 010545Z AUTO VRB04KT 06/M02 A2995 560 55 -300 VRB/04 RMK AO1 T00611022
54779K12N 12N20160301005012503/01/16 00:50:31  5-MIN K12N 010550Z AUTO VRB04KT 06/M02 A2995 560 55 -300 VRB/04 RMK AO1 SLP146 T00611022 10083 20050 53022
54779K12N 12N20160301005510003/01/16 00:55:31  5-MIN K12N 010555Z AUTO VRB04KT 06/M02 A2996 550 55 -300 VRB/04 RMK AO1 T00611022
54779K12N 12N20160301010010003/01/16 01:00:31  5-MIN K12N 010600Z AUTO VRB05KT 06/M02 A2996 550 55 -300 VRB/05 RMK AO1 T00611022
54779K12N 12N20160301010510003/01/16 01:05:31  5-MIN K12N 010605Z AUTO VRB05KT 06/M02 A2996 550 55 -300 VRB/05 RMK AO1 T00611022
54779K12N 12N20160301011010003/01/16 01:10:31  5-MIN K12N 010610Z AUTO VRB04KT 06/M02 A2996 550 55 -300 VRB/04 RMK AO1 T00611022
54779K12N 12N20160301011510003/01/16 01:15:31  5-MIN K12N 010615Z AUTO VRB04KT 06/M02 A2996 550 55 -300 VRB/04 RMK AO1 T00611022
54779K12N 12N20160301012010003/01/16 01:20:31  5-MIN K12N 010620Z AUTO 21005KT 06/M02 A2996 550 55 -300 220/05 RMK AO1 T00611022
54779K12N 12N20160301012510003/01/16 01:25:31  5-MIN K12N 010625Z AUTO 23005KT 06/M02 A2996 550 55 -300 240/05 RMK AO1 T00611022
54779K12N 12N20160301013010003/01/16 01:30:31  5-MIN K12N 010630Z AUTO VRB04KT 06/M02 A2996 550 55 -300 VRB/04 RMK AO1 T00611022
54779K12N 12N20160301013510003/01/16 01:35:31  5-MIN K12N 010635Z AUTO VRB04KT 06/M02 A2996 550 55 -300 VRB/04 RMK AO1 T00611022
54779K12N 12N20160301014010003/01/16 01:40:31  5-MIN K12N 010640Z AUTO VRB03KT 06/M02 A2997 540 55 -300 VRB/03 RMK AO1 T00611022
54779K12N 12N20160301014510003/01/16 01:45:31  5-MIN K12N 010645Z AUTO VRB03KT 06/M02 A2997 540 55 -300 VRB/03 RMK AO1 T00611022
54779K12N 12N20160301015010703/01/16 01:50:31  5-MIN K12N 010650Z AUTO VRB03KT 06/M02 A2997 540 57 -400 VRB/03 RMK AO1 SLP152 T00561022
54779K12N 12N20160301015510003/01/16 01:55:31  5-MIN K12N 010655Z AUTO VRB04KT 06/M02 A2997 540 57 -400 VRB/04 RMK AO1 T00561022
54779K12N 12N20160301020010003/01/16 02:00:31  5-MIN K12N 010700Z AUTO 00000KT 06/M02 A2997 540 57 -400 000/00 RMK AO1 T00561022
54779K12N 12N20160301020510003/01/16 02:05:31  5-MIN K12N 010705Z AUTO 00000KT 06/M02 A2998 530 57 -400 000/00 RMK AO1 T00561022
54779K12N 12N20160301021010003/01/16 02:10:31  5-MIN K12N 010710Z AUTO VRB03KT 06/M02 A2998 530 57 -400 VRB/03 RMK AO1 T00561022
54779K12N 12N20160301021510003/01/16 02:15:31  5-MIN K12N 010715Z AUTO VRB03KT 06/M02 A2998 530 57 -400 VRB/03 RMK AO1 T00561022
54779K12N 12N20160301022010003/01/16 02:20:31  5-MIN K12N 010720Z AUTO 00000KT 06/M02 A2998 530 57 -400 000/00 RMK AO1 T00561022
54779K12N 12N20160301022510003/01/16 02:25:31  5-MIN K12N 010725Z AUTO 00000KT 06/M02 A2999 520 57 -400 000/00 RMK AO1 T00561022
54779K12N 12N20160301023010003/01/16 02:30:31  5-MIN K12N 010730Z AUTO 00000KT 06/M02 A3000 510 55 -300 000/00 RMK AO1 T00611022
54779K12N 12N20160301023510703/01/16 02:35:31  5-MIN K12N 010735Z AUTO VRB05KT 06/M02 A3000 510 57 -400 VRB/05 RMK AO1 PRESRR T00561022
54779K12N 12N20160301024010003/01/16 02:40:31  5-MIN K12N 010740Z AUTO VRB05KT 06/M02 A3001 510 59 -400 VRB/05 RMK AO1 T00561017
54779K12N 12N20160301024510003/01/16 02:45:31  5-MIN K12N 010745Z AUTO 01006KT 06/M02 A3001 500 59 -400 020/06 RMK AO1 T00561017
54779K12N 12N20160301025010703/01/16 02:50:31  5-MIN K12N 010750Z AUTO 34005KT 06/M02 A3002 500 59 -400 360/05 RMK AO1 SLP167 T00561017
54779K12N 12N20160301025512203/01/16 02:55:31  5-MIN K12N 010755Z AUTO 36007G14KT 330V040 06/M02 A3002 490 59 -400 010/07G14 340V050 RMK AO1 T00561017
54779K12N 12N20160301030010603/01/16 03:00:31  5-MIN K12N 010800Z AUTO 36005G16KT 05/M02 A3002 500 62 -500 020/05G16 RMK AO1 T00501017
54779K12N 12N20160301030510603/01/16 03:05:31  5-MIN K12N 010805Z AUTO VRB06G16KT 05/M02 A3002 490 62 -500 VRB/06G16 RMK AO1 T00501017
54779K12N 12N20160301031010003/01/16 03:10:31  5-MIN K12N 010810Z AUTO 35007KT 05/M02 A3002 490 59 -500 010/07 RMK AO1 T00501022
54779K12N 12N20160301031510003/01/16 03:15:31  5-MIN K12N 010815Z AUTO VRB04KT 05/M02 A3002 490 59 -500 VRB/04 RMK AO1 T00501022
54779K12N 12N20160301032010003/01/16 03:20:31  5-MIN K12N 010820Z AUTO VRB04KT 04/M02 A3002 500 62 -600 VRB/04 RMK AO1 T00441022
54779K12N 12N20160301032510003/01/16 03:25:31  5-MIN K12N 010825Z AUTO VRB03KT 04/M02 A3002 500 62 -600 VRB/03 RMK AO1 T00441022
54779K12N 12N20160301033010003/01/16 03:30:31  5-MIN K12N 010830Z AUTO 35004KT 04/M02 A3003 490 62 -600 360/04 RMK AO1 T00441022
54779K12N 12N20160301033510003/01/16 03:35:31  5-MIN K12N 010835Z AUTO 00000KT 04/M02 A3003 480 64 -700 000/00 RMK AO1 T00391022
54779K12N 12N20160301034010003/01/16 03:40:31  5-MIN K12N 010840Z AUTO VRB04KT 04/M02 A3004 480 64 -700 VRB/04 RMK AO1 T00391022
54779K12N 12N20160301034510003/01/16 03:45:31  5-MIN K12N 010845Z AUTO VRB04KT 03/M02 A3004 470 67 -700 VRB/04 RMK AO1 T00331022
54779K12N 12N20160301035011303/01/16 03:50:31  5-MIN K12N 010850Z AUTO VRB03KT 04/M03 A3004 470 62 -700 VRB/03 RMK AO1 SLP177 T00391028 53013
54779K12N 12N20160301035510003/01/16 03:55:31  5-MIN K12N 010855Z AUTO 00000KT 03/M03 A3005 470 67 -800 000/00 RMK AO1 T00281028
54779K12N 12N20160301040010003/01/16 04:00:31  5-MIN K12N 010900Z AUTO 00000KT 03/M03 A3005 460 64 -700 000/00 RMK AO1 T00331028
54779K12N 12N20160301040510003/01/16 04:05:31  5-MIN K12N 010905Z AUTO 00000KT 03/M03 A3005 460 67 -800 000/00 RMK AO1 T00281028
54779K12N 12N20160301041010003/01/16 04:10:31  5-MIN K12N 010910Z AUTO 01005KT 03/M03 A3006 460 67 -800 020/05 RMK AO1 T00281028
54779K12N 12N20160301041510003/01/16 04:15:31  5-MIN K12N 010915Z AUTO 01005KT 03/M03 A3006 460 64 -800 020/05 RMK AO1 T00331028
54779K12N 12N20160301042010003/01/16 04:20:31  5-MIN K12N 010920Z AUTO 36003KT 03/M03 A3006 460 67 -800 010/03 RMK AO1 T00281028
54779K12N 12N20160301042510003/01/16 04:25:31  5-MIN K12N 010925Z AUTO 36007KT 02/M03 A3006 460 69 -900 010/07 RMK AO1 T00221028
54779K12N 12N20160301043010003/01/16 04:30:31  5-MIN K12N 010930Z AUTO VRB03KT 03/M03 A3006 450 64 -800 VRB/03 RMK AO1 T00281033
54779K12N 12N20160301043510003/01/16 04:35:31  5-MIN K12N 010935Z AUTO 35005KT 02/M03 A3007 450 69 -900 010/05 RMK AO1 T00221028
54779K12N 12N20160301044010003/01/16 04:40:31  5-MIN K12N 010940Z AUTO 36004KT 03/M03 A3007 450 64 -800 010/04 RMK AO1 T00281033
54779K12N 12N20160301044510003/01/16 04:45:31  5-MIN K12N 010945Z AUTO VRB04KT 02/M03 A3007 450 67 -900 VRB/04 RMK AO1 T00221033
54779K12N 12N20160301045010703/01/16 04:50:31  5-MIN K12N 010950Z AUTO 34005KT 03/M03 A3007 450 64 -800 350/05 RMK AO1 SLP186 T00281033
54779K12N 12N20160301045510003/01/16 04:55:31  5-MIN K12N 010955Z AUTO 36005KT 02/M04 A3007 450 64 -900 010/05 RMK AO1 T00221039
54779K12N 12N20160301050010003/01/16 05:00:31  5-MIN K12N 011000Z AUTO 35004KT 02/M04 A3007 450 64 -900 360/04 RMK AO1 T00221039
54779K12N 12N20160301050510003/01/16 05:05:31  5-MIN K12N 011005Z AUTO VRB06KT 02/M04 A3007 450 64 -900 VRB/06 RMK AO1 T00221039
54779K12N 12N20160301051010003/01/16 05:10:31  5-MIN K12N 011010Z AUTO 35006KT 02/M04 A3008 440 61 -900 360/06 RMK AO1 T00221044
54779K12N 12N20160301051510003/01/16 05:15:31  5-MIN K12N 011015Z AUTO 34004KT 02/M04 A3009 430 61 -900 360/04 RMK AO1 T00221044
54779K12N 12N20160301052010003/01/16 05:20:31  5-MIN K12N 011020Z AUTO 35004KT 02/M04 A3009 430 61 -900 360/04 RMK AO1 T00221044
54779K12N 12N20160301052510103/01/16 05:25:31  5-MIN K12N 011025Z AUTO 35003KT 02/M04 A3009 430 64 -1000 010/03 RMK AO1 T00171044
54779K12N 12N20160301053010103/01/16 05:30:31  5-MIN K12N 011030Z AUTO VRB03KT 02/M04 A3010 420 64 -1000 VRB/03 RMK AO1 T00171044
54779K12N 12N20160301053510103/01/16 05:35:31  5-MIN K12N 011035Z AUTO 01005KT 02/M04 A3010 420 64 -1000 030/05 RMK AO1 T00171044
54779K12N 12N20160301054010103/01/16 05:40:31  5-MIN K12N 011040Z AUTO 02003KT 02/M05 A3010 420 61 -1000 040/03 RMK AO1 T00171050
54779K12N 12N20160301054510103/01/16 05:45:31  5-MIN K12N 011045Z AUTO 36006KT 02/M05 A3010 420 61 -1000 020/06 RMK AO1 T00171050
54779K12N 12N20160301055010803/01/16 05:50:31  5-MIN K12N 011050Z AUTO 35006KT 01/M05 A3010 420 64 -1100 360/06 RMK AO1 SLP201 T00111050
54779K12N 12N20160301055510103/01/16 05:55:31  5-MIN K12N 011055Z AUTO 36005KT 01/M06 A3011 410 61 -1100 010/05 RMK AO1 T00111056
54779K12N 12N20160301060010103/01/16 06:00:31  5-MIN K12N 011100Z AUTO 36004KT 01/M06 A3011 410 61 -1100 010/04 RMK AO1 T00111056
54779K12N 12N20160301060510103/01/16 06:05:31  5-MIN K12N 011105Z AUTO VRB05KT 01/M06 A3011 410 61 -1100 VRB/05 RMK AO1 T00111056
54779K12N 12N20160301061010103/01/16 06:10:31  5-MIN K12N 011110Z AUTO 36005KT 01/M06 A3011 410 61 -1100 010/05 RMK AO1 T00111056
54779K12N 12N20160301061510103/01/16 06:15:31  5-MIN K12N 011115Z AUTO 36005KT 01/M06 A3011 410 63 -1200 020/05 RMK AO1 T00061056
54779K12N 12N20160301062010103/01/16 06:20:31  5-MIN K12N 011120Z AUTO 35005KT 01/M06 A3011 410 63 -1200 010/05 RMK AO1 T00061056
54779K12N 12N20160301062510103/01/16 06:25:31  5-MIN K12N 011125Z AUTO VRB04KT 01/M06 A3011 410 61 -1200 VRB/04 RMK AO1 T00061061
54779K12N 12N20160301063010103/01/16 06:30:31  5-MIN K12N 011130Z AUTO 35006KT 01/M06 A3012 400 61 -1200 360/06 RMK AO1 T00061061
54779K12N 12N20160301063510103/01/16 06:35:31  5-MIN K12N 011135Z AUTO 34004KT 01/M06 A3012 400 61 -1200 360/04 RMK AO1 T00061061
54779K12N 12N20160301064010103/01/16 06:40:31  5-MIN K12N 011140Z AUTO 36003KT 01/M06 A3012 400 61 -1200 020/03 RMK AO1 T00061061
54779K12N 12N20160301064510103/01/16 06:45:31  5-MIN K12N 011145Z AUTO VRB03KT 01/M06 A3012 400 61 -1200 VRB/03 RMK AO1 T00061061
54779K12N 12N20160301065013203/01/16 06:50:31  5-MIN K12N 011150Z AUTO 00000KT 00/M06 A3013 400 63 -1300 000/00 RMK AO1 SLP209 70005 T00001061 10067 20000 53031
54779K12N 12N20160301065510103/01/16 06:55:31  5-MIN K12N 011155Z AUTO 04003KT 00/M06 A3013 390 66 -1300 060/03 RMK AO1 T00001056
54779K12N 12N20160301070010103/01/16 07:00:31  5-MIN K12N 011200Z AUTO 00000KT 00/M06 A3013 390 66 -1300 000/00 RMK AO1 T00001056
54779K12N 12N20160301070510103/01/16 07:05:31  5-MIN K12N 011205Z AUTO VRB03KT 01/M06 A3014 390 63 -1200 VRB/03 RMK AO1 T00061056
54779K12N 12N20160301071010103/01/16 07:10:31  5-MIN K12N 011210Z AUTO VRB04KT 00/M06 A3014 390 66 -1300 VRB/04 RMK AO1 T00001056
54779K12N 12N20160301071510103/01/16 07:15:31  5-MIN K12N 011215Z AUTO VRB04KT 01/M06 A3013 390 63 -1200 VRB/04 RMK AO1 T00061056
54779K12N 12N20160301072010103/01/16 07:20:31  5-MIN K12N 011220Z AUTO 01005KT 01/M06 A3013 390 61 -1200 020/05 RMK AO1 T00061061
54779K12N 12N20160301072510103/01/16 07:25:31  5-MIN K12N 011225Z AUTO VRB04KT 00/M06 A3014 380 63 -1300 VRB/04 RMK AO1 T00001061
54779K12N 12N20160301073010103/01/16 07:30:31  5-MIN K12N 011230Z AUTO VRB06KT 00/M06 A3014 380 63 -1300 VRB/06 RMK AO1 T00001061
54779K12N 12N20160301073510103/01/16 07:35:31  5-MIN K12N 011235Z AUTO VRB04KT 00/M06 A3015 380 63 -1300 VRB/04 RMK AO1 T00001061
54779K12N 12N20160301074010103/01/16 07:40:31  5-MIN K12N 011240Z AUTO VRB05KT 01/M06 A3015 370 61 -1200 VRB/05 RMK AO1 T00061061
54779K12N 12N20160301074510103/01/16 07:45:31  5-MIN K12N 011245Z AUTO 00000KT 01/M06 A3015 370 61 -1200 000/00 RMK AO1 T00061061
54779K12N 12N20160301075010803/01/16 07:50:31  5-MIN K12N 011250Z AUTO VRB03KT 01/M06 A3015 370 61 -1200 VRB/03 RMK AO1 SLP217 T00061061
54779K12N 12N20160301075510103/01/16 07:55:31  5-MIN K12N 011255Z AUTO VRB04KT 01/M06 A3015 370 63 -1200 VRB/04 RMK AO1 T00061056
54779K12N 12N20160301080010103/01/16 08:00:31  5-MIN K12N 011300Z AUTO 03004KT 00/M06 A3015 370 63 -1300 040/04 RMK AO1 T00001061
54779K12N 12N20160301080510103/01/16 08:05:31  5-MIN K12N 011305Z AUTO 03003KT 01/M06 A3016 370 61 -1200 040/03 RMK AO1 T00061061
54779K12N 12N20160301081010103/01/16 08:10:31  5-MIN K12N 011310Z AUTO 00000KT 01/M06 A3016 360 61 -1200 000/00 RMK AO1 T00061061
54779K12N 12N20160301081510103/01/16 08:15:31  5-MIN K12N 011315Z AUTO 04004KT 01/M07 A3017 360 58 -1200 050/04 RMK AO1 T00061067
54779K12N 12N20160301082010103/01/16 08:20:31  5-MIN K12N 011320Z AUTO 04006KT 01/M07 A3017 360 58 -1200 050/06 RMK AO1 T00061067
54779K12N 12N20160301082510103/01/16 08:25:31  5-MIN K12N 011325Z AUTO VRB04KT 01/M07 A3017 360 56 -1200 VRB/04 RMK AO1 T00111067
54779K12N 12N20160301083010103/01/16 08:30:31  5-MIN K12N 011330Z AUTO VRB04KT 01/M07 A3017 360 56 -1200 VRB/04 RMK AO1 T00111067
54779K12N 12N20160301083510103/01/16 08:35:31  5-MIN K12N 011335Z AUTO VRB04KT 01/M07 A3016 360 58 -1200 VRB/04 RMK AO1 T00061067
54779K12N 12N20160301084010103/01/16 08:40:31  5-MIN K12N 011340Z AUTO VRB05KT 01/M07 A3017 360 56 -1200 VRB/05 RMK AO1 T00061072
54779K12N 12N20160301084510103/01/16 08:45:31  5-MIN K12N 011345Z AUTO 04004KT 01/M07 A3017 360 54 -1200 060/04 RMK AO1 T00111072
54779K12N 12N20160301085010803/01/16 08:50:31  5-MIN K12N 011350Z AUTO 05004KT 01/M07 A3017 350 56 -1200 060/04 RMK AO1 SLP225 T00111067
54779K12N 12N20160301085510103/01/16 08:55:31  5-MIN K12N 011355Z AUTO 08003KT 02/M07 A3018 350 54 -1100 100/03 RMK AO1 T00171067
54779K12N 12N20160301090010103/01/16 09:00:31  5-MIN K12N 011400Z AUTO 04005KT 01/M07 A3018 350 54 -1200 050/05 RMK AO1 T00111072
54779K12N 12N20160301090510103/01/16 09:05:31  5-MIN K12N 011405Z AUTO 03004KT 01/M07 A3018 350 54 -1200 040/04 RMK AO1 T00111072
54779K12N 12N20160301091010103/01/16 09:10:31  5-MIN K12N 011410Z AUTO 00000KT 02/M07 A3018 340 52 -1100 000/00 RMK AO1 T00171072
54779K12N 12N20160301091510103/01/16 09:15:31  5-MIN K12N 011415Z AUTO 02004KT 02/M07 A3018 340 52 -1100 030/04 RMK AO1 T00171072
54779K12N 12N20160301092010103/01/16 09:20:31  5-MIN K12N 011420Z AUTO 04005KT 01/M07 A3018 340 54 -1200 050/05 RMK AO1 T00111072
54779K12N 12N20160301092510103/01/16 09:25:31  5-MIN K12N 011425Z AUTO 05004KT 01/M07 A3018 340 54 -1200 060/04 RMK AO1 T00111072
54779K12N 12N20160301093010103/01/16 09:30:31  5-MIN K12N 011430Z AUTO VRB05KT 01/M08 A3019 340 51 -1200 VRB/05 RMK AO1 T00111078
54779K12N 12N20160301093510103/01/16 09:35:31  5-MIN K12N 011435Z AUTO 04006KT 01/M08 A3018 340 51 -1200 060/06 RMK AO1 T00111078
54779K12N 12N20160301094010103/01/16 09:40:31  5-MIN K12N 011440Z AUTO 04006KT 02/M07 A3018 350 52 -1100 050/06 RMK AO1 T00171072
54779K12N 12N20160301094510103/01/16 09:45:31  5-MIN K12N 011445Z AUTO 01005KT 02/M07 A3017 350 52 -1100 020/05 RMK AO1 T00171072
54779K12N 12N20160301095011403/01/16 09:50:31  5-MIN K12N 011450Z AUTO VRB03KT 02/M07 A3018 350 52 -1100 VRB/03 RMK AO1 SLP226 T00171072 51027
54779K12N 12N20160301095510103/01/16 09:55:31  5-MIN K12N 011455Z AUTO 04004KT 02/M08 A3017 350 49 -1100 060/04 RMK AO1 T00171078
54779K12N 12N20160301100010103/01/16 10:00:31  5-MIN K12N 011500Z AUTO VRB04KT 02/M08 A3017 360 47 -1000 VRB/04 RMK AO1 T00221078
54779K12N 12N20160301100510003/01/16 10:05:31  5-MIN K12N 011505Z AUTO VRB03KT 03/M08 A3016 370 46 -900 VRB/03 RMK AO1 T00281078
54779K12N 12N20160301101010103/01/16 10:10:31  5-MIN K12N 011510Z AUTO 00000KT 02/M08 A3016 360 47 -1000 000/00 RMK AO1 T00221078
54779K12N 12N20160301101510003/01/16 10:15:31  5-MIN K12N 011515Z AUTO VRB04KT 03/M08 A3016 360 46 -900 VRB/04 RMK AO1 T00281078
54779K12N 12N20160301102010003/01/16 10:20:31  5-MIN K12N 011520Z AUTO VRB03KT 03/M07 A3016 370 46 -900 VRB/03 RMK AO1 T00331072
54779K12N 12N20160301102510003/01/16 10:25:31  5-MIN K12N 011525Z AUTO 04005KT 03/M08 A3015 370 46 -900 060/05 RMK AO1 T00281078
54779K12N 12N20160301103010003/01/16 10:30:31  5-MIN K12N 011530Z AUTO 03005KT 03/M08 A3015 380 44 -900 040/05 RMK AO1 T00331078
54779K12N 12N20160301103510003/01/16 10:35:31  5-MIN K12N 011535Z AUTO 07005KT 03/M08 A3014 380 42 -900 080/05 RMK AO1 T00331083
54779K12N 12N20160301104010003/01/16 10:40:31  5-MIN K12N 011540Z AUTO VRB03KT 04/M08 A3014 380 42 -800 VRB/03 RMK AO1 T00391078
54779K12N 12N20160301104510003/01/16 10:45:31  5-MIN K12N 011545Z AUTO 36005KT 04/M08 A3014 380 42 -800 010/05 RMK AO1 T00391078
54779K12N 12N20160301105010703/01/16 10:50:31  5-MIN K12N 011550Z AUTO 01004KT 04/M08 A3014 390 42 -800 020/04 RMK AO1 SLP212 T00391078
54779K12N 12N20160301105510003/01/16 10:55:31  5-MIN K12N 011555Z AUTO 36005KT 04/M07 A3013 390 44 -800 010/05 RMK AO1 T00391072
54779K12N 12N20160301110010003/01/16 11:00:31  5-MIN K12N 011600Z AUTO 36004KT 04/M07 A3013 390 42 -700 010/04 RMK AO1 T00441072
54779K12N 12N20160301110510003/01/16 11:05:31  5-MIN K12N 011605Z AUTO 03005KT 04/M07 A3012 400 44 -700 040/05 RMK AO1 T00441067
54779K12N 12N20160301111010703/01/16 11:10:31  5-MIN K12N 011610Z AUTO 01003KT 04/M07 A3011 410 42 -700 020/03 RMK AO1 PRESFR T00441072
54779K12N 12N20160301111510003/01/16 11:15:31  5-MIN K12N 011615Z AUTO 01005KT 04/M07 A3012 410 42 -700 020/05 RMK AO1 T00441072
54779K12N 12N20160301112010003/01/16 11:20:31  5-MIN K12N 011620Z AUTO VRB03KT 05/M07 A3011 410 42 -600 VRB/03 RMK AO1 T00501067
54779K12N 12N20160301112510003/01/16 11:25:31  5-MIN K12N 011625Z AUTO VRB05KT 05/M07 A3011 410 42 -600 VRB/05 RMK AO1 T00501067
54779K12N 12N20160301113010003/01/16 11:30:31  5-MIN K12N 011630Z AUTO 36006KT 05/M07 A3011 410 41 -600 010/06 RMK AO1 T00501072
54779K12N 12N20160301113510003/01/16 11:35:31  5-MIN K12N 011635Z AUTO VRB03KT 06/M07 A3012 400 39 -500 VRB/03 RMK AO1 T00561072
54779K12N 12N20160301114010003/01/16 11:40:31  5-MIN K12N 011640Z AUTO 35005KT 06/M07 A3012 400 39 -600 010/05 RMK AO1 T00561072
54779K12N 12N20160301114510003/01/16 11:45:31  5-MIN K12N 011645Z AUTO 36003KT 06/M07 A3012 400 38 -500 020/03 RMK AO1 T00611072
54779K12N 12N20160301115010703/01/16 11:50:31  5-MIN K12N 011650Z AUTO VRB03KT 07/M07 A3012 400 36 -400 VRB/03 RMK AO1 SLP205 T00671072
54779K12N 12N20160301115510003/01/16 11:55:31  5-MIN K12N 011655Z AUTO 00000KT 07/M07 A3012 400 36 -300 000/00 RMK AO1 T00721067
54779K12N 12N20160301120010003/01/16 12:00:31  5-MIN K12N 011700Z AUTO 36004KT 07/M07 A3011 410 36 -300 010/04 RMK AO1 T00721067
54779K12N 12N20160301120510003/01/16 12:05:31  5-MIN K12N 011705Z AUTO 36003KT 07/M07 A3010 420 35 -300 010/03 RMK AO1 T00721072
54779K12N 12N20160301121010703/01/16 12:10:31  5-MIN K12N 011710Z AUTO 00000KT 08/M07 A3009 430 35 -200 000/00 RMK AO1 PRESFR T00781067
54779K12N 12N20160301121510003/01/16 12:15:31  5-MIN K12N 011715Z AUTO 36003KT 08/M07 A3009 430 35 -200 010/03 RMK AO1 T00781067
54779K12N 12N20160301122010003/01/16 12:20:31  5-MIN K12N 011720Z AUTO 01003KT 08/M07 A3009 430 34 -200 020/03 RMK AO1 T00781072
54779K12N 12N20160301122510003/01/16 12:25:31  5-MIN K12N 011725Z AUTO 03003KT 08/M06 A3008 430 35 -200 050/03 RMK AO1 T00831061
54779K12N 12N20160301123010003/01/16 12:30:31  5-MIN K12N 011730Z AUTO 01003KT 08/M06 A3008 440 37 -200 030/03 RMK AO1 T00831056
54779K12N 12N20160301123510003/01/16 12:35:31  5-MIN K12N 011735Z AUTO VRB03KT 09/M06 A3007 440 35 -100 VRB/03 RMK AO1 T00891056
54779K12N 12N20160301124010003/01/16 12:40:31  5-MIN K12N 011740Z AUTO 00000KT 09/M05 A3007 450 37 -100 000/00 RMK AO1 T00891050
54779K12N 12N20160301124510403/01/16 12:45:31  5-MIN K12N 011745Z AUTO 00000KT 10/M04 A3006 460 36 0 000/00 RMK AO1 PRESFR T01001044
54779K12N 12N20160301125012203/01/16 12:50:31  5-MIN K12N 011750Z AUTO 00000KT 10/M04 A3005 460 36 0 000/00 RMK AO1 SLP181 T01001044 10100 20000 50016
54779K12N 12N20160301125509703/01/16 12:55:31  5-MIN K12N 011755Z AUTO VRB03KT 10/M04 A3005 470 36 0 VRB/03 RMK AO1 T01001044
54779K12N 12N20160301130010603/01/16 13:00:31  5-MIN K12N 011800Z AUTO VRB04KT 11/M03 A3004 480 37 100 VRB/04 RMK AO1 PRESFR T01061033
54779K12N 12N20160301130510403/01/16 13:05:31  5-MIN K12N 011805Z AUTO VRB04KT 10/M03 A3003 480 40 0 VRB/04 RMK AO1 PRESFR T01001028
54779K12N 12N20160301131008903/01/16 13:10:31  5-MIN K12N 011810Z AUTO 11/M03 A3003 480 39 100 M /M RMK AO1 T01061028
54779K12N 12N20160301131509903/01/16 13:15:31  5-MIN K12N 011815Z AUTO 16005KT 11/M03 A3003 480 39 100 170/05 RMK AO1 T01061028
54779K12N 12N20160301132009903/01/16 13:20:31  5-MIN K12N 011820Z AUTO VRB05KT 11/M02 A3003 480 39 200 VRB/05 RMK AO1 T01111022
54779K12N 12N20160301132509903/01/16 13:25:31  5-MIN K12N 011825Z AUTO 19006KT 11/M02 A3003 490 39 200 200/06 RMK AO1 T01111022
54779K12N 12N20160301133009903/01/16 13:30:31  5-MIN K12N 011830Z AUTO 21005KT 11/M02 A3002 490 39 200 220/05 RMK AO1 T01111022
54779K12N 12N20160301133509903/01/16 13:35:31  5-MIN K12N 011835Z AUTO 18008KT 11/M02 A3003 490 39 200 190/08 RMK AO1 T01111022
54779K12N 12N20160301134010503/01/16 13:40:31  5-MIN K12N 011840Z AUTO 21008G14KT 11/M02 A3002 490 39 200 220/08G14 RMK AO1 T01111022
54779K12N 12N20160301134510503/01/16 13:45:31  5-MIN K12N 011845Z AUTO VRB05G14KT 11/M02 A3002 500 41 200 VRB/05G14 RMK AO1 T01111017
54779K12N 12N20160301135010603/01/16 13:50:31  5-MIN K12N 011850Z AUTO VRB03KT 12/M02 A3002 490 38 300 VRB/03 RMK AO1 SLP168 T01171022
54779K12N 12N20160301135509903/01/16 13:55:31  5-MIN K12N 011855Z AUTO 21008KT 12/M02 A3001 500 39 300 220/08 RMK AO1 T01171017
54779K12N 12N20160301140011503/01/16 14:00:31  5-MIN K12N 011900Z AUTO 20007KT 150V230 12/M02 A3001 500 39 300 210/07 160V240 RMK AO1 T01171017
54779K12N 12N20160301140511503/01/16 14:05:31  5-MIN K12N 011905Z AUTO 19008KT 140V220 12/M02 A3001 500 38 300 200/08 150V230 RMK AO1 T01171022
54779K12N 12N20160301141009903/01/16 14:10:31  5-MIN K12N 011910Z AUTO VRB05KT 12/M02 A3001 500 38 300 VRB/05 RMK AO1 T01171022
54779K12N 12N20160301141509903/01/16 14:15:31  5-MIN K12N 011915Z AUTO 18006KT 11/M02 A3000 510 39 200 190/06 RMK AO1 T01111022
54779K12N 12N20160301142010503/01/16 14:20:31  5-MIN K12N 011920Z AUTO 16009G15KT 11/M02 A3001 510 39 200 180/09G15 RMK AO1 T01111022
54779K12N 12N20160301142510503/01/16 14:25:31  5-MIN K12N 011925Z AUTO 16009G15KT 11/M02 A3000 510 39 200 180/09G15 RMK AO1 T01111022
54779K12N 12N20160301143010503/01/16 14:30:31  5-MIN K12N 011930Z AUTO VRB05G15KT 11/M02 A3000 510 39 200 VRB/05G15 RMK AO1 T01111022
54779K12N 12N20160301143510503/01/16 14:35:31  5-MIN K12N 011935Z AUTO 15008G15KT 12/M02 A3000 510 39 300 170/08G15 RMK AO1 T01171017
54779K12N 12N20160301144009903/01/16 14:40:31  5-MIN K12N 011940Z AUTO VRB06KT 11/M02 A3000 510 39 200 VRB/06 RMK AO1 T01111022
54779K12N 12N20160301144510503/01/16 14:45:31  5-MIN K12N 011945Z AUTO 17007G16KT 11/M02 A2999 520 39 200 190/07G16 RMK AO1 T01111022
54779K12N 12N20160301145011203/01/16 14:50:31  5-MIN K12N 011950Z AUTO 16007G16KT 11/M02 A2999 520 39 200 180/07G16 RMK AO1 SLP160 T01111022
54779K12N 12N20160301145510503/01/16 14:55:31  5-MIN K12N 011955Z AUTO 18009G15KT 11/M02 A2999 520 39 200 190/09G15 RMK AO1 T01111022
54779K12N 12N20160301150012103/01/16 15:00:31  5-MIN K12N 012000Z AUTO 17008G14KT 140V210 11/M02 A2998 530 39 200 180/08G14 150V220 RMK AO1 T01111022
54779K12N 12N20160301150510503/01/16 15:05:31  5-MIN K12N 012005Z AUTO 15008G14KT 11/M02 A2998 530 41 200 170/08G14 RMK AO1 T01111017
54779K12N 12N20160301151012103/01/16 15:10:31  5-MIN K12N 012010Z AUTO 16009G16KT 120V210 11/M02 A2998 530 41 200 170/09G16 130V220 RMK AO1 T01111017
54779K12N 12N20160301151512103/01/16 15:15:31  5-MIN K12N 012015Z AUTO 15009G19KT 100V180 11/M02 A2998 530 40 200 160/09G19 110V190 RMK AO1 T01061022
54779K12N 12N20160301152012103/01/16 15:20:31  5-MIN K12N 012020Z AUTO 16009G19KT 120V190 11/M02 A2997 540 41 200 170/09G19 130V200 RMK AO1 T01111017
54779K12N 12N20160301152510503/01/16 15:25:31  5-MIN K12N 012025Z AUTO VRB06G16KT 11/M02 A2998 530 41 200 VRB/06G16 RMK AO1 T01111017
54779K12N 12N20160301153010503/01/16 15:30:31  5-MIN K12N 012030Z AUTO 14009G15KT 11/M02 A2997 540 40 200 160/09G15 RMK AO1 T01061022
54779K12N 12N20160301153510503/01/16 15:35:31  5-MIN K12N 012035Z AUTO VRB05G15KT 11/M02 A2997 540 39 200 VRB/05G15 RMK AO1 T01111022
54779K12N 12N20160301154009903/01/16 15:40:31  5-MIN K12N 012040Z AUTO VRB05KT 11/M02 A2997 540 39 200 VRB/05 RMK AO1 T01111022
54779K12N 12N20160301154510503/01/16 15:45:31  5-MIN K12N 012045Z AUTO VRB06G16KT 11/M02 A2996 550 42 200 VRB/06G16 RMK AO1 T01061017
54779K12N 12N20160301155011803/01/16 15:50:31  5-MIN K12N 012050Z AUTO 16009G17KT 10/M02 A2995 550 44 100 170/09G17 RMK AO1 SLP148 T01001017 58042
54779K12N 12N20160301155510503/01/16 15:55:31  5-MIN K12N 012055Z AUTO 17009G17KT 10/M02 A2996 550 44 100 180/09G17 RMK AO1 T01001017
54779K12N 12N20160301160012103/01/16 16:00:31  5-MIN K12N 012100Z AUTO 17009G14KT 140V210 10/M02 A2995 560 44 100 180/09G14 150V220 RMK AO1 T01001017
54779K12N 12N20160301160510503/01/16 16:05:31  5-MIN K12N 012105Z AUTO 17008G14KT 10/M02 A2995 560 42 100 190/08G14 RMK AO1 T01001022
54779K12N 12N20160301161011503/01/16 16:10:31  5-MIN K12N 012110Z AUTO 17007KT 140V230 09/M02 A2994 570 44 100 190/07 150V240 RMK AO1 T00941022
54779K12N 12N20160301161509903/01/16 16:15:31  5-MIN K12N 012115Z AUTO 17005KT 10/M02 A2994 570 42 100 180/05 RMK AO1 T01001022
54779K12N 12N20160301162008903/01/16 16:20:31  5-MIN K12N 012120Z AUTO 10/M02 A2993 570 42 200 M /M RMK AO1 T01001022
54779K12N 12N20160301162509903/01/16 16:25:31  5-MIN K12N 012125Z AUTO VRB06KT 10/M02 A2993 570 42 200 VRB/06 RMK AO1 T01001022
54779K12N 12N20160301163012103/01/16 16:30:31  5-MIN K12N 012130Z AUTO 17009G18KT 150V230 09/M03 A2993 580 42 100 190/09G18 160V240 RMK AO1 T00941028
54779K12N 12N20160301163510503/01/16 16:35:31  5-MIN K12N 012135Z AUTO 18011G18KT 09/M03 A2993 580 42 100 190/11G18 RMK AO1 T00941028
54779K12N 12N20160301164010303/01/16 16:40:31  5-MIN K12N 012140Z AUTO VRB06G19KT 09/M03 A2992 580 43 0 VRB/06G19 RMK AO1 T00891028
54779K12N 12N20160301164511903/01/16 16:45:31  5-MIN K12N 012145Z AUTO 16008G19KT 120V200 09/M03 A2993 580 43 0 170/08G19 130V210 RMK AO1 T00891028
54779K12N 12N20160301165012603/01/16 16:50:31  5-MIN K12N 012150Z AUTO 17010G17KT 120V190 08/M03 A2993 580 43 0 180/10G17 130V200 RMK AO1 SLP141 T00831033
54779K12N 12N20160301165511903/01/16 16:55:31  5-MIN K12N 012155Z AUTO 16008G15KT 120V200 08/M03 A2993 580 43 0 170/08G15 130V210 RMK AO1 T00831033
54779K12N 12N20160301170010003/01/16 17:00:31  5-MIN K12N 012200Z AUTO 16008KT 08/M03 A2993 580 45 -100 180/08 RMK AO1 T00781033
54779K12N 12N20160301170510003/01/16 17:05:31  5-MIN K12N 012205Z AUTO VRB05KT 08/M03 A2993 580 45 -100 VRB/05 RMK AO1 T00781033
54779K12N 12N20160301171010603/01/16 17:10:31  5-MIN K12N 012210Z AUTO VRB05G15KT 08/M03 A2993 580 45 -100 VRB/05G15 RMK AO1 T00781033
54779K12N 12N20160301171510603/01/16 17:15:31  5-MIN K12N 012215Z AUTO 17005G15KT 08/M03 A2992 580 45 -100 180/05G15 RMK AO1 T00781033
54779K12N 12N20160301172010003/01/16 17:20:31  5-MIN K12N 012220Z AUTO VRB05KT 07/M03 A2993 580 49 -100 VRB/05 RMK AO1 T00721028
54779K12N 12N20160301172509003/01/16 17:25:31  5-MIN K12N 012225Z AUTO 07/M03 A2993 580 47 -100 M /M RMK AO1 T00721033
54779K12N 12N20160301173010003/01/16 17:30:31  5-MIN K12N 012230Z AUTO 00000KT 07/M03 A2993 570 49 -100 000/00 RMK AO1 T00721028
54779K12N 12N20160301173510003/01/16 17:35:31  5-MIN K12N 012235Z AUTO VRB05KT 07/M03 A2993 580 49 -200 VRB/05 RMK AO1 T00671033
54779K12N 12N20160301174011603/01/16 17:40:31  5-MIN K12N 012240Z AUTO 20007KT 160V240 06/M03 A2993 580 51 -300 210/07 170V250 RMK AO1 T00611033
54779K12N 12N20160301174510003/01/16 17:45:31  5-MIN K12N 012245Z AUTO VRB05KT 06/M03 A2993 580 51 -300 VRB/05 RMK AO1 T00611033
54779K12N 12N20160301175010703/01/16 17:50:31  5-MIN K12N 012250Z AUTO VRB06KT 06/M03 A2993 580 55 -300 VRB/06 RMK AO1 SLP142 T00561028
54779K12N 12N20160301175511603/01/16 17:55:31  5-MIN K12N 012255Z AUTO 17007KT 120V210 06/M03 A2992 580 55 -300 190/07 130V220 RMK AO1 T00561028
54779K12N 12N20160301180011603/01/16 18:00:31  5-MIN K12N 012300Z AUTO 18007KT 150V210 06/M03 A2993 580 55 -300 190/07 160V220 RMK AO1 T00561028
54779K12N 12N20160301180510003/01/16 18:05:31  5-MIN K12N 012305Z AUTO 17007KT 06/M03 A2993 580 55 -300 180/07 RMK AO1 T00561028
54779K12N 12N20160302021510503/02/16 02:15:31  5-MIN K12N 020715Z AUTO VRB04KT 10/08 A2946 1010 89 700 VRB/04 RMK AO1 P0002 T01000083
54779K12N 12N20160302022010503/02/16 02:20:31  5-MIN K12N 020720Z AUTO VRB04KT 11/08 A2946 1010 86 800 VRB/04 RMK AO1 P0002 T01060083
54779K12N 12N20160302022510503/02/16 02:25:31  5-MIN K12N 020725Z AUTO VRB04KT 11/08 A2946 1010 86 800 VRB/04 RMK AO1 P0002 T01060083
54779K12N 12N20160302023010503/02/16 02:30:31  5-MIN K12N 020730Z AUTO VRB04KT 11/08 A2945 1020 86 800 VRB/04 RMK AO1 P0002 T01060083
54779K12N 12N20160302023510503/02/16 02:35:31  5-MIN K12N 020735Z AUTO 22004KT 11/08 A2945 1030 86 800 230/04 RMK AO1 P0002 T01060083
54779K12N 12N20160302024010503/02/16 02:40:31  5-MIN K12N 020740Z AUTO 22006KT 11/08 A2945 1020 86 800 230/06 RMK AO1 P0002 T01060083
54779K12N 12N20160302024510503/02/16 02:45:31  5-MIN K12N 020745Z AUTO VRB04KT 11/08 A2945 1020 86 800 VRB/04 RMK AO1 P0002 T01060083
54779K12N 12N20160302025011203/02/16 02:50:31  5-MIN K12N 020750Z AUTO 19003KT 11/08 A2944 1030 86 800 200/03 RMK AO1 SLP971 P0002 T01060083
54779K12N 12N20160302025509903/02/16 02:55:31  5-MIN K12N 020755Z AUTO VRB04KT 11/08 A2944 1040 86 800 VRB/04 RMK AO1 T01060083
54779K12N 12N20160302030009903/02/16 03:00:31  5-MIN K12N 020800Z AUTO 19005KT 11/08 A2944 1040 86 800 200/05 RMK AO1 T01060083
54779K12N 12N20160302030509903/02/16 03:05:31  5-MIN K12N 020805Z AUTO VRB04KT 11/08 A2944 1040 86 800 VRB/04 RMK AO1 T01060083
54779K12N 12N20160302031009903/02/16 03:10:31  5-MIN K12N 020810Z AUTO VRB05KT 11/08 A2944 1030 86 800 VRB/05 RMK AO1 T01060083
54779K12N 12N20160302031509903/02/16 03:15:31  5-MIN K12N 020815Z AUTO 21006KT 11/09 A2944 1030 86 900 220/06 RMK AO1 T01110089
54779K12N 12N20160302032009903/02/16 03:20:31  5-MIN K12N 020820Z AUTO 24010KT 11/09 A2945 1020 86 800 250/10 RMK AO1 T01110089
54779K12N 12N20160302032512803/02/16 03:25:31  5-MIN K12N 020825Z AUTO 24014G22KT 200V270 12/09 A2946 1010 83 900 250/14G22 210V280 RMK AO1 PRESRR T01170089
54779K12N 12N20160302033012703/02/16 03:30:31  5-MIN K12N 020830Z AUTO 22009G22KT 190V250 12/08 A2946 1010 80 900 230/09G22 200V260 RMK AO1 P0001 T01170083
54779K12N 12N20160302033511103/02/16 03:35:31  5-MIN K12N 020835Z AUTO 22011G17KT 11/08 A2947 1010 83 800 230/11G17 RMK AO1 P0001 T01110083
54779K12N 12N20160302034012703/02/16 03:40:31  5-MIN K12N 020840Z AUTO 22010G17KT 180V250 11/08 A2947 1010 83 800 230/10G17 190V260 RMK AO1 P0001 T01110083
54779K12N 12N20160302034511103/02/16 03:45:31  5-MIN K12N 020845Z AUTO 22011G22KT 11/08 A2947 1000 80 800 230/11G22 RMK AO1 P0001 T01110078
54779K12N 12N20160302035013003/02/16 03:50:31  5-MIN K12N 020850Z AUTO 22012G24KT 11/08 A2947 1000 80 800 230/12G24 RMK AO1 SLP982 P0002 60005 T01110078 56060
54779K12N 12N20160302035510503/02/16 03:55:31  5-MIN K12N 020855Z AUTO 22011G24KT 11/08 A2948 1000 80 800 240/11G24 RMK AO1 T01110078
54779K12N 12N20160302040010503/02/16 04:00:31  5-MIN K12N 020900Z AUTO 22011G19KT 11/07 A2947 1000 80 700 230/11G19 RMK AO1 T01060072
54779K12N 12N20160302040511103/02/16 04:05:31  5-MIN K12N 020905Z AUTO 22009G19KT 11/07 A2948 1000 80 700 230/09G19 RMK AO1 P0001 T01060072
54779K12N 12N20160302041012603/02/16 04:10:31  5-MIN K12N 020910Z AUTO 22012G17KT 190V260 11/07 A2948 990 77 700 230/12G17 200V270 RMK AO1 P0001 T01060067
54779K12N 12N20160302041512803/02/16 04:15:31  5-MIN K12N 020915Z AUTO 23016G28KT 11/06 A2949 990 71 700 240/16G28 RMK AO1 PK WND 24028/0914 P0002 T01060056
54779K12N 12N20160302042014403/02/16 04:20:31  5-MIN K12N 020920Z AUTO 24013G28KT 200V300 11/04 A2949 990 66 700 260/13G28 210V310 RMK AO1 PK WND 24028/0914 P0002 T01060044
54779K12N 12N20160302042512803/02/16 04:25:31  5-MIN K12N 020925Z AUTO 21013G28KT 10/05 A2949 990 71 700 220/13G28 RMK AO1 PK WND 24028/0914 P0002 T01000050
54779K12N 12N20160302043012903/02/16 04:30:31  5-MIN K12N 020930Z AUTO 22014G24KT 10/04 A2948 1000 68 700 230/14G24 RMK AO1 PK WND 24028/0914 P0003 T01000044
54779K12N 12N20160302043514503/02/16 04:35:31  5-MIN K12N 020935Z AUTO 21008G24KT 170V250 10/04 A2947 1000 68 700 230/08G24 180V260 RMK AO1 PK WND 24028/0914 P0003 T01000044
54779K12N 12N20160302044015203/02/16 04:40:31  5-MIN K12N 020940Z AUTO 22007G18KT 180V250 09/04 A2946 1010 71 600 230/07G18 190V260 RMK AO1 PK WND 24028/0914 PRESFR P0003 T00940044
54779K12N 12N20160302044514503/02/16 04:45:31  5-MIN K12N 020945Z AUTO 22007G14KT 190V260 09/04 A2947 1010 71 600 230/07G14 200V270 RMK AO1 PK WND 24028/0914 P0004 T00940044
54779K12N 12N20160302045013703/02/16 04:50:31  5-MIN K12N 020950Z AUTO 21006KT 09/05 A2945 1020 74 600 220/06 RMK AO1 PK WND 24028/0914 PRESFR SLP974 P0005 T00940050
54779K12N 12N20160302045510603/02/16 04:55:31  5-MIN K12N 020955Z AUTO 00000KT 09/05 A2944 1030 76 600 000/00 RMK AO1 PRESFR T00890050
54779K12N 12N20160302050009903/02/16 05:00:31  5-MIN K12N 021000Z AUTO 21004KT 09/05 A2945 1020 76 600 230/04 RMK AO1 T00890050
54779K12N 12N20160302050509903/02/16 05:05:31  5-MIN K12N 021005Z AUTO VRB03KT 09/06 A2946 1010 79 600 VRB/03 RMK AO1 T00890056
54779K12N 12N20160302051010603/02/16 05:10:31  5-MIN K12N 021010Z AUTO 19003KT 08/06 A2947 1010 82 500 200/03 RMK AO1 PRESRR T00830056
54779K12N 12N20160302051509903/02/16 05:15:31  5-MIN K12N 021015Z AUTO 00000KT 08/06 A2947 1000 82 500 000/00 RMK AO1 T00830056
54779K12N 12N20160302052009903/02/16 05:20:31  5-MIN K12N 021020Z AUTO 00000KT 08/06 A2947 1000 82 500 000/00 RMK AO1 T00830056
54779K12N 12N20160302052509803/02/16 05:25:31  5-MIN K12N 021025Z AUTO 20006KT 09/06 A2948 990 79 500 220/06 RMK AO1 T00890056
54779K12N 12N20160302053009803/02/16 05:30:31  5-MIN K12N 021030Z AUTO 20005KT 09/05 A2949 990 76 500 220/05 RMK AO1 T00890050
54779K12N 12N20160302053509903/02/16 05:35:31  5-MIN K12N 021035Z AUTO VRB03KT 09/05 A2948 1000 76 500 VRB/03 RMK AO1 T00890050
54779K12N 12N20160302054011503/02/16 05:40:31  5-MIN K12N 021040Z AUTO 27008KT 220V310 09/05 A2948 1000 74 600 290/08 230V320 RMK AO1 T00940050
54779K12N 12N20160302054512003/02/16 05:45:31  5-MIN K12N 021045Z AUTO 24009G17KT 180V290 09/05 A2949 990 74 600 250/09G17 190V300 RMK AO1 T00940050
54779K12N 12N20160302055012703/02/16 05:50:31  5-MIN K12N 021050Z AUTO 26007G18KT 190V320 09/04 A2949 990 68 600 270/07G18 200V330 RMK AO1 SLP988 T00940039
54779K12N 12N20160302055509503/02/16 05:55:31  5-MIN K12N 021055Z AUTO 09/03 A2950 970 63 600 M /M RMK AO1 PRESRR T00940028
54779K12N 12N20160302060009803/02/16 06:00:31  5-MIN K12N 021100Z AUTO 23007KT 09/02 A2950 970 63 500 250/07 RMK AO1 T00890022
54779K12N 12N20160302060510403/02/16 06:05:31  5-MIN K12N 021105Z AUTO 22008G19KT 09/02 A2951 970 60 500 240/08G19 RMK AO1 T00890017
54779K12N 12N20160302061010403/02/16 06:10:31  5-MIN K12N 021110Z AUTO 24009G19KT 08/02 A2951 960 63 400 250/09G19 RMK AO1 T00830017
54779K12N 12N20160302061512703/02/16 06:15:31  5-MIN K12N 021115Z AUTO 23008G18KT 190V280 08/02 A2952 960 63 400 250/08G18 200V290 RMK AO1 PRESRR T00830017
54779K12N 12N20160302062012703/02/16 06:20:31  5-MIN K12N 021120Z AUTO 23009G18KT 200V270 08/02 A2953 950 65 300 240/09G18 210V280 RMK AO1 PRESRR T00780017
54779K12N 12N20160302062511103/02/16 06:25:31  5-MIN K12N 021125Z AUTO 24008G18KT 08/01 A2954 940 62 300 250/08G18 RMK AO1 PRESRR T00780011
54779K12N 12N20160302063012003/02/16 06:30:31  5-MIN K12N 021130Z AUTO 27008G14KT 230V300 07/01 A2954 940 65 300 280/08G14 240V310 RMK AO1 T00720011
54779K12N 12N20160302063510403/02/16 06:35:31  5-MIN K12N 021135Z AUTO VRB05G14KT 07/01 A2955 930 65 300 VRB/05G14 RMK AO1 T00720011
54779K12N 12N20160302064012703/02/16 06:40:31  5-MIN K12N 021140Z AUTO 30012G22KT 260V340 07/00 A2956 920 62 200 310/12G22 270V350 RMK AO1 PRESRR T00670000
54779K12N 12N20160302064512803/02/16 06:45:31  5-MIN K12N 021145Z AUTO 29010G24KT 240V310 06/M01 A2956 920 62 100 300/10G24 250V320 RMK AO1 PRESRR T00611006
54779K12N 12N20160302065015803/02/16 06:50:31  5-MIN K12N 021150Z AUTO 27010G24KT 230V310 06/M01 A2956 920 62 100 290/10G24 240V320 RMK AO1 SLP017 60010 70011 T00611006 10117 20061 55017
54779K12N 12N20160302065511903/02/16 06:55:31  5-MIN K12N 021155Z AUTO 27011G19KT 200V320 06/M01 A2957 910 62 0 280/11G19 210V330 RMK AO1 T00561011
54779K12N 12N20160302070011903/02/16 07:00:31  5-MIN K12N 021200Z AUTO 28010G19KT 200V310 05/M02 A2957 910 62 0 290/10G19 210V320 RMK AO1 T00501017
54779K12N 12N20160302070511903/02/16 07:05:31  5-MIN K12N 021205Z AUTO 23010G20KT 210V270 05/M03 A2958 900 57 0 250/10G20 220V280 RMK AO1 T00501028
54779K12N 12N20160302071012203/02/16 07:10:31  5-MIN K12N 021210Z AUTO 23009G20KT 200V260 04/M03 A2959 900 57 -100 250/09G20 210V270 RMK AO1 T00441033
54779K12N 12N20160302071512903/02/16 07:15:31  5-MIN K12N 021215Z AUTO 25008G20KT 210V300 04/M03 A2959 890 57 -100 260/08G20 220V310 RMK AO1 PRESRR T00441033
54779K12N 12N20160302072012203/02/16 07:20:31  5-MIN K12N 021220Z AUTO 25007G15KT 210V320 04/M03 A2959 890 57 -100 260/07G15 220V330 RMK AO1 T00441033
54779K12N 12N20160302072512203/02/16 07:25:31  5-MIN K12N 021225Z AUTO 27008G15KT 220V310 04/M04 A2960 890 55 -100 290/08G15 230V320 RMK AO1 T00441039
54779K12N 12N20160302073012203/02/16 07:30:31  5-MIN K12N 021230Z AUTO 25007G15KT 210V270 04/M03 A2960 890 57 -100 260/07G15 220V280 RMK AO1 T00441033
54779K12N 12N20160302073512203/02/16 07:35:31  5-MIN K12N 021235Z AUTO 25009G18KT 210V300 04/M03 A2960 880 57 -100 260/09G18 220V310 RMK AO1 T00441033
54779K12N 12N20160302074010603/02/16 07:40:31  5-MIN K12N 021240Z AUTO VRB04G18KT 04/M03 A2961 880 57 -100 VRB/04G18 RMK AO1 T00441033
54779K12N 12N20160302074510003/02/16 07:45:31  5-MIN K12N 021245Z AUTO 28005KT 04/M03 A2961 870 59 -200 300/05 RMK AO1 T00391033
54779K12N 12N20160302075010403/02/16 07:50:31  5-MIN K12N 021250Z AUTO 04/M04 A2962 870 54 -200 M /M RMK AO1 PRESRR SLP036 T00391044
54779K12N 12N20160302075512903/02/16 07:55:31  5-MIN K12N 021255Z AUTO 27010G18KT 220V040 04/M05 A2962 860 52 -200 280/10G18 230V050 RMK AO1 PRESRR T00391050
54779K12N 12N20160302080012903/02/16 08:00:31  5-MIN K12N 021300Z AUTO 28009G19KT 210V330 04/M05 A2963 860 52 -200 300/09G19 220V340 RMK AO1 PRESRR T00391050
54779K12N 12N20160302080512203/02/16 08:05:31  5-MIN K12N 021305Z AUTO 25007G19KT 200V330 04/M05 A2963 850 50 -100 270/07G19 210V340 RMK AO1 T00441050
54779K12N 12N20160302081012203/02/16 08:10:31  5-MIN K12N 021310Z AUTO 26014G25KT 220V290 04/M06 A2963 850 50 -200 280/14G25 230V300 RMK AO1 T00391056
54779K12N 12N20160302081512203/02/16 08:15:31  5-MIN K12N 021315Z AUTO 24016G25KT 190V270 04/M06 A2964 850 50 -200 250/16G25 200V280 RMK AO1 T00391056
54779K12N 12N20160302082012203/02/16 08:20:31  5-MIN K12N 021320Z AUTO 24007G25KT 200V320 04/M06 A2964 840 50 -200 260/07G25 210V330 RMK AO1 T00391056
54779K12N 12N20160302082510603/02/16 08:25:31  5-MIN K12N 021325Z AUTO VRB06G25KT 04/M05 A2965 840 52 -200 VRB/06G25 RMK AO1 T00391050
54779K12N 12N20160302083012203/02/16 08:30:31  5-MIN K12N 021330Z AUTO 25008G20KT 220V320 04/M05 A2965 840 52 -200 270/08G20 230V330 RMK AO1 T00391050
54779K12N 12N20160302083509003/02/16 08:35:31  5-MIN K12N 021335Z AUTO 04/M06 A2965 830 50 -200 M /M RMK AO1 T00391056
54779K12N 12N20160302084010003/02/16 08:40:31  5-MIN K12N 021340Z AUTO VRB05KT 04/M05 A2965 830 52 -200 VRB/05 RMK AO1 T00391050
54779K12N 12N20160302084512203/02/16 08:45:31  5-MIN K12N 021345Z AUTO 25008G17KT 140V310 04/M05 A2966 830 52 -200 260/08G17 150V320 RMK AO1 T00391050
54779K12N 12N20160302085012903/02/16 08:50:31  5-MIN K12N 021350Z AUTO 31012G21KT 270V340 03/M06 A2966 830 52 -300 320/12G21 280V350 RMK AO1 SLP049 T00331056
54779K12N 12N20160302085512203/02/16 08:55:31  5-MIN K12N 021355Z AUTO 31009G21KT 180V350 03/M06 A2966 830 52 -400 320/09G21 190V360 RMK AO1 T00281061
54779K12N 12N20160302090012203/02/16 09:00:31  5-MIN K12N 021400Z AUTO 32010G24KT 280V030 03/M06 A2967 820 52 -400 330/10G24 290V040 RMK AO1 T00281061
54779K12N 12N20160302090510603/02/16 09:05:31  5-MIN K12N 021405Z AUTO VRB06G24KT 03/M07 A2967 820 48 -300 VRB/06G24 RMK AO1 T00331067
54779K12N 12N20160302091012203/02/16 09:10:31  5-MIN K12N 021410Z AUTO 30012G23KT 260V330 03/M07 A2968 810 48 -300 310/12G23 270V340 RMK AO1 T00331067
54779K12N 12N20160302091512903/02/16 09:15:31  5-MIN K12N 021415Z AUTO 28010G23KT 210V360 03/M07 A2968 800 48 -400 300/10G23 220V010 RMK AO1 PRESRR T00281072
54779K12N 12N20160302092012203/02/16 09:20:31  5-MIN K12N 021420Z AUTO 30010G20KT 260V320 03/M07 A2969 800 46 -300 310/10G20 270V330 RMK AO1 T00331072
54779K12N 12N20160302092512203/02/16 09:25:31  5-MIN K12N 021425Z AUTO 27008G20KT 110V330 03/M08 A2969 800 44 -300 280/08G20 120V340 RMK AO1 T00331078
54779K12N 12N20160302093012203/02/16 09:30:31  5-MIN K12N 021430Z AUTO 27007G16KT 160V340 03/M08 A2968 800 46 -400 280/07G16 170V350 RMK AO1 T00281078
54779K12N 12N20160302093510603/02/16 09:35:31  5-MIN K12N 021435Z AUTO 34009G16KT 03/M08 A2969 800 46 -400 350/09G16 RMK AO1 T00281078
54779K12N 12N20160302094010603/02/16 09:40:31  5-MIN K12N 021440Z AUTO 32010G18KT 03/M08 A2969 800 46 -400 330/10G18 RMK AO1 T00281078
54779K12N 12N20160302094510603/02/16 09:45:31  5-MIN K12N 021445Z AUTO VRB04G18KT 03/M08 A2969 800 46 -400 VRB/04G18 RMK AO1 T00281078
54779K12N 12N20160302095013503/02/16 09:50:31  5-MIN K12N 021450Z AUTO 32012G23KT 260V350 03/M08 A2970 790 42 -300 330/12G23 270V360 RMK AO1 SLP065 T00331083 53030
54779K12N 12N20160302095512203/02/16 09:55:31  5-MIN K12N 021455Z AUTO 33010G23KT 230V040 03/M09 A2971 780 40 -400 340/10G23 240V050 RMK AO1 T00331089
54779K12N 12N20160302100010603/02/16 10:00:31  5-MIN K12N 021500Z AUTO 35014G22KT 03/M09 A2971 780 40 -400 010/14G22 RMK AO1 T00331089
54779K12N 12N20160302100512203/02/16 10:05:31  5-MIN K12N 021505Z AUTO 34011G23KT 280V360 03/M09 A2972 780 40 -400 350/11G23 290V010 RMK AO1 T00281094
54779K12N 12N20160302101012203/02/16 10:10:31  5-MIN K12N 021510Z AUTO 32012G23KT 280V010 03/M09 A2972 770 39 -400 330/12G23 290V020 RMK AO1 T00331094
54779K12N 12N20160302101510603/02/16 10:15:31  5-MIN K12N 021515Z AUTO 31011G21KT 03/M10 A2973 760 37 -400 330/11G21 RMK AO1 T00331100
54779K12N 12N20160302102012203/02/16 10:20:31  5-MIN K12N 021520Z AUTO 30015G25KT 260V330 03/M11 A2973 760 37 -400 320/15G25 270V340 RMK AO1 T00281106
54779K12N 12N20160302102512903/02/16 10:25:31  5-MIN K12N 021525Z AUTO 31009G25KT 250V050 02/M11 A2974 750 37 -500 320/09G25 260V060 RMK AO1 PRESRR T00221111
54779K12N 12N20160302103012203/02/16 10:30:31  5-MIN K12N 021530Z AUTO 31011G21KT 270V020 02/M11 A2974 750 37 -500 320/11G21 280V030 RMK AO1 T00221111
54779K12N 12N20160302103512903/02/16 10:35:31  5-MIN K12N 021535Z AUTO 30010G21KT 270V350 02/M11 A2975 740 37 -500 320/10G21 280V360 RMK AO1 PRESRR T00221111
54779K12N 12N20160302104014003/02/16 10:40:31  5-MIN K12N 021540Z AUTO 31013G29KT 250V340 02/M12 A2975 740 36 -600 320/13G29 260V350 RMK AO1 PK WND 33029/1540 T00171117
54779K12N 12N20160302104514003/02/16 10:45:31  5-MIN K12N 021545Z AUTO 33009G29KT 280V360 02/M11 A2975 740 37 -500 340/09G29 290V010 RMK AO1 PK WND 33029/1540 T00221111
54779K12N 12N20160302105014703/02/16 10:50:31  5-MIN K12N 021550Z AUTO 32009G20KT 280V360 02/M11 A2975 740 37 -500 340/09G20 290V010 RMK AO1 PK WND 33029/1540 SLP081 T00221111
54779K12N 12N20160302105510603/02/16 10:55:31  5-MIN K12N 021555Z AUTO 36015G24KT 02/M11 A2976 740 38 -600 010/15G24 RMK AO1 T00171111
54779K12N 12N20160302110012203/02/16 11:00:31  5-MIN K12N 021600Z AUTO 34011G24KT 300V010 02/M11 A2976 740 38 -600 360/11G24 310V020 RMK AO1 T00171111
54779K12N 12N20160302110512203/02/16 11:05:31  5-MIN K12N 021605Z AUTO 34014G23KT 300V020 02/M12 A2976 730 36 -600 350/14G23 310V030 RMK AO1 T00171117
54779K12N 12N20160302111010603/02/16 11:10:31  5-MIN K12N 021610Z AUTO 36014G23KT 02/M11 A2976 730 38 -600 010/14G23 RMK AO1 T00171111
54779K12N 12N20160302111512203/02/16 11:15:31  5-MIN K12N 021615Z AUTO 35012G23KT 310V040 02/M11 A2976 740 37 -500 010/12G23 320V050 RMK AO1 T00221111
54779K12N 12N20160302112012203/02/16 11:20:31  5-MIN K12N 021620Z AUTO 32007G23KT 290V350 02/M11 A2976 740 37 -500 330/07G23 300V360 RMK AO1 T00221111
54779K12N 12N20160302112509003/02/16 11:25:31  5-MIN K12N 021625Z AUTO 03/M11 A2975 740 37 -500 M /M RMK AO1 T00281106
54779K12N 12N20160302113012203/02/16 11:30:31  5-MIN K12N 021630Z AUTO 32010G17KT 270V360 02/M11 A2975 740 37 -500 330/10G17 280V010 RMK AO1 T00221111
54779K12N 12N20160302113512203/02/16 11:35:31  5-MIN K12N 021635Z AUTO 32008G19KT 260V360 02/M11 A2975 740 38 -500 330/08G19 270V010 RMK AO1 T00221106
54779K12N 12N20160302114012203/02/16 11:40:31  5-MIN K12N 021640Z AUTO 31009G19KT 280V350 03/M11 A2976 740 37 -500 330/09G19 290V360 RMK AO1 T00281106
54779K12N 12N20160302114512203/02/16 11:45:31  5-MIN K12N 021645Z AUTO 33010G21KT 280V010 03/M11 A2976 740 37 -500 340/10G21 290V020 RMK AO1 T00281106
54779K12N 12N20160302115011303/02/16 11:50:31  5-MIN K12N 021650Z AUTO 31013G23KT 02/M11 A2976 730 37 -600 320/13G23 RMK AO1 SLP082 T00221111
54779K12N 12N20160302115510603/02/16 11:55:31  5-MIN K12N 021655Z AUTO 30007G23KT 02/M11 A2976 740 37 -500 310/07G23 RMK AO1 T00221111
54779K12N 12N20160302120012203/02/16 12:00:31  5-MIN K12N 021700Z AUTO 29010G21KT 250V320 02/M11 A2975 740 37 -500 300/10G21 260V330 RMK AO1 T00221111
54779K12N 12N20160302120512203/02/16 12:05:31  5-MIN K12N 021705Z AUTO 30007G18KT 260V340 03/M11 A2975 740 35 -500 310/07G18 270V350 RMK AO1 T00281111
54779K12N 12N20160302121012203/02/16 12:10:31  5-MIN K12N 021710Z AUTO 36010G19KT 320V020 03/M11 A2975 740 35 -400 010/10G19 330V030 RMK AO1 T00331106
54779K12N 12N20160302121510603/02/16 12:15:31  5-MIN K12N 021715Z AUTO VRB06G23KT 03/M11 A2976 740 35 -500 VRB/06G23 RMK AO1 T00281111
54779K12N 12N20160302122012203/02/16 12:20:31  5-MIN K12N 021720Z AUTO 32009G23KT 290V360 03/M11 A2975 740 35 -500 330/09G23 300V010 RMK AO1 T00281111
54779K12N 12N20160302122512203/02/16 12:25:31  5-MIN K12N 021725Z AUTO 31008G19KT 280V360 02/M11 A2975 740 37 -500 320/08G19 290V010 RMK AO1 T00221111
54779K12N 12N20160302123010603/02/16 12:30:31  5-MIN K12N 021730Z AUTO 36011G22KT 03/M11 A2975 740 35 -400 010/11G22 RMK AO1 T00331106
54779K12N 12N20160302123512203/02/16 12:35:31  5-MIN K12N 021735Z AUTO 34010G24KT 310V030 02/M12 A2975 740 35 -500 350/10G24 320V040 RMK AO1 T00221117
54779K12N 12N20160302124012203/02/16 12:40:31  5-MIN K12N 021740Z AUTO 32010G24KT 240V030 03/M11 A2975 750 35 -500 340/10G24 250V040 RMK AO1 T00281111
54779K12N 12N20160302124512203/02/16 12:45:31  5-MIN K12N 021745Z AUTO 36012G22KT 320V040 03/M11 A2975 740 35 -500 010/12G22 330V050 RMK AO1 T00281111
54779K12N 12N20160302125014703/02/16 12:50:31  5-MIN K12N 021750Z AUTO 34008G22KT 290V360 03/M11 A2975 740 35 -500 350/08G22 300V010 RMK AO1 SLP079 T00281111 10056 20017 51045
54779K12N 12N20160302125512203/02/16 12:55:31  5-MIN K12N 021755Z AUTO 34009G22KT 310V020 03/M11 A2975 750 35 -400 350/09G22 320V030 RMK AO1 T00331106
54779K12N 12N20160302130012203/02/16 13:00:31  5-MIN K12N 021800Z AUTO 32009G18KT 300V360 03/M11 A2976 740 35 -400 340/09G18 310V010 RMK AO1 T00331106
54779K12N 12N20160302130512203/02/16 13:05:31  5-MIN K12N 021805Z AUTO 33010G18KT 300V020 03/M12 A2975 740 34 -500 340/10G18 310V030 RMK AO1 T00281117
54779K12N 12N20160302131012203/02/16 13:10:31  5-MIN K12N 021810Z AUTO 32014G25KT 280V340 03/M11 A2975 740 35 -500 330/14G25 290V350 RMK AO1 T00281111
54779K12N 12N20160302131512203/02/16 13:15:31  5-MIN K12N 021815Z AUTO 33011G25KT 270V360 02/M12 A2976 740 35 -500 340/11G25 280V010 RMK AO1 T00221117
54779K12N 12N20160302132012203/02/16 13:20:31  5-MIN K12N 021820Z AUTO 32012G21KT 280V030 02/M12 A2976 740 35 -500 330/12G21 290V040 RMK AO1 T00221117
54779K12N 12N20160302132512203/02/16 13:25:31  5-MIN K12N 021825Z AUTO 32010G21KT 280V010 02/M12 A2976 730 35 -600 340/10G21 290V020 RMK AO1 T00221117
54779K12N 12N20160302133014003/02/16 13:30:31  5-MIN K12N 021830Z AUTO 31011G27KT 260V340 03/M12 A2976 730 34 -500 320/11G27 270V350 RMK AO1 PK WND 31027/1829 T00281117
54779K12N 12N20160302133512403/02/16 13:35:31  5-MIN K12N 021835Z AUTO 31012G27KT 03/M12 A2976 730 34 -500 330/12G27 RMK AO1 PK WND 31027/1829 T00281117
54779K12N 12N20160302134014003/02/16 13:40:31  5-MIN K12N 021840Z AUTO 33009G21KT 300V020 02/M12 A2976 730 33 -600 340/09G21 310V030 RMK AO1 PK WND 31027/1829 T00221122
54779K12N 12N20160302134514003/02/16 13:45:31  5-MIN K12N 021845Z AUTO 34011G21KT 310V020 03/M12 A2976 730 34 -500 360/11G21 320V030 RMK AO1 PK WND 31027/1829 T00281117
54779K12N 12N20160302135014703/02/16 13:50:31  5-MIN K12N 021850Z AUTO 35010G19KT 310V030 03/M12 A2976 730 34 -500 010/10G19 320V040 RMK AO1 PK WND 31027/1829 SLP084 T00281117
54779K12N 12N20160302135512203/02/16 13:55:31  5-MIN K12N 021855Z AUTO 36010G20KT 310V060 03/M12 A2977 720 34 -500 020/10G20 320V070 RMK AO1 T00281117
54779K12N 12N20160302140012203/02/16 14:00:31  5-MIN K12N 021900Z AUTO 33008G20KT 280V360 03/M12 A2977 720 34 -500 340/08G20 290V010 RMK AO1 T00281117
54779K12N 12N20160302140512203/02/16 14:05:31  5-MIN K12N 021905Z AUTO 34009G15KT 310V020 03/M12 A2977 720 32 -500 350/09G15 320V030 RMK AO1 T00281122
54779K12N 12N20160302141012203/02/16 14:10:31  5-MIN K12N 021910Z AUTO 33012G20KT 290V360 03/M12 A2978 720 32 -500 350/12G20 300V010 RMK AO1 T00281122
54779K12N 12N20160302141510603/02/16 14:15:31  5-MIN K12N 021915Z AUTO VRB06G21KT 03/M12 A2978 720 34 -500 VRB/06G21 RMK AO1 T00281117
54779K12N 12N20160302142010603/02/16 14:20:31  5-MIN K12N 021920Z AUTO 30009G21KT 03/M12 A2978 710 32 -500 310/09G21 RMK AO1 T00281122
54779K12N 12N20160302142510603/02/16 14:25:31  5-MIN K12N 021925Z AUTO 35011G20KT 03/M12 A2979 710 32 -400 360/11G20 RMK AO1 T00331117
54779K12N 12N20160302143010603/02/16 14:30:31  5-MIN K12N 021930Z AUTO VRB06G20KT 03/M12 A2979 710 32 -400 VRB/06G20 RMK AO1 T00331117
54779K12N 12N20160302143512203/02/16 14:35:31  5-MIN K12N 021935Z AUTO 35010G17KT 310V030 03/M12 A2979 710 32 -400 360/10G17 320V040 RMK AO1 T00331117
54779K12N 12N20160302144012203/02/16 14:40:31  5-MIN K12N 021940Z AUTO 35010G15KT 310V020 03/M12 A2979 700 32 -500 360/10G15 320V030 RMK AO1 T00331117
54779K12N 12N20160302144510603/02/16 14:45:31  5-MIN K12N 021945Z AUTO 35010G22KT 03/M12 A2980 700 31 -500 360/10G22 RMK AO1 T00331122
54779K12N 12N20160302145012903/02/16 14:50:31  5-MIN K12N 021950Z AUTO 35011G22KT 310V020 03/M12 A2980 700 32 -500 360/11G22 320V030 RMK AO1 SLP094 T00331117
54779K12N 12N20160302145510603/02/16 14:55:31  5-MIN K12N 021955Z AUTO VRB05G21KT 03/M12 A2980 700 32 -500 VRB/05G21 RMK AO1 T00281122
54779K12N 12N20160302150012203/02/16 15:00:31  5-MIN K12N 022000Z AUTO 31008G21KT 240V090 03/M12 A2980 700 32 -500 320/08G21 250V100 RMK AO1 T00331117
54779K12N 12N20160302150512203/02/16 15:05:31  5-MIN K12N 022005Z AUTO 32012G21KT 270V010 02/M12 A2980 690 33 -600 330/12G21 280V020 RMK AO1 T00221122
54779K12N 12N20160302151012203/02/16 15:10:31  5-MIN K12N 022010Z AUTO 31010G21KT 270V350 02/M12 A2981 690 33 -600 320/10G21 280V360 RMK AO1 T00221122
54779K12N 12N20160303001010203/03/16 00:10:31  5-MIN K12N 030510Z AUTO 34004KT M04/M13 A3011 410 50 -1800 350/04 RMK AO1 T10441133
54779K12N 12N20160303001510203/03/16 00:15:31  5-MIN K12N 030515Z AUTO VRB06KT M04/M13 A3011 410 50 -1800 VRB/06 RMK AO1 T10441133
54779K12N 12N20160303002010203/03/16 00:20:31  5-MIN K12N 030520Z AUTO 34003KT M04/M13 A3012 400 50 -1800 350/03 RMK AO1 T10441133
54779K12N 12N20160303002510203/03/16 00:25:31  5-MIN K12N 030525Z AUTO VRB03KT M04/M13 A3012 400 52 -1800 VRB/03 RMK AO1 T10441128
54779K12N 12N20160303003010203/03/16 00:30:31  5-MIN K12N 030530Z AUTO VRB05KT M04/M13 A3013 400 50 -1800 VRB/05 RMK AO1 T10441133
54779K12N 12N20160303003510203/03/16 00:35:31  5-MIN K12N 030535Z AUTO 00000KT M04/M13 A3013 390 50 -1800 000/00 RMK AO1 T10441133
54779K12N 12N20160303004010203/03/16 00:40:31  5-MIN K12N 030540Z AUTO 33003KT M04/M13 A3013 390 52 -1800 340/03 RMK AO1 T10441128
54779K12N 12N20160303004510203/03/16 00:45:31  5-MIN K12N 030545Z AUTO 00000KT M04/M13 A3013 390 50 -1800 000/00 RMK AO1 T10441133
54779K12N 12N20160303005012703/03/16 00:50:31  5-MIN K12N 030550Z AUTO 34003KT M04/M13 A3013 390 52 -1800 360/03 RMK AO1 SLP214 T10441128 11006 21044 51039
54779K12N 12N20160303005510203/03/16 00:55:31  5-MIN K12N 030555Z AUTO 00000KT M04/M13 A3013 390 52 -1800 000/00 RMK AO1 T10441128
54779K12N 12N20160303010010203/03/16 01:00:31  5-MIN K12N 030600Z AUTO 00000KT M04/M13 A3013 390 50 -1800 000/00 RMK AO1 T10441133
54779K12N 12N20160303010510203/03/16 01:05:31  5-MIN K12N 030605Z AUTO 00000KT M04/M13 A3013 390 52 -1800 000/00 RMK AO1 T10441128
54779K12N 12N20160303011010203/03/16 01:10:31  5-MIN K12N 030610Z AUTO 00000KT M04/M13 A3013 390 52 -1800 000/00 RMK AO1 T10441128
54779K12N 12N20160303011510203/03/16 01:15:31  5-MIN K12N 030615Z AUTO 00000KT M04/M13 A3013 390 52 -1800 000/00 RMK AO1 T10441128
54779K12N 12N20160303012010203/03/16 01:20:31  5-MIN K12N 030620Z AUTO 00000KT M04/M13 A3013 390 52 -1800 000/00 RMK AO1 T10441128
54779K12N 12N20160303012510203/03/16 01:25:31  5-MIN K12N 030625Z AUTO 00000KT M05/M13 A3013 390 55 -1900 000/00 RMK AO1 T10501128
54779K12N 12N20160303013010203/03/16 01:30:31  5-MIN K12N 030630Z AUTO 00000KT M05/M13 A3013 390 55 -1900 000/00 RMK AO1 T10501128
54779K12N 12N20160303013510203/03/16 01:35:31  5-MIN K12N 030635Z AUTO 00000KT M06/M13 A3013 390 57 -2000 000/00 RMK AO1 T10561128
54779K12N 12N20160303014010203/03/16 01:40:31  5-MIN K12N 030640Z AUTO 00000KT M05/M13 A3013 390 55 -1900 000/00 RMK AO1 T10501128
54779K12N 12N20160303014510203/03/16 01:45:31  5-MIN K12N 030645Z AUTO 32003KT M04/M13 A3013 390 52 -1800 330/03 RMK AO1 T10441128
54779K12N 12N20160303015010903/03/16 01:50:31  5-MIN K12N 030650Z AUTO 35003KT M04/M13 A3013 390 52 -1800 360/03 RMK AO1 SLP216 T10441128
54779K12N 12N20160303015510203/03/16 01:55:31  5-MIN K12N 030655Z AUTO VRB05KT M04/M12 A3014 390 55 -1800 VRB/05 RMK AO1 T10441122
54779K12N 12N20160303020010203/03/16 02:00:31  5-MIN K12N 030700Z AUTO VRB04KT M04/M13 A3013 390 52 -1800 VRB/04 RMK AO1 T10441128
54779K12N 12N20160303020510203/03/16 02:05:31  5-MIN K12N 030705Z AUTO 34006KT M04/M13 A3013 390 52 -1800 350/06 RMK AO1 T10441128
54779K12N 12N20160303021010203/03/16 02:10:31  5-MIN K12N 030710Z AUTO 35003KT M04/M12 A3014 390 55 -1800 360/03 RMK AO1 T10441122
54779K12N 12N20160303021510203/03/16 02:15:31  5-MIN K12N 030715Z AUTO VRB04KT M04/M12 A3014 390 55 -1800 VRB/04 RMK AO1 T10441122
54779K12N 12N20160303022010203/03/16 02:20:31  5-MIN K12N 030720Z AUTO VRB04KT M05/M12 A3014 390 57 -1900 VRB/04 RMK AO1 T10501122
54779K12N 12N20160303022510203/03/16 02:25:31  5-MIN K12N 030725Z AUTO 34005KT M05/M12 A3014 380 57 -1900 350/05 RMK AO1 T10501122
54779K12N 12N20160303023010203/03/16 02:30:31  5-MIN K12N 030730Z AUTO 33003KT M05/M12 A3014 380 57 -1900 340/03 RMK AO1 T10501122
54779K12N 12N20160303023510203/03/16 02:35:31  5-MIN K12N 030735Z AUTO 34004KT M05/M12 A3014 390 57 -1900 360/04 RMK AO1 T10501122
54779K12N 12N20160303024010203/03/16 02:40:31  5-MIN K12N 030740Z AUTO 35003KT M05/M12 A3014 380 57 -1900 360/03 RMK AO1 T10501122
54779K12N 12N20160303024510203/03/16 02:45:31  5-MIN K12N 030745Z AUTO 00000KT M05/M12 A3014 390 57 -1900 000/00 RMK AO1 T10501122
54779K12N 12N20160303025010903/03/16 02:50:31  5-MIN K12N 030750Z AUTO 36003KT M05/M12 A3013 390 57 -1900 010/03 RMK AO1 SLP216 T10501122
54779K12N 12N20160303025510203/03/16 02:55:31  5-MIN K12N 030755Z AUTO 36003KT M06/M12 A3013 390 59 -2000 010/03 RMK AO1 T10561122
54779K12N 12N20160303030010203/03/16 03:00:31  5-MIN K12N 030800Z AUTO 35004KT M06/M12 A3013 390 59 -2000 360/04 RMK AO1 T10561122
54779K12N 12N20160303030510203/03/16 03:05:31  5-MIN K12N 030805Z AUTO VRB03KT M06/M12 A3013 390 62 -2000 VRB/03 RMK AO1 T10611122
54779K12N 12N20160303031010203/03/16 03:10:31  5-MIN K12N 030810Z AUTO VRB05KT M06/M12 A3013 390 65 -2000 VRB/05 RMK AO1 T10611117
54779K12N 12N20160303031510203/03/16 03:15:31  5-MIN K12N 030815Z AUTO 36006KT M06/M12 A3013 390 62 -2000 010/06 RMK AO1 T10561117
54779K12N 12N20160303032010203/03/16 03:20:31  5-MIN K12N 030820Z AUTO 36005KT M06/M12 A3014 390 62 -2000 010/05 RMK AO1 T10561117
54779K12N 12N20160303032510203/03/16 03:25:31  5-MIN K12N 030825Z AUTO 36004KT M06/M12 A3014 380 59 -2000 010/04 RMK AO1 T10561122
54779K12N 12N20160303033010203/03/16 03:30:31  5-MIN K12N 030830Z AUTO 35003KT M06/M12 A3015 380 62 -2100 360/03 RMK AO1 T10611122
54779K12N 12N20160303033510203/03/16 03:35:31  5-MIN K12N 030835Z AUTO 35003KT M06/M12 A3015 370 59 -2000 360/03 RMK AO1 T10561122
54779K12N 12N20160303034010203/03/16 03:40:31  5-MIN K12N 030840Z AUTO 00000KT M06/M12 A3015 370 59 -2000 000/00 RMK AO1 T10561122
54779K12N 12N20160303034510203/03/16 03:45:31  5-MIN K12N 030845Z AUTO 00000KT M06/M12 A3015 370 62 -2100 000/00 RMK AO1 T10611122
54779K12N 12N20160303035011503/03/16 03:50:31  5-MIN K12N 030850Z AUTO 35003KT M06/M12 A3016 370 59 -2000 360/03 RMK AO1 SLP224 T10561122 53024
54779K12N 12N20160303035510203/03/16 03:55:31  5-MIN K12N 030855Z AUTO 00000KT M06/M12 A3016 370 59 -2000 000/00 RMK AO1 T10561122
54779K12N 12N20160303040010203/03/16 04:00:31  5-MIN K12N 030900Z AUTO 35003KT M06/M12 A3016 370 62 -2100 010/03 RMK AO1 T10611122
54779K12N 12N20160303040510203/03/16 04:05:31  5-MIN K12N 030905Z AUTO 00000KT M06/M12 A3016 370 65 -2100 000/00 RMK AO1 T10611117
54779K12N 12N20160303041010203/03/16 04:10:31  5-MIN K12N 030910Z AUTO 00000KT M06/M12 A3016 360 65 -2100 000/00 RMK AO1 T10611117
54779K12N 12N20160303041510203/03/16 04:15:31  5-MIN K12N 030915Z AUTO 00000KT M06/M12 A3016 360 65 -2100 000/00 RMK AO1 T10611117
54779K12N 12N20160303042010203/03/16 04:20:31  5-MIN K12N 030920Z AUTO 35003KT M06/M12 A3016 360 65 -2100 010/03 RMK AO1 T10611117
54779K12N 12N20160303042510203/03/16 04:25:31  5-MIN K12N 030925Z AUTO 34003KT M06/M12 A3016 360 65 -2100 360/03 RMK AO1 T10611117
54779K12N 12N20160303043010203/03/16 04:30:31  5-MIN K12N 030930Z AUTO 00000KT M06/M12 A3017 360 65 -2100 000/00 RMK AO1 T10611117
54779K12N 12N20160303043510203/03/16 04:35:31  5-MIN K12N 030935Z AUTO 00000KT M06/M12 A3017 360 65 -2100 000/00 RMK AO1 T10611117
54779K12N 12N20160303044010203/03/16 04:40:31  5-MIN K12N 030940Z AUTO 00000KT M06/M12 A3017 350 65 -2100 000/00 RMK AO1 T10611117
54779K12N 12N20160303044510203/03/16 04:45:31  5-MIN K12N 030945Z AUTO 00000KT M06/M12 A3017 350 62 -2000 000/00 RMK AO1 T10561117
54779K12N 12N20160303045010903/03/16 04:50:31  5-MIN K12N 030950Z AUTO 00000KT M06/M12 A3017 350 62 -2000 000/00 RMK AO1 SLP230 T10561117
54779K12N 12N20160303045510203/03/16 04:55:31  5-MIN K12N 030955Z AUTO VRB03KT M06/M12 A3017 350 65 -2100 VRB/03 RMK AO1 T10611117
54779K12N 12N20160303050010203/03/16 05:00:31  5-MIN K12N 031000Z AUTO 00000KT M06/M12 A3018 350 65 -2100 000/00 RMK AO1 T10611117
54779K12N 12N20160303050510203/03/16 05:05:31  5-MIN K12N 031005Z AUTO 33003KT M06/M12 A3018 350 65 -2100 340/03 RMK AO1 T10611117
54779K12N 12N20160303051010203/03/16 05:10:31  5-MIN K12N 031010Z AUTO 00000KT M06/M12 A3017 350 65 -2100 000/00 RMK AO1 T10611117
54779K12N 12N20160303051510203/03/16 05:15:31  5-MIN K12N 031015Z AUTO 00000KT M06/M12 A3017 350 65 -2100 000/00 RMK AO1 T10611117
54779K12N 12N20160303052010203/03/16 05:20:31  5-MIN K12N 031020Z AUTO 34003KT M06/M12 A3018 350 65 -2100 360/03 RMK AO1 T10611117
54779K12N 12N20160303052510203/03/16 05:25:31  5-MIN K12N 031025Z AUTO VRB03KT M06/M12 A3018 350 65 -2100 VRB/03 RMK AO1 T10611117
54779K12N 12N20160303053010203/03/16 05:30:31  5-MIN K12N 031030Z AUTO 01003KT M06/M12 A3018 340 62 -2100 020/03 RMK AO1 T10611122
54779K12N 12N20160303053510203/03/16 05:35:31  5-MIN K12N 031035Z AUTO 36005KT M06/M12 A3019 340 65 -2100 010/05 RMK AO1 T10611117
54779K12N 12N20160303054010203/03/16 05:40:31  5-MIN K12N 031040Z AUTO VRB04KT M06/M12 A3019 340 62 -2100 VRB/04 RMK AO1 T10611122
54779K12N 12N20160303054509203/03/16 05:45:31  5-MIN K12N 031045Z AUTO M06/M12 A3019 340 62 -2100 M /M RMK AO1 T10611122
54779K12N 12N20160303055010903/03/16 05:50:31  5-MIN K12N 031050Z AUTO VRB06KT M06/M12 A3018 340 62 -2100 VRB/06 RMK AO1 SLP235 T10611122
54779K12N 12N20160303055512403/03/16 05:55:31  5-MIN K12N 031055Z AUTO 34009G14KT 310V030 M06/M13 A3019 340 59 -2100 350/09G14 320V040 RMK AO1 T10611128
54779K12N 12N20160303060010203/03/16 06:00:31  5-MIN K12N 031100Z AUTO VRB06KT M06/M13 A3019 340 57 -2100 VRB/06 RMK AO1 T10611133
54779K12N 12N20160303060511803/03/16 06:05:31  5-MIN K12N 031105Z AUTO 33007KT 300V010 M06/M13 A3019 330 57 -2100 350/07 310V020 RMK AO1 T10611133
54779K12N 12N20160303061010203/03/16 06:10:31  5-MIN K12N 031110Z AUTO VRB04KT M06/M13 A3020 330 57 -2100 VRB/04 RMK AO1 T10611133
54779K12N 12N20160303061510203/03/16 06:15:31  5-MIN K12N 031115Z AUTO VRB04KT M06/M14 A3020 330 54 -2100 VRB/04 RMK AO1 T10611139
54779K12N 12N20160303062010203/03/16 06:20:31  5-MIN K12N 031120Z AUTO 34005KT M06/M14 A3020 330 54 -2100 360/05 RMK AO1 T10611139
54779K12N 12N20160303062510203/03/16 06:25:31  5-MIN K12N 031125Z AUTO 34004KT M06/M14 A3021 320 54 -2100 350/04 RMK AO1 T10611139
54779K12N 12N20160303063010203/03/16 06:30:31  5-MIN K12N 031130Z AUTO VRB04KT M06/M14 A3021 320 54 -2100 VRB/04 RMK AO1 T10611139
54779K12N 12N20160303063510203/03/16 06:35:31  5-MIN K12N 031135Z AUTO 35004KT M06/M14 A3021 320 54 -2100 360/04 RMK AO1 T10611139
54779K12N 12N20160303064010203/03/16 06:40:31  5-MIN K12N 031140Z AUTO 33003KT M06/M14 A3021 320 54 -2100 340/03 RMK AO1 T10611139
54779K12N 12N20160303064510203/03/16 06:45:31  5-MIN K12N 031145Z AUTO 34004KT M06/M14 A3021 320 54 -2100 360/04 RMK AO1 T10611139
54779K12N 12N20160303065012703/03/16 06:50:31  5-MIN K12N 031150Z AUTO VRB04KT M06/M14 A3021 320 54 -2100 VRB/04 RMK AO1 SLP245 T10611139 11044 21061 53008
54779K12N 12N20160303065510203/03/16 06:55:31  5-MIN K12N 031155Z AUTO 36008KT M06/M13 A3021 320 57 -2100 010/08 RMK AO1 T10611133
54779K12N 12N20160303070010203/03/16 07:00:31  5-MIN K12N 031200Z AUTO 34006KT M06/M14 A3022 310 54 -2100 350/06 RMK AO1 T10611139
54779K12N 12N20160303070510203/03/16 07:05:31  5-MIN K12N 031205Z AUTO 36006KT M06/M14 A3022 310 54 -2100 010/06 RMK AO1 T10611139
54779K12N 12N20160303071010203/03/16 07:10:31  5-MIN K12N 031210Z AUTO VRB04KT M06/M14 A3022 300 54 -2100 VRB/04 RMK AO1 T10611139
54779K12N 12N20160303071510203/03/16 07:15:31  5-MIN K12N 031215Z AUTO 36008KT M06/M14 A3023 300 54 -2200 010/08 RMK AO1 T10611139
54779K12N 12N20160303072011803/03/16 07:20:31  5-MIN K12N 031220Z AUTO 33007KT 250V360 M06/M14 A3023 300 52 -2200 350/07 260V010 RMK AO1 T10611144
54779K12N 12N20160303072512403/03/16 07:25:31  5-MIN K12N 031225Z AUTO 35010G15KT 320V020 M06/M15 A3023 300 50 -2200 010/10G15 330V030 RMK AO1 T10611150
54779K12N 12N20160303073010803/03/16 07:30:31  5-MIN K12N 031230Z AUTO 35010G16KT M06/M16 A3024 290 45 -2100 360/10G16 RMK AO1 T10561156
54779K12N 12N20160303073510803/03/16 07:35:31  5-MIN K12N 031235Z AUTO VRB06G18KT M06/M16 A3024 290 45 -2100 VRB/06G18 RMK AO1 T10561156
54779K12N 12N20160303074010803/03/16 07:40:31  5-MIN K12N 031240Z AUTO 35009G18KT M05/M16 A3024 290 44 -2000 010/09G18 RMK AO1 T10501156
54779K12N 12N20160303074512403/03/16 07:45:31  5-MIN K12N 031245Z AUTO 01009G14KT 330V050 M05/M16 A3024 290 44 -2000 030/09G14 340V060 RMK AO1 T10501156
54779K12N 12N20160303075012503/03/16 07:50:31  5-MIN K12N 031250Z AUTO 36007KT 330V070 M05/M16 A3024 290 42 -2000 010/07 340V080 RMK AO1 SLP255 T10501161
54779K12N 12N20160303075512403/03/16 07:55:31  5-MIN K12N 031255Z AUTO 02007G20KT 340V050 M05/M16 A3025 280 44 -2000 030/07G20 350V060 RMK AO1 T10501156
54779K12N 12N20160303080010803/03/16 08:00:31  5-MIN K12N 031300Z AUTO VRB06G20KT M05/M16 A3025 280 44 -2000 VRB/06G20 RMK AO1 T10501156
54779K12N 12N20160303080512403/03/16 08:05:31  5-MIN K12N 031305Z AUTO 35007G14KT 330V030 M05/M16 A3025 280 42 -2000 010/07G14 340V040 RMK AO1 T10501161
54779K12N 12N20160303081010803/03/16 08:10:31  5-MIN K12N 031310Z AUTO 01008G14KT M04/M16 A3025 280 42 -2000 030/08G14 RMK AO1 T10441156
54779K12N 12N20160303081510203/03/16 08:15:31  5-MIN K12N 031315Z AUTO 01007KT M04/M16 A3025 280 42 -2000 020/07 RMK AO1 T10441156
54779K12N 12N20160303082011803/03/16 08:20:31  5-MIN K12N 031320Z AUTO 36007KT 330V040 M04/M16 A3025 280 40 -2000 010/07 340V050 RMK AO1 T10441161
54779K12N 12N20160303082510203/03/16 08:25:31  5-MIN K12N 031325Z AUTO 35008KT M04/M16 A3025 280 42 -2000 360/08 RMK AO1 T10441156
54779K12N 12N20160303083010203/03/16 08:30:31  5-MIN K12N 031330Z AUTO VRB06KT M04/M16 A3025 280 40 -2000 VRB/06 RMK AO1 T10441161
54779K12N 12N20160303083510203/03/16 08:35:31  5-MIN K12N 031335Z AUTO 35007KT M04/M16 A3025 280 40 -1900 010/07 RMK AO1 T10391156
54779K12N 12N20160303084010203/03/16 08:40:31  5-MIN K12N 031340Z AUTO 35010KT M04/M16 A3025 290 40 -1900 360/10 RMK AO1 T10391156
54779K12N 12N20160303084510203/03/16 08:45:31  5-MIN K12N 031345Z AUTO VRB05KT M04/M16 A3024 290 40 -1900 VRB/05 RMK AO1 T10391156
54779K12N 12N20160303085013103/03/16 08:50:31  5-MIN K12N 031350Z AUTO 36009G16KT 320V050 M04/M16 A3024 290 40 -1900 010/09G16 330V060 RMK AO1 SLP254 T10391156
54779K12N 12N20160303085512403/03/16 08:55:31  5-MIN K12N 031355Z AUTO 35009G16KT 310V030 M04/M16 A3024 290 38 -1900 360/09G16 320V040 RMK AO1 T10391161
54779K12N 12N20160303090012403/03/16 09:00:31  5-MIN K12N 031400Z AUTO 36007G16KT 320V030 M04/M16 A3024 290 38 -1900 010/07G16 330V040 RMK AO1 T10391161
54779K12N 12N20160303090510203/03/16 09:05:31  5-MIN K12N 031405Z AUTO 34010KT M04/M16 A3024 290 40 -1900 360/10 RMK AO1 T10391156
54779K12N 12N20160303091012403/03/16 09:10:31  5-MIN K12N 031410Z AUTO 34007G14KT 300V020 M04/M16 A3024 290 38 -1900 350/07G14 310V030 RMK AO1 T10391161
54779K12N 12N20160303091512403/03/16 09:15:31  5-MIN K12N 031415Z AUTO 35008G14KT 320V030 M04/M16 A3024 290 38 -1900 010/08G14 330V040 RMK AO1 T10391161
54779K12N 12N20160303092010203/03/16 09:20:31  5-MIN K12N 031420Z AUTO 33009KT M04/M16 A3024 290 38 -1900 350/09 RMK AO1 T10391161
54779K12N 12N20160303092511803/03/16 09:25:31  5-MIN K12N 031425Z AUTO 33007KT 300V010 M04/M16 A3024 290 38 -1900 340/07 310V020 RMK AO1 T10391161
54779K12N 12N20160303093010803/03/16 09:30:31  5-MIN K12N 031430Z AUTO 35011G16KT M04/M16 A3024 290 38 -1900 360/11G16 RMK AO1 T10391161
54779K12N 12N20160303093510803/03/16 09:35:31  5-MIN K12N 031435Z AUTO VRB05G16KT M04/M16 A3025 290 40 -1900 VRB/05G16 RMK AO1 T10391156
54779K12N 12N20160303094010203/03/16 09:40:31  5-MIN K12N 031440Z AUTO 36009KT M03/M15 A3025 280 40 -1800 010/09 RMK AO1 T10331150
54779K12N 12N20160303094510203/03/16 09:45:31  5-MIN K12N 031445Z AUTO 35008KT M03/M16 A3025 290 38 -1800 360/08 RMK AO1 T10331156
54779K12N 12N20160303095011503/03/16 09:50:31  5-MIN K12N 031450Z AUTO VRB05KT M03/M16 A3025 280 38 -1800 VRB/05 RMK AO1 SLP257 T10331156 53020
54779K12N 12N20160303095510203/03/16 09:55:31  5-MIN K12N 031455Z AUTO VRB05KT M03/M16 A3025 280 37 -1800 VRB/05 RMK AO1 T10331161
54779K12N 12N20160303100010203/03/16 10:00:31  5-MIN K12N 031500Z AUTO 32004KT M03/M16 A3025 280 38 -1800 340/04 RMK AO1 T10331156
54779K12N 12N20160303100510203/03/16 10:05:31  5-MIN K12N 031505Z AUTO VRB06KT M03/M16 A3025 280 37 -1700 VRB/06 RMK AO1 T10281156
54779K12N 12N20160303101010203/03/16 10:10:31  5-MIN K12N 031510Z AUTO VRB06KT M03/M16 A3025 280 37 -1700 VRB/06 RMK AO1 T10281156
54779K12N 12N20160303101510203/03/16 10:15:31  5-MIN K12N 031515Z AUTO 34005KT M03/M16 A3025 280 37 -1800 360/05 RMK AO1 T10331161
54779K12N 12N20160303102010203/03/16 10:20:31  5-MIN K12N 031520Z AUTO VRB04KT M03/M16 A3025 280 37 -1700 VRB/04 RMK AO1 T10281156
54779K12N 12N20160303102510203/03/16 10:25:31  5-MIN K12N 031525Z AUTO VRB05KT M03/M15 A3025 280 39 -1700 VRB/05 RMK AO1 T10281150
54779K12N 12N20160303103010203/03/16 10:30:31  5-MIN K12N 031530Z AUTO VRB06KT M02/M15 A3025 280 37 -1700 VRB/06 RMK AO1 T10221150
54779K12N 12N20160303103510203/03/16 10:35:31  5-MIN K12N 031535Z AUTO VRB04KT M03/M16 A3025 280 37 -1700 VRB/04 RMK AO1 T10281156
54779K12N 12N20160303104010203/03/16 10:40:31  5-MIN K12N 031540Z AUTO VRB06KT M03/M16 A3025 280 37 -1700 VRB/06 RMK AO1 T10281156
54779K12N 12N20160303104510203/03/16 10:45:31  5-MIN K12N 031545Z AUTO VRB06KT M03/M16 A3025 280 37 -1700 VRB/06 RMK AO1 T10281156
54779K12N 12N20160303105010903/03/16 10:50:31  5-MIN K12N 031550Z AUTO VRB03KT M03/M16 A3025 280 37 -1700 VRB/03 RMK AO1 SLP258 T10281156
54779K12N 12N20160303105510203/03/16 10:55:31  5-MIN K12N 031555Z AUTO 35005KT M02/M15 A3025 280 37 -1700 360/05 RMK AO1 T10221150
54779K12N 12N20160303110010203/03/16 11:00:31  5-MIN K12N 031600Z AUTO 35007KT M02/M15 A3025 290 37 -1700 360/07 RMK AO1 T10221150
54779K12N 12N20160303110510203/03/16 11:05:31  5-MIN K12N 031605Z AUTO VRB05KT M02/M16 A3024 290 35 -1700 VRB/05 RMK AO1 T10221156
54779K12N 12N20160303111010203/03/16 11:10:31  5-MIN K12N 031610Z AUTO VRB04KT M02/M15 A3025 280 35 -1600 VRB/04 RMK AO1 T10171150
54779K12N 12N20160303111510203/03/16 11:15:31  5-MIN K12N 031615Z AUTO VRB04KT M02/M16 A3024 290 35 -1700 VRB/04 RMK AO1 T10221156
54779K12N 12N20160303112011803/03/16 11:20:31  5-MIN K12N 031620Z AUTO 36008KT 340V040 M02/M16 A3025 280 34 -1600 010/08 350V050 RMK AO1 T10171156
54779K12N 12N20160303112510203/03/16 11:25:31  5-MIN K12N 031625Z AUTO 02004KT M02/M16 A3024 290 35 -1700 030/04 RMK AO1 T10221156
54779K12N 12N20160303113010203/03/16 11:30:31  5-MIN K12N 031630Z AUTO 07003KT M02/M15 A3024 290 37 -1700 080/03 RMK AO1 T10221150
54779K12N 12N20160303113510203/03/16 11:35:31  5-MIN K12N 031635Z AUTO 00000KT M02/M16 A3024 300 34 -1600 000/00 RMK AO1 T10171156
54779K12N 12N20160303114010203/03/16 11:40:31  5-MIN K12N 031640Z AUTO VRB05KT M01/M15 A3023 300 34 -1500 VRB/05 RMK AO1 T10111150
54779K12N 12N20160303114510203/03/16 11:45:31  5-MIN K12N 031645Z AUTO VRB03KT M01/M15 A3023 300 34 -1500 VRB/03 RMK AO1 T10111150
54779K12N 12N20160303115010903/03/16 11:50:31  5-MIN K12N 031650Z AUTO VRB04KT M02/M16 A3023 300 34 -1600 VRB/04 RMK AO1 SLP249 T10171156
54779K12N 12N20160303115510203/03/16 11:55:31  5-MIN K12N 031655Z AUTO 35006KT M02/M16 A3022 310 34 -1600 360/06 RMK AO1 T10171156
54779K12N 12N20160303120010203/03/16 12:00:31  5-MIN K12N 031700Z AUTO 00000KT M02/M16 A3022 310 34 -1600 000/00 RMK AO1 T10171156
54779K12N 12N20160303120510203/03/16 12:05:31  5-MIN K12N 031705Z AUTO 08003KT M02/M16 A3022 310 34 -1600 090/03 RMK AO1 T10171156
54779K12N 12N20160303121010203/03/16 12:10:31  5-MIN K12N 031710Z AUTO 00000KT M02/M16 A3022 310 34 -1600 000/00 RMK AO1 T10171156
54779K12N 12N20160303121510203/03/16 12:15:31  5-MIN K12N 031715Z AUTO VRB03KT M01/M16 A3022 310 33 -1500 VRB/03 RMK AO1 T10111156
54779K12N 12N20160303122010203/03/16 12:20:31  5-MIN K12N 031720Z AUTO 00000KT M01/M16 A3021 310 33 -1500 000/00 RMK AO1 T10111156
54779K12N 12N20160303122510203/03/16 12:25:31  5-MIN K12N 031725Z AUTO 30006KT M01/M16 A3021 310 33 -1500 310/06 RMK AO1 T10111156
54779K12N 12N20160303123010203/03/16 12:30:31  5-MIN K12N 031730Z AUTO 00000KT M02/M16 A3021 310 32 -1600 000/00 RMK AO1 T10171161
54779K12N 12N20160303123510203/03/16 12:35:31  5-MIN K12N 031735Z AUTO 25006KT M01/M16 A3021 320 33 -1500 270/06 RMK AO1 T10111156
54779K12N 12N20160303124010203/03/16 12:40:31  5-MIN K12N 031740Z AUTO 00000KT M01/M16 A3021 320 33 -1500 000/00 RMK AO1 T10111156
54779K12N 12N20160303124510203/03/16 12:45:31  5-MIN K12N 031745Z AUTO 21003KT M01/M15 A3021 320 33 -1400 220/03 RMK AO1 T10061150
54779K12N 12N20160303125012703/03/16 12:50:31  5-MIN K12N 031750Z AUTO VRB04KT M01/M16 A3020 320 31 -1400 VRB/04 RMK AO1 SLP241 T10061156 11006 21061 51011
54779K12N 12N20160303125510203/03/16 12:55:31  5-MIN K12N 031755Z AUTO 35005KT M01/M15 A3020 330 33 -1400 360/05 RMK AO1 T10061150
54779K12N 12N20160303130010203/03/16 13:00:31  5-MIN K12N 031800Z AUTO 21003KT M01/M16 A3020 330 31 -1400 220/03 RMK AO1 T10061156
54779K12N 12N20160303130509203/03/16 13:05:31  5-MIN K12N 031805Z AUTO M01/M15 A3020 330 33 -1400 M /M RMK AO1 T10061150
54779K12N 12N20160303131010203/03/16 13:10:31  5-MIN K12N 031810Z AUTO VRB06KT M01/M16 A3020 330 31 -1400 VRB/06 RMK AO1 T10061156
54779K12N 12N20160303131510103/03/16 13:15:31  5-MIN K12N 031815Z AUTO 00000KT 00/M16 A3020 330 30 -1300 000/00 RMK AO1 T00001156
54779K12N 12N20160303132010203/03/16 13:20:31  5-MIN K12N 031820Z AUTO 32006KT M01/M16 A3019 330 31 -1400 330/06 RMK AO1 T10061156
54779K12N 12N20160303132510203/03/16 13:25:31  5-MIN K12N 031825Z AUTO 28005KT M01/M16 A3019 330 31 -1400 290/05 RMK AO1 T10061156
54779K12N 12N20160303133010203/03/16 13:30:31  5-MIN K12N 031830Z AUTO VRB05KT M01/M15 A3020 330 33 -1400 VRB/05 RMK AO1 T10061150
54779K12N 12N20160303133510203/03/16 13:35:31  5-MIN K12N 031835Z AUTO VRB03KT M01/M15 A3020 330 33 -1400 VRB/03 RMK AO1 T10061150
54779K12N 12N20160303134009203/03/16 13:40:31  5-MIN K12N 031840Z AUTO M01/M16 A3020 330 31 -1400 M /M RMK AO1 T10061156
54779K12N 12N20160303134510103/03/16 13:45:31  5-MIN K12N 031845Z AUTO 00000KT 00/M15 A3019 330 31 -1300 000/00 RMK AO1 T00001150
54779K12N 12N20160303135010903/03/16 13:50:31  5-MIN K12N 031850Z AUTO 21006KT M01/M15 A3019 330 33 -1400 220/06 RMK AO1 SLP237 T10061150
54779K12N 12N20160303135510103/03/16 13:55:31  5-MIN K12N 031855Z AUTO VRB04KT 00/M15 A3019 330 31 -1300 VRB/04 RMK AO1 T00001150
54779K12N 12N20160303140010103/03/16 14:00:31  5-MIN K12N 031900Z AUTO 22004KT 00/M14 A3019 330 33 -1300 240/04 RMK AO1 T00001144
54779K12N 12N20160303140510203/03/16 14:05:31  5-MIN K12N 031905Z AUTO 19005KT M01/M15 A3019 340 33 -1400 210/05 RMK AO1 T10061150
54779K12N 12N20160303141010103/03/16 14:10:31  5-MIN K12N 031910Z AUTO VRB04KT 00/M14 A3019 340 33 -1300 VRB/04 RMK AO1 T00001144
54779K12N 12N20160303141510103/03/16 14:15:31  5-MIN K12N 031915Z AUTO 00000KT 01/M14 A3019 340 30 -1200 000/00 RMK AO1 T00111144
54779K12N 12N20160303142009103/03/16 14:20:31  5-MIN K12N 031920Z AUTO 01/M15 A3019 340 30 -1300 M /M RMK AO1 T00061150
54779K12N 12N20160303142510103/03/16 14:25:31  5-MIN K12N 031925Z AUTO 00000KT 01/M16 A3019 340 29 -1300 000/00 RMK AO1 T00061156
54779K12N 12N20160303143010103/03/16 14:30:31  5-MIN K12N 031930Z AUTO 21005KT 01/M14 A3019 340 32 -1300 220/05 RMK AO1 T00061144
54779K12N 12N20160303143510103/03/16 14:35:31  5-MIN K12N 031935Z AUTO VRB04KT 00/M15 A3018 340 31 -1300 VRB/04 RMK AO1 T00001150
54779K12N 12N20160303144010103/03/16 14:40:31  5-MIN K12N 031940Z AUTO 20005KT 00/M15 A3018 340 31 -1300 210/05 RMK AO1 T00001150
54779K12N 12N20160303144510203/03/16 14:45:31  5-MIN K12N 031945Z AUTO 20005KT M01/M15 A3018 350 33 -1400 220/05 RMK AO1 T10061150
54779K12N 12N20160303145010803/03/16 14:50:31  5-MIN K12N 031950Z AUTO VRB04KT 00/M15 A3018 350 31 -1300 VRB/04 RMK AO1 SLP232 T00001150
54779K12N 12N20160303145510103/03/16 14:55:31  5-MIN K12N 031955Z AUTO 00000KT 01/M15 A3018 350 30 -1200 000/00 RMK AO1 T00061150
54779K12N 12N20160303150010103/03/16 15:00:31  5-MIN K12N 032000Z AUTO 00000KT 01/M15 A3018 350 29 -1200 000/00 RMK AO1 T00111150
54779K12N 12N20160303150509103/03/16 15:05:31  5-MIN K12N 032005Z AUTO 01/M15 A3017 350 30 -1200 M /M RMK AO1 T00061150
54779K12N 12N20160303151010103/03/16 15:10:31  5-MIN K12N 032010Z AUTO 00000KT 00/M16 A3017 350 30 -1300 000/00 RMK AO1 T00001156
54779K12N 12N20160303151510103/03/16 15:15:31  5-MIN K12N 032015Z AUTO 25004KT 00/M15 A3017 350 31 -1300 260/04 RMK AO1 T00001150
54779K12N 12N20160303152010103/03/16 15:20:31  5-MIN K12N 032020Z AUTO VRB04KT 00/M16 A3018 350 30 -1300 VRB/04 RMK AO1 T00001156
54779K12N 12N20160303152510103/03/16 15:25:31  5-MIN K12N 032025Z AUTO 00000KT 00/M15 A3018 350 31 -1300 000/00 RMK AO1 T00001150
54779K12N 12N20160303153010103/03/16 15:30:31  5-MIN K12N 032030Z AUTO 22004KT 00/M15 A3018 350 31 -1300 230/04 RMK AO1 T00001150
54779K12N 12N20160303153510103/03/16 15:35:31  5-MIN K12N 032035Z AUTO 31003KT 00/M16 A3018 350 30 -1300 320/03 RMK AO1 T00001156
54779K12N 12N20160303154010103/03/16 15:40:31  5-MIN K12N 032040Z AUTO 00000KT 00/M15 A3017 350 31 -1300 000/00 RMK AO1 T00001150
54779K12N 12N20160303154510103/03/16 15:45:31  5-MIN K12N 032045Z AUTO 00000KT 00/M15 A3018 350 31 -1300 000/00 RMK AO1 T00001150
54779K12N 12N20160303155011403/03/16 15:50:31  5-MIN K12N 032050Z AUTO 22006KT 00/M15 A3017 350 31 -1300 240/06 RMK AO1 SLP230 T00001150 58015
54779K12N 12N20160303155510103/03/16 15:55:31  5-MIN K12N 032055Z AUTO 00000KT 00/M15 A3017 360 31 -1300 000/00 RMK AO1 T00001150
54779K12N 12N20160303160010103/03/16 16:00:31  5-MIN K12N 032100Z AUTO VRB03KT 01/M14 A3017 360 32 -1200 VRB/03 RMK AO1 T00061144
54779K12N 12N20160303160510103/03/16 16:05:31  5-MIN K12N 032105Z AUTO 00000KT 01/M14 A3017 360 32 -1200 000/00 RMK AO1 T00061144
54779K12N 12N20160303161010103/03/16 16:10:31  5-MIN K12N 032110Z AUTO VRB04KT 00/M14 A3017 360 33 -1300 VRB/04 RMK AO1 T00001144
54779K12N 12N20160303161510103/03/16 16:15:31  5-MIN K12N 032115Z AUTO VRB03KT 00/M14 A3017 360 33 -1300 VRB/03 RMK AO1 T00001144
54779K12N 12N20160303162010103/03/16 16:20:31  5-MIN K12N 032120Z AUTO 23004KT 00/M14 A3016 360 33 -1300 240/04 RMK AO1 T00001144
54779K12N 12N20160303162510103/03/16 16:25:31  5-MIN K12N 032125Z AUTO VRB03KT 00/M14 A3016 360 34 -1300 VRB/03 RMK AO1 T00001139
54779K12N 12N20160303163010103/03/16 16:30:31  5-MIN K12N 032130Z AUTO 21004KT 00/M14 A3016 360 33 -1300 220/04 RMK AO1 T00001144
54779K12N 12N20160303163510103/03/16 16:35:31  5-MIN K12N 032135Z AUTO VRB03KT 00/M14 A3016 360 33 -1300 VRB/03 RMK AO1 T00001144
54779K12N 12N20160303164010103/03/16 16:40:31  5-MIN K12N 032140Z AUTO VRB04KT 00/M14 A3016 360 33 -1300 VRB/04 RMK AO1 T00001144
54779K12N 12N20160303164510103/03/16 16:45:31  5-MIN K12N 032145Z AUTO 23005KT 00/M14 A3016 360 33 -1300 240/05 RMK AO1 T00001144
54779K12N 12N20160303165010803/03/16 16:50:31  5-MIN K12N 032150Z AUTO VRB03KT 00/M14 A3016 360 33 -1300 VRB/03 RMK AO1 SLP227 T00001144
54779K12N 12N20160303165510103/03/16 16:55:31  5-MIN K12N 032155Z AUTO 22004KT 00/M14 A3017 360 34 -1300 230/04 RMK AO1 T00001139
54779K12N 12N20160303170010103/03/16 17:00:31  5-MIN K12N 032200Z AUTO 20003KT 00/M14 A3017 360 33 -1300 210/03 RMK AO1 T00001144
54779K12N 12N20160303170510103/03/16 17:05:31  5-MIN K12N 032205Z AUTO 23005KT 00/M14 A3017 360 33 -1300 250/05 RMK AO1 T00001144
54779K12N 12N20160303171010103/03/16 17:10:31  5-MIN K12N 032210Z AUTO 24003KT 00/M14 A3017 350 33 -1300 260/03 RMK AO1 T00001144
54779K12N 12N20160303171510103/03/16 17:15:31  5-MIN K12N 032215Z AUTO 23004KT 00/M14 A3017 350 33 -1300 250/04 RMK AO1 T00001144
54779K12N 12N20160303172010103/03/16 17:20:31  5-MIN K12N 032220Z AUTO 23004KT 00/M14 A3018 350 33 -1300 240/04 RMK AO1 T00001144
54779K12N 12N20160303172510103/03/16 17:25:31  5-MIN K12N 032225Z AUTO 21004KT 00/M14 A3018 350 34 -1300 220/04 RMK AO1 T00001139
54779K12N 12N20160303173010103/03/16 17:30:31  5-MIN K12N 032230Z AUTO 23004KT 00/M14 A3017 350 33 -1300 240/04 RMK AO1 T00001144
54779K12N 12N20160303173510103/03/16 17:35:31  5-MIN K12N 032235Z AUTO 24003KT 00/M14 A3017 350 33 -1300 260/03 RMK AO1 T00001144
54779K12N 12N20160303174010103/03/16 17:40:31  5-MIN K12N 032240Z AUTO 00000KT 00/M15 A3017 360 31 -1300 000/00 RMK AO1 T00001150
54779K12N 12N20160303174510203/03/16 17:45:31  5-MIN K12N 032245Z AUTO 23003KT M01/M14 A3017 350 36 -1400 240/03 RMK AO1 T10061139
54779K12N 12N20160303175010903/03/16 17:50:31  5-MIN K12N 032250Z AUTO 22003KT M01/M14 A3017 350 36 -1400 230/03 RMK AO1 SLP231 T10061139
54779K12N 12N20160303175510203/03/16 17:55:31  5-MIN K12N 032255Z AUTO 22003KT M01/M14 A3018 350 36 -1400 240/03 RMK AO1 T10061139
54779K12N 12N20160303180010203/03/16 18:00:31  5-MIN K12N 032300Z AUTO 00000KT M01/M13 A3018 350 37 -1400 000/00 RMK AO1 T10061133
54779K12N 12N20160303180510203/03/16 18:05:31  5-MIN K12N 032305Z AUTO 22003KT M01/M13 A3018 340 37 -1400 240/03 RMK AO1 T10061133
54779K12N 12N20160303181010203/03/16 18:10:31  5-MIN K12N 032310Z AUTO 22003KT M01/M14 A3019 340 36 -1400 230/03 RMK AO1 T10061139
54779K12N 12N20160303181510203/03/16 18:15:31  5-MIN K12N 032315Z AUTO 00000KT M01/M13 A3019 340 37 -1400 000/00 RMK AO1 T10061133
54779K12N 12N20160303182010203/03/16 18:20:31  5-MIN K12N 032320Z AUTO 00000KT M01/M12 A3019 340 41 -1400 000/00 RMK AO1 T10061122
54779K12N 12N20160303182510203/03/16 18:25:31  5-MIN K12N 032325Z AUTO 00000KT M01/M13 A3019 340 39 -1400 000/00 RMK AO1 T10061128
54779K12N 12N20160303183010203/03/16 18:30:31  5-MIN K12N 032330Z AUTO 00000KT M01/M13 A3019 340 39 -1400 000/00 RMK AO1 T10061128
54779K12N 12N20160303183510203/03/16 18:35:31  5-MIN K12N 032335Z AUTO 00000KT M01/M13 A3019 330 37 -1400 000/00 RMK AO1 T10061133
54779K12N 12N20160303184010203/03/16 18:40:31  5-MIN K12N 032340Z AUTO 00000KT M01/M13 A3019 330 37 -1400 000/00 RMK AO1 T10061133
54779K12N 12N20160303184510203/03/16 18:45:31  5-MIN K12N 032345Z AUTO 00000KT M01/M13 A3019 330 37 -1400 000/00 RMK AO1 T10061133
54779K12N 12N20160303185012703/03/16 18:50:31  5-MIN K12N 032350Z AUTO 00000KT M01/M14 A3019 340 36 -1400 000/00 RMK AO1 SLP237 T10061139 10011 21011 57011
54779K12N 12N20160303185510203/03/16 18:55:31  5-MIN K12N 032355Z AUTO 00000KT M01/M13 A3019 340 37 -1400 000/00 RMK AO1 T10061133
54779K12N 12N20160303190010203/03/16 19:00:31  5-MIN K12N 040000Z AUTO 00000KT M01/M13 A3018 340 37 -1400 000/00 RMK AO1 T10061133
54779K12N 12N20160303190510203/03/16 19:05:31  5-MIN K12N 040005Z AUTO 00000KT M01/M13 A3018 340 37 -1400 000/00 RMK AO1 T10061133
54779K12N 12N20160303191010203/03/16 19:10:31  5-MIN K12N 040010Z AUTO 19003KT M01/M14 A3018 350 36 -1400 200/03 RMK AO1 T10061139
54779K12N 12N20160303191510203/03/16 19:15:31  5-MIN K12N 040015Z AUTO 00000KT M01/M14 A3018 340 36 -1400 000/00 RMK AO1 T10061139
54779K12N 12N20160303192010203/03/16 19:20:31  5-MIN K12N 040020Z AUTO 00000KT M01/M14 A3018 340 36 -1400 000/00 RMK AO1 T10061139
54779K12N 12N20160303192510203/03/16 19:25:31  5-MIN K12N 040025Z AUTO 00000KT M01/M14 A3018 340 36 -1400 000/00 RMK AO1 T10061139
54779K12N 12N20160303193010203/03/16 19:30:31  5-MIN K12N 040030Z AUTO 19005KT M01/M14 A3019 340 36 -1400 200/05 RMK AO1 T10061139
54779K12N 12N20160303193510203/03/16 19:35:31  5-MIN K12N 040035Z AUTO 00000KT M01/M13 A3019 340 37 -1400 000/00 RMK AO1 T10061133
54779K12N 12N20160303194010203/03/16 19:40:31  5-MIN K12N 040040Z AUTO 22004KT M01/M12 A3019 340 41 -1400 240/04 RMK AO1 T10061122
54779K12N 12N20160303194510203/03/16 19:45:31  5-MIN K12N 040045Z AUTO 21003KT M01/M13 A3019 340 39 -1400 230/03 RMK AO1 T10061128
54779K12N 12N20160303195010903/03/16 19:50:31  5-MIN K12N 040050Z AUTO 00000KT M01/M12 A3019 340 41 -1400 000/00 RMK AO1 SLP235 T10061122
54779K12N 12N20160303195510203/03/16 19:55:31  5-MIN K12N 040055Z AUTO VRB03KT M01/M13 A3019 340 39 -1400 VRB/03 RMK AO1 T10061128
54779K12N 12N20160303200010203/03/16 20:00:31  5-MIN K12N 040100Z AUTO 20004KT M01/M13 A3019 330 39 -1400 220/04 RMK AO1 T10061128
54779K12N 12N20160303200510203/03/16 20:05:31  5-MIN K12N 040105Z AUTO 21004KT M01/M13 A3020 330 39 -1400 230/04 RMK AO1 T10061128
54779K12N 12N20160303201010203/03/16 20:10:31  5-MIN K12N 040110Z AUTO 21004KT M01/M12 A3020 330 41 -1400 220/04 RMK AO1 T10061122
54779K12N 12N20160303201510203/03/16 20:15:31  5-MIN K12N 040115Z AUTO VRB04KT M01/M13 A3020 330 39 -1400 VRB/04 RMK AO1 T10061128
54779K12N 12N20160303202010203/03/16 20:20:31  5-MIN K12N 040120Z AUTO 20003KT M01/M12 A3020 330 41 -1400 220/03 RMK AO1 T10061122
54779K12N 12N20160303202510203/03/16 20:25:31  5-MIN K12N 040125Z AUTO 18003KT M01/M13 A3020 330 39 -1400 190/03 RMK AO1 T10061128
54779K12N 12N20160303203010203/03/16 20:30:31  5-MIN K12N 040130Z AUTO 21003KT M01/M13 A3020 330 37 -1400 230/03 RMK AO1 T10061133
54779K12N 12N20160303203510203/03/16 20:35:31  5-MIN K12N 040135Z AUTO 00000KT M01/M13 A3020 330 39 -1400 000/00 RMK AO1 T10061128
54779K12N 12N20160303204010203/03/16 20:40:31  5-MIN K12N 040140Z AUTO 00000KT M01/M12 A3020 330 41 -1400 000/00 RMK AO1 T10061122
54779K12N 12N20160303204510203/03/16 20:45:31  5-MIN K12N 040145Z AUTO 00000KT M01/M13 A3020 330 39 -1400 000/00 RMK AO1 T10061128
54779K12N 12N20160303205010903/03/16 20:50:31  5-MIN K12N 040150Z AUTO 00000KT M01/M13 A3019 340 39 -1400 000/00 RMK AO1 SLP236 T10061128
54779K12N 12N20160303205510203/03/16 20:55:31  5-MIN K12N 040155Z AUTO 00000KT M01/M12 A3019 330 41 -1400 000/00 RMK AO1 T10061122
54779K12N 12N20160303210010203/03/16 21:00:31  5-MIN K12N 040200Z AUTO 00000KT M01/M13 A3020 330 39 -1400 000/00 RMK AO1 T10061128
54779K12N 12N20160303210510203/03/16 21:05:31  5-MIN K12N 040205Z AUTO 00000KT M01/M13 A3019 340 39 -1400 000/00 RMK AO1 T10061128
54779K12N 12N20160303211010203/03/16 21:10:31  5-MIN K12N 040210Z AUTO 00000KT M01/M13 A3019 340 37 -1400 000/00 RMK AO1 T10061133
54779K12N 12N20160303211510203/03/16 21:15:31  5-MIN K12N 040215Z AUTO 00000KT M01/M13 A3019 330 39 -1400 000/00 RMK AO1 T10061128
54779K12N 12N20160303212010203/03/16 21:20:31  5-MIN K12N 040220Z AUTO 00000KT M01/M13 A3019 330 37 -1400 000/00 RMK AO1 T10061133
54779K12N 12N20160303212510203/03/16 21:25:31  5-MIN K12N 040225Z AUTO 00000KT M01/M13 A3019 330 39 -1400 000/00 RMK AO1 T10061128
54779K12N 12N20160303213010203/03/16 21:30:31  5-MIN K12N 040230Z AUTO 00000KT M01/M13 A3019 330 39 -1400 000/00 RMK AO1 T10061128
54779K12N 12N20160303213510203/03/16 21:35:31  5-MIN K12N 040235Z AUTO 00000KT M01/M13 A3019 330 37 -1400 000/00 RMK AO1 T10061133
54779K12N 12N20160303214010203/03/16 21:40:31  5-MIN K12N 040240Z AUTO 00000KT M01/M12 A3019 340 41 -1400 000/00 RMK AO1 T10061122
54779K12N 12N20160303214510203/03/16 21:45:31  5-MIN K12N 040245Z AUTO 00000KT M01/M13 A3019 340 37 -1400 000/00 RMK AO1 T10061133
54779K12N 12N20160303215011503/03/16 21:50:31  5-MIN K12N 040250Z AUTO 00000KT M01/M13 A3019 330 39 -1400 000/00 RMK AO1 SLP237 T10061128 53006
54779K12N 12N20160303215510203/03/16 21:55:31  5-MIN K12N 040255Z AUTO 00000KT M01/M13 A3019 330 39 -1400 000/00 RMK AO1 T10061128
54779K12N 12N20160303220010203/03/16 22:00:31  5-MIN K12N 040300Z AUTO 00000KT M01/M13 A3019 330 37 -1400 000/00 RMK AO1 T10061133
54779K12N 12N20160303220510203/03/16 22:05:31  5-MIN K12N 040305Z AUTO 00000KT M01/M12 A3019 340 41 -1400 000/00 RMK AO1 T10061122
54779K12N 12N20160303221010203/03/16 22:10:31  5-MIN K12N 040310Z AUTO 00000KT M01/M12 A3019 340 43 -1400 000/00 RMK AO1 T10061117
54779K12N 12N20160303221510203/03/16 22:15:31  5-MIN K12N 040315Z AUTO 00000KT M01/M13 A3019 340 39 -1400 000/00 RMK AO1 T10061128
54779K12N 12N20160303222010203/03/16 22:20:31  5-MIN K12N 040320Z AUTO 00000KT M01/M13 A3018 340 39 -1400 000/00 RMK AO1 T10061128
54779K12N 12N20160303222510203/03/16 22:25:31  5-MIN K12N 040325Z AUTO 00000KT M01/M12 A3018 340 41 -1400 000/00 RMK AO1 T10061122
54779K12N 12N20160303223010203/03/16 22:30:31  5-MIN K12N 040330Z AUTO 00000KT M01/M11 A3018 340 47 -1500 000/00 RMK AO1 T10111111
54779K12N 12N20160303223510203/03/16 22:35:31  5-MIN K12N 040335Z AUTO 00000KT M01/M12 A3018 340 41 -1400 000/00 RMK AO1 T10061122
54779K12N 12N20160303224010203/03/16 22:40:31  5-MIN K12N 040340Z AUTO 00000KT M01/M12 A3018 340 41 -1400 000/00 RMK AO1 T10061122
54779K12N 12N20160303224510203/03/16 22:45:31  5-MIN K12N 040345Z AUTO 00000KT M01/M12 A3018 340 43 -1400 000/00 RMK AO1 T10061117
54779K12N 12N20160303225010903/03/16 22:50:31  5-MIN K12N 040350Z AUTO 00000KT M01/M12 A3018 340 45 -1500 000/00 RMK AO1 SLP233 T10111117
54779K12N 12N20160303225510203/03/16 22:55:31  5-MIN K12N 040355Z AUTO 00000KT M01/M12 A3018 340 45 -1500 000/00 RMK AO1 T10111117
54779K12N 12N20160303230010203/03/16 23:00:31  5-MIN K12N 040400Z AUTO 00000KT M01/M11 A3018 340 45 -1400 000/00 RMK AO1 T10061111
54779K12N 12N20160303230510203/03/16 23:05:31  5-MIN K12N 040405Z AUTO 00000KT M01/M11 A3018 350 49 -1500 000/00 RMK AO1 T10111106
54779K12N 12N20160303231010203/03/16 23:10:31  5-MIN K12N 040410Z AUTO 00000KT M01/M12 A3018 350 45 -1500 000/00 RMK AO1 T10111117
54779K12N 12N20160303231510203/03/16 23:15:31  5-MIN K12N 040415Z AUTO 00000KT M01/M11 A3018 350 47 -1500 000/00 RMK AO1 T10111111
54779K12N 12N20160303232010203/03/16 23:20:31  5-MIN K12N 040420Z AUTO 00000KT M01/M11 A3017 350 45 -1400 000/00 RMK AO1 T10061111
54779K12N 12N20160303232510203/03/16 23:25:31  5-MIN K12N 040425Z AUTO 00000KT M01/M13 A3017 350 39 -1400 000/00 RMK AO1 T10061128
54779K12N 12N20160303233010203/03/16 23:30:31  5-MIN K12N 040430Z AUTO 00000KT M01/M13 A3017 360 39 -1400 000/00 RMK AO1 T10061128
54779K12N 12N20160303233510203/03/16 23:35:31  5-MIN K12N 040435Z AUTO 00000KT M01/M13 A3017 360 37 -1400 000/00 RMK AO1 T10061133
54779K12N 12N20160303234010203/03/16 23:40:31  5-MIN K12N 040440Z AUTO 00000KT M01/M13 A3016 360 39 -1400 000/00 RMK AO1 T10061128
54779K12N 12N20160303234510203/03/16 23:45:31  5-MIN K12N 040445Z AUTO 00000KT M01/M12 A3016 360 41 -1400 000/00 RMK AO1 T10061122
54779K12N 12N20160303235011903/03/16 23:50:31  5-MIN K12N 040450Z AUTO 00000KT M01/M13 A3016 370 39 -1400 000/00 RMK AO1 SLP223 T10061128 400111061
54779K12N 12N20160303235510203/03/16 23:55:31  5-MIN K12N 040455Z AUTO 00000KT M01/M13 A3015 370 39 -1400 000/00 RMK AO1 T10061128
54779K12N 12N20160304000010203/04/16 00:00:31  5-MIN K12N 040500Z AUTO 00000KT M01/M12 A3015 370 41 -1400 000/00 RMK AO1 T10061122
54779K12N 12N20160304000510203/04/16 00:05:31  5-MIN K12N 040505Z AUTO 00000KT M01/M12 A3015 370 43 -1300 000/00 RMK AO1 T10061117
54779K12N 12N20160304001010203/04/16 00:10:31  5-MIN K12N 040510Z AUTO 00000KT M01/M12 A3015 370 45 -1400 000/00 RMK AO1 T10111117
54779K12N 12N20160304001510203/04/16 00:15:31  5-MIN K12N 040515Z AUTO 00000KT M01/M12 A3015 370 45 -1400 000/00 RMK AO1 T10111117
54779K12N 12N20160304002010203/04/16 00:20:31  5-MIN K12N 040520Z AUTO 00000KT M01/M12 A3015 370 45 -1400 000/00 RMK AO1 T10111117
54779K12N 12N20160304002510203/04/16 00:25:31  5-MIN K12N 040525Z AUTO 00000KT M01/M11 A3015 370 47 -1400 000/00 RMK AO1 T10111111
54779K12N 12N20160304003010203/04/16 00:30:31  5-MIN K12N 040530Z AUTO 00000KT M01/M11 A3015 370 47 -1400 000/00 RMK AO1 T10111111
54779K12N 12N20160304003510203/04/16 00:35:31  5-MIN K12N 040535Z AUTO 00000KT M01/M11 A3015 380 47 -1400 000/00 RMK AO1 T10111111
54779K12N 12N20160304004010203/04/16 00:40:31  5-MIN K12N 040540Z AUTO 06005KT M01/M11 A3015 380 47 -1400 070/05 RMK AO1 T10111111
54779K12N 12N20160304004510203/04/16 00:45:31  5-MIN K12N 040545Z AUTO 00000KT M01/M11 A3014 380 49 -1400 000/00 RMK AO1 T10111106
54779K12N 12N20160304005012703/04/16 00:50:31  5-MIN K12N 040550Z AUTO 00000KT M01/M11 A3014 380 49 -1400 000/00 RMK AO1 SLP217 T10111106 10000 21011 52002
54779K12N 12N20160304005510203/04/16 00:55:31  5-MIN K12N 040555Z AUTO 00000KT M02/M11 A3014 390 51 -1500 000/00 RMK AO1 T10171106
54779K12N 12N20160304010010203/04/16 01:00:31  5-MIN K12N 040600Z AUTO VRB03KT M02/M10 A3014 390 53 -1500 VRB/03 RMK AO1 T10171100
54779K12N 12N20160304010510203/04/16 01:05:31  5-MIN K12N 040605Z AUTO 00000KT M02/M09 A3014 390 55 -1500 000/00 RMK AO1 T10171094
54779K12N 12N20160304011010203/04/16 01:10:31  5-MIN K12N 040610Z AUTO VRB03KT M02/M09 A3014 390 55 -1500 VRB/03 RMK AO1 T10171094
54779K12N 12N20160304011510203/04/16 01:15:31  5-MIN K12N 040615Z AUTO 09003KT M02/M09 A3013 390 60 -1500 110/03 RMK AO1 T10221089
54779K12N 12N20160304012010203/04/16 01:20:31  5-MIN K12N 040620Z AUTO 00000KT M02/M09 A3013 390 60 -1500 000/00 RMK AO1 T10221089
54779K12N 12N20160304012510203/04/16 01:25:31  5-MIN K12N 040625Z AUTO 00000KT M02/M08 A3013 390 66 -1500 000/00 RMK AO1 T10221078
54779K12N 12N20160304013010203/04/16 01:30:31  5-MIN K12N 040630Z AUTO 00000KT M02/M08 A3013 390 66 -1500 000/00 RMK AO1 T10221078
54779K12N 12N20160304013510203/04/16 01:35:31  5-MIN K12N 040635Z AUTO VRB03KT M02/M07 A3013 390 69 -1500 VRB/03 RMK AO1 T10221072
54779K12N 12N20160304014010203/04/16 01:40:31  5-MIN K12N 040640Z AUTO 03003KT M02/M07 A3013 390 69 -1500 040/03 RMK AO1 T10221072
54779K12N 12N20160304014510203/04/16 01:45:31  5-MIN K12N 040645Z AUTO 05003KT M03/M07 A3013 390 71 -1600 060/03 RMK AO1 T10281072
54779K12N 12N20160304015010903/04/16 01:50:31  5-MIN K12N 040650Z AUTO 05003KT M03/M07 A3013 390 75 -1600 060/03 RMK AO1 SLP215 T10281067
54779K12N 12N20160304015510203/04/16 01:55:31  5-MIN K12N 040655Z AUTO 05003KT M03/M07 A3013 390 75 -1600 060/03 RMK AO1 T10281067
54779K12N 12N20160304020010203/04/16 02:00:31  5-MIN K12N 040700Z AUTO 00000KT M03/M07 A3013 390 75 -1600 000/00 RMK AO1 T10281067
54779K12N 12N20160304020510203/04/16 02:05:31  5-MIN K12N 040705Z AUTO 00000KT M03/M06 A3014 390 78 -1600 000/00 RMK AO1 T10281061
54779K12N 12N20160304021010203/04/16 02:10:31  5-MIN K12N 040710Z AUTO 00000KT M03/M06 A3014 390 78 -1600 000/00 RMK AO1 T10281061
54779K12N 12N20160304021510203/04/16 02:15:31  5-MIN K12N 040715Z AUTO 00000KT M03/M06 A3014 380 78 -1600 000/00 RMK AO1 T10281061
54779K12N 12N20160304022010203/04/16 02:20:31  5-MIN K12N 040720Z AUTO 00000KT M03/M06 A3014 380 81 -1600 000/00 RMK AO1 T10281056
54779K12N 12N20160304022510203/04/16 02:25:31  5-MIN K12N 040725Z AUTO 00000KT M03/M06 A3014 380 81 -1600 000/00 RMK AO1 T10281056
54779K12N 12N20160304023010803/04/16 02:30:31  5-MIN K12N 040730Z AUTO 00000KT M03/M06 A3014 390 85 -1700 000/00 RMK AO1 P0001 T10331056
54779K12N 12N20160304023510803/04/16 02:35:31  5-MIN K12N 040735Z AUTO 00000KT M03/M06 A3014 390 85 -1700 000/00 RMK AO1 P0001 T10331056
54779K12N 12N20160304024010803/04/16 02:40:31  5-MIN K12N 040740Z AUTO 00000KT M03/M06 A3014 390 85 -1700 000/00 RMK AO1 P0001 T10331056
54779K12N 12N20160304024510803/04/16 02:45:31  5-MIN K12N 040745Z AUTO 00000KT M03/M06 A3013 390 85 -1700 000/00 RMK AO1 P0001 T10331056
54779K12N 12N20160304025011503/04/16 02:50:31  5-MIN K12N 040750Z AUTO 04003KT M03/M05 A3013 390 88 -1700 050/03 RMK AO1 SLP216 P0001 T10331050
54779K12N 12N20160304025510203/04/16 02:55:31  5-MIN K12N 040755Z AUTO 00000KT M03/M05 A3013 390 88 -1700 000/00 RMK AO1 T10331050
54779K12N 12N20160304030010803/04/16 03:00:31  5-MIN K12N 040800Z AUTO 04005KT M03/M05 A3013 390 88 -1700 060/05 RMK AO1 P0001 T10331050
54779K12N 12N20160304030510803/04/16 03:05:31  5-MIN K12N 040805Z AUTO 03003KT M03/M05 A3013 390 88 -1700 050/03 RMK AO1 P0001 T10331050
54779K12N 12N20160304031010803/04/16 03:10:31  5-MIN K12N 040810Z AUTO VRB04KT M03/M05 A3013 390 88 -1700 VRB/04 RMK AO1 P0001 T10331050
54779K12N 12N20160304031510803/04/16 03:15:31  5-MIN K12N 040815Z AUTO 05007KT M03/M05 A3012 400 88 -1700 060/07 RMK AO1 P0001 T10331050
54779K12N 12N20160304032010803/04/16 03:20:31  5-MIN K12N 040820Z AUTO 05007KT M04/M06 A3012 400 88 -1700 060/07 RMK AO1 P0002 T10391056
54779K12N 12N20160304032510803/04/16 03:25:31  5-MIN K12N 040825Z AUTO 04006KT M04/M06 A3012 400 85 -1700 050/06 RMK AO1 P0002 T10391061
54779K12N 12N20160304033010803/04/16 03:30:31  5-MIN K12N 040830Z AUTO 05005KT M04/M06 A3012 400 88 -1800 060/05 RMK AO1 P0002 T10441061
54779K12N 12N20160304033510803/04/16 03:35:31  5-MIN K12N 040835Z AUTO VRB05KT M04/M06 A3012 400 88 -1800 VRB/05 RMK AO1 P0002 T10441061
54779K12N 12N20160304034010803/04/16 03:40:31  5-MIN K12N 040840Z AUTO 04006KT M04/M06 A3012 400 88 -1800 060/06 RMK AO1 P0003 T10441061
54779K12N 12N20160304034510803/04/16 03:45:31  5-MIN K12N 040845Z AUTO VRB04KT M04/M06 A3012 400 92 -1800 VRB/04 RMK AO1 P0003 T10441056
54779K12N 12N20160304035012703/04/16 03:50:31  5-MIN K12N 040850Z AUTO VRB04KT M04/M06 A3012 400 92 -1800 VRB/04 RMK AO1 SLP212 P0003 60004 T10441056 58019
54779K12N 12N20160304035510203/04/16 03:55:31  5-MIN K12N 040855Z AUTO 03005KT M04/M06 A3012 400 88 -1800 040/05 RMK AO1 T10441061
54779K12N 12N20160304040010203/04/16 04:00:31  5-MIN K12N 040900Z AUTO VRB05KT M04/M06 A3012 400 88 -1800 VRB/05 RMK AO1 T10441061
54779K12N 12N20160304040510803/04/16 04:05:31  5-MIN K12N 040905Z AUTO VRB04KT M04/M06 A3012 400 88 -1800 VRB/04 RMK AO1 P0001 T10441061
54779K12N 12N20160304041010803/04/16 04:10:31  5-MIN K12N 040910Z AUTO VRB05KT M04/M06 A3011 410 88 -1800 VRB/05 RMK AO1 P0001 T10441061
54779K12N 12N20160304041510803/04/16 04:15:31  5-MIN K12N 040915Z AUTO VRB06KT M05/M07 A3011 410 88 -1900 VRB/06 RMK AO1 P0001 T10501067
54779K12N 12N20160304042010803/04/16 04:20:31  5-MIN K12N 040920Z AUTO 04007KT M05/M07 A3012 400 88 -1900 050/07 RMK AO1 P0001 T10501067
54779K12N 12N20160304042512403/04/16 04:25:31  5-MIN K12N 040925Z AUTO 03007KT 350V060 M05/M07 A3011 410 88 -1900 040/07 360V070 RMK AO1 P0001 T10501067
54779K12N 12N20160304043010803/04/16 04:30:31  5-MIN K12N 040930Z AUTO VRB05KT M05/M07 A3011 410 88 -1900 VRB/05 RMK AO1 P0001 T10501067
54779K12N 12N20160304043510803/04/16 04:35:31  5-MIN K12N 040935Z AUTO 04006KT M05/M07 A3011 410 88 -1900 050/06 RMK AO1 P0001 T10501067
54779K12N 12N20160304044010803/04/16 04:40:31  5-MIN K12N 040940Z AUTO VRB04KT M05/M07 A3011 410 88 -1900 VRB/04 RMK AO1 P0002 T10501067
54779K12N 12N20160304044510803/04/16 04:45:31  5-MIN K12N 040945Z AUTO 04006KT M05/M07 A3011 410 88 -1900 050/06 RMK AO1 P0002 T10501067
54779K12N 12N20160304045011503/04/16 04:50:31  5-MIN K12N 040950Z AUTO 04006KT M05/M07 A3011 410 88 -1900 050/06 RMK AO1 SLP207 P0002 T10501067
54779K12N 12N20160304045510203/04/16 04:55:31  5-MIN K12N 040955Z AUTO VRB05KT M05/M07 A3011 410 88 -1900 VRB/05 RMK AO1 T10501067
54779K12N 12N20160304050010203/04/16 05:00:31  5-MIN K12N 041000Z AUTO 04008KT M05/M07 A3011 410 84 -1900 050/08 RMK AO1 T10501072
54779K12N 12N20160304050510203/04/16 05:05:31  5-MIN K12N 041005Z AUTO 03006KT M06/M07 A3011 410 88 -1900 050/06 RMK AO1 T10561072
54779K12N 12N20160304051010203/04/16 05:10:31  5-MIN K12N 041010Z AUTO 03006KT M06/M07 A3011 410 88 -1900 050/06 RMK AO1 T10561072
54779K12N 12N20160304051510203/04/16 05:15:31  5-MIN K12N 041015Z AUTO 04009KT M06/M07 A3011 410 88 -1900 050/09 RMK AO1 T10561072
54779K12N 12N20160304052010203/04/16 05:20:31  5-MIN K12N 041020Z AUTO 03006KT M06/M07 A3011 410 88 -1900 050/06 RMK AO1 T10561072
54779K12N 12N20160304052510203/04/16 05:25:31  5-MIN K12N 041025Z AUTO 04007KT M06/M07 A3011 410 88 -1900 050/07 RMK AO1 T10561072
54779K12N 12N20160304053010803/04/16 05:30:31  5-MIN K12N 041030Z AUTO VRB06KT M05/M07 A3010 420 88 -1900 VRB/06 RMK AO1 P0001 T10501067
54779K12N 12N20160304053510803/04/16 05:35:31  5-MIN K12N 041035Z AUTO VRB06KT M06/M07 A3010 420 88 -1900 VRB/06 RMK AO1 P0001 T10561072
54779K12N 12N20160304054010803/04/16 05:40:31  5-MIN K12N 041040Z AUTO VRB06KT M06/M07 A3010 420 88 -1900 VRB/06 RMK AO1 P0001 T10561072
54779K12N 12N20160304054510803/04/16 05:45:31  5-MIN K12N 041045Z AUTO 04007KT M06/M07 A3010 420 88 -1900 050/07 RMK AO1 P0001 T10561072
54779K12N 12N20160304055011503/04/16 05:50:31  5-MIN K12N 041050Z AUTO 03007KT M06/M07 A3010 420 88 -1900 050/07 RMK AO1 SLP207 P0001 T10561072
54779K12N 12N20160304055510203/04/16 05:55:31  5-MIN K12N 041055Z AUTO 04007KT M06/M07 A3011 410 88 -1900 050/07 RMK AO1 T10561072
54779K12N 12N20160304060010203/04/16 06:00:31  5-MIN K12N 041100Z AUTO 04007KT M06/M07 A3011 410 88 -1900 050/07 RMK AO1 T10561072
54779K12N 12N20160304060510203/04/16 06:05:31  5-MIN K12N 041105Z AUTO 04006KT M06/M07 A3011 410 88 -1900 050/06 RMK AO1 T10561072
54779K12N 12N20160304061010203/04/16 06:10:31  5-MIN K12N 041110Z AUTO 04007KT M06/M07 A3011 410 88 -1900 050/07 RMK AO1 T10561072
54779K12N 12N20160304061510203/04/16 06:15:31  5-MIN K12N 041115Z AUTO 04007KT M06/M07 A3012 400 88 -2000 050/07 RMK AO1 T10561072
54779K12N 12N20160304062010203/04/16 06:20:31  5-MIN K12N 041120Z AUTO VRB05KT M06/M07 A3012 400 88 -2000 VRB/05 RMK AO1 T10561072
54779K12N 12N20160304062510203/04/16 06:25:31  5-MIN K12N 041125Z AUTO 04005KT M06/M07 A3012 400 88 -2000 050/05 RMK AO1 T10561072
54779K12N 12N20160304063010203/04/16 06:30:31  5-MIN K12N 041130Z AUTO VRB04KT M06/M07 A3012 400 88 -2000 VRB/04 RMK AO1 T10561072
54779K12N 12N20160304063510203/04/16 06:35:31  5-MIN K12N 041135Z AUTO VRB03KT M06/M07 A3012 400 88 -2000 VRB/03 RMK AO1 T10561072
54779K12N 12N20160304064010203/04/16 06:40:31  5-MIN K12N 041140Z AUTO 04006KT M06/M07 A3012 400 88 -2000 050/06 RMK AO1 T10561072
54779K12N 12N20160304064510203/04/16 06:45:31  5-MIN K12N 041145Z AUTO 04007KT M06/M07 A3012 400 88 -2000 050/07 RMK AO1 T10561072
54779K12N 12N20160304065013903/04/16 06:50:31  5-MIN K12N 041150Z AUTO 04007KT M06/M07 A3013 400 88 -2000 050/07 RMK AO1 SLP215 60007 70007 T10561072 11017 21056 58006
54779K12N 12N20160304065510203/04/16 06:55:31  5-MIN K12N 041155Z AUTO 04007KT M06/M08 A3013 390 84 -2000 060/07 RMK AO1 T10561078
54779K12N 12N20160304070010203/04/16 07:00:31  5-MIN K12N 041200Z AUTO 05006KT M06/M08 A3013 390 84 -2000 060/06 RMK AO1 T10561078
54779K12N 12N20160304070510203/04/16 07:05:31  5-MIN K12N 041205Z AUTO 05006KT M06/M07 A3013 390 88 -2000 060/06 RMK AO1 T10561072
54779K12N 12N20160304071010203/04/16 07:10:31  5-MIN K12N 041210Z AUTO 05007KT M06/M07 A3013 390 88 -2000 060/07 RMK AO1 T10561072
54779K12N 12N20160304071510203/04/16 07:15:31  5-MIN K12N 041215Z AUTO 05006KT M06/M08 A3013 390 84 -2000 070/06 RMK AO1 T10561078
54779K12N 12N20160304072010203/04/16 07:20:31  5-MIN K12N 041220Z AUTO 04005KT M06/M07 A3013 390 88 -2000 050/05 RMK AO1 T10561072
54779K12N 12N20160304072510203/04/16 07:25:31  5-MIN K12N 041225Z AUTO 05007KT M06/M07 A3013 390 88 -2000 060/07 RMK AO1 T10561072
54779K12N 12N20160304073010203/04/16 07:30:31  5-MIN K12N 041230Z AUTO 04007KT M06/M07 A3013 390 88 -2000 060/07 RMK AO1 T10561072
54779K12N 12N20160304073510203/04/16 07:35:31  5-MIN K12N 041235Z AUTO VRB06KT M06/M07 A3013 390 88 -2000 VRB/06 RMK AO1 T10561072
54779K12N 12N20160304074010203/04/16 07:40:31  5-MIN K12N 041240Z AUTO 04006KT M05/M07 A3013 390 84 -1900 050/06 RMK AO1 T10501072
54779K12N 12N20160304074510203/04/16 07:45:31  5-MIN K12N 041245Z AUTO VRB05KT M05/M07 A3013 390 84 -1900 VRB/05 RMK AO1 T10501072
54779K12N 12N20160304075010903/04/16 07:50:31  5-MIN K12N 041250Z AUTO 03007KT M05/M07 A3013 390 84 -1900 050/07 RMK AO1 SLP218 T10501072
54779K12N 12N20160304075510203/04/16 07:55:31  5-MIN K12N 041255Z AUTO 03007KT M06/M07 A3014 390 88 -2000 040/07 RMK AO1 T10561072
54779K12N 12N20160304080010203/04/16 08:00:31  5-MIN K12N 041300Z AUTO 03006KT M06/M07 A3013 390 88 -2000 050/06 RMK AO1 T10561072
54779K12N 12N20160304080510203/04/16 08:05:31  5-MIN K12N 041305Z AUTO 03006KT M05/M07 A3013 390 84 -1900 040/06 RMK AO1 T10501072
54779K12N 12N20160304081010203/04/16 08:10:31  5-MIN K12N 041310Z AUTO 05008KT M05/M07 A3014 390 84 -1900 060/08 RMK AO1 T10501072
54779K12N 12N20160304081510203/04/16 08:15:31  5-MIN K12N 041315Z AUTO 05008KT M06/M07 A3013 390 88 -2000 060/08 RMK AO1 T10561072
54779K12N 12N20160304082010203/04/16 08:20:31  5-MIN K12N 041320Z AUTO 04008KT M05/M07 A3013 390 84 -1900 050/08 RMK AO1 T10501072
54779K12N 12N20160304082510203/04/16 08:25:31  5-MIN K12N 041325Z AUTO 04007KT M05/M08 A3014 390 81 -1900 050/07 RMK AO1 T10501078
54779K12N 12N20160304083011803/04/16 08:30:31  5-MIN K12N 041330Z AUTO 04008KT 350V050 M05/M07 A3014 390 84 -1900 050/08 360V060 RMK AO1 T10501072
54779K12N 12N20160304083510203/04/16 08:35:31  5-MIN K12N 041335Z AUTO 04009KT M05/M08 A3014 390 81 -1900 050/09 RMK AO1 T10501078
54779K12N 12N20160304084010203/04/16 08:40:31  5-MIN K12N 041340Z AUTO VRB06KT M05/M07 A3014 390 84 -1900 VRB/06 RMK AO1 T10501072
54779K12N 12N20160304084510203/04/16 08:45:31  5-MIN K12N 041345Z AUTO 04009KT M05/M07 A3014 390 84 -1900 050/09 RMK AO1 T10501072
54779K12N 12N20160304085010903/04/16 08:50:31  5-MIN K12N 041350Z AUTO VRB05KT M05/M07 A3014 380 84 -1900 VRB/05 RMK AO1 SLP219 T10501072
54779K12N 12N20160304085510203/04/16 08:55:31  5-MIN K12N 041355Z AUTO VRB06KT M04/M07 A3014 390 84 -1800 VRB/06 RMK AO1 T10441067
54779K12N 12N20160304090010203/04/16 09:00:31  5-MIN K12N 041400Z AUTO VRB06KT M04/M07 A3014 390 81 -1800 VRB/06 RMK AO1 T10441072
54779K12N 12N20160304090510203/04/16 09:05:31  5-MIN K12N 041405Z AUTO 04007KT M04/M07 A3014 390 81 -1800 050/07 RMK AO1 T10441072
54779K12N 12N20160304091010203/04/16 09:10:31  5-MIN K12N 041410Z AUTO 04009KT M04/M07 A3013 390 81 -1800 050/09 RMK AO1 T10441072
54779K12N 12N20160304091510203/04/16 09:15:31  5-MIN K12N 041415Z AUTO 04007KT M04/M07 A3014 390 81 -1800 050/07 RMK AO1 T10441072
54779K12N 12N20160304092010203/04/16 09:20:31  5-MIN K12N 041420Z AUTO VRB05KT M04/M07 A3014 390 81 -1800 VRB/05 RMK AO1 T10441072
54779K12N 12N20160304092510203/04/16 09:25:31  5-MIN K12N 041425Z AUTO VRB06KT M04/M07 A3013 390 84 -1800 VRB/06 RMK AO1 T10441067
54779K12N 12N20160304093010203/04/16 09:30:31  5-MIN K12N 041430Z AUTO VRB04KT M04/M07 A3013 390 81 -1800 VRB/04 RMK AO1 T10391067
54779K12N 12N20160304093510203/04/16 09:35:31  5-MIN K12N 041435Z AUTO 01005KT M03/M07 A3013 400 78 -1700 020/05 RMK AO1 T10331067
54779K12N 12N20160304094010203/04/16 09:40:31  5-MIN K12N 041440Z AUTO 02005KT M04/M07 A3012 400 81 -1700 030/05 RMK AO1 T10391067
54779K12N 12N20160304094510203/04/16 09:45:31  5-MIN K12N 041445Z AUTO VRB06KT M04/M07 A3012 400 81 -1700 VRB/06 RMK AO1 T10391067
54779K12N 12N20160304095011503/04/16 09:50:31  5-MIN K12N 041450Z AUTO VRB04KT M04/M07 A3012 400 81 -1700 VRB/04 RMK AO1 SLP212 T10391067 53003
54779K12N 12N20160304095510203/04/16 09:55:31  5-MIN K12N 041455Z AUTO VRB04KT M03/M07 A3012 400 78 -1700 VRB/04 RMK AO1 T10331067
54779K12N 12N20160304100010203/04/16 10:00:31  5-MIN K12N 041500Z AUTO VRB04KT M03/M07 A3012 400 78 -1700 VRB/04 RMK AO1 T10331067
54779K12N 12N20160304100510203/04/16 10:05:31  5-MIN K12N 041505Z AUTO VRB05KT M03/M06 A3012 400 81 -1700 VRB/05 RMK AO1 T10331061
54779K12N 12N20160304101010203/04/16 10:10:31  5-MIN K12N 041510Z AUTO VRB05KT M03/M06 A3012 400 81 -1700 VRB/05 RMK AO1 T10331061
54779K12N 12N20160304101510203/04/16 10:15:31  5-MIN K12N 041515Z AUTO VRB05KT M03/M07 A3011 410 78 -1700 VRB/05 RMK AO1 T10331067
54779K12N 12N20160304102010203/04/16 10:20:31  5-MIN K12N 041520Z AUTO VRB04KT M03/M07 A3011 410 78 -1700 VRB/04 RMK AO1 T10331067
54779K12N 12N20160304102510203/04/16 10:25:31  5-MIN K12N 041525Z AUTO VRB05KT M03/M07 A3011 410 78 -1700 VRB/05 RMK AO1 T10331067
54779K12N 12N20160304103010203/04/16 10:30:31  5-MIN K12N 041530Z AUTO VRB04KT M03/M06 A3011 410 78 -1600 VRB/04 RMK AO1 T10281061
54779K12N 12N20160304103510203/04/16 10:35:31  5-MIN K12N 041535Z AUTO VRB05KT M03/M06 A3011 410 78 -1600 VRB/05 RMK AO1 T10281061
54779K12N 12N20160304104010203/04/16 10:40:31  5-MIN K12N 041540Z AUTO VRB06KT M03/M06 A3011 410 78 -1600 VRB/06 RMK AO1 T10281061
54779K12N 12N20160304104510203/04/16 10:45:31  5-MIN K12N 041545Z AUTO VRB05KT M03/M06 A3011 410 78 -1600 VRB/05 RMK AO1 T10281061
54779K12N 12N20160304105010903/04/16 10:50:31  5-MIN K12N 041550Z AUTO 04004KT M03/M06 A3010 420 78 -1600 050/04 RMK AO1 SLP206 T10281061
54779K12N 12N20160304105510203/04/16 10:55:31  5-MIN K12N 041555Z AUTO VRB04KT M02/M06 A3010 420 72 -1400 VRB/04 RMK AO1 T10171061
54779K12N 12N20160304110010203/04/16 11:00:31  5-MIN K12N 041600Z AUTO 04006KT M02/M06 A3010 420 72 -1400 060/06 RMK AO1 T10171061
54779K12N 12N20160304110510203/04/16 11:05:31  5-MIN K12N 041605Z AUTO 04008KT M02/M06 A3010 420 75 -1500 050/08 RMK AO1 T10221061
54779K12N 12N20160304111010203/04/16 11:10:31  5-MIN K12N 041610Z AUTO 03006KT M02/M06 A3010 420 72 -1400 050/06 RMK AO1 T10171061
54779K12N 12N20160304111510203/04/16 11:15:31  5-MIN K12N 041615Z AUTO 04007KT M02/M06 A3010 420 75 -1400 050/07 RMK AO1 T10171056
54779K12N 12N20160304112010203/04/16 11:20:31  5-MIN K12N 041620Z AUTO VRB05KT M02/M06 A3010 420 75 -1400 VRB/05 RMK AO1 T10171056
54779K12N 12N20160304112510203/04/16 11:25:31  5-MIN K12N 041625Z AUTO VRB06KT M01/M06 A3010 420 69 -1400 VRB/06 RMK AO1 T10111061
54779K12N 12N20160304113010203/04/16 11:30:31  5-MIN K12N 041630Z AUTO VRB04KT M01/M06 A3010 420 72 -1400 VRB/04 RMK AO1 T10111056
54779K12N 12N20160304113510203/04/16 11:35:31  5-MIN K12N 041635Z AUTO VRB06KT M02/M06 A3010 420 72 -1400 VRB/06 RMK AO1 T10171061
54779K12N 12N20160304114010203/04/16 11:40:31  5-MIN K12N 041640Z AUTO VRB04KT M01/M06 A3009 430 69 -1300 VRB/04 RMK AO1 T10061056
54779K12N 12N20160304114511803/04/16 11:45:31  5-MIN K12N 041645Z AUTO 03008KT 350V050 M01/M05 A3009 430 72 -1300 050/08 360V060 RMK AO1 T10061050
54779K12N 12N20160304115010903/04/16 11:50:31  5-MIN K12N 041650Z AUTO VRB04KT M01/M05 A3009 430 72 -1300 VRB/04 RMK AO1 SLP201 T10061050
54779K12N 12N20160304115510103/04/16 11:55:31  5-MIN K12N 041655Z AUTO VRB05KT 00/M05 A3009 430 69 -1200 VRB/05 RMK AO1 T00001050
54779K12N 12N20160304120010103/04/16 12:00:31  5-MIN K12N 041700Z AUTO 03007KT 00/M04 A3008 430 72 -1200 050/07 RMK AO1 T00001044
54779K12N 12N20160304120510103/04/16 12:05:31  5-MIN K12N 041705Z AUTO VRB04KT 00/M04 A3008 440 72 -1200 VRB/04 RMK AO1 T00001044
54779K12N 12N20160304121010103/04/16 12:10:31  5-MIN K12N 041710Z AUTO 05006KT 00/M05 A3008 440 69 -1200 060/06 RMK AO1 T00001050
54779K12N 12N20160304121511703/04/16 12:15:31  5-MIN K12N 041715Z AUTO 02007KT 350V050 00/M05 A3007 440 69 -1200 030/07 360V060 RMK AO1 T00001050
54779K12N 12N20160304122011703/04/16 12:20:31  5-MIN K12N 041720Z AUTO 36008KT 340V050 01/M04 A3007 440 69 -1100 020/08 350V060 RMK AO1 T00061044
54779K12N 12N20160304122510103/04/16 12:25:31  5-MIN K12N 041725Z AUTO 05006KT 00/M04 A3007 450 72 -1200 060/06 RMK AO1 T00001044
54779K12N 12N20160304123010103/04/16 12:30:31  5-MIN K12N 041730Z AUTO 36005KT 01/M04 A3007 450 72 -1100 020/05 RMK AO1 T00061039
54779K12N 12N20160304123510103/04/16 12:35:31  5-MIN K12N 041735Z AUTO VRB05KT 01/M04 A3006 450 69 -1100 VRB/05 RMK AO1 T00061044
54779K12N 12N20160304124010103/04/16 12:40:31  5-MIN K12N 041740Z AUTO VRB05KT 01/M04 A3006 460 66 -1000 VRB/05 RMK AO1 T00111044
54779K12N 12N20160304124510103/04/16 12:45:31  5-MIN K12N 041745Z AUTO VRB04KT 01/M04 A3006 460 69 -1000 VRB/04 RMK AO1 T00111039
54779K12N 12N20160304125014203/04/16 12:50:31  5-MIN K12N 041750Z AUTO 04007KT 010V070 01/M04 A3006 460 69 -1100 050/07 020V080 RMK AO1 SLP189 T00061044 10011 21056 58003
54779K12N 12N20160304125510103/04/16 12:55:31  5-MIN K12N 041755Z AUTO 04007KT 01/M05 A3005 460 66 -1100 050/07 RMK AO1 T00061050
54779K12N 12N20160304130010103/04/16 13:00:31  5-MIN K12N 041800Z AUTO 03007KT 01/M05 A3005 470 66 -1100 050/07 RMK AO1 T00061050
54779K12N 12N20160304130509103/04/16 13:05:31  5-MIN K12N 041805Z AUTO 01/M05 A3005 470 66 -1100 M /M RMK AO1 T00061050
54779K12N 12N20160304131011703/04/16 13:10:31  5-MIN K12N 041810Z AUTO 03007KT 350V070 01/M05 A3004 470 64 -1000 040/07 360V080 RMK AO1 T00111050
54779K12N 12N20160304131510103/04/16 13:15:31  5-MIN K12N 041815Z AUTO VRB06KT 01/M05 A3004 470 66 -1100 VRB/06 RMK AO1 T00061050
54779K12N 12N20160304132010103/04/16 13:20:31  5-MIN K12N 041820Z AUTO VRB06KT 01/M05 A3003 480 64 -1000 VRB/06 RMK AO1 T00111050
54779K12N 12N20160304132510103/04/16 13:25:31  5-MIN K12N 041825Z AUTO VRB06KT 01/M05 A3003 480 64 -1000 VRB/06 RMK AO1 T00111050
54779K12N 12N20160304133010103/04/16 13:30:31  5-MIN K12N 041830Z AUTO 04009KT 01/M06 A3003 480 63 -1100 060/09 RMK AO1 T00061056
54779K12N 12N20160304133512303/04/16 13:35:31  5-MIN K12N 041835Z AUTO 04008G14KT 340V080 01/M06 A3002 490 61 -1000 050/08G14 350V090 RMK AO1 T00111056
54779K12N 12N20160304134010703/04/16 13:40:31  5-MIN K12N 041840Z AUTO 03006G14KT 01/M05 A3002 490 66 -1100 050/06G14 RMK AO1 T00061050
54779K12N 12N20160304134510703/04/16 13:45:31  5-MIN K12N 041845Z AUTO 03009G18KT 01/M05 A3002 490 66 -1100 040/09G18 RMK AO1 T00061050
54779K12N 12N20160304135011403/04/16 13:50:31  5-MIN K12N 041850Z AUTO 36009G18KT 01/M06 A3002 490 63 -1100 020/09G18 RMK AO1 SLP178 T00061056
54779K12N 12N20160304135511703/04/16 13:55:31  5-MIN K12N 041855Z AUTO 01008KT 330V040 01/M06 A3003 490 63 -1100 020/08 340V050 RMK AO1 T00061056
54779K12N 12N20160304140010103/04/16 14:00:31  5-MIN K12N 041900Z AUTO VRB06KT 01/M06 A3003 490 63 -1100 VRB/06 RMK AO1 T00061056
54779K12N 12N20160304140510003/04/16 14:05:31  5-MIN K12N 041905Z AUTO 02007KT 02/M05 A3003 490 61 -900 030/07 RMK AO1 T00171050
54779K12N 12N20160304141010703/04/16 14:10:31  5-MIN K12N 041910Z AUTO 36006G16KT 01/M06 A3002 490 58 -1000 020/06G16 RMK AO1 T00111061
54779K12N 12N20160304141512303/04/16 14:15:31  5-MIN K12N 041915Z AUTO 04007G16KT 350V050 01/M06 A3002 490 61 -1000 050/07G16 360V060 RMK AO1 T00111056
54779K12N 12N20160304142010703/04/16 14:20:31  5-MIN K12N 041920Z AUTO 04011G16KT 01/M06 A3002 490 61 -1100 050/11G16 RMK AO1 T00061061
54779K12N 12N20160304142512303/04/16 14:25:31  5-MIN K12N 041925Z AUTO 03008G16KT 340V080 01/M06 A3002 490 61 -1000 050/08G16 350V090 RMK AO1 T00111056
54779K12N 12N20160304143010703/04/16 14:30:31  5-MIN K12N 041930Z AUTO 04008G14KT 01/M06 A3002 490 61 -1000 050/08G14 RMK AO1 T00111056
54779K12N 12N20160304143512203/04/16 14:35:31  5-MIN K12N 041935Z AUTO 03008G14KT 340V070 02/M06 A3003 490 59 -900 040/08G14 350V080 RMK AO1 T00171056
54779K12N 12N20160304144010103/04/16 14:40:31  5-MIN K12N 041940Z AUTO VRB05KT 01/M06 A3003 490 58 -1000 VRB/05 RMK AO1 T00111061
54779K12N 12N20160304144512203/04/16 14:45:31  5-MIN K12N 041945Z AUTO 02007G16KT 340V050 02/M06 A3002 490 59 -900 030/07G16 350V060 RMK AO1 T00171056
54779K12N 12N20160304145012903/04/16 14:50:31  5-MIN K12N 041950Z AUTO 01007G16KT 340V070 02/M06 A3002 490 56 -900 020/07G16 350V080 RMK AO1 SLP178 T00221056
54779K12N 12N20160304145512203/04/16 14:55:31  5-MIN K12N 041955Z AUTO 03009G16KT 340V050 02/M06 A3002 490 56 -900 040/09G16 350V060 RMK AO1 T00221056
54779K12N 12N20160304150010703/04/16 15:00:31  5-MIN K12N 042000Z AUTO VRB05G16KT 01/M06 A3002 490 58 -1000 VRB/05G16 RMK AO1 T00111061
54779K12N 12N20160304150510603/04/16 15:05:31  5-MIN K12N 042005Z AUTO 04010G15KT 02/M06 A3002 490 56 -900 060/10G15 RMK AO1 T00171061
54779K12N 12N20160304151010603/04/16 15:10:31  5-MIN K12N 042010Z AUTO VRB06G15KT 02/M06 A3002 490 54 -900 VRB/06G15 RMK AO1 T00221061
54779K12N 12N20160304151510003/04/16 15:15:31  5-MIN K12N 042015Z AUTO VRB05KT 03/M06 A3002 490 52 -800 VRB/05 RMK AO1 T00281061
54779K12N 12N20160304152011603/04/16 15:20:31  5-MIN K12N 042020Z AUTO 03007KT 340V070 03/M06 A3002 490 52 -800 050/07 350V080 RMK AO1 T00281061
54779K12N 12N20160304152510603/04/16 15:25:31  5-MIN K12N 042025Z AUTO 03011G15KT 02/M07 A3002 500 52 -800 050/11G15 RMK AO1 T00221067
54779K12N 12N20160304153010603/04/16 15:30:31  5-MIN K12N 042030Z AUTO 04008G15KT 02/M07 A3002 500 52 -800 050/08G15 RMK AO1 T00221067
54779K12N 12N20160304153510003/04/16 15:35:31  5-MIN K12N 042035Z AUTO 04008KT 02/M07 A3002 500 52 -800 050/08 RMK AO1 T00221067
54779K12N 12N20160304154010003/04/16 15:40:31  5-MIN K12N 042040Z AUTO VRB06KT 02/M06 A3001 500 54 -800 VRB/06 RMK AO1 T00221061
54779K12N 12N20160304154510003/04/16 15:45:31  5-MIN K12N 042045Z AUTO 03004KT 02/M07 A3002 500 52 -800 040/04 RMK AO1 T00221067
54779K12N 12N20160304155012903/04/16 15:50:31  5-MIN K12N 042050Z AUTO 06007KT 030V100 02/M07 A3002 500 52 -800 070/07 040V110 RMK AO1 SLP175 T00221067 58022
54779K12N 12N20160304155510603/04/16 15:55:31  5-MIN K12N 042055Z AUTO 03007G14KT 02/M06 A3002 500 54 -800 050/07G14 RMK AO1 T00221061
54779K12N 12N20160304160012203/04/16 16:00:31  5-MIN K12N 042100Z AUTO 03007G14KT 340V040 02/M07 A3001 500 52 -800 040/07G14 350V050 RMK AO1 T00221067
54779K12N 12N20160304160510603/04/16 16:05:31  5-MIN K12N 042105Z AUTO 04009G15KT 02/M06 A3001 500 54 -800 050/09G15 RMK AO1 T00221061
54779K12N 12N20160304161010603/04/16 16:10:31  5-MIN K12N 042110Z AUTO VRB06G15KT 02/M07 A3001 500 52 -900 VRB/06G15 RMK AO1 T00171072
54779K12N 12N20160304161511603/04/16 16:15:31  5-MIN K12N 042115Z AUTO 01008KT 340V050 02/M07 A3001 500 52 -900 020/08 350V060 RMK AO1 T00171072
54779K12N 12N20160304162010003/04/16 16:20:31  5-MIN K12N 042120Z AUTO VRB06KT 02/M07 A3001 500 54 -900 VRB/06 RMK AO1 T00171067
54779K12N 12N20160304162510003/04/16 16:25:31  5-MIN K12N 042125Z AUTO VRB05KT 02/M07 A3001 500 54 -900 VRB/05 RMK AO1 T00171067
54779K12N 12N20160304163010003/04/16 16:30:31  5-MIN K12N 042130Z AUTO 36007KT 02/M06 A3001 500 56 -900 020/07 RMK AO1 T00171061
54779K12N 12N20160304163510003/04/16 16:35:31  5-MIN K12N 042135Z AUTO VRB06KT 02/M07 A3001 500 54 -900 VRB/06 RMK AO1 T00171067
54779K12N 12N20160304164010003/04/16 16:40:31  5-MIN K12N 042140Z AUTO 04006KT 02/M06 A3001 500 56 -900 050/06 RMK AO1 T00171061
54779K12N 12N20160304164510003/04/16 16:45:31  5-MIN K12N 042145Z AUTO 03007KT 02/M07 A3001 500 54 -900 050/07 RMK AO1 T00171067
54779K12N 12N20160304165010703/04/16 16:50:31  5-MIN K12N 042150Z AUTO 04006KT 02/M07 A3001 500 54 -900 050/06 RMK AO1 SLP175 T00171067
54779K12N 12N20160304165510103/04/16 16:55:31  5-MIN K12N 042155Z AUTO 04005KT 01/M07 A3001 500 56 -1000 050/05 RMK AO1 T00111067
54779K12N 12N20160304170010103/04/16 17:00:31  5-MIN K12N 042200Z AUTO 03005KT 01/M07 A3002 500 56 -1000 050/05 RMK AO1 T00111067
54779K12N 12N20160304170513103/04/16 17:05:31  5-MIN K12N 042205Z AUTO VRB03KT 01/M07 A3002 500 56 -1000 VRB/03 RMK AO1 T00111067-1000 050/06 RMK AO1 T00111067
54779K12N 12N20160304175010803/04/16 17:50:31  5-MIN K12N 042250Z AUTO 03005KT 01/M07 A3003 490 56 -1000 050/05 RMK AO1 SLP180 T00111067
54779K12N 12N20160304175510103/04/16 17:55:31  5-MIN K12N 042255Z AUTO VRB05KT 01/M07 A3003 480 56 -1000 VRB/05 RMK AO1 T00111067
54779K12N 12N20160304180007703/04/16 18:00:31  5-MIN K12N 042300Z AUTO 04007KT 340V060 01/M07 A3003 48072
54779K12N 12N20160304180510103/04/16 18:05:31  5-MIN K12N 042305Z AUTO 04005KT 01/M07 A3003 480 54 -1000 050/05 RMK AO1 T00111072
54779K12N 12N20160304181010103/04/16 18:10:31  5-MIN K12N 042310Z AUTO VRB04KT 01/M07 A3003 480 56 -1000 VRB/04 RMK AO1 T00111067
54779K12N 12N20160304181510103/04/16 18:15:31  5-MIN K12N 042315Z AUTO VRB03KT 01/M07 A3003 480 56 -1000 VRB/03 RMK AO1 T00111067
54779K12N 12N20160304182009303/04/16 18:20:31  5-MIN K12N 042320Z AUTO 01004KT 01/M07 A3003 480 54 -1000 020/04 RMK111072
54779K12N 12N20160304182510103/04/16 18:25:31  5-MIN K12N 042325Z AUTO 01004KT 01/M07 A3003 480 56 -1000 020/04 RMK AO1 T00111067
54779K12N 12N20160304183010103/04/16 18:30:31  5-MIN K12N 042330Z AUTO VRB04KT 01/M07 A3003 480 56 -1000 VRB/04 RMK AO1 T00111067
54779K12N 12N20160304183510103/04/16 18:35:31  5-MIN K12N 042335Z AUTO 36005KT 01/M07 A3003 480 54 -1000 010/05 RMK AO1 T00111072
54779K12N 12N20160304184010103/04/16 18:40:31  5-MIN K12N 042340Z AUTO 36004KT 01/M07 A3003 480 54 -1000 VRB/03 RMK AO1 T00111072
54779K12N 12N20160304185012603/04/16 18:50:31  5-MIN K12N 042350Z AUTO 01003KT 01/M07 A3003 480 56 -1100 020/03 RMK AO1 SLP183 T00061072 10028 20006 56013
54779K12N 12N20160304185510103/04/16 18:55:31  5-MIN K12N 042355Z AUTO 36006KT 01/M07 A3004 480 56 -1100 010/06 RMK AO1 T00061072
54779K12N 12N20160304190010103/04/16 19:00:31  5-MIN K12N 050000Z AUTO VRB03KT 01/M07 A3004 480 56 -1100 VRB/03 RMK AO1 T00061072
54779K12N 12N20160304190510103/04/16 19:05:31  5-MIN K12N 050005Z AUTO 01006KT 01/M07 A3004 480 56 -1100 020/06 RMK AO1 T00061072
54779K12N 12N20160304191009503/04/16 19:10:31  5-MIN K12N 050010Z AUTO 36005KT 01/M08 A3004 480 54 -1100 010/05 RMK AO1 T00
54779K12N 12N20160304201010203/04/16 20:10:31  5-MIN K12N 050110Z AUTO 00000KT M01/M07 A3005 470 63 -1300 000/00 RMK AO1 T10111072
54779K12N 12N20160304201510203/04/16 20:15:31  5-MIN K12N 050115Z AUTO 00000KT M02/M07 A3005 470 66 -1400 000/00 RMK AO1 T10171072
54779K12N 12N20160304202010203/04/16 20:20:31  5-MIN K12N 050120Z AUTO 00000KT M01/M07 A3005 470 66 -1300 000/00 RMK AO1 T10111067
54779K12N 12N20160304202510203/04/16 20:25:31  5-MIN K12N 050125Z AUTO 36003KT M01/M07 A3005 470 63 -1300 010/03 RMK AO1 T10111072
54779K12N 12N20160304203010203/04/16 20:30:31  5-MIN K12N 050130Z AUTO 01003KT M01/M08 A3005 470 58 -1200 020/03 RMK AO1 T10061078
54779K12N 12N20160304203510203/04/16 20:35:31  5-MIN K12N 050135Z AUTO 36004KT M01/M07 A3005 460 61 -1200 010/04 RMK AO1 T10061072
54779K12N 12N20160304204010203/04/16 20:40:31  5-MIN K12N 050140Z AUTO VRB03KT M01/M08 A3005 460 58 -1200 VRB/03 RMK AO1 T10061078
54779K12N 12N20160304204510103/04/16 20:45:31  5-MIN K12N 050145Z AUTO 01003KT 00/M08 A3005 460 56 -1200 020/03 RMK AO1 T00001078
54779K12N 12N20160304205010803/04/16 20:50:31  5-MIN K12N 050150Z AUTO VRB04KT 00/M07 A3006 460 58 -1200 VRB/04 RMK AO1 SLP190 T00001072
54779K12N 12N20160304205510103/04/16 20:55:31  5-MIN K12N 050155Z AUTO 34003KT 00/M08 A3006 460 56 -1200 360/03 RMK AO1 T00001078
54779K12N 12N20160304210010103/04/16 21:00:31  5-MIN K12N 050200Z AUTO 36004KT 00/M08 A3006 460 56 -1200 010/04 RMK AO1 T00001078
54779K12N 12N20160304210510103/04/16 21:05:31  5-MIN K12N 050205Z AUTO 35004KT 00/M08 A3006 450 56 -1200 360/04 RMK AO1 T00001078
54779K12N 12N20160304211010103/04/16 21:10:31  5-MIN K12N 050210Z AUTO 35004KT 00/M08 A3007 450 56 -1200 360/04 RMK AO1 T00001078
54779K12N 12N20160304211510103/04/16 21:15:31  5-MIN K12N 050215Z AUTO 36004KT 00/M08 A3007 450 56 -1200 010/04 RMK AO1 T00001078
54779K12N 12N20160304212010103/04/16 21:20:31  5-MIN K12N 050220Z AUTO 35004KT 00/M08 A3007 450 56 -1200 010/04 RMK AO1 T00001078
54779K12N 12N20160304212510103/04/16 21:25:31  5-MIN K12N 050225Z AUTO 35003KT 00/M08 A3007 450 56 -1200 010/03 RMK AO1 T00001078
54779K12N 12N20160304213010103/04/16 21:30:31  5-MIN K12N 050230Z AUTO 34003KT 00/M08 A3007 450 56 -1200 350/03 RMK AO1 T00001078
54779K12N 12N20160304213510203/04/16 21:35:31  5-MIN K12N 050235Z AUTO 36003KT M01/M08 A3007 450 56 -1300 010/03 RMK AO1 T10061083
54779K12N 12N20160304214010203/04/16 21:40:31  5-MIN K12N 050240Z AUTO 35003KT M01/M08 A3007 450 56 -1300 360/03 RMK AO1 T10061083
54779K12N 12N20160304214510203/04/16 21:45:31  5-MIN K12N 050245Z AUTO 35005KT M01/M08 A3007 440 56 -1300 010/05 RMK AO1 T10061083
54779K12N 12N20160304215011503/04/16 21:50:31  5-MIN K12N 050250Z AUTO 36006KT M01/M08 A3008 440 56 -1300 010/06 RMK AO1 SLP197 T10061083 53007
54779K12N 12N20160304215510203/04/16 21:55:31  5-MIN K12N 050255Z AUTO 35005KT M01/M08 A3008 440 58 -1300 010/05 RMK AO1 T10061078
54779K12N 12N20160304220010203/04/16 22:00:31  5-MIN K12N 050300Z AUTO 34005KT M01/M08 A3008 440 58 -1300 360/05 RMK AO1 T10061078
54779K12N 12N20160304220510203/04/16 22:05:31  5-MIN K12N 050305Z AUTO 36005KT M01/M08 A3008 440 58 -1300 020/05 RMK AO1 T10061078
54779K12N 12N20160304221010203/04/16 22:10:31  5-MIN K12N 050310Z AUTO 35006KT M01/M08 A3008 440 58 -1300 010/06 RMK AO1 T10061078
54779K12N 12N20160304221510203/04/16 22:15:31  5-MIN K12N 050315Z AUTO 35006KT M01/M08 A3008 440 60 -1300 360/06 RMK AO1 T10111078
54779K12N 12N20160304222010203/04/16 22:20:31  5-MIN K12N 050320Z AUTO 36005KT M01/M08 A3008 440 58 -1300 010/05 RMK AO1 T10061078
54779K12N 12N20160304222510203/04/16 22:25:31  5-MIN K12N 050325Z AUTO 36006KT M01/M08 A3008 440 60 -1300 010/06 RMK AO1 T10111078
54779K12N 12N20160304223010203/04/16 22:30:31  5-MIN K12N 050330Z AUTO 35007KT M01/M08 A3008 430 58 -1300 010/07 RMK AO1 T10061078
54779K12N 12N20160304223510203/04/16 22:35:31  5-MIN K12N 050335Z AUTO 36005KT M01/M08 A3008 430 60 -1300 020/05 RMK AO1 T10111078
54779K12N 12N20160304224010203/04/16 22:40:31  5-MIN K12N 050340Z AUTO 35008KT M01/M08 A3009 430 60 -1300 360/08 RMK AO1 T10111078
54779K12N 12N20160304224510203/04/16 22:45:31  5-MIN K12N 050345Z AUTO 35007KT M01/M08 A3009 430 60 -1300 360/07 RMK AO1 T10111078
54779K12N 12N20160304225010903/04/16 22:50:31  5-MIN K12N 050350Z AUTO 35007KT M01/M08 A3009 430 60 -1400 360/07 RMK AO1 SLP202 T10111078
54779K12N 12N20160304225510203/04/16 22:55:31  5-MIN K12N 050355Z AUTO 36006KT M01/M08 A3009 430 58 -1400 010/06 RMK AO1 T10111083
54779K12N 12N20160304230010203/04/16 23:00:31  5-MIN K12N 050400Z AUTO VRB06KT M01/M08 A3010 420 58 -1400 VRB/06 RMK AO1 T10111083
54779K12N 12N20160304230510203/04/16 23:05:31  5-MIN K12N 050405Z AUTO 35005KT M01/M08 A3009 420 58 -1400 360/05 RMK AO1 T10111083
54779K12N 12N20160304231010203/04/16 23:10:31  5-MIN K12N 050410Z AUTO 35006KT M01/M08 A3009 430 58 -1400 360/06 RMK AO1 T10111083
54779K12N 12N20160304231510803/04/16 23:15:31  5-MIN K12N 050415Z AUTO 35009G15KT M01/M08 A3009 430 58 -1400 360/09G15 RMK AO1 T10111083
54779K12N 12N20160304232010803/04/16 23:20:31  5-MIN K12N 050420Z AUTO 36006G15KT M01/M08 A3009 430 58 -1400 020/06G15 RMK AO1 T10111083
54779K12N 12N20160304232510203/04/16 23:25:31  5-MIN K12N 050425Z AUTO 36006KT M01/M08 A3009 420 58 -1400 010/06 RMK AO1 T10111083
54779K12N 12N20160304233010203/04/16 23:30:31  5-MIN K12N 050430Z AUTO VRB05KT M02/M08 A3010 420 60 -1400 VRB/05 RMK AO1 T10171083
54779K12N 12N20160304233510203/04/16 23:35:31  5-MIN K12N 050435Z AUTO VRB05KT M02/M08 A3010 420 60 -1400 VRB/05 RMK AO1 T10171083
54779K12N 12N20160304234010203/04/16 23:40:31  5-MIN K12N 050440Z AUTO 36005KT M02/M08 A3010 420 60 -1400 010/05 RMK AO1 T10171083
54779K12N 12N20160304234510203/04/16 23:45:31  5-MIN K12N 050445Z AUTO VRB03KT M02/M09 A3010 420 58 -1400 VRB/03 RMK AO1 T10171089
54779K12N 12N20160304235011903/04/16 23:50:31  5-MIN K12N 050450Z AUTO 35005KT M02/M09 A3010 420 58 -1400 360/05 RMK AO1 SLP204 T10171089 400281056
54779K12N 12N20160304235510203/04/16 23:55:31  5-MIN K12N 050455Z AUTO 36005KT M02/M09 A3010 420 58 -1400 010/05 RMK AO1 T10171089
54779K12N 12N20160305000010203/05/16 00:00:31  5-MIN K12N 050500Z AUTO 35006KT M02/M09 A3010 420 58 -1400 010/06 RMK AO1 T10171089
54779K12N 12N20160305000510203/05/16 00:05:31  5-MIN K12N 050505Z AUTO 35006KT M02/M09 A3011 410 58 -1400 010/06 RMK AO1 T10171089
54779K12N 12N20160305001010203/05/16 00:10:31  5-MIN K12N 050510Z AUTO 36006KT M02/M09 A3011 410 58 -1400 010/06 RMK AO1 T10171089
54779K12N 12N20160305001510203/05/16 00:15:31  5-MIN K12N 050515Z AUTO 35004KT M02/M09 A3012 400 58 -1500 010/04 RMK AO1 T10171089
54779K12N 12N20160305002010203/05/16 00:20:31  5-MIN K12N 050520Z AUTO 35005KT M02/M09 A3012 400 60 -1500 010/05 RMK AO1 T10221089
54779K12N 12N20160305002510203/05/16 00:25:31  5-MIN K12N 050525Z AUTO 36006KT M02/M09 A3012 400 60 -1500 010/06 RMK AO1 T10221089
54779K12N 12N20160305003010203/05/16 00:30:31  5-MIN K12N 050530Z AUTO 35004KT M02/M09 A3012 400 60 -1500 010/04 RMK AO1 T10221089
54779K12N 12N20160305003510203/05/16 00:35:31  5-MIN K12N 050535Z AUTO 35005KT M02/M09 A3011 410 60 -1500 360/05 RMK AO1 T10221089
54779K12N 12N20160305004010203/05/16 00:40:31  5-MIN K12N 050540Z AUTO 36006KT M02/M09 A3012 410 60 -1500 010/06 RMK AO1 T10221089
54779K12N 12N20160305004509203/05/16 00:45:31  5-MIN K12N 050545Z AUTO M02/M09 A3012 400 60 -1500 M /M RMK AO1 T10221089
54779K12N 12N20160305005012703/05/16 00:50:31  5-MIN K12N 050550Z AUTO VRB03KT M02/M09 A3012 400 60 -1500 VRB/03 RMK AO1 SLP211 T10221089 10006 21022 53014
54779K12N 12N20160305005510203/05/16 00:55:31  5-MIN K12N 050555Z AUTO 00000KT M02/M08 A3012 400 63 -1500 000/00 RMK AO1 T10221083
54779K12N 12N20160305010010203/05/16 01:00:31  5-MIN K12N 050600Z AUTO 03003KT M03/M09 A3012 400 63 -1600 040/03 RMK AO1 T10281089
54779K12N 12N20160305010510203/05/16 01:05:31  5-MIN K12N 050605Z AUTO VRB04KT M02/M09 A3012 400 60 -1500 VRB/04 RMK AO1 T10221089
54779K12N 12N20160305011010203/05/16 01:10:31  5-MIN K12N 050610Z AUTO VRB04KT M03/M09 A3012 400 63 -1600 VRB/04 RMK AO1 T10281089
54779K12N 12N20160305011510203/05/16 01:15:31  5-MIN K12N 050615Z AUTO 36004KT M03/M09 A3013 390 63 -1600 010/04 RMK AO1 T10281089
54779K12N 12N20160305012010203/05/16 01:20:31  5-MIN K12N 050620Z AUTO 36004KT M02/M09 A3013 390 60 -1500 010/04 RMK AO1 T10221089
54779K12N 12N20160305012510203/05/16 01:25:31  5-MIN K12N 050625Z AUTO 00000KT M03/M09 A3013 390 63 -1600 000/00 RMK AO1 T10281089
54779K12N 12N20160305013010203/05/16 01:30:31  5-MIN K12N 050630Z AUTO 00000KT M03/M09 A3013 390 63 -1600 000/00 RMK AO1 T10281089
54779K12N 12N20160305013510203/05/16 01:35:31  5-MIN K12N 050635Z AUTO VRB04KT M03/M09 A3013 390 63 -1600 VRB/04 RMK AO1 T10281089
54779K12N 12N20160305014010203/05/16 01:40:31  5-MIN K12N 050640Z AUTO VRB03KT M03/M09 A3013 390 63 -1600 VRB/03 RMK AO1 T10281089
54779K12N 12N20160305014510203/05/16 01:45:31  5-MIN K12N 050645Z AUTO VRB03KT M03/M09 A3013 390 63 -1600 VRB/03 RMK AO1 T10281089
54779K12N 12N20160305015010903/05/16 01:50:31  5-MIN K12N 050650Z AUTO 00000KT M03/M09 A3013 390 65 -1700 000/00 RMK AO1 SLP215 T10331089
54779K12N 12N20160305015510203/05/16 01:55:31  5-MIN K12N 050655Z AUTO 00000KT M03/M09 A3013 390 65 -1700 000/00 RMK AO1 T10331089
54779K12N 12N20160305020010203/05/16 02:00:31  5-MIN K12N 050700Z AUTO 35005KT M03/M09 A3013 390 63 -1600 360/05 RMK AO1 T10281089
54779K12N 12N20160305020510203/05/16 02:05:31  5-MIN K12N 050705Z AUTO 35004KT M03/M09 A3013 390 63 -1600 010/04 RMK AO1 T10281089
54779K12N 12N20160305021010203/05/16 02:10:31  5-MIN K12N 050710Z AUTO 36003KT M03/M09 A3012 400 65 -1700 020/03 RMK AO1 T10331089
54779K12N 12N20160305021510203/05/16 02:15:31  5-MIN K12N 050715Z AUTO 00000KT M03/M09 A3012 400 65 -1700 000/00 RMK AO1 T10331089
54779K12N 12N20160305022010203/05/16 02:20:31  5-MIN K12N 050720Z AUTO 36003KT M03/M09 A3013 400 65 -1700 020/03 RMK AO1 T10331089
54779K12N 12N20160305022510203/05/16 02:25:31  5-MIN K12N 050725Z AUTO 00000KT M03/M09 A3012 400 63 -1700 000/00 RMK AO1 T10331094
54779K12N 12N20160305023010203/05/16 02:30:31  5-MIN K12N 050730Z AUTO 00000KT M04/M09 A3012 400 68 -1700 000/00 RMK AO1 T10391089
54779K12N 12N20160305023510203/05/16 02:35:31  5-MIN K12N 050735Z AUTO 00000KT M04/M08 A3012 400 71 -1700 000/00 RMK AO1 T10391083
54779K12N 12N20160305024010203/05/16 02:40:31  5-MIN K12N 050740Z AUTO 36004KT M04/M09 A3012 400 68 -1700 010/04 RMK AO1 T10391089
54779K12N 12N20160305024510203/05/16 02:45:31  5-MIN K12N 050745Z AUTO 00000KT M04/M09 A3012 400 68 -1700 000/00 RMK AO1 T10391089
54779K12N 12N20160305025010903/05/16 02:50:31  5-MIN K12N 050750Z AUTO 00000KT M04/M08 A3012 400 71 -1700 000/00 RMK AO1 SLP211 T10391083
54779K12N 12N20160305025510203/05/16 02:55:31  5-MIN K12N 050755Z AUTO 00000KT M04/M09 A3012 400 68 -1700 000/00 RMK AO1 T10391089
54779K12N 12N20160305030010203/05/16 03:00:31  5-MIN K12N 050800Z AUTO 00000KT M04/M09 A3012 400 71 -1800 000/00 RMK AO1 T10441089
54779K12N 12N20160305030510203/05/16 03:05:31  5-MIN K12N 050805Z AUTO 00000KT M04/M08 A3012 400 74 -1800 000/00 RMK AO1 T10441083
54779K12N 12N20160305031010203/05/16 03:10:31  5-MIN K12N 050810Z AUTO 00000KT M05/M08 A3012 400 77 -1900 000/00 RMK AO1 T10501083
54779K12N 12N20160305031510203/05/16 03:15:31  5-MIN K12N 050815Z AUTO 00000KT M05/M09 A3013 390 74 -1900 000/00 RMK AO1 T10501089
54779K12N 12N20160305032010203/05/16 03:20:31  5-MIN K12N 050820Z AUTO 00000KT M05/M09 A3013 390 74 -1900 000/00 RMK AO1 T10501089
54779K12N 12N20160305032510203/05/16 03:25:31  5-MIN K12N 050825Z AUTO 00000KT M05/M08 A3013 390 77 -1900 000/00 RMK AO1 T10501083
54779K12N 12N20160305033010203/05/16 03:30:31  5-MIN K12N 050830Z AUTO 00000KT M05/M08 A3013 390 77 -1900 000/00 RMK AO1 T10501083
54779K12N 12N20160305033510203/05/16 03:35:31  5-MIN K12N 050835Z AUTO 00000KT M05/M08 A3013 390 77 -1900 000/00 RMK AO1 T10501083
54779K12N 12N20160305034010203/05/16 03:40:31  5-MIN K12N 050840Z AUTO 00000KT M05/M08 A3013 390 77 -1900 000/00 RMK AO1 T10501083
54779K12N 12N20160305034510203/05/16 03:45:31  5-MIN K12N 050845Z AUTO 20003KT M06/M08 A3013 390 81 -2000 220/03 RMK AO1 T10561083
54779K12N 12N20160305035011503/05/16 03:50:31  5-MIN K12N 050850Z AUTO 00000KT M05/M08 A3013 390 77 -1900 000/00 RMK AO1 SLP216 T10501083 53015
54779K12N 12N20160305035510203/05/16 03:55:31  5-MIN K12N 050855Z AUTO 00000KT M05/M08 A3014 390 77 -1900 000/00 RMK AO1 T10501083
54779K12N 12N20160305040010203/05/16 04:00:31  5-MIN K12N 050900Z AUTO 00000KT M06/M08 A3013 390 81 -2000 000/00 RMK AO1 T10561083
54779K12N 12N20160305040510203/05/16 04:05:31  5-MIN K12N 050905Z AUTO 00000KT M05/M08 A3013 390 77 -1900 000/00 RMK AO1 T10501083
54779K12N 12N20160305041010203/05/16 04:10:31  5-MIN K12N 050910Z AUTO 00000KT M06/M08 A3014 390 81 -2000 000/00 RMK AO1 T10561083
54779K12N 12N20160305041510203/05/16 04:15:31  5-MIN K12N 050915Z AUTO 00000KT M06/M08 A3013 390 81 -2000 000/00 RMK AO1 T10561083
54779K12N 12N20160305042010203/05/16 04:20:31  5-MIN K12N 050920Z AUTO 00000KT M06/M08 A3013 390 84 -2000 000/00 RMK AO1 T10561078
54779K12N 12N20160305042510203/05/16 04:25:31  5-MIN K12N 050925Z AUTO 00000KT M06/M08 A3014 390 84 -2000 000/00 RMK AO1 T10561078
54779K12N 12N20160305043010203/05/16 04:30:31  5-MIN K12N 050930Z AUTO 00000KT M06/M08 A3014 380 84 -2000 000/00 RMK AO1 T10611083
54779K12N 12N20160305043510203/05/16 04:35:31  5-MIN K12N 050935Z AUTO 00000KT M06/M09 A3014 380 77 -2000 000/00 RMK AO1 T10561089
54779K12N 12N20160305044010203/05/16 04:40:31  5-MIN K12N 050940Z AUTO 00000KT M06/M08 A3015 370 81 -2000 000/00 RMK AO1 T10561083
54779K12N 12N20160305044510203/05/16 04:45:31  5-MIN K12N 050945Z AUTO 00000KT M06/M09 A3015 370 77 -2000 000/00 RMK AO1 T10561089
54779K12N 12N20160305045010903/05/16 04:50:31  5-MIN K12N 050950Z AUTO 00000KT M06/M09 A3015 370 81 -2100 000/00 RMK AO1 SLP223 T10611089
54779K12N 12N20160305045510203/05/16 04:55:31  5-MIN K12N 050955Z AUTO 00000KT M06/M09 A3015 370 81 -2100 000/00 RMK AO1 T10611089
54779K12N 12N20160305050010203/05/16 05:00:31  5-MIN K12N 051000Z AUTO 00000KT M06/M08 A3015 370 81 -2000 000/00 RMK AO1 T10561083
54779K12N 12N20160305050510203/05/16 05:05:31  5-MIN K12N 051005Z AUTO 20003KT M06/M08 A3015 370 84 -2000 220/03 RMK AO1 T10561078
54779K12N 12N20160305051010203/05/16 05:10:31  5-MIN K12N 051010Z AUTO 21003KT M06/M08 A3015 370 84 -2100 220/03 RMK AO1 T10611083
54779K12N 12N20160305051510203/05/16 05:15:31  5-MIN K12N 051015Z AUTO 00000KT M06/M08 A3015 370 84 -2100 000/00 RMK AO1 T10611083
54779K12N 12N20160305052010203/05/16 05:20:31  5-MIN K12N 051020Z AUTO 00000KT M06/M08 A3016 370 88 -2100 000/00 RMK AO1 T10611078
54779K12N 12N20160305052510203/05/16 05:25:31  5-MIN K12N 051025Z AUTO 00000KT M06/M08 A3016 370 88 -2100 000/00 RMK AO1 T10611078
54779K12N 12N20160305053010203/05/16 05:30:31  5-MIN K12N 051030Z AUTO 20003KT M06/M08 A3016 370 81 -2000 220/03 RMK AO1 T10561083
54779K12N 12N20160305053510203/05/16 05:35:31  5-MIN K12N 051035Z AUTO 00000KT M06/M08 A3016 370 84 -2100 000/00 RMK AO1 T10611083
54779K12N 12N20160305054010203/05/16 05:40:31  5-MIN K12N 051040Z AUTO 00000KT M06/M08 A3016 370 84 -2100 000/00 RMK AO1 T10611083
54779K12N 12N20160305054510203/05/16 05:45:31  5-MIN K12N 051045Z AUTO 00000KT M06/M09 A3016 360 81 -2100 000/00 RMK AO1 T10611089
54779K12N 12N20160305055010903/05/16 05:50:31  5-MIN K12N 051050Z AUTO 00000KT M06/M09 A3016 360 81 -2100 000/00 RMK AO1 SLP226 T10611089
54779K12N 12N20160305055510203/05/16 05:55:31  5-MIN K12N 051055Z AUTO 00000KT M06/M09 A3016 360 81 -2100 000/00 RMK AO1 T10611089
54779K12N 12N20160305060010203/05/16 06:00:31  5-MIN K12N 051100Z AUTO 00000KT M07/M09 A3017 360 84 -2200 000/00 RMK AO1 T10671089
54779K12N 12N20160305060510203/05/16 06:05:31  5-MIN K12N 051105Z AUTO 00000KT M07/M09 A3017 350 84 -2200 000/00 RMK AO1 T10671089
54779K12N 12N20160305061010203/05/16 06:10:31  5-MIN K12N 051110Z AUTO 00000KT M07/M09 A3017 350 84 -2200 000/00 RMK AO1 T10671089
54779K12N 12N20160305061510203/05/16 06:15:31  5-MIN K12N 051115Z AUTO 00000KT M07/M09 A3018 350 81 -2200 000/00 RMK AO1 T10671094
54779K12N 12N20160305062010203/05/16 06:20:31  5-MIN K12N 051120Z AUTO 00000KT M07/M09 A3018 350 84 -2200 000/00 RMK AO1 T10671089
54779K12N 12N20160305062510203/05/16 06:25:31  5-MIN K12N 051125Z AUTO 00000KT M07/M08 A3018 350 88 -2200 000/00 RMK AO1 T10671083
54779K12N 12N20160305063010203/05/16 06:30:31  5-MIN K12N 051130Z AUTO 00000KT M07/M08 A3018 340 88 -2200 000/00 RMK AO1 T10671083
54779K12N 12N20160305063510203/05/16 06:35:31  5-MIN K12N 051135Z AUTO 00000KT M07/M09 A3018 340 84 -2200 000/00 RMK AO1 T10671089
54779K12N 12N20160305064010203/05/16 06:40:31  5-MIN K12N 051140Z AUTO 00000KT M07/M08 A3019 340 88 -2200 000/00 RMK AO1 T10671083
54779K12N 12N20160305064510203/05/16 06:45:31  5-MIN K12N 051145Z AUTO 21003KT M07/M08 A3019 340 88 -2200 220/03 RMK AO1 T10671083
54779K12N 12N20160305065012703/05/16 06:50:31  5-MIN K12N 051150Z AUTO 00000KT M07/M09 A3019 340 88 -2200 000/00 RMK AO1 SLP235 T10721089 11022 21072 53004
54779K12N 12N20160305065510203/05/16 06:55:31  5-MIN K12N 051155Z AUTO 00000KT M07/M09 A3019 340 88 -2200 000/00 RMK AO1 T10721089
54779K12N 12N20160305070010203/05/16 07:00:31  5-MIN K12N 051200Z AUTO 00000KT M07/M09 A3019 340 84 -2200 000/00 RMK AO1 T10671089
54779K12N 12N20160305070510203/05/16 07:05:31  5-MIN K12N 051205Z AUTO 00000KT M07/M09 A3018 340 84 -2200 000/00 RMK AO1 T10671089
54779K12N 12N20160305071010203/05/16 07:10:31  5-MIN K12N 051210Z AUTO 00000KT M07/M08 A3018 340 88 -2200 000/00 RMK AO1 T10671083
54779K12N 12N20160305071510203/05/16 07:15:31  5-MIN K12N 051215Z AUTO 00000KT M07/M08 A3019 340 88 -2200 000/00 RMK AO1 T10671083
54779K12N 12N20160305072010203/05/16 07:20:31  5-MIN K12N 051220Z AUTO 00000KT M07/M08 A3019 340 88 -2200 000/00 RMK AO1 T10671083
54779K12N 12N20160305072510203/05/16 07:25:31  5-MIN K12N 051225Z AUTO 00000KT M06/M08 A3019 340 84 -2100 000/00 RMK AO1 T10611083
54779K12N 12N20160305073010203/05/16 07:30:31  5-MIN K12N 051230Z AUTO 00000KT M06/M08 A3019 340 88 -2100 000/00 RMK AO1 T10611078
54779K12N 12N20160305073510203/05/16 07:35:31  5-MIN K12N 051235Z AUTO 00000KT M06/M07 A3019 340 88 -2000 000/00 RMK AO1 T10561072
54779K12N 12N20160305074010203/05/16 07:40:31  5-MIN K12N 051240Z AUTO 00000KT M06/M07 A3018 340 92 -2000 000/00 RMK AO1 T10561067
54779K12N 12N20160305074510203/05/16 07:45:31  5-MIN K12N 051245Z AUTO 00000KT M04/M07 A3018 340 81 -1900 000/00 RMK AO1 T10441072
54779K12N 12N20160305075010903/05/16 07:50:31  5-MIN K12N 051250Z AUTO 00000KT M04/M07 A3018 340 81 -1900 000/00 RMK AO1 SLP235 T10441072
54779K12N 12N20160305075510203/05/16 07:55:31  5-MIN K12N 051255Z AUTO VRB03KT M04/M08 A3019 340 71 -1800 VRB/03 RMK AO1 T10391083
54779K12N 12N20160305080010203/05/16 08:00:31  5-MIN K12N 051300Z AUTO 00000KT M03/M08 A3019 340 71 -1700 000/00 RMK AO1 T10331078
54779K12N 12N20160305080510203/05/16 08:05:31  5-MIN K12N 051305Z AUTO 08003KT M03/M09 A3019 340 65 -1700 090/03 RMK AO1 T10331089
54779K12N 12N20160305081010203/05/16 08:10:31  5-MIN K12N 051310Z AUTO 05003KT M03/M09 A3019 340 65 -1700 060/03 RMK AO1 T10331089
54779K12N 12N20160305081510203/05/16 08:15:31  5-MIN K12N 051315Z AUTO 00000KT M03/M09 A3019 340 60 -1700 000/00 RMK AO1 T10281094
54779K12N 12N20160305082010203/05/16 08:20:31  5-MIN K12N 051320Z AUTO 00000KT M03/M09 A3019 340 63 -1700 000/00 RMK AO1 T10281089
54779K12N 12N20160305082510203/05/16 08:25:31  5-MIN K12N 051325Z AUTO 12003KT M03/M09 A3019 340 65 -1700 130/03 RMK AO1 T10331089
54779K12N 12N20160305083010203/05/16 08:30:31  5-MIN K12N 051330Z AUTO 08003KT M03/M09 A3019 340 63 -1700 100/03 RMK AO1 T10281089
54779K12N 12N20160305083510203/05/16 08:35:31  5-MIN K12N 051335Z AUTO 00000KT M03/M09 A3019 340 60 -1700 000/00 RMK AO1 T10281094
54779K12N 12N20160305084010203/05/16 08:40:31  5-MIN K12N 051340Z AUTO 04003KT M02/M09 A3019 340 58 -1600 050/03 RMK AO1 T10221094
54779K12N 12N20160305084510203/05/16 08:45:31  5-MIN K12N 051345Z AUTO VRB03KT M02/M09 A3019 340 58 -1600 VRB/03 RMK AO1 T10221094
54779K12N 12N20160305085010903/05/16 08:50:31  5-MIN K12N 051350Z AUTO 00000KT M02/M09 A3019 340 55 -1500 000/00 RMK AO1 SLP234 T10171094
54779K12N 12N20160305085510203/05/16 08:55:31  5-MIN K12N 051355Z AUTO 05005KT M02/M09 A3019 340 55 -1500 060/05 RMK AO1 T10171094
54779K12N 12N20160305090010203/05/16 09:00:31  5-MIN K12N 051400Z AUTO VRB04KT M02/M09 A3019 340 55 -1500 VRB/04 RMK AO1 T10171094
54779K12N 12N20160305090510203/05/16 09:05:31  5-MIN K12N 051405Z AUTO VRB04KT M02/M09 A3019 330 55 -1500 VRB/04 RMK AO1 T10171094
54779K12N 12N20160305091010203/05/16 09:10:31  5-MIN K12N 051410Z AUTO 36005KT M01/M09 A3019 330 55 -1500 010/05 RMK AO1 T10111089
54779K12N 12N20160305091510203/05/16 09:15:31  5-MIN K12N 051415Z AUTO VRB03KT M01/M09 A3019 340 53 -1400 VRB/03 RMK AO1 T10061089
54779K12N 12N20160305092010203/05/16 09:20:31  5-MIN K12N 051420Z AUTO VRB04KT M01/M09 A3019 340 53 -1500 VRB/04 RMK AO1 T10111094
54779K12N 12N20160305092510203/05/16 09:25:31  5-MIN K12N 051425Z AUTO VRB04KT M01/M10 A3019 330 51 -1500 VRB/04 RMK AO1 T10111100
54779K12N 12N20160305093010203/05/16 09:30:31  5-MIN K12N 051430Z AUTO 00000KT M01/M09 A3020 330 53 -1500 000/00 RMK AO1 T10111094
54779K12N 12N20160305093510203/05/16 09:35:31  5-MIN K12N 051435Z AUTO 07004KT M01/M09 A3020 330 53 -1500 080/04 RMK AO1 T10111094
54779K12N 12N20160305094010203/05/16 09:40:31  5-MIN K12N 051440Z AUTO 35005KT M01/M09 A3020 330 51 -1400 360/05 RMK AO1 T10061094
54779K12N 12N20160305094510203/05/16 09:45:31  5-MIN K12N 051445Z AUTO 30004KT M01/M10 A3020 330 49 -1400 310/04 RMK AO1 T10061100
54779K12N 12N20160305095011403/05/16 09:50:31  5-MIN K12N 051450Z AUTO 34004KT 00/M09 A3020 330 49 -1300 350/04 RMK AO1 SLP237 T00001094 53017
54779K12N 12N20160305095510103/05/16 09:55:31  5-MIN K12N 051455Z AUTO 36004KT 00/M09 A3020 330 51 -1300 010/04 RMK AO1 T00001089
54779K12N 12N20160305100010103/05/16 10:00:31  5-MIN K12N 051500Z AUTO 00000KT 00/M09 A3020 330 49 -1300 000/00 RMK AO1 T00001094
54779K12N 12N20160305100510103/05/16 10:05:31  5-MIN K12N 051505Z AUTO VRB04KT 00/M09 A3020 330 49 -1300 VRB/04 RMK AO1 T00001094
54779K12N 12N20160305101010203/05/16 10:10:31  5-MIN K12N 051510Z AUTO 00000KT M01/M09 A3020 320 51 -1400 000/00 RMK AO1 T10061094
54779K12N 12N20160305101510103/05/16 10:15:31  5-MIN K12N 051515Z AUTO 00000KT 00/M10 A3020 330 47 -1300 000/00 RMK AO1 T00001100
54779K12N 12N20160305102010103/05/16 10:20:31  5-MIN K12N 051520Z AUTO VRB03KT 00/M10 A3020 330 47 -1300 VRB/03 RMK AO1 T00001100
54779K12N 12N20160305102510103/05/16 10:25:31  5-MIN K12N 051525Z AUTO VRB03KT 00/M09 A3020 330 49 -1300 VRB/03 RMK AO1 T00001094
54779K12N 12N20160305103010103/05/16 10:30:31  5-MIN K12N 051530Z AUTO 02004KT 00/M10 A3020 330 47 -1300 030/04 RMK AO1 T00001100
54779K12N 12N20160305103510103/05/16 10:35:31  5-MIN K12N 051535Z AUTO 00000KT 00/M11 A3020 330 45 -1300 000/00 RMK AO1 T00001106
54779K12N 12N20160305104010203/05/16 10:40:31  5-MIN K12N 051540Z AUTO 00000KT M01/M11 A3020 330 45 -1400 000/00 RMK AO1 T10061111
54779K12N 12N20160305104510203/05/16 10:45:31  5-MIN K12N 051545Z AUTO 31005KT M01/M12 A3020 330 43 -1400 320/05 RMK AO1 T10061117
54779K12N 12N20160305105010903/05/16 10:50:31  5-MIN K12N 051550Z AUTO 30004KT M01/M11 A3019 330 45 -1400 310/04 RMK AO1 SLP236 T10061111
54779K12N 12N20160305105510203/05/16 10:55:31  5-MIN K12N 051555Z AUTO VRB04KT M01/M12 A3019 330 43 -1400 VRB/04 RMK AO1 T10061117
54779K12N 12N20160305110010203/05/16 11:00:31  5-MIN K12N 051600Z AUTO VRB04KT M01/M12 A3019 330 43 -1400 VRB/04 RMK AO1 T10061117
54779K12N 12N20160305110510103/05/16 11:05:31  5-MIN K12N 051605Z AUTO 03005KT 00/M11 A3019 340 43 -1300 040/05 RMK AO1 T00001111
54779K12N 12N20160305111010203/05/16 11:10:31  5-MIN K12N 051610Z AUTO VRB03KT M01/M11 A3019 340 45 -1400 VRB/03 RMK AO1 T10061111
54779K12N 12N20160305111510103/05/16 11:15:31  5-MIN K12N 051615Z AUTO 00000KT 00/M11 A3018 350 43 -1300 000/00 RMK AO1 T00001111
54779K12N 12N20160305112010103/05/16 11:20:31  5-MIN K12N 051620Z AUTO VRB04KT 00/M11 A3018 350 43 -1300 VRB/04 RMK AO1 T00001111
54779K12N 12N20160305112510103/05/16 11:25:31  5-MIN K12N 051625Z AUTO 00000KT 00/M12 A3018 350 41 -1300 000/00 RMK AO1 T00001117
54779K12N 12N20160305113010103/05/16 11:30:31  5-MIN K12N 051630Z AUTO VRB03KT 00/M11 A3018 350 43 -1300 VRB/03 RMK AO1 T00001111
54779K12N 12N20160305113510103/05/16 11:35:31  5-MIN K12N 051635Z AUTO 00000KT 01/M11 A3018 350 43 -1200 000/00 RMK AO1 T00061106
54779K12N 12N20160305114010103/05/16 11:40:31  5-MIN K12N 051640Z AUTO 35004KT 00/M11 A3018 350 45 -1300 010/04 RMK AO1 T00001106
54779K12N 12N20160305114510103/05/16 11:45:31  5-MIN K12N 051645Z AUTO 00000KT 01/M11 A3017 350 43 -1200 000/00 RMK AO1 T00061106
54779K12N 12N20160305115010803/05/16 11:50:31  5-MIN K12N 051650Z AUTO VRB03KT 01/M10 A3017 350 45 -1200 VRB/03 RMK AO1 SLP229 T00061100
54779K12N 12N20160305115510103/05/16 11:55:31  5-MIN K12N 051655Z AUTO 00000KT 01/M11 A3017 350 43 -1200 000/00 RMK AO1 T00061106
54779K12N 12N20160305120010103/05/16 12:00:31  5-MIN K12N 051700Z AUTO VRB04KT 00/M11 A3017 350 45 -1300 VRB/04 RMK AO1 T00001106
54779K12N 12N20160305120510103/05/16 12:05:31  5-MIN K12N 051705Z AUTO 00000KT 01/M10 A3017 360 45 -1200 000/00 RMK AO1 T00061100
54779K12N 12N20160305121010103/05/16 12:10:31  5-MIN K12N 051710Z AUTO VRB03KT 01/M09 A3017 360 45 -1200 VRB/03 RMK AO1 T00111094
54779K12N 12N20160305121510103/05/16 12:15:31  5-MIN K12N 051715Z AUTO VRB03KT 01/M10 A3016 360 43 -1200 VRB/03 RMK AO1 T00111100
54779K12N 12N20160305122010103/05/16 12:20:31  5-MIN K12N 051720Z AUTO 00000KT 01/M11 A3016 360 43 -1200 000/00 RMK AO1 T00061106
54779K12N 12N20160305122510103/05/16 12:25:31  5-MIN K12N 051725Z AUTO 00000KT 02/M11 A3016 360 40 -1100 000/00 RMK AO1 T00171106
54779K12N 12N20160305123010103/05/16 12:30:31  5-MIN K12N 051730Z AUTO 05003KT 02/M11 A3016 360 40 -1100 060/03 RMK AO1 T00171106
54779K12N 12N20160305123510103/05/16 12:35:31  5-MIN K12N 051735Z AUTO 00000KT 01/M11 A3016 370 41 -1200 000/00 RMK AO1 T00111106
54779K12N 12N20160305124010103/05/16 12:40:31  5-MIN K12N 051740Z AUTO 00000KT 02/M11 A3016 370 40 -1100 000/00 RMK AO1 T00171106
54779K12N 12N20160305124510103/05/16 12:45:31  5-MIN K12N 051745Z AUTO 00000KT 02/M11 A3015 370 38 -1000 000/00 RMK AO1 T00221106
54779K12N 12N20160305125012603/05/16 12:50:31  5-MIN K12N 051750Z AUTO 00000KT 02/M10 A3015 370 42 -1100 000/00 RMK AO1 SLP221 T00171100 10022 21072 53004
54779K12N 12N20160305125510103/05/16 12:55:31  5-MIN K12N 051755Z AUTO 00000KT 02/M10 A3015 370 40 -1000 000/00 RMK AO1 T00221100
54779K12N 12N20160305130010103/05/16 13:00:31  5-MIN K12N 051800Z AUTO VRB04KT 02/M10 A3015 370 40 -1000 VRB/04 RMK AO1 T00221100
54779K12N 12N20160305130510103/05/16 13:05:31  5-MIN K12N 051805Z AUTO 04004KT 02/M10 A3015 380 42 -1100 060/04 RMK AO1 T00171100
54779K12N 12N20160305131010103/05/16 13:10:31  5-MIN K12N 051810Z AUTO VRB03KT 02/M10 A3015 380 42 -1100 VRB/03 RMK AO1 T00171100
54779K12N 12N20160305131510103/05/16 13:15:31  5-MIN K12N 051815Z AUTO 00000KT 02/M10 A3015 380 42 -1100 000/00 RMK AO1 T00171100
54779K12N 12N20160305132010103/05/16 13:20:31  5-MIN K12N 051820Z AUTO 00000KT 02/M10 A3014 380 42 -1100 000/00 RMK AO1 T00171100
54779K12N 12N20160305132510003/05/16 13:25:31  5-MIN K12N 051825Z AUTO VRB03KT 03/M10 A3014 380 38 -900 VRB/03 RMK AO1 T00281100
54779K12N 12N20160305133010103/05/16 13:30:31  5-MIN K12N 051830Z AUTO 07006KT 02/M11 A3013 390 38 -1000 080/06 RMK AO1 T00221106
54779K12N 12N20160305133510103/05/16 13:35:31  5-MIN K12N 051835Z AUTO VRB03KT 02/M11 A3013 390 37 -1000 VRB/03 RMK AO1 T00221111
54779K12N 12N20160305134010003/05/16 13:40:31  5-MIN K12N 051840Z AUTO VRB03KT 03/M11 A3013 390 37 -900 VRB/03 RMK AO1 T00281106
54779K12N 12N20160305134510003/05/16 13:45:31  5-MIN K12N 051845Z AUTO 04003KT 03/M11 A3013 390 35 -900 050/03 RMK AO1 T00281111
54779K12N 12N20160305135010803/05/16 13:50:31  5-MIN K12N 051850Z AUTO 36003KT 02/M12 A3013 390 35 -1000 010/03 RMK AO1 SLP215 T00221117
54779K12N 12N20160305135510103/05/16 13:55:31  5-MIN K12N 051855Z AUTO VRB03KT 02/M12 A3013 390 35 -1000 VRB/03 RMK AO1 T00221117
54779K12N 12N20160305140010003/05/16 14:00:31  5-MIN K12N 051900Z AUTO 00000KT 03/M12 A3013 390 34 -900 000/00 RMK AO1 T00281117
54779K12N 12N20160305140510003/05/16 14:05:31  5-MIN K12N 051905Z AUTO VRB03KT 03/M11 A3013 390 34 -800 VRB/03 RMK AO1 T00331111
54779K12N 12N20160305141010003/05/16 14:10:31  5-MIN K12N 051910Z AUTO 08006KT 03/M12 A3013 390 32 -800 090/06 RMK AO1 T00331117
54779K12N 12N20160305141510103/05/16 14:15:31  5-MIN K12N 051915Z AUTO VRB03KT 02/M12 A3013 390 35 -1000 VRB/03 RMK AO1 T00171122
54779K12N 12N20160305142010103/05/16 14:20:31  5-MIN K12N 051920Z AUTO 00000KT 02/M12 A3013 390 33 -1000 000/00 RMK AO1 T00221122
54779K12N 12N20160305142510003/05/16 14:25:31  5-MIN K12N 051925Z AUTO 00000KT 03/M12 A3013 390 32 -800 000/00 RMK AO1 T00331117
54779K12N 12N20160305143010003/05/16 14:30:31  5-MIN K12N 051930Z AUTO VRB04KT 03/M12 A3013 390 32 -800 VRB/04 RMK AO1 T00331117
54779K12N 12N20160305143510003/05/16 14:35:31  5-MIN K12N 051935Z AUTO 05004KT 04/M11 A3013 390 34 -800 060/04 RMK AO1 T00391106
54779K12N 12N20160305144010003/05/16 14:40:31  5-MIN K12N 051940Z AUTO 10004KT 03/M11 A3013 390 34 -800 120/04 RMK AO1 T00331111
54779K12N 12N20160305144510003/05/16 14:45:31  5-MIN K12N 051945Z AUTO 00000KT 03/M12 A3013 400 31 -800 000/00 RMK AO1 T00331122
54779K12N 12N20160305145010703/05/16 14:50:31  5-MIN K12N 051950Z AUTO VRB04KT 03/M12 A3012 400 32 -800 VRB/04 RMK AO1 SLP211 T00331117
54779K12N 12N20160305145510003/05/16 14:55:31  5-MIN K12N 051955Z AUTO VRB03KT 03/M12 A3012 400 31 -800 VRB/03 RMK AO1 T00331122
54779K12N 12N20160305150010003/05/16 15:00:31  5-MIN K12N 052000Z AUTO 33003KT 04/M12 A3012 400 31 -800 350/03 RMK AO1 T00391117
54779K12N 12N20160305150510003/05/16 15:05:31  5-MIN K12N 052005Z AUTO 00000KT 04/M12 A3012 400 30 -800 000/00 RMK AO1 T00391122
54779K12N 12N20160305151010003/05/16 15:10:31  5-MIN K12N 052010Z AUTO VRB03KT 03/M12 A3012 400 31 -800 VRB/03 RMK AO1 T00331122
54779K12N 12N20160305151510003/05/16 15:15:31  5-MIN K12N 052015Z AUTO VRB03KT 04/M12 A3011 410 31 -800 VRB/03 RMK AO1 T00391117
54779K12N 12N20160305152010003/05/16 15:20:31  5-MIN K12N 052020Z AUTO VRB03KT 04/M11 A3011 410 31 -700 VRB/03 RMK AO1 T00441111
54779K12N 12N20160305152510003/05/16 15:25:31  5-MIN K12N 052025Z AUTO 34004KT 04/M11 A3011 410 32 -700 360/04 RMK AO1 T00391111
54779K12N 12N20160305153010003/05/16 15:30:31  5-MIN K12N 052030Z AUTO 00000KT 04/M12 A3011 410 30 -700 000/00 RMK AO1 T00441117
54779K12N 12N20160305153510003/05/16 15:35:31  5-MIN K12N 052035Z AUTO 00000KT 04/M12 A3011 410 30 -700 000/00 RMK AO1 T00441117
54779K12N 12N20160305154010003/05/16 15:40:31  5-MIN K12N 052040Z AUTO 00000KT 03/M12 A3011 410 32 -800 000/00 RMK AO1 T00331117
54779K12N 12N20160305154510003/05/16 15:45:31  5-MIN K12N 052045Z AUTO 00000KT 03/M12 A3010 420 32 -800 000/00 RMK AO1 T00331117
54779K12N 12N20160305155011303/05/16 15:50:31  5-MIN K12N 052050Z AUTO 20004KT 03/M13 A3010 420 30 -800 210/04 RMK AO1 SLP206 T00331128 58017
54779K12N 12N20160305155510003/05/16 15:55:31  5-MIN K12N 052055Z AUTO VRB03KT 03/M13 A3010 420 30 -800 VRB/03 RMK AO1 T00331128
54779K12N 12N20160305160010003/05/16 16:00:31  5-MIN K12N 052100Z AUTO VRB06KT 03/M13 A3010 420 28 -800 VRB/06 RMK AO1 T00331133
54779K12N 12N20160305160510003/05/16 16:05:31  5-MIN K12N 052105Z AUTO 23007KT 03/M13 A3011 410 30 -800 240/07 RMK AO1 T00331128
54779K12N 12N20160305161010003/05/16 16:10:31  5-MIN K12N 052110Z AUTO 22005KT 03/M13 A3011 410 30 -800 230/05 RMK AO1 T00331128
54779K12N 12N20160305161510003/05/16 16:15:31  5-MIN K12N 052115Z AUTO 22004KT 03/M13 A3011 410 28 -800 230/04 RMK AO1 T00331133
54779K12N 12N20160305162010003/05/16 16:20:31  5-MIN K12N 052120Z AUTO VRB03KT 03/M13 A3011 410 29 -900 VRB/03 RMK AO1 T00281133
54779K12N 12N20160305162510003/05/16 16:25:31  5-MIN K12N 052125Z AUTO 21003KT 03/M14 A3011 410 28 -900 220/03 RMK AO1 T00281139
54779K12N 12N20160305163010003/05/16 16:30:31  5-MIN K12N 052130Z AUTO 22004KT 03/M14 A3011 410 27 -800 230/04 RMK AO1 T00331139
54779K12N 12N20160305163510003/05/16 16:35:31  5-MIN K12N 052135Z AUTO 21004KT 03/M14 A3011 410 27 -800 220/04 RMK AO1 T00331139
54779K12N 12N20160305164010003/05/16 16:40:31  5-MIN K12N 052140Z AUTO 22004KT 03/M14 A3011 410 27 -800 240/04 RMK AO1 T00331139
54779K12N 12N20160305164510003/05/16 16:45:31  5-MIN K12N 052145Z AUTO 23003KT 03/M13 A3011 410 28 -800 240/03 RMK AO1 T00331133
54779K12N 12N20160305165010703/05/16 16:50:31  5-MIN K12N 052150Z AUTO VRB04KT 03/M14 A3012 410 27 -800 VRB/04 RMK AO1 SLP209 T00331139
54779K12N 12N20160305165510003/05/16 16:55:31  5-MIN K12N 052155Z AUTO 21005KT 03/M13 A3012 400 28 -800 230/05 RMK AO1 T00331133
54779K12N 12N20160305170010003/05/16 17:00:31  5-MIN K12N 052200Z AUTO 18003KT 03/M13 A3011 410 29 -900 200/03 RMK AO1 T00281133
54779K12N 12N20160305170510003/05/16 17:05:31  5-MIN K12N 052205Z AUTO 00000KT 03/M13 A3011 410 28 -800 000/00 RMK AO1 T00331133
54779K12N 12N20160305171010003/05/16 17:10:31  5-MIN K12N 052210Z AUTO 00000KT 03/M13 A3011 410 29 -900 000/00 RMK AO1 T00281133
54779K12N 12N20160305171510003/05/16 17:15:31  5-MIN K12N 052215Z AUTO 00000KT 03/M14 A3012 410 28 -900 000/00 RMK AO1 T00281139
54779K12N 12N20160305172010003/05/16 17:20:31  5-MIN K12N 052220Z AUTO VRB03KT 03/M13 A3012 400 31 -900 VRB/03 RMK AO1 T00281128
54779K12N 12N20160305172510003/05/16 17:25:31  5-MIN K12N 052225Z AUTO 22004KT 03/M13 A3012 400 29 -900 230/04 RMK AO1 T00281133
54779K12N 12N20160305173010103/05/16 17:30:31  5-MIN K12N 052230Z AUTO 21003KT 02/M13 A3012 400 31 -1000 230/03 RMK AO1 T00221133
54779K12N 12N20160305173510103/05/16 17:35:31  5-MIN K12N 052235Z AUTO 23003KT 02/M13 A3012 400 31 -1000 240/03 RMK AO1 T00221133
54779K12N 12N20160305174010103/05/16 17:40:31  5-MIN K12N 052240Z AUTO 00000KT 02/M13 A3012 400 32 -1000 000/00 RMK AO1 T00221128
54779K12N 12N20160305174510103/05/16 17:45:31  5-MIN K12N 052245Z AUTO 21003KT 02/M13 A3013 400 31 -1000 220/03 RMK AO1 T00221133
54779K12N 12N20160305175010803/05/16 17:50:31  5-MIN K12N 052250Z AUTO 00000KT 02/M12 A3013 390 33 -1000 000/00 RMK AO1 SLP214 T00221122
54779K12N 12N20160305175510103/05/16 17:55:31  5-MIN K12N 052255Z AUTO 00000KT 02/M12 A3013 390 36 -1000 000/00 RMK AO1 T00171117
54779K12N 12N20160305180010103/05/16 18:00:31  5-MIN K12N 052300Z AUTO 00000KT 02/M11 A3013 390 40 -1000 000/00 RMK AO1 T00171106
54779K12N 12N20160305180510103/05/16 18:05:31  5-MIN K12N 052305Z AUTO 00000KT 02/M09 A3013 390 43 -1000 000/00 RMK AO1 T00171094
54779K12N 12N20160305181010103/05/16 18:10:31  5-MIN K12N 052310Z AUTO 00000KT 01/M08 A3013 390 51 -1100 000/00 RMK AO1 T00111078
54779K12N 12N20160305181510103/05/16 18:15:31  5-MIN K12N 052315Z AUTO 00000KT 01/M08 A3013 390 51 -1200 000/00 RMK AO1 T00061083
54779K12N 12N20160305182010103/05/16 18:20:31  5-MIN K12N 052320Z AUTO 00000KT 00/M08 A3013 390 56 -1300 000/00 RMK AO1 T00001078
54779K12N 12N20160305182510103/05/16 18:25:31  5-MIN K12N 052325Z AUTO 00000KT 00/M11 A3013 390 45 -1300 000/00 RMK AO1 T00001106
54779K12N 12N20160305183010203/05/16 18:30:31  5-MIN K12N 052330Z AUTO 00000KT M01/M11 A3013 390 45 -1300 000/00 RMK AO1 T10061111
54779K12N 12N20160305183510203/05/16 18:35:31  5-MIN K12N 052335Z AUTO 00000KT M01/M09 A3014 390 53 -1300 000/00 RMK AO1 T10061089
54779K12N 12N20160305184010203/05/16 18:40:31  5-MIN K12N 052340Z AUTO 00000KT M01/M11 A3014 380 45 -1300 000/00 RMK AO1 T10061111
54779K12N 12N20160305184510203/05/16 18:45:31  5-MIN K12N 052345Z AUTO 00000KT M01/M10 A3014 380 51 -1400 000/00 RMK AO1 T10111100
54779K12N 12N20160305185012703/05/16 18:50:31  5-MIN K12N 052350Z AUTO 00000KT M01/M07 A3014 380 63 -1400 000/00 RMK AO1 SLP221 T10111072 10044 21011 56016
54779K12N 12N20160305185510203/05/16 18:55:31  5-MIN K12N 052355Z AUTO 00000KT M01/M08 A3014 380 58 -1400 000/00 RMK AO1 T10111083
54779K12N 12N20160305190010203/05/16 19:00:31  5-MIN K12N 060000Z AUTO 04003KT M01/M11 A3014 380 47 -1300 060/03 RMK AO1 T10061106
54779K12N 12N20160305190510203/05/16 19:05:31  5-MIN K12N 060005Z AUTO 00000KT M01/M09 A3014 380 53 -1400 000/00 RMK AO1 T10111094
54779K12N 12N20160305191010203/05/16 19:10:31  5-MIN K12N 060010Z AUTO 00000KT M01/M08 A3015 380 56 -1300 000/00 RMK AO1 T10061083
54779K12N 12N20160305191510203/05/16 19:15:31  5-MIN K12N 060015Z AUTO 00000KT M01/M09 A3015 370 55 -1400 000/00 RMK AO1 T10111089
54779K12N 12N20160305192010203/05/16 19:20:31  5-MIN K12N 060020Z AUTO 00000KT M01/M10 A3015 370 49 -1400 000/00 RMK AO1 T10061100
54779K12N 12N20160305192510103/05/16 19:25:31  5-MIN K12N 060025Z AUTO 00000KT 00/M10 A3015 370 47 -1300 000/00 RMK AO1 T00001100
54779K12N 12N20160305193010203/05/16 19:30:31  5-MIN K12N 060030Z AUTO 00000KT M01/M09 A3015 370 53 -1400 000/00 RMK AO1 T10061089
54779K12N 12N20160305193510203/05/16 19:35:31  5-MIN K12N 060035Z AUTO 00000KT M01/M09 A3015 370 53 -1300 000/00 RMK AO1 T10061089
54779K12N 12N20160305194010203/05/16 19:40:31  5-MIN K12N 060040Z AUTO 00000KT M01/M09 A3015 370 53 -1300 000/00 RMK AO1 T10061089
54779K12N 12N20160305194510103/05/16 19:45:31  5-MIN K12N 060045Z AUTO 00000KT 00/M09 A3015 370 49 -1300 000/00 RMK AO1 T00001094
54779K12N 12N20160305195010803/05/16 19:50:31  5-MIN K12N 060050Z AUTO 00000KT 00/M09 A3015 370 49 -1300 000/00 RMK AO1 SLP223 T00001094
54779K12N 12N20160305195510103/05/16 19:55:31  5-MIN K12N 060055Z AUTO 36003KT 00/M11 A3016 370 45 -1300 010/03 RMK AO1 T00001106
54779K12N 12N20160305200010103/05/16 20:00:31  5-MIN K12N 060100Z AUTO VRB03KT 00/M11 A3016 370 43 -1300 VRB/03 RMK AO1 T00001111
54779K12N 12N20160305200510203/05/16 20:05:31  5-MIN K12N 060105Z AUTO VRB03KT M01/M11 A3016 370 47 -1400 VRB/03 RMK AO1 T10061106
54779K12N 12N20160305201010203/05/16 20:10:31  5-MIN K12N 060110Z AUTO 00000KT M01/M11 A3016 370 45 -1400 000/00 RMK AO1 T10061111
54779K12N 12N20160305201510203/05/16 20:15:31  5-MIN K12N 060115Z AUTO 00000KT M01/M09 A3016 360 53 -1400 000/00 RMK AO1 T10111094
54779K12N 12N20160305202010203/05/16 20:20:31  5-MIN K12N 060120Z AUTO 00000KT M01/M09 A3016 360 55 -1400 000/00 RMK AO1 T10111089
54779K12N 12N20160305202510203/05/16 20:25:31  5-MIN K12N 060125Z AUTO 06003KT M01/M10 A3016 360 51 -1400 070/03 RMK AO1 T10111100
54779K12N 12N20160305203010203/05/16 20:30:31  5-MIN K12N 060130Z AUTO 00000KT M01/M10 A3017 360 51 -1400 000/00 RMK AO1 T10111100
54779K12N 12N20160305203510203/05/16 20:35:31  5-MIN K12N 060135Z AUTO 00000KT M02/M10 A3017 360 53 -1500 000/00 RMK AO1 T10171100
54779K12N 12N20160305204010203/05/16 20:40:31  5-MIN K12N 060140Z AUTO 00000KT M01/M09 A3017 360 53 -1400 000/00 RMK AO1 T10111094
54779K12N 12N20160305204510203/05/16 20:45:31  5-MIN K12N 060145Z AUTO 00000KT M02/M10 A3017 350 53 -1500 000/00 RMK AO1 T10171100
54779K12N 12N20160305205010903/05/16 20:50:31  5-MIN K12N 060150Z AUTO 00000KT M03/M11 A3017 350 55 -1700 000/00 RMK AO1 SLP229 T10281106
54779K12N 12N20160305205510203/05/16 20:55:31  5-MIN K12N 060155Z AUTO 00000KT M02/M10 A3017 350 55 -1600 000/00 RMK AO1 T10221100
54779K12N 12N20160305210010203/05/16 21:00:31  5-MIN K12N 060200Z AUTO 00000KT M02/M10 A3017 350 55 -1600 000/00 RMK AO1 T10221100
54779K12N 12N20160305210510203/05/16 21:05:31  5-MIN K12N 060205Z AUTO 00000KT M02/M10 A3017 350 55 -1600 000/00 RMK AO1 T10221100
54779K12N 12N20160305211010203/05/16 21:10:31  5-MIN K12N 060210Z AUTO 00000KT M02/M08 A3017 350 63 -1600 000/00 RMK AO1 T10221083
54779K12N 12N20160305211510203/05/16 21:15:31  5-MIN K12N 060215Z AUTO 00000KT M02/M08 A3017 350 63 -1600 000/00 RMK AO1 T10221083
54779K12N 12N20160305212010203/05/16 21:20:31  5-MIN K12N 060220Z AUTO 00000KT M03/M09 A3017 350 63 -1700 000/00 RMK AO1 T10281089
54779K12N 12N20160305212510203/05/16 21:25:31  5-MIN K12N 060225Z AUTO 00000KT M03/M09 A3017 350 60 -1700 000/00 RMK AO1 T10281094
54779K12N 12N20160305213010203/05/16 21:30:31  5-MIN K12N 060230Z AUTO 00000KT M03/M09 A3017 350 60 -1700 000/00 RMK AO1 T10281094
54779K12N 12N20160305213510203/05/16 21:35:31  5-MIN K12N 060235Z AUTO 00000KT M02/M09 A3018 350 60 -1600 000/00 RMK AO1 T10221089
54779K12N 12N20160305214010203/05/16 21:40:31  5-MIN K12N 060240Z AUTO 00000KT M02/M09 A3018 350 58 -1600 000/00 RMK AO1 T10221094
54779K12N 12N20160305214510203/05/16 21:45:31  5-MIN K12N 060245Z AUTO 00000KT M03/M09 A3017 350 63 -1700 000/00 RMK AO1 T10281089
54779K12N 12N20160305215011503/05/16 21:50:31  5-MIN K12N 060250Z AUTO 00000KT M03/M09 A3017 350 63 -1700 000/00 RMK AO1 SLP229 T10281089 53013
54779K12N 12N20160305215510203/05/16 21:55:31  5-MIN K12N 060255Z AUTO 00000KT M03/M08 A3017 360 66 -1700 000/00 RMK AO1 T10281083
54779K12N 12N20160305220010203/05/16 22:00:31  5-MIN K12N 060300Z AUTO 00000KT M03/M08 A3017 360 68 -1700 000/00 RMK AO1 T10331083
54779K12N 12N20160305220510203/05/16 22:05:31  5-MIN K12N 060305Z AUTO 00000KT M03/M09 A3017 360 63 -1700 000/00 RMK AO1 T10281089
54779K12N 12N20160305221010203/05/16 22:10:31  5-MIN K12N 060310Z AUTO 00000KT M03/M09 A3017 350 65 -1700 000/00 RMK AO1 T10331089
54779K12N 12N20160305221510203/05/16 22:15:31  5-MIN K12N 060315Z AUTO 00000KT M03/M09 A3017 350 65 -1700 000/00 RMK AO1 T10331089
54779K12N 12N20160305222010203/05/16 22:20:31  5-MIN K12N 060320Z AUTO 00000KT M03/M09 A3018 350 65 -1700 000/00 RMK AO1 T10331089
54779K12N 12N20160305222510203/05/16 22:25:31  5-MIN K12N 060325Z AUTO 00000KT M03/M09 A3018 350 65 -1700 000/00 RMK AO1 T10331089
54779K12N 12N20160305223010203/05/16 22:30:31  5-MIN K12N 060330Z AUTO 00000KT M04/M09 A3018 350 68 -1800 000/00 RMK AO1 T10391089
54779K12N 12N20160305223510203/05/16 22:35:31  5-MIN K12N 060335Z AUTO 00000KT M03/M09 A3018 350 65 -1700 000/00 RMK AO1 T10331089
54779K12N 12N20160305224010203/05/16 22:40:31  5-MIN K12N 060340Z AUTO 00000KT M03/M09 A3018 340 65 -1700 000/00 RMK AO1 T10331089
54779K12N 12N20160305224510203/05/16 22:45:31  5-MIN K12N 060345Z AUTO 00000KT M03/M09 A3018 340 65 -1700 000/00 RMK AO1 T10331089
54779K12N 12N20160305225010903/05/16 22:50:31  5-MIN K12N 060350Z AUTO 00000KT M03/M09 A3018 340 65 -1700 000/00 RMK AO1 SLP233 T10331089
54779K12N 12N20160305225510203/05/16 22:55:31  5-MIN K12N 060355Z AUTO 00000KT M03/M09 A3018 340 65 -1700 000/00 RMK AO1 T10331089
54779K12N 12N20160305230010203/05/16 23:00:31  5-MIN K12N 060400Z AUTO 00000KT M03/M08 A3018 340 68 -1700 000/00 RMK AO1 T10331083
54779K12N 12N20160305230510203/05/16 23:05:31  5-MIN K12N 060405Z AUTO 00000KT M04/M09 A3018 340 68 -1800 000/00 RMK AO1 T10391089
54779K12N 12N20160305231010203/05/16 23:10:31  5-MIN K12N 060410Z AUTO 00000KT M03/M08 A3018 340 68 -1700 000/00 RMK AO1 T10331083
54779K12N 12N20160305231510203/05/16 23:15:31  5-MIN K12N 060415Z AUTO 00000KT M03/M08 A3018 340 68 -1700 000/00 RMK AO1 T10331083
54779K12N 12N20160305232010203/05/16 23:20:31  5-MIN K12N 060420Z AUTO 00000KT M03/M08 A3018 340 68 -1700 000/00 RMK AO1 T10331083
54779K12N 12N20160305232510203/05/16 23:25:31  5-MIN K12N 060425Z AUTO 00000KT M03/M08 A3018 340 68 -1700 000/00 RMK AO1 T10331083
54779K12N 12N20160305233010203/05/16 23:30:31  5-MIN K12N 060430Z AUTO 00000KT M03/M08 A3019 340 68 -1700 000/00 RMK AO1 T10331083
54779K12N 12N20160305233510203/05/16 23:35:31  5-MIN K12N 060435Z AUTO 00000KT M03/M08 A3019 340 68 -1700 000/00 RMK AO1 T10331083
54779K12N 12N20160305234010203/05/16 23:40:31  5-MIN K12N 060440Z AUTO 00000KT M03/M09 A3019 340 65 -1700 000/00 RMK AO1 T10331089
54779K12N 12N20160305234510203/05/16 23:45:31  5-MIN K12N 060445Z AUTO 00000KT M03/M08 A3019 340 68 -1700 000/00 RMK AO1 T10331083
54779K12N 12N20160305235011903/05/16 23:50:31  5-MIN K12N 060450Z AUTO 00000KT M03/M09 A3019 340 65 -1700 000/00 RMK AO1 SLP234 T10331089 400441072
54779K12N 12N20160305235510203/05/16 23:55:31  5-MIN K12N 060455Z AUTO 35004KT M03/M08 A3019 340 68 -1700 360/04 RMK AO1 T10331083
54779K12N 12N20160306000010203/06/16 00:00:31  5-MIN K12N 060500Z AUTO 00000KT M03/M08 A3019 340 66 -1700 000/00 RMK AO1 T10281083
54779K12N 12N20160306000510203/06/16 00:05:31  5-MIN K12N 060505Z AUTO VRB03KT M03/M08 A3019 340 66 -1700 VRB/03 RMK AO1 T10281083
54779K12N 12N20160306001010203/06/16 00:10:31  5-MIN K12N 060510Z AUTO 00000KT M03/M09 A3019 340 63 -1700 000/00 RMK AO1 T10281089
54779K12N 12N20160306001510203/06/16 00:15:31  5-MIN K12N 060515Z AUTO 00000KT M03/M10 A3019 340 58 -1700 000/00 RMK AO1 T10281100
54779K12N 12N20160306002010203/06/16 00:20:31  5-MIN K12N 060520Z AUTO 00000KT M03/M10 A3019 330 58 -1700 000/00 RMK AO1 T10281100
54779K12N 12N20160306002510203/06/16 00:25:31  5-MIN K12N 060525Z AUTO 00000KT M03/M10 A3019 330 58 -1700 000/00 RMK AO1 T10281100
54779K12N 12N20160306003010203/06/16 00:30:31  5-MIN K12N 060530Z AUTO 00000KT M03/M10 A3020 330 58 -1700 000/00 RMK AO1 T10281100
54779K12N 12N20160306003510203/06/16 00:35:31  5-MIN K12N 060535Z AUTO VRB03KT M03/M10 A3020 330 60 -1800 VRB/03 RMK AO1 T10331100
54779K12N 12N20160306004010203/06/16 00:40:31  5-MIN K12N 060540Z AUTO 04004KT M03/M10 A3020 330 60 -1800 050/04 RMK AO1 T10331100
54779K12N 12N20160306004510203/06/16 00:45:31  5-MIN K12N 060545Z AUTO 00000KT M03/M11 A3019 330 57 -1800 000/00 RMK AO1 T10331106
54779K12N 12N20160306005012703/06/16 00:50:31  5-MIN K12N 060550Z AUTO 00000KT M03/M11 A3020 330 55 -1800 000/00 RMK AO1 SLP237 T10331111 10000 21039 50009
54779K12N 12N20160306005510203/06/16 00:55:31  5-MIN K12N 060555Z AUTO 00000KT M04/M11 A3020 330 60 -1800 000/00 RMK AO1 T10391106
54779K12N 12N20160306010010203/06/16 01:00:31  5-MIN K12N 060600Z AUTO 00000KT M04/M10 A3020 330 63 -1800 000/00 RMK AO1 T10391100
54779K12N 12N20160306010510203/06/16 01:05:31  5-MIN K12N 060605Z AUTO VRB03KT M04/M10 A3020 330 63 -1800 VRB/03 RMK AO1 T10391100
54779K12N 12N20160306011010203/06/16 01:10:31  5-MIN K12N 060610Z AUTO 04004KT M03/M09 A3020 320 63 -1800 050/04 RMK AO1 T10331094
54779K12N 12N20160306011510203/06/16 01:15:31  5-MIN K12N 060615Z AUTO 00000KT M04/M10 A3020 320 63 -1800 000/00 RMK AO1 T10391100
54779K12N 12N20160306012010203/06/16 01:20:31  5-MIN K12N 060620Z AUTO 00000KT M04/M10 A3020 320 63 -1800 000/00 RMK AO1 T10391100
54779K12N 12N20160306012510203/06/16 01:25:31  5-MIN K12N 060625Z AUTO 00000KT M04/M10 A3021 320 63 -1800 000/00 RMK AO1 T10391100
54779K12N 12N20160306013010203/06/16 01:30:31  5-MIN K12N 060630Z AUTO 00000KT M04/M10 A3021 320 63 -1800 000/00 RMK AO1 T10391100
54779K12N 12N20160306013510203/06/16 01:35:31  5-MIN K12N 060635Z AUTO 00000KT M04/M10 A3021 320 63 -1800 000/00 RMK AO1 T10391100
54779K12N 12N20160306014010203/06/16 01:40:31  5-MIN K12N 060640Z AUTO 00000KT M04/M10 A3021 320 65 -1900 000/00 RMK AO1 T10441100
54779K12N 12N20160306014510203/06/16 01:45:31  5-MIN K12N 060645Z AUTO 04003KT M04/M09 A3021 320 68 -1900 050/03 RMK AO1 T10441094
54779K12N 12N20160306015010903/06/16 01:50:31  5-MIN K12N 060650Z AUTO 00000KT M04/M09 A3020 320 71 -1900 000/00 RMK AO1 SLP239 T10441089
54779K12N 12N20160306015510203/06/16 01:55:31  5-MIN K12N 060655Z AUTO 00000KT M04/M09 A3020 320 65 -1800 000/00 RMK AO1 T10391094
54779K12N 12N20160306020010203/06/16 02:00:31  5-MIN K12N 060700Z AUTO 00000KT M05/M09 A3021 320 71 -2000 000/00 RMK AO1 T10501094
54779K12N 12N20160306020510203/06/16 02:05:31  5-MIN K12N 060705Z AUTO 00000KT M04/M09 A3021 320 68 -1900 000/00 RMK AO1 T10441094
54779K12N 12N20160306021010203/06/16 02:10:31  5-MIN K12N 060710Z AUTO 00000KT M04/M09 A3021 320 68 -1900 000/00 RMK AO1 T10441094
54779K12N 12N20160306021510203/06/16 02:15:31  5-MIN K12N 060715Z AUTO 36003KT M04/M09 A3020 320 68 -1900 010/03 RMK AO1 T10441094
54779K12N 12N20160306022010203/06/16 02:20:31  5-MIN K12N 060720Z AUTO 00000KT M05/M09 A3020 320 71 -2000 000/00 RMK AO1 T10501094
54779K12N 12N20160306022510203/06/16 02:25:31  5-MIN K12N 060725Z AUTO 00000KT M05/M09 A3020 330 71 -2000 000/00 RMK AO1 T10501094
54779K12N 12N20160306023010203/06/16 02:30:31  5-MIN K12N 060730Z AUTO 00000KT M05/M09 A3020 330 71 -2000 000/00 RMK AO1 T10501094
54779K12N 12N20160306023510203/06/16 02:35:31  5-MIN K12N 060735Z AUTO 35003KT M05/M09 A3020 330 71 -2000 010/03 RMK AO1 T10501094
54779K12N 12N20160306024010203/06/16 02:40:31  5-MIN K12N 060740Z AUTO 35004KT M05/M09 A3020 330 71 -2000 010/04 RMK AO1 T10501094
54779K12N 12N20160306024510203/06/16 02:45:31  5-MIN K12N 060745Z AUTO 00000KT M05/M09 A3020 320 71 -2000 000/00 RMK AO1 T10501094
54779K12N 12N20160306025010903/06/16 02:50:31  5-MIN K12N 060750Z AUTO 00000KT M06/M09 A3020 330 74 -2100 000/00 RMK AO1 SLP239 T10561094
54779K12N 12N20160306025510203/06/16 02:55:31  5-MIN K12N 060755Z AUTO 00000KT M05/M09 A3020 330 71 -2000 000/00 RMK AO1 T10501094
54779K12N 12N20160306030010203/06/16 03:00:31  5-MIN K12N 060800Z AUTO 00000KT M05/M09 A3020 330 71 -2000 000/00 RMK AO1 T10501094
54779K12N 12N20160306030510203/06/16 03:05:31  5-MIN K12N 060805Z AUTO 00000KT M05/M09 A3020 330 71 -2000 000/00 RMK AO1 T10501094
54779K12N 12N20160306031010203/06/16 03:10:31  5-MIN K12N 060810Z AUTO 00000KT M05/M09 A3020 330 71 -2000 000/00 RMK AO1 T10501094
54779K12N 12N20160306031510203/06/16 03:15:31  5-MIN K12N 060815Z AUTO 04003KT M04/M09 A3020 330 68 -1900 050/03 RMK AO1 T10441094
54779K12N 12N20160306032010203/06/16 03:20:31  5-MIN K12N 060820Z AUTO 35003KT M04/M09 A3020 330 71 -1900 010/03 RMK AO1 T10441089
54779K12N 12N20160306032510203/06/16 03:25:31  5-MIN K12N 060825Z AUTO 36003KT M04/M09 A3020 330 68 -1900 020/03 RMK AO1 T10441094
54779K12N 12N20160306033010203/06/16 03:30:31  5-MIN K12N 060830Z AUTO VRB03KT M04/M09 A3020 330 68 -1900 VRB/03 RMK AO1 T10441094
54779K12N 12N20160306033510203/06/16 03:35:31  5-MIN K12N 060835Z AUTO VRB03KT M04/M09 A3020 330 71 -1900 VRB/03 RMK AO1 T10441089
54779K12N 12N20160306034010203/06/16 03:40:31  5-MIN K12N 060840Z AUTO 35003KT M04/M09 A3020 330 71 -1900 360/03 RMK AO1 T10441089
54779K12N 12N20160306034510203/06/16 03:45:31  5-MIN K12N 060845Z AUTO 36003KT M04/M09 A3020 330 68 -1900 010/03 RMK AO1 T10441094
54779K12N 12N20160306035011503/06/16 03:50:31  5-MIN K12N 060850Z AUTO 00000KT M04/M09 A3020 330 71 -1900 000/00 RMK AO1 SLP237 T10441089 51009
54779K12N 12N20160306035510203/06/16 03:55:31  5-MIN K12N 060855Z AUTO 00000KT M04/M09 A3020 330 68 -1900 000/00 RMK AO1 T10441094
54779K12N 12N20160306040010203/06/16 04:00:31  5-MIN K12N 060900Z AUTO 00000KT M04/M09 A3020 330 68 -1900 000/00 RMK AO1 T10441094
54779K12N 12N20160306040510203/06/16 04:05:31  5-MIN K12N 060905Z AUTO 00000KT M04/M09 A3020 330 68 -1900 000/00 RMK AO1 T10441094
54779K12N 12N20160306041010203/06/16 04:10:31  5-MIN K12N 060910Z AUTO 00000KT M04/M09 A3020 320 68 -1900 000/00 RMK AO1 T10441094
54779K12N 12N20160306041510203/06/16 04:15:31  5-MIN K12N 060915Z AUTO 00000KT M04/M09 A3020 320 65 -1800 000/00 RMK AO1 T10391094
54779K12N 12N20160306042010203/06/16 04:20:31  5-MIN K12N 060920Z AUTO 00000KT M04/M09 A3021 320 65 -1800 000/00 RMK AO1 T10391094
54779K12N 12N20160306042510203/06/16 04:25:31  5-MIN K12N 060925Z AUTO 00000KT M04/M09 A3021 320 65 -1800 000/00 RMK AO1 T10391094
54779K12N 12N20160306043010203/06/16 04:30:31  5-MIN K12N 060930Z AUTO 00000KT M04/M09 A3021 320 65 -1800 000/00 RMK AO1 T10391094
54779K12N 12N20160306043510203/06/16 04:35:31  5-MIN K12N 060935Z AUTO 00000KT M04/M09 A3021 320 68 -1800 000/00 RMK AO1 T10391089
54779K12N 12N20160306044010203/06/16 04:40:31  5-MIN K12N 060940Z AUTO 04003KT M04/M09 A3021 320 68 -1800 060/03 RMK AO1 T10391089
54779K12N 12N20160306044510203/06/16 04:45:31  5-MIN K12N 060945Z AUTO 00000KT M04/M09 A3021 320 68 -1800 000/00 RMK AO1 T10391089
54779K12N 12N20160306045010903/06/16 04:50:31  5-MIN K12N 060950Z AUTO 00000KT M04/M09 A3022 310 68 -1800 000/00 RMK AO1 SLP243 T10391089
54779K12N 12N20160306045510203/06/16 04:55:31  5-MIN K12N 060955Z AUTO 00000KT M04/M09 A3022 310 65 -1900 000/00 RMK AO1 T10391094
54779K12N 12N20160306050010203/06/16 05:00:31  5-MIN K12N 061000Z AUTO 00000KT M04/M10 A3022 310 63 -1900 000/00 RMK AO1 T10391100
54779K12N 12N20160306050510203/06/16 05:05:31  5-MIN K12N 061005Z AUTO 00000KT M03/M09 A3022 310 63 -1800 000/00 RMK AO1 T10331094
54779K12N 12N20160306051010203/06/16 05:10:31  5-MIN K12N 061010Z AUTO 00000KT M03/M09 A3022 310 63 -1800 000/00 RMK AO1 T10331094
54779K12N 12N20160306051510203/06/16 05:15:31  5-MIN K12N 061015Z AUTO 00000KT M03/M10 A3022 310 60 -1800 000/00 RMK AO1 T10331100
54779K12N 12N20160306052010203/06/16 05:20:31  5-MIN K12N 061020Z AUTO 00000KT M03/M10 A3022 300 60 -1800 000/00 RMK AO1 T10331100
54779K12N 12N20160306052510203/06/16 05:25:31  5-MIN K12N 061025Z AUTO 00000KT M03/M10 A3023 300 60 -1800 000/00 RMK AO1 T10331100
54779K12N 12N20160306053010203/06/16 05:30:31  5-MIN K12N 061030Z AUTO VRB03KT M03/M10 A3023 300 60 -1800 VRB/03 RMK AO1 T10331100
54779K12N 12N20160306053510203/06/16 05:35:31  5-MIN K12N 061035Z AUTO 03003KT M03/M11 A3023 300 57 -1800 040/03 RMK AO1 T10331106
54779K12N 12N20160306054010203/06/16 05:40:31  5-MIN K12N 061040Z AUTO 00000KT M03/M11 A3023 300 57 -1800 000/00 RMK AO1 T10331106
54779K12N 12N20160306054510203/06/16 05:45:31  5-MIN K12N 061045Z AUTO 00000KT M03/M11 A3023 300 57 -1800 000/00 RMK AO1 T10331106
54779K12N 12N20160306055010903/06/16 05:50:31  5-MIN K12N 061050Z AUTO 00000KT M03/M11 A3024 290 57 -1800 000/00 RMK AO1 SLP251 T10331106
54779K12N 12N20160306055510203/06/16 05:55:31  5-MIN K12N 061055Z AUTO 00000KT M03/M11 A3024 290 57 -1800 000/00 RMK AO1 T10331106
54779K12N 12N20160306060010203/06/16 06:00:31  5-MIN K12N 061100Z AUTO 00000KT M03/M11 A3024 290 57 -1800 000/00 RMK AO1 T10331106
54779K12N 12N20160306060510203/06/16 06:05:31  5-MIN K12N 061105Z AUTO 00000KT M03/M11 A3024 290 57 -1800 000/00 RMK AO1 T10331106
54779K12N 12N20160306061010203/06/16 06:10:31  5-MIN K12N 061110Z AUTO 00000KT M03/M11 A3024 290 57 -1800 000/00 RMK AO1 T10331106
54779K12N 12N20160306061510203/06/16 06:15:31  5-MIN K12N 061115Z AUTO 00000KT M03/M11 A3025 290 55 -1800 000/00 RMK AO1 T10331111
54779K12N 12N20160306062010203/06/16 06:20:31  5-MIN K12N 061120Z AUTO VRB03KT M03/M11 A3025 290 55 -1800 VRB/03 RMK AO1 T10331111
54779K12N 12N20160306062510203/06/16 06:25:31  5-MIN K12N 061125Z AUTO VRB03KT M03/M11 A3025 280 55 -1800 VRB/03 RMK AO1 T10331111
54779K12N 12N20160306063010203/06/16 06:30:31  5-MIN K12N 061130Z AUTO VRB03KT M03/M11 A3025 280 55 -1700 VRB/03 RMK AO1 T10281106
54779K12N 12N20160306063510203/06/16 06:35:31  5-MIN K12N 061135Z AUTO 04003KT M03/M11 A3025 280 55 -1700 050/03 RMK AO1 T10281106
54779K12N 12N20160306064010203/06/16 06:40:31  5-MIN K12N 061140Z AUTO 00000KT M03/M11 A3025 280 55 -1700 000/00 RMK AO1 T10281106
54779K12N 12N20160306064510203/06/16 06:45:31  5-MIN K12N 061145Z AUTO 04003KT M03/M11 A3025 280 53 -1800 050/03 RMK AO1 T10281111
54779K12N 12N20160306065012703/06/16 06:50:31  5-MIN K12N 061150Z AUTO 04003KT M03/M12 A3026 280 50 -1800 050/03 RMK AO1 SLP258 T10281117 11028 21056 50000
54779K12N 12N20160306065510203/06/16 06:55:31  5-MIN K12N 061155Z AUTO 03003KT M03/M11 A3026 280 55 -1800 050/03 RMK AO1 T10281106
54779K12N 12N20160306070010203/06/16 07:00:31  5-MIN K12N 061200Z AUTO 00000KT M03/M11 A3026 270 55 -1800 000/00 RMK AO1 T10281106
54779K12N 12N20160306070510203/06/16 07:05:31  5-MIN K12N 061205Z AUTO 00000KT M03/M11 A3026 270 55 -1800 000/00 RMK AO1 T10281106
54779K12N 12N20160306071010203/06/16 07:10:31  5-MIN K12N 061210Z AUTO 04003KT M03/M11 A3026 270 53 -1800 050/03 RMK AO1 T10281111
54779K12N 12N20160306071510203/06/16 07:15:31  5-MIN K12N 061215Z AUTO 03003KT M03/M11 A3026 270 53 -1800 040/03 RMK AO1 T10281111
54779K12N 12N20160306072010203/06/16 07:20:31  5-MIN K12N 061220Z AUTO VRB03KT M03/M11 A3026 270 55 -1800 VRB/03 RMK AO1 T10281106
54779K12N 12N20160306072510203/06/16 07:25:31  5-MIN K12N 061225Z AUTO 03003KT M03/M11 A3027 270 53 -1800 040/03 RMK AO1 T10281111
54779K12N 12N20160306073010203/06/16 07:30:31  5-MIN K12N 061230Z AUTO VRB03KT M03/M11 A3027 270 53 -1800 VRB/03 RMK AO1 T10281111
54779K12N 12N20160306073510203/06/16 07:35:31  5-MIN K12N 061235Z AUTO 04004KT M02/M11 A3027 270 51 -1700 050/04 RMK AO1 T10221111
54779K12N 12N20160306074010203/06/16 07:40:31  5-MIN K12N 061240Z AUTO 00000KT M02/M12 A3027 270 48 -1700 000/00 RMK AO1 T10221117
54779K12N 12N20160306074510203/06/16 07:45:31  5-MIN K12N 061245Z AUTO 00000KT M02/M12 A3027 260 48 -1700 000/00 RMK AO1 T10221117
54779K12N 12N20160306075010903/06/16 07:50:31  5-MIN K12N 061250Z AUTO 00000KT M02/M12 A3027 260 48 -1700 000/00 RMK AO1 SLP262 T10221117
54779K12N 12N20160306075510203/06/16 07:55:31  5-MIN K12N 061255Z AUTO VRB04KT M02/M12 A3027 260 48 -1700 VRB/04 RMK AO1 T10221117
54779K12N 12N20160306080010203/06/16 08:00:31  5-MIN K12N 061300Z AUTO 02003KT M02/M12 A3027 260 48 -1700 030/03 RMK AO1 T10221117
54779K12N 12N20160306080510203/06/16 08:05:31  5-MIN K12N 061305Z AUTO 03004KT M02/M12 A3027 260 48 -1700 040/04 RMK AO1 T10221117
54779K12N 12N20160306081010203/06/16 08:10:31  5-MIN K12N 061310Z AUTO VRB03KT M02/M12 A3028 260 48 -1700 VRB/03 RMK AO1 T10221117
54779K12N 12N20160306081510203/06/16 08:15:31  5-MIN K12N 061315Z AUTO VRB03KT M02/M12 A3028 260 46 -1600 VRB/03 RMK AO1 T10171117
54779K12N 12N20160306082010203/06/16 08:20:31  5-MIN K12N 061320Z AUTO VRB03KT M02/M12 A3028 260 46 -1600 VRB/03 RMK AO1 T10171117
54779K12N 12N20160306082510203/06/16 08:25:31  5-MIN K12N 061325Z AUTO VRB03KT M02/M12 A3028 250 46 -1600 VRB/03 RMK AO1 T10171117
54779K12N 12N20160306083010203/06/16 08:30:31  5-MIN K12N 061330Z AUTO 02003KT M02/M12 A3028 250 46 -1600 030/03 RMK AO1 T10171117
54779K12N 12N20160306083510203/06/16 08:35:31  5-MIN K12N 061335Z AUTO VRB03KT M02/M12 A3028 250 46 -1600 VRB/03 RMK AO1 T10171117
54779K12N 12N20160306084010203/06/16 08:40:31  5-MIN K12N 061340Z AUTO VRB03KT M02/M12 A3028 250 44 -1600 VRB/03 RMK AO1 T10171122
54779K12N 12N20160306084510203/06/16 08:45:31  5-MIN K12N 061345Z AUTO VRB04KT M01/M12 A3029 250 45 -1600 VRB/04 RMK AO1 T10111117
54779K12N 12N20160306085010903/06/16 08:50:31  5-MIN K12N 061350Z AUTO VRB04KT M01/M12 A3029 250 43 -1600 VRB/04 RMK AO1 SLP268 T10111122
54779K12N 12N20160306085510203/06/16 08:55:31  5-MIN K12N 061355Z AUTO 04004KT M01/M12 A3029 250 45 -1600 050/04 RMK AO1 T10111117
54779K12N 12N20160306090010203/06/16 09:00:31  5-MIN K12N 061400Z AUTO 03004KT M01/M12 A3029 250 45 -1600 050/04 RMK AO1 T10111117
54779K12N 12N20160306090510203/06/16 09:05:31  5-MIN K12N 061405Z AUTO VRB04KT M01/M12 A3029 240 45 -1600 VRB/04 RMK AO1 T10111117
54779K12N 12N20160306091009203/06/16 09:10:31  5-MIN K12N 061410Z AUTO M01/M11 A3029 240 47 -1600 M /M RMK AO1 T10111111
54779K12N 12N20160306091510203/06/16 09:15:31  5-MIN K12N 061415Z AUTO VRB04KT M01/M11 A3029 240 47 -1600 VRB/04 RMK AO1 T10111111
54779K12N 12N20160306092010203/06/16 09:20:31  5-MIN K12N 061420Z AUTO 03006KT M01/M11 A3029 240 49 -1600 050/06 RMK AO1 T10111106
54779K12N 12N20160306092510203/06/16 09:25:31  5-MIN K12N 061425Z AUTO 05005KT M01/M11 A3029 240 49 -1600 060/05 RMK AO1 T10111106
54779K12N 12N20160306093010203/06/16 09:30:31  5-MIN K12N 061430Z AUTO VRB04KT M01/M10 A3029 240 49 -1500 VRB/04 RMK AO1 T10061100
54779K12N 12N20160306093510203/06/16 09:35:31  5-MIN K12N 061435Z AUTO VRB03KT M01/M10 A3029 240 49 -1500 VRB/03 RMK AO1 T10061100
54779K12N 12N20160306094010203/06/16 09:40:31  5-MIN K12N 061440Z AUTO 03004KT M01/M09 A3029 240 51 -1500 040/04 RMK AO1 T10061094
54779K12N 12N20160306094510203/06/16 09:45:31  5-MIN K12N 061445Z AUTO VRB04KT M01/M11 A3029 240 47 -1500 VRB/04 RMK AO1 T10061106
54779K12N 12N20160306095011403/06/16 09:50:31  5-MIN K12N 061450Z AUTO VRB03KT 00/M11 A3029 240 45 -1400 VRB/03 RMK AO1 SLP270 T00001106 52019
54779K12N 12N20160306095510103/06/16 09:55:31  5-MIN K12N 061455Z AUTO VRB04KT 00/M10 A3029 240 47 -1400 VRB/04 RMK AO1 T00001100
54779K12N 12N20160306100010103/06/16 10:00:31  5-MIN K12N 061500Z AUTO VRB03KT 00/M10 A3029 240 47 -1400 VRB/03 RMK AO1 T00001100
54779K12N 12N20160306100510103/06/16 10:05:31  5-MIN K12N 061505Z AUTO VRB03KT 00/M11 A3030 240 45 -1400 VRB/03 RMK AO1 T00001106
54779K12N 12N20160306101010103/06/16 10:10:31  5-MIN K12N 061510Z AUTO 07004KT 00/M10 A3030 240 47 -1400 080/04 RMK AO1 T00001100
54779K12N 12N20160306101510103/06/16 10:15:31  5-MIN K12N 061515Z AUTO 00000KT 00/M11 A3030 240 45 -1400 000/00 RMK AO1 T00001106
54779K12N 12N20160306102010103/06/16 10:20:31  5-MIN K12N 061520Z AUTO 36004KT 01/M10 A3030 240 45 -1400 010/04 RMK AO1 T00061100
54779K12N 12N20160306102510103/06/16 10:25:31  5-MIN K12N 061525Z AUTO 35005KT 01/M09 A3030 240 47 -1400 360/05 RMK AO1 T00061094
54779K12N 12N20160306103010103/06/16 10:30:31  5-MIN K12N 061530Z AUTO 00000KT 01/M10 A3030 240 45 -1400 000/00 RMK AO1 T00061100
54779K12N 12N20160306103510103/06/16 10:35:31  5-MIN K12N 061535Z AUTO 00000KT 01/M10 A3030 240 45 -1400 000/00 RMK AO1 T00061100
54779K12N 12N20160306104010103/06/16 10:40:31  5-MIN K12N 061540Z AUTO 00000KT 01/M10 A3030 240 43 -1300 000/00 RMK AO1 T00111100
54779K12N 12N20160306104510103/06/16 10:45:31  5-MIN K12N 061545Z AUTO 00000KT 01/M10 A3030 240 45 -1400 000/00 RMK AO1 T00061100
54779K12N 12N20160306105010803/06/16 10:50:31  5-MIN K12N 061550Z AUTO VRB03KT 01/M09 A3030 240 45 -1300 VRB/03 RMK AO1 SLP271 T00111094
54779K12N 12N20160306105510103/06/16 10:55:31  5-MIN K12N 061555Z AUTO 00000KT 01/M09 A3030 240 47 -1400 000/00 RMK AO1 T00061094
54779K12N 12N20160306110010103/06/16 11:00:31  5-MIN K12N 061600Z AUTO VRB03KT 01/M09 A3030 240 45 -1300 VRB/03 RMK AO1 T00111094
54779K12N 12N20160306110510103/06/16 11:05:31  5-MIN K12N 061605Z AUTO 00000KT 02/M09 A3030 240 45 -1200 000/00 RMK AO1 T00171089
54779K12N 12N20160306111010103/06/16 11:10:31  5-MIN K12N 061610Z AUTO 00000KT 02/M09 A3029 240 44 -1200 000/00 RMK AO1 T00221089
54779K12N 12N20160306111510103/06/16 11:15:31  5-MIN K12N 061615Z AUTO 34003KT 02/M08 A3029 240 45 -1200 350/03 RMK AO1 T00221083
54779K12N 12N20160306112010103/06/16 11:20:31  5-MIN K12N 061620Z AUTO 00000KT 02/M09 A3029 240 45 -1200 000/00 RMK AO1 T00171089
54779K12N 12N20160306112510103/06/16 11:25:31  5-MIN K12N 061625Z AUTO VRB03KT 02/M08 A3029 240 45 -1200 VRB/03 RMK AO1 T00221083
54779K12N 12N20160306113010103/06/16 11:30:31  5-MIN K12N 061630Z AUTO 00000KT 02/M08 A3029 250 45 -1200 000/00 RMK AO1 T00221083
54779K12N 12N20160306113510103/06/16 11:35:31  5-MIN K12N 061635Z AUTO VRB03KT 03/M08 A3029 250 44 -1100 VRB/03 RMK AO1 T00281083
54779K12N 12N20160306114010103/06/16 11:40:31  5-MIN K12N 061640Z AUTO VRB03KT 03/M08 A3029 250 44 -1100 VRB/03 RMK AO1 T00281083
54779K12N 12N20160306114510103/06/16 11:45:31  5-MIN K12N 061645Z AUTO 36003KT 03/M08 A3029 250 44 -1000 010/03 RMK AO1 T00331078
54779K12N 12N20160306115010803/06/16 11:50:31  5-MIN K12N 061650Z AUTO 04003KT 03/M08 A3029 250 44 -1100 060/03 RMK AO1 SLP267 T00281083
54779K12N 12N20160306115510103/06/16 11:55:31  5-MIN K12N 061655Z AUTO VRB03KT 03/M08 A3028 250 44 -1000 VRB/03 RMK AO1 T00331078
54779K12N 12N20160306120009103/06/16 12:00:31  5-MIN K12N 061700Z AUTO 03/M08 A3028 250 42 -1000 M /M RMK AO1 T00331083
54779K12N 12N20160306120510103/06/16 12:05:31  5-MIN K12N 061705Z AUTO 00000KT 03/M08 A3028 250 44 -1100 000/00 RMK AO1 T00281083
54779K12N 12N20160306121010003/06/16 12:10:31  5-MIN K12N 061710Z AUTO VRB03KT 04/M08 A3028 250 42 -900 VRB/03 RMK AO1 T00391078
54779K12N 12N20160306121510103/06/16 12:15:31  5-MIN K12N 061715Z AUTO 00000KT 03/M08 A3028 250 44 -1000 000/00 RMK AO1 T00331078
54779K12N 12N20160306122010103/06/16 12:20:31  5-MIN K12N 061720Z AUTO 00000KT 03/M08 A3028 260 42 -1000 000/00 RMK AO1 T00331083
54779K12N 12N20160306122510003/06/16 12:25:31  5-MIN K12N 061725Z AUTO 00000KT 04/M08 A3028 260 41 -900 000/00 RMK AO1 T00441078
54779K12N 12N20160306123010003/06/16 12:30:31  5-MIN K12N 061730Z AUTO 00000KT 05/M07 A3028 260 41 -800 000/00 RMK AO1 T00501072
54779K12N 12N20160306123510003/06/16 12:35:31  5-MIN K12N 061735Z AUTO 00000KT 04/M08 A3027 260 41 -900 000/00 RMK AO1 T00441078
54779K12N 12N20160306124010003/06/16 12:40:31  5-MIN K12N 061740Z AUTO VRB05KT 04/M08 A3027 260 41 -900 VRB/05 RMK AO1 T00441078
54779K12N 12N20160306124510003/06/16 12:45:31  5-MIN K12N 061745Z AUTO 03005KT 04/M08 A3027 260 42 -900 040/05 RMK AO1 T00391078
54779K12N 12N20160306125012503/06/16 12:50:31  5-MIN K12N 061750Z AUTO 04004KT 04/M07 A3027 260 44 -900 050/04 RMK AO1 SLP261 T00391072 10050 21028 51013
54779K12N 12N20160306125510003/06/16 12:55:31  5-MIN K12N 061755Z AUTO 32005KT 04/M07 A3027 270 42 -900 330/05 RMK AO1 T00441072
54779K12N 12N20160306130010003/06/16 13:00:31  5-MIN K12N 061800Z AUTO 00000KT 04/M08 A3026 270 41 -900 000/00 RMK AO1 T00441078
54779K12N 12N20160306130510003/06/16 13:05:31  5-MIN K12N 061805Z AUTO 29004KT 04/M08 A3026 270 41 -900 310/04 RMK AO1 T00441078
54779K12N 12N20160306131010003/06/16 13:10:31  5-MIN K12N 061810Z AUTO VRB03KT 04/M08 A3026 270 42 -900 VRB/03 RMK AO1 T00391078
54779K12N 12N20160306131510003/06/16 13:15:31  5-MIN K12N 061815Z AUTO 32005KT 04/M08 A3026 270 42 -900 330/05 RMK AO1 T00391078
54779K12N 12N20160306132010103/06/16 13:20:31  5-MIN K12N 061820Z AUTO 28005KT 03/M08 A3026 270 44 -1000 300/05 RMK AO1 T00331078
54779K12N 12N20160306132510103/06/16 13:25:31  5-MIN K12N 061825Z AUTO 28004KT 03/M08 A3026 270 44 -1000 300/04 RMK AO1 T00331078
54779K12N 12N20160306133010003/06/16 13:30:31  5-MIN K12N 061830Z AUTO 00000KT 04/M08 A3026 280 42 -900 000/00 RMK AO1 T00391078
54779K12N 12N20160306133510003/06/16 13:35:31  5-MIN K12N 061835Z AUTO 00000KT 04/M08 A3026 280 42 -900 000/00 RMK AO1 T00391078
54779K12N 12N20160306134010003/06/16 13:40:31  5-MIN K12N 061840Z AUTO VRB04KT 04/M07 A3025 280 44 -900 VRB/04 RMK AO1 T00391072
54779K12N 12N20160306134510103/06/16 13:45:31  5-MIN K12N 061845Z AUTO 00000KT 03/M08 A3025 280 44 -1000 000/00 RMK AO1 T00331078
54779K12N 12N20160306135010703/06/16 13:50:31  5-MIN K12N 061850Z AUTO VRB04KT 04/M08 A3025 280 42 -900 VRB/04 RMK AO1 SLP255 T00391078
54779K12N 12N20160306135510103/06/16 13:55:31  5-MIN K12N 061855Z AUTO 00000KT 03/M08 A3025 280 44 -1000 000/00 RMK AO1 T00331078
54779K12N 12N20160306140010103/06/16 14:00:31  5-MIN K12N 061900Z AUTO 00000KT 03/M07 A3025 280 46 -1000 000/00 RMK AO1 T00331072
54779K12N 12N20160306140510103/06/16 14:05:31  5-MIN K12N 061905Z AUTO 05003KT 03/M08 A3025 280 44 -1000 060/03 RMK AO1 T00331078
54779K12N 12N20160306141010103/06/16 14:10:31  5-MIN K12N 061910Z AUTO 01003KT 03/M08 A3025 280 44 -1000 020/03 RMK AO1 T00331078
54779K12N 12N20160306141510103/06/16 14:15:31  5-MIN K12N 061915Z AUTO 28004KT 03/M08 A3025 280 44 -1000 300/04 RMK AO1 T00331078
54779K12N 12N20160306142010103/06/16 14:20:31  5-MIN K12N 061920Z AUTO 00000KT 03/M08 A3025 280 44 -1000 000/00 RMK AO1 T00331078
54779K12N 12N20160306142510003/06/16 14:25:31  5-MIN K12N 061925Z AUTO 00000KT 04/M08 A3025 280 41 -800 000/00 RMK AO1 T00441078
54779K12N 12N20160306143010003/06/16 14:30:31  5-MIN K12N 061930Z AUTO 00000KT 05/M07 A3025 280 41 -800 000/00 RMK AO1 T00501072
54779K12N 12N20160306143510003/06/16 14:35:31  5-MIN K12N 061935Z AUTO VRB03KT 05/M08 A3025 280 39 -800 VRB/03 RMK AO1 T00501078
54779K12N 12N20160306144010003/06/16 14:40:31  5-MIN K12N 061940Z AUTO 00000KT 05/M08 A3025 280 39 -800 000/00 RMK AO1 T00501078
54779K12N 12N20160306144510003/06/16 14:45:31  5-MIN K12N 061945Z AUTO VRB03KT 07/M07 A3025 280 38 -600 VRB/03 RMK AO1 T00671067
54779K12N 12N20160306145010703/06/16 14:50:31  5-MIN K12N 061950Z AUTO 00000KT 05/M07 A3025 290 41 -800 000/00 RMK AO1 SLP254 T00501072
54779K12N 12N20160306145510003/06/16 14:55:31  5-MIN K12N 061955Z AUTO VRB06KT 06/M07 A3024 290 39 -700 VRB/06 RMK AO1 T00561072
54779K12N 12N20160306150010003/06/16 15:00:31  5-MIN K12N 062000Z AUTO 33006KT 06/M07 A3024 290 38 -600 340/06 RMK AO1 T00611072
54779K12N 12N20160306150510003/06/16 15:05:31  5-MIN K12N 062005Z AUTO VRB04KT 06/M07 A3024 290 39 -700 VRB/04 RMK AO1 T00561072
54779K12N 12N20160306151010003/06/16 15:10:31  5-MIN K12N 062010Z AUTO VRB03KT 06/M08 A3024 290 37 -700 VRB/03 RMK AO1 T00561078
54779K12N 12N20160306151510003/06/16 15:15:31  5-MIN K12N 062015Z AUTO VRB04KT 05/M08 A3024 290 39 -800 VRB/04 RMK AO1 T00501078
54779K12N 12N20160306152010003/06/16 15:20:31  5-MIN K12N 062020Z AUTO VRB06KT 05/M07 A3024 290 41 -800 VRB/06 RMK AO1 T00501072
54779K12N 12N20160306152510003/06/16 15:25:31  5-MIN K12N 062025Z AUTO VRB03KT 06/M07 A3024 290 38 -600 VRB/03 RMK AO1 T00611072
54779K12N 12N20160306153010003/06/16 15:30:31  5-MIN K12N 062030Z AUTO 00000KT 06/M07 A3024 290 38 -600 000/00 RMK AO1 T00611072
54779K12N 12N20160306153510003/06/16 15:35:31  5-MIN K12N 062035Z AUTO 27006KT 05/M08 A3024 290 39 -800 280/06 RMK AO1 T00501078
54779K12N 12N20160306154010003/06/16 15:40:31  5-MIN K12N 062040Z AUTO VRB04KT 06/M08 A3024 290 37 -700 VRB/04 RMK AO1 T00561078
54779K12N 12N20160306154510003/06/16 15:45:31  5-MIN K12N 062045Z AUTO VRB05KT 06/M08 A3024 290 37 -700 VRB/05 RMK AO1 T00561078
54779K12N 12N20160306155011303/06/16 15:50:31  5-MIN K12N 062050Z AUTO 21003KT 05/M08 A3024 290 39 -800 220/03 RMK AO1 SLP251 T00501078 58009
54779K12N 12N20160306155510003/06/16 15:55:31  5-MIN K12N 062055Z AUTO 00000KT 05/M08 A3024 290 39 -800 000/00 RMK AO1 T00501078
54779K12N 12N20160306160010003/06/16 16:00:31  5-MIN K12N 062100Z AUTO 36005KT 06/M08 A3024 290 36 -600 020/05 RMK AO1 T00611078
54779K12N 12N20160306160510003/06/16 16:05:31  5-MIN K12N 062105Z AUTO 00000KT 06/M08 A3024 300 36 -600 000/00 RMK AO1 T00611078
54779K12N 12N20160306161009003/06/16 16:10:31  5-MIN K12N 062110Z AUTO 06/M08 A3023 300 37 -700 M /M RMK AO1 T00561078
54779K12N 12N20160306161510003/06/16 16:15:31  5-MIN K12N 062115Z AUTO VRB03KT 06/M08 A3023 300 37 -700 VRB/03 RMK AO1 T00561078
54779K12N 12N20160306162010003/06/16 16:20:31  5-MIN K12N 062120Z AUTO VRB03KT 06/M08 A3023 300 36 -600 VRB/03 RMK AO1 T00611078
54779K12N 12N20160306162510003/06/16 16:25:31  5-MIN K12N 062125Z AUTO 00000KT 06/M07 A3023 300 39 -700 000/00 RMK AO1 T00561072
54779K12N 12N20160306163010003/06/16 16:30:31  5-MIN K12N 062130Z AUTO 00000KT 06/M08 A3023 300 37 -700 000/00 RMK AO1 T00561078
54779K12N 12N20160306163510003/06/16 16:35:31  5-MIN K12N 062135Z AUTO 00000KT 06/M08 A3023 300 37 -700 000/00 RMK AO1 T00561078
54779K12N 12N20160306164010003/06/16 16:40:31  5-MIN K12N 062140Z AUTO VRB04KT 06/M08 A3023 300 37 -700 VRB/04 RMK AO1 T00561078
54779K12N 12N20160306164510003/06/16 16:45:31  5-MIN K12N 062145Z AUTO VRB04KT 06/M08 A3023 300 37 -700 VRB/04 RMK AO1 T00561078
54779K12N 12N20160306165010703/06/16 16:50:31  5-MIN K12N 062150Z AUTO VRB03KT 05/M08 A3023 300 39 -700 VRB/03 RMK AO1 SLP248 T00501078
54779K12N 12N20160306165510003/06/16 16:55:31  5-MIN K12N 062155Z AUTO VRB03KT 06/M08 A3023 300 37 -700 VRB/03 RMK AO1 T00561078
54779K12N 12N20160306170010003/06/16 17:00:31  5-MIN K12N 062200Z AUTO 00000KT 05/M08 A3023 300 37 -700 000/00 RMK AO1 T00501083
54779K12N 12N20160306170510003/06/16 17:05:31  5-MIN K12N 062205Z AUTO 00000KT 05/M08 A3023 300 39 -700 000/00 RMK AO1 T00501078
54779K12N 12N20160306171010003/06/16 17:10:31  5-MIN K12N 062210Z AUTO 32004KT 05/M08 A3023 300 37 -700 340/04 RMK AO1 T00501083
54779K12N 12N20160306171510003/06/16 17:15:31  5-MIN K12N 062215Z AUTO 27003KT 04/M08 A3023 300 41 -800 280/03 RMK AO1 T00441078
54779K12N 12N20160306172010003/06/16 17:20:31  5-MIN K12N 062220Z AUTO VRB03KT 04/M08 A3023 300 39 -800 VRB/03 RMK AO1 T00441083
54779K12N 12N20160306172510003/06/16 17:25:31  5-MIN K12N 062225Z AUTO 00000KT 04/M08 A3023 300 39 -800 000/00 RMK AO1 T00441083
54779K12N 12N20160306173010003/06/16 17:30:31  5-MIN K12N 062230Z AUTO 00000KT 04/M08 A3024 300 42 -900 000/00 RMK AO1 T00391078
54779K12N 12N20160306173510003/06/16 17:35:31  5-MIN K12N 062235Z AUTO 00000KT 04/M08 A3024 290 40 -900 000/00 RMK AO1 T00391083
54779K12N 12N20160306174010103/06/16 17:40:31  5-MIN K12N 062240Z AUTO 00000KT 03/M08 A3024 290 44 -1000 000/00 RMK AO1 T00331078
54779K12N 12N20160306174510103/06/16 17:45:31  5-MIN K12N 062245Z AUTO 00000KT 03/M08 A3024 290 44 -1000 000/00 RMK AO1 T00331078
54779K12N 12N20160306175010803/06/16 17:50:31  5-MIN K12N 062250Z AUTO 00000KT 03/M08 A3024 290 44 -1000 000/00 RMK AO1 SLP253 T00331078
54779K12N 12N20160306175510103/06/16 17:55:31  5-MIN K12N 062255Z AUTO 00000KT 03/M08 A3025 290 46 -1000 000/00 RMK AO1 T00281078
54779K12N 12N20160306180010103/06/16 18:00:31  5-MIN K12N 062300Z AUTO 00000KT 02/M07 A3025 280 52 -1200 000/00 RMK AO1 T00171072
54779K12N 12N20160306180510103/06/16 18:05:31  5-MIN K12N 062305Z AUTO 00000KT 02/M07 A3025 280 52 -1200 000/00 RMK AO1 T00171072
54779K12N 12N20160306181010103/06/16 18:10:31  5-MIN K12N 062310Z AUTO 00000KT 01/M07 A3025 280 54 -1300 000/00 RMK AO1 T00111072
54779K12N 12N20160306181510103/06/16 18:15:31  5-MIN K12N 062315Z AUTO 00000KT 01/M07 A3025 280 54 -1300 000/00 RMK AO1 T00111072
54779K12N 12N20160306182010103/06/16 18:20:31  5-MIN K12N 062320Z AUTO 00000KT 01/M07 A3025 280 58 -1300 000/00 RMK AO1 T00061067
54779K12N 12N20160306182510103/06/16 18:25:31  5-MIN K12N 062325Z AUTO 00000KT 01/M07 A3025 280 56 -1300 000/00 RMK AO1 T00061072
54779K12N 12N20160306183010103/06/16 18:30:31  5-MIN K12N 062330Z AUTO 00000KT 01/M07 A3025 280 58 -1300 000/00 RMK AO1 T00061067
54779K12N 12N20160306183510103/06/16 18:35:31  5-MIN K12N 062335Z AUTO 00000KT 00/M07 A3025 280 61 -1400 000/00 RMK AO1 T00001067
54779K12N 12N20160306184010103/06/16 18:40:31  5-MIN K12N 062340Z AUTO 00000KT 00/M07 A3025 280 61 -1400 000/00 RMK AO1 T00001067
54779K12N 12N20160306184510103/06/16 18:45:31  5-MIN K12N 062345Z AUTO 00000KT 00/M07 A3025 280 61 -1400 000/00 RMK AO1 T00001067
54779K12N 12N20160306185012703/06/16 18:50:31  5-MIN K12N 062350Z AUTO 00000KT M01/M07 A3026 280 63 -1500 000/00 RMK AO1 SLP258 T10061067 10067 21006 56010
54779K12N 12N20160306185510203/06/16 18:55:31  5-MIN K12N 062355Z AUTO 00000KT M01/M06 A3026 280 66 -1500 000/00 RMK AO1 T10061061
54779K12N 12N20160306190010203/06/16 19:00:31  5-MIN K12N 070000Z AUTO 00000KT M01/M06 A3026 280 69 -1500 000/00 RMK AO1 T10061056
54779K12N 12N20160306190510103/06/16 19:05:31  5-MIN K12N 070005Z AUTO 00000KT 00/M05 A3026 270 69 -1400 000/00 RMK AO1 T00001050
54779K12N 12N20160306191010203/06/16 19:10:31  5-MIN K12N 070010Z AUTO 00000KT M01/M05 A3026 270 72 -1500 000/00 RMK AO1 T10061050
54779K12N 12N20160306191510203/06/16 19:15:31  5-MIN K12N 070015Z AUTO 00000KT M01/M06 A3026 270 72 -1500 000/00 RMK AO1 T10111056
54779K12N 12N20160306192010203/06/16 19:20:31  5-MIN K12N 070020Z AUTO 00000KT M01/M06 A3026 270 69 -1500 000/00 RMK AO1 T10111061
54779K12N 12N20160306192510203/06/16 19:25:31  5-MIN K12N 070025Z AUTO 00000KT M01/M06 A3026 270 69 -1500 000/00 RMK AO1 T10111061
54779K12N 12N20160306193010203/06/16 19:30:31  5-MIN K12N 070030Z AUTO 00000KT M01/M06 A3026 270 72 -1500 000/00 RMK AO1 T10111056
54779K12N 12N20160306193510203/06/16 19:35:31  5-MIN K12N 070035Z AUTO 00000KT M01/M05 A3026 270 75 -1500 000/00 RMK AO1 T10111050
54779K12N 12N20160306194010203/06/16 19:40:31  5-MIN K12N 070040Z AUTO 00000KT M01/M06 A3026 270 72 -1500 000/00 RMK AO1 T10111056
54779K12N 12N20160306194510203/06/16 19:45:31  5-MIN K12N 070045Z AUTO 00000KT M01/M07 A3026 270 66 -1500 000/00 RMK AO1 T10111067
54779K12N 12N20160306195010903/06/16 19:50:31  5-MIN K12N 070050Z AUTO 00000KT M01/M07 A3026 270 66 -1600 000/00 RMK AO1 SLP261 T10111067
54779K12N 12N20160306195510203/06/16 19:55:31  5-MIN K12N 070055Z AUTO 00000KT M02/M07 A3026 270 69 -1600 000/00 RMK AO1 T10171067
54779K12N 12N20160306200010203/06/16 20:00:31  5-MIN K12N 070100Z AUTO 00000KT M02/M07 A3027 270 69 -1600 000/00 RMK AO1 T10171067
54779K12N 12N20160306200510203/06/16 20:05:31  5-MIN K12N 070105Z AUTO 00000KT M02/M07 A3027 260 69 -1600 000/00 RMK AO1 T10171067
54779K12N 12N20160306201010203/06/16 20:10:31  5-MIN K12N 070110Z AUTO 00000KT M02/M07 A3027 260 72 -1700 000/00 RMK AO1 T10221067
54779K12N 12N20160306201510203/06/16 20:15:31  5-MIN K12N 070115Z AUTO 00000KT M02/M07 A3027 260 72 -1700 000/00 RMK AO1 T10221067
54779K12N 12N20160306202010203/06/16 20:20:31  5-MIN K12N 070120Z AUTO 00000KT M02/M07 A3028 260 69 -1600 000/00 RMK AO1 T10171067
54779K12N 12N20160306202510203/06/16 20:25:31  5-MIN K12N 070125Z AUTO 00000KT M02/M07 A3028 260 72 -1700 000/00 RMK AO1 T10221067
54779K12N 12N20160306203010203/06/16 20:30:31  5-MIN K12N 070130Z AUTO 00000KT M02/M06 A3028 260 72 -1600 000/00 RMK AO1 T10171061
54779K12N 12N20160306203510203/06/16 20:35:31  5-MIN K12N 070135Z AUTO 00000KT M02/M06 A3028 250 72 -1600 000/00 RMK AO1 T10171061
54779K12N 12N20160306204010203/06/16 20:40:31  5-MIN K12N 070140Z AUTO 00000KT M02/M07 A3028 250 72 -1700 000/00 RMK AO1 T10221067
54779K12N 12N20160306204510203/06/16 20:45:31  5-MIN K12N 070145Z AUTO 00000KT M02/M07 A3028 250 72 -1700 000/00 RMK AO1 T10221067
54779K12N 12N20160306205010903/06/16 20:50:31  5-MIN K12N 070150Z AUTO 00000KT M02/M07 A3028 260 69 -1600 000/00 RMK AO1 SLP265 T10171067
54779K12N 12N20160306205510203/06/16 20:55:31  5-MIN K12N 070155Z AUTO 00000KT M02/M06 A3028 260 75 -1700 000/00 RMK AO1 T10221061
54779K12N 12N20160306210010203/06/16 21:00:31  5-MIN K12N 070200Z AUTO 00000KT M02/M07 A3028 260 72 -1700 000/00 RMK AO1 T10221067
54779K12N 12N20160306210510203/06/16 21:05:31  5-MIN K12N 070205Z AUTO 00000KT M03/M07 A3028 250 75 -1800 000/00 RMK AO1 T10281067
54779K12N 12N20160306211010203/06/16 21:10:31  5-MIN K12N 070210Z AUTO 00000KT M03/M07 A3028 250 75 -1800 000/00 RMK AO1 T10281067
54779K12N 12N20160306211510203/06/16 21:15:31  5-MIN K12N 070215Z AUTO 00000KT M03/M07 A3028 250 75 -1800 000/00 RMK AO1 T10281067
54779K12N 12N20160306212010203/06/16 21:20:31  5-MIN K12N 070220Z AUTO 00000KT M02/M06 A3028 250 75 -1700 000/00 RMK AO1 T10221061
54779K12N 12N20160306212510203/06/16 21:25:31  5-MIN K12N 070225Z AUTO 00000KT M03/M06 A3028 260 78 -1800 000/00 RMK AO1 T10281061
54779K12N 12N20160306213010203/06/16 21:30:31  5-MIN K12N 070230Z AUTO 00000KT M03/M07 A3028 260 75 -1800 000/00 RMK AO1 T10281067
54779K12N 12N20160306213510203/06/16 21:35:31  5-MIN K12N 070235Z AUTO 00000KT M03/M07 A3028 260 75 -1800 000/00 RMK AO1 T10281067
54779K12N 12N20160306214010203/06/16 21:40:31  5-MIN K12N 070240Z AUTO 00000KT M03/M06 A3028 260 78 -1800 000/00 RMK AO1 T10281061
54779K12N 12N20160306214510203/06/16 21:45:31  5-MIN K12N 070245Z AUTO 00000KT M03/M06 A3028 260 78 -1800 000/00 RMK AO1 T10281061
54779K12N 12N20160306215011503/06/16 21:50:31  5-MIN K12N 070250Z AUTO 00000KT M03/M06 A3028 260 78 -1800 000/00 RMK AO1 SLP264 T10281061 53006
54779K12N 12N20160306215510203/06/16 21:55:31  5-MIN K12N 070255Z AUTO 00000KT M03/M06 A3028 260 78 -1800 000/00 RMK AO1 T10281061
54779K12N 12N20160306220010203/06/16 22:00:31  5-MIN K12N 070300Z AUTO 00000KT M03/M06 A3028 260 81 -1800 000/00 RMK AO1 T10331061
54779K12N 12N20160306220510203/06/16 22:05:31  5-MIN K12N 070305Z AUTO 00000KT M03/M06 A3028 260 81 -1800 000/00 RMK AO1 T10331061
54779K12N 12N20160306221010203/06/16 22:10:31  5-MIN K12N 070310Z AUTO 00000KT M03/M06 A3028 260 81 -1800 000/00 RMK AO1 T10331061
54779K12N 12N20160306221510203/06/16 22:15:31  5-MIN K12N 070315Z AUTO 00000KT M03/M06 A3028 260 78 -1800 000/00 RMK AO1 T10281061
54779K12N 12N20160306222010203/06/16 22:20:31  5-MIN K12N 070320Z AUTO 00000KT M03/M06 A3027 260 81 -1800 000/00 RMK AO1 T10281056
54779K12N 12N20160306222510203/06/16 22:25:31  5-MIN K12N 070325Z AUTO 00000KT M03/M06 A3027 270 81 -1800 000/00 RMK AO1 T10331061
54779K12N 12N20160306223010203/06/16 22:30:31  5-MIN K12N 070330Z AUTO 00000KT M03/M06 A3027 270 85 -1800 000/00 RMK AO1 T10331056
54779K12N 12N20160306223510203/06/16 22:35:31  5-MIN K12N 070335Z AUTO 00000KT M03/M06 A3027 260 81 -1800 000/00 RMK AO1 T10331061
54779K12N 12N20160306224010203/06/16 22:40:31  5-MIN K12N 070340Z AUTO 00000KT M03/M07 A3027 260 78 -1800 000/00 RMK AO1 T10331067
54779K12N 12N20160306224510203/06/16 22:45:31  5-MIN K12N 070345Z AUTO 00000KT M03/M07 A3027 260 78 -1800 000/00 RMK AO1 T10331067
54779K12N 12N20160306225010903/06/16 22:50:31  5-MIN K12N 070350Z AUTO 00000KT M03/M06 A3027 260 81 -1800 000/00 RMK AO1 SLP263 T10331061
54779K12N 12N20160306225510203/06/16 22:55:31  5-MIN K12N 070355Z AUTO 00000KT M03/M06 A3027 260 81 -1800 000/00 RMK AO1 T10331061
54779K12N 12N20160306230010203/06/16 23:00:31  5-MIN K12N 070400Z AUTO 00000KT M03/M06 A3027 270 81 -1800 000/00 RMK AO1 T10331061
54779K12N 12N20160306230510203/06/16 23:05:31  5-MIN K12N 070405Z AUTO 00000KT M03/M06 A3026 270 81 -1800 000/00 RMK AO1 T10331061
54779K12N 12N20160306231010203/06/16 23:10:31  5-MIN K12N 070410Z AUTO 00000KT M04/M07 A3026 270 81 -1900 000/00 RMK AO1 T10391067
54779K12N 12N20160306231510203/06/16 23:15:31  5-MIN K12N 070415Z AUTO 00000KT M04/M07 A3026 270 81 -1900 000/00 RMK AO1 T10391067
54779K12N 12N20160306232010203/06/16 23:20:31  5-MIN K12N 070420Z AUTO 00000KT M03/M07 A3026 270 78 -1800 000/00 RMK AO1 T10331067
54779K12N 12N20160306232510203/06/16 23:25:31  5-MIN K12N 070425Z AUTO 00000KT M03/M06 A3026 270 81 -1800 000/00 RMK AO1 T10331061
54779K12N 12N20160306233010203/06/16 23:30:31  5-MIN K12N 070430Z AUTO 00000KT M03/M06 A3025 280 81 -1800 000/00 RMK AO1 T10331061
54779K12N 12N20160306233510203/06/16 23:35:31  5-MIN K12N 070435Z AUTO 00000KT M04/M07 A3025 280 81 -1900 000/00 RMK AO1 T10391067
54779K12N 12N20160306234010203/06/16 23:40:31  5-MIN K12N 070440Z AUTO 00000KT M04/M07 A3025 280 84 -2000 000/00 RMK AO1 T10441067
54779K12N 12N20160306234510203/06/16 23:45:31  5-MIN K12N 070445Z AUTO 00000KT M04/M07 A3025 280 81 -1900 000/00 RMK AO1 T10391067
54779K12N 12N20160306235011903/06/16 23:50:31  5-MIN K12N 070450Z AUTO 00000KT M04/M07 A3025 280 81 -1900 000/00 RMK AO1 SLP256 T10391067 400671056
54779K12N 12N20160306235510203/06/16 23:55:31  5-MIN K12N 070455Z AUTO 00000KT M03/M06 A3026 280 81 -1800 000/00 RMK AO1 T10331061
54779K12N 12N20160307000010203/07/16 00:00:31  5-MIN K12N 070500Z AUTO 00000KT M04/M07 A3026 280 81 -1900 000/00 RMK AO1 T10391067
54779K12N 12N20160307000510203/07/16 00:05:31  5-MIN K12N 070505Z AUTO 00000KT M04/M07 A3026 270 81 -1900 000/00 RMK AO1 T10391067
54779K12N 12N20160307001010203/07/16 00:10:31  5-MIN K12N 070510Z AUTO 00000KT M04/M06 A3026 270 85 -1900 000/00 RMK AO1 T10391061
54779K12N 12N20160307001510203/07/16 00:15:31  5-MIN K12N 070515Z AUTO 00000KT M04/M06 A3026 270 85 -1900 000/00 RMK AO1 T10391061
54779K12N 12N20160307002010203/07/16 00:20:31  5-MIN K12N 070520Z AUTO 00000KT M04/M06 A3026 270 88 -2000 000/00 RMK AO1 T10441061
54779K12N 12N20160307002510203/07/16 00:25:31  5-MIN K12N 070525Z AUTO 00000KT M04/M06 A3026 270 85 -1900 000/00 RMK AO1 T10391061
54779K12N 12N20160307003010203/07/16 00:30:31  5-MIN K12N 070530Z AUTO 00000KT M04/M06 A3026 270 85 -1900 000/00 RMK AO1 T10391061
54779K12N 12N20160307003510203/07/16 00:35:31  5-MIN K12N 070535Z AUTO 20003KT M04/M06 A3026 270 85 -1900 210/03 RMK AO1 T10391061
54779K12N 12N20160307004010203/07/16 00:40:31  5-MIN K12N 070540Z AUTO 00000KT M04/M06 A3026 270 85 -1900 000/00 RMK AO1 T10391061
54779K12N 12N20160307004510203/07/16 00:45:31  5-MIN K12N 070545Z AUTO 00000KT M04/M06 A3027 270 85 -1900 000/00 RMK AO1 T10391061
54779K12N 12N20160307005012703/07/16 00:50:31  5-MIN K12N 070550Z AUTO 00000KT M04/M07 A3027 270 84 -2000 000/00 RMK AO1 SLP260 T10441067 10000 21044 50006
54779K12N 12N20160307005510203/07/16 00:55:31  5-MIN K12N 070555Z AUTO 00000KT M04/M07 A3027 270 84 -2000 000/00 RMK AO1 T10441067
54779K12N 12N20160307010010203/07/16 01:00:31  5-MIN K12N 070600Z AUTO 00000KT M04/M07 A3027 270 84 -2000 000/00 RMK AO1 T10441067
54779K12N 12N20160307010510203/07/16 01:05:31  5-MIN K12N 070605Z AUTO 00000KT M04/M06 A3026 270 88 -2000 000/00 RMK AO1 T10441061
54779K12N 12N20160307011010203/07/16 01:10:31  5-MIN K12N 070610Z AUTO 00000KT M04/M06 A3026 270 88 -2000 000/00 RMK AO1 T10441061
54779K12N 12N20160307011510203/07/16 01:15:31  5-MIN K12N 070615Z AUTO 00000KT M04/M06 A3026 270 88 -2000 000/00 RMK AO1 T10441061
54779K12N 12N20160307012010203/07/16 01:20:31  5-MIN K12N 070620Z AUTO 00000KT M04/M06 A3026 270 88 -2000 000/00 RMK AO1 T10441061
54779K12N 12N20160307012510203/07/16 01:25:31  5-MIN K12N 070625Z AUTO 00000KT M04/M06 A3026 270 88 -2000 000/00 RMK AO1 T10441061
54779K12N 12N20160307013010203/07/16 01:30:31  5-MIN K12N 070630Z AUTO 00000KT M04/M06 A3026 280 85 -1900 000/00 RMK AO1 T10391061
54779K12N 12N20160307013510203/07/16 01:35:31  5-MIN K12N 070635Z AUTO 21003KT M04/M06 A3025 280 85 -1900 220/03 RMK AO1 T10391061
54779K12N 12N20160307014010203/07/16 01:40:31  5-MIN K12N 070640Z AUTO 21003KT M04/M06 A3025 280 85 -1900 220/03 RMK AO1 T10391061
54779K12N 12N20160307014510203/07/16 01:45:31  5-MIN K12N 070645Z AUTO 21004KT M04/M06 A3025 280 88 -1900 230/04 RMK AO1 T10391056
54779K12N 12N20160307015010903/07/16 01:50:31  5-MIN K12N 070650Z AUTO 20003KT M04/M06 A3025 280 88 -1900 220/03 RMK AO1 SLP255 T10391056
54779K12N 12N20160307015510203/07/16 01:55:31  5-MIN K12N 070655Z AUTO 20003KT M04/M06 A3025 280 88 -1900 210/03 RMK AO1 T10391056
54779K12N 12N20160307020010203/07/16 02:00:31  5-MIN K12N 070700Z AUTO 00000KT M04/M06 A3025 280 88 -1900 000/00 RMK AO1 T10391056
54779K12N 12N20160307020510203/07/16 02:05:31  5-MIN K12N 070705Z AUTO 00000KT M04/M06 A3025 280 88 -2000 000/00 RMK AO1 T10441061
54779K12N 12N20160307021010203/07/16 02:10:31  5-MIN K12N 070710Z AUTO 00000KT M04/M06 A3025 280 85 -1900 000/00 RMK AO1 T10391061
54779K12N 12N20160307021510203/07/16 02:15:31  5-MIN K12N 070715Z AUTO 00000KT M04/M06 A3025 280 85 -1900 000/00 RMK AO1 T10391061
54779K12N 12N20160307022010203/07/16 02:20:31  5-MIN K12N 070720Z AUTO 00000KT M04/M06 A3025 280 85 -1900 000/00 RMK AO1 T10391061
54779K12N 12N20160307022510203/07/16 02:25:31  5-MIN K12N 070725Z AUTO 00000KT M04/M06 A3025 280 88 -2000 000/00 RMK AO1 T10441061
54779K12N 12N20160307023010203/07/16 02:30:31  5-MIN K12N 070730Z AUTO 00000KT M04/M06 A3025 280 88 -2000 000/00 RMK AO1 T10441061
54779K12N 12N20160307023510203/07/16 02:35:31  5-MIN K12N 070735Z AUTO 00000KT M04/M06 A3024 290 88 -2000 000/00 RMK AO1 T10441061
54779K12N 12N20160307024010203/07/16 02:40:31  5-MIN K12N 070740Z AUTO 00000KT M04/M06 A3024 290 88 -1900 000/00 RMK AO1 T10391056
54779K12N 12N20160307024510203/07/16 02:45:31  5-MIN K12N 070745Z AUTO 21003KT M04/M06 A3024 290 88 -1900 230/03 RMK AO1 T10391056
54779K12N 12N20160307025010903/07/16 02:50:31  5-MIN K12N 070750Z AUTO 21003KT M04/M06 A3024 290 88 -1900 230/03 RMK AO1 SLP249 T10391056
54779K12N 12N20160307025510203/07/16 02:55:31  5-MIN K12N 070755Z AUTO 00000KT M03/M06 A3023 300 85 -1800 000/00 RMK AO1 T10331056
54779K12N 12N20160307030010203/07/16 03:00:31  5-MIN K12N 070800Z AUTO 00000KT M03/M05 A3023 300 88 -1800 000/00 RMK AO1 T10331050
54779K12N 12N20160307030510203/07/16 03:05:31  5-MIN K12N 070805Z AUTO 22003KT M03/M06 A3022 300 85 -1800 230/03 RMK AO1 T10331056
54779K12N 12N20160307031010203/07/16 03:10:31  5-MIN K12N 070810Z AUTO 00000KT M04/M06 A3022 310 85 -1900 000/00 RMK AO1 T10391061
54779K12N 12N20160307031510203/07/16 03:15:31  5-MIN K12N 070815Z AUTO 21003KT M04/M06 A3022 310 85 -1900 220/03 RMK AO1 T10391061
54779K12N 12N20160307032010203/07/16 03:20:31  5-MIN K12N 070820Z AUTO 00000KT M04/M06 A3022 310 85 -1900 000/00 RMK AO1 T10391061
54779K12N 12N20160307032510203/07/16 03:25:31  5-MIN K12N 070825Z AUTO 21003KT M04/M06 A3022 310 88 -1900 230/03 RMK AO1 T10391056
54779K12N 12N20160307033010203/07/16 03:30:31  5-MIN K12N 070830Z AUTO 21003KT M04/M06 A3022 310 88 -1900 220/03 RMK AO1 T10391056
54779K12N 12N20160307033510203/07/16 03:35:31  5-MIN K12N 070835Z AUTO 21003KT M04/M06 A3022 310 88 -1900 220/03 RMK AO1 T10391056
54779K12N 12N20160307034010203/07/16 03:40:31  5-MIN K12N 070840Z AUTO 00000KT M04/M05 A3022 310 92 -1900 000/00 RMK AO1 T10391050
54779K12N 12N20160307034510203/07/16 03:45:31  5-MIN K12N 070845Z AUTO 00000KT M04/M05 A3022 310 92 -1900 000/00 RMK AO1 T10391050
54779K12N 12N20160307035011503/07/16 03:50:31  5-MIN K12N 070850Z AUTO 24003KT M04/M05 A3022 310 92 -1900 250/03 RMK AO1 SLP243 T10391050 55003
54779K12N 12N20160307035510203/07/16 03:55:31  5-MIN K12N 070855Z AUTO 00000KT M03/M05 A3022 310 88 -1800 000/00 RMK AO1 T10331050
54779K12N 12N20160307040010203/07/16 04:00:31  5-MIN K12N 070900Z AUTO 00000KT M03/M05 A3021 310 88 -1800 000/00 RMK AO1 T10331050
54779K12N 12N20160307040510203/07/16 04:05:31  5-MIN K12N 070905Z AUTO 00000KT M03/M04 A3021 320 92 -1800 000/00 RMK AO1 T10331044
54779K12N 12N20160307041010203/07/16 04:10:31  5-MIN K12N 070910Z AUTO 21003KT M03/M04 A3021 320 92 -1800 220/03 RMK AO1 T10331044
54779K12N 12N20160307041510203/07/16 04:15:31  5-MIN K12N 070915Z AUTO 21003KT M03/M04 A3021 320 88 -1700 220/03 RMK AO1 T10281044
54779K12N 12N20160307042010203/07/16 04:20:31  5-MIN K12N 070920Z AUTO 22004KT M03/M04 A3021 320 88 -1700 230/04 RMK AO1 T10281044
54779K12N 12N20160307042510203/07/16 04:25:31  5-MIN K12N 070925Z AUTO 00000KT M02/M04 A3022 310 88 -1600 000/00 RMK AO1 T10221039
54779K12N 12N20160307043010903/07/16 04:30:31  5-MIN K12N 070930Z AUTO 00000KT M02/M04 A3023 300 85 -1600 000/00 RMK AO1 PRESRR T10171039
54779K12N 12N20160307043510203/07/16 04:35:31  5-MIN K12N 070935Z AUTO 23003KT M01/M04 A3024 290 78 -1500 240/03 RMK AO1 T10111044
54779K12N 12N20160307044010203/07/16 04:40:31  5-MIN K12N 070940Z AUTO 23005KT M01/M04 A3024 290 78 -1500 250/05 RMK AO1 T10061039
54779K12N 12N20160307044510103/07/16 04:45:31  5-MIN K12N 070945Z AUTO 22005KT 00/M04 A3024 290 75 -1400 230/05 RMK AO1 T00001039
54779K12N 12N20160307045010903/07/16 04:50:31  5-MIN K12N 070950Z AUTO VRB03KT M01/M04 A3024 290 78 -1500 VRB/03 RMK AO1 SLP250 T10061039
54779K12N 12N20160307045510203/07/16 04:55:31  5-MIN K12N 070955Z AUTO 18003KT M01/M04 A3024 290 78 -1500 190/03 RMK AO1 T10061039
54779K12N 12N20160307050010203/07/16 05:00:31  5-MIN K12N 071000Z AUTO 17003KT M01/M04 A3024 290 78 -1500 190/03 RMK AO1 T10061039
54779K12N 12N20160307050510203/07/16 05:05:31  5-MIN K12N 071005Z AUTO 00000KT M01/M04 A3024 290 75 -1500 000/00 RMK AO1 T10061044
54779K12N 12N20160307051010203/07/16 05:10:31  5-MIN K12N 071010Z AUTO 00000KT M01/M04 A3023 300 78 -1500 000/00 RMK AO1 T10111044
54779K12N 12N20160307051510203/07/16 05:15:31  5-MIN K12N 071015Z AUTO 00000KT M01/M04 A3023 300 81 -1500 000/00 RMK AO1 T10111039
54779K12N 12N20160307052010203/07/16 05:20:31  5-MIN K12N 071020Z AUTO 00000KT M02/M04 A3023 300 81 -1600 000/00 RMK AO1 T10171044
54779K12N 12N20160307052510203/07/16 05:25:31  5-MIN K12N 071025Z AUTO 00000KT M01/M04 A3023 300 78 -1400 000/00 RMK AO1 T10061039
54779K12N 12N20160307053010203/07/16 05:30:31  5-MIN K12N 071030Z AUTO 00000KT M01/M04 A3023 300 81 -1500 000/00 RMK AO1 T10111039
54779K12N 12N20160307053510203/07/16 05:35:31  5-MIN K12N 071035Z AUTO 00000KT M01/M04 A3023 300 81 -1500 000/00 RMK AO1 T10111039
54779K12N 12N20160307054010203/07/16 05:40:31  5-MIN K12N 071040Z AUTO 19003KT M02/M04 A3022 310 81 -1600 210/03 RMK AO1 T10171044
54779K12N 12N20160307054510203/07/16 05:45:31  5-MIN K12N 071045Z AUTO 00000KT M01/M04 A3022 310 78 -1500 000/00 RMK AO1 T10111044
54779K12N 12N20160307055010903/07/16 05:50:31  5-MIN K12N 071050Z AUTO 21003KT M02/M04 A3022 310 81 -1600 220/03 RMK AO1 SLP245 T10171044
54779K12N 12N20160307055510203/07/16 05:55:31  5-MIN K12N 071055Z AUTO 20003KT M02/M04 A3022 310 81 -1600 220/03 RMK AO1 T10171044
54779K12N 12N20160307060010203/07/16 06:00:31  5-MIN K12N 071100Z AUTO 00000KT M02/M04 A3022 310 81 -1600 000/00 RMK AO1 T10171044
54779K12N 12N20160307060510203/07/16 06:05:31  5-MIN K12N 071105Z AUTO 00000KT M01/M04 A3022 310 81 -1500 000/00 RMK AO1 T10111039
54779K12N 12N20160307061010203/07/16 06:10:31  5-MIN K12N 071110Z AUTO 00000KT M02/M04 A3023 300 81 -1600 000/00 RMK AO1 T10171044
54779K12N 12N20160307061510203/07/16 06:15:31  5-MIN K12N 071115Z AUTO 00000KT M02/M04 A3023 300 85 -1600 000/00 RMK AO1 T10221044
54779K12N 12N20160307062010203/07/16 06:20:31  5-MIN K12N 071120Z AUTO 00000KT M02/M05 A3023 300 81 -1700 000/00 RMK AO1 T10221050
54779K12N 12N20160307062510203/07/16 06:25:31  5-MIN K12N 071125Z AUTO 00000KT M02/M05 A3023 300 81 -1700 000/00 RMK AO1 T10221050
54779K12N 12N20160307063010203/07/16 06:30:31  5-MIN K12N 071130Z AUTO 00000KT M02/M04 A3023 300 85 -1600 000/00 RMK AO1 T10171039
54779K12N 12N20160307063510203/07/16 06:35:31  5-MIN K12N 071135Z AUTO 00000KT M02/M04 A3023 300 85 -1600 000/00 RMK AO1 T10171039
54779K12N 12N20160307064010203/07/16 06:40:31  5-MIN K12N 071140Z AUTO 00000KT M02/M04 A3023 300 88 -1700 000/00 RMK AO1 T10221039
54779K12N 12N20160307064510203/07/16 06:45:31  5-MIN K12N 071145Z AUTO 00000KT M02/M04 A3023 300 88 -1700 000/00 RMK AO1 T10221039
54779K12N 12N20160307065012703/07/16 06:50:31  5-MIN K12N 071150Z AUTO 00000KT M03/M04 A3023 300 92 -1700 000/00 RMK AO1 SLP249 T10281039 10000 21044 56016
54779K12N 12N20160307065510203/07/16 06:55:31  5-MIN K12N 071155Z AUTO 00000KT M02/M04 A3023 300 85 -1700 000/00 RMK AO1 T10221044
54779K12N 12N20160307070010203/07/16 07:00:31  5-MIN K12N 071200Z AUTO 00000KT M02/M04 A3023 300 88 -1700 000/00 RMK AO1 T10221039
54779K12N 12N20160307070510203/07/16 07:05:31  5-MIN K12N 071205Z AUTO 00000KT M02/M04 A3023 300 85 -1600 000/00 RMK AO1 T10171039
54779K12N 12N20160307071010203/07/16 07:10:31  5-MIN K12N 071210Z AUTO 00000KT M02/M04 A3023 300 85 -1600 000/00 RMK AO1 T10171039
54779K12N 12N20160307071510203/07/16 07:15:31  5-MIN K12N 071215Z AUTO 00000KT M02/M04 A3023 300 85 -1600 000/00 RMK AO1 T10171039
54779K12N 12N20160307072010203/07/16 07:20:31  5-MIN K12N 071220Z AUTO 00000KT M02/M04 A3023 300 85 -1600 000/00 RMK AO1 T10171039
54779K12N 12N20160307072510203/07/16 07:25:31  5-MIN K12N 071225Z AUTO 00000KT M01/M04 A3023 300 81 -1500 000/00 RMK AO1 T10111039
54779K12N 12N20160307073010203/07/16 07:30:31  5-MIN K12N 071230Z AUTO 00000KT M01/M03 A3023 300 85 -1500 000/00 RMK AO1 T10111033
54779K12N 12N20160307073510203/07/16 07:35:31  5-MIN K12N 071235Z AUTO 00000KT M01/M03 A3023 300 85 -1400 000/00 RMK AO1 T10061028
54779K12N 12N20160307074010203/07/16 07:40:31  5-MIN K12N 071240Z AUTO 00000KT M01/M02 A3023 300 88 -1400 000/00 RMK AO1 T10061022
54779K12N 12N20160307074510103/07/16 07:45:31  5-MIN K12N 071245Z AUTO 00000KT 01/M02 A3023 300 85 -1300 000/00 RMK AO1 T00061017
54779K12N 12N20160307075010803/07/16 07:50:31  5-MIN K12N 071250Z AUTO 00000KT 01/M02 A3024 290 85 -1300 000/00 RMK AO1 SLP251 T00061017
54779K12N 12N20160307075510103/07/16 07:55:31  5-MIN K12N 071255Z AUTO 00000KT 01/M02 A3023 300 85 -1300 000/00 RMK AO1 T00061017
54779K12N 12N20160307080010103/07/16 08:00:31  5-MIN K12N 071300Z AUTO 18003KT 01/M02 A3023 300 82 -1200 190/03 RMK AO1 T00111017
54779K12N 12N20160307080510103/07/16 08:05:31  5-MIN K12N 071305Z AUTO 20004KT 02/M02 A3023 300 78 -1200 210/04 RMK AO1 T00171017
54779K12N 12N20160307081010103/07/16 08:10:31  5-MIN K12N 071310Z AUTO VRB03KT 02/M01 A3023 300 78 -1100 VRB/03 RMK AO1 T00221011
54779K12N 12N20160307081510103/07/16 08:15:31  5-MIN K12N 071315Z AUTO 21004KT 02/M01 A3023 300 78 -1100 220/04 RMK AO1 T00221011
54779K12N 12N20160307082010103/07/16 08:20:31  5-MIN K12N 071320Z AUTO 21004KT 02/M01 A3023 300 78 -1100 220/04 RMK AO1 T00221011
54779K12N 12N20160307082510103/07/16 08:25:31  5-MIN K12N 071325Z AUTO 21004KT 03/M01 A3022 310 75 -1000 230/04 RMK AO1 T00281011
54779K12N 12N20160307083010103/07/16 08:30:31  5-MIN K12N 071330Z AUTO 21005KT 03/M01 A3022 310 75 -1000 220/05 RMK AO1 T00281011
54779K12N 12N20160307083510103/07/16 08:35:31  5-MIN K12N 071335Z AUTO 21005KT 03/M01 A3022 310 79 -1000 220/05 RMK AO1 T00281006
54779K12N 12N20160307084010003/07/16 08:40:31  5-MIN K12N 071340Z AUTO 21004KT 03/M01 A3021 310 76 -900 220/04 RMK AO1 T00331006
54779K12N 12N20160307084510003/07/16 08:45:31  5-MIN K12N 071345Z AUTO 21008KT 03/M01 A3021 320 76 -900 220/08 RMK AO1 T00331006
54779K12N 12N20160307085010703/07/16 08:50:31  5-MIN K12N 071350Z AUTO 21007KT 04/M01 A3021 320 73 -900 230/07 RMK AO1 SLP242 T00391006
54779K12N 12N20160307085510003/07/16 08:55:31  5-MIN K12N 071355Z AUTO 22008KT 04/M01 A3021 320 73 -900 230/08 RMK AO1 T00391006
54779K12N 12N20160307090010003/07/16 09:00:31  5-MIN K12N 071400Z AUTO 23007KT 04/M01 A3021 320 70 -800 240/07 RMK AO1 T00441006
54779K12N 12N20160307090510003/07/16 09:05:31  5-MIN K12N 071405Z AUTO 22006KT 04/M01 A3021 320 70 -800 230/06 RMK AO1 T00441006
54779K12N 12N20160307091009903/07/16 09:10:31  5-MIN K12N 071410Z AUTO 22007KT 05/00 A3021 320 70 -700 230/07 RMK AO1 T00500000
54779K12N 12N20160307091510003/07/16 09:15:31  5-MIN K12N 071415Z AUTO 24008KT 05/M01 A3021 320 67 -700 260/08 RMK AO1 T00501006
54779K12N 12N20160307092011603/07/16 09:20:31  5-MIN K12N 071420Z AUTO 21008KT 170V250 05/M01 A3021 320 67 -700 230/08 180V260 RMK AO1 T00501006
54779K12N 12N20160307092509903/07/16 09:25:31  5-MIN K12N 071425Z AUTO 21005KT 06/00 A3020 320 67 -700 220/05 RMK AO1 T00560000
54779K12N 12N20160307093009903/07/16 09:30:31  5-MIN K12N 071430Z AUTO 20007KT 06/00 A3020 330 67 -600 220/07 RMK AO1 T00560000
54779K12N 12N20160307093510503/07/16 09:35:31  5-MIN K12N 071435Z AUTO 22010G15KT 06/00 A3020 330 67 -600 230/10G15 RMK AO1 T00560000
54779K12N 12N20160307094010003/07/16 09:40:31  5-MIN K12N 071440Z AUTO 22008KT 06/M01 A3019 330 65 -600 230/08 RMK AO1 T00561006
54779K12N 12N20160307094510603/07/16 09:45:31  5-MIN K12N 071445Z AUTO 22008G15KT 06/M01 A3019 340 65 -600 230/08G15 RMK AO1 T00561006
54779K12N 12N20160307095011803/07/16 09:50:31  5-MIN K12N 071450Z AUTO 21010G15KT 06/00 A3019 340 65 -600 220/10G15 RMK AO1 SLP231 T00610000 51005
54779K12N 12N20160307095512203/07/16 09:55:31  5-MIN K12N 071455Z AUTO 20008G15KT 150V240 06/M01 A3018 340 62 -600 210/08G15 160V250 RMK AO1 T00611006
54779K12N 12N20160307100009903/07/16 10:00:31  5-MIN K12N 071500Z AUTO 22007KT 07/00 A3018 340 62 -500 240/07 RMK AO1 T00670000
54779K12N 12N20160307100510503/07/16 10:05:31  5-MIN K12N 071505Z AUTO 22011G19KT 07/00 A3018 350 62 -500 240/11G19 RMK AO1 T00670000
54779K12N 12N20160307101010503/07/16 10:10:31  5-MIN K12N 071510Z AUTO 22009G19KT 07/00 A3018 350 62 -500 230/09G19 RMK AO1 T00670000
54779K12N 12N20160307101510503/07/16 10:15:31  5-MIN K12N 071515Z AUTO 22009G16KT 07/00 A3017 350 62 -500 240/09G16 RMK AO1 T00670000
54779K12N 12N20160307102012103/07/16 10:20:31  5-MIN K12N 071520Z AUTO 21007G16KT 150V240 07/00 A3017 350 60 -400 220/07G16 160V250 RMK AO1 T00720000
54779K12N 12N20160307102510503/07/16 10:25:31  5-MIN K12N 071525Z AUTO 21010G15KT 07/00 A3017 360 60 -400 220/10G15 RMK AO1 T00720000
54779K12N 12N20160307103010503/07/16 10:30:31  5-MIN K12N 071530Z AUTO 22012G17KT 07/00 A3017 360 60 -400 230/12G17 RMK AO1 T00720000
54779K12N 12N20160307103510503/07/16 10:35:31  5-MIN K12N 071535Z AUTO 21008G17KT 08/01 A3017 360 60 -300 220/08G17 RMK AO1 T00780006
54779K12N 12N20160307104009903/07/16 10:40:31  5-MIN K12N 071540Z AUTO 21008KT 08/01 A3016 360 60 -300 220/08 RMK AO1 T00780006
54779K12N 12N20160307104510503/07/16 10:45:31  5-MIN K12N 071545Z AUTO 21011G17KT 08/01 A3016 370 60 -300 220/11G17 RMK AO1 T00780006
54779K12N 12N20160307105012803/07/16 10:50:31  5-MIN K12N 071550Z AUTO 21011G18KT 170V240 08/01 A3015 370 60 -300 230/11G18 180V250 RMK AO1 SLP220 T00780006
54779K12N 12N20160307105510503/07/16 10:55:31  5-MIN K12N 071555Z AUTO 22012G18KT 08/01 A3015 370 60 -300 230/12G18 RMK AO1 T00780006
54779K12N 12N20160307110010503/07/16 11:00:31  5-MIN K12N 071600Z AUTO 21009G18KT 08/01 A3015 380 58 -200 220/09G18 RMK AO1 T00830006
54779K12N 12N20160307110510503/07/16 11:05:31  5-MIN K12N 071605Z AUTO 21007G18KT 08/01 A3014 380 58 -200 220/07G18 RMK AO1 T00830006
54779K12N 12N20160307111010503/07/16 11:10:31  5-MIN K12N 071610Z AUTO 21010G16KT 09/01 A3013 390 58 -200 220/10G16 RMK AO1 T00890011
54779K12N 12N20160307111510503/07/16 11:15:31  5-MIN K12N 071615Z AUTO 21008G16KT 09/01 A3013 390 58 -200 220/08G16 RMK AO1 T00890011
54779K12N 12N20160307112010503/07/16 11:20:31  5-MIN K12N 071620Z AUTO 20007G16KT 09/01 A3013 390 56 -100 210/07G16 RMK AO1 T00940011
54779K12N 12N20160307112512103/07/16 11:25:31  5-MIN K12N 071625Z AUTO 20009G16KT 160V230 09/01 A3012 400 56 -100 220/09G16 170V240 RMK AO1 T00940011
54779K12N 12N20160307113010503/07/16 11:30:31  5-MIN K12N 071630Z AUTO 20009G18KT 09/01 A3012 400 56 -100 220/09G18 RMK AO1 T00940011
54779K12N 12N20160307113510503/07/16 11:35:31  5-MIN K12N 071635Z AUTO 22011G19KT 09/01 A3011 410 56 -100 230/11G19 RMK AO1 T00940011
54779K12N 12N20160307114010203/07/16 11:40:31  5-MIN K12N 071640Z AUTO 21008G19KT 10/01 A3011 410 54 0 230/08G19 RMK AO1 T01000011
54779K12N 12N20160307114510203/07/16 11:45:31  5-MIN K12N 071645Z AUTO 20008G19KT 10/01 A3011 410 54 0 220/08G19 RMK AO1 T01000011
54779K12N 12N20160307115010903/07/16 11:50:31  5-MIN K12N 071650Z AUTO 22011G19KT 11/01 A3011 410 52 0 230/11G19 RMK AO1 SLP204 T01060011
54779K12N 12N20160307115511803/07/16 11:55:31  5-MIN K12N 071655Z AUTO 19010G19KT 160V230 11/01 A3010 420 50 0 210/10G19 170V240 RMK AO1 T01060006
54779K12N 12N20160307120010203/07/16 12:00:31  5-MIN K12N 071700Z AUTO 21011G19KT 10/01 A3010 420 52 0 220/11G19 RMK AO1 T01000006
54779K12N 12N20160307120511803/07/16 12:05:31  5-MIN K12N 071705Z AUTO 21008G19KT 160V240 11/01 A3010 420 50 0 220/08G19 170V250 RMK AO1 T01060006
54779K12N 12N20160307121012003/07/16 12:10:31  5-MIN K12N 071710Z AUTO 19008G17KT 150V230 11/01 A3009 430 50 100 200/08G17 160V240 RMK AO1 T01110011
54779K12N 12N20160307121512003/07/16 12:15:31  5-MIN K12N 071715Z AUTO 22012G17KT 180V260 11/01 A3009 430 48 100 230/12G17 190V270 RMK AO1 T01110006
54779K12N 12N20160307122010403/07/16 12:20:31  5-MIN K12N 071720Z AUTO 21010G17KT 11/01 A3009 430 50 100 220/10G17 RMK AO1 T01110011
54779K12N 12N20160307122512003/07/16 12:25:31  5-MIN K12N 071725Z AUTO 22010G17KT 170V260 11/01 A3008 440 50 100 230/10G17 180V270 RMK AO1 T01060006
54779K12N 12N20160307123010403/07/16 12:30:31  5-MIN K12N 071730Z AUTO 20009G17KT 11/01 A3007 440 48 100 210/09G17 RMK AO1 T01110006
54779K12N 12N20160307123512003/07/16 12:35:31  5-MIN K12N 071735Z AUTO 23010G16KT 180V260 12/01 A3007 440 48 200 240/10G16 190V270 RMK AO1 T01170011
54779K12N 12N20160307124010403/07/16 12:40:31  5-MIN K12N 071740Z AUTO 22013G21KT 12/01 A3007 450 46 200 230/13G21 RMK AO1 T01170006
54779K12N 12N20160307124512003/07/16 12:45:31  5-MIN K12N 071745Z AUTO 21010G21KT 170V250 11/01 A3007 450 48 100 230/10G21 180V260 RMK AO1 T01110006
54779K12N 12N20160307125012903/07/16 12:50:31  5-MIN K12N 071750Z AUTO 21012G20KT 12/01 A3006 450 46 200 230/12G20 RMK AO1 SLP188 T01170006 10117 21022 58017
54779K12N 12N20160307125512003/07/16 12:55:31  5-MIN K12N 071755Z AUTO 21008G20KT 160V230 12/01 A3006 460 46 200 220/08G20 170V240 RMK AO1 T01170006
54779K12N 12N20160307130010403/07/16 13:00:31  5-MIN K12N 071800Z AUTO 22012G19KT 12/01 A3005 460 48 200 230/12G19 RMK AO1 T01170011
54779K12N 12N20160307130510403/07/16 13:05:31  5-MIN K12N 071805Z AUTO 23010G19KT 12/01 A3005 460 46 200 240/10G19 RMK AO1 T01170006
54779K12N 12N20160307131012003/07/16 13:10:31  5-MIN K12N 071810Z AUTO 22008G18KT 180V250 12/01 A3005 460 44 300 230/08G18 190V260 RMK AO1 T01220006
54779K12N 12N20160307131510403/07/16 13:15:31  5-MIN K12N 071815Z AUTO 24015G22KT 12/01 A3005 470 46 300 250/15G22 RMK AO1 T01220011
54779K12N 12N20160307132010403/07/16 13:20:31  5-MIN K12N 071820Z AUTO 22009G22KT 12/01 A3004 480 46 300 240/09G22 RMK AO1 T01220011
54779K12N 12N20160307132512003/07/16 13:25:31  5-MIN K12N 071825Z AUTO 23009G18KT 190V270 13/01 A3004 480 43 400 240/09G18 200V280 RMK AO1 T01280006
54779K12N 12N20160307133010403/07/16 13:30:31  5-MIN K12N 071830Z AUTO 23010G20KT 13/01 A3003 480 44 400 240/10G20 RMK AO1 T01280011
54779K12N 12N20160307133512003/07/16 13:35:31  5-MIN K12N 071835Z AUTO 23009G20KT 170V290 13/01 A3003 480 43 400 240/09G20 180V300 RMK AO1 T01280006
54779K12N 12N20160307134010403/07/16 13:40:31  5-MIN K12N 071840Z AUTO 21016G20KT 13/01 A3003 490 41 400 230/16G20 RMK AO1 T01330006
54779K12N 12N20160307134510403/07/16 13:45:31  5-MIN K12N 071845Z AUTO 22013G20KT 13/01 A3003 490 41 400 230/13G20 RMK AO1 T01330006
54779K12N 12N20160307135011103/07/16 13:50:31  5-MIN K12N 071850Z AUTO 21012G20KT 13/01 A3002 490 41 500 230/12G20 RMK AO1 SLP172 T01330006
54779K12N 12N20160307135512003/07/16 13:55:31  5-MIN K12N 071855Z AUTO 21009G20KT 160V250 13/00 A3002 500 40 500 220/09G20 170V260 RMK AO1 T01330000
54779K12N 12N20160307140012003/07/16 14:00:31  5-MIN K12N 071900Z AUTO 24010G19KT 220V290 14/00 A3002 500 38 500 260/10G19 230V300 RMK AO1 T01390000
54779K12N 12N20160307140512003/07/16 14:05:31  5-MIN K12N 071905Z AUTO 24009G19KT 210V290 14/01 A3001 500 40 500 250/09G19 220V300 RMK AO1 T01390006
54779K12N 12N20160307141010403/07/16 14:10:31  5-MIN K12N 071910Z AUTO 23006G14KT 14/01 A3001 500 40 500 240/06G14 RMK AO1 T01390006
54779K12N 12N20160307141510403/07/16 14:15:31  5-MIN K12N 071915Z AUTO 23009G16KT 14/01 A3001 500 40 500 240/09G16 RMK AO1 T01390006
54779K12N 12N20160307142010503/07/16 14:20:31  5-MIN K12N 071920Z AUTO 23008G19KT 14/M01 A3002 500 37 500 240/08G19 RMK AO1 T01391006
54779K12N 12N20160307142512003/07/16 14:25:31  5-MIN K12N 071925Z AUTO 23008G19KT 190V260 14/00 A3001 500 37 600 250/08G19 200V270 RMK AO1 T01440000
54779K12N 12N20160307143010403/07/16 14:30:31  5-MIN K12N 071930Z AUTO 21011G18KT 14/00 A3001 500 37 600 220/11G18 RMK AO1 T01440000
54779K12N 12N20160307143512003/07/16 14:35:31  5-MIN K12N 071935Z AUTO 23008G18KT 190V260 14/00 A3001 500 37 600 240/08G18 200V270 RMK AO1 T01440000
54779K12N 12N20160307144012003/07/16 14:40:31  5-MIN K12N 071940Z AUTO 22012G19KT 180V240 14/00 A3001 500 38 500 230/12G19 190V250 RMK AO1 T01390000
54779K12N 12N20160307144510403/07/16 14:45:31  5-MIN K12N 071945Z AUTO 22010G22KT 14/00 A3001 510 38 500 230/10G22 RMK AO1 T01390000
54779K12N 12N20160307145011103/07/16 14:50:31  5-MIN K12N 071950Z AUTO 22010G22KT 14/00 A3000 510 38 500 240/10G22 RMK AO1 SLP166 T01390000
54779K12N 12N20160307145512003/07/16 14:55:31  5-MIN K12N 071955Z AUTO 21010G16KT 170V240 14/00 A3000 510 37 600 220/10G16 180V250 RMK AO1 T01440000
54779K12N 12N20160307150010403/07/16 15:00:31  5-MIN K12N 072000Z AUTO 22009G19KT 14/00 A3000 510 37 600 230/09G19 RMK AO1 T01440000
54779K12N 12N20160307150510403/07/16 15:05:31  5-MIN K12N 072005Z AUTO 23007G19KT 14/00 A3000 510 37 600 240/07G19 RMK AO1 T01440000
54779K12N 12N20160307151011403/07/16 15:10:31  5-MIN K12N 072010Z AUTO 22008KT 190V280 14/01 A3000 510 38 600 230/08 200V290 RMK AO1 T01440006
54779K12N 12N20160307151510403/07/16 15:15:31  5-MIN K12N 072015Z AUTO 22012G18KT 14/01 A3000 510 38 600 230/12G18 RMK AO1 T01440006
54779K12N 12N20160307152010403/07/16 15:20:31  5-MIN K12N 072020Z AUTO 21010G20KT 14/00 A3000 520 37 600 230/10G20 RMK AO1 T01440000
54779K12N 12N20160307152510403/07/16 15:25:31  5-MIN K12N 072025Z AUTO 22008G20KT 14/01 A3000 520 38 600 230/08G20 RMK AO1 T01440006
54779K12N 12N20160307153010403/07/16 15:30:31  5-MIN K12N 072030Z AUTO 21009G19KT 15/01 A3000 510 37 700 230/09G19 RMK AO1 T01500006
54779K12N 12N20160307153510403/07/16 15:35:31  5-MIN K12N 072035Z AUTO 22011G17KT 14/00 A3000 520 37 600 230/11G17 RMK AO1 T01440000
54779K12N 12N20160307154010403/07/16 15:40:31  5-MIN K12N 072040Z AUTO 20010G17KT 14/00 A2999 520 37 600 210/10G17 RMK AO1 T01440000
54779K12N 12N20160307154512003/07/16 15:45:31  5-MIN K12N 072045Z AUTO 22008G15KT 170V250 15/01 A2999 520 37 700 230/08G15 180V260 RMK AO1 T01500006
54779K12N 12N20160307155011703/07/16 15:50:31  5-MIN K12N 072050Z AUTO 22010G17KT 15/01 A2999 520 37 700 240/10G17 RMK AO1 SLP161 T01500006 58042
54779K12N 12N20160307155510403/07/16 15:55:31  5-MIN K12N 072055Z AUTO 23007G17KT 15/01 A2999 520 37 700 240/07G17 RMK AO1 T01500006
54779K12N 12N20160307160009803/07/16 16:00:31  5-MIN K12N 072100Z AUTO VRB06KT 15/01 A2999 520 37 700 VRB/06 RMK AO1 T01500006
54779K12N 12N20160307160509803/07/16 16:05:31  5-MIN K12N 072105Z AUTO 21007KT 15/01 A2998 530 37 700 230/07 RMK AO1 T01500006
54779K12N 12N20160307161009803/07/16 16:10:31  5-MIN K12N 072110Z AUTO 21006KT 15/01 A2998 530 37 700 220/06 RMK AO1 T01500006
54779K12N 12N20160307161509803/07/16 16:15:31  5-MIN K12N 072115Z AUTO 22005KT 15/01 A2998 530 38 700 230/05 RMK AO1 T01500011
54779K12N 12N20160307162009803/07/16 16:20:31  5-MIN K12N 072120Z AUTO 21007KT 15/01 A2998 530 38 700 220/07 RMK AO1 T01500011
54779K12N 12N20160307162510403/07/16 16:25:31  5-MIN K12N 072125Z AUTO VRB06G14KT 15/01 A2998 530 37 700 VRB/06G14 RMK AO1 T01500006
54779K12N 12N20160307163012003/07/16 16:30:31  5-MIN K12N 072130Z AUTO 21008G15KT 160V230 15/01 A2998 530 38 700 220/08G15 170V240 RMK AO1 T01500011
54779K12N 12N20160307163510403/07/16 16:35:31  5-MIN K12N 072135Z AUTO 21008G17KT 15/01 A2998 530 37 700 220/08G17 RMK AO1 T01500006
54779K12N 12N20160307164010403/07/16 16:40:31  5-MIN K12N 072140Z AUTO 21008G17KT 15/01 A2998 530 37 700 220/08G17 RMK AO1 T01500006
54779K12N 12N20160307164509803/07/16 16:45:31  5-MIN K12N 072145Z AUTO 22007KT 15/01 A2998 530 37 700 230/07 RMK AO1 T01500006
54779K12N 12N20160307165010503/07/16 16:50:31  5-MIN K12N 072150Z AUTO 22007KT 15/01 A2998 530 37 700 230/07 RMK AO1 SLP155 T01500006
54779K12N 12N20160307165509803/07/16 16:55:31  5-MIN K12N 072155Z AUTO 21008KT 15/01 A2998 530 37 700 230/08 RMK AO1 T01500006
54779K12N 12N20160307170009803/07/16 17:00:31  5-MIN K12N 072200Z AUTO VRB05KT 15/01 A2998 530 37 700 VRB/05 RMK AO1 T01500006
54779K12N 12N20160307170509803/07/16 17:05:31  5-MIN K12N 072205Z AUTO 22008KT 15/01 A2998 530 37 700 230/08 RMK AO1 T01500006
54779K12N 12N20160307171009803/07/16 17:10:31  5-MIN K12N 072210Z AUTO 22006KT 14/01 A2998 530 38 600 230/06 RMK AO1 T01440006
54779K12N 12N20160307171509803/07/16 17:15:31  5-MIN K12N 072215Z AUTO 22009KT 14/01 A2998 530 38 600 230/09 RMK AO1 T01440006
54779K12N 12N20160307172009803/07/16 17:20:31  5-MIN K12N 072220Z AUTO 21006KT 14/00 A2998 530 37 600 230/06 RMK AO1 T01440000
54779K12N 12N20160307172509803/07/16 17:25:31  5-MIN K12N 072225Z AUTO 21005KT 14/00 A2998 530 37 600 220/05 RMK AO1 T01440000
54779K12N 12N20160307173009803/07/16 17:30:31  5-MIN K12N 072230Z AUTO 21006KT 14/00 A2998 530 37 600 220/06 RMK AO1 T01440000
54779K12N 12N20160307173509803/07/16 17:35:31  5-MIN K12N 072235Z AUTO 21005KT 14/00 A2998 530 37 600 220/05 RMK AO1 T01440000
54779K12N 12N20160307174009803/07/16 17:40:31  5-MIN K12N 072240Z AUTO 21006KT 14/00 A2999 520 37 600 220/06 RMK AO1 T01440000
54779K12N 12N20160307174509803/07/16 17:45:31  5-MIN K12N 072245Z AUTO 21004KT 14/00 A2999 520 38 600 230/04 RMK AO1 T01390000
54779K12N 12N20160307175010503/07/16 17:50:31  5-MIN K12N 072250Z AUTO 21005KT 14/00 A2999 520 38 500 230/05 RMK AO1 SLP161 T01390000
54779K12N 12N20160307175509803/07/16 17:55:31  5-MIN K12N 072255Z AUTO VRB03KT 14/00 A3000 520 38 500 VRB/03 RMK AO1 T01390000
54779K12N 12N20160307180009803/07/16 18:00:31  5-MIN K12N 072300Z AUTO 21003KT 14/00 A3000 510 38 500 230/03 RMK AO1 T01390000
54779K12N 12N20160307180509803/07/16 18:05:31  5-MIN K12N 072305Z AUTO 22004KT 14/00 A3000 510 38 500 230/04 RMK AO1 T01390000
54779K12N 12N20160307181009803/07/16 18:10:31  5-MIN K12N 072310Z AUTO VRB04KT 14/00 A3000 510 38 500 VRB/04 RMK AO1 T01390000
54779K12N 12N20160307181509903/07/16 18:15:31  5-MIN K12N 072315Z AUTO 22005KT 14/M01 A3001 500 37 500 230/05 RMK AO1 T01391006
54779K12N 12N20160307182009903/07/16 18:20:31  5-MIN K12N 072320Z AUTO VRB03KT 14/M01 A3001 500 37 500 VRB/03 RMK AO1 T01391006
54779K12N 12N20160307182509903/07/16 18:25:31  5-MIN K12N 072325Z AUTO 20004KT 14/M01 A3001 500 37 500 210/04 RMK AO1 T01391006
54779K12N 12N20160307183009903/07/16 18:30:31  5-MIN K12N 072330Z AUTO 19004KT 13/M01 A3001 500 38 500 200/04 RMK AO1 T01331006
54779K12N 12N20160307183509803/07/16 18:35:31  5-MIN K12N 072335Z AUTO 00000KT 12/00 A3001 500 43 300 000/00 RMK AO1 T01220000
54779K12N 12N20160307184009803/07/16 18:40:31  5-MIN K12N 072340Z AUTO 00000KT 11/01 A3001 500 48 200 000/00 RMK AO1 T01110006
54779K12N 12N20160307184509803/07/16 18:45:31  5-MIN K12N 072345Z AUTO 00000KT 11/00 A3002 500 46 200 000/00 RMK AO1 T01110000
54779K12N 12N20160307185012303/07/16 18:50:31  5-MIN K12N 072350Z AUTO 00000KT 10/01 A3002 500 52 100 000/00 RMK AO1 SLP172 T01000006 10150 20100 56023
54779K12N 12N20160307185509603/07/16 18:55:31  5-MIN K12N 072355Z AUTO 00000KT 09/01 A3002 500 53 0 000/00 RMK AO1 T00940006
54779K12N 12N20160307190009603/07/16 19:00:31  5-MIN K12N 080000Z AUTO 00000KT 09/01 A3002 500 58 0 000/00 RMK AO1 T00890011
54779K12N 12N20160307190509603/07/16 19:05:31  5-MIN K12N 080005Z AUTO 00000KT 09/01 A3002 500 58 0 000/00 RMK AO1 T00890011
54779K12N 12N20160307191009903/07/16 19:10:31  5-MIN K12N 080010Z AUTO 00000KT 08/01 A3002 490 60 -100 000/00 RMK AO1 T00830011
54779K12N 12N20160307191509903/07/16 19:15:31  5-MIN K12N 080015Z AUTO 22003KT 08/01 A3002 490 62 -200 230/03 RMK AO1 T00780011
54779K12N 12N20160307192009903/07/16 19:20:31  5-MIN K12N 080020Z AUTO 00000KT 08/01 A3002 490 62 -200 000/00 RMK AO1 T00780011
54779K12N 12N20160307192509903/07/16 19:25:31  5-MIN K12N 080025Z AUTO 00000KT 07/01 A3003 490 65 -200 000/00 RMK AO1 T00720011
54779K12N 12N20160307193009903/07/16 19:30:31  5-MIN K12N 080030Z AUTO 00000KT 08/01 A3003 490 62 -200 000/00 RMK AO1 T00780011
54779K12N 12N20160307193509903/07/16 19:35:31  5-MIN K12N 080035Z AUTO 00000KT 07/01 A3003 490 65 -200 000/00 RMK AO1 T00720011
54779K12N 12N20160307194009903/07/16 19:40:31  5-MIN K12N 080040Z AUTO 00000KT 07/02 A3003 480 73 -300 000/00 RMK AO1 T00670022
54779K12N 12N20160307194509903/07/16 19:45:31  5-MIN K12N 080045Z AUTO 00000KT 07/02 A3003 480 73 -300 000/00 RMK AO1 T00670022
54779K12N 12N20160307195010603/07/16 19:50:31  5-MIN K12N 080050Z AUTO 21003KT 07/02 A3003 480 70 -300 220/03 RMK AO1 SLP176 T00670017
54779K12N 12N20160307195509903/07/16 19:55:31  5-MIN K12N 080055Z AUTO 21004KT 07/02 A3003 480 70 -300 220/04 RMK AO1 T00670017
54779K12N 12N20160307200009903/07/16 20:00:31  5-MIN K12N 080100Z AUTO 21003KT 07/01 A3003 480 65 -200 230/03 RMK AO1 T00720011
54779K12N 12N20160307200509903/07/16 20:05:31  5-MIN K12N 080105Z AUTO 19003KT 07/01 A3003 480 67 -300 210/03 RMK AO1 T00670011
54779K12N 12N20160307201009903/07/16 20:10:31  5-MIN K12N 080110Z AUTO 00000KT 06/02 A3003 480 73 -400 000/00 RMK AO1 T00610017
54779K12N 12N20160307201509903/07/16 20:15:31  5-MIN K12N 080115Z AUTO 00000KT 06/01 A3003 480 73 -400 000/00 RMK AO1 T00560011
54779K12N 12N20160307202009903/07/16 20:20:31  5-MIN K12N 080120Z AUTO 00000KT 06/02 A3003 480 73 -400 000/00 RMK AO1 T00610017
54779K12N 12N20160307202509903/07/16 20:25:31  5-MIN K12N 080125Z AUTO 00000KT 06/02 A3003 480 73 -400 000/00 RMK AO1 T00610017
54779K12N 12N20160307203009903/07/16 20:30:31  5-MIN K12N 080130Z AUTO 00000KT 06/02 A3003 480 76 -500 000/00 RMK AO1 T00560017
54779K12N 12N20160307203509903/07/16 20:35:31  5-MIN K12N 080135Z AUTO 00000KT 06/02 A3003 480 76 -500 000/00 RMK AO1 T00560017
54779K12N 12N20160307204009903/07/16 20:40:31  5-MIN K12N 080140Z AUTO 00000KT 05/02 A3004 480 79 -500 000/00 RMK AO1 T00500017
54779K12N 12N20160307204509903/07/16 20:45:31  5-MIN K12N 080145Z AUTO 00000KT 05/02 A3004 480 79 -500 000/00 RMK AO1 T00500017
54779K12N 12N20160307205010603/07/16 20:50:31  5-MIN K12N 080150Z AUTO 00000KT 05/02 A3004 480 79 -500 000/00 RMK AO1 SLP178 T00500017
54779K12N 12N20160307205509903/07/16 20:55:31  5-MIN K12N 080155Z AUTO 00000KT 05/02 A3004 480 79 -500 000/00 RMK AO1 T00500017
54779K12N 12N20160307210009903/07/16 21:00:31  5-MIN K12N 080200Z AUTO 00000KT 05/02 A3004 480 79 -500 000/00 RMK AO1 T00500017
54779K12N 12N20160307210509903/07/16 21:05:31  5-MIN K12N 080205Z AUTO 00000KT 04/02 A3004 480 82 -600 000/00 RMK AO1 T00440017
54779K12N 12N20160307211009903/07/16 21:10:31  5-MIN K12N 080210Z AUTO 00000KT 04/02 A3004 470 82 -600 000/00 RMK AO1 T00440017
54779K12N 12N20160307211509903/07/16 21:15:31  5-MIN K12N 080215Z AUTO 00000KT 04/02 A3004 470 82 -600 000/00 RMK AO1 T00440017
54779K12N 12N20160307212009903/07/16 21:20:31  5-MIN K12N 080220Z AUTO 00000KT 04/02 A3004 470 82 -600 000/00 RMK AO1 T00440017
54779K12N 12N20160307212509903/07/16 21:25:31  5-MIN K12N 080225Z AUTO 21003KT 04/02 A3004 470 82 -600 220/03 RMK AO1 T00440017
54779K12N 12N20160307213009903/07/16 21:30:31  5-MIN K12N 080230Z AUTO 21004KT 04/02 A3004 470 82 -600 220/04 RMK AO1 T00440017
54779K12N 12N20160307213509903/07/16 21:35:31  5-MIN K12N 080235Z AUTO 21004KT 05/01 A3004 470 76 -500 230/04 RMK AO1 T00500011
54779K12N 12N20160307214009903/07/16 21:40:31  5-MIN K12N 080240Z AUTO 21004KT 05/01 A3004 470 76 -500 230/04 RMK AO1 T00500011
54779K12N 12N20160307214509903/07/16 21:45:31  5-MIN K12N 080245Z AUTO 20003KT 04/01 A3004 470 82 -700 220/03 RMK AO1 T00390011
54779K12N 12N20160307215011203/07/16 21:50:31  5-MIN K12N 080250Z AUTO 20003KT 04/01 A3004 470 82 -700 220/03 RMK AO1 SLP180 T00390011 53009
54779K12N 12N20160307215509903/07/16 21:55:31  5-MIN K12N 080255Z AUTO 21003KT 04/01 A3005 470 82 -700 230/03 RMK AO1 T00390011
54779K12N 12N20160307220009903/07/16 22:00:31  5-MIN K12N 080300Z AUTO 21003KT 04/02 A3005 470 82 -600 220/03 RMK AO1 T00440017
54779K12N 12N20160307220509903/07/16 22:05:31  5-MIN K12N 080305Z AUTO 21003KT 04/02 A3004 470 82 -600 220/03 RMK AO1 T00440017
54779K12N 12N20160307221009903/07/16 22:10:31  5-MIN K12N 080310Z AUTO 00000KT 04/01 A3004 470 82 -700 000/00 RMK AO1 T00390011
54779K12N 12N20160307221509903/07/16 22:15:31  5-MIN K12N 080315Z AUTO 00000KT 04/01 A3005 470 82 -700 000/00 RMK AO1 T00390011
54779K12N 12N20160307222009903/07/16 22:20:31  5-MIN K12N 080320Z AUTO 00000KT 04/01 A3005 470 82 -700 000/00 RMK AO1 T00390011
54779K12N 12N20160307222509903/07/16 22:25:31  5-MIN K12N 080325Z AUTO 00000KT 04/01 A3005 470 82 -700 000/00 RMK AO1 T00390011
54779K12N 12N20160307223009903/07/16 22:30:31  5-MIN K12N 080330Z AUTO 20003KT 04/02 A3005 470 85 -700 210/03 RMK AO1 T00390017
54779K12N 12N20160307223509903/07/16 22:35:31  5-MIN K12N 080335Z AUTO 20004KT 04/01 A3005 470 79 -600 210/04 RMK AO1 T00440011
54779K12N 12N20160307224009903/07/16 22:40:31  5-MIN K12N 080340Z AUTO 20003KT 04/01 A3005 470 82 -700 220/03 RMK AO1 T00390011
54779K12N 12N20160307224509903/07/16 22:45:31  5-MIN K12N 080345Z AUTO 21003KT 04/01 A3005 470 82 -700 220/03 RMK AO1 T00390011
54779K12N 12N20160307225010603/07/16 22:50:31  5-MIN K12N 080350Z AUTO 20003KT 04/01 A3005 470 82 -700 210/03 RMK AO1 SLP181 T00390011
54779K12N 12N20160307225509903/07/16 22:55:31  5-MIN K12N 080355Z AUTO 00000KT 04/01 A3005 470 82 -700 000/00 RMK AO1 T00390011
54779K12N 12N20160307230009903/07/16 23:00:31  5-MIN K12N 080400Z AUTO 00000KT 04/01 A3005 470 82 -700 000/00 RMK AO1 T00390011
54779K12N 12N20160307230509903/07/16 23:05:31  5-MIN K12N 080405Z AUTO 00000KT 03/01 A3005 470 85 -700 000/00 RMK AO1 T00330011
54779K12N 12N20160307231009903/07/16 23:10:31  5-MIN K12N 080410Z AUTO 20003KT 03/01 A3005 470 85 -700 210/03 RMK AO1 T00330011
54779K12N 12N20160307231509903/07/16 23:15:31  5-MIN K12N 080415Z AUTO 00000KT 03/01 A3005 470 85 -700 000/00 RMK AO1 T00330011
54779K12N 12N20160307232009903/07/16 23:20:31  5-MIN K12N 080420Z AUTO 00000KT 03/01 A3005 470 85 -700 000/00 RMK AO1 T00330011
54779K12N 12N20160307232509903/07/16 23:25:31  5-MIN K12N 080425Z AUTO 00000KT 04/02 A3005 470 85 -700 000/00 RMK AO1 T00390017
54779K12N 12N20160307233009903/07/16 23:30:31  5-MIN K12N 080430Z AUTO 00000KT 04/01 A3005 470 82 -700 000/00 RMK AO1 T00390011
54779K12N 12N20160307233509903/07/16 23:35:31  5-MIN K12N 080435Z AUTO 00000KT 04/01 A3005 460 82 -700 000/00 RMK AO1 T00390011
54779K12N 12N20160307234009903/07/16 23:40:31  5-MIN K12N 080440Z AUTO 00000KT 04/02 A3005 460 85 -700 000/00 RMK AO1 T00390017
54779K12N 12N20160307234509903/07/16 23:45:31  5-MIN K12N 080445Z AUTO 00000KT 04/02 A3005 460 85 -700 000/00 RMK AO1 T00390017
54779K12N 12N20160307235011603/07/16 23:50:31  5-MIN K12N 080450Z AUTO 00000KT 04/02 A3005 460 85 -700 000/00 RMK AO1 SLP181 T00390017 401501044
54779K12N 12N20160307235509903/07/16 23:55:31  5-MIN K12N 080455Z AUTO 00000KT 04/02 A3005 460 85 -700 000/00 RMK AO1 T00390017
54779K12N 12N20160308000009903/08/16 00:00:31  5-MIN K12N 080500Z AUTO 00000KT 03/02 A3006 460 89 -800 000/00 RMK AO1 T00330017
54779K12N 12N20160308000509903/08/16 00:05:31  5-MIN K12N 080505Z AUTO 00000KT 04/02 A3006 460 85 -700 000/00 RMK AO1 T00390017
54779K12N 12N20160308001009903/08/16 00:10:31  5-MIN K12N 080510Z AUTO 00000KT 03/02 A3006 460 89 -800 000/00 RMK AO1 T00330017
54779K12N 12N20160308001509903/08/16 00:15:31  5-MIN K12N 080515Z AUTO 00000KT 03/01 A3006 460 85 -800 000/00 RMK AO1 T00330011
54779K12N 12N20160308002009903/08/16 00:20:31  5-MIN K12N 080520Z AUTO 00000KT 03/01 A3006 450 85 -800 000/00 RMK AO1 T00330011
54779K12N 12N20160308002509903/08/16 00:25:31  5-MIN K12N 080525Z AUTO 00000KT 04/01 A3006 450 82 -700 000/00 RMK AO1 T00390011
54779K12N 12N20160308003009903/08/16 00:30:31  5-MIN K12N 080530Z AUTO 00000KT 03/01 A3007 450 85 -800 000/00 RMK AO1 T00330011
54779K12N 12N20160308003509903/08/16 00:35:31  5-MIN K12N 080535Z AUTO 00000KT 03/01 A3007 450 85 -800 000/00 RMK AO1 T00330011
54779K12N 12N20160308004009903/08/16 00:40:31  5-MIN K12N 080540Z AUTO 00000KT 03/02 A3007 440 89 -800 000/00 RMK AO1 T00330017
54779K12N 12N20160308004509903/08/16 00:45:31  5-MIN K12N 080545Z AUTO 00000KT 03/02 A3007 440 89 -800 000/00 RMK AO1 T00330017
54779K12N 12N20160308005012403/08/16 00:50:31  5-MIN K12N 080550Z AUTO 03003KT 04/02 A3008 440 85 -700 040/03 RMK AO1 SLP189 T00390017 10094 20033 51010
54779K12N 12N20160308005509903/08/16 00:55:31  5-MIN K12N 080555Z AUTO 00000KT 04/02 A3008 440 89 -700 000/00 RMK AO1 T00390022
54779K12N 12N20160308010009903/08/16 01:00:31  5-MIN K12N 080600Z AUTO 00000KT 04/02 A3008 440 89 -700 000/00 RMK AO1 T00390022
54779K12N 12N20160308010509903/08/16 01:05:31  5-MIN K12N 080605Z AUTO 03003KT 04/02 A3008 440 85 -600 050/03 RMK AO1 T00440022
54779K12N 12N20160308011009903/08/16 01:10:31  5-MIN K12N 080610Z AUTO 05003KT 04/02 A3008 440 89 -700 060/03 RMK AO1 T00390022
54779K12N 12N20160308011509903/08/16 01:15:31  5-MIN K12N 080615Z AUTO 00000KT 04/02 A3008 440 85 -600 000/00 RMK AO1 T00440022
54779K12N 12N20160308012009903/08/16 01:20:31  5-MIN K12N 080620Z AUTO 00000KT 04/02 A3008 440 82 -600 000/00 RMK AO1 T00440017
54779K12N 12N20160308012509903/08/16 01:25:31  5-MIN K12N 080625Z AUTO 00000KT 04/02 A3008 440 85 -700 000/00 RMK AO1 T00390017
54779K12N 12N20160308013009903/08/16 01:30:31  5-MIN K12N 080630Z AUTO 00000KT 04/02 A3008 440 85 -700 000/00 RMK AO1 T00390017
54779K12N 12N20160308013509903/08/16 01:35:31  5-MIN K12N 080635Z AUTO 00000KT 04/02 A3008 440 85 -700 000/00 RMK AO1 T00390017
54779K12N 12N20160308014009903/08/16 01:40:31  5-MIN K12N 080640Z AUTO 00000KT 04/02 A3008 440 85 -700 000/00 RMK AO1 T00390017
54779K12N 12N20160308014509903/08/16 01:45:31  5-MIN K12N 080645Z AUTO 00000KT 04/02 A3008 430 85 -700 000/00 RMK AO1 T00390017
54779K12N 12N20160308015010603/08/16 01:50:31  5-MIN K12N 080650Z AUTO 00000KT 04/02 A3008 430 85 -700 000/00 RMK AO1 SLP190 T00390017
54779K12N 12N20160308015509903/08/16 01:55:31  5-MIN K12N 080655Z AUTO 00000KT 03/02 A3008 430 89 -800 000/00 RMK AO1 T00330017
54779K12N 12N20160308020009903/08/16 02:00:31  5-MIN K12N 080700Z AUTO 02003KT 04/02 A3008 430 85 -700 030/03 RMK AO1 T00390017
54779K12N 12N20160308020509903/08/16 02:05:31  5-MIN K12N 080705Z AUTO 00000KT 04/02 A3009 430 82 -700 000/00 RMK AO1 T00440017
54779K12N 12N20160308021009903/08/16 02:10:31  5-MIN K12N 080710Z AUTO 04003KT 04/02 A3008 430 82 -600 050/03 RMK AO1 T00440017
54779K12N 12N20160308021509903/08/16 02:15:31  5-MIN K12N 080715Z AUTO 00000KT 04/02 A3009 430 82 -700 000/00 RMK AO1 T00440017
54779K12N 12N20160308022009903/08/16 02:20:31  5-MIN K12N 080720Z AUTO 00000KT 04/02 A3009 430 82 -700 000/00 RMK AO1 T00440017
54779K12N 12N20160308022509903/08/16 02:25:31  5-MIN K12N 080725Z AUTO 00000KT 04/02 A3009 430 85 -700 000/00 RMK AO1 T00390017
54779K12N 12N20160308023009903/08/16 02:30:31  5-MIN K12N 080730Z AUTO 00000KT 04/02 A3009 430 85 -700 000/00 RMK AO1 T00390017
54779K12N 12N20160308023509903/08/16 02:35:31  5-MIN K12N 080735Z AUTO 00000KT 04/01 A3009 430 82 -700 000/00 RMK AO1 T00390011
54779K12N 12N20160308024009903/08/16 02:40:31  5-MIN K12N 080740Z AUTO 00000KT 03/01 A3009 430 89 -900 000/00 RMK AO1 T00280011
54779K12N 12N20160308024509903/08/16 02:45:31  5-MIN K12N 080745Z AUTO 00000KT 02/01 A3009 430 89 -900 000/00 RMK AO1 T00220006
54779K12N 12N20160308025010603/08/16 02:50:31  5-MIN K12N 080750Z AUTO 00000KT 03/01 A3009 430 85 -900 000/00 RMK AO1 SLP194 T00280006
54779K12N 12N20160308025509903/08/16 02:55:31  5-MIN K12N 080755Z AUTO 00000KT 02/01 A3009 430 89 -900 000/00 RMK AO1 T00220006
54779K12N 12N20160308030009903/08/16 03:00:31  5-MIN K12N 080800Z AUTO 00000KT 02/01 A3009 430 89 -900 000/00 RMK AO1 T00220006
54779K12N 12N20160308030509903/08/16 03:05:31  5-MIN K12N 080805Z AUTO 00000KT 02/00 A3009 430 85 -900 000/00 RMK AO1 T00220000
54779K12N 12N20160308031009903/08/16 03:10:31  5-MIN K12N 080810Z AUTO 00000KT 02/00 A3009 430 85 -900 000/00 RMK AO1 T00220000
54779K12N 12N20160308031509903/08/16 03:15:31  5-MIN K12N 080815Z AUTO 00000KT 02/01 A3009 430 89 -900 000/00 RMK AO1 T00220006
54779K12N 12N20160308032009903/08/16 03:20:31  5-MIN K12N 080820Z AUTO 00000KT 02/01 A3009 430 89 -900 000/00 RMK AO1 T00220006
54779K12N 12N20160308032509903/08/16 03:25:31  5-MIN K12N 080825Z AUTO 00000KT 02/01 A3009 430 89 -900 000/00 RMK AO1 T00220006
54779K12N 12N20160308033009903/08/16 03:30:31  5-MIN K12N 080830Z AUTO 00000KT 03/01 A3009 430 89 -900 000/00 RMK AO1 T00280011
54779K12N 12N20160308033509903/08/16 03:35:31  5-MIN K12N 080835Z AUTO VRB03KT 03/01 A3009 430 89 -900 VRB/03 RMK AO1 T00280011
54779K12N 12N20160308034009903/08/16 03:40:31  5-MIN K12N 080840Z AUTO 00000KT 02/01 A3010 420 92 -900 000/00 RMK AO1 T00220011
54779K12N 12N20160308034509903/08/16 03:45:31  5-MIN K12N 080845Z AUTO 00000KT 02/01 A3010 420 92 -900 000/00 RMK AO1 T00220011
54779K12N 12N20160308035011203/08/16 03:50:31  5-MIN K12N 080850Z AUTO 00000KT 02/01 A3010 420 92 -900 000/00 RMK AO1 SLP195 T00220011 53011
54779K12N 12N20160308035509903/08/16 03:55:31  5-MIN K12N 080855Z AUTO 00000KT 02/01 A3010 420 89 -900 000/00 RMK AO1 T00220006
54779K12N 12N20160308040010003/08/16 04:00:31  5-MIN K12N 080900Z AUTO 00000KT 02/01 A3010 410 92 -1000 000/00 RMK AO1 T00170006
54779K12N 12N20160308040510003/08/16 04:05:31  5-MIN K12N 080905Z AUTO 00000KT 02/01 A3011 410 89 -1000 000/00 RMK AO1 T00220006
54779K12N 12N20160308041010003/08/16 04:10:31  5-MIN K12N 080910Z AUTO 00000KT 02/01 A3011 410 92 -1000 000/00 RMK AO1 T00220011
54779K12N 12N20160308041510003/08/16 04:15:31  5-MIN K12N 080915Z AUTO 00000KT 02/01 A3011 410 92 -1000 000/00 RMK AO1 T00220011
54779K12N 12N20160308042010003/08/16 04:20:31  5-MIN K12N 080920Z AUTO 00000KT 02/01 A3011 410 92 -1000 000/00 RMK AO1 T00220011
54779K12N 12N20160308042510003/08/16 04:25:31  5-MIN K12N 080925Z AUTO 22003KT 02/01 A3011 410 92 -1000 230/03 RMK AO1 T00220011
54779K12N 12N20160308043010003/08/16 04:30:31  5-MIN K12N 080930Z AUTO VRB03KT 02/01 A3011 410 96 -1000 VRB/03 RMK AO1 T00170011
54779K12N 12N20160308043510003/08/16 04:35:31  5-MIN K12N 080935Z AUTO 00000KT 02/01 A3011 410 92 -1000 000/00 RMK AO1 T00220011
54779K12N 12N20160308044010003/08/16 04:40:31  5-MIN K12N 080940Z AUTO 00000KT 02/01 A3011 410 92 -1000 000/00 RMK AO1 T00220011
54779K12N 12N20160308044510003/08/16 04:45:31  5-MIN K12N 080945Z AUTO 00000KT 02/01 A3011 410 92 -1000 000/00 RMK AO1 T00220011
54779K12N 12N20160308045010703/08/16 04:50:31  5-MIN K12N 080950Z AUTO 00000KT 02/01 A3011 410 92 -1000 000/00 RMK AO1 SLP199 T00220011
54779K12N 12N20160308045510003/08/16 04:55:31  5-MIN K12N 080955Z AUTO 00000KT 02/01 A3011 410 92 -1000 000/00 RMK AO1 T00220011
54779K12N 12N20160308050010003/08/16 05:00:31  5-MIN K12N 081000Z AUTO 00000KT 02/01 A3011 410 92 -1000 000/00 RMK AO1 T00220011
54779K12N 12N20160308050510003/08/16 05:05:31  5-MIN K12N 081005Z AUTO 00000KT 02/01 A3012 410 92 -1000 000/00 RMK AO1 T00220011
54779K12N 12N20160308051010003/08/16 05:10:31  5-MIN K12N 081010Z AUTO 00000KT 02/01 A3012 400 92 -1000 000/00 RMK AO1 T00220011
54779K12N 12N20160308051510003/08/16 05:15:31  5-MIN K12N 081015Z AUTO 00000KT 02/01 A3012 400 92 -1000 000/00 RMK AO1 T00220011
54779K12N 12N20160308052010003/08/16 05:20:31  5-MIN K12N 081020Z AUTO 00000KT 02/01 A3012 400 89 -1000 000/00 RMK AO1 T00220006
54779K12N 12N20160308052510003/08/16 05:25:31  5-MIN K12N 081025Z AUTO 00000KT 02/01 A3012 400 89 -1000 000/00 RMK AO1 T00220006
54779K12N 12N20160308053010003/08/16 05:30:31  5-MIN K12N 081030Z AUTO 00000KT 02/01 A3012 400 92 -1000 000/00 RMK AO1 T00170006
54779K12N 12N20160308053510003/08/16 05:35:31  5-MIN K12N 081035Z AUTO 00000KT 02/01 A3012 400 89 -1000 000/00 RMK AO1 T00220006
54779K12N 12N20160308054010003/08/16 05:40:31  5-MIN K12N 081040Z AUTO 00000KT 02/01 A3013 390 92 -1000 000/00 RMK AO1 T00170006
54779K12N 12N20160308054510003/08/16 05:45:31  5-MIN K12N 081045Z AUTO 00000KT 02/00 A3013 390 89 -1000 000/00 RMK AO1 T00170000
54779K12N 12N20160308055010703/08/16 05:50:31  5-MIN K12N 081050Z AUTO 00000KT 02/01 A3013 390 92 -1000 000/00 RMK AO1 SLP208 T00170006
54779K12N 12N20160308055510003/08/16 05:55:31  5-MIN K12N 081055Z AUTO 00000KT 02/01 A3013 390 92 -1000 000/00 RMK AO1 T00170006
54779K12N 12N20160308060010003/08/16 06:00:31  5-MIN K12N 081100Z AUTO 00000KT 02/01 A3013 390 92 -1100 000/00 RMK AO1 T00170006
54779K12N 12N20160308060510003/08/16 06:05:31  5-MIN K12N 081105Z AUTO 00000KT 02/01 A3013 390 92 -1100 000/00 RMK AO1 T00170006
54779K12N 12N20160308061010003/08/16 06:10:31  5-MIN K12N 081110Z AUTO 00000KT 02/01 A3014 390 92 -1000 000/00 RMK AO1 T00220011
54779K12N 12N20160308061510003/08/16 06:15:31  5-MIN K12N 081115Z AUTO 00000KT 02/01 A3014 390 92 -1000 000/00 RMK AO1 T00220011
54779K12N 12N20160308062010003/08/16 06:20:31  5-MIN K12N 081120Z AUTO 21003KT 02/01 A3014 390 96 -1100 230/03 RMK AO1 T00170011
54779K12N 12N20160308062510003/08/16 06:25:31  5-MIN K12N 081125Z AUTO 00000KT 02/01 A3014 390 92 -1100 000/00 RMK AO1 T00170006
54779K12N 12N20160308063010003/08/16 06:30:31  5-MIN K12N 081130Z AUTO 00000KT 02/01 A3013 390 92 -1100 000/00 RMK AO1 T00170006
54779K12N 12N20160308063510003/08/16 06:35:31  5-MIN K12N 081135Z AUTO 00000KT 02/01 A3013 390 92 -1100 000/00 RMK AO1 T00170006
54779K12N 12N20160308064010003/08/16 06:40:31  5-MIN K12N 081140Z AUTO 00000KT 02/01 A3013 390 92 -1000 000/00 RMK AO1 T00170006
54779K12N 12N20160308064510003/08/16 06:45:31  5-MIN K12N 081145Z AUTO 00000KT 02/01 A3013 390 92 -1000 000/00 RMK AO1 T00170006
54779K12N 12N20160308065012503/08/16 06:50:31  5-MIN K12N 081150Z AUTO 00000KT 01/01 A3013 390 96 -1100 000/00 RMK AO1 SLP209 T00110006 10044 20011 53007
54779K12N 12N20160308065510003/08/16 06:55:31  5-MIN K12N 081155Z AUTO 00000KT 02/01 A3013 390 92 -1000 000/00 RMK AO1 T00170006
54779K12N 12N20160308070010003/08/16 07:00:31  5-MIN K12N 081200Z AUTO 00000KT 02/01 A3013 390 92 -1100 000/00 RMK AO1 T00170006
54779K12N 12N20160308070510003/08/16 07:05:31  5-MIN K12N 081205Z AUTO 00000KT 02/01 A3014 390 92 -1100 000/00 RMK AO1 T00170006
54779K12N 12N20160308071010003/08/16 07:10:31  5-MIN K12N 081210Z AUTO 00000KT 02/01 A3014 380 92 -1100 000/00 RMK AO1 T00170006
54779K12N 12N20160308071510003/08/16 07:15:31  5-MIN K12N 081215Z AUTO 00000KT 02/01 A3014 380 92 -1100 000/00 RMK AO1 T00170006
54779K12N 12N20160308072010003/08/16 07:20:31  5-MIN K12N 081220Z AUTO 00000KT 02/01 A3014 380 92 -1000 000/00 RMK AO1 T00220011
54779K12N 12N20160308072510003/08/16 07:25:31  5-MIN K12N 081225Z AUTO 00000KT 02/01 A3014 380 92 -1000 000/00 RMK AO1 T00220011
54779K12N 12N20160308073009903/08/16 07:30:31  5-MIN K12N 081230Z AUTO 00000KT 03/02 A3014 380 92 -900 000/00 RMK AO1 T00280017
54779K12N 12N20160308073509903/08/16 07:35:31  5-MIN K12N 081235Z AUTO 00000KT 03/02 A3015 380 92 -900 000/00 RMK AO1 T00330022
54779K12N 12N20160308074009903/08/16 07:40:31  5-MIN K12N 081240Z AUTO 00000KT 03/02 A3015 380 92 -900 000/00 RMK AO1 T00330022
54779K12N 12N20160308074509903/08/16 07:45:31  5-MIN K12N 081245Z AUTO 00000KT 03/02 A3015 370 89 -900 000/00 RMK AO1 T00330017
54779K12N 12N20160308075010603/08/16 07:50:31  5-MIN K12N 081250Z AUTO 00000KT 04/02 A3015 370 82 -700 000/00 RMK AO1 SLP216 T00440017
54779K12N 12N20160308075509903/08/16 07:55:31  5-MIN K12N 081255Z AUTO 00000KT 04/02 A3015 370 82 -700 000/00 RMK AO1 T00440017
54779K12N 12N20160308080009903/08/16 08:00:31  5-MIN K12N 081300Z AUTO 00000KT 06/02 A3015 370 76 -600 000/00 RMK AO1 T00560017
54779K12N 12N20160308080509903/08/16 08:05:31  5-MIN K12N 081305Z AUTO 00000KT 06/02 A3015 370 76 -500 000/00 RMK AO1 T00610022
54779K12N 12N20160308081009903/08/16 08:10:31  5-MIN K12N 081310Z AUTO 00000KT 07/02 A3015 370 73 -500 000/00 RMK AO1 T00670022
54779K12N 12N20160308081509903/08/16 08:15:31  5-MIN K12N 081315Z AUTO 00000KT 07/02 A3015 370 73 -500 000/00 RMK AO1 T00670022
54779K12N 12N20160308082009903/08/16 08:20:31  5-MIN K12N 081320Z AUTO 00000KT 07/02 A3015 370 70 -400 000/00 RMK AO1 T00720022
54779K12N 12N20160308082509903/08/16 08:25:31  5-MIN K12N 081325Z AUTO 00000KT 08/02 A3015 370 68 -300 000/00 RMK AO1 T00780022
54779K12N 12N20160308083009903/08/16 08:30:31  5-MIN K12N 081330Z AUTO 00000KT 08/02 A3015 370 68 -300 000/00 RMK AO1 T00780022
54779K12N 12N20160308083509903/08/16 08:35:31  5-MIN K12N 081335Z AUTO 00000KT 08/02 A3015 370 68 -300 000/00 RMK AO1 T00780022
54779K12N 12N20160308084009903/08/16 08:40:31  5-MIN K12N 081340Z AUTO 00000KT 08/02 A3015 370 65 -200 000/00 RMK AO1 T00830022
54779K12N 12N20160308084509903/08/16 08:45:31  5-MIN K12N 081345Z AUTO 00000KT 09/02 A3015 370 63 -200 000/00 RMK AO1 T00890022
54779K12N 12N20160308085010603/08/16 08:50:31  5-MIN K12N 081350Z AUTO 00000KT 09/02 A3015 370 60 -100 000/00 RMK AO1 SLP215 T00940022
54779K12N 12N20160308085509603/08/16 08:55:31  5-MIN K12N 081355Z AUTO 00000KT 10/02 A3015 370 58 0 000/00 RMK AO1 T01000022
54779K12N 12N20160308090009603/08/16 09:00:31  5-MIN K12N 081400Z AUTO 00000KT 11/02 A3015 370 56 0 000/00 RMK AO1 T01060022
54779K12N 12N20160308090509603/08/16 09:05:31  5-MIN K12N 081405Z AUTO 00000KT 11/02 A3015 370 54 0 000/00 RMK AO1 T01110022
54779K12N 12N20160308091009603/08/16 09:10:31  5-MIN K12N 081410Z AUTO 00000KT 11/02 A3015 370 54 0 000/00 RMK AO1 T01110022
54779K12N 12N20160308091509803/08/16 09:15:31  5-MIN K12N 081415Z AUTO 00000KT 12/02 A3015 370 50 200 000/00 RMK AO1 T01220022
54779K12N 12N20160308092009803/08/16 09:20:31  5-MIN K12N 081420Z AUTO 00000KT 13/02 A3015 380 46 200 000/00 RMK AO1 T01280017
54779K12N 12N20160308092509803/08/16 09:25:31  5-MIN K12N 081425Z AUTO 00000KT 13/02 A3015 370 46 300 000/00 RMK AO1 T01330022
54779K12N 12N20160308093009803/08/16 09:30:31  5-MIN K12N 081430Z AUTO 00000KT 13/02 A3015 370 45 300 000/00 RMK AO1 T01330017
54779K12N 12N20160308093509803/08/16 09:35:31  5-MIN K12N 081435Z AUTO 00000KT 13/02 A3015 370 45 300 000/00 RMK AO1 T01330017
54779K12N 12N20160308094009803/08/16 09:40:31  5-MIN K12N 081440Z AUTO 00000KT 13/02 A3015 370 45 300 000/00 RMK AO1 T01330017
54779K12N 12N20160308094509803/08/16 09:45:31  5-MIN K12N 081445Z AUTO 22004KT 14/02 A3015 370 43 400 240/04 RMK AO1 T01390017
54779K12N 12N20160308095011103/08/16 09:50:31  5-MIN K12N 081450Z AUTO 00000KT 14/02 A3015 370 43 400 000/00 RMK AO1 SLP215 T01390017 51011
54779K12N 12N20160308095509803/08/16 09:55:31  5-MIN K12N 081455Z AUTO 22003KT 14/02 A3015 370 43 400 230/03 RMK AO1 T01390017
54779K12N 12N20160308100009803/08/16 10:00:31  5-MIN K12N 081500Z AUTO 00000KT 15/02 A3015 370 42 500 000/00 RMK AO1 T01500022
54779K12N 12N20160308100509803/08/16 10:05:31  5-MIN K12N 081505Z AUTO VRB03KT 15/02 A3015 370 42 500 VRB/03 RMK AO1 T01500022
54779K12N 12N20160308101009803/08/16 10:10:31  5-MIN K12N 081510Z AUTO 00000KT 16/02 A3015 370 40 600 000/00 RMK AO1 T01560022
54779K12N 12N20160308101509803/08/16 10:15:31  5-MIN K12N 081515Z AUTO 00000KT 16/02 A3015 370 40 600 000/00 RMK AO1 T01560022
54779K12N 12N20160308102009803/08/16 10:20:31  5-MIN K12N 081520Z AUTO 00000KT 16/02 A3015 370 40 600 000/00 RMK AO1 T01560022
54779K12N 12N20160308102509803/08/16 10:25:31  5-MIN K12N 081525Z AUTO 00000KT 16/02 A3016 370 40 600 000/00 RMK AO1 T01560022
54779K12N 12N20160308103009803/08/16 10:30:31  5-MIN K12N 081530Z AUTO 00000KT 16/02 A3016 370 40 600 000/00 RMK AO1 T01560022
54779K12N 12N20160308103509803/08/16 10:35:31  5-MIN K12N 081535Z AUTO VRB03KT 16/02 A3015 370 39 600 VRB/03 RMK AO1 T01610022
54779K12N 12N20160308104009803/08/16 10:40:31  5-MIN K12N 081540Z AUTO 00000KT 16/02 A3015 370 39 600 000/00 RMK AO1 T01610022
54779K12N 12N20160308104509803/08/16 10:45:31  5-MIN K12N 081545Z AUTO 00000KT 16/02 A3015 370 39 600 000/00 RMK AO1 T01610022
54779K12N 12N20160308105010503/08/16 10:50:31  5-MIN K12N 081550Z AUTO VRB03KT 16/02 A3015 380 39 600 VRB/03 RMK AO1 SLP211 T01610022
54779K12N 12N20160308105509803/08/16 10:55:31  5-MIN K12N 081555Z AUTO 00000KT 17/02 A3015 370 37 700 000/00 RMK AO1 T01670022
54779K12N 12N20160308110009803/08/16 11:00:31  5-MIN K12N 081600Z AUTO 00000KT 17/02 A3014 380 36 800 000/00 RMK AO1 T01720022
54779K12N 12N20160308110509803/08/16 11:05:31  5-MIN K12N 081605Z AUTO 00000KT 18/03 A3014 380 35 900 000/00 RMK AO1 T01830028
54779K12N 12N20160308111009803/08/16 11:10:31  5-MIN K12N 081610Z AUTO VRB03KT 18/03 A3014 380 36 900 VRB/03 RMK AO1 T01830033
54779K12N 12N20160308111509803/08/16 11:15:31  5-MIN K12N 081615Z AUTO VRB03KT 18/02 A3014 380 34 900 VRB/03 RMK AO1 T01830022
54779K12N 12N20160308112009803/08/16 11:20:31  5-MIN K12N 081620Z AUTO 00000KT 18/03 A3014 380 36 800 000/00 RMK AO1 T01780028
54779K12N 12N20160308112509803/08/16 11:25:31  5-MIN K12N 081625Z AUTO VRB03KT 18/03 A3014 380 35 900 VRB/03 RMK AO1 T01830028
54779K12N 12N20160308113009803/08/16 11:30:31  5-MIN K12N 081630Z AUTO 00000KT 18/03 A3014 390 36 800 000/00 RMK AO1 T01780028
54779K12N 12N20160308113509903/08/16 11:35:31  5-MIN K12N 081635Z AUTO 00000KT 19/03 A3014 390 34 1000 000/00 RMK AO1 T01890028
54779K12N 12N20160308114009803/08/16 11:40:31  5-MIN K12N 081640Z AUTO VRB04KT 18/03 A3014 390 35 900 VRB/04 RMK AO1 T01830028
54779K12N 12N20160308114509803/08/16 11:45:31  5-MIN K12N 081645Z AUTO 00000KT 18/03 A3013 390 35 900 000/00 RMK AO1 T01830028
54779K12N 12N20160308115010603/08/16 11:50:31  5-MIN K12N 081650Z AUTO 00000KT 19/03 A3013 390 34 1000 000/00 RMK AO1 SLP205 T01890028
54779K12N 12N20160308115509903/08/16 11:55:31  5-MIN K12N 081655Z AUTO 21005KT 19/03 A3013 390 34 1000 230/05 RMK AO1 T01890028
54779K12N 12N20160308120009903/08/16 12:00:31  5-MIN K12N 081700Z AUTO VRB03KT 19/03 A3013 390 34 1000 VRB/03 RMK AO1 T01940033
54779K12N 12N20160308120509903/08/16 12:05:31  5-MIN K12N 081705Z AUTO 00000KT 20/03 A3013 400 31 1100 000/00 RMK AO1 T02000028
54779K12N 12N20160308121009903/08/16 12:10:31  5-MIN K12N 081710Z AUTO 21005KT 19/03 A3013 400 34 1000 220/05 RMK AO1 T01940033
54779K12N 12N20160308121509903/08/16 12:15:31  5-MIN K12N 081715Z AUTO 16005KT 19/03 A3012 400 34 1000 180/05 RMK AO1 T01940033
54779K12N 12N20160308122009903/08/16 12:20:31  5-MIN K12N 081720Z AUTO 19006KT 19/03 A3012 400 34 1100 210/06 RMK AO1 T01940033
54779K12N 12N20160308122509903/08/16 12:25:31  5-MIN K12N 081725Z AUTO 20006KT 19/03 A3012 400 34 1000 210/06 RMK AO1 T01890028
54779K12N 12N20160308123009903/08/16 12:30:31  5-MIN K12N 081730Z AUTO 17006KT 19/03 A3012 400 34 1100 180/06 RMK AO1 T01940033
54779K12N 12N20160308123509903/08/16 12:35:31  5-MIN K12N 081735Z AUTO VRB06KT 19/03 A3011 410 33 1100 VRB/06 RMK AO1 T01940028
54779K12N 12N20160308124009903/08/16 12:40:31  5-MIN K12N 081740Z AUTO VRB06KT 20/03 A3011 410 33 1100 VRB/06 RMK AO1 T02000033
54779K12N 12N20160308124509903/08/16 12:45:31  5-MIN K12N 081745Z AUTO VRB04KT 19/03 A3011 410 33 1100 VRB/04 RMK AO1 T01940028
54779K12N 12N20160308125012403/08/16 12:50:31  5-MIN K12N 081750Z AUTO 23008KT 19/03 A3011 410 33 1100 240/08 RMK AO1 SLP198 T01940028 10200 20017 51007
54779K12N 12N20160308125510503/08/16 12:55:31  5-MIN K12N 081755Z AUTO 24008G16KT 20/03 A3011 410 31 1100 250/08G16 RMK AO1 T02000028
54779K12N 12N20160308130012103/08/16 13:00:31  5-MIN K12N 081800Z AUTO 23008G16KT 190V270 20/03 A3011 410 31 1100 240/08G16 200V280 RMK AO1 T02000028
54779K12N 12N20160308130510503/08/16 13:05:31  5-MIN K12N 081805Z AUTO 22007G16KT 20/03 A3010 420 33 1100 230/07G16 RMK AO1 T02000033
54779K12N 12N20160308131009903/08/16 13:10:31  5-MIN K12N 081810Z AUTO 22008KT 19/03 A3010 420 33 1100 240/08 RMK AO1 T01940028
54779K12N 12N20160308131509903/08/16 13:15:31  5-MIN K12N 081815Z AUTO 22008KT 20/03 A3010 420 33 1100 230/08 RMK AO1 T02000033
54779K12N 12N20160308132009903/08/16 13:20:31  5-MIN K12N 081820Z AUTO 24006KT 20/03 A3009 420 31 1100 260/06 RMK AO1 T02000028
54779K12N 12N20160308132509903/08/16 13:25:31  5-MIN K12N 081825Z AUTO 22007KT 20/03 A3009 420 33 1100 230/07 RMK AO1 T02000033
54779K12N 12N20160308133009903/08/16 13:30:31  5-MIN K12N 081830Z AUTO VRB04KT 20/03 A3009 430 31 1200 VRB/04 RMK AO1 T02000028
54779K12N 12N20160308133509903/08/16 13:35:31  5-MIN K12N 081835Z AUTO 23008KT 20/03 A3009 430 31 1200 240/08 RMK AO1 T02000028
54779K12N 12N20160308134009903/08/16 13:40:31  5-MIN K12N 081840Z AUTO 21005KT 20/03 A3009 430 33 1200 220/05 RMK AO1 T02000033
54779K12N 12N20160308134509903/08/16 13:45:31  5-MIN K12N 081845Z AUTO VRB05KT 20/04 A3009 430 34 1200 VRB/05 RMK AO1 T02000039
54779K12N 12N20160308135010603/08/16 13:50:31  5-MIN K12N 081850Z AUTO 18005KT 19/03 A3009 430 33 1100 190/05 RMK AO1 SLP190 T01940028
54779K12N 12N20160308135509903/08/16 13:55:31  5-MIN K12N 081855Z AUTO 18006KT 20/03 A3009 430 33 1200 200/06 RMK AO1 T02000033
54779K12N 12N20160308140009903/08/16 14:00:31  5-MIN K12N 081900Z AUTO VRB06KT 20/03 A3009 430 33 1200 VRB/06 RMK AO1 T02000033
54779K12N 12N20160308140509903/08/16 14:05:31  5-MIN K12N 081905Z AUTO VRB04KT 20/03 A3009 430 33 1200 VRB/04 RMK AO1 T02000033
54779K12N 12N20160308141009903/08/16 14:10:31  5-MIN K12N 081910Z AUTO VRB04KT 20/03 A3008 430 33 1200 VRB/04 RMK AO1 T02000033
54779K12N 12N20160308141509903/08/16 14:15:31  5-MIN K12N 081915Z AUTO 22009KT 20/03 A3008 430 33 1200 230/09 RMK AO1 T02000033
54779K12N 12N20160308142009903/08/16 14:20:31  5-MIN K12N 081920Z AUTO VRB05KT 20/03 A3008 440 31 1200 VRB/05 RMK AO1 T02000028
54779K12N 12N20160308142509903/08/16 14:25:31  5-MIN K12N 081925Z AUTO VRB06KT 20/03 A3008 440 31 1200 VRB/06 RMK AO1 T02000028
54779K12N 12N20160308143009903/08/16 14:30:31  5-MIN K12N 081930Z AUTO VRB03KT 20/03 A3008 440 31 1200 VRB/03 RMK AO1 T02000028
54779K12N 12N20160308143509903/08/16 14:35:31  5-MIN K12N 081935Z AUTO VRB04KT 21/03 A3008 440 32 1200 VRB/04 RMK AO1 T02060033
54779K12N 12N20160308144009903/08/16 14:40:31  5-MIN K12N 081940Z AUTO 21006KT 20/03 A3008 440 33 1200 220/06 RMK AO1 T02000033
54779K12N 12N20160308144509903/08/16 14:45:31  5-MIN K12N 081945Z AUTO VRB03KT 20/03 A3008 440 31 1200 VRB/03 RMK AO1 T02000028
54779K12N 12N20160308145010603/08/16 14:50:31  5-MIN K12N 081950Z AUTO VRB05KT 20/03 A3008 440 33 1200 VRB/05 RMK AO1 SLP186 T02000033
54779K12N 12N20160308145509903/08/16 14:55:31  5-MIN K12N 081955Z AUTO VRB04KT 20/03 A3008 440 33 1200 VRB/04 RMK AO1 T02000033
54779K12N 12N20160308150009903/08/16 15:00:31  5-MIN K12N 082000Z AUTO 16006KT 20/03 A3008 440 31 1200 170/06 RMK AO1 T02000028
54779K12N 12N20160308150509903/08/16 15:05:31  5-MIN K12N 082005Z AUTO 22007KT 20/03 A3008 440 33 1200 230/07 RMK AO1 T02000033
54779K12N 12N20160308151009903/08/16 15:10:31  5-MIN K12N 082010Z AUTO 22006KT 20/03 A3008 440 33 1200 240/06 RMK AO1 T02000033
54779K12N 12N20160308151509903/08/16 15:15:31  5-MIN K12N 082015Z AUTO VRB03KT 20/03 A3008 440 31 1200 VRB/03 RMK AO1 T02000028
54779K12N 12N20160308152009903/08/16 15:20:31  5-MIN K12N 082020Z AUTO VRB04KT 20/03 A3008 440 33 1200 VRB/04 RMK AO1 T02000033
54779K12N 12N20160308152509903/08/16 15:25:31  5-MIN K12N 082025Z AUTO VRB03KT 20/03 A3008 440 31 1200 VRB/03 RMK AO1 T02000028
54779K12N 12N20160308153009903/08/16 15:30:31  5-MIN K12N 082030Z AUTO VRB05KT 21/03 A3008 440 32 1200 VRB/05 RMK AO1 T02060033
54779K12N 12N20160308153509903/08/16 15:35:31  5-MIN K12N 082035Z AUTO VRB03KT 21/03 A3007 440 30 1200 VRB/03 RMK AO1 T02060028
54779K12N 12N20160308154008903/08/16 15:40:31  5-MIN K12N 082040Z AUTO 21/03 A3007 440 29 1300 M /M RMK AO1 T02110028
54779K12N 12N20160308154509903/08/16 15:45:31  5-MIN K12N 082045Z AUTO 17006KT 21/03 A3007 440 29 1300 190/06 RMK AO1 T02110028
54779K12N 12N20160308155011203/08/16 15:50:31  5-MIN K12N 082050Z AUTO 21005KT 21/03 A3007 440 30 1200 220/05 RMK AO1 SLP185 T02060028 58015
54779K12N 12N20160308155509903/08/16 15:55:31  5-MIN K12N 082055Z AUTO 22005KT 21/03 A3007 440 30 1200 230/05 RMK AO1 T02060028
54779K12N 12N20160308160009903/08/16 16:00:31  5-MIN K12N 082100Z AUTO VRB03KT 21/03 A3007 440 29 1300 VRB/03 RMK AO1 T02110028
54779K12N 12N20160308160509903/08/16 16:05:31  5-MIN K12N 082105Z AUTO 22005KT 21/03 A3007 440 29 1300 240/05 RMK AO1 T02110028
54779K12N 12N20160308161009903/08/16 16:10:31  5-MIN K12N 082110Z AUTO 22006KT 21/03 A3007 440 32 1200 230/06 RMK AO1 T02060033
54779K12N 12N20160308161509903/08/16 16:15:31  5-MIN K12N 082115Z AUTO VRB04KT 20/03 A3007 440 31 1200 VRB/04 RMK AO1 T02000028
54779K12N 12N20160308162009903/08/16 16:20:31  5-MIN K12N 082120Z AUTO 21005KT 20/03 A3007 450 33 1200 220/05 RMK AO1 T02000033
54779K12N 12N20160308162509903/08/16 16:25:31  5-MIN K12N 082125Z AUTO 22005KT 20/03 A3007 450 31 1200 230/05 RMK AO1 T02000028
54779K12N 12N20160308163009903/08/16 16:30:31  5-MIN K12N 082130Z AUTO 22004KT 20/03 A3007 450 31 1200 230/04 RMK AO1 T02000028
54779K12N 12N20160308163509903/08/16 16:35:31  5-MIN K12N 082135Z AUTO 21003KT 20/03 A3007 450 33 1200 220/03 RMK AO1 T02000033
54779K12N 12N20160308164009903/08/16 16:40:31  5-MIN K12N 082140Z AUTO 21004KT 20/03 A3007 450 31 1200 230/04 RMK AO1 T02000028
54779K12N 12N20160308164509903/08/16 16:45:31  5-MIN K12N 082145Z AUTO VRB05KT 20/03 A3007 450 31 1200 VRB/05 RMK AO1 T02000028
54779K12N 12N20160308165010603/08/16 16:50:31  5-MIN K12N 082150Z AUTO 20004KT 19/03 A3007 450 33 1100 220/04 RMK AO1 SLP184 T01940028
54779K12N 12N20160308165509903/08/16 16:55:31  5-MIN K12N 082155Z AUTO 22004KT 20/03 A3007 450 33 1200 230/04 RMK AO1 T02000033
54779K12N 12N20160308170009903/08/16 17:00:31  5-MIN K12N 082200Z AUTO VRB03KT 20/03 A3007 450 31 1200 VRB/03 RMK AO1 T02000028
54779K12N 12N20160308170509903/08/16 17:05:31  5-MIN K12N 082205Z AUTO 00000KT 20/03 A3007 450 31 1200 000/00 RMK AO1 T02000028
54779K12N 12N20160308171009903/08/16 17:10:31  5-MIN K12N 082210Z AUTO 00000KT 19/03 A3007 450 34 1100 000/00 RMK AO1 T01940033
54779K12N 12N20160308171509903/08/16 17:15:31  5-MIN K12N 082215Z AUTO 00000KT 19/03 A3007 450 35 1000 000/00 RMK AO1 T01890033
54779K12N 12N20160308172009803/08/16 17:20:31  5-MIN K12N 082220Z AUTO 00000KT 18/03 A3007 450 38 900 000/00 RMK AO1 T01780033
54779K12N 12N20160308172509803/08/16 17:25:31  5-MIN K12N 082225Z AUTO 00000KT 18/03 A3007 450 38 900 000/00 RMK AO1 T01780033
54779K12N 12N20160308173009803/08/16 17:30:31  5-MIN K12N 082230Z AUTO 00000KT 17/03 A3007 450 39 900 000/00 RMK AO1 T01720033
54779K12N 12N20160308173509803/08/16 17:35:31  5-MIN K12N 082235Z AUTO 00000KT 17/03 A3007 450 39 900 000/00 RMK AO1 T01720033
54779K12N 12N20160308174009803/08/16 17:40:31  5-MIN K12N 082240Z AUTO 00000KT 16/03 A3007 450 42 700 000/00 RMK AO1 T01610033
54779K12N 12N20160308174509803/08/16 17:45:31  5-MIN K12N 082245Z AUTO 00000KT 16/04 A3007 440 45 700 000/00 RMK AO1 T01560039
54779K12N 12N20160308175010503/08/16 17:50:31  5-MIN K12N 082250Z AUTO 00000KT 16/03 A3007 440 43 700 000/00 RMK AO1 SLP187 T01560033
54779K12N 12N20160308175509803/08/16 17:55:31  5-MIN K12N 082255Z AUTO 00000KT 15/04 A3008 440 47 600 000/00 RMK AO1 T01500039
54779K12N 12N20160308180009803/08/16 18:00:31  5-MIN K12N 082300Z AUTO 00000KT 15/04 A3008 440 47 600 000/00 RMK AO1 T01500039
54779K12N 12N20160308180509803/08/16 18:05:31  5-MIN K12N 082305Z AUTO 00000KT 14/04 A3008 440 49 500 000/00 RMK AO1 T01440039
54779K12N 12N20160308181009803/08/16 18:10:31  5-MIN K12N 082310Z AUTO 00000KT 14/04 A3008 440 49 500 000/00 RMK AO1 T01440039
54779K12N 12N20160308181509803/08/16 18:15:31  5-MIN K12N 082315Z AUTO 00000KT 14/04 A3008 440 50 400 000/00 RMK AO1 T01390039
54779K12N 12N20160308182009803/08/16 18:20:31  5-MIN K12N 082320Z AUTO 00000KT 13/04 A3008 430 54 400 000/00 RMK AO1 T01330044
54779K12N 12N20160308182509803/08/16 18:25:31  5-MIN K12N 082325Z AUTO 00000KT 13/04 A3009 430 56 300 000/00 RMK AO1 T01280044
54779K12N 12N20160308183009803/08/16 18:30:31  5-MIN K12N 082330Z AUTO VRB04KT 14/04 A3009 430 49 500 VRB/04 RMK AO1 T01440039
54779K12N 12N20160308183509803/08/16 18:35:31  5-MIN K12N 082335Z AUTO VRB03KT 16/03 A3009 430 43 600 VRB/03 RMK AO1 T01560033
54779K12N 12N20160308184009803/08/16 18:40:31  5-MIN K12N 082340Z AUTO 00000KT 14/04 A3009 430 49 500 000/00 RMK AO1 T01440039
54779K12N 12N20160308184509803/08/16 18:45:31  5-MIN K12N 082345Z AUTO VRB04KT 14/03 A3009 430 47 500 VRB/04 RMK AO1 T01440033
54779K12N 12N20160308185012303/08/16 18:50:31  5-MIN K12N 082350Z AUTO 15003KT 15/03 A3009 430 45 600 170/03 RMK AO1 SLP195 T01500033 10211 20128 56012
54779K12N 12N20160308185509803/08/16 18:55:31  5-MIN K12N 082355Z AUTO 17003KT 14/03 A3009 430 47 500 180/03 RMK AO1 T01440033
54779K12N 12N20160308190009803/08/16 19:00:31  5-MIN K12N 090000Z AUTO VRB03KT 14/03 A3009 420 47 500 VRB/03 RMK AO1 T01440033
54779K12N 12N20160308190509803/08/16 19:05:31  5-MIN K12N 090005Z AUTO VRB03KT 15/03 A3010 420 45 600 VRB/03 RMK AO1 T01500033
54779K12N 12N20160308191009803/08/16 19:10:31  5-MIN K12N 090010Z AUTO 00000KT 14/03 A3010 420 47 500 000/00 RMK AO1 T01440033
54779K12N 12N20160308191509803/08/16 19:15:31  5-MIN K12N 090015Z AUTO VRB03KT 14/03 A3010 420 47 500 VRB/03 RMK AO1 T01440033
54779K12N 12N20160308192009803/08/16 19:20:31  5-MIN K12N 090020Z AUTO VRB03KT 14/03 A3010 420 47 500 VRB/03 RMK AO1 T01440033
54779K12N 12N20160308192509803/08/16 19:25:31  5-MIN K12N 090025Z AUTO VRB03KT 14/03 A3010 420 47 500 VRB/03 RMK AO1 T01440033
54779K12N 12N20160308193009803/08/16 19:30:31  5-MIN K12N 090030Z AUTO 19003KT 14/03 A3010 420 47 500 200/03 RMK AO1 T01440033
54779K12N 12N20160308193509803/08/16 19:35:31  5-MIN K12N 090035Z AUTO 00000KT 14/03 A3010 420 48 400 000/00 RMK AO1 T01390033
54779K12N 12N20160308194009803/08/16 19:40:31  5-MIN K12N 090040Z AUTO VRB03KT 14/03 A3010 420 47 500 VRB/03 RMK AO1 T01440033
54779K12N 12N20160308194509803/08/16 19:45:31  5-MIN K12N 090045Z AUTO VRB03KT 14/03 A3010 420 48 400 VRB/03 RMK AO1 T01390033
54779K12N 12N20160308195010503/08/16 19:50:31  5-MIN K12N 090050Z AUTO VRB04KT 14/03 A3011 410 48 400 VRB/04 RMK AO1 SLP198 T01390033
54779K12N 12N20160308195509803/08/16 19:55:31  5-MIN K12N 090055Z AUTO 00000KT 13/03 A3011 410 50 400 000/00 RMK AO1 T01330033
54779K12N 12N20160308200009803/08/16 20:00:31  5-MIN K12N 090100Z AUTO 23004KT 13/03 A3011 410 52 300 240/04 RMK AO1 T01280033
54779K12N 12N20160308200509803/08/16 20:05:31  5-MIN K12N 090105Z AUTO 00000KT 13/03 A3011 410 50 300 000/00 RMK AO1 T01330033
54779K12N 12N20160308201009803/08/16 20:10:31  5-MIN K12N 090110Z AUTO 00000KT 13/03 A3011 410 52 300 000/00 RMK AO1 T01280033
54779K12N 12N20160308201509803/08/16 20:15:31  5-MIN K12N 090115Z AUTO 23003KT 13/03 A3011 410 52 300 240/03 RMK AO1 T01280033
54779K12N 12N20160308202009803/08/16 20:20:31  5-MIN K12N 090120Z AUTO VRB03KT 12/03 A3011 410 54 200 VRB/03 RMK AO1 T01220033
54779K12N 12N20160308202509803/08/16 20:25:31  5-MIN K12N 090125Z AUTO 21003KT 13/03 A3011 410 52 300 220/03 RMK AO1 T01280033
54779K12N 12N20160308203009803/08/16 20:30:31  5-MIN K12N 090130Z AUTO VRB03KT 12/03 A3011 410 54 200 VRB/03 RMK AO1 T01220033
54779K12N 12N20160308203509803/08/16 20:35:31  5-MIN K12N 090135Z AUTO VRB03KT 12/03 A3011 410 56 100 VRB/03 RMK AO1 T01170033
54779K12N 12N20160308204009803/08/16 20:40:31  5-MIN K12N 090140Z AUTO 00000KT 12/03 A3011 410 56 100 000/00 RMK AO1 T01170033
54779K12N 12N20160308204509803/08/16 20:45:31  5-MIN K12N 090145Z AUTO VRB03KT 12/03 A3011 410 56 100 VRB/03 RMK AO1 T01170033
54779K12N 12N20160308205010503/08/16 20:50:31  5-MIN K12N 090150Z AUTO 17004KT 12/03 A3011 410 54 200 190/04 RMK AO1 SLP197 T01220033
54779K12N 12N20160308205509803/08/16 20:55:31  5-MIN K12N 090155Z AUTO 21003KT 12/03 A3011 410 54 200 230/03 RMK AO1 T01220033
54779K12N 12N20160308210009803/08/16 21:00:31  5-MIN K12N 090200Z AUTO 22004KT 12/03 A3011 410 56 100 240/04 RMK AO1 T01170033
54779K12N 12N20160308210509803/08/16 21:05:31  5-MIN K12N 090205Z AUTO 22003KT 11/03 A3012 410 58 100 230/03 RMK AO1 T01110033
54779K12N 12N20160308211009603/08/16 21:10:31  5-MIN K12N 090210Z AUTO 00000KT 11/03 A3012 410 61 0 000/00 RMK AO1 T01060033
54779K12N 12N20160308211509803/08/16 21:15:31  5-MIN K12N 090215Z AUTO 00000KT 11/03 A3012 400 58 100 000/00 RMK AO1 T01110033
54779K12N 12N20160308212009603/08/16 21:20:31  5-MIN K12N 090220Z AUTO 22003KT 11/03 A3012 400 61 0 240/03 RMK AO1 T01060033
54779K12N 12N20160308212509603/08/16 21:25:31  5-MIN K12N 090225Z AUTO 00000KT 10/03 A3012 400 63 0 000/00 RMK AO1 T01000033
54779K12N 12N20160308213009603/08/16 21:30:31  5-MIN K12N 090230Z AUTO 00000KT 11/03 A3012 400 61 0 000/00 RMK AO1 T01060033
54779K12N 12N20160308213509903/08/16 21:35:31  5-MIN K12N 090235Z AUTO 21003KT 09/03 A3012 400 65 -100 230/03 RMK AO1 T00940033
54779K12N 12N20160308214009903/08/16 21:40:31  5-MIN K12N 090240Z AUTO 22003KT 09/03 A3012 400 65 -100 230/03 RMK AO1 T00940033
54779K12N 12N20160308214509903/08/16 21:45:31  5-MIN K12N 090245Z AUTO 00000KT 09/03 A3012 400 65 -100 000/00 RMK AO1 T00940033
54779K12N 12N20160308215011203/08/16 21:50:31  5-MIN K12N 090250Z AUTO 00000KT 09/03 A3012 400 65 -100 000/00 RMK AO1 SLP202 T00940033 53006
54779K12N 12N20160308215509903/08/16 21:55:31  5-MIN K12N 090255Z AUTO 00000KT 09/03 A3012 400 65 -100 000/00 RMK AO1 T00940033
54779K12N 12N20160308220009903/08/16 22:00:31  5-MIN K12N 090300Z AUTO 22003KT 09/03 A3012 400 65 -100 230/03 RMK AO1 T00940033
54779K12N 12N20160308220509603/08/16 22:05:31  5-MIN K12N 090305Z AUTO 21003KT 10/03 A3012 400 63 0 220/03 RMK AO1 T01000033
54779K12N 12N20160308221009603/08/16 22:10:31  5-MIN K12N 090310Z AUTO 21003KT 10/03 A3012 400 63 0 220/03 RMK AO1 T01000033
54779K12N 12N20160308221509903/08/16 22:15:31  5-MIN K12N 090315Z AUTO 21003KT 09/04 A3012 400 68 -100 220/03 RMK AO1 T00940039
54779K12N 12N20160308222009903/08/16 22:20:31  5-MIN K12N 090320Z AUTO 00000KT 08/03 A3012 400 70 -200 000/00 RMK AO1 T00830033
54779K12N 12N20160308222509903/08/16 22:25:31  5-MIN K12N 090325Z AUTO 00000KT 07/03 A3012 400 76 -300 000/00 RMK AO1 T00720033
54779K12N 12N20160308223009903/08/16 22:30:31  5-MIN K12N 090330Z AUTO 00000KT 07/03 A3012 410 79 -400 000/00 RMK AO1 T00670033
54779K12N 12N20160308223509903/08/16 22:35:31  5-MIN K12N 090335Z AUTO 00000KT 07/03 A3011 410 76 -300 000/00 RMK AO1 T00720033
54779K12N 12N20160308224009903/08/16 22:40:31  5-MIN K12N 090340Z AUTO 00000KT 07/03 A3011 410 73 -300 000/00 RMK AO1 T00720028
54779K12N 12N20160308224509903/08/16 22:45:31  5-MIN K12N 090345Z AUTO 00000KT 07/03 A3011 410 76 -400 000/00 RMK AO1 T00670028
54779K12N 12N20160308225010603/08/16 22:50:31  5-MIN K12N 090350Z AUTO 22004KT 07/03 A3011 410 76 -400 240/04 RMK AO1 SLP199 T00670028
54779K12N 12N20160308225509903/08/16 22:55:31  5-MIN K12N 090355Z AUTO 21003KT 07/03 A3011 410 76 -300 220/03 RMK AO1 T00720033
54779K12N 12N20160308230009903/08/16 23:00:31  5-MIN K12N 090400Z AUTO 20003KT 08/03 A3012 410 73 -300 210/03 RMK AO1 T00780033
54779K12N 12N20160308230509903/08/16 23:05:31  5-MIN K12N 090405Z AUTO 22004KT 09/03 A3012 410 68 -100 230/04 RMK AO1 T00890033
54779K12N 12N20160308231009903/08/16 23:10:31  5-MIN K12N 090410Z AUTO 21003KT 09/03 A3012 400 65 -100 220/03 RMK AO1 T00940033
54779K12N 12N20160308231509903/08/16 23:15:31  5-MIN K12N 090415Z AUTO 00000KT 09/03 A3012 400 68 -100 000/00 RMK AO1 T00890033
54779K12N 12N20160308232009903/08/16 23:20:31  5-MIN K12N 090420Z AUTO 00000KT 08/03 A3012 400 73 -300 000/00 RMK AO1 T00780033
54779K12N 12N20160308232509903/08/16 23:25:31  5-MIN K12N 090425Z AUTO 00000KT 08/03 A3011 410 73 -300 000/00 RMK AO1 T00780033
54779K12N 12N20160308233009903/08/16 23:30:31  5-MIN K12N 090430Z AUTO 00000KT 08/03 A3011 410 73 -300 000/00 RMK AO1 T00780033
54779K12N 12N20160308233509903/08/16 23:35:31  5-MIN K12N 090435Z AUTO 00000KT 08/03 A3011 410 73 -300 000/00 RMK AO1 T00780033
54779K12N 12N20160308234009903/08/16 23:40:31  5-MIN K12N 090440Z AUTO 00000KT 07/04 A3011 410 79 -300 000/00 RMK AO1 T00720039
54779K12N 12N20160308234509903/08/16 23:45:31  5-MIN K12N 090445Z AUTO 00000KT 07/03 A3012 400 76 -300 000/00 RMK AO1 T00720033
54779K12N 12N20160308235011603/08/16 23:50:31  5-MIN K12N 090450Z AUTO 18003KT 07/04 A3012 400 79 -300 190/03 RMK AO1 SLP198 T00720039 402110011
54779K12N 12N20160308235509903/08/16 23:55:31  5-MIN K12N 090455Z AUTO 00000KT 07/03 A3012 410 79 -400 000/00 RMK AO1 T00670033
54779K12N 12N20160309000009903/09/16 00:00:31  5-MIN K12N 090500Z AUTO 22003KT 07/03 A3011 410 76 -300 230/03 RMK AO1 T00720033
54779K12N 12N20160309000509903/09/16 00:05:31  5-MIN K12N 090505Z AUTO 21003KT 08/03 A3011 410 73 -300 220/03 RMK AO1 T00780033
54779K12N 12N20160309001009903/09/16 00:10:31  5-MIN K12N 090510Z AUTO 22003KT 07/03 A3010 420 76 -300 230/03 RMK AO1 T00720033
54779K12N 12N20160309001509903/09/16 00:15:31  5-MIN K12N 090515Z AUTO 21004KT 07/03 A3010 420 76 -300 220/04 RMK AO1 T00720033
54779K12N 12N20160309002009903/09/16 00:20:31  5-MIN K12N 090520Z AUTO 00000KT 08/03 A3010 420 73 -300 000/00 RMK AO1 T00780033
54779K12N 12N20160309002509903/09/16 00:25:31  5-MIN K12N 090525Z AUTO 00000KT 07/03 A3011 410 79 -400 000/00 RMK AO1 T00670033
54779K12N 12N20160309003009903/09/16 00:30:31  5-MIN K12N 090530Z AUTO 20003KT 06/03 A3010 420 82 -500 210/03 RMK AO1 T00610033
54779K12N 12N20160309003509903/09/16 00:35:31  5-MIN K12N 090535Z AUTO 21003KT 07/04 A3010 420 82 -400 220/03 RMK AO1 T00670039
54779K12N 12N20160309004009903/09/16 00:40:31  5-MIN K12N 090540Z AUTO 21003KT 07/04 A3009 430 82 -400 230/03 RMK AO1 T00670039
54779K12N 12N20160309004509903/09/16 00:45:31  5-MIN K12N 090545Z AUTO 21003KT 07/03 A3010 420 76 -300 220/03 RMK AO1 T00720033
54779K12N 12N20160309005012403/09/16 00:50:31  5-MIN K12N 090550Z AUTO 20003KT 07/03 A3010 420 79 -400 220/03 RMK AO1 SLP192 T00670033 10150 20061 52010
54779K12N 12N20160309005509903/09/16 00:55:31  5-MIN K12N 090555Z AUTO 00000KT 06/03 A3010 420 82 -500 000/00 RMK AO1 T00610033
54779K12N 12N20160309010009903/09/16 01:00:31  5-MIN K12N 090600Z AUTO 22003KT 06/03 A3010 420 82 -500 240/03 RMK AO1 T00610033
54779K12N 12N20160309010509903/09/16 01:05:31  5-MIN K12N 090605Z AUTO 22003KT 07/03 A3010 420 79 -400 240/03 RMK AO1 T00670033
54779K12N 12N20160309011009903/09/16 01:10:31  5-MIN K12N 090610Z AUTO 21003KT 06/03 A3011 410 85 -500 220/03 RMK AO1 T00560033
54779K12N 12N20160309011509903/09/16 01:15:31  5-MIN K12N 090615Z AUTO 00000KT 06/03 A3011 410 82 -500 000/00 RMK AO1 T00610033
54779K12N 12N20160309012009903/09/16 01:20:31  5-MIN K12N 090620Z AUTO 00000KT 06/03 A3010 420 82 -500 000/00 RMK AO1 T00610033
54779K12N 12N20160309012509903/09/16 01:25:31  5-MIN K12N 090625Z AUTO 00000KT 06/03 A3010 420 82 -500 000/00 RMK AO1 T00610033
54779K12N 12N20160309013009903/09/16 01:30:31  5-MIN K12N 090630Z AUTO 00000KT 06/03 A3010 420 85 -500 000/00 RMK AO1 T00560033
54779K12N 12N20160309013509903/09/16 01:35:31  5-MIN K12N 090635Z AUTO 00000KT 06/03 A3011 410 85 -500 000/00 RMK AO1 T00560033
54779K12N 12N20160309014009903/09/16 01:40:31  5-MIN K12N 090640Z AUTO 00000KT 06/03 A3011 410 82 -500 000/00 RMK AO1 T00560028
54779K12N 12N20160309014509903/09/16 01:45:31  5-MIN K12N 090645Z AUTO 00000KT 06/03 A3011 410 82 -500 000/00 RMK AO1 T00560028
54779K12N 12N20160309015010603/09/16 01:50:31  5-MIN K12N 090650Z AUTO 00000KT 06/03 A3011 410 85 -500 000/00 RMK AO1 SLP196 T00560033
54779K12N 12N20160309015509903/09/16 01:55:31  5-MIN K12N 090655Z AUTO 00000KT 06/03 A3011 410 85 -500 000/00 RMK AO1 T00560033
54779K12N 12N20160309020009903/09/16 02:00:31  5-MIN K12N 090700Z AUTO 00000KT 06/03 A3011 410 85 -500 000/00 RMK AO1 T00560033
54779K12N 12N20160309020509903/09/16 02:05:31  5-MIN K12N 090705Z AUTO 00000KT 05/03 A3011 410 85 -600 000/00 RMK AO1 T00500028
54779K12N 12N20160309021009903/09/16 02:10:31  5-MIN K12N 090710Z AUTO 00000KT 06/03 A3011 410 82 -500 000/00 RMK AO1 T00560028
54779K12N 12N20160309021509903/09/16 02:15:31  5-MIN K12N 090715Z AUTO 00000KT 06/03 A3011 410 85 -500 000/00 RMK AO1 T00560033
54779K12N 12N20160309022009903/09/16 02:20:31  5-MIN K12N 090720Z AUTO 00000KT 06/03 A3011 410 85 -500 000/00 RMK AO1 T00560033
54779K12N 12N20160309022509903/09/16 02:25:31  5-MIN K12N 090725Z AUTO 00000KT 05/03 A3011 410 89 -600 000/00 RMK AO1 T00500033
54779K12N 12N20160309023009903/09/16 02:30:31  5-MIN K12N 090730Z AUTO 00000KT 05/03 A3011 410 89 -600 000/00 RMK AO1 T00500033
54779K12N 12N20160309023509903/09/16 02:35:31  5-MIN K12N 090735Z AUTO 00000KT 04/03 A3011 410 89 -700 000/00 RMK AO1 T00440028
54779K12N 12N20160309024009903/09/16 02:40:31  5-MIN K12N 090740Z AUTO 00000KT 04/03 A3011 410 89 -700 000/00 RMK AO1 T00440028
54779K12N 12N20160309024509903/09/16 02:45:31  5-MIN K12N 090745Z AUTO 00000KT 04/03 A3011 410 89 -700 000/00 RMK AO1 T00440028
54779K12N 12N20160309025010603/09/16 02:50:31  5-MIN K12N 090750Z AUTO 00000KT 05/03 A3011 410 85 -600 000/00 RMK AO1 SLP198 T00500028
54779K12N 12N20160309025509903/09/16 02:55:31  5-MIN K12N 090755Z AUTO 00000KT 04/03 A3011 410 89 -700 000/00 RMK AO1 T00440028
54779K12N 12N20160309030009903/09/16 03:00:31  5-MIN K12N 090800Z AUTO 00000KT 05/03 A3011 410 85 -600 000/00 RMK AO1 T00500028
54779K12N 12N20160309030509903/09/16 03:05:31  5-MIN K12N 090805Z AUTO 00000KT 04/03 A3011 410 89 -700 000/00 RMK AO1 T00440028
54779K12N 12N20160309031009903/09/16 03:10:31  5-MIN K12N 090810Z AUTO 00000KT 04/03 A3011 410 89 -700 000/00 RMK AO1 T00440028
54779K12N 12N20160309031509903/09/16 03:15:31  5-MIN K12N 090815Z AUTO 00000KT 04/03 A3011 410 89 -700 000/00 RMK AO1 T00440028
54779K12N 12N20160309032009903/09/16 03:20:31  5-MIN K12N 090820Z AUTO 00000KT 04/03 A3011 410 89 -700 000/00 RMK AO1 T00440028
54779K12N 12N20160309032509903/09/16 03:25:31  5-MIN K12N 090825Z AUTO 00000KT 04/03 A3011 410 89 -700 000/00 RMK AO1 T00440028
54779K12N 12N20160309033009903/09/16 03:30:31  5-MIN K12N 090830Z AUTO 00000KT 04/03 A3011 410 89 -700 000/00 RMK AO1 T00440028
54779K12N 12N20160309033509903/09/16 03:35:31  5-MIN K12N 090835Z AUTO 00000KT 04/03 A3011 410 92 -700 000/00 RMK AO1 T00390028
54779K12N 12N20160309034009903/09/16 03:40:31  5-MIN K12N 090840Z AUTO 00000KT 04/03 A3011 410 92 -700 000/00 RMK AO1 T00390028
54779K12N 12N20160309034509903/09/16 03:45:31  5-MIN K12N 090845Z AUTO 00000KT 04/03 A3011 410 92 -700 000/00 RMK AO1 T00390028
54779K12N 12N20160309035011203/09/16 03:50:31  5-MIN K12N 090850Z AUTO 00000KT 04/02 A3012 400 89 -800 000/00 RMK AO1 SLP199 T00390022 58007
54779K12N 12N20160309035509903/09/16 03:55:31  5-MIN K12N 090855Z AUTO 00000KT 04/02 A3012 400 89 -800 000/00 RMK AO1 T00390022
54779K12N 12N20160309040009903/09/16 04:00:31  5-MIN K12N 090900Z AUTO 00000KT 04/02 A3012 400 89 -800 000/00 RMK AO1 T00390022
54779K12N 12N20160309040509903/09/16 04:05:31  5-MIN K12N 090905Z AUTO 00000KT 04/02 A3012 400 89 -800 000/00 RMK AO1 T00390022
54779K12N 12N20160309041009903/09/16 04:10:31  5-MIN K12N 090910Z AUTO 00000KT 03/02 A3012 400 92 -800 000/00 RMK AO1 T00330022
54779K12N 12N20160309041509903/09/16 04:15:31  5-MIN K12N 090915Z AUTO 00000KT 03/02 A3012 400 92 -800 000/00 RMK AO1 T00330022
54779K12N 12N20160309042009903/09/16 04:20:31  5-MIN K12N 090920Z AUTO 00000KT 04/02 A3012 400 89 -800 000/00 RMK AO1 T00390022
54779K12N 12N20160309042509903/09/16 04:25:31  5-MIN K12N 090925Z AUTO 00000KT 03/02 A3012 400 92 -800 000/00 RMK AO1 T00330022
54779K12N 12N20160309043009903/09/16 04:30:31  5-MIN K12N 090930Z AUTO 00000KT 03/02 A3012 400 92 -800 000/00 RMK AO1 T00330022
54779K12N 12N20160309043509903/09/16 04:35:31  5-MIN K12N 090935Z AUTO 00000KT 03/02 A3012 400 92 -900 000/00 RMK AO1 T00280017
54779K12N 12N20160309044009903/09/16 04:40:31  5-MIN K12N 090940Z AUTO 00000KT 03/02 A3012 400 92 -900 000/00 RMK AO1 T00280017
54779K12N 12N20160309044509903/09/16 04:45:31  5-MIN K12N 090945Z AUTO 00000KT 03/02 A3012 400 92 -900 000/00 RMK AO1 T00280017
54779K12N 12N20160309045010603/09/16 04:50:31  5-MIN K12N 090950Z AUTO 00000KT 03/02 A3012 410 92 -900 000/00 RMK AO1 SLP199 T00280017
54779K12N 12N20160309045510003/09/16 04:55:31  5-MIN K12N 090955Z AUTO 00000KT 02/01 A3012 400 92 -1000 000/00 RMK AO1 T00220011
54779K12N 12N20160309050009903/09/16 05:00:31  5-MIN K12N 091000Z AUTO 00000KT 03/01 A3012 400 89 -900 000/00 RMK AO1 T00280011
54779K12N 12N20160309050509903/09/16 05:05:31  5-MIN K12N 091005Z AUTO 00000KT 03/01 A3012 400 89 -900 000/00 RMK AO1 T00280011
54779K12N 12N20160309051009903/09/16 05:10:31  5-MIN K12N 091010Z AUTO 00000KT 03/01 A3012 400 89 -900 000/00 RMK AO1 T00280011
54779K12N 12N20160309051510003/09/16 05:15:31  5-MIN K12N 091015Z AUTO 00000KT 02/01 A3012 400 92 -1000 000/00 RMK AO1 T00220011
54779K12N 12N20160309052010003/09/16 05:20:31  5-MIN K12N 091020Z AUTO 00000KT 02/01 A3012 400 92 -1000 000/00 RMK AO1 T00220011
54779K12N 12N20160309052510003/09/16 05:25:31  5-MIN K12N 091025Z AUTO 00000KT 02/01 A3013 400 92 -1000 000/00 RMK AO1 T00220011
54779K12N 12N20160309053010003/09/16 05:30:31  5-MIN K12N 091030Z AUTO 00000KT 02/01 A3013 400 92 -1000 000/00 RMK AO1 T00220011
54779K12N 12N20160309053510003/09/16 05:35:31  5-MIN K12N 091035Z AUTO 00000KT 02/01 A3013 400 92 -1000 000/00 RMK AO1 T00220011
54779K12N 12N20160309054010003/09/16 05:40:31  5-MIN K12N 091040Z AUTO 00000KT 02/01 A3013 390 92 -1000 000/00 RMK AO1 T00220011
54779K12N 12N20160309054509903/09/16 05:45:31  5-MIN K12N 091045Z AUTO 00000KT 03/01 A3013 390 89 -900 000/00 RMK AO1 T00280011
54779K12N 12N20160309055010703/09/16 05:50:31  5-MIN K12N 091050Z AUTO 00000KT 02/01 A3013 390 92 -1000 000/00 RMK AO1 SLP207 T00220011
54779K12N 12N20160309055510003/09/16 05:55:31  5-MIN K12N 091055Z AUTO 00000KT 02/01 A3013 390 92 -1000 000/00 RMK AO1 T00220011
54779K12N 12N20160309060010003/09/16 06:00:31  5-MIN K12N 091100Z AUTO 00000KT 02/01 A3013 390 92 -1000 000/00 RMK AO1 T00220011
54779K12N 12N20160309060510003/09/16 06:05:31  5-MIN K12N 091105Z AUTO 00000KT 02/01 A3013 390 92 -1000 000/00 RMK AO1 T00220011
54779K12N 12N20160309061010003/09/16 06:10:31  5-MIN K12N 091110Z AUTO 00000KT 02/01 A3013 390 92 -1000 000/00 RMK AO1 T00220011
54779K12N 12N20160309061510003/09/16 06:15:31  5-MIN K12N 091115Z AUTO 00000KT 02/01 A3013 390 92 -1000 000/00 RMK AO1 T00220011
54779K12N 12N20160309062010003/09/16 06:20:31  5-MIN K12N 091120Z AUTO 00000KT 02/01 A3014 390 96 -1100 000/00 RMK AO1 T00170011
54779K12N 12N20160309062510003/09/16 06:25:31  5-MIN K12N 091125Z AUTO 00000KT 02/01 A3013 390 92 -1000 000/00 RMK AO1 T00220011
54779K12N 12N20160309063010003/09/16 06:30:31  5-MIN K12N 091130Z AUTO 00000KT 02/01 A3013 390 96 -1100 000/00 RMK AO1 T00170011
54779K12N 12N20160309063510003/09/16 06:35:31  5-MIN K12N 091135Z AUTO 00000KT 02/01 A3014 390 92 -1100 000/00 RMK AO1 T00170006
54779K12N 12N20160309064010003/09/16 06:40:31  5-MIN K12N 091140Z AUTO 00000KT 02/01 A3014 390 92 -1100 000/00 RMK AO1 T00170006
54779K12N 12N20160309064510003/09/16 06:45:31  5-MIN K12N 091145Z AUTO 00000KT 02/01 A3013 390 92 -1000 000/00 RMK AO1 T00170006
54779K12N 12N20160309065012503/09/16 06:50:31  5-MIN K12N 091150Z AUTO 00000KT 02/01 A3013 390 92 -1000 000/00 RMK AO1 SLP208 T00170006 10067 20017 51005
54779K12N 12N20160309065510003/09/16 06:55:31  5-MIN K12N 091155Z AUTO 00000KT 02/01 A3013 390 92 -1100 000/00 RMK AO1 T00170006
54779K12N 12N20160309070010003/09/16 07:00:31  5-MIN K12N 091200Z AUTO 00000KT 02/01 A3014 390 92 -1100 000/00 RMK AO1 T00170006
54779K12N 12N20160309070510003/09/16 07:05:31  5-MIN K12N 091205Z AUTO 00000KT 02/01 A3014 390 89 -1000 000/00 RMK AO1 T00220006
54779K12N 12N20160309071010003/09/16 07:10:31  5-MIN K12N 091210Z AUTO 00000KT 02/01 A3014 390 92 -1000 000/00 RMK AO1 T00220011
54779K12N 12N20160309071510003/09/16 07:15:31  5-MIN K12N 091215Z AUTO 00000KT 02/01 A3014 390 92 -1000 000/00 RMK AO1 T00220011
54779K12N 12N20160309072009903/09/16 07:20:31  5-MIN K12N 091220Z AUTO 00000KT 03/02 A3014 390 92 -900 000/00 RMK AO1 T00280017
54779K12N 12N20160309072509903/09/16 07:25:31  5-MIN K12N 091225Z AUTO 00000KT 03/02 A3014 390 96 -900 000/00 RMK AO1 T00280022
54779K12N 12N20160309073010003/09/16 07:30:31  5-MIN K12N 091230Z AUTO 00000KT 03/03 A3013 390 100 -800 000/00 RMK AO1 T00330033
54779K12N 12N20160309073509903/09/16 07:35:31  5-MIN K12N 091235Z AUTO 00000KT 04/04 A3013 390 96 -700 000/00 RMK AO1 T00440039
54779K12N 12N20160309074009903/09/16 07:40:31  5-MIN K12N 091240Z AUTO 00000KT 05/04 A3013 390 96 -600 000/00 RMK AO1 T00500044
54779K12N 12N20160309074509903/09/16 07:45:31  5-MIN K12N 091245Z AUTO 00000KT 06/04 A3013 390 92 -600 000/00 RMK AO1 T00560044
54779K12N 12N20160309075010603/09/16 07:50:31  5-MIN K12N 091250Z AUTO 00000KT 06/04 A3013 390 86 -500 000/00 RMK AO1 SLP206 T00610039
54779K12N 12N20160309075509903/09/16 07:55:31  5-MIN K12N 091255Z AUTO 00000KT 07/04 A3013 390 82 -400 000/00 RMK AO1 T00670039
54779K12N 12N20160309080009903/09/16 08:00:31  5-MIN K12N 091300Z AUTO 00000KT 07/04 A3013 390 82 -400 000/00 RMK AO1 T00720044
54779K12N 12N20160309080509903/09/16 08:05:31  5-MIN K12N 091305Z AUTO 00000KT 08/04 A3013 390 76 -300 000/00 RMK AO1 T00780039
54779K12N 12N20160309081009903/09/16 08:10:31  5-MIN K12N 091310Z AUTO 00000KT 08/04 A3013 390 79 -300 000/00 RMK AO1 T00780044
54779K12N 12N20160309081509903/09/16 08:15:31  5-MIN K12N 091315Z AUTO 00000KT 09/04 A3014 390 73 -200 000/00 RMK AO1 T00890044
54779K12N 12N20160309082009903/09/16 08:20:31  5-MIN K12N 091320Z AUTO 00000KT 09/04 A3014 390 71 -100 000/00 RMK AO1 T00940044
54779K12N 12N20160309082509603/09/16 08:25:31  5-MIN K12N 091325Z AUTO 00000KT 10/04 A3014 380 68 0 000/00 RMK AO1 T01000044
54779K12N 12N20160309083009603/09/16 08:30:31  5-MIN K12N 091330Z AUTO 00000KT 11/04 A3014 380 66 0 000/00 RMK AO1 T01060044
54779K12N 12N20160309083509803/09/16 08:35:31  5-MIN K12N 091335Z AUTO 20003KT 12/04 A3014 380 58 100 210/03 RMK AO1 T01170039
54779K12N 12N20160309084009803/09/16 08:40:31  5-MIN K12N 091340Z AUTO 00000KT 12/04 A3014 380 58 100 000/00 RMK AO1 T01170039
54779K12N 12N20160309084509803/09/16 08:45:31  5-MIN K12N 091345Z AUTO 00000KT 12/04 A3014 380 56 200 000/00 RMK AO1 T01220039
54779K12N 12N20160309085010503/09/16 08:50:31  5-MIN K12N 091350Z AUTO 17003KT 12/03 A3014 380 54 200 190/03 RMK AO1 SLP208 T01220033
54779K12N 12N20160309085509803/09/16 08:55:31  5-MIN K12N 091355Z AUTO 00000KT 13/04 A3014 380 54 200 000/00 RMK AO1 T01280039
54779K12N 12N20160309090009803/09/16 09:00:31  5-MIN K12N 091400Z AUTO 18003KT 13/03 A3014 380 50 300 190/03 RMK AO1 T01330033
54779K12N 12N20160309090509803/09/16 09:05:31  5-MIN K12N 091405Z AUTO 19003KT 14/03 A3014 380 48 400 200/03 RMK AO1 T01390033
54779K12N 12N20160309091009803/09/16 09:10:31  5-MIN K12N 091410Z AUTO 20003KT 14/04 A3014 380 49 400 210/03 RMK AO1 T01440039
54779K12N 12N20160309091509803/09/16 09:15:31  5-MIN K12N 091415Z AUTO 20004KT 14/03 A3014 380 47 400 210/04 RMK AO1 T01440033
54779K12N 12N20160309092009803/09/16 09:20:31  5-MIN K12N 091420Z AUTO 21004KT 14/04 A3014 380 49 400 220/04 RMK AO1 T01440039
54779K12N 12N20160309092509803/09/16 09:25:31  5-MIN K12N 091425Z AUTO 19004KT 14/03 A3014 380 45 400 210/04 RMK AO1 T01440028
54779K12N 12N20160309093009803/09/16 09:30:31  5-MIN K12N 091430Z AUTO VRB04KT 15/03 A3014 380 45 500 VRB/04 RMK AO1 T01500033
54779K12N 12N20160309093509803/09/16 09:35:31  5-MIN K12N 091435Z AUTO 20005KT 16/03 A3014 380 43 600 210/05 RMK AO1 T01560033
54779K12N 12N20160309094009803/09/16 09:40:31  5-MIN K12N 091440Z AUTO VRB03KT 16/03 A3014 380 42 600 VRB/03 RMK AO1 T01610033
54779K12N 12N20160309094509803/09/16 09:45:31  5-MIN K12N 091445Z AUTO 22004KT 17/03 A3014 380 40 700 240/04 RMK AO1 T01670033
54779K12N 12N20160309095011103/09/16 09:50:31  5-MIN K12N 091450Z AUTO 21005KT 17/03 A3014 390 40 700 220/05 RMK AO1 SLP204 T01670033 53005
54779K12N 12N20160309095509803/09/16 09:55:31  5-MIN K12N 091455Z AUTO 21004KT 17/03 A3013 390 39 800 230/04 RMK AO1 T01720033
54779K12N 12N20160309100009803/09/16 10:00:31  5-MIN K12N 091500Z AUTO 20005KT 17/03 A3013 390 39 800 210/05 RMK AO1 T01720033
54779K12N 12N20160309100509803/09/16 10:05:31  5-MIN K12N 091505Z AUTO 20004KT 17/03 A3013 390 39 800 210/04 RMK AO1 T01720033
54779K12N 12N20160309101009803/09/16 10:10:31  5-MIN K12N 091510Z AUTO 20006KT 18/03 A3012 400 38 900 210/06 RMK AO1 T01780033
54779K12N 12N20160309101511403/09/16 10:15:31  5-MIN K12N 091515Z AUTO 21007KT 160V230 18/03 A3012 400 38 900 220/07 170V240 RMK AO1 T01780033
54779K12N 12N20160309102009803/09/16 10:20:31  5-MIN K12N 091520Z AUTO 21005KT 18/03 A3012 400 36 900 220/05 RMK AO1 T01830033
54779K12N 12N20160309102509803/09/16 10:25:31  5-MIN K12N 091525Z AUTO 22005KT 18/03 A3011 410 36 900 230/05 RMK AO1 T01830033
54779K12N 12N20160309112009903/09/16 11:20:31  5-MIN K12N 091620Z AUTO 21008KT 22/04 A3009 430 30 1400 220/08 RMK AO1 T02220039
54779K12N 12N20160309112509903/09/16 11:25:31  5-MIN K12N 091625Z AUTO 22010KT 22/04 A3009 430 31 1300 230/10 RMK AO1 T02170039
54779K12N 12N20160309113009903/09/16 11:30:31  5-MIN K12N 091630Z AUTO VRB05KT 22/04 A3009 430 30 1400 VRB/05 RMK AO1 T02220039
54779K12N 12N20160309113509903/09/16 11:35:31  5-MIN K12N 091635Z AUTO 21005KT 22/04 A3008 440 30 1400 230/05 RMK AO1 T02220039
54779K12N 12N20160309114009903/09/16 11:40:31  5-MIN K12N 091640Z AUTO VRB05KT 23/04 A3008 440 29 1500 VRB/05 RMK AO1 T02280039
54779K12N 12N20160309114509903/09/16 11:45:31  5-MIN K12N 091645Z AUTO VRB06KT 23/03 A3008 440 27 1500 VRB/06 RMK AO1 T02280033
54779K12N 12N20160309115010603/09/16 11:50:31  5-MIN K12N 091650Z AUTO 19007KT 23/03 A3008 440 27 1500 210/07 RMK AO1 SLP183 T02280033
54779K12N 12N20160309115509903/09/16 11:55:31  5-MIN K12N 091655Z AUTO VRB06KT 23/03 A3007 440 27 1500 VRB/06 RMK AO1 T02280033
54779K12N 12N20160309120009903/09/16 12:00:31  5-MIN K12N 091700Z AUTO VRB05KT 23/03 A3007 450 26 1600 VRB/05 RMK AO1 T02330033
54779K12N 12N20160309120509903/09/16 12:05:31  5-MIN K12N 091705Z AUTO 22009KT 24/03 A3007 450 25 1600 230/09 RMK AO1 T02390028
54779K12N 12N20160309121011503/09/16 12:10:31  5-MIN K12N 091710Z AUTO 23008KT 200V270 23/02 A3007 450 24 1600 240/08 210V280 RMK AO1 T02330022
54779K12N 12N20160309121510503/09/16 12:15:31  5-MIN K12N 091715Z AUTO 23006G15KT 24/03 A3006 450 25 1600 240/06G15 RMK AO1 T02390028
54779K12N 12N20160309122010503/09/16 12:20:31  5-MIN K12N 091720Z AUTO 22010G15KT 24/03 A3006 460 25 1600 240/10G15 RMK AO1 T02390028
54779K12N 12N20160309122510503/09/16 12:25:31  5-MIN K12N 091725Z AUTO 22012G17KT 23/03 A3006 460 25 1600 230/12G17 RMK AO1 T02330028
54779K12N 12N20160309123012103/09/16 12:30:31  5-MIN K12N 091730Z AUTO 21007G17KT 190V250 24/03 A3006 460 25 1600 230/07G17 200V260 RMK AO1 T02390028
54779K12N 12N20160309123510503/09/16 12:35:31  5-MIN K12N 091735Z AUTO 24006G14KT 24/03 A3006 460 26 1600 250/06G14 RMK AO1 T02390033
54779K12N 12N20160309124011503/09/16 12:40:31  5-MIN K12N 091740Z AUTO 21008KT 170V240 24/03 A3005 460 26 1600 230/08 180V250 RMK AO1 T02390033
54779K12N 12N20160309124510503/09/16 12:45:31  5-MIN K12N 091745Z AUTO 22011G17KT 24/03 A3005 460 25 1600 230/11G17 RMK AO1 T02390028
54779K12N 12N20160309125013003/09/16 12:50:31  5-MIN K12N 091750Z AUTO 21010G17KT 24/03 A3005 460 25 1600 230/10G17 RMK AO1 SLP174 T02390028 10239 20017 50001
54779K12N 12N20160309125510503/09/16 12:55:31  5-MIN K12N 091755Z AUTO 20009G16KT 24/03 A3005 470 25 1600 210/09G16 RMK AO1 T02390028
54779K12N 12N20160309130012103/09/16 13:00:31  5-MIN K12N 091800Z AUTO 25010G16KT 200V260 24/03 A3004 470 25 1600 260/10G16 210V270 RMK AO1 T02390028
54779K12N 12N20160309130512103/09/16 13:05:31  5-MIN K12N 091805Z AUTO 23008G16KT 200V270 24/02 A3004 470 23 1700 240/08G16 210V280 RMK AO1 T02440022
54779K12N 12N20160309131012103/09/16 13:10:31  5-MIN K12N 091810Z AUTO 23007G15KT 180V270 24/02 A3004 470 22 1700 240/07G15 190V280 RMK AO1 T02440017
54779K12N 12N20160309131512103/09/16 13:15:31  5-MIN K12N 091815Z AUTO 23009G15KT 190V280 24/01 A3004 480 21 1700 240/09G15 200V290 RMK AO1 T02440011
54779K12N 12N20160309132011503/09/16 13:20:31  5-MIN K12N 091820Z AUTO 22007KT 190V250 24/02 A3003 480 22 1700 230/07 200V260 RMK AO1 T02440017
54779K12N 12N20160309132509903/09/16 13:25:31  5-MIN K12N 091825Z AUTO 21008KT 24/02 A3003 490 23 1700 220/08 RMK AO1 T02440022
54779K12N 12N20160309133010503/09/16 13:30:31  5-MIN K12N 091830Z AUTO VRB06G18KT 24/02 A3003 490 24 1700 VRB/06G18 RMK AO1 T02390022
54779K12N 12N20160309133510503/09/16 13:35:31  5-MIN K12N 091835Z AUTO 21009G18KT 24/02 A3002 490 23 1700 220/09G18 RMK AO1 T02440022
54779K12N 12N20160309134010503/09/16 13:40:31  5-MIN K12N 091840Z AUTO VRB06G18KT 24/02 A3002 490 24 1700 VRB/06G18 RMK AO1 T02390022
54779K12N 12N20160309134512103/09/16 13:45:31  5-MIN K12N 091845Z AUTO 20010G18KT 140V230 24/02 A3002 500 23 1700 210/10G18 150V240 RMK AO1 T02440022
54779K12N 12N20160309135011203/09/16 13:50:31  5-MIN K12N 091850Z AUTO 21008G18KT 24/02 A3001 500 23 1700 220/08G18 RMK AO1 SLP161 T02440022
54779K12N 12N20160309135512103/09/16 13:55:31  5-MIN K12N 091855Z AUTO 20008G18KT 160V240 24/02 A3001 500 24 1700 210/08G18 170V250 RMK AO1 T02390022
54779K12N 12N20160309140010503/09/16 14:00:31  5-MIN K12N 091900Z AUTO 22008G15KT 24/03 A3001 500 24 1800 230/08G15 RMK AO1 T02440028
54779K12N 12N20160309140510503/09/16 14:05:31  5-MIN K12N 091905Z AUTO 21009G18KT 24/02 A3001 500 23 1800 220/09G18 RMK AO1 T02440022
54779K12N 12N20160309141012103/09/16 14:10:31  5-MIN K12N 091910Z AUTO 21010G18KT 180V250 24/03 A3001 500 24 1800 230/10G18 190V260 RMK AO1 T02440028
54779K12N 12N20160309141510503/09/16 14:15:31  5-MIN K12N 091915Z AUTO 20011G17KT 24/02 A3001 500 23 1800 220/11G17 RMK AO1 T02440022
54779K12N 12N20160309142012103/09/16 14:20:31  5-MIN K12N 091920Z AUTO 21009G17KT 170V240 24/02 A3001 500 22 1800 220/09G17 180V250 RMK AO1 T02440017
54779K12N 12N20160309142510503/09/16 14:25:31  5-MIN K12N 091925Z AUTO 22010G17KT 24/02 A3001 500 24 1700 230/10G17 RMK AO1 T02390022
54779K12N 12N20160309143012103/09/16 14:30:31  5-MIN K12N 091930Z AUTO 22008G17KT 190V250 24/02 A3001 500 23 1700 230/08G17 200V260 RMK AO1 T02440022
54779K12N 12N20160309143510503/09/16 14:35:31  5-MIN K12N 091935Z AUTO 22011G17KT 25/02 A3001 500 22 1800 230/11G17 RMK AO1 T02500022
54779K12N 12N20160309144010503/09/16 14:40:31  5-MIN K12N 091940Z AUTO 22012G17KT 24/02 A3000 510 23 1800 240/12G17 RMK AO1 T02440022
54779K12N 12N20160309144512103/09/16 14:45:31  5-MIN K12N 091945Z AUTO 22010G17KT 190V260 25/02 A3000 510 22 1800 230/10G17 200V270 RMK AO1 T02500022
54779K12N 12N20160309145011203/09/16 14:50:31  5-MIN K12N 091950Z AUTO 22012G19KT 24/02 A3000 510 23 1800 230/12G19 RMK AO1 SLP157 T02440022
54779K12N 12N20160309145510503/09/16 14:55:31  5-MIN K12N 091955Z AUTO 22008G19KT 25/02 A3000 510 22 1800 230/08G19 RMK AO1 T02500022
54779K12N 12N20160309150010503/09/16 15:00:31  5-MIN K12N 092000Z AUTO 21010G16KT 25/02 A3000 510 22 1800 230/10G16 RMK AO1 T02500022
54779K12N 12N20160309150510503/09/16 15:05:31  5-MIN K12N 092005Z AUTO 24010G16KT 25/02 A3000 510 21 1800 250/10G16 RMK AO1 T02500017
54779K12N 12N20160309151010503/09/16 15:10:31  5-MIN K12N 092010Z AUTO 23011G17KT 25/02 A3000 510 21 1800 240/11G17 RMK AO1 T02500017
54779K12N 12N20160309151512103/09/16 15:15:31  5-MIN K12N 092015Z AUTO 23009G17KT 180V260 25/02 A3000 510 21 1800 240/09G17 190V270 RMK AO1 T02500017
54779K12N 12N20160309152010503/09/16 15:20:31  5-MIN K12N 092020Z AUTO 22010G17KT 25/02 A3000 510 21 1800 240/10G17 RMK AO1 T02500017
54779K12N 12N20160309152512103/09/16 15:25:31  5-MIN K12N 092025Z AUTO 21010G17KT 170V240 25/02 A3000 510 21 1800 220/10G17 180V250 RMK AO1 T02500017
54779K12N 12N20160309153010503/09/16 15:30:31  5-MIN K12N 092030Z AUTO 22011G18KT 24/02 A3000 510 22 1800 230/11G18 RMK AO1 T02440017
54779K12N 12N20160309153510503/09/16 15:35:31  5-MIN K12N 092035Z AUTO VRB06G18KT 24/02 A3000 510 23 1800 VRB/06G18 RMK AO1 T02440022
54779K12N 12N20160309154010503/09/16 15:40:31  5-MIN K12N 092040Z AUTO 21012G18KT 25/02 A3000 520 22 1800 220/12G18 RMK AO1 T02500022
54779K12N 12N20160309154512103/09/16 15:45:31  5-MIN K12N 092045Z AUTO 21008G19KT 160V240 24/02 A3000 520 23 1800 220/08G19 170V250 RMK AO1 T02440022
54779K12N 12N20160309155011803/09/16 15:50:31  5-MIN K12N 092050Z AUTO 21010G19KT 24/02 A3000 510 23 1800 220/10G19 RMK AO1 SLP158 T02440022 56028
54779K12N 12N20160309155510503/09/16 15:55:31  5-MIN K12N 092055Z AUTO 21008G17KT 24/02 A3000 510 22 1800 220/08G17 RMK AO1 T02440017
54779K12N 12N20160309160010503/09/16 16:00:31  5-MIN K12N 092100Z AUTO 20008G19KT 24/02 A3000 510 22 1800 210/08G19 RMK AO1 T02440017
54779K12N 12N20160309160510503/09/16 16:05:31  5-MIN K12N 092105Z AUTO 21011G19KT 24/02 A3000 510 22 1800 230/11G19 RMK AO1 T02440017
54779K12N 12N20160309161010503/09/16 16:10:31  5-MIN K12N 092110Z AUTO 23012G20KT 24/02 A3000 510 22 1800 240/12G20 RMK AO1 T02440017
54779K12N 12N20160309161510503/09/16 16:15:31  5-MIN K12N 092115Z AUTO 22009G21KT 24/02 A3000 510 22 1800 230/09G21 RMK AO1 T02440017
54779K12N 12N20160309162010503/09/16 16:20:31  5-MIN K12N 092120Z AUTO 22010G21KT 24/02 A3000 510 23 1800 230/10G21 RMK AO1 T02440022
54779K12N 12N20160309162509903/09/16 16:25:31  5-MIN K12N 092125Z AUTO 23008KT 24/02 A3000 510 23 1800 240/08 RMK AO1 T02440022
54779K12N 12N20160309163010503/09/16 16:30:31  5-MIN K12N 092130Z AUTO 22009G15KT 24/02 A3000 520 23 1800 230/09G15 RMK AO1 T02440022
54779K12N 12N20160309163510503/09/16 16:35:31  5-MIN K12N 092135Z AUTO 22009G16KT 24/02 A2999 520 24 1700 240/09G16 RMK AO1 T02390022
54779K12N 12N20160309164010503/09/16 16:40:31  5-MIN K12N 092140Z AUTO 23009G16KT 24/02 A2999 520 24 1700 240/09G16 RMK AO1 T02390022
54779K12N 12N20160309164510503/09/16 16:45:31  5-MIN K12N 092145Z AUTO 21010G16KT 24/02 A2999 520 24 1700 230/10G16 RMK AO1 T02390022
54779K12N 12N20160309165011203/09/16 16:50:31  5-MIN K12N 092150Z AUTO 21008G16KT 23/02 A2999 520 24 1600 220/08G16 RMK AO1 SLP155 T02330022
54779K12N 12N20160309165510503/09/16 16:55:31  5-MIN K12N 092155Z AUTO 21007G16KT 23/02 A2999 520 24 1600 230/07G16 RMK AO1 T02330022
54779K12N 12N20160309170010503/09/16 17:00:31  5-MIN K12N 092200Z AUTO 22010G17KT 23/02 A2999 520 25 1600 230/10G17 RMK AO1 T02280022
54779K12N 12N20160309170510503/09/16 17:05:31  5-MIN K12N 092205Z AUTO 22011G17KT 23/02 A3000 520 24 1600 230/11G17 RMK AO1 T02330022
54779K12N 12N20160309171010503/09/16 17:10:31  5-MIN K12N 092210Z AUTO 21006G16KT 23/03 A3000 510 26 1600 220/06G16 RMK AO1 T02280028
54779K12N 12N20160309171510503/09/16 17:15:31  5-MIN K12N 092215Z AUTO 21009G17KT 23/03 A3000 510 25 1600 220/09G17 RMK AO1 T02330028
54779K12N 12N20160309172010503/09/16 17:20:31  5-MIN K12N 092220Z AUTO 21007G17KT 23/03 A3000 510 26 1600 230/07G17 RMK AO1 T02280028
54779K12N 12N20160309172509903/09/16 17:25:31  5-MIN K12N 092225Z AUTO VRB06KT 23/03 A3000 510 27 1600 VRB/06 RMK AO1 T02280033
54779K12N 12N20160309173011503/09/16 17:30:31  5-MIN K12N 092230Z AUTO 21008KT 170V240 23/03 A3000 510 26 1600 220/08 180V250 RMK AO1 T02280028
54779K12N 12N20160309173509903/09/16 17:35:31  5-MIN K12N 092235Z AUTO 21006KT 23/03 A3000 510 27 1600 220/06 RMK AO1 T02280033
54779K12N 12N20160309174009903/09/16 17:40:31  5-MIN K12N 092240Z AUTO VRB06KT 22/03 A3000 510 28 1500 VRB/06 RMK AO1 T02220033
54779K12N 12N20160309174509903/09/16 17:45:31  5-MIN K12N 092245Z AUTO 22006KT 22/03 A3001 510 28 1500 230/06 RMK AO1 T02220033
54779K12N 12N20160309175010603/09/16 17:50:31  5-MIN K12N 092250Z AUTO 21007KT 22/04 A3000 510 30 1500 220/07 RMK AO1 SLP159 T02220039
54779K12N 12N20160309175509903/09/16 17:55:31  5-MIN K12N 092255Z AUTO 19004KT 22/04 A3000 510 30 1500 210/04 RMK AO1 T02220039
54779K12N 12N20160309180009903/09/16 18:00:31  5-MIN K12N 092300Z AUTO VRB06KT 22/04 A3000 510 30 1500 VRB/06 RMK AO1 T02220039
54779K12N 12N20160309180509903/09/16 18:05:31  5-MIN K12N 092305Z AUTO 21006KT 22/04 A3000 510 31 1400 220/06 RMK AO1 T02170039
54779K12N 12N20160309181009903/09/16 18:10:31  5-MIN K12N 092310Z AUTO 21006KT 22/04 A3000 510 31 1400 220/06 RMK AO1 T02170039
54779K12N 12N20160309181509903/09/16 18:15:31  5-MIN K12N 092315Z AUTO 21004KT 22/04 A3000 510 31 1400 220/04 RMK AO1 T02170039
54779K12N 12N20160309182009903/09/16 18:20:31  5-MIN K12N 092320Z AUTO 21004KT 21/04 A3000 510 33 1400 220/04 RMK AO1 T02110044
54779K12N 12N20160309182509903/09/16 18:25:31  5-MIN K12N 092325Z AUTO 21005KT 22/04 A3000 510 32 1400 220/05 RMK AO1 T02170044
54779K12N 12N20160309183009903/09/16 18:30:31  5-MIN K12N 092330Z AUTO 20004KT 22/04 A3000 510 31 1400 210/04 RMK AO1 T02170039
54779K12N 12N20160309183509903/09/16 18:35:31  5-MIN K12N 092335Z AUTO 21004KT 21/04 A3000 510 33 1400 220/04 RMK AO1 T02110044
54779K12N 12N20160309184009903/09/16 18:40:31  5-MIN K12N 092340Z AUTO 20003KT 21/04 A3000 510 33 1400 210/03 RMK AO1 T02110044
54779K12N 12N20160309184509903/09/16 18:45:31  5-MIN K12N 092345Z AUTO VRB04KT 21/04 A3000 510 33 1400 VRB/04 RMK AO1 T02110044
54779K12N 12N20160309185012403/09/16 18:50:31  5-MIN K12N 092350Z AUTO VRB04KT 21/04 A3000 510 33 1400 VRB/04 RMK AO1 SLP159 T02110044 10250 20211 55016
54779K12N 12N20160309185509903/09/16 18:55:31  5-MIN K12N 092355Z AUTO 20004KT 21/04 A3000 510 34 1300 220/04 RMK AO1 T02060044
54779K12N 12N20160309190009903/09/16 19:00:31  5-MIN K12N 100000Z AUTO VRB04KT 21/04 A3000 510 34 1300 VRB/04 RMK AO1 T02060044
54779K12N 12N20160309190509903/09/16 19:05:31  5-MIN K12N 100005Z AUTO 20004KT 21/04 A3000 510 32 1400 210/04 RMK AO1 T02110039
54779K12N 12N20160309191009903/09/16 19:10:31  5-MIN K12N 100010Z AUTO 20004KT 21/04 A3000 510 33 1300 210/04 RMK AO1 T02060039
54779K12N 12N20160309191509903/09/16 19:15:31  5-MIN K12N 100015Z AUTO 20004KT 20/04 A3000 510 34 1300 210/04 RMK AO1 T02000039
54779K12N 12N20160309192009903/09/16 19:20:31  5-MIN K12N 100020Z AUTO 20003KT 20/04 A3000 510 34 1300 210/03 RMK AO1 T02000039
54779K12N 12N20160309192509903/09/16 19:25:31  5-MIN K12N 100025Z AUTO 20003KT 20/04 A3000 520 34 1300 210/03 RMK AO1 T02000039
54779K12N 12N20160309193009903/09/16 19:30:31  5-MIN K12N 100030Z AUTO 20003KT 19/04 A2999 520 35 1200 210/03 RMK AO1 T01940039
54779K12N 12N20160309193509903/09/16 19:35:31  5-MIN K12N 100035Z AUTO 21003KT 19/04 A2999 520 38 1100 220/03 RMK AO1 T01890044
54779K12N 12N20160309194009903/09/16 19:40:31  5-MIN K12N 100040Z AUTO 20003KT 19/04 A2999 520 35 1200 220/03 RMK AO1 T01940039
54779K12N 12N20160309194509903/09/16 19:45:31  5-MIN K12N 100045Z AUTO 21004KT 19/04 A2999 520 36 1100 220/04 RMK AO1 T01890039
54779K12N 12N20160309195010603/09/16 19:50:31  5-MIN K12N 100050Z AUTO 20004KT 19/04 A2999 520 36 1100 210/04 RMK AO1 SLP157 T01890039
54779K12N 12N20160309195509903/09/16 19:55:31  5-MIN K12N 100055Z AUTO 20003KT 19/04 A2999 520 35 1200 220/03 RMK AO1 T01940039
54779K12N 12N20160309200009903/09/16 20:00:31  5-MIN K12N 100100Z AUTO 20004KT 19/04 A2999 520 36 1100 220/04 RMK AO1 T01890039
54779K12N 12N20160309200509903/09/16 20:05:31  5-MIN K12N 100105Z AUTO 20004KT 19/04 A3000 520 36 1100 220/04 RMK AO1 T01890039
54779K12N 12N20160309201009903/09/16 20:10:31  5-MIN K12N 100110Z AUTO 21004KT 19/04 A3000 510 36 1100 220/04 RMK AO1 T01890039
54779K12N 12N20160309201509903/09/16 20:15:31  5-MIN K12N 100115Z AUTO 20004KT 19/04 A3000 510 35 1200 210/04 RMK AO1 T01940039
54779K12N 12N20160309202009903/09/16 20:20:31  5-MIN K12N 100120Z AUTO 21004KT 19/04 A3000 510 36 1100 220/04 RMK AO1 T01890039
54779K12N 12N20160309202509903/09/16 20:25:31  5-MIN K12N 100125Z AUTO 20003KT 19/04 A3000 510 36 1100 220/03 RMK AO1 T01890039
54779K12N 12N20160309203009903/09/16 20:30:31  5-MIN K12N 100130Z AUTO 20004KT 19/04 A3000 510 36 1100 220/04 RMK AO1 T01890039
54779K12N 12N20160309203509903/09/16 20:35:31  5-MIN K12N 100135Z AUTO 20004KT 19/03 A3000 510 35 1100 220/04 RMK AO1 T01890033
54779K12N 12N20160309204009903/09/16 20:40:31  5-MIN K12N 100140Z AUTO VRB04KT 19/03 A3000 510 35 1100 VRB/04 RMK AO1 T01890033
54779K12N 12N20160309204509903/09/16 20:45:31  5-MIN K12N 100145Z AUTO 20003KT 19/03 A3000 510 35 1100 210/03 RMK AO1 T01890033
54779K12N 12N20160309205010603/09/16 20:50:31  5-MIN K12N 100150Z AUTO VRB04KT 18/04 A3000 510 38 1100 VRB/04 RMK AO1 SLP157 T01830039
54779K12N 12N20160309205509903/09/16 20:55:31  5-MIN K12N 100155Z AUTO 20004KT 18/04 A3000 510 38 1100 220/04 RMK AO1 T01830039
54779K12N 12N20160309210009903/09/16 21:00:31  5-MIN K12N 100200Z AUTO 20004KT 18/04 A3000 510 38 1100 210/04 RMK AO1 T01830039
54779K12N 12N20160309210509903/09/16 21:05:31  5-MIN K12N 100205Z AUTO 21004KT 19/03 A3000 510 35 1100 230/04 RMK AO1 T01890033
54779K12N 12N20160309211009903/09/16 21:10:31  5-MIN K12N 100210Z AUTO 22006KT 18/04 A3001 500 38 1100 230/06 RMK AO1 T01830039
54779K12N 12N20160309211509903/09/16 21:15:31  5-MIN K12N 100215Z AUTO 21005KT 18/04 A3001 500 38 1100 230/05 RMK AO1 T01830039
54779K12N 12N20160309212009903/09/16 21:20:31  5-MIN K12N 100220Z AUTO 21006KT 18/04 A3001 500 38 1000 230/06 RMK AO1 T01830039
54779K12N 12N20160309212509903/09/16 21:25:31  5-MIN K12N 100225Z AUTO 22006KT 18/04 A3002 500 38 1000 230/06 RMK AO1 T01830039
54779K12N 12N20160309213009903/09/16 21:30:31  5-MIN K12N 100230Z AUTO 21005KT 18/04 A3002 490 38 1000 220/05 RMK AO1 T01830039
54779K12N 12N20160309213509903/09/16 21:35:31  5-MIN K12N 100235Z AUTO 21005KT 18/04 A3002 500 38 1000 220/05 RMK AO1 T01830039
54779K12N 12N20160309214009903/09/16 21:40:31  5-MIN K12N 100240Z AUTO 20005KT 18/04 A3002 490 38 1000 220/05 RMK AO1 T01830039
54779K12N 12N20160309214509903/09/16 21:45:31  5-MIN K12N 100245Z AUTO 21006KT 19/03 A3002 490 35 1100 220/06 RMK AO1 T01890033
54779K12N 12N20160309215011203/09/16 21:50:31  5-MIN K12N 100250Z AUTO 21005KT 18/04 A3002 490 38 1000 220/05 RMK AO1 SLP162 T01830039 56001
54779K12N 12N20160309215509903/09/16 21:55:31  5-MIN K12N 100255Z AUTO 20004KT 18/04 A3002 500 38 1000 220/04 RMK AO1 T01830039
54779K12N 12N20160309220009903/09/16 22:00:31  5-MIN K12N 100300Z AUTO 21005KT 18/04 A3002 490 38 1000 220/05 RMK AO1 T01830039
54779K12N 12N20160309220509903/09/16 22:05:31  5-MIN K12N 100305Z AUTO VRB05KT 18/04 A3002 490 38 1000 VRB/05 RMK AO1 T01830039
54779K12N 12N20160309221009903/09/16 22:10:31  5-MIN K12N 100310Z AUTO 20005KT 18/04 A3002 500 39 1000 210/05 RMK AO1 T01780039
54779K12N 12N20160309221509903/09/16 22:15:31  5-MIN K12N 100315Z AUTO 20005KT 18/04 A3002 490 38 1000 220/05 RMK AO1 T01830039
54779K12N 12N20160309222009903/09/16 22:20:31  5-MIN K12N 100320Z AUTO 20005KT 18/04 A3002 500 38 1000 220/05 RMK AO1 T01830039
54779K12N 12N20160309222509903/09/16 22:25:31  5-MIN K12N 100325Z AUTO VRB05KT 18/04 A3001 500 38 1000 VRB/05 RMK AO1 T01830039
54779K12N 12N20160309223009903/09/16 22:30:31  5-MIN K12N 100330Z AUTO VRB03KT 18/04 A3001 500 38 1000 VRB/03 RMK AO1 T01830039
54779K12N 12N20160309223509903/09/16 22:35:31  5-MIN K12N 100335Z AUTO VRB04KT 18/04 A3001 500 39 1000 VRB/04 RMK AO1 T01780039
54779K12N 12N20160309224009903/09/16 22:40:31  5-MIN K12N 100340Z AUTO VRB04KT 18/04 A3001 500 38 1100 VRB/04 RMK AO1 T01830039
54779K12N 12N20160309224509903/09/16 22:45:31  5-MIN K12N 100345Z AUTO 21005KT 18/04 A3001 500 39 1000 220/05 RMK AO1 T01780039
54779K12N 12N20160309225010603/09/16 22:50:31  5-MIN K12N 100350Z AUTO 21004KT 18/04 A3001 500 39 1000 220/04 RMK AO1 SLP157 T01780039
54779K12N 12N20160309225509903/09/16 22:55:31  5-MIN K12N 100355Z AUTO 20005KT 18/04 A3001 500 39 1000 220/05 RMK AO1 T01780039
54779K12N 12N20160309230009903/09/16 23:00:31  5-MIN K12N 100400Z AUTO 20003KT 18/04 A3001 500 38 1100 220/03 RMK AO1 T01830039
54779K12N 12N20160309230509903/09/16 23:05:31  5-MIN K12N 100405Z AUTO VRB04KT 18/03 A3001 510 36 1100 VRB/04 RMK AO1 T01830033
54779K12N 12N20160309231009903/09/16 23:10:31  5-MIN K12N 100410Z AUTO 21004KT 18/03 A3001 500 38 1000 220/04 RMK AO1 T01780033
54779K12N 12N20160309231509903/09/16 23:15:31  5-MIN K12N 100415Z AUTO 21004KT 18/03 A3001 500 38 1000 220/04 RMK AO1 T01780033
54779K12N 12N20160309232009903/09/16 23:20:31  5-MIN K12N 100420Z AUTO 21005KT 18/03 A3001 500 38 1000 220/05 RMK AO1 T01780033
54779K12N 12N20160309232509903/09/16 23:25:31  5-MIN K12N 100425Z AUTO 20004KT 18/03 A3001 500 38 1000 210/04 RMK AO1 T01780033
54779K12N 12N20160309233009903/09/16 23:30:31  5-MIN K12N 100430Z AUTO 19004KT 18/03 A3001 500 36 1100 210/04 RMK AO1 T01830033
54779K12N 12N20160309233509903/09/16 23:35:31  5-MIN K12N 100435Z AUTO 18004KT 18/03 A3001 510 36 1100 190/04 RMK AO1 T01830033
54779K12N 12N20160309234009903/09/16 23:40:31  5-MIN K12N 100440Z AUTO 20004KT 18/03 A3001 510 38 1000 210/04 RMK AO1 T01780033
54779K12N 12N20160309234509903/09/16 23:45:31  5-MIN K12N 100445Z AUTO 18004KT 18/03 A3001 510 38 1000 200/04 RMK AO1 T01780033
54779K12N 12N20160309235011603/09/16 23:50:31  5-MIN K12N 100450Z AUTO 18004KT 18/03 A3000 510 38 1000 200/04 RMK AO1 SLP155 T01780033 402500017
54779K12N 12N20160309235509903/09/16 23:55:31  5-MIN K12N 100455Z AUTO 19003KT 18/03 A3001 500 38 1000 210/03 RMK AO1 T01780033
54779K12N 12N20160310000009903/10/16 00:00:31  5-MIN K12N 100500Z AUTO 19005KT 18/03 A3001 510 38 1000 200/05 RMK AO1 T01780033
54779K12N 12N20160310000509803/10/16 00:05:31  5-MIN K12N 100505Z AUTO 18003KT 16/04 A3001 510 45 800 190/03 RMK AO1 T01610044
54779K12N 12N20160310001009803/10/16 00:10:31  5-MIN K12N 100510Z AUTO 19003KT 17/04 A3001 500 41 900 200/03 RMK AO1 T01720039
54779K12N 12N20160310001509803/10/16 00:15:31  5-MIN K12N 100515Z AUTO 17003KT 17/04 A3001 510 42 900 180/03 RMK AO1 T01670039
54779K12N 12N20160310002009803/10/16 00:20:31  5-MIN K12N 100520Z AUTO 19003KT 17/04 A3001 500 42 900 200/03 RMK AO1 T01670039
54779K12N 12N20160310002509803/10/16 00:25:31  5-MIN K12N 100525Z AUTO 19004KT 17/04 A3001 510 42 900 200/04 RMK AO1 T01670039
54779K12N 12N20160310003009803/10/16 00:30:31  5-MIN K12N 100530Z AUTO 18004KT 17/04 A3000 510 41 900 190/04 RMK AO1 T01720039
54779K12N 12N20160310003509803/10/16 00:35:31  5-MIN K12N 100535Z AUTO 18004KT 17/04 A3001 510 42 900 190/04 RMK AO1 T01670039
54779K12N 12N20160310004009803/10/16 00:40:31  5-MIN K12N 100540Z AUTO 18003KT 17/04 A3001 510 41 900 190/03 RMK AO1 T01720039
54779K12N 12N20160310004509803/10/16 00:45:31  5-MIN K12N 100545Z AUTO 18004KT 17/04 A3001 500 41 900 200/04 RMK AO1 T01720039
54779K12N 12N20160310005012303/10/16 00:50:31  5-MIN K12N 100550Z AUTO 19004KT 17/04 A3001 500 41 900 210/04 RMK AO1 SLP157 T01720039 10211 20161 53006
54779K12N 12N20160310005509803/10/16 00:55:31  5-MIN K12N 100555Z AUTO 19004KT 17/04 A3001 500 41 900 200/04 RMK AO1 T01720039
54779K12N 12N20160310010009803/10/16 01:00:31  5-MIN K12N 100600Z AUTO VRB03KT 17/04 A3001 500 41 900 VRB/03 RMK AO1 T01720039
54779K12N 12N20160310010509803/10/16 01:05:31  5-MIN K12N 100605Z AUTO 18004KT 17/04 A3001 510 41 900 200/04 RMK AO1 T01720039
54779K12N 12N20160310011009803/10/16 01:10:31  5-MIN K12N 100610Z AUTO 19004KT 17/04 A3001 510 41 900 210/04 RMK AO1 T01720039
54779K12N 12N20160310011509803/10/16 01:15:31  5-MIN K12N 100615Z AUTO VRB03KT 17/04 A3001 510 42 900 VRB/03 RMK AO1 T01670039
54779K12N 12N20160310012009803/10/16 01:20:31  5-MIN K12N 100620Z AUTO 00000KT 17/04 A3001 500 42 900 000/00 RMK AO1 T01670039
54779K12N 12N20160310012509803/10/16 01:25:31  5-MIN K12N 100625Z AUTO 00000KT 15/04 A3001 500 49 700 000/00 RMK AO1 T01500044
54779K12N 12N20160310013009803/10/16 01:30:31  5-MIN K12N 100630Z AUTO 18003KT 16/04 A3000 510 45 700 190/03 RMK AO1 T01560039
54779K12N 12N20160310013509803/10/16 01:35:31  5-MIN K12N 100635Z AUTO 00000KT 15/04 A3001 510 49 700 000/00 RMK AO1 T01500044
54779K12N 12N20160310014009803/10/16 01:40:31  5-MIN K12N 100640Z AUTO 00000KT 13/05 A3000 510 57 500 000/00 RMK AO1 T01330050
54779K12N 12N20160310014509803/10/16 01:45:31  5-MIN K12N 100645Z AUTO 17003KT 14/04 A3000 510 52 500 190/03 RMK AO1 T01390044
54779K12N 12N20160310015010503/10/16 01:50:31  5-MIN K12N 100650Z AUTO 18003KT 13/04 A3000 510 54 500 190/03 RMK AO1 SLP154 T01330044
54779K12N 12N20160310015509803/10/16 01:55:31  5-MIN K12N 100655Z AUTO 00000KT 13/05 A3000 510 59 400 000/00 RMK AO1 T01280050
54779K12N 12N20160310020009803/10/16 02:00:31  5-MIN K12N 100700Z AUTO 17003KT 13/05 A3000 510 59 400 190/03 RMK AO1 T01280050
54779K12N 12N20160310020509803/10/16 02:05:31  5-MIN K12N 100705Z AUTO 18003KT 13/05 A3000 510 59 400 200/03 RMK AO1 T01280050
54779K12N 12N20160310021009803/10/16 02:10:31  5-MIN K12N 100710Z AUTO 00000KT 13/05 A3000 510 57 500 000/00 RMK AO1 T01330050
54779K12N 12N20160310021509803/10/16 02:15:31  5-MIN K12N 100715Z AUTO 17003KT 13/05 A3000 510 57 500 190/03 RMK AO1 T01330050
54779K12N 12N20160310022009803/10/16 02:20:31  5-MIN K12N 100720Z AUTO 00000KT 13/05 A3000 520 57 500 000/00 RMK AO1 T01330050
54779K12N 12N20160310022509803/10/16 02:25:31  5-MIN K12N 100725Z AUTO 18003KT 14/05 A3000 520 53 600 190/03 RMK AO1 T01440050
54779K12N 12N20160310023009803/10/16 02:30:31  5-MIN K12N 100730Z AUTO 00000KT 14/05 A3000 510 53 600 000/00 RMK AO1 T01440050
54779K12N 12N20160310023509803/10/16 02:35:31  5-MIN K12N 100735Z AUTO 00000KT 13/05 A3000 520 57 500 000/00 RMK AO1 T01330050
54779K12N 12N20160310024009803/10/16 02:40:31  5-MIN K12N 100740Z AUTO 00000KT 14/05 A2999 520 53 600 000/00 RMK AO1 T01440050
54779K12N 12N20160310024509803/10/16 02:45:31  5-MIN K12N 100745Z AUTO 00000KT 13/06 A2999 520 59 500 000/00 RMK AO1 T01330056
54779K12N 12N20160310025010503/10/16 02:50:31  5-MIN K12N 100750Z AUTO 18003KT 14/06 A2999 520 57 500 190/03 RMK AO1 SLP152 T01390056
54779K12N 12N20160310025509803/10/16 02:55:31  5-MIN K12N 100755Z AUTO 00000KT 13/06 A3000 510 61 400 000/00 RMK AO1 T01280056
54779K12N 12N20160310030009803/10/16 03:00:31  5-MIN K12N 100800Z AUTO 18003KT 13/06 A3000 510 61 400 200/03 RMK AO1 T01280056
54779K12N 12N20160310030509803/10/16 03:05:31  5-MIN K12N 100805Z AUTO 00000KT 13/06 A3000 510 63 400 000/00 RMK AO1 T01280061
54779K12N 12N20160310031009803/10/16 03:10:31  5-MIN K12N 100810Z AUTO 18003KT 13/06 A3000 510 59 500 190/03 RMK AO1 T01330056
54779K12N 12N20160310031509803/10/16 03:15:31  5-MIN K12N 100815Z AUTO 18003KT 13/06 A3000 520 61 500 190/03 RMK AO1 T01330061
54779K12N 12N20160310032009803/10/16 03:20:31  5-MIN K12N 100820Z AUTO 00000KT 13/06 A3000 520 63 400 000/00 RMK AO1 T01280061
54779K12N 12N20160310032509803/10/16 03:25:31  5-MIN K12N 100825Z AUTO 00000KT 12/06 A3000 510 66 300 000/00 RMK AO1 T01220061
54779K12N 12N20160310033009803/10/16 03:30:31  5-MIN K12N 100830Z AUTO 18003KT 12/06 A3000 510 66 300 190/03 RMK AO1 T01220061
54779K12N 12N20160310033509803/10/16 03:35:31  5-MIN K12N 100835Z AUTO 18003KT 13/06 A3000 510 63 400 200/03 RMK AO1 T01280061
54779K12N 12N20160310034009803/10/16 03:40:31  5-MIN K12N 100840Z AUTO 00000KT 13/06 A3001 510 61 400 000/00 RMK AO1 T01280056
54779K12N 12N20160310034509803/10/16 03:45:31  5-MIN K12N 100845Z AUTO 00000KT 12/06 A3001 510 63 300 000/00 RMK AO1 T01220056
54779K12N 12N20160310035011103/10/16 03:50:31  5-MIN K12N 100850Z AUTO 00000KT 12/06 A3001 500 66 300 000/00 RMK AO1 SLP157 T01220061 55002
54779K12N 12N20160310035509803/10/16 03:55:31  5-MIN K12N 100855Z AUTO 18003KT 12/06 A3001 510 63 300 190/03 RMK AO1 T01220056
54779K12N 12N20160310040009803/10/16 04:00:31  5-MIN K12N 100900Z AUTO 00000KT 12/06 A3001 510 66 300 000/00 RMK AO1 T01220061
54779K12N 12N20160310040509803/10/16 04:05:31  5-MIN K12N 100905Z AUTO 00000KT 12/06 A3000 510 66 300 000/00 RMK AO1 T01220061
54779K12N 12N20160310041009803/10/16 04:10:31  5-MIN K12N 100910Z AUTO 00000KT 12/06 A3000 510 63 300 000/00 RMK AO1 T01220056
54779K12N 12N20160310041509803/10/16 04:15:31  5-MIN K12N 100915Z AUTO 00000KT 12/06 A3000 510 63 300 000/00 RMK AO1 T01220056
54779K12N 12N20160310042009803/10/16 04:20:31  5-MIN K12N 100920Z AUTO 00000KT 12/06 A3000 510 68 300 000/00 RMK AO1 T01170061
54779K12N 12N20160310042509803/10/16 04:25:31  5-MIN K12N 100925Z AUTO 00000KT 12/06 A3000 510 68 300 000/00 RMK AO1 T01170061
54779K12N 12N20160310043009803/10/16 04:30:31  5-MIN K12N 100930Z AUTO 00000KT 12/06 A3000 510 68 300 000/00 RMK AO1 T01170061
54779K12N 12N20160310043509803/10/16 04:35:31  5-MIN K12N 100935Z AUTO 00000KT 11/07 A3001 510 74 200 000/00 RMK AO1 T01110067
54779K12N 12N20160310044009803/10/16 04:40:31  5-MIN K12N 100940Z AUTO 17003KT 11/07 A3000 510 74 200 180/03 RMK AO1 T01110067
54779K12N 12N20160310044509803/10/16 04:45:31  5-MIN K12N 100945Z AUTO 00000KT 11/07 A3001 510 74 200 000/00 RMK AO1 T01110067
54779K12N 12N20160310045010503/10/16 04:50:31  5-MIN K12N 100950Z AUTO 00000KT 11/07 A3001 500 74 200 000/00 RMK AO1 SLP158 T01110067
54779K12N 12N20160310045509803/10/16 04:55:31  5-MIN K12N 100955Z AUTO 00000KT 11/07 A3001 500 74 200 000/00 RMK AO1 T01110067
54779K12N 12N20160310050009803/10/16 05:00:31  5-MIN K12N 101000Z AUTO 00000KT 11/07 A3000 510 74 200 000/00 RMK AO1 T01110067
54779K12N 12N20160310050509803/10/16 05:05:31  5-MIN K12N 101005Z AUTO 00000KT 11/07 A3000 510 74 200 000/00 RMK AO1 T01110067
54779K12N 12N20160310051009803/10/16 05:10:31  5-MIN K12N 101010Z AUTO 00000KT 11/07 A3001 510 77 100 000/00 RMK AO1 T01060067
54779K12N 12N20160310051509803/10/16 05:15:31  5-MIN K12N 101015Z AUTO 00000KT 11/07 A3001 500 77 100 000/00 RMK AO1 T01060067
54779K12N 12N20160310052009803/10/16 05:20:31  5-MIN K12N 101020Z AUTO 00000KT 11/07 A3001 510 74 200 000/00 RMK AO1 T01110067
54779K12N 12N20160310052509803/10/16 05:25:31  5-MIN K12N 101025Z AUTO 00000KT 11/07 A3001 510 74 200 000/00 RMK AO1 T01110067
54779K12N 12N20160310053009803/10/16 05:30:31  5-MIN K12N 101030Z AUTO 00000KT 11/07 A3001 500 74 200 000/00 RMK AO1 T01110067
54779K12N 12N20160310053509803/10/16 05:35:31  5-MIN K12N 101035Z AUTO 00000KT 11/07 A3001 500 74 200 000/00 RMK AO1 T01110067
54779K12N 12N20160310054009803/10/16 05:40:31  5-MIN K12N 101040Z AUTO 00000KT 11/07 A3001 500 74 200 000/00 RMK AO1 T01110067
54779K12N 12N20160310054509803/10/16 05:45:31  5-MIN K12N 101045Z AUTO 21003KT 11/07 A3001 500 74 200 220/03 RMK AO1 T01110067
54779K12N 12N20160310055010503/10/16 05:50:31  5-MIN K12N 101050Z AUTO 21003KT 11/07 A3001 500 74 200 220/03 RMK AO1 SLP160 T01110067
54779K12N 12N20160310055509803/10/16 05:55:31  5-MIN K12N 101055Z AUTO 21003KT 11/07 A3001 500 74 200 220/03 RMK AO1 T01110067
54779K12N 12N20160310060009803/10/16 06:00:31  5-MIN K12N 101100Z AUTO 00000KT 11/07 A3001 500 77 100 000/00 RMK AO1 T01060067
54779K12N 12N20160310060509803/10/16 06:05:31  5-MIN K12N 101105Z AUTO 00000KT 11/07 A3002 500 77 100 000/00 RMK AO1 T01060067
54779K12N 12N20160310061009803/10/16 06:10:31  5-MIN K12N 101110Z AUTO 00000KT 11/07 A3002 500 74 200 000/00 RMK AO1 T01110067
54779K12N 12N20160310061509803/10/16 06:15:31  5-MIN K12N 101115Z AUTO 00000KT 11/07 A3002 500 74 200 000/00 RMK AO1 T01110067
54779K12N 12N20160310062009803/10/16 06:20:31  5-MIN K12N 101120Z AUTO 00000KT 11/07 A3002 500 77 100 000/00 RMK AO1 T01060067
54779K12N 12N20160310062509803/10/16 06:25:31  5-MIN K12N 101125Z AUTO 00000KT 11/07 A3002 500 77 100 000/00 RMK AO1 T01060067
54779K12N 12N20160310063009803/10/16 06:30:31  5-MIN K12N 101130Z AUTO 00000KT 11/07 A3002 490 77 100 000/00 RMK AO1 T01060067
54779K12N 12N20160310063509803/10/16 06:35:31  5-MIN K12N 101135Z AUTO 00000KT 11/07 A3002 500 77 100 000/00 RMK AO1 T01060067
54779K12N 12N20160310064009803/10/16 06:40:31  5-MIN K12N 101140Z AUTO 21003KT 11/07 A3002 490 77 100 220/03 RMK AO1 T01060067
54779K12N 12N20160310064509803/10/16 06:45:31  5-MIN K12N 101145Z AUTO 00000KT 11/07 A3002 490 77 100 000/00 RMK AO1 T01060067
54779K12N 12N20160310065012303/10/16 06:50:31  5-MIN K12N 101150Z AUTO 00000KT 11/07 A3002 490 77 100 000/00 RMK AO1 SLP162 T01060067 10172 20106 55001
54779K12N 12N20160310065509803/10/16 06:55:31  5-MIN K12N 101155Z AUTO 00000KT 11/07 A3001 500 77 200 000/00 RMK AO1 T01110072
54779K12N 12N20160310070009803/10/16 07:00:31  5-MIN K12N 101200Z AUTO 21003KT 11/07 A3002 490 77 200 220/03 RMK AO1 T01110072
54779K12N 12N20160310070509803/10/16 07:05:31  5-MIN K12N 101205Z AUTO 20004KT 11/07 A3003 480 77 200 210/04 RMK AO1 T01110072
54779K12N 12N20160310071009803/10/16 07:10:31  5-MIN K12N 101210Z AUTO 19003KT 12/07 A3004 480 71 200 200/03 RMK AO1 T01170067
54779K12N 12N20160310071509803/10/16 07:15:31  5-MIN K12N 101215Z AUTO 19003KT 12/07 A3003 480 68 300 200/03 RMK AO1 T01220067
54779K12N 12N20160310072009803/10/16 07:20:31  5-MIN K12N 101220Z AUTO 00000KT 13/07 A3003 490 66 400 000/00 RMK AO1 T01280067
54779K12N 12N20160310072509803/10/16 07:25:31  5-MIN K12N 101225Z AUTO 17003KT 12/07 A3002 490 71 300 180/03 RMK AO1 T01220072
54779K12N 12N20160310073009803/10/16 07:30:31  5-MIN K12N 101230Z AUTO 00000KT 13/07 A3003 490 69 400 000/00 RMK AO1 T01280072
54779K12N 12N20160310073509803/10/16 07:35:31  5-MIN K12N 101235Z AUTO 00000KT 13/07 A3003 480 69 400 000/00 RMK AO1 T01280072
54779K12N 12N20160310074009803/10/16 07:40:31  5-MIN K12N 101240Z AUTO 19003KT 13/07 A3003 490 66 400 200/03 RMK AO1 T01330072
54779K12N 12N20160310074509803/10/16 07:45:31  5-MIN K12N 101245Z AUTO 17003KT 15/07 A3002 490 57 600 190/03 RMK AO1 T01500067
54779K12N 12N20160310075010503/10/16 07:50:31  5-MIN K12N 101250Z AUTO 16003KT 16/07 A3002 490 55 700 170/03 RMK AO1 SLP162 T01560067
54779K12N 12N20160310075509803/10/16 07:55:31  5-MIN K12N 101255Z AUTO 00000KT 16/07 A3002 490 53 800 000/00 RMK AO1 T01610067
54779K12N 12N20160310080009803/10/16 08:00:31  5-MIN K12N 101300Z AUTO 18003KT 17/06 A3002 490 49 800 190/03 RMK AO1 T01670061
54779K12N 12N20160310080509803/10/16 08:05:31  5-MIN K12N 101305Z AUTO 00000KT 17/06 A3002 490 49 800 000/00 RMK AO1 T01670061
54779K12N 12N20160310081009803/10/16 08:10:31  5-MIN K12N 101310Z AUTO 21005KT 17/06 A3003 490 49 800 220/05 RMK AO1 T01670061
54779K12N 12N20160310081509803/10/16 08:15:31  5-MIN K12N 101315Z AUTO VRB03KT 17/06 A3003 480 49 800 VRB/03 RMK AO1 T01670061
54779K12N 12N20160310082009903/10/16 08:20:31  5-MIN K12N 101320Z AUTO 20003KT 18/07 A3003 480 48 1000 210/03 RMK AO1 T01780067
54779K12N 12N20160310082509903/10/16 08:25:31  5-MIN K12N 101325Z AUTO 19004KT 18/06 A3003 480 46 1000 210/04 RMK AO1 T01780061
54779K12N 12N20160310083009903/10/16 08:30:31  5-MIN K12N 101330Z AUTO 20004KT 18/06 A3003 480 46 1000 210/04 RMK AO1 T01780061
54779K12N 12N20160310083509903/10/16 08:35:31  5-MIN K12N 101335Z AUTO 20004KT 18/06 A3003 480 44 1000 210/04 RMK AO1 T01830061
54779K12N 12N20160310084009903/10/16 08:40:31  5-MIN K12N 101340Z AUTO VRB04KT 18/06 A3003 490 44 1000 VRB/04 RMK AO1 T01830061
54779K12N 12N20160310084509903/10/16 08:45:31  5-MIN K12N 101345Z AUTO 20005KT 19/06 A3003 490 43 1100 210/05 RMK AO1 T01890061
54779K12N 12N20160310085010603/10/16 08:50:31  5-MIN K12N 101350Z AUTO 20004KT 19/06 A3003 490 43 1100 220/04 RMK AO1 SLP163 T01890061
54779K12N 12N20160310085509903/10/16 08:55:31  5-MIN K12N 101355Z AUTO VRB05KT 19/06 A3003 490 41 1100 VRB/05 RMK AO1 T01890056
54779K12N 12N20160310090009903/10/16 09:00:31  5-MIN K12N 101400Z AUTO 22007KT 19/06 A3002 490 41 1200 230/07 RMK AO1 T01940061
54779K12N 12N20160310090509903/10/16 09:05:31  5-MIN K12N 101405Z AUTO 20005KT 19/06 A3002 490 40 1200 220/05 RMK AO1 T01940056
54779K12N 12N20160310091009903/10/16 09:10:31  5-MIN K12N 101410Z AUTO 21004KT 20/06 A3002 490 38 1200 220/04 RMK AO1 T02000056
54779K12N 12N20160310091509903/10/16 09:15:31  5-MIN K12N 101415Z AUTO VRB03KT 21/06 A3002 500 38 1300 VRB/03 RMK AO1 T02060061
54779K12N 12N20160310092009903/10/16 09:20:31  5-MIN K12N 101420Z AUTO VRB03KT 21/06 A3002 490 38 1300 VRB/03 RMK AO1 T02060061
54779K12N 12N20160310092509903/10/16 09:25:31  5-MIN K12N 101425Z AUTO VRB03KT 21/06 A3002 500 38 1300 VRB/03 RMK AO1 T02060061
54779K12N 12N20160310093009903/10/16 09:30:31  5-MIN K12N 101430Z AUTO 00000KT 21/06 A3002 490 37 1400 000/00 RMK AO1 T02110061
54779K12N 12N20160310093509903/10/16 09:35:31  5-MIN K12N 101435Z AUTO VRB04KT 21/06 A3001 500 37 1400 VRB/04 RMK AO1 T02110061
54779K12N 12N20160310094009903/10/16 09:40:31  5-MIN K12N 101440Z AUTO 19004KT 22/06 A3001 500 36 1400 200/04 RMK AO1 T02170061
54779K12N 12N20160310094509903/10/16 09:45:31  5-MIN K12N 101445Z AUTO 22003KT 22/06 A3002 500 36 1400 230/03 RMK AO1 T02170061
54779K12N 12N20160310095011203/10/16 09:50:31  5-MIN K12N 101450Z AUTO 23005KT 22/07 A3002 490 37 1400 240/05 RMK AO1 SLP161 T02170067 53003
54779K12N 12N20160310095509903/10/16 09:55:31  5-MIN K12N 101455Z AUTO VRB04KT 22/07 A3003 490 36 1500 VRB/04 RMK AO1 T02220067
54779K12N 12N20160310100009903/10/16 10:00:31  5-MIN K12N 101500Z AUTO VRB06KT 23/07 A3002 490 35 1500 VRB/06 RMK AO1 T02280067
54779K12N 12N20160310100509903/10/16 10:05:31  5-MIN K12N 101505Z AUTO 25005KT 23/07 A3002 490 33 1600 260/05 RMK AO1 T02330067
54779K12N 12N20160310101008903/10/16 10:10:31  5-MIN K12N 101510Z AUTO 23/07 A3002 500 36 1600 M /M RMK AO1 T02280072
54779K12N 12N20160310101509903/10/16 10:15:31  5-MIN K12N 101515Z AUTO 30006KT 23/08 A3001 500 37 1600 310/06 RMK AO1 T02280078
54779K12N 12N20160310102009903/10/16 10:20:31  5-MIN K12N 101520Z AUTO VRB04KT 23/08 A3001 500 37 1600 VRB/04 RMK AO1 T02280078
54779K12N 12N20160310102509903/10/16 10:25:31  5-MIN K12N 101525Z AUTO 23006KT 23/08 A3001 500 36 1600 240/06 RMK AO1 T02330078
54779K12N 12N20160310103009903/10/16 10:30:31  5-MIN K12N 101530Z AUTO VRB05KT 23/08 A3001 500 36 1600 VRB/05 RMK AO1 T02330078
54779K12N 12N20160310103509903/10/16 10:35:31  5-MIN K12N 101535Z AUTO 23006KT 23/07 A3001 500 35 1600 240/06 RMK AO1 T02330072
54779K12N 12N20160310104009903/10/16 10:40:31  5-MIN K12N 101540Z AUTO VRB05KT 23/08 A3001 510 36 1600 VRB/05 RMK AO1 T02330078
54779K12N 12N20160310104509903/10/16 10:45:31  5-MIN K12N 101545Z AUTO 22009KT 23/08 A3000 510 37 1600 230/09 RMK AO1 T02280078
54779K12N 12N20160310105010603/10/16 10:50:31  5-MIN K12N 101550Z AUTO 22006KT 23/08 A3000 510 37 1600 240/06 RMK AO1 SLP153 T02280078
54779K12N 12N20160310105509903/10/16 10:55:31  5-MIN K12N 101555Z AUTO 20006KT 23/08 A3000 510 37 1600 210/06 RMK AO1 T02280078
54779K12N 12N20160310110009903/10/16 11:00:31  5-MIN K12N 101600Z AUTO 24009KT 24/08 A3000 510 35 1700 250/09 RMK AO1 T02390078
54779K12N 12N20160310110509903/10/16 11:05:31  5-MIN K12N 101605Z AUTO 21006KT 23/07 A2999 520 36 1600 220/06 RMK AO1 T02280072
54779K12N 12N20160310111009903/10/16 11:10:31  5-MIN K12N 101610Z AUTO 22005KT 23/07 A3000 520 35 1600 230/05 RMK AO1 T02330072
54779K12N 12N20160310111509903/10/16 11:15:31  5-MIN K12N 101615Z AUTO 22007KT 23/07 A3000 510 33 1600 240/07 RMK AO1 T02330067
54779K12N 12N20160310112009903/10/16 11:20:31  5-MIN K12N 101620Z AUTO 21010KT 23/07 A3000 520 35 1600 220/10 RMK AO1 T02280067
54779K12N 12N20160310112510503/10/16 11:25:31  5-MIN K12N 101625Z AUTO 21006G14KT 23/07 A3000 520 35 1600 220/06G14 RMK AO1 T02280067
54779K12N 12N20160310113009903/10/16 11:30:31  5-MIN K12N 101630Z AUTO 19006KT 23/07 A3000 510 36 1600 210/06 RMK AO1 T02280072
54779K12N 12N20160310113509903/10/16 11:35:31  5-MIN K12N 101635Z AUTO 22008KT 22/07 A3000 510 37 1500 230/08 RMK AO1 T02220072
54779K12N 12N20160310114010503/10/16 11:40:31  5-MIN K12N 101640Z AUTO 23009G14KT 22/07 A3000 510 37 1500 240/09G14 RMK AO1 T02220072
54779K12N 12N20160310114509903/10/16 11:45:31  5-MIN K12N 101645Z AUTO 23009KT 22/07 A3000 510 37 1500 240/09 RMK AO1 T02220072
54779K12N 12N20160310115010603/10/16 11:50:31  5-MIN K12N 101650Z AUTO VRB06KT 23/07 A3000 510 36 1600 VRB/06 RMK AO1 SLP154 T02280072
54779K12N 12N20160310115509903/10/16 11:55:31  5-MIN K12N 101655Z AUTO 21006KT 22/07 A3001 510 37 1500 220/06 RMK AO1 T02220072
54779K12N 12N20160310120009903/10/16 12:00:31  5-MIN K12N 101700Z AUTO 20006KT 22/07 A3000 510 37 1500 220/06 RMK AO1 T02220072
54779K12N 12N20160310120509903/10/16 12:05:31  5-MIN K12N 101705Z AUTO VRB05KT 22/07 A3000 510 37 1500 VRB/05 RMK AO1 T02220072
54779K12N 12N20160310121009903/10/16 12:10:31  5-MIN K12N 101710Z AUTO 22005KT 23/07 A3000 510 36 1600 230/05 RMK AO1 T02280072
54779K12N 12N20160310121509903/10/16 12:15:31  5-MIN K12N 101715Z AUTO VRB05KT 23/07 A2999 520 36 1600 VRB/05 RMK AO1 T02280072
54779K12N 12N20160310122009903/10/16 12:20:31  5-MIN K12N 101720Z AUTO 22007KT 23/08 A2999 520 36 1600 240/07 RMK AO1 T02330078
54779K12N 12N20160310122512103/10/16 12:25:31  5-MIN K12N 101725Z AUTO 22009G15KT 170V260 23/07 A2999 520 35 1600 230/09G15 180V270 RMK AO1 T02330072
54779K12N 12N20160310123010503/10/16 12:30:31  5-MIN K12N 101730Z AUTO 22012G18KT 23/07 A2999 530 35 1600 230/12G18 RMK AO1 T02280067
54779K12N 12N20160310123510503/10/16 12:35:31  5-MIN K12N 101735Z AUTO 22008G18KT 23/07 A2998 530 35 1600 230/08G18 RMK AO1 T02280067
54779K12N 12N20160310124009903/10/16 12:40:31  5-MIN K12N 101740Z AUTO 22006KT 23/07 A2998 530 35 1600 230/06 RMK AO1 T02280067
54779K12N 12N20160310124511503/10/16 12:45:31  5-MIN K12N 101745Z AUTO 22008KT 180V250 23/07 A2997 540 35 1600 240/08 190V260 RMK AO1 T02280067
54779K12N 12N20160310125012403/10/16 12:50:31  5-MIN K12N 101750Z AUTO 21009KT 23/07 A2997 540 33 1700 230/09 RMK AO1 SLP143 T02330067 10239 20111 51004
54779K12N 12N20160310125509903/10/16 12:55:31  5-MIN K12N 101755Z AUTO 21006KT 23/07 A2997 540 33 1700 220/06 RMK AO1 T02330067
54779K12N 12N20160310130009903/10/16 13:00:31  5-MIN K12N 101800Z AUTO 22005KT 23/07 A2996 550 33 1700 230/05 RMK AO1 T02330067
54779K12N 12N20160310130509903/10/16 13:05:31  5-MIN K12N 101805Z AUTO 23004KT 23/07 A2996 550 33 1700 240/04 RMK AO1 T02330067
54779K12N 12N20160310131009903/10/16 13:10:31  5-MIN K12N 101810Z AUTO 22007KT 23/07 A2996 550 33 1700 230/07 RMK AO1 T02330067
54779K12N 12N20160310131511503/10/16 13:15:31  5-MIN K12N 101815Z AUTO 22007KT 180V250 23/07 A2995 560 33 1700 240/07 190V260 RMK AO1 T02330067
54779K12N 12N20160310132009903/10/16 13:20:31  5-MIN K12N 101820Z AUTO 22007KT 23/07 A2995 560 33 1700 230/07 RMK AO1 T02330067
54779K12N 12N20160310132509903/10/16 13:25:31  5-MIN K12N 101825Z AUTO 23006KT 24/07 A2995 560 32 1800 250/06 RMK AO1 T02390067
54779K12N 12N20160310133009903/10/16 13:30:31  5-MIN K12N 101830Z AUTO 19007KT 23/06 A2995 560 32 1700 200/07 RMK AO1 T02330061
54779K12N 12N20160310133509903/10/16 13:35:31  5-MIN K12N 101835Z AUTO 22007KT 23/06 A2995 560 33 1600 230/07 RMK AO1 T02280061
54779K12N 12N20160310134009903/10/16 13:40:31  5-MIN K12N 101840Z AUTO 21008KT 23/06 A2994 560 33 1600 230/08 RMK AO1 T02280061
54779K12N 12N20160310134509903/10/16 13:45:31  5-MIN K12N 101845Z AUTO VRB05KT 23/06 A2994 570 33 1600 VRB/05 RMK AO1 T02280061
54779K12N 12N20160310135010603/10/16 13:50:31  5-MIN K12N 101850Z AUTO 19006KT 23/06 A2994 560 33 1600 200/06 RMK AO1 SLP135 T02280061
54779K12N 12N20160310135509903/10/16 13:55:31  5-MIN K12N 101855Z AUTO 21008KT 23/06 A2994 560 33 1600 230/08 RMK AO1 T02280061
54779K12N 12N20160310140011503/10/16 14:00:31  5-MIN K12N 101900Z AUTO 21008KT 170V240 23/06 A2994 570 33 1600 230/08 180V250 RMK AO1 T02280061
54779K12N 12N20160310140509903/10/16 14:05:31  5-MIN K12N 101905Z AUTO 23006KT 23/07 A2994 570 35 1600 240/06 RMK AO1 T02280067
54779K12N 12N20160310141009903/10/16 14:10:31  5-MIN K12N 101910Z AUTO 21008KT 23/07 A2994 570 35 1600 220/08 RMK AO1 T02280067
54779K12N 12N20160310141509903/10/16 14:15:31  5-MIN K12N 101915Z AUTO VRB04KT 23/07 A2993 570 33 1700 VRB/04 RMK AO1 T02330067
54779K12N 12N20160310142010603/10/16 14:20:31  5-MIN K12N 101920Z AUTO 22009KT 24/07 A2992 590 32 1800 240/09 RMK AO1 PRESFR T02390067
54779K12N 12N20160310142509903/10/16 14:25:31  5-MIN K12N 101925Z AUTO VRB04KT 23/07 A2992 580 33 1700 VRB/04 RMK AO1 T02330067
54779K12N 12N20160310143009903/10/16 14:30:31  5-MIN K12N 101930Z AUTO 20007KT 23/07 A2992 580 33 1700 220/07 RMK AO1 T02330067
54779K12N 12N20160310143509903/10/16 14:35:31  5-MIN K12N 101935Z AUTO 21007KT 23/07 A2992 580 35 1700 220/07 RMK AO1 T02280067
54779K12N 12N20160310144009903/10/16 14:40:31  5-MIN K12N 101940Z AUTO 21007KT 23/07 A2992 580 33 1700 220/07 RMK AO1 T02330067
54779K12N 12N20160310144509903/10/16 14:45:31  5-MIN K12N 101945Z AUTO 22009KT 23/07 A2992 580 33 1700 240/09 RMK AO1 T02330067
54779K12N 12N20160310145010603/10/16 14:50:31  5-MIN K12N 101950Z AUTO VRB04KT 23/07 A2992 590 33 1700 VRB/04 RMK AO1 SLP127 T02330067
54779K12N 12N20160310145511503/10/16 14:55:31  5-MIN K12N 101955Z AUTO 21007KT 160V230 23/07 A2992 590 33 1700 230/07 170V240 RMK AO1 T02330067
54779K12N 12N20160310150009903/10/16 15:00:31  5-MIN K12N 102000Z AUTO 22009KT 23/07 A2992 590 33 1700 230/09 RMK AO1 T02330067
54779K12N 12N20160310150509903/10/16 15:05:31  5-MIN K12N 102005Z AUTO 22005KT 23/07 A2992 590 35 1700 230/05 RMK AO1 T02330072
54779K12N 12N20160310151009903/10/16 15:10:31  5-MIN K12N 102010Z AUTO 21007KT 23/07 A2992 590 35 1700 230/07 RMK AO1 T02330072
54779K12N 12N20160310151510503/10/16 15:15:31  5-MIN K12N 102015Z AUTO 21007G15KT 23/07 A2992 590 35 1700 230/07G15 RMK AO1 T02330072
54779K12N 12N20160310152012103/10/16 15:20:31  5-MIN K12N 102020Z AUTO 23008G15KT 200V260 23/07 A2992 590 35 1700 240/08G15 210V270 RMK AO1 T02330072
54779K12N 12N20160310152509903/10/16 15:25:31  5-MIN K12N 102025Z AUTO VRB06KT 23/07 A2991 590 35 1700 VRB/06 RMK AO1 T02330072
54779K12N 12N20160310153009903/10/16 15:30:31  5-MIN K12N 102030Z AUTO VRB05KT 23/07 A2991 590 35 1700 VRB/05 RMK AO1 T02330072
54779K12N 12N20160310153509903/10/16 15:35:31  5-MIN K12N 102035Z AUTO VRB06KT 23/08 A2991 600 36 1700 VRB/06 RMK AO1 T02330078
54779K12N 12N20160310154008903/10/16 15:40:31  5-MIN K12N 102040Z AUTO 23/09 A2991 600 39 1700 M /M RMK AO1 T02330089
54779K12N 12N20160310154509903/10/16 15:45:31  5-MIN K12N 102045Z AUTO 22006KT 23/10 A2991 600 42 1700 230/06 RMK AO1 T02330100
54779K12N 12N20160310155011203/10/16 15:50:31  5-MIN K12N 102050Z AUTO VRB05KT 23/11 A2990 600 44 1700 VRB/05 RMK AO1 SLP123 T02330106 58020
54779K12N 12N20160310155509903/10/16 15:55:31  5-MIN K12N 102055Z AUTO VRB05KT 23/11 A2990 600 44 1700 VRB/05 RMK AO1 T02330106
54779K12N 12N20160310160007703/10/16 16:00:31  5-MIN K12N 102100Z AUTO 27009G15KT M M M 280/09G15 RMK AO1
54779K12N 12N20160310160510703/10/16 16:05:31  5-MIN K12N 102105Z AUTO VRB03G15KT 23/11 A2991 590 44 1700 VRB/03G15 RMK AO1 T02330106 $
54779K12N 12N20160310161010103/10/16 16:10:31  5-MIN K12N 102110Z AUTO VRB04KT 23/11 A2991 600 45 1700 VRB/04 RMK AO1 T02280106 $
54779K12N 12N20160310161510103/10/16 16:15:31  5-MIN K12N 102115Z AUTO VRB03KT 23/11 A2991 600 45 1700 VRB/03 RMK AO1 T02280106 $
54779K12N 12N20160310162010103/10/16 16:20:31  5-MIN K12N 102120Z AUTO VRB05KT 23/11 A2991 600 44 1700 VRB/05 RMK AO1 T02330106 $
54779K12N 12N20160310162510103/10/16 16:25:31  5-MIN K12N 102125Z AUTO 00000KT 23/11 A2991 590 44 1700 000/00 RMK AO1 T02330106 $
54779K12N 12N20160310163010103/10/16 16:30:31  5-MIN K12N 102130Z AUTO VRB04KT 23/11 A2991 590 44 1700 VRB/04 RMK AO1 T02330106 $
54779K12N 12N20160310163510103/10/16 16:35:31  5-MIN K12N 102135Z AUTO VRB03KT 23/11 A2991 600 45 1700 VRB/03 RMK AO1 T02280106 $
54779K12N 12N20160310164009103/10/16 16:40:31  5-MIN K12N 102140Z AUTO 23/11 A2991 600 45 1700 M /M RMK AO1 T02280106 $
54779K12N 12N20160310164510103/10/16 16:45:31  5-MIN K12N 102145Z AUTO VRB05KT 23/11 A2990 600 45 1700 VRB/05 RMK AO1 T02280106 $
54779K12N 12N20160310165009803/10/16 16:50:31  5-MIN K12N 102150Z AUTO 22/11 A2990 600 49 1600 M /M RMK AO1 SLP124 T02220111 $
54779K12N 12N20160310165510103/10/16 16:55:31  5-MIN K12N 102155Z AUTO VRB05KT 22/11 A2990 600 49 1600 VRB/05 RMK AO1 T02220111 $
54779K12N 12N20160310170010103/10/16 17:00:31  5-MIN K12N 102200Z AUTO VRB03KT 22/11 A2991 600 49 1600 VRB/03 RMK AO1 T02220111 $
54779K12N 12N20160310170510103/10/16 17:05:31  5-MIN K12N 102205Z AUTO VRB04KT 22/11 A2991 600 50 1600 VRB/04 RMK AO1 T02170111 $
54779K12N 12N20160310171010103/10/16 17:10:31  5-MIN K12N 102210Z AUTO 29005KT 22/11 A2991 600 50 1500 300/05 RMK AO1 T02170111 $
54779K12N 12N20160310171510103/10/16 17:15:31  5-MIN K12N 102215Z AUTO 00000KT 22/11 A2991 600 50 1500 000/00 RMK AO1 T02170111 $
54779K12N 12N20160310172010103/10/16 17:20:31  5-MIN K12N 102220Z AUTO 00000KT 22/11 A2991 600 50 1600 000/00 RMK AO1 T02170111 $
54779K12N 12N20160310172510103/10/16 17:25:31  5-MIN K12N 102225Z AUTO 00000KT 22/11 A2991 600 50 1600 000/00 RMK AO1 T02170111 $
54779K12N 12N20160310173010103/10/16 17:30:31  5-MIN K12N 102230Z AUTO VRB05KT 22/11 A2990 600 49 1600 VRB/05 RMK AO1 T02170106 $
54779K12N 12N20160310173510103/10/16 17:35:31  5-MIN K12N 102235Z AUTO VRB04KT 22/11 A2990 600 50 1600 VRB/04 RMK AO1 T02170111 $
54779K12N 12N20160310174010103/10/16 17:40:31  5-MIN K12N 102240Z AUTO 00000KT 22/11 A2992 590 49 1500 000/00 RMK AO1 T02170106 $
54779K12N 12N20160310174510103/10/16 17:45:31  5-MIN K12N 102245Z AUTO 00000KT 22/11 A2991 600 49 1600 000/00 RMK AO1 T02170106 $
54779K12N 12N20160310175010803/10/16 17:50:31  5-MIN K12N 102250Z AUTO 00000KT 21/11 A2991 590 52 1500 000/00 RMK AO1 SLP127 T02110111 $
54779K12N 12N20160310175510103/10/16 17:55:31  5-MIN K12N 102255Z AUTO 00000KT 21/11 A2991 590 52 1500 000/00 RMK AO1 T02110111 $
54779K12N 12N20160310180010103/10/16 18:00:31  5-MIN K12N 102300Z AUTO 00000KT 21/11 A2990 600 52 1500 000/00 RMK AO1 T02110111 $
54779K12N 12N20160310180510103/10/16 18:05:31  5-MIN K12N 102305Z AUTO 00000KT 21/11 A2990 600 54 1400 000/00 RMK AO1 T02060111 $
54779K12N 12N20160310181010103/10/16 18:10:31  5-MIN K12N 102310Z AUTO 00000KT 21/11 A2990 600 52 1500 000/00 RMK AO1 T02110111 $
54779K12N 12N20160310181510103/10/16 18:15:31  5-MIN K12N 102315Z AUTO VRB03KT 21/11 A2990 600 52 1500 VRB/03 RMK AO1 T02110111 $
54779K12N 12N20160310182010103/10/16 18:20:31  5-MIN K12N 102320Z AUTO 00000KT 21/11 A2990 600 52 1500 000/00 RMK AO1 T02110111 $
54779K12N 12N20160310182510103/10/16 18:25:31  5-MIN K12N 102325Z AUTO 35003KT 21/11 A2990 610 54 1400 360/03 RMK AO1 T02060111 $
54779K12N 12N20160310183010103/10/16 18:30:31  5-MIN K12N 102330Z AUTO VRB04KT 21/11 A2991 600 54 1400 VRB/04 RMK AO1 T02060111 $
54779K12N 12N20160310183510103/10/16 18:35:31  5-MIN K12N 102335Z AUTO 00000KT 21/11 A2990 600 54 1400 000/00 RMK AO1 T02060111 $
54779K12N 12N20160310184010103/10/16 18:40:31  5-MIN K12N 102340Z AUTO VRB03KT 20/12 A2990 600 58 1400 VRB/03 RMK AO1 T02000117 $
54779K12N 12N20160310184510103/10/16 18:45:31  5-MIN K12N 102345Z AUTO VRB04KT 20/12 A2990 600 58 1400 VRB/04 RMK AO1 T02000117 $
54779K12N 12N20160310185012003/10/16 18:50:31  5-MIN K12N 102350Z AUTO 00000KT 20/12 A2990 600 58 1400 000/00 RMK AO1 SLP124 T02000117 10239 20200 $
54779K12N 12N20160310185510103/10/16 18:55:31  5-MIN K12N 102355Z AUTO 00000KT 20/12 A2991 600 58 1400 000/00 RMK AO1 T02000117 $
54779K12N 12N20160310190010103/10/16 19:00:31  5-MIN K12N 110000Z AUTO 00000KT 20/12 A2991 600 58 1400 000/00 RMK AO1 T02000117 $
54779K12N 12N20160310190510103/10/16 19:05:31  5-MIN K12N 110005Z AUTO 00000KT 19/12 A2991 590 60 1300 000/00 RMK AO1 T01940117 $
54779K12N 12N20160310191010103/10/16 19:10:31  5-MIN K12N 110010Z AUTO 00000KT 19/12 A2991 590 60 1300 000/00 RMK AO1 T01940117 $
54779K12N 12N20160310191510103/10/16 19:15:31  5-MIN K12N 110015Z AUTO VRB03KT 19/12 A2992 580 60 1300 VRB/03 RMK AO1 T01940117 $
54779K12N 12N20160310192010103/10/16 19:20:31  5-MIN K12N 110020Z AUTO VRB03KT 19/12 A2992 580 60 1300 VRB/03 RMK AO1 T01940117 $
54779K12N 12N20160310192510103/10/16 19:25:31  5-MIN K12N 110025Z AUTO VRB06KT 19/12 A2992 580 60 1300 VRB/06 RMK AO1 T01940117 $
54779K12N 12N20160310193010103/10/16 19:30:31  5-MIN K12N 110030Z AUTO VRB05KT 19/12 A2993 580 65 1200 VRB/05 RMK AO1 T01890122 $
54779K12N 12N20160310193510103/10/16 19:35:31  5-MIN K12N 110035Z AUTO 00000KT 18/12 A2993 580 67 1100 000/00 RMK AO1 T01830122 $
54779K12N 12N20160310194010103/10/16 19:40:31  5-MIN K12N 110040Z AUTO 00000KT 18/12 A2992 580 67 1100 000/00 RMK AO1 T01830122 $
54779K12N 12N20160310194510103/10/16 19:45:31  5-MIN K12N 110045Z AUTO 00000KT 18/12 A2993 580 67 1100 000/00 RMK AO1 T01830122 $
54779K12N 12N20160310195010803/10/16 19:50:31  5-MIN K12N 110050Z AUTO VRB03KT 18/12 A2993 580 67 1100 VRB/03 RMK AO1 SLP130 T01830122 $
54779K12N 12N20160310195510103/10/16 19:55:31  5-MIN K12N 110055Z AUTO 00000KT 18/12 A2993 580 67 1100 000/00 RMK AO1 T01830122 $
54779K12N 12N20160310200010103/10/16 20:00:31  5-MIN K12N 110100Z AUTO VRB04KT 18/12 A2993 580 67 1100 VRB/04 RMK AO1 T01830122 $
54779K12N 12N20160310200510103/10/16 20:05:31  5-MIN K12N 110105Z AUTO 32004KT 18/12 A2992 580 67 1100 340/04 RMK AO1 T01830122 $
54779K12N 12N20160310201010103/10/16 20:10:31  5-MIN K12N 110110Z AUTO 00000KT 18/12 A2993 580 69 1100 000/00 RMK AO1 T01780122 $
54779K12N 12N20160310201510103/10/16 20:15:31  5-MIN K12N 110115Z AUTO VRB05KT 18/12 A2993 580 69 1100 VRB/05 RMK AO1 T01780122 $
54779K12N 12N20160310202010103/10/16 20:20:31  5-MIN K12N 110120Z AUTO 00000KT 18/13 A2993 580 72 1100 000/00 RMK AO1 T01780128 $
54779K12N 12N20160310202510103/10/16 20:25:31  5-MIN K12N 110125Z AUTO VRB03KT 18/13 A2992 580 72 1100 VRB/03 RMK AO1 T01780128 $
54779K12N 12N20160310203010103/10/16 20:30:31  5-MIN K12N 110130Z AUTO 00000KT 18/13 A2993 580 72 1100 000/00 RMK AO1 T01780128 $
54779K12N 12N20160310203510103/10/16 20:35:31  5-MIN K12N 110135Z AUTO 00000KT 18/13 A2992 580 72 1100 000/00 RMK AO1 T01780128 $
54779K12N 12N20160310204010103/10/16 20:40:31  5-MIN K12N 110140Z AUTO 00000KT 18/13 A2992 580 72 1100 000/00 RMK AO1 T01780128 $
54779K12N 12N20160310204510103/10/16 20:45:31  5-MIN K12N 110145Z AUTO 00000KT 18/13 A2992 580 72 1100 000/00 RMK AO1 T01780128 $
54779K12N 12N20160310205010803/10/16 20:50:31  5-MIN K12N 110150Z AUTO 00000KT 18/13 A2993 580 72 1100 000/00 RMK AO1 SLP129 T01780128 $
54779K12N 12N20160310205510103/10/16 20:55:31  5-MIN K12N 110155Z AUTO VRB04KT 18/13 A2992 580 72 1100 VRB/04 RMK AO1 T01780128 $
54779K12N 12N20160310210010103/10/16 21:00:31  5-MIN K12N 110200Z AUTO 00000KT 18/13 A2992 580 72 1100 000/00 RMK AO1 T01780128 $
54779K12N 12N20160310210510103/10/16 21:05:31  5-MIN K12N 110205Z AUTO VRB03KT 18/13 A2992 590 72 1100 VRB/03 RMK AO1 T01780128 $
54779K12N 12N20160310211010103/10/16 21:10:31  5-MIN K12N 110210Z AUTO VRB03KT 18/13 A2991 590 72 1100 VRB/03 RMK AO1 T01780128 $
54779K12N 12N20160310211510103/10/16 21:15:31  5-MIN K12N 110215Z AUTO 00000KT 18/13 A2991 600 72 1100 000/00 RMK AO1 T01780128 $
54779K12N 12N20160310212010103/10/16 21:20:31  5-MIN K12N 110220Z AUTO 00000KT 18/13 A2991 600 72 1100 000/00 RMK AO1 T01780128 $
54779K12N 12N20160310212510103/10/16 21:25:31  5-MIN K12N 110225Z AUTO VRB03KT 18/13 A2991 600 72 1100 VRB/03 RMK AO1 T01780128 $
54779K12N 12N20160310213010103/10/16 21:30:31  5-MIN K12N 110230Z AUTO 00000KT 18/13 A2991 600 72 1100 000/00 RMK AO1 T01780128 $
54779K12N 12N20160310213510103/10/16 21:35:31  5-MIN K12N 110235Z AUTO 00000KT 18/13 A2990 600 72 1100 000/00 RMK AO1 T01780128 $
54779K12N 12N20160310214010103/10/16 21:40:31  5-MIN K12N 110240Z AUTO 00000KT 18/13 A2990 600 72 1100 000/00 RMK AO1 T01780128 $
54779K12N 12N20160310214510103/10/16 21:45:31  5-MIN K12N 110245Z AUTO 00000KT 18/13 A2990 600 72 1100 000/00 RMK AO1 T01780128 $
54779K12N 12N20160310215010803/10/16 21:50:31  5-MIN K12N 110250Z AUTO VRB03KT 18/13 A2990 600 72 1100 VRB/03 RMK AO1 SLP119 T01780128 $
54779K12N 12N20160310215510103/10/16 21:55:31  5-MIN K12N 110255Z AUTO 00000KT 18/13 A2991 600 72 1100 000/00 RMK AO1 T01780128 $
54779K12N 12N20160310220010103/10/16 22:00:31  5-MIN K12N 110300Z AUTO 21003KT 17/13 A2991 600 75 1000 220/03 RMK AO1 T01720128 $
54779K12N 12N20160310220510103/10/16 22:05:31  5-MIN K12N 110305Z AUTO 00000KT 17/13 A2991 600 75 1000 000/00 RMK AO1 T01720128 $
54779K12N 12N20160310221010103/10/16 22:10:31  5-MIN K12N 110310Z AUTO 00000KT 17/13 A2991 600 77 1000 000/00 RMK AO1 T01670128 $
54779K12N 12N20160310221510103/10/16 22:15:31  5-MIN K12N 110315Z AUTO 00000KT 17/13 A2991 600 75 1000 000/00 RMK AO1 T01720128 $
54779K12N 12N20160310222010103/10/16 22:20:31  5-MIN K12N 110320Z AUTO 00000KT 17/13 A2991 590 77 1000 000/00 RMK AO1 T01670128 $
54779K12N 12N20160310222510103/10/16 22:25:31  5-MIN K12N 110325Z AUTO 00000KT 17/13 A2991 590 75 1000 000/00 RMK AO1 T01720128 $
54779K12N 12N20160310223010103/10/16 22:30:31  5-MIN K12N 110330Z AUTO VRB03KT 17/13 A2991 600 78 1000 VRB/03 RMK AO1 T01720133 $
54779K12N 12N20160310223510103/10/16 22:35:31  5-MIN K12N 110335Z AUTO VRB03KT 17/13 A2991 600 80 1000 VRB/03 RMK AO1 T01670133 $
54779K12N 12N20160310224010103/10/16 22:40:31  5-MIN K12N 110340Z AUTO 00000KT 17/13 A2990 600 80 1000 000/00 RMK AO1 T01670133 $
54779K12N 12N20160310224510003/10/16 22:45:31  5-MIN K12N 110345Z AUTO VRB03KT 16/13 A2990 600 83 900 VRB/03 RMK AO1 T01610133 $
54779K12N 12N20160310225010703/10/16 22:50:31  5-MIN K12N 110350Z AUTO 00000KT 16/13 A2990 600 83 900 000/00 RMK AO1 SLP120 T01610133 $
54779K12N 12N20160310225510003/10/16 22:55:31  5-MIN K12N 110355Z AUTO 00000KT 16/13 A2990 600 83 900 000/00 RMK AO1 T01610133 $
54779K12N 12N20160310230010003/10/16 23:00:31  5-MIN K12N 110400Z AUTO VRB03KT 16/13 A2990 610 83 900 VRB/03 RMK AO1 T01610133 $
54779K12N 12N20160310230510003/10/16 23:05:31  5-MIN K12N 110405Z AUTO 00000KT 16/13 A2990 610 83 900 000/00 RMK AO1 T01610133 $
54779K12N 12N20160310231010003/10/16 23:10:31  5-MIN K12N 110410Z AUTO 00000KT 16/13 A2989 610 83 900 000/00 RMK AO1 T01610133 $
54779K12N 12N20160310231510003/10/16 23:15:31  5-MIN K12N 110415Z AUTO 00000KT 16/13 A2989 610 83 900 000/00 RMK AO1 T01610133 $
54779K12N 12N20160310232010103/10/16 23:20:31  5-MIN K12N 110420Z AUTO VRB03KT 17/13 A2990 610 80 1000 VRB/03 RMK AO1 T01670133 $
54779K12N 12N20160310232510003/10/16 23:25:31  5-MIN K12N 110425Z AUTO VRB03KT 16/13 A2990 600 86 800 VRB/03 RMK AO1 T01560133 $
54779K12N 12N20160310233010003/10/16 23:30:31  5-MIN K12N 110430Z AUTO VRB03KT 16/13 A2990 600 83 900 VRB/03 RMK AO1 T01610133 $
54779K12N 12N20160310233510603/10/16 23:35:31  5-MIN K12N 110435Z AUTO 22004KT 16/14 A2991 600 86 900 230/04 RMK AO1 P0001 T01610139 $
54779K12N 12N20160310234010603/10/16 23:40:31  5-MIN K12N 110440Z AUTO VRB04KT 16/14 A2990 600 86 900 VRB/04 RMK AO1 P0001 T01610139 $
54779K12N 12N20160310234510603/10/16 23:45:31  5-MIN K12N 110445Z AUTO VRB04KT 16/14 A2990 600 86 900 VRB/04 RMK AO1 P0001 T01610139 $
54779K12N 12N20160310235011303/10/16 23:50:31  5-MIN K12N 110450Z AUTO 16/14 A2990 600 86 900 M /M RMK AO1 SLP120 P0001 T01610139 402390106 $
54779K12N 12N20160310235510003/10/16 23:55:31  5-MIN K12N 110455Z AUTO 00000KT 16/14 A2990 610 86 900 000/00 RMK AO1 T01610139 $
54779K12N 12N20160311000010003/11/16 00:00:31  5-MIN K12N 110500Z AUTO 30003KT 16/13 A2990 600 83 900 310/03 RMK AO1 T01610133 $
54779K12N 12N20160311000510003/11/16 00:05:31  5-MIN K12N 110505Z AUTO 35008KT 16/13 A2990 600 83 900 360/08 RMK AO1 T01610133 $
54779K12N 12N20160311001010003/11/16 00:10:31  5-MIN K12N 110510Z AUTO 35009KT 16/13 A2991 590 83 800 010/09 RMK AO1 T01560128 $
54779K12N 12N20160311001510003/11/16 00:15:31  5-MIN K12N 110515Z AUTO 35006KT 15/12 A2992 590 83 800 010/06 RMK AO1 T01500122 $
54779K12N 12N20160311002010003/11/16 00:20:31  5-MIN K12N 110520Z AUTO 35007KT 15/12 A2992 590 83 800 360/07 RMK AO1 T01500122 $
54779K12N 12N20160311002510003/11/16 00:25:31  5-MIN K12N 110525Z AUTO 36005KT 14/12 A2992 580 83 700 010/05 RMK AO1 T01440117 $
54779K12N 12N20160311003009003/11/16 00:30:31  5-MIN K12N 110530Z AUTO 14/12 A2993 580 83 700 M /M RMK AO1 T01440117 $
54779K12N 12N20160311003510003/11/16 00:35:31  5-MIN K12N 110535Z AUTO VRB06KT 14/11 A2993 570 83 600 VRB/06 RMK AO1 T01390111 $
54779K12N 12N20160311004010003/11/16 00:40:31  5-MIN K12N 110540Z AUTO VRB04KT 14/11 A2994 570 83 600 VRB/04 RMK AO1 T01390111 $
54779K12N 12N20160311004509003/11/16 00:45:31  5-MIN K12N 110545Z AUTO 14/11 A2994 570 83 600 M /M RMK AO1 T01390111 $
54779K12N 12N20160311005013103/11/16 00:50:31  5-MIN K12N 110550Z AUTO 36006KT 13/11 A2994 570 86 500 010/06 RMK AO1 SLP134 60001 T01330111 10200 20133 58000 $
54779K12N 12N20160311005510003/11/16 00:55:31  5-MIN K12N 110555Z AUTO 03005KT 13/11 A2994 570 86 500 040/05 RMK AO1 T01330111 $
54779K12N 12N20160311010010003/11/16 01:00:31  5-MIN K12N 110600Z AUTO VRB04KT 13/11 A2994 570 89 500 VRB/04 RMK AO1 T01280111 $
54779K12N 12N20160311010510003/11/16 01:05:31  5-MIN K12N 110605Z AUTO VRB03KT 13/11 A2994 570 86 500 VRB/03 RMK AO1 T01280106 $
54779K12N 12N20160311011010003/11/16 01:10:31  5-MIN K12N 110610Z AUTO VRB03KT 13/11 A2994 570 86 500 VRB/03 RMK AO1 T01280106 $
54779K12N 12N20160311011510003/11/16 01:15:31  5-MIN K12N 110615Z AUTO VRB03KT 12/11 A2994 560 89 400 VRB/03 RMK AO1 T01220106 $
54779K12N 12N20160311012010603/11/16 01:20:31  5-MIN K12N 110620Z AUTO 00000KT 13/11 A2994 570 89 500 000/00 RMK AO1 P0001 T01280111 $
54779K12N 12N20160311012510603/11/16 01:25:31  5-MIN K12N 110625Z AUTO VRB04KT 13/11 A2993 580 89 500 VRB/04 RMK AO1 P0001 T01280111 $
54779K12N 12N20160311013010603/11/16 01:30:31  5-MIN K12N 110630Z AUTO 01003KT 12/11 A2993 570 93 400 020/03 RMK AO1 P0001 T01220111 $
54779K12N 12N20160311013510603/11/16 01:35:31  5-MIN K12N 110635Z AUTO VRB03KT 12/11 A2994 560 93 400 VRB/03 RMK AO1 P0001 T01220111 $
54779K12N 12N20160311014010603/11/16 01:40:31  5-MIN K12N 110640Z AUTO 00000KT 13/11 A2993 580 89 500 000/00 RMK AO1 P0001 T01280111 $
54779K12N 12N20160311014510603/11/16 01:45:31  5-MIN K12N 110645Z AUTO 05004KT 12/11 A2993 580 93 400 070/04 RMK AO1 P0001 T01220111 $
54779K12N 12N20160311015011303/11/16 01:50:31  5-MIN K12N 110650Z AUTO 00000KT 13/11 A2993 570 89 500 000/00 RMK AO1 SLP132 P0001 T01280111 $
54779K12N 12N20160311015510003/11/16 01:55:31  5-MIN K12N 110655Z AUTO 00000KT 13/11 A2993 570 89 500 000/00 RMK AO1 T01280111 $
54779K12N 12N20160311020010003/11/16 02:00:31  5-MIN K12N 110700Z AUTO 03003KT 13/11 A2992 590 89 500 040/03 RMK AO1 T01280111 $
54779K12N 12N20160311020510003/11/16 02:05:31  5-MIN K12N 110705Z AUTO 00000KT 12/11 A2992 590 93 400 000/00 RMK AO1 T01220111 $
54779K12N 12N20160311021010003/11/16 02:10:31  5-MIN K12N 110710Z AUTO 31005KT 12/11 A2993 570 89 400 320/05 RMK AO1 T01220106 $
54779K12N 12N20160311021510003/11/16 02:15:31  5-MIN K12N 110715Z AUTO 03006KT 13/11 A2992 590 89 500 040/06 RMK AO1 T01280111 $
54779K12N 12N20160311022010003/11/16 02:20:31  5-MIN K12N 110720Z AUTO 35004KT 12/11 A2992 580 93 400 360/04 RMK AO1 T01220111 $
54779K12N 12N20160311022510003/11/16 02:25:31  5-MIN K12N 110725Z AUTO 30005KT 12/11 A2993 570 93 400 310/05 RMK AO1 T01220111 $
54779K12N 12N20160311023010003/11/16 02:30:31  5-MIN K12N 110730Z AUTO 01003KT 13/11 A2993 570 89 500 030/03 RMK AO1 T01280111 $
54779K12N 12N20160311023510003/11/16 02:35:31  5-MIN K12N 110735Z AUTO 36005KT 13/11 A2994 570 89 500 010/05 RMK AO1 T01280111 $
54779K12N 12N20160311024010003/11/16 02:40:31  5-MIN K12N 110740Z AUTO 35005KT 13/11 A2995 560 89 500 360/05 RMK AO1 T01280111 $
54779K12N 12N20160311024510003/11/16 02:45:31  5-MIN K12N 110745Z AUTO VRB04KT 13/11 A2995 560 89 500 VRB/04 RMK AO1 T01280111 $
54779K12N 12N20160311025010703/11/16 02:50:31  5-MIN K12N 110750Z AUTO 00000KT 12/11 A2995 550 89 400 000/00 RMK AO1 SLP140 T01220106 $
54779K12N 12N20160311025510003/11/16 02:55:31  5-MIN K12N 110755Z AUTO 01003KT 12/11 A2995 550 93 300 030/03 RMK AO1 T01170106 $
54779K12N 12N20160311030010603/11/16 03:00:31  5-MIN K12N 110800Z AUTO VRB03KT 12/11 A2996 550 89 400 VRB/03 RMK AO1 P0001 T01220106 $
54779K12N 12N20160311030510603/11/16 03:05:31  5-MIN K12N 110805Z AUTO VRB05KT 12/11 A2995 550 89 400 VRB/05 RMK AO1 P0001 T01220106 $
54779K12N 12N20160311031010603/11/16 03:10:31  5-MIN K12N 110810Z AUTO VRB04KT 12/11 A2996 550 89 400 VRB/04 RMK AO1 P0001 T01220106 $
54779K12N 12N20160311031510603/11/16 03:15:31  5-MIN K12N 110815Z AUTO VRB05KT 12/11 A2996 550 89 400 VRB/05 RMK AO1 P0001 T01220106 $
54779K12N 12N20160311032010603/11/16 03:20:31  5-MIN K12N 110820Z AUTO VRB04KT 12/11 A2996 550 89 400 VRB/04 RMK AO1 P0001 T01220106 $
54779K12N 12N20160311032510603/11/16 03:25:31  5-MIN K12N 110825Z AUTO VRB04KT 12/11 A2995 550 89 400 VRB/04 RMK AO1 P0001 T01220106 $
54779K12N 12N20160311033010603/11/16 03:30:31  5-MIN K12N 110830Z AUTO 36004KT 12/11 A2995 550 89 400 010/04 RMK AO1 P0001 T01220106 $
54779K12N 12N20160311033510603/11/16 03:35:31  5-MIN K12N 110835Z AUTO 00000KT 12/10 A2995 560 86 400 000/00 RMK AO1 P0001 T01220100 $
54779K12N 12N20160311034010603/11/16 03:40:31  5-MIN K12N 110840Z AUTO 00000KT 12/10 A2994 560 89 300 000/00 RMK AO1 P0001 T01170100 $
54779K12N 12N20160311034510603/11/16 03:45:31  5-MIN K12N 110845Z AUTO 36003KT 12/10 A2995 560 89 300 010/03 RMK AO1 P0001 T01170100 $
54779K12N 12N20160311035012503/11/16 03:50:31  5-MIN K12N 110850Z AUTO 36003KT 12/10 A2995 550 89 300 010/03 RMK AO1 SLP140 P0001 60003 T01170100 53011 $
54779K12N 12N20160311035510003/11/16 03:55:31  5-MIN K12N 110855Z AUTO 00000KT 11/10 A2995 560 93 300 000/00 RMK AO1 T01110100 $
54779K12N 12N20160311040010003/11/16 04:00:31  5-MIN K12N 110900Z AUTO 00000KT 12/10 A2995 560 89 300 000/00 RMK AO1 T01170100 $
54779K12N 12N20160311040510003/11/16 04:05:31  5-MIN K12N 110905Z AUTO 00000KT 12/11 A2995 560 93 300 000/00 RMK AO1 T01170106 $
54779K12N 12N20160311041010003/11/16 04:10:31  5-MIN K12N 110910Z AUTO 00000KT 12/11 A2995 560 93 300 000/00 RMK AO1 T01170106 $
54779K12N 12N20160311041510003/11/16 04:15:31  5-MIN K12N 110915Z AUTO 00000KT 12/11 A2995 560 93 300 000/00 RMK AO1 T01170106 $
54779K12N 12N20160311042010003/11/16 04:20:31  5-MIN K12N 110920Z AUTO 00000KT 11/10 A2996 550 96 200 000/00 RMK AO1 T01060100 $
54779K12N 12N20160311042510003/11/16 04:25:31  5-MIN K12N 110925Z AUTO 00000KT 11/10 A2996 540 93 200 000/00 RMK AO1 T01110100 $
54779K12N 12N20160311043010703/11/16 04:30:31  5-MIN K12N 110930Z AUTO 34003KT 11/10 A2997 540 93 200 360/03 RMK AO1 PRESRR T01110100 $
54779K12N 12N20160311043510703/11/16 04:35:31  5-MIN K12N 110935Z AUTO 00000KT 11/10 A2998 530 93 200 000/00 RMK AO1 PRESRR T01110100 $
54779K12N 12N20160311044010003/11/16 04:40:31  5-MIN K12N 110940Z AUTO 00000KT 11/10 A2998 530 93 200 000/00 RMK AO1 T01110100 $
54779K12N 12N20160311044510003/11/16 04:45:31  5-MIN K12N 110945Z AUTO 00000KT 11/10 A2998 530 93 200 000/00 RMK AO1 T01110100 $
54779K12N 12N20160311045010703/11/16 04:50:31  5-MIN K12N 110950Z AUTO 00000KT 11/11 A2999 530 96 200 000/00 RMK AO1 SLP151 T01110106 $
54779K12N 12N20160311045510003/11/16 04:55:31  5-MIN K12N 110955Z AUTO 00000KT 11/11 A2999 520 96 200 000/00 RMK AO1 T01110106 $
54779K12N 12N20160311050010003/11/16 05:00:31  5-MIN K12N 111000Z AUTO 00000KT 11/11 A2999 520 96 200 000/00 RMK AO1 T01110106 $
54779K12N 12N20160311050510003/11/16 05:05:31  5-MIN K12N 111005Z AUTO 00000KT 11/11 A2998 530 96 200 000/00 RMK AO1 T01110106 $
54779K12N 12N20160311051010003/11/16 05:10:31  5-MIN K12N 111010Z AUTO VRB03KT 11/11 A2997 540 96 200 VRB/03 RMK AO1 T01110106 $
54779K12N 12N20160311051510003/11/16 05:15:31  5-MIN K12N 111015Z AUTO 00000KT 11/11 A2998 530 96 200 000/00 RMK AO1 T01110106 $
54779K12N 12N20160311052010003/11/16 05:20:31  5-MIN K12N 111020Z AUTO 00000KT 11/11 A2997 540 96 200 000/00 RMK AO1 T01110106 $
54779K12N 12N20160311052510603/11/16 05:25:31  5-MIN K12N 111025Z AUTO 22003KT 11/11 A2997 540 96 200 230/03 RMK AO1 P0001 T01110106 $
54779K12N 12N20160311053010603/11/16 05:30:31  5-MIN K12N 111030Z AUTO 00000KT 11/11 A2998 530 96 200 000/00 RMK AO1 P0001 T01110106 $
54779K12N 12N20160311053510603/11/16 05:35:31  5-MIN K12N 111035Z AUTO 00000KT 11/11 A2998 530 96 200 000/00 RMK AO1 P0001 T01110106 $
54779K12N 12N20160311054010603/11/16 05:40:31  5-MIN K12N 111040Z AUTO 22003KT 11/11 A2998 530 96 200 230/03 RMK AO1 P0001 T01110106 $
54779K12N 12N20160311054510603/11/16 05:45:31  5-MIN K12N 111045Z AUTO 00000KT 11/11 A2999 520 96 200 000/00 RMK AO1 P0001 T01110106 $
54779K12N 12N20160311055011303/11/16 05:50:31  5-MIN K12N 111050Z AUTO 00000KT 11/11 A2999 520 96 200 000/00 RMK AO1 SLP152 P0001 T01110106 $
54779K12N 12N20160311055510003/11/16 05:55:31  5-MIN K12N 111055Z AUTO 00000KT 11/11 A3000 520 96 200 000/00 RMK AO1 T01110106 $
54779K12N 12N20160311060010003/11/16 06:00:31  5-MIN K12N 111100Z AUTO 00000KT 11/10 A3000 510 96 100 000/00 RMK AO1 T01060100 $
54779K12N 12N20160311060510703/11/16 06:05:31  5-MIN K12N 111105Z AUTO 00000KT 11/10 A3001 500 93 200 000/00 RMK AO1 PRESRR T01110100 $
54779K12N 12N20160311061010003/11/16 06:10:31  5-MIN K12N 111110Z AUTO 00000KT 11/10 A3000 510 96 100 000/00 RMK AO1 T01060100 $
54779K12N 12N20160311061510003/11/16 06:15:31  5-MIN K12N 111115Z AUTO 00000KT 11/10 A3001 500 96 100 000/00 RMK AO1 T01060100 $
54779K12N 12N20160311062010003/11/16 06:20:31  5-MIN K12N 111120Z AUTO 00000KT 11/10 A3001 500 96 100 000/00 RMK AO1 T01060100 $
54779K12N 12N20160311062510003/11/16 06:25:31  5-MIN K12N 111125Z AUTO 00000KT 11/10 A3002 490 96 100 000/00 RMK AO1 T01060100 $
54779K12N 12N20160311063010003/11/16 06:30:31  5-MIN K12N 111130Z AUTO 00000KT 11/11 A3002 490 96 200 000/00 RMK AO1 T01110106 $
54779K12N 12N20160311063510103/11/16 06:35:31  5-MIN K12N 111135Z AUTO 16003KT 11/11 A3002 490 100 100 180/03 RMK AO1 T01060106 $
54779K12N 12N20160311064010003/11/16 06:40:31  5-MIN K12N 111140Z AUTO 00000KT 11/10 A3003 480 93 200 000/00 RMK AO1 T01110100 $
54779K12N 12N20160311064510003/11/16 06:45:31  5-MIN K12N 111145Z AUTO 00000KT 11/10 A3003 480 96 100 000/00 RMK AO1 T01060100 $
54779K12N 12N20160311065013703/11/16 06:50:31  5-MIN K12N 111150Z AUTO 00000KT 11/10 A3002 490 96 100 000/00 RMK AO1 SLP166 60004 70005 T01060100 10133 20106 50005 $
54779K12N 12N20160311065510003/11/16 06:55:31  5-MIN K12N 111155Z AUTO 00000KT 11/10 A3004 480 93 200 000/00 RMK AO1 T01110100 $
54779K12N 12N20160311070010003/11/16 07:00:31  5-MIN K12N 111200Z AUTO 00000KT 11/10 A3004 480 93 200 000/00 RMK AO1 T01110100 $
54779K12N 12N20160311070510003/11/16 07:05:31  5-MIN K12N 111205Z AUTO 00000KT 11/10 A3004 470 93 200 000/00 RMK AO1 T01110100 $
54779K12N 12N20160311071010003/11/16 07:10:31  5-MIN K12N 111210Z AUTO 00000KT 11/10 A3005 470 93 200 000/00 RMK AO1 T01110100 $
54779K12N 12N20160311071510703/11/16 07:15:31  5-MIN K12N 111215Z AUTO 36003KT 11/10 A3006 460 93 100 020/03 RMK AO1 PRESRR T01110100 $
54779K12N 12N20160311072009003/11/16 07:20:31  5-MIN K12N 111220Z AUTO 11/10 A3006 460 93 100 M /M RMK AO1 T01110100 $
54779K12N 12N20160311072510003/11/16 07:25:31  5-MIN K12N 111225Z AUTO 35007KT 12/09 A3006 450 86 200 010/07 RMK AO1 T01170094 $
54779K12N 12N20160311073009003/11/16 07:30:31  5-MIN K12N 111230Z AUTO 12/09 A3007 450 83 200 M /M RMK AO1 T01170089 $
54779K12N 12N20160311073511603/11/16 07:35:31  5-MIN K12N 111235Z AUTO 34008KT 300V020 12/08 A3008 440 80 200 350/08 310V030 RMK AO1 T01170083 $
54779K12N 12N20160311074011603/11/16 07:40:31  5-MIN K12N 111240Z AUTO 36007KT 320V040 12/08 A3008 440 77 200 010/07 330V050 RMK AO1 T01170078 $
54779K12N 12N20160311074510003/11/16 07:45:31  5-MIN K12N 111245Z AUTO 35005KT 12/07 A3008 440 74 200 360/05 RMK AO1 T01170072 $
54779K12N 12N20160311075012903/11/16 07:50:31  5-MIN K12N 111250Z AUTO 35010G14KT 310V040 12/07 A3009 430 71 200 010/10G14 320V050 RMK AO1 SLP187 T01170067 $
54779K12N 12N20160311075510603/11/16 07:55:31  5-MIN K12N 111255Z AUTO VRB06G14KT 12/06 A3009 430 68 200 VRB/06G14 RMK AO1 T01170061 $
54779K12N 12N20160311080010003/11/16 08:00:31  5-MIN K12N 111300Z AUTO VRB05KT 11/06 A3010 420 68 100 VRB/05 RMK AO1 T01110056 $
54779K12N 12N20160311080512303/11/16 08:05:31  5-MIN K12N 111305Z AUTO 33007KT 290V010 11/05 A3011 410 66 100 350/07 300V020 RMK AO1 PRESRR T01110050 $
54779K12N 12N20160311081010003/11/16 08:10:31  5-MIN K12N 111310Z AUTO VRB04KT 11/05 A3011 410 66 100 VRB/04 RMK AO1 T01110050 $
54779K12N 12N20160311081512303/11/16 08:15:31  5-MIN K12N 111315Z AUTO 32009KT 300V020 11/05 A3012 400 66 100 340/09 310V030 RMK AO1 PRESRR T01110050 $
54779K12N 12N20160311082010703/11/16 08:20:31  5-MIN K12N 111320Z AUTO VRB06KT 11/05 A3013 390 66 100 VRB/06 RMK AO1 PRESRR T01110050 $
54779K12N 12N20160311082511603/11/16 08:25:31  5-MIN K12N 111325Z AUTO 35009KT 320V030 11/04 A3013 390 63 100 010/09 330V040 RMK AO1 T01110044 $
54779K12N 12N20160311083011403/11/16 08:30:31  5-MIN K12N 111330Z AUTO 35007KT 320V050 11/04 A3013 390 66 0 010/07 330V060 RMK AO1 T01060044 $
54779K12N 12N20160311083512003/11/16 08:35:31  5-MIN K12N 111335Z AUTO 36010G18KT 320V040 11/04 A3014 380 66 0 010/10G18 330V050 RMK AO1 T01060044 $
54779K12N 12N20160311084012003/11/16 08:40:31  5-MIN K12N 111340Z AUTO 36008G18KT 300V050 11/04 A3013 390 63 0 010/08G18 310V060 RMK AO1 T01060039 $
54779K12N 12N20160311084512003/11/16 08:45:31  5-MIN K12N 111345Z AUTO 01008G15KT 350V050 11/04 A3013 390 63 0 020/08G15 360V060 RMK AO1 T01060039 $
54779K12N 12N20160311085011103/11/16 08:50:31  5-MIN K12N 111350Z AUTO VRB06G15KT 11/04 A3014 390 63 0 VRB/06G15 RMK AO1 SLP204 T01060039 $
54779K12N 12N20160311085511403/11/16 08:55:31  5-MIN K12N 111355Z AUTO 34007KT 300V010 11/04 A3014 380 66 0 360/07 310V020 RMK AO1 T01060044 $
54779K12N 12N20160311090012003/11/16 09:00:31  5-MIN K12N 111400Z AUTO 35012G17KT 320V020 10/04 A3014 380 68 0 360/12G17 330V030 RMK AO1 T01000044 $
54779K12N 12N20160311090512003/11/16 09:05:31  5-MIN K12N 111405Z AUTO 35007G17KT 290V040 10/04 A3014 380 68 0 360/07G17 300V050 RMK AO1 T01000044 $
54779K12N 12N20160311091009803/11/16 09:10:31  5-MIN K12N 111410Z AUTO VRB05KT 10/04 A3014 380 68 0 VRB/05 RMK AO1 T01000044 $
54779K12N 12N20160311091511403/11/16 09:15:31  5-MIN K12N 111415Z AUTO 35007KT 300V120 10/04 A3015 370 68 0 360/07 310V130 RMK AO1 T01000044 $
54779K12N 12N20160311092011403/11/16 09:20:31  5-MIN K12N 111420Z AUTO 32008KT 270V360 11/04 A3015 370 66 0 330/08 280V010 RMK AO1 T01060044 $
54779K12N 12N20160311092511403/11/16 09:25:31  5-MIN K12N 111425Z AUTO 33008KT 280V010 11/04 A3015 380 66 0 340/08 290V020 RMK AO1 T01060044 $
54779K12N 12N20160311093009803/11/16 09:30:31  5-MIN K12N 111430Z AUTO VRB05KT 11/04 A3015 370 63 0 VRB/05 RMK AO1 T01060039 $
54779K12N 12N20160311093509803/11/16 09:35:31  5-MIN K12N 111435Z AUTO 36005KT 11/04 A3016 370 63 0 010/05 RMK AO1 T01060039 $
54779K12N 12N20160311094008803/11/16 09:40:31  5-MIN K12N 111440Z AUTO 11/04 A3016 370 63 0 M /M RMK AO1 T01060039 $
54779K12N 12N20160311094509803/11/16 09:45:31  5-MIN K12N 111445Z AUTO VRB04KT 11/04 A3016 370 63 0 VRB/04 RMK AO1 T01060039 $
54779K12N 12N20160311095011103/11/16 09:50:31  5-MIN K12N 111450Z AUTO VRB04KT 11/04 A3015 370 63 0 VRB/04 RMK AO1 SLP209 T01060039 53027 $
54779K12N 12N20160311095509803/11/16 09:55:31  5-MIN K12N 111455Z AUTO 34008KT 11/04 A3015 370 61 0 350/08 RMK AO1 T01110039 $
54779K12N 12N20160311100012003/11/16 10:00:31  5-MIN K12N 111500Z AUTO 32008G17KT 260V360 11/03 A3016 370 61 0 340/08G17 270V010 RMK AO1 T01060033 $
54779K12N 12N20160311100512003/11/16 10:05:31  5-MIN K12N 111505Z AUTO 31010G17KT 290V010 11/03 A3015 370 58 0 320/10G17 300V020 RMK AO1 T01110033 $
54779K12N 12N20160311101012003/11/16 10:10:31  5-MIN K12N 111510Z AUTO 32008G15KT 270V340 11/04 A3016 370 61 0 340/08G15 280V350 RMK AO1 T01110039 $
54779K12N 12N20160311101510003/11/16 10:15:31  5-MIN K12N 111515Z AUTO 00000KT 12/04 A3016 370 58 100 000/00 RMK AO1 T01170039 $
54779K12N 12N20160311102011603/11/16 10:20:31  5-MIN K12N 111520Z AUTO 32008KT 290V360 12/04 A3016 370 56 200 330/08 300V010 RMK AO1 T01220039 $
54779K12N 12N20160311102510603/11/16 10:25:31  5-MIN K12N 111525Z AUTO 35008G15KT 12/04 A3016 370 58 100 360/08G15 RMK AO1 T01170039 $
54779K12N 12N20160311103010403/11/16 10:30:31  5-MIN K12N 111530Z AUTO VRB05G15KT 11/03 A3016 370 58 0 VRB/05G15 RMK AO1 T01110033 $
54779K12N 12N20160311103510003/11/16 10:35:31  5-MIN K12N 111535Z AUTO VRB06KT 12/03 A3015 370 56 100 VRB/06 RMK AO1 T01170033 $
54779K12N 12N20160311104010003/11/16 10:40:31  5-MIN K12N 111540Z AUTO 35008KT 12/03 A3015 370 56 100 010/08 RMK AO1 T01170033 $
54779K12N 12N20160311104510003/11/16 10:45:31  5-MIN K12N 111545Z AUTO VRB03KT 12/03 A3015 380 56 100 VRB/03 RMK AO1 T01170033 $
54779K12N 12N20160311105009703/11/16 10:50:31  5-MIN K12N 111550Z AUTO 12/03 A3015 380 56 100 M /M RMK AO1 SLP208 T01170033 $
54779K12N 12N20160311105510003/11/16 10:55:31  5-MIN K12N 111555Z AUTO 35007KT 12/04 A3015 380 56 200 360/07 RMK AO1 T01220039 $
54779K12N 12N20160311110010603/11/16 11:00:31  5-MIN K12N 111600Z AUTO 36007G15KT 12/04 A3015 370 56 200 010/07G15 RMK AO1 T01220039 $
54779K12N 12N20160311110510603/11/16 11:05:31  5-MIN K12N 111605Z AUTO 31009G16KT 12/03 A3015 370 54 200 320/09G16 RMK AO1 T01220033 $
54779K12N 12N20160311111010603/11/16 11:10:31  5-MIN K12N 111610Z AUTO 33009G16KT 12/04 A3016 370 56 200 340/09G16 RMK AO1 T01220039 $
54779K12N 12N20160311111510003/11/16 11:15:31  5-MIN K12N 111615Z AUTO VRB04KT 13/04 A3016 370 54 200 VRB/04 RMK AO1 T01280039 $
54779K12N 12N20160311112009003/11/16 11:20:31  5-MIN K12N 111620Z AUTO 13/04 A3016 370 54 200 M /M RMK AO1 T01280039 $
54779K12N 12N20160311112511603/11/16 11:25:31  5-MIN K12N 111625Z AUTO 35008KT 320V020 12/03 A3016 370 54 200 360/08 330V030 RMK AO1 T01220033 $
54779K12N 12N20160311113010003/11/16 11:30:31  5-MIN K12N 111630Z AUTO VRB03KT 12/03 A3016 370 54 200 VRB/03 RMK AO1 T01220033 $
54779K12N 12N20160311113510003/11/16 11:35:31  5-MIN K12N 111635Z AUTO VRB03KT 13/03 A3016 370 52 200 VRB/03 RMK AO1 T01280033 $
54779K12N 12N20160311114010003/11/16 11:40:31  5-MIN K12N 111640Z AUTO VRB04KT 13/04 A3016 370 52 300 VRB/04 RMK AO1 T01330039 $
54779K12N 12N20160311114511603/11/16 11:45:31  5-MIN K12N 111645Z AUTO 34008KT 300V020 13/03 A3016 370 50 300 350/08 310V030 RMK AO1 T01330033 $
54779K12N 12N20160311115012303/11/16 11:50:31  5-MIN K12N 111650Z AUTO 01009KT 330V050 13/03 A3015 370 50 200 030/09 340V060 RMK AO1 SLP210 T01280028 $
54779K12N 12N20160311115510003/11/16 11:55:31  5-MIN K12N 111655Z AUTO 36008KT 13/03 A3015 370 50 200 010/08 RMK AO1 T01280028 $
54779K12N 12N20160311120011603/11/16 12:00:31  5-MIN K12N 111700Z AUTO 35007KT 310V030 13/03 A3015 370 50 300 360/07 320V040 RMK AO1 T01330033 $
54779K12N 12N20160311120510003/11/16 12:05:31  5-MIN K12N 111705Z AUTO VRB04KT 14/03 A3015 380 48 400 VRB/04 RMK AO1 T01390033 $
54779K12N 12N20160311121010003/11/16 12:10:31  5-MIN K12N 111710Z AUTO VRB06KT 13/03 A3015 370 50 300 VRB/06 RMK AO1 T01330033 $
54779K12N 12N20160311121510003/11/16 12:15:31  5-MIN K12N 111715Z AUTO VRB06KT 14/03 A3015 370 48 400 VRB/06 RMK AO1 T01390033 $
54779K12N 12N20160311122012203/11/16 12:20:31  5-MIN K12N 111720Z AUTO 34009G15KT 290V360 14/03 A3016 370 47 400 350/09G15 300V010 RMK AO1 T01390028 $
54779K12N 12N20160311122510603/11/16 12:25:31  5-MIN K12N 111725Z AUTO 02006G17KT 14/03 A3015 370 47 400 040/06G17 RMK AO1 T01390028 $
54779K12N 12N20160311123012203/11/16 12:30:31  5-MIN K12N 111730Z AUTO 01007G17KT 310V050 14/03 A3016 370 47 400 020/07G17 320V060 RMK AO1 T01390028 $
54779K12N 12N20160311123512203/11/16 12:35:31  5-MIN K12N 111735Z AUTO 01007G16KT 330V050 14/03 A3016 370 45 400 030/07G16 340V060 RMK AO1 T01440028 $
54779K12N 12N20160311124010003/11/16 12:40:31  5-MIN K12N 111740Z AUTO 02006KT 14/03 A3015 370 47 400 030/06 RMK AO1 T01440033 $
54779K12N 12N20160311124511603/11/16 12:45:31  5-MIN K12N 111745Z AUTO 01008KT 340V040 14/03 A3016 370 45 400 020/08 350V050 RMK AO1 T01440028 $
54779K12N 12N20160311125013103/11/16 12:50:31  5-MIN K12N 111750Z AUTO VRB04G15KT 14/02 A3016 360 43 400 VRB/04G15 RMK AO1 SLP213 T01440022 10150 20100 51040 $
54779K12N 12N20160311125510003/11/16 12:55:31  5-MIN K12N 111755Z AUTO VRB06KT 14/03 A3016 360 45 400 VRB/06 RMK AO1 T01440028 $
54779K12N 12N20160311130010003/11/16 13:00:31  5-MIN K12N 111800Z AUTO 35010KT 14/03 A3016 360 45 400 360/10 RMK AO1 T01440028 $
54779K12N 12N20160311130512203/11/16 13:05:31  5-MIN K12N 111805Z AUTO 01009G16KT 340V040 14/03 A3016 360 45 400 020/09G16 350V050 RMK AO1 T01440028 $
54779K12N 12N20160311131010603/11/16 13:10:31  5-MIN K12N 111810Z AUTO VRB06G16KT 14/03 A3017 360 47 400 VRB/06G16 RMK AO1 T01440033 $
54779K12N 12N20160311131510003/11/16 13:15:31  5-MIN K12N 111815Z AUTO 35009KT 14/03 A3017 360 47 400 360/09 RMK AO1 T01390028 $
54779K12N 12N20160311132011603/11/16 13:20:31  5-MIN K12N 111820Z AUTO 34008KT 320V040 14/02 A3016 360 45 400 360/08 330V050 RMK AO1 T01390022 $
54779K12N 12N20160311132510603/11/16 13:25:31  5-MIN K12N 111825Z AUTO 35009G15KT 14/02 A3017 360 45 400 360/09G15 RMK AO1 T01390022 $
54779K12N 12N20160311133010603/11/16 13:30:31  5-MIN K12N 111830Z AUTO VRB06G15KT 14/02 A3017 360 45 300 VRB/06G15 RMK AO1 T01390022 $
54779K12N 12N20160311133512203/11/16 13:35:31  5-MIN K12N 111835Z AUTO 36007G14KT 320V030 14/02 A3016 360 43 400 010/07G14 330V040 RMK AO1 T01440022 $
54779K12N 12N20160311134010603/11/16 13:40:31  5-MIN K12N 111840Z AUTO VRB05G14KT 14/02 A3016 360 43 400 VRB/05G14 RMK AO1 T01440022 $
54779K12N 12N20160311134512203/11/16 13:45:31  5-MIN K12N 111845Z AUTO 34007G14KT 320V030 14/02 A3016 360 43 400 360/07G14 330V040 RMK AO1 T01440022 $
54779K12N 12N20160311135012303/11/16 13:50:31  5-MIN K12N 111850Z AUTO 36007KT 330V040 14/02 A3017 360 43 400 020/07 340V050 RMK AO1 SLP214 T01440022 $
54779K12N 12N20160311135511403/11/16 13:55:31  5-MIN K12N 111855Z AUTO 36007KT 320V040 15/03 A3017 360 43 500 010/07 330V050 RMK AO1 T01500028
54779K12N 12N20160311140010403/11/16 14:00:31  5-MIN K12N 111900Z AUTO 01008G15KT 15/02 A3017 360 40 500 020/08G15 RMK AO1 T01500017
54779K12N 12N20160311140510403/11/16 14:05:31  5-MIN K12N 111905Z AUTO VRB05G15KT 14/02 A3017 350 43 400 VRB/05G15 RMK AO1 T01440022
54779K12N 12N20160311141009803/11/16 14:10:31  5-MIN K12N 111910Z AUTO VRB06KT 15/03 A3018 350 43 500 VRB/06 RMK AO1 T01500028
54779K12N 12N20160311141509803/11/16 14:15:31  5-MIN K12N 111915Z AUTO 34008KT 15/02 A3018 350 42 500 360/08 RMK AO1 T01500022
54779K12N 12N20160311142011403/11/16 14:20:31  5-MIN K12N 111920Z AUTO 36007KT 330V060 14/02 A3018 350 41 400 020/07 340V070 RMK AO1 T01440017
54779K12N 12N20160311142509803/11/16 14:25:31  5-MIN K12N 111925Z AUTO VRB05KT 15/02 A3018 350 42 500 VRB/05 RMK AO1 T01500022
54779K12N 12N20160311143012003/11/16 14:30:31  5-MIN K12N 111930Z AUTO 34007G14KT 310V020 14/01 A3018 340 40 400 350/07G14 320V030 RMK AO1 T01440011
54779K12N 12N20160311143510403/11/16 14:35:31  5-MIN K12N 111935Z AUTO VRB04G14KT 15/01 A3019 340 38 500 VRB/04G14 RMK AO1 T01500011
54779K12N 12N20160311144011403/11/16 14:40:31  5-MIN K12N 111940Z AUTO 34008KT 310V040 16/02 A3019 340 39 500 350/08 320V050 RMK AO1 T01560017
54779K12N 12N20160311144511403/11/16 14:45:31  5-MIN K12N 111945Z AUTO 36008KT 340V040 15/01 A3019 340 38 500 020/08 350V050 RMK AO1 T01500011
54779K12N 12N20160311145010503/11/16 14:50:31  5-MIN K12N 111950Z AUTO 35007KT 16/01 A3019 330 37 500 360/07 RMK AO1 SLP224 T01560011
54779K12N 12N20160311145512003/11/16 14:55:31  5-MIN K12N 111955Z AUTO 36010G15KT 340V040 15/01 A3020 330 38 400 020/10G15 350V050 RMK AO1 T01500011
54779K12N 12N20160311150010403/11/16 15:00:31  5-MIN K12N 112000Z AUTO 34009G15KT 15/01 A3020 330 38 400 360/09G15 RMK AO1 T01500011
54779K12N 12N20160311150512003/11/16 15:05:31  5-MIN K12N 112005Z AUTO 34009G15KT 290V360 14/01 A3020 330 38 400 350/09G15 300V010 RMK AO1 T01440006
54779K12N 12N20160311151010403/11/16 15:10:31  5-MIN K12N 112010Z AUTO VRB06G14KT 14/01 A3020 330 38 400 VRB/06G14 RMK AO1 T01440006
54779K12N 12N20160311151509803/11/16 15:15:31  5-MIN K12N 112015Z AUTO 34010KT 14/01 A3020 330 38 400 350/10 RMK AO1 T01440006
54779K12N 12N20160311152011403/11/16 15:20:31  5-MIN K12N 112020Z AUTO 01007KT 330V050 15/00 A3020 330 35 400 020/07 340V060 RMK AO1 T01500000
54779K12N 12N20160311152509803/11/16 15:25:31  5-MIN K12N 112025Z AUTO VRB05KT 14/01 A3020 320 41 300 VRB/05 RMK AO1 T01390011
54779K12N 12N20160311153011403/11/16 15:30:31  5-MIN K12N 112030Z AUTO 35007KT 320V030 14/01 A3021 320 38 400 360/07 330V040 RMK AO1 T01440006
54779K12N 12N20160311153511403/11/16 15:35:31  5-MIN K12N 112035Z AUTO 34007KT 300V010 15/00 A3021 320 35 400 350/07 310V020 RMK AO1 T01500000
54779K12N 12N20160311154011403/11/16 15:40:31  5-MIN K12N 112040Z AUTO 36008KT 330V040 14/00 A3021 320 37 400 010/08 340V050 RMK AO1 T01440000
54779K12N 12N20160311154510503/11/16 15:45:31  5-MIN K12N 112045Z AUTO 36011G19KT 14/M01 A3021 310 34 400 010/11G19 RMK AO1 T01441011
54779K12N 12N20160311155011803/11/16 15:50:31  5-MIN K12N 112050Z AUTO 36012G19KT 14/M01 A3021 310 37 300 010/12G19 RMK AO1 SLP232 T01391006 53003
54779K12N 12N20160311155512103/11/16 15:55:31  5-MIN K12N 112055Z AUTO 01009G18KT 340V060 14/M01 A3022 310 35 400 030/09G18 350V070 RMK AO1 T01441006
54779K12N 12N20160311160012103/11/16 16:00:31  5-MIN K12N 112100Z AUTO 36008G20KT 330V030 14/M01 A3022 310 35 400 010/08G20 340V040 RMK AO1 T01441006
54779K12N 12N20160311160510403/11/16 16:05:31  5-MIN K12N 112105Z AUTO VRB06G20KT 14/00 A3022 310 37 400 VRB/06G20 RMK AO1 T01440000
54779K12N 12N20160311161010403/11/16 16:10:31  5-MIN K12N 112110Z AUTO VRB05G14KT 15/00 A3022 310 35 400 VRB/05G14 RMK AO1 T01500000
54779K12N 12N20160311161510403/11/16 16:15:31  5-MIN K12N 112115Z AUTO 34006G14KT 15/01 A3022 310 37 400 350/06G14 RMK AO1 T01500006
54779K12N 12N20160311162009803/11/16 16:20:31  5-MIN K12N 112120Z AUTO 01007KT 14/00 A3022 310 37 400 020/07 RMK AO1 T01440000
54779K12N 12N20160311162512103/11/16 16:25:31  5-MIN K12N 112125Z AUTO 36011G17KT 330V030 14/M01 A3023 300 35 300 010/11G17 340V040 RMK AO1 T01441006
54779K12N 12N20160311163010503/11/16 16:30:31  5-MIN K12N 112130Z AUTO 36009G17KT 14/M02 A3023 300 34 300 010/09G17 RMK AO1 T01391017
54779K12N 12N20160311163509903/11/16 16:35:31  5-MIN K12N 112135Z AUTO 01005KT 14/M02 A3023 300 33 300 020/05 RMK AO1 T01441017
54779K12N 12N20160311164009903/11/16 16:40:31  5-MIN K12N 112140Z AUTO VRB05KT 14/M01 A3023 300 37 300 VRB/05 RMK AO1 T01391006
54779K12N 12N20160311164508903/11/16 16:45:31  5-MIN K12N 112145Z AUTO 14/M01 A3023 300 37 300 M /M RMK AO1 T01391006
54779K12N 12N20160311165010603/11/16 16:50:31  5-MIN K12N 112150Z AUTO 36008KT 14/M01 A3024 290 37 300 020/08 RMK AO1 SLP240 T01391006
54779K12N 12N20160311165509903/11/16 16:55:31  5-MIN K12N 112155Z AUTO 36005KT 14/M01 A3024 290 37 300 010/05 RMK AO1 T01391006
54779K12N 12N20160311170009903/11/16 17:00:31  5-MIN K12N 112200Z AUTO VRB03KT 13/M01 A3024 290 38 200 VRB/03 RMK AO1 T01331006
54779K12N 12N20160311170509903/11/16 17:05:31  5-MIN K12N 112205Z AUTO VRB04KT 13/M01 A3025 280 38 200 VRB/04 RMK AO1 T01331006
54779K12N 12N20160311171009903/11/16 17:10:31  5-MIN K12N 112210Z AUTO VRB04KT 13/M01 A3025 280 38 200 VRB/04 RMK AO1 T01331006
54779K12N 12N20160311171509903/11/16 17:15:31  5-MIN K12N 112215Z AUTO VRB04KT 13/M01 A3025 280 39 100 VRB/04 RMK AO1 T01281006
54779K12N 12N20160311172009903/11/16 17:20:31  5-MIN K12N 112220Z AUTO 33006KT 13/M01 A3025 280 39 100 350/06 RMK AO1 T01281006
54779K12N 12N20160311172509903/11/16 17:25:31  5-MIN K12N 112225Z AUTO VRB04KT 13/M01 A3026 280 39 100 VRB/04 RMK AO1 T01281006
54779K12N 12N20160311173009703/11/16 17:30:31  5-MIN K12N 112230Z AUTO VRB06KT 12/M01 A3026 280 41 0 VRB/06 RMK AO1 T01221006
54779K12N 12N20160311173509703/11/16 17:35:31  5-MIN K12N 112235Z AUTO VRB06KT 12/M01 A3026 270 41 0 VRB/06 RMK AO1 T01221006
54779K12N 12N20160311174011303/11/16 17:40:31  5-MIN K12N 112240Z AUTO 36007KT 320V020 12/M01 A3027 270 42 0 010/07 330V030 RMK AO1 T01171006
54779K12N 12N20160311174509703/11/16 17:45:31  5-MIN K12N 112245Z AUTO VRB04KT 12/M01 A3027 270 42 0 VRB/04 RMK AO1 T01171006
54779K12N 12N20160311175010403/11/16 17:50:31  5-MIN K12N 112250Z AUTO VRB03KT 12/M01 A3027 270 42 0 VRB/03 RMK AO1 SLP251 T01171006
54779K12N 12N20160311175509703/11/16 17:55:31  5-MIN K12N 112255Z AUTO VRB04KT 11/M01 A3027 260 44 0 VRB/04 RMK AO1 T01111006
54779K12N 12N20160311180009703/11/16 18:00:31  5-MIN K12N 112300Z AUTO 36006KT 11/M01 A3027 260 44 0 010/06 RMK AO1 T01111006
54779K12N 12N20160311180509703/11/16 18:05:31  5-MIN K12N 112305Z AUTO 34004KT 12/M01 A3028 260 41 0 350/04 RMK AO1 T01171011
54779K12N 12N20160311181010003/11/16 18:10:31  5-MIN K12N 112310Z AUTO VRB06KT 11/M01 A3028 250 44 -100 VRB/06 RMK AO1 T01111006
54779K12N 12N20160311181510003/11/16 18:15:31  5-MIN K12N 112315Z AUTO 35007KT 11/M01 A3028 250 44 -100 360/07 RMK AO1 T01111006
54779K12N 12N20160311182010003/11/16 18:20:31  5-MIN K12N 112320Z AUTO 34007KT 11/M01 A3029 250 44 -100 350/07 RMK AO1 T01111006
54779K12N 12N20160311182510003/11/16 18:25:31  5-MIN K12N 112325Z AUTO 34005KT 11/M01 A3029 240 46 -100 360/05 RMK AO1 T01061006
54779K12N 12N20160311183010003/11/16 18:30:31  5-MIN K12N 112330Z AUTO 36005KT 11/M01 A3030 240 46 -100 010/05 RMK AO1 T01061006
54779K12N 12N20160311183510003/11/16 18:35:31  5-MIN K12N 112335Z AUTO 36007KT 11/M01 A3030 230 46 -200 020/07 RMK AO1 T01061006
54779K12N 12N20160311184010003/11/16 18:40:31  5-MIN K12N 112340Z AUTO 35004KT 10/M01 A3030 230 47 -200 010/04 RMK AO1 T01001006
54779K12N 12N20160311184510003/11/16 18:45:31  5-MIN K12N 112345Z AUTO VRB03KT 10/M01 A3031 230 47 -200 VRB/03 RMK AO1 T01001006
54779K12N 12N20160311185012503/11/16 18:50:31  5-MIN K12N 112350Z AUTO 36004KT 09/M01 A3031 230 49 -300 010/04 RMK AO1 SLP266 T00941006 10156 20094 53018
54779K12N 12N20160311185510003/11/16 18:55:31  5-MIN K12N 112355Z AUTO 00000KT 10/M01 A3031 230 47 -200 000/00 RMK AO1 T01001006
54779K12N 12N20160311190010003/11/16 19:00:31  5-MIN K12N 120000Z AUTO 30004KT 09/M01 A3031 230 49 -300 320/04 RMK AO1 T00941006
54779K12N 12N20160311190510003/11/16 19:05:31  5-MIN K12N 120005Z AUTO 30004KT 09/M01 A3031 230 49 -300 310/04 RMK AO1 T00941006
54779K12N 12N20160311191010003/11/16 19:10:31  5-MIN K12N 120010Z AUTO 34003KT 09/M01 A3031 230 51 -400 350/03 RMK AO1 T00891006
54779K12N 12N20160311191510003/11/16 19:15:31  5-MIN K12N 120015Z AUTO 31005KT 09/M01 A3031 230 49 -300 330/05 RMK AO1 T00941006
54779K12N 12N20160311192010003/11/16 19:20:31  5-MIN K12N 120020Z AUTO VRB03KT 09/M01 A3031 230 49 -300 VRB/03 RMK AO1 T00941006
54779K12N 12N20160311192510003/11/16 19:25:31  5-MIN K12N 120025Z AUTO VRB03KT 09/M01 A3032 220 51 -400 VRB/03 RMK AO1 T00891006
54779K12N 12N20160311193010003/11/16 19:30:31  5-MIN K12N 120030Z AUTO VRB04KT 09/M01 A3032 220 51 -400 VRB/04 RMK AO1 T00891006
54779K12N 12N20160311193510003/11/16 19:35:31  5-MIN K12N 120035Z AUTO VRB03KT 09/M01 A3032 220 51 -400 VRB/03 RMK AO1 T00891006
54779K12N 12N20160311194010003/11/16 19:40:31  5-MIN K12N 120040Z AUTO 35005KT 09/M01 A3032 220 51 -400 360/05 RMK AO1 T00891006
54779K12N 12N20160311194510003/11/16 19:45:31  5-MIN K12N 120045Z AUTO 01004KT 09/M01 A3032 210 51 -400 020/04 RMK AO1 T00891006
54779K12N 12N20160311195010603/11/16 19:50:31  5-MIN K12N 120050Z AUTO 36004KT 09/00 A3033 210 53 -400 010/04 RMK AO1 SLP272 T00890000
54779K12N 12N20160311195509903/11/16 19:55:31  5-MIN K12N 120055Z AUTO 36004KT 08/00 A3033 210 55 -400 010/04 RMK AO1 T00830000
54779K12N 12N20160311200010003/11/16 20:00:31  5-MIN K12N 120100Z AUTO 00000KT 08/M01 A3033 210 53 -500 000/00 RMK AO1 T00831006
54779K12N 12N20160311200510003/11/16 20:05:31  5-MIN K12N 120105Z AUTO VRB03KT 08/M01 A3033 210 55 -500 VRB/03 RMK AO1 T00781006
54779K12N 12N20160311201010003/11/16 20:10:31  5-MIN K12N 120110Z AUTO 00000KT 08/M01 A3033 210 53 -500 000/00 RMK AO1 T00831006
54779K12N 12N20160311201509003/11/16 20:15:31  5-MIN K12N 120115Z AUTO 08/M01 A3033 210 53 -500 M /M RMK AO1 T00831006
54779K12N 12N20160311202010003/11/16 20:20:31  5-MIN K12N 120120Z AUTO 34003KT 08/M01 A3033 210 53 -400 360/03 RMK AO1 T00831006
54779K12N 12N20160311202510003/11/16 20:25:31  5-MIN K12N 120125Z AUTO VRB04KT 08/M01 A3033 210 53 -400 VRB/04 RMK AO1 T00831006
54779K12N 12N20160311203010003/11/16 20:30:31  5-MIN K12N 120130Z AUTO 00000KT 08/M01 A3032 210 53 -400 000/00 RMK AO1 T00831006
54779K12N 12N20160311203510003/11/16 20:35:31  5-MIN K12N 120135Z AUTO 00000KT 08/M01 A3033 210 55 -500 000/00 RMK AO1 T00781006
54779K12N 12N20160311204010003/11/16 20:40:31  5-MIN K12N 120140Z AUTO 00000KT 07/M01 A3033 210 60 -700 000/00 RMK AO1 T00671006
54779K12N 12N20160311204509903/11/16 20:45:31  5-MIN K12N 120145Z AUTO 00000KT 07/00 A3032 210 62 -700 000/00 RMK AO1 T00670000
54779K12N 12N20160311205010603/11/16 20:50:31  5-MIN K12N 120150Z AUTO 00000KT 07/01 A3033 210 65 -700 000/00 RMK AO1 SLP273 T00670006
54779K12N 12N20160311205509903/11/16 20:55:31  5-MIN K12N 120155Z AUTO 00000KT 06/00 A3033 210 65 -700 000/00 RMK AO1 T00610000
54779K12N 12N20160311210009903/11/16 21:00:31  5-MIN K12N 120200Z AUTO 00000KT 06/00 A3033 210 65 -700 000/00 RMK AO1 T00610000
54779K12N 12N20160311210509903/11/16 21:05:31  5-MIN K12N 120205Z AUTO 00000KT 06/00 A3033 210 65 -700 000/00 RMK AO1 T00610000
54779K12N 12N20160311211010003/11/16 21:10:31  5-MIN K12N 120210Z AUTO 00000KT 06/M01 A3033 210 65 -800 000/00 RMK AO1 T00561006
54779K12N 12N20160311211509903/11/16 21:15:31  5-MIN K12N 120215Z AUTO 00000KT 06/00 A3033 210 67 -800 000/00 RMK AO1 T00560000
54779K12N 12N20160311212009903/11/16 21:20:31  5-MIN K12N 120220Z AUTO 34003KT 06/00 A3034 200 67 -800 350/03 RMK AO1 T00560000
54779K12N 12N20160311212509903/11/16 21:25:31  5-MIN K12N 120225Z AUTO 00000KT 06/01 A3034 200 70 -800 000/00 RMK AO1 T00560006
54779K12N 12N20160311213010003/11/16 21:30:31  5-MIN K12N 120230Z AUTO VRB03KT 06/M01 A3034 200 65 -800 VRB/03 RMK AO1 T00561006
54779K12N 12N20160311213509903/11/16 21:35:31  5-MIN K12N 120235Z AUTO 01003KT 06/00 A3034 200 67 -800 030/03 RMK AO1 T00560000
54779K12N 12N20160311214009903/11/16 21:40:31  5-MIN K12N 120240Z AUTO 36004KT 06/00 A3034 200 67 -800 010/04 RMK AO1 T00560000
54779K12N 12N20160311214510003/11/16 21:45:31  5-MIN K12N 120245Z AUTO 36006KT 06/M02 A3035 190 57 -700 010/06 RMK AO1 T00611017
54779K12N 12N20160311215011303/11/16 21:50:31  5-MIN K12N 120250Z AUTO 34008KT 07/M02 A3034 200 55 -700 350/08 RMK AO1 SLP279 T00671017 53030
54779K12N 12N20160311215510003/11/16 21:55:31  5-MIN K12N 120255Z AUTO 34007KT 07/M02 A3034 200 53 -700 360/07 RMK AO1 T00671022
54779K12N 12N20160311220010003/11/16 22:00:31  5-MIN K12N 120300Z AUTO 35008KT 07/M02 A3034 200 53 -700 010/08 RMK AO1 T00671022
54779K12N 12N20160311220510003/11/16 22:05:31  5-MIN K12N 120305Z AUTO VRB06KT 06/M02 A3034 200 55 -700 VRB/06 RMK AO1 T00611022
54779K12N 12N20160311221010003/11/16 22:10:31  5-MIN K12N 120310Z AUTO VRB04KT 07/M03 A3034 200 51 -700 VRB/04 RMK AO1 T00671028
54779K12N 12N20160311221510003/11/16 22:15:31  5-MIN K12N 120315Z AUTO VRB04KT 06/M02 A3034 200 55 -700 VRB/04 RMK AO1 T00611022
54779K12N 12N20160311222010003/11/16 22:20:31  5-MIN K12N 120320Z AUTO 08003KT 06/M02 A3035 190 55 -700 090/03 RMK AO1 T00611022
54779K12N 12N20160311222510003/11/16 22:25:31  5-MIN K12N 120325Z AUTO 07004KT 06/M02 A3035 190 57 -800 080/04 RMK AO1 T00561022
54779K12N 12N20160311223010003/11/16 22:30:31  5-MIN K12N 120330Z AUTO VRB03KT 06/M02 A3035 190 55 -700 VRB/03 RMK AO1 T00611022
54779K12N 12N20160311223510003/11/16 22:35:31  5-MIN K12N 120335Z AUTO 00000KT 06/M02 A3035 190 59 -800 000/00 RMK AO1 T00561017
54779K12N 12N20160311224010003/11/16 22:40:31  5-MIN K12N 120340Z AUTO 00000KT 06/M02 A3035 190 57 -800 000/00 RMK AO1 T00561022
54779K12N 12N20160311224510003/11/16 22:45:31  5-MIN K12N 120345Z AUTO 35003KT 05/M02 A3035 190 62 -900 010/03 RMK AO1 T00501017
54779K12N 12N20160311225010703/11/16 22:50:31  5-MIN K12N 120350Z AUTO 34003KT 04/M02 A3035 190 62 -900 350/03 RMK AO1 SLP281 T00441022
54779K12N 12N20160311225510103/11/16 22:55:31  5-MIN K12N 120355Z AUTO 00000KT 04/M02 A3035 190 62 -1000 000/00 RMK AO1 T00441022
54779K12N 12N20160311230010103/11/16 23:00:31  5-MIN K12N 120400Z AUTO 00000KT 04/M01 A3035 190 67 -1000 000/00 RMK AO1 T00441011
54779K12N 12N20160311230510103/11/16 23:05:31  5-MIN K12N 120405Z AUTO 01003KT 04/M01 A3035 190 67 -1000 020/03 RMK AO1 T00441011
54779K12N 12N20160311231010103/11/16 23:10:31  5-MIN K12N 120410Z AUTO 00000KT 04/M02 A3035 190 64 -1000 000/00 RMK AO1 T00441017
54779K12N 12N20160311231510003/11/16 23:15:31  5-MIN K12N 120415Z AUTO 36003KT 04/M02 A3035 190 64 -900 010/03 RMK AO1 T00441017
54779K12N 12N20160311232010003/11/16 23:20:31  5-MIN K12N 120420Z AUTO 00000KT 04/M02 A3034 200 64 -900 000/00 RMK AO1 T00441017
54779K12N 12N20160311232510103/11/16 23:25:31  5-MIN K12N 120425Z AUTO 00000KT 04/M01 A3034 190 70 -1000 000/00 RMK AO1 T00391011
54779K12N 12N20160311233010103/11/16 23:30:31  5-MIN K12N 120430Z AUTO 00000KT 03/M01 A3035 190 76 -1100 000/00 RMK AO1 T00331006
54779K12N 12N20160311233510103/11/16 23:35:31  5-MIN K12N 120435Z AUTO 00000KT 03/M01 A3035 190 75 -1200 000/00 RMK AO1 T00281011
54779K12N 12N20160311234010103/11/16 23:40:31  5-MIN K12N 120440Z AUTO 00000KT 03/M01 A3035 190 72 -1100 000/00 RMK AO1 T00331011
54779K12N 12N20160311234510103/11/16 23:45:31  5-MIN K12N 120445Z AUTO 00000KT 03/M01 A3035 190 76 -1100 000/00 RMK AO1 T00331006
54779K12N 12N20160311235011803/11/16 23:50:31  5-MIN K12N 120450Z AUTO 00000KT 03/M01 A3035 190 79 -1200 000/00 RMK AO1 SLP281 T00281006 401610028
54779K12N 12N20160311235510103/11/16 23:55:31  5-MIN K12N 120455Z AUTO 00000KT 03/M01 A3034 200 72 -1100 000/00 RMK AO1 T00331011
54779K12N 12N20160312000010103/12/16 00:00:31  5-MIN K12N 120500Z AUTO 00000KT 03/M01 A3034 200 75 -1200 000/00 RMK AO1 T00281011
54779K12N 12N20160312000510103/12/16 00:05:31  5-MIN K12N 120505Z AUTO 00000KT 03/M01 A3034 200 75 -1200 000/00 RMK AO1 T00281011
54779K12N 12N20160312001010103/12/16 00:10:31  5-MIN K12N 120510Z AUTO 00000KT 03/M01 A3034 200 75 -1200 000/00 RMK AO1 T00281011
54779K12N 12N20160312001510103/12/16 00:15:31  5-MIN K12N 120515Z AUTO 00000KT 03/M01 A3035 190 75 -1200 000/00 RMK AO1 T00281011
54779K12N 12N20160312002010103/12/16 00:20:31  5-MIN K12N 120520Z AUTO 00000KT 02/M01 A3034 200 78 -1200 000/00 RMK AO1 T00221011
54779K12N 12N20160312002510103/12/16 00:25:31  5-MIN K12N 120525Z AUTO 33003KT 02/M02 A3034 200 78 -1300 340/03 RMK AO1 T00171017
54779K12N 12N20160312003010103/12/16 00:30:31  5-MIN K12N 120530Z AUTO 00000KT 02/M02 A3034 200 75 -1200 000/00 RMK AO1 T00221017
54779K12N 12N20160312003510103/12/16 00:35:31  5-MIN K12N 120535Z AUTO 00000KT 02/M01 A3034 200 82 -1200 000/00 RMK AO1 T00221006
54779K12N 12N20160312004010103/12/16 00:40:31  5-MIN K12N 120540Z AUTO 00000KT 02/M01 A3034 200 82 -1200 000/00 RMK AO1 T00221006
54779K12N 12N20160312004510103/12/16 00:45:31  5-MIN K12N 120545Z AUTO 00000KT 02/M01 A3033 200 78 -1200 000/00 RMK AO1 T00221011
54779K12N 12N20160312005012603/12/16 00:50:31  5-MIN K12N 120550Z AUTO 00000KT 02/M01 A3034 200 82 -1300 000/00 RMK AO1 SLP278 T00171011 10100 20017 51010
54779K12N 12N20160312005510103/12/16 00:55:31  5-MIN K12N 120555Z AUTO 00000KT 02/M02 A3034 200 78 -1300 000/00 RMK AO1 T00171017
54779K12N 12N20160312010010103/12/16 01:00:31  5-MIN K12N 120600Z AUTO 00000KT 02/M01 A3034 200 78 -1200 000/00 RMK AO1 T00221011
54779K12N 12N20160312010510103/12/16 01:05:31  5-MIN K12N 120605Z AUTO 00000KT 02/M01 A3035 190 78 -1200 000/00 RMK AO1 T00221011
54779K12N 12N20160312011010103/12/16 01:10:31  5-MIN K12N 120610Z AUTO 21003KT 02/M01 A3035 190 85 -1300 220/03 RMK AO1 T00171006
54779K12N 12N20160312011510103/12/16 01:15:31  5-MIN K12N 120615Z AUTO 00000KT 02/M01 A3035 190 82 -1300 000/00 RMK AO1 T00171011
54779K12N 12N20160312012010103/12/16 01:20:31  5-MIN K12N 120620Z AUTO 00000KT 02/M01 A3036 180 82 -1300 000/00 RMK AO1 T00171011
54779K12N 12N20160312012510103/12/16 01:25:31  5-MIN K12N 120625Z AUTO 00000KT 01/M02 A3036 180 82 -1400 000/00 RMK AO1 T00111017
54779K12N 12N20160312013010103/12/16 01:30:31  5-MIN K12N 120630Z AUTO 00000KT 02/M01 A3036 180 82 -1300 000/00 RMK AO1 T00171011
54779K12N 12N20160312013510103/12/16 01:35:31  5-MIN K12N 120635Z AUTO 00000KT 02/M01 A3037 180 82 -1300 000/00 RMK AO1 T00171011
54779K12N 12N20160312014010103/12/16 01:40:31  5-MIN K12N 120640Z AUTO 00000KT 01/M01 A3037 170 85 -1400 000/00 RMK AO1 T00111011
54779K12N 12N20160312014510103/12/16 01:45:31  5-MIN K12N 120645Z AUTO 00000KT 02/M01 A3037 170 82 -1300 000/00 RMK AO1 T00171011
54779K12N 12N20160312015010803/12/16 01:50:31  5-MIN K12N 120650Z AUTO 00000KT 01/M01 A3037 170 85 -1400 000/00 RMK AO1 SLP288 T00111011
54779K12N 12N20160312015510103/12/16 01:55:31  5-MIN K12N 120655Z AUTO 00000KT 01/M02 A3037 170 85 -1500 000/00 RMK AO1 T00061017
54779K12N 12N20160312020010103/12/16 02:00:31  5-MIN K12N 120700Z AUTO 00000KT 01/M02 A3037 170 85 -1500 000/00 RMK AO1 T00061017
54779K12N 12N20160312020510103/12/16 02:05:31  5-MIN K12N 120705Z AUTO 00000KT 01/M01 A3037 180 89 -1500 000/00 RMK AO1 T00061011
54779K12N 12N20160312021010103/12/16 02:10:31  5-MIN K12N 120710Z AUTO 00000KT 01/M02 A3037 170 82 -1400 000/00 RMK AO1 T00111017
54779K12N 12N20160312021510103/12/16 02:15:31  5-MIN K12N 120715Z AUTO 00000KT 01/M01 A3037 180 85 -1400 000/00 RMK AO1 T00111011
54779K12N 12N20160312022010103/12/16 02:20:31  5-MIN K12N 120720Z AUTO 00000KT 01/M01 A3037 170 89 -1500 000/00 RMK AO1 T00061011
54779K12N 12N20160312022510103/12/16 02:25:31  5-MIN K12N 120725Z AUTO 00000KT 00/M02 A3037 170 88 -1500 000/00 RMK AO1 T00001017
54779K12N 12N20160312023010103/12/16 02:30:31  5-MIN K12N 120730Z AUTO 00000KT 00/M02 A3037 180 88 -1500 000/00 RMK AO1 T00001017
54779K12N 12N20160312023510103/12/16 02:35:31  5-MIN K12N 120735Z AUTO 00000KT 01/M02 A3036 180 85 -1500 000/00 RMK AO1 T00061017
54779K12N 12N20160312024010103/12/16 02:40:31  5-MIN K12N 120740Z AUTO 00000KT 01/M02 A3037 180 85 -1500 000/00 RMK AO1 T00061017
54779K12N 12N20160312024510103/12/16 02:45:31  5-MIN K12N 120745Z AUTO 00000KT 01/M01 A3036 180 89 -1500 000/00 RMK AO1 T00061011
54779K12N 12N20160312025010803/12/16 02:50:31  5-MIN K12N 120750Z AUTO 00000KT 00/M02 A3036 180 88 -1500 000/00 RMK AO1 SLP285 T00001017
54779K12N 12N20160312025510103/12/16 02:55:31  5-MIN K12N 120755Z AUTO 00000KT 00/M02 A3035 190 88 -1500 000/00 RMK AO1 T00001017
54779K12N 12N20160312030010103/12/16 03:00:31  5-MIN K12N 120800Z AUTO 00000KT 00/M02 A3035 190 88 -1500 000/00 RMK AO1 T00001017
54779K12N 12N20160312030510103/12/16 03:05:31  5-MIN K12N 120805Z AUTO 00000KT 01/M02 A3035 190 85 -1400 000/00 RMK AO1 T00061017
54779K12N 12N20160312031010103/12/16 03:10:31  5-MIN K12N 120810Z AUTO 00000KT 01/M02 A3035 190 85 -1400 000/00 RMK AO1 T00061017
54779K12N 12N20160312031510103/12/16 03:15:31  5-MIN K12N 120815Z AUTO 00000KT 00/M02 A3034 200 88 -1500 000/00 RMK AO1 T00001017
54779K12N 12N20160312032010103/12/16 03:20:31  5-MIN K12N 120820Z AUTO VRB03KT 01/M02 A3034 200 85 -1400 VRB/03 RMK AO1 T00061017
54779K12N 12N20160312032510103/12/16 03:25:31  5-MIN K12N 120825Z AUTO 00000KT 01/M01 A3033 200 89 -1400 000/00 RMK AO1 T00061011
54779K12N 12N20160312033010103/12/16 03:30:31  5-MIN K12N 120830Z AUTO 00000KT 01/M01 A3034 200 89 -1400 000/00 RMK AO1 T00061011
54779K12N 12N20160312033510103/12/16 03:35:31  5-MIN K12N 120835Z AUTO 00000KT 01/M01 A3034 200 89 -1400 000/00 RMK AO1 T00061011
54779K12N 12N20160312034010103/12/16 03:40:31  5-MIN K12N 120840Z AUTO 00000KT 01/M01 A3034 200 89 -1400 000/00 RMK AO1 T00061011
54779K12N 12N20160312034510103/12/16 03:45:31  5-MIN K12N 120845Z AUTO 00000KT 00/M01 A3034 200 92 -1500 000/00 RMK AO1 T00001011
54779K12N 12N20160312035011403/12/16 03:50:31  5-MIN K12N 120850Z AUTO 00000KT 00/M01 A3034 200 92 -1500 000/00 RMK AO1 SLP278 T00001011 58000
54779K12N 12N20160312035510103/12/16 03:55:31  5-MIN K12N 120855Z AUTO 00000KT 00/M01 A3033 210 92 -1500 000/00 RMK AO1 T00001011
54779K12N 12N20160312040010103/12/16 04:00:31  5-MIN K12N 120900Z AUTO 00000KT 00/M02 A3033 210 88 -1500 000/00 RMK AO1 T00001017
54779K12N 12N20160312040510103/12/16 04:05:31  5-MIN K12N 120905Z AUTO 00000KT 00/M02 A3033 200 88 -1500 000/00 RMK AO1 T00001017
54779K12N 12N20160312041010103/12/16 04:10:31  5-MIN K12N 120910Z AUTO 00000KT 00/M02 A3033 210 88 -1500 000/00 RMK AO1 T00001017
54779K12N 12N20160312041510103/12/16 04:15:31  5-MIN K12N 120915Z AUTO 00000KT 00/M02 A3033 210 88 -1500 000/00 RMK AO1 T00001017
54779K12N 12N20160312042010203/12/16 04:20:31  5-MIN K12N 120920Z AUTO 00000KT M01/M02 A3033 210 92 -1600 000/00 RMK AO1 T10061017
54779K12N 12N20160312042510203/12/16 04:25:31  5-MIN K12N 120925Z AUTO 00000KT M01/M02 A3033 210 92 -1600 000/00 RMK AO1 T10061017
54779K12N 12N20160312043010203/12/16 04:30:31  5-MIN K12N 120930Z AUTO 00000KT M01/M02 A3033 210 92 -1600 000/00 RMK AO1 T10061017
54779K12N 12N20160312043510203/12/16 04:35:31  5-MIN K12N 120935Z AUTO 00000KT M02/M02 A3033 210 96 -1700 000/00 RMK AO1 T10171022
54779K12N 12N20160312044010203/12/16 04:40:31  5-MIN K12N 120940Z AUTO 00000KT M01/M02 A3033 200 88 -1600 000/00 RMK AO1 T10061022
54779K12N 12N20160312044510203/12/16 04:45:31  5-MIN K12N 120945Z AUTO 00000KT M01/M02 A3033 200 92 -1600 000/00 RMK AO1 T10111022
54779K12N 12N20160312045010903/12/16 04:50:31  5-MIN K12N 120950Z AUTO 00000KT M01/M02 A3034 200 88 -1600 000/00 RMK AO1 SLP278 T10061022
54779K12N 12N20160312045510203/12/16 04:55:31  5-MIN K12N 120955Z AUTO 00000KT M01/M02 A3034 200 92 -1600 000/00 RMK AO1 T10111022
54779K12N 12N20160312050010203/12/16 05:00:31  5-MIN K12N 121000Z AUTO 31003KT M01/M02 A3033 210 92 -1600 320/03 RMK AO1 T10111022
54779K12N 12N20160312050510203/12/16 05:05:31  5-MIN K12N 121005Z AUTO 00000KT M02/M02 A3033 210 96 -1700 000/00 RMK AO1 T10171022
54779K12N 12N20160312051010203/12/16 05:10:31  5-MIN K12N 121010Z AUTO 00000KT M01/M02 A3033 210 92 -1600 000/00 RMK AO1 T10111022
54779K12N 12N20160312051510203/12/16 05:15:31  5-MIN K12N 121015Z AUTO 00000KT M01/M02 A3033 200 92 -1600 000/00 RMK AO1 T10111022
54779K12N 12N20160312052010203/12/16 05:20:31  5-MIN K12N 121020Z AUTO 00000KT M01/M02 A3034 200 96 -1600 000/00 RMK AO1 T10111017
54779K12N 12N20160312052510203/12/16 05:25:31  5-MIN K12N 121025Z AUTO 00000KT M01/M02 A3034 200 92 -1600 000/00 RMK AO1 T10111022
54779K12N 12N20160312053010203/12/16 05:30:31  5-MIN K12N 121030Z AUTO 00000KT M01/M02 A3034 200 92 -1600 000/00 RMK AO1 T10111022
54779K12N 12N20160312053510203/12/16 05:35:31  5-MIN K12N 121035Z AUTO 00000KT M01/M02 A3034 200 92 -1600 000/00 RMK AO1 T10111022
54779K12N 12N20160312054010203/12/16 05:40:31  5-MIN K12N 121040Z AUTO 00000KT M01/M02 A3034 200 92 -1600 000/00 RMK AO1 T10111022
54779K12N 12N20160312054510203/12/16 05:45:31  5-MIN K12N 121045Z AUTO 00000KT M02/M02 A3033 200 96 -1700 000/00 RMK AO1 T10171022
54779K12N 12N20160312055010903/12/16 05:50:31  5-MIN K12N 121050Z AUTO 00000KT M02/M03 A3033 210 92 -1700 000/00 RMK AO1 SLP278 T10171028
54779K12N 12N20160312055510203/12/16 05:55:31  5-MIN K12N 121055Z AUTO 00000KT M01/M03 A3034 200 88 -1600 000/00 RMK AO1 T10111028
54779K12N 12N20160312060010203/12/16 06:00:31  5-MIN K12N 121100Z AUTO 00000KT M01/M03 A3034 200 88 -1600 000/00 RMK AO1 T10111028
54779K12N 12N20160312060510203/12/16 06:05:31  5-MIN K12N 121105Z AUTO 00000KT M01/M03 A3033 200 88 -1600 000/00 RMK AO1 T10111028
54779K12N 12N20160312061010203/12/16 06:10:31  5-MIN K12N 121110Z AUTO 00000KT M02/M03 A3034 200 92 -1700 000/00 RMK AO1 T10171028
54779K12N 12N20160312061510203/12/16 06:15:31  5-MIN K12N 121115Z AUTO 00000KT M02/M03 A3034 200 92 -1700 000/00 RMK AO1 T10171028
54779K12N 12N20160312062010203/12/16 06:20:31  5-MIN K12N 121120Z AUTO 00000KT M02/M03 A3034 200 92 -1700 000/00 RMK AO1 T10171028
54779K12N 12N20160312062510203/12/16 06:25:31  5-MIN K12N 121125Z AUTO 00000KT M01/M03 A3034 200 88 -1600 000/00 RMK AO1 T10111028
54779K12N 12N20160312063010203/12/16 06:30:31  5-MIN K12N 121130Z AUTO 00000KT M02/M03 A3034 200 92 -1700 000/00 RMK AO1 T10171028
54779K12N 12N20160312063510203/12/16 06:35:31  5-MIN K12N 121135Z AUTO 00000KT M02/M03 A3035 190 92 -1700 000/00 RMK AO1 T10171028
54779K12N 12N20160312064010203/12/16 06:40:31  5-MIN K12N 121140Z AUTO 00000KT M01/M03 A3035 190 88 -1600 000/00 RMK AO1 T10111028
54779K12N 12N20160312064510203/12/16 06:45:31  5-MIN K12N 121145Z AUTO 00000KT M01/M03 A3034 200 88 -1600 000/00 RMK AO1 T10111028
54779K12N 12N20160312065012703/12/16 06:50:31  5-MIN K12N 121150Z AUTO 00000KT M01/M03 A3034 200 88 -1600 000/00 RMK AO1 SLP281 T10111028 10022 21022 58001
54779K12N 12N20160312065510203/12/16 06:55:31  5-MIN K12N 121155Z AUTO 00000KT M02/M03 A3033 200 92 -1700 000/00 RMK AO1 T10171028
54779K12N 12N20160312070010203/12/16 07:00:31  5-MIN K12N 121200Z AUTO 00000KT M02/M03 A3033 200 92 -1700 000/00 RMK AO1 T10171028
54779K12N 12N20160312070510203/12/16 07:05:31  5-MIN K12N 121205Z AUTO 00000KT M01/M03 A3034 200 88 -1600 000/00 RMK AO1 T10111028
54779K12N 12N20160312071010203/12/16 07:10:31  5-MIN K12N 121210Z AUTO 00000KT M01/M02 A3034 200 92 -1600 000/00 RMK AO1 T10111022
54779K12N 12N20160312071510203/12/16 07:15:31  5-MIN K12N 121215Z AUTO 00000KT M01/M02 A3033 210 92 -1600 000/00 RMK AO1 T10061017
54779K12N 12N20160312072010203/12/16 07:20:31  5-MIN K12N 121220Z AUTO 00000KT M01/M01 A3034 200 96 -1600 000/00 RMK AO1 T10061011
54779K12N 12N20160312072510103/12/16 07:25:31  5-MIN K12N 121225Z AUTO 00000KT 00/M01 A3033 200 96 -1500 000/00 RMK AO1 T00001006
54779K12N 12N20160312073010103/12/16 07:30:31  5-MIN K12N 121230Z AUTO 00000KT 00/M01 A3033 200 96 -1500 000/00 RMK AO1 T00001006
54779K12N 12N20160312073510103/12/16 07:35:31  5-MIN K12N 121235Z AUTO 00000KT 01/M01 A3033 210 92 -1400 000/00 RMK AO1 T00061006
54779K12N 12N20160312074010103/12/16 07:40:31  5-MIN K12N 121240Z AUTO 00000KT 01/M01 A3033 210 92 -1400 000/00 RMK AO1 T00061006
54779K12N 12N20160312074510103/12/16 07:45:31  5-MIN K12N 121245Z AUTO 00000KT 01/M01 A3033 210 92 -1400 000/00 RMK AO1 T00061006
54779K12N 12N20160312075010803/12/16 07:50:31  5-MIN K12N 121250Z AUTO 00000KT 01/M01 A3033 210 89 -1300 000/00 RMK AO1 SLP276 T00111006
54779K12N 12N20160312075510103/12/16 07:55:31  5-MIN K12N 121255Z AUTO 00000KT 01/M01 A3032 210 89 -1300 000/00 RMK AO1 T00111006
54779K12N 12N20160312080010103/12/16 08:00:31  5-MIN K12N 121300Z AUTO 00000KT 02/M01 A3032 220 85 -1300 000/00 RMK AO1 T00171006
54779K12N 12N20160312080510003/12/16 08:05:31  5-MIN K12N 121305Z AUTO 36003KT 03/00 A3032 220 82 -1100 010/03 RMK AO1 T00280000
54779K12N 12N20160312081010003/12/16 08:10:31  5-MIN K12N 121310Z AUTO 00000KT 03/00 A3032 210 79 -1100 000/00 RMK AO1 T00330000
54779K12N 12N20160312081510003/12/16 08:15:31  5-MIN K12N 121315Z AUTO 00000KT 03/00 A3033 210 82 -1100 000/00 RMK AO1 T00280000
54779K12N 12N20160312082010003/12/16 08:20:31  5-MIN K12N 121320Z AUTO 00000KT 03/00 A3033 210 79 -1100 000/00 RMK AO1 T00330000
54779K12N 12N20160312082510003/12/16 08:25:31  5-MIN K12N 121325Z AUTO 00000KT 04/00 A3033 210 76 -1000 000/00 RMK AO1 T00390000
54779K12N 12N20160312083010003/12/16 08:30:31  5-MIN K12N 121330Z AUTO 00000KT 04/00 A3033 210 76 -1000 000/00 RMK AO1 T00390000
54779K12N 12N20160312083509903/12/16 08:35:31  5-MIN K12N 121335Z AUTO 00000KT 04/00 A3033 210 73 -900 000/00 RMK AO1 T00440000
54779K12N 12N20160312084009903/12/16 08:40:31  5-MIN K12N 121340Z AUTO 00000KT 05/00 A3033 210 70 -900 000/00 RMK AO1 T00500000
54779K12N 12N20160312084509903/12/16 08:45:31  5-MIN K12N 121345Z AUTO 00000KT 06/00 A3033 210 67 -800 000/00 RMK AO1 T00560000
54779K12N 12N20160312085010603/12/16 08:50:31  5-MIN K12N 121350Z AUTO 00000KT 06/00 A3032 210 67 -800 000/00 RMK AO1 SLP274 T00560000
54779K12N 12N20160312085509903/12/16 08:55:31  5-MIN K12N 121355Z AUTO 00000KT 06/00 A3032 220 65 -700 000/00 RMK AO1 T00610000
54779K12N 12N20160312090010003/12/16 09:00:31  5-MIN K12N 121400Z AUTO 00000KT 06/M01 A3033 210 62 -700 000/00 RMK AO1 T00611006
54779K12N 12N20160312090510003/12/16 09:05:31  5-MIN K12N 121405Z AUTO 00000KT 07/M01 A3033 210 57 -600 000/00 RMK AO1 T00721006
54779K12N 12N20160312091010003/12/16 09:10:31  5-MIN K12N 121410Z AUTO VRB03KT 07/M01 A3032 220 60 -600 VRB/03 RMK AO1 T00671006
54779K12N 12N20160312091510003/12/16 09:15:31  5-MIN K12N 121415Z AUTO 00000KT 07/M01 A3032 210 60 -600 000/00 RMK AO1 T00671006
54779K12N 12N20160312092010003/12/16 09:20:31  5-MIN K12N 121420Z AUTO 00000KT 07/M01 A3033 210 57 -600 000/00 RMK AO1 T00721006
54779K12N 12N20160312092509903/12/16 09:25:31  5-MIN K12N 121425Z AUTO 36003KT 08/00 A3032 220 58 -500 020/03 RMK AO1 T00780000
54779K12N 12N20160312093010003/12/16 09:30:31  5-MIN K12N 121430Z AUTO 00000KT 08/M01 A3032 220 55 -500 000/00 RMK AO1 T00781006
54779K12N 12N20160312093510003/12/16 09:35:31  5-MIN K12N 121435Z AUTO 00000KT 08/M01 A3032 220 53 -500 000/00 RMK AO1 T00781011
54779K12N 12N20160312094010003/12/16 09:40:31  5-MIN K12N 121440Z AUTO 16004KT 08/M01 A3032 220 53 -500 170/04 RMK AO1 T00781011
54779K12N 12N20160312094510003/12/16 09:45:31  5-MIN K12N 121445Z AUTO 00000KT 08/M01 A3031 220 55 -500 000/00 RMK AO1 T00781006
54779K12N 12N20160312095011303/12/16 09:50:31  5-MIN K12N 121450Z AUTO 00000KT 08/M01 A3031 230 53 -500 000/00 RMK AO1 SLP268 T00781011 50000
54779K12N 12N20160312095510003/12/16 09:55:31  5-MIN K12N 121455Z AUTO 00000KT 08/M01 A3030 230 53 -400 000/00 RMK AO1 T00831006
54779K12N 12N20160312100010003/12/16 10:00:31  5-MIN K12N 121500Z AUTO 16004KT 09/M01 A3030 240 51 -300 170/04 RMK AO1 T00891006
54779K12N 12N20160312100510003/12/16 10:05:31  5-MIN K12N 121505Z AUTO VRB04KT 09/M01 A3030 240 49 -300 VRB/04 RMK AO1 T00941006
54779K12N 12N20160312101010003/12/16 10:10:31  5-MIN K12N 121510Z AUTO VRB05KT 09/M01 A3029 240 49 -300 VRB/05 RMK AO1 T00941006
54779K12N 12N20160312101510003/12/16 10:15:31  5-MIN K12N 121515Z AUTO 00000KT 09/M01 A3029 250 49 -300 000/00 RMK AO1 T00891011
54779K12N 12N20160312102009003/12/16 10:20:31  5-MIN K12N 121520Z AUTO 09/M01 A3028 250 49 -300 M /M RMK AO1 T00941006
54779K12N 12N20160312102510003/12/16 10:25:31  5-MIN K12N 121525Z AUTO 19004KT 10/M01 A3028 250 47 -200 210/04 RMK AO1 T01001006
54779K12N 12N20160312103010003/12/16 10:30:31  5-MIN K12N 121530Z AUTO VRB03KT 10/M01 A3027 260 47 -200 VRB/03 RMK AO1 T01001006
54779K12N 12N20160312103510003/12/16 10:35:31  5-MIN K12N 121535Z AUTO VRB03KT 11/M01 A3027 260 46 -100 VRB/03 RMK AO1 T01061006
54779K12N 12N20160312104010003/12/16 10:40:31  5-MIN K12N 121540Z AUTO VRB04KT 11/M01 A3027 260 46 -100 VRB/04 RMK AO1 T01061006
54779K12N 12N20160312104509703/12/16 10:45:31  5-MIN K12N 121545Z AUTO VRB05KT 11/M01 A3027 270 44 0 VRB/05 RMK AO1 T01111006
54779K12N 12N20160312105010403/12/16 10:50:31  5-MIN K12N 121550Z AUTO VRB04KT 11/M01 A3027 270 42 0 VRB/04 RMK AO1 SLP254 T01111011
54779K12N 12N20160312105510003/12/16 10:55:31  5-MIN K12N 121555Z AUTO VRB03KT 11/M01 A3026 270 44 -100 VRB/03 RMK AO1 T01061011
54779K12N 12N20160312110009703/12/16 11:00:31  5-MIN K12N 121600Z AUTO 22006KT 11/M01 A3026 280 42 0 230/06 RMK AO1 T01111011
54779K12N 12N20160312110509703/12/16 11:05:31  5-MIN K12N 121605Z AUTO VRB03KT 11/M01 A3026 280 42 0 VRB/03 RMK AO1 T01111011
54779K12N 12N20160312111009703/12/16 11:10:31  5-MIN K12N 121610Z AUTO VRB06KT 12/M02 A3026 270 39 0 VRB/06 RMK AO1 T01171017
54779K12N 12N20160312111509903/12/16 11:15:31  5-MIN K12N 121615Z AUTO VRB03KT 12/M02 A3026 280 38 100 VRB/03 RMK AO1 T01221017
54779K12N 12N20160312112009903/12/16 11:20:31  5-MIN K12N 121620Z AUTO 22008KT 12/M02 A3025 280 36 100 230/08 RMK AO1 T01221022
54779K12N 12N20160312112509903/12/16 11:25:31  5-MIN K12N 121625Z AUTO VRB06KT 12/M02 A3025 280 36 100 VRB/06 RMK AO1 T01221022
54779K12N 12N20160312113008903/12/16 11:30:31  5-MIN K12N 121630Z AUTO 12/M02 A3025 280 36 100 M /M RMK AO1 T01221022
54779K12N 12N20160312113509903/12/16 11:35:31  5-MIN K12N 121635Z AUTO 18006KT 12/M03 A3024 290 35 100 190/06 RMK AO1 T01221028
54779K12N 12N20160312114011503/12/16 11:40:31  5-MIN K12N 121640Z AUTO 24007KT 200V270 12/M03 A3024 290 35 100 250/07 210V280 RMK AO1 T01221028
54779K12N 12N20160312114509903/12/16 11:45:31  5-MIN K12N 121645Z AUTO 26008KT 13/M04 A3024 290 30 100 270/08 RMK AO1 T01281044
54779K12N 12N20160312115010603/12/16 11:50:31  5-MIN K12N 121650Z AUTO 23007KT 13/M04 A3023 300 30 200 240/07 RMK AO1 SLP242 T01331039
54779K12N 12N20160312115509903/12/16 11:55:31  5-MIN K12N 121655Z AUTO 21006KT 13/M04 A3023 300 28 200 220/06 RMK AO1 T01331044
54779K12N 12N20160312120011503/12/16 12:00:31  5-MIN K12N 121700Z AUTO 20007KT 140V240 13/M04 A3022 310 30 200 210/07 150V250 RMK AO1 T01331039
54779K12N 12N20160312120509903/12/16 12:05:31  5-MIN K12N 121705Z AUTO VRB05KT 13/M04 A3022 310 30 200 VRB/05 RMK AO1 T01331039
54779K12N 12N20160312121011503/12/16 12:10:31  5-MIN K12N 121710Z AUTO 23007KT 190V260 14/M04 A3022 310 28 400 240/07 200V270 RMK AO1 T01441039
54779K12N 12N20160312121510503/12/16 12:15:31  5-MIN K12N 121715Z AUTO 21009G14KT 14/M04 A3021 310 29 300 220/09G14 RMK AO1 T01391039
54779K12N 12N20160312122009903/12/16 12:20:31  5-MIN K12N 121720Z AUTO 20006KT 14/M04 A3021 320 29 300 210/06 RMK AO1 T01391039
54779K12N 12N20160312122510503/12/16 12:25:31  5-MIN K12N 121725Z AUTO 21011G15KT 14/M03 A3021 320 30 300 230/11G15 RMK AO1 T01391033
54779K12N 12N20160312123012103/12/16 12:30:31  5-MIN K12N 121730Z AUTO 23007G15KT 190V270 14/M03 A3021 320 30 300 250/07G15 200V280 RMK AO1 T01391033
54779K12N 12N20160312123509903/12/16 12:35:31  5-MIN K12N 121735Z AUTO 21008KT 14/M03 A3020 330 31 300 230/08 RMK AO1 T01391028
54779K12N 12N20160312124009903/12/16 12:40:31  5-MIN K12N 121740Z AUTO VRB06KT 14/M03 A3020 330 31 300 VRB/06 RMK AO1 T01391028
54779K12N 12N20160312124511503/12/16 12:45:31  5-MIN K12N 121745Z AUTO 22009KT 170V240 14/M02 A3019 330 31 400 230/09 180V250 RMK AO1 T01441022
54779K12N 12N20160312125012403/12/16 12:50:31  5-MIN K12N 121750Z AUTO 18005KT 14/M02 A3019 340 31 400 200/05 RMK AO1 SLP227 T01441022 10144 21017 58010
54779K12N 12N20160312125509903/12/16 12:55:31  5-MIN K12N 121755Z AUTO 20008KT 15/M02 A3019 340 31 500 220/08 RMK AO1 T01501017
54779K12N 12N20160312130011503/12/16 13:00:31  5-MIN K12N 121800Z AUTO 22007KT 190V250 15/M02 A3018 340 31 500 230/07 200V260 RMK AO1 T01501017
54779K12N 12N20160312130509903/12/16 13:05:31  5-MIN K12N 121805Z AUTO VRB06KT 15/M02 A3018 350 31 500 VRB/06 RMK AO1 T01501017
54779K12N 12N20160312131009903/12/16 13:10:31  5-MIN K12N 121810Z AUTO 21009KT 15/M01 A3018 350 33 500 220/09 RMK AO1 T01501011
54779K12N 12N20160312131509903/12/16 13:15:31  5-MIN K12N 121815Z AUTO VRB05KT 15/M02 A3017 350 31 500 VRB/05 RMK AO1 T01501017
54779K12N 12N20160312132009903/12/16 13:20:31  5-MIN K12N 121820Z AUTO 22009KT 16/M01 A3017 360 31 500 230/09 RMK AO1 T01561011
54779K12N 12N20160312132509903/12/16 13:25:31  5-MIN K12N 121825Z AUTO 21006KT 16/M01 A3017 360 31 500 220/06 RMK AO1 T01561011
54779K12N 12N20160312133009903/12/16 13:30:31  5-MIN K12N 121830Z AUTO VRB05KT 16/M01 A3017 360 33 500 VRB/05 RMK AO1 T01561006
54779K12N 12N20160312133512103/12/16 13:35:31  5-MIN K12N 121835Z AUTO 25008G16KT 200V280 16/M01 A3016 370 30 600 260/08G16 210V290 RMK AO1 T01611011
54779K12N 12N20160312134010503/12/16 13:40:31  5-MIN K12N 121840Z AUTO VRB06G16KT 17/M01 A3016 370 31 700 VRB/06G16 RMK AO1 T01671006
54779K12N 12N20160312134510503/12/16 13:45:31  5-MIN K12N 121845Z AUTO VRB06G15KT 16/M01 A3015 370 32 600 VRB/06G15 RMK AO1 T01611006
54779K12N 12N20160312135011203/12/16 13:50:31  5-MIN K12N 121850Z AUTO VRB04G18KT 16/M01 A3015 380 33 600 VRB/04G18 RMK AO1 SLP213 T01561006
54779K12N 12N20160312135512003/12/16 13:55:31  5-MIN K12N 121855Z AUTO 21011G18KT 180V250 16/00 A3014 380 33 600 230/11G18 190V260 RMK AO1 T01610000
54779K12N 12N20160312140012103/12/16 14:00:31  5-MIN K12N 121900Z AUTO 23009G17KT 200V270 16/M01 A3014 380 33 600 240/09G17 210V280 RMK AO1 T01561006
54779K12N 12N20160312140510503/12/16 14:05:31  5-MIN K12N 121905Z AUTO 22012G18KT 16/M01 A3014 390 33 600 240/12G18 RMK AO1 T01561006
54779K12N 12N20160312141012003/12/16 14:10:31  5-MIN K12N 121910Z AUTO 25008G18KT 230V290 16/00 A3013 390 34 600 270/08G18 240V300 RMK AO1 T01560000
54779K12N 12N20160312141512003/12/16 14:15:31  5-MIN K12N 121915Z AUTO 23007G14KT 180V310 17/01 A3013 390 33 700 250/07G14 190V320 RMK AO1 T01670006
54779K12N 12N20160312142010403/12/16 14:20:31  5-MIN K12N 121920Z AUTO 24009G16KT 17/01 A3013 390 33 700 250/09G16 RMK AO1 T01670006
54779K12N 12N20160312142510403/12/16 14:25:31  5-MIN K12N 121925Z AUTO 23012G20KT 16/00 A3012 400 33 700 240/12G20 RMK AO1 T01610000
54779K12N 12N20160312143012003/12/16 14:30:31  5-MIN K12N 121930Z AUTO 25010G20KT 220V280 16/00 A3012 400 34 600 260/10G20 230V290 RMK AO1 T01560000
54779K12N 12N20160312143510403/12/16 14:35:31  5-MIN K12N 121935Z AUTO 25007G17KT 16/00 A3012 400 34 600 260/07G17 RMK AO1 T01560000
54779K12N 12N20160312144009803/12/16 14:40:31  5-MIN K12N 121940Z AUTO 22008KT 16/01 A3011 410 36 600 230/08 RMK AO1 T01560006
54779K12N 12N20160312144510403/12/16 14:45:31  5-MIN K12N 121945Z AUTO 22009G17KT 16/01 A3011 410 36 600 230/09G17 RMK AO1 T01560006
54779K12N 12N20160312145012703/12/16 14:50:31  5-MIN K12N 121950Z AUTO 21007G17KT 170V240 16/01 A3011 410 37 600 220/07G17 180V250 RMK AO1 SLP202 T01560011
54779K12N 12N20160312145510403/12/16 14:55:31  5-MIN K12N 121955Z AUTO 22008G17KT 16/01 A3011 410 36 700 240/08G17 RMK AO1 T01610011
54779K12N 12N20160312150010403/12/16 15:00:31  5-MIN K12N 122000Z AUTO 21006G17KT 16/01 A3011 410 34 700 230/06G17 RMK AO1 T01610006
54779K12N 12N20160312150512003/12/16 15:05:31  5-MIN K12N 122005Z AUTO 23009G17KT 200V270 16/01 A3011 410 36 600 240/09G17 210V280 RMK AO1 T01560006
54779K12N 12N20160312151010403/12/16 15:10:31  5-MIN K12N 122010Z AUTO 22007G17KT 16/01 A3011 410 34 700 240/07G17 RMK AO1 T01610006
54779K12N 12N20160312151511403/12/16 15:15:31  5-MIN K12N 122015Z AUTO 24007KT 180V290 16/01 A3010 420 34 700 250/07 190V300 RMK AO1 T01610006
54779K12N 12N20160312152011403/12/16 15:20:31  5-MIN K12N 122020Z AUTO 22007KT 190V250 16/01 A3010 420 34 700 230/07 200V260 RMK AO1 T01610006
54779K12N 12N20160312152512003/12/16 15:25:31  5-MIN K12N 122025Z AUTO 21009G16KT 160V230 16/01 A3009 430 36 700 220/09G16 170V240 RMK AO1 T01610011
54779K12N 12N20160312153010403/12/16 15:30:31  5-MIN K12N 122030Z AUTO 22009G16KT 16/01 A3009 430 36 700 230/09G16 RMK AO1 T01610011
54779K12N 12N20160312153509803/12/16 15:35:31  5-MIN K12N 122035Z AUTO VRB06KT 17/01 A3009 430 34 800 VRB/06 RMK AO1 T01670011
54779K12N 12N20160312154009803/12/16 15:40:31  5-MIN K12N 122040Z AUTO 23008KT 16/01 A3008 430 36 700 240/08 RMK AO1 T01610011
54779K12N 12N20160312154510403/12/16 15:45:31  5-MIN K12N 122045Z AUTO 22012G17KT 16/01 A3008 440 36 700 230/12G17 RMK AO1 T01610011
54779K12N 12N20160312155013303/12/16 15:50:31  5-MIN K12N 122050Z AUTO 22011G17KT 190V250 16/01 A3008 440 36 700 240/11G17 200V260 RMK AO1 SLP191 T01610011 56039
54779K12N 12N20160312155510403/12/16 15:55:31  5-MIN K12N 122055Z AUTO 22008G16KT 16/01 A3008 440 36 700 230/08G16 RMK AO1 T01610011
54779K12N 12N20160312160010403/12/16 16:00:31  5-MIN K12N 122100Z AUTO 21010G16KT 16/01 A3008 440 36 700 230/10G16 RMK AO1 T01610011
54779K12N 12N20160312160510403/12/16 16:05:31  5-MIN K12N 122105Z AUTO 22012G16KT 16/01 A3008 440 37 600 230/12G16 RMK AO1 T01560011
54779K12N 12N20160312161012003/12/16 16:10:31  5-MIN K12N 122110Z AUTO 21008G16KT 180V250 16/02 A3008 440 39 600 230/08G16 190V260 RMK AO1 T01560017
54779K12N 12N20160312161510403/12/16 16:15:31  5-MIN K12N 122115Z AUTO 21008G16KT 16/02 A3007 440 40 700 230/08G16 RMK AO1 T01560022
54779K12N 12N20160312162010403/12/16 16:20:31  5-MIN K12N 122120Z AUTO 22011G16KT 16/02 A3007 450 40 700 230/11G16 RMK AO1 T01560022
54779K12N 12N20160312162510403/12/16 16:25:31  5-MIN K12N 122125Z AUTO 22009G16KT 16/02 A3007 450 40 700 230/09G16 RMK AO1 T01560022
54779K12N 12N20160312163009803/12/16 16:30:31  5-MIN K12N 122130Z AUTO 22008KT 15/02 A3006 450 42 600 240/08 RMK AO1 T01500022
54779K12N 12N20160312163510403/12/16 16:35:31  5-MIN K12N 122135Z AUTO 21007G17KT 16/02 A3006 450 40 700 230/07G17 RMK AO1 T01560022
54779K12N 12N20160312164010403/12/16 16:40:31  5-MIN K12N 122140Z AUTO 22010G17KT 16/02 A3006 450 40 700 230/10G17 RMK AO1 T01560022
54779K12N 12N20160312164511403/12/16 16:45:31  5-MIN K12N 122145Z AUTO 22008KT 180V240 16/02 A3006 460 40 700 230/08 190V250 RMK AO1 T01560022
54779K12N 12N20160312165010503/12/16 16:50:31  5-MIN K12N 122150Z AUTO 21009KT 16/02 A3006 460 39 700 230/09 RMK AO1 SLP183 T01560017
54779K12N 12N20160312165509803/12/16 16:55:31  5-MIN K12N 122155Z AUTO 21008KT 15/02 A3006 460 40 600 220/08 RMK AO1 T01500017
54779K12N 12N20160312170009803/12/16 17:00:31  5-MIN K12N 122200Z AUTO 21007KT 16/02 A3005 460 39 700 220/07 RMK AO1 T01560017
54779K12N 12N20160312170510403/12/16 17:05:31  5-MIN K12N 122205Z AUTO 21006G15KT 16/02 A3005 460 39 700 220/06G15 RMK AO1 T01560017
54779K12N 12N20160312171010403/12/16 17:10:31  5-MIN K12N 122210Z AUTO 22008G15KT 15/02 A3005 460 42 600 230/08G15 RMK AO1 T01500022
54779K12N 12N20160312171509803/12/16 17:15:31  5-MIN K12N 122215Z AUTO 21006KT 15/02 A3005 460 40 600 220/06 RMK AO1 T01500017
54779K12N 12N20160312172009803/12/16 17:20:31  5-MIN K12N 122220Z AUTO 21006KT 15/02 A3005 460 40 600 220/06 RMK AO1 T01500017
54779K12N 12N20160312172510403/12/16 17:25:31  5-MIN K12N 122225Z AUTO 21010G15KT 15/02 A3005 460 40 600 230/10G15 RMK AO1 T01500017
54779K12N 12N20160312173010403/12/16 17:30:31  5-MIN K12N 122230Z AUTO 22008G15KT 15/02 A3005 460 40 600 230/08G15 RMK AO1 T01500017
54779K12N 12N20160312173509803/12/16 17:35:31  5-MIN K12N 122235Z AUTO 22009KT 15/02 A3005 460 40 600 230/09 RMK AO1 T01500017
54779K12N 12N20160312174009803/12/16 17:40:31  5-MIN K12N 122240Z AUTO 21005KT 14/02 A3006 460 43 500 230/05 RMK AO1 T01440022
54779K12N 12N20160312174509803/12/16 17:45:31  5-MIN K12N 122245Z AUTO 21004KT 14/02 A3005 460 41 500 230/04 RMK AO1 T01440017
54779K12N 12N20160312175010503/12/16 17:50:31  5-MIN K12N 122250Z AUTO 21003KT 14/02 A3006 460 43 500 220/03 RMK AO1 SLP183 T01440022
54779K12N 12N20160312175509803/12/16 17:55:31  5-MIN K12N 122255Z AUTO 22004KT 14/02 A3006 460 41 500 230/04 RMK AO1 T01440017
54779K12N 12N20160312180009803/12/16 18:00:31  5-MIN K12N 122300Z AUTO 21005KT 14/02 A3006 460 45 500 220/05 RMK AO1 T01390022
54779K12N 12N20160312180509803/12/16 18:05:31  5-MIN K12N 122305Z AUTO 21005KT 14/02 A3005 460 45 500 220/05 RMK AO1 T01390022
54779K12N 12N20160312181009803/12/16 18:10:31  5-MIN K12N 122310Z AUTO 20004KT 14/02 A3005 460 45 500 210/04 RMK AO1 T01390022
54779K12N 12N20160312181509803/12/16 18:15:31  5-MIN K12N 122315Z AUTO 21004KT 14/02 A3005 460 45 500 220/04 RMK AO1 T01390022
54779K12N 12N20160312182009803/12/16 18:20:31  5-MIN K12N 122320Z AUTO VRB05KT 14/02 A3006 460 45 500 VRB/05 RMK AO1 T01390022
54779K12N 12N20160312182509803/12/16 18:25:31  5-MIN K12N 122325Z AUTO 20003KT 13/02 A3005 460 46 400 220/03 RMK AO1 T01330022
54779K12N 12N20160312183009803/12/16 18:30:31  5-MIN K12N 122330Z AUTO VRB04KT 13/02 A3005 460 46 400 VRB/04 RMK AO1 T01330022
54779K12N 12N20160312183509803/12/16 18:35:31  5-MIN K12N 122335Z AUTO 00000KT 13/03 A3005 460 48 400 000/00 RMK AO1 T01330028
54779K12N 12N20160312184009803/12/16 18:40:31  5-MIN K12N 122340Z AUTO 20003KT 13/03 A3005 460 48 400 210/03 RMK AO1 T01330028
54779K12N 12N20160312184509803/12/16 18:45:31  5-MIN K12N 122345Z AUTO 20003KT 13/03 A3005 460 48 400 220/03 RMK AO1 T01330028
54779K12N 12N20160312185012303/12/16 18:50:31  5-MIN K12N 122350Z AUTO 20003KT 13/03 A3005 460 50 300 210/03 RMK AO1 SLP182 T01280028 10167 20128 56036
54779K12N 12N20160312185509803/12/16 18:55:31  5-MIN K12N 122355Z AUTO 19004KT 13/03 A3005 470 50 400 210/04 RMK AO1 T01280028
54779K12N 12N20160312190009803/12/16 19:00:31  5-MIN K12N 130000Z AUTO 18004KT 13/03 A3005 470 50 400 190/04 RMK AO1 T01280028
54779K12N 12N20160312190509803/12/16 19:05:31  5-MIN K12N 130005Z AUTO 19003KT 13/03 A3005 470 50 400 200/03 RMK AO1 T01280028
54779K12N 12N20160312191009803/12/16 19:10:31  5-MIN K12N 130010Z AUTO 20003KT 12/03 A3004 470 54 300 210/03 RMK AO1 T01220033
54779K12N 12N20160312191509803/12/16 19:15:31  5-MIN K12N 130015Z AUTO 19003KT 12/04 A3004 470 56 300 200/03 RMK AO1 T01220039
54779K12N 12N20160312192009803/12/16 19:20:31  5-MIN K12N 130020Z AUTO VRB04KT 12/04 A3004 470 56 300 VRB/04 RMK AO1 T01220039
54779K12N 12N20160312192509803/12/16 19:25:31  5-MIN K12N 130025Z AUTO 21003KT 12/04 A3005 470 56 300 220/03 RMK AO1 T01220039
54779K12N 12N20160312193009803/12/16 19:30:31  5-MIN K12N 130030Z AUTO VRB04KT 12/04 A3005 470 61 200 VRB/04 RMK AO1 T01170044
54779K12N 12N20160312193509803/12/16 19:35:31  5-MIN K12N 130035Z AUTO 21005KT 12/04 A3005 470 61 200 220/05 RMK AO1 T01170044
54779K12N 12N20160312194009803/12/16 19:40:31  5-MIN K12N 130040Z AUTO 21005KT 12/04 A3005 470 61 200 230/05 RMK AO1 T01170044
54779K12N 12N20160312194509803/12/16 19:45:31  5-MIN K12N 130045Z AUTO VRB04KT 12/04 A3005 460 61 200 VRB/04 RMK AO1 T01170044
54779K12N 12N20160312195010503/12/16 19:50:31  5-MIN K12N 130050Z AUTO 21004KT 12/04 A3005 470 61 200 220/04 RMK AO1 SLP180 T01170044
54779K12N 12N20160312195509803/12/16 19:55:31  5-MIN K12N 130055Z AUTO VRB04KT 12/04 A3004 470 61 200 VRB/04 RMK AO1 T01170044
54779K12N 12N20160312200009803/12/16 20:00:31  5-MIN K12N 130100Z AUTO 20004KT 12/04 A3004 470 61 200 220/04 RMK AO1 T01170044
54779K12N 12N20160312200509803/12/16 20:05:31  5-MIN K12N 130105Z AUTO VRB04KT 12/04 A3004 470 61 200 VRB/04 RMK AO1 T01170044
54779K12N 12N20160312201009803/12/16 20:10:31  5-MIN K12N 130110Z AUTO 21006KT 12/04 A3004 470 61 200 220/06 RMK AO1 T01170044
54779K12N 12N20160312201509803/12/16 20:15:31  5-MIN K12N 130115Z AUTO 20005KT 12/04 A3004 470 61 200 220/05 RMK AO1 T01170044
54779K12N 12N20160312202009803/12/16 20:20:31  5-MIN K12N 130120Z AUTO 21006KT 12/04 A3004 470 61 200 220/06 RMK AO1 T01170044
54779K12N 12N20160312202509803/12/16 20:25:31  5-MIN K12N 130125Z AUTO VRB05KT 12/04 A3004 470 61 200 VRB/05 RMK AO1 T01170044
54779K12N 12N20160312203009803/12/16 20:30:31  5-MIN K12N 130130Z AUTO 21005KT 12/04 A3005 470 61 200 220/05 RMK AO1 T01170044
54779K12N 12N20160312203509803/12/16 20:35:31  5-MIN K12N 130135Z AUTO 21007KT 11/04 A3004 470 63 200 230/07 RMK AO1 T01110044
54779K12N 12N20160312204009803/12/16 20:40:31  5-MIN K12N 130140Z AUTO 21006KT 11/04 A3004 470 63 200 220/06 RMK AO1 T01110044
54779K12N 12N20160312204509803/12/16 20:45:31  5-MIN K12N 130145Z AUTO 21006KT 11/04 A3005 470 63 200 220/06 RMK AO1 T01110044
54779K12N 12N20160312205010503/12/16 20:50:31  5-MIN K12N 130150Z AUTO 20006KT 11/04 A3005 470 63 200 220/06 RMK AO1 SLP178 T01110044
54779K12N 12N20160312205509803/12/16 20:55:31  5-MIN K12N 130155Z AUTO 20006KT 12/04 A3005 470 61 200 220/06 RMK AO1 T01170044
54779K12N 12N20160312210009803/12/16 21:00:31  5-MIN K12N 130200Z AUTO VRB04KT 11/04 A3005 470 63 200 VRB/04 RMK AO1 T01110044
54779K12N 12N20160312210509803/12/16 21:05:31  5-MIN K12N 130205Z AUTO VRB04KT 11/04 A3005 470 63 200 VRB/04 RMK AO1 T01110044
54779K12N 12N20160312211009803/12/16 21:10:31  5-MIN K12N 130210Z AUTO 18004KT 11/04 A3004 470 63 200 200/04 RMK AO1 T01110044
54779K12N 12N20160312211509803/12/16 21:15:31  5-MIN K12N 130215Z AUTO 20005KT 11/04 A3004 470 63 200 210/05 RMK AO1 T01110044
54779K12N 12N20160312212009803/12/16 21:20:31  5-MIN K12N 130220Z AUTO VRB04KT 11/04 A3004 480 63 200 VRB/04 RMK AO1 T01110044
54779K12N 12N20160312212509803/12/16 21:25:31  5-MIN K12N 130225Z AUTO 19004KT 11/04 A3004 480 66 100 200/04 RMK AO1 T01060044
54779K12N 12N20160312213009803/12/16 21:30:31  5-MIN K12N 130230Z AUTO VRB04KT 11/04 A3004 480 66 100 VRB/04 RMK AO1 T01060044
54779K12N 12N20160312213509803/12/16 21:35:31  5-MIN K12N 130235Z AUTO VRB04KT 11/04 A3003 480 66 100 VRB/04 RMK AO1 T01060044
54779K12N 12N20160312214009803/12/16 21:40:31  5-MIN K12N 130240Z AUTO VRB04KT 11/04 A3003 480 66 100 VRB/04 RMK AO1 T01060044
54779K12N 12N20160312214509803/12/16 21:45:31  5-MIN K12N 130245Z AUTO VRB03KT 11/04 A3003 480 66 100 VRB/03 RMK AO1 T01060044
54779K12N 12N20160312215011103/12/16 21:50:31  5-MIN K12N 130250Z AUTO 19003KT 11/04 A3003 480 66 100 200/03 RMK AO1 SLP172 T01060044 56010
54779K12N 12N20160312215509803/12/16 21:55:31  5-MIN K12N 130255Z AUTO 19004KT 11/04 A3003 480 66 100 200/04 RMK AO1 T01060044
54779K12N 12N20160312220009803/12/16 22:00:31  5-MIN K12N 130300Z AUTO 19003KT 11/04 A3003 480 66 100 200/03 RMK AO1 T01060044
54779K12N 12N20160312220509603/12/16 22:05:31  5-MIN K12N 130305Z AUTO VRB03KT 10/04 A3003 480 68 0 VRB/03 RMK AO1 T01000044
54779K12N 12N20160312221009603/12/16 22:10:31  5-MIN K12N 130310Z AUTO 19003KT 10/04 A3003 480 68 0 200/03 RMK AO1 T01000044
54779K12N 12N20160312221509603/12/16 22:15:31  5-MIN K12N 130315Z AUTO 20003KT 10/04 A3003 480 68 0 210/03 RMK AO1 T01000044
54779K12N 12N20160312222009603/12/16 22:20:31  5-MIN K12N 130320Z AUTO 18004KT 10/04 A3003 480 65 0 190/04 RMK AO1 T01000039
54779K12N 12N20160312222509603/12/16 22:25:31  5-MIN K12N 130325Z AUTO 19004KT 09/04 A3003 480 68 0 200/04 RMK AO1 T00940039
54779K12N 12N20160312223009603/12/16 22:30:31  5-MIN K12N 130330Z AUTO 19003KT 09/04 A3003 480 68 0 200/03 RMK AO1 T00940039
54779K12N 12N20160312223509603/12/16 22:35:31  5-MIN K12N 130335Z AUTO 00000KT 09/04 A3003 490 68 0 000/00 RMK AO1 T00940039
54779K12N 12N20160312224009603/12/16 22:40:31  5-MIN K12N 130340Z AUTO 19003KT 09/04 A3003 490 68 0 200/03 RMK AO1 T00940039
54779K12N 12N20160312224509603/12/16 22:45:31  5-MIN K12N 130345Z AUTO 19003KT 09/04 A3003 490 68 0 200/03 RMK AO1 T00940039
54779K12N 12N20160312225010303/12/16 22:50:31  5-MIN K12N 130350Z AUTO 17003KT 09/04 A3002 490 68 0 180/03 RMK AO1 SLP169 T00940039
54779K12N 12N20160312225509603/12/16 22:55:31  5-MIN K12N 130355Z AUTO 00000KT 09/04 A3002 490 68 0 000/00 RMK AO1 T00940039
54779K12N 12N20160312230009603/12/16 23:00:31  5-MIN K12N 130400Z AUTO 00000KT 09/04 A3002 490 71 0 000/00 RMK AO1 T00890039
54779K12N 12N20160312230509903/12/16 23:05:31  5-MIN K12N 130405Z AUTO 00000KT 08/04 A3002 490 76 -200 000/00 RMK AO1 T00780039
54779K12N 12N20160312231009903/12/16 23:10:31  5-MIN K12N 130410Z AUTO 00000KT 08/04 A3002 490 76 -200 000/00 RMK AO1 T00780039
54779K12N 12N20160312231509903/12/16 23:15:31  5-MIN K12N 130415Z AUTO 00000KT 08/04 A3002 490 79 -200 000/00 RMK AO1 T00780044
54779K12N 12N20160312232009903/12/16 23:20:31  5-MIN K12N 130420Z AUTO 00000KT 07/04 A3002 500 82 -200 000/00 RMK AO1 T00720044
54779K12N 12N20160312232509903/12/16 23:25:31  5-MIN K12N 130425Z AUTO 00000KT 07/04 A3002 500 82 -300 000/00 RMK AO1 T00670039
54779K12N 12N20160312233009903/12/16 23:30:31  5-MIN K12N 130430Z AUTO 00000KT 07/04 A3001 500 82 -200 000/00 RMK AO1 T00720044
54779K12N 12N20160312233509903/12/16 23:35:31  5-MIN K12N 130435Z AUTO 00000KT 07/04 A3001 500 82 -200 000/00 RMK AO1 T00720044
54779K12N 12N20160312234009903/12/16 23:40:31  5-MIN K12N 130440Z AUTO 00000KT 07/04 A3001 500 82 -200 000/00 RMK AO1 T00720044
54779K12N 12N20160312234509903/12/16 23:45:31  5-MIN K12N 130445Z AUTO 00000KT 06/04 A3001 500 86 -400 000/00 RMK AO1 T00610039
54779K12N 12N20160312235011603/12/16 23:50:31  5-MIN K12N 130450Z AUTO 00000KT 07/04 A3001 500 82 -200 000/00 RMK AO1 SLP165 T00720044 401671022
54779K12N 12N20160312235509903/12/16 23:55:31  5-MIN K12N 130455Z AUTO 00000KT 07/04 A3001 500 86 -300 000/00 RMK AO1 T00670044
54779K12N 12N20160313000009903/13/16 00:00:31  5-MIN K12N 130500Z AUTO 00000KT 07/04 A3001 500 86 -300 000/00 RMK AO1 T00670044
54779K12N 12N20160313000509903/13/16 00:05:31  5-MIN K12N 130505Z AUTO 00000KT 07/04 A3001 510 86 -300 000/00 RMK AO1 T00670044
54779K12N 12N20160313001009903/13/16 00:10:31  5-MIN K12N 130510Z AUTO 00000KT 06/04 A3001 500 89 -400 000/00 RMK AO1 T00610044
54779K12N 12N20160313001509903/13/16 00:15:31  5-MIN K12N 130515Z AUTO 00000KT 06/04 A3001 500 89 -400 000/00 RMK AO1 T00610044
54779K12N 12N20160313002009903/13/16 00:20:31  5-MIN K12N 130520Z AUTO 00000KT 06/04 A3002 500 86 -400 000/00 RMK AO1 T00610039
54779K12N 12N20160313002509903/13/16 00:25:31  5-MIN K12N 130525Z AUTO 00000KT 06/04 A3002 490 89 -400 000/00 RMK AO1 T00560039
54779K12N 12N20160313003009903/13/16 00:30:31  5-MIN K12N 130530Z AUTO 00000KT 06/04 A3002 490 89 -400 000/00 RMK AO1 T00560039
54779K12N 12N20160313003509903/13/16 00:35:31  5-MIN K12N 130535Z AUTO 18003KT 06/04 A3002 490 89 -400 190/03 RMK AO1 T00560039
54779K12N 12N20160313004009903/13/16 00:40:31  5-MIN K12N 130540Z AUTO 00000KT 06/04 A3002 500 89 -400 000/00 RMK AO1 T00560039
54779K12N 12N20160313004509903/13/16 00:45:31  5-MIN K12N 130545Z AUTO 00000KT 06/04 A3002 490 89 -400 000/00 RMK AO1 T00560039
54779K12N 12N20160313005012403/13/16 00:50:31  5-MIN K12N 130550Z AUTO 00000KT 06/04 A3002 500 86 -400 000/00 RMK AO1 SLP167 T00610039 10128 20056 58006
54779K12N 12N20160313005509903/13/16 00:55:31  5-MIN K12N 130555Z AUTO 00000KT 06/04 A3002 490 89 -400 000/00 RMK AO1 T00610044
54779K12N 12N20160313010009903/13/16 01:00:31  5-MIN K12N 130600Z AUTO 00000KT 06/04 A3002 500 89 -400 000/00 RMK AO1 T00610044
54779K12N 12N20160313010509903/13/16 01:05:31  5-MIN K12N 130605Z AUTO 00000KT 06/04 A3001 500 92 -400 000/00 RMK AO1 T00560044
54779K12N 12N20160313011009903/13/16 01:10:31  5-MIN K12N 130610Z AUTO 00000KT 05/04 A3001 500 92 -500 000/00 RMK AO1 T00500039
54779K12N 12N20160313011509903/13/16 01:15:31  5-MIN K12N 130615Z AUTO 00000KT 06/04 A3001 500 89 -400 000/00 RMK AO1 T00560039
54779K12N 12N20160313012009903/13/16 01:20:31  5-MIN K12N 130620Z AUTO 00000KT 06/04 A3001 500 89 -400 000/00 RMK AO1 T00560039
54779K12N 12N20160313012509903/13/16 01:25:31  5-MIN K12N 130625Z AUTO 00000KT 06/04 A3001 500 89 -400 000/00 RMK AO1 T00560039
54779K12N 12N20160313013009903/13/16 01:30:31  5-MIN K12N 130630Z AUTO 00000KT 06/03 A3001 500 85 -400 000/00 RMK AO1 T00560033
54779K12N 12N20160313013509903/13/16 01:35:31  5-MIN K12N 130635Z AUTO 00000KT 06/03 A3001 500 85 -400 000/00 RMK AO1 T00560033
54779K12N 12N20160313014009903/13/16 01:40:31  5-MIN K12N 130640Z AUTO 00000KT 06/03 A3001 500 85 -400 000/00 RMK AO1 T00560033
54779K12N 12N20160313014509903/13/16 01:45:31  5-MIN K12N 130645Z AUTO 00000KT 05/03 A3001 500 89 -500 000/00 RMK AO1 T00500033
54779K12N 12N20160313015010603/13/16 01:50:31  5-MIN K12N 130650Z AUTO 00000KT 05/03 A3001 500 89 -500 000/00 RMK AO1 SLP164 T00500033
54779K12N 12N20160313015509903/13/16 01:55:31  5-MIN K12N 130655Z AUTO 19003KT 06/03 A3001 510 85 -400 210/03 RMK AO1 T00560033
54779K12N 12N20160313020009903/13/16 02:00:31  5-MIN K12N 130700Z AUTO 00000KT 06/04 A3000 510 89 -400 000/00 RMK AO1 T00560039
54779K12N 12N20160313020509903/13/16 02:05:31  5-MIN K12N 130705Z AUTO 00000KT 06/04 A3000 510 89 -400 000/00 RMK AO1 T00560039
54779K12N 12N20160313021009903/13/16 02:10:31  5-MIN K12N 130710Z AUTO 20003KT 05/04 A3000 510 92 -500 210/03 RMK AO1 T00500039
54779K12N 12N20160313021509903/13/16 02:15:31  5-MIN K12N 130715Z AUTO 00000KT 06/04 A3000 510 89 -400 000/00 RMK AO1 T00560039
54779K12N 12N20160313022009903/13/16 02:20:31  5-MIN K12N 130720Z AUTO 00000KT 05/04 A3000 510 92 -500 000/00 RMK AO1 T00500039
54779K12N 12N20160313022509903/13/16 02:25:31  5-MIN K12N 130725Z AUTO 00000KT 05/04 A3000 510 92 -500 000/00 RMK AO1 T00500039
54779K12N 12N20160313023009903/13/16 02:30:31  5-MIN K12N 130730Z AUTO 00000KT 05/03 A3000 510 89 -500 000/00 RMK AO1 T00500033
54779K12N 12N20160313023509903/13/16 02:35:31  5-MIN K12N 130735Z AUTO 00000KT 04/03 A3000 510 92 -600 000/00 RMK AO1 T00440033
54779K12N 12N20160313024009903/13/16 02:40:31  5-MIN K12N 130740Z AUTO 22003KT 05/04 A3000 510 92 -500 230/03 RMK AO1 T00500039
54779K12N 12N20160313024509903/13/16 02:45:31  5-MIN K12N 130745Z AUTO 20003KT 04/03 A3000 510 92 -600 210/03 RMK AO1 T00440033
54779K12N 12N20160313025010603/13/16 02:50:31  5-MIN K12N 130750Z AUTO 00000KT 05/04 A3000 510 92 -500 000/00 RMK AO1 SLP160 T00500039
54779K12N 12N20160313025509903/13/16 02:55:31  5-MIN K12N 130755Z AUTO 00000KT 05/04 A3000 510 92 -500 000/00 RMK AO1 T00500039
54779K12N 12N20160313030009903/13/16 03:00:31  5-MIN K12N 130800Z AUTO 00000KT 04/03 A3000 510 92 -500 000/00 RMK AO1 T00440033
54779K12N 12N20160313030509903/13/16 03:05:31  5-MIN K12N 130805Z AUTO 00000KT 04/03 A3000 510 92 -500 000/00 RMK AO1 T00440033
54779K12N 12N20160313031009903/13/16 03:10:31  5-MIN K12N 130810Z AUTO 00000KT 04/03 A3000 510 92 -600 000/00 RMK AO1 T00440033
54779K12N 12N20160313031509903/13/16 03:15:31  5-MIN K12N 130815Z AUTO 00000KT 05/03 A3000 510 89 -500 000/00 RMK AO1 T00500033
54779K12N 12N20160313032009903/13/16 03:20:31  5-MIN K12N 130820Z AUTO 00000KT 05/03 A3000 510 89 -500 000/00 RMK AO1 T00500033
54779K12N 12N20160313032509903/13/16 03:25:31  5-MIN K12N 130825Z AUTO 00000KT 05/04 A3000 510 92 -500 000/00 RMK AO1 T00500039
54779K12N 12N20160313033009903/13/16 03:30:31  5-MIN K12N 130830Z AUTO 00000KT 05/04 A3000 510 92 -500 000/00 RMK AO1 T00500039
54779K12N 12N20160313033509903/13/16 03:35:31  5-MIN K12N 130835Z AUTO 00000KT 05/04 A3000 510 92 -500 000/00 RMK AO1 T00500039
54779K12N 12N20160313034009903/13/16 03:40:31  5-MIN K12N 130840Z AUTO 00000KT 05/04 A3000 510 92 -500 000/00 RMK AO1 T00500039
54779K12N 12N20160313034509903/13/16 03:45:31  5-MIN K12N 130845Z AUTO 00000KT 05/04 A3000 520 92 -500 000/00 RMK AO1 T00500039
54779K12N 12N20160313035011203/13/16 03:50:31  5-MIN K12N 130850Z AUTO 00000KT 05/04 A3000 520 92 -500 000/00 RMK AO1 SLP160 T00500039 55004
54779K12N 12N20160313035509903/13/16 03:55:31  5-MIN K12N 130855Z AUTO 00000KT 05/04 A3000 520 92 -500 000/00 RMK AO1 T00500039
54779K12N 12N20160313040009903/13/16 04:00:31  5-MIN K12N 130900Z AUTO 00000KT 05/04 A2999 520 96 -500 000/00 RMK AO1 T00500044
54779K12N 12N20160313040509903/13/16 04:05:31  5-MIN K12N 130905Z AUTO 00000KT 05/04 A2999 520 96 -500 000/00 RMK AO1 T00500044
54779K12N 12N20160313041009903/13/16 04:10:31  5-MIN K12N 130910Z AUTO 00000KT 05/04 A3000 510 96 -500 000/00 RMK AO1 T00500044
54779K12N 12N20160313041509903/13/16 04:15:31  5-MIN K12N 130915Z AUTO 00000KT 05/04 A3000 510 96 -500 000/00 RMK AO1 T00500044
54779K12N 12N20160313042009903/13/16 04:20:31  5-MIN K12N 130920Z AUTO 00000KT 06/04 A3000 510 89 -400 000/00 RMK AO1 T00560039
54779K12N 12N20160313042509903/13/16 04:25:31  5-MIN K12N 130925Z AUTO 00000KT 06/04 A3001 500 92 -400 000/00 RMK AO1 T00560044
54779K12N 12N20160313043009903/13/16 04:30:31  5-MIN K12N 130930Z AUTO 00000KT 05/04 A3001 500 92 -500 000/00 RMK AO1 T00500039
54779K12N 12N20160313043509903/13/16 04:35:31  5-MIN K12N 130935Z AUTO 00000KT 05/04 A3001 500 92 -500 000/00 RMK AO1 T00500039
54779K12N 12N20160313044009903/13/16 04:40:31  5-MIN K12N 130940Z AUTO 00000KT 05/04 A3001 500 92 -500 000/00 RMK AO1 T00500039
54779K12N 12N20160313044509903/13/16 04:45:31  5-MIN K12N 130945Z AUTO 00000KT 05/04 A3001 500 92 -500 000/00 RMK AO1 T00500039
54779K12N 12N20160313045010603/13/16 04:50:31  5-MIN K12N 130950Z AUTO 00000KT 05/04 A3001 500 92 -500 000/00 RMK AO1 SLP165 T00500039
54779K12N 12N20160313045509903/13/16 04:55:31  5-MIN K12N 130955Z AUTO 00000KT 05/04 A3001 500 92 -500 000/00 RMK AO1 T00500039
54779K12N 12N20160313050009903/13/16 05:00:31  5-MIN K12N 131000Z AUTO 00000KT 05/03 A3001 500 89 -500 000/00 RMK AO1 T00500033
54779K12N 12N20160313050509903/13/16 05:05:31  5-MIN K12N 131005Z AUTO 00000KT 05/03 A3001 500 89 -500 000/00 RMK AO1 T00500033
54779K12N 12N20160313051009903/13/16 05:10:31  5-MIN K12N 131010Z AUTO 00000KT 05/04 A3001 500 92 -500 000/00 RMK AO1 T00500039
54779K12N 12N20160313051509903/13/16 05:15:31  5-MIN K12N 131015Z AUTO 00000KT 04/03 A3001 500 92 -600 000/00 RMK AO1 T00440033
54779K12N 12N20160313052009903/13/16 05:20:31  5-MIN K12N 131020Z AUTO 00000KT 04/03 A3002 500 92 -600 000/00 RMK AO1 T00440033
54779K12N 12N20160313052509903/13/16 05:25:31  5-MIN K12N 131025Z AUTO 00000KT 04/03 A3002 500 92 -600 000/00 RMK AO1 T00440033
54779K12N 12N20160313053009903/13/16 05:30:31  5-MIN K12N 131030Z AUTO 00000KT 04/03 A3002 500 92 -600 000/00 RMK AO1 T00440033
54779K12N 12N20160313053509903/13/16 05:35:31  5-MIN K12N 131035Z AUTO 00000KT 04/03 A3002 490 92 -600 000/00 RMK AO1 T00440033
54779K12N 12N20160313054009903/13/16 05:40:31  5-MIN K12N 131040Z AUTO 00000KT 04/03 A3002 490 92 -600 000/00 RMK AO1 T00440033
54779K12N 12N20160313054509903/13/16 05:45:31  5-MIN K12N 131045Z AUTO 00000KT 04/03 A3002 490 92 -600 000/00 RMK AO1 T00440033
54779K12N 12N20160313055010603/13/16 05:50:31  5-MIN K12N 131050Z AUTO 00000KT 04/03 A3002 490 92 -600 000/00 RMK AO1 SLP170 T00440033
54779K12N 12N20160313055509903/13/16 05:55:31  5-MIN K12N 131055Z AUTO 00000KT 04/03 A3002 490 92 -600 000/00 RMK AO1 T00440033
54779K12N 12N20160313060009903/13/16 06:00:31  5-MIN K12N 131100Z AUTO 00000KT 04/03 A3002 490 92 -600 000/00 RMK AO1 T00440033
54779K12N 12N20160313153009903/13/16 15:30:31  5-MIN K12N 132030Z AUTO 00000KT 14/M01 A3005 470 35 600 000/00 RMK AO1 T01441006
54779K12N 12N20160313153509903/13/16 15:35:31  5-MIN K12N 132035Z AUTO 00000KT 14/M01 A3005 470 35 600 000/00 RMK AO1 T01441006
54779K12N 12N20160313154009903/13/16 15:40:31  5-MIN K12N 132040Z AUTO 03003KT 14/M01 A3005 470 37 500 040/03 RMK AO1 T01391006
54779K12N 12N20160313154509803/13/16 15:45:31  5-MIN K12N 132045Z AUTO 00000KT 14/00 A3005 470 38 500 000/00 RMK AO1 T01390000
54779K12N 12N20160313155011203/13/16 15:50:31  5-MIN K12N 132050Z AUTO 00000KT 14/M01 A3005 470 37 500 000/00 RMK AO1 SLP178 T01391006 58004
54779K12N 12N20160313155509803/13/16 15:55:31  5-MIN K12N 132055Z AUTO 00000KT 14/00 A3005 470 38 500 000/00 RMK AO1 T01390000
54779K12N 12N20160313160009903/13/16 16:00:31  5-MIN K12N 132100Z AUTO VRB04KT 14/M01 A3005 470 34 600 VRB/04 RMK AO1 T01441011
54779K12N 12N20160313160509903/13/16 16:05:31  5-MIN K12N 132105Z AUTO 04003KT 14/M02 A3004 470 33 600 050/03 RMK AO1 T01441017
54779K12N 12N20160313161009803/13/16 16:10:31  5-MIN K12N 132110Z AUTO VRB03KT 14/00 A3004 470 38 500 VRB/03 RMK AO1 T01390000
54779K12N 12N20160313161509903/13/16 16:15:31  5-MIN K12N 132115Z AUTO 03003KT 14/M01 A3004 470 37 500 040/03 RMK AO1 T01391006
54779K12N 12N20160313162009903/13/16 16:20:31  5-MIN K12N 132120Z AUTO VRB03KT 14/M02 A3004 470 34 500 VRB/03 RMK AO1 T01391017
54779K12N 12N20160313162509903/13/16 16:25:31  5-MIN K12N 132125Z AUTO VRB03KT 14/M02 A3004 470 33 600 VRB/03 RMK AO1 T01441017
54779K12N 12N20160313163009903/13/16 16:30:31  5-MIN K12N 132130Z AUTO 00000KT 14/M03 A3004 470 30 600 000/00 RMK AO1 T01441028
54779K12N 12N20160313163509903/13/16 16:35:31  5-MIN K12N 132135Z AUTO VRB03KT 14/M02 A3004 470 32 500 VRB/03 RMK AO1 T01391022
54779K12N 12N20160313164009903/13/16 16:40:31  5-MIN K12N 132140Z AUTO 00000KT 13/M02 A3004 480 34 400 000/00 RMK AO1 T01331022
54779K12N 12N20160313164509903/13/16 16:45:31  5-MIN K12N 132145Z AUTO VRB03KT 13/M03 A3004 480 32 400 VRB/03 RMK AO1 T01331028
54779K12N 12N20160313165010603/13/16 16:50:31  5-MIN K12N 132150Z AUTO 00000KT 14/M04 A3004 480 27 500 000/00 RMK AO1 SLP175 T01391044
54779K12N 12N20160313165509903/13/16 16:55:31  5-MIN K12N 132155Z AUTO 04003KT 13/M03 A3004 480 31 400 060/03 RMK AO1 T01331033
54779K12N 12N20160313170009903/13/16 17:00:31  5-MIN K12N 132200Z AUTO 00000KT 13/M03 A3004 480 31 400 000/00 RMK AO1 T01331033
54779K12N 12N20160313170509903/13/16 17:05:31  5-MIN K12N 132205Z AUTO 00000KT 13/M03 A3004 480 32 400 000/00 RMK AO1 T01331028
54779K12N 12N20160313171009903/13/16 17:10:31  5-MIN K12N 132210Z AUTO 00000KT 13/M03 A3004 470 32 400 000/00 RMK AO1 T01331028
54779K12N 12N20160313171509903/13/16 17:15:31  5-MIN K12N 132215Z AUTO 00000KT 13/M04 A3004 470 30 400 000/00 RMK AO1 T01331039
54779K12N 12N20160313172009903/13/16 17:20:31  5-MIN K12N 132220Z AUTO 00000KT 13/M02 A3005 470 34 400 000/00 RMK AO1 T01331022
54779K12N 12N20160313172509903/13/16 17:25:31  5-MIN K12N 132225Z AUTO 00000KT 12/M01 A3005 460 41 300 000/00 RMK AO1 T01221006
54779K12N 12N20160313173009903/13/16 17:30:31  5-MIN K12N 132230Z AUTO 00000KT 13/M03 A3005 460 33 300 000/00 RMK AO1 T01281028
54779K12N 12N20160313173509903/13/16 17:35:31  5-MIN K12N 132235Z AUTO 00000KT 12/M02 A3005 460 38 300 000/00 RMK AO1 T01221017
54779K12N 12N20160313174009803/13/16 17:40:31  5-MIN K12N 132240Z AUTO 00000KT 12/00 A3006 460 43 300 000/00 RMK AO1 T01220000
54779K12N 12N20160313174509903/13/16 17:45:31  5-MIN K12N 132245Z AUTO 00000KT 12/M02 A3006 460 38 300 000/00 RMK AO1 T01221017
54779K12N 12N20160313175010603/13/16 17:50:31  5-MIN K12N 132250Z AUTO 00000KT 12/M01 A3006 460 42 200 000/00 RMK AO1 SLP183 T01171006
54779K12N 12N20160313175509803/13/16 17:55:31  5-MIN K12N 132255Z AUTO 04003KT 12/00 A3006 460 44 200 050/03 RMK AO1 T01170000
54779K12N 12N20160313180009903/13/16 18:00:31  5-MIN K12N 132300Z AUTO 00000KT 12/M01 A3006 460 41 200 000/00 RMK AO1 T01171011
54779K12N 12N20160313180509903/13/16 18:05:31  5-MIN K12N 132305Z AUTO 00000KT 12/M01 A3006 460 41 200 000/00 RMK AO1 T01171011
54779K12N 12N20160313181009803/13/16 18:10:31  5-MIN K12N 132310Z AUTO 00000KT 12/00 A3006 460 44 200 000/00 RMK AO1 T01170000
54779K12N 12N20160313181509803/13/16 18:15:31  5-MIN K12N 132315Z AUTO 00000KT 11/00 A3006 460 46 100 000/00 RMK AO1 T01110000
54779K12N 12N20160313182009803/13/16 18:20:31  5-MIN K12N 132320Z AUTO 00000KT 11/01 A3006 460 48 100 000/00 RMK AO1 T01110006
54779K12N 12N20160313182509803/13/16 18:25:31  5-MIN K12N 132325Z AUTO 00000KT 11/00 A3006 460 46 100 000/00 RMK AO1 T01110000
54779K12N 12N20160313183009803/13/16 18:30:31  5-MIN K12N 132330Z AUTO 00000KT 11/00 A3006 460 46 100 000/00 RMK AO1 T01110000
54779K12N 12N20160313183509803/13/16 18:35:31  5-MIN K12N 132335Z AUTO 00000KT 11/00 A3006 460 46 100 000/00 RMK AO1 T01110000
54779K12N 12N20160313184009803/13/16 18:40:31  5-MIN K12N 132340Z AUTO 00000KT 11/00 A3006 460 46 100 000/00 RMK AO1 T01110000
54779K12N 12N20160313184509803/13/16 18:45:31  5-MIN K12N 132345Z AUTO 00000KT 11/00 A3006 460 46 100 000/00 RMK AO1 T01110000
54779K12N 12N20160313185012303/13/16 18:50:31  5-MIN K12N 132350Z AUTO 00000KT 11/01 A3006 460 52 100 000/00 RMK AO1 SLP183 T01060011 10156 20106 53001
54779K12N 12N20160313185509803/13/16 18:55:31  5-MIN K12N 132355Z AUTO 00000KT 11/01 A3006 460 52 100 000/00 RMK AO1 T01060011
54779K12N 12N20160313190009803/13/16 19:00:31  5-MIN K12N 140000Z AUTO 00000KT 11/01 A3006 460 52 100 000/00 RMK AO1 T01060011
54779K12N 12N20160313190509903/13/16 19:05:31  5-MIN K12N 140005Z AUTO 00000KT 11/M01 A3006 460 46 100 000/00 RMK AO1 T01061006
54779K12N 12N20160313191009903/13/16 19:10:31  5-MIN K12N 140010Z AUTO 00000KT 11/M01 A3006 460 46 100 000/00 RMK AO1 T01061006
54779K12N 12N20160313191509803/13/16 19:15:31  5-MIN K12N 140015Z AUTO 00000KT 11/00 A3006 450 48 100 000/00 RMK AO1 T01060000
54779K12N 12N20160313192009803/13/16 19:20:31  5-MIN K12N 140020Z AUTO 00000KT 11/01 A3006 450 50 100 000/00 RMK AO1 T01060006
54779K12N 12N20160313192509803/13/16 19:25:31  5-MIN K12N 140025Z AUTO 00000KT 11/01 A3007 450 52 100 000/00 RMK AO1 T01060011
54779K12N 12N20160313193009603/13/16 19:30:31  5-MIN K12N 140030Z AUTO 00000KT 10/02 A3007 450 58 0 000/00 RMK AO1 T01000022
54779K12N 12N20160313193509803/13/16 19:35:31  5-MIN K12N 140035Z AUTO 00000KT 11/01 A3007 450 50 100 000/00 RMK AO1 T01060006
54779K12N 12N20160313194009603/13/16 19:40:31  5-MIN K12N 140040Z AUTO 00000KT 10/01 A3007 450 54 0 000/00 RMK AO1 T01000011
54779K12N 12N20160313194509803/13/16 19:45:31  5-MIN K12N 140045Z AUTO 21003KT 11/01 A3007 440 50 100 220/03 RMK AO1 T01060006
54779K12N 12N20160313195010303/13/16 19:50:31  5-MIN K12N 140050Z AUTO 00000KT 10/03 A3008 440 60 0 000/00 RMK AO1 SLP188 T01000028
54779K12N 12N20160313195509603/13/16 19:55:31  5-MIN K12N 140055Z AUTO VRB04KT 10/03 A3008 440 60 0 VRB/04 RMK AO1 T01000028
54779K12N 12N20160313200009803/13/16 20:00:31  5-MIN K12N 140100Z AUTO 19005KT 11/01 A3008 440 48 100 200/05 RMK AO1 T01110006
54779K12N 12N20160313200509903/13/16 20:05:31  5-MIN K12N 140105Z AUTO 18003KT 12/M01 A3008 440 42 200 200/03 RMK AO1 T01171006
54779K12N 12N20160313201009903/13/16 20:10:31  5-MIN K12N 140110Z AUTO 19005KT 12/M01 A3008 430 42 200 210/05 RMK AO1 T01171006
54779K12N 12N20160313201509803/13/16 20:15:31  5-MIN K12N 140115Z AUTO 19003KT 12/00 A3008 440 44 200 200/03 RMK AO1 T01170000
54779K12N 12N20160313202009803/13/16 20:20:31  5-MIN K12N 140120Z AUTO VRB03KT 12/01 A3008 440 46 200 VRB/03 RMK AO1 T01170006
54779K12N 12N20160313202509803/13/16 20:25:31  5-MIN K12N 140125Z AUTO 20004KT 12/01 A3008 440 48 200 210/04 RMK AO1 T01170011
54779K12N 12N20160313203009803/13/16 20:30:31  5-MIN K12N 140130Z AUTO 20005KT 11/01 A3008 440 50 100 210/05 RMK AO1 T01110011
54779K12N 12N20160313203509803/13/16 20:35:31  5-MIN K12N 140135Z AUTO 20005KT 11/02 A3008 440 52 100 210/05 RMK AO1 T01110017
54779K12N 12N20160313204009803/13/16 20:40:31  5-MIN K12N 140140Z AUTO 20004KT 11/02 A3008 440 52 100 210/04 RMK AO1 T01110017
54779K12N 12N20160313204509803/13/16 20:45:31  5-MIN K12N 140145Z AUTO 20003KT 11/02 A3008 440 52 100 210/03 RMK AO1 T01110017
54779K12N 12N20160313205010503/13/16 20:50:31  5-MIN K12N 140150Z AUTO VRB05KT 11/02 A3008 440 52 100 VRB/05 RMK AO1 SLP188 T01110017
54779K12N 12N20160313205509803/13/16 20:55:31  5-MIN K12N 140155Z AUTO 00000KT 11/02 A3008 440 52 100 000/00 RMK AO1 T01110017
54779K12N 12N20160313210009803/13/16 21:00:31  5-MIN K12N 140200Z AUTO 18003KT 11/02 A3008 440 52 100 190/03 RMK AO1 T01110017
54779K12N 12N20160313210509803/13/16 21:05:31  5-MIN K12N 140205Z AUTO 00000KT 11/02 A3008 440 52 100 000/00 RMK AO1 T01110017
54779K12N 12N20160313211009803/13/16 21:10:31  5-MIN K12N 140210Z AUTO 19003KT 11/02 A3008 440 52 100 200/03 RMK AO1 T01110017
54779K12N 12N20160313211509803/13/16 21:15:31  5-MIN K12N 140215Z AUTO VRB03KT 11/02 A3008 440 54 100 VRB/03 RMK AO1 T01060017
54779K12N 12N20160313212009803/13/16 21:20:31  5-MIN K12N 140220Z AUTO VRB04KT 11/01 A3008 440 52 100 VRB/04 RMK AO1 T01060011
54779K12N 12N20160313212509603/13/16 21:25:31  5-MIN K12N 140225Z AUTO VRB03KT 11/01 A3008 440 52 0 VRB/03 RMK AO1 T01060011
54779K12N 12N20160313213009603/13/16 21:30:31  5-MIN K12N 140230Z AUTO 19005KT 11/01 A3008 440 52 0 200/05 RMK AO1 T01060011
54779K12N 12N20160313213509603/13/16 21:35:31  5-MIN K12N 140235Z AUTO 19004KT 11/01 A3008 440 52 0 200/04 RMK AO1 T01060011
54779K12N 12N20160313214009603/13/16 21:40:31  5-MIN K12N 140240Z AUTO VRB04KT 11/01 A3008 430 52 0 VRB/04 RMK AO1 T01060011
54779K12N 12N20160313214509603/13/16 21:45:31  5-MIN K12N 140245Z AUTO 00000KT 11/01 A3009 430 52 0 000/00 RMK AO1 T01060011
54779K12N 12N20160313215010903/13/16 21:50:31  5-MIN K12N 140250Z AUTO VRB05KT 11/01 A3009 430 52 0 VRB/05 RMK AO1 SLP189 T01060011 53004
54779K12N 12N20160313215509603/13/16 21:55:31  5-MIN K12N 140255Z AUTO VRB03KT 10/02 A3009 430 56 0 VRB/03 RMK AO1 T01000017
54779K12N 12N20160313220009603/13/16 22:00:31  5-MIN K12N 140300Z AUTO 00000KT 10/02 A3009 430 56 0 000/00 RMK AO1 T01000017
54779K12N 12N20160313220509603/13/16 22:05:31  5-MIN K12N 140305Z AUTO VRB04KT 10/02 A3009 430 56 0 VRB/04 RMK AO1 T01000017
54779K12N 12N20160313221009603/13/16 22:10:31  5-MIN K12N 140310Z AUTO VRB05KT 10/02 A3009 430 58 0 VRB/05 RMK AO1 T01000022
54779K12N 12N20160313221509603/13/16 22:15:31  5-MIN K12N 140315Z AUTO VRB03KT 10/02 A3009 430 58 0 VRB/03 RMK AO1 T01000022
54779K12N 12N20160313222009603/13/16 22:20:31  5-MIN K12N 140320Z AUTO 15003KT 09/02 A3009 430 60 0 170/03 RMK AO1 T00940022
54779K12N 12N20160313222509603/13/16 22:25:31  5-MIN K12N 140325Z AUTO 00000KT 09/03 A3009 430 63 0 000/00 RMK AO1 T00940028
54779K12N 12N20160313223009903/13/16 22:30:31  5-MIN K12N 140330Z AUTO 00000KT 09/04 A3009 430 71 -100 000/00 RMK AO1 T00890039
54779K12N 12N20160313223509603/13/16 22:35:31  5-MIN K12N 140335Z AUTO 00000KT 09/03 A3009 430 63 0 000/00 RMK AO1 T00940028
54779K12N 12N20160313224009603/13/16 22:40:31  5-MIN K12N 140340Z AUTO 00000KT 09/03 A3009 430 63 0 000/00 RMK AO1 T00940028
54779K12N 12N20160313224509903/13/16 22:45:31  5-MIN K12N 140345Z AUTO 00000KT 09/04 A3009 430 71 -100 000/00 RMK AO1 T00890039
54779K12N 12N20160313225010603/13/16 22:50:31  5-MIN K12N 140350Z AUTO 00000KT 08/04 A3009 430 76 -200 000/00 RMK AO1 SLP190 T00830044
54779K12N 12N20160313225509903/13/16 22:55:31  5-MIN K12N 140355Z AUTO 00000KT 08/05 A3009 430 79 -200 000/00 RMK AO1 T00830050
54779K12N 12N20160313230009903/13/16 23:00:31  5-MIN K12N 140400Z AUTO 00000KT 09/04 A3009 430 73 -100 000/00 RMK AO1 T00890044
54779K12N 12N20160313230509903/13/16 23:05:31  5-MIN K12N 140405Z AUTO 00000KT 08/05 A3009 430 79 -200 000/00 RMK AO1 T00830050
54779K12N 12N20160313231009903/13/16 23:10:31  5-MIN K12N 140410Z AUTO 00000KT 08/05 A3009 430 79 -200 000/00 RMK AO1 T00830050
54779K12N 12N20160313231509903/13/16 23:15:31  5-MIN K12N 140415Z AUTO 00000KT 08/05 A3009 430 79 -200 000/00 RMK AO1 T00830050
54779K12N 12N20160313232009903/13/16 23:20:31  5-MIN K12N 140420Z AUTO 00000KT 08/06 A3010 420 82 -200 000/00 RMK AO1 T00830056
54779K12N 12N20160313232509903/13/16 23:25:31  5-MIN K12N 140425Z AUTO 00000KT 08/06 A3010 420 86 -300 000/00 RMK AO1 T00780056
54779K12N 12N20160313233009903/13/16 23:30:31  5-MIN K12N 140430Z AUTO 00000KT 08/06 A3010 420 82 -200 000/00 RMK AO1 T00830056
54779K12N 12N20160313233509903/13/16 23:35:31  5-MIN K12N 140435Z AUTO 00000KT 08/06 A3009 420 86 -300 000/00 RMK AO1 T00780056
54779K12N 12N20160313234009903/13/16 23:40:31  5-MIN K12N 140440Z AUTO 00000KT 08/05 A3010 420 79 -200 000/00 RMK AO1 T00830050
54779K12N 12N20160313234509903/13/16 23:45:31  5-MIN K12N 140445Z AUTO 00000KT 08/05 A3009 420 79 -200 000/00 RMK AO1 T00830050
54779K12N 12N20160313235011603/13/16 23:50:31  5-MIN K12N 140450Z AUTO 00000KT 08/04 A3009 430 73 -200 000/00 RMK AO1 SLP191 T00830039 401560039
54779K12N 12N20160313235509903/13/16 23:55:31  5-MIN K12N 140455Z AUTO 00000KT 08/04 A3009 430 73 -200 000/00 RMK AO1 T00830039
54779K12N 12N20160314000009903/14/16 00:00:31  5-MIN K12N 140500Z AUTO 00000KT 09/02 A3009 430 63 -100 000/00 RMK AO1 T00890022
54779K12N 12N20160314000509603/14/16 00:05:31  5-MIN K12N 140505Z AUTO 00000KT 09/02 A3009 430 58 0 000/00 RMK AO1 T00940017
54779K12N 12N20160314001009903/14/16 00:10:31  5-MIN K12N 140510Z AUTO VRB03KT 09/02 A3009 430 60 -100 VRB/03 RMK AO1 T00890017
54779K12N 12N20160314001509903/14/16 00:15:31  5-MIN K12N 140515Z AUTO 00000KT 09/02 A3009 430 63 -100 000/00 RMK AO1 T00890022
54779K12N 12N20160314002009903/14/16 00:20:31  5-MIN K12N 140520Z AUTO VRB03KT 09/02 A3009 430 60 -100 VRB/03 RMK AO1 T00890017
54779K12N 12N20160314002509903/14/16 00:25:31  5-MIN K12N 140525Z AUTO 00000KT 09/02 A3009 430 60 -100 000/00 RMK AO1 T00890017
54779K12N 12N20160314003009903/14/16 00:30:31  5-MIN K12N 140530Z AUTO 00000KT 09/02 A3009 430 60 -100 000/00 RMK AO1 T00890017
54779K12N 12N20160314003509903/14/16 00:35:31  5-MIN K12N 140535Z AUTO 00000KT 09/02 A3009 430 60 -100 000/00 RMK AO1 T00890017
54779K12N 12N20160314004009903/14/16 00:40:31  5-MIN K12N 140540Z AUTO 00000KT 09/01 A3008 430 58 -100 000/00 RMK AO1 T00890011
54779K12N 12N20160314004509903/14/16 00:45:31  5-MIN K12N 140545Z AUTO VRB03KT 09/01 A3009 430 58 -100 VRB/03 RMK AO1 T00890011
54779K12N 12N20160314005012403/14/16 00:50:31  5-MIN K12N 140550Z AUTO 00000KT 09/01 A3009 430 58 -100 000/00 RMK AO1 SLP188 T00890011 10117 20078 51010
54779K12N 12N20160314005509903/14/16 00:55:31  5-MIN K12N 140555Z AUTO 00000KT 09/01 A3009 430 58 -100 000/00 RMK AO1 T00890011
54779K12N 12N20160314010009903/14/16 01:00:31  5-MIN K12N 140600Z AUTO 00000KT 09/01 A3009 430 58 -100 000/00 RMK AO1 T00890011
54779K12N 12N20160314010509903/14/16 01:05:31  5-MIN K12N 140605Z AUTO 00000KT 08/02 A3009 430 63 -200 000/00 RMK AO1 T00830017
54779K12N 12N20160314011009903/14/16 01:10:31  5-MIN K12N 140610Z AUTO 00000KT 08/02 A3009 430 63 -200 000/00 RMK AO1 T00830017
54779K12N 12N20160314011509903/14/16 01:15:31  5-MIN K12N 140615Z AUTO 00000KT 09/01 A3009 430 58 -100 000/00 RMK AO1 T00890011
54779K12N 12N20160314012009903/14/16 01:20:31  5-MIN K12N 140620Z AUTO 00000KT 08/01 A3009 430 60 -200 000/00 RMK AO1 T00830011
54779K12N 12N20160314012509903/14/16 01:25:31  5-MIN K12N 140625Z AUTO 00000KT 08/02 A3009 430 63 -200 000/00 RMK AO1 T00830017
54779K12N 12N20160314013009903/14/16 01:30:31  5-MIN K12N 140630Z AUTO VRB03KT 09/01 A3009 430 58 -100 VRB/03 RMK AO1 T00890011
54779K12N 12N20160314013509903/14/16 01:35:31  5-MIN K12N 140635Z AUTO 00000KT 09/01 A3009 430 58 -100 000/00 RMK AO1 T00890011
54779K12N 12N20160314014009903/14/16 01:40:31  5-MIN K12N 140640Z AUTO 00000KT 08/01 A3009 430 60 -200 000/00 RMK AO1 T00830011
54779K12N 12N20160314014509903/14/16 01:45:31  5-MIN K12N 140645Z AUTO VRB03KT 08/02 A3009 430 63 -200 VRB/03 RMK AO1 T00830017
54779K12N 12N20160314015010603/14/16 01:50:31  5-MIN K12N 140650Z AUTO VRB05KT 08/02 A3009 430 63 -200 VRB/05 RMK AO1 SLP191 T00830017
54779K12N 12N20160314015509903/14/16 01:55:31  5-MIN K12N 140655Z AUTO VRB04KT 08/02 A3009 430 63 -200 VRB/04 RMK AO1 T00830017
54779K12N 12N20160314020009903/14/16 02:00:31  5-MIN K12N 140700Z AUTO VRB03KT 08/02 A3009 430 63 -200 VRB/03 RMK AO1 T00830017
54779K12N 12N20160314020508903/14/16 02:05:31  5-MIN K12N 140705Z AUTO 08/02 A3008 430 63 -200 M /M RMK AO1 T00830017
54779K12N 12N20160314021009903/14/16 02:10:31  5-MIN K12N 140710Z AUTO 04004KT 08/02 A3008 440 63 -200 050/04 RMK AO1 T00830017
54779K12N 12N20160314021509903/14/16 02:15:31  5-MIN K12N 140715Z AUTO 00000KT 08/01 A3008 440 60 -200 000/00 RMK AO1 T00830011
54779K12N 12N20160314022009903/14/16 02:20:31  5-MIN K12N 140720Z AUTO 00000KT 08/01 A3008 440 58 -200 000/00 RMK AO1 T00830006
54779K12N 12N20160314022509903/14/16 02:25:31  5-MIN K12N 140725Z AUTO 00000KT 08/01 A3008 440 58 -200 000/00 RMK AO1 T00830006
54779K12N 12N20160314023009903/14/16 02:30:31  5-MIN K12N 140730Z AUTO 00000KT 08/01 A3008 440 60 -200 000/00 RMK AO1 T00830011
54779K12N 12N20160314023509903/14/16 02:35:31  5-MIN K12N 140735Z AUTO VRB04KT 08/01 A3008 430 58 -200 VRB/04 RMK AO1 T00830006
54779K12N 12N20160314024009903/14/16 02:40:31  5-MIN K12N 140740Z AUTO VRB03KT 08/01 A3009 430 58 -200 VRB/03 RMK AO1 T00830006
54779K12N 12N20160314024509903/14/16 02:45:31  5-MIN K12N 140745Z AUTO 00000KT 08/01 A3009 430 58 -200 000/00 RMK AO1 T00830006
54779K12N 12N20160314025010603/14/16 02:50:31  5-MIN K12N 140750Z AUTO VRB04KT 08/01 A3009 430 60 -200 VRB/04 RMK AO1 SLP190 T00780006
54779K12N 12N20160314025509903/14/16 02:55:31  5-MIN K12N 140755Z AUTO VRB04KT 08/01 A3009 430 62 -200 VRB/04 RMK AO1 T00780011
54779K12N 12N20160314030008903/14/16 03:00:31  5-MIN K12N 140800Z AUTO 08/01 A3008 440 62 -200 M /M RMK AO1 T00780011
54779K12N 12N20160314030509903/14/16 03:05:31  5-MIN K12N 140805Z AUTO VRB03KT 07/01 A3008 440 65 -300 VRB/03 RMK AO1 T00720011
54779K12N 12N20160314031010503/14/16 03:10:31  5-MIN K12N 140810Z AUTO VRB04KT 07/01 A3008 440 65 -300 VRB/04 RMK AO1 P0001 T00720011
54779K12N 12N20160314031510503/14/16 03:15:31  5-MIN K12N 140815Z AUTO 04003KT 07/01 A3008 440 65 -300 060/03 RMK AO1 P0002 T00720011
54779K12N 12N20160314032010503/14/16 03:20:31  5-MIN K12N 140820Z AUTO 00000KT 07/02 A3008 440 70 -400 000/00 RMK AO1 P0002 T00670017
54779K12N 12N20160314032510503/14/16 03:25:31  5-MIN K12N 140825Z AUTO VRB04KT 07/02 A3008 440 73 -400 VRB/04 RMK AO1 P0003 T00670022
54779K12N 12N20160314033010503/14/16 03:30:31  5-MIN K12N 140830Z AUTO 00000KT 07/02 A3008 440 73 -400 000/00 RMK AO1 P0003 T00670022
54779K12N 12N20160314033510503/14/16 03:35:31  5-MIN K12N 140835Z AUTO 00000KT 07/02 A3008 440 73 -400 000/00 RMK AO1 P0004 T00670022
54779K12N 12N20160314034010503/14/16 03:40:31  5-MIN K12N 140840Z AUTO 00000KT 06/03 A3008 440 85 -500 000/00 RMK AO1 P0004 T00560033
54779K12N 12N20160314034510503/14/16 03:45:31  5-MIN K12N 140845Z AUTO 00000KT 06/03 A3008 440 82 -400 000/00 RMK AO1 P0004 T00610033
54779K12N 12N20160314035012403/14/16 03:50:31  5-MIN K12N 140850Z AUTO 00000KT 06/03 A3007 440 85 -500 000/00 RMK AO1 SLP186 P0004 60004 T00560033 58001
54779K12N 12N20160314035509903/14/16 03:55:31  5-MIN K12N 140855Z AUTO VRB03KT 06/03 A3007 440 82 -400 VRB/03 RMK AO1 T00610033
54779K12N 12N20160314040009903/14/16 04:00:31  5-MIN K12N 140900Z AUTO 00000KT 06/03 A3007 440 82 -400 000/00 RMK AO1 T00610033
54779K12N 12N20160314040510503/14/16 04:05:31  5-MIN K12N 140905Z AUTO 00000KT 06/04 A3008 440 89 -500 000/00 RMK AO1 P0001 T00560039
54779K12N 12N20160314041010503/14/16 04:10:31  5-MIN K12N 140910Z AUTO 00000KT 06/04 A3008 440 89 -500 000/00 RMK AO1 P0001 T00560039
54779K12N 12N20160314041510503/14/16 04:15:31  5-MIN K12N 140915Z AUTO 03003KT 06/04 A3007 440 89 -500 040/03 RMK AO1 P0001 T00560039
54779K12N 12N20160314042010503/14/16 04:20:31  5-MIN K12N 140920Z AUTO 04003KT 06/04 A3007 450 89 -500 060/03 RMK AO1 P0001 T00560039
54779K12N 12N20160314042510503/14/16 04:25:31  5-MIN K12N 140925Z AUTO VRB03KT 06/03 A3006 450 85 -500 VRB/03 RMK AO1 P0002 T00560033
54779K12N 12N20160314043010503/14/16 04:30:31  5-MIN K12N 140930Z AUTO VRB04KT 06/03 A3006 450 82 -400 VRB/04 RMK AO1 P0002 T00610033
54779K12N 12N20160314043510503/14/16 04:35:31  5-MIN K12N 140935Z AUTO VRB04KT 06/03 A3006 450 82 -400 VRB/04 RMK AO1 P0002 T00610033
54779K12N 12N20160314044010503/14/16 04:40:31  5-MIN K12N 140940Z AUTO 01004KT 06/03 A3006 450 82 -400 030/04 RMK AO1 P0002 T00610033
54779K12N 12N20160314044510503/14/16 04:45:31  5-MIN K12N 140945Z AUTO VRB03KT 06/03 A3007 450 79 -400 VRB/03 RMK AO1 P0002 T00610028
54779K12N 12N20160314045011203/14/16 04:50:31  5-MIN K12N 140950Z AUTO VRB04KT 06/03 A3006 450 79 -400 VRB/04 RMK AO1 SLP183 P0002 T00610028
54779K12N 12N20160314045509903/14/16 04:55:31  5-MIN K12N 140955Z AUTO VRB03KT 06/03 A3006 450 79 -400 VRB/03 RMK AO1 T00610028
54779K12N 12N20160314050009903/14/16 05:00:31  5-MIN K12N 141000Z AUTO VRB06KT 06/02 A3006 460 76 -400 VRB/06 RMK AO1 T00610022
54779K12N 12N20160314050509903/14/16 05:05:31  5-MIN K12N 141005Z AUTO 04004KT 06/02 A3006 460 76 -400 050/04 RMK AO1 T00610022
54779K12N 12N20160314051009903/14/16 05:10:31  5-MIN K12N 141010Z AUTO VRB05KT 06/03 A3006 450 79 -400 VRB/05 RMK AO1 T00610028
54779K12N 12N20160314051509903/14/16 05:15:31  5-MIN K12N 141015Z AUTO VRB04KT 07/02 A3006 460 73 -300 VRB/04 RMK AO1 T00670022
54779K12N 12N20160314052009903/14/16 05:20:31  5-MIN K12N 141020Z AUTO 05004KT 07/02 A3006 450 70 -400 060/04 RMK AO1 T00670017
54779K12N 12N20160314052509903/14/16 05:25:31  5-MIN K12N 141025Z AUTO VRB03KT 07/02 A3006 450 70 -400 VRB/03 RMK AO1 T00670017
54779K12N 12N20160314053009903/14/16 05:30:31  5-MIN K12N 141030Z AUTO 02003KT 07/02 A3006 460 70 -300 040/03 RMK AO1 T00670017
54779K12N 12N20160314053509903/14/16 05:35:31  5-MIN K12N 141035Z AUTO VRB04KT 07/02 A3006 460 73 -300 VRB/04 RMK AO1 T00670022
54779K12N 12N20160314054009903/14/16 05:40:31  5-MIN K12N 141040Z AUTO 02005KT 07/02 A3006 460 73 -300 030/05 RMK AO1 T00670022
54779K12N 12N20160314054509903/14/16 05:45:31  5-MIN K12N 141045Z AUTO VRB03KT 07/02 A3006 460 70 -300 VRB/03 RMK AO1 T00720022
54779K12N 12N20160314055010603/14/16 05:50:31  5-MIN K12N 141050Z AUTO VRB03KT 07/02 A3006 450 70 -300 VRB/03 RMK AO1 SLP183 T00720022
54779K12N 12N20160314055509903/14/16 05:55:31  5-MIN K12N 141055Z AUTO VRB03KT 07/02 A3007 450 73 -400 VRB/03 RMK AO1 T00670022
54779K12N 12N20160314060009903/14/16 06:00:31  5-MIN K12N 141100Z AUTO 36006KT 07/02 A3007 450 70 -300 020/06 RMK AO1 T00720022
54779K12N 12N20160314060509903/14/16 06:05:31  5-MIN K12N 141105Z AUTO VRB03KT 07/02 A3007 440 70 -300 VRB/03 RMK AO1 T00720022
54779K12N 12N20160314061009903/14/16 06:10:31  5-MIN K12N 141110Z AUTO 05003KT 07/02 A3007 440 73 -400 060/03 RMK AO1 T00670022
54779K12N 12N20160314061509903/14/16 06:15:31  5-MIN K12N 141115Z AUTO 00000KT 07/03 A3008 440 76 -400 000/00 RMK AO1 T00670028
54779K12N 12N20160314062009903/14/16 06:20:31  5-MIN K12N 141120Z AUTO VRB04KT 07/03 A3008 440 76 -400 VRB/04 RMK AO1 T00670028
54779K12N 12N20160314062510503/14/16 06:25:31  5-MIN K12N 141125Z AUTO VRB04KT 07/02 A3008 440 73 -400 VRB/04 RMK AO1 P0001 T00670022
54779K12N 12N20160314063010503/14/16 06:30:31  5-MIN K12N 141130Z AUTO 05003KT 06/03 A3008 430 79 -400 060/03 RMK AO1 P0002 T00610028
54779K12N 12N20160314063510503/14/16 06:35:31  5-MIN K12N 141135Z AUTO 00000KT 07/02 A3009 430 73 -400 000/00 RMK AO1 P0003 T00670022
54779K12N 12N20160314064010503/14/16 06:40:31  5-MIN K12N 141140Z AUTO VRB06KT 06/02 A3009 430 73 -400 VRB/06 RMK AO1 P0004 T00610017
54779K12N 12N20160314064510503/14/16 06:45:31  5-MIN K12N 141145Z AUTO VRB06KT 06/01 A3009 430 70 -400 VRB/06 RMK AO1 P0004 T00610011
54779K12N 12N20160314065014203/14/16 06:50:31  5-MIN K12N 141150Z AUTO VRB04KT 06/01 A3009 430 70 -500 VRB/04 RMK AO1 SLP194 P0004 60011 70011 T00610011 10089 20056 58005
54779K12N 12N20160314065509903/14/16 06:55:31  5-MIN K12N 141155Z AUTO VRB03KT 06/01 A3009 430 70 -500 VRB/03 RMK AO1 T00610011
54779K12N 12N20160314070010503/14/16 07:00:31  5-MIN K12N 141200Z AUTO 06004KT 06/02 A3009 430 76 -500 070/04 RMK AO1 P0002 T00560017
54779K12N 12N20160314070510503/14/16 07:05:31  5-MIN K12N 141205Z AUTO VRB04KT 06/02 A3009 430 76 -500 VRB/04 RMK AO1 P0003 T00560017
54779K12N 12N20160314071010503/14/16 07:10:31  5-MIN K12N 141210Z AUTO VRB03KT 06/02 A3008 440 76 -500 VRB/03 RMK AO1 P0003 T00560017
54779K12N 12N20160314071510503/14/16 07:15:31  5-MIN K12N 141215Z AUTO VRB05KT 06/02 A3008 440 76 -500 VRB/05 RMK AO1 P0004 T00560017
54779K12N 12N20160314072010503/14/16 07:20:31  5-MIN K12N 141220Z AUTO VRB03KT 05/02 A3008 440 79 -600 VRB/03 RMK AO1 P0004 T00500017
54779K12N 12N20160314072510503/14/16 07:25:31  5-MIN K12N 141225Z AUTO VRB04KT 05/02 A3008 440 79 -600 VRB/04 RMK AO1 P0004 T00500017
54779K12N 12N20160314073010503/14/16 07:30:31  5-MIN K12N 141230Z AUTO 34004KT 05/02 A3010 420 79 -600 350/04 RMK AO1 P0006 T00500017
54779K12N 12N20160314073511203/14/16 07:35:31  5-MIN K12N 141235Z AUTO 32003KT 05/02 A3011 410 79 -600 330/03 RMK AO1 PRESRR P0007 T00500017
54779K12N 12N20160314074010503/14/16 07:40:31  5-MIN K12N 141240Z AUTO 00000KT 04/02 A3011 410 85 -700 000/00 RMK AO1 P0008 T00440022
54779K12N 12N20160314074510503/14/16 07:45:31  5-MIN K12N 141245Z AUTO 00000KT 04/02 A3011 410 85 -700 000/00 RMK AO1 P0009 T00440022
54779K12N 12N20160314075011203/14/16 07:50:31  5-MIN K12N 141250Z AUTO 00000KT 04/03 A3011 410 89 -700 000/00 RMK AO1 SLP200 P0009 T00440028
54779K12N 12N20160314075509903/14/16 07:55:31  5-MIN K12N 141255Z AUTO 00000KT 04/03 A3011 410 89 -700 000/00 RMK AO1 T00440028
54779K12N 12N20160314080009903/14/16 08:00:31  5-MIN K12N 141300Z AUTO VRB04KT 05/02 A3011 410 82 -600 VRB/04 RMK AO1 T00500022
54779K12N 12N20160314080509903/14/16 08:05:31  5-MIN K12N 141305Z AUTO 05004KT 05/02 A3010 420 82 -600 060/04 RMK AO1 T00500022
54779K12N 12N20160314081009903/14/16 08:10:31  5-MIN K12N 141310Z AUTO 02004KT 04/03 A3011 410 89 -700 040/04 RMK AO1 T00440028
54779K12N 12N20160314081509903/14/16 08:15:31  5-MIN K12N 141315Z AUTO VRB03KT 05/02 A3010 420 82 -600 VRB/03 RMK AO1 T00500022
54779K12N 12N20160314082009903/14/16 08:20:31  5-MIN K12N 141320Z AUTO VRB05KT 05/02 A3011 410 82 -600 VRB/05 RMK AO1 T00500022
54779K12N 12N20160314082509903/14/16 08:25:31  5-MIN K12N 141325Z AUTO 03004KT 05/02 A3010 420 82 -600 040/04 RMK AO1 T00500022
54779K12N 12N20160314083009903/14/16 08:30:31  5-MIN K12N 141330Z AUTO VRB04KT 05/02 A3011 410 82 -600 VRB/04 RMK AO1 T00500022
54779K12N 12N20160314083509903/14/16 08:35:31  5-MIN K12N 141335Z AUTO 04005KT 05/02 A3010 420 82 -600 050/05 RMK AO1 T00500022
54779K12N 12N20160314084009903/14/16 08:40:31  5-MIN K12N 141340Z AUTO VRB03KT 05/02 A3011 410 82 -600 VRB/03 RMK AO1 T00500022
54779K12N 12N20160314084509903/14/16 08:45:31  5-MIN K12N 141345Z AUTO VRB03KT 05/02 A3011 410 82 -600 VRB/03 RMK AO1 T00500022
54779K12N 12N20160314085010603/14/16 08:50:31  5-MIN K12N 141350Z AUTO 00000KT 05/02 A3011 410 82 -600 000/00 RMK AO1 SLP201 T00500022
54779K12N 12N20160314085509903/14/16 08:55:31  5-MIN K12N 141355Z AUTO VRB04KT 06/02 A3011 410 76 -500 VRB/04 RMK AO1 T00560017
54779K12N 12N20160314090009903/14/16 09:00:31  5-MIN K12N 141400Z AUTO 05006KT 06/02 A3011 410 76 -500 060/06 RMK AO1 T00560017
54779K12N 12N20160314090509903/14/16 09:05:31  5-MIN K12N 141405Z AUTO VRB03KT 06/01 A3011 410 73 -500 VRB/03 RMK AO1 T00560011
54779K12N 12N20160314091009903/14/16 09:10:31  5-MIN K12N 141410Z AUTO VRB06KT 06/01 A3011 410 73 -500 VRB/06 RMK AO1 T00560011
54779K12N 12N20160314091509903/14/16 09:15:31  5-MIN K12N 141415Z AUTO VRB04KT 06/01 A3011 410 73 -500 VRB/04 RMK AO1 T00560011
54779K12N 12N20160314092009903/14/16 09:20:31  5-MIN K12N 141420Z AUTO 04005KT 06/01 A3011 410 73 -500 050/05 RMK AO1 T00560011
54779K12N 12N20160314092509903/14/16 09:25:31  5-MIN K12N 141425Z AUTO VRB04KT 06/01 A3011 410 73 -500 VRB/04 RMK AO1 T00560011
54779K12N 12N20160314093009903/14/16 09:30:31  5-MIN K12N 141430Z AUTO 03004KT 06/02 A3011 410 76 -500 050/04 RMK AO1 T00560017
54779K12N 12N20160314093509903/14/16 09:35:31  5-MIN K12N 141435Z AUTO VRB06KT 06/01 A3011 410 73 -500 VRB/06 RMK AO1 T00560011
54779K12N 12N20160314094009903/14/16 09:40:31  5-MIN K12N 141440Z AUTO VRB05KT 06/02 A3011 410 76 -500 VRB/05 RMK AO1 T00560017
54779K12N 12N20160314094509903/14/16 09:45:31  5-MIN K12N 141445Z AUTO VRB03KT 06/01 A3011 410 73 -500 VRB/03 RMK AO1 T00560011
54779K12N 12N20160314095011803/14/16 09:50:31  5-MIN K12N 141450Z AUTO VRB04KT 06/02 A3010 420 76 -500 VRB/04 RMK AO1 SLP197 60010 T00560017 53007
54779K12N 12N20160314095509903/14/16 09:55:31  5-MIN K12N 141455Z AUTO VRB05KT 06/02 A3010 420 76 -500 VRB/05 RMK AO1 T00560017
54779K12N 12N20160314100009903/14/16 10:00:31  5-MIN K12N 141500Z AUTO VRB03KT 06/02 A3010 420 76 -500 VRB/03 RMK AO1 T00560017
54779K12N 12N20160314100509903/14/16 10:05:31  5-MIN K12N 141505Z AUTO VRB03KT 06/02 A3010 420 76 -500 VRB/03 RMK AO1 T00560017
54779K12N 12N20160314101009903/14/16 10:10:31  5-MIN K12N 141510Z AUTO VRB03KT 06/02 A3010 420 79 -500 VRB/03 RMK AO1 T00560022
54779K12N 12N20160314101509903/14/16 10:15:31  5-MIN K12N 141515Z AUTO VRB03KT 06/02 A3010 420 76 -500 VRB/03 RMK AO1 T00560017
54779K12N 12N20160314102009903/14/16 10:20:31  5-MIN K12N 141520Z AUTO VRB03KT 06/02 A3010 420 79 -500 VRB/03 RMK AO1 T00560022
54779K12N 12N20160314102509903/14/16 10:25:31  5-MIN K12N 141525Z AUTO 02004KT 06/02 A3010 420 76 -500 030/04 RMK AO1 T00560017
54779K12N 12N20160314103009903/14/16 10:30:31  5-MIN K12N 141530Z AUTO VRB05KT 06/02 A3010 420 76 -500 VRB/05 RMK AO1 T00560017
54779K12N 12N20160314103509903/14/16 10:35:31  5-MIN K12N 141535Z AUTO 00000KT 06/02 A3010 420 76 -500 000/00 RMK AO1 T00610022
54779K12N 12N20160314104009903/14/16 10:40:31  5-MIN K12N 141540Z AUTO VRB04KT 06/02 A3010 420 76 -500 VRB/04 RMK AO1 T00610022
54779K12N 12N20160314104509903/14/16 10:45:31  5-MIN K12N 141545Z AUTO VRB04KT 06/02 A3010 420 76 -500 VRB/04 RMK AO1 T00610022
54779K12N 12N20160314105010603/14/16 10:50:31  5-MIN K12N 141550Z AUTO VRB03KT 06/02 A3010 420 76 -500 VRB/03 RMK AO1 SLP196 T00610022
54779K12N 12N20160314105511503/14/16 10:55:31  5-MIN K12N 141555Z AUTO 05007KT 010V070 06/02 A3009 430 76 -500 060/07 020V080 RMK AO1 T00610022
54779K12N 12N20160314110009903/14/16 11:00:31  5-MIN K12N 141600Z AUTO VRB04KT 06/02 A3009 430 76 -500 VRB/04 RMK AO1 T00610022
54779K12N 12N20160314110509903/14/16 11:05:31  5-MIN K12N 141605Z AUTO VRB05KT 06/02 A3009 430 76 -400 VRB/05 RMK AO1 T00610022
54779K12N 12N20160314111009903/14/16 11:10:31  5-MIN K12N 141610Z AUTO VRB05KT 06/02 A3009 430 76 -400 VRB/05 RMK AO1 T00610022
54779K12N 12N20160314111509903/14/16 11:15:31  5-MIN K12N 141615Z AUTO VRB04KT 06/02 A3009 430 76 -400 VRB/04 RMK AO1 T00610022
54779K12N 12N20160314112009903/14/16 11:20:31  5-MIN K12N 141620Z AUTO 02004KT 06/02 A3009 430 76 -400 040/04 RMK AO1 T00610022
54779K12N 12N20160314112509903/14/16 11:25:31  5-MIN K12N 141625Z AUTO VRB04KT 06/02 A3009 430 76 -500 VRB/04 RMK AO1 T00610022
54779K12N 12N20160314113009903/14/16 11:30:31  5-MIN K12N 141630Z AUTO VRB05KT 06/02 A3008 430 76 -400 VRB/05 RMK AO1 T00610022
54779K12N 12N20160314113509903/14/16 11:35:31  5-MIN K12N 141635Z AUTO VRB04KT 06/02 A3008 430 76 -400 VRB/04 RMK AO1 T00610022
54779K12N 12N20160314114011503/14/16 11:40:31  5-MIN K12N 141640Z AUTO 04008KT 350V070 06/02 A3008 440 76 -400 050/08 360V080 RMK AO1 T00610022
54779K12N 12N20160314114509903/14/16 11:45:31  5-MIN K12N 141645Z AUTO VRB06KT 06/02 A3008 440 76 -400 VRB/06 RMK AO1 T00610022
54779K12N 12N20160314115011203/14/16 11:50:31  5-MIN K12N 141650Z AUTO VRB05G15KT 06/03 A3008 440 82 -500 VRB/05G15 RMK AO1 SLP190 T00560028
54779K12N 12N20160314115510503/14/16 11:55:31  5-MIN K12N 141655Z AUTO VRB05G15KT 06/03 A3007 440 82 -500 VRB/05G15 RMK AO1 T00560028
54779K12N 12N20160314120011503/14/16 12:00:31  5-MIN K12N 141700Z AUTO 06008KT 030V100 06/03 A3007 440 82 -500 070/08 040V110 RMK AO1 T00560028
54779K12N 12N20160314120509903/14/16 12:05:31  5-MIN K12N 141705Z AUTO VRB06KT 06/03 A3007 450 82 -500 VRB/06 RMK AO1 T00560028
54779K12N 12N20160314121009903/14/16 12:10:31  5-MIN K12N 141710Z AUTO VRB05KT 06/03 A3007 450 82 -500 VRB/05 RMK AO1 T00560028
54779K12N 12N20160314121509903/14/16 12:15:31  5-MIN K12N 141715Z AUTO 04006KT 06/03 A3007 450 79 -400 060/06 RMK AO1 T00610028
54779K12N 12N20160314122009903/14/16 12:20:31  5-MIN K12N 141720Z AUTO VRB06KT 06/03 A3007 450 79 -400 VRB/06 RMK AO1 T00610028
54779K12N 12N20160314122509903/14/16 12:25:31  5-MIN K12N 141725Z AUTO 06008KT 06/03 A3007 450 79 -400 070/08 RMK AO1 T00610028
54779K12N 12N20160314123009903/14/16 12:30:31  5-MIN K12N 141730Z AUTO VRB04KT 06/03 A3006 450 82 -500 VRB/04 RMK AO1 T00560028
54779K12N 12N20160314123509903/14/16 12:35:31  5-MIN K12N 141735Z AUTO VRB04KT 06/03 A3006 450 82 -500 VRB/04 RMK AO1 T00560028
54779K12N 12N20160314124008903/14/16 12:40:31  5-MIN K12N 141740Z AUTO 06/03 A3006 460 82 -500 M /M RMK AO1 T00560028
54779K12N 12N20160314124509903/14/16 12:45:31  5-MIN K12N 141745Z AUTO 03005KT 06/03 A3006 460 82 -500 040/05 RMK AO1 T00560028
54779K12N 12N20160314125013003/14/16 12:50:31  5-MIN K12N 141750Z AUTO VRB04KT 06/03 A3006 450 82 -500 VRB/04 RMK AO1 SLP184 60010 T00560028 10061 20044 50002
54779K12N 12N20160314125509903/14/16 12:55:31  5-MIN K12N 141755Z AUTO VRB05KT 06/02 A3006 460 79 -500 VRB/05 RMK AO1 T00560022
54779K12N 12N20160314130009903/14/16 13:00:31  5-MIN K12N 141800Z AUTO VRB04KT 06/02 A3006 460 79 -500 VRB/04 RMK AO1 T00560022
54779K12N 12N20160314130508903/14/16 13:05:31  5-MIN K12N 141805Z AUTO 06/02 A3006 460 79 -500 M /M RMK AO1 T00560022
54779K12N 12N20160314131010503/14/16 13:10:31  5-MIN K12N 141810Z AUTO VRB06KT 05/02 A3006 460 82 -500 VRB/06 RMK AO1 P0001 T00500022
54779K12N 12N20160314131510503/14/16 13:15:31  5-MIN K12N 141815Z AUTO VRB04KT 05/02 A3005 460 82 -500 VRB/04 RMK AO1 P0001 T00500022
54779K12N 12N20160314132010503/14/16 13:20:31  5-MIN K12N 141820Z AUTO 03005KT 05/03 A3005 470 85 -500 040/05 RMK AO1 P0001 T00500028
54779K12N 12N20160314132510503/14/16 13:25:31  5-MIN K12N 141825Z AUTO VRB06KT 05/03 A3005 470 85 -500 VRB/06 RMK AO1 P0001 T00500028
54779K12N 12N20160314133010503/14/16 13:30:31  5-MIN K12N 141830Z AUTO 02005KT 05/03 A3005 460 85 -500 030/05 RMK AO1 P0001 T00500028
54779K12N 12N20160314133510503/14/16 13:35:31  5-MIN K12N 141835Z AUTO 04007KT 05/03 A3005 470 85 -500 050/07 RMK AO1 P0002 T00500028
54779K12N 12N20160314134010503/14/16 13:40:31  5-MIN K12N 141840Z AUTO VRB06KT 05/03 A3005 460 85 -500 VRB/06 RMK AO1 P0002 T00500028
54779K12N 12N20160314134510503/14/16 13:45:31  5-MIN K12N 141845Z AUTO 03005KT 05/02 A3005 470 82 -500 050/05 RMK AO1 P0002 T00500022
54779K12N 12N20160314135011203/14/16 13:50:31  5-MIN K12N 141850Z AUTO VRB04KT 05/03 A3005 470 85 -500 VRB/04 RMK AO1 SLP181 P0002 T00500028
54779K12N 12N20160314135509903/14/16 13:55:31  5-MIN K12N 141855Z AUTO VRB05KT 05/03 A3005 470 85 -500 VRB/05 RMK AO1 T00500028
54779K12N 12N20160314140009903/14/16 14:00:31  5-MIN K12N 141900Z AUTO 05005KT 05/03 A3005 470 85 -500 060/05 RMK AO1 T00500028
54779K12N 12N20160314140508903/14/16 14:05:31  5-MIN K12N 141905Z AUTO 05/03 A3005 470 85 -500 M /M RMK AO1 T00500028
54779K12N 12N20160314141009903/14/16 14:10:31  5-MIN K12N 141910Z AUTO 05006KT 05/03 A3005 470 85 -500 060/06 RMK AO1 T00500028
54779K12N 12N20160314141509903/14/16 14:15:31  5-MIN K12N 141915Z AUTO VRB04KT 05/03 A3004 470 85 -500 VRB/04 RMK AO1 T00500028
54779K12N 12N20160314142009903/14/16 14:20:31  5-MIN K12N 141920Z AUTO VRB06KT 05/03 A3005 470 85 -500 VRB/06 RMK AO1 T00500028
54779K12N 12N20160314142509903/14/16 14:25:31  5-MIN K12N 141925Z AUTO VRB06KT 05/02 A3004 470 82 -500 VRB/06 RMK AO1 T00500022
54779K12N 12N20160314143009903/14/16 14:30:31  5-MIN K12N 141930Z AUTO VRB04KT 04/03 A3004 470 89 -600 VRB/04 RMK AO1 T00440028
54779K12N 12N20160314143509903/14/16 14:35:31  5-MIN K12N 141935Z AUTO VRB06KT 05/03 A3004 470 85 -500 VRB/06 RMK AO1 T00500028
54779K12N 12N20160314144009903/14/16 14:40:31  5-MIN K12N 141940Z AUTO VRB05KT 04/02 A3004 470 85 -600 VRB/05 RMK AO1 T00440022
54779K12N 12N20160314144509903/14/16 14:45:31  5-MIN K12N 141945Z AUTO VRB04KT 04/03 A3004 480 89 -600 VRB/04 RMK AO1 T00440028
54779K12N 12N20160314145010603/14/16 14:50:31  5-MIN K12N 141950Z AUTO VRB04KT 04/03 A3003 480 89 -600 VRB/04 RMK AO1 SLP175 T00440028
54779K12N 12N20160314145508903/14/16 14:55:31  5-MIN K12N 141955Z AUTO 04/03 A3003 480 89 -600 M /M RMK AO1 T00440028
54779K12N 12N20160314150009903/14/16 15:00:31  5-MIN K12N 142000Z AUTO 04005KT 04/03 A3003 480 89 -600 050/05 RMK AO1 T00440028
54779K12N 12N20160314150509903/14/16 15:05:31  5-MIN K12N 142005Z AUTO 04006KT 04/03 A3003 480 89 -600 050/06 RMK AO1 T00440028
54779K12N 12N20160314151009903/14/16 15:10:31  5-MIN K12N 142010Z AUTO 02006KT 04/03 A3003 490 89 -600 040/06 RMK AO1 T00440028
54779K12N 12N20160314151509903/14/16 15:15:31  5-MIN K12N 142015Z AUTO VRB05KT 04/03 A3002 490 89 -600 VRB/05 RMK AO1 T00440028
54779K12N 12N20160314152009903/14/16 15:20:31  5-MIN K12N 142020Z AUTO VRB04KT 04/03 A3002 490 89 -600 VRB/04 RMK AO1 T00440028
54779K12N 12N20160314152509903/14/16 15:25:31  5-MIN K12N 142025Z AUTO 05005KT 04/03 A3002 490 89 -600 060/05 RMK AO1 T00440028
54779K12N 12N20160314153009903/14/16 15:30:31  5-MIN K12N 142030Z AUTO VRB04KT 04/03 A3002 490 89 -600 VRB/04 RMK AO1 T00440028
54779K12N 12N20160314153509903/14/16 15:35:31  5-MIN K12N 142035Z AUTO VRB03KT 04/03 A3002 490 89 -600 VRB/03 RMK AO1 T00440028
54779K12N 12N20160314154009903/14/16 15:40:31  5-MIN K12N 142040Z AUTO 04005KT 04/03 A3002 490 89 -600 050/05 RMK AO1 T00440028
54779K12N 12N20160314154509903/14/16 15:45:31  5-MIN K12N 142045Z AUTO 04004KT 04/03 A3002 490 89 -600 050/04 RMK AO1 T00440028
54779K12N 12N20160314155011803/14/16 15:50:31  5-MIN K12N 142050Z AUTO 04007KT 04/03 A3002 490 89 -600 050/07 RMK AO1 SLP172 60002 T00440028 58013
54779K12N 12N20160314155509903/14/16 15:55:31  5-MIN K12N 142055Z AUTO VRB04KT 04/03 A3002 500 89 -600 VRB/04 RMK AO1 T00440028
54779K12N 12N20160314160009903/14/16 16:00:31  5-MIN K12N 142100Z AUTO 03005KT 04/03 A3001 500 92 -600 040/05 RMK AO1 T00440033
54779K12N 12N20160314160510503/14/16 16:05:31  5-MIN K12N 142105Z AUTO 03005KT 04/03 A3001 500 89 -600 040/05 RMK AO1 P0001 T00440028
54779K12N 12N20160314161010503/14/16 16:10:31  5-MIN K12N 142110Z AUTO 03004KT 04/03 A3001 500 89 -600 040/04 RMK AO1 P0001 T00440028
54779K12N 12N20160314161510503/14/16 16:15:31  5-MIN K12N 142115Z AUTO 04004KT 04/03 A3001 510 92 -600 050/04 RMK AO1 P0001 T00390028
54779K12N 12N20160314162010503/14/16 16:20:31  5-MIN K12N 142120Z AUTO VRB05KT 04/03 A3000 510 92 -600 VRB/05 RMK AO1 P0001 T00390028
54779K12N 12N20160314162510503/14/16 16:25:31  5-MIN K12N 142125Z AUTO VRB04KT 04/03 A3000 520 89 -500 VRB/04 RMK AO1 P0001 T00440028
54779K12N 12N20160314163010503/14/16 16:30:31  5-MIN K12N 142130Z AUTO 04006KT 04/03 A3000 510 89 -600 050/06 RMK AO1 P0002 T00440028
54779K12N 12N20160314163510503/14/16 16:35:31  5-MIN K12N 142135Z AUTO VRB05KT 04/03 A3000 520 89 -500 VRB/05 RMK AO1 P0002 T00440028
54779K12N 12N20160314164010503/14/16 16:40:31  5-MIN K12N 142140Z AUTO VRB04KT 04/03 A3000 520 89 -500 VRB/04 RMK AO1 P0002 T00440028
54779K12N 12N20160314164510503/14/16 16:45:31  5-MIN K12N 142145Z AUTO VRB05KT 04/03 A3000 510 89 -500 VRB/05 RMK AO1 P0002 T00440028
54779K12N 12N20160314165011203/14/16 16:50:31  5-MIN K12N 142150Z AUTO VRB03KT 04/03 A3000 520 89 -500 VRB/03 RMK AO1 SLP164 P0002 T00440028
54779K12N 12N20160314165509903/14/16 16:55:31  5-MIN K12N 142155Z AUTO 04006KT 04/03 A3000 510 89 -600 060/06 RMK AO1 T00440028
54779K12N 12N20160314170009903/14/16 17:00:31  5-MIN K12N 142200Z AUTO 04004KT 04/03 A3000 520 89 -500 050/04 RMK AO1 T00440028
54779K12N 12N20160314170509903/14/16 17:05:31  5-MIN K12N 142205Z AUTO 03005KT 04/03 A2999 520 89 -500 040/05 RMK AO1 T00440028
54779K12N 12N20160314171009903/14/16 17:10:31  5-MIN K12N 142210Z AUTO VRB05KT 04/03 A2999 520 89 -500 VRB/05 RMK AO1 T00440028
54779K12N 12N20160314171509903/14/16 17:15:31  5-MIN K12N 142215Z AUTO VRB05KT 04/03 A2999 520 92 -500 VRB/05 RMK AO1 T00440033
54779K12N 12N20160314172009903/14/16 17:20:31  5-MIN K12N 142220Z AUTO 04006KT 04/03 A2999 520 89 -500 050/06 RMK AO1 T00440028
54779K12N 12N20160314172509903/14/16 17:25:31  5-MIN K12N 142225Z AUTO 05005KT 04/03 A2999 520 89 -500 060/05 RMK AO1 T00440028
54779K12N 12N20160314173009903/14/16 17:30:31  5-MIN K12N 142230Z AUTO VRB05KT 04/03 A2999 520 92 -500 VRB/05 RMK AO1 T00440033
54779K12N 12N20160314173509903/14/16 17:35:31  5-MIN K12N 142235Z AUTO VRB06KT 04/03 A2999 530 92 -500 VRB/06 RMK AO1 T00440033
54779K12N 12N20160314174009903/14/16 17:40:31  5-MIN K12N 142240Z AUTO VRB05KT 04/03 A2998 530 92 -500 VRB/05 RMK AO1 T00440033
54779K12N 12N20160314174509903/14/16 17:45:31  5-MIN K12N 142245Z AUTO VRB06KT 04/03 A2998 530 92 -500 VRB/06 RMK AO1 T00440033
54779K12N 12N20160314175010603/14/16 17:50:31  5-MIN K12N 142250Z AUTO VRB05KT 04/03 A2998 530 92 -500 VRB/05 RMK AO1 SLP157 T00440033
54779K12N 12N20160314175509903/14/16 17:55:31  5-MIN K12N 142255Z AUTO 03004KT 04/03 A2998 530 92 -500 040/04 RMK AO1 T00440033
54779K12N 12N20160314180009903/14/16 18:00:31  5-MIN K12N 142300Z AUTO VRB04KT 04/03 A2998 530 92 -500 VRB/04 RMK AO1 T00440033
54779K12N 12N20160314180509903/14/16 18:05:31  5-MIN K12N 142305Z AUTO VRB04KT 04/03 A2998 530 92 -500 VRB/04 RMK AO1 T00440033
54779K12N 12N20160314181009903/14/16 18:10:31  5-MIN K12N 142310Z AUTO VRB04KT 04/03 A2997 540 92 -500 VRB/04 RMK AO1 T00440033
54779K12N 12N20160314181509903/14/16 18:15:31  5-MIN K12N 142315Z AUTO 03005KT 04/03 A2997 540 92 -500 050/05 RMK AO1 T00440033
54779K12N 12N20160314182009903/14/16 18:20:31  5-MIN K12N 142320Z AUTO VRB05KT 04/03 A2997 540 92 -500 VRB/05 RMK AO1 T00440033
54779K12N 12N20160314182509903/14/16 18:25:31  5-MIN K12N 142325Z AUTO VRB05KT 04/03 A2997 540 92 -500 VRB/05 RMK AO1 T00440033
54779K12N 12N20160314183009903/14/16 18:30:31  5-MIN K12N 142330Z AUTO VRB05KT 04/03 A2997 540 92 -500 VRB/05 RMK AO1 T00440033
54779K12N 12N20160314183509903/14/16 18:35:31  5-MIN K12N 142335Z AUTO VRB03KT 04/03 A2997 540 92 -500 VRB/03 RMK AO1 T00440033
54779K12N 12N20160314184009903/14/16 18:40:31  5-MIN K12N 142340Z AUTO VRB05KT 04/03 A2997 540 92 -500 VRB/05 RMK AO1 T00440033
54779K12N 12N20160314184509903/14/16 18:45:31  5-MIN K12N 142345Z AUTO VRB05KT 04/03 A2996 540 92 -500 VRB/05 RMK AO1 T00440033
54779K12N 12N20160314185013003/14/16 18:50:31  5-MIN K12N 142350Z AUTO VRB05KT 04/03 A2996 550 92 -500 VRB/05 RMK AO1 SLP151 60004 T00440033 10056 20039 58015
54779K12N 12N20160314185509903/14/16 18:55:31  5-MIN K12N 142355Z AUTO VRB05KT 04/03 A2996 550 92 -500 VRB/05 RMK AO1 T00440033
54779K12N 12N20160314190009903/14/16 19:00:31  5-MIN K12N 150000Z AUTO VRB04KT 04/03 A2996 550 96 -600 VRB/04 RMK AO1 T00390033
54779K12N 12N20160314190509903/14/16 19:05:31  5-MIN K12N 150005Z AUTO VRB04KT 04/03 A2996 550 96 -600 VRB/04 RMK AO1 T00390033
54779K12N 12N20160314191009903/14/16 19:10:31  5-MIN K12N 150010Z AUTO VRB04KT 04/03 A2996 550 96 -600 VRB/04 RMK AO1 T00390033
54779K12N 12N20160314191509903/14/16 19:15:31  5-MIN K12N 150015Z AUTO VRB05KT 04/03 A2996 550 96 -600 VRB/05 RMK AO1 T00390033
54779K12N 12N20160314192009903/14/16 19:20:31  5-MIN K12N 150020Z AUTO 03006KT 04/03 A2995 560 96 -600 050/06 RMK AO1 T00390033
54779K12N 12N20160314192509903/14/16 19:25:31  5-MIN K12N 150025Z AUTO VRB06KT 04/03 A2995 560 96 -600 VRB/06 RMK AO1 T00390033
54779K12N 12N20160317002009603/17/16 00:20:31  5-MIN K12N 170520Z AUTO 00000KT 08/07 A2986 640 93 0 000/00 RMK AO1 T00830072
54779K12N 12N20160317002509603/17/16 00:25:31  5-MIN K12N 170525Z AUTO 04006KT 08/07 A2987 640 96 0 050/06 RMK AO1 T00780072
54779K12N 12N20160317003009603/17/16 00:30:31  5-MIN K12N 170530Z AUTO VRB04KT 08/07 A2987 630 93 0 VRB/04 RMK AO1 T00830072
54779K12N 12N20160317003509803/17/16 00:35:31  5-MIN K12N 170535Z AUTO 00000KT 09/08 A2986 640 93 100 000/00 RMK AO1 T00890078
54779K12N 12N20160317004009803/17/16 00:40:31  5-MIN K12N 170540Z AUTO 00000KT 09/08 A2986 640 93 100 000/00 RMK AO1 T00890078
54779K12N 12N20160317004509603/17/16 00:45:31  5-MIN K12N 170545Z AUTO 00000KT 08/07 A2986 640 93 0 000/00 RMK AO1 T00830072
54779K12N 12N20160317005012103/17/16 00:50:31  5-MIN K12N 170550Z AUTO 00000KT 08/07 A2986 640 93 0 000/00 RMK AO1 SLP110 T00830072 10133 20078 53013
54779K12N 12N20160317005509603/17/16 00:55:31  5-MIN K12N 170555Z AUTO 00000KT 08/07 A2986 640 93 0 000/00 RMK AO1 T00780067
54779K12N 12N20160317010009603/17/16 01:00:31  5-MIN K12N 170600Z AUTO 00000KT 08/07 A2986 640 93 0 000/00 RMK AO1 T00780067
54779K12N 12N20160317010509603/17/16 01:05:31  5-MIN K12N 170605Z AUTO 00000KT 08/07 A2986 640 93 0 000/00 RMK AO1 T00830072
54779K12N 12N20160317011009603/17/16 01:10:31  5-MIN K12N 170610Z AUTO 00000KT 08/07 A2987 630 93 0 000/00 RMK AO1 T00830072
54779K12N 12N20160317011509803/17/16 01:15:31  5-MIN K12N 170615Z AUTO 00000KT 09/07 A2987 640 89 100 000/00 RMK AO1 T00890072
54779K12N 12N20160317012009803/17/16 01:20:31  5-MIN K12N 170620Z AUTO 00000KT 09/08 A2986 640 93 100 000/00 RMK AO1 T00890078
54779K12N 12N20160317012509803/17/16 01:25:31  5-MIN K12N 170625Z AUTO 15003KT 09/07 A2986 640 89 100 160/03 RMK AO1 T00890072
54779K12N 12N20160317013009803/17/16 01:30:31  5-MIN K12N 170630Z AUTO 17004KT 09/07 A2985 650 89 100 180/04 RMK AO1 T00890072
54779K12N 12N20160317013509803/17/16 01:35:31  5-MIN K12N 170635Z AUTO 17004KT 09/07 A2985 650 89 100 190/04 RMK AO1 T00890072
54779K12N 12N20160317014009803/17/16 01:40:31  5-MIN K12N 170640Z AUTO VRB03KT 09/07 A2985 650 89 100 VRB/03 RMK AO1 T00890072
54779K12N 12N20160317014509803/17/16 01:45:31  5-MIN K12N 170645Z AUTO 00000KT 09/07 A2985 650 89 100 000/00 RMK AO1 T00890072
54779K12N 12N20160317015010303/17/16 01:50:31  5-MIN K12N 170650Z AUTO VRB03KT 08/07 A2985 650 93 0 VRB/03 RMK AO1 SLP107 T00830072
54779K12N 12N20160317015509603/17/16 01:55:31  5-MIN K12N 170655Z AUTO 00000KT 08/07 A2985 650 89 0 000/00 RMK AO1 T00830067
54779K12N 12N20160317020009603/17/16 02:00:31  5-MIN K12N 170700Z AUTO 00000KT 08/07 A2985 650 89 0 000/00 RMK AO1 T00830067
54779K12N 12N20160317020509603/17/16 02:05:31  5-MIN K12N 170705Z AUTO 00000KT 08/07 A2985 650 89 0 000/00 RMK AO1 T00830067
54779K12N 12N20160317021009603/17/16 02:10:31  5-MIN K12N 170710Z AUTO 20003KT 08/07 A2985 650 93 0 210/03 RMK AO1 T00780067
54779K12N 12N20160317021509603/17/16 02:15:31  5-MIN K12N 170715Z AUTO 00000KT 08/07 A2985 650 93 0 000/00 RMK AO1 T00780067
54779K12N 12N20160317022009603/17/16 02:20:31  5-MIN K12N 170720Z AUTO VRB03KT 08/07 A2985 650 93 0 VRB/03 RMK AO1 T00780067
54779K12N 12N20160317022509603/17/16 02:25:31  5-MIN K12N 170725Z AUTO 00000KT 07/07 A2985 650 96 0 000/00 RMK AO1 T00720067
54779K12N 12N20160317023009603/17/16 02:30:31  5-MIN K12N 170730Z AUTO VRB03KT 07/06 A2985 650 93 0 VRB/03 RMK AO1 T00720061
54779K12N 12N20160317023509603/17/16 02:35:31  5-MIN K12N 170735Z AUTO 00000KT 08/06 A2984 660 89 0 000/00 RMK AO1 T00780061
54779K12N 12N20160317024009903/17/16 02:40:31  5-MIN K12N 170740Z AUTO 00000KT 07/06 A2984 660 96 -100 000/00 RMK AO1 T00670061
54779K12N 12N20160317024509903/17/16 02:45:31  5-MIN K12N 170745Z AUTO 29003KT 07/06 A2985 650 93 -100 310/03 RMK AO1 T00670056
54779K12N 12N20160317025010603/17/16 02:50:31  5-MIN K12N 170750Z AUTO 00000KT 07/06 A2985 650 96 -100 000/00 RMK AO1 SLP107 T00670061
54779K12N 12N20160317025509903/17/16 02:55:31  5-MIN K12N 170755Z AUTO 00000KT 07/06 A2985 650 96 -100 000/00 RMK AO1 T00670061
54779K12N 12N20160317030009903/17/16 03:00:31  5-MIN K12N 170800Z AUTO 00000KT 07/06 A2985 650 93 -100 000/00 RMK AO1 T00670056
54779K12N 12N20160317030509903/17/16 03:05:31  5-MIN K12N 170805Z AUTO 36003KT 06/06 A2985 650 96 -200 010/03 RMK AO1 T00610056
54779K12N 12N20160317031009903/17/16 03:10:31  5-MIN K12N 170810Z AUTO 00000KT 06/06 A2985 650 96 -200 000/00 RMK AO1 T00610056
54779K12N 12N20160317031509903/17/16 03:15:31  5-MIN K12N 170815Z AUTO 00000KT 07/06 A2985 650 96 -100 000/00 RMK AO1 T00670061
54779K12N 12N20160317032009903/17/16 03:20:31  5-MIN K12N 170820Z AUTO 00000KT 07/06 A2985 650 96 -100 000/00 RMK AO1 T00670061
54779K12N 12N20160317032510003/17/16 03:25:31  5-MIN K12N 170825Z AUTO 00000KT 07/07 A2985 650 100 -100 000/00 RMK AO1 T00670067
54779K12N 12N20160317033009603/17/16 03:30:31  5-MIN K12N 170830Z AUTO 00000KT 07/07 A2986 650 96 0 000/00 RMK AO1 T00720067
54779K12N 12N20160317033509903/17/16 03:35:31  5-MIN K12N 170835Z AUTO 00000KT 07/07 A2986 640 96 -100 000/00 RMK AO1 T00720067
54779K12N 12N20160317034009903/17/16 03:40:31  5-MIN K12N 170840Z AUTO 00000KT 07/07 A2986 640 96 -100 000/00 RMK AO1 T00720067
54779K12N 12N20160317034509903/17/16 03:45:31  5-MIN K12N 170845Z AUTO 00000KT 07/07 A2986 640 96 -100 000/00 RMK AO1 T00720067
54779K12N 12N20160317035011303/17/16 03:50:31  5-MIN K12N 170850Z AUTO 00000KT 07/07 A2986 640 100 -100 000/00 RMK AO1 SLP112 T00720072 51015
54779K12N 12N20160317035510003/17/16 03:55:31  5-MIN K12N 170855Z AUTO 00000KT 07/07 A2986 640 100 -100 000/00 RMK AO1 T00720072
54779K12N 12N20160317040009603/17/16 04:00:31  5-MIN K12N 170900Z AUTO 00000KT 08/07 A2986 640 96 0 000/00 RMK AO1 T00780072
54779K12N 12N20160317040509603/17/16 04:05:31  5-MIN K12N 170905Z AUTO 00000KT 08/07 A2987 630 96 0 000/00 RMK AO1 T00780072
54779K12N 12N20160317041009603/17/16 04:10:31  5-MIN K12N 170910Z AUTO 00000KT 08/07 A2987 630 96 0 000/00 RMK AO1 T00780072
54779K12N 12N20160317041509603/17/16 04:15:31  5-MIN K12N 170915Z AUTO 00000KT 08/07 A2987 630 96 0 000/00 RMK AO1 T00780072
54779K12N 12N20160317042009603/17/16 04:20:31  5-MIN K12N 170920Z AUTO 00000KT 08/07 A2988 630 96 0 000/00 RMK AO1 T00780072
54779K12N 12N20160317042509603/17/16 04:25:31  5-MIN K12N 170925Z AUTO 00000KT 08/07 A2988 630 96 0 000/00 RMK AO1 T00780072
54779K12N 12N20160317043009603/17/16 04:30:31  5-MIN K12N 170930Z AUTO 00000KT 08/07 A2988 630 96 0 000/00 RMK AO1 T00780072
54779K12N 12N20160317043509603/17/16 04:35:31  5-MIN K12N 170935Z AUTO 00000KT 08/07 A2988 620 93 0 000/00 RMK AO1 T00780067
54779K12N 12N20160317044009603/17/16 04:40:31  5-MIN K12N 170940Z AUTO 00000KT 08/07 A2988 620 89 0 000/00 RMK AO1 T00830067
54779K12N 12N20160317044509603/17/16 04:45:31  5-MIN K12N 170945Z AUTO 18003KT 08/07 A2988 620 93 0 190/03 RMK AO1 T00780067
54779K12N 12N20160317045010303/17/16 04:50:31  5-MIN K12N 170950Z AUTO 00000KT 08/07 A2988 620 89 0 000/00 RMK AO1 SLP120 T00830067
54779K12N 12N20160317045509603/17/16 04:55:31  5-MIN K12N 170955Z AUTO 00000KT 08/07 A2988 620 89 0 000/00 RMK AO1 T00830067
54779K12N 12N20160317050009603/17/16 05:00:31  5-MIN K12N 171000Z AUTO 00000KT 08/07 A2988 620 89 0 000/00 RMK AO1 T00830067
54779K12N 12N20160317050509603/17/16 05:05:31  5-MIN K12N 171005Z AUTO 00000KT 08/07 A2988 620 89 0 000/00 RMK AO1 T00830067
54779K12N 12N20160317051009603/17/16 05:10:31  5-MIN K12N 171010Z AUTO 00000KT 08/07 A2988 620 89 0 000/00 RMK AO1 T00830067
54779K12N 12N20160317051509603/17/16 05:15:31  5-MIN K12N 171015Z AUTO 00000KT 08/07 A2988 620 89 0 000/00 RMK AO1 T00830067
54779K12N 12N20160317052009603/17/16 05:20:31  5-MIN K12N 171020Z AUTO 00000KT 08/07 A2989 620 89 0 000/00 RMK AO1 T00830067
54779K12N 12N20160317052509603/17/16 05:25:31  5-MIN K12N 171025Z AUTO 00000KT 08/07 A2988 620 89 0 000/00 RMK AO1 T00830067
54779K12N 12N20160317053009603/17/16 05:30:31  5-MIN K12N 171030Z AUTO 00000KT 08/07 A2988 620 93 0 000/00 RMK AO1 T00830072
54779K12N 12N20160317053509603/17/16 05:35:31  5-MIN K12N 171035Z AUTO 00000KT 08/07 A2988 620 93 0 000/00 RMK AO1 T00830072
54779K12N 12N20160317054009603/17/16 05:40:31  5-MIN K12N 171040Z AUTO 00000KT 08/07 A2988 620 93 0 000/00 RMK AO1 T00830072
54779K12N 12N20160317054509603/17/16 05:45:31  5-MIN K12N 171045Z AUTO 00000KT 08/07 A2988 630 93 0 000/00 RMK AO1 T00830072
54779K12N 12N20160317055010303/17/16 05:50:31  5-MIN K12N 171050Z AUTO 18003KT 08/07 A2987 630 93 0 190/03 RMK AO1 SLP116 T00830072
54779K12N 12N20160317055509603/17/16 05:55:31  5-MIN K12N 171055Z AUTO 19003KT 08/07 A2987 630 93 0 200/03 RMK AO1 T00830072
54779K12N 12N20160317060009603/17/16 06:00:31  5-MIN K12N 171100Z AUTO 00000KT 08/07 A2987 630 93 0 000/00 RMK AO1 T00830072
54779K12N 12N20160317060509603/17/16 06:05:31  5-MIN K12N 171105Z AUTO 22004KT 08/07 A2987 630 93 0 230/04 RMK AO1 T00830072
54779K12N 12N20160317061009603/17/16 06:10:31  5-MIN K12N 171110Z AUTO VRB03KT 08/07 A2987 630 93 0 VRB/03 RMK AO1 T00830072
54779K12N 12N20160317061509603/17/16 06:15:31  5-MIN K12N 171115Z AUTO 22004KT 08/07 A2988 620 93 0 230/04 RMK AO1 T00830072
54779K12N 12N20160317062009603/17/16 06:20:31  5-MIN K12N 171120Z AUTO VRB04KT 08/07 A2988 620 93 0 VRB/04 RMK AO1 T00830072
54779K12N 12N20160317062509603/17/16 06:25:31  5-MIN K12N 171125Z AUTO 22004KT 08/07 A2988 620 93 0 230/04 RMK AO1 T00830072
54779K12N 12N20160317063009603/17/16 06:30:31  5-MIN K12N 171130Z AUTO 22004KT 08/07 A2988 620 93 0 230/04 RMK AO1 T00830072
54779K12N 12N20160317063509603/17/16 06:35:31  5-MIN K12N 171135Z AUTO 22005KT 08/07 A2988 630 93 0 230/05 RMK AO1 T00830072
54779K12N 12N20160317064009603/17/16 06:40:31  5-MIN K12N 171140Z AUTO 22005KT 08/07 A2988 630 89 0 230/05 RMK AO1 T00830067
54779K12N 12N20160317064509603/17/16 06:45:31  5-MIN K12N 171145Z AUTO 00000KT 08/07 A2987 630 89 0 000/00 RMK AO1 T00830067
54779K12N 12N20160317065012703/17/16 06:50:31  5-MIN K12N 171150Z AUTO VRB06KT 08/07 A2987 630 89 0 VRB/06 RMK AO1 SLP116 70015 T00830067 10089 20061 53001
54779K12N 12N20160317065509603/17/16 06:55:31  5-MIN K12N 171155Z AUTO 21006KT 08/07 A2987 630 89 0 230/06 RMK AO1 T00830067
54779K12N 12N20160317070009603/17/16 07:00:31  5-MIN K12N 171200Z AUTO 22004KT 08/07 A2987 630 89 0 230/04 RMK AO1 T00830067
54779K12N 12N20160317070509603/17/16 07:05:31  5-MIN K12N 171205Z AUTO 22003KT 08/07 A2986 640 89 0 230/03 RMK AO1 T00830067
54779K12N 12N20160317071009603/17/16 07:10:31  5-MIN K12N 171210Z AUTO VRB03KT 08/07 A2987 640 89 0 VRB/03 RMK AO1 T00830067
54779K12N 12N20160317071509603/17/16 07:15:31  5-MIN K12N 171215Z AUTO 00000KT 08/07 A2986 640 93 0 000/00 RMK AO1 T00830072
54779K12N 12N20160317072009603/17/16 07:20:31  5-MIN K12N 171220Z AUTO 25003KT 08/07 A2986 640 89 0 260/03 RMK AO1 T00830067
54779K12N 12N20160317072509603/17/16 07:25:31  5-MIN K12N 171225Z AUTO 21004KT 08/07 A2986 640 89 0 230/04 RMK AO1 T00830067
54779K12N 12N20160317073009603/17/16 07:30:31  5-MIN K12N 171230Z AUTO 00000KT 08/07 A2986 640 89 0 000/00 RMK AO1 T00830067
54779K12N 12N20160317073509603/17/16 07:35:31  5-MIN K12N 171235Z AUTO 17003KT 08/07 A2986 640 89 0 180/03 RMK AO1 T00830067
54779K12N 12N20160317074009603/17/16 07:40:31  5-MIN K12N 171240Z AUTO VRB03KT 08/07 A2986 640 89 0 VRB/03 RMK AO1 T00830067
54779K12N 12N20160317074509603/17/16 07:45:31  5-MIN K12N 171245Z AUTO 00000KT 08/07 A2986 640 89 0 000/00 RMK AO1 T00830067
54779K12N 12N20160317075010303/17/16 07:50:31  5-MIN K12N 171250Z AUTO 21005KT 08/07 A2986 640 89 0 220/05 RMK AO1 SLP114 T00830067
54779K12N 12N20160317075509603/17/16 07:55:31  5-MIN K12N 171255Z AUTO 21005KT 08/07 A2986 640 89 0 220/05 RMK AO1 T00830067
54779K12N 12N20160317080009603/17/16 08:00:31  5-MIN K12N 171300Z AUTO 20003KT 08/06 A2986 640 86 0 220/03 RMK AO1 T00830061
54779K12N 12N20160317080509803/17/16 08:05:31  5-MIN K12N 171305Z AUTO 21004KT 09/07 A2986 640 86 100 230/04 RMK AO1 T00890067
54779K12N 12N20160317081009803/17/16 08:10:31  5-MIN K12N 171310Z AUTO VRB03KT 09/07 A2986 640 86 100 VRB/03 RMK AO1 T00890067
54779K12N 12N20160317081509803/17/16 08:15:31  5-MIN K12N 171315Z AUTO 20004KT 09/07 A2986 640 86 100 210/04 RMK AO1 T00890067
54779K12N 12N20160317082009803/17/16 08:20:31  5-MIN K12N 171320Z AUTO 21003KT 09/06 A2985 650 83 100 220/03 RMK AO1 T00890061
54779K12N 12N20160317082509803/17/16 08:25:31  5-MIN K12N 171325Z AUTO 22004KT 09/07 A2985 650 83 200 230/04 RMK AO1 T00940067
54779K12N 12N20160317083009803/17/16 08:30:31  5-MIN K12N 171330Z AUTO 23004KT 09/07 A2985 650 83 200 240/04 RMK AO1 T00940067
54779K12N 12N20160317083509803/17/16 08:35:31  5-MIN K12N 171335Z AUTO 22005KT 09/07 A2985 650 83 200 230/05 RMK AO1 T00940067
54779K12N 12N20160317084009803/17/16 08:40:31  5-MIN K12N 171340Z AUTO 22005KT 10/07 A2985 650 80 200 230/05 RMK AO1 T01000067
54779K12N 12N20160317084509803/17/16 08:45:31  5-MIN K12N 171345Z AUTO 22005KT 10/06 A2986 650 77 200 230/05 RMK AO1 T01000061
54779K12N 12N20160317085010503/17/16 08:50:31  5-MIN K12N 171350Z AUTO VRB05KT 11/07 A2986 640 77 300 VRB/05 RMK AO1 SLP111 T01060067
54779K12N 12N20160317085509803/17/16 08:55:31  5-MIN K12N 171355Z AUTO VRB03KT 10/06 A2985 650 77 200 VRB/03 RMK AO1 T01000061
54779K12N 12N20160317090009803/17/16 09:00:31  5-MIN K12N 171400Z AUTO 21004KT 11/07 A2985 650 77 300 220/04 RMK AO1 T01060067
54779K12N 12N20160317090509803/17/16 09:05:31  5-MIN K12N 171405Z AUTO 19003KT 11/07 A2985 650 77 300 200/03 RMK AO1 T01060067
54779K12N 12N20160317091009803/17/16 09:10:31  5-MIN K12N 171410Z AUTO VRB03KT 11/07 A2985 650 74 400 VRB/03 RMK AO1 T01110067
54779K12N 12N20160317091509803/17/16 09:15:31  5-MIN K12N 171415Z AUTO 19004KT 11/07 A2985 650 74 400 200/04 RMK AO1 T01110067
54779K12N 12N20160317092009803/17/16 09:20:31  5-MIN K12N 171420Z AUTO 21006KT 11/07 A2985 650 74 400 220/06 RMK AO1 T01110067
54779K12N 12N20160317092509803/17/16 09:25:31  5-MIN K12N 171425Z AUTO VRB03KT 11/06 A2985 650 71 400 VRB/03 RMK AO1 T01110061
54779K12N 12N20160317093009803/17/16 09:30:31  5-MIN K12N 171430Z AUTO 21006KT 12/07 A2985 660 71 500 230/06 RMK AO1 T01170067
54779K12N 12N20160317093509803/17/16 09:35:31  5-MIN K12N 171435Z AUTO VRB03KT 11/06 A2985 650 71 400 VRB/03 RMK AO1 T01110061
54779K12N 12N20160317094009803/17/16 09:40:31  5-MIN K12N 171440Z AUTO VRB03KT 12/06 A2984 660 68 500 VRB/03 RMK AO1 T01170061
54779K12N 12N20160317094509803/17/16 09:45:31  5-MIN K12N 171445Z AUTO VRB03KT 12/06 A2984 660 66 500 VRB/03 RMK AO1 T01220061
54779K12N 12N20160317095011103/17/16 09:50:31  5-MIN K12N 171450Z AUTO 24004KT 13/07 A2984 660 66 600 250/04 RMK AO1 SLP106 T01280067 51002
54779K12N 12N20160317095509803/17/16 09:55:31  5-MIN K12N 171455Z AUTO VRB06KT 13/06 A2984 660 63 600 VRB/06 RMK AO1 T01280061
54779K12N 12N20160317100009803/17/16 10:00:31  5-MIN K12N 171500Z AUTO 25006KT 13/05 A2984 660 57 700 260/06 RMK AO1 T01330050
54779K12N 12N20160317100509803/17/16 10:05:31  5-MIN K12N 171505Z AUTO VRB04KT 13/05 A2984 660 57 700 VRB/04 RMK AO1 T01330050
54779K12N 12N20160317101009803/17/16 10:10:31  5-MIN K12N 171510Z AUTO VRB05KT 14/04 A2984 660 52 700 VRB/05 RMK AO1 T01390044
54779K12N 12N20160317101509803/17/16 10:15:31  5-MIN K12N 171515Z AUTO 22006KT 14/04 A2984 660 50 700 230/06 RMK AO1 T01390039
54779K12N 12N20160317102009803/17/16 10:20:31  5-MIN K12N 171520Z AUTO VRB06KT 14/04 A2984 660 49 800 VRB/06 RMK AO1 T01440039
54779K12N 12N20160317102509803/17/16 10:25:31  5-MIN K12N 171525Z AUTO VRB04KT 14/03 A2984 660 45 800 VRB/04 RMK AO1 T01440028
54779K12N 12N20160317103009803/17/16 10:30:31  5-MIN K12N 171530Z AUTO 22010KT 15/03 A2984 660 43 900 240/10 RMK AO1 T01500028
54779K12N 12N20160317103512003/17/16 10:35:31  5-MIN K12N 171535Z AUTO 23008G14KT 210V290 14/01 A2984 660 41 700 250/08G14 220V300 RMK AO1 T01390011
54779K12N 12N20160317104010403/17/16 10:40:31  5-MIN K12N 171540Z AUTO VRB04G14KT 14/01 A2984 660 40 700 VRB/04G14 RMK AO1 T01390006
54779K12N 12N20160317104509803/17/16 10:45:31  5-MIN K12N 171545Z AUTO 23005KT 14/01 A2984 660 38 800 250/05 RMK AO1 T01440006
54779K12N 12N20160317105010503/17/16 10:50:31  5-MIN K12N 171550Z AUTO VRB05KT 14/01 A2984 660 41 700 VRB/05 RMK AO1 SLP105 T01390011
54779K12N 12N20160317105512003/17/16 10:55:31  5-MIN K12N 171555Z AUTO 24010G15KT 180V290 13/01 A2984 660 43 700 260/10G15 190V300 RMK AO1 T01330011
54779K12N 12N20160317110012003/17/16 11:00:31  5-MIN K12N 171600Z AUTO 22009G18KT 200V280 13/02 A2984 660 45 700 240/09G18 210V290 RMK AO1 T01330017
54779K12N 12N20160317110512003/17/16 11:05:31  5-MIN K12N 171605Z AUTO 22010G18KT 190V250 13/02 A2984 660 45 700 240/10G18 200V260 RMK AO1 T01330017
54779K12N 12N20160317111012003/17/16 11:10:31  5-MIN K12N 171610Z AUTO 23008G21KT 210V270 13/03 A2984 660 48 700 250/08G21 220V280 RMK AO1 T01330028
54779K12N 12N20160317111512003/17/16 11:15:31  5-MIN K12N 171615Z AUTO 23008G21KT 200V270 13/03 A2984 660 48 700 240/08G21 210V280 RMK AO1 T01330028
54779K12N 12N20160317112010403/17/16 11:20:31  5-MIN K12N 171620Z AUTO 22013G20KT 13/03 A2984 660 48 700 240/13G20 RMK AO1 T01330028
54779K12N 12N20160317112510403/17/16 11:25:31  5-MIN K12N 171625Z AUTO VRB06G20KT 13/02 A2984 660 46 600 VRB/06G20 RMK AO1 T01280017
54779K12N 12N20160317113010403/17/16 11:30:31  5-MIN K12N 171630Z AUTO 22012G17KT 13/02 A2984 660 46 600 240/12G17 RMK AO1 T01280017
54779K12N 12N20160317113512003/17/16 11:35:31  5-MIN K12N 171635Z AUTO 23012G19KT 190V260 13/02 A2983 670 46 600 240/12G19 200V270 RMK AO1 T01280017
54779K12N 12N20160317114010403/17/16 11:40:31  5-MIN K12N 171640Z AUTO 22011G21KT 13/01 A2983 660 44 600 230/11G21 RMK AO1 T01280011
54779K12N 12N20160317114510403/17/16 11:45:31  5-MIN K12N 171645Z AUTO 23013G23KT 12/00 A2984 660 43 500 240/13G23 RMK AO1 T01220000
54779K12N 12N20160317115011103/17/16 11:50:31  5-MIN K12N 171650Z AUTO 24010G23KT 12/00 A2984 660 43 500 250/10G23 RMK AO1 SLP106 T01220000
54779K12N 12N20160317115512103/17/16 11:55:31  5-MIN K12N 171655Z AUTO 22008G23KT 180V250 12/M01 A2984 660 41 500 240/08G23 190V260 RMK AO1 T01221006
54779K12N 12N20160317120010503/17/16 12:00:31  5-MIN K12N 171700Z AUTO 23010G19KT 12/M01 A2983 670 42 500 240/10G19 RMK AO1 T01171006
54779K12N 12N20160317120512003/17/16 12:05:31  5-MIN K12N 171705Z AUTO 22011G19KT 190V250 12/00 A2983 670 44 500 230/11G19 200V260 RMK AO1 T01170000
54779K12N 12N20160317121013803/17/16 12:10:31  5-MIN K12N 171710Z AUTO 23014G28KT 200V260 11/00 A2984 660 46 400 240/14G28 210V270 RMK AO1 PK WND 24028/1706 T01110000
54779K12N 12N20160317121512203/17/16 12:15:31  5-MIN K12N 171715Z AUTO 22013G28KT 11/01 A2984 660 48 400 230/13G28 RMK AO1 PK WND 24028/1706 T01110006
54779K12N 12N20160317122013803/17/16 12:20:31  5-MIN K12N 171720Z AUTO 22012G26KT 190V260 11/01 A2984 660 50 300 230/12G26 200V270 RMK AO1 PK WND 24028/1706 T01060006
54779K12N 12N20160317122513803/17/16 12:25:31  5-MIN K12N 171725Z AUTO 20011G22KT 160V230 11/01 A2982 680 50 300 220/11G22 170V240 RMK AO1 PK WND 24028/1706 T01060006
54779K12N 12N20160317123012903/17/16 12:30:31  5-MIN K12N 171730Z AUTO 20013G26KT 11/01 A2981 680 52 400 210/13G26 RMK AO1 PK WND 24028/1706 PRESFR T01060011
54779K12N 12N20160317123512903/17/16 12:35:31  5-MIN K12N 171735Z AUTO 20011G26KT 10/02 A2980 690 56 300 210/11G26 RMK AO1 PK WND 24028/1706 PRESFR T01000017
54779K12N 12N20160317124012203/17/16 12:40:31  5-MIN K12N 171740Z AUTO 21010G20KT 10/02 A2981 680 58 300 220/10G20 RMK AO1 PK WND 24028/1706 T01000022
54779K12N 12N20160317124512203/17/16 12:45:31  5-MIN K12N 171745Z AUTO 21009G18KT 11/02 A2982 680 56 400 230/09G18 RMK AO1 PK WND 24028/1706 T01060022
54779K12N 12N20160317125014703/17/16 12:50:31  5-MIN K12N 171750Z AUTO 21008G18KT 11/02 A2981 680 56 400 220/08G18 RMK AO1 PK WND 24028/1706 SLP099 T01060022 10150 20078 58010
54779K12N 12N20160317125510403/17/16 12:55:31  5-MIN K12N 171755Z AUTO 22009G18KT 11/02 A2981 680 56 400 230/09G18 RMK AO1 T01060022
54779K12N 12N20160317130012003/17/16 13:00:31  5-MIN K12N 171800Z AUTO 22009G14KT 190V260 11/02 A2981 690 56 400 240/09G14 200V270 RMK AO1 T01060022
54779K12N 12N20160317130510403/17/16 13:05:31  5-MIN K12N 171805Z AUTO 22010G19KT 11/02 A2981 690 56 400 230/10G19 RMK AO1 T01060022
54779K12N 12N20160317131010403/17/16 13:10:31  5-MIN K12N 171810Z AUTO 22008G19KT 11/02 A2980 690 54 400 230/08G19 RMK AO1 T01110022
54779K12N 12N20160317131511403/17/16 13:15:31  5-MIN K12N 171815Z AUTO 21007KT 170V250 12/03 A2980 700 54 500 230/07 180V260 RMK AO1 T01170028
54779K12N 12N20160317132010403/17/16 13:20:31  5-MIN K12N 171820Z AUTO 21012G19KT 12/02 A2979 700 52 500 230/12G19 RMK AO1 T01170022
54779K12N 12N20160317132510403/17/16 13:25:31  5-MIN K12N 171825Z AUTO 21010G19KT 12/02 A2979 710 50 600 230/10G19 RMK AO1 T01220022
54779K12N 12N20160317133010403/17/16 13:30:31  5-MIN K12N 171830Z AUTO 22007G20KT 12/02 A2978 710 50 600 230/07G20 RMK AO1 T01220022
54779K12N 12N20160317133510403/17/16 13:35:31  5-MIN K12N 171835Z AUTO 21011G20KT 13/03 A2978 720 50 700 220/11G20 RMK AO1 T01280028
54779K12N 12N20160317134012003/17/16 13:40:31  5-MIN K12N 171840Z AUTO 20008G17KT 170V230 13/02 A2977 720 48 700 220/08G17 180V240 RMK AO1 T01280022
54779K12N 12N20160317134510403/17/16 13:45:31  5-MIN K12N 171845Z AUTO 23011G19KT 13/02 A2977 720 45 700 240/11G19 RMK AO1 T01330017
54779K12N 12N20160317135011103/17/16 13:50:31  5-MIN K12N 171850Z AUTO 22010G19KT 13/02 A2977 730 46 700 230/10G19 RMK AO1 SLP082 T01330022
54779K12N 12N20160317135512003/17/16 13:55:31  5-MIN K12N 171855Z AUTO 22010G18KT 180V240 14/02 A2977 730 43 800 230/10G18 190V250 RMK AO1 T01390017
54779K12N 12N20160317140012003/17/16 14:00:31  5-MIN K12N 171900Z AUTO 25009G18KT 210V290 14/02 A2977 730 43 800 260/09G18 220V300 RMK AO1 T01390017
54779K12N 12N20160317140512003/17/16 14:05:31  5-MIN K12N 171905Z AUTO 25008G18KT 220V290 14/02 A2977 730 43 800 270/08G18 230V300 RMK AO1 T01390017
54779K12N 12N20160317141010403/17/16 14:10:31  5-MIN K12N 171910Z AUTO 28007G16KT 14/02 A2977 730 43 800 290/07G16 RMK AO1 T01390017
54779K12N 12N20160317141512003/17/16 14:15:31  5-MIN K12N 171915Z AUTO 31007G16KT 280V340 13/02 A2977 720 45 700 320/07G16 290V350 RMK AO1 T01330017
54779K12N 12N20160317142012003/17/16 14:20:31  5-MIN K12N 171920Z AUTO 35008G19KT 310V040 12/02 A2978 720 48 600 360/08G19 320V050 RMK AO1 T01220017
54779K12N 12N20160317142510403/17/16 14:25:31  5-MIN K12N 171925Z AUTO 36007G19KT 11/02 A2978 720 56 400 010/07G19 RMK AO1 T01060022
54779K12N 12N20160317143009803/17/16 14:30:31  5-MIN K12N 171930Z AUTO VRB04KT 09/03 A2978 720 65 300 VRB/04 RMK AO1 T00940033
54779K12N 12N20160317143509803/17/16 14:35:31  5-MIN K12N 171935Z AUTO VRB05KT 09/03 A2978 720 65 300 VRB/05 RMK AO1 T00940033
54779K12N 12N20160317144009803/17/16 14:40:31  5-MIN K12N 171940Z AUTO 00000KT 10/03 A2978 720 63 300 000/00 RMK AO1 T01000033
54779K12N 12N20160317144509803/17/16 14:45:31  5-MIN K12N 171945Z AUTO 06003KT 10/03 A2977 720 63 300 070/03 RMK AO1 T01000033
54779K12N 12N20160317145010503/17/16 14:50:31  5-MIN K12N 171950Z AUTO 00000KT 11/03 A2977 720 61 400 000/00 RMK AO1 SLP084 T01060033
54779K12N 12N20160317145509803/17/16 14:55:31  5-MIN K12N 171955Z AUTO 00000KT 11/04 A2977 730 63 400 000/00 RMK AO1 T01060039
54779K12N 12N20160317150009803/17/16 15:00:31  5-MIN K12N 172000Z AUTO 00000KT 11/03 A2977 730 61 400 000/00 RMK AO1 T01060033
54779K12N 12N20160317150509803/17/16 15:05:31  5-MIN K12N 172005Z AUTO 00000KT 11/03 A2977 730 61 400 000/00 RMK AO1 T01060033
54779K12N 12N20160317151009803/17/16 15:10:31  5-MIN K12N 172010Z AUTO 00000KT 11/03 A2977 730 58 400 000/00 RMK AO1 T01060028
54779K12N 12N20160317151509803/17/16 15:15:31  5-MIN K12N 172015Z AUTO 00000KT 11/03 A2977 730 58 400 000/00 RMK AO1 T01060028
54779K12N 12N20160317152009803/17/16 15:20:31  5-MIN K12N 172020Z AUTO VRB05KT 10/04 A2978 710 65 300 VRB/05 RMK AO1 T01000039
54779K12N 12N20160317152512003/17/16 15:25:31  5-MIN K12N 172025Z AUTO 36013G24KT 310V020 10/03 A2978 710 63 300 010/13G24 320V030 RMK AO1 T01000033
54779K12N 12N20160317153012603/17/16 15:30:31  5-MIN K12N 172030Z AUTO 26007G24KT 230V300 09/03 A2978 710 63 300 270/07G24 240V310 RMK AO1 P0002 T00940028
54779K12N 12N20160317153512603/17/16 15:35:31  5-MIN K12N 172035Z AUTO 23009G14KT 190V260 09/03 A2980 700 65 200 240/09G14 200V270 RMK AO1 P0002 T00890028
54779K12N 12N20160317154011003/17/16 15:40:31  5-MIN K12N 172040Z AUTO 18010G16KT 08/03 A2977 720 68 100 200/10G16 RMK AO1 P0002 T00830028
54779K12N 12N20160317154511703/17/16 15:45:31  5-MIN K12N 172045Z AUTO 20006G20KT 08/03 A2976 740 73 100 210/06G20 RMK AO1 PRESFR P0002 T00780033
54779K12N 12N20160317155012903/17/16 15:50:31  5-MIN K12N 172050Z AUTO 20006G20KT 08/03 A2977 730 70 100 210/06G20 RMK AO1 SLP083 P0002 60002 T00830033 58009
54779K12N 12N20160317155510403/17/16 15:55:31  5-MIN K12N 172055Z AUTO 20007G15KT 08/04 A2977 730 73 100 210/07G15 RMK AO1 T00830039
54779K12N 12N20160317160010403/17/16 16:00:31  5-MIN K12N 172100Z AUTO 19004G15KT 08/04 A2976 730 73 100 200/04G15 RMK AO1 T00830039
54779K12N 12N20160317160509803/17/16 16:05:31  5-MIN K12N 172105Z AUTO VRB03KT 08/04 A2976 740 76 200 VRB/03 RMK AO1 T00830044
54779K12N 12N20160317161009803/17/16 16:10:31  5-MIN K12N 172110Z AUTO 00000KT 08/04 A2976 740 76 200 000/00 RMK AO1 T00830044
54779K12N 12N20160317161509803/17/16 16:15:31  5-MIN K12N 172115Z AUTO 20003KT 09/04 A2976 730 73 200 210/03 RMK AO1 T00890044
54779K12N 12N20160317162009803/17/16 16:20:31  5-MIN K12N 172120Z AUTO 20003KT 09/04 A2976 730 73 200 210/03 RMK AO1 T00890044
54779K12N 12N20160317162509803/17/16 16:25:31  5-MIN K12N 172125Z AUTO 00000KT 09/04 A2976 730 73 200 000/00 RMK AO1 T00890044
54779K12N 12N20160317163009803/17/16 16:30:31  5-MIN K12N 172130Z AUTO 21003KT 09/04 A2976 730 73 200 220/03 RMK AO1 T00890044
54779K12N 12N20160317163509803/17/16 16:35:31  5-MIN K12N 172135Z AUTO 20003KT 09/04 A2976 730 73 200 210/03 RMK AO1 T00890044
54779K12N 12N20160317164009803/17/16 16:40:31  5-MIN K12N 172140Z AUTO 20003KT 09/04 A2976 730 73 200 220/03 RMK AO1 T00890044
54779K12N 12N20160317164509803/17/16 16:45:31  5-MIN K12N 172145Z AUTO 20003KT 09/04 A2977 730 73 200 220/03 RMK AO1 T00890044
54779K12N 12N20160317165010503/17/16 16:50:31  5-MIN K12N 172150Z AUTO 20003KT 09/04 A2976 730 71 300 220/03 RMK AO1 SLP082 T00940044
54779K12N 12N20160317165509803/17/16 16:55:31  5-MIN K12N 172155Z AUTO VRB03KT 09/04 A2976 730 71 300 VRB/03 RMK AO1 T00940044
54779K12N 12N20160317170009803/17/16 17:00:31  5-MIN K12N 172200Z AUTO VRB03KT 09/04 A2976 730 71 300 VRB/03 RMK AO1 T00940044
54779K12N 12N20160317170509803/17/16 17:05:31  5-MIN K12N 172205Z AUTO VRB03KT 09/04 A2976 730 71 300 VRB/03 RMK AO1 T00940044
54779K12N 12N20160317171009803/17/16 17:10:31  5-MIN K12N 172210Z AUTO 21004KT 09/05 A2976 730 74 300 220/04 RMK AO1 T00940050
54779K12N 12N20160317171509803/17/16 17:15:31  5-MIN K12N 172215Z AUTO 20005KT 09/05 A2976 730 74 300 220/05 RMK AO1 T00940050
54779K12N 12N20160317172009803/17/16 17:20:31  5-MIN K12N 172220Z AUTO 20003KT 09/05 A2976 740 74 300 210/03 RMK AO1 T00940050
54779K12N 12N20160317172509803/17/16 17:25:31  5-MIN K12N 172225Z AUTO 22005KT 09/05 A2976 740 74 300 230/05 RMK AO1 T00940050
54779K12N 12N20160317173009803/17/16 17:30:31  5-MIN K12N 172230Z AUTO 22005KT 09/04 A2976 740 71 300 230/05 RMK AO1 T00940044
54779K12N 12N20160317173509803/17/16 17:35:31  5-MIN K12N 172235Z AUTO 22005KT 09/04 A2976 740 71 300 230/05 RMK AO1 T00940044
54779K12N 12N20160317174009803/17/16 17:40:31  5-MIN K12N 172240Z AUTO 22006KT 09/04 A2976 740 71 300 230/06 RMK AO1 T00940044
54779K12N 12N20160317174509803/17/16 17:45:31  5-MIN K12N 172245Z AUTO 22005KT 09/04 A2976 740 71 300 230/05 RMK AO1 T00940044
54779K12N 12N20160317175010503/17/16 17:50:31  5-MIN K12N 172250Z AUTO 22005KT 09/04 A2976 740 71 300 230/05 RMK AO1 SLP080 T00940044
54779K12N 12N20160317175509803/17/16 17:55:31  5-MIN K12N 172255Z AUTO 21006KT 09/04 A2976 730 71 300 230/06 RMK AO1 T00940044
54779K12N 12N20160317180009803/17/16 18:00:31  5-MIN K12N 172300Z AUTO 22004KT 09/04 A2976 730 71 300 230/04 RMK AO1 T00940044
54779K12N 12N20160317180509803/17/16 18:05:31  5-MIN K12N 172305Z AUTO 20003KT 09/04 A2976 730 71 300 210/03 RMK AO1 T00940044
54779K12N 12N20160317181009803/17/16 18:10:31  5-MIN K12N 172310Z AUTO 00000KT 09/04 A2976 730 73 200 000/00 RMK AO1 T00890044
54779K12N 12N20160317181509803/17/16 18:15:31  5-MIN K12N 172315Z AUTO 00000KT 09/04 A2976 730 73 200 000/00 RMK AO1 T00890044
54779K12N 12N20160317182009803/17/16 18:20:31  5-MIN K12N 172320Z AUTO 00000KT 09/04 A2976 730 73 200 000/00 RMK AO1 T00890044
54779K12N 12N20160317182509803/17/16 18:25:31  5-MIN K12N 172325Z AUTO 00000KT 09/04 A2977 730 73 200 000/00 RMK AO1 T00890044
54779K12N 12N20160317183009803/17/16 18:30:31  5-MIN K12N 172330Z AUTO 00000KT 08/04 A2977 730 79 100 000/00 RMK AO1 T00780044
54779K12N 12N20160317183509603/17/16 18:35:31  5-MIN K12N 172335Z AUTO 00000KT 07/04 A2977 720 82 0 000/00 RMK AO1 T00720044
54779K12N 12N20160317184009603/17/16 18:40:31  5-MIN K12N 172340Z AUTO 00000KT 07/04 A2977 720 82 0 000/00 RMK AO1 T00670039
54779K12N 12N20160317184509603/17/16 18:45:31  5-MIN K12N 172345Z AUTO 00000KT 07/04 A2977 720 82 0 000/00 RMK AO1 T00670039
54779K12N 12N20160317185012703/17/16 18:50:31  5-MIN K12N 172350Z AUTO 00000KT 07/04 A2977 720 82 0 000/00 RMK AO1 SLP086 60002 T00670039 10139 20067 56015
54779K12N 12N20160317185509903/17/16 18:55:31  5-MIN K12N 172355Z AUTO 00000KT 06/04 A2978 720 86 -100 000/00 RMK AO1 T00610039
54779K12N 12N20160317190009903/17/16 19:00:31  5-MIN K12N 180000Z AUTO 00000KT 06/04 A2978 720 89 -100 000/00 RMK AO1 T00610044
54779K12N 12N20160317190509903/17/16 19:05:31  5-MIN K12N 180005Z AUTO 00000KT 06/04 A2978 720 89 -100 000/00 RMK AO1 T00610044
54779K12N 12N20160317191009903/17/16 19:10:31  5-MIN K12N 180010Z AUTO 00000KT 06/04 A2979 710 89 -100 000/00 RMK AO1 T00610044
54779K12N 12N20160317191509603/17/16 19:15:31  5-MIN K12N 180015Z AUTO 00000KT 07/05 A2979 710 89 0 000/00 RMK AO1 T00670050
54779K12N 12N20160317192009903/17/16 19:20:31  5-MIN K12N 180020Z AUTO 00000KT 06/05 A2979 710 93 -100 000/00 RMK AO1 T00610050
54779K12N 12N20160317192509903/17/16 19:25:31  5-MIN K12N 180025Z AUTO 18003KT 06/04 A2979 700 89 -100 190/03 RMK AO1 T00610044
54779K12N 12N20160317193009903/17/16 19:30:31  5-MIN K12N 180030Z AUTO 00000KT 06/04 A2980 700 89 -100 000/00 RMK AO1 T00610044
54779K12N 12N20160317193509903/17/16 19:35:31  5-MIN K12N 180035Z AUTO 00000KT 06/04 A2980 700 89 -100 000/00 RMK AO1 T00610044
54779K12N 12N20160317194009903/17/16 19:40:31  5-MIN K12N 180040Z AUTO 02004KT 06/04 A2981 690 92 -200 040/04 RMK AO1 T00560044
54779K12N 12N20160317194509903/17/16 19:45:31  5-MIN K12N 180045Z AUTO VRB04KT 07/04 A2980 690 86 -100 VRB/04 RMK AO1 T00670044
54779K12N 12N20160317195010303/17/16 19:50:31  5-MIN K12N 180050Z AUTO 00000KT 07/04 A2980 690 79 0 000/00 RMK AO1 SLP096 T00720039
54779K12N 12N20160317195509903/17/16 19:55:31  5-MIN K12N 180055Z AUTO 18003KT 07/04 A2980 690 82 -100 190/03 RMK AO1 T00670039
54779K12N 12N20160317200009903/17/16 20:00:31  5-MIN K12N 180100Z AUTO 00000KT 07/03 A2980 690 79 -100 000/00 RMK AO1 T00670033
54779K12N 12N20160317200509903/17/16 20:05:31  5-MIN K12N 180105Z AUTO 00000KT 06/03 A2980 690 82 -100 000/00 RMK AO1 T00610033
54779K12N 12N20160317201009903/17/16 20:10:31  5-MIN K12N 180110Z AUTO 00000KT 06/03 A2980 690 85 -200 000/00 RMK AO1 T00560033
54779K12N 12N20160317201509903/17/16 20:15:31  5-MIN K12N 180115Z AUTO 00000KT 06/03 A2980 690 85 -200 000/00 RMK AO1 T00560033
54779K12N 12N20160317202009903/17/16 20:20:31  5-MIN K12N 180120Z AUTO 00000KT 06/03 A2980 690 85 -200 000/00 RMK AO1 T00560033
54779K12N 12N20160317202509903/17/16 20:25:31  5-MIN K12N 180125Z AUTO 00000KT 06/03 A2981 690 85 -200 000/00 RMK AO1 T00560033
54779K12N 12N20160317203009903/17/16 20:30:31  5-MIN K12N 180130Z AUTO 00000KT 05/03 A2981 690 89 -300 000/00 RMK AO1 T00500033
54779K12N 12N20160317203509903/17/16 20:35:31  5-MIN K12N 180135Z AUTO 00000KT 05/03 A2980 690 89 -300 000/00 RMK AO1 T00500033
54779K12N 12N20160317204009903/17/16 20:40:31  5-MIN K12N 180140Z AUTO 00000KT 05/03 A2980 700 89 -300 000/00 RMK AO1 T00500033
54779K12N 12N20160317204509903/17/16 20:45:31  5-MIN K12N 180145Z AUTO 00000KT 04/03 A2980 700 92 -300 000/00 RMK AO1 T00440033
54779K12N 12N20160317205010603/17/16 20:50:31  5-MIN K12N 180150Z AUTO 00000KT 05/03 A2980 690 89 -300 000/00 RMK AO1 SLP096 T00500033
54779K12N 12N20160317205509903/17/16 20:55:31  5-MIN K12N 180155Z AUTO 00000KT 04/03 A2980 690 92 -300 000/00 RMK AO1 T00440033
54779K12N 12N20160317210009903/17/16 21:00:31  5-MIN K12N 180200Z AUTO 00000KT 04/03 A2981 690 92 -300 000/00 RMK AO1 T00440033
54779K12N 12N20160317210509903/17/16 21:05:31  5-MIN K12N 180205Z AUTO 00000KT 04/03 A2981 690 92 -300 000/00 RMK AO1 T00440033
54779K12N 12N20160317211009903/17/16 21:10:31  5-MIN K12N 180210Z AUTO 21003KT 04/03 A2981 690 92 -300 220/03 RMK AO1 T00440033
54779K12N 12N20160317211509903/17/16 21:15:31  5-MIN K12N 180215Z AUTO 00000KT 04/03 A2981 690 92 -300 000/00 RMK AO1 T00440033
54779K12N 12N20160317212009903/17/16 21:20:31  5-MIN K12N 180220Z AUTO 00000KT 04/03 A2981 690 92 -300 000/00 RMK AO1 T00440033
54779K12N 12N20160317212509903/17/16 21:25:31  5-MIN K12N 180225Z AUTO 21003KT 04/03 A2981 690 92 -300 220/03 RMK AO1 T00440033
54779K12N 12N20160317213009903/17/16 21:30:31  5-MIN K12N 180230Z AUTO 00000KT 04/03 A2981 690 92 -300 000/00 RMK AO1 T00440033
54779K12N 12N20160317213509903/17/16 21:35:31  5-MIN K12N 180235Z AUTO 00000KT 04/03 A2981 690 92 -300 000/00 RMK AO1 T00440033
54779K12N 12N20160317214009903/17/16 21:40:31  5-MIN K12N 180240Z AUTO 00000KT 04/03 A2981 690 96 -400 000/00 RMK AO1 T00390033
54779K12N 12N20160317214509903/17/16 21:45:31  5-MIN K12N 180245Z AUTO 22003KT 04/03 A2981 690 92 -300 230/03 RMK AO1 T00440033
54779K12N 12N20160317215011203/17/16 21:50:31  5-MIN K12N 180250Z AUTO 00000KT 04/03 A2981 690 92 -400 000/00 RMK AO1 SLP097 T00390028 53003
54779K12N 12N20160317215509903/17/16 21:55:31  5-MIN K12N 180255Z AUTO 00000KT 03/03 A2981 690 96 -500 000/00 RMK AO1 T00330028
54779K12N 12N20160317220009903/17/16 22:00:31  5-MIN K12N 180300Z AUTO 00000KT 03/02 A2981 690 96 -500 000/00 RMK AO1 T00280022
54779K12N 12N20160317220509903/17/16 22:05:31  5-MIN K12N 180305Z AUTO 00000KT 03/02 A2981 690 96 -500 000/00 RMK AO1 T00280022
54779K12N 12N20160317221009903/17/16 22:10:31  5-MIN K12N 180310Z AUTO 00000KT 03/02 A2981 690 89 -500 000/00 RMK AO1 T00330017
54779K12N 12N20160317221509903/17/16 22:15:31  5-MIN K12N 180315Z AUTO 00000KT 03/02 A2981 690 92 -500 000/00 RMK AO1 T00330022
54779K12N 12N20160317222009903/17/16 22:20:31  5-MIN K12N 180320Z AUTO 00000KT 03/02 A2981 690 92 -500 000/00 RMK AO1 T00280017
54779K12N 12N20160317222509903/17/16 22:25:31  5-MIN K12N 180325Z AUTO 00000KT 03/02 A2981 690 89 -500 000/00 RMK AO1 T00330017
54779K12N 12N20160317223009903/17/16 22:30:31  5-MIN K12N 180330Z AUTO 00000KT 03/02 A2981 690 92 -500 000/00 RMK AO1 T00330022
54779K12N 12N20160317223509903/17/16 22:35:31  5-MIN K12N 180335Z AUTO 00000KT 03/02 A2981 690 92 -500 000/00 RMK AO1 T00330022
54779K12N 12N20160317224009903/17/16 22:40:31  5-MIN K12N 180340Z AUTO 00000KT 03/02 A2981 690 92 -500 000/00 RMK AO1 T00330022
54779K12N 12N20160317224509903/17/16 22:45:31  5-MIN K12N 180345Z AUTO 00000KT 03/02 A2981 690 92 -500 000/00 RMK AO1 T00330022
54779K12N 12N20160317225010603/17/16 22:50:31  5-MIN K12N 180350Z AUTO 00000KT 03/02 A2981 690 92 -500 000/00 RMK AO1 SLP097 T00330022
54779K12N 12N20160317225509903/17/16 22:55:31  5-MIN K12N 180355Z AUTO 00000KT 03/03 A2981 690 96 -500 000/00 RMK AO1 T00330028
54779K12N 12N20160317230009903/17/16 23:00:31  5-MIN K12N 180400Z AUTO 00000KT 03/02 A2980 690 96 -500 000/00 RMK AO1 T00280022
54779K12N 12N20160317230509903/17/16 23:05:31  5-MIN K12N 180405Z AUTO 00000KT 03/02 A2980 700 92 -500 000/00 RMK AO1 T00330022
54779K12N 12N20160317231009903/17/16 23:10:31  5-MIN K12N 180410Z AUTO 00000KT 03/02 A2980 700 96 -500 000/00 RMK AO1 T00280022
54779K12N 12N20160317231509903/17/16 23:15:31  5-MIN K12N 180415Z AUTO 00000KT 03/02 A2980 700 96 -500 000/00 RMK AO1 T00280022
54779K12N 12N20160317232009903/17/16 23:20:31  5-MIN K12N 180420Z AUTO 00000KT 03/02 A2980 700 96 -500 000/00 RMK AO1 T00280022
54779K12N 12N20160317232509903/17/16 23:25:31  5-MIN K12N 180425Z AUTO 00000KT 02/02 A2980 700 96 -600 000/00 RMK AO1 T00220017
54779K12N 12N20160317233009903/17/16 23:30:31  5-MIN K12N 180430Z AUTO 00000KT 03/02 A2980 700 92 -500 000/00 RMK AO1 T00330022
54779K12N 12N20160317233510003/17/16 23:35:31  5-MIN K12N 180435Z AUTO 00000KT 02/02 A2980 700 100 -600 000/00 RMK AO1 T00220022
54779K12N 12N20160317234009903/17/16 23:40:31  5-MIN K12N 180440Z AUTO 00000KT 03/02 A2980 700 92 -500 000/00 RMK AO1 T00280017
54779K12N 12N20160317234509903/17/16 23:45:31  5-MIN K12N 180445Z AUTO 00000KT 02/02 A2980 700 96 -600 000/00 RMK AO1 T00220017
54779K12N 12N20160318202010603/18/16 20:20:31  5-MIN K12N 190120Z AUTO 36007G16KT 06/M03 A2992 590 51 -300 010/07G16 RMK AO1 T00611033
54779K12N 12N20160318202510603/18/16 20:25:31  5-MIN K12N 190125Z AUTO 34008G15KT 06/M03 A2992 580 53 -300 360/08G15 RMK AO1 T00611028
54779K12N 12N20160318203010003/18/16 20:30:31  5-MIN K12N 190130Z AUTO 36006KT 06/M03 A2993 580 53 -300 010/06 RMK AO1 T00611028
54779K12N 12N20160318203510003/18/16 20:35:31  5-MIN K12N 190135Z AUTO 35006KT 06/M03 A2993 580 53 -300 360/06 RMK AO1 T00611028
54779K12N 12N20160318204010003/18/16 20:40:31  5-MIN K12N 190140Z AUTO VRB06KT 06/M03 A2993 570 53 -300 VRB/06 RMK AO1 T00611028
54779K12N 12N20160318204510003/18/16 20:45:31  5-MIN K12N 190145Z AUTO 35005KT 06/M03 A2993 570 55 -300 010/05 RMK AO1 T00561028
54779K12N 12N20160318205010703/18/16 20:50:31  5-MIN K12N 190150Z AUTO 36006KT 06/M03 A2994 570 55 -300 010/06 RMK AO1 SLP141 T00561028
54779K12N 12N20160318205510003/18/16 20:55:31  5-MIN K12N 190155Z AUTO 35005KT 06/M03 A2994 570 55 -300 360/05 RMK AO1 T00561028
54779K12N 12N20160318210010003/18/16 21:00:31  5-MIN K12N 190200Z AUTO VRB04KT 06/M03 A2994 570 55 -300 VRB/04 RMK AO1 T00561028
54779K12N 12N20160318210511603/18/16 21:05:31  5-MIN K12N 190205Z AUTO 36007KT 330V040 06/M02 A2994 570 57 -300 010/07 340V050 RMK AO1 T00561022
54779K12N 12N20160318211009003/18/16 21:10:31  5-MIN K12N 190210Z AUTO 05/M03 A2994 570 57 -400 M /M RMK AO1 T00501028
54779K12N 12N20160318211510003/18/16 21:15:31  5-MIN K12N 190215Z AUTO VRB06KT 05/M03 A2994 560 57 -400 VRB/06 RMK AO1 T00501028
54779K12N 12N20160318212010003/18/16 21:20:31  5-MIN K12N 190220Z AUTO 03007KT 05/M03 A2995 560 57 -400 040/07 RMK AO1 T00501028
54779K12N 12N20160318212510003/18/16 21:25:31  5-MIN K12N 190225Z AUTO 35005KT 05/M03 A2995 560 57 -400 360/05 RMK AO1 T00501028
54779K12N 12N20160318213010003/18/16 21:30:31  5-MIN K12N 190230Z AUTO VRB03KT 04/M03 A2995 560 59 -500 VRB/03 RMK AO1 T00441028
54779K12N 12N20160318213510003/18/16 21:35:31  5-MIN K12N 190235Z AUTO 00000KT 04/M03 A2996 550 59 -500 000/00 RMK AO1 T00441028
54779K12N 12N20160318214010003/18/16 21:40:31  5-MIN K12N 190240Z AUTO VRB03KT 04/M03 A2996 550 59 -500 VRB/03 RMK AO1 T00441028
54779K12N 12N20160318214510003/18/16 21:45:31  5-MIN K12N 190245Z AUTO 33003KT 04/M03 A2996 550 62 -600 340/03 RMK AO1 T00391028
54779K12N 12N20160318215011303/18/16 21:50:31  5-MIN K12N 190250Z AUTO 00000KT 04/M03 A2996 550 62 -600 000/00 RMK AO1 SLP150 T00391028 53018
54779K12N 12N20160318215509003/18/16 21:55:31  5-MIN K12N 190255Z AUTO 03/M03 A2996 550 64 -600 M /M RMK AO1 T00331028
54779K12N 12N20160318220010003/18/16 22:00:31  5-MIN K12N 190300Z AUTO 34006KT 04/M03 A2996 550 59 -600 360/06 RMK AO1 T00391033
54779K12N 12N20160318220510003/18/16 22:05:31  5-MIN K12N 190305Z AUTO 00000KT 04/M03 A2996 540 59 -600 000/00 RMK AO1 T00391033
54779K12N 12N20160318221010003/18/16 22:10:31  5-MIN K12N 190310Z AUTO VRB04KT 04/M03 A2996 550 59 -600 VRB/04 RMK AO1 T00391033
54779K12N 12N20160318221510003/18/16 22:15:31  5-MIN K12N 190315Z AUTO 00000KT 04/M03 A2996 540 59 -600 000/00 RMK AO1 T00391033
54779K12N 12N20160318222010003/18/16 22:20:31  5-MIN K12N 190320Z AUTO VRB06KT 03/M03 A2997 540 61 -700 VRB/06 RMK AO1 T00331033
54779K12N 12N20160318222510003/18/16 22:25:31  5-MIN K12N 190325Z AUTO VRB05KT 03/M03 A2997 540 61 -700 VRB/05 RMK AO1 T00331033
54779K12N 12N20160318223010003/18/16 22:30:31  5-MIN K12N 190330Z AUTO VRB05KT 03/M03 A2997 540 61 -700 VRB/05 RMK AO1 T00331033
54779K12N 12N20160318223510003/18/16 22:35:31  5-MIN K12N 190335Z AUTO 35003KT 03/M03 A2997 540 61 -700 360/03 RMK AO1 T00331033
54779K12N 12N20160318224010003/18/16 22:40:31  5-MIN K12N 190340Z AUTO 36003KT 03/M03 A2997 540 61 -700 010/03 RMK AO1 T00331033
54779K12N 12N20160318224510003/18/16 22:45:31  5-MIN K12N 190345Z AUTO 00000KT 03/M03 A2997 540 61 -700 000/00 RMK AO1 T00331033
54779K12N 12N20160318225010703/18/16 22:50:31  5-MIN K12N 190350Z AUTO 00000KT 03/M03 A2998 530 67 -700 000/00 RMK AO1 SLP156 T00281028
54779K12N 12N20160318225510003/18/16 22:55:31  5-MIN K12N 190355Z AUTO 00000KT 02/M03 A2998 530 69 -800 000/00 RMK AO1 T00221028
54779K12N 12N20160318230010003/18/16 23:00:31  5-MIN K12N 190400Z AUTO 00000KT 03/M03 A2998 530 67 -700 000/00 RMK AO1 T00281028
54779K12N 12N20160318230510003/18/16 23:05:31  5-MIN K12N 190405Z AUTO 00000KT 03/M03 A2998 530 67 -700 000/00 RMK AO1 T00281028
54779K12N 12N20160318231010003/18/16 23:10:31  5-MIN K12N 190410Z AUTO VRB04KT 02/M03 A2998 530 67 -800 VRB/04 RMK AO1 T00221033
54779K12N 12N20160318231510003/18/16 23:15:31  5-MIN K12N 190415Z AUTO 00000KT 02/M03 A2998 530 67 -800 000/00 RMK AO1 T00221033
54779K12N 12N20160318232010003/18/16 23:20:31  5-MIN K12N 190420Z AUTO 00000KT 03/M03 A2999 520 64 -700 000/00 RMK AO1 T00281033
54779K12N 12N20160318232510003/18/16 23:25:31  5-MIN K12N 190425Z AUTO 00000KT 02/M04 A2999 520 64 -800 000/00 RMK AO1 T00221039
54779K12N 12N20160318233010003/18/16 23:30:31  5-MIN K12N 190430Z AUTO 00000KT 03/M04 A2999 520 61 -700 000/00 RMK AO1 T00281039
54779K12N 12N20160318233510003/18/16 23:35:31  5-MIN K12N 190435Z AUTO 02004KT 02/M04 A2999 520 64 -800 030/04 RMK AO1 T00221039
54779K12N 12N20160318234010003/18/16 23:40:31  5-MIN K12N 190440Z AUTO 05003KT 03/M04 A3000 520 59 -800 070/03 RMK AO1 T00281044
54779K12N 12N20160318234510003/18/16 23:45:31  5-MIN K12N 190445Z AUTO 00000KT 03/M05 A3000 510 56 -800 000/00 RMK AO1 T00281050
54779K12N 12N20160318235011703/18/16 23:50:31  5-MIN K12N 190450Z AUTO VRB03KT 02/M04 A3000 510 61 -800 VRB/03 RMK AO1 SLP164 T00221044 401220006
54779K12N 12N20160318235510003/18/16 23:55:31  5-MIN K12N 190455Z AUTO 00000KT 02/M05 A3001 510 59 -800 000/00 RMK AO1 T00221050
54779K12N 12N20160319000010003/19/16 00:00:31  5-MIN K12N 190500Z AUTO 09003KT 02/M05 A3001 500 59 -800 100/03 RMK AO1 T00221050
54779K12N 12N20160319000510003/19/16 00:05:31  5-MIN K12N 190505Z AUTO 00000KT 02/M04 A3001 500 64 -900 000/00 RMK AO1 T00171044
54779K12N 12N20160319001010003/19/16 00:10:31  5-MIN K12N 190510Z AUTO 00000KT 02/M05 A3001 500 61 -900 000/00 RMK AO1 T00171050
54779K12N 12N20160319001510103/19/16 00:15:31  5-MIN K12N 190515Z AUTO 30003KT 01/M05 A3001 500 66 -1100 310/03 RMK AO1 T00061050
54779K12N 12N20160319002007103/19/16 00:20:31  5-MIN K12N 190520Z AUTO 00000KT 01/M04 A3001 500 69 
54779K12N 12N20160319182010003/19/16 18:20:31  5-MIN K12N 192320Z AUTO 00000KT 04/M11 A3006 450 33 -600 000/00 RMK AO1 T00441106
54779K12N 12N20160319182510003/19/16 18:25:31  5-MIN K12N 192325Z AUTO 00000KT 05/M10 A3006 460 33 -600 000/00 RMK AO1 T00501100
54779K12N 12N20160319183010003/19/16 18:30:31  5-MIN K12N 192330Z AUTO 00000KT 05/M11 A3006 460 31 -600 000/00 RMK AO1 T00501106
54779K12N 12N20160319183510003/19/16 18:35:31  5-MIN K12N 192335Z AUTO 00000KT 04/M11 A3006 450 33 -600 000/00 RMK AO1 T00441106
54779K12N 12N20160319184010003/19/16 18:40:31  5-MIN K12N 192340Z AUTO 00000KT 04/M11 A3006 450 33 -600 000/00 RMK AO1 T00441106
54779K12N 12N20160319184510003/19/16 18:45:31  5-MIN K12N 192345Z AUTO 00000KT 04/M09 A3006 450 37 -700 000/00 RMK AO1 T00391094
54779K12N 12N20160319185012503/19/16 18:50:31  5-MIN K12N 192350Z AUTO 00000KT 04/M07 A3006 450 44 -700 000/00 RMK AO1 SLP191 T00391072 10078 20039 55009
54779K12N 12N20160319185510003/19/16 18:55:31  5-MIN K12N 192355Z AUTO 00000KT 04/M09 A3007 450 37 -700 000/00 RMK AO1 T00391094
54779K12N 12N20160319190010003/19/16 19:00:31  5-MIN K12N 200000Z AUTO 00000KT 03/M09 A3007 450 39 -800 000/00 RMK AO1 T00331094
54779K12N 12N20160319190510003/19/16 19:05:31  5-MIN K12N 200005Z AUTO 00000KT 03/M09 A3007 450 40 -800 000/00 RMK AO1 T00331089
54779K12N 12N20160319191010003/19/16 19:10:31  5-MIN K12N 200010Z AUTO 00000KT 04/M09 A3007 450 39 -700 000/00 RMK AO1 T00391089
54779K12N 12N20160319191510003/19/16 19:15:31  5-MIN K12N 200015Z AUTO 00000KT 04/M09 A3007 450 39 -700 000/00 RMK AO1 T00391089
54779K12N 12N20160319192010003/19/16 19:20:31  5-MIN K12N 200020Z AUTO 00000KT 03/M09 A3007 450 40 -800 000/00 RMK AO1 T00281094
54779K12N 12N20160319192510003/19/16 19:25:31  5-MIN K12N 200025Z AUTO 00000KT 03/M09 A3008 440 40 -800 000/00 RMK AO1 T00331089
54779K12N 12N20160319193010003/19/16 19:30:31  5-MIN K12N 200030Z AUTO 00000KT 03/M07 A3008 440 48 -800 000/00 RMK AO1 T00331067
54779K12N 12N20160319193510003/19/16 19:35:31  5-MIN K12N 200035Z AUTO 00000KT 03/M08 A3007 440 42 -800 000/00 RMK AO1 T00331083
54779K12N 12N20160319194010003/19/16 19:40:31  5-MIN K12N 200040Z AUTO 00000KT 03/M09 A3007 450 40 -800 000/00 RMK AO1 T00331089
54779K12N 12N20160319194510003/19/16 19:45:31  5-MIN K12N 200045Z AUTO 00000KT 03/M09 A3007 450 39 -800 000/00 RMK AO1 T00331094
54779K12N 12N20160319195010703/19/16 19:50:31  5-MIN K12N 200050Z AUTO 00000KT 03/M08 A3007 450 42 -800 000/00 RMK AO1 SLP190 T00331083
54779K12N 12N20160319195510003/19/16 19:55:31  5-MIN K12N 200055Z AUTO 00000KT 03/M09 A3008 440 39 -800 000/00 RMK AO1 T00331094
54779K12N 12N20160319200010003/19/16 20:00:31  5-MIN K12N 200100Z AUTO 00000KT 03/M09 A3007 450 40 -800 000/00 RMK AO1 T00331089
54779K12N 12N20160319200510003/19/16 20:05:31  5-MIN K12N 200105Z AUTO 00000KT 03/M09 A3008 440 39 -800 000/00 RMK AO1 T00331094
54779K12N 12N20160319201010003/19/16 20:10:31  5-MIN K12N 200110Z AUTO 00000KT 03/M10 A3007 440 37 -800 000/00 RMK AO1 T00331100
54779K12N 12N20160319201507103/19/16 20:15:31  5-MIN K12N 200115Z AUTO 00000KT M M M 000/00 RMK AO1
54779K12N 12N20160319202010003/19/16 20:20:31  5-MIN K12N 200120Z AUTO 00000KT 03/M09 A3008 440 40 -900 000/00 RMK AO1 T00281094
54779K12N 12N20160319202510003/19/16 20:25:31  5-MIN K12N 200125Z AUTO 00000KT 03/M09 A3008 440 40 -900 000/00 RMK AO1 T00281094
54779K12N 12N20160319203010003/19/16 20:30:31  5-MIN K12N 200130Z AUTO 35003KT 03/M09 A3009 430 42 -900 010/03 RMK AO1 T00281089
54779K12N 12N20160319203510003/19/16 20:35:31  5-MIN K12N 200135Z AUTO 36003KT 02/M09 A3009 430 42 -900 010/03 RMK AO1 T00221094
54779K12N 12N20160319204010003/19/16 20:40:31  5-MIN K12N 200140Z AUTO VRB03KT 02/M10 A3008 430 40 -900 VRB/03 RMK AO1 T00221100
54779K12N 12N20160319204510003/19/16 20:45:31  5-MIN K12N 200145Z AUTO 00000KT 02/M09 A3008 440 42 -900 000/00 RMK AO1 T00221094
54779K12N 12N20160319205010703/19/16 20:50:31  5-MIN K12N 200150Z AUTO VRB04KT 03/M09 A3008 440 40 -900 VRB/04 RMK AO1 SLP194 T00281094
54779K12N 12N20160319205510003/19/16 20:55:31  5-MIN K12N 200155Z AUTO VRB03KT 03/M11 A3008 440 34 -800 VRB/03 RMK AO1 T00331111
54779K12N 12N20160319210010003/19/16 21:00:31  5-MIN K12N 200200Z AUTO 00000KT 03/M10 A3009 430 37 -800 000/00 RMK AO1 T00331100
54779K12N 12N20160319210510003/19/16 21:05:31  5-MIN K12N 200205Z AUTO 04004KT 03/M10 A3009 430 38 -900 050/04 RMK AO1 T00281100
54779K12N 12N20160319211010003/19/16 21:10:31  5-MIN K12N 200210Z AUTO VRB03KT 03/M10 A3009 430 38 -900 VRB/03 RMK AO1 T00281100
54779K12N 12N20160319211510003/19/16 21:15:31  5-MIN K12N 200215Z AUTO VRB04KT 03/M10 A3009 430 38 -900 VRB/04 RMK AO1 T00281100
54779K12N 12N20160319212010003/19/16 21:20:31  5-MIN K12N 200220Z AUTO 04005KT 03/M11 A3010 420 37 -900 050/05 RMK AO1 T00281106
54779K12N 12N20160319212510003/19/16 21:25:31  5-MIN K12N 200225Z AUTO 04004KT 03/M11 A3010 420 37 -900 050/04 RMK AO1 T00281106
54779K12N 12N20160319213010003/19/16 21:30:31  5-MIN K12N 200230Z AUTO VRB03KT 02/M10 A3010 420 40 -900 VRB/03 RMK AO1 T00221100
54779K12N 12N20160319213510003/19/16 21:35:31  5-MIN K12N 200235Z AUTO VRB04KT 02/M12 A3010 420 35 -900 VRB/04 RMK AO1 T00221117
54779K12N 12N20160319214010003/19/16 21:40:31  5-MIN K12N 200240Z AUTO VRB03KT 02/M12 A3010 420 35 -900 VRB/03 RMK AO1 T00221117
54779K12N 12N20160319214510103/19/16 21:45:31  5-MIN K12N 200245Z AUTO VRB03KT 02/M11 A3010 420 40 -1000 VRB/03 RMK AO1 T00171106
54779K12N 12N20160319215010703/19/16 21:50:31  5-MIN K12N 200250Z AUTO 04004KT 02/M12 A3010 420 35 -900 060/04 RMK AO1 SLP202 T00221117
54779K12N 12N20160319215510003/19/16 21:55:31  5-MIN K12N 200255Z AUTO 04003KT 02/M12 A3010 420 35 -900 050/03 RMK AO1 T00221117
54779K12N 12N20160319220010103/19/16 22:00:31  5-MIN K12N 200300Z AUTO 04003KT 02/M11 A3010 410 38 -1000 050/03 RMK AO1 T00171111
54779K12N 12N20160319220510103/19/16 22:05:31  5-MIN K12N 200305Z AUTO VRB03KT 01/M11 A3010 420 40 -1100 VRB/03 RMK AO1 T00111111
54779K12N 12N20160319221010103/19/16 22:10:31  5-MIN K12N 200310Z AUTO 05003KT 01/M11 A3010 420 40 -1100 060/03 RMK AO1 T00111111
54779K12N 12N20160319221510103/19/16 22:15:31  5-MIN K12N 200315Z AUTO 04004KT 01/M12 A3010 420 38 -1100 050/04 RMK AO1 T00111117
54779K12N 12N20160319222010103/19/16 22:20:31  5-MIN K12N 200320Z AUTO 04004KT 01/M11 A3011 410 41 -1100 060/04 RMK AO1 T00111106
54779K12N 12N20160319222510103/19/16 22:25:31  5-MIN K12N 200325Z AUTO VRB03KT 01/M10 A3010 420 43 -1100 VRB/03 RMK AO1 T00111100
54779K12N 12N20160319223010103/19/16 22:30:31  5-MIN K12N 200330Z AUTO 00000KT 01/M10 A3011 410 45 -1200 000/00 RMK AO1 T00061100
54779K12N 12N20160319223510103/19/16 22:35:31  5-MIN K12N 200335Z AUTO 04003KT 01/M10 A3010 420 45 -1200 050/03 RMK AO1 T00061100
54779K12N 12N20160319224010103/19/16 22:40:31  5-MIN K12N 200340Z AUTO 04004KT 01/M10 A3011 410 45 -1200 050/04 RMK AO1 T00061100
54779K12N 12N20160319224510103/19/16 22:45:31  5-MIN K12N 200345Z AUTO 05005KT 01/M11 A3011 410 43 -1200 060/05 RMK AO1 T00061106
54779K12N 12N20160319225010803/19/16 22:50:31  5-MIN K12N 200350Z AUTO 04004KT 01/M11 A3011 410 41 -1200 060/04 RMK AO1 SLP204 T00061111
54779K12N 12N20160319225510103/19/16 22:55:31  5-MIN K12N 200355Z AUTO 04003KT 01/M11 A3011 410 43 -1200 060/03 RMK AO1 T00061106
54779K12N 12N20160319230010103/19/16 23:00:31  5-MIN K12N 200400Z AUTO 00000KT 01/M11 A3011 410 41 -1200 000/00 RMK AO1 T00061111
54779K12N 12N20160319230510103/19/16 23:05:31  5-MIN K12N 200405Z AUTO 00000KT 00/M11 A3011 410 45 -1200 000/00 RMK AO1 T00001106
54779K12N 12N20160319231010103/19/16 23:10:31  5-MIN K12N 200410Z AUTO 00000KT 00/M11 A3010 420 45 -1200 000/00 RMK AO1 T00001106
54779K12N 12N20160319231510103/19/16 23:15:31  5-MIN K12N 200415Z AUTO 00000KT 00/M10 A3010 420 47 -1200 000/00 RMK AO1 T00001100
54779K12N 12N20160319232010103/19/16 23:20:31  5-MIN K12N 200420Z AUTO 00000KT 00/M10 A3010 420 47 -1200 000/00 RMK AO1 T00001100
54779K12N 12N20160319232510103/19/16 23:25:31  5-MIN K12N 200425Z AUTO 04003KT 00/M10 A3010 420 47 -1200 050/03 RMK AO1 T00001100
54779K12N 12N20160319233010103/19/16 23:30:31  5-MIN K12N 200430Z AUTO 00000KT 00/M10 A3010 420 47 -1200 000/00 RMK AO1 T00001100
54779K12N 12N20160319233510103/19/16 23:35:31  5-MIN K12N 200435Z AUTO 04004KT 00/M10 A3010 420 47 -1200 050/04 RMK AO1 T00001100
54779K12N 12N20160319234010103/19/16 23:40:31  5-MIN K12N 200440Z AUTO 04004KT 00/M11 A3009 430 45 -1200 050/04 RMK AO1 T00001106
54779K12N 12N20160319234510103/19/16 23:45:31  5-MIN K12N 200445Z AUTO 04005KT 00/M11 A3009 430 45 -1200 060/05 RMK AO1 T00001106
54779K12N 12N20160319235011803/19/16 23:50:31  5-MIN K12N 200450Z AUTO 04004KT 01/M11 A3009 430 41 -1100 050/04 RMK AO1 SLP198 T00061111 400781022
54779K12N 12N20160319235510103/19/16 23:55:31  5-MIN K12N 200455Z AUTO 04004KT 01/M10 A3009 430 45 -1100 050/04 RMK AO1 T00061100
54779K12N 12N20160320000010103/20/16 00:00:31  5-MIN K12N 200500Z AUTO VRB03KT 01/M10 A3009 420 45 -1100 VRB/03 RMK AO1 T00061100
54779K12N 12N20160320000510103/20/16 00:05:31  5-MIN K12N 200505Z AUTO 04004KT 00/M11 A3009 420 45 -1200 050/04 RMK AO1 T00001106
54779K12N 12N20160320001010103/20/16 00:10:31  5-MIN K12N 200510Z AUTO 04004KT 00/M11 A3009 430 43 -1200 050/04 RMK AO1 T00001111
54779K12N 12N20160320001510103/20/16 00:15:31  5-MIN K12N 200515Z AUTO 00000KT 00/M11 A3010 420 45 -1200 000/00 RMK AO1 T00001106
54779K12N 12N20160320002010103/20/16 00:20:31  5-MIN K12N 200520Z AUTO 04004KT 00/M10 A3009 430 47 -1200 050/04 RMK AO1 T00001100
54779K12N 12N20160320002510103/20/16 00:25:31  5-MIN K12N 200525Z AUTO 04005KT 00/M11 A3009 430 45 -1200 050/05 RMK AO1 T00001106
54779K12N 12N20160320003010103/20/16 00:30:31  5-MIN K12N 200530Z AUTO 04005KT 00/M11 A3009 430 45 -1200 060/05 RMK AO1 T00001106
54779K12N 12N20160320003510103/20/16 00:35:31  5-MIN K12N 200535Z AUTO 04004KT 00/M11 A3010 420 45 -1200 060/04 RMK AO1 T00001106
54779K12N 12N20160320004010103/20/16 00:40:31  5-MIN K12N 200540Z AUTO 05004KT 00/M11 A3010 420 43 -1200 060/04 RMK AO1 T00001111
54779K12N 12N20160320004510103/20/16 00:45:31  5-MIN K12N 200545Z AUTO VRB04KT 00/M12 A3010 410 41 -1200 VRB/04 RMK AO1 T00001117
54779K12N 12N20160320005012003/20/16 00:50:31  5-MIN K12N 200550Z AUTO 04004KT 01/M11 A3011 410 43 -1200 050/04 RMK AO1 SLP204 T00061106 10039 21006
54779K12N 12N20160320005510103/20/16 00:55:31  5-MIN K12N 200555Z AUTO 04005KT 01/M11 A3011 410 43 -1200 060/05 RMK AO1 T00061106
54779K12N 12N20160320010010103/20/16 01:00:31  5-MIN K12N 200600Z AUTO 00000KT 00/M11 A3012 410 45 -1200 000/00 RMK AO1 T00001106
54779K12N 12N20160320010510103/20/16 01:05:31  5-MIN K12N 200605Z AUTO 04004KT 00/M11 A3012 400 45 -1200 060/04 RMK AO1 T00001106
54779K12N 12N20160320011010103/20/16 01:10:31  5-MIN K12N 200610Z AUTO 05003KT 00/M11 A3012 400 43 -1200 060/03 RMK AO1 T00001111
54779K12N 12N20160320011510103/20/16 01:15:31  5-MIN K12N 200615Z AUTO 05003KT 00/M12 A3012 410 41 -1200 060/03 RMK AO1 T00001117
54779K12N 12N20160320012010103/20/16 01:20:31  5-MIN K12N 200620Z AUTO 05004KT 00/M11 A3012 400 43 -1200 060/04 RMK AO1 T00001111
54779K12N 12N20160320012510103/20/16 01:25:31  5-MIN K12N 200625Z AUTO 05004KT 00/M11 A3011 410 43 -1200 060/04 RMK AO1 T00001111
54779K12N 12N20160320013010103/20/16 01:30:31  5-MIN K12N 200630Z AUTO 04005KT 00/M11 A3011 410 43 -1200 060/05 RMK AO1 T00001111
54779K12N 12N20160320013510103/20/16 01:35:31  5-MIN K12N 200635Z AUTO 04004KT 00/M12 A3011 410 41 -1200 060/04 RMK AO1 T00001117
54779K12N 12N20160320014010103/20/16 01:40:31  5-MIN K12N 200640Z AUTO 04005KT 00/M11 A3011 410 43 -1200 050/05 RMK AO1 T00001111
54779K12N 12N20160320014510103/20/16 01:45:31  5-MIN K12N 200645Z AUTO 05007KT 00/M12 A3011 410 41 -1200 060/07 RMK AO1 T00001117
54779K12N 12N20160320015010803/20/16 01:50:31  5-MIN K12N 200650Z AUTO 04005KT 00/M12 A3011 410 41 -1200 060/05 RMK AO1 SLP204 T00001117
54779K12N 12N20160320015510103/20/16 01:55:31  5-MIN K12N 200655Z AUTO 04007KT 00/M12 A3011 410 41 -1200 050/07 RMK AO1 T00001117
54779K12N 12N20160320020010103/20/16 02:00:31  5-MIN K12N 200700Z AUTO 04008KT 00/M12 A3011 410 39 -1200 060/08 RMK AO1 T00001122
54779K12N 12N20160320020510103/20/16 02:05:31  5-MIN K12N 200705Z AUTO 04006KT 00/M12 A3011 410 39 -1200 050/06 RMK AO1 T00001122
54779K12N 12N20160320021010103/20/16 02:10:31  5-MIN K12N 200710Z AUTO 04006KT 00/M12 A3011 410 41 -1200 050/06 RMK AO1 T00001117
54779K12N 12N20160320021510203/20/16 02:15:31  5-MIN K12N 200715Z AUTO VRB05KT M01/M12 A3011 410 43 -1300 VRB/05 RMK AO1 T10061117
54779K12N 12N20160320022010203/20/16 02:20:31  5-MIN K12N 200720Z AUTO 05005KT M01/M12 A3011 410 41 -1300 060/05 RMK AO1 T10061122
54779K12N 12N20160320022510203/20/16 02:25:31  5-MIN K12N 200725Z AUTO 05007KT M01/M12 A3011 410 43 -1300 060/07 RMK AO1 T10061117
54779K12N 12N20160320023010203/20/16 02:30:31  5-MIN K12N 200730Z AUTO 05005KT M01/M12 A3011 410 43 -1300 060/05 RMK AO1 T10061117
54779K12N 12N20160320023510203/20/16 02:35:31  5-MIN K12N 200735Z AUTO 05005KT M01/M12 A3011 410 43 -1300 060/05 RMK AO1 T10061117
54779K12N 12N20160320024010203/20/16 02:40:31  5-MIN K12N 200740Z AUTO 04006KT M01/M12 A3011 410 43 -1300 060/06 RMK AO1 T10061117
54779K12N 12N20160320024510203/20/16 02:45:31  5-MIN K12N 200745Z AUTO 04006KT M01/M12 A3011 410 43 -1300 050/06 RMK AO1 T10061117
54779K12N 12N20160320025010903/20/16 02:50:31  5-MIN K12N 200750Z AUTO 04006KT M01/M12 A3011 410 43 -1300 060/06 RMK AO1 SLP203 T10061117
54779K12N 12N20160320025510203/20/16 02:55:31  5-MIN K12N 200755Z AUTO 04005KT M01/M12 A3011 410 43 -1300 050/05 RMK AO1 T10061117
54779K12N 12N20160320030010203/20/16 03:00:31  5-MIN K12N 200800Z AUTO 04005KT M01/M11 A3011 410 45 -1300 060/05 RMK AO1 T10061111
54779K12N 12N20160320030510203/20/16 03:05:31  5-MIN K12N 200805Z AUTO 04006KT M01/M11 A3011 410 47 -1400 060/06 RMK AO1 T10111111
54779K12N 12N20160320031010203/20/16 03:10:31  5-MIN K12N 200810Z AUTO 04007KT M01/M11 A3011 410 47 -1400 050/07 RMK AO1 T10111111
54779K12N 12N20160320031510203/20/16 03:15:31  5-MIN K12N 200815Z AUTO 04007KT M01/M11 A3011 410 47 -1400 060/07 RMK AO1 T10111111
54779K12N 12N20160320032010203/20/16 03:20:31  5-MIN K12N 200820Z AUTO 04007KT M01/M11 A3010 420 47 -1400 050/07 RMK AO1 T10111111
54779K12N 12N20160320032510203/20/16 03:25:31  5-MIN K12N 200825Z AUTO 04006KT M01/M12 A3011 410 45 -1400 060/06 RMK AO1 T10111117
54779K12N 12N20160320033010203/20/16 03:30:31  5-MIN K12N 200830Z AUTO 04006KT M01/M12 A3011 410 45 -1400 060/06 RMK AO1 T10111117
54779K12N 12N20160320033510203/20/16 03:35:31  5-MIN K12N 200835Z AUTO 04006KT M01/M11 A3010 420 47 -1400 060/06 RMK AO1 T10111111
54779K12N 12N20160320034010203/20/16 03:40:31  5-MIN K12N 200840Z AUTO 04006KT M01/M12 A3011 410 45 -1400 060/06 RMK AO1 T10111117
54779K12N 12N20160320034510203/20/16 03:45:31  5-MIN K12N 200845Z AUTO 04005KT M01/M12 A3011 410 45 -1400 060/05 RMK AO1 T10111117
54779K12N 12N20160320035011503/20/16 03:50:31  5-MIN K12N 200850Z AUTO 04007KT M01/M12 A3011 410 45 -1400 050/07 RMK AO1 SLP203 T10111117 53003
54779K12N 12N20160320035510203/20/16 03:55:31  5-MIN K12N 200855Z AUTO 04007KT M01/M11 A3011 410 47 -1400 050/07 RMK AO1 T10111111
54779K12N 12N20160320040010203/20/16 04:00:31  5-MIN K12N 200900Z AUTO 04008KT M01/M12 A3011 410 45 -1400 060/08 RMK AO1 T10111117
54779K12N 12N20160320040510203/20/16 04:05:31  5-MIN K12N 200905Z AUTO 04008KT M02/M12 A3011 410 46 -1400 060/08 RMK AO1 T10171117
54779K12N 12N20160320041010203/20/16 04:10:31  5-MIN K12N 200910Z AUTO VRB06KT M02/M12 A3012 410 46 -1500 VRB/06 RMK AO1 T10171117
54779K12N 12N20160320041510203/20/16 04:15:31  5-MIN K12N 200915Z AUTO 04008KT M02/M12 A3011 410 46 -1500 050/08 RMK AO1 T10171117
54779K12N 12N20160320042010203/20/16 04:20:31  5-MIN K12N 200920Z AUTO 04008KT M02/M12 A3011 410 46 -1400 060/08 RMK AO1 T10171117
54779K12N 12N20160320042510203/20/16 04:25:31  5-MIN K12N 200925Z AUTO 03007KT M02/M12 A3011 410 44 -1400 050/07 RMK AO1 T10171122
54779K12N 12N20160320043010203/20/16 04:30:31  5-MIN K12N 200930Z AUTO 04006KT M02/M12 A3012 400 46 -1500 050/06 RMK AO1 T10171117
54779K12N 12N20160320043510203/20/16 04:35:31  5-MIN K12N 200935Z AUTO 04007KT M02/M12 A3012 400 46 -1500 050/07 RMK AO1 T10171117
54779K12N 12N20160320044010203/20/16 04:40:31  5-MIN K12N 200940Z AUTO 04008KT M02/M12 A3012 400 46 -1500 050/08 RMK AO1 T10171117
54779K12N 12N20160320044510203/20/16 04:45:31  5-MIN K12N 200945Z AUTO 04006KT M02/M12 A3012 400 46 -1500 050/06 RMK AO1 T10171117
54779K12N 12N20160320045010903/20/16 04:50:31  5-MIN K12N 200950Z AUTO VRB05KT M02/M12 A3012 400 46 -1500 VRB/05 RMK AO1 SLP209 T10171117
54779K12N 12N20160320045510203/20/16 04:55:31  5-MIN K12N 200955Z AUTO 05007KT M02/M12 A3013 390 44 -1500 060/07 RMK AO1 T10171122
54779K12N 12N20160320050010203/20/16 05:00:31  5-MIN K12N 201000Z AUTO 04008KT M02/M12 A3013 390 44 -1500 060/08 RMK AO1 T10171122
54779K12N 12N20160320050510203/20/16 05:05:31  5-MIN K12N 201005Z AUTO 04005KT M02/M12 A3013 400 44 -1500 050/05 RMK AO1 T10171122
54779K12N 12N20160320051010203/20/16 05:10:31  5-MIN K12N 201010Z AUTO 05006KT M02/M12 A3013 390 46 -1500 060/06 RMK AO1 T10221122
54779K12N 12N20160320051510203/20/16 05:15:31  5-MIN K12N 201015Z AUTO 04008KT M02/M12 A3013 400 46 -1500 050/08 RMK AO1 T10221122
54779K12N 12N20160320052010203/20/16 05:20:31  5-MIN K12N 201020Z AUTO VRB05KT M02/M12 A3013 390 46 -1500 VRB/05 RMK AO1 T10171117
54779K12N 12N20160320052510203/20/16 05:25:31  5-MIN K12N 201025Z AUTO VRB05KT M02/M12 A3013 390 46 -1500 VRB/05 RMK AO1 T10171117
54779K12N 12N20160320053010203/20/16 05:30:31  5-MIN K12N 201030Z AUTO 03005KT M02/M12 A3013 390 44 -1500 050/05 RMK AO1 T10171122
54779K12N 12N20160320053510203/20/16 05:35:31  5-MIN K12N 201035Z AUTO 04005KT M02/M12 A3013 390 44 -1500 050/05 RMK AO1 T10171122
54779K12N 12N20160320054010203/20/16 05:40:31  5-MIN K12N 201040Z AUTO 05007KT M02/M12 A3014 380 44 -1500 060/07 RMK AO1 T10171122
54779K12N 12N20160320054510203/20/16 05:45:31  5-MIN K12N 201045Z AUTO VRB06KT M02/M12 A3014 380 44 -1500 VRB/06 RMK AO1 T10171122
54779K12N 12N20160320055010903/20/16 05:50:31  5-MIN K12N 201050Z AUTO 04006KT M02/M12 A3014 380 44 -1500 060/06 RMK AO1 SLP215 T10171122
54779K12N 12N20160320055510203/20/16 05:55:31  5-MIN K12N 201055Z AUTO VRB06KT M02/M12 A3014 390 46 -1500 VRB/06 RMK AO1 T10171117
54779K12N 12N20160320060011803/20/16 06:00:31  5-MIN K12N 201100Z AUTO 04007KT 350V060 M02/M12 A3014 380 46 -1500 050/07 360V070 RMK AO1 T10221122
54779K12N 12N20160320060510203/20/16 06:05:31  5-MIN K12N 201105Z AUTO 04006KT M02/M12 A3014 380 46 -1500 050/06 RMK AO1 T10171117
54779K12N 12N20160320061010203/20/16 06:10:31  5-MIN K12N 201110Z AUTO VRB04KT M02/M12 A3014 380 48 -1600 VRB/04 RMK AO1 T10221117
54779K12N 12N20160320061510203/20/16 06:15:31  5-MIN K12N 201115Z AUTO 04005KT M02/M12 A3015 380 46 -1600 060/05 RMK AO1 T10221122
54779K12N 12N20160320063510203/20/16 06:35:31  5-MIN K12N 201135Z AUTO VRB05KT M02/M12 A3015 370 48 -1600 VRB/05 RMK AO1 T10221117
54779K12N 12N20160320064010203/20/16 06:40:31  5-MIN K12N 201140Z AUTO VRB06KT M02/M12 A3016 370 48 -1600 VRB/06 RMK AO1 T10221117
54779K12N 12N20160320064510203/20/16 06:45:31  5-MIN K12N 201145Z AUTO VRB06KT M02/M12 A3016 370 48 -1600 VRB/06 RMK AO1 T10221117
54779K12N 12N20160320065014303/20/16 06:50:31  5-MIN K12N 201150Z AUTO 03008KT 340V050 M02/M12 A3016 370 48 -1600 050/08 350V060 RMK AO1 SLP222 T10221117 10006 21022 56000
54779K12N 12N20160320065510803/20/16 06:55:31  5-MIN K12N 201155Z AUTO 04009G15KT M02/M11 A3015 370 51 -1600 050/09G15 RMK AO1 T10221111
54779K12N 12N20160320070010803/20/16 07:00:31  5-MIN K12N 201200Z AUTO 03007G15KT M02/M12 A3015 370 48 -1600 050/07G15 RMK AO1 T10221117
54779K12N 12N20160320070510203/20/16 07:05:31  5-MIN K12N 201205Z AUTO 04007KT M02/M11 A3016 370 51 -1600 050/07 RMK AO1 T10221111
54779K12N 12N20160320071010203/20/16 07:10:31  5-MIN K12N 201210Z AUTO 04007KT M02/M11 A3015 370 51 -1600 050/07 RMK AO1 T10221111
54779K12N 12N20160320072010203/20/16 07:20:31  5-MIN K12N 201220Z AUTO 04008KT M02/M11 A3015 380 51 -1500 050/08 RMK AO1 T10171106
54779K12N 12N20160320072511803/20/16 07:25:31  5-MIN K12N 201225Z AUTO 03007KT 340V050 M02/M11 A3015 370 51 -1500 040/07 350V060 RMK AO1 T10171106
54779K12N 12N20160320073010203/20/16 07:30:31  5-MIN K12N 201230Z AUTO VRB06KT M02/M11 A3015 380 49 -1500 VRB/06 RMK AO1 T10171111
54779K12N 12N20160320073510203/20/16 07:35:31  5-MIN K12N 201235Z AUTO 03006KT M02/M11 A3015 370 49 -1500 050/06 RMK AO1 T10171111
54779K12N 12N20160320074011803/20/16 07:40:31  5-MIN K12N 201240Z AUTO 03007KT 340V060 M02/M11 A3015 370 51 -1500 050/07 350V070 RMK AO1 T10171106
54779K12N 12N20160320074510203/20/16 07:45:31  5-MIN K12N 201245Z AUTO VRB06KT M02/M11 A3014 380 51 -1500 VRB/06 RMK AO1 T10171106
54779K12N 12N20160320075012503/20/16 07:50:31  5-MIN K12N 201250Z AUTO 03008KT 350V050 M02/M11 A3014 380 51 -1500 050/08 360V060 RMK AO1 SLP217 T10171106
54779K12N 12N20160320075510203/20/16 07:55:31  5-MIN K12N 201255Z AUTO 04008KT M02/M11 A3014 380 49 -1500 050/08 RMK AO1 T10171111
54779K12N 12N20160320080011803/20/16 08:00:31  5-MIN K12N 201300Z AUTO 03007KT 350V080 M02/M11 A3014 380 49 -1500 050/07 360V090 RMK AO1 T10171111
54779K12N 12N20160320080510203/20/16 08:05:31  5-MIN K12N 201305Z AUTO VRB04KT M02/M11 A3015 380 49 -1500 VRB/04 RMK AO1 T10171111
54779K12N 12N20160320081010203/20/16 08:10:31  5-MIN K12N 201310Z AUTO 03005KT M02/M11 A3014 380 51 -1500 040/05 RMK AO1 T10171106
54779K12N 12N20160320081510203/20/16 08:15:31  5-MIN K12N 201315Z AUTO VRB06KT M02/M10 A3015 380 53 -1500 VRB/06 RMK AO1 T10171100
54779K12N 12N20160320082011803/20/16 08:20:31  5-MIN K12N 201320Z AUTO 03007KT 340V050 M02/M11 A3015 380 51 -1500 040/07 350V060 RMK AO1 T10171106
54779K12N 12N20160320082510203/20/16 08:25:31  5-MIN K12N 201325Z AUTO VRB06KT M02/M11 A3014 380 51 -1500 VRB/06 RMK AO1 T10171106
54779K12N 12N20160320083010203/20/16 08:30:31  5-MIN K12N 201330Z AUTO 04006KT M02/M11 A3015 380 49 -1500 050/06 RMK AO1 T10171111
54779K12N 12N20160320083510203/20/16 08:35:31  5-MIN K12N 201335Z AUTO 03007KT M02/M11 A3015 370 49 -1500 050/07 RMK AO1 T10171111
54779K12N 12N20160320084010203/20/16 08:40:31  5-MIN K12N 201340Z AUTO VRB06KT M01/M11 A3015 380 49 -1400 VRB/06 RMK AO1 T10111106
54779K12N 12N20160320084510203/20/16 08:45:31  5-MIN K12N 201345Z AUTO VRB04KT M01/M11 A3015 370 49 -1400 VRB/04 RMK AO1 T10111106
54779K12N 12N20160320085010903/20/16 08:50:31  5-MIN K12N 201350Z AUTO VRB05KT M01/M11 A3015 370 49 -1400 VRB/05 RMK AO1 SLP220 T10111106
54779K12N 12N20160320085510203/20/16 08:55:31  5-MIN K12N 201355Z AUTO VRB06KT M01/M11 A3015 370 49 -1400 VRB/06 RMK AO1 T10111106
54779K12N 12N20160320090010203/20/16 09:00:31  5-MIN K12N 201400Z AUTO VRB06KT M01/M11 A3015 370 47 -1300 VRB/06 RMK AO1 T10061106
54779K12N 12N20160320090511803/20/16 09:05:31  5-MIN K12N 201405Z AUTO 05007KT 010V070 M01/M12 A3015 370 45 -1400 060/07 020V080 RMK AO1 T10111117
54779K12N 12N20160320091010203/20/16 09:10:31  5-MIN K12N 201410Z AUTO VRB04KT M01/M11 A3015 370 47 -1400 VRB/04 RMK AO1 T10111111
54779K12N 12N20160320091510203/20/16 09:15:31  5-MIN K12N 201415Z AUTO VRB05KT M01/M11 A3015 370 47 -1400 VRB/05 RMK AO1 T10111111
54779K12N 12N20160320092010203/20/16 09:20:31  5-MIN K12N 201420Z AUTO VRB05KT M01/M11 A3015 370 47 -1400 VRB/05 RMK AO1 T10111111
54779K12N 12N20160320092510203/20/16 09:25:31  5-MIN K12N 201425Z AUTO VRB04KT M01/M11 A3015 370 47 -1400 VRB/04 RMK AO1 T10111111
54779K12N 12N20160320093010203/20/16 09:30:31  5-MIN K12N 201430Z AUTO VRB04KT M01/M11 A3015 380 47 -1300 VRB/04 RMK AO1 T10061106
54779K12N 12N20160320093510203/20/16 09:35:31  5-MIN K12N 201435Z AUTO VRB05KT M01/M11 A3015 380 47 -1300 VRB/05 RMK AO1 T10061106
54779K12N 12N20160320094010203/20/16 09:40:31  5-MIN K12N 201440Z AUTO VRB05KT M01/M11 A3014 380 45 -1300 VRB/05 RMK AO1 T10061111
54779K12N 12N20160320094510203/20/16 09:45:31  5-MIN K12N 201445Z AUTO VRB06KT M01/M12 A3014 380 45 -1400 VRB/06 RMK AO1 T10111117
54779K12N 12N20160320095010903/20/16 09:50:31  5-MIN K12N 201450Z AUTO VRB05KT M01/M11 A3015 380 45 -1300 VRB/05 RMK AO1 SLP219 T10061111
54779K12N 12N20160320095510103/20/16 09:55:31  5-MIN K12N 201455Z AUTO VRB04KT 00/M11 A3015 370 45 -1300 VRB/04 RMK AO1 T00001106
54779K12N 12N20160320100010103/20/16 10:00:31  5-MIN K12N 201500Z AUTO VRB05KT 00/M11 A3015 380 43 -1300 VRB/05 RMK AO1 T00001111
54779K12N 12N20160320100510103/20/16 10:05:31  5-MIN K12N 201505Z AUTO 36004KT 00/M11 A3015 370 43 -1300 010/04 RMK AO1 T00001111
54779K12N 12N20160320101010103/20/16 10:10:31  5-MIN K12N 201510Z AUTO VRB03KT 00/M11 A3015 380 43 -1300 VRB/03 RMK AO1 T00001111
54779K12N 12N20160320101510103/20/16 10:15:31  5-MIN K12N 201515Z AUTO 35005KT 00/M11 A3015 380 45 -1300 360/05 RMK AO1 T00001106
54779K12N 12N20160320102010103/20/16 10:20:31  5-MIN K12N 201520Z AUTO VRB03KT 00/M11 A3014 380 43 -1300 VRB/03 RMK AO1 T00001111
54779K12N 12N20160320102510103/20/16 10:25:31  5-MIN K12N 201525Z AUTO 00000KT 00/M11 A3014 380 43 -1300 000/00 RMK AO1 T00001111
54779K12N 12N20160320103010103/20/16 10:30:31  5-MIN K12N 201530Z AUTO VRB04KT 01/M11 A3014 380 41 -1200 VRB/04 RMK AO1 T00061111
54779K12N 12N20160320103510103/20/16 10:35:31  5-MIN K12N 201535Z AUTO VRB03KT 01/M11 A3014 390 41 -1200 VRB/03 RMK AO1 T00061111
54779K12N 12N20160320104010103/20/16 10:40:31  5-MIN K12N 201540Z AUTO VRB04KT 01/M12 A3014 380 38 -1200 VRB/04 RMK AO1 T00061122
54779K12N 12N20160320104510103/20/16 10:45:31  5-MIN K12N 201545Z AUTO VRB04KT 01/M13 A3014 380 36 -1200 VRB/04 RMK AO1 T00061128
54779K12N 12N20160320105010803/20/16 10:50:31  5-MIN K12N 201550Z AUTO 00000KT 01/M13 A3014 390 35 -1100 000/00 RMK AO1 SLP215 T00111128
54779K12N 12N20160320105510103/20/16 10:55:31  5-MIN K12N 201555Z AUTO VRB04KT 01/M13 A3014 390 35 -1100 VRB/04 RMK AO1 T00111128
54779K12N 12N20160320110010103/20/16 11:00:31  5-MIN K12N 201600Z AUTO 00000KT 01/M13 A3014 390 35 -1200 000/00 RMK AO1 T00061133
54779K12N 12N20160320110510103/20/16 11:05:31  5-MIN K12N 201605Z AUTO 00000KT 01/M13 A3014 390 33 -1100 000/00 RMK AO1 T00111133
54779K12N 12N20160320111010103/20/16 11:10:31  5-MIN K12N 201610Z AUTO VRB03KT 02/M12 A3013 390 35 -1100 VRB/03 RMK AO1 T00171122
54779K12N 12N20160320111510103/20/16 11:15:31  5-MIN K12N 201615Z AUTO 08003KT 01/M13 A3013 390 33 -1100 090/03 RMK AO1 T00111133
54779K12N 12N20160320112010103/20/16 11:20:31  5-MIN K12N 201620Z AUTO VRB04KT 01/M13 A3013 390 35 -1100 VRB/04 RMK AO1 T00111128
54779K12N 12N20160320112510103/20/16 11:25:31  5-MIN K12N 201625Z AUTO 02004KT 02/M12 A3012 400 35 -1000 040/04 RMK AO1 T00171122
54779K12N 12N20160320113010103/20/16 11:30:31  5-MIN K12N 201630Z AUTO VRB03KT 02/M12 A3012 400 35 -1000 VRB/03 RMK AO1 T00171122
54779K12N 12N20160320113510103/20/16 11:35:31  5-MIN K12N 201635Z AUTO VRB03KT 02/M12 A3012 400 35 -1000 VRB/03 RMK AO1 T00221117
54779K12N 12N20160320114010103/20/16 11:40:31  5-MIN K12N 201640Z AUTO VRB04KT 02/M12 A3012 400 35 -1000 VRB/04 RMK AO1 T00221117
54779K12N 12N20160320114510003/20/16 11:45:31  5-MIN K12N 201645Z AUTO VRB03KT 03/M11 A3012 400 35 -900 VRB/03 RMK AO1 T00281111
54779K12N 12N20160320115010803/20/16 11:50:31  5-MIN K12N 201650Z AUTO 00000KT 02/M13 A3012 410 32 -1000 000/00 RMK AO1 SLP207 T00221128
54779K12N 12N20160320115510103/20/16 11:55:31  5-MIN K12N 201655Z AUTO 00000KT 01/M14 A3011 410 32 -1100 000/00 RMK AO1 T00111139
54779K12N 12N20160320120010103/20/16 12:00:31  5-MIN K12N 201700Z AUTO VRB04KT 02/M13 A3011 410 32 -1000 VRB/04 RMK AO1 T00171133
54779K12N 12N20160320120510103/20/16 12:05:31  5-MIN K12N 201705Z AUTO 05005KT 01/M13 A3011 410 33 -1100 060/05 RMK AO1 T00111133
54779K12N 12N20160320121010103/20/16 12:10:31  5-MIN K12N 201710Z AUTO 00000KT 01/M14 A3011 410 32 -1100 000/00 RMK AO1 T00111139
54779K12N 12N20160320121510103/20/16 12:15:31  5-MIN K12N 201715Z AUTO 00000KT 02/M13 A3010 420 32 -1000 000/00 RMK AO1 T00171133
54779K12N 12N20160320122010103/20/16 12:20:31  5-MIN K12N 201720Z AUTO 00000KT 02/M13 A3011 410 33 -1000 000/00 RMK AO1 T00171128
54779K12N 12N20160320122510103/20/16 12:25:31  5-MIN K12N 201725Z AUTO VRB05KT 02/M13 A3009 420 32 -1000 VRB/05 RMK AO1 T00171133
54779K12N 12N20160320123010003/20/16 12:30:31  5-MIN K12N 201730Z AUTO VRB04KT 02/M13 A3009 430 32 -900 VRB/04 RMK AO1 T00221128
54779K12N 12N20160320123509003/20/16 12:35:31  5-MIN K12N 201735Z AUTO 03/M13 A3009 420 31 -900 M /M RMK AO1 T00281128
54779K12N 12N20160320124010003/20/16 12:40:31  5-MIN K12N 201740Z AUTO VRB05KT 03/M13 A3010 420 31 -900 VRB/05 RMK AO1 T00281128
54779K12N 12N20160320124510003/20/16 12:45:31  5-MIN K12N 201745Z AUTO VRB05KT 03/M12 A3009 430 32 -900 VRB/05 RMK AO1 T00281122
54779K12N 12N20160320125011903/20/16 12:50:31  5-MIN K12N 201750Z AUTO 04008KT 03/M12 A3008 430 32 -800 050/08 RMK AO1 SLP197 T00331117 10033 21022
54779K12N 12N20160320125510003/20/16 12:55:31  5-MIN K12N 201755Z AUTO 02004KT 03/M12 A3008 440 32 -900 030/04 RMK AO1 T00281122
54779K12N 12N20160320130010003/20/16 13:00:31  5-MIN K12N 201800Z AUTO VRB04KT 03/M12 A3008 440 31 -800 VRB/04 RMK AO1 T00331122
54779K12N 12N20160320130510003/20/16 13:05:31  5-MIN K12N 201805Z AUTO 00000KT 03/M13 A3008 440 30 -800 000/00 RMK AO1 T00331128
54779K12N 12N20160320131010003/20/16 13:10:31  5-MIN K12N 201810Z AUTO VRB05KT 04/M12 A3007 440 31 -700 VRB/05 RMK AO1 T00391117
54779K12N 12N20160320131510003/20/16 13:15:31  5-MIN K12N 201815Z AUTO VRB03KT 03/M12 A3008 440 32 -800 VRB/03 RMK AO1 T00281122
54779K12N 12N20160320132010003/20/16 13:20:31  5-MIN K12N 201820Z AUTO 00000KT 03/M13 A3007 450 30 -800 000/00 RMK AO1 T00331128
54779K12N 12N20160320132510003/20/16 13:25:31  5-MIN K12N 201825Z AUTO 03006KT 04/M11 A3006 460 32 -700 040/06 RMK AO1 T00391111
54779K12N 12N20160320133010003/20/16 13:30:31  5-MIN K12N 201830Z AUTO VRB06KT 03/M12 A3006 460 32 -800 VRB/06 RMK AO1 T00331117
54779K12N 12N20160320133510003/20/16 13:35:31  5-MIN K12N 201835Z AUTO VRB05KT 04/M11 A3006 460 32 -700 VRB/05 RMK AO1 T00391111
54779K12N 12N20160320134010003/20/16 13:40:31  5-MIN K12N 201840Z AUTO 36005KT 04/M11 A3005 460 32 -700 020/05 RMK AO1 T00391111
54779K12N 12N20160320134510003/20/16 13:45:31  5-MIN K12N 201845Z AUTO 05006KT 04/M11 A3005 470 32 -700 070/06 RMK AO1 T00391111
54779K12N 12N20160320135010703/20/16 13:50:31  5-MIN K12N 201850Z AUTO VRB05KT 04/M11 A3004 470 34 -700 VRB/05 RMK AO1 SLP183 T00391106
54779K12N 12N20160320135510003/20/16 13:55:31  5-MIN K12N 201855Z AUTO VRB04KT 04/M11 A3006 460 31 -600 VRB/04 RMK AO1 T00441111
54779K12N 12N20160320140010003/20/16 14:00:31  5-MIN K12N 201900Z AUTO VRB04KT 04/M12 A3004 470 30 -600 VRB/04 RMK AO1 T00441117
54779K12N 12N20160320140510003/20/16 14:05:31  5-MIN K12N 201905Z AUTO VRB05KT 04/M12 A3004 470 30 -600 VRB/05 RMK AO1 T00441117
54779K12N 12N20160320141010003/20/16 14:10:31  5-MIN K12N 201910Z AUTO VRB04KT 04/M12 A3004 480 31 -700 VRB/04 RMK AO1 T00391117
54779K12N 12N20160320141510003/20/16 14:15:31  5-MIN K12N 201915Z AUTO 36006KT 04/M11 A3003 480 33 -600 010/06 RMK AO1 T00441106
54779K12N 12N20160320142010003/20/16 14:20:31  5-MIN K12N 201920Z AUTO 01004KT 04/M10 A3003 480 34 -600 020/04 RMK AO1 T00441100
54779K12N 12N20160320142510003/20/16 14:25:31  5-MIN K12N 201925Z AUTO VRB05KT 04/M11 A3002 490 33 -600 VRB/05 RMK AO1 T00441106
54779K12N 12N20160320143010703/20/16 14:30:31  5-MIN K12N 201930Z AUTO VRB06KT 04/M10 A3002 500 34 -600 VRB/06 RMK AO1 PRESFR T00441100
54779K12N 12N20160320143510003/20/16 14:35:31  5-MIN K12N 201935Z AUTO VRB06KT 04/M10 A3001 500 34 -600 VRB/06 RMK AO1 T00441100
54779K12N 12N20160320144010003/20/16 14:40:31  5-MIN K12N 201940Z AUTO VRB04KT 04/M10 A3001 500 34 -600 VRB/04 RMK AO1 T00441100
54779K12N 12N20160320144510003/20/16 14:45:31  5-MIN K12N 201945Z AUTO 04005KT 04/M10 A3001 500 34 -600 050/05 RMK AO1 T00441100
54779K12N 12N20160320145010703/20/16 14:50:31  5-MIN K12N 201950Z AUTO VRB05KT 04/M11 A3001 500 34 -600 VRB/05 RMK AO1 SLP171 T00391106
54779K12N 12N20160320145510003/20/16 14:55:31  5-MIN K12N 201955Z AUTO 04004KT 04/M11 A3001 500 32 -600 050/04 RMK AO1 T00391111
54779K12N 12N20160320150010003/20/16 15:00:31  5-MIN K12N 202000Z AUTO VRB05KT 04/M12 A3001 510 30 -600 VRB/05 RMK AO1 T00391122
54779K12N 12N20160320150510003/20/16 15:05:31  5-MIN K12N 202005Z AUTO 08005KT 04/M12 A3001 510 31 -600 090/05 RMK AO1 T00391117
54779K12N 12N20160320151010003/20/16 15:10:31  5-MIN K12N 202010Z AUTO VRB04KT 04/M12 A3000 510 31 -600 VRB/04 RMK AO1 T00391117
54779K12N 12N20160320151510003/20/16 15:15:31  5-MIN K12N 202015Z AUTO 00000KT 04/M11 A3000 510 32 -600 000/00 RMK AO1 T00391111
54779K12N 12N20160320152010003/20/16 15:20:31  5-MIN K12N 202020Z AUTO VRB03KT 04/M11 A3000 520 31 -500 VRB/03 RMK AO1 T00441111
54779K12N 12N20160320152510003/20/16 15:25:31  5-MIN K12N 202025Z AUTO VRB04KT 04/M12 A2999 520 31 -600 VRB/04 RMK AO1 T00391117
54779K12N 12N20160320153010003/20/16 15:30:31  5-MIN K12N 202030Z AUTO VRB03KT 04/M12 A2999 520 31 -600 VRB/03 RMK AO1 T00391117
54779K12N 12N20160320153510003/20/16 15:35:31  5-MIN K12N 202035Z AUTO 13004KT 04/M12 A3000 520 31 -600 140/04 RMK AO1 T00391117
54779K12N 12N20160320154010003/20/16 15:40:31  5-MIN K12N 202040Z AUTO VRB03KT 04/M12 A3000 510 31 -600 VRB/03 RMK AO1 T00391117
54779K12N 12N20160320154510003/20/16 15:45:31  5-MIN K12N 202045Z AUTO VRB03KT 04/M12 A2999 520 30 -600 VRB/03 RMK AO1 T00391122
54779K12N 12N20160320155011303/20/16 15:50:31  5-MIN K12N 202050Z AUTO VRB03KT 04/M12 A2999 520 30 -500 VRB/03 RMK AO1 SLP164 T00441117 58022
54779K12N 12N20160320155510003/20/16 15:55:31  5-MIN K12N 202055Z AUTO 05003KT 04/M11 A2999 520 31 -500 060/03 RMK AO1 T00441111
54779K12N 12N20160320160010003/20/16 16:00:31  5-MIN K12N 202100Z AUTO VRB03KT 04/M12 A2999 520 31 -600 VRB/03 RMK AO1 T00391117
54779K12N 12N20160320160510003/20/16 16:05:31  5-MIN K12N 202105Z AUTO 00000KT 04/M11 A2999 520 32 -600 000/00 RMK AO1 T00391111
54779K12N 12N20160320161010003/20/16 16:10:31  5-MIN K12N 202110Z AUTO VRB05KT 04/M11 A3000 520 32 -600 VRB/05 RMK AO1 T00391111
54779K12N 12N20160320161510003/20/16 16:15:31  5-MIN K12N 202115Z AUTO 00000KT 04/M11 A2999 520 34 -600 000/00 RMK AO1 T00391106
54779K12N 12N20160320162010003/20/16 16:20:31  5-MIN K12N 202120Z AUTO 00000KT 04/M11 A2999 520 34 -600 000/00 RMK AO1 T00391106
54779K12N 12N20160320162510003/20/16 16:25:31  5-MIN K12N 202125Z AUTO 04004KT 04/M09 A3000 520 37 -600 050/04 RMK AO1 T00391094
54779K12N 12N20160320163010003/20/16 16:30:31  5-MIN K12N 202130Z AUTO 05005KT 03/M10 A3000 510 37 -700 060/05 RMK AO1 T00331100
54779K12N 12N20160320163510003/20/16 16:35:31  5-MIN K12N 202135Z AUTO 36003KT 03/M10 A3000 510 37 -700 010/03 RMK AO1 T00331100
54779K12N 12N20160320164010003/20/16 16:40:31  5-MIN K12N 202140Z AUTO 04003KT 03/M10 A3000 510 37 -700 050/03 RMK AO1 T00331100
54779K12N 12N20160320164510003/20/16 16:45:31  5-MIN K12N 202145Z AUTO 05005KT 03/M10 A2999 520 37 -700 070/05 RMK AO1 T00331100
54779K12N 12N20160320165010703/20/16 16:50:31  5-MIN K12N 202150Z AUTO 04004KT 03/M11 A2999 520 35 -700 050/04 RMK AO1 SLP167 T00331106
54779K12N 12N20160320165510003/20/16 16:55:31  5-MIN K12N 202155Z AUTO VRB04KT 03/M10 A2999 520 37 -700 VRB/04 RMK AO1 T00331100
54779K12N 12N20160320170010003/20/16 17:00:31  5-MIN K12N 202200Z AUTO VRB04KT 03/M09 A2999 520 39 -700 VRB/04 RMK AO1 T00331094
54779K12N 12N20160320170510003/20/16 17:05:31  5-MIN K12N 202205Z AUTO 01003KT 03/M11 A2999 520 35 -700 030/03 RMK AO1 T00331106
54779K12N 12N20160320171010003/20/16 17:10:31  5-MIN K12N 202210Z AUTO 02004KT 03/M09 A2999 520 39 -700 030/04 RMK AO1 T00331094
54779K12N 12N20160320171510003/20/16 17:15:31  5-MIN K12N 202215Z AUTO 04004KT 03/M09 A2999 520 40 -700 050/04 RMK AO1 T00331089
54779K12N 12N20160320172010003/20/16 17:20:31  5-MIN K12N 202220Z AUTO VRB03KT 03/M09 A2999 520 40 -700 VRB/03 RMK AO1 T00331089
54779K12N 12N20160320172510003/20/16 17:25:31  5-MIN K12N 202225Z AUTO 02003KT 03/M09 A2999 520 42 -700 030/03 RMK AO1 T00281089
54779K12N 12N20160320173010003/20/16 17:30:31  5-MIN K12N 202230Z AUTO 01003KT 03/M09 A2999 520 42 -700 030/03 RMK AO1 T00281089
54779K12N 12N20160320173510003/20/16 17:35:31  5-MIN K12N 202235Z AUTO 00000KT 03/M09 A2998 530 40 -700 000/00 RMK AO1 T00281094
54779K12N 12N20160320174010003/20/16 17:40:31  5-MIN K12N 202240Z AUTO 03004KT 03/M09 A2999 520 40 -700 050/04 RMK AO1 T00281094
54779K12N 12N20160320174510003/20/16 17:45:31  5-MIN K12N 202245Z AUTO 03003KT 03/M09 A2998 530 40 -700 050/03 RMK AO1 T00281094
54779K12N 12N20160320175010703/20/16 17:50:31  5-MIN K12N 202250Z AUTO 04003KT 03/M09 A2998 530 42 -700 050/03 RMK AO1 SLP163 T00281089
54779K12N 12N20160320175510003/20/16 17:55:31  5-MIN K12N 202255Z AUTO VRB03KT 03/M09 A2998 530 40 -700 VRB/03 RMK AO1 T00281094
54779K12N 12N20160320180010003/20/16 18:00:31  5-MIN K12N 202300Z AUTO 00000KT 03/M09 A2998 530 42 -700 000/00 RMK AO1 T00281089
54779K12N 12N20160320180510003/20/16 18:05:31  5-MIN K12N 202305Z AUTO 00000KT 03/M09 A2998 530 40 -700 000/00 RMK AO1 T00281094
54779K12N 12N20160320181010003/20/16 18:10:31  5-MIN K12N 202310Z AUTO 00000KT 03/M09 A2998 530 40 -700 000/00 RMK AO1 T00281094
54779K12N 12N20160320181510003/20/16 18:15:31  5-MIN K12N 202315Z AUTO 00000KT 03/M09 A2999 530 42 -700 000/00 RMK AO1 T00281089
54779K12N 12N20160320182010003/20/16 18:20:31  5-MIN K12N 202320Z AUTO VRB04KT 03/M09 A2998 530 40 -700 VRB/04 RMK AO1 T00281094
54779K12N 12N20160320182510003/20/16 18:25:31  5-MIN K12N 202325Z AUTO 00000KT 03/M09 A2998 530 40 -700 000/00 RMK AO1 T00281094
54779K12N 12N20160320183010003/20/16 18:30:31  5-MIN K12N 202330Z AUTO 00000KT 03/M09 A2998 530 40 -700 000/00 RMK AO1 T00281094
54779K12N 12N20160320183510003/20/16 18:35:31  5-MIN K12N 202335Z AUTO 00000KT 03/M09 A2998 530 40 -700 000/00 RMK AO1 T00281094
54779K12N 12N20160321012010003/21/16 01:20:31  5-MIN K12N 210620Z AUTO 00000KT 01/M05 A2988 630 66 -900 000/00 RMK AO1 T00061050
54779K12N 12N20160321012510003/21/16 01:25:31  5-MIN K12N 210625Z AUTO 00000KT 01/M05 A2988 620 66 -900 000/00 RMK AO1 T00061050
54779K12N 12N20160321013010003/21/16 01:30:31  5-MIN K12N 210630Z AUTO 00000KT 01/M06 A2989 620 63 -900 000/00 RMK AO1 T00061056
54779K12N 12N20160321013510003/21/16 01:35:31  5-MIN K12N 210635Z AUTO 24003KT 01/M05 A2989 620 66 -900 260/03 RMK AO1 T00061050
54779K12N 12N20160321014010003/21/16 01:40:31  5-MIN K12N 210640Z AUTO 00000KT 01/M05 A2988 620 66 -900 000/00 RMK AO1 T00061050
54779K12N 12N20160321014510003/21/16 01:45:31  5-MIN K12N 210645Z AUTO 00000KT 01/M05 A2987 630 66 -900 000/00 RMK AO1 T00061050
54779K12N 12N20160321015010703/21/16 01:50:31  5-MIN K12N 210650Z AUTO 00000KT 01/M05 A2987 630 66 -900 000/00 RMK AO1 SLP123 T00061050
54779K12N 12N20160321015510003/21/16 01:55:31  5-MIN K12N 210655Z AUTO 35005KT 01/M05 A2986 640 66 -900 360/05 RMK AO1 T00061050
54779K12N 12N20160321020010003/21/16 02:00:31  5-MIN K12N 210700Z AUTO 35003KT 01/M06 A2987 630 63 -900 360/03 RMK AO1 T00061056
54779K12N 12N20160321020510003/21/16 02:05:31  5-MIN K12N 210705Z AUTO 35005KT 01/M06 A2987 630 61 -900 360/05 RMK AO1 T00061061
54779K12N 12N20160321021010003/21/16 02:10:31  5-MIN K12N 210710Z AUTO 01006KT 01/M06 A2987 630 61 -900 020/06 RMK AO1 T00061061
54779K12N 12N20160321021510003/21/16 02:15:31  5-MIN K12N 210715Z AUTO VRB05KT 01/M06 A2987 640 61 -900 VRB/05 RMK AO1 T00061061
54779K12N 12N20160321022010003/21/16 02:20:31  5-MIN K12N 210720Z AUTO 36005KT 01/M06 A2986 640 63 -900 010/05 RMK AO1 T00061056
54779K12N 12N20160321022510003/21/16 02:25:31  5-MIN K12N 210725Z AUTO 36005KT 01/M05 A2986 640 66 -900 020/05 RMK AO1 T00061050
54779K12N 12N20160321023010003/21/16 02:30:31  5-MIN K12N 210730Z AUTO 01005KT 01/M05 A2986 650 66 -900 020/05 RMK AO1 T00061050
54779K12N 12N20160321023510003/21/16 02:35:31  5-MIN K12N 210735Z AUTO VRB05KT 00/M05 A2986 650 69 -900 VRB/05 RMK AO1 T00001050
54779K12N 12N20160321024010003/21/16 02:40:31  5-MIN K12N 210740Z AUTO 36004KT 00/M05 A2985 650 69 -900 010/04 RMK AO1 T00001050
54779K12N 12N20160321024510003/21/16 02:45:31  5-MIN K12N 210745Z AUTO VRB03KT 00/M04 A2986 650 72 -900 VRB/03 RMK AO1 T00001044
54779K12N 12N20160321025010703/21/16 02:50:31  5-MIN K12N 210750Z AUTO 02003KT 00/M04 A2985 650 72 -900 030/03 RMK AO1 SLP116 T00001044
54779K12N 12N20160321025510003/21/16 02:55:31  5-MIN K12N 210755Z AUTO VRB03KT 00/M04 A2984 660 72 -900 VRB/03 RMK AO1 T00001044
54779K12N 12N20160321030010003/21/16 03:00:31  5-MIN K12N 210800Z AUTO 06003KT 00/M04 A2984 660 72 -900 070/03 RMK AO1 T00001044
54779K12N 12N20160321030510203/21/16 03:05:31  5-MIN K12N 210805Z AUTO 07003KT M01/M04 A2984 660 75 -1000 080/03 RMK AO1 T10061044
54779K12N 12N20160321031010203/21/16 03:10:31  5-MIN K12N 210810Z AUTO 05003KT M01/M04 A2984 660 75 -1000 060/03 RMK AO1 T10061044
54779K12N 12N20160321031510203/21/16 03:15:31  5-MIN K12N 210815Z AUTO 05003KT M01/M05 A2984 660 72 -1000 060/03 RMK AO1 T10061050
54779K12N 12N20160321032010003/21/16 03:20:31  5-MIN K12N 210820Z AUTO 00000KT 00/M05 A2984 660 69 -900 000/00 RMK AO1 T00001050
54779K12N 12N20160321032510003/21/16 03:25:31  5-MIN K12N 210825Z AUTO VRB03KT 00/M05 A2983 670 69 -900 VRB/03 RMK AO1 T00001050
54779K12N 12N20160321033010003/21/16 03:30:31  5-MIN K12N 210830Z AUTO 35003KT 00/M05 A2983 670 69 -900 360/03 RMK AO1 T00001050
54779K12N 12N20160321033510003/21/16 03:35:31  5-MIN K12N 210835Z AUTO VRB03KT 00/M05 A2984 660 69 -900 VRB/03 RMK AO1 T00001050
54779K12N 12N20160321034010003/21/16 03:40:31  5-MIN K12N 210840Z AUTO 00000KT 00/M05 A2983 660 69 -900 000/00 RMK AO1 T00001050
54779K12N 12N20160321034510003/21/16 03:45:31  5-MIN K12N 210845Z AUTO 00000KT 00/M05 A2983 670 69 -900 000/00 RMK AO1 T00001050
54779K12N 12N20160321035011303/21/16 03:50:31  5-MIN K12N 210850Z AUTO 05003KT 00/M05 A2983 670 69 -900 060/03 RMK AO1 SLP110 T00001050 58020
54779K12N 12N20160321035510003/21/16 03:55:31  5-MIN K12N 210855Z AUTO 00000KT 00/M05 A2983 670 69 -900 000/00 RMK AO1 T00001050
54779K12N 12N20160321040010203/21/16 04:00:31  5-MIN K12N 210900Z AUTO 00000KT M01/M05 A2982 680 72 -1000 000/00 RMK AO1 T10061050
54779K12N 12N20160321040510203/21/16 04:05:31  5-MIN K12N 210905Z AUTO 00000KT M01/M05 A2982 680 72 -1000 000/00 RMK AO1 T10061050
54779K12N 12N20160321041010203/21/16 04:10:31  5-MIN K12N 210910Z AUTO 00000KT M01/M05 A2982 680 72 -1000 000/00 RMK AO1 T10061050
54779K12N 12N20160321041510203/21/16 04:15:31  5-MIN K12N 210915Z AUTO 00000KT M01/M05 A2982 680 72 -1000 000/00 RMK AO1 T10061050
54779K12N 12N20160321042010203/21/16 04:20:31  5-MIN K12N 210920Z AUTO 00000KT M01/M05 A2982 680 72 -1000 000/00 RMK AO1 T10061050
54779K12N 12N20160321042510203/21/16 04:25:31  5-MIN K12N 210925Z AUTO 00000KT M01/M05 A2982 680 72 -1000 000/00 RMK AO1 T10061050
54779K12N 12N20160321043010203/21/16 04:30:31  5-MIN K12N 210930Z AUTO 00000KT M01/M05 A2981 680 75 -1000 000/00 RMK AO1 T10111050
54779K12N 12N20160321043510203/21/16 04:35:31  5-MIN K12N 210935Z AUTO 00000KT M01/M05 A2981 680 75 -1000 000/00 RMK AO1 T10111050
54779K12N 12N20160321044010203/21/16 04:40:31  5-MIN K12N 210940Z AUTO 00000KT M02/M05 A2981 680 78 -1100 000/00 RMK AO1 T10171050
54779K12N 12N20160321044510203/21/16 04:45:31  5-MIN K12N 210945Z AUTO 00000KT M02/M06 A2981 690 75 -1100 000/00 RMK AO1 T10171056
54779K12N 12N20160321045010903/21/16 04:50:31  5-MIN K12N 210950Z AUTO 00000KT M02/M06 A2981 690 75 -1100 000/00 RMK AO1 SLP104 T10171056
54779K12N 12N20160321045510203/21/16 04:55:31  5-MIN K12N 210955Z AUTO 00000KT M02/M06 A2981 690 75 -1100 000/00 RMK AO1 T10171056
54779K12N 12N20160321050010203/21/16 05:00:31  5-MIN K12N 211000Z AUTO 00000KT M02/M05 A2981 690 78 -1100 000/00 RMK AO1 T10171050
54779K12N 12N20160321050510203/21/16 05:05:31  5-MIN K12N 211005Z AUTO 00000KT M02/M05 A2981 680 78 -1100 000/00 RMK AO1 T10171050
54779K12N 12N20160321051010203/21/16 05:10:31  5-MIN K12N 211010Z AUTO 00000KT M02/M05 A2981 690 78 -1100 000/00 RMK AO1 T10171050
54779K12N 12N20160321051510203/21/16 05:15:31  5-MIN K12N 211015Z AUTO 00000KT M02/M06 A2981 680 75 -1100 000/00 RMK AO1 T10171056
54779K12N 12N20160321052010203/21/16 05:20:31  5-MIN K12N 211020Z AUTO 00000KT M02/M06 A2981 690 78 -1200 000/00 RMK AO1 T10221056
54779K12N 12N20160321053010203/21/16 05:30:31  5-MIN K12N 211030Z AUTO 00000KT M02/M06 A2981 680 78 -1200 000/00 RMK AO1 T10221056
54779K12N 12N20160321053510203/21/16 05:35:31  5-MIN K12N 211035Z AUTO 00000KT M02/M06 A2981 680 78 -1200 000/00 RMK AO1 T10221056
54779K12N 12N20160321054010203/21/16 05:40:31  5-MIN K12N 211040Z AUTO 00000KT M02/M06 A2982 680 78 -1200 000/00 RMK AO1 T10221056
54779K12N 12N20160321054510203/21/16 05:45:31  5-MIN K12N 211045Z AUTO 00000KT M02/M06 A2982 680 78 -1200 000/00 RMK AO1 T10221056
54779K12N 12N20160321055010903/21/16 05:50:31  5-MIN K12N 211050Z AUTO 00000KT M02/M06 A2982 680 78 -1200 000/00 RMK AO1 SLP107 T10221056
54779K12N 12N20160321055510203/21/16 05:55:31  5-MIN K12N 211055Z AUTO 00000KT M03/M06 A2982 680 81 -1200 000/00 RMK AO1 T10281056
54779K12N 12N20160321060010203/21/16 06:00:31  5-MIN K12N 211100Z AUTO 00000KT M03/M06 A2982 680 81 -1200 000/00 RMK AO1 T10281056
54779K12N 12N20160321060510203/21/16 06:05:31  5-MIN K12N 211105Z AUTO 00000KT M02/M06 A2982 680 78 -1200 000/00 RMK AO1 T10221056
54779K12N 12N20160321061010203/21/16 06:10:31  5-MIN K12N 211110Z AUTO 00000KT M02/M05 A2982 680 81 -1200 000/00 RMK AO1 T10221050
54779K12N 12N20160321061510203/21/16 06:15:31  5-MIN K12N 211115Z AUTO 00000KT M02/M05 A2982 680 81 -1200 000/00 RMK AO1 T10221050
54779K12N 12N20160321062010203/21/16 06:20:31  5-MIN K12N 211120Z AUTO 00000KT M02/M04 A2982 670 85 -1200 000/00 RMK AO1 T10221044
54779K12N 12N20160321062510203/21/16 06:25:31  5-MIN K12N 211125Z AUTO 00000KT M02/M04 A2982 680 85 -1200 000/00 RMK AO1 T10221044
54779K12N 12N20160321063010203/21/16 06:30:31  5-MIN K12N 211130Z AUTO 00000KT M02/M04 A2982 680 85 -1200 000/00 RMK AO1 T10221044
54779K12N 12N20160321063510203/21/16 06:35:31  5-MIN K12N 211135Z AUTO 00000KT M03/M04 A2982 680 88 -1200 000/00 RMK AO1 T10281044
54779K12N 12N20160321064010203/21/16 06:40:31  5-MIN K12N 211140Z AUTO 00000KT M03/M05 A2982 680 85 -1200 000/00 RMK AO1 T10281050
54779K12N 12N20160321064510203/21/16 06:45:31  5-MIN K12N 211145Z AUTO 00000KT M02/M04 A2982 680 85 -1200 000/00 RMK AO1 T10221044
54779K12N 12N20160321065012103/21/16 06:50:31  5-MIN K12N 211150Z AUTO 00000KT M02/M05 A2982 680 81 -1200 000/00 RMK AO1 SLP108 T10221050 10006 21028
54779K12N 12N20160321065510203/21/16 06:55:31  5-MIN K12N 211155Z AUTO 00000KT M02/M05 A2982 680 81 -1200 000/00 RMK AO1 T10221050
54779K12N 12N20160321070010203/21/16 07:00:31  5-MIN K12N 211200Z AUTO 00000KT M02/M04 A2982 680 85 -1200 000/00 RMK AO1 T10221044
54779K12N 12N20160321070510203/21/16 07:05:31  5-MIN K12N 211205Z AUTO 00000KT M02/M04 A2982 680 85 -1100 000/00 RMK AO1 T10171039
54779K12N 12N20160321071010203/21/16 07:10:31  5-MIN K12N 211210Z AUTO 00000KT M02/M04 A2982 680 85 -1100 000/00 RMK AO1 T10171039
54779K12N 12N20160321071510203/21/16 07:15:31  5-MIN K12N 211215Z AUTO 16003KT M01/M04 A2982 680 81 -1000 180/03 RMK AO1 T10111039
54779K12N 12N20160321072010203/21/16 07:20:31  5-MIN K12N 211220Z AUTO 00000KT M01/M04 A2982 680 81 -1000 000/00 RMK AO1 T10111039
54779K12N 12N20160321072510203/21/16 07:25:31  5-MIN K12N 211225Z AUTO VRB03KT M01/M04 A2982 680 78 -1000 VRB/03 RMK AO1 T10061039
54779K12N 12N20160321073010203/21/16 07:30:31  5-MIN K12N 211230Z AUTO 00000KT M01/M04 A2982 680 75 -1000 000/00 RMK AO1 T10061044
54779K12N 12N20160321073510003/21/16 07:35:31  5-MIN K12N 211235Z AUTO 00000KT 00/M04 A2982 680 75 -900 000/00 RMK AO1 T00001039
54779K12N 12N20160321074010003/21/16 07:40:31  5-MIN K12N 211240Z AUTO 00000KT 00/M04 A2982 680 75 -900 000/00 RMK AO1 T00001039
54779K12N 12N20160321074510003/21/16 07:45:31  5-MIN K12N 211245Z AUTO 00000KT 01/M04 A2982 680 72 -800 000/00 RMK AO1 T00061039
54779K12N 12N20160321075010703/21/16 07:50:31  5-MIN K12N 211250Z AUTO 00000KT 01/M04 A2982 680 69 -800 000/00 RMK AO1 SLP105 T00061044
54779K12N 12N20160321075510003/21/16 07:55:31  5-MIN K12N 211255Z AUTO VRB03KT 01/M04 A2982 680 66 -800 VRB/03 RMK AO1 T00111044
54779K12N 12N20160321080010003/21/16 08:00:31  5-MIN K12N 211300Z AUTO 00000KT 02/M04 A2982 680 64 -700 000/00 RMK AO1 T00171044
54779K12N 12N20160321080510003/21/16 08:05:31  5-MIN K12N 211305Z AUTO VRB03KT 02/M04 A2981 680 64 -700 VRB/03 RMK AO1 T00171044
54779K12N 12N20160321081010003/21/16 08:10:31  5-MIN K12N 211310Z AUTO 00000KT 02/M05 A2981 680 61 -700 000/00 RMK AO1 T00171050
54779K12N 12N20160321081510003/21/16 08:15:31  5-MIN K12N 211315Z AUTO VRB03KT 02/M05 A2981 680 59 -600 VRB/03 RMK AO1 T00221050
54779K12N 12N20160321082010003/21/16 08:20:31  5-MIN K12N 211320Z AUTO VRB03KT 02/M05 A2982 680 59 -600 VRB/03 RMK AO1 T00221050
54779K12N 12N20160321082510003/21/16 08:25:31  5-MIN K12N 211325Z AUTO VRB03KT 03/M05 A2982 680 56 -500 VRB/03 RMK AO1 T00281050
54779K12N 12N20160321083010003/21/16 08:30:31  5-MIN K12N 211330Z AUTO VRB05KT 03/M05 A2982 680 54 -500 VRB/05 RMK AO1 T00331050
54779K12N 12N20160321083510003/21/16 08:35:31  5-MIN K12N 211335Z AUTO VRB04KT 03/M06 A2982 680 52 -500 VRB/04 RMK AO1 T00331056
54779K12N 12N20160321084010003/21/16 08:40:31  5-MIN K12N 211340Z AUTO VRB04KT 03/M06 A2982 680 52 -500 VRB/04 RMK AO1 T00331056
54779K12N 12N20160321084510003/21/16 08:45:31  5-MIN K12N 211345Z AUTO VRB05KT 03/M06 A2982 670 52 -500 VRB/05 RMK AO1 T00331056
54779K12N 12N20160321085010703/21/16 08:50:31  5-MIN K12N 211350Z AUTO VRB05KT 04/M06 A2983 670 50 -400 VRB/05 RMK AO1 SLP108 T00391056
54779K12N 12N20160321085510003/21/16 08:55:31  5-MIN K12N 211355Z AUTO 33005KT 04/M06 A2982 670 48 -400 350/05 RMK AO1 T00391061
54779K12N 12N20160321090010003/21/16 09:00:31  5-MIN K12N 211400Z AUTO VRB05KT 04/M06 A2982 670 48 -400 VRB/05 RMK AO1 T00391061
54779K12N 12N20160321090510003/21/16 09:05:31  5-MIN K12N 211405Z AUTO VRB03KT 04/M06 A2982 680 46 -300 VRB/03 RMK AO1 T00441061
54779K12N 12N20160321091010003/21/16 09:10:31  5-MIN K12N 211410Z AUTO VRB04KT 04/M06 A2982 670 48 -400 VRB/04 RMK AO1 T00441056
54779K12N 12N20160321091510003/21/16 09:15:31  5-MIN K12N 211415Z AUTO VRB04KT 04/M06 A2983 670 48 -400 VRB/04 RMK AO1 T00391061
54779K12N 12N20160321092009003/21/16 09:20:31  5-MIN K12N 211420Z AUTO 04/M07 A2982 670 44 -400 M /M RMK AO1 T00441067
54779K12N 12N20160321092510003/21/16 09:25:31  5-MIN K12N 211425Z AUTO VRB04KT 05/M07 A2982 670 42 -300 VRB/04 RMK AO1 T00501067
54779K12N 12N20160321093010003/21/16 09:30:31  5-MIN K12N 211430Z AUTO 32006KT 05/M07 A2982 670 42 -300 330/06 RMK AO1 T00501067
54779K12N 12N20160321093510603/21/16 09:35:31  5-MIN K12N 211435Z AUTO 31010G14KT 05/M07 A2982 680 42 -300 320/10G14 RMK AO1 T00501067
54779K12N 12N20160321094010603/21/16 09:40:31  5-MIN K12N 211440Z AUTO 34006G14KT 05/M07 A2982 680 41 -300 350/06G14 RMK AO1 T00501072
54779K12N 12N20160321094510603/21/16 09:45:31  5-MIN K12N 211445Z AUTO 34008G16KT 05/M07 A2982 680 41 -300 360/08G16 RMK AO1 T00501072
54779K12N 12N20160321095012903/21/16 09:50:31  5-MIN K12N 211450Z AUTO 31008G16KT 280V350 05/M08 A2982 680 39 -300 320/08G16 290V360 RMK AO1 SLP107 T00501078
54779K12N 12N20160321095510603/21/16 09:55:31  5-MIN K12N 211455Z AUTO VRB05G14KT 06/M08 A2982 680 37 -200 VRB/05G14 RMK AO1 T00561078
54779K12N 12N20160321100010003/21/16 10:00:31  5-MIN K12N 211500Z AUTO VRB06KT 06/M08 A2982 680 36 -200 VRB/06 RMK AO1 T00561083
54779K12N 12N20160321100511603/21/16 10:05:31  5-MIN K12N 211505Z AUTO 35007KT 320V030 06/M08 A2982 680 37 -200 360/07 330V040 RMK AO1 T00561078
54779K12N 12N20160321101010003/21/16 10:10:31  5-MIN K12N 211510Z AUTO VRB06KT 06/M08 A2982 680 35 -100 VRB/06 RMK AO1 T00611083
54779K12N 12N20160321101512203/21/16 10:15:31  5-MIN K12N 211515Z AUTO 28012G17KT 200V310 06/M11 A2982 680 30 -200 290/12G17 210V320 RMK AO1 T00561106
54779K12N 12N20160321102012203/21/16 10:20:31  5-MIN K12N 211520Z AUTO 34007G18KT 290V020 06/M12 A2982 670 26 -200 350/07G18 300V030 RMK AO1 T00561122
54779K12N 12N20160321102512203/21/16 10:25:31  5-MIN K12N 211525Z AUTO 34009G18KT 280V050 06/M13 A2982 680 25 -200 360/09G18 290V060 RMK AO1 T00561128
54779K12N 12N20160321103010603/21/16 10:30:31  5-MIN K12N 211530Z AUTO 32008G15KT 06/M13 A2982 680 24 -100 330/08G15 RMK AO1 T00611128
54779K12N 12N20160321103511603/21/16 10:35:31  5-MIN K12N 211535Z AUTO 33007KT 300V010 06/M13 A2982 680 25 -200 350/07 310V020 RMK AO1 T00561128
54779K12N 12N20160321104010603/21/16 10:40:31  5-MIN K12N 211540Z AUTO 35010G18KT 06/M13 A2982 680 24 -200 010/10G18 RMK AO1 T00561133
54779K12N 12N20160321104512203/21/16 10:45:31  5-MIN K12N 211545Z AUTO 31009G18KT 240V360 06/M14 A2982 680 22 -100 320/09G18 250V010 RMK AO1 T00611139
54779K12N 12N20160321105012903/21/16 10:50:31  5-MIN K12N 211550Z AUTO 34009G15KT 270V010 06/M14 A2982 680 22 -100 350/09G15 280V020 RMK AO1 SLP105 T00611139
54779K12N 12N20160321105510603/21/16 10:55:31  5-MIN K12N 211555Z AUTO 34010G16KT 06/M15 A2982 680 21 -200 350/10G16 RMK AO1 T00561150
54779K12N 12N20160321110012203/21/16 11:00:31  5-MIN K12N 211600Z AUTO 34009G18KT 300V020 06/M14 A2982 680 22 -200 350/09G18 310V030 RMK AO1 T00561144
54779K12N 12N20160321110512203/21/16 11:05:31  5-MIN K12N 211605Z AUTO 34008G20KT 290V030 06/M14 A2982 680 22 -200 360/08G20 300V040 RMK AO1 T00561144
54779K12N 12N20160321111010603/21/16 11:10:31  5-MIN K12N 211610Z AUTO VRB06G20KT 06/M13 A2982 680 23 -100 VRB/06G20 RMK AO1 T00611133
54779K12N 12N20160321111511603/21/16 11:15:31  5-MIN K12N 211615Z AUTO 33008KT 290V030 07/M12 A2982 680 26 -100 340/08 300V040 RMK AO1 T00671117
54779K12N 12N20160321112011603/21/16 11:20:31  5-MIN K12N 211620Z AUTO 31008KT 270V360 06/M13 A2982 680 23 -100 330/08 280V010 RMK AO1 T00611133
54779K12N 12N20160321112510603/21/16 11:25:31  5-MIN K12N 211625Z AUTO VRB06G15KT 06/M13 A2982 680 23 -100 VRB/06G15 RMK AO1 T00611133
54779K12N 12N20160321113012203/21/16 11:30:31  5-MIN K12N 211630Z AUTO 33007G15KT 290V010 06/M13 A2982 680 23 -100 350/07G15 300V020 RMK AO1 T00611133
54779K12N 12N20160321113510603/21/16 11:35:31  5-MIN K12N 211635Z AUTO VRB06G15KT 07/M13 A2982 680 23 -100 VRB/06G15 RMK AO1 T00671128
54779K12N 12N20160321114012203/21/16 11:40:31  5-MIN K12N 211640Z AUTO 29010G18KT 220V340 06/M14 A2982 680 22 -100 300/10G18 230V350 RMK AO1 T00611139
54779K12N 12N20160321114512203/21/16 11:45:31  5-MIN K12N 211645Z AUTO 34011G18KT 300V010 07/M13 A2982 680 23 -100 350/11G18 310V020 RMK AO1 T00671128
54779K12N 12N20160321115011303/21/16 11:50:31  5-MIN K12N 211650Z AUTO VRB06G17KT 07/M12 A2981 680 24 -100 VRB/06G17 RMK AO1 SLP102 T00671122
54779K12N 12N20160321115510603/21/16 11:55:31  5-MIN K12N 211655Z AUTO VRB06G14KT 07/M12 A2981 690 24 -100 VRB/06G14 RMK AO1 T00671122
54779K12N 12N20160321120011303/21/16 12:00:31  5-MIN K12N 211700Z AUTO 31008KT 260V350 07/M12 A2981 690 24 0 320/08 270V360 RMK AO1 T00721122
54779K12N 12N20160321120511903/21/16 12:05:31  5-MIN K12N 211705Z AUTO 32007G15KT 240V350 07/M12 A2981 690 24 0 330/07G15 250V360 RMK AO1 T00721122
54779K12N 12N20160321121010303/21/16 12:10:31  5-MIN K12N 211710Z AUTO 31008G14KT 07/M12 A2980 690 24 0 320/08G14 RMK AO1 T00721122
54779K12N 12N20160321121511903/21/16 12:15:31  5-MIN K12N 211715Z AUTO 32007G14KT 210V360 07/M12 A2980 690 24 0 330/07G14 220V010 RMK AO1 T00721122
54779K12N 12N20160321122010003/21/16 12:20:31  5-MIN K12N 211720Z AUTO 35008KT 07/M12 A2980 690 26 -100 010/08 RMK AO1 T00671117
54779K12N 12N20160321123006703/21/16 12:30:31  5-MIN K12N 211730Z AUTO M M M M /M RMK AO1 PNO $
54779K12N 12N20160321123509903/21/16 12:35:31  5-MIN K12N 211735Z AUTO VRB06KT 08/M11 A2980 700 26 0 VRB/06 RMK AO1 T00781106 $
54779K12N 12N20160321124010503/21/16 12:40:31  5-MIN K12N 211740Z AUTO 35011G18KT 07/M12 A2980 700 25 0 010/11G18 RMK AO1 T00721117 $
54779K12N 12N20160321124512103/21/16 12:45:31  5-MIN K12N 211745Z AUTO 31010G21KT 270V010 07/M12 A2980 700 25 0 330/10G21 280V020 RMK AO1 T00721117 $
54779K12N 12N20160321125014603/21/16 12:50:31  5-MIN K12N 211750Z AUTO 31009G21KT 270V360 07/M11 A2980 700 26 0 330/09G21 280V010 RMK AO1 SLP096 6//// T00721111 10078 21022 $
54779K12N 12N20160321125510503/21/16 12:55:31  5-MIN K12N 211755Z AUTO 35012G18KT 07/M12 A2979 700 25 0 360/12G18 RMK AO1 T00721117 $
54779K12N 12N20160321130012403/21/16 13:00:31  5-MIN K12N 211800Z AUTO 35008G18KT 330V030 06/M11 A2979 710 28 -100 010/08G18 340V040 RMK AO1 T00611111 $
54779K12N 12N20160321130512103/21/16 13:05:31  5-MIN K12N 211805Z AUTO 32009G17KT 260V360 07/M11 A2979 710 27 0 330/09G17 270V010 RMK AO1 T00721106 $
54779K12N 12N20160321131012103/21/16 13:10:31  5-MIN K12N 211810Z AUTO 35012G19KT 310V010 07/M12 A2979 710 24 0 360/12G19 320V020 RMK AO1 T00721122 $
54779K12N 12N20160321131510503/21/16 13:15:31  5-MIN K12N 211815Z AUTO VRB06G19KT 07/M12 A2979 700 24 0 VRB/06G19 RMK AO1 T00671122 $
54779K12N 12N20160321132010503/21/16 13:20:31  5-MIN K12N 211820Z AUTO VRB05G19KT 07/M12 A2979 700 24 0 VRB/05G19 RMK AO1 T00671122 $
54779K12N 12N20160321132512103/21/16 13:25:31  5-MIN K12N 211825Z AUTO 30010G18KT 240V310 07/M12 A2979 710 24 0 310/10G18 250V320 RMK AO1 T00671122 $
54779K12N 12N20160321133012103/21/16 13:30:31  5-MIN K12N 211830Z AUTO 30007G21KT 240V340 07/M12 A2979 700 24 0 320/07G21 250V350 RMK AO1 T00671122 $
54779K12N 12N20160321133512103/21/16 13:35:31  5-MIN K12N 211835Z AUTO 32007G21KT 270V360 07/M12 A2979 710 25 0 330/07G21 280V010 RMK AO1 T00721117 $
54779K12N 12N20160321134012303/21/16 13:40:31  5-MIN K12N 211840Z AUTO 28010G17KT 220V320 08/M11 A2979 710 24 100 290/10G17 230V330 RMK AO1 T00831111 $
54779K12N 12N20160321134512303/21/16 13:45:31  5-MIN K12N 211845Z AUTO 28012G20KT 230V330 08/M12 A2979 710 24 100 290/12G20 240V340 RMK AO1 T00781117 $
54779K12N 12N20160321135011403/21/16 13:50:31  5-MIN K12N 211850Z AUTO VRB05G20KT 08/M11 A2979 710 24 100 VRB/05G20 RMK AO1 SLP094 T00831111 $
54779K12N 12N20160321135512303/21/16 13:55:31  5-MIN K12N 211855Z AUTO 35009G19KT 300V010 08/M11 A2979 710 25 100 360/09G19 310V020 RMK AO1 T00831106 $
54779K12N 12N20160321140010503/21/16 14:00:31  5-MIN K12N 211900Z AUTO 35012G22KT 07/M11 A2979 700 27 0 010/12G22 RMK AO1 T00721106 $
54779K12N 12N20160321140512103/21/16 14:05:31  5-MIN K12N 211905Z AUTO 33011G23KT 290V030 07/M11 A2980 700 27 0 340/11G23 300V040 RMK AO1 T00671111 $
54779K12N 12N20160321141012403/21/16 14:10:31  5-MIN K12N 211910Z AUTO 32007G23KT 270V350 06/M11 A2980 700 28 -100 330/07G23 280V360 RMK AO1 T00611111 $
54779K12N 12N20160321141512103/21/16 14:15:31  5-MIN K12N 211915Z AUTO 33011G21KT 270V350 07/M11 A2980 700 27 0 340/11G21 280V360 RMK AO1 T00721106 $
54779K12N 12N20160321142012403/21/16 14:20:31  5-MIN K12N 211920Z AUTO 35009G21KT 310V020 06/M10 A2980 690 30 -100 360/09G21 320V030 RMK AO1 T00611100 $
54779K12N 12N20160321142512403/21/16 14:25:31  5-MIN K12N 211925Z AUTO 33008G19KT 250V020 07/M10 A2980 700 29 -100 340/08G19 260V030 RMK AO1 T00671100 $
54779K12N 12N20160321143012103/21/16 14:30:31  5-MIN K12N 211930Z AUTO 33011G23KT 290V010 07/M10 A2980 690 28 0 340/11G23 300V020 RMK AO1 T00721100 $
54779K12N 12N20160321143512103/21/16 14:35:31  5-MIN K12N 211935Z AUTO 33012G24KT 290V360 07/M10 A2981 690 28 0 350/12G24 300V010 RMK AO1 T00721100 $
54779K12N 12N20160321144012403/21/16 14:40:31  5-MIN K12N 211940Z AUTO 32014G24KT 290V360 07/M11 A2981 690 28 -100 330/14G24 300V010 RMK AO1 T00671106 $
54779K12N 12N20160321144512403/21/16 14:45:31  5-MIN K12N 211945Z AUTO 31011G23KT 260V030 07/M11 A2981 690 27 -100 320/11G23 270V040 RMK AO1 T00671111 $
54779K12N 12N20160321145013103/21/16 14:50:31  5-MIN K12N 211950Z AUTO 32007G22KT 210V010 07/M11 A2981 690 28 -100 330/07G22 220V020 RMK AO1 SLP103 T00671106 $
54779K12N 12N20160321145512403/21/16 14:55:31  5-MIN K12N 211955Z AUTO 32011G21KT 290V040 06/M11 A2981 690 28 -100 340/11G21 300V050 RMK AO1 T00611111 $
54779K12N 12N20160321150012403/21/16 15:00:31  5-MIN K12N 212000Z AUTO 34008G21KT 300V020 06/M11 A2982 680 28 -100 350/08G21 310V030 RMK AO1 T00611111 $
54779K12N 12N20160321150512403/21/16 15:05:31  5-MIN K12N 212005Z AUTO 36011G22KT 330V060 06/M11 A2982 680 29 -200 020/11G22 340V070 RMK AO1 T00561111 $
54779K12N 12N20160321151012403/21/16 15:10:31  5-MIN K12N 212010Z AUTO 31008G22KT 270V350 07/M11 A2981 680 27 -100 320/08G22 280V360 RMK AO1 T00671111 $
54779K12N 12N20160321151512403/21/16 15:15:31  5-MIN K12N 212015Z AUTO 30011G19KT 210V360 07/M11 A2981 690 27 -100 320/11G19 220V010 RMK AO1 T00671111 $
54779K12N 12N20160321152012403/21/16 15:20:31  5-MIN K12N 212020Z AUTO 32010G21KT 260V350 07/M12 A2982 680 26 -100 340/10G21 270V360 RMK AO1 T00671117 $
54779K12N 12N20160321152510303/21/16 15:25:31  5-MIN K12N 212025Z AUTO 31009G21KT 07/M11 A2982 680 26 0 320/09G21 RMK AO1 T00721111
54779K12N 12N20160321153011903/21/16 15:30:31  5-MIN K12N 212030Z AUTO 31008G21KT 270V360 07/M12 A2982 680 25 0 320/08G21 280V010 RMK AO1 T00721117
54779K12N 12N20160321153512203/21/16 15:35:31  5-MIN K12N 212035Z AUTO 30012G22KT 230V330 07/M11 A2982 680 27 -100 310/12G22 240V340 RMK AO1 T00671111
54779K12N 12N20160321154010603/21/16 15:40:31  5-MIN K12N 212040Z AUTO 32010G23KT 06/M12 A2982 680 28 -200 330/10G23 RMK AO1 T00561117
54779K12N 12N20160321154512203/21/16 15:45:31  5-MIN K12N 212045Z AUTO 33009G23KT 290V010 06/M12 A2982 680 28 -200 350/09G23 300V020 RMK AO1 T00561117
54779K12N 12N20160321155012903/21/16 15:50:31  5-MIN K12N 212050Z AUTO 32009G19KT 260V360 05/M12 A2982 680 27 -300 340/09G19 270V010 RMK AO1 SLP107 T00501122
54779K12N 12N20160321155512203/21/16 15:55:31  5-MIN K12N 212055Z AUTO 33010G20KT 290V350 05/M12 A2982 670 27 -300 350/10G20 300V360 RMK AO1 T00501122
54779K12N 12N20160321160010603/21/16 16:00:31  5-MIN K12N 212100Z AUTO 34010G20KT 06/M12 A2982 670 26 -200 350/10G20 RMK AO1 T00561122
54779K12N 12N20160321160512203/21/16 16:05:31  5-MIN K12N 212105Z AUTO 32011G19KT 300V010 06/M12 A2982 670 26 -200 330/11G19 310V020 RMK AO1 T00561122
54779K12N 12N20160321161010603/21/16 16:10:31  5-MIN K12N 212110Z AUTO 30007G19KT 06/M12 A2983 670 25 -100 320/07G19 RMK AO1 T00611122
54779K12N 12N20160321161510603/21/16 16:15:31  5-MIN K12N 212115Z AUTO 30011G16KT 07/M12 A2983 670 26 -100 320/11G16 RMK AO1 T00671117
54779K12N 12N20160321162012203/21/16 16:20:31  5-MIN K12N 212120Z AUTO 32012G21KT 250V040 06/M12 A2983 670 27 -200 330/12G21 260V050 RMK AO1 T00611117
54779K12N 12N20160321162512203/21/16 16:25:31  5-MIN K12N 212125Z AUTO 35008G21KT 300V020 06/M12 A2983 670 25 -200 360/08G21 310V030 RMK AO1 T00611122
54779K12N 12N20160321163012203/21/16 16:30:31  5-MIN K12N 212130Z AUTO 33010G20KT 240V360 06/M12 A2983 670 26 -200 340/10G20 250V010 RMK AO1 T00561122
54779K12N 12N20160321163512203/21/16 16:35:31  5-MIN K12N 212135Z AUTO 32008G20KT 280V350 05/M12 A2983 660 27 -300 330/08G20 290V360 RMK AO1 T00501122
54779K12N 12N20160321164012203/21/16 16:40:31  5-MIN K12N 212140Z AUTO 32009G20KT 270V350 05/M12 A2984 660 27 -300 330/09G20 280V360 RMK AO1 T00501122
54779K12N 12N20160321164509003/21/16 16:45:31  5-MIN K12N 212145Z AUTO 05/M12 A2984 660 27 -300 M /M RMK AO1 T00501122
54779K12N 12N20160321165012903/21/16 16:50:31  5-MIN K12N 212150Z AUTO 32009G17KT 280V010 05/M12 A2984 660 29 -300 330/09G17 290V020 RMK AO1 SLP113 T00501117
54779K12N 12N20160321165509003/21/16 16:55:31  5-MIN K12N 212155Z AUTO 06/M12 A2984 660 28 -200 M /M RMK AO1 T00561117
54779K12N 12N20160321170010603/21/16 17:00:31  5-MIN K12N 212200Z AUTO 33010G17KT 05/M12 A2984 660 29 -300 340/10G17 RMK AO1 T00501117
54779K12N 12N20160321170512203/21/16 17:05:31  5-MIN K12N 212205Z AUTO 34009G17KT 290V030 05/M11 A2985 650 30 -300 350/09G17 300V040 RMK AO1 T00501111
54779K12N 12N20160321171012203/21/16 17:10:31  5-MIN K12N 212210Z AUTO 33008G18KT 300V360 06/M11 A2985 650 29 -200 340/08G18 310V010 RMK AO1 T00561111
54779K12N 12N20160321171510603/21/16 17:15:31  5-MIN K12N 212215Z AUTO VRB05G18KT 06/M11 A2985 650 29 -200 VRB/05G18 RMK AO1 T00561111
54779K12N 12N20160321172012203/21/16 17:20:31  5-MIN K12N 212220Z AUTO 34012G23KT 300V360 06/M11 A2985 650 29 -200 350/12G23 310V010 RMK AO1 T00561111
54779K12N 12N20160321172510603/21/16 17:25:31  5-MIN K12N 212225Z AUTO 32010G23KT 06/M11 A2986 650 30 -200 330/10G23 RMK AO1 T00561106
54779K12N 12N20160321173010603/21/16 17:30:31  5-MIN K12N 212230Z AUTO 01006G19KT 05/M11 A2986 640 31 -300 030/06G19 RMK AO1 T00501106
54779K12N 12N20160321173511603/21/16 17:35:31  5-MIN K12N 212235Z AUTO 35008KT 310V020 05/M09 A2986 640 34 -300 360/08 320V030 RMK AO1 T00501094
54779K12N 12N20160321174010003/21/16 17:40:31  5-MIN K12N 212240Z AUTO VRB05KT 05/M09 A2987 640 34 -300 VRB/05 RMK AO1 T00501094
54779K12N 12N20160321174511603/21/16 17:45:31  5-MIN K12N 212245Z AUTO 33007KT 280V360 05/M09 A2987 630 34 -300 340/07 290V010 RMK AO1 T00501094
54779K12N 12N20160321175010703/21/16 17:50:31  5-MIN K12N 212250Z AUTO 32007KT 05/M09 A2987 630 34 -300 340/07 RMK AO1 SLP125 T00501094
54779K12N 12N20160321175510603/21/16 17:55:31  5-MIN K12N 212255Z AUTO 34009G15KT 04/M09 A2988 630 36 -400 360/09G15 RMK AO1 T00441094
54779K12N 12N20160321180010603/21/16 18:00:31  5-MIN K12N 212300Z AUTO VRB06G15KT 04/M10 A2988 620 34 -400 VRB/06G15 RMK AO1 T00441100
54779K12N 12N20160321180512203/21/16 18:05:31  5-MIN K12N 212305Z AUTO 32008G17KT 260V360 04/M10 A2988 620 34 -400 340/08G17 270V010 RMK AO1 T00441100
54779K12N 12N20160321181012203/21/16 18:10:31  5-MIN K12N 212310Z AUTO 34009G17KT 270V030 04/M09 A2988 620 36 -400 350/09G17 280V040 RMK AO1 T00441094
54779K12N 12N20160321181510603/21/16 18:15:31  5-MIN K12N 212315Z AUTO 34007G15KT 04/M10 A2989 610 34 -400 350/07G15 RMK AO1 T00441100
54779K12N 12N20160321182010603/21/16 18:20:31  5-MIN K12N 212320Z AUTO 35005G15KT 04/M09 A2989 610 36 -400 360/05G15 RMK AO1 T00441094
54779K12N 12N20160321182512203/21/16 18:25:31  5-MIN K12N 212325Z AUTO 35008G17KT 140V120 04/M10 A2989 610 34 -400 010/08G17 150V130 RMK AO1 T00441100
54779K12N 12N20160321183012203/21/16 18:30:31  5-MIN K12N 212330Z AUTO 35009G17KT 310V020 04/M11 A2990 610 33 -400 360/09G17 320V030 RMK AO1 T00441106
54779K12N 12N20160321183512203/21/16 18:35:31  5-MIN K12N 212335Z AUTO 33010G17KT 280V360 04/M11 A2990 600 34 -500 340/10G17 290V010 RMK AO1 T00391106
54779K12N 12N20160321184010603/21/16 18:40:31  5-MIN K12N 212340Z AUTO VRB05G17KT 04/M11 A2991 600 34 -500 VRB/05G17 RMK AO1 T00391106
54779K12N 12N20160321184512203/21/16 18:45:31  5-MIN K12N 212345Z AUTO 31010G19KT 260V350 04/M10 A2991 590 35 -500 320/10G19 270V360 RMK AO1 T00391100
54779K12N 12N20160321185014703/21/16 18:50:31  5-MIN K12N 212350Z AUTO 31012G19KT 290V020 04/M10 A2992 590 35 -500 330/12G19 300V030 RMK AO1 SLP141 T00391100 10083 20039 53011
54779K12N 12N20160321185510603/21/16 18:55:31  5-MIN K12N 212355Z AUTO VRB06G19KT 04/M10 A2992 580 35 -500 VRB/06G19 RMK AO1 T00391100
54779K12N 12N20160321190010603/21/16 19:00:31  5-MIN K12N 220000Z AUTO 31010G16KT 04/M09 A2992 580 37 -500 320/10G16 RMK AO1 T00391094
54779K12N 12N20160321190512203/21/16 19:05:31  5-MIN K12N 220005Z AUTO 32008G16KT 260V360 04/M09 A2993 580 37 -500 330/08G16 270V010 RMK AO1 T00391094
54779K12N 12N20160321191012203/21/16 19:10:31  5-MIN K12N 220010Z AUTO 35007G17KT 300V020 04/M09 A2994 570 39 -500 360/07G17 310V030 RMK AO1 T00391089
54779K12N 12N20160321191512903/21/16 19:15:31  5-MIN K12N 220015Z AUTO 35010G17KT 320V020 03/M09 A2995 560 40 -600 360/10G17 330V030 RMK AO1 PRESRR T00331089
54779K12N 12N20160321192012203/21/16 19:20:31  5-MIN K12N 220020Z AUTO 34011G17KT 290V010 03/M09 A2995 560 40 -600 360/11G17 300V020 RMK AO1 T00331089
54779K12N 12N20160321192512203/21/16 19:25:31  5-MIN K12N 220025Z AUTO 33008G20KT 270V010 03/M08 A2995 560 44 -700 340/08G20 280V020 RMK AO1 T00281083
54779K12N 12N20160321193012203/21/16 19:30:31  5-MIN K12N 220030Z AUTO 35009G20KT 300V030 03/M08 A2996 550 44 -700 360/09G20 310V040 RMK AO1 T00281083
54779K12N 12N20160321193512203/21/16 19:35:31  5-MIN K12N 220035Z AUTO 34010G20KT 300V020 03/M08 A2996 550 44 -700 350/10G20 310V030 RMK AO1 T00281083
54779K12N 12N20160321194012203/21/16 19:40:31  5-MIN K12N 220040Z AUTO 33008G19KT 280V020 03/M08 A2997 540 46 -700 340/08G19 290V030 RMK AO1 T00281078
54779K12N 12N20160321194510603/21/16 19:45:31  5-MIN K12N 220045Z AUTO VRB05G15KT 03/M08 A2997 540 46 -700 VRB/05G15 RMK AO1 T00281078
54779K12N 12N20160321195012903/21/16 19:50:31  5-MIN K12N 220050Z AUTO 34008G18KT 290V010 02/M08 A2997 540 47 -800 350/08G18 300V020 RMK AO1 SLP159 T00221078
54779K12N 12N20160321195510603/21/16 19:55:31  5-MIN K12N 220055Z AUTO VRB06G18KT 02/M08 A2997 530 47 -800 VRB/06G18 RMK AO1 T00221078
54779K12N 12N20160321200009003/21/16 20:00:31  5-MIN K12N 220100Z AUTO 02/M08 A2998 530 47 -800 M /M RMK AO1 T00221078
54779K12N 12N20160321200510603/21/16 20:05:31  5-MIN K12N 220105Z AUTO 34008G15KT 02/M07 A2998 530 50 -800 360/08G15 RMK AO1 T00221072
54779K12N 12N20160321201010603/21/16 20:10:31  5-MIN K12N 220110Z AUTO 35006G16KT 02/M07 A2998 530 50 -800 010/06G16 RMK AO1 T00221072
54779K12N 12N20160321201510603/21/16 20:15:31  5-MIN K12N 220115Z AUTO 34007G16KT 02/M07 A2998 530 50 -800 360/07G16 RMK AO1 T00221072
54779K12N 12N20160321202011603/21/16 20:20:31  5-MIN K12N 220120Z AUTO 35007KT 320V020 02/M07 A2999 520 52 -900 360/07 330V030 RMK AO1 T00171072
54779K12N 12N20160321202510003/21/16 20:25:31  5-MIN K12N 220125Z AUTO VRB06KT 02/M07 A2999 520 50 -800 VRB/06 RMK AO1 T00221072
54779K12N 12N20160321203010003/21/16 20:30:31  5-MIN K12N 220130Z AUTO 35005KT 02/M07 A2999 520 50 -800 360/05 RMK AO1 T00221072
54779K12N 12N20160321203510003/21/16 20:35:31  5-MIN K12N 220135Z AUTO 35005KT 02/M07 A2999 520 52 -900 360/05 RMK AO1 T00171072
54779K12N 12N20160321204011603/21/16 20:40:31  5-MIN K12N 220140Z AUTO 33008KT 280V360 02/M07 A2999 520 52 -900 340/08 290V010 RMK AO1 T00171072
54779K12N 12N20160321204512203/21/16 20:45:31  5-MIN K12N 220145Z AUTO 34009G16KT 310V010 02/M07 A3000 520 52 -900 350/09G16 320V020 RMK AO1 T00171072
54779K12N 12N20160321205011303/21/16 20:50:31  5-MIN K12N 220150Z AUTO VRB06G14KT 02/M07 A3000 510 52 -900 VRB/06G14 RMK AO1 SLP166 T00171072
54779K12N 12N20160321205510603/21/16 20:55:31  5-MIN K12N 220155Z AUTO 34007G14KT 02/M07 A3000 510 52 -900 350/07G14 RMK AO1 T00171072
54779K12N 12N20160321210010603/21/16 21:00:31  5-MIN K12N 220200Z AUTO 34006G14KT 02/M07 A3000 510 54 -900 360/06G14 RMK AO1 T00171067
54779K12N 12N20160321210510003/21/16 21:05:31  5-MIN K12N 220205Z AUTO VRB06KT 02/M07 A3001 510 54 -900 VRB/06 RMK AO1 T00171067
54779K12N 12N20160321211011603/21/16 21:10:31  5-MIN K12N 220210Z AUTO 32007KT 250V360 02/M07 A3001 510 54 -900 330/07 260V010 RMK AO1 T00171067
54779K12N 12N20160321211511603/21/16 21:15:31  5-MIN K12N 220215Z AUTO 34007KT 280V360 02/M07 A3001 500 54 -900 350/07 290V010 RMK AO1 T00171067
54779K12N 12N20160321212009003/21/16 21:20:31  5-MIN K12N 220220Z AUTO 02/M07 A3001 500 52 -900 M /M RMK AO1 T00171072
54779K12N 12N20160321212512203/21/16 21:25:31  5-MIN K12N 220225Z AUTO 34009G19KT 310V030 02/M07 A3001 500 52 -900 350/09G19 320V040 RMK AO1 T00171072
54779K12N 12N20160321213012203/21/16 21:30:31  5-MIN K12N 220230Z AUTO 34008G22KT 310V020 02/M08 A3002 500 49 -900 350/08G22 320V030 RMK AO1 T00171078
54779K12N 12N20160321213512203/21/16 21:35:31  5-MIN K12N 220235Z AUTO 34009G22KT 290V010 02/M08 A3002 500 49 -900 350/09G22 300V020 RMK AO1 T00171078
54779K12N 12N20160321214010603/21/16 21:40:31  5-MIN K12N 220240Z AUTO 35013G21KT 02/M08 A3002 490 49 -900 360/13G21 RMK AO1 T00171078
54779K12N 12N20160321214510603/21/16 21:45:31  5-MIN K12N 220245Z AUTO VRB06G21KT 02/M08 A3002 490 49 -900 VRB/06G21 RMK AO1 T00171078
54779K12N 12N20160321215011903/21/16 21:50:31  5-MIN K12N 220250Z AUTO VRB05G20KT 02/M08 A3002 490 49 -900 VRB/05G20 RMK AO1 SLP175 T00171078 53031
54779K12N 12N20160321215510603/21/16 21:55:31  5-MIN K12N 220255Z AUTO VRB06G20KT 02/M08 A3003 490 49 -900 VRB/06G20 RMK AO1 T00171078
54779K12N 12N20160321220010703/21/16 22:00:31  5-MIN K12N 220300Z AUTO 34006G15KT 01/M07 A3003 490 54 -1000 360/06G15 RMK AO1 T00111072
54779K12N 12N20160321220510703/21/16 22:05:31  5-MIN K12N 220305Z AUTO VRB05G15KT 01/M07 A3003 490 54 -1000 VRB/05G15 RMK AO1 T00111072
54779K12N 12N20160321221010103/21/16 22:10:31  5-MIN K12N 220310Z AUTO VRB06KT 01/M07 A3003 490 54 -1000 VRB/06 RMK AO1 T00111072
54779K12N 12N20160321221510103/21/16 22:15:31  5-MIN K12N 220315Z AUTO VRB04KT 01/M07 A3003 480 54 -1000 VRB/04 RMK AO1 T00111072
54779K12N 12N20160321222010103/21/16 22:20:31  5-MIN K12N 220320Z AUTO VRB04KT 01/M07 A3003 480 54 -1000 VRB/04 RMK AO1 T00111072
54779K12N 12N20160321222510103/21/16 22:25:31  5-MIN K12N 220325Z AUTO VRB04KT 01/M07 A3003 480 54 -1000 VRB/04 RMK AO1 T00111072
54779K12N 12N20160321223010103/21/16 22:30:31  5-MIN K12N 220330Z AUTO VRB05KT 01/M07 A3003 480 54 -1000 VRB/05 RMK AO1 T00111072
54779K12N 12N20160321223510103/21/16 22:35:31  5-MIN K12N 220335Z AUTO VRB03KT 01/M07 A3004 480 54 -1000 VRB/03 RMK AO1 T00111072
54779K12N 12N20160321224010103/21/16 22:40:31  5-MIN K12N 220340Z AUTO VRB03KT 01/M07 A3004 480 54 -1000 VRB/03 RMK AO1 T00111072
54779K12N 12N20160321224510103/21/16 22:45:31  5-MIN K12N 220345Z AUTO VRB04KT 01/M07 A3004 480 56 -1100 VRB/04 RMK AO1 T00061072
54779K12N 12N20160321225010803/21/16 22:50:31  5-MIN K12N 220350Z AUTO VRB03KT 01/M07 A3004 470 54 -1000 VRB/03 RMK AO1 SLP180 T00111072
54779K12N 12N20160321225510103/21/16 22:55:31  5-MIN K12N 220355Z AUTO VRB03KT 01/M07 A3004 470 54 -1000 VRB/03 RMK AO1 T00111072
54779K12N 12N20160321230010103/21/16 23:00:31  5-MIN K12N 220400Z AUTO VRB04KT 01/M07 A3004 470 54 -1000 VRB/04 RMK AO1 T00111072
54779K12N 12N20160321230510103/21/16 23:05:31  5-MIN K12N 220405Z AUTO 00000KT 01/M07 A3004 470 56 -1100 000/00 RMK AO1 T00061072
54779K12N 12N20160321231010103/21/16 23:10:31  5-MIN K12N 220410Z AUTO 00000KT 01/M07 A3004 470 56 -1100 000/00 RMK AO1 T00061072
54779K12N 12N20160321231510103/21/16 23:15:31  5-MIN K12N 220415Z AUTO 00000KT 01/M07 A3004 470 56 -1100 000/00 RMK AO1 T00061072
54779K12N 12N20160321232010103/21/16 23:20:31  5-MIN K12N 220420Z AUTO 00000KT 01/M07 A3004 470 56 -1100 000/00 RMK AO1 T00061072
54779K12N 12N20160321232510103/21/16 23:25:31  5-MIN K12N 220425Z AUTO 00000KT 00/M07 A3004 470 58 -1200 000/00 RMK AO1 T00001072
54779K12N 12N20160321233010103/21/16 23:30:31  5-MIN K12N 220430Z AUTO 00000KT 01/M08 A3005 470 54 -1100 000/00 RMK AO1 T00061078
54779K12N 12N20160321233510103/21/16 23:35:31  5-MIN K12N 220435Z AUTO 00000KT 00/M08 A3005 470 56 -1200 000/00 RMK AO1 T00001078
54779K12N 12N20160321234010103/21/16 23:40:31  5-MIN K12N 220440Z AUTO 00000KT 00/M08 A3005 470 56 -1200 000/00 RMK AO1 T00001078
54779K12N 12N20160321234510103/21/16 23:45:31  5-MIN K12N 220445Z AUTO 00000KT 00/M08 A3005 470 56 -1200 000/00 RMK AO1 T00001078
54779K12N 12N20160321235011803/21/16 23:50:31  5-MIN K12N 220450Z AUTO 00000KT 00/M08 A3005 470 56 -1200 000/00 RMK AO1 SLP183 T00001078 400831028
54779K12N 12N20160321235510103/21/16 23:55:31  5-MIN K12N 220455Z AUTO 00000KT 00/M08 A3005 470 53 -1200 000/00 RMK AO1 T00001083
54779K12N 12N20160322000010103/22/16 00:00:31  5-MIN K12N 220500Z AUTO 00000KT 00/M08 A3005 470 53 -1200 000/00 RMK AO1 T00001083
54779K12N 12N20160322000510103/22/16 00:05:31  5-MIN K12N 220505Z AUTO 33003KT 00/M08 A3005 470 53 -1200 340/03 RMK AO1 T00001083
54779K12N 12N20160322001010103/22/16 00:10:31  5-MIN K12N 220510Z AUTO 33003KT 00/M08 A3005 470 53 -1200 340/03 RMK AO1 T00001083
54779K12N 12N20160322001510103/22/16 00:15:31  5-MIN K12N 220515Z AUTO 00000KT 01/M08 A3005 470 51 -1100 000/00 RMK AO1 T00061083
54779K12N 12N20160322002010103/22/16 00:20:31  5-MIN K12N 220520Z AUTO 00000KT 00/M08 A3005 470 53 -1200 000/00 RMK AO1 T00001083
54779K12N 12N20160322002510103/22/16 00:25:31  5-MIN K12N 220525Z AUTO 00000KT 00/M08 A3005 460 53 -1200 000/00 RMK AO1 T00001083
54779K12N 12N20160322003010103/22/16 00:30:31  5-MIN K12N 220530Z AUTO 00000KT 00/M08 A3005 460 56 -1200 000/00 RMK AO1 T00001078
54779K12N 12N20160322003510103/22/16 00:35:31  5-MIN K12N 220535Z AUTO 00000KT 00/M08 A3005 460 53 -1200 000/00 RMK AO1 T00001083
54779K12N 12N20160322004010203/22/16 00:40:31  5-MIN K12N 220540Z AUTO 00000KT M01/M08 A3005 460 58 -1200 000/00 RMK AO1 T10061078
54779K12N 12N20160322004510203/22/16 00:45:31  5-MIN K12N 220545Z AUTO 00000KT M01/M08 A3005 460 60 -1300 000/00 RMK AO1 T10111078
54779K12N 12N20160322005012703/22/16 00:50:31  5-MIN K12N 220550Z AUTO 00000KT M01/M08 A3006 460 60 -1300 000/00 RMK AO1 SLP186 T10111078 10039 21011 51034
54779K12N 12N20160322005510203/22/16 00:55:31  5-MIN K12N 220555Z AUTO 00000KT M01/M08 A3005 460 58 -1200 000/00 RMK AO1 T10061078
54779K12N 12N20160322010010203/22/16 01:00:31  5-MIN K12N 220600Z AUTO 00000KT M01/M07 A3005 460 63 -1200 000/00 RMK AO1 T10061067
54779K12N 12N20160322010510203/22/16 01:05:31  5-MIN K12N 220605Z AUTO 00000KT M01/M08 A3006 460 60 -1300 000/00 RMK AO1 T10111078
54779K12N 12N20160322011010203/22/16 01:10:31  5-MIN K12N 220610Z AUTO 00000KT M02/M08 A3006 460 63 -1400 000/00 RMK AO1 T10171078
54779K12N 12N20160322011510203/22/16 01:15:31  5-MIN K12N 220615Z AUTO 00000KT M02/M07 A3005 460 69 -1500 000/00 RMK AO1 T10221072
54779K12N 12N20160322012010203/22/16 01:20:31  5-MIN K12N 220620Z AUTO 00000KT M02/M07 A3006 460 66 -1400 000/00 RMK AO1 T10171072
54779K12N 12N20160322012510203/22/16 01:25:31  5-MIN K12N 220625Z AUTO 00000KT M02/M07 A3006 460 66 -1400 000/00 RMK AO1 T10171072
54779K12N 12N20160322013010203/22/16 01:30:31  5-MIN K12N 220630Z AUTO 17003KT M02/M07 A3006 460 66 -1400 190/03 RMK AO1 T10171072
54779K12N 12N20160322013510203/22/16 01:35:31  5-MIN K12N 220635Z AUTO 00000KT M02/M07 A3006 460 69 -1500 000/00 RMK AO1 T10221072
54779K12N 12N20160322014010203/22/16 01:40:31  5-MIN K12N 220640Z AUTO 00000KT M03/M07 A3006 460 71 -1500 000/00 RMK AO1 T10281072
54779K12N 12N20160322014510203/22/16 01:45:31  5-MIN K12N 220645Z AUTO 00000KT M02/M07 A3006 450 69 -1500 000/00 RMK AO1 T10221072
54779K12N 12N20160322015010903/22/16 01:50:31  5-MIN K12N 220650Z AUTO 00000KT M03/M08 A3006 450 68 -1500 000/00 RMK AO1 SLP188 T10281078
54779K12N 12N20160322015510203/22/16 01:55:31  5-MIN K12N 220655Z AUTO 00000KT M03/M08 A3006 450 68 -1500 000/00 RMK AO1 T10281078
54779K12N 12N20160322020010203/22/16 02:00:31  5-MIN K12N 220700Z AUTO 00000KT M02/M07 A3006 450 69 -1500 000/00 RMK AO1 T10221072
54779K12N 12N20160322020510203/22/16 02:05:31  5-MIN K12N 220705Z AUTO 00000KT M02/M08 A3007 450 63 -1400 000/00 RMK AO1 T10171078
54779K12N 12N20160322021010203/22/16 02:10:31  5-MIN K12N 220710Z AUTO VRB03KT M02/M07 A3007 450 66 -1400 VRB/03 RMK AO1 T10171072
54779K12N 12N20160322021510203/22/16 02:15:31  5-MIN K12N 220715Z AUTO 18003KT M02/M07 A3007 450 69 -1500 200/03 RMK AO1 T10221072
54779K12N 12N20160322022010203/22/16 02:20:31  5-MIN K12N 220720Z AUTO 00000KT M02/M08 A3007 450 63 -1400 000/00 RMK AO1 T10171078
54779K12N 12N20160322022510203/22/16 02:25:31  5-MIN K12N 220725Z AUTO 00000KT M02/M07 A3007 450 69 -1500 000/00 RMK AO1 T10221072
54779K12N 12N20160322023010203/22/16 02:30:31  5-MIN K12N 220730Z AUTO 17003KT M02/M08 A3007 450 66 -1500 190/03 RMK AO1 T10221078
54779K12N 12N20160322023510203/22/16 02:35:31  5-MIN K12N 220735Z AUTO 18003KT M02/M08 A3007 450 63 -1400 200/03 RMK AO1 T10171078
54779K12N 12N20160322024010203/22/16 02:40:31  5-MIN K12N 220740Z AUTO 00000KT M02/M08 A3007 450 63 -1400 000/00 RMK AO1 T10171078
54779K12N 12N20160322024510203/22/16 02:45:31  5-MIN K12N 220745Z AUTO 18003KT M02/M08 A3007 450 66 -1500 200/03 RMK AO1 T10221078
54779K12N 12N20160322025010903/22/16 02:50:31  5-MIN K12N 220750Z AUTO 00000KT M02/M08 A3007 450 63 -1400 000/00 RMK AO1 SLP191 T10171078
54779K12N 12N20160322025510203/22/16 02:55:31  5-MIN K12N 220755Z AUTO 00000KT M02/M07 A3007 450 69 -1500 000/00 RMK AO1 T10221072
54779K12N 12N20160322030010203/22/16 03:00:31  5-MIN K12N 220800Z AUTO 00000KT M02/M07 A3007 440 72 -1500 000/00 RMK AO1 T10221067
54779K12N 12N20160322030510203/22/16 03:05:31  5-MIN K12N 220805Z AUTO 00000KT M03/M07 A3008 440 71 -1500 000/00 RMK AO1 T10281072
54779K12N 12N20160322031010203/22/16 03:10:31  5-MIN K12N 220810Z AUTO 00000KT M02/M07 A3008 440 72 -1500 000/00 RMK AO1 T10221067
54779K12N 12N20160322031510203/22/16 03:15:31  5-MIN K12N 220815Z AUTO 00000KT M02/M06 A3008 440 75 -1500 000/00 RMK AO1 T10221061
54779K12N 12N20160322032010203/22/16 03:20:31  5-MIN K12N 220820Z AUTO 00000KT M03/M07 A3008 440 75 -1500 000/00 RMK AO1 T10281067
54779K12N 12N20160322032510203/22/16 03:25:31  5-MIN K12N 220825Z AUTO 00000KT M03/M07 A3008 440 75 -1500 000/00 RMK AO1 T10281067
54779K12N 12N20160322033010203/22/16 03:30:31  5-MIN K12N 220830Z AUTO 00000KT M03/M07 A3008 440 71 -1600 000/00 RMK AO1 T10281072
54779K12N 12N20160322033510203/22/16 03:35:31  5-MIN K12N 220835Z AUTO 00000KT M02/M07 A3009 430 69 -1500 000/00 RMK AO1 T10221072
54779K12N 12N20160322034010203/22/16 03:40:31  5-MIN K12N 220840Z AUTO 00000KT M03/M07 A3009 430 75 -1600 000/00 RMK AO1 T10281067
54779K12N 12N20160322034510203/22/16 03:45:31  5-MIN K12N 220845Z AUTO 00000KT M02/M07 A3009 430 72 -1500 000/00 RMK AO1 T10221067
54779K12N 12N20160322035011503/22/16 03:50:31  5-MIN K12N 220850Z AUTO 00000KT M02/M07 A3009 430 72 -1500 000/00 RMK AO1 SLP199 T10221067 51010
54779K12N 12N20160322035510203/22/16 03:55:31  5-MIN K12N 220855Z AUTO 00000KT M03/M07 A3009 430 71 -1600 000/00 RMK AO1 T10281072
54779K12N 12N20160322040010203/22/16 04:00:31  5-MIN K12N 220900Z AUTO 00000KT M03/M08 A3009 430 68 -1600 000/00 RMK AO1 T10281078
54779K12N 12N20160322040510203/22/16 04:05:31  5-MIN K12N 220905Z AUTO 00000KT M03/M08 A3009 430 68 -1600 000/00 RMK AO1 T10281078
54779K12N 12N20160322041010203/22/16 04:10:31  5-MIN K12N 220910Z AUTO 00000KT M03/M08 A3010 420 66 -1600 000/00 RMK AO1 T10281083
54779K12N 12N20160322041510203/22/16 04:15:31  5-MIN K12N 220915Z AUTO 00000KT M03/M08 A3010 420 68 -1600 000/00 RMK AO1 T10281078
54779K12N 12N20160322042010203/22/16 04:20:31  5-MIN K12N 220920Z AUTO 00000KT M03/M07 A3010 420 71 -1600 000/00 RMK AO1 T10281072
54779K12N 12N20160322042510203/22/16 04:25:31  5-MIN K12N 220925Z AUTO 00000KT M03/M06 A3010 420 78 -1600 000/00 RMK AO1 T10281061
54779K12N 12N20160322043010203/22/16 04:30:31  5-MIN K12N 220930Z AUTO 00000KT M03/M07 A3010 420 75 -1600 000/00 RMK AO1 T10281067
54779K12N 12N20160322043510203/22/16 04:35:31  5-MIN K12N 220935Z AUTO 00000KT M03/M07 A3010 420 75 -1600 000/00 RMK AO1 T10281067
54779K12N 12N20160322044010203/22/16 04:40:31  5-MIN K12N 220940Z AUTO 00000KT M03/M07 A3011 410 75 -1600 000/00 RMK AO1 T10281067
54779K12N 12N20160322044510203/22/16 04:45:31  5-MIN K12N 220945Z AUTO 00000KT M03/M07 A3011 410 71 -1600 000/00 RMK AO1 T10281072
54779K12N 12N20160322045010903/22/16 04:50:31  5-MIN K12N 220950Z AUTO 00000KT M03/M07 A3011 410 71 -1600 000/00 RMK AO1 SLP205 T10281072
54779K12N 12N20160322045510203/22/16 04:55:31  5-MIN K12N 220955Z AUTO 00000KT M03/M07 A3011 410 74 -1700 000/00 RMK AO1 T10331072
54779K12N 12N20160322050010203/22/16 05:00:31  5-MIN K12N 221000Z AUTO 00000KT M03/M08 A3011 410 68 -1600 000/00 RMK AO1 T10281078
54779K12N 12N20160322050510203/22/16 05:05:31  5-MIN K12N 221005Z AUTO 00000KT M03/M08 A3011 410 68 -1600 000/00 RMK AO1 T10281078
54779K12N 12N20160322051010203/22/16 05:10:31  5-MIN K12N 221010Z AUTO 00000KT M03/M07 A3011 410 71 -1600 000/00 RMK AO1 T10281072
54779K12N 12N20160322051510203/22/16 05:15:31  5-MIN K12N 221015Z AUTO 00000KT M03/M07 A3012 410 71 -1600 000/00 RMK AO1 T10281072
54779K12N 12N20160322052010203/22/16 05:20:31  5-MIN K12N 221020Z AUTO 00000KT M03/M07 A3012 400 74 -1700 000/00 RMK AO1 T10331072
54779K12N 12N20160322052510203/22/16 05:25:31  5-MIN K12N 221025Z AUTO 00000KT M03/M07 A3012 400 71 -1600 000/00 RMK AO1 T10281072
54779K12N 12N20160322053010203/22/16 05:30:31  5-MIN K12N 221030Z AUTO 00000KT M03/M07 A3012 400 71 -1600 000/00 RMK AO1 T10281072
54779K12N 12N20160322053510203/22/16 05:35:31  5-MIN K12N 221035Z AUTO 00000KT M03/M07 A3012 400 71 -1600 000/00 RMK AO1 T10281072
54779K12N 12N20160322054010203/22/16 05:40:31  5-MIN K12N 221040Z AUTO 00000KT M03/M07 A3012 400 71 -1600 000/00 RMK AO1 T10281072
54779K12N 12N20160322054510203/22/16 05:45:31  5-MIN K12N 221045Z AUTO 00000KT M03/M08 A3012 400 71 -1700 000/00 RMK AO1 T10331078
54779K12N 12N20160322055010903/22/16 05:50:31  5-MIN K12N 221050Z AUTO 00000KT M03/M07 A3012 400 71 -1600 000/00 RMK AO1 SLP211 T10281072
54779K12N 12N20160322055510203/22/16 05:55:31  5-MIN K12N 221055Z AUTO 00000KT M03/M07 A3013 390 74 -1700 000/00 RMK AO1 T10331072
54779K12N 12N20160322060010203/22/16 06:00:31  5-MIN K12N 221100Z AUTO 00000KT M03/M07 A3013 390 71 -1600 000/00 RMK AO1 T10281072
54779K12N 12N20160322060510203/22/16 06:05:31  5-MIN K12N 221105Z AUTO 19003KT M03/M07 A3013 390 71 -1600 200/03 RMK AO1 T10281072
54779K12N 12N20160322061010203/22/16 06:10:31  5-MIN K12N 221110Z AUTO 00000KT M03/M07 A3013 390 71 -1600 000/00 RMK AO1 T10281072
54779K12N 12N20160322061510203/22/16 06:15:31  5-MIN K12N 221115Z AUTO 20003KT M03/M07 A3014 380 71 -1600 210/03 RMK AO1 T10281072
54779K12N 12N20160322062010203/22/16 06:20:31  5-MIN K12N 221120Z AUTO 00000KT M03/M07 A3014 380 74 -1700 000/00 RMK AO1 T10331072
54779K12N 12N20160322062510203/22/16 06:25:31  5-MIN K12N 221125Z AUTO 00000KT M03/M07 A3014 380 75 -1600 000/00 RMK AO1 T10281067
54779K12N 12N20160322063010203/22/16 06:30:31  5-MIN K12N 221130Z AUTO 00000KT M03/M07 A3014 380 71 -1600 000/00 RMK AO1 T10281072
54779K12N 12N20160322063510203/22/16 06:35:31  5-MIN K12N 221135Z AUTO 00000KT M03/M07 A3014 380 74 -1700 000/00 RMK AO1 T10331072
54779K12N 12N20160322064010203/22/16 06:40:31  5-MIN K12N 221140Z AUTO 00000KT M03/M07 A3014 380 71 -1600 000/00 RMK AO1 T10281072
54779K12N 12N20160322064510203/22/16 06:45:31  5-MIN K12N 221145Z AUTO 00000KT M02/M07 A3015 380 69 -1600 000/00 RMK AO1 T10221072
54779K12N 12N20160322065013303/22/16 06:50:31  5-MIN K12N 221150Z AUTO 16003KT M02/M07 A3015 380 69 -1600 180/03 RMK AO1 SLP219 7//// T10221072 11006 21033 53012
54779K12N 12N20160322065510203/22/16 06:55:31  5-MIN K12N 221155Z AUTO 16003KT M02/M07 A3015 370 69 -1600 180/03 RMK AO1 T10221072
54779K12N 12N20160322070010203/22/16 07:00:31  5-MIN K12N 221200Z AUTO 17003KT M02/M07 A3015 370 66 -1500 180/03 RMK AO1 T10171072
54779K12N 12N20160322070510203/22/16 07:05:31  5-MIN K12N 221205Z AUTO 16003KT M02/M07 A3015 370 66 -1500 180/03 RMK AO1 T10171072
54779K12N 12N20160322071010203/22/16 07:10:31  5-MIN K12N 221210Z AUTO VRB03KT M01/M08 A3016 370 60 -1400 VRB/03 RMK AO1 T10111078
54779K12N 12N20160322071510203/22/16 07:15:31  5-MIN K12N 221215Z AUTO 16003KT M01/M08 A3016 370 58 -1400 170/03 RMK AO1 T10061078
54779K12N 12N20160322072010203/22/16 07:20:31  5-MIN K12N 221220Z AUTO 16003KT M01/M08 A3016 370 58 -1400 170/03 RMK AO1 T10061078
54779K12N 12N20160322072510203/22/16 07:25:31  5-MIN K12N 221225Z AUTO 00000KT M01/M08 A3016 370 58 -1400 000/00 RMK AO1 T10061078
54779K12N 12N20160322073010103/22/16 07:30:31  5-MIN K12N 221230Z AUTO 00000KT 00/M07 A3016 370 58 -1300 000/00 RMK AO1 T00001072
54779K12N 12N20160322073510103/22/16 07:35:31  5-MIN K12N 221235Z AUTO VRB04KT 00/M07 A3016 370 58 -1300 VRB/04 RMK AO1 T00001072
54779K12N 12N20160322074010103/22/16 07:40:31  5-MIN K12N 221240Z AUTO VRB03KT 01/M07 A3016 370 56 -1200 VRB/03 RMK AO1 T00061072
54779K12N 12N20160322074510103/22/16 07:45:31  5-MIN K12N 221245Z AUTO 00000KT 01/M07 A3016 370 56 -1200 000/00 RMK AO1 T00061072
54779K12N 12N20160322075010803/22/16 07:50:31  5-MIN K12N 221250Z AUTO VRB03KT 01/M08 A3016 360 51 -1200 VRB/03 RMK AO1 SLP222 T00111078
54779K12N 12N20160322075510103/22/16 07:55:31  5-MIN K12N 221255Z AUTO 23003KT 01/M08 A3016 360 51 -1200 240/03 RMK AO1 T00111078
54779K12N 12N20160322080010103/22/16 08:00:31  5-MIN K12N 221300Z AUTO VRB04KT 01/M08 A3016 360 51 -1200 VRB/04 RMK AO1 T00111078
54779K12N 12N20160322080510103/22/16 08:05:31  5-MIN K12N 221305Z AUTO VRB06KT 02/M07 A3016 360 52 -1100 VRB/06 RMK AO1 T00171072
54779K12N 12N20160322081010103/22/16 08:10:31  5-MIN K12N 221310Z AUTO VRB06KT 02/M08 A3017 360 47 -1100 VRB/06 RMK AO1 T00171083
54779K12N 12N20160322081510103/22/16 08:15:31  5-MIN K12N 221315Z AUTO 23007KT 02/M08 A3017 360 49 -1100 240/07 RMK AO1 T00171078
54779K12N 12N20160322082010103/22/16 08:20:31  5-MIN K12N 221320Z AUTO 23006KT 02/M08 A3017 360 47 -1100 240/06 RMK AO1 T00171083
54779K12N 12N20160322082511703/22/16 08:25:31  5-MIN K12N 221325Z AUTO 23007KT 200V270 02/M08 A3017 360 45 -1000 250/07 210V280 RMK AO1 T00221083
54779K12N 12N20160322083010103/22/16 08:30:31  5-MIN K12N 221330Z AUTO 22007KT 02/M08 A3017 350 45 -1000 240/07 RMK AO1 T00221083
54779K12N 12N20160322083510103/22/16 08:35:31  5-MIN K12N 221335Z AUTO 23007KT 02/M08 A3017 350 45 -1000 240/07 RMK AO1 T00221083
54779K12N 12N20160322084010703/22/16 08:40:31  5-MIN K12N 221340Z AUTO 22009G16KT 03/M08 A3017 350 44 -1000 230/09G16 RMK AO1 T00281083
54779K12N 12N20160322084510703/22/16 08:45:31  5-MIN K12N 221345Z AUTO 23009G16KT 03/M08 A3017 350 44 -1000 250/09G16 RMK AO1 T00281083
54779K12N 12N20160322085010803/22/16 08:50:31  5-MIN K12N 221350Z AUTO VRB06KT 03/M09 A3017 350 42 -1000 VRB/06 RMK AO1 SLP227 T00281089
54779K12N 12N20160322085510003/22/16 08:55:31  5-MIN K12N 221355Z AUTO 21008KT 03/M08 A3017 350 42 -900 230/08 RMK AO1 T00331083
54779K12N 12N20160322090010003/22/16 09:00:31  5-MIN K12N 221400Z AUTO VRB06KT 03/M08 A3017 350 42 -900 VRB/06 RMK AO1 T00331083
54779K12N 12N20160322090511603/22/16 09:05:31  5-MIN K12N 221405Z AUTO 25007KT 210V290 03/M08 A3017 350 42 -900 270/07 220V300 RMK AO1 T00331083
54779K12N 12N20160322091010003/22/16 09:10:31  5-MIN K12N 221410Z AUTO 22007KT 03/M08 A3018 350 42 -900 240/07 RMK AO1 T00331083
54779K12N 12N20160322091510003/22/16 09:15:31  5-MIN K12N 221415Z AUTO 21005KT 04/M08 A3017 350 40 -800 220/05 RMK AO1 T00391083
54779K12N 12N20160322092011603/22/16 09:20:31  5-MIN K12N 221420Z AUTO 23008KT 180V260 04/M08 A3017 350 39 -700 240/08 190V270 RMK AO1 T00441083
54779K12N 12N20160322092510003/22/16 09:25:31  5-MIN K12N 221425Z AUTO 22004KT 04/M08 A3017 350 40 -800 230/04 RMK AO1 T00391083
54779K12N 12N20160322093010003/22/16 09:30:31  5-MIN K12N 221430Z AUTO VRB04KT 04/M08 A3017 350 41 -700 VRB/04 RMK AO1 T00441078
54779K12N 12N20160322093511603/22/16 09:35:31  5-MIN K12N 221435Z AUTO 23007KT 210V280 04/M08 A3017 360 39 -700 250/07 220V290 RMK AO1 T00441083
54779K12N 12N20160322094010003/22/16 09:40:31  5-MIN K12N 221440Z AUTO 23008KT 05/M09 A3017 360 36 -700 250/08 RMK AO1 T00501089
54779K12N 12N20160322094510003/22/16 09:45:31  5-MIN K12N 221445Z AUTO VRB06KT 05/M08 A3017 360 37 -700 VRB/06 RMK AO1 T00501083
54779K12N 12N20160322095011303/22/16 09:50:31  5-MIN K12N 221450Z AUTO 21008KT 05/M08 A3017 360 39 -700 220/08 RMK AO1 SLP223 T00501078 53019
54779K12N 12N20160322095510003/22/16 09:55:31  5-MIN K12N 221455Z AUTO VRB04KT 05/M08 A3016 360 37 -700 VRB/04 RMK AO1 T00501083
54779K12N 12N20160322100010003/22/16 10:00:31  5-MIN K12N 221500Z AUTO 20008KT 06/M08 A3016 360 37 -600 210/08 RMK AO1 T00561078
54779K12N 12N20160322100510003/22/16 10:05:31  5-MIN K12N 221505Z AUTO 19006KT 05/M08 A3016 360 37 -700 200/06 RMK AO1 T00501083
54779K12N 12N20160322101010003/22/16 10:10:31  5-MIN K12N 221510Z AUTO VRB06KT 06/M08 A3016 360 37 -600 VRB/06 RMK AO1 T00561078
54779K12N 12N20160322101510003/22/16 10:15:31  5-MIN K12N 221515Z AUTO 20006KT 06/M08 A3015 370 36 -600 210/06 RMK AO1 T00561083
54779K12N 12N20160322102009003/22/16 10:20:31  5-MIN K12N 221520Z AUTO 06/M08 A3015 370 35 -500 M /M RMK AO1 T00611083
54779K12N 12N20160322102510003/22/16 10:25:31  5-MIN K12N 221525Z AUTO VRB05KT 07/M08 A3015 370 35 -500 VRB/05 RMK AO1 T00671078
54779K12N 12N20160322103010603/22/16 10:30:31  5-MIN K12N 221530Z AUTO 22011G16KT 06/M08 A3015 370 36 -500 230/11G16 RMK AO1 T00611078
54779K12N 12N20160322103512203/22/16 10:35:31  5-MIN K12N 221535Z AUTO 23009G16KT 190V250 07/M08 A3015 380 33 -400 240/09G16 200V260 RMK AO1 T00671083
54779K12N 12N20160322104011603/22/16 10:40:31  5-MIN K12N 221540Z AUTO 24008KT 210V290 06/M09 A3014 380 33 -500 260/08 220V300 RMK AO1 T00611089
54779K12N 12N20160322104510603/22/16 10:45:31  5-MIN K12N 221545Z AUTO 23010G15KT 07/M09 A3014 380 32 -400 240/10G15 RMK AO1 T00671089
54779K12N 12N20160322105011303/22/16 10:50:31  5-MIN K12N 221550Z AUTO 26008G16KT 07/M09 A3014 380 32 -400 270/08G16 RMK AO1 SLP215 T00671089
54779K12N 12N20160322105512203/22/16 10:55:31  5-MIN K12N 221555Z AUTO 23009G16KT 180V270 07/M08 A3014 380 32 -400 240/09G16 190V280 RMK AO1 T00721083
54779K12N 12N20160322110012203/22/16 11:00:31  5-MIN K12N 221600Z AUTO 21008G14KT 170V260 07/M08 A3014 380 32 -400 220/08G14 180V270 RMK AO1 T00721083
54779K12N 12N20160322110512203/22/16 11:05:31  5-MIN K12N 221605Z AUTO 20007G14KT 150V230 07/M08 A3014 380 32 -400 220/07G14 160V240 RMK AO1 T00721083
54779K12N 12N20160322111010003/22/16 11:10:31  5-MIN K12N 221610Z AUTO 23007KT 08/M07 A3013 390 34 -300 240/07 RMK AO1 T00781072
54779K12N 12N20160322111510603/22/16 11:15:31  5-MIN K12N 221615Z AUTO 23010G21KT 08/M08 A3014 390 32 -300 240/10G21 RMK AO1 T00781078
54779K12N 12N20160322112009003/22/16 11:20:31  5-MIN K12N 221620Z AUTO 07/M08 A3013 390 32 -400 M /M RMK AO1 T00721083
54779K12N 12N20160322112510603/22/16 11:25:31  5-MIN K12N 221625Z AUTO 21010G19KT 08/M08 A3013 390 32 -300 220/10G19 RMK AO1 T00781078
54779K12N 12N20160322113012203/22/16 11:30:31  5-MIN K12N 221630Z AUTO 21007G19KT 100V240 08/M08 A3013 390 32 -300 220/07G19 110V250 RMK AO1 T00781078
54779K12N 12N20160322113511603/22/16 11:35:31  5-MIN K12N 221635Z AUTO 22009KT 190V260 08/M08 A3012 400 31 -300 230/09 200V270 RMK AO1 T00781083
54779K12N 12N20160322114011603/22/16 11:40:31  5-MIN K12N 221640Z AUTO 24013KT 210V280 08/M08 A3012 400 31 -300 250/13 220V290 RMK AO1 T00781083
54779K12N 12N20160322114510603/22/16 11:45:31  5-MIN K12N 221645Z AUTO VRB05G18KT 08/M08 A3012 400 30 -200 VRB/05G18 RMK AO1 T00831083
54779K12N 12N20160322115012303/22/16 11:50:31  5-MIN K12N 221650Z AUTO 23008KT 190V310 08/M08 A3011 410 31 -200 240/08 200V320 RMK AO1 SLP205 T00831078
54779K12N 12N20160322115511603/22/16 11:55:31  5-MIN K12N 221655Z AUTO 24009KT 210V290 08/M09 A3011 410 28 -200 260/09 220V300 RMK AO1 T00831089
54779K12N 12N20160322120012203/22/16 12:00:31  5-MIN K12N 221700Z AUTO 20009G14KT 170V230 09/M08 A3011 410 28 -100 220/09G14 180V240 RMK AO1 T00891083
54779K12N 12N20160322120512203/22/16 12:05:31  5-MIN K12N 221705Z AUTO 22007G16KT 180V250 08/M08 A3011 410 31 -200 230/07G16 190V260 RMK AO1 T00831078
54779K12N 12N20160322121012203/22/16 12:10:31  5-MIN K12N 221710Z AUTO 21008G16KT 170V240 09/M08 A3010 420 27 -100 220/08G16 180V250 RMK AO1 T00941083
54779K12N 12N20160322121512203/22/16 12:15:31  5-MIN K12N 221715Z AUTO 24010G14KT 200V260 09/M08 A3010 420 28 -100 250/10G14 210V270 RMK AO1 T00891083
54779K12N 12N20160322122010603/22/16 12:20:31  5-MIN K12N 221720Z AUTO 24005G14KT 09/M08 A3009 420 27 -100 250/05G14 RMK AO1 T00941083
54779K12N 12N20160322122511603/22/16 12:25:31  5-MIN K12N 221725Z AUTO 26008KT 220V300 09/M08 A3010 420 27 -100 280/08 230V310 RMK AO1 T00941083
54779K12N 12N20160322123010303/22/16 12:30:31  5-MIN K12N 221730Z AUTO 25010G16KT 09/M09 A3009 420 26 0 260/10G16 RMK AO1 T00941089
54779K12N 12N20160322123511903/22/16 12:35:31  5-MIN K12N 221735Z AUTO 22010G18KT 170V260 09/M08 A3009 420 29 0 230/10G18 180V270 RMK AO1 T00941078
54779K12N 12N20160322124010303/22/16 12:40:31  5-MIN K12N 221740Z AUTO VRB06G18KT 09/M08 A3009 430 29 0 VRB/06G18 RMK AO1 T00941078
54779K12N 12N20160322124511303/22/16 12:45:31  5-MIN K12N 221745Z AUTO 26007KT 190V310 09/M08 A3009 430 27 0 270/07 200V320 RMK AO1 T00941083
54779K12N 12N20160322125014403/22/16 12:50:31  5-MIN K12N 221750Z AUTO 21011G18KT 170V240 09/M08 A3009 430 29 0 220/11G18 180V250 RMK AO1 SLP195 T00941078 10100 21022 50005
54779K12N 12N20160322125510303/22/16 12:55:31  5-MIN K12N 221755Z AUTO 25009G18KT 10/M07 A3008 440 29 0 260/09G18 RMK AO1 T01001072
54779K12N 12N20160322130010303/22/16 13:00:31  5-MIN K12N 221800Z AUTO 21011G17KT 10/M07 A3008 440 29 0 220/11G17 RMK AO1 T01001072
54779K12N 12N20160322130510303/22/16 13:05:31  5-MIN K12N 221805Z AUTO 21010G17KT 09/M07 A3007 440 31 0 230/10G17 RMK AO1 T00941067
54779K12N 12N20160322131011903/22/16 13:10:31  5-MIN K12N 221810Z AUTO 22009G15KT 200V260 10/M06 A3007 450 31 0 240/09G15 210V270 RMK AO1 T01001061
54779K12N 12N20160322131511903/22/16 13:15:31  5-MIN K12N 221815Z AUTO 25008G24KT 210V290 10/M07 A3007 450 30 0 260/08G24 220V300 RMK AO1 T01001067
54779K12N 12N20160322132012103/22/16 13:20:31  5-MIN K12N 221820Z AUTO 22008G24KT 180V250 11/M07 A3006 460 29 100 230/08G24 190V260 RMK AO1 T01061067
54779K12N 12N20160322132511903/22/16 13:25:31  5-MIN K12N 221825Z AUTO 25009G16KT 200V310 10/M07 A3006 460 30 0 260/09G16 210V320 RMK AO1 T01001067
54779K12N 12N20160322133011303/22/16 13:30:31  5-MIN K12N 221830Z AUTO 23007KT 190V270 10/M07 A3006 460 30 0 250/07 200V280 RMK AO1 T01001067
54779K12N 12N20160322133509703/22/16 13:35:31  5-MIN K12N 221835Z AUTO VRB06KT 10/M06 A3006 460 31 0 VRB/06 RMK AO1 T01001061
54779K12N 12N20160322134009903/22/16 13:40:31  5-MIN K12N 221840Z AUTO VRB05KT 11/M06 A3005 470 30 100 VRB/05 RMK AO1 T01061061
54779K12N 12N20160322134511503/22/16 13:45:31  5-MIN K12N 221845Z AUTO 29007KT 240V040 11/M06 A3005 470 29 200 310/07 250V050 RMK AO1 T01111061
54779K12N 12N20160322135012803/22/16 13:50:31  5-MIN K12N 221850Z AUTO 29007G15KT 240V350 11/M06 A3005 470 30 100 300/07G15 250V360 RMK AO1 SLP183 T01061061
54779K12N 12N20160322135512103/22/16 13:55:31  5-MIN K12N 221855Z AUTO 24007G15KT 200V290 11/M07 A3005 470 29 100 250/07G15 210V300 RMK AO1 T01061067
54779K12N 12N20160322140009903/22/16 14:00:31  5-MIN K12N 221900Z AUTO VRB05KT 11/M07 A3004 470 29 100 VRB/05 RMK AO1 T01061067
54779K12N 12N20160322140509903/22/16 14:05:31  5-MIN K12N 221905Z AUTO VRB05KT 11/M07 A3004 470 28 200 VRB/05 RMK AO1 T01111067
54779K12N 12N20160322141011503/22/16 14:10:31  5-MIN K12N 221910Z AUTO 22009KT 180V250 11/M06 A3004 480 30 200 230/09 190V260 RMK AO1 T01111056
54779K12N 12N20160322141509903/22/16 14:15:31  5-MIN K12N 221915Z AUTO 22012KT 11/M05 A3004 480 32 200 230/12 RMK AO1 T01111050
54779K12N 12N20160322142010503/22/16 14:20:31  5-MIN K12N 221920Z AUTO 21012G18KT 11/M05 A3004 470 32 200 230/12G18 RMK AO1 T01111050
54779K12N 12N20160322142512103/22/16 14:25:31  5-MIN K12N 221925Z AUTO 22012G18KT 180V240 11/M05 A3004 470 33 100 230/12G18 190V250 RMK AO1 T01061050
54779K12N 12N20160322143010503/22/16 14:30:31  5-MIN K12N 221930Z AUTO 23012G18KT 11/M06 A3004 470 30 200 240/12G18 RMK AO1 T01111056
54779K12N 12N20160322143512103/22/16 14:35:31  5-MIN K12N 221935Z AUTO 20013G19KT 160V230 11/M06 A3004 480 30 200 220/13G19 170V240 RMK AO1 T01111056
54779K12N 12N20160322144010503/22/16 14:40:31  5-MIN K12N 221940Z AUTO 22007G19KT 11/M05 A3003 480 32 200 230/07G19 RMK AO1 T01111050
54779K12N 12N20160322144510503/22/16 14:45:31  5-MIN K12N 221945Z AUTO 21007G19KT 11/M05 A3003 480 32 200 230/07G19 RMK AO1 T01111050
54779K12N 12N20160322145011203/22/16 14:50:31  5-MIN K12N 221950Z AUTO 22011G16KT 11/M05 A3003 480 32 200 240/11G16 RMK AO1 SLP177 T01111050
54779K12N 12N20160322145512103/22/16 14:55:31  5-MIN K12N 221955Z AUTO 22009G16KT 170V240 11/M05 A3003 480 32 200 230/09G16 180V250 RMK AO1 T01111050
54779K12N 12N20160322150012103/22/16 15:00:31  5-MIN K12N 222000Z AUTO 21009G16KT 160V230 11/M05 A3003 490 32 200 220/09G16 170V240 RMK AO1 T01111050
54779K12N 12N20160322150510503/22/16 15:05:31  5-MIN K12N 222005Z AUTO 20007G15KT 11/M04 A3002 490 33 200 210/07G15 RMK AO1 T01111044
54779K12N 12N20160322151009903/22/16 15:10:31  5-MIN K12N 222010Z AUTO 20009KT 11/M05 A3002 490 32 200 210/09 RMK AO1 T01111050
54779K12N 12N20160322151512103/22/16 15:15:31  5-MIN K12N 222015Z AUTO 23011G18KT 190V270 12/M04 A3002 490 32 200 240/11G18 200V280 RMK AO1 T01171044
54779K12N 12N20160322152010503/22/16 15:20:31  5-MIN K12N 222020Z AUTO 20009G18KT 12/M04 A3002 490 32 300 220/09G18 RMK AO1 T01171044
54779K12N 12N20160322152510503/22/16 15:25:31  5-MIN K12N 222025Z AUTO 21010G17KT 12/M04 A3002 500 32 300 220/10G17 RMK AO1 T01171044
54779K12N 12N20160322153010503/22/16 15:30:31  5-MIN K12N 222030Z AUTO 21007G17KT 12/M04 A3002 490 32 300 220/07G17 RMK AO1 T01171044
54779K12N 12N20160322153510503/22/16 15:35:31  5-MIN K12N 222035Z AUTO 23007G16KT 12/M05 A3002 500 30 300 240/07G16 RMK AO1 T01171050
54779K12N 12N20160322154012103/22/16 15:40:31  5-MIN K12N 222040Z AUTO 22010G18KT 190V250 12/M05 A3002 500 30 300 230/10G18 200V260 RMK AO1 T01171050
54779K12N 12N20160322154510503/22/16 15:45:31  5-MIN K12N 222045Z AUTO 23013G18KT 12/M05 A3002 500 30 300 240/13G18 RMK AO1 T01171050
54779K12N 12N20160322155011803/22/16 15:50:31  5-MIN K12N 222050Z AUTO 22010G18KT 12/M04 A3001 500 32 300 240/10G18 RMK AO1 SLP170 T01171044 58027
54779K12N 12N20160322155509903/22/16 15:55:31  5-MIN K12N 222055Z AUTO 22007KT 12/M04 A3001 500 32 300 240/07 RMK AO1 T01171044
54779K12N 12N20160322160012103/22/16 16:00:31  5-MIN K12N 222100Z AUTO 21008G16KT 180V240 12/M04 A3001 500 31 300 220/08G16 190V250 RMK AO1 T01221044
54779K12N 12N20160322160510503/22/16 16:05:31  5-MIN K12N 222105Z AUTO 23006G17KT 12/M05 A3001 500 30 300 240/06G17 RMK AO1 T01171050
54779K12N 12N20160322161010503/22/16 16:10:31  5-MIN K12N 222110Z AUTO 25006G17KT 12/M05 A3001 510 29 300 260/06G17 RMK AO1 T01221050
54779K12N 12N20160322161510503/22/16 16:15:31  5-MIN K12N 222115Z AUTO VRB06G14KT 12/M05 A3000 510 29 300 VRB/06G14 RMK AO1 T01221050
54779K12N 12N20160322162010503/22/16 16:20:31  5-MIN K12N 222120Z AUTO 23010G18KT 12/M04 A3001 510 32 300 240/10G18 RMK AO1 T01171044
54779K12N 12N20160322162510503/22/16 16:25:31  5-MIN K12N 222125Z AUTO 22012G22KT 12/M04 A3000 510 32 300 240/12G22 RMK AO1 T01171044
54779K12N 12N20160322163010503/22/16 16:30:31  5-MIN K12N 222130Z AUTO 21010G22KT 12/M04 A3000 510 32 300 220/10G22 RMK AO1 T01171044
54779K12N 12N20160322163510503/22/16 16:35:31  5-MIN K12N 222135Z AUTO 22010G18KT 12/M04 A3000 510 32 300 230/10G18 RMK AO1 T01171044
54779K12N 12N20160322164009903/22/16 16:40:31  5-MIN K12N 222140Z AUTO 22010KT 12/M04 A3000 510 32 300 230/10 RMK AO1 T01171044
54779K12N 12N20160322164510503/22/16 16:45:31  5-MIN K12N 222145Z AUTO VRB04G17KT 12/M04 A3000 510 32 300 VRB/04G17 RMK AO1 T01171044
54779K12N 12N20160322165011203/22/16 16:50:31  5-MIN K12N 222150Z AUTO 23009G17KT 12/M04 A3001 510 32 300 240/09G17 RMK AO1 SLP168 T01171044
54779K12N 12N20160322165510503/22/16 16:55:31  5-MIN K12N 222155Z AUTO 22007G17KT 12/M04 A3000 510 32 300 230/07G17 RMK AO1 T01171044
54779K12N 12N20160322170010503/22/16 17:00:31  5-MIN K12N 222200Z AUTO 22011G15KT 12/M04 A3000 510 32 300 230/11G15 RMK AO1 T01171044
54779K12N 12N20160322170510503/22/16 17:05:31  5-MIN K12N 222205Z AUTO 22007G15KT 12/M04 A3000 520 32 300 230/07G15 RMK AO1 T01171044
54779K12N 12N20160322171010503/22/16 17:10:31  5-MIN K12N 222210Z AUTO 22009G15KT 12/M04 A2999 520 32 300 230/09G15 RMK AO1 T01171044
54779K12N 12N20160322171510503/22/16 17:15:31  5-MIN K12N 222215Z AUTO 23007G15KT 12/M05 A2999 520 30 300 240/07G15 RMK AO1 T01171050
54779K12N 12N20160322172012103/22/16 17:20:31  5-MIN K12N 222220Z AUTO 22009G15KT 190V250 12/M05 A3000 520 30 300 230/09G15 200V260 RMK AO1 T01171050
54779K12N 12N20160322172510503/22/16 17:25:31  5-MIN K12N 222225Z AUTO 21009G15KT 12/M05 A2999 520 30 300 230/09G15 RMK AO1 T01171050
54779K12N 12N20160322173009903/22/16 17:30:31  5-MIN K12N 222230Z AUTO 21008KT 12/M04 A3000 520 32 300 230/08 RMK AO1 T01171044
54779K12N 12N20160322173509903/22/16 17:35:31  5-MIN K12N 222235Z AUTO 21005KT 11/M04 A2999 520 34 200 220/05 RMK AO1 T01111039
54779K12N 12N20160322174009903/22/16 17:40:31  5-MIN K12N 222240Z AUTO 21008KT 11/M04 A2999 520 34 200 220/08 RMK AO1 T01111039
54779K12N 12N20160322174509903/22/16 17:45:31  5-MIN K12N 222245Z AUTO VRB05KT 11/M04 A2999 520 34 200 VRB/05 RMK AO1 T01111039
54779K12N 12N20160322175010603/22/16 17:50:31  5-MIN K12N 222250Z AUTO 21006KT 11/M03 A2999 520 37 100 230/06 RMK AO1 SLP164 T01061033
54779K12N 12N20160322175509903/22/16 17:55:31  5-MIN K12N 222255Z AUTO 21006KT 11/M03 A2999 520 37 100 220/06 RMK AO1 T01061033
54779K12N 12N20160322180009903/22/16 18:00:31  5-MIN K12N 222300Z AUTO VRB04KT 11/M04 A2999 520 36 100 VRB/04 RMK AO1 T01061039
54779K12N 12N20160322180509903/22/16 18:05:31  5-MIN K12N 222305Z AUTO 22006KT 11/M03 A2999 520 37 100 230/06 RMK AO1 T01061033
54779K12N 12N20160322181009903/22/16 18:10:31  5-MIN K12N 222310Z AUTO 20003KT 11/M03 A2999 520 37 200 210/03 RMK AO1 T01061033
54779K12N 12N20160322181509903/22/16 18:15:31  5-MIN K12N 222315Z AUTO 00000KT 10/M03 A2999 520 40 100 000/00 RMK AO1 T01001028
54779K12N 12N20160322182009903/22/16 18:20:31  5-MIN K12N 222320Z AUTO 00000KT 10/M03 A2999 520 40 100 000/00 RMK AO1 T01001028
54779K12N 12N20160322182509903/22/16 18:25:31  5-MIN K12N 222325Z AUTO 19003KT 10/M03 A2999 520 40 100 200/03 RMK AO1 T01001028
54779K12N 12N20160322183009703/22/16 18:30:31  5-MIN K12N 222330Z AUTO 19003KT 09/M02 A2999 520 45 0 210/03 RMK AO1 T00891022
54779K12N 12N20160322183509703/22/16 18:35:31  5-MIN K12N 222335Z AUTO VRB03KT 09/M03 A2999 520 42 0 VRB/03 RMK AO1 T00941028
54779K12N 12N20160322184009703/22/16 18:40:31  5-MIN K12N 222340Z AUTO 20003KT 09/M03 A2999 520 42 0 210/03 RMK AO1 T00941028
54779K12N 12N20160322184509703/22/16 18:45:31  5-MIN K12N 222345Z AUTO 20004KT 09/M03 A2999 520 42 0 210/04 RMK AO1 T00941028
54779K12N 12N20160322185012203/22/16 18:50:31  5-MIN K12N 222350Z AUTO VRB04KT 09/M03 A2999 520 42 0 VRB/04 RMK AO1 SLP163 T00941028 10122 20089 56023
54779K12N 12N20160322185509703/22/16 18:55:31  5-MIN K12N 222355Z AUTO 19004KT 09/M03 A2999 520 42 0 200/04 RMK AO1 T00941028
54779K12N 12N20160322190009903/22/16 19:00:31  5-MIN K12N 230000Z AUTO VRB05KT 10/M03 A2999 520 40 100 VRB/05 RMK AO1 T01001028
54779K12N 12N20160322190509903/22/16 19:05:31  5-MIN K12N 230005Z AUTO 20005KT 10/M03 A3000 520 40 100 210/05 RMK AO1 T01001028
54779K12N 12N20160322191009903/22/16 19:10:31  5-MIN K12N 230010Z AUTO VRB04KT 10/M03 A3000 510 40 100 VRB/04 RMK AO1 T01001028
54779K12N 12N20160322191509903/22/16 19:15:31  5-MIN K12N 230015Z AUTO VRB06KT 10/M03 A3000 510 40 100 VRB/06 RMK AO1 T01001028
54779K12N 12N20160322192009703/22/16 19:20:31  5-MIN K12N 230020Z AUTO 20006KT 09/M02 A3000 520 44 0 220/06 RMK AO1 T00941022
54779K12N 12N20160322192509903/22/16 19:25:31  5-MIN K12N 230025Z AUTO VRB04KT 10/M02 A3000 510 42 100 VRB/04 RMK AO1 T01001022
54779K12N 12N20160322193011503/22/16 19:30:31  5-MIN K12N 230030Z AUTO 21008KT 170V230 10/M02 A3000 510 42 100 220/08 180V240 RMK AO1 T01001022
54779K12N 12N20160322193509903/22/16 19:35:31  5-MIN K12N 230035Z AUTO 21007KT 10/M02 A3000 510 42 100 220/07 RMK AO1 T01001022
54779K12N 12N20160322194009903/22/16 19:40:31  5-MIN K12N 230040Z AUTO 21005KT 10/M02 A3000 510 42 100 220/05 RMK AO1 T01001022
54779K12N 12N20160322194509903/22/16 19:45:31  5-MIN K12N 230045Z AUTO 20006KT 10/M02 A3000 510 42 100 220/06 RMK AO1 T01001022
54779K12N 12N20160322195010603/22/16 19:50:31  5-MIN K12N 230050Z AUTO 21006KT 10/M02 A3000 510 42 100 220/06 RMK AO1 SLP164 T01001022
54779K12N 12N20160322195511503/22/16 19:55:31  5-MIN K12N 230055Z AUTO 21007KT 190V260 10/M02 A3000 510 42 100 220/07 200V270 RMK AO1 T01001022
54779K12N 12N20160322200009903/22/16 20:00:31  5-MIN K12N 230100Z AUTO 20006KT 10/M02 A3000 510 42 100 210/06 RMK AO1 T01001022
54779K12N 12N20160322200509903/22/16 20:05:31  5-MIN K12N 230105Z AUTO VRB05KT 10/M02 A3000 520 42 100 VRB/05 RMK AO1 T01001022
54779K12N 12N20160322201009903/22/16 20:10:31  5-MIN K12N 230110Z AUTO VRB04KT 10/M02 A3000 520 42 100 VRB/04 RMK AO1 T01001022
54779K12N 12N20160322201509903/22/16 20:15:31  5-MIN K12N 230115Z AUTO 20004KT 10/M02 A3000 510 42 100 210/04 RMK AO1 T01001022
54779K12N 12N20160322202009903/22/16 20:20:31  5-MIN K12N 230120Z AUTO VRB05KT 10/M02 A3000 520 42 100 VRB/05 RMK AO1 T01001022
54779K12N 12N20160322202509903/22/16 20:25:31  5-MIN K12N 230125Z AUTO 20004KT 10/M02 A3000 510 42 100 220/04 RMK AO1 T01001022
54779K12N 12N20160322203009903/22/16 20:30:31  5-MIN K12N 230130Z AUTO 20004KT 10/M02 A2999 520 42 100 210/04 RMK AO1 T01001022
54779K12N 12N20160322203509903/22/16 20:35:31  5-MIN K12N 230135Z AUTO 22008KT 10/M02 A3000 520 42 100 230/08 RMK AO1 T01001022
54779K12N 12N20160322204009703/22/16 20:40:31  5-MIN K12N 230140Z AUTO 20007KT 09/M02 A3000 520 44 0 210/07 RMK AO1 T00941022
54779K12N 12N20160322204509703/22/16 20:45:31  5-MIN K12N 230145Z AUTO 21007KT 09/M02 A2999 520 44 0 220/07 RMK AO1 T00941022
54779K12N 12N20160322205012203/22/16 20:50:31  5-MIN K12N 230150Z AUTO 20007KT 170V240 10/M02 A2999 520 42 100 210/07 180V250 RMK AO1 SLP161 T01001022
54779K12N 12N20160322205509903/22/16 20:55:31  5-MIN K12N 230155Z AUTO 20005KT 10/M02 A2999 520 42 100 210/05 RMK AO1 T01001022
54779K12N 12N20160322210009903/22/16 21:00:31  5-MIN K12N 230200Z AUTO 20007KT 10/M02 A2999 520 42 100 220/07 RMK AO1 T01001022
54779K12N 12N20160322210509903/22/16 21:05:31  5-MIN K12N 230205Z AUTO VRB06KT 10/M02 A2999 520 42 100 VRB/06 RMK AO1 T01001022
54779K12N 12N20160322211009903/22/16 21:10:31  5-MIN K12N 230210Z AUTO 20006KT 10/M02 A2999 520 42 100 210/06 RMK AO1 T01001022
54779K12N 12N20160322211509903/22/16 21:15:31  5-MIN K12N 230215Z AUTO 20005KT 10/M02 A2999 520 42 100 220/05 RMK AO1 T01001022
54779K12N 12N20160322212009903/22/16 21:20:31  5-MIN K12N 230220Z AUTO 20006KT 10/M02 A2999 520 42 100 220/06 RMK AO1 T01001022
54779K12N 12N20160322212509903/22/16 21:25:31  5-MIN K12N 230225Z AUTO 20007KT 10/M02 A2999 520 42 100 220/07 RMK AO1 T01001022
54779K12N 12N20160322213009903/22/16 21:30:31  5-MIN K12N 230230Z AUTO 21006KT 10/M02 A2999 520 42 100 220/06 RMK AO1 T01001022
54779K12N 12N20160322213511503/22/16 21:35:31  5-MIN K12N 230235Z AUTO 21007KT 160V230 10/M02 A2999 520 42 100 220/07 170V240 RMK AO1 T01001022
54779K12N 12N20160322214009903/22/16 21:40:31  5-MIN K12N 230240Z AUTO 21006KT 10/M02 A2999 520 42 100 230/06 RMK AO1 T01001022
54779K12N 12N20160322214509903/22/16 21:45:31  5-MIN K12N 230245Z AUTO 20005KT 10/M02 A2999 520 42 100 220/05 RMK AO1 T01001022
54779K12N 12N20160322215012803/22/16 21:50:31  5-MIN K12N 230250Z AUTO 21008KT 170V240 10/M02 A2998 530 42 100 220/08 180V250 RMK AO1 SLP158 T01001022 56007
54779K12N 12N20160322215509903/22/16 21:55:31  5-MIN K12N 230255Z AUTO 20007KT 10/M02 A2998 530 42 100 210/07 RMK AO1 T01001022
54779K12N 12N20160322220010503/22/16 22:00:31  5-MIN K12N 230300Z AUTO 19007G14KT 10/M02 A2998 530 42 100 200/07G14 RMK AO1 T01001022
54779K12N 12N20160322220509703/22/16 22:05:31  5-MIN K12N 230305Z AUTO 20006KT 09/M02 A2998 530 44 0 210/06 RMK AO1 T00941022
54779K12N 12N20160322221009703/22/16 22:10:31  5-MIN K12N 230310Z AUTO VRB06KT 09/M02 A2998 530 44 0 VRB/06 RMK AO1 T00941022
54779K12N 12N20160322221509703/22/16 22:15:31  5-MIN K12N 230315Z AUTO 20004KT 09/M02 A2998 530 44 0 210/04 RMK AO1 T00941022
54779K12N 12N20160322222011303/22/16 22:20:31  5-MIN K12N 230320Z AUTO 20007KT 170V230 09/M02 A2998 530 44 0 220/07 180V240 RMK AO1 T00941022
54779K12N 12N20160322222511303/22/16 22:25:31  5-MIN K12N 230325Z AUTO 20007KT 160V230 09/M02 A2997 540 44 0 220/07 170V240 RMK AO1 T00941022
54779K12N 12N20160322223009703/22/16 22:30:31  5-MIN K12N 230330Z AUTO 21006KT 09/M02 A2997 540 45 0 230/06 RMK AO1 T00941017
54779K12N 12N20160322223509703/22/16 22:35:31  5-MIN K12N 230335Z AUTO 21005KT 09/M02 A2997 540 47 0 220/05 RMK AO1 T00891017
54779K12N 12N20160322224009703/22/16 22:40:31  5-MIN K12N 230340Z AUTO 21010KT 09/M02 A2997 540 47 0 220/10 RMK AO1 T00891017
54779K12N 12N20160322224510303/22/16 22:45:31  5-MIN K12N 230345Z AUTO 22009G15KT 09/M02 A2997 540 44 0 230/09G15 RMK AO1 T00941022
54779K12N 12N20160322225011003/22/16 22:50:31  5-MIN K12N 230350Z AUTO VRB05G15KT 09/M02 A2997 540 47 0 VRB/05G15 RMK AO1 SLP153 T00891017
54779K12N 12N20160322225509703/22/16 22:55:31  5-MIN K12N 230355Z AUTO 22008KT 09/M02 A2997 540 45 0 230/08 RMK AO1 T00891022
54779K12N 12N20160322230009703/22/16 23:00:31  5-MIN K12N 230400Z AUTO 22005KT 09/M02 A2997 540 47 0 230/05 RMK AO1 T00891017
54779K12N 12N20160322230509703/22/16 23:05:31  5-MIN K12N 230405Z AUTO 21006KT 08/M02 A2996 540 49 0 220/06 RMK AO1 T00831017
54779K12N 12N20160322231009703/22/16 23:10:31  5-MIN K12N 230410Z AUTO VRB04KT 08/M02 A2996 550 49 0 VRB/04 RMK AO1 T00831017
54779K12N 12N20160322231509703/22/16 23:15:31  5-MIN K12N 230415Z AUTO 20003KT 08/M02 A2996 550 49 0 210/03 RMK AO1 T00831017
54779K12N 12N20160322232010003/22/16 23:20:31  5-MIN K12N 230420Z AUTO 20003KT 08/M02 A2996 550 51 -100 210/03 RMK AO1 T00781017
54779K12N 12N20160322232510003/22/16 23:25:31  5-MIN K12N 230425Z AUTO 20003KT 08/M02 A2996 550 51 -100 210/03 RMK AO1 T00781017
54779K12N 12N20160322233010003/22/16 23:30:31  5-MIN K12N 230430Z AUTO 21003KT 08/M02 A2996 550 51 -100 220/03 RMK AO1 T00781017
54779K12N 12N20160322233510003/22/16 23:35:31  5-MIN K12N 230435Z AUTO 19004KT 07/M02 A2995 560 53 -200 200/04 RMK AO1 T00721017
54779K12N 12N20160322234010003/22/16 23:40:31  5-MIN K12N 230440Z AUTO 20003KT 08/M02 A2995 560 51 -100 210/03 RMK AO1 T00781017
54779K12N 12N20160322234510003/22/16 23:45:31  5-MIN K12N 230445Z AUTO 19003KT 08/M02 A2995 560 51 -100 200/03 RMK AO1 T00781017
54779K12N 12N20160322235011703/22/16 23:50:31  5-MIN K12N 230450Z AUTO 00000KT 07/M02 A2994 560 53 -100 000/00 RMK AO1 SLP144 T00721017 401221033
54779K12N 12N20160322235510003/22/16 23:55:31  5-MIN K12N 230455Z AUTO 22003KT 07/M01 A2994 560 57 -200 230/03 RMK AO1 T00671011
54779K12N 12N20160323000010003/23/16 00:00:31  5-MIN K12N 230500Z AUTO 21003KT 07/M02 A2994 560 55 -200 220/03 RMK AO1 T00671017
54779K12N 12N20160323000510003/23/16 00:05:31  5-MIN K12N 230505Z AUTO 21003KT 07/M02 A2994 560 53 -200 220/03 RMK AO1 T00671022
54779K12N 12N20160323001010003/23/16 00:10:31  5-MIN K12N 230510Z AUTO 00000KT 07/M01 A2994 560 57 -200 000/00 RMK AO1 T00671011
54779K12N 12N20160323001510003/23/16 00:15:31  5-MIN K12N 230515Z AUTO 00000KT 07/M01 A2994 560 60 -200 000/00 RMK AO1 T00671006
54779K12N 12N20160323002010003/23/16 00:20:31  5-MIN K12N 230520Z AUTO 00000KT 06/M01 A2995 560 60 -300 000/00 RMK AO1 T00611011
54779K12N 12N20160323002510003/23/16 00:25:31  5-MIN K12N 230525Z AUTO 00000KT 06/M01 A2995 560 60 -300 000/00 RMK AO1 T00611011
54779K12N 12N20160323003010003/23/16 00:30:31  5-MIN K12N 230530Z AUTO 00000KT 06/M01 A2994 560 65 -400 000/00 RMK AO1 T00561006
54779K12N 12N20160323003510003/23/16 00:35:31  5-MIN K12N 230535Z AUTO 00000KT 06/M01 A2995 560 65 -400 000/00 RMK AO1 T00561006
54779K12N 12N20160323004010003/23/16 00:40:31  5-MIN K12N 230540Z AUTO 00000KT 05/M01 A2995 560 67 -400 000/00 RMK AO1 T00501006
54779K12N 12N20160323004509903/23/16 00:45:31  5-MIN K12N 230545Z AUTO 00000KT 06/00 A2995 560 67 -400 000/00 RMK AO1 T00560000
54779K12N 12N20160323005012503/23/16 00:50:31  5-MIN K12N 230550Z AUTO 20005KT 06/M01 A2995 560 60 -300 220/05 RMK AO1 SLP147 T00611011 10100 20050 58003
54779K12N 12N20160323005510003/23/16 00:55:31  5-MIN K12N 230555Z AUTO 21003KT 07/M02 A2995 560 55 -200 220/03 RMK AO1 T00671017
54779K12N 12N20160323010010003/23/16 01:00:31  5-MIN K12N 230600Z AUTO VRB03KT 07/M01 A2995 560 57 -200 VRB/03 RMK AO1 T00671011
54779K12N 12N20160323010510003/23/16 01:05:31  5-MIN K12N 230605Z AUTO 20004KT 07/M01 A2995 560 57 -200 220/04 RMK AO1 T00671011
54779K12N 12N20160323011010003/23/16 01:10:31  5-MIN K12N 230610Z AUTO 20004KT 07/M01 A2995 560 57 -200 210/04 RMK AO1 T00671011
54779K12N 12N20160323011510003/23/16 01:15:31  5-MIN K12N 230615Z AUTO VRB05KT 07/M01 A2995 560 57 -200 VRB/05 RMK AO1 T00671011
54779K12N 12N20160323012010003/23/16 01:20:31  5-MIN K12N 230620Z AUTO VRB03KT 07/M02 A2995 560 55 -200 VRB/03 RMK AO1 T00671017
54779K12N 12N20160323012510003/23/16 01:25:31  5-MIN K12N 230625Z AUTO 21003KT 06/M01 A2995 560 60 -300 220/03 RMK AO1 T00611011
54779K12N 12N20160323013010003/23/16 01:30:31  5-MIN K12N 230630Z AUTO VRB03KT 07/M01 A2995 560 57 -200 VRB/03 RMK AO1 T00671011
54779K12N 12N20160323013510003/23/16 01:35:31  5-MIN K12N 230635Z AUTO 19003KT 07/M01 A2995 560 57 -200 200/03 RMK AO1 T00671011
54779K12N 12N20160323014010003/23/16 01:40:31  5-MIN K12N 230640Z AUTO 19003KT 06/M01 A2994 560 60 -300 200/03 RMK AO1 T00611011
54779K12N 12N20160323014510003/23/16 01:45:31  5-MIN K12N 230645Z AUTO 19003KT 06/M01 A2994 570 62 -300 210/03 RMK AO1 T00611006
54779K12N 12N20160323015010703/23/16 01:50:31  5-MIN K12N 230650Z AUTO 20003KT 06/M01 A2994 570 62 -300 210/03 RMK AO1 SLP142 T00561011
54779K12N 12N20160323015509903/23/16 01:55:31  5-MIN K12N 230655Z AUTO 20003KT 06/00 A2994 570 67 -300 210/03 RMK AO1 T00560000
54779K12N 12N20160323020009903/23/16 02:00:31  5-MIN K12N 230700Z AUTO 20003KT 06/00 A2994 570 67 -300 220/03 RMK AO1 T00560000
54779K12N 12N20160323020510003/23/16 02:05:31  5-MIN K12N 230705Z AUTO 20003KT 06/M01 A2993 570 62 -300 210/03 RMK AO1 T00611006
54779K12N 12N20160323021010003/23/16 02:10:31  5-MIN K12N 230710Z AUTO 19003KT 06/M01 A2993 580 62 -300 210/03 RMK AO1 T00611006
54779K12N 12N20160323021510003/23/16 02:15:31  5-MIN K12N 230715Z AUTO 18003KT 06/M01 A2993 580 60 -300 200/03 RMK AO1 T00611011
54779K12N 12N20160323022009903/23/16 02:20:31  5-MIN K12N 230720Z AUTO 18003KT 06/00 A2993 580 67 -300 190/03 RMK AO1 T00560000
54779K12N 12N20160323022510003/23/16 02:25:31  5-MIN K12N 230725Z AUTO 19004KT 06/M01 A2993 580 62 -300 210/04 RMK AO1 T00611006
54779K12N 12N20160323023010003/23/16 02:30:31  5-MIN K12N 230730Z AUTO 19003KT 07/M01 A2992 580 60 -200 200/03 RMK AO1 T00671006
54779K12N 12N20160323023510003/23/16 02:35:31  5-MIN K12N 230735Z AUTO 19004KT 07/M01 A2992 580 57 -200 200/04 RMK AO1 T00671011
54779K12N 12N20160323024010003/23/16 02:40:31  5-MIN K12N 230740Z AUTO VRB04KT 06/M01 A2992 580 62 -300 VRB/04 RMK AO1 T00611006
54779K12N 12N20160323024510003/23/16 02:45:31  5-MIN K12N 230745Z AUTO 20003KT 07/M01 A2992 590 60 -200 210/03 RMK AO1 T00671006
54779K12N 12N20160323025010703/23/16 02:50:31  5-MIN K12N 230750Z AUTO VRB05KT 07/M01 A2992 590 60 -200 VRB/05 RMK AO1 SLP134 T00671006
54779K12N 12N20160323025509903/23/16 02:55:31  5-MIN K12N 230755Z AUTO 20005KT 07/00 A2992 590 62 -200 220/05 RMK AO1 T00670000
54779K12N 12N20160323030010003/23/16 03:00:31  5-MIN K12N 230800Z AUTO 22007KT 07/M01 A2992 590 60 -200 230/07 RMK AO1 T00671006
54779K12N 12N20160323030510003/23/16 03:05:31  5-MIN K12N 230805Z AUTO VRB04KT 07/M01 A2991 590 57 -100 VRB/04 RMK AO1 T00721006
54779K12N 12N20160323031010003/23/16 03:10:31  5-MIN K12N 230810Z AUTO 21005KT 07/M01 A2991 590 60 -200 220/05 RMK AO1 T00671006
54779K12N 12N20160323031510003/23/16 03:15:31  5-MIN K12N 230815Z AUTO 20005KT 07/M01 A2991 590 57 -100 220/05 RMK AO1 T00721006
54779K12N 12N20160323032010003/23/16 03:20:31  5-MIN K12N 230820Z AUTO 21004KT 07/M01 A2991 590 57 -100 220/04 RMK AO1 T00721006
54779K12N 12N20160323032510003/23/16 03:25:31  5-MIN K12N 230825Z AUTO VRB04KT 07/M01 A2991 600 57 -100 VRB/04 RMK AO1 T00721006
54779K12N 12N20160323033009903/23/16 03:30:31  5-MIN K12N 230830Z AUTO 21003KT 07/00 A2991 600 60 -100 220/03 RMK AO1 T00720000
54779K12N 12N20160323033509903/23/16 03:35:31  5-MIN K12N 230835Z AUTO 22005KT 07/00 A2991 600 60 -100 230/05 RMK AO1 T00720000
54779K12N 12N20160323034009903/23/16 03:40:31  5-MIN K12N 230840Z AUTO 21003KT 07/00 A2991 600 62 -200 230/03 RMK AO1 T00670000
54779K12N 12N20160323034509903/23/16 03:45:31  5-MIN K12N 230845Z AUTO VRB03KT 07/00 A2991 600 60 -100 VRB/03 RMK AO1 T00720000
54779K12N 12N20160323035011203/23/16 03:50:31  5-MIN K12N 230850Z AUTO 21005KT 07/00 A2991 600 60 -100 220/05 RMK AO1 SLP130 T00720000 55011
54779K12N 12N20160323035509903/23/16 03:55:31  5-MIN K12N 230855Z AUTO 20005KT 07/00 A2991 600 60 -100 220/05 RMK AO1 T00720000
54779K12N 12N20160323040009903/23/16 04:00:31  5-MIN K12N 230900Z AUTO VRB03KT 07/00 A2990 600 60 -100 VRB/03 RMK AO1 T00720000
54779K12N 12N20160323040509903/23/16 04:05:31  5-MIN K12N 230905Z AUTO VRB03KT 07/00 A2990 600 60 -100 VRB/03 RMK AO1 T00720000
54779K12N 12N20160323041009903/23/16 04:10:31  5-MIN K12N 230910Z AUTO VRB03KT 07/00 A2990 600 62 -200 VRB/03 RMK AO1 T00670000
54779K12N 12N20160323041509903/23/16 04:15:31  5-MIN K12N 230915Z AUTO 00000KT 07/00 A2990 600 62 -200 000/00 RMK AO1 T00670000
54779K12N 12N20160323042009903/23/16 04:20:31  5-MIN K12N 230920Z AUTO 00000KT 07/00 A2990 600 60 -100 000/00 RMK AO1 T00720000
54779K12N 12N20160323042509903/23/16 04:25:31  5-MIN K12N 230925Z AUTO 00000KT 07/00 A2990 600 62 -200 000/00 RMK AO1 T00670000
54779K12N 12N20160323043009903/23/16 04:30:31  5-MIN K12N 230930Z AUTO 20003KT 07/00 A2990 600 62 -200 210/03 RMK AO1 T00670000
54779K12N 12N20160323043509903/23/16 04:35:31  5-MIN K12N 230935Z AUTO 21003KT 07/00 A2990 600 62 -200 220/03 RMK AO1 T00670000
54779K12N 12N20160323044009903/23/16 04:40:31  5-MIN K12N 230940Z AUTO 20003KT 07/00 A2990 600 62 -200 210/03 RMK AO1 T00670000
54779K12N 12N20160323044509903/23/16 04:45:31  5-MIN K12N 230945Z AUTO VRB03KT 07/00 A2990 600 62 -200 VRB/03 RMK AO1 T00670000
54779K12N 12N20160323045010603/23/16 04:50:31  5-MIN K12N 230950Z AUTO 00000KT 07/00 A2990 600 62 -200 000/00 RMK AO1 SLP130 T00670000
54779K12N 12N20160323045509903/23/16 04:55:31  5-MIN K12N 230955Z AUTO 00000KT 07/00 A2990 600 62 -200 000/00 RMK AO1 T00670000
54779K12N 12N20160323050009903/23/16 05:00:31  5-MIN K12N 231000Z AUTO 00000KT 07/00 A2990 600 62 -200 000/00 RMK AO1 T00670000
54779K12N 12N20160323050509903/23/16 05:05:31  5-MIN K12N 231005Z AUTO 00000KT 07/00 A2990 600 62 -200 000/00 RMK AO1 T00670000
54779K12N 12N20160323051009903/23/16 05:10:31  5-MIN K12N 231010Z AUTO 00000KT 07/00 A2990 600 62 -200 000/00 RMK AO1 T00670000
54779K12N 12N20160323051509903/23/16 05:15:31  5-MIN K12N 231015Z AUTO 00000KT 07/00 A2990 600 62 -200 000/00 RMK AO1 T00670000
54779K12N 12N20160323052009903/23/16 05:20:31  5-MIN K12N 231020Z AUTO 00000KT 07/00 A2991 600 62 -200 000/00 RMK AO1 T00670000
54779K12N 12N20160323052509903/23/16 05:25:31  5-MIN K12N 231025Z AUTO 20003KT 07/01 A2991 590 65 -200 210/03 RMK AO1 T00670006
54779K12N 12N20160323053009903/23/16 05:30:31  5-MIN K12N 231030Z AUTO 20004KT 07/01 A2991 590 65 -200 220/04 RMK AO1 T00670006
54779K12N 12N20160323053509903/23/16 05:35:31  5-MIN K12N 231035Z AUTO 19003KT 07/00 A2992 590 62 -200 200/03 RMK AO1 T00670000
54779K12N 12N20160323054009903/23/16 05:40:31  5-MIN K12N 231040Z AUTO VRB03KT 07/00 A2992 590 62 -200 VRB/03 RMK AO1 T00670000
54779K12N 12N20160323054509903/23/16 05:45:31  5-MIN K12N 231045Z AUTO 20003KT 07/00 A2992 590 62 -200 210/03 RMK AO1 T00670000
54779K12N 12N20160323055010603/23/16 05:50:31  5-MIN K12N 231050Z AUTO 19003KT 07/00 A2992 590 62 -200 200/03 RMK AO1 SLP134 T00670000
54779K12N 12N20160323055509903/23/16 05:55:31  5-MIN K12N 231055Z AUTO 19003KT 07/00 A2992 590 60 -100 200/03 RMK AO1 T00720000
54779K12N 12N20160323060009903/23/16 06:00:31  5-MIN K12N 231100Z AUTO 18003KT 07/00 A2992 590 60 -100 200/03 RMK AO1 T00720000
54779K12N 12N20160323060509903/23/16 06:05:31  5-MIN K12N 231105Z AUTO 00000KT 07/00 A2992 590 60 -100 000/00 RMK AO1 T00720000
54779K12N 12N20160323061009903/23/16 06:10:31  5-MIN K12N 231110Z AUTO 00000KT 07/00 A2992 580 60 -100 000/00 RMK AO1 T00720000
54779K12N 12N20160323061509903/23/16 06:15:31  5-MIN K12N 231115Z AUTO 00000KT 07/00 A2992 580 62 -200 000/00 RMK AO1 T00670000
54779K12N 12N20160323062009903/23/16 06:20:31  5-MIN K12N 231120Z AUTO 19003KT 07/00 A2992 580 62 -200 200/03 RMK AO1 T00670000
54779K12N 12N20160323062509903/23/16 06:25:31  5-MIN K12N 231125Z AUTO 00000KT 07/00 A2993 580 62 -200 000/00 RMK AO1 T00670000
54779K12N 12N20160323063009903/23/16 06:30:31  5-MIN K12N 231130Z AUTO 18003KT 07/00 A2993 580 62 -200 190/03 RMK AO1 T00670000
54779K12N 12N20160323063509903/23/16 06:35:31  5-MIN K12N 231135Z AUTO 00000KT 07/00 A2993 580 62 -200 000/00 RMK AO1 T00670000
54779K12N 12N20160323064009903/23/16 06:40:31  5-MIN K12N 231140Z AUTO 19003KT 07/00 A2993 580 62 -200 200/03 RMK AO1 T00670000
54779K12N 12N20160323064509903/23/16 06:45:31  5-MIN K12N 231145Z AUTO 00000KT 07/00 A2993 580 60 -100 000/00 RMK AO1 T00720000
54779K12N 12N20160323065012403/23/16 06:50:31  5-MIN K12N 231150Z AUTO 00000KT 07/01 A2993 570 62 -100 000/00 RMK AO1 SLP140 T00720006 10072 20050 56015
54779K12N 12N20160323065509903/23/16 06:55:31  5-MIN K12N 231155Z AUTO 19003KT 07/01 A2994 570 62 -100 200/03 RMK AO1 T00720006
54779K12N 12N20160323070009903/23/16 07:00:31  5-MIN K12N 231200Z AUTO 20003KT 07/01 A2994 570 62 -100 210/03 RMK AO1 T00720006
54779K12N 12N20160323070509903/23/16 07:05:31  5-MIN K12N 231205Z AUTO 20003KT 07/00 A2994 570 60 -100 210/03 RMK AO1 T00720000
54779K12N 12N20160323071009903/23/16 07:10:31  5-MIN K12N 231210Z AUTO 00000KT 07/00 A2994 570 60 -100 000/00 RMK AO1 T00720000
54779K12N 12N20160323071509903/23/16 07:15:31  5-MIN K12N 231215Z AUTO 19003KT 07/01 A2994 570 62 -100 200/03 RMK AO1 T00720006
54779K12N 12N20160323072009903/23/16 07:20:31  5-MIN K12N 231220Z AUTO 19003KT 08/00 A2994 570 58 -100 200/03 RMK AO1 T00780000
54779K12N 12N20160323072509903/23/16 07:25:31  5-MIN K12N 231225Z AUTO 19003KT 08/01 A2994 570 60 -100 210/03 RMK AO1 T00780006
54779K12N 12N20160323073009903/23/16 07:30:31  5-MIN K12N 231230Z AUTO 19003KT 08/01 A2994 570 60 -100 200/03 RMK AO1 T00780006
54779K12N 12N20160323073509903/23/16 07:35:31  5-MIN K12N 231235Z AUTO 21003KT 08/01 A2994 570 60 -100 220/03 RMK AO1 T00780006
54779K12N 12N20160323074009603/23/16 07:40:31  5-MIN K12N 231240Z AUTO VRB03KT 08/01 A2994 570 58 0 VRB/03 RMK AO1 T00830006
54779K12N 12N20160323074509603/23/16 07:45:31  5-MIN K12N 231245Z AUTO VRB04KT 08/01 A2994 570 58 0 VRB/04 RMK AO1 T00830006
54779K12N 12N20160323075010303/23/16 07:50:31  5-MIN K12N 231250Z AUTO VRB03KT 08/01 A2994 570 58 0 VRB/03 RMK AO1 SLP141 T00830006
54779K12N 12N20160323075509603/23/16 07:55:31  5-MIN K12N 231255Z AUTO 20004KT 08/01 A2994 570 58 0 210/04 RMK AO1 T00830006
54779K12N 12N20160323080009603/23/16 08:00:31  5-MIN K12N 231300Z AUTO 21004KT 09/01 A2994 570 56 0 230/04 RMK AO1 T00890006
54779K12N 12N20160323080509603/23/16 08:05:31  5-MIN K12N 231305Z AUTO VRB04KT 09/01 A2994 570 56 0 VRB/04 RMK AO1 T00890006
54779K12N 12N20160323081009603/23/16 08:10:31  5-MIN K12N 231310Z AUTO 20004KT 09/01 A2994 570 56 0 220/04 RMK AO1 T00890006
54779K12N 12N20160323081509603/23/16 08:15:31  5-MIN K12N 231315Z AUTO 21004KT 09/01 A2994 570 56 0 220/04 RMK AO1 T00890006
54779K12N 12N20160323082009803/23/16 08:20:31  5-MIN K12N 231320Z AUTO VRB04KT 09/01 A2994 570 53 100 VRB/04 RMK AO1 T00940006
54779K12N 12N20160323082509803/23/16 08:25:31  5-MIN K12N 231325Z AUTO 20004KT 09/01 A2994 570 53 100 210/04 RMK AO1 T00940006
54779K12N 12N20160323083009803/23/16 08:30:31  5-MIN K12N 231330Z AUTO 21005KT 09/00 A2994 570 51 100 220/05 RMK AO1 T00940000
54779K12N 12N20160323083509803/23/16 08:35:31  5-MIN K12N 231335Z AUTO 21006KT 09/00 A2994 560 51 100 220/06 RMK AO1 T00940000
54779K12N 12N20160323084009803/23/16 08:40:31  5-MIN K12N 231340Z AUTO 21006KT 10/00 A2995 560 49 100 230/06 RMK AO1 T01000000
54779K12N 12N20160323084509803/23/16 08:45:31  5-MIN K12N 231345Z AUTO VRB05KT 10/00 A2995 560 49 100 VRB/05 RMK AO1 T01000000
54779K12N 12N20160323085010503/23/16 08:50:31  5-MIN K12N 231350Z AUTO VRB05KT 10/00 A2995 560 49 100 VRB/05 RMK AO1 SLP143 T01000000
54779K12N 12N20160323085509803/23/16 08:55:31  5-MIN K12N 231355Z AUTO VRB05KT 10/00 A2994 560 49 100 VRB/05 RMK AO1 T01000000
54779K12N 12N20160323090009803/23/16 09:00:31  5-MIN K12N 231400Z AUTO 21006KT 11/00 A2995 560 48 200 220/06 RMK AO1 T01060000
54779K12N 12N20160323090511403/23/16 09:05:31  5-MIN K12N 231405Z AUTO 21008KT 180V240 11/00 A2995 560 48 200 230/08 190V250 RMK AO1 T01060000
54779K12N 12N20160323091009903/23/16 09:10:31  5-MIN K12N 231410Z AUTO 23006KT 11/M01 A2995 560 46 200 240/06 RMK AO1 T01061006
54779K12N 12N20160323091509803/23/16 09:15:31  5-MIN K12N 231415Z AUTO VRB05KT 11/00 A2995 560 46 300 VRB/05 RMK AO1 T01110000
54779K12N 12N20160323092009903/23/16 09:20:31  5-MIN K12N 231420Z AUTO 21007KT 11/M01 A2995 560 44 300 220/07 RMK AO1 T01111006
54779K12N 12N20160323092509903/23/16 09:25:31  5-MIN K12N 231425Z AUTO VRB04KT 11/M01 A2995 560 44 300 VRB/04 RMK AO1 T01111006
54779K12N 12N20160323093009903/23/16 09:30:31  5-MIN K12N 231430Z AUTO VRB05KT 11/M01 A2995 560 44 300 VRB/05 RMK AO1 T01111006
54779K12N 12N20160323093509903/23/16 09:35:31  5-MIN K12N 231435Z AUTO VRB06KT 12/M01 A2995 560 42 300 VRB/06 RMK AO1 T01171006
54779K12N 12N20160323094009903/23/16 09:40:31  5-MIN K12N 231440Z AUTO VRB04KT 12/M01 A2995 560 42 300 VRB/04 RMK AO1 T01171006
54779K12N 12N20160323094511503/23/16 09:45:31  5-MIN K12N 231445Z AUTO 24007KT 210V280 12/M01 A2995 560 42 300 250/07 220V290 RMK AO1 T01171006
54779K12N 12N20160323095011203/23/16 09:50:31  5-MIN K12N 231450Z AUTO 23005KT 12/M01 A2995 560 41 300 250/05 RMK AO1 SLP143 T01171011 53009
54779K12N 12N20160323095511503/23/16 09:55:31  5-MIN K12N 231455Z AUTO 21007KT 170V230 12/M01 A2995 560 41 300 220/07 180V240 RMK AO1 T01171011
54779K12N 12N20160323100009903/23/16 10:00:31  5-MIN K12N 231500Z AUTO 23007KT 12/M01 A2995 560 41 300 240/07 RMK AO1 T01171011
54779K12N 12N20160323100509903/23/16 10:05:31  5-MIN K12N 231505Z AUTO VRB06KT 12/M01 A2996 550 41 300 VRB/06 RMK AO1 T01171011
54779K12N 12N20160323101009903/23/16 10:10:31  5-MIN K12N 231510Z AUTO 22006KT 12/M01 A2996 550 42 300 230/06 RMK AO1 T01171006
54779K12N 12N20160323101509903/23/16 10:15:31  5-MIN K12N 231515Z AUTO VRB04KT 12/M01 A2995 550 39 400 VRB/04 RMK AO1 T01221011
54779K12N 12N20160323102009903/23/16 10:20:31  5-MIN K12N 231520Z AUTO 21006KT 12/M01 A2995 560 41 300 220/06 RMK AO1 T01171011
54779K12N 12N20160323102509903/23/16 10:25:31  5-MIN K12N 231525Z AUTO 21009KT 12/M01 A2995 560 39 400 230/09 RMK AO1 T01221011
54779K12N 12N20160323103009903/23/16 10:30:31  5-MIN K12N 231530Z AUTO 23007KT 12/M01 A2995 560 39 400 250/07 RMK AO1 T01221011
54779K12N 12N20160323103509903/23/16 10:35:31  5-MIN K12N 231535Z AUTO 22004KT 13/M01 A2995 560 39 500 240/04 RMK AO1 T01281006
54779K12N 12N20160323104009803/23/16 10:40:31  5-MIN K12N 231540Z AUTO 21007KT 13/00 A2995 560 41 500 220/07 RMK AO1 T01280000
54779K12N 12N20160323104509903/23/16 10:45:31  5-MIN K12N 231545Z AUTO VRB05KT 13/M01 A2995 560 39 500 VRB/05 RMK AO1 T01281006
54779K12N 12N20160323105010503/23/16 10:50:31  5-MIN K12N 231550Z AUTO VRB05KT 13/00 A2994 570 40 500 VRB/05 RMK AO1 SLP140 T01330000
54779K12N 12N20160323105509903/23/16 10:55:31  5-MIN K12N 231555Z AUTO VRB05KT 13/M01 A2994 570 39 500 VRB/05 RMK AO1 T01281006
54779K12N 12N20160323110009903/23/16 11:00:31  5-MIN K12N 231600Z AUTO 22009KT 13/M01 A2994 560 38 500 230/09 RMK AO1 T01331006
54779K12N 12N20160323110509903/23/16 11:05:31  5-MIN K12N 231605Z AUTO 22007KT 13/M01 A2994 560 38 500 230/07 RMK AO1 T01331006
54779K12N 12N20160323111009903/23/16 11:10:31  5-MIN K12N 231610Z AUTO 20005KT 13/M01 A2994 570 36 500 220/05 RMK AO1 T01331011
54779K12N 12N20160323111509903/23/16 11:15:31  5-MIN K12N 231615Z AUTO 21008KT 13/M01 A2994 570 36 500 220/08 RMK AO1 T01331011
54779K12N 12N20160323112011503/23/16 11:20:31  5-MIN K12N 231620Z AUTO 22007KT 180V250 13/M01 A2994 570 36 500 230/07 190V260 RMK AO1 T01331011
54779K12N 12N20160323112509903/23/16 11:25:31  5-MIN K12N 231625Z AUTO 22006KT 13/M01 A2994 570 36 500 230/06 RMK AO1 T01331011
54779K12N 12N20160323113009903/23/16 11:30:31  5-MIN K12N 231630Z AUTO 21007KT 14/M01 A2994 570 37 600 230/07 RMK AO1 T01391006
54779K12N 12N20160323113509903/23/16 11:35:31  5-MIN K12N 231635Z AUTO 23006KT 14/M01 A2994 560 35 600 240/06 RMK AO1 T01391011
54779K12N 12N20160323114009903/23/16 11:40:31  5-MIN K12N 231640Z AUTO 22005KT 14/M01 A2994 560 35 600 240/05 RMK AO1 T01391011
54779K12N 12N20160323114509903/23/16 11:45:31  5-MIN K12N 231645Z AUTO 23008KT 14/M01 A2994 570 34 700 250/08 RMK AO1 T01441011
54779K12N 12N20160323115010603/23/16 11:50:31  5-MIN K12N 231650Z AUTO 22007KT 14/M01 A2994 570 34 700 230/07 RMK AO1 SLP140 T01441011
54779K12N 12N20160323115509903/23/16 11:55:31  5-MIN K12N 231655Z AUTO 22007KT 14/M01 A2994 560 34 700 240/07 RMK AO1 T01441011
54779K12N 12N20160323120009903/23/16 12:00:31  5-MIN K12N 231700Z AUTO VRB05KT 14/M01 A2994 570 34 700 VRB/05 RMK AO1 T01441011
54779K12N 12N20160323120509903/23/16 12:05:31  5-MIN K12N 231705Z AUTO 21007KT 14/M01 A2994 570 35 700 220/07 RMK AO1 T01441006
54779K12N 12N20160323121009903/23/16 12:10:31  5-MIN K12N 231710Z AUTO 21008KT 14/M01 A2994 560 34 700 230/08 RMK AO1 T01441011
54779K12N 12N20160323121509903/23/16 12:15:31  5-MIN K12N 231715Z AUTO 21006KT 14/M01 A2994 560 35 700 220/06 RMK AO1 T01441006
54779K12N 12N20160323122009903/23/16 12:20:31  5-MIN K12N 231720Z AUTO 23006KT 15/M01 A2995 560 34 700 250/06 RMK AO1 T01501006
54779K12N 12N20160323122509903/23/16 12:25:31  5-MIN K12N 231725Z AUTO VRB04KT 15/M01 A2994 560 34 700 VRB/04 RMK AO1 T01501006
54779K12N 12N20160323123009903/23/16 12:30:31  5-MIN K12N 231730Z AUTO 22007KT 15/M01 A2994 560 34 700 240/07 RMK AO1 T01501006
54779K12N 12N20160323123509903/23/16 12:35:31  5-MIN K12N 231735Z AUTO 21006KT 15/M01 A2994 570 33 700 230/06 RMK AO1 T01501011
54779K12N 12N20160323124009903/23/16 12:40:31  5-MIN K12N 231740Z AUTO VRB05KT 16/M01 A2994 570 31 800 VRB/05 RMK AO1 T01561011
54779K12N 12N20160323124509903/23/16 12:45:31  5-MIN K12N 231745Z AUTO 21004KT 16/M01 A2994 570 31 800 220/04 RMK AO1 T01561011
54779K12N 12N20160323125014003/23/16 12:50:31  5-MIN K12N 231750Z AUTO 21008KT 190V250 16/M01 A2994 560 33 800 230/08 200V260 RMK AO1 SLP141 T01561006 10156 20072 53005
54779K12N 12N20160323125509903/23/16 12:55:31  5-MIN K12N 231755Z AUTO 21007KT 16/M01 A2995 560 31 800 230/07 RMK AO1 T01561011
54779K12N 12N20160323130011503/23/16 13:00:31  5-MIN K12N 231800Z AUTO 22007KT 190V260 16/M01 A2995 560 31 800 240/07 200V270 RMK AO1 T01561011
54779K12N 12N20160323130509903/23/16 13:05:31  5-MIN K12N 231805Z AUTO 23008KT 16/M01 A2995 560 30 900 240/08 RMK AO1 T01611011
54779K12N 12N20160323131009903/23/16 13:10:31  5-MIN K12N 231810Z AUTO 22006KT 16/M01 A2994 560 30 900 230/06 RMK AO1 T01611011
54779K12N 12N20160323131509903/23/16 13:15:31  5-MIN K12N 231815Z AUTO 26009KT 16/M01 A2994 560 30 900 270/09 RMK AO1 T01611011
54779K12N 12N20160323132009903/23/16 13:20:31  5-MIN K12N 231820Z AUTO VRB06KT 16/M01 A2994 570 30 900 VRB/06 RMK AO1 T01611011
54779K12N 12N20160323132509903/23/16 13:25:31  5-MIN K12N 231825Z AUTO 22008KT 16/M01 A2994 570 30 900 230/08 RMK AO1 T01611011
54779K12N 12N20160323133009903/23/16 13:30:31  5-MIN K12N 231830Z AUTO 22009KT 16/M01 A2994 570 32 900 230/09 RMK AO1 T01611006
54779K12N 12N20160323133511503/23/16 13:35:31  5-MIN K12N 231835Z AUTO 21007KT 170V230 16/M01 A2994 570 30 900 220/07 180V240 RMK AO1 T01611011
54779K12N 12N20160323134011503/23/16 13:40:31  5-MIN K12N 231840Z AUTO 22007KT 180V250 16/M01 A2994 570 32 900 230/07 190V260 RMK AO1 T01611006
54779K12N 12N20160323134509903/23/16 13:45:31  5-MIN K12N 231845Z AUTO 23007KT 16/M01 A2994 570 30 900 240/07 RMK AO1 T01611011
54779K12N 12N20160323135010603/23/16 13:50:31  5-MIN K12N 231850Z AUTO VRB05KT 17/M01 A2994 570 31 900 VRB/05 RMK AO1 SLP138 T01671006
54779K12N 12N20160323135509803/23/16 13:55:31  5-MIN K12N 231855Z AUTO VRB06KT 17/00 A2994 570 32 900 VRB/06 RMK AO1 T01670000
54779K12N 12N20160323140009903/23/16 14:00:31  5-MIN K12N 231900Z AUTO 21007KT 17/M01 A2994 570 31 900 230/07 RMK AO1 T01671006
54779K12N 12N20160323140509903/23/16 14:05:31  5-MIN K12N 231905Z AUTO VRB06KT 17/M01 A2994 570 29 900 VRB/06 RMK AO1 T01671011
54779K12N 12N20160323141009903/23/16 14:10:31  5-MIN K12N 231910Z AUTO 19004KT 17/M01 A2993 570 31 900 200/04 RMK AO1 T01671006
54779K12N 12N20160323141510003/23/16 14:15:31  5-MIN K12N 231915Z AUTO 21006KT 17/M01 A2993 570 29 1000 220/06 RMK AO1 T01721006
54779K12N 12N20160323142010003/23/16 14:20:31  5-MIN K12N 231920Z AUTO 22008KT 17/M01 A2994 570 29 1000 240/08 RMK AO1 T01721006
54779K12N 12N20160323142511603/23/16 14:25:31  5-MIN K12N 231925Z AUTO 22007KT 190V260 18/M01 A2994 570 28 1100 230/07 200V270 RMK AO1 T01781006
54779K12N 12N20160323143010003/23/16 14:30:31  5-MIN K12N 231930Z AUTO 25006KT 18/M01 A2994 570 27 1100 260/06 RMK AO1 T01781011
54779K12N 12N20160323143510003/23/16 14:35:31  5-MIN K12N 231935Z AUTO VRB05KT 18/M01 A2993 570 27 1100 VRB/05 RMK AO1 T01831006
54779K12N 12N20160323144010003/23/16 14:40:31  5-MIN K12N 231940Z AUTO VRB04KT 18/M01 A2993 570 27 1100 VRB/04 RMK AO1 T01831006
54779K12N 12N20160323144509003/23/16 14:45:31  5-MIN K12N 231945Z AUTO 19/M01 A2993 570 26 1200 M /M RMK AO1 T01891006
54779K12N 12N20160323145010703/23/16 14:50:31  5-MIN K12N 231950Z AUTO 23006KT 19/M01 A2993 570 25 1200 240/06 RMK AO1 SLP136 T01891011
54779K12N 12N20160323145510003/23/16 14:55:31  5-MIN K12N 231955Z AUTO 24007KT 18/M01 A2993 580 26 1100 250/07 RMK AO1 T01831011
54779K12N 12N20160323150011603/23/16 15:00:31  5-MIN K12N 232000Z AUTO 25007KT 210V300 18/M01 A2993 570 26 1100 260/07 220V310 RMK AO1 T01831011
54779K12N 12N20160323150510003/23/16 15:05:31  5-MIN K12N 232005Z AUTO 21007KT 18/M01 A2993 570 26 1100 230/07 RMK AO1 T01831011
54779K12N 12N20160323151010003/23/16 15:10:31  5-MIN K12N 232010Z AUTO 21006KT 18/M01 A2993 570 26 1100 220/06 RMK AO1 T01831011
54779K12N 12N20160323151510003/23/16 15:15:31  5-MIN K12N 232015Z AUTO 22006KT 18/M01 A2994 570 27 1100 230/06 RMK AO1 T01831006
54779K12N 12N20160323152010003/23/16 15:20:31  5-MIN K12N 232020Z AUTO VRB06KT 18/M01 A2994 570 26 1100 VRB/06 RMK AO1 T01831011
54779K12N 12N20160323152510003/23/16 15:25:31  5-MIN K12N 232025Z AUTO 21004KT 18/M01 A2994 570 26 1100 230/04 RMK AO1 T01831011
54779K12N 12N20160323153010003/23/16 15:30:31  5-MIN K12N 232030Z AUTO 23006KT 18/M01 A2994 570 26 1100 240/06 RMK AO1 T01831011
54779K12N 12N20160323153510003/23/16 15:35:31  5-MIN K12N 232035Z AUTO VRB04KT 18/M02 A2994 570 25 1100 VRB/04 RMK AO1 T01831017
54779K12N 12N20160323154011603/23/16 15:40:31  5-MIN K12N 232040Z AUTO 23008KT 200V270 18/M01 A2994 570 26 1100 240/08 210V280 RMK AO1 T01831011
54779K12N 12N20160323154511603/23/16 15:45:31  5-MIN K12N 232045Z AUTO 21007KT 180V240 19/M01 A2993 570 25 1200 220/07 190V250 RMK AO1 T01891011
54779K12N 12N20160323155011303/23/16 15:50:31  5-MIN K12N 232050Z AUTO VRB05KT 19/M01 A2993 570 25 1200 VRB/05 RMK AO1 SLP135 T01891011 55001
54779K12N 12N20160323155510003/23/16 15:55:31  5-MIN K12N 232055Z AUTO 24006KT 19/M01 A2993 580 25 1300 250/06 RMK AO1 T01941011
54779K12N 12N20160323160010003/23/16 16:00:31  5-MIN K12N 232100Z AUTO VRB05KT 19/M01 A2993 580 25 1300 VRB/05 RMK AO1 T01941011
54779K12N 12N20160323160510003/23/16 16:05:31  5-MIN K12N 232105Z AUTO 21007KT 19/M01 A2993 580 25 1300 220/07 RMK AO1 T01941011
54779K12N 12N20160323161010003/23/16 16:10:31  5-MIN K12N 232110Z AUTO VRB06KT 19/M01 A2993 580 25 1300 VRB/06 RMK AO1 T01941011
54779K12N 12N20160323161511603/23/16 16:15:31  5-MIN K12N 232115Z AUTO 22007KT 170V240 19/M01 A2993 570 25 1300 240/07 180V250 RMK AO1 T01941011
54779K12N 12N20160323162010003/23/16 16:20:31  5-MIN K12N 232120Z AUTO 22007KT 19/M01 A2993 580 26 1300 230/07 RMK AO1 T01941006
54779K12N 12N20160323162510003/23/16 16:25:31  5-MIN K12N 232125Z AUTO 21007KT 19/M01 A2993 570 26 1300 220/07 RMK AO1 T01941006
54779K12N 12N20160323163010003/23/16 16:30:31  5-MIN K12N 232130Z AUTO 23008KT 19/M01 A2993 570 26 1200 240/08 RMK AO1 T01891006
54779K12N 12N20160323163511603/23/16 16:35:31  5-MIN K12N 232135Z AUTO 20007KT 170V230 19/M01 A2993 570 25 1200 220/07 180V240 RMK AO1 T01891011
54779K12N 12N20160323164011603/23/16 16:40:31  5-MIN K12N 232140Z AUTO 20007KT 150V220 18/M01 A2994 570 27 1100 220/07 160V230 RMK AO1 T01831006
54779K12N 12N20160323164510003/23/16 16:45:31  5-MIN K12N 232145Z AUTO VRB04KT 18/M01 A2994 570 27 1100 VRB/04 RMK AO1 T01831006
54779K12N 12N20160323165010703/23/16 16:50:31  5-MIN K12N 232150Z AUTO 21006KT 19/M01 A2994 560 26 1200 230/06 RMK AO1 SLP140 T01891006
54779K12N 12N20160323165510003/23/16 16:55:31  5-MIN K12N 232155Z AUTO 22007KT 19/M01 A2994 560 26 1200 240/07 RMK AO1 T01891006
54779K12N 12N20160323170010003/23/16 17:00:31  5-MIN K12N 232200Z AUTO VRB06KT 19/M01 A2994 570 26 1200 VRB/06 RMK AO1 T01891006
54779K12N 12N20160323170510003/23/16 17:05:31  5-MIN K12N 232205Z AUTO VRB05KT 18/M01 A2994 570 27 1100 VRB/05 RMK AO1 T01831006
54779K12N 12N20160323171010003/23/16 17:10:31  5-MIN K12N 232210Z AUTO VRB05KT 18/M01 A2994 560 26 1100 VRB/05 RMK AO1 T01831011
54779K12N 12N20160323171510003/23/16 17:15:31  5-MIN K12N 232215Z AUTO 22006KT 18/M01 A2995 560 26 1100 230/06 RMK AO1 T01831011
54779K12N 12N20160323172010003/23/16 17:20:31  5-MIN K12N 232220Z AUTO 21007KT 18/M01 A2995 560 27 1100 220/07 RMK AO1 T01831006
54779K12N 12N20160323172510003/23/16 17:25:31  5-MIN K12N 232225Z AUTO 21007KT 18/M01 A2995 560 26 1100 230/07 RMK AO1 T01831011
54779K12N 12N20160323173010003/23/16 17:30:31  5-MIN K12N 232230Z AUTO 20005KT 18/M01 A2995 560 27 1100 220/05 RMK AO1 T01831006
54779K12N 12N20160323173510003/23/16 17:35:31  5-MIN K12N 232235Z AUTO 20004KT 18/M01 A2995 560 28 1100 220/04 RMK AO1 T01781006
54779K12N 12N20160323174010003/23/16 17:40:31  5-MIN K12N 232240Z AUTO 20003KT 18/M01 A2995 550 28 1000 220/03 RMK AO1 T01781006
54779K12N 12N20160323174510003/23/16 17:45:31  5-MIN K12N 232245Z AUTO 21004KT 18/M01 A2995 550 28 1000 220/04 RMK AO1 T01781006
54779K12N 12N20160323175010703/23/16 17:50:31  5-MIN K12N 232250Z AUTO 20003KT 17/M01 A2995 550 29 1000 210/03 RMK AO1 SLP143 T01721006
54779K12N 12N20160323175510003/23/16 17:55:31  5-MIN K12N 232255Z AUTO 21004KT 17/M01 A2996 550 29 1000 220/04 RMK AO1 T01721006
54779K12N 12N20160323180010003/23/16 18:00:31  5-MIN K12N 232300Z AUTO 00000KT 17/M01 A2996 550 29 1000 000/00 RMK AO1 T01721006
54779K12N 12N20160323180510003/23/16 18:05:31  5-MIN K12N 232305Z AUTO 00000KT 17/M01 A2996 550 29 1000 000/00 RMK AO1 T01721006
54779K12N 12N20160323181009903/23/16 18:10:31  5-MIN K12N 232310Z AUTO 19003KT 17/M01 A2996 550 31 900 200/03 RMK AO1 T01671006
54779K12N 12N20160323181509803/23/16 18:15:31  5-MIN K12N 232315Z AUTO 00000KT 15/01 A2996 550 37 700 000/00 RMK AO1 T01500006
54779K12N 12N20160323182009803/23/16 18:20:31  5-MIN K12N 232320Z AUTO 00000KT 13/01 A2996 550 41 500 000/00 RMK AO1 T01330006
54779K12N 12N20160323182509803/23/16 18:25:31  5-MIN K12N 232325Z AUTO 00000KT 13/01 A2996 550 43 400 000/00 RMK AO1 T01280006
54779K12N 12N20160323183009803/23/16 18:30:31  5-MIN K12N 232330Z AUTO 00000KT 13/01 A2996 540 44 400 000/00 RMK AO1 T01280011
54779K12N 12N20160323183509803/23/16 18:35:31  5-MIN K12N 232335Z AUTO 00000KT 13/02 A2997 540 48 400 000/00 RMK AO1 T01280022
54779K12N 12N20160323184009803/23/16 18:40:31  5-MIN K12N 232340Z AUTO 00000KT 12/02 A2997 540 48 400 000/00 RMK AO1 T01220017
54779K12N 12N20160323184509803/23/16 18:45:31  5-MIN K12N 232345Z AUTO 00000KT 11/02 A2997 540 52 200 000/00 RMK AO1 T01110017
54779K12N 12N20160323185012303/23/16 18:50:31  5-MIN K12N 232350Z AUTO 00000KT 11/03 A2997 540 56 200 000/00 RMK AO1 SLP152 T01110028 10194 20111 56005
54779K12N 12N20160323185509803/23/16 18:55:31  5-MIN K12N 232355Z AUTO 00000KT 11/02 A2997 540 56 200 000/00 RMK AO1 T01060022
54779K12N 12N20160323190009803/23/16 19:00:31  5-MIN K12N 240000Z AUTO 00000KT 11/02 A2997 540 56 200 000/00 RMK AO1 T01060022
54779K12N 12N20160323190509803/23/16 19:05:31  5-MIN K12N 240005Z AUTO 00000KT 11/03 A2997 540 58 200 000/00 RMK AO1 T01060028
54779K12N 12N20160323191009803/23/16 19:10:31  5-MIN K12N 240010Z AUTO 00000KT 10/02 A2998 530 58 100 000/00 RMK AO1 T01000022
54779K12N 12N20160323191509803/23/16 19:15:31  5-MIN K12N 240015Z AUTO 00000KT 10/04 A2998 530 68 100 000/00 RMK AO1 T01000044
54779K12N 12N20160323192009603/23/16 19:20:31  5-MIN K12N 240020Z AUTO 00000KT 09/04 A2998 530 71 0 000/00 RMK AO1 T00940044
54779K12N 12N20160323192509603/23/16 19:25:31  5-MIN K12N 240025Z AUTO 00000KT 09/04 A2998 530 68 0 000/00 RMK AO1 T00940039
54779K12N 12N20160323193009603/23/16 19:30:31  5-MIN K12N 240030Z AUTO 00000KT 09/04 A2998 530 71 0 000/00 RMK AO1 T00890039
54779K12N 12N20160323193509603/23/16 19:35:31  5-MIN K12N 240035Z AUTO 00000KT 09/04 A2998 530 71 0 000/00 RMK AO1 T00890039
54779K12N 12N20160323194009603/23/16 19:40:31  5-MIN K12N 240040Z AUTO 00000KT 09/04 A2998 530 71 0 000/00 RMK AO1 T00890039
54779K12N 12N20160323194509603/23/16 19:45:31  5-MIN K12N 240045Z AUTO 00000KT 09/03 A2999 520 68 0 000/00 RMK AO1 T00890033
54779K12N 12N20160323195010603/23/16 19:50:31  5-MIN K12N 240050Z AUTO 00000KT 08/03 A2999 520 70 -100 000/00 RMK AO1 SLP160 T00830033
54779K12N 12N20160323195509903/23/16 19:55:31  5-MIN K12N 240055Z AUTO 00000KT 08/03 A2999 520 70 -100 000/00 RMK AO1 T00830033
54779K12N 12N20160323200009903/23/16 20:00:31  5-MIN K12N 240100Z AUTO 00000KT 08/03 A3000 520 70 -100 000/00 RMK AO1 T00830033
54779K12N 12N20160323200509903/23/16 20:05:31  5-MIN K12N 240105Z AUTO 00000KT 08/03 A3000 520 70 -100 000/00 RMK AO1 T00830033
54779K12N 12N20160323201009903/23/16 20:10:31  5-MIN K12N 240110Z AUTO 00000KT 08/03 A3000 510 73 -100 000/00 RMK AO1 T00780033
54779K12N 12N20160323201509903/23/16 20:15:31  5-MIN K12N 240115Z AUTO 00000KT 08/03 A3000 510 73 -100 000/00 RMK AO1 T00780033
54779K12N 12N20160323202009903/23/16 20:20:31  5-MIN K12N 240120Z AUTO 00000KT 08/03 A3000 510 70 -100 000/00 RMK AO1 T00780028
54779K12N 12N20160323202509903/23/16 20:25:31  5-MIN K12N 240125Z AUTO 00000KT 08/03 A3000 510 73 -100 000/00 RMK AO1 T00780033
54779K12N 12N20160323203009903/23/16 20:30:31  5-MIN K12N 240130Z AUTO 02003KT 08/03 A3001 500 73 -200 030/03 RMK AO1 T00780033
54779K12N 12N20160323203510203/23/16 20:35:31  5-MIN K12N 240135Z AUTO 03009G15KT 09/03 A3002 500 65 0 040/09G15 RMK AO1 T00890028
54779K12N 12N20160323204012503/23/16 20:40:31  5-MIN K12N 240140Z AUTO 03007G15KT 330V060 10/02 A3002 490 58 0 050/07G15 340V070 RMK AO1 PRESRR T01000022
54779K12N 12N20160323204510203/23/16 20:45:31  5-MIN K12N 240145Z AUTO VRB04G14KT 10/03 A3002 490 60 0 VRB/04G14 RMK AO1 T01000028
54779K12N 12N20160323205010303/23/16 20:50:31  5-MIN K12N 240150Z AUTO VRB05KT 09/02 A3003 490 60 0 VRB/05 RMK AO1 SLP170 T00940022
54779K12N 12N20160323205509603/23/16 20:55:31  5-MIN K12N 240155Z AUTO 03007KT 09/02 A3003 480 60 0 050/07 RMK AO1 T00940022
54779K12N 12N20160323210009603/23/16 21:00:31  5-MIN K12N 240200Z AUTO 03007KT 09/02 A3003 480 60 0 040/07 RMK AO1 T00940022
54779K12N 12N20160323210509603/23/16 21:05:31  5-MIN K12N 240205Z AUTO 03006KT 09/02 A3003 480 60 0 040/06 RMK AO1 T00940022
54779K12N 12N20160323211009903/23/16 21:10:31  5-MIN K12N 240210Z AUTO VRB06KT 09/02 A3004 480 63 -100 VRB/06 RMK AO1 T00890022
54779K12N 12N20160323211509903/23/16 21:15:31  5-MIN K12N 240215Z AUTO VRB05KT 09/02 A3004 480 63 -100 VRB/05 RMK AO1 T00890022
54779K12N 12N20160323212009903/23/16 21:20:31  5-MIN K12N 240220Z AUTO VRB05KT 09/02 A3004 480 63 -100 VRB/05 RMK AO1 T00890022
54779K12N 12N20160323212509903/23/16 21:25:31  5-MIN K12N 240225Z AUTO VRB06KT 09/02 A3004 470 63 -100 VRB/06 RMK AO1 T00890022
54779K12N 12N20160323213009903/23/16 21:30:31  5-MIN K12N 240230Z AUTO 03006KT 08/02 A3004 470 65 -100 050/06 RMK AO1 T00830022
54779K12N 12N20160323213509903/23/16 21:35:31  5-MIN K12N 240235Z AUTO VRB06KT 08/02 A3004 470 65 -100 VRB/06 RMK AO1 T00830022
54779K12N 12N20160323214009903/23/16 21:40:31  5-MIN K12N 240240Z AUTO VRB06KT 08/02 A3005 470 65 -100 VRB/06 RMK AO1 T00830022
54779K12N 12N20160323214509903/23/16 21:45:31  5-MIN K12N 240245Z AUTO VRB06KT 08/02 A3005 470 65 -100 VRB/06 RMK AO1 T00830022
54779K12N 12N20160323215011203/23/16 21:50:31  5-MIN K12N 240250Z AUTO VRB06KT 08/02 A3005 460 65 -100 VRB/06 RMK AO1 SLP179 T00830022 53014
54779K12N 12N20160323215509903/23/16 21:55:31  5-MIN K12N 240255Z AUTO VRB06KT 08/02 A3006 460 68 -200 VRB/06 RMK AO1 T00780022
54779K12N 12N20160323220009903/23/16 22:00:31  5-MIN K12N 240300Z AUTO VRB06KT 08/02 A3006 460 68 -200 VRB/06 RMK AO1 T00780022
54779K12N 12N20160323220509903/23/16 22:05:31  5-MIN K12N 240305Z AUTO VRB06KT 08/02 A3006 460 68 -200 VRB/06 RMK AO1 T00780022
54779K12N 12N20160323221009903/23/16 22:10:31  5-MIN K12N 240310Z AUTO VRB05KT 08/02 A3006 450 68 -200 VRB/05 RMK AO1 T00780022
54779K12N 12N20160323221509903/23/16 22:15:31  5-MIN K12N 240315Z AUTO VRB05KT 07/02 A3007 450 70 -300 VRB/05 RMK AO1 T00720022
54779K12N 12N20160323222009903/23/16 22:20:31  5-MIN K12N 240320Z AUTO VRB04KT 07/02 A3007 450 70 -300 VRB/04 RMK AO1 T00720022
54779K12N 12N20160323222509903/23/16 22:25:31  5-MIN K12N 240325Z AUTO VRB05KT 07/02 A3007 450 70 -300 VRB/05 RMK AO1 T00720022
54779K12N 12N20160323223009903/23/16 22:30:31  5-MIN K12N 240330Z AUTO 03008KT 07/02 A3007 450 68 -300 050/08 RMK AO1 T00720017
54779K12N 12N20160323223509903/23/16 22:35:31  5-MIN K12N 240335Z AUTO 04006KT 07/02 A3007 450 70 -300 050/06 RMK AO1 T00720022
54779K12N 12N20160323224009903/23/16 22:40:31  5-MIN K12N 240340Z AUTO 04006KT 07/02 A3007 450 73 -400 050/06 RMK AO1 T00670022
54779K12N 12N20160323224509903/23/16 22:45:31  5-MIN K12N 240345Z AUTO 03005KT 07/02 A3007 450 73 -400 050/05 RMK AO1 T00670022
54779K12N 12N20160323225010603/23/16 22:50:31  5-MIN K12N 240350Z AUTO VRB04KT 07/02 A3007 450 73 -400 VRB/04 RMK AO1 SLP185 T00670022
54779K12N 12N20160323225509903/23/16 22:55:31  5-MIN K12N 240355Z AUTO 04004KT 07/02 A3007 440 70 -400 050/04 RMK AO1 T00670017
54779K12N 12N20160323230009903/23/16 23:00:31  5-MIN K12N 240400Z AUTO VRB03KT 07/02 A3007 440 73 -400 VRB/03 RMK AO1 T00670022
54779K12N 12N20160323230509903/23/16 23:05:31  5-MIN K12N 240405Z AUTO VRB04KT 06/02 A3008 440 73 -400 VRB/04 RMK AO1 T00610017
54779K12N 12N20160323231009903/23/16 23:10:31  5-MIN K12N 240410Z AUTO VRB05KT 06/02 A3007 450 73 -400 VRB/05 RMK AO1 T00610017
54779K12N 12N20160323231509903/23/16 23:15:31  5-MIN K12N 240415Z AUTO VRB03KT 06/02 A3007 440 73 -400 VRB/03 RMK AO1 T00610017
54779K12N 12N20160323232009903/23/16 23:20:31  5-MIN K12N 240420Z AUTO VRB04KT 06/02 A3007 440 73 -400 VRB/04 RMK AO1 T00610017
54779K12N 12N20160323232509903/23/16 23:25:31  5-MIN K12N 240425Z AUTO VRB03KT 06/02 A3007 440 73 -400 VRB/03 RMK AO1 T00610017
54779K12N 12N20160323233009903/23/16 23:30:31  5-MIN K12N 240430Z AUTO VRB04KT 06/02 A3007 440 73 -400 VRB/04 RMK AO1 T00610017
54779K12N 12N20160323233509903/23/16 23:35:31  5-MIN K12N 240435Z AUTO VRB05KT 06/02 A3008 440 76 -500 VRB/05 RMK AO1 T00560017
54779K12N 12N20160323234009903/23/16 23:40:31  5-MIN K12N 240440Z AUTO VRB04KT 06/02 A3007 440 76 -500 VRB/04 RMK AO1 T00560017
54779K12N 12N20160323234509903/23/16 23:45:31  5-MIN K12N 240445Z AUTO VRB06KT 06/02 A3007 450 76 -500 VRB/06 RMK AO1 T00560017
54779K12N 12N20160323235011603/23/16 23:50:31  5-MIN K12N 240450Z AUTO 03005KT 06/01 A3007 450 73 -500 050/05 RMK AO1 SLP184 T00560011 401940050
54779K12N 12N20160323235508903/23/16 23:55:31  5-MIN K12N 240455Z AUTO 06/01 A3007 450 73 -500 M /M RMK AO1 T00560011
54779K12N 12N20160324000009903/24/16 00:00:31  5-MIN K12N 240500Z AUTO VRB04KT 06/01 A3006 450 73 -500 VRB/04 RMK AO1 T00560011
54779K12N 12N20160324000509903/24/16 00:05:31  5-MIN K12N 240505Z AUTO VRB04KT 06/01 A3007 450 73 -500 VRB/04 RMK AO1 T00560011
54779K12N 12N20160324001009903/24/16 00:10:31  5-MIN K12N 240510Z AUTO 04007KT 05/01 A3006 450 76 -600 050/07 RMK AO1 T00500011
54779K12N 12N20160324001509903/24/16 00:15:31  5-MIN K12N 240515Z AUTO 04006KT 05/01 A3006 450 76 -600 050/06 RMK AO1 T00500011
54779K12N 12N20160324002009903/24/16 00:20:31  5-MIN K12N 240520Z AUTO 04006KT 05/01 A3006 450 73 -600 050/06 RMK AO1 T00500006
54779K12N 12N20160324002509903/24/16 00:25:31  5-MIN K12N 240525Z AUTO VRB05KT 05/01 A3006 450 73 -600 VRB/05 RMK AO1 T00500006
54779K12N 12N20160324003009903/24/16 00:30:31  5-MIN K12N 240530Z AUTO 03006KT 05/01 A3006 450 73 -600 050/06 RMK AO1 T00500006
54779K12N 12N20160324003509903/24/16 00:35:31  5-MIN K12N 240535Z AUTO VRB04KT 05/01 A3006 450 73 -600 VRB/04 RMK AO1 T00500006
54779K12N 12N20160324004009903/24/16 00:40:31  5-MIN K12N 240540Z AUTO 04006KT 04/01 A3006 460 76 -600 050/06 RMK AO1 T00440006
54779K12N 12N20160324004509903/24/16 00:45:31  5-MIN K12N 240545Z AUTO VRB04KT 04/01 A3006 450 76 -600 VRB/04 RMK AO1 T00440006
54779K12N 12N20160324005012403/24/16 00:50:31  5-MIN K12N 240550Z AUTO VRB05KT 04/01 A3006 450 76 -600 VRB/05 RMK AO1 SLP182 T00440006 10106 20044 53027
54779K12N 12N20160324005509903/24/16 00:55:31  5-MIN K12N 240555Z AUTO VRB05KT 04/01 A3006 450 76 -600 VRB/05 RMK AO1 T00440006
54779K12N 12N20160324010009903/24/16 01:00:31  5-MIN K12N 240600Z AUTO VRB05KT 04/00 A3006 460 73 -600 VRB/05 RMK AO1 T00440000
54779K12N 12N20160324010509903/24/16 01:05:31  5-MIN K12N 240605Z AUTO 04006KT 04/01 A3006 460 76 -600 050/06 RMK AO1 T00440006
54779K12N 12N20160324011009903/24/16 01:10:31  5-MIN K12N 240610Z AUTO 03005KT 04/00 A3005 460 73 -600 050/05 RMK AO1 T00440000
54779K12N 12N20160324011509903/24/16 01:15:31  5-MIN K12N 240615Z AUTO 04005KT 04/00 A3005 460 73 -600 050/05 RMK AO1 T00440000
54779K12N 12N20160324012009903/24/16 01:20:31  5-MIN K12N 240620Z AUTO VRB05KT 04/00 A3005 460 73 -600 VRB/05 RMK AO1 T00440000
54779K12N 12N20160324012509903/24/16 01:25:31  5-MIN K12N 240625Z AUTO 04005KT 04/00 A3005 460 76 -700 050/05 RMK AO1 T00390000
54779K12N 12N20160324013009903/24/16 01:30:31  5-MIN K12N 240630Z AUTO VRB06KT 04/00 A3005 460 76 -700 VRB/06 RMK AO1 T00390000
54779K12N 12N20160324013509903/24/16 01:35:31  5-MIN K12N 240635Z AUTO VRB05KT 04/00 A3005 470 76 -700 VRB/05 RMK AO1 T00390000
54779K12N 12N20160324014009903/24/16 01:40:31  5-MIN K12N 240640Z AUTO VRB04KT 04/00 A3005 460 76 -700 VRB/04 RMK AO1 T00390000
54779K12N 12N20160324014509903/24/16 01:45:31  5-MIN K12N 240645Z AUTO VRB04KT 04/00 A3005 460 76 -700 VRB/04 RMK AO1 T00390000
54779K12N 12N20160324015010603/24/16 01:50:31  5-MIN K12N 240650Z AUTO VRB04KT 04/00 A3005 460 76 -700 VRB/04 RMK AO1 SLP179 T00390000
54779K12N 12N20160324015509903/24/16 01:55:31  5-MIN K12N 240655Z AUTO VRB06KT 04/00 A3005 470 76 -700 VRB/06 RMK AO1 T00390000
54779K12N 12N20160324020009903/24/16 02:00:31  5-MIN K12N 240700Z AUTO 04004KT 04/00 A3005 470 76 -700 050/04 RMK AO1 T00390000
54779K12N 12N20160324020509903/24/16 02:05:31  5-MIN K12N 240705Z AUTO VRB03KT 04/00 A3005 460 76 -700 VRB/03 RMK AO1 T00390000
54779K12N 12N20160324021009903/24/16 02:10:31  5-MIN K12N 240710Z AUTO 03003KT 04/00 A3006 460 76 -700 040/03 RMK AO1 T00390000
54779K12N 12N20160324021509903/24/16 02:15:31  5-MIN K12N 240715Z AUTO 04005KT 04/00 A3005 460 76 -700 050/05 RMK AO1 T00390000
54779K12N 12N20160324022010003/24/16 02:20:31  5-MIN K12N 240720Z AUTO 04004KT 03/M01 A3005 460 76 -800 050/04 RMK AO1 T00331006
54779K12N 12N20160324022510003/24/16 02:25:31  5-MIN K12N 240725Z AUTO VRB04KT 03/M01 A3005 460 76 -800 VRB/04 RMK AO1 T00331006
54779K12N 12N20160324023010003/24/16 02:30:31  5-MIN K12N 240730Z AUTO 05004KT 03/M01 A3005 470 76 -700 060/04 RMK AO1 T00331006
54779K12N 12N20160324023510003/24/16 02:35:31  5-MIN K12N 240735Z AUTO VRB04KT 03/M01 A3005 470 76 -700 VRB/04 RMK AO1 T00331006
54779K12N 12N20160324024010003/24/16 02:40:31  5-MIN K12N 240740Z AUTO 04005KT 03/M01 A3004 470 76 -700 050/05 RMK AO1 T00331006
54779K12N 12N20160324024510003/24/16 02:45:31  5-MIN K12N 240745Z AUTO VRB06KT 03/M01 A3004 470 76 -700 VRB/06 RMK AO1 T00331006
54779K12N 12N20160324025010703/24/16 02:50:31  5-MIN K12N 240750Z AUTO 03004KT 03/M01 A3004 470 76 -700 040/04 RMK AO1 SLP174 T00331006
54779K12N 12N20160324025510003/24/16 02:55:31  5-MIN K12N 240755Z AUTO VRB05KT 03/M01 A3004 470 72 -700 VRB/05 RMK AO1 T00331011
54779K12N 12N20160324030010003/24/16 03:00:31  5-MIN K12N 240800Z AUTO 03006KT 03/M01 A3005 470 76 -700 040/06 RMK AO1 T00331006
54779K12N 12N20160324030510003/24/16 03:05:31  5-MIN K12N 240805Z AUTO VRB05KT 03/M01 A3005 460 76 -700 VRB/05 RMK AO1 T00331006
54779K12N 12N20160324031010003/24/16 03:10:31  5-MIN K12N 240810Z AUTO 04005KT 03/M01 A3005 460 72 -800 050/05 RMK AO1 T00331011
54779K12N 12N20160324031510003/24/16 03:15:31  5-MIN K12N 240815Z AUTO VRB04KT 03/M01 A3005 460 72 -800 VRB/04 RMK AO1 T00331011
54779K12N 12N20160324032010003/24/16 03:20:31  5-MIN K12N 240820Z AUTO 04005KT 03/M01 A3005 460 75 -800 050/05 RMK AO1 T00281011
54779K12N 12N20160324032510003/24/16 03:25:31  5-MIN K12N 240825Z AUTO 03003KT 03/M01 A3005 460 75 -800 040/03 RMK AO1 T00281011
54779K12N 12N20160324033010003/24/16 03:30:31  5-MIN K12N 240830Z AUTO 04005KT 03/M01 A3006 460 75 -800 050/05 RMK AO1 T00281011
54779K12N 12N20160324033510003/24/16 03:35:31  5-MIN K12N 240835Z AUTO 03004KT 03/M01 A3006 460 75 -800 050/04 RMK AO1 T00281011
54779K12N 12N20160324034010003/24/16 03:40:31  5-MIN K12N 240840Z AUTO 04005KT 03/M01 A3006 450 75 -800 060/05 RMK AO1 T00281011
54779K12N 12N20160324034510003/24/16 03:45:31  5-MIN K12N 240845Z AUTO 04005KT 03/M01 A3006 450 75 -800 050/05 RMK AO1 T00281011
54779K12N 12N20160324035011303/24/16 03:50:31  5-MIN K12N 240850Z AUTO 03006KT 03/M01 A3006 450 75 -800 050/06 RMK AO1 SLP182 T00281011 50003
54779K12N 12N20160324035510003/24/16 03:55:31  5-MIN K12N 240855Z AUTO 03003KT 03/M01 A3007 450 75 -800 050/03 RMK AO1 T00281011
54779K12N 12N20160324040010003/24/16 04:00:31  5-MIN K12N 240900Z AUTO 04005KT 03/M01 A3007 450 75 -800 050/05 RMK AO1 T00281011
54779K12N 12N20160324040510003/24/16 04:05:31  5-MIN K12N 240905Z AUTO 05006KT 03/M01 A3007 450 75 -800 060/06 RMK AO1 T00281011
54779K12N 12N20160324041010003/24/16 04:10:31  5-MIN K12N 240910Z AUTO VRB04KT 03/M02 A3007 450 72 -800 VRB/04 RMK AO1 T00281017
54779K12N 12N20160324041510003/24/16 04:15:31  5-MIN K12N 240915Z AUTO VRB05KT 03/M02 A3007 450 72 -800 VRB/05 RMK AO1 T00281017
54779K12N 12N20160324042010003/24/16 04:20:31  5-MIN K12N 240920Z AUTO 05005KT 03/M02 A3007 440 72 -800 070/05 RMK AO1 T00281017
54779K12N 12N20160324042510003/24/16 04:25:31  5-MIN K12N 240925Z AUTO 02004KT 02/M02 A3007 440 75 -900 030/04 RMK AO1 T00221017
54779K12N 12N20160324043010003/24/16 04:30:31  5-MIN K12N 240930Z AUTO VRB04KT 02/M02 A3008 440 75 -900 VRB/04 RMK AO1 T00221017
54779K12N 12N20160324043510003/24/16 04:35:31  5-MIN K12N 240935Z AUTO 04007KT 02/M02 A3008 440 75 -900 050/07 RMK AO1 T00221017
54779K12N 12N20160324044010003/24/16 04:40:31  5-MIN K12N 240940Z AUTO VRB04KT 02/M02 A3008 440 75 -900 VRB/04 RMK AO1 T00221017
54779K12N 12N20160324044510003/24/16 04:45:31  5-MIN K12N 240945Z AUTO VRB04KT 02/M02 A3008 440 75 -900 VRB/04 RMK AO1 T00221017
54779K12N 12N20160324045010703/24/16 04:50:31  5-MIN K12N 240950Z AUTO 03004KT 02/M02 A3008 440 75 -900 040/04 RMK AO1 SLP189 T00221017
54779K12N 12N20160324045510003/24/16 04:55:31  5-MIN K12N 240955Z AUTO 05005KT 02/M02 A3009 430 75 -900 060/05 RMK AO1 T00221017
54779K12N 12N20160324050010003/24/16 05:00:31  5-MIN K12N 241000Z AUTO 04005KT 02/M02 A3008 430 75 -900 050/05 RMK AO1 T00221017
54779K12N 12N20160324050510003/24/16 05:05:31  5-MIN K12N 241005Z AUTO 04005KT 02/M02 A3009 430 75 -900 050/05 RMK AO1 T00221017
54779K12N 12N20160324051010003/24/16 05:10:31  5-MIN K12N 241010Z AUTO 04004KT 02/M02 A3009 430 75 -900 050/04 RMK AO1 T00221017
54779K12N 12N20160324051510003/24/16 05:15:31  5-MIN K12N 241015Z AUTO 05004KT 02/M02 A3009 430 75 -900 060/04 RMK AO1 T00221017
54779K12N 12N20160324052010003/24/16 05:20:31  5-MIN K12N 241020Z AUTO 04005KT 02/M02 A3010 420 75 -900 050/05 RMK AO1 T00221017
54779K12N 12N20160324052510103/24/16 05:25:31  5-MIN K12N 241025Z AUTO 04005KT 02/M02 A3009 420 78 -1000 050/05 RMK AO1 T00171017
54779K12N 12N20160324053010103/24/16 05:30:31  5-MIN K12N 241030Z AUTO 06003KT 02/M02 A3009 430 78 -1000 070/03 RMK AO1 T00171017
54779K12N 12N20160324053510103/24/16 05:35:31  5-MIN K12N 241035Z AUTO 04003KT 02/M02 A3009 430 75 -1000 060/03 RMK AO1 T00171022
54779K12N 12N20160324054010103/24/16 05:40:31  5-MIN K12N 241040Z AUTO 04004KT 02/M02 A3009 430 75 -1000 050/04 RMK AO1 T00171022
54779K12N 12N20160324054510003/24/16 05:45:31  5-MIN K12N 241045Z AUTO VRB03KT 02/M02 A3008 430 72 -900 VRB/03 RMK AO1 T00221022
54779K12N 12N20160324055010703/24/16 05:50:31  5-MIN K12N 241050Z AUTO VRB03KT 02/M02 A3008 440 75 -900 VRB/03 RMK AO1 SLP189 T00221017
54779K12N 12N20160324055510003/24/16 05:55:31  5-MIN K12N 241055Z AUTO 00000KT 02/M02 A3008 430 75 -900 000/00 RMK AO1 T00221017
54779K12N 12N20160324060010003/24/16 06:00:31  5-MIN K12N 241100Z AUTO VRB03KT 02/M02 A3008 440 75 -900 VRB/03 RMK AO1 T00221017
54779K12N 12N20160324060510003/24/16 06:05:31  5-MIN K12N 241105Z AUTO 04004KT 02/M02 A3008 440 75 -900 050/04 RMK AO1 T00221017
54779K12N 12N20160324061010003/24/16 06:10:31  5-MIN K12N 241110Z AUTO 04004KT 02/M02 A3007 440 75 -900 060/04 RMK AO1 T00221017
54779K12N 12N20160324061510003/24/16 06:15:31  5-MIN K12N 241115Z AUTO 00000KT 02/M02 A3008 440 72 -900 000/00 RMK AO1 T00221022
54779K12N 12N20160324062010003/24/16 06:20:31  5-MIN K12N 241120Z AUTO VRB04KT 02/M02 A3008 440 75 -900 VRB/04 RMK AO1 T00221017
54779K12N 12N20160324062510003/24/16 06:25:31  5-MIN K12N 241125Z AUTO 01004KT 02/M02 A3008 440 75 -900 020/04 RMK AO1 T00221017
54779K12N 12N20160324063010003/24/16 06:30:31  5-MIN K12N 241130Z AUTO 04004KT 02/M02 A3008 440 75 -900 050/04 RMK AO1 T00221017
54779K12N 12N20160324063510003/24/16 06:35:31  5-MIN K12N 241135Z AUTO 03004KT 02/M02 A3008 430 75 -900 040/04 RMK AO1 T00221017
54779K12N 12N20160324064010003/24/16 06:40:31  5-MIN K12N 241140Z AUTO VRB04KT 02/M02 A3009 430 75 -900 VRB/04 RMK AO1 T00221017
54779K12N 12N20160324064510003/24/16 06:45:31  5-MIN K12N 241145Z AUTO 03005KT 02/M02 A3009 430 75 -900 040/05 RMK AO1 T00221017
54779K12N 12N20160324065012503/24/16 06:50:31  5-MIN K12N 241150Z AUTO 04005KT 02/M02 A3009 420 75 -900 050/05 RMK AO1 SLP196 T00221017 10044 20017 53002
54779K12N 12N20160324065510003/24/16 06:55:31  5-MIN K12N 241155Z AUTO 04005KT 03/M02 A3010 420 72 -900 050/05 RMK AO1 T00281017
54779K12N 12N20160324070010003/24/16 07:00:31  5-MIN K12N 241200Z AUTO 04006KT 03/M02 A3010 420 72 -900 050/06 RMK AO1 T00281017
54779K12N 12N20160324070510003/24/16 07:05:31  5-MIN K12N 241205Z AUTO 04006KT 03/M02 A3010 420 72 -900 050/06 RMK AO1 T00281017
54779K12N 12N20160324071010003/24/16 07:10:31  5-MIN K12N 241210Z AUTO VRB05KT 03/M02 A3010 420 72 -900 VRB/05 RMK AO1 T00281017
54779K12N 12N20160324071510003/24/16 07:15:31  5-MIN K12N 241215Z AUTO 04007KT 03/M02 A3010 420 72 -900 050/07 RMK AO1 T00281017
54779K12N 12N20160324072010003/24/16 07:20:31  5-MIN K12N 241220Z AUTO 03005KT 03/M02 A3010 420 70 -800 050/05 RMK AO1 T00331017
54779K12N 12N20160324072510003/24/16 07:25:31  5-MIN K12N 241225Z AUTO 03006KT 03/M02 A3010 420 70 -800 050/06 RMK AO1 T00331017
54779K12N 12N20160324073010003/24/16 07:30:31  5-MIN K12N 241230Z AUTO VRB04KT 04/M02 A3011 410 67 -700 VRB/04 RMK AO1 T00391017
54779K12N 12N20160324073510003/24/16 07:35:31  5-MIN K12N 241235Z AUTO 04005KT 04/M02 A3010 420 67 -700 050/05 RMK AO1 T00391017
54779K12N 12N20160324074010003/24/16 07:40:31  5-MIN K12N 241240Z AUTO 04006KT 04/M02 A3010 420 64 -700 050/06 RMK AO1 T00441017
54779K12N 12N20160324074510003/24/16 07:45:31  5-MIN K12N 241245Z AUTO 04005KT 04/M02 A3010 420 64 -700 050/05 RMK AO1 T00441017
54779K12N 12N20160324075010703/24/16 07:50:31  5-MIN K12N 241250Z AUTO 05005KT 04/M02 A3010 420 67 -700 060/05 RMK AO1 SLP197 T00391017
54779K12N 12N20160324075510003/24/16 07:55:31  5-MIN K12N 241255Z AUTO 04006KT 04/M02 A3009 430 64 -700 050/06 RMK AO1 T00441017
54779K12N 12N20160324080010003/24/16 08:00:31  5-MIN K12N 241300Z AUTO VRB04KT 05/M01 A3009 430 64 -600 VRB/04 RMK AO1 T00501011
54779K12N 12N20160324080510003/24/16 08:05:31  5-MIN K12N 241305Z AUTO VRB04KT 05/M01 A3009 430 64 -600 VRB/04 RMK AO1 T00501011
54779K12N 12N20160324081010003/24/16 08:10:31  5-MIN K12N 241310Z AUTO VRB05KT 05/M01 A3009 430 64 -600 VRB/05 RMK AO1 T00501011
54779K12N 12N20160324081510003/24/16 08:15:31  5-MIN K12N 241315Z AUTO 04005KT 06/M01 A3009 430 62 -500 050/05 RMK AO1 T00561011
54779K12N 12N20160324082010003/24/16 08:20:31  5-MIN K12N 241320Z AUTO VRB04KT 06/M01 A3009 430 60 -400 VRB/04 RMK AO1 T00611011
54779K12N 12N20160324082510003/24/16 08:25:31  5-MIN K12N 241325Z AUTO VRB04KT 06/M01 A3009 430 62 -400 VRB/04 RMK AO1 T00611006
54779K12N 12N20160324083010003/24/16 08:30:31  5-MIN K12N 241330Z AUTO VRB04KT 07/M01 A3008 430 60 -400 VRB/04 RMK AO1 T00671006
54779K12N 12N20160324083510003/24/16 08:35:31  5-MIN K12N 241335Z AUTO VRB05KT 07/M01 A3008 440 60 -400 VRB/05 RMK AO1 T00671006
54779K12N 12N20160324084010003/24/16 08:40:31  5-MIN K12N 241340Z AUTO VRB04KT 07/M01 A3009 430 60 -400 VRB/04 RMK AO1 T00671006
54779K12N 12N20160324084510003/24/16 08:45:31  5-MIN K12N 241345Z AUTO 03004KT 07/M01 A3009 430 60 -400 050/04 RMK AO1 T00671006
54779K12N 12N20160324085010603/24/16 08:50:31  5-MIN K12N 241350Z AUTO VRB03KT 07/00 A3008 430 60 -300 VRB/03 RMK AO1 SLP191 T00720000
54779K12N 12N20160324085509903/24/16 08:55:31  5-MIN K12N 241355Z AUTO 00000KT 08/00 A3008 430 58 -200 000/00 RMK AO1 T00780000
54779K12N 12N20160324090009903/24/16 09:00:31  5-MIN K12N 241400Z AUTO VRB03KT 08/00 A3008 440 55 -200 VRB/03 RMK AO1 T00830000
54779K12N 12N20160324090509903/24/16 09:05:31  5-MIN K12N 241405Z AUTO 36006KT 08/00 A3008 440 55 -200 010/06 RMK AO1 T00830000
54779K12N 12N20160324091009903/24/16 09:10:31  5-MIN K12N 241410Z AUTO 03004KT 08/00 A3008 430 55 -200 040/04 RMK AO1 T00830000
54779K12N 12N20160324091509903/24/16 09:15:31  5-MIN K12N 241415Z AUTO VRB03KT 08/00 A3008 430 55 -200 VRB/03 RMK AO1 T00830000
54779K12N 12N20160324092009903/24/16 09:20:31  5-MIN K12N 241420Z AUTO VRB04KT 09/01 A3009 430 56 -100 VRB/04 RMK AO1 T00890006
54779K12N 12N20160324092509603/24/16 09:25:31  5-MIN K12N 241425Z AUTO VRB04KT 09/01 A3009 430 53 0 VRB/04 RMK AO1 T00940006
54779K12N 12N20160324093009603/24/16 09:30:31  5-MIN K12N 241430Z AUTO VRB03KT 09/01 A3008 430 53 0 VRB/03 RMK AO1 T00940006
54779K12N 12N20160324093509603/24/16 09:35:31  5-MIN K12N 241435Z AUTO VRB03KT 09/01 A3008 440 53 0 VRB/03 RMK AO1 T00940006
54779K12N 12N20160324094009603/24/16 09:40:31  5-MIN K12N 241440Z AUTO 01005KT 09/01 A3008 440 53 0 020/05 RMK AO1 T00940006
54779K12N 12N20160324094509603/24/16 09:45:31  5-MIN K12N 241445Z AUTO 02003KT 10/01 A3007 440 52 0 030/03 RMK AO1 T01000006
54779K12N 12N20160324095010903/24/16 09:50:31  5-MIN K12N 241450Z AUTO 36004KT 10/01 A3007 450 52 0 020/04 RMK AO1 SLP186 T01000006 51010
54779K12N 12N20160324095509603/24/16 09:55:31  5-MIN K12N 241455Z AUTO 35005KT 10/01 A3007 450 52 0 360/05 RMK AO1 T01000006
54779K12N 12N20160324100009803/24/16 10:00:31  5-MIN K12N 241500Z AUTO 00000KT 11/01 A3007 450 50 100 000/00 RMK AO1 T01110011
54779K12N 12N20160324100508803/24/16 10:05:31  5-MIN K12N 241505Z AUTO 11/01 A3007 450 50 100 M /M RMK AO1 T01110011
54779K12N 12N20160324101009803/24/16 10:10:31  5-MIN K12N 241510Z AUTO VRB04KT 11/01 A3006 450 50 100 VRB/04 RMK AO1 T01110011
54779K12N 12N20160324101509803/24/16 10:15:31  5-MIN K12N 241515Z AUTO VRB03KT 12/01 A3006 460 48 200 VRB/03 RMK AO1 T01170011
54779K12N 12N20160324102009803/24/16 10:20:31  5-MIN K12N 241520Z AUTO 06006KT 12/01 A3006 460 48 200 070/06 RMK AO1 T01170011
54779K12N 12N20160324102509803/24/16 10:25:31  5-MIN K12N 241525Z AUTO VRB03KT 12/02 A3006 460 50 200 VRB/03 RMK AO1 T01170017
54779K12N 12N20160324103009803/24/16 10:30:31  5-MIN K12N 241530Z AUTO VRB03KT 12/01 A3005 460 48 200 VRB/03 RMK AO1 T01170011
54779K12N 12N20160324103509803/24/16 10:35:31  5-MIN K12N 241535Z AUTO 00000KT 12/01 A3005 460 46 300 000/00 RMK AO1 T01220011
54779K12N 12N20160324104009803/24/16 10:40:31  5-MIN K12N 241540Z AUTO VRB05KT 12/01 A3005 470 46 300 VRB/05 RMK AO1 T01220011
54779K12N 12N20160324104509803/24/16 10:45:31  5-MIN K12N 241545Z AUTO VRB06KT 12/01 A3005 470 48 200 VRB/06 RMK AO1 T01170011
54779K12N 12N20160324105010503/24/16 10:50:31  5-MIN K12N 241550Z AUTO VRB05KT 12/02 A3004 470 48 300 VRB/05 RMK AO1 SLP177 T01220017
54779K12N 12N20160324105509803/24/16 10:55:31  5-MIN K12N 241555Z AUTO VRB04KT 12/01 A3004 480 46 300 VRB/04 RMK AO1 T01220011
54779K12N 12N20160324110009803/24/16 11:00:31  5-MIN K12N 241600Z AUTO VRB06KT 12/01 A3004 470 46 300 VRB/06 RMK AO1 T01220011
54779K12N 12N20160324110509803/24/16 11:05:31  5-MIN K12N 241605Z AUTO VRB05KT 12/02 A3004 480 48 300 VRB/05 RMK AO1 T01220017
54779K12N 12N20160324111009803/24/16 11:10:31  5-MIN K12N 241610Z AUTO VRB05KT 12/02 A3003 480 48 300 VRB/05 RMK AO1 T01220017
54779K12N 12N20160324111508803/24/16 11:15:31  5-MIN K12N 241615Z AUTO 12/02 A3003 490 48 300 M /M RMK AO1 T01220017
54779K12N 12N20160324112009803/24/16 11:20:31  5-MIN K12N 241620Z AUTO 15006KT 12/02 A3002 490 48 300 160/06 RMK AO1 T01220017
54779K12N 12N20160324112509803/24/16 11:25:31  5-MIN K12N 241625Z AUTO VRB03KT 12/02 A3002 490 48 300 VRB/03 RMK AO1 T01220017
54779K12N 12N20160324113009803/24/16 11:30:31  5-MIN K12N 241630Z AUTO VRB06KT 13/02 A3003 490 45 400 VRB/06 RMK AO1 T01330017
54779K12N 12N20160324113509803/24/16 11:35:31  5-MIN K12N 241635Z AUTO VRB04KT 14/02 A3002 490 45 500 VRB/04 RMK AO1 T01390022
54779K12N 12N20160324114009803/24/16 11:40:31  5-MIN K12N 241640Z AUTO VRB04KT 14/02 A3002 490 45 500 VRB/04 RMK AO1 T01390022
54779K12N 12N20160324114509803/24/16 11:45:31  5-MIN K12N 241645Z AUTO VRB06KT 13/02 A3002 490 48 400 VRB/06 RMK AO1 T01280022
54779K12N 12N20160324115010503/24/16 11:50:31  5-MIN K12N 241650Z AUTO VRB04KT 13/02 A3002 490 48 400 VRB/04 RMK AO1 SLP169 T01280022
54779K12N 12N20160324115509803/24/16 11:55:31  5-MIN K12N 241655Z AUTO VRB06KT 14/02 A3002 500 45 500 VRB/06 RMK AO1 T01390022
54779K12N 12N20160324120009803/24/16 12:00:31  5-MIN K12N 241700Z AUTO VRB06KT 13/02 A3001 500 46 500 VRB/06 RMK AO1 T01330022
54779K12N 12N20160324120509803/24/16 12:05:31  5-MIN K12N 241705Z AUTO VRB06KT 13/02 A3002 500 46 500 VRB/06 RMK AO1 T01330022
54779K12N 12N20160324121011403/24/16 12:10:31  5-MIN K12N 241710Z AUTO 16007KT 120V210 13/02 A3001 500 48 400 170/07 130V220 RMK AO1 T01280022
54779K12N 12N20160324121511403/24/16 12:15:31  5-MIN K12N 241715Z AUTO 17007KT 130V210 14/03 A3001 500 47 500 180/07 140V220 RMK AO1 T01390028
54779K12N 12N20160324122010403/24/16 12:20:31  5-MIN K12N 241720Z AUTO 16012G16KT 12/02 A3001 500 50 300 170/12G16 RMK AO1 T01220022
54779K12N 12N20160324122510403/24/16 12:25:31  5-MIN K12N 241725Z AUTO VRB06G16KT 12/02 A3001 500 50 300 VRB/06G16 RMK AO1 T01220022
54779K12N 12N20160324123009803/24/16 12:30:31  5-MIN K12N 241730Z AUTO 00000KT 13/02 A3001 500 48 400 000/00 RMK AO1 T01280022
54779K12N 12N20160324123511403/24/16 12:35:31  5-MIN K12N 241735Z AUTO 17008KT 130V200 13/03 A3000 510 50 400 180/08 140V210 RMK AO1 T01280028
54779K12N 12N20160324124009803/24/16 12:40:31  5-MIN K12N 241740Z AUTO 17007KT 12/03 A3000 510 52 300 180/07 RMK AO1 T01220028
54779K12N 12N20160324124509803/24/16 12:45:31  5-MIN K12N 241745Z AUTO VRB05KT 12/03 A3000 510 52 300 VRB/05 RMK AO1 T01220028
54779K12N 12N20160324125012303/24/16 12:50:31  5-MIN K12N 241750Z AUTO VRB06KT 12/03 A3000 520 52 300 VRB/06 RMK AO1 SLP162 T01220028 10139 20028 58009
54779K12N 12N20160324125511403/24/16 12:55:31  5-MIN K12N 241755Z AUTO 16008KT 130V210 13/03 A2999 520 50 400 170/08 140V220 RMK AO1 T01280028
54779K12N 12N20160324130009803/24/16 13:00:31  5-MIN K12N 241800Z AUTO VRB06KT 12/03 A2999 520 52 400 VRB/06 RMK AO1 T01220028
54779K12N 12N20160324130512003/24/16 13:05:31  5-MIN K12N 241805Z AUTO 17008G15KT 120V210 12/03 A2999 520 52 400 180/08G15 130V220 RMK AO1 T01220028
54779K12N 12N20160324131010403/24/16 13:10:31  5-MIN K12N 241810Z AUTO VRB05G15KT 13/03 A2999 520 50 400 VRB/05G15 RMK AO1 T01280028
54779K12N 12N20160324131509803/24/16 13:15:31  5-MIN K12N 241815Z AUTO VRB03KT 13/03 A2998 530 50 400 VRB/03 RMK AO1 T01280028
54779K12N 12N20160324132008803/24/16 13:20:31  5-MIN K12N 241820Z AUTO 12/03 A2998 530 52 400 M /M RMK AO1 T01220028
54779K12N 12N20160324132510403/24/16 13:25:31  5-MIN K12N 241825Z AUTO VRB04G16KT 12/03 A2998 530 52 400 VRB/04G16 RMK AO1 T01220028
54779K12N 12N20160324133012003/24/16 13:30:31  5-MIN K12N 241830Z AUTO 18007G16KT 140V230 13/03 A2998 530 50 400 190/07G16 150V240 RMK AO1 T01280028
54779K12N 12N20160324133511403/24/16 13:35:31  5-MIN K12N 241835Z AUTO 18007KT 130V220 12/03 A2997 540 52 400 190/07 140V230 RMK AO1 T01220028
54779K12N 12N20160324134009803/24/16 13:40:31  5-MIN K12N 241840Z AUTO VRB06KT 13/03 A2997 540 50 400 VRB/06 RMK AO1 T01280028
54779K12N 12N20160324134509803/24/16 13:45:31  5-MIN K12N 241845Z AUTO 17009KT 13/03 A2997 540 50 400 180/09 RMK AO1 T01280028
54779K12N 12N20160324135010503/24/16 13:50:31  5-MIN K12N 241850Z AUTO VRB05KT 12/03 A2996 540 52 400 VRB/05 RMK AO1 SLP151 T01220028
54779K12N 12N20160324135509803/24/16 13:55:31  5-MIN K12N 241855Z AUTO VRB05KT 13/03 A2996 550 50 500 VRB/05 RMK AO1 T01280028
54779K12N 12N20160324140009803/24/16 14:00:31  5-MIN K12N 241900Z AUTO VRB04KT 13/03 A2996 550 50 500 VRB/04 RMK AO1 T01280028
54779K12N 12N20160324140508803/24/16 14:05:31  5-MIN K12N 241905Z AUTO 13/03 A2996 550 50 500 M /M RMK AO1 T01280028
54779K12N 12N20160324141009803/24/16 14:10:31  5-MIN K12N 241910Z AUTO VRB06KT 13/03 A2995 550 50 500 VRB/06 RMK AO1 T01280028
54779K12N 12N20160324141511403/24/16 14:15:31  5-MIN K12N 241915Z AUTO 11008KT 080V140 13/03 A2995 560 50 500 120/08 090V150 RMK AO1 T01280028
54779K12N 12N20160324142009803/24/16 14:20:31  5-MIN K12N 241920Z AUTO VRB04KT 13/03 A2995 560 52 500 VRB/04 RMK AO1 T01280033
54779K12N 12N20160324142508803/24/16 14:25:31  5-MIN K12N 241925Z AUTO 13/03 A2995 560 52 500 M /M RMK AO1 T01280033
54779K12N 12N20160324143008803/24/16 14:30:31  5-MIN K12N 241930Z AUTO 13/03 A2994 560 52 500 M /M RMK AO1 T01280033
54779K12N 12N20160324143511403/24/16 14:35:31  5-MIN K12N 241935Z AUTO 10007KT 070V140 13/03 A2994 570 52 500 110/07 080V150 RMK AO1 T01280033
54779K12N 12N20160324144009803/24/16 14:40:31  5-MIN K12N 241940Z AUTO VRB03KT 13/03 A2994 570 50 500 VRB/03 RMK AO1 T01330033
54779K12N 12N20160324144509803/24/16 14:45:31  5-MIN K12N 241945Z AUTO VRB06KT 13/03 A2994 570 50 500 VRB/06 RMK AO1 T01330033
54779K12N 12N20160324145010503/24/16 14:50:31  5-MIN K12N 241950Z AUTO VRB05KT 13/03 A2993 570 50 500 VRB/05 RMK AO1 SLP141 T01330033
54779K12N 12N20160324145511403/24/16 14:55:31  5-MIN K12N 241955Z AUTO 15008KT 110V200 13/03 A2993 570 50 500 170/08 120V210 RMK AO1 T01330033
54779K12N 12N20160324150009803/24/16 15:00:31  5-MIN K12N 242000Z AUTO VRB05KT 13/03 A2993 570 50 600 VRB/05 RMK AO1 T01330033
54779K12N 12N20160324150509803/24/16 15:05:31  5-MIN K12N 242005Z AUTO 00000KT 13/03 A2993 580 50 600 000/00 RMK AO1 T01330033
54779K12N 12N20160324151008803/24/16 15:10:31  5-MIN K12N 242010Z AUTO 13/03 A2993 580 50 600 M /M RMK AO1 T01330033
54779K12N 12N20160324151511403/24/16 15:15:31  5-MIN K12N 242015Z AUTO 16009KT 120V200 13/03 A2993 580 50 600 170/09 130V210 RMK AO1 T01330033
54779K12N 12N20160324152011403/24/16 15:20:31  5-MIN K12N 242020Z AUTO 15007KT 100V190 13/03 A2992 580 52 500 170/07 110V200 RMK AO1 T01280033
54779K12N 12N20160324152509803/24/16 15:25:31  5-MIN K12N 242025Z AUTO VRB06KT 13/03 A2992 580 52 500 VRB/06 RMK AO1 T01280033
54779K12N 12N20160324153009803/24/16 15:30:31  5-MIN K12N 242030Z AUTO VRB04KT 13/03 A2992 590 50 600 VRB/04 RMK AO1 T01330033
54779K12N 12N20160324153511403/24/16 15:35:31  5-MIN K12N 242035Z AUTO 17009KT 140V200 13/03 A2992 590 50 600 190/09 150V210 RMK AO1 T01330033
54779K12N 12N20160324154012003/24/16 15:40:31  5-MIN K12N 242040Z AUTO 19008G18KT 150V210 13/03 A2991 590 52 500 200/08G18 160V220 RMK AO1 T01280033
54779K12N 12N20160324154509803/24/16 15:45:31  5-MIN K12N 242045Z AUTO 00000KT 13/03 A2990 600 52 500 000/00 RMK AO1 T01280033
54779K12N 12N20160324155010103/24/16 15:50:31  5-MIN K12N 242050Z AUTO 13/04 A2991 600 52 600 M /M RMK AO1 SLP131 T01330039 56024
54779K12N 12N20160324155509803/24/16 15:55:31  5-MIN K12N 242055Z AUTO VRB05KT 13/04 A2991 600 52 600 VRB/05 RMK AO1 T01330039
54779K12N 12N20160324160009803/24/16 16:00:31  5-MIN K12N 242100Z AUTO VRB05KT 13/04 A2990 600 52 600 VRB/05 RMK AO1 T01330039
54779K12N 12N20160324160509803/24/16 16:05:31  5-MIN K12N 242105Z AUTO 17006KT 13/04 A2990 600 54 500 180/06 RMK AO1 T01280039
54779K12N 12N20160324161009803/24/16 16:10:31  5-MIN K12N 242110Z AUTO VRB05KT 12/04 A2990 600 56 500 VRB/05 RMK AO1 T01220039
54779K12N 12N20160324161509803/24/16 16:15:31  5-MIN K12N 242115Z AUTO 00000KT 12/04 A2990 610 56 500 000/00 RMK AO1 T01220039
54779K12N 12N20160324162008803/24/16 16:20:31  5-MIN K12N 242120Z AUTO 13/04 A2990 610 54 500 M /M RMK AO1 T01280039
54779K12N 12N20160324162509803/24/16 16:25:31  5-MIN K12N 242125Z AUTO VRB05KT 13/04 A2989 610 54 500 VRB/05 RMK AO1 T01280039
54779K12N 12N20160324163009803/24/16 16:30:31  5-MIN K12N 242130Z AUTO VRB05KT 13/04 A2989 610 54 500 VRB/05 RMK AO1 T01280039
54779K12N 12N20160324163511403/24/16 16:35:31  5-MIN K12N 242135Z AUTO 18008KT 140V210 13/04 A2989 610 56 500 190/08 150V220 RMK AO1 T01280044
54779K12N 12N20160324164010403/24/16 16:40:31  5-MIN K12N 242140Z AUTO 16009G16KT 12/04 A2989 610 59 500 180/09G16 RMK AO1 T01220044
54779K12N 12N20160324164512003/24/16 16:45:31  5-MIN K12N 242145Z AUTO 16008G16KT 130V210 12/04 A2989 610 61 400 170/08G16 140V220 RMK AO1 T01170044
54779K12N 12N20160324165011103/24/16 16:50:31  5-MIN K12N 242150Z AUTO VRB05G15KT 12/04 A2990 610 61 400 VRB/05G15 RMK AO1 SLP128 T01170044
54779K12N 12N20160324165509803/24/16 16:55:31  5-MIN K12N 242155Z AUTO VRB06KT 11/05 A2990 610 66 300 VRB/06 RMK AO1 T01110050
54779K12N 12N20160324170010403/24/16 17:00:31  5-MIN K12N 242200Z AUTO 18007G15KT 11/05 A2990 610 66 300 190/07G15 RMK AO1 T01110050
54779K12N 12N20160324170512003/24/16 17:05:31  5-MIN K12N 242205Z AUTO 18008G15KT 150V210 11/05 A2989 610 66 300 190/08G15 160V220 RMK AO1 T01110050
54779K12N 12N20160324171011403/24/16 17:10:31  5-MIN K12N 242210Z AUTO 16009KT 140V200 11/05 A2989 610 68 300 180/09 150V210 RMK AO1 T01060050
54779K12N 12N20160324171509803/24/16 17:15:31  5-MIN K12N 242215Z AUTO 15009KT 11/04 A2990 610 66 300 160/09 RMK AO1 T01060044
54779K12N 12N20160324172009803/24/16 17:20:31  5-MIN K12N 242220Z AUTO VRB05KT 11/04 A2989 610 66 300 VRB/05 RMK AO1 T01060044
54779K12N 12N20160324172509803/24/16 17:25:31  5-MIN K12N 242225Z AUTO VRB05KT 10/04 A2989 610 68 200 VRB/05 RMK AO1 T01000044
54779K12N 12N20160324173009803/24/16 17:30:31  5-MIN K12N 242230Z AUTO VRB03KT 10/04 A2989 610 68 200 VRB/03 RMK AO1 T01000044
54779K12N 12N20160324173509803/24/16 17:35:31  5-MIN K12N 242235Z AUTO VRB04KT 10/04 A2990 610 68 200 VRB/04 RMK AO1 T01000044
54779K12N 12N20160324174010403/24/16 17:40:31  5-MIN K12N 242240Z AUTO 14009G16KT 10/04 A2990 610 68 200 150/09G16 RMK AO1 T01000044
54779K12N 12N20160324174510403/24/16 17:45:31  5-MIN K12N 242245Z AUTO VRB03G16KT 10/04 A2989 610 68 200 VRB/03G16 RMK AO1 T01000044
54779K12N 12N20160324175010503/24/16 17:50:31  5-MIN K12N 242250Z AUTO VRB05KT 10/04 A2989 610 68 200 VRB/05 RMK AO1 SLP128 T01000044
54779K12N 12N20160324175509803/24/16 17:55:31  5-MIN K12N 242255Z AUTO VRB05KT 09/04 A2989 610 71 100 VRB/05 RMK AO1 T00940044
54779K12N 12N20160324180009803/24/16 18:00:31  5-MIN K12N 242300Z AUTO 12007KT 09/04 A2989 610 71 100 130/07 RMK AO1 T00940044
54779K12N 12N20160324180509803/24/16 18:05:31  5-MIN K12N 242305Z AUTO 00000KT 09/04 A2989 610 71 100 000/00 RMK AO1 T00940044
54779K12N 12N20160324181009803/24/16 18:10:31  5-MIN K12N 242310Z AUTO VRB05KT 09/04 A2989 610 68 100 VRB/05 RMK AO1 T00940039
54779K12N 12N20160324181509803/24/16 18:15:31  5-MIN K12N 242315Z AUTO VRB04KT 09/04 A2989 610 71 100 VRB/04 RMK AO1 T00890039
54779K12N 12N20160324182009803/24/16 18:20:31  5-MIN K12N 242320Z AUTO 14004KT 09/04 A2989 610 71 100 150/04 RMK AO1 T00890039
54779K12N 12N20160324182509803/24/16 18:25:31  5-MIN K12N 242325Z AUTO 00000KT 09/04 A2989 610 71 100 000/00 RMK AO1 T00890039
54779K12N 12N20160324183009803/24/16 18:30:31  5-MIN K12N 242330Z AUTO VRB03KT 09/04 A2989 610 71 100 VRB/03 RMK AO1 T00890039
54779K12N 12N20160324183509803/24/16 18:35:31  5-MIN K12N 242335Z AUTO VRB03KT 09/04 A2989 610 71 100 VRB/03 RMK AO1 T00890039
54779K12N 12N20160324184009603/24/16 18:40:31  5-MIN K12N 242340Z AUTO VRB03KT 08/03 A2989 610 70 0 VRB/03 RMK AO1 T00830033
54779K12N 12N20160324184509603/24/16 18:45:31  5-MIN K12N 242345Z AUTO VRB04KT 08/03 A2989 620 70 0 VRB/04 RMK AO1 T00830033
54779K12N 12N20160324185012103/24/16 18:50:31  5-MIN K12N 242350Z AUTO VRB03KT 08/03 A2988 620 70 0 VRB/03 RMK AO1 SLP125 T00830033 10133 20083 56031
54779K12N 12N20160324185508603/24/16 18:55:31  5-MIN K12N 242355Z AUTO 08/03 A2988 620 70 0 M /M RMK AO1 T00830033
54779K12N 12N20160324190009603/24/16 19:00:31  5-MIN K12N 250000Z AUTO 00000KT 08/03 A2988 620 73 0 000/00 RMK AO1 T00780033
54779K12N 12N20160324190509603/24/16 19:05:31  5-MIN K12N 250005Z AUTO 00000KT 08/03 A2988 630 73 0 000/00 RMK AO1 T00780033
54779K12N 12N20160324191009603/24/16 19:10:31  5-MIN K12N 250010Z AUTO 00000KT 08/03 A2988 620 73 0 000/00 RMK AO1 T00780033
54779K12N 12N20160324191509603/24/16 19:15:31  5-MIN K12N 250015Z AUTO VRB03KT 08/03 A2987 630 73 0 VRB/03 RMK AO1 T00780033
54779K12N 12N20160324192009603/24/16 19:20:31  5-MIN K12N 250020Z AUTO VRB03KT 08/03 A2987 630 73 0 VRB/03 RMK AO1 T00780033
54779K12N 12N20160324192509603/24/16 19:25:31  5-MIN K12N 250025Z AUTO VRB03KT 08/03 A2987 630 73 0 VRB/03 RMK AO1 T00780033
54779K12N 12N20160324193009903/24/16 19:30:31  5-MIN K12N 250030Z AUTO 00000KT 07/03 A2987 630 76 -100 000/00 RMK AO1 T00720033
54779K12N 12N20160324193509603/24/16 19:35:31  5-MIN K12N 250035Z AUTO VRB03KT 08/03 A2987 630 73 0 VRB/03 RMK AO1 T00780033
54779K12N 12N20160324194009603/24/16 19:40:31  5-MIN K12N 250040Z AUTO 00000KT 08/04 A2987 630 76 0 000/00 RMK AO1 T00780039
54779K12N 12N20160324194509603/24/16 19:45:31  5-MIN K12N 250045Z AUTO VRB03KT 08/04 A2987 630 76 0 VRB/03 RMK AO1 T00780039
54779K12N 12N20160324195010303/24/16 19:50:31  5-MIN K12N 250050Z AUTO VRB04KT 08/04 A2987 630 76 0 VRB/04 RMK AO1 SLP120 T00780039
54779K12N 12N20160324195508603/24/16 19:55:31  5-MIN K12N 250055Z AUTO 08/04 A2987 630 76 0 M /M RMK AO1 T00780039
54779K12N 12N20160324200009603/24/16 20:00:31  5-MIN K12N 250100Z AUTO 00000KT 08/04 A2987 630 76 0 000/00 RMK AO1 T00780039
54779K12N 12N20160324200509603/24/16 20:05:31  5-MIN K12N 250105Z AUTO 00000KT 08/04 A2988 630 79 0 000/00 RMK AO1 T00780044
54779K12N 12N20160324201009603/24/16 20:10:31  5-MIN K12N 250110Z AUTO 00000KT 08/04 A2988 620 79 0 000/00 RMK AO1 T00780044
54779K12N 12N20160324201509603/24/16 20:15:31  5-MIN K12N 250115Z AUTO 00000KT 08/04 A2987 630 79 0 000/00 RMK AO1 T00780044
54779K12N 12N20160324202009603/24/16 20:20:31  5-MIN K12N 250120Z AUTO 00000KT 08/04 A2988 620 79 0 000/00 RMK AO1 T00780044
54779K12N 12N20160324202509603/24/16 20:25:31  5-MIN K12N 250125Z AUTO 00000KT 08/04 A2988 630 79 0 000/00 RMK AO1 T00780044
54779K12N 12N20160324203009603/24/16 20:30:31  5-MIN K12N 250130Z AUTO VRB04KT 08/04 A2988 620 79 0 VRB/04 RMK AO1 T00780044
54779K12N 12N20160324203509603/24/16 20:35:31  5-MIN K12N 250135Z AUTO VRB03KT 08/05 A2986 640 82 0 VRB/03 RMK AO1 T00780050
54779K12N 12N20160324204009603/24/16 20:40:31  5-MIN K12N 250140Z AUTO 00000KT 08/05 A2986 640 82 0 000/00 RMK AO1 T00780050
54779K12N 12N20160324204509603/24/16 20:45:31  5-MIN K12N 250145Z AUTO 00000KT 08/05 A2986 640 82 0 000/00 RMK AO1 T00780050
54779K12N 12N20160324205010303/24/16 20:50:31  5-MIN K12N 250150Z AUTO 00000KT 08/05 A2986 640 82 0 000/00 RMK AO1 SLP116 T00780050
54779K12N 12N20160324205509603/24/16 20:55:31  5-MIN K12N 250155Z AUTO 18005KT 07/05 A2986 640 86 0 190/05 RMK AO1 T00720050
54779K12N 12N20160324210009603/24/16 21:00:31  5-MIN K12N 250200Z AUTO 00000KT 07/05 A2986 640 86 0 000/00 RMK AO1 T00720050
54779K12N 12N20160324210509603/24/16 21:05:31  5-MIN K12N 250205Z AUTO 16005KT 07/05 A2985 650 86 0 170/05 RMK AO1 T00720050
54779K12N 12N20160324211009603/24/16 21:10:31  5-MIN K12N 250210Z AUTO VRB06KT 07/05 A2985 650 86 0 VRB/06 RMK AO1 T00720050
54779K12N 12N20160324211509603/24/16 21:15:31  5-MIN K12N 250215Z AUTO VRB05KT 07/05 A2984 660 86 0 VRB/05 RMK AO1 T00720050
54779K12N 12N20160324212009603/24/16 21:20:31  5-MIN K12N 250220Z AUTO 00000KT 07/05 A2984 660 86 0 000/00 RMK AO1 T00720050
54779K12N 12N20160324212509603/24/16 21:25:31  5-MIN K12N 250225Z AUTO 00000KT 07/05 A2984 660 86 0 000/00 RMK AO1 T00720050
54779K12N 12N20160324213009603/24/16 21:30:31  5-MIN K12N 250230Z AUTO 00000KT 07/06 A2983 670 89 0 000/00 RMK AO1 T00720056
54779K12N 12N20160324213509603/24/16 21:35:31  5-MIN K12N 250235Z AUTO 12004KT 07/06 A2983 670 89 0 130/04 RMK AO1 T00720056
54779K12N 12N20160324214009603/24/16 21:40:31  5-MIN K12N 250240Z AUTO 00000KT 07/06 A2983 670 89 0 000/00 RMK AO1 T00720056
54779K12N 12N20160324214509603/24/16 21:45:31  5-MIN K12N 250245Z AUTO VRB03KT 07/06 A2984 660 89 0 VRB/03 RMK AO1 T00720056
54779K12N 12N20160324215010903/24/16 21:50:31  5-MIN K12N 250250Z AUTO VRB03KT 08/06 A2984 660 86 0 VRB/03 RMK AO1 SLP107 T00780056 58007
54779K12N 12N20160324215509603/24/16 21:55:31  5-MIN K12N 250255Z AUTO VRB04KT 08/06 A2983 660 86 0 VRB/04 RMK AO1 T00780056
54779K12N 12N20160324220009603/24/16 22:00:31  5-MIN K12N 250300Z AUTO VRB03KT 08/06 A2983 660 86 0 VRB/03 RMK AO1 T00780056
54779K12N 12N20160324220509603/24/16 22:05:31  5-MIN K12N 250305Z AUTO 17005KT 08/06 A2983 670 86 0 190/05 RMK AO1 T00780056
54779K12N 12N20160324221009603/24/16 22:10:31  5-MIN K12N 250310Z AUTO VRB03KT 08/06 A2983 660 86 0 VRB/03 RMK AO1 T00780056
54779K12N 12N20160324221509603/24/16 22:15:31  5-MIN K12N 250315Z AUTO 15005KT 08/06 A2983 670 86 0 160/05 RMK AO1 T00780056
54779K12N 12N20160324222009603/24/16 22:20:31  5-MIN K12N 250320Z AUTO 15003KT 08/06 A2983 670 86 0 160/03 RMK AO1 T00780056
54779K12N 12N20160324222509603/24/16 22:25:31  5-MIN K12N 250325Z AUTO 00000KT 08/06 A2982 670 86 0 000/00 RMK AO1 T00780056
54779K12N 12N20160324223009603/24/16 22:30:31  5-MIN K12N 250330Z AUTO 00000KT 08/06 A2982 680 89 0 000/00 RMK AO1 T00780061
54779K12N 12N20160324223509603/24/16 22:35:31  5-MIN K12N 250335Z AUTO 18003KT 08/06 A2982 680 89 0 190/03 RMK AO1 T00780061
54779K12N 12N20160324224009603/24/16 22:40:31  5-MIN K12N 250340Z AUTO VRB03KT 08/06 A2982 680 89 0 VRB/03 RMK AO1 T00780061
54779K12N 12N20160324224509803/24/16 22:45:31  5-MIN K12N 250345Z AUTO 00000KT 08/06 A2982 680 86 100 000/00 RMK AO1 T00830061
54779K12N 12N20160324225010503/24/16 22:50:31  5-MIN K12N 250350Z AUTO 00000KT 08/06 A2982 680 86 100 000/00 RMK AO1 SLP099 T00830061
54779K12N 12N20160324225509803/24/16 22:55:31  5-MIN K12N 250355Z AUTO 00000KT 08/06 A2982 680 86 100 000/00 RMK AO1 T00830061
54779K12N 12N20160324230009803/24/16 23:00:31  5-MIN K12N 250400Z AUTO 00000KT 08/06 A2981 680 86 100 000/00 RMK AO1 T00830061
54779K12N 12N20160324230509803/24/16 23:05:31  5-MIN K12N 250405Z AUTO 00000KT 08/06 A2981 680 86 100 000/00 RMK AO1 T00830061
54779K12N 12N20160324231009803/24/16 23:10:31  5-MIN K12N 250410Z AUTO 14003KT 08/07 A2981 690 89 100 150/03 RMK AO1 T00830067
54779K12N 12N20160324231507403/24/16 23:15:31  5-MIN K12N 250415Z AUTO 16003KT 09/07 A2981 690 86 200 
54779K12N 12N20160325052009803/25/16 05:20:31  5-MIN K12N 251020Z AUTO 00000KT 10/09 A2967 810 96 400 000/00 RMK AO1 T01000094
54779K12N 12N20160325052509803/25/16 05:25:31  5-MIN K12N 251025Z AUTO 00000KT 10/09 A2967 820 96 500 000/00 RMK AO1 T01000094
54779K12N 12N20160325053010403/25/16 05:30:31  5-MIN K12N 251030Z AUTO 00000KT 10/09 A2968 810 96 400 000/00 RMK AO1 P0001 T01000094
54779K12N 12N20160325053510403/25/16 05:35:31  5-MIN K12N 251035Z AUTO 00000KT 10/09 A2968 810 96 400 000/00 RMK AO1 P0001 T01000094
54779K12N 12N20160325054010403/25/16 05:40:31  5-MIN K12N 251040Z AUTO 17003KT 11/10 A2967 810 96 500 180/03 RMK AO1 P0001 T01060100
54779K12N 12N20160325054510403/25/16 05:45:31  5-MIN K12N 251045Z AUTO 18005KT 12/11 A2967 810 93 700 200/05 RMK AO1 P0001 T01220111
54779K12N 12N20160325055011103/25/16 05:50:31  5-MIN K12N 251050Z AUTO 19005KT 13/12 A2968 810 93 800 200/05 RMK AO1 SLP050 P0001 T01280117
54779K12N 12N20160325055509803/25/16 05:55:31  5-MIN K12N 251055Z AUTO 18003KT 13/12 A2968 810 93 800 190/03 RMK AO1 T01330122
54779K12N 12N20160325060009803/25/16 06:00:31  5-MIN K12N 251100Z AUTO 18003KT 13/12 A2968 810 93 800 190/03 RMK AO1 T01330122
54779K12N 12N20160325060509803/25/16 06:05:31  5-MIN K12N 251105Z AUTO 00000KT 13/12 A2968 810 93 800 000/00 RMK AO1 T01330122
54779K12N 12N20160325061009803/25/16 06:10:31  5-MIN K12N 251110Z AUTO 19003KT 13/12 A2968 810 93 800 210/03 RMK AO1 T01330122
54779K12N 12N20160325061509803/25/16 06:15:31  5-MIN K12N 251115Z AUTO VRB04KT 13/12 A2968 810 93 800 VRB/04 RMK AO1 T01330122
54779K12N 12N20160325062009803/25/16 06:20:31  5-MIN K12N 251120Z AUTO 00000KT 14/12 A2968 810 90 900 000/00 RMK AO1 T01390122
54779K12N 12N20160325062508803/25/16 06:25:31  5-MIN K12N 251125Z AUTO 14/12 A2968 810 90 900 M /M RMK AO1 T01390122
54779K12N 12N20160325063009903/25/16 06:30:31  5-MIN K12N 251130Z AUTO 21004KT 14/12 A2968 810 86 1000 230/04 RMK AO1 T01440122
54779K12N 12N20160325063509903/25/16 06:35:31  5-MIN K12N 251135Z AUTO VRB06KT 14/12 A2968 810 86 1000 VRB/06 RMK AO1 T01440122
54779K12N 12N20160325064009903/25/16 06:40:31  5-MIN K12N 251140Z AUTO 19004KT 14/12 A2968 810 86 1000 200/04 RMK AO1 T01440122
54779K12N 12N20160325064509903/25/16 06:45:31  5-MIN K12N 251145Z AUTO 21005KT 15/12 A2969 800 83 1000 220/05 RMK AO1 T01500122
54779K12N 12N20160325065013003/25/16 06:50:31  5-MIN K12N 251150Z AUTO 21006KT 15/12 A2969 800 83 1000 220/06 RMK AO1 SLP054 60001 70001 T01500122 10150 20094
54779K12N 12N20160325065511503/25/16 06:55:31  5-MIN K12N 251155Z AUTO 20008KT 180V240 15/13 A2969 800 86 1000 220/08 190V250 RMK AO1 T01500128
54779K12N 12N20160325070009903/25/16 07:00:31  5-MIN K12N 251200Z AUTO 20007KT 15/13 A2969 800 86 1000 220/07 RMK AO1 T01500128
54779K12N 12N20160325070509903/25/16 07:05:31  5-MIN K12N 251205Z AUTO VRB04KT 15/13 A2969 800 86 1000 VRB/04 RMK AO1 T01500128
54779K12N 12N20160325071009903/25/16 07:10:31  5-MIN K12N 251210Z AUTO 22005KT 15/13 A2968 800 86 1000 230/05 RMK AO1 T01500128
54779K12N 12N20160325071509903/25/16 07:15:31  5-MIN K12N 251215Z AUTO 21006KT 15/13 A2969 800 86 1000 230/06 RMK AO1 T01500128
54779K12N 12N20160325072009903/25/16 07:20:31  5-MIN K12N 251220Z AUTO 21007KT 15/13 A2969 800 86 1000 220/07 RMK AO1 T01500128
54779K12N 12N20160325072509903/25/16 07:25:31  5-MIN K12N 251225Z AUTO 22008KT 16/13 A2969 800 83 1100 230/08 RMK AO1 T01560128
54779K12N 12N20160325073009903/25/16 07:30:31  5-MIN K12N 251230Z AUTO 20003KT 16/13 A2969 800 83 1100 220/03 RMK AO1 T01560128
54779K12N 12N20160325073509903/25/16 07:35:31  5-MIN K12N 251235Z AUTO VRB06KT 16/13 A2969 800 83 1100 VRB/06 RMK AO1 T01560128
54779K12N 12N20160325074009903/25/16 07:40:31  5-MIN K12N 251240Z AUTO 20007KT 16/13 A2969 800 83 1100 210/07 RMK AO1 T01560128
54779K12N 12N20160325074509903/25/16 07:45:31  5-MIN K12N 251245Z AUTO 21007KT 16/13 A2969 800 83 1100 220/07 RMK AO1 T01560128
54779K12N 12N20160325075010603/25/16 07:50:31  5-MIN K12N 251250Z AUTO 20007KT 16/13 A2969 800 83 1100 210/07 RMK AO1 SLP055 T01560128
54779K12N 12N20160325075508903/25/16 07:55:31  5-MIN K12N 251255Z AUTO 16/13 A2969 800 83 1100 M /M RMK AO1 T01560128
54779K12N 12N20160325080009903/25/16 08:00:31  5-MIN K12N 251300Z AUTO VRB06KT 16/13 A2969 800 83 1100 VRB/06 RMK AO1 T01560128
54779K12N 12N20160325080509903/25/16 08:05:31  5-MIN K12N 251305Z AUTO 21004KT 16/13 A2969 800 83 1100 220/04 RMK AO1 T01560128
54779K12N 12N20160325081009903/25/16 08:10:31  5-MIN K12N 251310Z AUTO VRB04KT 16/13 A2969 800 83 1100 VRB/04 RMK AO1 T01560128
54779K12N 12N20160325081509903/25/16 08:15:31  5-MIN K12N 251315Z AUTO VRB04KT 16/13 A2969 800 83 1100 VRB/04 RMK AO1 T01560128
54779K12N 12N20160325082009903/25/16 08:20:31  5-MIN K12N 251320Z AUTO VRB05KT 16/13 A2969 800 83 1100 VRB/05 RMK AO1 T01560128
54779K12N 12N20160325082509903/25/16 08:25:31  5-MIN K12N 251325Z AUTO VRB04KT 16/13 A2969 800 83 1100 VRB/04 RMK AO1 T01560128
54779K12N 12N20160325083009903/25/16 08:30:31  5-MIN K12N 251330Z AUTO 19005KT 16/13 A2969 800 83 1100 210/05 RMK AO1 T01560128
54779K12N 12N20160325083509903/25/16 08:35:31  5-MIN K12N 251335Z AUTO VRB04KT 16/13 A2969 800 80 1200 VRB/04 RMK AO1 T01610128
54779K12N 12N20160325084009903/25/16 08:40:31  5-MIN K12N 251340Z AUTO VRB05KT 16/13 A2969 800 80 1200 VRB/05 RMK AO1 T01610128
54779K12N 12N20160325084509903/25/16 08:45:31  5-MIN K12N 251345Z AUTO 20005KT 16/13 A2969 800 83 1200 210/05 RMK AO1 T01610133
54779K12N 12N20160325085010603/25/16 08:50:31  5-MIN K12N 251350Z AUTO VRB05KT 17/13 A2969 800 80 1200 VRB/05 RMK AO1 SLP054 T01670133
54779K12N 12N20160325085509903/25/16 08:55:31  5-MIN K12N 251355Z AUTO 20004KT 17/13 A2969 800 80 1200 220/04 RMK AO1 T01670133
54779K12N 12N20160325090009903/25/16 09:00:31  5-MIN K12N 251400Z AUTO VRB04KT 17/13 A2969 800 80 1200 VRB/04 RMK AO1 T01670133
54779K12N 12N20160325090509903/25/16 09:05:31  5-MIN K12N 251405Z AUTO VRB06KT 17/13 A2969 800 78 1300 VRB/06 RMK AO1 T01720133
54779K12N 12N20160325091009903/25/16 09:10:31  5-MIN K12N 251410Z AUTO 21007KT 17/13 A2969 800 78 1300 230/07 RMK AO1 T01720133
54779K12N 12N20160325091509903/25/16 09:15:31  5-MIN K12N 251415Z AUTO 22005KT 17/13 A2969 800 78 1300 230/05 RMK AO1 T01720133
54779K12N 12N20160325092010503/25/16 09:20:31  5-MIN K12N 251420Z AUTO 21007G15KT 18/13 A2969 800 75 1300 220/07G15 RMK AO1 T01780133
54779K12N 12N20160325092510503/25/16 09:25:31  5-MIN K12N 251425Z AUTO 21007G15KT 18/13 A2969 800 75 1300 220/07G15 RMK AO1 T01780133
54779K12N 12N20160325093009903/25/16 09:30:31  5-MIN K12N 251430Z AUTO 22007KT 18/14 A2969 790 78 1300 230/07 RMK AO1 T01780139
54779K12N 12N20160325093509903/25/16 09:35:31  5-MIN K12N 251435Z AUTO 22008KT 18/13 A2970 790 75 1300 230/08 RMK AO1 T01780133
54779K12N 12N20160325094010503/25/16 09:40:31  5-MIN K12N 251440Z AUTO 21005G17KT 18/13 A2970 790 75 1300 220/05G17 RMK AO1 T01780133
54779K12N 12N20160325094510503/25/16 09:45:31  5-MIN K12N 251445Z AUTO 21009G17KT 18/13 A2970 790 75 1300 230/09G17 RMK AO1 T01780133
54779K12N 12N20160325095011203/25/16 09:50:31  5-MIN K12N 251450Z AUTO 22008G14KT 17/14 A2971 780 80 1300 240/08G14 RMK AO1 SLP060 T01720139
54779K12N 12N20160325095512703/25/16 09:55:31  5-MIN K12N 251455Z AUTO 23009G14KT 200V270 17/14 A2971 780 83 1200 240/09G14 210V280 RMK AO1 P0001 T01670139
54779K12N 12N20160325100011803/25/16 10:00:31  5-MIN K12N 251500Z AUTO 23007G14KT 16/14 A2972 770 86 1100 250/07G14 RMK AO1 PRESRR P0001 T01610139
54779K12N 12N20160325100510503/25/16 10:05:31  5-MIN K12N 251505Z AUTO 22005KT 16/14 A2972 780 90 1100 230/05 RMK AO1 P0001 T01560139
54779K12N 12N20160325101010503/25/16 10:10:31  5-MIN K12N 251510Z AUTO VRB04KT 16/14 A2972 770 90 1100 VRB/04 RMK AO1 P0002 T01560139
54779K12N 12N20160325101510503/25/16 10:15:31  5-MIN K12N 251515Z AUTO 21005KT 16/14 A2971 780 90 1100 220/05 RMK AO1 P0002 T01610144
54779K12N 12N20160325102010503/25/16 10:20:31  5-MIN K12N 251520Z AUTO 21007KT 16/14 A2972 780 90 1100 220/07 RMK AO1 P0002 T01610144
54779K12N 12N20160325102510503/25/16 10:25:31  5-MIN K12N 251525Z AUTO 21006KT 16/14 A2971 780 86 1100 230/06 RMK AO1 P0002 T01610139
54779K12N 12N20160325103010503/25/16 10:30:31  5-MIN K12N 251530Z AUTO VRB06KT 16/14 A2972 770 86 1100 VRB/06 RMK AO1 P0002 T01610139
54779K12N 12N20160325103510503/25/16 10:35:31  5-MIN K12N 251535Z AUTO 23007KT 17/14 A2972 770 86 1200 240/07 RMK AO1 P0002 T01670144
54779K12N 12N20160325104012103/25/16 10:40:31  5-MIN K12N 251540Z AUTO 22007KT 190V260 17/14 A2972 770 83 1200 230/07 200V270 RMK AO1 P0002 T01670139
54779K12N 12N20160325104510503/25/16 10:45:31  5-MIN K12N 251545Z AUTO 22006KT 17/14 A2972 770 83 1200 230/06 RMK AO1 P0002 T01670139
54779K12N 12N20160325105011203/25/16 10:50:31  5-MIN K12N 251550Z AUTO VRB04KT 17/14 A2971 780 83 1200 VRB/04 RMK AO1 SLP062 P0002 T01670139
54779K12N 12N20160325105509903/25/16 10:55:31  5-MIN K12N 251555Z AUTO VRB06KT 17/13 A2971 780 80 1200 VRB/06 RMK AO1 T01670133
54779K12N 12N20160325110009903/25/16 11:00:31  5-MIN K12N 251600Z AUTO 22005KT 17/14 A2971 780 80 1300 230/05 RMK AO1 T01720139
54779K12N 12N20160325110509903/25/16 11:05:31  5-MIN K12N 251605Z AUTO 22008KT 17/14 A2972 780 80 1300 230/08 RMK AO1 T01720139
54779K12N 12N20160325111009903/25/16 11:10:31  5-MIN K12N 251610Z AUTO 21008KT 18/14 A2972 780 78 1300 230/08 RMK AO1 T01780139
54779K12N 12N20160325111509903/25/16 11:15:31  5-MIN K12N 251615Z AUTO 22008KT 18/14 A2972 780 75 1400 230/08 RMK AO1 T01830139
54779K12N 12N20160325112009903/25/16 11:20:31  5-MIN K12N 251620Z AUTO 23006KT 18/13 A2971 780 75 1300 240/06 RMK AO1 T01780133
54779K12N 12N20160325112509903/25/16 11:25:31  5-MIN K12N 251625Z AUTO 23008KT 18/13 A2972 780 75 1300 240/08 RMK AO1 T01780133
54779K12N 12N20160325113009903/25/16 11:30:31  5-MIN K12N 251630Z AUTO 24009KT 18/13 A2971 780 72 1400 250/09 RMK AO1 T01830133
54779K12N 12N20160325113510503/25/16 11:35:31  5-MIN K12N 251635Z AUTO VRB06G16KT 19/13 A2971 780 67 1500 VRB/06G16 RMK AO1 T01890128
54779K12N 12N20160325114010503/25/16 11:40:31  5-MIN K12N 251640Z AUTO VRB04G16KT 19/13 A2972 770 67 1500 VRB/04G16 RMK AO1 T01940133
54779K12N 12N20160325114511503/25/16 11:45:31  5-MIN K12N 251645Z AUTO 22010KT 180V250 19/13 A2972 780 65 1500 230/10 190V260 RMK AO1 T01940128
54779K12N 12N20160325115012203/25/16 11:50:31  5-MIN K12N 251650Z AUTO 24007KT 200V260 19/12 A2972 780 65 1500 250/07 210V270 RMK AO1 SLP061 T01890122
54779K12N 12N20160325115509903/25/16 11:55:31  5-MIN K12N 251655Z AUTO VRB06KT 19/12 A2972 770 62 1500 VRB/06 RMK AO1 T01940122
54779K12N 12N20160325120009903/25/16 12:00:31  5-MIN K12N 251700Z AUTO VRB05KT 19/12 A2972 770 65 1400 VRB/05 RMK AO1 T01890122
54779K12N 12N20160325120510503/25/16 12:05:31  5-MIN K12N 251705Z AUTO 22011G16KT 19/12 A2972 770 62 1500 230/11G16 RMK AO1 T01940122
54779K12N 12N20160325121010503/25/16 12:10:31  5-MIN K12N 251710Z AUTO 22007G16KT 20/12 A2972 770 58 1600 230/07G16 RMK AO1 T02000117
54779K12N 12N20160325121512103/25/16 12:15:31  5-MIN K12N 251715Z AUTO 23010G24KT 190V270 19/11 A2972 770 58 1500 240/10G24 200V280 RMK AO1 T01940111
54779K12N 12N20160325122010503/25/16 12:20:31  5-MIN K12N 251720Z AUTO 23005G24KT 19/12 A2972 770 62 1400 240/05G24 RMK AO1 T01890117
54779K12N 12N20160325122509903/25/16 12:25:31  5-MIN K12N 251725Z AUTO VRB05KT 19/12 A2972 770 62 1400 VRB/05 RMK AO1 T01890117
54779K12N 12N20160325123012103/25/16 12:30:31  5-MIN K12N 251730Z AUTO 25009G16KT 220V290 19/11 A2972 770 60 1400 260/09G16 230V300 RMK AO1 T01890111
54779K12N 12N20160325123510503/25/16 12:35:31  5-MIN K12N 251735Z AUTO 22013G20KT 19/11 A2972 770 60 1400 240/13G20 RMK AO1 T01890111
54779K12N 12N20160325124010503/25/16 12:40:31  5-MIN K12N 251740Z AUTO VRB05G20KT 19/11 A2972 770 56 1500 VRB/05G20 RMK AO1 T01940106
54779K12N 12N20160325124508903/25/16 12:45:31  5-MIN K12N 251745Z AUTO 19/11 A2972 770 56 1500 M /M RMK AO1 T01940106
54779K12N 12N20160325125015203/25/16 12:50:31  5-MIN K12N 251750Z AUTO 23007G16KT 180V270 19/10 A2972 770 56 1400 240/07G16 190V280 RMK AO1 SLP064 60002 T01890100 10200 20150 53008
54779K12N 12N20160325125510503/25/16 12:55:31  5-MIN K12N 251755Z AUTO 22006G16KT 19/09 A2973 770 54 1400 240/06G16 RMK AO1 T01890094
54779K12N 12N20160325130010503/25/16 13:00:31  5-MIN K12N 251800Z AUTO VRB04G15KT 19/09 A2972 770 52 1500 VRB/04G15 RMK AO1 T01940094
54779K12N 12N20160325130511503/25/16 13:05:31  5-MIN K12N 251805Z AUTO 27008KT 210V300 19/09 A2972 770 50 1500 280/08 220V310 RMK AO1 T01940089
54779K12N 12N20160325131009903/25/16 13:10:31  5-MIN K12N 251810Z AUTO VRB05KT 19/08 A2972 770 48 1500 VRB/05 RMK AO1 T01940083
54779K12N 12N20160325131511503/25/16 13:15:31  5-MIN K12N 251815Z AUTO 24008KT 190V030 19/09 A2972 770 50 1500 260/08 200V040 RMK AO1 T01940089
54779K12N 12N20160325132010503/25/16 13:20:31  5-MIN K12N 251820Z AUTO VRB05G15KT 19/08 A2972 770 50 1400 VRB/05G15 RMK AO1 T01890083
54779K12N 12N20160325132512103/25/16 13:25:31  5-MIN K12N 251825Z AUTO 23009G15KT 190V290 19/08 A2972 770 50 1400 240/09G15 200V300 RMK AO1 T01890083
54779K12N 12N20160325133010503/25/16 13:30:31  5-MIN K12N 251830Z AUTO 23008G14KT 19/08 A2972 770 50 1400 240/08G14 RMK AO1 T01890083
54779K12N 12N20160325133509903/25/16 13:35:31  5-MIN K12N 251835Z AUTO VRB04KT 19/08 A2972 770 50 1400 VRB/04 RMK AO1 T01890083
54779K12N 12N20160325134011503/25/16 13:40:31  5-MIN K12N 251840Z AUTO 23008KT 210V280 19/08 A2972 770 50 1400 250/08 220V290 RMK AO1 T01890083
54779K12N 12N20160325134511503/25/16 13:45:31  5-MIN K12N 251845Z AUTO 24008KT 190V280 19/08 A2972 770 50 1400 250/08 200V290 RMK AO1 T01890083
54779K12N 12N20160325135010603/25/16 13:50:31  5-MIN K12N 251850Z AUTO VRB04KT 19/08 A2972 770 50 1400 VRB/04 RMK AO1 SLP064 T01890083
54779K12N 12N20160325135508903/25/16 13:55:31  5-MIN K12N 251855Z AUTO 19/08 A2972 770 50 1400 M /M RMK AO1 T01890083
54779K12N 12N20160325140009903/25/16 14:00:31  5-MIN K12N 251900Z AUTO VRB05KT 19/08 A2972 770 50 1400 VRB/05 RMK AO1 T01890083
54779K12N 12N20160325140509903/25/16 14:05:31  5-MIN K12N 251905Z AUTO VRB03KT 19/08 A2973 770 48 1500 VRB/03 RMK AO1 T01940083
54779K12N 12N20160325141009903/25/16 14:10:31  5-MIN K12N 251910Z AUTO 24008KT 19/08 A2973 760 48 1500 260/08 RMK AO1 T01940083
54779K12N 12N20160325141509903/25/16 14:15:31  5-MIN K12N 251915Z AUTO VRB03KT 19/08 A2973 770 48 1500 VRB/03 RMK AO1 T01940083
54779K12N 12N20160325142011503/25/16 14:20:31  5-MIN K12N 251920Z AUTO 31007KT 260V340 19/08 A2973 760 46 1500 320/07 270V350 RMK AO1 T01940078
54779K12N 12N20160325142509903/25/16 14:25:31  5-MIN K12N 251925Z AUTO VRB04KT 20/08 A2973 770 45 1600 VRB/04 RMK AO1 T02000078
54779K12N 12N20160325143008903/25/16 14:30:31  5-MIN K12N 251930Z AUTO 20/08 A2973 770 45 1600 M /M RMK AO1 T02000078
54779K12N 12N20160325143509903/25/16 14:35:31  5-MIN K12N 251935Z AUTO VRB06KT 21/08 A2973 770 42 1700 VRB/06 RMK AO1 T02110078
54779K12N 12N20160325144009903/25/16 14:40:31  5-MIN K12N 251940Z AUTO VRB06KT 21/07 A2972 770 40 1700 VRB/06 RMK AO1 T02110072
54779K12N 12N20160325144511503/25/16 14:45:31  5-MIN K12N 251945Z AUTO 28008KT 230V340 21/07 A2973 770 38 1700 290/08 240V350 RMK AO1 T02110067
54779K12N 12N20160325145012803/25/16 14:50:31  5-MIN K12N 251950Z AUTO 34011G17KT 280V360 21/06 A2973 760 37 1700 350/11G17 290V010 RMK AO1 SLP063 T02110061
54779K12N 12N20160325145512103/25/16 14:55:31  5-MIN K12N 251955Z AUTO 31011G20KT 280V350 20/06 A2973 760 38 1600 330/11G20 290V360 RMK AO1 T02000056
54779K12N 12N20160325150010503/25/16 15:00:31  5-MIN K12N 252000Z AUTO VRB06G20KT 19/06 A2974 760 40 1500 VRB/06G20 RMK AO1 T01940056
54779K12N 12N20160325150509903/25/16 15:05:31  5-MIN K12N 252005Z AUTO VRB06KT 21/06 A2974 760 37 1600 VRB/06 RMK AO1 T02060056
54779K12N 12N20160325151011503/25/16 15:10:31  5-MIN K12N 252010Z AUTO 28008KT 220V300 20/06 A2974 750 38 1600 290/08 230V310 RMK AO1 T02000056
54779K12N 12N20160325151509903/25/16 15:15:31  5-MIN K12N 252015Z AUTO 22006KT 21/05 A2974 750 35 1600 240/06 RMK AO1 T02060050
54779K12N 12N20160325152012103/25/16 15:20:31  5-MIN K12N 252020Z AUTO 23009G18KT 200V270 20/05 A2974 750 37 1500 240/09G18 210V280 RMK AO1 T02000050
54779K12N 12N20160325152512103/25/16 15:25:31  5-MIN K12N 252025Z AUTO 34008G18KT 290V020 20/04 A2974 750 35 1500 350/08G18 300V030 RMK AO1 T02000044
54779K12N 12N20160325153012103/25/16 15:30:31  5-MIN K12N 252030Z AUTO 31010G17KT 260V340 20/04 A2975 750 35 1500 320/10G17 270V350 RMK AO1 T02000044
54779K12N 12N20160325153510503/25/16 15:35:31  5-MIN K12N 252035Z AUTO 33010G18KT 20/04 A2975 740 35 1500 340/10G18 RMK AO1 T02000044
54779K12N 12N20160325154012103/25/16 15:40:31  5-MIN K12N 252040Z AUTO 33007G18KT 250V020 20/04 A2975 740 35 1500 340/07G18 260V030 RMK AO1 T02000044
54779K12N 12N20160325154510503/25/16 15:45:31  5-MIN K12N 252045Z AUTO VRB06G18KT 19/04 A2976 740 37 1500 VRB/06G18 RMK AO1 T01940044
54779K12N 12N20160325155013403/25/16 15:50:31  5-MIN K12N 252050Z AUTO 30010G18KT 260V330 19/04 A2976 730 38 1400 310/10G18 270V340 RMK AO1 SLP076 T01890044 53005
54779K12N 12N20160325155510503/25/16 15:55:31  5-MIN K12N 252055Z AUTO 34007G16KT 18/04 A2976 730 38 1300 350/07G16 RMK AO1 T01830039
54779K12N 12N20160325160012103/25/16 16:00:31  5-MIN K12N 252100Z AUTO 33008G17KT 250V010 19/04 A2977 720 38 1400 350/08G17 260V020 RMK AO1 T01890044
54779K12N 12N20160325160510503/25/16 16:05:31  5-MIN K12N 252105Z AUTO 35008G17KT 19/04 A2977 720 36 1400 360/08G17 RMK AO1 T01890039
54779K12N 12N20160325161010503/25/16 16:10:31  5-MIN K12N 252110Z AUTO VRB05G18KT 19/04 A2978 720 36 1400 VRB/05G18 RMK AO1 T01890039
54779K12N 12N20160325161512103/25/16 16:15:31  5-MIN K12N 252115Z AUTO 29008G18KT 260V330 19/04 A2978 720 36 1400 300/08G18 270V340 RMK AO1 T01890039
54779K12N 12N20160325162009903/25/16 16:20:31  5-MIN K12N 252120Z AUTO 31006KT 18/04 A2978 720 38 1300 330/06 RMK AO1 T01830039
54779K12N 12N20160325162512103/25/16 16:25:31  5-MIN K12N 252125Z AUTO 30008G19KT 270V330 18/03 A2979 710 38 1200 310/08G19 280V340 RMK AO1 T01780033
54779K12N 12N20160325163012103/25/16 16:30:31  5-MIN K12N 252130Z AUTO 30008G19KT 250V350 18/03 A2979 710 38 1200 320/08G19 260V360 RMK AO1 T01780033
54779K12N 12N20160325163510503/25/16 16:35:31  5-MIN K12N 252135Z AUTO VRB05G16KT 18/03 A2979 700 38 1200 VRB/05G16 RMK AO1 T01780033
54779K12N 12N20160325164008903/25/16 16:40:31  5-MIN K12N 252140Z AUTO 18/03 A2980 700 38 1200 M /M RMK AO1 T01780033
54779K12N 12N20160325164510603/25/16 16:45:31  5-MIN K12N 252145Z AUTO VRB06KT 18/03 A2981 690 38 1200 VRB/06 RMK AO1 PRESRR T01780033
54779K12N 12N20160325165012203/25/16 16:50:31  5-MIN K12N 252150Z AUTO 26008KT 190V290 18/03 A2981 690 38 1200 270/08 200V300 RMK AO1 SLP094 T01780033
54779K12N 12N20160325165511503/25/16 16:55:31  5-MIN K12N 252155Z AUTO 22007KT 190V250 17/03 A2981 680 39 1100 240/07 200V260 RMK AO1 T01720033
54779K12N 12N20160325170009903/25/16 17:00:31  5-MIN K12N 252200Z AUTO 26006KT 17/03 A2982 680 39 1100 280/06 RMK AO1 T01720033
54779K12N 12N20160325170511503/25/16 17:05:31  5-MIN K12N 252205Z AUTO 24007KT 210V280 17/03 A2982 680 37 1100 250/07 220V290 RMK AO1 T01720028
54779K12N 12N20160325171009903/25/16 17:10:31  5-MIN K12N 252210Z AUTO VRB06KT 17/03 A2982 670 37 1100 VRB/06 RMK AO1 T01720028
54779K12N 12N20160325171509903/25/16 17:15:31  5-MIN K12N 252215Z AUTO VRB06KT 17/03 A2983 670 37 1100 VRB/06 RMK AO1 T01720028
54779K12N 12N20160326141009903/26/16 14:10:31  5-MIN K12N 261910Z AUTO 00000KT 13/M01 A3025 280 36 200 000/00 RMK AO1 T01331011
54779K12N 12N20160326141509903/26/16 14:15:31  5-MIN K12N 261915Z AUTO VRB04KT 13/M02 A3025 280 35 200 VRB/04 RMK AO1 T01331017
54779K12N 12N20160326142008903/26/16 14:20:31  5-MIN K12N 261920Z AUTO 13/M02 A3025 280 35 200 M /M RMK AO1 T01331017
54779K12N 12N20160326142509903/26/16 14:25:31  5-MIN K12N 261925Z AUTO 00000KT 13/M02 A3025 280 36 100 000/00 RMK AO1 T01281017
54779K12N 12N20160326143009903/26/16 14:30:31  5-MIN K12N 261930Z AUTO VRB05KT 13/M02 A3025 280 35 200 VRB/05 RMK AO1 T01331017
54779K12N 12N20160326143509903/26/16 14:35:31  5-MIN K12N 261935Z AUTO VRB04KT 13/M02 A3025 280 36 100 VRB/04 RMK AO1 T01281017
54779K12N 12N20160326144009903/26/16 14:40:31  5-MIN K12N 261940Z AUTO 19004KT 13/M02 A3025 280 35 200 200/04 RMK AO1 T01331017
54779K12N 12N20160326144509903/26/16 14:45:31  5-MIN K12N 261945Z AUTO 20006KT 13/M02 A3026 280 35 100 210/06 RMK AO1 T01281022
54779K12N 12N20160326145010603/26/16 14:50:31  5-MIN K12N 261950Z AUTO VRB04KT 13/M02 A3026 270 35 100 VRB/04 RMK AO1 SLP251 T01281022
54779K12N 12N20160326145509903/26/16 14:55:31  5-MIN K12N 261955Z AUTO VRB05KT 13/M03 A3026 270 33 100 VRB/05 RMK AO1 T01281028
54779K12N 12N20160326150009903/26/16 15:00:31  5-MIN K12N 262000Z AUTO 16003KT 13/M03 A3026 270 33 100 170/03 RMK AO1 T01281028
54779K12N 12N20160326150508903/26/16 15:05:31  5-MIN K12N 262005Z AUTO 13/M02 A3026 270 34 200 M /M RMK AO1 T01331022
54779K12N 12N20160326151009903/26/16 15:10:31  5-MIN K12N 262010Z AUTO 22007KT 13/M02 A3026 270 34 200 230/07 RMK AO1 T01331022
54779K12N 12N20160326151509903/26/16 15:15:31  5-MIN K12N 262015Z AUTO VRB05KT 13/M02 A3026 270 34 200 VRB/05 RMK AO1 T01331022
54779K12N 12N20160326152009903/26/16 15:20:31  5-MIN K12N 262020Z AUTO VRB03KT 13/M02 A3026 270 34 200 VRB/03 RMK AO1 T01331022
54779K12N 12N20160326152509903/26/16 15:25:31  5-MIN K12N 262025Z AUTO VRB04KT 13/M02 A3026 270 34 200 VRB/04 RMK AO1 T01331022
54779K12N 12N20160326153008903/26/16 15:30:31  5-MIN K12N 262030Z AUTO 13/M02 A3026 270 34 200 M /M RMK AO1 T01331022
54779K12N 12N20160326153509903/26/16 15:35:31  5-MIN K12N 262035Z AUTO 14007KT 13/M02 A3026 280 35 100 160/07 RMK AO1 T01281022
54779K12N 12N20160326154009903/26/16 15:40:31  5-MIN K12N 262040Z AUTO VRB03KT 13/M02 A3026 280 35 100 VRB/03 RMK AO1 T01281022
54779K12N 12N20160326154509903/26/16 15:45:31  5-MIN K12N 262045Z AUTO VRB06KT 13/M02 A3026 270 35 200 VRB/06 RMK AO1 T01331017
54779K12N 12N20160326155011203/26/16 15:50:31  5-MIN K12N 262050Z AUTO VRB06KT 13/M02 A3026 270 35 100 VRB/06 RMK AO1 SLP251 T01281022 58018
54779K12N 12N20160326155509903/26/16 15:55:31  5-MIN K12N 262055Z AUTO 16005KT 13/M02 A3026 270 35 200 180/05 RMK AO1 T01331017
54779K12N 12N20160326160009903/26/16 16:00:31  5-MIN K12N 262100Z AUTO 16004KT 13/M02 A3026 270 35 100 170/04 RMK AO1 T01281022
54779K12N 12N20160326160509903/26/16 16:05:31  5-MIN K12N 262105Z AUTO VRB06KT 13/M02 A3027 270 35 200 VRB/06 RMK AO1 T01331017
54779K12N 12N20160326161009903/26/16 16:10:31  5-MIN K12N 262110Z AUTO 22005KT 13/M02 A3027 260 35 200 230/05 RMK AO1 T01331017
54779K12N 12N20160326161509903/26/16 16:15:31  5-MIN K12N 262115Z AUTO 16004KT 13/M02 A3027 260 35 200 170/04 RMK AO1 T01331017
54779K12N 12N20160326162009903/26/16 16:20:31  5-MIN K12N 262120Z AUTO 00000KT 13/M02 A3027 260 36 100 000/00 RMK AO1 T01281017
54779K12N 12N20160326162509903/26/16 16:25:31  5-MIN K12N 262125Z AUTO 00000KT 13/M02 A3027 260 35 200 000/00 RMK AO1 T01331017
54779K12N 12N20160326163009903/26/16 16:30:31  5-MIN K12N 262130Z AUTO 18003KT 13/M01 A3028 260 36 200 190/03 RMK AO1 T01331011
54779K12N 12N20160326163509903/26/16 16:35:31  5-MIN K12N 262135Z AUTO VRB04KT 13/M01 A3028 260 36 200 VRB/04 RMK AO1 T01331011
54779K12N 12N20160326164009903/26/16 16:40:31  5-MIN K12N 262140Z AUTO 12006KT 13/M02 A3028 250 36 100 130/06 RMK AO1 T01281017
54779K12N 12N20160326164509903/26/16 16:45:31  5-MIN K12N 262145Z AUTO VRB04KT 13/M01 A3028 250 38 100 VRB/04 RMK AO1 T01281011
54779K12N 12N20160326165010603/26/16 16:50:31  5-MIN K12N 262150Z AUTO 19006KT 13/M02 A3029 250 36 100 200/06 RMK AO1 SLP261 T01281017
54779K12N 12N20160326165509903/26/16 16:55:31  5-MIN K12N 262155Z AUTO VRB05KT 13/M01 A3029 250 38 100 VRB/05 RMK AO1 T01281011
54779K12N 12N20160326170009903/26/16 17:00:31  5-MIN K12N 262200Z AUTO VRB05KT 13/M01 A3029 250 38 100 VRB/05 RMK AO1 T01281011
54779K12N 12N20160326170509903/26/16 17:05:31  5-MIN K12N 262205Z AUTO VRB04KT 13/M02 A3029 250 36 100 VRB/04 RMK AO1 T01281017
54779K12N 12N20160326171009903/26/16 17:10:31  5-MIN K12N 262210Z AUTO VRB03KT 13/M01 A3029 250 38 100 VRB/03 RMK AO1 T01281011
54779K12N 12N20160326171508703/26/16 17:15:31  5-MIN K12N 262215Z AUTO 12/M01 A3029 250 39 0 M /M RMK AO1 T01221011
54779K12N 12N20160326172009703/26/16 17:20:31  5-MIN K12N 262220Z AUTO VRB03KT 12/M01 A3029 250 41 0 VRB/03 RMK AO1 T01221006
54779K12N 12N20160326172509603/26/16 17:25:31  5-MIN K12N 262225Z AUTO VRB06KT 12/00 A3028 250 43 0 VRB/06 RMK AO1 T01220000
54779K12N 12N20160326173011303/26/16 17:30:31  5-MIN K12N 262230Z AUTO 17007KT 130V240 12/M01 A3028 250 42 0 180/07 140V250 RMK AO1 T01171006
54779K12N 12N20160326173509603/26/16 17:35:31  5-MIN K12N 262235Z AUTO VRB06KT 12/00 A3028 250 44 0 VRB/06 RMK AO1 T01170000
54779K12N 12N20160326174009903/26/16 17:40:31  5-MIN K12N 262240Z AUTO VRB04KT 11/00 A3028 250 46 -100 VRB/04 RMK AO1 T01110000
54779K12N 12N20160326174509903/26/16 17:45:31  5-MIN K12N 262245Z AUTO 16007KT 11/00 A3029 250 46 -100 180/07 RMK AO1 T01110000
54779K12N 12N20160326175010603/26/16 17:50:31  5-MIN K12N 262250Z AUTO 16005KT 11/00 A3029 250 46 -100 180/05 RMK AO1 SLP263 T01110000
54779K12N 12N20160326175509903/26/16 17:55:31  5-MIN K12N 262255Z AUTO VRB03KT 11/00 A3029 250 48 -100 VRB/03 RMK AO1 T01060000
54779K12N 12N20160326180009903/26/16 18:00:31  5-MIN K12N 262300Z AUTO VRB05KT 11/00 A3028 250 48 -100 VRB/05 RMK AO1 T01060000
54779K12N 12N20160326180509903/26/16 18:05:31  5-MIN K12N 262305Z AUTO VRB06KT 10/00 A3029 250 49 -200 VRB/06 RMK AO1 T01000000
54779K12N 12N20160326181009903/26/16 18:10:31  5-MIN K12N 262310Z AUTO VRB05KT 10/01 A3029 250 52 -200 VRB/05 RMK AO1 T01000006
54779K12N 12N20160326181509903/26/16 18:15:31  5-MIN K12N 262315Z AUTO 17006KT 09/01 A3029 250 53 -300 180/06 RMK AO1 T00940006
54779K12N 12N20160326182009903/26/16 18:20:31  5-MIN K12N 262320Z AUTO VRB05KT 09/01 A3029 240 53 -300 VRB/05 RMK AO1 T00940006
54779K12N 12N20160326182509903/26/16 18:25:31  5-MIN K12N 262325Z AUTO VRB04KT 09/01 A3029 240 56 -300 VRB/04 RMK AO1 T00890006
54779K12N 12N20160326183009903/26/16 18:30:31  5-MIN K12N 262330Z AUTO VRB03KT 09/01 A3029 240 56 -300 VRB/03 RMK AO1 T00890006
54779K12N 12N20160326183509903/26/16 18:35:31  5-MIN K12N 262335Z AUTO VRB03KT 08/01 A3030 240 60 -400 VRB/03 RMK AO1 T00830011
54779K12N 12N20160326184009903/26/16 18:40:31  5-MIN K12N 262340Z AUTO VRB05KT 08/01 A3030 240 60 -400 VRB/05 RMK AO1 T00830011
54779K12N 12N20160326184509903/26/16 18:45:31  5-MIN K12N 262345Z AUTO 16007KT 08/01 A3030 240 60 -400 170/07 RMK AO1 T00830011
54779K12N 12N20160326185012403/26/16 18:50:31  5-MIN K12N 262350Z AUTO VRB05KT 08/01 A3030 240 62 -500 VRB/05 RMK AO1 SLP267 T00780011 10133 20078 55001
54779K12N 12N20160326185509903/26/16 18:55:31  5-MIN K12N 262355Z AUTO VRB04KT 08/01 A3030 240 62 -500 VRB/04 RMK AO1 T00780011
54779K12N 12N20160326190009903/26/16 19:00:31  5-MIN K12N 270000Z AUTO VRB05KT 08/01 A3030 230 62 -500 VRB/05 RMK AO1 T00780011
54779K12N 12N20160326190509903/26/16 19:05:31  5-MIN K12N 270005Z AUTO VRB04KT 07/01 A3031 230 65 -600 VRB/04 RMK AO1 T00720011
54779K12N 12N20160326191009903/26/16 19:10:31  5-MIN K12N 270010Z AUTO VRB06KT 07/02 A3031 230 68 -600 VRB/06 RMK AO1 T00720017
54779K12N 12N20160326191509903/26/16 19:15:31  5-MIN K12N 270015Z AUTO VRB05KT 07/02 A3032 220 68 -600 VRB/05 RMK AO1 T00720017
54779K12N 12N20160326192009903/26/16 19:20:31  5-MIN K12N 270020Z AUTO VRB03KT 07/02 A3032 220 70 -600 VRB/03 RMK AO1 T00670017
54779K12N 12N20160326192510603/26/16 19:25:31  5-MIN K12N 270025Z AUTO VRB06KT 07/02 A3033 210 70 -700 VRB/06 RMK AO1 PRESRR T00670017
54779K12N 12N20160326193010603/26/16 19:30:31  5-MIN K12N 270030Z AUTO VRB06KT 07/02 A3034 200 70 -700 VRB/06 RMK AO1 PRESRR T00670017
54779K12N 12N20160326193509903/26/16 19:35:31  5-MIN K12N 270035Z AUTO 00000KT 07/01 A3034 200 67 -700 000/00 RMK AO1 T00670011
54779K12N 12N20160326194009903/26/16 19:40:31  5-MIN K12N 270040Z AUTO VRB06KT 06/01 A3034 200 70 -700 VRB/06 RMK AO1 T00610011
54779K12N 12N20160326194509903/26/16 19:45:31  5-MIN K12N 270045Z AUTO VRB04KT 06/01 A3034 190 70 -700 VRB/04 RMK AO1 T00610011
54779K12N 12N20160326195010603/26/16 19:50:31  5-MIN K12N 270050Z AUTO VRB03KT 06/01 A3034 190 70 -700 VRB/03 RMK AO1 SLP283 T00610011
54779K12N 12N20160326195509903/26/16 19:55:31  5-MIN K12N 270055Z AUTO VRB04KT 06/01 A3035 190 70 -700 VRB/04 RMK AO1 T00610011
54779K12N 12N20160326200009903/26/16 20:00:31  5-MIN K12N 270100Z AUTO VRB03KT 06/01 A3035 190 73 -800 VRB/03 RMK AO1 T00560011
54779K12N 12N20160326200509903/26/16 20:05:31  5-MIN K12N 270105Z AUTO VRB04KT 06/02 A3035 190 76 -800 VRB/04 RMK AO1 T00560017
54779K12N 12N20160326201009903/26/16 20:10:31  5-MIN K12N 270110Z AUTO VRB05KT 06/01 A3035 190 73 -800 VRB/05 RMK AO1 T00560011
54779K12N 12N20160326201511503/26/16 20:15:31  5-MIN K12N 270115Z AUTO 17008KT 140V220 06/02 A3035 190 76 -800 180/08 150V230 RMK AO1 T00560017
54779K12N 12N20160326202009903/26/16 20:20:31  5-MIN K12N 270120Z AUTO VRB05KT 06/01 A3035 190 73 -800 VRB/05 RMK AO1 T00560011
54779K12N 12N20160326202509903/26/16 20:25:31  5-MIN K12N 270125Z AUTO 19006KT 06/01 A3035 190 73 -800 210/06 RMK AO1 T00560011
54779K12N 12N20160326203009903/26/16 20:30:31  5-MIN K12N 270130Z AUTO VRB06KT 05/01 A3036 180 76 -900 VRB/06 RMK AO1 T00500011
54779K12N 12N20160326203509903/26/16 20:35:31  5-MIN K12N 270135Z AUTO VRB04KT 05/02 A3036 180 79 -900 VRB/04 RMK AO1 T00500017
54779K12N 12N20160326204008903/26/16 20:40:31  5-MIN K12N 270140Z AUTO 05/02 A3036 180 79 -900 M /M RMK AO1 T00500017
54779K12N 12N20160326204509903/26/16 20:45:31  5-MIN K12N 270145Z AUTO VRB03KT 05/02 A3036 180 79 -900 VRB/03 RMK AO1 T00500017
54779K12N 12N20160326205010603/26/16 20:50:31  5-MIN K12N 270150Z AUTO VRB03KT 05/02 A3036 180 79 -900 VRB/03 RMK AO1 SLP288 T00500017
54779K12N 12N20160326205510003/26/16 20:55:31  5-MIN K12N 270155Z AUTO VRB03KT 04/02 A3036 180 82 -1000 VRB/03 RMK AO1 T00440017
54779K12N 12N20160326210010003/26/16 21:00:31  5-MIN K12N 270200Z AUTO 00000KT 04/01 A3036 180 79 -1000 000/00 RMK AO1 T00440011
54779K12N 12N20160326210510003/26/16 21:05:31  5-MIN K12N 270205Z AUTO 00000KT 04/01 A3037 170 79 -1000 000/00 RMK AO1 T00440011
54779K12N 12N20160326211010003/26/16 21:10:31  5-MIN K12N 270210Z AUTO 00000KT 04/01 A3037 170 82 -1000 000/00 RMK AO1 T00390011
54779K12N 12N20160326211510003/26/16 21:15:31  5-MIN K12N 270215Z AUTO 24003KT 04/01 A3037 170 82 -1000 250/03 RMK AO1 T00390011
54779K12N 12N20160326212010003/26/16 21:20:31  5-MIN K12N 270220Z AUTO 00000KT 04/01 A3037 170 82 -1000 000/00 RMK AO1 T00390011
54779K12N 12N20160326212510003/26/16 21:25:31  5-MIN K12N 270225Z AUTO 00000KT 04/01 A3037 170 82 -1000 000/00 RMK AO1 T00390011
54779K12N 12N20160326213010003/26/16 21:30:31  5-MIN K12N 270230Z AUTO 20003KT 04/01 A3038 170 79 -1000 210/03 RMK AO1 T00440011
54779K12N 12N20160326213510003/26/16 21:35:31  5-MIN K12N 270235Z AUTO 00000KT 04/02 A3038 170 82 -1000 000/00 RMK AO1 T00440017
54779K12N 12N20160326214010003/26/16 21:40:31  5-MIN K12N 270240Z AUTO 20003KT 04/02 A3038 170 82 -1000 210/03 RMK AO1 T00440017
54779K12N 12N20160326214510003/26/16 21:45:31  5-MIN K12N 270245Z AUTO VRB03KT 04/02 A3038 170 82 -1000 VRB/03 RMK AO1 T00440017
54779K12N 12N20160326215011303/26/16 21:50:31  5-MIN K12N 270250Z AUTO 19003KT 04/02 A3037 170 82 -1000 210/03 RMK AO1 SLP292 T00440017 51013
54779K12N 12N20160326215510003/26/16 21:55:31  5-MIN K12N 270255Z AUTO 00000KT 04/02 A3037 170 82 -1000 000/00 RMK AO1 T00440017
54779K12N 12N20160326220010003/26/16 22:00:31  5-MIN K12N 270300Z AUTO 00000KT 04/02 A3037 170 82 -1000 000/00 RMK AO1 T00440017
54779K12N 12N20160326220510003/26/16 22:05:31  5-MIN K12N 270305Z AUTO 00000KT 04/02 A3037 170 82 -1000 000/00 RMK AO1 T00440017
54779K12N 12N20160326221010003/26/16 22:10:31  5-MIN K12N 270310Z AUTO 19005KT 04/02 A3037 170 82 -1000 200/05 RMK AO1 T00440017
54779K12N 12N20160326221510003/26/16 22:15:31  5-MIN K12N 270315Z AUTO VRB04KT 04/02 A3037 170 82 -1000 VRB/04 RMK AO1 T00440017
54779K12N 12N20160326222009903/26/16 22:20:31  5-MIN K12N 270320Z AUTO VRB03KT 05/02 A3037 170 79 -900 VRB/03 RMK AO1 T00500017
54779K12N 12N20160326222510003/26/16 22:25:31  5-MIN K12N 270325Z AUTO 18003KT 04/02 A3037 170 82 -1000 190/03 RMK AO1 T00440017
54779K12N 12N20160326223009903/26/16 22:30:31  5-MIN K12N 270330Z AUTO VRB04KT 05/02 A3037 170 79 -900 VRB/04 RMK AO1 T00500017
54779K12N 12N20160326223510003/26/16 22:35:31  5-MIN K12N 270335Z AUTO VRB05KT 04/02 A3037 170 82 -1000 VRB/05 RMK AO1 T00440017
54779K12N 12N20160326224010003/26/16 22:40:31  5-MIN K12N 270340Z AUTO VRB05KT 04/02 A3037 170 82 -1000 VRB/05 RMK AO1 T00440017
54779K12N 12N20160326224510003/26/16 22:45:31  5-MIN K12N 270345Z AUTO 21003KT 04/02 A3037 180 82 -1000 220/03 RMK AO1 T00440017
54779K12N 12N20160326225010603/26/16 22:50:31  5-MIN K12N 270350Z AUTO 19004KT 05/02 A3036 180 79 -900 200/04 RMK AO1 SLP288 T00500017
54779K12N 12N20160326225510003/26/16 22:55:31  5-MIN K12N 270355Z AUTO VRB03KT 04/02 A3037 180 82 -1000 VRB/03 RMK AO1 T00440017
54779K12N 12N20160326230009903/26/16 23:00:31  5-MIN K12N 270400Z AUTO 16003KT 05/02 A3037 180 79 -900 170/03 RMK AO1 T00500017
54779K12N 12N20160326230509903/26/16 23:05:31  5-MIN K12N 270405Z AUTO VRB03KT 05/02 A3036 180 79 -900 VRB/03 RMK AO1 T00500017
54779K12N 12N20160326231009903/26/16 23:10:31  5-MIN K12N 270410Z AUTO 20004KT 05/02 A3037 180 79 -900 210/04 RMK AO1 T00500017
54779K12N 12N20160326231510003/26/16 23:15:31  5-MIN K12N 270415Z AUTO 18004KT 04/02 A3037 170 82 -1000 200/04 RMK AO1 T00440017
54779K12N 12N20160326232010003/26/16 23:20:31  5-MIN K12N 270420Z AUTO VRB03KT 04/02 A3037 170 82 -1000 VRB/03 RMK AO1 T00440017
54779K12N 12N20160326232509903/26/16 23:25:31  5-MIN K12N 270425Z AUTO VRB04KT 05/02 A3037 170 79 -900 VRB/04 RMK AO1 T00500017
54779K12N 12N20160326233009903/26/16 23:30:31  5-MIN K12N 270430Z AUTO 16006KT 05/02 A3037 170 79 -900 170/06 RMK AO1 T00500017
54779K12N 12N20160326233509903/26/16 23:35:31  5-MIN K12N 270435Z AUTO 00000KT 05/02 A3037 180 79 -900 000/00 RMK AO1 T00500017
54779K12N 12N20160326234009903/26/16 23:40:31  5-MIN K12N 270440Z AUTO 00000KT 05/02 A3037 180 79 -900 000/00 RMK AO1 T00500017
54779K12N 12N20160326234509903/26/16 23:45:31  5-MIN K12N 270445Z AUTO 00000KT 05/02 A3037 170 79 -900 000/00 RMK AO1 T00500017
54779K12N 12N20160326235011603/26/16 23:50:31  5-MIN K12N 270450Z AUTO VRB03KT 05/02 A3036 180 79 -900 VRB/03 RMK AO1 SLP287 T00500017 401331011
54779K12N 12N20160326235509903/26/16 23:55:31  5-MIN K12N 270455Z AUTO VRB05KT 05/02 A3037 180 79 -900 VRB/05 RMK AO1 T00500017
54779K12N 12N20160327000010003/27/16 00:00:31  5-MIN K12N 270500Z AUTO 17004KT 04/02 A3036 180 82 -1000 180/04 RMK AO1 T00440017
54779K12N 12N20160327000510003/27/16 00:05:31  5-MIN K12N 270505Z AUTO 19006KT 04/02 A3037 180 82 -1000 200/06 RMK AO1 T00440017
54779K12N 12N20160327001010003/27/16 00:10:31  5-MIN K12N 270510Z AUTO 18003KT 04/02 A3037 170 82 -1000 190/03 RMK AO1 T00440017
54779K12N 12N20160327001511603/27/16 00:15:31  5-MIN K12N 270515Z AUTO 20007KT 160V230 04/02 A3037 170 82 -1000 210/07 170V240 RMK AO1 T00440017
54779K12N 12N20160327002010003/27/16 00:20:31  5-MIN K12N 270520Z AUTO 20004KT 04/02 A3037 170 82 -1000 220/04 RMK AO1 T00440017
54779K12N 12N20160327002510003/27/16 00:25:31  5-MIN K12N 270525Z AUTO VRB05KT 04/02 A3037 170 82 -1000 VRB/05 RMK AO1 T00440017
54779K12N 12N20160327003010003/27/16 00:30:31  5-MIN K12N 270530Z AUTO 20003KT 04/02 A3037 170 82 -1000 210/03 RMK AO1 T00440017
54779K12N 12N20160327003510003/27/16 00:35:31  5-MIN K12N 270535Z AUTO 21005KT 04/01 A3037 170 79 -1000 220/05 RMK AO1 T00440011
54779K12N 12N20160327004010003/27/16 00:40:31  5-MIN K12N 270540Z AUTO VRB03KT 04/01 A3037 170 79 -1000 VRB/03 RMK AO1 T00440011
54779K12N 12N20160327004510003/27/16 00:45:31  5-MIN K12N 270545Z AUTO 00000KT 04/01 A3037 170 79 -1000 000/00 RMK AO1 T00440011
54779K12N 12N20160327005012503/27/16 00:50:31  5-MIN K12N 270550Z AUTO 00000KT 04/01 A3037 170 79 -1000 000/00 RMK AO1 SLP290 T00440011 10078 20039 51025
54779K12N 12N20160327005510003/27/16 00:55:31  5-MIN K12N 270555Z AUTO 00000KT 04/01 A3037 170 79 -1000 000/00 RMK AO1 T00440011
54779K12N 12N20160327010010003/27/16 01:00:31  5-MIN K12N 270600Z AUTO 00000KT 04/01 A3037 170 79 -1000 000/00 RMK AO1 T00440011
54779K12N 12N20160327010510003/27/16 01:05:31  5-MIN K12N 270605Z AUTO 00000KT 04/01 A3037 170 79 -1000 000/00 RMK AO1 T00440011
54779K12N 12N20160327011010003/27/16 01:10:31  5-MIN K12N 270610Z AUTO 00000KT 04/01 A3037 170 79 -1000 000/00 RMK AO1 T00440011
54779K12N 12N20160327011510003/27/16 01:15:31  5-MIN K12N 270615Z AUTO 00000KT 04/01 A3037 170 82 -1000 000/00 RMK AO1 T00390011
54779K12N 12N20160327012010003/27/16 01:20:31  5-MIN K12N 270620Z AUTO 00000KT 03/01 A3037 170 85 -1100 000/00 RMK AO1 T00330011
54779K12N 12N20160327012510003/27/16 01:25:31  5-MIN K12N 270625Z AUTO 00000KT 03/01 A3037 170 82 -1100 000/00 RMK AO1 T00330006
54779K12N 12N20160327013010003/27/16 01:30:31  5-MIN K12N 270630Z AUTO 00000KT 03/01 A3037 170 82 -1100 000/00 RMK AO1 T00330006
54779K12N 12N20160327013510003/27/16 01:35:31  5-MIN K12N 270635Z AUTO 00000KT 03/01 A3037 170 85 -1100 000/00 RMK AO1 T00330011
54779K12N 12N20160327014010003/27/16 01:40:31  5-MIN K12N 270640Z AUTO 00000KT 03/01 A3037 170 85 -1100 000/00 RMK AO1 T00330011
54779K12N 12N20160327014510003/27/16 01:45:31  5-MIN K12N 270645Z AUTO 00000KT 03/01 A3037 170 85 -1100 000/00 RMK AO1 T00330011
54779K12N 12N20160327015010703/27/16 01:50:31  5-MIN K12N 270650Z AUTO 00000KT 03/01 A3037 170 89 -1200 000/00 RMK AO1 SLP289 T00280011
54779K12N 12N20160327015510003/27/16 01:55:31  5-MIN K12N 270655Z AUTO 00000KT 03/01 A3037 170 89 -1200 000/00 RMK AO1 T00280011
54779K12N 12N20160327020010003/27/16 02:00:31  5-MIN K12N 270700Z AUTO 00000KT 03/01 A3037 170 89 -1200 000/00 RMK AO1 T00280011
54779K12N 12N20160327020510003/27/16 02:05:31  5-MIN K12N 270705Z AUTO 00000KT 03/02 A3037 170 89 -1100 000/00 RMK AO1 T00330017
54779K12N 12N20160327021010003/27/16 02:10:31  5-MIN K12N 270710Z AUTO 00000KT 03/02 A3037 170 89 -1100 000/00 RMK AO1 T00330017
54779K12N 12N20160327021510003/27/16 02:15:31  5-MIN K12N 270715Z AUTO 00000KT 03/02 A3038 170 89 -1100 000/00 RMK AO1 T00330017
54779K12N 12N20160327022010003/27/16 02:20:31  5-MIN K12N 270720Z AUTO 00000KT 04/02 A3037 170 85 -1000 000/00 RMK AO1 T00390017
54779K12N 12N20160327022510003/27/16 02:25:31  5-MIN K12N 270725Z AUTO 00000KT 04/02 A3037 170 85 -1000 000/00 RMK AO1 T00390017
54779K12N 12N20160327023010003/27/16 02:30:31  5-MIN K12N 270730Z AUTO 00000KT 04/02 A3037 170 85 -1000 000/00 RMK AO1 T00390017
54779K12N 12N20160327023510003/27/16 02:35:31  5-MIN K12N 270735Z AUTO 00000KT 04/02 A3037 170 85 -1000 000/00 RMK AO1 T00390017
54779K12N 12N20160327024010003/27/16 02:40:31  5-MIN K12N 270740Z AUTO 00000KT 04/02 A3037 170 85 -1000 000/00 RMK AO1 T00390017
54779K12N 12N20160327024510003/27/16 02:45:31  5-MIN K12N 270745Z AUTO 00000KT 04/02 A3037 170 85 -1000 000/00 RMK AO1 T00390017
54779K12N 12N20160327025010703/27/16 02:50:31  5-MIN K12N 270750Z AUTO 00000KT 04/02 A3037 180 82 -1000 000/00 RMK AO1 SLP287 T00440017
54779K12N 12N20160327025510003/27/16 02:55:31  5-MIN K12N 270755Z AUTO 00000KT 04/02 A3037 170 82 -1000 000/00 RMK AO1 T00440017
54779K12N 12N20160327030010003/27/16 03:00:31  5-MIN K12N 270800Z AUTO 00000KT 04/02 A3037 170 82 -1000 000/00 RMK AO1 T00440017
54779K12N 12N20160327030510003/27/16 03:05:31  5-MIN K12N 270805Z AUTO 00000KT 04/02 A3036 180 82 -1000 000/00 RMK AO1 T00440017
54779K12N 12N20160327031010003/27/16 03:10:31  5-MIN K12N 270810Z AUTO 00000KT 04/02 A3036 180 82 -1000 000/00 RMK AO1 T00440017
54779K12N 12N20160327031510003/27/16 03:15:31  5-MIN K12N 270815Z AUTO 00000KT 04/02 A3036 180 82 -1000 000/00 RMK AO1 T00440017
54779K12N 12N20160327032010003/27/16 03:20:31  5-MIN K12N 270820Z AUTO 00000KT 04/02 A3036 180 82 -1000 000/00 RMK AO1 T00440017
54779K12N 12N20160327032510003/27/16 03:25:31  5-MIN K12N 270825Z AUTO 00000KT 04/02 A3036 180 82 -1000 000/00 RMK AO1 T00440017
54779K12N 12N20160327033010003/27/16 03:30:31  5-MIN K12N 270830Z AUTO 00000KT 04/02 A3035 190 82 -1000 000/00 RMK AO1 T00440017
54779K12N 12N20160327033510003/27/16 03:35:31  5-MIN K12N 270835Z AUTO 00000KT 04/02 A3035 190 82 -1000 000/00 RMK AO1 T00440017
54779K12N 12N20160327034010003/27/16 03:40:31  5-MIN K12N 270840Z AUTO 00000KT 04/02 A3036 180 82 -1000 000/00 RMK AO1 T00440017
54779K12N 12N20160327034510003/27/16 03:45:31  5-MIN K12N 270845Z AUTO 00000KT 04/02 A3036 180 82 -1000 000/00 RMK AO1 T00440017
54779K12N 12N20160327035011303/27/16 03:50:31  5-MIN K12N 270850Z AUTO 00000KT 04/02 A3036 180 82 -1000 000/00 RMK AO1 SLP283 T00440017 55000
54779K12N 12N20160327035510003/27/16 03:55:31  5-MIN K12N 270855Z AUTO 00000KT 04/02 A3036 180 82 -1000 000/00 RMK AO1 T00440017
54779K12N 12N20160327040010003/27/16 04:00:31  5-MIN K12N 270900Z AUTO 00000KT 04/02 A3035 190 82 -1000 000/00 RMK AO1 T00440017
54779K12N 12N20160327040510003/27/16 04:05:31  5-MIN K12N 270905Z AUTO 00000KT 04/02 A3036 180 82 -1000 000/00 RMK AO1 T00440017
54779K12N 12N20160327041010003/27/16 04:10:31  5-MIN K12N 270910Z AUTO 00000KT 04/02 A3036 190 82 -1000 000/00 RMK AO1 T00440017
54779K12N 12N20160327041510003/27/16 04:15:31  5-MIN K12N 270915Z AUTO VRB03KT 04/02 A3036 190 82 -1000 VRB/03 RMK AO1 T00440017
54779K12N 12N20160327042010003/27/16 04:20:31  5-MIN K12N 270920Z AUTO 00000KT 04/02 A3035 190 82 -1000 000/00 RMK AO1 T00440017
54779K12N 12N20160327042510003/27/16 04:25:31  5-MIN K12N 270925Z AUTO 00000KT 04/02 A3035 190 82 -1000 000/00 RMK AO1 T00440017
54779K12N 12N20160327043010003/27/16 04:30:31  5-MIN K12N 270930Z AUTO 00000KT 04/02 A3035 190 82 -1000 000/00 RMK AO1 T00440017
54779K12N 12N20160327043510003/27/16 04:35:31  5-MIN K12N 270935Z AUTO 00000KT 04/02 A3035 190 82 -1000 000/00 RMK AO1 T00440017
54779K12N 12N20160327044009903/27/16 04:40:31  5-MIN K12N 270940Z AUTO 00000KT 04/02 A3034 200 82 -900 000/00 RMK AO1 T00440017
54779K12N 12N20160327044509903/27/16 04:45:31  5-MIN K12N 270945Z AUTO 00000KT 04/02 A3034 200 82 -900 000/00 RMK AO1 T00440017
54779K12N 12N20160327045010603/27/16 04:50:31  5-MIN K12N 270950Z AUTO 00000KT 04/02 A3034 200 82 -900 000/00 RMK AO1 SLP279 T00440017
54779K12N 12N20160327045509903/27/16 04:55:31  5-MIN K12N 270955Z AUTO 00000KT 04/02 A3034 200 82 -900 000/00 RMK AO1 T00440017
54779K12N 12N20160327050009903/27/16 05:00:31  5-MIN K12N 271000Z AUTO 00000KT 04/02 A3035 190 82 -900 000/00 RMK AO1 T00440017
54779K12N 12N20160327050510003/27/16 05:05:31  5-MIN K12N 271005Z AUTO 00000KT 04/02 A3035 190 82 -1000 000/00 RMK AO1 T00440017
54779K12N 12N20160327051010003/27/16 05:10:31  5-MIN K12N 271010Z AUTO 00000KT 04/02 A3035 190 82 -1000 000/00 RMK AO1 T00440017
54779K12N 12N20160327051510003/27/16 05:15:31  5-MIN K12N 271015Z AUTO 00000KT 04/02 A3035 190 82 -1000 000/00 RMK AO1 T00440017
54779K12N 12N20160327052010003/27/16 05:20:31  5-MIN K12N 271020Z AUTO 19003KT 04/02 A3035 190 82 -1000 210/03 RMK AO1 T00440017
54779K12N 12N20160327052510003/27/16 05:25:31  5-MIN K12N 271025Z AUTO 20003KT 04/02 A3035 190 82 -1000 210/03 RMK AO1 T00440017
54779K12N 12N20160327053010003/27/16 05:30:31  5-MIN K12N 271030Z AUTO 00000KT 04/02 A3035 190 82 -1000 000/00 RMK AO1 T00440017
54779K12N 12N20160327053510003/27/16 05:35:31  5-MIN K12N 271035Z AUTO 00000KT 04/02 A3036 180 82 -1000 000/00 RMK AO1 T00440017
54779K12N 12N20160327054010003/27/16 05:40:31  5-MIN K12N 271040Z AUTO 00000KT 04/02 A3036 180 82 -1000 000/00 RMK AO1 T00440017
54779K12N 12N20160327054510003/27/16 05:45:31  5-MIN K12N 271045Z AUTO 00000KT 04/02 A3036 180 82 -1000 000/00 RMK AO1 T00440017
54779K12N 12N20160327055010703/27/16 05:50:31  5-MIN K12N 271050Z AUTO 20004KT 04/02 A3037 180 82 -1000 210/04 RMK AO1 SLP288 T00440017
54779K12N 12N20160327055510003/27/16 05:55:31  5-MIN K12N 271055Z AUTO 21005KT 04/02 A3037 180 82 -1000 230/05 RMK AO1 T00440017
54779K12N 12N20160327060010003/27/16 06:00:31  5-MIN K12N 271100Z AUTO 19003KT 04/02 A3037 170 82 -1000 200/03 RMK AO1 T00440017
54779K12N 12N20160327060510003/27/16 06:05:31  5-MIN K12N 271105Z AUTO 18004KT 04/02 A3037 170 82 -1000 190/04 RMK AO1 T00440017
54779K12N 12N20160327061009903/27/16 06:10:31  5-MIN K12N 271110Z AUTO 20005KT 05/02 A3037 170 79 -900 220/05 RMK AO1 T00500017
54779K12N 12N20160327061509903/27/16 06:15:31  5-MIN K12N 271115Z AUTO 20003KT 05/02 A3038 170 79 -900 210/03 RMK AO1 T00500017
54779K12N 12N20160327062009903/27/16 06:20:31  5-MIN K12N 271120Z AUTO 00000KT 05/02 A3037 170 79 -900 000/00 RMK AO1 T00500017
54779K12N 12N20160327062509903/27/16 06:25:31  5-MIN K12N 271125Z AUTO 00000KT 05/02 A3037 170 79 -900 000/00 RMK AO1 T00500017
54779K12N 12N20160327063009903/27/16 06:30:31  5-MIN K12N 271130Z AUTO 00000KT 05/02 A3037 170 79 -900 000/00 RMK AO1 T00500017
54779K12N 12N20160327063509903/27/16 06:35:31  5-MIN K12N 271135Z AUTO 00000KT 05/02 A3037 170 79 -900 000/00 RMK AO1 T00500017
54779K12N 12N20160327064009903/27/16 06:40:31  5-MIN K12N 271140Z AUTO 00000KT 05/02 A3037 170 79 -900 000/00 RMK AO1 T00500017
54779K12N 12N20160327064509903/27/16 06:45:31  5-MIN K12N 271145Z AUTO 00000KT 05/02 A3037 170 79 -900 000/00 RMK AO1 T00500017
54779K12N 12N20160327065012403/27/16 06:50:31  5-MIN K12N 271150Z AUTO 00000KT 05/02 A3037 170 79 -900 000/00 RMK AO1 SLP290 T00500017 10050 20028 58005
54779K12N 12N20160327065509903/27/16 06:55:31  5-MIN K12N 271155Z AUTO 00000KT 05/02 A3037 170 79 -900 000/00 RMK AO1 T00500017
54779K12N 12N20160327070009903/27/16 07:00:31  5-MIN K12N 271200Z AUTO 00000KT 05/02 A3037 170 79 -900 000/00 RMK AO1 T00500017
54779K12N 12N20160327070509903/27/16 07:05:31  5-MIN K12N 271205Z AUTO 00000KT 05/02 A3038 170 79 -900 000/00 RMK AO1 T00500017
54779K12N 12N20160327071009903/27/16 07:10:31  5-MIN K12N 271210Z AUTO 00000KT 05/02 A3038 160 79 -900 000/00 RMK AO1 T00500017
54779K12N 12N20160327071509903/27/16 07:15:31  5-MIN K12N 271215Z AUTO 00000KT 05/02 A3037 170 79 -900 000/00 RMK AO1 T00500017
54779K12N 12N20160327072009903/27/16 07:20:31  5-MIN K12N 271220Z AUTO VRB03KT 06/02 A3038 160 76 -800 VRB/03 RMK AO1 T00560017
54779K12N 12N20160327072509903/27/16 07:25:31  5-MIN K12N 271225Z AUTO 18004KT 06/02 A3039 160 76 -900 190/04 RMK AO1 T00560017
54779K12N 12N20160327073009903/27/16 07:30:31  5-MIN K12N 271230Z AUTO 00000KT 06/02 A3038 160 79 -900 000/00 RMK AO1 T00560022
54779K12N 12N20160327073509903/27/16 07:35:31  5-MIN K12N 271235Z AUTO 00000KT 06/02 A3038 160 79 -900 000/00 RMK AO1 T00560022
54779K12N 12N20160327074009903/27/16 07:40:31  5-MIN K12N 271240Z AUTO 00000KT 06/02 A3038 160 79 -900 000/00 RMK AO1 T00560022
54779K12N 12N20160327074509903/27/16 07:45:31  5-MIN K12N 271245Z AUTO 00000KT 06/02 A3038 170 79 -800 000/00 RMK AO1 T00560022
54779K12N 12N20160327075010603/27/16 07:50:31  5-MIN K12N 271250Z AUTO 14003KT 06/02 A3038 170 79 -800 160/03 RMK AO1 SLP292 T00560022
54779K12N 12N20160327075509903/27/16 07:55:31  5-MIN K12N 271255Z AUTO VRB03KT 06/02 A3037 170 76 -800 VRB/03 RMK AO1 T00610022
54779K12N 12N20160327080009903/27/16 08:00:31  5-MIN K12N 271300Z AUTO 00000KT 06/02 A3037 170 76 -800 000/00 RMK AO1 T00610022
54779K12N 12N20160327080509903/27/16 08:05:31  5-MIN K12N 271305Z AUTO VRB03KT 06/02 A3037 170 79 -800 VRB/03 RMK AO1 T00560022
54779K12N 12N20160327081009903/27/16 08:10:31  5-MIN K12N 271310Z AUTO 11003KT 06/02 A3037 170 79 -800 120/03 RMK AO1 T00560022
54779K12N 12N20160327081509903/27/16 08:15:31  5-MIN K12N 271315Z AUTO 14004KT 06/02 A3037 170 79 -800 150/04 RMK AO1 T00560022
54779K12N 12N20160327082009903/27/16 08:20:31  5-MIN K12N 271320Z AUTO 00000KT 06/02 A3037 170 79 -800 000/00 RMK AO1 T00560022
54779K12N 12N20160327082509903/27/16 08:25:31  5-MIN K12N 271325Z AUTO 16004KT 06/02 A3038 170 79 -800 180/04 RMK AO1 T00560022
54779K12N 12N20160327083009903/27/16 08:30:31  5-MIN K12N 271330Z AUTO 14005KT 06/02 A3038 170 76 -800 150/05 RMK AO1 T00610022
54779K12N 12N20160327083509903/27/16 08:35:31  5-MIN K12N 271335Z AUTO 00000KT 06/02 A3037 170 76 -800 000/00 RMK AO1 T00610022
54779K12N 12N20160327084009903/27/16 08:40:31  5-MIN K12N 271340Z AUTO 16004KT 06/02 A3038 170 76 -800 180/04 RMK AO1 T00610022
54779K12N 12N20160327084509903/27/16 08:45:31  5-MIN K12N 271345Z AUTO VRB03KT 06/02 A3038 170 76 -800 VRB/03 RMK AO1 T00610022
54779K12N 12N20160327085010603/27/16 08:50:31  5-MIN K12N 271350Z AUTO VRB06KT 06/02 A3038 170 76 -800 VRB/06 RMK AO1 SLP293 T00610022
54779K12N 12N20160327085509903/27/16 08:55:31  5-MIN K12N 271355Z AUTO 14004KT 06/02 A3037 170 76 -800 160/04 RMK AO1 T00610022
54779K12N 12N20160327090009903/27/16 09:00:31  5-MIN K12N 271400Z AUTO 12003KT 06/02 A3037 170 76 -800 140/03 RMK AO1 T00610022
54779K12N 12N20160327090509903/27/16 09:05:31  5-MIN K12N 271405Z AUTO VRB05KT 07/02 A3037 170 73 -700 VRB/05 RMK AO1 T00670022
54779K12N 12N20160327091009903/27/16 09:10:31  5-MIN K12N 271410Z AUTO VRB03KT 07/02 A3037 170 73 -700 VRB/03 RMK AO1 T00670022
54779K12N 12N20160327091509903/27/16 09:15:31  5-MIN K12N 271415Z AUTO VRB03KT 07/02 A3037 170 73 -700 VRB/03 RMK AO1 T00670022
54779K12N 12N20160327092009903/27/16 09:20:31  5-MIN K12N 271420Z AUTO VRB03KT 07/02 A3037 170 73 -700 VRB/03 RMK AO1 T00670022
54779K12N 12N20160327092509903/27/16 09:25:31  5-MIN K12N 271425Z AUTO 15005KT 07/02 A3038 170 73 -700 170/05 RMK AO1 T00670022
54779K12N 12N20160327093009903/27/16 09:30:31  5-MIN K12N 271430Z AUTO VRB03KT 07/02 A3038 160 73 -700 VRB/03 RMK AO1 T00670022
54779K12N 12N20160327093509903/27/16 09:35:31  5-MIN K12N 271435Z AUTO VRB03KT 07/03 A3038 160 76 -700 VRB/03 RMK AO1 T00670028
54779K12N 12N20160327094009903/27/16 09:40:31  5-MIN K12N 271440Z AUTO 14003KT 07/02 A3037 170 73 -700 150/03 RMK AO1 T00670022
54779K12N 12N20160327094509903/27/16 09:45:31  5-MIN K12N 271445Z AUTO VRB03KT 07/02 A3037 170 70 -600 VRB/03 RMK AO1 T00720022
54779K12N 12N20160327095011203/27/16 09:50:31  5-MIN K12N 271450Z AUTO 00000KT 07/02 A3038 160 73 -700 000/00 RMK AO1 SLP294 T00670022 53005
54779K12N 12N20160327095509903/27/16 09:55:31  5-MIN K12N 271455Z AUTO 00000KT 07/03 A3038 170 73 -600 000/00 RMK AO1 T00720028
54779K12N 12N20160327100009903/27/16 10:00:31  5-MIN K12N 271500Z AUTO VRB04KT 07/03 A3037 170 73 -600 VRB/04 RMK AO1 T00720028
54779K12N 12N20160327100509903/27/16 10:05:31  5-MIN K12N 271505Z AUTO 20005KT 07/03 A3037 170 73 -600 210/05 RMK AO1 T00720028
54779K12N 12N20160327101009903/27/16 10:10:31  5-MIN K12N 271510Z AUTO 00000KT 07/02 A3036 180 70 -600 000/00 RMK AO1 T00720022
54779K12N 12N20160327101509903/27/16 10:15:31  5-MIN K12N 271515Z AUTO VRB03KT 07/02 A3037 170 70 -600 VRB/03 RMK AO1 T00720022
54779K12N 12N20160327102009903/27/16 10:20:31  5-MIN K12N 271520Z AUTO 00000KT 08/03 A3036 180 70 -600 000/00 RMK AO1 T00780028
54779K12N 12N20160327102509903/27/16 10:25:31  5-MIN K12N 271525Z AUTO 22006KT 08/03 A3036 180 70 -600 230/06 RMK AO1 T00780028
54779K12N 12N20160327103009903/27/16 10:30:31  5-MIN K12N 271530Z AUTO VRB04KT 08/03 A3036 180 70 -600 VRB/04 RMK AO1 T00780028
54779K12N 12N20160327103509903/27/16 10:35:31  5-MIN K12N 271535Z AUTO VRB04KT 08/03 A3036 180 70 -600 VRB/04 RMK AO1 T00780028
54779K12N 12N20160327104009903/27/16 10:40:31  5-MIN K12N 271540Z AUTO 12005KT 08/02 A3037 180 68 -600 130/05 RMK AO1 T00780022
54779K12N 12N20160327104509903/27/16 10:45:31  5-MIN K12N 271545Z AUTO 22005KT 08/03 A3036 180 70 -600 230/05 RMK AO1 T00780028
54779K12N 12N20160327105010603/27/16 10:50:31  5-MIN K12N 271550Z AUTO 23004KT 08/03 A3036 180 70 -600 240/04 RMK AO1 SLP286 T00780028
54779K12N 12N20160327105509903/27/16 10:55:31  5-MIN K12N 271555Z AUTO 00000KT 08/03 A3036 180 68 -500 000/00 RMK AO1 T00830028
54779K12N 12N20160327110009903/27/16 11:00:31  5-MIN K12N 271600Z AUTO 00000KT 08/03 A3036 180 68 -500 000/00 RMK AO1 T00830028
54779K12N 12N20160327110509903/27/16 11:05:31  5-MIN K12N 271605Z AUTO 18005KT 08/03 A3036 180 70 -600 190/05 RMK AO1 T00780028
54779K12N 12N20160327111009903/27/16 11:10:31  5-MIN K12N 271610Z AUTO VRB03KT 08/03 A3036 180 68 -500 VRB/03 RMK AO1 T00830028
54779K12N 12N20160327111509903/27/16 11:15:31  5-MIN K12N 271615Z AUTO 00000KT 08/03 A3036 180 68 -500 000/00 RMK AO1 T00830028
54779K12N 12N20160327112009903/27/16 11:20:31  5-MIN K12N 271620Z AUTO VRB03KT 08/03 A3035 190 68 -500 VRB/03 RMK AO1 T00830028
54779K12N 12N20160327112509903/27/16 11:25:31  5-MIN K12N 271625Z AUTO VRB05KT 09/03 A3035 190 68 -400 VRB/05 RMK AO1 T00890033
54779K12N 12N20160327113009903/27/16 11:30:31  5-MIN K12N 271630Z AUTO VRB04KT 08/03 A3035 190 68 -500 VRB/04 RMK AO1 T00830028
54779K12N 12N20160327113509903/27/16 11:35:31  5-MIN K12N 271635Z AUTO 16005KT 09/03 A3035 190 65 -400 170/05 RMK AO1 T00890028
54779K12N 12N20160327114009903/27/16 11:40:31  5-MIN K12N 271640Z AUTO VRB03KT 09/03 A3034 200 65 -300 VRB/03 RMK AO1 T00940033
54779K12N 12N20160327114509903/27/16 11:45:31  5-MIN K12N 271645Z AUTO VRB04KT 09/03 A3034 200 65 -300 VRB/04 RMK AO1 T00940033
54779K12N 12N20160327115010603/27/16 11:50:31  5-MIN K12N 271650Z AUTO VRB03KT 10/03 A3034 200 63 -300 VRB/03 RMK AO1 SLP278 T01000033
54779K12N 12N20160327115509903/27/16 11:55:31  5-MIN K12N 271655Z AUTO 00000KT 09/03 A3033 210 65 -300 000/00 RMK AO1 T00940033
54779K12N 12N20160327120009903/27/16 12:00:31  5-MIN K12N 271700Z AUTO VRB03KT 10/03 A3033 210 63 -300 VRB/03 RMK AO1 T01000033
54779K12N 12N20160327120509903/27/16 12:05:31  5-MIN K12N 271705Z AUTO 00000KT 09/03 A3033 210 63 -300 000/00 RMK AO1 T00940028
54779K12N 12N20160327121009903/27/16 12:10:31  5-MIN K12N 271710Z AUTO 00000KT 11/04 A3032 220 61 -100 000/00 RMK AO1 T01110039
54779K12N 12N20160327121509903/27/16 12:15:31  5-MIN K12N 271715Z AUTO VRB03KT 11/04 A3032 220 61 -100 VRB/03 RMK AO1 T01110039
54779K12N 12N20160327122009903/27/16 12:20:31  5-MIN K12N 271720Z AUTO VRB03KT 11/03 A3032 220 58 -100 VRB/03 RMK AO1 T01110033
54779K12N 12N20160327122509903/27/16 12:25:31  5-MIN K12N 271725Z AUTO 23004KT 11/03 A3032 220 58 -100 250/04 RMK AO1 T01110033
54779K12N 12N20160327123009903/27/16 12:30:31  5-MIN K12N 271730Z AUTO 11004KT 11/03 A3032 220 58 -100 130/04 RMK AO1 T01110033
54779K12N 12N20160327123509903/27/16 12:35:31  5-MIN K12N 271735Z AUTO 00000KT 11/03 A3031 220 61 -200 000/00 RMK AO1 T01060033
54779K12N 12N20160327124009603/27/16 12:40:31  5-MIN K12N 271740Z AUTO VRB03KT 12/03 A3031 220 56 0 VRB/03 RMK AO1 T01170033
54779K12N 12N20160327124509603/27/16 12:45:31  5-MIN K12N 271745Z AUTO VRB04KT 12/03 A3031 230 56 0 VRB/04 RMK AO1 T01170033
54779K12N 12N20160327125012103/27/16 12:50:31  5-MIN K12N 271750Z AUTO VRB05KT 12/03 A3030 240 56 0 VRB/05 RMK AO1 SLP265 T01170033 10117 20050 53002
54779K12N 12N20160327125509603/27/16 12:55:31  5-MIN K12N 271755Z AUTO 00000KT 12/03 A3030 240 54 0 000/00 RMK AO1 T01220033
54779K12N 12N20160327130009803/27/16 13:00:31  5-MIN K12N 271800Z AUTO VRB05KT 13/04 A3029 240 54 100 VRB/05 RMK AO1 T01280039
54779K12N 12N20160327130509803/27/16 13:05:31  5-MIN K12N 271805Z AUTO VRB03KT 13/04 A3029 250 54 100 VRB/03 RMK AO1 T01280039
54779K12N 12N20160327131009803/27/16 13:10:31  5-MIN K12N 271810Z AUTO VRB03KT 13/03 A3028 250 52 100 VRB/03 RMK AO1 T01280033
54779K12N 12N20160327131507103/27/16 13:15:31  5-MIN K12N 271815Z AUTO 15003KT M M M 160/03 RMK AO1
54779K12N 12N20160327132010003/27/16 13:20:31  5-MIN K12N 271820Z AUTO VRB03KT 13/04 A3027 260 52 200 VRB/03 RMK AO1 T01330039 $
54779K12N 12N20160327132510003/27/16 13:25:31  5-MIN K12N 271825Z AUTO VRB04KT 14/04 A3027 270 52 200 VRB/04 RMK AO1 T01390044 $
54779K12N 12N20160327133010003/27/16 13:30:31  5-MIN K12N 271830Z AUTO 00000KT 14/04 A3026 270 50 200 000/00 RMK AO1 T01390039 $
54779K12N 12N20160327133510003/27/16 13:35:31  5-MIN K12N 271835Z AUTO VRB03KT 13/04 A3026 270 52 200 VRB/03 RMK AO1 T01330039 $
54779K12N 12N20160327134010003/27/16 13:40:31  5-MIN K12N 271840Z AUTO 00000KT 13/03 A3026 270 52 100 000/00 RMK AO1 T01280033 $
54779K12N 12N20160327134510003/27/16 13:45:31  5-MIN K12N 271845Z AUTO VRB04KT 13/03 A3026 270 50 200 VRB/04 RMK AO1 T01330033 $
54779K12N 12N20160327135010703/27/16 13:50:31  5-MIN K12N 271850Z AUTO 19006KT 13/04 A3026 270 52 200 200/06 RMK AO1 SLP251 T01330039 $
54779K12N 12N20160327135510003/27/16 13:55:31  5-MIN K12N 271855Z AUTO VRB03KT 13/03 A3026 280 52 100 VRB/03 RMK AO1 T01280033 $
54779K12N 12N20160327140010003/27/16 14:00:31  5-MIN K12N 271900Z AUTO 10005KT 13/03 A3025 280 52 100 120/05 RMK AO1 T01280033 $
54779K12N 12N20160327140510003/27/16 14:05:31  5-MIN K12N 271905Z AUTO 16003KT 13/04 A3025 280 54 100 170/03 RMK AO1 T01280039 $
54779K12N 12N20160327141010003/27/16 14:10:31  5-MIN K12N 271910Z AUTO 18004KT 13/04 A3025 280 52 200 190/04 RMK AO1 T01330039 $
54779K12N 12N20160327141510003/27/16 14:15:31  5-MIN K12N 271915Z AUTO VRB04KT 13/03 A3025 280 52 100 VRB/04 RMK AO1 T01280033 $
54779K12N 12N20160327142010003/27/16 14:20:31  5-MIN K12N 271920Z AUTO VRB03KT 13/04 A3024 290 54 100 VRB/03 RMK AO1 T01280039 $
54779K12N 12N20160327142510003/27/16 14:25:31  5-MIN K12N 271925Z AUTO 19006KT 13/04 A3024 290 52 200 200/06 RMK AO1 T01330039 $
54779K12N 12N20160327143010003/27/16 14:30:31  5-MIN K12N 271930Z AUTO VRB06KT 13/04 A3024 290 54 100 VRB/06 RMK AO1 T01280039 $
54779K12N 12N20160327143510003/27/16 14:35:31  5-MIN K12N 271935Z AUTO VRB03KT 13/03 A3024 290 52 100 VRB/03 RMK AO1 T01280033 $
54779K12N 12N20160327144010003/27/16 14:40:31  5-MIN K12N 271940Z AUTO VRB04KT 13/04 A3024 290 52 200 VRB/04 RMK AO1 T01330039 $
54779K12N 12N20160327144510003/27/16 14:45:31  5-MIN K12N 271945Z AUTO VRB03KT 13/03 A3023 300 52 100 VRB/03 RMK AO1 T01280033 $
54779K12N 12N20160327145009703/27/16 14:50:31  5-MIN K12N 271950Z AUTO 13/04 A3023 300 54 100 M /M RMK AO1 SLP240 T01280039 $
54779K12N 12N20160327145510003/27/16 14:55:31  5-MIN K12N 271955Z AUTO VRB04KT 13/04 A3023 300 52 200 VRB/04 RMK AO1 T01330039 $
54779K12N 12N20160327150010003/27/16 15:00:31  5-MIN K12N 272000Z AUTO VRB04KT 13/04 A3023 300 52 200 VRB/04 RMK AO1 T01330039 $
54779K12N 12N20160327150510003/27/16 15:05:31  5-MIN K12N 272005Z AUTO VRB05KT 13/04 A3023 300 54 100 VRB/05 RMK AO1 T01280039 $
54779K12N 12N20160327151010003/27/16 15:10:31  5-MIN K12N 272010Z AUTO 16006KT 13/04 A3023 300 52 200 170/06 RMK AO1 T01330039 $
54779K12N 12N20160327151510003/27/16 15:15:31  5-MIN K12N 272015Z AUTO VRB04KT 13/04 A3023 300 54 100 VRB/04 RMK AO1 T01280039 $
54779K12N 12N20160327152010003/27/16 15:20:31  5-MIN K12N 272020Z AUTO VRB05KT 13/04 A3024 290 54 100 VRB/05 RMK AO1 T01280039 $
54779K12N 12N20160327152510003/27/16 15:25:31  5-MIN K12N 272025Z AUTO 19005KT 13/04 A3024 290 54 100 200/05 RMK AO1 T01280039 $
54779K12N 12N20160327153010003/27/16 15:30:31  5-MIN K12N 272030Z AUTO 15005KT 13/04 A3024 290 54 100 170/05 RMK AO1 T01280039 $
54779K12N 12N20160327153510003/27/16 15:35:31  5-MIN K12N 272035Z AUTO 15007KT 12/03 A3023 300 54 100 160/07 RMK AO1 T01220033 $
54779K12N 12N20160327154010003/27/16 15:40:31  5-MIN K12N 272040Z AUTO VRB03KT 12/04 A3023 300 56 100 VRB/03 RMK AO1 T01220039 $
54779K12N 12N20160327154510003/27/16 15:45:31  5-MIN K12N 272045Z AUTO VRB04KT 13/04 A3023 300 54 100 VRB/04 RMK AO1 T01280039 $
54779K12N 12N20160327155010703/27/16 15:50:31  5-MIN K12N 272050Z AUTO VRB04KT 12/04 A3023 300 56 100 VRB/04 RMK AO1 SLP240 T01220039 $
54779K12N 12N20160327155510003/27/16 15:55:31  5-MIN K12N 272055Z AUTO VRB03KT 12/04 A3022 310 56 100 VRB/03 RMK AO1 T01220039 $
54779K12N 12N20160327160010003/27/16 16:00:31  5-MIN K12N 272100Z AUTO 14004KT 12/03 A3022 310 54 100 160/04 RMK AO1 T01220033 $
54779K12N 12N20160327160510003/27/16 16:05:31  5-MIN K12N 272105Z AUTO 15006KT 12/03 A3021 320 54 100 160/06 RMK AO1 T01220033 $
54779K12N 12N20160327161010003/27/16 16:10:31  5-MIN K12N 272110Z AUTO VRB03KT 12/03 A3021 320 54 100 VRB/03 RMK AO1 T01220033 $
54779K12N 12N20160327161511603/27/16 16:15:31  5-MIN K12N 272115Z AUTO 15007KT 120V190 12/03 A3021 320 54 100 160/07 130V200 RMK AO1 T01220033 $
54779K12N 12N20160327162009803/27/16 16:20:31  5-MIN K12N 272120Z AUTO 17003KT 12/03 A3021 320 56 0 180/03 RMK AO1 T01170033 $
54779K12N 12N20160327162509803/27/16 16:25:31  5-MIN K12N 272125Z AUTO VRB04KT 12/03 A3020 320 56 0 VRB/04 RMK AO1 T01170033 $
54779K12N 12N20160327163009803/27/16 16:30:31  5-MIN K12N 272130Z AUTO VRB06KT 12/03 A3021 320 56 0 VRB/06 RMK AO1 T01170033 $
54779K12N 12N20160327163509803/27/16 16:35:31  5-MIN K12N 272135Z AUTO VRB05KT 12/03 A3021 320 56 0 VRB/05 RMK AO1 T01170033 $
54779K12N 12N20160327164009803/27/16 16:40:31  5-MIN K12N 272140Z AUTO 17005KT 12/03 A3020 320 56 0 180/05 RMK AO1 T01170033 $
54779K12N 12N20160327164511403/27/16 16:45:31  5-MIN K12N 272145Z AUTO 15007KT 110V180 11/03 A3020 330 58 0 160/07 120V190 RMK AO1 T01110033 $
54779K12N 12N20160327165010503/27/16 16:50:31  5-MIN K12N 272150Z AUTO VRB06KT 11/03 A3020 330 58 0 VRB/06 RMK AO1 SLP232 T01110033 $
54779K12N 12N20160327165509803/27/16 16:55:31  5-MIN K12N 272155Z AUTO VRB06KT 11/03 A3020 320 58 0 VRB/06 RMK AO1 T01110033 $
54779K12N 12N20160327170009803/27/16 17:00:31  5-MIN K12N 272200Z AUTO VRB03KT 11/03 A3020 320 58 0 VRB/03 RMK AO1 T01110033 $
54779K12N 12N20160327170509803/27/16 17:05:31  5-MIN K12N 272205Z AUTO 17005KT 11/03 A3020 320 61 0 190/05 RMK AO1 T01060033 $
54779K12N 12N20160327171009803/27/16 17:10:31  5-MIN K12N 272210Z AUTO VRB05KT 11/03 A3021 320 58 0 VRB/05 RMK AO1 T01060028 $
54779K12N 12N20160327171509803/27/16 17:15:31  5-MIN K12N 272215Z AUTO 17006KT 11/03 A3021 320 58 0 180/06 RMK AO1 T01060028 $
54779K12N 12N20160327172010103/27/16 17:20:31  5-MIN K12N 272220Z AUTO 19005KT 10/03 A3021 320 60 -100 200/05 RMK AO1 T01000028 $
54779K12N 12N20160327172510103/27/16 17:25:31  5-MIN K12N 272225Z AUTO VRB03KT 10/03 A3021 320 60 -100 VRB/03 RMK AO1 T01000028 $
54779K12N 12N20160327173010103/27/16 17:30:31  5-MIN K12N 272230Z AUTO VRB05KT 10/03 A3021 320 63 -100 VRB/05 RMK AO1 T01000033 $
54779K12N 12N20160327173510103/27/16 17:35:31  5-MIN K12N 272235Z AUTO VRB06KT 10/03 A3021 320 60 -100 VRB/06 RMK AO1 T01000028 $
54779K12N 12N20160327174010103/27/16 17:40:31  5-MIN K12N 272240Z AUTO 17006KT 10/03 A3021 320 60 -100 190/06 RMK AO1 T01000028 $
54779K12N 12N20160327174510103/27/16 17:45:31  5-MIN K12N 272245Z AUTO 17007KT 09/03 A3021 320 63 -200 180/07 RMK AO1 T00940028 $
54779K12N 12N20160327175010803/27/16 17:50:31  5-MIN K12N 272250Z AUTO 15005KT 09/03 A3021 320 63 -200 170/05 RMK AO1 SLP235 T00940028 $
54779K12N 12N20160327175510103/27/16 17:55:31  5-MIN K12N 272255Z AUTO VRB03KT 09/03 A3021 320 63 -200 VRB/03 RMK AO1 T00940028 $
54779K12N 12N20160327180010103/27/16 18:00:31  5-MIN K12N 272300Z AUTO 15004KT 09/03 A3021 320 63 -200 160/04 RMK AO1 T00940028 $
54779K12N 12N20160327180510103/27/16 18:05:31  5-MIN K12N 272305Z AUTO VRB04KT 09/03 A3020 320 63 -200 VRB/04 RMK AO1 T00940028 $
54779K12N 12N20160327181010103/27/16 18:10:31  5-MIN K12N 272310Z AUTO 16004KT 09/03 A3021 320 63 -200 170/04 RMK AO1 T00940028 $
54779K12N 12N20160327181510103/27/16 18:15:31  5-MIN K12N 272315Z AUTO 16004KT 09/03 A3021 320 65 -200 180/04 RMK AO1 T00890028 $
54779K12N 12N20160327182010103/27/16 18:20:31  5-MIN K12N 272320Z AUTO VRB05KT 09/03 A3021 320 65 -200 VRB/05 RMK AO1 T00890028 $
54779K12N 12N20160327182510103/27/16 18:25:31  5-MIN K12N 272325Z AUTO VRB04KT 09/03 A3021 320 65 -200 VRB/04 RMK AO1 T00890028 $
54779K12N 12N20160327183010103/27/16 18:30:31  5-MIN K12N 272330Z AUTO 00000KT 09/02 A3021 320 63 -200 000/00 RMK AO1 T00890022 $
54779K12N 12N20160327183510103/27/16 18:35:31  5-MIN K12N 272335Z AUTO VRB03KT 09/02 A3020 320 63 -200 VRB/03 RMK AO1 T00890022 $
54779K12N 12N20160327184010103/27/16 18:40:31  5-MIN K12N 272340Z AUTO VRB03KT 09/02 A3020 320 63 -200 VRB/03 RMK AO1 T00890022 $
54779K12N 12N20160327184510103/27/16 18:45:31  5-MIN K12N 272345Z AUTO 17004KT 09/02 A3020 330 63 -200 190/04 RMK AO1 T00890022 $
54779K12N 12N20160327185012003/27/16 18:50:31  5-MIN K12N 272350Z AUTO VRB05KT 09/02 A3020 330 63 -200 VRB/05 RMK AO1 SLP229 T00890022 10144 20089 $
54779K12N 12N20160327185510103/27/16 18:55:31  5-MIN K12N 272355Z AUTO 17005KT 08/02 A3019 330 65 -300 190/05 RMK AO1 T00830022 $
54779K12N 12N20160327190010103/27/16 19:00:31  5-MIN K12N 280000Z AUTO VRB05KT 08/02 A3019 330 65 -300 VRB/05 RMK AO1 T00830022 $
54779K12N 12N20160327190510103/27/16 19:05:31  5-MIN K12N 280005Z AUTO 00000KT 08/02 A3019 330 63 -300 000/00 RMK AO1 T00830017 $
54779K12N 12N20160327191010103/27/16 19:10:31  5-MIN K12N 280010Z AUTO 00000KT 08/02 A3019 330 65 -300 000/00 RMK AO1 T00830022 $
54779K12N 12N20160327191510103/27/16 19:15:31  5-MIN K12N 280015Z AUTO 00000KT 08/02 A3019 330 65 -300 000/00 RMK AO1 T00830022 $
54779K12N 12N20160327192010103/27/16 19:20:31  5-MIN K12N 280020Z AUTO VRB03KT 08/02 A3019 340 65 -300 VRB/03 RMK AO1 T00830022 $
54779K12N 12N20160327192510103/27/16 19:25:31  5-MIN K12N 280025Z AUTO VRB04KT 08/02 A3019 340 68 -400 VRB/04 RMK AO1 T00780022 $
54779K12N 12N20160327193010103/27/16 19:30:31  5-MIN K12N 280030Z AUTO VRB03KT 08/02 A3019 340 65 -400 VRB/03 RMK AO1 T00780017 $
54779K12N 12N20160327193509103/27/16 19:35:31  5-MIN K12N 280035Z AUTO 08/02 A3019 340 65 -400 M /M RMK AO1 T00780017 $
54779K12N 12N20160327194010103/27/16 19:40:31  5-MIN K12N 280040Z AUTO VRB05KT 07/02 A3018 340 68 -400 VRB/05 RMK AO1 T00720017 $
54779K12N 12N20160327194510103/27/16 19:45:31  5-MIN K12N 280045Z AUTO VRB05KT 07/02 A3018 340 68 -400 VRB/05 RMK AO1 T00720017 $
54779K12N 12N20160327195010803/27/16 19:50:31  5-MIN K12N 280050Z AUTO VRB03KT 07/02 A3018 350 68 -400 VRB/03 RMK AO1 SLP225 T00720017 $
54779K12N 12N20160327195509103/27/16 19:55:31  5-MIN K12N 280055Z AUTO 07/02 A3018 350 68 -400 M /M RMK AO1 T00720017 $
54779K12N 12N20160327200010103/27/16 20:00:31  5-MIN K12N 280100Z AUTO VRB03KT 07/02 A3018 350 68 -400 VRB/03 RMK AO1 T00720017 $
54779K12N 12N20160327200510103/27/16 20:05:31  5-MIN K12N 280105Z AUTO VRB05KT 07/02 A3018 340 68 -400 VRB/05 RMK AO1 T00720017 $
54779K12N 12N20160327201010103/27/16 20:10:31  5-MIN K12N 280110Z AUTO VRB05KT 07/02 A3018 340 68 -400 VRB/05 RMK AO1 T00720017 $
54779K12N 12N20160327201510103/27/16 20:15:31  5-MIN K12N 280115Z AUTO VRB04KT 07/02 A3019 340 68 -400 VRB/04 RMK AO1 T00720017 $
54779K12N 12N20160327202010103/27/16 20:20:31  5-MIN K12N 280120Z AUTO VRB04KT 07/02 A3019 340 68 -400 VRB/04 RMK AO1 T00720017 $
54779K12N 12N20160327202509103/27/16 20:25:31  5-MIN K12N 280125Z AUTO 07/02 A3018 340 68 -400 M /M RMK AO1 T00720017 $
54779K12N 12N20160327203010103/27/16 20:30:31  5-MIN K12N 280130Z AUTO VRB04KT 07/02 A3018 350 68 -400 VRB/04 RMK AO1 T00720017 $
54779K12N 12N20160327203510103/27/16 20:35:31  5-MIN K12N 280135Z AUTO VRB04KT 07/02 A3018 350 68 -400 VRB/04 RMK AO1 T00720017 $
54779K12N 12N20160327204010103/27/16 20:40:31  5-MIN K12N 280140Z AUTO VRB04KT 07/02 A3018 350 70 -500 VRB/04 RMK AO1 T00670017 $
54779K12N 12N20160327204510103/27/16 20:45:31  5-MIN K12N 280145Z AUTO VRB05KT 07/02 A3018 350 70 -500 VRB/05 RMK AO1 T00670017 $
54779K12N 12N20160327205010803/27/16 20:50:31  5-MIN K12N 280150Z AUTO VRB04KT 07/02 A3018 350 70 -500 VRB/04 RMK AO1 SLP225 T00670017 $
54779K12N 12N20160327205510103/27/16 20:55:31  5-MIN K12N 280155Z AUTO VRB06KT 07/01 A3018 350 67 -500 VRB/06 RMK AO1 T00670011 $
54779K12N 12N20160327210010103/27/16 21:00:31  5-MIN K12N 280200Z AUTO VRB04KT 07/01 A3017 350 67 -500 VRB/04 RMK AO1 T00670011 $
54779K12N 12N20160327210510103/27/16 21:05:31  5-MIN K12N 280205Z AUTO VRB03KT 07/01 A3017 360 67 -500 VRB/03 RMK AO1 T00670011 $
54779K12N 12N20160327211010103/27/16 21:10:31  5-MIN K12N 280210Z AUTO VRB04KT 07/01 A3017 360 67 -500 VRB/04 RMK AO1 T00670011 $
54779K12N 12N20160327211509103/27/16 21:15:31  5-MIN K12N 280215Z AUTO 07/01 A3017 360 67 -500 M /M RMK AO1 T00670011 $
54779K12N 12N20160327212010103/27/16 21:20:31  5-MIN K12N 280220Z AUTO VRB03KT 07/01 A3016 360 67 -500 VRB/03 RMK AO1 T00670011 $
54779K12N 12N20160327212510103/27/16 21:25:31  5-MIN K12N 280225Z AUTO VRB03KT 07/01 A3016 360 65 -500 VRB/03 RMK AO1 T00670006 $
54779K12N 12N20160327213010103/27/16 21:30:31  5-MIN K12N 280230Z AUTO 16003KT 07/01 A3016 370 65 -500 180/03 RMK AO1 T00670006 $
54779K12N 12N20160327213510103/27/16 21:35:31  5-MIN K12N 280235Z AUTO 16004KT 07/01 A3016 370 65 -500 180/04 RMK AO1 T00670006 $
54779K12N 12N20160327214010103/27/16 21:40:31  5-MIN K12N 280240Z AUTO VRB03KT 07/01 A3016 370 65 -500 VRB/03 RMK AO1 T00670006 $
54779K12N 12N20160327214510103/27/16 21:45:31  5-MIN K12N 280245Z AUTO 14004KT 07/01 A3016 370 65 -500 150/04 RMK AO1 T00670006 $
54779K12N 12N20160327215011403/27/16 21:50:31  5-MIN K12N 280250Z AUTO 15003KT 07/00 A3015 370 62 -500 160/03 RMK AO1 SLP216 T00670000 56010 $
54779K12N 12N20160327215510103/27/16 21:55:31  5-MIN K12N 280255Z AUTO 17003KT 07/01 A3015 370 65 -500 180/03 RMK AO1 T00670006 $
54779K12N 12N20160327220010103/27/16 22:00:31  5-MIN K12N 280300Z AUTO VRB03KT 06/01 A3015 370 67 -500 VRB/03 RMK AO1 T00610006 $
54779K12N 12N20160327220510103/27/16 22:05:31  5-MIN K12N 280305Z AUTO VRB04KT 07/01 A3015 380 65 -400 VRB/04 RMK AO1 T00670006 $
54779K12N 12N20160327221010103/27/16 22:10:31  5-MIN K12N 280310Z AUTO VRB06KT 06/01 A3014 380 70 -500 VRB/06 RMK AO1 T00610011 $
54779K12N 12N20160327221510103/27/16 22:15:31  5-MIN K12N 280315Z AUTO VRB04KT 06/01 A3014 380 73 -600 VRB/04 RMK AO1 T00560011 $
54779K12N 12N20160327222010103/27/16 22:20:31  5-MIN K12N 280320Z AUTO 00000KT 06/01 A3014 390 73 -600 000/00 RMK AO1 T00560011 $
54779K12N 12N20160327222510103/27/16 22:25:31  5-MIN K12N 280325Z AUTO VRB04KT 06/01 A3013 390 73 -600 VRB/04 RMK AO1 T00560011 $
54779K12N 12N20160327223010103/27/16 22:30:31  5-MIN K12N 280330Z AUTO VRB03KT 06/01 A3013 390 73 -600 VRB/03 RMK AO1 T00560011 $
54779K12N 12N20160327223510103/27/16 22:35:31  5-MIN K12N 280335Z AUTO VRB03KT 06/01 A3012 400 73 -600 VRB/03 RMK AO1 T00560011 $
54779K12N 12N20160327224010103/27/16 22:40:31  5-MIN K12N 280340Z AUTO VRB03KT 06/02 A3012 400 76 -600 VRB/03 RMK AO1 T00560017 $
54779K12N 12N20160327224510103/27/16 22:45:31  5-MIN K12N 280345Z AUTO 00000KT 06/02 A3012 410 76 -500 000/00 RMK AO1 T00560017 $
54779K12N 12N20160327225010803/27/16 22:50:31  5-MIN K12N 280350Z AUTO 00000KT 06/02 A3011 410 76 -500 000/00 RMK AO1 SLP202 T00560017 $
54779K12N 12N20160327225510103/27/16 22:55:31  5-MIN K12N 280355Z AUTO VRB04KT 06/02 A3011 410 76 -500 VRB/04 RMK AO1 T00560017 $
54779K12N 12N20160327230010103/27/16 23:00:31  5-MIN K12N 280400Z AUTO VRB04KT 06/02 A3010 420 76 -500 VRB/04 RMK AO1 T00560017 $
54779K12N 12N20160327230510103/27/16 23:05:31  5-MIN K12N 280405Z AUTO VRB04KT 06/02 A3010 420 79 -500 VRB/04 RMK AO1 T00560022 $
54779K12N 12N20160327231010103/27/16 23:10:31  5-MIN K12N 280410Z AUTO VRB04KT 05/02 A3010 420 79 -600 VRB/04 RMK AO1 T00500017 $
54779K12N 12N20160327231510103/27/16 23:15:31  5-MIN K12N 280415Z AUTO 16005KT 05/02 A3010 420 79 -600 180/05 RMK AO1 T00500017 $
54779K12N 12N20160327232010103/27/16 23:20:31  5-MIN K12N 280420Z AUTO VRB06KT 05/02 A3009 430 79 -600 VRB/06 RMK AO1 T00500017 $
54779K12N 12N20160327233010103/27/16 23:30:31  5-MIN K12N 280430Z AUTO VRB03KT 05/02 A3009 430 82 -600 VRB/03 RMK AO1 T00500022 $
54779K12N 12N20160327233510103/27/16 23:35:31  5-MIN K12N 280435Z AUTO 00000KT 05/02 A3008 440 82 -600 000/00 RMK AO1 T00500022 $
54779K12N 12N20160327234010103/27/16 23:40:31  5-MIN K12N 280440Z AUTO VRB03KT 05/02 A3008 440 82 -600 VRB/03 RMK AO1 T00500022 $
54779K12N 12N20160327234510103/27/16 23:45:31  5-MIN K12N 280445Z AUTO VRB04KT 05/02 A3007 440 82 -600 VRB/04 RMK AO1 T00500022 $
54779K12N 12N20160327235011803/27/16 23:50:31  5-MIN K12N 280450Z AUTO 00000KT 05/02 A3007 450 82 -600 000/00 RMK AO1 SLP187 T00500022 401440028 $
54779K12N 12N20160327235510103/27/16 23:55:31  5-MIN K12N 280455Z AUTO 00000KT 05/02 A3007 440 82 -600 000/00 RMK AO1 T00500022 $
54779K12N 12N20160328000010103/28/16 00:00:31  5-MIN K12N 280500Z AUTO 00000KT 05/02 A3007 450 82 -600 000/00 RMK AO1 T00500022 $
54779K12N 12N20160328000510103/28/16 00:05:31  5-MIN K12N 280505Z AUTO 00000KT 04/02 A3007 450 85 -600 000/00 RMK AO1 T00440022 $
54779K12N 12N20160328001010103/28/16 00:10:31  5-MIN K12N 280510Z AUTO 00000KT 04/02 A3006 450 85 -600 000/00 RMK AO1 T00440022 $
54779K12N 12N20160328001510103/28/16 00:15:31  5-MIN K12N 280515Z AUTO 00000KT 04/02 A3006 460 85 -600 000/00 RMK AO1 T00440022 $
54779K12N 12N20160328002010103/28/16 00:20:31  5-MIN K12N 280520Z AUTO 00000KT 05/02 A3006 460 82 -600 000/00 RMK AO1 T00500022 $
54779K12N 12N20160328002510103/28/16 00:25:31  5-MIN K12N 280525Z AUTO 06004KT 05/02 A3006 460 82 -500 070/04 RMK AO1 T00500022 $
54779K12N 12N20160328003010103/28/16 00:30:31  5-MIN K12N 280530Z AUTO 00000KT 05/02 A3005 460 79 -500 000/00 RMK AO1 T00500017 $
54779K12N 12N20160328003510103/28/16 00:35:31  5-MIN K12N 280535Z AUTO 00000KT 05/02 A3005 470 82 -500 000/00 RMK AO1 T00500022 $
54779K12N 12N20160328004010103/28/16 00:40:31  5-MIN K12N 280540Z AUTO VRB03KT 05/02 A3005 470 82 -500 VRB/03 RMK AO1 T00500022 $
54779K12N 12N20160328004510103/28/16 00:45:31  5-MIN K12N 280545Z AUTO VRB03KT 05/02 A3004 470 82 -500 VRB/03 RMK AO1 T00500022 $
54779K12N 12N20160328005012603/28/16 00:50:31  5-MIN K12N 280550Z AUTO 00000KT 05/02 A3004 470 82 -500 000/00 RMK AO1 SLP177 T00500022 10083 20044 58014 $
54779K12N 12N20160328005510103/28/16 00:55:31  5-MIN K12N 280555Z AUTO 00000KT 05/02 A3004 470 82 -500 000/00 RMK AO1 T00500022 $
54779K12N 12N20160328010010103/28/16 01:00:31  5-MIN K12N 280600Z AUTO 00000KT 05/02 A3004 480 82 -500 000/00 RMK AO1 T00500022 $
54779K12N 12N20160328010510103/28/16 01:05:31  5-MIN K12N 280605Z AUTO 08004KT 05/02 A3003 490 82 -500 090/04 RMK AO1 T00500022 $
54779K12N 12N20160328011010103/28/16 01:10:31  5-MIN K12N 280610Z AUTO 04005KT 05/02 A3002 490 79 -500 050/05 RMK AO1 T00500017 $
54779K12N 12N20160328011510103/28/16 01:15:31  5-MIN K12N 280615Z AUTO VRB03KT 05/02 A3002 490 79 -500 VRB/03 RMK AO1 T00500017 $
54779K12N 12N20160328012010103/28/16 01:20:31  5-MIN K12N 280620Z AUTO 00000KT 05/02 A3002 500 79 -500 000/00 RMK AO1 T00500017 $
54779K12N 12N20160328012510103/28/16 01:25:31  5-MIN K12N 280625Z AUTO VRB03KT 05/02 A3001 500 79 -500 VRB/03 RMK AO1 T00500017 $
54779K12N 12N20160328013010103/28/16 01:30:31  5-MIN K12N 280630Z AUTO VRB03KT 05/02 A3001 500 79 -500 VRB/03 RMK AO1 T00500017 $
54779K12N 12N20160328013510103/28/16 01:35:31  5-MIN K12N 280635Z AUTO 00000KT 05/02 A3001 500 79 -500 000/00 RMK AO1 T00500017 $
54779K12N 12N20160328014010103/28/16 01:40:31  5-MIN K12N 280640Z AUTO VRB04KT 05/02 A3000 510 79 -500 VRB/04 RMK AO1 T00500017 $
54779K12N 12N20160328014510803/28/16 01:45:31  5-MIN K12N 280645Z AUTO 00000KT 05/02 A2999 520 79 -500 000/00 RMK AO1 PRESFR T00500017 $
54779K12N 12N20160328015010803/28/16 01:50:31  5-MIN K12N 280650Z AUTO VRB03KT 05/02 A2999 520 79 -500 VRB/03 RMK AO1 SLP158 T00500017 $
54779K12N 12N20160328015510103/28/16 01:55:31  5-MIN K12N 280655Z AUTO 00000KT 05/02 A2998 530 79 -500 000/00 RMK AO1 T00500017 $
54779K12N 12N20160328020010103/28/16 02:00:31  5-MIN K12N 280700Z AUTO 05003KT 05/02 A2998 530 82 -500 070/03 RMK AO1 T00500022 $
54779K12N 12N20160328020510103/28/16 02:05:31  5-MIN K12N 280705Z AUTO 04003KT 05/02 A2998 530 82 -500 050/03 RMK AO1 T00500022 $
54779K12N 12N20160328021010103/28/16 02:10:31  5-MIN K12N 280710Z AUTO VRB03KT 05/02 A2998 530 82 -500 VRB/03 RMK AO1 T00500022 $
54779K12N 12N20160328021510103/28/16 02:15:31  5-MIN K12N 280715Z AUTO 05003KT 05/02 A2997 540 82 -500 060/03 RMK AO1 T00500022 $
54779K12N 12N20160328022010103/28/16 02:20:31  5-MIN K12N 280720Z AUTO 00000KT 05/02 A2997 540 82 -400 000/00 RMK AO1 T00500022 $
54779K12N 12N20160328022510103/28/16 02:25:31  5-MIN K12N 280725Z AUTO 05003KT 05/02 A2996 550 82 -400 060/03 RMK AO1 T00500022 $
54779K12N 12N20160328023010103/28/16 02:30:31  5-MIN K12N 280730Z AUTO 00000KT 05/03 A2996 550 85 -400 000/00 RMK AO1 T00500028 $
54779K12N 12N20160328023510103/28/16 02:35:31  5-MIN K12N 280735Z AUTO VRB03KT 05/03 A2996 550 85 -400 VRB/03 RMK AO1 T00500028 $
54779K12N 12N20160328024010103/28/16 02:40:31  5-MIN K12N 280740Z AUTO 00000KT 04/03 A2995 560 89 -500 000/00 RMK AO1 T00440028 $
54779K12N 12N20160328024510103/28/16 02:45:31  5-MIN K12N 280745Z AUTO 05004KT 04/03 A2994 560 89 -500 060/04 RMK AO1 T00440028 $
54779K12N 12N20160328025010803/28/16 02:50:31  5-MIN K12N 280750Z AUTO 04003KT 04/03 A2994 570 92 -500 050/03 RMK AO1 SLP141 T00440033 $
54779K12N 12N20160328025510103/28/16 02:55:31  5-MIN K12N 280755Z AUTO 00000KT 04/03 A2993 570 92 -500 000/00 RMK AO1 T00440033 $
54779K12N 12N20160328030010103/28/16 03:00:31  5-MIN K12N 280800Z AUTO VRB03KT 04/03 A2993 580 92 -500 VRB/03 RMK AO1 T00440033 $
54779K12N 12N20160328030510103/28/16 03:05:31  5-MIN K12N 280805Z AUTO VRB03KT 04/03 A2993 580 92 -500 VRB/03 RMK AO1 T00440033 $
54779K12N 12N20160328031010803/28/16 03:10:31  5-MIN K12N 280810Z AUTO 03004KT 04/03 A2992 590 92 -500 040/04 RMK AO1 PRESFR T00440033 $
54779K12N 12N20160328031510103/28/16 03:15:31  5-MIN K12N 280815Z AUTO VRB03KT 04/03 A2992 590 92 -500 VRB/03 RMK AO1 T00440033 $
54779K12N 12N20160328032010103/28/16 03:20:31  5-MIN K12N 280820Z AUTO 00000KT 04/03 A2991 590 92 -400 000/00 RMK AO1 T00440033 $
54779K12N 12N20160328032510103/28/16 03:25:31  5-MIN K12N 280825Z AUTO 00000KT 04/03 A2991 590 92 -500 000/00 RMK AO1 T00440033 $
54779K12N 12N20160328033010103/28/16 03:30:31  5-MIN K12N 280830Z AUTO VRB03KT 04/04 A2991 600 96 -400 VRB/03 RMK AO1 T00440039 $
54779K12N 12N20160328033510103/28/16 03:35:31  5-MIN K12N 280835Z AUTO 00000KT 04/04 A2990 600 96 -400 000/00 RMK AO1 T00440039 $
54779K12N 12N20160328034010103/28/16 03:40:31  5-MIN K12N 280840Z AUTO 00000KT 04/03 A2990 610 92 -400 000/00 RMK AO1 T00440033 $
54779K12N 12N20160328034510103/28/16 03:45:31  5-MIN K12N 280845Z AUTO 04003KT 04/03 A2989 610 92 -400 050/03 RMK AO1 T00440033 $
54779K12N 12N20160328035012103/28/16 03:50:31  5-MIN K12N 280850Z AUTO 04003KT 04/03 A2989 620 92 -400 060/03 RMK AO1 PRESFR SLP124 T00440033 56037 $
54779K12N 12N20160328035510103/28/16 03:55:31  5-MIN K12N 280855Z AUTO 00000KT 04/03 A2988 620 92 -400 000/00 RMK AO1 T00440033 $
54779K12N 12N20160328040010103/28/16 04:00:31  5-MIN K12N 280900Z AUTO 00000KT 04/03 A2988 620 92 -400 000/00 RMK AO1 T00440033 $
54779K12N 12N20160328040510103/28/16 04:05:31  5-MIN K12N 280905Z AUTO 00000KT 04/03 A2988 630 92 -400 000/00 RMK AO1 T00440033 $
54779K12N 12N20160328041010103/28/16 04:10:31  5-MIN K12N 280910Z AUTO 04004KT 04/03 A2987 630 92 -400 060/04 RMK AO1 T00440033 $
54779K12N 12N20160328041510103/28/16 04:15:31  5-MIN K12N 280915Z AUTO VRB03KT 04/03 A2987 630 92 -400 VRB/03 RMK AO1 T00440033 $
54779K12N 12N20160328042010103/28/16 04:20:31  5-MIN K12N 280920Z AUTO 07003KT 04/03 A2986 640 92 -400 090/03 RMK AO1 T00440033 $
54779K12N 12N20160328042510103/28/16 04:25:31  5-MIN K12N 280925Z AUTO 00000KT 05/03 A2986 640 89 -300 000/00 RMK AO1 T00500033 $
54779K12N 12N20160328043010703/28/16 04:30:31  5-MIN K12N 280930Z AUTO VRB03KT 05/03 A2985 650 89 -300 VRB/03 RMK AO1 P0001 T00500033 $
54779K12N 12N20160328043510703/28/16 04:35:31  5-MIN K12N 280935Z AUTO VRB04KT 05/03 A2985 650 89 -300 VRB/04 RMK AO1 P0001 T00500033 $
54779K12N 12N20160328044010703/28/16 04:40:31  5-MIN K12N 280940Z AUTO VRB03KT 05/03 A2985 650 89 -300 VRB/03 RMK AO1 P0001 T00500033 $
54779K12N 12N20160328044510703/28/16 04:45:31  5-MIN K12N 280945Z AUTO VRB03KT 05/04 A2984 660 92 -300 VRB/03 RMK AO1 P0001 T00500039 $
54779K12N 12N20160328045011403/28/16 04:50:31  5-MIN K12N 280950Z AUTO 00000KT 05/04 A2984 660 92 -300 000/00 RMK AO1 SLP110 P0001 T00500039 $
54779K12N 12N20160328045510103/28/16 04:55:31  5-MIN K12N 280955Z AUTO 34004KT 05/04 A2984 660 92 -300 360/04 RMK AO1 T00500039 $
54779K12N 12N20160328050010103/28/16 05:00:31  5-MIN K12N 281000Z AUTO 36003KT 05/04 A2984 660 92 -300 010/03 RMK AO1 T00500039 $
54779K12N 12N20160328050510103/28/16 05:05:31  5-MIN K12N 281005Z AUTO 00000KT 05/04 A2984 660 92 -300 000/00 RMK AO1 T00500039 $
54779K12N 12N20160328051010103/28/16 05:10:31  5-MIN K12N 281010Z AUTO 00000KT 05/04 A2983 670 92 -300 000/00 RMK AO1 T00500039 $
54779K12N 12N20160328051510103/28/16 05:15:31  5-MIN K12N 281015Z AUTO 00000KT 05/04 A2982 680 92 -300 000/00 RMK AO1 T00500039 $
54779K12N 12N20160328052010803/28/16 05:20:31  5-MIN K12N 281020Z AUTO VRB04KT 05/04 A2981 680 92 -300 VRB/04 RMK AO1 PRESFR T00500039 $
54779K12N 12N20160328052510103/28/16 05:25:31  5-MIN K12N 281025Z AUTO 35005KT 05/04 A2981 680 92 -300 010/05 RMK AO1 T00500039 $
54779K12N 12N20160328053010103/28/16 05:30:31  5-MIN K12N 281030Z AUTO 02003KT 05/04 A2981 690 92 -300 030/03 RMK AO1 T00500039 $
54779K12N 12N20160328053510103/28/16 05:35:31  5-MIN K12N 281035Z AUTO VRB04KT 05/04 A2981 690 92 -300 VRB/04 RMK AO1 T00500039 $
54779K12N 12N20160328054010103/28/16 05:40:31  5-MIN K12N 281040Z AUTO VRB04KT 05/04 A2980 700 92 -300 VRB/04 RMK AO1 T00500039 $
54779K12N 12N20160328054510103/28/16 05:45:31  5-MIN K12N 281045Z AUTO VRB03KT 05/04 A2980 690 92 -300 VRB/03 RMK AO1 T00500039 $
54779K12N 12N20160328055010803/28/16 05:50:31  5-MIN K12N 281050Z AUTO 34004KT 05/04 A2980 700 96 -300 360/04 RMK AO1 SLP094 T00500044 $
54779K12N 12N20160328055510103/28/16 05:55:31  5-MIN K12N 281055Z AUTO 00000KT 05/04 A2979 700 96 -200 000/00 RMK AO1 T00500044 $
54779K12N 12N20160328060010103/28/16 06:00:31  5-MIN K12N 281100Z AUTO 01003KT 05/04 A2979 700 96 -200 020/03 RMK AO1 T00500044 $
54779K12N 12N20160328060510103/28/16 06:05:31  5-MIN K12N 281105Z AUTO 00000KT 05/04 A2979 710 96 -200 000/00 RMK AO1 T00500044 $
54779K12N 12N20160328061010103/28/16 06:10:31  5-MIN K12N 281110Z AUTO 27003KT 05/04 A2981 690 96 -300 280/03 RMK AO1 T00500044 $
54779K12N 12N20160328061510703/28/16 06:15:31  5-MIN K12N 281115Z AUTO VRB05KT 06/04 A2981 690 92 -200 VRB/05 RMK AO1 P0002 T00560044 $
54779K12N 12N20160328062010703/28/16 06:20:31  5-MIN K12N 281120Z AUTO 10004KT 06/04 A2978 710 92 -200 120/04 RMK AO1 P0005 T00560044 $
54779K12N 12N20160328062510703/28/16 06:25:31  5-MIN K12N 281125Z AUTO VRB05KT 06/05 A2980 700 96 -200 VRB/05 RMK AO1 P0010 T00560050 $
54779K12N 12N20160328063010703/28/16 06:30:31  5-MIN K12N 281130Z AUTO 32004KT 06/04 A2980 700 92 -200 330/04 RMK AO1 P0011 T00560044 $
54779K12N 12N20160328063510703/28/16 06:35:31  5-MIN K12N 281135Z AUTO 00000KT 05/04 A2979 710 96 -200 000/00 RMK AO1 P0014 T00500044 $
54779K12N 12N20160328064010703/28/16 06:40:31  5-MIN K12N 281140Z AUTO 00000KT 06/05 A2979 710 96 -200 000/00 RMK AO1 P0015 T00560050 $
54779K12N 12N20160328064510703/28/16 06:45:31  5-MIN K12N 281145Z AUTO 01003KT 06/04 A2979 710 92 -200 020/03 RMK AO1 P0016 T00560044 $
54779K12N 12N20160328065014403/28/16 06:50:31  5-MIN K12N 281150Z AUTO 04003KT 05/04 A2979 710 96 -200 050/03 RMK AO1 SLP091 P0017 60018 70018 T00500044 10056 20044 56052 $
54779K12N 12N20160328065510103/28/16 06:55:31  5-MIN K12N 281155Z AUTO 03004KT 05/04 A2978 710 96 -200 050/04 RMK AO1 T00500044 $
54779K12N 12N20160328070010703/28/16 07:00:31  5-MIN K12N 281200Z AUTO VRB03KT 05/04 A2978 710 96 -200 VRB/03 RMK AO1 P0001 T00500044 $
54779K12N 12N20160328070510703/28/16 07:05:31  5-MIN K12N 281205Z AUTO 00000KT 05/04 A2978 720 96 -200 000/00 RMK AO1 P0002 T00500044 $
54779K12N 12N20160328071010703/28/16 07:10:31  5-MIN K12N 281210Z AUTO 04003KT 05/04 A2977 720 96 -200 050/03 RMK AO1 P0002 T00500044 $
54779K12N 12N20160328071510703/28/16 07:15:31  5-MIN K12N 281215Z AUTO 04003KT 05/04 A2977 720 96 -200 060/03 RMK AO1 P0003 T00500044 $
54779K12N 12N20160328072010703/28/16 07:20:31  5-MIN K12N 281220Z AUTO VRB03KT 05/04 A2977 730 96 -200 VRB/03 RMK AO1 P0003 T00500044 $
54779K12N 12N20160328072510703/28/16 07:25:31  5-MIN K12N 281225Z AUTO 00000KT 05/04 A2976 730 96 -200 000/00 RMK AO1 P0003 T00500044 $
54779K12N 12N20160328073010703/28/16 07:30:31  5-MIN K12N 281230Z AUTO 00000KT 06/04 A2976 730 92 -100 000/00 RMK AO1 P0004 T00560044 $
54779K12N 12N20160328073510703/28/16 07:35:31  5-MIN K12N 281235Z AUTO 34003KT 05/04 A2976 730 96 -200 350/03 RMK AO1 P0005 T00500044 $
54779K12N 12N20160328074010703/28/16 07:40:31  5-MIN K12N 281240Z AUTO 00000KT 05/04 A2976 740 96 -200 000/00 RMK AO1 P0006 T00500044 $
54779K12N 12N20160328074510703/28/16 07:45:31  5-MIN K12N 281245Z AUTO 00000KT 05/04 A2975 740 96 -200 000/00 RMK AO1 P0006 T00500044 $
54779K12N 12N20160328075011403/28/16 07:50:31  5-MIN K12N 281250Z AUTO 05004KT 05/04 A2975 740 96 -200 060/04 RMK AO1 SLP078 P0006 T00500044 $
54779K12N 12N20160328075510703/28/16 07:55:31  5-MIN K12N 281255Z AUTO 02003KT 05/04 A2974 750 96 -200 040/03 RMK AO1 P0001 T00500044 $
54779K12N 12N20160328080010703/28/16 08:00:31  5-MIN K12N 281300Z AUTO VRB03KT 05/04 A2974 750 96 -200 VRB/03 RMK AO1 P0001 T00500044 $
54779K12N 12N20160328080511403/28/16 08:05:31  5-MIN K12N 281305Z AUTO 03003KT 05/04 A2973 760 96 -200 040/03 RMK AO1 PRESFR P0002 T00500044 $
54779K12N 12N20160328081010703/28/16 08:10:31  5-MIN K12N 281310Z AUTO VRB03KT 05/04 A2973 760 96 -200 VRB/03 RMK AO1 P0002 T00500044 $
54779K12N 12N20160328081510703/28/16 08:15:31  5-MIN K12N 281315Z AUTO 00000KT 06/04 A2972 770 92 -100 000/00 RMK AO1 P0003 T00560044 $
54779K12N 12N20160328082010703/28/16 08:20:31  5-MIN K12N 281320Z AUTO 03003KT 06/04 A2972 770 92 -100 040/03 RMK AO1 P0003 T00560044 $
54779K12N 12N20160328082510703/28/16 08:25:31  5-MIN K12N 281325Z AUTO VRB03KT 06/05 A2971 780 96 -100 VRB/03 RMK AO1 P0003 T00560050 $
54779K12N 12N20160328083011403/28/16 08:30:31  5-MIN K12N 281330Z AUTO VRB03KT 06/05 A2971 780 96 -100 VRB/03 RMK AO1 PRESFR P0004 T00560050 $
54779K12N 12N20160328083510703/28/16 08:35:31  5-MIN K12N 281335Z AUTO 00000KT 06/05 A2970 790 96 -100 000/00 RMK AO1 P0004 T00560050 $
54779K12N 12N20160328084010703/28/16 08:40:31  5-MIN K12N 281340Z AUTO 00000KT 06/05 A2970 790 96 -100 000/00 RMK AO1 P0004 T00560050 $
54779K12N 12N20160328084510403/28/16 08:45:31  5-MIN K12N 281345Z AUTO 00000KT 06/05 A2970 790 93 0 000/00 RMK AO1 P0004 T00610050 $
54779K12N 12N20160328085011403/28/16 08:50:31  5-MIN K12N 281350Z AUTO VRB03KT 06/05 A2969 800 96 -100 VRB/03 RMK AO1 SLP060 P0005 T00560050 $
54779K12N 12N20160328085509803/28/16 08:55:31  5-MIN K12N 281355Z AUTO 00000KT 06/05 A2969 800 93 0 000/00 RMK AO1 T00610050 $
54779K12N 12N20160328090009803/28/16 09:00:31  5-MIN K12N 281400Z AUTO 00000KT 06/05 A2968 800 93 0 000/00 RMK AO1 T00610050 $
54779K12N 12N20160328090510403/28/16 09:05:31  5-MIN K12N 281405Z AUTO VRB03KT 06/06 A2968 810 96 0 VRB/03 RMK AO1 P0001 T00610056 $
54779K12N 12N20160328091010403/28/16 09:10:31  5-MIN K12N 281410Z AUTO 00000KT 07/06 A2967 810 93 0 000/00 RMK AO1 P0001 T00670056 $
54779K12N 12N20160328091511103/28/16 09:15:31  5-MIN K12N 281415Z AUTO 00000KT 06/06 A2967 820 96 0 000/00 RMK AO1 PRESFR P0001 T00610056 $
54779K12N 12N20160328092010603/28/16 09:20:31  5-MIN K12N 281420Z AUTO 00000KT 07/06 A2966 820 93 100 000/00 RMK AO1 P0001 T00670056 $
54779K12N 12N20160328092510603/28/16 09:25:31  5-MIN K12N 281425Z AUTO 00000KT 07/06 A2966 830 93 100 000/00 RMK AO1 P0001 T00670056 $
54779K12N 12N20160328093010603/28/16 09:30:31  5-MIN K12N 281430Z AUTO VRB03KT 07/06 A2965 830 93 100 VRB/03 RMK AO1 P0001 T00670056 $
54779K12N 12N20160328093510603/28/16 09:35:31  5-MIN K12N 281435Z AUTO 36003KT 07/06 A2966 830 93 100 010/03 RMK AO1 P0001 T00670056 $
54779K12N 12N20160328094010603/28/16 09:40:31  5-MIN K12N 281440Z AUTO 00000KT 07/06 A2966 830 93 100 000/00 RMK AO1 P0001 T00670056 $
54779K12N 12N20160328094510603/28/16 09:45:31  5-MIN K12N 281445Z AUTO 07003KT 07/06 A2964 840 93 100 080/03 RMK AO1 P0001 T00670056 $
54779K12N 12N20160328095012503/28/16 09:50:31  5-MIN K12N 281450Z AUTO VRB03KT 07/06 A2964 840 93 100 VRB/03 RMK AO1 SLP042 P0001 60012 T00670056 56033 $
54779K12N 12N20160328095510703/28/16 09:55:31  5-MIN K12N 281455Z AUTO 06003KT 07/06 A2963 850 93 100 070/03 RMK AO1 PRESFR T00670056 $
54779K12N 12N20160328100010003/28/16 10:00:31  5-MIN K12N 281500Z AUTO 35004KT 07/06 A2963 850 96 100 360/04 RMK AO1 T00670061 $
54779K12N 12N20160328100510003/28/16 10:05:31  5-MIN K12N 281505Z AUTO 00000KT 07/06 A2963 860 93 100 000/00 RMK AO1 T00670056 $
54779K12N 12N20160328101010003/28/16 10:10:31  5-MIN K12N 281510Z AUTO 35003KT 07/06 A2962 860 96 100 360/03 RMK AO1 T00670061 $
54779K12N 12N20160328101510003/28/16 10:15:31  5-MIN K12N 281515Z AUTO 00000KT 07/06 A2962 860 89 200 000/00 RMK AO1 T00720056 $
54779K12N 12N20160328102010003/28/16 10:20:31  5-MIN K12N 281520Z AUTO 00000KT 07/06 A2963 860 93 200 000/00 RMK AO1 T00720061 $
54779K12N 12N20160328102510003/28/16 10:25:31  5-MIN K12N 281525Z AUTO 00000KT 07/06 A2963 860 93 200 000/00 RMK AO1 T00720061 $
54779K12N 12N20160328103010003/28/16 10:30:31  5-MIN K12N 281530Z AUTO 00000KT 08/06 A2963 850 89 200 000/00 RMK AO1 T00780061 $
54779K12N 12N20160328103510003/28/16 10:35:31  5-MIN K12N 281535Z AUTO 00000KT 08/06 A2964 850 89 200 000/00 RMK AO1 T00780061 $
54779K12N 12N20160328104010003/28/16 10:40:31  5-MIN K12N 281540Z AUTO 00000KT 08/07 A2964 850 93 200 000/00 RMK AO1 T00780067 $
54779K12N 12N20160328104510003/28/16 10:45:31  5-MIN K12N 281545Z AUTO 00000KT 08/06 A2964 850 89 200 000/00 RMK AO1 T00780061 $
54779K12N 12N20160328105010703/28/16 10:50:31  5-MIN K12N 281550Z AUTO 23004KT 08/06 A2964 850 89 200 240/04 RMK AO1 SLP040 T00780061 $
54779K12N 12N20160328105510003/28/16 10:55:31  5-MIN K12N 281555Z AUTO 21004KT 08/06 A2964 850 89 200 220/04 RMK AO1 T00780061 $
54779K12N 12N20160328110010003/28/16 11:00:31  5-MIN K12N 281600Z AUTO 00000KT 08/06 A2963 850 89 200 000/00 RMK AO1 T00780061 $
54779K12N 12N20160328110510003/28/16 11:05:31  5-MIN K12N 281605Z AUTO 00000KT 08/07 A2963 860 93 200 000/00 RMK AO1 T00780067 $
54779K12N 12N20160328111010003/28/16 11:10:31  5-MIN K12N 281610Z AUTO 14003KT 08/06 A2962 860 89 200 160/03 RMK AO1 T00780061 $
54779K12N 12N20160328111510003/28/16 11:15:31  5-MIN K12N 281615Z AUTO 00000KT 08/07 A2962 870 93 200 000/00 RMK AO1 T00780067 $
54779K12N 12N20160328112010003/28/16 11:20:31  5-MIN K12N 281620Z AUTO 00000KT 08/07 A2962 870 93 200 000/00 RMK AO1 T00780067 $
54779K12N 12N20160328112510003/28/16 11:25:31  5-MIN K12N 281625Z AUTO 00000KT 08/07 A2962 870 89 300 000/00 RMK AO1 T00830067 $
54779K12N 12N20160328113010003/28/16 11:30:31  5-MIN K12N 281630Z AUTO 00000KT 08/07 A2961 870 89 300 000/00 RMK AO1 T00830067 $
54779K12N 12N20160328113510003/28/16 11:35:31  5-MIN K12N 281635Z AUTO 00000KT 08/07 A2961 870 93 300 000/00 RMK AO1 T00780067 $
54779K12N 12N20160328114010003/28/16 11:40:31  5-MIN K12N 281640Z AUTO 00000KT 08/07 A2961 870 89 300 000/00 RMK AO1 T00830067 $
54779K12N 12N20160328114510003/28/16 11:45:31  5-MIN K12N 281645Z AUTO VRB03KT 08/07 A2961 870 93 200 VRB/03 RMK AO1 T00780067 $
54779K12N 12N20160328115010703/28/16 11:50:31  5-MIN K12N 281650Z AUTO 00000KT 08/07 A2961 870 89 300 000/00 RMK AO1 SLP032 T00830067 $
54779K12N 12N20160328115510003/28/16 11:55:31  5-MIN K12N 281655Z AUTO 22005KT 08/07 A2961 870 89 300 230/05 RMK AO1 T00830067 $
54779K12N 12N20160328120010003/28/16 12:00:31  5-MIN K12N 281700Z AUTO VRB04KT 08/07 A2961 870 89 300 VRB/04 RMK AO1 T00830067 $
54779K12N 12N20160328120510003/28/16 12:05:31  5-MIN K12N 281705Z AUTO 24003KT 08/07 A2961 870 89 300 260/03 RMK AO1 T00830067 $
54779K12N 12N20160328121010003/28/16 12:10:31  5-MIN K12N 281710Z AUTO 24005KT 08/07 A2961 870 89 300 250/05 RMK AO1 T00830067 $
54779K12N 12N20160328121510003/28/16 12:15:31  5-MIN K12N 281715Z AUTO 23003KT 08/07 A2960 880 89 300 240/03 RMK AO1 T00830067 $
54779K12N 12N20160328122010003/28/16 12:20:31  5-MIN K12N 281720Z AUTO 23004KT 08/07 A2960 880 93 300 240/04 RMK AO1 T00830072 $
54779K12N 12N20160328122510003/28/16 12:25:31  5-MIN K12N 281725Z AUTO 23003KT 08/07 A2960 880 93 300 250/03 RMK AO1 T00830072 $
54779K12N 12N20160328123010003/28/16 12:30:31  5-MIN K12N 281730Z AUTO 22004KT 09/07 A2959 890 89 400 230/04 RMK AO1 T00890072 $
54779K12N 12N20160328123510003/28/16 12:35:31  5-MIN K12N 281735Z AUTO 00000KT 09/08 A2959 890 93 400 000/00 RMK AO1 T00890078 $
54779K12N 12N20160328124010003/28/16 12:40:31  5-MIN K12N 281740Z AUTO VRB05KT 09/08 A2959 900 89 500 VRB/05 RMK AO1 T00940078 $
54779K12N 12N20160328124510003/28/16 12:45:31  5-MIN K12N 281745Z AUTO VRB05KT 09/08 A2959 900 89 500 VRB/05 RMK AO1 T00940078 $
54779K12N 12N20160328125013103/28/16 12:50:31  5-MIN K12N 281750Z AUTO VRB03KT 09/08 A2958 900 89 500 VRB/03 RMK AO1 SLP022 60012 T00940078 10094 20050 58050 $
54779K12N 12N20160328125510003/28/16 12:55:31  5-MIN K12N 281755Z AUTO 21007KT 09/08 A2958 900 89 500 220/07 RMK AO1 T00940078 $
54779K12N 12N20160328130010003/28/16 13:00:31  5-MIN K12N 281800Z AUTO VRB04KT 10/08 A2958 900 86 600 VRB/04 RMK AO1 T01000078 $
54779K12N 12N20160328130510003/28/16 13:05:31  5-MIN K12N 281805Z AUTO 22008KT 10/08 A2958 900 86 600 240/08 RMK AO1 T01000078 $
54779K12N 12N20160328131012203/28/16 13:10:31  5-MIN K12N 281810Z AUTO 24007G14KT 200V260 10/08 A2957 910 86 600 250/07G14 210V270 RMK AO1 T01000078 $
54779K12N 12N20160328131512203/28/16 13:15:31  5-MIN K12N 281815Z AUTO 22007G14KT 180V250 11/08 A2957 910 83 600 230/07G14 190V260 RMK AO1 T01060078 $
54779K12N 12N20160328132010003/28/16 13:20:31  5-MIN K12N 281820Z AUTO VRB04KT 11/08 A2956 920 80 700 VRB/04 RMK AO1 T01110078 $
54779K12N 12N20160328132510003/28/16 13:25:31  5-MIN K12N 281825Z AUTO 24008KT 11/08 A2956 920 83 700 250/08 RMK AO1 T01110083 $
54779K12N 12N20160328133010003/28/16 13:30:31  5-MIN K12N 281830Z AUTO VRB06KT 12/08 A2955 930 77 800 VRB/06 RMK AO1 T01170078 $
54779K12N 12N20160328133509803/28/16 13:35:31  5-MIN K12N 281835Z AUTO VRB05KT 12/08 A2955 930 77 800 VRB/05 RMK AO1 T01170078
54779K12N 12N20160328134012003/28/16 13:40:31  5-MIN K12N 281840Z AUTO 24007G14KT 200V270 12/08 A2955 930 77 800 250/07G14 210V280 RMK AO1 T01170078
54779K12N 12N20160328134510403/28/16 13:45:31  5-MIN K12N 281845Z AUTO 21008G14KT 12/08 A2955 930 77 800 220/08G14 RMK AO1 T01170078
54779K12N 12N20160328135012103/28/16 13:50:31  5-MIN K12N 281850Z AUTO 24008KT 210V270 13/08 A2955 930 74 900 250/08 220V280 RMK AO1 SLP007 T01280083
54779K12N 12N20160328135512003/28/16 13:55:31  5-MIN K12N 281855Z AUTO 25008G15KT 210V270 13/08 A2955 930 71 900 260/08G15 220V280 RMK AO1 T01280078
54779K12N 12N20160328140010503/28/16 14:00:31  5-MIN K12N 281900Z AUTO VRB05G15KT 13/08 A2954 930 71 1000 VRB/05G15 RMK AO1 T01330083
54779K12N 12N20160328140510503/28/16 14:05:31  5-MIN K12N 281905Z AUTO 22012G17KT 13/08 A2954 940 71 1000 230/12G17 RMK AO1 T01330083
54779K12N 12N20160328141012003/28/16 14:10:31  5-MIN K12N 281910Z AUTO 22009G17KT 170V270 13/08 A2954 940 71 900 230/09G17 180V280 RMK AO1 T01280078
54779K12N 12N20160328141510503/28/16 14:15:31  5-MIN K12N 281915Z AUTO 21007G15KT 13/08 A2954 940 71 1000 230/07G15 RMK AO1 T01330083
54779K12N 12N20160328142012103/28/16 14:20:31  5-MIN K12N 281920Z AUTO 23007G15KT 190V270 14/08 A2953 940 69 1100 250/07G15 200V280 RMK AO1 T01390083
54779K12N 12N20160328142511503/28/16 14:25:31  5-MIN K12N 281925Z AUTO 23008KT 190V270 14/08 A2953 940 69 1100 250/08 200V280 RMK AO1 T01390083
54779K12N 12N20160328143010503/28/16 14:30:31  5-MIN K12N 281930Z AUTO 24010G18KT 14/08 A2954 940 66 1100 250/10G18 RMK AO1 T01390078
54779K12N 12N20160328143510503/28/16 14:35:31  5-MIN K12N 281935Z AUTO 22006G18KT 13/08 A2953 940 69 1000 240/06G18 RMK AO1 T01330078
54779K12N 12N20160328144010503/28/16 14:40:31  5-MIN K12N 281940Z AUTO 23012G19KT 13/08 A2953 940 69 1000 240/12G19 RMK AO1 T01330078
54779K12N 12N20160328144512103/28/16 14:45:31  5-MIN K12N 281945Z AUTO 23008G19KT 200V290 13/08 A2953 950 71 1000 240/08G19 210V300 RMK AO1 T01330083
54779K12N 12N20160328145011203/28/16 14:50:31  5-MIN K12N 281950Z AUTO 23007G15KT 14/08 A2953 950 69 1100 240/07G15 RMK AO1 SLP001 T01390083
54779K12N 12N20160328145511503/28/16 14:55:31  5-MIN K12N 281955Z AUTO 24009KT 210V270 13/08 A2952 950 69 1000 250/09 220V280 RMK AO1 T01330078
54779K12N 12N20160328150009903/28/16 15:00:31  5-MIN K12N 282000Z AUTO 23007KT 13/08 A2952 960 69 1000 240/07 RMK AO1 T01330078
54779K12N 12N20160328150511503/28/16 15:05:31  5-MIN K12N 282005Z AUTO 23007KT 200V260 13/08 A2952 960 69 1000 250/07 210V270 RMK AO1 T01330078
54779K12N 12N20160328151009903/28/16 15:10:31  5-MIN K12N 282010Z AUTO VRB05KT 14/08 A2952 960 66 1200 VRB/05 RMK AO1 T01440083
54779K12N 12N20160328151510503/28/16 15:15:31  5-MIN K12N 282015Z AUTO VRB06G15KT 15/08 A2952 960 62 1200 VRB/06G15 RMK AO1 T01500078
54779K12N 12N20160328152008903/28/16 15:20:31  5-MIN K12N 282020Z AUTO 14/07 A2952 960 59 1200 M /M RMK AO1 T01440067
54779K12N 12N20160328152513903/28/16 15:25:31  5-MIN K12N 282025Z AUTO 23014G26KT 200V270 15/03 A2952 950 45 1200 240/14G26 210V280 RMK AO1 PK WND 22026/2023 T01500033
54779K12N 12N20160328153012303/28/16 15:30:31  5-MIN K12N 282030Z AUTO VRB06G26KT 15/02 A2953 950 40 1200 VRB/06G26 RMK AO1 PK WND 22026/2023 T01500017
54779K12N 12N20160328153512303/28/16 15:35:31  5-MIN K12N 282035Z AUTO VRB05G25KT 14/02 A2953 950 43 1100 VRB/05G25 RMK AO1 PK WND 22026/2023 T01440022
54779K12N 12N20160328154010703/28/16 15:40:31  5-MIN K12N 282040Z AUTO 14/02 A2953 950 43 1100 M /M RMK AO1 PK WND 22026/2023 T01440022
54779K12N 12N20160328154512303/28/16 15:45:31  5-MIN K12N 282045Z AUTO VRB06G20KT 14/02 A2954 940 43 1100 VRB/06G20 RMK AO1 PK WND 22026/2023 T01390017
54779K12N 12N20160328155015203/28/16 15:50:31  5-MIN K12N 282050Z AUTO 24008G17KT 190V280 14/02 A2954 940 45 1100 250/08G17 200V290 RMK AO1 PK WND 22026/2023 SLP005 T01390022 58018
54779K12N 12N20160328155512103/28/16 15:55:31  5-MIN K12N 282055Z AUTO 25010G25KT 210V310 14/02 A2954 940 43 1100 260/10G25 220V320 RMK AO1 T01390017
54779K12N 12N20160328160012103/28/16 16:00:31  5-MIN K12N 282100Z AUTO 25009G25KT 210V300 14/02 A2954 940 43 1100 270/09G25 220V310 RMK AO1 T01390017
54779K12N 12N20160328160512103/28/16 16:05:31  5-MIN K12N 282105Z AUTO 24011G19KT 200V280 13/02 A2954 940 45 1000 250/11G19 210V290 RMK AO1 T01330017
54779K12N 12N20160328161010503/28/16 16:10:31  5-MIN K12N 282110Z AUTO 24012G22KT 13/02 A2954 940 45 1000 250/12G22 RMK AO1 T01330017
54779K12N 12N20160328161512103/28/16 16:15:31  5-MIN K12N 282115Z AUTO 26011G22KT 220V330 13/02 A2954 940 45 1000 270/11G22 230V340 RMK AO1 T01330017
54779K12N 12N20160328162012103/28/16 16:20:31  5-MIN K12N 282120Z AUTO 23013G22KT 150V300 13/02 A2954 940 45 1000 240/13G22 160V310 RMK AO1 T01330017
54779K12N 12N20160328162512103/28/16 16:25:31  5-MIN K12N 282125Z AUTO 24007G24KT 180V290 13/02 A2954 940 45 1000 260/07G24 190V300 RMK AO1 T01330017
54779K12N 12N20160328163012003/28/16 16:30:31  5-MIN K12N 282130Z AUTO 24008G24KT 190V320 13/02 A2954 940 46 900 260/08G24 200V330 RMK AO1 T01280017
54779K12N 12N20160328163512003/28/16 16:35:31  5-MIN K12N 282135Z AUTO 23009G17KT 200V280 13/02 A2954 940 46 900 240/09G17 210V290 RMK AO1 T01280017
54779K12N 12N20160328164012103/28/16 16:40:31  5-MIN K12N 282140Z AUTO 26011G19KT 210V320 13/02 A2954 940 45 1000 280/11G19 220V330 RMK AO1 T01330017
54779K12N 12N20160328164508903/28/16 16:45:31  5-MIN K12N 282145Z AUTO 13/02 A2954 940 45 1000 M /M RMK AO1 T01330017
54779K12N 12N20160328165012803/28/16 16:50:31  5-MIN K12N 282150Z AUTO 25011G17KT 200V320 13/02 A2954 940 45 1000 260/11G17 210V330 RMK AO1 SLP006 T01330017
54779K12N 12N20160328165512003/28/16 16:55:31  5-MIN K12N 282155Z AUTO 24008G17KT 200V280 13/02 A2954 940 46 900 250/08G17 210V290 RMK AO1 T01280017
54779K12N 12N20160328170008803/28/16 17:00:31  5-MIN K12N 282200Z AUTO 13/02 A2954 940 46 900 M /M RMK AO1 T01280017
54779K12N 12N20160328170513803/28/16 17:05:31  5-MIN K12N 282205Z AUTO 24010G27KT 190V270 13/02 A2954 940 46 900 250/10G27 200V280 RMK AO1 PK WND 27027/2203 T01280017
54779K12N 12N20160328171013803/28/16 17:10:31  5-MIN K12N 282210Z AUTO 23011G27KT 190V260 13/02 A2955 930 46 900 240/11G27 200V270 RMK AO1 PK WND 27027/2203 T01280017
54779K12N 12N20160328171513803/28/16 17:15:31  5-MIN K12N 282215Z AUTO 26010G22KT 220V320 12/02 A2955 930 48 900 280/10G22 230V330 RMK AO1 PK WND 27027/2203 T01220017
54779K12N 12N20160328172013803/28/16 17:20:31  5-MIN K12N 282220Z AUTO 24007G19KT 200V270 12/02 A2955 930 48 900 250/07G19 210V280 RMK AO1 PK WND 27027/2203 T01220017
54779K12N 12N20160328172513803/28/16 17:25:31  5-MIN K12N 282225Z AUTO 27008G17KT 230V310 12/02 A2955 930 48 900 280/08G17 240V320 RMK AO1 PK WND 27027/2203 T01220017
54779K12N 12N20160328173013803/28/16 17:30:31  5-MIN K12N 282230Z AUTO 24012G21KT 210V290 12/02 A2955 930 48 900 260/12G21 220V300 RMK AO1 PK WND 27027/2203 T01220017
54779K12N 12N20160328173513803/28/16 17:35:31  5-MIN K12N 282235Z AUTO 24007G21KT 200V280 12/02 A2955 930 48 900 250/07G21 210V290 RMK AO1 PK WND 27027/2203 T01220017
54779K12N 12N20160328174010603/28/16 17:40:31  5-MIN K12N 282240Z AUTO 12/02 A2955 930 48 900 M /M RMK AO1 PK WND 27027/2203 T01220017
54779K12N 12N20160328174513803/28/16 17:45:31  5-MIN K12N 282245Z AUTO 25009G20KT 200V340 12/02 A2956 920 50 800 260/09G20 210V350 RMK AO1 PK WND 27027/2203 T01220022
54779K12N 12N20160328175014503/28/16 17:50:31  5-MIN K12N 282250Z AUTO 25008G20KT 190V290 12/02 A2956 920 50 800 260/08G20 200V300 RMK AO1 PK WND 27027/2203 SLP014 T01170017
54779K12N 12N20160328175510403/28/16 17:55:31  5-MIN K12N 282255Z AUTO VRB06G14KT 12/02 A2956 920 52 800 VRB/06G14 RMK AO1 T01170022
54779K12N 12N20160328180012003/28/16 18:00:31  5-MIN K12N 282300Z AUTO 23008G21KT 150V270 12/02 A2956 920 52 800 240/08G21 160V280 RMK AO1 T01170022
54779K12N 12N20160328180512003/28/16 18:05:31  5-MIN K12N 282305Z AUTO 25012G23KT 190V300 12/02 A2957 910 50 800 270/12G23 200V310 RMK AO1 T01170017
54779K12N 12N20160328181012003/28/16 18:10:31  5-MIN K12N 282310Z AUTO 24011G23KT 200V290 11/02 A2957 910 52 700 260/11G23 210V300 RMK AO1 T01110017
54779K12N 12N20160328181512003/28/16 18:15:31  5-MIN K12N 282315Z AUTO 25007G22KT 150V060 11/02 A2957 910 52 700 260/07G22 160V070 RMK AO1 T01110017
54779K12N 12N20160328182010403/28/16 18:20:31  5-MIN K12N 282320Z AUTO VRB04G19KT 11/02 A2958 900 52 700 VRB/04G19 RMK AO1 T01110017
54779K12N 12N20160328182508803/28/16 18:25:31  5-MIN K12N 282325Z AUTO 11/02 A2958 900 54 700 M /M RMK AO1 T01110022
54779K12N 12N20160328183011403/28/16 18:30:31  5-MIN K12N 282330Z AUTO 30007KT 070V030 11/02 A2958 900 52 700 310/07 080V040 RMK AO1 T01110017
54779K12N 12N20160328183512003/28/16 18:35:31  5-MIN K12N 282335Z AUTO 24014G24KT 200V270 11/02 A2958 900 52 700 250/14G24 210V280 RMK AO1 T01110017
54779K12N 12N20160328184012003/28/16 18:40:31  5-MIN K12N 282340Z AUTO 25011G24KT 190V290 11/02 A2958 900 52 700 270/11G24 200V300 RMK AO1 T01110017
54779K12N 12N20160328184512003/28/16 18:45:31  5-MIN K12N 282345Z AUTO 27010G20KT 220V320 11/02 A2959 890 54 600 280/10G20 230V330 RMK AO1 T01060017
54779K12N 12N20160328185014503/28/16 18:50:31  5-MIN K12N 282350Z AUTO 29013G24KT 210V350 11/02 A2959 890 54 600 300/13G24 220V360 RMK AO1 SLP024 T01060017 10150 20094 55013
54779K12N 12N20160328185512003/28/16 18:55:31  5-MIN K12N 282355Z AUTO 28008G24KT 190V340 11/02 A2959 890 54 600 290/08G24 200V350 RMK AO1 T01060017
54779K12N 12N20160328190010403/28/16 19:00:31  5-MIN K12N 290000Z AUTO VRB05G22KT 11/02 A2960 890 54 600 VRB/05G22 RMK AO1 T01060017
54779K12N 12N20160328190512003/28/16 19:05:31  5-MIN K12N 290005Z AUTO 29009G19KT 230V330 10/02 A2960 880 58 500 300/09G19 240V340 RMK AO1 T01000022
54779K12N 12N20160328191012003/28/16 19:10:31  5-MIN K12N 290010Z AUTO 29008G18KT 230V350 10/02 A2961 880 56 500 300/08G18 240V360 RMK AO1 T01000017
54779K12N 12N20160328191512003/28/16 19:15:31  5-MIN K12N 290015Z AUTO 30010G18KT 280V340 10/02 A2961 880 58 500 320/10G18 290V350 RMK AO1 T01000022
54779K12N 12N20160328192012003/28/16 19:20:31  5-MIN K12N 290020Z AUTO 31010G25KT 270V360 10/02 A2961 870 56 500 330/10G25 280V010 RMK AO1 T01000017
54779K12N 12N20160328192512003/28/16 19:25:31  5-MIN K12N 290025Z AUTO 30012G25KT 240V010 10/02 A2962 870 56 500 310/12G25 250V020 RMK AO1 T01000017
54779K12N 12N20160328193012003/28/16 19:30:31  5-MIN K12N 290030Z AUTO 28010G20KT 230V330 10/02 A2962 860 56 500 290/10G20 240V340 RMK AO1 T01000017
54779K12N 12N20160328193512003/28/16 19:35:31  5-MIN K12N 290035Z AUTO 28012G21KT 240V320 10/02 A2962 860 56 500 300/12G21 250V330 RMK AO1 T01000017
54779K12N 12N20160328194012003/28/16 19:40:31  5-MIN K12N 290040Z AUTO 31012G21KT 280V360 09/02 A2963 860 60 400 330/12G21 290V010 RMK AO1 T00940022
54779K12N 12N20160328194512003/28/16 19:45:31  5-MIN K12N 290045Z AUTO 31008G18KT 260V010 09/02 A2963 850 60 400 320/08G18 270V020 RMK AO1 T00940022
54779K12N 12N20160328195012703/28/16 19:50:31  5-MIN K12N 290050Z AUTO 29009G18KT 270V330 09/02 A2964 850 63 400 310/09G18 280V340 RMK AO1 SLP039 T00890022
54779K12N 12N20160328195512003/28/16 19:55:31  5-MIN K12N 290055Z AUTO 28008G19KT 230V330 09/02 A2964 850 63 400 290/08G19 240V340 RMK AO1 T00890022
54779K12N 12N20160328200012003/28/16 20:00:31  5-MIN K12N 290100Z AUTO 32011G23KT 270V030 08/03 A2964 840 68 300 330/11G23 280V040 RMK AO1 T00830028
54779K12N 12N20160328200512003/28/16 20:05:31  5-MIN K12N 290105Z AUTO 28008G23KT 200V360 08/03 A2965 840 70 200 300/08G23 210V010 RMK AO1 T00780028
54779K12N 12N20160328201012003/28/16 20:10:31  5-MIN K12N 290110Z AUTO 30008G17KT 260V340 08/03 A2966 830 70 200 310/08G17 270V350 RMK AO1 T00780028
54779K12N 12N20160328201511403/28/16 20:15:31  5-MIN K12N 290115Z AUTO 28008KT 220V330 08/03 A2966 830 70 200 300/08 230V340 RMK AO1 T00780028
54779K12N 12N20160328202011403/28/16 20:20:31  5-MIN K12N 290120Z AUTO 29007KT 240V020 08/02 A2966 830 65 300 310/07 250V030 RMK AO1 T00830022
54779K12N 12N20160328202512003/28/16 20:25:31  5-MIN K12N 290125Z AUTO 29012G22KT 210V340 08/01 A2966 820 60 300 310/12G22 220V350 RMK AO1 T00830011
54779K12N 12N20160328203012003/28/16 20:30:31  5-MIN K12N 290130Z AUTO 30007G22KT 260V340 08/01 A2967 820 58 300 320/07G22 270V350 RMK AO1 T00830006
54779K12N 12N20160328203512003/28/16 20:35:31  5-MIN K12N 290135Z AUTO 29007G19KT 190V010 08/00 A2967 820 55 300 300/07G19 200V020 RMK AO1 T00830000
54779K12N 12N20160328204010503/28/16 20:40:31  5-MIN K12N 290140Z AUTO 31010G17KT 08/M01 A2967 820 53 300 320/10G17 RMK AO1 T00831006
54779K12N 12N20160328204512103/28/16 20:45:31  5-MIN K12N 290145Z AUTO 30008G17KT 250V350 08/M01 A2967 820 53 300 310/08G17 260V360 RMK AO1 T00831006
54779K12N 12N20160328205011203/28/16 20:50:31  5-MIN K12N 290150Z AUTO 31010G18KT 08/M01 A2967 810 53 200 320/10G18 RMK AO1 SLP052 T00831006
54779K12N 12N20160328205512103/28/16 20:55:31  5-MIN K12N 290155Z AUTO 32009G25KT 280V020 08/M01 A2967 810 53 200 340/09G25 290V030 RMK AO1 T00831006
54779K12N 12N20160328210012103/28/16 21:00:31  5-MIN K12N 290200Z AUTO 29007G25KT 240V320 08/M01 A2968 810 51 200 300/07G25 250V330 RMK AO1 T00831011
54779K12N 12N20160328210508903/28/16 21:05:31  5-MIN K12N 290205Z AUTO 08/M01 A2968 810 53 200 M /M RMK AO1 T00831006
54779K12N 12N20160328211011503/28/16 21:10:31  5-MIN K12N 290210Z AUTO 26007KT 200V300 08/M01 A2968 810 53 200 270/07 210V310 RMK AO1 T00831006
54779K12N 12N20160328211511503/28/16 21:15:31  5-MIN K12N 290215Z AUTO 31007KT 260V030 08/M01 A2968 810 51 200 320/07 270V040 RMK AO1 T00831011
54779K12N 12N20160328212010503/28/16 21:20:31  5-MIN K12N 290220Z AUTO VRB05G16KT 08/M01 A2968 810 53 200 VRB/05G16 RMK AO1 T00831006
54779K12N 12N20160328212508903/28/16 21:25:31  5-MIN K12N 290225Z AUTO 08/M01 A2968 810 53 200 M /M RMK AO1 T00831006
54779K12N 12N20160328213010503/28/16 21:30:31  5-MIN K12N 290230Z AUTO VRB06G21KT 08/M01 A2968 810 53 200 VRB/06G21 RMK AO1 T00831006
54779K12N 12N20160328213512103/28/16 21:35:31  5-MIN K12N 290235Z AUTO 34010G22KT 300V020 08/M01 A2969 800 53 200 350/10G22 310V030 RMK AO1 T00831006
54779K12N 12N20160328214012103/28/16 21:40:31  5-MIN K12N 290240Z AUTO 30008G22KT 230V330 08/M01 A2969 800 53 200 310/08G22 240V340 RMK AO1 T00831006
54779K12N 12N20160328214510503/28/16 21:45:31  5-MIN K12N 290245Z AUTO 31010G18KT 08/M01 A2969 800 53 200 320/10G18 RMK AO1 T00831006
54779K12N 12N20160328215011803/28/16 21:50:31  5-MIN K12N 290250Z AUTO VRB05G18KT 08/M01 A2969 790 55 200 VRB/05G18 RMK AO1 SLP059 T00781006 53017
54779K12N 12N20160328215512103/28/16 21:55:31  5-MIN K12N 290255Z AUTO 27009G17KT 230V320 08/M01 A2970 790 55 200 280/09G17 240V330 RMK AO1 T00781006
54779K12N 12N20160328220012103/28/16 22:00:31  5-MIN K12N 290300Z AUTO 32010G19KT 270V360 08/M01 A2970 790 55 100 340/10G19 280V010 RMK AO1 T00781006
54779K12N 12N20160328220512103/28/16 22:05:31  5-MIN K12N 290305Z AUTO 28008G23KT 220V340 08/M01 A2970 790 53 200 300/08G23 230V350 RMK AO1 T00781011
54779K12N 12N20160328221012103/28/16 22:10:31  5-MIN K12N 290310Z AUTO 33008G23KT 280V360 08/M01 A2971 780 53 100 340/08G23 290V010 RMK AO1 T00781011
54779K12N 12N20160328221512103/28/16 22:15:31  5-MIN K12N 290315Z AUTO 32012G24KT 280V010 08/M01 A2971 780 53 100 330/12G24 290V020 RMK AO1 T00781011
54779K12N 12N20160328222008903/28/16 22:20:31  5-MIN K12N 290320Z AUTO 08/M01 A2970 790 53 100 M /M RMK AO1 T00781011
54779K12N 12N20160328222510503/28/16 22:25:31  5-MIN K12N 290325Z AUTO 30008G23KT 08/M01 A2971 780 53 100 310/08G23 RMK AO1 T00781011
54779K12N 12N20160328223012103/28/16 22:30:31  5-MIN K12N 290330Z AUTO 32010G19KT 260V020 08/M01 A2971 780 53 100 330/10G19 270V030 RMK AO1 T00781011
54779K12N 12N20160328223512103/28/16 22:35:31  5-MIN K12N 290335Z AUTO 29007G19KT 230V330 08/M01 A2972 770 53 100 300/07G19 240V340 RMK AO1 T00781011
54779K12N 12N20160328224012103/28/16 22:40:31  5-MIN K12N 290340Z AUTO 29008G17KT 230V330 08/M01 A2972 770 53 100 300/08G17 240V340 RMK AO1 T00781011
54779K12N 12N20160328224512103/28/16 22:45:31  5-MIN K12N 290345Z AUTO 29007G17KT 210V350 07/M01 A2972 770 55 100 310/07G17 220V360 RMK AO1 T00721011
54779K12N 12N20160328225012803/28/16 22:50:31  5-MIN K12N 290350Z AUTO 30010G21KT 280V340 07/M01 A2973 770 55 100 320/10G21 290V350 RMK AO1 SLP070 T00721011
54779K12N 12N20160328225511903/28/16 22:55:31  5-MIN K12N 290355Z AUTO 31007G21KT 230V010 07/M01 A2973 760 55 0 320/07G21 240V020 RMK AO1 T00721011
54779K12N 12N20160328230011903/28/16 23:00:31  5-MIN K12N 290400Z AUTO 31007G19KT 250V350 07/M01 A2973 760 55 0 330/07G19 260V360 RMK AO1 T00721011
54779K12N 12N20160328230511903/28/16 23:05:31  5-MIN K12N 290405Z AUTO 28011G19KT 220V330 07/M01 A2973 760 55 0 300/11G19 230V340 RMK AO1 T00721011
54779K12N 12N20160328231011903/28/16 23:10:31  5-MIN K12N 290410Z AUTO 34012G21KT 310V010 07/M01 A2974 760 55 0 350/12G21 320V020 RMK AO1 T00721011
54779K12N 12N20160328231511903/28/16 23:15:31  5-MIN K12N 290415Z AUTO 30011G21KT 240V350 07/M01 A2974 750 55 0 320/11G21 250V360 RMK AO1 T00721011
54779K12N 12N20160328232011903/28/16 23:20:31  5-MIN K12N 290420Z AUTO 31011G21KT 260V010 07/M01 A2975 750 55 0 330/11G21 270V020 RMK AO1 T00721011
54779K12N 12N20160328232510303/28/16 23:25:31  5-MIN K12N 290425Z AUTO VRB05G21KT 07/M01 A2975 750 57 0 VRB/05G21 RMK AO1 T00671011
54779K12N 12N20160328233011903/28/16 23:30:31  5-MIN K12N 290430Z AUTO 32008G19KT 250V020 07/M01 A2975 740 57 0 340/08G19 260V030 RMK AO1 T00671011
54779K12N 12N20160328233511903/28/16 23:35:31  5-MIN K12N 290435Z AUTO 33012G21KT 280V360 07/M01 A2975 740 57 0 340/12G21 290V010 RMK AO1 T00671011
54779K12N 12N20160328234008703/28/16 23:40:31  5-MIN K12N 290440Z AUTO 07/M01 A2975 740 57 0 M /M RMK AO1 T00671011
54779K12N 12N20160328234511903/28/16 23:45:31  5-MIN K12N 290445Z AUTO 33011G20KT 280V020 07/M02 A2976 740 55 0 350/11G20 290V030 RMK AO1 T00671017
54779K12N 12N20160328235010403/28/16 23:50:31  5-MIN K12N 290450Z AUTO 07/M02 A2976 740 55 0 M /M RMK AO1 SLP080 T00671017 401500044
54779K12N 12N20160328235511903/28/16 23:55:31  5-MIN K12N 290455Z AUTO 31010G18KT 260V360 07/M02 A2975 740 55 0 320/10G18 270V010 RMK AO1 T00671017
54779K12N 12N20160329000011903/29/16 00:00:31  5-MIN K12N 290500Z AUTO 32007G22KT 270V080 07/M02 A2976 740 55 0 340/07G22 280V090 RMK AO1 T00671017
54779K12N 12N20160329000511903/29/16 00:05:31  5-MIN K12N 290505Z AUTO 32010G22KT 270V010 07/M02 A2976 730 55 0 330/10G22 280V020 RMK AO1 T00671017
54779K12N 12N20160329001011903/29/16 00:10:31  5-MIN K12N 290510Z AUTO 31008G19KT 270V350 07/M02 A2976 730 55 0 320/08G19 280V360 RMK AO1 T00671017
54779K12N 12N20160329001510303/29/16 00:15:31  5-MIN K12N 290515Z AUTO 31008G19KT 07/M02 A2976 730 55 0 320/08G19 RMK AO1 T00671017
54779K12N 12N20160329002010303/29/16 00:20:31  5-MIN K12N 290520Z AUTO 30012G22KT 07/M02 A2976 730 55 0 320/12G22 RMK AO1 T00671017
54779K12N 12N20160329002511903/29/16 00:25:31  5-MIN K12N 290525Z AUTO 33013G23KT 270V360 07/M02 A2976 730 55 0 340/13G23 280V010 RMK AO1 T00671017
54779K12N 12N20160329003011903/29/16 00:30:31  5-MIN K12N 290530Z AUTO 31011G23KT 270V350 07/M02 A2977 730 55 0 320/11G23 280V360 RMK AO1 T00671017
54779K12N 12N20160329003510303/29/16 00:35:31  5-MIN K12N 290535Z AUTO VRB05G18KT 07/M02 A2977 720 55 0 VRB/05G18 RMK AO1 T00671017
54779K12N 12N20160329004011903/29/16 00:40:31  5-MIN K12N 290540Z AUTO 31008G22KT 280V360 07/M02 A2977 720 55 0 330/08G22 290V010 RMK AO1 T00671017
54779K12N 12N20160329004512203/29/16 00:45:31  5-MIN K12N 290545Z AUTO 31010G22KT 270V340 06/M02 A2977 720 57 -100 320/10G22 280V350 RMK AO1 T00611017
54779K12N 12N20160329005014703/29/16 00:50:31  5-MIN K12N 290550Z AUTO 31007G22KT 190V360 06/M02 A2977 720 57 -100 320/07G22 200V010 RMK AO1 SLP085 T00611017 10106 20061 51035
54779K12N 12N20160330052510203/30/16 05:25:31  5-MIN K12N 301025Z AUTO 00000KT M03/M07 A3035 190 74 -1900 000/00 RMK AO1 T10331072
54779K12N 12N20160330053010203/30/16 05:30:31  5-MIN K12N 301030Z AUTO 00000KT M03/M07 A3034 200 74 -1900 000/00 RMK AO1 T10331072
54779K12N 12N20160330053510203/30/16 05:35:31  5-MIN K12N 301035Z AUTO 21004KT M04/M07 A3034 190 78 -2000 230/04 RMK AO1 T10391072
54779K12N 12N20160330054010203/30/16 05:40:31  5-MIN K12N 301040Z AUTO 00000KT M04/M07 A3034 190 78 -2000 000/00 RMK AO1 T10391072
54779K12N 12N20160330054510203/30/16 05:45:31  5-MIN K12N 301045Z AUTO 00000KT M04/M07 A3035 190 78 -2000 000/00 RMK AO1 T10391072
54779K12N 12N20160330055010903/30/16 05:50:31  5-MIN K12N 301050Z AUTO 00000KT M03/M07 A3034 200 74 -1900 000/00 RMK AO1 SLP285 T10331072
54779K12N 12N20160330055510203/30/16 05:55:31  5-MIN K12N 301055Z AUTO 00000KT M03/M07 A3034 200 74 -1900 000/00 RMK AO1 T10331072
54779K12N 12N20160330060010203/30/16 06:00:31  5-MIN K12N 301100Z AUTO 00000KT M04/M07 A3034 200 78 -2000 000/00 RMK AO1 T10391072
54779K12N 12N20160330060510203/30/16 06:05:31  5-MIN K12N 301105Z AUTO 00000KT M04/M07 A3034 200 78 -2000 000/00 RMK AO1 T10391072
54779K12N 12N20160330061010203/30/16 06:10:31  5-MIN K12N 301110Z AUTO 00000KT M04/M07 A3034 200 78 -2000 000/00 RMK AO1 T10391072
54779K12N 12N20160330061510203/30/16 06:15:31  5-MIN K12N 301115Z AUTO 00000KT M03/M07 A3034 200 78 -1900 000/00 RMK AO1 T10331067
54779K12N 12N20160330062010203/30/16 06:20:31  5-MIN K12N 301120Z AUTO 00000KT M04/M07 A3035 190 78 -2000 000/00 RMK AO1 T10391072
54779K12N 12N20160330062510203/30/16 06:25:31  5-MIN K12N 301125Z AUTO 00000KT M03/M07 A3035 190 78 -1900 000/00 RMK AO1 T10331067
54779K12N 12N20160330063010203/30/16 06:30:31  5-MIN K12N 301130Z AUTO 00000KT M03/M07 A3035 190 78 -1900 000/00 RMK AO1 T10331067
54779K12N 12N20160330063510203/30/16 06:35:31  5-MIN K12N 301135Z AUTO 00000KT M03/M07 A3035 190 78 -1900 000/00 RMK AO1 T10331067
54779K12N 12N20160330064010203/30/16 06:40:31  5-MIN K12N 301140Z AUTO 00000KT M03/M07 A3035 190 75 -1900 000/00 RMK AO1 T10281067
54779K12N 12N20160330064510203/30/16 06:45:31  5-MIN K12N 301145Z AUTO 00000KT M02/M06 A3036 180 75 -1800 000/00 RMK AO1 T10221061
54779K12N 12N20160330065012703/30/16 06:50:31  5-MIN K12N 301150Z AUTO 00000KT M02/M06 A3036 180 75 -1800 000/00 RMK AO1 SLP289 T10221061 10000 21039 51014
54779K12N 12N20160330065510203/30/16 06:55:31  5-MIN K12N 301155Z AUTO 16003KT M02/M06 A3036 180 75 -1800 170/03 RMK AO1 T10221061
54779K12N 12N20160330070010203/30/16 07:00:31  5-MIN K12N 301200Z AUTO 00000KT M02/M06 A3036 180 75 -1800 000/00 RMK AO1 T10221061
54779K12N 12N20160330070510203/30/16 07:05:31  5-MIN K12N 301205Z AUTO 00000KT M02/M06 A3036 180 72 -1700 000/00 RMK AO1 T10171061
54779K12N 12N20160330071010203/30/16 07:10:31  5-MIN K12N 301210Z AUTO 00000KT M01/M06 A3036 180 66 -1600 000/00 RMK AO1 T10061061
54779K12N 12N20160330071510203/30/16 07:15:31  5-MIN K12N 301215Z AUTO 00000KT M01/M06 A3036 180 66 -1600 000/00 RMK AO1 T10061061
54779K12N 12N20160330072010103/30/16 07:20:31  5-MIN K12N 301220Z AUTO 00000KT 00/M06 A3036 180 63 -1500 000/00 RMK AO1 T00001061
54779K12N 12N20160330072510103/30/16 07:25:31  5-MIN K12N 301225Z AUTO 00000KT 00/M06 A3036 180 63 -1500 000/00 RMK AO1 T00001061
54779K12N 12N20160330073010103/30/16 07:30:31  5-MIN K12N 301230Z AUTO 00000KT 01/M06 A3036 180 61 -1500 000/00 RMK AO1 T00061061
54779K12N 12N20160330073510103/30/16 07:35:31  5-MIN K12N 301235Z AUTO 00000KT 01/M06 A3036 180 61 -1500 000/00 RMK AO1 T00061061
54779K12N 12N20160330074010103/30/16 07:40:31  5-MIN K12N 301240Z AUTO 00000KT 01/M06 A3037 170 58 -1400 000/00 RMK AO1 T00111061
54779K12N 12N20160330074510103/30/16 07:45:31  5-MIN K12N 301245Z AUTO 00000KT 02/M06 A3036 180 56 -1300 000/00 RMK AO1 T00171061
54779K12N 12N20160330075010803/30/16 07:50:31  5-MIN K12N 301250Z AUTO 00000KT 02/M06 A3036 180 54 -1200 000/00 RMK AO1 SLP288 T00221061
54779K12N 12N20160330075510103/30/16 07:55:31  5-MIN K12N 301255Z AUTO 00000KT 03/M07 A3036 180 50 -1200 000/00 RMK AO1 T00281067
54779K12N 12N20160330080010103/30/16 08:00:31  5-MIN K12N 301300Z AUTO 00000KT 03/M08 A3036 190 42 -1100 000/00 RMK AO1 T00331083
54779K12N 12N20160330080510103/30/16 08:05:31  5-MIN K12N 301305Z AUTO 00000KT 04/M08 A3036 180 40 -1000 000/00 RMK AO1 T00391083
54779K12N 12N20160330081010103/30/16 08:10:31  5-MIN K12N 301310Z AUTO 05003KT 04/M10 A3036 180 35 -1000 060/03 RMK AO1 T00391100
54779K12N 12N20160330081510103/30/16 08:15:31  5-MIN K12N 301315Z AUTO VRB03KT 04/M09 A3036 180 37 -1000 VRB/03 RMK AO1 T00391094
54779K12N 12N20160330082010103/30/16 08:20:31  5-MIN K12N 301320Z AUTO 04003KT 04/M09 A3036 180 37 -1000 060/03 RMK AO1 T00391094
54779K12N 12N20160330082510103/30/16 08:25:31  5-MIN K12N 301325Z AUTO 00000KT 04/M09 A3036 180 37 -1000 000/00 RMK AO1 T00391094
54779K12N 12N20160330083010003/30/16 08:30:31  5-MIN K12N 301330Z AUTO 04003KT 05/M09 A3035 190 36 -900 050/03 RMK AO1 T00501089
54779K12N 12N20160330083510003/30/16 08:35:31  5-MIN K12N 301335Z AUTO 00000KT 05/M09 A3035 190 36 -900 000/00 RMK AO1 T00501089
54779K12N 12N20160330084010003/30/16 08:40:31  5-MIN K12N 301340Z AUTO 34003KT 06/M09 A3035 190 34 -800 350/03 RMK AO1 T00561089
54779K12N 12N20160330084510003/30/16 08:45:31  5-MIN K12N 301345Z AUTO 00000KT 06/M09 A3035 190 33 -800 000/00 RMK AO1 T00561094
54779K12N 12N20160330085010703/30/16 08:50:31  5-MIN K12N 301350Z AUTO 34003KT 06/M09 A3034 200 33 -800 350/03 RMK AO1 SLP282 T00561094
54779K12N 12N20160330085510003/30/16 08:55:31  5-MIN K12N 301355Z AUTO 00000KT 06/M10 A3034 200 32 -800 000/00 RMK AO1 T00561100
54779K12N 12N20160330090010003/30/16 09:00:31  5-MIN K12N 301400Z AUTO 00000KT 06/M10 A3034 200 30 -700 000/00 RMK AO1 T00611100
54779K12N 12N20160330090510003/30/16 09:05:31  5-MIN K12N 301405Z AUTO 00000KT 07/M09 A3034 190 30 -700 000/00 RMK AO1 T00671094
54779K12N 12N20160330091010003/30/16 09:10:31  5-MIN K12N 301410Z AUTO 00000KT 07/M09 A3034 190 30 -700 000/00 RMK AO1 T00671094
54779K12N 12N20160330091510003/30/16 09:15:31  5-MIN K12N 301415Z AUTO 00000KT 07/M09 A3034 200 30 -700 000/00 RMK AO1 T00671094
54779K12N 12N20160330092010003/30/16 09:20:31  5-MIN K12N 301420Z AUTO 25003KT 06/M09 A3034 200 32 -700 260/03 RMK AO1 T00611094
54779K12N 12N20160330092510003/30/16 09:25:31  5-MIN K12N 301425Z AUTO 00000KT 07/M09 A3034 200 30 -700 000/00 RMK AO1 T00671094
54779K12N 12N20160330093010003/30/16 09:30:31  5-MIN K12N 301430Z AUTO VRB03KT 07/M09 A3034 200 29 -600 VRB/03 RMK AO1 T00721094
54779K12N 12N20160330093510003/30/16 09:35:31  5-MIN K12N 301435Z AUTO 00000KT 08/M09 A3034 200 28 -500 000/00 RMK AO1 T00781094
54779K12N 12N20160330094010003/30/16 09:40:31  5-MIN K12N 301440Z AUTO 22003KT 08/M09 A3034 200 28 -500 230/03 RMK AO1 T00781094
54779K12N 12N20160330094510003/30/16 09:45:31  5-MIN K12N 301445Z AUTO 27003KT 08/M10 A3033 200 27 -500 280/03 RMK AO1 T00781100
54779K12N 12N20160330095011303/30/16 09:50:31  5-MIN K12N 301450Z AUTO 23005KT 08/M09 A3033 210 27 -500 240/05 RMK AO1 SLP277 T00831094 53014
54779K12N 12N20160330095510003/30/16 09:55:31  5-MIN K12N 301455Z AUTO 00000KT 08/M11 A3033 210 25 -500 000/00 RMK AO1 T00831106
54779K12N 12N20160330100010003/30/16 10:00:31  5-MIN K12N 301500Z AUTO 21005KT 09/M10 A3033 210 25 -400 220/05 RMK AO1 T00891100
54779K12N 12N20160330100510003/30/16 10:05:31  5-MIN K12N 301505Z AUTO VRB04KT 09/M11 A3033 210 24 -400 VRB/04 RMK AO1 T00891106
54779K12N 12N20160330101010003/30/16 10:10:31  5-MIN K12N 301510Z AUTO 21007KT 09/M11 A3033 210 23 -300 220/07 RMK AO1 T00941106
54779K12N 12N20160330101510003/30/16 10:15:31  5-MIN K12N 301515Z AUTO 22006KT 09/M11 A3033 210 23 -400 230/06 RMK AO1 T00891111
54779K12N 12N20160330102011603/30/16 10:20:31  5-MIN K12N 301520Z AUTO 20007KT 160V230 09/M11 A3033 210 23 -300 220/07 170V240 RMK AO1 T00941106
54779K12N 12N20160330102510003/30/16 10:25:31  5-MIN K12N 301525Z AUTO 21005KT 09/M11 A3032 220 23 -300 220/05 RMK AO1 T00941106
54779K12N 12N20160330103010003/30/16 10:30:31  5-MIN K12N 301530Z AUTO VRB04KT 09/M11 A3032 220 23 -300 VRB/04 RMK AO1 T00941106
54779K12N 12N20160330103510003/30/16 10:35:31  5-MIN K12N 301535Z AUTO VRB05KT 10/M11 A3032 220 22 -200 VRB/05 RMK AO1 T01001106
54779K12N 12N20160330104010003/30/16 10:40:31  5-MIN K12N 301540Z AUTO VRB05KT 10/M10 A3031 220 23 -200 VRB/05 RMK AO1 T01001100
54779K12N 12N20160330104510003/30/16 10:45:31  5-MIN K12N 301545Z AUTO VRB05KT 10/M11 A3031 230 21 -200 VRB/05 RMK AO1 T01001111
54779K12N 12N20160330105010703/30/16 10:50:31  5-MIN K12N 301550Z AUTO 20005KT 11/M10 A3031 230 22 -200 210/05 RMK AO1 SLP269 T01061100
54779K12N 12N20160330105510003/30/16 10:55:31  5-MIN K12N 301555Z AUTO 23007KT 11/M10 A3031 230 22 -200 240/07 RMK AO1 T01061100
54779K12N 12N20160330110010003/30/16 11:00:31  5-MIN K12N 301600Z AUTO 18004KT 11/M10 A3030 230 22 -200 190/04 RMK AO1 T01061100
54779K12N 12N20160330110511603/30/16 11:05:31  5-MIN K12N 301605Z AUTO 19007KT 150V210 11/M10 A3030 230 22 -200 200/07 160V220 RMK AO1 T01061100
54779K12N 12N20160330111010003/30/16 11:10:31  5-MIN K12N 301610Z AUTO 24007KT 11/M09 A3030 240 22 -100 260/07 RMK AO1 T01111094
54779K12N 12N20160330111510003/30/16 11:15:31  5-MIN K12N 301615Z AUTO VRB06KT 11/M11 A3030 240 21 -100 VRB/06 RMK AO1 T01111106
54779K12N 12N20160330112009703/30/16 11:20:31  5-MIN K12N 301620Z AUTO 25008KT 12/M09 A3029 240 22 0 260/08 RMK AO1 T01171094
54779K12N 12N20160330112509703/30/16 11:25:31  5-MIN K12N 301625Z AUTO 21008KT 12/M10 A3029 240 21 0 220/08 RMK AO1 T01171100
54779K12N 12N20160330113009703/30/16 11:30:31  5-MIN K12N 301630Z AUTO 25009KT 12/M10 A3029 240 21 0 260/09 RMK AO1 T01171100
54779K12N 12N20160330113511303/30/16 11:35:31  5-MIN K12N 301635Z AUTO 22008KT 190V250 12/M11 A3029 240 20 0 230/08 200V260 RMK AO1 T01171106
54779K12N 12N20160330114011603/30/16 11:40:31  5-MIN K12N 301640Z AUTO 20007KT 160V250 11/M10 A3029 250 22 -100 220/07 170V260 RMK AO1 T01111100
54779K12N 12N20160330114509703/30/16 11:45:31  5-MIN K12N 301645Z AUTO 22009KT 12/M09 A3029 250 22 0 240/09 RMK AO1 T01171094
54779K12N 12N20160330115012003/30/16 11:50:31  5-MIN K12N 301650Z AUTO 24009KT 180V290 12/M09 A3029 250 22 0 250/09 190V300 RMK AO1 SLP261 T01171094
54779K12N 12N20160330115509703/30/16 11:55:31  5-MIN K12N 301655Z AUTO 23008KT 12/M09 A3028 250 21 0 250/08 RMK AO1 T01221094
54779K12N 12N20160330120009703/30/16 12:00:31  5-MIN K12N 301700Z AUTO VRB05KT 12/M09 A3028 260 23 0 VRB/05 RMK AO1 T01171089
54779K12N 12N20160330120509703/30/16 12:05:31  5-MIN K12N 301705Z AUTO VRB05KT 12/M09 A3028 260 23 0 VRB/05 RMK AO1 T01171089
54779K12N 12N20160330121009703/30/16 12:10:31  5-MIN K12N 301710Z AUTO 20007KT 12/M09 A3028 260 22 0 220/07 RMK AO1 T01221089
54779K12N 12N20160330121511303/30/16 12:15:31  5-MIN K12N 301715Z AUTO 25008KT 200V280 12/M09 A3027 260 21 0 260/08 210V290 RMK AO1 T01221094
54779K12N 12N20160330122009703/30/16 12:20:31  5-MIN K12N 301720Z AUTO 18006KT 12/M09 A3027 260 21 0 200/06 RMK AO1 T01221094
54779K12N 12N20160330122509703/30/16 12:25:31  5-MIN K12N 301725Z AUTO VRB05KT 12/M10 A3027 260 20 0 VRB/05 RMK AO1 T01221100
54779K12N 12N20160330123011303/30/16 12:30:31  5-MIN K12N 301730Z AUTO 24007KT 210V270 12/M11 A3027 270 19 0 250/07 220V280 RMK AO1 T01221106
54779K12N 12N20160330123509903/30/16 12:35:31  5-MIN K12N 301735Z AUTO 23007KT 13/M11 A3026 270 18 100 240/07 RMK AO1 T01281106
54779K12N 12N20160330124009903/30/16 12:40:31  5-MIN K12N 301740Z AUTO 21009KT 13/M10 A3026 270 19 100 220/09 RMK AO1 T01281100
54779K12N 12N20160330124509703/30/16 12:45:31  5-MIN K12N 301745Z AUTO VRB05KT 12/M11 A3026 270 19 0 VRB/05 RMK AO1 T01221106
54779K12N 12N20160330125012403/30/16 12:50:31  5-MIN K12N 301750Z AUTO 23007KT 13/M11 A3025 280 18 100 240/07 RMK AO1 SLP251 T01281106 10133 21022 58010
54779K12N 12N20160330125510503/30/16 12:55:31  5-MIN K12N 301755Z AUTO 23010G15KT 13/M11 A3025 280 18 100 240/10G15 RMK AO1 T01281106
54779K12N 12N20160330130012103/30/16 13:00:31  5-MIN K12N 301800Z AUTO 26009G15KT 210V270 13/M11 A3025 280 18 100 270/09G15 220V280 RMK AO1 T01281106
54779K12N 12N20160330130510503/30/16 13:05:31  5-MIN K12N 301805Z AUTO 21006G15KT 13/M09 A3025 280 20 200 220/06G15 RMK AO1 T01331089
54779K12N 12N20160330131009903/30/16 13:10:31  5-MIN K12N 301810Z AUTO 17007KT 13/M11 A3024 290 18 100 190/07 RMK AO1 T01281106
54779K12N 12N20160330131509903/30/16 13:15:31  5-MIN K12N 301815Z AUTO VRB06KT 13/M10 A3024 290 19 200 VRB/06 RMK AO1 T01331100
54779K12N 12N20160330132009903/30/16 13:20:31  5-MIN K12N 301820Z AUTO 20008KT 13/M09 A3024 290 20 200 220/08 RMK AO1 T01331089
54779K12N 12N20160330132509903/30/16 13:25:31  5-MIN K12N 301825Z AUTO 23007KT 13/M09 A3024 290 19 200 240/07 RMK AO1 T01331094
54779K12N 12N20160330133009903/30/16 13:30:31  5-MIN K12N 301830Z AUTO 21008KT 13/M09 A3024 290 20 200 220/08 RMK AO1 T01331089
54779K12N 12N20160330133509903/30/16 13:35:31  5-MIN K12N 301835Z AUTO VRB06KT 13/M09 A3023 300 20 200 VRB/06 RMK AO1 T01331089
54779K12N 12N20160330134009903/30/16 13:40:31  5-MIN K12N 301840Z AUTO VRB04KT 14/M08 A3023 300 20 300 VRB/04 RMK AO1 T01391083
54779K12N 12N20160330134512103/30/16 13:45:31  5-MIN K12N 301845Z AUTO 19009G15KT 140V230 13/M09 A3023 300 19 200 200/09G15 150V240 RMK AO1 T01331094
54779K12N 12N20160330135011203/30/16 13:50:31  5-MIN K12N 301850Z AUTO 21010G15KT 14/M09 A3022 300 19 300 220/10G15 RMK AO1 SLP242 T01391094
54779K12N 12N20160330135510503/30/16 13:55:31  5-MIN K12N 301855Z AUTO 20007G14KT 13/M10 A3023 300 19 200 220/07G14 RMK AO1 T01331100
54779K12N 12N20160330140010503/30/16 14:00:31  5-MIN K12N 301900Z AUTO VRB05G14KT 14/M09 A3022 310 19 300 VRB/05G14 RMK AO1 T01391094
54779K12N 12N20160330140510503/30/16 14:05:31  5-MIN K12N 301905Z AUTO 22009G15KT 14/M09 A3022 310 19 300 230/09G15 RMK AO1 T01391094
54779K12N 12N20160330141012103/30/16 14:10:31  5-MIN K12N 301910Z AUTO 21009G15KT 170V230 14/M09 A3022 310 19 300 230/09G15 180V240 RMK AO1 T01391094
54779K12N 12N20160330141510503/30/16 14:15:31  5-MIN K12N 301915Z AUTO 20008G15KT 14/M09 A3022 310 19 300 220/08G15 RMK AO1 T01391094
54779K12N 12N20160330142011503/30/16 14:20:31  5-MIN K12N 301920Z AUTO 19007KT 170V230 14/M09 A3022 310 19 300 210/07 180V240 RMK AO1 T01391094
54779K12N 12N20160330142509903/30/16 14:25:31  5-MIN K12N 301925Z AUTO VRB05KT 14/M10 A3021 310 18 300 VRB/05 RMK AO1 T01391100
54779K12N 12N20160330143009903/30/16 14:30:31  5-MIN K12N 301930Z AUTO VRB05KT 14/M10 A3021 320 18 300 VRB/05 RMK AO1 T01391100
54779K12N 12N20160330143510503/30/16 14:35:31  5-MIN K12N 301935Z AUTO 23009G14KT 14/M09 A3021 320 18 400 240/09G14 RMK AO1 T01441094
54779K12N 12N20160330144012103/30/16 14:40:31  5-MIN K12N 301940Z AUTO 22013G19KT 170V250 14/M09 A3021 320 18 400 240/13G19 180V260 RMK AO1 T01441094
54779K12N 12N20160330144510503/30/16 14:45:31  5-MIN K12N 301945Z AUTO 22008G19KT 14/M10 A3020 320 18 300 230/08G19 RMK AO1 T01391100
54779K12N 12N20160330145011203/30/16 14:50:31  5-MIN K12N 301950Z AUTO 21006G15KT 14/M09 A3020 320 18 400 220/06G15 RMK AO1 SLP233 T01441094
54779K12N 12N20160330145510503/30/16 14:55:31  5-MIN K12N 301955Z AUTO VRB05G15KT 14/M09 A3020 330 18 400 VRB/05G15 RMK AO1 T01441094
54779K12N 12N20160330150010503/30/16 15:00:31  5-MIN K12N 302000Z AUTO 21008G14KT 14/M09 A3020 330 18 400 220/08G14 RMK AO1 T01441094
54779K12N 12N20160330150510503/30/16 15:05:31  5-MIN K12N 302005Z AUTO 20006G14KT 14/M09 A3019 330 18 400 210/06G14 RMK AO1 T01441094
54779K12N 12N20160330151010503/30/16 15:10:31  5-MIN K12N 302010Z AUTO 23010G16KT 15/M09 A3019 330 18 500 250/10G16 RMK AO1 T01501089
54779K12N 12N20160330151512103/30/16 15:15:31  5-MIN K12N 302015Z AUTO 19009G16KT 160V220 14/M09 A3019 340 20 300 200/09G16 170V230 RMK AO1 T01391089
54779K12N 12N20160330152011503/30/16 15:20:31  5-MIN K12N 302020Z AUTO 20007KT 160V250 14/M09 A3018 340 20 300 210/07 170V260 RMK AO1 T01391089
54779K12N 12N20160330152510503/30/16 15:25:31  5-MIN K12N 302025Z AUTO 20009G14KT 14/M08 A3018 350 20 400 220/09G14 RMK AO1 T01441083
54779K12N 12N20160330153009903/30/16 15:30:31  5-MIN K12N 302030Z AUTO 21010KT 14/M08 A3018 350 21 300 230/10 RMK AO1 T01391078
54779K12N 12N20160330153510503/30/16 15:35:31  5-MIN K12N 302035Z AUTO 19007G16KT 14/M08 A3017 350 20 300 210/07G16 RMK AO1 T01391083
54779K12N 12N20160330154010503/30/16 15:40:31  5-MIN K12N 302040Z AUTO 19009G16KT 14/M08 A3017 350 20 300 200/09G16 RMK AO1 T01391083
54779K12N 12N20160330154512103/30/16 15:45:31  5-MIN K12N 302045Z AUTO 18008G16KT 140V220 14/M09 A3017 350 20 300 190/08G16 150V230 RMK AO1 T01391089
54779K12N 12N20160330155011803/30/16 15:50:31  5-MIN K12N 302050Z AUTO 19009G17KT 14/M09 A3017 360 19 300 210/09G17 RMK AO1 SLP222 T01391094 58026
54779K12N 12N20160330155510503/30/16 15:55:31  5-MIN K12N 302055Z AUTO 19008G17KT 14/M09 A3017 360 20 400 210/08G17 RMK AO1 T01391089
54779K12N 12N20160330160010503/30/16 16:00:31  5-MIN K12N 302100Z AUTO VRB04G17KT 14/M09 A3016 360 20 400 VRB/04G17 RMK AO1 T01391089
54779K12N 12N20160330160510503/30/16 16:05:31  5-MIN K12N 302105Z AUTO VRB05G17KT 14/M09 A3016 360 20 400 VRB/05G17 RMK AO1 T01391089
54779K12N 12N20160330161012103/30/16 16:10:31  5-MIN K12N 302110Z AUTO 18007G15KT 140V210 14/M09 A3016 360 20 400 190/07G15 150V220 RMK AO1 T01391089
54779K12N 12N20160330161512103/30/16 16:15:31  5-MIN K12N 302115Z AUTO 18008G15KT 150V210 14/M08 A3016 360 20 400 200/08G15 160V220 RMK AO1 T01391083
54779K12N 12N20160330162011503/30/16 16:20:31  5-MIN K12N 302120Z AUTO 19007KT 160V230 14/M09 A3016 370 20 400 210/07 170V240 RMK AO1 T01391089
54779K12N 12N20160330162511503/30/16 16:25:31  5-MIN K12N 302125Z AUTO 19007KT 160V220 14/M08 A3016 370 20 400 200/07 170V230 RMK AO1 T01391083
54779K12N 12N20160330163009903/30/16 16:30:31  5-MIN K12N 302130Z AUTO 19008KT 14/M08 A3015 370 20 400 200/08 RMK AO1 T01391083
54779K12N 12N20160330163512103/30/16 16:35:31  5-MIN K12N 302135Z AUTO 19009G16KT 160V230 13/M09 A3015 370 20 300 200/09G16 170V240 RMK AO1 T01331089
54779K12N 12N20160330164010503/30/16 16:40:31  5-MIN K12N 302140Z AUTO 18010G16KT 13/M08 A3015 370 21 300 200/10G16 RMK AO1 T01331083
54779K12N 12N20160330164510503/30/16 16:45:31  5-MIN K12N 302145Z AUTO VRB06G16KT 14/M08 A3015 380 21 400 VRB/06G16 RMK AO1 T01391078
54779K12N 12N20160330165010603/30/16 16:50:31  5-MIN K12N 302150Z AUTO VRB06KT 14/M08 A3014 380 20 400 VRB/06 RMK AO1 SLP213 T01391083
54779K12N 12N20160330165510503/30/16 16:55:31  5-MIN K12N 302155Z AUTO 20008G17KT 14/M08 A3014 380 20 400 210/08G17 RMK AO1 T01391083
54779K12N 12N20160330170012103/30/16 17:00:31  5-MIN K12N 302200Z AUTO 21009G17KT 180V240 13/M08 A3014 380 21 300 220/09G17 190V250 RMK AO1 T01331083
54779K12N 12N20160330170509903/30/16 17:05:31  5-MIN K12N 302205Z AUTO 20007KT 13/M07 A3014 380 23 300 210/07 RMK AO1 T01331072
54779K12N 12N20160330171011503/30/16 17:10:31  5-MIN K12N 302210Z AUTO 21010KT 170V250 13/M08 A3014 390 22 300 220/10 180V260 RMK AO1 T01331078
54779K12N 12N20160330171510503/30/16 17:15:31  5-MIN K12N 302215Z AUTO 20010G17KT 13/M08 A3013 390 22 300 210/10G17 RMK AO1 T01331078
54779K12N 12N20160330172010503/30/16 17:20:31  5-MIN K12N 302220Z AUTO 19006G17KT 13/M08 A3013 390 23 300 210/06G17 RMK AO1 T01281078
54779K12N 12N20160331032009903/31/16 03:20:31  5-MIN K12N 310820Z AUTO 19005KT 07/01 A3004 480 62 -300 210/05 RMK AO1 T00720006
54779K12N 12N20160331032509903/31/16 03:25:31  5-MIN K12N 310825Z AUTO 20003KT 07/01 A3004 480 65 -300 210/03 RMK AO1 T00720011
54779K12N 12N20160331033009903/31/16 03:30:31  5-MIN K12N 310830Z AUTO 21003KT 07/01 A3003 480 65 -300 220/03 RMK AO1 T00720011
54779K12N 12N20160331033509903/31/16 03:35:31  5-MIN K12N 310835Z AUTO 20004KT 07/02 A3003 480 68 -200 210/04 RMK AO1 T00720017
54779K12N 12N20160331034009903/31/16 03:40:31  5-MIN K12N 310840Z AUTO 20003KT 07/02 A3003 480 68 -200 210/03 RMK AO1 T00720017
54779K12N 12N20160331034509903/31/16 03:45:31  5-MIN K12N 310845Z AUTO 21003KT 07/02 A3003 480 70 -300 230/03 RMK AO1 T00670017
54779K12N 12N20160331035011203/31/16 03:50:31  5-MIN K12N 310850Z AUTO 00000KT 07/01 A3003 480 67 -300 000/00 RMK AO1 SLP171 T00670011 58009
54779K12N 12N20160331035509903/31/16 03:55:31  5-MIN K12N 310855Z AUTO 00000KT 06/02 A3003 490 73 -400 000/00 RMK AO1 T00610017
54779K12N 12N20160331040009903/31/16 04:00:31  5-MIN K12N 310900Z AUTO 00000KT 06/01 A3003 490 70 -400 000/00 RMK AO1 T00610011
54779K12N 12N20160331040509903/31/16 04:05:31  5-MIN K12N 310905Z AUTO 21003KT 07/01 A3003 490 67 -300 230/03 RMK AO1 T00670011
54779K12N 12N20160331041009903/31/16 04:10:31  5-MIN K12N 310910Z AUTO 00000KT 06/01 A3002 490 70 -400 000/00 RMK AO1 T00610011
54779K12N 12N20160331041509903/31/16 04:15:31  5-MIN K12N 310915Z AUTO 00000KT 06/01 A3002 490 73 -400 000/00 RMK AO1 T00560011
54779K12N 12N20160331042009903/31/16 04:20:31  5-MIN K12N 310920Z AUTO 00000KT 05/01 A3002 490 76 -500 000/00 RMK AO1 T00500011
54779K12N 12N20160331042509903/31/16 04:25:31  5-MIN K12N 310925Z AUTO 00000KT 05/01 A3002 490 73 -500 000/00 RMK AO1 T00500006
54779K12N 12N20160331043009903/31/16 04:30:31  5-MIN K12N 310930Z AUTO 00000KT 05/01 A3002 500 73 -500 000/00 RMK AO1 T00500006
54779K12N 12N20160331043509903/31/16 04:35:31  5-MIN K12N 310935Z AUTO 00000KT 05/01 A3001 500 73 -500 000/00 RMK AO1 T00500006
54779K12N 12N20160331044009903/31/16 04:40:31  5-MIN K12N 310940Z AUTO 00000KT 05/01 A3001 500 76 -500 000/00 RMK AO1 T00500011
54779K12N 12N20160331044509903/31/16 04:45:31  5-MIN K12N 310945Z AUTO 19004KT 06/02 A3001 500 76 -400 200/04 RMK AO1 T00610022
54779K12N 12N20160331045010603/31/16 04:50:31  5-MIN K12N 310950Z AUTO 20003KT 07/03 A3001 500 76 -300 210/03 RMK AO1 SLP164 T00670028
54779K12N 12N20160331045509903/31/16 04:55:31  5-MIN K12N 310955Z AUTO 19003KT 07/03 A3001 510 76 -300 200/03 RMK AO1 T00670028
54779K12N 12N20160331050009903/31/16 05:00:31  5-MIN K12N 311000Z AUTO 00000KT 07/03 A3001 500 76 -300 000/00 RMK AO1 T00670028
54779K12N 12N20160331050509903/31/16 05:05:31  5-MIN K12N 311005Z AUTO 00000KT 07/03 A3001 500 76 -300 000/00 RMK AO1 T00670028
54779K12N 12N20160331051009903/31/16 05:10:31  5-MIN K12N 311010Z AUTO 00000KT 06/03 A3001 500 79 -400 000/00 RMK AO1 T00610028
54779K12N 12N20160331051509903/31/16 05:15:31  5-MIN K12N 311015Z AUTO 00000KT 06/03 A3001 500 82 -400 000/00 RMK AO1 T00560028
54779K12N 12N20160331052009903/31/16 05:20:31  5-MIN K12N 311020Z AUTO 20003KT 06/03 A3001 500 82 -400 210/03 RMK AO1 T00560028
54779K12N 12N20160331052509903/31/16 05:25:31  5-MIN K12N 311025Z AUTO 00000KT 06/03 A3001 500 79 -400 000/00 RMK AO1 T00610028
54779K12N 12N20160331053009903/31/16 05:30:31  5-MIN K12N 311030Z AUTO 00000KT 06/03 A3002 500 79 -400 000/00 RMK AO1 T00610028
54779K12N 12N20160331053509903/31/16 05:35:31  5-MIN K12N 311035Z AUTO 00000KT 06/03 A3002 500 82 -400 000/00 RMK AO1 T00560028
54779K12N 12N20160331054009903/31/16 05:40:31  5-MIN K12N 311040Z AUTO VRB03KT 06/03 A3001 500 82 -400 VRB/03 RMK AO1 T00560028
54779K12N 12N20160331054509903/31/16 05:45:31  5-MIN K12N 311045Z AUTO 21005KT 07/03 A3001 500 79 -300 220/05 RMK AO1 T00670033
54779K12N 12N20160331055010603/31/16 05:50:31  5-MIN K12N 311050Z AUTO VRB03KT 07/04 A3002 500 82 -300 VRB/03 RMK AO1 SLP167 T00670039
54779K12N 12N20160331055509903/31/16 05:55:31  5-MIN K12N 311055Z AUTO 23003KT 07/03 A3001 500 79 -300 250/03 RMK AO1 T00670033
54779K12N 12N20160331060009903/31/16 06:00:31  5-MIN K12N 311100Z AUTO VRB03KT 07/04 A3001 500 82 -300 VRB/03 RMK AO1 T00670039
54779K12N 12N20160331060509903/31/16 06:05:31  5-MIN K12N 311105Z AUTO 22004KT 07/04 A3001 500 79 -200 230/04 RMK AO1 T00720039
54779K12N 12N20160331061009903/31/16 06:10:31  5-MIN K12N 311110Z AUTO 00000KT 07/04 A3001 500 79 -200 000/00 RMK AO1 T00720039
54779K12N 12N20160331061509903/31/16 06:15:31  5-MIN K12N 311115Z AUTO 22004KT 07/04 A3001 510 79 -200 230/04 RMK AO1 T00720039
54779K12N 12N20160331062009903/31/16 06:20:31  5-MIN K12N 311120Z AUTO 00000KT 08/04 A3000 510 76 -100 000/00 RMK AO1 T00780039
54779K12N 12N20160331062509903/31/16 06:25:31  5-MIN K12N 311125Z AUTO 21003KT 08/04 A3001 510 79 -200 230/03 RMK AO1 T00780044
54779K12N 12N20160331063009903/31/16 06:30:31  5-MIN K12N 311130Z AUTO 23004KT 08/04 A3001 500 76 -100 240/04 RMK AO1 T00830044
54779K12N 12N20160331063509903/31/16 06:35:31  5-MIN K12N 311135Z AUTO 23005KT 08/04 A3001 500 76 -100 240/05 RMK AO1 T00830044
54779K12N 12N20160331064009603/31/16 06:40:31  5-MIN K12N 311140Z AUTO VRB05KT 09/04 A3001 510 73 0 VRB/05 RMK AO1 T00890044
54779K12N 12N20160331064509603/31/16 06:45:31  5-MIN K12N 311145Z AUTO 20006KT 09/05 A3001 510 76 0 220/06 RMK AO1 T00890050
54779K12N 12N20160331065012103/31/16 06:50:31  5-MIN K12N 311150Z AUTO VRB05KT 09/05 A3000 510 76 0 VRB/05 RMK AO1 SLP161 T00890050 10089 20050 56019
54779K12N 12N20160331065509603/31/16 06:55:31  5-MIN K12N 311155Z AUTO VRB06KT 09/06 A3000 510 76 0 VRB/06 RMK AO1 T00940056
54779K12N 12N20160331070009803/31/16 07:00:31  5-MIN K12N 311200Z AUTO 21006KT 10/06 A3000 510 74 100 220/06 RMK AO1 T01000056
54779K12N 12N20160331070511403/31/16 07:05:31  5-MIN K12N 311205Z AUTO 20007KT 170V240 10/06 A3000 520 77 100 210/07 180V250 RMK AO1 T01000061
54779K12N 12N20160331071010403/31/16 07:10:31  5-MIN K12N 311210Z AUTO 20006G15KT 11/06 A2999 520 74 200 210/06G15 RMK AO1 T01060061
54779K12N 12N20160331071510403/31/16 07:15:31  5-MIN K12N 311215Z AUTO 21009G16KT 11/06 A2999 520 74 100 230/09G16 RMK AO1 T01060061
54779K12N 12N20160331072012003/31/16 07:20:31  5-MIN K12N 311220Z AUTO 21009G16KT 170V230 11/06 A2999 520 71 200 220/09G16 180V240 RMK AO1 T01110061
54779K12N 12N20160331072510403/31/16 07:25:31  5-MIN K12N 311225Z AUTO 20006G15KT 11/07 A2999 520 74 200 220/06G15 RMK AO1 T01110067
54779K12N 12N20160331073009803/31/16 07:30:31  5-MIN K12N 311230Z AUTO 21006KT 11/07 A2999 520 74 200 220/06 RMK AO1 T01110067
54779K12N 12N20160331073509803/31/16 07:35:31  5-MIN K12N 311235Z AUTO 21009KT 12/07 A2998 530 71 300 220/09 RMK AO1 T01170067
54779K12N 12N20160331074009803/31/16 07:40:31  5-MIN K12N 311240Z AUTO VRB06KT 12/07 A2998 530 71 300 VRB/06 RMK AO1 T01170067
54779K12N 12N20160331074510403/31/16 07:45:31  5-MIN K12N 311245Z AUTO 21009G16KT 12/07 A2998 530 68 400 230/09G16 RMK AO1 T01220067
54779K12N 12N20160331075012703/31/16 07:50:31  5-MIN K12N 311250Z AUTO 20010G18KT 160V240 12/07 A2998 530 71 400 220/10G18 170V250 RMK AO1 SLP152 T01220072
54779K12N 12N20160331075512003/31/16 07:55:31  5-MIN K12N 311255Z AUTO 21009G18KT 180V240 13/07 A2997 540 69 400 220/09G18 190V250 RMK AO1 T01280072
54779K12N 12N20160331080012003/31/16 08:00:31  5-MIN K12N 311300Z AUTO 21010G18KT 170V240 13/07 A2998 530 66 500 220/10G18 180V250 RMK AO1 T01330072
54779K12N 12N20160331080510403/31/16 08:05:31  5-MIN K12N 311305Z AUTO 21013G18KT 13/07 A2997 540 66 500 230/13G18 RMK AO1 T01330072
54779K12N 12N20160331081010403/31/16 08:10:31  5-MIN K12N 311310Z AUTO 21010G20KT 13/08 A2997 540 69 500 220/10G20 RMK AO1 T01330078
54779K12N 12N20160331081510403/31/16 08:15:31  5-MIN K12N 311315Z AUTO 21011G20KT 13/08 A2997 540 69 500 220/11G20 RMK AO1 T01330078
54779K12N 12N20160331082010403/31/16 08:20:31  5-MIN K12N 311320Z AUTO 20013G21KT 13/08 A2998 530 69 500 220/13G21 RMK AO1 T01330078
54779K12N 12N20160331082510403/31/16 08:25:31  5-MIN K12N 311325Z AUTO 21010G23KT 13/08 A2998 530 69 500 220/10G23 RMK AO1 T01330078
54779K12N 12N20160331083010403/31/16 08:30:31  5-MIN K12N 311330Z AUTO 21010G23KT 13/08 A2998 530 69 500 220/10G23 RMK AO1 T01330078
54779K12N 12N20160331083510403/31/16 08:35:31  5-MIN K12N 311335Z AUTO 20009G20KT 13/08 A2997 540 69 500 210/09G20 RMK AO1 T01330078
54779K12N 12N20160331084010403/31/16 08:40:31  5-MIN K12N 311340Z AUTO 21010G20KT 13/08 A2997 540 69 500 220/10G20 RMK AO1 T01330078
54779K12N 12N20160331084510403/31/16 08:45:31  5-MIN K12N 311345Z AUTO 21016G24KT 13/08 A2997 540 69 500 220/16G24 RMK AO1 T01330078
54779K12N 12N20160331085011103/31/16 08:50:31  5-MIN K12N 311350Z AUTO 20011G24KT 13/08 A2997 540 69 500 210/11G24 RMK AO1 SLP151 T01330078
54779K12N 12N20160331085510403/31/16 08:55:31  5-MIN K12N 311355Z AUTO 20010G20KT 14/08 A2997 540 66 600 210/10G20 RMK AO1 T01390078
54779K12N 12N20160331090010403/31/16 09:00:31  5-MIN K12N 311400Z AUTO 21009G19KT 14/08 A2997 540 66 600 220/09G19 RMK AO1 T01390078
54779K12N 12N20160331090512003/31/16 09:05:31  5-MIN K12N 311405Z AUTO 21008G19KT 170V250 15/08 A2997 540 64 700 220/08G19 180V260 RMK AO1 T01500083
54779K12N 12N20160331091012003/31/16 09:10:31  5-MIN K12N 311410Z AUTO 21012G22KT 160V230 15/08 A2997 540 64 700 220/12G22 170V240 RMK AO1 T01500083
54779K12N 12N20160331091512003/31/16 09:15:31  5-MIN K12N 311415Z AUTO 20011G22KT 160V220 15/08 A2996 540 64 700 210/11G22 170V230 RMK AO1 T01500083
54779K12N 12N20160331092010403/31/16 09:20:31  5-MIN K12N 311420Z AUTO 21010G21KT 15/08 A2996 540 62 700 220/10G21 RMK AO1 T01500078
54779K12N 12N20160331092510403/31/16 09:25:31  5-MIN K12N 311425Z AUTO 20009G22KT 16/08 A2996 540 62 800 220/09G22 RMK AO1 T01560083
54779K12N 12N20160331093010403/31/16 09:30:31  5-MIN K12N 311430Z AUTO 20006G22KT 16/08 A2997 540 62 800 210/06G22 RMK AO1 T01560083
54779K12N 12N20160331093510403/31/16 09:35:31  5-MIN K12N 311435Z AUTO 22018G23KT 16/08 A2997 540 62 800 240/18G23 RMK AO1 T01560083
54779K12N 12N20160331094012003/31/16 09:40:31  5-MIN K12N 311440Z AUTO 20010G23KT 170V230 16/08 A2996 540 62 800 210/10G23 180V240 RMK AO1 T01560083
54779K12N 12N20160331094510403/31/16 09:45:31  5-MIN K12N 311445Z AUTO 20008G15KT 16/08 A2997 540 62 800 220/08G15 RMK AO1 T01560083
54779K12N 12N20160331095013303/31/16 09:50:31  5-MIN K12N 311450Z AUTO 21010G21KT 180V240 16/08 A2997 540 59 800 230/10G21 190V250 RMK AO1 SLP147 T01560078 56009
54779K12N 12N20160331095512003/31/16 09:55:31  5-MIN K12N 311455Z AUTO 20008G21KT 160V230 16/08 A2996 550 59 800 210/08G21 170V240 RMK AO1 T01560078
54779K12N 12N20160331100010403/31/16 10:00:31  5-MIN K12N 311500Z AUTO 21010G19KT 16/08 A2996 550 62 800 220/10G19 RMK AO1 T01560083
54779K12N 12N20160331100512003/31/16 10:05:31  5-MIN K12N 311505Z AUTO 22011G19KT 170V250 16/08 A2996 550 62 800 230/11G19 180V260 RMK AO1 T01560083
54779K12N 12N20160331101012003/31/16 10:10:31  5-MIN K12N 311510Z AUTO 20009G19KT 160V230 16/08 A2996 550 59 900 210/09G19 170V240 RMK AO1 T01610083
54779K12N 12N20160331101510403/31/16 10:15:31  5-MIN K12N 311515Z AUTO 20010G18KT 16/08 A2995 550 59 900 210/10G18 RMK AO1 T01610083
54779K12N 12N20160331102012003/31/16 10:20:31  5-MIN K12N 311520Z AUTO 21009G17KT 180V240 16/08 A2995 560 59 900 220/09G17 190V250 RMK AO1 T01610083
54779K12N 12N20160331102510403/31/16 10:25:31  5-MIN K12N 311525Z AUTO 21008G17KT 16/08 A2995 560 59 900 230/08G17 RMK AO1 T01610083
54779K12N 12N20160331103010403/31/16 10:30:31  5-MIN K12N 311530Z AUTO 21009G17KT 16/08 A2995 560 59 900 220/09G17 RMK AO1 T01610083
54779K12N 12N20160331103510403/31/16 10:35:31  5-MIN K12N 311535Z AUTO 21012G22KT 16/08 A2995 560 59 900 230/12G22 RMK AO1 T01610083
54779K12N 12N20160331104010403/31/16 10:40:31  5-MIN K12N 311540Z AUTO 19011G22KT 16/08 A2994 570 59 900 200/11G22 RMK AO1 T01610083
54779K12N 12N20160331104512003/31/16 10:45:31  5-MIN K12N 311545Z AUTO 20009G17KT 160V230 16/08 A2994 560 59 900 210/09G17 170V240 RMK AO1 T01610083
54779K12N 12N20160331105012703/31/16 10:50:31  5-MIN K12N 311550Z AUTO 19007G17KT 150V230 17/08 A2994 570 57 900 210/07G17 160V240 RMK AO1 SLP139 T01670083
54779K12N 12N20160331105510403/31/16 10:55:31  5-MIN K12N 311555Z AUTO 22010G18KT 16/08 A2994 570 59 900 240/10G18 RMK AO1 T01610083
54779K12N 12N20160331110012003/31/16 11:00:31  5-MIN K12N 311600Z AUTO 20008G18KT 160V230 17/08 A2994 570 57 900 210/08G18 170V240 RMK AO1 T01670083
54779K12N 12N20160331110510403/31/16 11:05:31  5-MIN K12N 311605Z AUTO 22009G16KT 17/08 A2994 570 57 900 230/09G16 RMK AO1 T01670083
54779K12N 12N20160331111012003/31/16 11:10:31  5-MIN K12N 311610Z AUTO 20008G16KT 170V240 17/08 A2993 570 57 900 210/08G16 180V250 RMK AO1 T01670083
54779K12N 12N20160331111512003/31/16 11:15:31  5-MIN K12N 311615Z AUTO 20007G19KT 170V230 17/08 A2993 580 57 900 210/07G19 180V240 RMK AO1 T01670083
54779K12N 12N20160331112010503/31/16 11:20:31  5-MIN K12N 311620Z AUTO VRB06G19KT 17/08 A2993 580 55 1000 VRB/06G19 RMK AO1 T01720083
54779K12N 12N20160331112511503/31/16 11:25:31  5-MIN K12N 311625Z AUTO 22008KT 180V250 18/08 A2993 580 53 1100 230/08 190V260 RMK AO1 T01780083
54779K12N 12N20160331113010503/31/16 11:30:31  5-MIN K12N 311630Z AUTO 21011G19KT 18/08 A2992 580 53 1100 220/11G19 RMK AO1 T01780083
54779K12N 12N20160331113510503/31/16 11:35:31  5-MIN K12N 311635Z AUTO 22013G19KT 18/08 A2993 580 53 1100 230/13G19 RMK AO1 T01780083
54779K12N 12N20160331114010503/31/16 11:40:31  5-MIN K12N 311640Z AUTO 22017G23KT 18/08 A2993 580 53 1100 240/17G23 RMK AO1 T01780083
54779K12N 12N20160331114512103/31/16 11:45:31  5-MIN K12N 311645Z AUTO 22011G23KT 200V260 18/08 A2993 580 53 1100 230/11G23 210V270 RMK AO1 T01780083
54779K12N 12N20160331115011203/31/16 11:50:31  5-MIN K12N 311650Z AUTO 22012G18KT 18/08 A2992 580 52 1100 240/12G18 RMK AO1 SLP132 T01830083
54779K12N 12N20160331115512103/31/16 11:55:31  5-MIN K12N 311655Z AUTO 22009G18KT 190V250 18/08 A2992 580 52 1100 230/09G18 200V260 RMK AO1 T01830083
54779K12N 12N20160331120010503/31/16 12:00:31  5-MIN K12N 311700Z AUTO 22012G18KT 18/09 A2993 580 54 1100 230/12G18 RMK AO1 T01830089
54779K12N 12N20160331120510503/31/16 12:05:31  5-MIN K12N 311705Z AUTO 22009G19KT 18/09 A2993 580 54 1100 230/09G19 RMK AO1 T01830089
54779K12N 12N20160331121010503/31/16 12:10:31  5-MIN K12N 311710Z AUTO 22008G22KT 19/09 A2992 580 52 1200 230/08G22 RMK AO1 T01890089
54779K12N 12N20160331121512103/31/16 12:15:31  5-MIN K12N 311715Z AUTO 23015G23KT 190V280 19/09 A2991 590 52 1200 240/15G23 200V290 RMK AO1 T01890089
54779K12N 12N20160331122012103/31/16 12:20:31  5-MIN K12N 311720Z AUTO 22011G23KT 170V240 19/09 A2991 590 52 1200 230/11G23 180V250 RMK AO1 T01890089
54779K12N 12N20160331122512103/31/16 12:25:31  5-MIN K12N 311725Z AUTO 22011G24KT 190V280 19/09 A2991 600 50 1300 240/11G24 200V290 RMK AO1 T01940089
54779K12N 12N20160331123012303/31/16 12:30:31  5-MIN K12N 311730Z AUTO 23014G27KT 19/09 A2990 600 50 1300 240/14G27 RMK AO1 PK WND 24027/1727 T01940089
54779K12N 12N20160331123513903/31/16 12:35:31  5-MIN K12N 311735Z AUTO 22012G28KT 180V250 19/09 A2991 600 50 1300 230/12G28 190V260 RMK AO1 PK WND 21028/1732 T01940089
54779K12N 12N20160331124013903/31/16 12:40:31  5-MIN K12N 311740Z AUTO 23008G28KT 190V270 20/09 A2991 600 48 1400 240/08G28 200V280 RMK AO1 PK WND 21028/1732 T02000089
54779K12N 12N20160331124512303/31/16 12:45:31  5-MIN K12N 311745Z AUTO 22016G22KT 20/09 A2991 600 48 1400 230/16G22 RMK AO1 PK WND 21028/1732 T02000089
54779K12N 12N20160331125016403/31/16 12:50:31  5-MIN K12N 311750Z AUTO 21013G22KT 150V240 20/09 A2990 600 48 1400 220/13G22 160V250 RMK AO1 PK WND 21028/1732 SLP125 T02000089 10200 20094 56012
54779K12N 12N20160331125512103/31/16 12:55:31  5-MIN K12N 311755Z AUTO 20010G25KT 160V230 19/09 A2990 600 50 1300 210/10G25 170V240 RMK AO1 T01940089
54779K12N 12N20160331130012103/31/16 13:00:31  5-MIN K12N 311800Z AUTO 21013G25KT 160V240 20/09 A2990 610 48 1400 230/13G25 170V250 RMK AO1 T02000089
54779K12N 12N20160331130512303/31/16 13:05:31  5-MIN K12N 311805Z AUTO 22018G27KT 21/09 A2990 610 46 1400 230/18G27 RMK AO1 PK WND 23027/1803 T02060089
54779K12N 12N20160331131013903/31/16 13:10:31  5-MIN K12N 311810Z AUTO 21010G27KT 160V230 20/08 A2989 610 46 1400 220/10G27 170V240 RMK AO1 PK WND 23027/1803 T02000083
54779K12N 12N20160331131512303/31/16 13:15:31  5-MIN K12N 311815Z AUTO 23014G22KT 20/08 A2989 610 46 1400 250/14G22 RMK AO1 PK WND 23027/1803 T02000083
54779K12N 12N20160331132012303/31/16 13:20:31  5-MIN K12N 311820Z AUTO 21010G21KT 20/08 A2988 620 46 1400 230/10G21 RMK AO1 PK WND 23027/1803 T02000083
54779K12N 12N20160331132512303/31/16 13:25:31  5-MIN K12N 311825Z AUTO 22011G20KT 20/08 A2988 620 46 1400 230/11G20 RMK AO1 PK WND 23027/1803 T02000083
54779K12N 12N20160331133012303/31/16 13:30:31  5-MIN K12N 311830Z AUTO 21012G20KT 20/08 A2988 620 46 1400 220/12G20 RMK AO1 PK WND 23027/1803 T02000083
54779K12N 12N20160331133512303/31/16 13:35:31  5-MIN K12N 311835Z AUTO 20009G19KT 20/08 A2988 620 46 1400 220/09G19 RMK AO1 PK WND 23027/1803 T02000083
54779K12N 12N20160331134012303/31/16 13:40:31  5-MIN K12N 311840Z AUTO 20010G19KT 21/09 A2989 620 46 1400 210/10G19 RMK AO1 PK WND 23027/1803 T02060089
54779K12N 12N20160331134512303/31/16 13:45:31  5-MIN K12N 311845Z AUTO 20011G23KT 20/08 A2989 620 46 1400 210/11G23 RMK AO1 PK WND 23027/1803 T02000083
54779K12N 12N20160331135013003/31/16 13:50:31  5-MIN K12N 311850Z AUTO 20010G23KT 20/08 A2988 620 46 1400 210/10G23 RMK AO1 PK WND 23027/1803 SLP118 T02000083
54779K12N 12N20160331135512103/31/16 13:55:31  5-MIN K12N 311855Z AUTO 19012G21KT 150V220 20/08 A2988 630 46 1400 210/12G21 160V230 RMK AO1 T02000083
54779K12N 12N20160331140010503/31/16 14:00:31  5-MIN K12N 311900Z AUTO 19010G21KT 20/08 A2988 630 46 1400 210/10G21 RMK AO1 T02000083
54779K12N 12N20160331140512103/31/16 14:05:31  5-MIN K12N 311905Z AUTO 21012G21KT 170V230 20/08 A2987 630 46 1400 220/12G21 180V240 RMK AO1 T02000083
54779K12N 12N20160331141012103/31/16 14:10:31  5-MIN K12N 311910Z AUTO 19008G24KT 150V230 21/09 A2987 630 46 1500 210/08G24 160V240 RMK AO1 T02060089
54779K12N 12N20160331141510503/31/16 14:15:31  5-MIN K12N 311915Z AUTO 21012G24KT 21/09 A2987 640 46 1500 230/12G24 RMK AO1 T02060089
54779K12N 12N20160331142010503/31/16 14:20:31  5-MIN K12N 311920Z AUTO 21011G21KT 20/08 A2986 640 46 1400 230/11G21 RMK AO1 T02000083
54779K12N 12N20160331142510503/31/16 14:25:31  5-MIN K12N 311925Z AUTO 21011G21KT 21/09 A2985 650 46 1500 220/11G21 RMK AO1 T02060089
54779K12N 12N20160331143012103/31/16 14:30:31  5-MIN K12N 311930Z AUTO 21007G21KT 180V240 21/09 A2985 650 46 1500 230/07G21 190V250 RMK AO1 T02060089
54779K12N 12N20160331143510503/31/16 14:35:31  5-MIN K12N 311935Z AUTO 20008G19KT 21/09 A2985 650 46 1500 210/08G19 RMK AO1 T02060089
54779K12N 12N20160331144010503/31/16 14:40:31  5-MIN K12N 311940Z AUTO 20012G20KT 20/09 A2985 650 48 1400 210/12G20 RMK AO1 T02000089
54779K12N 12N20160331144510503/31/16 14:45:31  5-MIN K12N 311945Z AUTO 20009G20KT 20/09 A2985 650 48 1400 210/09G20 RMK AO1 T02000089
54779K12N 12N20160331145012803/31/16 14:50:31  5-MIN K12N 311950Z AUTO 18009G17KT 150V220 21/09 A2984 660 46 1500 190/09G17 160V230 RMK AO1 SLP105 T02060089
54779K12N 12N20160331145510503/31/16 14:55:31  5-MIN K12N 311955Z AUTO 20008G19KT 20/09 A2985 650 48 1400 210/08G19 RMK AO1 T02000089
54779K12N 12N20160331150010503/31/16 15:00:31  5-MIN K12N 312000Z AUTO 21009G21KT 20/09 A2985 650 48 1400 230/09G21 RMK AO1 T02000089
54779K12N 12N20160331150512103/31/16 15:05:31  5-MIN K12N 312005Z AUTO 21008G21KT 150V240 21/09 A2984 660 46 1500 220/08G21 160V250 RMK AO1 T02060089
54779K12N 12N20160331151010503/31/16 15:10:31  5-MIN K12N 312010Z AUTO 22017G23KT 21/09 A2984 660 46 1500 240/17G23 RMK AO1 T02060089
54779K12N 12N20160331151510503/31/16 15:15:31  5-MIN K12N 312015Z AUTO 21011G23KT 21/09 A2984 660 45 1600 230/11G23 RMK AO1 T02110089
54779K12N 12N20160331152010503/31/16 15:20:31  5-MIN K12N 312020Z AUTO 21011G20KT 21/09 A2984 660 45 1600 230/11G20 RMK AO1 T02110089
54779K12N 12N20160331152512103/31/16 15:25:31  5-MIN K12N 312025Z AUTO 20012G22KT 170V230 21/08 A2984 660 45 1500 220/12G22 180V240 RMK AO1 T02060083
54779K12N 12N20160331153012103/31/16 15:30:31  5-MIN K12N 312030Z AUTO 20010G22KT 160V230 20/08 A2983 660 46 1400 210/10G22 170V240 RMK AO1 T02000083
54779K12N 12N20160331153510503/31/16 15:35:31  5-MIN K12N 312035Z AUTO 21015G22KT 20/08 A2983 670 46 1400 230/15G22 RMK AO1 T02000083
54779K12N 12N20160331154012103/31/16 15:40:31  5-MIN K12N 312040Z AUTO 20012G22KT 160V220 21/08 A2983 670 45 1500 210/12G22 170V230 RMK AO1 T02060083
54779K12N 12N20160331154510503/31/16 15:45:31  5-MIN K12N 312045Z AUTO 21010G22KT 21/08 A2983 670 45 1500 230/10G22 RMK AO1 T02060083
54779K12N 12N20160331155011803/31/16 15:50:31  5-MIN K12N 312050Z AUTO 21011G22KT 21/08 A2983 670 43 1600 220/11G22 RMK AO1 SLP100 T02110083 58021
54779K12N 12N20160331155510503/31/16 15:55:31  5-MIN K12N 312055Z AUTO 22012G22KT 21/09 A2982 680 46 1500 230/12G22 RMK AO1 T02060089
