04850KAOH AOH20161201000013012/01/16 00:00:31  5-MIN KAOH 010500Z AUTO 25017G23KT 10SM FEW018 BKN025 OVC031 03/M01 A2973 1160 79 0 260/17G23 RMK AO2 T00281006
04850KAOH AOH20161201000512412/01/16 00:05:31  5-MIN KAOH 010505Z AUTO 26019KT 10SM FEW018 BKN025 OVC031 02/M01 A2973 1150 82 0 260/19 RMK AO2 T00221006
04850KAOH AOH20161201001012212/01/16 00:10:31  5-MIN KAOH 010510Z AUTO 25016G25KT 10SM FEW025 OVC031 02/00 A2973 1150 85 0 260/16G25 RMK AO2 T00220000
04850KAOH AOH20161201001511612/01/16 00:15:31  5-MIN KAOH 010515Z AUTO 25015KT 10SM FEW023 OVC031 02/00 A2973 1150 85 0 260/15 RMK AO2 T00220000
04850KAOH AOH20161201002011612/01/16 00:20:31  5-MIN KAOH 010520Z AUTO 25017G21KT 10SM OVC032 02/M01 A2973 1150 82 0 250/17G21 RMK AO2 T00221006
04850KAOH AOH20161201002511012/01/16 00:25:31  5-MIN KAOH 010525Z AUTO 25015KT 10SM OVC032 02/M01 A2973 1150 82 0 250/15 RMK AO2 T00221006
04850KAOH AOH20161201003011012/01/16 00:30:31  5-MIN KAOH 010530Z AUTO 25016KT 10SM OVC032 02/M01 A2973 1150 82 0 250/16 RMK AO2 T00221006
04850KAOH AOH20161201003511012/01/16 00:35:31  5-MIN KAOH 010535Z AUTO 25015KT 10SM OVC032 02/M01 A2973 1150 82 0 250/15 RMK AO2 T00221006
04850KAOH AOH20161201004011012/01/16 00:40:31  5-MIN KAOH 010540Z AUTO 25016KT 10SM OVC032 02/M01 A2974 1150 82 0 260/16 RMK AO2 T00221006
04850KAOH AOH20161201004511012/01/16 00:45:31  5-MIN KAOH 010545Z AUTO 26015KT 10SM OVC032 02/M01 A2974 1150 82 0 260/15 RMK AO2 T00221006
04850KAOH AOH20161201005013512/01/16 00:50:31  5-MIN KAOH 010550Z AUTO 25014KT 10SM OVC033 03/M01 A2973 1150 79 0 250/14 RMK AO2 SLP072 T00281006 10067 20022 51020
04850KAOH AOH20161201005512412/01/16 00:55:31  5-MIN KAOH 010555Z AUTO 25013KT 10SM FEW021 FEW026 OVC033 03/M01 A2974 1150 79 0 260/13 RMK AO2 T00281006
04850KAOH AOH20161201010013412/01/16 01:00:31  5-MIN KAOH 010600Z AUTO 25015KT 10SM UP FEW023 OVC033 02/M01 A2974 1150 82 0 260/15 RMK AO2 UPB0556 P0000 T00221006
04850KAOH AOH20161201010513412/01/16 01:05:31  5-MIN KAOH 010605Z AUTO 24016KT 10SM FEW023 OVC035 02/M01 A2973 1150 82 0 250/16 RMK AO2 UPB0556E05 P0000 T00221006
04850KAOH AOH20161201011013412/01/16 01:10:31  5-MIN KAOH 010610Z AUTO 25014KT 10SM FEW023 OVC035 02/M01 A2973 1150 82 0 250/14 RMK AO2 UPB0556E05 P0000 T00221006
04850KAOH AOH20161201011514012/01/16 01:15:31  5-MIN KAOH 010615Z AUTO 25011G19KT 10SM FEW023 OVC035 02/M01 A2973 1150 82 0 250/11G19 RMK AO2 UPB0556E05 P0000 T00221006
04850KAOH AOH20161201012013412/01/16 01:20:31  5-MIN KAOH 010620Z AUTO 25013KT 10SM FEW023 OVC037 02/M01 A2973 1150 82 0 250/13 RMK AO2 UPB0556E05 P0000 T00221006
04850KAOH AOH20161201012512712/01/16 01:25:31  5-MIN KAOH 010625Z AUTO 24012KT 10SM OVC037 02/M01 A2973 1150 82 0 240/12 RMK AO2 UPB0556E05 P0000 T00221006
04850KAOH AOH20161201013012712/01/16 01:30:31  5-MIN KAOH 010630Z AUTO 25013KT 10SM OVC037 02/M01 A2973 1150 82 0 250/13 RMK AO2 UPB0556E05 P0000 T00221006
04850KAOH AOH20161201013512712/01/16 01:35:31  5-MIN KAOH 010635Z AUTO 25015KT 10SM OVC038 02/M01 A2974 1150 82 0 250/15 RMK AO2 UPB0556E05 P0000 T00221006
04850KAOH AOH20161201014012712/01/16 01:40:31  5-MIN KAOH 010640Z AUTO 25013KT 10SM OVC038 02/M01 A2974 1150 82 0 260/13 RMK AO2 UPB0556E05 P0000 T00221006
04850KAOH AOH20161201014512712/01/16 01:45:31  5-MIN KAOH 010645Z AUTO 25014KT 10SM OVC039 02/M01 A2974 1140 82 0 260/14 RMK AO2 UPB0556E05 P0000 T00221006
04850KAOH AOH20161201015014112/01/16 01:50:31  5-MIN KAOH 010650Z AUTO 25016KT 10SM FEW025 OVC039 02/M01 A2975 1140 82 0 260/16 RMK AO2 UPB0556E05 SLP077 P0000 T00221006
04850KAOH AOH20161201015511712/01/16 01:55:31  5-MIN KAOH 010655Z AUTO 26015KT 10SM SCT025 OVC039 02/M01 A2975 1140 82 0 270/15 RMK AO2 T00221006
04850KAOH AOH20161201020012412/01/16 02:00:31  5-MIN KAOH 010700Z AUTO 26014KT 10SM SCT023 BKN028 OVC039 02/M01 A2975 1140 82 0 260/14 RMK AO2 T00221006
04850KAOH AOH20161201020512412/01/16 02:05:31  5-MIN KAOH 010705Z AUTO 25013KT 10SM SCT021 BKN028 OVC037 02/M01 A2975 1140 82 0 260/13 RMK AO2 T00221006
04850KAOH AOH20161201021012712/01/16 02:10:31  5-MIN KAOH 010710Z AUTO 25015KT 10SM SCT021 BKN028 OVC037 02/M01 A2975 1140 82 -100 260/15 RMK AO2 T00221006
04850KAOH AOH20161201021512712/01/16 02:15:31  5-MIN KAOH 010715Z AUTO 25015KT 10SM SCT021 BKN027 OVC037 02/M01 A2975 1130 82 -100 250/15 RMK AO2 T00221006
04850KAOH AOH20161201022012712/01/16 02:20:31  5-MIN KAOH 010720Z AUTO 26012KT 10SM FEW021 BKN027 OVC036 02/M01 A2975 1130 82 -100 260/12 RMK AO2 T00221006
04850KAOH AOH20161201022512712/01/16 02:25:31  5-MIN KAOH 010725Z AUTO 25013KT 10SM SCT021 BKN027 OVC036 02/M01 A2976 1130 82 -100 260/13 RMK AO2 T00221006
04850KAOH AOH20161201023012712/01/16 02:30:31  5-MIN KAOH 010730Z AUTO 25014KT 10SM SCT021 BKN027 OVC036 02/M01 A2976 1130 82 -100 250/14 RMK AO2 T00221006
04850KAOH AOH20161201023512712/01/16 02:35:31  5-MIN KAOH 010735Z AUTO 25014KT 10SM FEW021 BKN028 OVC035 02/M01 A2975 1130 82 -100 260/14 RMK AO2 T00221006
04850KAOH AOH20161201024012012/01/16 02:40:31  5-MIN KAOH 010740Z AUTO 25012KT 10SM FEW021 OVC030 02/M01 A2975 1130 82 -100 260/12 RMK AO2 T00221006
04850KAOH AOH20161201024512012/01/16 02:45:31  5-MIN KAOH 010745Z AUTO 24010KT 10SM FEW021 OVC030 02/M01 A2976 1130 82 -100 250/10 RMK AO2 T00221006
04850KAOH AOH20161201025012712/01/16 02:50:31  5-MIN KAOH 010750Z AUTO 24010KT 10SM FEW021 OVC032 02/M01 A2976 1130 82 -100 250/10 RMK AO2 SLP081 T00221006
04850KAOH AOH20161201025511312/01/16 02:55:31  5-MIN KAOH 010755Z AUTO 24011KT 10SM OVC032 02/M01 A2976 1130 82 -100 240/11 RMK AO2 T00221006
04850KAOH AOH20161201030012712/01/16 03:00:31  5-MIN KAOH 010800Z AUTO 23011KT 10SM FEW020 BKN030 OVC036 02/M01 A2976 1120 82 -100 240/11 RMK AO2 T00221006
04850KAOH AOH20161201030512712/01/16 03:05:31  5-MIN KAOH 010805Z AUTO 25015KT 10SM SCT020 BKN030 OVC036 02/M01 A2977 1120 82 -100 250/15 RMK AO2 T00221006
04850KAOH AOH20161201031014212/01/16 03:10:31  5-MIN KAOH 010810Z AUTO 24014KT 9SM -SN FEW014 BKN026 OVC034 02/M01 A2977 1120 82 -100 250/14 RMK AO2 SNB10 P0000 T00221006
04850KAOH AOH20161201031514412/01/16 03:15:31  5-MIN KAOH 010815Z AUTO 25016KT 6SM -SN BR FEW011 BKN017 OVC034 02/00 A2977 1120 89 -100 250/16 RMK AO2 SNB10 P0000 T00170000
04850KAOH AOH20161201032014412/01/16 03:20:31  5-MIN KAOH 010820Z AUTO 25015KT 6SM -SN BR FEW011 BKN021 OVC034 02/00 A2977 1120 89 -100 250/15 RMK AO2 SNB10 P0000 T00170000
04850KAOH AOH20161201032514012/01/16 03:25:31  5-MIN KAOH 010825Z AUTO 25014KT 9SM FEW016 SCT021 OVC034 02/01 A2977 1120 92 -100 260/14 RMK AO2 SNB10E24 P0000 T00170006
04850KAOH AOH20161201033014112/01/16 03:30:31  5-MIN KAOH 010830Z AUTO 24010KT 10SM FEW016 SCT025 OVC036 02/01 A2976 1120 92 -100 250/10 RMK AO2 SNB10E24 P0000 T00170006
04850KAOH AOH20161201033514112/01/16 03:35:31  5-MIN KAOH 010835Z AUTO 25010KT 10SM FEW016 SCT027 OVC036 02/01 A2976 1120 92 -100 250/10 RMK AO2 SNB10E24 P0000 T00170006
04850KAOH AOH20161201034014112/01/16 03:40:31  5-MIN KAOH 010840Z AUTO 25010KT 10SM FEW014 SCT027 OVC036 02/01 A2976 1130 92 -100 260/10 RMK AO2 SNB10E24 P0000 T00170006
04850KAOH AOH20161201034513412/01/16 03:45:31  5-MIN KAOH 010845Z AUTO 25009KT 10SM SCT027 OVC034 02/01 A2976 1130 92 -100 250/09 RMK AO2 SNB10E24 P0000 T00170006
04850KAOH AOH20161201035015312/01/16 03:50:31  5-MIN KAOH 010850Z AUTO 25010KT 10SM FEW029 OVC034 02/00 A2976 1120 89 -100 260/10 RMK AO2 SNB10E24 SLP082 P0000 60000 T00170000 51015
04850KAOH AOH20161201035511912/01/16 03:55:31  5-MIN KAOH 010855Z AUTO 25010KT 10SM FEW027 OVC035 02/01 A2976 1130 92 -100 260/10 RMK AO2 T00170006
04850KAOH AOH20161201040011912/01/16 04:00:31  5-MIN KAOH 010900Z AUTO 25013KT 10SM FEW027 OVC035 02/00 A2976 1130 89 -100 250/13 RMK AO2 T00170000
04850KAOH AOH20161201040511312/01/16 04:05:31  5-MIN KAOH 010905Z AUTO 25013KT 10SM OVC035 02/M01 A2976 1130 85 -100 250/13 RMK AO2 T00171006
04850KAOH AOH20161201041012612/01/16 04:10:31  5-MIN KAOH 010910Z AUTO 25012G22KT 10SM BKN030 OVC036 02/M01 A2976 1130 85 -100 260/12G22 RMK AO2 T00171006
04850KAOH AOH20161201041511912/01/16 04:15:31  5-MIN KAOH 010915Z AUTO 25015G22KT 10SM OVC033 02/M01 A2976 1130 85 -100 250/15G22 RMK AO2 T00171006
04850KAOH AOH20161201042011312/01/16 04:20:31  5-MIN KAOH 010920Z AUTO 25012KT 10SM OVC033 02/M01 A2976 1130 85 -100 260/12 RMK AO2 T00171006
04850KAOH AOH20161201042511312/01/16 04:25:31  5-MIN KAOH 010925Z AUTO 25012KT 10SM OVC033 02/M01 A2976 1120 78 -100 260/12 RMK AO2 T00221011
04850KAOH AOH20161201043011312/01/16 04:30:31  5-MIN KAOH 010930Z AUTO 25011KT 10SM OVC033 02/M01 A2976 1120 78 -100 250/11 RMK AO2 T00221011
04850KAOH AOH20161201043511312/01/16 04:35:31  5-MIN KAOH 010935Z AUTO 24014KT 10SM OVC033 02/M01 A2976 1130 78 -100 240/14 RMK AO2 T00221011
04850KAOH AOH20161201044011312/01/16 04:40:31  5-MIN KAOH 010940Z AUTO 24012KT 10SM OVC035 02/M02 A2976 1130 75 -100 250/12 RMK AO2 T00221017
04850KAOH AOH20161201044511912/01/16 04:45:31  5-MIN KAOH 010945Z AUTO 25013G18KT 10SM OVC035 02/M02 A2976 1120 75 -100 250/13G18 RMK AO2 T00221017
04850KAOH AOH20161201045012612/01/16 04:50:31  5-MIN KAOH 010950Z AUTO 25016G22KT 10SM OVC035 02/M02 A2976 1120 75 -100 260/16G22 RMK AO2 SLP083 T00221017
04850KAOH AOH20161201045511912/01/16 04:55:31  5-MIN KAOH 010955Z AUTO 24012G22KT 10SM OVC035 02/M02 A2976 1120 75 -100 250/12G22 RMK AO2 T00221017
04850KAOH AOH20161201050011312/01/16 05:00:31  5-MIN KAOH 011000Z AUTO 25015KT 10SM OVC035 02/M02 A2976 1120 72 -100 250/15 RMK AO2 T00221022
04850KAOH AOH20161201050511912/01/16 05:05:31  5-MIN KAOH 011005Z AUTO 24011G20KT 10SM OVC036 02/M02 A2977 1120 75 -100 250/11G20 RMK AO2 T00221017
04850KAOH AOH20161201051011312/01/16 05:10:31  5-MIN KAOH 011010Z AUTO 24015KT 10SM OVC036 02/M02 A2977 1120 72 -100 250/15 RMK AO2 T00221022
04850KAOH AOH20161201051511312/01/16 05:15:31  5-MIN KAOH 011015Z AUTO 24013KT 10SM OVC038 02/M02 A2977 1120 72 -100 250/13 RMK AO2 T00221022
04850KAOH AOH20161201052011312/01/16 05:20:31  5-MIN KAOH 011020Z AUTO 25014KT 10SM OVC038 02/M02 A2977 1120 72 -100 250/14 RMK AO2 T00221022
04850KAOH AOH20161201052511312/01/16 05:25:31  5-MIN KAOH 011025Z AUTO 24013KT 10SM OVC037 02/M02 A2977 1120 72 -100 240/13 RMK AO2 T00221022
04850KAOH AOH20161201053011312/01/16 05:30:31  5-MIN KAOH 011030Z AUTO 24014KT 10SM OVC037 02/M02 A2977 1120 72 -100 250/14 RMK AO2 T00221022
04850KAOH AOH20161201053511312/01/16 05:35:31  5-MIN KAOH 011035Z AUTO 25014KT 10SM OVC037 02/M02 A2977 1120 72 -100 250/14 RMK AO2 T00221022
04850KAOH AOH20161201054011312/01/16 05:40:31  5-MIN KAOH 011040Z AUTO 24014KT 10SM OVC037 02/M02 A2977 1110 72 -100 250/14 RMK AO2 T00221022
04850KAOH AOH20161201054511012/01/16 05:45:31  5-MIN KAOH 011045Z AUTO 24012KT 10SM OVC037 03/M02 A2977 1110 69 0 240/12 RMK AO2 T00281022
04850KAOH AOH20161201055012012/01/16 05:50:31  5-MIN KAOH 011050Z AUTO 24014KT 10SM OVC037 02/M02 A2977 1110 72 -100 250/14 RMK AO2 SLP087 T00221022
04850KAOH AOH20161201055511912/01/16 05:55:31  5-MIN KAOH 011055Z AUTO 24014G19KT 10SM OVC037 02/M02 A2978 1110 72 -100 250/14G19 RMK AO2 T00221022
04850KAOH AOH20161201060011912/01/16 06:00:31  5-MIN KAOH 011100Z AUTO 25011G19KT 10SM OVC037 02/M02 A2978 1110 75 -100 250/11G19 RMK AO2 T00221017
04850KAOH AOH20161201060511312/01/16 06:05:31  5-MIN KAOH 011105Z AUTO 23013KT 10SM OVC037 02/M02 A2978 1110 72 -100 240/13 RMK AO2 T00221022
04850KAOH AOH20161201061011312/01/16 06:10:31  5-MIN KAOH 011110Z AUTO 24011KT 10SM OVC038 02/M02 A2978 1110 72 -100 240/11 RMK AO2 T00221022
04850KAOH AOH20161201061511312/01/16 06:15:31  5-MIN KAOH 011115Z AUTO 24013KT 10SM OVC038 02/M02 A2978 1110 75 -100 250/13 RMK AO2 T00221017
04850KAOH AOH20161201062011312/01/16 06:20:31  5-MIN KAOH 011120Z AUTO 24013KT 10SM OVC040 02/M02 A2978 1100 72 -100 240/13 RMK AO2 T00221022
04850KAOH AOH20161201062511312/01/16 06:25:31  5-MIN KAOH 011125Z AUTO 24012KT 10SM OVC040 02/M02 A2979 1100 75 -100 240/12 RMK AO2 T00221017
04850KAOH AOH20161201063011912/01/16 06:30:31  5-MIN KAOH 011130Z AUTO 23014G20KT 10SM OVC040 02/M02 A2979 1100 72 -100 240/14G20 RMK AO2 T00221022
04850KAOH AOH20161201063511912/01/16 06:35:31  5-MIN KAOH 011135Z AUTO 24012G20KT 10SM OVC040 02/M02 A2979 1100 72 -100 240/12G20 RMK AO2 T00221022
04850KAOH AOH20161201064011912/01/16 06:40:31  5-MIN KAOH 011140Z AUTO 23010G18KT 10SM OVC040 02/M02 A2979 1100 72 -100 240/10G18 RMK AO2 T00221022
04850KAOH AOH20161201064511312/01/16 06:45:31  5-MIN KAOH 011145Z AUTO 23012KT 10SM OVC040 02/M02 A2979 1100 72 -100 240/12 RMK AO2 T00221022
04850KAOH AOH20161201065015012/01/16 06:50:31  5-MIN KAOH 011150Z AUTO 23011KT 10SM OVC040 02/M02 A2979 1100 75 -100 240/11 RMK AO2 SLP092 60000 70001 T00221017 10028 20017 51008
04850KAOH AOH20161201065511312/01/16 06:55:31  5-MIN KAOH 011155Z AUTO 23011KT 10SM OVC040 02/M02 A2979 1100 75 -100 240/11 RMK AO2 T00221017
04850KAOH AOH20161201070011312/01/16 07:00:31  5-MIN KAOH 011200Z AUTO 23010KT 10SM OVC040 02/M02 A2979 1100 75 -100 240/10 RMK AO2 T00221017
04850KAOH AOH20161201070511312/01/16 07:05:31  5-MIN KAOH 011205Z AUTO 23013KT 10SM OVC039 02/M02 A2979 1100 75 -100 240/13 RMK AO2 T00221017
04850KAOH AOH20161201071012612/01/16 07:10:31  5-MIN KAOH 011210Z AUTO 24010G18KT 10SM FEW030 OVC039 02/M02 A2979 1100 72 -100 240/10G18 RMK AO2 T00221022
04850KAOH AOH20161201071512012/01/16 07:15:31  5-MIN KAOH 011215Z AUTO 24012KT 10SM FEW030 OVC041 02/M02 A2979 1100 72 -100 250/12 RMK AO2 T00221022
04850KAOH AOH20161201072012012/01/16 07:20:31  5-MIN KAOH 011220Z AUTO 24012KT 10SM FEW030 OVC041 02/M02 A2979 1100 75 -100 250/12 RMK AO2 T00221017
04850KAOH AOH20161201072512612/01/16 07:25:31  5-MIN KAOH 011225Z AUTO 25014G21KT 10SM SCT030 OVC041 02/M02 A2979 1100 72 -100 250/14G21 RMK AO2 T00221022
04850KAOH AOH20161201073012612/01/16 07:30:31  5-MIN KAOH 011230Z AUTO 25013G21KT 10SM SCT028 OVC041 02/M02 A2979 1090 72 -100 250/13G21 RMK AO2 T00221022
04850KAOH AOH20161201073512012/01/16 07:35:31  5-MIN KAOH 011235Z AUTO 24015KT 10SM BKN028 OVC043 02/M02 A2979 1090 72 -100 250/15 RMK AO2 T00221022
04850KAOH AOH20161201074012612/01/16 07:40:31  5-MIN KAOH 011240Z AUTO 24017G21KT 10SM BKN028 OVC043 02/M02 A2980 1090 72 -100 250/17G21 RMK AO2 T00221022
04850KAOH AOH20161201074512612/01/16 07:45:31  5-MIN KAOH 011245Z AUTO 24014G21KT 10SM BKN028 OVC045 02/M02 A2980 1090 72 -100 250/14G21 RMK AO2 T00221022
04850KAOH AOH20161201075013312/01/16 07:50:31  5-MIN KAOH 011250Z AUTO 25015G21KT 10SM BKN026 OVC045 02/M02 A2980 1090 72 -100 250/15G21 RMK AO2 SLP096 T00221022
04850KAOH AOH20161201075511912/01/16 07:55:31  5-MIN KAOH 011255Z AUTO 24016G21KT 10SM OVC026 02/M02 A2980 1090 72 -100 250/16G21 RMK AO2 T00221022
04850KAOH AOH20161201080011912/01/16 08:00:31  5-MIN KAOH 011300Z AUTO 25014G21KT 10SM OVC026 02/M02 A2980 1090 75 -100 250/14G21 RMK AO2 T00221017
04850KAOH AOH20161201080511912/01/16 08:05:31  5-MIN KAOH 011305Z AUTO 24012G22KT 10SM OVC026 02/M02 A2980 1090 75 -100 250/12G22 RMK AO2 T00221017
04850KAOH AOH20161201081011912/01/16 08:10:31  5-MIN KAOH 011310Z AUTO 25015G22KT 10SM OVC025 02/M02 A2980 1090 75 -100 250/15G22 RMK AO2 T00221017
04850KAOH AOH20161201081511912/01/16 08:15:31  5-MIN KAOH 011315Z AUTO 24012G21KT 10SM OVC025 02/M02 A2980 1080 75 -100 250/12G21 RMK AO2 T00221017
04850KAOH AOH20161201082012612/01/16 08:20:31  5-MIN KAOH 011320Z AUTO 24014G21KT 10SM BKN025 OVC030 02/M02 A2981 1080 75 -100 250/14G21 RMK AO2 T00221017
04850KAOH AOH20161201082512612/01/16 08:25:31  5-MIN KAOH 011325Z AUTO 25017G22KT 10SM BKN024 OVC030 02/M02 A2981 1080 75 -100 250/17G22 RMK AO2 T00221017
04850KAOH AOH20161201083012612/01/16 08:30:31  5-MIN KAOH 011330Z AUTO 24013G22KT 10SM BKN024 OVC030 02/M02 A2981 1080 75 -100 250/13G22 RMK AO2 T00221017
04850KAOH AOH20161201083512012/01/16 08:35:31  5-MIN KAOH 011335Z AUTO 25016KT 10SM BKN024 OVC030 02/M01 A2981 1080 78 -100 250/16 RMK AO2 T00221011
04850KAOH AOH20161201084012612/01/16 08:40:31  5-MIN KAOH 011340Z AUTO 25018G25KT 10SM BKN024 OVC030 02/M01 A2982 1070 78 -100 250/18G25 RMK AO2 T00221011
04850KAOH AOH20161201084512612/01/16 08:45:31  5-MIN KAOH 011345Z AUTO 24014G25KT 10SM BKN024 OVC032 02/M01 A2981 1080 78 -100 240/14G25 RMK AO2 T00221011
04850KAOH AOH20161201085012712/01/16 08:50:31  5-MIN KAOH 011350Z AUTO 24014KT 10SM BKN026 OVC032 02/M01 A2981 1080 78 -100 250/14 RMK AO2 SLP102 T00221011
04850KAOH AOH20161201085512012/01/16 08:55:31  5-MIN KAOH 011355Z AUTO 25015KT 10SM BKN024 OVC032 02/M01 A2982 1070 78 -100 250/15 RMK AO2 T00221011
04850KAOH AOH20161201090012012/01/16 09:00:31  5-MIN KAOH 011400Z AUTO 25017KT 10SM BKN024 OVC032 02/M01 A2982 1070 78 -100 250/17 RMK AO2 T00221011
04850KAOH AOH20161201090512012/01/16 09:05:31  5-MIN KAOH 011405Z AUTO 25016KT 10SM BKN024 OVC032 02/M01 A2982 1070 78 -100 250/16 RMK AO2 T00221011
04850KAOH AOH20161201091012612/01/16 09:10:31  5-MIN KAOH 011410Z AUTO 25018G22KT 10SM BKN024 OVC031 02/M01 A2982 1070 78 -100 250/18G22 RMK AO2 T00221011
04850KAOH AOH20161201091512612/01/16 09:15:31  5-MIN KAOH 011415Z AUTO 24013G23KT 10SM BKN024 OVC031 02/M01 A2982 1070 78 -100 250/13G23 RMK AO2 T00221011
04850KAOH AOH20161201092012612/01/16 09:20:31  5-MIN KAOH 011420Z AUTO 24017G23KT 10SM BKN024 OVC031 02/M01 A2982 1070 78 -100 250/17G23 RMK AO2 T00221011
04850KAOH AOH20161201092511912/01/16 09:25:31  5-MIN KAOH 011425Z AUTO 24017G25KT 10SM OVC024 02/M01 A2982 1070 78 -100 250/17G25 RMK AO2 T00221011
04850KAOH AOH20161201093011912/01/16 09:30:31  5-MIN KAOH 011430Z AUTO 25016G25KT 10SM OVC024 03/M01 A2982 1070 75 -100 250/16G25 RMK AO2 T00281011
04850KAOH AOH20161201093511912/01/16 09:35:31  5-MIN KAOH 011435Z AUTO 25016G22KT 10SM OVC024 03/M01 A2982 1070 75 -100 250/16G22 RMK AO2 T00281011
04850KAOH AOH20161201094011312/01/16 09:40:31  5-MIN KAOH 011440Z AUTO 24017KT 10SM OVC024 03/M01 A2982 1070 75 -100 250/17 RMK AO2 T00281011
04850KAOH AOH20161201094511912/01/16 09:45:31  5-MIN KAOH 011445Z AUTO 25012G21KT 10SM OVC023 03/M01 A2983 1060 75 -100 250/12G21 RMK AO2 T00281011
04850KAOH AOH20161201095013212/01/16 09:50:31  5-MIN KAOH 011450Z AUTO 25018G23KT 10SM OVC023 03/M01 A2983 1060 75 -100 250/18G23 RMK AO2 SLP107 T00281011 53008
04850KAOH AOH20161201095511912/01/16 09:55:31  5-MIN KAOH 011455Z AUTO 24017G25KT 10SM OVC023 03/M01 A2983 1060 75 -100 240/17G25 RMK AO2 T00281011
04850KAOH AOH20161201100012612/01/16 10:00:31  5-MIN KAOH 011500Z AUTO 24016G25KT 10SM BKN023 OVC041 03/M01 A2983 1060 75 -100 240/16G25 RMK AO2 T00281011
04850KAOH AOH20161201100512012/01/16 10:05:31  5-MIN KAOH 011505Z AUTO 24016KT 10SM BKN023 OVC041 03/M01 A2983 1060 75 -100 250/16 RMK AO2 T00281011
04850KAOH AOH20161201101012612/01/16 10:10:31  5-MIN KAOH 011510Z AUTO 24019G24KT 10SM BKN023 OVC043 03/M01 A2984 1060 75 -100 250/19G24 RMK AO2 T00281011
04850KAOH AOH20161201101512612/01/16 10:15:31  5-MIN KAOH 011515Z AUTO 24015G24KT 10SM BKN023 OVC043 03/M01 A2984 1050 75 -100 250/15G24 RMK AO2 T00281011
04850KAOH AOH20161201102012612/01/16 10:20:31  5-MIN KAOH 011520Z AUTO 24016G24KT 10SM BKN023 OVC043 03/M01 A2984 1050 75 -100 250/16G24 RMK AO2 T00281011
04850KAOH AOH20161201102512612/01/16 10:25:31  5-MIN KAOH 011525Z AUTO 24017G24KT 10SM BKN025 OVC043 03/M01 A2984 1050 75 -100 250/17G24 RMK AO2 T00281011
04850KAOH AOH20161201103012612/01/16 10:30:31  5-MIN KAOH 011530Z AUTO 24018G23KT 10SM BKN025 OVC043 03/M01 A2985 1050 75 -100 240/18G23 RMK AO2 T00281011
04850KAOH AOH20161201103512612/01/16 10:35:31  5-MIN KAOH 011535Z AUTO 24015G23KT 10SM SCT025 OVC043 03/M01 A2985 1050 75 -100 250/15G23 RMK AO2 T00281011
04850KAOH AOH20161201104012012/01/16 10:40:31  5-MIN KAOH 011540Z AUTO 24016KT 10SM SCT025 OVC042 03/M01 A2985 1050 75 -100 250/16 RMK AO2 T00281011
04850KAOH AOH20161201104512612/01/16 10:45:31  5-MIN KAOH 011545Z AUTO 24017G23KT 10SM BKN025 OVC042 03/M01 A2985 1040 75 -100 250/17G23 RMK AO2 T00281011
04850KAOH AOH20161201105011612/01/16 10:50:31  5-MIN KAOH 011550Z AUTO 24019G25KT 10SM BKN025 OVC042 03/M01 A2985 1040 75 -100 240/19G25 RMK AO2
04850KAOH AOH20161201105514412/01/16 10:55:31  5-MIN KAOH 011555Z AUTO 24021G26KT 10SM BKN024 OVC042 03/M01 A2985 1040 75 -100 240/21G26 RMK AO2 PK WND 24026/1554 T00281011
04850KAOH AOH20161201110014412/01/16 11:00:31  5-MIN KAOH 011600Z AUTO 24016G26KT 10SM SCT024 OVC042 03/M01 A2985 1040 75 -100 250/16G26 RMK AO2 PK WND 24026/1554 T00281011
04850KAOH AOH20161201110514412/01/16 11:05:31  5-MIN KAOH 011605Z AUTO 24019G23KT 10SM BKN024 OVC042 03/M01 A2985 1040 75 -100 250/19G23 RMK AO2 PK WND 24026/1554 T00281011
04850KAOH AOH20161201111014412/01/16 11:10:31  5-MIN KAOH 011610Z AUTO 24020G24KT 10SM BKN024 OVC043 03/M01 A2985 1040 75 -100 240/20G24 RMK AO2 PK WND 24026/1554 T00281011
04850KAOH AOH20161201111514412/01/16 11:15:31  5-MIN KAOH 011615Z AUTO 24018G24KT 10SM BKN024 OVC043 03/M01 A2985 1040 75 -100 250/18G24 RMK AO2 PK WND 24026/1554 T00281011
04850KAOH AOH20161201112014412/01/16 11:20:31  5-MIN KAOH 011620Z AUTO 24014G24KT 10SM BKN024 OVC043 03/M01 A2985 1040 75 -100 250/14G24 RMK AO2 PK WND 24026/1554 T00281011
04850KAOH AOH20161201112514112/01/16 11:25:31  5-MIN KAOH 011625Z AUTO 25017G22KT 10SM BKN024 OVC043 03/M01 A2985 1040 76 0 250/17G22 RMK AO2 PK WND 24026/1554 T00331006
04850KAOH AOH20161201113013512/01/16 11:30:31  5-MIN KAOH 011630Z AUTO 25020KT 10SM BKN024 OVC044 03/M01 A2985 1040 72 0 250/20 RMK AO2 PK WND 24026/1554 T00331011
04850KAOH AOH20161201113514112/01/16 11:35:31  5-MIN KAOH 011635Z AUTO 25020G25KT 10SM BKN024 OVC044 03/M01 A2985 1040 72 0 250/20G25 RMK AO2 PK WND 24026/1554 T00331011
04850KAOH AOH20161201114013412/01/16 11:40:31  5-MIN KAOH 011640Z AUTO 25018G27KT 10SM OVC024 03/M01 A2985 1040 76 0 260/18G27 RMK AO2 PK WND 25027/1636 T00331006
04850KAOH AOH20161201114513412/01/16 11:45:31  5-MIN KAOH 011645Z AUTO 24018G27KT 10SM OVC024 03/M01 A2985 1040 76 0 240/18G27 RMK AO2 PK WND 25027/1636 T00331006
04850KAOH AOH20161201115014112/01/16 11:50:31  5-MIN KAOH 011650Z AUTO 24019G23KT 10SM OVC024 03/M01 A2985 1040 76 0 240/19G23 RMK AO2 PK WND 25027/1636 SLP114 T00331006
04850KAOH AOH20161201115511612/01/16 11:55:31  5-MIN KAOH 011655Z AUTO 24019G24KT 10SM OVC024 03/M01 A2985 1040 76 0 250/19G24 RMK AO2 T00331006
04850KAOH AOH20161201120011612/01/16 12:00:31  5-MIN KAOH 011700Z AUTO 24016G24KT 10SM OVC024 03/M01 A2985 1040 76 0 250/16G24 RMK AO2 T00331006
04850KAOH AOH20161201120511612/01/16 12:05:31  5-MIN KAOH 011705Z AUTO 24014G23KT 10SM OVC024 03/M01 A2985 1050 76 0 250/14G23 RMK AO2 T00331006
04850KAOH AOH20161201121012312/01/16 12:10:31  5-MIN KAOH 011710Z AUTO 25018G23KT 10SM BKN024 OVC045 03/M01 A2985 1050 76 0 250/18G23 RMK AO2 T00331006
04850KAOH AOH20161201121512312/01/16 12:15:31  5-MIN KAOH 011715Z AUTO 24017G23KT 10SM BKN024 OVC045 03/M01 A2985 1050 76 0 250/17G23 RMK AO2 T00331006
04850KAOH AOH20161201122012312/01/16 12:20:31  5-MIN KAOH 011720Z AUTO 24016G22KT 10SM BKN024 OVC045 03/M01 A2985 1040 76 0 240/16G22 RMK AO2 T00331006
04850KAOH AOH20161201122512312/01/16 12:25:31  5-MIN KAOH 011725Z AUTO 24017G24KT 10SM BKN024 OVC045 03/M01 A2985 1050 76 0 250/17G24 RMK AO2 T00331006
04850KAOH AOH20161201123012312/01/16 12:30:31  5-MIN KAOH 011730Z AUTO 24018G23KT 10SM BKN024 OVC044 03/M01 A2985 1050 76 0 240/18G23 RMK AO2 T00331006
04850KAOH AOH20161201123512312/01/16 12:35:31  5-MIN KAOH 011735Z AUTO 24016G23KT 10SM BKN024 OVC044 03/M01 A2985 1040 76 0 250/16G23 RMK AO2 T00331006
04850KAOH AOH20161201124012312/01/16 12:40:31  5-MIN KAOH 011740Z AUTO 25018G24KT 10SM BKN024 OVC044 03/M01 A2985 1040 76 0 260/18G24 RMK AO2 T00331006
04850KAOH AOH20161201124512312/01/16 12:45:31  5-MIN KAOH 011745Z AUTO 25016G24KT 10SM BKN023 OVC044 03/M01 A2985 1040 76 0 260/16G24 RMK AO2 T00331006
04850KAOH AOH20161201125014212/01/16 12:50:31  5-MIN KAOH 011750Z AUTO 25016KT 10SM BKN023 OVC044 03/M01 A2985 1040 76 0 250/16 RMK AO2 SLP114 T00331006 10033 20022 53014
04850KAOH AOH20161201125512312/01/16 12:55:31  5-MIN KAOH 011755Z AUTO 25018G23KT 10SM BKN023 OVC042 03/M01 A2985 1040 76 0 260/18G23 RMK AO2 T00331006
04850KAOH AOH20161201130014112/01/16 13:00:31  5-MIN KAOH 011800Z AUTO 25018G26KT 10SM BKN023 OVC042 03/M01 A2985 1040 76 0 250/18G26 RMK AO2 PK WND 23026/1758 T00331006
04850KAOH AOH20161201130514112/01/16 13:05:31  5-MIN KAOH 011805Z AUTO 25021G27KT 10SM BKN023 OVC042 03/M01 A2985 1040 76 0 260/21G27 RMK AO2 PK WND 25027/1804 T00331006
04850KAOH AOH20161201131014112/01/16 13:10:31  5-MIN KAOH 011810Z AUTO 24018G27KT 10SM BKN023 OVC042 03/M01 A2985 1040 76 0 240/18G27 RMK AO2 PK WND 25027/1804 T00331006
04850KAOH AOH20161201131514112/01/16 13:15:31  5-MIN KAOH 011815Z AUTO 24020G25KT 10SM BKN023 OVC042 03/M01 A2985 1040 76 0 250/20G25 RMK AO2 PK WND 25027/1804 T00331006
04850KAOH AOH20161201132014112/01/16 13:20:31  5-MIN KAOH 011820Z AUTO 25018G25KT 10SM BKN023 OVC042 03/M01 A2985 1040 76 0 250/18G25 RMK AO2 PK WND 25027/1804 T00331006
04850KAOH AOH20161201132514112/01/16 13:25:31  5-MIN KAOH 011825Z AUTO 24019G27KT 10SM BKN023 OVC044 03/M01 A2985 1040 76 0 250/19G27 RMK AO2 PK WND 23027/1825 T00331006
04850KAOH AOH20161201133014112/01/16 13:30:31  5-MIN KAOH 011830Z AUTO 25017G27KT 10SM BKN023 OVC044 03/M01 A2985 1040 76 0 250/17G27 RMK AO2 PK WND 23027/1825 T00331006
04850KAOH AOH20161201133514112/01/16 13:35:31  5-MIN KAOH 011835Z AUTO 24018G24KT 10SM BKN023 OVC044 03/M01 A2985 1040 76 0 240/18G24 RMK AO2 PK WND 23027/1825 T00331006
04850KAOH AOH20161201134014812/01/16 13:40:31  5-MIN KAOH 011840Z AUTO 24017G26KT 10SM BKN022 BKN027 OVC047 03/M01 A2985 1040 76 0 250/17G26 RMK AO2 PK WND 23027/1825 T00331006
04850KAOH AOH20161201134514812/01/16 13:45:31  5-MIN KAOH 011845Z AUTO 23019G26KT 10SM BKN022 BKN027 OVC047 03/M01 A2985 1040 76 0 240/19G26 RMK AO2 PK WND 23027/1825 T00331006
04850KAOH AOH20161201135015512/01/16 13:50:31  5-MIN KAOH 011850Z AUTO 24017G25KT 10SM BKN022 BKN027 OVC047 03/M01 A2986 1040 76 0 240/17G25 RMK AO2 PK WND 23027/1825 SLP117 T00331006
04850KAOH AOH20161201135511712/01/16 13:55:31  5-MIN KAOH 011855Z AUTO 25015KT 10SM BKN022 OVC027 03/M01 A2986 1040 76 0 250/15 RMK AO2 T00331006
04850KAOH AOH20161201140012312/01/16 14:00:31  5-MIN KAOH 011900Z AUTO 25016G23KT 10SM BKN022 OVC027 03/M01 A2986 1040 76 0 250/16G23 RMK AO2 T00331006
04850KAOH AOH20161201140512312/01/16 14:05:31  5-MIN KAOH 011905Z AUTO 25018G23KT 10SM BKN022 OVC027 03/M01 A2986 1040 76 0 250/18G23 RMK AO2 T00331006
04850KAOH AOH20161201141011012/01/16 14:10:31  5-MIN KAOH 011910Z AUTO 25019KT 10SM OVC022 03/M01 A2986 1030 76 0 250/19 RMK AO2 T00331006
04850KAOH AOH20161201141511612/01/16 14:15:31  5-MIN KAOH 011915Z AUTO 25017G24KT 10SM OVC022 03/M01 A2986 1030 76 0 250/17G24 RMK AO2 T00331006
04850KAOH AOH20161201142011612/01/16 14:20:31  5-MIN KAOH 011920Z AUTO 25018G24KT 10SM OVC023 03/M01 A2986 1030 76 0 250/18G24 RMK AO2 T00331006
04850KAOH AOH20161201142511012/01/16 14:25:31  5-MIN KAOH 011925Z AUTO 24016KT 10SM OVC023 03/M01 A2986 1030 76 0 240/16 RMK AO2 T00331006
04850KAOH AOH20161201143011012/01/16 14:30:31  5-MIN KAOH 011930Z AUTO 24017KT 10SM OVC023 03/M01 A2986 1030 76 0 250/17 RMK AO2 T00331006
04850KAOH AOH20161201143511712/01/16 14:35:31  5-MIN KAOH 011935Z AUTO 25017KT 10SM BKN023 OVC030 03/M01 A2986 1030 76 0 250/17 RMK AO2 T00331006
04850KAOH AOH20161201144012312/01/16 14:40:31  5-MIN KAOH 011940Z AUTO 25019G23KT 10SM BKN023 OVC030 03/M01 A2986 1030 76 0 260/19G23 RMK AO2 T00331006
04850KAOH AOH20161201144512312/01/16 14:45:31  5-MIN KAOH 011945Z AUTO 25015G23KT 10SM BKN023 OVC030 03/M01 A2987 1030 76 0 250/15G23 RMK AO2 T00331006
04850KAOH AOH20161201145012612/01/16 14:50:31  5-MIN KAOH 011950Z AUTO 24014KT 10SM BKN023 OVC029 03/00 A2987 1030 79 -100 250/14 RMK AO2 SLP121 T00330000
04850KAOH AOH20161201145512012/01/16 14:55:31  5-MIN KAOH 011955Z AUTO 25017KT 10SM BKN023 OVC029 03/M01 A2987 1020 76 -100 250/17 RMK AO2 T00331006
04850KAOH AOH20161201150012612/01/16 15:00:31  5-MIN KAOH 012000Z AUTO 25018G22KT 10SM BKN025 OVC030 03/M01 A2987 1020 76 -100 250/18G22 RMK AO2 T00331006
04850KAOH AOH20161201150511912/01/16 15:05:31  5-MIN KAOH 012005Z AUTO 24017G25KT 10SM OVC025 03/M01 A2987 1020 76 -100 250/17G25 RMK AO2 T00331006
04850KAOH AOH20161201151012612/01/16 15:10:31  5-MIN KAOH 012010Z AUTO 25017G25KT 10SM BKN023 OVC029 03/M01 A2987 1020 76 -100 250/17G25 RMK AO2 T00331006
04850KAOH AOH20161201151512012/01/16 15:15:31  5-MIN KAOH 012015Z AUTO 25017KT 10SM BKN024 OVC029 03/M01 A2988 1020 76 -100 260/17 RMK AO2 T00331006
04850KAOH AOH20161201152012512/01/16 15:20:31  5-MIN KAOH 012020Z AUTO 25014G23KT 10SM BKN024 OVC029 03/00 A2988 1020 79 -100 260/14G23 RMK AO2 T00330000
04850KAOH AOH20161201152511312/01/16 15:25:31  5-MIN KAOH 012025Z AUTO 25017KT 10SM OVC026 03/M01 A2988 1020 76 -100 250/17 RMK AO2 T00331006
04850KAOH AOH20161201153011312/01/16 15:30:31  5-MIN KAOH 012030Z AUTO 25016KT 10SM OVC026 03/M01 A2988 1010 76 -100 260/16 RMK AO2 T00331006
04850KAOH AOH20161201153511312/01/16 15:35:31  5-MIN KAOH 012035Z AUTO 25014KT 10SM OVC026 03/M01 A2988 1010 76 -100 250/14 RMK AO2 T00331006
04850KAOH AOH20161201154011212/01/16 15:40:31  5-MIN KAOH 012040Z AUTO 24014KT 10SM OVC026 03/00 A2989 1010 79 -100 250/14 RMK AO2 T00330000
04850KAOH AOH20161201154511212/01/16 15:45:31  5-MIN KAOH 012045Z AUTO 24012KT 10SM OVC024 03/00 A2989 1010 79 -100 250/12 RMK AO2 T00330000
04850KAOH AOH20161201155012512/01/16 15:50:31  5-MIN KAOH 012050Z AUTO 24012KT 10SM OVC024 03/00 A2989 1000 79 -100 250/12 RMK AO2 SLP130 T00330000 52001
04850KAOH AOH20161201155511812/01/16 15:55:31  5-MIN KAOH 012055Z AUTO 25015G20KT 10SM OVC024 03/00 A2989 1000 79 -100 260/15G20 RMK AO2 T00330000
04850KAOH AOH20161201160011212/01/16 16:00:31  5-MIN KAOH 012100Z AUTO 24013KT 10SM OVC024 03/00 A2990 1000 79 -100 250/13 RMK AO2 T00330000
04850KAOH AOH20161201160511912/01/16 16:05:31  5-MIN KAOH 012105Z AUTO 25017G21KT 10SM OVC024 03/M01 A2990 1000 76 -100 250/17G21 RMK AO2 T00331006
04850KAOH AOH20161201161011712/01/16 16:10:31  5-MIN KAOH 012110Z AUTO 24016G21KT 10SM OVC023 03/00 A2990 990 79 -100 250/16G21 RMK AO2 T00330000
04850KAOH AOH20161201161511112/01/16 16:15:31  5-MIN KAOH 012115Z AUTO 25015KT 10SM OVC023 03/00 A2990 990 79 -100 250/15 RMK AO2 T00330000
04850KAOH AOH20161201162011112/01/16 16:20:31  5-MIN KAOH 012120Z AUTO 24013KT 10SM OVC023 03/00 A2991 990 79 -100 240/13 RMK AO2 T00330000
04850KAOH AOH20161201162511112/01/16 16:25:31  5-MIN KAOH 012125Z AUTO 24014KT 10SM OVC023 03/00 A2991 990 79 -100 240/14 RMK AO2 T00330000
04850KAOH AOH20161201163011112/01/16 16:30:31  5-MIN KAOH 012130Z AUTO 24015KT 10SM OVC023 03/00 A2991 990 79 -100 250/15 RMK AO2 T00330000
04850KAOH AOH20161201163511712/01/16 16:35:31  5-MIN KAOH 012135Z AUTO 24017G21KT 10SM OVC023 03/00 A2991 990 79 -100 250/17G21 RMK AO2 T00330000
04850KAOH AOH20161201164011712/01/16 16:40:31  5-MIN KAOH 012140Z AUTO 24012G21KT 10SM OVC023 03/00 A2991 990 79 -100 250/12G21 RMK AO2 T00330000
04850KAOH AOH20161201164511812/01/16 16:45:31  5-MIN KAOH 012145Z AUTO 24014KT 10SM BKN023 OVC031 03/00 A2991 980 79 -100 240/14 RMK AO2 T00330000
04850KAOH AOH20161201165013212/01/16 16:50:31  5-MIN KAOH 012150Z AUTO 24015KT 10SM BKN023 BKN031 OVC039 03/00 A2992 980 79 -100 250/15 RMK AO2 SLP138 T00330000
04850KAOH AOH20161201165511812/01/16 16:55:31  5-MIN KAOH 012155Z AUTO 24015KT 10SM BKN023 OVC035 03/00 A2992 980 79 -100 250/15 RMK AO2 T00330000
04850KAOH AOH20161201170011812/01/16 17:00:31  5-MIN KAOH 012200Z AUTO 25014KT 10SM BKN023 OVC032 03/00 A2992 980 79 -100 250/14 RMK AO2 T00330000
04850KAOH AOH20161201170512512/01/16 17:05:31  5-MIN KAOH 012205Z AUTO 24015KT 10SM BKN023 BKN030 OVC040 03/00 A2992 980 79 -100 250/15 RMK AO2 T00330000
04850KAOH AOH20161201171012512/01/16 17:10:31  5-MIN KAOH 012210Z AUTO 24016KT 10SM SCT023 BKN030 OVC043 03/00 A2992 970 79 -100 250/16 RMK AO2 T00330000
04850KAOH AOH20161201171512512/01/16 17:15:31  5-MIN KAOH 012215Z AUTO 24015KT 10SM SCT023 BKN030 OVC043 03/00 A2992 970 79 -100 250/15 RMK AO2 T00330000
04850KAOH AOH20161201172012612/01/16 17:20:31  5-MIN KAOH 012220Z AUTO 24015KT 10SM SCT025 SCT030 OVC045 03/M01 A2993 970 76 -100 240/15 RMK AO2 T00331006
04850KAOH AOH20161201172513112/01/16 17:25:31  5-MIN KAOH 012225Z AUTO 24016G24KT 10SM FEW025 FEW030 OVC045 03/00 A2993 970 79 -100 240/16G24 RMK AO2 T00330000
04850KAOH AOH20161201173012512/01/16 17:30:31  5-MIN KAOH 012230Z AUTO 24016G24KT 10SM FEW030 OVC044 03/M01 A2993 970 76 -100 250/16G24 RMK AO2 T00331006
04850KAOH AOH20161201173511812/01/16 17:35:31  5-MIN KAOH 012235Z AUTO 24015G25KT 10SM OVC044 03/M01 A2993 970 76 -100 240/15G25 RMK AO2 T00331006
04850KAOH AOH20161201174011812/01/16 17:40:31  5-MIN KAOH 012240Z AUTO 24016G25KT 10SM OVC043 03/M01 A2993 970 76 -100 250/16G25 RMK AO2 T00331006
04850KAOH AOH20161201174511812/01/16 17:45:31  5-MIN KAOH 012245Z AUTO 25017G24KT 10SM OVC041 03/M01 A2994 960 76 -100 250/17G24 RMK AO2 T00331006
04850KAOH AOH20161201175013212/01/16 17:50:31  5-MIN KAOH 012250Z AUTO 24017KT 10SM FEW027 BKN036 OVC043 03/00 A2993 960 82 -200 250/17 RMK AO2 SLP144 T00280000
04850KAOH AOH20161201175514712/01/16 17:55:31  5-MIN KAOH 012255Z AUTO 24013G23KT 10SM -RA FEW027 BKN036 OVC043 03/00 A2994 960 82 -200 250/13G23 RMK AO2 RAB55 P0000 T00280000
04850KAOH AOH20161201180013712/01/16 18:00:31  5-MIN KAOH 012300Z AUTO 24015KT 10SM FEW030 OVC039 03/00 A2994 960 82 -200 250/15 RMK AO2 RAB2255E2259 P0000 T00280000
04850KAOH AOH20161201180513012/01/16 18:05:31  5-MIN KAOH 012305Z AUTO 24015KT 10SM OVC037 03/00 A2994 960 82 -200 250/15 RMK AO2 RAB2255E2259 P0000 T00280000
04850KAOH AOH20161201181013012/01/16 18:10:31  5-MIN KAOH 012310Z AUTO 24013KT 10SM OVC037 03/00 A2994 960 82 -200 240/13 RMK AO2 RAB2255E2259 P0000 T00280000
04850KAOH AOH20161201181513712/01/16 18:15:31  5-MIN KAOH 012315Z AUTO 24013KT 10SM FEW029 OVC037 03/00 A2994 960 82 -200 240/13 RMK AO2 RAB2255E2259 P0000 T00280000
04850KAOH AOH20161201182013012/01/16 18:20:31  5-MIN KAOH 012320Z AUTO 24011KT 10SM OVC037 03/00 A2994 960 82 -200 250/11 RMK AO2 RAB2255E2259 P0000 T00280000
04850KAOH AOH20161201182513012/01/16 18:25:31  5-MIN KAOH 012325Z AUTO 24012KT 10SM OVC037 03/00 A2994 960 82 -200 250/12 RMK AO2 RAB2255E2259 P0000 T00280000
04850KAOH AOH20161201183013112/01/16 18:30:31  5-MIN KAOH 012330Z AUTO 25012KT 10SM OVC037 03/M01 A2994 960 79 -200 250/12 RMK AO2 RAB2255E2259 P0000 T00281006
04850KAOH AOH20161201183513112/01/16 18:35:31  5-MIN KAOH 012335Z AUTO 25012KT 10SM OVC035 03/M01 A2994 950 79 -200 250/12 RMK AO2 RAB2255E2259 P0000 T00281006
04850KAOH AOH20161201184013112/01/16 18:40:31  5-MIN KAOH 012340Z AUTO 25013KT 10SM OVC035 03/M01 A2994 960 76 -100 260/13 RMK AO2 RAB2255E2259 P0000 T00331006
04850KAOH AOH20161201184513112/01/16 18:45:31  5-MIN KAOH 012345Z AUTO 25012KT 10SM OVC035 03/M01 A2995 950 76 -100 250/12 RMK AO2 RAB2255E2259 P0000 T00331006
04850KAOH AOH20161201185016912/01/16 18:50:31  5-MIN KAOH 012350Z AUTO 25013KT 10SM BKN033 OVC040 03/M01 A2995 950 79 -200 250/13 RMK AO2 RAB2255E2259 SLP148 P0000 60000 T00281006 10033 20028 53015
04850KAOH AOH20161201185511912/01/16 18:55:31  5-MIN KAOH 012355Z AUTO 25013KT 10SM BKN033 OVC040 03/M01 A2995 950 76 -100 250/13 RMK AO2 T00331006
04850KAOH AOH20161201190011912/01/16 19:00:31  5-MIN KAOH 020000Z AUTO 24012KT 10SM BKN033 OVC040 03/M01 A2995 950 76 -100 250/12 RMK AO2 T00331006
04850KAOH AOH20161201190511912/01/16 19:05:31  5-MIN KAOH 020005Z AUTO 25011KT 10SM FEW030 OVC040 03/M01 A2995 950 76 -100 250/11 RMK AO2 T00331006
04850KAOH AOH20161201191011912/01/16 19:10:31  5-MIN KAOH 020010Z AUTO 24014KT 10SM FEW030 OVC040 03/M01 A2995 950 76 -100 240/14 RMK AO2 T00331006
04850KAOH AOH20161201191513212/01/16 19:15:31  5-MIN KAOH 020015Z AUTO 24017G21KT 10SM FEW030 BKN042 OVC050 03/M01 A2994 960 79 -200 250/17G21 RMK AO2 T00281006
04850KAOH AOH20161201192013212/01/16 19:20:31  5-MIN KAOH 020020Z AUTO 24017G21KT 10SM FEW032 BKN042 BKN050 03/M01 A2994 960 79 -200 240/17G21 RMK AO2 T00281006
04850KAOH AOH20161201192511912/01/16 19:25:31  5-MIN KAOH 020025Z AUTO 24013KT 10SM SCT042 BKN050 03/M01 A2994 960 79 -200 240/13 RMK AO2 T00281006
04850KAOH AOH20161201193011212/01/16 19:30:31  5-MIN KAOH 020030Z AUTO 24018KT 10SM SCT047 03/M01 A2995 950 79 -200 240/18 RMK AO2 T00281006
04850KAOH AOH20161201193511912/01/16 19:35:31  5-MIN KAOH 020035Z AUTO 24013KT 10SM SCT038 SCT049 03/M01 A2995 950 79 -200 250/13 RMK AO2 T00281006
04850KAOH AOH20161201194011912/01/16 19:40:31  5-MIN KAOH 020040Z AUTO 25013KT 10SM SCT038 BKN049 03/M01 A2995 950 79 -200 250/13 RMK AO2 T00281006
04850KAOH AOH20161201194511212/01/16 19:45:31  5-MIN KAOH 020045Z AUTO 25012KT 10SM BKN038 03/M01 A2995 950 79 -200 260/12 RMK AO2 T00281006
04850KAOH AOH20161201195011912/01/16 19:50:31  5-MIN KAOH 020050Z AUTO 25011KT 10SM BKN038 03/M01 A2996 950 79 -200 250/11 RMK AO2 SLP151 T00281006
04850KAOH AOH20161201195511912/01/16 19:55:31  5-MIN KAOH 020055Z AUTO 25011KT 10SM FEW028 BKN038 03/M01 A2996 940 79 -200 250/11 RMK AO2 T00281006
04850KAOH AOH20161201200011912/01/16 20:00:31  5-MIN KAOH 020100Z AUTO 25012KT 10SM SCT026 OVC038 03/M01 A2996 940 79 -200 250/12 RMK AO2 T00281006
04850KAOH AOH20161201200511912/01/16 20:05:31  5-MIN KAOH 020105Z AUTO 25011KT 10SM FEW026 OVC038 03/M01 A2996 940 79 -200 250/11 RMK AO2 T00281006
04850KAOH AOH20161201201011912/01/16 20:10:31  5-MIN KAOH 020110Z AUTO 24011KT 10SM FEW026 OVC037 03/M01 A2996 940 79 -200 250/11 RMK AO2 T00281006
04850KAOH AOH20161201201511912/01/16 20:15:31  5-MIN KAOH 020115Z AUTO 25012KT 10SM FEW026 OVC037 03/M01 A2996 940 79 -200 250/12 RMK AO2 T00281006
04850KAOH AOH20161201202011912/01/16 20:20:31  5-MIN KAOH 020120Z AUTO 25012KT 10SM FEW026 OVC038 03/M01 A2996 940 79 -200 250/12 RMK AO2 T00281006
04850KAOH AOH20161201202511912/01/16 20:25:31  5-MIN KAOH 020125Z AUTO 24012KT 10SM FEW026 OVC040 03/M01 A2996 940 79 -200 250/12 RMK AO2 T00281006
04850KAOH AOH20161201203011212/01/16 20:30:31  5-MIN KAOH 020130Z AUTO 24012KT 10SM OVC038 03/M01 A2996 940 79 -200 250/12 RMK AO2 T00281006
04850KAOH AOH20161201203511212/01/16 20:35:31  5-MIN KAOH 020135Z AUTO 25014KT 10SM OVC038 03/M01 A2996 940 79 -200 250/14 RMK AO2 T00281006
04850KAOH AOH20161201204011812/01/16 20:40:31  5-MIN KAOH 020140Z AUTO 25012KT 10SM FEW024 OVC038 03/00 A2996 940 82 -200 260/12 RMK AO2 T00280000
04850KAOH AOH20161201204511812/01/16 20:45:31  5-MIN KAOH 020145Z AUTO 25011KT 10SM SCT024 OVC038 03/00 A2997 940 82 -200 250/11 RMK AO2 T00280000
04850KAOH AOH20161201205012512/01/16 20:50:31  5-MIN KAOH 020150Z AUTO 24010KT 10SM SCT024 OVC035 03/00 A2997 930 82 -200 250/10 RMK AO2 SLP155 T00280000
04850KAOH AOH20161201205512512/01/16 20:55:31  5-MIN KAOH 020155Z AUTO 24009KT 10SM BKN022 BKN030 OVC035 03/00 A2997 930 82 -200 250/09 RMK AO2 T00280000
04850KAOH AOH20161201210012512/01/16 21:00:31  5-MIN KAOH 020200Z AUTO 25012KT 10SM BKN022 BKN028 OVC037 03/00 A2997 930 82 -200 250/12 RMK AO2 T00280000
04850KAOH AOH20161201210512512/01/16 21:05:31  5-MIN KAOH 020205Z AUTO 24011KT 10SM BKN022 BKN028 OVC037 03/00 A2997 930 82 -200 250/11 RMK AO2 T00280000
04850KAOH AOH20161201211011812/01/16 21:10:31  5-MIN KAOH 020210Z AUTO 24012KT 10SM BKN023 OVC037 03/00 A2997 930 82 -200 250/12 RMK AO2 T00280000
04850KAOH AOH20161201211511812/01/16 21:15:31  5-MIN KAOH 020215Z AUTO 25011KT 10SM BKN023 OVC037 03/00 A2997 930 82 -200 250/11 RMK AO2 T00280000
04850KAOH AOH20161201212011812/01/16 21:20:31  5-MIN KAOH 020220Z AUTO 25014KT 10SM SCT023 OVC037 03/00 A2997 930 82 -200 250/14 RMK AO2 T00280000
04850KAOH AOH20161201212511812/01/16 21:25:31  5-MIN KAOH 020225Z AUTO 24014KT 10SM FEW023 OVC037 03/00 A2997 930 82 -200 250/14 RMK AO2 T00280000
04850KAOH AOH20161201213011912/01/16 21:30:31  5-MIN KAOH 020230Z AUTO 24012KT 10SM FEW023 OVC036 03/M01 A2997 930 79 -200 250/12 RMK AO2 T00281006
04850KAOH AOH20161201213511112/01/16 21:35:31  5-MIN KAOH 020235Z AUTO 24012KT 10SM OVC036 03/00 A2997 930 82 -200 250/12 RMK AO2 T00280000
04850KAOH AOH20161201214011212/01/16 21:40:31  5-MIN KAOH 020240Z AUTO 25013KT 10SM OVC036 03/M01 A2997 930 79 -200 250/13 RMK AO2 T00281006
04850KAOH AOH20161201214511112/01/16 21:45:31  5-MIN KAOH 020245Z AUTO 25011KT 10SM OVC038 03/00 A2997 930 82 -200 250/11 RMK AO2 T00280000
04850KAOH AOH20161201215012512/01/16 21:50:31  5-MIN KAOH 020250Z AUTO 24012KT 10SM OVC038 03/M01 A2998 930 79 -200 250/12 RMK AO2 SLP158 T00281006 51017
04850KAOH AOH20161201215511212/01/16 21:55:31  5-MIN KAOH 020255Z AUTO 24013KT 10SM OVC038 03/M01 A2998 930 79 -200 250/13 RMK AO2 T00281006
04850KAOH AOH20161201220011212/01/16 22:00:31  5-MIN KAOH 020300Z AUTO 24010KT 10SM OVC038 03/M01 A2998 920 79 -200 250/10 RMK AO2 T00281006
04850KAOH AOH20161201220511112/01/16 22:05:31  5-MIN KAOH 020305Z AUTO 24012KT 10SM OVC036 03/00 A2998 920 82 -200 250/12 RMK AO2 T00280000
04850KAOH AOH20161201221011812/01/16 22:10:31  5-MIN KAOH 020310Z AUTO 24013G19KT 10SM OVC038 03/M01 A2998 920 79 -200 240/13G19 RMK AO2 T00281006
04850KAOH AOH20161201221511912/01/16 22:15:31  5-MIN KAOH 020315Z AUTO 24012KT 10SM FEW022 OVC038 03/M01 A2998 920 79 -300 250/12 RMK AO2 T00281006
04850KAOH AOH20161201222011812/01/16 22:20:31  5-MIN KAOH 020320Z AUTO 24011KT 10SM FEW022 OVC036 03/00 A2998 920 82 -300 250/11 RMK AO2 T00280000
04850KAOH AOH20161201222511212/01/16 22:25:31  5-MIN KAOH 020325Z AUTO 25016KT 10SM OVC036 03/M01 A2998 920 79 -300 250/16 RMK AO2 T00281006
04850KAOH AOH20161201223011212/01/16 22:30:31  5-MIN KAOH 020330Z AUTO 25016KT 10SM OVC036 03/M01 A2999 920 79 -300 250/16 RMK AO2 T00281006
04850KAOH AOH20161201223511212/01/16 22:35:31  5-MIN KAOH 020335Z AUTO 25012KT 10SM OVC036 03/M01 A2999 920 79 -300 250/12 RMK AO2 T00281006
04850KAOH AOH20161201224011112/01/16 22:40:31  5-MIN KAOH 020340Z AUTO 25012KT 10SM OVC035 03/00 A2999 920 82 -300 250/12 RMK AO2 T00280000
04850KAOH AOH20161201224511712/01/16 22:45:31  5-MIN KAOH 020345Z AUTO 25015G21KT 10SM OVC035 03/00 A2999 910 82 -300 250/15G21 RMK AO2 T00280000
04850KAOH AOH20161201225012412/01/16 22:50:31  5-MIN KAOH 020350Z AUTO 24015G22KT 10SM OVC035 03/00 A2999 920 82 -300 250/15G22 RMK AO2 SLP162 T00280000
04850KAOH AOH20161201225511812/01/16 22:55:31  5-MIN KAOH 020355Z AUTO 25015G22KT 10SM OVC034 03/M01 A2999 910 79 -300 260/15G22 RMK AO2 T00281006
04850KAOH AOH20161201230011712/01/16 23:00:31  5-MIN KAOH 020400Z AUTO 24011G22KT 10SM OVC034 03/00 A2999 910 82 -300 250/11G22 RMK AO2 T00280000
04850KAOH AOH20161201230511812/01/16 23:05:31  5-MIN KAOH 020405Z AUTO 24013G19KT 10SM OVC034 03/M01 A2999 910 79 -300 250/13G19 RMK AO2 T00281006
04850KAOH AOH20161201231011212/01/16 23:10:31  5-MIN KAOH 020410Z AUTO 25014KT 10SM OVC034 03/M01 A2999 920 79 -300 250/14 RMK AO2 T00281006
04850KAOH AOH20161201231511212/01/16 23:15:31  5-MIN KAOH 020415Z AUTO 24014KT 10SM OVC035 03/M01 A2999 910 79 -300 250/14 RMK AO2 T00281006
04850KAOH AOH20161201232011812/01/16 23:20:31  5-MIN KAOH 020420Z AUTO 25017G22KT 10SM OVC035 03/M01 A2999 910 79 -300 250/17G22 RMK AO2 T00281006
04850KAOH AOH20161201232512412/01/16 23:25:31  5-MIN KAOH 020425Z AUTO 25016KT 10SM FEW027 OVC035 03/M01 A2999 910 79 -300 260/16 RMK AO2 T00281006 TSNO
04850KAOH AOH20161201233012412/01/16 23:30:31  5-MIN KAOH 020430Z AUTO 25013KT 10SM SCT027 OVC035 03/M01 A2999 910 79 -300 250/13 RMK AO2 T00281006 TSNO
04850KAOH AOH20161201233512412/01/16 23:35:31  5-MIN KAOH 020435Z AUTO 25014KT 10SM BKN027 OVC036 03/M01 A2999 910 79 -300 260/14 RMK AO2 T00281006 TSNO
04850KAOH AOH20161201234012412/01/16 23:40:31  5-MIN KAOH 020440Z AUTO 25012KT 10SM BKN027 OVC036 03/M01 A2999 910 79 -300 260/12 RMK AO2 T00281006 TSNO
04850KAOH AOH20161201234512412/01/16 23:45:31  5-MIN KAOH 020445Z AUTO 25014KT 10SM BKN027 OVC034 03/M01 A2999 910 79 -300 260/14 RMK AO2 T00281006 TSNO
04850KAOH AOH20161201235014012/01/16 23:50:31  5-MIN KAOH 020450Z AUTO 25012KT 10SM BKN027 OVC034 03/00 A2999 910 82 -300 260/12 RMK AO2 SLP163 T00280000 400330017 TSNO
04850KAOH AOH20161201235511712/01/16 23:55:31  5-MIN KAOH 020455Z AUTO 25014KT 10SM OVC026 03/M01 A2999 910 79 -300 260/14 RMK AO2 T00281006 TSNO
04850KAOH AOH20161202000011712/02/16 00:00:31  5-MIN KAOH 020500Z AUTO 25013KT 10SM OVC026 03/M01 A3000 910 79 -300 250/13 RMK AO2 T00281006 TSNO
04850KAOH AOH20161202000511712/02/16 00:05:31  5-MIN KAOH 020505Z AUTO 25013KT 10SM OVC026 03/M01 A3000 910 79 -300 260/13 RMK AO2 T00281006 TSNO
04850KAOH AOH20161202001011712/02/16 00:10:31  5-MIN KAOH 020510Z AUTO 25013KT 10SM OVC026 03/M01 A3000 900 79 -300 250/13 RMK AO2 T00281006 TSNO
04850KAOH AOH20161202001511712/02/16 00:15:31  5-MIN KAOH 020515Z AUTO 25014KT 10SM OVC026 02/M01 A3000 910 82 -300 260/14 RMK AO2 T00221006 TSNO
04850KAOH AOH20161202002011712/02/16 00:20:31  5-MIN KAOH 020520Z AUTO 25012KT 10SM OVC026 02/M01 A3000 910 82 -300 260/12 RMK AO2 T00221006 TSNO
04850KAOH AOH20161202002511212/02/16 00:25:31  5-MIN KAOH 020525Z AUTO 25012KT 10SM OVC026 02/M01 A3000 910 82 -300 260/12 RMK AO2 T00221006
04850KAOH AOH20161202003011212/02/16 00:30:31  5-MIN KAOH 020530Z AUTO 25012KT 10SM OVC026 02/M01 A3000 910 82 -300 260/12 RMK AO2 T00221006
04850KAOH AOH20161202003511212/02/16 00:35:31  5-MIN KAOH 020535Z AUTO 25012KT 10SM OVC026 02/M01 A3000 910 82 -300 260/12 RMK AO2 T00221006
04850KAOH AOH20161202004011212/02/16 00:40:31  5-MIN KAOH 020540Z AUTO 25011KT 10SM OVC026 02/M01 A3000 900 82 -300 260/11 RMK AO2 T00221006
04850KAOH AOH20161202004511212/02/16 00:45:31  5-MIN KAOH 020545Z AUTO 25013KT 10SM OVC026 02/M01 A3000 900 82 -300 260/13 RMK AO2 T00221006
04850KAOH AOH20161202005013712/02/16 00:50:31  5-MIN KAOH 020550Z AUTO 25012KT 10SM OVC026 02/M01 A3000 900 82 -300 250/12 RMK AO2 SLP167 T00221006 10033 20022 51010
04850KAOH AOH20161202005511212/02/16 00:55:31  5-MIN KAOH 020555Z AUTO 24012KT 10SM OVC026 02/M01 A3000 900 82 -300 250/12 RMK AO2 T00221006
04850KAOH AOH20161202010011212/02/16 01:00:31  5-MIN KAOH 020600Z AUTO 25012KT 10SM OVC028 02/M01 A3000 900 82 -300 250/12 RMK AO2 T00221006
04850KAOH AOH20161202010511212/02/16 01:05:31  5-MIN KAOH 020605Z AUTO 25010KT 10SM OVC028 02/M01 A3000 900 82 -300 250/10 RMK AO2 T00221006
04850KAOH AOH20161202011011212/02/16 01:10:31  5-MIN KAOH 020610Z AUTO 24010KT 10SM OVC028 03/M01 A3000 900 79 -300 250/10 RMK AO2 T00281006
04850KAOH AOH20161202011511212/02/16 01:15:31  5-MIN KAOH 020615Z AUTO 24011KT 10SM OVC028 02/M01 A3000 900 82 -300 250/11 RMK AO2 T00221006
04850KAOH AOH20161202012011212/02/16 01:20:31  5-MIN KAOH 020620Z AUTO 24010KT 10SM OVC030 02/M01 A3000 900 82 -300 250/10 RMK AO2 T00221006
04850KAOH AOH20161202012511212/02/16 01:25:31  5-MIN KAOH 020625Z AUTO 24012KT 10SM OVC030 03/M01 A3000 900 79 -300 250/12 RMK AO2 T00281006
04850KAOH AOH20161202013011212/02/16 01:30:31  5-MIN KAOH 020630Z AUTO 24012KT 10SM OVC030 02/M01 A3000 900 82 -300 250/12 RMK AO2 T00221006
04850KAOH AOH20161202013511212/02/16 01:35:31  5-MIN KAOH 020635Z AUTO 24011KT 10SM OVC029 02/M01 A3000 900 82 -300 250/11 RMK AO2 T00221006
04850KAOH AOH20161202014011212/02/16 01:40:31  5-MIN KAOH 020640Z AUTO 25012KT 10SM OVC029 02/M01 A3001 900 82 -300 250/12 RMK AO2 T00221006
04850KAOH AOH20161202014511212/02/16 01:45:31  5-MIN KAOH 020645Z AUTO 24012KT 10SM OVC029 02/M01 A3001 900 82 -300 250/12 RMK AO2 T00221006
04850KAOH AOH20161202015010212/02/16 01:50:31  5-MIN KAOH 020650Z AUTO 25011KT 10SM OVC030 02/M01 A3001 900 82 -300 260/11 RMK AO2
04850KAOH AOH20161202015511212/02/16 01:55:31  5-MIN KAOH 020655Z AUTO 25012KT 10SM OVC030 02/M01 A3001 900 82 -400 250/12 RMK AO2 T00221006
04850KAOH AOH20161202020011212/02/16 02:00:31  5-MIN KAOH 020700Z AUTO 25010KT 10SM OVC030 02/M01 A3001 890 82 -400 250/10 RMK AO2 T00221006
04850KAOH AOH20161202020511212/02/16 02:05:31  5-MIN KAOH 020705Z AUTO 25010KT 10SM OVC031 02/M01 A3001 890 82 -400 260/10 RMK AO2 T00221006
04850KAOH AOH20161202021011212/02/16 02:10:31  5-MIN KAOH 020710Z AUTO 25010KT 10SM OVC031 02/M01 A3001 890 82 -400 260/10 RMK AO2 T00221006
04850KAOH AOH20161202021511212/02/16 02:15:31  5-MIN KAOH 020715Z AUTO 25011KT 10SM OVC031 02/M01 A3001 890 82 -400 260/11 RMK AO2 T00221006
04850KAOH AOH20161202022011212/02/16 02:20:31  5-MIN KAOH 020720Z AUTO 25011KT 10SM OVC031 02/M01 A3001 890 82 -400 260/11 RMK AO2 T00221006
04850KAOH AOH20161202022511212/02/16 02:25:31  5-MIN KAOH 020725Z AUTO 25010KT 10SM OVC031 02/M01 A3001 890 82 -400 260/10 RMK AO2 T00221006
04850KAOH AOH20161202023011212/02/16 02:30:31  5-MIN KAOH 020730Z AUTO 25011KT 10SM OVC031 02/M01 A3001 890 82 -400 260/11 RMK AO2 T00221006
04850KAOH AOH20161202023511212/02/16 02:35:31  5-MIN KAOH 020735Z AUTO 25012KT 10SM OVC031 02/M01 A3002 890 82 -400 260/12 RMK AO2 T00221006
04850KAOH AOH20161202024011212/02/16 02:40:31  5-MIN KAOH 020740Z AUTO 26011KT 10SM OVC029 02/M01 A3002 890 82 -400 260/11 RMK AO2 T00221006
04850KAOH AOH20161202024511212/02/16 02:45:31  5-MIN KAOH 020745Z AUTO 25012KT 10SM OVC029 02/M01 A3002 890 82 -400 260/12 RMK AO2 T00221006
04850KAOH AOH20161202025011912/02/16 02:50:31  5-MIN KAOH 020750Z AUTO 26013KT 10SM OVC027 02/M01 A3002 890 82 -400 260/13 RMK AO2 SLP173 T00221006
04850KAOH AOH20161202025511212/02/16 02:55:31  5-MIN KAOH 020755Z AUTO 25011KT 10SM OVC027 02/M01 A3002 880 82 -400 260/11 RMK AO2 T00221006
04850KAOH AOH20161202030011212/02/16 03:00:31  5-MIN KAOH 020800Z AUTO 25011KT 10SM OVC027 02/M01 A3002 880 82 -400 260/11 RMK AO2 T00221006
04850KAOH AOH20161202030511212/02/16 03:05:31  5-MIN KAOH 020805Z AUTO 25011KT 10SM OVC027 02/M01 A3002 880 82 -400 260/11 RMK AO2 T00221006
04850KAOH AOH20161202031011212/02/16 03:10:31  5-MIN KAOH 020810Z AUTO 25012KT 10SM OVC027 02/M01 A3002 880 82 -400 250/12 RMK AO2 T00221006
04850KAOH AOH20161202031511212/02/16 03:15:31  5-MIN KAOH 020815Z AUTO 25012KT 10SM OVC027 02/M01 A3002 880 82 -400 250/12 RMK AO2 T00221006
04850KAOH AOH20161202032011212/02/16 03:20:31  5-MIN KAOH 020820Z AUTO 25012KT 10SM OVC027 02/M01 A3003 880 82 -400 260/12 RMK AO2 T00221006
04850KAOH AOH20161202032511212/02/16 03:25:31  5-MIN KAOH 020825Z AUTO 24011KT 10SM OVC027 02/M01 A3002 880 82 -400 250/11 RMK AO2 T00221006
04850KAOH AOH20161202033011212/02/16 03:30:31  5-MIN KAOH 020830Z AUTO 24011KT 10SM OVC027 02/M01 A3002 880 82 -400 250/11 RMK AO2 T00221006
04850KAOH AOH20161202033511212/02/16 03:35:31  5-MIN KAOH 020835Z AUTO 25013KT 10SM OVC027 02/M01 A3002 880 82 -400 260/13 RMK AO2 T00221006
04850KAOH AOH20161202034011212/02/16 03:40:31  5-MIN KAOH 020840Z AUTO 25011KT 10SM OVC027 02/M01 A3002 880 82 -400 260/11 RMK AO2 T00221006
04850KAOH AOH20161202034511212/02/16 03:45:31  5-MIN KAOH 020845Z AUTO 25013KT 10SM OVC027 02/M01 A3002 880 82 -400 250/13 RMK AO2 T00221006
04850KAOH AOH20161202035012512/02/16 03:50:31  5-MIN KAOH 020850Z AUTO 25013KT 10SM OVC027 02/M01 A3002 880 82 -400 260/13 RMK AO2 SLP174 T00221006 51007
04850KAOH AOH20161202035511212/02/16 03:55:31  5-MIN KAOH 020855Z AUTO 25012KT 10SM OVC027 02/M01 A3002 880 82 -400 250/12 RMK AO2 T00221006
04850KAOH AOH20161202040011212/02/16 04:00:31  5-MIN KAOH 020900Z AUTO 25011KT 10SM OVC027 02/M01 A3003 880 82 -400 260/11 RMK AO2 T00221006
04850KAOH AOH20161202040511212/02/16 04:05:31  5-MIN KAOH 020905Z AUTO 25011KT 10SM OVC027 02/M01 A3003 880 82 -400 260/11 RMK AO2 T00221006
04850KAOH AOH20161202041011212/02/16 04:10:31  5-MIN KAOH 020910Z AUTO 25012KT 10SM OVC027 02/M01 A3003 880 82 -400 260/12 RMK AO2 T00221006
04850KAOH AOH20161202041511212/02/16 04:15:31  5-MIN KAOH 020915Z AUTO 25010KT 10SM OVC027 02/M01 A3003 880 82 -400 260/10 RMK AO2 T00221006
04850KAOH AOH20161202042011212/02/16 04:20:31  5-MIN KAOH 020920Z AUTO 25010KT 10SM OVC027 02/M01 A3003 870 82 -400 260/10 RMK AO2 T00221006
04850KAOH AOH20161202042511212/02/16 04:25:31  5-MIN KAOH 020925Z AUTO 25012KT 10SM OVC027 02/M01 A3003 870 82 -400 250/12 RMK AO2 T00221006
04850KAOH AOH20161202043011212/02/16 04:30:31  5-MIN KAOH 020930Z AUTO 25011KT 10SM OVC026 02/M01 A3003 870 82 -400 250/11 RMK AO2 T00221006
04850KAOH AOH20161202043511212/02/16 04:35:31  5-MIN KAOH 020935Z AUTO 24012KT 10SM OVC026 02/M01 A3004 870 82 -400 250/12 RMK AO2 T00221006
04850KAOH AOH20161202044011212/02/16 04:40:31  5-MIN KAOH 020940Z AUTO 25010KT 10SM OVC026 02/M01 A3004 870 82 -400 250/10 RMK AO2 T00221006
04850KAOH AOH20161202044511212/02/16 04:45:31  5-MIN KAOH 020945Z AUTO 25013KT 10SM OVC026 02/M01 A3004 870 82 -400 260/13 RMK AO2 T00221006
04850KAOH AOH20161202045011912/02/16 04:50:31  5-MIN KAOH 020950Z AUTO 25012KT 10SM OVC026 02/M01 A3004 870 82 -400 260/12 RMK AO2 SLP181 T00221006
04850KAOH AOH20161202045511212/02/16 04:55:31  5-MIN KAOH 020955Z AUTO 25013KT 10SM OVC026 02/M01 A3004 860 82 -400 260/13 RMK AO2 T00221006
04850KAOH AOH20161202050011212/02/16 05:00:31  5-MIN KAOH 021000Z AUTO 25012KT 10SM OVC026 02/M01 A3005 860 82 -400 260/12 RMK AO2 T00221006
04850KAOH AOH20161202050511212/02/16 05:05:31  5-MIN KAOH 021005Z AUTO 25013KT 10SM OVC026 02/M01 A3005 860 82 -400 260/13 RMK AO2 T00221006
04850KAOH AOH20161202051011212/02/16 05:10:31  5-MIN KAOH 021010Z AUTO 26012KT 10SM OVC026 02/M01 A3004 860 82 -400 270/12 RMK AO2 T00221006
04850KAOH AOH20161202051511212/02/16 05:15:31  5-MIN KAOH 021015Z AUTO 25011KT 10SM OVC026 02/M01 A3004 860 82 -400 260/11 RMK AO2 T00221006
04850KAOH AOH20161202052011212/02/16 05:20:31  5-MIN KAOH 021020Z AUTO 25010KT 10SM OVC026 02/M01 A3004 860 82 -400 260/10 RMK AO2 T00221006
04850KAOH AOH20161202052511212/02/16 05:25:31  5-MIN KAOH 021025Z AUTO 25010KT 10SM OVC026 02/M01 A3004 860 82 -400 250/10 RMK AO2 T00221006
04850KAOH AOH20161202053011212/02/16 05:30:31  5-MIN KAOH 021030Z AUTO 25010KT 10SM OVC027 02/M01 A3005 860 82 -400 260/10 RMK AO2 T00221006
04850KAOH AOH20161202053511212/02/16 05:35:31  5-MIN KAOH 021035Z AUTO 25009KT 10SM OVC027 02/M01 A3005 860 82 -400 260/09 RMK AO2 T00221006
04850KAOH AOH20161202054011212/02/16 05:40:31  5-MIN KAOH 021040Z AUTO 25010KT 10SM OVC027 02/M01 A3005 860 82 -400 260/10 RMK AO2 T00221006
04850KAOH AOH20161202054511212/02/16 05:45:31  5-MIN KAOH 021045Z AUTO 25011KT 10SM OVC027 02/M01 A3005 850 82 -400 250/11 RMK AO2 T00221006
04850KAOH AOH20161202055011912/02/16 05:50:31  5-MIN KAOH 021050Z AUTO 25011KT 10SM OVC027 02/M01 A3006 850 82 -400 260/11 RMK AO2 SLP185 T00221006
04850KAOH AOH20161202055511212/02/16 05:55:31  5-MIN KAOH 021055Z AUTO 25010KT 10SM OVC027 02/M01 A3006 850 82 -400 260/10 RMK AO2 T00221006
04850KAOH AOH20161202060011212/02/16 06:00:31  5-MIN KAOH 021100Z AUTO 26012KT 10SM OVC027 02/M01 A3006 850 82 -400 260/12 RMK AO2 T00221006
04850KAOH AOH20161202060511212/02/16 06:05:31  5-MIN KAOH 021105Z AUTO 26012KT 10SM OVC026 02/M01 A3006 850 82 -400 260/12 RMK AO2 T00221006
04850KAOH AOH20161202061011212/02/16 06:10:31  5-MIN KAOH 021110Z AUTO 25010KT 10SM OVC026 02/M01 A3006 850 82 -400 260/10 RMK AO2 T00221006
04850KAOH AOH20161202061511212/02/16 06:15:31  5-MIN KAOH 021115Z AUTO 25010KT 10SM OVC025 02/M01 A3006 850 82 -400 260/10 RMK AO2 T00221006
04850KAOH AOH20161202062011212/02/16 06:20:31  5-MIN KAOH 021120Z AUTO 25010KT 10SM OVC023 02/M01 A3006 840 82 -400 260/10 RMK AO2 T00221006
04850KAOH AOH20161202062511212/02/16 06:25:31  5-MIN KAOH 021125Z AUTO 25010KT 10SM OVC023 02/M01 A3007 840 82 -400 260/10 RMK AO2 T00221006
04850KAOH AOH20161202063011212/02/16 06:30:31  5-MIN KAOH 021130Z AUTO 25013KT 10SM OVC023 02/M01 A3007 840 82 -400 250/13 RMK AO2 T00221006
04850KAOH AOH20161202063511212/02/16 06:35:31  5-MIN KAOH 021135Z AUTO 25013KT 10SM OVC025 02/M01 A3007 840 82 -400 260/13 RMK AO2 T00221006
04850KAOH AOH20161202064011212/02/16 06:40:31  5-MIN KAOH 021140Z AUTO 26012KT 10SM OVC025 02/M01 A3007 840 82 -400 260/12 RMK AO2 T00221006
04850KAOH AOH20161202064511212/02/16 06:45:31  5-MIN KAOH 021145Z AUTO 25010KT 10SM OVC025 02/M01 A3007 840 82 -400 260/10 RMK AO2 T00221006
04850KAOH AOH20161202065013712/02/16 06:50:31  5-MIN KAOH 021150Z AUTO 25011KT 10SM OVC025 02/M01 A3007 840 82 -400 260/11 RMK AO2 SLP192 T00221006 10028 20022 51008
04850KAOH AOH20161202065511212/02/16 06:55:31  5-MIN KAOH 021155Z AUTO 24011KT 10SM OVC025 02/M01 A3007 840 82 -400 250/11 RMK AO2 T00221006
04850KAOH AOH20161202070011212/02/16 07:00:31  5-MIN KAOH 021200Z AUTO 25011KT 10SM OVC025 02/M01 A3007 840 82 -400 260/11 RMK AO2 T00221006
04850KAOH AOH20161202070511212/02/16 07:05:31  5-MIN KAOH 021205Z AUTO 25010KT 10SM OVC025 02/M01 A3008 830 82 -400 260/10 RMK AO2 T00221006
04850KAOH AOH20161202071013412/02/16 07:10:31  5-MIN KAOH 021210Z AUTO 26009KT 10SM UP BKN023 OVC028 02/M01 A3008 830 85 -500 270/09 RMK AO2 UPB06 P0000 T00171006
04850KAOH AOH20161202071513412/02/16 07:15:31  5-MIN KAOH 021215Z AUTO 26011KT 10SM BKN023 OVC028 02/M01 A3008 830 85 -500 260/11 RMK AO2 UPB06E15 P0000 T00171006
04850KAOH AOH20161202072013412/02/16 07:20:31  5-MIN KAOH 021220Z AUTO 25010KT 10SM BKN022 OVC027 02/M01 A3008 830 85 -500 260/10 RMK AO2 UPB06E15 P0000 T00171006
04850KAOH AOH20161202072513412/02/16 07:25:31  5-MIN KAOH 021225Z AUTO 25010KT 10SM BKN022 OVC027 02/M01 A3008 830 85 -500 260/10 RMK AO2 UPB06E15 P0000 T00171006
04850KAOH AOH20161202073014312/02/16 07:30:31  5-MIN KAOH 021230Z AUTO 25011KT 10SM -RA SCT022 OVC027 02/M01 A3008 830 85 -500 260/11 RMK AO2 UPB06E15RAB27 P0000 T00171006
04850KAOH AOH20161202073514312/02/16 07:35:31  5-MIN KAOH 021235Z AUTO 25010KT 10SM -RA SCT021 OVC027 02/M01 A3008 830 85 -500 260/10 RMK AO2 UPB06E15RAB27 P0000 T00171006
04850KAOH AOH20161202074014212/02/16 07:40:31  5-MIN KAOH 021240Z AUTO 25012KT 10SM FEW021 OVC027 02/M01 A3008 830 85 -500 260/12 RMK AO2 UPB06E15RAB27E36 P0000 T00171006
04850KAOH AOH20161202074514212/02/16 07:45:31  5-MIN KAOH 021245Z AUTO 25011KT 10SM FEW021 OVC027 02/M01 A3008 830 85 -500 260/11 RMK AO2 UPB06E15RAB27E36 P0000 T00171006
04850KAOH AOH20161202075014912/02/16 07:50:31  5-MIN KAOH 021250Z AUTO 25012KT 10SM FEW021 OVC027 02/M01 A3008 830 85 -500 250/12 RMK AO2 UPB06E15RAB27E36 SLP195 P0000 T00171006
04850KAOH AOH20161202075511912/02/16 07:55:31  5-MIN KAOH 021255Z AUTO 25013KT 10SM FEW019 OVC027 02/M01 A3009 820 82 -400 260/13 RMK AO2 T00221006
04850KAOH AOH20161202080011912/02/16 08:00:31  5-MIN KAOH 021300Z AUTO 24011KT 10SM FEW019 OVC027 02/M01 A3009 820 82 -400 250/11 RMK AO2 T00221006
04850KAOH AOH20161202080512512/02/16 08:05:31  5-MIN KAOH 021305Z AUTO 25012KT 10SM FEW016 FEW021 OVC027 02/00 A3009 820 89 -500 250/12 RMK AO2 T00170000
04850KAOH AOH20161202081012512/02/16 08:10:31  5-MIN KAOH 021310Z AUTO 25013KT 10SM FEW016 FEW021 OVC027 02/00 A3009 820 85 -400 260/13 RMK AO2 T00220000
04850KAOH AOH20161202081512512/02/16 08:15:31  5-MIN KAOH 021315Z AUTO 25011KT 10SM FEW016 FEW021 OVC027 02/00 A3009 820 89 -500 250/11 RMK AO2 T00170000
04850KAOH AOH20161202082011812/02/16 08:20:31  5-MIN KAOH 021320Z AUTO 25013KT 10SM FEW015 OVC027 02/00 A3009 820 89 -500 250/13 RMK AO2 T00170000
04850KAOH AOH20161202082511812/02/16 08:25:31  5-MIN KAOH 021325Z AUTO 24011KT 10SM FEW015 OVC029 02/00 A3010 810 89 -500 240/11 RMK AO2 T00170000
04850KAOH AOH20161202083011812/02/16 08:30:31  5-MIN KAOH 021330Z AUTO 24012KT 10SM FEW015 OVC029 02/00 A3010 810 89 -500 250/12 RMK AO2 T00170000
04850KAOH AOH20161202083511812/02/16 08:35:31  5-MIN KAOH 021335Z AUTO 25014KT 10SM FEW015 OVC029 02/00 A3010 810 89 -500 250/14 RMK AO2 T00170000
04850KAOH AOH20161202084011812/02/16 08:40:31  5-MIN KAOH 021340Z AUTO 25014KT 10SM SCT013 OVC029 02/00 A3010 810 89 -500 250/14 RMK AO2 T00170000
04850KAOH AOH20161202084512512/02/16 08:45:31  5-MIN KAOH 021345Z AUTO 25013KT 10SM SCT011 SCT016 OVC029 02/01 A3011 810 92 -500 260/13 RMK AO2 T00170006
04850KAOH AOH20161202085010812/02/16 08:50:31  5-MIN KAOH 021350Z AUTO 25012KT 10SM BKN013 OVC029 02/01 A3011 810 92 -500 250/12 RMK AO2
04850KAOH AOH20161202085512512/02/16 08:55:31  5-MIN KAOH 021355Z AUTO 25011KT 10SM BKN013 BKN018 OVC030 02/01 A3011 800 92 -500 250/11 RMK AO2 T00170006
04850KAOH AOH20161202090012512/02/16 09:00:31  5-MIN KAOH 021400Z AUTO 25012KT 10SM BKN013 BKN018 OVC030 02/01 A3011 800 92 -500 260/12 RMK AO2 T00170006
04850KAOH AOH20161202090511812/02/16 09:05:31  5-MIN KAOH 021405Z AUTO 25012KT 10SM BKN013 OVC018 02/01 A3011 800 92 -500 250/12 RMK AO2 T00170006
04850KAOH AOH20161202091014012/02/16 09:10:31  5-MIN KAOH 021410Z AUTO 25012KT 8SM -RA BKN012 BKN018 OVC032 02/01 A3011 800 92 -500 260/12 RMK AO2 RAB10 P0000 T00170006
04850KAOH AOH20161202091513312/02/16 09:15:31  5-MIN KAOH 021415Z AUTO 24012KT 7SM -RA BKN012 OVC018 02/01 A3011 800 92 -500 250/12 RMK AO2 RAB10 P0000 T00170006
04850KAOH AOH20161202092013312/02/16 09:20:31  5-MIN KAOH 021420Z AUTO 25012KT 7SM -RA BKN012 OVC021 02/01 A3011 800 92 -500 260/12 RMK AO2 RAB10 P0000 T00170006
04850KAOH AOH20161202092514412/02/16 09:25:31  5-MIN KAOH 021425Z AUTO 25011KT 6SM -RA BR BKN012 OVC019 02/01 A3011 800 92 -500 250/11 RMK AO2 RAB10SNB21E22 P0000 T00170006
04850KAOH AOH20161202093013412/02/16 09:30:31  5-MIN KAOH 021430Z AUTO 25012KT 7SM -SN OVC012 02/01 A3011 800 96 -500 250/12 RMK AO2 RAB10E30SNB21 P0000 T00170011
04850KAOH AOH20161202093514012/02/16 09:35:31  5-MIN KAOH 021435Z AUTO 25010KT 8SM BKN010 OVC013 02/01 A3011 800 96 -500 260/10 RMK AO2 RAB10E30SNB21E31 P0000 T00170011
04850KAOH AOH20161202094013312/02/16 09:40:31  5-MIN KAOH 021440Z AUTO 25013KT 9SM OVC010 02/01 A3012 800 96 -500 260/13 RMK AO2 RAB10E30SNB21E31 P0000 T00170011
04850KAOH AOH20161202094513412/02/16 09:45:31  5-MIN KAOH 021445Z AUTO 25013KT 10SM OVC010 02/01 A3011 800 96 -500 260/13 RMK AO2 RAB10E30SNB21E31 P0000 T00170011
04850KAOH AOH20161202095015212/02/16 09:50:31  5-MIN KAOH 021450Z AUTO 25011KT 9SM OVC010 02/01 A3012 800 96 -500 260/11 RMK AO2 RAB10E30SNB21E31 SLP206 P0000 60000 T00170011 51016
04850KAOH AOH20161202095511012/02/16 09:55:31  5-MIN KAOH 021455Z AUTO 25012KT 9SM OVC010 02/01 A3012 800 96 -500 260/12 RMK AO2 T00170011
04850KAOH AOH20161202100011712/02/16 10:00:31  5-MIN KAOH 021500Z AUTO 25012KT 9SM BKN011 OVC018 02/01 A3012 790 96 -500 260/12 RMK AO2 T00170011
04850KAOH AOH20161202100511712/02/16 10:05:31  5-MIN KAOH 021505Z AUTO 25012KT 7SM BKN011 OVC018 02/01 A3012 790 96 -500 260/12 RMK AO2 T00170011
04850KAOH AOH20161202101013612/02/16 10:10:31  5-MIN KAOH 021510Z AUTO 26013KT 5SM -RA BR BKN011 OVC018 02/01 A3012 790 96 -500 260/13 RMK AO2 RAB08 P0000 T00170011
04850KAOH AOH20161202101513612/02/16 10:15:31  5-MIN KAOH 021515Z AUTO 25012KT 5SM -RA BR BKN011 OVC018 02/01 A3012 790 96 -500 260/12 RMK AO2 RAB08 P0000 T00170011
04850KAOH AOH20161202102012812/02/16 10:20:31  5-MIN KAOH 021520Z AUTO 26011KT 6SM BR OVC011 02/01 A3012 790 96 -500 260/11 RMK AO2 RAB08E19 P0000 T00170011
04850KAOH AOH20161202102514412/02/16 10:25:31  5-MIN KAOH 021525Z AUTO 25013KT 8SM BKN009 OVC015 02/01 A3012 790 96 -500 260/13 RMK AO2 RAB08E19 CIG 007V013 P0000 T00170011
04850KAOH AOH20161202103014412/02/16 10:30:31  5-MIN KAOH 021530Z AUTO 26013KT 9SM BKN009 OVC015 02/01 A3012 790 96 -600 260/13 RMK AO2 RAB08E19 CIG 007V011 P0000 T00170011
04850KAOH AOH20161202103514512/02/16 10:35:31  5-MIN KAOH 021535Z AUTO 26012KT 10SM BKN009 OVC013 02/01 A3013 790 92 -500 260/12 RMK AO2 RAB08E19 CIG 007V011 P0000 T00220011
04850KAOH AOH20161202104012612/02/16 10:40:31  5-MIN KAOH 021540Z AUTO 25013KT 10SM OVC011 02/01 A3013 790 92 -500 260/13 RMK AO2 RAB08E19 P0000 T00220011
04850KAOH AOH20161202104512612/02/16 10:45:31  5-MIN KAOH 021545Z AUTO 26013KT 10SM OVC011 02/01 A3013 790 92 -500 260/13 RMK AO2 RAB08E19 P0000 T00220011
04850KAOH AOH20161202105013312/02/16 10:50:31  5-MIN KAOH 021550Z AUTO 26012KT 10SM OVC011 02/01 A3013 790 92 -500 260/12 RMK AO2 RAB08E19 SLP209 P0000 T00220011
04850KAOH AOH20161202105511012/02/16 10:55:31  5-MIN KAOH 021555Z AUTO 26014KT 9SM OVC011 02/01 A3013 790 92 -500 260/14 RMK AO2 T00220011
04850KAOH AOH20161202110011012/02/16 11:00:31  5-MIN KAOH 021600Z AUTO 25011KT 9SM OVC013 02/02 A3013 790 96 -500 260/11 RMK AO2 T00220017
04850KAOH AOH20161202110511112/02/16 11:05:31  5-MIN KAOH 021605Z AUTO 25011KT 10SM OVC013 02/01 A3013 790 92 -500 260/11 RMK AO2 T00220011
04850KAOH AOH20161202111011112/02/16 11:10:31  5-MIN KAOH 021610Z AUTO 26012KT 10SM OVC013 02/01 A3013 790 92 -500 260/12 RMK AO2 T00220011
04850KAOH AOH20161202111511812/02/16 11:15:31  5-MIN KAOH 021615Z AUTO 26013KT 10SM BKN012 OVC035 02/01 A3013 790 92 -500 260/13 RMK AO2 T00220011
04850KAOH AOH20161202112011812/02/16 11:20:31  5-MIN KAOH 021620Z AUTO 26012KT 10SM BKN012 OVC035 02/01 A3013 790 92 -500 270/12 RMK AO2 T00220011
04850KAOH AOH20161202112511812/02/16 11:25:31  5-MIN KAOH 021625Z AUTO 26012KT 10SM BKN012 OVC035 02/02 A3013 790 96 -500 270/12 RMK AO2 T00220017
04850KAOH AOH20161202113011812/02/16 11:30:31  5-MIN KAOH 021630Z AUTO 26014KT 10SM BKN012 OVC035 02/01 A3012 790 92 -500 260/14 RMK AO2 T00220011
04850KAOH AOH20161202113511812/02/16 11:35:31  5-MIN KAOH 021635Z AUTO 25015KT 10SM BKN012 OVC035 02/01 A3012 790 92 -500 260/15 RMK AO2 T00220011
04850KAOH AOH20161202114012412/02/16 11:40:31  5-MIN KAOH 021640Z AUTO 26014G20KT 10SM SCT012 OVC035 03/01 A3013 790 89 -400 270/14G20 RMK AO2 T00280011
04850KAOH AOH20161202114511812/02/16 11:45:31  5-MIN KAOH 021645Z AUTO 26013KT 10SM FEW011 OVC035 03/01 A3012 790 89 -400 260/13 RMK AO2 T00280011
04850KAOH AOH20161202115012512/02/16 11:50:31  5-MIN KAOH 021650Z AUTO 26014KT 10SM FEW011 OVC033 03/01 A3013 790 89 -400 260/14 RMK AO2 SLP209 T00280011
04850KAOH AOH20161202115512512/02/16 11:55:31  5-MIN KAOH 021655Z AUTO 26012KT 10SM SCT014 BKN030 OVC035 03/01 A3013 790 89 -400 260/12 RMK AO2 T00280011
04850KAOH AOH20161202120012512/02/16 12:00:31  5-MIN KAOH 021700Z AUTO 26012KT 10SM FEW014 SCT018 OVC030 03/01 A3012 790 89 -400 260/12 RMK AO2 T00280011
04850KAOH AOH20161202120512512/02/16 12:05:31  5-MIN KAOH 021705Z AUTO 25013KT 10SM SCT014 BKN022 OVC032 03/01 A3012 790 89 -400 260/13 RMK AO2 T00280011
04850KAOH AOH20161202121012512/02/16 12:10:31  5-MIN KAOH 021710Z AUTO 26012KT 10SM BKN014 BKN021 OVC032 03/01 A3012 790 89 -400 260/12 RMK AO2 T00280011
04850KAOH AOH20161202121512512/02/16 12:15:31  5-MIN KAOH 021715Z AUTO 25013KT 10SM SCT014 BKN021 OVC031 03/01 A3012 790 89 -400 260/13 RMK AO2 T00280011
04850KAOH AOH20161202122012512/02/16 12:20:31  5-MIN KAOH 021720Z AUTO 26013KT 10SM SCT014 BKN021 OVC033 03/01 A3012 790 89 -400 270/13 RMK AO2 T00280011
04850KAOH AOH20161202122512512/02/16 12:25:31  5-MIN KAOH 021725Z AUTO 27011KT 10SM SCT014 BKN021 OVC033 03/01 A3012 790 85 -400 270/11 RMK AO2 T00280006
04850KAOH AOH20161202123012512/02/16 12:30:31  5-MIN KAOH 021730Z AUTO 26012KT 10SM SCT014 SCT021 OVC033 03/01 A3012 790 85 -400 260/12 RMK AO2 T00280006
04850KAOH AOH20161202123512512/02/16 12:35:31  5-MIN KAOH 021735Z AUTO 26014KT 10SM FEW014 SCT021 OVC032 03/01 A3012 790 85 -400 260/14 RMK AO2 T00280006
04850KAOH AOH20161202124012512/02/16 12:40:31  5-MIN KAOH 021740Z AUTO 26013KT 10SM FEW014 FEW021 OVC032 03/01 A3012 790 85 -400 260/13 RMK AO2 T00280006
04850KAOH AOH20161202124511812/02/16 12:45:31  5-MIN KAOH 021745Z AUTO 26015KT 10SM FEW017 OVC032 03/01 A3012 790 82 -300 260/15 RMK AO2 T00330006
04850KAOH AOH20161202125014912/02/16 12:50:31  5-MIN KAOH 021750Z AUTO 25014KT 10SM FEW017 OVC032 03/01 A3012 790 82 -300 260/14 RMK AO2 SLP208 60000 T00330006 10033 20017 51014
04850KAOH AOH20161202125511812/02/16 12:55:31  5-MIN KAOH 021755Z AUTO 25013KT 10SM FEW022 OVC032 03/01 A3012 790 82 -300 260/13 RMK AO2 T00330006
04850KAOH AOH20161202130011812/02/16 13:00:31  5-MIN KAOH 021800Z AUTO 25014KT 10SM FEW022 OVC032 03/01 A3012 790 82 -300 260/14 RMK AO2 T00330006
04850KAOH AOH20161202130511812/02/16 13:05:31  5-MIN KAOH 021805Z AUTO 24014KT 10SM FEW022 OVC033 03/01 A3012 790 82 -300 250/14 RMK AO2 T00330006
04850KAOH AOH20161202131011812/02/16 13:10:31  5-MIN KAOH 021810Z AUTO 25016KT 10SM FEW022 OVC033 03/01 A3012 790 82 -300 250/16 RMK AO2 T00330006
04850KAOH AOH20161202131512512/02/16 13:15:31  5-MIN KAOH 021815Z AUTO 26016KT 10SM FEW019 BKN035 OVC041 03/01 A3012 790 82 -300 270/16 RMK AO2 T00330006
04850KAOH AOH20161202132012512/02/16 13:20:31  5-MIN KAOH 021820Z AUTO 26014KT 10SM FEW019 BKN033 OVC041 03/01 A3012 790 82 -300 260/14 RMK AO2 T00330006
04850KAOH AOH20161202132512512/02/16 13:25:31  5-MIN KAOH 021825Z AUTO 25012KT 10SM SCT019 BKN034 OVC043 04/01 A3012 790 79 -300 250/12 RMK AO2 T00390006
04850KAOH AOH20161202133013112/02/16 13:30:31  5-MIN KAOH 021830Z AUTO 26015G22KT 10SM SCT019 BKN036 OVC043 04/01 A3012 790 79 -300 260/15G22 RMK AO2 T00390006
04850KAOH AOH20161202133513112/02/16 13:35:31  5-MIN KAOH 021835Z AUTO 25016G22KT 10SM FEW018 SCT036 OVC043 04/00 A3012 790 76 -300 260/16G22 RMK AO2 T00390000
04850KAOH AOH20161202134012512/02/16 13:40:31  5-MIN KAOH 021840Z AUTO 26013KT 10SM FEW018 SCT024 OVC043 04/00 A3012 790 76 -300 270/13 RMK AO2 T00390000
04850KAOH AOH20161202134512412/02/16 13:45:31  5-MIN KAOH 021845Z AUTO 26019G22KT 10SM FEW018 OVC045 04/00 A3012 790 76 -300 260/19G22 RMK AO2 T00390000
04850KAOH AOH20161202135013212/02/16 13:50:31  5-MIN KAOH 021850Z AUTO 26017KT 10SM FEW018 FEW024 OVC045 04/00 A3012 790 76 -300 270/17 RMK AO2 SLP207 T00390000
04850KAOH AOH20161202135512512/02/16 13:55:31  5-MIN KAOH 021855Z AUTO 25017KT 10SM FEW020 FEW028 OVC045 04/00 A3012 790 76 -300 260/17 RMK AO2 T00390000
04850KAOH AOH20161202140011812/02/16 14:00:31  5-MIN KAOH 021900Z AUTO 24017KT 10SM FEW020 OVC045 04/00 A3012 790 76 -300 250/17 RMK AO2 T00390000
04850KAOH AOH20161202140512512/02/16 14:05:31  5-MIN KAOH 021905Z AUTO 26015KT 10SM FEW020 FEW029 OVC045 04/00 A3012 790 76 -300 260/15 RMK AO2 T00390000
04850KAOH AOH20161202141011912/02/16 14:10:31  5-MIN KAOH 021910Z AUTO 26019KT 10SM FEW022 OVC046 04/M01 A3013 790 73 -300 260/19 RMK AO2 T00391006
04850KAOH AOH20161202141511912/02/16 14:15:31  5-MIN KAOH 021915Z AUTO 26018KT 10SM FEW022 OVC046 04/M01 A3013 790 73 -300 270/18 RMK AO2 T00391006
04850KAOH AOH20161202142012412/02/16 14:20:31  5-MIN KAOH 021920Z AUTO 25016G22KT 10SM FEW022 OVC046 04/00 A3013 790 76 -300 260/16G22 RMK AO2 T00390000
04850KAOH AOH20161202142512412/02/16 14:25:31  5-MIN KAOH 021925Z AUTO 26016G22KT 10SM FEW024 OVC046 04/01 A3013 790 79 -300 260/16G22 RMK AO2 T00390006
04850KAOH AOH20161202143012512/02/16 14:30:31  5-MIN KAOH 021930Z AUTO 26015KT 10SM FEW024 SCT032 OVC046 04/01 A3013 780 79 -300 260/15 RMK AO2 T00390006
04850KAOH AOH20161202143511812/02/16 14:35:31  5-MIN KAOH 021935Z AUTO 27016KT 10SM FEW024 OVC047 04/00 A3013 780 76 -300 270/16 RMK AO2 T00390000
04850KAOH AOH20161202144011812/02/16 14:40:31  5-MIN KAOH 021940Z AUTO 25015KT 10SM SCT025 OVC047 04/00 A3013 780 76 -300 260/15 RMK AO2 T00390000
04850KAOH AOH20161202144511812/02/16 14:45:31  5-MIN KAOH 021945Z AUTO 25016KT 10SM SCT025 OVC047 04/00 A3014 780 76 -300 260/16 RMK AO2 T00390000
04850KAOH AOH20161202145013212/02/16 14:50:31  5-MIN KAOH 021950Z AUTO 27015KT 10SM SCT025 BKN039 OVC047 04/00 A3014 780 76 -300 270/15 RMK AO2 SLP212 T00390000
04850KAOH AOH20161202145512512/02/16 14:55:31  5-MIN KAOH 021955Z AUTO 27012KT 10SM SCT025 BKN039 OVC047 04/01 A3014 780 79 -300 280/12 RMK AO2 T00390006
04850KAOH AOH20161202150011812/02/16 15:00:31  5-MIN KAOH 022000Z AUTO 26014KT 10SM SCT024 OVC043 04/00 A3014 770 76 -300 260/14 RMK AO2 T00390000
04850KAOH AOH20161202150511812/02/16 15:05:31  5-MIN KAOH 022005Z AUTO 27015KT 10SM BKN024 OVC040 04/00 A3014 770 76 -300 270/15 RMK AO2 T00390000
04850KAOH AOH20161202151011812/02/16 15:10:31  5-MIN KAOH 022010Z AUTO 26013KT 10SM BKN022 OVC040 04/00 A3015 770 76 -300 270/13 RMK AO2 T00390000
04850KAOH AOH20161202151511812/02/16 15:15:31  5-MIN KAOH 022015Z AUTO 27012KT 10SM BKN022 OVC040 04/01 A3015 770 79 -300 280/12 RMK AO2 T00390006
04850KAOH AOH20161202152011812/02/16 15:20:31  5-MIN KAOH 022020Z AUTO 27013KT 10SM BKN023 OVC043 04/00 A3015 770 76 -300 270/13 RMK AO2 T00390000
04850KAOH AOH20161202152511812/02/16 15:25:31  5-MIN KAOH 022025Z AUTO 27014KT 10SM BKN023 OVC043 04/00 A3015 770 76 -300 280/14 RMK AO2 T00390000
04850KAOH AOH20161202153011812/02/16 15:30:31  5-MIN KAOH 022030Z AUTO 27014KT 10SM BKN023 OVC043 04/00 A3015 760 76 -300 270/14 RMK AO2 T00390000
04850KAOH AOH20161202153511812/02/16 15:35:31  5-MIN KAOH 022035Z AUTO 27012KT 10SM BKN023 OVC043 04/00 A3015 760 76 -300 280/12 RMK AO2 T00390000
04850KAOH AOH20161202154011812/02/16 15:40:31  5-MIN KAOH 022040Z AUTO 26014KT 10SM BKN023 OVC043 04/00 A3016 760 76 -300 270/14 RMK AO2 T00390000
04850KAOH AOH20161202154511812/02/16 15:45:31  5-MIN KAOH 022045Z AUTO 28012KT 10SM BKN023 OVC043 04/00 A3016 760 76 -300 290/12 RMK AO2 T00390000
04850KAOH AOH20161202155013812/02/16 15:50:31  5-MIN KAOH 022050Z AUTO 27010KT 10SM BKN023 BKN030 OVC044 04/00 A3016 760 76 -300 280/10 RMK AO2 SLP219 T00390000 50001
04850KAOH AOH20161202155512512/02/16 15:55:31  5-MIN KAOH 022055Z AUTO 27013KT 10SM BKN023 BKN028 OVC034 04/00 A3016 760 76 -300 280/13 RMK AO2 T00390000
04850KAOH AOH20161202160011812/02/16 16:00:31  5-MIN KAOH 022100Z AUTO 27012KT 10SM BKN023 OVC034 04/00 A3016 760 76 -300 280/12 RMK AO2 T00390000
04850KAOH AOH20161202160512512/02/16 16:05:31  5-MIN KAOH 022105Z AUTO 28015KT 10SM BKN023 BKN029 OVC035 03/00 A3016 750 79 -400 280/15 RMK AO2 T00330000
04850KAOH AOH20161202161012512/02/16 16:10:31  5-MIN KAOH 022110Z AUTO 27016KT 10SM BKN023 BKN029 OVC035 03/00 A3016 750 79 -400 280/16 RMK AO2 T00330000
04850KAOH AOH20161202161512512/02/16 16:15:31  5-MIN KAOH 022115Z AUTO 27014KT 10SM BKN023 BKN029 OVC035 03/00 A3016 750 79 -400 270/14 RMK AO2 T00330000
04850KAOH AOH20161202162012512/02/16 16:20:31  5-MIN KAOH 022120Z AUTO 26015KT 10SM BKN021 BKN028 OVC035 03/00 A3016 750 79 -400 270/15 RMK AO2 T00330000
04850KAOH AOH20161202162512512/02/16 16:25:31  5-MIN KAOH 022125Z AUTO 27013KT 10SM BKN023 BKN035 OVC042 03/00 A3017 750 79 -400 270/13 RMK AO2 T00330000
04850KAOH AOH20161202163011812/02/16 16:30:31  5-MIN KAOH 022130Z AUTO 27015KT 10SM BKN021 OVC040 03/00 A3017 750 79 -400 270/15 RMK AO2 T00330000
04850KAOH AOH20161202163511812/02/16 16:35:31  5-MIN KAOH 022135Z AUTO 27014KT 10SM BKN021 OVC041 03/00 A3017 750 79 -400 270/14 RMK AO2 T00330000
04850KAOH AOH20161202164011812/02/16 16:40:31  5-MIN KAOH 022140Z AUTO 27012KT 10SM SCT021 OVC041 03/00 A3017 750 79 -400 270/12 RMK AO2 T00330000
04850KAOH AOH20161202164511812/02/16 16:45:31  5-MIN KAOH 022145Z AUTO 27012KT 10SM SCT021 OVC041 03/00 A3017 750 79 -400 280/12 RMK AO2 T00330000
04850KAOH AOH20161202165012512/02/16 16:50:31  5-MIN KAOH 022150Z AUTO 27011KT 10SM SCT021 OVC041 03/00 A3017 750 79 -400 280/11 RMK AO2 SLP225 T00330000
04850KAOH AOH20161202165511812/02/16 16:55:31  5-MIN KAOH 022155Z AUTO 27011KT 10SM SCT023 OVC042 03/00 A3017 740 79 -400 280/11 RMK AO2 T00330000
04850KAOH AOH20161202170011812/02/16 17:00:31  5-MIN KAOH 022200Z AUTO 27013KT 10SM FEW023 OVC042 03/00 A3017 740 79 -400 280/13 RMK AO2 T00330000
04850KAOH AOH20161202170511812/02/16 17:05:31  5-MIN KAOH 022205Z AUTO 27011KT 10SM FEW023 OVC042 03/00 A3017 740 79 -400 280/11 RMK AO2 T00330000
04850KAOH AOH20161202171011812/02/16 17:10:31  5-MIN KAOH 022210Z AUTO 27012KT 10SM FEW023 OVC040 03/00 A3017 740 79 -400 280/12 RMK AO2 T00330000
04850KAOH AOH20161202171511812/02/16 17:15:31  5-MIN KAOH 022215Z AUTO 27014KT 10SM FEW023 OVC040 03/00 A3018 740 79 -400 280/14 RMK AO2 T00330000
04850KAOH AOH20161202172011812/02/16 17:20:31  5-MIN KAOH 022220Z AUTO 28011KT 10SM FEW023 OVC038 03/00 A3018 740 79 -400 280/11 RMK AO2 T00330000
04850KAOH AOH20161202172511912/02/16 17:25:31  5-MIN KAOH 022225Z AUTO 28014KT 10SM FEW021 OVC038 03/M01 A3018 740 76 -400 280/14 RMK AO2 T00331006
04850KAOH AOH20161202173011912/02/16 17:30:31  5-MIN KAOH 022230Z AUTO 27013KT 10SM FEW024 OVC038 03/M01 A3018 730 76 -400 280/13 RMK AO2 T00331006
04850KAOH AOH20161202173511912/02/16 17:35:31  5-MIN KAOH 022235Z AUTO 27015KT 10SM FEW024 OVC038 03/M01 A3019 730 76 -400 280/15 RMK AO2 T00331006
04850KAOH AOH20161202174011912/02/16 17:40:31  5-MIN KAOH 022240Z AUTO 27013KT 10SM FEW022 OVC038 03/M01 A3019 730 76 -400 280/13 RMK AO2 T00331006
04850KAOH AOH20161202174511812/02/16 17:45:31  5-MIN KAOH 022245Z AUTO 27010KT 10SM FEW024 OVC038 03/00 A3019 730 79 -400 270/10 RMK AO2 T00330000
04850KAOH AOH20161202175012512/02/16 17:50:31  5-MIN KAOH 022250Z AUTO 26012KT 10SM FEW024 OVC038 03/00 A3019 730 79 -400 270/12 RMK AO2 SLP231 T00330000
04850KAOH AOH20161202175511812/02/16 17:55:31  5-MIN KAOH 022255Z AUTO 28013KT 10SM FEW024 OVC038 03/00 A3019 730 79 -400 280/13 RMK AO2 T00330000
04850KAOH AOH20161202180011812/02/16 18:00:31  5-MIN KAOH 022300Z AUTO 27012KT 10SM SCT024 OVC038 03/00 A3019 730 79 -400 270/12 RMK AO2 T00330000
04850KAOH AOH20161202180511812/02/16 18:05:31  5-MIN KAOH 022305Z AUTO 27013KT 10SM FEW023 OVC038 03/00 A3019 720 79 -400 270/13 RMK AO2 T00330000
04850KAOH AOH20161202181011812/02/16 18:10:31  5-MIN KAOH 022310Z AUTO 27011KT 10SM FEW023 OVC038 03/00 A3019 720 79 -400 280/11 RMK AO2 T00330000
04850KAOH AOH20161202181511812/02/16 18:15:31  5-MIN KAOH 022315Z AUTO 27010KT 10SM FEW023 OVC040 03/00 A3019 720 79 -400 280/10 RMK AO2 T00330000
04850KAOH AOH20161202182011812/02/16 18:20:31  5-MIN KAOH 022320Z AUTO 28011KT 10SM FEW023 OVC042 03/00 A3020 720 79 -400 280/11 RMK AO2 T00330000
04850KAOH AOH20161202182511812/02/16 18:25:31  5-MIN KAOH 022325Z AUTO 27010KT 10SM FEW023 OVC042 03/00 A3020 720 79 -400 280/10 RMK AO2 T00330000
04850KAOH AOH20161202183011112/02/16 18:30:31  5-MIN KAOH 022330Z AUTO 28011KT 10SM OVC042 03/00 A3020 720 79 -400 290/11 RMK AO2 T00330000
04850KAOH AOH20161202183511812/02/16 18:35:31  5-MIN KAOH 022335Z AUTO 28012G18KT 10SM OVC042 03/M01 A3021 710 76 -400 290/12G18 RMK AO2 T00331006
04850KAOH AOH20161202184011212/02/16 18:40:31  5-MIN KAOH 022340Z AUTO 28014KT 10SM OVC042 03/M01 A3020 720 76 -400 290/14 RMK AO2 T00331006
04850KAOH AOH20161202184511212/02/16 18:45:31  5-MIN KAOH 022345Z AUTO 28014KT 10SM OVC043 03/M01 A3021 710 76 -400 290/14 RMK AO2 T00331006
04850KAOH AOH20161202185014412/02/16 18:50:31  5-MIN KAOH 022350Z AUTO 28014KT 10SM FEW026 OVC043 03/M01 A3021 710 76 -400 290/14 RMK AO2 SLP238 T00331006 10039 20033 53013
04850KAOH AOH20161202185511912/02/16 18:55:31  5-MIN KAOH 022355Z AUTO 29012KT 10SM FEW026 OVC043 03/M01 A3021 710 76 -400 300/12 RMK AO2 T00331006
04850KAOH AOH20161202190011812/02/16 19:00:31  5-MIN KAOH 030000Z AUTO 29010KT 10SM SCT026 OVC043 03/00 A3021 710 79 -400 290/10 RMK AO2 T00330000
04850KAOH AOH20161202190511812/02/16 19:05:31  5-MIN KAOH 030005Z AUTO 29010KT 10SM SCT024 OVC043 03/00 A3021 710 79 -400 290/10 RMK AO2 T00330000
04850KAOH AOH20161202191011812/02/16 19:10:31  5-MIN KAOH 030010Z AUTO 28013KT 10SM SCT024 OVC045 03/00 A3021 710 79 -400 290/13 RMK AO2 T00330000
04850KAOH AOH20161202191511912/02/16 19:15:31  5-MIN KAOH 030015Z AUTO 29013KT 10SM SCT024 OVC045 03/M01 A3021 710 76 -400 290/13 RMK AO2 T00331006
04850KAOH AOH20161202192011812/02/16 19:20:31  5-MIN KAOH 030020Z AUTO 29010KT 10SM FEW024 OVC043 03/00 A3022 700 79 -500 290/10 RMK AO2 T00330000
04850KAOH AOH20161202192511812/02/16 19:25:31  5-MIN KAOH 030025Z AUTO 29009KT 10SM FEW024 OVC043 03/00 A3022 700 79 -500 290/09 RMK AO2 T00330000
04850KAOH AOH20161202193011812/02/16 19:30:31  5-MIN KAOH 030030Z AUTO 29010KT 10SM FEW024 OVC043 03/00 A3022 700 79 -500 290/10 RMK AO2 T00330000
04850KAOH AOH20161202193511112/02/16 19:35:31  5-MIN KAOH 030035Z AUTO 29010KT 10SM OVC044 03/00 A3022 700 79 -500 300/10 RMK AO2 T00330000
04850KAOH AOH20161202194011812/02/16 19:40:31  5-MIN KAOH 030040Z AUTO 28012KT 10SM FEW020 OVC044 03/00 A3023 700 79 -500 290/12 RMK AO2 T00330000
04850KAOH AOH20161202194511812/02/16 19:45:31  5-MIN KAOH 030045Z AUTO 29010KT 10SM FEW020 OVC043 03/00 A3023 690 82 -500 300/10 RMK AO2 T00280000
04850KAOH AOH20161202195012512/02/16 19:50:31  5-MIN KAOH 030050Z AUTO 31010KT 10SM SCT020 OVC043 03/00 A3023 690 82 -500 310/10 RMK AO2 SLP244 T00280000
04850KAOH AOH20161202195511812/02/16 19:55:31  5-MIN KAOH 030055Z AUTO 30012KT 10SM BKN021 OVC043 03/00 A3023 690 82 -500 300/12 RMK AO2 T00280000
04850KAOH AOH20161202200011812/02/16 20:00:31  5-MIN KAOH 030100Z AUTO 30011KT 10SM BKN021 OVC043 03/00 A3023 690 82 -500 310/11 RMK AO2 T00280000
04850KAOH AOH20161202200511812/02/16 20:05:31  5-MIN KAOH 030105Z AUTO 30009KT 10SM BKN021 OVC043 03/00 A3024 690 82 -500 310/09 RMK AO2 T00280000
04850KAOH AOH20161202201011812/02/16 20:10:31  5-MIN KAOH 030110Z AUTO 30009KT 10SM BKN021 OVC042 03/00 A3024 690 82 -500 310/09 RMK AO2 T00280000
04850KAOH AOH20161202201511812/02/16 20:15:31  5-MIN KAOH 030115Z AUTO 30009KT 10SM BKN019 OVC042 03/00 A3024 680 82 -500 310/09 RMK AO2 T00280000
04850KAOH AOH20161202202011812/02/16 20:20:31  5-MIN KAOH 030120Z AUTO 30010KT 10SM SCT019 OVC042 03/00 A3024 680 82 -500 310/10 RMK AO2 T00280000
04850KAOH AOH20161202202511812/02/16 20:25:31  5-MIN KAOH 030125Z AUTO 30008KT 10SM SCT019 OVC042 03/00 A3024 680 82 -500 300/08 RMK AO2 T00280000
04850KAOH AOH20161202203011912/02/16 20:30:31  5-MIN KAOH 030130Z AUTO 29009KT 10SM FEW019 OVC042 03/M01 A3024 680 79 -500 300/09 RMK AO2 T00281006
04850KAOH AOH20161202203511912/02/16 20:35:31  5-MIN KAOH 030135Z AUTO 30010KT 10SM FEW019 OVC042 03/M01 A3024 680 79 -500 310/10 RMK AO2 T00281006
04850KAOH AOH20161202204011912/02/16 20:40:31  5-MIN KAOH 030140Z AUTO 31010KT 10SM FEW019 OVC042 03/M01 A3024 680 79 -500 310/10 RMK AO2 T00281006
04850KAOH AOH20161202204511912/02/16 20:45:31  5-MIN KAOH 030145Z AUTO 31010KT 10SM FEW019 OVC042 03/M01 A3024 680 79 -500 320/10 RMK AO2 T00281006
04850KAOH AOH20161202205012612/02/16 20:50:31  5-MIN KAOH 030150Z AUTO 30008KT 10SM FEW020 OVC042 03/M01 A3024 680 79 -600 300/08 RMK AO2 SLP250 T00281006
04850KAOH AOH20161202205511912/02/16 20:55:31  5-MIN KAOH 030155Z AUTO 30011KT 10SM FEW020 OVC042 03/M01 A3024 680 79 -600 300/11 RMK AO2 T00281006
04850KAOH AOH20161202210011912/02/16 21:00:31  5-MIN KAOH 030200Z AUTO 30011KT 10SM FEW020 OVC042 02/M01 A3024 680 82 -600 310/11 RMK AO2 T00221006
04850KAOH AOH20161202210511912/02/16 21:05:31  5-MIN KAOH 030205Z AUTO 30010KT 10SM FEW020 OVC042 02/M01 A3025 680 82 -600 310/10 RMK AO2 T00221006
04850KAOH AOH20161202211011212/02/16 21:10:31  5-MIN KAOH 030210Z AUTO 30009KT 10SM OVC042 02/M01 A3025 680 78 -600 300/09 RMK AO2 T00221011
04850KAOH AOH20161202211511212/02/16 21:15:31  5-MIN KAOH 030215Z AUTO 30009KT 10SM OVC042 02/M01 A3025 670 78 -600 310/09 RMK AO2 T00221011
04850KAOH AOH20161202212011212/02/16 21:20:31  5-MIN KAOH 030220Z AUTO 31009KT 10SM OVC042 02/M01 A3025 670 78 -600 310/09 RMK AO2 T00221011
04850KAOH AOH20161202212511212/02/16 21:25:31  5-MIN KAOH 030225Z AUTO 30008KT 10SM OVC042 02/M01 A3025 670 78 -600 310/08 RMK AO2 T00221011
04850KAOH AOH20161202213011212/02/16 21:30:31  5-MIN KAOH 030230Z AUTO 31008KT 10SM OVC042 02/M01 A3026 670 78 -600 310/08 RMK AO2 T00221011
04850KAOH AOH20161202213511212/02/16 21:35:31  5-MIN KAOH 030235Z AUTO 30008KT 10SM OVC041 02/M01 A3026 660 78 -600 310/08 RMK AO2 T00221011
04850KAOH AOH20161202214011212/02/16 21:40:31  5-MIN KAOH 030240Z AUTO 30007KT 10SM OVC041 02/M01 A3026 660 78 -600 310/07 RMK AO2 T00221011
04850KAOH AOH20161202214511212/02/16 21:45:31  5-MIN KAOH 030245Z AUTO 30008KT 10SM OVC041 02/M01 A3026 660 82 -700 310/08 RMK AO2 T00171011
04850KAOH AOH20161202215012512/02/16 21:50:31  5-MIN KAOH 030250Z AUTO 30008KT 10SM OVC041 02/M01 A3027 660 82 -700 310/08 RMK AO2 SLP258 T00171011 53017
04850KAOH AOH20161202215511212/02/16 21:55:31  5-MIN KAOH 030255Z AUTO 30007KT 10SM OVC041 02/M01 A3027 650 82 -700 300/07 RMK AO2 T00171011
04850KAOH AOH20161202220011212/02/16 22:00:31  5-MIN KAOH 030300Z AUTO 29006KT 10SM OVC041 02/M01 A3027 650 82 -700 300/06 RMK AO2 T00171011
04850KAOH AOH20161202220511212/02/16 22:05:31  5-MIN KAOH 030305Z AUTO 30006KT 10SM OVC041 02/M01 A3027 660 82 -700 310/06 RMK AO2 T00171011
04850KAOH AOH20161202221011212/02/16 22:10:31  5-MIN KAOH 030310Z AUTO 31006KT 10SM OVC041 02/M02 A3027 660 78 -700 310/06 RMK AO2 T00171017
04850KAOH AOH20161202221511212/02/16 22:15:31  5-MIN KAOH 030315Z AUTO 30007KT 10SM OVC041 02/M02 A3027 650 78 -700 310/07 RMK AO2 T00171017
04850KAOH AOH20161202222011212/02/16 22:20:31  5-MIN KAOH 030320Z AUTO 30006KT 10SM OVC041 02/M02 A3027 650 78 -700 310/06 RMK AO2 T00171017
04850KAOH AOH20161202222511212/02/16 22:25:31  5-MIN KAOH 030325Z AUTO 30005KT 10SM OVC041 02/M02 A3027 660 78 -700 310/05 RMK AO2 T00171017
04850KAOH AOH20161202223011212/02/16 22:30:31  5-MIN KAOH 030330Z AUTO 31005KT 10SM OVC041 01/M02 A3027 660 82 -800 320/05 RMK AO2 T00111017
04850KAOH AOH20161202223511212/02/16 22:35:31  5-MIN KAOH 030335Z AUTO 31004KT 10SM OVC041 01/M02 A3027 660 82 -800 320/04 RMK AO2 T00111017
04850KAOH AOH20161202224011212/02/16 22:40:31  5-MIN KAOH 030340Z AUTO 31004KT 10SM OVC041 01/M02 A3027 660 82 -800 320/04 RMK AO2 T00111017
04850KAOH AOH20161202224511212/02/16 22:45:31  5-MIN KAOH 030345Z AUTO 31003KT 10SM OVC041 01/M02 A3027 660 82 -800 320/03 RMK AO2 T00111017
04850KAOH AOH20161202225011912/02/16 22:50:31  5-MIN KAOH 030350Z AUTO 29004KT 10SM OVC041 01/M02 A3027 660 85 -900 300/04 RMK AO2 SLP258 T00061017
04850KAOH AOH20161202225511212/02/16 22:55:31  5-MIN KAOH 030355Z AUTO 29004KT 10SM OVC041 01/M02 A3027 660 85 -900 300/04 RMK AO2 T00061017
04850KAOH AOH20161202230011212/02/16 23:00:31  5-MIN KAOH 030400Z AUTO 28004KT 10SM OVC041 01/M02 A3027 660 85 -900 290/04 RMK AO2 T00061017
04850KAOH AOH20161202230511212/02/16 23:05:31  5-MIN KAOH 030405Z AUTO 28004KT 10SM OVC040 01/M02 A3027 660 85 -900 290/04 RMK AO2 T00061017
04850KAOH AOH20161202231011212/02/16 23:10:31  5-MIN KAOH 030410Z AUTO 28005KT 10SM OVC040 01/M02 A3027 660 82 -800 290/05 RMK AO2 T00111017
04850KAOH AOH20161202231511212/02/16 23:15:31  5-MIN KAOH 030415Z AUTO 29005KT 10SM OVC040 01/M01 A3027 660 85 -800 290/05 RMK AO2 T00111011
04850KAOH AOH20161202232011212/02/16 23:20:31  5-MIN KAOH 030420Z AUTO 28006KT 10SM OVC040 02/M01 A3027 660 82 -700 290/06 RMK AO2 T00171011
04850KAOH AOH20161202232511212/02/16 23:25:31  5-MIN KAOH 030425Z AUTO 29005KT 10SM OVC039 02/M01 A3027 660 82 -700 300/05 RMK AO2 T00171011
04850KAOH AOH20161202233011212/02/16 23:30:31  5-MIN KAOH 030430Z AUTO 30006KT 10SM OVC039 02/M01 A3027 660 82 -700 300/06 RMK AO2 T00171011
04850KAOH AOH20161202233511212/02/16 23:35:31  5-MIN KAOH 030435Z AUTO 30006KT 10SM OVC039 02/M02 A3027 660 78 -700 300/06 RMK AO2 T00171017
04850KAOH AOH20161202234011212/02/16 23:40:31  5-MIN KAOH 030440Z AUTO 29005KT 10SM OVC038 02/M01 A3027 660 82 -700 290/05 RMK AO2 T00171011
04850KAOH AOH20161202234511212/02/16 23:45:31  5-MIN KAOH 030445Z AUTO 29005KT 10SM OVC038 02/M02 A3027 650 78 -700 290/05 RMK AO2 T00171017
04850KAOH AOH20161202235012912/02/16 23:50:31  5-MIN KAOH 030450Z AUTO 28004KT 10SM OVC038 02/M02 A3027 660 78 -700 290/04 RMK AO2 SLP259 T00171017 400390006
04850KAOH AOH20161202235511212/02/16 23:55:31  5-MIN KAOH 030455Z AUTO 28005KT 10SM OVC037 02/M02 A3027 660 78 -700 290/05 RMK AO2 T00171017
04850KAOH AOH20161203000011212/03/16 00:00:31  5-MIN KAOH 030500Z AUTO 28006KT 10SM OVC037 02/M02 A3027 650 78 -700 290/06 RMK AO2 T00171017
04850KAOH AOH20161203000511212/03/16 00:05:31  5-MIN KAOH 030505Z AUTO 27005KT 10SM OVC037 02/M02 A3027 650 78 -700 280/05 RMK AO2 T00171017
04850KAOH AOH20161203001011212/03/16 00:10:31  5-MIN KAOH 030510Z AUTO 27005KT 10SM OVC037 02/M02 A3027 650 78 -700 280/05 RMK AO2 T00171017
04850KAOH AOH20161203001511212/03/16 00:15:31  5-MIN KAOH 030515Z AUTO 28007KT 10SM OVC037 02/M02 A3028 650 78 -700 290/07 RMK AO2 T00171017
04850KAOH AOH20161203002011212/03/16 00:20:31  5-MIN KAOH 030520Z AUTO 27006KT 10SM OVC037 02/M02 A3028 650 78 -700 280/06 RMK AO2 T00171017
04850KAOH AOH20161203002511212/03/16 00:25:31  5-MIN KAOH 030525Z AUTO 27008KT 10SM OVC038 02/M02 A3028 650 78 -700 280/08 RMK AO2 T00171017
04850KAOH AOH20161203003011212/03/16 00:30:31  5-MIN KAOH 030530Z AUTO 28008KT 10SM OVC038 02/M02 A3027 650 72 -700 290/08 RMK AO2 T00221022
04850KAOH AOH20161203003511212/03/16 00:35:31  5-MIN KAOH 030535Z AUTO 29008KT 10SM OVC039 02/M02 A3027 650 72 -700 290/08 RMK AO2 T00221022
04850KAOH AOH20161203004011212/03/16 00:40:31  5-MIN KAOH 030540Z AUTO 29008KT 10SM OVC039 02/M02 A3027 650 72 -700 290/08 RMK AO2 T00221022
04850KAOH AOH20161203004511212/03/16 00:45:31  5-MIN KAOH 030545Z AUTO 28007KT 10SM OVC039 02/M02 A3027 650 72 -700 290/07 RMK AO2 T00221022
04850KAOH AOH20161203005013712/03/16 00:50:31  5-MIN KAOH 030550Z AUTO 28008KT 10SM OVC039 02/M02 A3027 650 72 -700 290/08 RMK AO2 SLP259 T00221022 10033 20006 53020
04850KAOH AOH20161203005511212/03/16 00:55:31  5-MIN KAOH 030555Z AUTO 29006KT 10SM OVC039 02/M02 A3027 660 72 -600 300/06 RMK AO2 T00221022
04850KAOH AOH20161203010011212/03/16 01:00:31  5-MIN KAOH 030600Z AUTO 29007KT 10SM OVC040 02/M02 A3027 660 72 -600 300/07 RMK AO2 T00221022
04850KAOH AOH20161203010511212/03/16 01:05:31  5-MIN KAOH 030605Z AUTO 29006KT 10SM OVC040 02/M02 A3027 660 75 -700 300/06 RMK AO2 T00171022
04850KAOH AOH20161203011011212/03/16 01:10:31  5-MIN KAOH 030610Z AUTO 30005KT 10SM OVC040 02/M02 A3027 660 78 -700 300/05 RMK AO2 T00171017
04850KAOH AOH20161203011511212/03/16 01:15:31  5-MIN KAOH 030615Z AUTO 30005KT 10SM OVC040 02/M02 A3027 660 78 -700 310/05 RMK AO2 T00171017
04850KAOH AOH20161203012011212/03/16 01:20:31  5-MIN KAOH 030620Z AUTO 30005KT 10SM OVC040 01/M02 A3027 660 82 -800 310/05 RMK AO2 T00111017
04850KAOH AOH20161203012511212/03/16 01:25:31  5-MIN KAOH 030625Z AUTO 29004KT 10SM OVC040 01/M02 A3027 660 82 -800 300/04 RMK AO2 T00111017
04850KAOH AOH20161203013011212/03/16 01:30:31  5-MIN KAOH 030630Z AUTO 29004KT 10SM OVC040 01/M02 A3027 660 82 -800 300/04 RMK AO2 T00111017
04850KAOH AOH20161203013511212/03/16 01:35:31  5-MIN KAOH 030635Z AUTO 28004KT 10SM OVC040 01/M02 A3027 650 82 -800 290/04 RMK AO2 T00111017
04850KAOH AOH20161203014011212/03/16 01:40:31  5-MIN KAOH 030640Z AUTO 28005KT 10SM OVC040 02/M02 A3027 650 78 -700 290/05 RMK AO2 T00171017
04850KAOH AOH20161203014511212/03/16 01:45:31  5-MIN KAOH 030645Z AUTO 28005KT 10SM OVC039 02/M02 A3027 650 78 -700 290/05 RMK AO2 T00171017
04850KAOH AOH20161203015011912/03/16 01:50:31  5-MIN KAOH 030650Z AUTO 28005KT 10SM OVC039 02/M02 A3027 650 78 -700 290/05 RMK AO2 SLP260 T00171017
04850KAOH AOH20161203015511212/03/16 01:55:31  5-MIN KAOH 030655Z AUTO 27005KT 10SM OVC039 02/M01 A3028 650 82 -700 280/05 RMK AO2 T00171011
04850KAOH AOH20161203020011212/03/16 02:00:31  5-MIN KAOH 030700Z AUTO 27005KT 10SM OVC039 02/M01 A3028 650 82 -700 280/05 RMK AO2 T00171011
04850KAOH AOH20161203020511212/03/16 02:05:31  5-MIN KAOH 030705Z AUTO 28006KT 10SM OVC039 02/M01 A3028 640 82 -700 290/06 RMK AO2 T00171011
04850KAOH AOH20161203021011212/03/16 02:10:31  5-MIN KAOH 030710Z AUTO 28006KT 10SM OVC039 02/M01 A3029 640 82 -700 280/06 RMK AO2 T00171011
04850KAOH AOH20161203021511212/03/16 02:15:31  5-MIN KAOH 030715Z AUTO 28006KT 10SM OVC040 02/M01 A3029 640 82 -700 290/06 RMK AO2 T00171011
04850KAOH AOH20161203022011212/03/16 02:20:31  5-MIN KAOH 030720Z AUTO 29005KT 10SM OVC040 02/M01 A3029 640 82 -700 290/05 RMK AO2 T00171011
04850KAOH AOH20161203022511212/03/16 02:25:31  5-MIN KAOH 030725Z AUTO 29005KT 10SM OVC040 02/M01 A3028 640 82 -700 290/05 RMK AO2 T00171011
04850KAOH AOH20161203023011212/03/16 02:30:31  5-MIN KAOH 030730Z AUTO 29005KT 10SM OVC040 02/M01 A3029 640 82 -700 300/05 RMK AO2 T00171011
04850KAOH AOH20161203023511212/03/16 02:35:31  5-MIN KAOH 030735Z AUTO 28005KT 10SM OVC040 02/M01 A3029 640 82 -700 290/05 RMK AO2 T00171011
04850KAOH AOH20161203024011212/03/16 02:40:31  5-MIN KAOH 030740Z AUTO 29005KT 10SM OVC040 02/M02 A3028 640 78 -700 290/05 RMK AO2 T00171017
04850KAOH AOH20161203024511212/03/16 02:45:31  5-MIN KAOH 030745Z AUTO 29005KT 10SM OVC040 02/M01 A3029 640 82 -700 290/05 RMK AO2 T00171011
04850KAOH AOH20161203025011912/03/16 02:50:31  5-MIN KAOH 030750Z AUTO 29005KT 10SM OVC040 01/M01 A3028 640 85 -800 300/05 RMK AO2 SLP264 T00111011
04850KAOH AOH20161203025511212/03/16 02:55:31  5-MIN KAOH 030755Z AUTO 29004KT 10SM OVC040 01/M01 A3028 640 85 -800 300/04 RMK AO2 T00111011
04850KAOH AOH20161203030011212/03/16 03:00:31  5-MIN KAOH 030800Z AUTO 31004KT 10SM OVC040 01/M02 A3028 640 82 -800 310/04 RMK AO2 T00111017
04850KAOH AOH20161203030511212/03/16 03:05:31  5-MIN KAOH 030805Z AUTO 31004KT 10SM OVC040 01/M02 A3028 640 82 -800 310/04 RMK AO2 T00111017
04850KAOH AOH20161203031011212/03/16 03:10:31  5-MIN KAOH 030810Z AUTO 31004KT 10SM OVC040 01/M02 A3028 640 85 -900 320/04 RMK AO2 T00061017
04850KAOH AOH20161203031511212/03/16 03:15:31  5-MIN KAOH 030815Z AUTO 30004KT 10SM OVC040 01/M02 A3028 640 85 -900 310/04 RMK AO2 T00061017
04850KAOH AOH20161203032011212/03/16 03:20:31  5-MIN KAOH 030820Z AUTO 29004KT 10SM BKN040 01/M02 A3028 640 85 -900 300/04 RMK AO2 T00061017
04850KAOH AOH20161203032511212/03/16 03:25:31  5-MIN KAOH 030825Z AUTO 27004KT 10SM OVC039 01/M02 A3028 640 85 -900 270/04 RMK AO2 T00061017
04850KAOH AOH20161203033011212/03/16 03:30:31  5-MIN KAOH 030830Z AUTO 26004KT 10SM OVC039 01/M02 A3029 640 85 -900 270/04 RMK AO2 T00061017
04850KAOH AOH20161203033511212/03/16 03:35:31  5-MIN KAOH 030835Z AUTO 26005KT 10SM OVC039 01/M02 A3029 640 85 -900 270/05 RMK AO2 T00061017
04850KAOH AOH20161203034011212/03/16 03:40:31  5-MIN KAOH 030840Z AUTO 26005KT 10SM OVC039 01/M02 A3029 640 85 -900 270/05 RMK AO2 T00061017
04850KAOH AOH20161203034511212/03/16 03:45:31  5-MIN KAOH 030845Z AUTO 27006KT 10SM OVC039 01/M01 A3029 640 85 -800 270/06 RMK AO2 T00111011
04850KAOH AOH20161203035012512/03/16 03:50:31  5-MIN KAOH 030850Z AUTO 27006KT 10SM OVC039 01/M01 A3029 640 85 -800 270/06 RMK AO2 SLP264 T00111011 55000
04850KAOH AOH20161203035511212/03/16 03:55:31  5-MIN KAOH 030855Z AUTO 28005KT 10SM OVC039 01/M01 A3029 640 85 -800 280/05 RMK AO2 T00111011
04850KAOH AOH20161203040011212/03/16 04:00:31  5-MIN KAOH 030900Z AUTO 28005KT 10SM OVC039 01/M01 A3028 640 85 -800 290/05 RMK AO2 T00111011
04850KAOH AOH20161203040511212/03/16 04:05:31  5-MIN KAOH 030905Z AUTO 28006KT 10SM OVC039 02/M01 A3028 640 82 -700 280/06 RMK AO2 T00171011
04850KAOH AOH20161203041011212/03/16 04:10:31  5-MIN KAOH 030910Z AUTO 27006KT 10SM OVC039 02/M01 A3028 640 82 -700 280/06 RMK AO2 T00171011
04850KAOH AOH20161203041511212/03/16 04:15:31  5-MIN KAOH 030915Z AUTO 27006KT 10SM OVC039 02/M01 A3028 640 82 -700 280/06 RMK AO2 T00171011
04850KAOH AOH20161203042011212/03/16 04:20:31  5-MIN KAOH 030920Z AUTO 28005KT 10SM OVC039 02/M01 A3028 640 82 -700 290/05 RMK AO2 T00171011
04850KAOH AOH20161203042511212/03/16 04:25:31  5-MIN KAOH 030925Z AUTO 27005KT 10SM OVC039 02/M01 A3028 640 82 -700 280/05 RMK AO2 T00171011
04850KAOH AOH20161203043011212/03/16 04:30:31  5-MIN KAOH 030930Z AUTO 26005KT 10SM OVC039 01/M01 A3028 640 85 -800 270/05 RMK AO2 T00111011
04850KAOH AOH20161203043511212/03/16 04:35:31  5-MIN KAOH 030935Z AUTO 25004KT 10SM OVC039 01/M01 A3029 640 85 -800 260/04 RMK AO2 T00111011
04850KAOH AOH20161203044011212/03/16 04:40:31  5-MIN KAOH 030940Z AUTO 26005KT 10SM OVC039 01/M01 A3029 640 85 -800 270/05 RMK AO2 T00111011
04850KAOH AOH20161203044511212/03/16 04:45:31  5-MIN KAOH 030945Z AUTO 26005KT 10SM OVC039 01/M01 A3029 640 89 -800 260/05 RMK AO2 T00111006
04850KAOH AOH20161203045011912/03/16 04:50:31  5-MIN KAOH 030950Z AUTO 26005KT 10SM OVC039 01/M01 A3029 640 89 -800 270/05 RMK AO2 SLP265 T00111006
04850KAOH AOH20161203045511212/03/16 04:55:31  5-MIN KAOH 030955Z AUTO 27005KT 10SM OVC039 01/M01 A3029 640 89 -800 270/05 RMK AO2 T00111006
04850KAOH AOH20161203050011212/03/16 05:00:31  5-MIN KAOH 031000Z AUTO 27005KT 10SM OVC039 01/M01 A3029 630 89 -800 280/05 RMK AO2 T00111006
04850KAOH AOH20161203050511212/03/16 05:05:31  5-MIN KAOH 031005Z AUTO 27004KT 10SM OVC039 01/M01 A3029 630 89 -800 280/04 RMK AO2 T00111006
04850KAOH AOH20161203051011212/03/16 05:10:31  5-MIN KAOH 031010Z AUTO 27006KT 10SM OVC039 01/M01 A3030 630 89 -800 280/06 RMK AO2 T00111006
04850KAOH AOH20161203051511212/03/16 05:15:31  5-MIN KAOH 031015Z AUTO 27005KT 10SM OVC039 02/M01 A3030 630 82 -800 270/05 RMK AO2 T00171011
04850KAOH AOH20161203052011212/03/16 05:20:31  5-MIN KAOH 031020Z AUTO 27004KT 10SM OVC039 01/M01 A3030 630 85 -800 280/04 RMK AO2 T00111011
04850KAOH AOH20161203052511212/03/16 05:25:31  5-MIN KAOH 031025Z AUTO 28005KT 10SM OVC039 02/M01 A3029 630 82 -700 290/05 RMK AO2 T00171011
04850KAOH AOH20161203053011212/03/16 05:30:31  5-MIN KAOH 031030Z AUTO 28005KT 10SM OVC039 02/M01 A3030 630 82 -700 290/05 RMK AO2 T00171011
04850KAOH AOH20161203053511212/03/16 05:35:31  5-MIN KAOH 031035Z AUTO 28005KT 10SM OVC039 02/M01 A3029 630 82 -700 290/05 RMK AO2 T00171011
04850KAOH AOH20161203054011212/03/16 05:40:31  5-MIN KAOH 031040Z AUTO 28006KT 10SM OVC039 02/M01 A3030 630 82 -800 290/06 RMK AO2 T00171011
04850KAOH AOH20161203054511212/03/16 05:45:31  5-MIN KAOH 031045Z AUTO 27006KT 10SM OVC039 02/M01 A3030 630 82 -800 280/06 RMK AO2 T00171011
04850KAOH AOH20161203055011912/03/16 05:50:31  5-MIN KAOH 031050Z AUTO 29006KT 10SM OVC039 02/M02 A3030 630 78 -700 290/06 RMK AO2 SLP268 T00171017
04850KAOH AOH20161203055511212/03/16 05:55:31  5-MIN KAOH 031055Z AUTO 29005KT 10SM OVC038 02/M02 A3030 630 78 -800 290/05 RMK AO2 T00171017
04850KAOH AOH20161203060011212/03/16 06:00:31  5-MIN KAOH 031100Z AUTO 29006KT 10SM OVC038 02/M01 A3030 630 82 -800 290/06 RMK AO2 T00171011
04850KAOH AOH20161203060511212/03/16 06:05:31  5-MIN KAOH 031105Z AUTO 29005KT 10SM OVC038 02/M01 A3030 630 82 -800 290/05 RMK AO2 T00171011
04850KAOH AOH20161203061011212/03/16 06:10:31  5-MIN KAOH 031110Z AUTO 30006KT 10SM OVC038 02/M02 A3030 630 78 -800 300/06 RMK AO2 T00171017
04850KAOH AOH20161203061511212/03/16 06:15:31  5-MIN KAOH 031115Z AUTO 28006KT 10SM OVC037 02/M02 A3030 630 78 -800 290/06 RMK AO2 T00171017
04850KAOH AOH20161203062011212/03/16 06:20:31  5-MIN KAOH 031120Z AUTO 29007KT 10SM OVC037 02/M02 A3030 620 78 -800 290/07 RMK AO2 T00171017
04850KAOH AOH20161203062511212/03/16 06:25:31  5-MIN KAOH 031125Z AUTO 28007KT 10SM OVC037 02/M02 A3031 620 78 -800 290/07 RMK AO2 T00171017
04850KAOH AOH20161203063011212/03/16 06:30:31  5-MIN KAOH 031130Z AUTO 28007KT 10SM OVC037 02/M02 A3031 620 78 -800 290/07 RMK AO2 T00171017
04850KAOH AOH20161203063511212/03/16 06:35:31  5-MIN KAOH 031135Z AUTO 28008KT 10SM OVC037 02/M02 A3031 620 78 -800 280/08 RMK AO2 T00171017
04850KAOH AOH20161203064011212/03/16 06:40:31  5-MIN KAOH 031140Z AUTO 29007KT 10SM OVC035 02/M02 A3031 620 75 -800 290/07 RMK AO2 T00171022
04850KAOH AOH20161203064511212/03/16 06:45:31  5-MIN KAOH 031145Z AUTO 29008KT 10SM OVC035 02/M02 A3031 620 75 -800 300/08 RMK AO2 T00171022
04850KAOH AOH20161203065013712/03/16 06:50:31  5-MIN KAOH 031150Z AUTO 29007KT 10SM OVC035 02/M02 A3031 620 75 -800 300/07 RMK AO2 SLP273 T00171022 10022 20006 51006
04850KAOH AOH20161203065511212/03/16 06:55:31  5-MIN KAOH 031155Z AUTO 29008KT 10SM OVC034 02/M03 A3031 610 72 -800 300/08 RMK AO2 T00171028
04850KAOH AOH20161203070011212/03/16 07:00:31  5-MIN KAOH 031200Z AUTO 29007KT 10SM OVC034 02/M03 A3032 610 72 -800 290/07 RMK AO2 T00171028
04850KAOH AOH20161203070511212/03/16 07:05:31  5-MIN KAOH 031205Z AUTO 29007KT 10SM OVC034 02/M03 A3031 620 72 -800 290/07 RMK AO2 T00171028
04850KAOH AOH20161203071011212/03/16 07:10:31  5-MIN KAOH 031210Z AUTO 29008KT 10SM OVC034 02/M03 A3031 610 72 -800 300/08 RMK AO2 T00171028
04850KAOH AOH20161203071511212/03/16 07:15:31  5-MIN KAOH 031215Z AUTO 29007KT 10SM OVC033 02/M03 A3032 610 72 -800 290/07 RMK AO2 T00171028
04850KAOH AOH20161203072011212/03/16 07:20:31  5-MIN KAOH 031220Z AUTO 28008KT 10SM OVC033 02/M03 A3032 610 72 -800 290/08 RMK AO2 T00171028
04850KAOH AOH20161203072511212/03/16 07:25:31  5-MIN KAOH 031225Z AUTO 29007KT 10SM OVC033 02/M03 A3032 610 72 -800 290/07 RMK AO2 T00171028
04850KAOH AOH20161203073011212/03/16 07:30:31  5-MIN KAOH 031230Z AUTO 29007KT 10SM OVC033 02/M03 A3031 620 72 -800 300/07 RMK AO2 T00171028
04850KAOH AOH20161203073511212/03/16 07:35:31  5-MIN KAOH 031235Z AUTO 30007KT 10SM OVC032 02/M03 A3031 620 72 -800 300/07 RMK AO2 T00171028
04850KAOH AOH20161203074011212/03/16 07:40:31  5-MIN KAOH 031240Z AUTO 30007KT 10SM OVC032 02/M03 A3031 620 72 -800 300/07 RMK AO2 T00171028
04850KAOH AOH20161203074511212/03/16 07:45:31  5-MIN KAOH 031245Z AUTO 29007KT 10SM OVC032 02/M03 A3031 620 72 -800 290/07 RMK AO2 T00171028
04850KAOH AOH20161203075011912/03/16 07:50:31  5-MIN KAOH 031250Z AUTO 28010KT 10SM OVC032 02/M03 A3031 620 69 -800 290/10 RMK AO2 SLP272 T00171033
04850KAOH AOH20161203075511212/03/16 07:55:31  5-MIN KAOH 031255Z AUTO 29007KT 10SM OVC032 02/M03 A3031 620 69 -800 300/07 RMK AO2 T00171033
04850KAOH AOH20161203080011212/03/16 08:00:31  5-MIN KAOH 031300Z AUTO 28007KT 10SM OVC033 02/M03 A3031 620 72 -800 290/07 RMK AO2 T00171028
04850KAOH AOH20161203080511212/03/16 08:05:31  5-MIN KAOH 031305Z AUTO 29007KT 10SM OVC033 02/M03 A3031 610 69 -800 290/07 RMK AO2 T00171033
04850KAOH AOH20161203081011212/03/16 08:10:31  5-MIN KAOH 031310Z AUTO 28007KT 10SM OVC034 02/M03 A3032 610 72 -800 290/07 RMK AO2 T00171028
04850KAOH AOH20161203081511212/03/16 08:15:31  5-MIN KAOH 031315Z AUTO 29008KT 10SM OVC034 02/M03 A3032 610 69 -800 290/08 RMK AO2 T00171033
04850KAOH AOH20161203082011212/03/16 08:20:31  5-MIN KAOH 031320Z AUTO 28007KT 10SM OVC035 02/M03 A3032 610 72 -800 290/07 RMK AO2 T00171028
04850KAOH AOH20161203082511212/03/16 08:25:31  5-MIN KAOH 031325Z AUTO 29008KT 10SM OVC033 02/M03 A3032 610 69 -800 290/08 RMK AO2 T00171033
04850KAOH AOH20161203083011212/03/16 08:30:31  5-MIN KAOH 031330Z AUTO 30009KT 10SM OVC033 02/M03 A3032 610 69 -800 310/09 RMK AO2 T00171033
04850KAOH AOH20161203083511212/03/16 08:35:31  5-MIN KAOH 031335Z AUTO 30010KT 10SM OVC033 02/M03 A3032 610 69 -800 300/10 RMK AO2 T00171033
04850KAOH AOH20161203084011212/03/16 08:40:31  5-MIN KAOH 031340Z AUTO 29007KT 10SM OVC033 02/M04 A3033 600 66 -800 300/07 RMK AO2 T00171039
04850KAOH AOH20161203084511212/03/16 08:45:31  5-MIN KAOH 031345Z AUTO 29008KT 10SM OVC033 02/M03 A3033 600 69 -800 290/08 RMK AO2 T00171033
04850KAOH AOH20161203085011912/03/16 08:50:31  5-MIN KAOH 031350Z AUTO 29007KT 10SM OVC033 02/M04 A3033 600 64 -700 300/07 RMK AO2 SLP278 T00221039
04850KAOH AOH20161203085511212/03/16 08:55:31  5-MIN KAOH 031355Z AUTO 30008KT 10SM OVC033 02/M04 A3032 610 64 -700 300/08 RMK AO2 T00221039
04850KAOH AOH20161203090011212/03/16 09:00:31  5-MIN KAOH 031400Z AUTO 30008KT 10SM OVC033 02/M03 A3033 600 67 -700 310/08 RMK AO2 T00221033
04850KAOH AOH20161203090511212/03/16 09:05:31  5-MIN KAOH 031405Z AUTO 29006KT 10SM OVC033 02/M03 A3033 600 67 -700 300/06 RMK AO2 T00221033
04850KAOH AOH20161203091011212/03/16 09:10:31  5-MIN KAOH 031410Z AUTO 29005KT 10SM OVC033 02/M03 A3033 600 67 -700 300/05 RMK AO2 T00221033
04850KAOH AOH20161203091511212/03/16 09:15:31  5-MIN KAOH 031415Z AUTO 28009KT 10SM OVC033 02/M03 A3034 600 67 -700 290/09 RMK AO2 T00221033
04850KAOH AOH20161203092011212/03/16 09:20:31  5-MIN KAOH 031420Z AUTO 29010KT 10SM OVC033 02/M04 A3033 600 64 -700 290/10 RMK AO2 T00221039
04850KAOH AOH20161203092511212/03/16 09:25:31  5-MIN KAOH 031425Z AUTO 28008KT 10SM OVC033 02/M03 A3033 600 67 -700 280/08 RMK AO2 T00221033
04850KAOH AOH20161203093011212/03/16 09:30:31  5-MIN KAOH 031430Z AUTO 29007KT 10SM OVC033 02/M03 A3034 600 67 -700 290/07 RMK AO2 T00221033
04850KAOH AOH20161203093511212/03/16 09:35:31  5-MIN KAOH 031435Z AUTO 28005KT 10SM OVC033 02/M03 A3033 600 67 -700 290/05 RMK AO2 T00221033
04850KAOH AOH20161203094011212/03/16 09:40:31  5-MIN KAOH 031440Z AUTO 29007KT 10SM OVC033 02/M03 A3033 600 67 -700 300/07 RMK AO2 T00221033
04850KAOH AOH20161203094511212/03/16 09:45:31  5-MIN KAOH 031445Z AUTO 30006KT 10SM OVC034 02/M03 A3033 600 67 -700 310/06 RMK AO2 T00221033
04850KAOH AOH20161203095012512/03/16 09:50:31  5-MIN KAOH 031450Z AUTO 30006KT 10SM OVC034 02/M03 A3033 600 67 -700 300/06 RMK AO2 SLP280 T00221033 53009
04850KAOH AOH20161203095511212/03/16 09:55:31  5-MIN KAOH 031455Z AUTO 29005KT 10SM OVC035 02/M03 A3034 600 67 -700 300/05 RMK AO2 T00221033
04850KAOH AOH20161203100011212/03/16 10:00:31  5-MIN KAOH 031500Z AUTO 29007KT 10SM OVC035 03/M03 A3034 600 64 -700 300/07 RMK AO2 T00281033
04850KAOH AOH20161203100511212/03/16 10:05:31  5-MIN KAOH 031505Z AUTO 30007KT 10SM OVC035 03/M03 A3033 600 64 -700 300/07 RMK AO2 T00281033
04850KAOH AOH20161203101011212/03/16 10:10:31  5-MIN KAOH 031510Z AUTO 29008KT 10SM OVC035 03/M03 A3033 600 64 -700 300/08 RMK AO2 T00281033
04850KAOH AOH20161203101511212/03/16 10:15:31  5-MIN KAOH 031515Z AUTO 29008KT 10SM OVC035 02/M04 A3033 600 64 -700 290/08 RMK AO2 T00221039
04850KAOH AOH20161203102011212/03/16 10:20:31  5-MIN KAOH 031520Z AUTO 30006KT 10SM OVC035 03/M04 A3033 600 61 -700 310/06 RMK AO2 T00281039
04850KAOH AOH20161203102511212/03/16 10:25:31  5-MIN KAOH 031525Z AUTO 32006KT 10SM OVC035 02/M04 A3033 600 64 -700 330/06 RMK AO2 T00221039
04850KAOH AOH20161203103011212/03/16 10:30:31  5-MIN KAOH 031530Z AUTO 29006KT 10SM OVC033 03/M04 A3034 590 61 -700 300/06 RMK AO2 T00281039
04850KAOH AOH20161203103511212/03/16 10:35:31  5-MIN KAOH 031535Z AUTO 27008KT 10SM OVC033 03/M04 A3034 590 61 -700 280/08 RMK AO2 T00281039
04850KAOH AOH20161203104011212/03/16 10:40:31  5-MIN KAOH 031540Z AUTO 29008KT 10SM OVC034 02/M04 A3033 600 64 -700 290/08 RMK AO2 T00221039
04850KAOH AOH20161203104511212/03/16 10:45:31  5-MIN KAOH 031545Z AUTO 29007KT 10SM OVC034 03/M04 A3033 600 61 -600 300/07 RMK AO2 T00281039
04850KAOH AOH20161203105012412/03/16 10:50:31  5-MIN KAOH 031550Z AUTO 32006KT 10SM OVC034 03/M03 A3033 600 64 -600 330/06 RMK AO2 SLP279 T00281033 TSNO
04850KAOH AOH20161203105511712/03/16 10:55:31  5-MIN KAOH 031555Z AUTO 31005KT 10SM OVC033 02/M04 A3032 610 64 -700 310/05 RMK AO2 T00221039 TSNO
04850KAOH AOH20161203110012412/03/16 11:00:31  5-MIN KAOH 031600Z AUTO 29005KT 10SM OVC031 02/M03 A3031 620 67 -700 300/05 RMK AO2 PRESFR T00221033 TSNO
04850KAOH AOH20161203110511712/03/16 11:05:31  5-MIN KAOH 031605Z AUTO 32006KT 10SM OVC031 02/M04 A3032 610 64 -700 330/06 RMK AO2 T00221039 TSNO
04850KAOH AOH20161203111011212/03/16 11:10:31  5-MIN KAOH 031610Z AUTO 32004KT 10SM OVC031 02/M04 A3031 620 64 -700 330/04 RMK AO2 T00221039
04850KAOH AOH20161203111511212/03/16 11:15:31  5-MIN KAOH 031615Z AUTO 30005KT 10SM OVC031 03/M03 A3031 620 64 -600 310/05 RMK AO2 T00281033
04850KAOH AOH20161203112011212/03/16 11:20:31  5-MIN KAOH 031620Z AUTO 24005KT 10SM OVC031 03/M03 A3030 630 67 -600 240/05 RMK AO2 T00281028
04850KAOH AOH20161203112511912/03/16 11:25:31  5-MIN KAOH 031625Z AUTO 26004KT 10SM OVC029 02/M02 A3029 640 72 -700 260/04 RMK AO2 PRESFR T00221022
04850KAOH AOH20161203113011212/03/16 11:30:31  5-MIN KAOH 031630Z AUTO 26003KT 10SM OVC029 02/M02 A3029 640 75 -700 260/03 RMK AO2 T00221017
04850KAOH AOH20161203113511212/03/16 11:35:31  5-MIN KAOH 031635Z AUTO 30003KT 10SM OVC029 02/M02 A3028 650 75 -700 300/03 RMK AO2 T00221017
04850KAOH AOH20161203114011212/03/16 11:40:31  5-MIN KAOH 031640Z AUTO 00000KT 10SM OVC029 02/M02 A3029 640 72 -700 000/00 RMK AO2 T00221022
04850KAOH AOH20161203114511212/03/16 11:45:31  5-MIN KAOH 031645Z AUTO 27003KT 10SM OVC029 03/M03 A3030 630 64 -600 270/03 RMK AO2 T00281033
04850KAOH AOH20161203115010212/03/16 11:50:31  5-MIN KAOH 031650Z AUTO 25005KT 10SM OVC030 03/M03 A3030 630 67 -600 260/05 RMK AO2
04850KAOH AOH20161203115511212/03/16 11:55:31  5-MIN KAOH 031655Z AUTO 25005KT 10SM OVC030 03/M02 A3030 630 72 -600 250/05 RMK AO2 T00281017
04850KAOH AOH20161203120011212/03/16 12:00:31  5-MIN KAOH 031700Z AUTO 23006KT 10SM OVC030 03/M02 A3031 620 72 -600 230/06 RMK AO2 T00281017
04850KAOH AOH20161203120511212/03/16 12:05:31  5-MIN KAOH 031705Z AUTO 23007KT 10SM OVC030 02/M02 A3032 610 72 -700 240/07 RMK AO2 T00221022
04850KAOH AOH20161203121011212/03/16 12:10:31  5-MIN KAOH 031710Z AUTO 23007KT 10SM OVC030 02/M02 A3032 610 75 -700 230/07 RMK AO2 T00221017
04850KAOH AOH20161203121511912/03/16 12:15:31  5-MIN KAOH 031715Z AUTO 24006KT 10SM FEW020 OVC028 02/M01 A3031 620 78 -700 250/06 RMK AO2 T00221011
04850KAOH AOH20161203122011912/03/16 12:20:31  5-MIN KAOH 031720Z AUTO 24006KT 10SM FEW020 OVC028 02/M02 A3031 620 75 -700 240/06 RMK AO2 T00221017
04850KAOH AOH20161203122511912/03/16 12:25:31  5-MIN KAOH 031725Z AUTO 24006KT 10SM FEW020 OVC028 02/M02 A3031 620 75 -700 250/06 RMK AO2 T00221017
04850KAOH AOH20161203123011912/03/16 12:30:31  5-MIN KAOH 031730Z AUTO 26007KT 10SM FEW020 OVC028 02/M02 A3031 620 75 -700 270/07 RMK AO2 T00221017
04850KAOH AOH20161203123511912/03/16 12:35:31  5-MIN KAOH 031735Z AUTO 26007KT 10SM FEW020 OVC028 02/M02 A3030 620 75 -700 270/07 RMK AO2 T00221017
04850KAOH AOH20161203124011912/03/16 12:40:31  5-MIN KAOH 031740Z AUTO 26007KT 10SM FEW021 OVC028 02/M02 A3030 630 72 -700 270/07 RMK AO2 T00221022
04850KAOH AOH20161203124511212/03/16 12:45:31  5-MIN KAOH 031745Z AUTO 27008KT 10SM OVC028 02/M02 A3030 630 72 -700 280/08 RMK AO2 T00221022
04850KAOH AOH20161203125013712/03/16 12:50:31  5-MIN KAOH 031750Z AUTO 27009KT 10SM OVC028 02/M02 A3030 630 72 -700 270/09 RMK AO2 SLP268 T00221022 10028 20017 53007
04850KAOH AOH20161203125511212/03/16 12:55:31  5-MIN KAOH 031755Z AUTO 27010KT 10SM OVC028 02/M02 A3030 630 72 -700 270/10 RMK AO2 T00221022
04850KAOH AOH20161203130011212/03/16 13:00:31  5-MIN KAOH 031800Z AUTO 27008KT 10SM OVC030 03/M02 A3030 630 69 -600 270/08 RMK AO2 T00281022
04850KAOH AOH20161203130511212/03/16 13:05:31  5-MIN KAOH 031805Z AUTO 27009KT 10SM OVC030 02/M03 A3029 630 69 -700 270/09 RMK AO2 T00221028
04850KAOH AOH20161203131011212/03/16 13:10:31  5-MIN KAOH 031810Z AUTO 26009KT 10SM OVC029 02/M02 A3030 630 72 -700 260/09 RMK AO2 T00221022
04850KAOH AOH20161203131511212/03/16 13:15:31  5-MIN KAOH 031815Z AUTO 26008KT 10SM OVC029 03/M02 A3030 620 69 -600 270/08 RMK AO2 T00281022
04850KAOH AOH20161203132011212/03/16 13:20:31  5-MIN KAOH 031820Z AUTO 26009KT 10SM OVC029 03/M02 A3031 620 69 -600 270/09 RMK AO2 T00281022
04850KAOH AOH20161203132511212/03/16 13:25:31  5-MIN KAOH 031825Z AUTO 25007KT 10SM OVC029 03/M02 A3031 620 69 -600 250/07 RMK AO2 T00281022
04850KAOH AOH20161203133011212/03/16 13:30:31  5-MIN KAOH 031830Z AUTO 25006KT 10SM OVC029 03/M02 A3031 620 69 -600 260/06 RMK AO2 T00281022
04850KAOH AOH20161203133511212/03/16 13:35:31  5-MIN KAOH 031835Z AUTO 24008KT 10SM OVC031 03/M02 A3031 620 69 -600 240/08 RMK AO2 T00281022
04850KAOH AOH20161203134011212/03/16 13:40:31  5-MIN KAOH 031840Z AUTO 26007KT 10SM OVC031 03/M03 A3031 620 67 -600 260/07 RMK AO2 T00281028
04850KAOH AOH20161203134511212/03/16 13:45:31  5-MIN KAOH 031845Z AUTO 24007KT 10SM OVC031 03/M03 A3031 620 67 -600 250/07 RMK AO2 T00281028
04850KAOH AOH20161203135011912/03/16 13:50:31  5-MIN KAOH 031850Z AUTO 27010KT 10SM OVC031 03/M03 A3031 620 67 -600 270/10 RMK AO2 SLP273 T00281028
04850KAOH AOH20161203135511212/03/16 13:55:31  5-MIN KAOH 031855Z AUTO 26009KT 10SM OVC031 03/M03 A3031 620 67 -600 260/09 RMK AO2 T00281028
04850KAOH AOH20161203140011212/03/16 14:00:31  5-MIN KAOH 031900Z AUTO 26009KT 10SM OVC031 03/M03 A3032 610 67 -600 270/09 RMK AO2 T00281028
04850KAOH AOH20161203140511212/03/16 14:05:31  5-MIN KAOH 031905Z AUTO 25007KT 10SM OVC031 03/M03 A3031 620 67 -600 260/07 RMK AO2 T00281028
04850KAOH AOH20161203141011212/03/16 14:10:31  5-MIN KAOH 031910Z AUTO 24008KT 10SM OVC031 03/M03 A3031 620 67 -600 250/08 RMK AO2 T00281028
04850KAOH AOH20161203141511212/03/16 14:15:31  5-MIN KAOH 031915Z AUTO 26008KT 10SM OVC031 03/M03 A3031 620 67 -600 260/08 RMK AO2 T00281028
04850KAOH AOH20161203142011212/03/16 14:20:31  5-MIN KAOH 031920Z AUTO 25008KT 10SM OVC031 03/M03 A3031 620 67 -600 260/08 RMK AO2 T00281028
04850KAOH AOH20161203142511212/03/16 14:25:31  5-MIN KAOH 031925Z AUTO 26009KT 10SM OVC031 03/M03 A3031 620 67 -600 260/09 RMK AO2 T00281028
04850KAOH AOH20161203143011212/03/16 14:30:31  5-MIN KAOH 031930Z AUTO 26008KT 10SM OVC031 03/M03 A3031 620 67 -600 260/08 RMK AO2 T00281028
04850KAOH AOH20161203143511212/03/16 14:35:31  5-MIN KAOH 031935Z AUTO 25009KT 10SM OVC031 03/M03 A3031 620 67 -600 260/09 RMK AO2 T00281028
04850KAOH AOH20161203144011212/03/16 14:40:31  5-MIN KAOH 031940Z AUTO 26006KT 10SM OVC032 03/M03 A3031 620 67 -600 270/06 RMK AO2 T00281028
04850KAOH AOH20161203144511212/03/16 14:45:31  5-MIN KAOH 031945Z AUTO 26007KT 10SM OVC032 03/M03 A3030 630 67 -600 260/07 RMK AO2 T00281028
04850KAOH AOH20161203145011912/03/16 14:50:31  5-MIN KAOH 031950Z AUTO 26007KT 10SM OVC032 03/M03 A3031 620 67 -600 270/07 RMK AO2 SLP271 T00281028
04850KAOH AOH20161203145511212/03/16 14:55:31  5-MIN KAOH 031955Z AUTO 24008KT 10SM OVC033 03/M03 A3031 620 67 -600 250/08 RMK AO2 T00281028
04850KAOH AOH20161203150011212/03/16 15:00:31  5-MIN KAOH 032000Z AUTO 25009KT 10SM OVC033 03/M03 A3031 620 67 -600 250/09 RMK AO2 T00281028
04850KAOH AOH20161203150511212/03/16 15:05:31  5-MIN KAOH 032005Z AUTO 25011KT 10SM OVC032 03/M03 A3031 620 67 -600 250/11 RMK AO2 T00281028
04850KAOH AOH20161203151011212/03/16 15:10:31  5-MIN KAOH 032010Z AUTO 25010KT 10SM OVC032 03/M03 A3031 620 67 -600 260/10 RMK AO2 T00281028
04850KAOH AOH20161203151511212/03/16 15:15:31  5-MIN KAOH 032015Z AUTO 26009KT 10SM OVC030 02/M03 A3031 620 69 -700 260/09 RMK AO2 T00221028
04850KAOH AOH20161203152011212/03/16 15:20:31  5-MIN KAOH 032020Z AUTO 25008KT 10SM OVC030 03/M03 A3031 620 67 -600 250/08 RMK AO2 T00281028
04850KAOH AOH20161203152511212/03/16 15:25:31  5-MIN KAOH 032025Z AUTO 25009KT 10SM OVC031 03/M03 A3031 620 67 -600 260/09 RMK AO2 T00281028
04850KAOH AOH20161203153011212/03/16 15:30:31  5-MIN KAOH 032030Z AUTO 26011KT 10SM OVC031 03/M03 A3032 610 67 -600 270/11 RMK AO2 T00281028
04850KAOH AOH20161203153511212/03/16 15:35:31  5-MIN KAOH 032035Z AUTO 26009KT 10SM OVC031 02/M03 A3032 610 69 -700 270/09 RMK AO2 T00221028
04850KAOH AOH20161203154011212/03/16 15:40:31  5-MIN KAOH 032040Z AUTO 25008KT 10SM OVC031 02/M03 A3032 610 67 -700 250/08 RMK AO2 T00221033
04850KAOH AOH20161203154511212/03/16 15:45:31  5-MIN KAOH 032045Z AUTO 26007KT 10SM OVC030 02/M03 A3032 610 69 -700 260/07 RMK AO2 T00221028
04850KAOH AOH20161203155012512/03/16 15:50:31  5-MIN KAOH 032050Z AUTO 24006KT 10SM OVC030 03/M03 A3031 610 67 -600 250/06 RMK AO2 SLP274 T00281028 56012
04850KAOH AOH20161203155511212/03/16 15:55:31  5-MIN KAOH 032055Z AUTO 26008KT 10SM OVC030 02/M03 A3032 610 69 -700 270/08 RMK AO2 T00221028
04850KAOH AOH20161203160011212/03/16 16:00:31  5-MIN KAOH 032100Z AUTO 26007KT 10SM OVC030 02/M03 A3031 620 69 -700 260/07 RMK AO2 T00221028
04850KAOH AOH20161203160511212/03/16 16:05:31  5-MIN KAOH 032105Z AUTO 27008KT 10SM OVC030 02/M03 A3031 620 69 -700 270/08 RMK AO2 T00221028
04850KAOH AOH20161203161011212/03/16 16:10:31  5-MIN KAOH 032110Z AUTO 26007KT 10SM OVC030 02/M03 A3031 620 69 -700 260/07 RMK AO2 T00221028
04850KAOH AOH20161203161511212/03/16 16:15:31  5-MIN KAOH 032115Z AUTO 26007KT 10SM OVC030 02/M03 A3031 610 69 -700 270/07 RMK AO2 T00221028
04850KAOH AOH20161203162011212/03/16 16:20:31  5-MIN KAOH 032120Z AUTO 26007KT 10SM OVC030 02/M03 A3031 610 69 -700 260/07 RMK AO2 T00221028
04850KAOH AOH20161203162511212/03/16 16:25:31  5-MIN KAOH 032125Z AUTO 27006KT 10SM OVC030 02/M03 A3031 620 69 -700 280/06 RMK AO2 T00221028
04850KAOH AOH20161203163011212/03/16 16:30:31  5-MIN KAOH 032130Z AUTO 27006KT 10SM OVC030 02/M03 A3031 620 69 -700 270/06 RMK AO2 T00221028
04850KAOH AOH20161203163511212/03/16 16:35:31  5-MIN KAOH 032135Z AUTO 28007KT 10SM OVC030 02/M02 A3031 620 72 -700 280/07 RMK AO2 T00221022
04850KAOH AOH20161203164011212/03/16 16:40:31  5-MIN KAOH 032140Z AUTO 27008KT 10SM OVC030 02/M03 A3031 620 69 -700 280/08 RMK AO2 T00221028
04850KAOH AOH20161203164511212/03/16 16:45:31  5-MIN KAOH 032145Z AUTO 27006KT 10SM OVC030 02/M03 A3031 620 67 -700 270/06 RMK AO2 T00221033
04850KAOH AOH20161203165011912/03/16 16:50:31  5-MIN KAOH 032150Z AUTO 30007KT 10SM OVC030 02/M03 A3031 620 69 -700 300/07 RMK AO2 SLP274 T00221028
04850KAOH AOH20161203165511212/03/16 16:55:31  5-MIN KAOH 032155Z AUTO 27007KT 10SM OVC030 02/M03 A3031 620 69 -700 280/07 RMK AO2 T00221028
04850KAOH AOH20161203170011212/03/16 17:00:31  5-MIN KAOH 032200Z AUTO 27007KT 10SM OVC030 02/M03 A3031 620 69 -700 270/07 RMK AO2 T00221028
04850KAOH AOH20161203170511212/03/16 17:05:31  5-MIN KAOH 032205Z AUTO 28007KT 10SM OVC030 02/M03 A3031 620 69 -700 280/07 RMK AO2 T00221028
04850KAOH AOH20161203171011212/03/16 17:10:31  5-MIN KAOH 032210Z AUTO 28006KT 10SM OVC030 02/M03 A3031 620 69 -700 280/06 RMK AO2 T00221028
04850KAOH AOH20161203171511212/03/16 17:15:31  5-MIN KAOH 032215Z AUTO 26008KT 10SM OVC030 02/M03 A3031 620 67 -700 260/08 RMK AO2 T00221033
04850KAOH AOH20161203172011212/03/16 17:20:31  5-MIN KAOH 032220Z AUTO 28005KT 10SM OVC030 02/M03 A3031 620 69 -700 290/05 RMK AO2 T00221028
04850KAOH AOH20161203172511212/03/16 17:25:31  5-MIN KAOH 032225Z AUTO 29004KT 10SM OVC030 02/M03 A3031 620 72 -800 300/04 RMK AO2 T00171028
04850KAOH AOH20161203173011212/03/16 17:30:31  5-MIN KAOH 032230Z AUTO 30004KT 10SM OVC030 02/M03 A3031 620 72 -800 300/04 RMK AO2 T00171028
04850KAOH AOH20161203173511212/03/16 17:35:31  5-MIN KAOH 032235Z AUTO 29005KT 10SM OVC030 02/M03 A3031 620 72 -800 290/05 RMK AO2 T00171028
04850KAOH AOH20161203174011212/03/16 17:40:31  5-MIN KAOH 032240Z AUTO 28004KT 10SM OVC030 02/M03 A3031 620 69 -800 290/04 RMK AO2 T00171033
04850KAOH AOH20161203174511212/03/16 17:45:31  5-MIN KAOH 032245Z AUTO 28005KT 10SM OVC030 02/M03 A3031 620 72 -800 280/05 RMK AO2 T00171028
04850KAOH AOH20161203175011912/03/16 17:50:31  5-MIN KAOH 032250Z AUTO 29003KT 10SM OVC030 02/M03 A3030 630 69 -800 300/03 RMK AO2 SLP270 T00171033
04850KAOH AOH20161203175511212/03/16 17:55:31  5-MIN KAOH 032255Z AUTO 30003KT 10SM OVC030 02/M03 A3030 630 69 -800 310/03 RMK AO2 T00171033
04850KAOH AOH20161203180011212/03/16 18:00:31  5-MIN KAOH 032300Z AUTO 00000KT 10SM OVC030 02/M03 A3030 630 72 -800 000/00 RMK AO2 T00171028
04850KAOH AOH20161203180511212/03/16 18:05:31  5-MIN KAOH 032305Z AUTO 31003KT 10SM OVC030 02/M03 A3030 630 72 -700 320/03 RMK AO2 T00171028
04850KAOH AOH20161203181011212/03/16 18:10:31  5-MIN KAOH 032310Z AUTO 32004KT 10SM OVC030 02/M03 A3029 630 69 -700 330/04 RMK AO2 T00171033
04850KAOH AOH20161203181511212/03/16 18:15:31  5-MIN KAOH 032315Z AUTO 32004KT 10SM OVC030 02/M03 A3029 630 72 -700 330/04 RMK AO2 T00171028
04850KAOH AOH20161203182011212/03/16 18:20:31  5-MIN KAOH 032320Z AUTO 32003KT 10SM OVC030 02/M03 A3029 630 69 -700 320/03 RMK AO2 T00171033
04850KAOH AOH20161203182511212/03/16 18:25:31  5-MIN KAOH 032325Z AUTO 30004KT 10SM OVC030 02/M03 A3029 640 69 -700 310/04 RMK AO2 T00171033
04850KAOH AOH20161203183011212/03/16 18:30:31  5-MIN KAOH 032330Z AUTO 33005KT 10SM OVC030 02/M03 A3029 640 69 -700 330/05 RMK AO2 T00171033
04850KAOH AOH20161203183511212/03/16 18:35:31  5-MIN KAOH 032335Z AUTO 33004KT 10SM OVC030 02/M03 A3029 640 69 -700 340/04 RMK AO2 T00171033
04850KAOH AOH20161203184011212/03/16 18:40:31  5-MIN KAOH 032340Z AUTO 31003KT 10SM OVC030 02/M03 A3029 640 69 -700 320/03 RMK AO2 T00171033
04850KAOH AOH20161203184511212/03/16 18:45:31  5-MIN KAOH 032345Z AUTO 30004KT 10SM OVC030 01/M03 A3029 640 72 -800 300/04 RMK AO2 T00111033
04850KAOH AOH20161203185013712/03/16 18:50:31  5-MIN KAOH 032350Z AUTO 33004KT 10SM OVC030 01/M03 A3029 640 75 -800 330/04 RMK AO2 SLP266 T00111028 10028 20011 51005
04850KAOH AOH20161203185511212/03/16 18:55:31  5-MIN KAOH 032355Z AUTO 31004KT 10SM OVC030 01/M03 A3029 630 75 -800 320/04 RMK AO2 T00111028
04850KAOH AOH20161203190011212/03/16 19:00:31  5-MIN KAOH 040000Z AUTO 31004KT 10SM OVC030 01/M03 A3030 630 75 -800 320/04 RMK AO2 T00111028
04850KAOH AOH20161203190511212/03/16 19:05:31  5-MIN KAOH 040005Z AUTO 32005KT 10SM OVC030 01/M03 A3030 630 75 -800 330/05 RMK AO2 T00111028
04850KAOH AOH20161203191011212/03/16 19:10:31  5-MIN KAOH 040010Z AUTO 32005KT 10SM OVC030 01/M03 A3030 630 75 -800 330/05 RMK AO2 T00111028
04850KAOH AOH20161203191511212/03/16 19:15:31  5-MIN KAOH 040015Z AUTO 32006KT 10SM OVC030 01/M03 A3030 630 75 -800 320/06 RMK AO2 T00111028
04850KAOH AOH20161203192011212/03/16 19:20:31  5-MIN KAOH 040020Z AUTO 32005KT 10SM OVC030 01/M03 A3030 630 72 -800 330/05 RMK AO2 T00111033
04850KAOH AOH20161203192511212/03/16 19:25:31  5-MIN KAOH 040025Z AUTO 31004KT 10SM OVC030 01/M03 A3030 630 75 -800 310/04 RMK AO2 T00111028
04850KAOH AOH20161203193011212/03/16 19:30:31  5-MIN KAOH 040030Z AUTO 29005KT 10SM OVC030 01/M03 A3030 630 75 -800 300/05 RMK AO2 T00111028
04850KAOH AOH20161203193511212/03/16 19:35:31  5-MIN KAOH 040035Z AUTO 30006KT 10SM OVC030 01/M03 A3030 630 72 -800 310/06 RMK AO2 T00111033
04850KAOH AOH20161203194011212/03/16 19:40:31  5-MIN KAOH 040040Z AUTO 32005KT 10SM OVC030 01/M03 A3030 630 72 -800 330/05 RMK AO2 T00111033
04850KAOH AOH20161203194511212/03/16 19:45:31  5-MIN KAOH 040045Z AUTO 32005KT 10SM OVC030 01/M03 A3030 630 75 -800 330/05 RMK AO2 T00111028
04850KAOH AOH20161203195011912/03/16 19:50:31  5-MIN KAOH 040050Z AUTO 32005KT 10SM OVC030 01/M03 A3030 630 75 -800 330/05 RMK AO2 SLP270 T00111028
04850KAOH AOH20161203195511212/03/16 19:55:31  5-MIN KAOH 040055Z AUTO 34005KT 10SM OVC030 01/M03 A3030 630 72 -800 340/05 RMK AO2 T00111033
04850KAOH AOH20161203200011212/03/16 20:00:31  5-MIN KAOH 040100Z AUTO 33003KT 10SM OVC030 01/M04 A3030 630 69 -800 340/03 RMK AO2 T00111039
04850KAOH AOH20161203200511212/03/16 20:05:31  5-MIN KAOH 040105Z AUTO 35004KT 10SM OVC030 01/M04 A3030 630 69 -800 350/04 RMK AO2 T00111039
04850KAOH AOH20161203201011212/03/16 20:10:31  5-MIN KAOH 040110Z AUTO 34003KT 10SM OVC030 01/M03 A3030 630 72 -800 350/03 RMK AO2 T00111033
04850KAOH AOH20161203201511212/03/16 20:15:31  5-MIN KAOH 040115Z AUTO 35003KT 10SM OVC030 01/M03 A3030 630 72 -800 350/03 RMK AO2 T00111033
04850KAOH AOH20161203202011212/03/16 20:20:31  5-MIN KAOH 040120Z AUTO 34004KT 10SM OVC030 01/M03 A3031 620 72 -800 350/04 RMK AO2 T00111033
04850KAOH AOH20161203202511212/03/16 20:25:31  5-MIN KAOH 040125Z AUTO 33004KT 10SM OVC030 01/M03 A3031 620 72 -800 340/04 RMK AO2 T00111033
04850KAOH AOH20161203203011212/03/16 20:30:31  5-MIN KAOH 040130Z AUTO 34004KT 10SM OVC030 01/M03 A3031 620 72 -800 350/04 RMK AO2 T00111033
04850KAOH AOH20161203203511212/03/16 20:35:31  5-MIN KAOH 040135Z AUTO 35004KT 10SM OVC030 01/M03 A3031 620 72 -800 350/04 RMK AO2 T00111033
04850KAOH AOH20161203204011212/03/16 20:40:31  5-MIN KAOH 040140Z AUTO 35003KT 10SM OVC030 01/M03 A3031 620 72 -800 350/03 RMK AO2 T00111033
04850KAOH AOH20161203204511212/03/16 20:45:31  5-MIN KAOH 040145Z AUTO 36003KT 10SM OVC030 01/M03 A3030 620 72 -800 360/03 RMK AO2 T00111033
04850KAOH AOH20161203205011912/03/16 20:50:31  5-MIN KAOH 040150Z AUTO 01004KT 10SM OVC030 01/M03 A3030 630 72 -800 010/04 RMK AO2 SLP270 T00111033
04850KAOH AOH20161203205511212/03/16 20:55:31  5-MIN KAOH 040155Z AUTO 02004KT 10SM OVC030 01/M03 A3030 630 72 -800 020/04 RMK AO2 T00111033
04850KAOH AOH20161203210011212/03/16 21:00:31  5-MIN KAOH 040200Z AUTO 36003KT 10SM OVC030 01/M03 A3029 630 72 -800 010/03 RMK AO2 T00111033
04850KAOH AOH20161203210511212/03/16 21:05:31  5-MIN KAOH 040205Z AUTO 01003KT 10SM OVC030 01/M04 A3030 630 69 -800 010/03 RMK AO2 T00111039
04850KAOH AOH20161203211011212/03/16 21:10:31  5-MIN KAOH 040210Z AUTO 00000KT 10SM OVC030 01/M03 A3030 630 72 -800 000/00 RMK AO2 T00111033
04850KAOH AOH20161203211511212/03/16 21:15:31  5-MIN KAOH 040215Z AUTO 36003KT 10SM OVC030 01/M03 A3030 630 72 -800 010/03 RMK AO2 T00111033
04850KAOH AOH20161203212011212/03/16 21:20:31  5-MIN KAOH 040220Z AUTO 02003KT 10SM OVC030 01/M03 A3029 640 72 -800 030/03 RMK AO2 T00111033
04850KAOH AOH20161203212511212/03/16 21:25:31  5-MIN KAOH 040225Z AUTO 02004KT 10SM OVC030 01/M03 A3029 640 72 -800 030/04 RMK AO2 T00111033
04850KAOH AOH20161203213011212/03/16 21:30:31  5-MIN KAOH 040230Z AUTO 02004KT 10SM OVC030 01/M03 A3029 630 72 -800 020/04 RMK AO2 T00111033
04850KAOH AOH20161203213511212/03/16 21:35:31  5-MIN KAOH 040235Z AUTO 03003KT 10SM OVC030 01/M03 A3029 640 72 -800 030/03 RMK AO2 T00111033
04850KAOH AOH20161203214011212/03/16 21:40:31  5-MIN KAOH 040240Z AUTO 03004KT 10SM OVC030 01/M03 A3029 630 72 -800 040/04 RMK AO2 T00111033
04850KAOH AOH20161203214511212/03/16 21:45:31  5-MIN KAOH 040245Z AUTO 02003KT 10SM OVC030 01/M03 A3029 630 72 -800 030/03 RMK AO2 T00111033
04850KAOH AOH20161203215012512/03/16 21:50:31  5-MIN KAOH 040250Z AUTO 02003KT 10SM OVC030 01/M03 A3029 640 75 -800 030/03 RMK AO2 SLP267 T00111028 58008
04850KAOH AOH20161203215511212/03/16 21:55:31  5-MIN KAOH 040255Z AUTO 03003KT 10SM OVC030 01/M03 A3029 640 75 -800 030/03 RMK AO2 T00111028
04850KAOH AOH20161203220011212/03/16 22:00:31  5-MIN KAOH 040300Z AUTO 00000KT 10SM OVC030 01/M03 A3029 640 72 -800 000/00 RMK AO2 T00111033
04850KAOH AOH20161203220511212/03/16 22:05:31  5-MIN KAOH 040305Z AUTO 06003KT 10SM OVC030 01/M03 A3029 640 72 -800 060/03 RMK AO2 T00111033
04850KAOH AOH20161203221011212/03/16 22:10:31  5-MIN KAOH 040310Z AUTO 04003KT 10SM OVC030 01/M03 A3029 640 72 -800 050/03 RMK AO2 T00111033
04850KAOH AOH20161203221511212/03/16 22:15:31  5-MIN KAOH 040315Z AUTO 04004KT 10SM OVC030 01/M03 A3029 640 75 -900 040/04 RMK AO2 T00061033
04850KAOH AOH20161203222011212/03/16 22:20:31  5-MIN KAOH 040320Z AUTO 04004KT 10SM OVC030 01/M03 A3028 640 75 -900 050/04 RMK AO2 T00061033
04850KAOH AOH20161203222511212/03/16 22:25:31  5-MIN KAOH 040325Z AUTO 05003KT 10SM OVC030 01/M03 A3028 650 75 -900 060/03 RMK AO2 T00061033
04850KAOH AOH20161203223011212/03/16 22:30:31  5-MIN KAOH 040330Z AUTO 05003KT 10SM OVC030 01/M03 A3028 650 75 -900 050/03 RMK AO2 T00061033
04850KAOH AOH20161203223511212/03/16 22:35:31  5-MIN KAOH 040335Z AUTO 05003KT 10SM OVC030 01/M04 A3028 650 72 -900 060/03 RMK AO2 T00061039
04850KAOH AOH20161203224011212/03/16 22:40:31  5-MIN KAOH 040340Z AUTO 05003KT 10SM OVC029 01/M04 A3028 650 72 -900 060/03 RMK AO2 T00061039
04850KAOH AOH20161203224511212/03/16 22:45:31  5-MIN KAOH 040345Z AUTO 07003KT 10SM OVC029 01/M03 A3027 650 75 -900 080/03 RMK AO2 T00061033
04850KAOH AOH20161203225011912/03/16 22:50:31  5-MIN KAOH 040350Z AUTO 08004KT 10SM OVC029 00/M03 A3027 650 78 -900 090/04 RMK AO2 SLP260 T00001033
04850KAOH AOH20161203225511212/03/16 22:55:31  5-MIN KAOH 040355Z AUTO 09004KT 10SM OVC029 00/M03 A3027 650 78 -900 090/04 RMK AO2 T00001033
04850KAOH AOH20161203230011412/03/16 23:00:31  5-MIN KAOH 040400Z AUTO 09004KT 10SM OVC029 M01/M03 A3027 650 81 -1000 090/04 RMK AO2 T10061033
04850KAOH AOH20161203230511412/03/16 23:05:31  5-MIN KAOH 040405Z AUTO 09004KT 10SM OVC029 M01/M03 A3027 650 81 -1000 100/04 RMK AO2 T10061033
04850KAOH AOH20161203231011412/03/16 23:10:31  5-MIN KAOH 040410Z AUTO 11003KT 10SM OVC029 M01/M03 A3027 650 81 -1000 110/03 RMK AO2 T10061033
04850KAOH AOH20161203231511412/03/16 23:15:31  5-MIN KAOH 040415Z AUTO 12004KT 10SM OVC029 M01/M03 A3028 650 85 -1000 130/04 RMK AO2 T10061028
04850KAOH AOH20161203232011412/03/16 23:20:31  5-MIN KAOH 040420Z AUTO 13004KT 10SM OVC029 M01/M03 A3028 650 88 -1100 140/04 RMK AO2 T10111028
04850KAOH AOH20161203232511412/03/16 23:25:31  5-MIN KAOH 040425Z AUTO 13005KT 10SM OVC029 M01/M03 A3028 650 81 -1000 140/05 RMK AO2 T10061033
04850KAOH AOH20161203233011412/03/16 23:30:31  5-MIN KAOH 040430Z AUTO 13005KT 10SM OVC029 M01/M03 A3028 650 81 -1000 130/05 RMK AO2 T10061033
04850KAOH AOH20161203233511412/03/16 23:35:31  5-MIN KAOH 040435Z AUTO 12004KT 10SM OVC029 M01/M03 A3028 650 81 -1000 130/04 RMK AO2 T10061033
04850KAOH AOH20161203234011412/03/16 23:40:31  5-MIN KAOH 040440Z AUTO 12005KT 10SM OVC029 M01/M03 A3028 650 85 -1000 130/05 RMK AO2 T10061028
04850KAOH AOH20161203234511412/03/16 23:45:31  5-MIN KAOH 040445Z AUTO 13005KT 10SM OVC029 M01/M03 A3027 650 85 -1000 140/05 RMK AO2 T10061028
04850KAOH AOH20161203235012912/03/16 23:50:31  5-MIN KAOH 040450Z AUTO 12004KT 10SM OVC029 00/M03 A3027 660 81 -900 130/04 RMK AO2 SLP259 T00001028 400281011
04850KAOH AOH20161203235511212/03/16 23:55:31  5-MIN KAOH 040455Z AUTO 11003KT 10SM OVC029 00/M03 A3027 650 81 -900 120/03 RMK AO2 T00001028
04850KAOH AOH20161204000011412/04/16 00:00:31  5-MIN KAOH 040500Z AUTO 00000KT 10SM OVC029 M01/M03 A3028 650 85 -1000 000/00 RMK AO2 T10061028
04850KAOH AOH20161204000511412/04/16 00:05:31  5-MIN KAOH 040505Z AUTO 00000KT 10SM OVC029 M01/M02 A3028 650 88 -1000 000/00 RMK AO2 T10061022
04850KAOH AOH20161204001011212/04/16 00:10:31  5-MIN KAOH 040510Z AUTO 13003KT 10SM OVC029 00/M02 A3028 650 85 -900 140/03 RMK AO2 T00001022
04850KAOH AOH20161204001511212/04/16 00:15:31  5-MIN KAOH 040515Z AUTO 00000KT 10SM OVC029 00/M03 A3028 650 81 -900 000/00 RMK AO2 T00001028
04850KAOH AOH20161204002011212/04/16 00:20:31  5-MIN KAOH 040520Z AUTO 12003KT 10SM OVC029 00/M02 A3027 650 85 -900 120/03 RMK AO2 T00001022
04850KAOH AOH20161204002511212/04/16 00:25:31  5-MIN KAOH 040525Z AUTO 11003KT 10SM OVC029 00/M02 A3027 650 85 -900 110/03 RMK AO2 T00001022
04850KAOH AOH20161204003011212/04/16 00:30:31  5-MIN KAOH 040530Z AUTO 11003KT 10SM OVC029 00/M02 A3028 650 85 -900 120/03 RMK AO2 T00001022
04850KAOH AOH20161204003511212/04/16 00:35:31  5-MIN KAOH 040535Z AUTO 11003KT 10SM OVC029 00/M02 A3028 650 85 -900 110/03 RMK AO2 T00001022
04850KAOH AOH20161204004011212/04/16 00:40:31  5-MIN KAOH 040540Z AUTO 10003KT 10SM OVC029 00/M02 A3027 650 85 -900 100/03 RMK AO2 T00001022
04850KAOH AOH20161204004511212/04/16 00:45:31  5-MIN KAOH 040545Z AUTO 00000KT 10SM OVC029 00/M02 A3027 650 85 -900 000/00 RMK AO2 T00001022
04850KAOH AOH20161204005013712/04/16 00:50:31  5-MIN KAOH 040550Z AUTO 00000KT 10SM OVC029 00/M02 A3027 650 85 -900 000/00 RMK AO2 SLP261 T00001022 10017 21011 50000
04850KAOH AOH20161204005511212/04/16 00:55:31  5-MIN KAOH 040555Z AUTO 11003KT 10SM OVC029 00/M02 A3027 650 85 -900 120/03 RMK AO2 T00001022
04850KAOH AOH20161204010011212/04/16 01:00:31  5-MIN KAOH 040600Z AUTO 11004KT 10SM OVC029 00/M02 A3027 650 85 -900 120/04 RMK AO2 T00001022
04850KAOH AOH20161204010511212/04/16 01:05:31  5-MIN KAOH 040605Z AUTO 11003KT 10SM OVC029 01/M02 A3027 650 82 -900 120/03 RMK AO2 T00061022
04850KAOH AOH20161204011011212/04/16 01:10:31  5-MIN KAOH 040610Z AUTO 11004KT 10SM OVC029 01/M02 A3027 650 82 -900 120/04 RMK AO2 T00061022
04850KAOH AOH20161204011511212/04/16 01:15:31  5-MIN KAOH 040615Z AUTO 12004KT 10SM OVC029 01/M02 A3027 660 82 -900 120/04 RMK AO2 T00061022
04850KAOH AOH20161204012011212/04/16 01:20:31  5-MIN KAOH 040620Z AUTO 11003KT 10SM OVC029 01/M02 A3027 660 82 -900 120/03 RMK AO2 T00061022
04850KAOH AOH20161204012511212/04/16 01:25:31  5-MIN KAOH 040625Z AUTO 00000KT 10SM OVC029 01/M02 A3026 660 82 -900 000/00 RMK AO2 T00061022
04850KAOH AOH20161204013011212/04/16 01:30:31  5-MIN KAOH 040630Z AUTO 11003KT 10SM OVC029 01/M02 A3026 660 82 -900 120/03 RMK AO2 T00061022
04850KAOH AOH20161204013511212/04/16 01:35:31  5-MIN KAOH 040635Z AUTO 10003KT 10SM OVC029 01/M02 A3026 660 82 -900 110/03 RMK AO2 T00061022
04850KAOH AOH20161204014011212/04/16 01:40:31  5-MIN KAOH 040640Z AUTO 09003KT 10SM OVC029 01/M02 A3026 660 82 -900 100/03 RMK AO2 T00061022
04850KAOH AOH20161204014511212/04/16 01:45:31  5-MIN KAOH 040645Z AUTO 09004KT 10SM OVC029 01/M02 A3026 660 82 -800 100/04 RMK AO2 T00061022
04850KAOH AOH20161204015011912/04/16 01:50:31  5-MIN KAOH 040650Z AUTO 08003KT 10SM OVC029 01/M02 A3026 670 82 -800 090/03 RMK AO2 SLP255 T00061022
04850KAOH AOH20161204015511212/04/16 01:55:31  5-MIN KAOH 040655Z AUTO 07003KT 10SM OVC029 01/M02 A3026 670 82 -800 070/03 RMK AO2 T00061022
04850KAOH AOH20161204020011212/04/16 02:00:31  5-MIN KAOH 040700Z AUTO 07004KT 10SM OVC029 01/M02 A3025 670 82 -800 080/04 RMK AO2 T00061022
04850KAOH AOH20161204020511212/04/16 02:05:31  5-MIN KAOH 040705Z AUTO 07003KT 10SM OVC029 01/M02 A3026 660 82 -800 080/03 RMK AO2 T00061022
04850KAOH AOH20161204021011212/04/16 02:10:31  5-MIN KAOH 040710Z AUTO 06003KT 10SM OVC029 01/M02 A3026 660 82 -800 070/03 RMK AO2 T00061022
04850KAOH AOH20161204021511212/04/16 02:15:31  5-MIN KAOH 040715Z AUTO 06003KT 10SM OVC029 01/M03 A3026 660 78 -900 070/03 RMK AO2 T00061028
04850KAOH AOH20161204022011212/04/16 02:20:31  5-MIN KAOH 040720Z AUTO 06003KT 10SM OVC029 01/M02 A3026 660 82 -800 070/03 RMK AO2 T00061022
04850KAOH AOH20161204022511212/04/16 02:25:31  5-MIN KAOH 040725Z AUTO 00000KT 10SM OVC029 01/M02 A3026 660 82 -900 000/00 RMK AO2 T00061022
04850KAOH AOH20161204023011212/04/16 02:30:31  5-MIN KAOH 040730Z AUTO 00000KT 10SM OVC029 01/M02 A3027 660 82 -900 000/00 RMK AO2 T00061022
04850KAOH AOH20161204023511212/04/16 02:35:31  5-MIN KAOH 040735Z AUTO 00000KT 10SM OVC029 01/M02 A3026 660 82 -900 000/00 RMK AO2 T00061022
04850KAOH AOH20161204024011212/04/16 02:40:31  5-MIN KAOH 040740Z AUTO 08003KT 10SM OVC029 01/M02 A3026 660 82 -900 090/03 RMK AO2 T00061022
04850KAOH AOH20161204024511212/04/16 02:45:31  5-MIN KAOH 040745Z AUTO 09003KT 10SM OVC029 01/M02 A3026 660 82 -800 100/03 RMK AO2 T00061022
04850KAOH AOH20161204025011912/04/16 02:50:31  5-MIN KAOH 040750Z AUTO 09003KT 10SM OVC029 01/M02 A3026 660 82 -800 100/03 RMK AO2 SLP257 T00061022
04850KAOH AOH20161204025511212/04/16 02:55:31  5-MIN KAOH 040755Z AUTO 09003KT 10SM OVC029 01/M02 A3026 660 82 -800 090/03 RMK AO2 T00061022
04850KAOH AOH20161204030011212/04/16 03:00:31  5-MIN KAOH 040800Z AUTO 09003KT 10SM OVC029 01/M02 A3026 670 82 -800 100/03 RMK AO2 T00061022
04850KAOH AOH20161204030511212/04/16 03:05:31  5-MIN KAOH 040805Z AUTO 10004KT 10SM OVC029 01/M02 A3025 670 82 -800 110/04 RMK AO2 T00061022
04850KAOH AOH20161204031011212/04/16 03:10:31  5-MIN KAOH 040810Z AUTO 11003KT 10SM OVC029 01/M02 A3025 670 82 -800 120/03 RMK AO2 T00061022
04850KAOH AOH20161204031511212/04/16 03:15:31  5-MIN KAOH 040815Z AUTO 11004KT 10SM OVC029 01/M02 A3025 670 82 -800 120/04 RMK AO2 T00061022
04850KAOH AOH20161204032011212/04/16 03:20:31  5-MIN KAOH 040820Z AUTO 12004KT 10SM OVC030 01/M02 A3025 670 82 -800 120/04 RMK AO2 T00061022
04850KAOH AOH20161204032511212/04/16 03:25:31  5-MIN KAOH 040825Z AUTO 00000KT 10SM OVC030 01/M02 A3025 670 82 -800 000/00 RMK AO2 T00061022
04850KAOH AOH20161204033011212/04/16 03:30:31  5-MIN KAOH 040830Z AUTO 11003KT 10SM OVC030 01/M02 A3025 670 82 -800 110/03 RMK AO2 T00061022
04850KAOH AOH20161204033511212/04/16 03:35:31  5-MIN KAOH 040835Z AUTO 11003KT 10SM OVC030 01/M02 A3025 680 82 -800 110/03 RMK AO2 T00061022
04850KAOH AOH20161204034011212/04/16 03:40:31  5-MIN KAOH 040840Z AUTO 11003KT 10SM OVC030 01/M02 A3024 680 82 -800 110/03 RMK AO2 T00061022
04850KAOH AOH20161204034511212/04/16 03:45:31  5-MIN KAOH 040845Z AUTO 10003KT 10SM OVC030 01/M02 A3025 680 82 -800 110/03 RMK AO2 T00061022
04850KAOH AOH20161204035012512/04/16 03:50:31  5-MIN KAOH 040850Z AUTO 11004KT 10SM OVC030 01/M02 A3024 680 82 -800 110/04 RMK AO2 SLP251 T00061022 55006
04850KAOH AOH20161204035511212/04/16 03:55:31  5-MIN KAOH 040855Z AUTO 11004KT 10SM OVC030 01/M02 A3025 680 82 -800 110/04 RMK AO2 T00061022
04850KAOH AOH20161204040011212/04/16 04:00:31  5-MIN KAOH 040900Z AUTO 10004KT 10SM OVC030 01/M02 A3024 680 82 -800 110/04 RMK AO2 T00061022
04850KAOH AOH20161204040511212/04/16 04:05:31  5-MIN KAOH 040905Z AUTO 10004KT 10SM OVC030 01/M02 A3024 680 82 -800 110/04 RMK AO2 T00061022
04850KAOH AOH20161204041011212/04/16 04:10:31  5-MIN KAOH 040910Z AUTO 10004KT 10SM OVC030 01/M02 A3023 690 82 -800 110/04 RMK AO2 T00061022
04850KAOH AOH20161204041511212/04/16 04:15:31  5-MIN KAOH 040915Z AUTO 10004KT 10SM OVC029 01/M02 A3024 690 82 -800 110/04 RMK AO2 T00061022
04850KAOH AOH20161204042011212/04/16 04:20:31  5-MIN KAOH 040920Z AUTO 10004KT 10SM OVC029 01/M02 A3023 690 82 -800 110/04 RMK AO2 T00061022
04850KAOH AOH20161204042511212/04/16 04:25:31  5-MIN KAOH 040925Z AUTO 10005KT 10SM OVC029 01/M02 A3023 690 82 -800 100/05 RMK AO2 T00061022
04850KAOH AOH20161204043011212/04/16 04:30:31  5-MIN KAOH 040930Z AUTO 09004KT 10SM OVC029 01/M02 A3024 690 82 -800 100/04 RMK AO2 T00061022
04850KAOH AOH20161204043511212/04/16 04:35:31  5-MIN KAOH 040935Z AUTO 10004KT 10SM OVC029 01/M02 A3024 680 82 -800 100/04 RMK AO2 T00061022
04850KAOH AOH20161204044011212/04/16 04:40:31  5-MIN KAOH 040940Z AUTO 09005KT 10SM OVC029 01/M02 A3023 690 82 -800 100/05 RMK AO2 T00061022
04850KAOH AOH20161204044511212/04/16 04:45:31  5-MIN KAOH 040945Z AUTO 10005KT 10SM OVC029 01/M02 A3024 690 82 -800 100/05 RMK AO2 T00061022
04850KAOH AOH20161204045011912/04/16 04:50:31  5-MIN KAOH 040950Z AUTO 09005KT 10SM OVC028 01/M02 A3024 690 82 -800 100/05 RMK AO2 SLP248 T00061022
04850KAOH AOH20161204045511212/04/16 04:55:31  5-MIN KAOH 040955Z AUTO 09005KT 10SM OVC028 01/M02 A3023 690 82 -800 100/05 RMK AO2 T00061022
04850KAOH AOH20161204050011212/04/16 05:00:31  5-MIN KAOH 041000Z AUTO 10005KT 10SM OVC028 01/M02 A3023 690 82 -800 100/05 RMK AO2 T00061022
04850KAOH AOH20161204050511212/04/16 05:05:31  5-MIN KAOH 041005Z AUTO 10005KT 10SM OVC028 01/M02 A3023 690 82 -800 100/05 RMK AO2 T00061022
04850KAOH AOH20161204051011212/04/16 05:10:31  5-MIN KAOH 041010Z AUTO 10005KT 10SM OVC028 01/M02 A3023 690 82 -800 100/05 RMK AO2 T00061022
04850KAOH AOH20161204051511212/04/16 05:15:31  5-MIN KAOH 041015Z AUTO 10005KT 10SM OVC028 01/M02 A3023 690 82 -800 110/05 RMK AO2 T00061022
04850KAOH AOH20161204052011212/04/16 05:20:31  5-MIN KAOH 041020Z AUTO 10005KT 10SM OVC028 01/M02 A3022 700 82 -800 110/05 RMK AO2 T00061022
04850KAOH AOH20161204052511212/04/16 05:25:31  5-MIN KAOH 041025Z AUTO 10005KT 10SM OVC028 01/M02 A3022 700 82 -800 110/05 RMK AO2 T00061022
04850KAOH AOH20161204053011212/04/16 05:30:31  5-MIN KAOH 041030Z AUTO 11005KT 10SM OVC028 01/M02 A3022 700 82 -800 110/05 RMK AO2 T00061022
04850KAOH AOH20161204053511212/04/16 05:35:31  5-MIN KAOH 041035Z AUTO 11006KT 10SM OVC028 01/M02 A3022 710 82 -800 120/06 RMK AO2 T00061022
04850KAOH AOH20161204054011212/04/16 05:40:31  5-MIN KAOH 041040Z AUTO 11006KT 10SM OVC028 01/M02 A3022 700 82 -800 120/06 RMK AO2 T00061022
04850KAOH AOH20161204054511212/04/16 05:45:31  5-MIN KAOH 041045Z AUTO 12007KT 10SM OVC028 01/M02 A3021 710 82 -800 120/07 RMK AO2 T00061022
04850KAOH AOH20161204055011912/04/16 05:50:31  5-MIN KAOH 041050Z AUTO 12008KT 10SM OVC028 01/M02 A3021 710 82 -800 130/08 RMK AO2 SLP240 T00061022
04850KAOH AOH20161204055511212/04/16 05:55:31  5-MIN KAOH 041055Z AUTO 12007KT 10SM OVC028 01/M02 A3021 710 82 -800 130/07 RMK AO2 T00061022
04850KAOH AOH20161204060011212/04/16 06:00:31  5-MIN KAOH 041100Z AUTO 13007KT 10SM OVC028 01/M02 A3021 710 82 -800 130/07 RMK AO2 T00061022
04850KAOH AOH20161204060511212/04/16 06:05:31  5-MIN KAOH 041105Z AUTO 13007KT 10SM OVC028 01/M02 A3021 710 82 -800 130/07 RMK AO2 T00061022
04850KAOH AOH20161204061011212/04/16 06:10:31  5-MIN KAOH 041110Z AUTO 13006KT 10SM OVC028 01/M02 A3022 700 82 -800 130/06 RMK AO2 T00061022
04850KAOH AOH20161204061511212/04/16 06:15:31  5-MIN KAOH 041115Z AUTO 12006KT 10SM OVC028 01/M02 A3021 710 82 -800 130/06 RMK AO2 T00061022
04850KAOH AOH20161204062011212/04/16 06:20:31  5-MIN KAOH 041120Z AUTO 13007KT 10SM OVC028 01/M02 A3021 710 82 -800 130/07 RMK AO2 T00061022
04850KAOH AOH20161204062511212/04/16 06:25:31  5-MIN KAOH 041125Z AUTO 13006KT 10SM OVC028 01/M02 A3021 710 82 -800 140/06 RMK AO2 T00061022
04850KAOH AOH20161204063011212/04/16 06:30:31  5-MIN KAOH 041130Z AUTO 13005KT 10SM OVC027 01/M02 A3020 720 82 -800 140/05 RMK AO2 T00061022
04850KAOH AOH20161204063511212/04/16 06:35:31  5-MIN KAOH 041135Z AUTO 13005KT 10SM OVC027 01/M02 A3020 720 82 -800 140/05 RMK AO2 T00061022
04850KAOH AOH20161204064011212/04/16 06:40:31  5-MIN KAOH 041140Z AUTO 13006KT 10SM OVC027 01/M02 A3020 720 82 -800 140/06 RMK AO2 T00061022
04850KAOH AOH20161204064511212/04/16 06:45:31  5-MIN KAOH 041145Z AUTO 13006KT 10SM OVC027 01/M02 A3020 720 82 -800 140/06 RMK AO2 T00061022
04850KAOH AOH20161204065013712/04/16 06:50:31  5-MIN KAOH 041150Z AUTO 13005KT 10SM OVC027 01/M02 A3020 720 82 -800 140/05 RMK AO2 SLP235 T00061022 10006 20000 56009
04850KAOH AOH20161204065511212/04/16 06:55:31  5-MIN KAOH 041155Z AUTO 13006KT 10SM OVC027 01/M02 A3020 720 82 -800 140/06 RMK AO2 T00061022
04850KAOH AOH20161204070011212/04/16 07:00:31  5-MIN KAOH 041200Z AUTO 13007KT 10SM OVC027 01/M02 A3020 720 82 -800 140/07 RMK AO2 T00061022
04850KAOH AOH20161204070511212/04/16 07:05:31  5-MIN KAOH 041205Z AUTO 14008KT 10SM OVC027 01/M02 A3020 720 82 -800 140/08 RMK AO2 T00061022
04850KAOH AOH20161204071011212/04/16 07:10:31  5-MIN KAOH 041210Z AUTO 13007KT 10SM OVC027 01/M02 A3020 720 78 -700 130/07 RMK AO2 T00111022
04850KAOH AOH20161204071511212/04/16 07:15:31  5-MIN KAOH 041215Z AUTO 13007KT 10SM OVC028 01/M02 A3020 720 82 -800 130/07 RMK AO2 T00061022
04850KAOH AOH20161204072011212/04/16 07:20:31  5-MIN KAOH 041220Z AUTO 13007KT 10SM OVC028 01/M02 A3020 720 82 -800 140/07 RMK AO2 T00061022
04850KAOH AOH20161204072511212/04/16 07:25:31  5-MIN KAOH 041225Z AUTO 13007KT 10SM OVC028 01/M02 A3020 720 82 -800 140/07 RMK AO2 T00061022
04850KAOH AOH20161204073011212/04/16 07:30:31  5-MIN KAOH 041230Z AUTO 13007KT 10SM OVC028 01/M02 A3020 720 82 -800 140/07 RMK AO2 T00061022
04850KAOH AOH20161204073511212/04/16 07:35:31  5-MIN KAOH 041235Z AUTO 13007KT 10SM OVC028 01/M02 A3019 720 82 -800 140/07 RMK AO2 T00061022
04850KAOH AOH20161204074011212/04/16 07:40:31  5-MIN KAOH 041240Z AUTO 13006KT 10SM OVC027 01/M02 A3020 720 82 -800 140/06 RMK AO2 T00061022
04850KAOH AOH20161204074511212/04/16 07:45:31  5-MIN KAOH 041245Z AUTO 12004KT 10SM OVC027 01/M02 A3020 720 82 -800 130/04 RMK AO2 T00061022
04850KAOH AOH20161204075011912/04/16 07:50:31  5-MIN KAOH 041250Z AUTO 12006KT 10SM OVC027 01/M02 A3019 730 82 -800 130/06 RMK AO2 SLP233 T00061022
04850KAOH AOH20161204075511212/04/16 07:55:31  5-MIN KAOH 041255Z AUTO 12006KT 10SM OVC027 01/M02 A3019 730 82 -800 130/06 RMK AO2 T00061022
04850KAOH AOH20161204080011212/04/16 08:00:31  5-MIN KAOH 041300Z AUTO 12007KT 10SM OVC027 01/M02 A3019 730 82 -800 130/07 RMK AO2 T00061022
04850KAOH AOH20161204080511212/04/16 08:05:31  5-MIN KAOH 041305Z AUTO 12008KT 10SM OVC027 01/M02 A3019 730 82 -800 130/08 RMK AO2 T00061022
04850KAOH AOH20161204081011212/04/16 08:10:31  5-MIN KAOH 041310Z AUTO 12006KT 10SM OVC027 01/M02 A3019 730 82 -800 130/06 RMK AO2 T00061022
04850KAOH AOH20161204081511212/04/16 08:15:31  5-MIN KAOH 041315Z AUTO 11005KT 10SM OVC027 01/M02 A3018 730 82 -800 120/05 RMK AO2 T00061022
04850KAOH AOH20161204082011212/04/16 08:20:31  5-MIN KAOH 041320Z AUTO 11005KT 10SM BKN027 01/M02 A3018 730 85 -800 120/05 RMK AO2 T00061017
04850KAOH AOH20161204082511112/04/16 08:25:31  5-MIN KAOH 041325Z AUTO 11005KT 9SM BKN027 01/M02 A3018 740 82 -800 110/05 RMK AO2 T00061022
04850KAOH AOH20161204083011112/04/16 08:30:31  5-MIN KAOH 041330Z AUTO 10004KT 9SM SCT027 01/M02 A3018 740 85 -800 110/04 RMK AO2 T00061017
04850KAOH AOH20161204083511112/04/16 08:35:31  5-MIN KAOH 041335Z AUTO 10005KT 9SM FEW027 01/M02 A3018 740 85 -800 100/05 RMK AO2 T00061017
04850KAOH AOH20161204084011112/04/16 08:40:31  5-MIN KAOH 041340Z AUTO 10005KT 9SM FEW027 01/M02 A3018 740 85 -800 110/05 RMK AO2 T00061017
04850KAOH AOH20161204084510812/04/16 08:45:31  5-MIN KAOH 041345Z AUTO 09005KT 9SM CLR 01/M02 A3018 730 85 -800 100/05 RMK AO2 T00061017
04850KAOH AOH20161204085011512/04/16 08:50:31  5-MIN KAOH 041350Z AUTO 09005KT 9SM CLR 01/M02 A3019 730 85 -800 100/05 RMK AO2 SLP232 T00061017
04850KAOH AOH20161204085510812/04/16 08:55:31  5-MIN KAOH 041355Z AUTO 10004KT 9SM CLR 01/M02 A3019 730 85 -800 110/04 RMK AO2 T00061017
04850KAOH AOH20161204090010812/04/16 09:00:31  5-MIN KAOH 041400Z AUTO 11004KT 9SM CLR 01/M02 A3020 720 82 -700 120/04 RMK AO2 T00111017
04850KAOH AOH20161204090510812/04/16 09:05:31  5-MIN KAOH 041405Z AUTO 12004KT 9SM CLR 01/M02 A3020 720 82 -700 120/04 RMK AO2 T00111017
04850KAOH AOH20161204091010812/04/16 09:10:31  5-MIN KAOH 041410Z AUTO 11003KT 9SM CLR 01/M02 A3020 720 82 -700 120/03 RMK AO2 T00111017
04850KAOH AOH20161204091510812/04/16 09:15:31  5-MIN KAOH 041415Z AUTO 11003KT 9SM CLR 01/M02 A3019 730 82 -700 110/03 RMK AO2 T00111017
04850KAOH AOH20161204092011112/04/16 09:20:31  5-MIN KAOH 041420Z AUTO 11004KT 9SM FEW120 01/M01 A3019 720 85 -700 120/04 RMK AO2 T00111011
04850KAOH AOH20161204092511112/04/16 09:25:31  5-MIN KAOH 041425Z AUTO 11004KT 9SM SCT120 01/M01 A3019 730 85 -700 120/04 RMK AO2 T00111011
04850KAOH AOH20161204093011112/04/16 09:30:31  5-MIN KAOH 041430Z AUTO 13005KT 9SM SCT120 01/M02 A3020 720 82 -700 140/05 RMK AO2 T00111017
04850KAOH AOH20161204093511112/04/16 09:35:31  5-MIN KAOH 041435Z AUTO 12005KT 9SM SCT110 02/M02 A3019 730 78 -600 130/05 RMK AO2 T00171017
04850KAOH AOH20161204094011112/04/16 09:40:31  5-MIN KAOH 041440Z AUTO 11005KT 9SM BKN110 02/M02 A3019 730 78 -600 120/05 RMK AO2 T00171017
04850KAOH AOH20161204094511112/04/16 09:45:31  5-MIN KAOH 041445Z AUTO 12005KT 9SM BKN110 02/M01 A3019 730 82 -600 120/05 RMK AO2 T00171011
04850KAOH AOH20161204095012412/04/16 09:50:31  5-MIN KAOH 041450Z AUTO 12005KT 9SM BKN110 02/M01 A3019 730 82 -600 130/05 RMK AO2 SLP231 T00171011 57016
04850KAOH AOH20161204095511212/04/16 09:55:31  5-MIN KAOH 041455Z AUTO 13005KT 10SM BKN110 02/M01 A3019 730 82 -600 140/05 RMK AO2 T00171011
04850KAOH AOH20161204100011212/04/16 10:00:31  5-MIN KAOH 041500Z AUTO 12004KT 10SM OVC110 02/M01 A3019 730 82 -600 130/04 RMK AO2 T00171011
04850KAOH AOH20161204100511212/04/16 10:05:31  5-MIN KAOH 041505Z AUTO 12005KT 10SM OVC110 02/M01 A3018 740 78 -500 130/05 RMK AO2 T00221011
04850KAOH AOH20161204101011212/04/16 10:10:31  5-MIN KAOH 041510Z AUTO 12006KT 10SM OVC100 02/M01 A3018 740 78 -500 130/06 RMK AO2 T00221011
04850KAOH AOH20161204101511212/04/16 10:15:31  5-MIN KAOH 041515Z AUTO 12005KT 10SM OVC100 02/M01 A3018 740 78 -500 120/05 RMK AO2 T00221011
04850KAOH AOH20161204102011212/04/16 10:20:31  5-MIN KAOH 041520Z AUTO 11005KT 10SM OVC100 02/M01 A3017 750 78 -500 120/05 RMK AO2 T00221011
04850KAOH AOH20161204102511212/04/16 10:25:31  5-MIN KAOH 041525Z AUTO 11006KT 10SM OVC100 02/M01 A3017 750 78 -500 120/06 RMK AO2 T00221011
04850KAOH AOH20161204103011212/04/16 10:30:31  5-MIN KAOH 041530Z AUTO 12007KT 10SM OVC100 02/M01 A3016 750 78 -500 130/07 RMK AO2 T00221011
04850KAOH AOH20161204103511212/04/16 10:35:31  5-MIN KAOH 041535Z AUTO 13007KT 10SM BKN100 02/M01 A3017 750 78 -500 140/07 RMK AO2 T00221011
04850KAOH AOH20161204104011212/04/16 10:40:31  5-MIN KAOH 041540Z AUTO 13005KT 10SM BKN100 02/M01 A3017 750 78 -500 140/05 RMK AO2 T00221011
04850KAOH AOH20161204104511212/04/16 10:45:31  5-MIN KAOH 041545Z AUTO 13005KT 10SM OVC110 03/M01 A3017 750 75 -500 140/05 RMK AO2 T00281011
04850KAOH AOH20161204105011912/04/16 10:50:31  5-MIN KAOH 041550Z AUTO 13007KT 10SM OVC100 03/M01 A3017 750 75 -500 130/07 RMK AO2 SLP224 T00281011
04850KAOH AOH20161204105511212/04/16 10:55:31  5-MIN KAOH 041555Z AUTO 12006KT 10SM OVC100 03/M01 A3016 760 75 -500 130/06 RMK AO2 T00281011
04850KAOH AOH20161204110011212/04/16 11:00:31  5-MIN KAOH 041600Z AUTO 12007KT 10SM BKN100 03/M01 A3016 760 75 -500 130/07 RMK AO2 T00281011
04850KAOH AOH20161204110511212/04/16 11:05:31  5-MIN KAOH 041605Z AUTO 13009KT 10SM BKN100 03/M01 A3015 760 75 -400 140/09 RMK AO2 T00281011
04850KAOH AOH20161204111011912/04/16 11:10:31  5-MIN KAOH 041610Z AUTO 12008KT 10SM BKN100 03/M01 A3014 770 75 -400 130/08 RMK AO2 PRESFR T00281011
04850KAOH AOH20161204111511912/04/16 11:15:31  5-MIN KAOH 041615Z AUTO 11007KT 10SM BKN100 03/M01 A3014 780 72 -400 120/07 RMK AO2 PRESFR T00331011
04850KAOH AOH20161204112011912/04/16 11:20:31  5-MIN KAOH 041620Z AUTO 11008KT 10SM SCT100 03/M01 A3013 790 76 -300 120/08 RMK AO2 PRESFR T00331006
04850KAOH AOH20161204112511912/04/16 11:25:31  5-MIN KAOH 041625Z AUTO 12008KT 10SM FEW100 03/M01 A3012 790 72 -300 130/08 RMK AO2 PRESFR T00331011
04850KAOH AOH20161204113012412/04/16 11:30:31  5-MIN KAOH 041630Z AUTO 11009KT 10SM FEW100 03/M01 A3012 800 76 -300 120/09 RMK AO2 PRESFR T00331006 TSNO
04850KAOH AOH20161204113511712/04/16 11:35:31  5-MIN KAOH 041635Z AUTO 13008KT 10SM FEW100 03/M01 A3012 800 76 -300 130/08 RMK AO2 T00331006 TSNO
04850KAOH AOH20161204114011712/04/16 11:40:31  5-MIN KAOH 041640Z AUTO 13009KT 10SM SCT100 03/M01 A3011 800 76 -300 130/09 RMK AO2 T00331006 TSNO
04850KAOH AOH20161204114511712/04/16 11:45:31  5-MIN KAOH 041645Z AUTO 11009KT 10SM SCT100 03/M01 A3011 800 76 -300 120/09 RMK AO2 T00331006 TSNO
04850KAOH AOH20161204115012412/04/16 11:50:31  5-MIN KAOH 041650Z AUTO 12008KT 10SM BKN100 03/M01 A3010 810 76 -300 120/08 RMK AO2 SLP203 T00331006 TSNO
04850KAOH AOH20161204115511712/04/16 11:55:31  5-MIN KAOH 041655Z AUTO 12008KT 10SM BKN100 03/M01 A3010 810 76 -300 130/08 RMK AO2 T00331006 TSNO
04850KAOH AOH20161204120011212/04/16 12:00:31  5-MIN KAOH 041700Z AUTO 12010KT 10SM BKN100 03/M01 A3009 820 76 -300 130/10 RMK AO2 T00331006
04850KAOH AOH20161204120511212/04/16 12:05:31  5-MIN KAOH 041705Z AUTO 13010KT 10SM OVC100 03/M01 A3010 820 76 -300 130/10 RMK AO2 T00331006
04850KAOH AOH20161204121011212/04/16 12:10:31  5-MIN KAOH 041710Z AUTO 13008KT 10SM OVC100 03/M01 A3009 820 72 -300 130/08 RMK AO2 T00331011
04850KAOH AOH20161204121511212/04/16 12:15:31  5-MIN KAOH 041715Z AUTO 12010KT 10SM OVC100 03/M01 A3009 820 76 -300 130/10 RMK AO2 T00331006
04850KAOH AOH20161204122011212/04/16 12:20:31  5-MIN KAOH 041720Z AUTO 12010KT 10SM OVC095 03/M01 A3008 830 76 -300 130/10 RMK AO2 T00331006
04850KAOH AOH20161204122511912/04/16 12:25:31  5-MIN KAOH 041725Z AUTO 13012KT 10SM OVC095 03/M01 A3007 840 76 -300 130/12 RMK AO2 PRESFR T00331006
04850KAOH AOH20161204123011212/04/16 12:30:31  5-MIN KAOH 041730Z AUTO 12011KT 10SM OVC095 03/M01 A3008 830 72 -300 130/11 RMK AO2 T00331011
04850KAOH AOH20161204123511212/04/16 12:35:31  5-MIN KAOH 041735Z AUTO 14011KT 10SM OVC095 03/M01 A3008 830 76 -300 140/11 RMK AO2 T00331006
04850KAOH AOH20161204124011212/04/16 12:40:31  5-MIN KAOH 041740Z AUTO 13011KT 10SM OVC095 03/M01 A3007 840 72 -300 140/11 RMK AO2 T00331011
04850KAOH AOH20161204124511212/04/16 12:45:31  5-MIN KAOH 041745Z AUTO 15011KT 10SM OVC090 03/M01 A3007 840 72 -300 160/11 RMK AO2 T00331011
04850KAOH AOH20161204125013712/04/16 12:50:31  5-MIN KAOH 041750Z AUTO 13011KT 10SM OVC090 03/M01 A3007 840 76 -300 130/11 RMK AO2 SLP191 T00331006 10033 20006 56002
04850KAOH AOH20161204125511212/04/16 12:55:31  5-MIN KAOH 041755Z AUTO 14008KT 10SM OVC090 03/M01 A3007 840 76 -300 140/08 RMK AO2 T00331006
04850KAOH AOH20161204130011212/04/16 13:00:31  5-MIN KAOH 041800Z AUTO 14008KT 10SM OVC090 03/M01 A3006 850 76 -300 150/08 RMK AO2 T00331006
04850KAOH AOH20161204130511212/04/16 13:05:31  5-MIN KAOH 041805Z AUTO 12011KT 10SM OVC090 03/M01 A3005 860 76 -300 130/11 RMK AO2 T00331006
04850KAOH AOH20161204131011912/04/16 13:10:31  5-MIN KAOH 041810Z AUTO 13010KT 10SM OVC090 03/M01 A3005 860 76 -300 130/10 RMK AO2 PRESFR T00331006
04850KAOH AOH20161204131511212/04/16 13:15:31  5-MIN KAOH 041815Z AUTO 13011KT 10SM OVC090 04/M01 A3004 870 73 -200 130/11 RMK AO2 T00391006
04850KAOH AOH20161204132011212/04/16 13:20:31  5-MIN KAOH 041820Z AUTO 12012KT 10SM OVC090 04/M01 A3004 870 73 -200 130/12 RMK AO2 T00391006
04850KAOH AOH20161204132511212/04/16 13:25:31  5-MIN KAOH 041825Z AUTO 14013KT 10SM OVC090 04/M01 A3003 870 70 -200 150/13 RMK AO2 T00391011
04850KAOH AOH20161204133011912/04/16 13:30:31  5-MIN KAOH 041830Z AUTO 12011KT 10SM OVC090 04/M01 A3003 880 73 -200 130/11 RMK AO2 PRESFR T00391006
04850KAOH AOH20161204133511212/04/16 13:35:31  5-MIN KAOH 041835Z AUTO 14012KT 10SM OVC090 04/M01 A3002 880 70 -100 140/12 RMK AO2 T00441006
04850KAOH AOH20161204134011212/04/16 13:40:31  5-MIN KAOH 041840Z AUTO 13013KT 10SM OVC090 04/M01 A3002 890 70 -100 130/13 RMK AO2 T00441006
04850KAOH AOH20161204134511212/04/16 13:45:31  5-MIN KAOH 041845Z AUTO 13012KT 10SM OVC090 04/M01 A3001 890 70 -100 130/12 RMK AO2 T00441006
04850KAOH AOH20161204135011912/04/16 13:50:31  5-MIN KAOH 041850Z AUTO 14011KT 10SM OVC085 04/M01 A3001 890 70 -100 150/11 RMK AO2 SLP170 T00441006
04850KAOH AOH20161204135511212/04/16 13:55:31  5-MIN KAOH 041855Z AUTO 13011KT 10SM OVC085 04/M01 A3001 900 70 -100 130/11 RMK AO2 T00441006
04850KAOH AOH20161204140011212/04/16 14:00:31  5-MIN KAOH 041900Z AUTO 13010KT 10SM BKN085 04/M01 A3001 900 70 -100 130/10 RMK AO2 T00441006
04850KAOH AOH20161204140511212/04/16 14:05:31  5-MIN KAOH 041905Z AUTO 14009KT 10SM BKN085 04/M01 A3000 900 70 -100 140/09 RMK AO2 T00441006
04850KAOH AOH20161204141011912/04/16 14:10:31  5-MIN KAOH 041910Z AUTO 13010KT 10SM BKN085 BKN110 04/M01 A3000 910 67 -100 140/10 RMK AO2 T00441011
04850KAOH AOH20161204141511912/04/16 14:15:31  5-MIN KAOH 041915Z AUTO 13010KT 10SM BKN085 BKN120 04/M01 A2999 910 70 -100 140/10 RMK AO2 T00441006
04850KAOH AOH20161204142011912/04/16 14:20:31  5-MIN KAOH 041920Z AUTO 12010KT 10SM BKN080 BKN120 04/M01 A2999 910 67 -100 120/10 RMK AO2 T00441011
04850KAOH AOH20161204142511912/04/16 14:25:31  5-MIN KAOH 041925Z AUTO 13010KT 10SM BKN080 BKN120 04/M01 A2999 920 67 -100 130/10 RMK AO2 T00441011
04850KAOH AOH20161204143011612/04/16 14:30:31  5-MIN KAOH 041930Z AUTO 10010KT 10SM BKN085 OVC120 04/M01 A2998 920 70 0 110/10 RMK AO2 T00441006
04850KAOH AOH20161204143510912/04/16 14:35:31  5-MIN KAOH 041935Z AUTO 13012KT 10SM BKN085 04/M01 A2998 920 70 0 140/12 RMK AO2 T00441006
04850KAOH AOH20161204144010912/04/16 14:40:31  5-MIN KAOH 041940Z AUTO 13012KT 10SM OVC085 04/M01 A2998 920 70 0 140/12 RMK AO2 T00441006
04850KAOH AOH20161204144510912/04/16 14:45:31  5-MIN KAOH 041945Z AUTO 12009KT 10SM OVC085 04/M01 A2998 930 70 0 130/09 RMK AO2 T00441006
04850KAOH AOH20161204145012312/04/16 14:50:31  5-MIN KAOH 041950Z AUTO 10010KT 10SM FEW060 BKN085 04/M01 A2997 930 70 0 110/10 RMK AO2 SLP157 T00441006
04850KAOH AOH20161204145511912/04/16 14:55:31  5-MIN KAOH 041955Z AUTO 12011KT 10SM SCT060 OVC090 04/M01 A2997 930 70 -100 120/11 RMK AO2 T00391011
04850KAOH AOH20161204150011912/04/16 15:00:31  5-MIN KAOH 042000Z AUTO 12011KT 10SM BKN060 OVC090 04/M01 A2997 930 70 -100 120/11 RMK AO2 T00391011
04850KAOH AOH20161204150511912/04/16 15:05:31  5-MIN KAOH 042005Z AUTO 12012KT 10SM BKN055 OVC090 04/M01 A2997 930 70 -100 130/12 RMK AO2 T00391011
04850KAOH AOH20161204151013512/04/16 15:10:31  5-MIN KAOH 042010Z AUTO 11009KT 10SM -RA BKN055 OVC095 04/M01 A2997 930 70 -100 120/09 RMK AO2 RAB10 P0000 T00391011
04850KAOH AOH20161204151513512/04/16 15:15:31  5-MIN KAOH 042015Z AUTO 12012KT 10SM -RA BKN049 OVC060 04/M01 A2996 940 70 -100 130/12 RMK AO2 RAB10 P0000 T00391011
04850KAOH AOH20161204152013512/04/16 15:20:31  5-MIN KAOH 042020Z AUTO 11009KT 10SM -RA BKN050 OVC060 04/M01 A2997 930 73 -100 120/09 RMK AO2 RAB10 P0000 T00391006
04850KAOH AOH20161204152513512/04/16 15:25:31  5-MIN KAOH 042025Z AUTO 13008KT 10SM -RA BKN047 OVC055 03/M01 A2997 930 72 -200 130/08 RMK AO2 RAB10 P0000 T00331011
04850KAOH AOH20161204153013412/04/16 15:30:31  5-MIN KAOH 042030Z AUTO 13008KT 7SM -RA BKN043 OVC055 03/M01 A2997 930 76 -200 140/08 RMK AO2 RAB10 P0000 T00331006
04850KAOH AOH20161204153514112/04/16 15:35:31  5-MIN KAOH 042035Z AUTO 12007KT 5SM -SN BKN039 OVC049 03/00 A2997 930 82 -200 130/07 RMK AO2 RAB10E31SNB31 P0000 T00280000
04850KAOH AOH20161204154014112/04/16 15:40:31  5-MIN KAOH 042040Z AUTO 12007KT 5SM -SN BKN039 OVC048 03/00 A2996 940 82 -200 120/07 RMK AO2 RAB10E31SNB31 P0000 T00280000
04850KAOH AOH20161204154514112/04/16 15:45:31  5-MIN KAOH 042045Z AUTO 12011KT 5SM -SN BKN039 OVC046 03/00 A2996 940 82 -200 120/11 RMK AO2 RAB10E31SNB31 P0000 T00280000
04850KAOH AOH20161204155015612/04/16 15:50:31  5-MIN KAOH 042050Z AUTO 12009KT 4SM -SN BR OVC037 02/00 A2996 940 85 -300 130/09 RMK AO2 RAB10E31SNB31 SLP154 P0001 60001 T00220000 58041
04850KAOH AOH20161204155512312/04/16 15:55:31  5-MIN KAOH 042055Z AUTO 11007KT 3SM -SN BR OVC033 02/00 A2996 940 85 -300 120/07 RMK AO2 P0000 T00220000
04850KAOH AOH20161204160013012/04/16 16:00:31  5-MIN KAOH 042100Z AUTO 11007KT 3SM -SN BR BKN028 OVC038 02/00 A2995 950 85 -300 120/07 RMK AO2 P0000 T00220000
04850KAOH AOH20161204160513412/04/16 16:05:31  5-MIN KAOH 042105Z AUTO 11007KT 2 1/2SM -SN BR BKN028 OVC038 02/00 A2995 950 85 -300 110/07 RMK AO2 P0000 T00220000
04850KAOH AOH20161204161013012/04/16 16:10:31  5-MIN KAOH 042110Z AUTO 10006KT 3SM -SN BR BKN028 OVC036 02/00 A2995 950 89 -400 110/06 RMK AO2 P0001 T00170000
04850KAOH AOH20161204161513012/04/16 16:15:31  5-MIN KAOH 042115Z AUTO 10006KT 3SM -SN BR BKN028 OVC036 02/00 A2995 950 89 -300 100/06 RMK AO2 P0001 T00170000
04850KAOH AOH20161204162012312/04/16 16:20:31  5-MIN KAOH 042120Z AUTO 09007KT 3SM -SN BR OVC031 02/00 A2994 960 89 -300 090/07 RMK AO2 P0001 T00170000
04850KAOH AOH20161204162512312/04/16 16:25:31  5-MIN KAOH 042125Z AUTO 08006KT 4SM -SN BR OVC031 02/01 A2994 960 92 -300 090/06 RMK AO2 P0001 T00170006
04850KAOH AOH20161204163012312/04/16 16:30:31  5-MIN KAOH 042130Z AUTO 08008KT 4SM -SN BR OVC035 02/01 A2994 960 92 -300 090/08 RMK AO2 P0001 T00170006
04850KAOH AOH20161204163512312/04/16 16:35:31  5-MIN KAOH 042135Z AUTO 07007KT 4SM -SN BR OVC035 02/01 A2993 960 92 -300 080/07 RMK AO2 P0001 T00170006
04850KAOH AOH20161204164012312/04/16 16:40:31  5-MIN KAOH 042140Z AUTO 06006KT 3SM -SN BR OVC035 02/01 A2994 960 92 -300 070/06 RMK AO2 P0002 T00170006
04850KAOH AOH20161204164513012/04/16 16:45:31  5-MIN KAOH 042145Z AUTO 06005KT 2SM -SN BR SCT030 OVC035 01/01 A2994 960 96 -400 070/05 RMK AO2 P0002 T00110006
04850KAOH AOH20161204165012412/04/16 16:50:31  5-MIN KAOH 042150Z AUTO 06004KT 2 1/2SM -SN BR SCT029 OVC033 01/01 A2994 960 96 -400 070/04 RMK AO2 P0002
04850KAOH AOH20161204165512712/04/16 16:55:31  5-MIN KAOH 042155Z AUTO 06004KT 2 1/2SM -SN BR OVC029 01/01 A2994 960 96 -400 060/04 RMK AO2 P0000 T00110006
04850KAOH AOH20161204170012712/04/16 17:00:31  5-MIN KAOH 042200Z AUTO 05003KT 2 1/2SM -SN BR OVC029 01/01 A2995 950 96 -400 050/03 RMK AO2 P0000 T00110006
04850KAOH AOH20161204170512412/04/16 17:05:31  5-MIN KAOH 042205Z AUTO 05004KT 2SM -SN BR OVC027 01/01 A2994 960 100 -500 060/04 RMK AO2 P0001 T00060006
04850KAOH AOH20161204171012412/04/16 17:10:31  5-MIN KAOH 042210Z AUTO 06003KT 2SM -SN BR OVC027 01/01 A2994 960 100 -500 060/03 RMK AO2 P0001 T00060006
04850KAOH AOH20161204171512812/04/16 17:15:31  5-MIN KAOH 042215Z AUTO 06004KT 1 3/4SM -SN BR OVC027 01/01 A2994 960 100 -500 070/04 RMK AO2 P0002 T00060006
04850KAOH AOH20161204172012412/04/16 17:20:31  5-MIN KAOH 042220Z AUTO 07004KT 2SM -SN BR OVC027 01/01 A2994 960 100 -500 080/04 RMK AO2 P0002 T00060006
04850KAOH AOH20161204172512812/04/16 17:25:31  5-MIN KAOH 042225Z AUTO 08005KT 1 3/4SM -SN BR OVC027 01/01 A2994 960 100 -500 090/05 RMK AO2 P0002 T00060006
04850KAOH AOH20161204173012812/04/16 17:30:31  5-MIN KAOH 042230Z AUTO 08005KT 1 3/4SM -SN BR OVC027 01/01 A2994 960 100 -500 090/05 RMK AO2 P0003 T00060006
04850KAOH AOH20161204173513512/04/16 17:35:31  5-MIN KAOH 042235Z AUTO 08005KT 1 1/2SM -SN BR BKN021 OVC029 01/01 A2993 970 100 -500 090/05 RMK AO2 P0004 T00060006
04850KAOH AOH20161204174013112/04/16 17:40:31  5-MIN KAOH 042240Z AUTO 08006KT 1SM -SN BR BKN018 OVC027 01/01 A2993 970 100 -500 090/06 RMK AO2 P0005 T00060006
04850KAOH AOH20161204174513112/04/16 17:45:31  5-MIN KAOH 042245Z AUTO 09007KT 1SM -SN BR BKN018 OVC027 01/01 A2993 970 100 -500 090/07 RMK AO2 P0005 T00060006
04850KAOH AOH20161204175014212/04/16 17:50:31  5-MIN KAOH 042250Z AUTO 09007KT 1 1/2SM -SN BR BKN018 OVC027 01/01 A2993 970 100 -500 090/07 RMK AO2 SLP144 P0005 T00060006
04850KAOH AOH20161204175513512/04/16 17:55:31  5-MIN KAOH 042255Z AUTO 09008KT 1 1/2SM -SN BR BKN016 OVC026 01/01 A2992 980 100 -500 100/08 RMK AO2 P0000 T00060006
04850KAOH AOH20161204180013512/04/16 18:00:31  5-MIN KAOH 042300Z AUTO 09008KT 1 1/2SM -SN BR BKN016 OVC026 01/01 A2992 980 100 -500 100/08 RMK AO2 P0000 T00060006
04850KAOH AOH20161204180514912/04/16 18:05:31  5-MIN KAOH 042305Z AUTO 09008KT 1 1/4SM -SN BR FEW003 BKN014 OVC025 01/01 A2991 990 100 -400 090/08 RMK AO2 PRESFR P0001 T00060006
04850KAOH AOH20161204181014212/04/16 18:10:31  5-MIN KAOH 042310Z AUTO 09009KT 1 1/4SM -SN BR FEW003 BKN014 OVC025 01/01 A2990 990 100 -400 100/09 RMK AO2 P0001 T00060006
04850KAOH AOH20161204181513612/04/16 18:15:31  5-MIN KAOH 042315Z AUTO 10009KT 1 1/4SM -SN BR FEW003 OVC014 01/01 A2990 1000 100 -400 100/09 RMK AO2 P0002 T00060006
04850KAOH AOH20161204182013112/04/16 18:20:31  5-MIN KAOH 042320Z AUTO 10008KT 1SM -SN BR FEW003 OVC012 01/01 A2991 990 100 -400 110/08 RMK AO2 P0002 T00060006
04850KAOH AOH20161204182513112/04/16 18:25:31  5-MIN KAOH 042325Z AUTO 10008KT 1SM -SN BR SCT004 OVC010 01/01 A2990 990 100 -400 110/08 RMK AO2 P0003 T00060006
04850KAOH AOH20161204183013612/04/16 18:30:31  5-MIN KAOH 042330Z AUTO 10009KT 1 1/4SM -SN BR BKN004 OVC010 01/01 A2990 1000 100 -400 110/09 RMK AO2 P0003 T00060006
04850KAOH AOH20161204183513612/04/16 18:35:31  5-MIN KAOH 042335Z AUTO 10008KT 1 1/4SM -SN BR BKN004 OVC009 01/01 A2990 1000 100 -400 110/08 RMK AO2 P0004 T00060006
04850KAOH AOH20161204184012912/04/16 18:40:31  5-MIN KAOH 042340Z AUTO 10007KT 1 1/4SM -SN BR OVC004 01/01 A2990 1000 100 -400 110/07 RMK AO2 P0004 T00060006
04850KAOH AOH20161204184513612/04/16 18:45:31  5-MIN KAOH 042345Z AUTO 10008KT 1 1/4SM -SN BR BKN004 OVC008 01/01 A2990 1000 100 -400 110/08 RMK AO2 P0004 T00060006
04850KAOH AOH20161204185016012/04/16 18:50:31  5-MIN KAOH 042350Z AUTO 11007KT 1 1/4SM -SN BR OVC004 01/01 A2990 1000 100 -400 110/07 RMK AO2 SLP134 P0005 60015 T00060006 10044 20006 56035
04850KAOH AOH20161204185512412/04/16 18:55:31  5-MIN KAOH 042355Z AUTO 10007KT 1SM -SN BR VV005 01/01 A2989 1000 100 -400 110/07 RMK AO2 P0000 T00060006
04850KAOH AOH20161204190012412/04/16 19:00:31  5-MIN KAOH 050000Z AUTO 10008KT 1SM -SN BR VV006 01/01 A2989 1010 100 -400 110/08 RMK AO2 P0001 T00060006
04850KAOH AOH20161204190513612/04/16 19:05:31  5-MIN KAOH 050005Z AUTO 11007KT 1 1/4SM -SN BR SCT004 OVC008 01/01 A2988 1010 100 -400 110/07 RMK AO2 P0001 T00060006
04850KAOH AOH20161204191014312/04/16 19:10:31  5-MIN KAOH 050010Z AUTO 11009KT 1 1/4SM -SN BR FEW004 OVC008 01/01 A2987 1030 100 -400 110/09 RMK AO2 PRESFR P0002 T00060006
04850KAOH AOH20161204191513212/04/16 19:15:31  5-MIN KAOH 050015Z AUTO 11010KT 1SM -SN BR FEW004 OVC008 01/01 A2987 1030 100 -400 110/10 RMK AO2 P0002 T00060006
04850KAOH AOH20161204192013412/04/16 19:20:31  5-MIN KAOH 050020Z AUTO 12010KT 3/4SM -SN BR FEW004 OVC008 01/01 A2987 1030 100 -400 120/10 RMK AO2 P0003 T00060006
04850KAOH AOH20161204192513212/04/16 19:25:31  5-MIN KAOH 050025Z AUTO 12011KT 1SM -SN BR SCT004 OVC008 01/01 A2986 1030 100 -400 130/11 RMK AO2 P0004 T00060006
04850KAOH AOH20161204193013212/04/16 19:30:31  5-MIN KAOH 050030Z AUTO 12010KT 1SM -SN BR SCT004 OVC008 01/01 A2985 1040 100 -400 120/10 RMK AO2 P0004 T00060006
04850KAOH AOH20161204193513612/04/16 19:35:31  5-MIN KAOH 050035Z AUTO 13010KT 1 1/4SM -SN BR BKN004 OVC008 01/01 A2985 1040 100 -400 130/10 RMK AO2 P0005 T00060006
04850KAOH AOH20161204194013612/04/16 19:40:31  5-MIN KAOH 050040Z AUTO 13010KT 1 1/2SM -SN BR BKN004 OVC008 01/01 A2986 1030 100 -400 140/10 RMK AO2 P0005 T00060006
04850KAOH AOH20161204194513612/04/16 19:45:31  5-MIN KAOH 050045Z AUTO 13010KT 1 3/4SM -SN BR BKN004 OVC008 01/01 A2986 1030 100 -400 140/10 RMK AO2 P0005 T00060006
04850KAOH AOH20161204195012212/04/16 19:50:31  5-MIN KAOH 050050Z AUTO 13009KT 2SM -SN BR BKN004 OVC008 01/01 A2985 1040 100 -400 140/09 RMK AO2 P0005
04850KAOH AOH20161204195512912/04/16 19:55:31  5-MIN KAOH 050055Z AUTO 14011KT 2 1/2SM -SN BR OVC004 01/01 A2985 1040 100 -400 140/11 RMK AO2 P0000 T00060006
04850KAOH AOH20161204200013212/04/16 20:00:31  5-MIN KAOH 050100Z AUTO 13011KT 3SM -SN BR OVC004 01/01 A2984 1050 100 -400 140/11 RMK AO2 PRESFR P0000 T00060006
04850KAOH AOH20161204200512912/04/16 20:05:31  5-MIN KAOH 050105Z AUTO 13012KT 2 1/2SM -SN BR OVC005 01/01 A2984 1060 100 -400 140/12 RMK AO2 P0000 T00060006
04850KAOH AOH20161204201013212/04/16 20:10:31  5-MIN KAOH 050110Z AUTO 13012KT 2SM -SN BR OVC005 01/01 A2983 1060 100 -300 140/12 RMK AO2 PRESFR P0001 T00060006
04850KAOH AOH20161204201513212/04/16 20:15:31  5-MIN KAOH 050115Z AUTO 13013KT 2SM -SN BR OVC005 01/01 A2982 1070 100 -300 140/13 RMK AO2 PRESFR P0001 T00060006
04850KAOH AOH20161204202012912/04/16 20:20:31  5-MIN KAOH 050120Z AUTO 14012KT 2 1/2SM -SN BR OVC005 01/01 A2982 1070 100 -300 140/12 RMK AO2 P0001 T00060006
04850KAOH AOH20161204202512512/04/16 20:25:31  5-MIN KAOH 050125Z AUTO 14012KT 3SM -SN BR OVC005 01/01 A2982 1070 100 -300 140/12 RMK AO2 P0001 T00060006
04850KAOH AOH20161204203012512/04/16 20:30:31  5-MIN KAOH 050130Z AUTO 14012KT 5SM -SN BR OVC005 01/01 A2982 1070 100 -300 150/12 RMK AO2 P0001 T00060006
04850KAOH AOH20161204203512712/04/16 20:35:31  5-MIN KAOH 050135Z AUTO 15010KT 5SM BR OVC005 01/01 A2982 1070 100 -300 160/10 RMK AO2 SNE32 P0001 T00060006
04850KAOH AOH20161204204012712/04/16 20:40:31  5-MIN KAOH 050140Z AUTO 15009KT 6SM BR OVC005 01/01 A2983 1060 100 -300 160/09 RMK AO2 SNE32 P0001 T00060006
04850KAOH AOH20161204204512712/04/16 20:45:31  5-MIN KAOH 050145Z AUTO 16012KT 6SM BR OVC005 01/01 A2983 1060 100 -400 160/12 RMK AO2 SNE32 P0001 T00060006
04850KAOH AOH20161204205013412/04/16 20:50:31  5-MIN KAOH 050150Z AUTO 16008KT 6SM BR OVC005 01/01 A2983 1060 100 -400 160/08 RMK AO2 SNE32 SLP111 P0001 T00060006
04850KAOH AOH20161204205511512/04/16 20:55:31  5-MIN KAOH 050155Z AUTO 16009KT 5SM BR OVC006 01/01 A2983 1060 100 -400 170/09 RMK AO2 T00060006
04850KAOH AOH20161204210011512/04/16 21:00:31  5-MIN KAOH 050200Z AUTO 17007KT 5SM BR OVC006 01/01 A2983 1060 100 -400 170/07 RMK AO2 T00060006
04850KAOH AOH20161204210513012/04/16 21:05:31  5-MIN KAOH 050205Z AUTO 17007KT 5SM UP BR OVC006 01/01 A2983 1060 100 -400 180/07 RMK AO2 UPB02 P0000 T00060006
04850KAOH AOH20161204211013912/04/16 21:10:31  5-MIN KAOH 050210Z AUTO 17008KT 5SM -RA BR OVC006 01/01 A2983 1060 100 -400 180/08 RMK AO2 UPB02E06RAB06 P0000 T00060006
04850KAOH AOH20161204211514612/04/16 21:15:31  5-MIN KAOH 050215Z AUTO 17008KT 5SM -RA BR BKN006 OVC016 01/01 A2983 1060 100 -400 180/08 RMK AO2 UPB02E06RAB06 P0000 T00060006
04850KAOH AOH20161204212014512/04/16 21:20:31  5-MIN KAOH 050220Z AUTO 17008KT 4SM -RA BR BKN006 OVC016 01/01 A2983 1060 96 -300 180/08 RMK AO2 UPB02E06RAB06 P0000 T00110006
04850KAOH AOH20161204212514512/04/16 21:25:31  5-MIN KAOH 050225Z AUTO 17007KT 4SM -RA BR BKN006 OVC016 01/01 A2983 1060 96 -300 180/07 RMK AO2 UPB02E06RAB06 P0000 T00110006
04850KAOH AOH20161204213014512/04/16 21:30:31  5-MIN KAOH 050230Z AUTO 17009KT 4SM -RA BR BKN006 OVC016 01/01 A2983 1060 96 -300 170/09 RMK AO2 UPB02E06RAB06 P0000 T00110006
04850KAOH AOH20161204213514512/04/16 21:35:31  5-MIN KAOH 050235Z AUTO 18008KT 4SM -RA BR BKN006 OVC014 01/01 A2983 1060 96 -300 190/08 RMK AO2 UPB02E06RAB06 P0000 T00110006
04850KAOH AOH20161204214014612/04/16 21:40:31  5-MIN KAOH 050240Z AUTO 18008KT 4SM -RA BR BKN006 OVC014 01/01 A2983 1060 100 -300 180/08 RMK AO2 UPB02E06RAB06 P0001 T00110011
04850KAOH AOH20161204214515312/04/16 21:45:31  5-MIN KAOH 050245Z AUTO 17009KT 4SM -RA BR SCT006 BKN014 OVC023 01/01 A2982 1070 100 -300 180/09 RMK AO2 UPB02E06RAB06 P0001 T00110011
04850KAOH AOH20161204215014312/04/16 21:50:31  5-MIN KAOH 050250Z AUTO 17010KT 4SM -RA BR SCT006 BKN013 OVC021 01/01 A2982 1070 100 -300 170/10 RMK AO2 UPB02E06RAB06 P0001
04850KAOH AOH20161204215513912/04/16 21:55:31  5-MIN KAOH 050255Z AUTO 18008KT 4SM -RA BR FEW006 SCT013 OVC021 01/01 A2982 1070 100 -300 180/08 RMK AO2 P0000 T00110011
04850KAOH AOH20161204220013912/04/16 22:00:31  5-MIN KAOH 050300Z AUTO 18007KT 5SM -RA BR FEW006 SCT011 OVC019 01/01 A2982 1070 100 -300 180/07 RMK AO2 P0000 T00110011
04850KAOH AOH20161204220513912/04/16 22:05:31  5-MIN KAOH 050305Z AUTO 19008KT 5SM -RA BR FEW006 BKN019 OVC025 01/01 A2983 1060 100 -300 200/08 RMK AO2 P0000 T00110011
04850KAOH AOH20161204221013412/04/16 22:10:31  5-MIN KAOH 050310Z AUTO 19008KT 6SM BR FEW006 OVC017 01/01 A2983 1060 100 -300 190/08 RMK AO2 RAE10 P0000 T00110011
04850KAOH AOH20161204221513412/04/16 22:15:31  5-MIN KAOH 050315Z AUTO 18008KT 6SM BR FEW006 OVC015 01/01 A2982 1070 100 -300 190/08 RMK AO2 RAE10 P0000 T00110011
04850KAOH AOH20161204222013412/04/16 22:20:31  5-MIN KAOH 050320Z AUTO 19007KT 6SM BR SCT006 OVC015 01/01 A2982 1070 100 -300 190/07 RMK AO2 RAE10 P0000 T00110011
04850KAOH AOH20161204222514612/04/16 22:25:31  5-MIN KAOH 050325Z AUTO 20007KT 6SM BR BKN006 OVC016 01/01 A2982 1070 100 -300 200/07 RMK AO2 RAE10 CIG 005V011 P0000 T00110011
04850KAOH AOH20161204223014312/04/16 22:30:31  5-MIN KAOH 050330Z AUTO 19007KT 7SM BKN007 OVC014 01/01 A2982 1070 100 -300 200/07 RMK AO2 RAE10 CIG 005V011 P0000 T00110011
04850KAOH AOH20161204223514312/04/16 22:35:31  5-MIN KAOH 050335Z AUTO 18009KT 7SM BKN007 OVC014 01/01 A2982 1070 100 -300 190/09 RMK AO2 RAE10 CIG 005V010 P0000 T00110011
04850KAOH AOH20161204224014312/04/16 22:40:31  5-MIN KAOH 050340Z AUTO 20010KT 7SM BKN006 OVC014 01/01 A2982 1070 100 -300 210/10 RMK AO2 RAE10 CIG 004V010 P0000 T00110011
04850KAOH AOH20161204224514612/04/16 22:45:31  5-MIN KAOH 050345Z AUTO 19009KT 5SM BR BKN006 OVC012 01/01 A2982 1070 100 -300 190/09 RMK AO2 RAE10 CIG 004V009 P0000 T00110011
04850KAOH AOH20161204225014112/04/16 22:50:31  5-MIN KAOH 050350Z AUTO 20008KT 5SM BR BKN006 OVC012 01/01 A2983 1070 100 -300 200/08 RMK AO2 RAE10 SLP107 P0000 T00110011
04850KAOH AOH20161204225513412/04/16 22:55:31  5-MIN KAOH 050355Z AUTO 22007KT 5SM BR BKN006 OVC012 01/01 A2983 1060 100 -300 220/07 RMK AO2 CIG 004V007 T00110011
04850KAOH AOH20161204230013412/04/16 23:00:31  5-MIN KAOH 050400Z AUTO 20009KT 4SM BR BKN006 OVC011 02/02 A2983 1060 100 -200 210/09 RMK AO2 CIG 004V009 T00170017
04850KAOH AOH20161204230513412/04/16 23:05:31  5-MIN KAOH 050405Z AUTO 21009KT 4SM BR BKN006 OVC011 02/02 A2983 1060 100 -200 210/09 RMK AO2 CIG 004V009 T00170017
04850KAOH AOH20161204231012212/04/16 23:10:31  5-MIN KAOH 050410Z AUTO 21009KT 4SM BR BKN006 OVC011 02/02 A2983 1060 100 -200 220/09 RMK AO2 T00170017
04850KAOH AOH20161204231512212/04/16 23:15:31  5-MIN KAOH 050415Z AUTO 21011KT 4SM BR BKN006 OVC010 02/02 A2983 1060 100 -200 220/11 RMK AO2 T00170017
04850KAOH AOH20161204232012712/04/16 23:20:31  5-MIN KAOH 050420Z AUTO 21009KT 4SM BR OVC006 02/02 A2983 1060 100 -200 210/09 RMK AO2 CIG 004V010 T00170017
04850KAOH AOH20161204232511512/04/16 23:25:31  5-MIN KAOH 050425Z AUTO 21011KT 5SM BR OVC006 02/02 A2984 1050 100 -200 220/11 RMK AO2 T00170017
04850KAOH AOH20161204233011412/04/16 23:30:31  5-MIN KAOH 050430Z AUTO 22011KT 6SM BR OVC006 02/02 A2984 1050 96 -200 230/11 RMK AO2 T00220017
04850KAOH AOH20161204233511212/04/16 23:35:31  5-MIN KAOH 050435Z AUTO 24012KT 7SM OVC006 02/02 A2984 1050 100 -200 240/12 RMK AO2 T00220022
04850KAOH AOH20161204234011212/04/16 23:40:31  5-MIN KAOH 050440Z AUTO 24013KT 8SM OVC006 02/02 A2984 1050 100 -200 250/13 RMK AO2 T00220022
04850KAOH AOH20161204234511812/04/16 23:45:31  5-MIN KAOH 050445Z AUTO 24014G20KT 8SM OVC006 02/02 A2985 1050 100 -200 250/14G20 RMK AO2 T00220022
04850KAOH AOH20161204235013512/04/16 23:50:31  5-MIN KAOH 050450Z AUTO 25018G24KT 9SM OVC006 02/02 A2985 1040 100 -200 260/18G24 RMK AO2 SLP115 T00220022 400441006
04850KAOH AOH20161204235512412/04/16 23:55:31  5-MIN KAOH 050455Z AUTO 26016KT 9SM OVC007 02/02 A2985 1040 100 -200 270/16 RMK AO2 CIG 005V010 T00220022
04850KAOH AOH20161205000012412/05/16 00:00:31  5-MIN KAOH 050500Z AUTO 26018KT 9SM OVC007 02/02 A2986 1030 100 -200 270/18 RMK AO2 CIG 006V011 T00220022
04850KAOH AOH20161205000512512/05/16 00:05:31  5-MIN KAOH 050505Z AUTO 26018KT 10SM OVC009 02/02 A2987 1030 100 -200 260/18 RMK AO2 CIG 006V011 T00220022
04850KAOH AOH20161205001013112/05/16 00:10:31  5-MIN KAOH 050510Z AUTO 27020G25KT 10SM OVC007 02/02 A2987 1030 100 -300 270/20G25 RMK AO2 CIG 006V011 T00170017
04850KAOH AOH20161205001514912/05/16 00:15:31  5-MIN KAOH 050515Z AUTO 27021G26KT 10SM OVC007 02/02 A2988 1020 100 -300 280/21G26 RMK AO2 PK WND 26026/0514 CIG 006V011 T00170017
04850KAOH AOH20161205002014912/05/16 00:20:31  5-MIN KAOH 050520Z AUTO 27018G28KT 10SM OVC007 02/02 A2988 1020 100 -300 280/18G28 RMK AO2 PK WND 26028/0516 CIG 006V011 T00170017
04850KAOH AOH20161205002513712/05/16 00:25:31  5-MIN KAOH 050525Z AUTO 27019G28KT 10SM OVC007 02/02 A2988 1010 100 -300 280/19G28 RMK AO2 PK WND 26028/0516 T00170017
04850KAOH AOH20161205003013112/05/16 00:30:31  5-MIN KAOH 050530Z AUTO 27021KT 10SM OVC007 02/02 A2989 1010 100 -300 280/21 RMK AO2 PK WND 26028/0516 T00170017
04850KAOH AOH20161205003513712/05/16 00:35:31  5-MIN KAOH 050535Z AUTO 27018G25KT 10SM OVC007 01/01 A2989 1010 100 -300 270/18G25 RMK AO2 PK WND 26028/0516 T00110011
04850KAOH AOH20161205004013712/05/16 00:40:31  5-MIN KAOH 050540Z AUTO 26018G25KT 10SM OVC007 01/01 A2989 1010 100 -300 270/18G25 RMK AO2 PK WND 26028/0516 T00110011
04850KAOH AOH20161205004513112/05/16 00:45:31  5-MIN KAOH 050545Z AUTO 27018KT 10SM OVC007 01/01 A2989 1010 100 -400 280/18 RMK AO2 PK WND 26028/0516 T00110011
04850KAOH AOH20161205005016812/05/16 00:50:31  5-MIN KAOH 050550Z AUTO 27020G28KT 10SM OVC007 01/01 A2989 1000 100 -400 280/20G28 RMK AO2 PK WND 26028/0548 SLP130 60007 T00110011 10022 20006 56010
04850KAOH AOH20161205005513712/05/16 00:55:31  5-MIN KAOH 050555Z AUTO 27022G28KT 10SM OVC007 01/01 A2990 1000 100 -400 280/22G28 RMK AO2 PK WND 27027/0555 T00110011
04850KAOH AOH20161205010013612/05/16 01:00:31  5-MIN KAOH 050600Z AUTO 27024G31KT 10SM OVC007 01/01 A2990 1000 96 -400 270/24G31 RMK AO2 PK WND 27031/0600 T00110006
04850KAOH AOH20161205010513612/05/16 01:05:31  5-MIN KAOH 050605Z AUTO 26020G31KT 10SM OVC007 01/01 A2990 1000 96 -400 270/20G31 RMK AO2 PK WND 27031/0600 T00110006
04850KAOH AOH20161205011013512/05/16 01:10:31  5-MIN KAOH 050610Z AUTO 27016G31KT 10SM OVC007 01/01 A2990 990 96 -400 280/16G31 RMK AO2 PK WND 27031/0600 T00110006
04850KAOH AOH20161205011514712/05/16 01:15:31  5-MIN KAOH 050615Z AUTO 27020G28KT 10SM OVC007 01/01 A2991 990 96 -400 280/20G28 RMK AO2 PK WND 27031/0600 CIG 005V010 T00110006
04850KAOH AOH20161205012014712/05/16 01:20:31  5-MIN KAOH 050620Z AUTO 27023G31KT 10SM OVC007 01/01 A2991 990 96 -400 270/23G31 RMK AO2 PK WND 27031/0619 CIG 005V009 T00110006
04850KAOH AOH20161205012514712/05/16 01:25:31  5-MIN KAOH 050625Z AUTO 27018G31KT 10SM OVC007 01/00 A2991 990 92 -400 280/18G31 RMK AO2 PK WND 27031/0619 CIG 005V011 T00110000
04850KAOH AOH20161205013014712/05/16 01:30:31  5-MIN KAOH 050630Z AUTO 26017G27KT 10SM OVC009 01/00 A2991 980 92 -400 270/17G27 RMK AO2 PK WND 27031/0619 CIG 005V011 T00110000
04850KAOH AOH20161205013514112/05/16 01:35:31  5-MIN KAOH 050635Z AUTO 27016KT 10SM OVC009 01/00 A2992 980 92 -400 280/16 RMK AO2 PK WND 27031/0619 CIG 005V011 T00110000
04850KAOH AOH20161205014014712/05/16 01:40:31  5-MIN KAOH 050640Z AUTO 27018G24KT 10SM OVC009 01/00 A2992 980 92 -400 270/18G24 RMK AO2 PK WND 27031/0619 CIG 005V011 T00110000
04850KAOH AOH20161205014513512/05/16 01:45:31  5-MIN KAOH 050645Z AUTO 27019G24KT 10SM OVC009 01/00 A2992 970 92 -400 280/19G24 RMK AO2 PK WND 27031/0619 T00110000
04850KAOH AOH20161205015013612/05/16 01:50:31  5-MIN KAOH 050650Z AUTO 27019KT 10SM OVC009 01/00 A2993 970 92 -400 270/19 RMK AO2 PK WND 27031/0619 SLP143 T00110000
04850KAOH AOH20161205015511112/05/16 01:55:31  5-MIN KAOH 050655Z AUTO 28017KT 10SM OVC009 01/00 A2994 960 96 -500 280/17 RMK AO2 T00060000
04850KAOH AOH20161205020011112/05/16 02:00:31  5-MIN KAOH 050700Z AUTO 27017KT 10SM OVC010 01/00 A2994 960 96 -500 280/17 RMK AO2 T00060000
04850KAOH AOH20161205020511712/05/16 02:05:31  5-MIN KAOH 050705Z AUTO 27019G25KT 10SM OVC010 01/00 A2994 960 96 -500 280/19G25 RMK AO2 T00060000
04850KAOH AOH20161205021011712/05/16 02:10:31  5-MIN KAOH 050710Z AUTO 28014G25KT 10SM OVC009 01/00 A2994 950 96 -500 290/14G25 RMK AO2 T00060000
04850KAOH AOH20161205021511112/05/16 02:15:31  5-MIN KAOH 050715Z AUTO 27017KT 10SM OVC009 01/00 A2995 950 92 -400 280/17 RMK AO2 T00110000
04850KAOH AOH20161205022011112/05/16 02:20:31  5-MIN KAOH 050720Z AUTO 28015KT 10SM OVC009 01/00 A2995 950 92 -400 280/15 RMK AO2 T00110000
04850KAOH AOH20161205022511112/05/16 02:25:31  5-MIN KAOH 050725Z AUTO 28014KT 10SM OVC009 01/00 A2995 950 92 -400 290/14 RMK AO2 T00110000
04850KAOH AOH20161205023011112/05/16 02:30:31  5-MIN KAOH 050730Z AUTO 28016KT 10SM OVC010 01/00 A2994 960 92 -400 290/16 RMK AO2 T00110000
04850KAOH AOH20161205023511712/05/16 02:35:31  5-MIN KAOH 050735Z AUTO 29016G23KT 10SM OVC010 01/00 A2994 960 92 -400 300/16G23 RMK AO2 T00110000
04850KAOH AOH20161205024011812/05/16 02:40:31  5-MIN KAOH 050740Z AUTO 29014G23KT 10SM OVC010 01/M01 A2994 960 89 -400 290/14G23 RMK AO2 T00111006
04850KAOH AOH20161205024511812/05/16 02:45:31  5-MIN KAOH 050745Z AUTO 29017G22KT 10SM OVC010 01/M01 A2995 950 92 -500 300/17G22 RMK AO2 T00061006
04850KAOH AOH20161205025012512/05/16 02:50:31  5-MIN KAOH 050750Z AUTO 29012G21KT 10SM OVC010 01/M01 A2995 950 92 -500 300/12G21 RMK AO2 SLP151 T00061006
04850KAOH AOH20161205025512512/05/16 02:55:31  5-MIN KAOH 050755Z AUTO 30016G21KT 10SM OVC010 01/M01 A2996 940 92 -500 300/16G21 RMK AO2 PRESRR T00061006
04850KAOH AOH20161205030011812/05/16 03:00:31  5-MIN KAOH 050800Z AUTO 29015G21KT 10SM OVC010 01/M01 A2997 940 92 -500 300/15G21 RMK AO2 T00061006
04850KAOH AOH20161205030511212/05/16 03:05:31  5-MIN KAOH 050805Z AUTO 29015KT 10SM OVC010 01/M01 A2997 930 92 -500 290/15 RMK AO2 T00061006
04850KAOH AOH20161205031011812/05/16 03:10:31  5-MIN KAOH 050810Z AUTO 28013KT 10SM BKN010 OVC017 01/00 A2997 930 96 -500 290/13 RMK AO2 T00060000
04850KAOH AOH20161205031511812/05/16 03:15:31  5-MIN KAOH 050815Z AUTO 28012KT 10SM BKN010 OVC017 01/00 A2997 940 92 -400 280/12 RMK AO2 T00110000
04850KAOH AOH20161205032011812/05/16 03:20:31  5-MIN KAOH 050820Z AUTO 27010KT 10SM SCT010 OVC017 01/00 A2997 930 96 -500 270/10 RMK AO2 T00060000
04850KAOH AOH20161205032511812/05/16 03:25:31  5-MIN KAOH 050825Z AUTO 27013KT 10SM SCT010 OVC016 01/00 A2997 930 92 -400 280/13 RMK AO2 T00110000
04850KAOH AOH20161205033011812/05/16 03:30:31  5-MIN KAOH 050830Z AUTO 27012KT 10SM FEW010 OVC016 01/00 A2997 930 92 -400 270/12 RMK AO2 T00110000
04850KAOH AOH20161205033511212/05/16 03:35:31  5-MIN KAOH 050835Z AUTO 27012KT 10SM OVC013 01/M01 A2998 930 89 -500 280/12 RMK AO2 T00111006
04850KAOH AOH20161205034011212/05/16 03:40:31  5-MIN KAOH 050840Z AUTO 27010KT 10SM OVC013 01/M01 A2998 920 89 -500 280/10 RMK AO2 T00111006
04850KAOH AOH20161205034511212/05/16 03:45:31  5-MIN KAOH 050845Z AUTO 27011KT 10SM OVC015 01/M01 A2998 920 89 -500 270/11 RMK AO2 T00111006
04850KAOH AOH20161205035012512/05/16 03:50:31  5-MIN KAOH 050850Z AUTO 26010KT 10SM OVC015 01/M01 A2998 920 89 -500 270/10 RMK AO2 SLP162 T00111006 51029
04850KAOH AOH20161205035511112/05/16 03:55:31  5-MIN KAOH 050855Z AUTO 26011KT 10SM OVC015 01/00 A2999 910 92 -500 270/11 RMK AO2 T00110000
04850KAOH AOH20161205040011112/05/16 04:00:31  5-MIN KAOH 050900Z AUTO 26010KT 10SM OVC015 01/00 A2999 910 92 -500 270/10 RMK AO2 T00110000
04850KAOH AOH20161205040511212/05/16 04:05:31  5-MIN KAOH 050905Z AUTO 26011KT 10SM OVC014 01/M01 A2999 910 89 -500 270/11 RMK AO2 T00111006
04850KAOH AOH20161205041011212/05/16 04:10:31  5-MIN KAOH 050910Z AUTO 26010KT 10SM OVC014 01/M01 A2999 910 89 -500 270/10 RMK AO2 T00111006
04850KAOH AOH20161205041511112/05/16 04:15:31  5-MIN KAOH 050915Z AUTO 27011KT 10SM OVC014 01/00 A3000 900 92 -500 280/11 RMK AO2 T00110000
04850KAOH AOH20161205042011212/05/16 04:20:31  5-MIN KAOH 050920Z AUTO 27012KT 10SM OVC014 01/M01 A3000 910 89 -500 280/12 RMK AO2 T00111006
04850KAOH AOH20161205042511212/05/16 04:25:31  5-MIN KAOH 050925Z AUTO 27011KT 10SM OVC014 01/M01 A3000 910 89 -500 280/11 RMK AO2 T00111006
04850KAOH AOH20161205043011812/05/16 04:30:31  5-MIN KAOH 050930Z AUTO 28015G20KT 10SM OVC014 01/M01 A3000 900 89 -500 280/15G20 RMK AO2 T00111006
04850KAOH AOH20161205043511812/05/16 04:35:31  5-MIN KAOH 050935Z AUTO 29012G22KT 10SM OVC014 01/M01 A3000 910 89 -500 290/12G22 RMK AO2 T00111006
04850KAOH AOH20161205044011812/05/16 04:40:31  5-MIN KAOH 050940Z AUTO 29012G22KT 10SM OVC014 01/M01 A3001 900 89 -500 290/12G22 RMK AO2 T00111006
04850KAOH AOH20161205044511212/05/16 04:45:31  5-MIN KAOH 050945Z AUTO 29014KT 10SM OVC014 01/M01 A3000 900 85 -500 290/14 RMK AO2 T00111011
04850KAOH AOH20161205045012512/05/16 04:50:31  5-MIN KAOH 050950Z AUTO 29012G22KT 10SM OVC014 01/M01 A3001 900 89 -500 290/12G22 RMK AO2 SLP170 T00111006
04850KAOH AOH20161205045511812/05/16 04:55:31  5-MIN KAOH 050955Z AUTO 28011G22KT 10SM OVC012 01/M01 A3001 890 92 -600 290/11G22 RMK AO2 T00061006
04850KAOH AOH20161205050011812/05/16 05:00:31  5-MIN KAOH 051000Z AUTO 29016G21KT 10SM OVC012 01/M01 A3001 890 92 -600 290/16G21 RMK AO2 T00061006
04850KAOH AOH20161205050511812/05/16 05:05:31  5-MIN KAOH 051005Z AUTO 29015G21KT 10SM OVC012 01/M01 A3001 890 92 -600 300/15G21 RMK AO2 T00061006
04850KAOH AOH20161205051011212/05/16 05:10:31  5-MIN KAOH 051010Z AUTO 28012KT 10SM OVC011 01/M01 A3001 890 92 -600 290/12 RMK AO2 T00061006
04850KAOH AOH20161205051511212/05/16 05:15:31  5-MIN KAOH 051015Z AUTO 28009KT 10SM OVC011 01/M01 A3001 900 92 -600 290/09 RMK AO2 T00061006
04850KAOH AOH20161205052011212/05/16 05:20:31  5-MIN KAOH 051020Z AUTO 28010KT 10SM OVC011 01/M01 A3001 890 92 -600 290/10 RMK AO2 T00061006
04850KAOH AOH20161205052511212/05/16 05:25:31  5-MIN KAOH 051025Z AUTO 25010KT 10SM OVC011 01/M01 A3001 900 92 -600 260/10 RMK AO2 T00061006
04850KAOH AOH20161205053011712/05/16 05:30:31  5-MIN KAOH 051030Z AUTO 26010KT 10SM OVC011 01/M01 A3001 890 92 -600 260/10 RMK AO2 T00061006 TSNO
04850KAOH AOH20161205053511612/05/16 05:35:31  5-MIN KAOH 051035Z AUTO 26009KT 10SM OVC010 01/00 A3002 890 96 -600 260/09 RMK AO2 T00060000 TSNO
04850KAOH AOH20161205054011612/05/16 05:40:31  5-MIN KAOH 051040Z AUTO 25011KT 10SM OVC010 01/00 A3002 880 96 -600 260/11 RMK AO2 T00060000 TSNO
04850KAOH AOH20161205054511712/05/16 05:45:31  5-MIN KAOH 051045Z AUTO 26009KT 10SM OVC010 01/M01 A3003 880 92 -600 260/09 RMK AO2 T00061006 TSNO
04850KAOH AOH20161205055012312/05/16 05:50:31  5-MIN KAOH 051050Z AUTO 25011KT 10SM OVC010 01/00 A3003 880 96 -600 260/11 RMK AO2 SLP177 T00060000 TSNO
04850KAOH AOH20161205055511712/05/16 05:55:31  5-MIN KAOH 051055Z AUTO 26009KT 10SM OVC010 01/M01 A3003 880 92 -600 260/09 RMK AO2 T00061006 TSNO
04850KAOH AOH20161205060011212/05/16 06:00:31  5-MIN KAOH 051100Z AUTO 25013KT 10SM OVC010 01/M01 A3003 870 92 -600 260/13 RMK AO2 T00061006
04850KAOH AOH20161205060511212/05/16 06:05:31  5-MIN KAOH 051105Z AUTO 26013KT 10SM OVC010 01/M01 A3003 880 92 -600 270/13 RMK AO2 T00061006
04850KAOH AOH20161205061012412/05/16 06:10:31  5-MIN KAOH 051110Z AUTO 28014KT 10SM OVC010 01/M01 A3003 880 92 -600 280/14 RMK AO2 CIG 009V013 T00061006
04850KAOH AOH20161205061512412/05/16 06:15:31  5-MIN KAOH 051115Z AUTO 27012KT 10SM OVC010 01/M01 A3003 880 92 -600 280/12 RMK AO2 CIG 009V014 T00061006
04850KAOH AOH20161205062011212/05/16 06:20:31  5-MIN KAOH 051120Z AUTO 28008KT 10SM OVC010 01/M01 A3003 880 92 -600 290/08 RMK AO2 T00061006
04850KAOH AOH20161205062511212/05/16 06:25:31  5-MIN KAOH 051125Z AUTO 28008KT 10SM OVC010 01/M01 A3003 880 92 -600 290/08 RMK AO2 T00061006
04850KAOH AOH20161205063011212/05/16 06:30:31  5-MIN KAOH 051130Z AUTO 28009KT 10SM OVC010 01/M01 A3003 880 92 -600 280/09 RMK AO2 T00061006
04850KAOH AOH20161205063511212/05/16 06:35:31  5-MIN KAOH 051135Z AUTO 28006KT 10SM OVC010 01/M01 A3003 880 92 -600 290/06 RMK AO2 T00061006
04850KAOH AOH20161205064011212/05/16 06:40:31  5-MIN KAOH 051140Z AUTO 28008KT 10SM OVC010 01/M01 A3004 870 92 -600 290/08 RMK AO2 T00061006
04850KAOH AOH20161205064511212/05/16 06:45:31  5-MIN KAOH 051145Z AUTO 27008KT 10SM OVC010 01/M01 A3004 870 92 -600 270/08 RMK AO2 T00061006
04850KAOH AOH20161205065014212/05/16 06:50:31  5-MIN KAOH 051150Z AUTO 26007KT 10SM OVC010 01/00 A3004 860 96 -600 270/07 RMK AO2 SLP183 70023 T00060000 10011 20006 51018
04850KAOH AOH20161205065511112/05/16 06:55:31  5-MIN KAOH 051155Z AUTO 26007KT 10SM OVC010 01/00 A3004 870 96 -600 270/07 RMK AO2 T00060000
04850KAOH AOH20161205070011112/05/16 07:00:31  5-MIN KAOH 051200Z AUTO 25005KT 10SM OVC009 01/00 A3004 870 96 -600 260/05 RMK AO2 T00060000
04850KAOH AOH20161205070511112/05/16 07:05:31  5-MIN KAOH 051205Z AUTO 25009KT 10SM OVC009 01/00 A3004 870 96 -600 260/09 RMK AO2 T00060000
04850KAOH AOH20161205071011212/05/16 07:10:31  5-MIN KAOH 051210Z AUTO 25008KT 10SM OVC009 01/M01 A3004 860 92 -600 250/08 RMK AO2 T00061006
04850KAOH AOH20161205071511212/05/16 07:15:31  5-MIN KAOH 051215Z AUTO 25010KT 10SM OVC009 01/M01 A3005 860 92 -600 260/10 RMK AO2 T00061006
04850KAOH AOH20161205072011212/05/16 07:20:31  5-MIN KAOH 051220Z AUTO 25008KT 10SM OVC009 01/M01 A3005 860 92 -600 260/08 RMK AO2 T00061006
04850KAOH AOH20161205072511212/05/16 07:25:31  5-MIN KAOH 051225Z AUTO 25009KT 10SM OVC009 01/M01 A3005 860 92 -600 260/09 RMK AO2 T00061006
04850KAOH AOH20161205073011212/05/16 07:30:31  5-MIN KAOH 051230Z AUTO 25009KT 10SM OVC009 01/M01 A3005 860 92 -600 260/09 RMK AO2 T00061006
04850KAOH AOH20161205073511212/05/16 07:35:31  5-MIN KAOH 051235Z AUTO 25008KT 10SM OVC009 01/M01 A3005 850 92 -600 260/08 RMK AO2 T00061006
04850KAOH AOH20161205074011212/05/16 07:40:31  5-MIN KAOH 051240Z AUTO 24009KT 10SM OVC009 01/M01 A3005 860 92 -600 250/09 RMK AO2 T00061006
04850KAOH AOH20161205074511212/05/16 07:45:31  5-MIN KAOH 051245Z AUTO 25007KT 10SM OVC009 01/M01 A3005 850 92 -600 250/07 RMK AO2 T00061006
04850KAOH AOH20161205075010212/05/16 07:50:31  5-MIN KAOH 051250Z AUTO 25008KT 10SM OVC010 01/M01 A3006 850 92 -600 260/08 RMK AO2
04850KAOH AOH20161205075511212/05/16 07:55:31  5-MIN KAOH 051255Z AUTO 25008KT 10SM OVC010 01/M01 A3006 850 92 -600 260/08 RMK AO2 T00061006
04850KAOH AOH20161205080011212/05/16 08:00:31  5-MIN KAOH 051300Z AUTO 25008KT 10SM OVC010 01/M01 A3006 850 92 -600 260/08 RMK AO2 T00061006
04850KAOH AOH20161205080511212/05/16 08:05:31  5-MIN KAOH 051305Z AUTO 25007KT 10SM OVC010 01/M01 A3006 850 92 -600 260/07 RMK AO2 T00061006
04850KAOH AOH20161205081011212/05/16 08:10:31  5-MIN KAOH 051310Z AUTO 25008KT 10SM OVC010 01/M01 A3006 850 92 -600 260/08 RMK AO2 T00061006
04850KAOH AOH20161205081511212/05/16 08:15:31  5-MIN KAOH 051315Z AUTO 25008KT 10SM OVC010 01/M01 A3006 850 92 -600 250/08 RMK AO2 T00061006
04850KAOH AOH20161205082011212/05/16 08:20:31  5-MIN KAOH 051320Z AUTO 25008KT 10SM OVC010 01/M01 A3006 850 92 -600 260/08 RMK AO2 T00061006
04850KAOH AOH20161205082511212/05/16 08:25:31  5-MIN KAOH 051325Z AUTO 25008KT 10SM OVC011 01/M01 A3007 840 92 -600 260/08 RMK AO2 T00061006
04850KAOH AOH20161205083011212/05/16 08:30:31  5-MIN KAOH 051330Z AUTO 25006KT 10SM OVC011 01/M01 A3007 840 92 -600 250/06 RMK AO2 T00061006
04850KAOH AOH20161205083511212/05/16 08:35:31  5-MIN KAOH 051335Z AUTO 23005KT 10SM OVC011 01/M01 A3007 840 92 -600 240/05 RMK AO2 T00061006
04850KAOH AOH20161205084011212/05/16 08:40:31  5-MIN KAOH 051340Z AUTO 23005KT 10SM OVC011 01/M01 A3007 840 92 -600 240/05 RMK AO2 T00061006
04850KAOH AOH20161205084511212/05/16 08:45:31  5-MIN KAOH 051345Z AUTO 24006KT 10SM OVC011 01/M01 A3008 830 92 -600 250/06 RMK AO2 T00061006
04850KAOH AOH20161205085011912/05/16 08:50:31  5-MIN KAOH 051350Z AUTO 24006KT 10SM OVC011 01/M01 A3008 830 92 -600 240/06 RMK AO2 SLP194 T00061006
04850KAOH AOH20161205085511212/05/16 08:55:31  5-MIN KAOH 051355Z AUTO 24007KT 10SM OVC011 01/M01 A3007 840 92 -600 240/07 RMK AO2 T00061006
04850KAOH AOH20161205090011212/05/16 09:00:31  5-MIN KAOH 051400Z AUTO 24005KT 10SM OVC011 01/M01 A3008 830 92 -600 240/05 RMK AO2 T00061006
04850KAOH AOH20161205090511212/05/16 09:05:31  5-MIN KAOH 051405Z AUTO 24007KT 10SM OVC013 01/M01 A3008 830 92 -600 240/07 RMK AO2 T00061006
04850KAOH AOH20161205091011212/05/16 09:10:31  5-MIN KAOH 051410Z AUTO 24006KT 10SM OVC013 01/M01 A3008 830 92 -600 250/06 RMK AO2 T00061006
04850KAOH AOH20161205091511212/05/16 09:15:31  5-MIN KAOH 051415Z AUTO 23005KT 10SM OVC013 01/M01 A3008 830 89 -600 240/05 RMK AO2 T00061011
04850KAOH AOH20161205092011212/05/16 09:20:31  5-MIN KAOH 051420Z AUTO 24006KT 10SM OVC013 01/M01 A3008 830 92 -600 240/06 RMK AO2 T00061006
04850KAOH AOH20161205092511212/05/16 09:25:31  5-MIN KAOH 051425Z AUTO 24006KT 10SM OVC013 01/M01 A3008 830 89 -600 250/06 RMK AO2 T00061011
04850KAOH AOH20161205093011212/05/16 09:30:31  5-MIN KAOH 051430Z AUTO 23005KT 10SM OVC013 01/M01 A3008 830 92 -600 240/05 RMK AO2 T00061006
04850KAOH AOH20161205093511212/05/16 09:35:31  5-MIN KAOH 051435Z AUTO 21005KT 10SM OVC013 01/M01 A3008 830 92 -600 220/05 RMK AO2 T00061006
04850KAOH AOH20161205094011212/05/16 09:40:31  5-MIN KAOH 051440Z AUTO 22005KT 10SM OVC013 01/M01 A3009 820 92 -600 220/05 RMK AO2 T00061006
04850KAOH AOH20161205094511212/05/16 09:45:31  5-MIN KAOH 051445Z AUTO 23007KT 10SM OVC013 01/M01 A3009 820 92 -600 230/07 RMK AO2 T00061006
04850KAOH AOH20161205095012512/05/16 09:50:31  5-MIN KAOH 051450Z AUTO 21006KT 10SM OVC012 01/M01 A3008 830 92 -600 220/06 RMK AO2 SLP196 T00061006 51018
04850KAOH AOH20161205095511212/05/16 09:55:31  5-MIN KAOH 051455Z AUTO 21006KT 10SM OVC012 01/M01 A3009 830 92 -600 210/06 RMK AO2 T00061006
04850KAOH AOH20161205100011212/05/16 10:00:31  5-MIN KAOH 051500Z AUTO 22005KT 10SM OVC012 01/M01 A3009 820 89 -700 220/05 RMK AO2 T00061011
04850KAOH AOH20161205100511212/05/16 10:05:31  5-MIN KAOH 051505Z AUTO 21007KT 10SM OVC012 01/M01 A3010 820 89 -600 220/07 RMK AO2 T00111006
04850KAOH AOH20161205101011212/05/16 10:10:31  5-MIN KAOH 051510Z AUTO 22007KT 10SM OVC012 01/M01 A3009 820 89 -700 220/07 RMK AO2 T00061011
04850KAOH AOH20161205101511212/05/16 10:15:31  5-MIN KAOH 051515Z AUTO 22006KT 10SM OVC012 01/M01 A3010 810 85 -600 220/06 RMK AO2 T00111011
04850KAOH AOH20161205102011212/05/16 10:20:31  5-MIN KAOH 051520Z AUTO 23007KT 10SM OVC014 01/M01 A3010 810 85 -600 240/07 RMK AO2 T00111011
04850KAOH AOH20161205102511212/05/16 10:25:31  5-MIN KAOH 051525Z AUTO 23007KT 10SM OVC014 01/M01 A3010 810 85 -600 240/07 RMK AO2 T00111011
04850KAOH AOH20161205103011212/05/16 10:30:31  5-MIN KAOH 051530Z AUTO 24006KT 10SM OVC014 01/M01 A3010 820 85 -600 250/06 RMK AO2 T00111011
04850KAOH AOH20161205103511212/05/16 10:35:31  5-MIN KAOH 051535Z AUTO 25006KT 10SM OVC014 01/M01 A3010 820 89 -600 250/06 RMK AO2 T00111006
04850KAOH AOH20161205104011212/05/16 10:40:31  5-MIN KAOH 051540Z AUTO 24005KT 10SM OVC016 01/M01 A3010 820 89 -600 240/05 RMK AO2 T00111006
04850KAOH AOH20161205104511212/05/16 10:45:31  5-MIN KAOH 051545Z AUTO 22006KT 10SM OVC016 01/M01 A3010 820 89 -600 220/06 RMK AO2 T00111006
04850KAOH AOH20161205105011912/05/16 10:50:31  5-MIN KAOH 051550Z AUTO 22007KT 10SM OVC016 01/M01 A3010 810 89 -600 230/07 RMK AO2 SLP201 T00111006
04850KAOH AOH20161205105511212/05/16 10:55:31  5-MIN KAOH 051555Z AUTO 23006KT 10SM OVC016 01/M01 A3010 820 89 -600 240/06 RMK AO2 T00111006
04850KAOH AOH20161205110011212/05/16 11:00:31  5-MIN KAOH 051600Z AUTO 24005KT 10SM OVC016 01/M01 A3010 810 85 -600 240/05 RMK AO2 T00111011
04850KAOH AOH20161205110511212/05/16 11:05:31  5-MIN KAOH 051605Z AUTO 25007KT 10SM OVC014 01/M01 A3010 810 89 -600 250/07 RMK AO2 T00111006
04850KAOH AOH20161205111011212/05/16 11:10:31  5-MIN KAOH 051610Z AUTO 24007KT 10SM OVC014 01/M01 A3011 810 89 -600 250/07 RMK AO2 T00111006
04850KAOH AOH20161205111511212/05/16 11:15:31  5-MIN KAOH 051615Z AUTO 23005KT 10SM OVC014 01/M01 A3011 810 89 -600 230/05 RMK AO2 T00111006
04850KAOH AOH20161205112011212/05/16 11:20:31  5-MIN KAOH 051620Z AUTO 24005KT 10SM OVC012 01/M01 A3011 810 89 -600 250/05 RMK AO2 T00111006
04850KAOH AOH20161205112511212/05/16 11:25:31  5-MIN KAOH 051625Z AUTO 23006KT 10SM OVC012 01/M01 A3010 810 89 -600 240/06 RMK AO2 T00111006
04850KAOH AOH20161205113011212/05/16 11:30:31  5-MIN KAOH 051630Z AUTO 21005KT 10SM OVC012 01/M01 A3009 820 89 -600 220/05 RMK AO2 T00111006
04850KAOH AOH20161205113511212/05/16 11:35:31  5-MIN KAOH 051635Z AUTO 21005KT 10SM OVC012 01/M01 A3009 820 89 -600 220/05 RMK AO2 T00111006
04850KAOH AOH20161205114011212/05/16 11:40:31  5-MIN KAOH 051640Z AUTO 22005KT 10SM OVC014 01/M01 A3009 820 89 -600 230/05 RMK AO2 T00111006
04850KAOH AOH20161205114511212/05/16 11:45:31  5-MIN KAOH 051645Z AUTO VRB04KT 10SM OVC014 01/M01 A3009 820 89 -600 VRB/04 RMK AO2 T00111006
04850KAOH AOH20161205115011912/05/16 11:50:31  5-MIN KAOH 051650Z AUTO 20005KT 10SM OVC014 01/M01 A3009 820 89 -600 210/05 RMK AO2 SLP198 T00111006
04850KAOH AOH20161205115511212/05/16 11:55:31  5-MIN KAOH 051655Z AUTO 20005KT 10SM OVC014 01/M01 A3009 820 89 -600 210/05 RMK AO2 T00111006
04850KAOH AOH20161205120011212/05/16 12:00:31  5-MIN KAOH 051700Z AUTO 22008KT 10SM OVC014 01/M01 A3010 820 89 -600 230/08 RMK AO2 T00111006
04850KAOH AOH20161205120511212/05/16 12:05:31  5-MIN KAOH 051705Z AUTO 23008KT 10SM OVC012 01/M01 A3010 820 89 -600 230/08 RMK AO2 T00111006
04850KAOH AOH20161205121011212/05/16 12:10:31  5-MIN KAOH 051710Z AUTO 24007KT 10SM OVC014 02/M01 A3010 820 85 -500 240/07 RMK AO2 T00171006
04850KAOH AOH20161205121511212/05/16 12:15:31  5-MIN KAOH 051715Z AUTO 22007KT 10SM OVC014 02/M01 A3010 810 85 -500 230/07 RMK AO2 T00171006
04850KAOH AOH20161205122011212/05/16 12:20:31  5-MIN KAOH 051720Z AUTO 23007KT 10SM OVC014 02/M01 A3010 820 82 -500 240/07 RMK AO2 T00171011
04850KAOH AOH20161205122511212/05/16 12:25:31  5-MIN KAOH 051725Z AUTO 22006KT 10SM OVC014 02/M01 A3010 810 85 -500 220/06 RMK AO2 T00171006
04850KAOH AOH20161205123011212/05/16 12:30:31  5-MIN KAOH 051730Z AUTO 21006KT 10SM OVC016 02/M01 A3010 810 85 -500 220/06 RMK AO2 T00171006
04850KAOH AOH20161205123511212/05/16 12:35:31  5-MIN KAOH 051735Z AUTO 23007KT 10SM OVC016 02/M01 A3010 810 82 -500 240/07 RMK AO2 T00171011
04850KAOH AOH20161205124011212/05/16 12:40:31  5-MIN KAOH 051740Z AUTO 21006KT 10SM OVC015 02/M01 A3010 810 82 -500 210/06 RMK AO2 T00171011
04850KAOH AOH20161205124511212/05/16 12:45:31  5-MIN KAOH 051745Z AUTO 21007KT 10SM OVC015 02/M01 A3010 810 82 -500 210/07 RMK AO2 T00171011
04850KAOH AOH20161205125013712/05/16 12:50:31  5-MIN KAOH 051750Z AUTO 22007KT 10SM OVC015 02/M01 A3010 810 82 -500 230/07 RMK AO2 SLP201 T00171011 10017 20006 51014
04850KAOH AOH20161205125511212/05/16 12:55:31  5-MIN KAOH 051755Z AUTO 22007KT 10SM OVC015 02/M01 A3010 810 82 -500 230/07 RMK AO2 T00171011
04850KAOH AOH20161205130011212/05/16 13:00:31  5-MIN KAOH 051800Z AUTO 23006KT 10SM OVC015 02/M01 A3009 820 85 -500 230/06 RMK AO2 T00171006
04850KAOH AOH20161205130511212/05/16 13:05:31  5-MIN KAOH 051805Z AUTO 23005KT 10SM OVC015 02/M01 A3010 820 85 -500 230/05 RMK AO2 T00171006
04850KAOH AOH20161205131011212/05/16 13:10:31  5-MIN KAOH 051810Z AUTO 23007KT 10SM OVC015 02/M01 A3009 820 85 -500 230/07 RMK AO2 T00171006
04850KAOH AOH20161205131511212/05/16 13:15:31  5-MIN KAOH 051815Z AUTO 23008KT 10SM OVC015 02/M01 A3009 820 85 -500 240/08 RMK AO2 T00171006
04850KAOH AOH20161205132011212/05/16 13:20:31  5-MIN KAOH 051820Z AUTO 22008KT 10SM OVC015 02/M01 A3008 830 85 -500 220/08 RMK AO2 T00171006
04850KAOH AOH20161205132511212/05/16 13:25:31  5-MIN KAOH 051825Z AUTO 22007KT 10SM OVC015 02/M01 A3008 830 85 -500 220/07 RMK AO2 T00171006
04850KAOH AOH20161205133011212/05/16 13:30:31  5-MIN KAOH 051830Z AUTO 20005KT 10SM OVC015 02/M01 A3008 830 82 -400 210/05 RMK AO2 T00221006
04850KAOH AOH20161205133511212/05/16 13:35:31  5-MIN KAOH 051835Z AUTO 21006KT 10SM OVC015 02/M01 A3008 830 85 -500 220/06 RMK AO2 T00171006
04850KAOH AOH20161205134011212/05/16 13:40:31  5-MIN KAOH 051840Z AUTO 22007KT 10SM OVC015 02/M01 A3008 830 82 -400 220/07 RMK AO2 T00221006
04850KAOH AOH20161205134511212/05/16 13:45:31  5-MIN KAOH 051845Z AUTO 21007KT 10SM OVC015 02/M01 A3008 830 82 -400 220/07 RMK AO2 T00221006
04850KAOH AOH20161205135011912/05/16 13:50:31  5-MIN KAOH 051850Z AUTO 20005KT 10SM OVC015 02/M01 A3008 830 82 -400 210/05 RMK AO2 SLP194 T00221006
04850KAOH AOH20161205135511212/05/16 13:55:31  5-MIN KAOH 051855Z AUTO 21009KT 10SM OVC015 02/M01 A3008 830 82 -400 210/09 RMK AO2 T00221006
04850KAOH AOH20161205140011212/05/16 14:00:31  5-MIN KAOH 051900Z AUTO 20006KT 10SM OVC015 02/M01 A3008 830 82 -500 210/06 RMK AO2 T00171011
04850KAOH AOH20161205140511212/05/16 14:05:31  5-MIN KAOH 051905Z AUTO 19006KT 10SM OVC015 02/M01 A3008 830 82 -400 190/06 RMK AO2 T00221006
04850KAOH AOH20161205141011212/05/16 14:10:31  5-MIN KAOH 051910Z AUTO 22005KT 10SM OVC016 02/M01 A3008 830 82 -400 230/05 RMK AO2 T00221006
04850KAOH AOH20161205141511212/05/16 14:15:31  5-MIN KAOH 051915Z AUTO 19005KT 10SM OVC016 02/M01 A3007 840 82 -400 200/05 RMK AO2 T00221006
04850KAOH AOH20161205142011212/05/16 14:20:31  5-MIN KAOH 051920Z AUTO 19006KT 10SM OVC016 02/M01 A3007 840 82 -400 200/06 RMK AO2 T00221006
04850KAOH AOH20161205142511212/05/16 14:25:31  5-MIN KAOH 051925Z AUTO 19006KT 10SM OVC016 02/M01 A3008 830 82 -400 200/06 RMK AO2 T00221006
04850KAOH AOH20161205143011212/05/16 14:30:31  5-MIN KAOH 051930Z AUTO 18006KT 10SM OVC016 02/M01 A3008 830 82 -400 190/06 RMK AO2 T00221006
04850KAOH AOH20161205143511212/05/16 14:35:31  5-MIN KAOH 051935Z AUTO 20004KT 10SM OVC016 02/M01 A3009 830 82 -400 210/04 RMK AO2 T00221006
04850KAOH AOH20161205144011212/05/16 14:40:31  5-MIN KAOH 051940Z AUTO 23009KT 10SM OVC016 02/M01 A3009 820 82 -400 230/09 RMK AO2 T00221006
04850KAOH AOH20161205144511212/05/16 14:45:31  5-MIN KAOH 051945Z AUTO 20004KT 10SM OVC016 02/M01 A3009 820 82 -400 210/04 RMK AO2 T00221006
04850KAOH AOH20161205145011912/05/16 14:50:31  5-MIN KAOH 051950Z AUTO VRB04KT 10SM OVC016 02/M01 A3009 820 82 -400 VRB/04 RMK AO2 SLP197 T00221006
04850KAOH AOH20161205145511212/05/16 14:55:31  5-MIN KAOH 051955Z AUTO 18003KT 10SM OVC016 02/M01 A3009 830 82 -400 190/03 RMK AO2 T00221006
04850KAOH AOH20161205150011212/05/16 15:00:31  5-MIN KAOH 052000Z AUTO 00000KT 10SM OVC016 02/M01 A3009 830 78 -400 000/00 RMK AO2 T00221011
04850KAOH AOH20161205150511212/05/16 15:05:31  5-MIN KAOH 052005Z AUTO 00000KT 10SM OVC016 03/M01 A3008 830 79 -400 000/00 RMK AO2 T00281006
04850KAOH AOH20161205151011212/05/16 15:10:31  5-MIN KAOH 052010Z AUTO 17005KT 10SM OVC016 02/M01 A3008 830 82 -400 180/05 RMK AO2 T00221006
04850KAOH AOH20161205151511212/05/16 15:15:31  5-MIN KAOH 052015Z AUTO 00000KT 10SM OVC017 02/M01 A3008 830 78 -400 000/00 RMK AO2 T00221011
04850KAOH AOH20161205152011212/05/16 15:20:31  5-MIN KAOH 052020Z AUTO 00000KT 10SM OVC017 03/M01 A3007 840 79 -400 000/00 RMK AO2 T00281006
04850KAOH AOH20161205152511212/05/16 15:25:31  5-MIN KAOH 052025Z AUTO VRB03KT 10SM OVC016 02/M01 A3007 840 82 -400 VRB/03 RMK AO2 T00221006
04850KAOH AOH20161205153011212/05/16 15:30:31  5-MIN KAOH 052030Z AUTO 16005KT 10SM OVC016 03/M01 A3006 840 79 -300 160/05 RMK AO2 T00281006
04850KAOH AOH20161205153511212/05/16 15:35:31  5-MIN KAOH 052035Z AUTO 14005KT 10SM OVC016 03/M01 A3006 850 79 -300 140/05 RMK AO2 T00281006
04850KAOH AOH20161205154011212/05/16 15:40:31  5-MIN KAOH 052040Z AUTO 14005KT 10SM OVC016 02/M01 A3006 850 82 -400 140/05 RMK AO2 T00221006
04850KAOH AOH20161205154511212/05/16 15:45:31  5-MIN KAOH 052045Z AUTO 16005KT 10SM OVC016 02/M01 A3006 850 82 -400 160/05 RMK AO2 T00221006
04850KAOH AOH20161205155012512/05/16 15:50:31  5-MIN KAOH 052050Z AUTO 18003KT 10SM OVC016 02/M01 A3006 850 82 -400 190/03 RMK AO2 SLP187 T00221006 53005
04850KAOH AOH20161205155511212/05/16 15:55:31  5-MIN KAOH 052055Z AUTO 00000KT 10SM BKN015 02/M01 A3006 850 82 -400 000/00 RMK AO2 T00221006
04850KAOH AOH20161205160011212/05/16 16:00:31  5-MIN KAOH 052100Z AUTO 00000KT 10SM BKN015 02/M01 A3006 850 82 -400 000/00 RMK AO2 T00221006
04850KAOH AOH20161205160511212/05/16 16:05:31  5-MIN KAOH 052105Z AUTO 00000KT 10SM BKN015 02/M01 A3006 850 82 -400 000/00 RMK AO2 T00221006
04850KAOH AOH20161205161011212/05/16 16:10:31  5-MIN KAOH 052110Z AUTO 00000KT 10SM BKN015 02/M01 A3006 850 82 -400 000/00 RMK AO2 T00221006
04850KAOH AOH20161205161511212/05/16 16:15:31  5-MIN KAOH 052115Z AUTO 00000KT 10SM SCT015 03/M01 A3006 850 79 -300 000/00 RMK AO2 T00281006
04850KAOH AOH20161205162011212/05/16 16:20:31  5-MIN KAOH 052120Z AUTO 00000KT 10SM FEW015 03/M01 A3006 850 79 -300 000/00 RMK AO2 T00281006
04850KAOH AOH20161205162511212/05/16 16:25:31  5-MIN KAOH 052125Z AUTO 00000KT 10SM FEW015 02/M01 A3006 850 78 -400 000/00 RMK AO2 T00221011
04850KAOH AOH20161205163011212/05/16 16:30:31  5-MIN KAOH 052130Z AUTO 00000KT 10SM FEW015 02/M01 A3006 850 78 -400 000/00 RMK AO2 T00221011
04850KAOH AOH20161205163511212/05/16 16:35:31  5-MIN KAOH 052135Z AUTO 00000KT 10SM FEW015 02/M01 A3006 850 78 -400 000/00 RMK AO2 T00221011
04850KAOH AOH20161205164010912/05/16 16:40:31  5-MIN KAOH 052140Z AUTO 00000KT 10SM CLR 02/M01 A3006 850 82 -400 000/00 RMK AO2 T00221006
04850KAOH AOH20161205164510912/05/16 16:45:31  5-MIN KAOH 052145Z AUTO 10004KT 10SM CLR 02/M01 A3006 850 85 -500 100/04 RMK AO2 T00171006
04850KAOH AOH20161205165011612/05/16 16:50:31  5-MIN KAOH 052150Z AUTO 10003KT 10SM CLR 02/M01 A3005 850 82 -500 110/03 RMK AO2 SLP186 T00171011
04850KAOH AOH20161205165510912/05/16 16:55:31  5-MIN KAOH 052155Z AUTO 11003KT 10SM CLR 02/M01 A3005 860 82 -500 120/03 RMK AO2 T00171011
04850KAOH AOH20161205170010912/05/16 17:00:31  5-MIN KAOH 052200Z AUTO 13004KT 10SM CLR 01/M01 A3005 860 85 -500 140/04 RMK AO2 T00111011
04850KAOH AOH20161205170510912/05/16 17:05:31  5-MIN KAOH 052205Z AUTO 14004KT 10SM CLR 01/M01 A3005 860 89 -600 150/04 RMK AO2 T00061011
04850KAOH AOH20161205171010912/05/16 17:10:31  5-MIN KAOH 052210Z AUTO 14005KT 10SM CLR 01/M01 A3005 860 89 -600 150/05 RMK AO2 T00061011
04850KAOH AOH20161205171510912/05/16 17:15:31  5-MIN KAOH 052215Z AUTO 13004KT 10SM CLR 01/M01 A3005 860 89 -600 140/04 RMK AO2 T00061011
04850KAOH AOH20161205172010912/05/16 17:20:31  5-MIN KAOH 052220Z AUTO 12005KT 10SM CLR 01/M01 A3005 860 89 -600 130/05 RMK AO2 T00061011
04850KAOH AOH20161205172510912/05/16 17:25:31  5-MIN KAOH 052225Z AUTO 11004KT 10SM CLR 01/M01 A3004 860 89 -600 120/04 RMK AO2 T00061011
04850KAOH AOH20161205173010912/05/16 17:30:31  5-MIN KAOH 052230Z AUTO 11004KT 10SM CLR 01/M01 A3004 870 89 -600 120/04 RMK AO2 T00061011
04850KAOH AOH20161205173510912/05/16 17:35:31  5-MIN KAOH 052235Z AUTO 12005KT 10SM CLR 00/M01 A3004 860 92 -700 120/05 RMK AO2 T00001011
04850KAOH AOH20161205174010912/05/16 17:40:31  5-MIN KAOH 052240Z AUTO 12006KT 10SM CLR 00/M01 A3004 860 92 -700 130/06 RMK AO2 T00001011
04850KAOH AOH20161205174510912/05/16 17:45:31  5-MIN KAOH 052245Z AUTO 12005KT 10SM CLR 00/M01 A3004 860 92 -700 120/05 RMK AO2 T00001011
04850KAOH AOH20161205175011612/05/16 17:50:31  5-MIN KAOH 052250Z AUTO 10004KT 10SM CLR 00/M01 A3004 870 92 -700 110/04 RMK AO2 SLP182 T00001011
04850KAOH AOH20161205175511012/05/16 17:55:31  5-MIN KAOH 052255Z AUTO 10004KT 10SM CLR M01/M01 A3005 860 96 -700 100/04 RMK AO2 T10061011
04850KAOH AOH20161205180011012/05/16 18:00:31  5-MIN KAOH 052300Z AUTO 09004KT 10SM CLR M01/M01 A3005 860 96 -700 100/04 RMK AO2 T10061011
04850KAOH AOH20161205180511012/05/16 18:05:31  5-MIN KAOH 052305Z AUTO 09005KT 10SM CLR M01/M01 A3005 860 96 -700 100/05 RMK AO2 T10061011
04850KAOH AOH20161205181011012/05/16 18:10:31  5-MIN KAOH 052310Z AUTO 11003KT 10SM CLR M01/M01 A3005 860 96 -700 110/03 RMK AO2 T10061011
04850KAOH AOH20161205181511012/05/16 18:15:31  5-MIN KAOH 052315Z AUTO 10005KT 10SM CLR M01/M01 A3004 860 96 -700 100/05 RMK AO2 T10061011
04850KAOH AOH20161205182011012/05/16 18:20:31  5-MIN KAOH 052320Z AUTO 09005KT 10SM CLR M01/M02 A3004 870 96 -800 090/05 RMK AO2 T10111017
04850KAOH AOH20161205182510912/05/16 18:25:31  5-MIN KAOH 052325Z AUTO 07005KT 9SM CLR M01/M02 A3004 870 96 -800 080/05 RMK AO2 T10111017
04850KAOH AOH20161205183011012/05/16 18:30:31  5-MIN KAOH 052330Z AUTO 06005KT 10SM CLR M01/M02 A3004 870 92 -700 070/05 RMK AO2 T10061017
04850KAOH AOH20161205183511012/05/16 18:35:31  5-MIN KAOH 052335Z AUTO 06005KT 10SM CLR M01/M02 A3004 870 92 -700 070/05 RMK AO2 T10061017
04850KAOH AOH20161205184011012/05/16 18:40:31  5-MIN KAOH 052340Z AUTO 09005KT 10SM CLR M01/M02 A3004 870 92 -700 100/05 RMK AO2 T10061017
04850KAOH AOH20161205184511012/05/16 18:45:31  5-MIN KAOH 052345Z AUTO 11004KT 10SM CLR M01/M02 A3004 870 92 -700 120/04 RMK AO2 T10061017
04850KAOH AOH20161205185013512/05/16 18:50:31  5-MIN KAOH 052350Z AUTO 11004KT 10SM CLR M01/M02 A3004 860 96 -800 110/04 RMK AO2 SLP183 T10111017 10028 21011 58014
04850KAOH AOH20161205185511012/05/16 18:55:31  5-MIN KAOH 052355Z AUTO 11005KT 10SM CLR M01/M02 A3004 860 92 -700 120/05 RMK AO2 T10061017
04850KAOH AOH20161205190011012/05/16 19:00:31  5-MIN KAOH 060000Z AUTO 12005KT 10SM CLR M01/M02 A3004 860 92 -700 120/05 RMK AO2 T10061017
04850KAOH AOH20161205190511012/05/16 19:05:31  5-MIN KAOH 060005Z AUTO 10004KT 10SM CLR M01/M02 A3004 860 96 -800 100/04 RMK AO2 T10111017
04850KAOH AOH20161205191011012/05/16 19:10:31  5-MIN KAOH 060010Z AUTO 08005KT 10SM CLR M01/M02 A3004 860 92 -800 080/05 RMK AO2 T10111022
04850KAOH AOH20161205191511012/05/16 19:15:31  5-MIN KAOH 060015Z AUTO 07005KT 10SM CLR M01/M02 A3004 870 92 -700 070/05 RMK AO2 T10061017
04850KAOH AOH20161205192011012/05/16 19:20:31  5-MIN KAOH 060020Z AUTO 07005KT 10SM CLR M01/M02 A3004 870 92 -700 080/05 RMK AO2 T10061017
04850KAOH AOH20161205192511012/05/16 19:25:31  5-MIN KAOH 060025Z AUTO 08005KT 10SM CLR M01/M02 A3004 870 96 -800 090/05 RMK AO2 T10111017
04850KAOH AOH20161205193010912/05/16 19:30:31  5-MIN KAOH 060030Z AUTO 09006KT 9SM CLR M01/M02 A3004 870 92 -800 100/06 RMK AO2 T10111022
04850KAOH AOH20161205193510912/05/16 19:35:31  5-MIN KAOH 060035Z AUTO 10004KT 9SM CLR M01/M02 A3004 870 96 -800 110/04 RMK AO2 T10111017
04850KAOH AOH20161205194011012/05/16 19:40:31  5-MIN KAOH 060040Z AUTO 10006KT 10SM CLR M01/M02 A3004 870 92 -800 100/06 RMK AO2 T10111022
04850KAOH AOH20161205194511012/05/16 19:45:31  5-MIN KAOH 060045Z AUTO 09005KT 10SM CLR M01/M02 A3004 870 92 -800 090/05 RMK AO2 T10111022
04850KAOH AOH20161205195011712/05/16 19:50:31  5-MIN KAOH 060050Z AUTO 09005KT 10SM CLR M01/M02 A3004 870 92 -800 100/05 RMK AO2 SLP182 T10111022
04850KAOH AOH20161205195511012/05/16 19:55:31  5-MIN KAOH 060055Z AUTO 09005KT 10SM CLR M01/M02 A3004 870 92 -800 090/05 RMK AO2 T10111022
04850KAOH AOH20161205200011012/05/16 20:00:31  5-MIN KAOH 060100Z AUTO 08005KT 10SM CLR M01/M02 A3004 870 92 -800 090/05 RMK AO2 T10111022
04850KAOH AOH20161205200511012/05/16 20:05:31  5-MIN KAOH 060105Z AUTO 08005KT 10SM CLR M01/M02 A3004 870 92 -800 080/05 RMK AO2 T10111022
04850KAOH AOH20161205201011012/05/16 20:10:31  5-MIN KAOH 060110Z AUTO 08005KT 10SM CLR M01/M02 A3004 870 92 -800 090/05 RMK AO2 T10111022
04850KAOH AOH20161205201511012/05/16 20:15:31  5-MIN KAOH 060115Z AUTO 09005KT 10SM CLR M02/M02 A3003 870 96 -900 090/05 RMK AO2 T10171022
04850KAOH AOH20161205202011012/05/16 20:20:31  5-MIN KAOH 060120Z AUTO 09005KT 10SM CLR M02/M02 A3003 880 96 -900 090/05 RMK AO2 T10171022
04850KAOH AOH20161205202511012/05/16 20:25:31  5-MIN KAOH 060125Z AUTO 10005KT 10SM CLR M02/M02 A3003 880 96 -900 100/05 RMK AO2 T10171022
04850KAOH AOH20161205203011012/05/16 20:30:31  5-MIN KAOH 060130Z AUTO 09005KT 10SM CLR M02/M02 A3002 880 96 -900 100/05 RMK AO2 T10171022
04850KAOH AOH20161205203511012/05/16 20:35:31  5-MIN KAOH 060135Z AUTO 09006KT 10SM CLR M02/M02 A3002 890 96 -900 100/06 RMK AO2 T10171022
04850KAOH AOH20161205204011012/05/16 20:40:31  5-MIN KAOH 060140Z AUTO 09006KT 10SM CLR M01/M02 A3002 890 92 -800 090/06 RMK AO2 T10111022
04850KAOH AOH20161205204511012/05/16 20:45:31  5-MIN KAOH 060145Z AUTO 10006KT 10SM CLR M01/M02 A3002 890 92 -800 100/06 RMK AO2 T10111022
04850KAOH AOH20161205205011712/05/16 20:50:31  5-MIN KAOH 060150Z AUTO 10006KT 10SM CLR M01/M02 A3002 890 92 -800 110/06 RMK AO2 SLP174 T10111022
04850KAOH AOH20161205205511012/05/16 20:55:31  5-MIN KAOH 060155Z AUTO 10006KT 10SM CLR M01/M02 A3001 890 92 -800 100/06 RMK AO2 T10111022
04850KAOH AOH20161205210011012/05/16 21:00:31  5-MIN KAOH 060200Z AUTO 10006KT 10SM CLR M01/M02 A3002 890 92 -800 110/06 RMK AO2 T10111022
04850KAOH AOH20161205210511012/05/16 21:05:31  5-MIN KAOH 060205Z AUTO 10008KT 10SM CLR M01/M02 A3001 890 92 -800 110/08 RMK AO2 T10111022
04850KAOH AOH20161205211011012/05/16 21:10:31  5-MIN KAOH 060210Z AUTO 10008KT 10SM CLR M01/M02 A3001 890 92 -800 110/08 RMK AO2 T10111022
04850KAOH AOH20161205211511012/05/16 21:15:31  5-MIN KAOH 060215Z AUTO 10008KT 10SM CLR M01/M02 A3001 900 96 -800 110/08 RMK AO2 T10111017
04850KAOH AOH20161205212011012/05/16 21:20:31  5-MIN KAOH 060220Z AUTO 11007KT 10SM CLR M01/M02 A3001 890 92 -800 120/07 RMK AO2 T10111022
04850KAOH AOH20161205212511012/05/16 21:25:31  5-MIN KAOH 060225Z AUTO 12008KT 10SM CLR M01/M02 A3001 900 92 -700 120/08 RMK AO2 T10061017
04850KAOH AOH20161205213011012/05/16 21:30:31  5-MIN KAOH 060230Z AUTO 12008KT 10SM CLR M01/M02 A3001 900 92 -700 120/08 RMK AO2 T10061017
04850KAOH AOH20161205213511012/05/16 21:35:31  5-MIN KAOH 060235Z AUTO 12008KT 10SM CLR M01/M02 A3001 900 92 -700 120/08 RMK AO2 T10061017
04850KAOH AOH20161205214011012/05/16 21:40:31  5-MIN KAOH 060240Z AUTO 12008KT 10SM CLR M01/M02 A3001 900 92 -700 120/08 RMK AO2 T10061017
04850KAOH AOH20161205214511012/05/16 21:45:31  5-MIN KAOH 060245Z AUTO 11006KT 10SM CLR M01/M02 A3001 900 92 -700 110/06 RMK AO2 T10061017
04850KAOH AOH20161205215012312/05/16 21:50:31  5-MIN KAOH 060250Z AUTO 10007KT 10SM CLR M01/M02 A3000 900 92 -800 100/07 RMK AO2 SLP170 T10111022 56005
04850KAOH AOH20161205215511012/05/16 21:55:31  5-MIN KAOH 060255Z AUTO 10007KT 10SM CLR M01/M02 A3000 900 92 -800 100/07 RMK AO2 T10111022
04850KAOH AOH20161205220011012/05/16 22:00:31  5-MIN KAOH 060300Z AUTO 11006KT 10SM CLR M01/M02 A3000 900 92 -800 110/06 RMK AO2 T10111022
04850KAOH AOH20161205220511012/05/16 22:05:31  5-MIN KAOH 060305Z AUTO 10006KT 10SM CLR M01/M02 A3000 910 92 -800 110/06 RMK AO2 T10111022
04850KAOH AOH20161205221011012/05/16 22:10:31  5-MIN KAOH 060310Z AUTO 11008KT 10SM CLR M01/M02 A3000 910 88 -700 120/08 RMK AO2 T10061022
04850KAOH AOH20161205221511012/05/16 22:15:31  5-MIN KAOH 060315Z AUTO 12007KT 10SM CLR M01/M02 A3000 910 92 -700 130/07 RMK AO2 T10061017
04850KAOH AOH20161205222011012/05/16 22:20:31  5-MIN KAOH 060320Z AUTO 12009KT 10SM CLR M01/M02 A3000 910 88 -700 130/09 RMK AO2 T10061022
04850KAOH AOH20161205222511012/05/16 22:25:31  5-MIN KAOH 060325Z AUTO 13009KT 10SM CLR M01/M02 A2999 910 92 -700 130/09 RMK AO2 T10111022
04850KAOH AOH20161205223011012/05/16 22:30:31  5-MIN KAOH 060330Z AUTO 12009KT 10SM CLR M01/M02 A2999 910 92 -700 130/09 RMK AO2 T10111022
04850KAOH AOH20161205223511012/05/16 22:35:31  5-MIN KAOH 060335Z AUTO 13008KT 10SM CLR M01/M02 A2999 910 92 -700 130/08 RMK AO2 T10111022
04850KAOH AOH20161205224011012/05/16 22:40:31  5-MIN KAOH 060340Z AUTO 12008KT 10SM CLR M01/M02 A2999 910 92 -700 130/08 RMK AO2 T10111022
04850KAOH AOH20161205224511012/05/16 22:45:31  5-MIN KAOH 060345Z AUTO 12008KT 10SM CLR M01/M02 A2999 920 92 -700 130/08 RMK AO2 T10111022
04850KAOH AOH20161205225011712/05/16 22:50:31  5-MIN KAOH 060350Z AUTO 12008KT 10SM CLR M01/M02 A2999 910 92 -700 130/08 RMK AO2 SLP165 T10111022
04850KAOH AOH20161205225511012/05/16 22:55:31  5-MIN KAOH 060355Z AUTO 13009KT 10SM CLR M01/M02 A3000 910 92 -800 130/09 RMK AO2 T10111022
04850KAOH AOH20161205230011012/05/16 23:00:31  5-MIN KAOH 060400Z AUTO 13009KT 10SM CLR M01/M02 A2999 910 92 -800 130/09 RMK AO2 T10111022
04850KAOH AOH20161205230511012/05/16 23:05:31  5-MIN KAOH 060405Z AUTO 12009KT 10SM CLR M01/M02 A2999 910 92 -700 130/09 RMK AO2 T10111022
04850KAOH AOH20161205231011012/05/16 23:10:31  5-MIN KAOH 060410Z AUTO 12008KT 10SM CLR M01/M02 A2999 920 92 -700 120/08 RMK AO2 T10111022
04850KAOH AOH20161205231511012/05/16 23:15:31  5-MIN KAOH 060415Z AUTO 11008KT 10SM CLR M01/M02 A2999 920 92 -700 120/08 RMK AO2 T10111022
04850KAOH AOH20161205232011512/05/16 23:20:31  5-MIN KAOH 060420Z AUTO 11007KT 10SM CLR M01/M02 A2998 920 92 -700 120/07 RMK AO2 T10111022 TSNO
04850KAOH AOH20161205232511012/05/16 23:25:31  5-MIN KAOH 060425Z AUTO 11008KT 10SM CLR M01/M02 A2998 920 88 -700 120/08 RMK AO2 T10061022
04850KAOH AOH20161205233011012/05/16 23:30:31  5-MIN KAOH 060430Z AUTO 10006KT 10SM CLR M01/M02 A2998 920 88 -700 110/06 RMK AO2 T10061022
04850KAOH AOH20161205233511012/05/16 23:35:31  5-MIN KAOH 060435Z AUTO 10006KT 10SM CLR M01/M02 A2998 920 92 -700 110/06 RMK AO2 T10111022
04850KAOH AOH20161205234011012/05/16 23:40:31  5-MIN KAOH 060440Z AUTO 11007KT 10SM CLR M01/M02 A2998 930 92 -700 110/07 RMK AO2 T10111022
04850KAOH AOH20161205234511012/05/16 23:45:31  5-MIN KAOH 060445Z AUTO 11008KT 10SM CLR M01/M02 A2998 920 92 -700 120/08 RMK AO2 T10111022
04850KAOH AOH20161205235012712/05/16 23:50:31  5-MIN KAOH 060450Z AUTO 12010KT 10SM CLR M01/M02 A2997 930 88 -700 120/10 RMK AO2 SLP160 T10061022 400281017
04850KAOH AOH20161205235511012/05/16 23:55:31  5-MIN KAOH 060455Z AUTO 11008KT 10SM CLR M01/M02 A2997 930 88 -700 120/08 RMK AO2 T10061022
04850KAOH AOH20161206000011012/06/16 00:00:31  5-MIN KAOH 060500Z AUTO 09009KT 10SM CLR M01/M02 A2997 940 92 -700 100/09 RMK AO2 T10111022
04850KAOH AOH20161206000511012/06/16 00:05:31  5-MIN KAOH 060505Z AUTO 09008KT 10SM CLR M01/M03 A2996 940 88 -700 090/08 RMK AO2 T10111028
04850KAOH AOH20161206001010912/06/16 00:10:31  5-MIN KAOH 060510Z AUTO 09007KT 9SM CLR M02/M03 A2996 940 92 -800 100/07 RMK AO2 T10171028
04850KAOH AOH20161206001510912/06/16 00:15:31  5-MIN KAOH 060515Z AUTO 10007KT 9SM CLR M01/M03 A2996 940 88 -700 110/07 RMK AO2 T10111028
04850KAOH AOH20161206002011012/06/16 00:20:31  5-MIN KAOH 060520Z AUTO 11007KT 10SM CLR M01/M02 A2996 940 92 -700 110/07 RMK AO2 T10111022
04850KAOH AOH20161206002511012/06/16 00:25:31  5-MIN KAOH 060525Z AUTO 11009KT 10SM CLR M01/M02 A2996 940 92 -700 110/09 RMK AO2 T10111022
04850KAOH AOH20161206003011012/06/16 00:30:31  5-MIN KAOH 060530Z AUTO 11009KT 10SM CLR M01/M02 A2996 940 92 -700 110/09 RMK AO2 T10111022
04850KAOH AOH20161206003511012/06/16 00:35:31  5-MIN KAOH 060535Z AUTO 11010KT 10SM CLR M01/M02 A2995 950 92 -700 120/10 RMK AO2 T10111022
04850KAOH AOH20161206004011012/06/16 00:40:31  5-MIN KAOH 060540Z AUTO 11009KT 10SM CLR M01/M02 A2995 950 92 -700 110/09 RMK AO2 T10111022
04850KAOH AOH20161206004511012/06/16 00:45:31  5-MIN KAOH 060545Z AUTO 11008KT 10SM CLR M01/M03 A2994 950 88 -700 120/08 RMK AO2 T10111028
04850KAOH AOH20161206005013512/06/16 00:50:31  5-MIN KAOH 060550Z AUTO 12010KT 10SM CLR M01/M03 A2994 960 88 -700 120/10 RMK AO2 SLP148 T10111028 11006 21017 58014
04850KAOH AOH20161206005511012/06/16 00:55:31  5-MIN KAOH 060555Z AUTO 11009KT 10SM CLR M01/M03 A2994 960 88 -700 120/09 RMK AO2 T10111028
04850KAOH AOH20161206010011712/06/16 01:00:31  5-MIN KAOH 060600Z AUTO 10008KT 10SM CLR M01/M02 A2993 970 92 -700 110/08 RMK AO2 PRESFR T10111022
04850KAOH AOH20161206010511012/06/16 01:05:31  5-MIN KAOH 060605Z AUTO 11009KT 10SM CLR M01/M02 A2993 970 92 -700 120/09 RMK AO2 T10111022
04850KAOH AOH20161206011011012/06/16 01:10:31  5-MIN KAOH 060610Z AUTO 11009KT 10SM CLR M01/M02 A2992 980 92 -700 110/09 RMK AO2 T10111022
04850KAOH AOH20161206011510912/06/16 01:15:31  5-MIN KAOH 060615Z AUTO 11009KT 9SM CLR M01/M02 A2992 980 92 -700 110/09 RMK AO2 T10111022
04850KAOH AOH20161206012010912/06/16 01:20:31  5-MIN KAOH 060620Z AUTO 11008KT 8SM CLR M01/M03 A2992 980 88 -700 120/08 RMK AO2 T10111028
04850KAOH AOH20161206012511212/06/16 01:25:31  5-MIN KAOH 060625Z AUTO 11008KT 6SM BR CLR M02/M03 A2992 980 92 -700 110/08 RMK AO2 T10171028
04850KAOH AOH20161206013011212/06/16 01:30:31  5-MIN KAOH 060630Z AUTO 11008KT 6SM BR CLR M02/M03 A2992 980 92 -700 120/08 RMK AO2 T10171028
04850KAOH AOH20161206013510912/06/16 01:35:31  5-MIN KAOH 060635Z AUTO 11007KT 7SM CLR M02/M03 A2992 980 92 -700 120/07 RMK AO2 T10171028
04850KAOH AOH20161206014010912/06/16 01:40:31  5-MIN KAOH 060640Z AUTO 11007KT 9SM CLR M02/M03 A2992 980 92 -700 110/07 RMK AO2 T10171028
04850KAOH AOH20161206014510912/06/16 01:45:31  5-MIN KAOH 060645Z AUTO 10007KT 9SM CLR M02/M03 A2992 980 92 -700 110/07 RMK AO2 T10171028
04850KAOH AOH20161206015011612/06/16 01:50:31  5-MIN KAOH 060650Z AUTO 09008KT 9SM CLR M01/M03 A2992 980 88 -700 100/08 RMK AO2 SLP140 T10111028
04850KAOH AOH20161206015510912/06/16 01:55:31  5-MIN KAOH 060655Z AUTO 09009KT 9SM CLR M01/M03 A2992 980 88 -700 100/09 RMK AO2 T10111028
04850KAOH AOH20161206020010912/06/16 02:00:31  5-MIN KAOH 060700Z AUTO 09008KT 9SM CLR M01/M03 A2992 980 88 -700 090/08 RMK AO2 T10111028
04850KAOH AOH20161206020510912/06/16 02:05:31  5-MIN KAOH 060705Z AUTO 08010KT 9SM CLR M01/M03 A2991 990 88 -700 090/10 RMK AO2 T10111028
04850KAOH AOH20161206021010912/06/16 02:10:31  5-MIN KAOH 060710Z AUTO 08008KT 9SM CLR M01/M03 A2991 980 88 -700 090/08 RMK AO2 T10111028
04850KAOH AOH20161206021510912/06/16 02:15:31  5-MIN KAOH 060715Z AUTO 09007KT 9SM CLR M01/M03 A2991 980 88 -700 100/07 RMK AO2 T10111028
04850KAOH AOH20161206022010912/06/16 02:20:31  5-MIN KAOH 060720Z AUTO 10008KT 9SM CLR M02/M03 A2992 980 92 -700 100/08 RMK AO2 T10171028
04850KAOH AOH20161206022510912/06/16 02:25:31  5-MIN KAOH 060725Z AUTO 10007KT 9SM CLR M02/M03 A2991 990 92 -700 100/07 RMK AO2 T10171028
04850KAOH AOH20161206023010912/06/16 02:30:31  5-MIN KAOH 060730Z AUTO 09007KT 9SM CLR M02/M03 A2991 990 92 -700 100/07 RMK AO2 T10171028
04850KAOH AOH20161206023510912/06/16 02:35:31  5-MIN KAOH 060735Z AUTO 08009KT 9SM CLR M02/M03 A2990 990 92 -700 090/09 RMK AO2 T10171028
04850KAOH AOH20161206024011012/06/16 02:40:31  5-MIN KAOH 060740Z AUTO 09009KT 9SM CLR M01/M03 A2990 1000 88 -600 090/09 RMK AO2 T10111028
04850KAOH AOH20161206024511112/06/16 02:45:31  5-MIN KAOH 060745Z AUTO 09009KT 10SM CLR M01/M03 A2990 1000 88 -600 090/09 RMK AO2 T10111028
04850KAOH AOH20161206025011712/06/16 02:50:31  5-MIN KAOH 060750Z AUTO 08008KT 9SM CLR M01/M03 A2989 1000 88 -600 090/08 RMK AO2 SLP132 T10111028
04850KAOH AOH20161206025511012/06/16 02:55:31  5-MIN KAOH 060755Z AUTO 07007KT 9SM CLR M01/M03 A2989 1000 88 -600 080/07 RMK AO2 T10111028
04850KAOH AOH20161206030011012/06/16 03:00:31  5-MIN KAOH 060800Z AUTO 08007KT 9SM CLR M01/M03 A2990 1000 88 -600 090/07 RMK AO2 T10111028
04850KAOH AOH20161206030511012/06/16 03:05:31  5-MIN KAOH 060805Z AUTO 08009KT 9SM CLR M01/M03 A2989 1010 88 -600 090/09 RMK AO2 T10111028
04850KAOH AOH20161206031011012/06/16 03:10:31  5-MIN KAOH 060810Z AUTO 08009KT 9SM CLR M01/M02 A2989 1000 92 -600 090/09 RMK AO2 T10111022
04850KAOH AOH20161206031511012/06/16 03:15:31  5-MIN KAOH 060815Z AUTO 07008KT 9SM CLR M01/M02 A2989 1010 92 -600 070/08 RMK AO2 T10111022
04850KAOH AOH20161206032011112/06/16 03:20:31  5-MIN KAOH 060820Z AUTO 07010KT 10SM CLR M01/M02 A2988 1010 92 -600 070/10 RMK AO2 T10111022
04850KAOH AOH20161206032511112/06/16 03:25:31  5-MIN KAOH 060825Z AUTO 07008KT 10SM CLR M01/M02 A2989 1000 92 -600 080/08 RMK AO2 T10111022
04850KAOH AOH20161206033011112/06/16 03:30:31  5-MIN KAOH 060830Z AUTO 08009KT 10SM CLR M01/M02 A2989 1010 88 -600 080/09 RMK AO2 T10061022
04850KAOH AOH20161206033511112/06/16 03:35:31  5-MIN KAOH 060835Z AUTO 07011KT 10SM CLR M01/M02 A2988 1010 88 -600 080/11 RMK AO2 T10061022
04850KAOH AOH20161206034011112/06/16 03:40:31  5-MIN KAOH 060840Z AUTO 07009KT 10SM CLR M01/M02 A2987 1020 88 -500 080/09 RMK AO2 T10061022
04850KAOH AOH20161206034511112/06/16 03:45:31  5-MIN KAOH 060845Z AUTO 07011KT 10SM CLR M01/M02 A2988 1020 88 -500 080/11 RMK AO2 T10061022
04850KAOH AOH20161206035012412/06/16 03:50:31  5-MIN KAOH 060850Z AUTO 08012KT 10SM CLR M01/M02 A2987 1020 88 -500 080/12 RMK AO2 SLP125 T10061022 58021
04850KAOH AOH20161206035511112/06/16 03:55:31  5-MIN KAOH 060855Z AUTO 07010KT 10SM CLR M01/M02 A2988 1020 88 -500 070/10 RMK AO2 T10061022
04850KAOH AOH20161206040011112/06/16 04:00:31  5-MIN KAOH 060900Z AUTO 06009KT 10SM CLR M01/M02 A2988 1020 88 -500 070/09 RMK AO2 T10061022
04850KAOH AOH20161206040511112/06/16 04:05:31  5-MIN KAOH 060905Z AUTO 07009KT 10SM CLR M01/M02 A2988 1020 88 -500 080/09 RMK AO2 T10061022
04850KAOH AOH20161206041011012/06/16 04:10:31  5-MIN KAOH 060910Z AUTO 07009KT 9SM CLR M01/M02 A2987 1020 92 -600 080/09 RMK AO2 T10111022
04850KAOH AOH20161206041511012/06/16 04:15:31  5-MIN KAOH 060915Z AUTO 07009KT 9SM CLR M01/M02 A2986 1030 92 -600 080/09 RMK AO2 T10111022
04850KAOH AOH20161206042011012/06/16 04:20:31  5-MIN KAOH 060920Z AUTO 07008KT 9SM CLR M01/M02 A2987 1030 92 -600 080/08 RMK AO2 T10111022
04850KAOH AOH20161206042511012/06/16 04:25:31  5-MIN KAOH 060925Z AUTO 06007KT 9SM CLR M01/M02 A2986 1030 92 -600 070/07 RMK AO2 T10111022
04850KAOH AOH20161206043011012/06/16 04:30:31  5-MIN KAOH 060930Z AUTO 06007KT 9SM CLR M01/M02 A2986 1030 92 -600 070/07 RMK AO2 T10111022
04850KAOH AOH20161206043511012/06/16 04:35:31  5-MIN KAOH 060935Z AUTO 06008KT 9SM CLR M01/M02 A2986 1040 92 -600 070/08 RMK AO2 T10111022
04850KAOH AOH20161206044011712/06/16 04:40:31  5-MIN KAOH 060940Z AUTO 07010KT 9SM CLR M01/M02 A2984 1050 92 -600 070/10 RMK AO2 PRESFR T10111022
04850KAOH AOH20161206044511712/06/16 04:45:31  5-MIN KAOH 060945Z AUTO 08011KT 9SM CLR M01/M02 A2983 1060 92 -600 080/11 RMK AO2 PRESFR T10111022
04850KAOH AOH20161206045012412/06/16 04:50:31  5-MIN KAOH 060950Z AUTO 08012KT 9SM CLR M01/M02 A2983 1060 92 -500 080/12 RMK AO2 PRESFR SLP109 T10061017
04850KAOH AOH20161206045511012/06/16 04:55:31  5-MIN KAOH 060955Z AUTO 08010KT 9SM CLR M01/M02 A2983 1060 92 -500 090/10 RMK AO2 T10061017
04850KAOH AOH20161206050011012/06/16 05:00:31  5-MIN KAOH 061000Z AUTO 09006KT 9SM CLR M01/M02 A2984 1050 92 -500 090/06 RMK AO2 T10061017
04850KAOH AOH20161206050511312/06/16 05:05:31  5-MIN KAOH 061005Z AUTO 07008KT 9SM FEW110 M01/M02 A2984 1050 92 -500 080/08 RMK AO2 T10061017
04850KAOH AOH20161206051011312/06/16 05:10:31  5-MIN KAOH 061010Z AUTO 07009KT 9SM FEW110 M01/M02 A2983 1060 92 -500 070/09 RMK AO2 T10061017
04850KAOH AOH20161206051511412/06/16 05:15:31  5-MIN KAOH 061015Z AUTO 07009KT 10SM FEW110 M01/M02 A2982 1070 92 -500 070/09 RMK AO2 T10061017
04850KAOH AOH20161206052011412/06/16 05:20:31  5-MIN KAOH 061020Z AUTO 07008KT 10SM FEW110 M01/M02 A2982 1070 92 -500 070/08 RMK AO2 T10061017
04850KAOH AOH20161206052511312/06/16 05:25:31  5-MIN KAOH 061025Z AUTO 06008KT 10SM FEW110 00/M02 A2982 1070 88 -400 070/08 RMK AO2 T00001017
04850KAOH AOH20161206053011312/06/16 05:30:31  5-MIN KAOH 061030Z AUTO 06008KT 10SM FEW110 00/M02 A2982 1070 88 -400 070/08 RMK AO2 T00001017
04850KAOH AOH20161206053511312/06/16 05:35:31  5-MIN KAOH 061035Z AUTO 07008KT 10SM FEW110 00/M02 A2982 1070 88 -400 070/08 RMK AO2 T00001017
04850KAOH AOH20161206054011312/06/16 05:40:31  5-MIN KAOH 061040Z AUTO 07010KT 10SM SCT110 00/M02 A2981 1080 88 -400 070/10 RMK AO2 T00001017
04850KAOH AOH20161206054511312/06/16 05:45:31  5-MIN KAOH 061045Z AUTO 07010KT 10SM FEW110 00/M02 A2981 1080 88 -400 080/10 RMK AO2 T00001017
04850KAOH AOH20161206055012012/06/16 05:50:31  5-MIN KAOH 061050Z AUTO 08011KT 10SM FEW110 00/M01 A2980 1090 92 -400 090/11 RMK AO2 SLP101 T00001011
04850KAOH AOH20161206055511312/06/16 05:55:31  5-MIN KAOH 061055Z AUTO 08012KT 10SM FEW110 00/M01 A2979 1090 92 -400 090/12 RMK AO2 T00001011
04850KAOH AOH20161206060011312/06/16 06:00:31  5-MIN KAOH 061100Z AUTO 09013KT 10SM FEW110 00/M02 A2979 1100 88 -400 090/13 RMK AO2 T00001017
04850KAOH AOH20161206060511312/06/16 06:05:31  5-MIN KAOH 061105Z AUTO 09012KT 10SM FEW110 00/M01 A2979 1100 92 -400 100/12 RMK AO2 T00001011
04850KAOH AOH20161206061011012/06/16 06:10:31  5-MIN KAOH 061110Z AUTO 09010KT 10SM CLR 00/M01 A2979 1090 92 -400 100/10 RMK AO2 T00001011
04850KAOH AOH20161206061511012/06/16 06:15:31  5-MIN KAOH 061115Z AUTO 08009KT 10SM CLR 00/M01 A2979 1100 92 -400 090/09 RMK AO2 T00001011
04850KAOH AOH20161206062011012/06/16 06:20:31  5-MIN KAOH 061120Z AUTO 07009KT 10SM CLR 00/M01 A2979 1100 92 -400 070/09 RMK AO2 T00001011
04850KAOH AOH20161206062511012/06/16 06:25:31  5-MIN KAOH 061125Z AUTO 07009KT 10SM CLR 00/M01 A2978 1100 92 -400 070/09 RMK AO2 T00001011
04850KAOH AOH20161206063011012/06/16 06:30:31  5-MIN KAOH 061130Z AUTO 07011KT 10SM CLR 00/M01 A2978 1110 92 -400 070/11 RMK AO2 T00001011
04850KAOH AOH20161206063511012/06/16 06:35:31  5-MIN KAOH 061135Z AUTO 08011KT 10SM CLR 00/M01 A2978 1110 92 -400 080/11 RMK AO2 T00001011
04850KAOH AOH20161206064011012/06/16 06:40:31  5-MIN KAOH 061140Z AUTO 07013KT 10SM CLR 00/M01 A2977 1120 92 -400 080/13 RMK AO2 T00001011
04850KAOH AOH20161206064511012/06/16 06:45:31  5-MIN KAOH 061145Z AUTO 08012KT 10SM CLR 00/M01 A2977 1120 92 -300 090/12 RMK AO2 T00001011
04850KAOH AOH20161206065013512/06/16 06:50:31  5-MIN KAOH 061150Z AUTO 08012KT 10SM CLR 00/M01 A2976 1130 92 -300 090/12 RMK AO2 SLP088 T00001011 10000 21017 56021
04850KAOH AOH20161206065511712/06/16 06:55:31  5-MIN KAOH 061155Z AUTO 08013KT 10SM CLR 01/M01 A2975 1130 89 -300 080/13 RMK AO2 PRESFR T00061011
04850KAOH AOH20161206070012012/06/16 07:00:31  5-MIN KAOH 061200Z AUTO 08013KT 10SM FEW120 01/M01 A2975 1140 89 -300 080/13 RMK AO2 PRESFR T00061011
04850KAOH AOH20161206070511312/06/16 07:05:31  5-MIN KAOH 061205Z AUTO 08013KT 10SM SCT120 01/M01 A2975 1140 89 -300 090/13 RMK AO2 T00061011
04850KAOH AOH20161206071011312/06/16 07:10:31  5-MIN KAOH 061210Z AUTO 08014KT 10SM SCT120 01/M01 A2974 1140 89 -300 090/14 RMK AO2 T00061011
04850KAOH AOH20161206071511312/06/16 07:15:31  5-MIN KAOH 061215Z AUTO 08013KT 10SM BKN120 01/M01 A2974 1140 89 -300 090/13 RMK AO2 T00061011
04850KAOH AOH20161206072011312/06/16 07:20:31  5-MIN KAOH 061220Z AUTO 08012KT 10SM BKN120 01/M01 A2975 1130 89 -300 090/12 RMK AO2 T00061011
04850KAOH AOH20161206072511312/06/16 07:25:31  5-MIN KAOH 061225Z AUTO 09012KT 10SM OVC110 01/M01 A2976 1130 89 -300 090/12 RMK AO2 T00061011
04850KAOH AOH20161206073011312/06/16 07:30:31  5-MIN KAOH 061230Z AUTO 09011KT 10SM OVC110 01/M01 A2976 1130 89 -300 100/11 RMK AO2 T00061011
04850KAOH AOH20161206073512012/06/16 07:35:31  5-MIN KAOH 061235Z AUTO 09010KT 10SM FEW090 OVC110 01/M01 A2976 1130 89 -300 090/10 RMK AO2 T00061011
04850KAOH AOH20161206074012012/06/16 07:40:31  5-MIN KAOH 061240Z AUTO 09009KT 10SM SCT100 OVC110 01/M01 A2976 1130 89 -300 090/09 RMK AO2 T00061011
04850KAOH AOH20161206074512712/06/16 07:45:31  5-MIN KAOH 061245Z AUTO 09008KT 10SM FEW036 BKN100 OVC110 01/M01 A2976 1130 92 -300 100/08 RMK AO2 T00061006
04850KAOH AOH20161206075012712/06/16 07:50:31  5-MIN KAOH 061250Z AUTO 10007KT 10SM FEW036 OVC100 01/M01 A2976 1130 89 -300 100/07 RMK AO2 SLP086 T00061011
04850KAOH AOH20161206075512712/06/16 07:55:31  5-MIN KAOH 061255Z AUTO 09008KT 10SM SCT036 BKN100 OVC110 01/M01 A2976 1130 92 -300 100/08 RMK AO2 T00061006
04850KAOH AOH20161206080012012/06/16 08:00:31  5-MIN KAOH 061300Z AUTO 10010KT 10SM BKN036 OVC100 01/M01 A2975 1130 89 -300 110/10 RMK AO2 T00061011
04850KAOH AOH20161206080512012/06/16 08:05:31  5-MIN KAOH 061305Z AUTO 11009KT 10SM BKN036 OVC100 01/M01 A2975 1140 89 -300 110/09 RMK AO2 T00061011
04850KAOH AOH20161206081012012/06/16 08:10:31  5-MIN KAOH 061310Z AUTO 10010KT 10SM BKN036 OVC100 01/M01 A2974 1140 89 -300 100/10 RMK AO2 T00061011
04850KAOH AOH20161206081512712/06/16 08:15:31  5-MIN KAOH 061315Z AUTO 09009KT 10SM FEW025 BKN036 OVC100 01/M01 A2974 1140 92 -200 100/09 RMK AO2 T00061006
04850KAOH AOH20161206082012612/06/16 08:20:31  5-MIN KAOH 061320Z AUTO 09009KT 9SM SCT025 BKN036 OVC075 01/M01 A2973 1150 92 -200 100/09 RMK AO2 T00061006
04850KAOH AOH20161206082514212/06/16 08:25:31  5-MIN KAOH 061325Z AUTO 09009KT 9SM -RA SCT026 BKN036 OVC075 01/M01 A2973 1150 92 -200 100/09 RMK AO2 RAB23 P0000 T00061006
04850KAOH AOH20161206083014212/06/16 08:30:31  5-MIN KAOH 061330Z AUTO 10009KT 8SM -RA BKN026 BKN036 OVC075 01/M01 A2973 1160 92 -200 100/09 RMK AO2 RAB23 P0000 T00061006
04850KAOH AOH20161206083514212/06/16 08:35:31  5-MIN KAOH 061335Z AUTO 10009KT 7SM -RA BKN025 BKN034 OVC075 01/M01 A2972 1160 92 -200 100/09 RMK AO2 RAB23 P0000 T00061006
04850KAOH AOH20161206084013812/06/16 08:40:31  5-MIN KAOH 061340Z AUTO 10008KT 6SM -RA BR BKN025 OVC075 01/M01 A2973 1160 92 -200 100/08 RMK AO2 RAB23 P0000 T00061006
04850KAOH AOH20161206084513812/06/16 08:45:31  5-MIN KAOH 061345Z AUTO 09007KT 5SM -RA BR BKN023 OVC070 01/M01 A2972 1160 92 -200 100/07 RMK AO2 RAB23 P0000 T00061006
04850KAOH AOH20161206085013812/06/16 08:50:31  5-MIN KAOH 061350Z AUTO 09009KT 5SM -RA BR OVC023 01/M01 A2972 1160 92 -200 090/09 RMK AO2 RAB23 SLP073 P0001 T00061006
04850KAOH AOH20161206085512512/06/16 08:55:31  5-MIN KAOH 061355Z AUTO 09007KT 5SM -RA BR OVC023 01/M01 A2972 1160 92 -200 100/07 RMK AO2 P0000 T00061006
04850KAOH AOH20161206090012512/06/16 09:00:31  5-MIN KAOH 061400Z AUTO 09009KT 5SM -RA BR OVC021 01/M01 A2972 1160 92 -200 090/09 RMK AO2 P0000 T00061006
04850KAOH AOH20161206090512512/06/16 09:05:31  5-MIN KAOH 061405Z AUTO 09008KT 5SM -RA BR OVC021 01/M01 A2972 1160 92 -200 100/08 RMK AO2 P0001 T00061006
04850KAOH AOH20161206091012412/06/16 09:10:31  5-MIN KAOH 061410Z AUTO 09007KT 5SM -RA BR OVC021 01/00 A2972 1160 96 -200 100/07 RMK AO2 P0001 T00060000
04850KAOH AOH20161206091512412/06/16 09:15:31  5-MIN KAOH 061415Z AUTO 09007KT 4SM -RA BR OVC021 01/00 A2972 1160 96 -200 090/07 RMK AO2 P0002 T00060000
04850KAOH AOH20161206092012412/06/16 09:20:31  5-MIN KAOH 061420Z AUTO 09006KT 4SM -RA BR OVC020 01/00 A2972 1160 96 -200 090/06 RMK AO2 P0002 T00060000
04850KAOH AOH20161206092512312/06/16 09:25:31  5-MIN KAOH 061425Z AUTO 08007KT 3SM RA BR OVC020 01/00 A2971 1170 96 -200 080/07 RMK AO2 P0003 T00060000
04850KAOH AOH20161206194012612/06/16 19:40:31  5-MIN KAOH 070040Z AUTO 27016KT 6SM BR OVC010 03/02 A2983 1070 96 -100 280/16 RMK AO2 CIG 008V012 T00280022
04850KAOH AOH20161206194513212/06/16 19:45:31  5-MIN KAOH 070045Z AUTO 27016G22KT 6SM BR OVC010 03/02 A2983 1070 96 -100 280/16G22 RMK AO2 CIG 008V012 T00280022
04850KAOH AOH20161206195011012/06/16 19:50:31  5-MIN KAOH 070050Z AUTO 27016G24KT 6SM BR OVC009 03/02 A2983 1060 96 -100 280/16G24 RMK AO2
04850KAOH AOH20161206195512012/06/16 19:55:31  5-MIN KAOH 070055Z AUTO 27016G24KT 6SM BR OVC009 03/02 A2983 1060 96 -100 280/16G24 RMK AO2 T00280022
04850KAOH AOH20161206200012012/06/16 20:00:31  5-MIN KAOH 070100Z AUTO 27018G24KT 5SM BR OVC009 03/02 A2983 1060 96 -100 280/18G24 RMK AO2 T00280022
04850KAOH AOH20161206200512012/06/16 20:05:31  5-MIN KAOH 070105Z AUTO 27015G24KT 5SM BR OVC009 03/02 A2983 1060 96 -100 280/15G24 RMK AO2 T00280022
04850KAOH AOH20161206201012012/06/16 20:10:31  5-MIN KAOH 070110Z AUTO 26017G22KT 5SM BR OVC008 03/02 A2984 1050 96 -100 270/17G22 RMK AO2 T00280022
04850KAOH AOH20161206201512012/06/16 20:15:31  5-MIN KAOH 070115Z AUTO 27016G22KT 5SM BR OVC008 03/02 A2984 1050 96 -100 270/16G22 RMK AO2 T00280022
04850KAOH AOH20161206202012612/06/16 20:20:31  5-MIN KAOH 070120Z AUTO 27014KT 5SM BR OVC008 03/02 A2984 1050 96 -100 270/14 RMK AO2 CIG 007V011 T00280022
04850KAOH AOH20161206202512612/06/16 20:25:31  5-MIN KAOH 070125Z AUTO 27010KT 5SM BR OVC008 03/02 A2984 1050 96 -100 270/10 RMK AO2 CIG 007V012 T00280022
04850KAOH AOH20161206203013312/06/16 20:30:31  5-MIN KAOH 070130Z AUTO 26010KT 5SM BR BKN008 OVC020 03/02 A2984 1050 96 -100 270/10 RMK AO2 CIG 007V012 T00280022
04850KAOH AOH20161206203514012/06/16 20:35:31  5-MIN KAOH 070135Z AUTO 26012KT 5SM BR BKN008 BKN012 BKN020 03/02 A2984 1050 96 -100 260/12 RMK AO2 CIG 007V011 T00280022
04850KAOH AOH20161206204012812/06/16 20:40:31  5-MIN KAOH 070140Z AUTO 26012KT 5SM BR SCT008 BKN012 BKN020 02/02 A2984 1050 96 -200 260/12 RMK AO2 T00220017
04850KAOH AOH20161206204512112/06/16 20:45:31  5-MIN KAOH 070145Z AUTO 26012KT 5SM BR BKN012 BKN020 03/02 A2985 1050 96 -100 270/12 RMK AO2 T00280022
04850KAOH AOH20161206205012812/06/16 20:50:31  5-MIN KAOH 070150Z AUTO 27014KT 5SM BR BKN011 BKN020 03/02 A2985 1050 96 -100 270/14 RMK AO2 SLP115 T00280022
04850KAOH AOH20161206205511412/06/16 20:55:31  5-MIN KAOH 070155Z AUTO 26015KT 5SM BR BKN011 03/02 A2985 1040 96 -100 270/15 RMK AO2 T00280022
04850KAOH AOH20161206210012612/06/16 21:00:31  5-MIN KAOH 070200Z AUTO 26013KT 5SM BR OVC011 03/02 A2985 1040 96 -100 270/13 RMK AO2 CIG 009V015 T00280022
04850KAOH AOH20161206210512612/06/16 21:05:31  5-MIN KAOH 070205Z AUTO 26014KT 5SM BR OVC011 03/02 A2986 1040 96 -100 270/14 RMK AO2 CIG 009V015 T00280022
04850KAOH AOH20161206211011412/06/16 21:10:31  5-MIN KAOH 070210Z AUTO 27013KT 5SM BR OVC011 03/02 A2986 1040 92 -100 270/13 RMK AO2 T00280017
04850KAOH AOH20161206211512612/06/16 21:15:31  5-MIN KAOH 070215Z AUTO 26017KT 5SM BR OVC011 03/02 A2986 1030 92 -100 270/17 RMK AO2 CIG 008V014 T00280017
04850KAOH AOH20161206212013212/06/16 21:20:31  5-MIN KAOH 070220Z AUTO 27017G22KT 5SM BR OVC011 03/02 A2987 1020 92 -100 280/17G22 RMK AO2 CIG 008V014 T00280017
04850KAOH AOH20161206212512712/06/16 21:25:31  5-MIN KAOH 070225Z AUTO 27019G25KT 5SM BR OVC010 02/02 A2988 1020 96 -200 280/19G25 RMK AO2 PRESRR T00220017
04850KAOH AOH20161206213012712/06/16 21:30:31  5-MIN KAOH 070230Z AUTO 28015G25KT 6SM BR BKN010 OVC014 02/01 A2988 1010 92 -200 280/15G25 RMK AO2 T00220011
04850KAOH AOH20161206213511412/06/16 21:35:31  5-MIN KAOH 070235Z AUTO 28014KT 6SM BR OVC012 02/01 A2988 1020 92 -200 280/14 RMK AO2 T00220011
04850KAOH AOH20161206214011412/06/16 21:40:31  5-MIN KAOH 070240Z AUTO 28013KT 6SM BR OVC012 02/01 A2988 1010 92 -200 280/13 RMK AO2 T00220011
04850KAOH AOH20161206214512012/06/16 21:45:31  5-MIN KAOH 070245Z AUTO 27018G22KT 5SM BR OVC011 02/01 A2988 1010 92 -200 280/18G22 RMK AO2 T00220011
04850KAOH AOH20161206215013312/06/16 21:50:31  5-MIN KAOH 070250Z AUTO 28017G22KT 6SM BR OVC011 02/01 A2988 1010 92 -200 280/17G22 RMK AO2 SLP128 T00220011 53038
04850KAOH AOH20161206215511412/06/16 21:55:31  5-MIN KAOH 070255Z AUTO 28013KT 6SM BR OVC013 02/01 A2988 1010 92 -200 290/13 RMK AO2 T00220011
04850KAOH AOH20161206220011412/06/16 22:00:31  5-MIN KAOH 070300Z AUTO 28015KT 6SM BR OVC013 02/01 A2988 1010 89 -200 280/15 RMK AO2 T00220006
04850KAOH AOH20161206220511412/06/16 22:05:31  5-MIN KAOH 070305Z AUTO 27015KT 6SM BR OVC013 02/01 A2988 1010 92 -300 280/15 RMK AO2 T00170006
04850KAOH AOH20161206221011112/06/16 22:10:31  5-MIN KAOH 070310Z AUTO 27018KT 7SM OVC012 02/01 A2989 1010 92 -300 280/18 RMK AO2 T00170006
04850KAOH AOH20161206221511112/06/16 22:15:31  5-MIN KAOH 070315Z AUTO 27018KT 7SM OVC012 02/01 A2989 1000 92 -300 280/18 RMK AO2 T00170006
04850KAOH AOH20161206222011112/06/16 22:20:31  5-MIN KAOH 070320Z AUTO 28015KT 8SM OVC012 02/01 A2989 1000 92 -300 280/15 RMK AO2 T00170006
04850KAOH AOH20161206222511112/06/16 22:25:31  5-MIN KAOH 070325Z AUTO 28014KT 8SM OVC014 02/00 A2990 1000 89 -300 280/14 RMK AO2 T00170000
04850KAOH AOH20161206223011712/06/16 22:30:31  5-MIN KAOH 070330Z AUTO 28013G19KT 9SM OVC014 02/01 A2990 1000 92 -300 280/13G19 RMK AO2 T00170006
04850KAOH AOH20161206223511012/06/16 22:35:31  5-MIN KAOH 070335Z AUTO 27011KT 9SM OVC014 02/00 A2990 990 89 -300 280/11 RMK AO2 T00170000
04850KAOH AOH20161206224011612/06/16 22:40:31  5-MIN KAOH 070340Z AUTO 27016G23KT 9SM OVC014 02/00 A2990 990 89 -300 280/16G23 RMK AO2 T00170000
04850KAOH AOH20161206224511612/06/16 22:45:31  5-MIN KAOH 070345Z AUTO 26016G23KT 9SM OVC014 02/00 A2991 980 89 -300 270/16G23 RMK AO2 T00170000
04850KAOH AOH20161206225011712/06/16 22:50:31  5-MIN KAOH 070350Z AUTO 26015KT 8SM OVC014 01/00 A2991 980 92 -400 270/15 RMK AO2 SLP137 T00110000
04850KAOH AOH20161206225511012/06/16 22:55:31  5-MIN KAOH 070355Z AUTO 27015KT 8SM OVC014 01/00 A2991 980 92 -400 280/15 RMK AO2 T00110000
04850KAOH AOH20161206230011112/06/16 23:00:31  5-MIN KAOH 070400Z AUTO 27015KT 9SM OVC014 01/M01 A2992 980 89 -400 280/15 RMK AO2 T00111006
04850KAOH AOH20161206230511112/06/16 23:05:31  5-MIN KAOH 070405Z AUTO 28015KT 9SM OVC014 01/M01 A2992 970 89 -400 280/15 RMK AO2 T00111006
04850KAOH AOH20161206231011712/06/16 23:10:31  5-MIN KAOH 070410Z AUTO 27017G24KT 9SM OVC014 01/M01 A2993 970 89 -400 280/17G24 RMK AO2 T00111006
04850KAOH AOH20161206231511912/06/16 23:15:31  5-MIN KAOH 070415Z AUTO 28020KT 10SM OVC014 01/M01 A2994 960 89 -500 280/20 RMK AO2 PRESRR T00061011
04850KAOH AOH20161206232011212/06/16 23:20:31  5-MIN KAOH 070420Z AUTO 28017KT 10SM BKN014 01/M01 A2994 960 89 -500 290/17 RMK AO2 T00061011
04850KAOH AOH20161206232511812/06/16 23:25:31  5-MIN KAOH 070425Z AUTO 28012G22KT 10SM BKN015 01/M01 A2994 960 89 -500 280/12G22 RMK AO2 T00061011
04850KAOH AOH20161206233011212/06/16 23:30:31  5-MIN KAOH 070430Z AUTO 27013KT 10SM BKN015 01/M01 A2994 960 89 -500 280/13 RMK AO2 T00061011
04850KAOH AOH20161206233511212/06/16 23:35:31  5-MIN KAOH 070435Z AUTO 27016KT 10SM BKN015 01/M01 A2994 960 89 -500 280/16 RMK AO2 T00061011
04850KAOH AOH20161206234011212/06/16 23:40:31  5-MIN KAOH 070440Z AUTO 27015KT 10SM BKN015 01/M01 A2993 970 89 -500 280/15 RMK AO2 T00061011
04850KAOH AOH20161206234511212/06/16 23:45:31  5-MIN KAOH 070445Z AUTO 27012KT 10SM BKN015 00/M01 A2994 960 92 -500 280/12 RMK AO2 T00001011
04850KAOH AOH20161206235012912/06/16 23:50:31  5-MIN KAOH 070450Z AUTO 27016KT 10SM OVC015 00/M01 A2994 960 92 -500 270/16 RMK AO2 SLP147 T00001011 400281017
04850KAOH AOH20161206235511212/06/16 23:55:31  5-MIN KAOH 070455Z AUTO 26013KT 10SM BKN015 01/M02 A2994 960 85 -500 270/13 RMK AO2 T00061017
04850KAOH AOH20161207000011212/07/16 00:00:31  5-MIN KAOH 070500Z AUTO 26013KT 10SM BKN015 00/M02 A2994 960 88 -500 270/13 RMK AO2 T00001017
04850KAOH AOH20161207000511812/07/16 00:05:31  5-MIN KAOH 070505Z AUTO 26013G20KT 10SM BKN015 00/M02 A2994 960 88 -600 260/13G20 RMK AO2 T00001017
04850KAOH AOH20161207001011812/07/16 00:10:31  5-MIN KAOH 070510Z AUTO 26011G20KT 10SM BKN016 00/M02 A2994 960 88 -600 270/11G20 RMK AO2 T00001017
04850KAOH AOH20161207001511212/07/16 00:15:31  5-MIN KAOH 070515Z AUTO 26011KT 10SM BKN016 00/M02 A2994 960 88 -600 270/11 RMK AO2 T00001017
04850KAOH AOH20161207002011212/07/16 00:20:31  5-MIN KAOH 070520Z AUTO 26010KT 10SM BKN016 00/M01 A2994 960 92 -500 260/10 RMK AO2 T00001011
04850KAOH AOH20161207002511212/07/16 00:25:31  5-MIN KAOH 070525Z AUTO 26010KT 10SM BKN016 00/M01 A2994 960 92 -500 260/10 RMK AO2 T00001011
04850KAOH AOH20161207003011212/07/16 00:30:31  5-MIN KAOH 070530Z AUTO 25014KT 10SM BKN016 00/M02 A2994 960 88 -600 260/14 RMK AO2 T00001017
04850KAOH AOH20161207003511212/07/16 00:35:31  5-MIN KAOH 070535Z AUTO 26016KT 10SM BKN015 00/M02 A2995 950 88 -600 260/16 RMK AO2 T00001017
04850KAOH AOH20161207004011212/07/16 00:40:31  5-MIN KAOH 070540Z AUTO 26014KT 10SM SCT015 00/M02 A2995 950 88 -600 270/14 RMK AO2 T00001017
04850KAOH AOH20161207004511312/07/16 00:45:31  5-MIN KAOH 070545Z AUTO 26014KT 10SM SCT015 M01/M02 A2995 950 88 -600 270/14 RMK AO2 T10061022
04850KAOH AOH20161207005013812/07/16 00:50:31  5-MIN KAOH 070550Z AUTO 26012KT 10SM FEW014 M01/M02 A2995 950 88 -600 270/12 RMK AO2 SLP152 T10061022 10028 21006 53023
04850KAOH AOH20161207005511312/07/16 00:55:31  5-MIN KAOH 070555Z AUTO 27015KT 10SM FEW014 M01/M02 A2995 950 88 -600 270/15 RMK AO2 T10061022
04850KAOH AOH20161207010011012/07/16 01:00:31  5-MIN KAOH 070600Z AUTO 27015KT 10SM CLR M01/M03 A2996 940 85 -600 270/15 RMK AO2 T10061028
04850KAOH AOH20161207010511012/07/16 01:05:31  5-MIN KAOH 070605Z AUTO 27014KT 10SM CLR M01/M03 A2996 940 85 -600 270/14 RMK AO2 T10061028
04850KAOH AOH20161207011011012/07/16 01:10:31  5-MIN KAOH 070610Z AUTO 26016KT 10SM CLR M01/M03 A2996 940 85 -700 270/16 RMK AO2 T10111033
04850KAOH AOH20161207011511012/07/16 01:15:31  5-MIN KAOH 070615Z AUTO 26016KT 10SM CLR M01/M03 A2997 940 81 -600 270/16 RMK AO2 T10061033
04850KAOH AOH20161207012011012/07/16 01:20:31  5-MIN KAOH 070620Z AUTO 26015KT 10SM CLR M01/M03 A2997 930 85 -700 270/15 RMK AO2 T10111033
04850KAOH AOH20161207012511012/07/16 01:25:31  5-MIN KAOH 070625Z AUTO 26014KT 10SM CLR M01/M03 A2997 930 85 -700 270/14 RMK AO2 T10111033
04850KAOH AOH20161207013011012/07/16 01:30:31  5-MIN KAOH 070630Z AUTO 26016KT 10SM CLR M01/M03 A2997 930 85 -700 270/16 RMK AO2 T10111033
04850KAOH AOH20161207013511512/07/16 01:35:31  5-MIN KAOH 070635Z AUTO 26013KT 10SM CLR M01/M03 A2997 930 85 -700 270/13 RMK AO2 T10111033 TSNO
04850KAOH AOH20161207014011012/07/16 01:40:31  5-MIN KAOH 070640Z AUTO 27013KT 10SM CLR M01/M03 A2998 930 85 -700 270/13 RMK AO2 T10111033
04850KAOH AOH20161207014511612/07/16 01:45:31  5-MIN KAOH 070645Z AUTO 27016G23KT 10SM CLR M01/M04 A2998 920 81 -700 270/16G23 RMK AO2 T10111039
04850KAOH AOH20161207015012312/07/16 01:50:31  5-MIN KAOH 070650Z AUTO 27015G23KT 10SM CLR M01/M04 A2998 920 81 -700 280/15G23 RMK AO2 SLP162 T10111039
04850KAOH AOH20161207015511612/07/16 01:55:31  5-MIN KAOH 070655Z AUTO 27013G22KT 10SM CLR M01/M04 A2998 920 81 -700 280/13G22 RMK AO2 T10111039
04850KAOH AOH20161207020011612/07/16 02:00:31  5-MIN KAOH 070700Z AUTO 27014G22KT 10SM CLR M01/M04 A2998 920 81 -700 270/14G22 RMK AO2 T10111039
04850KAOH AOH20161207020511012/07/16 02:05:31  5-MIN KAOH 070705Z AUTO 26013KT 10SM CLR M01/M03 A2999 910 85 -700 270/13 RMK AO2 T10111033
04850KAOH AOH20161207021011012/07/16 02:10:31  5-MIN KAOH 070710Z AUTO 26013KT 10SM CLR M01/M03 A2999 910 85 -700 270/13 RMK AO2 T10111033
04850KAOH AOH20161207021511012/07/16 02:15:31  5-MIN KAOH 070715Z AUTO 26012KT 10SM CLR M01/M03 A2999 910 85 -700 270/12 RMK AO2 T10111033
04850KAOH AOH20161207022011012/07/16 02:20:31  5-MIN KAOH 070720Z AUTO 26011KT 10SM CLR M01/M03 A2999 910 85 -700 270/11 RMK AO2 T10111033
04850KAOH AOH20161207022511312/07/16 02:25:31  5-MIN KAOH 070725Z AUTO 25009KT 10SM FEW019 M01/M03 A2999 910 85 -800 260/09 RMK AO2 T10111033
04850KAOH AOH20161207023011312/07/16 02:30:31  5-MIN KAOH 070730Z AUTO 25012KT 10SM FEW017 M01/M03 A3000 900 85 -800 260/12 RMK AO2 T10111033
04850KAOH AOH20161207023511312/07/16 02:35:31  5-MIN KAOH 070735Z AUTO 26014KT 10SM FEW017 M01/M03 A3000 900 85 -800 270/14 RMK AO2 T10111033
04850KAOH AOH20161207024011312/07/16 02:40:31  5-MIN KAOH 070740Z AUTO 26011KT 10SM FEW017 M01/M03 A3000 900 85 -800 260/11 RMK AO2 T10111033
04850KAOH AOH20161207024511312/07/16 02:45:31  5-MIN KAOH 070745Z AUTO 26014KT 10SM FEW017 M02/M03 A3000 900 88 -800 270/14 RMK AO2 T10171033
04850KAOH AOH20161207025012012/07/16 02:50:31  5-MIN KAOH 070750Z AUTO 26013KT 10SM SCT017 M01/M03 A3001 900 85 -800 270/13 RMK AO2 SLP171 T10111033
04850KAOH AOH20161207025511912/07/16 02:55:31  5-MIN KAOH 070755Z AUTO 26015G22KT 10SM SCT017 M01/M03 A3001 890 85 -800 270/15G22 RMK AO2 T10111033
04850KAOH AOH20161207030011912/07/16 03:00:31  5-MIN KAOH 070800Z AUTO 26011G22KT 10SM SCT017 M01/M03 A3001 900 85 -800 270/11G22 RMK AO2 T10111033
04850KAOH AOH20161207030511312/07/16 03:05:31  5-MIN KAOH 070805Z AUTO 26011KT 10SM FEW017 M02/M03 A3001 900 88 -800 260/11 RMK AO2 T10171033
04850KAOH AOH20161207031011312/07/16 03:10:31  5-MIN KAOH 070810Z AUTO 26011KT 10SM FEW017 M02/M03 A3001 900 88 -800 260/11 RMK AO2 T10171033
04850KAOH AOH20161207031511312/07/16 03:15:31  5-MIN KAOH 070815Z AUTO 26013KT 10SM FEW017 M02/M03 A3001 900 88 -800 270/13 RMK AO2 T10171033
04850KAOH AOH20161207032011312/07/16 03:20:31  5-MIN KAOH 070820Z AUTO 26012KT 10SM FEW017 M02/M03 A3001 890 88 -800 270/12 RMK AO2 T10171033
04850KAOH AOH20161207032511012/07/16 03:25:31  5-MIN KAOH 070825Z AUTO 26012KT 10SM CLR M02/M03 A3001 900 88 -800 260/12 RMK AO2 T10171033
04850KAOH AOH20161207033011012/07/16 03:30:31  5-MIN KAOH 070830Z AUTO 26012KT 10SM CLR M02/M03 A3001 900 88 -800 270/12 RMK AO2 T10171033
04850KAOH AOH20161207033511312/07/16 03:35:31  5-MIN KAOH 070835Z AUTO 26011KT 10SM FEW016 M02/M03 A3001 890 88 -800 260/11 RMK AO2 T10171033
04850KAOH AOH20161207034011312/07/16 03:40:31  5-MIN KAOH 070840Z AUTO 25012KT 10SM FEW016 M02/M03 A3001 890 88 -800 260/12 RMK AO2 T10171033
04850KAOH AOH20161207034511012/07/16 03:45:31  5-MIN KAOH 070845Z AUTO 26013KT 10SM CLR M02/M04 A3001 890 85 -800 270/13 RMK AO2 T10171039
04850KAOH AOH20161207035012312/07/16 03:50:31  5-MIN KAOH 070850Z AUTO 26012KT 10SM CLR M02/M04 A3001 890 85 -800 270/12 RMK AO2 SLP173 T10171039 51023
04850KAOH AOH20161207035511012/07/16 03:55:31  5-MIN KAOH 070855Z AUTO 26011KT 10SM CLR M02/M04 A3001 890 88 -900 270/11 RMK AO2 T10221039
04850KAOH AOH20161207040011012/07/16 04:00:31  5-MIN KAOH 070900Z AUTO 26011KT 10SM CLR M02/M04 A3001 890 88 -900 270/11 RMK AO2 T10221039
04850KAOH AOH20161207040511012/07/16 04:05:31  5-MIN KAOH 070905Z AUTO 26011KT 10SM CLR M02/M04 A3001 890 88 -900 260/11 RMK AO2 T10221039
04850KAOH AOH20161207041011012/07/16 04:10:31  5-MIN KAOH 070910Z AUTO 26012KT 10SM CLR M02/M04 A3002 890 88 -900 270/12 RMK AO2 T10221039
04850KAOH AOH20161207041511012/07/16 04:15:31  5-MIN KAOH 070915Z AUTO 26015KT 10SM CLR M02/M04 A3002 880 85 -900 260/15 RMK AO2 T10221044
04850KAOH AOH20161207042011012/07/16 04:20:31  5-MIN KAOH 070920Z AUTO 26013KT 10SM CLR M02/M04 A3002 880 85 -900 270/13 RMK AO2 T10221044
04850KAOH AOH20161207042511012/07/16 04:25:31  5-MIN KAOH 070925Z AUTO 26013KT 10SM CLR M02/M04 A3002 880 85 -900 270/13 RMK AO2 T10221044
04850KAOH AOH20161207043011012/07/16 04:30:31  5-MIN KAOH 070930Z AUTO 26012KT 10SM CLR M02/M04 A3003 880 85 -900 270/12 RMK AO2 T10221044
04850KAOH AOH20161207043511012/07/16 04:35:31  5-MIN KAOH 070935Z AUTO 26012KT 10SM CLR M02/M04 A3003 880 85 -900 260/12 RMK AO2 T10221044
04850KAOH AOH20161207044011012/07/16 04:40:31  5-MIN KAOH 070940Z AUTO 26012KT 10SM CLR M02/M04 A3004 870 85 -900 260/12 RMK AO2 T10221044
04850KAOH AOH20161207044511012/07/16 04:45:31  5-MIN KAOH 070945Z AUTO 25012KT 10SM CLR M02/M04 A3004 870 85 -900 260/12 RMK AO2 T10221044
04850KAOH AOH20161207045011712/07/16 04:50:31  5-MIN KAOH 070950Z AUTO 26012KT 10SM CLR M02/M05 A3004 870 81 -900 260/12 RMK AO2 SLP182 T10221050
04850KAOH AOH20161207045511112/07/16 04:55:31  5-MIN KAOH 070955Z AUTO 26011KT 10SM CLR M03/M05 A3004 870 85 -1000 270/11 RMK AO2 T10281050
04850KAOH AOH20161207050011012/07/16 05:00:31  5-MIN KAOH 071000Z AUTO 26011KT 10SM CLR M02/M05 A3004 870 81 -900 270/11 RMK AO2 T10221050
04850KAOH AOH20161207050511112/07/16 05:05:31  5-MIN KAOH 071005Z AUTO 27010KT 10SM CLR M03/M05 A3003 870 85 -1000 270/10 RMK AO2 T10281050
04850KAOH AOH20161207051011112/07/16 05:10:31  5-MIN KAOH 071010Z AUTO 26010KT 10SM CLR M03/M05 A3004 870 85 -1000 270/10 RMK AO2 T10281050
04850KAOH AOH20161207051511112/07/16 05:15:31  5-MIN KAOH 071015Z AUTO 26010KT 10SM CLR M03/M05 A3004 860 85 -1000 260/10 RMK AO2 T10281050
04850KAOH AOH20161207052011112/07/16 05:20:31  5-MIN KAOH 071020Z AUTO 25010KT 10SM CLR M03/M05 A3004 870 85 -1000 260/10 RMK AO2 T10281050
04850KAOH AOH20161207052511112/07/16 05:25:31  5-MIN KAOH 071025Z AUTO 25010KT 10SM CLR M03/M05 A3004 870 85 -1000 260/10 RMK AO2 T10281050
04850KAOH AOH20161207053011112/07/16 05:30:31  5-MIN KAOH 071030Z AUTO 26010KT 10SM CLR M03/M05 A3004 870 85 -1000 270/10 RMK AO2 T10281050
04850KAOH AOH20161207053511112/07/16 05:35:31  5-MIN KAOH 071035Z AUTO 26010KT 10SM CLR M03/M05 A3004 870 85 -1000 270/10 RMK AO2 T10281050
04850KAOH AOH20161207054011112/07/16 05:40:31  5-MIN KAOH 071040Z AUTO 26010KT 10SM CLR M03/M05 A3004 870 85 -1000 270/10 RMK AO2 T10281050
04850KAOH AOH20161207054511112/07/16 05:45:31  5-MIN KAOH 071045Z AUTO 27010KT 10SM CLR M03/M05 A3003 870 85 -1000 270/10 RMK AO2 T10281050
04850KAOH AOH20161207055011812/07/16 05:50:31  5-MIN KAOH 071050Z AUTO 26010KT 10SM CLR M03/M05 A3003 870 85 -1000 270/10 RMK AO2 SLP180 T10281050
04850KAOH AOH20161207055511112/07/16 05:55:31  5-MIN KAOH 071055Z AUTO 26009KT 10SM CLR M03/M05 A3003 870 85 -1000 270/09 RMK AO2 T10281050
04850KAOH AOH20161207060011112/07/16 06:00:31  5-MIN KAOH 071100Z AUTO 25009KT 10SM CLR M03/M05 A3004 870 88 -1100 260/09 RMK AO2 T10331050
04850KAOH AOH20161207060511112/07/16 06:05:31  5-MIN KAOH 071105Z AUTO 25009KT 10SM CLR M03/M05 A3004 870 85 -1000 260/09 RMK AO2 T10281050
04850KAOH AOH20161207061011112/07/16 06:10:31  5-MIN KAOH 071110Z AUTO 25009KT 10SM CLR M03/M06 A3004 870 81 -1000 250/09 RMK AO2 T10281056
04850KAOH AOH20161207061511112/07/16 06:15:31  5-MIN KAOH 071115Z AUTO 25007KT 10SM CLR M03/M06 A3004 870 85 -1100 250/07 RMK AO2 T10331056
04850KAOH AOH20161207062011112/07/16 06:20:31  5-MIN KAOH 071120Z AUTO 25007KT 10SM CLR M03/M06 A3004 870 85 -1100 250/07 RMK AO2 T10331056
04850KAOH AOH20161207062511112/07/16 06:25:31  5-MIN KAOH 071125Z AUTO 25007KT 10SM CLR M03/M06 A3004 870 85 -1100 250/07 RMK AO2 T10331056
04850KAOH AOH20161207063011112/07/16 06:30:31  5-MIN KAOH 071130Z AUTO 24007KT 10SM CLR M03/M06 A3004 870 85 -1100 250/07 RMK AO2 T10331056
04850KAOH AOH20161207063511112/07/16 06:35:31  5-MIN KAOH 071135Z AUTO 24007KT 10SM CLR M03/M06 A3004 860 85 -1100 250/07 RMK AO2 T10331056
04850KAOH AOH20161207064011112/07/16 06:40:31  5-MIN KAOH 071140Z AUTO 24007KT 10SM CLR M03/M06 A3005 860 85 -1100 240/07 RMK AO2 T10331056
04850KAOH AOH20161207064511112/07/16 06:45:31  5-MIN KAOH 071145Z AUTO 24008KT 10SM CLR M03/M06 A3005 860 85 -1100 240/08 RMK AO2 T10331056
04850KAOH AOH20161207065014212/07/16 06:50:31  5-MIN KAOH 071150Z AUTO 23008KT 10SM CLR M03/M06 A3006 850 85 -1100 240/08 RMK AO2 SLP188 70049 T10331056 11006 21033 51019
04850KAOH AOH20161207065511112/07/16 06:55:31  5-MIN KAOH 071155Z AUTO 24007KT 10SM CLR M03/M06 A3005 850 85 -1100 250/07 RMK AO2 T10331056
04850KAOH AOH20161207070011112/07/16 07:00:31  5-MIN KAOH 071200Z AUTO 24007KT 10SM CLR M03/M06 A3006 850 85 -1100 250/07 RMK AO2 T10331056
04850KAOH AOH20161207070511112/07/16 07:05:31  5-MIN KAOH 071205Z AUTO 24006KT 10SM CLR M03/M06 A3005 850 85 -1100 250/06 RMK AO2 T10331056
04850KAOH AOH20161207071011112/07/16 07:10:31  5-MIN KAOH 071210Z AUTO 24007KT 10SM CLR M04/M06 A3005 850 85 -1200 240/07 RMK AO2 T10391061
04850KAOH AOH20161207071511112/07/16 07:15:31  5-MIN KAOH 071215Z AUTO 24006KT 10SM CLR M04/M06 A3006 850 85 -1200 240/06 RMK AO2 T10391061
04850KAOH AOH20161207072011112/07/16 07:20:31  5-MIN KAOH 071220Z AUTO 24007KT 10SM CLR M04/M06 A3006 850 85 -1200 240/07 RMK AO2 T10391061
04850KAOH AOH20161207072511112/07/16 07:25:31  5-MIN KAOH 071225Z AUTO 24008KT 10SM CLR M04/M06 A3007 840 85 -1200 240/08 RMK AO2 T10391061
04850KAOH AOH20161207073011112/07/16 07:30:31  5-MIN KAOH 071230Z AUTO 24007KT 10SM CLR M04/M06 A3007 840 85 -1200 240/07 RMK AO2 T10391061
04850KAOH AOH20161207073511112/07/16 07:35:31  5-MIN KAOH 071235Z AUTO 24007KT 10SM CLR M03/M06 A3008 830 81 -1100 250/07 RMK AO2 T10331061
04850KAOH AOH20161207074011112/07/16 07:40:31  5-MIN KAOH 071240Z AUTO 24007KT 10SM CLR M04/M06 A3008 830 85 -1200 250/07 RMK AO2 T10391061
04850KAOH AOH20161207074511112/07/16 07:45:31  5-MIN KAOH 071245Z AUTO 25006KT 10SM CLR M04/M06 A3008 830 85 -1200 250/06 RMK AO2 T10391061
04850KAOH AOH20161207075011812/07/16 07:50:31  5-MIN KAOH 071250Z AUTO 25006KT 10SM CLR M04/M06 A3008 830 85 -1200 260/06 RMK AO2 SLP196 T10391061
04850KAOH AOH20161207075511112/07/16 07:55:31  5-MIN KAOH 071255Z AUTO 25006KT 10SM CLR M04/M06 A3008 830 88 -1300 260/06 RMK AO2 T10441061
04850KAOH AOH20161207080011112/07/16 08:00:31  5-MIN KAOH 071300Z AUTO 25006KT 10SM CLR M04/M06 A3008 830 88 -1300 260/06 RMK AO2 T10441061
04850KAOH AOH20161207080511112/07/16 08:05:31  5-MIN KAOH 071305Z AUTO 25006KT 10SM CLR M04/M06 A3008 830 88 -1300 260/06 RMK AO2 T10441061
04850KAOH AOH20161207081011112/07/16 08:10:31  5-MIN KAOH 071310Z AUTO 25007KT 10SM CLR M04/M06 A3008 830 88 -1300 250/07 RMK AO2 T10441061
04850KAOH AOH20161207081511112/07/16 08:15:31  5-MIN KAOH 071315Z AUTO 24006KT 10SM CLR M04/M06 A3008 830 85 -1200 250/06 RMK AO2 T10391061
04850KAOH AOH20161207082011112/07/16 08:20:31  5-MIN KAOH 071320Z AUTO 24006KT 10SM CLR M04/M06 A3008 830 85 -1200 240/06 RMK AO2 T10391061
04850KAOH AOH20161207082511112/07/16 08:25:31  5-MIN KAOH 071325Z AUTO 24006KT 10SM CLR M03/M06 A3008 830 81 -1100 240/06 RMK AO2 T10331061
04850KAOH AOH20161207083011112/07/16 08:30:31  5-MIN KAOH 071330Z AUTO 23009KT 10SM CLR M03/M06 A3009 820 81 -1100 240/09 RMK AO2 T10331061
04850KAOH AOH20161207083511112/07/16 08:35:31  5-MIN KAOH 071335Z AUTO 24009KT 10SM CLR M03/M06 A3009 820 78 -1100 240/09 RMK AO2 T10281061
04850KAOH AOH20161207084011112/07/16 08:40:31  5-MIN KAOH 071340Z AUTO 23009KT 10SM CLR M03/M06 A3009 820 78 -1100 240/09 RMK AO2 T10281061
04850KAOH AOH20161207084511112/07/16 08:45:31  5-MIN KAOH 071345Z AUTO 23009KT 10SM CLR M03/M06 A3009 820 78 -1100 240/09 RMK AO2 T10281061
04850KAOH AOH20161207085011812/07/16 08:50:31  5-MIN KAOH 071350Z AUTO 24009KT 10SM CLR M03/M06 A3009 820 78 -1100 240/09 RMK AO2 SLP200 T10281061
04850KAOH AOH20161207085511112/07/16 08:55:31  5-MIN KAOH 071355Z AUTO 24008KT 10SM CLR M03/M06 A3009 820 78 -1100 240/08 RMK AO2 T10281061
04850KAOH AOH20161207090011112/07/16 09:00:31  5-MIN KAOH 071400Z AUTO 24007KT 10SM CLR M03/M06 A3009 820 81 -1100 240/07 RMK AO2 T10281056
04850KAOH AOH20161207090511112/07/16 09:05:31  5-MIN KAOH 071405Z AUTO 23008KT 10SM CLR M02/M06 A3009 820 78 -1000 240/08 RMK AO2 T10221056
04850KAOH AOH20161207091011112/07/16 09:10:31  5-MIN KAOH 071410Z AUTO 23008KT 10SM CLR M02/M06 A3009 820 78 -1000 240/08 RMK AO2 T10221056
04850KAOH AOH20161207091511112/07/16 09:15:31  5-MIN KAOH 071415Z AUTO 24009KT 10SM CLR M02/M06 A3009 820 78 -1000 240/09 RMK AO2 T10221056
04850KAOH AOH20161207092011112/07/16 09:20:31  5-MIN KAOH 071420Z AUTO 24009KT 10SM CLR M02/M06 A3009 820 78 -1000 240/09 RMK AO2 T10221056
04850KAOH AOH20161207092511112/07/16 09:25:31  5-MIN KAOH 071425Z AUTO 23010KT 10SM CLR M02/M06 A3009 820 78 -1000 240/10 RMK AO2 T10221056
04850KAOH AOH20161207093011112/07/16 09:30:31  5-MIN KAOH 071430Z AUTO 23010KT 10SM CLR M02/M06 A3009 820 78 -1000 230/10 RMK AO2 T10221056
04850KAOH AOH20161207093511012/07/16 09:35:31  5-MIN KAOH 071435Z AUTO 24009KT 10SM CLR M02/M06 A3010 820 75 -900 250/09 RMK AO2 T10171056
04850KAOH AOH20161207094011012/07/16 09:40:31  5-MIN KAOH 071440Z AUTO 23009KT 10SM CLR M02/M06 A3010 810 75 -900 230/09 RMK AO2 T10171056
04850KAOH AOH20161207094511012/07/16 09:45:31  5-MIN KAOH 071445Z AUTO 25012KT 10SM CLR M02/M05 A3010 810 78 -900 250/12 RMK AO2 T10171050
04850KAOH AOH20161207095012312/07/16 09:50:31  5-MIN KAOH 071450Z AUTO 23009KT 10SM CLR M02/M06 A3010 810 75 -900 240/09 RMK AO2 SLP204 T10171056 51014
04850KAOH AOH20161207095511012/07/16 09:55:31  5-MIN KAOH 071455Z AUTO 23010KT 10SM CLR M02/M06 A3010 810 75 -900 230/10 RMK AO2 T10171056
04850KAOH AOH20161207100011012/07/16 10:00:31  5-MIN KAOH 071500Z AUTO 24008KT 10SM CLR M01/M06 A3009 820 72 -900 250/08 RMK AO2 T10111056
04850KAOH AOH20161207100511012/07/16 10:05:31  5-MIN KAOH 071505Z AUTO 23008KT 10SM CLR M02/M06 A3009 820 75 -900 240/08 RMK AO2 T10171056
04850KAOH AOH20161207101011012/07/16 10:10:31  5-MIN KAOH 071510Z AUTO 24010KT 10SM CLR M01/M06 A3010 820 72 -900 250/10 RMK AO2 T10111056
04850KAOH AOH20161207101511012/07/16 10:15:31  5-MIN KAOH 071515Z AUTO 23008KT 10SM CLR M01/M06 A3010 810 72 -900 230/08 RMK AO2 T10111056
04850KAOH AOH20161207102011012/07/16 10:20:31  5-MIN KAOH 071520Z AUTO 22010KT 10SM CLR M01/M05 A3010 810 75 -900 220/10 RMK AO2 T10111050
04850KAOH AOH20161207102511012/07/16 10:25:31  5-MIN KAOH 071525Z AUTO 22011KT 10SM CLR M01/M05 A3010 810 75 -900 230/11 RMK AO2 T10111050
04850KAOH AOH20161207103011012/07/16 10:30:31  5-MIN KAOH 071530Z AUTO 23012KT 10SM CLR M01/M05 A3010 810 75 -900 230/12 RMK AO2 T10111050
04850KAOH AOH20161207103511012/07/16 10:35:31  5-MIN KAOH 071535Z AUTO 23010KT 10SM CLR M01/M05 A3010 810 75 -900 230/10 RMK AO2 T10111050
04850KAOH AOH20161207104011012/07/16 10:40:31  5-MIN KAOH 071540Z AUTO 22011KT 10SM CLR M01/M05 A3010 810 72 -800 220/11 RMK AO2 T10061050
04850KAOH AOH20161207104511012/07/16 10:45:31  5-MIN KAOH 071545Z AUTO 22012KT 10SM CLR M01/M05 A3010 810 72 -800 230/12 RMK AO2 T10061050
04850KAOH AOH20161207105011712/07/16 10:50:31  5-MIN KAOH 071550Z AUTO 22012KT 10SM CLR M01/M05 A3010 810 72 -800 230/12 RMK AO2 SLP203 T10061050
04850KAOH AOH20161207105511012/07/16 10:55:31  5-MIN KAOH 071555Z AUTO 23013KT 10SM CLR M01/M05 A3011 810 72 -800 230/13 RMK AO2 T10061050
04850KAOH AOH20161207110011012/07/16 11:00:31  5-MIN KAOH 071600Z AUTO 22011KT 10SM CLR M01/M05 A3011 810 72 -800 230/11 RMK AO2 T10061050
04850KAOH AOH20161207110511012/07/16 11:05:31  5-MIN KAOH 071605Z AUTO 23012KT 10SM CLR M01/M05 A3010 810 72 -800 230/12 RMK AO2 T10061050
04850KAOH AOH20161207111010912/07/16 11:10:31  5-MIN KAOH 071610Z AUTO 23013KT 10SM CLR 00/M05 A3011 800 69 -700 230/13 RMK AO2 T00001050
04850KAOH AOH20161207111511012/07/16 11:15:31  5-MIN KAOH 071615Z AUTO 24013KT 10SM CLR M01/M05 A3010 810 72 -800 250/13 RMK AO2 T10061050
04850KAOH AOH20161207112010912/07/16 11:20:31  5-MIN KAOH 071620Z AUTO 24011KT 10SM CLR 00/M05 A3011 810 69 -700 240/11 RMK AO2 T00001050
04850KAOH AOH20161207112510912/07/16 11:25:31  5-MIN KAOH 071625Z AUTO 24012KT 10SM CLR 00/M05 A3011 800 69 -700 240/12 RMK AO2 T00001050
04850KAOH AOH20161207113010912/07/16 11:30:31  5-MIN KAOH 071630Z AUTO 23013KT 10SM CLR 00/M05 A3011 800 69 -700 230/13 RMK AO2 T00001050
04850KAOH AOH20161207113510912/07/16 11:35:31  5-MIN KAOH 071635Z AUTO 23012KT 10SM CLR 00/M05 A3011 810 69 -700 240/12 RMK AO2 T00001050
04850KAOH AOH20161207114010912/07/16 11:40:31  5-MIN KAOH 071640Z AUTO 24013KT 10SM CLR 00/M05 A3010 810 69 -700 240/13 RMK AO2 T00001050
04850KAOH AOH20161207114510912/07/16 11:45:31  5-MIN KAOH 071645Z AUTO 24013KT 10SM CLR 00/M04 A3010 810 72 -700 240/13 RMK AO2 T00001044
04850KAOH AOH20161207115011612/07/16 11:50:31  5-MIN KAOH 071650Z AUTO 24013KT 10SM CLR 01/M04 A3010 810 69 -700 250/13 RMK AO2 SLP204 T00061044
04850KAOH AOH20161207115510912/07/16 11:55:31  5-MIN KAOH 071655Z AUTO 23013KT 10SM CLR 00/M04 A3010 810 72 -700 240/13 RMK AO2 T00001044
04850KAOH AOH20161207120010912/07/16 12:00:31  5-MIN KAOH 071700Z AUTO 24012KT 10SM CLR 00/M05 A3010 810 69 -700 240/12 RMK AO2 T00001050
04850KAOH AOH20161207120511212/07/16 12:05:31  5-MIN KAOH 071705Z AUTO 24012KT 10SM FEW120 01/M04 A3010 810 69 -700 250/12 RMK AO2 T00061044
04850KAOH AOH20161207121011212/07/16 12:10:31  5-MIN KAOH 071710Z AUTO 24011KT 10SM FEW120 01/M04 A3010 810 69 -700 250/11 RMK AO2 T00061044
04850KAOH AOH20161207121511212/07/16 12:15:31  5-MIN KAOH 071715Z AUTO 26014KT 10SM FEW120 01/M04 A3010 810 72 -700 260/14 RMK AO2 T00061039
04850KAOH AOH20161207122011212/07/16 12:20:31  5-MIN KAOH 071720Z AUTO 24010KT 10SM FEW120 01/M04 A3010 820 69 -700 250/10 RMK AO2 T00061044
04850KAOH AOH20161207122511212/07/16 12:25:31  5-MIN KAOH 071725Z AUTO 26013KT 10SM FEW120 01/M04 A3010 810 69 -600 260/13 RMK AO2 T00111039
04850KAOH AOH20161207123011212/07/16 12:30:31  5-MIN KAOH 071730Z AUTO 25014KT 10SM FEW120 01/M04 A3010 810 72 -700 260/14 RMK AO2 T00061039
04850KAOH AOH20161207123511212/07/16 12:35:31  5-MIN KAOH 071735Z AUTO 24011KT 10SM FEW120 01/M04 A3010 810 66 -600 250/11 RMK AO2 T00111044
04850KAOH AOH20161207124010912/07/16 12:40:31  5-MIN KAOH 071740Z AUTO 25013KT 10SM CLR 01/M04 A3010 810 69 -600 260/13 RMK AO2 T00111039
04850KAOH AOH20161207124511212/07/16 12:45:31  5-MIN KAOH 071745Z AUTO 23013KT 10SM FEW120 01/M04 A3010 820 69 -600 240/13 RMK AO2 T00111039
04850KAOH AOH20161207125013712/07/16 12:50:31  5-MIN KAOH 071750Z AUTO 24011KT 10SM SCT120 01/M04 A3010 810 69 -600 250/11 RMK AO2 SLP202 T00111039 10011 21044 51015
04850KAOH AOH20161207125511212/07/16 12:55:31  5-MIN KAOH 071755Z AUTO 25014KT 10SM SCT120 01/M04 A3010 810 69 -700 250/14 RMK AO2 T00061044
04850KAOH AOH20161207130011212/07/16 13:00:31  5-MIN KAOH 071800Z AUTO 24014KT 10SM SCT110 01/M04 A3010 820 69 -700 240/14 RMK AO2 T00061044
04850KAOH AOH20161207130511212/07/16 13:05:31  5-MIN KAOH 071805Z AUTO 25012KT 10SM BKN110 01/M04 A3009 820 69 -600 260/12 RMK AO2 T00111039
04850KAOH AOH20161207131011212/07/16 13:10:31  5-MIN KAOH 071810Z AUTO 24014KT 10SM BKN110 01/M04 A3009 820 69 -600 240/14 RMK AO2 T00111039
04850KAOH AOH20161207131511212/07/16 13:15:31  5-MIN KAOH 071815Z AUTO 23012KT 10SM BKN110 01/M04 A3009 820 66 -600 240/12 RMK AO2 T00111044
04850KAOH AOH20161207132011212/07/16 13:20:31  5-MIN KAOH 071820Z AUTO 24012KT 10SM BKN100 01/M04 A3009 820 69 -600 240/12 RMK AO2 T00061044
04850KAOH AOH20161207132511212/07/16 13:25:31  5-MIN KAOH 071825Z AUTO 24010KT 10SM OVC100 01/M04 A3008 830 69 -600 240/10 RMK AO2 T00061044
04850KAOH AOH20161207133011212/07/16 13:30:31  5-MIN KAOH 071830Z AUTO 24011KT 10SM OVC100 01/M04 A3008 830 69 -600 240/11 RMK AO2 T00061044
04850KAOH AOH20161207133511212/07/16 13:35:31  5-MIN KAOH 071835Z AUTO 23011KT 10SM BKN100 01/M04 A3008 830 66 -600 240/11 RMK AO2 T00111044
04850KAOH AOH20161207134011212/07/16 13:40:31  5-MIN KAOH 071840Z AUTO 25013KT 10SM BKN100 02/M04 A3008 830 66 -500 250/13 RMK AO2 T00171039
04850KAOH AOH20161207134511212/07/16 13:45:31  5-MIN KAOH 071845Z AUTO 25010KT 10SM SCT100 02/M04 A3008 830 66 -500 250/10 RMK AO2 T00171039
04850KAOH AOH20161207135011912/07/16 13:50:31  5-MIN KAOH 071850Z AUTO 24012KT 10SM FEW100 02/M04 A3008 830 64 -500 250/12 RMK AO2 SLP195 T00171044
04850KAOH AOH20161207135511212/07/16 13:55:31  5-MIN KAOH 071855Z AUTO 24013KT 10SM FEW100 02/M04 A3007 840 64 -500 250/13 RMK AO2 T00171044
04850KAOH AOH20161207140010912/07/16 14:00:31  5-MIN KAOH 071900Z AUTO 25012KT 10SM CLR 02/M05 A3007 840 61 -500 250/12 RMK AO2 T00171050
04850KAOH AOH20161207140510912/07/16 14:05:31  5-MIN KAOH 071905Z AUTO 25012KT 10SM CLR 02/M04 A3007 840 64 -500 250/12 RMK AO2 T00171044
04850KAOH AOH20161207141010912/07/16 14:10:31  5-MIN KAOH 071910Z AUTO 23011KT 10SM CLR 01/M05 A3006 840 64 -600 240/11 RMK AO2 T00111050
04850KAOH AOH20161207141510912/07/16 14:15:31  5-MIN KAOH 071915Z AUTO 24013KT 10SM CLR 01/M06 A3006 840 61 -600 240/13 RMK AO2 T00111056
04850KAOH AOH20161207142010912/07/16 14:20:31  5-MIN KAOH 071920Z AUTO 24014KT 10SM CLR 01/M05 A3006 850 64 -600 250/14 RMK AO2 T00111050
04850KAOH AOH20161207142510912/07/16 14:25:31  5-MIN KAOH 071925Z AUTO 24010KT 10SM CLR 02/M05 A3006 850 61 -500 250/10 RMK AO2 T00171050
04850KAOH AOH20161207143010912/07/16 14:30:31  5-MIN KAOH 071930Z AUTO 23009KT 10SM CLR 02/M04 A3006 850 64 -500 240/09 RMK AO2 T00171044
04850KAOH AOH20161207143510912/07/16 14:35:31  5-MIN KAOH 071935Z AUTO 23012KT 10SM CLR 02/M04 A3006 850 64 -500 230/12 RMK AO2 T00171044
04850KAOH AOH20161207144010912/07/16 14:40:31  5-MIN KAOH 071940Z AUTO 24013KT 10SM CLR 02/M05 A3006 850 61 -500 240/13 RMK AO2 T00171050
04850KAOH AOH20161207144510912/07/16 14:45:31  5-MIN KAOH 071945Z AUTO 24012KT 10SM CLR 02/M04 A3006 850 64 -500 250/12 RMK AO2 T00171044
04850KAOH AOH20161207145011612/07/16 14:50:31  5-MIN KAOH 071950Z AUTO 24013KT 10SM CLR 02/M05 A3006 850 61 -500 240/13 RMK AO2 SLP188 T00171050
04850KAOH AOH20161207145510912/07/16 14:55:31  5-MIN KAOH 071955Z AUTO 24012KT 10SM CLR 02/M04 A3006 850 64 -500 240/12 RMK AO2 T00171044
04850KAOH AOH20161207150010912/07/16 15:00:31  5-MIN KAOH 072000Z AUTO 24009KT 10SM CLR 02/M04 A3006 850 64 -500 250/09 RMK AO2 T00171044
04850KAOH AOH20161207150510912/07/16 15:05:31  5-MIN KAOH 072005Z AUTO 24010KT 10SM CLR 02/M04 A3006 850 66 -500 240/10 RMK AO2 T00171039
04850KAOH AOH20161207151010912/07/16 15:10:31  5-MIN KAOH 072010Z AUTO 23010KT 10SM CLR 02/M04 A3006 840 64 -500 240/10 RMK AO2 T00171044
04850KAOH AOH20161207151510912/07/16 15:15:31  5-MIN KAOH 072015Z AUTO 23011KT 10SM CLR 02/M04 A3007 840 64 -500 240/11 RMK AO2 T00171044
04850KAOH AOH20161207152010912/07/16 15:20:31  5-MIN KAOH 072020Z AUTO 24010KT 10SM CLR 02/M05 A3006 840 61 -500 250/10 RMK AO2 T00171050
04850KAOH AOH20161207152510912/07/16 15:25:31  5-MIN KAOH 072025Z AUTO 25009KT 10SM CLR 01/M04 A3007 840 66 -600 260/09 RMK AO2 T00111044
04850KAOH AOH20161207153010912/07/16 15:30:31  5-MIN KAOH 072030Z AUTO 25012KT 10SM CLR 01/M04 A3007 840 66 -600 260/12 RMK AO2 T00111044
04850KAOH AOH20161207153510912/07/16 15:35:31  5-MIN KAOH 072035Z AUTO 24010KT 10SM CLR 01/M05 A3007 840 64 -600 250/10 RMK AO2 T00111050
04850KAOH AOH20161207154011212/07/16 15:40:31  5-MIN KAOH 072040Z AUTO 25010KT 10SM SCT100 01/M04 A3007 840 66 -600 260/10 RMK AO2 T00111044
04850KAOH AOH20161207154511212/07/16 15:45:31  5-MIN KAOH 072045Z AUTO 24013KT 10SM SCT100 01/M04 A3007 840 66 -600 240/13 RMK AO2 T00111044
04850KAOH AOH20161207155012512/07/16 15:50:31  5-MIN KAOH 072050Z AUTO 23013KT 10SM BKN100 01/M04 A3007 840 66 -600 240/13 RMK AO2 SLP193 T00111044 50000
04850KAOH AOH20161207155511212/07/16 15:55:31  5-MIN KAOH 072055Z AUTO 23011KT 10SM BKN100 01/M04 A3008 830 66 -600 240/11 RMK AO2 T00111044
04850KAOH AOH20161207160011212/07/16 16:00:31  5-MIN KAOH 072100Z AUTO 24011KT 10SM BKN100 01/M04 A3007 830 66 -600 240/11 RMK AO2 T00111044
04850KAOH AOH20161207160511212/07/16 16:05:31  5-MIN KAOH 072105Z AUTO 24010KT 10SM OVC100 01/M04 A3007 830 66 -600 240/10 RMK AO2 T00111044
04850KAOH AOH20161207161011212/07/16 16:10:31  5-MIN KAOH 072110Z AUTO 24009KT 10SM OVC100 01/M04 A3008 830 69 -600 250/09 RMK AO2 T00111039
04850KAOH AOH20161207161511212/07/16 16:15:31  5-MIN KAOH 072115Z AUTO 23010KT 10SM OVC100 01/M04 A3008 830 69 -600 240/10 RMK AO2 T00111039
04850KAOH AOH20161207162011212/07/16 16:20:31  5-MIN KAOH 072120Z AUTO 24012KT 10SM OVC100 01/M04 A3008 830 69 -600 240/12 RMK AO2 T00111039
04850KAOH AOH20161207162511212/07/16 16:25:31  5-MIN KAOH 072125Z AUTO 24010KT 10SM OVC100 01/M04 A3008 830 66 -600 240/10 RMK AO2 T00111044
04850KAOH AOH20161207163011212/07/16 16:30:31  5-MIN KAOH 072130Z AUTO 24008KT 10SM OVC100 01/M04 A3008 830 69 -600 250/08 RMK AO2 T00111039
04850KAOH AOH20161207163511212/07/16 16:35:31  5-MIN KAOH 072135Z AUTO 25009KT 10SM OVC095 01/M04 A3008 830 69 -600 260/09 RMK AO2 T00111039
04850KAOH AOH20161207164011912/07/16 16:40:31  5-MIN KAOH 072140Z AUTO 25009KT 10SM BKN085 OVC100 01/M04 A3008 830 72 -600 260/09 RMK AO2 T00061039
04850KAOH AOH20161207164512612/07/16 16:45:31  5-MIN KAOH 072145Z AUTO 25008KT 10SM SCT080 BKN100 BKN120 01/M04 A3008 830 72 -600 250/08 RMK AO2 T00061039
04850KAOH AOH20161207165012612/07/16 16:50:31  5-MIN KAOH 072150Z AUTO 25007KT 10SM SCT085 BKN110 01/M04 A3008 830 72 -600 260/07 RMK AO2 SLP197 T00061039
04850KAOH AOH20161207165511912/07/16 16:55:31  5-MIN KAOH 072155Z AUTO 25006KT 10SM FEW080 OVC110 01/M03 A3008 830 75 -600 260/06 RMK AO2 T00061033
04850KAOH AOH20161207170011912/07/16 17:00:31  5-MIN KAOH 072200Z AUTO 25006KT 10SM FEW080 OVC110 01/M03 A3008 830 75 -600 250/06 RMK AO2 T00061033
04850KAOH AOH20161207170512612/07/16 17:05:31  5-MIN KAOH 072205Z AUTO 24008KT 10SM FEW080 BKN100 OVC120 01/M03 A3008 830 75 -600 240/08 RMK AO2 T00061033
04850KAOH AOH20161207171011912/07/16 17:10:31  5-MIN KAOH 072210Z AUTO 23010KT 10SM BKN100 OVC120 01/M04 A3009 820 69 -600 240/10 RMK AO2 T00111039
04850KAOH AOH20161207171511212/07/16 17:15:31  5-MIN KAOH 072215Z AUTO 24009KT 10SM OVC110 01/M04 A3009 820 69 -600 240/09 RMK AO2 T00111039
04850KAOH AOH20161207172011212/07/16 17:20:31  5-MIN KAOH 072220Z AUTO 24008KT 10SM OVC100 01/M04 A3009 830 69 -600 240/08 RMK AO2 T00111039
04850KAOH AOH20161207172511212/07/16 17:25:31  5-MIN KAOH 072225Z AUTO 24009KT 10SM OVC100 01/M04 A3009 820 72 -600 240/09 RMK AO2 T00061039
04850KAOH AOH20161207173011212/07/16 17:30:31  5-MIN KAOH 072230Z AUTO 23009KT 10SM OVC100 01/M04 A3008 830 72 -600 240/09 RMK AO2 T00061039
04850KAOH AOH20161207173511212/07/16 17:35:31  5-MIN KAOH 072235Z AUTO 24010KT 10SM OVC110 01/M04 A3009 830 69 -600 240/10 RMK AO2 T00111039
04850KAOH AOH20161207174011212/07/16 17:40:31  5-MIN KAOH 072240Z AUTO 24008KT 10SM OVC110 01/M04 A3009 820 72 -600 250/08 RMK AO2 T00061039
04850KAOH AOH20161207174511212/07/16 17:45:31  5-MIN KAOH 072245Z AUTO 25008KT 10SM OVC100 01/M04 A3008 830 72 -600 250/08 RMK AO2 T00061039
04850KAOH AOH20161207175011912/07/16 17:50:31  5-MIN KAOH 072250Z AUTO 25010KT 10SM OVC100 01/M04 A3008 830 72 -600 260/10 RMK AO2 SLP198 T00061039
04850KAOH AOH20161207175511212/07/16 17:55:31  5-MIN KAOH 072255Z AUTO 24008KT 10SM OVC100 01/M04 A3008 830 72 -600 250/08 RMK AO2 T00061039
04850KAOH AOH20161207180011212/07/16 18:00:31  5-MIN KAOH 072300Z AUTO 25008KT 10SM OVC100 01/M04 A3008 830 72 -600 250/08 RMK AO2 T00061039
04850KAOH AOH20161207180511212/07/16 18:05:31  5-MIN KAOH 072305Z AUTO 25008KT 10SM OVC100 01/M04 A3008 830 72 -600 260/08 RMK AO2 T00061039
04850KAOH AOH20161207181011212/07/16 18:10:31  5-MIN KAOH 072310Z AUTO 25009KT 10SM OVC100 01/M04 A3009 820 72 -600 260/09 RMK AO2 T00061039
04850KAOH AOH20161207181511212/07/16 18:15:31  5-MIN KAOH 072315Z AUTO 25010KT 10SM OVC100 01/M04 A3009 820 72 -600 260/10 RMK AO2 T00061039
04850KAOH AOH20161207182011212/07/16 18:20:31  5-MIN KAOH 072320Z AUTO 25008KT 10SM OVC095 01/M04 A3009 820 72 -700 260/08 RMK AO2 T00061039
04850KAOH AOH20161207182511212/07/16 18:25:31  5-MIN KAOH 072325Z AUTO 25009KT 10SM OVC095 00/M04 A3009 820 75 -700 250/09 RMK AO2 T00001039
04850KAOH AOH20161207183011212/07/16 18:30:31  5-MIN KAOH 072330Z AUTO 25008KT 10SM OVC095 00/M04 A3009 820 75 -700 260/08 RMK AO2 T00001039
04850KAOH AOH20161207183511912/07/16 18:35:31  5-MIN KAOH 072335Z AUTO 25010KT 10SM BKN100 OVC120 00/M04 A3009 820 75 -700 260/10 RMK AO2 T00001039
04850KAOH AOH20161207184011912/07/16 18:40:31  5-MIN KAOH 072340Z AUTO 25008KT 10SM BKN095 OVC110 00/M04 A3009 820 75 -700 250/08 RMK AO2 T00001039
04850KAOH AOH20161207184511912/07/16 18:45:31  5-MIN KAOH 072345Z AUTO 25008KT 10SM FEW090 OVC110 00/M04 A3009 820 75 -700 250/08 RMK AO2 T00001039
04850KAOH AOH20161207185014412/07/16 18:50:31  5-MIN KAOH 072350Z AUTO 24009KT 10SM FEW090 OVC110 00/M04 A3009 820 75 -700 250/09 RMK AO2 SLP202 T00001039 10017 20000 55008
04850KAOH AOH20161207185511212/07/16 18:55:31  5-MIN KAOH 072355Z AUTO 25010KT 10SM BKN110 00/M04 A3009 820 75 -700 250/10 RMK AO2 T00001039
04850KAOH AOH20161207190011212/07/16 19:00:31  5-MIN KAOH 080000Z AUTO 25011KT 10SM BKN110 00/M04 A3009 820 75 -700 260/11 RMK AO2 T00001039
04850KAOH AOH20161207190511212/07/16 19:05:31  5-MIN KAOH 080005Z AUTO 25008KT 10SM BKN110 00/M04 A3009 820 75 -700 260/08 RMK AO2 T00001039
04850KAOH AOH20161207191011212/07/16 19:10:31  5-MIN KAOH 080010Z AUTO 25010KT 10SM BKN110 00/M04 A3009 820 75 -700 260/10 RMK AO2 T00001039
04850KAOH AOH20161207191511212/07/16 19:15:31  5-MIN KAOH 080015Z AUTO 25011KT 10SM BKN110 00/M04 A3009 820 75 -700 260/11 RMK AO2 T00001039
04850KAOH AOH20161207192011212/07/16 19:20:31  5-MIN KAOH 080020Z AUTO 25009KT 10SM BKN110 00/M03 A3009 820 78 -700 260/09 RMK AO2 T00001033
04850KAOH AOH20161207192511212/07/16 19:25:31  5-MIN KAOH 080025Z AUTO 25011KT 10SM BKN110 00/M03 A3008 830 78 -700 260/11 RMK AO2 T00001033
04850KAOH AOH20161207193011212/07/16 19:30:31  5-MIN KAOH 080030Z AUTO 25010KT 10SM BKN110 00/M04 A3008 830 75 -700 250/10 RMK AO2 T00001039
04850KAOH AOH20161207193511212/07/16 19:35:31  5-MIN KAOH 080035Z AUTO 25009KT 10SM OVC110 00/M03 A3008 830 78 -700 260/09 RMK AO2 T00001033
04850KAOH AOH20161207194011212/07/16 19:40:31  5-MIN KAOH 080040Z AUTO 25010KT 10SM OVC110 00/M03 A3008 830 78 -700 250/10 RMK AO2 T00001033
04850KAOH AOH20161207194511212/07/16 19:45:31  5-MIN KAOH 080045Z AUTO 25009KT 10SM OVC110 00/M03 A3008 830 78 -700 250/09 RMK AO2 T00001033
04850KAOH AOH20161207195011912/07/16 19:50:31  5-MIN KAOH 080050Z AUTO 25010KT 10SM OVC110 00/M03 A3008 830 78 -700 260/10 RMK AO2 SLP198 T00001033
04850KAOH AOH20161207195511212/07/16 19:55:31  5-MIN KAOH 080055Z AUTO 25010KT 10SM OVC110 00/M03 A3008 830 78 -700 260/10 RMK AO2 T00001033
04850KAOH AOH20161207200011212/07/16 20:00:31  5-MIN KAOH 080100Z AUTO 25011KT 10SM OVC110 00/M03 A3009 820 78 -700 260/11 RMK AO2 T00001033
04850KAOH AOH20161207200511212/07/16 20:05:31  5-MIN KAOH 080105Z AUTO 25011KT 10SM OVC110 00/M03 A3009 820 78 -700 260/11 RMK AO2 T00001033
04850KAOH AOH20161207201011212/07/16 20:10:31  5-MIN KAOH 080110Z AUTO 25010KT 10SM OVC110 00/M03 A3009 820 78 -700 260/10 RMK AO2 T00001033
04850KAOH AOH20161207201511212/07/16 20:15:31  5-MIN KAOH 080115Z AUTO 25012KT 10SM OVC110 00/M03 A3009 820 78 -700 260/12 RMK AO2 T00001033
04850KAOH AOH20161207202011212/07/16 20:20:31  5-MIN KAOH 080120Z AUTO 26012KT 10SM OVC110 00/M03 A3009 820 78 -700 260/12 RMK AO2 T00001033
04850KAOH AOH20161207202511212/07/16 20:25:31  5-MIN KAOH 080125Z AUTO 25012KT 10SM OVC110 00/M04 A3009 820 75 -700 260/12 RMK AO2 T00001039
04850KAOH AOH20161207203011212/07/16 20:30:31  5-MIN KAOH 080130Z AUTO 26010KT 10SM OVC100 00/M04 A3009 820 75 -700 260/10 RMK AO2 T00001039
04850KAOH AOH20161207203511212/07/16 20:35:31  5-MIN KAOH 080135Z AUTO 25012KT 10SM OVC100 00/M04 A3008 830 75 -700 260/12 RMK AO2 T00001039
04850KAOH AOH20161207204011212/07/16 20:40:31  5-MIN KAOH 080140Z AUTO 25010KT 10SM OVC100 00/M04 A3008 830 75 -700 260/10 RMK AO2 T00001039
04850KAOH AOH20161207204511312/07/16 20:45:31  5-MIN KAOH 080145Z AUTO 25011KT 10SM BKN100 M01/M04 A3008 830 78 -800 260/11 RMK AO2 T10061039
04850KAOH AOH20161207205012712/07/16 20:50:31  5-MIN KAOH 080150Z AUTO 26011KT 10SM BKN095 BKN120 M01/M04 A3008 830 78 -800 260/11 RMK AO2 SLP198 T10061039
04850KAOH AOH20161207205512012/07/16 20:55:31  5-MIN KAOH 080155Z AUTO 26010KT 10SM BKN100 OVC120 M01/M04 A3008 830 78 -800 260/10 RMK AO2 T10061039
04850KAOH AOH20161207210012012/07/16 21:00:31  5-MIN KAOH 080200Z AUTO 25010KT 10SM BKN100 OVC110 M01/M04 A3009 830 78 -800 260/10 RMK AO2 T10061039
04850KAOH AOH20161207210511312/07/16 21:05:31  5-MIN KAOH 080205Z AUTO 26011KT 10SM OVC100 M01/M04 A3009 820 78 -800 260/11 RMK AO2 T10061039
04850KAOH AOH20161207211011312/07/16 21:10:31  5-MIN KAOH 080210Z AUTO 26009KT 10SM OVC110 M01/M04 A3009 820 78 -800 260/09 RMK AO2 T10061039
04850KAOH AOH20161207211511312/07/16 21:15:31  5-MIN KAOH 080215Z AUTO 26012KT 10SM OVC110 M01/M04 A3009 820 78 -800 270/12 RMK AO2 T10061039
04850KAOH AOH20161207212011312/07/16 21:20:31  5-MIN KAOH 080220Z AUTO 26012KT 10SM OVC100 M01/M04 A3009 820 78 -800 270/12 RMK AO2 T10061039
04850KAOH AOH20161207212511312/07/16 21:25:31  5-MIN KAOH 080225Z AUTO 26012KT 10SM OVC100 M01/M04 A3009 820 81 -900 260/12 RMK AO2 T10111039
04850KAOH AOH20161207213011312/07/16 21:30:31  5-MIN KAOH 080230Z AUTO 26012KT 10SM OVC100 M01/M04 A3009 820 78 -800 260/12 RMK AO2 T10061039
04850KAOH AOH20161207213511312/07/16 21:35:31  5-MIN KAOH 080235Z AUTO 26013KT 10SM OVC100 M01/M04 A3010 810 81 -900 260/13 RMK AO2 T10111039
04850KAOH AOH20161207214011312/07/16 21:40:31  5-MIN KAOH 080240Z AUTO 26013KT 10SM OVC100 M01/M04 A3010 810 78 -800 270/13 RMK AO2 T10061039
04850KAOH AOH20161207214511312/07/16 21:45:31  5-MIN KAOH 080245Z AUTO 25014KT 10SM OVC100 M01/M04 A3010 810 78 -800 260/14 RMK AO2 T10061039
04850KAOH AOH20161207215012612/07/16 21:50:31  5-MIN KAOH 080250Z AUTO 25014KT 10SM OVC110 M01/M04 A3010 810 78 -800 260/14 RMK AO2 SLP204 T10061039 53007
04850KAOH AOH20161207215511312/07/16 21:55:31  5-MIN KAOH 080255Z AUTO 25013KT 10SM OVC110 M01/M04 A3010 810 81 -900 260/13 RMK AO2 T10111039
04850KAOH AOH20161207220011312/07/16 22:00:31  5-MIN KAOH 080300Z AUTO 25015KT 10SM OVC100 M01/M04 A3010 810 81 -900 260/15 RMK AO2 T10111039
04850KAOH AOH20161207220511312/07/16 22:05:31  5-MIN KAOH 080305Z AUTO 26015KT 10SM OVC100 M01/M04 A3010 810 81 -900 260/15 RMK AO2 T10111039
04850KAOH AOH20161207221011312/07/16 22:10:31  5-MIN KAOH 080310Z AUTO 26014KT 10SM BKN100 M01/M04 A3010 810 78 -900 260/14 RMK AO2 T10111044
04850KAOH AOH20161207221511912/07/16 22:15:31  5-MIN KAOH 080315Z AUTO 26018G23KT 10SM BKN100 M01/M04 A3010 810 78 -900 270/18G23 RMK AO2 T10111044
04850KAOH AOH20161207222011912/07/16 22:20:31  5-MIN KAOH 080320Z AUTO 26014G23KT 10SM BKN100 M01/M04 A3010 810 78 -900 270/14G23 RMK AO2 T10111044
04850KAOH AOH20161207222511912/07/16 22:25:31  5-MIN KAOH 080325Z AUTO 26014G22KT 10SM BKN100 M01/M04 A3010 810 78 -900 270/14G22 RMK AO2 T10111044
04850KAOH AOH20161207223011912/07/16 22:30:31  5-MIN KAOH 080330Z AUTO 26013G21KT 10SM BKN100 M01/M04 A3010 810 78 -900 260/13G21 RMK AO2 T10111044
04850KAOH AOH20161207223512012/07/16 22:35:31  5-MIN KAOH 080335Z AUTO 26011KT 10SM FEW022 BKN100 M02/M04 A3010 810 81 -900 270/11 RMK AO2 T10171044
04850KAOH AOH20161207224012012/07/16 22:40:31  5-MIN KAOH 080340Z AUTO 26014KT 10SM FEW022 BKN100 M02/M04 A3010 810 81 -900 260/14 RMK AO2 T10171044
04850KAOH AOH20161207224512012/07/16 22:45:31  5-MIN KAOH 080345Z AUTO 26013KT 10SM FEW022 BKN100 M02/M04 A3010 810 81 -900 270/13 RMK AO2 T10171044
04850KAOH AOH20161207225012712/07/16 22:50:31  5-MIN KAOH 080350Z AUTO 25011KT 10SM SCT022 BKN100 M01/M04 A3010 810 78 -900 260/11 RMK AO2 SLP204 T10111044
04850KAOH AOH20161207225512012/07/16 22:55:31  5-MIN KAOH 080355Z AUTO 26016KT 10SM SCT022 SCT100 M02/M04 A3010 810 81 -900 270/16 RMK AO2 T10171044
04850KAOH AOH20161207230011312/07/16 23:00:31  5-MIN KAOH 080400Z AUTO 26015KT 10SM FEW022 M02/M04 A3010 810 81 -900 270/15 RMK AO2 T10171044
04850KAOH AOH20161207230511312/07/16 23:05:31  5-MIN KAOH 080405Z AUTO 26015KT 10SM FEW022 M02/M04 A3010 810 85 -900 260/15 RMK AO2 T10171039
04850KAOH AOH20161207231011312/07/16 23:10:31  5-MIN KAOH 080410Z AUTO 25014KT 10SM FEW022 M02/M04 A3010 810 85 -900 260/14 RMK AO2 T10171039
04850KAOH AOH20161207231511312/07/16 23:15:31  5-MIN KAOH 080415Z AUTO 25010KT 10SM SCT022 M02/M04 A3010 810 85 -900 250/10 RMK AO2 T10171039
04850KAOH AOH20161207232011312/07/16 23:20:31  5-MIN KAOH 080420Z AUTO 26013KT 10SM BKN022 M02/M04 A3010 810 85 -900 260/13 RMK AO2 T10171039
04850KAOH AOH20161207232511312/07/16 23:25:31  5-MIN KAOH 080425Z AUTO 26014KT 10SM BKN022 M01/M04 A3010 810 78 -900 260/14 RMK AO2 T10111044
04850KAOH AOH20161207233011312/07/16 23:30:31  5-MIN KAOH 080430Z AUTO 26016KT 10SM BKN022 M01/M04 A3010 810 78 -900 260/16 RMK AO2 T10111044
04850KAOH AOH20161207233511312/07/16 23:35:31  5-MIN KAOH 080435Z AUTO 26014KT 10SM OVC022 M01/M04 A3010 810 78 -900 270/14 RMK AO2 T10111044
04850KAOH AOH20161207234011312/07/16 23:40:31  5-MIN KAOH 080440Z AUTO 26015KT 10SM OVC022 M01/M04 A3011 810 78 -900 270/15 RMK AO2 T10111044
04850KAOH AOH20161207234511912/07/16 23:45:31  5-MIN KAOH 080445Z AUTO 27016G20KT 10SM OVC022 M01/M04 A3011 810 78 -900 270/16G20 RMK AO2 T10111044
04850KAOH AOH20161207235013012/07/16 23:50:31  5-MIN KAOH 080450Z AUTO 26016KT 10SM OVC022 M01/M04 A3011 810 78 -900 270/16 RMK AO2 SLP205 T10111044 400171044
04850KAOH AOH20161207235511912/07/16 23:55:31  5-MIN KAOH 080455Z AUTO 27014G24KT 10SM OVC022 M01/M05 A3011 800 75 -900 270/14G24 RMK AO2 T10111050
04850KAOH AOH20161208000012012/08/16 00:00:31  5-MIN KAOH 080500Z AUTO 27014G24KT 10SM OVC022 M02/M05 A3011 800 78 -1000 270/14G24 RMK AO2 T10171050
04850KAOH AOH20161208000512012/08/16 00:05:31  5-MIN KAOH 080505Z AUTO 26017G22KT 10SM OVC022 M02/M05 A3011 810 78 -1000 260/17G22 RMK AO2 T10171050
04850KAOH AOH20161208001011912/08/16 00:10:31  5-MIN KAOH 080510Z AUTO 26014G22KT 10SM OVC022 M02/M05 A3011 810 78 -900 270/14G22 RMK AO2 T10171050
04850KAOH AOH20161208001511312/08/16 00:15:31  5-MIN KAOH 080515Z AUTO 26013KT 10SM OVC022 M02/M05 A3010 810 78 -900 270/13 RMK AO2 T10171050
04850KAOH AOH20161208002011312/08/16 00:20:31  5-MIN KAOH 080520Z AUTO 26015KT 10SM OVC022 M02/M05 A3010 810 78 -900 270/15 RMK AO2 T10171050
04850KAOH AOH20161208002511312/08/16 00:25:31  5-MIN KAOH 080525Z AUTO 27015KT 10SM OVC022 M02/M05 A3010 810 78 -900 270/15 RMK AO2 T10171050
04850KAOH AOH20161208003011312/08/16 00:30:31  5-MIN KAOH 080530Z AUTO 26013KT 10SM BKN023 M02/M05 A3010 810 78 -900 270/13 RMK AO2 T10171050
04850KAOH AOH20161208003511312/08/16 00:35:31  5-MIN KAOH 080535Z AUTO 26014KT 10SM OVC023 M02/M05 A3010 810 78 -900 270/14 RMK AO2 T10171050
04850KAOH AOH20161208004011312/08/16 00:40:31  5-MIN KAOH 080540Z AUTO 26018KT 10SM OVC023 M02/M05 A3010 810 78 -900 270/18 RMK AO2 T10171050
04850KAOH AOH20161208004511312/08/16 00:45:31  5-MIN KAOH 080545Z AUTO 27019KT 10SM BKN023 M02/M06 A3010 810 75 -900 270/19 RMK AO2 T10171056
04850KAOH AOH20161208005013812/08/16 00:50:31  5-MIN KAOH 080550Z AUTO 27018KT 10SM BKN025 M02/M06 A3010 810 75 -900 280/18 RMK AO2 SLP203 T10171056 10000 21017 53001
04850KAOH AOH20161208005511412/08/16 00:55:31  5-MIN KAOH 080555Z AUTO 27014KT 10SM BKN025 M02/M06 A3010 810 78 -1000 270/14 RMK AO2 T10221056
04850KAOH AOH20161208010011412/08/16 01:00:31  5-MIN KAOH 080600Z AUTO 27015KT 10SM SCT025 M02/M06 A3010 810 78 -1000 270/15 RMK AO2 T10221056
04850KAOH AOH20161208010511412/08/16 01:05:31  5-MIN KAOH 080605Z AUTO 27015KT 10SM SCT025 M02/M06 A3010 810 78 -1000 270/15 RMK AO2 T10221056
04850KAOH AOH20161208011011412/08/16 01:10:31  5-MIN KAOH 080610Z AUTO 27013KT 10SM FEW025 M02/M06 A3010 810 78 -1000 270/13 RMK AO2 T10221056
04850KAOH AOH20161208011511112/08/16 01:15:31  5-MIN KAOH 080615Z AUTO 26014KT 10SM CLR M02/M06 A3010 810 78 -1000 270/14 RMK AO2 T10221056
04850KAOH AOH20161208012011112/08/16 01:20:31  5-MIN KAOH 080620Z AUTO 26014KT 10SM CLR M03/M06 A3010 810 81 -1100 270/14 RMK AO2 T10281056
04850KAOH AOH20161208012511112/08/16 01:25:31  5-MIN KAOH 080625Z AUTO 26015KT 10SM CLR M03/M06 A3010 810 81 -1100 270/15 RMK AO2 T10281056
04850KAOH AOH20161208013011112/08/16 01:30:31  5-MIN KAOH 080630Z AUTO 26014KT 10SM CLR M03/M06 A3010 810 81 -1100 270/14 RMK AO2 T10281056
04850KAOH AOH20161208013511412/08/16 01:35:31  5-MIN KAOH 080635Z AUTO 26015KT 10SM FEW110 M03/M06 A3010 810 81 -1100 270/15 RMK AO2 T10281056
04850KAOH AOH20161208014012112/08/16 01:40:31  5-MIN KAOH 080640Z AUTO 26015KT 10SM FEW023 BKN110 M03/M06 A3010 810 81 -1100 270/15 RMK AO2 T10281056
04850KAOH AOH20161208014512112/08/16 01:45:31  5-MIN KAOH 080645Z AUTO 26014KT 10SM SCT023 BKN110 M03/M06 A3010 810 81 -1100 260/14 RMK AO2 T10281056
04850KAOH AOH20161208015011112/08/16 01:50:31  5-MIN KAOH 080650Z AUTO 26013KT 10SM BKN021 BKN110 M03/M06 A3010 810 78 -1100 260/13 RMK AO2
04850KAOH AOH20161208015512812/08/16 01:55:31  5-MIN KAOH 080655Z AUTO 26014KT 10SM BKN019 BKN024 OVC110 M03/M06 A3010 810 78 -1100 260/14 RMK AO2 T10281061
04850KAOH AOH20161208020012112/08/16 02:00:31  5-MIN KAOH 080700Z AUTO 26014KT 10SM BKN021 OVC025 M03/M06 A3010 810 78 -1100 260/14 RMK AO2 T10281061
04850KAOH AOH20161208020512112/08/16 02:05:31  5-MIN KAOH 080705Z AUTO 26013KT 10SM BKN019 OVC024 M03/M06 A3010 810 81 -1100 260/13 RMK AO2 T10281056
04850KAOH AOH20161208021011412/08/16 02:10:31  5-MIN KAOH 080710Z AUTO 26015KT 10SM OVC019 M03/M06 A3010 810 78 -1100 270/15 RMK AO2 T10281061
04850KAOH AOH20161208021512012/08/16 02:15:31  5-MIN KAOH 080715Z AUTO 27016G21KT 10SM OVC021 M03/M07 A3010 810 75 -1100 280/16G21 RMK AO2 T10281067
04850KAOH AOH20161208022012012/08/16 02:20:31  5-MIN KAOH 080720Z AUTO 27017G22KT 10SM BKN021 M03/M07 A3010 810 75 -1100 270/17G22 RMK AO2 T10281067
04850KAOH AOH20161208022512012/08/16 02:25:31  5-MIN KAOH 080725Z AUTO 27015G22KT 10SM BKN022 M03/M07 A3010 810 78 -1200 270/15G22 RMK AO2 T10331067
04850KAOH AOH20161208023012712/08/16 02:30:31  5-MIN KAOH 080730Z AUTO 27015G22KT 10SM BKN022 BKN110 M03/M07 A3010 810 78 -1200 270/15G22 RMK AO2 T10331067
04850KAOH AOH20161208023512112/08/16 02:35:31  5-MIN KAOH 080735Z AUTO 26014KT 10SM BKN022 BKN110 M03/M07 A3010 810 78 -1200 270/14 RMK AO2 T10331067
04850KAOH AOH20161208024012112/08/16 02:40:31  5-MIN KAOH 080740Z AUTO 26016KT 10SM BKN022 BKN100 M03/M07 A3011 810 78 -1200 260/16 RMK AO2 T10331067
04850KAOH AOH20161208024512712/08/16 02:45:31  5-MIN KAOH 080745Z AUTO 26014G22KT 10SM BKN023 BKN100 M03/M07 A3011 810 78 -1200 270/14G22 RMK AO2 T10331067
04850KAOH AOH20161208025013412/08/16 02:50:31  5-MIN KAOH 080750Z AUTO 26014G22KT 10SM BKN023 BKN100 M03/M07 A3011 810 78 -1200 270/14G22 RMK AO2 SLP206 T10331067
04850KAOH AOH20161208025512112/08/16 02:55:31  5-MIN KAOH 080755Z AUTO 27016KT 10SM BKN022 BKN100 M03/M07 A3011 810 78 -1200 270/16 RMK AO2 T10331067
04850KAOH AOH20161208030012112/08/16 03:00:31  5-MIN KAOH 080800Z AUTO 27015KT 10SM BKN022 BKN100 M03/M07 A3011 810 78 -1200 280/15 RMK AO2 T10331067
04850KAOH AOH20161208030511412/08/16 03:05:31  5-MIN KAOH 080805Z AUTO 27012KT 10SM BKN022 M03/M06 A3011 810 81 -1200 270/12 RMK AO2 T10331061
04850KAOH AOH20161208031011412/08/16 03:10:31  5-MIN KAOH 080810Z AUTO 27015KT 10SM BKN021 M03/M06 A3011 810 81 -1200 280/15 RMK AO2 T10331061
04850KAOH AOH20161208031511412/08/16 03:15:31  5-MIN KAOH 080815Z AUTO 27015KT 10SM OVC021 M03/M07 A3011 810 78 -1200 270/15 RMK AO2 T10331067
04850KAOH AOH20161208032012012/08/16 03:20:31  5-MIN KAOH 080820Z AUTO 28013G21KT 10SM OVC021 M03/M07 A3010 810 78 -1200 280/13G21 RMK AO2 T10331067
04850KAOH AOH20161208032512012/08/16 03:25:31  5-MIN KAOH 080825Z AUTO 27014G20KT 10SM OVC021 M03/M07 A3010 810 78 -1200 280/14G20 RMK AO2 T10331067
04850KAOH AOH20161208033011412/08/16 03:30:31  5-MIN KAOH 080830Z AUTO 28014KT 10SM OVC021 M03/M07 A3010 810 78 -1200 290/14 RMK AO2 T10331067
04850KAOH AOH20161208033511412/08/16 03:35:31  5-MIN KAOH 080835Z AUTO 28017KT 10SM OVC021 M03/M07 A3010 810 78 -1200 290/17 RMK AO2 T10331067
04850KAOH AOH20161208034012012/08/16 03:40:31  5-MIN KAOH 080840Z AUTO 27014G22KT 10SM OVC021 M03/M07 A3010 810 78 -1200 270/14G22 RMK AO2 T10331067
04850KAOH AOH20161208034511412/08/16 03:45:31  5-MIN KAOH 080845Z AUTO 26015KT 10SM OVC021 M04/M07 A3010 810 81 -1200 270/15 RMK AO2 T10391067
04850KAOH AOH20161208035012712/08/16 03:50:31  5-MIN KAOH 080850Z AUTO 25016KT 10SM OVC019 M03/M07 A3010 810 78 -1200 260/16 RMK AO2 SLP202 T10331067 50001
04850KAOH AOH20161208035511412/08/16 03:55:31  5-MIN KAOH 080855Z AUTO 26015KT 10SM OVC019 M04/M07 A3010 810 78 -1200 270/15 RMK AO2 T10391072
04850KAOH AOH20161208040011412/08/16 04:00:31  5-MIN KAOH 080900Z AUTO 26019KT 10SM OVC019 M04/M07 A3010 810 78 -1200 270/19 RMK AO2 T10391072
04850KAOH AOH20161208040511412/08/16 04:05:31  5-MIN KAOH 080905Z AUTO 27018KT 10SM OVC019 M04/M07 A3010 810 78 -1200 270/18 RMK AO2 T10391072
04850KAOH AOH20161208041012012/08/16 04:10:31  5-MIN KAOH 080910Z AUTO 26018G23KT 10SM OVC019 M04/M07 A3010 810 78 -1200 260/18G23 RMK AO2 T10391072
04850KAOH AOH20161208041512012/08/16 04:15:31  5-MIN KAOH 080915Z AUTO 25017G23KT 10SM OVC019 M04/M08 A3010 810 74 -1200 260/17G23 RMK AO2 T10391078
04850KAOH AOH20161208042011412/08/16 04:20:31  5-MIN KAOH 080920Z AUTO 25016KT 10SM OVC019 M04/M08 A3010 810 74 -1200 260/16 RMK AO2 T10391078
04850KAOH AOH20161208042511412/08/16 04:25:31  5-MIN KAOH 080925Z AUTO 26015KT 10SM OVC018 M04/M07 A3010 810 78 -1200 260/15 RMK AO2 T10391072
04850KAOH AOH20161208043011412/08/16 04:30:31  5-MIN KAOH 080930Z AUTO 27017KT 10SM OVC018 M04/M07 A3010 810 78 -1200 270/17 RMK AO2 T10391072
04850KAOH AOH20161208043511412/08/16 04:35:31  5-MIN KAOH 080935Z AUTO 26015KT 10SM OVC018 M04/M07 A3010 810 81 -1300 270/15 RMK AO2 T10441072
04850KAOH AOH20161208044012012/08/16 04:40:31  5-MIN KAOH 080940Z AUTO 28017G22KT 10SM OVC018 M04/M07 A3010 810 78 -1200 280/17G22 RMK AO2 T10391072
04850KAOH AOH20161208044512012/08/16 04:45:31  5-MIN KAOH 080945Z AUTO 29015G22KT 10SM OVC018 M04/M08 A3010 810 78 -1300 300/15G22 RMK AO2 T10441078
04850KAOH AOH20161208045012712/08/16 04:50:31  5-MIN KAOH 080950Z AUTO 28013G22KT 10SM OVC020 M04/M08 A3010 810 78 -1300 290/13G22 RMK AO2 SLP204 T10441078
04850KAOH AOH20161208045512012/08/16 04:55:31  5-MIN KAOH 080955Z AUTO 28018G23KT 10SM OVC020 M04/M08 A3010 810 78 -1300 280/18G23 RMK AO2 T10441078
04850KAOH AOH20161208050012012/08/16 05:00:31  5-MIN KAOH 081000Z AUTO 28014G23KT 10SM OVC020 M04/M08 A3010 810 78 -1300 290/14G23 RMK AO2 T10441078
04850KAOH AOH20161208050512012/08/16 05:05:31  5-MIN KAOH 081005Z AUTO 27016G21KT 10SM OVC020 M04/M08 A3010 810 78 -1300 280/16G21 RMK AO2 T10441078
04850KAOH AOH20161208051012012/08/16 05:10:31  5-MIN KAOH 081010Z AUTO 27019G24KT 10SM OVC020 M04/M08 A3011 810 78 -1300 280/19G24 RMK AO2 T10441078
04850KAOH AOH20161208051512012/08/16 05:15:31  5-MIN KAOH 081015Z AUTO 28018G24KT 10SM OVC020 M04/M08 A3011 800 78 -1300 290/18G24 RMK AO2 T10441078
04850KAOH AOH20161208052013812/08/16 05:20:31  5-MIN KAOH 081020Z AUTO 28020G27KT 10SM OVC020 M04/M08 A3011 800 78 -1300 290/20G27 RMK AO2 PK WND 28027/1017 T10441078
04850KAOH AOH20161208052513812/08/16 05:25:31  5-MIN KAOH 081025Z AUTO 27019G28KT 10SM OVC020 M04/M08 A3011 800 78 -1300 280/19G28 RMK AO2 PK WND 28028/1022 T10441078
04850KAOH AOH20161208053013812/08/16 05:30:31  5-MIN KAOH 081030Z AUTO 28016G30KT 10SM OVC020 M04/M08 A3011 800 78 -1300 290/16G30 RMK AO2 PK WND 29030/1027 T10441078
04850KAOH AOH20161208053513812/08/16 05:35:31  5-MIN KAOH 081035Z AUTO 27015G30KT 10SM OVC020 M04/M08 A3011 800 78 -1300 280/15G30 RMK AO2 PK WND 29030/1027 T10441078
04850KAOH AOH20161208054013812/08/16 05:40:31  5-MIN KAOH 081040Z AUTO 28019G23KT 10SM OVC020 M04/M08 A3011 800 78 -1300 290/19G23 RMK AO2 PK WND 29030/1027 T10441078
04850KAOH AOH20161208054513812/08/16 05:45:31  5-MIN KAOH 081045Z AUTO 27019G24KT 10SM OVC020 M04/M08 A3012 790 78 -1300 270/19G24 RMK AO2 PK WND 29030/1027 T10441078
04850KAOH AOH20161208055014512/08/16 05:50:31  5-MIN KAOH 081050Z AUTO 29019G24KT 10SM OVC020 M05/M08 A3012 790 77 -1400 300/19G24 RMK AO2 PK WND 29030/1027 SLP211 T10501083
04850KAOH AOH20161208055512012/08/16 05:55:31  5-MIN KAOH 081055Z AUTO 29016G24KT 10SM OVC020 M05/M08 A3012 790 77 -1400 300/16G24 RMK AO2 T10501083
04850KAOH AOH20161208060011412/08/16 06:00:31  5-MIN KAOH 081100Z AUTO 28015KT 10SM OVC020 M05/M08 A3012 790 77 -1400 290/15 RMK AO2 T10501083
04850KAOH AOH20161208060511412/08/16 06:05:31  5-MIN KAOH 081105Z AUTO 28015KT 10SM OVC020 M05/M08 A3012 790 77 -1400 290/15 RMK AO2 T10501083
04850KAOH AOH20161208061012012/08/16 06:10:31  5-MIN KAOH 081110Z AUTO 29018G22KT 10SM OVC020 M05/M08 A3012 790 77 -1400 300/18G22 RMK AO2 T10501083
04850KAOH AOH20161208061512012/08/16 06:15:31  5-MIN KAOH 081115Z AUTO 29015G22KT 10SM OVC020 M05/M08 A3013 790 77 -1400 290/15G22 RMK AO2 T10501083
04850KAOH AOH20161208062011412/08/16 06:20:31  5-MIN KAOH 081120Z AUTO 28016KT 10SM OVC020 M05/M08 A3013 790 77 -1400 290/16 RMK AO2 T10501083
04850KAOH AOH20161208062512012/08/16 06:25:31  5-MIN KAOH 081125Z AUTO 28015G24KT 10SM OVC020 M05/M08 A3013 790 77 -1400 280/15G24 RMK AO2 T10501083
04850KAOH AOH20161208063012012/08/16 06:30:31  5-MIN KAOH 081130Z AUTO 28012G24KT 10SM OVC020 M05/M08 A3013 780 77 -1400 280/12G24 RMK AO2 T10501083
04850KAOH AOH20161208063511412/08/16 06:35:31  5-MIN KAOH 081135Z AUTO 28011KT 10SM OVC020 M05/M08 A3013 780 77 -1400 290/11 RMK AO2 T10501083
04850KAOH AOH20161208064011412/08/16 06:40:31  5-MIN KAOH 081140Z AUTO 28013KT 10SM OVC020 M05/M08 A3013 780 77 -1400 290/13 RMK AO2 T10501083
04850KAOH AOH20161208064511412/08/16 06:45:31  5-MIN KAOH 081145Z AUTO 28016KT 10SM OVC020 M05/M08 A3013 780 77 -1400 280/16 RMK AO2 T10501083
04850KAOH AOH20161208065013912/08/16 06:50:31  5-MIN KAOH 081150Z AUTO 27015KT 10SM OVC019 M04/M08 A3013 780 78 -1300 280/15 RMK AO2 SLP215 T10441078 11022 21050 58001
04850KAOH AOH20161208065511412/08/16 06:55:31  5-MIN KAOH 081155Z AUTO 26018KT 10SM OVC019 M04/M08 A3013 780 78 -1300 270/18 RMK AO2 T10441078
04850KAOH AOH20161208070011412/08/16 07:00:31  5-MIN KAOH 081200Z AUTO 27016KT 10SM OVC019 M04/M08 A3013 780 78 -1300 280/16 RMK AO2 T10441078
04850KAOH AOH20161208070511412/08/16 07:05:31  5-MIN KAOH 081205Z AUTO 27021KT 10SM OVC019 M04/M08 A3013 780 78 -1300 270/21 RMK AO2 T10441078
04850KAOH AOH20161208071013812/08/16 07:10:31  5-MIN KAOH 081210Z AUTO 28021G26KT 10SM OVC019 M05/M08 A3013 780 77 -1400 280/21G26 RMK AO2 PK WND 28026/1210 T10501083
04850KAOH AOH20161208071513812/08/16 07:15:31  5-MIN KAOH 081215Z AUTO 27018G26KT 10SM OVC021 M05/M08 A3014 780 77 -1400 280/18G26 RMK AO2 PK WND 28026/1211 T10501083
04850KAOH AOH20161208072013812/08/16 07:20:31  5-MIN KAOH 081220Z AUTO 27021G26KT 10SM OVC021 M05/M08 A3014 780 77 -1400 280/21G26 RMK AO2 PK WND 27026/1217 T10501083
04850KAOH AOH20161208072513812/08/16 07:25:31  5-MIN KAOH 081225Z AUTO 27018G26KT 10SM OVC021 M05/M08 A3013 780 77 -1400 280/18G26 RMK AO2 PK WND 27026/1217 T10501083
04850KAOH AOH20161208073013812/08/16 07:30:31  5-MIN KAOH 081230Z AUTO 27016G25KT 10SM OVC021 M04/M08 A3014 780 74 -1300 280/16G25 RMK AO2 PK WND 27026/1217 T10441083
04850KAOH AOH20161208073513212/08/16 07:35:31  5-MIN KAOH 081235Z AUTO 26015KT 10SM OVC021 M04/M08 A3014 780 74 -1300 270/15 RMK AO2 PK WND 27026/1217 T10441083
04850KAOH AOH20161208074013812/08/16 07:40:31  5-MIN KAOH 081240Z AUTO 26019G23KT 10SM OVC021 M05/M08 A3014 780 77 -1400 270/19G23 RMK AO2 PK WND 27026/1217 T10501083
04850KAOH AOH20161208074513212/08/16 07:45:31  5-MIN KAOH 081245Z AUTO 26016KT 10SM OVC021 M05/M08 A3014 780 77 -1400 270/16 RMK AO2 PK WND 27026/1217 T10501083
04850KAOH AOH20161208075013912/08/16 07:50:31  5-MIN KAOH 081250Z AUTO 27015KT 10SM OVC021 M05/M08 A3014 780 77 -1400 270/15 RMK AO2 PK WND 27026/1217 SLP217 T10501083
04850KAOH AOH20161208075511412/08/16 07:55:31  5-MIN KAOH 081255Z AUTO 26015KT 10SM OVC021 M04/M08 A3014 780 74 -1300 270/15 RMK AO2 T10441083
04850KAOH AOH20161208080013812/08/16 08:00:31  5-MIN KAOH 081300Z AUTO 26020G26KT 10SM OVC021 M05/M08 A3014 780 77 -1400 270/20G26 RMK AO2 PK WND 26026/1300 T10501083
04850KAOH AOH20161208080513812/08/16 08:05:31  5-MIN KAOH 081305Z AUTO 26017G26KT 10SM OVC021 M04/M08 A3014 780 74 -1300 270/17G26 RMK AO2 PK WND 26026/1300 T10441083
04850KAOH AOH20161208081013212/08/16 08:10:31  5-MIN KAOH 081310Z AUTO 27016KT 10SM OVC021 M04/M08 A3014 780 74 -1300 270/16 RMK AO2 PK WND 26026/1300 T10441083
04850KAOH AOH20161208081513212/08/16 08:15:31  5-MIN KAOH 081315Z AUTO 25015KT 10SM OVC021 M04/M08 A3014 770 74 -1300 260/15 RMK AO2 PK WND 26026/1300 T10441083
04850KAOH AOH20161208082013812/08/16 08:20:31  5-MIN KAOH 081320Z AUTO 27016G21KT 10SM OVC021 M05/M08 A3014 770 77 -1400 270/16G21 RMK AO2 PK WND 26026/1300 T10501083
04850KAOH AOH20161208082513812/08/16 08:25:31  5-MIN KAOH 081325Z AUTO 26019G24KT 10SM OVC023 M04/M08 A3014 770 74 -1300 270/19G24 RMK AO2 PK WND 26026/1300 T10441083
04850KAOH AOH20161208083013812/08/16 08:30:31  5-MIN KAOH 081330Z AUTO 26018G24KT 10SM OVC023 M04/M08 A3014 770 74 -1300 270/18G24 RMK AO2 PK WND 26026/1300 T10441083
04850KAOH AOH20161208083513212/08/16 08:35:31  5-MIN KAOH 081335Z AUTO 26012KT 10SM OVC023 M04/M08 A3014 770 74 -1300 270/12 RMK AO2 PK WND 26026/1300 T10441083
04850KAOH AOH20161208084013212/08/16 08:40:31  5-MIN KAOH 081340Z AUTO 26013KT 10SM OVC023 M04/M08 A3015 770 74 -1300 270/13 RMK AO2 PK WND 26026/1300 T10441083
04850KAOH AOH20161208084513212/08/16 08:45:31  5-MIN KAOH 081345Z AUTO 25014KT 10SM OVC023 M04/M08 A3015 770 78 -1300 260/14 RMK AO2 PK WND 26026/1300 T10441078
04850KAOH AOH20161208085013912/08/16 08:50:31  5-MIN KAOH 081350Z AUTO 26014KT 10SM OVC023 M04/M08 A3015 770 78 -1400 260/14 RMK AO2 PK WND 26026/1300 SLP221 T10441078
04850KAOH AOH20161208085512112/08/16 08:55:31  5-MIN KAOH 081355Z AUTO 26014KT 10SM BKN020 OVC025 M04/M08 A3015 770 78 -1400 260/14 RMK AO2 T10441078
04850KAOH AOH20161208090011412/08/16 09:00:31  5-MIN KAOH 081400Z AUTO 26015KT 10SM OVC020 M04/M08 A3015 760 78 -1400 270/15 RMK AO2 T10441078
04850KAOH AOH20161208090511412/08/16 09:05:31  5-MIN KAOH 081405Z AUTO 26016KT 10SM OVC020 M04/M08 A3015 760 78 -1400 270/16 RMK AO2 T10441078
04850KAOH AOH20161208091012012/08/16 09:10:31  5-MIN KAOH 081410Z AUTO 25018G24KT 10SM OVC020 M04/M08 A3015 760 78 -1400 260/18G24 RMK AO2 T10441078
04850KAOH AOH20161208091512012/08/16 09:15:31  5-MIN KAOH 081415Z AUTO 25019G24KT 10SM OVC020 M04/M08 A3016 760 74 -1400 260/19G24 RMK AO2 T10441083
04850KAOH AOH20161208092013812/08/16 09:20:31  5-MIN KAOH 081420Z AUTO 26023G28KT 10SM OVC020 M04/M08 A3016 760 74 -1400 270/23G28 RMK AO2 PK WND 26028/1419 T10441083
04850KAOH AOH20161208092513812/08/16 09:25:31  5-MIN KAOH 081425Z AUTO 28014G28KT 10SM OVC022 M04/M09 A3016 760 71 -1400 280/14G28 RMK AO2 PK WND 26028/1419 T10441089
04850KAOH AOH20161208093013812/08/16 09:30:31  5-MIN KAOH 081430Z AUTO 27012G23KT 10SM OVC022 M04/M08 A3016 760 74 -1400 280/12G23 RMK AO2 PK WND 26028/1419 T10441083
04850KAOH AOH20161208093513812/08/16 09:35:31  5-MIN KAOH 081435Z AUTO 27016G23KT 10SM OVC022 M04/M08 A3016 750 74 -1400 280/16G23 RMK AO2 PK WND 26028/1419 T10441083
04850KAOH AOH20161208094013212/08/16 09:40:31  5-MIN KAOH 081440Z AUTO 26017KT 10SM OVC022 M04/M08 A3016 750 74 -1400 270/17 RMK AO2 PK WND 26028/1419 T10441083
04850KAOH AOH20161208094513212/08/16 09:45:31  5-MIN KAOH 081445Z AUTO 27016KT 10SM OVC022 M04/M08 A3017 750 74 -1400 270/16 RMK AO2 PK WND 26028/1419 T10441083
04850KAOH AOH20161208095014512/08/16 09:50:31  5-MIN KAOH 081450Z AUTO 26015KT 10SM OVC022 M04/M08 A3017 750 74 -1400 270/15 RMK AO2 PK WND 26028/1419 SLP227 T10441083 53011
04850KAOH AOH20161208095512012/08/16 09:55:31  5-MIN KAOH 081455Z AUTO 26017G22KT 10SM OVC022 M04/M08 A3017 750 74 -1400 260/17G22 RMK AO2 T10441083
04850KAOH AOH20161208100011412/08/16 10:00:31  5-MIN KAOH 081500Z AUTO 26019KT 10SM OVC022 M04/M08 A3017 750 74 -1400 270/19 RMK AO2 T10441083
04850KAOH AOH20161208100511412/08/16 10:05:31  5-MIN KAOH 081505Z AUTO 26017KT 10SM OVC022 M04/M08 A3017 740 74 -1400 260/17 RMK AO2 T10441083
04850KAOH AOH20161208101013612/08/16 10:10:31  5-MIN KAOH 081510Z AUTO 25020G24KT 10SM -SN OVC022 M04/M08 A3017 740 74 -1400 260/20G24 RMK AO2 SNB07 P0000 T10441083
04850KAOH AOH20161208101515312/08/16 10:15:31  5-MIN KAOH 081515Z AUTO 25018G26KT 9SM -SN OVC022 M04/M08 A3018 740 74 -1400 260/18G26 RMK AO2 PK WND 25026/1515 SNB07 P0000 T10441083
04850KAOH AOH20161208102015312/08/16 10:20:31  5-MIN KAOH 081520Z AUTO 27016G26KT 8SM -SN OVC022 M04/M08 A3018 740 78 -1400 270/16G26 RMK AO2 PK WND 25026/1515 SNB07 P0000 T10441078
04850KAOH AOH20161208102515312/08/16 10:25:31  5-MIN KAOH 081525Z AUTO 26019G23KT 8SM -SN OVC021 M04/M08 A3018 740 78 -1400 260/19G23 RMK AO2 PK WND 25026/1515 SNB07 P0000 T10441078
04850KAOH AOH20161208103015312/08/16 10:30:31  5-MIN KAOH 081530Z AUTO 26020G25KT 8SM -SN OVC021 M04/M08 A3018 730 78 -1400 260/20G25 RMK AO2 PK WND 25026/1515 SNB07 P0000 T10441078
04850KAOH AOH20161208103515312/08/16 10:35:31  5-MIN KAOH 081535Z AUTO 26022G27KT 5SM -SN OVC021 M04/M08 A3019 730 78 -1400 270/22G27 RMK AO2 PK WND 26027/1534 SNB07 P0000 T10441078
04850KAOH AOH20161208104015312/08/16 10:40:31  5-MIN KAOH 081540Z AUTO 26021G27KT 3SM -SN OVC020 M05/M08 A3019 720 81 -1500 270/21G27 RMK AO2 PK WND 26027/1534 SNB07 P0000 T10501078
04850KAOH AOH20161208104515112/08/16 10:45:31  5-MIN KAOH 081545Z AUTO 26021KT 2 1/2SM -SN OVC020 M05/M08 A3020 720 81 -1500 260/21 RMK AO2 PK WND 26027/1534 SNB07 P0000 T10501078
04850KAOH AOH20161208105016112/08/16 10:50:31  5-MIN KAOH 081550Z AUTO 26020KT 2 1/2SM -SN BR OVC020 M06/M08 A3020 720 84 -1600 270/20 RMK AO2 PK WND 26027/1534 SNB07 SLP241 P0000 T10561078
04850KAOH AOH20161208105512312/08/16 10:55:31  5-MIN KAOH 081555Z AUTO 27017KT 2SM -SN OVC020 M05/M08 A3020 720 81 -1500 280/17 RMK AO2 P0000 T10501078
04850KAOH AOH20161208110013012/08/16 11:00:31  5-MIN KAOH 081600Z AUTO 27018KT 1 1/2SM -SN BR OVC019 M06/M07 A3020 720 88 -1600 270/18 RMK AO2 P0000 T10561072
04850KAOH AOH20161208110513012/08/16 11:05:31  5-MIN KAOH 081605Z AUTO 27017KT 1 1/2SM -SN BR OVC019 M06/M07 A3021 710 88 -1600 270/17 RMK AO2 P0000 T10561072
04850KAOH AOH20161208111013012/08/16 11:10:31  5-MIN KAOH 081610Z AUTO 27017KT 2 1/2SM -SN BR OVC019 M06/M08 A3021 710 84 -1600 270/17 RMK AO2 P0000 T10561078
04850KAOH AOH20161208111513912/08/16 11:15:31  5-MIN KAOH 081615Z AUTO 27014G22KT 3SM -SN BR BKN017 OVC023 M06/M07 A3021 710 88 -1600 280/14G22 RMK AO2 P0000 T10561072
04850KAOH AOH20161208112014312/08/16 11:20:31  5-MIN KAOH 081620Z AUTO 27016G21KT 1 1/2SM -SN BR BKN017 OVC023 M06/M08 A3021 710 84 -1600 280/16G21 RMK AO2 P0000 T10561078
04850KAOH AOH20161208112513712/08/16 11:25:31  5-MIN KAOH 081625Z AUTO 27018KT 1 1/4SM -SN BR BKN017 OVC023 M06/M07 A3021 710 88 -1600 270/18 RMK AO2 P0000 T10561072
04850KAOH AOH20161208113013712/08/16 11:30:31  5-MIN KAOH 081630Z AUTO 26018KT 1 1/2SM -SN BR BKN017 OVC025 M06/M08 A3021 710 84 -1600 270/18 RMK AO2 P0000 T10561078
04850KAOH AOH20161208113514412/08/16 11:35:31  5-MIN KAOH 081635Z AUTO 27017KT 1 1/2SM -SN BR BKN015 BKN022 OVC026 M06/M08 A3021 710 84 -1600 270/17 RMK AO2 P0000 T10561078
04850KAOH AOH20161208114013712/08/16 11:40:31  5-MIN KAOH 081640Z AUTO 28015KT 1 1/4SM -SN BR BKN017 OVC024 M06/M08 A3021 710 84 -1600 280/15 RMK AO2 P0000 T10561078
04850KAOH AOH20161208114513712/08/16 11:45:31  5-MIN KAOH 081645Z AUTO 27015KT 1 1/2SM -SN BR BKN017 OVC025 M06/M08 A3021 710 84 -1600 270/15 RMK AO2 P0000 T10561078
04850KAOH AOH20161208115013712/08/16 11:50:31  5-MIN KAOH 081650Z AUTO 26017KT 3SM -SN BKN017 OVC023 M06/M08 A3021 710 81 -1600 270/17 RMK AO2 SLP243 P0000 T10561083
04850KAOH AOH20161208115513612/08/16 11:55:31  5-MIN KAOH 081655Z AUTO 26019G25KT 6SM -SN BKN017 OVC026 M06/M08 A3021 710 81 -1600 270/19G25 RMK AO2 P0000 T10561083
04850KAOH AOH20161208120014312/08/16 12:00:31  5-MIN KAOH 081700Z AUTO 27017G25KT 6SM -SN FEW015 BKN022 OVC028 M06/M08 A3021 710 81 -1600 270/17G25 RMK AO2 P0000 T10561083
04850KAOH AOH20161208120513012/08/16 12:05:31  5-MIN KAOH 081705Z AUTO 27019KT 5SM -SN FEW016 OVC026 M06/M08 A3020 720 81 -1600 280/19 RMK AO2 P0000 T10561083
04850KAOH AOH20161208121013012/08/16 12:10:31  5-MIN KAOH 081710Z AUTO 28017KT 5SM -SN SCT020 OVC026 M06/M08 A3021 710 81 -1600 280/17 RMK AO2 P0000 T10561083
04850KAOH AOH20161208121512312/08/16 12:15:31  5-MIN KAOH 081715Z AUTO 26019KT 4SM -SN OVC024 M06/M08 A3020 720 81 -1600 270/19 RMK AO2 P0000 T10561083
04850KAOH AOH20161208122012312/08/16 12:20:31  5-MIN KAOH 081720Z AUTO 26021KT 5SM -SN OVC026 M06/M08 A3020 720 81 -1600 270/21 RMK AO2 P0000 T10561083
04850KAOH AOH20161208122513012/08/16 12:25:31  5-MIN KAOH 081725Z AUTO 26016KT 4SM -SN FEW022 OVC026 M06/M09 A3020 720 77 -1600 270/16 RMK AO2 P0000 T10561089
04850KAOH AOH20161208123012912/08/16 12:30:31  5-MIN KAOH 081730Z AUTO 27016G22KT 5SM -SN OVC026 M06/M09 A3020 720 77 -1600 270/16G22 RMK AO2 P0000 T10561089
04850KAOH AOH20161208123513612/08/16 12:35:31  5-MIN KAOH 081735Z AUTO 26018G23KT 5SM -SN BKN022 OVC026 M06/M09 A3021 720 77 -1600 260/18G23 RMK AO2 P0000 T10561089
04850KAOH AOH20161208124013012/08/16 12:40:31  5-MIN KAOH 081740Z AUTO 27018KT 6SM -SN BKN022 OVC027 M06/M09 A3021 710 77 -1600 270/18 RMK AO2 P0000 T10561089
04850KAOH AOH20161208124513012/08/16 12:45:31  5-MIN KAOH 081745Z AUTO 26019KT 6SM -SN BKN022 OVC027 M06/M09 A3021 710 77 -1600 260/19 RMK AO2 P0000 T10561089
04850KAOH AOH20161208125016112/08/16 12:50:31  5-MIN KAOH 081750Z AUTO 26015KT 5SM -SN BKN022 OVC027 M06/M08 A3021 710 81 -1600 270/15 RMK AO2 SLP242 P0000 60000 T10561083 11044 21056 53013
04850KAOH AOH20161208125512912/08/16 12:55:31  5-MIN KAOH 081755Z AUTO 26016G25KT 7SM -SN OVC024 M06/M09 A3020 720 77 -1600 260/16G25 RMK AO2 P0000 T10561089
04850KAOH AOH20161208130013312/08/16 13:00:31  5-MIN KAOH 081800Z AUTO 25016G25KT 9SM OVC024 M05/M09 A3020 720 74 -1500 250/16G25 RMK AO2 SNE1759 P0000 T10501089
04850KAOH AOH20161208130513412/08/16 13:05:31  5-MIN KAOH 081805Z AUTO 25019G24KT 10SM OVC024 M06/M09 A3021 710 77 -1600 260/19G24 RMK AO2 SNE1759 P0000 T10561089
04850KAOH AOH20161208131012912/08/16 13:10:31  5-MIN KAOH 081810Z AUTO 26016G24KT 9SM -SN OVC024 M06/M09 A3021 710 77 -1600 270/16G24 RMK AO2 P0000 T10561089
04850KAOH AOH20161208131512312/08/16 13:15:31  5-MIN KAOH 081815Z AUTO 26017KT 9SM -SN OVC024 M06/M09 A3021 710 77 -1600 270/17 RMK AO2 P0000 T10561089
04850KAOH AOH20161208132012512/08/16 13:20:31  5-MIN KAOH 081820Z AUTO 26017KT 9SM OVC024 M05/M09 A3021 710 74 -1500 270/17 RMK AO2 SNE17 P0000 T10501089
04850KAOH AOH20161208132513212/08/16 13:25:31  5-MIN KAOH 081825Z AUTO 26018G23KT 10SM OVC025 M05/M09 A3021 710 71 -1500 270/18G23 RMK AO2 SNE17 P0000 T10501094
04850KAOH AOH20161208133015012/08/16 13:30:31  5-MIN KAOH 081830Z AUTO 27019G28KT 10SM OVC025 M05/M09 A3021 710 71 -1500 280/19G28 RMK AO2 PK WND 27028/1827 SNE17 P0000 T10501094
04850KAOH AOH20161208133515012/08/16 13:35:31  5-MIN KAOH 081835Z AUTO 28018G28KT 10SM OVC025 M05/M09 A3021 710 74 -1500 290/18G28 RMK AO2 PK WND 27028/1827 SNE17 P0000 T10501089
04850KAOH AOH20161208134015012/08/16 13:40:31  5-MIN KAOH 081840Z AUTO 27015G23KT 10SM OVC025 M05/M09 A3021 710 74 -1500 280/15G23 RMK AO2 PK WND 27028/1827 SNE17 P0000 T10501089
04850KAOH AOH20161208134515012/08/16 13:45:31  5-MIN KAOH 081845Z AUTO 27020G25KT 10SM OVC025 M05/M09 A3021 710 74 -1500 270/20G25 RMK AO2 PK WND 27028/1827 SNE17 P0000 T10501089
04850KAOH AOH20161208135015712/08/16 13:50:31  5-MIN KAOH 081850Z AUTO 26021G25KT 10SM OVC025 M05/M09 A3021 710 71 -1500 270/21G25 RMK AO2 PK WND 27028/1827 SNE17 SLP243 P0000 T10501094
04850KAOH AOH20161208135511412/08/16 13:55:31  5-MIN KAOH 081855Z AUTO 26018KT 10SM OVC025 M05/M09 A3021 710 71 -1500 270/18 RMK AO2 T10501094
04850KAOH AOH20161208140011412/08/16 14:00:31  5-MIN KAOH 081900Z AUTO 27016KT 10SM OVC025 M05/M09 A3021 710 74 -1500 270/16 RMK AO2 T10501089
04850KAOH AOH20161208140513012/08/16 14:05:31  5-MIN KAOH 081905Z AUTO 26017KT 10SM -SN OVC025 M05/M09 A3021 710 74 -1500 270/17 RMK AO2 SNB04 P0000 T10501089
04850KAOH AOH20161208141012912/08/16 14:10:31  5-MIN KAOH 081910Z AUTO 26019KT 9SM -SN OVC025 M05/M09 A3021 710 74 -1500 270/19 RMK AO2 SNB04 P0000 T10501089
04850KAOH AOH20161208141512812/08/16 14:15:31  5-MIN KAOH 081915Z AUTO 27015KT 9SM OVC025 M05/M09 A3021 710 74 -1500 280/15 RMK AO2 SNB04E14 P0000 T10501089
04850KAOH AOH20161208142012912/08/16 14:20:31  5-MIN KAOH 081920Z AUTO 27016KT 10SM OVC025 M05/M09 A3021 710 74 -1500 280/16 RMK AO2 SNB04E14 P0000 T10501089
04850KAOH AOH20161208142512912/08/16 14:25:31  5-MIN KAOH 081925Z AUTO 26016KT 10SM OVC025 M05/M08 A3022 700 77 -1500 260/16 RMK AO2 SNB04E14 P0000 T10501083
04850KAOH AOH20161208143013612/08/16 14:30:31  5-MIN KAOH 081930Z AUTO 26015G22KT 10SM -SN OVC025 M05/M08 A3022 700 77 -1500 260/15G22 RMK AO2 SNB04 P0000 T10501083
04850KAOH AOH20161208143512912/08/16 14:35:31  5-MIN KAOH 081935Z AUTO 26017KT 7SM -SN OVC023 M05/M08 A3022 700 77 -1500 270/17 RMK AO2 SNB04 P0000 T10501083
04850KAOH AOH20161208144012912/08/16 14:40:31  5-MIN KAOH 081940Z AUTO 27016KT 4SM -SN OVC023 M05/M08 A3022 700 81 -1500 270/16 RMK AO2 SNB04 P0000 T10501078
04850KAOH AOH20161208144513512/08/16 14:45:31  5-MIN KAOH 081945Z AUTO 26020G24KT 4SM -SN OVC022 M05/M08 A3022 700 81 -1500 270/20G24 RMK AO2 SNB04 P0000 T10501078
04850KAOH AOH20161208145014212/08/16 14:50:31  5-MIN KAOH 081950Z AUTO 27016G24KT 4SM -SN OVC022 M05/M08 A3023 700 77 -1500 270/16G24 RMK AO2 SNB04 SLP249 P0000 T10501083
04850KAOH AOH20161208145512312/08/16 14:55:31  5-MIN KAOH 081955Z AUTO 27015KT 7SM -SN OVC022 M05/M08 A3023 690 77 -1500 280/15 RMK AO2 P0000 T10501083
04850KAOH AOH20161208150013612/08/16 15:00:31  5-MIN KAOH 082000Z AUTO 28019G24KT 9SM -SN BKN021 OVC027 M05/M08 A3023 690 77 -1500 290/19G24 RMK AO2 P0000 T10501083
04850KAOH AOH20161208150512912/08/16 15:05:31  5-MIN KAOH 082005Z AUTO 27017G24KT 9SM -SN OVC024 M05/M09 A3023 690 74 -1500 270/17G24 RMK AO2 P0000 T10501089
04850KAOH AOH20161208151012912/08/16 15:10:31  5-MIN KAOH 082010Z AUTO 28017G24KT 9SM -SN OVC024 M05/M08 A3023 690 77 -1500 290/17G24 RMK AO2 P0000 T10501083
04850KAOH AOH20161208151512912/08/16 15:15:31  5-MIN KAOH 082015Z AUTO 27018G23KT 9SM -SN OVC024 M05/M08 A3023 690 77 -1500 280/18G23 RMK AO2 P0000 T10501083
04850KAOH AOH20161208152012312/08/16 15:20:31  5-MIN KAOH 082020Z AUTO 27017KT 9SM -SN OVC024 M05/M08 A3024 680 77 -1500 270/17 RMK AO2 P0000 T10501083
04850KAOH AOH20161208152512312/08/16 15:25:31  5-MIN KAOH 082025Z AUTO 27019KT 8SM -SN OVC024 M05/M09 A3024 680 74 -1500 280/19 RMK AO2 P0000 T10501089
04850KAOH AOH20161208153012312/08/16 15:30:31  5-MIN KAOH 082030Z AUTO 28019KT 6SM -SN OVC025 M05/M09 A3024 680 74 -1500 280/19 RMK AO2 P0000 T10501089
04850KAOH AOH20161208153512312/08/16 15:35:31  5-MIN KAOH 082035Z AUTO 27016KT 7SM -SN OVC025 M05/M09 A3024 680 74 -1500 280/16 RMK AO2 P0000 T10501089
04850KAOH AOH20161208154012312/08/16 15:40:31  5-MIN KAOH 082040Z AUTO 28014KT 8SM -SN OVC025 M05/M09 A3025 680 74 -1500 280/14 RMK AO2 P0000 T10501089
04850KAOH AOH20161208154512912/08/16 15:45:31  5-MIN KAOH 082045Z AUTO 27018G24KT 8SM -SN OVC025 M05/M08 A3025 680 77 -1500 280/18G24 RMK AO2 P0000 T10501083
04850KAOH AOH20161208155014812/08/16 15:50:31  5-MIN KAOH 082050Z AUTO 28017G24KT 8SM -SN OVC025 M05/M09 A3025 670 74 -1500 290/17G24 RMK AO2 SLP257 P0000 60000 T10501089 50001
04850KAOH AOH20161208155513012/08/16 15:55:31  5-MIN KAOH 082055Z AUTO 28019KT 9SM -SN BKN024 OVC029 M05/M09 A3025 670 71 -1500 290/19 RMK AO2 P0000 T10501094
04850KAOH AOH20161208160013612/08/16 16:00:31  5-MIN KAOH 082100Z AUTO 29014G23KT 8SM -SN BKN026 OVC030 M05/M09 A3026 670 74 -1500 300/14G23 RMK AO2 P0000 T10501089
04850KAOH AOH20161208160513612/08/16 16:05:31  5-MIN KAOH 082105Z AUTO 29016G23KT 9SM -SN BKN026 OVC030 M06/M09 A3026 670 77 -1600 300/16G23 RMK AO2 P0000 T10561089
04850KAOH AOH20161208161012312/08/16 16:10:31  5-MIN KAOH 082110Z AUTO 28015KT 9SM -SN OVC024 M06/M09 A3026 670 77 -1600 290/15 RMK AO2 P0000 T10561089
04850KAOH AOH20161208161512312/08/16 16:15:31  5-MIN KAOH 082115Z AUTO 29014KT 9SM -SN OVC024 M06/M09 A3026 670 77 -1600 300/14 RMK AO2 P0000 T10561089
04850KAOH AOH20161208162012312/08/16 16:20:31  5-MIN KAOH 082120Z AUTO 29015KT 6SM -SN OVC024 M06/M09 A3026 660 77 -1600 290/15 RMK AO2 P0000 T10561089
04850KAOH AOH20161208162512312/08/16 16:25:31  5-MIN KAOH 082125Z AUTO 28012KT 6SM -SN OVC024 M06/M09 A3026 660 77 -1600 290/12 RMK AO2 P0000 T10561089
04850KAOH AOH20161208163012312/08/16 16:30:31  5-MIN KAOH 082130Z AUTO 29016KT 9SM -SN OVC024 M06/M09 A3027 660 74 -1600 300/16 RMK AO2 P0000 T10561094
04850KAOH AOH20161208163512312/08/16 16:35:31  5-MIN KAOH 082135Z AUTO 29015KT 9SM -SN OVC024 M06/M09 A3027 660 74 -1600 290/15 RMK AO2 P0000 T10561094
04850KAOH AOH20161208164012312/08/16 16:40:31  5-MIN KAOH 082140Z AUTO 29016KT 9SM -SN OVC024 M06/M09 A3027 650 74 -1600 290/16 RMK AO2 P0000 T10561094
04850KAOH AOH20161208164512312/08/16 16:45:31  5-MIN KAOH 082145Z AUTO 27016KT 9SM -SN OVC024 M06/M09 A3027 650 74 -1600 280/16 RMK AO2 P0000 T10561094
04850KAOH AOH20161208165013612/08/16 16:50:31  5-MIN KAOH 082150Z AUTO 28015G22KT 9SM -SN OVC026 M06/M09 A3027 650 74 -1600 290/15G22 RMK AO2 SLP265 P0000 T10561094
04850KAOH AOH20161208165512512/08/16 16:55:31  5-MIN KAOH 082155Z AUTO 28014KT 9SM OVC026 M06/M09 A3027 650 74 -1600 290/14 RMK AO2 SNE55 P0000 T10561094
04850KAOH AOH20161208170012312/08/16 17:00:31  5-MIN KAOH 082200Z AUTO 28011KT 8SM -SN OVC026 M06/M09 A3028 650 74 -1600 280/11 RMK AO2 P0000 T10561094
04850KAOH AOH20161208170513612/08/16 17:05:31  5-MIN KAOH 082205Z AUTO 27015G21KT 7SM -SN BKN022 OVC029 M06/M09 A3028 650 77 -1600 270/15G21 RMK AO2 P0000 T10561089
04850KAOH AOH20161208171013612/08/16 17:10:31  5-MIN KAOH 082210Z AUTO 27017G21KT 5SM -SN BKN020 OVC027 M06/M09 A3028 640 77 -1600 270/17G21 RMK AO2 P0000 T10561089
04850KAOH AOH20161208171513312/08/16 17:15:31  5-MIN KAOH 082215Z AUTO 27017KT 4SM -SN BR BKN018 OVC027 M06/M08 A3028 640 84 -1700 280/17 RMK AO2 P0000 T10611083
04850KAOH AOH20161208172013312/08/16 17:20:31  5-MIN KAOH 082220Z AUTO 27019KT 4SM -SN BR BKN018 OVC027 M06/M08 A3029 640 84 -1700 270/19 RMK AO2 P0000 T10611083
04850KAOH AOH20161208172513012/08/16 17:25:31  5-MIN KAOH 082225Z AUTO 27019KT 5SM -SN BKN018 OVC027 M06/M09 A3029 640 81 -1700 280/19 RMK AO2 P0000 T10611089
04850KAOH AOH20161208173013012/08/16 17:30:31  5-MIN KAOH 082230Z AUTO 27019KT 7SM -SN BKN018 OVC027 M06/M09 A3029 630 81 -1700 280/19 RMK AO2 P0000 T10611089
04850KAOH AOH20161208173513712/08/16 17:35:31  5-MIN KAOH 082235Z AUTO 27016KT 8SM -SN BKN018 BKN023 OVC027 M06/M09 A3030 630 81 -1700 270/16 RMK AO2 P0000 T10611089
04850KAOH AOH20161208174013612/08/16 17:40:31  5-MIN KAOH 082240Z AUTO 27019G24KT 9SM -SN BKN018 OVC027 M06/M09 A3030 630 81 -1700 280/19G24 RMK AO2 P0000 T10611089
04850KAOH AOH20161208174513612/08/16 17:45:31  5-MIN KAOH 082245Z AUTO 27015G24KT 9SM -SN BKN018 OVC027 M06/M09 A3030 630 77 -1700 280/15G24 RMK AO2 P0000 T10611094
04850KAOH AOH20161208175013712/08/16 17:50:31  5-MIN KAOH 082250Z AUTO 28013KT 9SM -SN BKN020 OVC027 M06/M09 A3030 630 77 -1700 280/13 RMK AO2 SLP277 P0000 T10611094
04850KAOH AOH20161208175513012/08/16 17:55:31  5-MIN KAOH 082255Z AUTO 28014KT 9SM -SN BKN020 OVC027 M06/M09 A3031 620 77 -1700 290/14 RMK AO2 P0000 T10611094
04850KAOH AOH20161208180013012/08/16 18:00:31  5-MIN KAOH 082300Z AUTO 27010KT 9SM -SN BKN020 OVC027 M06/M09 A3031 620 77 -1800 280/10 RMK AO2 P0000 T10611094
04850KAOH AOH20161208180513012/08/16 18:05:31  5-MIN KAOH 082305Z AUTO 27013KT 9SM -SN BKN020 OVC029 M06/M09 A3031 620 77 -1700 270/13 RMK AO2 P0000 T10611094
04850KAOH AOH20161208181013812/08/16 18:10:31  5-MIN KAOH 082310Z AUTO 26016G21KT 9SM SCT020 OVC029 M06/M09 A3030 620 77 -1700 260/16G21 RMK AO2 SNE07 P0000 T10611094
04850KAOH AOH20161208181514012/08/16 18:15:31  5-MIN KAOH 082315Z AUTO 26017KT 10SM FEW020 BKN029 OVC040 M07/M10 A3030 630 77 -1800 270/17 RMK AO2 SNE07 P0000 T10671100
04850KAOH AOH20161208182014012/08/16 18:20:31  5-MIN KAOH 082320Z AUTO 26015KT 10SM FEW020 BKN031 OVC042 M07/M10 A3031 620 77 -1800 260/15 RMK AO2 SNE07 P0000 T10671100
04850KAOH AOH20161208182514012/08/16 18:25:31  5-MIN KAOH 082325Z AUTO 26015KT 10SM FEW020 BKN031 OVC042 M07/M10 A3031 620 77 -1800 260/15 RMK AO2 SNE07 P0000 T10671100
04850KAOH AOH20161208183013312/08/16 18:30:31  5-MIN KAOH 082330Z AUTO 26013KT 10SM FEW031 OVC039 M07/M10 A3031 620 77 -1800 260/13 RMK AO2 SNE07 P0000 T10671100
04850KAOH AOH20161208183513312/08/16 18:35:31  5-MIN KAOH 082335Z AUTO 25015KT 10SM SCT033 OVC043 M07/M09 A3031 620 81 -1800 260/15 RMK AO2 SNE07 P0000 T10671094
04850KAOH AOH20161208184013312/08/16 18:40:31  5-MIN KAOH 082340Z AUTO 25015KT 10SM SCT036 OVC043 M07/M09 A3031 620 81 -1800 260/15 RMK AO2 SNE07 P0000 T10671094
04850KAOH AOH20161208184512612/08/16 18:45:31  5-MIN KAOH 082345Z AUTO 26017KT 10SM OVC043 M07/M09 A3031 620 81 -1800 260/17 RMK AO2 SNE07 P0000 T10671094
04850KAOH AOH20161208185015712/08/16 18:50:31  5-MIN KAOH 082350Z AUTO 26014KT 10SM OVC043 M07/M10 A3031 610 77 -1800 270/14 RMK AO2 SNE07 SLP281 P0000 60000 T10671100 11044 21067 53016
04850KAOH AOH20161208185511412/08/16 18:55:31  5-MIN KAOH 082355Z AUTO 26013KT 10SM OVC043 M07/M09 A3032 610 81 -1800 270/13 RMK AO2 T10671094
04850KAOH AOH20161208190011412/08/16 19:00:31  5-MIN KAOH 090000Z AUTO 25013KT 10SM OVC043 M07/M09 A3032 610 81 -1800 260/13 RMK AO2 T10671094
04850KAOH AOH20161208190513012/08/16 19:05:31  5-MIN KAOH 090005Z AUTO 25014KT 10SM -SN OVC043 M07/M09 A3032 610 81 -1800 260/14 RMK AO2 SNB01 P0000 T10671094
04850KAOH AOH20161208191012912/08/16 19:10:31  5-MIN KAOH 090010Z AUTO 25015KT 9SM -SN OVC043 M07/M09 A3032 610 81 -1800 260/15 RMK AO2 SNB01 P0000 T10671094
04850KAOH AOH20161208191512912/08/16 19:15:31  5-MIN KAOH 090015Z AUTO 25012KT 9SM -SN OVC043 M07/M09 A3032 610 81 -1800 260/12 RMK AO2 SNB01 P0000 T10671094
04850KAOH AOH20161208192012912/08/16 19:20:31  5-MIN KAOH 090020Z AUTO 25014KT 8SM -SN OVC042 M07/M09 A3032 610 84 -1800 260/14 RMK AO2 SNB01 P0000 T10671089
04850KAOH AOH20161208192512912/08/16 19:25:31  5-MIN KAOH 090025Z AUTO 26015KT 7SM -SN OVC042 M07/M09 A3032 610 81 -1800 260/15 RMK AO2 SNB01 P0000 T10671094
04850KAOH AOH20161208193012912/08/16 19:30:31  5-MIN KAOH 090030Z AUTO 25015KT 6SM -SN OVC042 M07/M09 A3032 610 81 -1800 260/15 RMK AO2 SNB01 P0000 T10671094
04850KAOH AOH20161208193512912/08/16 19:35:31  5-MIN KAOH 090035Z AUTO 25015KT 6SM -SN OVC040 M07/M09 A3032 610 81 -1800 260/15 RMK AO2 SNB01 P0000 T10671094
04850KAOH AOH20161208194012912/08/16 19:40:31  5-MIN KAOH 090040Z AUTO 26011KT 5SM -SN OVC040 M07/M09 A3032 610 81 -1800 260/11 RMK AO2 SNB01 P0000 T10671094
04850KAOH AOH20161208194513212/08/16 19:45:31  5-MIN KAOH 090045Z AUTO 26013KT 5SM -SN BR OVC040 M07/M09 A3032 610 84 -1800 270/13 RMK AO2 SNB01 P0000 T10671089
04850KAOH AOH20161208195013912/08/16 19:50:31  5-MIN KAOH 090050Z AUTO 26015KT 5SM -SN BR OVC038 M07/M09 A3032 610 84 -1800 270/15 RMK AO2 SNB01 SLP282 P0000 T10671089
04850KAOH AOH20161208195512612/08/16 19:55:31  5-MIN KAOH 090055Z AUTO 26014KT 5SM -SN BR OVC038 M07/M09 A3032 610 84 -1800 260/14 RMK AO2 P0000 T10671089
04850KAOH AOH20161208200012612/08/16 20:00:31  5-MIN KAOH 090100Z AUTO 26015KT 6SM -SN BR OVC040 M07/M09 A3032 610 84 -1800 260/15 RMK AO2 P0000 T10671089
04850KAOH AOH20161208200512612/08/16 20:05:31  5-MIN KAOH 090105Z AUTO 25014KT 6SM -SN BR OVC040 M07/M09 A3032 610 84 -1800 260/14 RMK AO2 P0000 T10671089
04850KAOH AOH20161208201012612/08/16 20:10:31  5-MIN KAOH 090110Z AUTO 25013KT 6SM -SN BR OVC040 M07/M09 A3032 610 84 -1800 260/13 RMK AO2 P0000 T10671089
04850KAOH AOH20161208201513312/08/16 20:15:31  5-MIN KAOH 090115Z AUTO 25013KT 6SM -SN BR FEW018 OVC042 M07/M09 A3032 610 84 -1800 260/13 RMK AO2 P0000 T10671089
04850KAOH AOH20161208202013612/08/16 20:20:31  5-MIN KAOH 090120Z AUTO 26018G23KT 5SM -SN FEW018 OVC042 M07/M09 A3032 610 81 -1800 270/18G23 RMK AO2 P0000 T10671094
04850KAOH AOH20161208202512912/08/16 20:25:31  5-MIN KAOH 090125Z AUTO 25014G23KT 5SM -SN OVC044 M07/M09 A3032 610 81 -1800 260/14G23 RMK AO2 P0000 T10671094
04850KAOH AOH20161208203012312/08/16 20:30:31  5-MIN KAOH 090130Z AUTO 26013KT 6SM -SN OVC044 M07/M09 A3032 610 81 -1800 270/13 RMK AO2 P0000 T10671094
04850KAOH AOH20161208203512312/08/16 20:35:31  5-MIN KAOH 090135Z AUTO 26016KT 7SM -SN OVC044 M07/M09 A3032 610 84 -1800 260/16 RMK AO2 P0000 T10671089
04850KAOH AOH20161208204012612/08/16 20:40:31  5-MIN KAOH 090140Z AUTO 26014KT 6SM -SN BR OVC044 M07/M09 A3032 610 84 -1800 270/14 RMK AO2 P0000 T10671089
04850KAOH AOH20161208204512612/08/16 20:45:31  5-MIN KAOH 090145Z AUTO 27015KT 6SM -SN BR OVC045 M07/M09 A3032 610 84 -1800 270/15 RMK AO2 P0000 T10671089
04850KAOH AOH20161208205013012/08/16 20:50:31  5-MIN KAOH 090150Z AUTO 26019KT 7SM -SN OVC045 M07/M09 A3032 610 81 -1800 260/19 RMK AO2 SLP283 P0000 T10671094
04850KAOH AOH20161208205512612/08/16 20:55:31  5-MIN KAOH 090155Z AUTO 26015KT 6SM -SN BR OVC045 M07/M09 A3032 610 84 -1800 260/15 RMK AO2 P0000 T10671089
04850KAOH AOH20161208210012612/08/16 21:00:31  5-MIN KAOH 090200Z AUTO 26015KT 6SM -SN BR OVC045 M07/M09 A3032 610 84 -1800 260/15 RMK AO2 P0000 T10671089
04850KAOH AOH20161208210512612/08/16 21:05:31  5-MIN KAOH 090205Z AUTO 25017KT 5SM -SN BR OVC045 M07/M09 A3032 610 84 -1800 260/17 RMK AO2 P0000 T10671089
04850KAOH AOH20161208211012612/08/16 21:10:31  5-MIN KAOH 090210Z AUTO 25016KT 5SM -SN BR OVC045 M07/M09 A3032 610 84 -1800 260/16 RMK AO2 P0000 T10671089
04850KAOH AOH20161208211513212/08/16 21:15:31  5-MIN KAOH 090215Z AUTO 26017G22KT 5SM -SN BR OVC044 M07/M09 A3032 610 84 -1800 260/17G22 RMK AO2 P0000 T10671089
04850KAOH AOH20161208212012612/08/16 21:20:31  5-MIN KAOH 090220Z AUTO 26015KT 5SM -SN BR OVC044 M07/M09 A3032 610 84 -1800 260/15 RMK AO2 P0000 T10671089
04850KAOH AOH20161208212512612/08/16 21:25:31  5-MIN KAOH 090225Z AUTO 25014KT 5SM -SN BR OVC044 M07/M09 A3032 610 84 -1800 250/14 RMK AO2 P0000 T10671089
04850KAOH AOH20161208213012612/08/16 21:30:31  5-MIN KAOH 090230Z AUTO 25013KT 6SM -SN BR OVC046 M07/M09 A3031 610 84 -1800 250/13 RMK AO2 P0000 T10671089
04850KAOH AOH20161208213512912/08/16 21:35:31  5-MIN KAOH 090235Z AUTO 25015G22KT 7SM -SN OVC048 M07/M09 A3032 610 84 -1800 260/15G22 RMK AO2 P0000 T10671089
04850KAOH AOH20161208214013012/08/16 21:40:31  5-MIN KAOH 090240Z AUTO 25015KT 8SM -SN FEW017 OVC048 M07/M09 A3032 610 84 -1800 260/15 RMK AO2 P0000 T10671089
04850KAOH AOH20161208214513012/08/16 21:45:31  5-MIN KAOH 090245Z AUTO 25017KT 9SM -SN FEW017 OVC048 M07/M09 A3032 610 84 -1800 260/17 RMK AO2 P0000 T10671089
04850KAOH AOH20161208215015512/08/16 21:50:31  5-MIN KAOH 090250Z AUTO 25019G23KT 9SM -SN FEW017 OVC050 M07/M09 A3032 610 84 -1800 260/19G23 RMK AO2 SLP284 P0000 60000 T10671089 51021
04850KAOH AOH20161208215512612/08/16 21:55:31  5-MIN KAOH 090255Z AUTO 26016G23KT 9SM FEW017 OVC050 M07/M09 A3033 600 84 -1800 260/16G23 RMK AO2 T10671089
04850KAOH AOH20161208220012712/08/16 22:00:31  5-MIN KAOH 090300Z AUTO 26019G23KT 10SM FEW017 OVC050 M07/M09 A3033 600 84 -1800 260/19G23 RMK AO2 T10671089
04850KAOH AOH20161208220512112/08/16 22:05:31  5-MIN KAOH 090305Z AUTO 25020KT 10SM FEW017 OVC050 M07/M09 A3033 600 81 -1800 260/20 RMK AO2 T10671094
04850KAOH AOH20161208221011412/08/16 22:10:31  5-MIN KAOH 090310Z AUTO 26018KT 10SM OVC055 M07/M09 A3033 600 81 -1800 260/18 RMK AO2 T10671094
04850KAOH AOH20161208221511412/08/16 22:15:31  5-MIN KAOH 090315Z AUTO 26013KT 10SM OVC055 M07/M09 A3033 600 81 -1800 260/13 RMK AO2 T10671094
04850KAOH AOH20161208222011412/08/16 22:20:31  5-MIN KAOH 090320Z AUTO 25017KT 10SM OVC055 M07/M09 A3033 600 81 -1900 260/17 RMK AO2 T10671094
04850KAOH AOH20161208222512112/08/16 22:25:31  5-MIN KAOH 090325Z AUTO 25016KT 10SM FEW017 OVC055 M07/M09 A3033 600 81 -1900 260/16 RMK AO2 T10671094
04850KAOH AOH20161208223012112/08/16 22:30:31  5-MIN KAOH 090330Z AUTO 26016KT 10SM FEW019 OVC055 M07/M09 A3033 600 81 -1900 260/16 RMK AO2 T10671094
04850KAOH AOH20161208223512112/08/16 22:35:31  5-MIN KAOH 090335Z AUTO 26015KT 10SM FEW017 OVC055 M07/M09 A3033 600 81 -1900 260/15 RMK AO2 T10671094
04850KAOH AOH20161208224012712/08/16 22:40:31  5-MIN KAOH 090340Z AUTO 26016G22KT 10SM FEW019 OVC055 M07/M09 A3034 590 81 -1900 260/16G22 RMK AO2 T10671094
04850KAOH AOH20161208224512712/08/16 22:45:31  5-MIN KAOH 090345Z AUTO 26019G23KT 10SM SCT019 OVC055 M07/M09 A3034 590 81 -1900 260/19G23 RMK AO2 T10671094
04850KAOH AOH20161208225013412/08/16 22:50:31  5-MIN KAOH 090350Z AUTO 25014G23KT 10SM SCT019 OVC055 M07/M09 A3034 590 81 -1900 260/14G23 RMK AO2 SLP288 T10671094
04850KAOH AOH20161208225512712/08/16 22:55:31  5-MIN KAOH 090355Z AUTO 25015G21KT 10SM SCT019 OVC055 M07/M09 A3033 600 81 -1900 260/15G21 RMK AO2 T10671094
04850KAOH AOH20161208230012712/08/16 23:00:31  5-MIN KAOH 090400Z AUTO 26017G21KT 10SM SCT019 OVC055 M07/M09 A3034 590 81 -1900 260/17G21 RMK AO2 T10671094
04850KAOH AOH20161208230512112/08/16 23:05:31  5-MIN KAOH 090405Z AUTO 26015KT 10SM SCT019 OVC055 M07/M09 A3034 590 81 -1900 260/15 RMK AO2 T10671094
04850KAOH AOH20161208231012112/08/16 23:10:31  5-MIN KAOH 090410Z AUTO 25013KT 10SM BKN019 OVC055 M07/M09 A3034 590 81 -1900 260/13 RMK AO2 T10671094
04850KAOH AOH20161208231512112/08/16 23:15:31  5-MIN KAOH 090415Z AUTO 25017KT 10SM BKN019 OVC055 M07/M09 A3034 590 81 -1900 260/17 RMK AO2 T10671094
04850KAOH AOH20161208232012112/08/16 23:20:31  5-MIN KAOH 090420Z AUTO 25016KT 10SM BKN019 OVC055 M07/M09 A3034 590 81 -1900 260/16 RMK AO2 T10671094
04850KAOH AOH20161208232512112/08/16 23:25:31  5-MIN KAOH 090425Z AUTO 25016KT 10SM BKN017 OVC055 M07/M09 A3034 590 81 -1900 260/16 RMK AO2 T10671094
04850KAOH AOH20161208233012112/08/16 23:30:31  5-MIN KAOH 090430Z AUTO 25018KT 10SM BKN017 OVC055 M07/M09 A3034 590 81 -1900 260/18 RMK AO2 T10671094
04850KAOH AOH20161208233512112/08/16 23:35:31  5-MIN KAOH 090435Z AUTO 25015KT 10SM BKN017 OVC055 M07/M09 A3034 590 84 -1900 260/15 RMK AO2 T10671089
04850KAOH AOH20161208234012112/08/16 23:40:31  5-MIN KAOH 090440Z AUTO 25015KT 10SM BKN017 OVC055 M07/M09 A3034 590 81 -1900 260/15 RMK AO2 T10671094
04850KAOH AOH20161208234512112/08/16 23:45:31  5-MIN KAOH 090445Z AUTO 25017KT 10SM BKN017 OVC055 M07/M09 A3034 590 84 -1900 250/17 RMK AO2 T10671089
04850KAOH AOH20161208235013812/08/16 23:50:31  5-MIN KAOH 090450Z AUTO 25016KT 10SM BKN017 OVC060 M07/M09 A3034 590 81 -1900 260/16 RMK AO2 SLP290 T10671094 410171067
04850KAOH AOH20161208235512112/08/16 23:55:31  5-MIN KAOH 090455Z AUTO 25019KT 10SM BKN017 OVC060 M07/M09 A3034 590 81 -1900 260/19 RMK AO2 T10671094
04850KAOH AOH20161209000012112/09/16 00:00:31  5-MIN KAOH 090500Z AUTO 26018KT 10SM BKN017 OVC060 M07/M09 A3034 590 81 -1900 260/18 RMK AO2 T10671094
04850KAOH AOH20161209000512712/09/16 00:05:31  5-MIN KAOH 090505Z AUTO 26016G23KT 10SM BKN017 OVC060 M07/M09 A3034 590 81 -1900 260/16G23 RMK AO2 T10671094
04850KAOH AOH20161209001012112/09/16 00:10:31  5-MIN KAOH 090510Z AUTO 26016KT 10SM BKN018 OVC060 M07/M09 A3034 590 81 -1900 260/16 RMK AO2 T10671094
04850KAOH AOH20161209001512112/09/16 00:15:31  5-MIN KAOH 090515Z AUTO 26018KT 10SM BKN018 OVC060 M07/M09 A3034 590 81 -1900 260/18 RMK AO2 T10671094
04850KAOH AOH20161209002012112/09/16 00:20:31  5-MIN KAOH 090520Z AUTO 25016KT 10SM BKN016 OVC060 M07/M09 A3034 590 81 -1900 260/16 RMK AO2 T10671094
04850KAOH AOH20161209002512112/09/16 00:25:31  5-MIN KAOH 090525Z AUTO 25016KT 10SM BKN016 OVC060 M07/M09 A3035 590 81 -1900 260/16 RMK AO2 T10671094
04850KAOH AOH20161209003012112/09/16 00:30:31  5-MIN KAOH 090530Z AUTO 26016KT 10SM BKN016 OVC060 M07/M09 A3034 590 81 -1900 260/16 RMK AO2 T10671094
04850KAOH AOH20161209003512112/09/16 00:35:31  5-MIN KAOH 090535Z AUTO 26017KT 10SM BKN016 OVC060 M07/M09 A3035 590 81 -1900 270/17 RMK AO2 T10671094
04850KAOH AOH20161209004012112/09/16 00:40:31  5-MIN KAOH 090540Z AUTO 25015KT 10SM BKN016 OVC060 M07/M09 A3035 590 84 -1900 260/15 RMK AO2 T10671089
04850KAOH AOH20161209004512112/09/16 00:45:31  5-MIN KAOH 090545Z AUTO 26014KT 10SM BKN016 OVC060 M07/M09 A3035 590 84 -1900 260/14 RMK AO2 T10671089
04850KAOH AOH20161209005015212/09/16 00:50:31  5-MIN KAOH 090550Z AUTO 26015KT 10SM BKN017 OVC060 M07/M09 A3035 590 84 -1900 260/15 RMK AO2 SLP292 60000 T10671089 11067 21067 53003
04850KAOH AOH20161209005512112/09/16 00:55:31  5-MIN KAOH 090555Z AUTO 26014KT 10SM BKN017 OVC060 M07/M09 A3035 580 81 -1900 260/14 RMK AO2 T10671094
04850KAOH AOH20161209010012112/09/16 01:00:31  5-MIN KAOH 090600Z AUTO 26015KT 10SM BKN017 OVC060 M07/M09 A3035 580 84 -1900 260/15 RMK AO2 T10671089
04850KAOH AOH20161209010511412/09/16 01:05:31  5-MIN KAOH 090605Z AUTO 26012KT 10SM OVC017 M07/M09 A3035 580 84 -1900 260/12 RMK AO2 T10671089
04850KAOH AOH20161209011011412/09/16 01:10:31  5-MIN KAOH 090610Z AUTO 25016KT 10SM OVC017 M07/M09 A3035 580 84 -1900 260/16 RMK AO2 T10671089
04850KAOH AOH20161209011511412/09/16 01:15:31  5-MIN KAOH 090615Z AUTO 26014KT 10SM OVC016 M07/M09 A3035 580 84 -1900 260/14 RMK AO2 T10671089
04850KAOH AOH20161209012011412/09/16 01:20:31  5-MIN KAOH 090620Z AUTO 25013KT 10SM OVC016 M07/M09 A3035 580 84 -1900 260/13 RMK AO2 T10671089
04850KAOH AOH20161209012511412/09/16 01:25:31  5-MIN KAOH 090625Z AUTO 26014KT 10SM OVC016 M07/M09 A3035 580 84 -1900 260/14 RMK AO2 T10671089
04850KAOH AOH20161209013011412/09/16 01:30:31  5-MIN KAOH 090630Z AUTO 26013KT 10SM OVC016 M07/M09 A3036 580 84 -1900 260/13 RMK AO2 T10671089
04850KAOH AOH20161209013511412/09/16 01:35:31  5-MIN KAOH 090635Z AUTO 26013KT 10SM OVC016 M07/M09 A3036 580 84 -1900 260/13 RMK AO2 T10671089
04850KAOH AOH20161209014011412/09/16 01:40:31  5-MIN KAOH 090640Z AUTO 25013KT 10SM OVC016 M07/M09 A3036 580 84 -1900 260/13 RMK AO2 T10671089
04850KAOH AOH20161209014511412/09/16 01:45:31  5-MIN KAOH 090645Z AUTO 26012KT 10SM OVC016 M07/M09 A3035 580 84 -1900 260/12 RMK AO2 T10671089
04850KAOH AOH20161209015012112/09/16 01:50:31  5-MIN KAOH 090650Z AUTO 25014KT 10SM OVC016 M07/M09 A3036 580 84 -1900 260/14 RMK AO2 SLP295 T10671089
04850KAOH AOH20161209015511412/09/16 01:55:31  5-MIN KAOH 090655Z AUTO 26013KT 10SM OVC016 M07/M09 A3036 580 84 -1900 270/13 RMK AO2 T10671089
04850KAOH AOH20161209020011412/09/16 02:00:31  5-MIN KAOH 090700Z AUTO 26012KT 10SM OVC016 M07/M09 A3036 580 84 -1900 270/12 RMK AO2 T10671089
04850KAOH AOH20161209020511412/09/16 02:05:31  5-MIN KAOH 090705Z AUTO 26014KT 10SM OVC015 M07/M09 A3036 580 84 -1900 270/14 RMK AO2 T10671089
04850KAOH AOH20161209021011412/09/16 02:10:31  5-MIN KAOH 090710Z AUTO 26014KT 10SM OVC015 M07/M09 A3036 580 84 -1900 270/14 RMK AO2 T10671089
04850KAOH AOH20161209021512112/09/16 02:15:31  5-MIN KAOH 090715Z AUTO 26011KT 10SM BKN015 OVC060 M07/M09 A3036 570 84 -1900 260/11 RMK AO2 T10671089
04850KAOH AOH20161209022012112/09/16 02:20:31  5-MIN KAOH 090720Z AUTO 26013KT 10SM BKN015 OVC055 M07/M09 A3036 570 84 -1900 270/13 RMK AO2 T10671089
04850KAOH AOH20161209022512112/09/16 02:25:31  5-MIN KAOH 090725Z AUTO 26013KT 10SM BKN015 OVC055 M07/M09 A3036 570 84 -1900 270/13 RMK AO2 T10671089
04850KAOH AOH20161209023012112/09/16 02:30:31  5-MIN KAOH 090730Z AUTO 26013KT 10SM BKN015 OVC060 M07/M09 A3037 570 84 -1900 260/13 RMK AO2 T10671089
04850KAOH AOH20161209023512112/09/16 02:35:31  5-MIN KAOH 090735Z AUTO 26012KT 10SM BKN016 OVC060 M07/M09 A3037 570 84 -1900 260/12 RMK AO2 T10671089
04850KAOH AOH20161209024012112/09/16 02:40:31  5-MIN KAOH 090740Z AUTO 26013KT 10SM SCT016 OVC060 M07/M09 A3037 570 84 -1900 260/13 RMK AO2 T10671089
04850KAOH AOH20161209024512112/09/16 02:45:31  5-MIN KAOH 090745Z AUTO 26014KT 10SM SCT015 OVC060 M07/M09 A3037 570 84 -1900 260/14 RMK AO2 T10671089
04850KAOH AOH20161209025012812/09/16 02:50:31  5-MIN KAOH 090750Z AUTO 26013KT 10SM SCT015 OVC060 M07/M08 A3037 560 88 -1900 270/13 RMK AO2 SLP299 T10671083
04850KAOH AOH20161209025512112/09/16 02:55:31  5-MIN KAOH 090755Z AUTO 26014KT 10SM SCT015 OVC055 M07/M08 A3037 560 88 -1900 270/14 RMK AO2 T10671083
04850KAOH AOH20161209030012112/09/16 03:00:31  5-MIN KAOH 090800Z AUTO 27016KT 10SM FEW015 OVC055 M07/M09 A3037 560 84 -1900 270/16 RMK AO2 T10671089
04850KAOH AOH20161209030512112/09/16 03:05:31  5-MIN KAOH 090805Z AUTO 26013KT 10SM FEW015 OVC055 M06/M08 A3037 560 84 -1800 270/13 RMK AO2 T10611083
04850KAOH AOH20161209031012112/09/16 03:10:31  5-MIN KAOH 090810Z AUTO 27017KT 10SM FEW015 OVC055 M06/M08 A3037 560 84 -1800 270/17 RMK AO2 T10611083
04850KAOH AOH20161209031512112/09/16 03:15:31  5-MIN KAOH 090815Z AUTO 26015KT 10SM FEW015 OVC050 M06/M08 A3037 560 84 -1800 270/15 RMK AO2 T10611083
04850KAOH AOH20161209032011412/09/16 03:20:31  5-MIN KAOH 090820Z AUTO 27016KT 10SM OVC050 M06/M08 A3037 560 84 -1800 270/16 RMK AO2 T10611083
04850KAOH AOH20161209032511412/09/16 03:25:31  5-MIN KAOH 090825Z AUTO 27016KT 10SM OVC050 M06/M09 A3037 560 81 -1800 270/16 RMK AO2 T10611089
04850KAOH AOH20161209033011412/09/16 03:30:31  5-MIN KAOH 090830Z AUTO 26015KT 10SM OVC050 M06/M08 A3037 560 84 -1800 270/15 RMK AO2 T10611083
04850KAOH AOH20161209033511412/09/16 03:35:31  5-MIN KAOH 090835Z AUTO 26014KT 10SM OVC055 M06/M09 A3037 560 81 -1800 270/14 RMK AO2 T10611089
04850KAOH AOH20161209034012012/09/16 03:40:31  5-MIN KAOH 090840Z AUTO 27015G21KT 10SM OVC055 M06/M08 A3038 560 84 -1800 270/15G21 RMK AO2 T10611083
04850KAOH AOH20161209034512012/09/16 03:45:31  5-MIN KAOH 090845Z AUTO 27015G21KT 10SM OVC050 M06/M08 A3038 560 84 -1800 270/15G21 RMK AO2 T10611083
04850KAOH AOH20161209035012712/09/16 03:50:31  5-MIN KAOH 090850Z AUTO 26016KT 10SM OVC050 M06/M09 A3038 560 81 -1800 270/16 RMK AO2 SLP302 T10611089 51008
04850KAOH AOH20161209035511412/09/16 03:55:31  5-MIN KAOH 090855Z AUTO 26014KT 10SM OVC050 M06/M08 A3038 560 84 -1800 270/14 RMK AO2 T10611083
04850KAOH AOH20161209040011412/09/16 04:00:31  5-MIN KAOH 090900Z AUTO 26015KT 10SM OVC050 M06/M09 A3038 560 81 -1800 270/15 RMK AO2 T10611089
04850KAOH AOH20161209040511412/09/16 04:05:31  5-MIN KAOH 090905Z AUTO 26014KT 10SM OVC050 M06/M09 A3038 560 81 -1800 270/14 RMK AO2 T10611089
04850KAOH AOH20161209041011412/09/16 04:10:31  5-MIN KAOH 090910Z AUTO 26015KT 10SM OVC050 M06/M09 A3038 560 81 -1800 270/15 RMK AO2 T10611089
04850KAOH AOH20161209041511412/09/16 04:15:31  5-MIN KAOH 090915Z AUTO 27013KT 10SM OVC050 M06/M09 A3038 560 81 -1800 270/13 RMK AO2 T10611089
04850KAOH AOH20161209042011412/09/16 04:20:31  5-MIN KAOH 090920Z AUTO 26016KT 10SM OVC050 M06/M09 A3038 560 81 -1800 270/16 RMK AO2 T10611089
04850KAOH AOH20161209042511412/09/16 04:25:31  5-MIN KAOH 090925Z AUTO 26014KT 10SM OVC050 M06/M09 A3038 560 81 -1800 270/14 RMK AO2 T10611089
04850KAOH AOH20161209043011412/09/16 04:30:31  5-MIN KAOH 090930Z AUTO 26013KT 10SM OVC049 M06/M09 A3038 560 81 -1800 270/13 RMK AO2 T10611089
04850KAOH AOH20161209043511412/09/16 04:35:31  5-MIN KAOH 090935Z AUTO 26014KT 10SM OVC049 M06/M09 A3038 560 81 -1800 270/14 RMK AO2 T10611089
04850KAOH AOH20161209044011412/09/16 04:40:31  5-MIN KAOH 090940Z AUTO 26015KT 10SM OVC049 M06/M09 A3038 560 81 -1800 270/15 RMK AO2 T10611089
04850KAOH AOH20161209044511412/09/16 04:45:31  5-MIN KAOH 090945Z AUTO 26015KT 10SM OVC049 M06/M09 A3038 560 81 -1800 270/15 RMK AO2 T10611089
04850KAOH AOH20161209045012112/09/16 04:50:31  5-MIN KAOH 090950Z AUTO 26016KT 10SM OVC049 M06/M09 A3038 550 81 -1800 270/16 RMK AO2 SLP303 T10611089
04850KAOH AOH20161209045511412/09/16 04:55:31  5-MIN KAOH 090955Z AUTO 26014KT 10SM OVC050 M06/M09 A3038 550 81 -1800 270/14 RMK AO2 T10611089
04850KAOH AOH20161209050012112/09/16 05:00:31  5-MIN KAOH 091000Z AUTO 26016KT 10SM FEW026 OVC050 M06/M09 A3038 550 81 -1800 270/16 RMK AO2 T10611089
04850KAOH AOH20161209050512712/09/16 05:05:31  5-MIN KAOH 091005Z AUTO 26016G22KT 10SM SCT026 OVC050 M06/M09 A3038 550 81 -1800 270/16G22 RMK AO2 T10611089
04850KAOH AOH20161209051012712/09/16 05:10:31  5-MIN KAOH 091010Z AUTO 26013G22KT 10SM BKN027 OVC050 M06/M09 A3038 550 81 -1800 260/13G22 RMK AO2 T10611089
04850KAOH AOH20161209051512112/09/16 05:15:31  5-MIN KAOH 091015Z AUTO 26015KT 10SM BKN027 OVC050 M06/M09 A3038 550 81 -1800 270/15 RMK AO2 T10611089
04850KAOH AOH20161209052012112/09/16 05:20:31  5-MIN KAOH 091020Z AUTO 26016KT 10SM BKN027 OVC050 M06/M09 A3038 550 81 -1800 270/16 RMK AO2 T10611089
04850KAOH AOH20161209052513012/09/16 05:25:31  5-MIN KAOH 091025Z AUTO 26014KT 10SM -SN OVC027 M06/M09 A3038 550 81 -1800 270/14 RMK AO2 SNB22 P0000 T10611089
04850KAOH AOH20161209053012912/09/16 05:30:31  5-MIN KAOH 091030Z AUTO 26017KT 9SM -SN OVC027 M06/M09 A3038 550 81 -1800 270/17 RMK AO2 SNB22 P0000 T10611089
04850KAOH AOH20161209053513612/09/16 05:35:31  5-MIN KAOH 091035Z AUTO 26015KT 9SM -SN BKN027 OVC050 M06/M09 A3038 550 81 -1800 270/15 RMK AO2 SNB22 P0000 T10611089
04850KAOH AOH20161209054013612/09/16 05:40:31  5-MIN KAOH 091040Z AUTO 26016KT 9SM -SN BKN027 OVC050 M06/M09 A3039 550 81 -1800 260/16 RMK AO2 SNB22 P0000 T10611089
04850KAOH AOH20161209054514212/09/16 05:45:31  5-MIN KAOH 091045Z AUTO 26017G23KT 9SM -SN BKN026 OVC050 M06/M09 A3039 550 81 -1800 270/17G23 RMK AO2 SNB22 P0000 T10611089
04850KAOH AOH20161209055014912/09/16 05:50:31  5-MIN KAOH 091050Z AUTO 27014G23KT 9SM -SN BKN026 OVC050 M06/M09 A3039 550 81 -1800 270/14G23 RMK AO2 SNB22 SLP307 P0000 T10611089
04850KAOH AOH20161209055512012/09/16 05:55:31  5-MIN KAOH 091055Z AUTO 27011KT 9SM BKN026 OVC050 M06/M09 A3039 540 81 -1800 270/11 RMK AO2 T10611089
04850KAOH AOH20161209060012712/09/16 06:00:31  5-MIN KAOH 091100Z AUTO 26016G22KT 10SM BKN026 OVC050 M06/M09 A3039 540 81 -1800 270/16G22 RMK AO2 T10611089
04850KAOH AOH20161209060512712/09/16 06:05:31  5-MIN KAOH 091105Z AUTO 26016G22KT 10SM BKN026 OVC050 M06/M09 A3039 540 81 -1800 270/16G22 RMK AO2 T10611089
04850KAOH AOH20161209061012112/09/16 06:10:31  5-MIN KAOH 091110Z AUTO 26016KT 10SM BKN026 OVC050 M06/M09 A3039 540 81 -1800 260/16 RMK AO2 T10611089
04850KAOH AOH20161209061512112/09/16 06:15:31  5-MIN KAOH 091115Z AUTO 26014KT 10SM SCT026 OVC050 M06/M09 A3039 540 81 -1800 270/14 RMK AO2 T10611089
04850KAOH AOH20161209062012112/09/16 06:20:31  5-MIN KAOH 091120Z AUTO 26014KT 10SM SCT026 OVC050 M06/M09 A3039 540 81 -1800 270/14 RMK AO2 T10611089
04850KAOH AOH20161209062512112/09/16 06:25:31  5-MIN KAOH 091125Z AUTO 26014KT 10SM FEW026 OVC050 M06/M09 A3039 540 81 -1800 270/14 RMK AO2 T10611089
04850KAOH AOH20161209063012112/09/16 06:30:31  5-MIN KAOH 091130Z AUTO 26016KT 10SM FEW026 OVC050 M06/M09 A3039 540 81 -1800 260/16 RMK AO2 T10611089
04850KAOH AOH20161209063511412/09/16 06:35:31  5-MIN KAOH 091135Z AUTO 26015KT 10SM OVC050 M06/M09 A3039 540 81 -1900 260/15 RMK AO2 T10611089
04850KAOH AOH20161209064011412/09/16 06:40:31  5-MIN KAOH 091140Z AUTO 27015KT 10SM OVC050 M06/M09 A3040 540 81 -1900 270/15 RMK AO2 T10611089
04850KAOH AOH20161209064512112/09/16 06:45:31  5-MIN KAOH 091145Z AUTO 26013KT 10SM SCT045 OVC050 M06/M08 A3040 540 84 -1900 270/13 RMK AO2 T10611083
04850KAOH AOH20161209065015212/09/16 06:50:31  5-MIN KAOH 091150Z AUTO 26014KT 10SM BKN045 OVC050 M06/M08 A3040 540 84 -1900 270/14 RMK AO2 SLP309 60000 T10611083 11061 21067 51009
04850KAOH AOH20161209065512012/09/16 06:55:31  5-MIN KAOH 091155Z AUTO 26015G22KT 10SM OVC047 M06/M08 A3040 540 84 -1900 260/15G22 RMK AO2 T10611083
04850KAOH AOH20161209070012112/09/16 07:00:31  5-MIN KAOH 091200Z AUTO 26014KT 10SM SCT045 OVC050 M06/M08 A3040 530 84 -1900 270/14 RMK AO2 T10611083
04850KAOH AOH20161209070512812/09/16 07:05:31  5-MIN KAOH 091205Z AUTO 26015KT 10SM FEW015 BKN044 OVC055 M06/M08 A3040 530 84 -1900 260/15 RMK AO2 T10611083
04850KAOH AOH20161209071012812/09/16 07:10:31  5-MIN KAOH 091210Z AUTO 26014KT 10SM FEW015 BKN044 OVC080 M06/M08 A3040 530 84 -1900 260/14 RMK AO2 T10611083
04850KAOH AOH20161209071512812/09/16 07:15:31  5-MIN KAOH 091215Z AUTO 25012KT 10SM FEW014 BKN044 OVC080 M07/M08 A3040 530 88 -1900 260/12 RMK AO2 T10671083
04850KAOH AOH20161209072012812/09/16 07:20:31  5-MIN KAOH 091220Z AUTO 26014KT 10SM FEW014 BKN055 OVC080 M07/M08 A3040 530 88 -1900 260/14 RMK AO2 T10671083
04850KAOH AOH20161209072512812/09/16 07:25:31  5-MIN KAOH 091225Z AUTO 26014KT 10SM FEW014 BKN035 OVC080 M07/M08 A3041 530 88 -1900 260/14 RMK AO2 T10671083
04850KAOH AOH20161209073012812/09/16 07:30:31  5-MIN KAOH 091230Z AUTO 25015KT 10SM FEW014 BKN037 OVC080 M07/M08 A3041 530 88 -1900 260/15 RMK AO2 T10671083
04850KAOH AOH20161209073512812/09/16 07:35:31  5-MIN KAOH 091235Z AUTO 26015KT 10SM FEW014 BKN040 OVC055 M07/M08 A3041 530 88 -1900 260/15 RMK AO2 T10671083
04850KAOH AOH20161209074012812/09/16 07:40:31  5-MIN KAOH 091240Z AUTO 25015KT 10SM SCT014 BKN040 OVC055 M07/M08 A3041 530 88 -1900 260/15 RMK AO2 T10671083
04850KAOH AOH20161209074512812/09/16 07:45:31  5-MIN KAOH 091245Z AUTO 25015KT 10SM SCT014 BKN025 OVC041 M07/M08 A3041 530 88 -1900 260/15 RMK AO2 T10671083
04850KAOH AOH20161209075013512/09/16 07:50:31  5-MIN KAOH 091250Z AUTO 25015KT 10SM SCT014 BKN025 OVC044 M07/M08 A3041 520 88 -1900 260/15 RMK AO2 SLP315 T10671083
04850KAOH AOH20161209075512112/09/16 07:55:31  5-MIN KAOH 091255Z AUTO 25016KT 10SM BKN013 OVC042 M07/M08 A3041 520 88 -1900 260/16 RMK AO2 T10671083
04850KAOH AOH20161209080012112/09/16 08:00:31  5-MIN KAOH 091300Z AUTO 25015KT 10SM BKN013 OVC042 M07/M08 A3041 520 88 -1900 260/15 RMK AO2 T10671083
04850KAOH AOH20161209080512112/09/16 08:05:31  5-MIN KAOH 091305Z AUTO 26017KT 10SM BKN013 OVC042 M07/M08 A3041 520 88 -1900 260/17 RMK AO2 T10671083
04850KAOH AOH20161209081012112/09/16 08:10:31  5-MIN KAOH 091310Z AUTO 25014KT 10SM BKN013 OVC042 M07/M08 A3042 520 88 -1900 260/14 RMK AO2 T10671083
04850KAOH AOH20161209081512112/09/16 08:15:31  5-MIN KAOH 091315Z AUTO 25012KT 10SM BKN013 OVC041 M07/M08 A3042 520 88 -1900 260/12 RMK AO2 T10671083
04850KAOH AOH20161209082012112/09/16 08:20:31  5-MIN KAOH 091320Z AUTO 25014KT 10SM BKN013 OVC039 M06/M08 A3042 520 84 -1900 260/14 RMK AO2 T10611083
04850KAOH AOH20161209082512112/09/16 08:25:31  5-MIN KAOH 091325Z AUTO 25015KT 10SM BKN013 OVC039 M06/M08 A3042 520 84 -1900 260/15 RMK AO2 T10611083
04850KAOH AOH20161209083012112/09/16 08:30:31  5-MIN KAOH 091330Z AUTO 25015KT 10SM BKN013 OVC039 M06/M08 A3042 520 84 -1900 260/15 RMK AO2 T10611083
04850KAOH AOH20161209083512112/09/16 08:35:31  5-MIN KAOH 091335Z AUTO 25015KT 10SM BKN013 OVC037 M06/M08 A3042 520 84 -1900 250/15 RMK AO2 T10611083
04850KAOH AOH20161209084012112/09/16 08:40:31  5-MIN KAOH 091340Z AUTO 25012KT 10SM SCT013 OVC037 M06/M08 A3042 520 84 -1900 260/12 RMK AO2 T10611083
04850KAOH AOH20161209084512112/09/16 08:45:31  5-MIN KAOH 091345Z AUTO 25014KT 10SM SCT013 OVC037 M06/M08 A3042 520 84 -1900 260/14 RMK AO2 T10611083
04850KAOH AOH20161209085012812/09/16 08:50:31  5-MIN KAOH 091350Z AUTO 25016KT 10SM SCT012 OVC036 M06/M08 A3042 520 84 -1900 260/16 RMK AO2 SLP317 T10611083
04850KAOH AOH20161209085512112/09/16 08:55:31  5-MIN KAOH 091355Z AUTO 25014KT 10SM SCT012 OVC036 M06/M08 A3042 520 84 -1900 260/14 RMK AO2 T10611083
04850KAOH AOH20161209090012112/09/16 09:00:31  5-MIN KAOH 091400Z AUTO 25014KT 10SM FEW012 OVC034 M06/M08 A3042 510 84 -1900 260/14 RMK AO2 T10611083
04850KAOH AOH20161209090512112/09/16 09:05:31  5-MIN KAOH 091405Z AUTO 25016KT 10SM SCT012 OVC034 M06/M08 A3043 510 84 -1900 250/16 RMK AO2 T10611083
04850KAOH AOH20161209091012112/09/16 09:10:31  5-MIN KAOH 091410Z AUTO 25014KT 10SM SCT012 OVC032 M06/M08 A3043 510 88 -1900 260/14 RMK AO2 T10611078
04850KAOH AOH20161209091513612/09/16 09:15:31  5-MIN KAOH 091415Z AUTO 25012KT 9SM -SN SCT013 OVC032 M06/M08 A3043 510 88 -1900 260/12 RMK AO2 SNB14 P0000 T10611078
04850KAOH AOH20161209092013612/09/16 09:20:31  5-MIN KAOH 091420Z AUTO 25014KT 7SM -SN SCT013 OVC032 M06/M08 A3043 510 88 -1900 250/14 RMK AO2 SNB14 P0000 T10611078
04850KAOH AOH20161209092513912/09/16 09:25:31  5-MIN KAOH 091425Z AUTO 25014KT 5SM -SN BR BKN013 OVC032 M06/M08 A3043 510 88 -1900 260/14 RMK AO2 SNB14 P0000 T10611078
04850KAOH AOH20161209093013912/09/16 09:30:31  5-MIN KAOH 091430Z AUTO 25012KT 4SM -SN BR BKN013 OVC031 M06/M08 A3043 510 84 -1800 260/12 RMK AO2 SNB14 P0000 T10561078
04850KAOH AOH20161209093513912/09/16 09:35:31  5-MIN KAOH 091435Z AUTO 25015KT 4SM -SN BR BKN013 OVC031 M06/M08 A3044 500 84 -1800 260/15 RMK AO2 SNB14 P0000 T10561078
04850KAOH AOH20161209094013912/09/16 09:40:31  5-MIN KAOH 091440Z AUTO 25015KT 3SM -SN BR BKN013 OVC031 M06/M08 A3044 500 84 -1800 260/15 RMK AO2 SNB14 P0000 T10561078
04850KAOH AOH20161209094513912/09/16 09:45:31  5-MIN KAOH 091445Z AUTO 25015KT 3SM -SN BR BKN013 OVC033 M06/M08 A3044 500 84 -1800 260/15 RMK AO2 SNB14 P0000 T10561078
04850KAOH AOH20161209095013312/09/16 09:50:31  5-MIN KAOH 091450Z AUTO 26014KT 2 1/2SM -SN BR BKN013 OVC034 M06/M08 A3044 500 84 -1800 260/14 RMK AO2 SNB14 P0000
04850KAOH AOH20161209095513712/09/16 09:55:31  5-MIN KAOH 091455Z AUTO 25012KT 2 1/2SM -SN BR BKN015 OVC034 M06/M07 A3044 500 88 -1800 260/12 RMK AO2 P0000 T10561072
04850KAOH AOH20161209100013312/09/16 10:00:31  5-MIN KAOH 091500Z AUTO 26014KT 2SM -SN BR BKN015 OVC032 M06/M07 A3044 500 88 -1800 260/14 RMK AO2 P0000 T10561072
04850KAOH AOH20161209100513012/09/16 10:05:31  5-MIN KAOH 091505Z AUTO 25014KT 2 1/2SM -SN BR OVC015 M06/M07 A3045 500 88 -1800 260/14 RMK AO2 P0000 T10561072
04850KAOH AOH20161209101013012/09/16 10:10:31  5-MIN KAOH 091510Z AUTO 24014KT 2 1/2SM -SN BR OVC015 M06/M07 A3044 500 88 -1800 250/14 RMK AO2 P0000 T10561072
04850KAOH AOH20161209101512612/09/16 10:15:31  5-MIN KAOH 091515Z AUTO 25015KT 3SM -SN BR OVC015 M06/M07 A3045 490 88 -1800 260/15 RMK AO2 P0000 T10561072
04850KAOH AOH20161209102013712/09/16 10:20:31  5-MIN KAOH 091520Z AUTO 25011KT 2 1/2SM -SN BR BKN015 OVC027 M06/M07 A3045 490 88 -1800 260/11 RMK AO2 P0000 T10561072
04850KAOH AOH20161209102513712/09/16 10:25:31  5-MIN KAOH 091525Z AUTO 25014KT 2 1/2SM -SN BR BKN015 OVC027 M06/M07 A3045 490 88 -1800 250/14 RMK AO2 P0000 T10561072
04850KAOH AOH20161209103013312/09/16 10:30:31  5-MIN KAOH 091530Z AUTO 25014KT 3SM -SN BR BKN015 OVC026 M06/M07 A3045 490 88 -1800 260/14 RMK AO2 P0000 T10561072
04850KAOH AOH20161209103513312/09/16 10:35:31  5-MIN KAOH 091535Z AUTO 25013KT 4SM -SN BR BKN015 OVC026 M05/M07 A3045 490 84 -1800 250/13 RMK AO2 P0000 T10501072
04850KAOH AOH20161209104013312/09/16 10:40:31  5-MIN KAOH 091540Z AUTO 26014KT 4SM -SN BR BKN015 OVC026 M05/M07 A3045 490 84 -1800 260/14 RMK AO2 P0000 T10501072
04850KAOH AOH20161209104513312/09/16 10:45:31  5-MIN KAOH 091545Z AUTO 26014KT 5SM -SN BR BKN015 OVC026 M05/M07 A3045 490 84 -1800 260/14 RMK AO2 P0000 T10501072
04850KAOH AOH20161209105013312/09/16 10:50:31  5-MIN KAOH 091550Z AUTO 26012KT 6SM -SN BR OVC015 M05/M07 A3045 490 84 -1800 260/12 RMK AO2 SLP328 P0000 T10501072
04850KAOH AOH20161209105512312/09/16 10:55:31  5-MIN KAOH 091555Z AUTO 25013KT 7SM -SN OVC015 M05/M07 A3045 490 88 -1800 260/13 RMK AO2 P0000 T10501067
04850KAOH AOH20161209110012312/09/16 11:00:31  5-MIN KAOH 091600Z AUTO 26012KT 9SM -SN OVC016 M05/M07 A3045 490 84 -1800 260/12 RMK AO2 P0000 T10501072
04850KAOH AOH20161209110512512/09/16 11:05:31  5-MIN KAOH 091605Z AUTO 26013KT 9SM OVC016 M05/M07 A3045 490 84 -1800 270/13 RMK AO2 SNE03 P0000 T10501072
04850KAOH AOH20161209111012612/09/16 11:10:31  5-MIN KAOH 091610Z AUTO 26013KT 10SM OVC016 M05/M07 A3045 490 84 -1800 260/13 RMK AO2 SNE03 P0000 T10501072
04850KAOH AOH20161209111512612/09/16 11:15:31  5-MIN KAOH 091615Z AUTO 26014KT 10SM OVC016 M05/M07 A3045 490 88 -1800 270/14 RMK AO2 SNE03 P0000 T10501067
04850KAOH AOH20161209112012612/09/16 11:20:31  5-MIN KAOH 091620Z AUTO 25013KT 10SM OVC016 M05/M07 A3045 490 84 -1800 260/13 RMK AO2 SNE03 P0000 T10501072
04850KAOH AOH20161209112512612/09/16 11:25:31  5-MIN KAOH 091625Z AUTO 26013KT 10SM OVC016 M05/M07 A3045 490 84 -1800 260/13 RMK AO2 SNE03 P0000 T10501072
04850KAOH AOH20161209113012612/09/16 11:30:31  5-MIN KAOH 091630Z AUTO 27013KT 10SM OVC016 M04/M07 A3045 490 81 -1700 270/13 RMK AO2 SNE03 P0000 T10441072
04850KAOH AOH20161209113512612/09/16 11:35:31  5-MIN KAOH 091635Z AUTO 26012KT 10SM OVC016 M04/M07 A3045 490 84 -1700 270/12 RMK AO2 SNE03 P0000 T10441067
04850KAOH AOH20161209114012612/09/16 11:40:31  5-MIN KAOH 091640Z AUTO 26014KT 10SM OVC016 M04/M07 A3045 490 84 -1700 270/14 RMK AO2 SNE03 P0000 T10441067
04850KAOH AOH20161209114512612/09/16 11:45:31  5-MIN KAOH 091645Z AUTO 26014KT 10SM OVC016 M04/M07 A3045 490 84 -1700 260/14 RMK AO2 SNE03 P0000 T10441067
04850KAOH AOH20161209115013312/09/16 11:50:31  5-MIN KAOH 091650Z AUTO 26016KT 10SM OVC016 M04/M07 A3045 490 84 -1700 270/16 RMK AO2 SNE03 SLP327 P0000 T10441067
04850KAOH AOH20161209115511412/09/16 11:55:31  5-MIN KAOH 091655Z AUTO 26012KT 10SM OVC016 M04/M07 A3045 490 84 -1700 270/12 RMK AO2 T10441067
04850KAOH AOH20161209120012912/09/16 12:00:31  5-MIN KAOH 091700Z AUTO 27013KT 9SM -SN OVC016 M04/M07 A3045 490 84 -1700 270/13 RMK AO2 SNB00 P0000 T10441067
04850KAOH AOH20161209120512912/09/16 12:05:31  5-MIN KAOH 091705Z AUTO 26013KT 7SM -SN OVC016 M04/M07 A3045 490 84 -1700 270/13 RMK AO2 SNB00 P0000 T10441067
04850KAOH AOH20161209121013212/09/16 12:10:31  5-MIN KAOH 091710Z AUTO 26013KT 4SM -SN BR OVC016 M04/M07 A3045 490 84 -1700 260/13 RMK AO2 SNB00 P0000 T10441067
04850KAOH AOH20161209121513212/09/16 12:15:31  5-MIN KAOH 091715Z AUTO 26014KT 2SM -SN BR OVC016 M04/M07 A3045 490 84 -1700 260/14 RMK AO2 SNB00 P0000 T10441067
04850KAOH AOH20161209122013612/09/16 12:20:31  5-MIN KAOH 091720Z AUTO 26015KT 1 3/4SM -SN BR OVC016 M04/M07 A3045 490 84 -1700 260/15 RMK AO2 SNB00 P0000 T10441067
04850KAOH AOH20161209122513612/09/16 12:25:31  5-MIN KAOH 091725Z AUTO 25014KT 1 1/2SM -SN BR OVC015 M04/M07 A3045 490 84 -1700 260/14 RMK AO2 SNB00 P0000 T10441067
04850KAOH AOH20161209123013612/09/16 12:30:31  5-MIN KAOH 091730Z AUTO 25012KT 1 1/2SM -SN BR OVC015 M04/M07 A3045 490 84 -1700 260/12 RMK AO2 SNB00 P0000 T10441067
04850KAOH AOH20161209123513612/09/16 12:35:31  5-MIN KAOH 091735Z AUTO 25012KT 1 1/4SM -SN BR OVC015 M04/M06 A3044 500 88 -1700 260/12 RMK AO2 SNB00 P0000 T10441061
04850KAOH AOH20161209124013612/09/16 12:40:31  5-MIN KAOH 091740Z AUTO 27012KT 1 1/4SM -SN BR OVC015 M04/M06 A3044 500 88 -1700 270/12 RMK AO2 SNB00 P0000 T10441061
04850KAOH AOH20161209124513612/09/16 12:45:31  5-MIN KAOH 091745Z AUTO 26011KT 1 1/4SM -SN BR OVC015 M04/M06 A3044 500 88 -1700 270/11 RMK AO2 SNB00 P0000 T10441061
04850KAOH AOH20161209125016712/09/16 12:50:31  5-MIN KAOH 091750Z AUTO 26012KT 1 1/2SM -SN BR OVC015 M04/M06 A3044 500 88 -1700 270/12 RMK AO2 SNB00 SLP324 P0000 60000 T10441061 11044 21067 53010
04850KAOH AOH20161209125513012/09/16 12:55:31  5-MIN KAOH 091755Z AUTO 26013KT 1 1/2SM -SN BR OVC015 M04/M06 A3044 500 88 -1700 270/13 RMK AO2 P0000 T10441061
04850KAOH AOH20161209130013012/09/16 13:00:31  5-MIN KAOH 091800Z AUTO 26012KT 1 3/4SM -SN BR OVC015 M04/M06 A3044 500 88 -1700 260/12 RMK AO2 P0000 T10441061
04850KAOH AOH20161209130512612/09/16 13:05:31  5-MIN KAOH 091805Z AUTO 27014KT 2SM -SN BR OVC014 M04/M06 A3044 500 88 -1700 270/14 RMK AO2 P0000 T10441061
04850KAOH AOH20161209131012612/09/16 13:10:31  5-MIN KAOH 091810Z AUTO 26012KT 2SM -SN BR OVC014 M04/M06 A3044 500 88 -1700 260/12 RMK AO2 P0000 T10441061
04850KAOH AOH20161209131512612/09/16 13:15:31  5-MIN KAOH 091815Z AUTO 25012KT 2SM -SN BR OVC014 M04/M06 A3043 510 92 -1700 260/12 RMK AO2 P0000 T10441056
04850KAOH AOH20161209132012612/09/16 13:20:31  5-MIN KAOH 091820Z AUTO 26012KT 2SM -SN BR OVC014 M04/M06 A3043 510 92 -1700 260/12 RMK AO2 P0000 T10441056
04850KAOH AOH20161209132512612/09/16 13:25:31  5-MIN KAOH 091825Z AUTO 25011KT 2SM -SN BR OVC014 M04/M06 A3043 510 88 -1600 260/11 RMK AO2 P0000 T10391056
04850KAOH AOH20161209133012612/09/16 13:30:31  5-MIN KAOH 091830Z AUTO 26013KT 2SM -SN BR OVC014 M04/M06 A3043 510 88 -1600 260/13 RMK AO2 P0000 T10391056
04850KAOH AOH20161209133512612/09/16 13:35:31  5-MIN KAOH 091835Z AUTO 25013KT 2SM -SN BR OVC014 M04/M06 A3043 510 88 -1600 260/13 RMK AO2 P0000 T10391056
04850KAOH AOH20161209134013012/09/16 13:40:31  5-MIN KAOH 091840Z AUTO 26011KT 2 1/2SM -SN BR OVC014 M04/M06 A3043 510 88 -1600 270/11 RMK AO2 P0000 T10391056
04850KAOH AOH20161209134512612/09/16 13:45:31  5-MIN KAOH 091845Z AUTO 26013KT 3SM -SN BR OVC014 M04/M06 A3043 510 88 -1600 270/13 RMK AO2 P0000 T10391056
04850KAOH AOH20161209135011612/09/16 13:50:31  5-MIN KAOH 091850Z AUTO 26012KT 3SM -SN BR OVC015 M04/M06 A3043 510 88 -1600 260/12 RMK AO2 P0000
04850KAOH AOH20161209135512612/09/16 13:55:31  5-MIN KAOH 091855Z AUTO 26011KT 3SM -SN BR OVC015 M04/M06 A3043 510 88 -1600 270/11 RMK AO2 P0000 T10391056
04850KAOH AOH20161209140012612/09/16 14:00:31  5-MIN KAOH 091900Z AUTO 25010KT 4SM -SN BR OVC015 M04/M06 A3043 510 88 -1600 260/10 RMK AO2 P0000 T10391056
04850KAOH AOH20161209140512612/09/16 14:05:31  5-MIN KAOH 091905Z AUTO 25010KT 4SM -SN BR OVC015 M04/M06 A3043 510 88 -1600 260/10 RMK AO2 P0000 T10391056
04850KAOH AOH20161209141012612/09/16 14:10:31  5-MIN KAOH 091910Z AUTO 26010KT 4SM -SN BR OVC015 M04/M06 A3042 510 88 -1600 260/10 RMK AO2 P0000 T10391056
04850KAOH AOH20161209141512612/09/16 14:15:31  5-MIN KAOH 091915Z AUTO 26010KT 4SM -SN BR OVC015 M04/M06 A3042 510 88 -1600 260/10 RMK AO2 P0000 T10391056
04850KAOH AOH20161209142012612/09/16 14:20:31  5-MIN KAOH 091920Z AUTO 25012KT 5SM -SN BR OVC015 M04/M06 A3042 510 88 -1600 260/12 RMK AO2 P0000 T10391056
04850KAOH AOH20161209142512612/09/16 14:25:31  5-MIN KAOH 091925Z AUTO 26012KT 5SM -SN BR OVC015 M04/M06 A3042 510 88 -1600 260/12 RMK AO2 P0000 T10391056
04850KAOH AOH20161209143012612/09/16 14:30:31  5-MIN KAOH 091930Z AUTO 25012KT 6SM -SN BR OVC015 M04/M06 A3042 510 88 -1600 260/12 RMK AO2 P0000 T10391056
04850KAOH AOH20161209143512312/09/16 14:35:31  5-MIN KAOH 091935Z AUTO 26012KT 7SM -SN OVC015 M03/M06 A3042 510 85 -1500 270/12 RMK AO2 P0000 T10331056
04850KAOH AOH20161209144012312/09/16 14:40:31  5-MIN KAOH 091940Z AUTO 25011KT 7SM -SN OVC015 M03/M06 A3042 520 85 -1500 260/11 RMK AO2 P0000 T10331056
04850KAOH AOH20161209144512312/09/16 14:45:31  5-MIN KAOH 091945Z AUTO 25010KT 8SM -SN OVC015 M03/M06 A3042 520 85 -1500 260/10 RMK AO2 P0000 T10331056
04850KAOH AOH20161209145013012/09/16 14:50:31  5-MIN KAOH 091950Z AUTO 25010KT 8SM -SN OVC016 M03/M06 A3042 520 85 -1500 250/10 RMK AO2 SLP316 P0000 T10331056
04850KAOH AOH20161209145512312/09/16 14:55:31  5-MIN KAOH 091955Z AUTO 24010KT 9SM -SN OVC016 M04/M06 A3042 520 88 -1600 250/10 RMK AO2 P0000 T10391056
04850KAOH AOH20161209150012312/09/16 15:00:31  5-MIN KAOH 092000Z AUTO 24010KT 9SM -SN OVC016 M03/M06 A3042 520 85 -1500 250/10 RMK AO2 P0000 T10331056
04850KAOH AOH20161209150512512/09/16 15:05:31  5-MIN KAOH 092005Z AUTO 25011KT 9SM OVC016 M03/M06 A3042 510 85 -1500 250/11 RMK AO2 SNE01 P0000 T10331056
04850KAOH AOH20161209151012612/09/16 15:10:31  5-MIN KAOH 092010Z AUTO 25012KT 10SM OVC016 M03/M06 A3043 510 85 -1500 250/12 RMK AO2 SNE01 P0000 T10331056
04850KAOH AOH20161209151512612/09/16 15:15:31  5-MIN KAOH 092015Z AUTO 25011KT 10SM OVC016 M03/M06 A3043 510 85 -1500 260/11 RMK AO2 SNE01 P0000 T10331056
04850KAOH AOH20161209152013312/09/16 15:20:31  5-MIN KAOH 092020Z AUTO 25011KT 10SM BKN017 OVC024 M03/M06 A3043 510 85 -1500 260/11 RMK AO2 SNE01 P0000 T10331056
04850KAOH AOH20161209152513312/09/16 15:25:31  5-MIN KAOH 092025Z AUTO 26010KT 10SM BKN017 OVC024 M03/M06 A3044 500 85 -1500 260/10 RMK AO2 SNE01 P0000 T10331056
04850KAOH AOH20161209153013912/09/16 15:30:31  5-MIN KAOH 092030Z AUTO 26014G19KT 10SM BKN017 OVC024 M03/M06 A3044 500 81 -1500 260/14G19 RMK AO2 SNE01 P0000 T10331061
04850KAOH AOH20161209153513912/09/16 15:35:31  5-MIN KAOH 092035Z AUTO 26012G19KT 10SM BKN017 OVC026 M03/M06 A3044 500 81 -1500 260/12G19 RMK AO2 SNE01 P0000 T10331061
04850KAOH AOH20161209154012612/09/16 15:40:31  5-MIN KAOH 092040Z AUTO 26012KT 10SM OVC018 M03/M06 A3044 500 81 -1500 270/12 RMK AO2 SNE01 P0000 T10331061
04850KAOH AOH20161209154513312/09/16 15:45:31  5-MIN KAOH 092045Z AUTO 26012KT 10SM BKN020 OVC026 M03/M06 A3044 500 81 -1500 260/12 RMK AO2 SNE01 P0000 T10331061
04850KAOH AOH20161209155014512/09/16 15:50:31  5-MIN KAOH 092050Z AUTO 27011KT 10SM OVC020 M03/M06 A3044 500 81 -1500 270/11 RMK AO2 SNE01 SLP323 P0000 60000 T10331061 58001
04850KAOH AOH20161209155511412/09/16 15:55:31  5-MIN KAOH 092055Z AUTO 26014KT 10SM OVC020 M03/M06 A3045 490 81 -1600 270/14 RMK AO2 T10331061
04850KAOH AOH20161209160011412/09/16 16:00:31  5-MIN KAOH 092100Z AUTO 25015KT 10SM OVC020 M03/M06 A3045 490 81 -1600 260/15 RMK AO2 T10331061
04850KAOH AOH20161209160512112/09/16 16:05:31  5-MIN KAOH 092105Z AUTO 26012KT 10SM BKN020 OVC028 M03/M06 A3045 490 81 -1600 260/12 RMK AO2 T10331061
04850KAOH AOH20161209161012112/09/16 16:10:31  5-MIN KAOH 092110Z AUTO 26012KT 10SM BKN020 OVC028 M03/M07 A3045 490 78 -1600 260/12 RMK AO2 T10331067
04850KAOH AOH20161209161511412/09/16 16:15:31  5-MIN KAOH 092115Z AUTO 26010KT 10SM OVC022 M03/M07 A3045 490 78 -1600 260/10 RMK AO2 T10331067
04850KAOH AOH20161209162012112/09/16 16:20:31  5-MIN KAOH 092120Z AUTO 26011KT 10SM BKN024 OVC028 M03/M07 A3045 490 78 -1600 260/11 RMK AO2 T10331067
04850KAOH AOH20161209162512112/09/16 16:25:31  5-MIN KAOH 092125Z AUTO 25009KT 10SM BKN022 OVC028 M03/M07 A3045 490 78 -1600 260/09 RMK AO2 T10331067
04850KAOH AOH20161209163012812/09/16 16:30:31  5-MIN KAOH 092130Z AUTO 25008KT 10SM SCT022 BKN028 OVC035 M03/M07 A3045 490 78 -1600 250/08 RMK AO2 T10331067
04850KAOH AOH20161209163512812/09/16 16:35:31  5-MIN KAOH 092135Z AUTO 25010KT 10SM FEW022 BKN027 OVC033 M03/M07 A3045 490 78 -1600 250/10 RMK AO2 T10331067
04850KAOH AOH20161209164012112/09/16 16:40:31  5-MIN KAOH 092140Z AUTO 24008KT 10SM BKN027 OVC035 M03/M07 A3044 500 78 -1600 250/08 RMK AO2 T10331067
04850KAOH AOH20161209164512112/09/16 16:45:31  5-MIN KAOH 092145Z AUTO 24009KT 10SM BKN028 OVC037 M04/M07 A3045 500 81 -1600 250/09 RMK AO2 T10391067
04850KAOH AOH20161209165012812/09/16 16:50:31  5-MIN KAOH 092150Z AUTO 24010KT 10SM BKN028 OVC035 M04/M07 A3045 490 81 -1600 240/10 RMK AO2 SLP325 T10391067
04850KAOH AOH20161209165512112/09/16 16:55:31  5-MIN KAOH 092155Z AUTO 24008KT 10SM BKN028 OVC035 M04/M07 A3045 490 81 -1600 240/08 RMK AO2 T10391067
04850KAOH AOH20161209170012112/09/16 17:00:31  5-MIN KAOH 092200Z AUTO 24010KT 10SM BKN028 OVC037 M04/M07 A3045 490 81 -1600 240/10 RMK AO2 T10391067
04850KAOH AOH20161209170512112/09/16 17:05:31  5-MIN KAOH 092205Z AUTO 24010KT 10SM SCT028 OVC037 M04/M07 A3045 490 78 -1600 250/10 RMK AO2 T10391072
04850KAOH AOH20161209171012112/09/16 17:10:31  5-MIN KAOH 092210Z AUTO 24010KT 10SM SCT028 OVC037 M04/M07 A3045 490 81 -1600 240/10 RMK AO2 T10391067
04850KAOH AOH20161209171512112/09/16 17:15:31  5-MIN KAOH 092215Z AUTO 23009KT 10SM BKN028 OVC037 M04/M07 A3045 490 81 -1600 240/09 RMK AO2 T10391067
04850KAOH AOH20161209172012112/09/16 17:20:31  5-MIN KAOH 092220Z AUTO 24010KT 10SM BKN028 OVC037 M04/M07 A3045 490 81 -1600 240/10 RMK AO2 T10391067
04850KAOH AOH20161209172512112/09/16 17:25:31  5-MIN KAOH 092225Z AUTO 23010KT 10SM BKN029 OVC037 M04/M07 A3045 490 81 -1600 240/10 RMK AO2 T10391067
04850KAOH AOH20161209173012112/09/16 17:30:31  5-MIN KAOH 092230Z AUTO 24009KT 10SM BKN029 OVC037 M04/M07 A3045 490 78 -1600 250/09 RMK AO2 T10391072
04850KAOH AOH20161209173511412/09/16 17:35:31  5-MIN KAOH 092235Z AUTO 23009KT 10SM OVC029 M04/M07 A3045 490 78 -1600 240/09 RMK AO2 T10391072
04850KAOH AOH20161209174011412/09/16 17:40:31  5-MIN KAOH 092240Z AUTO 23009KT 10SM OVC028 M04/M07 A3045 490 78 -1600 240/09 RMK AO2 T10391072
04850KAOH AOH20161209174511412/09/16 17:45:31  5-MIN KAOH 092245Z AUTO 24009KT 10SM OVC028 M04/M07 A3045 490 78 -1600 240/09 RMK AO2 T10391072
04850KAOH AOH20161209175012112/09/16 17:50:31  5-MIN KAOH 092250Z AUTO 24009KT 10SM OVC028 M04/M07 A3045 490 78 -1600 240/09 RMK AO2 SLP325 T10391072
04850KAOH AOH20161209175511412/09/16 17:55:31  5-MIN KAOH 092255Z AUTO 24011KT 10SM OVC030 M04/M07 A3045 490 78 -1600 240/11 RMK AO2 T10391072
04850KAOH AOH20161209180012112/09/16 18:00:31  5-MIN KAOH 092300Z AUTO 23009KT 10SM BKN028 OVC033 M04/M07 A3045 490 78 -1600 240/09 RMK AO2 T10391072
04850KAOH AOH20161209180512112/09/16 18:05:31  5-MIN KAOH 092305Z AUTO 23009KT 10SM BKN028 OVC033 M04/M07 A3045 490 78 -1600 240/09 RMK AO2 T10391072
04850KAOH AOH20161209181012112/09/16 18:10:31  5-MIN KAOH 092310Z AUTO 23010KT 10SM FEW025 OVC031 M04/M07 A3045 490 78 -1600 240/10 RMK AO2 T10391072
04850KAOH AOH20161209181511412/09/16 18:15:31  5-MIN KAOH 092315Z AUTO 23009KT 10SM OVC031 M04/M07 A3045 490 78 -1600 230/09 RMK AO2 T10391072
04850KAOH AOH20161209182012112/09/16 18:20:31  5-MIN KAOH 092320Z AUTO 23009KT 10SM SCT028 OVC033 M04/M07 A3045 490 78 -1600 230/09 RMK AO2 T10391072
04850KAOH AOH20161209182512112/09/16 18:25:31  5-MIN KAOH 092325Z AUTO 23010KT 10SM SCT025 OVC033 M04/M07 A3045 490 78 -1600 230/10 RMK AO2 T10391072
04850KAOH AOH20161209183012112/09/16 18:30:31  5-MIN KAOH 092330Z AUTO 23010KT 10SM SCT025 OVC031 M04/M07 A3045 490 78 -1600 230/10 RMK AO2 T10391072
04850KAOH AOH20161209183512112/09/16 18:35:31  5-MIN KAOH 092335Z AUTO 23009KT 10SM BKN027 OVC033 M04/M07 A3045 490 78 -1600 230/09 RMK AO2 T10391072
04850KAOH AOH20161209184012112/09/16 18:40:31  5-MIN KAOH 092340Z AUTO 23008KT 10SM BKN027 OVC033 M04/M07 A3045 490 78 -1600 230/08 RMK AO2 T10391072
04850KAOH AOH20161209184512812/09/16 18:45:31  5-MIN KAOH 092345Z AUTO 23009KT 10SM BKN027 BKN033 OVC044 M04/M07 A3046 490 78 -1600 240/09 RMK AO2 T10391072
04850KAOH AOH20161209185015212/09/16 18:50:31  5-MIN KAOH 092350Z AUTO 23009KT 10SM BKN027 OVC044 M04/M07 A3046 490 78 -1600 240/09 RMK AO2 SLP328 60000 T10391072 11033 21044 53005
04850KAOH AOH20161209185512112/09/16 18:55:31  5-MIN KAOH 092355Z AUTO 23010KT 10SM SCT027 OVC044 M04/M07 A3046 480 78 -1600 230/10 RMK AO2 T10391072
04850KAOH AOH20161209190012112/09/16 19:00:31  5-MIN KAOH 100000Z AUTO 23009KT 10SM SCT027 OVC044 M04/M07 A3046 480 78 -1600 230/09 RMK AO2 T10391072
04850KAOH AOH20161209190512112/09/16 19:05:31  5-MIN KAOH 100005Z AUTO 23008KT 10SM FEW028 OVC044 M04/M07 A3046 480 78 -1600 240/08 RMK AO2 T10391072
04850KAOH AOH20161209191011412/09/16 19:10:31  5-MIN KAOH 100010Z AUTO 23008KT 10SM OVC045 M04/M07 A3046 480 78 -1600 240/08 RMK AO2 T10391072
04850KAOH AOH20161209191511412/09/16 19:15:31  5-MIN KAOH 100015Z AUTO 23009KT 10SM OVC045 M04/M07 A3046 480 78 -1600 240/09 RMK AO2 T10391072
04850KAOH AOH20161209192011412/09/16 19:20:31  5-MIN KAOH 100020Z AUTO 23008KT 10SM OVC045 M04/M07 A3046 480 78 -1600 240/08 RMK AO2 T10391072
04850KAOH AOH20161209192511412/09/16 19:25:31  5-MIN KAOH 100025Z AUTO 23007KT 10SM OVC045 M04/M07 A3046 480 78 -1600 240/07 RMK AO2 T10391072
04850KAOH AOH20161209193011412/09/16 19:30:31  5-MIN KAOH 100030Z AUTO 23008KT 10SM OVC045 M04/M07 A3046 480 78 -1600 240/08 RMK AO2 T10391072
04850KAOH AOH20161210053012112/10/16 05:30:31  5-MIN KAOH 101030Z AUTO 25010KT 10SM SCT040 BKN110 M07/M09 A3048 470 81 -2000 260/10 RMK AO2 T10671094
04850KAOH AOH20161210053512112/10/16 05:35:31  5-MIN KAOH 101035Z AUTO 25009KT 10SM SCT040 BKN110 M07/M09 A3048 470 81 -2000 250/09 RMK AO2 T10671094
04850KAOH AOH20161210054012112/10/16 05:40:31  5-MIN KAOH 101040Z AUTO 25009KT 10SM FEW040 SCT110 M07/M09 A3048 470 81 -2000 250/09 RMK AO2 T10671094
04850KAOH AOH20161210054511412/10/16 05:45:31  5-MIN KAOH 101045Z AUTO 24008KT 10SM FEW110 M07/M10 A3048 460 77 -2000 250/08 RMK AO2 T10671100
04850KAOH AOH20161210055012112/10/16 05:50:31  5-MIN KAOH 101050Z AUTO 24009KT 10SM FEW110 M07/M09 A3048 460 81 -2000 240/09 RMK AO2 SLP336 T10671094
04850KAOH AOH20161210055511412/10/16 05:55:31  5-MIN KAOH 101055Z AUTO 24008KT 10SM SCT120 M07/M09 A3048 460 81 -2000 240/08 RMK AO2 T10671094
04850KAOH AOH20161210060011412/10/16 06:00:31  5-MIN KAOH 101100Z AUTO 25009KT 10SM BKN120 M07/M09 A3049 460 81 -2000 250/09 RMK AO2 T10671094
04850KAOH AOH20161210060511412/10/16 06:05:31  5-MIN KAOH 101105Z AUTO 24008KT 10SM BKN120 M07/M09 A3049 460 81 -2000 250/08 RMK AO2 T10671094
04850KAOH AOH20161210061011412/10/16 06:10:31  5-MIN KAOH 101110Z AUTO 24008KT 10SM BKN120 M07/M09 A3049 450 81 -2000 250/08 RMK AO2 T10671094
04850KAOH AOH20161210061511412/10/16 06:15:31  5-MIN KAOH 101115Z AUTO 25008KT 10SM BKN120 M07/M09 A3049 450 81 -2000 250/08 RMK AO2 T10671094
04850KAOH AOH20161210062011412/10/16 06:20:31  5-MIN KAOH 101120Z AUTO 25008KT 10SM OVC120 M07/M09 A3049 450 81 -2000 250/08 RMK AO2 T10671094
04850KAOH AOH20161210062511412/10/16 06:25:31  5-MIN KAOH 101125Z AUTO 25009KT 10SM OVC120 M07/M09 A3050 450 81 -2000 260/09 RMK AO2 T10671094
04850KAOH AOH20161210063011412/10/16 06:30:31  5-MIN KAOH 101130Z AUTO 25009KT 10SM OVC120 M07/M09 A3049 450 81 -2000 260/09 RMK AO2 T10671094
04850KAOH AOH20161210063511412/10/16 06:35:31  5-MIN KAOH 101135Z AUTO 25008KT 10SM OVC120 M07/M10 A3049 450 77 -2000 260/08 RMK AO2 T10671100
04850KAOH AOH20161210064011412/10/16 06:40:31  5-MIN KAOH 101140Z AUTO 25009KT 10SM OVC120 M07/M09 A3050 450 81 -2000 260/09 RMK AO2 T10671094
04850KAOH AOH20161210064511412/10/16 06:45:31  5-MIN KAOH 101145Z AUTO 26009KT 10SM OVC120 M07/M10 A3050 450 77 -2000 260/09 RMK AO2 T10671100
04850KAOH AOH20161210065013912/10/16 06:50:31  5-MIN KAOH 101150Z AUTO 25008KT 10SM OVC120 M07/M09 A3049 450 81 -2000 260/08 RMK AO2 SLP341 T10671094 11056 21067 53010
04850KAOH AOH20161210065511412/10/16 06:55:31  5-MIN KAOH 101155Z AUTO 25008KT 10SM OVC120 M07/M10 A3049 450 81 -2100 250/08 RMK AO2 T10721100
04850KAOH AOH20161210070011412/10/16 07:00:31  5-MIN KAOH 101200Z AUTO 25009KT 10SM OVC120 M07/M10 A3049 450 81 -2100 260/09 RMK AO2 T10721100
04850KAOH AOH20161210070511412/10/16 07:05:31  5-MIN KAOH 101205Z AUTO 25008KT 10SM OVC120 M07/M10 A3049 450 81 -2100 260/08 RMK AO2 T10721100
04850KAOH AOH20161210071011412/10/16 07:10:31  5-MIN KAOH 101210Z AUTO 25008KT 10SM OVC120 M07/M10 A3050 450 81 -2100 260/08 RMK AO2 T10721100
04850KAOH AOH20161210071511412/10/16 07:15:31  5-MIN KAOH 101215Z AUTO 25009KT 10SM BKN120 M07/M10 A3050 450 81 -2100 260/09 RMK AO2 T10721100
04850KAOH AOH20161210072011412/10/16 07:20:31  5-MIN KAOH 101220Z AUTO 25008KT 10SM BKN120 M07/M10 A3050 440 81 -2100 260/08 RMK AO2 T10721100
04850KAOH AOH20161210072511412/10/16 07:25:31  5-MIN KAOH 101225Z AUTO 25008KT 10SM SCT120 M07/M10 A3050 440 81 -2100 250/08 RMK AO2 T10721100
04850KAOH AOH20161210073012112/10/16 07:30:31  5-MIN KAOH 101230Z AUTO 25009KT 10SM FEW085 SCT120 M07/M10 A3050 440 81 -2100 250/09 RMK AO2 T10721100
04850KAOH AOH20161210073512112/10/16 07:35:31  5-MIN KAOH 101235Z AUTO 24007KT 10SM SCT080 BKN120 M08/M10 A3050 440 84 -2200 250/07 RMK AO2 T10781100
04850KAOH AOH20161210074012112/10/16 07:40:31  5-MIN KAOH 101240Z AUTO 25007KT 10SM FEW060 BKN080 M08/M10 A3050 440 84 -2200 250/07 RMK AO2 T10781100
04850KAOH AOH20161210074512112/10/16 07:45:31  5-MIN KAOH 101245Z AUTO 25007KT 10SM SCT070 BKN080 M08/M10 A3050 440 84 -2200 250/07 RMK AO2 T10781100
04850KAOH AOH20161210075012812/10/16 07:50:31  5-MIN KAOH 101250Z AUTO 24006KT 10SM BKN065 BKN080 M08/M10 A3050 440 84 -2200 250/06 RMK AO2 SLP345 T10781100
04850KAOH AOH20161210075512112/10/16 07:55:31  5-MIN KAOH 101255Z AUTO 24005KT 10SM BKN060 OVC080 M08/M10 A3050 440 84 -2200 250/05 RMK AO2 T10781100
04850KAOH AOH20161210080012112/10/16 08:00:31  5-MIN KAOH 101300Z AUTO 23005KT 10SM BKN055 OVC070 M08/M10 A3050 450 84 -2200 240/05 RMK AO2 T10781100
04850KAOH AOH20161210080512812/10/16 08:05:31  5-MIN KAOH 101305Z AUTO 23006KT 10SM BKN055 BKN070 OVC120 M08/M10 A3050 450 84 -2200 240/06 RMK AO2 T10781100
04850KAOH AOH20161210081012812/10/16 08:10:31  5-MIN KAOH 101310Z AUTO 23006KT 10SM SCT055 BKN070 OVC120 M07/M10 A3049 450 81 -2100 240/06 RMK AO2 T10721100
04850KAOH AOH20161210081512112/10/16 08:15:31  5-MIN KAOH 101315Z AUTO 23006KT 10SM SCT055 OVC120 M07/M10 A3050 450 81 -2100 240/06 RMK AO2 T10721100
04850KAOH AOH20161210082012112/10/16 08:20:31  5-MIN KAOH 101320Z AUTO 24006KT 10SM FEW050 OVC120 M07/M10 A3050 450 81 -2100 240/06 RMK AO2 T10721100
04850KAOH AOH20161210082512112/10/16 08:25:31  5-MIN KAOH 101325Z AUTO 25005KT 10SM FEW048 OVC120 M07/M10 A3050 450 81 -2100 250/05 RMK AO2 T10721100
04850KAOH AOH20161210083011412/10/16 08:30:31  5-MIN KAOH 101330Z AUTO 24005KT 10SM OVC120 M07/M09 A3050 450 84 -2100 250/05 RMK AO2 T10721094
04850KAOH AOH20161210083511412/10/16 08:35:31  5-MIN KAOH 101335Z AUTO 25006KT 10SM OVC120 M07/M09 A3050 440 84 -2100 250/06 RMK AO2 T10721094
04850KAOH AOH20161210084011412/10/16 08:40:31  5-MIN KAOH 101340Z AUTO 25006KT 10SM OVC110 M07/M09 A3050 440 81 -2000 260/06 RMK AO2 T10671094
04850KAOH AOH20161210084511412/10/16 08:45:31  5-MIN KAOH 101345Z AUTO 26007KT 10SM OVC110 M07/M09 A3050 440 81 -2000 260/07 RMK AO2 T10671094
04850KAOH AOH20161210085012112/10/16 08:50:31  5-MIN KAOH 101350Z AUTO 26006KT 10SM OVC110 M07/M09 A3051 440 81 -2000 260/06 RMK AO2 SLP345 T10671094
04850KAOH AOH20161210085511412/10/16 08:55:31  5-MIN KAOH 101355Z AUTO 25007KT 10SM OVC110 M07/M09 A3051 440 81 -2100 260/07 RMK AO2 T10671094
04850KAOH AOH20161210090011412/10/16 09:00:31  5-MIN KAOH 101400Z AUTO 25007KT 10SM OVC110 M07/M09 A3051 440 81 -2100 260/07 RMK AO2 T10671094
04850KAOH AOH20161210090511412/10/16 09:05:31  5-MIN KAOH 101405Z AUTO 25007KT 10SM OVC110 M07/M09 A3050 440 81 -2000 260/07 RMK AO2 T10671094
04850KAOH AOH20161210091011412/10/16 09:10:31  5-MIN KAOH 101410Z AUTO 26006KT 10SM OVC110 M07/M09 A3050 450 81 -2000 260/06 RMK AO2 T10671094
04850KAOH AOH20161210091511412/10/16 09:15:31  5-MIN KAOH 101415Z AUTO 25006KT 10SM OVC110 M07/M09 A3050 450 81 -2000 260/06 RMK AO2 T10671094
04850KAOH AOH20161210092011412/10/16 09:20:31  5-MIN KAOH 101420Z AUTO 25006KT 10SM OVC110 M07/M09 A3050 450 81 -2000 260/06 RMK AO2 T10671094
04850KAOH AOH20161210092511412/10/16 09:25:31  5-MIN KAOH 101425Z AUTO 24007KT 10SM OVC110 M06/M09 A3050 450 77 -2000 240/07 RMK AO2 T10611094
04850KAOH AOH20161210093011412/10/16 09:30:31  5-MIN KAOH 101430Z AUTO 24006KT 10SM OVC110 M06/M09 A3050 450 77 -2000 250/06 RMK AO2 T10611094
04850KAOH AOH20161210093511412/10/16 09:35:31  5-MIN KAOH 101435Z AUTO 25006KT 10SM OVC110 M06/M09 A3050 450 77 -2000 250/06 RMK AO2 T10611094
04850KAOH AOH20161210094011412/10/16 09:40:31  5-MIN KAOH 101440Z AUTO 24007KT 10SM OVC110 M06/M09 A3050 440 77 -2000 250/07 RMK AO2 T10611094
04850KAOH AOH20161210094511412/10/16 09:45:31  5-MIN KAOH 101445Z AUTO 24008KT 10SM OVC110 M06/M09 A3050 440 77 -2000 250/08 RMK AO2 T10611094
04850KAOH AOH20161210095012712/10/16 09:50:31  5-MIN KAOH 101450Z AUTO 24008KT 10SM BKN110 M06/M09 A3050 440 77 -2000 250/08 RMK AO2 SLP344 T10611094 53002
04850KAOH AOH20161210095511412/10/16 09:55:31  5-MIN KAOH 101455Z AUTO 24008KT 10SM BKN110 M06/M09 A3050 440 77 -2000 250/08 RMK AO2 T10611094
04850KAOH AOH20161210100011412/10/16 10:00:31  5-MIN KAOH 101500Z AUTO 25009KT 10SM SCT110 M06/M09 A3050 440 77 -2000 260/09 RMK AO2 T10611094
04850KAOH AOH20161210100511412/10/16 10:05:31  5-MIN KAOH 101505Z AUTO 25008KT 10SM SCT110 M06/M09 A3050 440 74 -1900 260/08 RMK AO2 T10561094
04850KAOH AOH20161210101011412/10/16 10:10:31  5-MIN KAOH 101510Z AUTO 24007KT 10SM FEW110 M06/M09 A3050 440 74 -1900 250/07 RMK AO2 T10561094
04850KAOH AOH20161210101511112/10/16 10:15:31  5-MIN KAOH 101515Z AUTO 25010KT 10SM CLR M06/M09 A3051 440 74 -1900 250/10 RMK AO2 T10561094
04850KAOH AOH20161210102011112/10/16 10:20:31  5-MIN KAOH 101520Z AUTO 25011KT 10SM CLR M05/M09 A3051 440 74 -1800 260/11 RMK AO2 T10501089
04850KAOH AOH20161210102511112/10/16 10:25:31  5-MIN KAOH 101525Z AUTO 26010KT 10SM CLR M06/M09 A3051 440 74 -1900 270/10 RMK AO2 T10561094
04850KAOH AOH20161210103011112/10/16 10:30:31  5-MIN KAOH 101530Z AUTO 25011KT 10SM CLR M05/M09 A3051 440 74 -1800 260/11 RMK AO2 T10501089
04850KAOH AOH20161210103511112/10/16 10:35:31  5-MIN KAOH 101535Z AUTO 25011KT 10SM CLR M05/M09 A3051 430 74 -1800 260/11 RMK AO2 T10501089
04850KAOH AOH20161210104011112/10/16 10:40:31  5-MIN KAOH 101540Z AUTO 25012KT 10SM CLR M05/M09 A3051 430 71 -1800 260/12 RMK AO2 T10501094
04850KAOH AOH20161210104511112/10/16 10:45:31  5-MIN KAOH 101545Z AUTO 24014KT 10SM CLR M05/M09 A3052 430 71 -1800 250/14 RMK AO2 T10501094
04850KAOH AOH20161210105011812/10/16 10:50:31  5-MIN KAOH 101550Z AUTO 26015KT 10SM CLR M04/M09 A3052 430 71 -1800 260/15 RMK AO2 SLP348 T10441089
04850KAOH AOH20161210105511112/10/16 10:55:31  5-MIN KAOH 101555Z AUTO 25011KT 10SM CLR M05/M09 A3052 430 74 -1800 260/11 RMK AO2 T10501089
04850KAOH AOH20161210110011112/10/16 11:00:31  5-MIN KAOH 101600Z AUTO 25014KT 10SM CLR M05/M09 A3051 430 74 -1800 260/14 RMK AO2 T10501089
04850KAOH AOH20161210110511412/10/16 11:05:31  5-MIN KAOH 101605Z AUTO 25014KT 10SM FEW026 M04/M09 A3051 440 71 -1800 260/14 RMK AO2 T10441089
04850KAOH AOH20161210111011412/10/16 11:10:31  5-MIN KAOH 101610Z AUTO 26014KT 10SM SCT026 M05/M09 A3051 440 74 -1800 260/14 RMK AO2 T10501089
04850KAOH AOH20161210111511412/10/16 11:15:31  5-MIN KAOH 101615Z AUTO 25012KT 10SM SCT026 M04/M09 A3051 440 71 -1800 250/12 RMK AO2 T10441089
04850KAOH AOH20161210112011412/10/16 11:20:31  5-MIN KAOH 101620Z AUTO 25012KT 10SM BKN028 M04/M09 A3051 440 71 -1800 260/12 RMK AO2 T10441089
04850KAOH AOH20161210112511412/10/16 11:25:31  5-MIN KAOH 101625Z AUTO 26013KT 10SM BKN028 M04/M09 A3051 440 68 -1700 260/13 RMK AO2 T10391089
04850KAOH AOH20161210113011412/10/16 11:30:31  5-MIN KAOH 101630Z AUTO 24013KT 10SM OVC028 M04/M09 A3051 440 71 -1800 250/13 RMK AO2 T10441089
04850KAOH AOH20161210113511412/10/16 11:35:31  5-MIN KAOH 101635Z AUTO 25012KT 10SM OVC028 M04/M09 A3050 440 71 -1800 260/12 RMK AO2 T10441089
04850KAOH AOH20161210114011412/10/16 11:40:31  5-MIN KAOH 101640Z AUTO 25012KT 10SM OVC028 M04/M08 A3050 440 74 -1800 260/12 RMK AO2 T10441083
04850KAOH AOH20161210114511412/10/16 11:45:31  5-MIN KAOH 101645Z AUTO 25013KT 10SM OVC027 M04/M09 A3050 450 71 -1800 250/13 RMK AO2 T10441089
04850KAOH AOH20161210115012112/10/16 11:50:31  5-MIN KAOH 101650Z AUTO 23013KT 10SM OVC027 M04/M09 A3049 450 71 -1700 240/13 RMK AO2 SLP341 T10441089
04850KAOH AOH20161210115511412/10/16 11:55:31  5-MIN KAOH 101655Z AUTO 26012KT 10SM OVC026 M04/M09 A3049 460 71 -1700 260/12 RMK AO2 T10441089
04850KAOH AOH20161210120011412/10/16 12:00:31  5-MIN KAOH 101700Z AUTO 24013KT 10SM OVC024 M04/M09 A3049 460 71 -1700 240/13 RMK AO2 T10441089
04850KAOH AOH20161210120511412/10/16 12:05:31  5-MIN KAOH 101705Z AUTO 25013KT 10SM OVC024 M04/M09 A3048 460 71 -1700 250/13 RMK AO2 T10441089
04850KAOH AOH20161210121011412/10/16 12:10:31  5-MIN KAOH 101710Z AUTO 25015KT 10SM OVC024 M04/M09 A3049 460 71 -1700 250/15 RMK AO2 T10441089
04850KAOH AOH20161210121511412/10/16 12:15:31  5-MIN KAOH 101715Z AUTO 25015KT 10SM OVC024 M04/M09 A3049 460 71 -1700 260/15 RMK AO2 T10441089
04850KAOH AOH20161210122011412/10/16 12:20:31  5-MIN KAOH 101720Z AUTO 25014KT 10SM OVC024 M04/M09 A3049 460 68 -1700 260/14 RMK AO2 T10441094
04850KAOH AOH20161210122511412/10/16 12:25:31  5-MIN KAOH 101725Z AUTO 26012KT 10SM OVC024 M04/M09 A3048 460 71 -1700 260/12 RMK AO2 T10441089
04850KAOH AOH20161210123011412/10/16 12:30:31  5-MIN KAOH 101730Z AUTO 25014KT 10SM OVC024 M04/M09 A3048 460 71 -1700 260/14 RMK AO2 T10441089
04850KAOH AOH20161210123511412/10/16 12:35:31  5-MIN KAOH 101735Z AUTO 26011KT 10SM OVC024 M04/M08 A3048 460 74 -1700 270/11 RMK AO2 T10441083
04850KAOH AOH20161210124011412/10/16 12:40:31  5-MIN KAOH 101740Z AUTO 27011KT 10SM OVC024 M04/M08 A3048 470 74 -1700 270/11 RMK AO2 T10441083
04850KAOH AOH20161210124511412/10/16 12:45:31  5-MIN KAOH 101745Z AUTO 26011KT 10SM OVC024 M04/M08 A3047 470 74 -1700 260/11 RMK AO2 T10441083
04850KAOH AOH20161210125013912/10/16 12:50:31  5-MIN KAOH 101750Z AUTO 27014KT 10SM OVC024 M04/M08 A3047 480 74 -1700 270/14 RMK AO2 SLP332 T10441083 11039 21078 50004
04850KAOH AOH20161210125511412/10/16 12:55:31  5-MIN KAOH 101755Z AUTO 26013KT 10SM OVC024 M04/M09 A3046 480 71 -1700 260/13 RMK AO2 T10441089
04850KAOH AOH20161210130011412/10/16 13:00:31  5-MIN KAOH 101800Z AUTO 26009KT 10SM OVC024 M04/M08 A3046 480 74 -1700 270/09 RMK AO2 T10441083
04850KAOH AOH20161210130511412/10/16 13:05:31  5-MIN KAOH 101805Z AUTO 27011KT 10SM OVC024 M04/M08 A3046 480 71 -1600 270/11 RMK AO2 T10391083
04850KAOH AOH20161210131011412/10/16 13:10:31  5-MIN KAOH 101810Z AUTO 26010KT 10SM OVC024 M04/M08 A3046 480 74 -1700 260/10 RMK AO2 T10441083
04850KAOH AOH20161210131511412/10/16 13:15:31  5-MIN KAOH 101815Z AUTO 25013KT 10SM OVC024 M04/M08 A3046 480 71 -1600 260/13 RMK AO2 T10391083
04850KAOH AOH20161210132011412/10/16 13:20:31  5-MIN KAOH 101820Z AUTO 26011KT 10SM OVC023 M04/M09 A3046 480 71 -1700 270/11 RMK AO2 T10441089
04850KAOH AOH20161210132511412/10/16 13:25:31  5-MIN KAOH 101825Z AUTO 25011KT 10SM OVC023 M04/M08 A3046 480 74 -1700 260/11 RMK AO2 T10441083
04850KAOH AOH20161210133011412/10/16 13:30:31  5-MIN KAOH 101830Z AUTO 24010KT 10SM OVC023 M04/M08 A3046 480 71 -1600 250/10 RMK AO2 T10391083
04850KAOH AOH20161210133511412/10/16 13:35:31  5-MIN KAOH 101835Z AUTO 24012KT 10SM OVC023 M04/M08 A3045 490 71 -1600 240/12 RMK AO2 T10391083
04850KAOH AOH20161210134011412/10/16 13:40:31  5-MIN KAOH 101840Z AUTO 24012KT 10SM OVC025 M04/M08 A3045 490 71 -1600 250/12 RMK AO2 T10391083
04850KAOH AOH20161210134511412/10/16 13:45:31  5-MIN KAOH 101845Z AUTO 24012KT 10SM OVC025 M04/M09 A3045 490 68 -1600 240/12 RMK AO2 T10391089
04850KAOH AOH20161210135012112/10/16 13:50:31  5-MIN KAOH 101850Z AUTO 24013KT 10SM OVC025 M04/M08 A3045 490 71 -1600 250/13 RMK AO2 SLP327 T10391083
04850KAOH AOH20161210135512412/10/16 13:55:31  5-MIN KAOH 101855Z AUTO 25012KT 10SM -SN OVC025 M04/M08 A3045 490 71 -1600 250/12 RMK AO2 P0000 T10391083
04850KAOH AOH20161210140012312/10/16 14:00:31  5-MIN KAOH 101900Z AUTO 25012KT 9SM -SN OVC026 M04/M08 A3046 480 71 -1600 260/12 RMK AO2 P0000 T10391083
04850KAOH AOH20161210140512512/10/16 14:05:31  5-MIN KAOH 101905Z AUTO 26013KT 9SM OVC026 M04/M08 A3045 490 71 -1600 260/13 RMK AO2 SNE01 P0000 T10391083
04850KAOH AOH20161210141012612/10/16 14:10:31  5-MIN KAOH 101910Z AUTO 25012KT 10SM OVC026 M04/M08 A3045 490 71 -1600 260/12 RMK AO2 SNE01 P0000 T10391083
04850KAOH AOH20161210141512612/10/16 14:15:31  5-MIN KAOH 101915Z AUTO 26010KT 10SM OVC028 M04/M08 A3045 490 71 -1600 260/10 RMK AO2 SNE01 P0000 T10391083
04850KAOH AOH20161210142012612/10/16 14:20:31  5-MIN KAOH 101920Z AUTO 25011KT 10SM OVC028 M04/M08 A3045 490 71 -1600 250/11 RMK AO2 SNE01 P0000 T10391083
04850KAOH AOH20161210142512612/10/16 14:25:31  5-MIN KAOH 101925Z AUTO 25010KT 10SM OVC030 M04/M08 A3044 500 71 -1600 250/10 RMK AO2 SNE01 P0000 T10391083
04850KAOH AOH20161210143012612/10/16 14:30:31  5-MIN KAOH 101930Z AUTO 25011KT 10SM OVC030 M04/M08 A3044 500 71 -1600 250/11 RMK AO2 SNE01 P0000 T10391083
04850KAOH AOH20161210143512612/10/16 14:35:31  5-MIN KAOH 101935Z AUTO 25010KT 10SM OVC030 M04/M08 A3044 500 74 -1600 250/10 RMK AO2 SNE01 P0000 T10391078
04850KAOH AOH20161210144012612/10/16 14:40:31  5-MIN KAOH 101940Z AUTO 24009KT 10SM OVC029 M04/M08 A3044 500 74 -1600 250/09 RMK AO2 SNE01 P0000 T10391078
04850KAOH AOH20161210144512612/10/16 14:45:31  5-MIN KAOH 101945Z AUTO 25010KT 10SM OVC029 M04/M08 A3044 500 74 -1600 260/10 RMK AO2 SNE01 P0000 T10391078
04850KAOH AOH20161210145013312/10/16 14:50:31  5-MIN KAOH 101950Z AUTO 24008KT 10SM OVC029 M04/M08 A3044 500 71 -1600 250/08 RMK AO2 SNE01 SLP323 P0000 T10391083
04850KAOH AOH20161210145511412/10/16 14:55:31  5-MIN KAOH 101955Z AUTO 26009KT 10SM OVC029 M04/M08 A3044 500 74 -1600 260/09 RMK AO2 T10391078
04850KAOH AOH20161210150011412/10/16 15:00:31  5-MIN KAOH 102000Z AUTO 25010KT 10SM OVC029 M04/M08 A3044 500 71 -1600 250/10 RMK AO2 T10391083
04850KAOH AOH20161210150511412/10/16 15:05:31  5-MIN KAOH 102005Z AUTO 23009KT 10SM OVC029 M04/M08 A3044 500 71 -1600 240/09 RMK AO2 T10391083
04850KAOH AOH20161210151011412/10/16 15:10:31  5-MIN KAOH 102010Z AUTO 24009KT 10SM OVC029 M04/M08 A3044 500 74 -1600 240/09 RMK AO2 T10391078
04850KAOH AOH20161210151511412/10/16 15:15:31  5-MIN KAOH 102015Z AUTO 24010KT 10SM OVC029 M04/M08 A3044 500 71 -1600 240/10 RMK AO2 T10391083
04850KAOH AOH20161210152012112/10/16 15:20:31  5-MIN KAOH 102020Z AUTO 26008KT 10SM BKN027 OVC033 M04/M08 A3044 500 71 -1600 260/08 RMK AO2 T10391083
04850KAOH AOH20161210152512112/10/16 15:25:31  5-MIN KAOH 102025Z AUTO 25008KT 10SM BKN027 OVC032 M03/M08 A3044 500 68 -1500 250/08 RMK AO2 T10331083
04850KAOH AOH20161210153011412/10/16 15:30:31  5-MIN KAOH 102030Z AUTO 23009KT 10SM OVC029 M04/M09 A3044 500 68 -1600 240/09 RMK AO2 T10391089
04850KAOH AOH20161210153511412/10/16 15:35:31  5-MIN KAOH 102035Z AUTO 24011KT 10SM OVC029 M04/M09 A3044 500 68 -1600 250/11 RMK AO2 T10391089
04850KAOH AOH20161210154011412/10/16 15:40:31  5-MIN KAOH 102040Z AUTO 25008KT 10SM OVC029 M04/M09 A3044 500 68 -1600 260/08 RMK AO2 T10391089
04850KAOH AOH20161210154511412/10/16 15:45:31  5-MIN KAOH 102045Z AUTO 26009KT 10SM OVC029 M04/M08 A3045 490 71 -1600 260/09 RMK AO2 T10391083
04850KAOH AOH20161210155013312/10/16 15:50:31  5-MIN KAOH 102050Z AUTO 25009KT 10SM OVC029 M04/M08 A3045 490 71 -1600 260/09 RMK AO2 SLP325 60000 T10391083 58013
04850KAOH AOH20161210155511412/10/16 15:55:31  5-MIN KAOH 102055Z AUTO 24009KT 10SM OVC029 M04/M08 A3045 490 71 -1600 250/09 RMK AO2 T10391083
04850KAOH AOH20161210160011412/10/16 16:00:31  5-MIN KAOH 102100Z AUTO 25008KT 10SM OVC031 M04/M09 A3045 490 68 -1600 260/08 RMK AO2 T10391089
04850KAOH AOH20161210160511412/10/16 16:05:31  5-MIN KAOH 102105Z AUTO 24009KT 10SM OVC031 M04/M09 A3045 490 68 -1600 250/09 RMK AO2 T10391089
04850KAOH AOH20161210161011412/10/16 16:10:31  5-MIN KAOH 102110Z AUTO 23009KT 10SM OVC031 M04/M09 A3045 490 68 -1600 240/09 RMK AO2 T10391089
04850KAOH AOH20161210161511412/10/16 16:15:31  5-MIN KAOH 102115Z AUTO 24010KT 10SM OVC031 M04/M09 A3045 490 68 -1600 240/10 RMK AO2 T10391089
04850KAOH AOH20161210162011412/10/16 16:20:31  5-MIN KAOH 102120Z AUTO 24008KT 10SM OVC033 M04/M09 A3045 490 68 -1600 250/08 RMK AO2 T10391089
04850KAOH AOH20161210162511412/10/16 16:25:31  5-MIN KAOH 102125Z AUTO 24008KT 10SM OVC033 M04/M09 A3045 490 68 -1600 240/08 RMK AO2 T10391089
04850KAOH AOH20161210163011412/10/16 16:30:31  5-MIN KAOH 102130Z AUTO 23009KT 10SM OVC033 M04/M09 A3045 490 68 -1600 240/09 RMK AO2 T10391089
04850KAOH AOH20161210163511412/10/16 16:35:31  5-MIN KAOH 102135Z AUTO 23007KT 10SM OVC033 M04/M09 A3045 490 68 -1600 240/07 RMK AO2 T10391089
04850KAOH AOH20161210164011412/10/16 16:40:31  5-MIN KAOH 102140Z AUTO 23008KT 10SM OVC033 M04/M09 A3045 490 65 -1600 240/08 RMK AO2 T10391094
04850KAOH AOH20161210164511412/10/16 16:45:31  5-MIN KAOH 102145Z AUTO 23009KT 10SM OVC033 M04/M09 A3044 500 65 -1600 240/09 RMK AO2 T10391094
04850KAOH AOH20161210165012112/10/16 16:50:31  5-MIN KAOH 102150Z AUTO 24009KT 10SM OVC033 M04/M09 A3044 500 65 -1600 240/09 RMK AO2 SLP324 T10391094
04850KAOH AOH20161210165511412/10/16 16:55:31  5-MIN KAOH 102155Z AUTO 23008KT 10SM OVC033 M04/M09 A3044 500 65 -1600 240/08 RMK AO2 T10391094
04850KAOH AOH20161210170011412/10/16 17:00:31  5-MIN KAOH 102200Z AUTO 23007KT 10SM OVC033 M04/M09 A3044 500 68 -1600 230/07 RMK AO2 T10391089
04850KAOH AOH20161210170511412/10/16 17:05:31  5-MIN KAOH 102205Z AUTO 23007KT 10SM OVC033 M04/M09 A3043 510 65 -1600 240/07 RMK AO2 T10391094
04850KAOH AOH20161210171011412/10/16 17:10:31  5-MIN KAOH 102210Z AUTO 23006KT 10SM OVC033 M04/M09 A3044 500 68 -1600 240/06 RMK AO2 T10391089
04850KAOH AOH20161210171511412/10/16 17:15:31  5-MIN KAOH 102215Z AUTO 23006KT 10SM OVC033 M04/M09 A3043 510 65 -1600 230/06 RMK AO2 T10391094
04850KAOH AOH20161210172011412/10/16 17:20:31  5-MIN KAOH 102220Z AUTO 23006KT 10SM OVC033 M04/M09 A3043 510 68 -1600 240/06 RMK AO2 T10391089
04850KAOH AOH20161210172511412/10/16 17:25:31  5-MIN KAOH 102225Z AUTO 22006KT 10SM OVC032 M04/M09 A3043 510 68 -1600 230/06 RMK AO2 T10391089
04850KAOH AOH20161211033012612/11/16 03:30:31  5-MIN KAOH 110830Z AUTO 15006KT 3SM -SN BR OVC045 M05/M06 A3033 600 96 -1600 160/06 RMK AO2 P0000 T10501056
04850KAOH AOH20161211033512612/11/16 03:35:31  5-MIN KAOH 110835Z AUTO 15007KT 3SM -SN BR OVC045 M05/M06 A3033 600 96 -1600 160/07 RMK AO2 P0000 T10501056
04850KAOH AOH20161211034012612/11/16 03:40:31  5-MIN KAOH 110840Z AUTO 15007KT 3SM -SN BR OVC043 M04/M06 A3032 610 92 -1600 150/07 RMK AO2 P0000 T10441056
04850KAOH AOH20161211034513012/11/16 03:45:31  5-MIN KAOH 110845Z AUTO 14008KT 2 1/2SM -SN BR OVC041 M04/M06 A3032 610 92 -1500 150/08 RMK AO2 P0001 T10441056
04850KAOH AOH20161211035012712/11/16 03:50:31  5-MIN KAOH 110850Z AUTO 14007KT 2 1/2SM -SN BR BKN041 OVC055 M04/M06 A3032 610 92 -1500 150/07 RMK AO2 P0001
04850KAOH AOH20161211035513712/11/16 03:55:31  5-MIN KAOH 110855Z AUTO 14006KT 2 1/2SM -SN BR BKN041 OVC055 M04/M06 A3032 610 92 -1500 150/06 RMK AO2 P0000 T10441056
04850KAOH AOH20161211040013712/11/16 04:00:31  5-MIN KAOH 110900Z AUTO 14007KT 2 1/2SM -SN BR BKN041 OVC055 M04/M06 A3033 600 92 -1600 150/07 RMK AO2 P0000 T10441056
04850KAOH AOH20161211040513712/11/16 04:05:31  5-MIN KAOH 110905Z AUTO 14007KT 2 1/2SM -SN BR BKN041 OVC055 M04/M06 A3032 610 92 -1600 150/07 RMK AO2 P0000 T10441056
04850KAOH AOH20161211041013312/11/16 04:10:31  5-MIN KAOH 110910Z AUTO 14007KT 2SM -SN BR BKN043 OVC055 M04/M06 A3032 610 92 -1500 150/07 RMK AO2 P0000 T10441056
04850KAOH AOH20161211041512612/11/16 04:15:31  5-MIN KAOH 110915Z AUTO 14007KT 2SM -SN BR OVC049 M04/M06 A3031 620 92 -1500 140/07 RMK AO2 P0000 T10441056
04850KAOH AOH20161211042013712/11/16 04:20:31  5-MIN KAOH 110920Z AUTO 14009KT 2 1/2SM -SN BR OVC049 M04/M06 A3030 630 92 -1500 140/09 RMK AO2 PRESFR P0000 T10441056
04850KAOH AOH20161211042513312/11/16 04:25:31  5-MIN KAOH 110925Z AUTO 13007KT 3SM -SN BR BKN050 OVC060 M04/M06 A3030 630 92 -1500 140/07 RMK AO2 P0000 T10441056
04850KAOH AOH20161211043013312/11/16 04:30:31  5-MIN KAOH 110930Z AUTO 13009KT 3SM -SN BR BKN050 OVC060 M04/M06 A3029 630 92 -1500 140/09 RMK AO2 P0000 T10441056
04850KAOH AOH20161211043512612/11/16 04:35:31  5-MIN KAOH 110935Z AUTO 13009KT 3SM -SN BR OVC050 M04/M06 A3029 640 92 -1500 140/09 RMK AO2 P0000 T10441056
04850KAOH AOH20161211044012612/11/16 04:40:31  5-MIN KAOH 110940Z AUTO 13009KT 3SM -SN BR OVC050 M04/M06 A3029 640 92 -1500 140/09 RMK AO2 P0000 T10441056
04850KAOH AOH20161211044512612/11/16 04:45:31  5-MIN KAOH 110945Z AUTO 13008KT 3SM -SN BR OVC050 M04/M06 A3029 630 92 -1500 130/08 RMK AO2 P0000 T10441056
04850KAOH AOH20161211045013312/11/16 04:50:31  5-MIN KAOH 110950Z AUTO 13009KT 4SM -SN BR OVC048 M04/M06 A3029 640 92 -1500 140/09 RMK AO2 SLP270 P0000 T10441056
04850KAOH AOH20161211045512612/11/16 04:55:31  5-MIN KAOH 110955Z AUTO 13009KT 4SM -SN BR OVC048 M04/M06 A3029 630 92 -1500 140/09 RMK AO2 P0000 T10441056
04850KAOH AOH20161211050012612/11/16 05:00:31  5-MIN KAOH 111000Z AUTO 13008KT 5SM -SN BR OVC048 M04/M06 A3030 630 92 -1500 130/08 RMK AO2 P0000 T10441056
04850KAOH AOH20161211050512312/11/16 05:05:31  5-MIN KAOH 111005Z AUTO 13009KT 7SM -SN OVC048 M04/M06 A3029 630 92 -1500 130/09 RMK AO2 P0000 T10441056
04850KAOH AOH20161211051012512/11/16 05:10:31  5-MIN KAOH 111010Z AUTO 13008KT 8SM OVC047 M04/M06 A3029 640 92 -1500 130/08 RMK AO2 SNE06 P0000 T10441056
04850KAOH AOH20161211051512512/11/16 05:15:31  5-MIN KAOH 111015Z AUTO 13008KT 9SM OVC047 M04/M06 A3029 640 92 -1500 140/08 RMK AO2 SNE06 P0000 T10441056
04850KAOH AOH20161211052012512/11/16 05:20:31  5-MIN KAOH 111020Z AUTO 13007KT 9SM OVC047 M04/M06 A3029 630 92 -1500 140/07 RMK AO2 SNE06 P0000 T10441056
04850KAOH AOH20161211052512512/11/16 05:25:31  5-MIN KAOH 111025Z AUTO 13008KT 9SM OVC047 M04/M06 A3029 640 92 -1500 130/08 RMK AO2 SNE06 P0000 T10441056
04850KAOH AOH20161211053012512/11/16 05:30:31  5-MIN KAOH 111030Z AUTO 13008KT 9SM OVC047 M04/M06 A3029 640 92 -1500 130/08 RMK AO2 SNE06 P0000 T10441056
04850KAOH AOH20161211053512512/11/16 05:35:31  5-MIN KAOH 111035Z AUTO 13008KT 9SM OVC049 M04/M06 A3029 640 92 -1500 130/08 RMK AO2 SNE06 P0000 T10441056
04850KAOH AOH20161211054012512/11/16 05:40:31  5-MIN KAOH 111040Z AUTO 13009KT 9SM OVC049 M04/M06 A3028 650 92 -1500 130/09 RMK AO2 SNE06 P0000 T10441056
04850KAOH AOH20161211054512512/11/16 05:45:31  5-MIN KAOH 111045Z AUTO 13008KT 9SM OVC049 M04/M06 A3028 640 92 -1500 140/08 RMK AO2 SNE06 P0000 T10441056
04850KAOH AOH20161211055013212/11/16 05:50:31  5-MIN KAOH 111050Z AUTO 13009KT 9SM OVC049 M04/M06 A3028 650 92 -1500 140/09 RMK AO2 SNE06 SLP267 P0000 T10441056
04850KAOH AOH20161211055511312/11/16 05:55:31  5-MIN KAOH 111055Z AUTO 13008KT 9SM OVC049 M04/M06 A3028 650 92 -1500 140/08 RMK AO2 T10441056
04850KAOH AOH20161211060011312/11/16 06:00:31  5-MIN KAOH 111100Z AUTO 14008KT 9SM OVC050 M04/M06 A3028 650 92 -1500 140/08 RMK AO2 T10441056
04850KAOH AOH20161211060511312/11/16 06:05:31  5-MIN KAOH 111105Z AUTO 14009KT 9SM OVC050 M04/M06 A3028 650 92 -1500 140/09 RMK AO2 T10441056
04850KAOH AOH20161211061011312/11/16 06:10:31  5-MIN KAOH 111110Z AUTO 14011KT 9SM OVC050 M04/M06 A3028 650 92 -1500 140/11 RMK AO2 T10441056
04850KAOH AOH20161211061511412/11/16 06:15:31  5-MIN KAOH 111115Z AUTO 13009KT 10SM OVC050 M04/M06 A3027 650 92 -1500 140/09 RMK AO2 T10441056
04850KAOH AOH20161211062012112/11/16 06:20:31  5-MIN KAOH 111120Z AUTO 13010KT 10SM BKN050 OVC060 M04/M06 A3027 660 92 -1500 140/10 RMK AO2 T10441056
04850KAOH AOH20161211062512112/11/16 06:25:31  5-MIN KAOH 111125Z AUTO 13010KT 10SM BKN050 OVC060 M04/M06 A3026 660 92 -1500 130/10 RMK AO2 T10441056
04850KAOH AOH20161211063011412/11/16 06:30:31  5-MIN KAOH 111130Z AUTO 14010KT 10SM OVC055 M04/M06 A3027 660 92 -1500 150/10 RMK AO2 T10441056
04850KAOH AOH20161211063511412/11/16 06:35:31  5-MIN KAOH 111135Z AUTO 14010KT 10SM OVC050 M04/M06 A3027 660 92 -1500 150/10 RMK AO2 T10441056
04850KAOH AOH20161211064011412/11/16 06:40:31  5-MIN KAOH 111140Z AUTO 14009KT 10SM OVC055 M04/M06 A3027 660 92 -1500 140/09 RMK AO2 T10441056
04850KAOH AOH20161211064511412/11/16 06:45:31  5-MIN KAOH 111145Z AUTO 14008KT 10SM OVC050 M04/M06 A3027 660 92 -1500 150/08 RMK AO2 T10441056
04850KAOH AOH20161211065015112/11/16 06:50:31  5-MIN KAOH 111150Z AUTO 14008KT 10SM OVC050 M04/M06 A3027 660 92 -1500 150/08 RMK AO2 SLP264 60005 70010 T10441056 11044 21050 58017
04850KAOH AOH20161211065512012/11/16 06:55:31  5-MIN KAOH 111155Z AUTO 13009KT 9SM BKN050 OVC075 M04/M06 A3026 670 92 -1500 140/09 RMK AO2 T10441056
04850KAOH AOH20161211070012012/11/16 07:00:31  5-MIN KAOH 111200Z AUTO 13011KT 9SM BKN050 OVC075 M04/M06 A3025 670 92 -1500 140/11 RMK AO2 T10441056
04850KAOH AOH20161211070512012/11/16 07:05:31  5-MIN KAOH 111205Z AUTO 13009KT 9SM SCT050 OVC075 M04/M06 A3025 670 92 -1500 140/09 RMK AO2 T10441056
04850KAOH AOH20161211071012112/11/16 07:10:31  5-MIN KAOH 111210Z AUTO 14010KT 10SM SCT050 OVC075 M04/M06 A3025 680 88 -1400 140/10 RMK AO2 T10391056
04850KAOH AOH20161211071512112/11/16 07:15:31  5-MIN KAOH 111215Z AUTO 14010KT 10SM FEW055 OVC075 M04/M06 A3025 680 88 -1400 140/10 RMK AO2 T10391056
04850KAOH AOH20161211072012112/11/16 07:20:31  5-MIN KAOH 111220Z AUTO 14009KT 10SM SCT055 OVC075 M04/M06 A3025 670 88 -1400 150/09 RMK AO2 T10391056
04850KAOH AOH20161211072512112/11/16 07:25:31  5-MIN KAOH 111225Z AUTO 14009KT 10SM BKN055 OVC075 M04/M06 A3024 680 88 -1400 150/09 RMK AO2 T10391056
04850KAOH AOH20161211073012112/11/16 07:30:31  5-MIN KAOH 111230Z AUTO 15010KT 10SM SCT060 OVC075 M04/M06 A3024 680 88 -1400 150/10 RMK AO2 T10391056
04850KAOH AOH20161211073512112/11/16 07:35:31  5-MIN KAOH 111235Z AUTO 15013KT 10SM BKN060 OVC075 M04/M06 A3025 680 88 -1400 160/13 RMK AO2 T10391056
04850KAOH AOH20161211074012112/11/16 07:40:31  5-MIN KAOH 111240Z AUTO 15013KT 10SM BKN060 OVC070 M04/M06 A3024 680 88 -1400 160/13 RMK AO2 T10391056
04850KAOH AOH20161211074511412/11/16 07:45:31  5-MIN KAOH 111245Z AUTO 15010KT 10SM OVC060 M04/M06 A3024 680 88 -1400 160/10 RMK AO2 T10391056
04850KAOH AOH20161211075012112/11/16 07:50:31  5-MIN KAOH 111250Z AUTO 15013KT 10SM OVC060 M04/M06 A3024 690 88 -1400 160/13 RMK AO2 SLP252 T10391056
04850KAOH AOH20161211075512012/11/16 07:55:31  5-MIN KAOH 111255Z AUTO 17008G17KT 10SM OVC055 M04/M06 A3024 690 88 -1400 170/08G17 RMK AO2 T10391056
04850KAOH AOH20161211080011412/11/16 08:00:31  5-MIN KAOH 111300Z AUTO 15009KT 10SM OVC055 M04/M06 A3024 680 88 -1400 160/09 RMK AO2 T10391056
04850KAOH AOH20161211080511412/11/16 08:05:31  5-MIN KAOH 111305Z AUTO 15008KT 10SM OVC050 M03/M06 A3024 690 85 -1300 160/08 RMK AO2 T10331056
04850KAOH AOH20161211081011412/11/16 08:10:31  5-MIN KAOH 111310Z AUTO 15010KT 10SM OVC050 M03/M06 A3024 690 85 -1300 160/10 RMK AO2 T10331056
04850KAOH AOH20161211081512112/11/16 08:15:31  5-MIN KAOH 111315Z AUTO 15009KT 10SM BKN050 OVC065 M03/M06 A3023 690 85 -1300 160/09 RMK AO2 T10331056
04850KAOH AOH20161211082012112/11/16 08:20:31  5-MIN KAOH 111320Z AUTO 15009KT 10SM BKN050 OVC065 M03/M06 A3023 700 85 -1300 160/09 RMK AO2 T10331056
04850KAOH AOH20161211082511412/11/16 08:25:31  5-MIN KAOH 111325Z AUTO 16010KT 10SM OVC055 M03/M06 A3022 700 85 -1300 160/10 RMK AO2 T10331056
04850KAOH AOH20161211083011412/11/16 08:30:31  5-MIN KAOH 111330Z AUTO 16011KT 10SM OVC055 M03/M06 A3023 700 85 -1300 170/11 RMK AO2 T10331056
04850KAOH AOH20161211083512112/11/16 08:35:31  5-MIN KAOH 111335Z AUTO 17011KT 10SM BKN047 OVC060 M03/M06 A3023 700 85 -1300 170/11 RMK AO2 T10331056
04850KAOH AOH20161211084013912/11/16 08:40:31  5-MIN KAOH 111340Z AUTO 15015KT 4SM -SN BR BKN039 OVC060 M03/M06 A3022 700 85 -1300 160/15 RMK AO2 SNB38 P0000 T10331056
04850KAOH AOH20161211084513912/11/16 08:45:31  5-MIN KAOH 111345Z AUTO 15013KT 2SM -SN BR BKN035 OVC060 M03/M06 A3022 700 85 -1300 160/13 RMK AO2 SNB38 P0000 T10331056
04850KAOH AOH20161211085013912/11/16 08:50:31  5-MIN KAOH 111350Z AUTO 15013KT 2SM -SN BR OVC035 M03/M06 A3022 700 85 -1300 160/13 RMK AO2 SNB38 SLP245 P0000 T10331056
04850KAOH AOH20161211085513012/11/16 08:55:31  5-MIN KAOH 111355Z AUTO 14011KT 2 1/2SM -SN BR OVC033 M03/M06 A3021 710 85 -1300 150/11 RMK AO2 P0000 T10331056
04850KAOH AOH20161211090012612/11/16 09:00:31  5-MIN KAOH 111400Z AUTO 15011KT 4SM -SN BR OVC033 M03/M06 A3021 710 85 -1300 150/11 RMK AO2 P0000 T10331056
04850KAOH AOH20161211090512512/11/16 09:05:31  5-MIN KAOH 111405Z AUTO 14011KT 7SM OVC035 M03/M06 A3020 720 85 -1300 150/11 RMK AO2 SNE05 P0000 T10331056
04850KAOH AOH20161211091013212/11/16 09:10:31  5-MIN KAOH 111410Z AUTO 15011KT 9SM BKN037 OVC047 M03/M06 A3021 710 85 -1300 150/11 RMK AO2 SNE05 P0000 T10331056
04850KAOH AOH20161211091513312/11/16 09:15:31  5-MIN KAOH 111415Z AUTO 15010KT 10SM BKN039 OVC047 M03/M06 A3021 710 85 -1300 160/10 RMK AO2 SNE05 P0000 T10331056
04850KAOH AOH20161211092013312/11/16 09:20:31  5-MIN KAOH 111420Z AUTO 15011KT 10SM BKN039 OVC048 M03/M06 A3021 710 85 -1300 160/11 RMK AO2 SNE05 P0000 T10331056
04850KAOH AOH20161211092513312/11/16 09:25:31  5-MIN KAOH 111425Z AUTO 16013KT 10SM BKN039 OVC048 M03/M06 A3021 710 81 -1200 160/13 RMK AO2 SNE05 P0000 T10281056
04850KAOH AOH20161211093013312/11/16 09:30:31  5-MIN KAOH 111430Z AUTO 16014KT 10SM BKN037 OVC048 M03/M06 A3021 710 81 -1200 160/14 RMK AO2 SNE05 P0000 T10281056
04850KAOH AOH20161211093513212/11/16 09:35:31  5-MIN KAOH 111435Z AUTO 15014KT 9SM BKN033 OVC048 M03/M06 A3021 710 81 -1200 160/14 RMK AO2 SNE05 P0000 T10281056
04850KAOH AOH20161211094013912/11/16 09:40:31  5-MIN KAOH 111440Z AUTO 16012KT 4SM -SN BKN029 OVC039 M03/M06 A3021 710 81 -1200 160/12 RMK AO2 SNE05B39 P0000 T10281056
04850KAOH AOH20161211094513212/11/16 09:45:31  5-MIN KAOH 111445Z AUTO 15013KT 2SM -SN OVC025 M03/M06 A3021 710 81 -1200 160/13 RMK AO2 SNE05B39 P0000 T10281056
04850KAOH AOH20161211095012512/11/16 09:50:31  5-MIN KAOH 111450Z AUTO 16016KT 1SM -SN BR OVC021 M03/M06 A3020 720 85 -1300 160/16 RMK AO2 SNE05B39 P0000
04850KAOH AOH20161211095513312/11/16 09:55:31  5-MIN KAOH 111455Z AUTO 15017G21KT 3/4SM -SN BR VV018 M03/M05 A3020 720 88 -1300 160/17G21 RMK AO2 P0000 T10331050
04850KAOH AOH20161211100013312/11/16 10:00:31  5-MIN KAOH 111500Z AUTO 15015G21KT 3/4SM -SN BR VV017 M03/M05 A3020 720 88 -1300 160/15G21 RMK AO2 P0000 T10331050
04850KAOH AOH20161211100512512/11/16 10:05:31  5-MIN KAOH 111505Z AUTO 15013KT 1SM -SN BR VV018 M03/M05 A3019 730 88 -1300 160/13 RMK AO2 P0000 T10331050
04850KAOH AOH20161211101013712/11/16 10:10:31  5-MIN KAOH 111510Z AUTO 15015KT 1 1/4SM -SN BR BKN020 OVC034 M03/M05 A3020 720 88 -1300 150/15 RMK AO2 P0000 T10331050
04850KAOH AOH20161211101513712/11/16 10:15:31  5-MIN KAOH 111515Z AUTO 15015KT 1 1/4SM -SN BR BKN020 OVC034 M03/M05 A3019 730 88 -1300 160/15 RMK AO2 P0000 T10331050
04850KAOH AOH20161211102013712/11/16 10:20:31  5-MIN KAOH 111520Z AUTO 15014KT 1 1/4SM -SN BR BKN020 OVC034 M03/M05 A3020 720 88 -1300 160/14 RMK AO2 P0000 T10331050
04850KAOH AOH20161211102513312/11/16 10:25:31  5-MIN KAOH 111525Z AUTO 15014KT 1SM -SN BR BKN020 OVC033 M03/M05 A3019 730 88 -1300 160/14 RMK AO2 P0000 T10331050
04850KAOH AOH20161211103012712/11/16 10:30:31  5-MIN KAOH 111530Z AUTO 15014KT 3/4SM -SN BR VV020 M03/M05 A3019 730 88 -1300 160/14 RMK AO2 P0000 T10331050
04850KAOH AOH20161211103513512/11/16 10:35:31  5-MIN KAOH 111535Z AUTO 15014KT 3/4SM -SN BR BKN019 OVC028 M03/M05 A3018 740 88 -1200 160/14 RMK AO2 P0000 T10331050
04850KAOH AOH20161211104012712/11/16 10:40:31  5-MIN KAOH 111540Z AUTO 15016KT 3/4SM -SN BR VV019 M03/M05 A3018 740 88 -1200 160/16 RMK AO2 P0000 T10331050
04850KAOH AOH20161211104512512/11/16 10:45:31  5-MIN KAOH 111545Z AUTO 15014KT 1SM -SN BR VV019 M03/M05 A3017 750 88 -1200 160/14 RMK AO2 P0000 T10331050
04850KAOH AOH20161211105013412/11/16 10:50:31  5-MIN KAOH 111550Z AUTO 15015KT 3/4SM -SN BR VV017 M03/M05 A3017 750 88 -1200 160/15 RMK AO2 SLP229 P0000 T10331050
04850KAOH AOH20161211105512712/11/16 10:55:31  5-MIN KAOH 111555Z AUTO 15013KT 3/4SM -SN BR VV016 M03/M04 A3017 750 92 -1200 150/13 RMK AO2 P0000 T10331044
04850KAOH AOH20161211110012712/11/16 11:00:31  5-MIN KAOH 111600Z AUTO 15015KT 3/4SM -SN BR VV017 M03/M04 A3016 760 92 -1200 160/15 RMK AO2 P0000 T10331044
04850KAOH AOH20161211110512712/11/16 11:05:31  5-MIN KAOH 111605Z AUTO 15014KT 3/4SM -SN BR VV018 M03/M04 A3015 760 92 -1200 160/14 RMK AO2 P0000 T10331044
04850KAOH AOH20161211111014012/11/16 11:10:31  5-MIN KAOH 111610Z AUTO 15015KT 1SM -SN BR BKN018 OVC033 M03/M04 A3015 770 92 -1200 150/15 RMK AO2 PRESFR P0000 T10331044
04850KAOH AOH20161211111514412/11/16 11:15:31  5-MIN KAOH 111615Z AUTO 13015KT 1 1/4SM -SN BR BKN020 OVC033 M03/M04 A3013 790 92 -1200 140/15 RMK AO2 PRESFR P0000 T10331044
04850KAOH AOH20161211112014012/11/16 11:20:31  5-MIN KAOH 111620Z AUTO 14013KT 2SM -SN BR BKN022 BKN035 OVC050 M03/M04 A3013 780 88 -1100 150/13 RMK AO2 P0000 T10281044
04850KAOH AOH20161211112514012/11/16 11:25:31  5-MIN KAOH 111625Z AUTO 14013KT 3SM -SN BR BKN029 BKN037 OVC050 M03/M04 A3012 790 92 -1100 150/13 RMK AO2 P0000 T10281039
04850KAOH AOH20161211113013212/11/16 11:30:31  5-MIN KAOH 111630Z AUTO 14014KT 7SM BKN037 OVC050 M03/M04 A3012 790 92 -1100 140/14 RMK AO2 SNE30 P0000 T10281039
04850KAOH AOH20161211113513912/11/16 11:35:31  5-MIN KAOH 111635Z AUTO 13014KT 9SM FEW034 BKN049 OVC060 M03/M04 A3011 800 92 -1100 140/14 RMK AO2 SNE30 P0000 T10281039
04850KAOH AOH20161211114013212/11/16 11:40:31  5-MIN KAOH 111640Z AUTO 14014KT 9SM BKN055 OVC065 M02/M04 A3011 800 88 -1000 150/14 RMK AO2 SNE30 P0000 T10221039
04850KAOH AOH20161211114512512/11/16 11:45:31  5-MIN KAOH 111645Z AUTO 14012KT 9SM OVC060 M02/M04 A3011 810 88 -1000 150/12 RMK AO2 SNE30 P0000 T10221039
04850KAOH AOH20161211115014012/11/16 11:50:31  5-MIN KAOH 111650Z AUTO 14012KT 10SM FEW047 OVC060 M02/M04 A3010 810 88 -1000 150/12 RMK AO2 SNE30 SLP206 P0000 T10221039
04850KAOH AOH20161211115512112/11/16 11:55:31  5-MIN KAOH 111655Z AUTO 14012KT 10SM SCT045 OVC060 M02/M04 A3010 820 88 -1000 150/12 RMK AO2 T10221039
04850KAOH AOH20161211120012112/11/16 12:00:31  5-MIN KAOH 111700Z AUTO 14013KT 10SM SCT045 OVC060 M02/M04 A3010 820 88 -1000 150/13 RMK AO2 T10221039
04850KAOH AOH20161211120512112/11/16 12:05:31  5-MIN KAOH 111705Z AUTO 14012KT 10SM BKN045 OVC060 M02/M04 A3009 820 85 -1000 150/12 RMK AO2 T10221044
04850KAOH AOH20161211121012112/11/16 12:10:31  5-MIN KAOH 111710Z AUTO 15011KT 10SM BKN045 OVC055 M02/M04 A3009 820 85 -1000 150/11 RMK AO2 T10221044
04850KAOH AOH20161211121511312/11/16 12:15:31  5-MIN KAOH 111715Z AUTO 14012KT 10SM OVC045 M02/M05 A3009 820 78 -900 150/12 RMK AO2 T10171050
04850KAOH AOH20161211122011312/11/16 12:20:31  5-MIN KAOH 111720Z AUTO 15012KT 10SM OVC045 M02/M05 A3009 830 78 -900 160/12 RMK AO2 T10171050
04850KAOH AOH20161211122512012/11/16 12:25:31  5-MIN KAOH 111725Z AUTO 15013KT 10SM FEW037 OVC045 M02/M05 A3009 820 78 -900 150/13 RMK AO2 T10171050
04850KAOH AOH20161211123012012/11/16 12:30:31  5-MIN KAOH 111730Z AUTO 15012KT 10SM FEW032 OVC041 M02/M06 A3008 830 75 -900 150/12 RMK AO2 T10171056
04850KAOH AOH20161211123512012/11/16 12:35:31  5-MIN KAOH 111735Z AUTO 15012KT 10SM BKN037 OVC044 M02/M06 A3008 830 75 -900 160/12 RMK AO2 T10171056
04850KAOH AOH20161211124012012/11/16 12:40:31  5-MIN KAOH 111740Z AUTO 17011KT 10SM BKN037 OVC044 M01/M06 A3007 840 69 -800 180/11 RMK AO2 T10111061
04850KAOH AOH20161211124512012/11/16 12:45:31  5-MIN KAOH 111745Z AUTO 17011KT 10SM BKN040 OVC047 M01/M06 A3007 840 69 -800 180/11 RMK AO2 T10111061
04850KAOH AOH20161211125014412/11/16 12:50:31  5-MIN KAOH 111750Z AUTO 16011KT 10SM OVC040 M01/M06 A3006 840 69 -800 170/11 RMK AO2 SLP193 60000 T10111061 11011 21039 56006
04850KAOH AOH20161211125512612/11/16 12:55:31  5-MIN KAOH 111755Z AUTO 14013G17KT 10SM OVC040 M01/M06 A3006 850 69 -800 140/13G17 RMK AO2 PRESFR T10111061
04850KAOH AOH20161211130011912/11/16 13:00:31  5-MIN KAOH 111800Z AUTO 15014G18KT 10SM OVC040 M01/M06 A3006 850 69 -800 150/14G18 RMK AO2 T10111061
04850KAOH AOH20161211130511312/11/16 13:05:31  5-MIN KAOH 111805Z AUTO 16012KT 10SM OVC040 M01/M06 A3005 860 69 -800 160/12 RMK AO2 T10111061
04850KAOH AOH20161211131011312/11/16 13:10:31  5-MIN KAOH 111810Z AUTO 15011KT 10SM OVC041 M01/M06 A3005 850 69 -800 150/11 RMK AO2 T10111061
04850KAOH AOH20161211131511312/11/16 13:15:31  5-MIN KAOH 111815Z AUTO 15013KT 10SM OVC039 M01/M06 A3005 860 69 -800 160/13 RMK AO2 T10111061
04850KAOH AOH20161211132011312/11/16 13:20:31  5-MIN KAOH 111820Z AUTO 15014KT 10SM OVC036 M01/M06 A3005 860 69 -800 150/14 RMK AO2 T10111061
04850KAOH AOH20161211132512012/11/16 13:25:31  5-MIN KAOH 111825Z AUTO 16010KT 10SM BKN036 OVC043 M01/M06 A3004 870 69 -800 160/10 RMK AO2 T10111061
04850KAOH AOH20161211133012012/11/16 13:30:31  5-MIN KAOH 111830Z AUTO 15011KT 10SM BKN038 OVC046 M01/M06 A3003 870 69 -800 160/11 RMK AO2 T10111061
04850KAOH AOH20161211133512012/11/16 13:35:31  5-MIN KAOH 111835Z AUTO 14011KT 10SM BKN036 OVC050 M01/M06 A3003 870 66 -700 150/11 RMK AO2 T10061061
04850KAOH AOH20161211134012712/11/16 13:40:31  5-MIN KAOH 111840Z AUTO 15010KT 10SM SCT036 BKN042 OVC050 M01/M06 A3003 880 66 -700 160/10 RMK AO2 T10061061
04850KAOH AOH20161211134512012/11/16 13:45:31  5-MIN KAOH 111845Z AUTO 15012KT 10SM BKN039 OVC050 M01/M06 A3002 880 66 -700 150/12 RMK AO2 T10061061
04850KAOH AOH20161211135013412/11/16 13:50:31  5-MIN KAOH 111850Z AUTO 14012KT 10SM FEW030 BKN039 OVC048 M01/M06 A3002 890 66 -700 140/12 RMK AO2 SLP177 T10061061
04850KAOH AOH20161211135512712/11/16 13:55:31  5-MIN KAOH 111855Z AUTO 16013KT 10SM SCT030 BKN041 OVC048 M01/M06 A3002 890 66 -700 170/13 RMK AO2 T10061061
04850KAOH AOH20161211140012712/11/16 14:00:31  5-MIN KAOH 111900Z AUTO 15012KT 10SM BKN032 BKN041 OVC055 M01/M06 A3001 890 69 -700 150/12 RMK AO2 T10061056
04850KAOH AOH20161211140512012/11/16 14:05:31  5-MIN KAOH 111905Z AUTO 17012KT 10SM BKN030 OVC041 M01/M06 A3002 890 69 -700 170/12 RMK AO2 T10061056
04850KAOH AOH20161211141013512/11/16 14:10:31  5-MIN KAOH 111910Z AUTO 16013KT 6SM -SN BKN030 OVC039 M01/M06 A3002 890 69 -700 170/13 RMK AO2 SNB08 P0000 T10061056
04850KAOH AOH20161211141512812/11/16 14:15:31  5-MIN KAOH 111915Z AUTO 16015KT 4SM -SN OVC030 M01/M05 A3001 890 72 -700 170/15 RMK AO2 SNB08 P0000 T10061050
04850KAOH AOH20161211142012812/11/16 14:20:31  5-MIN KAOH 111920Z AUTO 17012KT 3SM -SN OVC030 M01/M04 A3001 900 78 -800 170/12 RMK AO2 SNB08 P0000 T10111044
04850KAOH AOH20161211142513212/11/16 14:25:31  5-MIN KAOH 111925Z AUTO 17014KT 2 1/2SM -SN OVC030 M01/M04 A3001 900 78 -800 180/14 RMK AO2 SNB08 P0000 T10111044
04850KAOH AOH20161211143012812/11/16 14:30:31  5-MIN KAOH 111930Z AUTO 17013KT 2SM -SN OVC030 M01/M04 A3000 900 78 -800 180/13 RMK AO2 SNB08 P0000 T10111044
04850KAOH AOH20161211143513212/11/16 14:35:31  5-MIN KAOH 111935Z AUTO 17012KT 1 3/4SM -SN OVC030 M01/M04 A3000 900 81 -800 180/12 RMK AO2 SNB08 P0000 T10111039
04850KAOH AOH20161211144013212/11/16 14:40:31  5-MIN KAOH 111940Z AUTO 17011KT 2 1/2SM -SN OVC030 M01/M04 A3000 900 81 -800 180/11 RMK AO2 SNB08 P0000 T10111039
04850KAOH AOH20161211144513212/11/16 14:45:31  5-MIN KAOH 111945Z AUTO 17012KT 2 1/2SM -SN OVC030 M01/M04 A3000 910 81 -800 170/12 RMK AO2 SNB08 P0000 T10111039
04850KAOH AOH20161211145013912/11/16 14:50:31  5-MIN KAOH 111950Z AUTO 17011KT 2 1/2SM -SN OVC030 M01/M04 A2999 910 81 -700 170/11 RMK AO2 SNB08 SLP168 P0000 T10111039
04850KAOH AOH20161211145512612/11/16 14:55:31  5-MIN KAOH 111955Z AUTO 17011KT 2 1/2SM -SN OVC030 M01/M04 A2999 910 81 -700 180/11 RMK AO2 P0000 T10111039
04850KAOH AOH20161211150012912/11/16 15:00:31  5-MIN KAOH 112000Z AUTO 17011KT 2 1/2SM -SN BR OVC030 M01/M03 A2999 910 85 -700 180/11 RMK AO2 P0001 T10111033
04850KAOH AOH20161211150512512/11/16 15:05:31  5-MIN KAOH 112005Z AUTO 17012KT 2SM -SN BR OVC030 M01/M03 A2999 920 85 -700 180/12 RMK AO2 P0001 T10111033
04850KAOH AOH20161211151012512/11/16 15:10:31  5-MIN KAOH 112010Z AUTO 17011KT 2SM -SN BR OVC029 M01/M03 A2998 920 88 -700 180/11 RMK AO2 P0001 T10111028
04850KAOH AOH20161211151512912/11/16 15:15:31  5-MIN KAOH 112015Z AUTO 17012KT 2 1/2SM -SN BR OVC029 M01/M03 A2998 920 88 -700 180/12 RMK AO2 P0001 T10111028
04850KAOH AOH20161211152012512/11/16 15:20:31  5-MIN KAOH 112020Z AUTO 18012KT 3SM -SN BR OVC029 M01/M03 A2997 930 88 -700 180/12 RMK AO2 P0001 T10111028
04850KAOH AOH20161211152513812/11/16 15:25:31  5-MIN KAOH 112025Z AUTO 17013G19KT 5SM -SN BR BKN027 OVC033 M01/M03 A2997 930 88 -700 180/13G19 RMK AO2 P0001 T10111028
04850KAOH AOH20161211153013212/11/16 15:30:31  5-MIN KAOH 112030Z AUTO 18012KT 4SM -SN BR BKN029 OVC033 M01/M03 A2997 930 88 -700 180/12 RMK AO2 P0001 T10111028
04850KAOH AOH20161211153512512/11/16 15:35:31  5-MIN KAOH 112035Z AUTO 17012KT 5SM -SN BR OVC029 M01/M03 A2997 940 88 -700 180/12 RMK AO2 P0001 T10111028
04850KAOH AOH20161211154013912/11/16 15:40:31  5-MIN KAOH 112040Z AUTO 17010KT 7SM UP BKN027 OVC035 M01/M03 A2996 940 88 -700 180/10 RMK AO2 UPB37SNE37 P0001 T10111028
04850KAOH AOH20161211154514512/11/16 15:45:31  5-MIN KAOH 112045Z AUTO 17012KT 8SM UP SCT027 OVC035 M01/M02 A2996 950 92 -700 170/12 RMK AO2 UPB37SNE37 P0001 I1000 T10111022
04850KAOH AOH20161211155013512/11/16 15:50:31  5-MIN KAOH 112050Z AUTO 17013KT 9SM UP SCT027 OVC035 M01/M02 A2995 950 88 -600 170/13 RMK AO2 UPB37SNE37 P0001 I1000
04850KAOH AOH20161211155514212/11/16 15:55:31  5-MIN KAOH 112055Z AUTO 17014KT 10SM UP SCT027 BKN033 OVC041 M01/M02 A2995 950 88 -600 170/14 RMK AO2 UPB55 P0000 T10061022
04850KAOH AOH20161211160014312/11/16 16:00:31  5-MIN KAOH 112100Z AUTO 17014KT 8SM UP BKN025 BKN033 OVC041 M01/M02 A2995 950 88 -600 180/14 RMK AO2 UPB2055 P0000 T10061022
04850KAOH AOH20161211160514312/11/16 16:05:31  5-MIN KAOH 112105Z AUTO 17014KT 7SM UP BKN025 BKN034 OVC050 M01/M02 A2995 950 88 -600 180/14 RMK AO2 UPB2055 P0000 T10061022
04850KAOH AOH20161211161016512/11/16 16:10:31  5-MIN KAOH 112110Z AUTO 16015KT 6SM -FZRA BR SCT025 BKN034 OVC046 M01/M02 A2994 960 88 -600 170/15 RMK AO2 UPB2055E07FZRAB07 P0000 I1000 T10061022
04850KAOH AOH20161211161516512/11/16 16:15:31  5-MIN KAOH 112115Z AUTO 16015KT 6SM -FZRA BR SCT025 BKN038 OVC047 M01/M02 A2994 960 88 -600 170/15 RMK AO2 UPB2055E07FZRAB07 P0000 I1000 T10061022
04850KAOH AOH20161211162016512/11/16 16:20:31  5-MIN KAOH 112120Z AUTO 17013KT 6SM -FZRA BR FEW013 BKN024 OVC037 M01/M02 A2994 960 88 -600 180/13 RMK AO2 UPB2055E07FZRAB07 P0000 I1000 T10061022
04850KAOH AOH20161211162516212/11/16 16:25:31  5-MIN KAOH 112125Z AUTO 17013KT 7SM -FZRA FEW013 BKN024 OVC035 M01/M02 A2993 960 88 -600 170/13 RMK AO2 UPB2055E07FZRAB07 P0000 I1000 T10061022
04850KAOH AOH20161211163016212/11/16 16:30:31  5-MIN KAOH 112130Z AUTO 17014KT 7SM -FZRA FEW012 BKN024 OVC035 M01/M02 A2993 970 88 -600 170/14 RMK AO2 UPB2055E07FZRAB07 P0000 I1000 T10061022
04850KAOH AOH20161211163516212/11/16 16:35:31  5-MIN KAOH 112135Z AUTO 16014KT 6SM BR FEW012 SCT024 OVC033 M01/M02 A2992 980 92 -600 170/14 RMK AO2 UPB2055E07FZRAB07E31 P0000 I1000 T10061017
04850KAOH AOH20161211164015212/11/16 16:40:31  5-MIN KAOH 112140Z AUTO 16014KT 7SM FEW024 OVC033 M01/M02 A2992 980 92 -600 170/14 RMK AO2 UPB2055E07FZRAB07E31 P0000 I1000 T10061017
04850KAOH AOH20161211164515212/11/16 16:45:31  5-MIN KAOH 112145Z AUTO 16016KT 7SM SCT025 OVC033 M01/M02 A2992 980 92 -600 170/16 RMK AO2 UPB2055E07FZRAB07E31 P0000 I1000 T10061017
04850KAOH AOH20161211165016212/11/16 16:50:31  5-MIN KAOH 112150Z AUTO 16015KT 6SM BR SCT027 OVC033 M01/M02 A2991 990 92 -600 170/15 RMK AO2 UPB2055E07FZRAB07E31 SLP139 P0000 I1001 T10061017
04850KAOH AOH20161211165512212/11/16 16:55:31  5-MIN KAOH 112155Z AUTO 16016KT 6SM BR SCT027 OVC035 M01/M02 A2991 990 92 -600 170/16 RMK AO2 T10061017
04850KAOH AOH20161211170011912/11/16 17:00:31  5-MIN KAOH 112200Z AUTO 16013KT 8SM SCT027 OVC035 M01/M02 A2990 990 92 -600 170/13 RMK AO2 T10061017
04850KAOH AOH20161211170512012/11/16 17:05:31  5-MIN KAOH 112205Z AUTO 16015KT 9SM BKN027 OVC035 M01/M02 A2990 1000 88 -600 170/15 RMK AO2 T10061022
04850KAOH AOH20161211171013412/11/16 17:10:31  5-MIN KAOH 112210Z AUTO 17013KT 8SM UP BKN027 OVC035 M01/M02 A2991 990 92 -600 170/13 RMK AO2 UPB06 P0000 T10061017
04850KAOH AOH20161211171513412/11/16 17:15:31  5-MIN KAOH 112215Z AUTO 17014KT 9SM UP BKN025 OVC035 M01/M02 A2990 990 88 -600 170/14 RMK AO2 UPB06 P0000 T10061022
04850KAOH AOH20161211172015212/11/16 17:20:31  5-MIN KAOH 112220Z AUTO 17011KT 7SM -FZRA BKN025 OVC035 00/M02 A2990 990 88 -500 170/11 RMK AO2 UPB06E16FZRAB16 P0000 I1000 T00001017
04850KAOH AOH20161211172514812/11/16 17:25:31  5-MIN KAOH 112225Z AUTO 17013KT 6SM -FZRA BR OVC025 00/M02 A2990 990 88 -500 180/13 RMK AO2 UPB06E16FZRAB16 P0000 I1000 T00001017
04850KAOH AOH20161211173014812/11/16 17:30:31  5-MIN KAOH 112230Z AUTO 17012KT 5SM -FZRA BR OVC025 00/M02 A2991 990 88 -500 180/12 RMK AO2 UPB06E16FZRAB16 P0000 I1001 T00001017
04850KAOH AOH20161211173514812/11/16 17:35:31  5-MIN KAOH 112235Z AUTO 18010KT 5SM -FZRA BR OVC023 00/M02 A2990 990 88 -500 180/10 RMK AO2 UPB06E16FZRAB16 P0000 I1001 T00001017
04850KAOH AOH20161211174015412/11/16 17:40:31  5-MIN KAOH 112240Z AUTO 18012KT 4SM -SN BR OVC023 00/M01 A2990 990 92 -500 180/12 RMK AO2 UPB06E16FZRAB16E37SNB37 P0000 I1001 T00001011
04850KAOH AOH20161211174515512/11/16 17:45:31  5-MIN KAOH 112245Z AUTO 17012KT 4SM -SN BR OVC023 00/M01 A2990 1000 92 -500 180/12 RMK AO2 UPB06E16FZRAB16E37SNB37 P0001 I1001 T00001011
04850KAOH AOH20161211175016912/11/16 17:50:31  5-MIN KAOH 112250Z AUTO 17012KT 4SM -SN BR BKN022 OVC027 00/M01 A2990 1000 92 -500 180/12 RMK AO2 UPB06E16FZRAB16E37SNB37 SLP135 P0001 I1001 T00001011
04850KAOH AOH20161211175513512/11/16 17:55:31  5-MIN KAOH 112255Z AUTO 18011KT 6SM UP BR OVC024 00/M01 A2990 1000 92 -500 180/11 RMK AO2 UPB54SNE54 P0000 T00001011
04850KAOH AOH20161211180013612/11/16 18:00:31  5-MIN KAOH 112300Z AUTO 18009KT 7SM UP OVC024 00/M01 A2990 1000 92 -500 180/09 RMK AO2 UPB2254SNE2254 P0000 T00001011
04850KAOH AOH20161211180515812/11/16 18:05:31  5-MIN KAOH 112305Z AUTO 18011KT 6SM -FZRA BR OVC024 00/M01 A2989 1000 92 -500 180/11 RMK AO2 UPB2254E05FZRAB05SNE2254 P0000 I1001 T00001011
04850KAOH AOH20161211181015712/11/16 18:10:31  5-MIN KAOH 112310Z AUTO 18010KT 5SM FZRA BR OVC024 00/M01 A2989 1000 92 -500 180/10 RMK AO2 UPB2254E05FZRAB05SNE2254 P0001 I1001 T00001011
04850KAOH AOH20161211181515812/11/16 18:15:31  5-MIN KAOH 112315Z AUTO 18009KT 5SM -FZRA BR OVC024 00/M01 A2989 1000 92 -500 190/09 RMK AO2 UPB2254E05FZRAB05SNE2254 P0002 I1001 T00001011
04850KAOH AOH20161211182015812/11/16 18:20:31  5-MIN KAOH 112320Z AUTO 18009KT 6SM -FZRA BR OVC024 00/M01 A2989 1010 92 -500 190/09 RMK AO2 UPB2254E05FZRAB05SNE2254 P0002 I1001 T00001011
04850KAOH AOH20161211182515912/11/16 18:25:31  5-MIN KAOH 112325Z AUTO 17009KT 7SM -SN OVC024 00/M01 A2989 1010 92 -500 180/09 RMK AO2 UPB2254E05FZRAB05E23SNE2254B23 P0002 I1001 T00001011
04850KAOH AOH20161211183016212/11/16 18:30:31  5-MIN KAOH 112330Z AUTO 18010KT 6SM -SN BR OVC024 00/M01 A2988 1010 92 -500 190/10 RMK AO2 UPB2254E05FZRAB05E23SNE2254B23 P0002 I1001 T00001011
04850KAOH AOH20161211183516212/11/16 18:35:31  5-MIN KAOH 112335Z AUTO 18008KT 6SM -SN BR OVC023 00/M01 A2988 1010 96 -500 180/08 RMK AO2 UPB2254E05FZRAB05E23SNE2254B23 P0003 I1001 T00001006
04850KAOH AOH20161211184017412/11/16 18:40:31  5-MIN KAOH 112340Z AUTO 18008KT 6SM -SN BR OVC023 00/M01 A2988 1010 96 -500 180/08 RMK AO2 UPB2254E05B36E38FZRAB05E23SNE2254B23E36B38 P0003 I1001 T00001006
04850KAOH AOH20161211184517412/11/16 18:45:31  5-MIN KAOH 112345Z AUTO 18007KT 5SM -SN BR OVC023 00/M01 A2988 1010 96 -500 190/07 RMK AO2 UPB2254E05B36E38FZRAB05E23SNE2254B23E36B38 P0003 I1001 T00001006
04850KAOH AOH20161211185021112/11/16 18:50:31  5-MIN KAOH 112350Z AUTO 18008KT 4SM -SN BR OVC023 00/M01 A2988 1010 96 -500 180/08 RMK AO2 UPB2254E05B36E38FZRAB05E23SNE2254B23E36B38 SLP130 P0004 60006 I1001 I6003 T00001006 10000 21011 55023
04850KAOH AOH20161211185512512/11/16 18:55:31  5-MIN KAOH 112355Z AUTO 18009KT 3SM -SN BR OVC022 00/M01 A2987 1020 96 -500 180/09 RMK AO2 P0000 T00001006
04850KAOH AOH20161211190013612/11/16 19:00:31  5-MIN KAOH 120000Z AUTO 18008KT 2 1/2SM -SN BR FEW010 OVC022 00/M01 A2987 1020 96 -500 180/08 RMK AO2 P0000 T00001006
04850KAOH AOH20161211190513212/11/16 19:05:31  5-MIN KAOH 120005Z AUTO 17008KT 3SM -SN BR FEW010 OVC022 00/M01 A2987 1020 96 -500 180/08 RMK AO2 P0001 T00001006
04850KAOH AOH20161211191013212/11/16 19:10:31  5-MIN KAOH 120010Z AUTO 18008KT 3SM -SN BR FEW010 OVC022 00/M01 A2987 1030 96 -500 180/08 RMK AO2 P0001 T00001006
04850KAOH AOH20161211191513912/11/16 19:15:31  5-MIN KAOH 120015Z AUTO 18007KT 4SM -SN BR FEW008 BKN022 OVC027 00/M01 A2987 1030 96 -500 190/07 RMK AO2 P0001 T00001006
04850KAOH AOH20161211192013212/11/16 19:20:31  5-MIN KAOH 120020Z AUTO 18008KT 3SM -SN BR FEW008 OVC022 00/M01 A2986 1030 96 -500 180/08 RMK AO2 P0002 T00001006
04850KAOH AOH20161211192513912/11/16 19:25:31  5-MIN KAOH 120025Z AUTO 18010KT 4SM -SN BR FEW008 BKN020 OVC026 01/M01 A2986 1030 92 -400 180/10 RMK AO2 P0002 T00061006
04850KAOH AOH20161211193013212/11/16 19:30:31  5-MIN KAOH 120030Z AUTO 18009KT 5SM -SN BR SCT017 OVC023 01/M01 A2986 1040 92 -400 180/09 RMK AO2 P0002 T00061006
04850KAOH AOH20161211193513812/11/16 19:35:31  5-MIN KAOH 120035Z AUTO 18010KT 3SM -SN BR FEW009 BKN017 OVC023 01/00 A2985 1040 96 -400 190/10 RMK AO2 P0003 T00060000
04850KAOH AOH20161211194013512/11/16 19:40:31  5-MIN KAOH 120040Z AUTO 18008KT 2 1/2SM -SN BR FEW009 OVC017 01/00 A2985 1040 96 -400 180/08 RMK AO2 P0003 T00060000
04850KAOH AOH20161211194513512/11/16 19:45:31  5-MIN KAOH 120045Z AUTO 18009KT 2 1/2SM -SN BR FEW009 OVC017 01/00 A2985 1040 96 -400 180/09 RMK AO2 P0004 T00060000
04850KAOH AOH20161211195014212/11/16 19:50:31  5-MIN KAOH 120050Z AUTO 18008KT 2 1/2SM -SN BR FEW009 OVC017 01/00 A2985 1040 96 -400 190/08 RMK AO2 SLP118 P0004 T00060000
04850KAOH AOH20161211195512812/11/16 19:55:31  5-MIN KAOH 120055Z AUTO 18008KT 2 1/2SM -SN BR OVC014 01/00 A2985 1040 96 -400 190/08 RMK AO2 P0000 T00060000
04850KAOH AOH20161211200013112/11/16 20:00:31  5-MIN KAOH 120100Z AUTO 19007KT 3SM -SN BR FEW009 OVC014 01/00 A2985 1050 96 -400 190/07 RMK AO2 P0000 T00060000
04850KAOH AOH20161211200512812/11/16 20:05:31  5-MIN KAOH 120105Z AUTO 19008KT 2 1/2SM -SN BR OVC015 01/00 A2984 1050 96 -400 190/08 RMK AO2 P0001 T00060000
04850KAOH AOH20161211201013612/11/16 20:10:31  5-MIN KAOH 120110Z AUTO 19010KT 2 1/2SM -SN BR FEW008 OVC015 01/01 A2984 1050 100 -400 200/10 RMK AO2 P0001 T00060006
04850KAOH AOH20161211201513212/11/16 20:15:31  5-MIN KAOH 120115Z AUTO 19009KT 2SM -SN BR FEW008 OVC015 01/01 A2984 1050 100 -400 200/09 RMK AO2 P0001 T00060006
04850KAOH AOH20161211202013612/11/16 20:20:31  5-MIN KAOH 120120Z AUTO 19009KT 2 1/2SM -SN BR SCT008 OVC015 01/01 A2984 1050 100 -400 200/09 RMK AO2 P0002 T00060006
04850KAOH AOH20161211202513612/11/16 20:25:31  5-MIN KAOH 120125Z AUTO 19009KT 2 1/2SM -SN BR SCT008 OVC015 01/01 A2983 1060 100 -400 200/09 RMK AO2 P0002 T00060006
04850KAOH AOH20161211203013212/11/16 20:30:31  5-MIN KAOH 120130Z AUTO 19007KT 3SM -SN BR SCT008 OVC013 01/01 A2983 1060 100 -400 200/07 RMK AO2 P0002 T00060006
04850KAOH AOH20161211203513612/11/16 20:35:31  5-MIN KAOH 120135Z AUTO 19009KT 2 1/2SM -SN BR BKN008 OVC013 01/01 A2983 1060 100 -300 190/09 RMK AO2 P0003 T00060006
04850KAOH AOH20161211204013212/11/16 20:40:31  5-MIN KAOH 120140Z AUTO 19008KT 3SM -SN BR BKN008 OVC013 01/01 A2983 1060 100 -300 200/08 RMK AO2 P0003 T00060006
04850KAOH AOH20161211204513212/11/16 20:45:31  5-MIN KAOH 120145Z AUTO 19008KT 3SM -SN BR BKN008 OVC013 01/01 A2982 1070 100 -300 200/08 RMK AO2 P0003 T00060006
04850KAOH AOH20161211205013212/11/16 20:50:31  5-MIN KAOH 120150Z AUTO 19008KT 3SM -SN BR OVC007 01/01 A2982 1070 100 -300 190/08 RMK AO2 SLP108 P0003 T00060006
04850KAOH AOH20161211205513212/11/16 20:55:31  5-MIN KAOH 120155Z AUTO 19009KT 3SM -SN BR BKN007 OVC011 01/01 A2982 1070 100 -300 190/09 RMK AO2 P0000 T00060006
04850KAOH AOH20161211210013712/11/16 21:00:31  5-MIN KAOH 120200Z AUTO 18008KT 3SM -SN BR OVC007 01/01 A2981 1080 100 -300 190/08 RMK AO2 CIG 004V010 P0001 T00060006
04850KAOH AOH20161211210512512/11/16 21:05:31  5-MIN KAOH 120205Z AUTO 19009KT 4SM -SN BR OVC007 01/01 A2981 1080 100 -300 190/09 RMK AO2 P0001 T00060006
04850KAOH AOH20161211211014412/11/16 21:10:31  5-MIN KAOH 120210Z AUTO 19010KT 4SM -SN BR BKN006 OVC012 01/01 A2981 1080 100 -300 190/10 RMK AO2 CIG 004V009 P0001 T00060006
04850KAOH AOH20161211211513612/11/16 21:15:31  5-MIN KAOH 120215Z AUTO 19009KT 4SM -SN BR OVC006 01/01 A2980 1090 96 -200 190/09 RMK AO2 CIG 004V009 P0001 T00110006
04850KAOH AOH20161211212014612/11/16 21:20:31  5-MIN KAOH 120220Z AUTO 19009KT 4SM UP BR OVC006 01/01 A2980 1090 96 -200 200/09 RMK AO2 UPB17SNE17 CIG 005V009 P0001 T00110006
04850KAOH AOH20161211212513412/11/16 21:25:31  5-MIN KAOH 120225Z AUTO 19010KT 4SM UP BR OVC006 01/01 A2980 1090 96 -200 200/10 RMK AO2 UPB17SNE17 P0001 T00110006
04850KAOH AOH20161211213014312/11/16 21:30:31  5-MIN KAOH 120230Z AUTO 19009KT 4SM -RA BR OVC006 01/01 A2980 1090 96 -200 200/09 RMK AO2 UPB17E26RAB26SNE17 P0001 T00110006
04850KAOH AOH20161211213515512/11/16 21:35:31  5-MIN KAOH 120235Z AUTO 19010KT 4SM -RA BR OVC006 01/01 A2979 1100 96 -200 200/10 RMK AO2 UPB17E26RAB26SNE17 CIG 004V009 P0001 T00110006
04850KAOH AOH20161211214014312/11/16 21:40:31  5-MIN KAOH 120240Z AUTO 19009KT 4SM -RA BR OVC006 01/01 A2979 1100 96 -200 200/09 RMK AO2 UPB17E26RAB26SNE17 P0001 T00110006
04850KAOH AOH20161211214515512/11/16 21:45:31  5-MIN KAOH 120245Z AUTO 19008KT 4SM -RA BR OVC006 01/01 A2978 1100 96 -200 200/08 RMK AO2 UPB17E26RAB26SNE17 CIG 004V009 P0001 T00110006
04850KAOH AOH20161211215017512/11/16 21:50:31  5-MIN KAOH 120250Z AUTO 19009KT 4SM -RA BR OVC006 01/01 A2978 1110 100 -200 200/09 RMK AO2 UPB17E26RAB26SNE17 CIG 004V008 SLP095 P0001 60008 T00110011 56024
04850KAOH AOH20161211215512512/11/16 21:55:31  5-MIN KAOH 120255Z AUTO 19008KT 4SM -RA BR OVC006 01/01 A2978 1110 100 -200 200/08 RMK AO2 P0000 T00110011
04850KAOH AOH20161211220012512/11/16 22:00:31  5-MIN KAOH 120300Z AUTO 19009KT 5SM -RA BR OVC006 01/01 A2978 1110 100 -200 200/09 RMK AO2 P0000 T00110011
04850KAOH AOH20161211220512512/11/16 22:05:31  5-MIN KAOH 120305Z AUTO 19009KT 5SM -RA BR OVC006 01/01 A2977 1110 100 -200 200/09 RMK AO2 P0000 T00110011
04850KAOH AOH20161211221012512/11/16 22:10:31  5-MIN KAOH 120310Z AUTO 20010KT 5SM -RA BR OVC005 01/01 A2978 1110 100 -200 200/10 RMK AO2 P0000 T00110011
04850KAOH AOH20161211221512512/11/16 22:15:31  5-MIN KAOH 120315Z AUTO 20009KT 5SM -RA BR OVC005 01/01 A2978 1110 100 -200 200/09 RMK AO2 P0000 T00110011
04850KAOH AOH20161211222012612/11/16 22:20:31  5-MIN KAOH 120320Z AUTO 21010KT 5SM BR OVC005 02/01 A2977 1110 96 -100 210/10 RMK AO2 RAE19 P0000 T00170011
04850KAOH AOH20161211222512612/11/16 22:25:31  5-MIN KAOH 120325Z AUTO 20010KT 4SM BR OVC005 02/01 A2977 1120 96 -100 210/10 RMK AO2 RAE19 P0000 T00170011
04850KAOH AOH20161211223012612/11/16 22:30:31  5-MIN KAOH 120330Z AUTO 21011KT 4SM BR OVC005 02/01 A2977 1120 96 -100 210/11 RMK AO2 RAE19 P0000 T00170011
04850KAOH AOH20161211223512712/11/16 22:35:31  5-MIN KAOH 120335Z AUTO 21012KT 4SM BR OVC005 02/02 A2977 1110 100 -100 210/12 RMK AO2 RAE19 P0000 T00170017
04850KAOH AOH20161211224012712/11/16 22:40:31  5-MIN KAOH 120340Z AUTO 21012KT 4SM BR OVC005 02/02 A2977 1120 100 -100 210/12 RMK AO2 RAE19 P0000 T00170017
04850KAOH AOH20161211224513412/11/16 22:45:31  5-MIN KAOH 120345Z AUTO 21011KT 4SM -RA BR OVC005 02/02 A2977 1120 100 -100 210/11 RMK AO2 RAE19B45 P0000 T00170017
04850KAOH AOH20161211225014112/11/16 22:50:31  5-MIN KAOH 120350Z AUTO 21010KT 4SM -RA BR OVC005 02/02 A2977 1120 100 -100 210/10 RMK AO2 RAE19B45 SLP090 P0000 T00170017
04850KAOH AOH20161211225512512/11/16 22:55:31  5-MIN KAOH 120355Z AUTO 22010KT 4SM -RA BR OVC005 02/02 A2977 1120 100 -100 220/10 RMK AO2 P0000 T00170017
04850KAOH AOH20161211230012512/11/16 23:00:31  5-MIN KAOH 120400Z AUTO 21011KT 4SM -RA BR OVC005 02/02 A2977 1120 100 -100 220/11 RMK AO2 P0001 T00170017
04850KAOH AOH20161211230513512/11/16 23:05:31  5-MIN KAOH 120405Z AUTO 22011KT 5SM UP BR OVC005 02/02 A2977 1120 100 -100 230/11 RMK AO2 RAE05UPB05 P0001 T00170017
04850KAOH AOH20161211231013412/11/16 23:10:31  5-MIN KAOH 120410Z AUTO 21011KT 5SM -RA BR OVC005 02/02 A2977 1120 100 -100 220/11 RMK AO2 UPB05E06 P0001 T00170017
04850KAOH AOH20161211231513412/11/16 23:15:31  5-MIN KAOH 120415Z AUTO 22010KT 5SM -RA BR OVC005 02/02 A2977 1120 100 -100 220/10 RMK AO2 UPB05E06 P0001 T00170017
04850KAOH AOH20161211232013412/11/16 23:20:31  5-MIN KAOH 120420Z AUTO 22012KT 5SM -RA BR OVC005 02/02 A2977 1120 100 -100 230/12 RMK AO2 UPB05E06 P0001 T00170017
04850KAOH AOH20161211232513412/11/16 23:25:31  5-MIN KAOH 120425Z AUTO 22010KT 6SM -RA BR OVC005 02/02 A2977 1120 100 -100 230/10 RMK AO2 UPB05E06 P0001 T00170017
04850KAOH AOH20161211233013412/11/16 23:30:31  5-MIN KAOH 120430Z AUTO 22011KT 6SM -RA BR OVC005 02/02 A2976 1120 100 -100 230/11 RMK AO2 UPB05E06 P0001 T00170017
04850KAOH AOH20161211233513012/11/16 23:35:31  5-MIN KAOH 120435Z AUTO 23012KT 7SM -RA OVC005 02/02 A2976 1120 96 -100 230/12 RMK AO2 UPB05E06 P0002 T00220017
04850KAOH AOH20161211234013112/11/16 23:40:31  5-MIN KAOH 120440Z AUTO 22012KT 7SM -RA OVC005 02/02 A2976 1130 100 -100 220/12 RMK AO2 UPB05E06 P0002 T00170017
04850KAOH AOH20161211234513112/11/16 23:45:31  5-MIN KAOH 120445Z AUTO 23013KT 7SM -RA OVC006 02/02 A2976 1130 100 -100 230/13 RMK AO2 UPB05E06 P0002 T00170017
04850KAOH AOH20161211235015912/11/16 23:50:31  5-MIN KAOH 120450Z AUTO 23013KT 7SM -RA OVC006 02/02 A2976 1130 96 -100 230/13 RMK AO2 UPB05E06 CIG 005V009 SLP087 P0002 T00220017 400221050
04850KAOH AOH20161211235513312/11/16 23:55:31  5-MIN KAOH 120455Z AUTO 23012KT 8SM -RA OVC006 02/02 A2976 1130 96 -100 230/12 RMK AO2 CIG 005V011 P0000 T00220017
04850KAOH AOH20161212000013412/12/16 00:00:31  5-MIN KAOH 120500Z AUTO 23011KT 8SM -RA OVC006 02/02 A2976 1130 100 -100 230/11 RMK AO2 CIG 005V011 P0000 T00170017
04850KAOH AOH20161212000514112/12/16 00:05:31  5-MIN KAOH 120505Z AUTO 23014G20KT 10SM -RA OVC006 02/02 A2976 1120 100 -100 240/14G20 RMK AO2 CIG 005V011 P0000 T00170017
04850KAOH AOH20161212001014012/12/16 00:10:31  5-MIN KAOH 120510Z AUTO 23011G20KT 10SM -RA OVC006 02/02 A2976 1130 96 -100 230/11G20 RMK AO2 CIG 005V011 P0000 T00220017
04850KAOH AOH20161212001513512/12/16 00:15:31  5-MIN KAOH 120515Z AUTO 22013KT 10SM -RA OVC007 02/02 A2976 1120 100 -100 230/13 RMK AO2 CIG 005V012 P0000 T00170017
04850KAOH AOH20161212002014112/12/16 00:20:31  5-MIN KAOH 120520Z AUTO 23014G20KT 10SM -RA OVC007 02/02 A2976 1120 100 -100 240/14G20 RMK AO2 CIG 006V012 P0000 T00220022
04850KAOH AOH20161212002513412/12/16 00:25:31  5-MIN KAOH 120525Z AUTO 23014KT 9SM -RA OVC007 02/02 A2977 1120 100 -100 240/14 RMK AO2 CIG 006V012 P0001 T00220022
04850KAOH AOH20161212003013512/12/16 00:30:31  5-MIN KAOH 120530Z AUTO 23015KT 10SM -RA OVC007 02/02 A2977 1120 100 -100 240/15 RMK AO2 CIG 006V010 P0001 T00220022
04850KAOH AOH20161212003513412/12/16 00:35:31  5-MIN KAOH 120535Z AUTO 23014KT 9SM -RA OVC007 02/02 A2977 1120 100 -100 240/14 RMK AO2 CIG 006V010 P0001 T00170017
04850KAOH AOH20161212004013412/12/16 00:40:31  5-MIN KAOH 120540Z AUTO 24015KT 9SM -RA OVC007 02/02 A2977 1120 100 -100 240/15 RMK AO2 CIG 007V010 P0001 T00170017
04850KAOH AOH20161212004512312/12/16 00:45:31  5-MIN KAOH 120545Z AUTO 24012KT 10SM -RA OVC007 02/02 A2977 1120 100 -100 240/12 RMK AO2 P0001 T00170017
04850KAOH AOH20161212005016612/12/16 00:50:31  5-MIN KAOH 120550Z AUTO 23016KT 10SM -RA OVC007 02/02 A2977 1120 100 -100 240/16 RMK AO2 CIG 007V011 SLP090 P0001 60011 T00170017 10022 20000 58032
04850KAOH AOH20161212005513512/12/16 00:55:31  5-MIN KAOH 120555Z AUTO 24015KT 10SM -RA OVC007 02/02 A2977 1110 100 -100 240/15 RMK AO2 CIG 007V012 P0000 T00170017
04850KAOH AOH20161212010013512/12/16 01:00:31  5-MIN KAOH 120600Z AUTO 24016KT 10SM -RA OVC008 02/02 A2977 1110 100 -100 250/16 RMK AO2 CIG 007V012 P0000 T00170017
04850KAOH AOH20161212010513712/12/16 01:05:31  5-MIN KAOH 120605Z AUTO 24013KT 10SM OVC008 02/02 A2977 1110 100 -100 250/13 RMK AO2 RAE04 CIG 007V012 P0000 T00170017
04850KAOH AOH20161212011013712/12/16 01:10:31  5-MIN KAOH 120610Z AUTO 24013KT 10SM OVC008 02/02 A2977 1110 100 -100 250/13 RMK AO2 RAE04 CIG 007V012 P0000 T00170017
04850KAOH AOH20161212011513412/12/16 01:15:31  5-MIN KAOH 120615Z AUTO 24014KT 10SM -RA OVC008 02/01 A2977 1110 96 -100 240/14 RMK AO2 CIG 007V012 P0000 T00170011
04850KAOH AOH20161212012013412/12/16 01:20:31  5-MIN KAOH 120620Z AUTO 24014KT 10SM -RA OVC008 02/01 A2978 1110 96 -200 250/14 RMK AO2 CIG 007V012 P0000 T00170011
04850KAOH AOH20161212012513412/12/16 01:25:31  5-MIN KAOH 120625Z AUTO 24013KT 10SM -RA OVC008 02/01 A2978 1110 96 -200 250/13 RMK AO2 CIG 007V011 P0000 T00170011
04850KAOH AOH20161212013012212/12/16 01:30:31  5-MIN KAOH 120630Z AUTO 24014KT 10SM -RA OVC008 02/01 A2978 1110 96 -200 250/14 RMK AO2 P0000 T00170011
04850KAOH AOH20161212013512212/12/16 01:35:31  5-MIN KAOH 120635Z AUTO 24014KT 10SM -RA OVC008 02/01 A2978 1110 96 -200 250/14 RMK AO2 P0000 T00170011
04850KAOH AOH20161212014013012/12/16 01:40:31  5-MIN KAOH 120640Z AUTO 24016G21KT 10SM OVC008 02/01 A2978 1110 96 -200 250/16G21 RMK AO2 RAE37 P0000 T00170011
04850KAOH AOH20161212014512412/12/16 01:45:31  5-MIN KAOH 120645Z AUTO 24015KT 10SM OVC008 02/01 A2978 1110 96 -200 250/15 RMK AO2 RAE37 P0000 T00170011
04850KAOH AOH20161212015013112/12/16 01:50:31  5-MIN KAOH 120650Z AUTO 25014KT 10SM OVC008 02/01 A2978 1110 96 -200 250/14 RMK AO2 RAE37 SLP094 P0000 T00170011
04850KAOH AOH20161212015511212/12/16 01:55:31  5-MIN KAOH 120655Z AUTO 25015KT 10SM OVC008 02/01 A2979 1100 96 -200 250/15 RMK AO2 T00170011
04850KAOH AOH20161212020011812/12/16 02:00:31  5-MIN KAOH 120700Z AUTO 25013G21KT 10SM OVC008 02/01 A2979 1100 96 -200 250/13G21 RMK AO2 T00170011
04850KAOH AOH20161212020511212/12/16 02:05:31  5-MIN KAOH 120705Z AUTO 25013KT 10SM OVC008 02/01 A2979 1100 96 -200 260/13 RMK AO2 T00170011
04850KAOH AOH20161212021011212/12/16 02:10:31  5-MIN KAOH 120710Z AUTO 25015KT 10SM OVC008 02/01 A2979 1100 96 -200 250/15 RMK AO2 T00170011
04850KAOH AOH20161212021511212/12/16 02:15:31  5-MIN KAOH 120715Z AUTO 24014KT 10SM OVC008 02/01 A2979 1090 96 -200 250/14 RMK AO2 T00170011
04850KAOH AOH20161212022011212/12/16 02:20:31  5-MIN KAOH 120720Z AUTO 24015KT 10SM OVC008 02/01 A2979 1090 96 -200 250/15 RMK AO2 T00170011
04850KAOH AOH20161212022511212/12/16 02:25:31  5-MIN KAOH 120725Z AUTO 25015KT 10SM OVC008 02/01 A2980 1090 96 -200 250/15 RMK AO2 T00170011
04850KAOH AOH20161212023011212/12/16 02:30:31  5-MIN KAOH 120730Z AUTO 24013KT 10SM OVC008 02/01 A2980 1090 96 -200 250/13 RMK AO2 T00170011
04850KAOH AOH20161212023511212/12/16 02:35:31  5-MIN KAOH 120735Z AUTO 24015KT 10SM OVC008 02/01 A2980 1090 96 -200 250/15 RMK AO2 T00170011
04850KAOH AOH20161212024011212/12/16 02:40:31  5-MIN KAOH 120740Z AUTO 24013KT 10SM OVC008 02/01 A2980 1090 96 -200 250/13 RMK AO2 T00170011
04850KAOH AOH20161212024511212/12/16 02:45:31  5-MIN KAOH 120745Z AUTO 24013KT 10SM OVC008 02/01 A2980 1090 96 -200 250/13 RMK AO2 T00170011
04850KAOH AOH20161212025011912/12/16 02:50:31  5-MIN KAOH 120750Z AUTO 24012KT 10SM OVC008 02/01 A2980 1090 96 -200 250/12 RMK AO2 SLP100 T00170011
04850KAOH AOH20161212025511212/12/16 02:55:31  5-MIN KAOH 120755Z AUTO 24011KT 10SM OVC008 02/01 A2980 1090 96 -200 250/11 RMK AO2 T00170011
04850KAOH AOH20161212030012912/12/16 03:00:31  5-MIN KAOH 120800Z AUTO 24013KT 10SM UP OVC008 02/01 A2980 1090 96 -200 250/13 RMK AO2 UPB0759 P0000 T00170011
04850KAOH AOH20161212030512912/12/16 03:05:31  5-MIN KAOH 120805Z AUTO 24012KT 10SM UP OVC008 02/01 A2980 1090 96 -200 250/12 RMK AO2 UPB0759 P0000 T00170011
04850KAOH AOH20161212031012912/12/16 03:10:31  5-MIN KAOH 120810Z AUTO 24014KT 10SM OVC008 02/01 A2980 1090 96 -200 250/14 RMK AO2 UPB0759E09 P0000 T00170011
04850KAOH AOH20161212031512912/12/16 03:15:31  5-MIN KAOH 120815Z AUTO 25013KT 10SM OVC008 02/01 A2980 1090 96 -200 250/13 RMK AO2 UPB0759E09 P0000 T00170011
04850KAOH AOH20161212032012912/12/16 03:20:31  5-MIN KAOH 120820Z AUTO 25013KT 10SM OVC008 02/01 A2980 1090 96 -200 260/13 RMK AO2 UPB0759E09 P0000 T00170011
04850KAOH AOH20161212032512912/12/16 03:25:31  5-MIN KAOH 120825Z AUTO 24014KT 10SM OVC008 02/01 A2980 1090 96 -200 250/14 RMK AO2 UPB0759E09 P0000 T00170011
04850KAOH AOH20161212033012912/12/16 03:30:31  5-MIN KAOH 120830Z AUTO 25013KT 10SM OVC008 02/01 A2980 1090 96 -200 250/13 RMK AO2 UPB0759E09 P0000 T00170011
04850KAOH AOH20161212033512912/12/16 03:35:31  5-MIN KAOH 120835Z AUTO 25012KT 10SM OVC008 02/01 A2980 1090 96 -200 260/12 RMK AO2 UPB0759E09 P0000 T00170011
04850KAOH AOH20161212034012912/12/16 03:40:31  5-MIN KAOH 120840Z AUTO 25014KT 10SM OVC008 02/01 A2980 1080 96 -200 260/14 RMK AO2 UPB0759E09 P0000 T00170011
04850KAOH AOH20161212034512912/12/16 03:45:31  5-MIN KAOH 120845Z AUTO 25015KT 10SM OVC008 02/01 A2981 1080 96 -200 260/15 RMK AO2 UPB0759E09 P0000 T00170011
04850KAOH AOH20161212035014812/12/16 03:50:31  5-MIN KAOH 120850Z AUTO 25015KT 10SM OVC007 02/01 A2981 1080 96 -200 250/15 RMK AO2 UPB0759E09 SLP103 P0000 60000 T00170011 55003
04850KAOH AOH20161212035511212/12/16 03:55:31  5-MIN KAOH 120855Z AUTO 25016KT 10SM OVC007 02/01 A2981 1080 96 -200 260/16 RMK AO2 T00170011
04850KAOH AOH20161212040011212/12/16 04:00:31  5-MIN KAOH 120900Z AUTO 25014KT 10SM OVC007 02/01 A2981 1080 96 -200 260/14 RMK AO2 T00170011
04850KAOH AOH20161212040511212/12/16 04:05:31  5-MIN KAOH 120905Z AUTO 25016KT 10SM OVC007 02/01 A2981 1080 96 -200 260/16 RMK AO2 T00170011
04850KAOH AOH20161212041011212/12/16 04:10:31  5-MIN KAOH 120910Z AUTO 25014KT 10SM OVC007 02/01 A2981 1080 96 -200 260/14 RMK AO2 T00170011
04850KAOH AOH20161212041511812/12/16 04:15:31  5-MIN KAOH 120915Z AUTO 26017G23KT 10SM OVC007 02/01 A2981 1080 96 -200 260/17G23 RMK AO2 T00170011
04850KAOH AOH20161212042011212/12/16 04:20:31  5-MIN KAOH 120920Z AUTO 26015KT 10SM OVC007 02/01 A2981 1080 96 -200 260/15 RMK AO2 T00170011
04850KAOH AOH20161212042511212/12/16 04:25:31  5-MIN KAOH 120925Z AUTO 26015KT 10SM OVC007 02/01 A2981 1080 96 -200 260/15 RMK AO2 T00170011
04850KAOH AOH20161212043011212/12/16 04:30:31  5-MIN KAOH 120930Z AUTO 25016KT 10SM OVC007 02/01 A2981 1080 96 -200 260/16 RMK AO2 T00170011
04850KAOH AOH20161212043511212/12/16 04:35:31  5-MIN KAOH 120935Z AUTO 26019KT 10SM OVC007 02/01 A2982 1070 96 -200 260/19 RMK AO2 T00170011
04850KAOH AOH20161212044011312/12/16 04:40:31  5-MIN KAOH 120940Z AUTO 26015KT 10SM OVC007 01/01 A2982 1070 100 -300 260/15 RMK AO2 T00110011
04850KAOH AOH20161212044511212/12/16 04:45:31  5-MIN KAOH 120945Z AUTO 25018KT 10SM OVC007 02/01 A2982 1070 96 -200 260/18 RMK AO2 T00170011
04850KAOH AOH20161212045011912/12/16 04:50:31  5-MIN KAOH 120950Z AUTO 26017KT 10SM OVC007 02/01 A2982 1070 96 -200 270/17 RMK AO2 SLP106 T00170011
04850KAOH AOH20161212045511312/12/16 04:55:31  5-MIN KAOH 120955Z AUTO 26015KT 10SM OVC007 01/01 A2982 1070 100 -300 260/15 RMK AO2 T00110011
04850KAOH AOH20161212050011212/12/16 05:00:31  5-MIN KAOH 121000Z AUTO 26014KT 10SM OVC007 02/01 A2982 1070 96 -200 260/14 RMK AO2 T00170011
04850KAOH AOH20161212050511312/12/16 05:05:31  5-MIN KAOH 121005Z AUTO 26014KT 10SM OVC007 01/01 A2982 1070 100 -300 260/14 RMK AO2 T00110011
04850KAOH AOH20161212051011312/12/16 05:10:31  5-MIN KAOH 121010Z AUTO 25013KT 10SM OVC007 01/01 A2982 1070 100 -300 260/13 RMK AO2 T00110011
04850KAOH AOH20161212051511312/12/16 05:15:31  5-MIN KAOH 121015Z AUTO 25014KT 10SM OVC007 01/01 A2982 1070 100 -300 260/14 RMK AO2 T00110011
04850KAOH AOH20161212052011312/12/16 05:20:31  5-MIN KAOH 121020Z AUTO 25013KT 10SM OVC007 01/01 A2982 1070 100 -300 260/13 RMK AO2 T00110011
04850KAOH AOH20161212052511312/12/16 05:25:31  5-MIN KAOH 121025Z AUTO 25012KT 10SM OVC007 01/01 A2983 1060 100 -300 260/12 RMK AO2 T00110011
04850KAOH AOH20161212053011312/12/16 05:30:31  5-MIN KAOH 121030Z AUTO 25015KT 10SM OVC006 01/01 A2983 1060 100 -300 260/15 RMK AO2 T00110011
04850KAOH AOH20161212053511312/12/16 05:35:31  5-MIN KAOH 121035Z AUTO 25014KT 10SM OVC006 01/01 A2983 1060 100 -300 260/14 RMK AO2 T00110011
04850KAOH AOH20161212054011312/12/16 05:40:31  5-MIN KAOH 121040Z AUTO 25014KT 10SM OVC006 01/01 A2983 1060 100 -300 260/14 RMK AO2 T00110011
04850KAOH AOH20161212054511312/12/16 05:45:31  5-MIN KAOH 121045Z AUTO 25015KT 10SM OVC006 01/01 A2983 1060 100 -300 260/15 RMK AO2 T00110011
04850KAOH AOH20161212055012012/12/16 05:50:31  5-MIN KAOH 121050Z AUTO 25014KT 10SM OVC006 01/01 A2983 1060 100 -300 260/14 RMK AO2 SLP111 T00110011
04850KAOH AOH20161212055511912/12/16 05:55:31  5-MIN KAOH 121055Z AUTO 26013G21KT 10SM OVC006 01/01 A2983 1060 100 -300 260/13G21 RMK AO2 T00110011
04850KAOH AOH20161212060012512/12/16 06:00:31  5-MIN KAOH 121100Z AUTO 26013KT 10SM OVC006 01/01 A2984 1050 100 -300 260/13 RMK AO2 CIG 005V010 T00110011
04850KAOH AOH20161212060512412/12/16 06:05:31  5-MIN KAOH 121105Z AUTO 26014KT 10SM OVC006 01/01 A2984 1050 96 -300 260/14 RMK AO2 CIG 005V009 T00110006
04850KAOH AOH20161212061012412/12/16 06:10:31  5-MIN KAOH 121110Z AUTO 26015KT 10SM OVC006 01/01 A2984 1050 96 -300 260/15 RMK AO2 CIG 005V010 T00110006
04850KAOH AOH20161212061512412/12/16 06:15:31  5-MIN KAOH 121115Z AUTO 27014KT 10SM OVC006 01/01 A2984 1050 96 -300 270/14 RMK AO2 CIG 005V010 T00110006
04850KAOH AOH20161212062012412/12/16 06:20:31  5-MIN KAOH 121120Z AUTO 27019KT 10SM OVC007 01/01 A2985 1040 96 -300 270/19 RMK AO2 CIG 005V010 T00110006
04850KAOH AOH20161212062511812/12/16 06:25:31  5-MIN KAOH 121125Z AUTO 27017G25KT 10SM OVC007 01/01 A2985 1040 96 -300 270/17G25 RMK AO2 T00110006
04850KAOH AOH20161212063011812/12/16 06:30:31  5-MIN KAOH 121130Z AUTO 27015G25KT 10SM OVC007 01/01 A2985 1040 96 -300 280/15G25 RMK AO2 T00110006
04850KAOH AOH20161212063511212/12/16 06:35:31  5-MIN KAOH 121135Z AUTO 27016KT 10SM OVC008 01/01 A2986 1040 96 -300 270/16 RMK AO2 T00110006
04850KAOH AOH20161212064011212/12/16 06:40:31  5-MIN KAOH 121140Z AUTO 27017KT 10SM OVC008 01/01 A2986 1030 96 -300 270/17 RMK AO2 T00110006
04850KAOH AOH20161212064513612/12/16 06:45:31  5-MIN KAOH 121145Z AUTO 27019G27KT 10SM OVC008 01/01 A2986 1030 96 -300 270/19G27 RMK AO2 PK WND 26027/1143 T00110006
04850KAOH AOH20161212065017312/12/16 06:50:31  5-MIN KAOH 121150Z AUTO 27018G27KT 10SM OVC008 01/01 A2987 1030 96 -300 280/18G27 RMK AO2 PK WND 26027/1143 SLP123 60000 70017 T00110006 10017 20011 51012
04850KAOH AOH20161212065511212/12/16 06:55:31  5-MIN KAOH 121155Z AUTO 27018KT 10SM OVC008 01/00 A2987 1020 92 -300 270/18 RMK AO2 T00110000
04850KAOH AOH20161212070012412/12/16 07:00:31  5-MIN KAOH 121200Z AUTO 27014KT 10SM OVC008 01/00 A2987 1020 92 -300 280/14 RMK AO2 CIG 008V012 T00110000
04850KAOH AOH20161212070512412/12/16 07:05:31  5-MIN KAOH 121205Z AUTO 26016KT 10SM OVC009 01/00 A2987 1020 92 -300 270/16 RMK AO2 CIG 008V012 T00110000
04850KAOH AOH20161212071011212/12/16 07:10:31  5-MIN KAOH 121210Z AUTO 27018KT 10SM OVC009 01/00 A2988 1020 92 -300 270/18 RMK AO2 T00110000
04850KAOH AOH20161212071511212/12/16 07:15:31  5-MIN KAOH 121215Z AUTO 27016KT 10SM OVC009 01/00 A2988 1020 92 -300 280/16 RMK AO2 T00110000
04850KAOH AOH20161212072011212/12/16 07:20:31  5-MIN KAOH 121220Z AUTO 27014KT 10SM OVC010 01/00 A2988 1020 92 -300 270/14 RMK AO2 T00110000
04850KAOH AOH20161212072511812/12/16 07:25:31  5-MIN KAOH 121225Z AUTO 27019G22KT 10SM OVC010 01/00 A2988 1010 92 -300 280/19G22 RMK AO2 T00110000
04850KAOH AOH20161212073013612/12/16 07:30:31  5-MIN KAOH 121230Z AUTO 27016G26KT 10SM OVC009 01/00 A2988 1010 92 -300 280/16G26 RMK AO2 PK WND 27026/1226 T00110000
04850KAOH AOH20161212073513012/12/16 07:35:31  5-MIN KAOH 121235Z AUTO 27018KT 10SM OVC009 01/00 A2988 1010 92 -300 280/18 RMK AO2 PK WND 27026/1226 T00110000
04850KAOH AOH20161212074014212/12/16 07:40:31  5-MIN KAOH 121240Z AUTO 27017KT 10SM OVC009 01/00 A2989 1010 96 -400 270/17 RMK AO2 PK WND 27026/1226 CIG 008V012 T00060000
04850KAOH AOH20161212074516312/12/16 07:45:31  5-MIN KAOH 121245Z AUTO 27019G23KT 10SM BKN009 BKN015 OVC020 01/M01 A2989 1010 92 -400 280/19G23 RMK AO2 PK WND 27026/1226 CIG 008V012 T00061006
04850KAOH AOH20161212075015712/12/16 07:50:31  5-MIN KAOH 121250Z AUTO 27017KT 10SM BKN009 OVC020 01/M01 A2989 1010 92 -400 280/17 RMK AO2 PK WND 27026/1226 CIG 008V012 SLP130 T00061006
04850KAOH AOH20161212075512012/12/16 07:55:31  5-MIN KAOH 121255Z AUTO 27017KT 10SM SCT009 OVC020 01/M01 A2989 1010 92 -400 280/17 RMK AO2 T00061006
04850KAOH AOH20161212080012712/12/16 08:00:31  5-MIN KAOH 121300Z AUTO 27015KT 10SM FEW009 BKN015 OVC020 01/M01 A2989 1010 89 -400 280/15 RMK AO2 T00061011
04850KAOH AOH20161212080513312/12/16 08:05:31  5-MIN KAOH 121305Z AUTO 27018G23KT 10SM FEW009 BKN017 OVC022 01/M01 A2989 1000 89 -400 280/18G23 RMK AO2 T00061011
04850KAOH AOH20161212081011912/12/16 08:10:31  5-MIN KAOH 121310Z AUTO 27019G24KT 10SM OVC019 01/M01 A2989 1000 89 -400 270/19G24 RMK AO2 T00061011
04850KAOH AOH20161212081511912/12/16 08:15:31  5-MIN KAOH 121315Z AUTO 27019G24KT 10SM OVC019 01/M01 A2990 1000 89 -400 280/19G24 RMK AO2 T00061011
04850KAOH AOH20161212082012612/12/16 08:20:31  5-MIN KAOH 121320Z AUTO 27018G24KT 10SM SCT016 OVC021 01/M02 A2990 1000 85 -400 270/18G24 RMK AO2 T00061017
04850KAOH AOH20161212082511212/12/16 08:25:31  5-MIN KAOH 121325Z AUTO 27016KT 10SM OVC019 01/M02 A2990 990 85 -400 270/16 RMK AO2 T00061017
04850KAOH AOH20161212083011212/12/16 08:30:31  5-MIN KAOH 121330Z AUTO 26014KT 10SM OVC019 01/M02 A2991 990 85 -400 270/14 RMK AO2 T00061017
04850KAOH AOH20161212083511212/12/16 08:35:31  5-MIN KAOH 121335Z AUTO 27017KT 10SM OVC019 01/M02 A2991 990 85 -400 280/17 RMK AO2 T00061017
04850KAOH AOH20161212084011212/12/16 08:40:31  5-MIN KAOH 121340Z AUTO 27018KT 10SM OVC019 01/M02 A2991 980 85 -400 280/18 RMK AO2 T00061017
04850KAOH AOH20161212084511212/12/16 08:45:31  5-MIN KAOH 121345Z AUTO 27018KT 10SM OVC019 01/M02 A2992 980 85 -500 270/18 RMK AO2 T00061017
04850KAOH AOH20161212085011912/12/16 08:50:31  5-MIN KAOH 121350Z AUTO 27018KT 10SM OVC019 01/M02 A2992 980 82 -500 280/18 RMK AO2 SLP141 T00061022
04850KAOH AOH20161212085511812/12/16 08:55:31  5-MIN KAOH 121355Z AUTO 27019G24KT 10SM OVC019 01/M02 A2992 980 85 -500 280/19G24 RMK AO2 T00061017
04850KAOH AOH20161212090013012/12/16 09:00:31  5-MIN KAOH 121400Z AUTO 27022KT 10SM OVC019 01/M02 A2993 970 82 -500 280/22 RMK AO2 PK WND 27026/1400 T00061022
04850KAOH AOH20161212090513612/12/16 09:05:31  5-MIN KAOH 121405Z AUTO 27019G26KT 10SM OVC020 01/M02 A2993 970 82 -500 280/19G26 RMK AO2 PK WND 27026/1400 T00061022
04850KAOH AOH20161212091013612/12/16 09:10:31  5-MIN KAOH 121410Z AUTO 29020G29KT 10SM OVC020 01/M03 A2994 960 78 -500 290/20G29 RMK AO2 PK WND 27029/1407 T00061028
04850KAOH AOH20161212091513612/12/16 09:15:31  5-MIN KAOH 121415Z AUTO 29020G29KT 10SM OVC020 00/M03 A2994 960 78 -500 300/20G29 RMK AO2 PK WND 27029/1407 T00001033
04850KAOH AOH20161212092013612/12/16 09:20:31  5-MIN KAOH 121420Z AUTO 27020G27KT 10SM OVC020 00/M03 A2994 960 78 -500 280/20G27 RMK AO2 PK WND 27029/1407 T00001033
04850KAOH AOH20161212092513612/12/16 09:25:31  5-MIN KAOH 121425Z AUTO 28018G27KT 10SM OVC022 00/M03 A2995 950 78 -600 290/18G27 RMK AO2 PK WND 27029/1407 T00001033
04850KAOH AOH20161212093013612/12/16 09:30:31  5-MIN KAOH 121430Z AUTO 29018G25KT 10SM OVC022 00/M04 A2995 950 75 -600 290/18G25 RMK AO2 PK WND 27029/1407 T00001039
04850KAOH AOH20161212093513612/12/16 09:35:31  5-MIN KAOH 121435Z AUTO 28018G25KT 10SM OVC022 00/M04 A2995 950 75 -600 290/18G25 RMK AO2 PK WND 27029/1407 T00001039
04850KAOH AOH20161212094013012/12/16 09:40:31  5-MIN KAOH 121440Z AUTO 29019KT 10SM OVC022 00/M04 A2996 940 75 -600 290/19 RMK AO2 PK WND 27029/1407 T00001039
04850KAOH AOH20161212094513612/12/16 09:45:31  5-MIN KAOH 121445Z AUTO 28018G25KT 10SM OVC022 00/M04 A2996 940 75 -600 290/18G25 RMK AO2 PK WND 27029/1407 T00001039
04850KAOH AOH20161212095014912/12/16 09:50:31  5-MIN KAOH 121450Z AUTO 28021G28KT 10SM OVC022 00/M04 A2996 940 75 -600 280/21G28 RMK AO2 PK WND 27029/1407 SLP156 T00001039 53019
04850KAOH AOH20161212095511912/12/16 09:55:31  5-MIN KAOH 121455Z AUTO 28016G28KT 10SM OVC022 M01/M04 A2997 940 78 -600 290/16G28 RMK AO2 T10061039
04850KAOH AOH20161212100011912/12/16 10:00:31  5-MIN KAOH 121500Z AUTO 29017G27KT 10SM OVC022 M01/M04 A2997 930 78 -700 290/17G27 RMK AO2 T10061039
04850KAOH AOH20161212100511912/12/16 10:05:31  5-MIN KAOH 121505Z AUTO 28019G24KT 10SM OVC022 M01/M04 A2997 930 78 -700 280/19G24 RMK AO2 T10061039
04850KAOH AOH20161212101011912/12/16 10:10:31  5-MIN KAOH 121510Z AUTO 28019G24KT 10SM OVC022 M01/M04 A2998 920 78 -700 290/19G24 RMK AO2 T10061039
04850KAOH AOH20161212101511312/12/16 10:15:31  5-MIN KAOH 121515Z AUTO 27019KT 10SM OVC020 M01/M04 A2998 920 78 -700 280/19 RMK AO2 T10061039
04850KAOH AOH20161212102011312/12/16 10:20:31  5-MIN KAOH 121520Z AUTO 27017KT 10SM OVC020 M01/M04 A2999 920 78 -700 280/17 RMK AO2 T10061039
04850KAOH AOH20161212102511312/12/16 10:25:31  5-MIN KAOH 121525Z AUTO 27019KT 10SM OVC020 M01/M04 A2999 910 78 -700 280/19 RMK AO2 T10061039
04850KAOH AOH20161212103013712/12/16 10:30:31  5-MIN KAOH 121530Z AUTO 27022G26KT 10SM OVC020 M01/M04 A2999 910 78 -700 270/22G26 RMK AO2 PK WND 26026/1528 T10061039
04850KAOH AOH20161212103513112/12/16 10:35:31  5-MIN KAOH 121535Z AUTO 26020KT 10SM OVC020 M01/M04 A3000 910 78 -700 270/20 RMK AO2 PK WND 26026/1528 T10061039
04850KAOH AOH20161212104013112/12/16 10:40:31  5-MIN KAOH 121540Z AUTO 26017KT 10SM OVC020 M01/M04 A3000 900 78 -700 270/17 RMK AO2 PK WND 26026/1528 T10061039
04850KAOH AOH20161212104513712/12/16 10:45:31  5-MIN KAOH 121545Z AUTO 26019G24KT 10SM OVC021 M01/M04 A3000 900 75 -700 260/19G24 RMK AO2 PK WND 26026/1528 T10061044
04850KAOH AOH20161212105014412/12/16 10:50:31  5-MIN KAOH 121550Z AUTO 26018G24KT 10SM OVC021 M01/M04 A3000 900 78 -800 270/18G24 RMK AO2 PK WND 26026/1528 SLP170 T10111044
04850KAOH AOH20161212105511912/12/16 10:55:31  5-MIN KAOH 121555Z AUTO 26016G23KT 10SM OVC021 M01/M04 A3000 900 78 -800 270/16G23 RMK AO2 T10111044
04850KAOH AOH20161212110011312/12/16 11:00:31  5-MIN KAOH 121600Z AUTO 27016KT 10SM OVC021 M01/M04 A3000 900 78 -800 270/16 RMK AO2 T10111044
04850KAOH AOH20161212110511312/12/16 11:05:31  5-MIN KAOH 121605Z AUTO 26018KT 10SM OVC021 M01/M04 A3000 900 75 -700 270/18 RMK AO2 T10061044
04850KAOH AOH20161212111011312/12/16 11:10:31  5-MIN KAOH 121610Z AUTO 26015KT 10SM OVC022 M01/M04 A3001 900 81 -800 270/15 RMK AO2 T10111039
04850KAOH AOH20161212111511312/12/16 11:15:31  5-MIN KAOH 121615Z AUTO 26018KT 10SM OVC022 M01/M04 A3001 900 78 -800 270/18 RMK AO2 T10111044
04850KAOH AOH20161212112011312/12/16 11:20:31  5-MIN KAOH 121620Z AUTO 26019KT 10SM OVC022 M01/M04 A3001 900 78 -800 270/19 RMK AO2 T10111044
04850KAOH AOH20161212112511312/12/16 11:25:31  5-MIN KAOH 121625Z AUTO 27021KT 10SM OVC021 M01/M04 A3001 900 78 -800 270/21 RMK AO2 T10111044
04850KAOH AOH20161212113011312/12/16 11:30:31  5-MIN KAOH 121630Z AUTO 27017KT 10SM OVC021 M01/M04 A3001 900 78 -800 270/17 RMK AO2 T10111044
04850KAOH AOH20161212113511312/12/16 11:35:31  5-MIN KAOH 121635Z AUTO 26018KT 10SM OVC022 M01/M04 A3000 900 78 -800 270/18 RMK AO2 T10111044
04850KAOH AOH20161212114011912/12/16 11:40:31  5-MIN KAOH 121640Z AUTO 27017G23KT 10SM OVC022 M01/M04 A3001 900 78 -800 270/17G23 RMK AO2 T10111044
04850KAOH AOH20161212114511312/12/16 11:45:31  5-MIN KAOH 121645Z AUTO 26016KT 10SM OVC022 M01/M04 A3001 900 78 -800 270/16 RMK AO2 T10111044
04850KAOH AOH20161212115012712/12/16 11:50:31  5-MIN KAOH 121650Z AUTO 26017KT 10SM BKN022 OVC030 M01/M04 A3001 900 75 -700 270/17 RMK AO2 SLP170 T10061044
04850KAOH AOH20161212115512012/12/16 11:55:31  5-MIN KAOH 121655Z AUTO 27016KT 10SM BKN023 OVC030 M01/M04 A3001 900 75 -700 280/16 RMK AO2 T10061044
04850KAOH AOH20161212120012612/12/16 12:00:31  5-MIN KAOH 121700Z AUTO 27017G23KT 10SM BKN025 OVC031 M01/M04 A3001 900 75 -700 270/17G23 RMK AO2 T10061044
04850KAOH AOH20161212120512612/12/16 12:05:31  5-MIN KAOH 121705Z AUTO 27015G23KT 10SM BKN026 OVC031 M01/M04 A3001 900 75 -700 270/15G23 RMK AO2 T10061044
04850KAOH AOH20161212121011912/12/16 12:10:31  5-MIN KAOH 121710Z AUTO 28014G22KT 10SM OVC028 M01/M04 A3001 900 75 -700 280/14G22 RMK AO2 T10061044
04850KAOH AOH20161212121512012/12/16 12:15:31  5-MIN KAOH 121715Z AUTO 28015KT 10SM BKN026 OVC031 M01/M04 A3001 900 75 -700 280/15 RMK AO2 T10061044
04850KAOH AOH20161212122011312/12/16 12:20:31  5-MIN KAOH 121720Z AUTO 28017KT 10SM OVC026 M01/M05 A3001 900 75 -800 290/17 RMK AO2 T10111050
04850KAOH AOH20161212122511312/12/16 12:25:31  5-MIN KAOH 121725Z AUTO 27016KT 10SM OVC026 M01/M05 A3001 900 75 -800 280/16 RMK AO2 T10111050
04850KAOH AOH20161212123011312/12/16 12:30:31  5-MIN KAOH 121730Z AUTO 29017KT 10SM OVC026 M01/M05 A3001 900 75 -800 290/17 RMK AO2 T10111050
04850KAOH AOH20161212123511312/12/16 12:35:31  5-MIN KAOH 121735Z AUTO 27017KT 10SM OVC026 M01/M05 A3001 890 75 -800 270/17 RMK AO2 T10111050
04850KAOH AOH20161212124011312/12/16 12:40:31  5-MIN KAOH 121740Z AUTO 28013KT 10SM OVC025 M01/M05 A3001 890 75 -800 290/13 RMK AO2 T10111050
04850KAOH AOH20161212124511312/12/16 12:45:31  5-MIN KAOH 121745Z AUTO 28012KT 10SM OVC025 M01/M05 A3001 890 75 -800 290/12 RMK AO2 T10111050
04850KAOH AOH20161212125013812/12/16 12:50:31  5-MIN KAOH 121750Z AUTO 27017KT 10SM OVC025 M01/M05 A3001 890 75 -800 270/17 RMK AO2 SLP173 T10111050 10011 21011 53031
04850KAOH AOH20161212125511912/12/16 12:55:31  5-MIN KAOH 121755Z AUTO 28018G23KT 10SM OVC023 M01/M05 A3002 890 75 -800 280/18G23 RMK AO2 T10111050
04850KAOH AOH20161212130011912/12/16 13:00:31  5-MIN KAOH 121800Z AUTO 26017G24KT 10SM OVC023 M01/M05 A3002 880 75 -800 270/17G24 RMK AO2 T10111050
04850KAOH AOH20161212130511312/12/16 13:05:31  5-MIN KAOH 121805Z AUTO 26018KT 10SM OVC023 M01/M05 A3002 890 75 -800 260/18 RMK AO2 T10111050
04850KAOH AOH20161212131011312/12/16 13:10:31  5-MIN KAOH 121810Z AUTO 27016KT 10SM OVC023 M01/M05 A3002 890 75 -800 280/16 RMK AO2 T10111050
04850KAOH AOH20161212131511312/12/16 13:15:31  5-MIN KAOH 121815Z AUTO 28017KT 10SM OVC023 M01/M06 A3002 890 72 -800 280/17 RMK AO2 T10111056
04850KAOH AOH20161212132011912/12/16 13:20:31  5-MIN KAOH 121820Z AUTO 27014G22KT 10SM OVC023 M01/M05 A3002 880 75 -800 280/14G22 RMK AO2 T10111050
04850KAOH AOH20161212132511312/12/16 13:25:31  5-MIN KAOH 121825Z AUTO 27018KT 10SM OVC023 M01/M05 A3002 880 75 -800 280/18 RMK AO2 T10111050
04850KAOH AOH20161212133011312/12/16 13:30:31  5-MIN KAOH 121830Z AUTO 28018KT 10SM OVC023 M01/M06 A3003 880 72 -800 290/18 RMK AO2 T10111056
04850KAOH AOH20161221043511312/21/16 04:35:31  5-MIN KAOH 210935Z AUTO 21009KT 10SM CLR M04/M08 A3018 740 78 -1400 210/09 RMK AO2 T10441078 $
04850KAOH AOH20161221044011312/21/16 04:40:31  5-MIN KAOH 210940Z AUTO 21007KT 10SM CLR M04/M08 A3018 740 78 -1400 210/07 RMK AO2 T10441078 $
04850KAOH AOH20161221044511312/21/16 04:45:31  5-MIN KAOH 210945Z AUTO 21006KT 10SM CLR M04/M08 A3018 740 74 -1400 220/06 RMK AO2 T10441083 $
04850KAOH AOH20161221045011912/21/16 04:50:31  5-MIN KAOH 210950Z AUTO 21005KT 10SM CLR M04/M08 A3018 740 74 -1400 220/05 RMK AO2 SLPNO T10441083 $
04850KAOH AOH20161221045511312/21/16 04:55:31  5-MIN KAOH 210955Z AUTO 21006KT 10SM CLR M04/M08 A3018 740 74 -1400 220/06 RMK AO2 T10441083 $
04850KAOH AOH20161221050011312/21/16 05:00:31  5-MIN KAOH 211000Z AUTO 21006KT 10SM CLR M04/M08 A3018 740 74 -1400 220/06 RMK AO2 T10441083 $
04850KAOH AOH20161221050511312/21/16 05:05:31  5-MIN KAOH 211005Z AUTO 24005KT 10SM CLR M05/M08 A3018 740 77 -1500 240/05 RMK AO2 T10501083 $
04850KAOH AOH20161221051011312/21/16 05:10:31  5-MIN KAOH 211010Z AUTO 23005KT 10SM CLR M05/M08 A3018 740 77 -1500 230/05 RMK AO2 T10501083 $
04850KAOH AOH20161221051511312/21/16 05:15:31  5-MIN KAOH 211015Z AUTO 22006KT 10SM CLR M05/M08 A3018 740 77 -1500 230/06 RMK AO2 T10501083 $
04850KAOH AOH20161221052011312/21/16 05:20:31  5-MIN KAOH 211020Z AUTO 22006KT 10SM CLR M06/M08 A3018 740 81 -1500 220/06 RMK AO2 T10561083 $
04850KAOH AOH20161221052511312/21/16 05:25:31  5-MIN KAOH 211025Z AUTO 22006KT 10SM CLR M06/M08 A3018 740 81 -1500 220/06 RMK AO2 T10561083 $
04850KAOH AOH20161221053011312/21/16 05:30:31  5-MIN KAOH 211030Z AUTO 21006KT 10SM CLR M06/M08 A3018 740 81 -1500 220/06 RMK AO2 T10561083 $
04850KAOH AOH20161221053511312/21/16 05:35:31  5-MIN KAOH 211035Z AUTO 20006KT 10SM CLR M05/M08 A3018 740 77 -1500 210/06 RMK AO2 T10501083 $
04850KAOH AOH20161221054011312/21/16 05:40:31  5-MIN KAOH 211040Z AUTO 21006KT 10SM CLR M05/M08 A3017 740 77 -1500 210/06 RMK AO2 T10501083 $
04850KAOH AOH20161221054511312/21/16 05:45:31  5-MIN KAOH 211045Z AUTO 20006KT 10SM CLR M05/M08 A3017 750 77 -1500 210/06 RMK AO2 T10501083 $
04850KAOH AOH20161221055012012/21/16 05:50:31  5-MIN KAOH 211050Z AUTO 20006KT 10SM CLR M05/M08 A3017 750 77 -1400 210/06 RMK AO2 SLP228 T10501083 $
04850KAOH AOH20161221055511312/21/16 05:55:31  5-MIN KAOH 211055Z AUTO 20006KT 10SM CLR M05/M08 A3017 750 77 -1400 210/06 RMK AO2 T10501083 $
04850KAOH AOH20161221060011312/21/16 06:00:31  5-MIN KAOH 211100Z AUTO 19007KT 10SM CLR M05/M08 A3017 750 77 -1400 200/07 RMK AO2 T10501083 $
04850KAOH AOH20161221060511312/21/16 06:05:31  5-MIN KAOH 211105Z AUTO 20006KT 10SM CLR M05/M08 A3017 750 77 -1400 210/06 RMK AO2 T10501083 $
04850KAOH AOH20161221061011312/21/16 06:10:31  5-MIN KAOH 211110Z AUTO 20007KT 10SM CLR M05/M08 A3017 740 77 -1500 210/07 RMK AO2 T10501083 $
04850KAOH AOH20161221061511312/21/16 06:15:31  5-MIN KAOH 211115Z AUTO 21007KT 10SM CLR M05/M08 A3018 740 77 -1500 210/07 RMK AO2 T10501083 $
04850KAOH AOH20161221062011312/21/16 06:20:31  5-MIN KAOH 211120Z AUTO 21006KT 10SM CLR M05/M08 A3018 740 77 -1500 220/06 RMK AO2 T10501083 $
04850KAOH AOH20161221062511312/21/16 06:25:31  5-MIN KAOH 211125Z AUTO 21006KT 10SM CLR M05/M08 A3018 740 77 -1500 210/06 RMK AO2 T10501083 $
04850KAOH AOH20161221063011312/21/16 06:30:31  5-MIN KAOH 211130Z AUTO 21006KT 10SM CLR M05/M08 A3019 730 77 -1500 220/06 RMK AO2 T10501083 $
04850KAOH AOH20161221063511312/21/16 06:35:31  5-MIN KAOH 211135Z AUTO 21006KT 10SM CLR M05/M08 A3018 730 77 -1500 220/06 RMK AO2 T10501083 $
04850KAOH AOH20161221064011312/21/16 06:40:31  5-MIN KAOH 211140Z AUTO 21005KT 10SM CLR M05/M08 A3019 730 77 -1500 210/05 RMK AO2 T10501083 $
04850KAOH AOH20161221064511312/21/16 06:45:31  5-MIN KAOH 211145Z AUTO 21005KT 10SM CLR M05/M08 A3019 730 77 -1500 210/05 RMK AO2 T10501083 $
04850KAOH AOH20161221065013812/21/16 06:50:31  5-MIN KAOH 211150Z AUTO 21005KT 10SM CLR M05/M08 A3019 730 77 -1500 210/05 RMK AO2 SLP234 T10501083 11033 21056 55000 $
04850KAOH AOH20161221065511312/21/16 06:55:31  5-MIN KAOH 211155Z AUTO 20006KT 10SM CLR M05/M08 A3019 730 77 -1500 210/06 RMK AO2 T10501083 $
04850KAOH AOH20161221070011312/21/16 07:00:31  5-MIN KAOH 211200Z AUTO 21006KT 10SM CLR M05/M08 A3019 730 77 -1500 210/06 RMK AO2 T10501083 $
04850KAOH AOH20161221070511312/21/16 07:05:31  5-MIN KAOH 211205Z AUTO 20006KT 10SM CLR M05/M08 A3019 730 77 -1500 200/06 RMK AO2 T10501083 $
04850KAOH AOH20161221071011312/21/16 07:10:31  5-MIN KAOH 211210Z AUTO 19006KT 10SM CLR M05/M08 A3019 730 77 -1500 200/06 RMK AO2 T10501083 $
04850KAOH AOH20161221071511312/21/16 07:15:31  5-MIN KAOH 211215Z AUTO 19007KT 10SM CLR M05/M08 A3019 730 77 -1500 190/07 RMK AO2 T10501083 $
04850KAOH AOH20161221072011312/21/16 07:20:31  5-MIN KAOH 211220Z AUTO 18008KT 10SM CLR M05/M08 A3019 730 77 -1500 190/08 RMK AO2 T10501083 $
04850KAOH AOH20161221072511312/21/16 07:25:31  5-MIN KAOH 211225Z AUTO 17006KT 10SM CLR M06/M08 A3020 720 81 -1600 180/06 RMK AO2 T10561083 $
04850KAOH AOH20161221073011312/21/16 07:30:31  5-MIN KAOH 211230Z AUTO 18005KT 10SM CLR M06/M08 A3020 720 81 -1600 190/05 RMK AO2 T10561083 $
04850KAOH AOH20161221073511312/21/16 07:35:31  5-MIN KAOH 211235Z AUTO 18007KT 10SM CLR M06/M08 A3020 720 81 -1600 180/07 RMK AO2 T10561083 $
04850KAOH AOH20161221074011312/21/16 07:40:31  5-MIN KAOH 211240Z AUTO 18007KT 10SM CLR M06/M08 A3020 720 81 -1500 190/07 RMK AO2 T10561083 $
04850KAOH AOH20161221074511312/21/16 07:45:31  5-MIN KAOH 211245Z AUTO 18007KT 10SM CLR M06/M08 A3020 720 81 -1600 190/07 RMK AO2 T10561083 $
04850KAOH AOH20161221075012012/21/16 07:50:31  5-MIN KAOH 211250Z AUTO 18007KT 10SM CLR M06/M08 A3020 720 81 -1600 190/07 RMK AO2 SLP241 T10561083 $
04850KAOH AOH20161221075511312/21/16 07:55:31  5-MIN KAOH 211255Z AUTO 18006KT 10SM CLR M05/M08 A3021 710 81 -1500 190/06 RMK AO2 T10501078 $
04850KAOH AOH20161221080011312/21/16 08:00:31  5-MIN KAOH 211300Z AUTO 18008KT 10SM CLR M05/M08 A3021 710 81 -1500 190/08 RMK AO2 T10501078 $
04850KAOH AOH20161221080511312/21/16 08:05:31  5-MIN KAOH 211305Z AUTO 18008KT 10SM CLR M05/M08 A3021 710 81 -1500 190/08 RMK AO2 T10501078 $
04850KAOH AOH20161221081011312/21/16 08:10:31  5-MIN KAOH 211310Z AUTO 18007KT 10SM CLR M05/M08 A3021 710 81 -1500 190/07 RMK AO2 T10501078 $
04850KAOH AOH20161221081511312/21/16 08:15:31  5-MIN KAOH 211315Z AUTO 18008KT 10SM CLR M05/M08 A3021 710 81 -1500 190/08 RMK AO2 T10501078 $
04850KAOH AOH20161221082011312/21/16 08:20:31  5-MIN KAOH 211320Z AUTO 18008KT 10SM CLR M05/M08 A3021 710 81 -1500 190/08 RMK AO2 T10501078 $
04850KAOH AOH20161221082511312/21/16 08:25:31  5-MIN KAOH 211325Z AUTO 18008KT 10SM CLR M04/M08 A3021 710 78 -1400 190/08 RMK AO2 T10441078 $
04850KAOH AOH20161221083011312/21/16 08:30:31  5-MIN KAOH 211330Z AUTO 18008KT 10SM CLR M04/M08 A3021 710 78 -1400 180/08 RMK AO2 T10441078 $
04850KAOH AOH20161221083511312/21/16 08:35:31  5-MIN KAOH 211335Z AUTO 18009KT 10SM CLR M05/M08 A3020 720 81 -1500 180/09 RMK AO2 T10501078 $
04850KAOH AOH20161221084011312/21/16 08:40:31  5-MIN KAOH 211340Z AUTO 18009KT 10SM CLR M05/M08 A3021 710 81 -1500 190/09 RMK AO2 T10501078 $
04850KAOH AOH20161221084511312/21/16 08:45:31  5-MIN KAOH 211345Z AUTO 19010KT 10SM CLR M04/M07 A3021 710 81 -1400 190/10 RMK AO2 T10441072 $
04850KAOH AOH20161221085012012/21/16 08:50:31  5-MIN KAOH 211350Z AUTO 19010KT 10SM CLR M04/M07 A3021 710 81 -1400 200/10 RMK AO2 SLP244 T10441072 $
04850KAOH AOH20161221085511312/21/16 08:55:31  5-MIN KAOH 211355Z AUTO 19010KT 10SM CLR M04/M07 A3021 710 81 -1400 200/10 RMK AO2 T10441072 $
04850KAOH AOH20161221090011312/21/16 09:00:31  5-MIN KAOH 211400Z AUTO 19010KT 10SM CLR M04/M07 A3021 710 81 -1400 200/10 RMK AO2 T10441072 $
04850KAOH AOH20161221090511312/21/16 09:05:31  5-MIN KAOH 211405Z AUTO 19010KT 10SM CLR M04/M07 A3021 710 81 -1400 200/10 RMK AO2 T10391067 $
04850KAOH AOH20161221091011312/21/16 09:10:31  5-MIN KAOH 211410Z AUTO 19011KT 10SM CLR M04/M07 A3021 710 81 -1400 200/11 RMK AO2 T10391067 $
04850KAOH AOH20161221091511312/21/16 09:15:31  5-MIN KAOH 211415Z AUTO 19010KT 10SM CLR M04/M07 A3021 710 81 -1400 200/10 RMK AO2 T10391067 $
04850KAOH AOH20161221092011312/21/16 09:20:31  5-MIN KAOH 211420Z AUTO 19010KT 10SM CLR M04/M07 A3021 710 81 -1400 190/10 RMK AO2 T10391067 $
04850KAOH AOH20161221092511312/21/16 09:25:31  5-MIN KAOH 211425Z AUTO 19008KT 10SM CLR M04/M07 A3021 710 81 -1400 200/08 RMK AO2 T10391067 $
04850KAOH AOH20161221093011312/21/16 09:30:31  5-MIN KAOH 211430Z AUTO 19009KT 10SM CLR M03/M07 A3021 710 78 -1300 190/09 RMK AO2 T10331067 $
04850KAOH AOH20161221093511312/21/16 09:35:31  5-MIN KAOH 211435Z AUTO 19009KT 10SM CLR M03/M06 A3021 710 81 -1300 190/09 RMK AO2 T10331061 $
04850KAOH AOH20161221094011312/21/16 09:40:31  5-MIN KAOH 211440Z AUTO 19008KT 10SM CLR M03/M06 A3022 710 81 -1300 190/08 RMK AO2 T10331061 $
04850KAOH AOH20161221094511312/21/16 09:45:31  5-MIN KAOH 211445Z AUTO 19008KT 10SM CLR M03/M06 A3022 700 81 -1300 190/08 RMK AO2 T10331061 $
04850KAOH AOH20161221095012612/21/16 09:50:31  5-MIN KAOH 211450Z AUTO 19008KT 10SM CLR M03/M06 A3022 700 78 -1200 190/08 RMK AO2 SLP245 T10281061 55000 $
04850KAOH AOH20161221095511312/21/16 09:55:31  5-MIN KAOH 211455Z AUTO 19009KT 10SM CLR M03/M06 A3022 700 78 -1200 200/09 RMK AO2 T10281061 $
04850KAOH AOH20161221100011312/21/16 10:00:31  5-MIN KAOH 211500Z AUTO 19008KT 10SM CLR M03/M06 A3022 700 81 -1200 200/08 RMK AO2 T10281056 $
04850KAOH AOH20161221100511312/21/16 10:05:31  5-MIN KAOH 211505Z AUTO 19008KT 10SM CLR M03/M06 A3022 700 81 -1200 200/08 RMK AO2 T10281056 $
04850KAOH AOH20161221101011312/21/16 10:10:31  5-MIN KAOH 211510Z AUTO 19008KT 10SM CLR M03/M06 A3022 700 81 -1200 200/08 RMK AO2 T10281056 $
04850KAOH AOH20161221101511312/21/16 10:15:31  5-MIN KAOH 211515Z AUTO 19008KT 10SM CLR M02/M06 A3022 700 78 -1200 200/08 RMK AO2 T10221056 $
04850KAOH AOH20161221102011312/21/16 10:20:31  5-MIN KAOH 211520Z AUTO 19007KT 10SM CLR M02/M06 A3022 700 78 -1100 200/07 RMK AO2 T10221056 $
04850KAOH AOH20161221102511212/21/16 10:25:31  5-MIN KAOH 211525Z AUTO 19006KT 9SM CLR M02/M06 A3022 700 78 -1100 200/06 RMK AO2 T10221056 $
04850KAOH AOH20161221103011212/21/16 10:30:31  5-MIN KAOH 211530Z AUTO 20005KT 9SM CLR M02/M05 A3022 700 81 -1200 210/05 RMK AO2 T10221050 $
04850KAOH AOH20161221103511312/21/16 10:35:31  5-MIN KAOH 211535Z AUTO 20004KT 10SM CLR M02/M05 A3022 700 81 -1100 210/04 RMK AO2 T10221050 $
04850KAOH AOH20161221104011312/21/16 10:40:31  5-MIN KAOH 211540Z AUTO 20005KT 10SM CLR M02/M05 A3021 710 81 -1100 210/05 RMK AO2 T10221050 $
04850KAOH AOH20161221104511312/21/16 10:45:31  5-MIN KAOH 211545Z AUTO 21007KT 10SM CLR M02/M05 A3022 700 78 -1100 220/07 RMK AO2 T10171050 $
04850KAOH AOH20161221105012012/21/16 10:50:31  5-MIN KAOH 211550Z AUTO 21007KT 10SM CLR M02/M05 A3022 700 78 -1100 220/07 RMK AO2 SLP245 T10171050 $
04850KAOH AOH20161221105511312/21/16 10:55:31  5-MIN KAOH 211555Z AUTO 21005KT 10SM CLR M02/M05 A3021 710 78 -1100 220/05 RMK AO2 T10171050 $
04850KAOH AOH20161221110011312/21/16 11:00:31  5-MIN KAOH 211600Z AUTO 20005KT 10SM CLR M02/M05 A3021 710 78 -1100 210/05 RMK AO2 T10171050 $
04850KAOH AOH20161221110511312/21/16 11:05:31  5-MIN KAOH 211605Z AUTO 20006KT 10SM CLR M02/M05 A3021 710 78 -1100 210/06 RMK AO2 T10171050 $
04850KAOH AOH20161221111011312/21/16 11:10:31  5-MIN KAOH 211610Z AUTO 20006KT 10SM CLR M01/M05 A3021 710 75 -1000 210/06 RMK AO2 T10111050 $
04850KAOH AOH20161221111511312/21/16 11:15:31  5-MIN KAOH 211615Z AUTO 21006KT 10SM CLR M01/M05 A3020 720 75 -1000 210/06 RMK AO2 T10111050 $
04850KAOH AOH20161221112011312/21/16 11:20:31  5-MIN KAOH 211620Z AUTO 21006KT 10SM CLR M01/M05 A3020 720 75 -1000 220/06 RMK AO2 T10111050 $
04850KAOH AOH20161221112511312/21/16 11:25:31  5-MIN KAOH 211625Z AUTO 19005KT 10SM CLR M01/M04 A3020 720 78 -1000 200/05 RMK AO2 T10111044 $
04850KAOH AOH20161221113011312/21/16 11:30:31  5-MIN KAOH 211630Z AUTO 20006KT 10SM CLR M01/M04 A3020 720 78 -1000 200/06 RMK AO2 T10111044 $
04850KAOH AOH20161221113511312/21/16 11:35:31  5-MIN KAOH 211635Z AUTO 19005KT 10SM CLR M01/M04 A3019 730 78 -1000 200/05 RMK AO2 T10111044 $
04850KAOH AOH20161221114011312/21/16 11:40:31  5-MIN KAOH 211640Z AUTO 20007KT 10SM CLR M01/M04 A3019 730 78 -1000 200/07 RMK AO2 T10111044 $
04850KAOH AOH20161221114511312/21/16 11:45:31  5-MIN KAOH 211645Z AUTO 19007KT 10SM CLR M01/M04 A3019 730 78 -1000 200/07 RMK AO2 T10111044 $
04850KAOH AOH20161221115012012/21/16 11:50:31  5-MIN KAOH 211650Z AUTO 20006KT 10SM CLR M01/M04 A3019 730 78 -1000 200/06 RMK AO2 SLP234 T10111044 $
04850KAOH AOH20161221115511212/21/16 11:55:31  5-MIN KAOH 211655Z AUTO 20006KT 10SM CLR M01/M04 A3019 730 75 -900 200/06 RMK AO2 T10061044 $
04850KAOH AOH20161221120011212/21/16 12:00:31  5-MIN KAOH 211700Z AUTO 19005KT 10SM CLR M01/M04 A3019 730 75 -900 190/05 RMK AO2 T10061044 $
04850KAOH AOH20161221120511212/21/16 12:05:31  5-MIN KAOH 211705Z AUTO 20005KT 10SM CLR M01/M04 A3018 730 78 -900 200/05 RMK AO2 T10061039 $
04850KAOH AOH20161221121011512/21/16 12:10:31  5-MIN KAOH 211710Z AUTO 19006KT 10SM FEW120 M01/M04 A3018 740 78 -900 200/06 RMK AO2 T10061039 $
04850KAOH AOH20161221121511512/21/16 12:15:31  5-MIN KAOH 211715Z AUTO 20007KT 10SM SCT120 M01/M04 A3018 740 78 -900 200/07 RMK AO2 T10061039 $
04850KAOH AOH20161221122011512/21/16 12:20:31  5-MIN KAOH 211720Z AUTO 19007KT 10SM BKN120 M01/M04 A3018 740 78 -900 200/07 RMK AO2 T10061039 $
04850KAOH AOH20161221122511512/21/16 12:25:31  5-MIN KAOH 211725Z AUTO 19008KT 10SM BKN120 M01/M04 A3018 740 78 -900 200/08 RMK AO2 T10061039 $
04850KAOH AOH20161221123011512/21/16 12:30:31  5-MIN KAOH 211730Z AUTO 19008KT 10SM BKN120 M01/M04 A3017 740 78 -900 200/08 RMK AO2 T10061039 $
04850KAOH AOH20161221123511412/21/16 12:35:31  5-MIN KAOH 211735Z AUTO 19007KT 10SM OVC120 00/M04 A3017 740 75 -800 190/07 RMK AO2 T00001039 $
04850KAOH AOH20161221134006312/21/16 13:40:31  5-MIN KAOH 211840Z AUTO M M M M /M RMK AO2 $
04850KAOH AOH20161221134510212/21/16 13:45:31  5-MIN KAOH 211845Z AUTO 19005KT 01/M03 A3013 780 75 -700 200/05 RMK AO2 T00061033 $
04850KAOH AOH20161221135011412/21/16 13:50:31  5-MIN KAOH 211850Z AUTO 18007KT 10SM 01/M03 A3013 780 75 -700 180/07 RMK AO2 SLP214 T00061033 $
04850KAOH AOH20161221135510512/21/16 13:55:31  5-MIN KAOH 211855Z AUTO 18007KT 10SM 01/M03 A3014 780 78 -700 190/07 RMK AO2 T00061028
04850KAOH AOH20161221140010512/21/16 14:00:31  5-MIN KAOH 211900Z AUTO 18007KT 10SM 01/M03 A3013 780 75 -700 190/07 RMK AO2 T00061033
04850KAOH AOH20161221140510712/21/16 14:05:31  5-MIN KAOH 211905Z AUTO 17007KT 10SM 01/M03 A3013 790 75 -700 180/07 RMK AO2 T00061033 $
04850KAOH AOH20161221141011112/21/16 14:10:31  5-MIN KAOH 211910Z AUTO 18009KT 10SM CLR 01/M03 A3013 790 75 -700 190/09 RMK AO2 T00061033 $
04850KAOH AOH20161221141511112/21/16 14:15:31  5-MIN KAOH 211915Z AUTO 18007KT 10SM CLR 01/M03 A3012 790 75 -600 180/07 RMK AO2 T00111028 $
04850KAOH AOH20161221142011112/21/16 14:20:31  5-MIN KAOH 211920Z AUTO 18007KT 10SM CLR 01/M03 A3012 800 75 -600 180/07 RMK AO2 T00111028 $
04850KAOH AOH20161221142510912/21/16 14:25:31  5-MIN KAOH 211925Z AUTO 17008KT 10SM CLR 01/M03 A3011 800 78 -700 180/08 RMK AO2 T00061028
04850KAOH AOH20161221143010912/21/16 14:30:31  5-MIN KAOH 211930Z AUTO 17009KT 10SM CLR 01/M03 A3011 800 78 -700 180/09 RMK AO2 T00061028
04850KAOH AOH20161221143510912/21/16 14:35:31  5-MIN KAOH 211935Z AUTO 17008KT 10SM CLR 01/M02 A3011 810 78 -600 180/08 RMK AO2 T00111022
04850KAOH AOH20161221144010912/21/16 14:40:31  5-MIN KAOH 211940Z AUTO 17009KT 10SM CLR 01/M03 A3010 810 78 -700 180/09 RMK AO2 T00061028
04850KAOH AOH20161221144510912/21/16 14:45:31  5-MIN KAOH 211945Z AUTO 17009KT 10SM CLR 01/M03 A3011 810 78 -700 180/09 RMK AO2 T00061028
04850KAOH AOH20161221145011612/21/16 14:50:31  5-MIN KAOH 211950Z AUTO 17010KT 10SM CLR 01/M03 A3010 810 75 -600 180/10 RMK AO2 SLP205 T00111028
04850KAOH AOH20161221145510912/21/16 14:55:31  5-MIN KAOH 211955Z AUTO 18009KT 10SM CLR 01/M03 A3010 810 75 -600 180/09 RMK AO2 T00111028
04850KAOH AOH20161221150010912/21/16 15:00:31  5-MIN KAOH 212000Z AUTO 17009KT 10SM CLR 01/M03 A3010 810 75 -600 180/09 RMK AO2 T00111028
04850KAOH AOH20161221150510912/21/16 15:05:31  5-MIN KAOH 212005Z AUTO 17009KT 10SM CLR 01/M03 A3010 810 75 -600 180/09 RMK AO2 T00111028
04850KAOH AOH20161221151011212/21/16 15:10:31  5-MIN KAOH 212010Z AUTO 17010KT 10SM FEW120 01/M03 A3010 820 75 -600 180/10 RMK AO2 T00111028
04850KAOH AOH20161221151511212/21/16 15:15:31  5-MIN KAOH 212015Z AUTO 17009KT 10SM SCT120 01/M03 A3009 820 75 -600 180/09 RMK AO2 T00111028
04850KAOH AOH20161221152011212/21/16 15:20:31  5-MIN KAOH 212020Z AUTO 17011KT 10SM FEW120 01/M03 A3009 820 75 -600 180/11 RMK AO2 T00111028
04850KAOH AOH20161221152511212/21/16 15:25:31  5-MIN KAOH 212025Z AUTO 17012KT 10SM FEW120 01/M03 A3009 820 75 -600 180/12 RMK AO2 T00111028
04850KAOH AOH20161221153011212/21/16 15:30:31  5-MIN KAOH 212030Z AUTO 17010KT 10SM FEW120 01/M03 A3008 830 75 -600 180/10 RMK AO2 T00111028
04850KAOH AOH20161221153511212/21/16 15:35:31  5-MIN KAOH 212035Z AUTO 17010KT 10SM FEW120 01/M03 A3008 830 75 -600 170/10 RMK AO2 T00111028
04850KAOH AOH20161221154011212/21/16 15:40:31  5-MIN KAOH 212040Z AUTO 16014KT 10SM FEW120 01/M03 A3007 840 75 -600 170/14 RMK AO2 T00111028
04850KAOH AOH20161221154510912/21/16 15:45:31  5-MIN KAOH 212045Z AUTO 16012KT 10SM CLR 01/M02 A3007 840 78 -600 170/12 RMK AO2 T00111022
04850KAOH AOH20161221155012212/21/16 15:50:31  5-MIN KAOH 212050Z AUTO 16013KT 10SM CLR 01/M03 A3006 850 75 -500 170/13 RMK AO2 SLP191 6//// T00111028
04850KAOH AOH20161221155510912/21/16 15:55:31  5-MIN KAOH 212055Z AUTO 16010KT 10SM CLR 01/M02 A3006 840 78 -600 170/10 RMK AO2 T00111022
04850KAOH AOH20161221160010912/21/16 16:00:31  5-MIN KAOH 212100Z AUTO 17010KT 10SM CLR 01/M02 A3007 840 78 -600 170/10 RMK AO2 T00111022
04850KAOH AOH20161221160510912/21/16 16:05:31  5-MIN KAOH 212105Z AUTO 17011KT 10SM CLR 01/M03 A3007 840 75 -600 170/11 RMK AO2 T00111028
04850KAOH AOH20161221161010912/21/16 16:10:31  5-MIN KAOH 212110Z AUTO 17010KT 10SM CLR 01/M03 A3007 840 75 -600 180/10 RMK AO2 T00111028
04850KAOH AOH20161221161510912/21/16 16:15:31  5-MIN KAOH 212115Z AUTO 17010KT 10SM CLR 01/M03 A3007 840 75 -600 180/10 RMK AO2 T00111028
04850KAOH AOH20161221162010912/21/16 16:20:31  5-MIN KAOH 212120Z AUTO 17010KT 10SM CLR 01/M03 A3007 840 75 -600 180/10 RMK AO2 T00111028
04850KAOH AOH20161221162510912/21/16 16:25:31  5-MIN KAOH 212125Z AUTO 17010KT 10SM CLR 01/M03 A3006 840 75 -600 180/10 RMK AO2 T00111028
04850KAOH AOH20161221163010912/21/16 16:30:31  5-MIN KAOH 212130Z AUTO 17011KT 10SM CLR 01/M03 A3007 840 75 -600 180/11 RMK AO2 T00111028
04850KAOH AOH20161221163510912/21/16 16:35:31  5-MIN KAOH 212135Z AUTO 17010KT 10SM CLR 01/M03 A3006 850 75 -600 180/10 RMK AO2 T00111028
04850KAOH AOH20161221164010912/21/16 16:40:31  5-MIN KAOH 212140Z AUTO 17009KT 10SM CLR 01/M03 A3006 850 75 -500 170/09 RMK AO2 T00111028
04850KAOH AOH20161221164510912/21/16 16:45:31  5-MIN KAOH 212145Z AUTO 17010KT 10SM CLR 01/M03 A3006 850 75 -500 170/10 RMK AO2 T00111028
04850KAOH AOH20161221165011612/21/16 16:50:31  5-MIN KAOH 212150Z AUTO 16010KT 10SM CLR 01/M03 A3005 850 75 -500 170/10 RMK AO2 SLP188 T00111028
04850KAOH AOH20161221165510912/21/16 16:55:31  5-MIN KAOH 212155Z AUTO 16012KT 10SM CLR 01/M03 A3005 860 78 -600 170/12 RMK AO2 T00061028
04850KAOH AOH20161221170010912/21/16 17:00:31  5-MIN KAOH 212200Z AUTO 17011KT 10SM CLR 01/M03 A3005 860 78 -600 180/11 RMK AO2 T00061028
04850KAOH AOH20161221170510912/21/16 17:05:31  5-MIN KAOH 212205Z AUTO 17011KT 10SM CLR 01/M03 A3005 860 75 -500 180/11 RMK AO2 T00111028
04850KAOH AOH20161221171010912/21/16 17:10:31  5-MIN KAOH 212210Z AUTO 17009KT 10SM CLR 01/M03 A3005 850 78 -600 180/09 RMK AO2 T00061028
04850KAOH AOH20161221171510912/21/16 17:15:31  5-MIN KAOH 212215Z AUTO 17008KT 10SM CLR 01/M03 A3005 850 78 -600 180/08 RMK AO2 T00061028
04850KAOH AOH20161221172010912/21/16 17:20:31  5-MIN KAOH 212220Z AUTO 17008KT 10SM CLR 01/M03 A3005 860 78 -600 170/08 RMK AO2 T00061028
04850KAOH AOH20161221172511212/21/16 17:25:31  5-MIN KAOH 212225Z AUTO 16010KT 10SM FEW120 00/M03 A3004 870 81 -700 170/10 RMK AO2 T00001028
04850KAOH AOH20161221173011212/21/16 17:30:31  5-MIN KAOH 212230Z AUTO 16011KT 10SM FEW120 01/M03 A3004 870 78 -600 170/11 RMK AO2 T00061028
04850KAOH AOH20161221173511212/21/16 17:35:31  5-MIN KAOH 212235Z AUTO 16010KT 10SM FEW120 01/M03 A3004 870 78 -600 170/10 RMK AO2 T00061028
04850KAOH AOH20161221174011212/21/16 17:40:31  5-MIN KAOH 212240Z AUTO 16009KT 10SM FEW120 01/M03 A3004 870 78 -600 170/09 RMK AO2 T00061028
04850KAOH AOH20161221174511212/21/16 17:45:31  5-MIN KAOH 212245Z AUTO 17009KT 10SM FEW120 01/M03 A3004 870 78 -600 180/09 RMK AO2 T00061028
04850KAOH AOH20161221175011912/21/16 17:50:31  5-MIN KAOH 212250Z AUTO 17009KT 10SM FEW120 01/M03 A3003 870 78 -600 180/09 RMK AO2 SLP181 T00061028
04850KAOH AOH20161221175510912/21/16 17:55:31  5-MIN KAOH 212255Z AUTO 17010KT 10SM CLR 01/M03 A3003 870 78 -600 180/10 RMK AO2 T00061028
04850KAOH AOH20161221180010912/21/16 18:00:31  5-MIN KAOH 212300Z AUTO 17011KT 10SM CLR 01/M03 A3002 880 78 -600 180/11 RMK AO2 T00061028
04850KAOH AOH20161221180510912/21/16 18:05:31  5-MIN KAOH 212305Z AUTO 17012KT 10SM CLR 01/M03 A3002 880 78 -600 180/12 RMK AO2 T00061028
04850KAOH AOH20161221181010912/21/16 18:10:31  5-MIN KAOH 212310Z AUTO 17012KT 10SM CLR 01/M03 A3002 890 78 -600 180/12 RMK AO2 T00061028
04850KAOH AOH20161221181511612/21/16 18:15:31  5-MIN KAOH 212315Z AUTO 17013KT 10SM CLR 01/M03 A3001 900 78 -600 170/13 RMK AO2 PRESFR T00061028
04850KAOH AOH20161221182010912/21/16 18:20:31  5-MIN KAOH 212320Z AUTO 17011KT 10SM CLR 01/M03 A3001 890 75 -500 180/11 RMK AO2 T00111028
04850KAOH AOH20161221182510912/21/16 18:25:31  5-MIN KAOH 212325Z AUTO 17013KT 10SM CLR 01/M03 A3001 890 75 -500 180/13 RMK AO2 T00111028
04850KAOH AOH20161221183010912/21/16 18:30:31  5-MIN KAOH 212330Z AUTO 17012KT 10SM CLR 01/M03 A3001 890 75 -500 180/12 RMK AO2 T00111028
04850KAOH AOH20161221183510912/21/16 18:35:31  5-MIN KAOH 212335Z AUTO 18012KT 10SM CLR 01/M03 A3002 890 75 -500 180/12 RMK AO2 T00111028
04850KAOH AOH20161221184010912/21/16 18:40:31  5-MIN KAOH 212340Z AUTO 18011KT 10SM CLR 01/M02 A3001 890 78 -500 180/11 RMK AO2 T00111022
04850KAOH AOH20161221184511212/21/16 18:45:31  5-MIN KAOH 212345Z AUTO 18011KT 10SM FEW120 01/M03 A3001 890 75 -500 180/11 RMK AO2 T00111028
04850KAOH AOH20161221185013712/21/16 18:50:31  5-MIN KAOH 212350Z AUTO 18013KT 10SM SCT120 01/M03 A3001 890 75 -500 190/13 RMK AO2 SLP173 6//// T00111028 10011 21006
04850KAOH AOH20161221185511812/21/16 18:55:31  5-MIN KAOH 212355Z AUTO 19010G19KT 10SM SCT120 01/M03 A3001 890 75 -500 190/10G19 RMK AO2 T00111028
04850KAOH AOH20161221190011212/21/16 19:00:31  5-MIN KAOH 220000Z AUTO 19011KT 10SM BKN120 01/M03 A3002 890 75 -500 200/11 RMK AO2 T00111028
04850KAOH AOH20161221190511212/21/16 19:05:31  5-MIN KAOH 220005Z AUTO 19009KT 10SM BKN120 01/M03 A3002 880 75 -500 200/09 RMK AO2 T00111028
04850KAOH AOH20161221191011212/21/16 19:10:31  5-MIN KAOH 220010Z AUTO 20009KT 10SM OVC120 01/M03 A3002 880 75 -500 200/09 RMK AO2 T00111028
04850KAOH AOH20161221191511212/21/16 19:15:31  5-MIN KAOH 220015Z AUTO 20007KT 10SM OVC120 01/M03 A3002 880 75 -500 210/07 RMK AO2 T00111028
04850KAOH AOH20161221192011212/21/16 19:20:31  5-MIN KAOH 220020Z AUTO 20008KT 10SM BKN120 01/M03 A3002 880 75 -500 210/08 RMK AO2 T00111028
04850KAOH AOH20161221192511212/21/16 19:25:31  5-MIN KAOH 220025Z AUTO 19007KT 10SM BKN120 01/M03 A3002 880 75 -500 200/07 RMK AO2 T00111028
04850KAOH AOH20161221193011212/21/16 19:30:31  5-MIN KAOH 220030Z AUTO 19008KT 10SM BKN120 01/M03 A3002 890 75 -500 200/08 RMK AO2 T00111028
04850KAOH AOH20161221193511212/21/16 19:35:31  5-MIN KAOH 220035Z AUTO 19009KT 10SM SCT120 01/M03 A3002 890 72 -500 190/09 RMK AO2 T00111033
04850KAOH AOH20161221194011212/21/16 19:40:31  5-MIN KAOH 220040Z AUTO 18011KT 10SM FEW120 01/M03 A3001 890 72 -500 190/11 RMK AO2 T00111033
04850KAOH AOH20161221194511212/21/16 19:45:31  5-MIN KAOH 220045Z AUTO 18011KT 10SM FEW120 01/M03 A3000 900 72 -500 190/11 RMK AO2 T00111033
04850KAOH AOH20161221195011612/21/16 19:50:31  5-MIN KAOH 220050Z AUTO 19010KT 10SM CLR 01/M03 A3000 900 72 -500 190/10 RMK AO2 SLP171 T00111033
04850KAOH AOH20161221195510912/21/16 19:55:31  5-MIN KAOH 220055Z AUTO 19010KT 10SM CLR 01/M03 A3001 900 72 -500 200/10 RMK AO2 T00111033
04850KAOH AOH20161221200010912/21/16 20:00:31  5-MIN KAOH 220100Z AUTO 19010KT 10SM CLR 01/M03 A3000 900 72 -500 190/10 RMK AO2 T00111033
04850KAOH AOH20161221200510912/21/16 20:05:31  5-MIN KAOH 220105Z AUTO 19010KT 10SM CLR 01/M03 A3000 900 72 -500 200/10 RMK AO2 T00111033
04850KAOH AOH20161221201010912/21/16 20:10:31  5-MIN KAOH 220110Z AUTO 19010KT 10SM CLR 01/M03 A3000 900 72 -500 200/10 RMK AO2 T00111033
04850KAOH AOH20161221201510912/21/16 20:15:31  5-MIN KAOH 220115Z AUTO 19011KT 10SM CLR 01/M03 A3000 900 72 -500 190/11 RMK AO2 T00111033
04850KAOH AOH20161221202010912/21/16 20:20:31  5-MIN KAOH 220120Z AUTO 19010KT 10SM CLR 01/M04 A3000 900 69 -500 200/10 RMK AO2 T00111039
04850KAOH AOH20161221202510912/21/16 20:25:31  5-MIN KAOH 220125Z AUTO 19011KT 10SM CLR 01/M04 A3000 910 69 -500 200/11 RMK AO2 T00111039
04850KAOH AOH20161221203010912/21/16 20:30:31  5-MIN KAOH 220130Z AUTO 19010KT 10SM CLR 01/M04 A2999 910 69 -500 200/10 RMK AO2 T00111039
04850KAOH AOH20161221203510912/21/16 20:35:31  5-MIN KAOH 220135Z AUTO 19011KT 10SM CLR 01/M04 A2999 910 69 -500 200/11 RMK AO2 T00111039
04850KAOH AOH20161221204010912/21/16 20:40:31  5-MIN KAOH 220140Z AUTO 19011KT 10SM CLR 01/M04 A2999 920 69 -500 200/11 RMK AO2 T00111039
04850KAOH AOH20161221204510912/21/16 20:45:31  5-MIN KAOH 220145Z AUTO 19011KT 10SM CLR 01/M04 A2998 920 69 -500 200/11 RMK AO2 T00111039
04850KAOH AOH20161221205011612/21/16 20:50:31  5-MIN KAOH 220150Z AUTO 19012KT 10SM CLR 02/M04 A2998 920 66 -400 200/12 RMK AO2 SLP163 T00171039
04850KAOH AOH20161221205510912/21/16 20:55:31  5-MIN KAOH 220155Z AUTO 19012KT 10SM CLR 01/M04 A2998 930 69 -500 200/12 RMK AO2 T00111039
04850KAOH AOH20161221210010912/21/16 21:00:31  5-MIN KAOH 220200Z AUTO 19013KT 10SM CLR 02/M04 A2997 930 66 -400 200/13 RMK AO2 T00171039
04850KAOH AOH20161221210510912/21/16 21:05:31  5-MIN KAOH 220205Z AUTO 19015KT 10SM CLR 02/M04 A2996 940 66 -400 200/15 RMK AO2 T00171039
04850KAOH AOH20161221211010912/21/16 21:10:31  5-MIN KAOH 220210Z AUTO 20012KT 10SM CLR 02/M03 A2996 940 69 -400 200/12 RMK AO2 T00171033
04850KAOH AOH20161221211510912/21/16 21:15:31  5-MIN KAOH 220215Z AUTO 19013KT 10SM CLR 02/M03 A2996 940 69 -400 200/13 RMK AO2 T00171033
04850KAOH AOH20161221212010912/21/16 21:20:31  5-MIN KAOH 220220Z AUTO 20013KT 10SM CLR 02/M03 A2996 940 69 -400 200/13 RMK AO2 T00171033
04850KAOH AOH20161221212510912/21/16 21:25:31  5-MIN KAOH 220225Z AUTO 20014KT 10SM CLR 02/M03 A2996 940 69 -400 200/14 RMK AO2 T00171033
04850KAOH AOH20161221213010912/21/16 21:30:31  5-MIN KAOH 220230Z AUTO 20012KT 10SM CLR 02/M03 A2996 940 69 -400 200/12 RMK AO2 T00171033
04850KAOH AOH20161221213510912/21/16 21:35:31  5-MIN KAOH 220235Z AUTO 20013KT 10SM CLR 02/M03 A2995 950 69 -400 210/13 RMK AO2 T00171033
04850KAOH AOH20161221214010912/21/16 21:40:31  5-MIN KAOH 220240Z AUTO 19014KT 10SM CLR 02/M03 A2995 950 69 -400 200/14 RMK AO2 T00171033
04850KAOH AOH20161221214510912/21/16 21:45:31  5-MIN KAOH 220245Z AUTO 20013KT 10SM CLR 02/M03 A2995 950 69 -400 210/13 RMK AO2 T00171033
04850KAOH AOH20161221215012212/21/16 21:50:31  5-MIN KAOH 220250Z AUTO 20012KT 10SM CLR 02/M03 A2995 950 69 -400 210/12 RMK AO2 SLP153 T00171033 58017
04850KAOH AOH20161221215511512/21/16 21:55:31  5-MIN KAOH 220255Z AUTO 20013G19KT 10SM CLR 02/M03 A2995 950 69 -400 210/13G19 RMK AO2 T00171033
04850KAOH AOH20161221220010912/21/16 22:00:31  5-MIN KAOH 220300Z AUTO 21013KT 10SM CLR 02/M03 A2996 940 72 -400 220/13 RMK AO2 T00171028
04850KAOH AOH20161221220510912/21/16 22:05:31  5-MIN KAOH 220305Z AUTO 21014KT 10SM CLR 02/M03 A2996 940 72 -400 220/14 RMK AO2 T00171028
04850KAOH AOH20161221221010912/21/16 22:10:31  5-MIN KAOH 220310Z AUTO 22013KT 10SM CLR 02/M03 A2996 940 72 -400 220/13 RMK AO2 T00171028
04850KAOH AOH20161221221510912/21/16 22:15:31  5-MIN KAOH 220315Z AUTO 21013KT 10SM CLR 02/M03 A2996 940 72 -400 220/13 RMK AO2 T00171028
04850KAOH AOH20161221222010912/21/16 22:20:31  5-MIN KAOH 220320Z AUTO 22015KT 10SM CLR 02/M03 A2996 940 72 -400 220/15 RMK AO2 T00171028
04850KAOH AOH20161221222510912/21/16 22:25:31  5-MIN KAOH 220325Z AUTO 22014KT 10SM CLR 02/M03 A2996 940 72 -400 220/14 RMK AO2 T00171028
04850KAOH AOH20161221223010912/21/16 22:30:31  5-MIN KAOH 220330Z AUTO 22013KT 10SM CLR 02/M03 A2996 940 72 -400 230/13 RMK AO2 T00171028
04850KAOH AOH20161221223510912/21/16 22:35:31  5-MIN KAOH 220335Z AUTO 22013KT 10SM CLR 02/M03 A2996 940 72 -400 220/13 RMK AO2 T00171028
04850KAOH AOH20161221224010912/21/16 22:40:31  5-MIN KAOH 220340Z AUTO 22013KT 10SM CLR 02/M03 A2996 940 72 -400 230/13 RMK AO2 T00171028
04850KAOH AOH20161221224510912/21/16 22:45:31  5-MIN KAOH 220345Z AUTO 22013KT 10SM CLR 02/M03 A2996 940 72 -400 230/13 RMK AO2 T00171028
04850KAOH AOH20161221225011612/21/16 22:50:31  5-MIN KAOH 220350Z AUTO 22014KT 10SM CLR 02/M03 A2996 940 72 -400 230/14 RMK AO2 SLP156 T00171028
04850KAOH AOH20161221225510912/21/16 22:55:31  5-MIN KAOH 220355Z AUTO 22015KT 10SM CLR 02/M03 A2996 940 72 -400 230/15 RMK AO2 T00171028
04850KAOH AOH20161221230011512/21/16 23:00:31  5-MIN KAOH 220400Z AUTO 22013G21KT 10SM CLR 02/M03 A2996 940 72 -400 230/13G21 RMK AO2 T00171028
04850KAOH AOH20161221230511512/21/16 23:05:31  5-MIN KAOH 220405Z AUTO 22014G22KT 10SM CLR 02/M03 A2996 940 72 -400 230/14G22 RMK AO2 T00171028
04850KAOH AOH20161221231011512/21/16 23:10:31  5-MIN KAOH 220410Z AUTO 23013G22KT 10SM CLR 02/M02 A2996 940 75 -400 240/13G22 RMK AO2 T00171022
04850KAOH AOH20161221231510912/21/16 23:15:31  5-MIN KAOH 220415Z AUTO 23013KT 10SM CLR 02/M02 A2996 940 75 -400 230/13 RMK AO2 T00171022
04850KAOH AOH20161221232011512/21/16 23:20:31  5-MIN KAOH 220420Z AUTO 23015G22KT 10SM CLR 02/M02 A2996 940 75 -400 230/15G22 RMK AO2 T00171022
04850KAOH AOH20161221232511512/21/16 23:25:31  5-MIN KAOH 220425Z AUTO 23013G22KT 10SM CLR 02/M02 A2996 940 75 -400 230/13G22 RMK AO2 T00171022
04850KAOH AOH20161221233010912/21/16 23:30:31  5-MIN KAOH 220430Z AUTO 23015KT 10SM CLR 02/M02 A2996 940 75 -400 230/15 RMK AO2 T00171022
04850KAOH AOH20161221233510912/21/16 23:35:31  5-MIN KAOH 220435Z AUTO 23014KT 10SM CLR 02/M02 A2997 940 75 -400 230/14 RMK AO2 T00171022
04850KAOH AOH20161221234010912/21/16 23:40:31  5-MIN KAOH 220440Z AUTO 22013KT 10SM CLR 02/M02 A2996 940 75 -400 230/13 RMK AO2 T00171022
04850KAOH AOH20161221234510912/21/16 23:45:31  5-MIN KAOH 220445Z AUTO 23014KT 10SM CLR 02/M02 A2996 940 75 -400 240/14 RMK AO2 T00171022
04850KAOH AOH20161221235012612/21/16 23:50:31  5-MIN KAOH 220450Z AUTO 23012KT 10SM CLR 02/M02 A2996 940 75 -400 230/12 RMK AO2 SLP154 T00171022 400171061
04850KAOH AOH20161221235511512/21/16 23:55:31  5-MIN KAOH 220455Z AUTO 23014G20KT 10SM CLR 02/M02 A2996 940 72 -300 240/14G20 RMK AO2 T00221022
04850KAOH AOH20161222000011512/22/16 00:00:31  5-MIN KAOH 220500Z AUTO 24016G20KT 10SM CLR 02/M02 A2996 940 72 -300 240/16G20 RMK AO2 T00221022
04850KAOH AOH20161222000510912/22/16 00:05:31  5-MIN KAOH 220505Z AUTO 23015KT 10SM CLR 02/M02 A2996 940 72 -300 240/15 RMK AO2 T00221022
04850KAOH AOH20161222001010912/22/16 00:10:31  5-MIN KAOH 220510Z AUTO 23015KT 10SM CLR 02/M02 A2996 940 72 -300 240/15 RMK AO2 T00221022
04850KAOH AOH20161222001510912/22/16 00:15:31  5-MIN KAOH 220515Z AUTO 23017KT 10SM CLR 02/M02 A2996 950 72 -300 240/17 RMK AO2 T00221022
04850KAOH AOH20161222002011512/22/16 00:20:31  5-MIN KAOH 220520Z AUTO 23018G23KT 10SM CLR 02/M02 A2996 940 72 -300 240/18G23 RMK AO2 T00221022
04850KAOH AOH20161222002510912/22/16 00:25:31  5-MIN KAOH 220525Z AUTO 24016KT 10SM CLR 02/M02 A2995 950 72 -300 240/16 RMK AO2 T00221022
04850KAOH AOH20161222003010912/22/16 00:30:31  5-MIN KAOH 220530Z AUTO 23015KT 10SM CLR 02/M02 A2995 950 72 -300 240/15 RMK AO2 T00221022
04850KAOH AOH20161222003511512/22/16 00:35:31  5-MIN KAOH 220535Z AUTO 23013G22KT 10SM CLR 02/M02 A2995 950 75 -300 240/13G22 RMK AO2 T00221017
04850KAOH AOH20161222004010912/22/16 00:40:31  5-MIN KAOH 220540Z AUTO 23013KT 10SM CLR 02/M02 A2995 950 75 -300 230/13 RMK AO2 T00221017
04850KAOH AOH20161222004510912/22/16 00:45:31  5-MIN KAOH 220545Z AUTO 23012KT 10SM CLR 02/M02 A2995 950 75 -300 230/12 RMK AO2 T00221017
04850KAOH AOH20161222005013412/22/16 00:50:31  5-MIN KAOH 220550Z AUTO 23014KT 10SM CLR 02/M02 A2995 950 75 -300 230/14 RMK AO2 SLP151 T00221017 10022 20011 58019
04850KAOH AOH20161222005510912/22/16 00:55:31  5-MIN KAOH 220555Z AUTO 23014KT 10SM CLR 02/M02 A2995 950 75 -300 240/14 RMK AO2 T00221017
04850KAOH AOH20161222010010912/22/16 01:00:31  5-MIN KAOH 220600Z AUTO 23013KT 10SM CLR 02/M02 A2995 950 75 -300 240/13 RMK AO2 T00221017
04850KAOH AOH20161222010510912/22/16 01:05:31  5-MIN KAOH 220605Z AUTO 23013KT 10SM CLR 02/M02 A2995 950 75 -300 240/13 RMK AO2 T00221017
04850KAOH AOH20161222011010912/22/16 01:10:31  5-MIN KAOH 220610Z AUTO 24014KT 10SM CLR 02/M02 A2995 950 75 -300 240/14 RMK AO2 T00221017
04850KAOH AOH20161222011510912/22/16 01:15:31  5-MIN KAOH 220615Z AUTO 23014KT 10SM CLR 02/M02 A2995 950 75 -300 240/14 RMK AO2 T00221017
04850KAOH AOH20161222012010912/22/16 01:20:31  5-MIN KAOH 220620Z AUTO 23015KT 10SM CLR 02/M02 A2995 950 75 -300 240/15 RMK AO2 T00221017
04850KAOH AOH20161222012510912/22/16 01:25:31  5-MIN KAOH 220625Z AUTO 23014KT 10SM CLR 02/M02 A2995 950 75 -300 240/14 RMK AO2 T00221017
04850KAOH AOH20161222013010912/22/16 01:30:31  5-MIN KAOH 220630Z AUTO 23015KT 10SM CLR 02/M02 A2995 950 78 -300 240/15 RMK AO2 T00171017
04850KAOH AOH20161222013510912/22/16 01:35:31  5-MIN KAOH 220635Z AUTO 24016KT 10SM CLR 02/M02 A2995 950 72 -300 240/16 RMK AO2 T00221022
04850KAOH AOH20161222014010912/22/16 01:40:31  5-MIN KAOH 220640Z AUTO 24015KT 10SM CLR 02/M02 A2995 950 72 -300 240/15 RMK AO2 T00221022
04850KAOH AOH20161222014510912/22/16 01:45:31  5-MIN KAOH 220645Z AUTO 24015KT 10SM CLR 02/M02 A2995 950 75 -400 240/15 RMK AO2 T00171022
04850KAOH AOH20161222015011612/22/16 01:50:31  5-MIN KAOH 220650Z AUTO 24016KT 10SM CLR 02/M02 A2995 950 75 -400 250/16 RMK AO2 SLP151 T00171022
04850KAOH AOH20161222015510912/22/16 01:55:31  5-MIN KAOH 220655Z AUTO 25013KT 10SM CLR 02/M02 A2996 940 75 -400 260/13 RMK AO2 T00171022
04850KAOH AOH20161222020011512/22/16 02:00:31  5-MIN KAOH 220700Z AUTO 25013G21KT 10SM CLR 02/M02 A2996 940 75 -400 250/13G21 RMK AO2 T00171022
04850KAOH AOH20161222020511512/22/16 02:05:31  5-MIN KAOH 220705Z AUTO 25013G21KT 10SM CLR 01/M02 A2996 940 78 -400 250/13G21 RMK AO2 T00111022
04850KAOH AOH20161222021010912/22/16 02:10:31  5-MIN KAOH 220710Z AUTO 25014KT 10SM CLR 02/M02 A2996 940 75 -400 260/14 RMK AO2 T00171022
04850KAOH AOH20161222021510912/22/16 02:15:31  5-MIN KAOH 220715Z AUTO 25013KT 10SM CLR 01/M02 A2997 940 78 -400 260/13 RMK AO2 T00111022
04850KAOH AOH20161222022010912/22/16 02:20:31  5-MIN KAOH 220720Z AUTO 25015KT 10SM CLR 01/M02 A2997 930 78 -400 260/15 RMK AO2 T00111022
04850KAOH AOH20161222022510912/22/16 02:25:31  5-MIN KAOH 220725Z AUTO 25014KT 10SM CLR 01/M02 A2997 930 78 -400 260/14 RMK AO2 T00111022
04850KAOH AOH20161222023010912/22/16 02:30:31  5-MIN KAOH 220730Z AUTO 25013KT 10SM CLR 01/M02 A2997 930 78 -400 250/13 RMK AO2 T00111022
04850KAOH AOH20161222023510912/22/16 02:35:31  5-MIN KAOH 220735Z AUTO 24013KT 10SM CLR 01/M03 A2997 930 75 -400 250/13 RMK AO2 T00111028
04850KAOH AOH20161222024010912/22/16 02:40:31  5-MIN KAOH 220740Z AUTO 25013KT 10SM CLR 01/M03 A2997 930 75 -400 260/13 RMK AO2 T00111028
04850KAOH AOH20161222024510912/22/16 02:45:31  5-MIN KAOH 220745Z AUTO 25013KT 10SM CLR 01/M03 A2997 930 75 -400 260/13 RMK AO2 T00111028
04850KAOH AOH20161222025011612/22/16 02:50:31  5-MIN KAOH 220750Z AUTO 25013KT 10SM CLR 01/M02 A2998 930 78 -500 250/13 RMK AO2 SLP159 T00111022
04850KAOH AOH20161222025510912/22/16 02:55:31  5-MIN KAOH 220755Z AUTO 25013KT 10SM CLR 01/M02 A2998 920 78 -500 260/13 RMK AO2 T00111022
04850KAOH AOH20161222030010912/22/16 03:00:31  5-MIN KAOH 220800Z AUTO 25013KT 10SM CLR 01/M02 A2998 920 78 -500 260/13 RMK AO2 T00111022
04850KAOH AOH20161222030510912/22/16 03:05:31  5-MIN KAOH 220805Z AUTO 25013KT 10SM CLR 01/M02 A2998 920 78 -500 250/13 RMK AO2 T00111022
04850KAOH AOH20161222031010912/22/16 03:10:31  5-MIN KAOH 220810Z AUTO 25012KT 10SM CLR 01/M02 A2999 920 78 -500 260/12 RMK AO2 T00111022
04850KAOH AOH20161222031510912/22/16 03:15:31  5-MIN KAOH 220815Z AUTO 25013KT 10SM CLR 01/M02 A2998 920 78 -500 260/13 RMK AO2 T00111022
04850KAOH AOH20161222032010912/22/16 03:20:31  5-MIN KAOH 220820Z AUTO 26012KT 10SM CLR 01/M02 A2999 910 82 -500 260/12 RMK AO2 T00061022
04850KAOH AOH20161222032510912/22/16 03:25:31  5-MIN KAOH 220825Z AUTO 26013KT 10SM CLR 01/M02 A2999 910 82 -500 260/13 RMK AO2 T00061022
04850KAOH AOH20161222033010912/22/16 03:30:31  5-MIN KAOH 220830Z AUTO 26012KT 10SM CLR 01/M02 A2999 910 82 -500 260/12 RMK AO2 T00061022
04850KAOH AOH20161222033510912/22/16 03:35:31  5-MIN KAOH 220835Z AUTO 25012KT 10SM CLR 01/M02 A2999 910 82 -500 260/12 RMK AO2 T00061022
04850KAOH AOH20161222034010912/22/16 03:40:31  5-MIN KAOH 220840Z AUTO 26013KT 10SM CLR 01/M02 A3000 910 82 -500 260/13 RMK AO2 T00061022
04850KAOH AOH20161222034510912/22/16 03:45:31  5-MIN KAOH 220845Z AUTO 26013KT 10SM CLR 01/M02 A3000 900 82 -500 270/13 RMK AO2 T00061022
04850KAOH AOH20161222035012212/22/16 03:50:31  5-MIN KAOH 220850Z AUTO 26013KT 10SM CLR 01/M02 A3000 900 82 -600 270/13 RMK AO2 SLP169 T00061022 58001
04850KAOH AOH20161222035510912/22/16 03:55:31  5-MIN KAOH 220855Z AUTO 26012KT 10SM CLR 01/M02 A3000 900 82 -600 260/12 RMK AO2 T00061022
04850KAOH AOH20161222040010912/22/16 04:00:31  5-MIN KAOH 220900Z AUTO 26012KT 10SM CLR 01/M02 A3001 900 82 -600 270/12 RMK AO2 T00061022
04850KAOH AOH20161222040510912/22/16 04:05:31  5-MIN KAOH 220905Z AUTO 26011KT 10SM CLR 00/M02 A3001 900 85 -600 270/11 RMK AO2 T00001022
04850KAOH AOH20161222041010912/22/16 04:10:31  5-MIN KAOH 220910Z AUTO 26012KT 10SM CLR 00/M02 A3001 900 85 -600 270/12 RMK AO2 T00001022
04850KAOH AOH20161222041510912/22/16 04:15:31  5-MIN KAOH 220915Z AUTO 26012KT 10SM CLR 00/M02 A3001 900 85 -600 270/12 RMK AO2 T00001022
04850KAOH AOH20161222042010912/22/16 04:20:31  5-MIN KAOH 220920Z AUTO 26013KT 10SM CLR 01/M02 A3001 900 82 -600 270/13 RMK AO2 T00061022
04850KAOH AOH20161222042510912/22/16 04:25:31  5-MIN KAOH 220925Z AUTO 27014KT 10SM CLR 01/M02 A3001 890 82 -600 270/14 RMK AO2 T00061022
04850KAOH AOH20161222043010912/22/16 04:30:31  5-MIN KAOH 220930Z AUTO 27013KT 10SM CLR 01/M02 A3001 890 82 -600 270/13 RMK AO2 T00061022
04850KAOH AOH20161222043510912/22/16 04:35:31  5-MIN KAOH 220935Z AUTO 26013KT 10SM CLR 01/M02 A3001 890 82 -600 270/13 RMK AO2 T00061022
04850KAOH AOH20161222044010912/22/16 04:40:31  5-MIN KAOH 220940Z AUTO 27012KT 10SM CLR 00/M02 A3002 890 85 -600 270/12 RMK AO2 T00001022
04850KAOH AOH20161222044510912/22/16 04:45:31  5-MIN KAOH 220945Z AUTO 27016KT 10SM CLR 01/M02 A3002 880 82 -600 270/16 RMK AO2 T00061022
04850KAOH AOH20161222045011612/22/16 04:50:31  5-MIN KAOH 220950Z AUTO 27013KT 10SM CLR 01/M02 A3002 890 82 -600 270/13 RMK AO2 SLP174 T00061022
04850KAOH AOH20161222045510912/22/16 04:55:31  5-MIN KAOH 220955Z AUTO 27014KT 10SM CLR 01/M02 A3002 880 82 -600 270/14 RMK AO2 T00061022
04850KAOH AOH20161222050010912/22/16 05:00:31  5-MIN KAOH 221000Z AUTO 27013KT 10SM CLR 01/M02 A3002 880 82 -600 280/13 RMK AO2 T00061022
04850KAOH AOH20161222050510912/22/16 05:05:31  5-MIN KAOH 221005Z AUTO 27012KT 10SM CLR 00/M02 A3002 880 85 -600 280/12 RMK AO2 T00001022
04850KAOH AOH20161222051010912/22/16 05:10:31  5-MIN KAOH 221010Z AUTO 27014KT 10SM CLR 00/M02 A3003 880 85 -600 280/14 RMK AO2 T00001022
04850KAOH AOH20161222051510912/22/16 05:15:31  5-MIN KAOH 221015Z AUTO 27013KT 10SM CLR 00/M02 A3003 880 85 -600 280/13 RMK AO2 T00001022
04850KAOH AOH20161222052010912/22/16 05:20:31  5-MIN KAOH 221020Z AUTO 27013KT 10SM CLR 00/M03 A3003 880 81 -700 280/13 RMK AO2 T00001028
04850KAOH AOH20161222052510912/22/16 05:25:31  5-MIN KAOH 221025Z AUTO 28012KT 10SM CLR 00/M03 A3003 870 81 -700 280/12 RMK AO2 T00001028
04850KAOH AOH20161222053010912/22/16 05:30:31  5-MIN KAOH 221030Z AUTO 28012KT 10SM CLR 00/M03 A3003 870 81 -700 280/12 RMK AO2 T00001028
04850KAOH AOH20161222053511012/22/16 05:35:31  5-MIN KAOH 221035Z AUTO 28010KT 10SM CLR M01/M03 A3004 870 85 -700 280/10 RMK AO2 T10061028
04850KAOH AOH20161222054011012/22/16 05:40:31  5-MIN KAOH 221040Z AUTO 28011KT 10SM CLR M01/M03 A3004 870 85 -700 280/11 RMK AO2 T10061028
04850KAOH AOH20161222054510912/22/16 05:45:31  5-MIN KAOH 221045Z AUTO 28011KT 10SM CLR 00/M03 A3004 870 81 -700 290/11 RMK AO2 T00001028
04850KAOH AOH20161222055011712/22/16 05:50:31  5-MIN KAOH 221050Z AUTO 28012KT 10SM CLR M01/M03 A3004 870 85 -700 290/12 RMK AO2 SLP183 T10061028
04850KAOH AOH20161222055510912/22/16 05:55:31  5-MIN KAOH 221055Z AUTO 28012KT 10SM CLR 00/M03 A3004 860 81 -700 290/12 RMK AO2 T00001028
04850KAOH AOH20161222060010912/22/16 06:00:31  5-MIN KAOH 221100Z AUTO 28011KT 10SM CLR 00/M03 A3004 860 81 -700 290/11 RMK AO2 T00001028
04850KAOH AOH20161222060511512/22/16 06:05:31  5-MIN KAOH 221105Z AUTO 28015G20KT 10SM CLR 00/M03 A3005 860 81 -700 290/15G20 RMK AO2 T00001028
04850KAOH AOH20161222061010912/22/16 06:10:31  5-MIN KAOH 221110Z AUTO 29014KT 10SM CLR 00/M03 A3005 850 81 -700 300/14 RMK AO2 T00001028
04850KAOH AOH20161222061511312/22/16 06:15:31  5-MIN KAOH 221115Z AUTO 28015KT 10SM FEW016 M01/M03 A3005 850 85 -700 290/15 RMK AO2 T10061028
04850KAOH AOH20161222062011312/22/16 06:20:31  5-MIN KAOH 221120Z AUTO 29013KT 10SM SCT016 M01/M03 A3006 850 85 -800 290/13 RMK AO2 T10061028
04850KAOH AOH20161222062511312/22/16 06:25:31  5-MIN KAOH 221125Z AUTO 29012KT 10SM BKN018 M01/M03 A3006 850 85 -800 290/12 RMK AO2 T10061028
04850KAOH AOH20161222063011312/22/16 06:30:31  5-MIN KAOH 221130Z AUTO 29012KT 10SM BKN018 M01/M03 A3006 850 85 -800 290/12 RMK AO2 T10061028
04850KAOH AOH20161222063511312/22/16 06:35:31  5-MIN KAOH 221135Z AUTO 29013KT 10SM BKN018 M01/M03 A3006 850 85 -800 290/13 RMK AO2 T10061028
04850KAOH AOH20161222064011312/22/16 06:40:31  5-MIN KAOH 221140Z AUTO 29012KT 10SM OVC018 M01/M03 A3007 840 85 -800 300/12 RMK AO2 T10061028
04850KAOH AOH20161222064511312/22/16 06:45:31  5-MIN KAOH 221145Z AUTO 29011KT 10SM OVC018 M01/M03 A3007 840 85 -800 290/11 RMK AO2 T10061028
04850KAOH AOH20161222065014412/22/16 06:50:31  5-MIN KAOH 221150Z AUTO 29011KT 10SM OVC019 M01/M02 A3007 840 88 -800 300/11 RMK AO2 SLP192 7//// T10061022 10022 21006 53017
04850KAOH AOH20161222065511312/22/16 06:55:31  5-MIN KAOH 221155Z AUTO 29010KT 10SM OVC019 M01/M02 A3007 840 88 -800 290/10 RMK AO2 T10061022
04850KAOH AOH20161222070011312/22/16 07:00:31  5-MIN KAOH 221200Z AUTO 29011KT 10SM OVC019 M01/M02 A3008 830 88 -800 300/11 RMK AO2 T10061022
04850KAOH AOH20161222070511312/22/16 07:05:31  5-MIN KAOH 221205Z AUTO 29009KT 10SM OVC019 M01/M02 A3008 830 88 -800 290/09 RMK AO2 T10061022
04850KAOH AOH20161222071011312/22/16 07:10:31  5-MIN KAOH 221210Z AUTO 28009KT 10SM BKN019 M01/M02 A3008 830 88 -800 280/09 RMK AO2 T10061022
04850KAOH AOH20161222071511312/22/16 07:15:31  5-MIN KAOH 221215Z AUTO 28010KT 10SM BKN020 M01/M03 A3009 830 85 -800 290/10 RMK AO2 T10061028
04850KAOH AOH20161222072011312/22/16 07:20:31  5-MIN KAOH 221220Z AUTO 28011KT 10SM SCT020 M01/M03 A3009 820 85 -800 290/11 RMK AO2 T10061028
04850KAOH AOH20161222072511312/22/16 07:25:31  5-MIN KAOH 221225Z AUTO 29011KT 10SM SCT020 M01/M03 A3009 820 85 -800 290/11 RMK AO2 T10061028
04850KAOH AOH20161222073011312/22/16 07:30:31  5-MIN KAOH 221230Z AUTO 29011KT 10SM FEW022 M01/M03 A3009 820 85 -800 290/11 RMK AO2 T10061028
04850KAOH AOH20161222073511312/22/16 07:35:31  5-MIN KAOH 221235Z AUTO 29012KT 10SM FEW031 M01/M03 A3010 810 85 -800 290/12 RMK AO2 T10061028
04850KAOH AOH20161222074011312/22/16 07:40:31  5-MIN KAOH 221240Z AUTO 28012KT 10SM SCT031 M01/M03 A3010 810 85 -800 290/12 RMK AO2 T10061028
04850KAOH AOH20161222074511312/22/16 07:45:31  5-MIN KAOH 221245Z AUTO 29013KT 10SM BKN029 M01/M02 A3011 810 88 -800 290/13 RMK AO2 T10061022
04850KAOH AOH20161222075011912/22/16 07:50:31  5-MIN KAOH 221250Z AUTO 29012KT 10SM BKN029 00/M02 A3011 800 85 -700 290/12 RMK AO2 SLP206 T00001022
04850KAOH AOH20161222075511212/22/16 07:55:31  5-MIN KAOH 221255Z AUTO 29013KT 10SM BKN030 00/M02 A3011 800 85 -700 290/13 RMK AO2 T00001022
04850KAOH AOH20161222080011212/22/16 08:00:31  5-MIN KAOH 221300Z AUTO 29013KT 10SM OVC030 00/M02 A3012 800 85 -800 290/13 RMK AO2 T00001022
04850KAOH AOH20161222080511212/22/16 08:05:31  5-MIN KAOH 221305Z AUTO 29013KT 10SM OVC029 00/M02 A3012 800 85 -800 290/13 RMK AO2 T00001022
04850KAOH AOH20161222081011212/22/16 08:10:31  5-MIN KAOH 221310Z AUTO 29013KT 10SM OVC029 00/M02 A3012 790 85 -800 290/13 RMK AO2 T00001022
04850KAOH AOH20161222081511212/22/16 08:15:31  5-MIN KAOH 221315Z AUTO 29011KT 10SM OVC029 00/M02 A3012 790 85 -800 290/11 RMK AO2 T00001022
04850KAOH AOH20161222082011212/22/16 08:20:31  5-MIN KAOH 221320Z AUTO 28012KT 10SM OVC028 00/M02 A3013 790 85 -800 290/12 RMK AO2 T00001022
04850KAOH AOH20161222082511212/22/16 08:25:31  5-MIN KAOH 221325Z AUTO 29011KT 10SM OVC026 00/M02 A3013 780 85 -800 290/11 RMK AO2 T00001022
04850KAOH AOH20161222083011212/22/16 08:30:31  5-MIN KAOH 221330Z AUTO 27012KT 10SM OVC026 00/M02 A3013 780 85 -800 280/12 RMK AO2 T00001022
04850KAOH AOH20161222083511212/22/16 08:35:31  5-MIN KAOH 221335Z AUTO 28010KT 10SM OVC028 00/M02 A3014 780 88 -800 290/10 RMK AO2 T00001017
04850KAOH AOH20161222084011212/22/16 08:40:31  5-MIN KAOH 221340Z AUTO 27010KT 10SM OVC029 01/M02 A3014 780 85 -700 280/10 RMK AO2 T00061017
04850KAOH AOH20161222084511112/22/16 08:45:31  5-MIN KAOH 221345Z AUTO 27009KT 9SM OVC031 00/M02 A3014 770 88 -800 280/09 RMK AO2 T00001017
04850KAOH AOH20161222085011812/22/16 08:50:31  5-MIN KAOH 221350Z AUTO 26009KT 8SM OVC031 00/M02 A3014 770 88 -800 270/09 RMK AO2 SLP217 T00001017
04850KAOH AOH20161222085511112/22/16 08:55:31  5-MIN KAOH 221355Z AUTO 25009KT 8SM OVC031 00/M02 A3015 770 88 -800 260/09 RMK AO2 T00001017
04850KAOH AOH20161222090011112/22/16 09:00:31  5-MIN KAOH 221400Z AUTO 26010KT 8SM OVC031 00/M02 A3015 760 88 -800 260/10 RMK AO2 T00001017
04850KAOH AOH20161222090511112/22/16 09:05:31  5-MIN KAOH 221405Z AUTO 26010KT 8SM OVC031 00/M02 A3015 760 88 -800 260/10 RMK AO2 T00001017
04850KAOH AOH20161222091011112/22/16 09:10:31  5-MIN KAOH 221410Z AUTO 26010KT 9SM OVC030 00/M02 A3016 760 88 -800 270/10 RMK AO2 T00001017
04850KAOH AOH20161222091511112/22/16 09:15:31  5-MIN KAOH 221415Z AUTO 26009KT 9SM OVC030 00/M02 A3016 760 88 -800 270/09 RMK AO2 T00001017
04850KAOH AOH20161222092011112/22/16 09:20:31  5-MIN KAOH 221420Z AUTO 27009KT 9SM OVC030 00/M02 A3016 760 88 -800 270/09 RMK AO2 T00001017
04850KAOH AOH20161222092511112/22/16 09:25:31  5-MIN KAOH 221425Z AUTO 26008KT 9SM OVC029 00/M02 A3016 750 88 -800 270/08 RMK AO2 T00001017
04850KAOH AOH20161222093011112/22/16 09:30:31  5-MIN KAOH 221430Z AUTO 27007KT 9SM OVC029 00/M02 A3017 750 88 -800 270/07 RMK AO2 T00001017
04850KAOH AOH20161222093511212/22/16 09:35:31  5-MIN KAOH 221435Z AUTO 27009KT 10SM OVC029 00/M02 A3017 740 88 -800 270/09 RMK AO2 T00001017
04850KAOH AOH20161222094011212/22/16 09:40:31  5-MIN KAOH 221440Z AUTO 27008KT 10SM OVC028 01/M02 A3018 740 85 -800 270/08 RMK AO2 T00061017
04850KAOH AOH20161222094511212/22/16 09:45:31  5-MIN KAOH 221445Z AUTO 27009KT 10SM OVC028 01/M02 A3018 740 85 -800 280/09 RMK AO2 T00061017
04850KAOH AOH20161222095012512/22/16 09:50:31  5-MIN KAOH 221450Z AUTO 29012KT 10SM OVC028 01/M02 A3018 740 85 -800 290/12 RMK AO2 SLP230 T00061017 53023
04850KAOH AOH20161222095511212/22/16 09:55:31  5-MIN KAOH 221455Z AUTO 28012KT 10SM OVC028 01/M02 A3019 730 82 -700 290/12 RMK AO2 T00111017
04850KAOH AOH20161222100011212/22/16 10:00:31  5-MIN KAOH 221500Z AUTO 28012KT 10SM OVC028 01/M02 A3019 730 82 -700 290/12 RMK AO2 T00111017
04850KAOH AOH20161222100511212/22/16 10:05:31  5-MIN KAOH 221505Z AUTO 29010KT 10SM OVC029 01/M02 A3019 730 82 -700 290/10 RMK AO2 T00111017
04850KAOH AOH20161222101011212/22/16 10:10:31  5-MIN KAOH 221510Z AUTO 28011KT 10SM OVC029 01/M02 A3020 720 82 -700 290/11 RMK AO2 T00111017
04850KAOH AOH20161222101511212/22/16 10:15:31  5-MIN KAOH 221515Z AUTO 28015KT 10SM OVC030 01/M02 A3020 720 82 -700 290/15 RMK AO2 T00111017
04850KAOH AOH20161222102011212/22/16 10:20:31  5-MIN KAOH 221520Z AUTO 28012KT 10SM OVC030 01/M02 A3021 710 82 -700 290/12 RMK AO2 T00111017
04850KAOH AOH20161222102511212/22/16 10:25:31  5-MIN KAOH 221525Z AUTO 28011KT 10SM OVC031 01/M02 A3021 710 82 -700 290/11 RMK AO2 T00111017
04850KAOH AOH20161222103011212/22/16 10:30:31  5-MIN KAOH 221530Z AUTO 28010KT 10SM OVC031 01/M01 A3021 710 85 -700 290/10 RMK AO2 T00111011
04850KAOH AOH20161222103511212/22/16 10:35:31  5-MIN KAOH 221535Z AUTO 28012KT 10SM OVC031 01/M02 A3021 710 82 -700 280/12 RMK AO2 T00111017
04850KAOH AOH20161222104011212/22/16 10:40:31  5-MIN KAOH 221540Z AUTO 28011KT 10SM OVC030 01/M02 A3021 710 82 -700 280/11 RMK AO2 T00111017
04850KAOH AOH20161222104511212/22/16 10:45:31  5-MIN KAOH 221545Z AUTO 28012KT 10SM OVC030 01/M02 A3021 710 82 -700 290/12 RMK AO2 T00111017
04850KAOH AOH20161222105010212/22/16 10:50:31  5-MIN KAOH 221550Z AUTO 29012KT 10SM OVC029 01/M02 A3022 700 82 -700 300/12 RMK AO2
04850KAOH AOH20161222105511212/22/16 10:55:31  5-MIN KAOH 221555Z AUTO 29012KT 10SM OVC029 01/M02 A3022 700 82 -700 290/12 RMK AO2 T00111017
04850KAOH AOH20161222110011212/22/16 11:00:31  5-MIN KAOH 221600Z AUTO 29012KT 10SM OVC029 01/M02 A3022 700 82 -700 300/12 RMK AO2 T00111017
04850KAOH AOH20161222110511212/22/16 11:05:31  5-MIN KAOH 221605Z AUTO 29011KT 10SM OVC029 01/M02 A3022 700 82 -700 300/11 RMK AO2 T00111017
04850KAOH AOH20161222111011212/22/16 11:10:31  5-MIN KAOH 221610Z AUTO 28011KT 10SM OVC029 01/M02 A3022 700 82 -700 290/11 RMK AO2 T00111017
04850KAOH AOH20161222111511212/22/16 11:15:31  5-MIN KAOH 221615Z AUTO 28009KT 10SM OVC029 01/M02 A3022 700 82 -700 280/09 RMK AO2 T00111017
04850KAOH AOH20161222112011212/22/16 11:20:31  5-MIN KAOH 221620Z AUTO 28010KT 10SM OVC029 01/M02 A3023 690 82 -700 290/10 RMK AO2 T00111017
04850KAOH AOH20161222112511212/22/16 11:25:31  5-MIN KAOH 221625Z AUTO 27011KT 10SM OVC029 01/M02 A3023 690 82 -700 280/11 RMK AO2 T00111017
04850KAOH AOH20161222113011212/22/16 11:30:31  5-MIN KAOH 221630Z AUTO 29011KT 10SM OVC029 02/M02 A3023 690 78 -700 290/11 RMK AO2 T00171017
04850KAOH AOH20161222113511212/22/16 11:35:31  5-MIN KAOH 221635Z AUTO 28010KT 10SM OVC029 02/M02 A3023 690 78 -700 290/10 RMK AO2 T00171017
04850KAOH AOH20161222114011212/22/16 11:40:31  5-MIN KAOH 221640Z AUTO 28010KT 10SM OVC029 02/M02 A3023 690 78 -700 290/10 RMK AO2 T00171017
04850KAOH AOH20161222114511212/22/16 11:45:31  5-MIN KAOH 221645Z AUTO 28010KT 10SM OVC029 02/M02 A3023 690 78 -700 290/10 RMK AO2 T00171017
04850KAOH AOH20161222115010212/22/16 11:50:31  5-MIN KAOH 221650Z AUTO 29010KT 10SM OVC031 02/M02 A3023 690 78 -700 290/10 RMK AO2
04850KAOH AOH20161222115511212/22/16 11:55:31  5-MIN KAOH 221655Z AUTO 29010KT 10SM OVC031 02/M02 A3023 690 78 -700 300/10 RMK AO2 T00171017
04850KAOH AOH20161222120011212/22/16 12:00:31  5-MIN KAOH 221700Z AUTO 29010KT 10SM OVC031 02/M02 A3023 690 78 -700 290/10 RMK AO2 T00171017
04850KAOH AOH20161222120511212/22/16 12:05:31  5-MIN KAOH 221705Z AUTO 29012KT 10SM OVC031 02/M02 A3023 690 78 -700 300/12 RMK AO2 T00171017
04850KAOH AOH20161222121011212/22/16 12:10:31  5-MIN KAOH 221710Z AUTO 29010KT 10SM OVC031 02/M02 A3023 690 78 -700 290/10 RMK AO2 T00171017
04850KAOH AOH20161222121511212/22/16 12:15:31  5-MIN KAOH 221715Z AUTO 30010KT 10SM OVC031 02/M02 A3023 690 78 -700 300/10 RMK AO2 T00171017
04850KAOH AOH20161222122011212/22/16 12:20:31  5-MIN KAOH 221720Z AUTO 30010KT 10SM OVC031 02/M02 A3023 690 78 -700 300/10 RMK AO2 T00171017
04850KAOH AOH20161222122511212/22/16 12:25:31  5-MIN KAOH 221725Z AUTO 29008KT 10SM OVC030 02/M02 A3023 690 75 -600 300/08 RMK AO2 T00221017
04850KAOH AOH20161222123011212/22/16 12:30:31  5-MIN KAOH 221730Z AUTO 29010KT 10SM OVC030 02/M02 A3024 680 75 -600 300/10 RMK AO2 T00221017
04850KAOH AOH20161222123511212/22/16 12:35:31  5-MIN KAOH 221735Z AUTO 29009KT 10SM OVC030 02/M02 A3024 680 75 -600 300/09 RMK AO2 T00221017
04850KAOH AOH20161222124011212/22/16 12:40:31  5-MIN KAOH 221740Z AUTO 29010KT 10SM OVC030 02/M02 A3024 680 75 -600 290/10 RMK AO2 T00221017
04850KAOH AOH20161222124511212/22/16 12:45:31  5-MIN KAOH 221745Z AUTO 29010KT 10SM OVC030 02/M02 A3024 680 75 -600 300/10 RMK AO2 T00221017
04850KAOH AOH20161222125013712/22/16 12:50:31  5-MIN KAOH 221750Z AUTO 29012KT 10SM OVC030 02/M02 A3024 680 75 -600 300/12 RMK AO2 SLP250 T00221017 10022 21006 53024
04850KAOH AOH20161222125511212/22/16 12:55:31  5-MIN KAOH 221755Z AUTO 30012KT 10SM OVC030 02/M02 A3024 680 75 -600 310/12 RMK AO2 T00221017
04850KAOH AOH20161222130011212/22/16 13:00:31  5-MIN KAOH 221800Z AUTO 30011KT 10SM OVC030 02/M02 A3024 680 75 -600 300/11 RMK AO2 T00221017
04850KAOH AOH20161222130511212/22/16 13:05:31  5-MIN KAOH 221805Z AUTO 30011KT 10SM OVC030 02/M02 A3024 680 75 -600 310/11 RMK AO2 T00221017
04850KAOH AOH20161222131011212/22/16 13:10:31  5-MIN KAOH 221810Z AUTO 31011KT 10SM OVC030 02/M02 A3024 680 75 -600 310/11 RMK AO2 T00221017
04850KAOH AOH20161222131511212/22/16 13:15:31  5-MIN KAOH 221815Z AUTO 30010KT 10SM OVC030 02/M02 A3024 680 75 -600 310/10 RMK AO2 T00221017
04850KAOH AOH20161222132011212/22/16 13:20:31  5-MIN KAOH 221820Z AUTO 29011KT 10SM OVC030 02/M02 A3024 680 75 -600 300/11 RMK AO2 T00221017
04850KAOH AOH20161222132511212/22/16 13:25:31  5-MIN KAOH 221825Z AUTO 31011KT 10SM OVC029 03/M02 A3024 680 72 -600 320/11 RMK AO2 T00281017
04850KAOH AOH20161222133011212/22/16 13:30:31  5-MIN KAOH 221830Z AUTO 31010KT 10SM OVC029 03/M02 A3024 680 72 -600 310/10 RMK AO2 T00281017
04850KAOH AOH20161222133511212/22/16 13:35:31  5-MIN KAOH 221835Z AUTO 30012KT 10SM OVC029 03/M02 A3025 680 72 -600 310/12 RMK AO2 T00281017
04850KAOH AOH20161222134011212/22/16 13:40:31  5-MIN KAOH 221840Z AUTO 31012KT 10SM OVC029 03/M02 A3025 670 72 -600 320/12 RMK AO2 T00281017
04850KAOH AOH20161222134511212/22/16 13:45:31  5-MIN KAOH 221845Z AUTO 31011KT 10SM OVC029 02/M02 A3025 670 75 -600 320/11 RMK AO2 T00221017
04850KAOH AOH20161222135011912/22/16 13:50:31  5-MIN KAOH 221850Z AUTO 30009KT 10SM OVC029 03/M02 A3025 670 69 -600 310/09 RMK AO2 SLP252 T00281022
04850KAOH AOH20161222135511212/22/16 13:55:31  5-MIN KAOH 221855Z AUTO 29011KT 10SM OVC029 02/M02 A3025 670 75 -600 290/11 RMK AO2 T00221017
04850KAOH AOH20161222140011212/22/16 14:00:31  5-MIN KAOH 221900Z AUTO 30011KT 10SM OVC028 03/M02 A3025 670 72 -600 310/11 RMK AO2 T00281017
04850KAOH AOH20161222140511212/22/16 14:05:31  5-MIN KAOH 221905Z AUTO 30011KT 10SM OVC028 03/M02 A3026 670 72 -600 300/11 RMK AO2 T00281017
04850KAOH AOH20161222141011212/22/16 14:10:31  5-MIN KAOH 221910Z AUTO 31012KT 10SM OVC028 03/M02 A3026 670 72 -600 310/12 RMK AO2 T00281017
04850KAOH AOH20161222141511212/22/16 14:15:31  5-MIN KAOH 221915Z AUTO 32012KT 10SM OVC028 03/M02 A3026 660 69 -600 320/12 RMK AO2 T00281022
04850KAOH AOH20161222142011212/22/16 14:20:31  5-MIN KAOH 221920Z AUTO 31014KT 10SM OVC028 02/M02 A3026 660 72 -600 320/14 RMK AO2 T00221022
04850KAOH AOH20161222142511212/22/16 14:25:31  5-MIN KAOH 221925Z AUTO 31013KT 10SM OVC028 02/M02 A3027 660 75 -600 320/13 RMK AO2 T00221017
04850KAOH AOH20161222143011212/22/16 14:30:31  5-MIN KAOH 221930Z AUTO 30011KT 10SM OVC028 02/M02 A3027 660 72 -600 310/11 RMK AO2 T00221022
04850KAOH AOH20161222143511212/22/16 14:35:31  5-MIN KAOH 221935Z AUTO 30011KT 10SM OVC028 02/M02 A3027 660 72 -600 310/11 RMK AO2 T00221022
04850KAOH AOH20161222144011212/22/16 14:40:31  5-MIN KAOH 221940Z AUTO 29009KT 10SM OVC028 03/M02 A3027 650 69 -600 300/09 RMK AO2 T00281022
04850KAOH AOH20161222144511212/22/16 14:45:31  5-MIN KAOH 221945Z AUTO 29012KT 10SM OVC028 02/M02 A3027 650 72 -700 300/12 RMK AO2 T00221022
04850KAOH AOH20161222145011912/22/16 14:50:31  5-MIN KAOH 221950Z AUTO 31016KT 10SM OVC028 02/M02 A3027 650 72 -700 320/16 RMK AO2 SLP261 T00221022
04850KAOH AOH20161222145511212/22/16 14:55:31  5-MIN KAOH 221955Z AUTO 30011KT 10SM OVC028 02/M02 A3027 650 72 -700 310/11 RMK AO2 T00221022
04850KAOH AOH20161222150011212/22/16 15:00:31  5-MIN KAOH 222000Z AUTO 29008KT 10SM OVC028 02/M02 A3028 650 75 -700 290/08 RMK AO2 T00221017
04850KAOH AOH20161222150511212/22/16 15:05:31  5-MIN KAOH 222005Z AUTO 29010KT 10SM OVC027 02/M02 A3028 650 72 -700 300/10 RMK AO2 T00221022
04850KAOH AOH20161222151011212/22/16 15:10:31  5-MIN KAOH 222010Z AUTO 29011KT 10SM OVC027 02/M02 A3028 650 72 -700 300/11 RMK AO2 T00221022
04850KAOH AOH20161222151511212/22/16 15:15:31  5-MIN KAOH 222015Z AUTO 30013KT 10SM OVC027 02/M02 A3028 640 72 -700 310/13 RMK AO2 T00221022
04850KAOH AOH20161222152011212/22/16 15:20:31  5-MIN KAOH 222020Z AUTO 29009KT 10SM OVC028 02/M02 A3029 640 72 -700 300/09 RMK AO2 T00221022
04850KAOH AOH20161222152511212/22/16 15:25:31  5-MIN KAOH 222025Z AUTO 30008KT 10SM OVC028 02/M02 A3029 640 75 -700 300/08 RMK AO2 T00221017
04850KAOH AOH20161222153011812/22/16 15:30:31  5-MIN KAOH 222030Z AUTO 28013G18KT 10SM OVC028 02/M02 A3029 640 72 -700 290/13G18 RMK AO2 T00221022
04850KAOH AOH20161222153511812/22/16 15:35:31  5-MIN KAOH 222035Z AUTO 29013G18KT 10SM OVC028 02/M02 A3029 640 72 -700 290/13G18 RMK AO2 T00221022
04850KAOH AOH20161222154011212/22/16 15:40:31  5-MIN KAOH 222040Z AUTO 29010KT 10SM OVC028 02/M02 A3029 640 72 -700 300/10 RMK AO2 T00221022
04850KAOH AOH20161222154511212/22/16 15:45:31  5-MIN KAOH 222045Z AUTO 29009KT 10SM OVC028 02/M02 A3029 640 75 -700 300/09 RMK AO2 T00221017
04850KAOH AOH20161222155012512/22/16 15:50:31  5-MIN KAOH 222050Z AUTO 28010KT 10SM OVC028 02/M02 A3029 630 72 -700 290/10 RMK AO2 SLP267 T00221022 51020
04850KAOH AOH20161222155511212/22/16 15:55:31  5-MIN KAOH 222055Z AUTO 28010KT 10SM BKN028 02/M02 A3030 630 72 -700 290/10 RMK AO2 T00221022
04850KAOH AOH20161222160011212/22/16 16:00:31  5-MIN KAOH 222100Z AUTO 30010KT 10SM BKN028 02/M02 A3030 630 72 -700 300/10 RMK AO2 T00221022
04850KAOH AOH20161222160511212/22/16 16:05:31  5-MIN KAOH 222105Z AUTO 29007KT 10SM SCT028 02/M02 A3030 630 72 -700 300/07 RMK AO2 T00221022
04850KAOH AOH20161222161011212/22/16 16:10:31  5-MIN KAOH 222110Z AUTO 28007KT 10SM SCT028 02/M02 A3030 630 72 -700 290/07 RMK AO2 T00221022
04850KAOH AOH20161222161511212/22/16 16:15:31  5-MIN KAOH 222115Z AUTO 28008KT 10SM SCT028 02/M02 A3031 620 72 -700 290/08 RMK AO2 T00221022
04850KAOH AOH20161222162011212/22/16 16:20:31  5-MIN KAOH 222120Z AUTO 27008KT 10SM SCT028 02/M02 A3031 620 75 -700 280/08 RMK AO2 T00221017
04850KAOH AOH20161222162511212/22/16 16:25:31  5-MIN KAOH 222125Z AUTO 28010KT 10SM BKN028 02/M02 A3032 610 75 -700 290/10 RMK AO2 T00221017
04850KAOH AOH20161222163011212/22/16 16:30:31  5-MIN KAOH 222130Z AUTO 30008KT 10SM BKN028 02/M02 A3032 610 72 -700 310/08 RMK AO2 T00221022
04850KAOH AOH20161222163511212/22/16 16:35:31  5-MIN KAOH 222135Z AUTO 30010KT 10SM BKN028 02/M02 A3032 610 72 -700 300/10 RMK AO2 T00221022
04850KAOH AOH20161222164011212/22/16 16:40:31  5-MIN KAOH 222140Z AUTO 29009KT 10SM OVC028 02/M02 A3032 610 72 -700 290/09 RMK AO2 T00221022
04850KAOH AOH20161222164511212/22/16 16:45:31  5-MIN KAOH 222145Z AUTO 29010KT 10SM OVC028 02/M02 A3033 600 72 -700 290/10 RMK AO2 T00221022
04850KAOH AOH20161222165011912/22/16 16:50:31  5-MIN KAOH 222150Z AUTO 28012KT 10SM OVC028 02/M02 A3033 600 72 -700 280/12 RMK AO2 SLP279 T00221022
04850KAOH AOH20161222165511212/22/16 16:55:31  5-MIN KAOH 222155Z AUTO 29009KT 10SM BKN028 02/M02 A3033 600 72 -700 290/09 RMK AO2 T00221022
04850KAOH AOH20161222170011212/22/16 17:00:31  5-MIN KAOH 222200Z AUTO 29009KT 10SM BKN028 02/M02 A3033 600 72 -700 300/09 RMK AO2 T00221022
04850KAOH AOH20161222170511212/22/16 17:05:31  5-MIN KAOH 222205Z AUTO 28009KT 10SM BKN028 02/M02 A3033 600 75 -800 290/09 RMK AO2 T00171022
04850KAOH AOH20161222171011212/22/16 17:10:31  5-MIN KAOH 222210Z AUTO 28007KT 10SM BKN028 02/M02 A3033 600 75 -800 280/07 RMK AO2 T00171022
04850KAOH AOH20161222171511212/22/16 17:15:31  5-MIN KAOH 222215Z AUTO 27006KT 10SM BKN028 02/M02 A3033 600 78 -800 280/06 RMK AO2 T00171017
04850KAOH AOH20161222172011212/22/16 17:20:31  5-MIN KAOH 222220Z AUTO 26005KT 10SM BKN028 01/M02 A3033 600 82 -900 270/05 RMK AO2 T00111017
04850KAOH AOH20161222172511212/22/16 17:25:31  5-MIN KAOH 222225Z AUTO 27005KT 10SM BKN028 01/M02 A3033 600 82 -900 270/05 RMK AO2 T00061022
04850KAOH AOH20161222173011212/22/16 17:30:31  5-MIN KAOH 222230Z AUTO 26004KT 10SM BKN027 01/M02 A3033 600 82 -900 260/04 RMK AO2 T00061022
04850KAOH AOH20161222173511212/22/16 17:35:31  5-MIN KAOH 222235Z AUTO 24007KT 10SM BKN027 01/M03 A3033 600 78 -900 240/07 RMK AO2 T00061028
04850KAOH AOH20161222174011212/22/16 17:40:31  5-MIN KAOH 222240Z AUTO 24007KT 10SM SCT027 01/M03 A3033 600 75 -900 250/07 RMK AO2 T00111028
04850KAOH AOH20161222174511212/22/16 17:45:31  5-MIN KAOH 222245Z AUTO 24007KT 10SM SCT027 01/M03 A3034 590 75 -900 250/07 RMK AO2 T00111028
04850KAOH AOH20161222175011912/22/16 17:50:31  5-MIN KAOH 222250Z AUTO 24007KT 10SM FEW027 01/M03 A3034 600 75 -900 250/07 RMK AO2 SLP283 T00111028
04850KAOH AOH20161222175511212/22/16 17:55:31  5-MIN KAOH 222255Z AUTO 23007KT 10SM FEW027 01/M03 A3034 590 78 -900 240/07 RMK AO2 T00061028
04850KAOH AOH20161222180010912/22/16 18:00:31  5-MIN KAOH 222300Z AUTO 23006KT 10SM CLR 01/M03 A3034 590 78 -900 230/06 RMK AO2 T00061028
04850KAOH AOH20161222180510912/22/16 18:05:31  5-MIN KAOH 222305Z AUTO 23006KT 10SM CLR 01/M03 A3034 590 78 -900 230/06 RMK AO2 T00061028
04850KAOH AOH20161222181011012/22/16 18:10:31  5-MIN KAOH 222310Z AUTO 23006KT 10SM CLR 00/M03 A3034 590 81 -1000 230/06 RMK AO2 T00001028
04850KAOH AOH20161222181511012/22/16 18:15:31  5-MIN KAOH 222315Z AUTO 22006KT 10SM CLR 00/M03 A3034 590 81 -1000 220/06 RMK AO2 T00001028
04850KAOH AOH20161222182011012/22/16 18:20:31  5-MIN KAOH 222320Z AUTO 22006KT 10SM CLR 00/M03 A3034 590 81 -1000 230/06 RMK AO2 T00001028
04850KAOH AOH20161222182511012/22/16 18:25:31  5-MIN KAOH 222325Z AUTO 22006KT 10SM CLR 00/M03 A3035 590 81 -1000 230/06 RMK AO2 T00001028
04850KAOH AOH20161222183011012/22/16 18:30:31  5-MIN KAOH 222330Z AUTO 22006KT 10SM CLR 00/M03 A3035 590 81 -1000 230/06 RMK AO2 T00001028
04850KAOH AOH20161222183511012/22/16 18:35:31  5-MIN KAOH 222335Z AUTO 22007KT 10SM CLR 00/M03 A3035 590 81 -1000 220/07 RMK AO2 T00001028
04850KAOH AOH20161222184011012/22/16 18:40:31  5-MIN KAOH 222340Z AUTO 22007KT 10SM CLR 00/M03 A3035 580 81 -1000 220/07 RMK AO2 T00001028
04850KAOH AOH20161222184511012/22/16 18:45:31  5-MIN KAOH 222345Z AUTO 22007KT 10SM CLR 00/M03 A3035 580 81 -1000 220/07 RMK AO2 T00001028
04850KAOH AOH20161222185013512/22/16 18:50:31  5-MIN KAOH 222350Z AUTO 22006KT 10SM CLR 00/M03 A3035 580 81 -1000 230/06 RMK AO2 SLP288 T00001028 10028 20000 53017
04850KAOH AOH20161222185511012/22/16 18:55:31  5-MIN KAOH 222355Z AUTO 22007KT 10SM CLR 00/M03 A3035 580 78 -1000 230/07 RMK AO2 T00001033
04850KAOH AOH20161222190011012/22/16 19:00:31  5-MIN KAOH 230000Z AUTO 22007KT 10SM CLR 00/M03 A3035 580 78 -1000 230/07 RMK AO2 T00001033
04850KAOH AOH20161222190511012/22/16 19:05:31  5-MIN KAOH 230005Z AUTO 23007KT 10SM CLR 00/M03 A3035 580 81 -1000 230/07 RMK AO2 T00001028
04850KAOH AOH20161222191011112/22/16 19:10:31  5-MIN KAOH 230010Z AUTO 22006KT 10SM CLR M01/M03 A3035 580 81 -1100 230/06 RMK AO2 T10061033
04850KAOH AOH20161222191511112/22/16 19:15:31  5-MIN KAOH 230015Z AUTO 22006KT 10SM CLR M01/M03 A3035 580 81 -1100 230/06 RMK AO2 T10061033
04850KAOH AOH20161222192011012/22/16 19:20:31  5-MIN KAOH 230020Z AUTO 22005KT 10SM CLR 00/M03 A3035 580 78 -1000 230/05 RMK AO2 T00001033
04850KAOH AOH20161222192511112/22/16 19:25:31  5-MIN KAOH 230025Z AUTO 22006KT 10SM CLR M01/M03 A3036 580 81 -1100 230/06 RMK AO2 T10061033
04850KAOH AOH20161222193011112/22/16 19:30:31  5-MIN KAOH 230030Z AUTO 22006KT 10SM CLR M01/M03 A3036 580 81 -1100 220/06 RMK AO2 T10061033
04850KAOH AOH20161222193511112/22/16 19:35:31  5-MIN KAOH 230035Z AUTO 22005KT 10SM CLR M01/M03 A3036 570 81 -1100 230/05 RMK AO2 T10061033
04850KAOH AOH20161222194011112/22/16 19:40:31  5-MIN KAOH 230040Z AUTO 23005KT 10SM CLR M01/M03 A3036 570 81 -1100 230/05 RMK AO2 T10061033
04850KAOH AOH20161222194511112/22/16 19:45:31  5-MIN KAOH 230045Z AUTO 22005KT 10SM CLR M01/M03 A3036 570 85 -1200 230/05 RMK AO2 T10111033
04850KAOH AOH20161222195011812/22/16 19:50:31  5-MIN KAOH 230050Z AUTO 23005KT 10SM CLR M01/M03 A3036 570 85 -1200 230/05 RMK AO2 SLP293 T10111033
04850KAOH AOH20161222195511112/22/16 19:55:31  5-MIN KAOH 230055Z AUTO 23006KT 10SM CLR M01/M03 A3036 570 85 -1200 240/06 RMK AO2 T10111033
04850KAOH AOH20161222200011112/22/16 20:00:31  5-MIN KAOH 230100Z AUTO 23007KT 10SM CLR M01/M04 A3037 570 81 -1200 240/07 RMK AO2 T10111039
04850KAOH AOH20161222200511112/22/16 20:05:31  5-MIN KAOH 230105Z AUTO 23007KT 10SM CLR M01/M03 A3037 560 85 -1200 240/07 RMK AO2 T10111033
04850KAOH AOH20161222201011112/22/16 20:10:31  5-MIN KAOH 230110Z AUTO 23008KT 10SM CLR M01/M03 A3037 560 85 -1200 240/08 RMK AO2 T10111033
04850KAOH AOH20161222201511112/22/16 20:15:31  5-MIN KAOH 230115Z AUTO 24009KT 10SM CLR M01/M03 A3037 560 85 -1100 240/09 RMK AO2 T10061028
04850KAOH AOH20161222202011112/22/16 20:20:31  5-MIN KAOH 230120Z AUTO 24008KT 10SM CLR M01/M03 A3037 560 85 -1100 250/08 RMK AO2 T10061028
04850KAOH AOH20161222202511112/22/16 20:25:31  5-MIN KAOH 230125Z AUTO 24007KT 10SM CLR M01/M03 A3037 560 85 -1100 250/07 RMK AO2 T10061028
04850KAOH AOH20161222203011112/22/16 20:30:31  5-MIN KAOH 230130Z AUTO 23007KT 10SM CLR M01/M03 A3037 560 85 -1100 240/07 RMK AO2 T10061028
04850KAOH AOH20161222203511112/22/16 20:35:31  5-MIN KAOH 230135Z AUTO 23006KT 10SM CLR M01/M03 A3037 570 88 -1200 240/06 RMK AO2 T10111028
04850KAOH AOH20161222204011112/22/16 20:40:31  5-MIN KAOH 230140Z AUTO 22005KT 10SM CLR M01/M03 A3037 570 88 -1200 230/05 RMK AO2 T10111028
04850KAOH AOH20161222204511112/22/16 20:45:31  5-MIN KAOH 230145Z AUTO 23006KT 10SM CLR M01/M03 A3037 570 85 -1200 230/06 RMK AO2 T10111033
04850KAOH AOH20161222205011812/22/16 20:50:31  5-MIN KAOH 230150Z AUTO 23005KT 10SM CLR M01/M03 A3037 570 85 -1200 240/05 RMK AO2 SLP294 T10111033
04850KAOH AOH20161222205511112/22/16 20:55:31  5-MIN KAOH 230155Z AUTO 23005KT 10SM CLR M01/M03 A3037 570 85 -1200 230/05 RMK AO2 T10111033
04850KAOH AOH20161222210011112/22/16 21:00:31  5-MIN KAOH 230200Z AUTO 22006KT 10SM CLR M02/M03 A3037 570 88 -1200 230/06 RMK AO2 T10171033
04850KAOH AOH20161222210511112/22/16 21:05:31  5-MIN KAOH 230205Z AUTO 22006KT 10SM CLR M02/M03 A3037 570 88 -1200 220/06 RMK AO2 T10171033
04850KAOH AOH20161222211011112/22/16 21:10:31  5-MIN KAOH 230210Z AUTO 21006KT 10SM CLR M01/M03 A3037 570 85 -1200 220/06 RMK AO2 T10111033
04850KAOH AOH20161222211511112/22/16 21:15:31  5-MIN KAOH 230215Z AUTO 22006KT 10SM CLR M01/M03 A3037 570 85 -1200 220/06 RMK AO2 T10111033
04850KAOH AOH20161222212011112/22/16 21:20:31  5-MIN KAOH 230220Z AUTO 22006KT 10SM CLR M01/M03 A3037 570 85 -1200 220/06 RMK AO2 T10111033
04850KAOH AOH20161222212511112/22/16 21:25:31  5-MIN KAOH 230225Z AUTO 22006KT 10SM CLR M01/M03 A3037 570 85 -1200 220/06 RMK AO2 T10111033
04850KAOH AOH20161222213011112/22/16 21:30:31  5-MIN KAOH 230230Z AUTO 22007KT 10SM CLR M02/M03 A3037 560 88 -1300 230/07 RMK AO2 T10171033
04850KAOH AOH20161222213511112/22/16 21:35:31  5-MIN KAOH 230235Z AUTO 22007KT 10SM CLR M02/M03 A3037 560 88 -1300 230/07 RMK AO2 T10171033
04850KAOH AOH20161222214011112/22/16 21:40:31  5-MIN KAOH 230240Z AUTO 22006KT 10SM CLR M02/M03 A3038 560 88 -1300 230/06 RMK AO2 T10171033
04850KAOH AOH20161222214511112/22/16 21:45:31  5-MIN KAOH 230245Z AUTO 23006KT 10SM CLR M02/M03 A3038 560 88 -1300 230/06 RMK AO2 T10171033
04850KAOH AOH20161222215012412/22/16 21:50:31  5-MIN KAOH 230250Z AUTO 23007KT 10SM CLR M02/M03 A3038 560 88 -1300 230/07 RMK AO2 SLP299 T10171033 51018
04850KAOH AOH20161222215511112/22/16 21:55:31  5-MIN KAOH 230255Z AUTO 23007KT 10SM CLR M02/M03 A3038 560 88 -1300 230/07 RMK AO2 T10171033
04850KAOH AOH20161222220011112/22/16 22:00:31  5-MIN KAOH 230300Z AUTO 22007KT 10SM CLR M02/M03 A3038 560 88 -1300 230/07 RMK AO2 T10171033
04850KAOH AOH20161222220511112/22/16 22:05:31  5-MIN KAOH 230305Z AUTO 22007KT 10SM CLR M02/M03 A3038 560 88 -1300 230/07 RMK AO2 T10171033
04850KAOH AOH20161222221011112/22/16 22:10:31  5-MIN KAOH 230310Z AUTO 22008KT 10SM CLR M02/M03 A3038 560 88 -1300 230/08 RMK AO2 T10171033
04850KAOH AOH20161222221511112/22/16 22:15:31  5-MIN KAOH 230315Z AUTO 22007KT 10SM CLR M02/M03 A3037 560 88 -1300 230/07 RMK AO2 T10171033
04850KAOH AOH20161222222011112/22/16 22:20:31  5-MIN KAOH 230320Z AUTO 22008KT 10SM CLR M01/M03 A3038 560 85 -1200 230/08 RMK AO2 T10111033
04850KAOH AOH20161222222511112/22/16 22:25:31  5-MIN KAOH 230325Z AUTO 22009KT 10SM CLR M01/M03 A3037 560 85 -1200 220/09 RMK AO2 T10111033
04850KAOH AOH20161222223011112/22/16 22:30:31  5-MIN KAOH 230330Z AUTO 22008KT 10SM CLR M01/M03 A3037 560 85 -1200 220/08 RMK AO2 T10111033
04850KAOH AOH20161222223511112/22/16 22:35:31  5-MIN KAOH 230335Z AUTO 22008KT 10SM CLR M01/M03 A3037 560 85 -1200 220/08 RMK AO2 T10111033
04850KAOH AOH20161222224011112/22/16 22:40:31  5-MIN KAOH 230340Z AUTO 21008KT 10SM CLR M01/M03 A3037 560 85 -1200 220/08 RMK AO2 T10111033
04850KAOH AOH20161222224511112/22/16 22:45:31  5-MIN KAOH 230345Z AUTO 22008KT 10SM CLR M01/M03 A3037 560 85 -1200 220/08 RMK AO2 T10111033
04850KAOH AOH20161222225011812/22/16 22:50:31  5-MIN KAOH 230350Z AUTO 22008KT 10SM CLR M01/M03 A3037 560 85 -1200 230/08 RMK AO2 SLP296 T10111033
04850KAOH AOH20161222225511112/22/16 22:55:31  5-MIN KAOH 230355Z AUTO 22008KT 10SM CLR M01/M03 A3037 560 85 -1200 230/08 RMK AO2 T10111033
04850KAOH AOH20161222230011112/22/16 23:00:31  5-MIN KAOH 230400Z AUTO 22008KT 10SM CLR M02/M03 A3037 560 88 -1300 230/08 RMK AO2 T10171033
04850KAOH AOH20161222230511112/22/16 23:05:31  5-MIN KAOH 230405Z AUTO 23008KT 10SM CLR M02/M03 A3038 560 88 -1300 230/08 RMK AO2 T10171033
04850KAOH AOH20161222231011112/22/16 23:10:31  5-MIN KAOH 230410Z AUTO 22007KT 10SM CLR M02/M03 A3038 560 88 -1300 230/07 RMK AO2 T10171033
04850KAOH AOH20161222231511112/22/16 23:15:31  5-MIN KAOH 230415Z AUTO 23007KT 10SM CLR M02/M03 A3038 560 88 -1300 230/07 RMK AO2 T10171033
04850KAOH AOH20161222232011112/22/16 23:20:31  5-MIN KAOH 230420Z AUTO 23007KT 10SM CLR M02/M03 A3038 560 88 -1300 230/07 RMK AO2 T10171033
04850KAOH AOH20161222232511112/22/16 23:25:31  5-MIN KAOH 230425Z AUTO 23007KT 10SM CLR M02/M03 A3038 550 88 -1300 240/07 RMK AO2 T10171033
04850KAOH AOH20161222233011112/22/16 23:30:31  5-MIN KAOH 230430Z AUTO 22007KT 10SM CLR M02/M03 A3038 550 88 -1300 230/07 RMK AO2 T10171033
04850KAOH AOH20161222233511112/22/16 23:35:31  5-MIN KAOH 230435Z AUTO 22007KT 10SM CLR M02/M03 A3038 550 88 -1300 220/07 RMK AO2 T10171033
04850KAOH AOH20161222234011112/22/16 23:40:31  5-MIN KAOH 230440Z AUTO 21007KT 10SM CLR M02/M03 A3038 550 88 -1300 220/07 RMK AO2 T10171033
04850KAOH AOH20161222234511112/22/16 23:45:31  5-MIN KAOH 230445Z AUTO 21007KT 10SM CLR M02/M03 A3038 550 88 -1300 220/07 RMK AO2 T10171033
04850KAOH AOH20161222235012812/22/16 23:50:31  5-MIN KAOH 230450Z AUTO 21006KT 10SM CLR M02/M03 A3038 550 88 -1300 220/06 RMK AO2 SLP300 T10171033 400281017
04850KAOH AOH20161222235511112/22/16 23:55:31  5-MIN KAOH 230455Z AUTO 21006KT 10SM CLR M02/M03 A3038 550 88 -1300 220/06 RMK AO2 T10171033
04850KAOH AOH20161223000011012/23/16 00:00:31  5-MIN KAOH 230500Z AUTO 21007KT 9SM CLR M02/M03 A3038 550 88 -1300 220/07 RMK AO2 T10171033
04850KAOH AOH20161223000511012/23/16 00:05:31  5-MIN KAOH 230505Z AUTO 21006KT 9SM CLR M02/M03 A3038 550 88 -1300 220/06 RMK AO2 T10171033
04850KAOH AOH20161223001011012/23/16 00:10:31  5-MIN KAOH 230510Z AUTO 21007KT 9SM CLR M02/M03 A3038 550 88 -1300 220/07 RMK AO2 T10171033
04850KAOH AOH20161223001511012/23/16 00:15:31  5-MIN KAOH 230515Z AUTO 21006KT 9SM CLR M02/M03 A3038 550 88 -1300 210/06 RMK AO2 T10171033
04850KAOH AOH20161223002011012/23/16 00:20:31  5-MIN KAOH 230520Z AUTO 21006KT 9SM CLR M02/M03 A3038 550 92 -1300 220/06 RMK AO2 T10221033
04850KAOH AOH20161223002511012/23/16 00:25:31  5-MIN KAOH 230525Z AUTO 21006KT 9SM CLR M02/M03 A3038 550 92 -1300 210/06 RMK AO2 T10221033
04850KAOH AOH20161223003011012/23/16 00:30:31  5-MIN KAOH 230530Z AUTO 21005KT 9SM CLR M02/M03 A3038 550 92 -1300 220/05 RMK AO2 T10221033
04850KAOH AOH20161223003511012/23/16 00:35:31  5-MIN KAOH 230535Z AUTO 20006KT 8SM CLR M02/M03 A3038 550 92 -1300 210/06 RMK AO2 T10221033
04850KAOH AOH20161223004011012/23/16 00:40:31  5-MIN KAOH 230540Z AUTO 21006KT 8SM CLR M02/M03 A3038 560 92 -1300 210/06 RMK AO2 T10221033
04850KAOH AOH20161223004511012/23/16 00:45:31  5-MIN KAOH 230545Z AUTO 21006KT 8SM CLR M02/M03 A3038 550 92 -1300 210/06 RMK AO2 T10221033
04850KAOH AOH20161223005013512/23/16 00:50:31  5-MIN KAOH 230550Z AUTO 21007KT 8SM CLR M02/M03 A3038 550 92 -1300 220/07 RMK AO2 SLP298 T10221033 10000 21022 51010
04850KAOH AOH20161223005511012/23/16 00:55:31  5-MIN KAOH 230555Z AUTO 21006KT 8SM CLR M02/M03 A3038 560 92 -1300 220/06 RMK AO2 T10221033
04850KAOH AOH20161223010011012/23/16 01:00:31  5-MIN KAOH 230600Z AUTO 22006KT 8SM CLR M02/M03 A3038 560 92 -1300 230/06 RMK AO2 T10221033
04850KAOH AOH20161223010511012/23/16 01:05:31  5-MIN KAOH 230605Z AUTO 22007KT 8SM CLR M02/M03 A3038 550 92 -1300 220/07 RMK AO2 T10221033
04850KAOH AOH20161223011011012/23/16 01:10:31  5-MIN KAOH 230610Z AUTO 22007KT 8SM CLR M02/M03 A3038 560 92 -1300 220/07 RMK AO2 T10221033
04850KAOH AOH20161223011511012/23/16 01:15:31  5-MIN KAOH 230615Z AUTO 22006KT 8SM CLR M02/M03 A3038 560 92 -1300 220/06 RMK AO2 T10221033
04850KAOH AOH20161223012011012/23/16 01:20:31  5-MIN KAOH 230620Z AUTO 22006KT 8SM CLR M02/M03 A3038 550 92 -1300 230/06 RMK AO2 T10221033
04850KAOH AOH20161223012511012/23/16 01:25:31  5-MIN KAOH 230625Z AUTO 22006KT 8SM CLR M03/M03 A3038 550 96 -1400 220/06 RMK AO2 T10281033
04850KAOH AOH20161223013011012/23/16 01:30:31  5-MIN KAOH 230630Z AUTO 21006KT 7SM CLR M03/M03 A3038 560 96 -1400 220/06 RMK AO2 T10281033
04850KAOH AOH20161223013511012/23/16 01:35:31  5-MIN KAOH 230635Z AUTO 21005KT 7SM CLR M03/M03 A3038 560 96 -1400 210/05 RMK AO2 T10281033
04850KAOH AOH20161223014011012/23/16 01:40:31  5-MIN KAOH 230640Z AUTO 21005KT 7SM CLR M03/M03 A3038 560 96 -1400 210/05 RMK AO2 T10281033
04850KAOH AOH20161223014511012/23/16 01:45:31  5-MIN KAOH 230645Z AUTO 20004KT 7SM CLR M03/M03 A3038 550 96 -1400 210/04 RMK AO2 T10281033
04850KAOH AOH20161223015011712/23/16 01:50:31  5-MIN KAOH 230650Z AUTO 21003KT 7SM CLR M03/M03 A3038 550 96 -1400 220/03 RMK AO2 SLP299 T10281033
04850KAOH AOH20161223015511012/23/16 01:55:31  5-MIN KAOH 230655Z AUTO 21004KT 7SM CLR M02/M03 A3038 550 92 -1300 220/04 RMK AO2 T10221033
04850KAOH AOH20161223020011012/23/16 02:00:31  5-MIN KAOH 230700Z AUTO 20004KT 7SM CLR M02/M03 A3038 550 92 -1300 200/04 RMK AO2 T10221033
04850KAOH AOH20161223020511012/23/16 02:05:31  5-MIN KAOH 230705Z AUTO 20004KT 7SM CLR M03/M03 A3038 550 96 -1400 210/04 RMK AO2 T10281033
04850KAOH AOH20161223021011012/23/16 02:10:31  5-MIN KAOH 230710Z AUTO 20004KT 7SM CLR M02/M03 A3038 550 92 -1300 210/04 RMK AO2 T10221033
04850KAOH AOH20161223021511012/23/16 02:15:31  5-MIN KAOH 230715Z AUTO 20005KT 7SM CLR M03/M03 A3038 550 96 -1400 200/05 RMK AO2 T10281033
04850KAOH AOH20161223022011012/23/16 02:20:31  5-MIN KAOH 230720Z AUTO 20005KT 7SM CLR M03/M03 A3038 550 96 -1400 210/05 RMK AO2 T10281033
04850KAOH AOH20161223022511012/23/16 02:25:31  5-MIN KAOH 230725Z AUTO 20005KT 7SM CLR M03/M03 A3038 550 96 -1400 200/05 RMK AO2 T10281033
04850KAOH AOH20161223023011012/23/16 02:30:31  5-MIN KAOH 230730Z AUTO 20006KT 7SM CLR M03/M03 A3038 550 96 -1400 200/06 RMK AO2 T10281033
04850KAOH AOH20161223023511012/23/16 02:35:31  5-MIN KAOH 230735Z AUTO 19007KT 7SM CLR M02/M03 A3039 550 92 -1300 200/07 RMK AO2 T10221033
04850KAOH AOH20161223024011012/23/16 02:40:31  5-MIN KAOH 230740Z AUTO 19007KT 7SM CLR M03/M03 A3039 550 96 -1400 190/07 RMK AO2 T10281033
04850KAOH AOH20161223024511012/23/16 02:45:31  5-MIN KAOH 230745Z AUTO 19008KT 7SM CLR M03/M03 A3039 550 96 -1400 190/08 RMK AO2 T10281033
04850KAOH AOH20161223025011712/23/16 02:50:31  5-MIN KAOH 230750Z AUTO 19007KT 7SM CLR M03/M03 A3039 550 96 -1400 200/07 RMK AO2 SLP301 T10281033
04850KAOH AOH20161223025511012/23/16 02:55:31  5-MIN KAOH 230755Z AUTO 19007KT 7SM CLR M02/M03 A3039 550 92 -1300 200/07 RMK AO2 T10221033
04850KAOH AOH20161223030011012/23/16 03:00:31  5-MIN KAOH 230800Z AUTO 19007KT 7SM CLR M02/M03 A3039 550 92 -1300 200/07 RMK AO2 T10221033
04850KAOH AOH20161223030511012/23/16 03:05:31  5-MIN KAOH 230805Z AUTO 19007KT 7SM CLR M03/M03 A3039 550 96 -1400 200/07 RMK AO2 T10281033
04850KAOH AOH20161223031011012/23/16 03:10:31  5-MIN KAOH 230810Z AUTO 19006KT 7SM CLR M03/M03 A3039 550 96 -1400 190/06 RMK AO2 T10281033
04850KAOH AOH20161223031511312/23/16 03:15:31  5-MIN KAOH 230815Z AUTO 19006KT 6SM BR CLR M03/M04 A3039 550 92 -1400 190/06 RMK AO2 T10281039
04850KAOH AOH20161223032011312/23/16 03:20:31  5-MIN KAOH 230820Z AUTO 19007KT 6SM BR CLR M03/M03 A3039 550 96 -1400 190/07 RMK AO2 T10281033
04850KAOH AOH20161223032511012/23/16 03:25:31  5-MIN KAOH 230825Z AUTO 19008KT 7SM CLR M03/M03 A3039 550 96 -1400 190/08 RMK AO2 T10281033
04850KAOH AOH20161223033011012/23/16 03:30:31  5-MIN KAOH 230830Z AUTO 19008KT 7SM CLR M03/M03 A3039 550 96 -1400 190/08 RMK AO2 T10281033
04850KAOH AOH20161223033511012/23/16 03:35:31  5-MIN KAOH 230835Z AUTO 19007KT 7SM CLR M03/M03 A3039 550 96 -1400 190/07 RMK AO2 T10281033
04850KAOH AOH20161223034011312/23/16 03:40:31  5-MIN KAOH 230840Z AUTO 18008KT 6SM BR CLR M03/M03 A3038 550 96 -1400 190/08 RMK AO2 T10281033
04850KAOH AOH20161223034511312/23/16 03:45:31  5-MIN KAOH 230845Z AUTO 18008KT 6SM BR CLR M03/M04 A3038 550 92 -1400 190/08 RMK AO2 T10281039
04850KAOH AOH20161223035012612/23/16 03:50:31  5-MIN KAOH 230850Z AUTO 18008KT 6SM BR CLR M03/M03 A3038 550 96 -1400 190/08 RMK AO2 SLP298 T10281033 56000
04850KAOH AOH20161223035511312/23/16 03:55:31  5-MIN KAOH 230855Z AUTO 18007KT 6SM BR CLR M03/M03 A3038 550 96 -1400 190/07 RMK AO2 T10281033
04850KAOH AOH20161223040011312/23/16 04:00:31  5-MIN KAOH 230900Z AUTO 18007KT 6SM BR CLR M03/M03 A3038 550 96 -1400 190/07 RMK AO2 T10281033
04850KAOH AOH20161223040511312/23/16 04:05:31  5-MIN KAOH 230905Z AUTO 18008KT 6SM BR CLR M03/M03 A3038 550 96 -1400 190/08 RMK AO2 T10281033
04850KAOH AOH20161223041011312/23/16 04:10:31  5-MIN KAOH 230910Z AUTO 18007KT 6SM BR CLR M02/M03 A3038 550 92 -1300 190/07 RMK AO2 T10221033
04850KAOH AOH20161223041511312/23/16 04:15:31  5-MIN KAOH 230915Z AUTO 18006KT 6SM BR CLR M03/M03 A3038 550 96 -1400 180/06 RMK AO2 T10281033
04850KAOH AOH20161223042011312/23/16 04:20:31  5-MIN KAOH 230920Z AUTO 18007KT 6SM BR CLR M03/M03 A3038 560 96 -1400 180/07 RMK AO2 T10281033
04850KAOH AOH20161223042511312/23/16 04:25:31  5-MIN KAOH 230925Z AUTO 18008KT 6SM BR CLR M03/M03 A3038 560 96 -1400 180/08 RMK AO2 T10281033
04850KAOH AOH20161223043011312/23/16 04:30:31  5-MIN KAOH 230930Z AUTO 18008KT 6SM BR CLR M03/M03 A3037 560 96 -1400 190/08 RMK AO2 T10281033
04850KAOH AOH20161223043511312/23/16 04:35:31  5-MIN KAOH 230935Z AUTO 18008KT 6SM BR CLR M02/M03 A3037 560 92 -1300 180/08 RMK AO2 T10221033
04850KAOH AOH20161223044011312/23/16 04:40:31  5-MIN KAOH 230940Z AUTO 18008KT 6SM BR CLR M02/M03 A3037 570 92 -1300 180/08 RMK AO2 T10221033
04850KAOH AOH20161223044511312/23/16 04:45:31  5-MIN KAOH 230945Z AUTO 18008KT 6SM BR CLR M02/M03 A3037 560 92 -1300 190/08 RMK AO2 T10221033
04850KAOH AOH20161223045012012/23/16 04:50:31  5-MIN KAOH 230950Z AUTO 18008KT 6SM BR CLR M02/M03 A3037 570 92 -1300 180/08 RMK AO2 SLP294 T10221033
04850KAOH AOH20161223045511312/23/16 04:55:31  5-MIN KAOH 230955Z AUTO 18007KT 6SM BR CLR M03/M03 A3037 560 96 -1400 180/07 RMK AO2 T10281033
04850KAOH AOH20161223050011312/23/16 05:00:31  5-MIN KAOH 231000Z AUTO 18007KT 6SM BR CLR M03/M03 A3037 560 96 -1400 180/07 RMK AO2 T10281033
04850KAOH AOH20161223050511312/23/16 05:05:31  5-MIN KAOH 231005Z AUTO 18007KT 6SM BR CLR M03/M03 A3037 560 96 -1400 180/07 RMK AO2 T10281033
04850KAOH AOH20161223051011312/23/16 05:10:31  5-MIN KAOH 231010Z AUTO 18007KT 6SM BR CLR M03/M03 A3037 560 96 -1400 180/07 RMK AO2 T10281033
04850KAOH AOH20161223051511312/23/16 05:15:31  5-MIN KAOH 231015Z AUTO 18007KT 5SM BR CLR M03/M04 A3037 570 92 -1400 190/07 RMK AO2 T10281039
04850KAOH AOH20161223052011312/23/16 05:20:31  5-MIN KAOH 231020Z AUTO 18007KT 5SM BR CLR M03/M04 A3037 570 92 -1400 190/07 RMK AO2 T10281039
04850KAOH AOH20161223052511312/23/16 05:25:31  5-MIN KAOH 231025Z AUTO 18007KT 5SM BR CLR M03/M03 A3037 560 96 -1400 190/07 RMK AO2 T10281033
04850KAOH AOH20161223053011312/23/16 05:30:31  5-MIN KAOH 231030Z AUTO 18007KT 6SM BR CLR M03/M03 A3037 560 96 -1400 190/07 RMK AO2 T10281033
04850KAOH AOH20161223053511312/23/16 05:35:31  5-MIN KAOH 231035Z AUTO 19007KT 6SM BR CLR M02/M03 A3038 560 92 -1300 190/07 RMK AO2 T10221033
04850KAOH AOH20161223054011312/23/16 05:40:31  5-MIN KAOH 231040Z AUTO 19008KT 6SM BR CLR M02/M03 A3038 560 92 -1300 190/08 RMK AO2 T10221033
04850KAOH AOH20161223054511312/23/16 05:45:31  5-MIN KAOH 231045Z AUTO 19008KT 6SM BR CLR M02/M03 A3038 550 92 -1300 200/08 RMK AO2 T10221033
04850KAOH AOH20161223055012012/23/16 05:50:31  5-MIN KAOH 231050Z AUTO 19007KT 6SM BR CLR M02/M03 A3038 550 92 -1300 200/07 RMK AO2 SLP298 T10171028
04850KAOH AOH20161223055511312/23/16 05:55:31  5-MIN KAOH 231055Z AUTO 19008KT 6SM BR CLR M02/M03 A3038 550 92 -1300 190/08 RMK AO2 T10171028
04850KAOH AOH20161223060011312/23/16 06:00:31  5-MIN KAOH 231100Z AUTO 19007KT 6SM BR CLR M02/M03 A3038 550 92 -1300 190/07 RMK AO2 T10171028
04850KAOH AOH20161223060511312/23/16 06:05:31  5-MIN KAOH 231105Z AUTO 18007KT 6SM BR CLR M02/M03 A3038 550 92 -1300 190/07 RMK AO2 T10171028
04850KAOH AOH20161223061011312/23/16 06:10:31  5-MIN KAOH 231110Z AUTO 18008KT 6SM BR CLR M02/M03 A3037 560 92 -1300 190/08 RMK AO2 T10171028
04850KAOH AOH20161223061511312/23/16 06:15:31  5-MIN KAOH 231115Z AUTO 18007KT 6SM BR CLR M02/M03 A3037 560 92 -1300 180/07 RMK AO2 T10171028
04850KAOH AOH20161223062011312/23/16 06:20:31  5-MIN KAOH 231120Z AUTO 17008KT 6SM BR CLR M02/M03 A3037 560 96 -1300 180/08 RMK AO2 T10221028
04850KAOH AOH20161223062511312/23/16 06:25:31  5-MIN KAOH 231125Z AUTO 17008KT 6SM BR CLR M02/M03 A3037 560 92 -1300 180/08 RMK AO2 T10171028
04850KAOH AOH20161223063011312/23/16 06:30:31  5-MIN KAOH 231130Z AUTO 18008KT 6SM BR CLR M02/M03 A3037 560 92 -1300 190/08 RMK AO2 T10171028
04850KAOH AOH20161223063511312/23/16 06:35:31  5-MIN KAOH 231135Z AUTO 18007KT 6SM BR CLR M02/M03 A3038 560 92 -1300 180/07 RMK AO2 T10171028
04850KAOH AOH20161223064011312/23/16 06:40:31  5-MIN KAOH 231140Z AUTO 18007KT 6SM BR CLR M02/M03 A3038 560 92 -1300 180/07 RMK AO2 T10171028
04850KAOH AOH20161223064511312/23/16 06:45:31  5-MIN KAOH 231145Z AUTO 17006KT 6SM BR CLR M02/M03 A3038 560 92 -1300 180/06 RMK AO2 T10171028
04850KAOH AOH20161223065013812/23/16 06:50:31  5-MIN KAOH 231150Z AUTO 17007KT 6SM BR CLR M02/M03 A3037 560 92 -1300 180/07 RMK AO2 SLP297 T10171028 11017 21028 50001
04850KAOH AOH20161223065511312/23/16 06:55:31  5-MIN KAOH 231155Z AUTO 18006KT 6SM BR CLR M02/M03 A3038 550 92 -1300 190/06 RMK AO2 T10171028
04850KAOH AOH20161223070011312/23/16 07:00:31  5-MIN KAOH 231200Z AUTO 19007KT 6SM BR CLR M02/M03 A3038 550 92 -1300 190/07 RMK AO2 T10171028
04850KAOH AOH20161223070511312/23/16 07:05:31  5-MIN KAOH 231205Z AUTO 19008KT 6SM BR CLR M02/M03 A3038 550 92 -1300 200/08 RMK AO2 T10171028
04850KAOH AOH20161223071011012/23/16 07:10:31  5-MIN KAOH 231210Z AUTO 19007KT 7SM CLR M01/M03 A3038 560 88 -1200 190/07 RMK AO2 T10111028
04850KAOH AOH20161223071511012/23/16 07:15:31  5-MIN KAOH 231215Z AUTO 19007KT 7SM CLR M01/M03 A3038 560 88 -1200 200/07 RMK AO2 T10111028
04850KAOH AOH20161223072011012/23/16 07:20:31  5-MIN KAOH 231220Z AUTO 19007KT 7SM CLR M01/M03 A3038 560 88 -1200 200/07 RMK AO2 T10111028
04850KAOH AOH20161223072511012/23/16 07:25:31  5-MIN KAOH 231225Z AUTO 19007KT 7SM CLR M01/M03 A3037 560 88 -1200 190/07 RMK AO2 T10111028
04850KAOH AOH20161223073011012/23/16 07:30:31  5-MIN KAOH 231230Z AUTO 19006KT 7SM CLR M01/M03 A3038 560 88 -1200 190/06 RMK AO2 T10111028
04850KAOH AOH20161223073511012/23/16 07:35:31  5-MIN KAOH 231235Z AUTO 19006KT 7SM CLR M01/M03 A3038 550 88 -1200 200/06 RMK AO2 T10111028
04850KAOH AOH20161223074011012/23/16 07:40:31  5-MIN KAOH 231240Z AUTO 20005KT 7SM CLR M01/M03 A3039 550 88 -1200 200/05 RMK AO2 T10111028
04850KAOH AOH20161223074511012/23/16 07:45:31  5-MIN KAOH 231245Z AUTO 20005KT 7SM CLR M02/M03 A3039 550 92 -1300 200/05 RMK AO2 T10171028
04850KAOH AOH20161223075012012/23/16 07:50:31  5-MIN KAOH 231250Z AUTO 20006KT 6SM BR CLR M02/M03 A3039 550 92 -1300 200/06 RMK AO2 SLP301 T10171028
04850KAOH AOH20161223075511312/23/16 07:55:31  5-MIN KAOH 231255Z AUTO 20006KT 6SM BR CLR M02/M03 A3039 550 92 -1300 210/06 RMK AO2 T10171028
04850KAOH AOH20161223080011312/23/16 08:00:31  5-MIN KAOH 231300Z AUTO 21005KT 6SM BR CLR M02/M03 A3039 540 92 -1300 220/05 RMK AO2 T10171028
04850KAOH AOH20161223080511312/23/16 08:05:31  5-MIN KAOH 231305Z AUTO 20005KT 6SM BR CLR M02/M03 A3039 550 92 -1300 210/05 RMK AO2 T10171028
04850KAOH AOH20161223081011312/23/16 08:10:31  5-MIN KAOH 231310Z AUTO 21005KT 5SM BR CLR M02/M03 A3039 540 92 -1300 220/05 RMK AO2 T10171028
04850KAOH AOH20161223081511312/23/16 08:15:31  5-MIN KAOH 231315Z AUTO 21005KT 5SM BR CLR M02/M03 A3039 540 92 -1300 220/05 RMK AO2 T10171028
04850KAOH AOH20161223082011312/23/16 08:20:31  5-MIN KAOH 231320Z AUTO 20005KT 5SM BR CLR M02/M03 A3039 540 92 -1300 210/05 RMK AO2 T10171028
04850KAOH AOH20161223082511312/23/16 08:25:31  5-MIN KAOH 231325Z AUTO 19005KT 5SM BR CLR M02/M03 A3039 550 92 -1300 200/05 RMK AO2 T10171028
04850KAOH AOH20161223083011312/23/16 08:30:31  5-MIN KAOH 231330Z AUTO 19005KT 5SM BR CLR M02/M03 A3038 550 92 -1300 190/05 RMK AO2 T10171028
04850KAOH AOH20161223083511312/23/16 08:35:31  5-MIN KAOH 231335Z AUTO 19006KT 5SM BR CLR M02/M03 A3038 550 92 -1300 190/06 RMK AO2 T10171028
04850KAOH AOH20161223084011312/23/16 08:40:31  5-MIN KAOH 231340Z AUTO 19008KT 5SM BR CLR M02/M03 A3038 560 92 -1300 190/08 RMK AO2 T10171028
04850KAOH AOH20161223084511312/23/16 08:45:31  5-MIN KAOH 231345Z AUTO 18008KT 5SM BR CLR M01/M03 A3037 560 88 -1200 190/08 RMK AO2 T10111028
04850KAOH AOH20161223085012012/23/16 08:50:31  5-MIN KAOH 231350Z AUTO 18007KT 5SM BR CLR M01/M03 A3037 560 88 -1200 190/07 RMK AO2 SLP297 T10111028
04850KAOH AOH20161223085511312/23/16 08:55:31  5-MIN KAOH 231355Z AUTO 19007KT 5SM BR CLR M01/M03 A3037 560 88 -1200 190/07 RMK AO2 T10111028
04850KAOH AOH20161223090011312/23/16 09:00:31  5-MIN KAOH 231400Z AUTO 19007KT 5SM BR CLR M01/M02 A3038 550 92 -1200 200/07 RMK AO2 T10111022
04850KAOH AOH20161223090511312/23/16 09:05:31  5-MIN KAOH 231405Z AUTO 20006KT 5SM BR CLR M01/M02 A3039 550 92 -1200 200/06 RMK AO2 T10111022
04850KAOH AOH20161223091011312/23/16 09:10:31  5-MIN KAOH 231410Z AUTO 20007KT 5SM BR CLR M01/M02 A3039 540 92 -1200 210/07 RMK AO2 T10111022
04850KAOH AOH20161223091511312/23/16 09:15:31  5-MIN KAOH 231415Z AUTO 20006KT 5SM BR CLR M01/M02 A3039 540 92 -1200 210/06 RMK AO2 T10111022
04850KAOH AOH20161223092011312/23/16 09:20:31  5-MIN KAOH 231420Z AUTO 20005KT 5SM BR CLR M01/M02 A3040 540 88 -1100 210/05 RMK AO2 T10061022
04850KAOH AOH20161223092511312/23/16 09:25:31  5-MIN KAOH 231425Z AUTO 20007KT 5SM BR CLR M01/M02 A3040 540 88 -1100 210/07 RMK AO2 T10061022
04850KAOH AOH20161223093011312/23/16 09:30:31  5-MIN KAOH 231430Z AUTO 20007KT 5SM BR CLR M01/M02 A3040 540 88 -1100 210/07 RMK AO2 T10061022
04850KAOH AOH20161223093511312/23/16 09:35:31  5-MIN KAOH 231435Z AUTO 20006KT 5SM BR CLR M01/M02 A3040 530 88 -1100 210/06 RMK AO2 T10061022
04850KAOH AOH20161223094011312/23/16 09:40:31  5-MIN KAOH 231440Z AUTO 21005KT 6SM BR CLR M01/M02 A3040 540 88 -1100 210/05 RMK AO2 T10061022
04850KAOH AOH20161223094511312/23/16 09:45:31  5-MIN KAOH 231445Z AUTO 19005KT 6SM BR CLR M01/M02 A3040 540 92 -1100 200/05 RMK AO2 T10061017
04850KAOH AOH20161223095012612/23/16 09:50:31  5-MIN KAOH 231450Z AUTO 19005KT 6SM BR CLR M01/M02 A3040 540 92 -1100 200/05 RMK AO2 SLP305 T10061017 56001
04850KAOH AOH20161223095511312/23/16 09:55:31  5-MIN KAOH 231455Z AUTO 19005KT 5SM BR CLR M01/M02 A3039 540 92 -1100 190/05 RMK AO2 T10061017
04850KAOH AOH20161223100011212/23/16 10:00:31  5-MIN KAOH 231500Z AUTO 19005KT 6SM BR CLR 00/M02 A3040 540 88 -1100 200/05 RMK AO2 T00001017
04850KAOH AOH20161223100511212/23/16 10:05:31  5-MIN KAOH 231505Z AUTO 20005KT 6SM BR CLR 00/M02 A3040 540 88 -1100 200/05 RMK AO2 T00001017
04850KAOH AOH20161223101011212/23/16 10:10:31  5-MIN KAOH 231510Z AUTO 19006KT 6SM BR CLR 00/M02 A3040 540 88 -1100 200/06 RMK AO2 T00001017
04850KAOH AOH20161223101511212/23/16 10:15:31  5-MIN KAOH 231515Z AUTO 19007KT 6SM BR CLR 00/M02 A3040 540 88 -1100 190/07 RMK AO2 T00001017
04850KAOH AOH20161223102011212/23/16 10:20:31  5-MIN KAOH 231520Z AUTO 19007KT 6SM BR CLR 00/M02 A3039 540 88 -1100 200/07 RMK AO2 T00001017
04850KAOH AOH20161223102511212/23/16 10:25:31  5-MIN KAOH 231525Z AUTO 19007KT 6SM BR CLR 00/M02 A3040 540 88 -1100 190/07 RMK AO2 T00001017
04850KAOH AOH20161223103011212/23/16 10:30:31  5-MIN KAOH 231530Z AUTO 18009KT 6SM BR CLR 00/M02 A3039 540 88 -1100 190/09 RMK AO2 T00001017
04850KAOH AOH20161223103511212/23/16 10:35:31  5-MIN KAOH 231535Z AUTO 18008KT 6SM BR CLR 00/M02 A3039 540 88 -1100 180/08 RMK AO2 T00001017
04850KAOH AOH20161223104011212/23/16 10:40:31  5-MIN KAOH 231540Z AUTO 18008KT 6SM BR CLR 00/M02 A3039 550 88 -1100 180/08 RMK AO2 T00001017
04850KAOH AOH20161223104511212/23/16 10:45:31  5-MIN KAOH 231545Z AUTO 17008KT 6SM BR CLR 00/M02 A3039 550 88 -1100 180/08 RMK AO2 T00001017
04850KAOH AOH20161223105011912/23/16 10:50:31  5-MIN KAOH 231550Z AUTO 17009KT 6SM BR CLR 00/M02 A3038 550 88 -1100 180/09 RMK AO2 SLP299 T00001017
04850KAOH AOH20161223105511212/23/16 10:55:31  5-MIN KAOH 231555Z AUTO 17009KT 6SM BR CLR 00/M02 A3038 550 88 -1100 180/09 RMK AO2 T00001017
04850KAOH AOH20161223110011212/23/16 11:00:31  5-MIN KAOH 231600Z AUTO 18007KT 6SM BR CLR 01/M02 A3038 550 85 -1000 190/07 RMK AO2 T00061017
04850KAOH AOH20161223110511212/23/16 11:05:31  5-MIN KAOH 231605Z AUTO 18007KT 6SM BR CLR 01/M01 A3038 560 89 -1000 190/07 RMK AO2 T00061011
04850KAOH AOH20161223111011212/23/16 11:10:31  5-MIN KAOH 231610Z AUTO 18007KT 6SM BR CLR 01/M01 A3038 560 89 -1000 190/07 RMK AO2 T00061011
04850KAOH AOH20161223111510912/23/16 11:15:31  5-MIN KAOH 231615Z AUTO 18009KT 7SM CLR 01/M01 A3037 560 89 -1000 180/09 RMK AO2 T00061011
04850KAOH AOH20161223112010912/23/16 11:20:31  5-MIN KAOH 231620Z AUTO 17008KT 7SM CLR 01/M02 A3037 570 85 -1000 180/08 RMK AO2 T00061017
04850KAOH AOH20161223112510912/23/16 11:25:31  5-MIN KAOH 231625Z AUTO 17008KT 7SM CLR 01/M01 A3036 570 89 -1000 180/08 RMK AO2 T00061011
04850KAOH AOH20161223113010912/23/16 11:30:31  5-MIN KAOH 231630Z AUTO 17010KT 7SM CLR 01/M01 A3036 580 89 -1000 180/10 RMK AO2 T00061011
04850KAOH AOH20161223113511512/23/16 11:35:31  5-MIN KAOH 231635Z AUTO 16010KT 7SM CLR 01/M01 A3035 590 89 -900 170/10 RMK AO2 PRESFR T00061011
04850KAOH AOH20161223114010812/23/16 11:40:31  5-MIN KAOH 231640Z AUTO 17012KT 7SM CLR 01/M01 A3034 590 89 -900 170/12 RMK AO2 T00061011
04850KAOH AOH20161223114511112/23/16 11:45:31  5-MIN KAOH 231645Z AUTO 17011KT 7SM FEW110 01/M01 A3034 590 89 -900 170/11 RMK AO2 T00061011
04850KAOH AOH20161223115011812/23/16 11:50:31  5-MIN KAOH 231650Z AUTO 16010KT 7SM FEW110 01/M01 A3034 590 89 -900 170/10 RMK AO2 SLP284 T00061011
04850KAOH AOH20161223115511112/23/16 11:55:31  5-MIN KAOH 231655Z AUTO 17011KT 7SM FEW120 01/M01 A3034 590 89 -900 180/11 RMK AO2 T00061011
04850KAOH AOH20161223120011112/23/16 12:00:31  5-MIN KAOH 231700Z AUTO 17012KT 8SM FEW120 01/M01 A3033 600 89 -900 180/12 RMK AO2 T00061011
04850KAOH AOH20161223120511112/23/16 12:05:31  5-MIN KAOH 231705Z AUTO 17010KT 8SM FEW120 01/M01 A3033 600 89 -900 180/10 RMK AO2 T00061011
04850KAOH AOH20161223121011112/23/16 12:10:31  5-MIN KAOH 231710Z AUTO 18010KT 9SM SCT120 01/M01 A3033 600 89 -900 190/10 RMK AO2 T00061011
04850KAOH AOH20161223121511212/23/16 12:15:31  5-MIN KAOH 231715Z AUTO 19008KT 10SM BKN110 01/M02 A3033 600 85 -900 200/08 RMK AO2 T00061017
04850KAOH AOH20161223122011212/23/16 12:20:31  5-MIN KAOH 231720Z AUTO 21008KT 10SM BKN110 01/M02 A3033 600 82 -900 220/08 RMK AO2 T00111017
04850KAOH AOH20161223122511812/23/16 12:25:31  5-MIN KAOH 231725Z AUTO 18008KT 9SM BKN110 01/M02 A3031 620 82 -800 180/08 RMK AO2 PRESFR T00111017
04850KAOH AOH20161223123011812/23/16 12:30:31  5-MIN KAOH 231730Z AUTO 14011KT 9SM BKN110 01/M01 A3030 630 85 -800 140/11 RMK AO2 PRESFR T00111011
04850KAOH AOH20161223123511112/23/16 12:35:31  5-MIN KAOH 231735Z AUTO 18008KT 9SM BKN110 01/M02 A3030 620 82 -800 190/08 RMK AO2 T00111017
04850KAOH AOH20161223124011112/23/16 12:40:31  5-MIN KAOH 231740Z AUTO 17010KT 9SM BKN110 01/M01 A3030 630 85 -800 170/10 RMK AO2 T00111011
04850KAOH AOH20161223124511112/23/16 12:45:31  5-MIN KAOH 231745Z AUTO 18008KT 9SM BKN110 01/M01 A3030 630 85 -800 180/08 RMK AO2 T00111011
04850KAOH AOH20161223125013612/23/16 12:50:31  5-MIN KAOH 231750Z AUTO 16012KT 9SM BKN110 01/M01 A3030 630 85 -800 170/12 RMK AO2 SLP272 T00111011 10011 21017 53006
04850KAOH AOH20161223125511212/23/16 12:55:31  5-MIN KAOH 231755Z AUTO 16013KT 10SM BKN110 01/M01 A3029 630 85 -800 170/13 RMK AO2 T00111011
04850KAOH AOH20161223130011212/23/16 13:00:31  5-MIN KAOH 231800Z AUTO 19010KT 10SM BKN110 01/M01 A3029 630 85 -800 190/10 RMK AO2 T00111011
04850KAOH AOH20161223130511912/23/16 13:05:31  5-MIN KAOH 231805Z AUTO 14011KT 10SM BKN110 01/M01 A3027 650 85 -800 150/11 RMK AO2 PRESFR T00111011
04850KAOH AOH20161223131011212/23/16 13:10:31  5-MIN KAOH 231810Z AUTO 15013KT 10SM BKN110 02/M01 A3028 650 82 -700 160/13 RMK AO2 T00171011
04850KAOH AOH20161223131511212/23/16 13:15:31  5-MIN KAOH 231815Z AUTO 17011KT 10SM SCT110 02/M01 A3027 660 82 -700 170/11 RMK AO2 T00171011
04850KAOH AOH20161223132011212/23/16 13:20:31  5-MIN KAOH 231820Z AUTO 16009KT 10SM SCT110 02/M01 A3027 650 82 -700 170/09 RMK AO2 T00171011
04850KAOH AOH20161223132511112/23/16 13:25:31  5-MIN KAOH 231825Z AUTO 17008KT 9SM FEW110 02/M01 A3027 650 82 -700 180/08 RMK AO2 T00171011
04850KAOH AOH20161223133011112/23/16 13:30:31  5-MIN KAOH 231830Z AUTO 16008KT 9SM FEW110 02/M01 A3026 660 82 -700 160/08 RMK AO2 T00171011
04850KAOH AOH20161223133511112/23/16 13:35:31  5-MIN KAOH 231835Z AUTO 16011KT 9SM FEW110 02/M01 A3025 670 85 -700 160/11 RMK AO2 T00171006
04850KAOH AOH20161223134011212/23/16 13:40:31  5-MIN KAOH 231840Z AUTO 15012KT 10SM SCT110 02/M01 A3025 670 82 -700 150/12 RMK AO2 T00171011
04850KAOH AOH20161223134511912/23/16 13:45:31  5-MIN KAOH 231845Z AUTO 15014KT 10SM BKN120 02/M01 A3024 680 82 -700 150/14 RMK AO2 PRESFR T00171011
04850KAOH AOH20161223135012612/23/16 13:50:31  5-MIN KAOH 231850Z AUTO 16012KT 10SM BKN120 02/M01 A3024 690 82 -700 160/12 RMK AO2 PRESFR SLP250 T00171011
04850KAOH AOH20161223135511212/23/16 13:55:31  5-MIN KAOH 231855Z AUTO 15010KT 10SM BKN120 02/M01 A3023 690 82 -700 160/10 RMK AO2 T00171011
04850KAOH AOH20161223140011212/23/16 14:00:31  5-MIN KAOH 231900Z AUTO 16015KT 10SM SCT120 02/M01 A3023 690 82 -700 170/15 RMK AO2 T00171011
04850KAOH AOH20161223140511212/23/16 14:05:31  5-MIN KAOH 231905Z AUTO 16014KT 10SM SCT120 02/M01 A3023 690 82 -700 170/14 RMK AO2 T00171011
04850KAOH AOH20161223141011212/23/16 14:10:31  5-MIN KAOH 231910Z AUTO 16013KT 10SM FEW120 02/M01 A3023 690 82 -700 170/13 RMK AO2 T00171011
04850KAOH AOH20161223141511212/23/16 14:15:31  5-MIN KAOH 231915Z AUTO 16012KT 10SM FEW120 02/M01 A3023 690 82 -700 170/12 RMK AO2 T00171011
04850KAOH AOH20161223142010812/23/16 14:20:31  5-MIN KAOH 231920Z AUTO 16012KT 9SM CLR 02/M01 A3023 700 82 -700 160/12 RMK AO2 T00171011
04850KAOH AOH20161223142511112/23/16 14:25:31  5-MIN KAOH 231925Z AUTO 15011KT 9SM FEW120 02/M01 A3022 700 82 -700 160/11 RMK AO2 T00171011
04850KAOH AOH20161223143011212/23/16 14:30:31  5-MIN KAOH 231930Z AUTO 16011KT 10SM FEW120 02/M01 A3022 700 82 -700 170/11 RMK AO2 T00171011
04850KAOH AOH20161223143511112/23/16 14:35:31  5-MIN KAOH 231935Z AUTO 16010KT 9SM FEW120 02/M01 A3022 700 82 -700 160/10 RMK AO2 T00171011
04850KAOH AOH20161223144011112/23/16 14:40:31  5-MIN KAOH 231940Z AUTO 15010KT 9SM SCT120 02/M01 A3022 700 82 -700 160/10 RMK AO2 T00171011
04850KAOH AOH20161223144511112/23/16 14:45:31  5-MIN KAOH 231945Z AUTO 15010KT 9SM BKN110 02/M01 A3021 710 82 -700 150/10 RMK AO2 T00171011
04850KAOH AOH20161223145011912/23/16 14:50:31  5-MIN KAOH 231950Z AUTO 15012KT 10SM BKN110 02/M01 A3021 710 82 -600 150/12 RMK AO2 SLP241 T00171011
04850KAOH AOH20161223145511212/23/16 14:55:31  5-MIN KAOH 231955Z AUTO 15011KT 10SM SCT110 02/M01 A3021 710 82 -600 160/11 RMK AO2 T00171011
04850KAOH AOH20161223150011212/23/16 15:00:31  5-MIN KAOH 232000Z AUTO 15011KT 10SM SCT110 02/M01 A3020 720 82 -600 150/11 RMK AO2 T00171011
04850KAOH AOH20161223150511212/23/16 15:05:31  5-MIN KAOH 232005Z AUTO 15011KT 10SM SCT110 02/M01 A3020 720 82 -600 150/11 RMK AO2 T00171011
04850KAOH AOH20161223151011212/23/16 15:10:31  5-MIN KAOH 232010Z AUTO 15010KT 10SM SCT110 02/M01 A3021 710 82 -600 160/10 RMK AO2 T00171011
04850KAOH AOH20161223151511212/23/16 15:15:31  5-MIN KAOH 232015Z AUTO 14011KT 10SM BKN120 02/M01 A3020 720 82 -600 150/11 RMK AO2 T00171011
04850KAOH AOH20161223152011212/23/16 15:20:31  5-MIN KAOH 232020Z AUTO 15009KT 10SM BKN120 02/M01 A3020 720 82 -600 150/09 RMK AO2 T00171011
04850KAOH AOH20161223152511212/23/16 15:25:31  5-MIN KAOH 232025Z AUTO 15010KT 10SM BKN120 02/M01 A3020 720 82 -600 150/10 RMK AO2 T00171011
04850KAOH AOH20161223153011212/23/16 15:30:31  5-MIN KAOH 232030Z AUTO 15009KT 10SM BKN110 02/M01 A3020 720 82 -600 160/09 RMK AO2 T00171011
04850KAOH AOH20161223153511212/23/16 15:35:31  5-MIN KAOH 232035Z AUTO 15010KT 10SM OVC110 02/M01 A3019 730 82 -600 150/10 RMK AO2 T00171011
04850KAOH AOH20161223154011212/23/16 15:40:31  5-MIN KAOH 232040Z AUTO 15009KT 10SM OVC110 02/M01 A3019 730 82 -600 150/09 RMK AO2 T00171011
04850KAOH AOH20161223154511212/23/16 15:45:31  5-MIN KAOH 232045Z AUTO 15010KT 10SM OVC110 02/M01 A3019 730 78 -600 160/10 RMK AO2 T00221011
04850KAOH AOH20161223155012512/23/16 15:50:31  5-MIN KAOH 232050Z AUTO 15009KT 10SM OVC110 02/M01 A3019 730 78 -600 150/09 RMK AO2 SLP233 T00221011 58034
04850KAOH AOH20161223155511212/23/16 15:55:31  5-MIN KAOH 232055Z AUTO 16008KT 10SM OVC110 02/M02 A3020 720 75 -600 170/08 RMK AO2 T00221017
04850KAOH AOH20161223160011212/23/16 16:00:31  5-MIN KAOH 232100Z AUTO 16010KT 10SM OVC100 02/M02 A3019 720 75 -600 170/10 RMK AO2 T00221017
04850KAOH AOH20161223160511212/23/16 16:05:31  5-MIN KAOH 232105Z AUTO 17007KT 10SM OVC110 02/M02 A3019 720 75 -600 170/07 RMK AO2 T00221017
04850KAOH AOH20161223161011212/23/16 16:10:31  5-MIN KAOH 232110Z AUTO 17006KT 10SM OVC110 02/M02 A3019 730 75 -600 170/06 RMK AO2 T00221017
04850KAOH AOH20161223161511212/23/16 16:15:31  5-MIN KAOH 232115Z AUTO 23003KT 10SM OVC100 02/M02 A3019 720 75 -600 230/03 RMK AO2 T00221017
04850KAOH AOH20161223162011212/23/16 16:20:31  5-MIN KAOH 232120Z AUTO 17003KT 10SM OVC110 02/M02 A3018 740 75 -500 180/03 RMK AO2 T00221017
04850KAOH AOH20161223162511212/23/16 16:25:31  5-MIN KAOH 232125Z AUTO 15006KT 10SM OVC110 02/M01 A3018 740 78 -500 160/06 RMK AO2 T00221011
04850KAOH AOH20161223163011212/23/16 16:30:31  5-MIN KAOH 232130Z AUTO 16008KT 10SM OVC110 02/M01 A3018 730 82 -600 170/08 RMK AO2 T00171011
04850KAOH AOH20161223163511212/23/16 16:35:31  5-MIN KAOH 232135Z AUTO 15007KT 10SM OVC100 02/M01 A3018 740 82 -600 160/07 RMK AO2 T00171011
04850KAOH AOH20161223164011212/23/16 16:40:31  5-MIN KAOH 232140Z AUTO 15007KT 10SM OVC100 02/M02 A3018 740 78 -600 160/07 RMK AO2 T00171017
04850KAOH AOH20161223164511212/23/16 16:45:31  5-MIN KAOH 232145Z AUTO 18006KT 10SM OVC100 02/M02 A3019 730 78 -600 190/06 RMK AO2 T00171017
04850KAOH AOH20161223165011912/23/16 16:50:31  5-MIN KAOH 232150Z AUTO 17008KT 10SM OVC100 02/M02 A3018 740 78 -600 180/08 RMK AO2 SLP230 T00171017
04850KAOH AOH20161223165511212/23/16 16:55:31  5-MIN KAOH 232155Z AUTO 18010KT 10SM OVC100 02/M02 A3018 740 78 -600 180/10 RMK AO2 T00171017
04850KAOH AOH20161223170011212/23/16 17:00:31  5-MIN KAOH 232200Z AUTO 17010KT 10SM OVC100 02/M02 A3017 740 78 -600 180/10 RMK AO2 T00171017
04850KAOH AOH20161223170511212/23/16 17:05:31  5-MIN KAOH 232205Z AUTO 17011KT 10SM OVC100 02/M02 A3017 750 78 -600 170/11 RMK AO2 T00171017
04850KAOH AOH20161223171011212/23/16 17:10:31  5-MIN KAOH 232210Z AUTO 16010KT 10SM OVC095 02/M02 A3017 750 78 -600 170/10 RMK AO2 T00171017
04850KAOH AOH20161223171511212/23/16 17:15:31  5-MIN KAOH 232215Z AUTO 16012KT 10SM OVC090 02/M02 A3017 750 78 -600 170/12 RMK AO2 T00171017
04850KAOH AOH20161223172011912/23/16 17:20:31  5-MIN KAOH 232220Z AUTO 17012KT 10SM FEW070 OVC085 02/M02 A3017 750 78 -600 170/12 RMK AO2 T00171017
04850KAOH AOH20161223172511912/23/16 17:25:31  5-MIN KAOH 232225Z AUTO 17011KT 10SM SCT065 OVC090 02/M02 A3018 740 78 -600 180/11 RMK AO2 T00171017
04850KAOH AOH20161223173011912/23/16 17:30:31  5-MIN KAOH 232230Z AUTO 17013KT 10SM BKN060 OVC090 02/M02 A3017 740 78 -600 180/13 RMK AO2 T00171017
04850KAOH AOH20161223173511912/23/16 17:35:31  5-MIN KAOH 232235Z AUTO 17013KT 10SM BKN060 OVC075 02/M02 A3017 750 78 -600 180/13 RMK AO2 T00171017
04850KAOH AOH20161223174011912/23/16 17:40:31  5-MIN KAOH 232240Z AUTO 17011KT 10SM BKN060 OVC075 02/M02 A3017 740 78 -600 180/11 RMK AO2 T00171017
04850KAOH AOH20161223174513512/23/16 17:45:31  5-MIN KAOH 232245Z AUTO 17011KT 10SM -RA BKN055 OVC070 02/M02 A3017 750 78 -600 180/11 RMK AO2 RAB43 P0000 T00171017
04850KAOH AOH20161223175013512/23/16 17:50:31  5-MIN KAOH 232250Z AUTO 17012KT 10SM -RA OVC055 02/M02 A3017 750 78 -600 170/12 RMK AO2 RAB43 SLP226 P0000 T00171017
04850KAOH AOH20161223175512212/23/16 17:55:31  5-MIN KAOH 232255Z AUTO 17011KT 10SM -RA OVC055 02/M02 A3017 750 78 -600 180/11 RMK AO2 P0000 T00171017
04850KAOH AOH20161223180012212/23/16 18:00:31  5-MIN KAOH 232300Z AUTO 17013KT 10SM -RA OVC050 02/M02 A3017 750 78 -600 170/13 RMK AO2 P0000 T00171017
04850KAOH AOH20161223180512212/23/16 18:05:31  5-MIN KAOH 232305Z AUTO 16013KT 10SM -RA OVC050 02/M02 A3016 760 78 -600 170/13 RMK AO2 P0000 T00171017
04850KAOH AOH20161223181012112/23/16 18:10:31  5-MIN KAOH 232310Z AUTO 16014KT 9SM -RA OVC048 02/M01 A3015 760 82 -600 160/14 RMK AO2 P0000 T00171011
04850KAOH AOH20161223181512112/23/16 18:15:31  5-MIN KAOH 232315Z AUTO 17012KT 9SM -RA OVC050 02/M01 A3015 760 82 -600 170/12 RMK AO2 P0000 T00171011
04850KAOH AOH20161223182012212/23/16 18:20:31  5-MIN KAOH 232320Z AUTO 16013KT 10SM -RA OVC050 02/M01 A3015 770 82 -600 170/13 RMK AO2 P0000 T00171011
04850KAOH AOH20161223182512812/23/16 18:25:31  5-MIN KAOH 232325Z AUTO 15013KT 8SM -RA OVC048 02/M01 A3012 790 82 -600 150/13 RMK AO2 PRESFR P0001 T00171011
04850KAOH AOH20161223183012812/23/16 18:30:31  5-MIN KAOH 232330Z AUTO 14010KT 7SM -RA OVC046 02/M01 A3012 800 82 -500 150/10 RMK AO2 PRESFR P0001 T00171011
04850KAOH AOH20161223183512812/23/16 18:35:31  5-MIN KAOH 232335Z AUTO 14011KT 7SM -RA OVC048 02/M01 A3011 810 82 -500 140/11 RMK AO2 PRESFR P0001 T00171011
04850KAOH AOH20161223184012112/23/16 18:40:31  5-MIN KAOH 232340Z AUTO 14013KT 9SM -RA OVC048 02/M01 A3010 810 82 -500 150/13 RMK AO2 P0001 T00171011
04850KAOH AOH20161223184512212/23/16 18:45:31  5-MIN KAOH 232345Z AUTO 15013KT 10SM -RA OVC048 02/M01 A3011 800 85 -500 160/13 RMK AO2 P0002 T00171006
04850KAOH AOH20161223185015212/23/16 18:50:31  5-MIN KAOH 232350Z AUTO 16012KT 9SM -RA OVC048 02/M01 A3011 800 85 -500 160/12 RMK AO2 SLP208 P0002 60002 T00171006 10022 20011 56033
04850KAOH AOH20161223185512112/23/16 18:55:31  5-MIN KAOH 232355Z AUTO 15011KT 8SM -RA OVC048 02/M01 A3011 800 85 -500 160/11 RMK AO2 P0000 T00171006
04850KAOH AOH20161223190012112/23/16 19:00:31  5-MIN KAOH 240000Z AUTO 15012KT 8SM -RA OVC048 02/M01 A3011 800 85 -500 160/12 RMK AO2 P0000 T00171006
04850KAOH AOH20161223190512112/23/16 19:05:31  5-MIN KAOH 240005Z AUTO 14009KT 8SM -RA OVC048 02/M01 A3011 800 85 -500 150/09 RMK AO2 P0001 T00171006
04850KAOH AOH20161223191012012/23/16 19:10:31  5-MIN KAOH 240010Z AUTO 15010KT 9SM -RA OVC047 02/00 A3011 800 89 -500 160/10 RMK AO2 P0001 T00170000
04850KAOH AOH20161223191512112/23/16 19:15:31  5-MIN KAOH 240015Z AUTO 18009KT 10SM -RA OVC049 02/00 A3012 790 89 -500 190/09 RMK AO2 P0001 T00170000
04850KAOH AOH20161223192012012/23/16 19:20:31  5-MIN KAOH 240020Z AUTO 16013KT 9SM -RA OVC047 02/00 A3010 810 89 -500 170/13 RMK AO2 P0001 T00170000
04850KAOH AOH20161223192512812/23/16 19:25:31  5-MIN KAOH 240025Z AUTO 16012KT 10SM -RA BKN047 OVC095 02/00 A3009 820 89 -500 160/12 RMK AO2 P0001 T00170000
04850KAOH AOH20161223193014512/23/16 19:30:31  5-MIN KAOH 240030Z AUTO 16012KT 10SM UP BKN049 OVC095 02/00 A3008 830 89 -500 160/12 RMK AO2 RAE30UPB30 PRESFR P0001 T00170000
04850KAOH AOH20161223193515112/23/16 19:35:31  5-MIN KAOH 240035Z AUTO 15009KT 10SM -RA SCT049 BKN090 OVC110 02/01 A3008 830 89 -400 160/09 RMK AO2 UPB30E35 PRESFR P0001 T00220006
04850KAOH AOH20161223194014512/23/16 19:40:31  5-MIN KAOH 240040Z AUTO 15010KT 10SM SCT049 BKN090 OVC110 02/01 A3008 830 89 -400 150/10 RMK AO2 RAE36UPB30E35 P0001 T00220006
04850KAOH AOH20161223194515212/23/16 19:45:31  5-MIN KAOH 240045Z AUTO 15013KT 10SM FEW047 BKN090 OVC110 02/00 A3006 850 85 -400 150/13 RMK AO2 RAE36UPB30E35 PRESFR P0001 T00220000
04850KAOH AOH20161223195014512/23/16 19:50:31  5-MIN KAOH 240050Z AUTO 15011KT 10SM FEW049 OVC095 02/00 A3006 850 85 -400 160/11 RMK AO2 RAE36UPB30E35 SLP188 P0001 T00220000
04850KAOH AOH20161223195511112/23/16 19:55:31  5-MIN KAOH 240055Z AUTO 15010KT 10SM OVC095 02/00 A3006 850 85 -400 160/10 RMK AO2 T00220000
04850KAOH AOH20161223200011112/23/16 20:00:31  5-MIN KAOH 240100Z AUTO 16007KT 10SM OVC095 02/00 A3006 850 85 -400 160/07 RMK AO2 T00220000
04850KAOH AOH20161223200511112/23/16 20:05:31  5-MIN KAOH 240105Z AUTO 15010KT 10SM OVC090 02/01 A3007 840 89 -400 150/10 RMK AO2 T00220006
04850KAOH AOH20161223201011112/23/16 20:10:31  5-MIN KAOH 240110Z AUTO 15011KT 10SM OVC090 02/01 A3006 840 89 -400 150/11 RMK AO2 T00220006
04850KAOH AOH20161223201511112/23/16 20:15:31  5-MIN KAOH 240115Z AUTO 14010KT 10SM OVC090 02/01 A3006 850 89 -400 150/10 RMK AO2 T00220006
04850KAOH AOH20161223202011112/23/16 20:20:31  5-MIN KAOH 240120Z AUTO 15009KT 10SM OVC085 02/01 A3007 840 89 -400 160/09 RMK AO2 T00220006
04850KAOH AOH20161223202511112/23/16 20:25:31  5-MIN KAOH 240125Z AUTO 16009KT 10SM OVC085 02/01 A3007 840 89 -400 160/09 RMK AO2 T00220006
04850KAOH AOH20161223203011112/23/16 20:30:31  5-MIN KAOH 240130Z AUTO 16009KT 10SM OVC080 02/01 A3007 840 89 -400 160/09 RMK AO2 T00220006
04850KAOH AOH20161223203511112/23/16 20:35:31  5-MIN KAOH 240135Z AUTO 17009KT 10SM OVC080 02/01 A3008 830 89 -400 180/09 RMK AO2 T00220006
04850KAOH AOH20161223204011112/23/16 20:40:31  5-MIN KAOH 240140Z AUTO 16010KT 10SM OVC080 03/01 A3007 840 85 -300 170/10 RMK AO2 T00280006
04850KAOH AOH20161223204511112/23/16 20:45:31  5-MIN KAOH 240145Z AUTO 15008KT 10SM OVC075 02/01 A3005 850 89 -400 150/08 RMK AO2 T00220006
04850KAOH AOH20161223205012512/23/16 20:50:31  5-MIN KAOH 240150Z AUTO 16008KT 10SM BKN065 OVC080 02/01 A3006 850 92 -400 160/08 RMK AO2 SLP189 T00220011
04850KAOH AOH20161223205511812/23/16 20:55:31  5-MIN KAOH 240155Z AUTO 16009KT 10SM SCT055 OVC075 02/01 A3006 850 92 -400 160/09 RMK AO2 T00220011
04850KAOH AOH20161223210011812/23/16 21:00:31  5-MIN KAOH 240200Z AUTO 16011KT 10SM BKN055 OVC075 02/01 A3007 840 92 -400 170/11 RMK AO2 T00220011
04850KAOH AOH20161223210512512/23/16 21:05:31  5-MIN KAOH 240205Z AUTO 18011KT 10SM BKN060 OVC080 03/01 A3009 820 89 -400 180/11 RMK AO2 PRESRR T00280011
04850KAOH AOH20161223211011812/23/16 21:10:31  5-MIN KAOH 240210Z AUTO 18012KT 10SM BKN065 OVC080 03/01 A3008 830 89 -400 180/12 RMK AO2 T00280011
04850KAOH AOH20161223211511812/23/16 21:15:31  5-MIN KAOH 240215Z AUTO 18010KT 10SM BKN065 OVC080 03/01 A3009 820 85 -400 180/10 RMK AO2 T00280006
04850KAOH AOH20161223212011812/23/16 21:20:31  5-MIN KAOH 240220Z AUTO 17013KT 10SM BKN060 OVC075 03/01 A3009 820 85 -400 180/13 RMK AO2 T00280006
04850KAOH AOH20161223212512412/23/16 21:25:31  5-MIN KAOH 240225Z AUTO 17015G20KT 10SM BKN050 OVC075 03/01 A3009 820 82 -300 180/15G20 RMK AO2 T00330006
04850KAOH AOH20161223213014012/23/16 21:30:31  5-MIN KAOH 240230Z AUTO 18014G23KT 10SM -RA BKN043 OVC075 03/01 A3007 840 82 -300 180/14G23 RMK AO2 RAB27 P0000 T00330006
04850KAOH AOH20161223213514012/23/16 21:35:31  5-MIN KAOH 240235Z AUTO 20012G23KT 10SM -RA BKN043 OVC070 03/01 A3007 840 82 -300 200/12G23 RMK AO2 RAB27 P0000 T00330006
04850KAOH AOH20161223214014112/23/16 21:40:31  5-MIN KAOH 240240Z AUTO 20010KT 10SM -RA BKN043 BKN075 OVC090 04/01 A3007 840 76 -100 210/10 RMK AO2 RAB27 P0000 T00440006
04850KAOH AOH20161223214514112/23/16 21:45:31  5-MIN KAOH 240245Z AUTO 21013KT 10SM -RA BKN045 BKN080 OVC090 04/00 A3007 840 73 -100 210/13 RMK AO2 RAB27 P0000 T00440000
04850KAOH AOH20161223215016012/23/16 21:50:31  5-MIN KAOH 240250Z AUTO 19009KT 10SM -RA SCT041 SCT048 OVC080 04/00 A3006 850 76 -200 200/09 RMK AO2 RAB27 SLP188 P0000 60001 T00390000 58026
04850KAOH AOH20161223215514412/23/16 21:55:31  5-MIN KAOH 240255Z AUTO 18010KT 10SM FEW038 BKN080 OVC090 03/00 A3004 870 79 -300 180/10 RMK AO2 RAE55 PRESFR P0000 T00330000
04850KAOH AOH20161223220013912/23/16 22:00:31  5-MIN KAOH 240300Z AUTO 18009KT 10SM FEW043 BKN080 OVC090 03/00 A3005 860 79 -300 190/09 RMK AO2 RAE0255 P0000 T00330000
04850KAOH AOH20161223220512812/23/16 22:05:31  5-MIN KAOH 240305Z AUTO 18010KT 10SM -RA BKN080 OVC090 03/00 A3004 860 79 -300 190/10 RMK AO2 P0000 T00330000
04850KAOH AOH20161223221012812/23/16 22:10:31  5-MIN KAOH 240310Z AUTO 18010KT 10SM -RA FEW050 OVC080 03/00 A3005 860 79 -300 190/10 RMK AO2 P0000 T00330000
04850KAOH AOH20161223221513012/23/16 22:15:31  5-MIN KAOH 240315Z AUTO 18010KT 10SM SCT050 OVC075 03/00 A3004 870 79 -200 190/10 RMK AO2 RAE14 P0000 T00330000
04850KAOH AOH20161223222013712/23/16 22:20:31  5-MIN KAOH 240320Z AUTO 18011KT 10SM SCT050 BKN070 OVC085 03/00 A3003 870 79 -200 190/11 RMK AO2 RAE14 P0000 T00330000
04850KAOH AOH20161223222513012/23/16 22:25:31  5-MIN KAOH 240325Z AUTO 18010KT 10SM FEW050 OVC070 03/00 A3004 870 79 -200 190/10 RMK AO2 RAE14 P0000 T00330000
04850KAOH AOH20161223223013012/23/16 22:30:31  5-MIN KAOH 240330Z AUTO 19010KT 10SM SCT047 OVC065 04/00 A3003 870 76 -200 190/10 RMK AO2 RAE14 P0000 T00390000
04850KAOH AOH20161223223513712/23/16 22:35:31  5-MIN KAOH 240335Z AUTO 19010KT 10SM BKN047 BKN055 OVC070 04/00 A3003 870 76 -200 200/10 RMK AO2 RAE14 P0000 T00390000
04850KAOH AOH20161223224013012/23/16 22:40:31  5-MIN KAOH 240340Z AUTO 19008KT 10SM BKN045 OVC060 04/00 A3004 870 76 -200 200/08 RMK AO2 RAE14 P0000 T00390000
04850KAOH AOH20161223224513012/23/16 22:45:31  5-MIN KAOH 240345Z AUTO 19009KT 10SM BKN045 OVC065 04/00 A3005 860 76 -200 200/09 RMK AO2 RAE14 P0000 T00390000
04850KAOH AOH20161223225013712/23/16 22:50:31  5-MIN KAOH 240350Z AUTO 19010KT 10SM BKN045 OVC065 04/00 A3005 860 76 -200 190/10 RMK AO2 RAE14 SLP182 P0000 T00390000
04850KAOH AOH20161223225511112/23/16 22:55:31  5-MIN KAOH 240355Z AUTO 18011KT 10SM OVC045 04/00 A3004 870 76 -200 190/11 RMK AO2 T00390000
04850KAOH AOH20161223230011112/23/16 23:00:31  5-MIN KAOH 240400Z AUTO 18010KT 10SM OVC045 04/00 A3004 870 76 -200 190/10 RMK AO2 T00390000
04850KAOH AOH20161223230511112/23/16 23:05:31  5-MIN KAOH 240405Z AUTO 19009KT 10SM OVC045 04/00 A3004 870 76 -200 190/09 RMK AO2 T00390000
04850KAOH AOH20161223231011112/23/16 23:10:31  5-MIN KAOH 240410Z AUTO 19010KT 10SM OVC045 04/00 A3004 870 76 -200 190/10 RMK AO2 T00390000
04850KAOH AOH20161223231512812/23/16 23:15:31  5-MIN KAOH 240415Z AUTO 19010KT 10SM -RA OVC043 04/M01 A3003 880 73 -200 190/10 RMK AO2 RAB15 P0000 T00391006
04850KAOH AOH20161223232012712/23/16 23:20:31  5-MIN KAOH 240420Z AUTO 19009KT 10SM -RA OVC043 04/00 A3003 880 76 -200 190/09 RMK AO2 RAB15 P0001 T00390000
04850KAOH AOH20161223232512712/23/16 23:25:31  5-MIN KAOH 240425Z AUTO 19010KT 10SM -RA OVC043 04/00 A3003 880 76 -200 190/10 RMK AO2 RAB15 P0001 T00390000
04850KAOH AOH20161223233012712/23/16 23:30:31  5-MIN KAOH 240430Z AUTO 19010KT 10SM -RA OVC041 04/00 A3002 880 76 -200 190/10 RMK AO2 RAB15 P0001 T00390000
04850KAOH AOH20161223233512612/23/16 23:35:31  5-MIN KAOH 240435Z AUTO 19010KT 10SM OVC041 04/00 A3002 890 76 -200 190/10 RMK AO2 RAB15E32 P0001 T00390000
04850KAOH AOH20161223234012612/23/16 23:40:31  5-MIN KAOH 240440Z AUTO 19011KT 10SM OVC041 04/00 A3001 890 76 -200 190/11 RMK AO2 RAB15E32 P0001 T00390000
04850KAOH AOH20161223234513312/23/16 23:45:31  5-MIN KAOH 240445Z AUTO 19011KT 10SM FEW023 OVC041 04/00 A3002 890 76 -200 190/11 RMK AO2 RAB15E32 P0001 T00390000
04850KAOH AOH20161223235015012/23/16 23:50:31  5-MIN KAOH 240450Z AUTO 18013KT 10SM FEW023 OVC039 04/00 A3001 890 76 -100 190/13 RMK AO2 RAB15E32 SLP170 P0001 T00390000 400441028
04850KAOH AOH20161223235512412/23/16 23:55:31  5-MIN KAOH 240455Z AUTO 18013G20KT 10SM FEW023 OVC039 04/01 A3001 900 79 -100 190/13G20 RMK AO2 T00390006
04850KAOH AOH20161224000011812/24/16 00:00:31  5-MIN KAOH 240500Z AUTO 19013KT 10SM FEW023 OVC037 04/01 A3001 900 79 -100 190/13 RMK AO2 T00390006
04850KAOH AOH20161224000511812/24/16 00:05:31  5-MIN KAOH 240505Z AUTO 18013KT 10SM FEW023 OVC035 04/01 A3001 900 79 -100 190/13 RMK AO2 T00390006
04850KAOH AOH20161224001013912/24/16 00:10:31  5-MIN KAOH 240510Z AUTO 19012G19KT 9SM -RA FEW023 OVC035 04/01 A3000 900 79 -100 200/12G19 RMK AO2 RAB07 P0000 T00390006
04850KAOH AOH20161224001513312/24/16 00:15:31  5-MIN KAOH 240515Z AUTO 19013KT 9SM -RA FEW025 OVC033 03/01 A3000 910 85 -200 200/13 RMK AO2 RAB07 P0000 T00330011
04850KAOH AOH20161224002012612/24/16 00:20:31  5-MIN KAOH 240520Z AUTO 19010KT 9SM -RA OVC032 03/01 A3000 900 85 -200 200/10 RMK AO2 RAB07 P0000 T00330011
04850KAOH AOH20161224002512612/24/16 00:25:31  5-MIN KAOH 240525Z AUTO 19010KT 10SM OVC030 03/02 A3000 900 89 -200 200/10 RMK AO2 RAB07E23 P0000 T00330017
04850KAOH AOH20161224003012612/24/16 00:30:31  5-MIN KAOH 240530Z AUTO 19012KT 10SM OVC030 03/02 A3000 900 89 -200 190/12 RMK AO2 RAB07E23 P0000 T00330017
04850KAOH AOH20161224003512612/24/16 00:35:31  5-MIN KAOH 240535Z AUTO 19012KT 10SM OVC030 03/02 A2999 910 89 -200 190/12 RMK AO2 RAB07E23 P0000 T00330017
04850KAOH AOH20161224004012612/24/16 00:40:31  5-MIN KAOH 240540Z AUTO 19011KT 10SM OVC030 03/02 A2999 910 89 -200 190/11 RMK AO2 RAB07E23 P0000 T00330017
04850KAOH AOH20161224004512612/24/16 00:45:31  5-MIN KAOH 240545Z AUTO 19011KT 10SM OVC030 03/02 A2999 910 89 -200 200/11 RMK AO2 RAB07E23 P0000 T00330017
04850KAOH AOH20161224005012912/24/16 00:50:31  5-MIN KAOH 240550Z AUTO 19011KT 9SM BKN028 OVC033 03/02 A2998 930 92 -200 190/11 RMK AO2 RAB07E23 PRESFR P0000
04850KAOH AOH20161224005511712/24/16 00:55:31  5-MIN KAOH 240555Z AUTO 20012KT 8SM FEW015 OVC030 03/02 A2998 920 92 -200 200/12 RMK AO2 T00330022
04850KAOH AOH20161224010012312/24/16 01:00:31  5-MIN KAOH 240600Z AUTO 19012G23KT 7SM FEW015 OVC030 04/02 A2998 920 89 -100 200/12G23 RMK AO2 T00390022
04850KAOH AOH20161224010513012/24/16 01:05:31  5-MIN KAOH 240605Z AUTO 20013G23KT 7SM FEW015 BKN026 OVC032 04/02 A2998 920 89 -100 200/13G23 RMK AO2 T00390022
04850KAOH AOH20161224011014912/24/16 01:10:31  5-MIN KAOH 240610Z AUTO 20013G22KT 6SM -RA BR FEW015 BKN025 OVC031 04/02 A2998 920 89 -100 200/13G22 RMK AO2 RAB08 P0000 T00390022
04850KAOH AOH20161224011514312/24/16 01:15:31  5-MIN KAOH 240615Z AUTO 20012KT 5SM -RA BR SCT015 BKN023 OVC029 04/03 A2997 930 92 -100 200/12 RMK AO2 RAB08 P0000 T00390028
04850KAOH AOH20161224012014312/24/16 01:20:31  5-MIN KAOH 240620Z AUTO 19012KT 5SM -RA BR FEW010 BKN023 OVC029 03/03 A2996 940 96 -200 200/12 RMK AO2 RAB08 P0000 T00330028
04850KAOH AOH20161224012514312/24/16 01:25:31  5-MIN KAOH 240625Z AUTO 19012KT 5SM -RA BR SCT012 SCT017 OVC026 03/03 A2996 940 96 -200 190/12 RMK AO2 RAB08 P0000 T00330028
04850KAOH AOH20161224013014312/24/16 01:30:31  5-MIN KAOH 240630Z AUTO 19013KT 5SM -RA BR SCT010 BKN026 OVC036 03/03 A2995 950 96 -100 190/13 RMK AO2 RAB08 P0000 T00330028
04850KAOH AOH20161224013514312/24/16 01:35:31  5-MIN KAOH 240635Z AUTO 19011KT 5SM -RA BR SCT010 BKN023 OVC036 03/03 A2995 950 96 -200 200/11 RMK AO2 RAB08 P0000 T00330028
04850KAOH AOH20161224014014312/24/16 01:40:31  5-MIN KAOH 240640Z AUTO 19012KT 6SM -RA BR SCT010 BKN015 OVC026 03/03 A2996 940 96 -200 200/12 RMK AO2 RAB08 P0000 T00330028
04850KAOH AOH20161224014514212/24/16 01:45:31  5-MIN KAOH 240645Z AUTO 19012KT 6SM BR SCT010 BKN015 OVC028 03/03 A2996 950 96 -200 190/12 RMK AO2 RAB08E43 P0000 T00330028
04850KAOH AOH20161224015015012/24/16 01:50:31  5-MIN KAOH 240650Z AUTO 19012KT 4SM -RA BR SCT010 BKN015 OVC028 03/03 A2995 950 96 -100 190/12 RMK AO2 RAB08 SLP149 P0000 T00330028
04850KAOH AOH20161224015513712/24/16 01:55:31  5-MIN KAOH 240655Z AUTO 19011KT 4SM -RA BR BKN010 BKN015 OVC028 03/03 A2995 950 96 -100 200/11 RMK AO2 P0000 T00330028
04850KAOH AOH20161224020013812/24/16 02:00:31  5-MIN KAOH 240700Z AUTO 20011KT 4SM -RA BR BKN010 BKN014 OVC020 03/03 A2995 950 100 -200 200/11 RMK AO2 P0000 T00330033
04850KAOH AOH20161224020513312/24/16 02:05:31  5-MIN KAOH 240705Z AUTO 20010KT 4SM BR BKN008 OVC014 03/03 A2996 940 100 -200 200/10 RMK AO2 RAE04 P0000 T00330033
04850KAOH AOH20161224021012612/24/16 02:10:31  5-MIN KAOH 240710Z AUTO 20010KT 4SM BR OVC008 03/03 A2996 940 100 -200 210/10 RMK AO2 RAE04 P0000 T00330033
04850KAOH AOH20161224021514412/24/16 02:15:31  5-MIN KAOH 240715Z AUTO 20013G17KT 4SM BR OVC008 03/03 A2996 940 100 -200 210/13G17 RMK AO2 RAE04 CIG 005V011 P0000 T00330033
04850KAOH AOH20161224022013712/24/16 02:20:31  5-MIN KAOH 240720Z AUTO 20010KT 4SM BR OVC006 04/03 A2996 940 96 -100 210/10 RMK AO2 RAE04 CIG 005V011 P0000 T00390033
04850KAOH AOH20161224022513712/24/16 02:25:31  5-MIN KAOH 240725Z AUTO 20011KT 3SM BR OVC006 04/03 A2996 940 96 -100 210/11 RMK AO2 RAE04 CIG 005V010 P0000 T00390033
04850KAOH AOH20161224023014512/24/16 02:30:31  5-MIN KAOH 240730Z AUTO 20012KT 3SM -RA BR OVC006 03/03 A2996 940 100 -200 210/12 RMK AO2 RAE04B29 CIG 005V010 P0000 T00330033
04850KAOH AOH20161224023513312/24/16 02:35:31  5-MIN KAOH 240735Z AUTO 20010KT 3SM -RA BR OVC006 03/03 A2996 940 100 -200 200/10 RMK AO2 RAE04B29 P0000 T00330033
04850KAOH AOH20161224024013212/24/16 02:40:31  5-MIN KAOH 240740Z AUTO 20012KT 3SM -RA BR OVC006 04/03 A2996 940 96 -100 210/12 RMK AO2 RAE04B29 P0000 T00390033
04850KAOH AOH20161224024513212/24/16 02:45:31  5-MIN KAOH 240745Z AUTO 20012KT 3SM -RA BR OVC006 04/03 A2996 940 96 -100 210/12 RMK AO2 RAE04B29 P0000 T00390033
04850KAOH AOH20161224025013912/24/16 02:50:31  5-MIN KAOH 240750Z AUTO 21012KT 3SM -RA BR OVC006 04/03 A2996 940 96 -100 210/12 RMK AO2 RAE04B29 SLP154 P0000 T00390033
04850KAOH AOH20161224025512912/24/16 02:55:31  5-MIN KAOH 240755Z AUTO 21013G19KT 4SM -RA BR OVC005 04/03 A2997 930 96 -100 210/13G19 RMK AO2 P0000 T00390033
04850KAOH AOH20161224030013312/24/16 03:00:31  5-MIN KAOH 240800Z AUTO 20012G19KT 4SM BR OVC005 04/03 A2997 930 96 -100 210/12G19 RMK AO2 RAE0758 P0000 T00390033
04850KAOH AOH20161224030512712/24/16 03:05:31  5-MIN KAOH 240805Z AUTO 21011KT 3SM BR OVC005 04/03 A2997 930 96 -100 220/11 RMK AO2 RAE0758 P0000 T00390033
04850KAOH AOH20161224031013412/24/16 03:10:31  5-MIN KAOH 240810Z AUTO 21012G18KT 3SM BR OVC005 04/04 A2997 930 100 -100 210/12G18 RMK AO2 RAE0758 P0000 T00390039
04850KAOH AOH20161224031512812/24/16 03:15:31  5-MIN KAOH 240815Z AUTO 20011KT 3SM BR OVC005 04/04 A2997 930 100 -100 210/11 RMK AO2 RAE0758 P0000 T00390039
04850KAOH AOH20161224032012812/24/16 03:20:31  5-MIN KAOH 240820Z AUTO 21012KT 3SM BR OVC005 04/04 A2998 920 100 -100 210/12 RMK AO2 RAE0758 P0000 T00390039
04850KAOH AOH20161224032512812/24/16 03:25:31  5-MIN KAOH 240825Z AUTO 21011KT 3SM BR OVC005 04/04 A2998 920 100 -100 210/11 RMK AO2 RAE0758 P0000 T00390039
04850KAOH AOH20161224033013212/24/16 03:30:31  5-MIN KAOH 240830Z AUTO 22010KT 2 1/2SM BR OVC005 04/04 A2998 920 100 -100 220/10 RMK AO2 RAE0758 P0000 T00390039
04850KAOH AOH20161224033513212/24/16 03:35:31  5-MIN KAOH 240835Z AUTO 22010KT 2 1/2SM BR OVC004 04/04 A2998 920 100 -100 220/10 RMK AO2 RAE0758 P0000 T00390039
04850KAOH AOH20161224034013212/24/16 03:40:31  5-MIN KAOH 240840Z AUTO 22010KT 2 1/2SM BR OVC004 04/04 A2998 920 100 -100 220/10 RMK AO2 RAE0758 P0000 T00390039
04850KAOH AOH20161224034513212/24/16 03:45:31  5-MIN KAOH 240845Z AUTO 21010KT 2 1/2SM BR OVC004 04/04 A2998 930 100 -100 220/10 RMK AO2 RAE0758 P0000 T00390039
04850KAOH AOH20161224035015112/24/16 03:50:31  5-MIN KAOH 240850Z AUTO 22011KT 2 1/2SM BR OVC004 04/04 A2998 920 100 -100 220/11 RMK AO2 RAE0758 SLP160 P0000 60000 T00390039 58021
04850KAOH AOH20161224035511812/24/16 03:55:31  5-MIN KAOH 240855Z AUTO 21010KT 2 1/2SM BR OVC004 04/04 A2998 920 100 -100 220/10 RMK AO2 T00390039
04850KAOH AOH20161224040011812/24/16 04:00:31  5-MIN KAOH 240900Z AUTO 21011KT 2 1/2SM BR OVC004 04/04 A2998 920 100 -100 220/11 RMK AO2 T00390039
04850KAOH AOH20161224040511812/24/16 04:05:31  5-MIN KAOH 240905Z AUTO 21011KT 2 1/2SM BR OVC004 04/04 A2998 920 100 -100 220/11 RMK AO2 T00390039
04850KAOH AOH20161224041013412/24/16 04:10:31  5-MIN KAOH 240910Z AUTO 22011KT 2 1/2SM -RA BR OVC004 04/04 A2998 920 100 -100 220/11 RMK AO2 RAB09 P0000 T00390039
04850KAOH AOH20161224041513412/24/16 04:15:31  5-MIN KAOH 240915Z AUTO 22011KT 2 1/2SM -RA BR OVC004 04/04 A2998 920 100 -100 220/11 RMK AO2 RAB09 P0000 T00390039
04850KAOH AOH20161224042013412/24/16 04:20:31  5-MIN KAOH 240920Z AUTO 21010KT 2 1/2SM -RA BR OVC004 04/04 A2998 930 100 -100 220/10 RMK AO2 RAB09 P0000 T00390039
04850KAOH AOH20161224042513412/24/16 04:25:31  5-MIN KAOH 240925Z AUTO 21010KT 2 1/2SM -RA BR OVC004 04/04 A2997 930 100 -100 220/10 RMK AO2 RAB09 P0000 T00390039
04850KAOH AOH20161224043013412/24/16 04:30:31  5-MIN KAOH 240930Z AUTO 21010KT 2 1/2SM -RA BR OVC004 04/04 A2997 930 100 -100 220/10 RMK AO2 RAB09 P0000 T00390039
04850KAOH AOH20161224043513412/24/16 04:35:31  5-MIN KAOH 240935Z AUTO 22009KT 2 1/2SM -RA BR OVC004 04/04 A2997 930 100 -100 220/09 RMK AO2 RAB09 P0000 T00390039
04850KAOH AOH20161224044013312/24/16 04:40:31  5-MIN KAOH 240940Z AUTO 22011KT 2 1/2SM BR OVC004 04/04 A2998 930 100 -100 220/11 RMK AO2 RAB09E39 P0000 T00390039
04850KAOH AOH20161224044512912/24/16 04:45:31  5-MIN KAOH 240945Z AUTO 22010KT 3SM BR OVC004 04/04 A2998 920 100 -100 220/10 RMK AO2 RAB09E39 P0000 T00390039
04850KAOH AOH20161224045013612/24/16 04:50:31  5-MIN KAOH 240950Z AUTO 22011KT 3SM BR OVC004 04/04 A2999 910 100 -100 220/11 RMK AO2 RAB09E39 SLP163 P0000 T00390039
04850KAOH AOH20161224045511412/24/16 04:55:31  5-MIN KAOH 240955Z AUTO 22010KT 3SM BR OVC004 04/04 A2999 910 100 -100 230/10 RMK AO2 T00390039
04850KAOH AOH20161224050011412/24/16 05:00:31  5-MIN KAOH 241000Z AUTO 22009KT 3SM BR OVC004 04/04 A2999 920 100 -100 230/09 RMK AO2 T00390039
04850KAOH AOH20161224050511412/24/16 05:05:31  5-MIN KAOH 241005Z AUTO 22009KT 3SM BR OVC004 04/04 A2998 920 100 -100 230/09 RMK AO2 T00390039
04850KAOH AOH20161224051011412/24/16 05:10:31  5-MIN KAOH 241010Z AUTO 23010KT 3SM BR OVC004 04/04 A2999 920 100 -100 230/10 RMK AO2 T00390039
04850KAOH AOH20161224051511112/24/16 05:15:31  5-MIN KAOH 241015Z AUTO 23011KT 3SM BR OVC004 04/04 A2999 920 100 0 230/11 RMK AO2 T00440044
04850KAOH AOH20161224052011112/24/16 05:20:31  5-MIN KAOH 241020Z AUTO 23011KT 3SM BR OVC004 04/04 A2999 920 100 0 240/11 RMK AO2 T00440044
04850KAOH AOH20161224052511412/24/16 05:25:31  5-MIN KAOH 241025Z AUTO 24012KT 4SM BR OVC004 04/04 A2999 910 100 -100 240/12 RMK AO2 T00440044
04850KAOH AOH20161224053011412/24/16 05:30:31  5-MIN KAOH 241030Z AUTO 24012KT 4SM BR OVC004 04/04 A2999 910 100 -100 240/12 RMK AO2 T00440044
04850KAOH AOH20161224053511412/24/16 05:35:31  5-MIN KAOH 241035Z AUTO 24012KT 3SM BR OVC004 04/04 A3000 910 100 -100 240/12 RMK AO2 T00440044
04850KAOH AOH20161224054011412/24/16 05:40:31  5-MIN KAOH 241040Z AUTO 24011KT 3SM BR OVC004 04/04 A3000 900 100 -100 250/11 RMK AO2 T00440044
04850KAOH AOH20161224054511412/24/16 05:45:31  5-MIN KAOH 241045Z AUTO 25010KT 3SM BR OVC004 04/04 A3000 900 100 -100 250/10 RMK AO2 T00440044
04850KAOH AOH20161224055012112/24/16 05:50:31  5-MIN KAOH 241050Z AUTO 25009KT 4SM BR OVC004 04/04 A3000 900 100 -100 260/09 RMK AO2 SLP167 T00390039
04850KAOH AOH20161224055511412/24/16 05:55:31  5-MIN KAOH 241055Z AUTO 25010KT 4SM BR OVC004 04/04 A3001 900 100 -100 260/10 RMK AO2 T00390039
04850KAOH AOH20161224060011412/24/16 06:00:31  5-MIN KAOH 241100Z AUTO 26010KT 4SM BR OVC004 04/04 A3001 900 100 -100 270/10 RMK AO2 T00390039
04850KAOH AOH20161224060511412/24/16 06:05:31  5-MIN KAOH 241105Z AUTO 26010KT 4SM BR OVC004 04/04 A3001 900 100 -100 270/10 RMK AO2 T00390039
04850KAOH AOH20161224061011412/24/16 06:10:31  5-MIN KAOH 241110Z AUTO 27010KT 3SM BR OVC004 04/04 A3001 890 100 -100 270/10 RMK AO2 T00390039
04850KAOH AOH20161224061513312/24/16 06:15:31  5-MIN KAOH 241115Z AUTO 27013KT 4SM BR BKN004 OVC010 04/04 A3002 890 100 -200 270/13 RMK AO2 CIG 003V007 T00390039
04850KAOH AOH20161224062013612/24/16 06:20:31  5-MIN KAOH 241120Z AUTO 28017G20KT 7SM BKN004 OVC010 04/04 A3002 880 100 -200 280/17G20 RMK AO2 CIG 003V007 T00390039
04850KAOH AOH20161224062513512/24/16 06:25:31  5-MIN KAOH 241125Z AUTO 29014G20KT 9SM BKN005 OVC010 04/03 A3003 880 96 -200 290/14G20 RMK AO2 CIG 003V007 T00390033
04850KAOH AOH20161224063012212/24/16 06:30:31  5-MIN KAOH 241130Z AUTO 28011KT 9SM OVC005 04/03 A3003 880 96 -200 290/11 RMK AO2 CIG 003V010 T00390033
04850KAOH AOH20161224063512912/24/16 06:35:31  5-MIN KAOH 241135Z AUTO 28013KT 9SM BKN007 OVC011 04/03 A3003 870 96 -200 280/13 RMK AO2 CIG 003V010 T00390033
04850KAOH AOH20161224064011812/24/16 06:40:31  5-MIN KAOH 241140Z AUTO 28014KT 9SM BKN007 OVC011 03/03 A3003 870 100 -200 290/14 RMK AO2 T00330033
04850KAOH AOH20161224064512312/24/16 06:45:31  5-MIN KAOH 241145Z AUTO 29014G18KT 9SM BKN007 OVC011 04/03 A3004 870 96 -200 290/14G18 RMK AO2 T00390033
04850KAOH AOH20161224065016012/24/16 06:50:31  5-MIN KAOH 241150Z AUTO 29015KT 10SM OVC009 03/03 A3005 860 96 -300 290/15 RMK AO2 CIG 006V013 SLP183 60000 70004 T00330028 10044 20033 53001
04850KAOH AOH20161224065513712/24/16 06:55:31  5-MIN KAOH 241155Z AUTO 28014KT 10SM BKN009 OVC014 03/03 A3005 850 96 -300 290/14 RMK AO2 CIG 006V011 PRESRR T00330028
04850KAOH AOH20161224070013012/24/16 07:00:31  5-MIN KAOH 241200Z AUTO 29015KT 10SM BKN009 OVC014 03/03 A3006 850 96 -300 290/15 RMK AO2 CIG 006V010 T00330028
04850KAOH AOH20161224070513012/24/16 07:05:31  5-MIN KAOH 241205Z AUTO 29013KT 10SM BKN009 OVC014 03/03 A3006 850 96 -300 290/13 RMK AO2 CIG 006V011 T00330028
04850KAOH AOH20161224071013012/24/16 07:10:31  5-MIN KAOH 241210Z AUTO 29014KT 10SM BKN009 OVC016 03/03 A3006 850 96 -300 290/14 RMK AO2 CIG 007V012 T00330028
04850KAOH AOH20161224071512912/24/16 07:15:31  5-MIN KAOH 241215Z AUTO 29013KT 9SM BKN009 OVC013 03/03 A3006 850 96 -300 290/13 RMK AO2 CIG 007V010 T00330028
04850KAOH AOH20161224072012912/24/16 07:20:31  5-MIN KAOH 241220Z AUTO 28012KT 9SM BKN008 OVC013 03/03 A3007 840 96 -300 290/12 RMK AO2 CIG 006V010 T00330028
04850KAOH AOH20161224072512912/24/16 07:25:31  5-MIN KAOH 241225Z AUTO 29012KT 8SM BKN008 OVC013 03/03 A3007 840 96 -300 290/12 RMK AO2 CIG 006V012 T00330028
04850KAOH AOH20161224073012912/24/16 07:30:31  5-MIN KAOH 241230Z AUTO 29012KT 7SM BKN008 OVC013 03/03 A3007 840 96 -300 290/12 RMK AO2 CIG 006V010 T00330028
04850KAOH AOH20161224073512612/24/16 07:35:31  5-MIN KAOH 241235Z AUTO 29012KT 6SM BR OVC008 03/03 A3008 830 100 -400 290/12 RMK AO2 CIG 006V010 T00280028
04850KAOH AOH20161224074012512/24/16 07:40:31  5-MIN KAOH 241240Z AUTO 28010KT 6SM BR OVC008 03/02 A3008 830 96 -400 290/10 RMK AO2 CIG 006V010 T00280022
04850KAOH AOH20161224074512312/24/16 07:45:31  5-MIN KAOH 241245Z AUTO 28011KT 7SM OVC008 03/03 A3008 830 100 -400 290/11 RMK AO2 CIG 005V010 T00280028
04850KAOH AOH20161224075011812/24/16 07:50:31  5-MIN KAOH 241250Z AUTO 28010KT 8SM OVC007 03/03 A3009 820 100 -400 290/10 RMK AO2 SLP196 T00280028
04850KAOH AOH20161224075511112/24/16 07:55:31  5-MIN KAOH 241255Z AUTO 29010KT 8SM OVC007 03/03 A3009 820 100 -400 290/10 RMK AO2 T00280028
04850KAOH AOH20161224080011012/24/16 08:00:31  5-MIN KAOH 241300Z AUTO 29010KT 8SM OVC007 03/02 A3009 820 96 -400 290/10 RMK AO2 T00280022
04850KAOH AOH20161224080511012/24/16 08:05:31  5-MIN KAOH 241305Z AUTO 29009KT 8SM OVC007 03/02 A3010 810 96 -400 290/09 RMK AO2 T00280022
04850KAOH AOH20161224081011012/24/16 08:10:31  5-MIN KAOH 241310Z AUTO 29009KT 8SM OVC007 03/02 A3010 810 96 -400 300/09 RMK AO2 T00280022
04850KAOH AOH20161224081511012/24/16 08:15:31  5-MIN KAOH 241315Z AUTO 29010KT 9SM OVC006 03/02 A3010 810 96 -400 290/10 RMK AO2 T00280022
04850KAOH AOH20161224082011012/24/16 08:20:31  5-MIN KAOH 241320Z AUTO 29008KT 9SM OVC006 03/02 A3011 800 96 -400 300/08 RMK AO2 T00280022
04850KAOH AOH20161224082511012/24/16 08:25:31  5-MIN KAOH 241325Z AUTO 28009KT 8SM OVC006 03/02 A3011 800 96 -400 290/09 RMK AO2 T00280022
04850KAOH AOH20161224083011012/24/16 08:30:31  5-MIN KAOH 241330Z AUTO 28009KT 7SM OVC006 03/02 A3012 800 96 -400 290/09 RMK AO2 T00280022
04850KAOH AOH20161224083511012/24/16 08:35:31  5-MIN KAOH 241335Z AUTO 27008KT 7SM OVC006 03/02 A3012 800 96 -400 280/08 RMK AO2 T00280022
04850KAOH AOH20161224084011312/24/16 08:40:31  5-MIN KAOH 241340Z AUTO 27008KT 6SM BR OVC006 03/02 A3011 800 96 -400 280/08 RMK AO2 T00280022
04850KAOH AOH20161224084512612/24/16 08:45:31  5-MIN KAOH 241345Z AUTO 29010KT 6SM BR OVC006 02/02 A3012 790 100 -500 300/10 RMK AO2 CIG 005V010 T00220022
04850KAOH AOH20161224085011712/24/16 08:50:31  5-MIN KAOH 241350Z AUTO 30010KT 7SM OVC006 03/02 A3013 790 96 -400 310/10 RMK AO2 SLP209 T00280022
04850KAOH AOH20161224085512212/24/16 08:55:31  5-MIN KAOH 241355Z AUTO 29011KT 7SM OVC006 03/02 A3013 790 96 -400 300/11 RMK AO2 CIG 005V010 T00280022
04850KAOH AOH20161224090011012/24/16 09:00:31  5-MIN KAOH 241400Z AUTO 29011KT 7SM OVC006 03/02 A3013 780 96 -400 290/11 RMK AO2 T00280022
04850KAOH AOH20161224090511112/24/16 09:05:31  5-MIN KAOH 241405Z AUTO 29009KT 7SM OVC006 02/02 A3014 770 100 -500 290/09 RMK AO2 T00220022
04850KAOH AOH20161224091013312/24/16 09:10:31  5-MIN KAOH 241410Z AUTO 28008KT 6SM BR OVC006 02/02 A3015 770 100 -500 290/08 RMK AO2 CIG 005V009 PRESRR T00220022
04850KAOH AOH20161224091512112/24/16 09:15:31  5-MIN KAOH 241415Z AUTO 28010KT 6SM BR OVC006 02/02 A3016 760 100 -500 290/10 RMK AO2 PRESRR T00220022
04850KAOH AOH20161224092011412/24/16 09:20:31  5-MIN KAOH 241420Z AUTO 29010KT 6SM BR OVC005 02/02 A3016 760 100 -500 300/10 RMK AO2 T00220022
04850KAOH AOH20161224092511412/24/16 09:25:31  5-MIN KAOH 241425Z AUTO 29009KT 6SM BR OVC005 02/02 A3016 750 100 -500 300/09 RMK AO2 T00220022
04850KAOH AOH20161224093011412/24/16 09:30:31  5-MIN KAOH 241430Z AUTO 29009KT 5SM BR OVC005 02/02 A3016 750 100 -500 300/09 RMK AO2 T00220022
04850KAOH AOH20161224093511412/24/16 09:35:31  5-MIN KAOH 241435Z AUTO 29007KT 5SM BR OVC005 02/02 A3017 750 100 -500 300/07 RMK AO2 T00220022
04850KAOH AOH20161224094011412/24/16 09:40:31  5-MIN KAOH 241440Z AUTO 30007KT 5SM BR OVC005 02/02 A3017 750 100 -500 310/07 RMK AO2 T00220022
04850KAOH AOH20161224094511412/24/16 09:45:31  5-MIN KAOH 241445Z AUTO 29007KT 5SM BR OVC005 02/02 A3017 750 100 -500 300/07 RMK AO2 T00220022
04850KAOH AOH20161224095012712/24/16 09:50:31  5-MIN KAOH 241450Z AUTO 30006KT 5SM BR OVC005 02/02 A3017 750 100 -500 310/06 RMK AO2 SLP224 T00220022 53020
04850KAOH AOH20161224095511412/24/16 09:55:31  5-MIN KAOH 241455Z AUTO 30007KT 5SM BR OVC005 02/02 A3017 740 100 -500 300/07 RMK AO2 T00220022
04850KAOH AOH20161224100011412/24/16 10:00:31  5-MIN KAOH 241500Z AUTO 30007KT 5SM BR OVC005 02/02 A3018 740 100 -500 310/07 RMK AO2 T00220022
04850KAOH AOH20161224100511412/24/16 10:05:31  5-MIN KAOH 241505Z AUTO 30008KT 5SM BR OVC005 02/02 A3019 730 100 -600 310/08 RMK AO2 T00220022
04850KAOH AOH20161224101012612/24/16 10:10:31  5-MIN KAOH 241510Z AUTO 31010KT 5SM BR OVC005 02/02 A3019 730 100 -600 320/10 RMK AO2 CIG 004V008 T00220022
04850KAOH AOH20161224101511312/24/16 10:15:31  5-MIN KAOH 241515Z AUTO 33010KT 6SM BR OVC005 02/02 A3019 730 96 -600 330/10 RMK AO2 T00220017
04850KAOH AOH20161224102011012/24/16 10:20:31  5-MIN KAOH 241520Z AUTO 32009KT 7SM OVC005 02/02 A3020 720 96 -600 330/09 RMK AO2 T00220017
04850KAOH AOH20161224102511012/24/16 10:25:31  5-MIN KAOH 241525Z AUTO 32009KT 7SM OVC006 02/02 A3020 720 96 -600 320/09 RMK AO2 T00220017
04850KAOH AOH20161224103011012/24/16 10:30:31  5-MIN KAOH 241530Z AUTO 32008KT 7SM OVC006 02/02 A3020 720 96 -600 330/08 RMK AO2 T00220017
04850KAOH AOH20161224103511012/24/16 10:35:31  5-MIN KAOH 241535Z AUTO 31010KT 8SM OVC006 02/02 A3020 720 96 -600 320/10 RMK AO2 T00220017
04850KAOH AOH20161224104011012/24/16 10:40:31  5-MIN KAOH 241540Z AUTO 33007KT 8SM OVC006 02/02 A3020 720 96 -600 330/07 RMK AO2 T00220017
04850KAOH AOH20161224104511012/24/16 10:45:31  5-MIN KAOH 241545Z AUTO 32008KT 8SM OVC007 02/02 A3021 710 96 -600 330/08 RMK AO2 T00220017
04850KAOH AOH20161224105011712/24/16 10:50:31  5-MIN KAOH 241550Z AUTO 33008KT 9SM OVC007 02/02 A3021 710 96 -600 340/08 RMK AO2 SLP238 T00220017
04850KAOH AOH20161224105511112/24/16 10:55:31  5-MIN KAOH 241555Z AUTO 31007KT 10SM OVC007 02/02 A3022 700 96 -600 320/07 RMK AO2 T00220017
04850KAOH AOH20161224110011112/24/16 11:00:31  5-MIN KAOH 241600Z AUTO 31008KT 10SM OVC007 02/02 A3022 700 96 -600 310/08 RMK AO2 T00220017
04850KAOH AOH20161224110511112/24/16 11:05:31  5-MIN KAOH 241605Z AUTO 30008KT 10SM OVC007 02/02 A3022 700 96 -600 300/08 RMK AO2 T00220017
04850KAOH AOH20161224111011112/24/16 11:10:31  5-MIN KAOH 241610Z AUTO 29008KT 10SM OVC007 02/02 A3022 700 96 -600 290/08 RMK AO2 T00220017
04850KAOH AOH20161224111511112/24/16 11:15:31  5-MIN KAOH 241615Z AUTO 29009KT 10SM OVC009 02/02 A3022 700 96 -600 300/09 RMK AO2 T00220017
04850KAOH AOH20161224112011112/24/16 11:20:31  5-MIN KAOH 241620Z AUTO 30005KT 10SM OVC009 02/02 A3022 700 96 -600 300/05 RMK AO2 T00220017
04850KAOH AOH20161224112511012/24/16 11:25:31  5-MIN KAOH 241625Z AUTO 30008KT 9SM OVC008 02/02 A3022 700 96 -600 310/08 RMK AO2 T00220017
04850KAOH AOH20161224113011012/24/16 11:30:31  5-MIN KAOH 241630Z AUTO 30008KT 9SM OVC008 02/02 A3022 700 96 -600 300/08 RMK AO2 T00220017
04850KAOH AOH20161224113511012/24/16 11:35:31  5-MIN KAOH 241635Z AUTO 30010KT 9SM OVC008 02/02 A3022 700 96 -600 310/10 RMK AO2 T00220017
04850KAOH AOH20161224114011012/24/16 11:40:31  5-MIN KAOH 241640Z AUTO 31009KT 9SM OVC008 02/02 A3022 700 96 -600 320/09 RMK AO2 T00220017
04850KAOH AOH20161224114511012/24/16 11:45:31  5-MIN KAOH 241645Z AUTO 29010KT 9SM OVC008 02/01 A3022 710 92 -600 300/10 RMK AO2 T00220011
04850KAOH AOH20161224115011712/24/16 11:50:31  5-MIN KAOH 241650Z AUTO 31009KT 8SM OVC008 02/01 A3022 710 92 -600 310/09 RMK AO2 SLP239 T00220011
04850KAOH AOH20161224115512212/24/16 11:55:31  5-MIN KAOH 241655Z AUTO 32008KT 7SM OVC008 02/01 A3021 710 92 -600 330/08 RMK AO2 CIG 007V012 T00220011
04850KAOH AOH20161224120012212/24/16 12:00:31  5-MIN KAOH 241700Z AUTO 32008KT 8SM OVC008 02/01 A3021 710 92 -600 320/08 RMK AO2 CIG 007V012 T00220011
04850KAOH AOH20161224120513012/24/16 12:05:31  5-MIN KAOH 241705Z AUTO 30006KT 10SM BKN008 OVC014 02/02 A3021 710 96 -600 310/06 RMK AO2 CIG 007V011 T00220017
04850KAOH AOH20161224121013012/24/16 12:10:31  5-MIN KAOH 241710Z AUTO 30006KT 10SM BKN008 OVC014 02/02 A3021 710 96 -600 310/06 RMK AO2 CIG 007V012 T00220017
04850KAOH AOH20161224121511812/24/16 12:15:31  5-MIN KAOH 241715Z AUTO 28005KT 10SM SCT008 OVC014 02/02 A3021 710 96 -600 290/05 RMK AO2 T00220017
04850KAOH AOH20161224122011112/24/16 12:20:31  5-MIN KAOH 241720Z AUTO 28005KT 10SM OVC012 03/02 A3022 700 92 -500 290/05 RMK AO2 T00280017
04850KAOH AOH20161224122511112/24/16 12:25:31  5-MIN KAOH 241725Z AUTO 29006KT 10SM OVC012 03/02 A3022 700 92 -500 300/06 RMK AO2 T00280017
04850KAOH AOH20161224123011112/24/16 12:30:31  5-MIN KAOH 241730Z AUTO 29006KT 10SM OVC012 03/02 A3022 700 92 -500 300/06 RMK AO2 T00280017
04850KAOH AOH20161224123511112/24/16 12:35:31  5-MIN KAOH 241735Z AUTO 30004KT 10SM OVC012 03/02 A3022 700 92 -500 300/04 RMK AO2 T00280017
04850KAOH AOH20161224124011112/24/16 12:40:31  5-MIN KAOH 241740Z AUTO 31006KT 10SM OVC012 03/02 A3022 700 92 -500 310/06 RMK AO2 T00280017
04850KAOH AOH20161224124511112/24/16 12:45:31  5-MIN KAOH 241745Z AUTO 28005KT 10SM OVC012 03/02 A3022 700 92 -500 290/05 RMK AO2 T00280017
04850KAOH AOH20161224125013612/24/16 12:50:31  5-MIN KAOH 241750Z AUTO 27008KT 10SM OVC012 03/01 A3022 700 89 -500 280/08 RMK AO2 SLP240 T00280011 10033 20022 53041
04850KAOH AOH20161224125511112/24/16 12:55:31  5-MIN KAOH 241755Z AUTO 30006KT 10SM OVC012 03/01 A3022 700 89 -500 300/06 RMK AO2 T00280011
04850KAOH AOH20161224130011112/24/16 13:00:31  5-MIN KAOH 241800Z AUTO 28006KT 10SM OVC012 03/01 A3022 700 89 -500 290/06 RMK AO2 T00280011
04850KAOH AOH20161224130511112/24/16 13:05:31  5-MIN KAOH 241805Z AUTO 30005KT 10SM OVC012 03/01 A3022 700 89 -500 310/05 RMK AO2 T00280011
04850KAOH AOH20161224131011112/24/16 13:10:31  5-MIN KAOH 241810Z AUTO 30005KT 10SM OVC012 03/01 A3022 700 89 -500 300/05 RMK AO2 T00280011
04850KAOH AOH20161224131511112/24/16 13:15:31  5-MIN KAOH 241815Z AUTO 30005KT 10SM OVC012 03/01 A3022 700 89 -500 310/05 RMK AO2 T00280011
04850KAOH AOH20161224132011112/24/16 13:20:31  5-MIN KAOH 241820Z AUTO 32007KT 10SM OVC012 02/01 A3022 700 92 -600 320/07 RMK AO2 T00220011
04850KAOH AOH20161224132511112/24/16 13:25:31  5-MIN KAOH 241825Z AUTO 32006KT 10SM OVC012 02/01 A3022 700 92 -600 330/06 RMK AO2 T00220011
04850KAOH AOH20161224133011112/24/16 13:30:31  5-MIN KAOH 241830Z AUTO 33006KT 10SM OVC012 02/01 A3022 700 92 -600 340/06 RMK AO2 T00220011
04850KAOH AOH20161224133511112/24/16 13:35:31  5-MIN KAOH 241835Z AUTO 32008KT 10SM OVC012 02/01 A3022 700 92 -600 320/08 RMK AO2 T00220011
04850KAOH AOH20161224134011112/24/16 13:40:31  5-MIN KAOH 241840Z AUTO 32008KT 10SM OVC012 02/01 A3021 710 92 -600 320/08 RMK AO2 T00220011
04850KAOH AOH20161224134511112/24/16 13:45:31  5-MIN KAOH 241845Z AUTO 34005KT 10SM OVC012 02/01 A3022 710 92 -600 350/05 RMK AO2 T00220011
04850KAOH AOH20161224135011812/24/16 13:50:31  5-MIN KAOH 241850Z AUTO 34006KT 10SM OVC012 02/01 A3022 700 92 -600 350/06 RMK AO2 SLP240 T00220011
04850KAOH AOH20161224135511112/24/16 13:55:31  5-MIN KAOH 241855Z AUTO 32006KT 10SM OVC012 02/01 A3021 710 92 -600 330/06 RMK AO2 T00220011
04850KAOH AOH20161224140011112/24/16 14:00:31  5-MIN KAOH 241900Z AUTO 32006KT 10SM OVC011 02/01 A3021 710 92 -600 330/06 RMK AO2 T00220011
04850KAOH AOH20161224140511112/24/16 14:05:31  5-MIN KAOH 241905Z AUTO 32007KT 10SM OVC011 02/01 A3022 710 92 -600 320/07 RMK AO2 T00220011
04850KAOH AOH20161224141011112/24/16 14:10:31  5-MIN KAOH 241910Z AUTO 30005KT 10SM OVC011 02/01 A3022 700 92 -600 310/05 RMK AO2 T00220011
04850KAOH AOH20161224141511112/24/16 14:15:31  5-MIN KAOH 241915Z AUTO 29005KT 10SM OVC011 02/01 A3022 700 89 -600 300/05 RMK AO2 T00220006
04850KAOH AOH20161224142011112/24/16 14:20:31  5-MIN KAOH 241920Z AUTO 29007KT 10SM OVC011 02/01 A3022 700 92 -600 290/07 RMK AO2 T00220011
04850KAOH AOH20161224142511112/24/16 14:25:31  5-MIN KAOH 241925Z AUTO 30006KT 10SM OVC011 02/01 A3022 700 89 -600 310/06 RMK AO2 T00220006
04850KAOH AOH20161224143011112/24/16 14:30:31  5-MIN KAOH 241930Z AUTO 31007KT 10SM OVC011 02/01 A3022 700 92 -600 320/07 RMK AO2 T00220011
04850KAOH AOH20161224143511112/24/16 14:35:31  5-MIN KAOH 241935Z AUTO 32006KT 10SM OVC011 02/01 A3023 690 92 -600 330/06 RMK AO2 T00220011
04850KAOH AOH20161224144011112/24/16 14:40:31  5-MIN KAOH 241940Z AUTO 32007KT 10SM OVC011 02/01 A3023 690 89 -600 320/07 RMK AO2 T00220006
04850KAOH AOH20161224144511112/24/16 14:45:31  5-MIN KAOH 241945Z AUTO 31005KT 10SM OVC011 02/01 A3024 690 89 -600 320/05 RMK AO2 T00220006
04850KAOH AOH20161224145011812/24/16 14:50:31  5-MIN KAOH 241950Z AUTO 33006KT 10SM OVC011 02/01 A3024 690 89 -600 330/06 RMK AO2 SLP246 T00220006
04850KAOH AOH20161224145511112/24/16 14:55:31  5-MIN KAOH 241955Z AUTO 31007KT 10SM OVC011 02/01 A3024 680 89 -600 320/07 RMK AO2 T00220006
04850KAOH AOH20161224150011112/24/16 15:00:31  5-MIN KAOH 242000Z AUTO 31005KT 10SM OVC011 02/01 A3024 680 89 -600 320/05 RMK AO2 T00220006
04850KAOH AOH20161224150511112/24/16 15:05:31  5-MIN KAOH 242005Z AUTO 34004KT 10SM OVC010 02/01 A3025 680 92 -600 340/04 RMK AO2 T00220011
04850KAOH AOH20161224151011112/24/16 15:10:31  5-MIN KAOH 242010Z AUTO 33005KT 10SM OVC010 02/01 A3025 670 92 -600 340/05 RMK AO2 T00220011
04850KAOH AOH20161224151511112/24/16 15:15:31  5-MIN KAOH 242015Z AUTO 34004KT 10SM OVC010 02/01 A3025 670 92 -600 350/04 RMK AO2 T00220011
04850KAOH AOH20161224152011112/24/16 15:20:31  5-MIN KAOH 242020Z AUTO 32004KT 10SM OVC010 02/01 A3025 670 92 -600 320/04 RMK AO2 T00220011
04850KAOH AOH20161224152511112/24/16 15:25:31  5-MIN KAOH 242025Z AUTO 31004KT 10SM OVC010 02/01 A3026 670 92 -600 310/04 RMK AO2 T00220011
04850KAOH AOH20161224153011112/24/16 15:30:31  5-MIN KAOH 242030Z AUTO 32004KT 10SM OVC010 02/01 A3026 670 96 -700 330/04 RMK AO2 T00170011
04850KAOH AOH20161224153511112/24/16 15:35:31  5-MIN KAOH 242035Z AUTO 33003KT 10SM OVC010 02/01 A3026 660 96 -700 330/03 RMK AO2 T00170011
04850KAOH AOH20161224154011112/24/16 15:40:31  5-MIN KAOH 242040Z AUTO 33003KT 10SM OVC010 02/01 A3027 660 96 -700 340/03 RMK AO2 T00170011
04850KAOH AOH20161224154511112/24/16 15:45:31  5-MIN KAOH 242045Z AUTO 35005KT 10SM OVC010 02/01 A3026 660 96 -700 360/05 RMK AO2 T00170011
04850KAOH AOH20161224155012412/24/16 15:50:31  5-MIN KAOH 242050Z AUTO 33003KT 10SM OVC010 02/01 A3027 660 89 -600 340/03 RMK AO2 SLP256 T00220006 51016
04850KAOH AOH20161224155511112/24/16 15:55:31  5-MIN KAOH 242055Z AUTO 00000KT 10SM OVC010 02/01 A3027 660 92 -600 000/00 RMK AO2 T00220011
04850KAOH AOH20161224160011112/24/16 16:00:31  5-MIN KAOH 242100Z AUTO 00000KT 10SM OVC010 02/01 A3027 660 96 -700 000/00 RMK AO2 T00170011
04850KAOH AOH20161224160511112/24/16 16:05:31  5-MIN KAOH 242105Z AUTO 00000KT 10SM OVC010 02/01 A3027 660 92 -600 000/00 RMK AO2 T00220011
04850KAOH AOH20161224161011112/24/16 16:10:31  5-MIN KAOH 242110Z AUTO 00000KT 10SM OVC010 02/01 A3027 660 92 -600 000/00 RMK AO2 T00220011
04850KAOH AOH20161224161511112/24/16 16:15:31  5-MIN KAOH 242115Z AUTO 00000KT 10SM OVC010 02/01 A3027 660 89 -600 000/00 RMK AO2 T00220006
04850KAOH AOH20161224162011112/24/16 16:20:31  5-MIN KAOH 242120Z AUTO 00000KT 10SM OVC010 02/01 A3028 650 89 -700 000/00 RMK AO2 T00220006
04850KAOH AOH20161224162511112/24/16 16:25:31  5-MIN KAOH 242125Z AUTO 00000KT 10SM OVC010 02/01 A3028 650 89 -700 000/00 RMK AO2 T00220006
04850KAOH AOH20161224163011112/24/16 16:30:31  5-MIN KAOH 242130Z AUTO 21003KT 10SM OVC010 02/01 A3028 650 89 -700 220/03 RMK AO2 T00220006
04850KAOH AOH20161224163511012/24/16 16:35:31  5-MIN KAOH 242135Z AUTO 00000KT 9SM OVC010 02/01 A3028 650 89 -700 000/00 RMK AO2 T00220006
04850KAOH AOH20161224164011012/24/16 16:40:31  5-MIN KAOH 242140Z AUTO 00000KT 9SM OVC010 02/01 A3028 640 89 -700 000/00 RMK AO2 T00220006
04850KAOH AOH20161224164511012/24/16 16:45:31  5-MIN KAOH 242145Z AUTO 00000KT 9SM OVC010 02/01 A3028 640 89 -700 000/00 RMK AO2 T00220006
04850KAOH AOH20161224165010012/24/16 16:50:31  5-MIN KAOH 242150Z AUTO 00000KT 9SM OVC009 02/01 A3028 640 92 -700 000/00 RMK AO2
04850KAOH AOH20161224165511012/24/16 16:55:31  5-MIN KAOH 242155Z AUTO 01004KT 8SM OVC009 02/01 A3028 640 89 -700 020/04 RMK AO2 T00220006
04850KAOH AOH20161224170011012/24/16 17:00:31  5-MIN KAOH 242200Z AUTO 00000KT 7SM OVC009 02/01 A3028 640 89 -700 000/00 RMK AO2 T00220006
04850KAOH AOH20161224170511012/24/16 17:05:31  5-MIN KAOH 242205Z AUTO 00000KT 8SM OVC009 02/01 A3028 640 89 -700 000/00 RMK AO2 T00220006
04850KAOH AOH20161224171011012/24/16 17:10:31  5-MIN KAOH 242210Z AUTO 00000KT 8SM OVC009 02/01 A3028 640 92 -700 000/00 RMK AO2 T00170006
04850KAOH AOH20161224171511012/24/16 17:15:31  5-MIN KAOH 242215Z AUTO 00000KT 8SM OVC009 02/01 A3028 640 92 -700 000/00 RMK AO2 T00170006
04850KAOH AOH20161224172011012/24/16 17:20:31  5-MIN KAOH 242220Z AUTO 00000KT 8SM OVC009 02/01 A3029 640 92 -700 000/00 RMK AO2 T00170006
04850KAOH AOH20161224172511012/24/16 17:25:31  5-MIN KAOH 242225Z AUTO 00000KT 8SM OVC009 02/01 A3029 640 92 -700 000/00 RMK AO2 T00170006
04850KAOH AOH20161224173011012/24/16 17:30:31  5-MIN KAOH 242230Z AUTO 31003KT 7SM OVC009 01/01 A3029 640 96 -800 320/03 RMK AO2 T00110006
04850KAOH AOH20161224173511012/24/16 17:35:31  5-MIN KAOH 242235Z AUTO 35003KT 8SM OVC009 02/01 A3029 630 92 -700 350/03 RMK AO2 T00170006
04850KAOH AOH20161224174011012/24/16 17:40:31  5-MIN KAOH 242240Z AUTO 00000KT 9SM OVC009 02/01 A3029 640 89 -700 000/00 RMK AO2 T00220006
04850KAOH AOH20161224174511012/24/16 17:45:31  5-MIN KAOH 242245Z AUTO 00000KT 9SM OVC009 02/01 A3029 630 89 -700 000/00 RMK AO2 T00220006
04850KAOH AOH20161224175011712/24/16 17:50:31  5-MIN KAOH 242250Z AUTO 21003KT 9SM OVC009 02/01 A3029 630 92 -700 220/03 RMK AO2 SLP267 T00170006
04850KAOH AOH20161224175511012/24/16 17:55:31  5-MIN KAOH 242255Z AUTO 00000KT 9SM OVC010 02/01 A3029 630 89 -700 000/00 RMK AO2 T00220006
04850KAOH AOH20161224180011012/24/16 18:00:31  5-MIN KAOH 242300Z AUTO 17003KT 9SM OVC010 02/01 A3030 630 89 -700 180/03 RMK AO2 T00220006
04850KAOH AOH20161224180511012/24/16 18:05:31  5-MIN KAOH 242305Z AUTO 00000KT 9SM OVC010 02/01 A3030 630 89 -700 000/00 RMK AO2 T00220006
04850KAOH AOH20161224181011012/24/16 18:10:31  5-MIN KAOH 242310Z AUTO 00000KT 9SM OVC010 02/01 A3030 630 89 -700 000/00 RMK AO2 T00220006
04850KAOH AOH20161224181511012/24/16 18:15:31  5-MIN KAOH 242315Z AUTO 00000KT 8SM OVC010 02/01 A3031 620 92 -800 000/00 RMK AO2 T00170006
04850KAOH AOH20161224182011012/24/16 18:20:31  5-MIN KAOH 242320Z AUTO 00000KT 7SM OVC010 02/01 A3031 620 92 -800 000/00 RMK AO2 T00170006
04850KAOH AOH20161224182511012/24/16 18:25:31  5-MIN KAOH 242325Z AUTO 00000KT 7SM OVC010 02/01 A3031 620 92 -800 000/00 RMK AO2 T00170006
04850KAOH AOH20161224183011012/24/16 18:30:31  5-MIN KAOH 242330Z AUTO 22005KT 7SM OVC009 02/01 A3031 620 92 -800 220/05 RMK AO2 T00170006
04850KAOH AOH20161224183511012/24/16 18:35:31  5-MIN KAOH 242335Z AUTO 00000KT 7SM OVC009 02/01 A3031 620 92 -800 000/00 RMK AO2 T00170006
04850KAOH AOH20161224184011012/24/16 18:40:31  5-MIN KAOH 242340Z AUTO 00000KT 7SM OVC009 02/01 A3031 620 89 -700 000/00 RMK AO2 T00220006
04850KAOH AOH20161224184511012/24/16 18:45:31  5-MIN KAOH 242345Z AUTO 00000KT 7SM OVC009 02/01 A3032 610 89 -700 000/00 RMK AO2 T00220006
04850KAOH AOH20161224185013512/24/16 18:50:31  5-MIN KAOH 242350Z AUTO 00000KT 7SM OVC009 02/01 A3032 610 92 -800 000/00 RMK AO2 SLP275 T00170006 10028 20011 53015
04850KAOH AOH20161224185511012/24/16 18:55:31  5-MIN KAOH 242355Z AUTO 19003KT 7SM OVC009 02/01 A3032 610 92 -800 190/03 RMK AO2 T00170006
04850KAOH AOH20161224190011012/24/16 19:00:31  5-MIN KAOH 250000Z AUTO 00000KT 7SM OVC009 02/01 A3032 610 92 -800 000/00 RMK AO2 T00170006
04850KAOH AOH20161224190511012/24/16 19:05:31  5-MIN KAOH 250005Z AUTO 00000KT 7SM OVC009 02/01 A3033 600 92 -800 000/00 RMK AO2 T00170006
04850KAOH AOH20161224191011012/24/16 19:10:31  5-MIN KAOH 250010Z AUTO 00000KT 7SM OVC009 02/01 A3033 600 89 -700 000/00 RMK AO2 T00220006
04850KAOH AOH20161224191511012/24/16 19:15:31  5-MIN KAOH 250015Z AUTO 00000KT 7SM OVC009 02/01 A3033 600 92 -800 000/00 RMK AO2 T00170006
04850KAOH AOH20161224192011012/24/16 19:20:31  5-MIN KAOH 250020Z AUTO 23003KT 7SM OVC009 02/01 A3033 600 92 -800 240/03 RMK AO2 T00170006
04850KAOH AOH20161224192511012/24/16 19:25:31  5-MIN KAOH 250025Z AUTO 00000KT 7SM OVC009 02/01 A3033 600 92 -800 000/00 RMK AO2 T00170006
04850KAOH AOH20161224193011012/24/16 19:30:31  5-MIN KAOH 250030Z AUTO 23003KT 7SM OVC009 02/01 A3033 600 92 -800 230/03 RMK AO2 T00170006
04850KAOH AOH20161224193511012/24/16 19:35:31  5-MIN KAOH 250035Z AUTO 22003KT 7SM OVC009 02/01 A3033 600 92 -800 220/03 RMK AO2 T00170006
04850KAOH AOH20161224194011012/24/16 19:40:31  5-MIN KAOH 250040Z AUTO 23004KT 7SM OVC009 02/01 A3033 600 92 -800 240/04 RMK AO2 T00170006
04850KAOH AOH20161224194511012/24/16 19:45:31  5-MIN KAOH 250045Z AUTO 00000KT 7SM OVC009 02/00 A3033 600 89 -800 000/00 RMK AO2 T00170000
04850KAOH AOH20161224195011712/24/16 19:50:31  5-MIN KAOH 250050Z AUTO 00000KT 7SM OVC009 02/01 A3033 600 92 -800 000/00 RMK AO2 SLP279 T00170006
04850KAOH AOH20161224195511012/24/16 19:55:31  5-MIN KAOH 250055Z AUTO 00000KT 7SM OVC009 02/01 A3033 600 92 -800 000/00 RMK AO2 T00170006
04850KAOH AOH20161224200011012/24/16 20:00:31  5-MIN KAOH 250100Z AUTO 00000KT 7SM OVC009 02/01 A3034 590 92 -800 000/00 RMK AO2 T00170006
04850KAOH AOH20161224200511012/24/16 20:05:31  5-MIN KAOH 250105Z AUTO 00000KT 7SM OVC009 02/01 A3034 590 92 -800 000/00 RMK AO2 T00170006
04850KAOH AOH20161224201011012/24/16 20:10:31  5-MIN KAOH 250110Z AUTO 00000KT 7SM OVC009 02/01 A3035 590 92 -800 000/00 RMK AO2 T00170006
04850KAOH AOH20161224201511012/24/16 20:15:31  5-MIN KAOH 250115Z AUTO 00000KT 7SM OVC009 02/01 A3035 590 92 -800 000/00 RMK AO2 T00170006
04850KAOH AOH20161224202011012/24/16 20:20:31  5-MIN KAOH 250120Z AUTO 00000KT 7SM OVC009 02/01 A3034 590 92 -800 000/00 RMK AO2 T00170006
04850KAOH AOH20161224202511012/24/16 20:25:31  5-MIN KAOH 250125Z AUTO 20003KT 7SM OVC009 02/01 A3034 590 92 -800 210/03 RMK AO2 T00170006
04850KAOH AOH20161224203011312/24/16 20:30:31  5-MIN KAOH 250130Z AUTO 00000KT 6SM BR OVC009 02/01 A3034 590 92 -800 000/00 RMK AO2 T00170006
04850KAOH AOH20161224203511312/24/16 20:35:31  5-MIN KAOH 250135Z AUTO 00000KT 6SM BR OVC009 02/01 A3034 590 92 -800 000/00 RMK AO2 T00170006
04850KAOH AOH20161224204011312/24/16 20:40:31  5-MIN KAOH 250140Z AUTO 00000KT 6SM BR OVC009 02/01 A3034 590 92 -800 000/00 RMK AO2 T00170006
04850KAOH AOH20161224204511312/24/16 20:45:31  5-MIN KAOH 250145Z AUTO 00000KT 6SM BR OVC008 02/01 A3034 590 92 -800 000/00 RMK AO2 T00170006
04850KAOH AOH20161224205012012/24/16 20:50:31  5-MIN KAOH 250150Z AUTO 00000KT 6SM BR OVC008 02/01 A3034 590 92 -800 000/00 RMK AO2 SLP282 T00170006
04850KAOH AOH20161224205511312/24/16 20:55:31  5-MIN KAOH 250155Z AUTO 00000KT 6SM BR OVC008 02/01 A3034 590 92 -800 000/00 RMK AO2 T00170006
04850KAOH AOH20161224210011312/24/16 21:00:31  5-MIN KAOH 250200Z AUTO 00000KT 6SM BR OVC008 01/01 A3034 590 96 -900 000/00 RMK AO2 T00110006
04850KAOH AOH20161224210511312/24/16 21:05:31  5-MIN KAOH 250205Z AUTO VRB04KT 6SM BR OVC008 02/01 A3034 590 92 -800 VRB/04 RMK AO2 T00170006
04850KAOH AOH20161224211011312/24/16 21:10:31  5-MIN KAOH 250210Z AUTO 00000KT 6SM BR OVC008 02/00 A3034 590 89 -800 000/00 RMK AO2 T00170000
04850KAOH AOH20161224211511312/24/16 21:15:31  5-MIN KAOH 250215Z AUTO 04003KT 6SM BR OVC008 02/00 A3034 590 89 -800 050/03 RMK AO2 T00170000
04850KAOH AOH20161224212011312/24/16 21:20:31  5-MIN KAOH 250220Z AUTO 00000KT 6SM BR OVC008 02/00 A3034 590 89 -800 000/00 RMK AO2 T00170000
04850KAOH AOH20161224212511312/24/16 21:25:31  5-MIN KAOH 250225Z AUTO 00000KT 6SM BR OVC008 02/00 A3035 580 89 -800 000/00 RMK AO2 T00170000
04850KAOH AOH20161224213011312/24/16 21:30:31  5-MIN KAOH 250230Z AUTO 00000KT 6SM BR OVC008 01/01 A3035 580 96 -900 000/00 RMK AO2 T00110006
04850KAOH AOH20161224213511312/24/16 21:35:31  5-MIN KAOH 250235Z AUTO 00000KT 6SM BR OVC008 01/01 A3035 580 96 -900 000/00 RMK AO2 T00110006
04850KAOH AOH20161224214011312/24/16 21:40:31  5-MIN KAOH 250240Z AUTO 00000KT 6SM BR OVC008 01/01 A3035 580 96 -900 000/00 RMK AO2 T00110006
04850KAOH AOH20161224214511312/24/16 21:45:31  5-MIN KAOH 250245Z AUTO 00000KT 6SM BR OVC008 01/01 A3035 580 96 -900 000/00 RMK AO2 T00110006
04850KAOH AOH20161224215012612/24/16 21:50:31  5-MIN KAOH 250250Z AUTO 05004KT 6SM BR OVC008 01/01 A3036 580 96 -900 060/04 RMK AO2 SLP289 T00110006 53018
04850KAOH AOH20161224215511312/24/16 21:55:31  5-MIN KAOH 250255Z AUTO 10003KT 6SM BR OVC007 01/00 A3036 580 92 -900 100/03 RMK AO2 T00110000
04850KAOH AOH20161224220011312/24/16 22:00:31  5-MIN KAOH 250300Z AUTO 00000KT 6SM BR OVC007 02/00 A3035 580 89 -800 000/00 RMK AO2 T00170000
04850KAOH AOH20161224220511312/24/16 22:05:31  5-MIN KAOH 250305Z AUTO 07004KT 6SM BR OVC008 01/00 A3036 580 92 -900 070/04 RMK AO2 T00110000
04850KAOH AOH20161224221011312/24/16 22:10:31  5-MIN KAOH 250310Z AUTO 00000KT 6SM BR OVC008 01/00 A3036 580 92 -900 000/00 RMK AO2 T00110000
04850KAOH AOH20161224221511312/24/16 22:15:31  5-MIN KAOH 250315Z AUTO 00000KT 6SM BR OVC007 02/00 A3036 570 89 -800 000/00 RMK AO2 T00170000
04850KAOH AOH20161224222011312/24/16 22:20:31  5-MIN KAOH 250320Z AUTO 09003KT 6SM BR OVC007 01/00 A3036 570 92 -900 090/03 RMK AO2 T00110000
04850KAOH AOH20161224222511312/24/16 22:25:31  5-MIN KAOH 250325Z AUTO 09004KT 6SM BR OVC007 01/00 A3036 580 92 -900 100/04 RMK AO2 T00110000
04850KAOH AOH20161224223011312/24/16 22:30:31  5-MIN KAOH 250330Z AUTO 10003KT 6SM BR OVC008 01/00 A3036 580 92 -900 100/03 RMK AO2 T00110000
04850KAOH AOH20161224223511312/24/16 22:35:31  5-MIN KAOH 250335Z AUTO 10003KT 6SM BR OVC008 01/00 A3036 580 92 -900 110/03 RMK AO2 T00110000
04850KAOH AOH20161224224011312/24/16 22:40:31  5-MIN KAOH 250340Z AUTO 10004KT 6SM BR OVC008 01/01 A3036 580 96 -900 110/04 RMK AO2 T00110006
04850KAOH AOH20161224224511312/24/16 22:45:31  5-MIN KAOH 250345Z AUTO 10004KT 6SM BR OVC008 01/01 A3036 580 96 -900 100/04 RMK AO2 T00110006
04850KAOH AOH20161224225011712/24/16 22:50:31  5-MIN KAOH 250350Z AUTO 09003KT 7SM OVC008 01/00 A3036 570 92 -900 090/03 RMK AO2 SLP290 T00110000
04850KAOH AOH20161224225511012/24/16 22:55:31  5-MIN KAOH 250355Z AUTO 00000KT 7SM OVC008 01/01 A3036 570 96 -900 000/00 RMK AO2 T00110006
04850KAOH AOH20161224230011012/24/16 23:00:31  5-MIN KAOH 250400Z AUTO 07003KT 7SM OVC008 01/01 A3037 570 96 -900 070/03 RMK AO2 T00110006
04850KAOH AOH20161224230511012/24/16 23:05:31  5-MIN KAOH 250405Z AUTO 10004KT 8SM OVC008 01/00 A3037 570 92 -900 100/04 RMK AO2 T00110000
04850KAOH AOH20161224231011012/24/16 23:10:31  5-MIN KAOH 250410Z AUTO 09005KT 9SM OVC008 01/00 A3037 570 92 -900 090/05 RMK AO2 T00110000
04850KAOH AOH20161224231511012/24/16 23:15:31  5-MIN KAOH 250415Z AUTO 10006KT 9SM OVC009 01/00 A3037 560 92 -900 100/06 RMK AO2 T00110000
04850KAOH AOH20161224232011112/24/16 23:20:31  5-MIN KAOH 250420Z AUTO 09005KT 10SM OVC009 01/00 A3037 560 92 -900 100/05 RMK AO2 T00110000
04850KAOH AOH20161224232511112/24/16 23:25:31  5-MIN KAOH 250425Z AUTO 11003KT 10SM OVC009 01/00 A3038 560 92 -900 110/03 RMK AO2 T00110000
04850KAOH AOH20161224233011112/24/16 23:30:31  5-MIN KAOH 250430Z AUTO 11003KT 10SM OVC009 01/00 A3037 560 92 -900 110/03 RMK AO2 T00110000
04850KAOH AOH20161224233511112/24/16 23:35:31  5-MIN KAOH 250435Z AUTO 10005KT 10SM OVC009 01/00 A3037 560 92 -900 110/05 RMK AO2 T00110000
04850KAOH AOH20161224234011112/24/16 23:40:31  5-MIN KAOH 250440Z AUTO 08005KT 10SM OVC009 01/00 A3037 560 92 -900 090/05 RMK AO2 T00110000
04850KAOH AOH20161224234511112/24/16 23:45:31  5-MIN KAOH 250445Z AUTO 12006KT 10SM OVC009 01/00 A3038 560 92 -900 130/06 RMK AO2 T00110000
04850KAOH AOH20161224235012812/24/16 23:50:31  5-MIN KAOH 250450Z AUTO 10005KT 10SM OVC009 01/00 A3038 560 92 -900 100/05 RMK AO2 SLP296 T00110000 400440011
04850KAOH AOH20161224235511112/24/16 23:55:31  5-MIN KAOH 250455Z AUTO 12004KT 10SM OVC009 01/00 A3038 550 92 -900 130/04 RMK AO2 T00110000
04850KAOH AOH20161225000011112/25/16 00:00:31  5-MIN KAOH 250500Z AUTO 10005KT 10SM OVC009 01/00 A3038 550 92 -900 100/05 RMK AO2 T00110000
04850KAOH AOH20161225000511112/25/16 00:05:31  5-MIN KAOH 250505Z AUTO 14006KT 10SM OVC009 01/00 A3039 550 92 -900 140/06 RMK AO2 T00110000
04850KAOH AOH20161225001011112/25/16 00:10:31  5-MIN KAOH 250510Z AUTO 13004KT 10SM OVC009 01/00 A3038 550 92 -900 130/04 RMK AO2 T00110000
04850KAOH AOH20161225001511112/25/16 00:15:31  5-MIN KAOH 250515Z AUTO 12004KT 10SM OVC009 01/00 A3038 560 92 -900 120/04 RMK AO2 T00110000
04850KAOH AOH20161225002011112/25/16 00:20:31  5-MIN KAOH 250520Z AUTO 11005KT 10SM OVC009 01/00 A3038 560 92 -900 120/05 RMK AO2 T00110000
04850KAOH AOH20161225002511112/25/16 00:25:31  5-MIN KAOH 250525Z AUTO 10004KT 10SM OVC009 01/00 A3037 560 92 -900 110/04 RMK AO2 T00110000
04850KAOH AOH20161225003011112/25/16 00:30:31  5-MIN KAOH 250530Z AUTO 09005KT 10SM OVC009 01/00 A3037 560 92 -900 100/05 RMK AO2 T00110000
04850KAOH AOH20161225003511112/25/16 00:35:31  5-MIN KAOH 250535Z AUTO 10005KT 10SM OVC009 01/00 A3037 560 92 -900 100/05 RMK AO2 T00110000
04850KAOH AOH20161225004011112/25/16 00:40:31  5-MIN KAOH 250540Z AUTO 10004KT 10SM OVC009 01/00 A3037 560 92 -900 100/04 RMK AO2 T00110000
04850KAOH AOH20161225004511112/25/16 00:45:31  5-MIN KAOH 250545Z AUTO 08006KT 10SM OVC009 01/00 A3037 560 92 -900 090/06 RMK AO2 T00110000
04850KAOH AOH20161225005013612/25/16 00:50:31  5-MIN KAOH 250550Z AUTO 09006KT 10SM OVC009 01/00 A3037 560 92 -900 090/06 RMK AO2 SLP293 T00110000 10022 20011 53012
04850KAOH AOH20161225005511112/25/16 00:55:31  5-MIN KAOH 250555Z AUTO 09005KT 10SM OVC009 01/00 A3037 560 92 -900 090/05 RMK AO2 T00110000
04850KAOH AOH20161225010011112/25/16 01:00:31  5-MIN KAOH 250600Z AUTO 11005KT 10SM OVC009 01/00 A3038 560 92 -900 120/05 RMK AO2 T00110000
04850KAOH AOH20161225010511112/25/16 01:05:31  5-MIN KAOH 250605Z AUTO 09005KT 10SM OVC009 01/00 A3038 550 92 -900 100/05 RMK AO2 T00110000
04850KAOH AOH20161225011011112/25/16 01:10:31  5-MIN KAOH 250610Z AUTO 09007KT 10SM OVC009 01/00 A3038 550 92 -900 100/07 RMK AO2 T00110000
04850KAOH AOH20161225011511112/25/16 01:15:31  5-MIN KAOH 250615Z AUTO 12004KT 10SM OVC009 01/00 A3039 550 92 -900 120/04 RMK AO2 T00110000
04850KAOH AOH20161225012011112/25/16 01:20:31  5-MIN KAOH 250620Z AUTO 11004KT 10SM OVC009 01/00 A3039 550 92 -900 120/04 RMK AO2 T00110000
04850KAOH AOH20161225012511112/25/16 01:25:31  5-MIN KAOH 250625Z AUTO 11005KT 10SM OVC009 01/00 A3039 550 92 -900 110/05 RMK AO2 T00110000
04850KAOH AOH20161225013011112/25/16 01:30:31  5-MIN KAOH 250630Z AUTO 12006KT 10SM OVC009 01/00 A3039 550 92 -900 130/06 RMK AO2 T00110000
04850KAOH AOH20161225013511212/25/16 01:35:31  5-MIN KAOH 250635Z AUTO 11005KT 10SM OVC009 01/M01 A3039 550 89 -900 110/05 RMK AO2 T00111006
04850KAOH AOH20161225014011212/25/16 01:40:31  5-MIN KAOH 250640Z AUTO 11005KT 10SM OVC009 01/M01 A3039 550 89 -900 120/05 RMK AO2 T00111006
04850KAOH AOH20161225014511112/25/16 01:45:31  5-MIN KAOH 250645Z AUTO 10005KT 10SM OVC009 01/00 A3038 550 92 -900 110/05 RMK AO2 T00110000
04850KAOH AOH20161225015011812/25/16 01:50:31  5-MIN KAOH 250650Z AUTO 09005KT 10SM OVC009 01/00 A3039 550 92 -900 100/05 RMK AO2 SLP299 T00110000
04850KAOH AOH20161225015511112/25/16 01:55:31  5-MIN KAOH 250655Z AUTO 10004KT 10SM OVC009 01/00 A3039 550 92 -900 110/04 RMK AO2 T00110000
04850KAOH AOH20161225020011112/25/16 02:00:31  5-MIN KAOH 250700Z AUTO 10004KT 10SM OVC009 01/00 A3039 550 92 -900 110/04 RMK AO2 T00110000
04850KAOH AOH20161225020511112/25/16 02:05:31  5-MIN KAOH 250705Z AUTO 09004KT 10SM OVC009 01/00 A3039 540 92 -900 100/04 RMK AO2 T00110000
04850KAOH AOH20161225021011112/25/16 02:10:31  5-MIN KAOH 250710Z AUTO 09004KT 10SM OVC009 01/00 A3040 540 92 -900 100/04 RMK AO2 T00110000
04850KAOH AOH20161225021511112/25/16 02:15:31  5-MIN KAOH 250715Z AUTO 09005KT 10SM OVC009 01/00 A3040 540 92 -900 100/05 RMK AO2 T00110000
04850KAOH AOH20161225022011112/25/16 02:20:31  5-MIN KAOH 250720Z AUTO 10005KT 10SM OVC009 01/00 A3040 540 92 -900 100/05 RMK AO2 T00110000
04850KAOH AOH20161225022511112/25/16 02:25:31  5-MIN KAOH 250725Z AUTO 09005KT 10SM OVC009 01/00 A3040 540 92 -900 100/05 RMK AO2 T00110000
04850KAOH AOH20161225023011012/25/16 02:30:31  5-MIN KAOH 250730Z AUTO 10005KT 9SM OVC009 01/00 A3040 530 92 -900 110/05 RMK AO2 T00110000
04850KAOH AOH20161225023511012/25/16 02:35:31  5-MIN KAOH 250735Z AUTO 13005KT 9SM OVC009 01/00 A3040 530 92 -900 140/05 RMK AO2 T00110000
04850KAOH AOH20161225024011012/25/16 02:40:31  5-MIN KAOH 250740Z AUTO 09005KT 9SM OVC009 01/00 A3040 530 92 -900 090/05 RMK AO2 T00110000
04850KAOH AOH20161225024511012/25/16 02:45:31  5-MIN KAOH 250745Z AUTO 09006KT 8SM OVC009 01/00 A3040 530 92 -900 090/06 RMK AO2 T00110000
04850KAOH AOH20161225025011712/25/16 02:50:31  5-MIN KAOH 250750Z AUTO 08007KT 8SM OVC009 01/00 A3040 530 92 -900 080/07 RMK AO2 SLP305 T00110000
04850KAOH AOH20161225025511012/25/16 02:55:31  5-MIN KAOH 250755Z AUTO 08008KT 8SM OVC009 01/00 A3040 540 92 -900 090/08 RMK AO2 T00110000
04850KAOH AOH20161225030011112/25/16 03:00:31  5-MIN KAOH 250800Z AUTO 12006KT 8SM OVC009 01/M01 A3040 540 89 -900 120/06 RMK AO2 T00111006
04850KAOH AOH20161225030511012/25/16 03:05:31  5-MIN KAOH 250805Z AUTO 11005KT 8SM OVC009 01/00 A3040 540 92 -900 120/05 RMK AO2 T00110000
04850KAOH AOH20161225031011112/25/16 03:10:31  5-MIN KAOH 250810Z AUTO 10006KT 8SM OVC009 01/00 A3040 540 96 -1000 110/06 RMK AO2 T00060000
04850KAOH AOH20161225031511112/25/16 03:15:31  5-MIN KAOH 250815Z AUTO 09008KT 8SM OVC009 01/00 A3040 540 96 -1000 100/08 RMK AO2 T00060000
04850KAOH AOH20161225032011112/25/16 03:20:31  5-MIN KAOH 250820Z AUTO 10006KT 9SM OVC009 01/M01 A3040 540 89 -900 100/06 RMK AO2 T00111006
04850KAOH AOH20161225032511112/25/16 03:25:31  5-MIN KAOH 250825Z AUTO 11005KT 9SM OVC010 01/M01 A3040 540 89 -900 110/05 RMK AO2 T00111006
04850KAOH AOH20161225033011012/25/16 03:30:31  5-MIN KAOH 250830Z AUTO 11004KT 9SM OVC010 01/00 A3040 540 92 -900 120/04 RMK AO2 T00110000
04850KAOH AOH20161225033511112/25/16 03:35:31  5-MIN KAOH 250835Z AUTO 11003KT 9SM OVC010 01/00 A3040 540 96 -1000 110/03 RMK AO2 T00060000
04850KAOH AOH20161225034011012/25/16 03:40:31  5-MIN KAOH 250840Z AUTO 11006KT 9SM OVC010 01/00 A3040 530 92 -900 120/06 RMK AO2 T00110000
04850KAOH AOH20161225034511112/25/16 03:45:31  5-MIN KAOH 250845Z AUTO 09004KT 9SM OVC010 01/M01 A3040 530 89 -900 100/04 RMK AO2 T00111006
04850KAOH AOH20161225035012412/25/16 03:50:31  5-MIN KAOH 250850Z AUTO 09006KT 9SM OVC010 01/00 A3040 540 96 -1000 090/06 RMK AO2 SLP304 T00060000 50005
04850KAOH AOH20161225035511012/25/16 03:55:31  5-MIN KAOH 250855Z AUTO 09006KT 9SM OVC010 01/00 A3041 530 92 -900 090/06 RMK AO2 T00110000
04850KAOH AOH20161225040011012/25/16 04:00:31  5-MIN KAOH 250900Z AUTO 09005KT 9SM OVC009 01/00 A3041 530 92 -900 090/05 RMK AO2 T00110000
04850KAOH AOH20161225040511112/25/16 04:05:31  5-MIN KAOH 250905Z AUTO 07005KT 9SM OVC009 01/00 A3041 530 96 -1000 070/05 RMK AO2 T00060000
04850KAOH AOH20161225041011112/25/16 04:10:31  5-MIN KAOH 250910Z AUTO 07005KT 8SM OVC009 01/00 A3041 530 96 -1000 080/05 RMK AO2 T00060000
04850KAOH AOH20161225041511112/25/16 04:15:31  5-MIN KAOH 250915Z AUTO 06008KT 8SM OVC009 01/00 A3040 530 96 -1000 070/08 RMK AO2 T00060000
04850KAOH AOH20161225042011212/25/16 04:20:31  5-MIN KAOH 250920Z AUTO 08007KT 9SM OVC009 01/M01 A3041 530 92 -1000 090/07 RMK AO2 T00061006
04850KAOH AOH20161225042511312/25/16 04:25:31  5-MIN KAOH 250925Z AUTO 08005KT 10SM OVC009 01/M01 A3041 530 92 -1000 090/05 RMK AO2 T00061006
04850KAOH AOH20161225043011112/25/16 04:30:31  5-MIN KAOH 250930Z AUTO 08004KT 9SM OVC009 01/00 A3041 530 96 -1000 080/04 RMK AO2 T00060000
04850KAOH AOH20161225043511112/25/16 04:35:31  5-MIN KAOH 250935Z AUTO 09005KT 9SM OVC009 01/00 A3041 530 96 -1000 100/05 RMK AO2 T00060000
04850KAOH AOH20161225044011212/25/16 04:40:31  5-MIN KAOH 250940Z AUTO 09006KT 9SM OVC009 01/M01 A3040 540 92 -1000 100/06 RMK AO2 T00061006
04850KAOH AOH20161225044511112/25/16 04:45:31  5-MIN KAOH 250945Z AUTO 07007KT 9SM OVC009 01/00 A3040 540 96 -1000 080/07 RMK AO2 T00060000
04850KAOH AOH20161225045012012/25/16 04:50:31  5-MIN KAOH 250950Z AUTO 07008KT 10SM OVC009 01/M01 A3040 530 92 -1000 080/08 RMK AO2 SLP305 T00061006
04850KAOH AOH20161225045511312/25/16 04:55:31  5-MIN KAOH 250955Z AUTO 06005KT 10SM OVC009 01/M01 A3040 540 92 -1000 070/05 RMK AO2 T00061006
04850KAOH AOH20161225050011212/25/16 05:00:31  5-MIN KAOH 251000Z AUTO 06006KT 9SM OVC009 01/M01 A3040 540 92 -1000 070/06 RMK AO2 T00061006
04850KAOH AOH20161225050511212/25/16 05:05:31  5-MIN KAOH 251005Z AUTO 07006KT 9SM OVC009 01/M01 A3040 540 92 -1000 080/06 RMK AO2 T00061006
04850KAOH AOH20161225051011312/25/16 05:10:31  5-MIN KAOH 251010Z AUTO 08008KT 10SM OVC009 01/M01 A3040 540 92 -1000 080/08 RMK AO2 T00061006
04850KAOH AOH20161225051511312/25/16 05:15:31  5-MIN KAOH 251015Z AUTO 10008KT 10SM OVC009 01/M01 A3040 540 92 -1000 110/08 RMK AO2 T00061006
04850KAOH AOH20161225052011212/25/16 05:20:31  5-MIN KAOH 251020Z AUTO 09009KT 9SM OVC009 01/M01 A3040 540 92 -1000 100/09 RMK AO2 T00061006
04850KAOH AOH20161225052511212/25/16 05:25:31  5-MIN KAOH 251025Z AUTO 10007KT 9SM OVC009 01/M01 A3040 540 92 -1000 100/07 RMK AO2 T00061006
04850KAOH AOH20161225053011212/25/16 05:30:31  5-MIN KAOH 251030Z AUTO 08005KT 9SM OVC009 01/M01 A3040 540 92 -1000 080/05 RMK AO2 T00061006
04850KAOH AOH20161225053511212/25/16 05:35:31  5-MIN KAOH 251035Z AUTO 07009KT 8SM OVC009 01/M01 A3040 540 92 -1000 080/09 RMK AO2 T00061006
04850KAOH AOH20161225054011212/25/16 05:40:31  5-MIN KAOH 251040Z AUTO 08007KT 9SM OVC009 01/M01 A3040 540 92 -1000 080/07 RMK AO2 T00061006
04850KAOH AOH20161225054511212/25/16 05:45:31  5-MIN KAOH 251045Z AUTO 09010KT 9SM OVC009 01/M01 A3040 540 92 -1000 100/10 RMK AO2 T00061006
04850KAOH AOH20161225055011912/25/16 05:50:31  5-MIN KAOH 251050Z AUTO 08008KT 9SM OVC009 01/M01 A3040 540 92 -1000 090/08 RMK AO2 SLP304 T00061006
04850KAOH AOH20161225055511212/25/16 05:55:31  5-MIN KAOH 251055Z AUTO 10007KT 9SM OVC009 01/M01 A3040 530 92 -1000 110/07 RMK AO2 T00061006
04850KAOH AOH20161225060011212/25/16 06:00:31  5-MIN KAOH 251100Z AUTO 10008KT 9SM OVC009 01/M01 A3040 530 92 -1000 100/08 RMK AO2 T00061006
04850KAOH AOH20161225060511212/25/16 06:05:31  5-MIN KAOH 251105Z AUTO 10007KT 9SM OVC009 01/M01 A3040 540 92 -1000 100/07 RMK AO2 T00061006
04850KAOH AOH20161225061011212/25/16 06:10:31  5-MIN KAOH 251110Z AUTO 09008KT 8SM OVC009 01/M01 A3040 540 92 -1000 100/08 RMK AO2 T00061006
04850KAOH AOH20161225061511212/25/16 06:15:31  5-MIN KAOH 251115Z AUTO 10007KT 8SM OVC009 01/M01 A3040 540 92 -1000 100/07 RMK AO2 T00061006
04850KAOH AOH20161225062011212/25/16 06:20:31  5-MIN KAOH 251120Z AUTO 09008KT 8SM OVC009 01/M01 A3040 540 92 -1000 100/08 RMK AO2 T00061006
04850KAOH AOH20161225062511212/25/16 06:25:31  5-MIN KAOH 251125Z AUTO 09009KT 8SM OVC009 01/M01 A3040 540 92 -1000 100/09 RMK AO2 T00061006
04850KAOH AOH20161225063011212/25/16 06:30:31  5-MIN KAOH 251130Z AUTO 10009KT 8SM OVC008 01/M01 A3040 540 92 -1000 110/09 RMK AO2 T00061006
04850KAOH AOH20161225063511212/25/16 06:35:31  5-MIN KAOH 251135Z AUTO 10009KT 8SM OVC008 01/M01 A3040 540 92 -1000 100/09 RMK AO2 T00061006
04850KAOH AOH20161225064011212/25/16 06:40:31  5-MIN KAOH 251140Z AUTO 11009KT 8SM OVC008 01/M01 A3040 530 92 -1000 110/09 RMK AO2 T00061006
04850KAOH AOH20161225064511212/25/16 06:45:31  5-MIN KAOH 251145Z AUTO 10005KT 8SM OVC008 01/M01 A3040 530 92 -1000 100/05 RMK AO2 T00061006
04850KAOH AOH20161225065013612/25/16 06:50:31  5-MIN KAOH 251150Z AUTO 09007KT 8SM OVC008 01/00 A3040 530 96 -1000 100/07 RMK AO2 SLP305 T00060000 10011 20006 51010
04850KAOH AOH20161225065511212/25/16 06:55:31  5-MIN KAOH 251155Z AUTO 08009KT 8SM OVC008 01/M01 A3040 530 92 -1000 080/09 RMK AO2 T00061006
04850KAOH AOH20161225070011112/25/16 07:00:31  5-MIN KAOH 251200Z AUTO 07009KT 8SM OVC008 01/00 A3040 530 96 -1000 080/09 RMK AO2 T00060000
04850KAOH AOH20161225070512312/25/16 07:05:31  5-MIN KAOH 251205Z AUTO 07008KT 8SM OVC009 01/00 A3040 530 96 -1000 080/08 RMK AO2 CIG 008V011 T00060000
04850KAOH AOH20161225071011112/25/16 07:10:31  5-MIN KAOH 251210Z AUTO 07008KT 8SM OVC009 01/00 A3041 530 96 -1000 080/08 RMK AO2 T00060000
04850KAOH AOH20161225071511212/25/16 07:15:31  5-MIN KAOH 251215Z AUTO 08008KT 9SM OVC009 01/M01 A3041 530 92 -1000 080/08 RMK AO2 T00061006
04850KAOH AOH20161225072011212/25/16 07:20:31  5-MIN KAOH 251220Z AUTO 07008KT 9SM OVC009 01/M01 A3041 530 92 -1000 070/08 RMK AO2 T00061006
04850KAOH AOH20161225072511112/25/16 07:25:31  5-MIN KAOH 251225Z AUTO 06006KT 9SM OVC010 01/00 A3041 520 96 -1000 060/06 RMK AO2 T00060000
04850KAOH AOH20161225073011112/25/16 07:30:31  5-MIN KAOH 251230Z AUTO 06005KT 9SM OVC010 01/00 A3042 520 96 -1000 060/05 RMK AO2 T00060000
04850KAOH AOH20161225073511112/25/16 07:35:31  5-MIN KAOH 251235Z AUTO 06006KT 8SM OVC010 01/00 A3042 520 96 -1000 070/06 RMK AO2 T00060000
04850KAOH AOH20161225074011112/25/16 07:40:31  5-MIN KAOH 251240Z AUTO 07005KT 9SM OVC010 01/00 A3042 520 96 -1000 080/05 RMK AO2 T00060000
04850KAOH AOH20161225074511112/25/16 07:45:31  5-MIN KAOH 251245Z AUTO 05007KT 9SM OVC010 01/00 A3042 520 96 -1000 060/07 RMK AO2 T00060000
04850KAOH AOH20161225075011812/25/16 07:50:31  5-MIN KAOH 251250Z AUTO 06006KT 9SM OVC010 01/00 A3042 510 96 -1000 070/06 RMK AO2 SLP312 T00060000
04850KAOH AOH20161225075511112/25/16 07:55:31  5-MIN KAOH 251255Z AUTO 06006KT 9SM OVC010 01/00 A3042 520 96 -1000 070/06 RMK AO2 T00060000
04850KAOH AOH20161225080011112/25/16 08:00:31  5-MIN KAOH 251300Z AUTO 06007KT 9SM OVC010 01/00 A3042 520 96 -1000 060/07 RMK AO2 T00060000
04850KAOH AOH20161225080511112/25/16 08:05:31  5-MIN KAOH 251305Z AUTO 06007KT 9SM OVC010 01/00 A3043 510 96 -1000 070/07 RMK AO2 T00060000
04850KAOH AOH20161225081011112/25/16 08:10:31  5-MIN KAOH 251310Z AUTO 06006KT 9SM OVC010 01/00 A3043 510 96 -1000 070/06 RMK AO2 T00060000
04850KAOH AOH20161225081511112/25/16 08:15:31  5-MIN KAOH 251315Z AUTO 06007KT 9SM OVC010 01/00 A3042 520 96 -1000 060/07 RMK AO2 T00060000
04850KAOH AOH20161225082011112/25/16 08:20:31  5-MIN KAOH 251320Z AUTO 06007KT 8SM OVC010 01/00 A3042 520 96 -1000 070/07 RMK AO2 T00060000
04850KAOH AOH20161225082511112/25/16 08:25:31  5-MIN KAOH 251325Z AUTO 07008KT 7SM OVC010 01/00 A3042 520 96 -1000 070/08 RMK AO2 T00060000
04850KAOH AOH20161225083011412/25/16 08:30:31  5-MIN KAOH 251330Z AUTO 07008KT 6SM BR OVC010 01/00 A3042 510 96 -1000 070/08 RMK AO2 T00060000
04850KAOH AOH20161225083511412/25/16 08:35:31  5-MIN KAOH 251335Z AUTO 07006KT 5SM BR OVC009 01/00 A3043 510 96 -1000 070/06 RMK AO2 T00060000
04850KAOH AOH20161225084011412/25/16 08:40:31  5-MIN KAOH 251340Z AUTO 06008KT 5SM BR OVC009 01/00 A3043 510 96 -1000 070/08 RMK AO2 T00060000
04850KAOH AOH20161225084512612/25/16 08:45:31  5-MIN KAOH 251345Z AUTO 06008KT 4SM BR OVC009 01/00 A3043 510 96 -1000 060/08 RMK AO2 CIG 006V011 T00060000
04850KAOH AOH20161225085012112/25/16 08:50:31  5-MIN KAOH 251350Z AUTO 06008KT 5SM BR OVC009 01/00 A3043 510 96 -1000 070/08 RMK AO2 SLP313 T00060000
04850KAOH AOH20161225085511412/25/16 08:55:31  5-MIN KAOH 251355Z AUTO 07008KT 5SM BR OVC009 01/00 A3043 510 96 -1000 070/08 RMK AO2 T00060000
04850KAOH AOH20161225090011412/25/16 09:00:31  5-MIN KAOH 251400Z AUTO 06008KT 5SM BR OVC009 01/00 A3043 510 96 -1000 070/08 RMK AO2 T00060000
04850KAOH AOH20161225090511412/25/16 09:05:31  5-MIN KAOH 251405Z AUTO 07009KT 5SM BR OVC009 01/00 A3043 510 96 -1000 070/09 RMK AO2 T00060000
04850KAOH AOH20161225091011412/25/16 09:10:31  5-MIN KAOH 251410Z AUTO 07009KT 5SM BR OVC009 01/00 A3043 510 96 -1000 070/09 RMK AO2 T00060000
04850KAOH AOH20161225091512212/25/16 09:15:31  5-MIN KAOH 251415Z AUTO 07008KT 5SM BR BKN006 OVC010 01/01 A3043 510 100 -1000 070/08 RMK AO2 T00060006
04850KAOH AOH20161225092012212/25/16 09:20:31  5-MIN KAOH 251420Z AUTO 07010KT 5SM BR BKN006 OVC010 01/01 A3043 510 100 -1000 070/10 RMK AO2 T00060006
04850KAOH AOH20161225092512612/25/16 09:25:31  5-MIN KAOH 251425Z AUTO 07010KT 5SM BR OVC006 01/00 A3043 510 96 -1000 070/10 RMK AO2 CIG 005V009 T00060000
04850KAOH AOH20161225093011512/25/16 09:30:31  5-MIN KAOH 251430Z AUTO 07010KT 5SM BR OVC006 01/01 A3043 510 100 -1000 080/10 RMK AO2 T00060006
04850KAOH AOH20161225093511512/25/16 09:35:31  5-MIN KAOH 251435Z AUTO 07009KT 5SM BR OVC006 01/01 A3043 510 100 -1000 070/09 RMK AO2 T00060006
04850KAOH AOH20161225094011512/25/16 09:40:31  5-MIN KAOH 251440Z AUTO 07009KT 5SM BR OVC006 01/01 A3043 510 100 -1000 080/09 RMK AO2 T00060006
04850KAOH AOH20161225094511512/25/16 09:45:31  5-MIN KAOH 251445Z AUTO 07009KT 5SM BR OVC006 01/01 A3043 510 100 -1000 080/09 RMK AO2 T00060006
04850KAOH AOH20161225095012812/25/16 09:50:31  5-MIN KAOH 251450Z AUTO 07010KT 5SM BR OVC006 01/01 A3043 510 100 -1000 080/10 RMK AO2 SLP314 T00060006 53001
04850KAOH AOH20161225095511512/25/16 09:55:31  5-MIN KAOH 251455Z AUTO 06011KT 5SM BR OVC006 01/01 A3043 510 100 -1000 070/11 RMK AO2 T00060006
04850KAOH AOH20161225100011512/25/16 10:00:31  5-MIN KAOH 251500Z AUTO 06009KT 5SM BR OVC006 01/01 A3043 510 100 -1000 070/09 RMK AO2 T00060006
04850KAOH AOH20161225100511412/25/16 10:05:31  5-MIN KAOH 251505Z AUTO 06010KT 5SM BR OVC005 01/01 A3043 510 96 -1000 070/10 RMK AO2 T00110006
04850KAOH AOH20161225101011412/25/16 10:10:31  5-MIN KAOH 251510Z AUTO 06010KT 5SM BR OVC005 01/01 A3044 500 96 -1000 060/10 RMK AO2 T00110006
04850KAOH AOH20161225101511412/25/16 10:15:31  5-MIN KAOH 251515Z AUTO 06009KT 5SM BR OVC005 01/01 A3044 500 96 -1000 070/09 RMK AO2 T00110006
04850KAOH AOH20161225102011412/25/16 10:20:31  5-MIN KAOH 251520Z AUTO 06009KT 6SM BR OVC005 01/01 A3044 500 96 -1000 070/09 RMK AO2 T00110006
04850KAOH AOH20161225102511412/25/16 10:25:31  5-MIN KAOH 251525Z AUTO 06010KT 6SM BR OVC005 01/01 A3045 490 96 -1000 070/10 RMK AO2 T00110006
04850KAOH AOH20161225103011412/25/16 10:30:31  5-MIN KAOH 251530Z AUTO 06010KT 6SM BR OVC005 01/01 A3045 490 96 -1000 070/10 RMK AO2 T00110006
04850KAOH AOH20161225103511412/25/16 10:35:31  5-MIN KAOH 251535Z AUTO 06010KT 6SM BR OVC005 01/01 A3045 490 96 -1000 070/10 RMK AO2 T00110006
04850KAOH AOH20161225104011412/25/16 10:40:31  5-MIN KAOH 251540Z AUTO 06009KT 5SM BR OVC005 01/01 A3045 490 96 -1000 070/09 RMK AO2 T00110006
04850KAOH AOH20161225104511412/25/16 10:45:31  5-MIN KAOH 251545Z AUTO 07009KT 5SM BR OVC006 01/01 A3045 490 96 -1000 080/09 RMK AO2 T00110006
04850KAOH AOH20161225105012112/25/16 10:50:31  5-MIN KAOH 251550Z AUTO 07010KT 5SM BR OVC006 01/01 A3045 490 96 -1000 080/10 RMK AO2 SLP321 T00110006
04850KAOH AOH20161225105511412/25/16 10:55:31  5-MIN KAOH 251555Z AUTO 07010KT 5SM BR OVC006 01/01 A3045 490 96 -1000 080/10 RMK AO2 T00110006
04850KAOH AOH20161225110011412/25/16 11:00:31  5-MIN KAOH 251600Z AUTO 08009KT 4SM BR OVC006 01/01 A3044 500 96 -1000 080/09 RMK AO2 T00110006
04850KAOH AOH20161225110511412/25/16 11:05:31  5-MIN KAOH 251605Z AUTO 07010KT 4SM BR OVC006 01/01 A3044 500 96 -1000 080/10 RMK AO2 T00110006
04850KAOH AOH20161225111011412/25/16 11:10:31  5-MIN KAOH 251610Z AUTO 08013KT 4SM BR OVC006 01/01 A3044 500 96 -1000 080/13 RMK AO2 T00110006
04850KAOH AOH20161225111511412/25/16 11:15:31  5-MIN KAOH 251615Z AUTO 07009KT 4SM BR OVC006 01/01 A3044 500 96 -1000 080/09 RMK AO2 T00110006
04850KAOH AOH20161225112011412/25/16 11:20:31  5-MIN KAOH 251620Z AUTO 07013KT 4SM BR OVC006 01/01 A3044 500 96 -1000 080/13 RMK AO2 T00110006
04850KAOH AOH20161225112511412/25/16 11:25:31  5-MIN KAOH 251625Z AUTO 07012KT 3SM BR OVC006 01/01 A3044 500 96 -1000 080/12 RMK AO2 T00110006
04850KAOH AOH20161225113011412/25/16 11:30:31  5-MIN KAOH 251630Z AUTO 08009KT 3SM BR OVC006 01/01 A3044 500 96 -1000 080/09 RMK AO2 T00110006
04850KAOH AOH20161225113511412/25/16 11:35:31  5-MIN KAOH 251635Z AUTO 08010KT 3SM BR OVC006 01/01 A3043 510 96 -1000 080/10 RMK AO2 T00110006
04850KAOH AOH20161225114011412/25/16 11:40:31  5-MIN KAOH 251640Z AUTO 07010KT 3SM BR OVC006 01/01 A3043 510 96 -1000 080/10 RMK AO2 T00110006
04850KAOH AOH20161225114511412/25/16 11:45:31  5-MIN KAOH 251645Z AUTO 07009KT 3SM BR OVC006 01/01 A3043 510 96 -1000 080/09 RMK AO2 T00110006
04850KAOH AOH20161225115012212/25/16 11:50:31  5-MIN KAOH 251650Z AUTO 07011KT 3SM BR OVC005 01/01 A3043 510 100 -1000 070/11 RMK AO2 SLP313 T00110011
04850KAOH AOH20161225115511412/25/16 11:55:31  5-MIN KAOH 251655Z AUTO 07012KT 3SM BR OVC005 01/01 A3043 510 96 -1000 080/12 RMK AO2 T00110006
04850KAOH AOH20161225120011812/25/16 12:00:31  5-MIN KAOH 251700Z AUTO 07012KT 2 1/2SM BR OVC005 01/01 A3042 520 96 -1000 080/12 RMK AO2 T00110006
04850KAOH AOH20161225120511812/25/16 12:05:31  5-MIN KAOH 251705Z AUTO 08012KT 2 1/2SM BR OVC005 01/01 A3042 520 96 -1000 080/12 RMK AO2 T00110006
04850KAOH AOH20161225121011812/25/16 12:10:31  5-MIN KAOH 251710Z AUTO 07010KT 2 1/2SM BR OVC005 01/01 A3041 530 100 -900 080/10 RMK AO2 T00110011
04850KAOH AOH20161225121511812/25/16 12:15:31  5-MIN KAOH 251715Z AUTO 07010KT 2 1/2SM BR OVC005 01/01 A3041 530 100 -900 070/10 RMK AO2 T00110011
04850KAOH AOH20161225122011812/25/16 12:20:31  5-MIN KAOH 251720Z AUTO 07009KT 2 1/2SM BR OVC004 01/01 A3041 530 100 -900 080/09 RMK AO2 T00110011
04850KAOH AOH20161225122511812/25/16 12:25:31  5-MIN KAOH 251725Z AUTO 06009KT 2 1/2SM BR OVC004 01/01 A3040 530 100 -900 070/09 RMK AO2 T00110011
04850KAOH AOH20161225123011812/25/16 12:30:31  5-MIN KAOH 251730Z AUTO 07010KT 2 1/2SM BR OVC004 01/01 A3040 540 100 -900 080/10 RMK AO2 T00110011
04850KAOH AOH20161225123511712/25/16 12:35:31  5-MIN KAOH 251735Z AUTO 07008KT 2 1/2SM BR OVC004 02/01 A3040 540 96 -900 070/08 RMK AO2 T00170011
04850KAOH AOH20161225124011712/25/16 12:40:31  5-MIN KAOH 251740Z AUTO 06010KT 2 1/2SM BR OVC004 02/01 A3040 540 96 -900 070/10 RMK AO2 T00170011
04850KAOH AOH20161225124511312/25/16 12:45:31  5-MIN KAOH 251745Z AUTO 08010KT 3SM BR OVC004 02/01 A3040 540 96 -900 080/10 RMK AO2 T00170011
04850KAOH AOH20161225125010312/25/16 12:50:31  5-MIN KAOH 251750Z AUTO 07010KT 3SM BR OVC004 02/01 A3040 540 96 -900 080/10 RMK AO2
04850KAOH AOH20161225125511312/25/16 12:55:31  5-MIN KAOH 251755Z AUTO 08011KT 3SM BR OVC004 02/01 A3039 540 96 -900 090/11 RMK AO2 T00170011
04850KAOH AOH20161225130011412/25/16 13:00:31  5-MIN KAOH 251800Z AUTO 08008KT 3SM BR OVC005 02/02 A3039 540 100 -900 090/08 RMK AO2 T00170017
04850KAOH AOH20161225130511412/25/16 13:05:31  5-MIN KAOH 251805Z AUTO 08009KT 3SM BR OVC005 02/02 A3039 550 100 -900 090/09 RMK AO2 T00170017
04850KAOH AOH20161225131011812/25/16 13:10:31  5-MIN KAOH 251810Z AUTO 08010KT 2 1/2SM BR OVC005 02/02 A3038 550 100 -800 090/10 RMK AO2 T00170017
04850KAOH AOH20161225131511812/25/16 13:15:31  5-MIN KAOH 251815Z AUTO 08011KT 2 1/2SM BR OVC004 02/02 A3038 560 100 -800 080/11 RMK AO2 T00170017
04850KAOH AOH20161225132011812/25/16 13:20:31  5-MIN KAOH 251820Z AUTO 07011KT 2 1/2SM BR OVC004 02/02 A3037 560 100 -800 080/11 RMK AO2 T00170017
04850KAOH AOH20161225132511412/25/16 13:25:31  5-MIN KAOH 251825Z AUTO 07011KT 3SM BR OVC004 02/02 A3037 560 100 -800 080/11 RMK AO2 T00170017
04850KAOH AOH20161225133011312/25/16 13:30:31  5-MIN KAOH 251830Z AUTO 07010KT 3SM BR OVC004 02/02 A3037 560 96 -800 080/10 RMK AO2 T00220017
04850KAOH AOH20161225133511312/25/16 13:35:31  5-MIN KAOH 251835Z AUTO 08011KT 4SM BR OVC004 02/02 A3037 570 96 -800 080/11 RMK AO2 T00220017
04850KAOH AOH20161225134011312/25/16 13:40:31  5-MIN KAOH 251840Z AUTO 08011KT 4SM BR OVC004 02/02 A3037 570 96 -800 090/11 RMK AO2 T00220017
04850KAOH AOH20161225134511312/25/16 13:45:31  5-MIN KAOH 251845Z AUTO 07009KT 5SM BR OVC004 02/02 A3037 570 96 -800 080/09 RMK AO2 T00220017
04850KAOH AOH20161225135012012/25/16 13:50:31  5-MIN KAOH 251850Z AUTO 08012KT 5SM BR OVC004 02/02 A3036 570 96 -800 080/12 RMK AO2 SLP292 T00220017
04850KAOH AOH20161225135511312/25/16 13:55:31  5-MIN KAOH 251855Z AUTO 07011KT 6SM BR OVC004 02/02 A3036 570 96 -800 080/11 RMK AO2 T00220017
04850KAOH AOH20161225140011312/25/16 14:00:31  5-MIN KAOH 251900Z AUTO 07013KT 6SM BR OVC005 02/02 A3036 580 96 -700 080/13 RMK AO2 T00220017
04850KAOH AOH20161225140511312/25/16 14:05:31  5-MIN KAOH 251905Z AUTO 07012KT 6SM BR OVC005 02/02 A3036 580 96 -700 080/12 RMK AO2 T00220017
04850KAOH AOH20161225141011412/25/16 14:10:31  5-MIN KAOH 251910Z AUTO 07011KT 6SM BR OVC005 02/02 A3035 580 100 -700 080/11 RMK AO2 T00220022
04850KAOH AOH20161225141511312/25/16 14:15:31  5-MIN KAOH 251915Z AUTO 08010KT 6SM BR OVC005 02/02 A3035 580 96 -700 090/10 RMK AO2 T00220017
04850KAOH AOH20161225142011312/25/16 14:20:31  5-MIN KAOH 251920Z AUTO 08011KT 6SM BR OVC005 02/02 A3035 580 96 -700 080/11 RMK AO2 T00220017
04850KAOH AOH20161225142511312/25/16 14:25:31  5-MIN KAOH 251925Z AUTO 08010KT 6SM BR OVC005 02/02 A3036 580 96 -700 090/10 RMK AO2 T00220017
04850KAOH AOH20161225143011412/25/16 14:30:31  5-MIN KAOH 251930Z AUTO 08009KT 6SM BR OVC005 02/02 A3036 580 100 -700 090/09 RMK AO2 T00220022
04850KAOH AOH20161225143511412/25/16 14:35:31  5-MIN KAOH 251935Z AUTO 08011KT 6SM BR OVC005 02/02 A3036 580 100 -700 080/11 RMK AO2 T00220022
04850KAOH AOH20161225144011412/25/16 14:40:31  5-MIN KAOH 251940Z AUTO 08010KT 6SM BR OVC005 02/02 A3035 580 100 -700 080/10 RMK AO2 T00220022
04850KAOH AOH20161225144511412/25/16 14:45:31  5-MIN KAOH 251945Z AUTO 08010KT 6SM BR OVC005 02/02 A3036 580 100 -700 080/10 RMK AO2 T00220022
04850KAOH AOH20161225145012112/25/16 14:50:31  5-MIN KAOH 251950Z AUTO 07009KT 6SM BR OVC005 02/02 A3036 580 100 -700 070/09 RMK AO2 SLP289 T00220022
04850KAOH AOH20161225145511412/25/16 14:55:31  5-MIN KAOH 251955Z AUTO 07010KT 6SM BR OVC005 02/02 A3036 570 100 -800 080/10 RMK AO2 T00220022
04850KAOH AOH20161225150011412/25/16 15:00:31  5-MIN KAOH 252000Z AUTO 07010KT 5SM BR OVC005 02/02 A3036 570 100 -800 080/10 RMK AO2 T00220022
04850KAOH AOH20161225150511312/25/16 15:05:31  5-MIN KAOH 252005Z AUTO 06009KT 5SM BR OVC005 02/02 A3036 570 96 -800 060/09 RMK AO2 T00220017
04850KAOH AOH20161225151011412/25/16 15:10:31  5-MIN KAOH 252010Z AUTO 06007KT 5SM BR OVC005 02/02 A3036 570 100 -800 070/07 RMK AO2 T00220022
04850KAOH AOH20161225151511412/25/16 15:15:31  5-MIN KAOH 252015Z AUTO 06008KT 5SM BR OVC005 02/02 A3036 570 100 -800 070/08 RMK AO2 T00220022
04850KAOH AOH20161225152011312/25/16 15:20:31  5-MIN KAOH 252020Z AUTO 06009KT 5SM BR OVC005 02/02 A3036 570 96 -800 070/09 RMK AO2 T00220017
04850KAOH AOH20161225152511312/25/16 15:25:31  5-MIN KAOH 252025Z AUTO 07008KT 5SM BR OVC005 02/02 A3036 570 96 -800 070/08 RMK AO2 T00220017
04850KAOH AOH20161225153011312/25/16 15:30:31  5-MIN KAOH 252030Z AUTO 06008KT 5SM BR OVC005 02/02 A3036 570 96 -800 060/08 RMK AO2 T00220017
04850KAOH AOH20161225153511312/25/16 15:35:31  5-MIN KAOH 252035Z AUTO 06008KT 5SM BR OVC005 02/02 A3036 570 96 -800 070/08 RMK AO2 T00220017
04850KAOH AOH20161225154011312/25/16 15:40:31  5-MIN KAOH 252040Z AUTO 07009KT 5SM BR OVC005 02/02 A3036 570 96 -800 080/09 RMK AO2 T00220017
04850KAOH AOH20161225154511312/25/16 15:45:31  5-MIN KAOH 252045Z AUTO 07009KT 4SM BR OVC005 02/02 A3036 570 96 -800 080/09 RMK AO2 T00220017
04850KAOH AOH20161225155012612/25/16 15:50:31  5-MIN KAOH 252050Z AUTO 08010KT 4SM BR OVC005 02/02 A3036 570 96 -800 080/10 RMK AO2 SLP292 T00220017 58012
04850KAOH AOH20161225155511312/25/16 15:55:31  5-MIN KAOH 252055Z AUTO 07009KT 4SM BR OVC005 02/02 A3036 570 96 -800 080/09 RMK AO2 T00220017
04850KAOH AOH20161225160011312/25/16 16:00:31  5-MIN KAOH 252100Z AUTO 07009KT 4SM BR OVC005 02/02 A3036 570 96 -800 080/09 RMK AO2 T00220017
04850KAOH AOH20161225160511312/25/16 16:05:31  5-MIN KAOH 252105Z AUTO 07010KT 4SM BR OVC005 02/02 A3036 570 96 -800 080/10 RMK AO2 T00220017
04850KAOH AOH20161225161011312/25/16 16:10:31  5-MIN KAOH 252110Z AUTO 07007KT 4SM BR OVC005 02/02 A3036 570 96 -800 080/07 RMK AO2 T00220017
04850KAOH AOH20161225161511312/25/16 16:15:31  5-MIN KAOH 252115Z AUTO 07008KT 3SM BR OVC005 02/02 A3037 570 96 -800 080/08 RMK AO2 T00220017
04850KAOH AOH20161225162011312/25/16 16:20:31  5-MIN KAOH 252120Z AUTO 07008KT 3SM BR OVC005 02/02 A3036 570 96 -800 070/08 RMK AO2 T00220017
04850KAOH AOH20161225162511312/25/16 16:25:31  5-MIN KAOH 252125Z AUTO 07009KT 3SM BR OVC005 02/02 A3036 570 96 -800 080/09 RMK AO2 T00220017
04850KAOH AOH20161225163011312/25/16 16:30:31  5-MIN KAOH 252130Z AUTO 07009KT 3SM BR OVC005 02/02 A3036 580 96 -700 080/09 RMK AO2 T00220017
04850KAOH AOH20161225163511312/25/16 16:35:31  5-MIN KAOH 252135Z AUTO 08008KT 3SM BR OVC005 02/02 A3036 580 96 -700 080/08 RMK AO2 T00220017
04850KAOH AOH20161225164011312/25/16 16:40:31  5-MIN KAOH 252140Z AUTO 08009KT 3SM BR OVC005 02/02 A3036 580 96 -700 080/09 RMK AO2 T00220017
04850KAOH AOH20161225164511312/25/16 16:45:31  5-MIN KAOH 252145Z AUTO 08009KT 3SM BR OVC005 02/02 A3036 580 96 -700 080/09 RMK AO2 T00220017
04850KAOH AOH20161225165010312/25/16 16:50:31  5-MIN KAOH 252150Z AUTO 08009KT 3SM BR OVC004 02/02 A3035 580 96 -700 090/09 RMK AO2
04850KAOH AOH20161225165511312/25/16 16:55:31  5-MIN KAOH 252155Z AUTO 08010KT 3SM BR OVC004 02/02 A3035 580 96 -700 090/10 RMK AO2 T00220017
04850KAOH AOH20161225170011312/25/16 17:00:31  5-MIN KAOH 252200Z AUTO 08010KT 3SM BR OVC004 02/02 A3035 580 96 -700 090/10 RMK AO2 T00220017
04850KAOH AOH20161225170511712/25/16 17:05:31  5-MIN KAOH 252205Z AUTO 08011KT 2 1/2SM BR OVC004 02/02 A3035 580 96 -700 090/11 RMK AO2 T00220017
04850KAOH AOH20161225171011712/25/16 17:10:31  5-MIN KAOH 252210Z AUTO 08010KT 2 1/2SM BR OVC004 02/02 A3035 590 96 -700 080/10 RMK AO2 T00220017
04850KAOH AOH20161225171511712/25/16 17:15:31  5-MIN KAOH 252215Z AUTO 08010KT 2 1/2SM BR OVC004 02/02 A3034 590 96 -700 090/10 RMK AO2 T00220017
04850KAOH AOH20161225172011312/25/16 17:20:31  5-MIN KAOH 252220Z AUTO 09012KT 3SM BR OVC004 02/02 A3035 590 96 -700 090/12 RMK AO2 T00220017
04850KAOH AOH20161225172511312/25/16 17:25:31  5-MIN KAOH 252225Z AUTO 09011KT 4SM BR OVC005 02/02 A3034 590 96 -700 090/11 RMK AO2 T00220017
04850KAOH AOH20161225173011312/25/16 17:30:31  5-MIN KAOH 252230Z AUTO 08011KT 4SM BR OVC005 02/02 A3035 590 96 -700 090/11 RMK AO2 T00220017
04850KAOH AOH20161225173511312/25/16 17:35:31  5-MIN KAOH 252235Z AUTO 09011KT 5SM BR OVC005 02/02 A3035 580 96 -700 090/11 RMK AO2 T00220017
04850KAOH AOH20161225174011312/25/16 17:40:31  5-MIN KAOH 252240Z AUTO 08010KT 5SM BR OVC005 02/02 A3035 590 96 -700 090/10 RMK AO2 T00220017
04850KAOH AOH20161225174511312/25/16 17:45:31  5-MIN KAOH 252245Z AUTO 09011KT 5SM BR OVC005 02/02 A3034 590 96 -700 090/11 RMK AO2 T00220017
04850KAOH AOH20161225175012712/25/16 17:50:31  5-MIN KAOH 252250Z AUTO 08010KT 5SM BR BKN005 OVC013 02/02 A3034 590 96 -700 090/10 RMK AO2 SLP284 T00220017
04850KAOH AOH20161225175512012/25/16 17:55:31  5-MIN KAOH 252255Z AUTO 08010KT 6SM BR BKN005 OVC013 02/02 A3034 590 96 -700 090/10 RMK AO2 T00220017
04850KAOH AOH20161225180012012/25/16 18:00:31  5-MIN KAOH 252300Z AUTO 08011KT 6SM BR BKN006 OVC013 02/02 A3034 590 96 -700 090/11 RMK AO2 T00220017
04850KAOH AOH20161225180512012/25/16 18:05:31  5-MIN KAOH 252305Z AUTO 09009KT 6SM BR SCT006 OVC013 02/02 A3034 590 96 -700 100/09 RMK AO2 T00220017
04850KAOH AOH20161225181012012/25/16 18:10:31  5-MIN KAOH 252310Z AUTO 09012KT 6SM BR FEW006 OVC012 02/02 A3034 590 96 -700 100/12 RMK AO2 T00220017
04850KAOH AOH20161225181511712/25/16 18:15:31  5-MIN KAOH 252315Z AUTO 09009KT 7SM FEW006 OVC012 02/02 A3034 590 96 -700 090/09 RMK AO2 T00220017
04850KAOH AOH20161225182011012/25/16 18:20:31  5-MIN KAOH 252320Z AUTO 08009KT 7SM OVC011 02/02 A3034 590 96 -700 090/09 RMK AO2 T00220017
04850KAOH AOH20161225182511012/25/16 18:25:31  5-MIN KAOH 252325Z AUTO 08009KT 7SM OVC011 02/02 A3034 590 96 -700 090/09 RMK AO2 T00220017
04850KAOH AOH20161225183011012/25/16 18:30:31  5-MIN KAOH 252330Z AUTO 08008KT 7SM OVC011 02/02 A3034 590 96 -700 090/08 RMK AO2 T00220017
04850KAOH AOH20161225183511012/25/16 18:35:31  5-MIN KAOH 252335Z AUTO 08009KT 7SM OVC011 02/02 A3035 590 96 -700 080/09 RMK AO2 T00220017
04850KAOH AOH20161225184011012/25/16 18:40:31  5-MIN KAOH 252340Z AUTO 07008KT 7SM OVC011 02/02 A3035 590 96 -700 080/08 RMK AO2 T00220017
04850KAOH AOH20161225184511012/25/16 18:45:31  5-MIN KAOH 252345Z AUTO 08008KT 7SM OVC011 02/02 A3034 590 96 -700 090/08 RMK AO2 T00220017
04850KAOH AOH20161225185013512/25/16 18:50:31  5-MIN KAOH 252350Z AUTO 08009KT 7SM OVC011 02/02 A3034 590 96 -700 090/09 RMK AO2 SLP285 T00220017 10022 20017 55010
04850KAOH AOH20161225185511112/25/16 18:55:31  5-MIN KAOH 252355Z AUTO 08009KT 7SM OVC011 02/02 A3034 590 100 -700 090/09 RMK AO2 T00220022
04850KAOH AOH20161225190011012/25/16 19:00:31  5-MIN KAOH 260000Z AUTO 08010KT 7SM OVC011 03/02 A3034 590 96 -700 080/10 RMK AO2 T00280022
04850KAOH AOH20161225190511012/25/16 19:05:31  5-MIN KAOH 260005Z AUTO 08011KT 7SM OVC011 02/02 A3034 590 96 -700 080/11 RMK AO2 T00220017
04850KAOH AOH20161225191011012/25/16 19:10:31  5-MIN KAOH 260010Z AUTO 08010KT 7SM OVC011 03/02 A3034 590 92 -700 080/10 RMK AO2 T00280017
04850KAOH AOH20161225191511012/25/16 19:15:31  5-MIN KAOH 260015Z AUTO 08010KT 7SM OVC012 03/02 A3034 590 92 -700 080/10 RMK AO2 T00280017
04850KAOH AOH20161225192011012/25/16 19:20:31  5-MIN KAOH 260020Z AUTO 08009KT 7SM OVC012 03/02 A3034 590 96 -700 090/09 RMK AO2 T00280022
04850KAOH AOH20161225192511012/25/16 19:25:31  5-MIN KAOH 260025Z AUTO 09010KT 7SM OVC012 03/02 A3034 590 96 -700 100/10 RMK AO2 T00280022
04850KAOH AOH20161225193011012/25/16 19:30:31  5-MIN KAOH 260030Z AUTO 10011KT 7SM OVC012 03/02 A3033 600 96 -700 100/11 RMK AO2 T00280022
04850KAOH AOH20161225193511012/25/16 19:35:31  5-MIN KAOH 260035Z AUTO 10013KT 7SM OVC012 03/02 A3033 600 96 -700 100/13 RMK AO2 T00280022
04850KAOH AOH20161225194011012/25/16 19:40:31  5-MIN KAOH 260040Z AUTO 10011KT 7SM OVC012 03/02 A3033 600 96 -700 100/11 RMK AO2 T00280022
04850KAOH AOH20161225194511012/25/16 19:45:31  5-MIN KAOH 260045Z AUTO 10012KT 7SM OVC012 03/02 A3033 600 96 -700 100/12 RMK AO2 T00280022
04850KAOH AOH20161225195011712/25/16 19:50:31  5-MIN KAOH 260050Z AUTO 10012KT 7SM OVC012 03/02 A3033 600 96 -700 110/12 RMK AO2 SLP281 T00280022
04850KAOH AOH20161225195511012/25/16 19:55:31  5-MIN KAOH 260055Z AUTO 10013KT 7SM OVC011 03/02 A3033 600 96 -600 100/13 RMK AO2 T00280022
04850KAOH AOH20161225200011012/25/16 20:00:31  5-MIN KAOH 260100Z AUTO 09013KT 7SM OVC011 03/02 A3032 610 96 -600 100/13 RMK AO2 T00280022
04850KAOH AOH20161225200511012/25/16 20:05:31  5-MIN KAOH 260105Z AUTO 10011KT 7SM OVC011 03/02 A3033 600 96 -600 100/11 RMK AO2 T00280022
04850KAOH AOH20161225201011012/25/16 20:10:31  5-MIN KAOH 260110Z AUTO 10012KT 7SM OVC010 03/02 A3032 610 96 -600 100/12 RMK AO2 T00280022
04850KAOH AOH20161225201511012/25/16 20:15:31  5-MIN KAOH 260115Z AUTO 11010KT 7SM OVC010 03/02 A3033 600 96 -600 110/10 RMK AO2 T00280022
04850KAOH AOH20161225202011012/25/16 20:20:31  5-MIN KAOH 260120Z AUTO 11011KT 7SM OVC009 03/02 A3032 610 96 -600 120/11 RMK AO2 T00280022
04850KAOH AOH20161225202511012/25/16 20:25:31  5-MIN KAOH 260125Z AUTO 11012KT 7SM OVC009 03/02 A3032 610 96 -600 120/12 RMK AO2 T00280022
04850KAOH AOH20161225203011012/25/16 20:30:31  5-MIN KAOH 260130Z AUTO 11012KT 7SM OVC009 03/02 A3032 610 96 -600 120/12 RMK AO2 T00280022
04850KAOH AOH20161225203511012/25/16 20:35:31  5-MIN KAOH 260135Z AUTO 11011KT 7SM OVC009 03/02 A3032 610 96 -600 110/11 RMK AO2 T00280022
04850KAOH AOH20161225204011012/25/16 20:40:31  5-MIN KAOH 260140Z AUTO 11011KT 7SM OVC009 03/02 A3032 610 96 -600 110/11 RMK AO2 T00280022
04850KAOH AOH20161225204511012/25/16 20:45:31  5-MIN KAOH 260145Z AUTO 11011KT 7SM OVC009 03/02 A3032 610 96 -600 120/11 RMK AO2 T00280022
04850KAOH AOH20161225205011712/25/16 20:50:31  5-MIN KAOH 260150Z AUTO 12011KT 7SM OVC008 03/02 A3032 610 92 -600 120/11 RMK AO2 SLP276 T00330022
04850KAOH AOH20161225205511012/25/16 20:55:31  5-MIN KAOH 260155Z AUTO 11012KT 7SM OVC008 03/02 A3032 610 92 -600 120/12 RMK AO2 T00330022
04850KAOH AOH20161225210011012/25/16 21:00:31  5-MIN KAOH 260200Z AUTO 11011KT 8SM OVC008 03/02 A3032 610 92 -600 120/11 RMK AO2 T00330022
04850KAOH AOH20161225210511012/25/16 21:05:31  5-MIN KAOH 260205Z AUTO 12011KT 8SM OVC009 03/03 A3032 610 96 -600 120/11 RMK AO2 T00330028
04850KAOH AOH20161225211011012/25/16 21:10:31  5-MIN KAOH 260210Z AUTO 12010KT 8SM OVC009 03/03 A3032 610 96 -600 120/10 RMK AO2 T00330028
04850KAOH AOH20161225211511012/25/16 21:15:31  5-MIN KAOH 260215Z AUTO 11010KT 8SM OVC009 03/03 A3032 610 96 -600 120/10 RMK AO2 T00330028
04850KAOH AOH20161225212011012/25/16 21:20:31  5-MIN KAOH 260220Z AUTO 12009KT 8SM OVC010 03/03 A3032 610 96 -600 120/09 RMK AO2 T00330028
04850KAOH AOH20161225212511012/25/16 21:25:31  5-MIN KAOH 260225Z AUTO 12011KT 8SM OVC010 03/03 A3031 620 96 -600 120/11 RMK AO2 T00330028
04850KAOH AOH20161225213011012/25/16 21:30:31  5-MIN KAOH 260230Z AUTO 12009KT 8SM OVC010 04/03 A3031 620 92 -500 130/09 RMK AO2 T00390028
04850KAOH AOH20161225213511012/25/16 21:35:31  5-MIN KAOH 260235Z AUTO 12010KT 9SM OVC010 04/03 A3031 620 92 -500 130/10 RMK AO2 T00390028
04850KAOH AOH20161225214011012/25/16 21:40:31  5-MIN KAOH 260240Z AUTO 12011KT 9SM OVC010 04/03 A3031 620 92 -500 130/11 RMK AO2 T00390028
04850KAOH AOH20161225214511012/25/16 21:45:31  5-MIN KAOH 260245Z AUTO 12012KT 9SM OVC010 04/03 A3030 630 92 -500 120/12 RMK AO2 T00390028
04850KAOH AOH20161225215012312/25/16 21:50:31  5-MIN KAOH 260250Z AUTO 12011KT 9SM OVC010 04/03 A3030 620 92 -500 130/11 RMK AO2 SLP270 T00390028 55003
04850KAOH AOH20161225215511012/25/16 21:55:31  5-MIN KAOH 260255Z AUTO 13011KT 9SM OVC010 04/03 A3030 620 96 -500 130/11 RMK AO2 T00390033
04850KAOH AOH20161225220011112/25/16 22:00:31  5-MIN KAOH 260300Z AUTO 12013KT 10SM OVC010 04/03 A3030 630 92 -400 130/13 RMK AO2 T00440033
04850KAOH AOH20161225220511112/25/16 22:05:31  5-MIN KAOH 260305Z AUTO 12012KT 10SM OVC010 04/03 A3030 630 92 -400 130/12 RMK AO2 T00440033
04850KAOH AOH20161225221011112/25/16 22:10:31  5-MIN KAOH 260310Z AUTO 12014KT 10SM OVC010 04/03 A3030 630 92 -400 130/14 RMK AO2 T00440033
04850KAOH AOH20161225221511112/25/16 22:15:31  5-MIN KAOH 260315Z AUTO 12014KT 10SM OVC010 04/03 A3030 630 92 -400 130/14 RMK AO2 T00440033
04850KAOH AOH20161225222011112/25/16 22:20:31  5-MIN KAOH 260320Z AUTO 12012KT 10SM OVC010 04/03 A3030 630 92 -400 130/12 RMK AO2 T00440033
04850KAOH AOH20161225222511112/25/16 22:25:31  5-MIN KAOH 260325Z AUTO 13014KT 10SM OVC010 04/03 A3029 630 92 -400 130/14 RMK AO2 T00440033
04850KAOH AOH20161225223011112/25/16 22:30:31  5-MIN KAOH 260330Z AUTO 12014KT 10SM OVC009 04/03 A3029 640 92 -400 130/14 RMK AO2 T00440033
04850KAOH AOH20161225223511112/25/16 22:35:31  5-MIN KAOH 260335Z AUTO 12014KT 10SM OVC009 04/03 A3029 640 92 -400 130/14 RMK AO2 T00440033
04850KAOH AOH20161225224011112/25/16 22:40:31  5-MIN KAOH 260340Z AUTO 13013KT 10SM OVC009 04/03 A3028 640 92 -400 130/13 RMK AO2 T00440033
04850KAOH AOH20161225224511812/25/16 22:45:31  5-MIN KAOH 260345Z AUTO 12015KT 10SM BKN009 OVC040 05/03 A3028 650 89 -300 130/15 RMK AO2 T00500033
04850KAOH AOH20161225225012512/25/16 22:50:31  5-MIN KAOH 260350Z AUTO 13014KT 10SM BKN009 OVC040 05/04 A3028 650 92 -300 140/14 RMK AO2 SLP261 T00500039
04850KAOH AOH20161225225511812/25/16 22:55:31  5-MIN KAOH 260355Z AUTO 13014KT 10SM BKN009 OVC040 05/04 A3028 650 92 -300 130/14 RMK AO2 T00500039
04850KAOH AOH20161225230011812/25/16 23:00:31  5-MIN KAOH 260400Z AUTO 13013KT 10SM BKN009 OVC040 05/04 A3028 650 92 -300 140/13 RMK AO2 T00500039
04850KAOH AOH20161225230511812/25/16 23:05:31  5-MIN KAOH 260405Z AUTO 13014KT 10SM BKN009 OVC040 05/04 A3028 650 92 -300 140/14 RMK AO2 T00500039
04850KAOH AOH20161225231011812/25/16 23:10:31  5-MIN KAOH 260410Z AUTO 14013KT 10SM BKN010 OVC040 05/04 A3028 650 92 -300 140/13 RMK AO2 T00500039
04850KAOH AOH20161225231511112/25/16 23:15:31  5-MIN KAOH 260415Z AUTO 13015KT 10SM OVC010 05/04 A3027 650 92 -300 140/15 RMK AO2 T00500039
04850KAOH AOH20161225232011112/25/16 23:20:31  5-MIN KAOH 260420Z AUTO 13014KT 10SM OVC010 05/04 A3027 650 92 -300 140/14 RMK AO2 T00500039
04850KAOH AOH20161225232511012/25/16 23:25:31  5-MIN KAOH 260425Z AUTO 13013KT 9SM OVC010 05/04 A3027 650 92 -300 140/13 RMK AO2 T00500039
04850KAOH AOH20161225233012612/25/16 23:30:31  5-MIN KAOH 260430Z AUTO 13013KT 9SM -RA OVC010 06/04 A3027 650 92 -200 140/13 RMK AO2 RAB27 P0000 T00560044
04850KAOH AOH20161225233512612/25/16 23:35:31  5-MIN KAOH 260435Z AUTO 13012KT 9SM -RA OVC009 06/04 A3027 650 92 -200 140/12 RMK AO2 RAB27 P0000 T00560044
04850KAOH AOH20161225234012612/25/16 23:40:31  5-MIN KAOH 260440Z AUTO 13011KT 10SM OVC009 06/04 A3027 650 92 -200 140/11 RMK AO2 RAB27E36 P0000 T00560044
04850KAOH AOH20161225234512512/25/16 23:45:31  5-MIN KAOH 260445Z AUTO 13011KT 9SM OVC009 06/04 A3027 660 92 -200 140/11 RMK AO2 RAB27E36 P0000 T00560044
04850KAOH AOH20161225235014212/25/16 23:50:31  5-MIN KAOH 260450Z AUTO 14011KT 9SM OVC009 06/04 A3027 660 92 -200 140/11 RMK AO2 RAB27E36 SLP256 P0000 T00560044 400560006
04850KAOH AOH20161225235511012/25/16 23:55:31  5-MIN KAOH 260455Z AUTO 14013KT 9SM OVC008 06/04 A3026 660 92 -200 140/13 RMK AO2 T00560044
04850KAOH AOH20161226000011012/26/16 00:00:31  5-MIN KAOH 260500Z AUTO 14011KT 9SM OVC008 06/05 A3026 660 96 -200 150/11 RMK AO2 T00560050
04850KAOH AOH20161226000511012/26/16 00:05:31  5-MIN KAOH 260505Z AUTO 14010KT 9SM OVC008 06/05 A3026 660 93 -200 150/10 RMK AO2 T00610050
04850KAOH AOH20161226001011012/26/16 00:10:31  5-MIN KAOH 260510Z AUTO 14011KT 9SM OVC008 06/05 A3026 670 93 -200 140/11 RMK AO2 T00610050
04850KAOH AOH20161226001511012/26/16 00:15:31  5-MIN KAOH 260515Z AUTO 13012KT 9SM OVC008 06/05 A3025 670 93 -200 140/12 RMK AO2 T00610050
04850KAOH AOH20161226002011012/26/16 00:20:31  5-MIN KAOH 260520Z AUTO 14012KT 9SM OVC008 06/05 A3025 670 93 -100 140/12 RMK AO2 T00610050
04850KAOH AOH20161226002511012/26/16 00:25:31  5-MIN KAOH 260525Z AUTO 14011KT 9SM OVC008 06/05 A3025 670 93 -200 140/11 RMK AO2 T00610050
04850KAOH AOH20161226003011012/26/16 00:30:31  5-MIN KAOH 260530Z AUTO 14011KT 9SM OVC008 06/05 A3025 680 93 -100 140/11 RMK AO2 T00610050
04850KAOH AOH20161226003511012/26/16 00:35:31  5-MIN KAOH 260535Z AUTO 13010KT 9SM OVC008 06/06 A3024 680 96 -100 140/10 RMK AO2 T00610056
04850KAOH AOH20161226004011012/26/16 00:40:31  5-MIN KAOH 260540Z AUTO 14011KT 9SM OVC008 06/06 A3024 680 96 -100 140/11 RMK AO2 T00610056
04850KAOH AOH20161226004511012/26/16 00:45:31  5-MIN KAOH 260545Z AUTO 14011KT 9SM OVC007 07/06 A3025 680 93 -100 150/11 RMK AO2 T00670056
04850KAOH AOH20161226005014212/26/16 00:50:31  5-MIN KAOH 260550Z AUTO 15011KT 10SM OVC007 07/06 A3025 680 93 -100 160/11 RMK AO2 SLP250 60000 T00670056 10067 20022 56013
04850KAOH AOH20161226005511112/26/16 00:55:31  5-MIN KAOH 260555Z AUTO 15011KT 10SM OVC007 07/06 A3025 680 96 -100 150/11 RMK AO2 T00670061
04850KAOH AOH20161226010011112/26/16 01:00:31  5-MIN KAOH 260600Z AUTO 15011KT 10SM OVC007 07/06 A3025 680 96 -100 150/11 RMK AO2 T00670061
04850KAOH AOH20161226010511012/26/16 01:05:31  5-MIN KAOH 260605Z AUTO 15010KT 9SM OVC007 07/06 A3025 680 96 -100 150/10 RMK AO2 T00670061
04850KAOH AOH20161226011011012/26/16 01:10:31  5-MIN KAOH 260610Z AUTO 14011KT 9SM OVC007 07/06 A3024 680 96 -100 150/11 RMK AO2 T00670061
04850KAOH AOH20161226011511012/26/16 01:15:31  5-MIN KAOH 260615Z AUTO 14009KT 9SM OVC006 07/06 A3024 680 96 -100 150/09 RMK AO2 T00670061
04850KAOH AOH20161226012010712/26/16 01:20:31  5-MIN KAOH 260620Z AUTO 15011KT 8SM OVC006 07/07 A3024 680 96 0 150/11 RMK AO2 T00720067
04850KAOH AOH20161226012511012/26/16 01:25:31  5-MIN KAOH 260625Z AUTO 15013KT 6SM BR OVC005 07/07 A3024 680 96 0 150/13 RMK AO2 T00720067
04850KAOH AOH20161226013011112/26/16 01:30:31  5-MIN KAOH 260630Z AUTO 15014KT 5SM BR OVC005 07/07 A3024 680 100 0 150/14 RMK AO2 T00720072
04850KAOH AOH20161226013511112/26/16 01:35:31  5-MIN KAOH 260635Z AUTO 15013KT 4SM BR OVC005 07/07 A3024 680 100 0 150/13 RMK AO2 T00720072
04850KAOH AOH20161226014011112/26/16 01:40:31  5-MIN KAOH 260640Z AUTO 15013KT 3SM BR OVC004 07/07 A3023 690 100 0 150/13 RMK AO2 T00720072
04850KAOH AOH20161226014511112/26/16 01:45:31  5-MIN KAOH 260645Z AUTO 15014KT 3SM BR OVC004 07/07 A3023 690 100 0 150/14 RMK AO2 T00720072
04850KAOH AOH20161226015011812/26/16 01:50:31  5-MIN KAOH 260650Z AUTO 15014KT 4SM BR OVC004 07/07 A3023 690 100 0 150/14 RMK AO2 SLP243 T00720072
04850KAOH AOH20161226015511112/26/16 01:55:31  5-MIN KAOH 260655Z AUTO 15015KT 4SM BR OVC004 07/07 A3023 700 100 0 150/15 RMK AO2 T00720072
04850KAOH AOH20161226020011112/26/16 02:00:31  5-MIN KAOH 260700Z AUTO 14014KT 4SM BR OVC003 07/07 A3022 700 100 0 150/14 RMK AO2 T00720072
04850KAOH AOH20161226020511112/26/16 02:05:31  5-MIN KAOH 260705Z AUTO 15014KT 3SM BR OVC003 08/08 A3022 700 100 0 160/14 RMK AO2 T00780078
04850KAOH AOH20161226021011512/26/16 02:10:31  5-MIN KAOH 260710Z AUTO 15014KT 2 1/2SM BR OVC003 08/08 A3022 700 100 0 160/14 RMK AO2 T00780078
04850KAOH AOH20161226021511712/26/16 02:15:31  5-MIN KAOH 260715Z AUTO 15015KT 2 1/2SM BR OVC003 08/08 A3021 710 100 100 150/15 RMK AO2 T00780078
04850KAOH AOH20161226022011512/26/16 02:20:31  5-MIN KAOH 260720Z AUTO 15014KT 2 1/2SM BR OVC003 08/08 A3021 710 100 0 150/14 RMK AO2 T00780078
04850KAOH AOH20161226022511112/26/16 02:25:31  5-MIN KAOH 260725Z AUTO 15014KT 2SM BR OVC003 08/08 A3021 710 100 0 160/14 RMK AO2 T00780078
04850KAOH AOH20161226023011712/26/16 02:30:31  5-MIN KAOH 260730Z AUTO 15015KT 2 1/2SM BR OVC003 08/08 A3021 710 100 100 160/15 RMK AO2 T00780078
04850KAOH AOH20161226023511712/26/16 02:35:31  5-MIN KAOH 260735Z AUTO 15015KT 2 1/2SM BR OVC003 08/08 A3021 710 100 100 160/15 RMK AO2 T00780078
04850KAOH AOH20161226024011312/26/16 02:40:31  5-MIN KAOH 260740Z AUTO 16014KT 3SM BR OVC003 08/08 A3021 710 100 100 160/14 RMK AO2 T00780078
04850KAOH AOH20161226024511312/26/16 02:45:31  5-MIN KAOH 260745Z AUTO 16013KT 4SM BR OVC003 08/08 A3020 720 100 100 160/13 RMK AO2 T00780078
04850KAOH AOH20161226025012012/26/16 02:50:31  5-MIN KAOH 260750Z AUTO 16013KT 4SM BR OVC003 08/08 A3020 720 100 100 170/13 RMK AO2 SLP234 T00780078
04850KAOH AOH20161226025511312/26/16 02:55:31  5-MIN KAOH 260755Z AUTO 16012KT 4SM BR OVC003 08/08 A3020 720 100 100 170/12 RMK AO2 T00780078
04850KAOH AOH20161226030012512/26/16 03:00:31  5-MIN KAOH 260800Z AUTO 16013KT 5SM BR OVC003 08/08 A3020 720 100 100 170/13 RMK AO2 CIG 002V008 T00780078
04850KAOH AOH20161226030512512/26/16 03:05:31  5-MIN KAOH 260805Z AUTO 16013KT 5SM BR OVC005 08/08 A3020 720 100 100 170/13 RMK AO2 CIG 003V008 T00780078
04850KAOH AOH20161226031013112/26/16 03:10:31  5-MIN KAOH 260810Z AUTO 16014KT 5SM BR BKN005 OVC070 08/08 A3020 720 96 100 170/14 RMK AO2 CIG 003V008 T00830078
04850KAOH AOH20161226031513112/26/16 03:15:31  5-MIN KAOH 260815Z AUTO 16013KT 6SM BR BKN005 OVC070 08/08 A3020 720 96 100 170/13 RMK AO2 CIG 003V008 T00830078
04850KAOH AOH20161226032013112/26/16 03:20:31  5-MIN KAOH 260820Z AUTO 16014KT 6SM BR BKN005 OVC070 08/08 A3020 720 96 100 170/14 RMK AO2 CIG 004V008 T00830078
04850KAOH AOH20161226032511912/26/16 03:25:31  5-MIN KAOH 260825Z AUTO 16014KT 6SM BR SCT005 OVC070 08/08 A3020 720 96 100 170/14 RMK AO2 T00830078
04850KAOH AOH20161226033012312/26/16 03:30:31  5-MIN KAOH 260830Z AUTO 16015G25KT 7SM FEW005 OVC070 08/08 A3019 730 100 100 160/15G25 RMK AO2 T00830083
04850KAOH AOH20161226033512312/26/16 03:35:31  5-MIN KAOH 260835Z AUTO 16014G25KT 8SM FEW006 OVC070 08/08 A3019 730 100 100 170/14G25 RMK AO2 T00830083
04850KAOH AOH20161226034012312/26/16 03:40:31  5-MIN KAOH 260840Z AUTO 16013G24KT 8SM FEW006 OVC070 08/08 A3019 730 100 100 170/13G24 RMK AO2 T00830083
04850KAOH AOH20161226034510912/26/16 03:45:31  5-MIN KAOH 260845Z AUTO 17013KT 8SM OVC075 09/08 A3020 720 96 200 170/13 RMK AO2 T00890083
04850KAOH AOH20161226035012212/26/16 03:50:31  5-MIN KAOH 260850Z AUTO 16012KT 9SM OVC075 09/08 A3019 730 96 200 170/12 RMK AO2 SLP230 T00890083 56019
04850KAOH AOH20161226035510912/26/16 03:55:31  5-MIN KAOH 260855Z AUTO 16013KT 9SM OVC075 09/08 A3019 730 96 200 160/13 RMK AO2 T00890083
04850KAOH AOH20161226040010912/26/16 04:00:31  5-MIN KAOH 260900Z AUTO 16014KT 9SM OVC075 09/08 A3018 740 96 200 170/14 RMK AO2 T00890083
04850KAOH AOH20161226040511612/26/16 04:05:31  5-MIN KAOH 260905Z AUTO 16013KT 9SM FEW060 OVC075 09/08 A3018 740 96 200 170/13 RMK AO2 T00890083
04850KAOH AOH20161226041011012/26/16 04:10:31  5-MIN KAOH 260910Z AUTO 17013KT 10SM OVC075 09/08 A3018 740 96 200 170/13 RMK AO2 T00890083
04850KAOH AOH20161226041511012/26/16 04:15:31  5-MIN KAOH 260915Z AUTO 17014KT 10SM OVC075 09/08 A3018 740 96 200 170/14 RMK AO2 T00890083
04850KAOH AOH20161226042011012/26/16 04:20:31  5-MIN KAOH 260920Z AUTO 17012KT 10SM OVC075 09/09 A3018 740 96 300 170/12 RMK AO2 T00940089
04850KAOH AOH20161226042511012/26/16 04:25:31  5-MIN KAOH 260925Z AUTO 16013KT 10SM OVC075 09/09 A3017 750 96 300 170/13 RMK AO2 T00940089
04850KAOH AOH20161226043011012/26/16 04:30:31  5-MIN KAOH 260930Z AUTO 16014KT 10SM BKN075 09/09 A3017 750 96 300 170/14 RMK AO2 T00940089
04850KAOH AOH20161226043511012/26/16 04:35:31  5-MIN KAOH 260935Z AUTO 17013KT 10SM BKN075 09/09 A3017 750 96 300 170/13 RMK AO2 T00940089
04850KAOH AOH20161226044011012/26/16 04:40:31  5-MIN KAOH 260940Z AUTO 17013KT 10SM BKN075 09/09 A3016 750 96 300 170/13 RMK AO2 T00940089
04850KAOH AOH20161226044511012/26/16 04:45:31  5-MIN KAOH 260945Z AUTO 17013KT 10SM BKN075 09/09 A3016 760 96 300 170/13 RMK AO2 T00940089
04850KAOH AOH20161226045011712/26/16 04:50:31  5-MIN KAOH 260950Z AUTO 17011KT 10SM BKN075 09/09 A3016 760 96 300 170/11 RMK AO2 SLP219 T00940089
04850KAOH AOH20161226045511012/26/16 04:55:31  5-MIN KAOH 260955Z AUTO 17012KT 10SM BKN075 09/09 A3016 760 96 300 170/12 RMK AO2 T00940089
04850KAOH AOH20161226050011712/26/16 05:00:31  5-MIN KAOH 261000Z AUTO 16013KT 10SM FEW045 OVC075 09/09 A3016 760 96 300 170/13 RMK AO2 T00940089
04850KAOH AOH20161226050511712/26/16 05:05:31  5-MIN KAOH 261005Z AUTO 16013KT 10SM FEW045 OVC075 09/09 A3015 760 96 300 170/13 RMK AO2 T00940089
04850KAOH AOH20161226051011712/26/16 05:10:31  5-MIN KAOH 261010Z AUTO 16013KT 10SM FEW055 OVC075 10/09 A3015 770 96 400 170/13 RMK AO2 T01000094
04850KAOH AOH20161226051511712/26/16 05:15:31  5-MIN KAOH 261015Z AUTO 16014KT 10SM FEW055 OVC075 10/09 A3015 770 96 400 170/14 RMK AO2 T01000094
04850KAOH AOH20161226052012412/26/16 05:20:31  5-MIN KAOH 261020Z AUTO 17014KT 10SM FEW047 SCT055 OVC080 10/09 A3015 770 96 400 170/14 RMK AO2 T01000094
04850KAOH AOH20161226052512412/26/16 05:25:31  5-MIN KAOH 261025Z AUTO 17014KT 10SM FEW047 SCT055 OVC080 10/09 A3015 770 96 400 170/14 RMK AO2 T01000094
04850KAOH AOH20161226053012412/26/16 05:30:31  5-MIN KAOH 261030Z AUTO 17013KT 10SM SCT047 BKN055 OVC080 10/09 A3015 770 96 400 170/13 RMK AO2 T01000094
04850KAOH AOH20161226053512412/26/16 05:35:31  5-MIN KAOH 261035Z AUTO 17014KT 10SM SCT043 BKN050 OVC080 10/09 A3014 770 96 400 170/14 RMK AO2 T01000094
04850KAOH AOH20161226054012412/26/16 05:40:31  5-MIN KAOH 261040Z AUTO 16014KT 10SM SCT046 BKN055 OVC080 10/09 A3014 770 96 400 170/14 RMK AO2 T01000094
04850KAOH AOH20161226054512412/26/16 05:45:31  5-MIN KAOH 261045Z AUTO 16014KT 10SM SCT046 BKN055 OVC080 10/09 A3014 780 96 400 170/14 RMK AO2 T01000094
04850KAOH AOH20161226055013112/26/16 05:50:31  5-MIN KAOH 261050Z AUTO 17013KT 10SM SCT046 BKN060 OVC080 10/09 A3014 780 96 400 170/13 RMK AO2 SLP211 T01000094
04850KAOH AOH20161226055511712/26/16 05:55:31  5-MIN KAOH 261055Z AUTO 16014KT 10SM SCT046 OVC080 10/09 A3014 780 96 400 170/14 RMK AO2 T01000094
04850KAOH AOH20161226060011712/26/16 06:00:31  5-MIN KAOH 261100Z AUTO 16013KT 10SM FEW046 OVC080 10/09 A3013 780 96 400 170/13 RMK AO2 T01000094
04850KAOH AOH20161226060512312/26/16 06:05:31  5-MIN KAOH 261105Z AUTO 16014G20KT 10SM FEW046 OVC075 10/09 A3013 780 96 400 170/14G20 RMK AO2 T01000094
04850KAOH AOH20161226061011712/26/16 06:10:31  5-MIN KAOH 261110Z AUTO 16013KT 10SM FEW046 OVC075 10/09 A3013 780 96 400 170/13 RMK AO2 T01000094
04850KAOH AOH20161226061511712/26/16 06:15:31  5-MIN KAOH 261115Z AUTO 16014KT 10SM FEW046 OVC075 10/09 A3013 780 96 400 170/14 RMK AO2 T01000094
04850KAOH AOH20161226062011012/26/16 06:20:31  5-MIN KAOH 261120Z AUTO 16014KT 10SM OVC075 10/09 A3013 780 96 400 170/14 RMK AO2 T01000094
04850KAOH AOH20161226062511012/26/16 06:25:31  5-MIN KAOH 261125Z AUTO 16015KT 10SM BKN075 10/09 A3013 790 96 400 170/15 RMK AO2 T01000094
04850KAOH AOH20161226063011012/26/16 06:30:31  5-MIN KAOH 261130Z AUTO 16014KT 10SM BKN075 10/09 A3013 790 96 400 170/14 RMK AO2 T01000094
04850KAOH AOH20161226063511012/26/16 06:35:31  5-MIN KAOH 261135Z AUTO 16014KT 10SM SCT075 10/09 A3012 790 96 400 170/14 RMK AO2 T01000094
04850KAOH AOH20161226064011012/26/16 06:40:31  5-MIN KAOH 261140Z AUTO 16013KT 10SM SCT075 10/09 A3012 790 96 400 170/13 RMK AO2 T01000094
04850KAOH AOH20161226064511012/26/16 06:45:31  5-MIN KAOH 261145Z AUTO 16012KT 10SM FEW075 10/09 A3012 790 96 400 170/12 RMK AO2 T01000094
04850KAOH AOH20161226065013512/26/16 06:50:31  5-MIN KAOH 261150Z AUTO 16012KT 10SM FEW080 10/09 A3012 790 96 400 170/12 RMK AO2 SLP205 T01000094 10100 20067 56020
04850KAOH AOH20161226065510812/26/16 06:55:31  5-MIN KAOH 261155Z AUTO 17012KT 10SM CLR 10/10 A3012 790 100 400 170/12 RMK AO2 T01000100
04850KAOH AOH20161226070010812/26/16 07:00:31  5-MIN KAOH 261200Z AUTO 17012KT 10SM CLR 10/10 A3012 790 100 400 170/12 RMK AO2 T01000100
04850KAOH AOH20161226070510812/26/16 07:05:31  5-MIN KAOH 261205Z AUTO 17011KT 10SM CLR 10/10 A3012 790 100 400 170/11 RMK AO2 T01000100
04850KAOH AOH20161226071010712/26/16 07:10:31  5-MIN KAOH 261210Z AUTO 17012KT 10SM CLR 11/10 A3012 790 96 500 180/12 RMK AO2 T01060100
04850KAOH AOH20161226071510712/26/16 07:15:31  5-MIN KAOH 261215Z AUTO 17012KT 10SM CLR 11/10 A3012 790 96 500 180/12 RMK AO2 T01060100
04850KAOH AOH20161226072010712/26/16 07:20:31  5-MIN KAOH 261220Z AUTO 17013KT 10SM CLR 11/10 A3012 790 96 500 170/13 RMK AO2 T01060100
04850KAOH AOH20161226072510712/26/16 07:25:31  5-MIN KAOH 261225Z AUTO 17011KT 10SM CLR 11/10 A3012 790 96 500 180/11 RMK AO2 T01060100
04850KAOH AOH20161226073010712/26/16 07:30:31  5-MIN KAOH 261230Z AUTO 17012KT 10SM CLR 11/10 A3012 800 96 500 180/12 RMK AO2 T01060100
04850KAOH AOH20161226073510712/26/16 07:35:31  5-MIN KAOH 261235Z AUTO 17012KT 10SM CLR 11/10 A3012 800 96 500 180/12 RMK AO2 T01060100
04850KAOH AOH20161226074010712/26/16 07:40:31  5-MIN KAOH 261240Z AUTO 18010KT 10SM CLR 11/11 A3012 790 96 600 180/10 RMK AO2 T01110106
04850KAOH AOH20161226074510812/26/16 07:45:31  5-MIN KAOH 261245Z AUTO 17010KT 10SM CLR 11/11 A3011 800 100 500 180/10 RMK AO2 T01060106
04850KAOH AOH20161226075011412/26/16 07:50:31  5-MIN KAOH 261250Z AUTO 18012KT 10SM CLR 11/11 A3011 800 96 600 180/12 RMK AO2 SLP201 T01110106
04850KAOH AOH20161226075510712/26/16 07:55:31  5-MIN KAOH 261255Z AUTO 18011KT 10SM CLR 11/11 A3011 800 96 600 180/11 RMK AO2 T01110106
04850KAOH AOH20161226080010712/26/16 08:00:31  5-MIN KAOH 261300Z AUTO 18012KT 10SM CLR 12/11 A3011 800 93 600 180/12 RMK AO2 T01170106
04850KAOH AOH20161226080510712/26/16 08:05:31  5-MIN KAOH 261305Z AUTO 18012KT 10SM CLR 12/11 A3011 800 96 600 180/12 RMK AO2 T01170111
04850KAOH AOH20161226081010712/26/16 08:10:31  5-MIN KAOH 261310Z AUTO 17013KT 10SM CLR 12/11 A3011 800 93 700 180/13 RMK AO2 T01220111
04850KAOH AOH20161226081510712/26/16 08:15:31  5-MIN KAOH 261315Z AUTO 18012KT 10SM CLR 12/11 A3011 800 96 600 180/12 RMK AO2 T01170111
04850KAOH AOH20161226082010712/26/16 08:20:31  5-MIN KAOH 261320Z AUTO 17013KT 10SM CLR 12/11 A3011 800 93 700 180/13 RMK AO2 T01220111
04850KAOH AOH20161226082511012/26/16 08:25:31  5-MIN KAOH 261325Z AUTO 18012KT 10SM FEW022 13/12 A3011 800 93 800 190/12 RMK AO2 T01280117
04850KAOH AOH20161226083010712/26/16 08:30:31  5-MIN KAOH 261330Z AUTO 18012KT 10SM CLR 13/12 A3011 800 93 800 190/12 RMK AO2 T01280117
04850KAOH AOH20161226083510712/26/16 08:35:31  5-MIN KAOH 261335Z AUTO 18013KT 10SM CLR 13/12 A3011 800 93 800 180/13 RMK AO2 T01280117
04850KAOH AOH20161226084010712/26/16 08:40:31  5-MIN KAOH 261340Z AUTO 18012KT 10SM CLR 13/12 A3011 800 93 800 180/12 RMK AO2 T01280117
04850KAOH AOH20161226084510712/26/16 08:45:31  5-MIN KAOH 261345Z AUTO 18013KT 10SM CLR 13/12 A3011 810 93 800 190/13 RMK AO2 T01280117
04850KAOH AOH20161226085011412/26/16 08:50:31  5-MIN KAOH 261350Z AUTO 18013KT 10SM CLR 13/12 A3010 810 89 800 190/13 RMK AO2 SLP198 T01330117
04850KAOH AOH20161226085511012/26/16 08:55:31  5-MIN KAOH 261355Z AUTO 19012KT 10SM FEW024 13/12 A3010 810 89 800 200/12 RMK AO2 T01330117
04850KAOH AOH20161226090011612/26/16 09:00:31  5-MIN KAOH 261400Z AUTO 19015G21KT 10SM SCT024 14/12 A3010 810 90 900 200/15G21 RMK AO2 T01390122
04850KAOH AOH20161226090512412/26/16 09:05:31  5-MIN KAOH 261405Z AUTO 19015G22KT 10SM SCT024 BKN095 14/12 A3010 820 86 1000 190/15G22 RMK AO2 T01440122
04850KAOH AOH20161226091012412/26/16 09:10:31  5-MIN KAOH 261410Z AUTO 18016G23KT 10SM SCT022 BKN095 14/13 A3009 820 90 1000 190/16G23 RMK AO2 T01440128
04850KAOH AOH20161226091512412/26/16 09:15:31  5-MIN KAOH 261415Z AUTO 19017G23KT 10SM BKN022 BKN095 15/13 A3009 820 86 1100 190/17G23 RMK AO2 T01500128
04850KAOH AOH20161226092014212/26/16 09:20:31  5-MIN KAOH 261420Z AUTO 19020G29KT 10SM BKN022 OVC095 16/13 A3009 820 83 1100 200/20G29 RMK AO2 PK WND 20029/1417 T01560128
04850KAOH AOH20161226092514212/26/16 09:25:31  5-MIN KAOH 261425Z AUTO 19019G29KT 10SM BKN022 OVC090 16/13 A3009 820 83 1100 200/19G29 RMK AO2 PK WND 20029/1417 T01560128
04850KAOH AOH20161226093014212/26/16 09:30:31  5-MIN KAOH 261430Z AUTO 19021G32KT 10SM SCT020 OVC090 16/13 A3009 820 86 1100 200/21G32 RMK AO2 PK WND 19032/1427 T01560133
04850KAOH AOH20161226093514212/26/16 09:35:31  5-MIN KAOH 261435Z AUTO 19021G32KT 10SM SCT020 OVC090 16/13 A3008 830 86 1100 200/21G32 RMK AO2 PK WND 19032/1427 T01560133
04850KAOH AOH20161226094014212/26/16 09:40:31  5-MIN KAOH 261440Z AUTO 19018G30KT 10SM SCT020 OVC095 16/13 A3008 830 86 1100 200/18G30 RMK AO2 PK WND 19032/1427 T01560133
04850KAOH AOH20161226094514212/26/16 09:45:31  5-MIN KAOH 261445Z AUTO 20021G32KT 10SM SCT020 OVC095 16/13 A3008 830 83 1200 200/21G32 RMK AO2 PK WND 20032/1441 T01610133
04850KAOH AOH20161226095016212/26/16 09:50:31  5-MIN KAOH 261450Z AUTO 19022G32KT 10SM SCT019 SCT070 OVC095 16/13 A3008 830 83 1200 200/22G32 RMK AO2 PK WND 20032/1441 SLP187 T01610133 56022
04850KAOH AOH20161226095514912/26/16 09:55:31  5-MIN KAOH 261455Z AUTO 19022G34KT 10SM SCT019 BKN075 OVC095 16/13 A3008 830 83 1200 200/22G34 RMK AO2 PK WND 20034/1454 T01610133
04850KAOH AOH20161226100014912/26/16 10:00:31  5-MIN KAOH 261500Z AUTO 19023G36KT 10SM SCT017 BKN075 OVC095 16/14 A3009 820 86 1200 200/23G36 RMK AO2 PK WND 19036/1456 T01610139
04850KAOH AOH20161226100514912/26/16 10:05:31  5-MIN KAOH 261505Z AUTO 19021G36KT 10SM FEW017 BKN075 OVC100 16/14 A3008 830 90 1100 200/21G36 RMK AO2 PK WND 19036/1456 T01560139
04850KAOH AOH20161226101014912/26/16 10:10:31  5-MIN KAOH 261510Z AUTO 19020G33KT 10SM FEW017 BKN075 OVC095 16/14 A3008 830 90 1100 200/20G33 RMK AO2 PK WND 19036/1456 T01560139
04850KAOH AOH20161226101514912/26/16 10:15:31  5-MIN KAOH 261515Z AUTO 19021G33KT 10SM FEW015 BKN043 OVC075 16/14 A3008 830 90 1100 190/21G33 RMK AO2 PK WND 19036/1456 T01560139
04850KAOH AOH20161226102014912/26/16 10:20:31  5-MIN KAOH 261520Z AUTO 19021G29KT 10SM SCT015 BKN043 OVC075 16/14 A3008 830 90 1100 200/21G29 RMK AO2 PK WND 19036/1456 T01560139
04850KAOH AOH20161226102514912/26/16 10:25:31  5-MIN KAOH 261525Z AUTO 19023G34KT 10SM SCT015 BKN024 OVC075 16/14 A3009 820 90 1100 200/23G34 RMK AO2 PK WND 19036/1456 T01560139
04850KAOH AOH20161226103014912/26/16 10:30:31  5-MIN KAOH 261530Z AUTO 20018G34KT 10SM SCT015 BKN022 OVC075 16/14 A3009 820 90 1100 200/18G34 RMK AO2 PK WND 19036/1456 T01560139
04850KAOH AOH20161226103514912/26/16 10:35:31  5-MIN KAOH 261535Z AUTO 19022G30KT 10SM BKN015 BKN022 OVC042 16/14 A3008 830 90 1100 200/22G30 RMK AO2 PK WND 19036/1456 T01560139
04850KAOH AOH20161226104014212/26/16 10:40:31  5-MIN KAOH 261540Z AUTO 20019G30KT 10SM BKN015 OVC023 16/14 A3008 830 90 1100 200/19G30 RMK AO2 PK WND 19036/1456 T01560139
04850KAOH AOH20161226104514212/26/16 10:45:31  5-MIN KAOH 261545Z AUTO 20021G29KT 10SM BKN015 OVC023 16/14 A3008 830 90 1100 200/21G29 RMK AO2 PK WND 19036/1456 T01560139
04850KAOH AOH20161226105014212/26/16 10:50:31  5-MIN KAOH 261550Z AUTO 20017G29KT 10SM OVC015 16/14 A3008 830 90 1100 210/17G29 RMK AO2 PK WND 19036/1456 SLP189 T01560139
04850KAOH AOH20161226105513512/26/16 10:55:31  5-MIN KAOH 261555Z AUTO 19021G29KT 10SM OVC014 16/14 A3008 830 90 1100 190/21G29 RMK AO2 PK WND 18027/1554 T01560139
04850KAOH AOH20161226110013512/26/16 11:00:31  5-MIN KAOH 261600Z AUTO 20019G27KT 10SM OVC014 16/14 A3008 830 90 1100 200/19G27 RMK AO2 PK WND 18027/1554 T01560139
04850KAOH AOH20161226110514212/26/16 11:05:31  5-MIN KAOH 261605Z AUTO 20019G27KT 10SM BKN014 OVC020 16/14 A3007 840 90 1100 200/19G27 RMK AO2 PK WND 18027/1554 T01560139
04850KAOH AOH20161226111014212/26/16 11:10:31  5-MIN KAOH 261610Z AUTO 19018G27KT 10SM BKN014 OVC019 16/14 A3007 840 90 1100 200/18G27 RMK AO2 PK WND 18027/1554 T01560139
04850KAOH AOH20161226111513512/26/16 11:15:31  5-MIN KAOH 261615Z AUTO 19017G27KT 10SM OVC014 16/14 A3007 840 90 1100 200/17G27 RMK AO2 PK WND 18027/1554 T01560139
04850KAOH AOH20161226112013512/26/16 11:20:31  5-MIN KAOH 261620Z AUTO 20016G29KT 10SM OVC014 16/14 A3007 840 86 1200 210/16G29 RMK AO2 PK WND 21029/1616 T01610139
04850KAOH AOH20161226112513512/26/16 11:25:31  5-MIN KAOH 261625Z AUTO 19021G30KT 10SM OVC014 16/14 A3007 840 86 1200 200/21G30 RMK AO2 PK WND 19030/1624 T01610139
04850KAOH AOH20161226113013512/26/16 11:30:31  5-MIN KAOH 261630Z AUTO 20019G31KT 10SM OVC014 16/14 A3006 850 86 1200 200/19G31 RMK AO2 PK WND 21031/1630 T01610139
04850KAOH AOH20161226113513512/26/16 11:35:31  5-MIN KAOH 261635Z AUTO 20018G31KT 10SM OVC016 16/14 A3006 850 86 1200 210/18G31 RMK AO2 PK WND 20031/1632 T01610139
04850KAOH AOH20161226114013512/26/16 11:40:31  5-MIN KAOH 261640Z AUTO 20018G31KT 10SM OVC016 16/14 A3005 850 86 1200 200/18G31 RMK AO2 PK WND 20031/1632 T01610139
04850KAOH AOH20161226114514212/26/16 11:45:31  5-MIN KAOH 261645Z AUTO 20018G26KT 10SM BKN015 OVC020 16/14 A3005 860 90 1200 200/18G26 RMK AO2 PK WND 20031/1632 T01560139
04850KAOH AOH20161226115014212/26/16 11:50:31  5-MIN KAOH 261650Z AUTO 20019G30KT 10SM OVC015 16/14 A3005 860 90 1200 200/19G30 RMK AO2 PK WND 20031/1632 SLP177 T01560139
04850KAOH AOH20161226115511712/26/16 11:55:31  5-MIN KAOH 261655Z AUTO 20017G30KT 10SM OVC015 16/14 A3005 860 90 1200 200/17G30 RMK AO2 T01560139
04850KAOH AOH20161226120011712/26/16 12:00:31  5-MIN KAOH 261700Z AUTO 20018G25KT 10SM OVC015 16/14 A3004 860 90 1200 200/18G25 RMK AO2 T01560139
04850KAOH AOH20161226120512412/26/16 12:05:31  5-MIN KAOH 261705Z AUTO 20018G25KT 10SM BKN015 OVC020 16/14 A3004 870 90 1200 200/18G25 RMK AO2 T01560139
04850KAOH AOH20161226121011712/26/16 12:10:31  5-MIN KAOH 261710Z AUTO 19017G23KT 10SM OVC015 16/14 A3004 870 90 1200 200/17G23 RMK AO2 T01560139
04850KAOH AOH20161226121511712/26/16 12:15:31  5-MIN KAOH 261715Z AUTO 19018G24KT 10SM OVC015 16/14 A3004 870 90 1200 200/18G24 RMK AO2 T01560139
04850KAOH AOH20161226122013512/26/16 12:20:31  5-MIN KAOH 261720Z AUTO 19019G26KT 10SM OVC015 16/14 A3003 870 90 1200 200/19G26 RMK AO2 PK WND 21026/1719 T01560139
04850KAOH AOH20161226122513512/26/16 12:25:31  5-MIN KAOH 261725Z AUTO 19016G26KT 10SM OVC015 16/14 A3003 880 90 1200 200/16G26 RMK AO2 PK WND 21026/1719 T01560139
04850KAOH AOH20161226123013512/26/16 12:30:31  5-MIN KAOH 261730Z AUTO 20013G24KT 10SM OVC015 16/14 A3003 880 90 1200 200/13G24 RMK AO2 PK WND 21026/1719 T01560139
04850KAOH AOH20161226123513512/26/16 12:35:31  5-MIN KAOH 261735Z AUTO 19014G27KT 10SM OVC015 16/14 A3002 880 90 1200 200/14G27 RMK AO2 PK WND 19027/1732 T01560139
04850KAOH AOH20161226124013512/26/16 12:40:31  5-MIN KAOH 261740Z AUTO 19015G27KT 10SM OVC015 16/14 A3002 890 90 1200 200/15G27 RMK AO2 PK WND 19027/1732 T01560139
04850KAOH AOH20161226124513512/26/16 12:45:31  5-MIN KAOH 261745Z AUTO 20017G23KT 10SM OVC014 16/14 A3001 890 90 1200 200/17G23 RMK AO2 PK WND 19027/1732 T01560139
04850KAOH AOH20161226125012512/26/16 12:50:31  5-MIN KAOH 261750Z AUTO 19016G25KT 10SM OVC014 16/14 A3001 890 86 1300 200/16G25 RMK AO2 PK WND 19027/1732
04850KAOH AOH20161226125512412/26/16 12:55:31  5-MIN KAOH 261755Z AUTO 20015G25KT 10SM BKN014 OVC031 16/14 A3001 900 86 1300 200/15G25 RMK AO2 T01610139
04850KAOH AOH20161226130012412/26/16 13:00:31  5-MIN KAOH 261800Z AUTO 19015G25KT 10SM BKN014 OVC040 16/14 A3000 900 86 1300 200/15G25 RMK AO2 T01610139
04850KAOH AOH20161226130512412/26/16 13:05:31  5-MIN KAOH 261805Z AUTO 20016G25KT 10SM BKN016 OVC031 16/14 A3000 900 90 1300 200/16G25 RMK AO2 T01610144
04850KAOH AOH20161226131014212/26/16 13:10:31  5-MIN KAOH 261810Z AUTO 20018G27KT 10SM BKN016 OVC031 16/14 A3000 910 90 1300 210/18G27 RMK AO2 PK WND 19027/1807 T01610144
04850KAOH AOH20161226131514912/26/16 13:15:31  5-MIN KAOH 261815Z AUTO 20018G28KT 10SM BKN016 BKN029 OVC039 17/14 A2999 910 86 1400 200/18G28 RMK AO2 PK WND 20028/1813 T01670144
04850KAOH AOH20161226132014912/26/16 13:20:31  5-MIN KAOH 261820Z AUTO 20019G28KT 10SM BKN016 BKN029 OVC038 17/14 A2999 920 86 1400 200/19G28 RMK AO2 PK WND 20028/1813 T01670144
04850KAOH AOH20161226132514912/26/16 13:25:31  5-MIN KAOH 261825Z AUTO 20018G28KT 10SM BKN016 BKN026 OVC031 17/14 A2998 920 86 1400 200/18G28 RMK AO2 PK WND 20028/1822 T01670144
04850KAOH AOH20161226133014912/26/16 13:30:31  5-MIN KAOH 261830Z AUTO 20020G28KT 10SM BKN016 BKN028 OVC037 17/14 A2998 920 86 1400 200/20G28 RMK AO2 PK WND 20028/1822 T01670144
04850KAOH AOH20161226133514212/26/16 13:35:31  5-MIN KAOH 261835Z AUTO 20019G30KT 10SM BKN018 BKN028 17/14 A2999 920 83 1400 210/19G30 RMK AO2 PK WND 21030/1832 T01720144
04850KAOH AOH20161226134014912/26/16 13:40:31  5-MIN KAOH 261840Z AUTO 20018G30KT 10SM BKN018 BKN028 BKN037 17/14 A2998 920 86 1400 200/18G30 RMK AO2 PK WND 21030/1832 T01670144
04850KAOH AOH20161226134514912/26/16 13:45:31  5-MIN KAOH 261845Z AUTO 20017G33KT 10SM BKN018 BKN028 OVC035 17/14 A2998 920 86 1400 210/17G33 RMK AO2 PK WND 19033/1841 T01670144
04850KAOH AOH20161226135015612/26/16 13:50:31  5-MIN KAOH 261850Z AUTO 20019G33KT 10SM SCT018 BKN022 OVC033 17/14 A2998 920 83 1400 210/19G33 RMK AO2 PK WND 19033/1841 SLP152 T01720144
04850KAOH AOH20161226135513112/26/16 13:55:31  5-MIN KAOH 261855Z AUTO 20018G30KT 10SM BKN020 BKN027 OVC035 17/14 A2998 920 86 1400 210/18G30 RMK AO2 T01670144
04850KAOH AOH20161226140014212/26/16 14:00:31  5-MIN KAOH 261900Z AUTO 21018G31KT 10SM BKN020 OVC035 17/14 A2998 920 86 1400 210/18G31 RMK AO2 PK WND 21031/1859 T01670144
04850KAOH AOH20161226140514212/26/16 14:05:31  5-MIN KAOH 261905Z AUTO 20022G31KT 10SM BKN018 OVC028 17/15 A2998 930 87 1400 210/22G31 RMK AO2 PK WND 21031/1859 T01720150
04850KAOH AOH20161226141014212/26/16 14:10:31  5-MIN KAOH 261910Z AUTO 20018G29KT 10SM BKN018 OVC024 17/15 A2997 930 87 1400 210/18G29 RMK AO2 PK WND 21031/1859 T01720150
04850KAOH AOH20161226141514212/26/16 14:15:31  5-MIN KAOH 261915Z AUTO 20017G26KT 10SM BKN018 OVC026 17/15 A2997 930 87 1500 210/17G26 RMK AO2 PK WND 21031/1859 T01720150
04850KAOH AOH20161226142014912/26/16 14:20:31  5-MIN KAOH 261920Z AUTO 20021G28KT 10SM BKN018 BKN025 OVC050 17/15 A2997 930 87 1400 210/21G28 RMK AO2 PK WND 21031/1859 T01720150
04850KAOH AOH20161226142514912/26/16 14:25:31  5-MIN KAOH 261925Z AUTO 20018G35KT 10SM SCT018 BKN026 OVC055 17/15 A2997 930 87 1500 210/18G35 RMK AO2 PK WND 20035/1921 T01720150
04850KAOH AOH20161226143014912/26/16 14:30:31  5-MIN KAOH 261930Z AUTO 20018G35KT 10SM SCT018 BKN026 OVC055 17/15 A2996 940 90 1400 210/18G35 RMK AO2 PK WND 20035/1921 T01670150
04850KAOH AOH20161226143514912/26/16 14:35:31  5-MIN KAOH 261935Z AUTO 19016G25KT 10SM FEW018 SCT026 BKN043 17/15 A2995 950 90 1400 200/16G25 RMK AO2 PK WND 20035/1921 T01670150
04850KAOH AOH20161226144014912/26/16 14:40:31  5-MIN KAOH 261940Z AUTO 19017G26KT 10SM FEW016 SCT043 BKN055 17/15 A2995 950 90 1400 200/17G26 RMK AO2 PK WND 20035/1921 T01670150
04850KAOH AOH20161226144514912/26/16 14:45:31  5-MIN KAOH 261945Z AUTO 20017G26KT 10SM FEW029 SCT055 BKN120 17/15 A2995 950 90 1400 200/17G26 RMK AO2 PK WND 20035/1921 T01670150
04850KAOH AOH20161226145015612/26/16 14:50:31  5-MIN KAOH 261950Z AUTO 20016G25KT 10SM FEW025 SCT044 BKN110 17/15 A2995 950 90 1400 200/16G25 RMK AO2 PK WND 20035/1921 SLP141 T01670150
04850KAOH AOH20161226145514912/26/16 14:55:31  5-MIN KAOH 261955Z AUTO 19017G26KT 10SM FEW030 SCT038 BKN055 17/15 A2995 950 90 1400 200/17G26 RMK AO2 PK WND 18026/1954 T01670150
04850KAOH AOH20161226150014912/26/16 15:00:31  5-MIN KAOH 262000Z AUTO 19016G26KT 10SM SCT030 BKN037 BKN120 17/15 A2994 960 90 1400 200/16G26 RMK AO2 PK WND 18026/1954 T01670150
04850KAOH AOH20161226150514912/26/16 15:05:31  5-MIN KAOH 262005Z AUTO 19017G24KT 10SM BKN030 BKN037 BKN110 17/15 A2994 960 90 1400 200/17G24 RMK AO2 PK WND 18026/1954 T01670150
04850KAOH AOH20161226151016512/26/16 15:10:31  5-MIN KAOH 262010Z AUTO 20015G22KT 10SM -RA FEW022 BKN028 OVC110 17/15 A2994 960 90 1400 200/15G22 RMK AO2 PK WND 18026/1954 RAB06 P0000 T01670150
04850KAOH AOH20161226151516512/26/16 15:15:31  5-MIN KAOH 262015Z AUTO 20016G24KT 10SM -RA SCT024 BKN030 OVC046 17/15 A2994 960 90 1400 200/16G24 RMK AO2 PK WND 18026/1954 RAB06 P0000 T01670150
04850KAOH AOH20161226152016512/26/16 15:20:31  5-MIN KAOH 262020Z AUTO 20020G29KT 10SM -RA SCT021 BKN028 OVC046 17/15 A2994 960 90 1400 200/20G29 RMK AO2 PK WND 20029/2020 RAB06 P0001 T01670150
04850KAOH AOH20161226152516512/26/16 15:25:31  5-MIN KAOH 262025Z AUTO 20017G29KT 10SM -RA SCT021 BKN028 OVC045 17/15 A2994 960 90 1400 200/17G29 RMK AO2 PK WND 20029/2020 RAB06 P0001 T01670150
04850KAOH AOH20161226153016412/26/16 15:30:31  5-MIN KAOH 262030Z AUTO 20018G26KT 10SM FEW019 BKN026 BKN045 17/15 A2993 960 87 1500 200/18G26 RMK AO2 PK WND 20029/2020 RAB06E29 P0001 T01720150
04850KAOH AOH20161226153516412/26/16 15:35:31  5-MIN KAOH 262035Z AUTO 20017G26KT 10SM SCT023 BKN047 BKN120 17/15 A2993 970 90 1400 210/17G26 RMK AO2 PK WND 20029/2020 RAB06E29 P0001 T01670150
04850KAOH AOH20161226154017112/26/16 15:40:31  5-MIN KAOH 262040Z AUTO 20018G25KT 10SM -RA BKN023 BKN047 BKN120 17/15 A2994 960 87 1500 210/18G25 RMK AO2 PK WND 20029/2020 RAB06E29B38 P0001 T01720150
04850KAOH AOH20161226154517112/26/16 15:45:31  5-MIN KAOH 262045Z AUTO 20016G25KT 10SM -RA SCT020 BKN028 BKN045 17/15 A2994 960 87 1500 210/16G25 RMK AO2 PK WND 20029/2020 RAB06E29B38 P0001 T01720150
04850KAOH AOH20161226155016012/26/16 15:50:31  5-MIN KAOH 262050Z AUTO 20014G23KT 10SM FEW020 SCT028 BKN045 17/15 A2993 970 87 1500 210/14G23 RMK AO2 PK WND 20029/2020 RAB06E29B38E47 P0001
04850KAOH AOH20161226155512412/26/16 15:55:31  5-MIN KAOH 262055Z AUTO 21016G23KT 10SM BKN026 BKN120 17/15 A2994 960 87 1500 210/16G23 RMK AO2 T01720150
04850KAOH AOH20161226160012412/26/16 16:00:31  5-MIN KAOH 262100Z AUTO 20016G25KT 10SM BKN026 OVC120 17/15 A2993 970 87 1500 210/16G25 RMK AO2 T01720150
04850KAOH AOH20161226160514212/26/16 16:05:31  5-MIN KAOH 262105Z AUTO 20019G27KT 10SM BKN026 OVC120 17/15 A2993 970 87 1500 210/19G27 RMK AO2 PK WND 21027/2105 T01720150
04850KAOH AOH20161226161014212/26/16 16:10:31  5-MIN KAOH 262110Z AUTO 21018G27KT 10SM BKN024 BKN120 17/15 A2993 970 87 1500 210/18G27 RMK AO2 PK WND 21027/2105 T01720150
04850KAOH AOH20161226161514212/26/16 16:15:31  5-MIN KAOH 262115Z AUTO 21015G25KT 10SM FEW021 BKN027 17/15 A2994 960 87 1500 220/15G25 RMK AO2 PK WND 21027/2105 T01720150
04850KAOH AOH20161226162014212/26/16 16:20:31  5-MIN KAOH 262120Z AUTO 21017G24KT 10SM FEW021 BKN027 17/15 A2994 960 87 1500 210/17G24 RMK AO2 PK WND 21027/2105 T01720150
04850KAOH AOH20161226162514212/26/16 16:25:31  5-MIN KAOH 262125Z AUTO 21018G26KT 10SM FEW021 SCT027 17/15 A2994 960 87 1500 210/18G26 RMK AO2 PK WND 21027/2105 T01720150
04850KAOH AOH20161226163013512/26/16 16:30:31  5-MIN KAOH 262130Z AUTO 20015G27KT 10SM BKN025 17/15 A2993 970 87 1500 210/15G27 RMK AO2 PK WND 21027/2126 T01720150
04850KAOH AOH20161226163514212/26/16 16:35:31  5-MIN KAOH 262135Z AUTO 21016G27KT 10SM FEW020 BKN025 17/15 A2993 970 87 1500 210/16G27 RMK AO2 PK WND 21027/2126 T01720150
04850KAOH AOH20161226164013512/26/16 16:40:31  5-MIN KAOH 262140Z AUTO 20018G28KT 10SM BKN027 17/15 A2993 970 87 1500 210/18G28 RMK AO2 PK WND 20028/2136 T01720150
04850KAOH AOH20161226164513512/26/16 16:45:31  5-MIN KAOH 262145Z AUTO 20016G29KT 10SM BKN027 18/15 A2993 970 83 1600 210/16G29 RMK AO2 PK WND 22029/2142 T01780150
04850KAOH AOH20161226165014912/26/16 16:50:31  5-MIN KAOH 262150Z AUTO 21018G29KT 10SM FEW022 OVC027 17/15 A2993 970 87 1500 210/18G29 RMK AO2 PK WND 22029/2142 SLP135 T01720150
04850KAOH AOH20161226165514212/26/16 16:55:31  5-MIN KAOH 262155Z AUTO 21020G26KT 10SM BKN027 OVC040 18/15 A2993 970 83 1600 220/20G26 RMK AO2 PK WND 22026/2155 T01780150
04850KAOH AOH20161226170014212/26/16 17:00:31  5-MIN KAOH 262200Z AUTO 21019G26KT 10SM BKN027 OVC040 18/15 A2992 970 83 1600 220/19G26 RMK AO2 PK WND 22026/2155 T01780150
04850KAOH AOH20161226170514912/26/16 17:05:31  5-MIN KAOH 262205Z AUTO 21015G26KT 10SM FEW025 BKN030 OVC048 18/15 A2992 980 83 1600 220/15G26 RMK AO2 PK WND 22026/2202 T01780150
04850KAOH AOH20161226171014212/26/16 17:10:31  5-MIN KAOH 262210Z AUTO 21017G26KT 10SM BKN028 OVC042 18/15 A2992 980 83 1600 220/17G26 RMK AO2 PK WND 22026/2202 T01780150
04850KAOH AOH20161226171514912/26/16 17:15:31  5-MIN KAOH 262215Z AUTO 21016G23KT 10SM SCT025 BKN030 OVC040 18/15 A2992 980 83 1600 210/16G23 RMK AO2 PK WND 22026/2202 T01780150
04850KAOH AOH20161226172014212/26/16 17:20:31  5-MIN KAOH 262220Z AUTO 21016G25KT 10SM BKN027 OVC040 18/15 A2992 980 83 1600 210/16G25 RMK AO2 PK WND 22026/2202 T01780150
04850KAOH AOH20161226172516512/26/16 17:25:31  5-MIN KAOH 262225Z AUTO 20018G27KT 10SM -RA BKN027 BKN038 OVC050 18/15 A2992 980 83 1600 210/18G27 RMK AO2 PK WND 20027/2223 RAB21 P0000 T01780150
04850KAOH AOH20161226173016512/26/16 17:30:31  5-MIN KAOH 262230Z AUTO 21019G28KT 10SM -RA BKN027 BKN038 OVC050 18/15 A2992 980 83 1600 210/19G28 RMK AO2 PK WND 21028/2229 RAB21 P0000 T01780150
04850KAOH AOH20161226173516512/26/16 17:35:31  5-MIN KAOH 262235Z AUTO 24015G28KT 10SM -RA FEW022 BKN027 OVC032 18/15 A2994 960 83 1600 250/15G28 RMK AO2 PK WND 21028/2229 RAB21 P0000 T01780150
04850KAOH AOH20161226174018212/26/16 17:40:31  5-MIN KAOH 262240Z AUTO 28012G23KT 8SM -RA FEW011 BKN022 OVC029 15/14 A2995 950 96 1200 290/12G23 RMK AO2 PK WND 21028/2229 WSHFT 2226 RAB21 PRESRR P0002 T01500144
04850KAOH AOH20161226174517812/26/16 17:45:31  5-MIN KAOH 262245Z AUTO 28014G20KT 4SM +RA BR FEW011 BKN022 OVC029 14/13 A2993 970 96 1100 290/14G20 RMK AO2 PK WND 21028/2229 WSHFT 2226 RAB21 P0006 T01390133
04850KAOH AOH20161226175018412/26/16 17:50:31  5-MIN KAOH 262250Z AUTO 28019G28KT 2 1/2SM +RA BR FEW011 BKN022 OVC032 14/13 A2994 950 96 1100 290/19G28 RMK AO2 PK WND 25028/2248 WSHFT 2226 VIS 1 1/2V4 RAB21 P0013
04850KAOH AOH20161226175516012/26/16 17:55:31  5-MIN KAOH 262255Z AUTO 28015G28KT 2 1/2SM +RA BR FEW009 BKN025 OVC036 13/13 A2995 950 100 1000 280/15G28 RMK AO2 VIS 1 1/2V5 P0001 T01280128
04850KAOH AOH20161226180013712/26/16 18:00:31  5-MIN KAOH 262300Z AUTO 27016KT 5SM -RA BR FEW008 BKN024 OVC034 13/12 A2995 950 96 1000 280/16 RMK AO2 P0001 T01280122
04850KAOH AOH20161226180512812/26/16 18:05:31  5-MIN KAOH 262305Z AUTO 27013KT 10SM -RA FEW006 OVC024 12/12 A2994 960 100 900 280/13 RMK AO2 P0001 T01220122
04850KAOH AOH20161226181013512/26/16 18:10:31  5-MIN KAOH 262310Z AUTO 28013KT 10SM -RA FEW006 SCT021 OVC026 12/12 A2995 950 100 900 280/13 RMK AO2 P0001 T01220122
04850KAOH AOH20161226181513512/26/16 18:15:31  5-MIN KAOH 262315Z AUTO 28016KT 10SM -RA SCT006 BKN021 OVC026 12/12 A2996 940 100 900 290/16 RMK AO2 P0001 T01220122
04850KAOH AOH20161226182012712/26/16 18:20:31  5-MIN KAOH 262320Z AUTO 28016KT 10SM -RA BKN006 OVC025 12/12 A2996 940 96 900 280/16 RMK AO2 P0002 T01220117
04850KAOH AOH20161226182515412/26/16 18:25:31  5-MIN KAOH 262325Z AUTO 28020KT 10SM -RA BKN008 BKN016 OVC025 12/12 A2997 930 100 800 290/20 RMK AO2 CIG 006V011 PRESRR P0002 T01170117
04850KAOH AOH20161226183017012/26/16 18:30:31  5-MIN KAOH 262330Z AUTO 27018G26KT 10SM -RA BKN008 BKN016 OVC025 12/11 A2996 940 96 800 280/18G26 RMK AO2 PK WND 28026/2327 CIG 006V011 P0002 T01170111
04850KAOH AOH20161226183515112/26/16 18:35:31  5-MIN KAOH 262335Z AUTO 27021G27KT 10SM -RA SCT008 OVC022 12/11 A2996 940 93 800 270/21G27 RMK AO2 PK WND 28027/2331 P0002 T01170106
04850KAOH AOH20161226184016012/26/16 18:40:31  5-MIN KAOH 262340Z AUTO 27020G27KT 10SM SCT008 SCT017 OVC022 12/10 A2997 940 89 800 280/20G27 RMK AO2 PK WND 26027/2336 RAE39 P0002 T01170100
04850KAOH AOH20161226184516012/26/16 18:45:31  5-MIN KAOH 262345Z AUTO 26017G27KT 10SM FEW008 SCT017 OVC022 12/09 A2996 940 86 800 270/17G27 RMK AO2 PK WND 26027/2336 RAE39 P0002 T01170094
04850KAOH AOH20161226185017812/26/16 18:50:31  5-MIN KAOH 262350Z AUTO 26017KT 10SM FEW008 OVC023 12/09 A2996 940 86 800 270/17 RMK AO2 PK WND 26027/2336 RAE39 SLP146 P0002 60017 T01170094 10178 20117 56024
04850KAOH AOH20161226185511012/26/16 18:55:31  5-MIN KAOH 262355Z AUTO 27016KT 10SM OVC023 12/09 A2996 940 86 800 270/16 RMK AO2 T01170094
04850KAOH AOH20161226190011612/26/16 19:00:31  5-MIN KAOH 270000Z AUTO 26018G24KT 10SM OVC023 12/09 A2996 940 86 800 270/18G24 RMK AO2 T01170094
04850KAOH AOH20161226190511612/26/16 19:05:31  5-MIN KAOH 270005Z AUTO 26017G24KT 10SM OVC023 12/09 A2996 940 83 800 270/17G24 RMK AO2 T01170089
04850KAOH AOH20161226191011612/26/16 19:10:31  5-MIN KAOH 270010Z AUTO 26017G23KT 10SM OVC023 12/09 A2996 940 83 800 270/17G23 RMK AO2 T01170089
04850KAOH AOH20161226191511612/26/16 19:15:31  5-MIN KAOH 270015Z AUTO 25018G24KT 10SM OVC023 12/09 A2996 940 83 800 260/18G24 RMK AO2 T01170089
04850KAOH AOH20161226192011612/26/16 19:20:31  5-MIN KAOH 270020Z AUTO 26017G24KT 10SM OVC023 12/08 A2996 940 80 800 260/17G24 RMK AO2 T01170083
04850KAOH AOH20161226192511712/26/16 19:25:31  5-MIN KAOH 270025Z AUTO 26016KT 10SM BKN023 OVC029 12/08 A2997 940 80 800 260/16 RMK AO2 T01170083
04850KAOH AOH20161226193015012/26/16 19:30:31  5-MIN KAOH 270030Z AUTO 26022G26KT 10SM -RA OVC026 12/08 A2997 940 77 800 270/22G26 RMK AO2 PK WND 26026/0030 RAB28 P0000 T01170078
04850KAOH AOH20161226193515012/26/16 19:35:31  5-MIN KAOH 270035Z AUTO 25018G28KT 10SM -RA OVC026 11/08 A2996 940 80 700 260/18G28 RMK AO2 PK WND 27028/0031 RAB28 P0000 T01110078
04850KAOH AOH20161226194015012/26/16 19:40:31  5-MIN KAOH 270040Z AUTO 25017G28KT 10SM -RA OVC027 11/08 A2996 940 80 700 250/17G28 RMK AO2 PK WND 27028/0031 RAB28 P0000 T01110078
04850KAOH AOH20161226194514412/26/16 19:45:31  5-MIN KAOH 270045Z AUTO 24017KT 10SM -RA OVC029 11/08 A2996 940 80 700 250/17 RMK AO2 PK WND 27028/0031 RAB28 P0000 T01110078
04850KAOH AOH20161226195015112/26/16 19:50:31  5-MIN KAOH 270050Z AUTO 24017KT 10SM -RA OVC029 11/08 A2995 950 80 700 250/17 RMK AO2 PK WND 27028/0031 RAB28 SLP145 P0000 T01110078
04850KAOH AOH20161226195511612/26/16 19:55:31  5-MIN KAOH 270055Z AUTO 24018G25KT 10SM OVC029 11/07 A2995 950 77 800 250/18G25 RMK AO2 T01110072
04850KAOH AOH20161226200011612/26/16 20:00:31  5-MIN KAOH 270100Z AUTO 24019G25KT 10SM OVC029 11/07 A2995 950 77 700 250/19G25 RMK AO2 T01110072
04850KAOH AOH20161226200511612/26/16 20:05:31  5-MIN KAOH 270105Z AUTO 24017G25KT 10SM OVC029 11/07 A2994 950 77 800 250/17G25 RMK AO2 T01110072
04850KAOH AOH20161226201011612/26/16 20:10:31  5-MIN KAOH 270110Z AUTO 24020G25KT 10SM OVC029 11/07 A2994 960 74 800 240/20G25 RMK AO2 T01110067
04850KAOH AOH20161226201513212/26/16 20:15:31  5-MIN KAOH 270115Z AUTO 24015G25KT 10SM -RA OVC031 11/07 A2994 960 74 800 250/15G25 RMK AO2 RAB15 P0000 T01110067
04850KAOH AOH20161226202013312/26/16 20:20:31  5-MIN KAOH 270120Z AUTO 24014KT 10SM -RA BKN031 OVC038 11/07 A2994 960 80 700 240/14 RMK AO2 RAB15 P0000 T01060072
04850KAOH AOH20161226202513312/26/16 20:25:31  5-MIN KAOH 270125Z AUTO 24017KT 10SM -RA SCT031 OVC040 11/07 A2995 950 77 800 240/17 RMK AO2 RAB15 P0000 T01110072
04850KAOH AOH20161226203014012/26/16 20:30:31  5-MIN KAOH 270130Z AUTO 24014KT 10SM -RA SCT031 BKN041 OVC049 11/07 A2995 950 77 700 240/14 RMK AO2 RAB15 P0000 T01060067
04850KAOH AOH20161226203514012/26/16 20:35:31  5-MIN KAOH 270135Z AUTO 24015KT 10SM -RA SCT031 BKN041 OVC049 11/07 A2995 950 80 700 250/15 RMK AO2 RAB15 P0000 T01060072
04850KAOH AOH20161226204014012/26/16 20:40:31  5-MIN KAOH 270140Z AUTO 24014KT 10SM -RA FEW030 SCT038 OVC060 11/07 A2995 950 77 700 250/14 RMK AO2 RAB15 P0000 T01060067
04850KAOH AOH20161226204513912/26/16 20:45:31  5-MIN KAOH 270145Z AUTO 24015KT 10SM FEW036 SCT047 OVC060 11/07 A2995 950 80 700 240/15 RMK AO2 RAB15E44 P0000 T01060072
04850KAOH AOH20161226205013912/26/16 20:50:31  5-MIN KAOH 270150Z AUTO 24015KT 10SM FEW047 OVC060 11/07 A2995 950 77 700 240/15 RMK AO2 RAB15E44 SLP141 P0000 T01060067
04850KAOH AOH20161226205512312/26/16 20:55:31  5-MIN KAOH 270155Z AUTO 24016G21KT 10SM BKN055 OVC070 11/07 A2995 950 77 700 240/16G21 RMK AO2 T01060067
04850KAOH AOH20161226210011012/26/16 21:00:31  5-MIN KAOH 270200Z AUTO 24014KT 10SM OVC065 11/07 A2995 950 77 700 250/14 RMK AO2 T01060067
04850KAOH AOH20161226210511012/26/16 21:05:31  5-MIN KAOH 270205Z AUTO 25013KT 10SM OVC065 11/07 A2995 950 77 700 250/13 RMK AO2 T01060067
04850KAOH AOH20161226211012312/26/16 21:10:31  5-MIN KAOH 270210Z AUTO 25016G22KT 10SM BKN065 OVC095 11/07 A2995 950 77 700 260/16G22 RMK AO2 T01060067
04850KAOH AOH20161226211512312/26/16 21:15:31  5-MIN KAOH 270215Z AUTO 25017KT 10SM BKN070 OVC090 11/07 A2995 950 77 700 260/17 RMK AO2 P0001 T01060067
04850KAOH AOH20161226212012912/26/16 21:20:31  5-MIN KAOH 270220Z AUTO 26018G23KT 10SM BKN070 OVC095 11/06 A2995 950 74 700 260/18G23 RMK AO2 P0001 T01060061
04850KAOH AOH20161226212512912/26/16 21:25:31  5-MIN KAOH 270225Z AUTO 26015G23KT 10SM BKN070 OVC095 11/06 A2996 940 74 700 260/15G23 RMK AO2 P0001 T01060061
04850KAOH AOH20161226213012312/26/16 21:30:31  5-MIN KAOH 270230Z AUTO 26019KT 10SM BKN070 OVC095 11/06 A2996 940 74 700 260/19 RMK AO2 P0001 T01060061
04850KAOH AOH20161226213512912/26/16 21:35:31  5-MIN KAOH 270235Z AUTO 25016G25KT 10SM BKN070 BKN095 10/06 A2996 940 77 600 260/16G25 RMK AO2 P0001 T01000061
04850KAOH AOH20161226214012912/26/16 21:40:31  5-MIN KAOH 270240Z AUTO 26018G25KT 10SM BKN070 BKN100 10/06 A2997 940 74 600 260/18G25 RMK AO2 P0001 T01000056
04850KAOH AOH20161226214512912/26/16 21:45:31  5-MIN KAOH 270245Z AUTO 25015G24KT 10SM BKN070 BKN100 10/06 A2997 930 74 600 250/15G24 RMK AO2 P0001 T01000056
04850KAOH AOH20161226215013512/26/16 21:50:31  5-MIN KAOH 270250Z AUTO 25016KT 10SM BKN070 10/06 A2997 930 74 600 260/16 RMK AO2 SLP148 P0001 60001 T01000056 53007
04850KAOH AOH20161226215511712/26/16 21:55:31  5-MIN KAOH 270255Z AUTO 26018KT 10SM BKN070 BKN095 10/06 A2997 930 74 600 260/18 RMK AO2 T01000056
04850KAOH AOH20161226220011712/26/16 22:00:31  5-MIN KAOH 270300Z AUTO 25019KT 10SM BKN075 BKN095 10/06 A2997 930 77 600 260/19 RMK AO2 T01000061
04850KAOH AOH20161226220511712/26/16 22:05:31  5-MIN KAOH 270305Z AUTO 25017KT 10SM SCT070 OVC090 10/06 A2997 930 77 600 260/17 RMK AO2 T01000061
04850KAOH AOH20161226221011712/26/16 22:10:31  5-MIN KAOH 270310Z AUTO 26016KT 10SM SCT075 OVC090 09/06 A2998 930 79 500 260/16 RMK AO2 T00940061
04850KAOH AOH20161226221512312/26/16 22:15:31  5-MIN KAOH 270315Z AUTO 26018G24KT 10SM FEW075 BKN090 09/06 A2998 920 79 500 260/18G24 RMK AO2 T00940061
04850KAOH AOH20161226222011612/26/16 22:20:31  5-MIN KAOH 270320Z AUTO 25016G24KT 10SM BKN090 09/06 A2998 920 79 500 260/16G24 RMK AO2 T00940061
04850KAOH AOH20161226222513412/26/16 22:25:31  5-MIN KAOH 270325Z AUTO 25022G27KT 10SM SCT090 09/06 A2998 920 79 500 260/22G27 RMK AO2 PK WND 25027/0324 T00940061
04850KAOH AOH20161226223013412/26/16 22:30:31  5-MIN KAOH 270330Z AUTO 26015G27KT 10SM FEW090 09/06 A2998 920 79 500 260/15G27 RMK AO2 PK WND 25027/0324 T00940061
04850KAOH AOH20161226223513412/26/16 22:35:31  5-MIN KAOH 270335Z AUTO 25017G24KT 10SM FEW090 09/06 A2998 920 83 400 260/17G24 RMK AO2 PK WND 25027/0324 T00890061
04850KAOH AOH20161226224013112/26/16 22:40:31  5-MIN KAOH 270340Z AUTO 26017G24KT 10SM CLR 09/06 A2998 920 83 500 260/17G24 RMK AO2 PK WND 25027/0324 T00890061
04850KAOH AOH20161226224513112/26/16 22:45:31  5-MIN KAOH 270345Z AUTO 26015G25KT 10SM CLR 09/06 A2998 920 83 400 260/15G25 RMK AO2 PK WND 25027/0324 T00890061
04850KAOH AOH20161226225013812/26/16 22:50:31  5-MIN KAOH 270350Z AUTO 25017G25KT 10SM CLR 09/06 A2999 920 79 400 260/17G25 RMK AO2 PK WND 25027/0324 SLP155 T00890056
04850KAOH AOH20161226225511312/26/16 22:55:31  5-MIN KAOH 270355Z AUTO 26017G23KT 10SM CLR 08/06 A2999 920 82 400 260/17G23 RMK AO2 T00830056
04850KAOH AOH20161226230011312/26/16 23:00:31  5-MIN KAOH 270400Z AUTO 25018G23KT 10SM CLR 08/06 A2999 910 82 400 260/18G23 RMK AO2 T00830056
04850KAOH AOH20161226230513112/26/16 23:05:31  5-MIN KAOH 270405Z AUTO 25020G26KT 10SM CLR 08/06 A2998 920 82 400 250/20G26 RMK AO2 PK WND 24026/0405 T00830056
04850KAOH AOH20161226231013112/26/16 23:10:31  5-MIN KAOH 270410Z AUTO 25018G26KT 10SM CLR 08/05 A2999 910 79 400 250/18G26 RMK AO2 PK WND 24026/0405 T00830050
04850KAOH AOH20161226231513112/26/16 23:15:31  5-MIN KAOH 270415Z AUTO 25018G26KT 10SM CLR 08/05 A2999 920 79 400 260/18G26 RMK AO2 PK WND 24026/0405 T00830050
04850KAOH AOH20161226232013112/26/16 23:20:31  5-MIN KAOH 270420Z AUTO 25015G25KT 10SM CLR 08/04 A2999 910 76 400 260/15G25 RMK AO2 PK WND 24026/0405 T00830044
04850KAOH AOH20161226232512512/26/16 23:25:31  5-MIN KAOH 270425Z AUTO 25016KT 10SM CLR 08/04 A2999 910 76 400 260/16 RMK AO2 PK WND 24026/0405 T00830044
04850KAOH AOH20161226233013112/26/16 23:30:31  5-MIN KAOH 270430Z AUTO 26023G29KT 10SM CLR 08/04 A2999 910 73 400 260/23G29 RMK AO2 PK WND 26029/0429 T00830039
04850KAOH AOH20161226233513112/26/16 23:35:31  5-MIN KAOH 270435Z AUTO 25017G29KT 10SM CLR 08/04 A2999 910 76 300 260/17G29 RMK AO2 PK WND 26029/0429 T00780039
04850KAOH AOH20161226234012512/26/16 23:40:31  5-MIN KAOH 270440Z AUTO 25015KT 10SM CLR 08/04 A2999 910 76 300 260/15 RMK AO2 PK WND 26029/0429 T00780039
04850KAOH AOH20161226234513112/26/16 23:45:31  5-MIN KAOH 270445Z AUTO 26020G25KT 10SM CLR 08/04 A2999 910 76 300 260/20G25 RMK AO2 PK WND 26029/0429 T00780039
04850KAOH AOH20161226235014812/26/16 23:50:31  5-MIN KAOH 270450Z AUTO 26023G30KT 10SM CLR 08/03 A2999 910 70 300 260/23G30 RMK AO2 PK WND 26030/0449 SLP157 T00780028 401780056
04850KAOH AOH20161226235511312/26/16 23:55:31  5-MIN KAOH 270455Z AUTO 26021G30KT 10SM CLR 07/02 A2999 910 70 200 270/21G30 RMK AO2 T00720022
04850KAOH AOH20161227000013112/27/16 00:00:31  5-MIN KAOH 270500Z AUTO 25023G29KT 10SM CLR 07/02 A2999 910 68 200 260/23G29 RMK AO2 PK WND 25026/0500 T00720017
04850KAOH AOH20161227000513112/27/16 00:05:31  5-MIN KAOH 270505Z AUTO 26022G29KT 10SM CLR 07/02 A2999 910 68 200 260/22G29 RMK AO2 PK WND 25026/0500 T00720017
04850KAOH AOH20161227001013112/27/16 00:10:31  5-MIN KAOH 270510Z AUTO 25021G26KT 10SM CLR 07/02 A3000 910 70 200 260/21G26 RMK AO2 PK WND 25026/0500 T00670017
04850KAOH AOH20161227001513112/27/16 00:15:31  5-MIN KAOH 270515Z AUTO 25019G26KT 10SM CLR 07/01 A3000 910 67 200 260/19G26 RMK AO2 PK WND 25026/0500 T00670011
04850KAOH AOH20161227002012512/27/16 00:20:31  5-MIN KAOH 270520Z AUTO 25020KT 10SM CLR 06/01 A3000 910 70 100 260/20 RMK AO2 PK WND 25026/0500 T00610011
04850KAOH AOH20161227002512512/27/16 00:25:31  5-MIN KAOH 270525Z AUTO 25017KT 10SM CLR 06/01 A2999 910 70 100 260/17 RMK AO2 PK WND 25026/0500 T00610011
04850KAOH AOH20161227003012512/27/16 00:30:31  5-MIN KAOH 270530Z AUTO 26017KT 10SM CLR 06/01 A2999 910 70 100 260/17 RMK AO2 PK WND 25026/0500 T00610011
04850KAOH AOH20161227003512312/27/16 00:35:31  5-MIN KAOH 270535Z AUTO 26018KT 10SM CLR 06/01 A2999 910 73 0 260/18 RMK AO2 PK WND 25026/0500 T00560011
04850KAOH AOH20161227004012312/27/16 00:40:31  5-MIN KAOH 270540Z AUTO 26014KT 10SM CLR 06/01 A2999 910 73 0 260/14 RMK AO2 PK WND 25026/0500 T00560011
04850KAOH AOH20161227004512312/27/16 00:45:31  5-MIN KAOH 270545Z AUTO 26015KT 10SM CLR 05/01 A2999 910 76 0 270/15 RMK AO2 PK WND 25026/0500 T00500011
04850KAOH AOH20161227005015412/27/16 00:50:31  5-MIN KAOH 270550Z AUTO 28012KT 10SM CLR 05/02 A2999 910 79 0 280/12 RMK AO2 PK WND 25026/0500 SLP159 60001 T00500017 10117 20050 53005
04850KAOH AOH20161227005511112/27/16 00:55:31  5-MIN KAOH 270555Z AUTO 29016G27KT 10SM CLR 05/01 A3000 910 76 0 290/16G27 RMK AO2 T00500011
04850KAOH AOH20161227010011412/27/16 01:00:31  5-MIN KAOH 270600Z AUTO 28019G27KT 10SM CLR 04/01 A3000 910 76 -100 280/19G27 RMK AO2 T00440006
04850KAOH AOH20161227010511412/27/16 01:05:31  5-MIN KAOH 270605Z AUTO 28018G24KT 10SM CLR 04/00 A3000 910 73 -100 290/18G24 RMK AO2 T00440000
04850KAOH AOH20161227011013312/27/16 01:10:31  5-MIN KAOH 270610Z AUTO 28020G26KT 10SM CLR 04/M01 A3000 910 73 -100 280/20G26 RMK AO2 PK WND 28026/0610 T00391006
04850KAOH AOH20161227011513312/27/16 01:15:31  5-MIN KAOH 270615Z AUTO 28022G26KT 10SM CLR 04/M01 A3000 910 73 -100 280/22G26 RMK AO2 PK WND 28026/0615 T00391006
04850KAOH AOH20161227012013312/27/16 01:20:31  5-MIN KAOH 270620Z AUTO 27022G28KT 10SM CLR 04/M01 A3000 910 70 -100 280/22G28 RMK AO2 PK WND 26028/0620 T00391011
04850KAOH AOH20161227012513312/27/16 01:25:31  5-MIN KAOH 270625Z AUTO 27023G28KT 10SM CLR 03/M01 A3000 910 72 -200 280/23G28 RMK AO2 PK WND 26028/0620 T00331011
04850KAOH AOH20161227013013312/27/16 01:30:31  5-MIN KAOH 270630Z AUTO 27021G30KT 10SM CLR 03/M02 A3000 900 70 -200 280/21G30 RMK AO2 PK WND 28030/0629 T00331017
04850KAOH AOH20161227013513312/27/16 01:35:31  5-MIN KAOH 270635Z AUTO 27022G30KT 10SM CLR 03/M02 A3000 910 70 -200 280/22G30 RMK AO2 PK WND 28030/0629 T00331017
04850KAOH AOH20161227014013312/27/16 01:40:31  5-MIN KAOH 270640Z AUTO 27021G30KT 10SM CLR 03/M02 A3000 910 67 -200 280/21G30 RMK AO2 PK WND 28030/0638 T00331022
04850KAOH AOH20161227014513312/27/16 01:45:31  5-MIN KAOH 270645Z AUTO 28021G30KT 10SM CLR 03/M03 A3000 900 67 -300 280/21G30 RMK AO2 PK WND 28030/0638 T00281028
04850KAOH AOH20161227015014012/27/16 01:50:31  5-MIN KAOH 270650Z AUTO 27023G29KT 10SM CLR 03/M03 A3000 900 67 -300 280/23G29 RMK AO2 PK WND 28030/0638 SLP162 T00281028
04850KAOH AOH20161227015511512/27/16 01:55:31  5-MIN KAOH 270655Z AUTO 27020G27KT 10SM CLR 02/M03 A3001 900 69 -300 270/20G27 RMK AO2 T00221028
04850KAOH AOH20161227020013312/27/16 02:00:31  5-MIN KAOH 270700Z AUTO 26018G28KT 10SM CLR 02/M03 A3001 900 69 -300 270/18G28 RMK AO2 PK WND 26028/0656 T00221028
04850KAOH AOH20161227020513312/27/16 02:05:31  5-MIN KAOH 270705Z AUTO 26020G28KT 10SM CLR 02/M03 A3001 890 69 -400 270/20G28 RMK AO2 PK WND 26028/0656 T00221028
04850KAOH AOH20161227021012712/27/16 02:10:31  5-MIN KAOH 270710Z AUTO 26018KT 10SM CLR 02/M03 A3001 890 69 -400 270/18 RMK AO2 PK WND 26028/0656 T00221028
04850KAOH AOH20161227021512712/27/16 02:15:31  5-MIN KAOH 270715Z AUTO 26015KT 10SM CLR 02/M03 A3001 890 72 -400 260/15 RMK AO2 PK WND 26028/0656 T00171028
04850KAOH AOH20161227022012712/27/16 02:20:31  5-MIN KAOH 270720Z AUTO 25016KT 10SM CLR 02/M03 A3002 890 72 -400 260/16 RMK AO2 PK WND 26028/0656 T00171028
04850KAOH AOH20161227022512712/27/16 02:25:31  5-MIN KAOH 270725Z AUTO 25016KT 10SM CLR 02/M03 A3002 890 72 -400 260/16 RMK AO2 PK WND 26028/0656 T00171028
04850KAOH AOH20161227023013312/27/16 02:30:31  5-MIN KAOH 270730Z AUTO 25017G24KT 10SM CLR 02/M03 A3002 880 72 -400 260/17G24 RMK AO2 PK WND 26028/0656 T00171028
04850KAOH AOH20161227023512712/27/16 02:35:31  5-MIN KAOH 270735Z AUTO 25016KT 10SM CLR 02/M03 A3002 880 72 -400 260/16 RMK AO2 PK WND 26028/0656 T00171028
04850KAOH AOH20161227024012712/27/16 02:40:31  5-MIN KAOH 270740Z AUTO 25018KT 10SM CLR 02/M03 A3003 880 72 -400 260/18 RMK AO2 PK WND 26028/0656 T00171028
04850KAOH AOH20161227024512712/27/16 02:45:31  5-MIN KAOH 270745Z AUTO 25016KT 10SM CLR 02/M03 A3003 880 72 -400 260/16 RMK AO2 PK WND 26028/0656 T00171028
04850KAOH AOH20161227025013412/27/16 02:50:31  5-MIN KAOH 270750Z AUTO 25016KT 10SM CLR 01/M03 A3003 870 72 -500 260/16 RMK AO2 PK WND 26028/0656 SLP173 T00111033
04850KAOH AOH20161227025510912/27/16 02:55:31  5-MIN KAOH 270755Z AUTO 25017KT 10SM CLR 01/M03 A3004 870 72 -500 260/17 RMK AO2 T00111033
04850KAOH AOH20161227030011512/27/16 03:00:31  5-MIN KAOH 270800Z AUTO 25017G24KT 10SM CLR 01/M03 A3004 870 72 -500 260/17G24 RMK AO2 T00111033
04850KAOH AOH20161227030511512/27/16 03:05:31  5-MIN KAOH 270805Z AUTO 26017G24KT 10SM CLR 01/M03 A3004 870 75 -600 260/17G24 RMK AO2 T00061033
04850KAOH AOH20161227031010912/27/16 03:10:31  5-MIN KAOH 270810Z AUTO 26015KT 10SM CLR 01/M03 A3004 870 75 -600 260/15 RMK AO2 T00061033
04850KAOH AOH20161227031510912/27/16 03:15:31  5-MIN KAOH 270815Z AUTO 26016KT 10SM CLR 01/M03 A3004 870 75 -600 260/16 RMK AO2 T00061033
04850KAOH AOH20161227032010912/27/16 03:20:31  5-MIN KAOH 270820Z AUTO 26018KT 10SM CLR 01/M03 A3004 870 75 -600 260/18 RMK AO2 T00061033
04850KAOH AOH20161227032511512/27/16 03:25:31  5-MIN KAOH 270825Z AUTO 26019G24KT 10SM CLR 01/M03 A3004 870 75 -600 270/19G24 RMK AO2 T00061033
04850KAOH AOH20161227033010912/27/16 03:30:31  5-MIN KAOH 270830Z AUTO 26017KT 10SM CLR 01/M03 A3004 870 75 -600 260/17 RMK AO2 T00061033
04850KAOH AOH20161227033510912/27/16 03:35:31  5-MIN KAOH 270835Z AUTO 26019KT 10SM CLR 01/M03 A3004 870 75 -600 270/19 RMK AO2 T00061033
04850KAOH AOH20161227034013312/27/16 03:40:31  5-MIN KAOH 270840Z AUTO 26019G26KT 10SM CLR 01/M03 A3004 870 75 -600 270/19G26 RMK AO2 PK WND 27026/0840 T00061033
04850KAOH AOH20161227034513312/27/16 03:45:31  5-MIN KAOH 270845Z AUTO 27019G26KT 10SM CLR 01/M03 A3004 870 75 -600 270/19G26 RMK AO2 PK WND 27026/0840 T00061033
04850KAOH AOH20161227035014612/27/16 03:50:31  5-MIN KAOH 270850Z AUTO 26017G25KT 10SM CLR 01/M03 A3004 870 75 -600 270/17G25 RMK AO2 PK WND 27026/0840 SLP174 T00061033 51008
04850KAOH AOH20161227035511512/27/16 03:55:31  5-MIN KAOH 270855Z AUTO 26016G25KT 10SM CLR 00/M03 A3004 870 78 -700 270/16G25 RMK AO2 T00001033
04850KAOH AOH20161227040010912/27/16 04:00:31  5-MIN KAOH 270900Z AUTO 27017KT 10SM CLR 00/M03 A3004 870 78 -700 270/17 RMK AO2 T00001033
04850KAOH AOH20161227040510912/27/16 04:05:31  5-MIN KAOH 270905Z AUTO 27016KT 10SM CLR 00/M03 A3004 870 78 -700 270/16 RMK AO2 T00001033
04850KAOH AOH20161227041010912/27/16 04:10:31  5-MIN KAOH 270910Z AUTO 26012KT 10SM CLR 00/M03 A3004 870 81 -700 270/12 RMK AO2 T00001028
04850KAOH AOH20161227041510912/27/16 04:15:31  5-MIN KAOH 270915Z AUTO 26013KT 10SM CLR 00/M03 A3003 870 81 -700 260/13 RMK AO2 T00001028
04850KAOH AOH20161227042011512/27/16 04:20:31  5-MIN KAOH 270920Z AUTO 26021G25KT 10SM CLR 00/M03 A3003 870 78 -700 270/21G25 RMK AO2 T00001033
04850KAOH AOH20161227042511512/27/16 04:25:31  5-MIN KAOH 270925Z AUTO 26016G25KT 10SM CLR 00/M03 A3004 870 78 -700 270/16G25 RMK AO2 T00001033
04850KAOH AOH20161227043011012/27/16 04:30:31  5-MIN KAOH 270930Z AUTO 26017KT 10SM CLR M01/M03 A3003 870 81 -700 270/17 RMK AO2 T10061033
04850KAOH AOH20161227043511012/27/16 04:35:31  5-MIN KAOH 270935Z AUTO 26017KT 10SM CLR M01/M03 A3004 870 81 -700 260/17 RMK AO2 T10061033
04850KAOH AOH20161227044011012/27/16 04:40:31  5-MIN KAOH 270940Z AUTO 26018KT 10SM CLR M01/M03 A3004 870 81 -700 260/18 RMK AO2 T10061033
04850KAOH AOH20161227044511012/27/16 04:45:31  5-MIN KAOH 270945Z AUTO 26017KT 10SM CLR M01/M04 A3004 870 78 -700 270/17 RMK AO2 T10061039
04850KAOH AOH20161227045011712/27/16 04:50:31  5-MIN KAOH 270950Z AUTO 26017KT 10SM CLR M01/M04 A3004 870 78 -700 270/17 RMK AO2 SLP175 T10061039
04850KAOH AOH20161227045511612/27/16 04:55:31  5-MIN KAOH 270955Z AUTO 26019G23KT 10SM CLR M01/M04 A3004 870 78 -700 260/19G23 RMK AO2 T10061039
04850KAOH AOH20161227050011612/27/16 05:00:31  5-MIN KAOH 271000Z AUTO 26020G23KT 10SM CLR M01/M04 A3004 870 78 -700 270/20G23 RMK AO2 T10061039
04850KAOH AOH20161227050511612/27/16 05:05:31  5-MIN KAOH 271005Z AUTO 26016G23KT 10SM CLR M01/M04 A3003 870 78 -700 270/16G23 RMK AO2 T10061039
04850KAOH AOH20161227051011012/27/16 05:10:31  5-MIN KAOH 271010Z AUTO 26014KT 10SM CLR M01/M04 A3004 870 81 -800 260/14 RMK AO2 T10111039
04850KAOH AOH20161227051513412/27/16 05:15:31  5-MIN KAOH 271015Z AUTO 25018G27KT 10SM CLR M01/M04 A3004 870 81 -800 260/18G27 RMK AO2 PK WND 25027/1015 T10111039
04850KAOH AOH20161227052013412/27/16 05:20:31  5-MIN KAOH 271020Z AUTO 26018G27KT 10SM CLR M01/M04 A3004 870 81 -800 260/18G27 RMK AO2 PK WND 25027/1015 T10111039
04850KAOH AOH20161227052513412/27/16 05:25:31  5-MIN KAOH 271025Z AUTO 26020G26KT 10SM CLR M01/M04 A3004 870 78 -800 270/20G26 RMK AO2 PK WND 25027/1015 T10111044
04850KAOH AOH20161227053013412/27/16 05:30:31  5-MIN KAOH 271030Z AUTO 26019G26KT 10SM CLR M01/M04 A3004 860 78 -800 270/19G26 RMK AO2 PK WND 25027/1015 T10111044
04850KAOH AOH20161227053513412/27/16 05:35:31  5-MIN KAOH 271035Z AUTO 26015G25KT 10SM CLR M01/M04 A3004 860 78 -800 270/15G25 RMK AO2 PK WND 25027/1015 T10111044
04850KAOH AOH20161227054013412/27/16 05:40:31  5-MIN KAOH 271040Z AUTO 26016G25KT 10SM CLR M01/M04 A3005 860 78 -800 260/16G25 RMK AO2 PK WND 25027/1015 T10111044
04850KAOH AOH20161227054513412/27/16 05:45:31  5-MIN KAOH 271045Z AUTO 26014G22KT 10SM CLR M01/M04 A3005 860 78 -800 260/14G22 RMK AO2 PK WND 25027/1015 T10111044
04850KAOH AOH20161227055013512/27/16 05:50:31  5-MIN KAOH 271050Z AUTO 26014KT 10SM CLR M01/M04 A3005 860 78 -800 260/14 RMK AO2 PK WND 25027/1015 SLP181 T10111044
04850KAOH AOH20161227055511612/27/16 05:55:31  5-MIN KAOH 271055Z AUTO 26017G22KT 10SM CLR M01/M04 A3005 860 78 -800 260/17G22 RMK AO2 T10111044
04850KAOH AOH20161227060011612/27/16 06:00:31  5-MIN KAOH 271100Z AUTO 26014G22KT 10SM CLR M01/M04 A3005 860 78 -800 260/14G22 RMK AO2 T10111044
04850KAOH AOH20161227060511612/27/16 06:05:31  5-MIN KAOH 271105Z AUTO 25016G24KT 10SM CLR M01/M04 A3005 860 78 -800 260/16G24 RMK AO2 T10111044
04850KAOH AOH20161227061011612/27/16 06:10:31  5-MIN KAOH 271110Z AUTO 25016G24KT 10SM CLR M01/M04 A3005 850 78 -800 260/16G24 RMK AO2 T10111044
04850KAOH AOH20161227061511012/27/16 06:15:31  5-MIN KAOH 271115Z AUTO 25018KT 10SM CLR M01/M04 A3005 860 78 -800 250/18 RMK AO2 T10111044
04850KAOH AOH20161227062011012/27/16 06:20:31  5-MIN KAOH 271120Z AUTO 26015KT 10SM CLR M01/M04 A3005 850 78 -800 260/15 RMK AO2 T10111044
04850KAOH AOH20161227062511012/27/16 06:25:31  5-MIN KAOH 271125Z AUTO 25013KT 10SM CLR M01/M04 A3005 850 78 -800 260/13 RMK AO2 T10111044
04850KAOH AOH20161227063011612/27/16 06:30:31  5-MIN KAOH 271130Z AUTO 26016G22KT 10SM CLR M01/M04 A3005 860 78 -800 260/16G22 RMK AO2 T10111044
04850KAOH AOH20161227063511612/27/16 06:35:31  5-MIN KAOH 271135Z AUTO 25017G22KT 10SM CLR M01/M04 A3005 860 78 -800 260/17G22 RMK AO2 T10111044
04850KAOH AOH20161227064011012/27/16 06:40:31  5-MIN KAOH 271140Z AUTO 26017KT 10SM CLR M01/M04 A3005 860 78 -800 260/17 RMK AO2 T10111044
04850KAOH AOH20161227064511612/27/16 06:45:31  5-MIN KAOH 271145Z AUTO 25014G22KT 10SM CLR M02/M04 A3005 860 81 -900 260/14G22 RMK AO2 T10171044
04850KAOH AOH20161227065014112/27/16 06:50:31  5-MIN KAOH 271150Z AUTO 25015KT 10SM CLR M02/M04 A3005 860 81 -900 260/15 RMK AO2 SLP182 70018 T10171044 10050 21017 51013
04850KAOH AOH20161227065511012/27/16 06:55:31  5-MIN KAOH 271155Z AUTO 25013KT 10SM CLR M02/M04 A3005 850 81 -900 260/13 RMK AO2 T10171044
04850KAOH AOH20161227070011012/27/16 07:00:31  5-MIN KAOH 271200Z AUTO 26013KT 10SM CLR M02/M04 A3006 850 81 -900 260/13 RMK AO2 T10171044
04850KAOH AOH20161227070511012/27/16 07:05:31  5-MIN KAOH 271205Z AUTO 26016KT 10SM CLR M02/M04 A3006 850 81 -900 260/16 RMK AO2 T10171044
04850KAOH AOH20161227071011012/27/16 07:10:31  5-MIN KAOH 271210Z AUTO 25013KT 10SM CLR M02/M04 A3006 850 81 -900 260/13 RMK AO2 T10171044
04850KAOH AOH20161227071511012/27/16 07:15:31  5-MIN KAOH 271215Z AUTO 25013KT 10SM CLR M02/M05 A3006 850 78 -900 260/13 RMK AO2 T10171050
04850KAOH AOH20161227072011612/27/16 07:20:31  5-MIN KAOH 271220Z AUTO 26015G22KT 10SM CLR M02/M04 A3006 850 81 -900 260/15G22 RMK AO2 T10171044
04850KAOH AOH20161227072511612/27/16 07:25:31  5-MIN KAOH 271225Z AUTO 25014G22KT 10SM CLR M02/M05 A3006 850 78 -900 260/14G22 RMK AO2 T10171050
04850KAOH AOH20161227073011012/27/16 07:30:31  5-MIN KAOH 271230Z AUTO 25015KT 10SM CLR M02/M05 A3006 850 78 -900 260/15 RMK AO2 T10171050
04850KAOH AOH20161227073511012/27/16 07:35:31  5-MIN KAOH 271235Z AUTO 26015KT 10SM CLR M02/M05 A3007 840 78 -900 270/15 RMK AO2 T10171050
04850KAOH AOH20161227074011012/27/16 07:40:31  5-MIN KAOH 271240Z AUTO 26014KT 10SM CLR M02/M05 A3007 840 78 -900 260/14 RMK AO2 T10171050
04850KAOH AOH20161227074511012/27/16 07:45:31  5-MIN KAOH 271245Z AUTO 26015KT 10SM CLR M02/M05 A3007 840 78 -900 260/15 RMK AO2 T10171050
04850KAOH AOH20161227075012312/27/16 07:50:31  5-MIN KAOH 271250Z AUTO 26014G20KT 10SM CLR M02/M04 A3007 840 81 -900 260/14G20 RMK AO2 SLP190 T10171044
04850KAOH AOH20161227075511012/27/16 07:55:31  5-MIN KAOH 271255Z AUTO 26014KT 10SM CLR M02/M05 A3008 830 78 -900 270/14 RMK AO2 T10171050
04850KAOH AOH20161227080011012/27/16 08:00:31  5-MIN KAOH 271300Z AUTO 26015KT 10SM CLR M02/M05 A3008 830 78 -900 270/15 RMK AO2 T10171050
04850KAOH AOH20161227080511012/27/16 08:05:31  5-MIN KAOH 271305Z AUTO 26013KT 10SM CLR M02/M05 A3008 830 78 -900 260/13 RMK AO2 T10171050
04850KAOH AOH20161227081011012/27/16 08:10:31  5-MIN KAOH 271310Z AUTO 25013KT 10SM CLR M02/M05 A3008 830 78 -900 260/13 RMK AO2 T10171050
04850KAOH AOH20161227081511012/27/16 08:15:31  5-MIN KAOH 271315Z AUTO 26013KT 10SM CLR M02/M05 A3009 820 78 -900 270/13 RMK AO2 T10171050
04850KAOH AOH20161227082011012/27/16 08:20:31  5-MIN KAOH 271320Z AUTO 26013KT 10SM CLR M02/M04 A3009 820 81 -900 270/13 RMK AO2 T10171044
04850KAOH AOH20161227082511012/27/16 08:25:31  5-MIN KAOH 271325Z AUTO 26013KT 10SM CLR M02/M04 A3009 820 81 -900 260/13 RMK AO2 T10171044
04850KAOH AOH20161227083011012/27/16 08:30:31  5-MIN KAOH 271330Z AUTO 26012KT 10SM CLR M02/M04 A3009 820 81 -900 260/12 RMK AO2 T10171044
04850KAOH AOH20161227083511312/27/16 08:35:31  5-MIN KAOH 271335Z AUTO 26013KT 10SM FEW023 M02/M04 A3009 820 81 -900 260/13 RMK AO2 T10171044
04850KAOH AOH20161227084011912/27/16 08:40:31  5-MIN KAOH 271340Z AUTO 26015G23KT 10SM FEW023 M02/M04 A3009 820 81 -900 270/15G23 RMK AO2 T10171044
04850KAOH AOH20161227084511912/27/16 08:45:31  5-MIN KAOH 271345Z AUTO 26014G23KT 10SM FEW023 M01/M04 A3010 820 78 -900 270/14G23 RMK AO2 T10111044
04850KAOH AOH20161227085012012/27/16 08:50:31  5-MIN KAOH 271350Z AUTO 27013KT 10SM SCT023 M01/M04 A3010 810 78 -900 270/13 RMK AO2 SLP197 T10111044
04850KAOH AOH20161227085511912/27/16 08:55:31  5-MIN KAOH 271355Z AUTO 27016G22KT 10SM SCT023 M01/M04 A3010 810 78 -900 280/16G22 RMK AO2 T10111044
04850KAOH AOH20161227090011312/27/16 09:00:31  5-MIN KAOH 271400Z AUTO 26016KT 10SM SCT023 M01/M04 A3010 810 78 -900 270/16 RMK AO2 T10111044
04850KAOH AOH20161227090511312/27/16 09:05:31  5-MIN KAOH 271405Z AUTO 27015KT 10SM FEW023 M01/M04 A3010 810 78 -900 280/15 RMK AO2 T10111044
04850KAOH AOH20161227091011912/27/16 09:10:31  5-MIN KAOH 271410Z AUTO 27017G24KT 10SM FEW023 M01/M04 A3010 810 78 -900 270/17G24 RMK AO2 T10111044
04850KAOH AOH20161227091511912/27/16 09:15:31  5-MIN KAOH 271415Z AUTO 26016G24KT 10SM SCT023 M01/M04 A3010 810 78 -900 270/16G24 RMK AO2 T10111044
04850KAOH AOH20161227092011312/27/16 09:20:31  5-MIN KAOH 271420Z AUTO 27015KT 10SM SCT023 M01/M04 A3010 810 78 -900 270/15 RMK AO2 T10111044
04850KAOH AOH20161227092511312/27/16 09:25:31  5-MIN KAOH 271425Z AUTO 27019KT 10SM BKN023 M01/M04 A3010 810 78 -900 270/19 RMK AO2 T10111044
04850KAOH AOH20161227093011312/27/16 09:30:31  5-MIN KAOH 271430Z AUTO 27015KT 10SM BKN022 M01/M04 A3011 810 78 -900 270/15 RMK AO2 T10111044
04850KAOH AOH20161227093511312/27/16 09:35:31  5-MIN KAOH 271435Z AUTO 27015KT 10SM BKN022 M01/M04 A3010 810 78 -900 280/15 RMK AO2 T10111044
04850KAOH AOH20161227094011312/27/16 09:40:31  5-MIN KAOH 271440Z AUTO 26015KT 10SM BKN022 M01/M04 A3011 810 81 -900 270/15 RMK AO2 T10111039
04850KAOH AOH20161227094511912/27/16 09:45:31  5-MIN KAOH 271445Z AUTO 26015G23KT 10SM OVC022 M01/M04 A3011 800 78 -900 270/15G23 RMK AO2 T10111044
04850KAOH AOH20161227095013212/27/16 09:50:31  5-MIN KAOH 271450Z AUTO 27014G23KT 10SM OVC022 M01/M04 A3011 800 81 -900 270/14G23 RMK AO2 SLP203 T10111039 53005
04850KAOH AOH20161227095511912/27/16 09:55:31  5-MIN KAOH 271455Z AUTO 26016G22KT 10SM OVC021 M01/M04 A3011 800 81 -900 260/16G22 RMK AO2 T10111039
04850KAOH AOH20161227100013712/27/16 10:00:31  5-MIN KAOH 271500Z AUTO 27021G26KT 10SM OVC021 M01/M04 A3012 790 78 -900 270/21G26 RMK AO2 PK WND 26026/1459 T10111044
04850KAOH AOH20161227100513712/27/16 10:05:31  5-MIN KAOH 271505Z AUTO 26018G26KT 10SM OVC021 M01/M04 A3012 790 78 -900 270/18G26 RMK AO2 PK WND 26026/1459 T10111044
04850KAOH AOH20161227101013112/27/16 10:10:31  5-MIN KAOH 271510Z AUTO 27015KT 10SM OVC020 M01/M04 A3012 790 81 -900 280/15 RMK AO2 PK WND 26026/1459 T10111039
04850KAOH AOH20161227101513112/27/16 10:15:31  5-MIN KAOH 271515Z AUTO 27017KT 10SM OVC020 M01/M04 A3012 790 81 -900 280/17 RMK AO2 PK WND 26026/1459 T10111039
04850KAOH AOH20161227102013112/27/16 10:20:31  5-MIN KAOH 271520Z AUTO 27015KT 10SM OVC019 M01/M04 A3012 790 81 -900 280/15 RMK AO2 PK WND 26026/1459 T10111039
04850KAOH AOH20161227102513712/27/16 10:25:31  5-MIN KAOH 271525Z AUTO 26019G24KT 10SM OVC019 M01/M04 A3012 790 78 -800 270/19G24 RMK AO2 PK WND 26026/1459 T10061039
04850KAOH AOH20161227103013712/27/16 10:30:31  5-MIN KAOH 271530Z AUTO 26017G24KT 10SM OVC019 M01/M04 A3012 790 78 -800 270/17G24 RMK AO2 PK WND 26026/1459 T10061039
04850KAOH AOH20161227103513112/27/16 10:35:31  5-MIN KAOH 271535Z AUTO 26016KT 10SM OVC019 M01/M04 A3012 790 81 -900 270/16 RMK AO2 PK WND 26026/1459 T10111039
04850KAOH AOH20161227104013112/27/16 10:40:31  5-MIN KAOH 271540Z AUTO 26013KT 10SM OVC019 M01/M04 A3012 790 78 -800 270/13 RMK AO2 PK WND 26026/1459 T10061039
04850KAOH AOH20161227104513112/27/16 10:45:31  5-MIN KAOH 271545Z AUTO 26014KT 10SM OVC019 M01/M04 A3012 790 78 -800 270/14 RMK AO2 PK WND 26026/1459 T10061039
04850KAOH AOH20161227105013812/27/16 10:50:31  5-MIN KAOH 271550Z AUTO 26017KT 10SM OVC019 M01/M04 A3012 790 78 -800 260/17 RMK AO2 PK WND 26026/1459 SLP208 T10061039
04850KAOH AOH20161227105511312/27/16 10:55:31  5-MIN KAOH 271555Z AUTO 25016KT 10SM OVC019 M01/M04 A3012 790 78 -800 260/16 RMK AO2 T10061039
04850KAOH AOH20161227110011312/27/16 11:00:31  5-MIN KAOH 271600Z AUTO 26015KT 10SM OVC018 M01/M04 A3012 790 78 -800 260/15 RMK AO2 T10061039
04850KAOH AOH20161227110511312/27/16 11:05:31  5-MIN KAOH 271605Z AUTO 25014KT 10SM OVC018 M01/M04 A3012 800 78 -800 260/14 RMK AO2 T10061039
04850KAOH AOH20161227111011312/27/16 11:10:31  5-MIN KAOH 271610Z AUTO 25016KT 10SM OVC018 M01/M04 A3012 800 78 -800 260/16 RMK AO2 T10061039
04850KAOH AOH20161227111511312/27/16 11:15:31  5-MIN KAOH 271615Z AUTO 26017KT 10SM OVC018 M01/M04 A3012 800 78 -800 260/17 RMK AO2 T10061039
04850KAOH AOH20161227112011312/27/16 11:20:31  5-MIN KAOH 271620Z AUTO 26015KT 10SM BKN018 M01/M04 A3012 800 78 -800 270/15 RMK AO2 T10061039
04850KAOH AOH20161227112511312/27/16 11:25:31  5-MIN KAOH 271625Z AUTO 27016KT 10SM BKN018 M01/M04 A3011 800 81 -900 280/16 RMK AO2 T10111039
04850KAOH AOH20161227113011312/27/16 11:30:31  5-MIN KAOH 271630Z AUTO 26016KT 10SM SCT018 M01/M04 A3011 800 81 -900 270/16 RMK AO2 T10111039
04850KAOH AOH20161227113511312/27/16 11:35:31  5-MIN KAOH 271635Z AUTO 26016KT 10SM SCT018 M01/M04 A3011 800 78 -800 270/16 RMK AO2 T10061039
04850KAOH AOH20161227114011312/27/16 11:40:31  5-MIN KAOH 271640Z AUTO 26015KT 10SM SCT020 M01/M04 A3011 800 75 -800 260/15 RMK AO2 T10061044
04850KAOH AOH20161227114511312/27/16 11:45:31  5-MIN KAOH 271645Z AUTO 25016KT 10SM SCT020 M01/M04 A3012 800 75 -800 260/16 RMK AO2 T10061044
04850KAOH AOH20161227115011912/27/16 11:50:31  5-MIN KAOH 271650Z AUTO 26014KT 10SM SCT020 00/M04 A3012 790 75 -800 260/14 RMK AO2 SLP206 T00001039
04850KAOH AOH20161227115511312/27/16 11:55:31  5-MIN KAOH 271655Z AUTO 26014KT 10SM BKN021 M01/M04 A3012 800 78 -800 270/14 RMK AO2 T10061039
04850KAOH AOH20161227120011212/27/16 12:00:31  5-MIN KAOH 271700Z AUTO 26014KT 10SM BKN021 00/M03 A3011 800 78 -700 270/14 RMK AO2 T00001033
04850KAOH AOH20161227120511212/27/16 12:05:31  5-MIN KAOH 271705Z AUTO 26013KT 10SM BKN021 00/M04 A3011 800 75 -700 270/13 RMK AO2 T00001039
04850KAOH AOH20161227121011212/27/16 12:10:31  5-MIN KAOH 271710Z AUTO 26012KT 10SM OVC021 00/M03 A3011 810 78 -700 270/12 RMK AO2 T00001033
04850KAOH AOH20161227121511212/27/16 12:15:31  5-MIN KAOH 271715Z AUTO 25014KT 10SM OVC021 00/M03 A3011 800 78 -700 260/14 RMK AO2 T00001033
04850KAOH AOH20161227122011212/27/16 12:20:31  5-MIN KAOH 271720Z AUTO 25014KT 10SM OVC021 00/M03 A3010 810 78 -700 250/14 RMK AO2 T00001033
04850KAOH AOH20161227122511212/27/16 12:25:31  5-MIN KAOH 271725Z AUTO 25014KT 10SM OVC021 00/M03 A3010 810 78 -700 260/14 RMK AO2 T00001033
04850KAOH AOH20161227123011212/27/16 12:30:31  5-MIN KAOH 271730Z AUTO 25012KT 10SM BKN021 00/M03 A3009 820 78 -700 260/12 RMK AO2 T00001033
04850KAOH AOH20161227123511212/27/16 12:35:31  5-MIN KAOH 271735Z AUTO 24012KT 10SM OVC021 00/M03 A3009 820 78 -700 250/12 RMK AO2 T00001033
04850KAOH AOH20161227124011212/27/16 12:40:31  5-MIN KAOH 271740Z AUTO 24017KT 10SM OVC021 01/M03 A3009 820 72 -600 240/17 RMK AO2 T00111033
04850KAOH AOH20161227124511212/27/16 12:45:31  5-MIN KAOH 271745Z AUTO 25016KT 10SM BKN020 01/M03 A3009 820 72 -600 250/16 RMK AO2 T00111033
04850KAOH AOH20161227125013712/27/16 12:50:31  5-MIN KAOH 271750Z AUTO 25014KT 10SM BKN020 01/M03 A3009 820 75 -600 260/14 RMK AO2 SLP196 T00061033 10011 21017 51019
04850KAOH AOH20161227125511212/27/16 12:55:31  5-MIN KAOH 271755Z AUTO 24014KT 10SM BKN020 01/M03 A3008 830 75 -600 240/14 RMK AO2 T00111028
04850KAOH AOH20161227130011212/27/16 13:00:31  5-MIN KAOH 271800Z AUTO 25013KT 10SM BKN020 01/M03 A3008 830 72 -600 260/13 RMK AO2 T00111033
04850KAOH AOH20161227130511212/27/16 13:05:31  5-MIN KAOH 271805Z AUTO 25013KT 10SM BKN022 01/M03 A3008 830 75 -600 260/13 RMK AO2 T00061033
04850KAOH AOH20161227131011212/27/16 13:10:31  5-MIN KAOH 271810Z AUTO 25013KT 10SM SCT022 01/M03 A3008 830 75 -600 260/13 RMK AO2 T00061033
04850KAOH AOH20161227131511212/27/16 13:15:31  5-MIN KAOH 271815Z AUTO 26013KT 10SM SCT022 01/M03 A3008 830 75 -600 270/13 RMK AO2 T00111028
04850KAOH AOH20161227132011212/27/16 13:20:31  5-MIN KAOH 271820Z AUTO 26014KT 10SM SCT022 02/M02 A3008 830 75 -500 260/14 RMK AO2 T00171022
04850KAOH AOH20161227132511212/27/16 13:25:31  5-MIN KAOH 271825Z AUTO 24016KT 10SM SCT022 02/M03 A3008 830 72 -500 250/16 RMK AO2 T00171028
04850KAOH AOH20161227133011212/27/16 13:30:31  5-MIN KAOH 271830Z AUTO 24016KT 10SM SCT022 02/M03 A3009 830 72 -500 250/16 RMK AO2 T00171028
04850KAOH AOH20161227133511212/27/16 13:35:31  5-MIN KAOH 271835Z AUTO 25013KT 10SM SCT022 01/M03 A3008 830 72 -600 250/13 RMK AO2 T00111033
04850KAOH AOH20161227134011212/27/16 13:40:31  5-MIN KAOH 271840Z AUTO 25013KT 10SM FEW022 01/M03 A3008 830 75 -600 260/13 RMK AO2 T00111028
04850KAOH AOH20161227134511212/27/16 13:45:31  5-MIN KAOH 271845Z AUTO 25014KT 10SM FEW023 02/M03 A3008 830 72 -500 260/14 RMK AO2 T00171028
04850KAOH AOH20161227135011912/27/16 13:50:31  5-MIN KAOH 271850Z AUTO 23013KT 10SM FEW023 02/M02 A3008 830 72 -400 240/13 RMK AO2 SLP193 T00221022
04850KAOH AOH20161227135511212/27/16 13:55:31  5-MIN KAOH 271855Z AUTO 24013KT 10SM SCT022 02/M02 A3008 830 75 -500 240/13 RMK AO2 T00171022
04850KAOH AOH20161227140011212/27/16 14:00:31  5-MIN KAOH 271900Z AUTO 24014KT 10SM SCT022 02/M02 A3008 830 75 -500 250/14 RMK AO2 T00171022
04850KAOH AOH20161227140511212/27/16 14:05:31  5-MIN KAOH 271905Z AUTO 24016KT 10SM SCT022 02/M03 A3008 830 72 -500 250/16 RMK AO2 T00171028
04850KAOH AOH20161227141011212/27/16 14:10:31  5-MIN KAOH 271910Z AUTO 24013KT 10SM BKN022 02/M02 A3008 830 72 -400 250/13 RMK AO2 T00221022
04850KAOH AOH20161227141511212/27/16 14:15:31  5-MIN KAOH 271915Z AUTO 25013KT 10SM BKN022 02/M02 A3008 830 72 -400 250/13 RMK AO2 T00221022
04850KAOH AOH20161227142011212/27/16 14:20:31  5-MIN KAOH 271920Z AUTO 26016KT 10SM BKN022 02/M02 A3008 830 75 -500 260/16 RMK AO2 T00171022
04850KAOH AOH20161227142511212/27/16 14:25:31  5-MIN KAOH 271925Z AUTO 24015KT 10SM BKN022 02/M02 A3008 830 75 -500 240/15 RMK AO2 T00171022
04850KAOH AOH20161227143011812/27/16 14:30:31  5-MIN KAOH 271930Z AUTO 24014G20KT 10SM BKN022 02/M02 A3007 840 75 -500 250/14G20 RMK AO2 T00171022
04850KAOH AOH20161227143511212/27/16 14:35:31  5-MIN KAOH 271935Z AUTO 26013KT 10SM BKN022 02/M02 A3007 840 72 -400 260/13 RMK AO2 T00221022
04850KAOH AOH20161227144011212/27/16 14:40:31  5-MIN KAOH 271940Z AUTO 23014KT 10SM BKN022 03/M02 A3007 840 72 -300 230/14 RMK AO2 T00281017
04850KAOH AOH20161227144511212/27/16 14:45:31  5-MIN KAOH 271945Z AUTO 23014KT 10SM BKN022 02/M02 A3006 850 72 -400 240/14 RMK AO2 T00221022
04850KAOH AOH20161227145010212/27/16 14:50:31  5-MIN KAOH 271950Z AUTO 24014KT 10SM SCT022 02/M02 A3006 850 72 -400 240/14 RMK AO2
04850KAOH AOH20161227145511212/27/16 14:55:31  5-MIN KAOH 271955Z AUTO 23013KT 10SM SCT023 03/M02 A3006 850 72 -300 230/13 RMK AO2 T00281017
04850KAOH AOH20161227150011212/27/16 15:00:31  5-MIN KAOH 272000Z AUTO 23013KT 10SM SCT023 02/M02 A3006 840 72 -400 240/13 RMK AO2 T00221022
04850KAOH AOH20161227150511812/27/16 15:05:31  5-MIN KAOH 272005Z AUTO 24014G20KT 10SM SCT023 02/M02 A3006 840 75 -500 240/14G20 RMK AO2 T00171022
04850KAOH AOH20161227151011212/27/16 15:10:31  5-MIN KAOH 272010Z AUTO 24016KT 10SM FEW023 02/M02 A3007 840 72 -400 250/16 RMK AO2 T00221022
04850KAOH AOH20161227151511812/27/16 15:15:31  5-MIN KAOH 272015Z AUTO 24016G23KT 10SM FEW023 02/M02 A3007 840 72 -400 240/16G23 RMK AO2 T00221022
04850KAOH AOH20161227152011812/27/16 15:20:31  5-MIN KAOH 272020Z AUTO 24016G23KT 10SM FEW023 02/M02 A3007 840 72 -400 240/16G23 RMK AO2 T00221022
04850KAOH AOH20161227152511212/27/16 15:25:31  5-MIN KAOH 272025Z AUTO 23016KT 10SM FEW022 02/M02 A3006 850 72 -400 240/16 RMK AO2 T00221022
04850KAOH AOH20161227153010912/27/16 15:30:31  5-MIN KAOH 272030Z AUTO 24018KT 10SM CLR 02/M03 A3007 840 69 -400 240/18 RMK AO2 T00221028
04850KAOH AOH20161227153510912/27/16 15:35:31  5-MIN KAOH 272035Z AUTO 24015KT 10SM CLR 02/M03 A3007 840 69 -400 250/15 RMK AO2 T00221028
04850KAOH AOH20161227154010912/27/16 15:40:31  5-MIN KAOH 272040Z AUTO 24019KT 10SM CLR 02/M03 A3007 840 69 -400 240/19 RMK AO2 T00221028
04850KAOH AOH20161227154510912/27/16 15:45:31  5-MIN KAOH 272045Z AUTO 24016KT 10SM CLR 02/M03 A3007 840 69 -400 250/16 RMK AO2 T00221028
04850KAOH AOH20161227155012212/27/16 15:50:31  5-MIN KAOH 272050Z AUTO 24015KT 10SM CLR 02/M02 A3007 840 72 -400 250/15 RMK AO2 SLP190 T00221022 58009
04850KAOH AOH20161227155510912/27/16 15:55:31  5-MIN KAOH 272055Z AUTO 25016KT 10SM CLR 02/M03 A3007 840 69 -400 250/16 RMK AO2 T00221028
04850KAOH AOH20161227160010912/27/16 16:00:31  5-MIN KAOH 272100Z AUTO 25015KT 10SM CLR 02/M03 A3007 840 69 -400 250/15 RMK AO2 T00221028
04850KAOH AOH20161227160510912/27/16 16:05:31  5-MIN KAOH 272105Z AUTO 25014KT 10SM CLR 02/M02 A3007 840 72 -400 250/14 RMK AO2 T00221022
04850KAOH AOH20161227161010912/27/16 16:10:31  5-MIN KAOH 272110Z AUTO 26016KT 10SM CLR 02/M02 A3007 840 72 -400 260/16 RMK AO2 T00221022
04850KAOH AOH20161227161510912/27/16 16:15:31  5-MIN KAOH 272115Z AUTO 26015KT 10SM CLR 02/M02 A3007 840 72 -400 260/15 RMK AO2 T00221022
04850KAOH AOH20161227162011212/27/16 16:20:31  5-MIN KAOH 272120Z AUTO 25016KT 10SM FEW026 02/M02 A3007 840 72 -400 260/16 RMK AO2 T00221022
04850KAOH AOH20161227162511812/27/16 16:25:31  5-MIN KAOH 272125Z AUTO 25015G22KT 10SM FEW026 02/M02 A3007 840 72 -400 260/15G22 RMK AO2 T00221022
04850KAOH AOH20161227163011212/27/16 16:30:31  5-MIN KAOH 272130Z AUTO 25014KT 10SM FEW026 02/M02 A3007 840 72 -400 250/14 RMK AO2 T00221022
04850KAOH AOH20161227163511212/27/16 16:35:31  5-MIN KAOH 272135Z AUTO 24015KT 10SM FEW026 02/M02 A3007 840 72 -400 250/15 RMK AO2 T00221022
04850KAOH AOH20161227164011212/27/16 16:40:31  5-MIN KAOH 272140Z AUTO 24012KT 10SM FEW026 02/M02 A3007 840 75 -500 250/12 RMK AO2 T00171022
04850KAOH AOH20161227164511212/27/16 16:45:31  5-MIN KAOH 272145Z AUTO 24014KT 10SM SCT026 02/M02 A3007 840 75 -500 250/14 RMK AO2 T00171022
04850KAOH AOH20161227165011912/27/16 16:50:31  5-MIN KAOH 272150Z AUTO 25014KT 10SM SCT025 02/M02 A3008 830 75 -500 250/14 RMK AO2 SLP194 T00171022
04850KAOH AOH20161227165511812/27/16 16:55:31  5-MIN KAOH 272155Z AUTO 26019G24KT 10SM SCT025 02/M02 A3008 830 75 -500 260/19G24 RMK AO2 T00171022
04850KAOH AOH20161227170011812/27/16 17:00:31  5-MIN KAOH 272200Z AUTO 26015G24KT 10SM FEW025 02/M03 A3008 830 72 -500 260/15G24 RMK AO2 T00171028
04850KAOH AOH20161227170511212/27/16 17:05:31  5-MIN KAOH 272205Z AUTO 26015KT 10SM FEW025 01/M03 A3008 830 75 -600 260/15 RMK AO2 T00111028
04850KAOH AOH20161227171011212/27/16 17:10:31  5-MIN KAOH 272210Z AUTO 26015KT 10SM FEW025 01/M03 A3008 830 75 -600 260/15 RMK AO2 T00111028
04850KAOH AOH20161227171511212/27/16 17:15:31  5-MIN KAOH 272215Z AUTO 26015KT 10SM FEW025 01/M03 A3008 830 75 -600 270/15 RMK AO2 T00111028
04850KAOH AOH20161227172010912/27/16 17:20:31  5-MIN KAOH 272220Z AUTO 26013KT 10SM CLR 01/M03 A3008 830 75 -600 260/13 RMK AO2 T00111028
04850KAOH AOH20161227172511512/27/16 17:25:31  5-MIN KAOH 272225Z AUTO 26015G22KT 10SM CLR 01/M03 A3008 830 75 -600 270/15G22 RMK AO2 T00111028
04850KAOH AOH20161227173010912/27/16 17:30:31  5-MIN KAOH 272230Z AUTO 26013KT 10SM CLR 01/M03 A3008 830 78 -600 270/13 RMK AO2 T00061028
04850KAOH AOH20161227173510912/27/16 17:35:31  5-MIN KAOH 272235Z AUTO 25014KT 10SM CLR 01/M03 A3009 820 78 -600 260/14 RMK AO2 T00061028
04850KAOH AOH20161227174010912/27/16 17:40:31  5-MIN KAOH 272240Z AUTO 26013KT 10SM CLR 01/M03 A3009 820 78 -700 270/13 RMK AO2 T00061028
04850KAOH AOH20161227174510912/27/16 17:45:31  5-MIN KAOH 272245Z AUTO 26012KT 10SM CLR 01/M03 A3009 820 78 -600 270/12 RMK AO2 T00061028
04850KAOH AOH20161227175011612/27/16 17:50:31  5-MIN KAOH 272250Z AUTO 26011KT 10SM CLR 01/M03 A3009 820 78 -600 270/11 RMK AO2 SLP198 T00061028
04850KAOH AOH20161227175510912/27/16 17:55:31  5-MIN KAOH 272255Z AUTO 26010KT 10SM CLR 01/M03 A3009 820 78 -700 270/10 RMK AO2 T00061028
04850KAOH AOH20161227180010912/27/16 18:00:31  5-MIN KAOH 272300Z AUTO 26011KT 10SM CLR 00/M03 A3009 820 81 -700 270/11 RMK AO2 T00001028
04850KAOH AOH20161227180510912/27/16 18:05:31  5-MIN KAOH 272305Z AUTO 26011KT 10SM CLR 00/M03 A3009 820 81 -700 270/11 RMK AO2 T00001028
04850KAOH AOH20161227181010912/27/16 18:10:31  5-MIN KAOH 272310Z AUTO 26010KT 10SM CLR 00/M03 A3009 820 81 -700 270/10 RMK AO2 T00001028
04850KAOH AOH20161227181510912/27/16 18:15:31  5-MIN KAOH 272315Z AUTO 26010KT 10SM CLR 00/M03 A3009 820 81 -700 270/10 RMK AO2 T00001028
04850KAOH AOH20161227182010912/27/16 18:20:31  5-MIN KAOH 272320Z AUTO 26010KT 10SM CLR 00/M03 A3010 820 81 -700 270/10 RMK AO2 T00001028
04850KAOH AOH20161227182510912/27/16 18:25:31  5-MIN KAOH 272325Z AUTO 27011KT 10SM CLR 00/M03 A3010 810 81 -700 270/11 RMK AO2 T00001028
04850KAOH AOH20161227183010912/27/16 18:30:31  5-MIN KAOH 272330Z AUTO 26010KT 10SM CLR 00/M03 A3010 810 81 -700 270/10 RMK AO2 T00001028
04850KAOH AOH20161227183510912/27/16 18:35:31  5-MIN KAOH 272335Z AUTO 26011KT 10SM CLR 00/M03 A3010 810 81 -700 270/11 RMK AO2 T00001028
04850KAOH AOH20161227184011212/27/16 18:40:31  5-MIN KAOH 272340Z AUTO 26010KT 10SM FEW028 00/M03 A3010 810 81 -700 270/10 RMK AO2 T00001028
04850KAOH AOH20161227184511212/27/16 18:45:31  5-MIN KAOH 272345Z AUTO 26010KT 10SM FEW028 00/M03 A3010 810 81 -700 260/10 RMK AO2 T00001028
04850KAOH AOH20161227185013712/27/16 18:50:31  5-MIN KAOH 272350Z AUTO 26013KT 10SM FEW027 00/M03 A3010 810 81 -700 270/13 RMK AO2 SLP203 T00001028 10028 20000 55006
04850KAOH AOH20161227185511212/27/16 18:55:31  5-MIN KAOH 272355Z AUTO 26012KT 10SM FEW027 00/M03 A3010 810 81 -700 270/12 RMK AO2 T00001028
04850KAOH AOH20161227190011212/27/16 19:00:31  5-MIN KAOH 280000Z AUTO 26012KT 10SM FEW027 00/M03 A3010 810 81 -700 270/12 RMK AO2 T00001028
04850KAOH AOH20161227190511212/27/16 19:05:31  5-MIN KAOH 280005Z AUTO 26013KT 10SM SCT027 00/M03 A3010 810 81 -700 270/13 RMK AO2 T00001028
04850KAOH AOH20161227191011212/27/16 19:10:31  5-MIN KAOH 280010Z AUTO 26012KT 10SM BKN027 00/M03 A3010 810 81 -700 270/12 RMK AO2 T00001028
04850KAOH AOH20161227191511212/27/16 19:15:31  5-MIN KAOH 280015Z AUTO 25013KT 10SM BKN027 01/M03 A3010 810 78 -700 260/13 RMK AO2 T00061028
04850KAOH AOH20161227192011212/27/16 19:20:31  5-MIN KAOH 280020Z AUTO 26011KT 10SM BKN027 01/M03 A3010 810 78 -700 260/11 RMK AO2 T00061028
04850KAOH AOH20161227192511212/27/16 19:25:31  5-MIN KAOH 280025Z AUTO 26011KT 10SM OVC027 01/M02 A3010 810 82 -700 270/11 RMK AO2 T00061022
04850KAOH AOH20161227193011212/27/16 19:30:31  5-MIN KAOH 280030Z AUTO 26013KT 10SM OVC026 01/M03 A3011 810 78 -700 260/13 RMK AO2 T00061028
04850KAOH AOH20161227193511212/27/16 19:35:31  5-MIN KAOH 280035Z AUTO 26012KT 10SM OVC026 01/M03 A3011 810 78 -700 260/12 RMK AO2 T00061028
04850KAOH AOH20161227194011212/27/16 19:40:31  5-MIN KAOH 280040Z AUTO 26016KT 10SM OVC026 01/M03 A3011 810 78 -700 260/16 RMK AO2 T00061028
04850KAOH AOH20161227194511212/27/16 19:45:31  5-MIN KAOH 280045Z AUTO 26012KT 10SM OVC025 01/M03 A3011 800 78 -700 270/12 RMK AO2 T00061028
04850KAOH AOH20161227195011912/27/16 19:50:31  5-MIN KAOH 280050Z AUTO 27014KT 10SM OVC025 01/M02 A3011 800 82 -700 270/14 RMK AO2 SLP207 T00061022
04850KAOH AOH20161227195511212/27/16 19:55:31  5-MIN KAOH 280055Z AUTO 27016KT 10SM OVC025 01/M02 A3011 800 82 -700 270/16 RMK AO2 T00061022
04850KAOH AOH20161227200011812/27/16 20:00:31  5-MIN KAOH 280100Z AUTO 27014G22KT 10SM OVC025 01/M02 A3011 800 82 -700 270/14G22 RMK AO2 T00061022
04850KAOH AOH20161227200511212/27/16 20:05:31  5-MIN KAOH 280105Z AUTO 27014KT 10SM OVC025 01/M02 A3012 800 82 -700 280/14 RMK AO2 T00061022
04850KAOH AOH20161227201011212/27/16 20:10:31  5-MIN KAOH 280110Z AUTO 27018KT 10SM OVC025 01/M02 A3012 800 82 -700 280/18 RMK AO2 T00061022
04850KAOH AOH20161227201511212/27/16 20:15:31  5-MIN KAOH 280115Z AUTO 27015KT 10SM OVC024 01/M03 A3012 790 78 -700 270/15 RMK AO2 T00061028
04850KAOH AOH20161227202011212/27/16 20:20:31  5-MIN KAOH 280120Z AUTO 27017KT 10SM OVC024 01/M02 A3012 790 82 -700 280/17 RMK AO2 T00061022
04850KAOH AOH20161227202511812/27/16 20:25:31  5-MIN KAOH 280125Z AUTO 27019G25KT 10SM OVC024 01/M03 A3012 790 78 -700 280/19G25 RMK AO2 T00061028
04850KAOH AOH20161227203011812/27/16 20:30:31  5-MIN KAOH 280130Z AUTO 28017G25KT 10SM OVC022 01/M03 A3012 790 78 -700 280/17G25 RMK AO2 T00061028
04850KAOH AOH20161227203511212/27/16 20:35:31  5-MIN KAOH 280135Z AUTO 28017KT 10SM OVC022 01/M03 A3012 790 78 -700 280/17 RMK AO2 T00061028
04850KAOH AOH20161227204011812/27/16 20:40:31  5-MIN KAOH 280140Z AUTO 28015G22KT 10SM OVC022 01/M03 A3012 790 78 -700 290/15G22 RMK AO2 T00061028
04850KAOH AOH20161227204511212/27/16 20:45:31  5-MIN KAOH 280145Z AUTO 28016KT 10SM OVC020 01/M03 A3012 790 78 -700 290/16 RMK AO2 T00061028
04850KAOH AOH20161227205011912/27/16 20:50:31  5-MIN KAOH 280150Z AUTO 28014KT 10SM OVC020 01/M03 A3012 790 78 -700 290/14 RMK AO2 SLP210 T00061028
04850KAOH AOH20161227205511812/27/16 20:55:31  5-MIN KAOH 280155Z AUTO 27015G20KT 10SM OVC020 01/M03 A3012 790 78 -700 280/15G20 RMK AO2 T00061028
04850KAOH AOH20161227210011812/27/16 21:00:31  5-MIN KAOH 280200Z AUTO 28014G20KT 10SM OVC019 01/M03 A3012 790 78 -700 290/14G20 RMK AO2 T00061028
04850KAOH AOH20161227210511812/27/16 21:05:31  5-MIN KAOH 280205Z AUTO 27017G22KT 10SM OVC019 01/M03 A3012 800 78 -700 280/17G22 RMK AO2 T00061028
04850KAOH AOH20161227211011812/27/16 21:10:31  5-MIN KAOH 280210Z AUTO 28015G22KT 10SM OVC019 01/M03 A3011 800 78 -700 280/15G22 RMK AO2 T00061028
04850KAOH AOH20161227211511812/27/16 21:15:31  5-MIN KAOH 280215Z AUTO 27016G22KT 10SM OVC019 01/M03 A3011 800 78 -700 280/16G22 RMK AO2 T00061028
04850KAOH AOH20161227212011812/27/16 21:20:31  5-MIN KAOH 280220Z AUTO 27015G22KT 10SM OVC019 01/M03 A3012 800 78 -700 280/15G22 RMK AO2 T00061028
04850KAOH AOH20161227212511212/27/16 21:25:31  5-MIN KAOH 280225Z AUTO 28015KT 10SM OVC019 01/M03 A3012 800 78 -700 280/15 RMK AO2 T00061028
04850KAOH AOH20161227213011212/27/16 21:30:31  5-MIN KAOH 280230Z AUTO 27015KT 10SM OVC020 01/M03 A3011 800 78 -700 280/15 RMK AO2 T00061028
04850KAOH AOH20161227213511812/27/16 21:35:31  5-MIN KAOH 280235Z AUTO 27013G23KT 10SM OVC020 01/M03 A3012 790 78 -700 280/13G23 RMK AO2 T00061028
04850KAOH AOH20161227214011212/27/16 21:40:31  5-MIN KAOH 280240Z AUTO 27017KT 10SM OVC020 00/M03 A3012 790 81 -800 280/17 RMK AO2 T00001028
04850KAOH AOH20161227214511812/27/16 21:45:31  5-MIN KAOH 280245Z AUTO 27015G23KT 10SM OVC020 01/M03 A3012 800 78 -700 280/15G23 RMK AO2 T00061028
04850KAOH AOH20161227215013112/27/16 21:50:31  5-MIN KAOH 280250Z AUTO 27016G23KT 10SM OVC020 00/M03 A3012 790 81 -800 280/16G23 RMK AO2 SLP210 T00001028 53011
04850KAOH AOH20161227215511812/27/16 21:55:31  5-MIN KAOH 280255Z AUTO 28018G22KT 10SM OVC020 00/M03 A3012 790 81 -800 280/18G22 RMK AO2 T00001028
04850KAOH AOH20161227220013612/27/16 22:00:31  5-MIN KAOH 280300Z AUTO 28018G27KT 10SM OVC020 00/M03 A3012 790 78 -800 280/18G27 RMK AO2 PK WND 26027/0257 T00001033
04850KAOH AOH20161227220513612/27/16 22:05:31  5-MIN KAOH 280305Z AUTO 29017G27KT 10SM OVC020 00/M03 A3012 790 78 -800 290/17G27 RMK AO2 PK WND 26027/0257 T00001033
04850KAOH AOH20161227221013612/27/16 22:10:31  5-MIN KAOH 280310Z AUTO 29015G24KT 10SM OVC020 00/M03 A3012 790 78 -800 290/15G24 RMK AO2 PK WND 26027/0257 T00001033
04850KAOH AOH20161227221513012/27/16 22:15:31  5-MIN KAOH 280315Z AUTO 29017KT 10SM OVC020 00/M03 A3012 790 78 -800 290/17 RMK AO2 PK WND 26027/0257 T00001033
04850KAOH AOH20161227222013012/27/16 22:20:31  5-MIN KAOH 280320Z AUTO 29012KT 10SM OVC020 00/M03 A3012 790 78 -800 290/12 RMK AO2 PK WND 26027/0257 T00001033
04850KAOH AOH20161227222513012/27/16 22:25:31  5-MIN KAOH 280325Z AUTO 28010KT 10SM OVC019 00/M03 A3013 790 81 -800 290/10 RMK AO2 PK WND 26027/0257 T00001028
04850KAOH AOH20161227223013012/27/16 22:30:31  5-MIN KAOH 280330Z AUTO 28012KT 10SM OVC019 00/M03 A3013 790 81 -800 280/12 RMK AO2 PK WND 26027/0257 T00001028
04850KAOH AOH20161227223513612/27/16 22:35:31  5-MIN KAOH 280335Z AUTO 28012G19KT 10SM OVC018 00/M03 A3013 780 81 -800 290/12G19 RMK AO2 PK WND 26027/0257 T00001028
04850KAOH AOH20161227224013612/27/16 22:40:31  5-MIN KAOH 280340Z AUTO 28012G19KT 10SM OVC018 00/M03 A3013 780 78 -800 290/12G19 RMK AO2 PK WND 26027/0257 T00001033
04850KAOH AOH20161227224513012/27/16 22:45:31  5-MIN KAOH 280345Z AUTO 29015KT 10SM OVC018 00/M03 A3013 780 78 -800 300/15 RMK AO2 PK WND 26027/0257 T00001033
04850KAOH AOH20161227225013712/27/16 22:50:31  5-MIN KAOH 280350Z AUTO 29016KT 10SM OVC018 00/M03 A3014 780 78 -800 300/16 RMK AO2 PK WND 26027/0257 SLP215 T00001033
04850KAOH AOH20161227225511212/27/16 22:55:31  5-MIN KAOH 280355Z AUTO 30013KT 10SM OVC018 00/M03 A3014 770 78 -800 300/13 RMK AO2 T00001033
04850KAOH AOH20161227230011812/27/16 23:00:31  5-MIN KAOH 280400Z AUTO 29018G23KT 10SM OVC018 00/M03 A3015 770 78 -800 290/18G23 RMK AO2 T00001033
04850KAOH AOH20161227230511812/27/16 23:05:31  5-MIN KAOH 280405Z AUTO 28018G25KT 10SM OVC019 00/M04 A3015 770 75 -800 290/18G25 RMK AO2 T00001039
04850KAOH AOH20161227231011812/27/16 23:10:31  5-MIN KAOH 280410Z AUTO 28019G25KT 10SM OVC019 00/M03 A3015 770 78 -800 290/19G25 RMK AO2 T00001033
04850KAOH AOH20161227231511812/27/16 23:15:31  5-MIN KAOH 280415Z AUTO 28016G23KT 10SM OVC019 00/M03 A3015 770 78 -800 290/16G23 RMK AO2 T00001033
04850KAOH AOH20161227232011812/27/16 23:20:31  5-MIN KAOH 280420Z AUTO 27016G22KT 10SM OVC020 00/M03 A3015 770 78 -800 280/16G22 RMK AO2 T00001033
04850KAOH AOH20161227232511912/27/16 23:25:31  5-MIN KAOH 280425Z AUTO 27018G24KT 10SM OVC020 M01/M03 A3014 770 81 -900 280/18G24 RMK AO2 T10061033
04850KAOH AOH20161227233011912/27/16 23:30:31  5-MIN KAOH 280430Z AUTO 28014G24KT 10SM OVC019 M01/M03 A3014 770 81 -800 280/14G24 RMK AO2 T10061033
04850KAOH AOH20161227233511312/27/16 23:35:31  5-MIN KAOH 280435Z AUTO 28013KT 10SM OVC019 M01/M03 A3014 780 81 -800 280/13 RMK AO2 T10061033
04850KAOH AOH20161227234011312/27/16 23:40:31  5-MIN KAOH 280440Z AUTO 28012KT 10SM OVC019 M01/M03 A3014 780 81 -800 280/12 RMK AO2 T10061033
04850KAOH AOH20161227234511312/27/16 23:45:31  5-MIN KAOH 280445Z AUTO 28014KT 10SM OVC019 M01/M03 A3014 770 81 -900 290/14 RMK AO2 T10061033
04850KAOH AOH20161227235013012/27/16 23:50:31  5-MIN KAOH 280450Z AUTO 29016KT 10SM OVC019 M01/M04 A3015 770 78 -900 290/16 RMK AO2 SLP219 T10061039 400721017
04850KAOH AOH20161227235511312/27/16 23:55:31  5-MIN KAOH 280455Z AUTO 29015KT 10SM OVC019 M01/M04 A3015 760 78 -900 300/15 RMK AO2 T10061039
04850KAOH AOH20161228000011312/28/16 00:00:31  5-MIN KAOH 280500Z AUTO 29015KT 10SM OVC019 M01/M04 A3015 770 78 -900 300/15 RMK AO2 T10061039
04850KAOH AOH20161228000511312/28/16 00:05:31  5-MIN KAOH 280505Z AUTO 29014KT 10SM OVC019 M01/M04 A3015 770 78 -900 300/14 RMK AO2 T10061039
04850KAOH AOH20161228001011312/28/16 00:10:31  5-MIN KAOH 280510Z AUTO 28014KT 10SM OVC019 M01/M04 A3015 770 78 -900 280/14 RMK AO2 T10061039
04850KAOH AOH20161228001511312/28/16 00:15:31  5-MIN KAOH 280515Z AUTO 27012KT 10SM OVC019 M01/M04 A3015 770 78 -900 280/12 RMK AO2 T10061039
04850KAOH AOH20161228002011312/28/16 00:20:31  5-MIN KAOH 280520Z AUTO 27011KT 10SM OVC019 M01/M04 A3015 770 78 -900 280/11 RMK AO2 T10061039
04850KAOH AOH20161228002512612/28/16 00:25:31  5-MIN KAOH 280525Z AUTO 28015G23KT 10SM BKN019 OVC024 M01/M04 A3015 770 78 -900 290/15G23 RMK AO2 T10061039
04850KAOH AOH20161228003012612/28/16 00:30:31  5-MIN KAOH 280530Z AUTO 29012G23KT 10SM BKN019 OVC024 M01/M04 A3015 770 78 -900 290/12G23 RMK AO2 T10061039
04850KAOH AOH20161228003511312/28/16 00:35:31  5-MIN KAOH 280535Z AUTO 29012KT 10SM OVC019 M01/M04 A3015 770 78 -900 290/12 RMK AO2 T10061039
04850KAOH AOH20161228004011312/28/16 00:40:31  5-MIN KAOH 280540Z AUTO 29012KT 10SM OVC019 M01/M04 A3015 770 81 -900 300/12 RMK AO2 T10111039
04850KAOH AOH20161228004511312/28/16 00:45:31  5-MIN KAOH 280545Z AUTO 29011KT 10SM OVC017 M01/M04 A3015 770 81 -900 300/11 RMK AO2 T10111039
04850KAOH AOH20161228005013812/28/16 00:50:31  5-MIN KAOH 280550Z AUTO 30011KT 10SM OVC017 M01/M04 A3015 770 81 -900 300/11 RMK AO2 SLP220 T10111039 10006 21011 50006
04850KAOH AOH20161228005511312/28/16 00:55:31  5-MIN KAOH 280555Z AUTO 30015KT 10SM OVC017 M01/M04 A3015 770 81 -900 300/15 RMK AO2 T10111039
04850KAOH AOH20161228010011312/28/16 01:00:31  5-MIN KAOH 280600Z AUTO 29014KT 10SM OVC017 M01/M04 A3015 760 81 -900 300/14 RMK AO2 T10111039
04850KAOH AOH20161228010511312/28/16 01:05:31  5-MIN KAOH 280605Z AUTO 29011KT 10SM OVC017 M01/M04 A3016 760 78 -900 290/11 RMK AO2 T10111044
04850KAOH AOH20161228011011312/28/16 01:10:31  5-MIN KAOH 280610Z AUTO 30011KT 10SM BKN019 M01/M04 A3016 760 78 -900 300/11 RMK AO2 T10111044
04850KAOH AOH20161228011511312/28/16 01:15:31  5-MIN KAOH 280615Z AUTO 29013KT 10SM BKN019 M01/M04 A3016 760 78 -900 300/13 RMK AO2 T10111044
04850KAOH AOH20161228012012112/28/16 01:20:31  5-MIN KAOH 280620Z AUTO 29013KT 10SM SCT018 BKN023 M02/M04 A3015 760 81 -1000 300/13 RMK AO2 T10171044
04850KAOH AOH20161228012511412/28/16 01:25:31  5-MIN KAOH 280625Z AUTO 29013KT 10SM SCT020 M02/M04 A3015 770 81 -1000 290/13 RMK AO2 T10171044
04850KAOH AOH20161228013011412/28/16 01:30:31  5-MIN KAOH 280630Z AUTO 29013KT 10SM FEW020 M02/M04 A3015 770 81 -1000 300/13 RMK AO2 T10171044
04850KAOH AOH20161228013511412/28/16 01:35:31  5-MIN KAOH 280635Z AUTO 29014KT 10SM FEW022 M02/M04 A3015 770 81 -1000 300/14 RMK AO2 T10171044
04850KAOH AOH20161228014011112/28/16 01:40:31  5-MIN KAOH 280640Z AUTO 29009KT 10SM CLR M02/M04 A3015 770 81 -1000 290/09 RMK AO2 T10171044
04850KAOH AOH20161228014511112/28/16 01:45:31  5-MIN KAOH 280645Z AUTO 29009KT 10SM CLR M02/M04 A3015 760 81 -1000 290/09 RMK AO2 T10171044
04850KAOH AOH20161228015011812/28/16 01:50:31  5-MIN KAOH 280650Z AUTO 28010KT 10SM CLR M02/M04 A3015 760 85 -1100 290/10 RMK AO2 SLP220 T10221044
04850KAOH AOH20161228015511112/28/16 01:55:31  5-MIN KAOH 280655Z AUTO 28009KT 10SM CLR M02/M04 A3016 760 85 -1100 290/09 RMK AO2 T10221044
04850KAOH AOH20161228020011112/28/16 02:00:31  5-MIN KAOH 280700Z AUTO 28011KT 10SM CLR M02/M04 A3016 750 85 -1100 280/11 RMK AO2 T10221044
04850KAOH AOH20161228020511112/28/16 02:05:31  5-MIN KAOH 280705Z AUTO 29011KT 10SM CLR M02/M04 A3016 750 85 -1100 290/11 RMK AO2 T10221044
04850KAOH AOH20161228021011112/28/16 02:10:31  5-MIN KAOH 280710Z AUTO 29010KT 10SM CLR M02/M04 A3017 750 85 -1100 290/10 RMK AO2 T10221044
04850KAOH AOH20161228021511112/28/16 02:15:31  5-MIN KAOH 280715Z AUTO 27011KT 10SM CLR M02/M04 A3017 750 85 -1100 280/11 RMK AO2 T10221044
04850KAOH AOH20161228022011112/28/16 02:20:31  5-MIN KAOH 280720Z AUTO 28009KT 10SM CLR M02/M04 A3017 750 85 -1100 290/09 RMK AO2 T10221044
04850KAOH AOH20161228022511112/28/16 02:25:31  5-MIN KAOH 280725Z AUTO 28009KT 10SM CLR M02/M04 A3017 750 85 -1100 290/09 RMK AO2 T10221044
04850KAOH AOH20161228023011112/28/16 02:30:31  5-MIN KAOH 280730Z AUTO 28009KT 10SM CLR M02/M04 A3017 750 85 -1100 280/09 RMK AO2 T10221044
04850KAOH AOH20161228023511112/28/16 02:35:31  5-MIN KAOH 280735Z AUTO 28010KT 10SM CLR M02/M04 A3017 750 85 -1100 290/10 RMK AO2 T10221044
04850KAOH AOH20161228024011112/28/16 02:40:31  5-MIN KAOH 280740Z AUTO 28007KT 10SM CLR M02/M04 A3017 750 85 -1100 290/07 RMK AO2 T10221044
04850KAOH AOH20161228024511112/28/16 02:45:31  5-MIN KAOH 280745Z AUTO 28006KT 10SM CLR M03/M04 A3017 740 88 -1200 290/06 RMK AO2 T10281044
04850KAOH AOH20161228025011812/28/16 02:50:31  5-MIN KAOH 280750Z AUTO 28008KT 10SM CLR M02/M04 A3018 740 85 -1100 280/08 RMK AO2 SLP229 T10221044
04850KAOH AOH20161228025511112/28/16 02:55:31  5-MIN KAOH 280755Z AUTO 28007KT 10SM CLR M03/M04 A3018 740 88 -1200 280/07 RMK AO2 T10281044
04850KAOH AOH20161228030011112/28/16 03:00:31  5-MIN KAOH 280800Z AUTO 28007KT 10SM CLR M03/M04 A3018 740 88 -1200 290/07 RMK AO2 T10281044
04850KAOH AOH20161228030511112/28/16 03:05:31  5-MIN KAOH 280805Z AUTO 28005KT 10SM CLR M03/M04 A3018 730 88 -1200 290/05 RMK AO2 T10281044
04850KAOH AOH20161228031011412/28/16 03:10:31  5-MIN KAOH 280810Z AUTO 28005KT 10SM FEW021 M03/M04 A3019 730 88 -1200 280/05 RMK AO2 T10281044
04850KAOH AOH20161228031511112/28/16 03:15:31  5-MIN KAOH 280815Z AUTO 27006KT 10SM CLR M03/M05 A3019 730 88 -1300 280/06 RMK AO2 T10331050
04850KAOH AOH20161228032011112/28/16 03:20:31  5-MIN KAOH 280820Z AUTO 27007KT 10SM CLR M03/M05 A3019 730 88 -1300 270/07 RMK AO2 T10331050
04850KAOH AOH20161228032511112/28/16 03:25:31  5-MIN KAOH 280825Z AUTO 28006KT 10SM CLR M03/M05 A3019 730 88 -1300 280/06 RMK AO2 T10331050
04850KAOH AOH20161228033011112/28/16 03:30:31  5-MIN KAOH 280830Z AUTO 28004KT 10SM CLR M03/M04 A3019 730 92 -1300 290/04 RMK AO2 T10331044
04850KAOH AOH20161228033511112/28/16 03:35:31  5-MIN KAOH 280835Z AUTO 29005KT 10SM CLR M03/M05 A3019 730 88 -1300 290/05 RMK AO2 T10331050
04850KAOH AOH20161228034011112/28/16 03:40:31  5-MIN KAOH 280840Z AUTO 29005KT 10SM CLR M03/M05 A3019 730 88 -1300 290/05 RMK AO2 T10331050
04850KAOH AOH20161228034511112/28/16 03:45:31  5-MIN KAOH 280845Z AUTO 28006KT 10SM CLR M03/M05 A3019 720 85 -1200 280/06 RMK AO2 T10281050
04850KAOH AOH20161228035012412/28/16 03:50:31  5-MIN KAOH 280850Z AUTO 28006KT 10SM CLR M03/M05 A3019 730 85 -1200 290/06 RMK AO2 SLP235 T10281050 51011
04850KAOH AOH20161228035511112/28/16 03:55:31  5-MIN KAOH 280855Z AUTO 28006KT 10SM CLR M03/M05 A3019 730 88 -1300 280/06 RMK AO2 T10331050
04850KAOH AOH20161228040011112/28/16 04:00:31  5-MIN KAOH 280900Z AUTO 28006KT 10SM CLR M03/M05 A3019 730 88 -1300 280/06 RMK AO2 T10331050
04850KAOH AOH20161228040511112/28/16 04:05:31  5-MIN KAOH 280905Z AUTO 27005KT 10SM CLR M03/M05 A3019 730 88 -1300 280/05 RMK AO2 T10331050
04850KAOH AOH20161228041011112/28/16 04:10:31  5-MIN KAOH 280910Z AUTO 28004KT 10SM CLR M04/M05 A3018 740 92 -1300 280/04 RMK AO2 T10391050
04850KAOH AOH20161228041511112/28/16 04:15:31  5-MIN KAOH 280915Z AUTO 27003KT 10SM CLR M04/M05 A3018 740 92 -1300 270/03 RMK AO2 T10391050
04850KAOH AOH20161228042011112/28/16 04:20:31  5-MIN KAOH 280920Z AUTO 26003KT 10SM CLR M04/M05 A3018 730 92 -1300 270/03 RMK AO2 T10391050
04850KAOH AOH20161228042511112/28/16 04:25:31  5-MIN KAOH 280925Z AUTO 25003KT 10SM CLR M03/M05 A3018 730 88 -1300 250/03 RMK AO2 T10331050
04850KAOH AOH20161228043011112/28/16 04:30:31  5-MIN KAOH 280930Z AUTO 24004KT 10SM CLR M04/M05 A3019 730 92 -1300 250/04 RMK AO2 T10391050
04850KAOH AOH20161228043511112/28/16 04:35:31  5-MIN KAOH 280935Z AUTO 24004KT 10SM CLR M04/M06 A3019 730 88 -1300 250/04 RMK AO2 T10391056
04850KAOH AOH20161228044011112/28/16 04:40:31  5-MIN KAOH 280940Z AUTO 24005KT 10SM CLR M04/M06 A3019 730 92 -1400 250/05 RMK AO2 T10441056
04850KAOH AOH20161228044511112/28/16 04:45:31  5-MIN KAOH 280945Z AUTO 25005KT 10SM CLR M04/M06 A3019 730 88 -1300 250/05 RMK AO2 T10391056
04850KAOH AOH20161228045011812/28/16 04:50:31  5-MIN KAOH 280950Z AUTO 24005KT 10SM CLR M04/M05 A3019 730 92 -1300 240/05 RMK AO2 SLP235 T10391050
04850KAOH AOH20161228045511112/28/16 04:55:31  5-MIN KAOH 280955Z AUTO 24005KT 10SM CLR M04/M06 A3019 730 88 -1300 250/05 RMK AO2 T10391056
04850KAOH AOH20161228050011112/28/16 05:00:31  5-MIN KAOH 281000Z AUTO 25004KT 10SM CLR M04/M05 A3019 730 92 -1300 250/04 RMK AO2 T10391050
04850KAOH AOH20161228050511112/28/16 05:05:31  5-MIN KAOH 281005Z AUTO 24003KT 10SM CLR M04/M05 A3019 730 92 -1300 240/03 RMK AO2 T10391050
04850KAOH AOH20161228051011112/28/16 05:10:31  5-MIN KAOH 281010Z AUTO 23003KT 10SM CLR M04/M05 A3019 730 92 -1300 240/03 RMK AO2 T10391050
04850KAOH AOH20161228051511112/28/16 05:15:31  5-MIN KAOH 281015Z AUTO 23003KT 10SM CLR M04/M05 A3018 740 92 -1300 230/03 RMK AO2 T10391050
04850KAOH AOH20161228052011112/28/16 05:20:31  5-MIN KAOH 281020Z AUTO 23003KT 10SM CLR M04/M05 A3018 740 92 -1300 230/03 RMK AO2 T10391050
04850KAOH AOH20161228052511112/28/16 05:25:31  5-MIN KAOH 281025Z AUTO 21004KT 10SM CLR M04/M05 A3018 740 92 -1300 220/04 RMK AO2 T10391050
04850KAOH AOH20161228053011112/28/16 05:30:31  5-MIN KAOH 281030Z AUTO 19003KT 10SM CLR M04/M05 A3018 740 92 -1300 200/03 RMK AO2 T10391050
04850KAOH AOH20161228053511112/28/16 05:35:31  5-MIN KAOH 281035Z AUTO 19004KT 10SM CLR M04/M05 A3018 730 92 -1300 200/04 RMK AO2 T10391050
04850KAOH AOH20161228054011112/28/16 05:40:31  5-MIN KAOH 281040Z AUTO 18005KT 10SM CLR M04/M06 A3018 730 92 -1400 190/05 RMK AO2 T10441056
04850KAOH AOH20161228054511112/28/16 05:45:31  5-MIN KAOH 281045Z AUTO 18004KT 10SM CLR M04/M06 A3019 730 92 -1400 190/04 RMK AO2 T10441056
04850KAOH AOH20161228055011712/28/16 05:50:31  5-MIN KAOH 281050Z AUTO 17004KT 9SM CLR M04/M06 A3018 740 92 -1400 180/04 RMK AO2 SLP231 T10441056
04850KAOH AOH20161228055511012/28/16 05:55:31  5-MIN KAOH 281055Z AUTO 17004KT 8SM CLR M05/M06 A3018 740 96 -1500 180/04 RMK AO2 T10501056
04850KAOH AOH20161228060011012/28/16 06:00:31  5-MIN KAOH 281100Z AUTO 18003KT 8SM CLR M05/M06 A3018 740 96 -1500 180/03 RMK AO2 T10501056
04850KAOH AOH20161228060511012/28/16 06:05:31  5-MIN KAOH 281105Z AUTO 18003KT 8SM CLR M05/M06 A3018 740 96 -1500 190/03 RMK AO2 T10501056
04850KAOH AOH20161228061011012/28/16 06:10:31  5-MIN KAOH 281110Z AUTO 18003KT 8SM CLR M04/M05 A3018 730 96 -1400 190/03 RMK AO2 T10441050
04850KAOH AOH20161228061511012/28/16 06:15:31  5-MIN KAOH 281115Z AUTO 19003KT 8SM CLR M04/M05 A3019 730 96 -1400 200/03 RMK AO2 T10441050
04850KAOH AOH20161228062011012/28/16 06:20:31  5-MIN KAOH 281120Z AUTO 19003KT 8SM CLR M04/M05 A3019 730 96 -1400 200/03 RMK AO2 T10441050
04850KAOH AOH20161228062511012/28/16 06:25:31  5-MIN KAOH 281125Z AUTO 19004KT 8SM CLR M04/M05 A3019 730 96 -1400 200/04 RMK AO2 T10441050
04850KAOH AOH20161228063011012/28/16 06:30:31  5-MIN KAOH 281130Z AUTO 19004KT 8SM CLR M04/M06 A3019 730 92 -1400 200/04 RMK AO2 T10441056
04850KAOH AOH20161228063511012/28/16 06:35:31  5-MIN KAOH 281135Z AUTO 19005KT 9SM CLR M04/M05 A3019 730 96 -1400 200/05 RMK AO2 T10441050
04850KAOH AOH20161228064011012/28/16 06:40:31  5-MIN KAOH 281140Z AUTO 19005KT 9SM CLR M04/M05 A3019 730 96 -1400 190/05 RMK AO2 T10441050
04850KAOH AOH20161228064511012/28/16 06:45:31  5-MIN KAOH 281145Z AUTO 19005KT 9SM CLR M04/M05 A3019 730 96 -1400 190/05 RMK AO2 T10441050
04850KAOH AOH20161228065013512/28/16 06:50:31  5-MIN KAOH 281150Z AUTO 20005KT 9SM CLR M04/M05 A3019 730 96 -1400 200/05 RMK AO2 SLP234 T10441050 11011 21050 53014
04850KAOH AOH20161228065511012/28/16 06:55:31  5-MIN KAOH 281155Z AUTO 20005KT 9SM CLR M04/M05 A3019 730 96 -1400 200/05 RMK AO2 T10441050
04850KAOH AOH20161228070011012/28/16 07:00:31  5-MIN KAOH 281200Z AUTO 20005KT 9SM CLR M04/M05 A3019 730 96 -1400 200/05 RMK AO2 T10441050
04850KAOH AOH20161228070511612/28/16 07:05:31  5-MIN KAOH 281205Z AUTO 19005KT 9SM CLR M04/M05 A3019 730 96 -1400 200/05 RMK AO2 I1000 T10441050
04850KAOH AOH20161228071011612/28/16 07:10:31  5-MIN KAOH 281210Z AUTO 20005KT 9SM CLR M04/M05 A3019 730 96 -1400 200/05 RMK AO2 I1000 T10441050
04850KAOH AOH20161228071511612/28/16 07:15:31  5-MIN KAOH 281215Z AUTO 20005KT 9SM CLR M04/M05 A3019 730 96 -1400 200/05 RMK AO2 I1000 T10441050
04850KAOH AOH20161228072011612/28/16 07:20:31  5-MIN KAOH 281220Z AUTO 20005KT 9SM CLR M04/M05 A3018 730 96 -1400 200/05 RMK AO2 I1000 T10441050
04850KAOH AOH20161228072511612/28/16 07:25:31  5-MIN KAOH 281225Z AUTO 19005KT 9SM CLR M04/M05 A3018 730 96 -1400 200/05 RMK AO2 I1000 T10441050
04850KAOH AOH20161228073011612/28/16 07:30:31  5-MIN KAOH 281230Z AUTO 19005KT 9SM CLR M04/M05 A3018 740 96 -1400 190/05 RMK AO2 I1000 T10441050
04850KAOH AOH20161228073511612/28/16 07:35:31  5-MIN KAOH 281235Z AUTO 19005KT 9SM CLR M04/M05 A3018 740 96 -1400 200/05 RMK AO2 I1000 T10441050
04850KAOH AOH20161228074011612/28/16 07:40:31  5-MIN KAOH 281240Z AUTO 19005KT 9SM CLR M04/M05 A3018 740 96 -1400 200/05 RMK AO2 I1000 T10441050
04850KAOH AOH20161228074511612/28/16 07:45:31  5-MIN KAOH 281245Z AUTO 19006KT 9SM CLR M04/M05 A3018 740 96 -1400 200/06 RMK AO2 I1000 T10441050
04850KAOH AOH20161228075012312/28/16 07:50:31  5-MIN KAOH 281250Z AUTO 19006KT 9SM CLR M04/M05 A3018 740 96 -1400 200/06 RMK AO2 SLP231 I1000 T10441050
04850KAOH AOH20161228075511012/28/16 07:55:31  5-MIN KAOH 281255Z AUTO 19005KT 8SM CLR M04/M05 A3018 740 96 -1400 200/05 RMK AO2 T10441050
04850KAOH AOH20161228080011012/28/16 08:00:31  5-MIN KAOH 281300Z AUTO 19006KT 7SM CLR M04/M05 A3018 740 96 -1400 190/06 RMK AO2 T10441050
04850KAOH AOH20161228080511012/28/16 08:05:31  5-MIN KAOH 281305Z AUTO 19005KT 7SM CLR M04/M05 A3018 740 96 -1400 190/05 RMK AO2 T10441050
04850KAOH AOH20161228081011012/28/16 08:10:31  5-MIN KAOH 281310Z AUTO 18006KT 7SM CLR M04/M05 A3017 750 96 -1400 190/06 RMK AO2 T10441050
04850KAOH AOH20161228081511012/28/16 08:15:31  5-MIN KAOH 281315Z AUTO 18006KT 7SM CLR M04/M05 A3017 750 96 -1400 190/06 RMK AO2 T10441050
04850KAOH AOH20161228082011012/28/16 08:20:31  5-MIN KAOH 281320Z AUTO 18006KT 7SM CLR M04/M05 A3016 750 96 -1400 180/06 RMK AO2 T10441050
04850KAOH AOH20161228082511012/28/16 08:25:31  5-MIN KAOH 281325Z AUTO 17007KT 7SM CLR M04/M05 A3016 750 96 -1400 180/07 RMK AO2 T10441050
04850KAOH AOH20161228083011012/28/16 08:30:31  5-MIN KAOH 281330Z AUTO 17006KT 7SM CLR M04/M05 A3016 760 96 -1400 180/06 RMK AO2 T10441050
04850KAOH AOH20161228083511012/28/16 08:35:31  5-MIN KAOH 281335Z AUTO 17006KT 8SM CLR M04/M04 A3016 760 96 -1300 180/06 RMK AO2 T10391044
04850KAOH AOH20161228084011012/28/16 08:40:31  5-MIN KAOH 281340Z AUTO 18006KT 8SM CLR M04/M04 A3016 760 96 -1300 180/06 RMK AO2 T10391044
04850KAOH AOH20161228084511012/28/16 08:45:31  5-MIN KAOH 281345Z AUTO 18006KT 8SM CLR M04/M04 A3016 760 96 -1300 190/06 RMK AO2 T10391044
04850KAOH AOH20161228085011712/28/16 08:50:31  5-MIN KAOH 281350Z AUTO 18006KT 8SM CLR M04/M04 A3016 760 96 -1300 190/06 RMK AO2 SLP224 T10391044
04850KAOH AOH20161228085511012/28/16 08:55:31  5-MIN KAOH 281355Z AUTO 17006KT 9SM CLR M03/M04 A3016 760 96 -1200 180/06 RMK AO2 T10331039
04850KAOH AOH20161228090011012/28/16 09:00:31  5-MIN KAOH 281400Z AUTO 18006KT 9SM CLR M03/M04 A3016 760 96 -1200 180/06 RMK AO2 T10331039
04850KAOH AOH20161228090511112/28/16 09:05:31  5-MIN KAOH 281405Z AUTO 18007KT 10SM CLR M03/M04 A3016 760 96 -1200 190/07 RMK AO2 T10331039
04850KAOH AOH20161228091011112/28/16 09:10:31  5-MIN KAOH 281410Z AUTO 18007KT 10SM CLR M03/M04 A3016 760 92 -1100 180/07 RMK AO2 T10281039
04850KAOH AOH20161228091511112/28/16 09:15:31  5-MIN KAOH 281415Z AUTO 18007KT 10SM CLR M03/M04 A3016 760 92 -1200 190/07 RMK AO2 T10281039
04850KAOH AOH20161228092011112/28/16 09:20:31  5-MIN KAOH 281420Z AUTO 18005KT 10SM CLR M03/M03 A3016 760 96 -1200 190/05 RMK AO2 T10281033
04850KAOH AOH20161228092511112/28/16 09:25:31  5-MIN KAOH 281425Z AUTO 19006KT 10SM CLR M03/M03 A3016 760 96 -1200 190/06 RMK AO2 T10281033
04850KAOH AOH20161228093011112/28/16 09:30:31  5-MIN KAOH 281430Z AUTO 19006KT 10SM CLR M02/M03 A3016 760 92 -1100 190/06 RMK AO2 T10221033
04850KAOH AOH20161228093511112/28/16 09:35:31  5-MIN KAOH 281435Z AUTO 19006KT 10SM CLR M02/M03 A3017 750 92 -1100 200/06 RMK AO2 T10221033
04850KAOH AOH20161228094011112/28/16 09:40:31  5-MIN KAOH 281440Z AUTO 19006KT 10SM CLR M02/M03 A3016 750 96 -1100 190/06 RMK AO2 T10221028
04850KAOH AOH20161228094511112/28/16 09:45:31  5-MIN KAOH 281445Z AUTO 20006KT 10SM CLR M02/M03 A3017 750 92 -1000 210/06 RMK AO2 T10171028
04850KAOH AOH20161228095013012/28/16 09:50:31  5-MIN KAOH 281450Z AUTO 20008KT 10SM CLR M02/M03 A3017 750 92 -1000 210/08 RMK AO2 SLP227 I3/// T10171028 55003
04850KAOH AOH20161228095511112/28/16 09:55:31  5-MIN KAOH 281455Z AUTO 21007KT 10SM CLR M02/M03 A3017 750 92 -1000 210/07 RMK AO2 T10171028
04850KAOH AOH20161228100011112/28/16 10:00:31  5-MIN KAOH 281500Z AUTO 20008KT 10SM CLR M02/M03 A3017 750 92 -1000 210/08 RMK AO2 T10171028
04850KAOH AOH20161228100511112/28/16 10:05:31  5-MIN KAOH 281505Z AUTO 21006KT 10SM CLR M02/M03 A3017 750 92 -1000 220/06 RMK AO2 T10171028
04850KAOH AOH20161228101011112/28/16 10:10:31  5-MIN KAOH 281510Z AUTO 21006KT 10SM CLR M01/M03 A3017 740 88 -1000 220/06 RMK AO2 T10111028
04850KAOH AOH20161228101511112/28/16 10:15:31  5-MIN KAOH 281515Z AUTO 21007KT 10SM CLR M01/M03 A3018 740 88 -1000 220/07 RMK AO2 T10111028
04850KAOH AOH20161228102011012/28/16 10:20:31  5-MIN KAOH 281520Z AUTO 20008KT 10SM CLR M01/M03 A3017 740 85 -900 210/08 RMK AO2 T10061028
04850KAOH AOH20161228102511112/28/16 10:25:31  5-MIN KAOH 281525Z AUTO 21009KT 10SM CLR M01/M03 A3017 740 88 -1000 220/09 RMK AO2 T10111028
04850KAOH AOH20161228103011012/28/16 10:30:31  5-MIN KAOH 281530Z AUTO 20010KT 10SM CLR M01/M03 A3017 740 85 -900 210/10 RMK AO2 T10061028
04850KAOH AOH20161228103511012/28/16 10:35:31  5-MIN KAOH 281535Z AUTO 20009KT 10SM CLR M01/M03 A3017 750 85 -900 210/09 RMK AO2 T10061028
04850KAOH AOH20161228104011012/28/16 10:40:31  5-MIN KAOH 281540Z AUTO 20009KT 10SM CLR M01/M03 A3017 750 85 -900 210/09 RMK AO2 T10061028
04850KAOH AOH20161228104511012/28/16 10:45:31  5-MIN KAOH 281545Z AUTO 21009KT 10SM CLR M01/M03 A3017 750 81 -900 220/09 RMK AO2 T10061033
04850KAOH AOH20161228105011612/28/16 10:50:31  5-MIN KAOH 281550Z AUTO 20009KT 10SM CLR 00/M03 A3017 750 78 -800 210/09 RMK AO2 SLP225 T00001033
04850KAOH AOH20161228105510912/28/16 10:55:31  5-MIN KAOH 281555Z AUTO 20007KT 10SM CLR 00/M03 A3017 750 81 -800 210/07 RMK AO2 T00001028
04850KAOH AOH20161228110010912/28/16 11:00:31  5-MIN KAOH 281600Z AUTO 18009KT 10SM CLR 01/M03 A3016 750 78 -700 190/09 RMK AO2 T00061028
04850KAOH AOH20161228110510912/28/16 11:05:31  5-MIN KAOH 281605Z AUTO 18007KT 10SM CLR 01/M03 A3015 760 78 -700 190/07 RMK AO2 T00061028
04850KAOH AOH20161228111010912/28/16 11:10:31  5-MIN KAOH 281610Z AUTO 19009KT 10SM CLR 01/M03 A3015 770 78 -700 190/09 RMK AO2 T00061028
04850KAOH AOH20161228111511612/28/16 11:15:31  5-MIN KAOH 281615Z AUTO 19010KT 10SM CLR 01/M03 A3014 770 75 -700 190/10 RMK AO2 PRESFR T00061033
04850KAOH AOH20161228112010912/28/16 11:20:31  5-MIN KAOH 281620Z AUTO 18010KT 10SM CLR 01/M03 A3014 770 75 -700 180/10 RMK AO2 T00061033
04850KAOH AOH20161228112510912/28/16 11:25:31  5-MIN KAOH 281625Z AUTO 19011KT 10SM CLR 01/M03 A3014 780 75 -600 190/11 RMK AO2 T00111028
04850KAOH AOH20161228113010912/28/16 11:30:31  5-MIN KAOH 281630Z AUTO 18010KT 10SM CLR 01/M03 A3013 780 75 -600 190/10 RMK AO2 T00111028
04850KAOH AOH20161228113510912/28/16 11:35:31  5-MIN KAOH 281635Z AUTO 17011KT 10SM CLR 01/M03 A3013 780 75 -600 180/11 RMK AO2 T00111028
04850KAOH AOH20161228114010912/28/16 11:40:31  5-MIN KAOH 281640Z AUTO 19009KT 10SM CLR 01/M03 A3013 790 75 -600 200/09 RMK AO2 T00111028
04850KAOH AOH20161228114510912/28/16 11:45:31  5-MIN KAOH 281645Z AUTO 19008KT 10SM CLR 01/M03 A3013 790 72 -600 190/08 RMK AO2 T00111033
04850KAOH AOH20161228115011612/28/16 11:50:31  5-MIN KAOH 281650Z AUTO 19009KT 10SM CLR 01/M03 A3012 790 72 -600 200/09 RMK AO2 SLP211 T00111033
04850KAOH AOH20161228115510912/28/16 11:55:31  5-MIN KAOH 281655Z AUTO 18009KT 10SM CLR 02/M03 A3012 790 72 -500 190/09 RMK AO2 T00171028
04850KAOH AOH20161228120010912/28/16 12:00:31  5-MIN KAOH 281700Z AUTO 19011KT 10SM CLR 02/M03 A3012 800 72 -500 200/11 RMK AO2 T00171028
04850KAOH AOH20161228120510912/28/16 12:05:31  5-MIN KAOH 281705Z AUTO 19009KT 10SM CLR 02/M03 A3012 800 69 -500 200/09 RMK AO2 T00171033
04850KAOH AOH20161228121010912/28/16 12:10:31  5-MIN KAOH 281710Z AUTO 19009KT 10SM CLR 02/M03 A3011 800 69 -500 200/09 RMK AO2 T00171033
04850KAOH AOH20161228121510912/28/16 12:15:31  5-MIN KAOH 281715Z AUTO 18010KT 10SM CLR 02/M03 A3011 800 67 -500 190/10 RMK AO2 T00221033
04850KAOH AOH20161228122010912/28/16 12:20:31  5-MIN KAOH 281720Z AUTO 20008KT 10SM CLR 02/M03 A3011 810 67 -500 200/08 RMK AO2 T00221033
04850KAOH AOH20161228122510912/28/16 12:25:31  5-MIN KAOH 281725Z AUTO 18009KT 10SM CLR 02/M03 A3010 810 69 -500 180/09 RMK AO2 T00221028
04850KAOH AOH20161228123010912/28/16 12:30:31  5-MIN KAOH 281730Z AUTO 19010KT 10SM CLR 03/M03 A3010 810 67 -400 200/10 RMK AO2 T00281028
04850KAOH AOH20161228123510912/28/16 12:35:31  5-MIN KAOH 281735Z AUTO 18010KT 10SM CLR 03/M03 A3009 820 64 -400 190/10 RMK AO2 T00281033
04850KAOH AOH20161228124010912/28/16 12:40:31  5-MIN KAOH 281740Z AUTO 19010KT 10SM CLR 03/M03 A3009 820 67 -400 190/10 RMK AO2 T00281028
04850KAOH AOH20161228124510912/28/16 12:45:31  5-MIN KAOH 281745Z AUTO 19009KT 10SM CLR 03/M03 A3009 820 67 -400 200/09 RMK AO2 T00281028
04850KAOH AOH20161228125014012/28/16 12:50:31  5-MIN KAOH 281750Z AUTO 19009KT 10SM CLR 03/M03 A3008 830 67 -400 200/09 RMK AO2 SLP196 I6000 T00281028 10033 21044 55006
04850KAOH AOH20161228125510912/28/16 12:55:31  5-MIN KAOH 281755Z AUTO 19008KT 10SM CLR 03/M03 A3008 830 61 -300 200/08 RMK AO2 T00331033
04850KAOH AOH20161228130010912/28/16 13:00:31  5-MIN KAOH 281800Z AUTO 19009KT 10SM CLR 03/M03 A3008 830 61 -300 200/09 RMK AO2 T00331033
04850KAOH AOH20161228130510912/28/16 13:05:31  5-MIN KAOH 281805Z AUTO 19009KT 10SM CLR 03/M03 A3007 840 61 -300 190/09 RMK AO2 T00331033
04850KAOH AOH20161228131010912/28/16 13:10:31  5-MIN KAOH 281810Z AUTO 19009KT 10SM CLR 03/M03 A3007 840 64 -300 200/09 RMK AO2 T00331028
04850KAOH AOH20161228131510912/28/16 13:15:31  5-MIN KAOH 281815Z AUTO 17008KT 10SM CLR 04/M03 A3006 850 62 -200 180/08 RMK AO2 T00391028
04850KAOH AOH20161228132010912/28/16 13:20:31  5-MIN KAOH 281820Z AUTO 19010KT 10SM CLR 04/M02 A3006 850 64 -200 190/10 RMK AO2 T00391022
04850KAOH AOH20161228132510912/28/16 13:25:31  5-MIN KAOH 281825Z AUTO 19010KT 10SM CLR 04/M03 A3005 850 62 -200 190/10 RMK AO2 T00391028
04850KAOH AOH20161228133010912/28/16 13:30:31  5-MIN KAOH 281830Z AUTO 18011KT 10SM CLR 04/M03 A3005 860 62 -200 190/11 RMK AO2 T00391028
04850KAOH AOH20161228133510912/28/16 13:35:31  5-MIN KAOH 281835Z AUTO 18009KT 10SM CLR 04/M03 A3005 860 62 -200 190/09 RMK AO2 T00391028
04850KAOH AOH20161228134010912/28/16 13:40:31  5-MIN KAOH 281840Z AUTO 18010KT 10SM CLR 04/M02 A3004 860 64 -200 180/10 RMK AO2 T00391022
04850KAOH AOH20161228134510912/28/16 13:45:31  5-MIN KAOH 281845Z AUTO 17011KT 10SM CLR 04/M02 A3004 870 62 -100 180/11 RMK AO2 T00441022
04850KAOH AOH20161228135011612/28/16 13:50:31  5-MIN KAOH 281850Z AUTO 17011KT 10SM CLR 04/M03 A3004 870 62 -200 170/11 RMK AO2 SLP180 T00391028
04850KAOH AOH20161228135510912/28/16 13:55:31  5-MIN KAOH 281855Z AUTO 16010KT 10SM CLR 04/M02 A3003 870 62 -100 170/10 RMK AO2 T00441022
04850KAOH AOH20161228140010912/28/16 14:00:31  5-MIN KAOH 281900Z AUTO 17010KT 10SM CLR 04/M02 A3003 880 62 -100 180/10 RMK AO2 T00441022
04850KAOH AOH20161228140510912/28/16 14:05:31  5-MIN KAOH 281905Z AUTO 17011KT 10SM CLR 04/M02 A3003 880 62 -100 170/11 RMK AO2 T00441022
04850KAOH AOH20161228141010912/28/16 14:10:31  5-MIN KAOH 281910Z AUTO 18012KT 10SM CLR 04/M03 A3003 880 59 -100 180/12 RMK AO2 T00441028
04850KAOH AOH20161228141510912/28/16 14:15:31  5-MIN KAOH 281915Z AUTO 17012KT 10SM CLR 04/M03 A3003 880 59 -100 180/12 RMK AO2 T00441028
04850KAOH AOH20161228142010912/28/16 14:20:31  5-MIN KAOH 281920Z AUTO 18011KT 10SM CLR 04/M03 A3002 890 59 -100 180/11 RMK AO2 T00441028
04850KAOH AOH20161228142510912/28/16 14:25:31  5-MIN KAOH 281925Z AUTO 16011KT 10SM CLR 04/M02 A3002 890 62 -100 160/11 RMK AO2 T00441022
04850KAOH AOH20161228143010912/28/16 14:30:31  5-MIN KAOH 281930Z AUTO 16014KT 10SM CLR 04/M02 A3001 900 64 -100 170/14 RMK AO2 T00441017
04850KAOH AOH20161228143511612/28/16 14:35:31  5-MIN KAOH 281935Z AUTO 17013KT 10SM CLR 04/M02 A3000 900 62 -100 170/13 RMK AO2 PRESFR T00441022
04850KAOH AOH20161228144010912/28/16 14:40:31  5-MIN KAOH 281940Z AUTO 17015KT 10SM CLR 04/M02 A3000 900 64 -100 170/15 RMK AO2 T00441017
04850KAOH AOH20161228144510912/28/16 14:45:31  5-MIN KAOH 281945Z AUTO 16015KT 10SM CLR 04/M02 A3000 910 62 -100 160/15 RMK AO2 T00441022
04850KAOH AOH20161228145011612/28/16 14:50:31  5-MIN KAOH 281950Z AUTO 17014KT 10SM CLR 04/M02 A2999 910 62 -100 170/14 RMK AO2 SLP165 T00441022
04850KAOH AOH20161228145510912/28/16 14:55:31  5-MIN KAOH 281955Z AUTO 17013KT 10SM CLR 04/M02 A2999 910 62 -100 170/13 RMK AO2 T00441022
04850KAOH AOH20161228150010912/28/16 15:00:31  5-MIN KAOH 282000Z AUTO 17015KT 10SM CLR 04/M02 A2999 910 62 -100 180/15 RMK AO2 T00441022
04850KAOH AOH20161228150510612/28/16 15:05:31  5-MIN KAOH 282005Z AUTO 16014KT 10SM CLR 05/M02 A2999 910 59 0 170/14 RMK AO2 T00501022
04850KAOH AOH20161228151010612/28/16 15:10:31  5-MIN KAOH 282010Z AUTO 17014KT 10SM CLR 05/M02 A2999 910 59 0 170/14 RMK AO2 T00501022
04850KAOH AOH20161228151510612/28/16 15:15:31  5-MIN KAOH 282015Z AUTO 17012KT 10SM CLR 05/M02 A2999 920 59 0 170/12 RMK AO2 T00501022
04850KAOH AOH20161228152010612/28/16 15:20:31  5-MIN KAOH 282020Z AUTO 16013KT 10SM CLR 05/M02 A2998 920 59 0 170/13 RMK AO2 T00501022
04850KAOH AOH20161228152510612/28/16 15:25:31  5-MIN KAOH 282025Z AUTO 17011KT 10SM CLR 05/M02 A2998 920 59 0 170/11 RMK AO2 T00501022
04850KAOH AOH20161228153010612/28/16 15:30:31  5-MIN KAOH 282030Z AUTO 16011KT 10SM CLR 05/M02 A2998 930 62 0 170/11 RMK AO2 T00501017
04850KAOH AOH20161228153510612/28/16 15:35:31  5-MIN KAOH 282035Z AUTO 16014KT 10SM CLR 05/M02 A2997 930 62 0 170/14 RMK AO2 T00501017
04850KAOH AOH20161228154010612/28/16 15:40:31  5-MIN KAOH 282040Z AUTO 16011KT 10SM CLR 05/M02 A2997 930 59 0 160/11 RMK AO2 T00501022
04850KAOH AOH20161228154510612/28/16 15:45:31  5-MIN KAOH 282045Z AUTO 15011KT 10SM CLR 05/M02 A2996 940 59 0 160/11 RMK AO2 T00501022
04850KAOH AOH20161228155011912/28/16 15:50:31  5-MIN KAOH 282050Z AUTO 16013KT 10SM CLR 05/M02 A2996 940 62 0 160/13 RMK AO2 SLP154 T00501017 58028
04850KAOH AOH20161228155510612/28/16 15:55:31  5-MIN KAOH 282055Z AUTO 16013KT 10SM CLR 05/M02 A2996 940 62 0 170/13 RMK AO2 T00501017
04850KAOH AOH20161228160010612/28/16 16:00:31  5-MIN KAOH 282100Z AUTO 16014KT 10SM CLR 04/M02 A2996 940 64 0 170/14 RMK AO2 T00441017
04850KAOH AOH20161228160510612/28/16 16:05:31  5-MIN KAOH 282105Z AUTO 16014KT 10SM CLR 04/M02 A2996 940 62 0 160/14 RMK AO2 T00441022
04850KAOH AOH20161228161010912/28/16 16:10:31  5-MIN KAOH 282110Z AUTO 16011KT 10SM CLR 04/M02 A2995 950 64 -100 160/11 RMK AO2 T00391022
04850KAOH AOH20161228161510912/28/16 16:15:31  5-MIN KAOH 282115Z AUTO 16011KT 10SM CLR 04/M02 A2995 950 67 -100 160/11 RMK AO2 T00391017
04850KAOH AOH20161228162010912/28/16 16:20:31  5-MIN KAOH 282120Z AUTO 16010KT 10SM CLR 04/M02 A2994 950 64 -100 160/10 RMK AO2 T00391022
04850KAOH AOH20161228162510912/28/16 16:25:31  5-MIN KAOH 282125Z AUTO 15010KT 10SM CLR 04/M02 A2994 960 64 -100 160/10 RMK AO2 T00391022
04850KAOH AOH20161228163010912/28/16 16:30:31  5-MIN KAOH 282130Z AUTO 15011KT 10SM CLR 04/M02 A2994 960 64 -100 150/11 RMK AO2 T00391022
04850KAOH AOH20161228163510912/28/16 16:35:31  5-MIN KAOH 282135Z AUTO 16014KT 10SM CLR 04/M02 A2994 960 64 -100 160/14 RMK AO2 T00391022
04850KAOH AOH20161228164011212/28/16 16:40:31  5-MIN KAOH 282140Z AUTO 16013KT 10SM FEW070 04/M02 A2994 960 64 -100 160/13 RMK AO2 T00391022
04850KAOH AOH20161228164511212/28/16 16:45:31  5-MIN KAOH 282145Z AUTO 15011KT 10SM SCT070 04/M02 A2994 960 64 -100 150/11 RMK AO2 T00391022
04850KAOH AOH20161228165011912/28/16 16:50:31  5-MIN KAOH 282150Z AUTO 15012KT 10SM SCT070 04/M02 A2993 970 64 -100 160/12 RMK AO2 SLP146 T00391022
04850KAOH AOH20161228165511212/28/16 16:55:31  5-MIN KAOH 282155Z AUTO 15014KT 10SM FEW070 04/M02 A2993 970 64 -100 150/14 RMK AO2 T00391022
04850KAOH AOH20161228170011212/28/16 17:00:31  5-MIN KAOH 282200Z AUTO 15012KT 10SM FEW070 03/M03 A2992 970 64 -100 150/12 RMK AO2 T00331028
04850KAOH AOH20161228170511212/28/16 17:05:31  5-MIN KAOH 282205Z AUTO 15013KT 10SM FEW070 03/M03 A2993 970 64 -100 160/13 RMK AO2 T00331028
04850KAOH AOH20161228171011212/28/16 17:10:31  5-MIN KAOH 282210Z AUTO 15013KT 10SM FEW070 03/M03 A2993 970 64 -100 160/13 RMK AO2 T00331028
04850KAOH AOH20161228171510912/28/16 17:15:31  5-MIN KAOH 282215Z AUTO 15012KT 10SM CLR 03/M03 A2993 970 64 -100 160/12 RMK AO2 T00331028
04850KAOH AOH20161228172010912/28/16 17:20:31  5-MIN KAOH 282220Z AUTO 15012KT 10SM CLR 03/M03 A2993 970 67 -200 160/12 RMK AO2 T00281028
04850KAOH AOH20161228172510912/28/16 17:25:31  5-MIN KAOH 282225Z AUTO 15011KT 10SM CLR 03/M03 A2993 970 67 -200 160/11 RMK AO2 T00281028
04850KAOH AOH20161228173010912/28/16 17:30:31  5-MIN KAOH 282230Z AUTO 15011KT 10SM CLR 03/M03 A2992 970 67 -200 150/11 RMK AO2 T00281028
04850KAOH AOH20161228173510912/28/16 17:35:31  5-MIN KAOH 282235Z AUTO 15011KT 10SM CLR 03/M03 A2992 980 67 -200 150/11 RMK AO2 T00281028
04850KAOH AOH20161228174010912/28/16 17:40:31  5-MIN KAOH 282240Z AUTO 15011KT 10SM CLR 03/M03 A2992 980 67 -200 150/11 RMK AO2 T00281028
04850KAOH AOH20161228174510912/28/16 17:45:31  5-MIN KAOH 282245Z AUTO 14011KT 10SM CLR 03/M03 A2991 990 67 -200 150/11 RMK AO2 T00281028
04850KAOH AOH20161228175012412/28/16 17:50:31  5-MIN KAOH 282250Z AUTO 14013KT 10SM CLR 03/M03 A2989 1010 67 -100 140/13 RMK AO2 PRESFR SLP132 T00281028
04850KAOH AOH20161228175511712/28/16 17:55:31  5-MIN KAOH 282255Z AUTO 13013KT 10SM CLR 03/M03 A2988 1010 67 -100 140/13 RMK AO2 PRESFR T00281028
04850KAOH AOH20161228180011012/28/16 18:00:31  5-MIN KAOH 282300Z AUTO 14014KT 10SM CLR 03/M03 A2989 1000 67 -100 150/14 RMK AO2 T00281028
04850KAOH AOH20161228180511012/28/16 18:05:31  5-MIN KAOH 282305Z AUTO 14010KT 10SM CLR 03/M03 A2989 1000 67 -100 150/10 RMK AO2 T00281028
04850KAOH AOH20161228181011312/28/16 18:10:31  5-MIN KAOH 282310Z AUTO 15013KT 10SM FEW075 03/M03 A2989 1010 67 -100 150/13 RMK AO2 T00281028
04850KAOH AOH20161228181511312/28/16 18:15:31  5-MIN KAOH 282315Z AUTO 15012KT 10SM SCT070 03/M03 A2989 1010 64 -100 150/12 RMK AO2 T00331028
04850KAOH AOH20161228182011312/28/16 18:20:31  5-MIN KAOH 282320Z AUTO 15012KT 10SM BKN070 03/M02 A2989 1010 67 -100 160/12 RMK AO2 T00331022
04850KAOH AOH20161228182511312/28/16 18:25:31  5-MIN KAOH 282325Z AUTO 15014KT 10SM BKN070 03/M03 A2988 1010 64 -100 150/14 RMK AO2 T00331028
04850KAOH AOH20161228183011312/28/16 18:30:31  5-MIN KAOH 282330Z AUTO 15012KT 10SM BKN070 03/M02 A2988 1010 67 -100 150/12 RMK AO2 T00331022
04850KAOH AOH20161228183511312/28/16 18:35:31  5-MIN KAOH 282335Z AUTO 15013KT 10SM OVC070 03/M02 A2988 1020 67 -100 160/13 RMK AO2 T00331022
04850KAOH AOH20161228184011312/28/16 18:40:31  5-MIN KAOH 282340Z AUTO 15014KT 10SM OVC070 03/M02 A2987 1020 67 -100 160/14 RMK AO2 T00331022
04850KAOH AOH20161228184511012/28/16 18:45:31  5-MIN KAOH 282345Z AUTO 15015KT 10SM OVC070 03/M02 A2987 1030 67 0 150/15 RMK AO2 T00331022
04850KAOH AOH20161228185013512/28/16 18:50:31  5-MIN KAOH 282350Z AUTO 15013KT 10SM OVC070 03/M03 A2987 1030 64 0 160/13 RMK AO2 SLP124 T00331028 10050 20028 56040
04850KAOH AOH20161228185511012/28/16 18:55:31  5-MIN KAOH 282355Z AUTO 15014KT 10SM OVC070 04/M03 A2987 1020 62 0 160/14 RMK AO2 T00391028
04850KAOH AOH20161228190011012/28/16 19:00:31  5-MIN KAOH 290000Z AUTO 15015KT 10SM OVC070 03/M02 A2987 1030 67 0 160/15 RMK AO2 T00331022
04850KAOH AOH20161228190511012/28/16 19:05:31  5-MIN KAOH 290005Z AUTO 15014KT 10SM OVC070 04/M03 A2986 1030 62 0 160/14 RMK AO2 T00391028
04850KAOH AOH20161228191011012/28/16 19:10:31  5-MIN KAOH 290010Z AUTO 15015KT 10SM OVC070 04/M03 A2985 1040 62 0 160/15 RMK AO2 T00391028
04850KAOH AOH20161228191511012/28/16 19:15:31  5-MIN KAOH 290015Z AUTO 15014KT 10SM OVC065 04/M03 A2985 1040 62 0 160/14 RMK AO2 T00391028
04850KAOH AOH20161228192011012/28/16 19:20:31  5-MIN KAOH 290020Z AUTO 16013KT 10SM OVC065 04/M02 A2986 1040 64 0 160/13 RMK AO2 T00391022
04850KAOH AOH20161228192511012/28/16 19:25:31  5-MIN KAOH 290025Z AUTO 16013KT 10SM OVC065 04/M02 A2986 1040 64 0 170/13 RMK AO2 T00391022
04850KAOH AOH20161228193011012/28/16 19:30:31  5-MIN KAOH 290030Z AUTO 16015KT 10SM OVC065 04/M02 A2986 1030 64 0 170/15 RMK AO2 T00391022
04850KAOH AOH20161228193512612/28/16 19:35:31  5-MIN KAOH 290035Z AUTO 16013KT 10SM -RA OVC070 03/M02 A2986 1030 67 0 160/13 RMK AO2 RAB31 P0000 T00331022
04850KAOH AOH20161228194012512/28/16 19:40:31  5-MIN KAOH 290040Z AUTO 16012KT 10SM OVC070 03/M02 A2985 1040 67 0 160/12 RMK AO2 RAB31E40 P0000 T00331022
04850KAOH AOH20161228194512512/28/16 19:45:31  5-MIN KAOH 290045Z AUTO 16012KT 10SM OVC070 03/M02 A2986 1040 67 0 170/12 RMK AO2 RAB31E40 P0000 T00331022
04850KAOH AOH20161228195013212/28/16 19:50:31  5-MIN KAOH 290050Z AUTO 16010KT 10SM OVC070 03/M02 A2986 1040 67 0 170/10 RMK AO2 RAB31E40 SLP120 P0000 T00331022
04850KAOH AOH20161228195511012/28/16 19:55:31  5-MIN KAOH 290055Z AUTO 17009KT 10SM OVC070 04/M02 A2986 1040 64 0 180/09 RMK AO2 T00391022
04850KAOH AOH20161228200011012/28/16 20:00:31  5-MIN KAOH 290100Z AUTO 18012KT 10SM OVC070 04/M02 A2986 1040 64 0 180/12 RMK AO2 T00391022
04850KAOH AOH20161228200511012/28/16 20:05:31  5-MIN KAOH 290105Z AUTO 17012KT 10SM OVC070 04/M02 A2985 1040 64 0 180/12 RMK AO2 T00391022
04850KAOH AOH20161228201011012/28/16 20:10:31  5-MIN KAOH 290110Z AUTO 18012KT 10SM OVC070 04/M02 A2986 1030 64 0 180/12 RMK AO2 T00391022
04850KAOH AOH20161228201511712/28/16 20:15:31  5-MIN KAOH 290115Z AUTO 18011KT 10SM SCT050 OVC070 04/M02 A2986 1030 64 0 190/11 RMK AO2 T00391022
04850KAOH AOH20161228202011712/28/16 20:20:31  5-MIN KAOH 290120Z AUTO 17011KT 10SM SCT050 OVC070 04/M02 A2985 1040 64 0 180/11 RMK AO2 T00391022
04850KAOH AOH20161228202511712/28/16 20:25:31  5-MIN KAOH 290125Z AUTO 17009KT 10SM BKN055 OVC070 03/M02 A2985 1040 67 0 180/09 RMK AO2 T00331022
04850KAOH AOH20161228203013312/28/16 20:30:31  5-MIN KAOH 290130Z AUTO 18007KT 10SM -RA BKN050 OVC070 03/M02 A2985 1040 67 0 190/07 RMK AO2 RAB26 P0000 T00331022
04850KAOH AOH20161228203513212/28/16 20:35:31  5-MIN KAOH 290135Z AUTO 18007KT 10SM BKN050 OVC070 03/M02 A2984 1050 67 0 180/07 RMK AO2 RAB26E35 P0000 T00331022
04850KAOH AOH20161228204013912/28/16 20:40:31  5-MIN KAOH 290140Z AUTO 16006KT 10SM FEW047 BKN060 OVC070 03/M02 A2984 1060 67 0 170/06 RMK AO2 RAB26E35 P0000 T00331022
04850KAOH AOH20161228204513212/28/16 20:45:31  5-MIN KAOH 290145Z AUTO 17008KT 10SM FEW055 OVC070 03/M02 A2984 1050 70 0 180/08 RMK AO2 RAB26E35 P0000 T00331017
04850KAOH AOH20161228205013912/28/16 20:50:31  5-MIN KAOH 290150Z AUTO 16007KT 10SM FEW055 OVC070 03/M02 A2983 1060 70 0 170/07 RMK AO2 RAB26E35 SLP111 P0000 T00331017
04850KAOH AOH20161228205511012/28/16 20:55:31  5-MIN KAOH 290155Z AUTO 16008KT 10SM OVC070 03/M02 A2983 1060 70 0 170/08 RMK AO2 T00331017
04850KAOH AOH20161228210011712/28/16 21:00:31  5-MIN KAOH 290200Z AUTO 16005KT 10SM SCT055 OVC070 03/M02 A2983 1060 70 0 170/05 RMK AO2 T00331017
04850KAOH AOH20161228210511712/28/16 21:05:31  5-MIN KAOH 290205Z AUTO 17004KT 10SM BKN050 OVC070 03/M02 A2983 1060 70 0 170/04 RMK AO2 T00331017
04850KAOH AOH20161228211011712/28/16 21:10:31  5-MIN KAOH 290210Z AUTO 16006KT 10SM BKN045 OVC070 03/M02 A2983 1060 70 0 170/06 RMK AO2 T00331017
04850KAOH AOH20161228211511612/28/16 21:15:31  5-MIN KAOH 290215Z AUTO 16008KT 9SM BKN037 OVC070 03/M02 A2984 1050 70 0 170/08 RMK AO2 T00331017
04850KAOH AOH20161228212012512/28/16 21:20:31  5-MIN KAOH 290220Z AUTO 18004KT 8SM -SN OVC033 03/M02 A2984 1050 70 0 190/04 RMK AO2 SNB16 P0000 T00331017
04850KAOH AOH20161228212512512/28/16 21:25:31  5-MIN KAOH 290225Z AUTO 00000KT 8SM -SN OVC035 03/M02 A2984 1050 70 0 000/00 RMK AO2 SNB16 P0000 T00331017
04850KAOH AOH20161228213014312/28/16 21:30:31  5-MIN KAOH 290230Z AUTO 00000KT 9SM -RA BKN035 OVC047 03/M01 A2984 1060 75 -100 000/00 RMK AO2 RAB29SNB16E29 P0000 T00281011
04850KAOH AOH20161228213515012/28/16 21:35:31  5-MIN KAOH 290235Z AUTO 00000KT 10SM SCT029 BKN047 OVC070 03/M01 A2983 1060 75 -100 000/00 RMK AO2 RAB29E35SNB16E29 P0000 T00281011
04850KAOH AOH20161228214015012/28/16 21:40:31  5-MIN KAOH 290240Z AUTO 17003KT 10SM SCT029 BKN048 OVC065 03/M01 A2983 1060 75 -100 170/03 RMK AO2 RAB29E35SNB16E29 P0000 T00281011
04850KAOH AOH20161228214515012/28/16 21:45:31  5-MIN KAOH 290245Z AUTO 16004KT 10SM SCT035 BKN048 OVC065 03/M01 A2983 1060 79 -100 160/04 RMK AO2 RAB29E35SNB16E29 P0000 T00281006
04850KAOH AOH20161228215017712/28/16 21:50:31  5-MIN KAOH 290250Z AUTO 17003KT 10SM UP BKN039 BKN048 OVC065 03/M01 A2983 1060 79 -100 170/03 RMK AO2 RAB29E35UPB46SNB16E29 SLP110 P0000 60000 T00281006 56031
04850KAOH AOH20161228215513612/28/16 21:55:31  5-MIN KAOH 290255Z AUTO 17003KT 10SM UP SCT037 BKN046 OVC065 03/M01 A2983 1060 75 -100 180/03 RMK AO2 P0000 T00281011
04850KAOH AOH20161228220013612/28/16 22:00:31  5-MIN KAOH 290300Z AUTO 19003KT 10SM UP SCT035 BKN045 OVC065 03/M01 A2983 1060 75 -100 200/03 RMK AO2 P0000 T00281011
04850KAOH AOH20161228220513312/28/16 22:05:31  5-MIN KAOH 290305Z AUTO 19004KT 10SM UP SCT037 BKN043 OVC065 03/M02 A2983 1060 70 0 200/04 RMK AO2 P0000 T00331017
04850KAOH AOH20161228221013712/28/16 22:10:31  5-MIN KAOH 290310Z AUTO 17003KT 10SM BKN037 OVC044 03/M02 A2984 1060 70 0 180/03 RMK AO2 UPE06SNB06E07 P0000 T00331017
04850KAOH AOH20161228221514912/28/16 22:15:31  5-MIN KAOH 290315Z AUTO 21003KT 10SM -RA FEW029 OVC040 03/M01 A2984 1050 75 -100 220/03 RMK AO2 UPE06RAB12SNB06E07 P0000 T00281011
04850KAOH AOH20161228222014612/28/16 22:20:31  5-MIN KAOH 290320Z AUTO 00000KT 10SM -SN SCT027 OVC040 03/M02 A2983 1060 70 0 000/00 RMK AO2 UPE06RAB12E18SNB06 P0000 T00331017
04850KAOH AOH20161228222514512/28/16 22:25:31  5-MIN KAOH 290325Z AUTO 00000KT 9SM -SN FEW027 OVC040 03/M02 A2983 1060 70 0 000/00 RMK AO2 UPE06RAB12E18SNB06 P0000 T00331017
04850KAOH AOH20161228223014812/28/16 22:30:31  5-MIN KAOH 290330Z AUTO 17003KT 9SM -RA FEW027 OVC040 03/M01 A2983 1060 75 -100 180/03 RMK AO2 UPE06RAB12SNB06E28 P0000 T00281011
04850KAOH AOH20161228223514912/28/16 22:35:31  5-MIN KAOH 290335Z AUTO 15004KT 10SM -RA FEW027 OVC040 02/M01 A2982 1070 82 -100 160/04 RMK AO2 UPE06RAB12SNB06E28 P0000 T00221006
04850KAOH AOH20161228224014912/28/16 22:40:31  5-MIN KAOH 290340Z AUTO 15006KT 10SM -RA FEW029 OVC038 02/M01 A2982 1070 82 -100 160/06 RMK AO2 UPE06RAB12SNB06E28 P0000 T00221006
04850KAOH AOH20161228224514912/28/16 22:45:31  5-MIN KAOH 290345Z AUTO 16007KT 10SM -RA BKN038 OVC046 02/M01 A2982 1070 82 -100 170/07 RMK AO2 UPE06RAB12SNB06E28 P0000 T00221006
04850KAOH AOH20161228225016212/28/16 22:50:31  5-MIN KAOH 290350Z AUTO 17007KT 10SM FEW027 BKN038 OVC044 02/M01 A2982 1070 82 -100 170/07 RMK AO2 UPE06RAB12E47SNB06E28 SLP107 P0000 T00221006
04850KAOH AOH20161228225514312/28/16 22:55:31  5-MIN KAOH 290355Z AUTO 19005KT 10SM -RA FEW026 SCT031 OVC040 02/M01 A2982 1070 82 -100 190/05 RMK AO2 RAB55 P0000 T00221006
04850KAOH AOH20161228230015012/28/16 23:00:31  5-MIN KAOH 290400Z AUTO 17005KT 10SM -SN SCT029 OVC036 02/M01 A2982 1070 82 -100 170/05 RMK AO2 RAB0355E0359SNB0359 P0000 T00221006
04850KAOH AOH20161228230514912/28/16 23:05:31  5-MIN KAOH 290405Z AUTO 16006KT 10SM -SN BKN034 OVC046 02/00 A2982 1070 85 -100 170/06 RMK AO2 RAB0355E0359SNB0359 P0000 T00220000
04850KAOH AOH20161228231015312/28/16 23:10:31  5-MIN KAOH 290410Z AUTO 16006KT 9SM -RA FEW030 BKN036 OVC055 02/00 A2982 1070 89 -200 170/06 RMK AO2 RAB0355SNB0359E08 P0000 T00170000
04850KAOH AOH20161228231515412/28/16 23:15:31  5-MIN KAOH 290415Z AUTO 16006KT 10SM -RA BKN034 BKN040 OVC055 02/01 A2981 1080 92 -200 160/06 RMK AO2 RAB0355SNB0359E08 P0000 T00170006
04850KAOH AOH20161228232015412/28/16 23:20:31  5-MIN KAOH 290420Z AUTO 16005KT 10SM -RA SCT034 BKN045 OVC055 02/01 A2981 1080 92 -200 170/05 RMK AO2 RAB0355SNB0359E08 P0000 T00170006
04850KAOH AOH20161228232515412/28/16 23:25:31  5-MIN KAOH 290425Z AUTO 16005KT 10SM UP SCT034 OVC050 02/01 A2980 1090 92 -200 160/05 RMK AO2 RAB0355E22UPB22SNB0359E08 P0000 T00170006
04850KAOH AOH20161228233015412/28/16 23:30:31  5-MIN KAOH 290430Z AUTO 16004KT 10SM SCT034 OVC050 02/01 A2980 1090 92 -200 160/04 RMK AO2 RAB0355E22UPB22E26SNB0359E08 P0000 T00170006
04850KAOH AOH20161228233515412/28/16 23:35:31  5-MIN KAOH 290435Z AUTO 16004KT 10SM BKN032 OVC050 02/01 A2980 1090 92 -200 170/04 RMK AO2 RAB0355E22UPB22E26SNB0359E08 P0000 T00170006
04850KAOH AOH20161228234015412/28/16 23:40:31  5-MIN KAOH 290440Z AUTO 16004KT 10SM BKN032 OVC050 02/01 A2980 1090 92 -200 170/04 RMK AO2 RAB0355E22UPB22E26SNB0359E08 P0000 T00170006
04850KAOH AOH20161228234516112/28/16 23:45:31  5-MIN KAOH 290445Z AUTO 17005KT 10SM BKN030 BKN036 OVC050 02/01 A2980 1090 92 -200 170/05 RMK AO2 RAB0355E22UPB22E26SNB0359E08 P0000 T00170006
04850KAOH AOH20161228235017112/28/16 23:50:31  5-MIN KAOH 290450Z AUTO 16005KT 10SM BKN030 OVC036 02/01 A2979 1100 92 -200 170/05 RMK AO2 RAB0355E22UPB22E26SNB0359E08 SLP097 P0000 T00170006 400501050
04850KAOH AOH20161228235511212/28/16 23:55:31  5-MIN KAOH 290455Z AUTO 16005KT 10SM OVC030 02/01 A2979 1100 92 -200 160/05 RMK AO2 T00170006
04850KAOH AOH20161229000011212/29/16 00:00:31  5-MIN KAOH 290500Z AUTO 15007KT 10SM OVC030 02/01 A2978 1110 92 -200 160/07 RMK AO2 T00170006
04850KAOH AOH20161229000511912/29/16 00:05:31  5-MIN KAOH 290505Z AUTO 15006KT 10SM OVC028 02/01 A2977 1120 92 -100 160/06 RMK AO2 PRESFR T00170006
04850KAOH AOH20161229001011212/29/16 00:10:31  5-MIN KAOH 290510Z AUTO 16006KT 10SM OVC028 02/01 A2977 1120 92 -100 170/06 RMK AO2 T00170006
04850KAOH AOH20161229001511912/29/16 00:15:31  5-MIN KAOH 290515Z AUTO 16007KT 10SM BKN027 OVC033 02/00 A2977 1120 89 -100 160/07 RMK AO2 T00170000
04850KAOH AOH20161229002011212/29/16 00:20:31  5-MIN KAOH 290520Z AUTO 16007KT 10SM OVC029 02/00 A2976 1130 89 -100 160/07 RMK AO2 T00170000
04850KAOH AOH20161229002511212/29/16 00:25:31  5-MIN KAOH 290525Z AUTO 16007KT 10SM OVC027 02/00 A2976 1130 89 -100 170/07 RMK AO2 T00170000
04850KAOH AOH20161229003011212/29/16 00:30:31  5-MIN KAOH 290530Z AUTO 16007KT 10SM OVC027 02/00 A2975 1130 89 -100 170/07 RMK AO2 T00170000
04850KAOH AOH20161229003511212/29/16 00:35:31  5-MIN KAOH 290535Z AUTO 15007KT 10SM OVC027 02/00 A2974 1140 89 -100 160/07 RMK AO2 T00170000
04850KAOH AOH20161229004012612/29/16 00:40:31  5-MIN KAOH 290540Z AUTO 17006KT 10SM BKN027 BKN050 OVC120 02/00 A2975 1130 89 -100 180/06 RMK AO2 T00170000
04850KAOH AOH20161229004512612/29/16 00:45:31  5-MIN KAOH 290545Z AUTO 18006KT 10SM BKN027 BKN050 OVC120 02/00 A2975 1130 89 -100 190/06 RMK AO2 T00170000
04850KAOH AOH20161229005015712/29/16 00:50:31  5-MIN KAOH 290550Z AUTO 17007KT 10SM SCT022 BKN027 OVC050 02/00 A2975 1140 89 -100 180/07 RMK AO2 SLP080 60000 T00170000 10039 20017 56014
04850KAOH AOH20161229005511912/29/16 00:55:31  5-MIN KAOH 290555Z AUTO 18006KT 10SM SCT022 BKN027 02/00 A2975 1140 89 -100 190/06 RMK AO2 T00170000
04850KAOH AOH20161229010011912/29/16 01:00:31  5-MIN KAOH 290600Z AUTO 18006KT 10SM SCT022 BKN029 02/00 A2974 1140 89 -100 190/06 RMK AO2 T00170000
04850KAOH AOH20161229010512612/29/16 01:05:31  5-MIN KAOH 290605Z AUTO 18006KT 10SM SCT023 BKN029 OVC110 02/00 A2973 1150 89 -100 180/06 RMK AO2 T00170000
04850KAOH AOH20161229011013312/29/16 01:10:31  5-MIN KAOH 290610Z AUTO 18006KT 10SM FEW023 BKN029 OVC110 02/00 A2972 1160 89 -100 180/06 RMK AO2 PRESFR T00170000
04850KAOH AOH20161229011513312/29/16 01:15:31  5-MIN KAOH 290615Z AUTO 17007KT 10SM FEW023 BKN029 OVC120 02/00 A2971 1170 89 -100 180/07 RMK AO2 PRESFR T00170000
04850KAOH AOH20161229012011912/29/16 01:20:31  5-MIN KAOH 290620Z AUTO 18007KT 10SM SCT029 OVC120 02/00 A2971 1170 89 -100 180/07 RMK AO2 T00170000
04850KAOH AOH20161229012511912/29/16 01:25:31  5-MIN KAOH 290625Z AUTO 20007KT 10SM FEW029 OVC110 02/00 A2972 1170 89 -100 210/07 RMK AO2 T00170000
04850KAOH AOH20161229013011912/29/16 01:30:31  5-MIN KAOH 290630Z AUTO 18007KT 10SM FEW029 OVC110 02/00 A2970 1180 89 -100 190/07 RMK AO2 T00170000
04850KAOH AOH20161229013511612/29/16 01:35:31  5-MIN KAOH 290635Z AUTO 18008KT 10SM OVC110 02/00 A2968 1200 89 0 180/08 RMK AO2 PRESFR T00170000
04850KAOH AOH20161229014011212/29/16 01:40:31  5-MIN KAOH 290640Z AUTO 20008KT 10SM BKN110 02/00 A2970 1180 89 -100 200/08 RMK AO2 T00170000
04850KAOH AOH20161229014511212/29/16 01:45:31  5-MIN KAOH 290645Z AUTO 20007KT 10SM BKN110 02/00 A2970 1180 89 -100 210/07 RMK AO2 T00170000
04850KAOH AOH20161229015011912/29/16 01:50:31  5-MIN KAOH 290650Z AUTO 20008KT 10SM BKN120 02/00 A2970 1190 89 -100 210/08 RMK AO2 SLP063 T00170000
04850KAOH AOH20161229015511212/29/16 01:55:31  5-MIN KAOH 290655Z AUTO 21009KT 10SM SCT110 02/00 A2970 1180 89 -100 220/09 RMK AO2 T00170000
04850KAOH AOH20161229020012312/29/16 02:00:31  5-MIN KAOH 290700Z AUTO 22011KT 10SM FEW030 SCT120 02/00 A2972 1160 85 0 230/11 RMK AO2 PRESRR T00220000
04850KAOH AOH20161229020512312/29/16 02:05:31  5-MIN KAOH 290705Z AUTO 23012KT 10SM SCT032 BKN120 02/01 A2973 1150 89 0 240/12 RMK AO2 PRESRR T00220006
04850KAOH AOH20161229021011612/29/16 02:10:31  5-MIN KAOH 290710Z AUTO 23013KT 10SM BKN032 BKN120 03/01 A2974 1150 85 0 240/13 RMK AO2 T00280006
04850KAOH AOH20161229021510912/29/16 02:15:31  5-MIN KAOH 290715Z AUTO 24013KT 10SM BKN032 03/01 A2974 1140 85 0 250/13 RMK AO2 T00280006
04850KAOH AOH20161229022011612/29/16 02:20:31  5-MIN KAOH 290720Z AUTO 24012KT 10SM BKN032 BKN120 03/01 A2974 1150 85 0 250/12 RMK AO2 T00280006
04850KAOH AOH20161229022511612/29/16 02:25:31  5-MIN KAOH 290725Z AUTO 25014KT 10SM SCT033 BKN120 03/01 A2974 1140 89 0 250/14 RMK AO2 T00280011
04850KAOH AOH20161229023011612/29/16 02:30:31  5-MIN KAOH 290730Z AUTO 25013KT 10SM SCT033 BKN110 03/01 A2974 1140 89 0 250/13 RMK AO2 T00280011
04850KAOH AOH20161229023511612/29/16 02:35:31  5-MIN KAOH 290735Z AUTO 24013KT 10SM FEW033 BKN110 03/01 A2974 1150 89 0 250/13 RMK AO2 T00280011
04850KAOH AOH20161229024011612/29/16 02:40:31  5-MIN KAOH 290740Z AUTO 24013KT 10SM FEW033 SCT110 03/01 A2974 1150 89 0 250/13 RMK AO2 T00280011
04850KAOH AOH20161229024510912/29/16 02:45:31  5-MIN KAOH 290745Z AUTO 24012KT 10SM FEW110 03/01 A2973 1150 89 0 250/12 RMK AO2 T00280011
04850KAOH AOH20161229025011612/29/16 02:50:31  5-MIN KAOH 290750Z AUTO 25012KT 10SM FEW110 03/01 A2973 1150 89 0 250/12 RMK AO2 SLP075 T00280011
04850KAOH AOH20161229025510912/29/16 02:55:31  5-MIN KAOH 290755Z AUTO 25014KT 10SM FEW110 03/01 A2973 1160 89 0 260/14 RMK AO2 T00280011
04850KAOH AOH20161229030010912/29/16 03:00:31  5-MIN KAOH 290800Z AUTO 25011KT 10SM FEW120 03/01 A2972 1170 89 0 250/11 RMK AO2 T00280011
04850KAOH AOH20161229030511612/29/16 03:05:31  5-MIN KAOH 290805Z AUTO 25011KT 10SM FEW120 03/01 A2971 1170 89 0 250/11 RMK AO2 PRESFR T00280011
04850KAOH AOH20161229031010912/29/16 03:10:31  5-MIN KAOH 290810Z AUTO 25013KT 10SM FEW120 03/01 A2971 1170 89 0 260/13 RMK AO2 T00280011
04850KAOH AOH20161229031510912/29/16 03:15:31  5-MIN KAOH 290815Z AUTO 26012KT 10SM FEW120 03/01 A2970 1180 89 0 260/12 RMK AO2 T00280011
04850KAOH AOH20161229032010912/29/16 03:20:31  5-MIN KAOH 290820Z AUTO 26013KT 10SM FEW120 02/01 A2972 1160 92 0 260/13 RMK AO2 T00220011
04850KAOH AOH20161229032510912/29/16 03:25:31  5-MIN KAOH 290825Z AUTO 26011KT 10SM FEW120 02/01 A2971 1170 92 0 260/11 RMK AO2 T00220011
04850KAOH AOH20161229033010912/29/16 03:30:31  5-MIN KAOH 290830Z AUTO 26013KT 10SM FEW120 02/01 A2972 1160 89 0 260/13 RMK AO2 T00220006
04850KAOH AOH20161229033510612/29/16 03:35:31  5-MIN KAOH 290835Z AUTO 26014KT 10SM CLR 02/01 A2972 1160 89 0 270/14 RMK AO2 T00220006
04850KAOH AOH20161229034010612/29/16 03:40:31  5-MIN KAOH 290840Z AUTO 26014KT 10SM CLR 02/01 A2973 1160 89 0 260/14 RMK AO2 T00220006
04850KAOH AOH20161229034510612/29/16 03:45:31  5-MIN KAOH 290845Z AUTO 26014KT 10SM CLR 02/01 A2973 1150 89 0 270/14 RMK AO2 T00220006
04850KAOH AOH20161229035011912/29/16 03:50:31  5-MIN KAOH 290850Z AUTO 26016KT 10SM CLR 02/01 A2974 1150 89 0 270/16 RMK AO2 SLP076 T00220006 58027
04850KAOH AOH20161229035510612/29/16 03:55:31  5-MIN KAOH 290855Z AUTO 26014KT 10SM CLR 02/01 A2974 1150 89 0 270/14 RMK AO2 T00220006
04850KAOH AOH20161229040010612/29/16 04:00:31  5-MIN KAOH 290900Z AUTO 26017KT 10SM CLR 02/01 A2974 1150 89 0 270/17 RMK AO2 T00220006
04850KAOH AOH20161229040510612/29/16 04:05:31  5-MIN KAOH 290905Z AUTO 27014KT 10SM CLR 02/00 A2974 1140 85 0 270/14 RMK AO2 T00220000
04850KAOH AOH20161229041010612/29/16 04:10:31  5-MIN KAOH 290910Z AUTO 26018KT 10SM CLR 02/00 A2975 1140 85 0 270/18 RMK AO2 T00220000
04850KAOH AOH20161229041510612/29/16 04:15:31  5-MIN KAOH 290915Z AUTO 27014KT 10SM CLR 02/00 A2974 1150 85 0 270/14 RMK AO2 T00220000
04850KAOH AOH20161229042010912/29/16 04:20:31  5-MIN KAOH 290920Z AUTO 27017KT 10SM CLR 02/00 A2974 1150 89 -100 270/17 RMK AO2 T00170000
04850KAOH AOH20161229042510912/29/16 04:25:31  5-MIN KAOH 290925Z AUTO 27015KT 10SM CLR 02/00 A2973 1150 89 -100 280/15 RMK AO2 T00170000
04850KAOH AOH20161229043011012/29/16 04:30:31  5-MIN KAOH 290930Z AUTO 27013KT 10SM CLR 02/M01 A2973 1150 85 -100 270/13 RMK AO2 T00171006
04850KAOH AOH20161229043511612/29/16 04:35:31  5-MIN KAOH 290935Z AUTO 26018G24KT 10SM CLR 02/M01 A2973 1150 85 -100 270/18G24 RMK AO2 T00171006
04850KAOH AOH20161229044011612/29/16 04:40:31  5-MIN KAOH 290940Z AUTO 26014G24KT 10SM CLR 01/M01 A2974 1150 89 -200 260/14G24 RMK AO2 T00111006
04850KAOH AOH20161229044511012/29/16 04:45:31  5-MIN KAOH 290945Z AUTO 25015KT 10SM CLR 01/M01 A2974 1140 89 -200 260/15 RMK AO2 T00111006
04850KAOH AOH20161229045011712/29/16 04:50:31  5-MIN KAOH 290950Z AUTO 24012KT 10SM CLR 01/M01 A2975 1140 89 -200 250/12 RMK AO2 SLP080 T00111006
04850KAOH AOH20161229045511012/29/16 04:55:31  5-MIN KAOH 290955Z AUTO 25014KT 10SM CLR 01/M01 A2975 1140 85 -200 260/14 RMK AO2 T00111011
04850KAOH AOH20161229050011012/29/16 05:00:31  5-MIN KAOH 291000Z AUTO 25012KT 10SM CLR 01/M01 A2974 1140 85 -200 250/12 RMK AO2 T00111011
04850KAOH AOH20161229050511012/29/16 05:05:31  5-MIN KAOH 291005Z AUTO 25011KT 10SM CLR 01/M01 A2974 1140 85 -200 260/11 RMK AO2 T00111011
04850KAOH AOH20161229051011012/29/16 05:10:31  5-MIN KAOH 291010Z AUTO 25013KT 10SM CLR 01/M01 A2974 1140 85 -200 260/13 RMK AO2 T00111011
04850KAOH AOH20161229051511012/29/16 05:15:31  5-MIN KAOH 291015Z AUTO 25013KT 10SM CLR 01/M01 A2974 1140 85 -200 260/13 RMK AO2 T00111011
04850KAOH AOH20161229052011012/29/16 05:20:31  5-MIN KAOH 291020Z AUTO 26013KT 10SM CLR 01/M01 A2974 1140 85 -200 260/13 RMK AO2 T00111011
04850KAOH AOH20161229052511012/29/16 05:25:31  5-MIN KAOH 291025Z AUTO 26013KT 10SM CLR 01/M01 A2974 1140 85 -200 260/13 RMK AO2 T00111011
04850KAOH AOH20161229053011012/29/16 05:30:31  5-MIN KAOH 291030Z AUTO 26015KT 10SM CLR 01/M01 A2974 1140 89 -300 260/15 RMK AO2 T00061011
04850KAOH AOH20161229053511012/29/16 05:35:31  5-MIN KAOH 291035Z AUTO 26015KT 10SM CLR 01/M01 A2974 1140 89 -300 270/15 RMK AO2 T00061011
04850KAOH AOH20161229054011012/29/16 05:40:31  5-MIN KAOH 291040Z AUTO 26014KT 10SM CLR 01/M01 A2974 1150 89 -200 270/14 RMK AO2 T00061011
04850KAOH AOH20161229054511012/29/16 05:45:31  5-MIN KAOH 291045Z AUTO 26015KT 10SM CLR 01/M01 A2974 1140 89 -200 270/15 RMK AO2 T00061011
04850KAOH AOH20161229055011712/29/16 05:50:31  5-MIN KAOH 291050Z AUTO 26014KT 10SM CLR 01/M01 A2974 1140 89 -200 270/14 RMK AO2 SLP079 T00061011
04850KAOH AOH20161229055511012/29/16 05:55:31  5-MIN KAOH 291055Z AUTO 26014KT 10SM CLR 01/M01 A2974 1140 89 -300 270/14 RMK AO2 T00061011
04850KAOH AOH20161229060011012/29/16 06:00:31  5-MIN KAOH 291100Z AUTO 26015KT 10SM CLR 01/M02 A2974 1140 85 -300 260/15 RMK AO2 T00061017
04850KAOH AOH20161229060511012/29/16 06:05:31  5-MIN KAOH 291105Z AUTO 26015KT 10SM CLR 01/M02 A2974 1140 85 -300 260/15 RMK AO2 T00061017
04850KAOH AOH20161229061011012/29/16 06:10:31  5-MIN KAOH 291110Z AUTO 26015KT 10SM CLR 01/M02 A2974 1140 85 -300 270/15 RMK AO2 T00061017
04850KAOH AOH20161229061511012/29/16 06:15:31  5-MIN KAOH 291115Z AUTO 26013KT 10SM CLR 01/M02 A2974 1140 85 -300 260/13 RMK AO2 T00061017
04850KAOH AOH20161229062011012/29/16 06:20:31  5-MIN KAOH 291120Z AUTO 26015KT 10SM CLR 01/M02 A2975 1140 85 -300 260/15 RMK AO2 T00061017
04850KAOH AOH20161229062511012/29/16 06:25:31  5-MIN KAOH 291125Z AUTO 25013KT 10SM CLR 01/M02 A2975 1140 85 -300 260/13 RMK AO2 T00061017
04850KAOH AOH20161229063011312/29/16 06:30:31  5-MIN KAOH 291130Z AUTO 26013KT 10SM FEW020 01/M02 A2975 1140 85 -300 260/13 RMK AO2 T00061017
04850KAOH AOH20161229063511312/29/16 06:35:31  5-MIN KAOH 291135Z AUTO 25013KT 10SM SCT022 00/M02 A2975 1140 88 -300 260/13 RMK AO2 T00001017
04850KAOH AOH20161229064011312/29/16 06:40:31  5-MIN KAOH 291140Z AUTO 26012KT 10SM BKN022 00/M02 A2975 1140 88 -300 260/12 RMK AO2 T00001017
04850KAOH AOH20161229064511312/29/16 06:45:31  5-MIN KAOH 291145Z AUTO 26013KT 10SM BKN020 01/M02 A2975 1130 85 -300 260/13 RMK AO2 T00061017
04850KAOH AOH20161229065013812/29/16 06:50:31  5-MIN KAOH 291150Z AUTO 26014KT 10SM BKN020 01/M01 A2975 1130 89 -300 270/14 RMK AO2 SLP083 T00061011 10028 20000 55002
04850KAOH AOH20161229065511312/29/16 06:55:31  5-MIN KAOH 291155Z AUTO 25014KT 10SM OVC020 01/M01 A2976 1130 89 -300 260/14 RMK AO2 T00061011
04850KAOH AOH20161229070011312/29/16 07:00:31  5-MIN KAOH 291200Z AUTO 26014KT 10SM OVC020 01/M01 A2976 1130 89 -300 270/14 RMK AO2 T00061011
04850KAOH AOH20161229070511312/29/16 07:05:31  5-MIN KAOH 291205Z AUTO 26013KT 10SM OVC020 01/M01 A2976 1130 89 -300 260/13 RMK AO2 T00061011
04850KAOH AOH20161229071011312/29/16 07:10:31  5-MIN KAOH 291210Z AUTO 26013KT 10SM OVC020 01/M01 A2976 1130 89 -300 260/13 RMK AO2 T00061011
04850KAOH AOH20161229071511912/29/16 07:15:31  5-MIN KAOH 291215Z AUTO 26016G22KT 10SM OVC020 01/M02 A2976 1120 85 -300 270/16G22 RMK AO2 T00061017
04850KAOH AOH20161229072011912/29/16 07:20:31  5-MIN KAOH 291220Z AUTO 27014G22KT 10SM OVC018 01/M02 A2977 1120 85 -300 270/14G22 RMK AO2 T00061017
04850KAOH AOH20161229072511912/29/16 07:25:31  5-MIN KAOH 291225Z AUTO 26021G25KT 10SM OVC018 01/M02 A2976 1120 85 -300 270/21G25 RMK AO2 T00061017
04850KAOH AOH20161229073011912/29/16 07:30:31  5-MIN KAOH 291230Z AUTO 27019G25KT 10SM OVC018 01/M02 A2976 1120 85 -300 270/19G25 RMK AO2 T00061017
04850KAOH AOH20161229073511912/29/16 07:35:31  5-MIN KAOH 291235Z AUTO 28017G25KT 10SM OVC018 01/M02 A2977 1120 85 -300 290/17G25 RMK AO2 T00061017
04850KAOH AOH20161229074011912/29/16 07:40:31  5-MIN KAOH 291240Z AUTO 28018G25KT 10SM OVC018 01/M02 A2977 1120 85 -300 280/18G25 RMK AO2 T00061017
04850KAOH AOH20161229074511912/29/16 07:45:31  5-MIN KAOH 291245Z AUTO 28015G24KT 10SM OVC016 01/M02 A2977 1120 85 -300 280/15G24 RMK AO2 T00061017
04850KAOH AOH20161229075012612/29/16 07:50:31  5-MIN KAOH 291250Z AUTO 28017G23KT 10SM OVC016 01/M02 A2977 1110 85 -300 290/17G23 RMK AO2 SLP089 T00061017
04850KAOH AOH20161229075514412/29/16 07:55:31  5-MIN KAOH 291255Z AUTO 27019G26KT 10SM BKN016 OVC024 01/M02 A2977 1120 85 -300 280/19G26 RMK AO2 PK WND 28026/1255 T00061017
04850KAOH AOH20161229080014412/29/16 08:00:31  5-MIN KAOH 291300Z AUTO 27018G26KT 10SM BKN016 OVC024 01/M02 A2977 1120 85 -300 270/18G26 RMK AO2 PK WND 28026/1255 T00061017
04850KAOH AOH20161229080513812/29/16 08:05:31  5-MIN KAOH 291305Z AUTO 26017KT 10SM BKN016 OVC024 01/M02 A2977 1120 85 -300 270/17 RMK AO2 PK WND 28026/1255 T00061017
04850KAOH AOH20161229081013812/29/16 08:10:31  5-MIN KAOH 291310Z AUTO 26017KT 10SM SCT017 OVC025 01/M02 A2977 1120 85 -300 270/17 RMK AO2 PK WND 28026/1255 T00061017
04850KAOH AOH20161229081513812/29/16 08:15:31  5-MIN KAOH 291315Z AUTO 27019KT 10SM FEW017 OVC025 01/M02 A2977 1120 85 -300 270/19 RMK AO2 PK WND 28026/1255 T00061017
04850KAOH AOH20161229082013112/29/16 08:20:31  5-MIN KAOH 291320Z AUTO 27018KT 10SM OVC025 01/M02 A2977 1120 82 -300 270/18 RMK AO2 PK WND 28026/1255 T00061022
04850KAOH AOH20161229082513712/29/16 08:25:31  5-MIN KAOH 291325Z AUTO 27017G25KT 10SM OVC025 01/M02 A2977 1110 85 -300 270/17G25 RMK AO2 PK WND 28026/1255 T00061017
04850KAOH AOH20161229083013112/29/16 08:30:31  5-MIN KAOH 291330Z AUTO 27017KT 10SM OVC024 01/M02 A2977 1110 82 -300 270/17 RMK AO2 PK WND 28026/1255 T00061022
04850KAOH AOH20161229083513712/29/16 08:35:31  5-MIN KAOH 291335Z AUTO 27015G26KT 10SM OVC024 01/M02 A2978 1110 82 -300 280/15G26 RMK AO2 PK WND 27026/1332 T00061022
04850KAOH AOH20161229084013712/29/16 08:40:31  5-MIN KAOH 291340Z AUTO 27017G26KT 10SM OVC024 01/M02 A2978 1110 85 -300 280/17G26 RMK AO2 PK WND 27026/1332 T00061017
04850KAOH AOH20161229084513112/29/16 08:45:31  5-MIN KAOH 291345Z AUTO 27017KT 10SM OVC024 01/M02 A2978 1110 82 -300 270/17 RMK AO2 PK WND 27026/1332 T00061022
04850KAOH AOH20161229085014412/29/16 08:50:31  5-MIN KAOH 291350Z AUTO 27017G23KT 10SM OVC023 01/M02 A2978 1110 85 -300 270/17G23 RMK AO2 PK WND 27026/1332 SLP092 T00061017
04850KAOH AOH20161229085511912/29/16 08:55:31  5-MIN KAOH 291355Z AUTO 27017G23KT 10SM OVC023 01/M02 A2978 1110 82 -300 270/17G23 RMK AO2 T00061022
04850KAOH AOH20161229090011312/29/16 09:00:31  5-MIN KAOH 291400Z AUTO 27017KT 10SM OVC023 01/M02 A2978 1100 82 -300 270/17 RMK AO2 T00061022
04850KAOH AOH20161229090511912/29/16 09:05:31  5-MIN KAOH 291405Z AUTO 27020G25KT 10SM OVC023 01/M02 A2978 1100 82 -300 270/20G25 RMK AO2 T00061022
04850KAOH AOH20161229091013712/29/16 09:10:31  5-MIN KAOH 291410Z AUTO 26018G27KT 10SM OVC025 01/M02 A2979 1100 82 -300 270/18G27 RMK AO2 PK WND 27027/1406 T00061022
04850KAOH AOH20161229091513712/29/16 09:15:31  5-MIN KAOH 291415Z AUTO 26019G27KT 10SM OVC025 01/M02 A2979 1100 82 -300 270/19G27 RMK AO2 PK WND 27027/1406 T00061022
04850KAOH AOH20161229092013712/29/16 09:20:31  5-MIN KAOH 291420Z AUTO 27017G25KT 10SM OVC025 01/M02 A2979 1100 82 -300 270/17G25 RMK AO2 PK WND 27027/1406 T00061022
04850KAOH AOH20161229092513712/29/16 09:25:31  5-MIN KAOH 291425Z AUTO 26017G25KT 10SM OVC025 01/M02 A2979 1100 82 -300 270/17G25 RMK AO2 PK WND 27027/1406 T00061022
04850KAOH AOH20161229093013112/29/16 09:30:31  5-MIN KAOH 291430Z AUTO 27017KT 10SM OVC026 01/M02 A2979 1100 82 -300 270/17 RMK AO2 PK WND 27027/1406 T00061022
04850KAOH AOH20161229093513112/29/16 09:35:31  5-MIN KAOH 291435Z AUTO 26018KT 10SM OVC026 01/M02 A2979 1090 82 -300 270/18 RMK AO2 PK WND 27027/1406 T00061022
04850KAOH AOH20161229094013712/29/16 09:40:31  5-MIN KAOH 291440Z AUTO 27019G24KT 10SM OVC026 01/M02 A2980 1090 82 -300 270/19G24 RMK AO2 PK WND 27027/1406 T00061022
04850KAOH AOH20161229094514412/29/16 09:45:31  5-MIN KAOH 291445Z AUTO 27018G24KT 10SM SCT021 OVC028 01/M02 A2980 1090 82 -300 270/18G24 RMK AO2 PK WND 27027/1406 T00061022
04850KAOH AOH20161229095015112/29/16 09:50:31  5-MIN KAOH 291450Z AUTO 27020KT 10SM SCT021 OVC028 01/M02 A2980 1090 82 -300 270/20 RMK AO2 PK WND 27027/1406 SLP099 T00061022 53005
04850KAOH AOH20161229095512012/29/16 09:55:31  5-MIN KAOH 291455Z AUTO 26019KT 10SM SCT021 OVC028 01/M02 A2980 1090 82 -300 270/19 RMK AO2 T00061022
04850KAOH AOH20161229100012612/29/16 10:00:31  5-MIN KAOH 291500Z AUTO 27016G24KT 10SM SCT020 OVC028 01/M02 A2980 1090 82 -300 280/16G24 RMK AO2 T00061022
04850KAOH AOH20161229100512012/29/16 10:05:31  5-MIN KAOH 291505Z AUTO 27014KT 10SM BKN020 OVC028 01/M02 A2980 1090 85 -300 270/14 RMK AO2 T00061017
04850KAOH AOH20161229101012612/29/16 10:10:31  5-MIN KAOH 291510Z AUTO 27017G22KT 10SM BKN020 OVC028 01/M02 A2981 1080 85 -300 280/17G22 RMK AO2 T00061017
04850KAOH AOH20161229101512612/29/16 10:15:31  5-MIN KAOH 291515Z AUTO 26014G22KT 10SM BKN020 OVC027 01/M02 A2981 1080 82 -300 270/14G22 RMK AO2 T00061022
04850KAOH AOH20161229102012012/29/16 10:20:31  5-MIN KAOH 291520Z AUTO 26013KT 10SM BKN020 OVC027 01/M02 A2981 1080 85 -300 270/13 RMK AO2 T00061017
04850KAOH AOH20161229102511312/29/16 10:25:31  5-MIN KAOH 291525Z AUTO 27019KT 10SM OVC018 01/M02 A2981 1080 85 -300 270/19 RMK AO2 T00061017
04850KAOH AOH20161229103011312/29/16 10:30:31  5-MIN KAOH 291530Z AUTO 28020KT 10SM OVC018 01/M02 A2981 1080 82 -300 280/20 RMK AO2 T00061022
04850KAOH AOH20161229103511312/29/16 10:35:31  5-MIN KAOH 291535Z AUTO 26020KT 10SM OVC018 01/M02 A2981 1080 82 -300 270/20 RMK AO2 T00061022
04850KAOH AOH20161229104013712/29/16 10:40:31  5-MIN KAOH 291540Z AUTO 27018G26KT 10SM OVC019 01/M02 A2981 1080 82 -300 270/18G26 RMK AO2 PK WND 26026/1540 T00061022
04850KAOH AOH20161229104513712/29/16 10:45:31  5-MIN KAOH 291545Z AUTO 27015G26KT 10SM OVC019 01/M02 A2981 1080 85 -300 270/15G26 RMK AO2 PK WND 26026/1540 T00061017
04850KAOH AOH20161229105014412/29/16 10:50:31  5-MIN KAOH 291550Z AUTO 27019G25KT 10SM OVC019 01/M02 A2981 1080 82 -300 270/19G25 RMK AO2 PK WND 26026/1540 SLP103 T00111017
04850KAOH AOH20161229105513712/29/16 10:55:31  5-MIN KAOH 291555Z AUTO 26023G26KT 10SM OVC019 01/M02 A2981 1080 82 -300 260/23G26 RMK AO2 PK WND 25026/1554 T00111017
04850KAOH AOH20161229110013712/29/16 11:00:31  5-MIN KAOH 291600Z AUTO 26020G29KT 10SM OVC019 01/M02 A2981 1080 78 -300 270/20G29 RMK AO2 PK WND 26029/1600 T00111022
04850KAOH AOH20161229110513712/29/16 11:05:31  5-MIN KAOH 291605Z AUTO 26016G29KT 10SM OVC019 01/M02 A2981 1080 82 -300 270/16G29 RMK AO2 PK WND 26029/1600 T00111017
04850KAOH AOH20161229111013712/29/16 11:10:31  5-MIN KAOH 291610Z AUTO 27018G23KT 10SM BKN019 01/M02 A2981 1080 82 -300 280/18G23 RMK AO2 PK WND 26029/1600 T00111017
04850KAOH AOH20161229111513712/29/16 11:15:31  5-MIN KAOH 291615Z AUTO 27018G23KT 10SM BKN019 01/M02 A2981 1080 82 -300 270/18G23 RMK AO2 PK WND 26029/1600 T00111017
04850KAOH AOH20161229112013712/29/16 11:20:31  5-MIN KAOH 291620Z AUTO 26022G25KT 10SM BKN019 02/M02 A2981 1080 78 -200 260/22G25 RMK AO2 PK WND 26029/1600 T00171017
04850KAOH AOH20161229112513112/29/16 11:25:31  5-MIN KAOH 291625Z AUTO 26020KT 10SM BKN019 01/M02 A2981 1080 78 -300 270/20 RMK AO2 PK WND 26029/1600 T00111022
04850KAOH AOH20161229113013112/29/16 11:30:31  5-MIN KAOH 291630Z AUTO 26020KT 10SM BKN019 02/M02 A2980 1080 78 -200 260/20 RMK AO2 PK WND 26029/1600 T00171017
04850KAOH AOH20161229113513712/29/16 11:35:31  5-MIN KAOH 291635Z AUTO 25016G25KT 10SM BKN019 02/M02 A2980 1090 78 -200 260/16G25 RMK AO2 PK WND 26029/1600 T00171017
04850KAOH AOH20161229114013112/29/16 11:40:31  5-MIN KAOH 291640Z AUTO 25017KT 10SM BKN019 02/M01 A2980 1090 78 -100 260/17 RMK AO2 PK WND 26029/1600 T00221011
04850KAOH AOH20161229114513112/29/16 11:45:31  5-MIN KAOH 291645Z AUTO 26016KT 10SM SCT019 02/M02 A2980 1090 78 -200 270/16 RMK AO2 PK WND 26029/1600 T00171017
04850KAOH AOH20161229115013812/29/16 11:50:31  5-MIN KAOH 291650Z AUTO 26016KT 10SM FEW019 02/M02 A2980 1090 78 -200 260/16 RMK AO2 PK WND 26029/1600 SLP099 T00171017
04850KAOH AOH20161229115511312/29/16 11:55:31  5-MIN KAOH 291655Z AUTO 26018KT 10SM FEW019 02/M02 A2980 1090 75 -100 270/18 RMK AO2 T00221017
04850KAOH AOH20161229120011912/29/16 12:00:31  5-MIN KAOH 291700Z AUTO 26014G22KT 10SM FEW019 02/M01 A2980 1090 78 -100 270/14G22 RMK AO2 T00221011
04850KAOH AOH20161229120511612/29/16 12:05:31  5-MIN KAOH 291705Z AUTO 26018G23KT 10SM FEW019 03/M01 A2980 1090 79 0 270/18G23 RMK AO2 T00281006
04850KAOH AOH20161229121011012/29/16 12:10:31  5-MIN KAOH 291710Z AUTO 26017KT 10SM FEW019 03/M01 A2979 1090 75 0 260/17 RMK AO2 T00281011
04850KAOH AOH20161229121511612/29/16 12:15:31  5-MIN KAOH 291715Z AUTO 26017G23KT 10SM FEW019 03/M01 A2979 1100 75 0 260/17G23 RMK AO2 T00281011
04850KAOH AOH20161229122011612/29/16 12:20:31  5-MIN KAOH 291720Z AUTO 26018G22KT 10SM FEW021 03/M01 A2979 1100 76 0 260/18G22 RMK AO2 T00331006
04850KAOH AOH20161229122511012/29/16 12:25:31  5-MIN KAOH 291725Z AUTO 25020KT 10SM SCT021 03/M01 A2979 1100 76 0 250/20 RMK AO2 T00331006
04850KAOH AOH20161229123011012/29/16 12:30:31  5-MIN KAOH 291730Z AUTO 26018KT 10SM SCT021 03/M01 A2979 1100 75 0 260/18 RMK AO2 T00281011
04850KAOH AOH20161229123511012/29/16 12:35:31  5-MIN KAOH 291735Z AUTO 25016KT 10SM SCT021 03/M01 A2979 1100 72 0 250/16 RMK AO2 T00331011
04850KAOH AOH20161229124011012/29/16 12:40:31  5-MIN KAOH 291740Z AUTO 25016KT 10SM FEW021 03/M01 A2978 1100 72 0 260/16 RMK AO2 T00331011
04850KAOH AOH20161229124511012/29/16 12:45:31  5-MIN KAOH 291745Z AUTO 25020KT 10SM FEW021 03/M01 A2978 1110 72 0 260/20 RMK AO2 T00331011
04850KAOH AOH20161229125014312/29/16 12:50:31  5-MIN KAOH 291750Z AUTO 25020G25KT 10SM FEW021 04/M01 A2978 1110 70 100 250/20G25 RMK AO2 SLP091 T00391011 10039 20006 53015
04850KAOH AOH20161229125511312/29/16 12:55:31  5-MIN KAOH 291755Z AUTO 24014G25KT 10SM CLR 03/M02 A2977 1110 70 0 250/14G25 RMK AO2 T00331017
04850KAOH AOH20161229130011512/29/16 13:00:31  5-MIN KAOH 291800Z AUTO 25018G23KT 10SM CLR 04/M02 A2977 1120 67 100 260/18G23 RMK AO2 T00391017
04850KAOH AOH20161229130511512/29/16 13:05:31  5-MIN KAOH 291805Z AUTO 26018G23KT 10SM CLR 04/M01 A2977 1120 70 100 260/18G23 RMK AO2 T00391011
04850KAOH AOH20161229131011512/29/16 13:10:31  5-MIN KAOH 291810Z AUTO 25017G22KT 10SM CLR 04/M02 A2977 1120 67 100 250/17G22 RMK AO2 T00391017
04850KAOH AOH20161229131510912/29/16 13:15:31  5-MIN KAOH 291815Z AUTO 25019KT 10SM CLR 04/M02 A2976 1120 67 100 260/19 RMK AO2 T00391017
04850KAOH AOH20161229132010912/29/16 13:20:31  5-MIN KAOH 291820Z AUTO 24019KT 10SM CLR 04/M02 A2976 1130 67 100 250/19 RMK AO2 T00391017
04850KAOH AOH20161229132510912/29/16 13:25:31  5-MIN KAOH 291825Z AUTO 24017KT 10SM CLR 04/M02 A2976 1130 64 200 250/17 RMK AO2 T00441017
04850KAOH AOH20161229133010912/29/16 13:30:31  5-MIN KAOH 291830Z AUTO 24016KT 10SM CLR 04/M02 A2976 1130 64 200 240/16 RMK AO2 T00441017
04850KAOH AOH20161229133510912/29/16 13:35:31  5-MIN KAOH 291835Z AUTO 25016KT 10SM CLR 04/M02 A2976 1130 64 200 250/16 RMK AO2 T00441017
04850KAOH AOH20161229134011512/29/16 13:40:31  5-MIN KAOH 291840Z AUTO 25020G24KT 10SM CLR 04/M02 A2975 1130 64 200 250/20G24 RMK AO2 T00441017
04850KAOH AOH20161229134511512/29/16 13:45:31  5-MIN KAOH 291845Z AUTO 23015G24KT 10SM CLR 04/M02 A2975 1130 64 200 240/15G24 RMK AO2 T00441017
04850KAOH AOH20161229135011612/29/16 13:50:31  5-MIN KAOH 291850Z AUTO 23015KT 10SM CLR 05/M02 A2976 1130 62 200 240/15 RMK AO2 SLP082 T00501017
04850KAOH AOH20161229135513312/29/16 13:55:31  5-MIN KAOH 291855Z AUTO 24022G27KT 10SM CLR 04/M02 A2976 1130 64 200 250/22G27 RMK AO2 PK WND 23026/1854 T00441017
04850KAOH AOH20161229140013312/29/16 14:00:31  5-MIN KAOH 291900Z AUTO 25022G27KT 10SM CLR 04/M02 A2976 1130 64 200 250/22G27 RMK AO2 PK WND 23026/1854 T00441017
04850KAOH AOH20161229140513312/29/16 14:05:31  5-MIN KAOH 291905Z AUTO 25022G29KT 10SM CLR 04/M02 A2976 1130 64 200 250/22G29 RMK AO2 PK WND 25029/1903 T00441017
04850KAOH AOH20161229141013312/29/16 14:10:31  5-MIN KAOH 291910Z AUTO 25020G31KT 10SM CLR 04/M02 A2976 1130 64 200 260/20G31 RMK AO2 PK WND 25031/1907 T00441017
04850KAOH AOH20161229141513612/29/16 14:15:31  5-MIN KAOH 291915Z AUTO 24021G31KT 10SM SCT032 05/M01 A2976 1130 64 200 250/21G31 RMK AO2 PK WND 25031/1907 T00501011
04850KAOH AOH20161229142013612/29/16 14:20:31  5-MIN KAOH 291920Z AUTO 25021G28KT 10SM SCT032 05/M01 A2976 1130 64 200 260/21G28 RMK AO2 PK WND 25031/1907 T00501011
04850KAOH AOH20161229142513612/29/16 14:25:31  5-MIN KAOH 291925Z AUTO 25024G30KT 10SM SCT032 04/M02 A2976 1120 64 200 250/24G30 RMK AO2 PK WND 25031/1907 T00441017
04850KAOH AOH20161229143014312/29/16 14:30:31  5-MIN KAOH 291930Z AUTO 24023G30KT 10SM SCT029 SCT035 04/M01 A2976 1120 67 200 250/23G30 RMK AO2 PK WND 25031/1907 T00441011
04850KAOH AOH20161229143514312/29/16 14:35:31  5-MIN KAOH 291935Z AUTO 24023G30KT 10SM SCT029 SCT035 04/M01 A2976 1120 67 200 250/23G30 RMK AO2 PK WND 25031/1907 T00441011
04850KAOH AOH20161229144014312/29/16 14:40:31  5-MIN KAOH 291940Z AUTO 25025G31KT 10SM SCT030 BKN035 04/M01 A2976 1120 67 200 250/25G31 RMK AO2 PK WND 24031/1938 T00441011
04850KAOH AOH20161229144514312/29/16 14:45:31  5-MIN KAOH 291945Z AUTO 25022G31KT 10SM SCT030 BKN035 04/M01 A2977 1120 70 100 260/22G31 RMK AO2 PK WND 24031/1938 T00391011
04850KAOH AOH20161229145015012/29/16 14:50:31  5-MIN KAOH 291950Z AUTO 25022G31KT 10SM SCT030 BKN035 04/M01 A2977 1120 70 100 260/22G31 RMK AO2 PK WND 24031/1938 SLP087 T00391011
04850KAOH AOH20161229145511912/29/16 14:55:31  5-MIN KAOH 291955Z AUTO 27022KT 10SM SCT030 SCT035 04/M01 A2977 1120 70 100 280/22 RMK AO2 T00391011
04850KAOH AOH20161229150013612/29/16 15:00:31  5-MIN KAOH 292000Z AUTO 26024G30KT 10SM SCT030 04/M02 A2977 1110 67 100 270/24G30 RMK AO2 PK WND 26030/1959 T00391017
04850KAOH AOH20161229150513612/29/16 15:05:31  5-MIN KAOH 292005Z AUTO 27022G30KT 10SM SCT029 04/M02 A2978 1110 67 100 280/22G30 RMK AO2 PK WND 26030/1959 T00391017
04850KAOH AOH20161229151013412/29/16 15:10:31  5-MIN KAOH 292010Z AUTO 26019G27KT 10SM FEW029 03/M02 A2978 1110 70 0 260/19G27 RMK AO2 PK WND 26030/1959 T00331017
04850KAOH AOH20161229151513412/29/16 15:15:31  5-MIN KAOH 292015Z AUTO 26024G30KT 10SM SCT029 03/M02 A2978 1110 70 0 260/24G30 RMK AO2 PK WND 26030/2013 T00331017
04850KAOH AOH20161229152013412/29/16 15:20:31  5-MIN KAOH 292020Z AUTO 26025G32KT 10SM SCT029 03/M02 A2978 1110 67 0 260/25G32 RMK AO2 PK WND 27032/2016 T00331022
04850KAOH AOH20161229152513412/29/16 15:25:31  5-MIN KAOH 292025Z AUTO 26024G32KT 10SM FEW029 03/M02 A2978 1110 69 0 260/24G32 RMK AO2 PK WND 27032/2016 T00281022
04850KAOH AOH20161229153013412/29/16 15:30:31  5-MIN KAOH 292030Z AUTO 26024G32KT 10SM FEW029 03/M03 A2979 1100 67 0 270/24G32 RMK AO2 PK WND 27032/2016 T00281028
04850KAOH AOH20161229153513412/29/16 15:35:31  5-MIN KAOH 292035Z AUTO 26021G30KT 10SM FEW030 03/M02 A2978 1100 69 0 270/21G30 RMK AO2 PK WND 27032/2016 T00281022
04850KAOH AOH20161229154012812/29/16 15:40:31  5-MIN KAOH 292040Z AUTO 26024KT 10SM FEW028 03/M02 A2979 1100 67 0 270/24 RMK AO2 PK WND 27032/2016 T00331022
04850KAOH AOH20161229154513412/29/16 15:45:31  5-MIN KAOH 292045Z AUTO 26018G31KT 10SM FEW030 03/M02 A2979 1100 67 0 270/18G31 RMK AO2 PK WND 27032/2016 T00331022
04850KAOH AOH20161229155014712/29/16 15:50:31  5-MIN KAOH 292050Z AUTO 26024G35KT 10SM SCT032 03/M02 A2980 1090 69 0 270/24G35 RMK AO2 PK WND 27035/2048 SLP097 T00281022 58012
04850KAOH AOH20161229155513412/29/16 15:55:31  5-MIN KAOH 292055Z AUTO 26024G35KT 10SM SCT032 03/M02 A2980 1090 69 0 270/24G35 RMK AO2 PK WND 25031/2055 T00281022
04850KAOH AOH20161229160013412/29/16 16:00:31  5-MIN KAOH 292100Z AUTO 27026G36KT 10SM BKN032 03/M02 A2980 1090 69 0 270/26G36 RMK AO2 PK WND 27036/2100 T00281022
04850KAOH AOH20161229160513712/29/16 16:05:31  5-MIN KAOH 292105Z AUTO 27028G39KT 10SM BKN032 02/M03 A2981 1080 69 -100 280/28G39 RMK AO2 PK WND 27039/2102 T00221028
04850KAOH AOH20161229161014412/29/16 16:10:31  5-MIN KAOH 292110Z AUTO 26026G39KT 10SM BKN030 OVC036 02/M03 A2981 1080 69 -100 270/26G39 RMK AO2 PK WND 27039/2102 T00221028
04850KAOH AOH20161229161514412/29/16 16:15:31  5-MIN KAOH 292115Z AUTO 27029G37KT 10SM BKN030 OVC036 02/M03 A2981 1080 69 -100 280/29G37 RMK AO2 PK WND 27039/2102 T00221028
04850KAOH AOH20161229162013712/29/16 16:20:31  5-MIN KAOH 292120Z AUTO 27028G37KT 10SM OVC032 02/M03 A2981 1080 69 -100 270/28G37 RMK AO2 PK WND 27039/2102 T00221028
04850KAOH AOH20161229162513712/29/16 16:25:31  5-MIN KAOH 292125Z AUTO 27025G34KT 10SM OVC032 02/M03 A2981 1080 69 -100 280/25G34 RMK AO2 PK WND 27039/2102 T00221028
04850KAOH AOH20161229163013712/29/16 16:30:31  5-MIN KAOH 292130Z AUTO 27023G34KT 10SM OVC032 02/M03 A2982 1070 72 -200 270/23G34 RMK AO2 PK WND 27039/2102 T00171028
04850KAOH AOH20161229163514412/29/16 16:35:31  5-MIN KAOH 292135Z AUTO 27021G30KT 10SM BKN029 OVC035 02/M03 A2982 1070 72 -200 270/21G30 RMK AO2 PK WND 27039/2102 T00171028
04850KAOH AOH20161229164014412/29/16 16:40:31  5-MIN KAOH 292140Z AUTO 26025G33KT 10SM BKN028 OVC034 02/M02 A2982 1070 75 -200 270/25G33 RMK AO2 PK WND 27039/2102 T00171022
04850KAOH AOH20161229164514412/29/16 16:45:31  5-MIN KAOH 292145Z AUTO 27019G33KT 10SM BKN028 OVC033 02/M03 A2981 1080 72 -200 270/19G33 RMK AO2 PK WND 27039/2102 T00171028
04850KAOH AOH20161229165015112/29/16 16:50:31  5-MIN KAOH 292150Z AUTO 27026G33KT 10SM BKN028 OVC033 02/M03 A2982 1070 72 -200 280/26G33 RMK AO2 PK WND 27039/2102 SLP105 T00171028
04850KAOH AOH20161229165513712/29/16 16:55:31  5-MIN KAOH 292155Z AUTO 26022G33KT 10SM OVC028 02/M03 A2982 1070 72 -200 270/22G33 RMK AO2 PK WND 26028/2155 T00171028
04850KAOH AOH20161229170013712/29/16 17:00:31  5-MIN KAOH 292200Z AUTO 27021G32KT 10SM OVC028 02/M03 A2982 1070 72 -200 270/21G32 RMK AO2 PK WND 26028/2155 T00171028
04850KAOH AOH20161229170513712/29/16 17:05:31  5-MIN KAOH 292205Z AUTO 26025G32KT 10SM OVC028 02/M03 A2982 1070 72 -200 270/25G32 RMK AO2 PK WND 27032/2205 T00171028
04850KAOH AOH20161229171013712/29/16 17:10:31  5-MIN KAOH 292210Z AUTO 26023G32KT 10SM OVC028 01/M03 A2982 1070 75 -300 260/23G32 RMK AO2 PK WND 27032/2205 T00111028
04850KAOH AOH20161229171513712/29/16 17:15:31  5-MIN KAOH 292215Z AUTO 26025G32KT 10SM OVC028 01/M03 A2982 1070 75 -300 260/25G32 RMK AO2 PK WND 25032/2215 T00111028
04850KAOH AOH20161229172014412/29/16 17:20:31  5-MIN KAOH 292220Z AUTO 26021G32KT 10SM BKN028 OVC035 01/M03 A2982 1070 75 -300 270/21G32 RMK AO2 PK WND 25032/2215 T00111028
04850KAOH AOH20161229172514412/29/16 17:25:31  5-MIN KAOH 292225Z AUTO 27024G32KT 10SM BKN027 OVC037 01/M03 A2982 1070 75 -300 270/24G32 RMK AO2 PK WND 28032/2224 T00111028
04850KAOH AOH20161229173015112/29/16 17:30:31  5-MIN KAOH 292230Z AUTO 27021G32KT 10SM SCT025 BKN030 OVC043 01/M03 A2982 1070 75 -300 270/21G32 RMK AO2 PK WND 28032/2224 T00111028
04850KAOH AOH20161229173516712/29/16 17:35:31  5-MIN KAOH 292235Z AUTO 26027G35KT 10SM -SN SCT025 BKN030 OVC045 01/M02 A2983 1060 78 -300 260/27G35 RMK AO2 PK WND 26035/2235 SNB32 P0000 T00111022
04850KAOH AOH20161229174016612/29/16 17:40:31  5-MIN KAOH 292240Z AUTO 26026G35KT 9SM -SN SCT024 BKN030 OVC048 01/M03 A2983 1060 78 -400 270/26G35 RMK AO2 PK WND 26035/2235 SNB32 P0000 T00061028
04850KAOH AOH20161229174516612/29/16 17:45:31  5-MIN KAOH 292245Z AUTO 26023G35KT 7SM -SN SCT022 BKN035 OVC046 01/M03 A2983 1060 78 -400 270/23G35 RMK AO2 PK WND 26035/2235 SNB32 P0000 T00061028
04850KAOH AOH20161229175017312/29/16 17:50:31  5-MIN KAOH 292250Z AUTO 26020G31KT 6SM -SN SCT022 BKN030 OVC044 01/M03 A2983 1060 78 -400 260/20G31 RMK AO2 PK WND 26035/2235 SNB32 SLP111 P0000 T00061028
04850KAOH AOH20161229175516012/29/16 17:55:31  5-MIN KAOH 292255Z AUTO 27028G34KT 6SM -SN SCT020 BKN027 OVC046 00/M03 A2983 1060 81 -400 280/28G34 RMK AO2 PK WND 27034/2255 P0000 T00001028
04850KAOH AOH20161229180016012/29/16 18:00:31  5-MIN KAOH 292300Z AUTO 27023G34KT 6SM -SN SCT020 BKN032 OVC046 00/M03 A2983 1060 81 -400 270/23G34 RMK AO2 PK WND 27034/2255 P0000 T00001028
04850KAOH AOH20161229180516012/29/16 18:05:31  5-MIN KAOH 292305Z AUTO 27024G34KT 7SM -SN SCT020 BKN027 OVC046 00/M03 A2984 1060 81 -400 280/24G34 RMK AO2 PK WND 27034/2255 P0000 T00001028
04850KAOH AOH20161229181016012/29/16 18:10:31  5-MIN KAOH 292310Z AUTO 27026G32KT 9SM -SN SCT020 BKN027 OVC044 00/M03 A2984 1050 78 -400 270/26G32 RMK AO2 PK WND 27034/2255 P0000 T00001033
04850KAOH AOH20161229181516012/29/16 18:15:31  5-MIN KAOH 292315Z AUTO 28028G35KT 9SM -SN FEW018 BKN025 OVC033 00/M03 A2984 1050 78 -400 280/28G35 RMK AO2 PK WND 28035/2315 P0000 T00001033
04850KAOH AOH20161229182014612/29/16 18:20:31  5-MIN KAOH 292320Z AUTO 27022G35KT 9SM -SN OVC025 00/M03 A2984 1050 78 -400 280/22G35 RMK AO2 PK WND 28035/2315 P0000 T00001033
04850KAOH AOH20161229182515312/29/16 18:25:31  5-MIN KAOH 292325Z AUTO 27021G33KT 9SM -SN BKN025 OVC032 00/M03 A2984 1050 78 -400 270/21G33 RMK AO2 PK WND 28035/2315 P0000 T00001033
04850KAOH AOH20161229183015312/29/16 18:30:31  5-MIN KAOH 292330Z AUTO 27022G32KT 8SM -SN BKN025 OVC031 00/M03 A2984 1050 78 -400 280/22G32 RMK AO2 PK WND 28035/2315 P0000 T00001033
04850KAOH AOH20161229183514612/29/16 18:35:31  5-MIN KAOH 292335Z AUTO 28024G33KT 8SM -SN OVC025 00/M03 A2984 1050 78 -400 280/24G33 RMK AO2 PK WND 28035/2315 P0000 T00001033
04850KAOH AOH20161229184015312/29/16 18:40:31  5-MIN KAOH 292340Z AUTO 28021G33KT 8SM -SN BKN025 OVC031 00/M03 A2984 1050 78 -400 280/21G33 RMK AO2 PK WND 28035/2315 P0000 T00001033
04850KAOH AOH20161229184515312/29/16 18:45:31  5-MIN KAOH 292345Z AUTO 27020G30KT 8SM -SN BKN022 OVC028 00/M03 A2984 1050 78 -400 280/20G30 RMK AO2 PK WND 28035/2315 P0000 T00001033
04850KAOH AOH20161229185019112/29/16 18:50:31  5-MIN KAOH 292350Z AUTO 27021G28KT 7SM -SN BKN020 BKN026 OVC033 00/M03 A2985 1050 78 -400 280/21G28 RMK AO2 PK WND 28035/2315 SLP116 P0000 60000 T00001033 10050 20000 53008
04850KAOH AOH20161229185515712/29/16 18:55:31  5-MIN KAOH 292355Z AUTO 27022G28KT 6SM -SN BR BKN020 OVC029 M01/M03 A2985 1050 85 -500 270/22G28 RMK AO2 PK WND 26027/2355 P0000 T10061028
04850KAOH AOH20161229190015712/29/16 19:00:31  5-MIN KAOH 300000Z AUTO 27022G27KT 5SM -SN BR BKN020 OVC029 M01/M03 A2985 1040 85 -500 280/22G27 RMK AO2 PK WND 26027/2355 P0000 T10061028
04850KAOH AOH20161229190515712/29/16 19:05:31  5-MIN KAOH 300005Z AUTO 27021G27KT 5SM -SN BR BKN018 OVC025 M01/M03 A2985 1040 85 -500 280/21G27 RMK AO2 PK WND 28027/0003 P0000 T10061028
04850KAOH AOH20161229191015712/29/16 19:10:31  5-MIN KAOH 300010Z AUTO 27019G28KT 4SM -SN BR BKN018 OVC025 M01/M03 A2985 1040 85 -500 280/19G28 RMK AO2 PK WND 26028/0010 P0000 T10061028
04850KAOH AOH20161229191515712/29/16 19:15:31  5-MIN KAOH 300015Z AUTO 27022G28KT 4SM -SN BR BKN018 OVC023 M01/M03 A2985 1040 85 -500 280/22G28 RMK AO2 PK WND 26028/0010 P0000 T10061028
04850KAOH AOH20161229192016412/29/16 19:20:31  5-MIN KAOH 300020Z AUTO 27019G26KT 5SM -SN BR BKN018 BKN023 OVC041 M01/M03 A2985 1040 85 -500 270/19G26 RMK AO2 PK WND 26028/0010 P0000 T10061028
04850KAOH AOH20161229192516112/29/16 19:25:31  5-MIN KAOH 300025Z AUTO 26020G25KT 8SM -SN BKN018 BKN023 OVC041 M01/M03 A2985 1040 85 -500 270/20G25 RMK AO2 PK WND 26028/0010 P0000 T10061028
04850KAOH AOH20161229193016112/29/16 19:30:31  5-MIN KAOH 300030Z AUTO 27019G26KT 9SM -SN BKN018 BKN023 OVC041 M01/M03 A2985 1040 85 -500 270/19G26 RMK AO2 PK WND 26028/0010 P0000 T10061028
04850KAOH AOH20161229193516312/29/16 19:35:31  5-MIN KAOH 300035Z AUTO 27018G26KT 9SM BKN018 BKN023 OVC041 M01/M03 A2985 1040 85 -500 270/18G26 RMK AO2 PK WND 26028/0010 SNE33 P0000 T10061028
04850KAOH AOH20161229194016412/29/16 19:40:31  5-MIN KAOH 300040Z AUTO 27018G26KT 10SM BKN018 BKN026 OVC032 M01/M03 A2985 1040 85 -500 270/18G26 RMK AO2 PK WND 26028/0010 SNE33 P0000 T10061028
04850KAOH AOH20161229194516412/29/16 19:45:31  5-MIN KAOH 300045Z AUTO 27019G27KT 10SM BKN018 BKN026 OVC032 M01/M03 A2985 1040 85 -500 280/19G27 RMK AO2 PK WND 26028/0010 SNE33 P0000 T10061028
04850KAOH AOH20161229195016912/29/16 19:50:31  5-MIN KAOH 300050Z AUTO 27022G27KT 10SM -SN BKN018 BKN024 OVC030 M01/M03 A2985 1040 85 -500 270/22G27 RMK AO2 PK WND 26028/0010 SLP118 P0000 T10061028
04850KAOH AOH20161229195515312/29/16 19:55:31  5-MIN KAOH 300055Z AUTO 27023G28KT 9SM -SN BKN018 OVC026 00/M03 A2985 1040 81 -400 270/23G28 RMK AO2 PK WND 27028/0054 P0000 T00001028
04850KAOH AOH20161229200015312/29/16 20:00:31  5-MIN KAOH 300100Z AUTO 28022G28KT 8SM -SN BKN020 OVC026 00/M03 A2985 1040 81 -400 280/22G28 RMK AO2 PK WND 27028/0054 P0000 T00001028
04850KAOH AOH20161229200514712/29/16 20:05:31  5-MIN KAOH 300105Z AUTO 28020KT 7SM -SN BKN020 OVC024 00/M03 A2986 1040 81 -500 280/20 RMK AO2 PK WND 27028/0054 P0000 T00001028
04850KAOH AOH20161229201014612/29/16 20:10:31  5-MIN KAOH 300110Z AUTO 27017G28KT 8SM -SN OVC020 00/M03 A2986 1040 81 -500 280/17G28 RMK AO2 PK WND 27028/0054 P0000 T00001028
04850KAOH AOH20161229201515312/29/16 20:15:31  5-MIN KAOH 300115Z AUTO 27017G28KT 9SM -SN BKN020 OVC025 00/M03 A2985 1040 81 -500 280/17G28 RMK AO2 PK WND 27028/0054 P0000 T00001028
04850KAOH AOH20161229202015312/29/16 20:20:31  5-MIN KAOH 300120Z AUTO 28021G28KT 9SM -SN BKN020 OVC025 00/M03 A2986 1040 81 -500 280/21G28 RMK AO2 PK WND 27028/0054 P0000 T00001028
04850KAOH AOH20161229202515312/29/16 20:25:31  5-MIN KAOH 300125Z AUTO 27021G30KT 7SM -SN BKN020 OVC025 00/M03 A2985 1040 81 -500 280/21G30 RMK AO2 PK WND 27030/0124 P0000 T00001028
04850KAOH AOH20161229203015312/29/16 20:30:31  5-MIN KAOH 300130Z AUTO 27021G30KT 6SM -SN BKN020 OVC025 00/M03 A2985 1040 81 -400 280/21G30 RMK AO2 PK WND 27030/0124 P0000 T00001028
04850KAOH AOH20161229203515712/29/16 20:35:31  5-MIN KAOH 300135Z AUTO 28021G25KT 5SM -SN BR BKN019 OVC025 M01/M03 A2985 1040 85 -500 280/21G25 RMK AO2 PK WND 27030/0124 P0000 T10061028
04850KAOH AOH20161229204015312/29/16 20:40:31  5-MIN KAOH 300140Z AUTO 28022G28KT 5SM -SN BKN019 OVC025 00/M03 A2985 1040 81 -400 290/22G28 RMK AO2 PK WND 27030/0124 P0000 T00001028
04850KAOH AOH20161229204515712/29/16 20:45:31  5-MIN KAOH 300145Z AUTO 27021G28KT 4SM -SN BR BKN019 OVC025 M01/M03 A2985 1040 85 -500 270/21G28 RMK AO2 PK WND 27030/0124 P0000 T10061028
04850KAOH AOH20161229205015712/29/16 20:50:31  5-MIN KAOH 300150Z AUTO 27021G27KT 3SM -SN BR OVC019 M01/M03 A2985 1040 85 -500 280/21G27 RMK AO2 PK WND 27030/0124 SLP119 P0000 T10061028
04850KAOH AOH20161229205513912/29/16 20:55:31  5-MIN KAOH 300155Z AUTO 27015G28KT 3SM -SN BR BKN019 OVC027 M01/M03 A2985 1040 85 -500 280/15G28 RMK AO2 P0000 T10061028
04850KAOH AOH20161229210013912/29/16 21:00:31  5-MIN KAOH 300200Z AUTO 27021G28KT 5SM -SN BR BKN019 OVC027 M01/M03 A2985 1040 85 -500 280/21G28 RMK AO2 P0000 T10061028
04850KAOH AOH20161229210513512/29/16 21:05:31  5-MIN KAOH 300205Z AUTO 27018G25KT 8SM -SN BKN021 OVC028 00/M03 A2986 1040 81 -500 280/18G25 RMK AO2 P0000 T00001028
04850KAOH AOH20161229211013712/29/16 21:10:31  5-MIN KAOH 300210Z AUTO 28020G25KT 9SM BKN019 OVC028 00/M03 A2986 1040 81 -500 280/20G25 RMK AO2 SNE10 P0000 T00001028
04850KAOH AOH20161229211515512/29/16 21:15:31  5-MIN KAOH 300215Z AUTO 28019G29KT 9SM BKN021 OVC028 00/M03 A2986 1040 78 -500 280/19G29 RMK AO2 PK WND 28029/0212 SNE10 P0000 T00001033
04850KAOH AOH20161229212015612/29/16 21:20:31  5-MIN KAOH 300220Z AUTO 27020G29KT 10SM BKN021 OVC028 00/M03 A2986 1040 81 -500 280/20G29 RMK AO2 PK WND 28029/0212 SNE10 P0000 T00001028
04850KAOH AOH20161229212515612/29/16 21:25:31  5-MIN KAOH 300225Z AUTO 28024G31KT 10SM BKN021 OVC027 00/M03 A2986 1040 78 -500 280/24G31 RMK AO2 PK WND 28031/0223 SNE10 P0000 T00001033
04850KAOH AOH20161229213015612/29/16 21:30:31  5-MIN KAOH 300230Z AUTO 28020G31KT 10SM BKN021 OVC027 00/M03 A2986 1040 78 -500 280/20G31 RMK AO2 PK WND 28031/0223 SNE10 P0000 T00001033
04850KAOH AOH20161229213515612/29/16 21:35:31  5-MIN KAOH 300235Z AUTO 27022G27KT 10SM BKN021 OVC027 00/M03 A2986 1040 81 -500 280/22G27 RMK AO2 PK WND 28031/0223 SNE10 P0000 T00001028
04850KAOH AOH20161229214016312/29/16 21:40:31  5-MIN KAOH 300240Z AUTO 28020G27KT 10SM -SN BKN021 OVC027 00/M03 A2986 1040 78 -500 280/20G27 RMK AO2 PK WND 28031/0223 SNE10B38 P0000 T00001033
04850KAOH AOH20161229214516212/29/16 21:45:31  5-MIN KAOH 300245Z AUTO 28019G29KT 9SM -SN BKN021 OVC027 00/M03 A2986 1040 78 -500 280/19G29 RMK AO2 PK WND 28031/0223 SNE10B38 P0000 T00001033
04850KAOH AOH20161229215018112/29/16 21:50:31  5-MIN KAOH 300250Z AUTO 28014G29KT 9SM -SN BKN021 OVC027 00/M03 A2985 1040 78 -400 290/14G29 RMK AO2 PK WND 28031/0223 SNE10B38 SLP119 P0000 60000 T00001033 52010
04850KAOH AOH20161229215514612/29/16 21:55:31  5-MIN KAOH 300255Z AUTO 28016G27KT 9SM -SN OVC023 00/M03 A2985 1040 78 -500 290/16G27 RMK AO2 PK WND 30027/0254 P0000 T00001033
04850KAOH AOH20161229220015712/29/16 22:00:31  5-MIN KAOH 300300Z AUTO 28015G27KT 9SM SCT020 OVC026 00/M03 A2985 1040 78 -400 280/15G27 RMK AO2 PK WND 30027/0254 SNE0256 P0000 T00001033
04850KAOH AOH20161229220515812/29/16 22:05:31  5-MIN KAOH 300305Z AUTO 29017G25KT 10SM BKN022 OVC028 00/M03 A2985 1040 78 -400 290/17G25 RMK AO2 PK WND 30027/0254 SNE0256 P0000 T00001033
04850KAOH AOH20161229221015812/29/16 22:10:31  5-MIN KAOH 300310Z AUTO 28019G29KT 10SM BKN025 OVC030 00/M04 A2985 1040 75 -400 290/19G29 RMK AO2 PK WND 29029/0308 SNE0256 P0000 T00001039
04850KAOH AOH20161229221515112/29/16 22:15:31  5-MIN KAOH 300315Z AUTO 29020G29KT 10SM OVC027 00/M04 A2985 1040 75 -400 290/20G29 RMK AO2 PK WND 29029/0308 SNE0256 P0000 T00001039
04850KAOH AOH20161229222015112/29/16 22:20:31  5-MIN KAOH 300320Z AUTO 28016G25KT 10SM OVC029 00/M04 A2986 1040 75 -500 290/16G25 RMK AO2 PK WND 29029/0308 SNE0256 P0000 T00001039
04850KAOH AOH20161229222515812/29/16 22:25:31  5-MIN KAOH 300325Z AUTO 27019G25KT 10SM FEW022 OVC029 00/M03 A2986 1040 78 -500 280/19G25 RMK AO2 PK WND 29029/0308 SNE0256 P0000 T00001033
04850KAOH AOH20161229223015812/29/16 22:30:31  5-MIN KAOH 300330Z AUTO 28023G28KT 10SM BKN027 OVC032 00/M04 A2986 1040 75 -500 280/23G28 RMK AO2 PK WND 29029/0308 SNE0256 P0000 T00001039
04850KAOH AOH20161229223515812/29/16 22:35:31  5-MIN KAOH 300335Z AUTO 28015G28KT 10SM BKN027 OVC032 00/M04 A2986 1030 75 -500 290/15G28 RMK AO2 PK WND 29029/0308 SNE0256 P0000 T00001039
04850KAOH AOH20161229224015112/29/16 22:40:31  5-MIN KAOH 300340Z AUTO 28015G23KT 10SM OVC027 00/M04 A2986 1030 75 -500 290/15G23 RMK AO2 PK WND 29029/0308 SNE0256 P0000 T00001039
04850KAOH AOH20161229224515812/29/16 22:45:31  5-MIN KAOH 300345Z AUTO 27015G28KT 10SM BKN027 OVC033 00/M04 A2986 1030 75 -500 280/15G28 RMK AO2 PK WND 29029/0308 SNE0256 P0000 T00001039
04850KAOH AOH20161229225016512/29/16 22:50:31  5-MIN KAOH 300350Z AUTO 28014G28KT 10SM BKN025 OVC030 00/M04 A2986 1030 75 -500 290/14G28 RMK AO2 PK WND 29029/0308 SNE0256 SLP121 P0000 T00001039
04850KAOH AOH20161229225512612/29/16 22:55:31  5-MIN KAOH 300355Z AUTO 27014G23KT 10SM BKN025 OVC035 00/M04 A2986 1030 75 -500 280/14G23 RMK AO2 T00001039
04850KAOH AOH20161229230013312/29/16 23:00:31  5-MIN KAOH 300400Z AUTO 28015G23KT 10SM BKN025 BKN030 OVC037 00/M04 A2986 1040 75 -500 280/15G23 RMK AO2 T00001039
04850KAOH AOH20161229230512712/29/16 23:05:31  5-MIN KAOH 300405Z AUTO 28017KT 10SM SCT025 BKN029 OVC044 00/M04 A2986 1040 75 -500 290/17 RMK AO2 T00001039
04850KAOH AOH20161229231012712/29/16 23:10:31  5-MIN KAOH 300410Z AUTO 27018KT 10SM FEW024 SCT029 OVC037 00/M04 A2986 1040 75 -500 280/18 RMK AO2 T00001039
04850KAOH AOH20161229231512712/29/16 23:15:31  5-MIN KAOH 300415Z AUTO 27017KT 10SM SCT024 BKN035 OVC042 00/M04 A2985 1040 75 -400 270/17 RMK AO2 T00001039
04850KAOH AOH20161229232012712/29/16 23:20:31  5-MIN KAOH 300420Z AUTO 27017KT 10SM SCT024 BKN035 OVC042 00/M04 A2985 1040 75 -400 280/17 RMK AO2 T00001039
04850KAOH AOH20161229232513312/29/16 23:25:31  5-MIN KAOH 300425Z AUTO 26018G22KT 10SM FEW026 BKN035 OVC045 00/M04 A2985 1040 75 -400 270/18G22 RMK AO2 T00001039
04850KAOH AOH20161229233012612/29/16 23:30:31  5-MIN KAOH 300430Z AUTO 27018G22KT 10SM SCT027 OVC034 00/M04 A2985 1040 75 -400 280/18G22 RMK AO2 T00001039
04850KAOH AOH20161229233512012/29/16 23:35:31  5-MIN KAOH 300435Z AUTO 26016KT 10SM BKN029 OVC034 00/M04 A2985 1040 75 -500 270/16 RMK AO2 T00001039
04850KAOH AOH20161229234012012/29/16 23:40:31  5-MIN KAOH 300440Z AUTO 26014KT 10SM BKN027 OVC034 00/M04 A2986 1040 75 -500 270/14 RMK AO2 T00001039
04850KAOH AOH20161229234512612/29/16 23:45:31  5-MIN KAOH 300445Z AUTO 27019G23KT 10SM BKN030 OVC047 00/M04 A2986 1040 75 -500 270/19G23 RMK AO2 T00001039
04850KAOH AOH20161229235011612/29/16 23:50:31  5-MIN KAOH 300450Z AUTO 26020G24KT 10SM BKN030 OVC047 00/M04 A2985 1040 75 -500 270/20G24 RMK AO2
04850KAOH AOH20161229235513312/29/16 23:55:31  5-MIN KAOH 300455Z AUTO 26019G24KT 10SM BKN030 BKN034 OVC047 00/M04 A2985 1040 75 -500 270/19G24 RMK AO2 T00001039
04850KAOH AOH20161230000013312/30/16 00:00:31  5-MIN KAOH 300500Z AUTO 27016G24KT 10SM BKN028 BKN047 OVC060 00/M04 A2986 1040 75 -500 270/16G24 RMK AO2 T00001039
04850KAOH AOH20161230000515112/30/16 00:05:31  5-MIN KAOH 300505Z AUTO 27022G27KT 10SM SCT030 BKN034 OVC060 00/M04 A2985 1040 75 -500 270/22G27 RMK AO2 PK WND 27027/0504 T00001039
04850KAOH AOH20161230001015112/30/16 00:10:31  5-MIN KAOH 300510Z AUTO 27019G27KT 10SM SCT028 BKN034 OVC060 00/M04 A2985 1040 75 -500 270/19G27 RMK AO2 PK WND 27027/0504 T00001039
04850KAOH AOH20161230001515112/30/16 00:15:31  5-MIN KAOH 300515Z AUTO 27018G24KT 10SM BKN030 BKN043 OVC060 00/M04 A2986 1040 72 -500 270/18G24 RMK AO2 PK WND 27027/0504 T00001044
04850KAOH AOH20161230002015112/30/16 00:20:31  5-MIN KAOH 300520Z AUTO 26021G25KT 10SM SCT030 BKN034 OVC060 00/M04 A2986 1040 75 -500 270/21G25 RMK AO2 PK WND 27027/0504 T00001039
04850KAOH AOH20161230002515112/30/16 00:25:31  5-MIN KAOH 300525Z AUTO 27022G27KT 10SM BKN030 BKN045 OVC060 00/M04 A2986 1040 72 -500 270/22G27 RMK AO2 PK WND 27027/0522 T00001044
04850KAOH AOH20161230003014412/30/16 00:30:31  5-MIN KAOH 300530Z AUTO 26018G27KT 10SM BKN031 OVC060 00/M04 A2985 1040 72 -400 270/18G27 RMK AO2 PK WND 27027/0522 T00001044
04850KAOH AOH20161230003514412/30/16 00:35:31  5-MIN KAOH 300535Z AUTO 27018G26KT 10SM BKN031 OVC035 00/M04 A2986 1040 72 -500 280/18G26 RMK AO2 PK WND 27027/0522 T00001044
04850KAOH AOH20161230004013712/30/16 00:40:31  5-MIN KAOH 300540Z AUTO 27020G27KT 10SM OVC031 00/M04 A2986 1040 72 -500 270/20G27 RMK AO2 PK WND 27027/0522 T00001044
04850KAOH AOH20161230004515312/30/16 00:45:31  5-MIN KAOH 300545Z AUTO 27020G27KT 10SM -SN OVC031 00/M04 A2986 1040 75 -500 270/20G27 RMK AO2 PK WND 27027/0522 SNB41 P0000 T00001039
04850KAOH AOH20161230005014212/30/16 00:50:31  5-MIN KAOH 300550Z AUTO 28018G25KT 9SM -SN OVC029 00/M04 A2986 1030 75 -500 280/18G25 RMK AO2 PK WND 27027/0522 SNB41 P0000
04850KAOH AOH20161230005514812/30/16 00:55:31  5-MIN KAOH 300555Z AUTO 28020G27KT 7SM -SN FEW023 BKN029 OVC033 00/M04 A2986 1030 75 -500 280/20G27 RMK AO2 SNB54 P0000 T00001039
04850KAOH AOH20161230010014412/30/16 01:00:31  5-MIN KAOH 300600Z AUTO 28017G27KT 4SM -SN BKN026 OVC031 M01/M04 A2986 1030 78 -500 290/17G27 RMK AO2 SNB0554 P0000 T10061039
04850KAOH AOH20161230010513812/30/16 01:05:31  5-MIN KAOH 300605Z AUTO 28013KT 4SM -SN BKN026 OVC031 M01/M04 A2986 1030 78 -500 290/13 RMK AO2 SNB0554 P0000 T10061039
04850KAOH AOH20161230011016112/30/16 01:10:31  5-MIN KAOH 300610Z AUTO 29021G27KT 8SM -SN BKN026 OVC031 00/M04 A2986 1030 72 -500 290/21G27 RMK AO2 PK WND 30027/0609 SNB0554 P0000 T00001044
04850KAOH AOH20161230011516812/30/16 01:15:31  5-MIN KAOH 300615Z AUTO 28020G27KT 9SM BKN026 BKN030 OVC065 M01/M04 A2986 1030 75 -500 290/20G27 RMK AO2 PK WND 30027/0609 SNB0554E13 P0000 T10061044
04850KAOH AOH20161230012016912/30/16 01:20:31  5-MIN KAOH 300620Z AUTO 28018G26KT 10SM FEW023 BKN028 OVC065 M01/M04 A2986 1030 75 -500 290/18G26 RMK AO2 PK WND 30027/0609 SNB0554E13 P0000 T10061044
04850KAOH AOH20161230012516912/30/16 01:25:31  5-MIN KAOH 300625Z AUTO 28015G24KT 10SM SCT026 BKN049 OVC065 M01/M04 A2986 1030 75 -500 290/15G24 RMK AO2 PK WND 30027/0609 SNB0554E13 P0000 T10061044
04850KAOH AOH20161230013016812/30/16 01:30:31  5-MIN KAOH 300630Z AUTO 28019G24KT 9SM FEW026 BKN047 OVC065 M01/M04 A2986 1030 75 -500 280/19G24 RMK AO2 PK WND 30027/0609 SNB0554E13 P0000 T10061044
04850KAOH AOH20161230013516812/30/16 01:35:31  5-MIN KAOH 300635Z AUTO 28016G24KT 4SM -SN FEW024 OVC047 M01/M04 A2986 1030 78 -500 290/16G24 RMK AO2 PK WND 30027/0609 SNB0554E13B31 P0000 T10061039
04850KAOH AOH20161230014017512/30/16 01:40:31  5-MIN KAOH 300640Z AUTO 29016G23KT 3SM -SN FEW024 BKN047 OVC065 M01/M04 A2986 1030 81 -600 290/16G23 RMK AO2 PK WND 30027/0609 SNB0554E13B31 P0000 T10111039
04850KAOH AOH20161230014516912/30/16 01:45:31  5-MIN KAOH 300645Z AUTO 28017KT 3SM -SN FEW024 SCT031 OVC047 M01/M04 A2987 1020 81 -600 290/17 RMK AO2 PK WND 30027/0609 SNB0554E13B31 P0000 T10111039
04850KAOH AOH20161230015018512/30/16 01:50:31  5-MIN KAOH 300650Z AUTO 28015G22KT 3SM -SN BR SCT027 BKN036 OVC047 M01/M03 A2987 1030 85 -600 290/15G22 RMK AO2 PK WND 30027/0609 SNB0554E13B31 SLP121 P0000 T10111033
04850KAOH AOH20161230015514012/30/16 01:55:31  5-MIN KAOH 300655Z AUTO 28013KT 4SM -SN BR BKN027 BKN034 OVC047 M01/M03 A2987 1030 85 -600 290/13 RMK AO2 P0000 T10111033
04850KAOH AOH20161230020014012/30/16 02:00:31  5-MIN KAOH 300700Z AUTO 29011KT 5SM -SN BR BKN027 BKN034 OVC047 M01/M03 A2987 1030 85 -600 290/11 RMK AO2 P0000 T10111033
04850KAOH AOH20161230020514012/30/16 02:05:31  5-MIN KAOH 300705Z AUTO 28012KT 6SM -SN BR SCT024 BKN029 OVC034 M01/M03 A2987 1030 85 -600 290/12 RMK AO2 P0000 T10111033
04850KAOH AOH20161230021013712/30/16 02:10:31  5-MIN KAOH 300710Z AUTO 28013KT 8SM -SN FEW017 BKN027 OVC032 M01/M03 A2987 1020 85 -600 290/13 RMK AO2 P0000 T10111033
04850KAOH AOH20161230021513712/30/16 02:15:31  5-MIN KAOH 300715Z AUTO 28013KT 9SM -SN FEW014 BKN027 OVC032 M01/M03 A2987 1020 85 -600 280/13 RMK AO2 P0000 T10111033
04850KAOH AOH20161230022013012/30/16 02:20:31  5-MIN KAOH 300720Z AUTO 28013KT 9SM -SN SCT021 OVC029 M01/M03 A2987 1020 85 -600 290/13 RMK AO2 P0000 T10111033
04850KAOH AOH20161230022513912/30/16 02:25:31  5-MIN KAOH 300725Z AUTO 28014KT 9SM FEW017 SCT022 OVC029 M01/M04 A2987 1020 81 -600 290/14 RMK AO2 SNE25 P0000 T10111039
04850KAOH AOH20161230023013912/30/16 02:30:31  5-MIN KAOH 300730Z AUTO 28016KT 9SM FEW017 BKN032 OVC050 M01/M04 A2987 1020 81 -600 290/16 RMK AO2 SNE25 P0000 T10111039
04850KAOH AOH20161230023514012/30/16 02:35:31  5-MIN KAOH 300735Z AUTO 29017KT 10SM FEW017 BKN041 OVC050 M01/M04 A2988 1020 81 -600 290/17 RMK AO2 SNE25 P0000 T10111039
04850KAOH AOH20161230024014612/30/16 02:40:31  5-MIN KAOH 300740Z AUTO 28016G22KT 10SM FEW021 BKN041 OVC055 M01/M04 A2987 1020 78 -500 290/16G22 RMK AO2 SNE25 P0000 T10061039
04850KAOH AOH20161230024514012/30/16 02:45:31  5-MIN KAOH 300745Z AUTO 29015KT 10SM FEW022 SCT041 OVC055 M01/M04 A2988 1020 78 -500 290/15 RMK AO2 SNE25 P0000 T10061039
04850KAOH AOH20161230025014712/30/16 02:50:31  5-MIN KAOH 300750Z AUTO 28014KT 10SM FEW041 SCT049 OVC055 M01/M04 A2988 1020 78 -500 280/14 RMK AO2 SNE25 SLP125 P0000 T10061039
04850KAOH AOH20161230025512812/30/16 02:55:31  5-MIN KAOH 300755Z AUTO 27018KT 10SM FEW021 SCT047 OVC055 M01/M04 A2988 1020 78 -500 280/18 RMK AO2 T10061039
04850KAOH AOH20161230030013412/30/16 03:00:31  5-MIN KAOH 300800Z AUTO 27017G21KT 10SM FEW021 SCT045 OVC055 M01/M04 A2988 1020 78 -500 280/17G21 RMK AO2 T10061039
04850KAOH AOH20161230030514412/30/16 03:05:31  5-MIN KAOH 300805Z AUTO 28016KT 10SM -SN FEW021 SCT045 OVC055 M01/M04 A2988 1010 78 -500 280/16 RMK AO2 SNB05 P0000 T10061039
04850KAOH AOH20161230031014912/30/16 03:10:31  5-MIN KAOH 300810Z AUTO 28019G25KT 4SM -SN FEW021 BKN045 OVC055 M01/M04 A2988 1010 78 -600 290/19G25 RMK AO2 SNB05 P0000 T10061039
04850KAOH AOH20161230031516412/30/16 03:15:31  5-MIN KAOH 300815Z AUTO 28016G25KT 2SM -SN BR FEW015 BKN024 OVC055 M01/M03 A2988 1010 85 -600 280/16G25 RMK AO2 VIS 1 1/2V5 SNB05 P0000 T10111033
04850KAOH AOH20161230032015212/30/16 03:20:31  5-MIN KAOH 300820Z AUTO 27016G25KT 2SM -SN BR FEW015 BKN024 OVC055 M01/M03 A2988 1010 85 -600 280/16G25 RMK AO2 SNB05 P0000 T10111033
04850KAOH AOH20161230032515612/30/16 03:25:31  5-MIN KAOH 300825Z AUTO 28014G22KT 2 1/2SM -SN BR FEW015 BKN024 OVC045 M01/M03 A2988 1010 85 -600 280/14G22 RMK AO2 SNB05 P0000 T10111033
04850KAOH AOH20161230033015012/30/16 03:30:31  5-MIN KAOH 300830Z AUTO 28012KT 1 3/4SM -SN BR FEW010 SCT013 OVC022 M02/M03 A2988 1010 92 -700 290/12 RMK AO2 SNB05 P0000 T10171028
04850KAOH AOH20161230033515012/30/16 03:35:31  5-MIN KAOH 300835Z AUTO 29012KT 1 1/2SM -SN BR FEW007 BKN013 OVC020 M02/M03 A2988 1010 92 -700 290/12 RMK AO2 SNB05 P0000 T10171028
04850KAOH AOH20161230034015012/30/16 03:40:31  5-MIN KAOH 300840Z AUTO 28013KT 1 1/2SM -SN BR FEW010 BKN018 OVC029 M02/M03 A2988 1010 92 -700 290/13 RMK AO2 SNB05 P0000 T10171028
04850KAOH AOH20161230034514612/30/16 03:45:31  5-MIN KAOH 300845Z AUTO 28013KT 2SM -SN BR SCT010 BKN018 OVC029 M02/M03 A2988 1010 92 -700 290/13 RMK AO2 SNB05 P0000 T10171028
04850KAOH AOH20161230035013612/30/16 03:50:31  5-MIN KAOH 300850Z AUTO 28011KT 2SM -SN BR SCT010 BKN016 OVC029 M02/M03 A2988 1010 92 -700 280/11 RMK AO2 SNB05 P0000
04850KAOH AOH20161230035514012/30/16 03:55:31  5-MIN KAOH 300855Z AUTO 27011KT 3SM -SN BR SCT010 BKN016 OVC029 M02/M03 A2988 1010 92 -700 270/11 RMK AO2 P0000 T10171028
04850KAOH AOH20161230040014012/30/16 04:00:31  5-MIN KAOH 300900Z AUTO 26011KT 6SM -SN BR FEW010 BKN024 OVC029 M02/M03 A2988 1010 92 -700 260/11 RMK AO2 P0000 T10171028
04850KAOH AOH20161230040513712/30/16 04:05:31  5-MIN KAOH 300905Z AUTO 26011KT 8SM -SN FEW010 SCT020 OVC029 M02/M03 A2988 1010 92 -700 270/11 RMK AO2 P0000 T10171028
04850KAOH AOH20161230041013712/30/16 04:10:31  5-MIN KAOH 300910Z AUTO 26013KT 7SM -SN FEW010 BKN029 OVC038 M02/M03 A2988 1010 92 -700 270/13 RMK AO2 P0000 T10171028
04850KAOH AOH20161230041514012/30/16 04:15:31  5-MIN KAOH 300915Z AUTO 26015KT 4SM -SN BR SCT021 BKN028 OVC038 M02/M03 A2988 1010 88 -700 270/15 RMK AO2 P0000 T10171033
04850KAOH AOH20161230042014012/30/16 04:20:31  5-MIN KAOH 300920Z AUTO 27013KT 4SM -SN BR FEW019 BKN024 OVC029 M01/M03 A2988 1010 85 -600 270/13 RMK AO2 P0000 T10111033
04850KAOH AOH20161230042513012/30/16 04:25:31  5-MIN KAOH 300925Z AUTO 27018KT 8SM -SN BKN022 OVC029 M01/M04 A2988 1010 81 -600 280/18 RMK AO2 P0000 T10111039
04850KAOH AOH20161230043013212/30/16 04:30:31  5-MIN KAOH 300930Z AUTO 27013KT 9SM BKN022 OVC027 M01/M04 A2988 1010 81 -600 280/13 RMK AO2 SNE28 P0000 T10111039
04850KAOH AOH20161230043513012/30/16 04:35:31  5-MIN KAOH 300935Z AUTO 27017KT 9SM -SN BKN024 OVC028 M01/M04 A2988 1010 81 -600 270/17 RMK AO2 P0000 T10111039
04850KAOH AOH20161230044013012/30/16 04:40:31  5-MIN KAOH 300940Z AUTO 27015KT 9SM -SN BKN022 OVC028 M01/M04 A2988 1010 78 -600 280/15 RMK AO2 P0000 T10111044
04850KAOH AOH20161230044513012/30/16 04:45:31  5-MIN KAOH 300945Z AUTO 28017KT 8SM -SN BKN024 OVC028 M01/M04 A2988 1010 78 -600 290/17 RMK AO2 P0000 T10111044
04850KAOH AOH20161230045014312/30/16 04:50:31  5-MIN KAOH 300950Z AUTO 28012G22KT 8SM -SN BKN024 OVC028 M01/M04 A2988 1010 78 -600 290/12G22 RMK AO2 SLP129 P0000 T10111044
04850KAOH AOH20161230045513612/30/16 04:55:31  5-MIN KAOH 300955Z AUTO 28013G22KT 9SM -SN BKN022 OVC028 M01/M04 A2988 1010 78 -600 280/13G22 RMK AO2 P0000 T10111044
04850KAOH AOH20161230050013412/30/16 05:00:31  5-MIN KAOH 301000Z AUTO 28013KT 9SM BKN022 OVC028 M01/M04 A2989 1010 78 -600 290/13 RMK AO2 SNE0958 P0000 T10111044
04850KAOH AOH20161230050513712/30/16 05:05:31  5-MIN KAOH 301005Z AUTO 28014G20KT 10SM -SN BKN024 OVC030 M01/M04 A2989 1010 78 -600 290/14G20 RMK AO2 P0000 T10111044
04850KAOH AOH20161230051013612/30/16 05:10:31  5-MIN KAOH 301010Z AUTO 28014G22KT 9SM -SN BKN024 OVC030 M01/M04 A2989 1010 78 -600 290/14G22 RMK AO2 P0000 T10111044
04850KAOH AOH20161230051513012/30/16 05:15:31  5-MIN KAOH 301015Z AUTO 28016KT 9SM -SN SCT022 OVC029 M01/M04 A2989 1010 78 -600 290/16 RMK AO2 P0000 T10111044
04850KAOH AOH20161230052013612/30/16 05:20:31  5-MIN KAOH 301020Z AUTO 28014G21KT 9SM -SN BKN025 OVC031 M01/M04 A2989 1010 78 -600 290/14G21 RMK AO2 P0000 T10111044
04850KAOH AOH20161230052512312/30/16 05:25:31  5-MIN KAOH 301025Z AUTO 29017KT 8SM -SN OVC027 M01/M04 A2989 1010 78 -600 290/17 RMK AO2 P0000 T10111044
04850KAOH AOH20161230053012912/30/16 05:30:31  5-MIN KAOH 301030Z AUTO 28017G23KT 8SM -SN OVC027 M01/M05 A2989 1000 75 -600 290/17G23 RMK AO2 P0000 T10111050
04850KAOH AOH20161230053514712/30/16 05:35:31  5-MIN KAOH 301035Z AUTO 28017G26KT 7SM -SN OVC028 M01/M05 A2989 1000 75 -600 290/17G26 RMK AO2 PK WND 30026/1033 P0000 T10111050
04850KAOH AOH20161230054014712/30/16 05:40:31  5-MIN KAOH 301040Z AUTO 29019G26KT 4SM -SN OVC028 M01/M05 A2990 1000 75 -600 290/19G26 RMK AO2 PK WND 30026/1033 P0000 T10111050
04850KAOH AOH20161230054514712/30/16 05:45:31  5-MIN KAOH 301045Z AUTO 29013G25KT 3SM -SN OVC028 M01/M05 A2990 1000 75 -600 300/13G25 RMK AO2 PK WND 30026/1033 P0000 T10111050
04850KAOH AOH20161230055014812/30/16 05:50:31  5-MIN KAOH 301050Z AUTO 30016KT 3SM -SN OVC028 M01/M05 A2990 1000 75 -600 300/16 RMK AO2 PK WND 30026/1033 SLP134 P0000 T10111050
04850KAOH AOH20161230055514712/30/16 05:55:31  5-MIN KAOH 301055Z AUTO 29018G26KT 4SM -SN OVC027 M01/M05 A2990 1000 75 -600 300/18G26 RMK AO2 PK WND 29026/1055 P0000 T10111050
04850KAOH AOH20161230060014612/30/16 06:00:31  5-MIN KAOH 301100Z AUTO 30019G28KT 4SM -SN OVC027 M02/M05 A2990 990 78 -700 300/19G28 RMK AO2 PK WND 30028/1056 P0000 T10171050
04850KAOH AOH20161230060514612/30/16 06:05:31  5-MIN KAOH 301105Z AUTO 29019G28KT 4SM -SN OVC025 M02/M05 A2991 990 78 -700 300/19G28 RMK AO2 PK WND 30028/1056 P0000 T10171050
04850KAOH AOH20161230061014612/30/16 06:10:31  5-MIN KAOH 301110Z AUTO 29019G30KT 5SM -SN OVC025 M02/M05 A2991 980 78 -700 290/19G30 RMK AO2 PK WND 29030/1107 P0000 T10171050
04850KAOH AOH20161230061514612/30/16 06:15:31  5-MIN KAOH 301115Z AUTO 29020G30KT 5SM -SN OVC025 M02/M05 A2992 980 78 -700 300/20G30 RMK AO2 PK WND 29030/1107 P0000 T10171050
04850KAOH AOH20161230062015312/30/16 06:20:31  5-MIN KAOH 301120Z AUTO 30017G28KT 6SM -SN BKN025 OVC030 M02/M05 A2992 980 78 -700 300/17G28 RMK AO2 PK WND 29030/1107 P0000 T10171050
04850KAOH AOH20161230062514712/30/16 06:25:31  5-MIN KAOH 301125Z AUTO 30016KT 8SM -SN BKN025 OVC032 M02/M05 A2992 980 78 -700 300/16 RMK AO2 PK WND 29030/1107 P0000 T10171050
04850KAOH AOH20161230063016012/30/16 06:30:31  5-MIN KAOH 301130Z AUTO 31019G25KT 3SM -SN SCT018 BKN025 OVC032 M02/M04 A2992 980 81 -700 310/19G25 RMK AO2 PK WND 29030/1107 P0000 T10171044
04850KAOH AOH20161230063516712/30/16 06:35:31  5-MIN KAOH 301135Z AUTO 29014G25KT 1 1/4SM -SN BR SCT016 BKN025 OVC034 M02/M04 A2992 980 88 -800 300/14G25 RMK AO2 PK WND 29030/1107 P0000 T10221039
04850KAOH AOH20161230064016112/30/16 06:40:31  5-MIN KAOH 301140Z AUTO 29011KT 1 3/4SM -SN BR SCT016 BKN027 OVC036 M02/M04 A2992 970 88 -800 300/11 RMK AO2 PK WND 29030/1107 P0000 T10221039
04850KAOH AOH20161230064515412/30/16 06:45:31  5-MIN KAOH 301145Z AUTO 30010KT 7SM -SN FEW021 SCT029 OVC036 M02/M04 A2993 970 88 -800 300/10 RMK AO2 PK WND 29030/1107 P0000 T10221039
04850KAOH AOH20161230065018512/30/16 06:50:31  5-MIN KAOH 301150Z AUTO 30010KT 9SM -SN SCT021 BKN037 OVC044 M02/M04 A2993 970 88 -800 300/10 RMK AO2 PK WND 29030/1107 SLP145 P0000 60000 T10221039 10000 21022 51005
04850KAOH AOH20161230065513612/30/16 06:55:31  5-MIN KAOH 301155Z AUTO 29012KT 9SM -SN SCT027 BKN039 OVC080 M02/M04 A2993 970 88 -800 290/12 RMK AO2 P0000 T10221039
04850KAOH AOH20161230070013512/30/16 07:00:31  5-MIN KAOH 301200Z AUTO 29013G18KT 9SM -SN BKN037 OVC080 M02/M04 A2993 970 88 -800 300/13G18 RMK AO2 P0000 T10221039
04850KAOH AOH20161230070512912/30/16 07:05:31  5-MIN KAOH 301205Z AUTO 29013KT 9SM -SN BKN041 OVC080 M02/M04 A2993 960 85 -800 300/13 RMK AO2 P0000 T10221044
04850KAOH AOH20161230071012912/30/16 07:10:31  5-MIN KAOH 301210Z AUTO 30012KT 9SM -SN BKN039 OVC080 M02/M04 A2994 960 85 -800 300/12 RMK AO2 P0000 T10221044
04850KAOH AOH20161230071513112/30/16 07:15:31  5-MIN KAOH 301215Z AUTO 28013KT 9SM BKN039 OVC080 M02/M04 A2994 960 85 -800 290/13 RMK AO2 SNE13 P0000 T10221044
04850KAOH AOH20161230072013012/30/16 07:20:31  5-MIN KAOH 301220Z AUTO 29014KT 10SM -SN BKN039 OVC080 M02/M04 A2994 960 81 -800 290/14 RMK AO2 P0000 T10171044
04850KAOH AOH20161230072514212/30/16 07:25:31  5-MIN KAOH 301225Z AUTO 29016G21KT 9SM -SN FEW024 BKN036 OVC080 M02/M04 A2994 960 81 -800 300/16G21 RMK AO2 P0000 T10171044
04850KAOH AOH20161230073013612/30/16 07:30:31  5-MIN KAOH 301230Z AUTO 29015KT 9SM -SN SCT024 BKN036 OVC042 M02/M04 A2995 950 81 -800 300/15 RMK AO2 P0000 T10171044
04850KAOH AOH20161230073513612/30/16 07:35:31  5-MIN KAOH 301235Z AUTO 29014KT 8SM -SN FEW020 BKN025 OVC036 M02/M04 A2995 950 81 -800 300/14 RMK AO2 P0000 T10171044
04850KAOH AOH20161230074013612/30/16 07:40:31  5-MIN KAOH 301240Z AUTO 29013KT 8SM -SN SCT020 BKN025 OVC055 M02/M04 A2995 950 81 -800 300/13 RMK AO2 P0000 T10171044
04850KAOH AOH20161230074513612/30/16 07:45:31  5-MIN KAOH 301245Z AUTO 29014KT 9SM -SN SCT018 BKN024 OVC080 M02/M04 A2995 950 85 -800 300/14 RMK AO2 P0000 T10221044
04850KAOH AOH20161230075014312/30/16 07:50:31  5-MIN KAOH 301250Z AUTO 28015KT 9SM -SN SCT016 BKN024 OVC075 M02/M04 A2995 950 85 -800 290/15 RMK AO2 SLP154 P0000 T10221044
04850KAOH AOH20161230075514212/30/16 07:55:31  5-MIN KAOH 301255Z AUTO 29017G22KT 9SM -SN SCT016 BKN024 OVC075 M02/M04 A2996 940 85 -800 300/17G22 RMK AO2 P0000 T10221044
04850KAOH AOH20161230080014612/30/16 08:00:31  5-MIN KAOH 301300Z AUTO 29014G22KT 9SM SCT013 BKN018 OVC080 M02/M04 A2996 940 85 -800 290/14G22 RMK AO2 SNE1256 P0000 T10221044
04850KAOH AOH20161230080514712/30/16 08:05:31  5-MIN KAOH 301305Z AUTO 28016G23KT 10SM SCT013 BKN018 OVC080 M02/M04 A2996 940 85 -800 290/16G23 RMK AO2 SNE1256 P0000 T10221044
04850KAOH AOH20161230081014712/30/16 08:10:31  5-MIN KAOH 301310Z AUTO 29013G23KT 10SM SCT015 BKN019 OVC075 M02/M04 A2996 940 85 -900 290/13G23 RMK AO2 SNE1256 P0000 T10221044
04850KAOH AOH20161230081514112/30/16 08:15:31  5-MIN KAOH 301315Z AUTO 29015KT 10SM SCT015 BKN020 OVC075 M02/M04 A2996 940 85 -900 300/15 RMK AO2 SNE1256 P0000 T10221044
04850KAOH AOH20161230082014112/30/16 08:20:31  5-MIN KAOH 301320Z AUTO 29014KT 10SM SCT015 BKN020 OVC080 M02/M04 A2996 940 85 -900 290/14 RMK AO2 SNE1256 P0000 T10221044
04850KAOH AOH20161230082514712/30/16 08:25:31  5-MIN KAOH 301325Z AUTO 29015G21KT 10SM SCT015 BKN022 OVC080 M02/M04 A2997 940 85 -900 300/15G21 RMK AO2 SNE1256 P0000 T10221044
04850KAOH AOH20161230083014712/30/16 08:30:31  5-MIN KAOH 301330Z AUTO 29014G21KT 10SM SCT015 BKN022 OVC080 M02/M04 A2997 930 85 -900 300/14G21 RMK AO2 SNE1256 P0000 T10221044
04850KAOH AOH20161230083514112/30/16 08:35:31  5-MIN KAOH 301335Z AUTO 29015KT 10SM BKN015 BKN022 OVC043 M02/M04 A2997 930 85 -900 300/15 RMK AO2 SNE1256 P0000 T10221044
04850KAOH AOH20161230084014712/30/16 08:40:31  5-MIN KAOH 301340Z AUTO 29016G24KT 10SM BKN015 BKN022 OVC043 M02/M04 A2998 930 85 -900 300/16G24 RMK AO2 SNE1256 P0000 T10221044
04850KAOH AOH20161230084514712/30/16 08:45:31  5-MIN KAOH 301345Z AUTO 28016G24KT 10SM SCT015 BKN024 OVC043 M02/M04 A2998 920 85 -900 290/16G24 RMK AO2 SNE1256 P0000 T10221044
04850KAOH AOH20161230085014712/30/16 08:50:31  5-MIN KAOH 301350Z AUTO 29015G23KT 10SM SCT015 OVC024 M02/M04 A2998 920 85 -900 300/15G23 RMK AO2 SNE1256 SLP163 P0000 T10221044
04850KAOH AOH20161230085512712/30/16 08:55:31  5-MIN KAOH 301355Z AUTO 29015KT 10SM FEW015 BKN024 OVC032 M02/M04 A2999 920 85 -900 300/15 RMK AO2 T10221044
04850KAOH AOH20161230090012712/30/16 09:00:31  5-MIN KAOH 301400Z AUTO 29015KT 10SM FEW015 BKN024 OVC032 M02/M04 A2999 920 85 -900 290/15 RMK AO2 T10221044
04850KAOH AOH20161230090512712/30/16 09:05:31  5-MIN KAOH 301405Z AUTO 29016KT 10SM FEW015 BKN028 OVC032 M02/M04 A2999 910 85 -900 290/16 RMK AO2 T10221044
04850KAOH AOH20161230091013312/30/16 09:10:31  5-MIN KAOH 301410Z AUTO 28016G21KT 10SM FEW021 BKN029 OVC034 M02/M04 A2999 910 85 -900 290/16G21 RMK AO2 T10221044
04850KAOH AOH20161230091513312/30/16 09:15:31  5-MIN KAOH 301415Z AUTO 29017G22KT 10SM FEW023 BKN032 OVC060 M02/M04 A2999 910 85 -900 290/17G22 RMK AO2 T10221044
04850KAOH AOH20161230092013312/30/16 09:20:31  5-MIN KAOH 301420Z AUTO 29016G22KT 10SM FEW018 BKN032 OVC060 M02/M05 A2999 910 81 -900 290/16G22 RMK AO2 T10221050
04850KAOH AOH20161230092512612/30/16 09:25:31  5-MIN KAOH 301425Z AUTO 29016G22KT 10SM FEW018 BKN032 M02/M05 A3000 910 78 -800 300/16G22 RMK AO2 T10171050
04850KAOH AOH20161230093012712/30/16 09:30:31  5-MIN KAOH 301430Z AUTO 29015KT 10SM FEW018 SCT027 OVC035 M02/M05 A3000 900 78 -800 300/15 RMK AO2 T10171050
04850KAOH AOH20161230093512712/30/16 09:35:31  5-MIN KAOH 301435Z AUTO 29015KT 10SM FEW018 SCT025 OVC035 M02/M05 A3000 900 78 -800 290/15 RMK AO2 T10171050
04850KAOH AOH20161230094013312/30/16 09:40:31  5-MIN KAOH 301440Z AUTO 28015G21KT 10SM FEW020 BKN025 OVC034 M02/M05 A3001 900 78 -800 290/15G21 RMK AO2 T10171050
04850KAOH AOH20161230094512612/30/16 09:45:31  5-MIN KAOH 301445Z AUTO 28015G23KT 10SM BKN022 OVC034 M02/M05 A3001 900 81 -900 290/15G23 RMK AO2 T10221050
04850KAOH AOH20161230095014512/30/16 09:50:31  5-MIN KAOH 301450Z AUTO 28018G25KT 10SM BKN023 BKN036 M02/M05 A3001 890 78 -800 290/18G25 RMK AO2 SLP173 60000 T10171050 53015
04850KAOH AOH20161230095512612/30/16 09:55:31  5-MIN KAOH 301455Z AUTO 29018G25KT 10SM BKN023 BKN038 M02/M05 A3002 890 78 -800 290/18G25 RMK AO2 T10171050
04850KAOH AOH20161230100011912/30/16 10:00:31  5-MIN KAOH 301500Z AUTO 29016G25KT 10SM BKN023 M02/M05 A3002 890 78 -800 290/16G25 RMK AO2 T10171050
04850KAOH AOH20161230100511312/30/16 10:05:31  5-MIN KAOH 301505Z AUTO 29016KT 10SM SCT023 M02/M05 A3002 890 78 -800 290/16 RMK AO2 T10171050
04850KAOH AOH20161230101011312/30/16 10:10:31  5-MIN KAOH 301510Z AUTO 29016KT 10SM SCT022 M02/M04 A3002 890 81 -800 300/16 RMK AO2 T10171044
04850KAOH AOH20161230101511912/30/16 10:15:31  5-MIN KAOH 301515Z AUTO 29019G22KT 10SM FEW022 M02/M05 A3002 890 78 -900 300/19G22 RMK AO2 T10171050
04850KAOH AOH20161230102011912/30/16 10:20:31  5-MIN KAOH 301520Z AUTO 28017G22KT 10SM FEW022 M02/M05 A3002 880 78 -900 290/17G22 RMK AO2 T10171050
04850KAOH AOH20161230102512612/30/16 10:25:31  5-MIN KAOH 301525Z AUTO 28022G25KT 10SM FEW022 FEW055 M01/M05 A3002 880 75 -800 290/22G25 RMK AO2 T10111050
04850KAOH AOH20161230103014412/30/16 10:30:31  5-MIN KAOH 301530Z AUTO 30022G27KT 10SM FEW022 FEW055 M01/M06 A3002 880 72 -800 300/22G27 RMK AO2 PK WND 29027/1529 T10111056
04850KAOH AOH20161230103513712/30/16 10:35:31  5-MIN KAOH 301535Z AUTO 28018G27KT 10SM FEW022 M01/M05 A3003 880 75 -800 290/18G27 RMK AO2 PK WND 29027/1529 T10111050
04850KAOH AOH20161230104013712/30/16 10:40:31  5-MIN KAOH 301540Z AUTO 30020G26KT 10SM FEW024 M01/M06 A3003 880 72 -800 300/20G26 RMK AO2 PK WND 29027/1529 T10111056
04850KAOH AOH20161230104513712/30/16 10:45:31  5-MIN KAOH 301545Z AUTO 29019G26KT 10SM FEW024 M01/M06 A3003 880 72 -800 290/19G26 RMK AO2 PK WND 29027/1529 T10111056
04850KAOH AOH20161230105014412/30/16 10:50:31  5-MIN KAOH 301550Z AUTO 30018G24KT 10SM FEW024 M01/M06 A3003 870 72 -800 300/18G24 RMK AO2 PK WND 29027/1529 SLP181 T10111056
04850KAOH AOH20161230105511912/30/16 10:55:31  5-MIN KAOH 301555Z AUTO 28016G22KT 10SM FEW024 M01/M06 A3003 870 72 -800 290/16G22 RMK AO2 T10111056
04850KAOH AOH20161230110011312/30/16 11:00:31  5-MIN KAOH 301600Z AUTO 29016KT 10SM FEW024 M01/M06 A3003 870 69 -800 290/16 RMK AO2 T10111061
04850KAOH AOH20161230110513412/30/16 11:05:31  5-MIN KAOH 301605Z AUTO 30020G26KT 10SM CLR M01/M06 A3003 870 69 -800 300/20G26 RMK AO2 PK WND 30026/1605 T10111061
04850KAOH AOH20161230111013412/30/16 11:10:31  5-MIN KAOH 301610Z AUTO 30020G27KT 10SM CLR M01/M06 A3003 870 69 -800 300/20G27 RMK AO2 PK WND 31027/1609 T10111061
04850KAOH AOH20161230111513712/30/16 11:15:31  5-MIN KAOH 301615Z AUTO 30016G27KT 10SM FEW030 M01/M07 A3004 870 66 -800 300/16G27 RMK AO2 PK WND 31027/1609 T10111067
04850KAOH AOH20161230112013712/30/16 11:20:31  5-MIN KAOH 301620Z AUTO 29017G24KT 10SM FEW030 M01/M06 A3003 870 69 -800 290/17G24 RMK AO2 PK WND 31027/1609 T10111061
04850KAOH AOH20161230112513712/30/16 11:25:31  5-MIN KAOH 301625Z AUTO 29020G29KT 10SM FEW032 M01/M06 A3004 870 69 -800 290/20G29 RMK AO2 PK WND 28029/1623 T10111061
04850KAOH AOH20161230113014412/30/16 11:30:31  5-MIN KAOH 301630Z AUTO 29014G29KT 10SM FEW034 SCT042 M01/M06 A3003 870 69 -800 300/14G29 RMK AO2 PK WND 28029/1623 T10111061
04850KAOH AOH20161230113514412/30/16 11:35:31  5-MIN KAOH 301635Z AUTO 27019G22KT 10SM SCT030 SCT038 M01/M06 A3003 870 69 -800 280/19G22 RMK AO2 PK WND 28029/1623 T10111061
04850KAOH AOH20161230114015412/30/16 11:40:31  5-MIN KAOH 301640Z AUTO 29014KT 10SM -SN BKN030 BKN041 M01/M06 A3003 870 69 -800 290/14 RMK AO2 PK WND 28029/1623 SNB38 P0000 T10111061
04850KAOH AOH20161230114515312/30/16 11:45:31  5-MIN KAOH 301645Z AUTO 28015KT 9SM -SN BKN030 BKN038 M01/M06 A3003 870 72 -800 290/15 RMK AO2 PK WND 28029/1623 SNB38 P0000 T10111056
04850KAOH AOH20161230115016512/30/16 11:50:31  5-MIN KAOH 301650Z AUTO 29015G21KT 9SM SCT028 BKN036 M01/M06 A3003 880 72 -800 290/15G21 RMK AO2 PK WND 28029/1623 SNB38E47 SLP180 P0000 T10111056
04850KAOH AOH20161230115512612/30/16 11:55:31  5-MIN KAOH 301655Z AUTO 29017G21KT 10SM SCT028 OVC036 M01/M07 A3003 870 66 -800 300/17G21 RMK AO2 T10111067
04850KAOH AOH20161230120012012/30/16 12:00:31  5-MIN KAOH 301700Z AUTO 28018KT 10SM SCT028 OVC036 M01/M07 A3003 880 66 -800 290/18 RMK AO2 T10111067
04850KAOH AOH20161230120512012/30/16 12:05:31  5-MIN KAOH 301705Z AUTO 29016KT 10SM FEW028 OVC036 M01/M07 A3003 880 66 -800 300/16 RMK AO2 T10111067
04850KAOH AOH20161230121012612/30/16 12:10:31  5-MIN KAOH 301710Z AUTO 29021G25KT 10SM FEW028 OVC036 M01/M07 A3003 880 63 -800 300/21G25 RMK AO2 T10111072
04850KAOH AOH20161230121512612/30/16 12:15:31  5-MIN KAOH 301715Z AUTO 29016G25KT 10SM FEW028 BKN036 M02/M07 A3002 880 66 -900 290/16G25 RMK AO2 T10171072
04850KAOH AOH20161230122011312/30/16 12:20:31  5-MIN KAOH 301720Z AUTO 30014KT 10SM BKN035 M01/M07 A3002 890 63 -800 300/14 RMK AO2 T10111072
04850KAOH AOH20161230122511312/30/16 12:25:31  5-MIN KAOH 301725Z AUTO 30015KT 10SM BKN035 M01/M07 A3002 890 66 -800 310/15 RMK AO2 T10111067
04850KAOH AOH20161230123011312/30/16 12:30:31  5-MIN KAOH 301730Z AUTO 28015KT 10SM BKN035 M01/M07 A3002 890 66 -800 280/15 RMK AO2 T10111067
04850KAOH AOH20161230123511312/30/16 12:35:31  5-MIN KAOH 301735Z AUTO 28016KT 10SM BKN034 M01/M06 A3001 890 69 -800 280/16 RMK AO2 T10111061
04850KAOH AOH20161230124011312/30/16 12:40:31  5-MIN KAOH 301740Z AUTO 26015KT 10SM BKN032 M01/M06 A3001 890 72 -800 270/15 RMK AO2 T10111056
04850KAOH AOH20161230124511912/30/16 12:45:31  5-MIN KAOH 301745Z AUTO 26017G21KT 10SM BKN032 M01/M06 A3001 890 69 -800 270/17G21 RMK AO2 T10111061
04850KAOH AOH20161230125014412/30/16 12:50:31  5-MIN KAOH 301750Z AUTO 26016KT 10SM BKN032 M01/M06 A3001 890 69 -700 260/16 RMK AO2 SLP173 60000 T10061056 11006 21022 53020
04850KAOH AOH20161230125511312/30/16 12:55:31  5-MIN KAOH 301755Z AUTO 25014KT 10SM BKN032 M01/M06 A3001 900 66 -700 260/14 RMK AO2 T10061061
04850KAOH AOH20161230130011912/30/16 13:00:31  5-MIN KAOH 301800Z AUTO 28014KT 10SM BKN030 BKN035 00/M06 A3001 900 66 -600 290/14 RMK AO2 T00001056
04850KAOH AOH20161230130511312/30/16 13:05:31  5-MIN KAOH 301805Z AUTO 26015KT 10SM BKN030 M01/M06 A3001 900 66 -700 260/15 RMK AO2 T10061061
04850KAOH AOH20161230131011312/30/16 13:10:31  5-MIN KAOH 301810Z AUTO 28015KT 10SM BKN031 M01/M06 A3001 900 66 -700 290/15 RMK AO2 T10061061
04850KAOH AOH20161230131511312/30/16 13:15:31  5-MIN KAOH 301815Z AUTO 28014KT 10SM SCT031 M01/M06 A3001 900 66 -700 290/14 RMK AO2 T10061061
04850KAOH AOH20161230132011912/30/16 13:20:31  5-MIN KAOH 301820Z AUTO 26018G24KT 10SM SCT033 M01/M06 A3000 900 69 -700 270/18G24 RMK AO2 T10061056
04850KAOH AOH20161230132511912/30/16 13:25:31  5-MIN KAOH 301825Z AUTO 28016G24KT 10SM SCT033 M01/M06 A3000 900 69 -700 280/16G24 RMK AO2 T10061056
04850KAOH AOH20161230133011212/30/16 13:30:31  5-MIN KAOH 301830Z AUTO 26014KT 10SM SCT033 00/M06 A3000 910 66 -600 270/14 RMK AO2 T00001056
04850KAOH AOH20161230133511212/30/16 13:35:31  5-MIN KAOH 301835Z AUTO 25017KT 10SM BKN033 01/M06 A3000 910 63 -500 260/17 RMK AO2 T00061056
04850KAOH AOH20161230134011212/30/16 13:40:31  5-MIN KAOH 301840Z AUTO 26018KT 10SM BKN033 00/M06 A2999 910 66 -600 260/18 RMK AO2 T00001056
04850KAOH AOH20161230134511312/30/16 13:45:31  5-MIN KAOH 301845Z AUTO 26014KT 10SM SCT033 M01/M06 A2999 910 66 -700 260/14 RMK AO2 T10061061
04850KAOH AOH20161230135012512/30/16 13:50:31  5-MIN KAOH 301850Z AUTO 25016G21KT 10SM SCT033 00/M06 A3000 910 66 -600 260/16G21 RMK AO2 SLP168 T00001056
04850KAOH AOH20161230135511212/30/16 13:55:31  5-MIN KAOH 301855Z AUTO 24016KT 10SM BKN031 00/M06 A3000 900 66 -600 240/16 RMK AO2 T00001056
04850KAOH AOH20161230140011812/30/16 14:00:31  5-MIN KAOH 301900Z AUTO 26019G24KT 10SM BKN031 00/M06 A3000 900 63 -600 260/19G24 RMK AO2 T00001061
04850KAOH AOH20161230140511812/30/16 14:05:31  5-MIN KAOH 301905Z AUTO 25016G24KT 10SM BKN031 00/M06 A3000 900 66 -600 260/16G24 RMK AO2 T00001056
04850KAOH AOH20161230141011212/30/16 14:10:31  5-MIN KAOH 301910Z AUTO 25018KT 10SM BKN031 00/M06 A3000 900 66 -600 250/18 RMK AO2 T00001056
04850KAOH AOH20161230141511212/30/16 14:15:31  5-MIN KAOH 301915Z AUTO 26018KT 10SM BKN031 00/M05 A3001 900 69 -600 270/18 RMK AO2 T00001050
04850KAOH AOH20161230142011912/30/16 14:20:31  5-MIN KAOH 301920Z AUTO 27017G23KT 10SM BKN031 M01/M06 A3001 900 72 -800 270/17G23 RMK AO2 T10111056
04850KAOH AOH20161230142511312/30/16 14:25:31  5-MIN KAOH 301925Z AUTO 26017KT 10SM SCT031 M01/M06 A3001 900 69 -700 260/17 RMK AO2 T10061056
04850KAOH AOH20161230143013612/30/16 14:30:31  5-MIN KAOH 301930Z AUTO 25020G26KT 10SM BKN031 00/M06 A3001 900 66 -600 260/20G26 RMK AO2 PK WND 25026/1929 T00001056
04850KAOH AOH20161230143513612/30/16 14:35:31  5-MIN KAOH 301935Z AUTO 25020G26KT 10SM BKN031 00/M05 A3001 900 69 -600 250/20G26 RMK AO2 PK WND 25026/1929 T00001050
04850KAOH AOH20161230144013612/30/16 14:40:31  5-MIN KAOH 301940Z AUTO 25017G25KT 10SM BKN029 00/M05 A3001 900 69 -600 260/17G25 RMK AO2 PK WND 25026/1929 T00001050
04850KAOH AOH20161230144513112/30/16 14:45:31  5-MIN KAOH 301945Z AUTO 25018KT 10SM BKN029 M01/M06 A3001 900 69 -700 260/18 RMK AO2 PK WND 25026/1929 T10061056
04850KAOH AOH20161230145013812/30/16 14:50:31  5-MIN KAOH 301950Z AUTO 27016KT 10SM BKN029 M01/M06 A3001 890 69 -700 270/16 RMK AO2 PK WND 25026/1929 SLP173 T10061056
04850KAOH AOH20161230145511312/30/16 14:55:31  5-MIN KAOH 301955Z AUTO 26017KT 10SM BKN029 M01/M06 A3001 890 72 -800 270/17 RMK AO2 T10111056
04850KAOH AOH20161230150011912/30/16 15:00:31  5-MIN KAOH 302000Z AUTO 26016G23KT 10SM BKN029 M01/M06 A3001 890 69 -800 270/16G23 RMK AO2 T10111061
04850KAOH AOH20161230150511912/30/16 15:05:31  5-MIN KAOH 302005Z AUTO 26018G24KT 10SM BKN029 M01/M06 A3001 890 69 -700 270/18G24 RMK AO2 T10061056
04850KAOH AOH20161230151011912/30/16 15:10:31  5-MIN KAOH 302010Z AUTO 25015G24KT 10SM BKN029 M01/M06 A3001 890 69 -700 250/15G24 RMK AO2 T10061056
04850KAOH AOH20161230151511212/30/16 15:15:31  5-MIN KAOH 302015Z AUTO 27015KT 10SM SCT029 00/M05 A3001 890 69 -600 270/15 RMK AO2 T00001050
04850KAOH AOH20161230152011212/30/16 15:20:31  5-MIN KAOH 302020Z AUTO 25015KT 10SM SCT029 00/M05 A3001 890 69 -600 260/15 RMK AO2 T00001050
04850KAOH AOH20161230152511312/30/16 15:25:31  5-MIN KAOH 302025Z AUTO 27016KT 10SM BKN029 M01/M06 A3001 890 69 -700 270/16 RMK AO2 T10061056
04850KAOH AOH20161230153011312/30/16 15:30:31  5-MIN KAOH 302030Z AUTO 25015KT 10SM BKN029 M01/M06 A3001 890 69 -700 260/15 RMK AO2 T10061056
04850KAOH AOH20161230153511812/30/16 15:35:31  5-MIN KAOH 302035Z AUTO 26017G23KT 10SM BKN029 00/M06 A3002 890 66 -600 260/17G23 RMK AO2 T00001056
04850KAOH AOH20161230154011812/30/16 15:40:31  5-MIN KAOH 302040Z AUTO 25018G23KT 10SM BKN029 00/M06 A3002 890 66 -600 260/18G23 RMK AO2 T00001056
04850KAOH AOH20161230154511312/30/16 15:45:31  5-MIN KAOH 302045Z AUTO 25019KT 10SM BKN029 M01/M06 A3002 890 66 -700 250/19 RMK AO2 T10061061
04850KAOH AOH20161230155012612/30/16 15:50:31  5-MIN KAOH 302050Z AUTO 25017KT 10SM BKN029 M01/M06 A3002 880 69 -800 260/17 RMK AO2 SLP177 T10111061 58001
04850KAOH AOH20161230155511312/30/16 15:55:31  5-MIN KAOH 302055Z AUTO 25017KT 10SM BKN029 M01/M06 A3002 880 66 -700 250/17 RMK AO2 T10061061
04850KAOH AOH20161230160011312/30/16 16:00:31  5-MIN KAOH 302100Z AUTO 26017KT 10SM BKN030 M01/M06 A3002 880 66 -700 260/17 RMK AO2 T10061061
04850KAOH AOH20161230160511312/30/16 16:05:31  5-MIN KAOH 302105Z AUTO 25017KT 10SM BKN030 M01/M06 A3002 880 69 -700 260/17 RMK AO2 T10061056
04850KAOH AOH20161230161011312/30/16 16:10:31  5-MIN KAOH 302110Z AUTO 25017KT 10SM BKN030 M01/M06 A3002 880 66 -700 260/17 RMK AO2 T10061061
04850KAOH AOH20161230161511312/30/16 16:15:31  5-MIN KAOH 302115Z AUTO 26018KT 10SM SCT030 M01/M06 A3002 880 69 -700 270/18 RMK AO2 T10061056
04850KAOH AOH20161230162011312/30/16 16:20:31  5-MIN KAOH 302120Z AUTO 26014KT 10SM SCT030 M01/M06 A3002 880 69 -700 270/14 RMK AO2 T10061056
04850KAOH AOH20161230162511312/30/16 16:25:31  5-MIN KAOH 302125Z AUTO 26017KT 10SM FEW030 M01/M06 A3002 880 69 -800 260/17 RMK AO2 T10111061
04850KAOH AOH20161230163011312/30/16 16:30:31  5-MIN KAOH 302130Z AUTO 26017KT 10SM FEW030 M01/M06 A3002 880 72 -800 260/17 RMK AO2 T10111056
04850KAOH AOH20161230163511912/30/16 16:35:31  5-MIN KAOH 302135Z AUTO 26013G21KT 10SM FEW120 M01/M06 A3002 880 69 -800 260/13G21 RMK AO2 T10111061
04850KAOH AOH20161230164011312/30/16 16:40:31  5-MIN KAOH 302140Z AUTO 25014KT 10SM FEW120 M01/M06 A3002 880 69 -800 260/14 RMK AO2 T10111061
04850KAOH AOH20161230164511312/30/16 16:45:31  5-MIN KAOH 302145Z AUTO 25015KT 10SM SCT120 M01/M06 A3003 880 72 -800 260/15 RMK AO2 T10111056
04850KAOH AOH20161230165012012/30/16 16:50:31  5-MIN KAOH 302150Z AUTO 25013KT 10SM BKN120 M01/M06 A3003 880 72 -800 260/13 RMK AO2 SLP178 T10111056
04850KAOH AOH20161230165511312/30/16 16:55:31  5-MIN KAOH 302155Z AUTO 25015KT 10SM BKN120 M01/M06 A3002 880 72 -800 260/15 RMK AO2 T10111056
04850KAOH AOH20161230170011312/30/16 17:00:31  5-MIN KAOH 302200Z AUTO 24013KT 10SM OVC120 M01/M06 A3002 880 72 -800 250/13 RMK AO2 T10111056
04850KAOH AOH20161230170511312/30/16 17:05:31  5-MIN KAOH 302205Z AUTO 24014KT 10SM OVC120 M01/M06 A3003 880 72 -800 250/14 RMK AO2 T10111056
04850KAOH AOH20161230171011312/30/16 17:10:31  5-MIN KAOH 302210Z AUTO 24010KT 10SM OVC120 M01/M06 A3003 880 72 -800 250/10 RMK AO2 T10111056
04850KAOH AOH20161230171511312/30/16 17:15:31  5-MIN KAOH 302215Z AUTO 24012KT 10SM OVC120 M01/M06 A3002 880 72 -800 250/12 RMK AO2 T10111056
04850KAOH AOH20161230172011312/30/16 17:20:31  5-MIN KAOH 302220Z AUTO 25011KT 10SM OVC120 M01/M06 A3002 880 72 -800 250/11 RMK AO2 T10111056
04850KAOH AOH20161230172511312/30/16 17:25:31  5-MIN KAOH 302225Z AUTO 24011KT 10SM OVC110 M01/M06 A3002 880 72 -800 240/11 RMK AO2 T10111056
04850KAOH AOH20161230173011312/30/16 17:30:31  5-MIN KAOH 302230Z AUTO 24010KT 10SM OVC110 M01/M06 A3002 880 72 -800 250/10 RMK AO2 T10111056
04850KAOH AOH20161230173511312/30/16 17:35:31  5-MIN KAOH 302235Z AUTO 24009KT 10SM OVC110 M01/M06 A3002 880 72 -800 240/09 RMK AO2 T10111056
04850KAOH AOH20161230174011312/30/16 17:40:31  5-MIN KAOH 302240Z AUTO 24009KT 10SM OVC110 M01/M06 A3002 880 72 -800 250/09 RMK AO2 T10111056
04850KAOH AOH20161230174511312/30/16 17:45:31  5-MIN KAOH 302245Z AUTO 24010KT 10SM OVC110 M01/M06 A3002 890 72 -800 250/10 RMK AO2 T10111056
04850KAOH AOH20161230175012012/30/16 17:50:31  5-MIN KAOH 302250Z AUTO 25011KT 10SM OVC110 M01/M06 A3002 880 72 -800 250/11 RMK AO2 SLP178 T10111056
04850KAOH AOH20161230175511312/30/16 17:55:31  5-MIN KAOH 302255Z AUTO 25011KT 10SM OVC110 M01/M06 A3002 880 72 -800 250/11 RMK AO2 T10111056
04850KAOH AOH20161230180011312/30/16 18:00:31  5-MIN KAOH 302300Z AUTO 24011KT 10SM OVC110 M01/M06 A3002 890 72 -800 250/11 RMK AO2 T10111056
04850KAOH AOH20161230180511312/30/16 18:05:31  5-MIN KAOH 302305Z AUTO 24010KT 10SM OVC110 M01/M06 A3001 890 72 -800 240/10 RMK AO2 T10111056
04850KAOH AOH20161230181011312/30/16 18:10:31  5-MIN KAOH 302310Z AUTO 23010KT 10SM OVC100 M01/M06 A3002 890 72 -800 240/10 RMK AO2 T10111056
04850KAOH AOH20161230181511312/30/16 18:15:31  5-MIN KAOH 302315Z AUTO 23009KT 10SM BKN110 M01/M06 A3001 900 72 -800 240/09 RMK AO2 T10111056
04850KAOH AOH20161230182011312/30/16 18:20:31  5-MIN KAOH 302320Z AUTO 23008KT 10SM BKN110 M01/M06 A3001 900 72 -800 240/08 RMK AO2 T10111056
04850KAOH AOH20161230182511312/30/16 18:25:31  5-MIN KAOH 302325Z AUTO 23009KT 10SM SCT100 M01/M06 A3001 900 72 -800 230/09 RMK AO2 T10111056
04850KAOH AOH20161230183011312/30/16 18:30:31  5-MIN KAOH 302330Z AUTO 23009KT 10SM FEW100 M01/M06 A3001 900 72 -800 240/09 RMK AO2 T10111056
04850KAOH AOH20161230183511312/30/16 18:35:31  5-MIN KAOH 302335Z AUTO 23007KT 10SM FEW100 M01/M06 A3001 890 72 -800 230/07 RMK AO2 T10111056
04850KAOH AOH20161230184011012/30/16 18:40:31  5-MIN KAOH 302340Z AUTO 23007KT 10SM CLR M01/M06 A3001 890 72 -800 230/07 RMK AO2 T10111056
04850KAOH AOH20161230184511312/30/16 18:45:31  5-MIN KAOH 302345Z AUTO 23007KT 10SM FEW100 M01/M06 A3002 890 72 -800 230/07 RMK AO2 T10111056
04850KAOH AOH20161230185013812/30/16 18:50:31  5-MIN KAOH 302350Z AUTO 23007KT 10SM SCT100 M01/M06 A3002 890 72 -800 240/07 RMK AO2 SLP175 T10111056 10006 21011 53004
04850KAOH AOH20161230185511312/30/16 18:55:31  5-MIN KAOH 302355Z AUTO 22008KT 10SM SCT100 M02/M06 A3001 890 75 -800 230/08 RMK AO2 T10171056
04850KAOH AOH20161230190011312/30/16 19:00:31  5-MIN KAOH 310000Z AUTO 21007KT 10SM SCT100 M02/M06 A3001 890 75 -800 220/07 RMK AO2 T10171056
04850KAOH AOH20161230190511312/30/16 19:05:31  5-MIN KAOH 310005Z AUTO 22008KT 10SM BKN100 M01/M06 A3002 890 72 -800 220/08 RMK AO2 T10111056
04850KAOH AOH20161230191011312/30/16 19:10:31  5-MIN KAOH 310010Z AUTO 22008KT 10SM BKN100 M01/M06 A3002 890 72 -800 230/08 RMK AO2 T10111056
04850KAOH AOH20161230191511312/30/16 19:15:31  5-MIN KAOH 310015Z AUTO 22008KT 10SM BKN100 M01/M06 A3001 890 72 -800 220/08 RMK AO2 T10111056
04850KAOH AOH20161230192011312/30/16 19:20:31  5-MIN KAOH 310020Z AUTO 21007KT 10SM SCT110 M01/M06 A3001 890 72 -800 220/07 RMK AO2 T10111056
04850KAOH AOH20161230192511312/30/16 19:25:31  5-MIN KAOH 310025Z AUTO 21007KT 10SM BKN100 M01/M06 A3001 890 72 -800 220/07 RMK AO2 T10111056
04850KAOH AOH20161230193011312/30/16 19:30:31  5-MIN KAOH 310030Z AUTO 22008KT 10SM BKN100 M02/M06 A3001 890 75 -800 220/08 RMK AO2 T10171056
04850KAOH AOH20161230193511312/30/16 19:35:31  5-MIN KAOH 310035Z AUTO 21007KT 10SM BKN100 M02/M06 A3001 890 75 -800 220/07 RMK AO2 T10171056
04850KAOH AOH20161230194011312/30/16 19:40:31  5-MIN KAOH 310040Z AUTO 21006KT 10SM BKN100 M02/M06 A3001 900 75 -800 220/06 RMK AO2 T10171056
04850KAOH AOH20161230194511312/30/16 19:45:31  5-MIN KAOH 310045Z AUTO 21007KT 10SM BKN100 M02/M06 A3001 900 75 -800 220/07 RMK AO2 T10171056
04850KAOH AOH20161230195012012/30/16 19:50:31  5-MIN KAOH 310050Z AUTO 21005KT 10SM BKN100 M02/M06 A3001 900 75 -800 220/05 RMK AO2 SLP172 T10171056
04850KAOH AOH20161230195511312/30/16 19:55:31  5-MIN KAOH 310055Z AUTO 20006KT 10SM BKN100 M02/M06 A3000 900 75 -800 200/06 RMK AO2 T10171056
04850KAOH AOH20161230200012012/30/16 20:00:31  5-MIN KAOH 310100Z AUTO 19006KT 10SM BKN100 BKN120 M02/M06 A3000 910 75 -800 200/06 RMK AO2 T10171056
04850KAOH AOH20161230200512012/30/16 20:05:31  5-MIN KAOH 310105Z AUTO 20006KT 10SM SCT100 BKN120 M02/M06 A3000 910 75 -800 200/06 RMK AO2 T10171056
04850KAOH AOH20161230201012012/30/16 20:10:31  5-MIN KAOH 310110Z AUTO 20007KT 10SM FEW100 BKN120 M02/M06 A2999 910 75 -800 200/07 RMK AO2 T10171056
04850KAOH AOH20161230201511312/30/16 20:15:31  5-MIN KAOH 310115Z AUTO 20006KT 10SM BKN110 M02/M06 A2999 910 75 -800 200/06 RMK AO2 T10171056
04850KAOH AOH20161230202011312/30/16 20:20:31  5-MIN KAOH 310120Z AUTO 19006KT 10SM BKN110 M02/M06 A2999 920 75 -800 200/06 RMK AO2 T10171056
04850KAOH AOH20161230202511312/30/16 20:25:31  5-MIN KAOH 310125Z AUTO 20006KT 10SM BKN110 M02/M06 A2999 920 75 -800 200/06 RMK AO2 T10171056
04850KAOH AOH20161230203011312/30/16 20:30:31  5-MIN KAOH 310130Z AUTO 20006KT 10SM SCT110 M02/M06 A2999 920 75 -800 200/06 RMK AO2 T10171056
04850KAOH AOH20161230203511312/30/16 20:35:31  5-MIN KAOH 310135Z AUTO 20007KT 10SM SCT110 M02/M06 A2998 920 78 -900 200/07 RMK AO2 T10221056
04850KAOH AOH20161230204011312/30/16 20:40:31  5-MIN KAOH 310140Z AUTO 20007KT 10SM FEW100 M02/M06 A2998 920 78 -900 200/07 RMK AO2 T10221056
04850KAOH AOH20161230204511312/30/16 20:45:31  5-MIN KAOH 310145Z AUTO 20007KT 10SM FEW100 M02/M06 A2998 920 75 -800 210/07 RMK AO2 T10171056
04850KAOH AOH20161230205011712/30/16 20:50:31  5-MIN KAOH 310150Z AUTO 20008KT 10SM CLR M02/M06 A2998 920 78 -900 210/08 RMK AO2 SLP163 T10221056
04850KAOH AOH20161230205511012/30/16 20:55:31  5-MIN KAOH 310155Z AUTO 20008KT 10SM CLR M02/M06 A2998 930 75 -800 210/08 RMK AO2 T10171056
04850KAOH AOH20161230210011012/30/16 21:00:31  5-MIN KAOH 310200Z AUTO 20009KT 10SM CLR M02/M06 A2997 930 75 -800 200/09 RMK AO2 T10171056
04850KAOH AOH20161230210511012/30/16 21:05:31  5-MIN KAOH 310205Z AUTO 20008KT 10SM CLR M02/M06 A2997 930 75 -800 210/08 RMK AO2 T10171056
04850KAOH AOH20161230211011012/30/16 21:10:31  5-MIN KAOH 310210Z AUTO 20008KT 10SM CLR M02/M06 A2996 940 72 -800 200/08 RMK AO2 T10171061
04850KAOH AOH20161230211511012/30/16 21:15:31  5-MIN KAOH 310215Z AUTO 20009KT 10SM CLR M02/M06 A2996 940 72 -800 200/09 RMK AO2 T10171061
04850KAOH AOH20161230212011012/30/16 21:20:31  5-MIN KAOH 310220Z AUTO 20008KT 10SM CLR M02/M06 A2996 940 72 -800 210/08 RMK AO2 T10171061
04850KAOH AOH20161230212511012/30/16 21:25:31  5-MIN KAOH 310225Z AUTO 20008KT 10SM CLR M02/M06 A2996 940 72 -800 200/08 RMK AO2 T10171061
04850KAOH AOH20161230213011012/30/16 21:30:31  5-MIN KAOH 310230Z AUTO 20008KT 10SM CLR M02/M06 A2996 940 72 -800 200/08 RMK AO2 T10171061
04850KAOH AOH20161230213511012/30/16 21:35:31  5-MIN KAOH 310235Z AUTO 19009KT 10SM CLR M02/M06 A2996 940 72 -800 200/09 RMK AO2 T10171061
04850KAOH AOH20161230214011012/30/16 21:40:31  5-MIN KAOH 310240Z AUTO 19009KT 10SM CLR M02/M06 A2995 950 72 -800 200/09 RMK AO2 T10171061
04850KAOH AOH20161230214511012/30/16 21:45:31  5-MIN KAOH 310245Z AUTO 19011KT 10SM CLR M02/M06 A2995 950 72 -800 200/11 RMK AO2 T10171061
04850KAOH AOH20161230215012312/30/16 21:50:31  5-MIN KAOH 310250Z AUTO 19009KT 10SM CLR M02/M06 A2994 960 72 -800 190/09 RMK AO2 SLP150 T10171061 58003
04850KAOH AOH20161230215511012/30/16 21:55:31  5-MIN KAOH 310255Z AUTO 19010KT 10SM CLR M02/M06 A2994 960 72 -800 200/10 RMK AO2 T10171061
04850KAOH AOH20161230220011012/30/16 22:00:31  5-MIN KAOH 310300Z AUTO 19008KT 10SM CLR M01/M06 A2994 950 69 -700 200/08 RMK AO2 T10111061
04850KAOH AOH20161230220511012/30/16 22:05:31  5-MIN KAOH 310305Z AUTO 20007KT 10SM CLR M01/M06 A2995 950 69 -700 200/07 RMK AO2 T10111061
04850KAOH AOH20161230221011012/30/16 22:10:31  5-MIN KAOH 310310Z AUTO 20008KT 10SM CLR M01/M06 A2995 950 69 -700 210/08 RMK AO2 T10111061
04850KAOH AOH20161230221511012/30/16 22:15:31  5-MIN KAOH 310315Z AUTO 20008KT 10SM CLR M01/M06 A2995 950 69 -700 200/08 RMK AO2 T10111061
04850KAOH AOH20161230222011012/30/16 22:20:31  5-MIN KAOH 310320Z AUTO 20010KT 10SM CLR M02/M06 A2995 950 72 -800 200/10 RMK AO2 T10171061
04850KAOH AOH20161230222511012/30/16 22:25:31  5-MIN KAOH 310325Z AUTO 19009KT 10SM CLR M02/M06 A2994 950 72 -800 200/09 RMK AO2 T10171061
04850KAOH AOH20161230223011012/30/16 22:30:31  5-MIN KAOH 310330Z AUTO 19009KT 10SM CLR M02/M06 A2994 960 72 -800 200/09 RMK AO2 T10171061
04850KAOH AOH20161230223511012/30/16 22:35:31  5-MIN KAOH 310335Z AUTO 19009KT 10SM CLR M02/M06 A2994 960 72 -800 200/09 RMK AO2 T10171061
04850KAOH AOH20161230224011012/30/16 22:40:31  5-MIN KAOH 310340Z AUTO 20009KT 10SM CLR M02/M06 A2994 960 72 -800 200/09 RMK AO2 T10171061
04850KAOH AOH20161230224511012/30/16 22:45:31  5-MIN KAOH 310345Z AUTO 20009KT 10SM CLR M01/M07 A2994 960 66 -700 210/09 RMK AO2 T10111067
04850KAOH AOH20161230225011712/30/16 22:50:31  5-MIN KAOH 310350Z AUTO 19008KT 10SM CLR M01/M07 A2994 960 66 -700 200/08 RMK AO2 SLP148 T10111067
04850KAOH AOH20161230225511012/30/16 22:55:31  5-MIN KAOH 310355Z AUTO 20010KT 10SM CLR M02/M07 A2993 960 69 -800 200/10 RMK AO2 T10171067
04850KAOH AOH20161230230011012/30/16 23:00:31  5-MIN KAOH 310400Z AUTO 20011KT 10SM CLR M01/M07 A2993 960 66 -700 210/11 RMK AO2 T10111067
04850KAOH AOH20161230230511012/30/16 23:05:31  5-MIN KAOH 310405Z AUTO 20012KT 10SM CLR M01/M07 A2993 960 66 -700 210/12 RMK AO2 T10111067
04850KAOH AOH20161230231011612/30/16 23:10:31  5-MIN KAOH 310410Z AUTO 20011G19KT 10SM CLR M01/M07 A2993 970 66 -700 210/11G19 RMK AO2 T10111067
04850KAOH AOH20161230231511612/30/16 23:15:31  5-MIN KAOH 310415Z AUTO 20011G19KT 10SM CLR M01/M07 A2993 970 66 -700 210/11G19 RMK AO2 T10111067
04850KAOH AOH20161230232011612/30/16 23:20:31  5-MIN KAOH 310420Z AUTO 20011G20KT 10SM CLR M01/M07 A2993 970 66 -700 210/11G20 RMK AO2 T10111067
04850KAOH AOH20161230232511612/30/16 23:25:31  5-MIN KAOH 310425Z AUTO 20013G20KT 10SM CLR M01/M07 A2993 970 66 -700 200/13G20 RMK AO2 T10111067
04850KAOH AOH20161230233011012/30/16 23:30:31  5-MIN KAOH 310430Z AUTO 20011KT 10SM CLR M01/M07 A2993 970 66 -700 210/11 RMK AO2 T10111067
04850KAOH AOH20161230233511012/30/16 23:35:31  5-MIN KAOH 310435Z AUTO 20010KT 10SM CLR M01/M07 A2993 970 66 -700 210/10 RMK AO2 T10111067
04850KAOH AOH20161230234011612/30/16 23:40:31  5-MIN KAOH 310440Z AUTO 20012G17KT 10SM CLR M01/M07 A2993 970 66 -700 210/12G17 RMK AO2 T10111067
04850KAOH AOH20161230234511012/30/16 23:45:31  5-MIN KAOH 310445Z AUTO 20011KT 10SM CLR M01/M07 A2993 970 66 -700 210/11 RMK AO2 T10111067
04850KAOH AOH20161230235012712/30/16 23:50:31  5-MIN KAOH 310450Z AUTO 20011KT 10SM CLR M01/M07 A2993 970 66 -700 200/11 RMK AO2 SLP144 T10111067 400061022
04850KAOH AOH20161230235511012/30/16 23:55:31  5-MIN KAOH 310455Z AUTO 20010KT 10SM CLR M01/M07 A2992 970 66 -700 200/10 RMK AO2 T10111067
04850KAOH AOH20161231000011012/31/16 00:00:31  5-MIN KAOH 310500Z AUTO 20011KT 10SM CLR M01/M07 A2992 980 66 -700 200/11 RMK AO2 T10111067
04850KAOH AOH20161231000511012/31/16 00:05:31  5-MIN KAOH 310505Z AUTO 19010KT 10SM CLR M01/M07 A2992 980 66 -700 200/10 RMK AO2 T10111067
04850KAOH AOH20161231001011012/31/16 00:10:31  5-MIN KAOH 310510Z AUTO 20012KT 10SM CLR M01/M07 A2992 980 66 -700 200/12 RMK AO2 T10111067
04850KAOH AOH20161231001511012/31/16 00:15:31  5-MIN KAOH 310515Z AUTO 20011KT 10SM CLR M01/M07 A2991 980 66 -700 200/11 RMK AO2 T10111067
04850KAOH AOH20161231002011012/31/16 00:20:31  5-MIN KAOH 310520Z AUTO 20011KT 10SM CLR M01/M07 A2991 990 66 -700 200/11 RMK AO2 T10111067
04850KAOH AOH20161231002511012/31/16 00:25:31  5-MIN KAOH 310525Z AUTO 19012KT 10SM CLR M01/M07 A2991 990 66 -600 200/12 RMK AO2 T10111067
04850KAOH AOH20161231003011012/31/16 00:30:31  5-MIN KAOH 310530Z AUTO 19012KT 10SM CLR M01/M07 A2990 990 66 -600 200/12 RMK AO2 T10111067
04850KAOH AOH20161231003511112/31/16 00:35:31  5-MIN KAOH 310535Z AUTO 19011KT 10SM CLR M01/M07 A2990 1000 66 -600 200/11 RMK AO2 T10111067
04850KAOH AOH20161231004011112/31/16 00:40:31  5-MIN KAOH 310540Z AUTO 19011KT 10SM CLR M01/M07 A2990 1000 66 -600 200/11 RMK AO2 T10111067
04850KAOH AOH20161231004511112/31/16 00:45:31  5-MIN KAOH 310545Z AUTO 19010KT 10SM CLR M01/M07 A2989 1000 66 -600 190/10 RMK AO2 T10111067
04850KAOH AOH20161231005013612/31/16 00:50:31  5-MIN KAOH 310550Z AUTO 19011KT 10SM CLR M01/M07 A2989 1010 66 -600 190/11 RMK AO2 SLP132 T10111067 11011 21022 58023
04850KAOH AOH20161231005511112/31/16 00:55:31  5-MIN KAOH 310555Z AUTO 19010KT 10SM CLR M01/M07 A2989 1010 66 -600 190/10 RMK AO2 T10111067
04850KAOH AOH20161231010011112/31/16 01:00:31  5-MIN KAOH 310600Z AUTO 19011KT 10SM CLR M01/M07 A2988 1010 66 -600 200/11 RMK AO2 T10111067
04850KAOH AOH20161231010511112/31/16 01:05:31  5-MIN KAOH 310605Z AUTO 18011KT 10SM CLR M01/M07 A2988 1010 66 -600 190/11 RMK AO2 T10111067
04850KAOH AOH20161231011011712/31/16 01:10:31  5-MIN KAOH 310610Z AUTO 19012G19KT 10SM CLR M01/M07 A2988 1020 66 -600 200/12G19 RMK AO2 T10111067
04850KAOH AOH20161231011511112/31/16 01:15:31  5-MIN KAOH 310615Z AUTO 19011KT 10SM CLR M01/M07 A2987 1020 63 -500 190/11 RMK AO2 T10061067
04850KAOH AOH20161231012011112/31/16 01:20:31  5-MIN KAOH 310620Z AUTO 19011KT 10SM CLR M01/M07 A2987 1020 63 -500 190/11 RMK AO2 T10061067
04850KAOH AOH20161231012511112/31/16 01:25:31  5-MIN KAOH 310625Z AUTO 18011KT 10SM CLR M01/M07 A2987 1030 63 -500 190/11 RMK AO2 T10061067
04850KAOH AOH20161231013011112/31/16 01:30:31  5-MIN KAOH 310630Z AUTO 19012KT 10SM CLR M01/M07 A2986 1030 63 -500 190/12 RMK AO2 T10061067
04850KAOH AOH20161231013511112/31/16 01:35:31  5-MIN KAOH 310635Z AUTO 19012KT 10SM CLR M01/M07 A2986 1030 63 -500 190/12 RMK AO2 T10061067
04850KAOH AOH20161231014011112/31/16 01:40:31  5-MIN KAOH 310640Z AUTO 18012KT 10SM CLR M01/M06 A2985 1040 66 -500 190/12 RMK AO2 T10061061
04850KAOH AOH20161231014511012/31/16 01:45:31  5-MIN KAOH 310645Z AUTO 19013KT 10SM CLR 00/M06 A2985 1040 63 -400 190/13 RMK AO2 T00001061
04850KAOH AOH20161231015011712/31/16 01:50:31  5-MIN KAOH 310650Z AUTO 19012KT 10SM CLR 00/M07 A2985 1040 61 -400 200/12 RMK AO2 SLP117 T00001067
04850KAOH AOH20161231015511612/31/16 01:55:31  5-MIN KAOH 310655Z AUTO 19012G19KT 10SM CLR 00/M07 A2985 1040 61 -400 200/12G19 RMK AO2 T00001067
04850KAOH AOH20161231020011012/31/16 02:00:31  5-MIN KAOH 310700Z AUTO 19012KT 10SM CLR 00/M07 A2985 1050 61 -400 200/12 RMK AO2 T00001067
04850KAOH AOH20161231020511012/31/16 02:05:31  5-MIN KAOH 310705Z AUTO 20011KT 10SM CLR 00/M07 A2984 1050 61 -400 200/11 RMK AO2 T00001067
04850KAOH AOH20161231021011012/31/16 02:10:31  5-MIN KAOH 310710Z AUTO 19014KT 10SM CLR 00/M06 A2984 1050 63 -400 200/14 RMK AO2 T00001061
04850KAOH AOH20161231021511012/31/16 02:15:31  5-MIN KAOH 310715Z AUTO 19013KT 10SM CLR 00/M06 A2984 1050 63 -400 200/13 RMK AO2 T00001061
04850KAOH AOH20161231022011012/31/16 02:20:31  5-MIN KAOH 310720Z AUTO 19012KT 10SM CLR 00/M06 A2984 1050 63 -400 200/12 RMK AO2 T00001061
04850KAOH AOH20161231022511612/31/16 02:25:31  5-MIN KAOH 310725Z AUTO 19013G20KT 10SM CLR 00/M06 A2983 1060 63 -400 200/13G20 RMK AO2 T00001061
04850KAOH AOH20161231023011012/31/16 02:30:31  5-MIN KAOH 310730Z AUTO 19013KT 10SM CLR 01/M06 A2983 1060 61 -400 200/13 RMK AO2 T00061061
04850KAOH AOH20161231023511012/31/16 02:35:31  5-MIN KAOH 310735Z AUTO 19014KT 10SM CLR 01/M07 A2983 1060 58 -400 200/14 RMK AO2 T00061067
04850KAOH AOH20161231024011612/31/16 02:40:31  5-MIN KAOH 310740Z AUTO 19015G22KT 10SM CLR 01/M07 A2983 1070 58 -300 200/15G22 RMK AO2 T00061067
04850KAOH AOH20161231024511612/31/16 02:45:31  5-MIN KAOH 310745Z AUTO 20014G24KT 10SM CLR 01/M07 A2983 1060 58 -300 210/14G24 RMK AO2 T00061067
04850KAOH AOH20161231025012312/31/16 02:50:31  5-MIN KAOH 310750Z AUTO 20013G24KT 10SM CLR 01/M07 A2983 1070 56 -300 210/13G24 RMK AO2 SLP109 T00111067
04850KAOH AOH20161231025511012/31/16 02:55:31  5-MIN KAOH 310755Z AUTO 20014KT 10SM CLR 01/M07 A2983 1070 56 -300 200/14 RMK AO2 T00111067
04850KAOH AOH20161231030011612/31/16 03:00:31  5-MIN KAOH 310800Z AUTO 20013G21KT 10SM CLR 01/M07 A2982 1070 56 -300 210/13G21 RMK AO2 T00111067
04850KAOH AOH20161231030511612/31/16 03:05:31  5-MIN KAOH 310805Z AUTO 20013G21KT 10SM CLR 01/M07 A2982 1070 56 -300 210/13G21 RMK AO2 T00111067
04850KAOH AOH20161231031011612/31/16 03:10:31  5-MIN KAOH 310810Z AUTO 20012G20KT 10SM CLR 01/M07 A2981 1080 56 -300 200/12G20 RMK AO2 T00111067
04850KAOH AOH20161231031511012/31/16 03:15:31  5-MIN KAOH 310815Z AUTO 19013KT 10SM CLR 01/M07 A2981 1080 56 -300 200/13 RMK AO2 T00111067
04850KAOH AOH20161231032011612/31/16 03:20:31  5-MIN KAOH 310820Z AUTO 20013G22KT 10SM CLR 01/M07 A2980 1080 56 -300 210/13G22 RMK AO2 T00111067
04850KAOH AOH20161231032511612/31/16 03:25:31  5-MIN KAOH 310825Z AUTO 20015G22KT 10SM CLR 02/M07 A2980 1090 54 -200 210/15G22 RMK AO2 T00171067
04850KAOH AOH20161231033011612/31/16 03:30:31  5-MIN KAOH 310830Z AUTO 20014G22KT 10SM CLR 02/M07 A2980 1090 54 -200 210/14G22 RMK AO2 T00171067
04850KAOH AOH20161231033513412/31/16 03:35:31  5-MIN KAOH 310835Z AUTO 21019G27KT 10SM CLR 02/M07 A2979 1100 52 -100 210/19G27 RMK AO2 PK WND 20027/0834 T00221067
04850KAOH AOH20161231034013412/31/16 03:40:31  5-MIN KAOH 310840Z AUTO 20016G27KT 10SM CLR 02/M07 A2979 1100 52 -100 210/16G27 RMK AO2 PK WND 20027/0834 T00221067
04850KAOH AOH20161231034513412/31/16 03:45:31  5-MIN KAOH 310845Z AUTO 20015G24KT 10SM CLR 02/M07 A2979 1100 52 -100 210/15G24 RMK AO2 PK WND 20027/0834 T00221067
04850KAOH AOH20161231035014712/31/16 03:50:31  5-MIN KAOH 310850Z AUTO 20016G25KT 10SM CLR 02/M07 A2978 1100 54 -200 210/16G25 RMK AO2 PK WND 20027/0834 SLP094 T00171067 58018
04850KAOH AOH20161231035511612/31/16 03:55:31  5-MIN KAOH 310855Z AUTO 21020G29KT 10SM CLR 02/M07 A2978 1110 50 -100 210/20G29 RMK AO2 T00221072
04850KAOH AOH20161231040013412/31/16 04:00:31  5-MIN KAOH 310900Z AUTO 20017G29KT 10SM CLR 02/M07 A2977 1110 50 -100 210/17G29 RMK AO2 PK WND 20026/0859 T00221072
04850KAOH AOH20161231040513412/31/16 04:05:31  5-MIN KAOH 310905Z AUTO 20017G26KT 10SM CLR 02/M07 A2977 1110 52 -100 210/17G26 RMK AO2 PK WND 21026/0904 T00221067
04850KAOH AOH20161231041013412/31/16 04:10:31  5-MIN KAOH 310910Z AUTO 20016G26KT 10SM CLR 02/M07 A2977 1110 54 -100 210/16G26 RMK AO2 PK WND 21026/0904 T00171067
04850KAOH AOH20161231041513412/31/16 04:15:31  5-MIN KAOH 310915Z AUTO 21015G25KT 10SM CLR 02/M07 A2977 1120 52 -100 210/15G25 RMK AO2 PK WND 21026/0904 T00221067
04850KAOH AOH20161231042013412/31/16 04:20:31  5-MIN KAOH 310920Z AUTO 21020G29KT 10SM CLR 02/M07 A2977 1120 52 -100 210/20G29 RMK AO2 PK WND 20029/0919 T00221067
04850KAOH AOH20161231042513412/31/16 04:25:31  5-MIN KAOH 310925Z AUTO 20019G29KT 10SM CLR 02/M07 A2976 1120 50 -100 210/19G29 RMK AO2 PK WND 20029/0919 T00221072
04850KAOH AOH20161231043013412/31/16 04:30:31  5-MIN KAOH 310930Z AUTO 20018G27KT 10SM CLR 02/M07 A2976 1130 50 -100 210/18G27 RMK AO2 PK WND 20029/0919 T00221072
04850KAOH AOH20161231043513412/31/16 04:35:31  5-MIN KAOH 310935Z AUTO 21019G27KT 10SM CLR 02/M07 A2976 1130 50 -100 210/19G27 RMK AO2 PK WND 20029/0919 T00221072
04850KAOH AOH20161231044013412/31/16 04:40:31  5-MIN KAOH 310940Z AUTO 21018G27KT 10SM CLR 02/M07 A2975 1130 50 -100 210/18G27 RMK AO2 PK WND 20029/0919 T00221072
04850KAOH AOH20161231044513412/31/16 04:45:31  5-MIN KAOH 310945Z AUTO 20019G27KT 10SM CLR 02/M07 A2975 1130 52 -100 210/19G27 RMK AO2 PK WND 20029/0919 T00221067
04850KAOH AOH20161231045014112/31/16 04:50:31  5-MIN KAOH 310950Z AUTO 20019G26KT 10SM CLR 02/M07 A2975 1140 50 -100 210/19G26 RMK AO2 PK WND 20029/0919 SLP083 T00221072
04850KAOH AOH20161231045511312/31/16 04:55:31  5-MIN KAOH 310955Z AUTO 21018G26KT 10SM CLR 02/M07 A2975 1140 52 0 210/18G26 RMK AO2 T00221067
04850KAOH AOH20161231050013112/31/16 05:00:31  5-MIN KAOH 311000Z AUTO 20018G26KT 10SM CLR 02/M07 A2974 1140 50 0 210/18G26 RMK AO2 PK WND 20026/0957 T00221072
04850KAOH AOH20161231050513412/31/16 05:05:31  5-MIN KAOH 311005Z AUTO 20019G26KT 10SM CLR 02/M07 A2974 1150 54 -100 210/19G26 RMK AO2 PK WND 20026/0957 T00171067
04850KAOH AOH20161231051013412/31/16 05:10:31  5-MIN KAOH 311010Z AUTO 20018G27KT 10SM CLR 02/M07 A2974 1140 54 -100 210/18G27 RMK AO2 PK WND 20027/1006 T00171067
04850KAOH AOH20161231051513412/31/16 05:15:31  5-MIN KAOH 311015Z AUTO 21019G27KT 10SM CLR 02/M07 A2974 1150 54 -100 210/19G27 RMK AO2 PK WND 20027/1006 T00171067
04850KAOH AOH20161231052013412/31/16 05:20:31  5-MIN KAOH 311020Z AUTO 20019G27KT 10SM CLR 02/M07 A2973 1150 52 -100 210/19G27 RMK AO2 PK WND 20027/1017 T00171072
04850KAOH AOH20161231052513412/31/16 05:25:31  5-MIN KAOH 311025Z AUTO 20020G29KT 10SM CLR 02/M07 A2973 1150 54 -100 210/20G29 RMK AO2 PK WND 21029/1024 T00171067
04850KAOH AOH20161231053013412/31/16 05:30:31  5-MIN KAOH 311030Z AUTO 20018G29KT 10SM CLR 02/M07 A2973 1150 54 -100 210/18G29 RMK AO2 PK WND 21029/1024 T00171067
04850KAOH AOH20161231053513412/31/16 05:35:31  5-MIN KAOH 311035Z AUTO 21018G26KT 10SM CLR 02/M07 A2973 1150 54 -100 210/18G26 RMK AO2 PK WND 21029/1024 T00171067
04850KAOH AOH20161231054013412/31/16 05:40:31  5-MIN KAOH 311040Z AUTO 20016G26KT 10SM CLR 02/M07 A2972 1160 54 -100 210/16G26 RMK AO2 PK WND 21029/1024 T00171067
04850KAOH AOH20161231054513412/31/16 05:45:31  5-MIN KAOH 311045Z AUTO 21017G24KT 10SM CLR 02/M07 A2973 1160 54 -100 210/17G24 RMK AO2 PK WND 21029/1024 T00171067
04850KAOH AOH20161231055014112/31/16 05:50:31  5-MIN KAOH 311050Z AUTO 20017G27KT 10SM CLR 02/M07 A2972 1160 54 -100 210/17G27 RMK AO2 PK WND 21029/1024 SLP074 T00171067
04850KAOH AOH20161231055511612/31/16 05:55:31  5-MIN KAOH 311055Z AUTO 20018G27KT 10SM CLR 02/M07 A2972 1160 54 -100 210/18G27 RMK AO2 T00171067
04850KAOH AOH20161231060013412/31/16 06:00:31  5-MIN KAOH 311100Z AUTO 20019G26KT 10SM CLR 02/M07 A2972 1160 54 -100 210/19G26 RMK AO2 PK WND 20026/1100 T00171067
04850KAOH AOH20161231060513412/31/16 06:05:31  5-MIN KAOH 311105Z AUTO 21017G26KT 10SM CLR 02/M07 A2972 1170 54 -100 210/17G26 RMK AO2 PK WND 20026/1100 T00171067
04850KAOH AOH20161231061013412/31/16 06:10:31  5-MIN KAOH 311110Z AUTO 21017G28KT 10SM CLR 02/M07 A2971 1170 54 -100 210/17G28 RMK AO2 PK WND 20028/1107 T00171067
04850KAOH AOH20161231061513412/31/16 06:15:31  5-MIN KAOH 311115Z AUTO 21016G28KT 10SM CLR 02/M07 A2971 1170 54 -100 210/16G28 RMK AO2 PK WND 20028/1107 T00171067
04850KAOH AOH20161231062013412/31/16 06:20:31  5-MIN KAOH 311120Z AUTO 20017G25KT 10SM CLR 02/M07 A2971 1170 54 -100 210/17G25 RMK AO2 PK WND 20028/1107 T00171067
04850KAOH AOH20161231062513412/31/16 06:25:31  5-MIN KAOH 311125Z AUTO 21016G27KT 10SM CLR 02/M07 A2971 1170 54 -100 220/16G27 RMK AO2 PK WND 20028/1107 T00171067
04850KAOH AOH20161231063013412/31/16 06:30:31  5-MIN KAOH 311130Z AUTO 20015G27KT 10SM CLR 02/M07 A2971 1170 54 -100 210/15G27 RMK AO2 PK WND 20028/1107 T00171067
04850KAOH AOH20161231063513412/31/16 06:35:31  5-MIN KAOH 311135Z AUTO 21016G27KT 10SM CLR 02/M07 A2971 1170 54 -100 210/16G27 RMK AO2 PK WND 20028/1107 T00171067
04850KAOH AOH20161231064013412/31/16 06:40:31  5-MIN KAOH 311140Z AUTO 20018G24KT 10SM CLR 02/M07 A2971 1170 54 -100 210/18G24 RMK AO2 PK WND 20028/1107 T00171067
04850KAOH AOH20161231064513412/31/16 06:45:31  5-MIN KAOH 311145Z AUTO 20018G26KT 10SM CLR 02/M07 A2971 1170 54 -100 210/18G26 RMK AO2 PK WND 20028/1107 T00171067
04850KAOH AOH20161231065015912/31/16 06:50:31  5-MIN KAOH 311150Z AUTO 21018G26KT 10SM CLR 02/M07 A2971 1180 54 -100 210/18G26 RMK AO2 PK WND 20028/1107 SLP068 T00171067 10022 21011 58037
04850KAOH AOH20161231065511612/31/16 06:55:31  5-MIN KAOH 311155Z AUTO 21016G25KT 10SM CLR 02/M07 A2971 1170 54 -100 220/16G25 RMK AO2 T00171067
04850KAOH AOH20161231070011612/31/16 07:00:31  5-MIN KAOH 311200Z AUTO 21015G24KT 10SM CLR 02/M07 A2971 1170 54 -100 210/15G24 RMK AO2 T00171067
04850KAOH AOH20161231070511612/31/16 07:05:31  5-MIN KAOH 311205Z AUTO 21015G24KT 10SM CLR 02/M07 A2971 1170 54 -100 210/15G24 RMK AO2 T00171067
04850KAOH AOH20161231071011612/31/16 07:10:31  5-MIN KAOH 311210Z AUTO 20016G23KT 10SM CLR 02/M07 A2971 1170 54 -100 210/16G23 RMK AO2 T00171067
04850KAOH AOH20161231071511612/31/16 07:15:31  5-MIN KAOH 311215Z AUTO 21018G25KT 10SM CLR 02/M07 A2971 1170 54 -100 210/18G25 RMK AO2 T00171067
04850KAOH AOH20161231072011612/31/16 07:20:31  5-MIN KAOH 311220Z AUTO 21017G25KT 10SM CLR 02/M07 A2971 1180 54 -100 210/17G25 RMK AO2 T00171067
04850KAOH AOH20161231072511612/31/16 07:25:31  5-MIN KAOH 311225Z AUTO 20017G24KT 10SM CLR 02/M07 A2971 1180 54 -100 210/17G24 RMK AO2 T00171067
04850KAOH AOH20161231073011612/31/16 07:30:31  5-MIN KAOH 311230Z AUTO 20017G24KT 10SM CLR 02/M07 A2971 1180 54 -100 210/17G24 RMK AO2 T00171067
04850KAOH AOH20161231073513412/31/16 07:35:31  5-MIN KAOH 311235Z AUTO 21018G26KT 10SM CLR 02/M07 A2971 1180 54 -100 210/18G26 RMK AO2 PK WND 21026/1235 T00171067
04850KAOH AOH20161231074013412/31/16 07:40:31  5-MIN KAOH 311240Z AUTO 21017G26KT 10SM CLR 02/M07 A2971 1180 54 -100 210/17G26 RMK AO2 PK WND 21026/1235 T00171067
04850KAOH AOH20161231074513412/31/16 07:45:31  5-MIN KAOH 311245Z AUTO 21017G27KT 10SM CLR 02/M07 A2970 1180 54 -100 210/17G27 RMK AO2 PK WND 20027/1241 T00171067
04850KAOH AOH20161231075014112/31/16 07:50:31  5-MIN KAOH 311250Z AUTO 21018G27KT 10SM CLR 02/M07 A2970 1180 54 -100 210/18G27 RMK AO2 PK WND 20027/1241 SLP067 T00171067
04850KAOH AOH20161231075511612/31/16 07:55:31  5-MIN KAOH 311255Z AUTO 21018G25KT 10SM CLR 02/M07 A2970 1180 54 -100 210/18G25 RMK AO2 T00171067
04850KAOH AOH20161231080013412/31/16 08:00:31  5-MIN KAOH 311300Z AUTO 21017G28KT 10SM CLR 02/M07 A2970 1180 54 -100 220/17G28 RMK AO2 PK WND 22028/1259 T00171067
04850KAOH AOH20161231080513412/31/16 08:05:31  5-MIN KAOH 311305Z AUTO 20017G31KT 10SM CLR 02/M07 A2970 1180 54 -100 210/17G31 RMK AO2 PK WND 21031/1303 T00171067
04850KAOH AOH20161231081013412/31/16 08:10:31  5-MIN KAOH 311310Z AUTO 21017G31KT 10SM CLR 02/M07 A2970 1180 54 -100 220/17G31 RMK AO2 PK WND 21031/1303 T00171067
04850KAOH AOH20161231081513412/31/16 08:15:31  5-MIN KAOH 311315Z AUTO 20017G28KT 10SM CLR 02/M07 A2970 1180 54 -100 210/17G28 RMK AO2 PK WND 21031/1303 T00171067
04850KAOH AOH20161231082013412/31/16 08:20:31  5-MIN KAOH 311320Z AUTO 21016G26KT 10SM CLR 02/M07 A2970 1180 54 -100 210/16G26 RMK AO2 PK WND 21031/1303 T00171067
04850KAOH AOH20161231082513412/31/16 08:25:31  5-MIN KAOH 311325Z AUTO 20018G24KT 10SM CLR 02/M07 A2970 1180 54 -100 210/18G24 RMK AO2 PK WND 21031/1303 T00171067
04850KAOH AOH20161231083013412/31/16 08:30:31  5-MIN KAOH 311330Z AUTO 21018G27KT 10SM CLR 02/M07 A2970 1180 54 -100 210/18G27 RMK AO2 PK WND 21031/1303 T00171067
04850KAOH AOH20161231083513412/31/16 08:35:31  5-MIN KAOH 311335Z AUTO 21016G27KT 10SM CLR 02/M07 A2970 1180 54 -100 210/16G27 RMK AO2 PK WND 21031/1303 T00171067
04850KAOH AOH20161231084013412/31/16 08:40:31  5-MIN KAOH 311340Z AUTO 20017G26KT 10SM CLR 02/M07 A2970 1180 54 -100 210/17G26 RMK AO2 PK WND 21031/1303 T00171067
04850KAOH AOH20161231084513412/31/16 08:45:31  5-MIN KAOH 311345Z AUTO 20016G26KT 10SM CLR 02/M07 A2970 1180 54 -100 210/16G26 RMK AO2 PK WND 21031/1303 T00171067
04850KAOH AOH20161231085014112/31/16 08:50:31  5-MIN KAOH 311350Z AUTO 21017G24KT 10SM CLR 02/M07 A2970 1180 54 -100 210/17G24 RMK AO2 PK WND 21031/1303 SLP066 T00171067
04850KAOH AOH20161231085511612/31/16 08:55:31  5-MIN KAOH 311355Z AUTO 21014G27KT 10SM CLR 02/M07 A2970 1180 54 -100 210/14G27 RMK AO2 T00171067
04850KAOH AOH20161231090011312/31/16 09:00:31  5-MIN KAOH 311400Z AUTO 20017G27KT 10SM CLR 02/M07 A2970 1180 52 0 210/17G27 RMK AO2 T00221067
04850KAOH AOH20161231090511312/31/16 09:05:31  5-MIN KAOH 311405Z AUTO 21017G25KT 10SM CLR 02/M07 A2970 1190 52 0 220/17G25 RMK AO2 T00221067
04850KAOH AOH20161231091011312/31/16 09:10:31  5-MIN KAOH 311410Z AUTO 21017G24KT 10SM CLR 02/M07 A2970 1180 52 0 220/17G24 RMK AO2 T00221067
04850KAOH AOH20161231091513112/31/16 09:15:31  5-MIN KAOH 311415Z AUTO 21017G26KT 10SM CLR 02/M07 A2970 1190 52 0 210/17G26 RMK AO2 PK WND 20026/1413 T00221067
04850KAOH AOH20161231092013112/31/16 09:20:31  5-MIN KAOH 311420Z AUTO 20017G26KT 10SM CLR 02/M07 A2969 1190 52 0 210/17G26 RMK AO2 PK WND 20026/1413 T00221067
04850KAOH AOH20161231092513112/31/16 09:25:31  5-MIN KAOH 311425Z AUTO 21017G27KT 10SM CLR 02/M07 A2969 1190 52 0 210/17G27 RMK AO2 PK WND 20027/1423 T00221067
04850KAOH AOH20161231093013112/31/16 09:30:31  5-MIN KAOH 311430Z AUTO 20017G27KT 10SM CLR 02/M07 A2969 1190 52 0 210/17G27 RMK AO2 PK WND 20027/1423 T00221067
04850KAOH AOH20161231093513112/31/16 09:35:31  5-MIN KAOH 311435Z AUTO 21017G24KT 10SM CLR 02/M06 A2969 1190 54 0 210/17G24 RMK AO2 PK WND 20027/1423 T00221061
04850KAOH AOH20161231094013112/31/16 09:40:31  5-MIN KAOH 311440Z AUTO 20017G26KT 10SM CLR 02/M06 A2969 1190 54 0 210/17G26 RMK AO2 PK WND 20027/1423 T00221061
04850KAOH AOH20161231094513112/31/16 09:45:31  5-MIN KAOH 311445Z AUTO 20017G26KT 10SM CLR 02/M06 A2969 1190 54 0 210/17G26 RMK AO2 PK WND 20027/1423 T00221061
04850KAOH AOH20161231095014412/31/16 09:50:31  5-MIN KAOH 311450Z AUTO 20016G23KT 10SM CLR 03/M06 A2969 1190 52 0 210/16G23 RMK AO2 PK WND 20027/1423 SLP064 T00281061 56024
04850KAOH AOH20161231095511712/31/16 09:55:31  5-MIN KAOH 311455Z AUTO 20017KT 10SM FEW060 SCT080 03/M06 A2970 1180 52 0 210/17 RMK AO2 T00281061
04850KAOH AOH20161231100014112/31/16 10:00:31  5-MIN KAOH 311500Z AUTO 21014G26KT 10SM SCT060 BKN075 03/M06 A2969 1190 52 0 210/14G26 RMK AO2 PK WND 20026/1457 T00281061
04850KAOH AOH20161231100514312/31/16 10:05:31  5-MIN KAOH 311505Z AUTO 20015G26KT 10SM SCT060 BKN075 03/M06 A2970 1190 50 100 210/15G26 RMK AO2 PK WND 20026/1457 T00331061
04850KAOH AOH20161231101014312/31/16 10:10:31  5-MIN KAOH 311510Z AUTO 21016G23KT 10SM BKN060 BKN075 03/M06 A2970 1180 50 100 210/16G23 RMK AO2 PK WND 20026/1457 T00331061
04850KAOH AOH20161231101514312/31/16 10:15:31  5-MIN KAOH 311515Z AUTO 21017G23KT 10SM BKN060 OVC075 04/M06 A2970 1180 50 200 210/17G23 RMK AO2 PK WND 20026/1457 T00391056
04850KAOH AOH20161231102014312/31/16 10:20:31  5-MIN KAOH 311520Z AUTO 21016G23KT 10SM BKN060 OVC080 04/M06 A2970 1180 50 200 210/16G23 RMK AO2 PK WND 20026/1457 T00391056
04850KAOH AOH20161231102514312/31/16 10:25:31  5-MIN KAOH 311525Z AUTO 21017G25KT 10SM BKN060 OVC080 04/M06 A2970 1180 50 200 220/17G25 RMK AO2 PK WND 20026/1457 T00391056
04850KAOH AOH20161231103014312/31/16 10:30:31  5-MIN KAOH 311530Z AUTO 21017G27KT 10SM SCT060 OVC075 04/M06 A2970 1180 50 200 210/17G27 RMK AO2 PK WND 19027/1527 T00391056
04850KAOH AOH20161231103514312/31/16 10:35:31  5-MIN KAOH 311535Z AUTO 21015G27KT 10SM FEW060 OVC075 04/M06 A2970 1180 50 200 220/15G27 RMK AO2 PK WND 19027/1527 T00391056
04850KAOH AOH20161231104014312/31/16 10:40:31  5-MIN KAOH 311540Z AUTO 21018G26KT 10SM FEW060 OVC080 04/M06 A2970 1180 50 200 210/18G26 RMK AO2 PK WND 19027/1527 T00391056
04850KAOH AOH20161231104514312/31/16 10:45:31  5-MIN KAOH 311545Z AUTO 21018G23KT 10SM SCT060 OVC080 04/M06 A2970 1180 50 200 210/18G23 RMK AO2 PK WND 19027/1527 T00391056
04850KAOH AOH20161231105015012/31/16 10:50:31  5-MIN KAOH 311550Z AUTO 20015G26KT 10SM BKN060 OVC075 04/M05 A2970 1190 52 200 210/15G26 RMK AO2 PK WND 19027/1527 SLP064 T00391050
04850KAOH AOH20161231105512512/31/16 10:55:31  5-MIN KAOH 311555Z AUTO 20015G26KT 10SM BKN060 OVC075 04/M05 A2970 1190 50 200 210/15G26 RMK AO2 T00441050
04850KAOH AOH20161231110012512/31/16 11:00:31  5-MIN KAOH 311600Z AUTO 21016G24KT 10SM BKN060 OVC075 04/M05 A2970 1190 50 200 210/16G24 RMK AO2 T00441050
04850KAOH AOH20161231110512512/31/16 11:05:31  5-MIN KAOH 311605Z AUTO 21015G24KT 10SM BKN060 OVC080 04/M05 A2970 1190 50 200 220/15G24 RMK AO2 T00441050
04850KAOH AOH20161231111014312/31/16 11:10:31  5-MIN KAOH 311610Z AUTO 20018G26KT 10SM BKN060 OVC075 04/M05 A2969 1190 50 200 210/18G26 RMK AO2 PK WND 20026/1609 T00441050
04850KAOH AOH20161231111514312/31/16 11:15:31  5-MIN KAOH 311615Z AUTO 21015G26KT 10SM BKN060 OVC075 04/M05 A2969 1190 50 200 210/15G26 RMK AO2 PK WND 20026/1609 T00441050
04850KAOH AOH20161231112014312/31/16 11:20:31  5-MIN KAOH 311620Z AUTO 20016G25KT 10SM BKN055 OVC075 04/M05 A2969 1190 50 200 210/16G25 RMK AO2 PK WND 20026/1609 T00441050
04850KAOH AOH20161231112514312/31/16 11:25:31  5-MIN KAOH 311625Z AUTO 21015G24KT 10SM BKN055 OVC075 04/M04 A2969 1190 52 200 210/15G24 RMK AO2 PK WND 20026/1609 T00441044
04850KAOH AOH20161231113014312/31/16 11:30:31  5-MIN KAOH 311630Z AUTO 21013G23KT 10SM BKN055 OVC075 04/M04 A2969 1190 52 200 220/13G23 RMK AO2 PK WND 20026/1609 T00441044
04850KAOH AOH20161231113513612/31/16 11:35:31  5-MIN KAOH 311635Z AUTO 21012G21KT 10SM OVC055 04/M04 A2969 1190 52 200 220/12G21 RMK AO2 PK WND 20026/1609 T00441044
04850KAOH AOH20161231114013012/31/16 11:40:31  5-MIN KAOH 311640Z AUTO 21013KT 10SM OVC055 05/M04 A2969 1190 50 300 220/13 RMK AO2 PK WND 20026/1609 T00501044
04850KAOH AOH20161231114513012/31/16 11:45:31  5-MIN KAOH 311645Z AUTO 21012KT 10SM OVC055 05/M04 A2969 1190 52 300 220/12 RMK AO2 PK WND 20026/1609 T00501039
04850KAOH AOH20161231115013712/31/16 11:50:31  5-MIN KAOH 311650Z AUTO 21013KT 10SM OVC055 05/M04 A2969 1190 50 300 220/13 RMK AO2 PK WND 20026/1609 SLP061 T00501044
04850KAOH AOH20161231115511812/31/16 11:55:31  5-MIN KAOH 311655Z AUTO 22017G21KT 10SM OVC060 05/M04 A2969 1190 52 300 230/17G21 RMK AO2 T00501039
04850KAOH AOH20161231120013612/31/16 12:00:31  5-MIN KAOH 311700Z AUTO 22017G26KT 10SM OVC060 05/M04 A2969 1190 52 300 220/17G26 RMK AO2 PK WND 23026/1658 T00501039
04850KAOH AOH20161231120513612/31/16 12:05:31  5-MIN KAOH 311705Z AUTO 22019G33KT 10SM OVC060 06/M04 A2969 1190 48 400 230/19G33 RMK AO2 PK WND 23033/1701 T00561044
04850KAOH AOH20161231121013612/31/16 12:10:31  5-MIN KAOH 311710Z AUTO 22019G33KT 10SM OVC060 06/M04 A2969 1190 48 400 230/19G33 RMK AO2 PK WND 23033/1701 T00561044
04850KAOH AOH20161231121513612/31/16 12:15:31  5-MIN KAOH 311715Z AUTO 23025G33KT 10SM OVC060 06/M04 A2969 1190 50 400 230/25G33 RMK AO2 PK WND 23033/1701 T00561039
04850KAOH AOH20161231122013612/31/16 12:20:31  5-MIN KAOH 311720Z AUTO 22020G33KT 10SM OVC060 06/M04 A2969 1200 50 400 230/20G33 RMK AO2 PK WND 23033/1701 T00561039
04850KAOH AOH20161231122513612/31/16 12:25:31  5-MIN KAOH 311725Z AUTO 22021G29KT 10SM OVC060 06/M04 A2968 1200 50 400 230/21G29 RMK AO2 PK WND 23033/1701 T00561039
04850KAOH AOH20161231123013612/31/16 12:30:31  5-MIN KAOH 311730Z AUTO 22022G33KT 10SM OVC060 06/M04 A2969 1190 50 400 230/22G33 RMK AO2 PK WND 23033/1728 T00561039
04850KAOH AOH20161231123514312/31/16 12:35:31  5-MIN KAOH 311735Z AUTO 24022G35KT 10SM FEW044 OVC060 06/M03 A2969 1190 53 400 240/22G35 RMK AO2 PK WND 23035/1731 T00561033
04850KAOH AOH20161231124014312/31/16 12:40:31  5-MIN KAOH 311740Z AUTO 23025G35KT 10SM SCT046 OVC060 06/M03 A2970 1180 53 400 240/25G35 RMK AO2 PK WND 23035/1731 T00561033
04850KAOH AOH20161231124514312/31/16 12:45:31  5-MIN KAOH 311745Z AUTO 23025G35KT 10SM SCT050 OVC060 06/M03 A2969 1190 53 400 230/25G35 RMK AO2 PK WND 23035/1731 T00561033
04850KAOH AOH20161231125016112/31/16 12:50:31  5-MIN KAOH 311750Z AUTO 23022G35KT 10SM OVC060 06/M03 A2969 1190 53 400 240/22G35 RMK AO2 PK WND 23035/1731 SLP062 T00561033 10056 20017 58004
04850KAOH AOH20161231125514312/31/16 12:55:31  5-MIN KAOH 311755Z AUTO 23023G37KT 10SM FEW046 OVC060 06/M03 A2969 1190 53 400 230/23G37 RMK AO2 PK WND 23032/1754 T00561033
04850KAOH AOH20161231130014312/31/16 13:00:31  5-MIN KAOH 311800Z AUTO 23024G37KT 10SM BKN047 OVC060 06/M03 A2969 1190 53 400 230/24G37 RMK AO2 PK WND 23032/1754 T00561033
04850KAOH AOH20161231130514312/31/16 13:05:31  5-MIN KAOH 311805Z AUTO 23023G36KT 10SM SCT045 OVC060 06/M03 A2968 1200 51 500 230/23G36 RMK AO2 PK WND 23036/1802 T00611033
04850KAOH AOH20161231131014312/31/16 13:10:31  5-MIN KAOH 311810Z AUTO 23023G36KT 10SM FEW045 OVC065 06/M03 A2968 1200 51 500 240/23G36 RMK AO2 PK WND 23036/1802 T00611033
04850KAOH AOH20161231131514312/31/16 13:15:31  5-MIN KAOH 311815Z AUTO 23020G32KT 10SM SCT049 OVC065 06/M03 A2968 1200 53 400 240/20G32 RMK AO2 PK WND 23036/1802 T00561033
04850KAOH AOH20161231132014312/31/16 13:20:31  5-MIN KAOH 311820Z AUTO 23025G31KT 10SM SCT043 OVC060 06/M03 A2968 1200 55 400 240/25G31 RMK AO2 PK WND 23036/1802 T00561028
04850KAOH AOH20161231132515012/31/16 13:25:31  5-MIN KAOH 311825Z AUTO 23019G31KT 10SM BKN038 BKN046 OVC065 06/M03 A2968 1200 55 400 240/19G31 RMK AO2 PK WND 23036/1802 T00561028
04850KAOH AOH20161231133016612/31/16 13:30:31  5-MIN KAOH 311830Z AUTO 24025G34KT 10SM -RA BKN036 BKN046 OVC065 06/M02 A2968 1200 57 400 240/25G34 RMK AO2 PK WND 23036/1802 RAB29 P0000 T00561022
04850KAOH AOH20161231133516612/31/16 13:35:31  5-MIN KAOH 311835Z AUTO 24022G36KT 10SM -RA SCT036 BKN045 OVC070 06/M02 A2967 1210 57 400 250/22G36 RMK AO2 PK WND 23036/1833 RAB29 P0000 T00561022
04850KAOH AOH20161231134015812/31/16 13:40:31  5-MIN KAOH 311840Z AUTO 23016G36KT 10SM SCT038 OVC070 05/M02 A2968 1200 62 300 240/16G36 RMK AO2 PK WND 23036/1833 RAB29E40 P0000 T00501017
04850KAOH AOH20161231134515812/31/16 13:45:31  5-MIN KAOH 311845Z AUTO 24020G29KT 10SM SCT035 OVC070 06/M02 A2968 1200 57 400 250/20G29 RMK AO2 PK WND 23036/1833 RAB29E40 P0000 T00561022
04850KAOH AOH20161231135016512/31/16 13:50:31  5-MIN KAOH 311850Z AUTO 24021G30KT 10SM FEW033 OVC070 06/M02 A2968 1200 57 400 250/21G30 RMK AO2 PK WND 23036/1833 RAB29E40 SLP057 P0000 T00561022
04850KAOH AOH20161231135514312/31/16 13:55:31  5-MIN KAOH 311855Z AUTO 23024G32KT 10SM FEW033 OVC070 06/M02 A2968 1200 57 400 240/24G32 RMK AO2 PK WND 24027/1854 T00561022
04850KAOH AOH20161231140013612/31/16 14:00:31  5-MIN KAOH 311900Z AUTO 24020G32KT 10SM OVC070 06/M02 A2968 1200 57 400 240/20G32 RMK AO2 PK WND 24027/1854 T00561022
04850KAOH AOH20161231140513612/31/16 14:05:31  5-MIN KAOH 311905Z AUTO 23024G32KT 10SM OVC070 06/M02 A2968 1200 57 400 240/24G32 RMK AO2 PK WND 26032/1905 T00561022
04850KAOH AOH20161231141015212/31/16 14:10:31  5-MIN KAOH 311910Z AUTO 24024G32KT 10SM -RA OVC070 06/M02 A2969 1190 57 400 240/24G32 RMK AO2 PK WND 26032/1905 RAB09 P0000 T00561022
04850KAOH AOH20161231141515212/31/16 14:15:31  5-MIN KAOH 311915Z AUTO 24027G35KT 10SM -RA OVC070 06/M02 A2969 1190 57 400 240/27G35 RMK AO2 PK WND 24035/1915 RAB09 P0000 T00561022
04850KAOH AOH20161231142015212/31/16 14:20:31  5-MIN KAOH 311920Z AUTO 23023G35KT 10SM -RA OVC065 06/M02 A2969 1190 57 400 240/23G35 RMK AO2 PK WND 24035/1915 RAB09 P0000 T00561022
04850KAOH AOH20161231142515212/31/16 14:25:31  5-MIN KAOH 311925Z AUTO 23020G30KT 10SM -RA OVC065 06/M02 A2969 1190 57 400 240/20G30 RMK AO2 PK WND 24035/1915 RAB09 P0000 T00561022
04850KAOH AOH20161231143015112/31/16 14:30:31  5-MIN KAOH 311930Z AUTO 23021G32KT 10SM OVC060 06/M02 A2969 1190 57 400 240/21G32 RMK AO2 PK WND 24035/1915 RAB09E30 P0000 T00561022
04850KAOH AOH20161231143515112/31/16 14:35:31  5-MIN KAOH 311935Z AUTO 23021G32KT 10SM OVC060 06/M02 A2969 1190 59 400 240/21G32 RMK AO2 PK WND 24035/1915 RAB09E30 P0000 T00561017
04850KAOH AOH20161231144015112/31/16 14:40:31  5-MIN KAOH 311940Z AUTO 23021G28KT 10SM OVC055 06/M02 A2969 1190 57 400 240/21G28 RMK AO2 PK WND 24035/1915 RAB09E30 P0000 T00561022
04850KAOH AOH20161231144515812/31/16 14:45:31  5-MIN KAOH 311945Z AUTO 23018G27KT 10SM BKN050 OVC060 06/M02 A2969 1190 57 400 230/18G27 RMK AO2 PK WND 24035/1915 RAB09E30 P0000 T00561022
04850KAOH AOH20161231145016512/31/16 14:50:31  5-MIN KAOH 311950Z AUTO 23017G26KT 10SM BKN050 OVC060 06/M02 A2969 1190 59 400 230/17G26 RMK AO2 PK WND 24035/1915 RAB09E30 SLP059 P0000 T00561017
04850KAOH AOH20161231145511812/31/16 14:55:31  5-MIN KAOH 311955Z AUTO 22020G25KT 10SM OVC050 06/M02 A2969 1190 57 400 230/20G25 RMK AO2 T00561022
04850KAOH AOH20161231150013612/31/16 15:00:31  5-MIN KAOH 312000Z AUTO 23016G26KT 10SM OVC050 06/M02 A2969 1200 57 400 230/16G26 RMK AO2 PK WND 22026/1957 T00561022
04850KAOH AOH20161231150515212/31/16 15:05:31  5-MIN KAOH 312005Z AUTO 23018G26KT 10SM -RA OVC050 06/M02 A2968 1200 57 400 230/18G26 RMK AO2 PK WND 22026/1957 RAB02 P0000 T00561022
04850KAOH AOH20161231151015212/31/16 15:10:31  5-MIN KAOH 312010Z AUTO 23016G25KT 10SM -RA OVC050 06/M02 A2968 1200 57 400 230/16G25 RMK AO2 PK WND 22026/1957 RAB02 P0000 T00561022
04850KAOH AOH20161231151515112/31/16 15:15:31  5-MIN KAOH 312015Z AUTO 23017G23KT 10SM OVC050 06/M02 A2969 1200 57 400 230/17G23 RMK AO2 PK WND 22026/1957 RAB02E13 P0000 T00561022
04850KAOH AOH20161231152015112/31/16 15:20:31  5-MIN KAOH 312020Z AUTO 23019G24KT 10SM OVC050 06/M02 A2969 1190 57 400 230/19G24 RMK AO2 PK WND 22026/1957 RAB02E13 P0000 T00561022
04850KAOH AOH20161231152515112/31/16 15:25:31  5-MIN KAOH 312025Z AUTO 23016G24KT 10SM OVC050 06/M02 A2969 1190 57 400 230/16G24 RMK AO2 PK WND 22026/1957 RAB02E13 P0000 T00561022
04850KAOH AOH20161231153015112/31/16 15:30:31  5-MIN KAOH 312030Z AUTO 23020G31KT 10SM OVC050 06/M02 A2969 1190 55 400 230/20G31 RMK AO2 PK WND 22031/2028 RAB02E13 P0000 T00611022
04850KAOH AOH20161231153515112/31/16 15:35:31  5-MIN KAOH 312035Z AUTO 22018G31KT 10SM OVC050 06/M02 A2969 1190 55 400 230/18G31 RMK AO2 PK WND 22031/2028 RAB02E13 P0000 T00611022
04850KAOH AOH20161231154015112/31/16 15:40:31  5-MIN KAOH 312040Z AUTO 22022G28KT 10SM OVC050 06/M02 A2968 1200 57 400 230/22G28 RMK AO2 PK WND 22031/2028 RAB02E13 P0000 T00561022
04850KAOH AOH20161231154515112/31/16 15:45:31  5-MIN KAOH 312045Z AUTO 22018G28KT 10SM OVC050 06/M02 A2968 1200 57 400 230/18G28 RMK AO2 PK WND 22031/2028 RAB02E13 P0000 T00561022
04850KAOH AOH20161231155017012/31/16 15:50:31  5-MIN KAOH 312050Z AUTO 22021G29KT 10SM OVC050 06/M02 A2969 1190 55 400 230/21G29 RMK AO2 PK WND 22031/2028 RAB02E13 SLP059 P0000 60000 T00611022 58001
04850KAOH AOH20161231155513612/31/16 15:55:31  5-MIN KAOH 312055Z AUTO 24021G30KT 10SM OVC050 06/M02 A2969 1190 59 400 240/21G30 RMK AO2 PK WND 24027/2055 T00561017
04850KAOH AOH20161231160013612/31/16 16:00:31  5-MIN KAOH 312100Z AUTO 24023G31KT 10SM OVC050 06/M02 A2969 1190 59 400 240/23G31 RMK AO2 PK WND 24031/2056 T00561017
04850KAOH AOH20161231160513612/31/16 16:05:31  5-MIN KAOH 312105Z AUTO 23019G31KT 10SM OVC050 06/M02 A2969 1190 57 400 230/19G31 RMK AO2 PK WND 24031/2056 T00611017
04850KAOH AOH20161231161013612/31/16 16:10:31  5-MIN KAOH 312110Z AUTO 23018G25KT 10SM OVC050 06/M02 A2969 1190 59 400 230/18G25 RMK AO2 PK WND 24031/2056 T00561017
04850KAOH AOH20161231161513612/31/16 16:15:31  5-MIN KAOH 312115Z AUTO 23017G26KT 10SM OVC050 06/M02 A2970 1180 59 400 240/17G26 RMK AO2 PK WND 24031/2056 T00561017
04850KAOH AOH20161231162013612/31/16 16:20:31  5-MIN KAOH 312120Z AUTO 23016G26KT 10SM OVC050 06/M02 A2970 1180 59 400 240/16G26 RMK AO2 PK WND 24031/2056 T00561017
04850KAOH AOH20161231162513612/31/16 16:25:31  5-MIN KAOH 312125Z AUTO 23016G25KT 10SM OVC050 06/M02 A2971 1180 59 400 240/16G25 RMK AO2 PK WND 24031/2056 T00561017
04850KAOH AOH20161231163013612/31/16 16:30:31  5-MIN KAOH 312130Z AUTO 23019G26KT 10SM OVC050 06/M02 A2971 1170 59 400 240/19G26 RMK AO2 PK WND 24031/2056 T00561017
04850KAOH AOH20161231163513612/31/16 16:35:31  5-MIN KAOH 312135Z AUTO 23016G26KT 10SM OVC050 06/M02 A2971 1170 59 400 240/16G26 RMK AO2 PK WND 24031/2056 T00561017
04850KAOH AOH20161231164013612/31/16 16:40:31  5-MIN KAOH 312140Z AUTO 22018G24KT 10SM OVC050 06/M02 A2971 1170 59 400 230/18G24 RMK AO2 PK WND 24031/2056 T00561017
04850KAOH AOH20161231164513612/31/16 16:45:31  5-MIN KAOH 312145Z AUTO 23018G24KT 10SM OVC050 06/M02 A2971 1170 59 400 240/18G24 RMK AO2 PK WND 24031/2056 T00561017
04850KAOH AOH20161231165014312/31/16 16:50:31  5-MIN KAOH 312150Z AUTO 23014G26KT 10SM OVC055 06/M02 A2971 1180 59 400 230/14G26 RMK AO2 PK WND 24031/2056 SLP066 T00561017
04850KAOH AOH20161231165511812/31/16 16:55:31  5-MIN KAOH 312155Z AUTO 23019G26KT 10SM OVC055 06/M02 A2970 1180 59 400 230/19G26 RMK AO2 T00561017
04850KAOH AOH20161231170013612/31/16 17:00:31  5-MIN KAOH 312200Z AUTO 22015G26KT 10SM OVC055 06/M02 A2970 1180 59 400 230/15G26 RMK AO2 PK WND 23026/2156 T00561017
04850KAOH AOH20161231170513612/31/16 17:05:31  5-MIN KAOH 312205Z AUTO 23017G27KT 10SM OVC055 06/M02 A2971 1180 59 400 240/17G27 RMK AO2 PK WND 24027/2204 T00561017
04850KAOH AOH20161231171013612/31/16 17:10:31  5-MIN KAOH 312210Z AUTO 23018G27KT 10SM OVC055 06/M02 A2971 1170 59 400 240/18G27 RMK AO2 PK WND 24027/2204 T00561017
04850KAOH AOH20161231171513612/31/16 17:15:31  5-MIN KAOH 312215Z AUTO 23016G25KT 10SM OVC055 06/M02 A2971 1170 59 400 240/16G25 RMK AO2 PK WND 24027/2204 T00561017
04850KAOH AOH20161231172013612/31/16 17:20:31  5-MIN KAOH 312220Z AUTO 23016G24KT 10SM OVC055 06/M02 A2972 1170 59 300 230/16G24 RMK AO2 PK WND 24027/2204 T00561017
04850KAOH AOH20161231172513012/31/16 17:25:31  5-MIN KAOH 312225Z AUTO 23014KT 10SM OVC055 06/M01 A2972 1160 62 300 230/14 RMK AO2 PK WND 24027/2204 T00561011
04850KAOH AOH20161231173014312/31/16 17:30:31  5-MIN KAOH 312230Z AUTO 23016G24KT 10SM BKN050 OVC060 06/M01 A2972 1160 62 300 230/16G24 RMK AO2 PK WND 24027/2204 T00561011
04850KAOH AOH20161231173514312/31/16 17:35:31  5-MIN KAOH 312235Z AUTO 23016G24KT 10SM BKN050 BKN060 06/M01 A2972 1160 62 300 240/16G24 RMK AO2 PK WND 24027/2204 T00561011
04850KAOH AOH20161231174013012/31/16 17:40:31  5-MIN KAOH 312240Z AUTO 23017KT 10SM BKN050 06/M01 A2973 1160 62 300 240/17 RMK AO2 PK WND 24027/2204 T00561011
04850KAOH AOH20161231174513012/31/16 17:45:31  5-MIN KAOH 312245Z AUTO 23017KT 10SM BKN048 05/M01 A2973 1160 64 300 240/17 RMK AO2 PK WND 24027/2204 T00501011
04850KAOH AOH20161231175014312/31/16 17:50:31  5-MIN KAOH 312250Z AUTO 23019G23KT 10SM BKN048 06/M01 A2973 1160 62 300 240/19G23 RMK AO2 PK WND 24027/2204 SLP073 T00561011
04850KAOH AOH20161231175511812/31/16 17:55:31  5-MIN KAOH 312255Z AUTO 23014G22KT 10SM BKN048 06/M01 A2973 1150 62 300 230/14G22 RMK AO2 T00561011
04850KAOH AOH20161231180011812/31/16 18:00:31  5-MIN KAOH 312300Z AUTO 23015G22KT 10SM BKN046 05/M01 A2973 1150 64 300 240/15G22 RMK AO2 T00501011
04850KAOH AOH20161231180511812/31/16 18:05:31  5-MIN KAOH 312305Z AUTO 23017G24KT 10SM OVC046 05/M01 A2974 1150 64 300 230/17G24 RMK AO2 T00501011
04850KAOH AOH20161231181011812/31/16 18:10:31  5-MIN KAOH 312310Z AUTO 23016G24KT 10SM OVC045 05/M01 A2974 1150 64 300 240/16G24 RMK AO2 T00501011
04850KAOH AOH20161231181511812/31/16 18:15:31  5-MIN KAOH 312315Z AUTO 23019G24KT 10SM OVC045 05/M01 A2974 1140 64 300 240/19G24 RMK AO2 T00501011
04850KAOH AOH20161231182011812/31/16 18:20:31  5-MIN KAOH 312320Z AUTO 24018G25KT 10SM OVC044 05/M01 A2975 1140 64 200 240/18G25 RMK AO2 T00501011
04850KAOH AOH20161231182511812/31/16 18:25:31  5-MIN KAOH 312325Z AUTO 23018G25KT 10SM OVC044 05/M01 A2975 1140 64 200 240/18G25 RMK AO2 T00501011
04850KAOH AOH20161231183011812/31/16 18:30:31  5-MIN KAOH 312330Z AUTO 24017G25KT 10SM OVC044 05/M01 A2975 1140 64 200 240/17G25 RMK AO2 T00501011
04850KAOH AOH20161231183511812/31/16 18:35:31  5-MIN KAOH 312335Z AUTO 24018G24KT 10SM OVC044 05/M01 A2975 1140 64 200 240/18G24 RMK AO2 T00501011
04850KAOH AOH20161231184011812/31/16 18:40:31  5-MIN KAOH 312340Z AUTO 24015G24KT 10SM OVC044 05/M01 A2975 1130 67 200 240/15G24 RMK AO2 T00501006
04850KAOH AOH20161231184511212/31/16 18:45:31  5-MIN KAOH 312345Z AUTO 23015KT 10SM OVC044 05/M01 A2976 1130 67 200 240/15 RMK AO2 T00501006
04850KAOH AOH20161231185014312/31/16 18:50:31  5-MIN KAOH 312350Z AUTO 23015KT 10SM OVC044 05/M01 A2976 1130 67 200 240/15 RMK AO2 SLP082 60000 T00501006 10061 20050 55000
04850KAOH AOH20161231185511812/31/16 18:55:31  5-MIN KAOH 312355Z AUTO 23013G20KT 10SM OVC044 05/M01 A2976 1120 67 200 240/13G20 RMK AO2 T00501006
04850KAOH AOH20161231190011812/31/16 19:00:31  5-MIN KAOH 010000Z AUTO 23013G20KT 10SM OVC044 05/M01 A2976 1120 67 200 230/13G20 RMK AO2 T00501006
04850KAOH AOH20161231190511212/31/16 19:05:31  5-MIN KAOH 010005Z AUTO 23013KT 10SM OVC044 05/M01 A2976 1120 67 200 230/13 RMK AO2 T00501006
04850KAOH AOH20161231191011212/31/16 19:10:31  5-MIN KAOH 010010Z AUTO 23014KT 10SM OVC044 05/M01 A2977 1120 67 200 240/14 RMK AO2 T00501006
04850KAOH AOH20161231191511212/31/16 19:15:31  5-MIN KAOH 010015Z AUTO 24013KT 10SM OVC044 05/M01 A2977 1120 67 200 240/13 RMK AO2 T00501006
04850KAOH AOH20161231192011212/31/16 19:20:31  5-MIN KAOH 010020Z AUTO 24013KT 10SM OVC042 05/M01 A2977 1110 67 200 240/13 RMK AO2 T00501006
04850KAOH AOH20161231192511212/31/16 19:25:31  5-MIN KAOH 010025Z AUTO 24013KT 10SM OVC042 05/M01 A2978 1110 67 200 250/13 RMK AO2 T00501006
04850KAOH AOH20161231193011112/31/16 19:30:31  5-MIN KAOH 010030Z AUTO 25013KT 10SM OVC039 04/00 A2979 1100 73 100 260/13 RMK AO2 T00440000
