03812KAVL AVL20160401000012604/01/16 00:00:31  5-MIN KAVL 010500Z AUTO 00000KT 10SM BKN018 BKN022 BKN033 15/14 A2985 2230 93 2800 000/00 RMK AO2 T01500139
03812KAVL AVL20160401000514104/01/16 00:05:31  5-MIN KAVL 010505Z AUTO 00000KT 9SM -RA BKN018 BKN022 OVC033 16/14 A2985 2240 90 2900 000/00 RMK AO2 RAB01 P0000 T01560139
03812KAVL AVL20160401001013404/01/16 00:10:31  5-MIN KAVL 010510Z AUTO 00000KT 9SM -RA BKN016 OVC022 16/14 A2984 2240 90 2900 000/00 RMK AO2 RAB01 P0000 T01560139
03812KAVL AVL20160401001512804/01/16 00:15:31  5-MIN KAVL 010515Z AUTO 00000KT 10SM -RA OVC016 16/14 A2984 2240 90 2900 000/00 RMK AO2 RAB01 P0000 T01560139
03812KAVL AVL20160401002012704/01/16 00:20:31  5-MIN KAVL 010520Z AUTO 00000KT 10SM OVC016 16/14 A2984 2240 90 2900 000/00 RMK AO2 RAB01E18 P0000 T01560139
03812KAVL AVL20160401002512704/01/16 00:25:31  5-MIN KAVL 010525Z AUTO 00000KT 9SM -RA OVC015 16/14 A2984 2240 90 2900 000/00 RMK AO2 RAB01 P0000 T01560139
03812KAVL AVL20160401003012704/01/16 00:30:31  5-MIN KAVL 010530Z AUTO 22003KT 7SM -RA OVC015 15/14 A2984 2240 93 2800 230/03 RMK AO2 RAB01 P0000 T01500139
03812KAVL AVL20160401003512904/01/16 00:35:31  5-MIN KAVL 010535Z AUTO 00000KT 5SM RA BR OVC015 15/14 A2984 2240 93 2800 000/00 RMK AO2 RAB01 P0000 T01500139
03812KAVL AVL20160401004014204/01/16 00:40:31  5-MIN KAVL 010540Z AUTO 30003KT 4SM -RA BR OVC013 15/14 A2983 2250 93 2800 300/03 RMK AO2 LTG DSNT SW RAB01 P0002 T01500139
03812KAVL AVL20160401004514804/01/16 00:45:31  5-MIN KAVL 010545Z AUTO 00000KT 5SM -RA BR OVC013 15/14 A2983 2250 93 2800 000/00 RMK AO2 LTG DSNT S AND SW RAB01 P0002 T01500139
03812KAVL AVL20160401005017904/01/16 00:50:31  5-MIN KAVL 010550Z AUTO 00000KT 6SM -RA BR OVC011 15/14 A2983 2250 93 2800 000/00 RMK AO2 LTG DSNT S AND SW RAB01 SLP084 P0002 60002 T01500139 10161 20150 50005
03812KAVL AVL20160401005514204/01/16 00:55:31  5-MIN KAVL 010555Z AUTO 00000KT 4SM +RA BR BKN011 OVC019 15/14 A2982 2260 93 2800 000/00 RMK AO2 LTG DSNT S P0000 T01500139
03812KAVL AVL20160401010013004/01/16 01:00:31  5-MIN KAVL 010600Z AUTO 00000KT 3SM RA BR BKN011 OVC019 15/14 A2982 2260 96 2800 000/00 RMK AO2 P0001 T01500144
03812KAVL AVL20160401010515304/01/16 01:05:31  5-MIN KAVL 010605Z AUTO 00000KT 2 1/2SM +RA BR BKN011 OVC019 15/14 A2981 2270 93 2800 000/00 RMK AO2 LTG DSNT E AND SW P0004 T01500139
03812KAVL AVL20160401011014904/01/16 01:10:31  5-MIN KAVL 010610Z AUTO 00000KT 2 1/2SM -RA BR BKN013 OVC019 15/14 A2981 2270 96 2800 000/00 RMK AO2 LTG DSNT E-SW P0006 T01500144
03812KAVL AVL20160401011515204/01/16 01:15:31  5-MIN KAVL 010615Z AUTO 00000KT 4SM -RA BR FEW007 BKN011 OVC017 15/14 A2981 2270 96 2800 000/00 RMK AO2 LTG DSNT E-SW P0006 T01500144
03812KAVL AVL20160401012016804/01/16 01:20:31  5-MIN KAVL 010620Z AUTO 24003KT 4SM R35/4500VP6000FT RA BR SCT007 BKN011 OVC017 16/14 A2982 2260 93 2900 240/03 RMK AO2 LTG DSNT E-SW P0008 T01560144
03812KAVL AVL20160401012516204/01/16 01:25:31  5-MIN KAVL 010625Z AUTO 25004KT 4SM R35/3500VP6000FT -RA BR BKN007 OVC011 15/14 A2982 2260 93 2800 250/04 RMK AO2 LTG DSNT NE-S P0008 T01500139
03812KAVL AVL20160401013016604/01/16 01:30:31  5-MIN KAVL 010630Z AUTO 25004KT 1 3/4SM R35/3500VP6000FT +RA BR BKN005 OVC015 15/14 A2983 2250 93 2800 250/04 RMK AO2 LTG DSNT NE-S P0011 T01500139
03812KAVL AVL20160401013516904/01/16 01:35:31  5-MIN KAVL 010635Z AUTO 00000KT 1SM R35/3500VP6000FT +RA BR BKN005 BKN009 OVC014 15/14 A2983 2250 93 2800 000/00 RMK AO2 LTG DSNT NE-S P0018 T01500139
03812KAVL AVL20160401014017004/01/16 01:40:31  5-MIN KAVL 010640Z AUTO 25003KT 1 1/4SM R35/3500VP6000FT +RA BR BKN005 OVC011 15/14 A2983 2250 96 2800 260/03 RMK AO2 LTG DSNT E AND SE P0026 T01500144
03812KAVL AVL20160401014515304/01/16 01:45:31  5-MIN KAVL 010645Z AUTO 26003KT 1 3/4SM +RA BR BKN005 OVC011 15/14 A2984 2250 96 2800 270/03 RMK AO2 LTG DSNT E AND SE P0029 T01500144
03812KAVL AVL20160401015013804/01/16 01:50:31  5-MIN KAVL 010650Z AUTO 00000KT 2SM +RA BR BKN005 BKN008 OVC011 15/14 A2983 2250 96 2800 000/00 RMK AO2 P0000 T01500144
03812KAVL AVL20160401015513704/01/16 01:55:31  5-MIN KAVL 010655Z AUTO 00000KT 3SM RA BR SCT005 BKN012 OVC085 16/14 A2983 2250 93 2900 000/00 RMK AO2 P0002 T01560144
03812KAVL AVL20160401020013804/01/16 02:00:31  5-MIN KAVL 010700Z AUTO VRB04KT 3SM +RA BR FEW005 BKN023 OVC043 16/14 A2983 2250 93 2900 VRB/04 RMK AO2 P0004 T01560144
03812KAVL AVL20160401020514204/01/16 02:05:31  5-MIN KAVL 010705Z AUTO VRB03KT 2 1/2SM +RA BR SCT007 BKN015 OVC028 16/14 A2982 2260 93 2900 VRB/03 RMK AO2 P0008 T01560144
03812KAVL AVL20160401021013804/01/16 02:10:31  5-MIN KAVL 010710Z AUTO 15006KT 3SM -RA BR SCT008 BKN015 OVC075 16/14 A2981 2270 93 2900 160/06 RMK AO2 P0010 T01560144
03812KAVL AVL20160401021513704/01/16 02:15:31  5-MIN KAVL 010715Z AUTO 18005KT 6SM RA BR SCT010 BKN031 OVC085 16/14 A2981 2270 93 2900 180/05 RMK AO2 P0010 T01560144
03812KAVL AVL20160401022013504/01/16 02:20:31  5-MIN KAVL 010720Z AUTO 17003KT 8SM -RA FEW010 BKN070 OVC095 16/14 A2981 2270 93 2900 170/03 RMK AO2 P0012 T01560144
03812KAVL AVL20160401022513604/01/16 02:25:31  5-MIN KAVL 010725Z AUTO 00000KT 10SM -RA FEW010 BKN070 OVC095 16/14 A2981 2270 93 2900 000/00 RMK AO2 P0012 T01560144
03812KAVL AVL20160401023013604/01/16 02:30:31  5-MIN KAVL 010730Z AUTO 16004KT 10SM -RA FEW008 BKN080 OVC100 16/14 A2980 2280 93 2900 170/04 RMK AO2 P0012 T01560144
03812KAVL AVL20160401023512904/01/16 02:35:31  5-MIN KAVL 010735Z AUTO 17005KT 10SM -RA SCT080 OVC100 16/14 A2980 2280 93 2900 180/05 RMK AO2 P0012 T01560144
03812KAVL AVL20160401024012904/01/16 02:40:31  5-MIN KAVL 010740Z AUTO VRB04KT 10SM -RA FEW070 BKN100 16/14 A2980 2280 90 3000 VRB/04 RMK AO2 P0012 T01610144
03812KAVL AVL20160401024512904/01/16 02:45:31  5-MIN KAVL 010745Z AUTO VRB03KT 10SM -RA FEW070 SCT100 16/14 A2979 2290 90 3000 VRB/03 RMK AO2 P0012 T01610144
03812KAVL AVL20160401025013804/01/16 02:50:31  5-MIN KAVL 010750Z AUTO VRB04KT 10SM FEW070 SCT100 16/14 A2978 2300 90 3000 VRB/04 RMK AO2 RAE46 SLP067 P0012 T01610144
03812KAVL AVL20160401025511204/01/16 02:55:31  5-MIN KAVL 010755Z AUTO 00000KT 10SM FEW100 16/14 A2978 2300 90 3000 000/00 RMK AO2 T01610144
03812KAVL AVL20160401030011204/01/16 03:00:31  5-MIN KAVL 010800Z AUTO 00000KT 10SM FEW100 16/14 A2977 2300 90 3000 000/00 RMK AO2 T01610144
03812KAVL AVL20160401030511204/01/16 03:05:31  5-MIN KAVL 010805Z AUTO 14003KT 10SM FEW008 16/14 A2978 2300 93 2900 150/03 RMK AO2 T01560144
03812KAVL AVL20160401031011204/01/16 03:10:31  5-MIN KAVL 010810Z AUTO 13003KT 10SM FEW008 16/14 A2978 2290 93 2900 130/03 RMK AO2 T01560144
03812KAVL AVL20160401031511204/01/16 03:15:31  5-MIN KAVL 010815Z AUTO 16004KT 10SM SCT008 16/14 A2979 2290 90 3000 170/04 RMK AO2 T01610144
03812KAVL AVL20160401032011204/01/16 03:20:31  5-MIN KAVL 010820Z AUTO VRB04KT 10SM SCT008 16/14 A2978 2290 90 3000 VRB/04 RMK AO2 T01610144
03812KAVL AVL20160401032511204/01/16 03:25:31  5-MIN KAVL 010825Z AUTO 18006KT 10SM SCT008 16/14 A2979 2290 90 3000 180/06 RMK AO2 T01610144
03812KAVL AVL20160401033011904/01/16 03:30:31  5-MIN KAVL 010830Z AUTO 16003KT 10SM SCT008 SCT046 16/14 A2978 2290 93 2900 170/03 RMK AO2 T01560144
03812KAVL AVL20160401033511904/01/16 03:35:31  5-MIN KAVL 010835Z AUTO 18005KT 10SM FEW008 SCT046 16/14 A2979 2280 93 2900 180/05 RMK AO2 T01560144
03812KAVL AVL20160401034012604/01/16 03:40:31  5-MIN KAVL 010840Z AUTO 18004KT 10SM FEW008 BKN042 BKN049 16/14 A2979 2290 93 2900 190/04 RMK AO2 T01560144
03812KAVL AVL20160401034512604/01/16 03:45:31  5-MIN KAVL 010845Z AUTO 16003KT 10SM FEW009 SCT039 BKN047 16/14 A2979 2290 93 2900 160/03 RMK AO2 T01560144
03812KAVL AVL20160401035014504/01/16 03:50:31  5-MIN KAVL 010850Z AUTO 16004KT 10SM FEW012 FEW039 BKN049 16/14 A2979 2290 93 2900 170/04 RMK AO2 SLP070 60044 T01560144 58022
03812KAVL AVL20160401035512604/01/16 03:55:31  5-MIN KAVL 010855Z AUTO 00000KT 10SM FEW014 SCT020 OVC049 16/14 A2979 2290 93 2900 000/00 RMK AO2 T01560144
03812KAVL AVL20160401040012604/01/16 04:00:31  5-MIN KAVL 010900Z AUTO 14003KT 10SM SCT014 BKN019 OVC049 16/14 A2978 2300 90 3000 140/03 RMK AO2 T01610144
03812KAVL AVL20160401040512604/01/16 04:05:31  5-MIN KAVL 010905Z AUTO 00000KT 10SM BKN014 BKN038 OVC049 16/14 A2978 2290 93 2900 000/00 RMK AO2 T01560144
03812KAVL AVL20160401041012604/01/16 04:10:31  5-MIN KAVL 010910Z AUTO VRB03KT 10SM BKN014 BKN019 OVC049 16/14 A2978 2300 93 2900 VRB/03 RMK AO2 T01560144
03812KAVL AVL20160401041511904/01/16 04:15:31  5-MIN KAVL 010915Z AUTO 00000KT 10SM BKN014 BKN050 16/14 A2978 2290 93 2900 000/00 RMK AO2 T01560144
03812KAVL AVL20160401042011204/01/16 04:20:31  5-MIN KAVL 010920Z AUTO 00000KT 10SM BKN016 16/14 A2979 2290 93 2900 000/00 RMK AO2 T01560144
03812KAVL AVL20160401042511904/01/16 04:25:31  5-MIN KAVL 010925Z AUTO 18004KT 10SM BKN014 BKN021 16/14 A2979 2290 90 3000 180/04 RMK AO2 T01610144
03812KAVL AVL20160401043011204/01/16 04:30:31  5-MIN KAVL 010930Z AUTO VRB03KT 10SM BKN018 16/14 A2979 2290 90 3000 VRB/03 RMK AO2 T01610144
03812KAVL AVL20160401043514204/01/16 04:35:31  5-MIN KAVL 010935Z AUTO 17005KT 10SM -RA FEW015 BKN020 OVC100 16/14 A2979 2290 90 3000 170/05 RMK AO2 RAB35 P0000 T01610144
03812KAVL AVL20160401044014204/01/16 04:40:31  5-MIN KAVL 010940Z AUTO 18005KT 10SM -RA SCT017 BKN065 OVC110 16/14 A2979 2290 90 3000 190/05 RMK AO2 RAB35 P0000 T01610144
03812KAVL AVL20160401044514204/01/16 04:45:31  5-MIN KAVL 010945Z AUTO 18006KT 10SM -RA SCT017 BKN065 OVC095 16/14 A2979 2290 90 3000 190/06 RMK AO2 RAB35 P0000 T01610144
03812KAVL AVL20160401045014904/01/16 04:50:31  5-MIN KAVL 010950Z AUTO 19008KT 10SM -RA SCT017 BKN065 OVC110 16/14 A2979 2290 90 3000 200/08 RMK AO2 RAB35 SLP069 P0000 T01610144
03812KAVL AVL20160401045512604/01/16 04:55:31  5-MIN KAVL 010955Z AUTO 20007KT 10SM SCT015 BKN095 OVC120 16/14 A2979 2280 90 3000 210/07 RMK AO2 T01610144
03812KAVL AVL20160401050012604/01/16 05:00:31  5-MIN KAVL 011000Z AUTO 20006KT 10SM FEW015 BKN095 OVC120 16/14 A2980 2280 90 3000 200/06 RMK AO2 T01610144
03812KAVL AVL20160401050511904/01/16 05:05:31  5-MIN KAVL 011005Z AUTO 19007KT 10SM FEW015 OVC095 16/14 A2980 2280 90 3000 200/07 RMK AO2 T01610144
03812KAVL AVL20160401051011904/01/16 05:10:31  5-MIN KAVL 011010Z AUTO 19007KT 10SM FEW014 OVC095 16/14 A2981 2270 90 3000 200/07 RMK AO2 T01610144
03812KAVL AVL20160401051511404/01/16 05:15:31  5-MIN KAVL 011015Z 20008KT 10SM FEW012 OVC090 16/14 A2981 2270 90 3000 200/08 RMK AO2 T01610144
03812KAVL AVL20160401052012304/01/16 05:20:31  5-MIN KAVL 011020Z 17005KT 10SM -RA OVC090 16/14 A2979 2290 90 3000 180/05 RMK AO2 RAB19 P0000 T01610144
03812KAVL AVL20160401052512804/01/16 05:25:31  5-MIN KAVL 011025Z 14007KT 8SM RA OVC090 16/14 A2977 2310 90 3000 150/07 RMK AO2 RAB19 PRESFR P0001 T01610144
03812KAVL AVL20160401053013604/01/16 05:30:31  5-MIN KAVL 011030Z 15005KT 9SM -RA FEW029 BKN090 16/14 A2976 2310 90 3000 150/05 RMK AO2 RAB19 PRESFR P0001 T01610144
03812KAVL AVL20160401053513004/01/16 05:35:31  5-MIN KAVL 011035Z 15007KT 10SM -RA FEW027 BKN090 16/14 A2976 2310 90 3000 160/07 RMK AO2 RAB19 P0001 T01610144
03812KAVL AVL20160401054012904/01/16 05:40:31  5-MIN KAVL 011040Z 16006KT 10SM FEW029 SCT090 16/14 A2977 2300 93 2900 160/06 RMK AO2 RAB19E38 P0001 T01560144
03812KAVL AVL20160401054512904/01/16 05:45:31  5-MIN KAVL 011045Z 16003KT 10SM FEW029 SCT085 16/14 A2978 2300 90 3000 160/03 RMK AO2 RAB19E38 P0001 T01610144
03812KAVL AVL20160401055013604/01/16 05:50:31  5-MIN KAVL 011050Z 17003KT 10SM FEW029 FEW090 16/14 A2978 2290 90 2900 180/03 RMK AO2 RAB19E38 SLP069 P0001 T01560139
03812KAVL AVL20160401055510404/01/16 05:55:31  5-MIN KAVL 011055Z 16003KT 10SM CLR 16/14 A2978 2290 90 2900 160/03 RMK AO2 T01560139
03812KAVL AVL20160401060010404/01/16 06:00:31  5-MIN KAVL 011100Z 18007KT 10SM CLR 16/14 A2979 2290 90 2900 190/07 RMK AO2 T01560139
03812KAVL AVL20160401060510404/01/16 06:05:31  5-MIN KAVL 011105Z 20008KT 10SM CLR 16/14 A2980 2280 90 2900 210/08 RMK AO2 T01560139
03812KAVL AVL20160401061010404/01/16 06:10:31  5-MIN KAVL 011110Z 19009KT 10SM CLR 16/14 A2980 2280 86 3000 200/09 RMK AO2 T01610139
03812KAVL AVL20160401061510704/01/16 06:15:31  5-MIN KAVL 011115Z 18009KT 10SM FEW015 16/14 A2980 2280 86 3000 190/09 RMK AO2 T01610139
03812KAVL AVL20160401062010704/01/16 06:20:31  5-MIN KAVL 011120Z 19009KT 10SM FEW015 16/14 A2980 2280 86 3000 190/09 RMK AO2 T01610139
03812KAVL AVL20160401062510704/01/16 06:25:31  5-MIN KAVL 011125Z 19008KT 10SM FEW014 16/14 A2981 2270 86 3000 200/08 RMK AO2 T01610139
03812KAVL AVL20160401063011404/01/16 06:30:31  5-MIN KAVL 011130Z 19011KT 10SM FEW014 16/14 A2982 2260 86 3000 190/11 RMK AO2 PRESRR T01610139
03812KAVL AVL20160401063510704/01/16 06:35:31  5-MIN KAVL 011135Z 19009KT 10SM FEW015 16/14 A2982 2260 86 3000 190/09 RMK AO2 T01610139
03812KAVL AVL20160401064011404/01/16 06:40:31  5-MIN KAVL 011140Z 18008KT 10SM FEW015 SCT055 16/14 A2982 2260 86 3000 190/08 RMK AO2 T01610139
03812KAVL AVL20160401064511404/01/16 06:45:31  5-MIN KAVL 011145Z 17008KT 10SM FEW013 SCT055 16/14 A2981 2270 86 3000 170/08 RMK AO2 T01610139
03812KAVL AVL20160401065010404/01/16 06:50:31  5-MIN KAVL 011150Z 15006KT 10SM BKN013 16/14 A2979 2280 86 3000 160/06 RMK AO2 PRESFR
03812KAVL AVL20160401065511404/01/16 06:55:31  5-MIN KAVL 011155Z 18005KT 10SM BKN012 BKN055 16/14 A2982 2260 86 3000 190/05 RMK AO2 T01610139
03812KAVL AVL20160401070011404/01/16 07:00:31  5-MIN KAVL 011200Z 19007KT 10SM BKN012 BKN055 16/14 A2982 2260 86 2900 200/07 RMK AO2 T01610139
03812KAVL AVL20160401070511404/01/16 07:05:31  5-MIN KAVL 011205Z 19006KT 10SM BKN012 BKN055 16/14 A2982 2260 86 2900 200/06 RMK AO2 T01610139
03812KAVL AVL20160401071010704/01/16 07:10:31  5-MIN KAVL 011210Z 20004KT 10SM OVC012 16/14 A2982 2260 86 3000 210/04 RMK AO2 T01610139
03812KAVL AVL20160401071511404/01/16 07:15:31  5-MIN KAVL 011215Z 18005KT 10SM BKN009 OVC013 16/14 A2982 2260 86 3000 190/05 RMK AO2 T01610139
03812KAVL AVL20160401072010704/01/16 07:20:31  5-MIN KAVL 011220Z 19008KT 10SM OVC009 16/14 A2982 2260 86 2900 190/08 RMK AO2 T01610139
03812KAVL AVL20160401072510704/01/16 07:25:31  5-MIN KAVL 011225Z 18006KT 10SM OVC009 16/14 A2982 2260 86 2900 190/06 RMK AO2 T01610139
03812KAVL AVL20160401073010704/01/16 07:30:31  5-MIN KAVL 011230Z 18005KT 10SM OVC009 16/14 A2982 2260 86 2900 180/05 RMK AO2 T01610139
03812KAVL AVL20160401073510704/01/16 07:35:31  5-MIN KAVL 011235Z 18005KT 10SM OVC009 16/14 A2983 2260 90 2900 190/05 RMK AO2 T01610144
03812KAVL AVL20160401074010704/01/16 07:40:31  5-MIN KAVL 011240Z 21006KT 10SM OVC009 17/14 A2983 2250 86 3000 210/06 RMK AO2 T01670144
03812KAVL AVL20160401074510704/01/16 07:45:31  5-MIN KAVL 011245Z 17004KT 10SM OVC009 17/14 A2983 2260 86 3000 180/04 RMK AO2 T01670144
03812KAVL AVL20160401075011404/01/16 07:50:31  5-MIN KAVL 011250Z 16005KT 10SM OVC009 16/14 A2983 2250 90 2900 170/05 RMK AO2 SLP083 T01610144
03812KAVL AVL20160401075510704/01/16 07:55:31  5-MIN KAVL 011255Z 18007KT 10SM OVC009 16/14 A2982 2260 90 2900 180/07 RMK AO2 T01610144
03812KAVL AVL20160401080010704/01/16 08:00:31  5-MIN KAVL 011300Z VRB05KT 10SM OVC009 16/14 A2981 2270 90 3000 VRB/05 RMK AO2 T01610144
03812KAVL AVL20160401080510704/01/16 08:05:31  5-MIN KAVL 011305Z 16005KT 10SM OVC008 17/14 A2981 2270 86 3000 170/05 RMK AO2 T01670144
03812KAVL AVL20160401081010704/01/16 08:10:31  5-MIN KAVL 011310Z 17006KT 10SM OVC008 17/14 A2981 2270 86 3000 170/06 RMK AO2 T01670144
03812KAVL AVL20160401081510704/01/16 08:15:31  5-MIN KAVL 011315Z 17004KT 10SM OVC008 17/14 A2981 2270 86 3000 170/04 RMK AO2 T01670144
03812KAVL AVL20160401082010704/01/16 08:20:31  5-MIN KAVL 011320Z 19006KT 10SM OVC009 17/14 A2981 2270 86 3000 200/06 RMK AO2 T01670144
03812KAVL AVL20160401082510704/01/16 08:25:31  5-MIN KAVL 011325Z 20007KT 10SM OVC009 17/14 A2982 2260 86 3000 200/07 RMK AO2 T01670144
03812KAVL AVL20160401083010704/01/16 08:30:31  5-MIN KAVL 011330Z 20005KT 10SM OVC009 17/14 A2982 2270 86 3000 210/05 RMK AO2 T01670144
03812KAVL AVL20160401083511304/01/16 08:35:31  5-MIN KAVL 011335Z 20009G15KT 10SM OVC009 17/14 A2981 2270 83 3100 200/09G15 RMK AO2 T01720144
03812KAVL AVL20160401084011304/01/16 08:40:31  5-MIN KAVL 011340Z 19008G15KT 10SM OVC010 17/14 A2982 2260 83 3100 200/08G15 RMK AO2 T01720144
03812KAVL AVL20160401084511404/01/16 08:45:31  5-MIN KAVL 011345Z 19009KT 10SM BKN010 OVC015 17/14 A2981 2270 83 3100 200/09 RMK AO2 T01720144
03812KAVL AVL20160401085012104/01/16 08:50:31  5-MIN KAVL 011350Z 20013KT 10SM BKN012 OVC017 17/14 A2981 2270 83 3100 200/13 RMK AO2 SLP076 T01720144
03812KAVL AVL20160401085511404/01/16 08:55:31  5-MIN KAVL 011355Z 19011KT 10SM BKN012 BKN017 17/14 A2981 2270 83 3100 200/11 RMK AO2 T01720144
03812KAVL AVL20160401090011404/01/16 09:00:31  5-MIN KAVL 011400Z 18008KT 10SM BKN012 BKN017 17/14 A2981 2270 83 3100 190/08 RMK AO2 T01720144
03812KAVL AVL20160401090510704/01/16 09:05:31  5-MIN KAVL 011405Z 18009KT 10SM BKN014 17/14 A2981 2270 83 3100 190/09 RMK AO2 T01720144
03812KAVL AVL20160401091010704/01/16 09:10:31  5-MIN KAVL 011410Z 18006KT 10SM BKN014 17/14 A2981 2270 83 3100 180/06 RMK AO2 T01720144
03812KAVL AVL20160401091511404/01/16 09:15:31  5-MIN KAVL 011415Z 21009KT 10SM BKN013 BKN018 18/15 A2981 2270 83 3200 210/09 RMK AO2 T01780150
03812KAVL AVL20160401092011404/01/16 09:20:31  5-MIN KAVL 011420Z 19008KT 10SM BKN013 BKN018 18/15 A2982 2260 83 3100 200/08 RMK AO2 T01780150
03812KAVL AVL20160401092511404/01/16 09:25:31  5-MIN KAVL 011425Z 18008KT 10SM SCT010 BKN015 18/14 A2983 2260 81 3100 190/08 RMK AO2 T01780144
03812KAVL AVL20160401093011404/01/16 09:30:31  5-MIN KAVL 011430Z 20012KT 10SM OVC013 18/14 A2984 2250 81 3100 200/12 RMK AO2 PRESRR T01780144
03812KAVL AVL20160401093511304/01/16 09:35:31  5-MIN KAVL 011435Z 20013G19KT 10SM OVC013 18/14 A2984 2240 81 3100 200/13G19 RMK AO2 T01780144
03812KAVL AVL20160401094012004/01/16 09:40:31  5-MIN KAVL 011440Z 19010G19KT 10SM BKN013 OVC019 18/14 A2984 2240 78 3200 190/10G19 RMK AO2 T01830144
03812KAVL AVL20160401094512704/01/16 09:45:31  5-MIN KAVL 011445Z 18012G17KT 10SM BKN013 BKN018 OVC050 18/14 A2984 2240 81 3100 190/12G17 RMK AO2 T01780144
03812KAVL AVL20160401095013404/01/16 09:50:31  5-MIN KAVL 011450Z 18014KT 10SM BKN012 BKN018 OVC055 19/15 A2985 2240 78 3200 190/14 RMK AO2 SLP087 T01890150 53007
03812KAVL AVL20160401095512704/01/16 09:55:31  5-MIN KAVL 011455Z 21011G20KT 10SM SCT012 BKN018 OVC060 18/14 A2985 2230 78 3200 210/11G20 RMK AO2 T01830144
03812KAVL AVL20160401100012704/01/16 10:00:31  5-MIN KAVL 011500Z 20014G20KT 10SM FEW012 BKN050 OVC060 19/15 A2985 2230 75 3300 210/14G20 RMK AO2 T01940150
03812KAVL AVL20160401100512104/01/16 10:05:31  5-MIN KAVL 011505Z 19014KT 10SM SCT012 BKN050 OVC060 19/15 A2985 2230 78 3200 200/14 RMK AO2 T01890150
03812KAVL AVL20160401101012104/01/16 10:10:31  5-MIN KAVL 011510Z 20013KT 10SM SCT012 BKN050 OVC060 19/14 A2985 2240 75 3200 200/13 RMK AO2 T01890144
03812KAVL AVL20160401101512104/01/16 10:15:31  5-MIN KAVL 011515Z 18013KT 10SM SCT012 BKN050 OVC060 19/15 A2984 2240 75 3300 190/13 RMK AO2 T01940150
03812KAVL AVL20160401102012104/01/16 10:20:31  5-MIN KAVL 011520Z 18015KT 10SM SCT012 BKN050 OVC060 19/15 A2984 2240 75 3300 190/15 RMK AO2 T01940150
03812KAVL AVL20160401102512104/01/16 10:25:31  5-MIN KAVL 011525Z 19012KT 10SM SCT012 BKN050 OVC060 20/15 A2984 2240 72 3400 200/12 RMK AO2 T02000150
03812KAVL AVL20160401103012104/01/16 10:30:31  5-MIN KAVL 011530Z 19015KT 10SM SCT012 BKN050 OVC060 20/14 A2985 2240 70 3400 190/15 RMK AO2 T02000144
03812KAVL AVL20160401103512704/01/16 10:35:31  5-MIN KAVL 011535Z 19015G21KT 10SM SCT012 BKN050 OVC060 20/14 A2984 2240 70 3400 200/15G21 RMK AO2 T02000144
03812KAVL AVL20160401104012704/01/16 10:40:31  5-MIN KAVL 011540Z 18015G21KT 10SM SCT012 BKN050 OVC060 21/15 A2984 2250 70 3400 190/15G21 RMK AO2 T02060150
03812KAVL AVL20160401104512104/01/16 10:45:31  5-MIN KAVL 011545Z 19012KT 10SM SCT012 BKN050 OVC060 21/15 A2984 2250 70 3400 200/12 RMK AO2 T02060150
03812KAVL AVL20160401105012004/01/16 10:50:31  5-MIN KAVL 011550Z 20014G21KT 10SM FEW018 20/15 A2983 2250 72 3400 210/14G21 RMK AO2 SLP083 T02000150
03812KAVL AVL20160401105511304/01/16 10:55:31  5-MIN KAVL 011555Z 20013G21KT 10SM FEW018 20/15 A2983 2250 72 3400 200/13G21 RMK AO2 T02000150
03812KAVL AVL20160401110010704/01/16 11:00:31  5-MIN KAVL 011600Z 20011KT 10SM FEW018 21/15 A2982 2260 70 3500 200/11 RMK AO2 T02060150
03812KAVL AVL20160401110511404/01/16 11:05:31  5-MIN KAVL 011605Z 20011KT 10SM FEW018 21/15 A2981 2270 70 3500 200/11 RMK AO2 PRESFR T02060150
03812KAVL AVL20160401111011704/01/16 11:10:31  5-MIN KAVL 011610Z 20014G20KT 10SM CLR 21/15 A2980 2280 70 3500 200/14G20 RMK AO2 PRESFR T02060150
03812KAVL AVL20160401111510404/01/16 11:15:31  5-MIN KAVL 011615Z 19015KT 10SM CLR 21/14 A2981 2270 65 3500 200/15 RMK AO2 T02110144
03812KAVL AVL20160401112010404/01/16 11:20:31  5-MIN KAVL 011620Z 19016KT 10SM CLR 21/14 A2982 2260 65 3500 200/16 RMK AO2 T02110144
03812KAVL AVL20160401112510404/01/16 11:25:31  5-MIN KAVL 011625Z 19014KT 10SM CLR 21/15 A2982 2260 68 3500 200/14 RMK AO2 T02110150
03812KAVL AVL20160401113011004/01/16 11:30:31  5-MIN KAVL 011630Z 19014G21KT 10SM CLR 22/15 A2981 2270 65 3600 190/14G21 RMK AO2 T02170150
03812KAVL AVL20160401113510404/01/16 11:35:31  5-MIN KAVL 011635Z 18015KT 10SM CLR 22/14 A2981 2270 63 3600 190/15 RMK AO2 T02170144
03812KAVL AVL20160401114011004/01/16 11:40:31  5-MIN KAVL 011640Z 18016G23KT 10SM CLR 22/14 A2980 2280 63 3600 190/16G23 RMK AO2 T02170144
03812KAVL AVL20160401114511004/01/16 11:45:31  5-MIN KAVL 011645Z 19011G23KT 10SM CLR 22/15 A2980 2280 65 3600 200/11G23 RMK AO2 T02170150
03812KAVL AVL20160401115012704/01/16 11:50:31  5-MIN KAVL 011650Z 19015G19KT 10SM FEW070 SCT090 22/15 A2981 2270 63 3700 190/15G19 RMK AO2 SLP072 T02220150
03812KAVL AVL20160401115512004/01/16 11:55:31  5-MIN KAVL 011655Z 19012G19KT 10SM SCT070 BKN090 21/14 A2981 2270 65 3500 200/12G19 RMK AO2 T02110144
03812KAVL AVL20160401120011304/01/16 12:00:31  5-MIN KAVL 011700Z 19016G20KT 10SM BKN065 22/14 A2982 2260 63 3600 200/16G20 RMK AO2 T02170144
03812KAVL AVL20160401120512004/01/16 12:05:31  5-MIN KAVL 011705Z 19012G20KT 10SM BKN060 BKN075 21/14 A2982 2260 63 3500 190/12G20 RMK AO2 T02110139
03812KAVL AVL20160401121012704/01/16 12:10:31  5-MIN KAVL 011710Z 19014G21KT 10SM BKN060 BKN075 OVC090 21/14 A2983 2260 65 3500 200/14G21 RMK AO2 T02060139
03812KAVL AVL20160401121511304/01/16 12:15:31  5-MIN KAVL 011715Z 20011G21KT 10SM OVC060 21/14 A2982 2260 63 3500 200/11G21 RMK AO2 T02110139
03812KAVL AVL20160401122011304/01/16 12:20:31  5-MIN KAVL 011720Z 20015G21KT 10SM OVC060 21/14 A2982 2260 63 3500 200/15G21 RMK AO2 T02110139
03812KAVL AVL20160401122511304/01/16 12:25:31  5-MIN KAVL 011725Z 20011G21KT 10SM OVC060 21/13 A2983 2250 61 3500 210/11G21 RMK AO2 T02110133
03812KAVL AVL20160401123010704/01/16 12:30:31  5-MIN KAVL 011730Z 18013KT 10SM OVC060 21/13 A2982 2260 61 3500 190/13 RMK AO2 T02110133
03812KAVL AVL20160401123512004/01/16 12:35:31  5-MIN KAVL 011735Z 22012G16KT 10SM BKN060 OVC070 22/14 A2982 2260 61 3600 220/12G16 RMK AO2 T02170139
03812KAVL AVL20160401124011304/01/16 12:40:31  5-MIN KAVL 011740Z 20013G19KT 10SM OVC060 22/13 A2982 2260 58 3600 210/13G19 RMK AO2 T02170133
03812KAVL AVL20160401124511304/01/16 12:45:31  5-MIN KAVL 011745Z 20008G19KT 10SM OVC060 22/14 A2982 2260 61 3600 210/08G19 RMK AO2 T02170139
03812KAVL AVL20160401125013204/01/16 12:50:31  5-MIN KAVL 011750Z 20007KT 10SM OVC065 22/14 A2983 2250 61 3600 210/07 RMK AO2 SLP080 T02170139 10222 20161 53010
03812KAVL AVL20160401125512004/01/16 12:55:31  5-MIN KAVL 011755Z 19011G15KT 10SM BKN065 BKN075 22/14 A2983 2250 59 3600 200/11G15 RMK AO2 T02220139
03812KAVL AVL20160401130012704/01/16 13:00:31  5-MIN KAVL 011800Z 18013G18KT 10SM BKN065 BKN080 BKN100 22/13 A2983 2250 58 3600 190/13G18 RMK AO2 T02170133
03812KAVL AVL20160401130512704/01/16 13:05:31  5-MIN KAVL 011805Z 19012G18KT 10SM SCT060 BKN080 BKN095 21/14 A2983 2250 63 3500 200/12G18 RMK AO2 T02110139
03812KAVL AVL20160401131013804/01/16 13:10:31  5-MIN KAVL 011810Z 20015G20KT 10SM SCT060 BKN075 BKN100 21/13 A2983 2250 61 3500 200/15G20 RMK AO2 LTG DSNT N T02110133
03812KAVL AVL20160401131513804/01/16 13:15:31  5-MIN KAVL 011815Z 19015G21KT 10SM SCT060 BKN080 BKN100 21/13 A2983 2250 63 3500 200/15G21 RMK AO2 LTG DSNT N T02060133
03812KAVL AVL20160401132013804/01/16 13:20:31  5-MIN KAVL 011820Z 20011G21KT 10SM SCT060 BKN080 BKN100 21/13 A2983 2250 61 3500 200/11G21 RMK AO2 LTG DSNT N T02110133
03812KAVL AVL20160401132515404/01/16 13:25:31  5-MIN KAVL 011825Z 19009G21KT 10SM -RA SCT048 BKN060 BKN080 21/13 A2982 2260 63 3500 200/09G21 RMK AO2 LTG DSNT N RAB23 P0000 T02060133
03812KAVL AVL20160401133015404/01/16 13:30:31  5-MIN KAVL 011830Z 21011G21KT 10SM -RA FEW048 BKN060 BKN075 21/13 A2982 2260 63 3500 210/11G21 RMK AO2 LTG DSNT N RAB23 P0000 T02060133
03812KAVL AVL20160401133513504/01/16 13:35:31  5-MIN KAVL 011835Z 20011G18KT 10SM FEW050 SCT060 21/14 A2982 2260 63 3500 210/11G18 RMK AO2 RAB23E35 P0000 T02110139
03812KAVL AVL20160401134013504/01/16 13:40:31  5-MIN KAVL 011840Z 20012G18KT 10SM FEW048 SCT060 21/14 A2982 2260 65 3500 210/12G18 RMK AO2 RAB23E35 P0000 T02060139
03812KAVL AVL20160401134514704/01/16 13:45:31  5-MIN KAVL 011845Z 20014G22KT 10SM FEW050 FEW060 21/14 A2983 2250 65 3500 200/14G22 RMK AO2 LTG DSNT NE RAB23E35 P0000 T02060139
03812KAVL AVL20160401135015404/01/16 13:50:31  5-MIN KAVL 011850Z 20012G22KT 10SM FEW048 FEW070 21/13 A2983 2250 63 3500 210/12G22 RMK AO2 LTG DSNT NE RAB23E35 SLP081 P0000 T02060133
03812KAVL AVL20160401135512504/01/16 13:55:31  5-MIN KAVL 011855Z 18011G18KT 10SM FEW070 21/14 A2982 2260 65 3500 190/11G18 RMK AO2 LTG DSNT NE T02060139
03812KAVL AVL20160401140011904/01/16 14:00:31  5-MIN KAVL 011900Z 21010KT 10SM FEW075 21/14 A2982 2260 65 3500 210/10 RMK AO2 LTG DSNT NE T02060139
03812KAVL AVL20160401140510704/01/16 14:05:31  5-MIN KAVL 011905Z 21012KT 10SM FEW075 21/13 A2982 2260 63 3500 210/12 RMK AO2 T02060133
03812KAVL AVL20160401141010404/01/16 14:10:31  5-MIN KAVL 011910Z 20011KT 10SM CLR 21/14 A2982 2260 65 3500 200/11 RMK AO2 T02060139
03812KAVL AVL20160401141511004/01/16 14:15:31  5-MIN KAVL 011915Z 19012G19KT 10SM CLR 20/14 A2982 2260 67 3400 200/12G19 RMK AO2 T02000139
03812KAVL AVL20160401142011004/01/16 14:20:31  5-MIN KAVL 011920Z 20010G19KT 10SM CLR 20/14 A2982 2260 67 3400 210/10G19 RMK AO2 T02000139
03812KAVL AVL20160401142510404/01/16 14:25:31  5-MIN KAVL 011925Z 20010KT 10SM CLR 20/14 A2981 2270 67 3400 210/10 RMK AO2 T02000139
03812KAVL AVL20160401143010404/01/16 14:30:31  5-MIN KAVL 011930Z 19007KT 10SM CLR 20/14 A2981 2270 67 3400 200/07 RMK AO2 T02000139
03812KAVL AVL20160401143510404/01/16 14:35:31  5-MIN KAVL 011935Z 19011KT 10SM CLR 20/14 A2980 2280 67 3400 200/11 RMK AO2 T02000139
03812KAVL AVL20160401144010404/01/16 14:40:31  5-MIN KAVL 011940Z 20011KT 10SM CLR 20/14 A2980 2280 67 3400 210/11 RMK AO2 T02000139
03812KAVL AVL20160401144511004/01/16 14:45:31  5-MIN KAVL 011945Z 20007G16KT 10SM CLR 20/14 A2980 2280 67 3400 210/07G16 RMK AO2 T02000139
03812KAVL AVL20160401145011704/01/16 14:50:31  5-MIN KAVL 011950Z 21010G15KT 10SM CLR 20/14 A2980 2280 67 3400 210/10G15 RMK AO2 SLP071 T02000139
03812KAVL AVL20160401145511004/01/16 14:55:31  5-MIN KAVL 011955Z 21009G15KT 10SM CLR 20/14 A2980 2280 67 3400 220/09G15 RMK AO2 T02000139
03812KAVL AVL20160401150010404/01/16 15:00:31  5-MIN KAVL 012000Z 21011KT 10SM CLR 20/14 A2980 2280 67 3400 220/11 RMK AO2 T02000139
03812KAVL AVL20160401150510404/01/16 15:05:31  5-MIN KAVL 012005Z 23009KT 10SM CLR 20/14 A2980 2280 67 3400 230/09 RMK AO2 T02000139
03812KAVL AVL20160401151010404/01/16 15:10:31  5-MIN KAVL 012010Z 21009KT 10SM CLR 20/14 A2980 2280 70 3400 220/09 RMK AO2 T02000144
03812KAVL AVL20160401151510404/01/16 15:15:31  5-MIN KAVL 012015Z 20007KT 10SM CLR 20/14 A2981 2270 70 3400 210/07 RMK AO2 T02000144
03812KAVL AVL20160401152010404/01/16 15:20:31  5-MIN KAVL 012020Z 20009KT 10SM CLR 20/14 A2981 2270 70 3400 200/09 RMK AO2 T02000144
03812KAVL AVL20160401152510404/01/16 15:25:31  5-MIN KAVL 012025Z 20009KT 10SM CLR 20/14 A2981 2270 70 3400 210/09 RMK AO2 T02000144
03812KAVL AVL20160401153010404/01/16 15:30:31  5-MIN KAVL 012030Z 21007KT 10SM CLR 20/14 A2981 2270 70 3400 210/07 RMK AO2 T02000144
03812KAVL AVL20160401153510404/01/16 15:35:31  5-MIN KAVL 012035Z 20008KT 10SM CLR 20/14 A2981 2270 70 3400 200/08 RMK AO2 T02000144
03812KAVL AVL20160401154011004/01/16 15:40:31  5-MIN KAVL 012040Z 20009G14KT 10SM CLR 19/14 A2981 2270 72 3300 200/09G14 RMK AO2 T01940144
03812KAVL AVL20160401154510904/01/16 15:45:31  5-MIN KAVL 012045Z AUTO 21010KT 10SM CLR 19/14 A2981 2270 70 3300 210/10 RMK AO2 T01940139
03812KAVL AVL20160401155012304/01/16 15:50:31  5-MIN KAVL 012050Z 21010KT 10SM CLR 19/14 A2981 2270 70 3300 210/10 RMK AO2 SLP076 60000 T01940139 55004
03812KAVL AVL20160401155511004/01/16 15:55:31  5-MIN KAVL 012055Z 21008G17KT 10SM CLR 19/14 A2982 2260 70 3300 210/08G17 RMK AO2 T01940139
03812KAVL AVL20160401160010704/01/16 16:00:31  5-MIN KAVL 012100Z 21011KT 10SM FEW120 19/14 A2981 2270 70 3400 220/11 RMK AO2 T01940139
03812KAVL AVL20160401160510704/01/16 16:05:31  5-MIN KAVL 012105Z 21009KT 10SM FEW120 19/14 A2980 2280 70 3400 220/09 RMK AO2 T01940139
03812KAVL AVL20160401161010704/01/16 16:10:31  5-MIN KAVL 012110Z 20011KT 10SM FEW120 19/14 A2980 2280 70 3400 210/11 RMK AO2 T01940139
03812KAVL AVL20160401161510704/01/16 16:15:31  5-MIN KAVL 012115Z 18010KT 10SM FEW120 19/14 A2979 2290 70 3400 190/10 RMK AO2 T01940139
03812KAVL AVL20160401162010704/01/16 16:20:31  5-MIN KAVL 012120Z 19010KT 10SM FEW120 19/14 A2980 2280 70 3400 200/10 RMK AO2 T01940139
03812KAVL AVL20160401162510704/01/16 16:25:31  5-MIN KAVL 012125Z 21010KT 10SM FEW120 19/14 A2980 2280 70 3400 210/10 RMK AO2 T01940139
03812KAVL AVL20160401163010404/01/16 16:30:31  5-MIN KAVL 012130Z 21008KT 10SM CLR 19/14 A2980 2280 70 3400 220/08 RMK AO2 T01940139
03812KAVL AVL20160401163511004/01/16 16:35:31  5-MIN KAVL 012135Z 21011G18KT 10SM CLR 19/14 A2980 2280 70 3400 220/11G18 RMK AO2 T01940139
03812KAVL AVL20160401164011304/01/16 16:40:31  5-MIN KAVL 012140Z 21010G18KT 10SM FEW120 19/14 A2980 2280 70 3400 210/10G18 RMK AO2 T01940139
03812KAVL AVL20160401164510704/01/16 16:45:31  5-MIN KAVL 012145Z 20011KT 10SM FEW120 19/14 A2981 2270 70 3400 210/11 RMK AO2 T01940139
03812KAVL AVL20160401165011404/01/16 16:50:31  5-MIN KAVL 012150Z 19010KT 10SM FEW120 19/14 A2980 2280 70 3400 190/10 RMK AO2 SLP070 T01940139
03812KAVL AVL20160401165510404/01/16 16:55:31  5-MIN KAVL 012155Z 20008KT 10SM CLR 19/14 A2979 2290 70 3400 200/08 RMK AO2 T01940139
03812KAVL AVL20160401170010404/01/16 17:00:31  5-MIN KAVL 012200Z 20010KT 10SM CLR 19/14 A2980 2280 75 3300 210/10 RMK AO2 T01890144
03812KAVL AVL20160401170510404/01/16 17:05:31  5-MIN KAVL 012205Z 18010KT 10SM CLR 19/14 A2979 2290 72 3300 190/10 RMK AO2 T01890139
03812KAVL AVL20160401171010404/01/16 17:10:31  5-MIN KAVL 012210Z 19009KT 10SM CLR 19/14 A2980 2280 75 3300 190/09 RMK AO2 T01890144
03812KAVL AVL20160401171510404/01/16 17:15:31  5-MIN KAVL 012215Z 20011KT 10SM CLR 19/14 A2979 2280 72 3400 200/11 RMK AO2 T01940144
03812KAVL AVL20160401172011004/01/16 17:20:31  5-MIN KAVL 012220Z 21011G16KT 10SM CLR 19/14 A2979 2290 72 3300 210/11G16 RMK AO2 T01890139
03812KAVL AVL20160401172511004/01/16 17:25:31  5-MIN KAVL 012225Z 21009G16KT 10SM CLR 19/14 A2979 2280 75 3300 210/09G16 RMK AO2 T01890144
03812KAVL AVL20160401173011004/01/16 17:30:31  5-MIN KAVL 012230Z 21009G16KT 10SM CLR 19/14 A2979 2290 72 3300 210/09G16 RMK AO2 T01890139
03812KAVL AVL20160401173510404/01/16 17:35:31  5-MIN KAVL 012235Z 20010KT 10SM CLR 19/14 A2979 2290 72 3300 200/10 RMK AO2 T01890139
03812KAVL AVL20160401174010404/01/16 17:40:31  5-MIN KAVL 012240Z 21010KT 10SM CLR 19/14 A2980 2280 72 3300 210/10 RMK AO2 T01890139
03812KAVL AVL20160401174511004/01/16 17:45:31  5-MIN KAVL 012245Z 22013G17KT 10SM CLR 19/14 A2981 2270 72 3300 220/13G17 RMK AO2 T01890139
03812KAVL AVL20160401175011104/01/16 17:50:31  5-MIN KAVL 012250Z 21010KT 10SM CLR 19/14 A2981 2270 72 3300 220/10 RMK AO2 SLP075 T01890139
03812KAVL AVL20160401175510404/01/16 17:55:31  5-MIN KAVL 012255Z 20011KT 10SM CLR 19/14 A2981 2270 72 3300 210/11 RMK AO2 T01890139
03812KAVL AVL20160401180011304/01/16 18:00:31  5-MIN KAVL 012300Z 21010G17KT 10SM FEW120 19/14 A2981 2270 72 3300 210/10G17 RMK AO2 T01890139
03812KAVL AVL20160401180510704/01/16 18:05:31  5-MIN KAVL 012305Z 20010KT 10SM SCT120 19/14 A2981 2270 72 3300 210/10 RMK AO2 T01890139
03812KAVL AVL20160401181010704/01/16 18:10:31  5-MIN KAVL 012310Z 19010KT 10SM BKN110 19/14 A2981 2270 72 3300 190/10 RMK AO2 T01890139
03812KAVL AVL20160401181510704/01/16 18:15:31  5-MIN KAVL 012315Z 19009KT 10SM BKN110 18/14 A2981 2270 75 3200 200/09 RMK AO2 T01830139
03812KAVL AVL20160401182010704/01/16 18:20:31  5-MIN KAVL 012320Z 19010KT 10SM SCT110 18/14 A2982 2260 75 3200 200/10 RMK AO2 T01830139
03812KAVL AVL20160401182511404/01/16 18:25:31  5-MIN KAVL 012325Z 19009KT 10SM FEW060 BKN120 18/14 A2981 2270 75 3200 200/09 RMK AO2 T01830139
03812KAVL AVL20160401183011404/01/16 18:30:31  5-MIN KAVL 012330Z 19007KT 10SM FEW060 BKN120 18/14 A2981 2270 75 3200 200/07 RMK AO2 T01830139
03812KAVL AVL20160401183510704/01/16 18:35:31  5-MIN KAVL 012335Z 19009KT 10SM BKN110 18/14 A2982 2260 75 3200 190/09 RMK AO2 T01830139
03812KAVL AVL20160401184010704/01/16 18:40:31  5-MIN KAVL 012340Z 19009KT 10SM BKN120 18/14 A2981 2270 75 3200 200/09 RMK AO2 T01830139
03812KAVL AVL20160401184510704/01/16 18:45:31  5-MIN KAVL 012345Z 20008KT 10SM BKN120 18/14 A2980 2280 75 3200 200/08 RMK AO2 T01830139
03812KAVL AVL20160401185013804/01/16 18:50:31  5-MIN KAVL 012350Z 20007KT 10SM BKN120 18/14 A2980 2280 75 3200 200/07 RMK AO2 SLP071 60000 T01830139 10222 20183 55006
03812KAVL AVL20160401185510704/01/16 18:55:31  5-MIN KAVL 012355Z 19007KT 10SM BKN120 18/14 A2980 2280 75 3200 200/07 RMK AO2 T01830139
03812KAVL AVL20160401190010704/01/16 19:00:31  5-MIN KAVL 020000Z 20008KT 10SM BKN120 18/14 A2980 2280 75 3200 210/08 RMK AO2 T01830139
03812KAVL AVL20160401190510704/01/16 19:05:31  5-MIN KAVL 020005Z 21007KT 10SM BKN120 18/14 A2979 2290 75 3200 220/07 RMK AO2 T01830139
03812KAVL AVL20160401191010704/01/16 19:10:31  5-MIN KAVL 020010Z 20007KT 10SM SCT120 18/13 A2979 2290 75 3200 210/07 RMK AO2 T01780133
03812KAVL AVL20160401191511404/01/16 19:15:31  5-MIN KAVL 020015Z 20007KT 10SM FEW080 BKN120 18/13 A2979 2290 75 3200 210/07 RMK AO2 T01780133
03812KAVL AVL20160401192011404/01/16 19:20:31  5-MIN KAVL 020020Z 19006KT 10SM FEW080 SCT120 18/13 A2979 2290 75 3200 200/06 RMK AO2 T01780133
03812KAVL AVL20160401192511404/01/16 19:25:31  5-MIN KAVL 020025Z 19006KT 10SM FEW080 FEW120 18/13 A2979 2290 75 3200 200/06 RMK AO2 T01780133
03812KAVL AVL20160401193010704/01/16 19:30:31  5-MIN KAVL 020030Z 19007KT 10SM FEW080 18/13 A2980 2280 75 3200 200/07 RMK AO2 T01780133
03812KAVL AVL20160401193510704/01/16 19:35:31  5-MIN KAVL 020035Z 19005KT 10SM FEW080 18/13 A2980 2280 75 3200 190/05 RMK AO2 T01780133
03812KAVL AVL20160401194010704/01/16 19:40:31  5-MIN KAVL 020040Z 19004KT 10SM FEW080 17/13 A2980 2280 78 3100 190/04 RMK AO2 T01720133
03812KAVL AVL20160401194510404/01/16 19:45:31  5-MIN KAVL 020045Z 17004KT 10SM CLR 17/13 A2980 2280 78 3100 180/04 RMK AO2 T01720133
03812KAVL AVL20160401195011404/01/16 19:50:31  5-MIN KAVL 020050Z 17004KT 10SM FEW120 17/13 A2981 2270 80 3000 170/04 RMK AO2 SLP075 T01670133
03812KAVL AVL20160401195510704/01/16 19:55:31  5-MIN KAVL 020055Z 18004KT 10SM SCT110 17/13 A2981 2270 80 3000 190/04 RMK AO2 T01670133
03812KAVL AVL20160401200010704/01/16 20:00:31  5-MIN KAVL 020100Z 18005KT 10SM SCT110 17/13 A2981 2270 78 3100 190/05 RMK AO2 T01720133
03812KAVL AVL20160401200511404/01/16 20:05:31  5-MIN KAVL 020105Z 20004KT 10SM FEW023 SCT110 17/13 A2982 2260 80 3000 210/04 RMK AO2 T01670133
03812KAVL AVL20160401201011404/01/16 20:10:31  5-MIN KAVL 020110Z 00000KT 10SM SCT021 BKN110 17/13 A2982 2260 78 3100 000/00 RMK AO2 T01720133
03812KAVL AVL20160401201511404/01/16 20:15:31  5-MIN KAVL 020115Z 27003KT 10SM BKN021 BKN110 17/13 A2982 2260 78 3100 280/03 RMK AO2 T01720133
03812KAVL AVL20160401202011404/01/16 20:20:31  5-MIN KAVL 020120Z 29003KT 10SM BKN021 BKN110 17/13 A2983 2250 78 3100 300/03 RMK AO2 T01720133
03812KAVL AVL20160401202510704/01/16 20:25:31  5-MIN KAVL 020125Z 33003KT 10SM BKN021 17/14 A2982 2260 80 3100 340/03 RMK AO2 T01720139
03812KAVL AVL20160401203010704/01/16 20:30:31  5-MIN KAVL 020130Z 30004KT 10SM OVC021 18/12 A2982 2260 69 3100 310/04 RMK AO2 T01780122
03812KAVL AVL20160401203510704/01/16 20:35:31  5-MIN KAVL 020135Z 30005KT 10SM OVC021 18/11 A2982 2260 62 3100 310/05 RMK AO2 T01780106
03812KAVL AVL20160401204010704/01/16 20:40:31  5-MIN KAVL 020140Z 31007KT 10SM OVC021 17/10 A2982 2260 62 3100 320/07 RMK AO2 T01720100
03812KAVL AVL20160401204511404/01/16 20:45:31  5-MIN KAVL 020145Z 35008KT 10SM BKN023 OVC029 17/10 A2982 2260 62 3100 350/08 RMK AO2 T01720100
03812KAVL AVL20160401205012104/01/16 20:50:31  5-MIN KAVL 020150Z 33007KT 10SM BKN023 OVC029 17/09 A2982 2260 60 3100 330/07 RMK AO2 SLP078 T01720094
03812KAVL AVL20160401205510704/01/16 20:55:31  5-MIN KAVL 020155Z 32006KT 10SM OVC024 17/09 A2982 2260 60 3100 330/06 RMK AO2 T01720094
03812KAVL AVL20160401210010704/01/16 21:00:31  5-MIN KAVL 020200Z 32005KT 10SM OVC024 17/09 A2982 2260 62 3000 330/05 RMK AO2 T01670094
03812KAVL AVL20160401210510704/01/16 21:05:31  5-MIN KAVL 020205Z 33008KT 10SM OVC024 17/09 A2982 2260 60 3000 330/08 RMK AO2 T01670089
03812KAVL AVL20160401211010704/01/16 21:10:31  5-MIN KAVL 020210Z 33008KT 10SM OVC024 17/09 A2982 2260 60 3000 340/08 RMK AO2 T01670089
03812KAVL AVL20160401211510704/01/16 21:15:31  5-MIN KAVL 020215Z 35007KT 10SM OVC025 17/08 A2982 2260 57 3000 350/07 RMK AO2 T01670083
03812KAVL AVL20160401212010704/01/16 21:20:31  5-MIN KAVL 020220Z 35009KT 10SM OVC025 17/08 A2981 2270 55 3100 360/09 RMK AO2 T01720083
03812KAVL AVL20160401212510704/01/16 21:25:31  5-MIN KAVL 020225Z 35010KT 10SM OVC025 17/08 A2981 2270 55 3000 360/10 RMK AO2 T01670078
03812KAVL AVL20160401213010704/01/16 21:30:31  5-MIN KAVL 020230Z 34011KT 10SM OVC025 17/08 A2982 2260 55 3000 350/11 RMK AO2 T01670078
03812KAVL AVL20160401213510704/01/16 21:35:31  5-MIN KAVL 020235Z 34008KT 10SM OVC025 17/08 A2982 2260 55 3000 350/08 RMK AO2 T01670078
03812KAVL AVL20160401214011204/01/16 21:40:31  5-MIN KAVL 020240Z AUTO 33008KT 10SM OVC025 17/08 A2982 2260 55 3000 340/08 RMK AO2 T01670078
03812KAVL AVL20160401214511204/01/16 21:45:31  5-MIN KAVL 020245Z AUTO 33007KT 10SM OVC025 17/08 A2982 2260 55 3000 340/07 RMK AO2 T01670078
03812KAVL AVL20160401215012504/01/16 21:50:31  5-MIN KAVL 020250Z AUTO 34008KT 10SM OVC027 16/08 A2982 2260 57 3000 340/08 RMK AO2 SLP078 T01610078 56006
03812KAVL AVL20160401215511204/01/16 21:55:31  5-MIN KAVL 020255Z AUTO 34009KT 10SM OVC027 17/07 A2982 2260 53 3000 350/09 RMK AO2 T01670072
03812KAVL AVL20160401220011204/01/16 22:00:31  5-MIN KAVL 020300Z AUTO 35008KT 10SM OVC027 17/07 A2982 2260 53 3000 350/08 RMK AO2 T01670072
03812KAVL AVL20160401220511204/01/16 22:05:31  5-MIN KAVL 020305Z AUTO 33010KT 10SM OVC028 16/07 A2982 2260 55 2900 330/10 RMK AO2 T01610072
03812KAVL AVL20160401221011204/01/16 22:10:31  5-MIN KAVL 020310Z AUTO 32008KT 10SM OVC028 16/07 A2983 2250 55 2900 320/08 RMK AO2 T01610072
03812KAVL AVL20160401221511204/01/16 22:15:31  5-MIN KAVL 020315Z AUTO 33006KT 10SM OVC028 16/07 A2983 2250 55 2900 330/06 RMK AO2 T01610072
03812KAVL AVL20160401222011204/01/16 22:20:31  5-MIN KAVL 020320Z AUTO 34009KT 10SM OVC028 16/07 A2982 2260 55 2900 350/09 RMK AO2 T01610072
03812KAVL AVL20160401222511204/01/16 22:25:31  5-MIN KAVL 020325Z AUTO 34009KT 10SM OVC028 16/07 A2982 2260 55 2900 340/09 RMK AO2 T01610072
03812KAVL AVL20160401223011204/01/16 22:30:31  5-MIN KAVL 020330Z AUTO 34010KT 10SM OVC028 16/07 A2982 2260 53 3000 340/10 RMK AO2 T01610067
03812KAVL AVL20160401223512604/01/16 22:35:31  5-MIN KAVL 020335Z AUTO 33010KT 10SM BKN026 BKN032 OVC085 16/07 A2982 2260 53 3000 340/10 RMK AO2 T01610067
03812KAVL AVL20160401224012604/01/16 22:40:31  5-MIN KAVL 020340Z AUTO 33009KT 10SM BKN026 BKN032 OVC085 16/07 A2982 2260 55 2900 340/09 RMK AO2 T01560067
03812KAVL AVL20160401224512604/01/16 22:45:31  5-MIN KAVL 020345Z AUTO 33011KT 10SM BKN026 BKN031 OVC085 16/07 A2983 2260 55 2900 340/11 RMK AO2 T01560067
03812KAVL AVL20160401225013304/01/16 22:50:31  5-MIN KAVL 020350Z AUTO 34010KT 10SM BKN024 BKN031 OVC085 16/07 A2983 2260 55 2900 340/10 RMK AO2 SLP080 T01560067
03812KAVL AVL20160401225513604/01/16 22:55:31  5-MIN KAVL 020355Z AUTO 33010KT 10SM -RA BKN024 BKN028 OVC085 16/07 A2983 2250 57 2900 340/10 RMK AO2 P0000 T01560072
03812KAVL AVL20160401230012204/01/16 23:00:31  5-MIN KAVL 020400Z AUTO 35010KT 10SM -RA OVC024 15/07 A2983 2250 59 2800 350/10 RMK AO2 P0000 T01500072
03812KAVL AVL20160401230512204/01/16 23:05:31  5-MIN KAVL 020405Z AUTO 34013KT 10SM -RA OVC024 14/08 A2983 2250 64 2700 350/13 RMK AO2 P0000 T01440078
03812KAVL AVL20160401231012204/01/16 23:10:31  5-MIN KAVL 020410Z AUTO 34012KT 10SM -RA OVC024 14/08 A2983 2250 69 2700 340/12 RMK AO2 P0000 T01390083
03812KAVL AVL20160401231512904/01/16 23:15:31  5-MIN KAVL 020415Z AUTO 35010KT 10SM -RA BKN024 OVC055 13/08 A2983 2260 71 2600 360/10 RMK AO2 P0000 T01330083
03812KAVL AVL20160401232012904/01/16 23:20:31  5-MIN KAVL 020420Z AUTO 36008KT 10SM -RA BKN024 OVC055 13/08 A2982 2260 69 2600 010/08 RMK AO2 P0000 T01330078
03812KAVL AVL20160401232513604/01/16 23:25:31  5-MIN KAVL 020425Z AUTO 35008KT 10SM -RA BKN025 BKN031 OVC075 13/08 A2982 2260 69 2600 350/08 RMK AO2 P0000 T01330078
03812KAVL AVL20160401233013604/01/16 23:30:31  5-MIN KAVL 020430Z AUTO 34008KT 10SM -RA SCT025 BKN060 OVC080 13/08 A2983 2250 74 2600 340/08 RMK AO2 P0001 T01280083
03812KAVL AVL20160401233513604/01/16 23:35:31  5-MIN KAVL 020435Z AUTO 32007KT 10SM -RA FEW025 SCT030 OVC075 13/09 A2983 2250 80 2600 320/07 RMK AO2 P0001 T01280094
03812KAVL AVL20160401234012904/01/16 23:40:31  5-MIN KAVL 020440Z AUTO 35007KT 10SM -RA FEW027 OVC075 12/09 A2983 2250 83 2500 350/07 RMK AO2 P0002 T01220094
03812KAVL AVL20160401234513604/01/16 23:45:31  5-MIN KAVL 020445Z AUTO 35007KT 10SM -RA FEW027 FEW032 OVC075 12/09 A2983 2250 83 2500 350/07 RMK AO2 P0002 T01220094
03812KAVL AVL20160401235014604/01/16 23:50:31  5-MIN KAVL 020450Z AUTO 35007KT 10SM -RA FEW029 OVC080 12/09 A2982 2260 80 2500 360/07 RMK AO2 SLP079 P0002 T01220089 402220122
03812KAVL AVL20160401235512904/01/16 23:55:31  5-MIN KAVL 020455Z AUTO 36007KT 10SM -RA BKN075 OVC090 12/09 A2982 2260 80 2500 360/07 RMK AO2 P0000 T01220089
03812KAVL AVL20160402000013604/02/16 00:00:31  5-MIN KAVL 020500Z AUTO 36007KT 10SM -RA FEW038 FEW060 OVC080 12/09 A2981 2270 83 2400 010/07 RMK AO2 P0001 T01170089
03812KAVL AVL20160402000513604/02/16 00:05:31  5-MIN KAVL 020505Z AUTO 36007KT 10SM -RA FEW040 FEW048 OVC080 12/09 A2982 2260 80 2500 360/07 RMK AO2 P0001 T01220089
03812KAVL AVL20160402001013604/02/16 00:10:31  5-MIN KAVL 020510Z AUTO 33008KT 10SM -RA FEW043 SCT049 OVC080 12/09 A2982 2260 80 2500 340/08 RMK AO2 P0001 T01220089
03812KAVL AVL20160402001513604/02/16 00:15:31  5-MIN KAVL 020515Z AUTO 33007KT 10SM -RA FEW043 BKN075 OVC090 12/09 A2981 2270 83 2500 340/07 RMK AO2 P0001 T01220094
03812KAVL AVL20160402002013804/02/16 00:20:31  5-MIN KAVL 020520Z AUTO 34006KT 10SM FEW043 BKN075 OVC090 12/09 A2981 2270 86 2400 350/06 RMK AO2 RAE20 P0001 T01170094
03812KAVL AVL20160402002513804/02/16 00:25:31  5-MIN KAVL 020525Z AUTO 34006KT 10SM FEW043 SCT070 OVC090 12/09 A2981 2270 83 2500 350/06 RMK AO2 RAE20 P0001 T01220094
03812KAVL AVL20160402003013804/02/16 00:30:31  5-MIN KAVL 020530Z AUTO 32005KT 10SM FEW044 BKN075 OVC095 12/09 A2981 2270 83 2500 330/05 RMK AO2 RAE20 P0001 T01220094
03812KAVL AVL20160402003513804/02/16 00:35:31  5-MIN KAVL 020535Z AUTO 34004KT 10SM FEW047 BKN070 OVC095 12/09 A2981 2270 86 2500 350/04 RMK AO2 RAE20 P0001 T01170094
03812KAVL AVL20160402004014504/02/16 00:40:31  5-MIN KAVL 020540Z AUTO 34004KT 10SM -RA FEW045 BKN070 OVC095 12/09 A2980 2280 80 2500 350/04 RMK AO2 RAE20B36 P0001 T01220089
03812KAVL AVL20160402004514504/02/16 00:45:31  5-MIN KAVL 020545Z AUTO 33003KT 10SM -RA FEW043 BKN070 OVC095 12/09 A2980 2280 83 2500 340/03 RMK AO2 RAE20B36 P0001 T01170089
03812KAVL AVL20160402005016904/02/16 00:50:31  5-MIN KAVL 020550Z AUTO 00000KT 10SM -RA SCT046 OVC070 12/09 A2980 2280 83 2500 000/00 RMK AO2 RAE20B36 SLP071 P0001 60003 T01220094 10183 20117 51008
03812KAVL AVL20160402005512904/02/16 00:55:31  5-MIN KAVL 020555Z AUTO 00000KT 10SM -RA SCT046 OVC070 12/09 A2979 2280 83 2500 000/00 RMK AO2 P0000 T01220094
03812KAVL AVL20160402010012904/02/16 01:00:31  5-MIN KAVL 020600Z AUTO 35003KT 10SM -RA SCT048 OVC070 12/09 A2979 2290 80 2500 360/03 RMK AO2 P0000 T01220089
03812KAVL AVL20160402010513604/02/16 01:05:31  5-MIN KAVL 020605Z AUTO 34003KT 10SM -RA FEW048 BKN065 OVC085 12/09 A2979 2290 83 2500 340/03 RMK AO2 P0000 T01220094
03812KAVL AVL20160402011013604/02/16 01:10:31  5-MIN KAVL 020610Z AUTO 34004KT 10SM -RA FEW048 BKN065 OVC090 12/09 A2978 2290 86 2500 350/04 RMK AO2 P0000 T01170094
03812KAVL AVL20160402011513604/02/16 01:15:31  5-MIN KAVL 020615Z AUTO 01003KT 10SM -RA FEW048 BKN065 OVC100 12/09 A2978 2300 86 2500 020/03 RMK AO2 P0000 T01170094
03812KAVL AVL20160402012013804/02/16 01:20:31  5-MIN KAVL 020620Z AUTO 00000KT 10SM FEW050 BKN065 OVC100 12/09 A2978 2300 86 2500 000/00 RMK AO2 RAE17 P0000 T01170094
03812KAVL AVL20160402012513104/02/16 01:25:31  5-MIN KAVL 020625Z AUTO 00000KT 10SM BKN065 OVC085 12/09 A2978 2300 86 2500 000/00 RMK AO2 RAE17 P0000 T01170094
03812KAVL AVL20160402013013104/02/16 01:30:31  5-MIN KAVL 020630Z AUTO 00000KT 10SM SCT065 OVC085 12/09 A2977 2300 86 2500 000/00 RMK AO2 RAE17 P0000 T01170094
03812KAVL AVL20160402013513104/02/16 01:35:31  5-MIN KAVL 020635Z AUTO 00000KT 10SM FEW065 OVC085 12/09 A2977 2310 86 2500 000/00 RMK AO2 RAE17 P0000 T01170094
03812KAVL AVL20160402014013104/02/16 01:40:31  5-MIN KAVL 020640Z AUTO 35003KT 10SM FEW070 OVC090 12/09 A2976 2310 86 2500 360/03 RMK AO2 RAE17 P0000 T01170094
03812KAVL AVL20160402014513104/02/16 01:45:31  5-MIN KAVL 020645Z AUTO 36004KT 10SM SCT070 OVC090 12/09 A2976 2320 86 2500 010/04 RMK AO2 RAE17 P0000 T01170094
03812KAVL AVL20160402015013804/02/16 01:50:31  5-MIN KAVL 020650Z AUTO 35003KT 10SM SCT070 OVC090 12/09 A2976 2320 86 2500 360/03 RMK AO2 RAE17 SLP059 P0000 T01170094
03812KAVL AVL20160402015511904/02/16 01:55:31  5-MIN KAVL 020655Z AUTO 00000KT 10SM FEW070 OVC090 12/09 A2976 2320 86 2500 000/00 RMK AO2 T01170094
03812KAVL AVL20160402020011904/02/16 02:00:31  5-MIN KAVL 020700Z AUTO 00000KT 10SM SCT065 OVC090 12/09 A2976 2320 86 2500 000/00 RMK AO2 T01170094
03812KAVL AVL20160402020511904/02/16 02:05:31  5-MIN KAVL 020705Z AUTO 00000KT 10SM SCT065 OVC090 12/09 A2976 2320 86 2500 000/00 RMK AO2 T01170094
03812KAVL AVL20160402021011904/02/16 02:10:31  5-MIN KAVL 020710Z AUTO 00000KT 10SM FEW065 OVC090 12/09 A2975 2330 86 2500 000/00 RMK AO2 T01170094
03812KAVL AVL20160402021511904/02/16 02:15:31  5-MIN KAVL 020715Z AUTO 00000KT 10SM FEW060 OVC090 12/09 A2975 2330 86 2500 000/00 RMK AO2 T01170094
03812KAVL AVL20160402022013504/02/16 02:20:31  5-MIN KAVL 020720Z AUTO 33004KT 10SM -RA SCT060 OVC090 12/09 A2975 2330 86 2500 340/04 RMK AO2 RAB19 P0000 T01170094
03812KAVL AVL20160402022513504/02/16 02:25:31  5-MIN KAVL 020725Z AUTO 34004KT 10SM -RA BKN060 OVC090 12/09 A2975 2330 86 2500 340/04 RMK AO2 RAB19 P0000 T01170094
03812KAVL AVL20160402023013404/02/16 02:30:31  5-MIN KAVL 020730Z AUTO 34005KT 10SM BKN060 OVC090 12/09 A2975 2330 86 2500 340/05 RMK AO2 RAB19E27 P0000 T01170094
03812KAVL AVL20160402023513404/02/16 02:35:31  5-MIN KAVL 020735Z AUTO 34004KT 10SM BKN060 OVC090 12/09 A2975 2330 86 2500 340/04 RMK AO2 RAB19E27 P0000 T01170094
03812KAVL AVL20160402024014104/02/16 02:40:31  5-MIN KAVL 020740Z AUTO VRB03KT 10SM BKN060 BKN070 OVC090 12/09 A2975 2330 86 2500 VRB/03 RMK AO2 RAB19E27 P0000 T01170094
03812KAVL AVL20160402024512704/02/16 02:45:31  5-MIN KAVL 020745Z AUTO 00000KT 10SM OVC060 12/09 A2975 2330 83 2500 000/00 RMK AO2 RAB19E27 P0000 T01170089
03812KAVL AVL20160402025014104/02/16 02:50:31  5-MIN KAVL 020750Z AUTO 00000KT 10SM -RA OVC060 12/09 A2975 2320 83 2500 000/00 RMK AO2 RAB19E27B50 SLP057 P0000 T01170089
03812KAVL AVL20160402025512204/02/16 02:55:31  5-MIN KAVL 020755Z AUTO 00000KT 10SM -RA OVC060 12/08 A2975 2320 74 2600 000/00 RMK AO2 P0000 T01220078
03812KAVL AVL20160402030012104/02/16 03:00:31  5-MIN KAVL 020800Z AUTO 00000KT 5SM -RA OVC060 12/08 A2975 2330 77 2500 000/00 RMK AO2 P0000 T01170078
03812KAVL AVL20160402030512004/02/16 03:05:31  5-MIN KAVL 020805Z AUTO 35003KT 4SM RA OVC065 12/08 A2975 2330 77 2500 360/03 RMK AO2 P0003 T01170078
03812KAVL AVL20160402031012104/02/16 03:10:31  5-MIN KAVL 020810Z AUTO 35004KT 8SM -RA OVC065 12/08 A2974 2330 77 2500 360/04 RMK AO2 P0003 T01170078
03812KAVL AVL20160402031512904/02/16 03:15:31  5-MIN KAVL 020815Z AUTO 36003KT 10SM -RA BKN060 OVC075 12/08 A2974 2330 80 2500 360/03 RMK AO2 P0003 T01170083
03812KAVL AVL20160402032012404/02/16 03:20:31  5-MIN KAVL 020820Z AUTO 01003KT 10SM BKN070 12/08 A2973 2340 77 2500 020/03 RMK AO2 RAE20 P0003 T01170078
03812KAVL AVL20160402032513104/02/16 03:25:31  5-MIN KAVL 020825Z AUTO 35005KT 10SM BKN070 BKN090 12/08 A2973 2340 77 2500 360/05 RMK AO2 RAE20 P0003 T01170078
03812KAVL AVL20160402033013104/02/16 03:30:31  5-MIN KAVL 020830Z AUTO 34006KT 10SM SCT060 BKN085 12/08 A2974 2340 77 2500 340/06 RMK AO2 RAE20 P0003 T01170078
03812KAVL AVL20160402033513104/02/16 03:35:31  5-MIN KAVL 020835Z AUTO 33006KT 10SM FEW060 BKN085 11/08 A2974 2340 83 2500 340/06 RMK AO2 RAE20 P0003 T01110083
03812KAVL AVL20160402034012404/02/16 03:40:31  5-MIN KAVL 020840Z AUTO 34006KT 10SM BKN080 11/08 A2974 2340 83 2500 350/06 RMK AO2 RAE20 P0003 T01110083
03812KAVL AVL20160402034512404/02/16 03:45:31  5-MIN KAVL 020845Z AUTO 34009KT 10SM BKN080 12/08 A2973 2340 77 2500 350/09 RMK AO2 RAE20 P0003 T01170078
03812KAVL AVL20160402035014304/02/16 03:50:31  5-MIN KAVL 020850Z AUTO 34010KT 10SM OVC080 12/08 A2973 2340 77 2500 350/10 RMK AO2 RAE20 SLP052 P0003 60003 T01170078 58009
03812KAVL AVL20160402035511204/02/16 03:55:31  5-MIN KAVL 020855Z AUTO 35007KT 10SM OVC080 12/07 A2973 2340 74 2500 350/07 RMK AO2 T01170072
03812KAVL AVL20160402040011204/02/16 04:00:31  5-MIN KAVL 020900Z AUTO 35008KT 10SM BKN080 12/07 A2973 2340 74 2500 350/08 RMK AO2 T01170072
03812KAVL AVL20160402040511204/02/16 04:05:31  5-MIN KAVL 020905Z AUTO 36007KT 10SM BKN080 12/07 A2973 2340 74 2500 010/07 RMK AO2 T01170072
03812KAVL AVL20160402041011204/02/16 04:10:31  5-MIN KAVL 020910Z AUTO 36007KT 10SM BKN080 12/07 A2973 2340 74 2500 360/07 RMK AO2 T01170072
03812KAVL AVL20160402041511204/02/16 04:15:31  5-MIN KAVL 020915Z AUTO 36007KT 10SM SCT080 12/07 A2973 2340 71 2500 360/07 RMK AO2 T01170067
03812KAVL AVL20160402042011204/02/16 04:20:31  5-MIN KAVL 020920Z AUTO 36007KT 10SM SCT080 12/07 A2973 2350 71 2500 010/07 RMK AO2 T01170067
03812KAVL AVL20160402042511204/02/16 04:25:31  5-MIN KAVL 020925Z AUTO 36008KT 10SM FEW080 12/07 A2973 2340 71 2500 360/08 RMK AO2 T01170067
03812KAVL AVL20160402043011204/02/16 04:30:31  5-MIN KAVL 020930Z AUTO 35006KT 10SM FEW080 12/06 A2973 2340 68 2500 360/06 RMK AO2 T01170061
03812KAVL AVL20160402043511204/02/16 04:35:31  5-MIN KAVL 020935Z AUTO 36007KT 10SM FEW080 11/07 A2973 2340 74 2500 360/07 RMK AO2 T01110067
03812KAVL AVL20160402044010904/02/16 04:40:31  5-MIN KAVL 020940Z AUTO 35007KT 10SM CLR 11/06 A2973 2340 71 2500 360/07 RMK AO2 T01110061
03812KAVL AVL20160402044510904/02/16 04:45:31  5-MIN KAVL 020945Z AUTO 35008KT 10SM CLR 11/06 A2973 2340 71 2500 360/08 RMK AO2 T01110061
03812KAVL AVL20160402045011604/02/16 04:50:31  5-MIN KAVL 020950Z AUTO 35007KT 10SM CLR 11/06 A2974 2330 71 2500 360/07 RMK AO2 SLP055 T01110061
03812KAVL AVL20160402045510904/02/16 04:55:31  5-MIN KAVL 020955Z AUTO 34008KT 10SM CLR 11/06 A2975 2330 71 2500 350/08 RMK AO2 T01110061
03812KAVL AVL20160402050010904/02/16 05:00:31  5-MIN KAVL 021000Z AUTO 34008KT 10SM CLR 11/06 A2975 2330 71 2400 350/08 RMK AO2 T01110061
03812KAVL AVL20160402050510904/02/16 05:05:31  5-MIN KAVL 021005Z AUTO 36008KT 10SM CLR 11/06 A2975 2320 68 2400 360/08 RMK AO2 T01110056
03812KAVL AVL20160402051010704/02/16 05:10:31  5-MIN KAVL 021010Z 35008KT 10SM FEW080 11/06 A2975 2320 68 2400 360/08 RMK AO2 T01110056
03812KAVL AVL20160402051510704/02/16 05:15:31  5-MIN KAVL 021015Z 35009KT 10SM SCT080 11/06 A2976 2320 68 2400 350/09 RMK AO2 T01110056
03812KAVL AVL20160402052010704/02/16 05:20:31  5-MIN KAVL 021020Z 34012KT 10SM BKN080 11/06 A2976 2320 68 2400 350/12 RMK AO2 T01110056
03812KAVL AVL20160402052511304/02/16 05:25:31  5-MIN KAVL 021025Z 34012G17KT 10SM BKN080 11/06 A2976 2320 68 2400 350/12G17 RMK AO2 T01110056
03812KAVL AVL20160402053010704/02/16 05:30:31  5-MIN KAVL 021030Z 35011KT 10SM BKN080 11/05 A2976 2320 66 2400 350/11 RMK AO2 T01110050
03812KAVL AVL20160402053510704/02/16 05:35:31  5-MIN KAVL 021035Z 35012KT 10SM OVC080 11/05 A2976 2320 66 2400 350/12 RMK AO2 T01110050
03812KAVL AVL20160402054010704/02/16 05:40:31  5-MIN KAVL 021040Z 34012KT 10SM OVC080 11/05 A2976 2320 66 2400 350/12 RMK AO2 T01110050
03812KAVL AVL20160402054510704/02/16 05:45:31  5-MIN KAVL 021045Z 34013KT 10SM OVC080 11/05 A2976 2320 66 2400 350/13 RMK AO2 T01110050
03812KAVL AVL20160402055011404/02/16 05:50:31  5-MIN KAVL 021050Z 34013KT 10SM OVC080 11/05 A2976 2320 66 2400 350/13 RMK AO2 SLP062 T01110050
03812KAVL AVL20160402055510704/02/16 05:55:31  5-MIN KAVL 021055Z 35009KT 10SM OVC080 11/04 A2976 2320 63 2400 350/09 RMK AO2 T01110044
03812KAVL AVL20160402060010704/02/16 06:00:31  5-MIN KAVL 021100Z 35011KT 10SM OVC080 11/04 A2976 2320 63 2400 360/11 RMK AO2 T01110044
03812KAVL AVL20160402060511304/02/16 06:05:31  5-MIN KAVL 021105Z 34010G18KT 10SM OVC080 11/04 A2976 2320 63 2400 350/10G18 RMK AO2 T01110044
03812KAVL AVL20160402061011304/02/16 06:10:31  5-MIN KAVL 021110Z 34013G18KT 10SM OVC080 11/04 A2976 2320 63 2400 350/13G18 RMK AO2 T01110044
03812KAVL AVL20160402061511304/02/16 06:15:31  5-MIN KAVL 021115Z 34018G22KT 10SM OVC080 11/04 A2976 2320 66 2400 350/18G22 RMK AO2 T01060044
03812KAVL AVL20160402062011304/02/16 06:20:31  5-MIN KAVL 021120Z 34018G22KT 10SM OVC080 11/04 A2976 2310 66 2400 350/18G22 RMK AO2 T01060044
03812KAVL AVL20160402062510704/02/16 06:25:31  5-MIN KAVL 021125Z 35013KT 10SM OVC080 11/04 A2977 2310 61 2400 350/13 RMK AO2 T01110039
03812KAVL AVL20160402063010704/02/16 06:30:31  5-MIN KAVL 021130Z 35012KT 10SM OVC080 11/04 A2977 2300 61 2400 360/12 RMK AO2 T01110039
03812KAVL AVL20160402063511404/02/16 06:35:31  5-MIN KAVL 021135Z 35011KT 10SM FEW041 OVC080 11/04 A2977 2300 61 2400 350/11 RMK AO2 T01110039
03812KAVL AVL20160402064011404/02/16 06:40:31  5-MIN KAVL 021140Z 35010KT 10SM SCT041 OVC080 11/04 A2977 2300 61 2400 360/10 RMK AO2 T01110039
03812KAVL AVL20160402064511404/02/16 06:45:31  5-MIN KAVL 021145Z 36008KT 10SM SCT041 OVC080 11/04 A2977 2300 63 2400 010/08 RMK AO2 T01060039
03812KAVL AVL20160402065015104/02/16 06:50:31  5-MIN KAVL 021150Z 35009KT 10SM FEW041 OVC080 11/04 A2978 2300 61 2400 360/09 RMK AO2 SLP068 60003 70006 T01110039 10122 20106 56020
03812KAVL AVL20160402065512004/02/16 06:55:31  5-MIN KAVL 021155Z 36008G16KT 10SM FEW041 OVC080 11/04 A2977 2300 61 2400 360/08G16 RMK AO2 T01110039
03812KAVL AVL20160402070012004/02/16 07:00:31  5-MIN KAVL 021200Z 36010G16KT 10SM FEW041 OVC080 11/03 A2977 2300 58 2400 010/10G16 RMK AO2 T01110033
03812KAVL AVL20160402070511404/02/16 07:05:31  5-MIN KAVL 021205Z 35009KT 10SM FEW041 OVC080 11/03 A2978 2300 58 2400 360/09 RMK AO2 T01110033
03812KAVL AVL20160402071012004/02/16 07:10:31  5-MIN KAVL 021210Z 36010G18KT 10SM FEW041 OVC080 11/03 A2977 2300 58 2400 010/10G18 RMK AO2 T01110033
03812KAVL AVL20160402071513604/02/16 07:15:31  5-MIN KAVL 021215Z 01007G18KT 340V040 10SM FEW041 OVC080 11/03 A2978 2300 58 2400 010/07G18 350V050 RMK AO2 T01060028
03812KAVL AVL20160402072011404/02/16 07:20:31  5-MIN KAVL 021220Z 01008KT 10SM SCT041 OVC080 11/03 A2978 2300 58 2300 010/08 RMK AO2 T01060028
03812KAVL AVL20160402072512004/02/16 07:25:31  5-MIN KAVL 021225Z 01010G16KT 10SM BKN042 OVC080 11/02 A2978 2300 56 2300 010/10G16 RMK AO2 T01060022
03812KAVL AVL20160402073012004/02/16 07:30:31  5-MIN KAVL 021230Z 36012G16KT 10SM BKN042 OVC080 11/02 A2978 2290 56 2300 010/12G16 RMK AO2 T01060022
03812KAVL AVL20160402073512004/02/16 07:35:31  5-MIN KAVL 021235Z 36009G17KT 10SM BKN042 OVC080 10/02 A2978 2300 56 2300 010/09G17 RMK AO2 T01000017
03812KAVL AVL20160402074012004/02/16 07:40:31  5-MIN KAVL 021240Z 01009G19KT 10SM BKN042 BKN080 10/02 A2978 2300 56 2300 010/09G19 RMK AO2 T01000017
03812KAVL AVL20160402074511304/02/16 07:45:31  5-MIN KAVL 021245Z 36008G19KT 10SM BKN041 10/02 A2978 2300 56 2300 360/08G19 RMK AO2 T01000017
03812KAVL AVL20160402075012004/02/16 07:50:31  5-MIN KAVL 021250Z 36011G18KT 10SM BKN041 11/02 A2978 2300 54 2300 010/11G18 RMK AO2 SLP070 T01060017
03812KAVL AVL20160402075511304/02/16 07:55:31  5-MIN KAVL 021255Z 01011G17KT 10SM SCT041 11/02 A2978 2300 54 2400 010/11G17 RMK AO2 T01060017
03812KAVL AVL20160402080011304/02/16 08:00:31  5-MIN KAVL 021300Z 35011G19KT 10SM FEW041 11/01 A2978 2300 52 2400 360/11G19 RMK AO2 T01060011
03812KAVL AVL20160402080511304/02/16 08:05:31  5-MIN KAVL 021305Z 36011G19KT 10SM FEW041 11/01 A2977 2300 52 2400 010/11G19 RMK AO2 T01060011
03812KAVL AVL20160402081011004/02/16 08:10:31  5-MIN KAVL 021310Z 36013G18KT 10SM CLR 11/01 A2977 2310 52 2400 360/13G18 RMK AO2 T01060011
03812KAVL AVL20160402081511304/02/16 08:15:31  5-MIN KAVL 021315Z 35016G21KT 10SM FEW085 11/01 A2977 2310 52 2400 350/16G21 RMK AO2 T01060011
03812KAVL AVL20160402082011304/02/16 08:20:31  5-MIN KAVL 021320Z 35015G21KT 10SM SCT080 11/01 A2977 2310 50 2400 360/15G21 RMK AO2 T01110011
03812KAVL AVL20160402082511304/02/16 08:25:31  5-MIN KAVL 021325Z 34017G21KT 10SM SCT080 11/01 A2977 2310 50 2400 350/17G21 RMK AO2 T01110011
03812KAVL AVL20160402083011304/02/16 08:30:31  5-MIN KAVL 021330Z 34017G21KT 10SM SCT080 11/01 A2977 2310 50 2400 350/17G21 RMK AO2 T01110011
03812KAVL AVL20160402083511304/02/16 08:35:31  5-MIN KAVL 021335Z 35014G24KT 10SM FEW080 11/01 A2977 2310 50 2400 360/14G24 RMK AO2 T01110011
03812KAVL AVL20160402084011304/02/16 08:40:31  5-MIN KAVL 021340Z 35015G24KT 10SM FEW080 11/01 A2977 2310 50 2400 360/15G24 RMK AO2 T01110011
03812KAVL AVL20160402084511304/02/16 08:45:31  5-MIN KAVL 021345Z 34018G23KT 10SM FEW080 11/02 A2977 2310 52 2400 350/18G23 RMK AO2 T01110017
03812KAVL AVL20160402085011704/02/16 08:50:31  5-MIN KAVL 021350Z 35012G24KT 10SM CLR 11/01 A2976 2310 50 2400 350/12G24 RMK AO2 SLP064 T01110011
03812KAVL AVL20160402085511004/02/16 08:55:31  5-MIN KAVL 021355Z 35012G24KT 10SM CLR 11/01 A2977 2310 50 2400 360/12G24 RMK AO2 T01110011
03812KAVL AVL20160402090011004/02/16 09:00:31  5-MIN KAVL 021400Z 36015G21KT 10SM CLR 11/01 A2977 2310 50 2400 360/15G21 RMK AO2 T01110011
03812KAVL AVL20160402090511004/02/16 09:05:31  5-MIN KAVL 021405Z 36013G22KT 10SM CLR 11/01 A2977 2310 50 2400 010/13G22 RMK AO2 T01110011
03812KAVL AVL20160402091011004/02/16 09:10:31  5-MIN KAVL 021410Z 36015G22KT 10SM CLR 11/01 A2977 2310 50 2400 360/15G22 RMK AO2 T01110011
03812KAVL AVL20160402091511004/02/16 09:15:31  5-MIN KAVL 021415Z 35013G20KT 10SM CLR 12/01 A2977 2310 48 2500 360/13G20 RMK AO2 T01170011
03812KAVL AVL20160402092011004/02/16 09:20:31  5-MIN KAVL 021420Z 35010G19KT 10SM CLR 12/01 A2976 2310 48 2500 360/10G19 RMK AO2 T01170011
03812KAVL AVL20160402092511004/02/16 09:25:31  5-MIN KAVL 021425Z 36014G23KT 10SM CLR 12/02 A2976 2310 48 2600 360/14G23 RMK AO2 T01220017
03812KAVL AVL20160402093011004/02/16 09:30:31  5-MIN KAVL 021430Z 36013G23KT 10SM CLR 12/01 A2976 2320 46 2600 010/13G23 RMK AO2 T01220011
03812KAVL AVL20160402093511004/02/16 09:35:31  5-MIN KAVL 021435Z 36013G20KT 10SM CLR 12/01 A2976 2320 46 2600 360/13G20 RMK AO2 T01220011
03812KAVL AVL20160402094011004/02/16 09:40:31  5-MIN KAVL 021440Z 35012G21KT 10SM CLR 12/01 A2976 2320 46 2600 350/12G21 RMK AO2 T01220011
03812KAVL AVL20160402094511004/02/16 09:45:31  5-MIN KAVL 021445Z 34013G21KT 10SM CLR 13/02 A2976 2310 46 2600 350/13G21 RMK AO2 T01280017
03812KAVL AVL20160402095011704/02/16 09:50:31  5-MIN KAVL 021450Z 35015KT 10SM CLR 13/01 A2976 2310 44 2600 360/15 RMK AO2 SLP064 T01280011 53014
03812KAVL AVL20160402095511004/02/16 09:55:31  5-MIN KAVL 021455Z 33013G20KT 10SM CLR 13/01 A2976 2310 43 2700 340/13G20 RMK AO2 T01330011
03812KAVL AVL20160402100011004/02/16 10:00:31  5-MIN KAVL 021500Z 35016G21KT 10SM CLR 13/01 A2976 2310 44 2600 350/16G21 RMK AO2 T01280011
03812KAVL AVL20160402100511004/02/16 10:05:31  5-MIN KAVL 021505Z 34013G21KT 10SM CLR 13/01 A2976 2310 44 2600 340/13G21 RMK AO2 T01280011
03812KAVL AVL20160402101010404/02/16 10:10:31  5-MIN KAVL 021510Z 33015KT 10SM CLR 13/01 A2977 2310 44 2600 340/15 RMK AO2 T01280011
03812KAVL AVL20160402101511004/02/16 10:15:31  5-MIN KAVL 021515Z 35013G22KT 10SM CLR 13/01 A2976 2310 43 2600 360/13G22 RMK AO2 T01280006
03812KAVL AVL20160402102011004/02/16 10:20:31  5-MIN KAVL 021520Z 33016G22KT 10SM CLR 13/01 A2976 2310 43 2700 340/16G22 RMK AO2 T01330011
03812KAVL AVL20160402102511004/02/16 10:25:31  5-MIN KAVL 021525Z 36014G20KT 10SM CLR 13/01 A2976 2310 43 2600 010/14G20 RMK AO2 T01280006
03812KAVL AVL20160402103011004/02/16 10:30:31  5-MIN KAVL 021530Z 34013G19KT 10SM CLR 13/01 A2976 2310 41 2700 350/13G19 RMK AO2 T01330006
03812KAVL AVL20160402103511004/02/16 10:35:31  5-MIN KAVL 021535Z 35012G18KT 10SM CLR 13/01 A2976 2320 41 2700 360/12G18 RMK AO2 T01330006
03812KAVL AVL20160402104011004/02/16 10:40:31  5-MIN KAVL 021540Z 35015G20KT 10SM CLR 13/01 A2976 2320 41 2700 360/15G20 RMK AO2 T01330006
03812KAVL AVL20160402104511004/02/16 10:45:31  5-MIN KAVL 021545Z 35015G22KT 10SM CLR 14/01 A2976 2310 40 2800 350/15G22 RMK AO2 T01390006
03812KAVL AVL20160402105011104/02/16 10:50:31  5-MIN KAVL 021550Z 01012KT 10SM CLR 13/00 A2976 2320 40 2700 010/12 RMK AO2 SLP063 T01330000
03812KAVL AVL20160402105511004/02/16 10:55:31  5-MIN KAVL 021555Z 36011G18KT 10SM CLR 14/00 A2976 2320 38 2800 360/11G18 RMK AO2 T01390000
03812KAVL AVL20160402110011104/02/16 11:00:31  5-MIN KAVL 021600Z 36013G22KT 10SM CLR 14/M01 A2976 2320 37 2800 360/13G22 RMK AO2 T01391006
03812KAVL AVL20160402110511104/02/16 11:05:31  5-MIN KAVL 021605Z 34015G22KT 10SM CLR 14/M01 A2976 2320 37 2800 350/15G22 RMK AO2 T01391006
03812KAVL AVL20160402111011104/02/16 11:10:31  5-MIN KAVL 021610Z 35012G22KT 10SM CLR 14/M01 A2976 2320 37 2800 360/12G22 RMK AO2 T01391006
03812KAVL AVL20160402111511104/02/16 11:15:31  5-MIN KAVL 021615Z 34016G21KT 10SM CLR 14/M01 A2976 2320 37 2800 350/16G21 RMK AO2 T01391006
03812KAVL AVL20160402112011104/02/16 11:20:31  5-MIN KAVL 021620Z 35016G21KT 10SM CLR 14/M01 A2976 2320 37 2800 350/16G21 RMK AO2 T01391006
03812KAVL AVL20160402112511104/02/16 11:25:31  5-MIN KAVL 021625Z 36012G21KT 10SM CLR 14/M01 A2975 2320 37 2800 010/12G21 RMK AO2 T01391006
03812KAVL AVL20160402113011004/02/16 11:30:31  5-MIN KAVL 021630Z 34017G23KT 10SM CLR 14/00 A2975 2320 37 2800 350/17G23 RMK AO2 T01440000
03812KAVL AVL20160402113511004/02/16 11:35:31  5-MIN KAVL 021635Z 33012G23KT 10SM CLR 14/01 A2975 2320 38 2800 330/12G23 RMK AO2 T01440006
03812KAVL AVL20160402114010404/02/16 11:40:31  5-MIN KAVL 021640Z 36013KT 10SM CLR 14/00 A2975 2330 37 2800 010/13 RMK AO2 T01440000
03812KAVL AVL20160402114511004/02/16 11:45:31  5-MIN KAVL 021645Z 33013G22KT 10SM CLR 15/00 A2975 2330 35 2900 340/13G22 RMK AO2 T01500000
03812KAVL AVL20160402115013604/02/16 11:50:31  5-MIN KAVL 021650Z 34009G28KT 10SM CLR 14/M01 A2975 2330 35 2800 350/09G28 RMK AO2 PK WND 36028/1647 SLP060 T01441006
03812KAVL AVL20160402115511004/02/16 11:55:31  5-MIN KAVL 021655Z 35015G28KT 10SM CLR 15/00 A2975 2330 35 2900 360/15G28 RMK AO2 T01500000
03812KAVL AVL20160402120011104/02/16 12:00:31  5-MIN KAVL 021700Z 35010G22KT 10SM CLR 14/M01 A2974 2330 35 2800 360/10G22 RMK AO2 T01441006
03812KAVL AVL20160402120511004/02/16 12:05:31  5-MIN KAVL 021705Z 36013G18KT 10SM CLR 15/00 A2974 2340 35 2900 010/13G18 RMK AO2 T01500000
03812KAVL AVL20160402121011104/02/16 12:10:31  5-MIN KAVL 021710Z 35014G20KT 10SM CLR 14/M01 A2974 2340 34 2900 360/14G20 RMK AO2 T01441011
03812KAVL AVL20160402121512704/02/16 12:15:31  5-MIN KAVL 021715Z 35010G20KT 320V020 10SM CLR 15/M01 A2973 2340 34 2900 350/10G20 330V030 RMK AO2 T01501006
03812KAVL AVL20160402122011104/02/16 12:20:31  5-MIN KAVL 021720Z 35015G21KT 10SM CLR 15/M01 A2973 2340 34 2900 360/15G21 RMK AO2 T01501006
03812KAVL AVL20160402122511004/02/16 12:25:31  5-MIN KAVL 021725Z 34014G21KT 10SM CLR 16/00 A2973 2340 34 3000 340/14G21 RMK AO2 T01560000
03812KAVL AVL20160402123011104/02/16 12:30:31  5-MIN KAVL 021730Z 33015G24KT 10SM CLR 16/M01 A2973 2340 33 3000 330/15G24 RMK AO2 T01561006
03812KAVL AVL20160402123511104/02/16 12:35:31  5-MIN KAVL 021735Z 33016G24KT 10SM CLR 15/M01 A2973 2340 33 2900 340/16G24 RMK AO2 T01501011
03812KAVL AVL20160402124011104/02/16 12:40:31  5-MIN KAVL 021740Z 35011G23KT 10SM CLR 15/M01 A2973 2340 34 2900 360/11G23 RMK AO2 T01501006
03812KAVL AVL20160402124511004/02/16 12:45:31  5-MIN KAVL 021745Z 36012G23KT 10SM CLR 16/00 A2973 2340 34 3000 010/12G23 RMK AO2 T01560000
03812KAVL AVL20160402125013604/02/16 12:50:31  5-MIN KAVL 021750Z 01013G24KT 10SM CLR 15/M01 A2973 2340 34 2900 020/13G24 RMK AO2 SLP053 T01501006 10156 20100 58004
03812KAVL AVL20160402125511104/02/16 12:55:31  5-MIN KAVL 021755Z 34015G24KT 10SM CLR 15/M01 A2973 2350 34 2900 350/15G24 RMK AO2 T01501006
03812KAVL AVL20160402130011104/02/16 13:00:31  5-MIN KAVL 021800Z 36014G22KT 10SM CLR 15/M01 A2973 2350 34 2900 360/14G22 RMK AO2 T01501006
03812KAVL AVL20160402130511104/02/16 13:05:31  5-MIN KAVL 021805Z 35016G22KT 10SM CLR 16/M01 A2973 2340 31 3000 360/16G22 RMK AO2 T01561011
03812KAVL AVL20160402131011104/02/16 13:10:31  5-MIN KAVL 021810Z 35017G24KT 10SM CLR 15/M02 A2973 2350 31 2900 360/17G24 RMK AO2 T01501017
03812KAVL AVL20160402131511104/02/16 13:15:31  5-MIN KAVL 021815Z 35015G24KT 10SM CLR 15/M02 A2972 2350 30 2900 360/15G24 RMK AO2 T01501022
03812KAVL AVL20160402132011104/02/16 13:20:31  5-MIN KAVL 021820Z 35017G22KT 10SM CLR 16/M02 A2972 2350 29 3000 360/17G22 RMK AO2 T01561022
03812KAVL AVL20160402132511104/02/16 13:25:31  5-MIN KAVL 021825Z 34017G22KT 10SM CLR 16/M02 A2972 2350 30 3000 350/17G22 RMK AO2 T01561017
03812KAVL AVL20160402133011104/02/16 13:30:31  5-MIN KAVL 021830Z 35015G22KT 10SM CLR 16/M02 A2972 2350 29 3000 350/15G22 RMK AO2 T01561022
03812KAVL AVL20160402133512904/02/16 13:35:31  5-MIN KAVL 021835Z 34021G27KT 10SM CLR 16/M02 A2973 2350 29 3000 340/21G27 RMK AO2 PK WND 36027/1831 T01561022
03812KAVL AVL20160402134012904/02/16 13:40:31  5-MIN KAVL 021840Z 33017G27KT 10SM CLR 15/M02 A2973 2350 30 2900 340/17G27 RMK AO2 PK WND 36027/1831 T01501022
03812KAVL AVL20160402134512904/02/16 13:45:31  5-MIN KAVL 021845Z 34018G25KT 10SM CLR 16/M02 A2972 2350 30 3000 350/18G25 RMK AO2 PK WND 36027/1831 T01561017
03812KAVL AVL20160402135013604/02/16 13:50:31  5-MIN KAVL 021850Z 35014G25KT 10SM CLR 15/M02 A2972 2350 30 2900 360/14G25 RMK AO2 PK WND 36027/1831 SLP052 T01501022
03812KAVL AVL20160402135511104/02/16 13:55:31  5-MIN KAVL 021855Z 34017G25KT 10SM CLR 15/M02 A2972 2350 31 2900 340/17G25 RMK AO2 T01501017
03812KAVL AVL20160402140011104/02/16 14:00:31  5-MIN KAVL 021900Z 35013G25KT 10SM CLR 15/M02 A2972 2350 31 2900 360/13G25 RMK AO2 T01501017
03812KAVL AVL20160402140511104/02/16 14:05:31  5-MIN KAVL 021905Z 35013G22KT 10SM CLR 15/M02 A2972 2350 31 2900 360/13G22 RMK AO2 T01501017
03812KAVL AVL20160402141011604/02/16 14:10:31  5-MIN KAVL 021910Z AUTO 35016G23KT 10SM CLR 15/M02 A2972 2350 30 2900 350/16G23 RMK AO2 T01501022
03812KAVL AVL20160402141511604/02/16 14:15:31  5-MIN KAVL 021915Z AUTO 36012G23KT 10SM CLR 15/M02 A2972 2350 30 2900 360/12G23 RMK AO2 T01501022
03812KAVL AVL20160402142011604/02/16 14:20:31  5-MIN KAVL 021920Z AUTO 34015G22KT 10SM CLR 16/M02 A2972 2360 29 3000 350/15G22 RMK AO2 T01561022
03812KAVL AVL20160402142511604/02/16 14:25:31  5-MIN KAVL 021925Z AUTO 01011G19KT 10SM CLR 15/M02 A2971 2360 30 2900 020/11G19 RMK AO2 T01501022
03812KAVL AVL20160402143011604/02/16 14:30:31  5-MIN KAVL 021930Z AUTO 34019G24KT 10SM CLR 16/M03 A2971 2360 28 3000 350/19G24 RMK AO2 T01561028
03812KAVL AVL20160402143511604/02/16 14:35:31  5-MIN KAVL 021935Z AUTO 35016G24KT 10SM CLR 16/M03 A2971 2360 27 3000 350/16G24 RMK AO2 T01561033
03812KAVL AVL20160402144011104/02/16 14:40:31  5-MIN KAVL 021940Z 32013G24KT 10SM CLR 16/M03 A2971 2360 26 3100 320/13G24 RMK AO2 T01611033
03812KAVL AVL20160402144511104/02/16 14:45:31  5-MIN KAVL 021945Z 35012G22KT 10SM CLR 16/M03 A2971 2360 27 3000 360/12G22 RMK AO2 T01561033
03812KAVL AVL20160402145011804/02/16 14:50:31  5-MIN KAVL 021950Z 33015G24KT 10SM CLR 16/M04 A2971 2360 25 3100 340/15G24 RMK AO2 SLP047 T01611039
03812KAVL AVL20160402145511104/02/16 14:55:31  5-MIN KAVL 021955Z 34012G24KT 10SM CLR 16/M05 A2971 2360 24 3000 350/12G24 RMK AO2 T01561050
03812KAVL AVL20160402150011104/02/16 15:00:31  5-MIN KAVL 022000Z 31014G24KT 10SM CLR 16/M04 A2971 2360 25 3100 320/14G24 RMK AO2 T01611039
03812KAVL AVL20160402150511104/02/16 15:05:31  5-MIN KAVL 022005Z 31016G24KT 10SM CLR 16/M03 A2971 2360 27 3000 320/16G24 RMK AO2 T01561033
03812KAVL AVL20160402151011104/02/16 15:10:31  5-MIN KAVL 022010Z 32014G24KT 10SM CLR 16/M03 A2971 2360 26 3100 320/14G24 RMK AO2 T01611033
03812KAVL AVL20160402151511104/02/16 15:15:31  5-MIN KAVL 022015Z 32015G24KT 10SM CLR 16/M04 A2971 2360 25 3000 320/15G24 RMK AO2 T01561044
03812KAVL AVL20160402152011104/02/16 15:20:31  5-MIN KAVL 022020Z 32016G24KT 10SM CLR 16/M04 A2971 2360 25 3000 320/16G24 RMK AO2 T01561044
03812KAVL AVL20160402152511104/02/16 15:25:31  5-MIN KAVL 022025Z 30015G24KT 10SM CLR 16/M04 A2971 2360 26 3000 310/15G24 RMK AO2 T01561039
03812KAVL AVL20160402153011104/02/16 15:30:31  5-MIN KAVL 022030Z 31006G19KT 10SM CLR 16/M04 A2971 2360 25 3000 310/06G19 RMK AO2 T01561044
03812KAVL AVL20160402153511104/02/16 15:35:31  5-MIN KAVL 022035Z 29011G16KT 10SM CLR 16/M04 A2971 2360 26 3000 300/11G16 RMK AO2 T01561039
03812KAVL AVL20160402154011104/02/16 15:40:31  5-MIN KAVL 022040Z 29010G23KT 10SM CLR 16/M05 A2971 2360 24 3000 300/10G23 RMK AO2 T01561050
03812KAVL AVL20160402154511104/02/16 15:45:31  5-MIN KAVL 022045Z 31013G23KT 10SM CLR 16/M04 A2971 2360 26 3000 310/13G23 RMK AO2 T01561039
03812KAVL AVL20160402155012404/02/16 15:50:31  5-MIN KAVL 022050Z 31011G22KT 10SM CLR 16/M04 A2971 2360 25 3100 310/11G22 RMK AO2 SLP046 T01611039 58010
03812KAVL AVL20160402155511104/02/16 15:55:31  5-MIN KAVL 022055Z 31014G22KT 10SM CLR 16/M04 A2971 2360 25 3100 320/14G22 RMK AO2 T01611039
03812KAVL AVL20160402160011104/02/16 16:00:31  5-MIN KAVL 022100Z 31018G23KT 10SM CLR 16/M04 A2971 2360 25 3000 320/18G23 RMK AO2 T01561044
03812KAVL AVL20160402160511104/02/16 16:05:31  5-MIN KAVL 022105Z 31018G23KT 10SM CLR 15/M05 A2972 2360 24 2900 320/18G23 RMK AO2 T01501050
03812KAVL AVL20160402161011104/02/16 16:10:31  5-MIN KAVL 022110Z 32016G22KT 10SM CLR 16/M04 A2972 2360 25 3000 330/16G22 RMK AO2 T01561044
03812KAVL AVL20160402161511104/02/16 16:15:31  5-MIN KAVL 022115Z 30015G22KT 10SM CLR 15/M05 A2972 2350 24 2900 300/15G22 RMK AO2 T01501050
03812KAVL AVL20160402162011104/02/16 16:20:31  5-MIN KAVL 022120Z 32013G22KT 10SM CLR 15/M05 A2972 2360 24 2900 320/13G22 RMK AO2 T01501050
03812KAVL AVL20160402162511104/02/16 16:25:31  5-MIN KAVL 022125Z 30010G21KT 10SM CLR 16/M05 A2972 2360 24 3000 310/10G21 RMK AO2 T01561050
03812KAVL AVL20160402163011104/02/16 16:30:31  5-MIN KAVL 022130Z 31015G18KT 10SM CLR 16/M05 A2971 2360 24 3000 320/15G18 RMK AO2 T01561050
03812KAVL AVL20160402163511104/02/16 16:35:31  5-MIN KAVL 022135Z 32017G25KT 10SM CLR 15/M06 A2971 2360 23 2900 330/17G25 RMK AO2 T01501056
03812KAVL AVL20160402164011104/02/16 16:40:31  5-MIN KAVL 022140Z 33015G25KT 10SM CLR 15/M05 A2971 2360 24 2900 330/15G25 RMK AO2 T01501050
03812KAVL AVL20160402164511104/02/16 16:45:31  5-MIN KAVL 022145Z 30014G23KT 10SM CLR 15/M05 A2971 2360 24 2900 310/14G23 RMK AO2 T01501050
03812KAVL AVL20160402165011804/02/16 16:50:31  5-MIN KAVL 022150Z 31013G19KT 10SM CLR 15/M05 A2971 2360 24 2900 320/13G19 RMK AO2 SLP048 T01501050
03812KAVL AVL20160402165511104/02/16 16:55:31  5-MIN KAVL 022155Z 34016G20KT 10SM CLR 15/M06 A2971 2360 23 2900 340/16G20 RMK AO2 T01501056
03812KAVL AVL20160402170011104/02/16 17:00:31  5-MIN KAVL 022200Z 32017G21KT 10SM CLR 15/M06 A2971 2360 23 2900 320/17G21 RMK AO2 T01501056
03812KAVL AVL20160402170511104/02/16 17:05:31  5-MIN KAVL 022205Z 33012G21KT 10SM CLR 15/M05 A2972 2360 24 2900 330/12G21 RMK AO2 T01501050
03812KAVL AVL20160402171011104/02/16 17:10:31  5-MIN KAVL 022210Z 32014G19KT 10SM CLR 15/M06 A2971 2360 23 2900 320/14G19 RMK AO2 T01501056
03812KAVL AVL20160402171510504/02/16 17:15:31  5-MIN KAVL 022215Z 31012KT 10SM CLR 14/M06 A2971 2360 24 2900 320/12 RMK AO2 T01441056
03812KAVL AVL20160402172011104/02/16 17:20:31  5-MIN KAVL 022220Z 33015G22KT 10SM CLR 14/M06 A2972 2360 24 2900 330/15G22 RMK AO2 T01441056
03812KAVL AVL20160402172511104/02/16 17:25:31  5-MIN KAVL 022225Z 32013G22KT 10SM CLR 14/M06 A2972 2360 24 2900 320/13G22 RMK AO2 T01441056
03812KAVL AVL20160402173011104/02/16 17:30:31  5-MIN KAVL 022230Z 31010G19KT 10SM CLR 14/M05 A2972 2360 25 2900 320/10G19 RMK AO2 T01441050
03812KAVL AVL20160402173511104/02/16 17:35:31  5-MIN KAVL 022235Z 30012G18KT 10SM CLR 14/M06 A2972 2360 24 2900 300/12G18 RMK AO2 T01441056
03812KAVL AVL20160402174011104/02/16 17:40:31  5-MIN KAVL 022240Z 29008G18KT 10SM CLR 14/M06 A2972 2350 24 2900 300/08G18 RMK AO2 T01441056
03812KAVL AVL20160402174510504/02/16 17:45:31  5-MIN KAVL 022245Z 30011KT 10SM CLR 14/M06 A2972 2350 24 2900 310/11 RMK AO2 T01441056
03812KAVL AVL20160402175011804/02/16 17:50:31  5-MIN KAVL 022250Z 29011G21KT 10SM CLR 14/M07 A2972 2350 23 2800 300/11G21 RMK AO2 SLP052 T01391067
03812KAVL AVL20160402175511104/02/16 17:55:31  5-MIN KAVL 022255Z 28008G21KT 10SM CLR 14/M07 A2972 2350 23 2800 290/08G21 RMK AO2 T01391067
03812KAVL AVL20160402180010504/02/16 18:00:31  5-MIN KAVL 022300Z 30009KT 10SM CLR 14/M06 A2972 2350 24 2800 310/09 RMK AO2 T01391061
03812KAVL AVL20160402180511104/02/16 18:05:31  5-MIN KAVL 022305Z 29010G19KT 10SM CLR 14/M07 A2973 2350 23 2800 290/10G19 RMK AO2 T01391067
03812KAVL AVL20160402181011104/02/16 18:10:31  5-MIN KAVL 022310Z 29012G19KT 10SM CLR 14/M07 A2973 2350 23 2800 290/12G19 RMK AO2 T01391067
03812KAVL AVL20160402181511104/02/16 18:15:31  5-MIN KAVL 022315Z 30007G18KT 10SM CLR 13/M06 A2973 2350 25 2700 310/07G18 RMK AO2 T01331061
03812KAVL AVL20160402182010504/02/16 18:20:31  5-MIN KAVL 022320Z 31008KT 10SM CLR 13/M07 A2973 2340 24 2700 320/08 RMK AO2 T01331067
03812KAVL AVL20160402182511104/02/16 18:25:31  5-MIN KAVL 022325Z 31016G20KT 10SM CLR 13/M07 A2973 2340 24 2700 310/16G20 RMK AO2 T01331067
03812KAVL AVL20160402183011104/02/16 18:30:31  5-MIN KAVL 022330Z 32011G20KT 10SM CLR 13/M07 A2973 2340 24 2700 320/11G20 RMK AO2 T01331067
03812KAVL AVL20160402183511104/02/16 18:35:31  5-MIN KAVL 022335Z 30009G19KT 10SM CLR 13/M07 A2974 2340 25 2700 310/09G19 RMK AO2 T01281067
03812KAVL AVL20160402184011104/02/16 18:40:31  5-MIN KAVL 022340Z 31014G25KT 10SM CLR 13/M07 A2974 2340 25 2700 320/14G25 RMK AO2 T01281067
03812KAVL AVL20160402184512904/02/16 18:45:31  5-MIN KAVL 022345Z 31014G26KT 10SM CLR 13/M07 A2974 2330 25 2700 320/14G26 RMK AO2 PK WND 32026/2342 T01281067
03812KAVL AVL20160402185015404/02/16 18:50:31  5-MIN KAVL 022350Z 32014G26KT 10SM CLR 13/M07 A2975 2330 25 2700 330/14G26 RMK AO2 PK WND 32026/2342 SLP061 T01281067 10161 20128 55005
03812KAVL AVL20160402185511104/02/16 18:55:31  5-MIN KAVL 022355Z 32015G26KT 10SM CLR 13/M07 A2975 2330 25 2600 330/15G26 RMK AO2 T01281067
03812KAVL AVL20160402190012704/02/16 19:00:31  5-MIN KAVL 030000Z 31014G26KT 280V340 10SM CLR 12/M07 A2975 2330 26 2600 310/14G26 290V350 RMK AO2 T01221067
03812KAVL AVL20160402190511104/02/16 19:05:31  5-MIN KAVL 030005Z 32011G23KT 10SM CLR 12/M07 A2975 2320 26 2600 320/11G23 RMK AO2 T01221067
03812KAVL AVL20160402191011104/02/16 19:10:31  5-MIN KAVL 030010Z 32013G23KT 10SM CLR 12/M06 A2976 2320 27 2600 320/13G23 RMK AO2 T01221061
03812KAVL AVL20160402191511104/02/16 19:15:31  5-MIN KAVL 030015Z 31017G25KT 10SM CLR 12/M07 A2976 2320 26 2600 320/17G25 RMK AO2 T01221067
03812KAVL AVL20160402192011104/02/16 19:20:31  5-MIN KAVL 030020Z 32014G25KT 10SM CLR 12/M07 A2976 2310 26 2600 330/14G25 RMK AO2 T01221067
03812KAVL AVL20160402192511104/02/16 19:25:31  5-MIN KAVL 030025Z 32010G24KT 10SM CLR 12/M06 A2977 2310 28 2500 330/10G24 RMK AO2 T01171061
03812KAVL AVL20160402193010504/02/16 19:30:31  5-MIN KAVL 030030Z 32010KT 10SM CLR 12/M06 A2977 2310 28 2500 320/10 RMK AO2 T01171061
03812KAVL AVL20160402193511104/02/16 19:35:31  5-MIN KAVL 030035Z 33014G20KT 10SM CLR 12/M06 A2977 2310 29 2500 330/14G20 RMK AO2 T01171056
03812KAVL AVL20160402194011104/02/16 19:40:31  5-MIN KAVL 030040Z 30011G22KT 10SM CLR 11/M06 A2978 2300 30 2400 310/11G22 RMK AO2 T01111056
03812KAVL AVL20160402194511104/02/16 19:45:31  5-MIN KAVL 030045Z 31015G22KT 10SM CLR 12/M06 A2978 2300 29 2500 320/15G22 RMK AO2 T01171056
03812KAVL AVL20160402195011804/02/16 19:50:31  5-MIN KAVL 030050Z 32013G21KT 10SM CLR 11/M06 A2978 2300 30 2400 320/13G21 RMK AO2 SLP075 T01111056
03812KAVL AVL20160402195511104/02/16 19:55:31  5-MIN KAVL 030055Z 31009G22KT 10SM CLR 11/M05 A2978 2300 32 2400 320/09G22 RMK AO2 T01111050
03812KAVL AVL20160402200011104/02/16 20:00:31  5-MIN KAVL 030100Z 30013G25KT 10SM CLR 11/M05 A2978 2290 32 2400 300/13G25 RMK AO2 T01111050
03812KAVL AVL20160402200512904/02/16 20:05:31  5-MIN KAVL 030105Z 30013G27KT 10SM CLR 11/M05 A2978 2290 32 2400 310/13G27 RMK AO2 PK WND 33027/0102 T01111050
03812KAVL AVL20160402201012904/02/16 20:10:31  5-MIN KAVL 030110Z 33017G27KT 10SM CLR 11/M05 A2979 2290 32 2400 330/17G27 RMK AO2 PK WND 33027/0102 T01111050
03812KAVL AVL20160402201512904/02/16 20:15:31  5-MIN KAVL 030115Z 31013G26KT 10SM CLR 11/M05 A2979 2290 32 2400 320/13G26 RMK AO2 PK WND 33027/0102 T01111050
03812KAVL AVL20160402202012904/02/16 20:20:31  5-MIN KAVL 030120Z 32015G23KT 10SM CLR 11/M05 A2979 2290 32 2400 320/15G23 RMK AO2 PK WND 33027/0102 T01111050
03812KAVL AVL20160402202512904/02/16 20:25:31  5-MIN KAVL 030125Z 31021G31KT 10SM CLR 11/M05 A2979 2280 32 2400 320/21G31 RMK AO2 PK WND 31031/0124 T01111050
03812KAVL AVL20160402203012904/02/16 20:30:31  5-MIN KAVL 030130Z 32016G31KT 10SM CLR 11/M05 A2980 2280 32 2400 330/16G31 RMK AO2 PK WND 31031/0124 T01111050
03812KAVL AVL20160402203512904/02/16 20:35:31  5-MIN KAVL 030135Z 31014G27KT 10SM CLR 11/M04 A2980 2280 33 2400 320/14G27 RMK AO2 PK WND 31031/0124 T01111044
03812KAVL AVL20160402204012904/02/16 20:40:31  5-MIN KAVL 030140Z 31013G28KT 10SM CLR 11/M04 A2979 2280 33 2400 320/13G28 RMK AO2 PK WND 31031/0124 T01111044
03812KAVL AVL20160402204512904/02/16 20:45:31  5-MIN KAVL 030145Z 31020G29KT 10SM CLR 11/M04 A2980 2280 33 2400 310/20G29 RMK AO2 PK WND 31031/0124 T01111044
03812KAVL AVL20160402205013604/02/16 20:50:31  5-MIN KAVL 030150Z 31015G35KT 10SM CLR 11/M04 A2980 2280 33 2400 320/15G35 RMK AO2 PK WND 30035/0148 SLP081 T01111044
03812KAVL AVL20160402205512904/02/16 20:55:31  5-MIN KAVL 030155Z 31020G35KT 10SM CLR 11/M04 A2980 2280 33 2400 310/20G35 RMK AO2 PK WND 28027/0155 T01111044
03812KAVL AVL20160402210012904/02/16 21:00:31  5-MIN KAVL 030200Z 32018G29KT 10SM CLR 11/M04 A2980 2280 33 2400 330/18G29 RMK AO2 PK WND 31029/0157 T01111044
03812KAVL AVL20160402210512904/02/16 21:05:31  5-MIN KAVL 030205Z 31012G32KT 10SM CLR 11/M04 A2980 2280 33 2400 320/12G32 RMK AO2 PK WND 32032/0203 T01111044
03812KAVL AVL20160402211012904/02/16 21:10:31  5-MIN KAVL 030210Z 32016G32KT 10SM CLR 11/M04 A2980 2280 34 2300 330/16G32 RMK AO2 PK WND 32032/0203 T01061044
03812KAVL AVL20160402211512904/02/16 21:15:31  5-MIN KAVL 030215Z 32017G28KT 10SM CLR 11/M04 A2980 2280 34 2300 320/17G28 RMK AO2 PK WND 32032/0203 T01061044
03812KAVL AVL20160402212012904/02/16 21:20:31  5-MIN KAVL 030220Z 30018G30KT 10SM CLR 11/M04 A2980 2280 33 2400 310/18G30 RMK AO2 PK WND 32032/0203 T01111044
03812KAVL AVL20160402212514504/02/16 21:25:31  5-MIN KAVL 030225Z 32016G30KT 280V350 10SM CLR 11/M04 A2980 2280 34 2300 320/16G30 290V360 RMK AO2 PK WND 32032/0203 T01061044
03812KAVL AVL20160402213013404/02/16 21:30:31  5-MIN KAVL 030230Z AUTO 31013G26KT 10SM CLR 11/M04 A2980 2280 34 2300 310/13G26 RMK AO2 PK WND 32032/0203 T01061044
03812KAVL AVL20160402213513404/02/16 21:35:31  5-MIN KAVL 030235Z AUTO 31010G20KT 10SM CLR 11/M04 A2980 2280 34 2300 320/10G20 RMK AO2 PK WND 32032/0203 T01061044
03812KAVL AVL20160402214015004/02/16 21:40:31  5-MIN KAVL 030240Z AUTO 31013G26KT 270V350 10SM CLR 11/M04 A2981 2270 34 2300 310/13G26 280V360 RMK AO2 PK WND 32032/0203 T01061044
03812KAVL AVL20160402214513404/02/16 21:45:31  5-MIN KAVL 030245Z AUTO 30016G32KT 10SM CLR 11/M04 A2980 2280 33 2400 310/16G32 RMK AO2 PK WND 29032/0241 T01111044
03812KAVL AVL20160402215014704/02/16 21:50:31  5-MIN KAVL 030250Z AUTO 32012G32KT 10SM CLR 11/M04 A2980 2280 34 2300 320/12G32 RMK AO2 PK WND 29032/0241 SLP081 T01061044 53010
03812KAVL AVL20160402215511604/02/16 21:55:31  5-MIN KAVL 030255Z AUTO 31010G22KT 10SM CLR 11/M04 A2980 2280 36 2300 320/10G22 RMK AO2 T01061039
03812KAVL AVL20160402220012604/02/16 22:00:31  5-MIN KAVL 030300Z AUTO 31007KT 270V330 10SM CLR 11/M04 A2980 2280 34 2300 310/07 280V340 RMK AO2 T01061044
03812KAVL AVL20160402220511004/02/16 22:05:31  5-MIN KAVL 030305Z AUTO 32008KT 10SM CLR 10/M04 A2980 2280 37 2300 320/08 RMK AO2 T01001039
03812KAVL AVL20160402221011604/02/16 22:10:31  5-MIN KAVL 030310Z AUTO 31012G22KT 10SM CLR 11/M04 A2980 2270 34 2300 320/12G22 RMK AO2 T01061044
03812KAVL AVL20160402221511604/02/16 22:15:31  5-MIN KAVL 030315Z AUTO 32009G22KT 10SM CLR 11/M04 A2981 2270 34 2300 330/09G22 RMK AO2 T01061044
03812KAVL AVL20160402222013204/02/16 22:20:31  5-MIN KAVL 030320Z AUTO 32010G19KT 290V010 10SM CLR 11/M04 A2981 2270 34 2300 320/10G19 300V020 RMK AO2 T01061044
03812KAVL AVL20160402222513204/02/16 22:25:31  5-MIN KAVL 030325Z AUTO 30012G21KT 260V320 10SM CLR 11/M04 A2981 2270 34 2300 300/12G21 270V330 RMK AO2 T01061044
03812KAVL AVL20160402223011604/02/16 22:30:31  5-MIN KAVL 030330Z AUTO 31006G21KT 10SM CLR 11/M04 A2981 2270 34 2300 320/06G21 RMK AO2 T01061044
03812KAVL AVL20160402223511604/02/16 22:35:31  5-MIN KAVL 030335Z AUTO 32017G24KT 10SM CLR 10/M04 A2981 2270 36 2300 330/17G24 RMK AO2 T01001044
03812KAVL AVL20160402224013404/02/16 22:40:31  5-MIN KAVL 030340Z AUTO 31010G31KT 10SM CLR 11/M05 A2981 2270 33 2300 320/10G31 RMK AO2 PK WND 34031/0337 T01061050
03812KAVL AVL20160402224513404/02/16 22:45:31  5-MIN KAVL 030345Z AUTO 32021G31KT 10SM CLR 11/M05 A2981 2270 33 2300 330/21G31 RMK AO2 PK WND 34031/0337 T01061050
03812KAVL AVL20160402225014104/02/16 22:50:31  5-MIN KAVL 030350Z AUTO 33014G30KT 10SM CLR 11/M05 A2981 2270 33 2300 340/14G30 RMK AO2 PK WND 34031/0337 SLP083 T01061050
03812KAVL AVL20160402225511604/02/16 22:55:31  5-MIN KAVL 030355Z AUTO 32014G29KT 10SM CLR 11/M04 A2981 2270 34 2300 320/14G29 RMK AO2 T01061044
03812KAVL AVL20160402230011604/02/16 23:00:31  5-MIN KAVL 030400Z AUTO 33014G23KT 10SM CLR 10/M04 A2981 2270 36 2200 330/14G23 RMK AO2 T01001044
03812KAVL AVL20160402230511604/02/16 23:05:31  5-MIN KAVL 030405Z AUTO 31010G22KT 10SM CLR 10/M04 A2981 2270 36 2200 320/10G22 RMK AO2 T01001044
03812KAVL AVL20160402231011604/02/16 23:10:31  5-MIN KAVL 030410Z AUTO 32016G24KT 10SM CLR 10/M04 A2981 2270 36 2200 320/16G24 RMK AO2 T01001044
03812KAVL AVL20160402231513404/02/16 23:15:31  5-MIN KAVL 030415Z AUTO 32018G26KT 10SM CLR 10/M04 A2981 2270 36 2200 330/18G26 RMK AO2 PK WND 32026/0414 T01001044
03812KAVL AVL20160402232013404/02/16 23:20:31  5-MIN KAVL 030420Z AUTO 32016G26KT 10SM CLR 10/M04 A2981 2270 36 2200 330/16G26 RMK AO2 PK WND 32026/0414 T01001044
03812KAVL AVL20160402232513404/02/16 23:25:31  5-MIN KAVL 030425Z AUTO 33016G30KT 10SM CLR 11/M04 A2981 2270 34 2300 330/16G30 RMK AO2 PK WND 31030/0423 T01061044
03812KAVL AVL20160402233013404/02/16 23:30:31  5-MIN KAVL 030430Z AUTO 34016G32KT 10SM CLR 11/M05 A2981 2270 33 2300 340/16G32 RMK AO2 PK WND 33032/0427 T01061050
03812KAVL AVL20160402233513404/02/16 23:35:31  5-MIN KAVL 030435Z AUTO 33017G32KT 10SM CLR 10/M04 A2982 2260 36 2200 340/17G32 RMK AO2 PK WND 33032/0427 T01001044
03812KAVL AVL20160402234013404/02/16 23:40:31  5-MIN KAVL 030440Z AUTO 35016G28KT 10SM CLR 10/M04 A2982 2260 36 2200 360/16G28 RMK AO2 PK WND 33032/0427 T01001044
03812KAVL AVL20160402234513404/02/16 23:45:31  5-MIN KAVL 030445Z AUTO 34015G25KT 10SM CLR 10/M04 A2981 2270 36 2200 340/15G25 RMK AO2 PK WND 33032/0427 T01001044
03812KAVL AVL20160402235015104/02/16 23:50:31  5-MIN KAVL 030450Z AUTO 33020G34KT 10SM CLR 10/M04 A2981 2270 37 2200 340/20G34 RMK AO2 PK WND 33034/0448 SLP084 T01001039 401610100
03812KAVL AVL20160402235513404/02/16 23:55:31  5-MIN KAVL 030455Z AUTO 33022G35KT 10SM CLR 10/M04 A2981 2270 37 2200 340/22G35 RMK AO2 PK WND 32028/0455 T01001039
03812KAVL AVL20160403000011604/03/16 00:00:31  5-MIN KAVL 030500Z AUTO 32017G35KT 10SM CLR 09/M04 A2981 2270 39 2200 330/17G35 RMK AO2 T00941039
03812KAVL AVL20160403000513404/03/16 00:05:31  5-MIN KAVL 030505Z AUTO 32017G30KT 10SM CLR 10/M04 A2982 2260 37 2200 330/17G30 RMK AO2 PK WND 31030/0501 T01001039
03812KAVL AVL20160403001013404/03/16 00:10:31  5-MIN KAVL 030510Z AUTO 32014G30KT 10SM CLR 10/M04 A2982 2260 37 2200 330/14G30 RMK AO2 PK WND 31030/0501 T01001039
03812KAVL AVL20160403001513404/03/16 00:15:31  5-MIN KAVL 030515Z AUTO 33019G30KT 10SM CLR 10/M03 A2982 2260 39 2200 330/19G30 RMK AO2 PK WND 31030/0501 T01001033
03812KAVL AVL20160403002013404/03/16 00:20:31  5-MIN KAVL 030520Z AUTO 32021G30KT 10SM CLR 10/M04 A2982 2260 37 2200 330/21G30 RMK AO2 PK WND 31030/0501 T01001039
03812KAVL AVL20160403002513404/03/16 00:25:31  5-MIN KAVL 030525Z AUTO 32022G30KT 10SM CLR 10/M03 A2982 2260 39 2200 330/22G30 RMK AO2 PK WND 34030/0524 T01001033
03812KAVL AVL20160403003013404/03/16 00:30:31  5-MIN KAVL 030530Z AUTO 32020G30KT 10SM CLR 10/M03 A2982 2260 39 2200 330/20G30 RMK AO2 PK WND 34030/0524 T01001033
03812KAVL AVL20160403003513404/03/16 00:35:31  5-MIN KAVL 030535Z AUTO 32018G30KT 10SM CLR 10/M03 A2982 2260 39 2200 320/18G30 RMK AO2 PK WND 34030/0524 T01001033
03812KAVL AVL20160403004013404/03/16 00:40:31  5-MIN KAVL 030540Z AUTO 32018G29KT 10SM CLR 09/M03 A2982 2260 40 2200 330/18G29 RMK AO2 PK WND 34030/0524 T00941033
03812KAVL AVL20160403004513404/03/16 00:45:31  5-MIN KAVL 030545Z AUTO 33018G30KT 10SM CLR 09/M03 A2982 2260 42 2200 330/18G30 RMK AO2 PK WND 34030/0524 T00941028
03812KAVL AVL20160403005015904/03/16 00:50:31  5-MIN KAVL 030550Z AUTO 32017G30KT 10SM CLR 09/M03 A2982 2260 42 2200 330/17G30 RMK AO2 PK WND 34030/0524 SLP087 T00941028 10128 20094 51019
03812KAVL AVL20160403005513404/03/16 00:55:31  5-MIN KAVL 030555Z AUTO 32024G32KT 10SM CLR 09/M03 A2982 2260 40 2200 330/24G32 RMK AO2 PK WND 31032/0555 T00941033
03812KAVL AVL20160403010013404/03/16 01:00:31  5-MIN KAVL 030600Z AUTO 32024G33KT 10SM CLR 09/M03 A2982 2260 40 2200 330/24G33 RMK AO2 PK WND 32033/0556 T00941033
03812KAVL AVL20160403010513404/03/16 01:05:31  5-MIN KAVL 030605Z AUTO 33025G35KT 10SM CLR 09/M03 A2982 2260 40 2200 330/25G35 RMK AO2 PK WND 33035/0604 T00941033
03812KAVL AVL20160403011013404/03/16 01:10:31  5-MIN KAVL 030610Z AUTO 32023G35KT 10SM CLR 09/M03 A2982 2260 40 2200 330/23G35 RMK AO2 PK WND 33035/0604 T00941033
03812KAVL AVL20160403011513404/03/16 01:15:31  5-MIN KAVL 030615Z AUTO 33019G34KT 10SM CLR 09/M04 A2982 2260 39 2200 330/19G34 RMK AO2 PK WND 33035/0604 T00941039
03812KAVL AVL20160403012013404/03/16 01:20:31  5-MIN KAVL 030620Z AUTO 34029G38KT 10SM CLR 09/M04 A2982 2260 39 2200 340/29G38 RMK AO2 PK WND 33038/0619 T00941039
03812KAVL AVL20160403012513404/03/16 01:25:31  5-MIN KAVL 030625Z AUTO 32022G38KT 10SM CLR 09/M04 A2982 2260 39 2200 330/22G38 RMK AO2 PK WND 33038/0619 T00941039
03812KAVL AVL20160403013013404/03/16 01:30:31  5-MIN KAVL 030630Z AUTO 32021G34KT 10SM CLR 09/M04 A2983 2250 37 2200 330/21G34 RMK AO2 PK WND 33038/0619 T00941044
03812KAVL AVL20160403013513404/03/16 01:35:31  5-MIN KAVL 030635Z AUTO 33021G34KT 10SM CLR 09/M04 A2983 2250 38 2100 340/21G34 RMK AO2 PK WND 33038/0619 T00891044
03812KAVL AVL20160403014013404/03/16 01:40:31  5-MIN KAVL 030640Z AUTO 33019G35KT 10SM CLR 09/M04 A2983 2250 38 2100 340/19G35 RMK AO2 PK WND 33038/0619 T00891044
03812KAVL AVL20160403014513404/03/16 01:45:31  5-MIN KAVL 030645Z AUTO 34017G35KT 10SM CLR 09/M04 A2984 2240 40 2100 340/17G35 RMK AO2 PK WND 33038/0619 T00891039
03812KAVL AVL20160403015014104/03/16 01:50:31  5-MIN KAVL 030650Z AUTO 34020G31KT 10SM CLR 09/M04 A2984 2240 40 2100 340/20G31 RMK AO2 PK WND 33038/0619 SLP094 T00891039
03812KAVL AVL20160403015513404/03/16 01:55:31  5-MIN KAVL 030655Z AUTO 34020G31KT 10SM CLR 09/M04 A2984 2240 40 2100 340/20G31 RMK AO2 PK WND 32029/0655 T00891039
03812KAVL AVL20160403020013404/03/16 02:00:31  5-MIN KAVL 030700Z AUTO 34016G31KT 10SM CLR 08/M04 A2985 2230 42 2000 340/16G31 RMK AO2 PK WND 32029/0655 T00831039
03812KAVL AVL20160403020513404/03/16 02:05:31  5-MIN KAVL 030705Z AUTO 34014G26KT 10SM CLR 08/M04 A2986 2230 42 2000 350/14G26 RMK AO2 PK WND 32029/0655 T00831039
03812KAVL AVL20160403021013404/03/16 02:10:31  5-MIN KAVL 030710Z AUTO 33021G27KT 10SM CLR 08/M04 A2986 2230 40 2000 340/21G27 RMK AO2 PK WND 32029/0655 T00831044
03812KAVL AVL20160403021513404/03/16 02:15:31  5-MIN KAVL 030715Z AUTO 35021G29KT 10SM CLR 08/M04 A2986 2230 40 2000 350/21G29 RMK AO2 PK WND 32029/0655 T00831044
03812KAVL AVL20160403022013404/03/16 02:20:31  5-MIN KAVL 030720Z AUTO 35016G32KT 10SM CLR 08/M05 A2986 2220 38 2000 350/16G32 RMK AO2 PK WND 33032/0717 T00831050
03812KAVL AVL20160403022513404/03/16 02:25:31  5-MIN KAVL 030725Z AUTO 34013G32KT 10SM CLR 08/M05 A2986 2220 38 2000 350/13G32 RMK AO2 PK WND 33032/0717 T00831050
03812KAVL AVL20160403023013404/03/16 02:30:31  5-MIN KAVL 030730Z AUTO 35015G25KT 10SM CLR 08/M05 A2987 2220 40 1900 350/15G25 RMK AO2 PK WND 33032/0717 T00781050
03812KAVL AVL20160403023513404/03/16 02:35:31  5-MIN KAVL 030735Z AUTO 35015G33KT 10SM CLR 08/M06 A2987 2210 37 2000 350/15G33 RMK AO2 PK WND 36033/0731 T00831056
03812KAVL AVL20160403024013404/03/16 02:40:31  5-MIN KAVL 030740Z AUTO 34018G33KT 10SM CLR 08/M06 A2987 2210 38 1900 340/18G33 RMK AO2 PK WND 36033/0731 T00781056
03812KAVL AVL20160403024513404/03/16 02:45:31  5-MIN KAVL 030745Z AUTO 35013G26KT 10SM CLR 08/M06 A2988 2210 36 1900 360/13G26 RMK AO2 PK WND 36033/0731 T00781061
03812KAVL AVL20160403025014104/03/16 02:50:31  5-MIN KAVL 030750Z AUTO 36012G24KT 10SM CLR 08/M07 A2988 2210 34 1900 360/12G24 RMK AO2 PK WND 36033/0731 SLP107 T00781072
03812KAVL AVL20160403025511004/03/16 02:55:31  5-MIN KAVL 030755Z AUTO 35014KT 10SM CLR 07/M08 A2988 2200 33 1800 360/14 RMK AO2 T00721078
03812KAVL AVL20160403030013404/03/16 03:00:31  5-MIN KAVL 030800Z AUTO 34020G29KT 10SM CLR 07/M08 A2988 2200 32 1800 340/20G29 RMK AO2 PK WND 34029/0800 T00721083
03812KAVL AVL20160403030513404/03/16 03:05:31  5-MIN KAVL 030805Z AUTO 34020G29KT 10SM CLR 07/M09 A2988 2200 31 1800 350/20G29 RMK AO2 PK WND 34029/0800 T00721089
03812KAVL AVL20160403031013404/03/16 03:10:31  5-MIN KAVL 030810Z AUTO 34020G29KT 10SM CLR 07/M09 A2988 2200 29 1800 340/20G29 RMK AO2 PK WND 34029/0800 T00721094
03812KAVL AVL20160403031513404/03/16 03:15:31  5-MIN KAVL 030815Z AUTO 34022G32KT 10SM CLR 07/M10 A2988 2200 29 1800 340/22G32 RMK AO2 PK WND 34032/0812 T00671100
03812KAVL AVL20160403032013404/03/16 03:20:31  5-MIN KAVL 030820Z AUTO 34022G32KT 10SM CLR 07/M09 A2988 2200 30 1800 350/22G32 RMK AO2 PK WND 34032/0812 T00671094
03812KAVL AVL20160403032513404/03/16 03:25:31  5-MIN KAVL 030825Z AUTO 35019G27KT 10SM CLR 07/M09 A2988 2200 30 1800 350/19G27 RMK AO2 PK WND 34032/0812 T00671094
03812KAVL AVL20160403033013404/03/16 03:30:31  5-MIN KAVL 030830Z AUTO 34021G29KT 10SM CLR 06/M08 A2988 2200 35 1700 340/21G29 RMK AO2 PK WND 34032/0812 T00611083
03812KAVL AVL20160403033513404/03/16 03:35:31  5-MIN KAVL 030835Z AUTO 34021G29KT 10SM CLR 06/M08 A2988 2200 36 1600 350/21G29 RMK AO2 PK WND 34032/0812 T00561083
03812KAVL AVL20160403034013404/03/16 03:40:31  5-MIN KAVL 030840Z AUTO 34024G29KT 10SM CLR 06/M08 A2989 2200 36 1600 340/24G29 RMK AO2 PK WND 34032/0812 T00561083
03812KAVL AVL20160403034513404/03/16 03:45:31  5-MIN KAVL 030845Z AUTO 34020G28KT 10SM CLR 06/M08 A2989 2190 36 1600 350/20G28 RMK AO2 PK WND 34032/0812 T00561083
03812KAVL AVL20160403035014704/03/16 03:50:31  5-MIN KAVL 030850Z AUTO 34018G28KT 10SM CLR 05/M08 A2990 2190 37 1500 350/18G28 RMK AO2 PK WND 34032/0812 SLP115 T00501083 51005
03812KAVL AVL20160403035511604/03/16 03:55:31  5-MIN KAVL 030855Z AUTO 35019G27KT 10SM CLR 06/M08 A2990 2190 36 1600 350/19G27 RMK AO2 T00561083
03812KAVL AVL20160403040011604/03/16 04:00:31  5-MIN KAVL 030900Z AUTO 34018G25KT 10SM CLR 05/M09 A2991 2180 36 1500 350/18G25 RMK AO2 T00501089
03812KAVL AVL20160403040511604/03/16 04:05:31  5-MIN KAVL 030905Z AUTO 35013G25KT 10SM CLR 05/M09 A2991 2180 36 1500 360/13G25 RMK AO2 T00501089
03812KAVL AVL20160403041011604/03/16 04:10:31  5-MIN KAVL 030910Z AUTO 35014G24KT 10SM CLR 05/M09 A2991 2170 36 1500 360/14G24 RMK AO2 T00501089
03812KAVL AVL20160403041511604/03/16 04:15:31  5-MIN KAVL 030915Z AUTO 35015G23KT 10SM CLR 05/M09 A2992 2170 34 1500 360/15G23 RMK AO2 T00501094
03812KAVL AVL20160403042011604/03/16 04:20:31  5-MIN KAVL 030920Z AUTO 36016G21KT 10SM CLR 05/M10 A2992 2170 33 1500 360/16G21 RMK AO2 T00501100
03812KAVL AVL20160403042511604/03/16 04:25:31  5-MIN KAVL 030925Z AUTO 35014G22KT 10SM CLR 05/M10 A2992 2160 33 1500 360/14G22 RMK AO2 T00501100
03812KAVL AVL20160403043011604/03/16 04:30:31  5-MIN KAVL 030930Z AUTO 35012G22KT 10SM CLR 05/M10 A2993 2160 33 1500 360/12G22 RMK AO2 T00501100
03812KAVL AVL20160403043511604/03/16 04:35:31  5-MIN KAVL 030935Z AUTO 36014G22KT 10SM CLR 04/M10 A2994 2150 34 1400 010/14G22 RMK AO2 T00441100
03812KAVL AVL20160403044011604/03/16 04:40:31  5-MIN KAVL 030940Z AUTO 35015G23KT 10SM CLR 04/M10 A2994 2150 34 1400 360/15G23 RMK AO2 T00441100
03812KAVL AVL20160403044511604/03/16 04:45:31  5-MIN KAVL 030945Z AUTO 35012G23KT 10SM CLR 04/M10 A2994 2150 34 1400 360/12G23 RMK AO2 T00441100
03812KAVL AVL20160403045012304/03/16 04:50:31  5-MIN KAVL 030950Z AUTO 35014G22KT 10SM CLR 04/M10 A2995 2140 34 1400 360/14G22 RMK AO2 SLP133 T00441100
03812KAVL AVL20160403045511604/03/16 04:55:31  5-MIN KAVL 030955Z AUTO 36016G22KT 10SM CLR 04/M10 A2995 2140 35 1400 360/16G22 RMK AO2 T00391100
03812KAVL AVL20160403050011604/03/16 05:00:31  5-MIN KAVL 031000Z AUTO 35014G22KT 10SM CLR 04/M10 A2995 2140 35 1300 360/14G22 RMK AO2 T00391100
03812KAVL AVL20160403050511604/03/16 05:05:31  5-MIN KAVL 031005Z AUTO 35013G21KT 10SM CLR 04/M10 A2996 2130 35 1300 360/13G21 RMK AO2 T00391100
03812KAVL AVL20160403051011604/03/16 05:10:31  5-MIN KAVL 031010Z AUTO 36013G22KT 10SM CLR 04/M10 A2996 2130 35 1300 010/13G22 RMK AO2 T00391100
03812KAVL AVL20160403051511604/03/16 05:15:31  5-MIN KAVL 031015Z AUTO 36015G22KT 10SM CLR 03/M11 A2997 2130 35 1300 360/15G22 RMK AO2 T00331106
03812KAVL AVL20160403052011104/03/16 05:20:31  5-MIN KAVL 031020Z 36017G22KT 10SM CLR 03/M11 A2997 2120 35 1300 360/17G22 RMK AO2 T00331106
03812KAVL AVL20160403052511104/03/16 05:25:31  5-MIN KAVL 031025Z 36013G22KT 10SM CLR 03/M11 A2997 2120 35 1300 360/13G22 RMK AO2 T00331106
03812KAVL AVL20160403053011104/03/16 05:30:31  5-MIN KAVL 031030Z 36016G23KT 10SM CLR 03/M11 A2998 2120 35 1300 360/16G23 RMK AO2 T00331106
03812KAVL AVL20160403053511104/03/16 05:35:31  5-MIN KAVL 031035Z 36018G25KT 10SM CLR 03/M11 A2998 2110 35 1300 010/18G25 RMK AO2 T00331106
03812KAVL AVL20160403054011104/03/16 05:40:31  5-MIN KAVL 031040Z 36017G25KT 10SM CLR 03/M11 A2998 2110 35 1200 360/17G25 RMK AO2 T00331106
03812KAVL AVL20160403054511104/03/16 05:45:31  5-MIN KAVL 031045Z 01013G25KT 10SM CLR 03/M11 A2998 2110 35 1200 010/13G25 RMK AO2 T00331106
03812KAVL AVL20160403055011804/03/16 05:50:31  5-MIN KAVL 031050Z 36014G22KT 10SM CLR 03/M11 A2998 2110 37 1200 010/14G22 RMK AO2 SLP149 T00281106
03812KAVL AVL20160403055512904/03/16 05:55:31  5-MIN KAVL 031055Z 35018G26KT 10SM CLR 03/M11 A2999 2110 35 1200 360/18G26 RMK AO2 PK WND 35026/1055 T00281111
03812KAVL AVL20160403060012904/03/16 06:00:31  5-MIN KAVL 031100Z 36017G26KT 10SM CLR 03/M11 A2999 2100 35 1200 360/17G26 RMK AO2 PK WND 35026/1055 T00281111
03812KAVL AVL20160403060512904/03/16 06:05:31  5-MIN KAVL 031105Z 36018G24KT 10SM CLR 03/M11 A2999 2100 35 1200 360/18G24 RMK AO2 PK WND 35026/1055 T00281111
03812KAVL AVL20160403061012904/03/16 06:10:31  5-MIN KAVL 031110Z 36015G24KT 10SM CLR 03/M11 A3000 2090 35 1200 360/15G24 RMK AO2 PK WND 35026/1055 T00281111
03812KAVL AVL20160403061512904/03/16 06:15:31  5-MIN KAVL 031115Z 35015G24KT 10SM CLR 03/M11 A3001 2090 35 1200 360/15G24 RMK AO2 PK WND 35026/1055 T00281111
03812KAVL AVL20160403062012904/03/16 06:20:31  5-MIN KAVL 031120Z 35015G23KT 10SM CLR 03/M11 A3001 2080 35 1100 360/15G23 RMK AO2 PK WND 35026/1055 T00281111
03812KAVL AVL20160403062512904/03/16 06:25:31  5-MIN KAVL 031125Z 35013G23KT 10SM CLR 02/M11 A3001 2080 37 1100 360/13G23 RMK AO2 PK WND 35026/1055 T00221111
03812KAVL AVL20160403063012904/03/16 06:30:31  5-MIN KAVL 031130Z 35018G23KT 10SM CLR 02/M11 A3002 2080 37 1100 350/18G23 RMK AO2 PK WND 35026/1055 T00221111
03812KAVL AVL20160403063512904/03/16 06:35:31  5-MIN KAVL 031135Z 35016G23KT 10SM CLR 02/M11 A3002 2070 38 1100 350/16G23 RMK AO2 PK WND 35026/1055 T00221106
03812KAVL AVL20160403064012904/03/16 06:40:31  5-MIN KAVL 031140Z 35013G23KT 10SM CLR 02/M11 A3002 2070 38 1100 360/13G23 RMK AO2 PK WND 35026/1055 T00221106
03812KAVL AVL20160403064512904/03/16 06:45:31  5-MIN KAVL 031145Z 35014G21KT 10SM CLR 02/M11 A3003 2070 38 1100 360/14G21 RMK AO2 PK WND 35026/1055 T00221106
03812KAVL AVL20160403065015404/03/16 06:50:31  5-MIN KAVL 031150Z 36015G21KT 10SM CLR 02/M11 A3003 2070 38 1100 010/15G21 RMK AO2 PK WND 35026/1055 SLP166 T00221106 10094 20022 51026
03812KAVL AVL20160403065511104/03/16 06:55:31  5-MIN KAVL 031155Z 36016G24KT 10SM CLR 02/M11 A3003 2060 38 1100 360/16G24 RMK AO2 T00221106
03812KAVL AVL20160403070011104/03/16 07:00:31  5-MIN KAVL 031200Z 36015G24KT 10SM CLR 03/M11 A3003 2060 37 1100 360/15G24 RMK AO2 T00281106
03812KAVL AVL20160403070511104/03/16 07:05:31  5-MIN KAVL 031205Z 36016G23KT 10SM CLR 03/M11 A3003 2060 37 1100 360/16G23 RMK AO2 T00281106
03812KAVL AVL20160403071011104/03/16 07:10:31  5-MIN KAVL 031210Z 36017G23KT 10SM CLR 03/M11 A3004 2060 37 1100 360/17G23 RMK AO2 T00281106
03812KAVL AVL20160403071512904/03/16 07:15:31  5-MIN KAVL 031215Z 35017G26KT 10SM CLR 03/M11 A3004 2060 37 1100 360/17G26 RMK AO2 PK WND 36026/1212 T00281106
03812KAVL AVL20160403072012904/03/16 07:20:31  5-MIN KAVL 031220Z 36018G26KT 10SM CLR 03/M11 A3004 2050 37 1100 360/18G26 RMK AO2 PK WND 36026/1212 T00281106
03812KAVL AVL20160403072512904/03/16 07:25:31  5-MIN KAVL 031225Z 35016G25KT 10SM CLR 03/M11 A3005 2050 37 1100 360/16G25 RMK AO2 PK WND 36026/1212 T00281106
03812KAVL AVL20160403073012904/03/16 07:30:31  5-MIN KAVL 031230Z 35018G25KT 10SM CLR 03/M11 A3005 2050 37 1100 360/18G25 RMK AO2 PK WND 36026/1212 T00281106
03812KAVL AVL20160403073512904/03/16 07:35:31  5-MIN KAVL 031235Z 36017G25KT 10SM CLR 03/M10 A3005 2050 37 1200 360/17G25 RMK AO2 PK WND 36026/1212 T00331100
03812KAVL AVL20160403074012904/03/16 07:40:31  5-MIN KAVL 031240Z 35016G25KT 10SM CLR 03/M11 A3005 2050 35 1200 360/16G25 RMK AO2 PK WND 36026/1212 T00331106
03812KAVL AVL20160403074512904/03/16 07:45:31  5-MIN KAVL 031245Z 36017G25KT 10SM CLR 03/M11 A3005 2050 35 1200 360/17G25 RMK AO2 PK WND 36026/1212 T00331106
03812KAVL AVL20160403075013604/03/16 07:50:31  5-MIN KAVL 031250Z 36014G25KT 10SM CLR 03/M11 A3005 2050 35 1200 360/14G25 RMK AO2 PK WND 36026/1212 SLP174 T00331106
03812KAVL AVL20160403075511104/03/16 07:55:31  5-MIN KAVL 031255Z 36016G25KT 10SM CLR 04/M11 A3005 2050 34 1200 010/16G25 RMK AO2 T00391106
03812KAVL AVL20160403080011104/03/16 08:00:31  5-MIN KAVL 031300Z 35016G25KT 10SM CLR 04/M11 A3006 2040 34 1200 360/16G25 RMK AO2 T00391106
03812KAVL AVL20160403080511104/03/16 08:05:31  5-MIN KAVL 031305Z 36014G22KT 10SM CLR 04/M11 A3006 2040 34 1200 360/14G22 RMK AO2 T00391106
03812KAVL AVL20160403081011104/03/16 08:10:31  5-MIN KAVL 031310Z 36017G22KT 10SM CLR 04/M11 A3006 2040 34 1200 360/17G22 RMK AO2 T00391106
03812KAVL AVL20160403081511104/03/16 08:15:31  5-MIN KAVL 031315Z 36016G22KT 10SM CLR 04/M11 A3006 2040 34 1200 010/16G22 RMK AO2 T00391106
03812KAVL AVL20160403082011104/03/16 08:20:31  5-MIN KAVL 031320Z 36017G22KT 10SM CLR 04/M11 A3007 2030 33 1300 010/17G22 RMK AO2 T00441106
03812KAVL AVL20160403082511104/03/16 08:25:31  5-MIN KAVL 031325Z 36012G22KT 10SM CLR 04/M11 A3006 2030 33 1300 360/12G22 RMK AO2 T00441106
03812KAVL AVL20160403083010504/03/16 08:30:31  5-MIN KAVL 031330Z 36013KT 10SM CLR 04/M10 A3007 2030 34 1300 010/13 RMK AO2 T00441100
03812KAVL AVL20160403083511104/03/16 08:35:31  5-MIN KAVL 031335Z 36013G20KT 10SM CLR 05/M10 A3007 2030 33 1300 360/13G20 RMK AO2 T00501100
03812KAVL AVL20160403084011104/03/16 08:40:31  5-MIN KAVL 031340Z 01014G20KT 10SM CLR 05/M10 A3007 2030 33 1300 010/14G20 RMK AO2 T00501100
03812KAVL AVL20160403084511104/03/16 08:45:31  5-MIN KAVL 031345Z 36011G19KT 10SM CLR 05/M10 A3008 2020 33 1300 010/11G19 RMK AO2 T00501100
03812KAVL AVL20160403085011804/03/16 08:50:31  5-MIN KAVL 031350Z 01013G19KT 10SM CLR 06/M10 A3008 2020 32 1400 010/13G19 RMK AO2 SLP183 T00561100
03812KAVL AVL20160403085511104/03/16 08:55:31  5-MIN KAVL 031355Z 36014G19KT 10SM CLR 06/M11 A3008 2020 30 1400 010/14G19 RMK AO2 T00561106
03812KAVL AVL20160403090011104/03/16 09:00:31  5-MIN KAVL 031400Z 01010G23KT 10SM CLR 06/M11 A3009 2020 30 1400 020/10G23 RMK AO2 T00561106
03812KAVL AVL20160403090511104/03/16 09:05:31  5-MIN KAVL 031405Z 01011G23KT 10SM CLR 06/M10 A3009 2010 30 1500 010/11G23 RMK AO2 T00611100
03812KAVL AVL20160403091011104/03/16 09:10:31  5-MIN KAVL 031410Z 36012G18KT 10SM CLR 06/M10 A3009 2010 30 1500 360/12G18 RMK AO2 T00611100
03812KAVL AVL20160403091511104/03/16 09:15:31  5-MIN KAVL 031415Z 01012G20KT 10SM CLR 06/M10 A3009 2010 30 1500 010/12G20 RMK AO2 T00611100
03812KAVL AVL20160403092011104/03/16 09:20:31  5-MIN KAVL 031420Z 01011G20KT 10SM CLR 07/M10 A3010 2000 29 1500 020/11G20 RMK AO2 T00671100
03812KAVL AVL20160403092511104/03/16 09:25:31  5-MIN KAVL 031425Z 35011G18KT 10SM CLR 07/M10 A3010 2000 29 1500 360/11G18 RMK AO2 T00671100
03812KAVL AVL20160403093011104/03/16 09:30:31  5-MIN KAVL 031430Z 36011G21KT 10SM CLR 07/M11 A3010 2000 28 1500 360/11G21 RMK AO2 T00671106
03812KAVL AVL20160403093511104/03/16 09:35:31  5-MIN KAVL 031435Z 01009G21KT 10SM CLR 07/M10 A3010 2000 28 1600 010/09G21 RMK AO2 T00721100
03812KAVL AVL20160403094011104/03/16 09:40:31  5-MIN KAVL 031440Z 36012G18KT 10SM CLR 07/M10 A3011 2000 28 1600 010/12G18 RMK AO2 T00721100
03812KAVL AVL20160403094511104/03/16 09:45:31  5-MIN KAVL 031445Z 35011G18KT 10SM CLR 07/M10 A3011 2000 28 1600 360/11G18 RMK AO2 T00721100
03812KAVL AVL20160403095012404/03/16 09:50:31  5-MIN KAVL 031450Z 01012G18KT 10SM CLR 07/M11 A3011 1990 27 1600 010/12G18 RMK AO2 SLP191 T00721106 51042
03812KAVL AVL20160403095511104/03/16 09:55:31  5-MIN KAVL 031455Z 35013G19KT 10SM CLR 08/M10 A3011 1990 27 1600 360/13G19 RMK AO2 T00781100
03812KAVL AVL20160403100011104/03/16 10:00:31  5-MIN KAVL 031500Z 35012G19KT 10SM CLR 07/M11 A3012 1990 27 1600 360/12G19 RMK AO2 T00721106
03812KAVL AVL20160403100510504/03/16 10:05:31  5-MIN KAVL 031505Z 01011KT 10SM CLR 08/M11 A3012 1980 26 1600 010/11 RMK AO2 T00781106
03812KAVL AVL20160403101011104/03/16 10:10:31  5-MIN KAVL 031510Z 01011G17KT 10SM CLR 08/M11 A3012 1980 25 1700 010/11G17 RMK AO2 T00831106
03812KAVL AVL20160403101510504/03/16 10:15:31  5-MIN KAVL 031515Z 36009KT 10SM CLR 08/M11 A3013 1980 24 1700 010/09 RMK AO2 T00831111
03812KAVL AVL20160403102011104/03/16 10:20:31  5-MIN KAVL 031520Z 35012G17KT 10SM CLR 08/M11 A3013 1980 25 1700 360/12G17 RMK AO2 T00831106
03812KAVL AVL20160403102511104/03/16 10:25:31  5-MIN KAVL 031525Z 36011G19KT 10SM CLR 08/M11 A3013 1970 24 1700 010/11G19 RMK AO2 T00831111
03812KAVL AVL20160403103011104/03/16 10:30:31  5-MIN KAVL 031530Z 35011G20KT 10SM CLR 09/M11 A3013 1970 23 1800 360/11G20 RMK AO2 T00891111
03812KAVL AVL20160403103511104/03/16 10:35:31  5-MIN KAVL 031535Z 36013G21KT 10SM CLR 09/M12 A3013 1980 22 1800 360/13G21 RMK AO2 T00891117
03812KAVL AVL20160403104011104/03/16 10:40:31  5-MIN KAVL 031540Z 35012G21KT 10SM CLR 09/M12 A3013 1970 22 1800 360/12G21 RMK AO2 T00891117
03812KAVL AVL20160403104511104/03/16 10:45:31  5-MIN KAVL 031545Z 35011G20KT 10SM CLR 09/M11 A3013 1970 23 1800 350/11G20 RMK AO2 T00941106
03812KAVL AVL20160403105011204/03/16 10:50:31  5-MIN KAVL 031550Z 35012KT 10SM CLR 09/M11 A3013 1980 22 1800 360/12 RMK AO2 SLP196 T00941111
03812KAVL AVL20160403105512104/03/16 10:55:31  5-MIN KAVL 031555Z 35011KT 330V040 10SM CLR 09/M11 A3013 1980 23 1800 350/11 340V050 RMK AO2 T00891111
03812KAVL AVL20160403110011104/03/16 11:00:31  5-MIN KAVL 031600Z 36008G17KT 10SM CLR 09/M11 A3013 1980 23 1800 010/08G17 RMK AO2 T00941106
03812KAVL AVL20160403110511104/03/16 11:05:31  5-MIN KAVL 031605Z 02011G17KT 10SM CLR 09/M11 A3013 1980 22 1800 020/11G17 RMK AO2 T00941111
03812KAVL AVL20160403111011104/03/16 11:10:31  5-MIN KAVL 031610Z 01012G16KT 10SM CLR 10/M11 A3013 1970 21 1900 010/12G16 RMK AO2 T01001111
03812KAVL AVL20160403111510504/03/16 11:15:31  5-MIN KAVL 031615Z 36010KT 10SM CLR 10/M11 A3013 1970 21 1900 010/10 RMK AO2 T01001111
03812KAVL AVL20160403112011104/03/16 11:20:31  5-MIN KAVL 031620Z 34011G16KT 10SM CLR 11/M09 A3013 1970 24 1900 350/11G16 RMK AO2 T01061089
03812KAVL AVL20160403112511104/03/16 11:25:31  5-MIN KAVL 031625Z 35009G18KT 10SM CLR 11/M09 A3013 1980 23 2000 360/09G18 RMK AO2 T01061094
03812KAVL AVL20160403113011104/03/16 11:30:31  5-MIN KAVL 031630Z 35012G18KT 10SM CLR 11/M09 A3013 1970 23 1900 360/12G18 RMK AO2 T01061094
03812KAVL AVL20160403113510504/03/16 11:35:31  5-MIN KAVL 031635Z 34008KT 10SM CLR 11/M09 A3013 1980 23 2000 340/08 RMK AO2 T01061094
03812KAVL AVL20160403114010504/03/16 11:40:31  5-MIN KAVL 031640Z 35010KT 10SM CLR 11/M09 A3013 1980 23 2000 360/10 RMK AO2 T01111089
03812KAVL AVL20160403114510504/03/16 11:45:31  5-MIN KAVL 031645Z 35008KT 10SM CLR 11/M09 A3013 1980 23 2000 350/08 RMK AO2 T01111089
03812KAVL AVL20160403115011204/03/16 11:50:31  5-MIN KAVL 031650Z 34011KT 10SM CLR 12/M08 A3012 1980 24 2100 340/11 RMK AO2 SLP193 T01171083
03812KAVL AVL20160403115511104/03/16 11:55:31  5-MIN KAVL 031655Z 36009G19KT 10SM CLR 12/M08 A3012 1980 24 2100 010/09G19 RMK AO2 T01171083
03812KAVL AVL20160403120011104/03/16 12:00:31  5-MIN KAVL 031700Z 35011G19KT 10SM CLR 12/M08 A3012 1980 24 2100 360/11G19 RMK AO2 T01171083
03812KAVL AVL20160403120510504/03/16 12:05:31  5-MIN KAVL 031705Z 36007KT 10SM CLR 12/M08 A3012 1980 24 2100 360/07 RMK AO2 T01171083
03812KAVL AVL20160403121011104/03/16 12:10:31  5-MIN KAVL 031710Z 35011G16KT 10SM CLR 12/M07 A3012 1980 25 2200 350/11G16 RMK AO2 T01221072
03812KAVL AVL20160403121511104/03/16 12:15:31  5-MIN KAVL 031715Z 35011G16KT 10SM CLR 12/M09 A3012 1990 23 2100 360/11G16 RMK AO2 T01171089
03812KAVL AVL20160403122010504/03/16 12:20:31  5-MIN KAVL 031720Z 34008KT 10SM CLR 12/M08 A3012 1990 24 2100 340/08 RMK AO2 T01171083
03812KAVL AVL20160403122511104/03/16 12:25:31  5-MIN KAVL 031725Z 35007G14KT 10SM CLR 12/M08 A3012 1990 24 2200 360/07G14 RMK AO2 T01221078
03812KAVL AVL20160403123011104/03/16 12:30:31  5-MIN KAVL 031730Z 34011G14KT 10SM CLR 13/M07 A3011 1990 24 2200 340/11G14 RMK AO2 T01281072
03812KAVL AVL20160403123512704/03/16 12:35:31  5-MIN KAVL 031735Z 34009G16KT 320V030 10SM CLR 13/M08 A3011 1990 23 2200 350/09G16 330V040 RMK AO2 T01281078
03812KAVL AVL20160403124010504/03/16 12:40:31  5-MIN KAVL 031740Z 34008KT 10SM CLR 13/M07 A3011 1990 24 2200 340/08 RMK AO2 T01281072
03812KAVL AVL20160403124510504/03/16 12:45:31  5-MIN KAVL 031745Z 33008KT 10SM CLR 13/M06 A3012 1990 25 2300 340/08 RMK AO2 T01331061
03812KAVL AVL20160403125014604/03/16 12:50:31  5-MIN KAVL 031750Z 35007KT 310V020 10SM CLR 13/M07 A3011 1990 24 2300 350/07 320V030 RMK AO2 SLP188 T01331067 10133 20022 53025
03812KAVL AVL20160403125510504/03/16 12:55:31  5-MIN KAVL 031755Z 35009KT 10SM CLR 14/M07 A3011 1990 23 2400 360/09 RMK AO2 T01391067
03812KAVL AVL20160403130011104/03/16 13:00:31  5-MIN KAVL 031800Z 35010G14KT 10SM CLR 14/M06 A3011 1990 24 2400 360/10G14 RMK AO2 T01391061
03812KAVL AVL20160403130511104/03/16 13:05:31  5-MIN KAVL 031805Z 35008G15KT 10SM CLR 14/M07 A3011 1990 23 2400 350/08G15 RMK AO2 T01391067
03812KAVL AVL20160403131011104/03/16 13:10:31  5-MIN KAVL 031810Z 35010G16KT 10SM CLR 14/M07 A3011 1990 23 2400 360/10G16 RMK AO2 T01391067
03812KAVL AVL20160403131511104/03/16 13:15:31  5-MIN KAVL 031815Z 34014G20KT 10SM CLR 14/M07 A3011 1990 23 2400 340/14G20 RMK AO2 T01391067
03812KAVL AVL20160403132011104/03/16 13:20:31  5-MIN KAVL 031820Z 36006G20KT 10SM CLR 14/M06 A3011 2000 24 2400 360/06G20 RMK AO2 T01441056
03812KAVL AVL20160403132511104/03/16 13:25:31  5-MIN KAVL 031825Z 01011G17KT 10SM CLR 15/M06 A3011 2000 22 2500 020/11G17 RMK AO2 T01501061
03812KAVL AVL20160403133010504/03/16 13:30:31  5-MIN KAVL 031830Z 36011KT 10SM CLR 14/M06 A3011 2000 23 2400 010/11 RMK AO2 T01441061
03812KAVL AVL20160403133511104/03/16 13:35:31  5-MIN KAVL 031835Z 35013G19KT 10SM CLR 15/M06 A3011 2000 22 2500 350/13G19 RMK AO2 T01501061
03812KAVL AVL20160403134011104/03/16 13:40:31  5-MIN KAVL 031840Z 35012G19KT 10SM CLR 15/M06 A3011 2000 22 2500 360/12G19 RMK AO2 T01501061
03812KAVL AVL20160403134510504/03/16 13:45:31  5-MIN KAVL 031845Z 35012KT 10SM CLR 15/M06 A3011 2000 23 2500 360/12 RMK AO2 T01501056
03812KAVL AVL20160403135011204/03/16 13:50:31  5-MIN KAVL 031850Z 34013KT 10SM CLR 15/M06 A3010 2000 23 2500 340/13 RMK AO2 SLP184 T01501056
03812KAVL AVL20160403135511104/03/16 13:55:31  5-MIN KAVL 031855Z 35014G20KT 10SM CLR 15/M05 A3010 2000 24 2500 360/14G20 RMK AO2 T01501050
03812KAVL AVL20160403140011104/03/16 14:00:31  5-MIN KAVL 031900Z 33017G22KT 10SM CLR 16/M04 A3010 2000 25 2600 330/17G22 RMK AO2 T01561044
03812KAVL AVL20160403140511104/03/16 14:05:31  5-MIN KAVL 031905Z 34016G22KT 10SM CLR 15/M04 A3010 2000 25 2500 340/16G22 RMK AO2 T01501044
03812KAVL AVL20160403141011104/03/16 14:10:31  5-MIN KAVL 031910Z 34015G22KT 10SM CLR 16/M04 A3010 2000 25 2600 340/15G22 RMK AO2 T01561044
03812KAVL AVL20160403141511104/03/16 14:15:31  5-MIN KAVL 031915Z 35015G21KT 10SM CLR 16/M04 A3010 2000 25 2600 360/15G21 RMK AO2 T01561044
03812KAVL AVL20160403142011604/03/16 14:20:31  5-MIN KAVL 031920Z AUTO 32012G19KT 10SM CLR 16/M04 A3010 2000 26 2600 330/12G19 RMK AO2 T01561039
03812KAVL AVL20160403142511604/03/16 14:25:31  5-MIN KAVL 031925Z AUTO 33015G21KT 10SM CLR 16/M03 A3010 2000 26 2600 340/15G21 RMK AO2 T01611033
03812KAVL AVL20160403143011604/03/16 14:30:31  5-MIN KAVL 031930Z AUTO 33011G21KT 10SM CLR 16/M03 A3010 2010 26 2600 330/11G21 RMK AO2 T01611033
03812KAVL AVL20160403143511604/03/16 14:35:31  5-MIN KAVL 031935Z AUTO 33015G18KT 10SM CLR 16/M03 A3009 2010 26 2600 340/15G18 RMK AO2 T01611033
03812KAVL AVL20160403144011604/03/16 14:40:31  5-MIN KAVL 031940Z AUTO 34017G21KT 10SM CLR 16/M03 A3009 2010 26 2600 340/17G21 RMK AO2 T01611033
03812KAVL AVL20160403144511604/03/16 14:45:31  5-MIN KAVL 031945Z AUTO 36014G21KT 10SM CLR 16/M04 A3009 2010 25 2600 360/14G21 RMK AO2 T01611039
03812KAVL AVL20160403145011204/03/16 14:50:31  5-MIN KAVL 031950Z 35013KT 10SM CLR 16/M04 A3009 2010 25 2600 360/13 RMK AO2 SLP178 T01611039
03812KAVL AVL20160403145511104/03/16 14:55:31  5-MIN KAVL 031955Z 34013G19KT 10SM CLR 16/M03 A3009 2020 26 2700 350/13G19 RMK AO2 T01611033
03812KAVL AVL20160403150011104/03/16 15:00:31  5-MIN KAVL 032000Z 33013G19KT 10SM CLR 16/M03 A3008 2020 26 2700 340/13G19 RMK AO2 T01611033
03812KAVL AVL20160403150511104/03/16 15:05:31  5-MIN KAVL 032005Z 35011G18KT 10SM CLR 17/M04 A3008 2020 24 2700 360/11G18 RMK AO2 T01671039
03812KAVL AVL20160403151010504/03/16 15:10:31  5-MIN KAVL 032010Z 36010KT 10SM CLR 17/M04 A3008 2020 24 2700 010/10 RMK AO2 T01671039
03812KAVL AVL20160403151511104/03/16 15:15:31  5-MIN KAVL 032015Z 34014G19KT 10SM CLR 17/M03 A3008 2020 24 2800 350/14G19 RMK AO2 T01721033
03812KAVL AVL20160403152011104/03/16 15:20:31  5-MIN KAVL 032020Z 35012G19KT 10SM CLR 17/M03 A3008 2020 25 2700 360/12G19 RMK AO2 T01671033
03812KAVL AVL20160403152510504/03/16 15:25:31  5-MIN KAVL 032025Z 34009KT 10SM CLR 17/M04 A3008 2020 24 2700 350/09 RMK AO2 T01671039
03812KAVL AVL20160403153010504/03/16 15:30:31  5-MIN KAVL 032030Z 36009KT 10SM CLR 17/M03 A3008 2020 24 2800 010/09 RMK AO2 T01721033
03812KAVL AVL20160403153510504/03/16 15:35:31  5-MIN KAVL 032035Z 34012KT 10SM CLR 17/M04 A3008 2020 24 2700 350/12 RMK AO2 T01671039
03812KAVL AVL20160403154010504/03/16 15:40:31  5-MIN KAVL 032040Z 35010KT 10SM CLR 17/M04 A3008 2020 24 2700 360/10 RMK AO2 T01671039
03812KAVL AVL20160403154510504/03/16 15:45:31  5-MIN KAVL 032045Z 36012KT 10SM CLR 17/M04 A3007 2030 23 2800 010/12 RMK AO2 T01721039
03812KAVL AVL20160403155012404/03/16 15:50:31  5-MIN KAVL 032050Z 01009G16KT 10SM CLR 17/M04 A3007 2030 23 2800 010/09G16 RMK AO2 SLP175 T01721039 50001
03812KAVL AVL20160403155511104/03/16 15:55:31  5-MIN KAVL 032055Z 36009G15KT 10SM CLR 17/M03 A3007 2030 25 2800 010/09G15 RMK AO2 T01721028
03812KAVL AVL20160403160010504/03/16 16:00:31  5-MIN KAVL 032100Z 36008KT 10SM CLR 17/M03 A3007 2030 24 2800 360/08 RMK AO2 T01721033
03812KAVL AVL20160403160510504/03/16 16:05:31  5-MIN KAVL 032105Z 35008KT 10SM CLR 17/M03 A3007 2030 24 2800 360/08 RMK AO2 T01721033
03812KAVL AVL20160403161010504/03/16 16:10:31  5-MIN KAVL 032110Z 35009KT 10SM CLR 18/M03 A3007 2030 24 2900 350/09 RMK AO2 T01781028
03812KAVL AVL20160403161510504/03/16 16:15:31  5-MIN KAVL 032115Z 36009KT 10SM CLR 18/M03 A3007 2030 23 2900 010/09 RMK AO2 T01781033
03812KAVL AVL20160403162011104/03/16 16:20:31  5-MIN KAVL 032120Z 34012G17KT 10SM CLR 18/M03 A3007 2030 23 2900 350/12G17 RMK AO2 T01781033
03812KAVL AVL20160403162511104/03/16 16:25:31  5-MIN KAVL 032125Z 33007G17KT 10SM CLR 17/M03 A3007 2030 24 2800 340/07G17 RMK AO2 T01721033
03812KAVL AVL20160403163010504/03/16 16:30:31  5-MIN KAVL 032130Z 33009KT 10SM CLR 17/M03 A3007 2030 25 2800 340/09 RMK AO2 T01721028
03812KAVL AVL20160403163510504/03/16 16:35:31  5-MIN KAVL 032135Z 35009KT 10SM CLR 17/M03 A3007 2030 24 2800 350/09 RMK AO2 T01721033
03812KAVL AVL20160403164010504/03/16 16:40:31  5-MIN KAVL 032140Z 34005KT 10SM CLR 17/M03 A3007 2030 24 2800 340/05 RMK AO2 T01721033
03812KAVL AVL20160403164511104/03/16 16:45:31  5-MIN KAVL 032145Z 36008G14KT 10SM CLR 18/M03 A3007 2030 23 2900 010/08G14 RMK AO2 T01781033
03812KAVL AVL20160403165011804/03/16 16:50:31  5-MIN KAVL 032150Z 35008G14KT 10SM CLR 18/M03 A3007 2030 24 2900 350/08G14 RMK AO2 SLP174 T01781028
03812KAVL AVL20160403165510504/03/16 16:55:31  5-MIN KAVL 032155Z 34008KT 10SM CLR 17/M03 A3007 2030 24 2800 350/08 RMK AO2 T01721033
03812KAVL AVL20160403170010504/03/16 17:00:31  5-MIN KAVL 032200Z VRB04KT 10SM CLR 18/M03 A3007 2030 23 2900 VRB/04 RMK AO2 T01781033
03812KAVL AVL20160403170509504/03/16 17:05:31  5-MIN KAVL 032205Z 10SM CLR 18/M03 A3007 2030 23 2900 M /M RMK AO2 T01781033
03812KAVL AVL20160403171010504/03/16 17:10:31  5-MIN KAVL 032210Z 35004KT 10SM CLR 18/M03 A3007 2030 24 2900 350/04 RMK AO2 T01781028
03812KAVL AVL20160403171510504/03/16 17:15:31  5-MIN KAVL 032215Z 35008KT 10SM CLR 18/M03 A3007 2030 24 2900 360/08 RMK AO2 T01781028
03812KAVL AVL20160403172010504/03/16 17:20:31  5-MIN KAVL 032220Z 01008KT 10SM CLR 18/M03 A3006 2040 23 2900 010/08 RMK AO2 T01781033
03812KAVL AVL20160403172510504/03/16 17:25:31  5-MIN KAVL 032225Z 36009KT 10SM CLR 18/M03 A3006 2040 23 2900 010/09 RMK AO2 T01781033
03812KAVL AVL20160403173010504/03/16 17:30:31  5-MIN KAVL 032230Z 03006KT 10SM CLR 17/M03 A3006 2040 24 2800 030/06 RMK AO2 T01721033
03812KAVL AVL20160403173510504/03/16 17:35:31  5-MIN KAVL 032235Z VRB06KT 10SM CLR 17/M03 A3006 2040 24 2800 VRB/06 RMK AO2 T01721033
03812KAVL AVL20160403174010504/03/16 17:40:31  5-MIN KAVL 032240Z 01006KT 10SM CLR 17/M03 A3006 2040 24 2800 020/06 RMK AO2 T01721033
03812KAVL AVL20160403174510504/03/16 17:45:31  5-MIN KAVL 032245Z 01007KT 10SM CLR 17/M03 A3006 2030 24 2800 010/07 RMK AO2 T01721033
03812KAVL AVL20160403175011204/03/16 17:50:31  5-MIN KAVL 032250Z 01004KT 10SM CLR 17/M03 A3007 2030 25 2800 020/04 RMK AO2 SLP175 T01721028
03812KAVL AVL20160403175510504/03/16 17:55:31  5-MIN KAVL 032255Z 36005KT 10SM CLR 17/M03 A3007 2030 25 2800 360/05 RMK AO2 T01721028
03812KAVL AVL20160403180010504/03/16 18:00:31  5-MIN KAVL 032300Z 36007KT 10SM CLR 17/M03 A3007 2030 24 2800 360/07 RMK AO2 T01721033
03812KAVL AVL20160403180510504/03/16 18:05:31  5-MIN KAVL 032305Z 35005KT 10SM CLR 17/M03 A3007 2030 25 2700 360/05 RMK AO2 T01671033
03812KAVL AVL20160403181010504/03/16 18:10:31  5-MIN KAVL 032310Z VRB05KT 10SM CLR 17/M03 A3007 2030 25 2700 VRB/05 RMK AO2 T01671033
03812KAVL AVL20160403181510504/03/16 18:15:31  5-MIN KAVL 032315Z 36005KT 10SM CLR 17/M03 A3007 2030 26 2700 010/05 RMK AO2 T01671028
03812KAVL AVL20160403182010504/03/16 18:20:31  5-MIN KAVL 032320Z 01006KT 10SM CLR 17/M03 A3007 2030 25 2700 010/06 RMK AO2 T01671033
03812KAVL AVL20160403182510504/03/16 18:25:31  5-MIN KAVL 032325Z 01005KT 10SM CLR 17/M03 A3007 2030 25 2700 010/05 RMK AO2 T01671033
03812KAVL AVL20160403183010504/03/16 18:30:31  5-MIN KAVL 032330Z 35004KT 10SM CLR 16/M03 A3007 2030 26 2700 360/04 RMK AO2 T01611033
03812KAVL AVL20160403183510504/03/16 18:35:31  5-MIN KAVL 032335Z 35005KT 10SM CLR 16/M03 A3008 2020 27 2700 360/05 RMK AO2 T01611028
03812KAVL AVL20160403184010504/03/16 18:40:31  5-MIN KAVL 032340Z 36004KT 10SM CLR 16/M03 A3008 2020 26 2700 010/04 RMK AO2 T01611033
03812KAVL AVL20160403184510504/03/16 18:45:31  5-MIN KAVL 032345Z 32004KT 10SM CLR 16/M03 A3008 2020 28 2600 320/04 RMK AO2 T01561028
03812KAVL AVL20160403185013004/03/16 18:50:31  5-MIN KAVL 032350Z 31005KT 10SM CLR 14/M01 A3008 2020 34 2500 320/05 RMK AO2 SLP183 T01441011 10178 20139 58014
03812KAVL AVL20160403185510504/03/16 18:55:31  5-MIN KAVL 032355Z 30004KT 10SM CLR 15/M01 A3008 2020 33 2500 310/04 RMK AO2 T01501011
03812KAVL AVL20160403190010504/03/16 19:00:31  5-MIN KAVL 040000Z 31004KT 10SM CLR 15/M02 A3008 2020 31 2500 320/04 RMK AO2 T01501017
03812KAVL AVL20160403190510504/03/16 19:05:31  5-MIN KAVL 040005Z 31003KT 10SM CLR 15/M02 A3009 2010 30 2500 310/03 RMK AO2 T01501022
03812KAVL AVL20160403191010504/03/16 19:10:31  5-MIN KAVL 040010Z 34003KT 10SM CLR 15/M02 A3009 2010 30 2500 340/03 RMK AO2 T01501022
03812KAVL AVL20160403191510504/03/16 19:15:31  5-MIN KAVL 040015Z 00000KT 10SM CLR 15/M02 A3009 2010 30 2500 000/00 RMK AO2 T01501022
03812KAVL AVL20160403192010504/03/16 19:20:31  5-MIN KAVL 040020Z 00000KT 10SM CLR 14/M02 A3009 2010 31 2500 000/00 RMK AO2 T01441022
03812KAVL AVL20160403192510504/03/16 19:25:31  5-MIN KAVL 040025Z 00000KT 10SM CLR 14/M02 A3009 2010 34 2400 000/00 RMK AO2 T01391017
03812KAVL AVL20160403193010504/03/16 19:30:31  5-MIN KAVL 040030Z 00000KT 10SM CLR 14/M02 A3009 2010 34 2400 000/00 RMK AO2 T01391017
03812KAVL AVL20160403193510504/03/16 19:35:31  5-MIN KAVL 040035Z 24003KT 10SM CLR 13/M01 A3009 2010 38 2300 250/03 RMK AO2 T01331006
03812KAVL AVL20160403194010404/03/16 19:40:31  5-MIN KAVL 040040Z 24004KT 10SM CLR 12/01 A3009 2010 48 2100 240/04 RMK AO2 T01170011
03812KAVL AVL20160403194510404/03/16 19:45:31  5-MIN KAVL 040045Z VRB03KT 10SM CLR 12/01 A3010 2010 46 2100 VRB/03 RMK AO2 T01170006
03812KAVL AVL20160403195011104/03/16 19:50:31  5-MIN KAVL 040050Z 18004KT 10SM CLR 12/01 A3010 2000 46 2100 190/04 RMK AO2 SLP191 T01170006
03812KAVL AVL20160403195510404/03/16 19:55:31  5-MIN KAVL 040055Z 26003KT 10SM CLR 12/01 A3010 2000 46 2100 260/03 RMK AO2 T01170006
03812KAVL AVL20160403200010404/03/16 20:00:31  5-MIN KAVL 040100Z 24003KT 10SM CLR 12/01 A3010 2000 46 2100 250/03 RMK AO2 T01170006
03812KAVL AVL20160403200510504/03/16 20:05:31  5-MIN KAVL 040105Z 27003KT 10SM CLR 12/M01 A3011 2000 41 2200 280/03 RMK AO2 T01221006
03812KAVL AVL20160403201010504/03/16 20:10:31  5-MIN KAVL 040110Z 00000KT 10SM CLR 12/M01 A3011 2000 39 2200 000/00 RMK AO2 T01221011
03812KAVL AVL20160403201510504/03/16 20:15:31  5-MIN KAVL 040115Z 00000KT 10SM CLR 12/M01 A3011 2000 41 2100 000/00 RMK AO2 T01171011
03812KAVL AVL20160403202010504/03/16 20:20:31  5-MIN KAVL 040120Z 22003KT 10SM CLR 12/M01 A3011 1990 39 2200 220/03 RMK AO2 T01221011
03812KAVL AVL20160403202510504/03/16 20:25:31  5-MIN KAVL 040125Z 19004KT 10SM CLR 13/M02 A3011 1990 36 2200 190/04 RMK AO2 T01281017
03812KAVL AVL20160403203010504/03/16 20:30:31  5-MIN KAVL 040130Z 00000KT 10SM CLR 12/M01 A3012 1990 41 2200 000/00 RMK AO2 T01221006
03812KAVL AVL20160403203510404/03/16 20:35:31  5-MIN KAVL 040135Z 00000KT 10SM CLR 12/00 A3012 1980 44 2100 000/00 RMK AO2 T01170000
03812KAVL AVL20160403204010404/03/16 20:40:31  5-MIN KAVL 040140Z 00000KT 10SM CLR 12/00 A3012 1980 44 2100 000/00 RMK AO2 T01170000
03812KAVL AVL20160403204510404/03/16 20:45:31  5-MIN KAVL 040145Z 00000KT 10SM CLR 11/00 A3012 1980 48 2000 000/00 RMK AO2 T01060000
03812KAVL AVL20160403205011104/03/16 20:50:31  5-MIN KAVL 040150Z 00000KT 10SM CLR 11/00 A3012 1980 46 2000 000/00 RMK AO2 SLP197 T01110000
03812KAVL AVL20160403205510404/03/16 20:55:31  5-MIN KAVL 040155Z 00000KT 10SM CLR 11/01 A3012 1980 50 2000 000/00 RMK AO2 T01060006
03812KAVL AVL20160403210010404/03/16 21:00:31  5-MIN KAVL 040200Z 00000KT 10SM CLR 11/01 A3012 1980 50 2000 000/00 RMK AO2 T01060006
03812KAVL AVL20160403210510404/03/16 21:05:31  5-MIN KAVL 040205Z 00000KT 10SM CLR 10/01 A3012 1980 52 1900 000/00 RMK AO2 T01000006
03812KAVL AVL20160403211010404/03/16 21:10:31  5-MIN KAVL 040210Z 00000KT 10SM CLR 10/01 A3013 1980 52 1900 000/00 RMK AO2 T01000006
03812KAVL AVL20160403211510404/03/16 21:15:31  5-MIN KAVL 040215Z 00000KT 10SM CLR 10/01 A3013 1980 52 1900 000/00 RMK AO2 T01000006
03812KAVL AVL20160403212010404/03/16 21:20:31  5-MIN KAVL 040220Z 00000KT 10SM CLR 10/01 A3013 1980 52 1900 000/00 RMK AO2 T01000006
03812KAVL AVL20160403212510404/03/16 21:25:31  5-MIN KAVL 040225Z 14003KT 10SM CLR 09/01 A3013 1980 56 1800 150/03 RMK AO2 T00890006
03812KAVL AVL20160403213010404/03/16 21:30:31  5-MIN KAVL 040230Z 13003KT 10SM CLR 09/01 A3013 1980 58 1800 140/03 RMK AO2 T00890011
03812KAVL AVL20160403213510404/03/16 21:35:31  5-MIN KAVL 040235Z 14003KT 10SM CLR 09/01 A3013 1980 56 1800 140/03 RMK AO2 T00940011
03812KAVL AVL20160403214010404/03/16 21:40:31  5-MIN KAVL 040240Z 00000KT 10SM CLR 09/01 A3013 1980 56 1800 000/00 RMK AO2 T00940011
03812KAVL AVL20160403214510404/03/16 21:45:31  5-MIN KAVL 040245Z 00000KT 10SM CLR 09/01 A3013 1970 53 1800 000/00 RMK AO2 T00940006
03812KAVL AVL20160403215012204/03/16 21:50:31  5-MIN KAVL 040250Z AUTO 00000KT 10SM CLR 09/01 A3013 1970 56 1800 000/00 RMK AO2 SLP200 T00940011 53003
03812KAVL AVL20160403215510904/03/16 21:55:31  5-MIN KAVL 040255Z AUTO 00000KT 10SM CLR 09/01 A3013 1970 53 1800 000/00 RMK AO2 T00940006
03812KAVL AVL20160403220010904/03/16 22:00:31  5-MIN KAVL 040300Z AUTO 00000KT 10SM CLR 09/01 A3013 1970 58 1700 000/00 RMK AO2 T00890011
03812KAVL AVL20160403220510904/03/16 22:05:31  5-MIN KAVL 040305Z AUTO 00000KT 10SM CLR 09/01 A3013 1970 58 1700 000/00 RMK AO2 T00890011
03812KAVL AVL20160403221010904/03/16 22:10:31  5-MIN KAVL 040310Z AUTO 00000KT 10SM CLR 09/01 A3013 1970 58 1700 000/00 RMK AO2 T00890011
03812KAVL AVL20160403221510904/03/16 22:15:31  5-MIN KAVL 040315Z AUTO 00000KT 10SM CLR 09/01 A3013 1970 58 1700 000/00 RMK AO2 T00890011
03812KAVL AVL20160403222010904/03/16 22:20:31  5-MIN KAVL 040320Z AUTO 00000KT 10SM CLR 08/01 A3013 1970 58 1700 000/00 RMK AO2 T00830006
03812KAVL AVL20160403222510904/03/16 22:25:31  5-MIN KAVL 040325Z AUTO 00000KT 10SM CLR 08/01 A3013 1970 58 1700 000/00 RMK AO2 T00830006
03812KAVL AVL20160403223010904/03/16 22:30:31  5-MIN KAVL 040330Z AUTO 00000KT 10SM CLR 08/00 A3013 1970 55 1700 000/00 RMK AO2 T00830000
03812KAVL AVL20160403223510904/03/16 22:35:31  5-MIN KAVL 040335Z AUTO 00000KT 10SM CLR 08/00 A3013 1970 55 1700 000/00 RMK AO2 T00830000
03812KAVL AVL20160403224010904/03/16 22:40:31  5-MIN KAVL 040340Z AUTO 00000KT 10SM CLR 08/00 A3013 1970 55 1700 000/00 RMK AO2 T00830000
03812KAVL AVL20160403224510904/03/16 22:45:31  5-MIN KAVL 040345Z AUTO 00000KT 10SM CLR 08/00 A3013 1980 55 1700 000/00 RMK AO2 T00830000
03812KAVL AVL20160403225011604/03/16 22:50:31  5-MIN KAVL 040350Z AUTO 00000KT 10SM CLR 08/01 A3013 1980 60 1600 000/00 RMK AO2 SLP198 T00780006
03812KAVL AVL20160403225510904/03/16 22:55:31  5-MIN KAVL 040355Z AUTO 00000KT 10SM CLR 08/01 A3013 1970 62 1600 000/00 RMK AO2 T00780011
03812KAVL AVL20160403230010904/03/16 23:00:31  5-MIN KAVL 040400Z AUTO 00000KT 10SM CLR 07/02 A3013 1970 70 1500 000/00 RMK AO2 T00670017
03812KAVL AVL20160403230510904/03/16 23:05:31  5-MIN KAVL 040405Z AUTO 00000KT 10SM CLR 07/02 A3013 1970 68 1600 000/00 RMK AO2 T00720017
03812KAVL AVL20160403231010904/03/16 23:10:31  5-MIN KAVL 040410Z AUTO 00000KT 10SM CLR 07/02 A3013 1970 70 1500 000/00 RMK AO2 T00670017
03812KAVL AVL20160403231510904/03/16 23:15:31  5-MIN KAVL 040415Z AUTO 00000KT 10SM CLR 07/02 A3013 1970 68 1600 000/00 RMK AO2 T00720017
03812KAVL AVL20160403232010904/03/16 23:20:31  5-MIN KAVL 040420Z AUTO 00000KT 10SM CLR 07/02 A3013 1980 70 1500 000/00 RMK AO2 T00670017
03812KAVL AVL20160403232510904/03/16 23:25:31  5-MIN KAVL 040425Z AUTO 00000KT 10SM CLR 07/01 A3013 1980 65 1600 000/00 RMK AO2 T00720011
03812KAVL AVL20160403233010904/03/16 23:30:31  5-MIN KAVL 040430Z AUTO 00000KT 10SM CLR 07/01 A3013 1980 65 1600 000/00 RMK AO2 T00720011
03812KAVL AVL20160403233510904/03/16 23:35:31  5-MIN KAVL 040435Z AUTO 00000KT 10SM CLR 06/02 A3013 1980 73 1400 000/00 RMK AO2 T00610017
03812KAVL AVL20160403234010904/03/16 23:40:31  5-MIN KAVL 040440Z AUTO 00000KT 10SM CLR 06/02 A3012 1980 73 1400 000/00 RMK AO2 T00610017
03812KAVL AVL20160403234510904/03/16 23:45:31  5-MIN KAVL 040445Z AUTO 00000KT 10SM CLR 06/02 A3012 1980 73 1400 000/00 RMK AO2 T00610017
03812KAVL AVL20160403235012604/03/16 23:50:31  5-MIN KAVL 040450Z AUTO 00000KT 10SM CLR 06/02 A3012 1980 73 1400 000/00 RMK AO2 SLP195 T00610017 401780022
03812KAVL AVL20160403235510904/03/16 23:55:31  5-MIN KAVL 040455Z AUTO 00000KT 10SM CLR 06/01 A3012 1980 73 1400 000/00 RMK AO2 T00560011
03812KAVL AVL20160404000010904/04/16 00:00:31  5-MIN KAVL 040500Z AUTO 00000KT 10SM CLR 06/01 A3012 1980 73 1400 000/00 RMK AO2 T00560011
03812KAVL AVL20160404000510904/04/16 00:05:31  5-MIN KAVL 040505Z AUTO 00000KT 10SM CLR 06/01 A3012 1990 73 1400 000/00 RMK AO2 T00560011
03812KAVL AVL20160404001010904/04/16 00:10:31  5-MIN KAVL 040510Z AUTO 00000KT 10SM CLR 06/01 A3012 1990 70 1400 000/00 RMK AO2 T00610011
03812KAVL AVL20160404001510904/04/16 00:15:31  5-MIN KAVL 040515Z AUTO 00000KT 10SM CLR 06/01 A3012 1990 73 1400 000/00 RMK AO2 T00560011
03812KAVL AVL20160404002010904/04/16 00:20:31  5-MIN KAVL 040520Z AUTO 00000KT 10SM CLR 06/01 A3012 1990 70 1400 000/00 RMK AO2 T00610011
03812KAVL AVL20160404002510904/04/16 00:25:31  5-MIN KAVL 040525Z AUTO 00000KT 10SM CLR 06/01 A3012 1990 73 1400 000/00 RMK AO2 T00560011
03812KAVL AVL20160404003010904/04/16 00:30:31  5-MIN KAVL 040530Z AUTO 00000KT 10SM CLR 06/01 A3012 1990 73 1400 000/00 RMK AO2 T00560011
03812KAVL AVL20160404003510904/04/16 00:35:31  5-MIN KAVL 040535Z AUTO 00000KT 10SM CLR 06/01 A3012 1990 70 1400 000/00 RMK AO2 T00610011
03812KAVL AVL20160404004010904/04/16 00:40:31  5-MIN KAVL 040540Z AUTO 00000KT 10SM CLR 06/01 A3011 1990 67 1400 000/00 RMK AO2 T00610006
03812KAVL AVL20160404004510904/04/16 00:45:31  5-MIN KAVL 040545Z AUTO 00000KT 10SM CLR 06/01 A3011 1990 70 1400 000/00 RMK AO2 T00560006
03812KAVL AVL20160404005013404/04/16 00:50:31  5-MIN KAVL 040550Z AUTO 00000KT 10SM CLR 06/01 A3011 1990 73 1400 000/00 RMK AO2 SLP190 T00560011 10150 20050 51016
03812KAVL AVL20160404005510904/04/16 00:55:31  5-MIN KAVL 040555Z AUTO 00000KT 10SM CLR 06/01 A3011 1990 73 1400 000/00 RMK AO2 T00560011
03812KAVL AVL20160404010010904/04/16 01:00:31  5-MIN KAVL 040600Z AUTO 00000KT 10SM CLR 05/01 A3011 2000 76 1300 000/00 RMK AO2 T00500011
03812KAVL AVL20160404010510904/04/16 01:05:31  5-MIN KAVL 040605Z AUTO 00000KT 10SM CLR 05/01 A3011 2000 76 1300 000/00 RMK AO2 T00500011
03812KAVL AVL20160404011010904/04/16 01:10:31  5-MIN KAVL 040610Z AUTO 00000KT 10SM CLR 04/01 A3011 2000 79 1200 000/00 RMK AO2 T00440011
03812KAVL AVL20160404011510904/04/16 01:15:31  5-MIN KAVL 040615Z AUTO 00000KT 10SM CLR 05/01 A3011 2000 76 1300 000/00 RMK AO2 T00500011
03812KAVL AVL20160404012010904/04/16 01:20:31  5-MIN KAVL 040620Z AUTO 00000KT 10SM CLR 05/01 A3011 2000 76 1300 000/00 RMK AO2 T00500011
03812KAVL AVL20160404012510904/04/16 01:25:31  5-MIN KAVL 040625Z AUTO 00000KT 10SM CLR 05/01 A3011 2000 76 1300 000/00 RMK AO2 T00500011
03812KAVL AVL20160404013010904/04/16 01:30:31  5-MIN KAVL 040630Z AUTO 31003KT 10SM CLR 05/01 A3011 2000 76 1300 320/03 RMK AO2 T00500011
03812KAVL AVL20160404013510904/04/16 01:35:31  5-MIN KAVL 040635Z AUTO 33005KT 10SM CLR 04/01 A3011 2000 79 1200 340/05 RMK AO2 T00390006
03812KAVL AVL20160404014010904/04/16 01:40:31  5-MIN KAVL 040640Z AUTO 33005KT 10SM CLR 04/01 A3010 2000 76 1200 340/05 RMK AO2 T00440006
03812KAVL AVL20160404014510904/04/16 01:45:31  5-MIN KAVL 040645Z AUTO 33005KT 10SM CLR 04/01 A3010 2000 82 1200 340/05 RMK AO2 T00390011
03812KAVL AVL20160404015011604/04/16 01:50:31  5-MIN KAVL 040650Z AUTO 32004KT 10SM CLR 04/01 A3010 2000 82 1200 330/04 RMK AO2 SLP188 T00390011
03812KAVL AVL20160404015510904/04/16 01:55:31  5-MIN KAVL 040655Z AUTO 33003KT 10SM CLR 04/01 A3010 2000 82 1200 340/03 RMK AO2 T00390011
03812KAVL AVL20160404020010904/04/16 02:00:31  5-MIN KAVL 040700Z AUTO 34004KT 10SM CLR 04/01 A3010 2000 79 1200 350/04 RMK AO2 T00440011
03812KAVL AVL20160404020510904/04/16 02:05:31  5-MIN KAVL 040705Z AUTO 35004KT 10SM CLR 04/01 A3010 2000 82 1200 350/04 RMK AO2 T00390011
03812KAVL AVL20160404021010904/04/16 02:10:31  5-MIN KAVL 040710Z AUTO 00000KT 10SM CLR 04/01 A3010 2000 76 1200 000/00 RMK AO2 T00440006
03812KAVL AVL20160404021510904/04/16 02:15:31  5-MIN KAVL 040715Z AUTO 00000KT 10SM CLR 04/01 A3010 2000 76 1200 000/00 RMK AO2 T00440006
03812KAVL AVL20160404022010904/04/16 02:20:31  5-MIN KAVL 040720Z AUTO 00000KT 10SM CLR 04/00 A3010 2000 73 1300 000/00 RMK AO2 T00440000
03812KAVL AVL20160404022510904/04/16 02:25:31  5-MIN KAVL 040725Z AUTO 33003KT 10SM CLR 04/01 A3010 2000 79 1200 340/03 RMK AO2 T00390006
03812KAVL AVL20160404023010904/04/16 02:30:31  5-MIN KAVL 040730Z AUTO 32003KT 10SM CLR 04/01 A3010 2000 79 1200 330/03 RMK AO2 T00390006
03812KAVL AVL20160404023510904/04/16 02:35:31  5-MIN KAVL 040735Z AUTO 00000KT 10SM CLR 03/01 A3010 2000 82 1100 000/00 RMK AO2 T00330006
03812KAVL AVL20160404024010904/04/16 02:40:31  5-MIN KAVL 040740Z AUTO 00000KT 10SM CLR 03/01 A3010 2000 85 1000 000/00 RMK AO2 T00280006
03812KAVL AVL20160404024510904/04/16 02:45:31  5-MIN KAVL 040745Z AUTO 00000KT 10SM CLR 03/01 A3010 2000 82 1100 000/00 RMK AO2 T00330006
03812KAVL AVL20160404025011604/04/16 02:50:31  5-MIN KAVL 040750Z AUTO 00000KT 10SM CLR 03/01 A3009 2010 82 1100 000/00 RMK AO2 SLP184 T00330006
03812KAVL AVL20160404025510904/04/16 02:55:31  5-MIN KAVL 040755Z AUTO 00000KT 10SM CLR 03/01 A3009 2010 82 1100 000/00 RMK AO2 T00330006
03812KAVL AVL20160404030010904/04/16 03:00:31  5-MIN KAVL 040800Z AUTO 00000KT 10SM CLR 03/01 A3009 2010 85 1100 000/00 RMK AO2 T00280006
03812KAVL AVL20160404030510904/04/16 03:05:31  5-MIN KAVL 040805Z AUTO 00000KT 10SM CLR 03/00 A3009 2010 82 1100 000/00 RMK AO2 T00280000
03812KAVL AVL20160404031010904/04/16 03:10:31  5-MIN KAVL 040810Z AUTO 00000KT 10SM CLR 03/00 A3009 2010 82 1100 000/00 RMK AO2 T00280000
03812KAVL AVL20160404031510904/04/16 03:15:31  5-MIN KAVL 040815Z AUTO 00000KT 10SM CLR 03/01 A3009 2010 82 1100 000/00 RMK AO2 T00330006
03812KAVL AVL20160404032010904/04/16 03:20:31  5-MIN KAVL 040820Z AUTO 00000KT 10SM CLR 03/01 A3009 2010 82 1100 000/00 RMK AO2 T00330006
03812KAVL AVL20160404032510904/04/16 03:25:31  5-MIN KAVL 040825Z AUTO 32004KT 10SM CLR 03/01 A3009 2010 82 1100 330/04 RMK AO2 T00330006
03812KAVL AVL20160404033010904/04/16 03:30:31  5-MIN KAVL 040830Z AUTO 33004KT 10SM CLR 03/00 A3009 2010 82 1100 340/04 RMK AO2 T00280000
03812KAVL AVL20160404033510904/04/16 03:35:31  5-MIN KAVL 040835Z AUTO 33004KT 10SM CLR 03/00 A3009 2010 82 1100 340/04 RMK AO2 T00280000
03812KAVL AVL20160404034010904/04/16 03:40:31  5-MIN KAVL 040840Z AUTO 32003KT 10SM CLR 03/00 A3009 2010 82 1100 330/03 RMK AO2 T00280000
03812KAVL AVL20160404034510904/04/16 03:45:31  5-MIN KAVL 040845Z AUTO 32004KT 10SM CLR 03/00 A3009 2010 82 1100 330/04 RMK AO2 T00280000
03812KAVL AVL20160404035012204/04/16 03:50:31  5-MIN KAVL 040850Z AUTO 34005KT 10SM CLR 03/00 A3009 2010 82 1100 350/05 RMK AO2 SLP183 T00280000 58007
03812KAVL AVL20160404035510904/04/16 03:55:31  5-MIN KAVL 040855Z AUTO 34005KT 10SM CLR 02/00 A3009 2010 85 1000 350/05 RMK AO2 T00220000
03812KAVL AVL20160404040010904/04/16 04:00:31  5-MIN KAVL 040900Z AUTO 33006KT 10SM CLR 02/00 A3009 2010 85 1000 330/06 RMK AO2 T00220000
03812KAVL AVL20160404040510904/04/16 04:05:31  5-MIN KAVL 040905Z AUTO 32004KT 10SM CLR 02/00 A3009 2010 85 1000 320/04 RMK AO2 T00220000
03812KAVL AVL20160404041010904/04/16 04:10:31  5-MIN KAVL 040910Z AUTO 34003KT 10SM CLR 03/01 A3009 2010 85 1100 350/03 RMK AO2 T00280006
03812KAVL AVL20160404041510904/04/16 04:15:31  5-MIN KAVL 040915Z AUTO 00000KT 10SM CLR 03/00 A3009 2010 82 1100 000/00 RMK AO2 T00280000
03812KAVL AVL20160404042010904/04/16 04:20:31  5-MIN KAVL 040920Z AUTO 30003KT 10SM CLR 03/00 A3009 2010 82 1100 310/03 RMK AO2 T00280000
03812KAVL AVL20160404042510904/04/16 04:25:31  5-MIN KAVL 040925Z AUTO 32004KT 10SM CLR 02/00 A3009 2010 85 1000 330/04 RMK AO2 T00220000
03812KAVL AVL20160404043010904/04/16 04:30:31  5-MIN KAVL 040930Z AUTO 34004KT 10SM CLR 02/00 A3009 2010 85 1000 350/04 RMK AO2 T00220000
03812KAVL AVL20160404043510904/04/16 04:35:31  5-MIN KAVL 040935Z AUTO 33005KT 10SM CLR 03/00 A3009 2010 82 1100 340/05 RMK AO2 T00280000
03812KAVL AVL20160404044011004/04/16 04:40:31  5-MIN KAVL 040940Z AUTO 34005KT 10SM CLR 03/M01 A3009 2010 79 1100 340/05 RMK AO2 T00281006
03812KAVL AVL20160404044511004/04/16 04:45:31  5-MIN KAVL 040945Z AUTO 00000KT 10SM CLR 03/M01 A3009 2010 79 1100 000/00 RMK AO2 T00281006
03812KAVL AVL20160404045011604/04/16 04:50:31  5-MIN KAVL 040950Z AUTO 35003KT 10SM CLR 03/00 A3010 2010 79 1100 360/03 RMK AO2 SLP184 T00330000
03812KAVL AVL20160404045511004/04/16 04:55:31  5-MIN KAVL 040955Z AUTO 33005KT 10SM CLR 03/M01 A3010 2010 79 1000 340/05 RMK AO2 T00281006
03812KAVL AVL20160404050010904/04/16 05:00:31  5-MIN KAVL 041000Z AUTO 32004KT 10SM CLR 02/00 A3010 2000 85 1000 320/04 RMK AO2 T00220000
03812KAVL AVL20160404050511004/04/16 05:05:31  5-MIN KAVL 041005Z AUTO VRB04KT 10SM CLR 02/M01 A3010 2000 82 1000 VRB/04 RMK AO2 T00221006
03812KAVL AVL20160404051011004/04/16 05:10:31  5-MIN KAVL 041010Z AUTO 31004KT 10SM CLR 02/M01 A3010 2000 82 1000 310/04 RMK AO2 T00221006
03812KAVL AVL20160404051510504/04/16 05:15:31  5-MIN KAVL 041015Z 30003KT 10SM CLR 02/M01 A3010 2000 82 1000 300/03 RMK AO2 T00221006
03812KAVL AVL20160404052010504/04/16 05:20:31  5-MIN KAVL 041020Z 00000KT 10SM CLR 02/M01 A3010 2010 82 1000 000/00 RMK AO2 T00221006
03812KAVL AVL20160404052510504/04/16 05:25:31  5-MIN KAVL 041025Z 00000KT 10SM CLR 02/M01 A3010 2000 82 1000 000/00 RMK AO2 T00221006
03812KAVL AVL20160404053010404/04/16 05:30:31  5-MIN KAVL 041030Z 00000KT 10SM CLR 02/00 A3010 2000 85 1000 000/00 RMK AO2 T00220000
03812KAVL AVL20160404053510504/04/16 05:35:31  5-MIN KAVL 041035Z 00000KT 10SM CLR 02/M01 A3010 2000 82 1000 000/00 RMK AO2 T00221006
03812KAVL AVL20160404054010404/04/16 05:40:31  5-MIN KAVL 041040Z 00000KT 10SM CLR 02/M01 A3010 2000 85 900 000/00 RMK AO2 T00171006
03812KAVL AVL20160404054510404/04/16 05:45:31  5-MIN KAVL 041045Z 00000KT 10SM CLR 01/M01 A3010 2000 89 800 000/00 RMK AO2 T00111006
03812KAVL AVL20160404055011104/04/16 05:50:31  5-MIN KAVL 041050Z 00000KT 10SM CLR 02/M01 A3010 2000 85 900 000/00 RMK AO2 SLP189 T00171006
03812KAVL AVL20160404055510404/04/16 05:55:31  5-MIN KAVL 041055Z 00000KT 10SM CLR 02/M01 A3011 2000 85 900 000/00 RMK AO2 T00171006
03812KAVL AVL20160404060010404/04/16 06:00:31  5-MIN KAVL 041100Z 00000KT 10SM CLR 02/00 A3010 2000 85 1000 000/00 RMK AO2 T00220000
03812KAVL AVL20160404060510404/04/16 06:05:31  5-MIN KAVL 041105Z 00000KT 10SM CLR 03/00 A3010 2000 82 1000 000/00 RMK AO2 T00280000
03812KAVL AVL20160404061010404/04/16 06:10:31  5-MIN KAVL 041110Z 00000KT 10SM CLR 03/00 A3010 2000 82 1000 000/00 RMK AO2 T00280000
03812KAVL AVL20160404061510404/04/16 06:15:31  5-MIN KAVL 041115Z 23003KT 10SM CLR 02/M01 A3010 2000 85 900 240/03 RMK AO2 T00171006
03812KAVL AVL20160404062010404/04/16 06:20:31  5-MIN KAVL 041120Z 00000KT 10SM CLR 01/M01 A3010 2000 89 800 000/00 RMK AO2 T00111006
03812KAVL AVL20160404062510404/04/16 06:25:31  5-MIN KAVL 041125Z 00000KT 10SM CLR 01/M01 A3011 2000 89 800 000/00 RMK AO2 T00111006
03812KAVL AVL20160404063010404/04/16 06:30:31  5-MIN KAVL 041130Z 00000KT 10SM CLR 01/M01 A3011 2000 89 800 000/00 RMK AO2 T00111006
03812KAVL AVL20160404063510404/04/16 06:35:31  5-MIN KAVL 041135Z 00000KT 10SM CLR 02/M01 A3011 1990 85 900 000/00 RMK AO2 T00171006
03812KAVL AVL20160404064010504/04/16 06:40:31  5-MIN KAVL 041140Z 00000KT 10SM CLR 02/M01 A3011 1990 82 1000 000/00 RMK AO2 T00221006
03812KAVL AVL20160404064510404/04/16 06:45:31  5-MIN KAVL 041145Z 23003KT 10SM CLR 02/00 A3011 1990 85 1000 240/03 RMK AO2 T00220000
03812KAVL AVL20160404065012804/04/16 06:50:31  5-MIN KAVL 041150Z 20003KT 10SM CLR 01/00 A3011 1990 92 800 210/03 RMK AO2 SLP193 T00110000 10056 20011 56006
03812KAVL AVL20160404065510404/04/16 06:55:31  5-MIN KAVL 041155Z 00000KT 10SM CLR 02/00 A3011 1990 85 1000 000/00 RMK AO2 T00220000
03812KAVL AVL20160404070010404/04/16 07:00:31  5-MIN KAVL 041200Z 00000KT 10SM CLR 02/01 A3011 1990 89 1000 000/00 RMK AO2 T00220006
03812KAVL AVL20160404070510404/04/16 07:05:31  5-MIN KAVL 041205Z 00000KT 10SM CLR 03/01 A3011 1990 85 1000 000/00 RMK AO2 T00280006
03812KAVL AVL20160404071010404/04/16 07:10:31  5-MIN KAVL 041210Z 00000KT 10SM CLR 03/01 A3011 1990 85 1000 000/00 RMK AO2 T00280006
03812KAVL AVL20160404071510404/04/16 07:15:31  5-MIN KAVL 041215Z 00000KT 10SM CLR 03/01 A3011 1990 85 1000 000/00 RMK AO2 T00280006
03812KAVL AVL20160404072010404/04/16 07:20:31  5-MIN KAVL 041220Z 00000KT 10SM CLR 04/01 A3012 1990 79 1200 000/00 RMK AO2 T00390006
03812KAVL AVL20160404072510404/04/16 07:25:31  5-MIN KAVL 041225Z 35003KT 10SM CLR 04/01 A3012 1990 76 1200 350/03 RMK AO2 T00440006
03812KAVL AVL20160404073010404/04/16 07:30:31  5-MIN KAVL 041230Z 33005KT 10SM CLR 06/01 A3012 1990 70 1400 340/05 RMK AO2 T00560006
03812KAVL AVL20160404073510404/04/16 07:35:31  5-MIN KAVL 041235Z 34005KT 10SM CLR 06/01 A3012 1990 70 1400 340/05 RMK AO2 T00560006
03812KAVL AVL20160404074010404/04/16 07:40:31  5-MIN KAVL 041240Z 34004KT 10SM CLR 06/01 A3011 1990 67 1400 340/04 RMK AO2 T00610006
03812KAVL AVL20160404074510404/04/16 07:45:31  5-MIN KAVL 041245Z 34004KT 10SM CLR 06/01 A3011 1990 67 1400 340/04 RMK AO2 T00610006
03812KAVL AVL20160404075011104/04/16 07:50:31  5-MIN KAVL 041250Z 00000KT 10SM CLR 07/01 A3011 1990 65 1500 000/00 RMK AO2 SLP192 T00670006
03812KAVL AVL20160404075510404/04/16 07:55:31  5-MIN KAVL 041255Z 33003KT 10SM CLR 07/01 A3011 1990 65 1500 340/03 RMK AO2 T00670006
03812KAVL AVL20160404080010404/04/16 08:00:31  5-MIN KAVL 041300Z 00000KT 10SM CLR 07/01 A3011 1990 65 1600 000/00 RMK AO2 T00720011
03812KAVL AVL20160404080510404/04/16 08:05:31  5-MIN KAVL 041305Z 00000KT 10SM CLR 07/01 A3011 1990 65 1600 000/00 RMK AO2 T00720011
03812KAVL AVL20160404081010404/04/16 08:10:31  5-MIN KAVL 041310Z 00000KT 10SM CLR 08/02 A3011 1990 65 1600 000/00 RMK AO2 T00780017
03812KAVL AVL20160404081510404/04/16 08:15:31  5-MIN KAVL 041315Z 34003KT 10SM CLR 08/01 A3011 1990 60 1700 340/03 RMK AO2 T00830011
03812KAVL AVL20160404082010404/04/16 08:20:31  5-MIN KAVL 041320Z 34005KT 10SM CLR 09/01 A3011 1990 58 1800 340/05 RMK AO2 T00890011
03812KAVL AVL20160404082510404/04/16 08:25:31  5-MIN KAVL 041325Z 34005KT 10SM CLR 09/01 A3011 1990 56 1800 350/05 RMK AO2 T00940011
03812KAVL AVL20160404083010404/04/16 08:30:31  5-MIN KAVL 041330Z 32005KT 10SM CLR 09/01 A3011 1990 56 1800 320/05 RMK AO2 T00940011
03812KAVL AVL20160404083510404/04/16 08:35:31  5-MIN KAVL 041335Z 32004KT 10SM CLR 09/02 A3011 2000 58 1800 320/04 RMK AO2 T00940017
03812KAVL AVL20160404084010404/04/16 08:40:31  5-MIN KAVL 041340Z 31005KT 10SM CLR 10/01 A3011 2000 54 1900 310/05 RMK AO2 T01000011
03812KAVL AVL20160404084510404/04/16 08:45:31  5-MIN KAVL 041345Z 34004KT 10SM CLR 10/02 A3011 2000 56 1900 340/04 RMK AO2 T01000017
03812KAVL AVL20160404085011104/04/16 08:50:31  5-MIN KAVL 041350Z 34004KT 10SM CLR 11/01 A3010 2000 50 2000 350/04 RMK AO2 SLP186 T01110011
03812KAVL AVL20160404085510404/04/16 08:55:31  5-MIN KAVL 041355Z 35004KT 10SM CLR 12/01 A3010 2000 48 2100 350/04 RMK AO2 T01170011
03812KAVL AVL20160404090010404/04/16 09:00:31  5-MIN KAVL 041400Z 34004KT 10SM CLR 12/01 A3010 2000 44 2200 350/04 RMK AO2 T01220006
03812KAVL AVL20160404090510404/04/16 09:05:31  5-MIN KAVL 041405Z 34003KT 10SM CLR 13/01 A3010 2000 44 2200 350/03 RMK AO2 T01280011
03812KAVL AVL20160404091010404/04/16 09:10:31  5-MIN KAVL 041410Z 32003KT 10SM CLR 13/01 A3010 2000 43 2200 330/03 RMK AO2 T01280006
03812KAVL AVL20160404091510404/04/16 09:15:31  5-MIN KAVL 041415Z 26003KT 10SM CLR 13/01 A3010 2000 44 2200 270/03 RMK AO2 T01280011
03812KAVL AVL20160404092010404/04/16 09:20:31  5-MIN KAVL 041420Z 28004KT 10SM CLR 13/01 A3010 2000 43 2300 290/04 RMK AO2 T01330011
03812KAVL AVL20160404092510404/04/16 09:25:31  5-MIN KAVL 041425Z VRB03KT 10SM CLR 13/01 A3010 2000 43 2300 VRB/03 RMK AO2 T01330011
03812KAVL AVL20160404093010404/04/16 09:30:31  5-MIN KAVL 041430Z 18006KT 10SM CLR 13/02 A3010 2000 48 2200 180/06 RMK AO2 T01280022
03812KAVL AVL20160404093510404/04/16 09:35:31  5-MIN KAVL 041435Z 17006KT 10SM CLR 13/03 A3010 2000 48 2300 180/06 RMK AO2 T01330028
03812KAVL AVL20160404094010404/04/16 09:40:31  5-MIN KAVL 041440Z 16004KT 10SM CLR 13/02 A3010 2000 46 2300 170/04 RMK AO2 T01330022
03812KAVL AVL20160404094510404/04/16 09:45:31  5-MIN KAVL 041445Z 20004KT 10SM CLR 13/02 A3010 2010 46 2300 200/04 RMK AO2 T01330022
03812KAVL AVL20160404095011704/04/16 09:50:31  5-MIN KAVL 041450Z 18005KT 10SM CLR 14/03 A3010 2010 47 2400 190/05 RMK AO2 SLP182 T01390028 52007
03812KAVL AVL20160404095510404/04/16 09:55:31  5-MIN KAVL 041455Z 20005KT 10SM CLR 14/02 A3009 2010 43 2400 210/05 RMK AO2 T01440022
03812KAVL AVL20160404100010404/04/16 10:00:31  5-MIN KAVL 041500Z 17006KT 10SM CLR 14/02 A3009 2010 43 2500 180/06 RMK AO2 T01440022
03812KAVL AVL20160404100510404/04/16 10:05:31  5-MIN KAVL 041505Z 21004KT 10SM CLR 15/02 A3009 2010 40 2500 220/04 RMK AO2 T01500017
03812KAVL AVL20160404101010404/04/16 10:10:31  5-MIN KAVL 041510Z 20005KT 10SM CLR 16/01 A3009 2010 37 2600 210/05 RMK AO2 T01560011
03812KAVL AVL20160404101510404/04/16 10:15:31  5-MIN KAVL 041515Z VRB03KT 10SM CLR 16/00 A3009 2010 34 2600 VRB/03 RMK AO2 T01560000
03812KAVL AVL20160404102010404/04/16 10:20:31  5-MIN KAVL 041520Z VRB04KT 10SM CLR 16/01 A3009 2010 34 2700 VRB/04 RMK AO2 T01610006
03812KAVL AVL20160404102510404/04/16 10:25:31  5-MIN KAVL 041525Z 00000KT 10SM CLR 16/00 A3008 2020 33 2700 000/00 RMK AO2 T01610000
03812KAVL AVL20160404103010404/04/16 10:30:31  5-MIN KAVL 041530Z 00000KT 10SM CLR 17/01 A3008 2020 33 2700 000/00 RMK AO2 T01670006
03812KAVL AVL20160404103510404/04/16 10:35:31  5-MIN KAVL 041535Z VRB03KT 10SM CLR 17/00 A3008 2020 32 2700 VRB/03 RMK AO2 T01670000
03812KAVL AVL20160404104010504/04/16 10:40:31  5-MIN KAVL 041540Z 00000KT 10SM CLR 17/M01 A3008 2020 28 2800 000/00 RMK AO2 T01721011
03812KAVL AVL20160404104510504/04/16 10:45:31  5-MIN KAVL 041545Z 21004KT 10SM CLR 17/M01 A3008 2020 29 2800 220/04 RMK AO2 T01721006
03812KAVL AVL20160404105011104/04/16 10:50:31  5-MIN KAVL 041550Z VRB03KT 10SM CLR 18/00 A3008 2020 30 2900 VRB/03 RMK AO2 SLP174 T01780000
03812KAVL AVL20160404105510504/04/16 10:55:31  5-MIN KAVL 041555Z VRB03KT 10SM CLR 18/M01 A3007 2030 28 2900 VRB/03 RMK AO2 T01781006
03812KAVL AVL20160404110010504/04/16 11:00:31  5-MIN KAVL 041600Z 14004KT 10SM CLR 18/M01 A3007 2030 27 2900 150/04 RMK AO2 T01781011
03812KAVL AVL20160404110510404/04/16 11:05:31  5-MIN KAVL 041605Z 23005KT 10SM CLR 18/00 A3007 2030 29 2900 230/05 RMK AO2 T01830000
03812KAVL AVL20160404111010504/04/16 11:10:31  5-MIN KAVL 041610Z 00000KT 10SM CLR 18/M01 A3007 2030 26 2900 000/00 RMK AO2 T01831011
03812KAVL AVL20160404111510504/04/16 11:15:31  5-MIN KAVL 041615Z 16007KT 10SM CLR 19/M01 A3006 2040 25 3000 170/07 RMK AO2 T01891011
03812KAVL AVL20160404112010504/04/16 11:20:31  5-MIN KAVL 041620Z 16005KT 10SM CLR 18/M01 A3006 2040 26 2900 160/05 RMK AO2 T01831011
03812KAVL AVL20160404112510504/04/16 11:25:31  5-MIN KAVL 041625Z VRB04KT 10SM CLR 19/M01 A3006 2040 25 3000 VRB/04 RMK AO2 T01891011
03812KAVL AVL20160404113010504/04/16 11:30:31  5-MIN KAVL 041630Z VRB03KT 10SM CLR 19/M01 A3006 2040 25 3000 VRB/03 RMK AO2 T01891011
03812KAVL AVL20160404113510504/04/16 11:35:31  5-MIN KAVL 041635Z VRB03KT 10SM CLR 19/M02 A3005 2040 23 3000 VRB/03 RMK AO2 T01891022
03812KAVL AVL20160404114009504/04/16 11:40:31  5-MIN KAVL 041640Z 10SM CLR 19/M02 A3005 2050 23 3000 M /M RMK AO2 T01891022
03812KAVL AVL20160404114510504/04/16 11:45:31  5-MIN KAVL 041645Z VRB05KT 10SM CLR 19/M02 A3005 2050 23 3100 VRB/05 RMK AO2 T01941022
03812KAVL AVL20160404115011204/04/16 11:50:31  5-MIN KAVL 041650Z 00000KT 10SM CLR 19/M03 A3004 2050 22 3100 000/00 RMK AO2 SLP162 T01941028
03812KAVL AVL20160404115509504/04/16 11:55:31  5-MIN KAVL 041655Z 10SM CLR 20/M03 A3004 2060 21 3200 M /M RMK AO2 T02001028
03812KAVL AVL20160404120010504/04/16 12:00:31  5-MIN KAVL 041700Z VRB06KT 10SM CLR 20/M03 A3004 2060 21 3200 VRB/06 RMK AO2 T02001028
03812KAVL AVL20160404120510504/04/16 12:05:31  5-MIN KAVL 041705Z 18006KT 10SM CLR 20/M02 A3004 2060 22 3200 180/06 RMK AO2 T02001022
03812KAVL AVL20160404121010504/04/16 12:10:31  5-MIN KAVL 041710Z VRB04KT 10SM CLR 21/M02 A3003 2060 21 3200 VRB/04 RMK AO2 T02061022
03812KAVL AVL20160404121510504/04/16 12:15:31  5-MIN KAVL 041715Z 00000KT 10SM CLR 21/M03 A3003 2070 20 3200 000/00 RMK AO2 T02061028
03812KAVL AVL20160404122010504/04/16 12:20:31  5-MIN KAVL 041720Z VRB04KT 10SM CLR 21/M03 A3003 2070 20 3200 VRB/04 RMK AO2 T02061028
03812KAVL AVL20160404122510504/04/16 12:25:31  5-MIN KAVL 041725Z VRB04KT 10SM CLR 21/M03 A3002 2070 20 3300 VRB/04 RMK AO2 T02111028
03812KAVL AVL20160404123010504/04/16 12:30:31  5-MIN KAVL 041730Z 17006KT 10SM CLR 21/M02 A3002 2080 20 3300 170/06 RMK AO2 T02111022
03812KAVL AVL20160404123510504/04/16 12:35:31  5-MIN KAVL 041735Z VRB04KT 10SM CLR 21/M02 A3002 2080 21 3300 VRB/04 RMK AO2 T02111017
03812KAVL AVL20160404124009504/04/16 12:40:31  5-MIN KAVL 041740Z 10SM CLR 22/M02 A3001 2080 20 3400 M /M RMK AO2 T02171017
03812KAVL AVL20160404124510504/04/16 12:45:31  5-MIN KAVL 041745Z 17005KT 10SM CLR 21/M03 A3001 2080 20 3300 180/05 RMK AO2 T02111028
03812KAVL AVL20160404125013004/04/16 12:50:31  5-MIN KAVL 041750Z 00000KT 10SM CLR 22/M02 A3001 2080 20 3400 000/00 RMK AO2 SLP149 T02221017 10222 20022 58005
03812KAVL AVL20160404125510504/04/16 12:55:31  5-MIN KAVL 041755Z 00000KT 10SM CLR 22/M02 A3001 2090 20 3400 000/00 RMK AO2 T02221017
03812KAVL AVL20160404130010504/04/16 13:00:31  5-MIN KAVL 041800Z 12006KT 10SM CLR 22/M03 A3000 2090 18 3400 130/06 RMK AO2 T02221028
03812KAVL AVL20160404130510504/04/16 13:05:31  5-MIN KAVL 041805Z 00000KT 10SM CLR 22/M02 A3000 2090 20 3400 000/00 RMK AO2 T02221017
03812KAVL AVL20160404131009504/04/16 13:10:31  5-MIN KAVL 041810Z 10SM CLR 23/M03 A3000 2090 18 3500 M /M RMK AO2 T02281028
03812KAVL AVL20160404131512104/04/16 13:15:31  5-MIN KAVL 041815Z VRB03KT 10SM -RA CLR 23/M06 A2999 2100 14 3500 VRB/03 RMK AO2 RAB12 P0000 T02281056
03812KAVL AVL20160404132012704/04/16 13:20:31  5-MIN KAVL 041820Z 23010G17KT 10SM -RA CLR 23/M03 A2999 2100 17 3600 240/10G17 RMK AO2 RAB12 P0000 T02331028
03812KAVL AVL20160404132514204/04/16 13:25:31  5-MIN KAVL 041825Z 29008G17KT 250V320 10SM CLR 23/M04 A2999 2100 16 3600 300/08G17 260V330 RMK AO2 RAB12E21 P0000 T02331039
03812KAVL AVL20160404133012604/04/16 13:30:31  5-MIN KAVL 041830Z 28014G17KT 10SM CLR 23/M04 A2999 2110 15 3600 280/14G17 RMK AO2 RAB12E21 P0000 T02331044
03812KAVL AVL20160404133512604/04/16 13:35:31  5-MIN KAVL 041835Z 29008G17KT 10SM CLR 23/M05 A2999 2110 14 3600 300/08G17 RMK AO2 RAB12E21 P0000 T02331050
03812KAVL AVL20160404134012604/04/16 13:40:31  5-MIN KAVL 041840Z 26010G16KT 10SM CLR 23/M04 A2998 2110 15 3600 270/10G16 RMK AO2 RAB12E21 P0000 T02331044
03812KAVL AVL20160404134512604/04/16 13:45:31  5-MIN KAVL 041845Z 25010G18KT 10SM CLR 23/M05 A2998 2110 14 3600 260/10G18 RMK AO2 RAB12E21 P0000 T02331050
03812KAVL AVL20160404135013304/04/16 13:50:31  5-MIN KAVL 041850Z 26013G18KT 10SM CLR 23/M04 A2998 2110 16 3600 260/13G18 RMK AO2 RAB12E21 SLP138 P0000 T02331039
03812KAVL AVL20160404135511104/04/16 13:55:31  5-MIN KAVL 041855Z 25015G18KT 10SM CLR 23/M04 A2997 2120 16 3600 250/15G18 RMK AO2 T02331039
03812KAVL AVL20160404140012704/04/16 14:00:31  5-MIN KAVL 041900Z 26012G18KT 230V290 10SM CLR 23/M04 A2997 2120 16 3600 260/12G18 240V300 RMK AO2 T02331039
03812KAVL AVL20160404140511104/04/16 14:05:31  5-MIN KAVL 041905Z 24013G22KT 10SM CLR 23/M04 A2997 2120 16 3600 250/13G22 RMK AO2 T02331039
03812KAVL AVL20160404141012704/04/16 14:10:31  5-MIN KAVL 041910Z 31007G22KT 250V350 10SM CLR 23/M03 A2997 2120 16 3600 320/07G22 260V360 RMK AO2 T02331033
03812KAVL AVL20160404141511604/04/16 14:15:31  5-MIN KAVL 041915Z AUTO 30008G14KT 10SM CLR 24/M02 A2997 2120 17 3700 310/08G14 RMK AO2 T02391022
03812KAVL AVL20160404142011604/04/16 14:20:31  5-MIN KAVL 041920Z AUTO 32009G14KT 10SM CLR 24/M02 A2997 2120 17 3700 320/09G14 RMK AO2 T02391022
03812KAVL AVL20160404142511004/04/16 14:25:31  5-MIN KAVL 041925Z AUTO 25006KT 10SM CLR 24/M03 A2997 2130 16 3700 260/06 RMK AO2 T02391028
03812KAVL AVL20160404143011604/04/16 14:30:31  5-MIN KAVL 041930Z AUTO 30009G14KT 10SM CLR 23/M03 A2997 2130 16 3600 310/09G14 RMK AO2 T02331033
03812KAVL AVL20160404143513204/04/16 14:35:31  5-MIN KAVL 041935Z AUTO 26008G14KT 220V290 10SM CLR 24/M02 A2996 2130 17 3700 260/08G14 230V300 RMK AO2 T02391022
03812KAVL AVL20160404144011604/04/16 14:40:31  5-MIN KAVL 041940Z AUTO 24015G20KT 10SM CLR 23/M04 A2996 2130 16 3600 250/15G20 RMK AO2 T02331039
03812KAVL AVL20160404144511604/04/16 14:45:31  5-MIN KAVL 041945Z AUTO 26013G21KT 10SM CLR 23/M04 A2996 2130 16 3600 270/13G21 RMK AO2 T02331039
03812KAVL AVL20160404145012304/04/16 14:50:31  5-MIN KAVL 041950Z AUTO 26014G21KT 10SM CLR 24/M03 A2995 2140 16 3700 270/14G21 RMK AO2 SLP129 T02391033
03812KAVL AVL20160404145513204/04/16 14:55:31  5-MIN KAVL 041955Z AUTO 24009G20KT 200V280 10SM CLR 23/M04 A2995 2140 16 3600 250/09G20 210V290 RMK AO2 T02331039
03812KAVL AVL20160404150013404/04/16 15:00:31  5-MIN KAVL 042000Z AUTO 25011G29KT 10SM CLR 23/M03 A2995 2140 16 3600 260/11G29 RMK AO2 PK WND 24029/1956 T02331033
03812KAVL AVL20160404150513404/04/16 15:05:31  5-MIN KAVL 042005Z AUTO 27010G29KT 10SM CLR 23/M04 A2995 2140 16 3600 280/10G29 RMK AO2 PK WND 24029/1956 T02331039
03812KAVL AVL20160404151013404/04/16 15:10:31  5-MIN KAVL 042010Z AUTO 29011G17KT 10SM CLR 23/M02 A2995 2140 18 3600 300/11G17 RMK AO2 PK WND 24029/1956 T02331022
03812KAVL AVL20160404151513404/04/16 15:15:31  5-MIN KAVL 042015Z AUTO 32015G19KT 10SM CLR 23/M02 A2995 2140 18 3600 320/15G19 RMK AO2 PK WND 24029/1956 T02331017
03812KAVL AVL20160404152016104/04/16 15:20:31  5-MIN KAVL 042020Z AUTO 29010G19KT 230V320 10SM CLR 23/M02 A2995 2140 18 3600 300/10G19 240V330 RMK AO2 PK WND 24029/1956 WSHFT 2005 T02331017
03812KAVL AVL20160404152514004/04/16 15:25:31  5-MIN KAVL 042025Z 28010G19KT 10SM CLR 24/M02 A2995 2140 18 3700 290/10G19 RMK AO2 PK WND 24029/1956 WSHFT 2005 T02391017
03812KAVL AVL20160404153014004/04/16 15:30:31  5-MIN KAVL 042030Z 30009G16KT 10SM CLR 24/M03 A2995 2140 16 3700 310/09G16 RMK AO2 PK WND 24029/1956 WSHFT 2005 T02391028
03812KAVL AVL20160404153514004/04/16 15:35:31  5-MIN KAVL 042035Z 31011G16KT 10SM CLR 23/M03 A2995 2140 17 3600 320/11G16 RMK AO2 PK WND 24029/1956 WSHFT 2005 T02331028
03812KAVL AVL20160404154013404/04/16 15:40:31  5-MIN KAVL 042040Z 29006KT 10SM CLR 23/M03 A2994 2150 16 3600 290/06 RMK AO2 PK WND 24029/1956 WSHFT 2005 T02331033
03812KAVL AVL20160404154514004/04/16 15:45:31  5-MIN KAVL 042045Z 33015G20KT 10SM CLR 24/M02 A2994 2150 17 3700 340/15G20 RMK AO2 PK WND 24029/1956 WSHFT 2005 T02391022
03812KAVL AVL20160404155015904/04/16 15:50:31  5-MIN KAVL 042050Z 33012G20KT 10SM CLR 23/M03 A2994 2150 17 3600 330/12G20 RMK AO2 PK WND 24029/1956 WSHFT 2005 SLP125 60000 T02331028 58027
03812KAVL AVL20160404155511104/04/16 15:55:31  5-MIN KAVL 042055Z 30011G19KT 10SM CLR 24/M02 A2994 2150 18 3700 300/11G19 RMK AO2 T02391017
03812KAVL AVL20160404160012704/04/16 16:00:31  5-MIN KAVL 042100Z 31008G18KT 250V350 10SM CLR 23/M02 A2994 2150 18 3600 320/08G18 260V360 RMK AO2 T02331022
03812KAVL AVL20160404160511104/04/16 16:05:31  5-MIN KAVL 042105Z 32008G18KT 10SM CLR 23/M02 A2993 2160 18 3600 330/08G18 RMK AO2 T02331022
03812KAVL AVL20160404161011104/04/16 16:10:31  5-MIN KAVL 042110Z 31011G16KT 10SM CLR 24/M02 A2993 2150 17 3700 310/11G16 RMK AO2 T02391022
03812KAVL AVL20160404161511104/04/16 16:15:31  5-MIN KAVL 042115Z 30013G17KT 10SM CLR 23/M02 A2993 2160 18 3600 300/13G17 RMK AO2 T02331017
03812KAVL AVL20160404162011104/04/16 16:20:31  5-MIN KAVL 042120Z 27009G17KT 10SM CLR 23/M03 A2993 2160 17 3600 280/09G17 RMK AO2 T02281033
03812KAVL AVL20160404162511104/04/16 16:25:31  5-MIN KAVL 042125Z 29010G14KT 10SM CLR 23/M03 A2993 2160 17 3600 300/10G14 RMK AO2 T02331028
03812KAVL AVL20160404163011104/04/16 16:30:31  5-MIN KAVL 042130Z 29011G17KT 10SM CLR 23/M03 A2993 2160 17 3600 300/11G17 RMK AO2 T02331028
03812KAVL AVL20160404163511104/04/16 16:35:31  5-MIN KAVL 042135Z VRB06G17KT 10SM CLR 23/M03 A2993 2160 17 3600 VRB/06G17 RMK AO2 T02281033
03812KAVL AVL20160404164011104/04/16 16:40:31  5-MIN KAVL 042140Z 33011G16KT 10SM CLR 23/M02 A2993 2160 18 3700 340/11G16 RMK AO2 T02331022
03812KAVL AVL20160404164511104/04/16 16:45:31  5-MIN KAVL 042145Z 31012G20KT 10SM CLR 23/M02 A2993 2160 18 3700 320/12G20 RMK AO2 T02331017
03812KAVL AVL20160404165013404/04/16 16:50:31  5-MIN KAVL 042150Z 32007G20KT 280V350 10SM CLR 23/M02 A2993 2160 19 3600 330/07G20 290V360 RMK AO2 SLP121 T02281017
03812KAVL AVL20160404165511104/04/16 16:55:31  5-MIN KAVL 042155Z 31010G15KT 10SM CLR 23/M02 A2993 2160 19 3600 320/10G15 RMK AO2 T02281017
03812KAVL AVL20160404170012704/04/16 17:00:31  5-MIN KAVL 042200Z 27014G19KT 230V300 10SM CLR 23/M02 A2993 2160 18 3600 270/14G19 240V310 RMK AO2 T02281022
03812KAVL AVL20160404170511104/04/16 17:05:31  5-MIN KAVL 042205Z 28011G19KT 10SM CLR 22/M02 A2993 2160 19 3500 290/11G19 RMK AO2 T02221022
03812KAVL AVL20160404171010504/04/16 17:10:31  5-MIN KAVL 042210Z 30011KT 10SM CLR 22/M03 A2993 2160 19 3500 310/11 RMK AO2 T02171028
03812KAVL AVL20160404171511104/04/16 17:15:31  5-MIN KAVL 042215Z 30013G18KT 10SM CLR 22/M03 A2993 2160 18 3500 310/13G18 RMK AO2 T02221028
03812KAVL AVL20160404172012904/04/16 17:20:31  5-MIN KAVL 042220Z 29011G26KT 10SM CLR 22/M03 A2993 2160 17 3500 300/11G26 RMK AO2 PK WND 30026/2217 T02221033
03812KAVL AVL20160404172512904/04/16 17:25:31  5-MIN KAVL 042225Z 31011G26KT 10SM CLR 22/M03 A2993 2160 18 3500 310/11G26 RMK AO2 PK WND 30026/2217 T02221028
03812KAVL AVL20160404173012304/04/16 17:30:31  5-MIN KAVL 042230Z 30013KT 10SM CLR 22/M03 A2993 2150 17 3500 300/13 RMK AO2 PK WND 30026/2217 T02221033
03812KAVL AVL20160404173513204/04/16 17:35:31  5-MIN KAVL 042235Z 29010G18KT 10SM FEW120 22/M03 A2993 2160 18 3500 290/10G18 RMK AO2 PK WND 30026/2217 T02221028
03812KAVL AVL20160404174013204/04/16 17:40:31  5-MIN KAVL 042240Z 30013G18KT 10SM FEW120 22/M03 A2993 2160 18 3500 300/13G18 RMK AO2 PK WND 30026/2217 T02221028
03812KAVL AVL20160404174512904/04/16 17:45:31  5-MIN KAVL 042245Z 30013G18KT 10SM CLR 22/M03 A2993 2160 18 3500 300/13G18 RMK AO2 PK WND 30026/2217 T02221028
03812KAVL AVL20160404175015204/04/16 17:50:31  5-MIN KAVL 042250Z 30009G17KT 260V320 10SM CLR 22/M03 A2994 2150 18 3500 300/09G17 270V330 RMK AO2 PK WND 30026/2217 SLP126 T02221028
03812KAVL AVL20160404175511104/04/16 17:55:31  5-MIN KAVL 042255Z 29007G17KT 10SM CLR 22/M02 A2994 2150 20 3500 300/07G17 RMK AO2 T02171022
03812KAVL AVL20160404180010504/04/16 18:00:31  5-MIN KAVL 042300Z 31010KT 10SM CLR 22/M02 A2994 2150 20 3500 310/10 RMK AO2 T02171022
03812KAVL AVL20160404180510804/04/16 18:05:31  5-MIN KAVL 042305Z 30005KT 10SM FEW100 21/M02 A2994 2150 20 3400 310/05 RMK AO2 T02111022
03812KAVL AVL20160404181010804/04/16 18:10:31  5-MIN KAVL 042310Z 28006KT 10SM FEW100 21/M02 A2994 2150 21 3400 290/06 RMK AO2 T02111017
03812KAVL AVL20160404181510804/04/16 18:15:31  5-MIN KAVL 042315Z 31009KT 10SM FEW100 21/M02 A2994 2150 21 3400 320/09 RMK AO2 T02111017
03812KAVL AVL20160404182013004/04/16 18:20:31  5-MIN KAVL 042320Z 30010G19KT 260V330 10SM FEW100 21/M02 A2994 2150 21 3400 300/10G19 270V340 RMK AO2 T02111017
03812KAVL AVL20160404182511404/04/16 18:25:31  5-MIN KAVL 042325Z 29009G19KT 10SM FEW100 21/M02 A2994 2150 21 3400 300/09G19 RMK AO2 T02111017
03812KAVL AVL20160404183011404/04/16 18:30:31  5-MIN KAVL 042330Z 29013G18KT 10SM SCT110 21/M02 A2994 2150 20 3400 290/13G18 RMK AO2 T02111022
03812KAVL AVL20160404183511404/04/16 18:35:31  5-MIN KAVL 042335Z 29008G18KT 10SM BKN110 21/M02 A2995 2140 21 3400 290/08G18 RMK AO2 T02111017
03812KAVL AVL20160404184010804/04/16 18:40:31  5-MIN KAVL 042340Z 28006KT 10SM BKN100 21/M02 A2995 2140 22 3300 290/06 RMK AO2 T02061017
03812KAVL AVL20160404184510804/04/16 18:45:31  5-MIN KAVL 042345Z 29007KT 10SM BKN100 21/M02 A2995 2140 22 3300 300/07 RMK AO2 T02061017
03812KAVL AVL20160404185014504/04/16 18:50:31  5-MIN KAVL 042350Z 30011G14KT 10SM BKN100 21/M02 A2995 2140 22 3300 310/11G14 RMK AO2 SLP133 60000 T02061017 10239 20206 56023
03812KAVL AVL20160404185511404/04/16 18:55:31  5-MIN KAVL 042355Z 29010G17KT 10SM BKN100 21/M02 A2995 2140 22 3300 290/10G17 RMK AO2 T02061017
03812KAVL AVL20160404190011404/04/16 19:00:31  5-MIN KAVL 050000Z 29009G17KT 10SM BKN100 21/M02 A2995 2140 22 3300 290/09G17 RMK AO2 T02061017
03812KAVL AVL20160404190513004/04/16 19:05:31  5-MIN KAVL 050005Z 29007G17KT 250V330 10SM BKN100 21/M02 A2995 2140 22 3300 300/07G17 260V340 RMK AO2 T02061017
03812KAVL AVL20160404191011404/04/16 19:10:31  5-MIN KAVL 050010Z 28012G17KT 10SM BKN100 21/M02 A2995 2140 22 3300 280/12G17 RMK AO2 T02061017
03812KAVL AVL20160404191510804/04/16 19:15:31  5-MIN KAVL 050015Z 30009KT 10SM BKN100 21/M02 A2996 2130 22 3300 300/09 RMK AO2 T02061017
03812KAVL AVL20160404192011404/04/16 19:20:31  5-MIN KAVL 050020Z 30008G17KT 10SM BKN095 21/M01 A2996 2130 23 3300 300/08G17 RMK AO2 T02061011
03812KAVL AVL20160404192511404/04/16 19:25:31  5-MIN KAVL 050025Z 29007G17KT 10SM SCT095 20/M01 A2996 2130 24 3200 290/07G17 RMK AO2 T02001011
03812KAVL AVL20160404193011404/04/16 19:30:31  5-MIN KAVL 050030Z 30013G17KT 10SM FEW095 20/M01 A2996 2130 24 3200 300/13G17 RMK AO2 T02001011
03812KAVL AVL20160404193511404/04/16 19:35:31  5-MIN KAVL 050035Z 29011G17KT 10SM FEW095 19/M01 A2996 2130 26 3200 300/11G17 RMK AO2 T01941006
03812KAVL AVL20160404194010804/04/16 19:40:31  5-MIN KAVL 050040Z 30008KT 10SM FEW095 19/M01 A2996 2130 26 3200 310/08 RMK AO2 T01941006
03812KAVL AVL20160404194511104/04/16 19:45:31  5-MIN KAVL 050045Z 29013G20KT 10SM CLR 19/M01 A2996 2130 26 3200 300/13G20 RMK AO2 T01941006
03812KAVL AVL20160404195011704/04/16 19:50:31  5-MIN KAVL 050050Z 32010G20KT 10SM CLR 19/00 A2996 2130 27 3200 320/10G20 RMK AO2 SLP134 T01940000
03812KAVL AVL20160404195510404/04/16 19:55:31  5-MIN KAVL 050055Z 30008KT 10SM CLR 19/01 A2996 2130 28 3200 310/08 RMK AO2 T01940006
03812KAVL AVL20160404200010704/04/16 20:00:31  5-MIN KAVL 050100Z 30009KT 10SM FEW085 19/00 A2997 2120 27 3200 310/09 RMK AO2 T01940000
03812KAVL AVL20160404200510704/04/16 20:05:31  5-MIN KAVL 050105Z VRB06KT 10SM FEW085 19/01 A2997 2130 29 3100 VRB/06 RMK AO2 T01890006
03812KAVL AVL20160404201012304/04/16 20:10:31  5-MIN KAVL 050110Z 29007KT 250V320 10SM FEW085 19/01 A2997 2120 29 3100 290/07 260V330 RMK AO2 T01890006
03812KAVL AVL20160404201510704/04/16 20:15:31  5-MIN KAVL 050115Z 30010KT 10SM FEW085 19/00 A2997 2120 27 3200 300/10 RMK AO2 T01940000
03812KAVL AVL20160404202010704/04/16 20:20:31  5-MIN KAVL 050120Z 29009KT 10SM FEW085 19/01 A2998 2120 28 3200 300/09 RMK AO2 T01940006
03812KAVL AVL20160404202510704/04/16 20:25:31  5-MIN KAVL 050125Z 29008KT 10SM FEW085 19/01 A2998 2110 29 3100 300/08 RMK AO2 T01890006
03812KAVL AVL20160404203010704/04/16 20:30:31  5-MIN KAVL 050130Z 31008KT 10SM FEW085 19/01 A2998 2110 29 3100 320/08 RMK AO2 T01890006
03812KAVL AVL20160404203510704/04/16 20:35:31  5-MIN KAVL 050135Z 31006KT 10SM SCT085 19/01 A2998 2110 30 3100 310/06 RMK AO2 T01890011
03812KAVL AVL20160404204010704/04/16 20:40:31  5-MIN KAVL 050140Z 30006KT 10SM BKN080 19/01 A2998 2110 30 3100 300/06 RMK AO2 T01890011
03812KAVL AVL20160404204510704/04/16 20:45:31  5-MIN KAVL 050145Z 30004KT 10SM BKN080 19/01 A2998 2110 30 3100 300/04 RMK AO2 T01890011
03812KAVL AVL20160404205011404/04/16 20:50:31  5-MIN KAVL 050150Z 30006KT 10SM BKN080 19/01 A2998 2110 30 3100 310/06 RMK AO2 SLP139 T01890011
03812KAVL AVL20160404205510704/04/16 20:55:31  5-MIN KAVL 050155Z 29004KT 10SM OVC080 19/02 A2998 2110 31 3100 300/04 RMK AO2 T01890017
03812KAVL AVL20160404210012004/04/16 21:00:31  5-MIN KAVL 050200Z 31011G17KT 10SM BKN080 OVC095 19/02 A2999 2100 31 3100 320/11G17 RMK AO2 T01890017
03812KAVL AVL20160404210512904/04/16 21:05:31  5-MIN KAVL 050205Z 32015G22KT 10SM -RA OVC080 19/02 A3000 2100 32 3100 330/15G22 RMK AO2 RAB03 P0000 T01890022
03812KAVL AVL20160404211013604/04/16 21:10:31  5-MIN KAVL 050210Z 29015G22KT 10SM -RA FEW044 OVC080 18/04 A3000 2090 39 2900 300/15G22 RMK AO2 RAB03 P0000 T01780039
03812KAVL AVL20160404211513604/04/16 21:15:31  5-MIN KAVL 050215Z 28011G22KT 10SM -RA SCT041 OVC080 17/03 A3000 2090 39 2900 290/11G22 RMK AO2 RAB03 P0000 T01720033
03812KAVL AVL20160404212013504/04/16 21:20:31  5-MIN KAVL 050220Z 32007G18KT 10SM FEW039 OVC080 18/03 A3000 2090 38 2900 320/07G18 RMK AO2 RAB03E20 P0000 T01780033
03812KAVL AVL20160404212512904/04/16 21:25:31  5-MIN KAVL 050225Z 28008KT 10SM FEW041 BKN080 17/03 A3000 2090 39 2900 280/08 RMK AO2 RAB03E20 P0000 T01720033
03812KAVL AVL20160404213014304/04/16 21:30:31  5-MIN KAVL 050230Z VRB06G16KT 10SM -RA FEW048 BKN075 OVC110 18/03 A3000 2090 38 2900 VRB/06G16 RMK AO2 RAB03 P0000 T01780033
03812KAVL AVL20160404213514304/04/16 21:35:31  5-MIN KAVL 050235Z 29012G20KT 10SM -RA FEW046 BKN075 BKN090 18/03 A2999 2100 38 2900 300/12G20 RMK AO2 RAB03 P0000 T01780033
03812KAVL AVL20160404214014204/04/16 21:40:31  5-MIN KAVL 050240Z 30006G20KT 10SM FEW044 SCT080 BKN110 17/03 A2999 2100 39 2900 300/06G20 RMK AO2 RAB03E37 P0000 T01720033
03812KAVL AVL20160404214513604/04/16 21:45:31  5-MIN KAVL 050245Z 30007KT 10SM FEW050 SCT080 SCT110 17/03 A2999 2100 39 2900 300/07 RMK AO2 RAB03E37 P0000 T01720033
03812KAVL AVL20160404215015504/04/16 21:50:31  5-MIN KAVL 050250Z 30009KT 10SM FEW050 FEW075 SCT110 17/03 A2999 2100 39 2900 300/09 RMK AO2 RAB03E37 SLP141 P0000 60000 T01720033 53004
03812KAVL AVL20160404215511204/04/16 21:55:31  5-MIN KAVL 050255Z AUTO 30005KT 10SM FEW110 17/04 A2999 2100 42 2800 300/05 RMK AO2 T01670039
03812KAVL AVL20160404220012504/04/16 22:00:31  5-MIN KAVL 050300Z AUTO 29007KT 260V320 10SM CLR 17/03 A2999 2100 40 2800 300/07 270V330 RMK AO2 T01670033
03812KAVL AVL20160404220510904/04/16 22:05:31  5-MIN KAVL 050305Z AUTO 29007KT 10SM CLR 17/03 A2999 2100 39 2900 300/07 RMK AO2 T01720033
03812KAVL AVL20160404221010904/04/16 22:10:31  5-MIN KAVL 050310Z AUTO 30007KT 10SM CLR 17/03 A2999 2100 40 2800 310/07 RMK AO2 T01670033
03812KAVL AVL20160404221510904/04/16 22:15:31  5-MIN KAVL 050315Z AUTO 30008KT 10SM CLR 17/03 A2999 2100 39 2900 310/08 RMK AO2 T01720033
03812KAVL AVL20160404222011204/04/16 22:20:31  5-MIN KAVL 050320Z AUTO 31009KT 10SM FEW070 17/03 A2999 2100 40 2800 310/09 RMK AO2 T01670033
03812KAVL AVL20160404222511204/04/16 22:25:31  5-MIN KAVL 050325Z AUTO 32008KT 10SM FEW070 17/03 A3000 2100 40 2800 330/08 RMK AO2 T01670033
03812KAVL AVL20160404223011204/04/16 22:30:31  5-MIN KAVL 050330Z AUTO 32007KT 10SM FEW070 16/04 A3000 2100 44 2800 330/07 RMK AO2 T01610039
03812KAVL AVL20160404223511204/04/16 22:35:31  5-MIN KAVL 050335Z AUTO 35008KT 10SM FEW070 17/04 A3000 2090 42 2800 350/08 RMK AO2 T01670039
03812KAVL AVL20160404224011804/04/16 22:40:31  5-MIN KAVL 050340Z AUTO 34011G16KT 10SM FEW070 17/03 A3000 2100 40 2800 350/11G16 RMK AO2 T01670033
03812KAVL AVL20160404224511804/04/16 22:45:31  5-MIN KAVL 050345Z AUTO 36007G16KT 10SM FEW065 17/04 A3000 2090 42 2800 010/07G16 RMK AO2 T01670039
03812KAVL AVL20160404225012504/04/16 22:50:31  5-MIN KAVL 050350Z AUTO 35013G18KT 10SM FEW065 17/04 A3000 2090 42 2800 350/13G18 RMK AO2 SLP141 T01670039
03812KAVL AVL20160404225511804/04/16 22:55:31  5-MIN KAVL 050355Z AUTO 34012G18KT 10SM SCT065 16/04 A3000 2090 44 2700 350/12G18 RMK AO2 T01610039
03812KAVL AVL20160404230011804/04/16 23:00:31  5-MIN KAVL 050400Z AUTO 35013G20KT 10SM FEW065 16/04 A3000 2090 44 2700 350/13G20 RMK AO2 T01610039
03812KAVL AVL20160404230511804/04/16 23:05:31  5-MIN KAVL 050405Z AUTO 35012G20KT 10SM SCT060 16/04 A3000 2090 44 2700 360/12G20 RMK AO2 T01610039
03812KAVL AVL20160404231011804/04/16 23:10:31  5-MIN KAVL 050410Z AUTO 34015G22KT 10SM FEW060 16/04 A3001 2090 44 2700 340/15G22 RMK AO2 T01610039
03812KAVL AVL20160404231511804/04/16 23:15:31  5-MIN KAVL 050415Z AUTO 34014G22KT 10SM FEW060 16/04 A3001 2090 45 2700 350/14G22 RMK AO2 T01560039
03812KAVL AVL20160404232011804/04/16 23:20:31  5-MIN KAVL 050420Z AUTO 34013G20KT 10SM FEW060 16/04 A3001 2080 45 2700 350/13G20 RMK AO2 T01560039
03812KAVL AVL20160404232511204/04/16 23:25:31  5-MIN KAVL 050425Z AUTO 34015KT 10SM FEW060 16/04 A3001 2080 45 2700 350/15 RMK AO2 T01560039
03812KAVL AVL20160404233011204/04/16 23:30:31  5-MIN KAVL 050430Z AUTO 34012KT 10SM FEW060 16/03 A3001 2080 43 2700 350/12 RMK AO2 T01560033
03812KAVL AVL20160404233511804/04/16 23:35:31  5-MIN KAVL 050435Z AUTO 34014G21KT 10SM FEW060 15/03 A3001 2080 45 2600 350/14G21 RMK AO2 T01500033
03812KAVL AVL20160404234011804/04/16 23:40:31  5-MIN KAVL 050440Z AUTO 34015G21KT 10SM FEW060 15/03 A3001 2080 45 2600 350/15G21 RMK AO2 T01500033
03812KAVL AVL20160404234511804/04/16 23:45:31  5-MIN KAVL 050445Z AUTO 35009G18KT 10SM FEW060 15/03 A3001 2080 43 2600 360/09G18 RMK AO2 T01500028
03812KAVL AVL20160404235012604/04/16 23:50:31  5-MIN KAVL 050450Z AUTO 35010KT 10SM CLR 15/03 A3001 2080 43 2600 360/10 RMK AO2 SLP145 T01500028 402390011
03812KAVL AVL20160404235510904/04/16 23:55:31  5-MIN KAVL 050455Z AUTO 35014KT 10SM CLR 15/03 A3001 2080 43 2600 350/14 RMK AO2 T01500028
03812KAVL AVL20160405000011504/05/16 00:00:31  5-MIN KAVL 050500Z AUTO 35012G21KT 10SM CLR 14/03 A3001 2080 45 2500 360/12G21 RMK AO2 T01440028
03812KAVL AVL20160405000511504/05/16 00:05:31  5-MIN KAVL 050505Z AUTO 35016G22KT 10SM CLR 14/02 A3001 2080 43 2500 350/16G22 RMK AO2 T01440022
03812KAVL AVL20160405001011504/05/16 00:10:31  5-MIN KAVL 050510Z AUTO 35015G22KT 10SM CLR 14/02 A3001 2080 43 2500 360/15G22 RMK AO2 T01440022
03812KAVL AVL20160405001511504/05/16 00:15:31  5-MIN KAVL 050515Z AUTO 35015G22KT 10SM CLR 14/02 A3002 2080 43 2500 350/15G22 RMK AO2 T01440022
03812KAVL AVL20160405002011504/05/16 00:20:31  5-MIN KAVL 050520Z AUTO 34019G22KT 10SM CLR 14/02 A3002 2080 43 2500 340/19G22 RMK AO2 T01440022
03812KAVL AVL20160405002511504/05/16 00:25:31  5-MIN KAVL 050525Z AUTO 35018G24KT 10SM CLR 14/02 A3002 2080 45 2500 350/18G24 RMK AO2 T01390022
03812KAVL AVL20160405003011504/05/16 00:30:31  5-MIN KAVL 050530Z AUTO 35014G24KT 10SM CLR 14/02 A3002 2080 45 2500 350/14G24 RMK AO2 T01390022
03812KAVL AVL20160405003511504/05/16 00:35:31  5-MIN KAVL 050535Z AUTO 35015G23KT 10SM CLR 14/02 A3002 2080 45 2500 360/15G23 RMK AO2 T01390022
03812KAVL AVL20160405004011504/05/16 00:40:31  5-MIN KAVL 050540Z AUTO 35014G23KT 10SM CLR 14/02 A3002 2080 45 2500 350/14G23 RMK AO2 T01390022
03812KAVL AVL20160405004511504/05/16 00:45:31  5-MIN KAVL 050545Z AUTO 33015G23KT 10SM CLR 13/02 A3002 2080 46 2400 340/15G23 RMK AO2 T01330022
03812KAVL AVL20160405005014604/05/16 00:50:31  5-MIN KAVL 050550Z AUTO 34016G22KT 10SM CLR 13/02 A3002 2080 46 2400 350/16G22 RMK AO2 SLP146 60000 T01330022 10211 20133 51013
03812KAVL AVL20160405005511504/05/16 00:55:31  5-MIN KAVL 050555Z AUTO 34013G22KT 10SM CLR 13/02 A3002 2070 46 2400 340/13G22 RMK AO2 T01330022
03812KAVL AVL20160405010010904/05/16 01:00:31  5-MIN KAVL 050600Z AUTO 33013KT 10SM CLR 13/02 A3002 2070 46 2400 340/13 RMK AO2 T01330022
03812KAVL AVL20160405010510904/05/16 01:05:31  5-MIN KAVL 050605Z AUTO 34015KT 10SM CLR 13/02 A3002 2070 48 2300 350/15 RMK AO2 T01280022
03812KAVL AVL20160405011010904/05/16 01:10:31  5-MIN KAVL 050610Z AUTO 34013KT 10SM CLR 13/02 A3002 2070 48 2300 340/13 RMK AO2 T01280022
03812KAVL AVL20160405011510904/05/16 01:15:31  5-MIN KAVL 050615Z AUTO 34014KT 10SM CLR 12/02 A3003 2070 50 2300 340/14 RMK AO2 T01220022
03812KAVL AVL20160405012011504/05/16 01:20:31  5-MIN KAVL 050620Z AUTO 34014G21KT 10SM CLR 13/02 A3003 2070 48 2300 350/14G21 RMK AO2 T01280022
03812KAVL AVL20160405012513304/05/16 01:25:31  5-MIN KAVL 050625Z AUTO 36018G27KT 10SM CLR 12/02 A3003 2070 50 2300 360/18G27 RMK AO2 PK WND 35027/0625 T01220022
03812KAVL AVL20160405013013304/05/16 01:30:31  5-MIN KAVL 050630Z AUTO 36016G27KT 10SM CLR 12/02 A3003 2070 50 2300 360/16G27 RMK AO2 PK WND 35027/0625 T01220022
03812KAVL AVL20160405013513304/05/16 01:35:31  5-MIN KAVL 050635Z AUTO 35016G26KT 10SM CLR 12/02 A3003 2070 52 2200 360/16G26 RMK AO2 PK WND 35027/0625 T01170022
03812KAVL AVL20160405014013304/05/16 01:40:31  5-MIN KAVL 050640Z AUTO 35015G26KT 10SM CLR 11/02 A3003 2060 52 2100 360/15G26 RMK AO2 PK WND 35027/0625 T01110017
03812KAVL AVL20160405014513304/05/16 01:45:31  5-MIN KAVL 050645Z AUTO 36015G22KT 10SM CLR 11/02 A3003 2060 52 2100 010/15G22 RMK AO2 PK WND 35027/0625 T01110017
03812KAVL AVL20160405015014004/05/16 01:50:31  5-MIN KAVL 050650Z AUTO 36014G23KT 10SM CLR 11/02 A3003 2060 52 2100 360/14G23 RMK AO2 PK WND 35027/0625 SLP152 T01110017
03812KAVL AVL20160405015511504/05/16 01:55:31  5-MIN KAVL 050655Z AUTO 36014G23KT 10SM CLR 11/01 A3004 2060 52 2100 360/14G23 RMK AO2 T01060011
03812KAVL AVL20160405020011504/05/16 02:00:31  5-MIN KAVL 050700Z AUTO 36016G22KT 10SM CLR 11/01 A3003 2060 52 2100 360/16G22 RMK AO2 T01060011
03812KAVL AVL20160405020513304/05/16 02:05:31  5-MIN KAVL 050705Z AUTO 35018G26KT 10SM CLR 11/01 A3004 2060 52 2100 360/18G26 RMK AO2 PK WND 34026/0704 T01060011
03812KAVL AVL20160405021013304/05/16 02:10:31  5-MIN KAVL 050710Z AUTO 35019G26KT 10SM CLR 11/01 A3004 2060 52 2100 360/19G26 RMK AO2 PK WND 34026/0704 T01060011
03812KAVL AVL20160405021513304/05/16 02:15:31  5-MIN KAVL 050715Z AUTO 35020G28KT 10SM CLR 10/01 A3004 2060 54 2000 360/20G28 RMK AO2 PK WND 35028/0715 T01000011
03812KAVL AVL20160405022013304/05/16 02:20:31  5-MIN KAVL 050720Z AUTO 35018G28KT 10SM CLR 10/01 A3004 2060 52 2000 360/18G28 RMK AO2 PK WND 35028/0715 T01000006
03812KAVL AVL20160405022513304/05/16 02:25:31  5-MIN KAVL 050725Z AUTO 36015G26KT 10SM CLR 10/01 A3004 2060 52 2000 360/15G26 RMK AO2 PK WND 35028/0715 T01000006
03812KAVL AVL20160405023013304/05/16 02:30:31  5-MIN KAVL 050730Z AUTO 36018G24KT 10SM CLR 09/01 A3004 2060 53 1900 360/18G24 RMK AO2 PK WND 35028/0715 T00940006
03812KAVL AVL20160405023513304/05/16 02:35:31  5-MIN KAVL 050735Z AUTO 35014G24KT 10SM CLR 09/01 A3004 2060 53 1900 360/14G24 RMK AO2 PK WND 35028/0715 T00940006
03812KAVL AVL20160405024013304/05/16 02:40:31  5-MIN KAVL 050740Z AUTO 35016G24KT 10SM CLR 09/01 A3004 2060 53 1900 360/16G24 RMK AO2 PK WND 35028/0715 T00940006
03812KAVL AVL20160405024513304/05/16 02:45:31  5-MIN KAVL 050745Z AUTO 36018G23KT 10SM CLR 09/01 A3004 2060 53 1900 360/18G23 RMK AO2 PK WND 35028/0715 T00940006
03812KAVL AVL20160405025014004/05/16 02:50:31  5-MIN KAVL 050750Z AUTO 35017G25KT 10SM CLR 09/01 A3004 2060 56 1900 360/17G25 RMK AO2 PK WND 35028/0715 SLP155 T00890006
03812KAVL AVL20160405025511504/05/16 02:55:31  5-MIN KAVL 050755Z AUTO 36017G25KT 10SM CLR 09/01 A3004 2060 56 1900 360/17G25 RMK AO2 T00890006
03812KAVL AVL20160405030011504/05/16 03:00:31  5-MIN KAVL 050800Z AUTO 35015G25KT 10SM CLR 08/01 A3004 2060 58 1800 360/15G25 RMK AO2 T00830006
03812KAVL AVL20160405030511504/05/16 03:05:31  5-MIN KAVL 050805Z AUTO 36014G24KT 10SM CLR 08/01 A3004 2060 58 1800 360/14G24 RMK AO2 T00830006
03812KAVL AVL20160405031011504/05/16 03:10:31  5-MIN KAVL 050810Z AUTO 35017G24KT 10SM CLR 08/01 A3004 2060 58 1800 360/17G24 RMK AO2 T00830006
03812KAVL AVL20160405031511504/05/16 03:15:31  5-MIN KAVL 050815Z AUTO 35018G24KT 10SM CLR 08/00 A3004 2060 58 1700 360/18G24 RMK AO2 T00780000
03812KAVL AVL20160405032013304/05/16 03:20:31  5-MIN KAVL 050820Z AUTO 35019G29KT 10SM CLR 08/00 A3004 2060 58 1700 350/19G29 RMK AO2 PK WND 34029/0817 T00780000
03812KAVL AVL20160405032513304/05/16 03:25:31  5-MIN KAVL 050825Z AUTO 35019G29KT 10SM CLR 07/00 A3005 2050 60 1600 350/19G29 RMK AO2 PK WND 34029/0817 T00720000
03812KAVL AVL20160405033013404/05/16 03:30:31  5-MIN KAVL 050830Z AUTO 35016G26KT 10SM CLR 07/M01 A3005 2050 57 1600 360/16G26 RMK AO2 PK WND 34029/0817 T00721006
03812KAVL AVL20160405033513404/05/16 03:35:31  5-MIN KAVL 050835Z AUTO 35016G26KT 10SM CLR 07/M01 A3005 2050 57 1600 360/16G26 RMK AO2 PK WND 34029/0817 T00721006
03812KAVL AVL20160405034013404/05/16 03:40:31  5-MIN KAVL 050840Z AUTO 35019G26KT 10SM CLR 07/M01 A3005 2050 57 1600 360/19G26 RMK AO2 PK WND 34029/0817 T00721006
03812KAVL AVL20160405034513404/05/16 03:45:31  5-MIN KAVL 050845Z AUTO 35017G27KT 10SM CLR 07/M01 A3005 2050 57 1600 350/17G27 RMK AO2 PK WND 34029/0817 T00671011
03812KAVL AVL20160405035014704/05/16 03:50:31  5-MIN KAVL 050850Z AUTO 34019G27KT 10SM CLR 07/M01 A3005 2050 57 1600 350/19G27 RMK AO2 PK WND 34029/0817 SLP161 T00671011 51010
03812KAVL AVL20160405035511604/05/16 03:55:31  5-MIN KAVL 050855Z AUTO 35016G26KT 10SM CLR 07/M01 A3005 2050 57 1600 360/16G26 RMK AO2 T00671011
03812KAVL AVL20160405040011604/05/16 04:00:31  5-MIN KAVL 050900Z AUTO 35016G24KT 10SM CLR 07/M01 A3005 2050 57 1600 350/16G24 RMK AO2 T00671011
03812KAVL AVL20160405040513404/05/16 04:05:31  5-MIN KAVL 050905Z AUTO 35018G28KT 10SM CLR 06/M01 A3005 2050 60 1500 350/18G28 RMK AO2 PK WND 34028/0905 T00611011
03812KAVL AVL20160405041013404/05/16 04:10:31  5-MIN KAVL 050910Z AUTO 35014G28KT 10SM CLR 06/M02 A3005 2050 57 1500 360/14G28 RMK AO2 PK WND 34028/0905 T00611017
03812KAVL AVL20160405041513404/05/16 04:15:31  5-MIN KAVL 050915Z AUTO 36015G25KT 10SM CLR 06/M02 A3005 2050 57 1500 360/15G25 RMK AO2 PK WND 34028/0905 T00611017
03812KAVL AVL20160405042013404/05/16 04:20:31  5-MIN KAVL 050920Z AUTO 35012G25KT 10SM CLR 06/M02 A3005 2040 57 1500 360/12G25 RMK AO2 PK WND 34028/0905 T00611017
03812KAVL AVL20160405042513404/05/16 04:25:31  5-MIN KAVL 050925Z AUTO 36014G20KT 10SM CLR 06/M02 A3006 2040 57 1500 010/14G20 RMK AO2 PK WND 34028/0905 T00611017
03812KAVL AVL20160405043013404/05/16 04:30:31  5-MIN KAVL 050930Z AUTO 36012G20KT 10SM CLR 06/M02 A3006 2040 55 1500 360/12G20 RMK AO2 PK WND 34028/0905 T00611022
03812KAVL AVL20160405043513404/05/16 04:35:31  5-MIN KAVL 050935Z AUTO 36016G23KT 10SM CLR 06/M02 A3006 2040 57 1400 360/16G23 RMK AO2 PK WND 34028/0905 T00561022
03812KAVL AVL20160405044013404/05/16 04:40:31  5-MIN KAVL 050940Z AUTO 36013G23KT 10SM CLR 06/M02 A3007 2030 57 1400 360/13G23 RMK AO2 PK WND 34028/0905 T00561022
03812KAVL AVL20160405044513404/05/16 04:45:31  5-MIN KAVL 050945Z AUTO 35012G21KT 10SM CLR 06/M02 A3007 2030 57 1400 360/12G21 RMK AO2 PK WND 34028/0905 T00561022
03812KAVL AVL20160405045014104/05/16 04:50:31  5-MIN KAVL 050950Z AUTO 35014G26KT 10SM CLR 05/M03 A3007 2030 57 1300 360/14G26 RMK AO2 PK WND 34028/0905 SLP170 T00501028
03812KAVL AVL20160405045511604/05/16 04:55:31  5-MIN KAVL 050955Z AUTO 36018G26KT 10SM CLR 05/M03 A3007 2030 57 1300 360/18G26 RMK AO2 T00501028
03812KAVL AVL20160405050011604/05/16 05:00:31  5-MIN KAVL 051000Z AUTO 36017G26KT 10SM CLR 05/M03 A3008 2020 57 1300 360/17G26 RMK AO2 T00501028
03812KAVL AVL20160405050511104/05/16 05:05:31  5-MIN KAVL 051005Z 36017G25KT 10SM CLR 05/M03 A3008 2020 57 1300 360/17G25 RMK AO2 T00501028
03812KAVL AVL20160405051011104/05/16 05:10:31  5-MIN KAVL 051010Z 36015G23KT 10SM CLR 05/M03 A3008 2020 57 1300 360/15G23 RMK AO2 T00501028
03812KAVL AVL20160405051512904/05/16 05:15:31  5-MIN KAVL 051015Z 36020G27KT 10SM CLR 04/M03 A3008 2020 57 1300 360/20G27 RMK AO2 PK WND 36027/1013 T00441033
03812KAVL AVL20160405052012904/05/16 05:20:31  5-MIN KAVL 051020Z 36014G27KT 10SM CLR 04/M03 A3009 2010 57 1300 360/14G27 RMK AO2 PK WND 36027/1013 T00441033
03812KAVL AVL20160405052512904/05/16 05:25:31  5-MIN KAVL 051025Z 35021G31KT 10SM CLR 04/M03 A3009 2010 57 1300 350/21G31 RMK AO2 PK WND 33031/1025 T00441033
03812KAVL AVL20160405053012904/05/16 05:30:31  5-MIN KAVL 051030Z 35018G31KT 10SM CLR 04/M03 A3009 2010 57 1300 360/18G31 RMK AO2 PK WND 33031/1025 T00441033
03812KAVL AVL20160405053512904/05/16 05:35:31  5-MIN KAVL 051035Z 35018G27KT 10SM CLR 04/M03 A3009 2010 59 1200 350/18G27 RMK AO2 PK WND 33031/1025 T00391033
03812KAVL AVL20160405054012904/05/16 05:40:31  5-MIN KAVL 051040Z 35016G30KT 10SM CLR 04/M03 A3010 2010 59 1200 360/16G30 RMK AO2 PK WND 33031/1025 T00391033
03812KAVL AVL20160405054512904/05/16 05:45:31  5-MIN KAVL 051045Z 35020G30KT 10SM CLR 04/M03 A3010 2000 59 1200 350/20G30 RMK AO2 PK WND 33031/1025 T00391033
03812KAVL AVL20160405055013604/05/16 05:50:31  5-MIN KAVL 051050Z 35018G34KT 10SM CLR 04/M03 A3010 2000 59 1200 360/18G34 RMK AO2 PK WND 34034/1046 SLP181 T00391033
03812KAVL AVL20160405055512904/05/16 05:55:31  5-MIN KAVL 051055Z 34022G34KT 10SM CLR 04/M03 A3011 1990 59 1200 350/22G34 RMK AO2 PK WND 33026/1055 T00391033
03812KAVL AVL20160405060012904/05/16 06:00:31  5-MIN KAVL 051100Z 35023G35KT 10SM CLR 04/M03 A3011 1990 59 1200 350/23G35 RMK AO2 PK WND 34035/1100 T00391033
03812KAVL AVL20160405060512904/05/16 06:05:31  5-MIN KAVL 051105Z 34019G35KT 10SM CLR 04/M03 A3011 1990 59 1200 350/19G35 RMK AO2 PK WND 34035/1102 T00391033
03812KAVL AVL20160405061012904/05/16 06:10:31  5-MIN KAVL 051110Z 34022G35KT 10SM CLR 04/M03 A3012 1990 59 1200 350/22G35 RMK AO2 PK WND 34035/1102 T00391033
03812KAVL AVL20160405061512904/05/16 06:15:31  5-MIN KAVL 051115Z 34024G34KT 10SM CLR 03/M03 A3012 1980 61 1100 350/24G34 RMK AO2 PK WND 34035/1102 T00331033
03812KAVL AVL20160405062012904/05/16 06:20:31  5-MIN KAVL 051120Z 34025G35KT 10SM CLR 03/M03 A3013 1980 61 1100 350/25G35 RMK AO2 PK WND 34035/1102 T00331033
03812KAVL AVL20160405062512904/05/16 06:25:31  5-MIN KAVL 051125Z 34022G35KT 10SM CLR 03/M03 A3013 1970 61 1100 340/22G35 RMK AO2 PK WND 34035/1102 T00331033
03812KAVL AVL20160405063012904/05/16 06:30:31  5-MIN KAVL 051130Z 34021G30KT 10SM CLR 03/M03 A3013 1970 61 1100 350/21G30 RMK AO2 PK WND 34035/1102 T00331033
03812KAVL AVL20160405063512904/05/16 06:35:31  5-MIN KAVL 051135Z 34025G33KT 10SM CLR 03/M03 A3014 1970 61 1100 340/25G33 RMK AO2 PK WND 34035/1102 T00331033
03812KAVL AVL20160405064012904/05/16 06:40:31  5-MIN KAVL 051140Z 34019G33KT 10SM CLR 03/M03 A3014 1960 61 1100 340/19G33 RMK AO2 PK WND 34035/1102 T00331033
03812KAVL AVL20160405064512904/05/16 06:45:31  5-MIN KAVL 051145Z 33020G30KT 10SM CLR 03/M03 A3015 1960 61 1100 340/20G30 RMK AO2 PK WND 34035/1102 T00331033
03812KAVL AVL20160405065015404/05/16 06:50:31  5-MIN KAVL 051150Z 34020G32KT 10SM CLR 03/M03 A3015 1960 61 1100 340/20G32 RMK AO2 PK WND 34035/1102 SLP200 T00331033 10133 20033 51008
03812KAVL AVL20160405065512904/05/16 06:55:31  5-MIN KAVL 051155Z 34020G32KT 10SM CLR 04/M03 A3015 1950 59 1100 340/20G32 RMK AO2 PK WND 33029/1155 T00391033
03812KAVL AVL20160405070013204/05/16 07:00:31  5-MIN KAVL 051200Z 34024G31KT 10SM FEW027 04/M03 A3015 1950 59 1100 340/24G31 RMK AO2 PK WND 34031/1159 T00391033
03812KAVL AVL20160405070513204/05/16 07:05:31  5-MIN KAVL 051205Z 34023G31KT 10SM FEW027 04/M03 A3016 1950 59 1100 350/23G31 RMK AO2 PK WND 34031/1159 T00391033
03812KAVL AVL20160405071013204/05/16 07:10:31  5-MIN KAVL 051210Z 35014G30KT 10SM FEW027 04/M03 A3016 1940 59 1100 350/14G30 RMK AO2 PK WND 34031/1159 T00391033
03812KAVL AVL20160405071513204/05/16 07:15:31  5-MIN KAVL 051215Z 35019G28KT 10SM FEW027 04/M03 A3017 1940 59 1100 360/19G28 RMK AO2 PK WND 34031/1159 T00391033
03812KAVL AVL20160405072013204/05/16 07:20:31  5-MIN KAVL 051220Z 34018G31KT 10SM SCT027 04/M03 A3017 1940 59 1100 350/18G31 RMK AO2 PK WND 34031/1159 T00391033
03812KAVL AVL20160405072513204/05/16 07:25:31  5-MIN KAVL 051225Z 35015G31KT 10SM SCT028 04/M03 A3018 1930 57 1200 360/15G31 RMK AO2 PK WND 34031/1159 T00441033
03812KAVL AVL20160405073013204/05/16 07:30:31  5-MIN KAVL 051230Z 35021G27KT 10SM BKN028 04/M03 A3018 1930 57 1200 360/21G27 RMK AO2 PK WND 34031/1159 T00441033
03812KAVL AVL20160405073513204/05/16 07:35:31  5-MIN KAVL 051235Z 35021G29KT 10SM BKN028 04/M03 A3018 1930 57 1200 360/21G29 RMK AO2 PK WND 34031/1159 T00441033
03812KAVL AVL20160405074013204/05/16 07:40:31  5-MIN KAVL 051240Z 35020G29KT 10SM BKN028 04/M03 A3018 1920 57 1200 360/20G29 RMK AO2 PK WND 34031/1159 T00441033
03812KAVL AVL20160405074513204/05/16 07:45:31  5-MIN KAVL 051245Z 35016G34KT 10SM SCT028 04/M04 A3019 1920 57 1100 350/16G34 RMK AO2 PK WND 34034/1243 T00391039
03812KAVL AVL20160405075013904/05/16 07:50:31  5-MIN KAVL 051250Z 35022G34KT 10SM SCT028 04/M04 A3019 1920 57 1100 360/22G34 RMK AO2 PK WND 34034/1243 SLP213 T00391039
03812KAVL AVL20160405075511404/05/16 07:55:31  5-MIN KAVL 051255Z 35018G29KT 10SM SCT028 03/M04 A3019 1920 59 1000 350/18G29 RMK AO2 T00331039
03812KAVL AVL20160405080013204/05/16 08:00:31  5-MIN KAVL 051300Z 35020G28KT 10SM FEW028 04/M03 A3019 1920 59 1100 350/20G28 RMK AO2 PK WND 35028/1258 T00391033
03812KAVL AVL20160405080512904/05/16 08:05:31  5-MIN KAVL 051305Z 34023G32KT 10SM CLR 04/M04 A3019 1920 57 1100 350/23G32 RMK AO2 PK WND 34032/1305 T00391039
03812KAVL AVL20160405081012904/05/16 08:10:31  5-MIN KAVL 051310Z 34023G32KT 10SM CLR 04/M04 A3019 1920 57 1100 350/23G32 RMK AO2 PK WND 35032/1306 T00391039
03812KAVL AVL20160405081512904/05/16 08:15:31  5-MIN KAVL 051315Z 34019G32KT 10SM CLR 03/M03 A3020 1910 61 1000 340/19G32 RMK AO2 PK WND 35032/1306 T00331033
03812KAVL AVL20160405082012904/05/16 08:20:31  5-MIN KAVL 051320Z 34023G29KT 10SM CLR 03/M04 A3020 1910 59 1000 350/23G29 RMK AO2 PK WND 35032/1306 T00331039
03812KAVL AVL20160405082512904/05/16 08:25:31  5-MIN KAVL 051325Z 33018G29KT 10SM CLR 03/M04 A3020 1910 59 1000 340/18G29 RMK AO2 PK WND 35032/1306 T00331039
03812KAVL AVL20160405083012904/05/16 08:30:31  5-MIN KAVL 051330Z 34018G27KT 10SM CLR 04/M04 A3021 1900 57 1100 350/18G27 RMK AO2 PK WND 35032/1306 T00391039
03812KAVL AVL20160405083512904/05/16 08:35:31  5-MIN KAVL 051335Z 34021G27KT 10SM CLR 04/M03 A3021 1900 57 1100 350/21G27 RMK AO2 PK WND 35032/1306 T00441033
03812KAVL AVL20160405084012904/05/16 08:40:31  5-MIN KAVL 051340Z 35019G30KT 10SM CLR 04/M04 A3021 1900 55 1100 360/19G30 RMK AO2 PK WND 35032/1306 T00441039
03812KAVL AVL20160405084512904/05/16 08:45:31  5-MIN KAVL 051345Z 35018G30KT 10SM CLR 04/M04 A3021 1900 55 1100 350/18G30 RMK AO2 PK WND 35032/1306 T00441039
03812KAVL AVL20160405085013604/05/16 08:50:31  5-MIN KAVL 051350Z 35017G27KT 10SM CLR 04/M04 A3022 1900 55 1100 360/17G27 RMK AO2 PK WND 35032/1306 SLP223 T00441039
03812KAVL AVL20160405085511104/05/16 08:55:31  5-MIN KAVL 051355Z 35016G27KT 10SM CLR 05/M03 A3022 1890 55 1200 350/16G27 RMK AO2 T00501033
03812KAVL AVL20160405090011104/05/16 09:00:31  5-MIN KAVL 051400Z 34013G24KT 10SM CLR 05/M03 A3022 1890 57 1200 350/13G24 RMK AO2 T00501028
03812KAVL AVL20160405090511104/05/16 09:05:31  5-MIN KAVL 051405Z 34015G23KT 10SM CLR 06/M03 A3022 1890 53 1200 350/15G23 RMK AO2 T00561033
03812KAVL AVL20160405091011104/05/16 09:10:31  5-MIN KAVL 051410Z 35015G22KT 10SM CLR 05/M03 A3022 1890 55 1200 360/15G22 RMK AO2 T00501033
03812KAVL AVL20160405091511104/05/16 09:15:31  5-MIN KAVL 051415Z 36017G23KT 10SM CLR 06/M04 A3023 1890 50 1200 010/17G23 RMK AO2 T00561039
03812KAVL AVL20160405092011104/05/16 09:20:31  5-MIN KAVL 051420Z 34017G24KT 10SM CLR 06/M03 A3023 1880 53 1200 350/17G24 RMK AO2 T00561033
03812KAVL AVL20160405092511104/05/16 09:25:31  5-MIN KAVL 051425Z 35016G25KT 10SM CLR 06/M04 A3023 1880 48 1300 360/16G25 RMK AO2 T00611039
03812KAVL AVL20160405093011104/05/16 09:30:31  5-MIN KAVL 051430Z 34016G25KT 10SM CLR 06/M03 A3023 1880 51 1300 350/16G25 RMK AO2 T00611033
03812KAVL AVL20160405093511104/05/16 09:35:31  5-MIN KAVL 051435Z 34018G24KT 10SM CLR 06/M03 A3024 1880 51 1300 350/18G24 RMK AO2 T00611033
03812KAVL AVL20160405094012904/05/16 09:40:31  5-MIN KAVL 051440Z 34020G26KT 10SM CLR 06/M03 A3024 1870 51 1300 340/20G26 RMK AO2 PK WND 35026/1440 T00611033
03812KAVL AVL20160405094512904/05/16 09:45:31  5-MIN KAVL 051445Z 34018G27KT 10SM CLR 07/M03 A3024 1870 49 1400 350/18G27 RMK AO2 PK WND 33027/1443 T00671033
03812KAVL AVL20160405095014204/05/16 09:50:31  5-MIN KAVL 051450Z 34011G27KT 10SM CLR 07/M04 A3025 1870 47 1400 350/11G27 RMK AO2 PK WND 33027/1443 SLP233 T00671039 53034
03812KAVL AVL20160405095511104/05/16 09:55:31  5-MIN KAVL 051455Z 34020G24KT 10SM CLR 07/M03 A3025 1870 47 1400 350/20G24 RMK AO2 T00721033
03812KAVL AVL20160405100011104/05/16 10:00:31  5-MIN KAVL 051500Z 36016G24KT 10SM CLR 07/M04 A3025 1860 47 1300 360/16G24 RMK AO2 T00671039
03812KAVL AVL20160405100511104/05/16 10:05:31  5-MIN KAVL 051505Z 34014G24KT 10SM CLR 07/M04 A3025 1860 47 1300 350/14G24 RMK AO2 T00671039
03812KAVL AVL20160405101011104/05/16 10:10:31  5-MIN KAVL 051510Z 01012G22KT 10SM CLR 07/M04 A3025 1860 47 1300 010/12G22 RMK AO2 T00671039
03812KAVL AVL20160405101510504/05/16 10:15:31  5-MIN KAVL 051515Z 34016KT 10SM CLR 07/M04 A3025 1860 45 1400 350/16 RMK AO2 T00721039
03812KAVL AVL20160405102011104/05/16 10:20:31  5-MIN KAVL 051520Z 34016G24KT 10SM CLR 08/M03 A3025 1860 45 1500 340/16G24 RMK AO2 T00781033
03812KAVL AVL20160405102511104/05/16 10:25:31  5-MIN KAVL 051525Z 33018G24KT 10SM CLR 07/M04 A3025 1860 45 1400 330/18G24 RMK AO2 T00721039
03812KAVL AVL20160405103011104/05/16 10:30:31  5-MIN KAVL 051530Z 34017G24KT 10SM CLR 08/M04 A3026 1860 43 1500 350/17G24 RMK AO2 T00781039
03812KAVL AVL20160405103511104/05/16 10:35:31  5-MIN KAVL 051535Z 32015G23KT 10SM CLR 08/M03 A3026 1860 43 1500 330/15G23 RMK AO2 T00831033
03812KAVL AVL20160405104011104/05/16 10:40:31  5-MIN KAVL 051540Z 34015G24KT 10SM CLR 08/M04 A3026 1850 43 1500 350/15G24 RMK AO2 T00781039
03812KAVL AVL20160405104511104/05/16 10:45:31  5-MIN KAVL 051545Z 34017G24KT 10SM CLR 08/M04 A3026 1850 42 1500 350/17G24 RMK AO2 T00831039
03812KAVL AVL20160405105011804/05/16 10:50:31  5-MIN KAVL 051550Z 34010G24KT 10SM CLR 08/M04 A3026 1850 41 1500 350/10G24 RMK AO2 SLP239 T00781044
03812KAVL AVL20160405105511104/05/16 10:55:31  5-MIN KAVL 051555Z 35012G19KT 10SM CLR 08/M04 A3026 1850 40 1500 360/12G19 RMK AO2 T00831044
03812KAVL AVL20160405110011104/05/16 11:00:31  5-MIN KAVL 051600Z 35014G23KT 10SM CLR 08/M04 A3027 1850 40 1500 360/14G23 RMK AO2 T00831044
03812KAVL AVL20160405110511104/05/16 11:05:31  5-MIN KAVL 051605Z 35012G23KT 10SM CLR 08/M04 A3027 1850 40 1500 360/12G23 RMK AO2 T00831044
03812KAVL AVL20160405111011104/05/16 11:10:31  5-MIN KAVL 051610Z 33013G17KT 10SM CLR 09/M04 A3027 1850 40 1600 340/13G17 RMK AO2 T00891039
03812KAVL AVL20160405111511104/05/16 11:15:31  5-MIN KAVL 051615Z 32017G21KT 10SM CLR 09/M04 A3027 1850 40 1600 320/17G21 RMK AO2 T00891039
03812KAVL AVL20160405112011104/05/16 11:20:31  5-MIN KAVL 051620Z 32016G21KT 10SM CLR 09/M03 A3027 1850 40 1700 330/16G21 RMK AO2 T00941033
03812KAVL AVL20160405112511104/05/16 11:25:31  5-MIN KAVL 051625Z 33013G21KT 10SM CLR 09/M04 A3027 1850 39 1700 340/13G21 RMK AO2 T00941039
03812KAVL AVL20160405113011104/05/16 11:30:31  5-MIN KAVL 051630Z 35013G20KT 10SM CLR 09/M04 A3026 1850 37 1700 360/13G20 RMK AO2 T00941044
03812KAVL AVL20160405113511104/05/16 11:35:31  5-MIN KAVL 051635Z 34014G21KT 10SM CLR 09/M05 A3026 1850 35 1700 350/14G21 RMK AO2 T00941050
03812KAVL AVL20160405114011104/05/16 11:40:31  5-MIN KAVL 051640Z 33013G21KT 10SM CLR 10/M04 A3026 1850 36 1700 330/13G21 RMK AO2 T01001044
03812KAVL AVL20160405114511104/05/16 11:45:31  5-MIN KAVL 051645Z 36010G20KT 10SM CLR 10/M05 A3026 1850 34 1700 010/10G20 RMK AO2 T01001050
03812KAVL AVL20160405115011804/05/16 11:50:31  5-MIN KAVL 051650Z 35013G19KT 10SM CLR 11/M04 A3026 1850 34 1800 360/13G19 RMK AO2 SLP237 T01061044
03812KAVL AVL20160405115512704/05/16 11:55:31  5-MIN KAVL 051655Z 33012G18KT 290V350 10SM CLR 10/M05 A3026 1850 34 1700 330/12G18 300V360 RMK AO2 T01001050
03812KAVL AVL20160405120011104/05/16 12:00:31  5-MIN KAVL 051700Z 32012G18KT 10SM CLR 11/M04 A3026 1860 36 1800 330/12G18 RMK AO2 T01061039
03812KAVL AVL20160405120511104/05/16 12:05:31  5-MIN KAVL 051705Z 32011G19KT 10SM CLR 11/M04 A3026 1860 36 1800 320/11G19 RMK AO2 T01061039
03812KAVL AVL20160405121011104/05/16 12:10:31  5-MIN KAVL 051710Z 32010G19KT 10SM CLR 11/M04 A3026 1860 34 1900 330/10G19 RMK AO2 T01111039
03812KAVL AVL20160405121511104/05/16 12:15:31  5-MIN KAVL 051715Z 35013G21KT 10SM CLR 11/M05 A3026 1850 33 1800 360/13G21 RMK AO2 T01061050
03812KAVL AVL20160405122011104/05/16 12:20:31  5-MIN KAVL 051720Z 35011G21KT 10SM CLR 11/M06 A3026 1850 30 1800 350/11G21 RMK AO2 T01061061
03812KAVL AVL20160405122512704/05/16 12:25:31  5-MIN KAVL 051725Z 34008G19KT 300V010 10SM CLR 11/M06 A3026 1860 31 1800 340/08G19 310V020 RMK AO2 T01061056
03812KAVL AVL20160405123010504/05/16 12:30:31  5-MIN KAVL 051730Z 33012KT 10SM CLR 12/M04 A3026 1860 32 1900 340/12 RMK AO2 T01171044
03812KAVL AVL20160405123511104/05/16 12:35:31  5-MIN KAVL 051735Z 36013G18KT 10SM CLR 11/M06 A3026 1860 30 1800 360/13G18 RMK AO2 T01061061
03812KAVL AVL20160405124012104/05/16 12:40:31  5-MIN KAVL 051740Z 32012KT 300V360 10SM CLR 11/M06 A3026 1860 29 1900 330/12 310V010 RMK AO2 T01111061
03812KAVL AVL20160405124511104/05/16 12:45:31  5-MIN KAVL 051745Z 33012G20KT 10SM CLR 12/M05 A3026 1860 30 1900 340/12G20 RMK AO2 T01171050
03812KAVL AVL20160405125013604/05/16 12:50:31  5-MIN KAVL 051750Z 34014G20KT 10SM CLR 11/M06 A3026 1860 29 1900 340/14G20 RMK AO2 SLP237 T01111061 10117 20033 53019
03812KAVL AVL20160405125511104/05/16 12:55:31  5-MIN KAVL 051755Z 33011G19KT 10SM CLR 11/M06 A3026 1860 29 1900 330/11G19 RMK AO2 T01111061
03812KAVL AVL20160405130011104/05/16 13:00:31  5-MIN KAVL 051800Z 35012G18KT 10SM CLR 12/M06 A3026 1860 29 1900 360/12G18 RMK AO2 T01171056
03812KAVL AVL20160405130512704/05/16 13:05:31  5-MIN KAVL 051805Z 34012G18KT 300V360 10SM CLR 12/M06 A3026 1860 28 1900 350/12G18 310V010 RMK AO2 T01171061
03812KAVL AVL20160405131012704/05/16 13:10:31  5-MIN KAVL 051810Z 32013G20KT 290V360 10SM CLR 12/M06 A3025 1860 28 1900 320/13G20 300V010 RMK AO2 T01171061
03812KAVL AVL20160405131511104/05/16 13:15:31  5-MIN KAVL 051815Z 33016G20KT 10SM CLR 12/M06 A3025 1860 28 2000 330/16G20 RMK AO2 T01221056
03812KAVL AVL20160405132011104/05/16 13:20:31  5-MIN KAVL 051820Z 33010G20KT 10SM CLR 12/M06 A3025 1860 28 1900 330/10G20 RMK AO2 T01171061
03812KAVL AVL20160405132510504/05/16 13:25:31  5-MIN KAVL 051825Z 35013KT 10SM CLR 12/M07 A3025 1860 26 2000 360/13 RMK AO2 T01221067
03812KAVL AVL20160405133010504/05/16 13:30:31  5-MIN KAVL 051830Z 32009KT 10SM CLR 12/M06 A3025 1860 27 2000 330/09 RMK AO2 T01221061
03812KAVL AVL20160405133511104/05/16 13:35:31  5-MIN KAVL 051835Z 36011G15KT 10SM CLR 12/M06 A3025 1860 27 2000 010/11G15 RMK AO2 T01221061
03812KAVL AVL20160405134010504/05/16 13:40:31  5-MIN KAVL 051840Z 35008KT 10SM CLR 12/M07 A3025 1870 25 2000 360/08 RMK AO2 T01221072
03812KAVL AVL20160405134510504/05/16 13:45:31  5-MIN KAVL 051845Z 36011KT 10SM CLR 13/M07 A3025 1870 25 2100 010/11 RMK AO2 T01281067
03812KAVL AVL20160405135011204/05/16 13:50:31  5-MIN KAVL 051850Z 35012KT 10SM CLR 13/M07 A3025 1870 24 2100 360/12 RMK AO2 SLP233 T01281072
03812KAVL AVL20160405135510504/05/16 13:55:31  5-MIN KAVL 051855Z 33010KT 10SM CLR 13/M07 A3025 1870 25 2100 330/10 RMK AO2 T01281067
03812KAVL AVL20160405140010504/05/16 14:00:31  5-MIN KAVL 051900Z 35011KT 10SM CLR 13/M07 A3024 1870 24 2100 360/11 RMK AO2 T01281072
03812KAVL AVL20160405140511004/05/16 14:05:31  5-MIN KAVL 051905Z AUTO 34011KT 10SM CLR 13/M08 A3024 1870 23 2100 350/11 RMK AO2 T01281078
03812KAVL AVL20160405141011004/05/16 14:10:31  5-MIN KAVL 051910Z AUTO 36010KT 10SM CLR 13/M07 A3024 1870 23 2100 360/10 RMK AO2 T01331072
03812KAVL AVL20160405141511604/05/16 14:15:31  5-MIN KAVL 051915Z AUTO 36011G17KT 10SM CLR 13/M07 A3024 1870 23 2100 010/11G17 RMK AO2 T01331072
03812KAVL AVL20160405142011604/05/16 14:20:31  5-MIN KAVL 051920Z AUTO 36010G17KT 10SM CLR 13/M08 A3025 1870 22 2100 360/10G17 RMK AO2 T01281083
03812KAVL AVL20160405142511004/05/16 14:25:31  5-MIN KAVL 051925Z AUTO 33014KT 10SM CLR 13/M08 A3025 1870 22 2100 340/14 RMK AO2 T01331078
03812KAVL AVL20160405143011004/05/16 14:30:31  5-MIN KAVL 051930Z AUTO 33009KT 10SM CLR 13/M07 A3024 1870 23 2100 340/09 RMK AO2 T01331072
03812KAVL AVL20160405143512604/05/16 14:35:31  5-MIN KAVL 051935Z AUTO 35009KT 310V020 10SM CLR 14/M06 A3024 1870 24 2200 350/09 320V030 RMK AO2 T01391061
03812KAVL AVL20160405144011604/05/16 14:40:31  5-MIN KAVL 051940Z AUTO 01010G16KT 10SM CLR 13/M09 A3024 1870 20 2200 010/10G16 RMK AO2 T01331089
03812KAVL AVL20160405144511004/05/16 14:45:31  5-MIN KAVL 051945Z AUTO 03007KT 10SM CLR 13/M09 A3024 1870 20 2200 030/07 RMK AO2 T01331089
03812KAVL AVL20160405145011704/05/16 14:50:31  5-MIN KAVL 051950Z AUTO 01008KT 10SM CLR 13/M08 A3024 1880 21 2200 010/08 RMK AO2 SLP232 T01331083
03812KAVL AVL20160405145511604/05/16 14:55:31  5-MIN KAVL 051955Z AUTO 01010G17KT 10SM CLR 13/M10 A3023 1880 19 2200 020/10G17 RMK AO2 T01331100
03812KAVL AVL20160405150011604/05/16 15:00:31  5-MIN KAVL 052000Z AUTO 35011G17KT 10SM CLR 14/M11 A3023 1880 17 2200 350/11G17 RMK AO2 T01391106
03812KAVL AVL20160405150511604/05/16 15:05:31  5-MIN KAVL 052005Z AUTO 36009G16KT 10SM CLR 14/M11 A3023 1880 16 2300 010/09G16 RMK AO2 T01441111
03812KAVL AVL20160405151012604/05/16 15:10:31  5-MIN KAVL 052010Z AUTO 35008KT 320V020 10SM CLR 14/M10 A3023 1880 17 2300 360/08 330V030 RMK AO2 T01441100
03812KAVL AVL20160405151512604/05/16 15:15:31  5-MIN KAVL 052015Z AUTO 34008KT 320V020 10SM CLR 14/M08 A3023 1880 20 2300 340/08 330V030 RMK AO2 T01441083
03812KAVL AVL20160405152011004/05/16 15:20:31  5-MIN KAVL 052020Z AUTO 36010KT 10SM CLR 14/M10 A3023 1880 17 2300 010/10 RMK AO2 T01441100
03812KAVL AVL20160405152510504/05/16 15:25:31  5-MIN KAVL 052025Z 35011KT 10SM CLR 14/M11 A3023 1880 16 2300 360/11 RMK AO2 T01441106
03812KAVL AVL20160405153010504/05/16 15:30:31  5-MIN KAVL 052030Z 35011KT 10SM CLR 14/M09 A3023 1880 19 2300 360/11 RMK AO2 T01441089
03812KAVL AVL20160405153510504/05/16 15:35:31  5-MIN KAVL 052035Z 36010KT 10SM CLR 14/M09 A3023 1890 19 2200 360/10 RMK AO2 T01391094
03812KAVL AVL20160405154011104/05/16 15:40:31  5-MIN KAVL 052040Z 35013G19KT 10SM CLR 14/M09 A3023 1890 18 2300 360/13G19 RMK AO2 T01441094
03812KAVL AVL20160405154511104/05/16 15:45:31  5-MIN KAVL 052045Z 36011G19KT 10SM CLR 14/M12 A3022 1890 14 2300 010/11G19 RMK AO2 T01441122
03812KAVL AVL20160405155012404/05/16 15:50:31  5-MIN KAVL 052050Z 36011G18KT 10SM CLR 14/M10 A3022 1890 17 2300 360/11G18 RMK AO2 SLP227 T01441100 50004
03812KAVL AVL20160405155510504/05/16 15:55:31  5-MIN KAVL 052055Z 36014KT 10SM CLR 14/M10 A3022 1890 17 2300 010/14 RMK AO2 T01441100
03812KAVL AVL20160405160011104/05/16 16:00:31  5-MIN KAVL 052100Z 35015G20KT 10SM CLR 14/M13 A3022 1890 14 2300 360/15G20 RMK AO2 T01441128
03812KAVL AVL20160405160511104/05/16 16:05:31  5-MIN KAVL 052105Z 36012G21KT 10SM CLR 14/M11 A3022 1890 17 2200 360/12G21 RMK AO2 T01391106
03812KAVL AVL20160405161011104/05/16 16:10:31  5-MIN KAVL 052110Z 36010G21KT 10SM CLR 14/M09 A3022 1890 18 2300 360/10G21 RMK AO2 T01441094
03812KAVL AVL20160405161511104/05/16 16:15:31  5-MIN KAVL 052115Z 36011G21KT 10SM CLR 14/M09 A3022 1890 18 2300 010/11G21 RMK AO2 T01441094
03812KAVL AVL20160405162011104/05/16 16:20:31  5-MIN KAVL 052120Z 35009G18KT 10SM CLR 14/M11 A3023 1890 16 2300 360/09G18 RMK AO2 T01441106
03812KAVL AVL20160405162510504/05/16 16:25:31  5-MIN KAVL 052125Z 34011KT 10SM CLR 14/M09 A3022 1890 19 2300 350/11 RMK AO2 T01441089
03812KAVL AVL20160405163012704/05/16 16:30:31  5-MIN KAVL 052130Z 36010G21KT 340V050 10SM CLR 14/M09 A3023 1890 18 2300 010/10G21 350V060 RMK AO2 T01441094
03812KAVL AVL20160405163511104/05/16 16:35:31  5-MIN KAVL 052135Z 36012G21KT 10SM CLR 14/M09 A3023 1890 18 2300 360/12G21 RMK AO2 T01441094
03812KAVL AVL20160405164011104/05/16 16:40:31  5-MIN KAVL 052140Z 34012G19KT 10SM CLR 14/M09 A3023 1880 19 2300 350/12G19 RMK AO2 T01441089
03812KAVL AVL20160405164511104/05/16 16:45:31  5-MIN KAVL 052145Z 36007G18KT 10SM CLR 14/M10 A3023 1880 17 2300 010/07G18 RMK AO2 T01441100
03812KAVL AVL20160405165011804/05/16 16:50:31  5-MIN KAVL 052150Z 34013G16KT 10SM CLR 14/M09 A3023 1880 19 2300 350/13G16 RMK AO2 SLP232 T01441089
03812KAVL AVL20160405165511104/05/16 16:55:31  5-MIN KAVL 052155Z 32013G16KT 10SM CLR 14/M09 A3023 1880 19 2300 330/13G16 RMK AO2 T01441089
03812KAVL AVL20160405170010504/05/16 17:00:31  5-MIN KAVL 052200Z 34012KT 10SM CLR 14/M09 A3023 1880 20 2200 340/12 RMK AO2 T01391089
03812KAVL AVL20160405170510504/05/16 17:05:31  5-MIN KAVL 052205Z 32012KT 10SM CLR 14/M08 A3023 1880 20 2200 330/12 RMK AO2 T01391083
03812KAVL AVL20160405171010504/05/16 17:10:31  5-MIN KAVL 052210Z 34013KT 10SM CLR 14/M08 A3023 1880 21 2200 340/13 RMK AO2 T01391078
03812KAVL AVL20160405171510504/05/16 17:15:31  5-MIN KAVL 052215Z 34012KT 10SM CLR 14/M08 A3023 1880 20 2200 350/12 RMK AO2 T01391083
03812KAVL AVL20160405172010504/05/16 17:20:31  5-MIN KAVL 052220Z 34011KT 10SM CLR 14/M09 A3023 1880 20 2200 350/11 RMK AO2 T01391089
03812KAVL AVL20160405172511104/05/16 17:25:31  5-MIN KAVL 052225Z 36010G18KT 10SM CLR 14/M09 A3023 1880 20 2200 360/10G18 RMK AO2 T01391089
03812KAVL AVL20160405173010504/05/16 17:30:31  5-MIN KAVL 052230Z 32011KT 10SM CLR 14/M08 A3023 1880 20 2200 330/11 RMK AO2 T01391083
03812KAVL AVL20160405173510504/05/16 17:35:31  5-MIN KAVL 052235Z 33011KT 10SM CLR 13/M08 A3023 1880 21 2200 340/11 RMK AO2 T01331083
03812KAVL AVL20160405174010504/05/16 17:40:31  5-MIN KAVL 052240Z 34011KT 10SM CLR 13/M08 A3023 1880 22 2200 340/11 RMK AO2 T01331078
03812KAVL AVL20160405174510504/05/16 17:45:31  5-MIN KAVL 052245Z 34011KT 10SM CLR 13/M08 A3023 1880 21 2200 340/11 RMK AO2 T01331083
03812KAVL AVL20160405175011204/05/16 17:50:31  5-MIN KAVL 052250Z 33010KT 10SM CLR 13/M08 A3023 1880 21 2200 340/10 RMK AO2 SLP233 T01331083
03812KAVL AVL20160405175510504/05/16 17:55:31  5-MIN KAVL 052255Z 33010KT 10SM CLR 13/M08 A3023 1880 22 2100 340/10 RMK AO2 T01281083
03812KAVL AVL20160405180010504/05/16 18:00:31  5-MIN KAVL 052300Z 33010KT 10SM CLR 13/M07 A3023 1880 24 2100 340/10 RMK AO2 T01281072
03812KAVL AVL20160405180510504/05/16 18:05:31  5-MIN KAVL 052305Z 33008KT 10SM CLR 13/M08 A3023 1880 23 2100 330/08 RMK AO2 T01281078
03812KAVL AVL20160405181010504/05/16 18:10:31  5-MIN KAVL 052310Z 33008KT 10SM CLR 12/M08 A3023 1880 24 2000 330/08 RMK AO2 T01221078
03812KAVL AVL20160405181510504/05/16 18:15:31  5-MIN KAVL 052315Z 33008KT 10SM CLR 12/M08 A3024 1880 24 2000 340/08 RMK AO2 T01221078
03812KAVL AVL20160405182010504/05/16 18:20:31  5-MIN KAVL 052320Z 32009KT 10SM CLR 12/M07 A3024 1880 25 2000 330/09 RMK AO2 T01221072
03812KAVL AVL20160405182510504/05/16 18:25:31  5-MIN KAVL 052325Z 33010KT 10SM CLR 12/M07 A3024 1870 26 2000 340/10 RMK AO2 T01171072
03812KAVL AVL20160405183010504/05/16 18:30:31  5-MIN KAVL 052330Z 33008KT 10SM CLR 12/M07 A3024 1870 26 2000 340/08 RMK AO2 T01171072
03812KAVL AVL20160405183510504/05/16 18:35:31  5-MIN KAVL 052335Z 34009KT 10SM CLR 12/M08 A3024 1870 25 2000 350/09 RMK AO2 T01171078
03812KAVL AVL20160405184010504/05/16 18:40:31  5-MIN KAVL 052340Z 34009KT 10SM CLR 12/M08 A3025 1870 25 2000 340/09 RMK AO2 T01171078
03812KAVL AVL20160405184510504/05/16 18:45:31  5-MIN KAVL 052345Z 34010KT 10SM CLR 11/M07 A3024 1870 27 1900 340/10 RMK AO2 T01111072
03812KAVL AVL20160405185013004/05/16 18:50:31  5-MIN KAVL 052350Z 33009KT 10SM CLR 11/M08 A3024 1870 26 1900 340/09 RMK AO2 SLP240 T01111078 10150 20111 58013
03812KAVL AVL20160405185510504/05/16 18:55:31  5-MIN KAVL 052355Z 32009KT 10SM CLR 11/M07 A3024 1870 28 1800 330/09 RMK AO2 T01061072
03812KAVL AVL20160405190010504/05/16 19:00:31  5-MIN KAVL 060000Z 32008KT 10SM CLR 10/M07 A3024 1880 29 1800 320/08 RMK AO2 T01001072
03812KAVL AVL20160405190510504/05/16 19:05:31  5-MIN KAVL 060005Z 32009KT 10SM CLR 10/M07 A3024 1870 29 1800 330/09 RMK AO2 T01001072
03812KAVL AVL20160405191010504/05/16 19:10:31  5-MIN KAVL 060010Z 33008KT 10SM CLR 10/M07 A3024 1870 30 1800 330/08 RMK AO2 T01001067
03812KAVL AVL20160405191510504/05/16 19:15:31  5-MIN KAVL 060015Z 33006KT 10SM CLR 09/M07 A3024 1870 31 1700 330/06 RMK AO2 T00941067
03812KAVL AVL20160405192010504/05/16 19:20:31  5-MIN KAVL 060020Z 33007KT 10SM CLR 09/M07 A3024 1870 31 1700 340/07 RMK AO2 T00941067
03812KAVL AVL20160405192510504/05/16 19:25:31  5-MIN KAVL 060025Z 34006KT 10SM CLR 09/M07 A3024 1870 31 1700 340/06 RMK AO2 T00941067
03812KAVL AVL20160405193010504/05/16 19:30:31  5-MIN KAVL 060030Z 34006KT 10SM CLR 09/M07 A3025 1870 31 1700 340/06 RMK AO2 T00941067
03812KAVL AVL20160405193510504/05/16 19:35:31  5-MIN KAVL 060035Z 33009KT 10SM CLR 09/M07 A3025 1870 31 1700 340/09 RMK AO2 T00941067
03812KAVL AVL20160405194010504/05/16 19:40:31  5-MIN KAVL 060040Z 34010KT 10SM CLR 09/M07 A3025 1870 32 1600 340/10 RMK AO2 T00891067
03812KAVL AVL20160405194510504/05/16 19:45:31  5-MIN KAVL 060045Z 34009KT 10SM CLR 09/M07 A3025 1860 31 1700 350/09 RMK AO2 T00941067
03812KAVL AVL20160405195011204/05/16 19:50:31  5-MIN KAVL 060050Z 35007KT 10SM CLR 09/M07 A3025 1860 31 1700 350/07 RMK AO2 SLP245 T00941067
03812KAVL AVL20160405195510504/05/16 19:55:31  5-MIN KAVL 060055Z 01004KT 10SM CLR 09/M07 A3026 1850 31 1700 020/04 RMK AO2 T00941067
03812KAVL AVL20160405200010504/05/16 20:00:31  5-MIN KAVL 060100Z 01005KT 10SM CLR 09/M07 A3026 1850 31 1700 010/05 RMK AO2 T00941067
03812KAVL AVL20160405200510504/05/16 20:05:31  5-MIN KAVL 060105Z VRB03KT 10SM CLR 09/M07 A3027 1850 30 1700 VRB/03 RMK AO2 T00941072
03812KAVL AVL20160405201010504/05/16 20:10:31  5-MIN KAVL 060110Z 09003KT 10SM CLR 09/M07 A3027 1840 31 1700 100/03 RMK AO2 T00941067
03812KAVL AVL20160405201510504/05/16 20:15:31  5-MIN KAVL 060115Z 04003KT 10SM CLR 09/M07 A3027 1840 31 1700 040/03 RMK AO2 T00941067
03812KAVL AVL20160405202010504/05/16 20:20:31  5-MIN KAVL 060120Z 03003KT 10SM CLR 09/M07 A3027 1840 30 1700 030/03 RMK AO2 T00941072
03812KAVL AVL20160405202510504/05/16 20:25:31  5-MIN KAVL 060125Z 36004KT 10SM CLR 09/M07 A3028 1840 31 1700 010/04 RMK AO2 T00941067
03812KAVL AVL20160405203010504/05/16 20:30:31  5-MIN KAVL 060130Z 01004KT 10SM CLR 09/M07 A3028 1840 31 1700 010/04 RMK AO2 T00941067
03812KAVL AVL20160405203510504/05/16 20:35:31  5-MIN KAVL 060135Z 35005KT 10SM CLR 09/M07 A3028 1840 32 1600 350/05 RMK AO2 T00891067
03812KAVL AVL20160405204010504/05/16 20:40:31  5-MIN KAVL 060140Z 00000KT 10SM CLR 09/M07 A3028 1840 32 1600 000/00 RMK AO2 T00891067
03812KAVL AVL20160405204510504/05/16 20:45:31  5-MIN KAVL 060145Z 00000KT 10SM CLR 08/M06 A3028 1830 35 1500 000/00 RMK AO2 T00831061
03812KAVL AVL20160405205011204/05/16 20:50:31  5-MIN KAVL 060150Z 00000KT 10SM CLR 08/M06 A3028 1830 35 1500 000/00 RMK AO2 SLP255 T00831061
03812KAVL AVL20160405205510504/05/16 20:55:31  5-MIN KAVL 060155Z 00000KT 10SM CLR 08/M06 A3028 1830 37 1500 000/00 RMK AO2 T00831056
03812KAVL AVL20160405210010504/05/16 21:00:31  5-MIN KAVL 060200Z 00000KT 10SM CLR 08/M06 A3029 1830 37 1500 000/00 RMK AO2 T00831056
03812KAVL AVL20160405210510504/05/16 21:05:31  5-MIN KAVL 060205Z 00000KT 10SM CLR 08/M06 A3029 1830 35 1500 000/00 RMK AO2 T00831061
03812KAVL AVL20160405211010504/05/16 21:10:31  5-MIN KAVL 060210Z 00000KT 10SM CLR 08/M06 A3029 1830 38 1400 000/00 RMK AO2 T00781056
03812KAVL AVL20160405211510504/05/16 21:15:31  5-MIN KAVL 060215Z 00000KT 10SM CLR 07/M05 A3029 1830 41 1400 000/00 RMK AO2 T00721050
03812KAVL AVL20160405212010504/05/16 21:20:31  5-MIN KAVL 060220Z 16003KT 10SM CLR 07/M05 A3029 1830 41 1400 170/03 RMK AO2 T00721050
03812KAVL AVL20160405212510504/05/16 21:25:31  5-MIN KAVL 060225Z 18003KT 10SM CLR 08/M05 A3030 1820 40 1400 180/03 RMK AO2 T00781050
03812KAVL AVL20160405213010504/05/16 21:30:31  5-MIN KAVL 060230Z 00000KT 10SM CLR 07/M04 A3030 1820 45 1300 000/00 RMK AO2 T00671044
03812KAVL AVL20160405213510504/05/16 21:35:31  5-MIN KAVL 060235Z 18004KT 10SM CLR 06/M04 A3030 1820 46 1200 180/04 RMK AO2 T00611044
03812KAVL AVL20160405214010504/05/16 21:40:31  5-MIN KAVL 060240Z 19005KT 10SM CLR 06/M03 A3030 1820 51 1200 200/05 RMK AO2 T00611033
03812KAVL AVL20160405214510504/05/16 21:45:31  5-MIN KAVL 060245Z 18005KT 10SM CLR 06/M03 A3030 1820 53 1200 190/05 RMK AO2 T00611028
03812KAVL AVL20160405215012304/05/16 21:50:31  5-MIN KAVL 060250Z AUTO 16004KT 10SM CLR 06/M03 A3030 1820 55 1200 160/04 RMK AO2 SLP262 T00561028 52006
03812KAVL AVL20160405215511004/05/16 21:55:31  5-MIN KAVL 060255Z AUTO 15003KT 10SM CLR 06/M04 A3030 1810 48 1200 150/03 RMK AO2 T00611039
03812KAVL AVL20160405220011004/05/16 22:00:31  5-MIN KAVL 060300Z AUTO 15003KT 10SM CLR 07/M04 A3030 1810 47 1300 160/03 RMK AO2 T00671039
03812KAVL AVL20160405220511004/05/16 22:05:31  5-MIN KAVL 060305Z AUTO 15003KT 10SM CLR 07/M04 A3030 1810 47 1300 150/03 RMK AO2 T00671039
03812KAVL AVL20160405221011504/05/16 22:10:31  5-MIN KAVL 060310Z AUTO 15005KT 10SM CLR 07/M04 A3030 1810 45 1300 160/05 RMK AO2 T00671044 TSNO
03812KAVL AVL20160405221511004/05/16 22:15:31  5-MIN KAVL 060315Z AUTO 16004KT 10SM CLR 06/M04 A3030 1810 46 1200 160/04 RMK AO2 T00611044
03812KAVL AVL20160405222011004/05/16 22:20:31  5-MIN KAVL 060320Z AUTO 15004KT 10SM CLR 06/M04 A3030 1810 46 1200 160/04 RMK AO2 T00611044
03812KAVL AVL20160405222511504/05/16 22:25:31  5-MIN KAVL 060325Z AUTO 15004KT 10SM CLR 06/M04 A3030 1820 46 1200 160/04 RMK AO2 T00611044 TSNO
03812KAVL AVL20160405223011004/05/16 22:30:31  5-MIN KAVL 060330Z AUTO 15003KT 10SM CLR 06/M04 A3030 1820 48 1200 160/03 RMK AO2 T00561044
03812KAVL AVL20160405223511004/05/16 22:35:31  5-MIN KAVL 060335Z AUTO 16005KT 10SM CLR 06/M04 A3031 1810 46 1200 170/05 RMK AO2 T00611044
03812KAVL AVL20160405224011004/05/16 22:40:31  5-MIN KAVL 060340Z AUTO 17006KT 10SM CLR 06/M05 A3030 1810 45 1200 170/06 RMK AO2 T00611050
03812KAVL AVL20160405224511004/05/16 22:45:31  5-MIN KAVL 060345Z AUTO 18006KT 10SM CLR 06/M05 A3030 1810 45 1200 190/06 RMK AO2 T00611050
03812KAVL AVL20160405225011704/05/16 22:50:31  5-MIN KAVL 060350Z AUTO 17006KT 10SM CLR 06/M04 A3031 1810 48 1100 180/06 RMK AO2 SLP263 T00561044
03812KAVL AVL20160405225511004/05/16 22:55:31  5-MIN KAVL 060355Z AUTO 18005KT 10SM CLR 06/M05 A3030 1810 46 1200 190/05 RMK AO2 T00561050
03812KAVL AVL20160405230011004/05/16 23:00:31  5-MIN KAVL 060400Z AUTO 17005KT 10SM CLR 06/M05 A3030 1810 46 1200 170/05 RMK AO2 T00561050
03812KAVL AVL20160405230511004/05/16 23:05:31  5-MIN KAVL 060405Z AUTO 18005KT 10SM CLR 05/M05 A3031 1810 48 1100 190/05 RMK AO2 T00501050
03812KAVL AVL20160405231011004/05/16 23:10:31  5-MIN KAVL 060410Z AUTO 17004KT 10SM CLR 06/M05 A3030 1820 46 1200 180/04 RMK AO2 T00561050
03812KAVL AVL20160405231511004/05/16 23:15:31  5-MIN KAVL 060415Z AUTO 17004KT 10SM CLR 05/M05 A3030 1810 48 1100 170/04 RMK AO2 T00501050
03812KAVL AVL20160405232011004/05/16 23:20:31  5-MIN KAVL 060420Z AUTO 19005KT 10SM CLR 05/M05 A3030 1810 48 1100 200/05 RMK AO2 T00501050
03812KAVL AVL20160405232511004/05/16 23:25:31  5-MIN KAVL 060425Z AUTO 19006KT 10SM CLR 06/M05 A3031 1810 46 1100 190/06 RMK AO2 T00561050
03812KAVL AVL20160405233011004/05/16 23:30:31  5-MIN KAVL 060430Z AUTO 19003KT 10SM CLR 05/M05 A3030 1820 48 1100 190/03 RMK AO2 T00501050
03812KAVL AVL20160405233511004/05/16 23:35:31  5-MIN KAVL 060435Z AUTO 00000KT 10SM CLR 05/M05 A3030 1820 48 1100 000/00 RMK AO2 T00501050
03812KAVL AVL20160405234011004/05/16 23:40:31  5-MIN KAVL 060440Z AUTO 00000KT 10SM CLR 05/M05 A3030 1820 48 1100 000/00 RMK AO2 T00501050
03812KAVL AVL20160405234511004/05/16 23:45:31  5-MIN KAVL 060445Z AUTO 00000KT 10SM CLR 06/M06 A3031 1810 44 1100 000/00 RMK AO2 T00561056
03812KAVL AVL20160405235012704/05/16 23:50:31  5-MIN KAVL 060450Z AUTO 00000KT 10SM CLR 05/M06 A3030 1810 46 1100 000/00 RMK AO2 SLP260 T00501056 401500033
03812KAVL AVL20160405235511004/05/16 23:55:31  5-MIN KAVL 060455Z AUTO 00000KT 10SM CLR 04/M06 A3030 1820 48 1000 000/00 RMK AO2 T00441056
03812KAVL AVL20160406000011004/06/16 00:00:31  5-MIN KAVL 060500Z AUTO 12003KT 10SM CLR 05/M06 A3030 1820 46 1100 130/03 RMK AO2 T00501056
03812KAVL AVL20160406000511004/06/16 00:05:31  5-MIN KAVL 060505Z AUTO 00000KT 10SM CLR 05/M06 A3030 1820 46 1100 000/00 RMK AO2 T00501056
03812KAVL AVL20160406001011004/06/16 00:10:31  5-MIN KAVL 060510Z AUTO 00000KT 10SM CLR 05/M06 A3030 1810 46 1100 000/00 RMK AO2 T00501056
03812KAVL AVL20160406001511004/06/16 00:15:31  5-MIN KAVL 060515Z AUTO 00000KT 10SM CLR 05/M06 A3031 1810 46 1100 000/00 RMK AO2 T00501056
03812KAVL AVL20160406002011004/06/16 00:20:31  5-MIN KAVL 060520Z AUTO 00000KT 10SM CLR 04/M06 A3030 1820 48 1000 000/00 RMK AO2 T00441056
03812KAVL AVL20160406002511004/06/16 00:25:31  5-MIN KAVL 060525Z AUTO 17003KT 10SM CLR 05/M06 A3031 1810 46 1100 170/03 RMK AO2 T00501056
03812KAVL AVL20160406003011004/06/16 00:30:31  5-MIN KAVL 060530Z AUTO 00000KT 10SM CLR 04/M06 A3030 1820 48 1000 000/00 RMK AO2 T00441056
03812KAVL AVL20160406003511004/06/16 00:35:31  5-MIN KAVL 060535Z AUTO 16003KT 10SM CLR 04/M06 A3030 1810 48 1000 160/03 RMK AO2 T00441056
03812KAVL AVL20160406004011004/06/16 00:40:31  5-MIN KAVL 060540Z AUTO 00000KT 10SM CLR 04/M05 A3030 1820 52 1000 000/00 RMK AO2 T00391050
03812KAVL AVL20160406004510904/06/16 00:45:31  5-MIN KAVL 060545Z AUTO 16004KT 10SM CLR 04/M05 A3030 1820 52 900 160/04 RMK AO2 T00391050
03812KAVL AVL20160406005013404/06/16 00:50:31  5-MIN KAVL 060550Z AUTO 15003KT 10SM CLR 03/M04 A3030 1820 57 900 160/03 RMK AO2 SLP259 T00331044 10106 20033 51020
03812KAVL AVL20160406005510904/06/16 00:55:31  5-MIN KAVL 060555Z AUTO 14003KT 10SM CLR 03/M04 A3030 1820 57 900 150/03 RMK AO2 T00331044
03812KAVL AVL20160406010010904/06/16 01:00:31  5-MIN KAVL 060600Z AUTO 15003KT 10SM CLR 03/M04 A3030 1820 57 900 160/03 RMK AO2 T00331044
03812KAVL AVL20160406010510904/06/16 01:05:31  5-MIN KAVL 060605Z AUTO 15003KT 10SM CLR 03/M04 A3030 1820 61 800 160/03 RMK AO2 T00281039
03812KAVL AVL20160406011010904/06/16 01:10:31  5-MIN KAVL 060610Z AUTO 14003KT 10SM CLR 03/M04 A3029 1820 61 800 150/03 RMK AO2 T00281039
03812KAVL AVL20160406011510904/06/16 01:15:31  5-MIN KAVL 060615Z AUTO 14003KT 10SM CLR 03/M04 A3029 1830 61 800 150/03 RMK AO2 T00281039
03812KAVL AVL20160406012010904/06/16 01:20:31  5-MIN KAVL 060620Z AUTO 16003KT 10SM CLR 03/M04 A3030 1820 61 800 170/03 RMK AO2 T00281039
03812KAVL AVL20160406012510904/06/16 01:25:31  5-MIN KAVL 060625Z AUTO 15004KT 10SM CLR 03/M04 A3029 1830 61 800 160/04 RMK AO2 T00281039
03812KAVL AVL20160406013010904/06/16 01:30:31  5-MIN KAVL 060630Z AUTO 15004KT 10SM CLR 03/M04 A3029 1820 61 800 160/04 RMK AO2 T00281039
03812KAVL AVL20160406013510904/06/16 01:35:31  5-MIN KAVL 060635Z AUTO 14003KT 10SM CLR 02/M04 A3029 1830 64 800 140/03 RMK AO2 T00221039
03812KAVL AVL20160406014010904/06/16 01:40:31  5-MIN KAVL 060640Z AUTO 14003KT 10SM CLR 03/M04 A3029 1830 61 800 150/03 RMK AO2 T00281039
03812KAVL AVL20160406014510904/06/16 01:45:31  5-MIN KAVL 060645Z AUTO 15004KT 10SM CLR 02/M04 A3029 1830 64 800 150/04 RMK AO2 T00221039
03812KAVL AVL20160406015011604/06/16 01:50:31  5-MIN KAVL 060650Z AUTO 16004KT 10SM CLR 02/M04 A3029 1830 64 800 160/04 RMK AO2 SLP256 T00221039
03812KAVL AVL20160406015510904/06/16 01:55:31  5-MIN KAVL 060655Z AUTO 14003KT 10SM CLR 02/M04 A3029 1830 64 800 150/03 RMK AO2 T00221039
03812KAVL AVL20160406020010904/06/16 02:00:31  5-MIN KAVL 060700Z AUTO 15004KT 10SM CLR 02/M04 A3029 1830 64 800 150/04 RMK AO2 T00221039
03812KAVL AVL20160406020510904/06/16 02:05:31  5-MIN KAVL 060705Z AUTO 15004KT 10SM CLR 02/M04 A3029 1830 64 800 150/04 RMK AO2 T00221039
03812KAVL AVL20160406021010904/06/16 02:10:31  5-MIN KAVL 060710Z AUTO 16004KT 10SM CLR 02/M04 A3029 1830 66 700 160/04 RMK AO2 T00171039
03812KAVL AVL20160406021510904/06/16 02:15:31  5-MIN KAVL 060715Z AUTO 14003KT 10SM CLR 02/M04 A3029 1830 66 700 150/03 RMK AO2 T00171039
03812KAVL AVL20160406022010904/06/16 02:20:31  5-MIN KAVL 060720Z AUTO 16004KT 10SM CLR 02/M04 A3029 1830 66 700 160/04 RMK AO2 T00171039
03812KAVL AVL20160406022510904/06/16 02:25:31  5-MIN KAVL 060725Z AUTO 14004KT 10SM CLR 02/M04 A3029 1830 66 700 150/04 RMK AO2 T00171039
03812KAVL AVL20160406023010904/06/16 02:30:31  5-MIN KAVL 060730Z AUTO 14004KT 10SM CLR 02/M04 A3029 1830 66 700 150/04 RMK AO2 T00171039
03812KAVL AVL20160406023510904/06/16 02:35:31  5-MIN KAVL 060735Z AUTO 14004KT 10SM CLR 02/M04 A3029 1830 66 700 140/04 RMK AO2 T00171039
03812KAVL AVL20160406024010904/06/16 02:40:31  5-MIN KAVL 060740Z AUTO 16004KT 10SM CLR 01/M04 A3029 1830 69 600 170/04 RMK AO2 T00111039
03812KAVL AVL20160406024510904/06/16 02:45:31  5-MIN KAVL 060745Z AUTO 15004KT 10SM CLR 01/M03 A3029 1820 72 600 160/04 RMK AO2 T00111033
03812KAVL AVL20160406025011604/06/16 02:50:31  5-MIN KAVL 060750Z AUTO 15004KT 10SM CLR 01/M03 A3030 1820 72 600 150/04 RMK AO2 SLP259 T00111033
03812KAVL AVL20160406025510904/06/16 02:55:31  5-MIN KAVL 060755Z AUTO 14003KT 10SM CLR 02/M04 A3030 1820 66 700 150/03 RMK AO2 T00171039
03812KAVL AVL20160406030010904/06/16 03:00:31  5-MIN KAVL 060800Z AUTO 13004KT 10SM CLR 02/M04 A3029 1820 66 700 140/04 RMK AO2 T00171039
03812KAVL AVL20160406030510904/06/16 03:05:31  5-MIN KAVL 060805Z AUTO 14003KT 10SM CLR 02/M04 A3030 1820 66 700 150/03 RMK AO2 T00171039
03812KAVL AVL20160406031010904/06/16 03:10:31  5-MIN KAVL 060810Z AUTO 14004KT 10SM CLR 02/M04 A3030 1820 66 700 150/04 RMK AO2 T00171039
03812KAVL AVL20160406031510904/06/16 03:15:31  5-MIN KAVL 060815Z AUTO 14003KT 10SM CLR 01/M04 A3030 1820 69 600 150/03 RMK AO2 T00111039
03812KAVL AVL20160406032010904/06/16 03:20:31  5-MIN KAVL 060820Z AUTO 15003KT 10SM CLR 01/M04 A3030 1820 69 600 160/03 RMK AO2 T00111039
03812KAVL AVL20160406032510904/06/16 03:25:31  5-MIN KAVL 060825Z AUTO 16004KT 10SM CLR 01/M03 A3031 1810 72 600 170/04 RMK AO2 T00111033
03812KAVL AVL20160406033010904/06/16 03:30:31  5-MIN KAVL 060830Z AUTO 15004KT 10SM CLR 01/M03 A3031 1810 72 600 150/04 RMK AO2 T00111033
03812KAVL AVL20160406033510904/06/16 03:35:31  5-MIN KAVL 060835Z AUTO 16003KT 10SM CLR 01/M04 A3031 1810 69 600 160/03 RMK AO2 T00111039
03812KAVL AVL20160406034010904/06/16 03:40:31  5-MIN KAVL 060840Z AUTO 16005KT 10SM CLR 01/M04 A3031 1810 72 500 160/05 RMK AO2 T00061039
03812KAVL AVL20160406034510904/06/16 03:45:31  5-MIN KAVL 060845Z AUTO 14003KT 10SM CLR 01/M03 A3031 1810 75 500 150/03 RMK AO2 T00061033
03812KAVL AVL20160406035012204/06/16 03:50:31  5-MIN KAVL 060850Z AUTO 14004KT 10SM CLR 01/M04 A3031 1800 69 600 150/04 RMK AO2 SLP264 T00111039 58001
03812KAVL AVL20160406035510904/06/16 03:55:31  5-MIN KAVL 060855Z AUTO 13005KT 10SM CLR 01/M04 A3031 1800 69 600 140/05 RMK AO2 T00111039
03812KAVL AVL20160406040010904/06/16 04:00:31  5-MIN KAVL 060900Z AUTO 15005KT 10SM CLR 01/M04 A3032 1800 69 600 150/05 RMK AO2 T00111039
03812KAVL AVL20160406040510904/06/16 04:05:31  5-MIN KAVL 060905Z AUTO 15005KT 10SM CLR 01/M04 A3031 1800 69 600 150/05 RMK AO2 T00111039
03812KAVL AVL20160406041010904/06/16 04:10:31  5-MIN KAVL 060910Z AUTO 15004KT 10SM CLR 01/M04 A3031 1810 69 600 150/04 RMK AO2 T00111039
03812KAVL AVL20160406041510904/06/16 04:15:31  5-MIN KAVL 060915Z AUTO 14005KT 10SM CLR 01/M04 A3031 1800 69 600 150/05 RMK AO2 T00111039
03812KAVL AVL20160406042010904/06/16 04:20:31  5-MIN KAVL 060920Z AUTO 16005KT 10SM CLR 01/M04 A3032 1800 66 600 170/05 RMK AO2 T00111044
03812KAVL AVL20160406042510904/06/16 04:25:31  5-MIN KAVL 060925Z AUTO 13005KT 10SM CLR 01/M04 A3031 1800 66 600 140/05 RMK AO2 T00111044
03812KAVL AVL20160406043010904/06/16 04:30:31  5-MIN KAVL 060930Z AUTO 16004KT 10SM CLR 01/M04 A3031 1800 66 600 160/04 RMK AO2 T00111044
03812KAVL AVL20160406043510904/06/16 04:35:31  5-MIN KAVL 060935Z AUTO 15004KT 10SM CLR 01/M04 A3031 1810 72 500 150/04 RMK AO2 T00061039
03812KAVL AVL20160406044010904/06/16 04:40:31  5-MIN KAVL 060940Z AUTO 15005KT 10SM CLR 01/M04 A3031 1810 69 500 150/05 RMK AO2 T00061044
03812KAVL AVL20160406044510904/06/16 04:45:31  5-MIN KAVL 060945Z AUTO 16006KT 10SM CLR 01/M05 A3031 1810 64 600 160/06 RMK AO2 T00111050
03812KAVL AVL20160406045011604/06/16 04:50:31  5-MIN KAVL 060950Z AUTO 16006KT 10SM CLR 00/M04 A3031 1810 72 500 170/06 RMK AO2 SLP263 T00001044
03812KAVL AVL20160406045510904/06/16 04:55:31  5-MIN KAVL 060955Z AUTO 15004KT 10SM CLR 00/M04 A3031 1810 75 500 150/04 RMK AO2 T00001039
03812KAVL AVL20160406050010904/06/16 05:00:31  5-MIN KAVL 061000Z AUTO 14004KT 10SM CLR 00/M04 A3031 1810 72 500 150/04 RMK AO2 T00001044
03812KAVL AVL20160406050510904/06/16 05:05:31  5-MIN KAVL 061005Z AUTO 15004KT 10SM CLR 01/M05 A3030 1810 64 600 150/04 RMK AO2 T00111050
03812KAVL AVL20160406051010904/06/16 05:10:31  5-MIN KAVL 061010Z AUTO 14005KT 10SM CLR 01/M05 A3030 1820 64 600 150/05 RMK AO2 T00111050
03812KAVL AVL20160406051510904/06/16 05:15:31  5-MIN KAVL 061015Z AUTO 14005KT 10SM CLR 01/M05 A3030 1820 64 600 140/05 RMK AO2 T00111050
03812KAVL AVL20160406052010904/06/16 05:20:31  5-MIN KAVL 061020Z AUTO 14004KT 10SM CLR 01/M05 A3030 1820 64 600 150/04 RMK AO2 T00111050
03812KAVL AVL20160406052510404/06/16 05:25:31  5-MIN KAVL 061025Z 15005KT 10SM CLR 01/M06 A3030 1820 61 600 150/05 RMK AO2 T00111056
03812KAVL AVL20160406053010404/06/16 05:30:31  5-MIN KAVL 061030Z 15005KT 10SM CLR 01/M06 A3029 1820 63 500 150/05 RMK AO2 T00061056
03812KAVL AVL20160406053510404/06/16 05:35:31  5-MIN KAVL 061035Z 15005KT 10SM CLR 01/M06 A3030 1820 63 500 160/05 RMK AO2 T00061056
03812KAVL AVL20160406054010404/06/16 05:40:31  5-MIN KAVL 061040Z 16005KT 10SM CLR 01/M05 A3030 1820 66 500 160/05 RMK AO2 T00061050
03812KAVL AVL20160406054510404/06/16 05:45:31  5-MIN KAVL 061045Z 16006KT 10SM CLR 00/M05 A3029 1820 69 500 160/06 RMK AO2 T00001050
03812KAVL AVL20160406055011204/06/16 05:50:31  5-MIN KAVL 061050Z 16006KT 10SM CLR M01/M04 A3029 1820 75 400 160/06 RMK AO2 SLP258 T10061044
03812KAVL AVL20160406055510404/06/16 05:55:31  5-MIN KAVL 061055Z 16005KT 10SM CLR 00/M04 A3030 1820 72 500 160/05 RMK AO2 T00001044
03812KAVL AVL20160406060010404/06/16 06:00:31  5-MIN KAVL 061100Z 14005KT 10SM CLR 00/M05 A3030 1820 69 500 150/05 RMK AO2 T00001050
03812KAVL AVL20160406060510404/06/16 06:05:31  5-MIN KAVL 061105Z 14004KT 10SM CLR 00/M05 A3029 1820 69 500 140/04 RMK AO2 T00001050
03812KAVL AVL20160406061010404/06/16 06:10:31  5-MIN KAVL 061110Z 13005KT 10SM CLR 00/M05 A3029 1830 69 500 130/05 RMK AO2 T00001050
03812KAVL AVL20160406061510404/06/16 06:15:31  5-MIN KAVL 061115Z 12004KT 10SM CLR 01/M05 A3030 1820 66 500 130/04 RMK AO2 T00061050
03812KAVL AVL20160406062010404/06/16 06:20:31  5-MIN KAVL 061120Z 12004KT 10SM CLR 01/M05 A3030 1820 66 500 130/04 RMK AO2 T00061050
03812KAVL AVL20160406062510404/06/16 06:25:31  5-MIN KAVL 061125Z 10004KT 10SM CLR 01/M06 A3030 1820 63 500 110/04 RMK AO2 T00061056
03812KAVL AVL20160406063010404/06/16 06:30:31  5-MIN KAVL 061130Z 11004KT 10SM CLR 01/M06 A3030 1820 63 500 120/04 RMK AO2 T00061056
03812KAVL AVL20160406063510404/06/16 06:35:31  5-MIN KAVL 061135Z 13004KT 10SM CLR 01/M06 A3030 1820 61 600 130/04 RMK AO2 T00111056
03812KAVL AVL20160406064010404/06/16 06:40:31  5-MIN KAVL 061140Z 13005KT 10SM CLR 01/M06 A3030 1820 58 600 130/05 RMK AO2 T00111061
03812KAVL AVL20160406064510404/06/16 06:45:31  5-MIN KAVL 061145Z 13004KT 10SM CLR 01/M06 A3030 1820 58 600 140/04 RMK AO2 T00111061
03812KAVL AVL20160406065012904/06/16 06:50:31  5-MIN KAVL 061150Z 14004KT 10SM CLR 01/M06 A3030 1820 58 600 150/04 RMK AO2 SLP262 T00111061 10033 21006 53005
03812KAVL AVL20160406065510404/06/16 06:55:31  5-MIN KAVL 061155Z 14005KT 10SM CLR 01/M06 A3030 1820 61 600 140/05 RMK AO2 T00111056
03812KAVL AVL20160406070010404/06/16 07:00:31  5-MIN KAVL 061200Z 15005KT 10SM CLR 02/M06 A3030 1820 59 700 160/05 RMK AO2 T00171056
03812KAVL AVL20160406070510404/06/16 07:05:31  5-MIN KAVL 061205Z 15006KT 10SM CLR 02/M06 A3030 1820 59 700 160/06 RMK AO2 T00171056
03812KAVL AVL20160406071010404/06/16 07:10:31  5-MIN KAVL 061210Z 16007KT 10SM CLR 02/M06 A3031 1810 54 700 170/07 RMK AO2 T00221061
03812KAVL AVL20160406071510404/06/16 07:15:31  5-MIN KAVL 061215Z 16007KT 10SM CLR 02/M06 A3031 1810 54 700 170/07 RMK AO2 T00221061
03812KAVL AVL20160406072010404/06/16 07:20:31  5-MIN KAVL 061220Z 16006KT 10SM CLR 03/M06 A3031 1810 52 800 160/06 RMK AO2 T00281061
03812KAVL AVL20160406072510404/06/16 07:25:31  5-MIN KAVL 061225Z 16006KT 10SM CLR 03/M06 A3031 1810 52 800 160/06 RMK AO2 T00281061
03812KAVL AVL20160406073010404/06/16 07:30:31  5-MIN KAVL 061230Z 16006KT 10SM CLR 03/M06 A3031 1810 52 800 160/06 RMK AO2 T00281061
03812KAVL AVL20160406073510404/06/16 07:35:31  5-MIN KAVL 061235Z 16006KT 10SM CLR 03/M06 A3031 1810 52 800 160/06 RMK AO2 T00281061
03812KAVL AVL20160406074010404/06/16 07:40:31  5-MIN KAVL 061240Z 16007KT 10SM CLR 03/M06 A3031 1810 50 900 170/07 RMK AO2 T00331061
03812KAVL AVL20160406074510404/06/16 07:45:31  5-MIN KAVL 061245Z 15007KT 10SM CLR 03/M06 A3031 1810 50 900 160/07 RMK AO2 T00331061
03812KAVL AVL20160406075011104/06/16 07:50:31  5-MIN KAVL 061250Z 17007KT 10SM CLR 03/M06 A3031 1810 50 900 170/07 RMK AO2 SLP263 T00331061
03812KAVL AVL20160406075510404/06/16 07:55:31  5-MIN KAVL 061255Z 17007KT 10SM CLR 04/M06 A3031 1810 50 900 180/07 RMK AO2 T00391056
03812KAVL AVL20160406080010404/06/16 08:00:31  5-MIN KAVL 061300Z 16007KT 10SM CLR 04/M06 A3031 1810 50 900 160/07 RMK AO2 T00391056
03812KAVL AVL20160406080510504/06/16 08:05:31  5-MIN KAVL 061305Z 15008KT 10SM CLR 04/M06 A3031 1810 48 1000 160/08 RMK AO2 T00441056
03812KAVL AVL20160406081010504/06/16 08:10:31  5-MIN KAVL 061310Z 16008KT 10SM CLR 04/M06 A3031 1810 48 1000 160/08 RMK AO2 T00441056
03812KAVL AVL20160406081510504/06/16 08:15:31  5-MIN KAVL 061315Z 18008KT 10SM CLR 05/M05 A3031 1810 48 1100 180/08 RMK AO2 T00501050
03812KAVL AVL20160406082010504/06/16 08:20:31  5-MIN KAVL 061320Z 18009KT 10SM CLR 06/M05 A3031 1810 46 1100 180/09 RMK AO2 T00561050
03812KAVL AVL20160406082510504/06/16 08:25:31  5-MIN KAVL 061325Z 18010KT 10SM CLR 06/M05 A3030 1810 46 1200 190/10 RMK AO2 T00561050
03812KAVL AVL20160406083010504/06/16 08:30:31  5-MIN KAVL 061330Z 20010KT 10SM CLR 06/M06 A3031 1810 44 1200 200/10 RMK AO2 T00561056
03812KAVL AVL20160406083510504/06/16 08:35:31  5-MIN KAVL 061335Z 18012KT 10SM CLR 06/M05 A3030 1820 45 1200 190/12 RMK AO2 T00611050
03812KAVL AVL20160406084010504/06/16 08:40:31  5-MIN KAVL 061340Z 19010KT 10SM CLR 06/M06 A3030 1810 43 1200 190/10 RMK AO2 T00611056
03812KAVL AVL20160406084510504/06/16 08:45:31  5-MIN KAVL 061345Z 19012KT 10SM CLR 07/M06 A3031 1810 41 1300 190/12 RMK AO2 T00671056
03812KAVL AVL20160406085011204/06/16 08:50:31  5-MIN KAVL 061350Z 20010KT 10SM CLR 06/M06 A3030 1810 43 1200 200/10 RMK AO2 SLP261 T00611056
03812KAVL AVL20160406085511104/06/16 08:55:31  5-MIN KAVL 061355Z 16010G17KT 10SM CLR 07/M06 A3030 1810 41 1300 170/10G17 RMK AO2 T00671056
03812KAVL AVL20160406090012104/06/16 09:00:31  5-MIN KAVL 061400Z 20011KT 160V230 10SM CLR 07/M06 A3030 1820 41 1300 210/11 170V240 RMK AO2 T00671056
03812KAVL AVL20160406090510504/06/16 09:05:31  5-MIN KAVL 061405Z 18010KT 10SM CLR 07/M06 A3030 1820 40 1400 180/10 RMK AO2 T00721056
03812KAVL AVL20160406091010504/06/16 09:10:31  5-MIN KAVL 061410Z 19010KT 10SM CLR 07/M06 A3030 1820 40 1400 200/10 RMK AO2 T00721056
03812KAVL AVL20160406091510504/06/16 09:15:31  5-MIN KAVL 061415Z 18010KT 10SM CLR 08/M05 A3030 1820 40 1400 190/10 RMK AO2 T00781050
03812KAVL AVL20160406092010504/06/16 09:20:31  5-MIN KAVL 061420Z 21011KT 10SM CLR 08/M05 A3029 1820 40 1400 220/11 RMK AO2 T00781050
03812KAVL AVL20160406092510504/06/16 09:25:31  5-MIN KAVL 061425Z 17009KT 10SM CLR 08/M05 A3029 1830 40 1400 180/09 RMK AO2 T00781050
03812KAVL AVL20160406093010504/06/16 09:30:31  5-MIN KAVL 061430Z 20010KT 10SM CLR 08/M05 A3029 1830 38 1500 200/10 RMK AO2 T00831050
03812KAVL AVL20160406093510504/06/16 09:35:31  5-MIN KAVL 061435Z 17010KT 10SM CLR 08/M05 A3029 1830 38 1500 180/10 RMK AO2 T00831050
03812KAVL AVL20160406094010504/06/16 09:40:31  5-MIN KAVL 061440Z 17010KT 10SM CLR 08/M04 A3029 1830 40 1500 180/10 RMK AO2 T00831044
03812KAVL AVL20160406094510504/06/16 09:45:31  5-MIN KAVL 061445Z 16009KT 10SM CLR 08/M06 A3029 1830 37 1500 160/09 RMK AO2 T00831056
03812KAVL AVL20160406095011804/06/16 09:50:31  5-MIN KAVL 061450Z 18012KT 10SM CLR 08/M04 A3029 1830 40 1500 180/12 RMK AO2 SLP255 T00831044 55005
03812KAVL AVL20160406095510504/06/16 09:55:31  5-MIN KAVL 061455Z 17011KT 10SM CLR 09/M04 A3028 1830 38 1600 180/11 RMK AO2 T00891044
03812KAVL AVL20160406100010504/06/16 10:00:31  5-MIN KAVL 061500Z 18011KT 10SM CLR 09/M04 A3029 1830 38 1600 180/11 RMK AO2 T00891044
03812KAVL AVL20160406100511104/06/16 10:05:31  5-MIN KAVL 061505Z 18008G17KT 10SM CLR 09/M04 A3029 1830 40 1600 180/08G17 RMK AO2 T00891039
03812KAVL AVL20160406101011104/06/16 10:10:31  5-MIN KAVL 061510Z 18008G17KT 10SM CLR 09/M04 A3028 1830 37 1600 190/08G17 RMK AO2 T00941044
03812KAVL AVL20160406101510504/06/16 10:15:31  5-MIN KAVL 061515Z 17013KT 10SM CLR 09/M04 A3028 1840 40 1600 180/13 RMK AO2 T00891039
03812KAVL AVL20160406102010504/06/16 10:20:31  5-MIN KAVL 061520Z 17012KT 10SM CLR 09/M05 A3028 1840 37 1600 180/12 RMK AO2 T00891050
03812KAVL AVL20160406102510504/06/16 10:25:31  5-MIN KAVL 061525Z 17011KT 10SM CLR 09/M04 A3028 1840 37 1700 170/11 RMK AO2 T00941044
03812KAVL AVL20160406103010504/06/16 10:30:31  5-MIN KAVL 061530Z 16011KT 10SM CLR 09/M05 A3027 1840 35 1700 170/11 RMK AO2 T00941050
03812KAVL AVL20160406103511104/06/16 10:35:31  5-MIN KAVL 061535Z 17009G17KT 10SM CLR 09/M05 A3027 1840 35 1700 170/09G17 RMK AO2 T00941050
03812KAVL AVL20160406104011104/06/16 10:40:31  5-MIN KAVL 061540Z 17011G18KT 10SM CLR 10/M04 A3027 1850 36 1700 180/11G18 RMK AO2 T01001044
03812KAVL AVL20160406104511104/06/16 10:45:31  5-MIN KAVL 061545Z 17014G19KT 10SM CLR 10/M04 A3027 1850 36 1700 170/14G19 RMK AO2 T01001044
03812KAVL AVL20160406105011804/06/16 10:50:31  5-MIN KAVL 061550Z 20009G19KT 10SM CLR 11/M04 A3027 1850 34 1800 210/09G19 RMK AO2 SLP246 T01061044
03812KAVL AVL20160406105512104/06/16 10:55:31  5-MIN KAVL 061555Z 17011KT 140V200 10SM CLR 11/M04 A3026 1850 36 1800 180/11 150V210 RMK AO2 T01061039
03812KAVL AVL20160406110011104/06/16 11:00:31  5-MIN KAVL 061600Z 17010G17KT 10SM CLR 11/M04 A3026 1860 36 1800 180/10G17 RMK AO2 T01061039
03812KAVL AVL20160406110512104/06/16 11:05:31  5-MIN KAVL 061605Z 15009KT 120V190 10SM CLR 11/M04 A3025 1860 34 1800 160/09 130V200 RMK AO2 T01061044
03812KAVL AVL20160406111010504/06/16 11:10:31  5-MIN KAVL 061610Z 16011KT 10SM CLR 11/M04 A3025 1860 34 1900 170/11 RMK AO2 T01111039
03812KAVL AVL20160406111510504/06/16 11:15:31  5-MIN KAVL 061615Z 20011KT 10SM CLR 11/M04 A3025 1870 34 1900 210/11 RMK AO2 T01111039
03812KAVL AVL20160406112011104/06/16 11:20:31  5-MIN KAVL 061620Z 19011G17KT 10SM CLR 11/M03 A3024 1870 36 1900 200/11G17 RMK AO2 T01111033
03812KAVL AVL20160406112511104/06/16 11:25:31  5-MIN KAVL 061625Z 15012G21KT 10SM CLR 11/M04 A3024 1880 34 1900 150/12G21 RMK AO2 T01111039
03812KAVL AVL20160406113011104/06/16 11:30:31  5-MIN KAVL 061630Z 14010G21KT 10SM CLR 11/M05 A3023 1880 33 1800 150/10G21 RMK AO2 T01061050
03812KAVL AVL20160406113511104/06/16 11:35:31  5-MIN KAVL 061635Z 20013G18KT 10SM CLR 12/M04 A3023 1880 33 2000 200/13G18 RMK AO2 T01171039
03812KAVL AVL20160406114011104/06/16 11:40:31  5-MIN KAVL 061640Z 17011G18KT 10SM CLR 12/M04 A3022 1890 33 2000 180/11G18 RMK AO2 T01171039
03812KAVL AVL20160406114511104/06/16 11:45:31  5-MIN KAVL 061645Z 17014G19KT 10SM CLR 12/M03 A3022 1890 35 2000 180/14G19 RMK AO2 T01171033
03812KAVL AVL20160406115011804/06/16 11:50:31  5-MIN KAVL 061650Z 16014G19KT 10SM CLR 11/M04 A3022 1890 33 1900 170/14G19 RMK AO2 SLP231 T01111044
03812KAVL AVL20160406115511104/06/16 11:55:31  5-MIN KAVL 061655Z 20013G19KT 10SM CLR 12/M04 A3022 1890 33 2000 200/13G19 RMK AO2 T01171039
03812KAVL AVL20160406120011104/06/16 12:00:31  5-MIN KAVL 061700Z 18014G19KT 10SM CLR 12/M03 A3022 1900 35 2000 190/14G19 RMK AO2 T01171033
03812KAVL AVL20160406120511104/06/16 12:05:31  5-MIN KAVL 061705Z 18012G19KT 10SM CLR 12/M03 A3022 1900 35 2000 190/12G19 RMK AO2 T01171033
03812KAVL AVL20160406121010504/06/16 12:10:31  5-MIN KAVL 061710Z 19014KT 10SM CLR 12/M03 A3021 1900 35 2100 200/14 RMK AO2 T01221028
03812KAVL AVL20160406121511104/06/16 12:15:31  5-MIN KAVL 061715Z 17012G19KT 10SM CLR 12/M03 A3021 1900 36 2000 180/12G19 RMK AO2 T01171028
03812KAVL AVL20160406122011104/06/16 12:20:31  5-MIN KAVL 061720Z 19014G20KT 10SM CLR 12/M03 A3021 1900 36 2000 200/14G20 RMK AO2 T01171028
03812KAVL AVL20160406122511404/06/16 12:25:31  5-MIN KAVL 061725Z 18010G20KT 10SM FEW046 12/M03 A3020 1910 36 2000 190/10G20 RMK AO2 T01171028
03812KAVL AVL20160406123010804/06/16 12:30:31  5-MIN KAVL 061730Z 19011KT 10SM SCT046 12/M03 A3020 1910 35 2000 190/11 RMK AO2 T01171033
03812KAVL AVL20160406123511404/06/16 12:35:31  5-MIN KAVL 061735Z 18014G20KT 10SM BKN047 12/M03 A3020 1910 35 2100 190/14G20 RMK AO2 T01221028
03812KAVL AVL20160406124013004/06/16 12:40:31  5-MIN KAVL 061740Z 17013G20KT 150V220 10SM SCT047 13/M02 A3020 1910 35 2100 180/13G20 160V230 RMK AO2 T01281022
03812KAVL AVL20160406124510804/06/16 12:45:31  5-MIN KAVL 061745Z 18008KT 10SM SCT047 12/M03 A3020 1910 35 2100 180/08 RMK AO2 T01221028
03812KAVL AVL20160406125013904/06/16 12:50:31  5-MIN KAVL 061750Z 19012G19KT 10SM SCT047 13/M03 A3020 1910 33 2100 190/12G19 RMK AO2 SLP222 T01281028 10128 20011 58005
03812KAVL AVL20160406125511404/06/16 12:55:31  5-MIN KAVL 061755Z 21013G19KT 10SM SCT047 12/M03 A3019 1920 35 2100 220/13G19 RMK AO2 T01221028
03812KAVL AVL20160406130011404/06/16 13:00:31  5-MIN KAVL 061800Z 18010G20KT 10SM FEW047 12/M03 A3019 1920 35 2100 190/10G20 RMK AO2 T01221028
03812KAVL AVL20160406130511104/06/16 13:05:31  5-MIN KAVL 061805Z 19012G20KT 10SM CLR 12/M02 A3018 1920 36 2100 190/12G20 RMK AO2 T01221022
03812KAVL AVL20160406131011104/06/16 13:10:31  5-MIN KAVL 061810Z 18013G18KT 10SM CLR 12/M03 A3018 1930 36 2000 190/13G18 RMK AO2 T01171028
03812KAVL AVL20160406131511104/06/16 13:15:31  5-MIN KAVL 061815Z 18012G18KT 10SM CLR 12/M02 A3018 1930 36 2100 190/12G18 RMK AO2 T01221022
03812KAVL AVL20160406132010504/06/16 13:20:31  5-MIN KAVL 061820Z 17014KT 10SM CLR 12/M03 A3018 1930 36 2000 180/14 RMK AO2 T01171028
03812KAVL AVL20160406132510504/06/16 13:25:31  5-MIN KAVL 061825Z 16011KT 10SM CLR 12/M03 A3018 1930 36 2000 170/11 RMK AO2 T01171028
03812KAVL AVL20160406133010804/06/16 13:30:31  5-MIN KAVL 061830Z 18014KT 10SM FEW045 12/M03 A3017 1940 36 2000 190/14 RMK AO2 T01171028
03812KAVL AVL20160406133511404/06/16 13:35:31  5-MIN KAVL 061835Z 17012G18KT 10SM FEW045 12/M03 A3017 1940 36 2000 180/12G18 RMK AO2 T01171028
03812KAVL AVL20160406134011404/06/16 13:40:31  5-MIN KAVL 061840Z 17012G18KT 10SM FEW047 11/M03 A3017 1940 37 2000 180/12G18 RMK AO2 T01111028
03812KAVL AVL20160406134511404/06/16 13:45:31  5-MIN KAVL 061845Z 17013G16KT 10SM FEW047 11/M03 A3016 1950 36 2000 180/13G16 RMK AO2 T01111033
03812KAVL AVL20160406135011504/06/16 13:50:31  5-MIN KAVL 061850Z 18012KT 10SM FEW047 11/M03 A3016 1950 37 2000 190/12 RMK AO2 SLP212 T01111028
03812KAVL AVL20160406135510804/06/16 13:55:31  5-MIN KAVL 061855Z 18011KT 10SM FEW046 11/M03 A3016 1950 37 2000 180/11 RMK AO2 T01111028
03812KAVL AVL20160406140010804/06/16 14:00:31  5-MIN KAVL 061900Z 17011KT 10SM SCT046 11/M03 A3015 1950 36 2000 180/11 RMK AO2 T01111033
03812KAVL AVL20160406140510804/06/16 14:05:31  5-MIN KAVL 061905Z 17011KT 10SM FEW048 11/M03 A3015 1960 36 2000 180/11 RMK AO2 T01111033
03812KAVL AVL20160406141010804/06/16 14:10:31  5-MIN KAVL 061910Z 19010KT 10SM SCT048 12/M03 A3014 1960 36 2100 200/10 RMK AO2 T01171028
03812KAVL AVL20160406141511504/06/16 14:15:31  5-MIN KAVL 061915Z 19009KT 10SM SCT048 12/M03 A3014 1970 35 2100 190/09 RMK AO2 PRESFR T01171033
03812KAVL AVL20160406142010804/06/16 14:20:31  5-MIN KAVL 061920Z 18010KT 10SM FEW048 12/M03 A3013 1970 36 2100 180/10 RMK AO2 T01171028
03812KAVL AVL20160406142511404/06/16 14:25:31  5-MIN KAVL 061925Z 16011G17KT 10SM FEW048 12/M03 A3013 1980 36 2100 170/11G17 RMK AO2 T01171028
03812KAVL AVL20160406143010804/06/16 14:30:31  5-MIN KAVL 061930Z 19011KT 10SM FEW048 12/M02 A3013 1980 36 2200 200/11 RMK AO2 T01221022
03812KAVL AVL20160406143511404/06/16 14:35:31  5-MIN KAVL 061935Z 16012G16KT 10SM SCT046 12/M03 A3012 1980 36 2100 170/12G16 RMK AO2 T01171028
03812KAVL AVL20160406144011404/06/16 14:40:31  5-MIN KAVL 061940Z 18011G16KT 10SM BKN046 12/M03 A3012 1980 35 2200 190/11G16 RMK AO2 T01221028
03812KAVL AVL20160406144511404/06/16 14:45:31  5-MIN KAVL 061945Z 18014G19KT 10SM BKN046 12/M03 A3012 1980 35 2100 190/14G19 RMK AO2 T01171033
03812KAVL AVL20160406145011504/06/16 14:50:31  5-MIN KAVL 061950Z 17011KT 10SM BKN046 12/M03 A3012 1990 35 2200 180/11 RMK AO2 SLP197 T01221028
03812KAVL AVL20160406145510804/06/16 14:55:31  5-MIN KAVL 061955Z 16015KT 10SM BKN045 12/M03 A3011 1990 33 2200 170/15 RMK AO2 T01221033
03812KAVL AVL20160406150010804/06/16 15:00:31  5-MIN KAVL 062000Z 17014KT 10SM SCT045 12/M03 A3010 2000 35 2200 170/14 RMK AO2 T01221028
03812KAVL AVL20160406150512104/06/16 15:05:31  5-MIN KAVL 062005Z 16016G22KT 10SM SCT045 12/M03 A3010 2000 33 2200 170/16G22 RMK AO2 PRESFR T01221033
03812KAVL AVL20160406151011404/06/16 15:10:31  5-MIN KAVL 062010Z 19014G22KT 10SM FEW045 13/M02 A3009 2010 35 2300 200/14G22 RMK AO2 T01281022
03812KAVL AVL20160406151510804/06/16 15:15:31  5-MIN KAVL 062015Z 17014KT 10SM FEW044 12/M03 A3009 2010 35 2200 170/14 RMK AO2 T01221028
03812KAVL AVL20160406152010504/06/16 15:20:31  5-MIN KAVL 062020Z 18015KT 10SM CLR 12/M03 A3008 2020 35 2200 190/15 RMK AO2 T01221028
03812KAVL AVL20160406152510504/06/16 15:25:31  5-MIN KAVL 062025Z 18015KT 10SM CLR 12/M02 A3008 2020 36 2200 190/15 RMK AO2 T01221022
03812KAVL AVL20160406153011104/06/16 15:30:31  5-MIN KAVL 062030Z 18012G21KT 10SM CLR 12/M02 A3008 2020 36 2200 180/12G21 RMK AO2 T01221022
03812KAVL AVL20160406153511104/06/16 15:35:31  5-MIN KAVL 062035Z 17010G18KT 10SM CLR 12/M02 A3007 2030 38 2200 180/10G18 RMK AO2 T01221017
03812KAVL AVL20160406154010504/06/16 15:40:31  5-MIN KAVL 062040Z 17012KT 10SM CLR 12/M02 A3007 2030 38 2200 180/12 RMK AO2 T01221017
03812KAVL AVL20160406154511104/06/16 15:45:31  5-MIN KAVL 062045Z 17013G19KT 10SM CLR 12/M02 A3007 2030 38 2200 170/13G19 RMK AO2 T01221017
03812KAVL AVL20160406155012404/06/16 15:50:31  5-MIN KAVL 062050Z 17013G19KT 10SM CLR 12/M02 A3007 2030 38 2200 180/13G19 RMK AO2 SLP183 T01221017 58029
03812KAVL AVL20160406155510804/06/16 15:55:31  5-MIN KAVL 062055Z 18012KT 10SM FEW050 12/M01 A3007 2030 39 2200 180/12 RMK AO2 T01221011
03812KAVL AVL20160406160011404/06/16 16:00:31  5-MIN KAVL 062100Z 18014G20KT 10SM FEW050 12/M01 A3007 2030 39 2200 190/14G20 RMK AO2 T01221011
03812KAVL AVL20160406160511104/06/16 16:05:31  5-MIN KAVL 062105Z 18012G23KT 10SM CLR 12/M01 A3007 2030 41 2100 190/12G23 RMK AO2 T01171011
03812KAVL AVL20160406161011404/06/16 16:10:31  5-MIN KAVL 062110Z 18015G23KT 10SM FEW048 12/M01 A3007 2030 42 2200 190/15G23 RMK AO2 T01171006
03812KAVL AVL20160406161511404/06/16 16:15:31  5-MIN KAVL 062115Z 18014G19KT 10SM FEW048 12/M01 A3007 2030 42 2200 190/14G19 RMK AO2 T01171006
03812KAVL AVL20160406162010504/06/16 16:20:31  5-MIN KAVL 062120Z 18013KT 10SM CLR 12/M01 A3007 2030 42 2100 190/13 RMK AO2 T01171006
03812KAVL AVL20160406162510504/06/16 16:25:31  5-MIN KAVL 062125Z 18013KT 10SM CLR 12/M01 A3007 2030 42 2200 190/13 RMK AO2 T01171006
03812KAVL AVL20160406163010504/06/16 16:30:31  5-MIN KAVL 062130Z 18015KT 10SM CLR 12/M01 A3006 2030 42 2200 180/15 RMK AO2 T01171006
03812KAVL AVL20160406163511104/06/16 16:35:31  5-MIN KAVL 062135Z 18016G23KT 10SM CLR 11/M01 A3007 2030 44 2100 180/16G23 RMK AO2 T01111006
03812KAVL AVL20160406164011104/06/16 16:40:31  5-MIN KAVL 062140Z 18012G23KT 10SM CLR 11/M01 A3006 2030 44 2100 190/12G23 RMK AO2 T01111006
03812KAVL AVL20160406164510504/06/16 16:45:31  5-MIN KAVL 062145Z 18012KT 10SM CLR 11/M01 A3006 2030 44 2100 190/12 RMK AO2 T01111006
03812KAVL AVL20160406165011204/06/16 16:50:31  5-MIN KAVL 062150Z 18014KT 10SM CLR 11/M01 A3006 2040 44 2100 190/14 RMK AO2 SLP181 T01111006
03812KAVL AVL20160406165510504/06/16 16:55:31  5-MIN KAVL 062155Z 19015KT 10SM CLR 11/M01 A3006 2040 44 2100 190/15 RMK AO2 T01111006
03812KAVL AVL20160406170010504/06/16 17:00:31  5-MIN KAVL 062200Z 18014KT 10SM CLR 12/M01 A3006 2040 42 2200 180/14 RMK AO2 T01171006
03812KAVL AVL20160406170510404/06/16 17:05:31  5-MIN KAVL 062205Z 18015KT 10SM CLR 12/00 A3006 2040 43 2200 190/15 RMK AO2 T01220000
03812KAVL AVL20160406171010404/06/16 17:10:31  5-MIN KAVL 062210Z 19014KT 10SM CLR 12/00 A3005 2040 43 2200 200/14 RMK AO2 T01220000
03812KAVL AVL20160406171510404/06/16 17:15:31  5-MIN KAVL 062215Z 19014KT 10SM CLR 12/00 A3005 2050 43 2200 190/14 RMK AO2 T01220000
03812KAVL AVL20160406172011004/06/16 17:20:31  5-MIN KAVL 062220Z 17014G21KT 10SM CLR 12/00 A3004 2050 44 2200 180/14G21 RMK AO2 T01170000
03812KAVL AVL20160406172511004/06/16 17:25:31  5-MIN KAVL 062225Z 19012G21KT 10SM CLR 12/00 A3004 2050 43 2200 190/12G21 RMK AO2 T01220000
03812KAVL AVL20160406173011004/06/16 17:30:31  5-MIN KAVL 062230Z 18012G21KT 10SM CLR 12/00 A3004 2060 43 2200 190/12G21 RMK AO2 T01220000
03812KAVL AVL20160406173511004/06/16 17:35:31  5-MIN KAVL 062235Z 19013G22KT 10SM CLR 12/00 A3004 2060 43 2300 190/13G22 RMK AO2 T01220000
03812KAVL AVL20160406174011004/06/16 17:40:31  5-MIN KAVL 062240Z 20012G22KT 10SM CLR 12/00 A3004 2060 44 2200 200/12G22 RMK AO2 T01170000
03812KAVL AVL20160406174511004/06/16 17:45:31  5-MIN KAVL 062245Z 20014G18KT 10SM CLR 12/00 A3003 2060 44 2200 200/14G18 RMK AO2 T01170000
03812KAVL AVL20160406175011704/06/16 17:50:31  5-MIN KAVL 062250Z 19011G18KT 10SM CLR 12/00 A3003 2070 44 2200 190/11G18 RMK AO2 SLP169 T01170000
03812KAVL AVL20160406175510404/06/16 17:55:31  5-MIN KAVL 062255Z 19012KT 10SM CLR 12/00 A3003 2070 44 2200 190/12 RMK AO2 T01170000
03812KAVL AVL20160406180010404/06/16 18:00:31  5-MIN KAVL 062300Z 18012KT 10SM CLR 12/00 A3003 2070 44 2200 180/12 RMK AO2 T01170000
03812KAVL AVL20160406180510404/06/16 18:05:31  5-MIN KAVL 062305Z 18011KT 10SM CLR 12/01 A3002 2070 46 2200 190/11 RMK AO2 T01170006
03812KAVL AVL20160406181010404/06/16 18:10:31  5-MIN KAVL 062310Z 18012KT 10SM CLR 12/00 A3002 2080 44 2200 190/12 RMK AO2 T01170000
03812KAVL AVL20160406181510404/06/16 18:15:31  5-MIN KAVL 062315Z 18013KT 10SM CLR 11/00 A3001 2080 46 2100 180/13 RMK AO2 T01110000
03812KAVL AVL20160406182011004/06/16 18:20:31  5-MIN KAVL 062320Z 16008G18KT 10SM CLR 11/01 A3001 2090 48 2200 170/08G18 RMK AO2 T01110006
03812KAVL AVL20160406182511004/06/16 18:25:31  5-MIN KAVL 062325Z 18016G24KT 10SM CLR 11/00 A3001 2090 46 2200 180/16G24 RMK AO2 T01110000
03812KAVL AVL20160406183011004/06/16 18:30:31  5-MIN KAVL 062330Z 18011G24KT 10SM CLR 11/00 A3001 2090 48 2100 180/11G24 RMK AO2 T01060000
03812KAVL AVL20160406183510404/06/16 18:35:31  5-MIN KAVL 062335Z 17012KT 10SM CLR 11/01 A3000 2090 50 2100 180/12 RMK AO2 T01060006
03812KAVL AVL20160406184010404/06/16 18:40:31  5-MIN KAVL 062340Z 17010KT 10SM CLR 11/01 A3000 2100 50 2100 170/10 RMK AO2 T01060006
03812KAVL AVL20160406184510404/06/16 18:45:31  5-MIN KAVL 062345Z 16009KT 10SM CLR 11/00 A3000 2100 48 2100 170/09 RMK AO2 T01060000
03812KAVL AVL20160406185013204/06/16 18:50:31  5-MIN KAVL 062350Z 17008KT 10SM FEW045 11/00 A2999 2100 48 2100 170/08 RMK AO2 SLP156 T01060000 10128 20106 58038
03812KAVL AVL20160406185510704/06/16 18:55:31  5-MIN KAVL 062355Z 16009KT 10SM SCT045 11/01 A2999 2100 50 2100 170/09 RMK AO2 T01060006
03812KAVL AVL20160406190010704/06/16 19:00:31  5-MIN KAVL 070000Z 16008KT 10SM BKN045 10/01 A2999 2100 52 2000 170/08 RMK AO2 T01000006
03812KAVL AVL20160406190510704/06/16 19:05:31  5-MIN KAVL 070005Z 16008KT 10SM BKN045 10/01 A2999 2110 52 2000 170/08 RMK AO2 T01000006
03812KAVL AVL20160406191010704/06/16 19:10:31  5-MIN KAVL 070010Z 17009KT 10SM BKN046 11/00 A2998 2110 48 2100 170/09 RMK AO2 T01060000
03812KAVL AVL20160406191510704/06/16 19:15:31  5-MIN KAVL 070015Z 17007KT 10SM BKN046 11/01 A2998 2110 50 2100 180/07 RMK AO2 T01060006
03812KAVL AVL20160406192010704/06/16 19:20:31  5-MIN KAVL 070020Z 18006KT 10SM OVC046 10/01 A2998 2110 52 2100 180/06 RMK AO2 T01000006
03812KAVL AVL20160406192510704/06/16 19:25:31  5-MIN KAVL 070025Z 18006KT 10SM OVC046 10/01 A2998 2110 52 2100 180/06 RMK AO2 T01000006
03812KAVL AVL20160406193010704/06/16 19:30:31  5-MIN KAVL 070030Z 17008KT 10SM OVC046 11/01 A2997 2120 50 2100 180/08 RMK AO2 T01060006
03812KAVL AVL20160406193510704/06/16 19:35:31  5-MIN KAVL 070035Z 17008KT 10SM OVC046 11/01 A2997 2120 50 2100 180/08 RMK AO2 T01060006
03812KAVL AVL20160406194010704/06/16 19:40:31  5-MIN KAVL 070040Z 16007KT 10SM OVC044 11/01 A2997 2120 50 2100 170/07 RMK AO2 T01060006
03812KAVL AVL20160406194511404/06/16 19:45:31  5-MIN KAVL 070045Z 16007KT 10SM OVC044 11/01 A2995 2140 50 2100 160/07 RMK AO2 PRESFR T01060006
03812KAVL AVL20160406195011404/06/16 19:50:31  5-MIN KAVL 070050Z 16007KT 10SM OVC044 11/01 A2995 2140 50 2200 170/07 RMK AO2 SLP140 T01060006
03812KAVL AVL20160406195510704/06/16 19:55:31  5-MIN KAVL 070055Z 15008KT 10SM OVC042 11/01 A2995 2140 50 2200 160/08 RMK AO2 T01060006
03812KAVL AVL20160406200010704/06/16 20:00:31  5-MIN KAVL 070100Z 16008KT 10SM OVC042 11/01 A2994 2150 50 2200 170/08 RMK AO2 T01060006
03812KAVL AVL20160406200510704/06/16 20:05:31  5-MIN KAVL 070105Z 16007KT 10SM OVC042 11/01 A2995 2140 50 2200 160/07 RMK AO2 T01060006
03812KAVL AVL20160406201010704/06/16 20:10:31  5-MIN KAVL 070110Z 16006KT 10SM OVC041 11/01 A2995 2140 50 2200 160/06 RMK AO2 T01060006
03812KAVL AVL20160406201510704/06/16 20:15:31  5-MIN KAVL 070115Z 16006KT 10SM OVC041 11/01 A2995 2140 50 2200 170/06 RMK AO2 T01060006
03812KAVL AVL20160406202010704/06/16 20:20:31  5-MIN KAVL 070120Z 15007KT 10SM OVC039 11/01 A2995 2140 52 2200 160/07 RMK AO2 T01060011
03812KAVL AVL20160406202510704/06/16 20:25:31  5-MIN KAVL 070125Z 17006KT 10SM OVC039 11/01 A2995 2140 52 2200 180/06 RMK AO2 T01060011
03812KAVL AVL20160406203010704/06/16 20:30:31  5-MIN KAVL 070130Z 15005KT 10SM OVC039 11/01 A2995 2140 52 2200 160/05 RMK AO2 T01060011
03812KAVL AVL20160406203510704/06/16 20:35:31  5-MIN KAVL 070135Z 17004KT 10SM OVC039 11/01 A2994 2150 52 2200 170/04 RMK AO2 T01060011
03812KAVL AVL20160406204010704/06/16 20:40:31  5-MIN KAVL 070140Z 16004KT 10SM OVC037 11/01 A2993 2150 52 2200 160/04 RMK AO2 T01060011
03812KAVL AVL20160406204511404/06/16 20:45:31  5-MIN KAVL 070145Z 16005KT 10SM OVC037 11/01 A2993 2160 52 2200 160/05 RMK AO2 PRESFR T01060011
03812KAVL AVL20160406205012104/06/16 20:50:31  5-MIN KAVL 070150Z 15006KT 10SM OVC037 11/01 A2992 2170 52 2200 150/06 RMK AO2 PRESFR SLP127 T01060011
03812KAVL AVL20160406205510704/06/16 20:55:31  5-MIN KAVL 070155Z 15006KT 10SM OVC037 11/01 A2992 2170 52 2200 160/06 RMK AO2 T01060011
03812KAVL AVL20160406210010704/06/16 21:00:31  5-MIN KAVL 070200Z 15006KT 10SM OVC037 11/01 A2992 2170 52 2200 160/06 RMK AO2 T01060011
03812KAVL AVL20160406210510704/06/16 21:05:31  5-MIN KAVL 070205Z 16007KT 10SM OVC037 11/02 A2992 2170 54 2200 170/07 RMK AO2 T01060017
03812KAVL AVL20160406211010704/06/16 21:10:31  5-MIN KAVL 070210Z 16007KT 10SM OVC037 11/02 A2992 2170 54 2200 170/07 RMK AO2 T01060017
03812KAVL AVL20160406211510704/06/16 21:15:31  5-MIN KAVL 070215Z 16007KT 10SM OVC040 11/02 A2991 2170 54 2200 170/07 RMK AO2 T01060017
03812KAVL AVL20160406212010704/06/16 21:20:31  5-MIN KAVL 070220Z 15006KT 10SM OVC040 11/02 A2991 2180 54 2200 160/06 RMK AO2 T01060017
03812KAVL AVL20160406212510704/06/16 21:25:31  5-MIN KAVL 070225Z 14004KT 10SM OVC042 11/02 A2991 2180 54 2200 150/04 RMK AO2 T01060017
03812KAVL AVL20160406213010704/06/16 21:30:31  5-MIN KAVL 070230Z 14006KT 10SM OVC042 11/02 A2991 2180 54 2200 140/06 RMK AO2 T01060017
03812KAVL AVL20160406213511404/06/16 21:35:31  5-MIN KAVL 070235Z 14004KT 10SM SCT037 OVC044 11/02 A2990 2180 54 2200 150/04 RMK AO2 T01060017
03812KAVL AVL20160406214011404/06/16 21:40:31  5-MIN KAVL 070240Z 13004KT 10SM BKN037 OVC044 11/02 A2990 2190 54 2200 140/04 RMK AO2 T01060017
03812KAVL AVL20160406214511404/06/16 21:45:31  5-MIN KAVL 070245Z 14006KT 10SM BKN037 OVC044 11/02 A2989 2200 54 2200 150/06 RMK AO2 T01060017
03812KAVL AVL20160406215012704/06/16 21:50:31  5-MIN KAVL 070250Z 15007KT 10SM BKN035 OVC044 11/02 A2988 2200 54 2200 150/07 RMK AO2 SLP113 T01060017 58026
03812KAVL AVL20160406215511904/06/16 21:55:31  5-MIN KAVL 070255Z AUTO 15006KT 10SM OVC035 11/02 A2988 2210 54 2200 150/06 RMK AO2 PRESFR T01060017
03812KAVL AVL20160406220011204/06/16 22:00:31  5-MIN KAVL 070300Z AUTO 14008KT 10SM OVC035 11/02 A2988 2210 54 2200 140/08 RMK AO2 T01060017
03812KAVL AVL20160406220511204/06/16 22:05:31  5-MIN KAVL 070305Z AUTO 12007KT 10SM OVC033 11/02 A2987 2210 54 2200 130/07 RMK AO2 T01060017
03812KAVL AVL20160406221012804/06/16 22:10:31  5-MIN KAVL 070310Z AUTO VRB04KT 10SM -RA OVC033 11/02 A2988 2210 54 2200 VRB/04 RMK AO2 RAB07 P0000 T01060017
03812KAVL AVL20160406221512804/06/16 22:15:31  5-MIN KAVL 070315Z AUTO 13005KT 10SM -RA OVC033 11/02 A2987 2220 54 2200 140/05 RMK AO2 RAB07 P0000 T01060017
03812KAVL AVL20160406222012804/06/16 22:20:31  5-MIN KAVL 070320Z AUTO 14006KT 10SM -RA OVC033 10/02 A2987 2220 58 2200 140/06 RMK AO2 RAB07 P0000 T01000022
03812KAVL AVL20160406222512804/06/16 22:25:31  5-MIN KAVL 070325Z AUTO 13005KT 10SM -RA OVC032 10/02 A2987 2220 58 2200 130/05 RMK AO2 RAB07 P0000 T01000022
03812KAVL AVL20160406223012804/06/16 22:30:31  5-MIN KAVL 070330Z AUTO 13007KT 10SM -RA OVC032 10/03 A2986 2220 60 2200 140/07 RMK AO2 RAB07 P0000 T01000028
03812KAVL AVL20160406223512804/06/16 22:35:31  5-MIN KAVL 070335Z AUTO 14005KT 10SM -RA OVC030 10/03 A2987 2220 60 2200 140/05 RMK AO2 RAB07 P0001 T01000028
03812KAVL AVL20160406224012804/06/16 22:40:31  5-MIN KAVL 070340Z AUTO 14005KT 10SM -RA OVC030 09/03 A2987 2210 65 2100 150/05 RMK AO2 RAB07 P0001 T00940033
03812KAVL AVL20160406224512704/06/16 22:45:31  5-MIN KAVL 070345Z AUTO 16005KT 9SM -RA OVC028 09/03 A2987 2210 65 2100 160/05 RMK AO2 RAB07 P0001 T00940033
03812KAVL AVL20160406225011704/06/16 22:50:31  5-MIN KAVL 070350Z AUTO 15006KT 7SM +RA OVC028 09/04 A2988 2210 71 2000 160/06 RMK AO2 RAB07 P0003
03812KAVL AVL20160406225512004/06/16 22:55:31  5-MIN KAVL 070355Z AUTO 15005KT 6SM RA OVC028 09/04 A2987 2220 73 2000 150/05 RMK AO2 P0000 T00890044
03812KAVL AVL20160406230012004/06/16 23:00:31  5-MIN KAVL 070400Z AUTO 14003KT 6SM RA OVC028 08/04 A2986 2220 76 2000 140/03 RMK AO2 P0000 T00830044
03812KAVL AVL20160406230512104/06/16 23:05:31  5-MIN KAVL 070405Z AUTO 14003KT 8SM -RA OVC028 08/04 A2986 2230 76 2000 140/03 RMK AO2 P0001 T00830044
03812KAVL AVL20160406231012104/06/16 23:10:31  5-MIN KAVL 070410Z AUTO 17004KT 8SM -RA OVC026 08/05 A2987 2220 79 2000 180/04 RMK AO2 P0002 T00830050
03812KAVL AVL20160406231513204/06/16 23:15:31  5-MIN KAVL 070415Z AUTO 21005KT 5SM +RA OVC026 08/05 A2987 2220 79 2000 210/05 RMK AO2 LTG DSNT W P0003 T00830050
03812KAVL AVL20160406232014204/06/16 23:20:31  5-MIN KAVL 070420Z AUTO 00000KT 4SM +RA BR OVC024 08/06 A2986 2220 86 1900 000/00 RMK AO2 LTG DSNT SW AND W P0006 T00780056
03812KAVL AVL20160406232514204/06/16 23:25:31  5-MIN KAVL 070425Z AUTO 00000KT 3SM +RA BR OVC024 08/06 A2986 2230 86 1900 000/00 RMK AO2 LTG DSNT SW AND W P0008 T00780056
03812KAVL AVL20160406233013504/06/16 23:30:31  5-MIN KAVL 070430Z AUTO 00000KT 4SM RA BR OVC024 08/06 A2986 2230 86 1900 000/00 RMK AO2 LTG DSNT SW P0009 T00780056
03812KAVL AVL20160406233513004/06/16 23:35:31  5-MIN KAVL 070435Z AUTO 00000KT 4SM RA BR BKN024 OVC028 08/06 A2985 2230 86 1900 000/00 RMK AO2 P0011 T00780056
03812KAVL AVL20160406234014204/06/16 23:40:31  5-MIN KAVL 070440Z AUTO 00000KT 4SM RA BR BKN022 OVC028 08/06 A2985 2230 86 1900 000/00 RMK AO2 LTG DSNT SW P0012 T00780056
03812KAVL AVL20160406234514304/06/16 23:45:31  5-MIN KAVL 070445Z AUTO 10003KT 4SM +RA BR BKN022 OVC028 08/06 A2984 2240 86 1900 110/03 RMK AO2 LTG DSNT SW P0014 T00780056
03812KAVL AVL20160406235016504/06/16 23:50:31  5-MIN KAVL 070450Z AUTO 00000KT 4SM RA BR BKN020 OVC028 07/06 A2984 2240 93 1900 000/00 RMK AO2 LTG DSNT S AND SW SLP098 P0016 T00720061 401281006
03812KAVL AVL20160406235514804/06/16 23:55:31  5-MIN KAVL 070455Z AUTO 00000KT 5SM RA BR FEW012 BKN020 OVC026 07/06 A2984 2240 93 1900 000/00 RMK AO2 LTG DSNT S P0000 T00720061
03812KAVL AVL20160407000014204/07/16 00:00:31  5-MIN KAVL 070500Z AUTO 11003KT 5SM +RA BR BKN014 OVC020 07/06 A2984 2240 93 1900 110/03 RMK AO2 LTG DSNT S P0002 T00720061
03812KAVL AVL20160407000514204/07/16 00:05:31  5-MIN KAVL 070505Z AUTO 10004KT 4SM +RA BR BKN014 OVC020 07/06 A2984 2250 93 1900 110/04 RMK AO2 LTG DSNT S P0004 T00720061
03812KAVL AVL20160407001014804/07/16 00:10:31  5-MIN KAVL 070510Z AUTO 13004KT 5SM RA BR BKN014 BKN020 OVC045 07/06 A2983 2250 93 1900 130/04 RMK AO2 LTG DSNT S P0005 T00720061
03812KAVL AVL20160407001514804/07/16 00:15:31  5-MIN KAVL 070515Z AUTO 00000KT 5SM RA BR SCT014 BKN022 OVC043 07/06 A2984 2240 93 1900 000/00 RMK AO2 LTG DSNT S P0006 T00720061
03812KAVL AVL20160407002015304/07/16 00:20:31  5-MIN KAVL 070520Z AUTO 00000KT 5SM +RA BR BKN014 BKN026 OVC040 07/06 A2983 2250 93 1900 000/00 RMK AO2 LTG DSNT SE-SW P0008 T00720061
03812KAVL AVL20160407002515304/07/16 00:25:31  5-MIN KAVL 070525Z AUTO 00000KT 4SM +RA BR SCT014 BKN028 OVC040 07/06 A2983 2250 93 1900 000/00 RMK AO2 LTG DSNT SE-SW P0010 T00720061
03812KAVL AVL20160407003015304/07/16 00:30:31  5-MIN KAVL 070530Z AUTO 09004KT 3SM +RA BR FEW013 SCT035 OVC043 07/06 A2982 2260 93 1900 100/04 RMK AO2 LTG DSNT SE-SW P0014 T00720061
03812KAVL AVL20160407003515504/07/16 00:35:31  5-MIN KAVL 070535Z AUTO 11003KT 4SM RA BR FEW013 BKN045 OVC055 07/06 A2982 2260 93 1900 110/03 RMK AO2 LTG DSNT S AND SW P0016 T00720061
03812KAVL AVL20160407004015204/07/16 00:40:31  5-MIN KAVL 070540Z AUTO 00000KT 6SM RA BR FEW029 BKN045 OVC055 08/07 A2982 2260 93 2000 000/00 RMK AO2 LTG DSNT SE-SW P0016 T00780067
03812KAVL AVL20160407004515504/07/16 00:45:31  5-MIN KAVL 070545Z AUTO 00000KT 6SM RA BR FEW030 BKN045 OVC050 07/06 A2982 2260 93 1900 000/00 RMK AO2 LTG DSNT SE AND S P0017 T00720061
03812KAVL AVL20160407005014604/07/16 00:50:31  5-MIN KAVL 070550Z AUTO 00000KT 6SM -RA BR FEW007 SCT024 OVC047 07/06 A2982 2260 93 1900 000/00 RMK AO2 LTG DSNT SE AND S P0018
03812KAVL AVL20160407005514904/07/16 00:55:31  5-MIN KAVL 070555Z AUTO 00000KT 7SM -RA SCT007 BKN041 OVC049 08/06 A2982 2260 89 2000 000/00 RMK AO2 LTG DSNT NE-S P0000 T00780061
03812KAVL AVL20160407010014904/07/16 01:00:31  5-MIN KAVL 070600Z AUTO 00000KT 8SM -RA BKN007 BKN026 OVC049 08/06 A2981 2270 89 2000 000/00 RMK AO2 LTG DSNT NE-S P0001 T00780061
03812KAVL AVL20160407010515704/07/16 01:05:31  5-MIN KAVL 070605Z AUTO 09003KT 10SM -RA BKN006 BKN024 OVC047 08/06 A2979 2290 89 2000 100/03 RMK AO2 LTG DSNT NE-S PRESFR P0001 T00780061
03812KAVL AVL20160407011014804/07/16 01:10:31  5-MIN KAVL 070610Z AUTO 11005KT 10SM -RA SCT006 BKN026 OVC090 08/06 A2978 2300 89 2000 110/05 RMK AO2 PRESFR P0001 T00780061 TSNO
03812KAVL AVL20160407011514504/07/16 01:15:31  5-MIN KAVL 070615Z AUTO 10006KT 10SM SCT006 BKN075 OVC090 08/06 A2977 2310 89 2000 110/06 RMK AO2 RAE13 PRESFR P0001 T00780061
03812KAVL AVL20160407012015204/07/16 01:20:31  5-MIN KAVL 070620Z AUTO 10006KT 10SM -RA SCT006 BKN070 OVC090 08/06 A2975 2320 89 2100 100/06 RMK AO2 RAE13B19 PRESFR P0001 T00780061
03812KAVL AVL20160407012515204/07/16 01:25:31  5-MIN KAVL 070625Z AUTO 10005KT 10SM -RA FEW006 SCT070 OVC100 07/06 A2974 2330 93 2000 110/05 RMK AO2 RAE13B19 PRESFR P0001 T00720061
03812KAVL AVL20160407013014504/07/16 01:30:31  5-MIN KAVL 070630Z AUTO 10005KT 10SM -RA FEW006 FEW070 OVC100 08/06 A2975 2330 89 2100 110/05 RMK AO2 RAE13B19 P0001 T00780061
03812KAVL AVL20160407013513704/07/16 01:35:31  5-MIN KAVL 070635Z AUTO VRB04KT 10SM FEW070 OVC100 08/06 A2974 2330 89 2100 VRB/04 RMK AO2 RAE13B19E32 P0001 T00780061
03812KAVL AVL20160407014014404/07/16 01:40:31  5-MIN KAVL 070640Z AUTO 11004KT 10SM FEW008 FEW070 OVC100 08/06 A2974 2340 89 2100 110/04 RMK AO2 RAE13B19E32 P0001 T00780061
03812KAVL AVL20160407014513704/07/16 01:45:31  5-MIN KAVL 070645Z AUTO 00000KT 10SM FEW008 OVC100 08/07 A2973 2340 93 2100 000/00 RMK AO2 RAE13B19E32 P0001 T00780067
03812KAVL AVL20160407015014404/07/16 01:50:31  5-MIN KAVL 070650Z AUTO 00000KT 10SM FEW008 OVC100 08/07 A2973 2340 93 2100 000/00 RMK AO2 RAE13B19E32 SLP062 P0001 T00780067
03812KAVL AVL20160407015512604/07/16 01:55:31  5-MIN KAVL 070655Z AUTO 00000KT 10SM SCT008 BKN090 OVC110 08/06 A2974 2340 89 2100 000/00 RMK AO2 T00780061
03812KAVL AVL20160407020012604/07/16 02:00:31  5-MIN KAVL 070700Z AUTO 29004KT 10SM BKN008 BKN085 OVC110 08/07 A2974 2340 93 2100 300/04 RMK AO2 T00780067
03812KAVL AVL20160407020512604/07/16 02:05:31  5-MIN KAVL 070705Z AUTO 31005KT 10SM BKN008 BKN090 BKN110 08/06 A2974 2340 89 2100 320/05 RMK AO2 T00780061
03812KAVL AVL20160407021012604/07/16 02:10:31  5-MIN KAVL 070710Z AUTO 31005KT 10SM SCT008 BKN044 BKN110 08/06 A2973 2340 89 2100 310/05 RMK AO2 T00780061
03812KAVL AVL20160407021511904/07/16 02:15:31  5-MIN KAVL 070715Z AUTO 31004KT 10SM SCT008 OVC044 08/07 A2973 2340 93 2100 310/04 RMK AO2 T00780067
03812KAVL AVL20160407022011904/07/16 02:20:31  5-MIN KAVL 070720Z AUTO 32003KT 10SM BKN008 OVC044 08/07 A2973 2340 93 2100 320/03 RMK AO2 T00780067
03812KAVL AVL20160407022511904/07/16 02:25:31  5-MIN KAVL 070725Z AUTO 30004KT 10SM BKN008 OVC044 08/07 A2973 2340 93 2100 310/04 RMK AO2 T00780067
03812KAVL AVL20160407023011904/07/16 02:30:31  5-MIN KAVL 070730Z AUTO 33004KT 10SM BKN006 OVC044 08/07 A2973 2350 93 2100 340/04 RMK AO2 T00780067
03812KAVL AVL20160407023511904/07/16 02:35:31  5-MIN KAVL 070735Z AUTO 34005KT 10SM BKN006 OVC044 08/07 A2973 2350 93 2100 340/05 RMK AO2 T00780067
03812KAVL AVL20160407024011904/07/16 02:40:31  5-MIN KAVL 070740Z AUTO 35004KT 10SM BKN006 OVC044 08/07 A2972 2350 93 2100 360/04 RMK AO2 T00780067
03812KAVL AVL20160407024511904/07/16 02:45:31  5-MIN KAVL 070745Z AUTO 34004KT 10SM BKN006 OVC046 08/07 A2973 2350 93 2100 350/04 RMK AO2 T00780067
03812KAVL AVL20160407025010904/07/16 02:50:31  5-MIN KAVL 070750Z AUTO 33006KT 10SM SCT006 OVC044 08/07 A2973 2350 93 2100 330/06 RMK AO2
03812KAVL AVL20160407025512604/07/16 02:55:31  5-MIN KAVL 070755Z AUTO 32005KT 10SM SCT006 BKN041 OVC048 08/07 A2973 2350 93 2100 330/05 RMK AO2 T00780067
03812KAVL AVL20160407030012604/07/16 03:00:31  5-MIN KAVL 070800Z AUTO 33003KT 10SM FEW005 BKN041 BKN049 08/06 A2972 2350 89 2100 340/03 RMK AO2 T00780061
03812KAVL AVL20160407030512604/07/16 03:05:31  5-MIN KAVL 070805Z AUTO 00000KT 10SM FEW005 BKN042 BKN049 07/06 A2972 2350 93 2000 000/00 RMK AO2 T00720061
03812KAVL AVL20160407031012604/07/16 03:10:31  5-MIN KAVL 070810Z AUTO 00000KT 10SM SCT042 BKN049 BKN060 08/06 A2972 2350 89 2100 000/00 RMK AO2 T00780061
03812KAVL AVL20160407031512604/07/16 03:15:31  5-MIN KAVL 070815Z AUTO 00000KT 10SM BKN042 BKN049 OVC060 08/07 A2972 2350 93 2100 000/00 RMK AO2 T00780067
03812KAVL AVL20160407032012604/07/16 03:20:31  5-MIN KAVL 070820Z AUTO 32003KT 10SM BKN040 BKN049 OVC060 08/07 A2973 2350 93 2100 330/03 RMK AO2 T00780067
03812KAVL AVL20160407032512604/07/16 03:25:31  5-MIN KAVL 070825Z AUTO 33005KT 10SM BKN040 BKN049 OVC060 08/06 A2973 2340 89 2100 340/05 RMK AO2 T00780061
03812KAVL AVL20160407033012604/07/16 03:30:31  5-MIN KAVL 070830Z AUTO 33004KT 10SM FEW032 BKN040 OVC060 08/07 A2974 2340 93 2100 330/04 RMK AO2 T00780067
03812KAVL AVL20160407033513504/07/16 03:35:31  5-MIN KAVL 070835Z AUTO 29004KT 10SM -RA BKN036 OVC048 08/07 A2974 2340 93 2100 290/04 RMK AO2 RAB35 P0000 T00780067
03812KAVL AVL20160407034014204/07/16 03:40:31  5-MIN KAVL 070840Z AUTO 33008KT 10SM -RA FEW022 BKN035 OVC043 08/06 A2975 2330 89 2100 340/08 RMK AO2 RAB35 P0000 T00780061
03812KAVL AVL20160407034514104/07/16 03:45:31  5-MIN KAVL 070845Z AUTO 34012KT 8SM -RA FEW017 BKN023 OVC040 08/06 A2974 2330 86 2100 340/12 RMK AO2 RAB35 P0000 T00830061
03812KAVL AVL20160407035013104/07/16 03:50:31  5-MIN KAVL 070850Z AUTO 34009KT 8SM -RA FEW016 BKN023 OVC036 08/06 A2974 2330 86 2100 350/09 RMK AO2 RAB35 P0001
03812KAVL AVL20160407035513604/07/16 03:55:31  5-MIN KAVL 070855Z AUTO 35009KT 10SM -RA FEW011 BKN023 OVC038 08/06 A2975 2330 89 2100 350/09 RMK AO2 P0000 T00780061
03812KAVL AVL20160407040013604/07/16 04:00:31  5-MIN KAVL 070900Z AUTO 35010KT 10SM -RA SCT019 BKN024 OVC035 08/06 A2974 2330 89 2100 360/10 RMK AO2 P0000 T00780061
03812KAVL AVL20160407040513604/07/16 04:05:31  5-MIN KAVL 070905Z AUTO 35008KT 10SM -RA SCT019 BKN026 OVC046 08/06 A2974 2330 86 2100 360/08 RMK AO2 P0000 T00780056
03812KAVL AVL20160407041014204/07/16 04:10:31  5-MIN KAVL 070910Z AUTO 35011G16KT 10SM -RA FEW015 BKN048 OVC060 08/05 A2974 2330 82 2100 350/11G16 RMK AO2 P0000 T00780050
03812KAVL AVL20160407041514204/07/16 04:15:31  5-MIN KAVL 070915Z AUTO 34012G17KT 10SM -RA FEW021 SCT027 OVC046 08/05 A2974 2330 82 2100 350/12G17 RMK AO2 P0000 T00780050
03812KAVL AVL20160407042013604/07/16 04:20:31  5-MIN KAVL 070920Z AUTO 34013KT 10SM -RA FEW021 FEW029 OVC046 08/04 A2974 2330 79 2100 340/13 RMK AO2 P0000 T00780044
03812KAVL AVL20160407042512204/07/16 04:25:31  5-MIN KAVL 070925Z AUTO 34009KT 10SM -RA BKN044 07/04 A2974 2340 82 2000 350/09 RMK AO2 P0000 T00720044
03812KAVL AVL20160407043013704/07/16 04:30:31  5-MIN KAVL 070930Z AUTO 34011G16KT 10SM FEW039 BKN048 07/04 A2974 2340 79 2000 350/11G16 RMK AO2 RAE26 P0000 T00720039
03812KAVL AVL20160407043513004/07/16 04:35:31  5-MIN KAVL 070935Z AUTO 34013G16KT 10SM SCT043 07/04 A2974 2340 82 1900 350/13G16 RMK AO2 RAE26 P0000 T00670039
03812KAVL AVL20160407044013004/07/16 04:40:31  5-MIN KAVL 070940Z AUTO 33013G20KT 10SM SCT043 07/03 A2973 2340 79 1900 340/13G20 RMK AO2 RAE26 P0000 T00670033
03812KAVL AVL20160407044512404/07/16 04:45:31  5-MIN KAVL 070945Z AUTO 34014KT 10SM FEW043 07/03 A2973 2340 79 1900 350/14 RMK AO2 RAE26 P0000 T00670033
03812KAVL AVL20160407045012804/07/16 04:50:31  5-MIN KAVL 070950Z AUTO 34011KT 10SM CLR 07/03 A2973 2340 79 1900 350/11 RMK AO2 RAE26 SLP062 P0000 T00670033
03812KAVL AVL20160407045510904/07/16 04:55:31  5-MIN KAVL 070955Z AUTO 35009KT 10SM CLR 07/03 A2973 2340 76 2000 350/09 RMK AO2 T00720033
03812KAVL AVL20160407050010904/07/16 05:00:31  5-MIN KAVL 071000Z AUTO 35010KT 10SM CLR 07/03 A2973 2340 76 2000 360/10 RMK AO2 T00720033
03812KAVL AVL20160407050510904/07/16 05:05:31  5-MIN KAVL 071005Z AUTO 35010KT 10SM CLR 07/03 A2973 2340 73 2000 360/10 RMK AO2 T00720028
03812KAVL AVL20160407051010404/07/16 05:10:31  5-MIN KAVL 071010Z 35008KT 10SM CLR 07/03 A2974 2340 73 2000 360/08 RMK AO2 T00720028
03812KAVL AVL20160407051510404/07/16 05:15:31  5-MIN KAVL 071015Z 36008KT 10SM CLR 07/03 A2974 2340 76 1900 360/08 RMK AO2 T00670028
03812KAVL AVL20160407052010404/07/16 05:20:31  5-MIN KAVL 071020Z 35007KT 10SM CLR 07/03 A2974 2330 76 1900 360/07 RMK AO2 T00670028
03812KAVL AVL20160407052510404/07/16 05:25:31  5-MIN KAVL 071025Z 36007KT 10SM CLR 07/03 A2974 2330 73 2000 360/07 RMK AO2 T00720028
03812KAVL AVL20160407053010704/07/16 05:30:31  5-MIN KAVL 071030Z 36007KT 10SM FEW046 07/03 A2974 2330 79 1900 010/07 RMK AO2 T00670033
03812KAVL AVL20160407053510704/07/16 05:35:31  5-MIN KAVL 071035Z 01009KT 10SM SCT046 07/03 A2975 2330 76 2000 010/09 RMK AO2 T00720033
03812KAVL AVL20160407054010704/07/16 05:40:31  5-MIN KAVL 071040Z 01008KT 10SM SCT046 07/03 A2974 2330 73 2000 020/08 RMK AO2 T00720028
03812KAVL AVL20160407054510704/07/16 05:45:31  5-MIN KAVL 071045Z 01007KT 10SM SCT046 07/03 A2974 2330 73 2000 010/07 RMK AO2 T00720028
03812KAVL AVL20160407055011404/07/16 05:50:31  5-MIN KAVL 071050Z 01007KT 10SM BKN044 07/03 A2974 2330 73 2000 010/07 RMK AO2 SLP064 T00720028
03812KAVL AVL20160407055510704/07/16 05:55:31  5-MIN KAVL 071055Z 01007KT 10SM BKN044 07/03 A2974 2340 73 2000 010/07 RMK AO2 T00720028
03812KAVL AVL20160407060010704/07/16 06:00:31  5-MIN KAVL 071100Z 36008KT 10SM SCT044 07/03 A2974 2340 73 2000 010/08 RMK AO2 T00720028
03812KAVL AVL20160407060510704/07/16 06:05:31  5-MIN KAVL 071105Z 36008KT 10SM SCT044 07/02 A2974 2340 70 2000 360/08 RMK AO2 T00720022
03812KAVL AVL20160407061010704/07/16 06:10:31  5-MIN KAVL 071110Z 36007KT 10SM SCT044 07/03 A2974 2340 73 2000 360/07 RMK AO2 T00720028
03812KAVL AVL20160407061510704/07/16 06:15:31  5-MIN KAVL 071115Z 36006KT 10SM SCT044 07/03 A2974 2340 73 2000 360/06 RMK AO2 T00720028
03812KAVL AVL20160407062010704/07/16 06:20:31  5-MIN KAVL 071120Z 36005KT 10SM SCT044 07/03 A2974 2340 73 2000 010/05 RMK AO2 T00720028
03812KAVL AVL20160407062510704/07/16 06:25:31  5-MIN KAVL 071125Z 36006KT 10SM SCT044 07/03 A2974 2330 73 2000 360/06 RMK AO2 T00720028
03812KAVL AVL20160407063010704/07/16 06:30:31  5-MIN KAVL 071130Z 36005KT 10SM SCT044 07/03 A2974 2330 73 2000 010/05 RMK AO2 T00720028
03812KAVL AVL20160407063510704/07/16 06:35:31  5-MIN KAVL 071135Z 35005KT 10SM SCT044 07/03 A2974 2330 73 2000 350/05 RMK AO2 T00720028
03812KAVL AVL20160407064010704/07/16 06:40:31  5-MIN KAVL 071140Z 33005KT 10SM SCT044 06/03 A2975 2330 79 1900 330/05 RMK AO2 T00610028
03812KAVL AVL20160407064510704/07/16 06:45:31  5-MIN KAVL 071145Z 33004KT 10SM SCT044 06/03 A2975 2330 82 1900 340/04 RMK AO2 T00610033
03812KAVL AVL20160407065014404/07/16 06:50:31  5-MIN KAVL 071150Z 33005KT 10SM SCT044 07/03 A2975 2320 79 1900 340/05 RMK AO2 SLP069 60002 70041 T00670033 10083 20061 53002
03812KAVL AVL20160407065510404/07/16 06:55:31  5-MIN KAVL 071155Z 33005KT 10SM CLR 07/04 A2975 2320 82 1900 340/05 RMK AO2 T00670039
03812KAVL AVL20160407070010404/07/16 07:00:31  5-MIN KAVL 071200Z 34005KT 10SM CLR 07/04 A2976 2320 82 1900 350/05 RMK AO2 T00670039
03812KAVL AVL20160407070510404/07/16 07:05:31  5-MIN KAVL 071205Z 34005KT 10SM CLR 07/04 A2975 2320 82 1900 350/05 RMK AO2 T00670039
03812KAVL AVL20160407071010404/07/16 07:10:31  5-MIN KAVL 071210Z 35005KT 10SM CLR 07/04 A2975 2320 79 2000 350/05 RMK AO2 T00720039
03812KAVL AVL20160407071510404/07/16 07:15:31  5-MIN KAVL 071215Z 34004KT 10SM CLR 07/04 A2975 2320 82 2000 350/04 RMK AO2 T00720044
03812KAVL AVL20160407072010404/07/16 07:20:31  5-MIN KAVL 071220Z 36005KT 10SM CLR 08/04 A2975 2330 76 2100 360/05 RMK AO2 T00780039
03812KAVL AVL20160407072510404/07/16 07:25:31  5-MIN KAVL 071225Z 35005KT 10SM CLR 08/03 A2975 2330 70 2100 360/05 RMK AO2 T00830033
03812KAVL AVL20160407073010404/07/16 07:30:31  5-MIN KAVL 071230Z 35005KT 10SM CLR 08/03 A2975 2330 70 2100 360/05 RMK AO2 T00830033
03812KAVL AVL20160407073510404/07/16 07:35:31  5-MIN KAVL 071235Z 35005KT 10SM CLR 08/03 A2975 2330 68 2100 350/05 RMK AO2 T00830028
03812KAVL AVL20160407074010404/07/16 07:40:31  5-MIN KAVL 071240Z 35005KT 10SM CLR 08/03 A2975 2320 70 2100 350/05 RMK AO2 T00830033
03812KAVL AVL20160407074510404/07/16 07:45:31  5-MIN KAVL 071245Z 35005KT 10SM CLR 08/03 A2975 2320 70 2100 360/05 RMK AO2 T00830033
03812KAVL AVL20160407075011104/07/16 07:50:31  5-MIN KAVL 071250Z 34006KT 10SM CLR 09/03 A2975 2320 68 2200 340/06 RMK AO2 SLP067 T00890033
03812KAVL AVL20160407075510404/07/16 07:55:31  5-MIN KAVL 071255Z 35004KT 10SM CLR 09/03 A2975 2320 68 2200 360/04 RMK AO2 T00890033
03812KAVL AVL20160407080010404/07/16 08:00:31  5-MIN KAVL 071300Z 34005KT 10SM CLR 09/04 A2975 2320 68 2200 350/05 RMK AO2 T00940039
03812KAVL AVL20160407080510404/07/16 08:05:31  5-MIN KAVL 071305Z 33005KT 10SM CLR 09/03 A2975 2320 65 2200 340/05 RMK AO2 T00940033
03812KAVL AVL20160407081010404/07/16 08:10:31  5-MIN KAVL 071310Z 33004KT 10SM CLR 10/03 A2975 2320 63 2300 330/04 RMK AO2 T01000033
03812KAVL AVL20160407081510704/07/16 08:15:31  5-MIN KAVL 071315Z 34003KT 10SM FEW047 10/03 A2976 2320 60 2300 350/03 RMK AO2 T01000028
03812KAVL AVL20160407082010704/07/16 08:20:31  5-MIN KAVL 071320Z 00000KT 10SM FEW049 10/02 A2975 2320 58 2300 000/00 RMK AO2 T01000022
03812KAVL AVL20160407082510704/07/16 08:25:31  5-MIN KAVL 071325Z 21003KT 10SM FEW049 10/03 A2976 2320 63 2300 220/03 RMK AO2 T01000033
03812KAVL AVL20160407083010704/07/16 08:30:31  5-MIN KAVL 071330Z 17006KT 10SM FEW049 10/04 A2976 2320 68 2300 180/06 RMK AO2 T01000044
03812KAVL AVL20160407083510704/07/16 08:35:31  5-MIN KAVL 071335Z 16004KT 10SM FEW050 09/05 A2975 2320 74 2200 160/04 RMK AO2 T00940050
03812KAVL AVL20160407084010704/07/16 08:40:31  5-MIN KAVL 071340Z 00000KT 10SM FEW050 10/04 A2975 2330 68 2300 000/00 RMK AO2 T01000044
03812KAVL AVL20160407084510704/07/16 08:45:31  5-MIN KAVL 071345Z 00000KT 10SM SCT055 10/05 A2974 2330 71 2300 000/00 RMK AO2 T01000050
03812KAVL AVL20160407085011404/07/16 08:50:31  5-MIN KAVL 071350Z 16004KT 10SM BKN055 11/04 A2974 2330 66 2400 160/04 RMK AO2 SLP063 T01060044
03812KAVL AVL20160407085510704/07/16 08:55:31  5-MIN KAVL 071355Z 19004KT 10SM BKN055 11/04 A2975 2330 63 2400 190/04 RMK AO2 T01060039
03812KAVL AVL20160407090010704/07/16 09:00:31  5-MIN KAVL 071400Z VRB03KT 10SM BKN055 11/03 A2975 2330 58 2500 VRB/03 RMK AO2 T01110033
03812KAVL AVL20160407090510704/07/16 09:05:31  5-MIN KAVL 071405Z VRB03KT 10SM BKN055 11/03 A2975 2330 58 2500 VRB/03 RMK AO2 T01110033
03812KAVL AVL20160407091010704/07/16 09:10:31  5-MIN KAVL 071410Z 24003KT 10SM OVC050 11/03 A2974 2330 56 2500 240/03 RMK AO2 T01110028
03812KAVL AVL20160407091510704/07/16 09:15:31  5-MIN KAVL 071415Z 26005KT 10SM OVC055 11/03 A2974 2330 58 2500 260/05 RMK AO2 T01110033
03812KAVL AVL20160407092012304/07/16 09:20:31  5-MIN KAVL 071420Z 26008KT 220V300 10SM OVC050 11/02 A2974 2330 52 2500 270/08 230V310 RMK AO2 T01110017
03812KAVL AVL20160407092510704/07/16 09:25:31  5-MIN KAVL 071425Z VRB04KT 10SM OVC050 11/01 A2975 2330 50 2500 VRB/04 RMK AO2 T01110011
03812KAVL AVL20160407093010704/07/16 09:30:31  5-MIN KAVL 071430Z 22005KT 10SM OVC050 11/02 A2974 2330 52 2500 230/05 RMK AO2 T01110017
03812KAVL AVL20160407093510704/07/16 09:35:31  5-MIN KAVL 071435Z 23004KT 10SM OVC050 11/02 A2974 2330 52 2500 230/04 RMK AO2 T01110017
03812KAVL AVL20160407094010704/07/16 09:40:31  5-MIN KAVL 071440Z VRB04KT 10SM OVC050 11/02 A2975 2330 52 2500 VRB/04 RMK AO2 T01110017
03812KAVL AVL20160407094510704/07/16 09:45:31  5-MIN KAVL 071445Z VRB06KT 10SM OVC050 11/01 A2975 2320 50 2400 VRB/06 RMK AO2 T01110011
03812KAVL AVL20160407095012704/07/16 09:50:31  5-MIN KAVL 071450Z 31003KT 10SM BKN050 OVC060 12/01 A2975 2330 46 2500 320/03 RMK AO2 SLP064 T01170006 53003
03812KAVL AVL20160407095510704/07/16 09:55:31  5-MIN KAVL 071455Z 00000KT 10SM OVC055 12/00 A2975 2330 44 2500 000/00 RMK AO2 T01170000
03812KAVL AVL20160407100010704/07/16 10:00:31  5-MIN KAVL 071500Z 27003KT 10SM OVC055 12/00 A2975 2330 44 2500 280/03 RMK AO2 T01170000
03812KAVL AVL20160407100510704/07/16 10:05:31  5-MIN KAVL 071505Z 21005KT 10SM OVC055 12/01 A2975 2330 46 2500 210/05 RMK AO2 T01170006
03812KAVL AVL20160407101010704/07/16 10:10:31  5-MIN KAVL 071510Z 16004KT 10SM OVC055 12/01 A2975 2330 46 2500 160/04 RMK AO2 T01170006
03812KAVL AVL20160407101510704/07/16 10:15:31  5-MIN KAVL 071515Z VRB03KT 10SM OVC060 12/01 A2975 2330 46 2500 VRB/03 RMK AO2 T01170006
03812KAVL AVL20160407102010704/07/16 10:20:31  5-MIN KAVL 071520Z VRB06KT 10SM OVC060 12/01 A2975 2320 44 2600 VRB/06 RMK AO2 T01220006
03812KAVL AVL20160407102513604/07/16 10:25:31  5-MIN KAVL 071525Z 27010G18KT 220V320 10SM BKN060 OVC075 12/01 A2975 2330 44 2600 280/10G18 230V330 RMK AO2 T01220006
03812KAVL AVL20160407103012004/07/16 10:30:31  5-MIN KAVL 071530Z 31014G22KT 10SM BKN060 BKN075 13/01 A2974 2330 43 2700 320/14G22 RMK AO2 T01280006
03812KAVL AVL20160407103511304/07/16 10:35:31  5-MIN KAVL 071535Z 26009G22KT 10SM BKN060 13/00 A2974 2330 41 2700 270/09G22 RMK AO2 T01280000
03812KAVL AVL20160407104011404/07/16 10:40:31  5-MIN KAVL 071540Z 25006KT 10SM BKN060 BKN075 13/00 A2974 2330 41 2700 260/06 RMK AO2 T01280000
03812KAVL AVL20160407104513604/07/16 10:45:31  5-MIN KAVL 071545Z 28008G15KT 220V320 10SM BKN060 BKN075 13/00 A2974 2340 41 2700 280/08G15 230V330 RMK AO2 T01280000
03812KAVL AVL20160407105012004/07/16 10:50:31  5-MIN KAVL 071550Z VRB06G15KT 10SM BKN060 13/00 A2974 2340 41 2700 VRB/06G15 RMK AO2 SLP060 T01280000
03812KAVL AVL20160407105510704/07/16 10:55:31  5-MIN KAVL 071555Z 00000KT 10SM BKN060 13/01 A2974 2340 43 2700 000/00 RMK AO2 T01330011
03812KAVL AVL20160407110010704/07/16 11:00:31  5-MIN KAVL 071600Z VRB04KT 10SM BKN060 14/01 A2973 2340 41 2800 VRB/04 RMK AO2 T01390011
03812KAVL AVL20160407110512304/07/16 11:05:31  5-MIN KAVL 071605Z 27007KT 210V320 10SM BKN065 14/02 A2973 2340 43 2900 280/07 220V330 RMK AO2 T01440022
03812KAVL AVL20160407111010704/07/16 11:10:31  5-MIN KAVL 071610Z VRB04KT 10SM BKN065 15/01 A2973 2350 38 2900 VRB/04 RMK AO2 T01500011
03812KAVL AVL20160407111511304/07/16 11:15:31  5-MIN KAVL 071615Z 27009G16KT 10SM BKN060 16/02 A2972 2350 39 3000 270/09G16 RMK AO2 T01560017
03812KAVL AVL20160407112012904/07/16 11:20:31  5-MIN KAVL 071620Z 29009G21KT 260V340 10SM SCT065 15/01 A2972 2350 37 2900 290/09G21 270V350 RMK AO2 T01500006
03812KAVL AVL20160407112511304/07/16 11:25:31  5-MIN KAVL 071625Z 32012G21KT 10SM FEW065 16/02 A2971 2360 39 3100 330/12G21 RMK AO2 T01610022
03812KAVL AVL20160407113014704/07/16 11:30:31  5-MIN KAVL 071630Z 28008G30KT 250V330 10SM FEW070 16/01 A2972 2360 36 3000 290/08G30 260V340 RMK AO2 PK WND 31030/1626 T01560006
03812KAVL AVL20160407113513104/07/16 11:35:31  5-MIN KAVL 071635Z 30014G30KT 10SM FEW070 15/00 A2972 2360 35 2900 300/14G30 RMK AO2 PK WND 31030/1626 T01500000
03812KAVL AVL20160407114014704/07/16 11:40:31  5-MIN KAVL 071640Z 28013G24KT 240V310 10SM FEW070 16/00 A2972 2350 34 3000 290/13G24 250V320 RMK AO2 PK WND 31030/1626 T01560000
03812KAVL AVL20160407114513204/07/16 11:45:31  5-MIN KAVL 071645Z 29017G29KT 10SM FEW070 15/M01 A2972 2350 34 2900 300/17G29 RMK AO2 PK WND 31030/1626 T01501006
03812KAVL AVL20160407115013904/07/16 11:50:31  5-MIN KAVL 071650Z 31014G29KT 10SM SCT070 15/M01 A2972 2350 34 2900 320/14G29 RMK AO2 PK WND 31030/1626 SLP054 T01501006
03812KAVL AVL20160407115513004/07/16 11:55:31  5-MIN KAVL 071655Z 29013G24KT 250V330 10SM SCT075 16/M01 A2972 2360 33 3000 290/13G24 260V340 RMK AO2 T01561006
03812KAVL AVL20160407120013004/07/16 12:00:31  5-MIN KAVL 071700Z 29013G24KT 260V320 10SM SCT075 15/M01 A2972 2350 33 2900 300/13G24 270V330 RMK AO2 T01501011
03812KAVL AVL20160407120513004/07/16 12:05:31  5-MIN KAVL 071705Z 26009G24KT 230V310 10SM BKN075 16/M01 A2971 2360 33 3000 270/09G24 240V320 RMK AO2 T01561006
03812KAVL AVL20160407121011404/07/16 12:10:31  5-MIN KAVL 071710Z 29017G23KT 10SM BKN080 16/M01 A2971 2360 33 3000 290/17G23 RMK AO2 T01561006
03812KAVL AVL20160407121513004/07/16 12:15:31  5-MIN KAVL 071715Z 27016G24KT 240V310 10SM BKN080 16/M01 A2971 2370 31 3000 280/16G24 250V320 RMK AO2 T01561011
03812KAVL AVL20160407122014804/07/16 12:20:31  5-MIN KAVL 071720Z 29018G33KT 260V320 10SM BKN080 16/M01 A2971 2370 31 3000 300/18G33 270V330 RMK AO2 PK WND 29033/1718 T01561011
03812KAVL AVL20160407122515504/07/16 12:25:31  5-MIN KAVL 071725Z 27012G33KT 230V310 10SM BKN080 BKN090 16/M01 A2970 2370 32 3100 270/12G33 240V320 RMK AO2 PK WND 29033/1718 T01611006
03812KAVL AVL20160407123013204/07/16 12:30:31  5-MIN KAVL 071730Z 28014G24KT 10SM BKN080 16/M01 A2970 2370 30 3100 290/14G24 RMK AO2 PK WND 29033/1718 T01611011
03812KAVL AVL20160407123514804/07/16 12:35:31  5-MIN KAVL 071735Z 30011G23KT 270V340 10SM BKN085 16/M01 A2970 2370 30 3100 310/11G23 280V350 RMK AO2 PK WND 29033/1718 T01611011
03812KAVL AVL20160407124014804/07/16 12:40:31  5-MIN KAVL 071740Z 29014G23KT 250V320 10SM BKN085 16/M01 A2971 2370 32 3100 300/14G23 260V330 RMK AO2 PK WND 29033/1718 T01611006
03812KAVL AVL20160407124514804/07/16 12:45:31  5-MIN KAVL 071745Z 32012G18KT 280V340 10SM BKN085 16/M01 A2971 2370 30 3100 320/12G18 290V350 RMK AO2 PK WND 29033/1718 T01611011
03812KAVL AVL20160407125018004/07/16 12:50:31  5-MIN KAVL 071750Z 30018G32KT 260V340 10SM SCT080 BKN090 16/M01 A2971 2370 30 3100 300/18G32 270V350 RMK AO2 PK WND 29033/1718 SLP049 T01611011 10167 20067 58001
03812KAVL AVL20160407125513904/07/16 12:55:31  5-MIN KAVL 071755Z 29017G32KT 10SM SCT080 BKN090 17/M01 A2971 2360 31 3100 300/17G32 RMK AO2 PK WND 27027/1755 T01671006
03812KAVL AVL20160407130014804/07/16 13:00:31  5-MIN KAVL 071800Z 29020G35KT 250V320 10SM BKN085 16/M01 A2971 2370 31 3000 290/20G35 260V330 RMK AO2 PK WND 30035/1759 T01561011
03812KAVL AVL20160407130514804/07/16 13:05:31  5-MIN KAVL 071805Z 30014G35KT 260V320 10SM OVC085 16/M01 A2971 2360 31 3000 300/14G35 270V330 RMK AO2 PK WND 30035/1759 T01561011
03812KAVL AVL20160407131013204/07/16 13:10:31  5-MIN KAVL 071810Z 30018G33KT 10SM BKN085 16/M01 A2971 2370 31 3000 310/18G33 RMK AO2 PK WND 30035/1759 T01561011
03812KAVL AVL20160407131515504/07/16 13:15:31  5-MIN KAVL 071815Z 28011G26KT 250V310 10SM SCT080 BKN090 15/M01 A2971 2370 34 3000 290/11G26 260V320 RMK AO2 PK WND 30035/1759 T01501006
03812KAVL AVL20160407132013804/07/16 13:20:31  5-MIN KAVL 071820Z 31014G29KT 10SM SCT075 BKN090 16/00 A2970 2370 33 3100 320/14G29 RMK AO2 PK WND 30035/1759 T01610000
03812KAVL AVL20160407132513804/07/16 13:25:31  5-MIN KAVL 071825Z 31013G29KT 10SM SCT080 BKN090 16/00 A2971 2370 34 3000 320/13G29 RMK AO2 PK WND 30035/1759 T01560000
03812KAVL AVL20160407133015504/07/16 13:30:31  5-MIN KAVL 071830Z 30016G33KT 280V340 10SM SCT070 BKN090 15/M01 A2970 2370 33 3000 310/16G33 290V350 RMK AO2 PK WND 30035/1759 T01501011
03812KAVL AVL20160407133513804/07/16 13:35:31  5-MIN KAVL 071835Z 32016G33KT 10SM BKN075 BKN095 16/00 A2970 2370 33 3100 330/16G33 RMK AO2 PK WND 30035/1759 T01610000
03812KAVL AVL20160407134013904/07/16 13:40:31  5-MIN KAVL 071840Z 30014G26KT 10SM BKN075 BKN090 16/M01 A2970 2370 33 3000 310/14G26 RMK AO2 PK WND 30035/1759 T01561006
03812KAVL AVL20160407134513804/07/16 13:45:31  5-MIN KAVL 071845Z 31019G25KT 10SM BKN070 BKN085 16/00 A2970 2370 34 3000 320/19G25 RMK AO2 PK WND 30035/1759 T01560000
03812KAVL AVL20160407135013804/07/16 13:50:31  5-MIN KAVL 071850Z 31012G25KT 10SM BKN080 16/00 A2970 2380 33 3100 310/12G25 RMK AO2 PK WND 30035/1759 SLP044 T01610000
03812KAVL AVL20160407135514704/07/16 13:55:31  5-MIN KAVL 071855Z 30019G30KT 270V340 10SM OVC075 16/00 A2970 2370 34 3000 310/19G30 280V350 RMK AO2 PK WND 34026/1855 T01560000
03812KAVL AVL20160407140015604/07/16 14:00:31  5-MIN KAVL 071900Z 31018G30KT 10SM -RA BKN075 BKN090 16/00 A2970 2380 34 3000 310/18G30 RMK AO2 PK WND 34026/1855 RAB1858 P0000 T01560000
03812KAVL AVL20160407140515604/07/16 14:05:31  5-MIN KAVL 071905Z 31012G23KT 10SM -RA SCT070 BKN085 16/00 A2969 2380 34 3000 310/12G23 RMK AO2 PK WND 34026/1855 RAB1858 P0000 T01560000
03812KAVL AVL20160407141015504/07/16 14:10:31  5-MIN KAVL 071910Z 30013G23KT 10SM FEW065 BKN085 16/00 A2969 2380 34 3000 310/13G23 RMK AO2 PK WND 34026/1855 RAB1858E08 P0000 T01560000
03812KAVL AVL20160407141517104/07/16 14:15:31  5-MIN KAVL 071915Z 30013G23KT 260V330 10SM FEW065 BKN080 17/01 A2969 2380 34 3200 310/13G23 270V340 RMK AO2 PK WND 34026/1855 RAB1858E08 P0000 T01670011
03812KAVL AVL20160407142015504/07/16 14:20:31  5-MIN KAVL 071920Z 31014G23KT 10SM FEW065 SCT080 16/00 A2968 2390 33 3100 320/14G23 RMK AO2 PK WND 34026/1855 RAB1858E08 P0000 T01610000
03812KAVL AVL20160407142515504/07/16 14:25:31  5-MIN KAVL 071925Z 29013G23KT 10SM FEW070 SCT090 17/01 A2969 2380 33 3200 300/13G23 RMK AO2 PK WND 34026/1855 RAB1858E08 P0000 T01670006
03812KAVL AVL20160407143016404/07/16 14:30:31  5-MIN KAVL 071930Z 31013G20KT 280V350 10SM BKN090 17/00 A2968 2390 32 3200 320/13G20 290V360 RMK AO2 PK WND 34026/1855 RAB1858E08 P0000 T01670000
03812KAVL AVL20160407143516404/07/16 14:35:31  5-MIN KAVL 071935Z 28015G23KT 250V310 10SM BKN085 17/00 A2968 2390 32 3200 280/15G23 260V320 RMK AO2 PK WND 34026/1855 RAB1858E08 P0000 T01670000
03812KAVL AVL20160407144015604/07/16 14:40:31  5-MIN KAVL 071940Z 28009G24KT 10SM FEW070 BKN090 16/M01 A2968 2390 32 3100 280/09G24 RMK AO2 PK WND 34026/1855 RAB1858E08 P0000 T01611006
03812KAVL AVL20160407144515604/07/16 14:45:31  5-MIN KAVL 071945Z 31010G24KT 10SM SCT070 BKN090 16/M01 A2969 2380 33 3000 320/10G24 RMK AO2 PK WND 34026/1855 RAB1858E08 P0000 T01561006
03812KAVL AVL20160407145017004/07/16 14:50:31  5-MIN KAVL 071950Z 31015G24KT 10SM -RA SCT070 OVC090 15/M01 A2969 2380 34 3000 310/15G24 RMK AO2 PK WND 34026/1855 RAB1858E08B50 SLP042 P0000 T01501006
03812KAVL AVL20160407145514604/07/16 14:55:31  5-MIN KAVL 071955Z 27011G24KT 250V310 10SM -RA BKN070 OVC090 16/00 A2969 2380 34 3000 280/11G24 260V320 RMK AO2 P0000 T01560000
03812KAVL AVL20160407150013704/07/16 15:00:31  5-MIN KAVL 072000Z 25012G23KT 10SM -RA FEW050 BKN075 OVC090 16/00 A2968 2390 34 3000 260/12G23 RMK AO2 P0000 T01560000
03812KAVL AVL20160407150513004/07/16 15:05:31  5-MIN KAVL 072005Z 29011G23KT 10SM -RA SCT075 OVC090 16/00 A2969 2380 34 3000 290/11G23 RMK AO2 P0000 T01560000
03812KAVL AVL20160407151015504/07/16 15:10:31  5-MIN KAVL 072010Z 27008G22KT 260V320 10SM FEW055 BKN075 OVC090 16/01 A2969 2380 34 3100 280/08G22 270V330 RMK AO2 RAE09 P0000 T01610006
03812KAVL AVL20160407151517404/07/16 15:15:31  5-MIN KAVL 072015Z 27015G27KT 230V300 10SM FEW055 BKN075 OVC090 17/M01 A2968 2390 31 3200 280/15G27 240V310 RMK AO2 PK WND 24027/2013 RAE09 P0000 T01671006
03812KAVL AVL20160407152017404/07/16 15:20:31  5-MIN KAVL 072020Z 27012G27KT 240V310 10SM FEW055 SCT075 OVC090 17/M01 A2969 2380 31 3200 270/12G27 250V320 RMK AO2 PK WND 24027/2013 RAE09 P0000 T01671006
03812KAVL AVL20160407152515804/07/16 15:25:31  5-MIN KAVL 072025Z 31019G25KT 10SM FEW055 SCT070 BKN090 17/M01 A2969 2380 31 3200 320/19G25 RMK AO2 PK WND 24027/2013 RAE09 P0000 T01671006
03812KAVL AVL20160407153017304/07/16 15:30:31  5-MIN KAVL 072030Z 29010G25KT 250V310 10SM FEW055 SCT070 BKN090 17/00 A2969 2380 32 3200 290/10G25 260V320 RMK AO2 PK WND 24027/2013 RAE09 P0000 T01670000
03812KAVL AVL20160407153515804/07/16 15:35:31  5-MIN KAVL 072035Z 31012G20KT 10SM FEW055 SCT070 BKN090 16/M01 A2970 2380 33 3000 310/12G20 RMK AO2 PK WND 24027/2013 RAE09 P0000 T01561006
03812KAVL AVL20160407154015004/07/16 15:40:31  5-MIN KAVL 072040Z 32013G20KT 10SM BKN070 BKN090 15/01 A2970 2370 37 3000 330/13G20 RMK AO2 PK WND 24027/2013 RAE09 P0000 T01500006
03812KAVL AVL20160407154515804/07/16 15:45:31  5-MIN KAVL 072045Z 30012KT 10SM -RA FEW042 BKN070 BKN080 16/02 A2971 2370 37 3100 310/12 RMK AO2 PK WND 24027/2013 RAE09B45 P0000 T01610017
03812KAVL AVL20160407155019904/07/16 15:50:31  5-MIN KAVL 072050Z 32008G18KT 290V350 10SM -RA FEW042 BKN070 BKN090 16/01 A2970 2370 37 3000 320/08G18 300V360 RMK AO2 PK WND 24027/2013 RAE09B45 SLP047 P0000 60000 T01560011 56013
03812KAVL AVL20160407155512004/07/16 15:55:31  5-MIN KAVL 072055Z 32014G20KT 10SM BKN070 BKN090 15/01 A2971 2370 38 3000 330/14G20 RMK AO2 T01500011
03812KAVL AVL20160407160012004/07/16 16:00:31  5-MIN KAVL 072100Z 32013G24KT 10SM BKN070 OVC090 14/01 A2971 2360 38 2900 320/13G24 RMK AO2 T01440006
03812KAVL AVL20160407160512004/07/16 16:05:31  5-MIN KAVL 072105Z 32018G24KT 10SM BKN070 OVC090 14/01 A2971 2370 41 2800 330/18G24 RMK AO2 T01390011
03812KAVL AVL20160407161012004/07/16 16:10:31  5-MIN KAVL 072110Z 33016G24KT 10SM BKN070 OVC095 14/02 A2971 2360 43 2800 330/16G24 RMK AO2 T01390017
03812KAVL AVL20160407161512004/07/16 16:15:31  5-MIN KAVL 072115Z 33019G24KT 10SM BKN070 OVC090 13/02 A2971 2360 45 2800 340/19G24 RMK AO2 T01330017
03812KAVL AVL20160407162012004/07/16 16:20:31  5-MIN KAVL 072120Z 32016G24KT 10SM BKN075 OVC090 14/02 A2972 2360 43 2800 320/16G24 RMK AO2 T01390017
03812KAVL AVL20160407162512004/07/16 16:25:31  5-MIN KAVL 072125Z 32017G24KT 10SM BKN075 OVC090 14/02 A2972 2360 43 2800 330/17G24 RMK AO2 T01390017
03812KAVL AVL20160407163012004/07/16 16:30:31  5-MIN KAVL 072130Z 31013G22KT 10SM BKN070 OVC085 13/02 A2972 2350 45 2700 310/13G22 RMK AO2 T01330017
03812KAVL AVL20160407163513704/07/16 16:35:31  5-MIN KAVL 072135Z 31012KT 10SM -RA FEW050 BKN070 OVC085 14/02 A2972 2350 45 2800 320/12 RMK AO2 RAB35 P0000 T01390022
03812KAVL AVL20160407164013704/07/16 16:40:31  5-MIN KAVL 072140Z 33013KT 10SM -RA FEW048 BKN070 OVC090 14/02 A2972 2350 43 2900 340/13 RMK AO2 RAB35 P0000 T01440022
03812KAVL AVL20160407164514304/07/16 16:45:31  5-MIN KAVL 072145Z 33015G21KT 10SM -RA FEW045 SCT070 OVC090 14/02 A2973 2350 43 2800 340/15G21 RMK AO2 RAB35 P0000 T01390017
03812KAVL AVL20160407165015004/07/16 16:50:31  5-MIN KAVL 072150Z 33015G21KT 10SM -RA FEW049 SCT070 BKN090 14/02 A2972 2350 43 2800 340/15G21 RMK AO2 RAB35 SLP055 P0000 T01390017
03812KAVL AVL20160407165512104/07/16 16:55:31  5-MIN KAVL 072155Z 31011KT 10SM FEW049 SCT070 BKN090 14/02 A2972 2350 45 2800 320/11 RMK AO2 T01390022
03812KAVL AVL20160407170012104/07/16 17:00:31  5-MIN KAVL 072200Z 31010KT 10SM FEW049 FEW070 SCT090 14/02 A2973 2350 45 2800 320/10 RMK AO2 T01390022
03812KAVL AVL20160407170512004/07/16 17:05:31  5-MIN KAVL 072205Z 33011G16KT 10SM FEW070 FEW090 13/01 A2973 2350 43 2700 340/11G16 RMK AO2 T01330011
03812KAVL AVL20160407171011304/07/16 17:10:31  5-MIN KAVL 072210Z 33012G17KT 10SM SCT095 13/01 A2972 2350 44 2700 330/12G17 RMK AO2 T01280011
03812KAVL AVL20160407171512004/07/16 17:15:31  5-MIN KAVL 072215Z 31012G17KT 10SM FEW075 BKN100 13/01 A2973 2350 44 2700 320/12G17 RMK AO2 T01280011
03812KAVL AVL20160407172011404/07/16 17:20:31  5-MIN KAVL 072220Z 32014KT 10SM FEW075 BKN100 13/01 A2973 2350 44 2700 330/14 RMK AO2 T01280011
03812KAVL AVL20160407172511404/07/16 17:25:31  5-MIN KAVL 072225Z 30011KT 10SM SCT075 BKN095 13/01 A2973 2340 44 2700 310/11 RMK AO2 T01280011
03812KAVL AVL20160407173011404/07/16 17:30:31  5-MIN KAVL 072230Z 31010KT 10SM BKN075 BKN100 13/01 A2973 2340 43 2700 320/10 RMK AO2 T01280006
03812KAVL AVL20160407173514304/07/16 17:35:31  5-MIN KAVL 072235Z 32014G20KT 10SM -RA FEW049 BKN080 OVC100 13/02 A2973 2340 46 2700 330/14G20 RMK AO2 RAB34 P0000 T01280017
03812KAVL AVL20160407174014304/07/16 17:40:31  5-MIN KAVL 072240Z 31010G20KT 10SM -RA SCT060 BKN070 OVC095 12/02 A2973 2340 48 2600 320/10G20 RMK AO2 RAB34 P0000 T01220017
03812KAVL AVL20160407174513604/07/16 17:45:31  5-MIN KAVL 072245Z 29011G21KT 10SM -RA SCT060 OVC075 12/02 A2973 2340 50 2500 300/11G21 RMK AO2 RAB34 P0000 T01170017
03812KAVL AVL20160407175014304/07/16 17:50:31  5-MIN KAVL 072250Z 31012G21KT 10SM -RA BKN060 OVC075 12/02 A2974 2340 50 2500 310/12G21 RMK AO2 RAB34 SLP063 P0000 T01170017
03812KAVL AVL20160407175513004/07/16 17:55:31  5-MIN KAVL 072255Z 31013G19KT 10SM -RA BKN055 OVC075 12/02 A2975 2330 50 2500 320/13G19 RMK AO2 P0000 T01170017
03812KAVL AVL20160407180014304/07/16 18:00:31  5-MIN KAVL 072300Z 28014G20KT 9SM -RA FEW017 BKN044 OVC060 11/02 A2976 2320 54 2400 280/14G20 RMK AO2 PRESRR P0000 T01110022
03812KAVL AVL20160407180515404/07/16 18:05:31  5-MIN KAVL 072305Z 31014G27KT 8SM -RA FEW017 BKN044 OVC060 11/03 A2976 2320 58 2400 310/14G27 RMK AO2 PK WND 28027/2302 P0000 T01060028
03812KAVL AVL20160407181015404/07/16 18:10:31  5-MIN KAVL 072310Z 31018G36KT 9SM -RA FEW017 BKN049 OVC065 11/02 A2975 2320 54 2400 310/18G36 RMK AO2 PK WND 32036/2307 P0000 T01060017
03812KAVL AVL20160407181515504/07/16 18:15:31  5-MIN KAVL 072315Z 28010G36KT 10SM -RA FEW017 BKN049 OVC065 11/02 A2975 2330 54 2400 290/10G36 RMK AO2 PK WND 32036/2307 P0000 T01060017
03812KAVL AVL20160407182017104/07/16 18:20:31  5-MIN KAVL 072320Z 28015G21KT 250V310 10SM -RA FEW017 BKN047 OVC090 11/02 A2975 2330 52 2500 280/15G21 260V320 RMK AO2 PK WND 32036/2307 P0000 T01110017
03812KAVL AVL20160407182515504/07/16 18:25:31  5-MIN KAVL 072325Z 29016G25KT 10SM -RA FEW017 BKN050 OVC090 11/01 A2975 2330 50 2500 300/16G25 RMK AO2 PK WND 32036/2307 P0000 T01110011
03812KAVL AVL20160407183015504/07/16 18:30:31  5-MIN KAVL 072330Z 27014G25KT 10SM -RA SCT050 BKN070 BKN090 11/01 A2975 2330 48 2500 280/14G25 RMK AO2 PK WND 32036/2307 P0000 T01110006
03812KAVL AVL20160407183515704/07/16 18:35:31  5-MIN KAVL 072335Z 27012G25KT 10SM FEW055 SCT070 BKN090 11/01 A2975 2330 48 2500 280/12G25 RMK AO2 PK WND 32036/2307 RAE34 P0000 T01110006
03812KAVL AVL20160407184017304/07/16 18:40:31  5-MIN KAVL 072340Z 27009G21KT 220V300 10SM FEW055 SCT070 BKN095 11/01 A2975 2330 48 2500 270/09G21 230V310 RMK AO2 PK WND 32036/2307 RAE34 P0000 T01110006
03812KAVL AVL20160407184517304/07/16 18:45:31  5-MIN KAVL 072345Z 27009G19KT 240V310 10SM FEW050 FEW070 SCT095 11/01 A2974 2330 48 2500 280/09G19 250V320 RMK AO2 PK WND 32036/2307 RAE34 P0000 T01110006
03812KAVL AVL20160407185018204/07/16 18:50:31  5-MIN KAVL 072350Z 28010KT 10SM FEW050 FEW085 SCT100 11/01 A2975 2330 48 2400 280/10 RMK AO2 PK WND 32036/2307 RAE34 SLP068 P0000 60000 T01110006 10167 20106 55000
03812KAVL AVL20160407185511304/07/16 18:55:31  5-MIN KAVL 072355Z 27010G17KT 10SM SCT100 11/00 A2975 2320 46 2400 280/10G17 RMK AO2 T01110000
03812KAVL AVL20160407190013704/07/16 19:00:31  5-MIN KAVL 080000Z 28013G22KT 240V300 10SM SCT100 BKN110 12/M01 A2976 2320 42 2500 280/13G22 250V310 RMK AO2 T01171006
03812KAVL AVL20160407190511404/07/16 19:05:31  5-MIN KAVL 080005Z 29006G22KT 10SM BKN100 12/M01 A2976 2320 42 2500 290/06G22 RMK AO2 T01171006
03812KAVL AVL20160407191011404/07/16 19:10:31  5-MIN KAVL 080010Z 30009G17KT 10SM BKN100 12/M01 A2976 2310 41 2500 310/09G17 RMK AO2 T01171011
03812KAVL AVL20160407191511404/07/16 19:15:31  5-MIN KAVL 080015Z 30005G17KT 10SM BKN100 12/M01 A2976 2320 41 2500 300/05G17 RMK AO2 T01171011
03812KAVL AVL20160407192011404/07/16 19:20:31  5-MIN KAVL 080020Z 28012G22KT 10SM BKN100 12/M02 A2976 2320 39 2500 290/12G22 RMK AO2 T01171017
03812KAVL AVL20160407192512104/07/16 19:25:31  5-MIN KAVL 080025Z 28007G22KT 10SM SCT100 BKN110 12/M02 A2976 2320 39 2500 290/07G22 RMK AO2 T01171017
03812KAVL AVL20160407193012404/07/16 19:30:31  5-MIN KAVL 080030Z 30008KT 260V360 10SM BKN095 12/M02 A2976 2310 39 2500 310/08 270V010 RMK AO2 T01171017
03812KAVL AVL20160407193511404/07/16 19:35:31  5-MIN KAVL 080035Z 27014G21KT 10SM BKN100 12/M02 A2976 2310 39 2500 270/14G21 RMK AO2 T01171017
03812KAVL AVL20160407194011404/07/16 19:40:31  5-MIN KAVL 080040Z 30010G21KT 10SM BKN100 12/M02 A2976 2310 39 2500 300/10G21 RMK AO2 T01171017
03812KAVL AVL20160407194511404/07/16 19:45:31  5-MIN KAVL 080045Z 30007G18KT 10SM BKN095 12/M02 A2976 2310 39 2500 310/07G18 RMK AO2 T01171017
03812KAVL AVL20160407195011504/07/16 19:50:31  5-MIN KAVL 080050Z 31007KT 10SM OVC090 11/M02 A2976 2310 41 2400 320/07 RMK AO2 SLP071 T01111017
03812KAVL AVL20160407195511504/07/16 19:55:31  5-MIN KAVL 080055Z 32007KT 10SM FEW070 OVC095 11/M02 A2976 2310 41 2400 320/07 RMK AO2 T01111017
03812KAVL AVL20160407200012104/07/16 20:00:31  5-MIN KAVL 080100Z 32009G15KT 10SM SCT065 OVC090 11/M01 A2978 2300 42 2400 320/09G15 RMK AO2 T01111011
03812KAVL AVL20160407200516204/07/16 20:05:31  5-MIN KAVL 080105Z 32023G34KT 10SM -RA SCT050 BKN070 OVC090 12/M02 A2978 2300 39 2500 320/23G34 RMK AO2 PK WND 31034/0105 RAB05 P0000 T01171017
03812KAVL AVL20160407201016204/07/16 20:10:31  5-MIN KAVL 080110Z 27021G34KT 10SM -RA SCT050 BKN070 OVC090 12/M02 A2978 2300 39 2500 280/21G34 RMK AO2 PK WND 31034/0105 RAB05 P0000 T01171017
03812KAVL AVL20160407201515504/07/16 20:15:31  5-MIN KAVL 080115Z 28010G31KT 10SM -RA SCT060 OVC070 12/M02 A2978 2300 38 2500 290/10G31 RMK AO2 PK WND 31034/0105 RAB05 P0000 T01171022
03812KAVL AVL20160407202015404/07/16 20:20:31  5-MIN KAVL 080120Z 29011G18KT 10SM SCT060 BKN070 12/M02 A2978 2300 38 2500 300/11G18 RMK AO2 PK WND 31034/0105 RAB05E19 P0000 T01171022
03812KAVL AVL20160407202515404/07/16 20:25:31  5-MIN KAVL 080125Z 30010G18KT 10SM SCT055 BKN070 11/M02 A2978 2300 39 2400 300/10G18 RMK AO2 PK WND 31034/0105 RAB05E19 P0000 T01111022
03812KAVL AVL20160407203015404/07/16 20:30:31  5-MIN KAVL 080130Z 30006G17KT 10SM SCT055 SCT075 11/M02 A2978 2300 39 2400 310/06G17 RMK AO2 PK WND 31034/0105 RAB05E19 P0000 T01111022
03812KAVL AVL20160407203514804/07/16 20:35:31  5-MIN KAVL 080135Z 30009KT 10SM FEW060 SCT075 11/M02 A2978 2290 40 2300 300/09 RMK AO2 PK WND 31034/0105 RAB05E19 P0000 T01061022
03812KAVL AVL20160407204014104/07/16 20:40:31  5-MIN KAVL 080140Z 32008KT 10SM FEW060 11/M02 A2979 2290 39 2400 320/08 RMK AO2 PK WND 31034/0105 RAB05E19 P0000 T01111022
03812KAVL AVL20160407204514404/07/16 20:45:31  5-MIN KAVL 080145Z 33010G16KT 10SM CLR 11/M02 A2979 2290 39 2400 330/10G16 RMK AO2 PK WND 31034/0105 RAB05E19 P0000 T01111022
03812KAVL AVL20160407205014504/07/16 20:50:31  5-MIN KAVL 080150Z 33011KT 10SM CLR 11/M02 A2979 2290 40 2300 330/11 RMK AO2 PK WND 31034/0105 RAB05E19 SLP080 P0000 T01061022
03812KAVL AVL20160407205510504/07/16 20:55:31  5-MIN KAVL 080155Z 34011KT 10SM CLR 11/M02 A2979 2290 42 2300 350/11 RMK AO2 T01061017
03812KAVL AVL20160407210010504/07/16 21:00:31  5-MIN KAVL 080200Z 33010KT 10SM CLR 11/M02 A2980 2280 42 2300 340/10 RMK AO2 T01061017
03812KAVL AVL20160407210510504/07/16 21:05:31  5-MIN KAVL 080205Z 33010KT 10SM CLR 10/M01 A2980 2280 46 2300 340/10 RMK AO2 T01001011
03812KAVL AVL20160407211010504/07/16 21:10:31  5-MIN KAVL 080210Z 33011KT 10SM CLR 10/M02 A2980 2280 44 2300 330/11 RMK AO2 T01001017
03812KAVL AVL20160407211510504/07/16 21:15:31  5-MIN KAVL 080215Z 32011KT 10SM CLR 10/M02 A2980 2280 44 2300 330/11 RMK AO2 T01001017
03812KAVL AVL20160407212010504/07/16 21:20:31  5-MIN KAVL 080220Z 33008KT 10SM CLR 10/M02 A2980 2280 44 2300 330/08 RMK AO2 T01001017
03812KAVL AVL20160407212511104/07/16 21:25:31  5-MIN KAVL 080225Z 32011G20KT 10SM CLR 11/M02 A2981 2270 42 2300 320/11G20 RMK AO2 T01061017
03812KAVL AVL20160407213011104/07/16 21:30:31  5-MIN KAVL 080230Z 32015G20KT 10SM CLR 11/M02 A2981 2270 40 2300 320/15G20 RMK AO2 T01061022
03812KAVL AVL20160407213511104/07/16 21:35:31  5-MIN KAVL 080235Z 33009G20KT 10SM CLR 11/M02 A2981 2270 40 2300 340/09G20 RMK AO2 T01061022
03812KAVL AVL20160407214011104/07/16 21:40:31  5-MIN KAVL 080240Z 33013G20KT 10SM CLR 10/M02 A2981 2270 42 2300 340/13G20 RMK AO2 T01001022
03812KAVL AVL20160407214511104/07/16 21:45:31  5-MIN KAVL 080245Z 31010G20KT 10SM CLR 10/M02 A2981 2270 44 2200 320/10G20 RMK AO2 T01001017
03812KAVL AVL20160407215012404/07/16 21:50:31  5-MIN KAVL 080250Z 32007KT 10SM CLR 10/M02 A2981 2270 42 2200 330/07 RMK AO2 SLP085 60000 T01001022 51014
03812KAVL AVL20160407215511004/07/16 21:55:31  5-MIN KAVL 080255Z AUTO 33009KT 10SM CLR 09/M02 A2981 2270 45 2200 340/09 RMK AO2 T00941017
03812KAVL AVL20160407220011004/07/16 22:00:31  5-MIN KAVL 080300Z AUTO 33010KT 10SM CLR 09/M02 A2981 2270 45 2200 340/10 RMK AO2 T00941017
03812KAVL AVL20160407220511004/07/16 22:05:31  5-MIN KAVL 080305Z AUTO 33011KT 10SM CLR 09/M02 A2981 2270 45 2200 340/11 RMK AO2 T00941017
03812KAVL AVL20160407221011004/07/16 22:10:31  5-MIN KAVL 080310Z AUTO 33011KT 10SM CLR 09/M02 A2981 2270 45 2200 340/11 RMK AO2 T00941017
03812KAVL AVL20160407221511004/07/16 22:15:31  5-MIN KAVL 080315Z AUTO 33013KT 10SM CLR 09/M02 A2981 2270 45 2200 330/13 RMK AO2 T00941017
03812KAVL AVL20160407222011004/07/16 22:20:31  5-MIN KAVL 080320Z AUTO 34011KT 10SM CLR 09/M02 A2981 2270 45 2200 340/11 RMK AO2 T00941017
03812KAVL AVL20160407222511004/07/16 22:25:31  5-MIN KAVL 080325Z AUTO 33010KT 10SM CLR 09/M02 A2981 2270 47 2100 340/10 RMK AO2 T00891017
03812KAVL AVL20160407223011604/07/16 22:30:31  5-MIN KAVL 080330Z AUTO 32017G23KT 10SM CLR 09/M02 A2982 2270 44 2200 330/17G23 RMK AO2 T00941022
03812KAVL AVL20160407223511604/07/16 22:35:31  5-MIN KAVL 080335Z AUTO 32013G23KT 10SM CLR 09/M02 A2982 2260 44 2200 330/13G23 RMK AO2 T00941022
03812KAVL AVL20160407224011004/07/16 22:40:31  5-MIN KAVL 080340Z AUTO 32013KT 10SM CLR 09/M03 A2982 2260 42 2200 320/13 RMK AO2 T00941028
03812KAVL AVL20160407224511604/07/16 22:45:31  5-MIN KAVL 080345Z AUTO 32015G19KT 10SM CLR 09/M02 A2981 2270 45 2100 330/15G19 RMK AO2 T00891022
03812KAVL AVL20160407225012304/07/16 22:50:31  5-MIN KAVL 080350Z AUTO 33015G19KT 10SM CLR 09/M02 A2981 2270 44 2200 340/15G19 RMK AO2 SLP085 T00941022
03812KAVL AVL20160407225511004/07/16 22:55:31  5-MIN KAVL 080355Z AUTO 33013KT 10SM CLR 09/M02 A2981 2270 45 2100 340/13 RMK AO2 T00891022
03812KAVL AVL20160407230013404/07/16 23:00:31  5-MIN KAVL 080400Z AUTO 33023G35KT 10SM CLR 09/M02 A2982 2260 45 2100 340/23G35 RMK AO2 PK WND 34035/0400 T00891022
03812KAVL AVL20160407230513404/07/16 23:05:31  5-MIN KAVL 080405Z AUTO 31009G35KT 10SM CLR 09/M02 A2982 2260 45 2100 320/09G35 RMK AO2 PK WND 34035/0400 T00891022
03812KAVL AVL20160407231013704/07/16 23:10:31  5-MIN KAVL 080410Z AUTO 32010G21KT 10SM SCT045 09/M02 A2982 2260 45 2100 320/10G21 RMK AO2 PK WND 34035/0400 T00891022
03812KAVL AVL20160407231513704/07/16 23:15:31  5-MIN KAVL 080415Z AUTO 32020G31KT 10SM SCT045 09/M02 A2982 2260 45 2100 330/20G31 RMK AO2 PK WND 34035/0400 T00891022
03812KAVL AVL20160407232013704/07/16 23:20:31  5-MIN KAVL 080420Z AUTO 32023G31KT 10SM SCT045 09/M02 A2983 2250 47 2100 330/23G31 RMK AO2 PK WND 34035/0400 T00891017
03812KAVL AVL20160407232515304/07/16 23:25:31  5-MIN KAVL 080425Z AUTO 32018G31KT 10SM -RA BKN040 08/M01 A2982 2260 51 2000 320/18G31 RMK AO2 PK WND 34035/0400 RAB22 P0000 T00831011
03812KAVL AVL20160407233015304/07/16 23:30:31  5-MIN KAVL 080430Z AUTO 31017G31KT 10SM -RA BKN038 08/M01 A2983 2260 55 2000 320/17G31 RMK AO2 PK WND 34035/0400 RAB22 P0000 T00781006
03812KAVL AVL20160407233515304/07/16 23:35:31  5-MIN KAVL 080435Z AUTO 31011G24KT 10SM -RA BKN038 08/M01 A2983 2250 55 2000 320/11G24 RMK AO2 PK WND 34035/0400 RAB22 P0000 T00781006
03812KAVL AVL20160407234015204/07/16 23:40:31  5-MIN KAVL 080440Z AUTO 32019G24KT 10SM BKN038 08/M01 A2983 2250 55 2000 330/19G24 RMK AO2 PK WND 34035/0400 RAB22E37 P0000 T00781006
03812KAVL AVL20160407234515204/07/16 23:45:31  5-MIN KAVL 080445Z AUTO 32017G24KT 10SM SCT036 08/M01 A2982 2260 55 2000 330/17G24 RMK AO2 PK WND 34035/0400 RAB22E37 P0000 T00781006
03812KAVL AVL20160407235017604/07/16 23:50:31  5-MIN KAVL 080450Z AUTO 32013G22KT 10SM SCT034 BKN075 07/M01 A2982 2260 57 1900 330/13G22 RMK AO2 PK WND 34035/0400 RAB22E37 SLP088 P0000 T00721006 401670061
03812KAVL AVL20160407235512604/07/16 23:55:31  5-MIN KAVL 080455Z AUTO 32010G21KT 10SM FEW036 SCT075 07/M01 A2982 2260 57 1900 320/10G21 RMK AO2 T00721006
03812KAVL AVL20160408000012504/08/16 00:00:31  5-MIN KAVL 080500Z AUTO 33011G21KT 10SM FEW036 FEW075 07/00 A2982 2270 60 1900 330/11G21 RMK AO2 T00720000
03812KAVL AVL20160408000511204/08/16 00:05:31  5-MIN KAVL 080505Z AUTO 33009KT 10SM FEW075 07/00 A2981 2270 60 1900 340/09 RMK AO2 T00720000
03812KAVL AVL20160408001011404/08/16 00:10:31  5-MIN KAVL 080510Z AUTO 33011KT 10SM CLR 07/00 A2981 2270 62 1800 340/11 RMK AO2 T00670000 TSNO
03812KAVL AVL20160408001510904/08/16 00:15:31  5-MIN KAVL 080515Z AUTO 33014KT 10SM CLR 07/00 A2981 2270 62 1900 340/14 RMK AO2 T00670000
03812KAVL AVL20160408002010904/08/16 00:20:31  5-MIN KAVL 080520Z AUTO 32013KT 10SM CLR 07/00 A2981 2270 62 1800 330/13 RMK AO2 T00670000
03812KAVL AVL20160408002510904/08/16 00:25:31  5-MIN KAVL 080525Z AUTO 32010KT 10SM CLR 07/00 A2981 2270 62 1800 320/10 RMK AO2 T00670000
03812KAVL AVL20160408003011504/08/16 00:30:31  5-MIN KAVL 080530Z AUTO 31011G17KT 10SM CLR 07/00 A2982 2260 62 1800 320/11G17 RMK AO2 T00670000
03812KAVL AVL20160408003511504/08/16 00:35:31  5-MIN KAVL 080535Z AUTO 31008G17KT 10SM CLR 07/00 A2982 2260 62 1800 310/08G17 RMK AO2 T00670000
03812KAVL AVL20160408004012504/08/16 00:40:31  5-MIN KAVL 080540Z AUTO 31007KT 270V350 10SM CLR 07/00 A2982 2260 62 1800 310/07 280V360 RMK AO2 T00670000
03812KAVL AVL20160408004510904/08/16 00:45:31  5-MIN KAVL 080545Z AUTO 32008KT 10SM CLR 07/00 A2981 2270 62 1800 320/08 RMK AO2 T00670000
03812KAVL AVL20160408005014604/08/16 00:50:31  5-MIN KAVL 080550Z AUTO 31011G14KT 10SM CLR 07/00 A2981 2270 62 1800 320/11G14 RMK AO2 SLP084 60000 T00670000 10117 20067 53019
03812KAVL AVL20160408005510904/08/16 00:55:31  5-MIN KAVL 080555Z AUTO 31009KT 10SM CLR 07/00 A2982 2260 60 1900 320/09 RMK AO2 T00720000
03812KAVL AVL20160408010011204/08/16 01:00:31  5-MIN KAVL 080600Z AUTO 30008KT 10SM FEW050 07/00 A2982 2260 60 1900 310/08 RMK AO2 T00720000
03812KAVL AVL20160408010511304/08/16 01:05:31  5-MIN KAVL 080605Z AUTO 31008KT 10SM SCT055 07/M01 A2982 2260 57 1900 310/08 RMK AO2 T00721006
03812KAVL AVL20160408011011204/08/16 01:10:31  5-MIN KAVL 080610Z AUTO 31009KT 10SM BKN055 07/00 A2981 2270 60 1900 320/09 RMK AO2 T00720000
03812KAVL AVL20160408011512804/08/16 01:15:31  5-MIN KAVL 080615Z AUTO 32011KT 10SM -RA BKN046 07/00 A2981 2270 60 1900 320/11 RMK AO2 RAB14 P0000 T00720000
03812KAVL AVL20160408012013404/08/16 01:20:31  5-MIN KAVL 080620Z AUTO 33016G21KT 10SM -RA BKN041 07/01 A2980 2280 65 1900 340/16G21 RMK AO2 RAB14 P0000 T00670006
03812KAVL AVL20160408012513404/08/16 01:25:31  5-MIN KAVL 080625Z AUTO 33014G23KT 10SM -RA BKN039 07/01 A2980 2280 65 1900 330/14G23 RMK AO2 RAB14 P0000 T00670006
03812KAVL AVL20160408013014104/08/16 01:30:31  5-MIN KAVL 080630Z AUTO 32014G23KT 10SM -RA BKN037 BKN120 07/01 A2981 2270 65 1900 330/14G23 RMK AO2 RAB14 P0000 T00670006
03812KAVL AVL20160408013514804/08/16 01:35:31  5-MIN KAVL 080635Z AUTO 33012G22KT 10SM -RA BKN035 BKN080 BKN120 07/01 A2981 2270 67 1800 340/12G22 RMK AO2 RAB14 P0000 T00670011
03812KAVL AVL20160408014014004/08/16 01:40:31  5-MIN KAVL 080640Z AUTO 34014G21KT 10SM SCT031 BKN085 07/01 A2981 2270 67 1900 340/14G21 RMK AO2 RAB14E36 P0000 T00670011
03812KAVL AVL20160408014514704/08/16 01:45:31  5-MIN KAVL 080645Z AUTO 33016G19KT 10SM SCT033 SCT070 BKN085 07/01 A2981 2270 65 1900 340/16G19 RMK AO2 RAB14E36 P0000 T00670006
03812KAVL AVL20160408015014804/08/16 01:50:31  5-MIN KAVL 080650Z AUTO 34012KT 10SM FEW037 SCT065 BKN085 07/01 A2979 2280 67 1900 350/12 RMK AO2 RAB14E36 SLP079 P0000 T00670011
03812KAVL AVL20160408015512604/08/16 01:55:31  5-MIN KAVL 080655Z AUTO 33012KT 10SM FEW042 BKN085 OVC110 06/01 A2980 2280 70 1800 340/12 RMK AO2 T00610011
03812KAVL AVL20160408020013204/08/16 02:00:31  5-MIN KAVL 080700Z AUTO 32010G18KT 10SM SCT055 BKN065 OVC110 06/01 A2981 2270 70 1800 330/10G18 RMK AO2 T00610011
03812KAVL AVL20160408020512504/08/16 02:05:31  5-MIN KAVL 080705Z AUTO 32013G17KT 10SM BKN060 OVC085 06/01 A2982 2260 70 1800 320/13G17 RMK AO2 T00610011
03812KAVL AVL20160408021012504/08/16 02:10:31  5-MIN KAVL 080710Z AUTO 32011G17KT 10SM BKN060 OVC090 06/01 A2981 2270 70 1800 320/11G17 RMK AO2 T00610011
03812KAVL AVL20160408021511904/08/16 02:15:31  5-MIN KAVL 080715Z AUTO 32010KT 10SM BKN055 OVC070 06/01 A2981 2270 70 1800 330/10 RMK AO2 T00610011
03812KAVL AVL20160408022011204/08/16 02:20:31  5-MIN KAVL 080720Z AUTO 32008KT 10SM OVC055 06/01 A2981 2270 70 1800 320/08 RMK AO2 T00610011
03812KAVL AVL20160408022511904/08/16 02:25:31  5-MIN KAVL 080725Z AUTO 32005KT 10SM BKN055 OVC085 06/01 A2981 2270 73 1700 320/05 RMK AO2 T00560011
03812KAVL AVL20160408023011904/08/16 02:30:31  5-MIN KAVL 080730Z AUTO 32007KT 10SM BKN055 OVC085 06/01 A2981 2270 73 1700 330/07 RMK AO2 T00560011
03812KAVL AVL20160408023511904/08/16 02:35:31  5-MIN KAVL 080735Z AUTO 34006KT 10SM SCT050 OVC080 06/01 A2980 2280 73 1700 340/06 RMK AO2 T00560011
03812KAVL AVL20160408024011904/08/16 02:40:31  5-MIN KAVL 080740Z AUTO 32005KT 10SM SCT050 BKN080 06/01 A2981 2270 73 1700 330/05 RMK AO2 T00560011
03812KAVL AVL20160408024511904/08/16 02:45:31  5-MIN KAVL 080745Z AUTO 33006KT 10SM FEW050 BKN080 06/01 A2981 2270 73 1700 340/06 RMK AO2 T00560011
03812KAVL AVL20160408025012604/08/16 02:50:31  5-MIN KAVL 080750Z AUTO 33004KT 10SM SCT065 BKN080 06/01 A2981 2270 73 1700 340/04 RMK AO2 SLP087 T00560011
03812KAVL AVL20160408025511904/08/16 02:55:31  5-MIN KAVL 080755Z AUTO 33005KT 10SM SCT070 BKN080 06/01 A2982 2260 73 1700 330/05 RMK AO2 T00560011
03812KAVL AVL20160408030011904/08/16 03:00:31  5-MIN KAVL 080800Z AUTO 31007KT 10SM FEW060 BKN080 06/01 A2982 2260 70 1700 310/07 RMK AO2 T00560006
03812KAVL AVL20160408030511904/08/16 03:05:31  5-MIN KAVL 080805Z AUTO 33004KT 10SM FEW065 BKN085 06/01 A2982 2260 70 1700 330/04 RMK AO2 T00560006
03812KAVL AVL20160408031011904/08/16 03:10:31  5-MIN KAVL 080810Z AUTO 33005KT 10SM FEW065 BKN085 06/01 A2982 2260 70 1700 330/05 RMK AO2 T00560006
03812KAVL AVL20160408031511904/08/16 03:15:31  5-MIN KAVL 080815Z AUTO 32006KT 10SM SCT070 OVC085 06/01 A2982 2260 70 1700 320/06 RMK AO2 T00560006
03812KAVL AVL20160408032011904/08/16 03:20:31  5-MIN KAVL 080820Z AUTO 33005KT 10SM BKN070 OVC090 06/01 A2982 2260 70 1700 340/05 RMK AO2 T00560006
03812KAVL AVL20160408032512604/08/16 03:25:31  5-MIN KAVL 080825Z AUTO 34008KT 10SM FEW055 BKN075 OVC090 06/01 A2982 2260 70 1700 340/08 RMK AO2 T00560006
03812KAVL AVL20160408033012604/08/16 03:30:31  5-MIN KAVL 080830Z AUTO 34009KT 10SM SCT055 BKN075 OVC090 06/01 A2983 2260 70 1700 340/09 RMK AO2 T00560006
03812KAVL AVL20160408033512604/08/16 03:35:31  5-MIN KAVL 080835Z AUTO 34009KT 10SM FEW055 BKN075 OVC110 06/01 A2983 2250 70 1700 340/09 RMK AO2 T00560006
03812KAVL AVL20160408034012604/08/16 03:40:31  5-MIN KAVL 080840Z AUTO 34008KT 10SM FEW050 SCT070 OVC110 06/01 A2982 2260 70 1700 350/08 RMK AO2 T00560006
03812KAVL AVL20160408034512604/08/16 03:45:31  5-MIN KAVL 080845Z AUTO 34007KT 10SM FEW055 SCT075 OVC110 06/01 A2982 2260 70 1700 350/07 RMK AO2 T00560006
03812KAVL AVL20160408035013804/08/16 03:50:31  5-MIN KAVL 080850Z AUTO 34008KT 10SM FEW050 BKN110 06/01 A2982 2260 70 1700 350/08 RMK AO2 SLP090 60000 T00560006 50001
03812KAVL AVL20160408035511204/08/16 03:55:31  5-MIN KAVL 080855Z AUTO 36006KT 10SM BKN110 06/01 A2981 2270 70 1700 360/06 RMK AO2 T00560006
03812KAVL AVL20160408040011904/08/16 04:00:31  5-MIN KAVL 080900Z AUTO 01007KT 10SM BKN110 06/01 A2980 2280 70 1700 010/07 RMK AO2 PRESFR T00560006
03812KAVL AVL20160408040511204/08/16 04:05:31  5-MIN KAVL 080905Z AUTO 01006KT 10SM SCT110 06/01 A2980 2280 70 1700 010/06 RMK AO2 T00560006
03812KAVL AVL20160408041011204/08/16 04:10:31  5-MIN KAVL 080910Z AUTO 01005KT 10SM SCT110 05/01 A2980 2280 73 1700 010/05 RMK AO2 T00500006
03812KAVL AVL20160408041511204/08/16 04:15:31  5-MIN KAVL 080915Z AUTO 01005KT 10SM FEW110 05/01 A2981 2270 73 1700 010/05 RMK AO2 T00500006
03812KAVL AVL20160408042011204/08/16 04:20:31  5-MIN KAVL 080920Z AUTO 01004KT 10SM FEW110 05/01 A2980 2280 73 1700 020/04 RMK AO2 T00500006
03812KAVL AVL20160408042510904/08/16 04:25:31  5-MIN KAVL 080925Z AUTO 01003KT 10SM CLR 05/01 A2980 2280 73 1700 020/03 RMK AO2 T00500006
03812KAVL AVL20160408043010904/08/16 04:30:31  5-MIN KAVL 080930Z AUTO 36004KT 10SM CLR 05/01 A2980 2280 73 1700 360/04 RMK AO2 T00500006
03812KAVL AVL20160408043510904/08/16 04:35:31  5-MIN KAVL 080935Z AUTO 05003KT 10SM CLR 05/01 A2980 2280 73 1700 050/03 RMK AO2 T00500006
03812KAVL AVL20160408044010904/08/16 04:40:31  5-MIN KAVL 080940Z AUTO 00000KT 10SM CLR 05/01 A2980 2280 76 1700 000/00 RMK AO2 T00500011
03812KAVL AVL20160408044510904/08/16 04:45:31  5-MIN KAVL 080945Z AUTO 01004KT 10SM CLR 05/01 A2980 2280 76 1700 020/04 RMK AO2 T00500011
03812KAVL AVL20160408045011904/08/16 04:50:31  5-MIN KAVL 080950Z AUTO 00000KT 10SM FEW039 05/01 A2980 2280 76 1700 000/00 RMK AO2 SLP085 T00500011
03812KAVL AVL20160408045511204/08/16 04:55:31  5-MIN KAVL 080955Z AUTO 00000KT 10SM FEW039 04/01 A2980 2280 79 1600 000/00 RMK AO2 T00440011
03812KAVL AVL20160408050011204/08/16 05:00:31  5-MIN KAVL 081000Z AUTO 00000KT 10SM FEW037 04/01 A2981 2270 76 1600 000/00 RMK AO2 T00440006
03812KAVL AVL20160408050511904/08/16 05:05:31  5-MIN KAVL 081005Z AUTO 00000KT 10SM SCT035 SCT050 04/01 A2981 2270 79 1600 000/00 RMK AO2 T00440011
03812KAVL AVL20160408051011404/08/16 05:10:31  5-MIN KAVL 081010Z 00000KT 10SM BKN035 BKN050 04/01 A2982 2270 79 1600 000/00 RMK AO2 T00440011
03812KAVL AVL20160408051511404/08/16 05:15:31  5-MIN KAVL 081015Z 35004KT 10SM BKN033 BKN050 04/01 A2981 2270 79 1600 360/04 RMK AO2 T00440011
03812KAVL AVL20160408052013004/08/16 05:20:31  5-MIN KAVL 081020Z 35005KT 10SM -RA BKN033 BKN050 04/01 A2982 2260 79 1600 360/05 RMK AO2 RAB17 P0000 T00440011
03812KAVL AVL20160408052513004/08/16 05:25:31  5-MIN KAVL 081025Z 36008KT 10SM -RA BKN033 OVC050 05/01 A2982 2270 76 1600 010/08 RMK AO2 RAB17 P0000 T00500011
03812KAVL AVL20160408053013004/08/16 05:30:31  5-MIN KAVL 081030Z 35007KT 10SM -RA BKN032 OVC047 04/01 A2982 2260 79 1600 350/07 RMK AO2 RAB17 P0000 T00440011
03812KAVL AVL20160408053513604/08/16 05:35:31  5-MIN KAVL 081035Z 35010G16KT 10SM -RA BKN029 OVC034 04/01 A2982 2260 79 1600 350/10G16 RMK AO2 RAB17 P0000 T00440011
03812KAVL AVL20160408054012304/08/16 05:40:31  5-MIN KAVL 081040Z 34010KT 10SM -RA OVC032 04/02 A2982 2260 82 1600 350/10 RMK AO2 RAB17 P0000 T00440017
03812KAVL AVL20160408054513004/08/16 05:45:31  5-MIN KAVL 081045Z 33009KT 10SM -RA BKN028 OVC033 04/02 A2982 2260 82 1600 340/09 RMK AO2 RAB17 P0000 T00440017
03812KAVL AVL20160408055013704/08/16 05:50:31  5-MIN KAVL 081050Z 33007KT 10SM -RA BKN028 OVC035 04/02 A2982 2260 82 1600 340/07 RMK AO2 RAB17 SLP093 P0000 T00440017
03812KAVL AVL20160408055513104/08/16 05:55:31  5-MIN KAVL 081055Z 01006KT 10SM -RA FEW019 BKN030 OVC035 04/02 A2983 2250 82 1600 010/06 RMK AO2 P0000 T00440017
03812KAVL AVL20160408060013104/08/16 06:00:31  5-MIN KAVL 081100Z 01005KT 10SM -RA SCT019 BKN028 OVC035 04/02 A2983 2250 82 1600 010/05 RMK AO2 P0000 T00440017
03812KAVL AVL20160408060513104/08/16 06:05:31  5-MIN KAVL 081105Z 01007KT 10SM -RA BKN017 BKN027 OVC032 04/02 A2983 2250 82 1600 010/07 RMK AO2 P0000 T00440017
03812KAVL AVL20160408061012604/08/16 06:10:31  5-MIN KAVL 081110Z 01006KT 10SM BKN017 OVC024 04/02 A2983 2250 82 1600 010/06 RMK AO2 RAE09 P0000 T00440017
03812KAVL AVL20160408061512604/08/16 06:15:31  5-MIN KAVL 081115Z 36006KT 10SM BKN019 OVC027 04/02 A2983 2250 82 1600 360/06 RMK AO2 RAE09 P0000 T00440017
03812KAVL AVL20160408062011904/08/16 06:20:31  5-MIN KAVL 081120Z 35006KT 10SM OVC019 04/02 A2983 2250 82 1600 360/06 RMK AO2 RAE09 P0000 T00440017
03812KAVL AVL20160408062511904/08/16 06:25:31  5-MIN KAVL 081125Z 36006KT 10SM OVC020 04/02 A2983 2250 82 1600 010/06 RMK AO2 RAE09 P0000 T00440017
03812KAVL AVL20160408063011904/08/16 06:30:31  5-MIN KAVL 081130Z 36006KT 10SM OVC020 04/02 A2983 2250 82 1600 010/06 RMK AO2 RAE09 P0000 T00440017
03812KAVL AVL20160408063511904/08/16 06:35:31  5-MIN KAVL 081135Z VRB05KT 10SM OVC022 05/02 A2983 2250 79 1600 VRB/05 RMK AO2 RAE09 P0000 T00500017
03812KAVL AVL20160408064011904/08/16 06:40:31  5-MIN KAVL 081140Z 36005KT 10SM OVC022 05/02 A2984 2240 79 1600 360/05 RMK AO2 RAE09 P0000 T00500017
03812KAVL AVL20160408064511904/08/16 06:45:31  5-MIN KAVL 081145Z 36005KT 10SM OVC022 05/01 A2984 2250 76 1600 360/05 RMK AO2 RAE09 P0000 T00500011
03812KAVL AVL20160408065015704/08/16 06:50:31  5-MIN KAVL 081150Z 35008KT 10SM BKN022 OVC027 05/01 A2984 2250 76 1600 360/08 RMK AO2 RAE09 SLP098 P0000 60000 T00500011 10072 20039 56001
03812KAVL AVL20160408065512104/08/16 06:55:31  5-MIN KAVL 081155Z 35009KT 10SM BKN022 BKN039 OVC055 05/01 A2983 2250 73 1600 360/09 RMK AO2 T00500006
03812KAVL AVL20160408070012104/08/16 07:00:31  5-MIN KAVL 081200Z 36007KT 10SM BKN022 BKN027 OVC039 04/00 A2984 2250 73 1600 010/07 RMK AO2 T00440000
03812KAVL AVL20160408070511404/08/16 07:05:31  5-MIN KAVL 081205Z 35007KT 10SM BKN024 OVC039 04/01 A2984 2240 76 1500 350/07 RMK AO2 T00440006
03812KAVL AVL20160408071012104/08/16 07:10:31  5-MIN KAVL 081210Z 35008KT 10SM SCT023 BKN030 OVC039 05/00 A2984 2240 70 1600 360/08 RMK AO2 T00500000
03812KAVL AVL20160408071511404/08/16 07:15:31  5-MIN KAVL 081215Z 35008KT 10SM BKN026 OVC037 05/00 A2984 2240 70 1600 350/08 RMK AO2 T00500000
03812KAVL AVL20160408072011404/08/16 07:20:31  5-MIN KAVL 081220Z 34007KT 10SM BKN026 OVC037 05/00 A2984 2240 70 1600 350/07 RMK AO2 T00500000
03812KAVL AVL20160408072511404/08/16 07:25:31  5-MIN KAVL 081225Z 35006KT 10SM SCT026 OVC033 05/00 A2984 2240 70 1600 360/06 RMK AO2 T00500000
03812KAVL AVL20160408073011404/08/16 07:30:31  5-MIN KAVL 081230Z 34007KT 10SM SCT025 OVC033 05/00 A2984 2240 70 1600 340/07 RMK AO2 T00500000
03812KAVL AVL20160408073512204/08/16 07:35:31  5-MIN KAVL 081235Z 36006KT 10SM FEW025 BKN033 OVC042 05/M01 A2984 2240 67 1600 360/06 RMK AO2 T00501006
03812KAVL AVL20160408074012204/08/16 07:40:31  5-MIN KAVL 081240Z 34003KT 10SM FEW027 BKN035 OVC042 05/M01 A2984 2240 67 1600 350/03 RMK AO2 T00501006
03812KAVL AVL20160408074511504/08/16 07:45:31  5-MIN KAVL 081245Z 36007KT 10SM SCT029 OVC035 06/M01 A2984 2240 65 1700 010/07 RMK AO2 T00561006
03812KAVL AVL20160408075012204/08/16 07:50:31  5-MIN KAVL 081250Z VRB05KT 10SM FEW029 OVC035 06/M01 A2984 2240 65 1700 VRB/05 RMK AO2 SLP100 T00561006
03812KAVL AVL20160408075511504/08/16 07:55:31  5-MIN KAVL 081255Z 01007KT 10SM FEW027 OVC035 06/M01 A2984 2240 62 1700 020/07 RMK AO2 T00561011
03812KAVL AVL20160408080011504/08/16 08:00:31  5-MIN KAVL 081300Z 36007KT 10SM SCT025 OVC035 06/M01 A2984 2240 62 1700 010/07 RMK AO2 T00561011
03812KAVL AVL20160408080511504/08/16 08:05:31  5-MIN KAVL 081305Z 35008KT 10SM BKN025 OVC035 06/M01 A2984 2240 62 1700 350/08 RMK AO2 T00561011
03812KAVL AVL20160408081011504/08/16 08:10:31  5-MIN KAVL 081310Z 36006KT 10SM BKN025 OVC033 05/M02 A2985 2240 62 1600 360/06 RMK AO2 T00501017
03812KAVL AVL20160408081511504/08/16 08:15:31  5-MIN KAVL 081315Z 36004KT 10SM BKN025 OVC035 06/M01 A2984 2240 62 1700 010/04 RMK AO2 T00561011
03812KAVL AVL20160408082010804/08/16 08:20:31  5-MIN KAVL 081320Z 35006KT 10SM OVC025 06/M01 A2985 2240 62 1700 350/06 RMK AO2 T00561011
03812KAVL AVL20160408082510804/08/16 08:25:31  5-MIN KAVL 081325Z 36005KT 10SM OVC025 06/M01 A2985 2230 62 1700 360/05 RMK AO2 T00561011
03812KAVL AVL20160408083011504/08/16 08:30:31  5-MIN KAVL 081330Z 36006KT 10SM BKN027 OVC033 06/M01 A2985 2230 60 1700 010/06 RMK AO2 T00611011
03812KAVL AVL20160408083511504/08/16 08:35:31  5-MIN KAVL 081335Z VRB05KT 10SM BKN027 OVC035 06/M01 A2985 2230 60 1700 VRB/05 RMK AO2 T00611011
03812KAVL AVL20160408084011504/08/16 08:40:31  5-MIN KAVL 081340Z 35009KT 10SM BKN027 OVC035 06/M01 A2985 2230 60 1700 360/09 RMK AO2 T00611011
03812KAVL AVL20160408084511504/08/16 08:45:31  5-MIN KAVL 081345Z VRB05KT 10SM BKN029 OVC037 06/M02 A2985 2230 57 1700 VRB/05 RMK AO2 T00611017
03812KAVL AVL20160408085009804/08/16 08:50:31  5-MIN KAVL 081350Z 33010KT 10SM OVC032 07/M01 A2985 2230 57 1800 340/10 RMK AO2
03812KAVL AVL20160408085510804/08/16 08:55:31  5-MIN KAVL 081355Z 34011KT 10SM OVC032 06/M01 A2985 2230 60 1700 350/11 RMK AO2 T00611011
03812KAVL AVL20160408090011504/08/16 09:00:31  5-MIN KAVL 081400Z 01008KT 10SM BKN032 OVC038 06/M01 A2986 2230 60 1700 010/08 RMK AO2 T00611011
03812KAVL AVL20160408090510804/08/16 09:05:31  5-MIN KAVL 081405Z 35008KT 10SM OVC032 06/M01 A2986 2230 60 1700 350/08 RMK AO2 T00611011
03812KAVL AVL20160408091010804/08/16 09:10:31  5-MIN KAVL 081410Z 34007KT 10SM OVC032 06/M01 A2986 2220 60 1700 350/07 RMK AO2 T00611011
03812KAVL AVL20160408091511504/08/16 09:15:31  5-MIN KAVL 081415Z 35007KT 10SM BKN032 OVC041 07/M01 A2986 2230 57 1800 350/07 RMK AO2 T00671011
03812KAVL AVL20160408092011504/08/16 09:20:31  5-MIN KAVL 081420Z 36009KT 10SM BKN033 OVC041 07/M01 A2986 2220 55 1900 360/09 RMK AO2 T00721011
03812KAVL AVL20160408092512204/08/16 09:25:31  5-MIN KAVL 081425Z 35007KT 10SM BKN033 BKN044 OVC055 07/M01 A2986 2220 55 1900 360/07 RMK AO2 T00721011
03812KAVL AVL20160408093012204/08/16 09:30:31  5-MIN KAVL 081430Z 35007KT 10SM BKN035 BKN045 BKN055 08/M01 A2986 2220 53 1900 360/07 RMK AO2 T00781011
03812KAVL AVL20160408093512204/08/16 09:35:31  5-MIN KAVL 081435Z 35007KT 10SM BKN035 BKN045 BKN055 08/M01 A2986 2220 53 1900 350/07 RMK AO2 T00781011
03812KAVL AVL20160408094012204/08/16 09:40:31  5-MIN KAVL 081440Z 36006KT 10SM BKN037 BKN045 OVC055 08/M01 A2986 2220 53 1900 010/06 RMK AO2 T00781011
03812KAVL AVL20160408094512204/08/16 09:45:31  5-MIN KAVL 081445Z 36009KT 10SM BKN036 BKN043 OVC050 08/M01 A2986 2220 53 1900 010/09 RMK AO2 T00781011
03812KAVL AVL20160408095012104/08/16 09:50:31  5-MIN KAVL 081450Z 02006KT 10SM BKN038 08/M01 A2986 2220 53 1900 030/06 RMK AO2 SLP106 T00781011 53008
03812KAVL AVL20160408095510804/08/16 09:55:31  5-MIN KAVL 081455Z 36008KT 10SM BKN038 08/M01 A2986 2220 53 2000 360/08 RMK AO2 T00831006
03812KAVL AVL20160408100011504/08/16 10:00:31  5-MIN KAVL 081500Z 35008KT 10SM BKN040 BKN055 08/M01 A2987 2220 53 2000 360/08 RMK AO2 T00831006
03812KAVL AVL20160408100512204/08/16 10:05:31  5-MIN KAVL 081505Z 36007KT 10SM SCT037 BKN045 BKN055 08/M01 A2987 2210 51 2000 360/07 RMK AO2 T00831011
03812KAVL AVL20160408101011504/08/16 10:10:31  5-MIN KAVL 081510Z 35008KT 10SM SCT039 BKN055 09/M01 A2987 2210 49 2000 350/08 RMK AO2 T00891011
03812KAVL AVL20160408101513104/08/16 10:15:31  5-MIN KAVL 081515Z 33009KT 290V360 10SM SCT039 BKN055 09/M01 A2988 2210 47 2100 340/09 300V010 RMK AO2 T00941011
03812KAVL AVL20160408102012204/08/16 10:20:31  5-MIN KAVL 081520Z 36011KT 10SM FEW041 BKN049 BKN060 08/M01 A2987 2210 51 2000 360/11 RMK AO2 T00831011
03812KAVL AVL20160408102513104/08/16 10:25:31  5-MIN KAVL 081525Z 33008KT 310V020 10SM BKN045 OVC055 08/M02 A2988 2210 49 2000 340/08 320V030 RMK AO2 T00831017
03812KAVL AVL20160408103012804/08/16 10:30:31  5-MIN KAVL 081530Z 32012G21KT 10SM FEW040 BKN047 OVC055 09/M02 A2987 2210 47 2000 320/12G21 RMK AO2 T00891017
03812KAVL AVL20160408103512104/08/16 10:35:31  5-MIN KAVL 081535Z 31009G21KT 10SM BKN047 OVC060 09/M02 A2988 2210 45 2100 320/09G21 RMK AO2 T00941017
03812KAVL AVL20160425184511004/25/16 18:45:31  5-MIN KAVL 252345Z 18009G17KT 10SM CLR 22/11 A2998 2110 50 3400 190/09G17 RMK AO2 T02170111
03812KAVL AVL20160425185012904/25/16 18:50:31  5-MIN KAVL 252350Z 19009KT 10SM CLR 22/11 A2998 2110 50 3400 190/09 RMK AO2 SLP138 T02170111 10267 20217 56016
03812KAVL AVL20160425185510404/25/16 18:55:31  5-MIN KAVL 252355Z 19010KT 10SM CLR 22/11 A2998 2110 50 3400 190/10 RMK AO2 T02170111
03812KAVL AVL20160425190010404/25/16 19:00:31  5-MIN KAVL 260000Z 18007KT 10SM CLR 21/11 A2998 2110 52 3300 190/07 RMK AO2 T02110111
03812KAVL AVL20160425190510404/25/16 19:05:31  5-MIN KAVL 260005Z 19009KT 10SM CLR 21/11 A2998 2110 52 3300 190/09 RMK AO2 T02110111
03812KAVL AVL20160425191010404/25/16 19:10:31  5-MIN KAVL 260010Z 17009KT 10SM CLR 21/11 A2998 2110 52 3300 180/09 RMK AO2 T02110111
03812KAVL AVL20160425191510404/25/16 19:15:31  5-MIN KAVL 260015Z 17009KT 10SM CLR 21/11 A2999 2110 54 3300 180/09 RMK AO2 T02060111
03812KAVL AVL20160425192010404/25/16 19:20:31  5-MIN KAVL 260020Z 17007KT 10SM CLR 21/11 A2999 2100 54 3300 180/07 RMK AO2 T02060111
03812KAVL AVL20160425192510404/25/16 19:25:31  5-MIN KAVL 260025Z 17007KT 10SM CLR 20/11 A2999 2100 56 3200 180/07 RMK AO2 T02000111
03812KAVL AVL20160425193010404/25/16 19:30:31  5-MIN KAVL 260030Z 16007KT 10SM CLR 20/11 A2999 2100 56 3200 170/07 RMK AO2 T02000111
03812KAVL AVL20160425193510404/25/16 19:35:31  5-MIN KAVL 260035Z 17008KT 10SM CLR 20/11 A2999 2100 56 3200 180/08 RMK AO2 T02000111
03812KAVL AVL20160425194010404/25/16 19:40:31  5-MIN KAVL 260040Z 17007KT 10SM CLR 20/11 A3000 2100 56 3200 170/07 RMK AO2 T02000111
03812KAVL AVL20160425194510404/25/16 19:45:31  5-MIN KAVL 260045Z 17005KT 10SM CLR 20/11 A3000 2100 56 3200 170/05 RMK AO2 T02000111
03812KAVL AVL20160425195011104/25/16 19:50:31  5-MIN KAVL 260050Z 16005KT 10SM CLR 20/11 A3000 2100 56 3200 170/05 RMK AO2 SLP141 T02000111
03812KAVL AVL20160425195510404/25/16 19:55:31  5-MIN KAVL 260055Z 16005KT 10SM CLR 19/11 A3000 2100 58 3100 160/05 RMK AO2 T01940111
03812KAVL AVL20160425200010404/25/16 20:00:31  5-MIN KAVL 260100Z 16005KT 10SM CLR 19/11 A3000 2090 58 3100 170/05 RMK AO2 T01940111
03812KAVL AVL20160425200510404/25/16 20:05:31  5-MIN KAVL 260105Z 16006KT 10SM CLR 20/11 A3000 2090 56 3200 170/06 RMK AO2 T02000111
03812KAVL AVL20160425201010404/25/16 20:10:31  5-MIN KAVL 260110Z 16006KT 10SM CLR 19/11 A3001 2090 60 3100 160/06 RMK AO2 T01890111
03812KAVL AVL20160425201510404/25/16 20:15:31  5-MIN KAVL 260115Z 16006KT 10SM CLR 19/11 A3001 2090 58 3100 160/06 RMK AO2 T01940111
03812KAVL AVL20160425202010404/25/16 20:20:31  5-MIN KAVL 260120Z 16005KT 10SM CLR 19/11 A3001 2090 60 3100 160/05 RMK AO2 T01890111
03812KAVL AVL20160425202510404/25/16 20:25:31  5-MIN KAVL 260125Z 16006KT 10SM CLR 19/11 A3001 2090 58 3100 170/06 RMK AO2 T01940111
03812KAVL AVL20160425203010404/25/16 20:30:31  5-MIN KAVL 260130Z 16006KT 10SM CLR 19/11 A3001 2080 58 3100 170/06 RMK AO2 T01940111
03812KAVL AVL20160425203510404/25/16 20:35:31  5-MIN KAVL 260135Z 17006KT 10SM CLR 19/11 A3001 2080 60 3100 170/06 RMK AO2 T01890111
03812KAVL AVL20160425204010404/25/16 20:40:31  5-MIN KAVL 260140Z 16006KT 10SM CLR 18/11 A3002 2080 62 3000 170/06 RMK AO2 T01830111
03812KAVL AVL20160425204510404/25/16 20:45:31  5-MIN KAVL 260145Z 16006KT 10SM CLR 19/11 A3002 2080 60 3000 160/06 RMK AO2 T01890111
03812KAVL AVL20160425205011104/25/16 20:50:31  5-MIN KAVL 260150Z 16005KT 10SM CLR 19/11 A3002 2080 60 3000 170/05 RMK AO2 SLP145 T01890111
03812KAVL AVL20160425205510404/25/16 20:55:31  5-MIN KAVL 260155Z 16005KT 10SM CLR 18/11 A3002 2080 62 3000 170/05 RMK AO2 T01830111
03812KAVL AVL20160425210010404/25/16 21:00:31  5-MIN KAVL 260200Z 16004KT 10SM CLR 19/11 A3002 2080 60 3000 160/04 RMK AO2 T01890111
03812KAVL AVL20160425210510404/25/16 21:05:31  5-MIN KAVL 260205Z 15005KT 10SM CLR 18/11 A3002 2080 62 3000 160/05 RMK AO2 T01830111
03812KAVL AVL20160425211010404/25/16 21:10:31  5-MIN KAVL 260210Z 14006KT 10SM CLR 19/11 A3002 2080 60 3000 150/06 RMK AO2 T01890111
03812KAVL AVL20160425211510404/25/16 21:15:31  5-MIN KAVL 260215Z 15005KT 10SM CLR 19/11 A3002 2080 60 3000 160/05 RMK AO2 T01890111
03812KAVL AVL20160425212010404/25/16 21:20:31  5-MIN KAVL 260220Z 15004KT 10SM CLR 18/11 A3002 2080 62 3000 160/04 RMK AO2 T01830111
03812KAVL AVL20160425212510404/25/16 21:25:31  5-MIN KAVL 260225Z 14004KT 10SM CLR 19/11 A3002 2080 60 3000 140/04 RMK AO2 T01890111
03812KAVL AVL20160425213010404/25/16 21:30:31  5-MIN KAVL 260230Z 15004KT 10SM CLR 19/11 A3002 2070 60 3000 160/04 RMK AO2 T01890111
03812KAVL AVL20160425213510404/25/16 21:35:31  5-MIN KAVL 260235Z 14005KT 10SM CLR 19/11 A3002 2070 60 3000 150/05 RMK AO2 T01890111
03812KAVL AVL20160425214010704/25/16 21:40:31  5-MIN KAVL 260240Z 14004KT 10SM FEW085 19/11 A3002 2070 60 3000 150/04 RMK AO2 T01890111
03812KAVL AVL20160425214510704/25/16 21:45:31  5-MIN KAVL 260245Z 13004KT 10SM FEW085 18/11 A3002 2070 62 3000 140/04 RMK AO2 T01830111
03812KAVL AVL20160425215012004/25/16 21:50:31  5-MIN KAVL 260250Z 14004KT 10SM FEW085 18/11 A3002 2070 62 3000 140/04 RMK AO2 SLP144 T01830111 55003
03812KAVL AVL20160425215511204/25/16 21:55:31  5-MIN KAVL 260255Z AUTO 14004KT 10SM FEW085 18/11 A3002 2070 62 3000 150/04 RMK AO2 T01830111
03812KAVL AVL20160425220011204/25/16 22:00:31  5-MIN KAVL 260300Z AUTO 15004KT 10SM FEW085 18/11 A3002 2070 62 3000 160/04 RMK AO2 T01830111
03812KAVL AVL20160425220511204/25/16 22:05:31  5-MIN KAVL 260305Z AUTO 14004KT 10SM FEW085 18/11 A3002 2070 62 3000 150/04 RMK AO2 T01830111
03812KAVL AVL20160425221010904/25/16 22:10:31  5-MIN KAVL 260310Z AUTO 17005KT 10SM CLR 18/11 A3002 2070 62 3000 180/05 RMK AO2 T01830111
03812KAVL AVL20160425221510904/25/16 22:15:31  5-MIN KAVL 260315Z AUTO 17007KT 10SM CLR 18/11 A3002 2070 62 3000 170/07 RMK AO2 T01830111
03812KAVL AVL20160425222010904/25/16 22:20:31  5-MIN KAVL 260320Z AUTO 16005KT 10SM CLR 18/11 A3002 2070 62 3000 160/05 RMK AO2 T01830111
03812KAVL AVL20160425222510904/25/16 22:25:31  5-MIN KAVL 260325Z AUTO 16006KT 10SM CLR 18/11 A3002 2080 62 3000 170/06 RMK AO2 T01830111
03812KAVL AVL20160425223010904/25/16 22:30:31  5-MIN KAVL 260330Z AUTO 17007KT 10SM CLR 18/11 A3002 2080 62 3000 180/07 RMK AO2 T01830111
03812KAVL AVL20160425223510904/25/16 22:35:31  5-MIN KAVL 260335Z AUTO 16005KT 10SM CLR 18/11 A3002 2080 62 3000 170/05 RMK AO2 T01830111
03812KAVL AVL20160425224010904/25/16 22:40:31  5-MIN KAVL 260340Z AUTO 17005KT 10SM CLR 18/11 A3002 2080 64 2900 180/05 RMK AO2 T01780111
03812KAVL AVL20160425224510904/25/16 22:45:31  5-MIN KAVL 260345Z AUTO 16005KT 10SM CLR 18/11 A3001 2080 64 2900 170/05 RMK AO2 T01780111
03812KAVL AVL20160425225011604/25/16 22:50:31  5-MIN KAVL 260350Z AUTO 17006KT 10SM CLR 17/11 A3002 2080 67 2900 180/06 RMK AO2 SLP142 T01720111
03812KAVL AVL20160425225510904/25/16 22:55:31  5-MIN KAVL 260355Z AUTO 17006KT 10SM CLR 17/12 A3001 2080 69 2900 180/06 RMK AO2 T01720117
03812KAVL AVL20160425230010904/25/16 23:00:31  5-MIN KAVL 260400Z AUTO 17006KT 10SM CLR 17/12 A3002 2080 72 2800 180/06 RMK AO2 T01670117
03812KAVL AVL20160425230510904/25/16 23:05:31  5-MIN KAVL 260405Z AUTO 18006KT 10SM CLR 17/12 A3002 2080 69 2900 190/06 RMK AO2 T01720117
03812KAVL AVL20160425231010904/25/16 23:10:31  5-MIN KAVL 260410Z AUTO 18007KT 10SM CLR 17/12 A3002 2080 69 2900 180/07 RMK AO2 T01720117
03812KAVL AVL20160425231510904/25/16 23:15:31  5-MIN KAVL 260415Z AUTO 18006KT 10SM CLR 18/12 A3002 2080 67 2900 190/06 RMK AO2 T01780117
03812KAVL AVL20160425232010904/25/16 23:20:31  5-MIN KAVL 260420Z AUTO 18006KT 10SM CLR 17/12 A3002 2080 69 2900 180/06 RMK AO2 T01720117
03812KAVL AVL20160425232510904/25/16 23:25:31  5-MIN KAVL 260425Z AUTO 17007KT 10SM CLR 17/12 A3002 2080 72 2800 180/07 RMK AO2 T01670117
03812KAVL AVL20160425233010904/25/16 23:30:31  5-MIN KAVL 260430Z AUTO 17006KT 10SM CLR 17/12 A3002 2080 72 2800 180/06 RMK AO2 T01670117
03812KAVL AVL20160425233510904/25/16 23:35:31  5-MIN KAVL 260435Z AUTO 17006KT 10SM CLR 17/12 A3002 2080 72 2800 180/06 RMK AO2 T01670117
03812KAVL AVL20160425234010904/25/16 23:40:31  5-MIN KAVL 260440Z AUTO 18006KT 10SM CLR 17/12 A3002 2080 72 2800 190/06 RMK AO2 T01670117
03812KAVL AVL20160425234510904/25/16 23:45:31  5-MIN KAVL 260445Z AUTO 19006KT 10SM CLR 17/12 A3002 2080 72 2800 190/06 RMK AO2 T01670117
03812KAVL AVL20160425235012604/25/16 23:50:31  5-MIN KAVL 260450Z AUTO 19007KT 10SM CLR 17/12 A3002 2080 72 2800 190/07 RMK AO2 SLP141 T01670117 402670078
03812KAVL AVL20160425235510904/25/16 23:55:31  5-MIN KAVL 260455Z AUTO 19007KT 10SM CLR 17/12 A3002 2080 69 2900 190/07 RMK AO2 T01720117
03812KAVL AVL20160426000010904/26/16 00:00:31  5-MIN KAVL 260500Z AUTO 19007KT 10SM CLR 17/12 A3002 2080 69 2900 190/07 RMK AO2 T01720117
03812KAVL AVL20160426000510904/26/16 00:05:31  5-MIN KAVL 260505Z AUTO 18007KT 10SM CLR 17/12 A3001 2080 69 2900 190/07 RMK AO2 T01720117
03812KAVL AVL20160426001010904/26/16 00:10:31  5-MIN KAVL 260510Z AUTO 16005KT 10SM CLR 17/12 A3001 2080 72 2800 170/05 RMK AO2 T01670117
03812KAVL AVL20160426001510904/26/16 00:15:31  5-MIN KAVL 260515Z AUTO 15004KT 10SM CLR 17/12 A3001 2080 72 2800 160/04 RMK AO2 T01670117
03812KAVL AVL20160426002010904/26/16 00:20:31  5-MIN KAVL 260520Z AUTO 15003KT 10SM CLR 17/12 A3001 2080 72 2800 160/03 RMK AO2 T01670117
03812KAVL AVL20160426002510904/26/16 00:25:31  5-MIN KAVL 260525Z AUTO 15003KT 10SM CLR 17/12 A3001 2090 72 2800 160/03 RMK AO2 T01670117
03812KAVL AVL20160426003010904/26/16 00:30:31  5-MIN KAVL 260530Z AUTO 15003KT 10SM CLR 17/12 A3001 2090 72 2800 160/03 RMK AO2 T01670117
03812KAVL AVL20160426003510904/26/16 00:35:31  5-MIN KAVL 260535Z AUTO 14003KT 10SM CLR 17/12 A3001 2090 72 2800 150/03 RMK AO2 T01670117
03812KAVL AVL20160426004010904/26/16 00:40:31  5-MIN KAVL 260540Z AUTO 00000KT 10SM CLR 17/12 A3001 2090 72 2800 000/00 RMK AO2 T01670117
03812KAVL AVL20160426004510904/26/16 00:45:31  5-MIN KAVL 260545Z AUTO 00000KT 10SM CLR 16/11 A3001 2090 72 2700 000/00 RMK AO2 T01610111
03812KAVL AVL20160426005013404/26/16 00:50:31  5-MIN KAVL 260550Z AUTO 00000KT 10SM CLR 16/12 A3001 2090 75 2700 000/00 RMK AO2 SLP136 T01610117 10217 20161 51013
03812KAVL AVL20160426005511204/26/16 00:55:31  5-MIN KAVL 260555Z AUTO 00000KT 10SM FEW039 16/12 A3000 2090 75 2700 000/00 RMK AO2 T01610117
03812KAVL AVL20160426010011204/26/16 01:00:31  5-MIN KAVL 260600Z AUTO 14003KT 10SM FEW039 16/12 A3000 2090 75 2700 140/03 RMK AO2 T01610117
03812KAVL AVL20160426010511204/26/16 01:05:31  5-MIN KAVL 260605Z AUTO 15003KT 10SM FEW039 16/12 A3000 2090 75 2700 150/03 RMK AO2 T01610117
03812KAVL AVL20160426011011204/26/16 01:10:31  5-MIN KAVL 260610Z AUTO 14004KT 10SM FEW039 16/12 A3000 2090 75 2700 140/04 RMK AO2 T01610117
03812KAVL AVL20160426011511204/26/16 01:15:31  5-MIN KAVL 260615Z AUTO 00000KT 10SM FEW039 16/12 A3000 2100 75 2800 000/00 RMK AO2 T01610117
03812KAVL AVL20160426012011204/26/16 01:20:31  5-MIN KAVL 260620Z AUTO 00000KT 10SM FEW039 16/12 A3000 2100 75 2800 000/00 RMK AO2 T01610117
03812KAVL AVL20160426012511204/26/16 01:25:31  5-MIN KAVL 260625Z AUTO 00000KT 10SM SCT039 16/12 A3000 2100 75 2800 000/00 RMK AO2 T01610117
03812KAVL AVL20160426013011204/26/16 01:30:31  5-MIN KAVL 260630Z AUTO 00000KT 10SM SCT039 16/12 A3000 2100 75 2800 000/00 RMK AO2 T01610117
03812KAVL AVL20160426013511204/26/16 01:35:31  5-MIN KAVL 260635Z AUTO 00000KT 10SM SCT039 16/12 A3000 2100 75 2800 000/00 RMK AO2 T01610117
03812KAVL AVL20160426014011204/26/16 01:40:31  5-MIN KAVL 260640Z AUTO 00000KT 10SM SCT039 16/12 A2999 2100 77 2700 000/00 RMK AO2 T01560117
03812KAVL AVL20160426014511204/26/16 01:45:31  5-MIN KAVL 260645Z AUTO 00000KT 10SM SCT039 16/12 A2999 2100 77 2700 000/00 RMK AO2 T01560117
03812KAVL AVL20160426015011904/26/16 01:50:31  5-MIN KAVL 260650Z AUTO 00000KT 10SM SCT039 16/11 A2999 2100 74 2700 000/00 RMK AO2 SLP133 T01560111
03812KAVL AVL20160426015511204/26/16 01:55:31  5-MIN KAVL 260655Z AUTO 00000KT 10SM FEW039 15/11 A2999 2100 77 2600 000/00 RMK AO2 T01500111
03812KAVL AVL20160426020011204/26/16 02:00:31  5-MIN KAVL 260700Z AUTO 00000KT 10SM FEW038 14/11 A2999 2100 80 2600 000/00 RMK AO2 T01440111
03812KAVL AVL20160426020511204/26/16 02:05:31  5-MIN KAVL 260705Z AUTO 00000KT 10SM FEW038 14/11 A2999 2110 80 2600 000/00 RMK AO2 T01440111
03812KAVL AVL20160426021011204/26/16 02:10:31  5-MIN KAVL 260710Z AUTO 00000KT 10SM FEW038 14/11 A2999 2110 80 2600 000/00 RMK AO2 T01440111
03812KAVL AVL20160426021510904/26/16 02:15:31  5-MIN KAVL 260715Z AUTO 00000KT 10SM CLR 14/11 A2999 2110 80 2600 000/00 RMK AO2 T01440111
03812KAVL AVL20160426022010904/26/16 02:20:31  5-MIN KAVL 260720Z AUTO 00000KT 10SM CLR 14/11 A2999 2110 83 2500 000/00 RMK AO2 T01390111
03812KAVL AVL20160426022510904/26/16 02:25:31  5-MIN KAVL 260725Z AUTO 00000KT 10SM CLR 14/11 A2998 2110 83 2500 000/00 RMK AO2 T01390111
03812KAVL AVL20160426023010904/26/16 02:30:31  5-MIN KAVL 260730Z AUTO 00000KT 10SM CLR 14/11 A2998 2110 83 2500 000/00 RMK AO2 T01390111
03812KAVL AVL20160426023510904/26/16 02:35:31  5-MIN KAVL 260735Z AUTO 00000KT 10SM CLR 13/11 A2998 2110 86 2400 000/00 RMK AO2 T01330111
03812KAVL AVL20160426024010904/26/16 02:40:31  5-MIN KAVL 260740Z AUTO 00000KT 10SM CLR 13/11 A2998 2110 86 2400 000/00 RMK AO2 T01330111
03812KAVL AVL20160426024510904/26/16 02:45:31  5-MIN KAVL 260745Z AUTO 00000KT 10SM CLR 14/11 A2998 2110 83 2500 000/00 RMK AO2 T01390111
03812KAVL AVL20160426025011604/26/16 02:50:31  5-MIN KAVL 260750Z AUTO 21003KT 10SM CLR 13/11 A2998 2110 86 2400 210/03 RMK AO2 SLP130 T01330111
03812KAVL AVL20160426025510904/26/16 02:55:31  5-MIN KAVL 260755Z AUTO 17003KT 10SM CLR 13/11 A2998 2110 86 2400 180/03 RMK AO2 T01280106
03812KAVL AVL20160426030010904/26/16 03:00:31  5-MIN KAVL 260800Z AUTO 16004KT 10SM CLR 13/11 A2998 2120 86 2400 160/04 RMK AO2 T01280106
03812KAVL AVL20160426030510904/26/16 03:05:31  5-MIN KAVL 260805Z AUTO 15004KT 10SM CLR 12/11 A2998 2120 89 2300 160/04 RMK AO2 T01220106
03812KAVL AVL20160426031010904/26/16 03:10:31  5-MIN KAVL 260810Z AUTO 00000KT 10SM CLR 12/11 A2997 2120 89 2300 000/00 RMK AO2 T01220106
03812KAVL AVL20160426031510904/26/16 03:15:31  5-MIN KAVL 260815Z AUTO 16003KT 10SM CLR 12/11 A2997 2120 89 2300 160/03 RMK AO2 T01220106
03812KAVL AVL20160426032010904/26/16 03:20:31  5-MIN KAVL 260820Z AUTO 00000KT 10SM CLR 13/11 A2997 2120 86 2400 000/00 RMK AO2 T01280106
03812KAVL AVL20160426032510904/26/16 03:25:31  5-MIN KAVL 260825Z AUTO 18003KT 10SM CLR 13/11 A2997 2120 86 2400 180/03 RMK AO2 T01280106
03812KAVL AVL20160426033010904/26/16 03:30:31  5-MIN KAVL 260830Z AUTO 17003KT 10SM CLR 13/11 A2997 2120 86 2400 170/03 RMK AO2 T01280106
03812KAVL AVL20160426033511204/26/16 03:35:31  5-MIN KAVL 260835Z AUTO 19004KT 10SM FEW046 13/11 A2997 2120 86 2400 190/04 RMK AO2 T01280106
03812KAVL AVL20160426034011204/26/16 03:40:31  5-MIN KAVL 260840Z AUTO 19003KT 10SM FEW046 13/11 A2997 2120 86 2400 190/03 RMK AO2 T01280106
03812KAVL AVL20160426034511204/26/16 03:45:31  5-MIN KAVL 260845Z AUTO 18003KT 10SM FEW046 13/11 A2997 2120 86 2500 190/03 RMK AO2 T01330111
03812KAVL AVL20160426035012504/26/16 03:50:31  5-MIN KAVL 260850Z AUTO 18003KT 10SM FEW047 13/11 A2997 2120 86 2500 190/03 RMK AO2 SLP127 T01330111 58006
03812KAVL AVL20160426035511204/26/16 03:55:31  5-MIN KAVL 260855Z AUTO 00000KT 10SM FEW047 13/11 A2997 2120 86 2400 000/00 RMK AO2 T01280106
03812KAVL AVL20160426040011204/26/16 04:00:31  5-MIN KAVL 260900Z AUTO 00000KT 10SM FEW047 13/11 A2997 2120 86 2400 000/00 RMK AO2 T01280106
03812KAVL AVL20160426040511204/26/16 04:05:31  5-MIN KAVL 260905Z AUTO 00000KT 10SM FEW047 13/11 A2998 2120 86 2400 000/00 RMK AO2 T01280106
03812KAVL AVL20160426041010904/26/16 04:10:31  5-MIN KAVL 260910Z AUTO 00000KT 10SM CLR 13/11 A2997 2120 86 2400 000/00 RMK AO2 T01280106
03812KAVL AVL20160426041510904/26/16 04:15:31  5-MIN KAVL 260915Z AUTO 00000KT 10SM CLR 13/11 A2997 2120 86 2400 000/00 RMK AO2 T01280106
03812KAVL AVL20160426042010904/26/16 04:20:31  5-MIN KAVL 260920Z AUTO 00000KT 10SM CLR 13/11 A2997 2120 86 2400 000/00 RMK AO2 T01280106
03812KAVL AVL20160426042510904/26/16 04:25:31  5-MIN KAVL 260925Z AUTO 00000KT 10SM CLR 13/11 A2997 2120 86 2400 000/00 RMK AO2 T01280106
03812KAVL AVL20160426043010904/26/16 04:30:31  5-MIN KAVL 260930Z AUTO 00000KT 10SM CLR 13/11 A2997 2120 86 2400 000/00 RMK AO2 T01280106
03812KAVL AVL20160426043510904/26/16 04:35:31  5-MIN KAVL 260935Z AUTO 00000KT 10SM CLR 12/11 A2998 2120 89 2300 000/00 RMK AO2 T01220106
03812KAVL AVL20160426044010904/26/16 04:40:31  5-MIN KAVL 260940Z AUTO 00000KT 10SM CLR 12/11 A2998 2110 89 2300 000/00 RMK AO2 T01220106
03812KAVL AVL20160426044510904/26/16 04:45:31  5-MIN KAVL 260945Z AUTO 00000KT 10SM CLR 12/11 A2998 2110 89 2300 000/00 RMK AO2 T01220106
03812KAVL AVL20160426045011604/26/16 04:50:31  5-MIN KAVL 260950Z AUTO 00000KT 10SM CLR 12/10 A2998 2110 86 2300 000/00 RMK AO2 SLP132 T01220100
03812KAVL AVL20160426045510904/26/16 04:55:31  5-MIN KAVL 260955Z AUTO 00000KT 10SM CLR 12/10 A2998 2110 86 2300 000/00 RMK AO2 T01220100
03812KAVL AVL20160426050010904/26/16 05:00:31  5-MIN KAVL 261000Z AUTO 00000KT 10SM CLR 13/10 A2998 2110 83 2400 000/00 RMK AO2 T01280100
03812KAVL AVL20160426050510904/26/16 05:05:31  5-MIN KAVL 261005Z AUTO 00000KT 10SM CLR 13/11 A2998 2110 86 2400 000/00 RMK AO2 T01280106
03812KAVL AVL20160426051010404/26/16 05:10:31  5-MIN KAVL 261010Z 00000KT 10SM CLR 12/10 A2998 2110 86 2300 000/00 RMK AO2 T01220100
03812KAVL AVL20160426051510404/26/16 05:15:31  5-MIN KAVL 261015Z 00000KT 10SM CLR 13/11 A2999 2110 86 2400 000/00 RMK AO2 T01280106
03812KAVL AVL20160426052010404/26/16 05:20:31  5-MIN KAVL 261020Z 00000KT 10SM CLR 12/10 A2999 2110 86 2300 000/00 RMK AO2 T01220100
03812KAVL AVL20160426052510404/26/16 05:25:31  5-MIN KAVL 261025Z 00000KT 10SM CLR 12/11 A2999 2100 89 2300 000/00 RMK AO2 T01220106
03812KAVL AVL20160426053010404/26/16 05:30:31  5-MIN KAVL 261030Z VRB03KT 10SM CLR 12/10 A2999 2100 86 2300 VRB/03 RMK AO2 T01220100
03812KAVL AVL20160426053510404/26/16 05:35:31  5-MIN KAVL 261035Z 00000KT 10SM CLR 11/10 A2999 2100 93 2200 000/00 RMK AO2 T01110100
03812KAVL AVL20160426054010404/26/16 05:40:31  5-MIN KAVL 261040Z 00000KT 10SM CLR 12/09 A3000 2100 86 2200 000/00 RMK AO2 T01170094
03812KAVL AVL20160426054510404/26/16 05:45:31  5-MIN KAVL 261045Z 00000KT 10SM CLR 12/10 A3000 2090 89 2200 000/00 RMK AO2 T01170100
03812KAVL AVL20160426055011104/26/16 05:50:31  5-MIN KAVL 261050Z 00000KT 10SM CLR 12/10 A3000 2090 89 2200 000/00 RMK AO2 SLP141 T01170100
03812KAVL AVL20160426055510404/26/16 05:55:31  5-MIN KAVL 261055Z 33003KT 10SM CLR 12/11 A3000 2090 89 2300 340/03 RMK AO2 T01220106
03812KAVL AVL20160426060010404/26/16 06:00:31  5-MIN KAVL 261100Z 00000KT 10SM CLR 12/10 A3000 2090 89 2200 000/00 RMK AO2 T01170100
03812KAVL AVL20160426060510404/26/16 06:05:31  5-MIN KAVL 261105Z 00000KT 10SM CLR 12/10 A3000 2090 89 2200 000/00 RMK AO2 T01170100
03812KAVL AVL20160426061010404/26/16 06:10:31  5-MIN KAVL 261110Z 34003KT 10SM CLR 12/10 A3001 2090 86 2300 350/03 RMK AO2 T01220100
03812KAVL AVL20160426061510404/26/16 06:15:31  5-MIN KAVL 261115Z 00000KT 10SM CLR 12/11 A3001 2080 89 2300 000/00 RMK AO2 T01220106
03812KAVL AVL20160426062010404/26/16 06:20:31  5-MIN KAVL 261120Z 34003KT 10SM CLR 13/11 A3001 2080 86 2300 340/03 RMK AO2 T01280106
03812KAVL AVL20160426062510404/26/16 06:25:31  5-MIN KAVL 261125Z 00000KT 10SM CLR 13/11 A3001 2080 86 2300 000/00 RMK AO2 T01280106
03812KAVL AVL20160426063010404/26/16 06:30:31  5-MIN KAVL 261130Z 00000KT 10SM CLR 13/11 A3002 2080 83 2400 000/00 RMK AO2 T01330106
03812KAVL AVL20160426063510404/26/16 06:35:31  5-MIN KAVL 261135Z 00000KT 10SM CLR 13/11 A3001 2080 86 2400 000/00 RMK AO2 T01330111
03812KAVL AVL20160426064010404/26/16 06:40:31  5-MIN KAVL 261140Z 31003KT 10SM CLR 14/11 A3002 2080 83 2500 320/03 RMK AO2 T01390111
03812KAVL AVL20160426064510404/26/16 06:45:31  5-MIN KAVL 261145Z 32003KT 10SM CLR 14/11 A3002 2080 83 2500 320/03 RMK AO2 T01390111
03812KAVL AVL20160426065013204/26/16 06:50:31  5-MIN KAVL 261150Z 00000KT 10SM FEW055 14/12 A3002 2080 86 2500 000/00 RMK AO2 SLP146 T01390117 10161 20111 56010
03812KAVL AVL20160426065510704/26/16 06:55:31  5-MIN KAVL 261155Z 26003KT 10SM FEW055 13/11 A3002 2080 86 2400 270/03 RMK AO2 T01330111
03812KAVL AVL20160426070010704/26/16 07:00:31  5-MIN KAVL 261200Z 00000KT 10SM FEW055 13/11 A3002 2070 86 2300 000/00 RMK AO2 T01280106
03812KAVL AVL20160426070510704/26/16 07:05:31  5-MIN KAVL 261205Z 00000KT 10SM FEW055 13/11 A3002 2070 86 2300 000/00 RMK AO2 T01280106
03812KAVL AVL20160426071010704/26/16 07:10:31  5-MIN KAVL 261210Z 00000KT 10SM FEW055 13/11 A3002 2070 89 2300 000/00 RMK AO2 T01280111
03812KAVL AVL20160426071510704/26/16 07:15:31  5-MIN KAVL 261215Z 00000KT 10SM FEW055 13/11 A3003 2070 86 2400 000/00 RMK AO2 T01330111
03812KAVL AVL20160426072010704/26/16 07:20:31  5-MIN KAVL 261220Z 00000KT 10SM FEW055 13/11 A3002 2070 86 2400 000/00 RMK AO2 T01330111
03812KAVL AVL20160426072510404/26/16 07:25:31  5-MIN KAVL 261225Z 00000KT 10SM CLR 14/12 A3002 2070 86 2500 000/00 RMK AO2 T01390117
03812KAVL AVL20160426073010404/26/16 07:30:31  5-MIN KAVL 261230Z 00000KT 10SM CLR 14/12 A3002 2070 83 2500 000/00 RMK AO2 T01440117
03812KAVL AVL20160426073510404/26/16 07:35:31  5-MIN KAVL 261235Z 00000KT 10SM CLR 15/12 A3002 2070 80 2600 000/00 RMK AO2 T01500117
03812KAVL AVL20160426074010404/26/16 07:40:31  5-MIN KAVL 261240Z 00000KT 10SM CLR 15/12 A3002 2070 80 2600 000/00 RMK AO2 T01500117
03812KAVL AVL20160426074510404/26/16 07:45:31  5-MIN KAVL 261245Z 00000KT 10SM CLR 16/12 A3002 2070 77 2700 000/00 RMK AO2 T01560117
03812KAVL AVL20160426075011104/26/16 07:50:31  5-MIN KAVL 261250Z 00000KT 10SM CLR 16/12 A3002 2070 77 2700 000/00 RMK AO2 SLP147 T01610122
03812KAVL AVL20160426075510404/26/16 07:55:31  5-MIN KAVL 261255Z 21003KT 10SM CLR 17/12 A3003 2070 75 2800 210/03 RMK AO2 T01670122
03812KAVL AVL20160426080010404/26/16 08:00:31  5-MIN KAVL 261300Z 00000KT 10SM CLR 16/12 A3002 2070 77 2700 000/00 RMK AO2 T01610122
03812KAVL AVL20160426080510404/26/16 08:05:31  5-MIN KAVL 261305Z 00000KT 10SM CLR 17/12 A3002 2070 75 2800 000/00 RMK AO2 T01670122
03812KAVL AVL20160426081010404/26/16 08:10:31  5-MIN KAVL 261310Z 00000KT 10SM CLR 17/12 A3002 2070 72 2800 000/00 RMK AO2 T01720122
03812KAVL AVL20160426081510404/26/16 08:15:31  5-MIN KAVL 261315Z 00000KT 10SM CLR 17/12 A3003 2070 72 2800 000/00 RMK AO2 T01720122
03812KAVL AVL20160426082010404/26/16 08:20:31  5-MIN KAVL 261320Z 00000KT 10SM CLR 18/12 A3003 2070 69 2900 000/00 RMK AO2 T01780122
03812KAVL AVL20160426082510404/26/16 08:25:31  5-MIN KAVL 261325Z 00000KT 10SM CLR 18/12 A3003 2070 67 3000 000/00 RMK AO2 T01830122
03812KAVL AVL20160426083010404/26/16 08:30:31  5-MIN KAVL 261330Z 21003KT 10SM CLR 18/12 A3003 2070 67 3000 210/03 RMK AO2 T01830122
03812KAVL AVL20160426083510404/26/16 08:35:31  5-MIN KAVL 261335Z 00000KT 10SM CLR 18/12 A3003 2070 67 3000 000/00 RMK AO2 T01830122
03812KAVL AVL20160426084010404/26/16 08:40:31  5-MIN KAVL 261340Z 00000KT 10SM CLR 19/12 A3003 2070 65 3000 000/00 RMK AO2 T01890122
03812KAVL AVL20160426084510404/26/16 08:45:31  5-MIN KAVL 261345Z 00000KT 10SM CLR 19/12 A3003 2070 60 3100 000/00 RMK AO2 T01940117
03812KAVL AVL20160426085011104/26/16 08:50:31  5-MIN KAVL 261350Z 22004KT 10SM CLR 20/12 A3003 2070 60 3200 220/04 RMK AO2 SLP147 T02000122
03812KAVL AVL20160426085510404/26/16 08:55:31  5-MIN KAVL 261355Z 00000KT 10SM CLR 20/12 A3002 2070 58 3200 000/00 RMK AO2 T02000117
03812KAVL AVL20160426090010404/26/16 09:00:31  5-MIN KAVL 261400Z 00000KT 10SM CLR 21/12 A3002 2070 56 3300 000/00 RMK AO2 T02110122
03812KAVL AVL20160426090510404/26/16 09:05:31  5-MIN KAVL 261405Z VRB03KT 10SM CLR 21/12 A3002 2070 58 3200 VRB/03 RMK AO2 T02060122
03812KAVL AVL20160426091010404/26/16 09:10:31  5-MIN KAVL 261410Z VRB03KT 10SM CLR 22/12 A3002 2070 54 3400 VRB/03 RMK AO2 T02170122
03812KAVL AVL20160426091510404/26/16 09:15:31  5-MIN KAVL 261415Z 00000KT 10SM CLR 22/12 A3002 2070 52 3400 000/00 RMK AO2 T02170117
03812KAVL AVL20160426092010704/26/16 09:20:31  5-MIN KAVL 261420Z 00000KT 10SM FEW050 22/12 A3002 2070 52 3400 000/00 RMK AO2 T02220122
03812KAVL AVL20160426092511404/26/16 09:25:31  5-MIN KAVL 261425Z 24003KT 10SM SCT050 SCT060 21/12 A3002 2070 54 3300 250/03 RMK AO2 T02110117
03812KAVL AVL20160426093011404/26/16 09:30:31  5-MIN KAVL 261430Z 00000KT 10SM SCT050 BKN060 21/12 A3002 2070 56 3300 000/00 RMK AO2 T02110122
03812KAVL AVL20160426093510704/26/16 09:35:31  5-MIN KAVL 261435Z VRB03KT 10SM BKN055 22/12 A3002 2080 52 3400 VRB/03 RMK AO2 T02170117
03812KAVL AVL20160426094010704/26/16 09:40:31  5-MIN KAVL 261440Z 34009KT 10SM BKN055 23/11 A3002 2070 47 3500 350/09 RMK AO2 T02280111
03812KAVL AVL20160426094510704/26/16 09:45:31  5-MIN KAVL 261445Z VRB06KT 10SM BKN055 22/11 A3002 2080 47 3400 VRB/06 RMK AO2 T02220106
03812KAVL AVL20160426095012004/26/16 09:50:31  5-MIN KAVL 261450Z 35010KT 10SM BKN055 23/11 A3002 2080 45 3500 360/10 RMK AO2 SLP142 T02280106 53016
03812KAVL AVL20160426095510704/26/16 09:55:31  5-MIN KAVL 261455Z 36008KT 10SM BKN055 22/09 A3002 2080 43 3400 360/08 RMK AO2 T02220094
03812KAVL AVL20160426100010704/26/16 10:00:31  5-MIN KAVL 261500Z 35005KT 10SM BKN055 22/09 A3002 2080 43 3400 360/05 RMK AO2 T02220094
03812KAVL AVL20160426100510704/26/16 10:05:31  5-MIN KAVL 261505Z 34008KT 10SM BKN055 22/09 A3002 2080 43 3400 340/08 RMK AO2 T02220094
03812KAVL AVL20160426101010704/26/16 10:10:31  5-MIN KAVL 261510Z 35009KT 10SM BKN055 22/09 A3001 2080 43 3400 350/09 RMK AO2 T02220094
03812KAVL AVL20160426101510704/26/16 10:15:31  5-MIN KAVL 261515Z 34007KT 10SM BKN055 23/09 A3001 2080 42 3500 350/07 RMK AO2 T02280094
03812KAVL AVL20160426102010704/26/16 10:20:31  5-MIN KAVL 261520Z 00000KT 10SM BKN055 23/10 A3001 2080 44 3500 000/00 RMK AO2 T02280100
03812KAVL AVL20160426102510704/26/16 10:25:31  5-MIN KAVL 261525Z VRB03KT 10SM BKN055 23/10 A3001 2090 44 3500 VRB/03 RMK AO2 T02280100
03812KAVL AVL20160426103010704/26/16 10:30:31  5-MIN KAVL 261530Z 35006KT 10SM BKN055 23/09 A3001 2090 42 3500 360/06 RMK AO2 T02280094
03812KAVL AVL20160426103510704/26/16 10:35:31  5-MIN KAVL 261535Z 34008KT 10SM BKN055 23/09 A3000 2090 42 3500 350/08 RMK AO2 T02280094
03812KAVL AVL20160426104010704/26/16 10:40:31  5-MIN KAVL 261540Z 35006KT 10SM BKN060 23/09 A3000 2090 42 3500 350/06 RMK AO2 T02280094
03812KAVL AVL20160426104510704/26/16 10:45:31  5-MIN KAVL 261545Z 01005KT 10SM BKN060 23/09 A3000 2090 41 3600 010/05 RMK AO2 T02330094
03812KAVL AVL20160426105011404/26/16 10:50:31  5-MIN KAVL 261550Z 00000KT 10SM BKN060 23/09 A3000 2100 41 3600 000/00 RMK AO2 SLP135 T02330094
03812KAVL AVL20160426105510704/26/16 10:55:31  5-MIN KAVL 261555Z VRB05KT 10SM BKN060 24/10 A3000 2100 41 3600 VRB/05 RMK AO2 T02390100
03812KAVL AVL20160426110010704/26/16 11:00:31  5-MIN KAVL 261600Z 33009KT 10SM BKN065 24/10 A3000 2100 39 3700 330/09 RMK AO2 T02440100
03812KAVL AVL20160426110510704/26/16 11:05:31  5-MIN KAVL 261605Z 36005KT 10SM BKN065 23/09 A3000 2090 41 3600 010/05 RMK AO2 T02330094
03812KAVL AVL20160426111010704/26/16 11:10:31  5-MIN KAVL 261610Z 34010KT 10SM BKN065 23/09 A3000 2100 41 3600 350/10 RMK AO2 T02330094
03812KAVL AVL20160426111510704/26/16 11:15:31  5-MIN KAVL 261615Z 35007KT 10SM BKN070 24/10 A3000 2100 39 3700 350/07 RMK AO2 T02440100
03812KAVL AVL20160426112010704/26/16 11:20:31  5-MIN KAVL 261620Z 34007KT 10SM BKN070 24/09 A3000 2100 39 3600 350/07 RMK AO2 T02390094
03812KAVL AVL20160426112510704/26/16 11:25:31  5-MIN KAVL 261625Z VRB04KT 10SM BKN070 24/09 A3000 2100 39 3600 VRB/04 RMK AO2 T02390094
03812KAVL AVL20160426113012304/26/16 11:30:31  5-MIN KAVL 261630Z 02007KT 350V060 10SM BKN070 23/09 A3000 2100 41 3600 030/07 360V070 RMK AO2 T02330094
03812KAVL AVL20160426113510704/26/16 11:35:31  5-MIN KAVL 261635Z VRB05KT 10SM BKN070 24/10 A2999 2100 39 3700 VRB/05 RMK AO2 T02440100
03812KAVL AVL20160426114010704/26/16 11:40:31  5-MIN KAVL 261640Z 36005KT 10SM BKN070 24/10 A2999 2100 39 3700 010/05 RMK AO2 T02440100
03812KAVL AVL20160426114510704/26/16 11:45:31  5-MIN KAVL 261645Z 35006KT 10SM SCT070 25/10 A2999 2110 38 3800 360/06 RMK AO2 T02500100
03812KAVL AVL20160426115011404/26/16 11:50:31  5-MIN KAVL 261650Z VRB05KT 10SM SCT070 25/10 A2998 2110 38 3800 VRB/05 RMK AO2 SLP129 T02500100
03812KAVL AVL20160426115511404/26/16 11:55:31  5-MIN KAVL 261655Z VRB03KT 10SM FEW060 BKN070 25/10 A2998 2110 38 3800 VRB/03 RMK AO2 T02500100
03812KAVL AVL20160426120011404/26/16 12:00:31  5-MIN KAVL 261700Z 33011KT 10SM SCT055 BKN070 24/10 A2998 2110 41 3700 330/11 RMK AO2 T02390100
03812KAVL AVL20160426120511404/26/16 12:05:31  5-MIN KAVL 261705Z 31006KT 10SM SCT055 SCT070 24/10 A2998 2110 41 3700 310/06 RMK AO2 T02390100
03812KAVL AVL20160426121011404/26/16 12:10:31  5-MIN KAVL 261710Z VRB05KT 10SM FEW055 SCT070 25/11 A2998 2110 39 3800 VRB/05 RMK AO2 T02500106
03812KAVL AVL20160426121511404/26/16 12:15:31  5-MIN KAVL 261715Z VRB03KT 10SM FEW055 SCT070 25/10 A2998 2120 38 3800 VRB/03 RMK AO2 T02500100
03812KAVL AVL20160426122010704/26/16 12:20:31  5-MIN KAVL 261720Z 03008KT 10SM SCT060 25/10 A2998 2120 38 3800 030/08 RMK AO2 T02500100
03812KAVL AVL20160426122510704/26/16 12:25:31  5-MIN KAVL 261725Z 34008KT 10SM SCT060 24/10 A2997 2120 39 3700 340/08 RMK AO2 T02440100
03812KAVL AVL20160426123010704/26/16 12:30:31  5-MIN KAVL 261730Z 02006KT 10SM SCT060 24/10 A2997 2120 39 3700 030/06 RMK AO2 T02440100
03812KAVL AVL20160426123510704/26/16 12:35:31  5-MIN KAVL 261735Z 03005KT 10SM SCT060 25/10 A2997 2120 38 3800 030/05 RMK AO2 T02500100
03812KAVL AVL20160426124010704/26/16 12:40:31  5-MIN KAVL 261740Z VRB05KT 10SM FEW060 26/10 A2997 2130 37 3900 VRB/05 RMK AO2 T02560100
03812KAVL AVL20160426124511404/26/16 12:45:31  5-MIN KAVL 261745Z 36006KT 10SM FEW060 SCT070 26/10 A2996 2130 37 3900 010/06 RMK AO2 T02560100
03812KAVL AVL20160426125013904/26/16 12:50:31  5-MIN KAVL 261750Z VRB03KT 10SM FEW060 SCT070 26/10 A2996 2130 37 3900 VRB/03 RMK AO2 SLP120 T02560100 10261 20128 58001
03812KAVL AVL20160426125510704/26/16 12:55:31  5-MIN KAVL 261755Z VRB04KT 10SM FEW060 26/09 A2995 2140 35 3900 VRB/04 RMK AO2 T02560094
03812KAVL AVL20160426130010404/26/16 13:00:31  5-MIN KAVL 261800Z 33005KT 10SM CLR 26/10 A2995 2140 36 3900 340/05 RMK AO2 T02610100
03812KAVL AVL20160426130510404/26/16 13:05:31  5-MIN KAVL 261805Z VRB04KT 10SM CLR 26/10 A2995 2140 36 3900 VRB/04 RMK AO2 T02610100
03812KAVL AVL20160426131010404/26/16 13:10:31  5-MIN KAVL 261810Z 12004KT 10SM CLR 26/09 A2995 2140 35 3900 130/04 RMK AO2 T02560094
03812KAVL AVL20160426131510404/26/16 13:15:31  5-MIN KAVL 261815Z 23003KT 10SM CLR 26/09 A2995 2140 35 3900 230/03 RMK AO2 T02560094
03812KAVL AVL20160426132010704/26/16 13:20:31  5-MIN KAVL 261820Z 00000KT 10SM SCT060 26/09 A2995 2140 34 3900 000/00 RMK AO2 T02610094
03812KAVL AVL20160426132509704/26/16 13:25:31  5-MIN KAVL 261825Z 10SM BKN060 26/09 A2995 2140 35 3900 M /M RMK AO2 T02560094
03812KAVL AVL20160426133010704/26/16 13:30:31  5-MIN KAVL 261830Z 00000KT 10SM BKN065 25/09 A2994 2150 37 3800 000/00 RMK AO2 T02500094
03812KAVL AVL20160426133510704/26/16 13:35:31  5-MIN KAVL 261835Z 00000KT 10SM BKN070 25/09 A2994 2150 37 3800 000/00 RMK AO2 T02500094
03812KAVL AVL20160426134010704/26/16 13:40:31  5-MIN KAVL 261840Z 00000KT 10SM BKN065 26/09 A2994 2150 34 3900 000/00 RMK AO2 T02610094
03812KAVL AVL20160426134510704/26/16 13:45:31  5-MIN KAVL 261845Z 20005KT 10SM BKN065 26/09 A2994 2150 34 4000 200/05 RMK AO2 T02610094
03812KAVL AVL20160426135011404/26/16 13:50:31  5-MIN KAVL 261850Z VRB03KT 10SM SCT070 26/09 A2994 2150 34 4000 VRB/03 RMK AO2 SLP113 T02610094
03812KAVL AVL20160426135509704/26/16 13:55:31  5-MIN KAVL 261855Z 10SM SCT070 26/09 A2993 2160 34 4000 M /M RMK AO2 T02610094
03812KAVL AVL20160426140010704/26/16 14:00:31  5-MIN KAVL 261900Z VRB04KT 10SM FEW065 26/09 A2993 2160 34 4000 VRB/04 RMK AO2 T02610094
03812KAVL AVL20160426140510704/26/16 14:05:31  5-MIN KAVL 261905Z VRB03KT 10SM FEW060 27/09 A2993 2160 33 4000 VRB/03 RMK AO2 T02670094
03812KAVL AVL20160426141010404/26/16 14:10:31  5-MIN KAVL 261910Z 00000KT 10SM CLR 26/09 A2993 2160 33 4000 000/00 RMK AO2 T02610089
03812KAVL AVL20160426141510704/26/16 14:15:31  5-MIN KAVL 261915Z 00000KT 10SM FEW065 27/09 A2993 2160 32 4000 000/00 RMK AO2 T02670089
03812KAVL AVL20160426142010704/26/16 14:20:31  5-MIN KAVL 261920Z 00000KT 10SM FEW065 27/09 A2992 2160 32 4100 000/00 RMK AO2 T02720094
03812KAVL AVL20160426142509404/26/16 14:25:31  5-MIN KAVL 261925Z 10SM CLR 27/09 A2992 2170 32 4100 M /M RMK AO2 T02720094
03812KAVL AVL20160426143010404/26/16 14:30:31  5-MIN KAVL 261930Z VRB03KT 10SM CLR 27/08 A2992 2170 31 4000 VRB/03 RMK AO2 T02670083
03812KAVL AVL20160426143510404/26/16 14:35:31  5-MIN KAVL 261935Z 33004KT 10SM CLR 27/08 A2992 2170 30 4100 330/04 RMK AO2 T02720083
03812KAVL AVL20160426144010404/26/16 14:40:31  5-MIN KAVL 261940Z VRB04KT 10SM CLR 27/09 A2992 2170 31 4100 VRB/04 RMK AO2 T02720089
03812KAVL AVL20160426144510404/26/16 14:45:31  5-MIN KAVL 261945Z 36004KT 10SM CLR 27/09 A2992 2170 31 4100 360/04 RMK AO2 T02720089
03812KAVL AVL20160426145011104/26/16 14:50:31  5-MIN KAVL 261950Z VRB04KT 10SM CLR 27/09 A2991 2180 31 4100 VRB/04 RMK AO2 SLP105 T02720089
03812KAVL AVL20160426145512004/26/16 14:55:31  5-MIN KAVL 261955Z 29007KT 250V310 10SM CLR 27/09 A2991 2180 31 4100 290/07 260V320 RMK AO2 T02720089
03812KAVL AVL20160426150010404/26/16 15:00:31  5-MIN KAVL 262000Z 29003KT 10SM CLR 27/08 A2991 2180 31 4000 290/03 RMK AO2 T02670083
03812KAVL AVL20160426150509704/26/16 15:05:31  5-MIN KAVL 262005Z 10SM FEW070 26/09 A2991 2180 33 4000 M /M RMK AO2 T02610089
03812KAVL AVL20160426151010704/26/16 15:10:31  5-MIN KAVL 262010Z 00000KT 10SM FEW070 26/09 A2991 2180 34 4000 000/00 RMK AO2 T02610094
03812KAVL AVL20160426151510704/26/16 15:15:31  5-MIN KAVL 262015Z VRB05KT 10SM FEW070 27/11 A2991 2180 36 4000 VRB/05 RMK AO2 T02670106
03812KAVL AVL20160426152010704/26/16 15:20:31  5-MIN KAVL 262020Z VRB06KT 10SM FEW070 27/11 A2991 2180 36 4000 VRB/06 RMK AO2 T02670106
03812KAVL AVL20160426152510704/26/16 15:25:31  5-MIN KAVL 262025Z VRB03KT 10SM FEW070 27/11 A2991 2180 36 4000 VRB/03 RMK AO2 T02670106
03812KAVL AVL20160426153010704/26/16 15:30:31  5-MIN KAVL 262030Z 11006KT 10SM SCT065 27/11 A2990 2180 36 4100 120/06 RMK AO2 T02670106
03812KAVL AVL20160426153511304/26/16 15:35:31  5-MIN KAVL 262035Z 16010G15KT 10SM BKN060 27/11 A2990 2180 36 4100 170/10G15 RMK AO2 T02670106
03812KAVL AVL20160426154011304/26/16 15:40:31  5-MIN KAVL 262040Z VRB05G15KT 10SM BKN065 26/11 A2990 2180 38 3900 VRB/05G15 RMK AO2 T02560106
03812KAVL AVL20160426154510704/26/16 15:45:31  5-MIN KAVL 262045Z 14006KT 10SM BKN065 26/11 A2990 2180 38 4000 150/06 RMK AO2 T02610111
03812KAVL AVL20160426155012704/26/16 15:50:31  5-MIN KAVL 262050Z VRB03KT 10SM SCT065 BKN080 26/11 A2990 2180 38 3900 VRB/03 RMK AO2 SLP104 T02560106 58020
03812KAVL AVL20160426155511404/26/16 15:55:31  5-MIN KAVL 262055Z 11005KT 10SM BKN065 BKN080 26/11 A2990 2180 38 4000 120/05 RMK AO2 T02610111
03812KAVL AVL20160426160011404/26/16 16:00:31  5-MIN KAVL 262100Z 11005KT 10SM BKN065 BKN080 26/11 A2990 2190 40 3900 120/05 RMK AO2 T02560111
03812KAVL AVL20160426160510704/26/16 16:05:31  5-MIN KAVL 262105Z VRB04KT 10SM BKN070 26/11 A2990 2190 40 3900 VRB/04 RMK AO2 T02560111
03812KAVL AVL20160426161010704/26/16 16:10:31  5-MIN KAVL 262110Z VRB03KT 10SM BKN075 26/11 A2990 2190 40 3900 VRB/03 RMK AO2 T02560111
03812KAVL AVL20160426161511404/26/16 16:15:31  5-MIN KAVL 262115Z 10003KT 10SM FEW065 BKN075 27/12 A2990 2190 38 4100 110/03 RMK AO2 T02670117
03812KAVL AVL20160426162010704/26/16 16:20:31  5-MIN KAVL 262120Z 15006KT 10SM BKN075 27/12 A2990 2190 38 4100 160/06 RMK AO2 T02670117
03812KAVL AVL20160426162510704/26/16 16:25:31  5-MIN KAVL 262125Z 16008KT 10SM SCT075 27/12 A2990 2190 40 4100 170/08 RMK AO2 T02670122
03812KAVL AVL20160426163010704/26/16 16:30:31  5-MIN KAVL 262130Z 16010KT 10SM SCT075 26/12 A2990 2190 41 4000 170/10 RMK AO2 T02610122
03812KAVL AVL20160426163511404/26/16 16:35:31  5-MIN KAVL 262135Z 15009KT 10SM SCT065 BKN080 26/12 A2990 2190 43 3900 160/09 RMK AO2 T02560122
03812KAVL AVL20160426164011404/26/16 16:40:31  5-MIN KAVL 262140Z 16008KT 10SM SCT065 BKN075 26/12 A2990 2190 41 3900 160/08 RMK AO2 T02560117
03812KAVL AVL20160426164510704/26/16 16:45:31  5-MIN KAVL 262145Z 16007KT 10SM FEW065 25/12 A2990 2190 44 3900 170/07 RMK AO2 T02500122
03812KAVL AVL20160426165011404/26/16 16:50:31  5-MIN KAVL 262150Z 15007KT 10SM FEW060 25/12 A2990 2190 44 3900 150/07 RMK AO2 SLP103 T02500122
03812KAVL AVL20160426165510704/26/16 16:55:31  5-MIN KAVL 262155Z 16008KT 10SM SCT060 25/12 A2990 2190 44 3900 170/08 RMK AO2 T02500122
03812KAVL AVL20160426170010704/26/16 17:00:31  5-MIN KAVL 262200Z 15007KT 10SM SCT060 25/12 A2990 2190 44 3900 160/07 RMK AO2 T02500122
03812KAVL AVL20160426170510704/26/16 17:05:31  5-MIN KAVL 262205Z 15006KT 10SM FEW060 25/12 A2990 2190 44 3900 160/06 RMK AO2 T02500122
03812KAVL AVL20160426171010704/26/16 17:10:31  5-MIN KAVL 262210Z 14007KT 10SM SCT060 26/13 A2990 2190 44 3900 140/07 RMK AO2 T02560128
03812KAVL AVL20160426171510704/26/16 17:15:31  5-MIN KAVL 262215Z 13005KT 10SM BKN055 26/13 A2990 2190 44 3900 140/05 RMK AO2 T02560128
03812KAVL AVL20160426172012304/26/16 17:20:31  5-MIN KAVL 262220Z 14008KT 110V180 10SM BKN055 26/13 A2990 2190 44 3900 150/08 120V190 RMK AO2 T02560128
03812KAVL AVL20160426172511404/26/16 17:25:31  5-MIN KAVL 262225Z 18011KT 10SM BKN055 BKN070 26/12 A2990 2190 43 3900 190/11 RMK AO2 T02560122
03812KAVL AVL20160426173010704/26/16 17:30:31  5-MIN KAVL 262230Z 20009KT 10SM BKN060 25/12 A2990 2190 44 3900 200/09 RMK AO2 T02500122
03812KAVL AVL20160426173510704/26/16 17:35:31  5-MIN KAVL 262235Z 19008KT 10SM BKN060 25/13 A2990 2190 46 3900 200/08 RMK AO2 T02500128
03812KAVL AVL20160426174010704/26/16 17:40:31  5-MIN KAVL 262240Z 20008KT 10SM SCT060 24/13 A2990 2190 47 3800 210/08 RMK AO2 T02440128
03812KAVL AVL20160426174510704/26/16 17:45:31  5-MIN KAVL 262245Z 20011KT 10SM FEW060 24/13 A2990 2190 47 3800 200/11 RMK AO2 T02440128
03812KAVL AVL20160426175012004/26/16 17:50:31  5-MIN KAVL 262250Z 21010G15KT 10SM FEW060 24/13 A2990 2190 47 3800 210/10G15 RMK AO2 SLP103 T02440128
03812KAVL AVL20160426175510704/26/16 17:55:31  5-MIN KAVL 262255Z 21011KT 10SM FEW080 24/13 A2989 2190 47 3800 210/11 RMK AO2 T02440128
03812KAVL AVL20160426180010704/26/16 18:00:31  5-MIN KAVL 262300Z 19010KT 10SM SCT080 24/13 A2989 2190 47 3800 200/10 RMK AO2 T02440128
03812KAVL AVL20160426180510704/26/16 18:05:31  5-MIN KAVL 262305Z 19010KT 10SM FEW080 24/13 A2989 2190 47 3800 200/10 RMK AO2 T02440128
03812KAVL AVL20160426181010704/26/16 18:10:31  5-MIN KAVL 262310Z 19010KT 10SM SCT080 24/13 A2989 2190 47 3800 190/10 RMK AO2 T02440128
03812KAVL AVL20160426181510704/26/16 18:15:31  5-MIN KAVL 262315Z 20007KT 10SM BKN075 24/13 A2989 2190 47 3800 200/07 RMK AO2 T02440128
03812KAVL AVL20160426182010704/26/16 18:20:31  5-MIN KAVL 262320Z 19006KT 10SM BKN075 24/13 A2989 2190 49 3800 200/06 RMK AO2 T02390128
03812KAVL AVL20160426182510704/26/16 18:25:31  5-MIN KAVL 262325Z 20006KT 10SM BKN075 24/13 A2989 2190 49 3800 200/06 RMK AO2 T02390128
03812KAVL AVL20160426183010704/26/16 18:30:31  5-MIN KAVL 262330Z 18006KT 10SM BKN070 24/13 A2989 2190 49 3800 190/06 RMK AO2 T02390128
03812KAVL AVL20160426183510704/26/16 18:35:31  5-MIN KAVL 262335Z 18006KT 10SM OVC070 24/13 A2989 2190 49 3800 190/06 RMK AO2 T02390128
03812KAVL AVL20160426184010704/26/16 18:40:31  5-MIN KAVL 262340Z 19007KT 10SM OVC070 24/13 A2989 2190 49 3800 190/07 RMK AO2 T02390128
03812KAVL AVL20160426184510704/26/16 18:45:31  5-MIN KAVL 262345Z 20010KT 10SM OVC070 24/13 A2990 2190 49 3800 200/10 RMK AO2 T02390128
03812KAVL AVL20160426185013204/26/16 18:50:31  5-MIN KAVL 262350Z 20010KT 10SM OVC070 24/13 A2989 2190 49 3800 210/10 RMK AO2 SLP102 T02390128 10278 20239 56017
03812KAVL AVL20160426185510704/26/16 18:55:31  5-MIN KAVL 262355Z 20010KT 10SM BKN070 23/13 A2989 2190 51 3700 210/10 RMK AO2 T02330128
03812KAVL AVL20160426190010704/26/16 19:00:31  5-MIN KAVL 270000Z 20008KT 10SM BKN070 23/13 A2989 2190 51 3700 200/08 RMK AO2 T02330128
03812KAVL AVL20160426190510704/26/16 19:05:31  5-MIN KAVL 270005Z 20008KT 10SM BKN070 23/13 A2989 2200 51 3700 200/08 RMK AO2 T02330128
03812KAVL AVL20160426191010704/26/16 19:10:31  5-MIN KAVL 270010Z 20007KT 10SM BKN065 23/13 A2989 2200 51 3700 200/07 RMK AO2 T02330128
03812KAVL AVL20160426191511804/26/16 19:15:31  5-MIN KAVL 270015Z 20006KT 10SM BKN060 23/13 A2989 2200 51 3700 200/06 RMK AO2 LTG DSNT W T02330128
03812KAVL AVL20160426192011804/26/16 19:20:31  5-MIN KAVL 270020Z 20007KT 10SM BKN060 23/13 A2989 2190 53 3600 210/07 RMK AO2 LTG DSNT W T02280128
03812KAVL AVL20160426192511804/26/16 19:25:31  5-MIN KAVL 270025Z 20005KT 10SM BKN060 23/13 A2989 2190 53 3600 210/05 RMK AO2 LTG DSNT W T02280128
03812KAVL AVL20160426193010704/26/16 19:30:31  5-MIN KAVL 270030Z 19007KT 10SM OVC060 23/13 A2989 2190 53 3600 200/07 RMK AO2 T02280128
03812KAVL AVL20160426193510704/26/16 19:35:31  5-MIN KAVL 270035Z 20008KT 10SM OVC065 23/13 A2989 2190 53 3600 210/08 RMK AO2 T02280128
03812KAVL AVL20160426194010704/26/16 19:40:31  5-MIN KAVL 270040Z 20007KT 10SM BKN065 23/13 A2989 2200 53 3600 200/07 RMK AO2 T02280128
03812KAVL AVL20160426194510704/26/16 19:45:31  5-MIN KAVL 270045Z 18008KT 10SM BKN065 23/13 A2988 2200 53 3600 190/08 RMK AO2 T02280128
03812KAVL AVL20160426195011404/26/16 19:50:31  5-MIN KAVL 270050Z 19008KT 10SM SCT065 23/13 A2988 2200 53 3600 200/08 RMK AO2 SLP097 T02280128
03812KAVL AVL20160426195510704/26/16 19:55:31  5-MIN KAVL 270055Z 20009KT 10SM SCT070 23/13 A2988 2200 53 3600 200/09 RMK AO2 T02280128
03812KAVL AVL20160426200010704/26/16 20:00:31  5-MIN KAVL 270100Z 20008KT 10SM FEW070 23/12 A2988 2200 51 3600 210/08 RMK AO2 T02280122
03812KAVL AVL20160426200511404/26/16 20:05:31  5-MIN KAVL 270105Z 20008KT 10SM FEW075 SCT110 22/13 A2988 2200 54 3600 200/08 RMK AO2 T02220128
03812KAVL AVL20160426201010704/26/16 20:10:31  5-MIN KAVL 270110Z 19006KT 10SM SCT110 22/13 A2988 2200 54 3600 190/06 RMK AO2 T02220128
03812KAVL AVL20160426201510704/26/16 20:15:31  5-MIN KAVL 270115Z 18006KT 10SM SCT110 22/13 A2988 2200 56 3500 190/06 RMK AO2 T02170128
03812KAVL AVL20160426202010704/26/16 20:20:31  5-MIN KAVL 270120Z 18006KT 10SM SCT110 22/13 A2988 2200 56 3500 190/06 RMK AO2 T02170128
03812KAVL AVL20160426202510704/26/16 20:25:31  5-MIN KAVL 270125Z 18006KT 10SM BKN110 21/13 A2989 2200 58 3400 190/06 RMK AO2 T02110128
03812KAVL AVL20160426203010704/26/16 20:30:31  5-MIN KAVL 270130Z 18005KT 10SM BKN110 21/13 A2989 2200 58 3400 190/05 RMK AO2 T02110128
03812KAVL AVL20160426203510704/26/16 20:35:31  5-MIN KAVL 270135Z 15003KT 10SM SCT110 21/13 A2989 2190 60 3400 160/03 RMK AO2 T02060128
03812KAVL AVL20160426204010704/26/16 20:40:31  5-MIN KAVL 270140Z 00000KT 10SM FEW110 21/13 A2990 2190 58 3400 000/00 RMK AO2 T02110128
03812KAVL AVL20160426204510704/26/16 20:45:31  5-MIN KAVL 270145Z 00000KT 10SM SCT100 21/13 A2990 2190 60 3400 000/00 RMK AO2 T02060128
03812KAVL AVL20160426205011404/26/16 20:50:31  5-MIN KAVL 270150Z 13003KT 10SM BKN100 21/13 A2990 2180 58 3400 140/03 RMK AO2 SLP101 T02110128
03812KAVL AVL20160426205510704/26/16 20:55:31  5-MIN KAVL 270155Z 00000KT 10SM SCT100 21/13 A2990 2180 58 3400 000/00 RMK AO2 T02110128
03812KAVL AVL20160426210010704/26/16 21:00:31  5-MIN KAVL 270200Z 00000KT 10SM BKN110 21/13 A2991 2180 60 3400 000/00 RMK AO2 T02060128
03812KAVL AVL20160426210511404/26/16 21:05:31  5-MIN KAVL 270205Z 00000KT 10SM FEW070 BKN110 21/13 A2991 2180 58 3400 000/00 RMK AO2 T02110128
03812KAVL AVL20160426211011404/26/16 21:10:31  5-MIN KAVL 270210Z 00000KT 10SM SCT070 OVC110 21/13 A2991 2180 58 3400 000/00 RMK AO2 T02110128
03812KAVL AVL20160426211511404/26/16 21:15:31  5-MIN KAVL 270215Z 17004KT 10SM FEW070 OVC110 21/13 A2991 2180 60 3400 180/04 RMK AO2 T02060128
03812KAVL AVL20160426212011404/26/16 21:20:31  5-MIN KAVL 270220Z 15003KT 10SM FEW070 OVC110 21/13 A2991 2180 60 3400 160/03 RMK AO2 T02060128
03812KAVL AVL20160426212511404/26/16 21:25:31  5-MIN KAVL 270225Z 00000KT 10SM FEW070 OVC110 21/13 A2991 2180 60 3400 000/00 RMK AO2 T02060128
03812KAVL AVL20160426213011404/26/16 21:30:31  5-MIN KAVL 270230Z 00000KT 10SM FEW070 OVC110 21/13 A2991 2180 60 3400 000/00 RMK AO2 T02060128
03812KAVL AVL20160426213511404/26/16 21:35:31  5-MIN KAVL 270235Z 16003KT 10SM FEW070 OVC110 21/13 A2991 2180 60 3400 170/03 RMK AO2 T02060128
03812KAVL AVL20160426214010704/26/16 21:40:31  5-MIN KAVL 270240Z 15004KT 10SM OVC110 21/13 A2990 2180 60 3400 160/04 RMK AO2 T02060128
03812KAVL AVL20160426214510704/26/16 21:45:31  5-MIN KAVL 270245Z 15004KT 10SM BKN110 21/13 A2990 2180 60 3400 160/04 RMK AO2 T02060128
03812KAVL AVL20160426215012704/26/16 21:50:31  5-MIN KAVL 270250Z 15003KT 10SM FEW055 BKN110 21/13 A2990 2180 60 3400 160/03 RMK AO2 SLP100 T02060128 56003
03812KAVL AVL20160426215511404/26/16 21:55:31  5-MIN KAVL 270255Z 00000KT 10SM SCT055 BKN110 21/13 A2990 2180 60 3400 000/00 RMK AO2 T02060128
03812KAVL AVL20160426220012104/26/16 22:00:31  5-MIN KAVL 270300Z 00000KT 10SM SCT060 SCT075 BKN110 21/13 A2991 2180 60 3400 000/00 RMK AO2 T02060128
03812KAVL AVL20160426220512604/26/16 22:05:31  5-MIN KAVL 270305Z AUTO 16003KT 10SM FEW055 SCT070 BKN090 21/13 A2991 2180 60 3400 160/03 RMK AO2 T02060128
03812KAVL AVL20160426221012604/26/16 22:10:31  5-MIN KAVL 270310Z AUTO 16003KT 10SM SCT060 SCT075 BKN090 20/13 A2990 2180 63 3300 160/03 RMK AO2 T02000128
03812KAVL AVL20160426221512604/26/16 22:15:31  5-MIN KAVL 270315Z AUTO 15003KT 10SM SCT060 BKN075 BKN085 20/13 A2990 2180 65 3300 160/03 RMK AO2 T02000133
03812KAVL AVL20160426222012604/26/16 22:20:31  5-MIN KAVL 270320Z AUTO 15003KT 10SM SCT060 BKN075 OVC085 20/13 A2990 2180 65 3300 160/03 RMK AO2 T02000133
03812KAVL AVL20160426222511904/26/16 22:25:31  5-MIN KAVL 270325Z AUTO 17005KT 10SM BKN070 OVC090 20/13 A2991 2180 65 3300 170/05 RMK AO2 T02000133
03812KAVL AVL20160426223011904/26/16 22:30:31  5-MIN KAVL 270330Z AUTO 16004KT 10SM BKN070 OVC085 20/13 A2991 2180 65 3300 160/04 RMK AO2 T02000133
03812KAVL AVL20160426223512604/26/16 22:35:31  5-MIN KAVL 270335Z AUTO 16004KT 10SM SCT060 BKN070 OVC085 20/13 A2991 2180 65 3300 170/04 RMK AO2 T02000133
03812KAVL AVL20160426224011904/26/16 22:40:31  5-MIN KAVL 270340Z AUTO 16003KT 10SM BKN060 OVC070 20/13 A2991 2180 65 3300 160/03 RMK AO2 T02000133
03812KAVL AVL20160426224511904/26/16 22:45:31  5-MIN KAVL 270345Z AUTO 16003KT 10SM BKN060 OVC075 21/13 A2991 2180 63 3400 160/03 RMK AO2 T02060133
03812KAVL AVL20160426225013304/26/16 22:50:31  5-MIN KAVL 270350Z AUTO 16003KT 10SM SCT060 BKN075 OVC095 20/13 A2991 2180 65 3300 160/03 RMK AO2 SLP103 T02000133
03812KAVL AVL20160426225512604/26/16 22:55:31  5-MIN KAVL 270355Z AUTO 18004KT 10SM SCT060 BKN075 BKN090 20/13 A2991 2180 65 3300 190/04 RMK AO2 T02000133
03812KAVL AVL20160426230012604/26/16 23:00:31  5-MIN KAVL 270400Z AUTO 17004KT 10SM SCT060 BKN075 OVC090 20/13 A2991 2180 65 3300 180/04 RMK AO2 T02000133
03812KAVL AVL20160426230511904/26/16 23:05:31  5-MIN KAVL 270405Z AUTO 17005KT 10SM FEW060 OVC080 20/13 A2991 2180 65 3300 170/05 RMK AO2 T02000133
03812KAVL AVL20160426231011204/26/16 23:10:31  5-MIN KAVL 270410Z AUTO 16005KT 10SM BKN080 19/13 A2991 2180 67 3200 170/05 RMK AO2 T01940133
03812KAVL AVL20160426231511204/26/16 23:15:31  5-MIN KAVL 270415Z AUTO 15003KT 10SM BKN080 20/13 A2991 2180 65 3300 160/03 RMK AO2 T02000133
03812KAVL AVL20160426232011904/26/16 23:20:31  5-MIN KAVL 270420Z AUTO 00000KT 10SM BKN075 BKN090 20/13 A2991 2180 65 3300 000/00 RMK AO2 T02000133
03812KAVL AVL20160426232511204/26/16 23:25:31  5-MIN KAVL 270425Z AUTO 17004KT 10SM BKN075 19/13 A2991 2180 67 3200 180/04 RMK AO2 T01940133
03812KAVL AVL20160426233011204/26/16 23:30:31  5-MIN KAVL 270430Z AUTO 16003KT 10SM SCT075 19/13 A2991 2180 67 3200 170/03 RMK AO2 T01940133
03812KAVL AVL20160426233511204/26/16 23:35:31  5-MIN KAVL 270435Z AUTO 19004KT 10SM FEW075 19/13 A2991 2180 67 3200 200/04 RMK AO2 T01940133
03812KAVL AVL20160426234011204/26/16 23:40:31  5-MIN KAVL 270440Z AUTO 21003KT 10SM FEW075 19/13 A2991 2180 67 3200 220/03 RMK AO2 T01940133
03812KAVL AVL20160426234511204/26/16 23:45:31  5-MIN KAVL 270445Z AUTO 21003KT 10SM FEW075 19/13 A2991 2180 67 3200 220/03 RMK AO2 T01940133
03812KAVL AVL20160426235012604/26/16 23:50:31  5-MIN KAVL 270450Z AUTO 23003KT 10SM CLR 19/13 A2991 2180 70 3200 230/03 RMK AO2 SLP102 T01890133 402780111
03812KAVL AVL20160426235510904/26/16 23:55:31  5-MIN KAVL 270455Z AUTO 22003KT 10SM CLR 19/13 A2991 2180 65 3200 230/03 RMK AO2 T01940128
03812KAVL AVL20160427000010904/27/16 00:00:31  5-MIN KAVL 270500Z AUTO 00000KT 10SM CLR 19/13 A2991 2170 65 3200 000/00 RMK AO2 T01940128
03812KAVL AVL20160427000510904/27/16 00:05:31  5-MIN KAVL 270505Z AUTO 00000KT 10SM CLR 19/13 A2991 2170 65 3200 000/00 RMK AO2 T01940128
03812KAVL AVL20160427001010904/27/16 00:10:31  5-MIN KAVL 270510Z AUTO 00000KT 10SM CLR 19/13 A2991 2170 65 3200 000/00 RMK AO2 T01940128
03812KAVL AVL20160427001510904/27/16 00:15:31  5-MIN KAVL 270515Z AUTO 00000KT 10SM CLR 19/13 A2991 2180 65 3200 000/00 RMK AO2 T01940128
03812KAVL AVL20160427002010904/27/16 00:20:31  5-MIN KAVL 270520Z AUTO 22003KT 10SM CLR 19/13 A2991 2180 65 3200 230/03 RMK AO2 T01940128
03812KAVL AVL20160427002510904/27/16 00:25:31  5-MIN KAVL 270525Z AUTO 22003KT 10SM CLR 19/13 A2991 2180 67 3200 230/03 RMK AO2 T01890128
03812KAVL AVL20160427003010904/27/16 00:30:31  5-MIN KAVL 270530Z AUTO 24003KT 10SM CLR 19/13 A2991 2180 67 3200 240/03 RMK AO2 T01890128
03812KAVL AVL20160427003512004/27/16 00:35:31  5-MIN KAVL 270535Z AUTO 00000KT 10SM CLR 19/13 A2991 2180 67 3200 000/00 RMK AO2 LTG DSNT N T01890128
03812KAVL AVL20160427004012004/27/16 00:40:31  5-MIN KAVL 270540Z AUTO 00000KT 10SM CLR 19/13 A2991 2180 67 3200 000/00 RMK AO2 LTG DSNT N T01890128
03812KAVL AVL20160427004512004/27/16 00:45:31  5-MIN KAVL 270545Z AUTO 00000KT 10SM CLR 18/13 A2991 2180 70 3100 000/00 RMK AO2 LTG DSNT N T01830128
03812KAVL AVL20160427005014504/27/16 00:50:31  5-MIN KAVL 270550Z AUTO 00000KT 10SM CLR 18/13 A2991 2180 70 3100 000/00 RMK AO2 LTG DSNT N SLP102 T01830128 10233 20183 53004
03812KAVL AVL20160427005510904/27/16 00:55:31  5-MIN KAVL 270555Z AUTO 00000KT 10SM CLR 18/13 A2991 2170 70 3100 000/00 RMK AO2 T01830128
03812KAVL AVL20160427010010904/27/16 01:00:31  5-MIN KAVL 270600Z AUTO 34004KT 10SM CLR 18/13 A2991 2170 72 3000 350/04 RMK AO2 T01780128
03812KAVL AVL20160427010510904/27/16 01:05:31  5-MIN KAVL 270605Z AUTO 00000KT 10SM CLR 17/13 A2991 2180 78 3000 000/00 RMK AO2 T01720133
03812KAVL AVL20160427011010904/27/16 01:10:31  5-MIN KAVL 270610Z AUTO 00000KT 10SM CLR 17/13 A2991 2180 78 3000 000/00 RMK AO2 T01720133
03812KAVL AVL20160427011510904/27/16 01:15:31  5-MIN KAVL 270615Z AUTO 00000KT 10SM CLR 17/13 A2991 2180 78 3000 000/00 RMK AO2 T01720133
03812KAVL AVL20160427012010904/27/16 01:20:31  5-MIN KAVL 270620Z AUTO 00000KT 10SM CLR 17/13 A2991 2180 75 3000 000/00 RMK AO2 T01720128
03812KAVL AVL20160427012510904/27/16 01:25:31  5-MIN KAVL 270625Z AUTO 00000KT 10SM CLR 17/13 A2991 2180 75 3000 000/00 RMK AO2 T01720128
03812KAVL AVL20160427013010904/27/16 01:30:31  5-MIN KAVL 270630Z AUTO 00000KT 10SM CLR 17/13 A2991 2180 77 2900 000/00 RMK AO2 T01670128
03812KAVL AVL20160427013510904/27/16 01:35:31  5-MIN KAVL 270635Z AUTO 00000KT 10SM CLR 17/13 A2991 2180 75 3000 000/00 RMK AO2 T01720128
03812KAVL AVL20160427014010904/27/16 01:40:31  5-MIN KAVL 270640Z AUTO 00000KT 10SM CLR 17/13 A2990 2180 75 3000 000/00 RMK AO2 T01720128
03812KAVL AVL20160427014510904/27/16 01:45:31  5-MIN KAVL 270645Z AUTO 00000KT 10SM CLR 17/13 A2990 2180 75 3000 000/00 RMK AO2 T01720128
03812KAVL AVL20160427015011604/27/16 01:50:31  5-MIN KAVL 270650Z AUTO 00000KT 10SM CLR 17/13 A2990 2190 75 3000 000/00 RMK AO2 SLP099 T01720128
03812KAVL AVL20160427015510904/27/16 01:55:31  5-MIN KAVL 270655Z AUTO 00000KT 10SM CLR 17/13 A2990 2190 77 2900 000/00 RMK AO2 T01670128
03812KAVL AVL20160427020010904/27/16 02:00:31  5-MIN KAVL 270700Z AUTO 00000KT 10SM CLR 17/13 A2990 2190 80 2900 000/00 RMK AO2 T01670133
03812KAVL AVL20160427020510904/27/16 02:05:31  5-MIN KAVL 270705Z AUTO 00000KT 10SM CLR 17/13 A2990 2190 77 2900 000/00 RMK AO2 T01670128
03812KAVL AVL20160427021010904/27/16 02:10:31  5-MIN KAVL 270710Z AUTO 00000KT 10SM CLR 17/13 A2990 2190 77 2900 000/00 RMK AO2 T01670128
03812KAVL AVL20160427021510904/27/16 02:15:31  5-MIN KAVL 270715Z AUTO 00000KT 10SM CLR 17/13 A2990 2190 77 2900 000/00 RMK AO2 T01670128
03812KAVL AVL20160427022010904/27/16 02:20:31  5-MIN KAVL 270720Z AUTO 00000KT 10SM CLR 16/13 A2990 2180 80 2900 000/00 RMK AO2 T01610128
03812KAVL AVL20160427022510904/27/16 02:25:31  5-MIN KAVL 270725Z AUTO 00000KT 10SM CLR 16/13 A2990 2180 83 2800 000/00 RMK AO2 T01560128
03812KAVL AVL20160427023010904/27/16 02:30:31  5-MIN KAVL 270730Z AUTO 00000KT 10SM CLR 16/13 A2990 2180 83 2800 000/00 RMK AO2 T01560128
03812KAVL AVL20160427023510904/27/16 02:35:31  5-MIN KAVL 270735Z AUTO 00000KT 10SM CLR 16/13 A2991 2180 83 2800 000/00 RMK AO2 T01560128
03812KAVL AVL20160427024010904/27/16 02:40:31  5-MIN KAVL 270740Z AUTO 00000KT 10SM CLR 16/13 A2991 2180 86 2800 000/00 RMK AO2 T01560133
03812KAVL AVL20160427024510904/27/16 02:45:31  5-MIN KAVL 270745Z AUTO 00000KT 10SM CLR 16/13 A2991 2180 83 2800 000/00 RMK AO2 T01560128
03812KAVL AVL20160427025011604/27/16 02:50:31  5-MIN KAVL 270750Z AUTO 00000KT 10SM CLR 16/13 A2991 2180 83 2800 000/00 RMK AO2 SLP102 T01560128
03812KAVL AVL20160427025510904/27/16 02:55:31  5-MIN KAVL 270755Z AUTO 00000KT 10SM CLR 16/13 A2991 2180 83 2800 000/00 RMK AO2 T01560128
03812KAVL AVL20160427030010904/27/16 03:00:31  5-MIN KAVL 270800Z AUTO 00000KT 10SM CLR 16/13 A2991 2180 83 2800 000/00 RMK AO2 T01560128
03812KAVL AVL20160427030510904/27/16 03:05:31  5-MIN KAVL 270805Z AUTO 00000KT 10SM CLR 16/13 A2991 2180 83 2800 000/00 RMK AO2 T01560128
03812KAVL AVL20160427031010904/27/16 03:10:31  5-MIN KAVL 270810Z AUTO 00000KT 10SM CLR 16/13 A2991 2180 83 2800 000/00 RMK AO2 T01560128
03812KAVL AVL20160427031510904/27/16 03:15:31  5-MIN KAVL 270815Z AUTO 00000KT 10SM CLR 15/13 A2991 2180 86 2700 000/00 RMK AO2 T01500128
03812KAVL AVL20160427032010904/27/16 03:20:31  5-MIN KAVL 270820Z AUTO 00000KT 10SM CLR 15/13 A2991 2180 86 2700 000/00 RMK AO2 T01500128
03812KAVL AVL20160427032510904/27/16 03:25:31  5-MIN KAVL 270825Z AUTO 00000KT 10SM CLR 15/13 A2991 2180 86 2700 000/00 RMK AO2 T01500128
03812KAVL AVL20160427033010904/27/16 03:30:31  5-MIN KAVL 270830Z AUTO 00000KT 10SM CLR 16/13 A2991 2180 83 2800 000/00 RMK AO2 T01560128
03812KAVL AVL20160427033510904/27/16 03:35:31  5-MIN KAVL 270835Z AUTO 00000KT 10SM CLR 16/13 A2991 2180 83 2800 000/00 RMK AO2 T01560128
03812KAVL AVL20160427034010904/27/16 03:40:31  5-MIN KAVL 270840Z AUTO 00000KT 10SM CLR 16/13 A2991 2180 83 2800 000/00 RMK AO2 T01560128
03812KAVL AVL20160427034510904/27/16 03:45:31  5-MIN KAVL 270845Z AUTO 00000KT 10SM CLR 15/13 A2991 2180 86 2700 000/00 RMK AO2 T01500128
03812KAVL AVL20160427035012204/27/16 03:50:31  5-MIN KAVL 270850Z AUTO 00000KT 10SM CLR 15/13 A2991 2180 86 2700 000/00 RMK AO2 SLP104 T01500128 51002
03812KAVL AVL20160427035510904/27/16 03:55:31  5-MIN KAVL 270855Z AUTO 00000KT 10SM CLR 15/13 A2991 2180 86 2700 000/00 RMK AO2 T01500128
03812KAVL AVL20160427040010904/27/16 04:00:31  5-MIN KAVL 270900Z AUTO 00000KT 10SM CLR 15/13 A2991 2180 86 2700 000/00 RMK AO2 T01500128
03812KAVL AVL20160427040510904/27/16 04:05:31  5-MIN KAVL 270905Z AUTO 00000KT 10SM CLR 15/13 A2990 2180 86 2700 000/00 RMK AO2 T01500128
03812KAVL AVL20160427041010904/27/16 04:10:31  5-MIN KAVL 270910Z AUTO 00000KT 10SM CLR 15/13 A2990 2190 86 2700 000/00 RMK AO2 T01500128
03812KAVL AVL20160427041510904/27/16 04:15:31  5-MIN KAVL 270915Z AUTO 00000KT 10SM CLR 14/12 A2990 2190 86 2700 000/00 RMK AO2 T01440122
03812KAVL AVL20160427042010904/27/16 04:20:31  5-MIN KAVL 270920Z AUTO 00000KT 10SM CLR 14/13 A2990 2190 90 2700 000/00 RMK AO2 T01440128
03812KAVL AVL20160427042510904/27/16 04:25:31  5-MIN KAVL 270925Z AUTO 00000KT 10SM CLR 15/13 A2990 2190 86 2700 000/00 RMK AO2 T01500128
03812KAVL AVL20160427043010904/27/16 04:30:31  5-MIN KAVL 270930Z AUTO 00000KT 10SM CLR 15/13 A2990 2190 86 2700 000/00 RMK AO2 T01500128
03812KAVL AVL20160427043510904/27/16 04:35:31  5-MIN KAVL 270935Z AUTO 00000KT 10SM CLR 15/13 A2990 2190 86 2700 000/00 RMK AO2 T01500128
03812KAVL AVL20160427044010904/27/16 04:40:31  5-MIN KAVL 270940Z AUTO 00000KT 10SM CLR 15/12 A2990 2180 83 2700 000/00 RMK AO2 T01500122
03812KAVL AVL20160429004510904/29/16 00:45:31  5-MIN KAVL 290545Z AUTO 00000KT 10SM CLR 14/10 A2999 2110 74 2600 000/00 RMK AO2 T01440100
03812KAVL AVL20160429005013404/29/16 00:50:31  5-MIN KAVL 290550Z AUTO 00000KT 10SM CLR 14/10 A2998 2110 74 2600 000/00 RMK AO2 SLP129 T01440100 10244 20144 51019
03812KAVL AVL20160429005510904/29/16 00:55:31  5-MIN KAVL 290555Z AUTO 00000KT 10SM CLR 15/10 A2998 2110 72 2600 000/00 RMK AO2 T01500100
03812KAVL AVL20160429010010904/29/16 01:00:31  5-MIN KAVL 290600Z AUTO 00000KT 10SM CLR 14/10 A2999 2110 74 2600 000/00 RMK AO2 T01440100
03812KAVL AVL20160429010510904/29/16 01:05:31  5-MIN KAVL 290605Z AUTO 00000KT 10SM CLR 14/10 A2999 2110 74 2600 000/00 RMK AO2 T01440100
03812KAVL AVL20160429011010904/29/16 01:10:31  5-MIN KAVL 290610Z AUTO 00000KT 10SM CLR 14/10 A2999 2110 74 2600 000/00 RMK AO2 T01440100
03812KAVL AVL20160429011510904/29/16 01:15:31  5-MIN KAVL 290615Z AUTO 00000KT 10SM CLR 14/10 A2999 2110 74 2600 000/00 RMK AO2 T01440100
03812KAVL AVL20160429012010904/29/16 01:20:31  5-MIN KAVL 290620Z AUTO 00000KT 10SM CLR 14/10 A2999 2110 74 2600 000/00 RMK AO2 T01440100
03812KAVL AVL20160429012510904/29/16 01:25:31  5-MIN KAVL 290625Z AUTO VRB03KT 10SM CLR 14/10 A2999 2110 74 2600 VRB/03 RMK AO2 T01440100
03812KAVL AVL20160429013010904/29/16 01:30:31  5-MIN KAVL 290630Z AUTO 00000KT 10SM CLR 14/11 A2999 2110 77 2600 000/00 RMK AO2 T01440106
03812KAVL AVL20160429013510904/29/16 01:35:31  5-MIN KAVL 290635Z AUTO 00000KT 10SM CLR 16/11 A2999 2100 72 2700 000/00 RMK AO2 T01560106
03812KAVL AVL20160429014010904/29/16 01:40:31  5-MIN KAVL 290640Z AUTO 07003KT 10SM CLR 16/11 A2999 2100 72 2700 080/03 RMK AO2 T01560106
03812KAVL AVL20160429014510904/29/16 01:45:31  5-MIN KAVL 290645Z AUTO 00000KT 10SM CLR 16/11 A2999 2100 72 2700 000/00 RMK AO2 T01560106
03812KAVL AVL20160429015011604/29/16 01:50:31  5-MIN KAVL 290650Z AUTO 00000KT 10SM CLR 16/11 A2999 2100 72 2700 000/00 RMK AO2 SLP130 T01560106
03812KAVL AVL20160429015510904/29/16 01:55:31  5-MIN KAVL 290655Z AUTO 09003KT 10SM CLR 16/11 A2999 2100 72 2700 090/03 RMK AO2 T01560106
03812KAVL AVL20160429020010904/29/16 02:00:31  5-MIN KAVL 290700Z AUTO VRB03KT 10SM CLR 16/11 A2999 2100 72 2800 VRB/03 RMK AO2 T01610111
03812KAVL AVL20160429020510904/29/16 02:05:31  5-MIN KAVL 290705Z AUTO 00000KT 10SM CLR 17/11 A2999 2100 69 2800 000/00 RMK AO2 T01670111
03812KAVL AVL20160429021010904/29/16 02:10:31  5-MIN KAVL 290710Z AUTO VRB03KT 10SM CLR 17/11 A2999 2100 69 2800 VRB/03 RMK AO2 T01670111
03812KAVL AVL20160429021510904/29/16 02:15:31  5-MIN KAVL 290715Z AUTO 36004KT 10SM CLR 17/11 A3000 2100 69 2800 010/04 RMK AO2 T01670111
03812KAVL AVL20160429022010904/29/16 02:20:31  5-MIN KAVL 290720Z AUTO 36006KT 10SM CLR 18/11 A3000 2100 64 2900 010/06 RMK AO2 T01780111
03812KAVL AVL20160429022510904/29/16 02:25:31  5-MIN KAVL 290725Z AUTO 36007KT 10SM CLR 18/11 A3000 2100 64 2900 010/07 RMK AO2 T01780111
03812KAVL AVL20160429023010904/29/16 02:30:31  5-MIN KAVL 290730Z AUTO 36008KT 10SM CLR 18/11 A3000 2090 64 2900 010/08 RMK AO2 T01780111
03812KAVL AVL20160429023510904/29/16 02:35:31  5-MIN KAVL 290735Z AUTO 01007KT 10SM CLR 18/11 A3000 2090 62 2900 010/07 RMK AO2 T01780106
03812KAVL AVL20160429024010904/29/16 02:40:31  5-MIN KAVL 290740Z AUTO 36007KT 10SM CLR 18/11 A3000 2090 62 2900 010/07 RMK AO2 T01780106
03812KAVL AVL20160429024510904/29/16 02:45:31  5-MIN KAVL 290745Z AUTO 36007KT 10SM CLR 18/11 A3000 2090 60 3000 010/07 RMK AO2 T01830106
03812KAVL AVL20160429025011604/29/16 02:50:31  5-MIN KAVL 290750Z AUTO 01007KT 10SM CLR 18/11 A3000 2090 60 3000 010/07 RMK AO2 SLP131 T01830106
03812KAVL AVL20160429025510904/29/16 02:55:31  5-MIN KAVL 290755Z AUTO 01007KT 10SM CLR 18/11 A3000 2090 60 3000 020/07 RMK AO2 T01830106
03812KAVL AVL20160429030010904/29/16 03:00:31  5-MIN KAVL 290800Z AUTO 01006KT 10SM CLR 18/11 A3000 2090 60 3000 020/06 RMK AO2 T01830106
03812KAVL AVL20160429030510904/29/16 03:05:31  5-MIN KAVL 290805Z AUTO 03003KT 10SM CLR 18/11 A3001 2090 60 3000 030/03 RMK AO2 T01830106
03812KAVL AVL20160429031010904/29/16 03:10:31  5-MIN KAVL 290810Z AUTO VRB04KT 10SM CLR 18/11 A3001 2090 62 2900 VRB/04 RMK AO2 T01780106
03812KAVL AVL20160429031510904/29/16 03:15:31  5-MIN KAVL 290815Z AUTO 01005KT 10SM CLR 18/10 A3001 2080 58 3000 010/05 RMK AO2 T01830100
03812KAVL AVL20160429032010904/29/16 03:20:31  5-MIN KAVL 290820Z AUTO 00000KT 10SM CLR 18/10 A3001 2080 60 2900 000/00 RMK AO2 T01780100
03812KAVL AVL20160429032510904/29/16 03:25:31  5-MIN KAVL 290825Z AUTO 03003KT 10SM CLR 18/10 A3002 2080 60 2900 040/03 RMK AO2 T01780100
03812KAVL AVL20160429033010904/29/16 03:30:31  5-MIN KAVL 290830Z AUTO 04003KT 10SM CLR 18/10 A3002 2080 60 2900 050/03 RMK AO2 T01780100
03812KAVL AVL20160429033510904/29/16 03:35:31  5-MIN KAVL 290835Z AUTO 00000KT 10SM CLR 17/10 A3002 2080 62 2900 000/00 RMK AO2 T01720100
03812KAVL AVL20160429034010904/29/16 03:40:31  5-MIN KAVL 290840Z AUTO 00000KT 10SM CLR 17/10 A3002 2080 62 2900 000/00 RMK AO2 T01720100
03812KAVL AVL20160429034510904/29/16 03:45:31  5-MIN KAVL 290845Z AUTO 00000KT 10SM CLR 17/10 A3002 2080 62 2900 000/00 RMK AO2 T01720100
03812KAVL AVL20160429035012204/29/16 03:50:31  5-MIN KAVL 290850Z AUTO 00000KT 10SM CLR 17/10 A3002 2080 62 2900 000/00 RMK AO2 SLP140 T01720100 58001
03812KAVL AVL20160429035510904/29/16 03:55:31  5-MIN KAVL 290855Z AUTO 00000KT 10SM CLR 17/10 A3002 2070 64 2800 000/00 RMK AO2 T01670100
03812KAVL AVL20160429040010904/29/16 04:00:31  5-MIN KAVL 290900Z AUTO 00000KT 10SM CLR 17/10 A3002 2070 64 2800 000/00 RMK AO2 T01670100
03812KAVL AVL20160429040510904/29/16 04:05:31  5-MIN KAVL 290905Z AUTO 00000KT 10SM CLR 16/10 A3002 2070 67 2700 000/00 RMK AO2 T01610100
03812KAVL AVL20160429041010904/29/16 04:10:31  5-MIN KAVL 290910Z AUTO 00000KT 10SM CLR 16/10 A3003 2070 67 2700 000/00 RMK AO2 T01610100
03812KAVL AVL20160429041510904/29/16 04:15:31  5-MIN KAVL 290915Z AUTO 00000KT 10SM CLR 16/10 A3003 2070 69 2700 000/00 RMK AO2 T01560100
03812KAVL AVL20160429042010904/29/16 04:20:31  5-MIN KAVL 290920Z AUTO 00000KT 10SM CLR 15/10 A3003 2070 72 2600 000/00 RMK AO2 T01500100
03812KAVL AVL20160429042510904/29/16 04:25:31  5-MIN KAVL 290925Z AUTO 00000KT 10SM CLR 16/10 A3003 2070 69 2700 000/00 RMK AO2 T01560100
03812KAVL AVL20160429043010904/29/16 04:30:31  5-MIN KAVL 290930Z AUTO 00000KT 10SM CLR 15/10 A3003 2070 72 2600 000/00 RMK AO2 T01500100
03812KAVL AVL20160429043510904/29/16 04:35:31  5-MIN KAVL 290935Z AUTO 00000KT 10SM CLR 15/10 A3003 2070 72 2600 000/00 RMK AO2 T01500100
03812KAVL AVL20160429044010904/29/16 04:40:31  5-MIN KAVL 290940Z AUTO 00000KT 10SM CLR 14/10 A3003 2070 74 2500 000/00 RMK AO2 T01440100
03812KAVL AVL20160429044510904/29/16 04:45:31  5-MIN KAVL 290945Z AUTO 00000KT 10SM CLR 14/10 A3003 2060 74 2500 000/00 RMK AO2 T01440100
03812KAVL AVL20160429045011604/29/16 04:50:31  5-MIN KAVL 290950Z AUTO 00000KT 10SM CLR 14/10 A3003 2060 77 2500 000/00 RMK AO2 SLP148 T01390100
03812KAVL AVL20160429045510904/29/16 04:55:31  5-MIN KAVL 290955Z AUTO 00000KT 10SM CLR 14/10 A3004 2060 74 2500 000/00 RMK AO2 T01440100
03812KAVL AVL20160429050010904/29/16 05:00:31  5-MIN KAVL 291000Z AUTO 00000KT 10SM CLR 14/10 A3004 2060 74 2500 000/00 RMK AO2 T01440100
03812KAVL AVL20160429050510904/29/16 05:05:31  5-MIN KAVL 291005Z AUTO 00000KT 10SM CLR 14/10 A3004 2060 77 2400 000/00 RMK AO2 T01390100
03812KAVL AVL20160429051010904/29/16 05:10:31  5-MIN KAVL 291010Z AUTO 00000KT 10SM CLR 14/10 A3004 2060 77 2400 000/00 RMK AO2 T01390100
03812KAVL AVL20160429051510404/29/16 05:15:31  5-MIN KAVL 291015Z 00000KT 10SM CLR 14/10 A3005 2050 77 2400 000/00 RMK AO2 T01390100
03812KAVL AVL20160429052010404/29/16 05:20:31  5-MIN KAVL 291020Z 00000KT 10SM CLR 14/10 A3005 2050 77 2400 000/00 RMK AO2 T01390100
03812KAVL AVL20160429052510404/29/16 05:25:31  5-MIN KAVL 291025Z 00000KT 10SM CLR 14/10 A3005 2040 77 2400 000/00 RMK AO2 T01390100
03812KAVL AVL20160429053010404/29/16 05:30:31  5-MIN KAVL 291030Z 00000KT 10SM CLR 13/10 A3006 2040 80 2400 000/00 RMK AO2 T01330100
03812KAVL AVL20160429053510404/29/16 05:35:31  5-MIN KAVL 291035Z 00000KT 10SM CLR 14/10 A3006 2040 77 2400 000/00 RMK AO2 T01390100
03812KAVL AVL20160429054010404/29/16 05:40:31  5-MIN KAVL 291040Z 00000KT 10SM CLR 14/10 A3006 2040 77 2400 000/00 RMK AO2 T01390100
03812KAVL AVL20160429054510404/29/16 05:45:31  5-MIN KAVL 291045Z VRB03KT 10SM CLR 14/09 A3006 2040 72 2500 VRB/03 RMK AO2 T01440094
03812KAVL AVL20160429055011104/29/16 05:50:31  5-MIN KAVL 291050Z 00000KT 10SM CLR 15/09 A3006 2040 69 2500 000/00 RMK AO2 SLP156 T01500094
03812KAVL AVL20160429055510404/29/16 05:55:31  5-MIN KAVL 291055Z 00000KT 10SM CLR 14/09 A3006 2040 72 2500 000/00 RMK AO2 T01440094
03812KAVL AVL20160429060010404/29/16 06:00:31  5-MIN KAVL 291100Z 00000KT 10SM CLR 14/09 A3006 2040 72 2500 000/00 RMK AO2 T01440094
03812KAVL AVL20160429060510404/29/16 06:05:31  5-MIN KAVL 291105Z 00000KT 10SM CLR 14/09 A3007 2030 72 2500 000/00 RMK AO2 T01440094
03812KAVL AVL20160429061010404/29/16 06:10:31  5-MIN KAVL 291110Z 00000KT 10SM CLR 14/09 A3007 2030 72 2500 000/00 RMK AO2 T01440094
03812KAVL AVL20160429061510404/29/16 06:15:31  5-MIN KAVL 291115Z 00000KT 10SM CLR 14/09 A3007 2030 72 2500 000/00 RMK AO2 T01440094
03812KAVL AVL20160429062010404/29/16 06:20:31  5-MIN KAVL 291120Z 00000KT 10SM CLR 14/10 A3007 2030 74 2500 000/00 RMK AO2 T01440100
03812KAVL AVL20160429062510404/29/16 06:25:31  5-MIN KAVL 291125Z 00000KT 10SM CLR 15/10 A3007 2030 72 2500 000/00 RMK AO2 T01500100
03812KAVL AVL20160429063010404/29/16 06:30:31  5-MIN KAVL 291130Z 00000KT 10SM CLR 15/11 A3007 2030 74 2500 000/00 RMK AO2 T01500106
03812KAVL AVL20160429063510404/29/16 06:35:31  5-MIN KAVL 291135Z 00000KT 10SM CLR 16/11 A3007 2030 69 2700 000/00 RMK AO2 T01610106
03812KAVL AVL20160429064010404/29/16 06:40:31  5-MIN KAVL 291140Z 36003KT 10SM CLR 17/10 A3007 2030 64 2700 360/03 RMK AO2 T01670100
03812KAVL AVL20160429064510404/29/16 06:45:31  5-MIN KAVL 291145Z 35004KT 10SM CLR 17/09 A3008 2020 60 2800 360/04 RMK AO2 T01720094
03812KAVL AVL20160429065012904/29/16 06:50:31  5-MIN KAVL 291150Z 36005KT 10SM CLR 17/10 A3008 2020 62 2800 010/05 RMK AO2 SLP161 T01720100 10183 20133 53012
03812KAVL AVL20160429065510404/29/16 06:55:31  5-MIN KAVL 291155Z 36005KT 10SM CLR 17/09 A3008 2020 60 2800 360/05 RMK AO2 T01720094
03812KAVL AVL20160429070010404/29/16 07:00:31  5-MIN KAVL 291200Z 36005KT 10SM CLR 18/09 A3008 2020 58 2800 360/05 RMK AO2 T01780094
03812KAVL AVL20160429070510404/29/16 07:05:31  5-MIN KAVL 291205Z 36005KT 10SM CLR 18/09 A3008 2020 58 2800 360/05 RMK AO2 T01780094
03812KAVL AVL20160429071010404/29/16 07:10:31  5-MIN KAVL 291210Z 35005KT 10SM CLR 18/09 A3008 2020 58 2800 360/05 RMK AO2 T01780094
03812KAVL AVL20160429071510404/29/16 07:15:31  5-MIN KAVL 291215Z 35005KT 10SM CLR 18/09 A3008 2020 56 2900 350/05 RMK AO2 T01830094
03812KAVL AVL20160429072010404/29/16 07:20:31  5-MIN KAVL 291220Z 36004KT 10SM CLR 18/09 A3008 2020 56 2900 360/04 RMK AO2 T01830094
03812KAVL AVL20160429072510404/29/16 07:25:31  5-MIN KAVL 291225Z 35005KT 10SM CLR 19/09 A3009 2010 54 3000 360/05 RMK AO2 T01890094
03812KAVL AVL20160429073010404/29/16 07:30:31  5-MIN KAVL 291230Z 36005KT 10SM CLR 19/09 A3008 2020 54 3000 360/05 RMK AO2 T01890094
03812KAVL AVL20160429073510404/29/16 07:35:31  5-MIN KAVL 291235Z 35006KT 10SM CLR 19/09 A3009 2020 52 3000 360/06 RMK AO2 T01940094
03812KAVL AVL20160429074010404/29/16 07:40:31  5-MIN KAVL 291240Z 35005KT 10SM CLR 19/09 A3009 2020 52 3000 360/05 RMK AO2 T01940094
03812KAVL AVL20160429074510404/29/16 07:45:31  5-MIN KAVL 291245Z 35006KT 10SM CLR 19/09 A3009 2020 52 3000 360/06 RMK AO2 T01940094
03812KAVL AVL20160429075011104/29/16 07:50:31  5-MIN KAVL 291250Z 35006KT 10SM CLR 20/09 A3009 2020 50 3100 360/06 RMK AO2 SLP163 T02000094
03812KAVL AVL20160429075511004/29/16 07:55:31  5-MIN KAVL 291255Z 35010G16KT 10SM CLR 20/09 A3009 2020 48 3100 360/10G16 RMK AO2 T02000089
03812KAVL AVL20160429080011004/29/16 08:00:31  5-MIN KAVL 291300Z 36008G16KT 10SM CLR 20/09 A3009 2020 48 3100 010/08G16 RMK AO2 T02000089
03812KAVL AVL20160429080510404/29/16 08:05:31  5-MIN KAVL 291305Z 35009KT 10SM CLR 20/09 A3008 2020 48 3100 360/09 RMK AO2 T02000089
03812KAVL AVL20160429081010404/29/16 08:10:31  5-MIN KAVL 291310Z 35010KT 10SM CLR 20/08 A3008 2020 46 3100 350/10 RMK AO2 T02000083
03812KAVL AVL20160429081510404/29/16 08:15:31  5-MIN KAVL 291315Z 35011KT 10SM CLR 20/08 A3008 2020 46 3100 350/11 RMK AO2 T02000083
03812KAVL AVL20160429082010404/29/16 08:20:31  5-MIN KAVL 291320Z 34010KT 10SM CLR 20/08 A3008 2020 46 3100 350/10 RMK AO2 T02000083
03812KAVL AVL20160429082510404/29/16 08:25:31  5-MIN KAVL 291325Z 34010KT 10SM CLR 21/08 A3008 2020 45 3200 350/10 RMK AO2 T02060083
03812KAVL AVL20160429083010404/29/16 08:30:31  5-MIN KAVL 291330Z 34010KT 10SM CLR 21/09 A3008 2020 46 3200 340/10 RMK AO2 T02060089
03812KAVL AVL20160429083510404/29/16 08:35:31  5-MIN KAVL 291335Z 36009KT 10SM CLR 21/08 A3008 2020 45 3200 360/09 RMK AO2 T02060083
03812KAVL AVL20160429084010404/29/16 08:40:31  5-MIN KAVL 291340Z 36012KT 10SM CLR 21/08 A3008 2020 43 3200 360/12 RMK AO2 T02060078
03812KAVL AVL20160429084511004/29/16 08:45:31  5-MIN KAVL 291345Z 35013G19KT 10SM CLR 21/07 A3007 2030 41 3200 350/13G19 RMK AO2 T02060072
03812KAVL AVL20160429085011704/29/16 08:50:31  5-MIN KAVL 291350Z 35010G19KT 10SM CLR 21/07 A3007 2030 40 3200 360/10G19 RMK AO2 SLP160 T02060067
03812KAVL AVL20160429085511004/29/16 08:55:31  5-MIN KAVL 291355Z 35009G19KT 10SM CLR 21/07 A3007 2030 41 3200 350/09G19 RMK AO2 T02060072
03812KAVL AVL20160429090011004/29/16 09:00:31  5-MIN KAVL 291400Z 34013G18KT 10SM CLR 21/07 A3007 2030 41 3200 340/13G18 RMK AO2 T02060072
03812KAVL AVL20160429090511004/29/16 09:05:31  5-MIN KAVL 291405Z 34013G17KT 10SM CLR 21/07 A3007 2030 40 3200 350/13G17 RMK AO2 T02110072
03812KAVL AVL20160429091011004/29/16 09:10:31  5-MIN KAVL 291410Z 35009G16KT 10SM CLR 21/07 A3007 2030 40 3200 350/09G16 RMK AO2 T02110072
03812KAVL AVL20160429091510404/29/16 09:15:31  5-MIN KAVL 291415Z 01011KT 10SM CLR 21/07 A3007 2030 38 3200 010/11 RMK AO2 T02110067
03812KAVL AVL20160429092010404/29/16 09:20:31  5-MIN KAVL 291420Z 01012KT 10SM CLR 22/07 A3007 2030 37 3300 010/12 RMK AO2 T02170067
03812KAVL AVL20160429092510404/29/16 09:25:31  5-MIN KAVL 291425Z 35010KT 10SM CLR 21/06 A3007 2030 37 3200 360/10 RMK AO2 T02110061
03812KAVL AVL20160429093011004/29/16 09:30:31  5-MIN KAVL 291430Z 35014G21KT 10SM CLR 21/06 A3007 2030 37 3200 360/14G21 RMK AO2 T02110061
03812KAVL AVL20160429093511004/29/16 09:35:31  5-MIN KAVL 291435Z 36010G21KT 10SM CLR 21/06 A3007 2030 37 3200 010/10G21 RMK AO2 T02110061
03812KAVL AVL20160429094011004/29/16 09:40:31  5-MIN KAVL 291440Z 36013G18KT 10SM CLR 21/06 A3007 2030 37 3200 010/13G18 RMK AO2 T02110061
03812KAVL AVL20160429094511004/29/16 09:45:31  5-MIN KAVL 291445Z 36011G18KT 10SM CLR 22/06 A3007 2030 34 3300 010/11G18 RMK AO2 T02170056
03812KAVL AVL20160429095012304/29/16 09:50:31  5-MIN KAVL 291450Z 35011G17KT 10SM CLR 22/06 A3006 2030 36 3300 360/11G17 RMK AO2 SLP157 T02170061 53018
03812KAVL AVL20160429095511004/29/16 09:55:31  5-MIN KAVL 291455Z 36008G17KT 10SM CLR 22/06 A3006 2040 36 3300 360/08G17 RMK AO2 T02170061
03812KAVL AVL20160429100011004/29/16 10:00:31  5-MIN KAVL 291500Z 36008G17KT 10SM CLR 22/06 A3006 2040 35 3400 010/08G17 RMK AO2 T02220061
03812KAVL AVL20160429100510404/29/16 10:05:31  5-MIN KAVL 291505Z 36010KT 10SM CLR 22/06 A3006 2040 35 3400 360/10 RMK AO2 T02220061
03812KAVL AVL20160429101010404/29/16 10:10:31  5-MIN KAVL 291510Z 35011KT 10SM CLR 22/06 A3007 2030 35 3400 360/11 RMK AO2 T02220061
03812KAVL AVL20160429101510404/29/16 10:15:31  5-MIN KAVL 291515Z 35008KT 10SM CLR 22/06 A3007 2030 35 3400 350/08 RMK AO2 T02220061
03812KAVL AVL20160429102011004/29/16 10:20:31  5-MIN KAVL 291520Z 32011G18KT 10SM CLR 23/07 A3008 2020 33 3500 320/11G18 RMK AO2 T02330067
03812KAVL AVL20160429102511004/29/16 10:25:31  5-MIN KAVL 291525Z 36010G18KT 10SM CLR 23/07 A3008 2020 35 3400 360/10G18 RMK AO2 T02280067
03812KAVL AVL20160429103010404/29/16 10:30:31  5-MIN KAVL 291530Z 01012KT 10SM CLR 23/07 A3008 2020 35 3400 010/12 RMK AO2 T02280067
03812KAVL AVL20160429103511004/29/16 10:35:31  5-MIN KAVL 291535Z 35006G17KT 10SM CLR 23/07 A3008 2020 35 3400 360/06G17 RMK AO2 T02280067
03812KAVL AVL20160429104012004/29/16 10:40:31  5-MIN KAVL 291540Z 01008KT 340V050 10SM CLR 23/07 A3007 2030 35 3500 010/08 350V060 RMK AO2 T02330072
03812KAVL AVL20160429104511004/29/16 10:45:31  5-MIN KAVL 291545Z 35012G16KT 10SM CLR 23/07 A3007 2030 33 3500 350/12G16 RMK AO2 T02330067
03812KAVL AVL20160429105011704/29/16 10:50:31  5-MIN KAVL 291550Z 36010G16KT 10SM CLR 23/07 A3008 2020 33 3500 010/10G16 RMK AO2 SLP163 T02330067
03812KAVL AVL20160429105510404/29/16 10:55:31  5-MIN KAVL 291555Z 36011KT 10SM CLR 23/07 A3008 2020 33 3500 360/11 RMK AO2 T02330067
03812KAVL AVL20160429110010404/29/16 11:00:31  5-MIN KAVL 291600Z 34010KT 10SM CLR 23/07 A3008 2020 33 3500 350/10 RMK AO2 T02330067
03812KAVL AVL20160429110510404/29/16 11:05:31  5-MIN KAVL 291605Z 35012KT 10SM CLR 24/07 A3007 2030 34 3600 360/12 RMK AO2 T02390072
03812KAVL AVL20160429111010404/29/16 11:10:31  5-MIN KAVL 291610Z VRB05KT 10SM CLR 24/07 A3007 2030 34 3600 VRB/05 RMK AO2 T02390072
03812KAVL AVL20160429111510404/29/16 11:15:31  5-MIN KAVL 291615Z 35009KT 10SM CLR 24/07 A3007 2030 32 3600 360/09 RMK AO2 T02390067
03812KAVL AVL20160429112011004/29/16 11:20:31  5-MIN KAVL 291620Z 01009G17KT 10SM CLR 24/06 A3007 2030 30 3600 010/09G17 RMK AO2 T02440061
03812KAVL AVL20160429112511004/29/16 11:25:31  5-MIN KAVL 291625Z 36008G17KT 10SM CLR 24/06 A3007 2030 30 3600 360/08G17 RMK AO2 T02440061
03812KAVL AVL20160429113010404/29/16 11:30:31  5-MIN KAVL 291630Z 35010KT 10SM CLR 24/07 A3007 2030 31 3600 350/10 RMK AO2 T02440067
03812KAVL AVL20160429113510404/29/16 11:35:31  5-MIN KAVL 291635Z 35010KT 10SM CLR 24/06 A3006 2040 30 3600 350/10 RMK AO2 T02440061
03812KAVL AVL20160429114010404/29/16 11:40:31  5-MIN KAVL 291640Z 35011KT 10SM CLR 24/06 A3006 2040 30 3600 360/11 RMK AO2 T02440061
03812KAVL AVL20160429114510404/29/16 11:45:31  5-MIN KAVL 291645Z 35008KT 10SM CLR 24/06 A3006 2040 30 3600 360/08 RMK AO2 T02440061
03812KAVL AVL20160429115011104/29/16 11:50:31  5-MIN KAVL 291650Z 35008KT 10SM CLR 24/07 A3005 2040 31 3600 350/08 RMK AO2 SLP154 T02440067
03812KAVL AVL20160429115510404/29/16 11:55:31  5-MIN KAVL 291655Z 36011KT 10SM CLR 24/06 A3005 2040 30 3600 010/11 RMK AO2 T02440061
03812KAVL AVL20160429120010404/29/16 12:00:31  5-MIN KAVL 291700Z 35011KT 10SM CLR 25/06 A3005 2050 29 3700 360/11 RMK AO2 T02500061
03812KAVL AVL20160429120511004/29/16 12:05:31  5-MIN KAVL 291705Z 33009G15KT 10SM CLR 25/07 A3005 2050 30 3700 340/09G15 RMK AO2 T02500067
03812KAVL AVL20160429121012604/29/16 12:10:31  5-MIN KAVL 291710Z 01007G14KT 350V050 10SM CLR 25/06 A3004 2050 29 3700 020/07G14 360V060 RMK AO2 T02500061
03812KAVL AVL20160429121511004/29/16 12:15:31  5-MIN KAVL 291715Z 34011G14KT 10SM CLR 25/07 A3004 2060 30 3700 350/11G14 RMK AO2 T02500067
03812KAVL AVL20160429122010404/29/16 12:20:31  5-MIN KAVL 291720Z 34009KT 10SM CLR 25/07 A3004 2060 30 3700 340/09 RMK AO2 T02500067
03812KAVL AVL20160429122510404/29/16 12:25:31  5-MIN KAVL 291725Z 02008KT 10SM CLR 26/07 A3003 2060 29 3800 020/08 RMK AO2 T02560067
03812KAVL AVL20160429123011004/29/16 12:30:31  5-MIN KAVL 291730Z 34012G17KT 10SM CLR 26/06 A3003 2060 28 3800 350/12G17 RMK AO2 T02560061
03812KAVL AVL20160429123511004/29/16 12:35:31  5-MIN KAVL 291735Z 34010G17KT 10SM CLR 26/07 A3003 2060 29 3800 350/10G17 RMK AO2 T02560067
03812KAVL AVL20160429124010404/29/16 12:40:31  5-MIN KAVL 291740Z 36007KT 10SM CLR 26/06 A3003 2070 28 3800 360/07 RMK AO2 T02560061
03812KAVL AVL20160429124511004/29/16 12:45:31  5-MIN KAVL 291745Z 36010G14KT 10SM CLR 26/06 A3003 2070 28 3800 360/10G14 RMK AO2 T02560061
03812KAVL AVL20160429125013504/29/16 12:50:31  5-MIN KAVL 291750Z 35006G14KT 10SM CLR 26/06 A3003 2060 28 3800 360/06G14 RMK AO2 SLP147 T02560061 10261 20172 58006
03812KAVL AVL20160429125510404/29/16 12:55:31  5-MIN KAVL 291755Z 35007KT 10SM CLR 26/06 A3003 2060 27 3800 360/07 RMK AO2 T02610061
03812KAVL AVL20160429130010404/29/16 13:00:31  5-MIN KAVL 291800Z 36010KT 10SM CLR 26/07 A3003 2070 28 3800 360/10 RMK AO2 T02610067
03812KAVL AVL20160429130510404/29/16 13:05:31  5-MIN KAVL 291805Z 35006KT 10SM CLR 26/06 A3003 2070 28 3800 350/06 RMK AO2 T02560061
03812KAVL AVL20160429131011004/29/16 13:10:31  5-MIN KAVL 291810Z 36010G16KT 10SM CLR 27/07 A3003 2070 27 3900 010/10G16 RMK AO2 T02670067
03812KAVL AVL20160429131511004/29/16 13:15:31  5-MIN KAVL 291815Z 35008G16KT 10SM CLR 26/06 A3003 2070 27 3800 350/08G16 RMK AO2 T02610061
03812KAVL AVL20160429132010404/29/16 13:20:31  5-MIN KAVL 291820Z 36009KT 10SM CLR 27/07 A3003 2070 27 3900 360/09 RMK AO2 T02670067
03812KAVL AVL20160429132510404/29/16 13:25:31  5-MIN KAVL 291825Z 35012KT 10SM CLR 27/07 A3003 2070 27 3900 360/12 RMK AO2 T02670067
03812KAVL AVL20160429133010404/29/16 13:30:31  5-MIN KAVL 291830Z 01006KT 10SM CLR 26/06 A3003 2070 27 3900 010/06 RMK AO2 T02610061
03812KAVL AVL20160429133510404/29/16 13:35:31  5-MIN KAVL 291835Z 34010KT 10SM CLR 27/07 A3003 2070 27 3900 340/10 RMK AO2 T02670067
03812KAVL AVL20160429134010404/29/16 13:40:31  5-MIN KAVL 291840Z 01009KT 10SM CLR 27/06 A3003 2070 26 3900 020/09 RMK AO2 T02670061
03812KAVL AVL20160429134510404/29/16 13:45:31  5-MIN KAVL 291845Z 35011KT 10SM CLR 27/06 A3002 2070 26 3900 350/11 RMK AO2 T02670061
03812KAVL AVL20160429135013304/29/16 13:50:31  5-MIN KAVL 291850Z 03008G18KT 360V060 10SM CLR 27/06 A3002 2080 26 3900 030/08G18 010V070 RMK AO2 SLP141 T02670061
03812KAVL AVL20160429135512604/29/16 13:55:31  5-MIN KAVL 291855Z 01007G18KT 340V060 10SM CLR 27/06 A3002 2080 26 3900 020/07G18 350V070 RMK AO2 T02670061
03812KAVL AVL20160429140010404/29/16 14:00:31  5-MIN KAVL 291900Z 03008KT 10SM CLR 27/06 A3001 2080 26 3900 040/08 RMK AO2 T02670061
03812KAVL AVL20160429140512004/29/16 14:05:31  5-MIN KAVL 291905Z 02010KT 350V060 10SM CLR 27/06 A3001 2080 26 3900 020/10 360V070 RMK AO2 T02670061
03812KAVL AVL20160429141010404/29/16 14:10:31  5-MIN KAVL 291910Z 35008KT 10SM CLR 27/06 A3001 2080 26 3900 360/08 RMK AO2 T02670061
03812KAVL AVL20160429141510404/29/16 14:15:31  5-MIN KAVL 291915Z 01008KT 10SM CLR 27/06 A3001 2080 25 3900 020/08 RMK AO2 T02670056
03812KAVL AVL20160429142010404/29/16 14:20:31  5-MIN KAVL 291920Z 35009KT 10SM CLR 27/06 A3001 2080 25 3900 350/09 RMK AO2 T02670056
03812KAVL AVL20160429142510404/29/16 14:25:31  5-MIN KAVL 291925Z VRB03KT 10SM CLR 27/07 A3001 2080 26 4000 VRB/03 RMK AO2 T02720067
03812KAVL AVL20160429143010404/29/16 14:30:31  5-MIN KAVL 291930Z 03006KT 10SM CLR 27/06 A3001 2080 25 3900 040/06 RMK AO2 T02670056
03812KAVL AVL20160429143510404/29/16 14:35:31  5-MIN KAVL 291935Z 01004KT 10SM CLR 27/06 A3001 2090 24 4000 010/04 RMK AO2 T02720056
03812KAVL AVL20160429144010404/29/16 14:40:31  5-MIN KAVL 291940Z VRB03KT 10SM CLR 27/06 A3001 2090 25 4000 VRB/03 RMK AO2 T02720061
03812KAVL AVL20160429144510404/29/16 14:45:31  5-MIN KAVL 291945Z VRB05KT 10SM CLR 27/06 A3000 2090 25 4000 VRB/05 RMK AO2 T02720061
03812KAVL AVL20160429145011104/29/16 14:50:31  5-MIN KAVL 291950Z 00000KT 10SM CLR 27/05 A3001 2090 24 4000 000/00 RMK AO2 SLP133 T02720050
03812KAVL AVL20160429145509404/29/16 14:55:31  5-MIN KAVL 291955Z 10SM CLR 27/06 A3001 2090 24 4000 M /M RMK AO2 T02720056
03812KAVL AVL20160429150010404/29/16 15:00:31  5-MIN KAVL 292000Z VRB05KT 10SM CLR 27/06 A3001 2090 25 4000 VRB/05 RMK AO2 T02720061
03812KAVL AVL20160429150510404/29/16 15:05:31  5-MIN KAVL 292005Z 35007KT 10SM CLR 27/06 A3001 2090 24 4000 350/07 RMK AO2 T02720056
03812KAVL AVL20160429151010404/29/16 15:10:31  5-MIN KAVL 292010Z 36004KT 10SM CLR 27/05 A3000 2090 24 3900 010/04 RMK AO2 T02670050
03812KAVL AVL20160429151510404/29/16 15:15:31  5-MIN KAVL 292015Z VRB03KT 10SM CLR 27/06 A3000 2090 24 4000 VRB/03 RMK AO2 T02720056
03812KAVL AVL20160429152010404/29/16 15:20:31  5-MIN KAVL 292020Z VRB04KT 10SM CLR 27/06 A3000 2100 25 3900 VRB/04 RMK AO2 T02670056
03812KAVL AVL20160429152510404/29/16 15:25:31  5-MIN KAVL 292025Z 33005KT 10SM CLR 27/06 A3000 2100 25 3900 340/05 RMK AO2 T02670056
03812KAVL AVL20160429153010404/29/16 15:30:31  5-MIN KAVL 292030Z 32008KT 10SM CLR 27/06 A3000 2090 26 3900 330/08 RMK AO2 T02670061
03812KAVL AVL20160429153510404/29/16 15:35:31  5-MIN KAVL 292035Z 31006KT 10SM CLR 26/06 A3000 2090 27 3900 320/06 RMK AO2 T02610061
03812KAVL AVL20160429154010404/29/16 15:40:31  5-MIN KAVL 292040Z 36003KT 10SM CLR 26/06 A3000 2100 26 3900 010/03 RMK AO2 T02610056
03812KAVL AVL20160429154510404/29/16 15:45:31  5-MIN KAVL 292045Z 32004KT 10SM CLR 27/06 A3000 2100 25 3900 330/04 RMK AO2 T02670056
03812KAVL AVL20160429155011704/29/16 15:50:31  5-MIN KAVL 292050Z 35007KT 10SM CLR 27/06 A2999 2100 26 4000 360/07 RMK AO2 SLP130 T02670061 58009
03812KAVL AVL20160429155510404/29/16 15:55:31  5-MIN KAVL 292055Z 34009KT 10SM CLR 27/06 A2999 2100 26 4000 350/09 RMK AO2 T02670061
03812KAVL AVL20160429160010404/29/16 16:00:31  5-MIN KAVL 292100Z 35006KT 10SM CLR 27/06 A2999 2100 25 4000 360/06 RMK AO2 T02670056
03812KAVL AVL20160429160510404/29/16 16:05:31  5-MIN KAVL 292105Z 34007KT 10SM CLR 26/06 A3000 2100 27 3900 340/07 RMK AO2 T02610061
03812KAVL AVL20160429161010404/29/16 16:10:31  5-MIN KAVL 292110Z 34012KT 10SM CLR 26/06 A3000 2090 27 3900 350/12 RMK AO2 T02610061
03812KAVL AVL20160429161510704/29/16 16:15:31  5-MIN KAVL 292115Z 34010KT 10SM FEW090 26/06 A3000 2090 26 3900 340/10 RMK AO2 T02610056
03812KAVL AVL20160429162010704/29/16 16:20:31  5-MIN KAVL 292120Z 34009KT 10SM FEW090 26/06 A3000 2090 26 3900 350/09 RMK AO2 T02610056
03812KAVL AVL20160429162510704/29/16 16:25:31  5-MIN KAVL 292125Z 35007KT 10SM FEW090 26/06 A3000 2090 26 3900 360/07 RMK AO2 T02610056
03812KAVL AVL20160429163010704/29/16 16:30:31  5-MIN KAVL 292130Z 36007KT 10SM FEW090 26/06 A3001 2090 26 3900 010/07 RMK AO2 T02610056
03812KAVL AVL20160429163510704/29/16 16:35:31  5-MIN KAVL 292135Z 35009KT 10SM SCT090 26/06 A3000 2090 26 3900 360/09 RMK AO2 T02610056
03812KAVL AVL20160429164010704/29/16 16:40:31  5-MIN KAVL 292140Z 34009KT 10SM BKN090 26/06 A3000 2090 26 3900 350/09 RMK AO2 T02610056
03812KAVL AVL20160429164510704/29/16 16:45:31  5-MIN KAVL 292145Z 35007KT 10SM BKN090 26/06 A3000 2090 26 3900 360/07 RMK AO2 T02610056
03812KAVL AVL20160429165011404/29/16 16:50:31  5-MIN KAVL 292150Z 35008KT 10SM BKN090 26/06 A3001 2090 27 3900 350/08 RMK AO2 SLP138 T02610061
03812KAVL AVL20160429165510704/29/16 16:55:31  5-MIN KAVL 292155Z 35009KT 10SM BKN090 26/06 A3001 2090 26 3900 350/09 RMK AO2 T02610056
03812KAVL AVL20160429170010704/29/16 17:00:31  5-MIN KAVL 292200Z 35009KT 10SM OVC090 26/05 A3001 2090 25 3900 360/09 RMK AO2 T02610050
03812KAVL AVL20160429170510704/29/16 17:05:31  5-MIN KAVL 292205Z 36008KT 10SM BKN090 26/05 A3000 2090 25 3900 010/08 RMK AO2 T02610050
03812KAVL AVL20160429171010704/29/16 17:10:31  5-MIN KAVL 292210Z 35007KT 10SM BKN090 26/05 A3000 2090 25 3900 360/07 RMK AO2 T02610050
03812KAVL AVL20160429171510704/29/16 17:15:31  5-MIN KAVL 292215Z 35009KT 10SM BKN090 26/05 A3000 2090 25 3900 350/09 RMK AO2 T02610050
03812KAVL AVL20160429172010704/29/16 17:20:31  5-MIN KAVL 292220Z 34011KT 10SM SCT090 26/05 A3000 2090 25 3900 340/11 RMK AO2 T02610050
03812KAVL AVL20160429172510704/29/16 17:25:31  5-MIN KAVL 292225Z 34009KT 10SM SCT090 26/06 A3000 2090 27 3800 350/09 RMK AO2 T02560056
03812KAVL AVL20160429173010704/29/16 17:30:31  5-MIN KAVL 292230Z 34011KT 10SM FEW090 26/06 A3001 2090 26 3900 350/11 RMK AO2 T02610056
03812KAVL AVL20160429173510704/29/16 17:35:31  5-MIN KAVL 292235Z 35010KT 10SM FEW095 26/06 A3001 2090 27 3800 350/10 RMK AO2 T02560056
03812KAVL AVL20160429174010404/29/16 17:40:31  5-MIN KAVL 292240Z 35009KT 10SM CLR 26/06 A3001 2090 27 3800 360/09 RMK AO2 T02560056
03812KAVL AVL20160429174510404/29/16 17:45:31  5-MIN KAVL 292245Z 35007KT 10SM CLR 26/06 A3001 2090 27 3800 350/07 RMK AO2 T02560056
03812KAVL AVL20160429175011104/29/16 17:50:31  5-MIN KAVL 292250Z 33008KT 10SM CLR 25/06 A3001 2090 29 3700 340/08 RMK AO2 SLP139 T02500061
03812KAVL AVL20160429175510404/29/16 17:55:31  5-MIN KAVL 292255Z 32007KT 10SM CLR 24/06 A3001 2090 30 3700 330/07 RMK AO2 T02440061
03812KAVL AVL20160429180010404/29/16 18:00:31  5-MIN KAVL 292300Z 33007KT 10SM CLR 24/06 A3001 2090 30 3700 330/07 RMK AO2 T02440061
03812KAVL AVL20160429180510404/29/16 18:05:31  5-MIN KAVL 292305Z 34008KT 10SM CLR 24/07 A3001 2090 31 3700 340/08 RMK AO2 T02440067
03812KAVL AVL20160429181010404/29/16 18:10:31  5-MIN KAVL 292310Z 33008KT 10SM CLR 24/06 A3001 2080 30 3700 340/08 RMK AO2 T02440061
03812KAVL AVL20160429181510404/29/16 18:15:31  5-MIN KAVL 292315Z 32008KT 10SM CLR 24/06 A3002 2080 30 3700 330/08 RMK AO2 T02440061
03812KAVL AVL20160429182010404/29/16 18:20:31  5-MIN KAVL 292320Z 33009KT 10SM CLR 24/06 A3002 2080 30 3700 340/09 RMK AO2 T02440061
03812KAVL AVL20160429182510704/29/16 18:25:31  5-MIN KAVL 292325Z 34011KT 10SM FEW090 24/06 A3002 2070 30 3700 340/11 RMK AO2 T02440061
03812KAVL AVL20160429183010704/29/16 18:30:31  5-MIN KAVL 292330Z 33010KT 10SM FEW085 24/07 A3002 2070 31 3700 340/10 RMK AO2 T02440067
03812KAVL AVL20160429183510704/29/16 18:35:31  5-MIN KAVL 292335Z 33010KT 10SM FEW085 24/07 A3003 2070 32 3600 340/10 RMK AO2 T02390067
03812KAVL AVL20160429184010704/29/16 18:40:31  5-MIN KAVL 292340Z 34010KT 10SM FEW085 24/07 A3003 2070 34 3600 350/10 RMK AO2 T02390072
03812KAVL AVL20160429184510704/29/16 18:45:31  5-MIN KAVL 292345Z 34010KT 10SM FEW090 23/07 A3003 2070 35 3500 350/10 RMK AO2 T02330072
03812KAVL AVL20160429185013204/29/16 18:50:31  5-MIN KAVL 292350Z 34011KT 10SM SCT095 23/07 A3003 2070 35 3500 350/11 RMK AO2 SLP146 T02330072 10278 20233 56012
03812KAVL AVL20160429185511404/29/16 18:55:31  5-MIN KAVL 292355Z 34009KT 10SM FEW080 BKN095 23/08 A3003 2070 36 3500 350/09 RMK AO2 T02330078
03812KAVL AVL20160429190011404/29/16 19:00:31  5-MIN KAVL 300000Z 34010KT 10SM FEW075 SCT095 23/08 A3003 2070 36 3500 350/10 RMK AO2 T02330078
03812KAVL AVL20160429190511404/29/16 19:05:31  5-MIN KAVL 300005Z 34009KT 10SM FEW075 SCT095 23/08 A3003 2060 37 3500 350/09 RMK AO2 T02280078
03812KAVL AVL20160429191011404/29/16 19:10:31  5-MIN KAVL 300010Z 34009KT 10SM SCT075 BKN095 23/08 A3003 2070 37 3500 350/09 RMK AO2 T02280078
03812KAVL AVL20160429191511404/29/16 19:15:31  5-MIN KAVL 300015Z 34008KT 10SM BKN075 BKN095 23/08 A3003 2070 37 3500 350/08 RMK AO2 T02280078
03812KAVL AVL20160429192010704/29/16 19:20:31  5-MIN KAVL 300020Z 34010KT 10SM BKN070 23/08 A3003 2060 37 3500 340/10 RMK AO2 T02280078
03812KAVL AVL20160429192510704/29/16 19:25:31  5-MIN KAVL 300025Z 34009KT 10SM BKN070 23/08 A3003 2060 39 3500 350/09 RMK AO2 T02280083
03812KAVL AVL20160429193010704/29/16 19:30:31  5-MIN KAVL 300030Z 34006KT 10SM OVC070 22/08 A3004 2060 40 3400 340/06 RMK AO2 T02220083
03812KAVL AVL20160429193510704/29/16 19:35:31  5-MIN KAVL 300035Z 34008KT 10SM OVC075 22/08 A3004 2060 40 3400 350/08 RMK AO2 T02220083
03812KAVL AVL20160429194010704/29/16 19:40:31  5-MIN KAVL 300040Z 33008KT 10SM OVC075 22/08 A3004 2060 40 3400 340/08 RMK AO2 T02220083
03812KAVL AVL20160429194510704/29/16 19:45:31  5-MIN KAVL 300045Z 31007KT 10SM OVC075 22/08 A3004 2050 40 3400 320/07 RMK AO2 T02220083
03812KAVL AVL20160429195011404/29/16 19:50:31  5-MIN KAVL 300050Z 30005KT 10SM OVC075 22/08 A3005 2050 39 3400 310/05 RMK AO2 SLP152 T02220078
03812KAVL AVL20160429195510704/29/16 19:55:31  5-MIN KAVL 300055Z 30004KT 10SM OVC075 22/08 A3005 2050 39 3400 310/04 RMK AO2 T02220078
03812KAVL AVL20160429200010704/29/16 20:00:31  5-MIN KAVL 300100Z 31004KT 10SM BKN075 22/08 A3005 2050 40 3300 310/04 RMK AO2 T02170078
03812KAVL AVL20160429200510704/29/16 20:05:31  5-MIN KAVL 300105Z 33003KT 10SM BKN075 22/07 A3005 2050 39 3300 340/03 RMK AO2 T02170072
03812KAVL AVL20160429201010704/29/16 20:10:31  5-MIN KAVL 300110Z 34005KT 10SM SCT075 22/07 A3005 2050 39 3300 350/05 RMK AO2 T02170072
03812KAVL AVL20160429201510704/29/16 20:15:31  5-MIN KAVL 300115Z 35006KT 10SM SCT075 21/08 A3005 2050 42 3300 350/06 RMK AO2 T02110078
03812KAVL AVL20160429202010704/29/16 20:20:31  5-MIN KAVL 300120Z 36007KT 10SM FEW075 22/08 A3005 2050 40 3300 360/07 RMK AO2 T02170078
03812KAVL AVL20160429202510404/29/16 20:25:31  5-MIN KAVL 300125Z 35005KT 10SM CLR 22/08 A3005 2050 40 3300 360/05 RMK AO2 T02170078
03812KAVL AVL20160429203010704/29/16 20:30:31  5-MIN KAVL 300130Z 33007KT 10SM FEW075 21/08 A3005 2040 42 3300 330/07 RMK AO2 T02110078
03812KAVL AVL20160429203510704/29/16 20:35:31  5-MIN KAVL 300135Z 31005KT 10SM FEW075 21/08 A3005 2040 45 3200 320/05 RMK AO2 T02060083
03812KAVL AVL20160429204010704/29/16 20:40:31  5-MIN KAVL 300140Z 34005KT 10SM FEW075 21/08 A3005 2040 43 3200 340/05 RMK AO2 T02060078
03812KAVL AVL20160429204510704/29/16 20:45:31  5-MIN KAVL 300145Z 34007KT 10SM FEW070 21/08 A3006 2040 45 3200 340/07 RMK AO2 T02060083
03812KAVL AVL20160429205011404/29/16 20:50:31  5-MIN KAVL 300150Z 33006KT 10SM SCT070 21/08 A3006 2040 45 3200 340/06 RMK AO2 SLP155 T02060083
03812KAVL AVL20160429205510704/29/16 20:55:31  5-MIN KAVL 300155Z 33006KT 10SM BKN070 21/08 A3006 2040 45 3200 330/06 RMK AO2 T02060083
03812KAVL AVL20160429210010704/29/16 21:00:31  5-MIN KAVL 300200Z 34006KT 10SM BKN070 21/08 A3006 2040 43 3200 340/06 RMK AO2 T02060078
03812KAVL AVL20160429210510704/29/16 21:05:31  5-MIN KAVL 300205Z 34006KT 10SM BKN070 21/08 A3006 2040 43 3200 350/06 RMK AO2 T02060078
03812KAVL AVL20160429211010704/29/16 21:10:31  5-MIN KAVL 300210Z 34006KT 10SM OVC070 21/08 A3006 2040 43 3200 350/06 RMK AO2 T02060078
03812KAVL AVL20160429211510704/29/16 21:15:31  5-MIN KAVL 300215Z 34006KT 10SM BKN070 21/08 A3006 2040 45 3200 340/06 RMK AO2 T02060083
03812KAVL AVL20160429212010704/29/16 21:20:31  5-MIN KAVL 300220Z 34006KT 10SM BKN070 20/08 A3006 2040 46 3100 350/06 RMK AO2 T02000083
03812KAVL AVL20160429212510704/29/16 21:25:31  5-MIN KAVL 300225Z 35005KT 10SM SCT070 21/08 A3006 2040 45 3200 360/05 RMK AO2 T02060083
03812KAVL AVL20160429213010704/29/16 21:30:31  5-MIN KAVL 300230Z 34007KT 10SM SCT070 20/08 A3006 2040 46 3100 350/07 RMK AO2 T02000083
03812KAVL AVL20160429213510704/29/16 21:35:31  5-MIN KAVL 300235Z 34005KT 10SM FEW070 20/08 A3006 2040 46 3100 340/05 RMK AO2 T02000083
03812KAVL AVL20160429214010404/29/16 21:40:31  5-MIN KAVL 300240Z 33005KT 10SM CLR 19/08 A3007 2030 48 3100 340/05 RMK AO2 T01940083
03812KAVL AVL20160429214510904/29/16 21:45:31  5-MIN KAVL 300245Z AUTO 35005KT 10SM CLR 19/08 A3007 2030 48 3100 360/05 RMK AO2 T01940083
03812KAVL AVL20160429215012204/29/16 21:50:31  5-MIN KAVL 300250Z AUTO 02004KT 10SM CLR 20/08 A3007 2030 46 3100 020/04 RMK AO2 SLP158 T02000083 53012
03812KAVL AVL20160429215510904/29/16 21:55:31  5-MIN KAVL 300255Z AUTO 35004KT 10SM CLR 20/08 A3007 2030 46 3100 360/04 RMK AO2 T02000083
03812KAVL AVL20160429220010904/29/16 22:00:31  5-MIN KAVL 300300Z AUTO 35004KT 10SM CLR 20/08 A3007 2030 46 3100 360/04 RMK AO2 T02000083
03812KAVL AVL20160429220510904/29/16 22:05:31  5-MIN KAVL 300305Z AUTO 36004KT 10SM CLR 20/08 A3007 2030 46 3100 010/04 RMK AO2 T02000083
03812KAVL AVL20160429221010904/29/16 22:10:31  5-MIN KAVL 300310Z AUTO 36004KT 10SM CLR 20/09 A3007 2030 48 3100 360/04 RMK AO2 T02000089
03812KAVL AVL20160429221510904/29/16 22:15:31  5-MIN KAVL 300315Z AUTO 34005KT 10SM CLR 19/09 A3007 2030 50 3100 350/05 RMK AO2 T01940089
03812KAVL AVL20160429222010904/29/16 22:20:31  5-MIN KAVL 300320Z AUTO 35004KT 10SM CLR 19/09 A3007 2030 50 3100 360/04 RMK AO2 T01940089
03812KAVL AVL20160429222510904/29/16 22:25:31  5-MIN KAVL 300325Z AUTO 36005KT 10SM CLR 20/09 A3007 2030 48 3100 010/05 RMK AO2 T02000089
03812KAVL AVL20160429223010904/29/16 22:30:31  5-MIN KAVL 300330Z AUTO 36006KT 10SM CLR 20/09 A3007 2030 48 3100 010/06 RMK AO2 T02000089
03812KAVL AVL20160429223510904/29/16 22:35:31  5-MIN KAVL 300335Z AUTO 36006KT 10SM CLR 20/09 A3007 2030 48 3100 360/06 RMK AO2 T02000089
03812KAVL AVL20160429224010904/29/16 22:40:31  5-MIN KAVL 300340Z AUTO 36006KT 10SM CLR 20/09 A3007 2030 48 3100 360/06 RMK AO2 T02000089
03812KAVL AVL20160429224510904/29/16 22:45:31  5-MIN KAVL 300345Z AUTO 36006KT 10SM CLR 19/09 A3007 2030 50 3100 010/06 RMK AO2 T01940089
03812KAVL AVL20160429225011604/29/16 22:50:31  5-MIN KAVL 300350Z AUTO 36006KT 10SM CLR 20/08 A3006 2030 46 3100 010/06 RMK AO2 SLP155 T02000083
03812KAVL AVL20160429225510904/29/16 22:55:31  5-MIN KAVL 300355Z AUTO 36005KT 10SM CLR 20/08 A3007 2030 46 3100 010/05 RMK AO2 T02000083
03812KAVL AVL20160429230010904/29/16 23:00:31  5-MIN KAVL 300400Z AUTO 36005KT 10SM CLR 20/08 A3007 2030 46 3100 360/05 RMK AO2 T02000083
03812KAVL AVL20160429230510904/29/16 23:05:31  5-MIN KAVL 300405Z AUTO 36004KT 10SM CLR 20/09 A3007 2030 48 3100 360/04 RMK AO2 T02000089
03812KAVL AVL20160429231010904/29/16 23:10:31  5-MIN KAVL 300410Z AUTO 01004KT 10SM CLR 20/09 A3006 2040 48 3100 010/04 RMK AO2 T02000089
03812KAVL AVL20160429231510904/29/16 23:15:31  5-MIN KAVL 300415Z AUTO 36004KT 10SM CLR 19/09 A3006 2040 50 3100 010/04 RMK AO2 T01940089
03812KAVL AVL20160429232010904/29/16 23:20:31  5-MIN KAVL 300420Z AUTO 36005KT 10SM CLR 19/09 A3006 2040 50 3100 360/05 RMK AO2 T01940089
03812KAVL AVL20160429232510904/29/16 23:25:31  5-MIN KAVL 300425Z AUTO 36003KT 10SM CLR 19/09 A3006 2040 50 3100 360/03 RMK AO2 T01940089
03812KAVL AVL20160429233010904/29/16 23:30:31  5-MIN KAVL 300430Z AUTO 00000KT 10SM CLR 19/09 A3006 2040 52 3000 000/00 RMK AO2 T01890089
03812KAVL AVL20160429233510904/29/16 23:35:31  5-MIN KAVL 300435Z AUTO 00000KT 10SM CLR 19/09 A3006 2040 52 3000 000/00 RMK AO2 T01890089
03812KAVL AVL20160429234010904/29/16 23:40:31  5-MIN KAVL 300440Z AUTO 33004KT 10SM CLR 18/09 A3006 2040 56 2900 330/04 RMK AO2 T01830094
03812KAVL AVL20160429234510904/29/16 23:45:31  5-MIN KAVL 300445Z AUTO 34005KT 10SM CLR 18/09 A3006 2040 58 2900 350/05 RMK AO2 T01780094
03812KAVL AVL20160429235012604/29/16 23:50:31  5-MIN KAVL 300450Z AUTO 36004KT 10SM CLR 18/09 A3006 2040 56 2900 010/04 RMK AO2 SLP154 T01830094 402780133
03812KAVL AVL20160429235510904/29/16 23:55:31  5-MIN KAVL 300455Z AUTO 02003KT 10SM CLR 18/09 A3006 2040 54 2900 020/03 RMK AO2 T01830089
03812KAVL AVL20160430000010904/30/16 00:00:31  5-MIN KAVL 300500Z AUTO 00000KT 10SM CLR 18/09 A3006 2040 56 2900 000/00 RMK AO2 T01830094
03812KAVL AVL20160430000510904/30/16 00:05:31  5-MIN KAVL 300505Z AUTO 35005KT 10SM CLR 18/09 A3006 2040 58 2900 350/05 RMK AO2 T01780094
03812KAVL AVL20160430001010904/30/16 00:10:31  5-MIN KAVL 300510Z AUTO 34003KT 10SM CLR 18/09 A3006 2040 58 2900 340/03 RMK AO2 T01780094
03812KAVL AVL20160430001510904/30/16 00:15:31  5-MIN KAVL 300515Z AUTO 00000KT 10SM CLR 17/09 A3006 2040 60 2800 000/00 RMK AO2 T01720094
03812KAVL AVL20160430002010904/30/16 00:20:31  5-MIN KAVL 300520Z AUTO 00000KT 10SM CLR 17/09 A3005 2040 60 2800 000/00 RMK AO2 T01720094
03812KAVL AVL20160430002510904/30/16 00:25:31  5-MIN KAVL 300525Z AUTO 00000KT 10SM CLR 17/10 A3005 2040 62 2800 000/00 RMK AO2 T01720100
03812KAVL AVL20160430003010904/30/16 00:30:31  5-MIN KAVL 300530Z AUTO 00000KT 10SM CLR 17/09 A3006 2040 60 2800 000/00 RMK AO2 T01720094
03812KAVL AVL20160430003510904/30/16 00:35:31  5-MIN KAVL 300535Z AUTO 29003KT 10SM CLR 17/10 A3005 2040 62 2800 290/03 RMK AO2 T01720100
03812KAVL AVL20160430004010904/30/16 00:40:31  5-MIN KAVL 300540Z AUTO 00000KT 10SM CLR 17/09 A3005 2040 60 2800 000/00 RMK AO2 T01720094
03812KAVL AVL20160430004510904/30/16 00:45:31  5-MIN KAVL 300545Z AUTO 24003KT 10SM CLR 16/11 A3005 2040 69 2700 250/03 RMK AO2 T01610106
03812KAVL AVL20160430005013404/30/16 00:50:31  5-MIN KAVL 300550Z AUTO 25003KT 10SM CLR 16/11 A3005 2040 69 2700 260/03 RMK AO2 SLP153 T01610106 10233 20156 51013
03812KAVL AVL20160430005510904/30/16 00:55:31  5-MIN KAVL 300555Z AUTO 00000KT 10SM CLR 16/10 A3006 2040 67 2700 000/00 RMK AO2 T01610100
03812KAVL AVL20160430010010904/30/16 01:00:31  5-MIN KAVL 300600Z AUTO 00000KT 10SM CLR 17/11 A3005 2040 67 2800 000/00 RMK AO2 T01670106
03812KAVL AVL20160430010510904/30/16 01:05:31  5-MIN KAVL 300605Z AUTO 00000KT 10SM CLR 17/10 A3005 2050 64 2800 000/00 RMK AO2 T01670100
03812KAVL AVL20160430011010904/30/16 01:10:31  5-MIN KAVL 300610Z AUTO 00000KT 10SM CLR 17/10 A3005 2050 64 2800 000/00 RMK AO2 T01670100
03812KAVL AVL20160430011510904/30/16 01:15:31  5-MIN KAVL 300615Z AUTO 00000KT 10SM CLR 17/10 A3005 2050 64 2800 000/00 RMK AO2 T01670100
03812KAVL AVL20160430012010904/30/16 01:20:31  5-MIN KAVL 300620Z AUTO 00000KT 10SM CLR 17/10 A3005 2050 64 2800 000/00 RMK AO2 T01670100
03812KAVL AVL20160430012510904/30/16 01:25:31  5-MIN KAVL 300625Z AUTO 00000KT 10SM CLR 17/10 A3004 2050 64 2800 000/00 RMK AO2 T01670100
03812KAVL AVL20160430013010904/30/16 01:30:31  5-MIN KAVL 300630Z AUTO 00000KT 10SM CLR 17/10 A3004 2050 64 2800 000/00 RMK AO2 T01670100
03812KAVL AVL20160430013510904/30/16 01:35:31  5-MIN KAVL 300635Z AUTO 19003KT 10SM CLR 16/11 A3004 2050 72 2600 190/03 RMK AO2 T01560106
03812KAVL AVL20160430014010904/30/16 01:40:31  5-MIN KAVL 300640Z AUTO 00000KT 10SM CLR 16/11 A3004 2050 72 2600 000/00 RMK AO2 T01560106
03812KAVL AVL20160430014510904/30/16 01:45:31  5-MIN KAVL 300645Z AUTO 00000KT 10SM CLR 16/11 A3004 2050 72 2600 000/00 RMK AO2 T01560106
03812KAVL AVL20160430015011604/30/16 01:50:31  5-MIN KAVL 300650Z AUTO 00000KT 10SM CLR 15/11 A3004 2060 77 2600 000/00 RMK AO2 SLP147 T01500111
03812KAVL AVL20160430015510904/30/16 01:55:31  5-MIN KAVL 300655Z AUTO 00000KT 10SM CLR 16/11 A3003 2060 74 2600 000/00 RMK AO2 T01560111
03812KAVL AVL20160430020010904/30/16 02:00:31  5-MIN KAVL 300700Z AUTO 00000KT 10SM CLR 16/11 A3003 2060 74 2600 000/00 RMK AO2 T01560111
03812KAVL AVL20160430020510904/30/16 02:05:31  5-MIN KAVL 300705Z AUTO 00000KT 10SM CLR 16/11 A3004 2060 74 2600 000/00 RMK AO2 T01560111
03812KAVL AVL20160430021010904/30/16 02:10:31  5-MIN KAVL 300710Z AUTO 00000KT 10SM CLR 16/11 A3004 2060 74 2600 000/00 RMK AO2 T01560111
03812KAVL AVL20160430021510904/30/16 02:15:31  5-MIN KAVL 300715Z AUTO 00000KT 10SM CLR 16/11 A3004 2060 72 2600 000/00 RMK AO2 T01560106
03812KAVL AVL20160430022010904/30/16 02:20:31  5-MIN KAVL 300720Z AUTO 00000KT 10SM CLR 16/11 A3004 2050 72 2600 000/00 RMK AO2 T01560106
03812KAVL AVL20160430022510904/30/16 02:25:31  5-MIN KAVL 300725Z AUTO 00000KT 10SM CLR 16/11 A3004 2050 72 2600 000/00 RMK AO2 T01560106
03812KAVL AVL20160430023010904/30/16 02:30:31  5-MIN KAVL 300730Z AUTO 00000KT 10SM CLR 16/10 A3004 2060 69 2600 000/00 RMK AO2 T01560100
03812KAVL AVL20160430023510904/30/16 02:35:31  5-MIN KAVL 300735Z AUTO 00000KT 10SM CLR 16/11 A3004 2060 72 2600 000/00 RMK AO2 T01560106
03812KAVL AVL20160430024010904/30/16 02:40:31  5-MIN KAVL 300740Z AUTO 00000KT 10SM CLR 16/11 A3004 2060 72 2600 000/00 RMK AO2 T01560106
03812KAVL AVL20160430024510904/30/16 02:45:31  5-MIN KAVL 300745Z AUTO 00000KT 10SM CLR 16/10 A3004 2060 69 2600 000/00 RMK AO2 T01560100
03812KAVL AVL20160430025011604/30/16 02:50:31  5-MIN KAVL 300750Z AUTO 00000KT 10SM CLR 16/10 A3003 2060 69 2600 000/00 RMK AO2 SLP144 T01560100
03812KAVL AVL20160430025510904/30/16 02:55:31  5-MIN KAVL 300755Z AUTO 00000KT 10SM CLR 16/11 A3003 2070 72 2600 000/00 RMK AO2 T01560106
03812KAVL AVL20160430030010904/30/16 03:00:31  5-MIN KAVL 300800Z AUTO 00000KT 10SM CLR 16/11 A3003 2060 72 2600 000/00 RMK AO2 T01560106
03812KAVL AVL20160430030511204/30/16 03:05:31  5-MIN KAVL 300805Z AUTO 00000KT 10SM FEW120 16/11 A3004 2060 72 2600 000/00 RMK AO2 T01560106
03812KAVL AVL20160430031011204/30/16 03:10:31  5-MIN KAVL 300810Z AUTO 00000KT 10SM SCT110 15/11 A3004 2060 74 2600 000/00 RMK AO2 T01500106
03812KAVL AVL20160430031511204/30/16 03:15:31  5-MIN KAVL 300815Z AUTO 00000KT 10SM BKN110 15/11 A3004 2060 74 2600 000/00 RMK AO2 T01500106
03812KAVL AVL20160430032011204/30/16 03:20:31  5-MIN KAVL 300820Z AUTO 00000KT 10SM BKN110 15/11 A3004 2060 74 2600 000/00 RMK AO2 T01500106
03812KAVL AVL20160430032511204/30/16 03:25:31  5-MIN KAVL 300825Z AUTO 00000KT 10SM BKN110 15/11 A3004 2060 74 2600 000/00 RMK AO2 T01500106
03812KAVL AVL20160430033011204/30/16 03:30:31  5-MIN KAVL 300830Z AUTO 00000KT 10SM BKN110 15/11 A3004 2060 77 2600 000/00 RMK AO2 T01500111
03812KAVL AVL20160430033511204/30/16 03:35:31  5-MIN KAVL 300835Z AUTO 25005KT 10SM BKN110 15/11 A3004 2060 77 2600 250/05 RMK AO2 T01500111
03812KAVL AVL20160430034011204/30/16 03:40:31  5-MIN KAVL 300840Z AUTO 23003KT 10SM BKN110 14/11 A3004 2060 77 2500 240/03 RMK AO2 T01440106
03812KAVL AVL20160430034511204/30/16 03:45:31  5-MIN KAVL 300845Z AUTO 13004KT 10SM BKN100 15/11 A3003 2060 74 2600 130/04 RMK AO2 T01500106
03812KAVL AVL20160430035012504/30/16 03:50:31  5-MIN KAVL 300850Z AUTO 00000KT 10SM BKN100 15/11 A3003 2060 74 2600 000/00 RMK AO2 SLP146 T01500106 56005
03812KAVL AVL20160430035511204/30/16 03:55:31  5-MIN KAVL 300855Z AUTO 00000KT 10SM BKN110 15/11 A3004 2060 74 2600 000/00 RMK AO2 T01500106
03812KAVL AVL20160430040011204/30/16 04:00:31  5-MIN KAVL 300900Z AUTO 00000KT 10SM SCT110 15/11 A3004 2060 74 2600 000/00 RMK AO2 T01500106
03812KAVL AVL20160430040511204/30/16 04:05:31  5-MIN KAVL 300905Z AUTO 00000KT 10SM SCT110 15/11 A3004 2050 74 2600 000/00 RMK AO2 T01500106
03812KAVL AVL20160430041011204/30/16 04:10:31  5-MIN KAVL 300910Z AUTO 00000KT 10SM SCT110 14/11 A3004 2060 77 2500 000/00 RMK AO2 T01440106
03812KAVL AVL20160430041511204/30/16 04:15:31  5-MIN KAVL 300915Z AUTO 00000KT 10SM FEW110 14/11 A3004 2060 80 2500 000/00 RMK AO2 T01440111
03812KAVL AVL20160430042010904/30/16 04:20:31  5-MIN KAVL 300920Z AUTO 00000KT 10SM CLR 14/11 A3004 2060 77 2500 000/00 RMK AO2 T01440106
03812KAVL AVL20160430042510904/30/16 04:25:31  5-MIN KAVL 300925Z AUTO 00000KT 10SM CLR 15/11 A3004 2050 74 2600 000/00 RMK AO2 T01500106
03812KAVL AVL20160430043010904/30/16 04:30:31  5-MIN KAVL 300930Z AUTO 00000KT 10SM CLR 14/11 A3004 2050 77 2500 000/00 RMK AO2 T01440106
03812KAVL AVL20160430043510904/30/16 04:35:31  5-MIN KAVL 300935Z AUTO 00000KT 10SM CLR 14/11 A3004 2050 77 2500 000/00 RMK AO2 T01440106
03812KAVL AVL20160430044010904/30/16 04:40:31  5-MIN KAVL 300940Z AUTO 00000KT 10SM CLR 14/10 A3004 2050 74 2500 000/00 RMK AO2 T01440100
03812KAVL AVL20160430044510904/30/16 04:45:31  5-MIN KAVL 300945Z AUTO 00000KT 10SM CLR 14/10 A3004 2060 74 2500 000/00 RMK AO2 T01440100
03812KAVL AVL20160430045011604/30/16 04:50:31  5-MIN KAVL 300950Z AUTO 00000KT 10SM CLR 14/10 A3004 2060 74 2500 000/00 RMK AO2 SLP148 T01440100
03812KAVL AVL20160430045510904/30/16 04:55:31  5-MIN KAVL 300955Z AUTO 00000KT 10SM CLR 14/10 A3004 2060 74 2500 000/00 RMK AO2 T01440100
03812KAVL AVL20160430050010904/30/16 05:00:31  5-MIN KAVL 301000Z AUTO 00000KT 10SM CLR 14/10 A3004 2050 74 2500 000/00 RMK AO2 T01440100
03812KAVL AVL20160430050510904/30/16 05:05:31  5-MIN KAVL 301005Z AUTO 00000KT 10SM CLR 14/10 A3004 2050 74 2500 000/00 RMK AO2 T01440100
03812KAVL AVL20160430051010904/30/16 05:10:31  5-MIN KAVL 301010Z AUTO 00000KT 10SM CLR 13/10 A3004 2050 80 2400 000/00 RMK AO2 T01330100
03812KAVL AVL20160430051510404/30/16 05:15:31  5-MIN KAVL 301015Z 00000KT 10SM CLR 13/10 A3005 2050 80 2400 000/00 RMK AO2 T01330100
03812KAVL AVL20160430052010404/30/16 05:20:31  5-MIN KAVL 301020Z 14003KT 10SM CLR 13/10 A3005 2050 80 2400 140/03 RMK AO2 T01330100
03812KAVL AVL20160430052510404/30/16 05:25:31  5-MIN KAVL 301025Z 00000KT 10SM CLR 13/10 A3005 2050 80 2400 000/00 RMK AO2 T01330100
03812KAVL AVL20160430053010404/30/16 05:30:31  5-MIN KAVL 301030Z 00000KT 10SM CLR 13/10 A3005 2050 80 2400 000/00 RMK AO2 T01330100
03812KAVL AVL20160430053510404/30/16 05:35:31  5-MIN KAVL 301035Z 00000KT 10SM CLR 13/10 A3005 2050 80 2400 000/00 RMK AO2 T01330100
03812KAVL AVL20160430054010404/30/16 05:40:31  5-MIN KAVL 301040Z 00000KT 10SM CLR 13/10 A3005 2040 80 2400 000/00 RMK AO2 T01330100
03812KAVL AVL20160430054510404/30/16 05:45:31  5-MIN KAVL 301045Z 00000KT 10SM CLR 13/10 A3006 2040 80 2400 000/00 RMK AO2 T01330100
03812KAVL AVL20160430055011104/30/16 05:50:31  5-MIN KAVL 301050Z 21003KT 10SM CLR 13/10 A3006 2040 80 2400 210/03 RMK AO2 SLP158 T01330100
03812KAVL AVL20160430055510404/30/16 05:55:31  5-MIN KAVL 301055Z 19003KT 10SM CLR 13/11 A3006 2030 86 2300 200/03 RMK AO2 T01280106
03812KAVL AVL20160430060010404/30/16 06:00:31  5-MIN KAVL 301100Z 18003KT 10SM CLR 13/11 A3006 2040 86 2300 190/03 RMK AO2 T01280106
03812KAVL AVL20160430060510404/30/16 06:05:31  5-MIN KAVL 301105Z 16003KT 10SM CLR 13/11 A3006 2040 86 2300 170/03 RMK AO2 T01280106
03812KAVL AVL20160430061010404/30/16 06:10:31  5-MIN KAVL 301110Z 16003KT 10SM CLR 13/11 A3007 2030 83 2300 170/03 RMK AO2 T01330106
03812KAVL AVL20160430061510404/30/16 06:15:31  5-MIN KAVL 301115Z 00000KT 10SM CLR 13/11 A3007 2030 83 2300 000/00 RMK AO2 T01330106
03812KAVL AVL20160430062010404/30/16 06:20:31  5-MIN KAVL 301120Z 00000KT 10SM CLR 13/11 A3007 2030 83 2300 000/00 RMK AO2 T01330106
03812KAVL AVL20160430062510404/30/16 06:25:31  5-MIN KAVL 301125Z 00000KT 10SM CLR 13/11 A3006 2030 83 2400 000/00 RMK AO2 T01330106
03812KAVL AVL20160430063010404/30/16 06:30:31  5-MIN KAVL 301130Z 00000KT 10SM CLR 14/11 A3007 2030 80 2400 000/00 RMK AO2 T01390106
03812KAVL AVL20160430063510404/30/16 06:35:31  5-MIN KAVL 301135Z 00000KT 10SM CLR 14/11 A3007 2030 80 2400 000/00 RMK AO2 T01390106
03812KAVL AVL20160430064010404/30/16 06:40:31  5-MIN KAVL 301140Z 00000KT 10SM CLR 13/11 A3007 2030 83 2300 000/00 RMK AO2 T01330106
03812KAVL AVL20160430064510404/30/16 06:45:31  5-MIN KAVL 301145Z 00000KT 10SM CLR 13/11 A3007 2030 83 2300 000/00 RMK AO2 T01330106
03812KAVL AVL20160430065012904/30/16 06:50:31  5-MIN KAVL 301150Z 16003KT 10SM CLR 14/11 A3007 2030 80 2400 170/03 RMK AO2 SLP160 T01390106 10172 20128 55005
03812KAVL AVL20160430065510404/30/16 06:55:31  5-MIN KAVL 301155Z 17003KT 10SM CLR 14/10 A3006 2040 77 2400 170/03 RMK AO2 T01390100
03812KAVL AVL20160430070010404/30/16 07:00:31  5-MIN KAVL 301200Z 00000KT 10SM CLR 14/10 A3007 2030 74 2500 000/00 RMK AO2 T01440100
03812KAVL AVL20160430070510404/30/16 07:05:31  5-MIN KAVL 301205Z 14003KT 10SM CLR 14/10 A3007 2030 74 2500 140/03 RMK AO2 T01440100
03812KAVL AVL20160430071010404/30/16 07:10:31  5-MIN KAVL 301210Z 14003KT 10SM CLR 14/09 A3006 2040 74 2400 140/03 RMK AO2 T01390094
03812KAVL AVL20160430071510404/30/16 07:15:31  5-MIN KAVL 301215Z 15003KT 10SM CLR 14/10 A3007 2030 74 2500 160/03 RMK AO2 T01440100
03812KAVL AVL20160430072010404/30/16 07:20:31  5-MIN KAVL 301220Z 00000KT 10SM CLR 14/11 A3007 2030 77 2500 000/00 RMK AO2 T01440106
03812KAVL AVL20160430072510404/30/16 07:25:31  5-MIN KAVL 301225Z 00000KT 10SM CLR 15/11 A3007 2030 74 2500 000/00 RMK AO2 T01500106
03812KAVL AVL20160430073010404/30/16 07:30:31  5-MIN KAVL 301230Z 00000KT 10SM CLR 15/10 A3007 2030 72 2500 000/00 RMK AO2 T01500100
03812KAVL AVL20160430073510404/30/16 07:35:31  5-MIN KAVL 301235Z 00000KT 10SM CLR 16/11 A3007 2030 72 2600 000/00 RMK AO2 T01560106
03812KAVL AVL20160430074010404/30/16 07:40:31  5-MIN KAVL 301240Z 00000KT 10SM CLR 16/10 A3007 2030 69 2600 000/00 RMK AO2 T01560100
03812KAVL AVL20160430074510404/30/16 07:45:31  5-MIN KAVL 301245Z 00000KT 10SM CLR 16/11 A3007 2030 72 2600 000/00 RMK AO2 T01560106
03812KAVL AVL20160430075011104/30/16 07:50:31  5-MIN KAVL 301250Z 00000KT 10SM CLR 16/11 A3007 2030 69 2700 000/00 RMK AO2 SLP162 T01610106
03812KAVL AVL20160430075510404/30/16 07:55:31  5-MIN KAVL 301255Z 00000KT 10SM CLR 17/11 A3007 2030 67 2700 000/00 RMK AO2 T01670106
03812KAVL AVL20160430080010404/30/16 08:00:31  5-MIN KAVL 301300Z 00000KT 10SM CLR 17/10 A3007 2030 64 2700 000/00 RMK AO2 T01670100
03812KAVL AVL20160430080510404/30/16 08:05:31  5-MIN KAVL 301305Z 00000KT 10SM CLR 18/11 A3008 2020 62 2900 000/00 RMK AO2 T01780106
03812KAVL AVL20160430081010404/30/16 08:10:31  5-MIN KAVL 301310Z 00000KT 10SM CLR 18/11 A3008 2020 60 2900 000/00 RMK AO2 T01830106
03812KAVL AVL20160430081510404/30/16 08:15:31  5-MIN KAVL 301315Z 00000KT 10SM CLR 18/11 A3008 2020 60 2900 000/00 RMK AO2 T01830106
03812KAVL AVL20160430082010404/30/16 08:20:31  5-MIN KAVL 301320Z 00000KT 10SM CLR 19/11 A3008 2020 58 3000 000/00 RMK AO2 T01890106
03812KAVL AVL20160430082510404/30/16 08:25:31  5-MIN KAVL 301325Z 00000KT 10SM CLR 19/11 A3008 2020 58 3000 000/00 RMK AO2 T01890106
03812KAVL AVL20160430083010404/30/16 08:30:31  5-MIN KAVL 301330Z 22003KT 10SM CLR 19/11 A3008 2020 58 3000 230/03 RMK AO2 T01890106
03812KAVL AVL20160430083510404/30/16 08:35:31  5-MIN KAVL 301335Z VRB03KT 10SM CLR 19/10 A3008 2020 56 3000 VRB/03 RMK AO2 T01890100
03812KAVL AVL20160430084010404/30/16 08:40:31  5-MIN KAVL 301340Z 17004KT 10SM CLR 19/10 A3008 2020 56 3000 180/04 RMK AO2 T01890100
03812KAVL AVL20160430084510404/30/16 08:45:31  5-MIN KAVL 301345Z 19004KT 10SM CLR 19/10 A3008 2020 54 3000 190/04 RMK AO2 T01940100
03812KAVL AVL20160430085011104/30/16 08:50:31  5-MIN KAVL 301350Z 19004KT 10SM CLR 19/10 A3009 2010 54 3000 200/04 RMK AO2 SLP167 T01940100
03812KAVL AVL20160430085510404/30/16 08:55:31  5-MIN KAVL 301355Z 18005KT 10SM CLR 19/10 A3009 2010 54 3000 190/05 RMK AO2 T01940100
03812KAVL AVL20160430090010404/30/16 09:00:31  5-MIN KAVL 301400Z 19004KT 10SM CLR 19/10 A3009 2010 54 3000 200/04 RMK AO2 T01940100
03812KAVL AVL20160430090510404/30/16 09:05:31  5-MIN KAVL 301405Z 18004KT 10SM CLR 19/10 A3010 2000 54 3000 180/04 RMK AO2 T01940100
03812KAVL AVL20160430091010404/30/16 09:10:31  5-MIN KAVL 301410Z 21004KT 10SM CLR 20/10 A3010 2000 52 3100 210/04 RMK AO2 T02000100
03812KAVL AVL20160430091510404/30/16 09:15:31  5-MIN KAVL 301415Z 19005KT 10SM CLR 20/11 A3010 2000 54 3100 200/05 RMK AO2 T02000106
03812KAVL AVL20160430092010704/30/16 09:20:31  5-MIN KAVL 301420Z 18004KT 10SM FEW090 20/10 A3010 2000 52 3100 190/04 RMK AO2 T02000100
03812KAVL AVL20160430092510704/30/16 09:25:31  5-MIN KAVL 301425Z 19004KT 10SM SCT095 20/10 A3010 2000 52 3100 190/04 RMK AO2 T02000100
03812KAVL AVL20160430093010704/30/16 09:30:31  5-MIN KAVL 301430Z 19005KT 10SM SCT095 20/11 A3010 2000 54 3100 200/05 RMK AO2 T02000106
03812KAVL AVL20160430093510704/30/16 09:35:31  5-MIN KAVL 301435Z 19007KT 10SM BKN095 20/11 A3011 2000 54 3100 200/07 RMK AO2 T02000106
03812KAVL AVL20160430094010704/30/16 09:40:31  5-MIN KAVL 301440Z 19009KT 10SM BKN090 20/11 A3011 2000 54 3100 190/09 RMK AO2 T02000106
03812KAVL AVL20160430094510704/30/16 09:45:31  5-MIN KAVL 301445Z 19008KT 10SM BKN090 21/11 A3011 2000 52 3100 190/08 RMK AO2 T02060106
03812KAVL AVL20160430095012004/30/16 09:50:31  5-MIN KAVL 301450Z 18009KT 10SM BKN095 21/11 A3011 2000 52 3100 190/09 RMK AO2 SLP171 T02060106 50008
03812KAVL AVL20160430095510704/30/16 09:55:31  5-MIN KAVL 301455Z 17008KT 10SM BKN095 21/11 A3011 2000 54 3100 180/08 RMK AO2 T02060111
03812KAVL AVL20160430100010704/30/16 10:00:31  5-MIN KAVL 301500Z 15009KT 10SM BKN095 21/11 A3010 2000 54 3100 160/09 RMK AO2 T02060111
03812KAVL AVL20160430100510704/30/16 10:05:31  5-MIN KAVL 301505Z 16010KT 10SM BKN090 21/12 A3010 2000 56 3100 170/10 RMK AO2 T02060117
03812KAVL AVL20160430101010704/30/16 10:10:31  5-MIN KAVL 301510Z 15006KT 10SM BKN090 21/12 A3010 2000 54 3200 160/06 RMK AO2 T02110117
03812KAVL AVL20160430101510704/30/16 10:15:31  5-MIN KAVL 301515Z 17010KT 10SM BKN095 21/12 A3010 2000 58 3100 170/10 RMK AO2 T02060122
03812KAVL AVL20160430102010704/30/16 10:20:31  5-MIN KAVL 301520Z 17009KT 10SM BKN090 21/12 A3010 2000 58 3100 170/09 RMK AO2 T02060122
03812KAVL AVL20160430102510704/30/16 10:25:31  5-MIN KAVL 301525Z 16007KT 10SM BKN095 20/12 A3010 2000 60 3100 170/07 RMK AO2 T02000122
03812KAVL AVL20160430103010704/30/16 10:30:31  5-MIN KAVL 301530Z 16008KT 10SM BKN095 21/12 A3010 2000 58 3100 160/08 RMK AO2 T02060122
03812KAVL AVL20160430103510704/30/16 10:35:31  5-MIN KAVL 301535Z 16007KT 10SM BKN100 21/12 A3010 2000 58 3100 160/07 RMK AO2 T02060122
03812KAVL AVL20160430104010704/30/16 10:40:31  5-MIN KAVL 301540Z 14007KT 10SM OVC100 21/12 A3010 2000 56 3200 140/07 RMK AO2 T02110122
