04850KAOH AOH20160701000011107/01/16 00:00:31  5-MIN KAOH 010500Z AUTO 17005KT 10SM OVC100 19/13 A2995 950 67 1700 180/05 RMK AO2 T01940133
04850KAOH AOH20160701000511107/01/16 00:05:31  5-MIN KAOH 010505Z AUTO 16006KT 10SM OVC100 19/14 A2995 950 70 1700 160/06 RMK AO2 T01940139
04850KAOH AOH20160701001011807/01/16 00:10:31  5-MIN KAOH 010510Z AUTO 17005KT 10SM BKN085 OVC110 19/14 A2995 950 70 1700 170/05 RMK AO2 T01940139
04850KAOH AOH20160701001511807/01/16 00:15:31  5-MIN KAOH 010515Z AUTO 17004KT 10SM BKN080 OVC100 19/14 A2995 950 70 1700 180/04 RMK AO2 T01940139
04850KAOH AOH20160701002011807/01/16 00:20:31  5-MIN KAOH 010520Z AUTO 16005KT 10SM BKN080 OVC100 19/14 A2995 950 72 1700 170/05 RMK AO2 T01940144
04850KAOH AOH20160701002511807/01/16 00:25:31  5-MIN KAOH 010525Z AUTO 16006KT 10SM BKN080 OVC110 19/14 A2995 950 72 1700 160/06 RMK AO2 T01940144
04850KAOH AOH20160701102511807/01/16 10:25:31  5-MIN KAOH 011525Z AUTO 32012KT 10SM FEW025 BKN036 22/17 A2996 940 73 2000 330/12 RMK AO2 T02220172
04850KAOH AOH20160701103011807/01/16 10:30:31  5-MIN KAOH 011530Z AUTO 32010KT 10SM SCT025 BKN036 22/17 A2996 940 75 2000 330/10 RMK AO2 T02170172
04850KAOH AOH20160701103511807/01/16 10:35:31  5-MIN KAOH 011535Z AUTO 32012KT 10SM SCT025 BKN036 22/17 A2997 930 73 2000 320/12 RMK AO2 T02220172
04850KAOH AOH20160701104011807/01/16 10:40:31  5-MIN KAOH 011540Z AUTO 33009KT 10SM FEW025 BKN038 23/17 A2997 930 70 2100 340/09 RMK AO2 T02280172
04850KAOH AOH20160701104512507/01/16 10:45:31  5-MIN KAOH 011545Z AUTO 31011KT 10SM SCT025 BKN036 BKN044 22/17 A2997 930 75 2000 320/11 RMK AO2 T02170172
04850KAOH AOH20160701105013207/01/16 10:50:31  5-MIN KAOH 011550Z AUTO 31012KT 10SM FEW025 SCT035 BKN042 22/17 A2998 930 73 2000 320/12 RMK AO2 SLP145 T02170167
04850KAOH AOH20160701105511807/01/16 10:55:31  5-MIN KAOH 011555Z AUTO 32012KT 10SM FEW025 BKN040 22/17 A2998 930 70 2000 330/12 RMK AO2 T02220167
04850KAOH AOH20160701110011807/01/16 11:00:31  5-MIN KAOH 011600Z AUTO 33011KT 10SM FEW025 SCT040 22/17 A2998 930 73 2000 330/11 RMK AO2 T02220172
04850KAOH AOH20160701110512507/01/16 11:05:31  5-MIN KAOH 011605Z AUTO 31012KT 10SM FEW025 SCT033 BKN042 22/17 A2998 930 73 2000 310/12 RMK AO2 T02220172
04850KAOH AOH20160701111012507/01/16 11:10:31  5-MIN KAOH 011610Z AUTO 30014KT 10SM FEW025 SCT033 BKN042 22/17 A2998 920 73 1900 310/14 RMK AO2 T02170167
04850KAOH AOH20160701111511807/01/16 11:15:31  5-MIN KAOH 011615Z AUTO 32010KT 10SM FEW025 SCT039 22/17 A2998 920 70 2000 330/10 RMK AO2 T02220167
04850KAOH AOH20160701112011807/01/16 11:20:31  5-MIN KAOH 011620Z AUTO 30013KT 10SM FEW025 SCT037 22/17 A2998 920 70 2000 310/13 RMK AO2 T02220167
04850KAOH AOH20160701112511807/01/16 11:25:31  5-MIN KAOH 011625Z AUTO 30012KT 10SM FEW027 SCT037 22/17 A2999 920 70 2000 310/12 RMK AO2 T02220167
04850KAOH AOH20160701113011807/01/16 11:30:31  5-MIN KAOH 011630Z AUTO 31012KT 10SM FEW027 BKN037 22/17 A2999 920 70 2000 310/12 RMK AO2 T02220167
04850KAOH AOH20160701113511807/01/16 11:35:31  5-MIN KAOH 011635Z AUTO 31010KT 10SM FEW027 SCT037 22/17 A2999 920 70 2000 310/10 RMK AO2 T02220167
04850KAOH AOH20160701114011807/01/16 11:40:31  5-MIN KAOH 011640Z AUTO 32012KT 10SM FEW027 SCT037 23/17 A2999 910 70 2100 330/12 RMK AO2 T02280172
04850KAOH AOH20160701114511807/01/16 11:45:31  5-MIN KAOH 011645Z AUTO 31011KT 10SM FEW028 FEW038 23/17 A2999 910 68 2100 320/11 RMK AO2 T02280167
04850KAOH AOH20160701115012507/01/16 11:50:31  5-MIN KAOH 011650Z AUTO 32013KT 10SM FEW028 SCT036 23/16 A2999 910 65 2100 330/13 RMK AO2 SLP151 T02280161
04850KAOH AOH20160701115511107/01/16 11:55:31  5-MIN KAOH 011655Z AUTO 32013KT 10SM SCT036 22/15 A2999 910 63 2000 320/13 RMK AO2 T02220150
04850KAOH AOH20160701120011107/01/16 12:00:31  5-MIN KAOH 011700Z AUTO 31013KT 10SM FEW036 23/16 A2999 910 63 2100 320/13 RMK AO2 T02280156
04850KAOH AOH20160701120511107/01/16 12:05:31  5-MIN KAOH 011705Z AUTO 33012KT 10SM SCT036 22/16 A2999 910 68 2000 330/12 RMK AO2 T02220161
04850KAOH AOH20160701121011107/01/16 12:10:31  5-MIN KAOH 011710Z AUTO 33010KT 10SM SCT036 22/16 A2999 910 65 2000 340/10 RMK AO2 T02220156
04850KAOH AOH20160701121511107/01/16 12:15:31  5-MIN KAOH 011715Z AUTO 32010KT 10SM SCT036 22/15 A2999 910 63 2000 330/10 RMK AO2 T02220150
04850KAOH AOH20160701122011107/01/16 12:20:31  5-MIN KAOH 011720Z AUTO 30011KT 10SM SCT036 23/16 A2999 910 63 2100 310/11 RMK AO2 T02280156
04850KAOH AOH20160701122511107/01/16 12:25:31  5-MIN KAOH 011725Z AUTO 30011KT 10SM SCT036 23/16 A2999 910 63 2100 300/11 RMK AO2 T02280156
04850KAOH AOH20160701123011107/01/16 12:30:31  5-MIN KAOH 011730Z AUTO 33009KT 10SM SCT038 23/16 A2999 910 63 2100 340/09 RMK AO2 T02330161
04850KAOH AOH20160701123511107/01/16 12:35:31  5-MIN KAOH 011735Z AUTO 34010KT 10SM BKN040 23/16 A2999 910 63 2100 350/10 RMK AO2 T02280156
04850KAOH AOH20160701124011807/01/16 12:40:31  5-MIN KAOH 011740Z AUTO 33009KT 10SM BKN040 BKN047 23/16 A2999 910 63 2100 330/09 RMK AO2 T02280156
04850KAOH AOH20160701124511807/01/16 12:45:31  5-MIN KAOH 011745Z AUTO 33012KT 10SM BKN040 BKN049 23/16 A2999 910 63 2100 330/12 RMK AO2 T02330161
04850KAOH AOH20160701125014307/01/16 12:50:31  5-MIN KAOH 011750Z AUTO 34011KT 10SM BKN040 BKN049 23/15 A2999 910 61 2100 340/11 RMK AO2 SLP151 T02280150 10233 20178 53008
04850KAOH AOH20160701125511807/01/16 12:55:31  5-MIN KAOH 011755Z AUTO 32012KT 10SM BKN040 BKN049 23/16 A2999 910 61 2100 330/12 RMK AO2 T02330156
04850KAOH AOH20160701130011807/01/16 13:00:31  5-MIN KAOH 011800Z AUTO 32010KT 10SM SCT040 BKN049 23/16 A2999 910 61 2100 320/10 RMK AO2 T02330156
04850KAOH AOH20160701130512407/01/16 13:05:31  5-MIN KAOH 011805Z AUTO 30011G16KT 10SM SCT040 SCT049 24/16 A3000 910 61 2200 310/11G16 RMK AO2 T02390161
04850KAOH AOH20160701131011807/01/16 13:10:31  5-MIN KAOH 011810Z AUTO 33011KT 10SM SCT040 BKN047 23/16 A3000 910 61 2100 340/11 RMK AO2 T02330156
04850KAOH AOH20160701131511807/01/16 13:15:31  5-MIN KAOH 011815Z AUTO 33010KT 10SM SCT038 BKN047 23/16 A3000 900 63 2100 330/10 RMK AO2 T02330161
04850KAOH AOH20160701132012407/01/16 13:20:31  5-MIN KAOH 011820Z AUTO 32014G17KT 10SM FEW038 SCT050 23/16 A3000 900 63 2100 330/14G17 RMK AO2 T02330161
04850KAOH AOH20160701132512507/01/16 13:25:31  5-MIN KAOH 011825Z AUTO 33010KT 10SM FEW038 FEW047 SCT055 23/16 A3000 910 63 2100 340/10 RMK AO2 T02280156
04850KAOH AOH20160701133012507/01/16 13:30:31  5-MIN KAOH 011830Z AUTO 32013KT 10SM FEW038 FEW047 SCT055 23/16 A3000 910 61 2100 330/13 RMK AO2 T02330156
04850KAOH AOH20160701133512507/01/16 13:35:31  5-MIN KAOH 011835Z AUTO 32009KT 10SM FEW038 FEW047 BKN055 23/15 A3000 900 61 2100 330/09 RMK AO2 T02280150
04850KAOH AOH20160701134011807/01/16 13:40:31  5-MIN KAOH 011840Z AUTO 32011KT 10SM FEW039 SCT050 23/15 A3000 910 59 2100 320/11 RMK AO2 T02330150
04850KAOH AOH20160701134511707/01/16 13:45:31  5-MIN KAOH 011845Z AUTO 31015G20KT 10SM SCT055 23/15 A3000 910 59 2100 320/15G20 RMK AO2 T02330150
04850KAOH AOH20160701135012407/01/16 13:50:31  5-MIN KAOH 011850Z AUTO 31010G20KT 10SM SCT050 23/14 A3000 910 57 2100 310/10G20 RMK AO2 SLP152 T02330144
04850KAOH AOH20160701135511807/01/16 13:55:31  5-MIN KAOH 011855Z AUTO 33014KT 10SM FEW045 SCT055 23/15 A3000 900 59 2100 330/14 RMK AO2 T02330150
04850KAOH AOH20160701140011807/01/16 14:00:31  5-MIN KAOH 011900Z AUTO 31014KT 10SM FEW045 SCT055 23/15 A3000 900 59 2100 320/14 RMK AO2 T02330150
04850KAOH AOH20160701140511807/01/16 14:05:31  5-MIN KAOH 011905Z AUTO 32012KT 10SM FEW045 SCT055 23/14 A3001 900 57 2100 330/12 RMK AO2 T02330144
04850KAOH AOH20160701141012707/01/16 14:10:31  5-MIN KAOH 011910Z AUTO 31011KT 290V350 10SM FEW055 23/14 A3001 900 55 2100 310/11 300V360 RMK AO2 T02330139
04850KAOH AOH20160701141511107/01/16 14:15:31  5-MIN KAOH 011915Z AUTO 32009KT 10SM FEW055 24/14 A3001 900 53 2200 330/09 RMK AO2 T02390139
04850KAOH AOH20160701142011107/01/16 14:20:31  5-MIN KAOH 011920Z AUTO 31011KT 10SM FEW055 23/14 A3000 900 57 2100 320/11 RMK AO2 T02330144
04850KAOH AOH20160701142511107/01/16 14:25:31  5-MIN KAOH 011925Z AUTO 30013KT 10SM FEW060 24/14 A3000 900 53 2200 310/13 RMK AO2 T02390139
04850KAOH AOH20160701143010807/01/16 14:30:31  5-MIN KAOH 011930Z AUTO 30009KT 10SM CLR 23/14 A3000 900 55 2100 300/09 RMK AO2 T02330139
04850KAOH AOH20160701143510807/01/16 14:35:31  5-MIN KAOH 011935Z AUTO 32011KT 10SM CLR 23/14 A3000 900 55 2100 330/11 RMK AO2 T02330139
04850KAOH AOH20160701144011707/01/16 14:40:31  5-MIN KAOH 011940Z AUTO 32013G17KT 10SM FEW060 24/14 A3000 900 55 2200 330/13G17 RMK AO2 T02390144
04850KAOH AOH20160701144511107/01/16 14:45:31  5-MIN KAOH 011945Z AUTO 31011KT 10SM FEW060 23/13 A3000 900 53 2100 310/11 RMK AO2 T02330133
04850KAOH AOH20160701145011807/01/16 14:50:31  5-MIN KAOH 011950Z AUTO 34009KT 10SM FEW060 23/13 A3000 900 53 2100 340/09 RMK AO2 SLP154 T02330133
04850KAOH AOH20160701145511807/01/16 14:55:31  5-MIN KAOH 011955Z AUTO 32011KT 10SM FEW050 SCT060 24/13 A3000 900 51 2200 330/11 RMK AO2 T02390133
04850KAOH AOH20160701150011107/01/16 15:00:31  5-MIN KAOH 012000Z AUTO 32010KT 10SM SCT055 24/13 A3000 900 51 2200 330/10 RMK AO2 T02390133
04850KAOH AOH20160701150511107/01/16 15:05:31  5-MIN KAOH 012005Z AUTO 31012KT 10SM BKN055 23/13 A3000 900 53 2100 320/12 RMK AO2 T02330133
04850KAOH AOH20160701151011107/01/16 15:10:31  5-MIN KAOH 012010Z AUTO 32009KT 10SM SCT055 23/13 A3000 900 51 2100 320/09 RMK AO2 T02330128
04850KAOH AOH20160701151511107/01/16 15:15:31  5-MIN KAOH 012015Z AUTO 31010KT 10SM SCT055 24/13 A3000 900 49 2200 320/10 RMK AO2 T02390128
04850KAOH AOH20160701152011107/01/16 15:20:31  5-MIN KAOH 012020Z AUTO 35011KT 10SM BKN050 24/13 A3000 900 51 2200 360/11 RMK AO2 T02390133
04850KAOH AOH20160701152511107/01/16 15:25:31  5-MIN KAOH 012025Z AUTO 31013KT 10SM SCT050 24/13 A3000 900 49 2200 310/13 RMK AO2 T02440133
04850KAOH AOH20160701153011107/01/16 15:30:31  5-MIN KAOH 012030Z AUTO 31009KT 10SM SCT050 24/13 A3000 900 47 2200 320/09 RMK AO2 T02440128
04850KAOH AOH20160701153511107/01/16 15:35:31  5-MIN KAOH 012035Z AUTO 33007KT 10SM FEW055 24/13 A3000 900 47 2200 330/07 RMK AO2 T02440128
04850KAOH AOH20160701154011107/01/16 15:40:31  5-MIN KAOH 012040Z AUTO 33007KT 10SM FEW055 24/13 A3000 900 49 2200 340/07 RMK AO2 T02390128
04850KAOH AOH20160701154511107/01/16 15:45:31  5-MIN KAOH 012045Z AUTO 32008KT 10SM FEW055 24/12 A3001 900 47 2200 330/08 RMK AO2 T02390122
04850KAOH AOH20160701155012407/01/16 15:50:31  5-MIN KAOH 012050Z AUTO 33007KT 10SM FEW060 23/12 A3001 900 49 2100 330/07 RMK AO2 SLP156 T02330122 51012
04850KAOH AOH20160701155511107/01/16 15:55:31  5-MIN KAOH 012055Z AUTO 35006KT 10SM SCT060 23/12 A3001 900 49 2100 360/06 RMK AO2 T02330122
04850KAOH AOH20160701160011107/01/16 16:00:31  5-MIN KAOH 012100Z AUTO 33006KT 10SM SCT065 24/13 A3000 900 49 2200 330/06 RMK AO2 T02390128
04850KAOH AOH20160701160511107/01/16 16:05:31  5-MIN KAOH 012105Z AUTO 33009KT 10SM SCT070 23/13 A3001 900 51 2100 340/09 RMK AO2 T02330128
04850KAOH AOH20160701161011807/01/16 16:10:31  5-MIN KAOH 012110Z AUTO 33006KT 10SM SCT055 BKN070 23/13 A3000 900 51 2100 340/06 RMK AO2 T02330128
04850KAOH AOH20160701161511807/01/16 16:15:31  5-MIN KAOH 012115Z AUTO 32007KT 10SM SCT055 BKN070 24/13 A3001 900 51 2200 320/07 RMK AO2 T02390133
04850KAOH AOH20160701162011807/01/16 16:20:31  5-MIN KAOH 012120Z AUTO 33010KT 10SM BKN060 BKN070 24/13 A3001 900 51 2200 340/10 RMK AO2 T02390133
04850KAOH AOH20160701162511107/01/16 16:25:31  5-MIN KAOH 012125Z AUTO 34008KT 10SM BKN060 24/13 A3001 900 49 2200 350/08 RMK AO2 T02390128
04850KAOH AOH20160701163011807/01/16 16:30:31  5-MIN KAOH 012130Z AUTO 34008KT 10SM BKN055 BKN070 23/13 A3001 890 53 2100 340/08 RMK AO2 T02330133
04850KAOH AOH20160701163511807/01/16 16:35:31  5-MIN KAOH 012135Z AUTO 34009KT 10SM BKN055 BKN070 24/13 A3001 890 51 2200 340/09 RMK AO2 T02390133
04850KAOH AOH20160701164011807/01/16 16:40:31  5-MIN KAOH 012140Z AUTO 33011KT 10SM BKN055 BKN070 24/13 A3001 900 49 2200 340/11 RMK AO2 T02390128
04850KAOH AOH20160701164511707/01/16 16:45:31  5-MIN KAOH 012145Z AUTO 31012G17KT 10SM BKN060 24/13 A3001 890 47 2200 310/12G17 RMK AO2 T02440128
04850KAOH AOH20160701165012507/01/16 16:50:31  5-MIN KAOH 012150Z AUTO 33010KT 10SM SCT055 BKN070 24/13 A3001 890 49 2200 340/10 RMK AO2 SLP158 T02440133
04850KAOH AOH20160701165511807/01/16 16:55:31  5-MIN KAOH 012155Z AUTO 35009KT 10SM BKN055 BKN070 24/13 A3002 890 47 2200 350/09 RMK AO2 T02440128
04850KAOH AOH20160701170011107/01/16 17:00:31  5-MIN KAOH 012200Z AUTO 35010KT 10SM BKN060 24/13 A3002 890 47 2200 350/10 RMK AO2 T02440128
04850KAOH AOH20160701170511807/01/16 17:05:31  5-MIN KAOH 012205Z AUTO 34009KT 10SM BKN060 BKN070 24/13 A3002 890 47 2200 350/09 RMK AO2 T02440128
04850KAOH AOH20160701171011807/01/16 17:10:31  5-MIN KAOH 012210Z AUTO 33009KT 10SM BKN060 BKN070 24/12 A3002 890 46 2200 340/09 RMK AO2 T02440122
04850KAOH AOH20160701171511807/01/16 17:15:31  5-MIN KAOH 012215Z AUTO 31009KT 10SM SCT055 BKN070 24/13 A3002 880 51 2200 310/09 RMK AO2 T02390133
04850KAOH AOH20160701172012407/01/16 17:20:31  5-MIN KAOH 012220Z AUTO 33013G16KT 10SM BKN055 BKN070 24/12 A3002 880 47 2200 330/13G16 RMK AO2 T02390122
04850KAOH AOH20160701172511107/01/16 17:25:31  5-MIN KAOH 012225Z AUTO 32013KT 10SM BKN060 23/12 A3002 880 49 2100 330/13 RMK AO2 T02330122
04850KAOH AOH20160701173011107/01/16 17:30:31  5-MIN KAOH 012230Z AUTO 33009KT 10SM BKN060 23/12 A3003 880 49 2100 330/09 RMK AO2 T02330122
04850KAOH AOH20160701173511807/01/16 17:35:31  5-MIN KAOH 012235Z AUTO 32010KT 10SM SCT055 BKN070 24/12 A3002 880 47 2200 320/10 RMK AO2 T02390122
04850KAOH AOH20160701174011107/01/16 17:40:31  5-MIN KAOH 012240Z AUTO 34011KT 10SM BKN060 23/12 A3002 880 49 2100 350/11 RMK AO2 T02330122
04850KAOH AOH20160701174511707/01/16 17:45:31  5-MIN KAOH 012245Z AUTO 33013G18KT 10SM SCT060 24/12 A3003 880 47 2100 330/13G18 RMK AO2 T02390122
04850KAOH AOH20160701175012407/01/16 17:50:31  5-MIN KAOH 012250Z AUTO 31014G19KT 10SM SCT060 24/13 A3003 880 49 2100 320/14G19 RMK AO2 SLP162 T02390128
04850KAOH AOH20160701175511707/01/16 17:55:31  5-MIN KAOH 012255Z AUTO 31014G19KT 10SM SCT060 24/12 A3003 880 47 2100 320/14G19 RMK AO2 T02390122
04850KAOH AOH20160701180011107/01/16 18:00:31  5-MIN KAOH 012300Z AUTO 33010KT 10SM FEW060 23/12 A3003 880 49 2100 340/10 RMK AO2 T02330122
04850KAOH AOH20160701180511107/01/16 18:05:31  5-MIN KAOH 012305Z AUTO 33011KT 10SM FEW060 23/12 A3003 880 49 2000 340/11 RMK AO2 T02280117
04850KAOH AOH20160701181011107/01/16 18:10:31  5-MIN KAOH 012310Z AUTO 33008KT 10SM FEW060 23/12 A3003 880 51 2000 340/08 RMK AO2 T02280122
04850KAOH AOH20160701181511107/01/16 18:15:31  5-MIN KAOH 012315Z AUTO 34011KT 10SM SCT060 23/12 A3003 880 49 2000 350/11 RMK AO2 T02280117
04850KAOH AOH20160701182011107/01/16 18:20:31  5-MIN KAOH 012320Z AUTO 32011KT 10SM SCT060 23/12 A3003 880 49 2000 330/11 RMK AO2 T02280117
04850KAOH AOH20160701182511107/01/16 18:25:31  5-MIN KAOH 012325Z AUTO 32009KT 10SM FEW060 23/12 A3003 870 49 2000 330/09 RMK AO2 T02280117
04850KAOH AOH20160701183011107/01/16 18:30:31  5-MIN KAOH 012330Z AUTO 32010KT 10SM FEW060 23/12 A3003 870 49 2000 330/10 RMK AO2 T02280117
04850KAOH AOH20160701183511107/01/16 18:35:31  5-MIN KAOH 012335Z AUTO 32010KT 10SM FEW060 23/12 A3003 870 49 2000 320/10 RMK AO2 T02280117
04850KAOH AOH20160701184011107/01/16 18:40:31  5-MIN KAOH 012340Z AUTO 33010KT 10SM FEW060 23/12 A3003 870 49 2000 340/10 RMK AO2 T02280117
04850KAOH AOH20160701184511107/01/16 18:45:31  5-MIN KAOH 012345Z AUTO 34008KT 10SM FEW060 23/12 A3003 870 49 2000 350/08 RMK AO2 T02280117
04850KAOH AOH20160701185013307/01/16 18:50:31  5-MIN KAOH 012350Z AUTO 34007KT 10SM CLR 23/12 A3003 870 49 2000 350/07 RMK AO2 SLP165 T02280117 10244 20228 51004
04850KAOH AOH20160701185510807/01/16 18:55:31  5-MIN KAOH 012355Z AUTO 33006KT 10SM CLR 23/12 A3003 870 51 2000 330/06 RMK AO2 T02280122
04850KAOH AOH20160701190010807/01/16 19:00:31  5-MIN KAOH 020000Z AUTO 33008KT 10SM CLR 22/12 A3004 870 52 1900 330/08 RMK AO2 T02220122
04850KAOH AOH20160701190510807/01/16 19:05:31  5-MIN KAOH 020005Z AUTO 33011KT 10SM CLR 22/12 A3004 870 51 1900 340/11 RMK AO2 T02220117
04850KAOH AOH20160701191010807/01/16 19:10:31  5-MIN KAOH 020010Z AUTO 33010KT 10SM CLR 22/11 A3004 870 47 1900 330/10 RMK AO2 T02220106
04850KAOH AOH20160701191510807/01/16 19:15:31  5-MIN KAOH 020015Z AUTO 32009KT 10SM CLR 22/11 A3004 870 49 1900 330/09 RMK AO2 T02220111
04850KAOH AOH20160701192010807/01/16 19:20:31  5-MIN KAOH 020020Z AUTO 32009KT 10SM CLR 22/11 A3004 870 49 1900 330/09 RMK AO2 T02220111
04850KAOH AOH20160701192510807/01/16 19:25:31  5-MIN KAOH 020025Z AUTO 32010KT 10SM CLR 22/11 A3004 870 49 1900 330/10 RMK AO2 T02220111
04850KAOH AOH20160701193010807/01/16 19:30:31  5-MIN KAOH 020030Z AUTO 32007KT 10SM CLR 22/11 A3004 870 49 1900 330/07 RMK AO2 T02170106
04850KAOH AOH20160701193510807/01/16 19:35:31  5-MIN KAOH 020035Z AUTO 32007KT 10SM CLR 22/11 A3004 870 50 1900 330/07 RMK AO2 T02170111
04850KAOH AOH20160701194010807/01/16 19:40:31  5-MIN KAOH 020040Z AUTO 33007KT 10SM CLR 21/11 A3004 870 52 1800 340/07 RMK AO2 T02110111
04850KAOH AOH20160701194510807/01/16 19:45:31  5-MIN KAOH 020045Z AUTO 33005KT 10SM CLR 21/12 A3004 870 56 1800 330/05 RMK AO2 T02060117
04850KAOH AOH20160701195011507/01/16 19:50:31  5-MIN KAOH 020050Z AUTO 32005KT 10SM CLR 21/11 A3004 870 54 1800 330/05 RMK AO2 SLP167 T02060111
04850KAOH AOH20160701195510807/01/16 19:55:31  5-MIN KAOH 020055Z AUTO 32005KT 10SM CLR 21/11 A3004 870 54 1800 330/05 RMK AO2 T02060111
04850KAOH AOH20160701200010807/01/16 20:00:31  5-MIN KAOH 020100Z AUTO 32005KT 10SM CLR 20/12 A3004 870 58 1700 320/05 RMK AO2 T02000117
04850KAOH AOH20160701200510807/01/16 20:05:31  5-MIN KAOH 020105Z AUTO 32005KT 10SM CLR 21/12 A3004 870 58 1800 320/05 RMK AO2 T02060122
04850KAOH AOH20160701201010807/01/16 20:10:31  5-MIN KAOH 020110Z AUTO 32005KT 10SM CLR 19/12 A3004 860 62 1600 320/05 RMK AO2 T01940122
04850KAOH AOH20160701201510807/01/16 20:15:31  5-MIN KAOH 020115Z AUTO 32005KT 10SM CLR 18/13 A3004 860 70 1500 320/05 RMK AO2 T01830128
04850KAOH AOH20160701202010807/01/16 20:20:31  5-MIN KAOH 020120Z AUTO 32006KT 10SM CLR 18/13 A3005 860 70 1500 320/06 RMK AO2 T01830128
04850KAOH AOH20160701202510807/01/16 20:25:31  5-MIN KAOH 020125Z AUTO 32006KT 10SM CLR 19/13 A3005 860 67 1600 330/06 RMK AO2 T01890128
04850KAOH AOH20160701203010807/01/16 20:30:31  5-MIN KAOH 020130Z AUTO 32006KT 10SM CLR 19/12 A3005 860 65 1600 320/06 RMK AO2 T01890122
04850KAOH AOH20160701203510807/01/16 20:35:31  5-MIN KAOH 020135Z AUTO 32005KT 10SM CLR 18/13 A3005 860 70 1500 330/05 RMK AO2 T01830128
04850KAOH AOH20160701204010807/01/16 20:40:31  5-MIN KAOH 020140Z AUTO 32005KT 10SM CLR 19/12 A3005 860 65 1500 330/05 RMK AO2 T01890122
04850KAOH AOH20160701204510807/01/16 20:45:31  5-MIN KAOH 020145Z AUTO 32005KT 10SM CLR 19/12 A3005 850 65 1500 330/05 RMK AO2 T01890122
04850KAOH AOH20160701205011507/01/16 20:50:31  5-MIN KAOH 020150Z AUTO 32004KT 10SM CLR 19/12 A3006 850 65 1500 330/04 RMK AO2 SLP173 T01890122
04850KAOH AOH20160701205510807/01/16 20:55:31  5-MIN KAOH 020155Z AUTO 32005KT 10SM CLR 18/12 A3006 850 67 1500 330/05 RMK AO2 T01830122
04850KAOH AOH20160701210010807/01/16 21:00:31  5-MIN KAOH 020200Z AUTO 33005KT 10SM CLR 18/12 A3006 850 67 1500 330/05 RMK AO2 T01830122
04850KAOH AOH20160701210510807/01/16 21:05:31  5-MIN KAOH 020205Z AUTO 33004KT 10SM CLR 18/12 A3006 840 67 1500 340/04 RMK AO2 T01830122
04850KAOH AOH20160701211010807/01/16 21:10:31  5-MIN KAOH 020210Z AUTO 31004KT 10SM CLR 18/13 A3007 840 72 1400 320/04 RMK AO2 T01780128
04850KAOH AOH20160701211510807/01/16 21:15:31  5-MIN KAOH 020215Z AUTO 32006KT 10SM CLR 18/13 A3007 840 72 1400 320/06 RMK AO2 T01780128
04850KAOH AOH20160701212010807/01/16 21:20:31  5-MIN KAOH 020220Z AUTO 31007KT 10SM CLR 18/12 A3007 840 67 1500 320/07 RMK AO2 T01830122
04850KAOH AOH20160701212510807/01/16 21:25:31  5-MIN KAOH 020225Z AUTO 31008KT 10SM CLR 18/12 A3008 830 67 1500 310/08 RMK AO2 T01830122
04850KAOH AOH20160701213010807/01/16 21:30:31  5-MIN KAOH 020230Z AUTO 31008KT 10SM CLR 19/12 A3008 830 65 1500 320/08 RMK AO2 T01890122
04850KAOH AOH20160701213510807/01/16 21:35:31  5-MIN KAOH 020235Z AUTO 31008KT 10SM CLR 18/12 A3008 830 67 1500 310/08 RMK AO2 T01830122
04850KAOH AOH20160701214010807/01/16 21:40:31  5-MIN KAOH 020240Z AUTO 31007KT 10SM CLR 18/12 A3008 830 67 1400 320/07 RMK AO2 T01830122
04850KAOH AOH20160701214510807/01/16 21:45:31  5-MIN KAOH 020245Z AUTO 32008KT 10SM CLR 18/12 A3009 820 67 1400 320/08 RMK AO2 T01830122
04850KAOH AOH20160701215012107/01/16 21:50:31  5-MIN KAOH 020250Z AUTO 32008KT 10SM CLR 19/12 A3009 820 65 1500 330/08 RMK AO2 SLP183 T01890122 51009
04850KAOH AOH20160701215510807/01/16 21:55:31  5-MIN KAOH 020255Z AUTO 32008KT 10SM CLR 18/12 A3009 820 67 1400 330/08 RMK AO2 T01830122
04850KAOH AOH20160701220010807/01/16 22:00:31  5-MIN KAOH 020300Z AUTO 32008KT 10SM CLR 18/12 A3009 820 67 1400 320/08 RMK AO2 T01830122
04850KAOH AOH20160701220510807/01/16 22:05:31  5-MIN KAOH 020305Z AUTO 32008KT 10SM CLR 18/12 A3009 820 67 1400 330/08 RMK AO2 T01830122
04850KAOH AOH20160701221010807/01/16 22:10:31  5-MIN KAOH 020310Z AUTO 32009KT 10SM CLR 18/12 A3009 820 67 1400 330/09 RMK AO2 T01830122
04850KAOH AOH20160701221510807/01/16 22:15:31  5-MIN KAOH 020315Z AUTO 32009KT 10SM CLR 18/12 A3009 820 67 1400 320/09 RMK AO2 T01830122
04850KAOH AOH20160701222010807/01/16 22:20:31  5-MIN KAOH 020320Z AUTO 32008KT 10SM CLR 18/12 A3009 820 67 1400 330/08 RMK AO2 T01830122
04850KAOH AOH20160701222510807/01/16 22:25:31  5-MIN KAOH 020325Z AUTO 32008KT 10SM CLR 18/12 A3010 820 67 1400 320/08 RMK AO2 T01780117
04850KAOH AOH20160701223010807/01/16 22:30:31  5-MIN KAOH 020330Z AUTO 32009KT 10SM CLR 18/12 A3010 810 67 1400 320/09 RMK AO2 T01780117
04850KAOH AOH20160701223510807/01/16 22:35:31  5-MIN KAOH 020335Z AUTO 32009KT 10SM CLR 18/12 A3010 810 67 1400 330/09 RMK AO2 T01780117
04850KAOH AOH20160701224010807/01/16 22:40:31  5-MIN KAOH 020340Z AUTO 32009KT 10SM CLR 18/12 A3010 810 67 1400 330/09 RMK AO2 T01780117
04850KAOH AOH20160701224510807/01/16 22:45:31  5-MIN KAOH 020345Z AUTO 31009KT 10SM CLR 18/12 A3010 810 67 1400 320/09 RMK AO2 T01780117
04850KAOH AOH20160701225011507/01/16 22:50:31  5-MIN KAOH 020350Z AUTO 31008KT 10SM CLR 18/12 A3010 810 67 1400 320/08 RMK AO2 SLP189 T01780117
04850KAOH AOH20160701225510807/01/16 22:55:31  5-MIN KAOH 020355Z AUTO 32010KT 10SM CLR 17/12 A3010 810 69 1300 320/10 RMK AO2 T01720117
04850KAOH AOH20160701230010807/01/16 23:00:31  5-MIN KAOH 020400Z AUTO 32009KT 10SM CLR 17/12 A3010 810 69 1300 330/09 RMK AO2 T01720117
04850KAOH AOH20160701230510807/01/16 23:05:31  5-MIN KAOH 020405Z AUTO 32008KT 10SM CLR 17/12 A3011 810 69 1300 330/08 RMK AO2 T01720117
04850KAOH AOH20160701231010807/01/16 23:10:31  5-MIN KAOH 020410Z AUTO 32008KT 10SM CLR 17/11 A3011 810 67 1300 330/08 RMK AO2 T01720111
04850KAOH AOH20160701231510807/01/16 23:15:31  5-MIN KAOH 020415Z AUTO 32008KT 10SM CLR 17/11 A3011 810 67 1300 330/08 RMK AO2 T01720111
04850KAOH AOH20160701232010807/01/16 23:20:31  5-MIN KAOH 020420Z AUTO 32008KT 10SM CLR 17/11 A3011 800 67 1300 330/08 RMK AO2 T01720111
04850KAOH AOH20160701232510807/01/16 23:25:31  5-MIN KAOH 020425Z AUTO 32007KT 10SM CLR 17/11 A3011 800 67 1300 330/07 RMK AO2 T01720111
04850KAOH AOH20160701233010807/01/16 23:30:31  5-MIN KAOH 020430Z AUTO 32007KT 10SM CLR 17/11 A3011 800 69 1200 330/07 RMK AO2 T01670111
04850KAOH AOH20160701233510807/01/16 23:35:31  5-MIN KAOH 020435Z AUTO 31008KT 10SM CLR 17/11 A3011 800 69 1200 320/08 RMK AO2 T01670111
04850KAOH AOH20160701234010807/01/16 23:40:31  5-MIN KAOH 020440Z AUTO 31008KT 10SM CLR 17/12 A3011 800 72 1200 320/08 RMK AO2 T01670117
04850KAOH AOH20160701234510807/01/16 23:45:31  5-MIN KAOH 020445Z AUTO 32008KT 10SM CLR 16/11 A3011 800 72 1200 320/08 RMK AO2 T01610111
04850KAOH AOH20160701235012507/01/16 23:50:31  5-MIN KAOH 020450Z AUTO 32006KT 10SM CLR 16/12 A3011 800 75 1200 330/06 RMK AO2 SLP193 T01610117 402440161
04850KAOH AOH20160701235510807/01/16 23:55:31  5-MIN KAOH 020455Z AUTO 32007KT 10SM CLR 16/11 A3011 800 72 1200 330/07 RMK AO2 T01610111
04850KAOH AOH20160702000010807/02/16 00:00:31  5-MIN KAOH 020500Z AUTO 32007KT 10SM CLR 16/12 A3012 800 75 1200 320/07 RMK AO2 T01610117
04850KAOH AOH20160702000510807/02/16 00:05:31  5-MIN KAOH 020505Z AUTO 32007KT 10SM CLR 16/12 A3012 800 75 1200 320/07 RMK AO2 T01610117
04850KAOH AOH20160702001010807/02/16 00:10:31  5-MIN KAOH 020510Z AUTO 32006KT 10SM CLR 16/12 A3012 800 77 1100 330/06 RMK AO2 T01560117
04850KAOH AOH20160702001510807/02/16 00:15:31  5-MIN KAOH 020515Z AUTO 33006KT 10SM CLR 16/12 A3011 800 77 1100 330/06 RMK AO2 T01560117
04850KAOH AOH20160702002010807/02/16 00:20:31  5-MIN KAOH 020520Z AUTO 32006KT 10SM CLR 16/12 A3011 800 77 1100 330/06 RMK AO2 T01560117
04850KAOH AOH20160702002510807/02/16 00:25:31  5-MIN KAOH 020525Z AUTO 33006KT 10SM CLR 16/12 A3012 800 77 1100 340/06 RMK AO2 T01560117
04850KAOH AOH20160702003010807/02/16 00:30:31  5-MIN KAOH 020530Z AUTO 32006KT 10SM CLR 16/12 A3012 800 77 1100 330/06 RMK AO2 T01560117
04850KAOH AOH20160702003510807/02/16 00:35:31  5-MIN KAOH 020535Z AUTO 32005KT 10SM CLR 16/12 A3012 790 77 1100 330/05 RMK AO2 T01560117
04850KAOH AOH20160702004010807/02/16 00:40:31  5-MIN KAOH 020540Z AUTO 32006KT 10SM CLR 15/12 A3012 790 80 1000 330/06 RMK AO2 T01500117
04850KAOH AOH20160702004510807/02/16 00:45:31  5-MIN KAOH 020545Z AUTO 31005KT 10SM CLR 15/12 A3012 790 80 1000 320/05 RMK AO2 T01500117
04850KAOH AOH20160702005013307/02/16 00:50:31  5-MIN KAOH 020550Z AUTO 33005KT 10SM CLR 15/12 A3012 790 80 1000 330/05 RMK AO2 SLP196 T01500117 10228 20150 53018
04850KAOH AOH20160702005510807/02/16 00:55:31  5-MIN KAOH 020555Z AUTO 33004KT 10SM CLR 14/12 A3012 790 83 1000 340/04 RMK AO2 T01440117
04850KAOH AOH20160702010010807/02/16 01:00:31  5-MIN KAOH 020600Z AUTO 34005KT 10SM CLR 15/12 A3012 790 80 1000 340/05 RMK AO2 T01500117
04850KAOH AOH20160702010510807/02/16 01:05:31  5-MIN KAOH 020605Z AUTO 34006KT 10SM CLR 15/12 A3012 790 80 1000 340/06 RMK AO2 T01500117
04850KAOH AOH20160702011010807/02/16 01:10:31  5-MIN KAOH 020610Z AUTO 34006KT 10SM CLR 15/12 A3012 790 80 1000 350/06 RMK AO2 T01500117
04850KAOH AOH20160702011510807/02/16 01:15:31  5-MIN KAOH 020615Z AUTO 34005KT 10SM CLR 15/12 A3012 790 80 1000 350/05 RMK AO2 T01500117
04850KAOH AOH20160702012010807/02/16 01:20:31  5-MIN KAOH 020620Z AUTO 35006KT 10SM CLR 15/12 A3012 790 83 1000 350/06 RMK AO2 T01500122
04850KAOH AOH20160702012510807/02/16 01:25:31  5-MIN KAOH 020625Z AUTO 34006KT 10SM CLR 15/12 A3012 790 80 1000 350/06 RMK AO2 T01500117
04850KAOH AOH20160702013010807/02/16 01:30:31  5-MIN KAOH 020630Z AUTO 34005KT 10SM CLR 15/12 A3012 790 80 1000 340/05 RMK AO2 T01500117
04850KAOH AOH20160702013510707/02/16 01:35:31  5-MIN KAOH 020635Z AUTO 34005KT 10SM CLR 14/12 A3012 790 86 900 350/05 RMK AO2 T01440122
04850KAOH AOH20160702014010807/02/16 01:40:31  5-MIN KAOH 020640Z AUTO 35006KT 10SM CLR 14/12 A3012 790 86 1000 350/06 RMK AO2 T01440122
04850KAOH AOH20160702014510807/02/16 01:45:31  5-MIN KAOH 020645Z AUTO 35006KT 10SM CLR 14/12 A3012 790 86 1000 360/06 RMK AO2 T01440122
04850KAOH AOH20160702015011507/02/16 01:50:31  5-MIN KAOH 020650Z AUTO 35005KT 10SM CLR 14/12 A3012 790 86 1000 360/05 RMK AO2 SLP196 T01440122
04850KAOH AOH20160702015510807/02/16 01:55:31  5-MIN KAOH 020655Z AUTO 36005KT 10SM CLR 14/12 A3012 800 86 1000 360/05 RMK AO2 T01440122
04850KAOH AOH20160702020010707/02/16 02:00:31  5-MIN KAOH 020700Z AUTO 36005KT 10SM CLR 14/12 A3012 800 90 900 360/05 RMK AO2 T01390122
04850KAOH AOH20160702020510707/02/16 02:05:31  5-MIN KAOH 020705Z AUTO 35005KT 10SM CLR 14/12 A3012 790 90 900 360/05 RMK AO2 T01390122
04850KAOH AOH20160702021010707/02/16 02:10:31  5-MIN KAOH 020710Z AUTO 35005KT 10SM CLR 14/12 A3012 800 90 900 360/05 RMK AO2 T01390122
04850KAOH AOH20160702021510707/02/16 02:15:31  5-MIN KAOH 020715Z AUTO 35005KT 10SM CLR 14/12 A3012 790 90 900 350/05 RMK AO2 T01390122
04850KAOH AOH20160702022010707/02/16 02:20:31  5-MIN KAOH 020720Z AUTO 35004KT 10SM CLR 14/12 A3012 790 90 900 350/04 RMK AO2 T01390122
04850KAOH AOH20160702022510707/02/16 02:25:31  5-MIN KAOH 020725Z AUTO 35005KT 10SM CLR 14/12 A3012 790 90 900 350/05 RMK AO2 T01390122
04850KAOH AOH20160702023010707/02/16 02:30:31  5-MIN KAOH 020730Z AUTO 35005KT 10SM CLR 14/12 A3012 790 90 900 360/05 RMK AO2 T01390122
04850KAOH AOH20160702023510707/02/16 02:35:31  5-MIN KAOH 020735Z AUTO 35004KT 10SM CLR 14/12 A3013 790 90 900 350/04 RMK AO2 T01390122
04850KAOH AOH20160702024010707/02/16 02:40:31  5-MIN KAOH 020740Z AUTO 35004KT 10SM CLR 14/12 A3013 790 90 900 350/04 RMK AO2 T01390122
04850KAOH AOH20160702024510707/02/16 02:45:31  5-MIN KAOH 020745Z AUTO 35004KT 10SM CLR 14/12 A3012 790 86 900 350/04 RMK AO2 T01390117
04850KAOH AOH20160702025011407/02/16 02:50:31  5-MIN KAOH 020750Z AUTO 36004KT 10SM CLR 14/12 A3012 790 86 900 360/04 RMK AO2 SLP196 T01390117
04850KAOH AOH20160702025510707/02/16 02:55:31  5-MIN KAOH 020755Z AUTO 35003KT 10SM CLR 13/12 A3012 790 89 800 360/03 RMK AO2 T01330117
04850KAOH AOH20160702030010707/02/16 03:00:31  5-MIN KAOH 020800Z AUTO 36003KT 10SM CLR 13/12 A3012 790 89 800 360/03 RMK AO2 T01330117
04850KAOH AOH20160702030510707/02/16 03:05:31  5-MIN KAOH 020805Z AUTO 36004KT 10SM CLR 13/12 A3012 790 89 800 360/04 RMK AO2 T01330117
04850KAOH AOH20160702031010707/02/16 03:10:31  5-MIN KAOH 020810Z AUTO 36003KT 10SM CLR 13/12 A3012 790 89 800 360/03 RMK AO2 T01330117
04850KAOH AOH20160702031510707/02/16 03:15:31  5-MIN KAOH 020815Z AUTO 36003KT 10SM CLR 13/12 A3012 790 89 800 010/03 RMK AO2 T01330117
04850KAOH AOH20160702032010707/02/16 03:20:31  5-MIN KAOH 020820Z AUTO 36004KT 10SM CLR 13/12 A3012 790 89 800 360/04 RMK AO2 T01330117
04850KAOH AOH20160702032510707/02/16 03:25:31  5-MIN KAOH 020825Z AUTO 36004KT 10SM CLR 13/12 A3012 790 89 800 010/04 RMK AO2 T01330117
04850KAOH AOH20160702033010707/02/16 03:30:31  5-MIN KAOH 020830Z AUTO 36003KT 10SM CLR 13/12 A3012 790 89 800 010/03 RMK AO2 T01330117
04850KAOH AOH20160702033510707/02/16 03:35:31  5-MIN KAOH 020835Z AUTO 36003KT 10SM CLR 13/11 A3013 790 86 800 010/03 RMK AO2 T01330111
04850KAOH AOH20160702034010707/02/16 03:40:31  5-MIN KAOH 020840Z AUTO 01003KT 10SM CLR 13/11 A3012 790 86 800 010/03 RMK AO2 T01330111
04850KAOH AOH20160702034510707/02/16 03:45:31  5-MIN KAOH 020845Z AUTO 01004KT 10SM CLR 13/11 A3012 790 86 800 020/04 RMK AO2 T01330111
04850KAOH AOH20160702035012007/02/16 03:50:31  5-MIN KAOH 020850Z AUTO 01006KT 10SM CLR 13/11 A3012 790 89 800 020/06 RMK AO2 SLP196 T01280111 51011
04850KAOH AOH20160702035510707/02/16 03:55:31  5-MIN KAOH 020855Z AUTO 01005KT 10SM CLR 13/11 A3012 790 86 800 020/05 RMK AO2 T01330111
04850KAOH AOH20160702040010707/02/16 04:00:31  5-MIN KAOH 020900Z AUTO 01005KT 10SM CLR 13/11 A3012 790 86 800 020/05 RMK AO2 T01330111
04850KAOH AOH20160702040510707/02/16 04:05:31  5-MIN KAOH 020905Z AUTO 01006KT 10SM CLR 13/11 A3013 790 86 800 020/06 RMK AO2 T01330111
04850KAOH AOH20160702041010707/02/16 04:10:31  5-MIN KAOH 020910Z AUTO 01005KT 10SM CLR 13/11 A3013 790 86 800 020/05 RMK AO2 T01330111
04850KAOH AOH20160702041510707/02/16 04:15:31  5-MIN KAOH 020915Z AUTO 01006KT 10SM CLR 13/11 A3013 790 86 800 020/06 RMK AO2 T01330111
04850KAOH AOH20160702042010707/02/16 04:20:31  5-MIN KAOH 020920Z AUTO 01006KT 10SM CLR 13/11 A3013 790 83 800 020/06 RMK AO2 T01330106
04850KAOH AOH20160702042510707/02/16 04:25:31  5-MIN KAOH 020925Z AUTO 02006KT 10SM CLR 13/11 A3013 780 83 800 020/06 RMK AO2 T01330106
04850KAOH AOH20160702043010707/02/16 04:30:31  5-MIN KAOH 020930Z AUTO 01005KT 10SM CLR 13/11 A3013 780 83 800 020/05 RMK AO2 T01330106
04850KAOH AOH20160702043510707/02/16 04:35:31  5-MIN KAOH 020935Z AUTO 02005KT 10SM CLR 13/11 A3013 780 86 700 030/05 RMK AO2 T01280106
04850KAOH AOH20160702044010707/02/16 04:40:31  5-MIN KAOH 020940Z AUTO 02005KT 10SM CLR 13/11 A3013 780 86 700 020/05 RMK AO2 T01280106
04850KAOH AOH20160702044510707/02/16 04:45:31  5-MIN KAOH 020945Z AUTO 02005KT 10SM CLR 13/11 A3013 780 86 700 020/05 RMK AO2 T01280106
04850KAOH AOH20160702045011407/02/16 04:50:31  5-MIN KAOH 020950Z AUTO 02005KT 10SM CLR 13/11 A3014 780 86 700 020/05 RMK AO2 SLP201 T01280106
04850KAOH AOH20160702045510707/02/16 04:55:31  5-MIN KAOH 020955Z AUTO 02005KT 10SM CLR 13/11 A3013 780 86 700 030/05 RMK AO2 T01280106
04850KAOH AOH20160702050010707/02/16 05:00:31  5-MIN KAOH 021000Z AUTO 02005KT 10SM CLR 13/11 A3014 780 86 700 030/05 RMK AO2 T01280106
04850KAOH AOH20160702050510707/02/16 05:05:31  5-MIN KAOH 021005Z AUTO 02005KT 10SM CLR 13/11 A3014 780 86 700 030/05 RMK AO2 T01280106
04850KAOH AOH20160702051010707/02/16 05:10:31  5-MIN KAOH 021010Z AUTO 02004KT 10SM CLR 13/11 A3014 780 86 700 030/04 RMK AO2 T01280106
04850KAOH AOH20160702051510707/02/16 05:15:31  5-MIN KAOH 021015Z AUTO 02003KT 10SM CLR 13/11 A3014 770 86 700 030/03 RMK AO2 T01280106
04850KAOH AOH20160702052010707/02/16 05:20:31  5-MIN KAOH 021020Z AUTO 02004KT 10SM CLR 13/11 A3015 770 86 700 020/04 RMK AO2 T01280106
04850KAOH AOH20160702052510707/02/16 05:25:31  5-MIN KAOH 021025Z AUTO 03003KT 10SM CLR 13/11 A3015 770 86 700 030/03 RMK AO2 T01280106
04850KAOH AOH20160702053010707/02/16 05:30:31  5-MIN KAOH 021030Z AUTO 00000KT 10SM CLR 13/11 A3015 770 86 700 000/00 RMK AO2 T01280106
04850KAOH AOH20160702053510707/02/16 05:35:31  5-MIN KAOH 021035Z AUTO 00000KT 10SM CLR 13/11 A3015 770 86 700 000/00 RMK AO2 T01280106
04850KAOH AOH20160702054010707/02/16 05:40:31  5-MIN KAOH 021040Z AUTO 00000KT 10SM CLR 13/10 A3015 770 83 700 000/00 RMK AO2 T01280100
04850KAOH AOH20160702054510707/02/16 05:45:31  5-MIN KAOH 021045Z AUTO 00000KT 10SM CLR 13/11 A3015 770 86 700 000/00 RMK AO2 T01280106
04850KAOH AOH20160702055011407/02/16 05:50:31  5-MIN KAOH 021050Z AUTO 00000KT 10SM CLR 13/11 A3015 770 86 700 000/00 RMK AO2 SLP206 T01280106
04850KAOH AOH20160702055510707/02/16 05:55:31  5-MIN KAOH 021055Z AUTO 00000KT 10SM CLR 13/11 A3015 760 83 800 000/00 RMK AO2 T01330106
04850KAOH AOH20160702060010707/02/16 06:00:31  5-MIN KAOH 021100Z AUTO 00000KT 10SM CLR 13/11 A3016 760 86 800 000/00 RMK AO2 T01330111
04850KAOH AOH20160702060510707/02/16 06:05:31  5-MIN KAOH 021105Z AUTO 00000KT 10SM CLR 14/11 A3016 750 83 800 000/00 RMK AO2 T01390111
04850KAOH AOH20160702061010707/02/16 06:10:31  5-MIN KAOH 021110Z AUTO 00000KT 10SM CLR 14/11 A3016 750 83 800 000/00 RMK AO2 T01390111
04850KAOH AOH20160702061510707/02/16 06:15:31  5-MIN KAOH 021115Z AUTO 00000KT 10SM CLR 14/11 A3016 760 83 800 000/00 RMK AO2 T01390111
04850KAOH AOH20160702062010707/02/16 06:20:31  5-MIN KAOH 021120Z AUTO 03003KT 10SM CLR 14/11 A3016 760 83 800 040/03 RMK AO2 T01390111
04850KAOH AOH20160702062510707/02/16 06:25:31  5-MIN KAOH 021125Z AUTO 00000KT 10SM CLR 14/11 A3016 750 83 800 000/00 RMK AO2 T01390111
04850KAOH AOH20160702063010707/02/16 06:30:31  5-MIN KAOH 021130Z AUTO 03004KT 10SM CLR 14/11 A3016 760 83 800 040/04 RMK AO2 T01390111
04850KAOH AOH20160702063510707/02/16 06:35:31  5-MIN KAOH 021135Z AUTO 03005KT 10SM CLR 14/11 A3016 760 80 900 040/05 RMK AO2 T01440111
04850KAOH AOH20160702064010707/02/16 06:40:31  5-MIN KAOH 021140Z AUTO 03005KT 10SM CLR 14/11 A3016 760 80 900 040/05 RMK AO2 T01440111
04850KAOH AOH20160702064510707/02/16 06:45:31  5-MIN KAOH 021145Z AUTO 03004KT 10SM CLR 14/11 A3016 760 80 900 040/04 RMK AO2 T01440111
04850KAOH AOH20160702065013207/02/16 06:50:31  5-MIN KAOH 021150Z AUTO 04005KT 10SM CLR 14/11 A3016 750 80 900 040/05 RMK AO2 SLP210 T01440111 10150 20128 53000
04850KAOH AOH20160702065510707/02/16 06:55:31  5-MIN KAOH 021155Z AUTO 03005KT 10SM CLR 14/11 A3016 760 80 900 030/05 RMK AO2 T01440111
04850KAOH AOH20160702070010707/02/16 07:00:31  5-MIN KAOH 021200Z AUTO 03006KT 10SM CLR 14/11 A3016 760 80 900 040/06 RMK AO2 T01440111
04850KAOH AOH20160702070510807/02/16 07:05:31  5-MIN KAOH 021205Z AUTO 04005KT 10SM CLR 15/11 A3016 760 77 1000 040/05 RMK AO2 T01500111
04850KAOH AOH20160702071010807/02/16 07:10:31  5-MIN KAOH 021210Z AUTO 04004KT 10SM CLR 15/11 A3016 760 77 1000 050/04 RMK AO2 T01500111
04850KAOH AOH20160702071510807/02/16 07:15:31  5-MIN KAOH 021215Z AUTO 05005KT 10SM CLR 15/11 A3015 760 77 1000 060/05 RMK AO2 T01500111
04850KAOH AOH20160702072010807/02/16 07:20:31  5-MIN KAOH 021220Z AUTO 04004KT 10SM CLR 15/11 A3015 760 77 1000 050/04 RMK AO2 T01500111
04850KAOH AOH20160702072510807/02/16 07:25:31  5-MIN KAOH 021225Z AUTO 04004KT 10SM CLR 15/12 A3016 760 80 1000 050/04 RMK AO2 T01500117
04850KAOH AOH20160702073011107/02/16 07:30:31  5-MIN KAOH 021230Z AUTO 04005KT 10SM FEW021 16/12 A3016 750 77 1000 040/05 RMK AO2 T01560117
04850KAOH AOH20160702073511107/02/16 07:35:31  5-MIN KAOH 021235Z AUTO 03005KT 10SM FEW021 16/12 A3017 750 77 1000 040/05 RMK AO2 T01560117
04850KAOH AOH20160702074010807/02/16 07:40:31  5-MIN KAOH 021240Z AUTO 03004KT 10SM CLR 16/12 A3017 740 77 1100 030/04 RMK AO2 T01610122
04850KAOH AOH20160702074510807/02/16 07:45:31  5-MIN KAOH 021245Z AUTO 03005KT 10SM CLR 16/12 A3017 750 75 1100 030/05 RMK AO2 T01610117
04850KAOH AOH20160702075011507/02/16 07:50:31  5-MIN KAOH 021250Z AUTO 05004KT 10SM CLR 17/12 A3017 750 75 1200 060/04 RMK AO2 SLP213 T01670122
04850KAOH AOH20160702075510807/02/16 07:55:31  5-MIN KAOH 021255Z AUTO 05005KT 10SM CLR 17/12 A3017 740 75 1200 060/05 RMK AO2 T01670122
04850KAOH AOH20160702080010807/02/16 08:00:31  5-MIN KAOH 021300Z AUTO 05005KT 10SM CLR 17/12 A3017 750 75 1200 050/05 RMK AO2 T01670122
04850KAOH AOH20160702080510807/02/16 08:05:31  5-MIN KAOH 021305Z AUTO 06006KT 10SM CLR 17/12 A3017 750 75 1200 070/06 RMK AO2 T01670122
04850KAOH AOH20160702081010807/02/16 08:10:31  5-MIN KAOH 021310Z AUTO 05004KT 10SM CLR 17/13 A3018 740 75 1200 060/04 RMK AO2 T01720128
04850KAOH AOH20160702081510807/02/16 08:15:31  5-MIN KAOH 021315Z AUTO 07005KT 10SM CLR 17/13 A3017 740 75 1200 080/05 RMK AO2 T01720128
04850KAOH AOH20160702082010807/02/16 08:20:31  5-MIN KAOH 021320Z AUTO 05005KT 10SM CLR 17/13 A3017 740 78 1200 060/05 RMK AO2 T01720133
04850KAOH AOH20160702082510807/02/16 08:25:31  5-MIN KAOH 021325Z AUTO 07005KT 10SM CLR 18/13 A3017 750 75 1300 080/05 RMK AO2 T01780133
04850KAOH AOH20160702083010807/02/16 08:30:31  5-MIN KAOH 021330Z AUTO 09006KT 10SM CLR 18/13 A3018 740 72 1300 100/06 RMK AO2 T01830133
04850KAOH AOH20160702083510807/02/16 08:35:31  5-MIN KAOH 021335Z AUTO 07005KT 10SM CLR 18/13 A3018 740 72 1300 070/05 RMK AO2 T01830133
04850KAOH AOH20160702084010807/02/16 08:40:31  5-MIN KAOH 021340Z AUTO VRB04KT 10SM CLR 18/14 A3018 740 75 1300 VRB/04 RMK AO2 T01830139
04850KAOH AOH20160702084510807/02/16 08:45:31  5-MIN KAOH 021345Z AUTO 09004KT 10SM CLR 19/14 A3018 740 72 1400 100/04 RMK AO2 T01890139
04850KAOH AOH20160702085011507/02/16 08:50:31  5-MIN KAOH 021350Z AUTO 10003KT 10SM CLR 19/14 A3019 730 72 1400 110/03 RMK AO2 SLP218 T01890139
04850KAOH AOH20160702085511107/02/16 08:55:31  5-MIN KAOH 021355Z AUTO 08005KT 10SM FEW024 18/14 A3018 730 75 1300 080/05 RMK AO2 T01830139
04850KAOH AOH20160702090011107/02/16 09:00:31  5-MIN KAOH 021400Z AUTO 07003KT 10SM FEW024 19/14 A3018 730 75 1400 080/03 RMK AO2 T01890144
04850KAOH AOH20160702090510807/02/16 09:05:31  5-MIN KAOH 021405Z AUTO 00000KT 10SM CLR 19/14 A3019 730 75 1400 000/00 RMK AO2 T01890144
04850KAOH AOH20160702091011107/02/16 09:10:31  5-MIN KAOH 021410Z AUTO 00000KT 10SM FEW023 19/14 A3019 730 72 1500 000/00 RMK AO2 T01940144
04850KAOH AOH20160702091511107/02/16 09:15:31  5-MIN KAOH 021415Z AUTO 09004KT 10SM FEW023 19/14 A3019 730 72 1500 090/04 RMK AO2 T01940144
04850KAOH AOH20160702092011107/02/16 09:20:31  5-MIN KAOH 021420Z AUTO 09004KT 10SM FEW023 19/14 A3019 730 72 1500 100/04 RMK AO2 T01940144
04850KAOH AOH20160702092511107/02/16 09:25:31  5-MIN KAOH 021425Z AUTO 11003KT 10SM FEW023 19/14 A3019 730 72 1500 120/03 RMK AO2 T01940144
04850KAOH AOH20160702093011107/02/16 09:30:31  5-MIN KAOH 021430Z AUTO 14004KT 10SM FEW023 19/14 A3018 730 72 1500 140/04 RMK AO2 T01940144
04850KAOH AOH20160702093511107/02/16 09:35:31  5-MIN KAOH 021435Z AUTO 12003KT 10SM FEW023 19/14 A3019 730 72 1500 120/03 RMK AO2 T01940144
04850KAOH AOH20160702094010807/02/16 09:40:31  5-MIN KAOH 021440Z AUTO 10003KT 10SM CLR 19/14 A3019 730 72 1500 100/03 RMK AO2 T01940144
04850KAOH AOH20160702094510807/02/16 09:45:31  5-MIN KAOH 021445Z AUTO 17003KT 10SM CLR 19/14 A3019 730 72 1500 180/03 RMK AO2 T01940144
04850KAOH AOH20160702095012407/02/16 09:50:31  5-MIN KAOH 021450Z AUTO 20004KT 10SM FEW022 19/14 A3019 730 75 1400 200/04 RMK AO2 SLP218 T01890144 51013
04850KAOH AOH20160702095511107/02/16 09:55:31  5-MIN KAOH 021455Z AUTO 11003KT 10SM FEW022 19/15 A3018 730 75 1500 120/03 RMK AO2 T01940150
04850KAOH AOH20160702100011107/02/16 10:00:31  5-MIN KAOH 021500Z AUTO 00000KT 10SM FEW022 20/14 A3018 730 70 1500 000/00 RMK AO2 T02000144
04850KAOH AOH20160702100511107/02/16 10:05:31  5-MIN KAOH 021505Z AUTO 13004KT 10SM FEW022 21/14 A3018 740 67 1600 140/04 RMK AO2 T02060144
04850KAOH AOH20160702101011107/02/16 10:10:31  5-MIN KAOH 021510Z AUTO 11003KT 10SM FEW022 20/14 A3018 740 70 1500 120/03 RMK AO2 T02000144
04850KAOH AOH20160702101511107/02/16 10:15:31  5-MIN KAOH 021515Z AUTO 13004KT 10SM FEW022 20/14 A3018 740 70 1500 140/04 RMK AO2 T02000144
04850KAOH AOH20160702102011107/02/16 10:20:31  5-MIN KAOH 021520Z AUTO 21003KT 10SM FEW022 20/14 A3018 740 70 1500 220/03 RMK AO2 T02000144
04850KAOH AOH20160702102511807/02/16 10:25:31  5-MIN KAOH 021525Z AUTO 13006KT 10SM FEW024 FEW034 20/15 A3017 750 72 1500 140/06 RMK AO2 T02000150
04850KAOH AOH20160702103011807/02/16 10:30:31  5-MIN KAOH 021530Z AUTO VRB04KT 10SM FEW024 SCT034 20/14 A3017 750 70 1500 VRB/04 RMK AO2 T02000144
04850KAOH AOH20160702103511807/02/16 10:35:31  5-MIN KAOH 021535Z AUTO 15006KT 10SM FEW024 FEW035 21/14 A3017 750 65 1600 150/06 RMK AO2 T02060139
04850KAOH AOH20160702104011807/02/16 10:40:31  5-MIN KAOH 021540Z AUTO 12005KT 10SM FEW024 FEW035 21/14 A3017 750 67 1600 120/05 RMK AO2 T02060144
04850KAOH AOH20160702104511807/02/16 10:45:31  5-MIN KAOH 021545Z AUTO 15004KT 10SM FEW024 FEW035 21/13 A3018 740 63 1600 160/04 RMK AO2 T02060133
04850KAOH AOH20160702105012507/02/16 10:50:31  5-MIN KAOH 021550Z AUTO 00000KT 10SM FEW024 FEW035 21/13 A3018 740 60 1600 000/00 RMK AO2 SLP214 T02060128
04850KAOH AOH20160702105510807/02/16 10:55:31  5-MIN KAOH 021555Z AUTO 00000KT 10SM CLR 21/13 A3018 740 63 1600 000/00 RMK AO2 T02060133
04850KAOH AOH20160702110010807/02/16 11:00:31  5-MIN KAOH 021600Z AUTO 00000KT 10SM CLR 21/14 A3018 740 65 1600 000/00 RMK AO2 T02060139
04850KAOH AOH20160702110510807/02/16 11:05:31  5-MIN KAOH 021605Z AUTO 07003KT 10SM CLR 21/13 A3017 740 63 1600 080/03 RMK AO2 T02060133
04850KAOH AOH20160702111011107/02/16 11:10:31  5-MIN KAOH 021610Z AUTO 07003KT 10SM FEW029 21/13 A3017 750 63 1600 080/03 RMK AO2 T02060133
04850KAOH AOH20160702111511107/02/16 11:15:31  5-MIN KAOH 021615Z AUTO 00000KT 10SM SCT031 21/13 A3017 750 63 1600 000/00 RMK AO2 T02060133
04850KAOH AOH20160702112011107/02/16 11:20:31  5-MIN KAOH 021620Z AUTO 00000KT 10SM SCT031 21/13 A3017 750 63 1600 000/00 RMK AO2 T02060133
04850KAOH AOH20160702112511107/02/16 11:25:31  5-MIN KAOH 021625Z AUTO 00000KT 10SM FEW031 21/13 A3017 750 60 1600 000/00 RMK AO2 T02060128
04850KAOH AOH20160702113011107/02/16 11:30:31  5-MIN KAOH 021630Z AUTO VRB03KT 10SM FEW031 21/13 A3017 750 61 1700 VRB/03 RMK AO2 T02110133
04850KAOH AOH20160702113511107/02/16 11:35:31  5-MIN KAOH 021635Z AUTO 00000KT 10SM FEW031 21/13 A3017 750 61 1700 000/00 RMK AO2 T02110133
04850KAOH AOH20160702114011107/02/16 11:40:31  5-MIN KAOH 021640Z AUTO 15003KT 10SM FEW031 21/13 A3016 750 61 1700 160/03 RMK AO2 T02110133
04850KAOH AOH20160702114510807/02/16 11:45:31  5-MIN KAOH 021645Z AUTO 06004KT 10SM CLR 21/13 A3016 760 63 1600 070/04 RMK AO2 T02060133
04850KAOH AOH20160702115011507/02/16 11:50:31  5-MIN KAOH 021650Z AUTO VRB03KT 10SM CLR 21/13 A3016 750 61 1700 VRB/03 RMK AO2 SLP210 T02110133
04850KAOH AOH20160702115510807/02/16 11:55:31  5-MIN KAOH 021655Z AUTO 00000KT 10SM CLR 21/13 A3017 750 63 1600 000/00 RMK AO2 T02060133
04850KAOH AOH20160702120011107/02/16 12:00:31  5-MIN KAOH 021700Z AUTO 00000KT 10SM FEW034 21/13 A3016 750 63 1600 000/00 RMK AO2 T02060133
04850KAOH AOH20160702120511107/02/16 12:05:31  5-MIN KAOH 021705Z AUTO 00000KT 10SM SCT034 21/13 A3017 750 63 1600 000/00 RMK AO2 T02060133
04850KAOH AOH20160702121011107/02/16 12:10:31  5-MIN KAOH 021710Z AUTO 00000KT 10SM SCT034 21/13 A3017 750 63 1600 000/00 RMK AO2 T02060133
04850KAOH AOH20160702121511107/02/16 12:15:31  5-MIN KAOH 021715Z AUTO 11004KT 10SM SCT034 21/13 A3017 750 61 1700 110/04 RMK AO2 T02110133
04850KAOH AOH20160702122011107/02/16 12:20:31  5-MIN KAOH 021720Z AUTO 08004KT 10SM SCT036 21/13 A3017 750 58 1700 080/04 RMK AO2 T02110128
04850KAOH AOH20160702122511107/02/16 12:25:31  5-MIN KAOH 021725Z AUTO 03004KT 10SM SCT036 21/13 A3017 750 58 1700 040/04 RMK AO2 T02110128
04850KAOH AOH20160702123011807/02/16 12:30:31  5-MIN KAOH 021730Z AUTO 00000KT 10SM SCT036 SCT047 21/13 A3017 750 58 1700 000/00 RMK AO2 T02110128
04850KAOH AOH20160702123511807/02/16 12:35:31  5-MIN KAOH 021735Z AUTO VRB03KT 10SM FEW036 SCT045 22/13 A3017 750 58 1700 VRB/03 RMK AO2 T02170133
04850KAOH AOH20160702124011807/02/16 12:40:31  5-MIN KAOH 021740Z AUTO VRB03KT 10SM SCT041 BKN048 22/14 A3016 750 59 1800 VRB/03 RMK AO2 T02220139
04850KAOH AOH20160702124511807/02/16 12:45:31  5-MIN KAOH 021745Z AUTO 16004KT 10SM BKN038 BKN048 22/14 A3016 750 61 1700 170/04 RMK AO2 T02170139
04850KAOH AOH20160702125013607/02/16 12:50:31  5-MIN KAOH 021750Z AUTO 22004KT 10SM BKN042 22/13 A3016 760 56 1800 230/04 RMK AO2 SLP210 T02220133 10222 20144 51008
04850KAOH AOH20160702125511107/02/16 12:55:31  5-MIN KAOH 021755Z AUTO VRB03KT 10SM BKN042 22/13 A3016 760 56 1700 VRB/03 RMK AO2 T02170128
04850KAOH AOH20160702130011107/02/16 13:00:31  5-MIN KAOH 021800Z AUTO 00000KT 10SM BKN042 22/13 A3016 760 58 1800 000/00 RMK AO2 T02170133
04850KAOH AOH20160702130511807/02/16 13:05:31  5-MIN KAOH 021805Z AUTO 34005KT 10SM SCT040 SCT047 22/14 A3016 760 59 1800 350/05 RMK AO2 T02220139
04850KAOH AOH20160702131011107/02/16 13:10:31  5-MIN KAOH 021810Z AUTO 31003KT 10SM SCT042 22/13 A3016 760 56 1700 310/03 RMK AO2 T02170128
04850KAOH AOH20160702131511107/02/16 13:15:31  5-MIN KAOH 021815Z AUTO 00000KT 10SM FEW044 22/13 A3016 760 56 1800 000/00 RMK AO2 T02170128
04850KAOH AOH20160702132011107/02/16 13:20:31  5-MIN KAOH 021820Z AUTO 16003KT 10SM FEW042 22/12 A3016 760 52 1700 160/03 RMK AO2 T02170117
04850KAOH AOH20160702132511107/02/16 13:25:31  5-MIN KAOH 021825Z AUTO 00000KT 10SM FEW042 22/12 A3016 760 52 1800 000/00 RMK AO2 T02170117
04850KAOH AOH20160702133010807/02/16 13:30:31  5-MIN KAOH 021830Z AUTO 00000KT 10SM CLR 22/12 A3015 760 52 1800 000/00 RMK AO2 T02170117
04850KAOH AOH20160702133510807/02/16 13:35:31  5-MIN KAOH 021835Z AUTO VRB03KT 10SM CLR 22/12 A3015 760 52 1800 VRB/03 RMK AO2 T02170117
04850KAOH AOH20160702134010807/02/16 13:40:31  5-MIN KAOH 021840Z AUTO 00000KT 10SM CLR 22/12 A3016 760 52 1800 000/00 RMK AO2 T02220122
04850KAOH AOH20160702134510807/02/16 13:45:31  5-MIN KAOH 021845Z AUTO 19004KT 10SM CLR 22/12 A3015 760 54 1800 200/04 RMK AO2 T02170122
04850KAOH AOH20160702135011507/02/16 13:50:31  5-MIN KAOH 021850Z AUTO 00000KT 10SM CLR 21/11 A3015 770 52 1700 000/00 RMK AO2 SLP206 T02110111
04850KAOH AOH20160702135510807/02/16 13:55:31  5-MIN KAOH 021855Z AUTO 00000KT 10SM CLR 21/12 A3015 770 54 1700 000/00 RMK AO2 T02110117
04850KAOH AOH20160702140010807/02/16 14:00:31  5-MIN KAOH 021900Z AUTO 00000KT 10SM CLR 22/12 A3015 770 52 1800 000/00 RMK AO2 T02170117
04850KAOH AOH20160702140511107/02/16 14:05:31  5-MIN KAOH 021905Z AUTO 00000KT 10SM FEW043 22/12 A3015 760 52 1800 000/00 RMK AO2 T02220122
04850KAOH AOH20160702141011107/02/16 14:10:31  5-MIN KAOH 021910Z AUTO 00000KT 10SM FEW043 23/12 A3015 770 51 1900 000/00 RMK AO2 T02280122
04850KAOH AOH20160702141511107/02/16 14:15:31  5-MIN KAOH 021915Z AUTO 14003KT 10SM SCT045 23/12 A3015 770 51 1900 140/03 RMK AO2 T02280122
04850KAOH AOH20160702142011107/02/16 14:20:31  5-MIN KAOH 021920Z AUTO 00000KT 10SM SCT047 23/13 A3015 770 53 1900 000/00 RMK AO2 T02280128
04850KAOH AOH20160702142511107/02/16 14:25:31  5-MIN KAOH 021925Z AUTO 00000KT 10SM FEW047 23/13 A3014 770 53 1900 000/00 RMK AO2 T02280128
04850KAOH AOH20160702143011107/02/16 14:30:31  5-MIN KAOH 021930Z AUTO 10004KT 10SM FEW047 23/13 A3014 770 53 1900 110/04 RMK AO2 T02280128
04850KAOH AOH20160702143511107/02/16 14:35:31  5-MIN KAOH 021935Z AUTO 08005KT 10SM FEW047 22/12 A3014 780 52 1800 090/05 RMK AO2 T02220122
04850KAOH AOH20160702144011107/02/16 14:40:31  5-MIN KAOH 021940Z AUTO 05004KT 10SM FEW047 22/13 A3014 780 54 1800 060/04 RMK AO2 T02220128
04850KAOH AOH20160702144510807/02/16 14:45:31  5-MIN KAOH 021945Z AUTO 00000KT 10SM CLR 22/12 A3014 780 52 1800 000/00 RMK AO2 T02220122
04850KAOH AOH20160702145011507/02/16 14:50:31  5-MIN KAOH 021950Z AUTO 00000KT 10SM CLR 22/12 A3014 780 52 1800 000/00 RMK AO2 SLP202 T02220122
04850KAOH AOH20160702145510807/02/16 14:55:31  5-MIN KAOH 021955Z AUTO VRB04KT 10SM CLR 22/13 A3013 780 54 1800 VRB/04 RMK AO2 T02220128
04850KAOH AOH20160702150010807/02/16 15:00:31  5-MIN KAOH 022000Z AUTO 12004KT 10SM CLR 23/13 A3013 780 53 1900 130/04 RMK AO2 T02280128
04850KAOH AOH20160702150510807/02/16 15:05:31  5-MIN KAOH 022005Z AUTO VRB03KT 10SM CLR 23/13 A3013 780 53 1900 VRB/03 RMK AO2 T02280128
04850KAOH AOH20160702151010807/02/16 15:10:31  5-MIN KAOH 022010Z AUTO 13003KT 10SM CLR 23/13 A3014 780 53 1900 130/03 RMK AO2 T02280128
04850KAOH AOH20160702151510807/02/16 15:15:31  5-MIN KAOH 022015Z AUTO 17003KT 10SM CLR 23/13 A3014 780 53 1900 170/03 RMK AO2 T02280128
04850KAOH AOH20160702152010807/02/16 15:20:31  5-MIN KAOH 022020Z AUTO 00000KT 10SM CLR 23/12 A3014 780 51 1900 000/00 RMK AO2 T02280122
04850KAOH AOH20160702152510807/02/16 15:25:31  5-MIN KAOH 022025Z AUTO VRB03KT 10SM CLR 22/12 A3014 780 52 1800 VRB/03 RMK AO2 T02220122
04850KAOH AOH20160702153010807/02/16 15:30:31  5-MIN KAOH 022030Z AUTO VRB03KT 10SM CLR 23/13 A3014 780 53 1900 VRB/03 RMK AO2 T02280128
04850KAOH AOH20160702153510807/02/16 15:35:31  5-MIN KAOH 022035Z AUTO 00000KT 10SM CLR 22/12 A3014 780 52 1800 000/00 RMK AO2 T02220122
04850KAOH AOH20160702154011107/02/16 15:40:31  5-MIN KAOH 022040Z AUTO 21003KT 10SM FEW046 22/13 A3014 780 54 1800 220/03 RMK AO2 T02220128
04850KAOH AOH20160702154511107/02/16 15:45:31  5-MIN KAOH 022045Z AUTO 00000KT 10SM FEW046 22/13 A3014 770 54 1800 000/00 RMK AO2 T02220128
04850KAOH AOH20160702155012407/02/16 15:50:31  5-MIN KAOH 022050Z AUTO 23004KT 10SM FEW046 22/13 A3014 780 54 1800 240/04 RMK AO2 SLP203 T02220128 56008
04850KAOH AOH20160702155511107/02/16 15:55:31  5-MIN KAOH 022055Z AUTO VRB04KT 10SM FEW046 22/12 A3014 780 52 1800 VRB/04 RMK AO2 T02220122
04850KAOH AOH20160702160011107/02/16 16:00:31  5-MIN KAOH 022100Z AUTO 23004KT 10SM FEW046 22/13 A3014 770 54 1800 230/04 RMK AO2 T02220128
04850KAOH AOH20160702160511107/02/16 16:05:31  5-MIN KAOH 022105Z AUTO 20005KT 10SM SCT046 22/12 A3014 770 52 1800 200/05 RMK AO2 T02220122
04850KAOH AOH20160702161011107/02/16 16:10:31  5-MIN KAOH 022110Z AUTO 20005KT 10SM SCT046 22/13 A3015 770 54 1800 210/05 RMK AO2 T02220128
04850KAOH AOH20160702161511107/02/16 16:15:31  5-MIN KAOH 022115Z AUTO VRB05KT 10SM SCT046 22/13 A3015 770 54 1800 VRB/05 RMK AO2 T02220128
04850KAOH AOH20160702162011107/02/16 16:20:31  5-MIN KAOH 022120Z AUTO 23005KT 10SM FEW046 22/12 A3015 770 52 1800 230/05 RMK AO2 T02220122
04850KAOH AOH20160702162511107/02/16 16:25:31  5-MIN KAOH 022125Z AUTO 00000KT 10SM FEW046 22/12 A3014 770 52 1800 000/00 RMK AO2 T02220122
04850KAOH AOH20160702163011107/02/16 16:30:31  5-MIN KAOH 022130Z AUTO 21005KT 10SM FEW046 22/12 A3015 770 52 1800 210/05 RMK AO2 T02220122
04850KAOH AOH20160702163511107/02/16 16:35:31  5-MIN KAOH 022135Z AUTO 23005KT 10SM FEW046 22/12 A3015 770 52 1800 240/05 RMK AO2 T02220122
04850KAOH AOH20160702164010807/02/16 16:40:31  5-MIN KAOH 022140Z AUTO 21005KT 10SM CLR 22/13 A3014 770 54 1800 220/05 RMK AO2 T02220128
04850KAOH AOH20160702164510807/02/16 16:45:31  5-MIN KAOH 022145Z AUTO VRB03KT 10SM CLR 22/12 A3014 770 52 1800 VRB/03 RMK AO2 T02220122
04850KAOH AOH20160702165011507/02/16 16:50:31  5-MIN KAOH 022150Z AUTO 00000KT 10SM CLR 22/13 A3014 770 54 1800 000/00 RMK AO2 SLP204 T02220128
04850KAOH AOH20160702165510807/02/16 16:55:31  5-MIN KAOH 022155Z AUTO VRB03KT 10SM CLR 22/13 A3014 770 54 1800 VRB/03 RMK AO2 T02220128
04850KAOH AOH20160702170010807/02/16 17:00:31  5-MIN KAOH 022200Z AUTO 22004KT 10SM CLR 22/12 A3014 770 52 1800 220/04 RMK AO2 T02220122
04850KAOH AOH20160702170510807/02/16 17:05:31  5-MIN KAOH 022205Z AUTO 26003KT 10SM CLR 22/12 A3014 780 52 1800 270/03 RMK AO2 T02220122
04850KAOH AOH20160702171010807/02/16 17:10:31  5-MIN KAOH 022210Z AUTO 27004KT 10SM CLR 22/12 A3014 770 52 1800 280/04 RMK AO2 T02220122
04850KAOH AOH20160702171510807/02/16 17:15:31  5-MIN KAOH 022215Z AUTO 30004KT 10SM CLR 22/12 A3014 770 51 1800 300/04 RMK AO2 T02220117
04850KAOH AOH20160702172010807/02/16 17:20:31  5-MIN KAOH 022220Z AUTO 32004KT 10SM CLR 22/12 A3014 770 52 1800 320/04 RMK AO2 T02220122
04850KAOH AOH20160702172510807/02/16 17:25:31  5-MIN KAOH 022225Z AUTO 00000KT 10SM CLR 22/12 A3014 780 52 1800 000/00 RMK AO2 T02220122
04850KAOH AOH20160702173010807/02/16 17:30:31  5-MIN KAOH 022230Z AUTO 00000KT 10SM CLR 22/12 A3014 780 52 1800 000/00 RMK AO2 T02220122
04850KAOH AOH20160702173510807/02/16 17:35:31  5-MIN KAOH 022235Z AUTO 00000KT 10SM CLR 22/12 A3014 780 52 1800 000/00 RMK AO2 T02220122
04850KAOH AOH20160702174010807/02/16 17:40:31  5-MIN KAOH 022240Z AUTO 31003KT 10SM CLR 22/12 A3014 780 54 1800 320/03 RMK AO2 T02170122
04850KAOH AOH20160702174510807/02/16 17:45:31  5-MIN KAOH 022245Z AUTO 00000KT 10SM CLR 22/12 A3013 780 52 1800 000/00 RMK AO2 T02170117
04850KAOH AOH20160702175011507/02/16 17:50:31  5-MIN KAOH 022250Z AUTO 00000KT 10SM CLR 22/12 A3013 780 51 1800 000/00 RMK AO2 SLP201 T02220117
04850KAOH AOH20160702175510807/02/16 17:55:31  5-MIN KAOH 022255Z AUTO 00000KT 10SM CLR 22/12 A3013 780 54 1800 000/00 RMK AO2 T02170122
04850KAOH AOH20160702180010807/02/16 18:00:31  5-MIN KAOH 022300Z AUTO 02003KT 10SM CLR 22/12 A3013 780 54 1800 020/03 RMK AO2 T02170122
04850KAOH AOH20160702180510807/02/16 18:05:31  5-MIN KAOH 022305Z AUTO 00000KT 10SM CLR 22/13 A3013 780 56 1800 000/00 RMK AO2 T02170128
04850KAOH AOH20160702181010807/02/16 18:10:31  5-MIN KAOH 022310Z AUTO 00000KT 10SM CLR 22/12 A3014 780 54 1800 000/00 RMK AO2 T02170122
04850KAOH AOH20160702181510807/02/16 18:15:31  5-MIN KAOH 022315Z AUTO 00000KT 10SM CLR 22/12 A3013 780 52 1800 000/00 RMK AO2 T02220122
04850KAOH AOH20160702182010807/02/16 18:20:31  5-MIN KAOH 022320Z AUTO 00000KT 10SM CLR 22/13 A3014 780 54 1800 000/00 RMK AO2 T02220128
04850KAOH AOH20160702182510807/02/16 18:25:31  5-MIN KAOH 022325Z AUTO 00000KT 10SM CLR 22/13 A3013 780 56 1800 000/00 RMK AO2 T02170128
04850KAOH AOH20160702183010807/02/16 18:30:31  5-MIN KAOH 022330Z AUTO 00000KT 10SM CLR 22/12 A3013 780 52 1800 000/00 RMK AO2 T02220122
04850KAOH AOH20160702183510807/02/16 18:35:31  5-MIN KAOH 022335Z AUTO 00000KT 10SM CLR 22/13 A3013 780 54 1800 000/00 RMK AO2 T02220128
04850KAOH AOH20160702184010807/02/16 18:40:31  5-MIN KAOH 022340Z AUTO 00000KT 10SM CLR 22/12 A3013 780 52 1800 000/00 RMK AO2 T02220122
04850KAOH AOH20160702184510807/02/16 18:45:31  5-MIN KAOH 022345Z AUTO 00000KT 10SM CLR 22/12 A3013 780 54 1800 000/00 RMK AO2 T02170122
04850KAOH AOH20160702185013307/02/16 18:50:31  5-MIN KAOH 022350Z AUTO 00000KT 10SM CLR 22/12 A3013 780 54 1800 000/00 RMK AO2 SLP200 T02170122 10228 20211 55007
04850KAOH AOH20160702185510807/02/16 18:55:31  5-MIN KAOH 022355Z AUTO 00000KT 10SM CLR 22/13 A3013 780 56 1800 000/00 RMK AO2 T02170128
04850KAOH AOH20160702190010807/02/16 19:00:31  5-MIN KAOH 030000Z AUTO 00000KT 10SM CLR 22/12 A3013 780 54 1800 000/00 RMK AO2 T02170122
04850KAOH AOH20160702190511107/02/16 19:05:31  5-MIN KAOH 030005Z AUTO 00000KT 10SM FEW048 22/12 A3013 780 54 1800 000/00 RMK AO2 T02170122
04850KAOH AOH20160702191011107/02/16 19:10:31  5-MIN KAOH 030010Z AUTO 00000KT 10SM FEW046 21/13 A3013 780 58 1700 000/00 RMK AO2 T02110128
04850KAOH AOH20160702191511107/02/16 19:15:31  5-MIN KAOH 030015Z AUTO 00000KT 10SM SCT046 21/13 A3013 780 58 1700 000/00 RMK AO2 T02110128
04850KAOH AOH20160702192011107/02/16 19:20:31  5-MIN KAOH 030020Z AUTO 00000KT 10SM BKN048 21/13 A3013 780 58 1700 000/00 RMK AO2 T02110128
04850KAOH AOH20160702192511107/02/16 19:25:31  5-MIN KAOH 030025Z AUTO 19003KT 10SM BKN048 21/13 A3013 780 58 1700 200/03 RMK AO2 T02110128
04850KAOH AOH20160702193011107/02/16 19:30:31  5-MIN KAOH 030030Z AUTO 00000KT 10SM BKN048 21/13 A3013 780 58 1700 000/00 RMK AO2 T02110128
04850KAOH AOH20160702193511107/02/16 19:35:31  5-MIN KAOH 030035Z AUTO 00000KT 10SM BKN048 21/13 A3013 780 58 1700 000/00 RMK AO2 T02110128
04850KAOH AOH20160702194011107/02/16 19:40:31  5-MIN KAOH 030040Z AUTO 00000KT 10SM BKN049 21/13 A3013 780 58 1700 000/00 RMK AO2 T02110128
04850KAOH AOH20160702194511107/02/16 19:45:31  5-MIN KAOH 030045Z AUTO 22003KT 10SM BKN049 21/13 A3013 780 58 1700 230/03 RMK AO2 T02110128
04850KAOH AOH20160702195011807/02/16 19:50:31  5-MIN KAOH 030050Z AUTO 00000KT 10SM BKN048 21/13 A3013 780 58 1700 000/00 RMK AO2 SLP200 T02110128
04850KAOH AOH20160702195511107/02/16 19:55:31  5-MIN KAOH 030055Z AUTO 00000KT 10SM SCT048 21/13 A3013 780 60 1600 000/00 RMK AO2 T02060128
04850KAOH AOH20160702200011107/02/16 20:00:31  5-MIN KAOH 030100Z AUTO 00000KT 10SM SCT048 21/13 A3013 780 58 1700 000/00 RMK AO2 T02110128
04850KAOH AOH20160702200511107/02/16 20:05:31  5-MIN KAOH 030105Z AUTO 00000KT 10SM SCT048 21/13 A3013 780 60 1700 000/00 RMK AO2 T02060128
04850KAOH AOH20160702201011107/02/16 20:10:31  5-MIN KAOH 030110Z AUTO 00000KT 10SM FEW048 20/14 A3013 780 70 1600 000/00 RMK AO2 T02000144
04850KAOH AOH20160702201510807/02/16 20:15:31  5-MIN KAOH 030115Z AUTO 00000KT 10SM CLR 19/16 A3013 780 78 1500 000/00 RMK AO2 T01940156
04850KAOH AOH20160702202010807/02/16 20:20:31  5-MIN KAOH 030120Z AUTO 00000KT 10SM CLR 19/15 A3013 780 75 1500 000/00 RMK AO2 T01940150
04850KAOH AOH20160702202510807/02/16 20:25:31  5-MIN KAOH 030125Z AUTO 00000KT 10SM CLR 19/16 A3013 780 78 1500 000/00 RMK AO2 T01940156
04850KAOH AOH20160702203010807/02/16 20:30:31  5-MIN KAOH 030130Z AUTO 00000KT 10SM CLR 19/16 A3013 780 81 1500 000/00 RMK AO2 T01890156
04850KAOH AOH20160702203510807/02/16 20:35:31  5-MIN KAOH 030135Z AUTO 00000KT 10SM CLR 19/16 A3013 780 81 1500 000/00 RMK AO2 T01890156
04850KAOH AOH20160702204010807/02/16 20:40:31  5-MIN KAOH 030140Z AUTO 00000KT 10SM CLR 19/16 A3013 780 81 1500 000/00 RMK AO2 T01890156
04850KAOH AOH20160702204510807/02/16 20:45:31  5-MIN KAOH 030145Z AUTO 00000KT 10SM CLR 18/16 A3013 780 87 1400 000/00 RMK AO2 T01830161
04850KAOH AOH20160702205011507/02/16 20:50:31  5-MIN KAOH 030150Z AUTO 00000KT 10SM CLR 18/16 A3013 780 87 1400 000/00 RMK AO2 SLP199 T01830161
04850KAOH AOH20160702205510807/02/16 20:55:31  5-MIN KAOH 030155Z AUTO 01005KT 10SM CLR 18/16 A3013 780 87 1400 010/05 RMK AO2 T01830161
04850KAOH AOH20160702210010807/02/16 21:00:31  5-MIN KAOH 030200Z AUTO 01004KT 10SM CLR 18/16 A3014 780 87 1300 020/04 RMK AO2 T01780156
04850KAOH AOH20160702210510807/02/16 21:05:31  5-MIN KAOH 030205Z AUTO 01004KT 10SM CLR 18/15 A3014 780 83 1300 020/04 RMK AO2 T01780150
04850KAOH AOH20160702211010807/02/16 21:10:31  5-MIN KAOH 030210Z AUTO 02004KT 10SM CLR 18/15 A3013 780 81 1400 020/04 RMK AO2 T01830150
04850KAOH AOH20160702211510807/02/16 21:15:31  5-MIN KAOH 030215Z AUTO 03005KT 10SM CLR 18/15 A3013 780 81 1400 040/05 RMK AO2 T01830150
04850KAOH AOH20160702212010807/02/16 21:20:31  5-MIN KAOH 030220Z AUTO 02004KT 10SM CLR 18/14 A3014 780 78 1400 030/04 RMK AO2 T01830144
04850KAOH AOH20160702212510807/02/16 21:25:31  5-MIN KAOH 030225Z AUTO 02004KT 10SM CLR 18/14 A3014 780 75 1400 030/04 RMK AO2 T01830139
04850KAOH AOH20160702213010807/02/16 21:30:31  5-MIN KAOH 030230Z AUTO 02003KT 10SM CLR 18/14 A3014 780 75 1400 020/03 RMK AO2 T01830139
04850KAOH AOH20160702213510807/02/16 21:35:31  5-MIN KAOH 030235Z AUTO 02003KT 10SM CLR 18/14 A3014 780 75 1400 030/03 RMK AO2 T01830139
04850KAOH AOH20160702214010807/02/16 21:40:31  5-MIN KAOH 030240Z AUTO 02003KT 10SM CLR 18/14 A3014 780 75 1400 030/03 RMK AO2 T01830139
04850KAOH AOH20160702214510807/02/16 21:45:31  5-MIN KAOH 030245Z AUTO 02003KT 10SM CLR 18/14 A3014 780 75 1400 030/03 RMK AO2 T01830139
04850KAOH AOH20160702215012107/02/16 21:50:31  5-MIN KAOH 030250Z AUTO 00000KT 10SM CLR 18/13 A3014 780 72 1400 000/00 RMK AO2 SLP202 T01830133 58002
04850KAOH AOH20160702215510807/02/16 21:55:31  5-MIN KAOH 030255Z AUTO 00000KT 10SM CLR 18/13 A3014 780 72 1400 000/00 RMK AO2 T01830133
04850KAOH AOH20160702220010807/02/16 22:00:31  5-MIN KAOH 030300Z AUTO 03004KT 10SM CLR 18/13 A3013 780 72 1400 030/04 RMK AO2 T01830133
04850KAOH AOH20160702220510807/02/16 22:05:31  5-MIN KAOH 030305Z AUTO 02003KT 10SM CLR 18/14 A3013 780 81 1300 030/03 RMK AO2 T01780144
04850KAOH AOH20160702221010807/02/16 22:10:31  5-MIN KAOH 030310Z AUTO 02003KT 10SM CLR 18/14 A3013 780 78 1300 020/03 RMK AO2 T01780139
04850KAOH AOH20160702221510807/02/16 22:15:31  5-MIN KAOH 030315Z AUTO 01004KT 10SM CLR 18/14 A3013 780 78 1300 020/04 RMK AO2 T01780139
04850KAOH AOH20160702222010807/02/16 22:20:31  5-MIN KAOH 030320Z AUTO 02003KT 10SM CLR 18/14 A3013 780 78 1300 020/03 RMK AO2 T01780139
04850KAOH AOH20160702222510807/02/16 22:25:31  5-MIN KAOH 030325Z AUTO 02004KT 10SM CLR 18/13 A3013 790 75 1300 030/04 RMK AO2 T01780133
04850KAOH AOH20160702223010807/02/16 22:30:31  5-MIN KAOH 030330Z AUTO 02004KT 10SM CLR 18/13 A3013 780 75 1300 020/04 RMK AO2 T01780133
04850KAOH AOH20160702223510807/02/16 22:35:31  5-MIN KAOH 030335Z AUTO 02003KT 10SM CLR 18/13 A3013 780 75 1300 030/03 RMK AO2 T01780133
04850KAOH AOH20160702224010807/02/16 22:40:31  5-MIN KAOH 030340Z AUTO 01003KT 10SM CLR 17/13 A3013 780 78 1300 020/03 RMK AO2 T01720133
04850KAOH AOH20160702224510807/02/16 22:45:31  5-MIN KAOH 030345Z AUTO 02003KT 10SM CLR 18/13 A3014 780 75 1300 020/03 RMK AO2 T01780133
04850KAOH AOH20160702225011507/02/16 22:50:31  5-MIN KAOH 030350Z AUTO 02003KT 10SM CLR 18/13 A3014 780 75 1300 020/03 RMK AO2 SLP201 T01780133
04850KAOH AOH20160702225510807/02/16 22:55:31  5-MIN KAOH 030355Z AUTO 02003KT 10SM CLR 18/13 A3014 780 75 1300 020/03 RMK AO2 T01780133
04850KAOH AOH20160702230010807/02/16 23:00:31  5-MIN KAOH 030400Z AUTO 02004KT 10SM CLR 17/13 A3014 780 78 1300 020/04 RMK AO2 T01720133
04850KAOH AOH20160702230510807/02/16 23:05:31  5-MIN KAOH 030405Z AUTO 02005KT 10SM CLR 17/13 A3014 780 78 1300 030/05 RMK AO2 T01720133
04850KAOH AOH20160702231010807/02/16 23:10:31  5-MIN KAOH 030410Z AUTO 03004KT 10SM CLR 17/13 A3014 780 80 1200 030/04 RMK AO2 T01670133
04850KAOH AOH20160702231510807/02/16 23:15:31  5-MIN KAOH 030415Z AUTO 03004KT 10SM CLR 17/13 A3014 780 75 1300 040/04 RMK AO2 T01720128
04850KAOH AOH20160702232010807/02/16 23:20:31  5-MIN KAOH 030420Z AUTO 03004KT 10SM CLR 17/13 A3014 780 75 1300 040/04 RMK AO2 T01720128
04850KAOH AOH20160702232510807/02/16 23:25:31  5-MIN KAOH 030425Z AUTO 03005KT 10SM CLR 17/13 A3014 780 75 1300 030/05 RMK AO2 T01720128
04850KAOH AOH20160702233010807/02/16 23:30:31  5-MIN KAOH 030430Z AUTO 03005KT 10SM CLR 17/13 A3014 780 75 1300 030/05 RMK AO2 T01720128
04850KAOH AOH20160702233510807/02/16 23:35:31  5-MIN KAOH 030435Z AUTO 03005KT 10SM CLR 17/13 A3014 780 77 1200 030/05 RMK AO2 T01670128
04850KAOH AOH20160702234010807/02/16 23:40:31  5-MIN KAOH 030440Z AUTO 03004KT 10SM CLR 17/13 A3014 780 77 1200 040/04 RMK AO2 T01670128
04850KAOH AOH20160702234510807/02/16 23:45:31  5-MIN KAOH 030445Z AUTO 05004KT 10SM CLR 17/12 A3014 780 72 1300 050/04 RMK AO2 T01720122
04850KAOH AOH20160702235012507/02/16 23:50:31  5-MIN KAOH 030450Z AUTO 05003KT 10SM CLR 17/13 A3014 780 77 1200 060/03 RMK AO2 SLP202 T01670128 402280128
04850KAOH AOH20160702235510807/02/16 23:55:31  5-MIN KAOH 030455Z AUTO 05003KT 10SM CLR 17/13 A3014 780 80 1200 060/03 RMK AO2 T01670133
04850KAOH AOH20160703000010807/03/16 00:00:31  5-MIN KAOH 030500Z AUTO 00000KT 10SM CLR 17/13 A3014 780 77 1200 000/00 RMK AO2 T01670128
04850KAOH AOH20160703000510807/03/16 00:05:31  5-MIN KAOH 030505Z AUTO 07003KT 10SM CLR 17/13 A3013 780 77 1200 070/03 RMK AO2 T01670128
04850KAOH AOH20160703001010807/03/16 00:10:31  5-MIN KAOH 030510Z AUTO 00000KT 10SM CLR 16/13 A3013 780 80 1100 000/00 RMK AO2 T01610128
04850KAOH AOH20160703001510807/03/16 00:15:31  5-MIN KAOH 030515Z AUTO 08003KT 10SM CLR 16/13 A3013 780 80 1100 090/03 RMK AO2 T01610128
04850KAOH AOH20160703002010807/03/16 00:20:31  5-MIN KAOH 030520Z AUTO 07003KT 10SM CLR 15/13 A3013 780 90 1000 070/03 RMK AO2 T01500133
04850KAOH AOH20160703002510807/03/16 00:25:31  5-MIN KAOH 030525Z AUTO 08003KT 10SM CLR 16/13 A3014 780 86 1100 080/03 RMK AO2 T01560133
04850KAOH AOH20160703003010807/03/16 00:30:31  5-MIN KAOH 030530Z AUTO 00000KT 10SM CLR 16/13 A3014 780 86 1100 000/00 RMK AO2 T01560133
04850KAOH AOH20160703003510807/03/16 00:35:31  5-MIN KAOH 030535Z AUTO 00000KT 10SM CLR 16/13 A3013 780 83 1100 000/00 RMK AO2 T01610133
04850KAOH AOH20160703004010807/03/16 00:40:31  5-MIN KAOH 030540Z AUTO 00000KT 10SM CLR 16/13 A3013 780 83 1100 000/00 RMK AO2 T01610133
04850KAOH AOH20160703004510807/03/16 00:45:31  5-MIN KAOH 030545Z AUTO 00000KT 10SM CLR 16/13 A3013 780 83 1100 000/00 RMK AO2 T01610133
04850KAOH AOH20160703005013307/03/16 00:50:31  5-MIN KAOH 030550Z AUTO 00000KT 10SM CLR 16/13 A3013 780 83 1100 000/00 RMK AO2 SLP200 T01610133 10217 20150 53001
04850KAOH AOH20160703005510807/03/16 00:55:31  5-MIN KAOH 030555Z AUTO 00000KT 10SM CLR 16/13 A3013 780 86 1100 000/00 RMK AO2 T01560133
04850KAOH AOH20160703010010807/03/16 01:00:31  5-MIN KAOH 030600Z AUTO 00000KT 10SM CLR 15/13 A3013 780 90 1000 000/00 RMK AO2 T01500133
04850KAOH AOH20160703010510807/03/16 01:05:31  5-MIN KAOH 030605Z AUTO 00000KT 10SM CLR 15/13 A3013 790 90 1000 000/00 RMK AO2 T01500133
04850KAOH AOH20160703011010807/03/16 01:10:31  5-MIN KAOH 030610Z AUTO 00000KT 10SM CLR 15/13 A3013 790 90 1000 000/00 RMK AO2 T01500133
04850KAOH AOH20160703011510807/03/16 01:15:31  5-MIN KAOH 030615Z AUTO 00000KT 10SM CLR 16/13 A3013 790 86 1100 000/00 RMK AO2 T01560133
04850KAOH AOH20160703012010807/03/16 01:20:31  5-MIN KAOH 030620Z AUTO 09003KT 10SM CLR 16/14 A3013 790 90 1100 100/03 RMK AO2 T01560139
04850KAOH AOH20160703012510807/03/16 01:25:31  5-MIN KAOH 030625Z AUTO 10003KT 10SM CLR 15/14 A3013 790 93 1000 110/03 RMK AO2 T01500139
04850KAOH AOH20160703013010807/03/16 01:30:31  5-MIN KAOH 030630Z AUTO 00000KT 10SM CLR 16/13 A3012 790 86 1100 000/00 RMK AO2 T01560133
04850KAOH AOH20160703013510707/03/16 01:35:31  5-MIN KAOH 030635Z AUTO 09004KT 10SM CLR 14/13 A3012 790 93 900 100/04 RMK AO2 T01440133
04850KAOH AOH20160703014010807/03/16 01:40:31  5-MIN KAOH 030640Z AUTO 10005KT 10SM CLR 14/13 A3012 790 93 1000 100/05 RMK AO2 T01440133
04850KAOH AOH20160703014510807/03/16 01:45:31  5-MIN KAOH 030645Z AUTO 09004KT 10SM CLR 14/14 A3012 800 96 1000 090/04 RMK AO2 T01440139
04850KAOH AOH20160703015011507/03/16 01:50:31  5-MIN KAOH 030650Z AUTO 08005KT 10SM CLR 14/14 A3012 800 96 1000 090/05 RMK AO2 SLP195 T01440139
04850KAOH AOH20160703015510807/03/16 01:55:31  5-MIN KAOH 030655Z AUTO 08004KT 10SM CLR 15/14 A3012 790 93 1000 090/04 RMK AO2 T01500139
04850KAOH AOH20160703020010807/03/16 02:00:31  5-MIN KAOH 030700Z AUTO 08005KT 10SM CLR 15/14 A3012 800 93 1000 080/05 RMK AO2 T01500139
04850KAOH AOH20160703020510807/03/16 02:05:31  5-MIN KAOH 030705Z AUTO 07004KT 10SM CLR 15/14 A3012 800 93 1000 080/04 RMK AO2 T01500139
04850KAOH AOH20160703021010807/03/16 02:10:31  5-MIN KAOH 030710Z AUTO 08004KT 10SM CLR 15/14 A3012 800 93 1000 090/04 RMK AO2 T01500139
04850KAOH AOH20160703021510807/03/16 02:15:31  5-MIN KAOH 030715Z AUTO 08003KT 10SM CLR 15/14 A3012 800 93 1000 090/03 RMK AO2 T01500139
04850KAOH AOH20160703022010807/03/16 02:20:31  5-MIN KAOH 030720Z AUTO 08004KT 10SM CLR 15/14 A3011 800 93 1000 090/04 RMK AO2 T01500139
04850KAOH AOH20160703022510807/03/16 02:25:31  5-MIN KAOH 030725Z AUTO 07004KT 10SM CLR 14/14 A3011 800 96 1000 080/04 RMK AO2 T01440139
04850KAOH AOH20160703023010807/03/16 02:30:31  5-MIN KAOH 030730Z AUTO 08003KT 10SM CLR 14/14 A3011 800 96 1000 090/03 RMK AO2 T01440139
04850KAOH AOH20160703023510807/03/16 02:35:31  5-MIN KAOH 030735Z AUTO 09003KT 10SM CLR 14/14 A3011 800 96 1000 100/03 RMK AO2 T01440139
04850KAOH AOH20160703024010807/03/16 02:40:31  5-MIN KAOH 030740Z AUTO 00000KT 10SM CLR 15/14 A3012 800 93 1000 000/00 RMK AO2 T01500139
04850KAOH AOH20160703024510807/03/16 02:45:31  5-MIN KAOH 030745Z AUTO 00000KT 10SM CLR 15/14 A3012 790 96 1000 000/00 RMK AO2 T01500144
04850KAOH AOH20160703025011507/03/16 02:50:31  5-MIN KAOH 030750Z AUTO 00000KT 10SM CLR 15/14 A3012 790 93 1000 000/00 RMK AO2 SLP196 T01500139
04850KAOH AOH20160703025510807/03/16 02:55:31  5-MIN KAOH 030755Z AUTO 00000KT 10SM CLR 15/14 A3012 790 93 1000 000/00 RMK AO2 T01500139
04850KAOH AOH20160703030010807/03/16 03:00:31  5-MIN KAOH 030800Z AUTO 11003KT 10SM CLR 16/14 A3011 800 90 1100 120/03 RMK AO2 T01560139
04850KAOH AOH20160703030510807/03/16 03:05:31  5-MIN KAOH 030805Z AUTO 09004KT 10SM CLR 16/14 A3011 800 90 1100 100/04 RMK AO2 T01560139
04850KAOH AOH20160703031010807/03/16 03:10:31  5-MIN KAOH 030810Z AUTO 10004KT 10SM CLR 15/14 A3011 800 93 1000 110/04 RMK AO2 T01500139
04850KAOH AOH20160703031510707/03/16 03:15:31  5-MIN KAOH 030815Z AUTO 13003KT 9SM CLR 15/14 A3011 800 93 1000 130/03 RMK AO2 T01500139
04850KAOH AOH20160703032010807/03/16 03:20:31  5-MIN KAOH 030820Z AUTO 00000KT 10SM CLR 15/14 A3011 800 93 1000 000/00 RMK AO2 T01500139
04850KAOH AOH20160703032511107/03/16 03:25:31  5-MIN KAOH 030825Z AUTO 00000KT 10SM FEW120 16/14 A3011 800 93 1100 000/00 RMK AO2 T01560144
04850KAOH AOH20160703033011007/03/16 03:30:31  5-MIN KAOH 030830Z AUTO 10003KT 9SM SCT120 16/14 A3011 800 93 1100 100/03 RMK AO2 T01560144
04850KAOH AOH20160703033511007/03/16 03:35:31  5-MIN KAOH 030835Z AUTO 10003KT 9SM FEW120 16/14 A3011 800 93 1100 100/03 RMK AO2 T01560144
04850KAOH AOH20160703034011007/03/16 03:40:31  5-MIN KAOH 030840Z AUTO 09003KT 9SM FEW120 15/14 A3011 800 96 1000 090/03 RMK AO2 T01500144
04850KAOH AOH20160703034511007/03/16 03:45:31  5-MIN KAOH 030845Z AUTO 08003KT 9SM FEW120 15/14 A3011 800 96 1000 090/03 RMK AO2 T01500144
04850KAOH AOH20160703035012307/03/16 03:50:31  5-MIN KAOH 030850Z AUTO 09004KT 9SM FEW120 15/14 A3010 810 96 1000 100/04 RMK AO2 SLP190 T01500144 58001
04850KAOH AOH20160703035511007/03/16 03:55:31  5-MIN KAOH 030855Z AUTO 10004KT 9SM FEW110 15/14 A3011 810 96 1000 100/04 RMK AO2 T01500144
04850KAOH AOH20160703040011007/03/16 04:00:31  5-MIN KAOH 030900Z AUTO 09005KT 8SM SCT110 15/14 A3011 810 96 1000 100/05 RMK AO2 T01500144
04850KAOH AOH20160703040511007/03/16 04:05:31  5-MIN KAOH 030905Z AUTO 09005KT 8SM SCT110 15/14 A3011 810 96 1000 100/05 RMK AO2 T01500144
04850KAOH AOH20160703041011007/03/16 04:10:31  5-MIN KAOH 030910Z AUTO 09003KT 8SM BKN110 16/14 A3011 800 93 1100 090/03 RMK AO2 T01560144
04850KAOH AOH20160703041511007/03/16 04:15:31  5-MIN KAOH 030915Z AUTO 09003KT 9SM BKN110 16/14 A3011 800 93 1100 090/03 RMK AO2 T01560144
04850KAOH AOH20160703042011007/03/16 04:20:31  5-MIN KAOH 030920Z AUTO 09003KT 9SM BKN120 16/14 A3011 800 93 1100 100/03 RMK AO2 T01560144
04850KAOH AOH20160703042511007/03/16 04:25:31  5-MIN KAOH 030925Z AUTO 09003KT 9SM OVC120 16/14 A3011 800 93 1100 090/03 RMK AO2 T01560144
04850KAOH AOH20160703043011007/03/16 04:30:31  5-MIN KAOH 030930Z AUTO 08004KT 9SM BKN120 16/14 A3011 800 93 1100 090/04 RMK AO2 T01560144
04850KAOH AOH20160703043511107/03/16 04:35:31  5-MIN KAOH 030935Z AUTO 09004KT 10SM BKN120 16/14 A3011 810 93 1100 100/04 RMK AO2 T01560144
04850KAOH AOH20160703044011007/03/16 04:40:31  5-MIN KAOH 030940Z AUTO 10003KT 9SM SCT120 16/14 A3011 800 93 1100 110/03 RMK AO2 T01560144
04850KAOH AOH20160703044511007/03/16 04:45:31  5-MIN KAOH 030945Z AUTO 11004KT 9SM FEW120 16/14 A3011 800 93 1100 120/04 RMK AO2 T01560144
04850KAOH AOH20160703045011707/03/16 04:50:31  5-MIN KAOH 030950Z AUTO 13004KT 9SM FEW120 16/14 A3011 800 90 1100 130/04 RMK AO2 SLP191 T01560139
04850KAOH AOH20160703045510807/03/16 04:55:31  5-MIN KAOH 030955Z AUTO 12003KT 10SM CLR 16/14 A3011 800 90 1100 120/03 RMK AO2 T01560139
04850KAOH AOH20160703050010807/03/16 05:00:31  5-MIN KAOH 031000Z AUTO 11003KT 10SM CLR 16/14 A3011 800 90 1100 120/03 RMK AO2 T01560139
04850KAOH AOH20160703050510807/03/16 05:05:31  5-MIN KAOH 031005Z AUTO 11003KT 10SM CLR 16/14 A3011 800 93 1100 120/03 RMK AO2 T01560144
04850KAOH AOH20160703051010807/03/16 05:10:31  5-MIN KAOH 031010Z AUTO 11003KT 10SM CLR 16/14 A3011 800 90 1100 120/03 RMK AO2 T01560139
04850KAOH AOH20160703051510807/03/16 05:15:31  5-MIN KAOH 031015Z AUTO 12003KT 10SM CLR 16/14 A3011 800 90 1100 120/03 RMK AO2 T01560139
04850KAOH AOH20160703052010807/03/16 05:20:31  5-MIN KAOH 031020Z AUTO 13003KT 10SM CLR 16/14 A3011 800 90 1100 140/03 RMK AO2 T01560139
04850KAOH AOH20160703052510807/03/16 05:25:31  5-MIN KAOH 031025Z AUTO 12003KT 10SM CLR 16/14 A3011 800 86 1200 120/03 RMK AO2 T01610139
04850KAOH AOH20160703053010807/03/16 05:30:31  5-MIN KAOH 031030Z AUTO 00000KT 10SM CLR 16/14 A3011 800 90 1100 000/00 RMK AO2 T01560139
04850KAOH AOH20160703053510807/03/16 05:35:31  5-MIN KAOH 031035Z AUTO 00000KT 10SM CLR 16/14 A3011 800 90 1100 000/00 RMK AO2 T01560139
04850KAOH AOH20160703054010807/03/16 05:40:31  5-MIN KAOH 031040Z AUTO 00000KT 10SM CLR 16/14 A3012 790 93 1100 000/00 RMK AO2 T01560144
04850KAOH AOH20160703054510807/03/16 05:45:31  5-MIN KAOH 031045Z AUTO 00000KT 10SM CLR 16/14 A3012 790 86 1100 000/00 RMK AO2 T01610139
04850KAOH AOH20160703055011507/03/16 05:50:31  5-MIN KAOH 031050Z AUTO 00000KT 10SM CLR 16/14 A3012 790 90 1100 000/00 RMK AO2 SLP196 T01560139
04850KAOH AOH20160703055510807/03/16 05:55:31  5-MIN KAOH 031055Z AUTO 00000KT 10SM CLR 16/14 A3012 790 86 1100 000/00 RMK AO2 T01610139
04850KAOH AOH20160703060010807/03/16 06:00:31  5-MIN KAOH 031100Z AUTO 00000KT 10SM CLR 16/14 A3012 790 86 1100 000/00 RMK AO2 T01610139
04850KAOH AOH20160703060510807/03/16 06:05:31  5-MIN KAOH 031105Z AUTO 00000KT 10SM CLR 16/14 A3012 790 86 1100 000/00 RMK AO2 T01610139
04850KAOH AOH20160703061010807/03/16 06:10:31  5-MIN KAOH 031110Z AUTO 00000KT 10SM CLR 16/14 A3012 790 86 1100 000/00 RMK AO2 T01610139
04850KAOH AOH20160703061510807/03/16 06:15:31  5-MIN KAOH 031115Z AUTO 00000KT 10SM CLR 16/14 A3013 790 90 1100 000/00 RMK AO2 T01610144
04850KAOH AOH20160703062010807/03/16 06:20:31  5-MIN KAOH 031120Z AUTO 00000KT 10SM CLR 16/14 A3013 790 90 1100 000/00 RMK AO2 T01610144
04850KAOH AOH20160703062510807/03/16 06:25:31  5-MIN KAOH 031125Z AUTO 00000KT 10SM CLR 16/14 A3013 780 90 1100 000/00 RMK AO2 T01610144
04850KAOH AOH20160703063010807/03/16 06:30:31  5-MIN KAOH 031130Z AUTO 00000KT 10SM CLR 16/15 A3013 780 93 1100 000/00 RMK AO2 T01610150
04850KAOH AOH20160703063510807/03/16 06:35:31  5-MIN KAOH 031135Z AUTO 00000KT 10SM CLR 17/15 A3013 780 90 1200 000/00 RMK AO2 T01670150
04850KAOH AOH20160703064010807/03/16 06:40:31  5-MIN KAOH 031140Z AUTO 00000KT 10SM CLR 17/15 A3013 780 90 1200 000/00 RMK AO2 T01670150
04850KAOH AOH20160703064510807/03/16 06:45:31  5-MIN KAOH 031145Z AUTO 00000KT 10SM CLR 17/15 A3013 780 90 1200 000/00 RMK AO2 T01670150
04850KAOH AOH20160703065013307/03/16 06:50:31  5-MIN KAOH 031150Z AUTO 00000KT 10SM CLR 17/15 A3013 790 87 1300 000/00 RMK AO2 SLP198 T01720150 10172 20144 57009
04850KAOH AOH20160703065510807/03/16 06:55:31  5-MIN KAOH 031155Z AUTO 00000KT 10SM CLR 17/15 A3013 780 87 1300 000/00 RMK AO2 T01720150
04850KAOH AOH20160703070010807/03/16 07:00:31  5-MIN KAOH 031200Z AUTO 08003KT 10SM CLR 17/15 A3013 790 87 1300 080/03 RMK AO2 T01720150
04850KAOH AOH20160703070510807/03/16 07:05:31  5-MIN KAOH 031205Z AUTO 08003KT 10SM CLR 17/15 A3013 790 87 1300 090/03 RMK AO2 T01720150
04850KAOH AOH20160703071010807/03/16 07:10:31  5-MIN KAOH 031210Z AUTO 07003KT 10SM CLR 17/15 A3013 790 87 1300 070/03 RMK AO2 T01720150
04850KAOH AOH20160703071510807/03/16 07:15:31  5-MIN KAOH 031215Z AUTO 08003KT 10SM CLR 17/15 A3013 780 87 1300 080/03 RMK AO2 T01720150
04850KAOH AOH20160703072010807/03/16 07:20:31  5-MIN KAOH 031220Z AUTO 08003KT 10SM CLR 17/15 A3013 780 87 1300 090/03 RMK AO2 T01720150
04850KAOH AOH20160703072510807/03/16 07:25:31  5-MIN KAOH 031225Z AUTO 00000KT 10SM CLR 18/15 A3013 780 83 1300 000/00 RMK AO2 T01780150
04850KAOH AOH20160703073010807/03/16 07:30:31  5-MIN KAOH 031230Z AUTO 08003KT 10SM CLR 18/15 A3014 780 83 1300 080/03 RMK AO2 T01780150
04850KAOH AOH20160704043011807/04/16 04:30:31  5-MIN KAOH 040930Z AUTO 07007KT 10SM SCT036 OVC050 17/16 A2997 930 93 1400 080/07 RMK AO2 T01670156
04850KAOH AOH20160704043511807/04/16 04:35:31  5-MIN KAOH 040935Z AUTO 08007KT 10SM FEW036 OVC048 17/16 A2997 930 93 1400 090/07 RMK AO2 T01670156
04850KAOH AOH20160704044012507/04/16 04:40:31  5-MIN KAOH 040940Z AUTO 08006KT 10SM FEW038 BKN045 OVC055 17/16 A2997 930 93 1400 090/06 RMK AO2 T01670156
04850KAOH AOH20160704044511807/04/16 04:45:31  5-MIN KAOH 040945Z AUTO 08006KT 10SM BKN046 OVC055 17/16 A2997 930 93 1400 090/06 RMK AO2 T01670156
04850KAOH AOH20160704045012507/04/16 04:50:31  5-MIN KAOH 040950Z AUTO 09005KT 10SM BKN046 OVC055 17/16 A2997 930 93 1400 100/05 RMK AO2 SLP146 T01670156
04850KAOH AOH20160704045512507/04/16 04:55:31  5-MIN KAOH 040955Z AUTO 09006KT 10SM BKN047 BKN055 OVC070 17/16 A2997 930 93 1400 100/06 RMK AO2 T01670156
04850KAOH AOH20160704050011807/04/16 05:00:31  5-MIN KAOH 041000Z AUTO 09007KT 10SM SCT045 OVC060 17/16 A2997 930 93 1400 100/07 RMK AO2 T01670156
04850KAOH AOH20160704050511807/04/16 05:05:31  5-MIN KAOH 041005Z AUTO 09008KT 10SM SCT043 OVC060 17/16 A2997 930 93 1400 100/08 RMK AO2 T01670156
04850KAOH AOH20160704051012507/04/16 05:10:31  5-MIN KAOH 041010Z AUTO 09007KT 10SM FEW031 BKN043 OVC060 17/16 A2997 930 93 1400 100/07 RMK AO2 T01670156
04850KAOH AOH20160704051512507/04/16 05:15:31  5-MIN KAOH 041015Z AUTO 09008KT 10SM FEW034 BKN043 OVC060 17/16 A2997 930 93 1400 100/08 RMK AO2 T01670156
04850KAOH AOH20160704052012507/04/16 05:20:31  5-MIN KAOH 041020Z AUTO 09008KT 10SM FEW032 BKN041 OVC060 17/16 A2997 930 93 1400 100/08 RMK AO2 T01670156
04850KAOH AOH20160704052511807/04/16 05:25:31  5-MIN KAOH 041025Z AUTO 09006KT 10SM SCT032 OVC041 17/16 A2997 930 93 1400 090/06 RMK AO2 T01670156
04850KAOH AOH20160704053011807/04/16 05:30:31  5-MIN KAOH 041030Z AUTO 10008KT 10SM SCT032 OVC041 17/16 A2997 930 93 1400 100/08 RMK AO2 T01670156
04850KAOH AOH20160704053511807/04/16 05:35:31  5-MIN KAOH 041035Z AUTO 10007KT 10SM BKN031 OVC041 17/16 A2997 930 93 1400 100/07 RMK AO2 T01670156
04850KAOH AOH20160704054011807/04/16 05:40:31  5-MIN KAOH 041040Z AUTO 10009KT 10SM BKN031 OVC041 17/16 A2997 930 93 1400 110/09 RMK AO2 T01670156
04850KAOH AOH20160704054511807/04/16 05:45:31  5-MIN KAOH 041045Z AUTO 10007KT 10SM BKN031 OVC039 17/16 A2997 930 93 1400 100/07 RMK AO2 T01670156
04850KAOH AOH20160704055012507/04/16 05:50:31  5-MIN KAOH 041050Z AUTO 10007KT 10SM BKN031 OVC039 17/16 A2997 930 93 1400 110/07 RMK AO2 SLP146 T01670156
04850KAOH AOH20160704055511107/04/16 05:55:31  5-MIN KAOH 041055Z AUTO 10007KT 10SM OVC031 17/16 A2997 930 93 1400 100/07 RMK AO2 T01670156
04850KAOH AOH20160704060011107/04/16 06:00:31  5-MIN KAOH 041100Z AUTO 09007KT 10SM OVC031 17/16 A2997 930 90 1400 100/07 RMK AO2 T01720156
04850KAOH AOH20160704060511107/04/16 06:05:31  5-MIN KAOH 041105Z AUTO 09007KT 10SM OVC031 17/16 A2997 930 90 1400 100/07 RMK AO2 T01720156
04850KAOH AOH20160704061011107/04/16 06:10:31  5-MIN KAOH 041110Z AUTO 09006KT 10SM OVC031 17/16 A2997 930 90 1400 100/06 RMK AO2 T01720156
04850KAOH AOH20160704061511107/04/16 06:15:31  5-MIN KAOH 041115Z AUTO 11005KT 10SM OVC031 17/16 A2997 930 90 1400 110/05 RMK AO2 T01720156
04850KAOH AOH20160704062011107/04/16 06:20:31  5-MIN KAOH 041120Z AUTO 10007KT 10SM OVC031 17/16 A2997 940 90 1500 110/07 RMK AO2 T01720156
04850KAOH AOH20160704062511107/04/16 06:25:31  5-MIN KAOH 041125Z AUTO 10006KT 10SM OVC031 17/16 A2996 940 90 1500 110/06 RMK AO2 T01720156
04850KAOH AOH20160704063011107/04/16 06:30:31  5-MIN KAOH 041130Z AUTO 10007KT 10SM OVC032 17/16 A2996 940 93 1400 110/07 RMK AO2 T01670156
04850KAOH AOH20160704063511107/04/16 06:35:31  5-MIN KAOH 041135Z AUTO 10009KT 10SM OVC032 17/16 A2996 940 90 1500 100/09 RMK AO2 T01720156
04850KAOH AOH20160704064012907/04/16 06:40:31  5-MIN KAOH 041140Z AUTO 10007KT 6SM -RA BR OVC032 17/16 A2996 940 93 1400 110/07 RMK AO2 RAB37 P0000 T01670156
04850KAOH AOH20160704064512907/04/16 06:45:31  5-MIN KAOH 041145Z AUTO 10006KT 4SM -RA BR OVC034 17/16 A2996 940 93 1400 110/06 RMK AO2 RAB37 P0000 T01670156
04850KAOH AOH20160704065016607/04/16 06:50:31  5-MIN KAOH 041150Z AUTO 10007KT 3SM -RA BR OVC034 17/16 A2996 940 93 1400 100/07 RMK AO2 RAB37 SLP143 P0001 60001 70001 T01670156 10172 20161 56010
04850KAOH AOH20160704065512307/04/16 06:55:31  5-MIN KAOH 041155Z AUTO 10007KT 3SM -RA BR OVC034 17/16 A2996 940 93 1400 110/07 RMK AO2 P0000 T01670156
04850KAOH AOH20160704070012307/04/16 07:00:31  5-MIN KAOH 041200Z AUTO 09009KT 4SM -RA BR OVC034 17/16 A2996 940 96 1400 100/09 RMK AO2 P0000 T01670161
04850KAOH AOH20160704070512307/04/16 07:05:31  5-MIN KAOH 041205Z AUTO 10008KT 4SM -RA BR OVC032 17/16 A2996 940 96 1400 100/08 RMK AO2 P0000 T01670161
04850KAOH AOH20160704071013707/04/16 07:10:31  5-MIN KAOH 041210Z AUTO 10007KT 4SM -RA BR FEW022 BKN030 OVC037 17/16 A2996 940 96 1400 110/07 RMK AO2 P0001 T01670161
04850KAOH AOH20160704071513707/04/16 07:15:31  5-MIN KAOH 041215Z AUTO 10009KT 5SM -RA BR SCT024 BKN030 OVC037 17/16 A2996 940 96 1400 110/09 RMK AO2 P0001 T01670161
04850KAOH AOH20160704072013007/04/16 07:20:31  5-MIN KAOH 041220Z AUTO 10008KT 6SM -RA BR BKN024 OVC030 17/16 A2996 940 96 1400 100/08 RMK AO2 P0001 T01670161
04850KAOH AOH20160704072513007/04/16 07:25:31  5-MIN KAOH 041225Z AUTO 10009KT 6SM -RA BR BKN026 OVC030 17/16 A2996 940 96 1400 100/09 RMK AO2 P0001 T01670161
04850KAOH AOH20160704073012707/04/16 07:30:31  5-MIN KAOH 041230Z AUTO 10007KT 7SM -RA BKN024 OVC030 17/16 A2996 940 96 1400 110/07 RMK AO2 P0001 T01670161
04850KAOH AOH20160704073512007/04/16 07:35:31  5-MIN KAOH 041235Z AUTO 10007KT 7SM -RA OVC026 17/16 A2996 940 96 1400 100/07 RMK AO2 P0001 T01670161
04850KAOH AOH20160704074012307/04/16 07:40:31  5-MIN KAOH 041240Z AUTO 08007KT 5SM -RA BR OVC026 17/16 A2996 940 96 1400 090/07 RMK AO2 P0001 T01670161
04850KAOH AOH20160704074512307/04/16 07:45:31  5-MIN KAOH 041245Z AUTO 09007KT 5SM -RA BR OVC024 17/16 A2996 940 96 1400 090/07 RMK AO2 P0001 T01670161
04850KAOH AOH20160704075012807/04/16 07:50:31  5-MIN KAOH 041250Z AUTO 08007KT 10SM -RA OVC024 17/16 A2996 940 96 1400 090/07 RMK AO2 SLP142 P0002 T01670161
04850KAOH AOH20160704075512307/04/16 07:55:31  5-MIN KAOH 041255Z AUTO 09006KT 10SM OVC025 17/16 A2996 940 96 1400 100/06 RMK AO2 RAE54 P0000 T01670161
04850KAOH AOH20160704080012507/04/16 08:00:31  5-MIN KAOH 041300Z AUTO 09007KT 10SM OVC025 17/16 A2996 940 96 1400 100/07 RMK AO2 RAE1254 P0000 T01670161
04850KAOH AOH20160704080512507/04/16 08:05:31  5-MIN KAOH 041305Z AUTO 09008KT 10SM OVC026 17/16 A2996 940 93 1500 100/08 RMK AO2 RAE1254 P0000 T01720161
04850KAOH AOH20160704081012507/04/16 08:10:31  5-MIN KAOH 041310Z AUTO 09007KT 10SM OVC028 17/16 A2996 940 93 1500 100/07 RMK AO2 RAE1254 P0000 T01720161
04850KAOH AOH20160704081512507/04/16 08:15:31  5-MIN KAOH 041315Z AUTO 09008KT 10SM OVC028 17/16 A2996 940 93 1500 100/08 RMK AO2 RAE1254 P0000 T01720161
04850KAOH AOH20160704082012507/04/16 08:20:31  5-MIN KAOH 041320Z AUTO 09007KT 10SM OVC028 17/16 A2996 950 93 1500 090/07 RMK AO2 RAE1254 P0000 T01720161
04850KAOH AOH20160704082512507/04/16 08:25:31  5-MIN KAOH 041325Z AUTO 09006KT 10SM OVC028 17/16 A2995 950 93 1500 100/06 RMK AO2 RAE1254 P0000 T01720161
04850KAOH AOH20160704083012507/04/16 08:30:31  5-MIN KAOH 041330Z AUTO 10007KT 10SM OVC028 17/16 A2995 950 93 1500 100/07 RMK AO2 RAE1254 P0000 T01720161
04850KAOH AOH20160704083512507/04/16 08:35:31  5-MIN KAOH 041335Z AUTO 10007KT 10SM OVC028 17/16 A2996 950 93 1500 110/07 RMK AO2 RAE1254 P0000 T01720161
04850KAOH AOH20160704084012507/04/16 08:40:31  5-MIN KAOH 041340Z AUTO 10006KT 10SM OVC028 17/16 A2996 940 93 1500 110/06 RMK AO2 RAE1254 P0000 T01720161
04850KAOH AOH20160704084512507/04/16 08:45:31  5-MIN KAOH 041345Z AUTO 10006KT 10SM OVC027 17/16 A2995 950 93 1500 110/06 RMK AO2 RAE1254 P0000 T01720161
04850KAOH AOH20160704085013207/04/16 08:50:31  5-MIN KAOH 041350Z AUTO 10006KT 10SM OVC027 18/17 A2995 950 93 1500 110/06 RMK AO2 RAE1254 SLP140 P0000 T01780167
04850KAOH AOH20160704085511107/04/16 08:55:31  5-MIN KAOH 041355Z AUTO 10006KT 10SM OVC027 18/17 A2995 950 93 1500 110/06 RMK AO2 T01780167
04850KAOH AOH20160704090011107/04/16 09:00:31  5-MIN KAOH 041400Z AUTO 10007KT 10SM OVC027 18/17 A2995 950 93 1500 100/07 RMK AO2 T01780167
04850KAOH AOH20160704090511107/04/16 09:05:31  5-MIN KAOH 041405Z AUTO 09008KT 10SM OVC027 18/17 A2995 950 90 1600 100/08 RMK AO2 T01830167
04850KAOH AOH20160704091011107/04/16 09:10:31  5-MIN KAOH 041410Z AUTO 10008KT 10SM OVC028 18/17 A2995 950 90 1600 100/08 RMK AO2 T01830167
04850KAOH AOH20160704091511107/04/16 09:15:31  5-MIN KAOH 041415Z AUTO 10008KT 10SM OVC028 19/17 A2994 960 87 1700 100/08 RMK AO2 T01890167
04850KAOH AOH20160704092011107/04/16 09:20:31  5-MIN KAOH 041420Z AUTO 10007KT 10SM OVC028 19/17 A2994 960 90 1700 100/07 RMK AO2 T01890172
04850KAOH AOH20160704092511107/04/16 09:25:31  5-MIN KAOH 041425Z AUTO 10009KT 10SM BKN028 19/17 A2994 960 87 1700 110/09 RMK AO2 T01940172
04850KAOH AOH20160704093012507/04/16 09:30:31  5-MIN KAOH 041430Z AUTO 11009KT 10SM BKN028 BKN060 BKN120 19/17 A2994 960 84 1700 120/09 RMK AO2 T01940167
04850KAOH AOH20160704093512507/04/16 09:35:31  5-MIN KAOH 041435Z AUTO 12009KT 10SM SCT029 BKN060 BKN120 19/17 A2994 960 84 1700 120/09 RMK AO2 T01940167
04850KAOH AOH20160704094012507/04/16 09:40:31  5-MIN KAOH 041440Z AUTO 11008KT 10SM FEW029 BKN050 BKN120 19/17 A2994 960 84 1700 120/08 RMK AO2 T01940167
04850KAOH AOH20160704094512507/04/16 09:45:31  5-MIN KAOH 041445Z AUTO 10007KT 10SM FEW023 SCT029 BKN050 20/17 A2994 960 81 1800 110/07 RMK AO2 T02000167
04850KAOH AOH20160704095011507/04/16 09:50:31  5-MIN KAOH 041450Z AUTO 12008KT 10SM BKN023 BKN029 BKN120 20/17 A2994 960 81 1800 120/08 RMK AO2
04850KAOH AOH20160704095512507/04/16 09:55:31  5-MIN KAOH 041455Z AUTO 12007KT 10SM BKN023 BKN050 BKN110 20/17 A2994 960 84 1800 120/07 RMK AO2 T02000172
04850KAOH AOH20160704100011807/04/16 10:00:31  5-MIN KAOH 041500Z AUTO 11007KT 10SM BKN023 BKN050 20/17 A2994 960 81 1800 120/07 RMK AO2 T02000167
04850KAOH AOH20160704100511807/04/16 10:05:31  5-MIN KAOH 041505Z AUTO 12008KT 10SM BKN023 OVC050 20/17 A2994 960 81 1800 120/08 RMK AO2 T02000167
04850KAOH AOH20160704101011807/04/16 10:10:31  5-MIN KAOH 041510Z AUTO 12009KT 10SM BKN024 OVC055 20/17 A2994 960 81 1800 130/09 RMK AO2 T02000167
04850KAOH AOH20160704101511807/04/16 10:15:31  5-MIN KAOH 041515Z AUTO 12008KT 10SM BKN024 OVC055 20/17 A2994 960 81 1800 130/08 RMK AO2 T02000167
04850KAOH AOH20160704102011807/04/16 10:20:31  5-MIN KAOH 041520Z AUTO 13008KT 10SM BKN024 OVC055 20/17 A2994 960 81 1800 140/08 RMK AO2 T02000167
04850KAOH AOH20160704102511807/04/16 10:25:31  5-MIN KAOH 041525Z AUTO 12008KT 10SM BKN026 OVC055 20/17 A2994 960 81 1800 130/08 RMK AO2 T02000167
04850KAOH AOH20160704103011107/04/16 10:30:31  5-MIN KAOH 041530Z AUTO 14006KT 10SM OVC026 20/17 A2994 960 84 1800 150/06 RMK AO2 T02000172
04850KAOH AOH20160704103511807/04/16 10:35:31  5-MIN KAOH 041535Z AUTO 13008KT 10SM BKN026 OVC050 20/17 A2994 960 84 1800 130/08 RMK AO2 T02000172
04850KAOH AOH20160704104012507/04/16 10:40:31  5-MIN KAOH 041540Z AUTO 13008KT 10SM BKN026 BKN039 OVC048 20/17 A2994 960 81 1800 140/08 RMK AO2 T02000167
04850KAOH AOH20160704104511807/04/16 10:45:31  5-MIN KAOH 041545Z AUTO 12009KT 10SM BKN027 OVC045 20/17 A2994 960 81 1800 130/09 RMK AO2 T02000167
04850KAOH AOH20160704105010807/04/16 10:50:31  5-MIN KAOH 041550Z AUTO 12007KT 10SM SCT027 OVC043 20/17 A2994 960 81 1800 120/07 RMK AO2
04850KAOH AOH20160704105511807/04/16 10:55:31  5-MIN KAOH 041555Z AUTO 12006KT 10SM FEW027 OVC043 20/17 A2994 960 84 1800 130/06 RMK AO2 T02000172
04850KAOH AOH20160704110011807/04/16 11:00:31  5-MIN KAOH 041600Z AUTO 12006KT 10SM FEW027 OVC043 20/17 A2994 960 81 1800 130/06 RMK AO2 T02000167
04850KAOH AOH20160704110511107/04/16 11:05:31  5-MIN KAOH 041605Z AUTO 14006KT 10SM OVC043 20/17 A2994 960 84 1800 140/06 RMK AO2 T02000172
04850KAOH AOH20160704111011107/04/16 11:10:31  5-MIN KAOH 041610Z AUTO 13006KT 10SM OVC043 20/17 A2994 960 84 1800 140/06 RMK AO2 T02000172
04850KAOH AOH20160704111511107/04/16 11:15:31  5-MIN KAOH 041615Z AUTO 12004KT 10SM OVC042 21/17 A2994 960 81 1900 120/04 RMK AO2 T02060172
04850KAOH AOH20160704112011807/04/16 11:20:31  5-MIN KAOH 041620Z AUTO 12005KT 10SM FEW015 OVC042 21/18 A2993 960 84 1900 130/05 RMK AO2 T02060178
04850KAOH AOH20160704112511807/04/16 11:25:31  5-MIN KAOH 041625Z AUTO 12005KT 10SM SCT015 OVC042 21/18 A2993 970 81 1900 120/05 RMK AO2 T02110178
04850KAOH AOH20160704113011807/04/16 11:30:31  5-MIN KAOH 041630Z AUTO 12004KT 10SM BKN015 OVC043 21/17 A2993 970 78 1900 120/04 RMK AO2 T02110172
04850KAOH AOH20160704113511807/04/16 11:35:31  5-MIN KAOH 041635Z AUTO 14005KT 10SM BKN015 OVC043 21/17 A2993 970 78 1900 150/05 RMK AO2 T02110172
04850KAOH AOH20160704114011807/04/16 11:40:31  5-MIN KAOH 041640Z AUTO 13005KT 10SM BKN015 OVC043 21/17 A2993 970 78 1900 140/05 RMK AO2 T02110172
04850KAOH AOH20160704114511107/04/16 11:45:31  5-MIN KAOH 041645Z AUTO 15005KT 10SM OVC016 21/18 A2993 970 81 1900 150/05 RMK AO2 T02110178
04850KAOH AOH20160704115011807/04/16 11:50:31  5-MIN KAOH 041650Z AUTO 17004KT 10SM OVC016 21/18 A2993 970 81 1900 180/04 RMK AO2 SLP131 T02110178
04850KAOH AOH20160704115511107/04/16 11:55:31  5-MIN KAOH 041655Z AUTO 15006KT 10SM OVC016 21/18 A2993 970 84 1900 160/06 RMK AO2 T02060178
04850KAOH AOH20160704120011107/04/16 12:00:31  5-MIN KAOH 041700Z AUTO 16005KT 10SM OVC016 21/18 A2993 970 84 1900 170/05 RMK AO2 T02060178
04850KAOH AOH20160704120511107/04/16 12:05:31  5-MIN KAOH 041705Z AUTO 14003KT 10SM OVC016 21/18 A2993 970 84 1900 150/03 RMK AO2 T02060178
04850KAOH AOH20160704121011107/04/16 12:10:31  5-MIN KAOH 041710Z AUTO 15005KT 10SM OVC016 21/18 A2992 970 84 1900 160/05 RMK AO2 T02060178
04850KAOH AOH20160704121511107/04/16 12:15:31  5-MIN KAOH 041715Z AUTO 15005KT 10SM OVC015 21/18 A2992 980 84 1900 150/05 RMK AO2 T02060178
04850KAOH AOH20160704122011107/04/16 12:20:31  5-MIN KAOH 041720Z AUTO 14005KT 10SM OVC015 21/18 A2992 980 81 2000 150/05 RMK AO2 T02110178
04850KAOH AOH20160704122511107/04/16 12:25:31  5-MIN KAOH 041725Z AUTO 14005KT 10SM OVC015 21/18 A2992 980 81 2000 150/05 RMK AO2 T02110178
04850KAOH AOH20160704123011107/04/16 12:30:31  5-MIN KAOH 041730Z AUTO 13005KT 10SM OVC015 21/18 A2992 980 81 2000 140/05 RMK AO2 T02110178
04850KAOH AOH20160704123511107/04/16 12:35:31  5-MIN KAOH 041735Z AUTO 13004KT 10SM OVC015 21/18 A2991 980 81 2000 140/04 RMK AO2 T02110178
04850KAOH AOH20160704124011107/04/16 12:40:31  5-MIN KAOH 041740Z AUTO 14005KT 10SM OVC015 21/18 A2991 990 81 2000 140/05 RMK AO2 T02110178
04850KAOH AOH20160704124511107/04/16 12:45:31  5-MIN KAOH 041745Z AUTO 12004KT 10SM OVC015 21/18 A2991 990 81 2000 130/04 RMK AO2 T02110178
04850KAOH AOH20160704125014207/04/16 12:50:31  5-MIN KAOH 041750Z AUTO 09005KT 10SM OVC015 22/18 A2990 990 81 2000 100/05 RMK AO2 SLP122 60002 T02170183 10217 20167 58007
04850KAOH AOH20160704125511207/04/16 12:55:31  5-MIN KAOH 041755Z AUTO 11004KT 10SM OVC015 22/18 A2990 1000 81 2000 120/04 RMK AO2 T02170183
04850KAOH AOH20160704130011207/04/16 13:00:31  5-MIN KAOH 041800Z AUTO 00000KT 10SM OVC015 21/18 A2990 1000 81 2000 000/00 RMK AO2 T02110178
04850KAOH AOH20160704130511207/04/16 13:05:31  5-MIN KAOH 041805Z AUTO 14005KT 10SM OVC016 22/18 A2990 1000 81 2000 140/05 RMK AO2 T02170183
04850KAOH AOH20160704131011207/04/16 13:10:31  5-MIN KAOH 041810Z AUTO 15004KT 10SM OVC016 22/18 A2990 1000 81 2000 160/04 RMK AO2 T02170183
04850KAOH AOH20160704131511207/04/16 13:15:31  5-MIN KAOH 041815Z AUTO 13004KT 10SM OVC016 22/18 A2990 1000 81 2000 130/04 RMK AO2 T02170183
04850KAOH AOH20160704132011207/04/16 13:20:31  5-MIN KAOH 041820Z AUTO 13004KT 10SM OVC016 22/18 A2990 1000 81 2000 140/04 RMK AO2 T02170183
04850KAOH AOH20160704132511207/04/16 13:25:31  5-MIN KAOH 041825Z AUTO 14003KT 10SM OVC016 22/18 A2989 1000 81 2000 140/03 RMK AO2 T02170183
04850KAOH AOH20160704133011207/04/16 13:30:31  5-MIN KAOH 041830Z AUTO 16003KT 10SM OVC016 22/18 A2989 1000 81 2000 170/03 RMK AO2 T02170183
04850KAOH AOH20160704133511207/04/16 13:35:31  5-MIN KAOH 041835Z AUTO 10003KT 10SM OVC016 22/18 A2989 1000 81 2000 100/03 RMK AO2 T02170183
04850KAOH AOH20160704134011207/04/16 13:40:31  5-MIN KAOH 041840Z AUTO 16003KT 10SM OVC016 22/18 A2989 1000 81 2100 160/03 RMK AO2 T02170183
04850KAOH AOH20160704134511207/04/16 13:45:31  5-MIN KAOH 041845Z AUTO 00000KT 10SM OVC016 22/18 A2989 1010 78 2100 000/00 RMK AO2 T02220183
04850KAOH AOH20160704135011907/04/16 13:50:31  5-MIN KAOH 041850Z AUTO 09003KT 10SM OVC016 22/18 A2989 1010 78 2100 090/03 RMK AO2 SLP117 T02220183
04850KAOH AOH20160704135511207/04/16 13:55:31  5-MIN KAOH 041855Z AUTO 10003KT 10SM OVC016 22/18 A2989 1010 78 2100 110/03 RMK AO2 T02220183
04850KAOH AOH20160704140011207/04/16 14:00:31  5-MIN KAOH 041900Z AUTO 00000KT 10SM OVC016 22/18 A2988 1010 78 2100 000/00 RMK AO2 T02220183
04850KAOH AOH20160704140511207/04/16 14:05:31  5-MIN KAOH 041905Z AUTO 00000KT 10SM OVC018 22/19 A2989 1010 81 2100 000/00 RMK AO2 T02220189
04850KAOH AOH20160704141011207/04/16 14:10:31  5-MIN KAOH 041910Z AUTO 00000KT 10SM OVC018 22/18 A2989 1010 78 2100 000/00 RMK AO2 T02220183
04850KAOH AOH20160704141511207/04/16 14:15:31  5-MIN KAOH 041915Z AUTO 00000KT 10SM OVC018 23/19 A2989 1010 78 2200 000/00 RMK AO2 T02280189
04850KAOH AOH20160704142011207/04/16 14:20:31  5-MIN KAOH 041920Z AUTO 09003KT 10SM OVC018 23/19 A2989 1010 78 2200 090/03 RMK AO2 T02280189
04850KAOH AOH20160704142511207/04/16 14:25:31  5-MIN KAOH 041925Z AUTO 00000KT 10SM OVC018 23/19 A2988 1010 78 2200 000/00 RMK AO2 T02280189
04850KAOH AOH20160704143011207/04/16 14:30:31  5-MIN KAOH 041930Z AUTO 12003KT 10SM OVC016 23/19 A2988 1010 78 2200 130/03 RMK AO2 T02280189
04850KAOH AOH20160704143511207/04/16 14:35:31  5-MIN KAOH 041935Z AUTO 06003KT 10SM OVC016 23/19 A2988 1010 78 2200 060/03 RMK AO2 T02280189
04850KAOH AOH20160704144011207/04/16 14:40:31  5-MIN KAOH 041940Z AUTO 12004KT 10SM OVC016 23/19 A2988 1010 78 2200 130/04 RMK AO2 T02280189
04850KAOH AOH20160704144511207/04/16 14:45:31  5-MIN KAOH 041945Z AUTO 10003KT 10SM OVC016 23/19 A2989 1010 78 2200 110/03 RMK AO2 T02280189
04850KAOH AOH20160704145011907/04/16 14:50:31  5-MIN KAOH 041950Z AUTO VRB03KT 10SM OVC016 23/19 A2989 1010 78 2200 VRB/03 RMK AO2 SLP116 T02280189
04850KAOH AOH20160704145511207/04/16 14:55:31  5-MIN KAOH 041955Z AUTO 11004KT 10SM OVC017 23/19 A2988 1010 76 2200 120/04 RMK AO2 T02330189
04850KAOH AOH20160704150011207/04/16 15:00:31  5-MIN KAOH 042000Z AUTO 15005KT 10SM OVC017 23/19 A2989 1010 76 2200 150/05 RMK AO2 T02330189
04850KAOH AOH20160704150511207/04/16 15:05:31  5-MIN KAOH 042005Z AUTO 12004KT 10SM OVC017 23/19 A2989 1010 78 2200 130/04 RMK AO2 T02330194
04850KAOH AOH20160704151011207/04/16 15:10:31  5-MIN KAOH 042010Z AUTO 12005KT 10SM OVC017 23/19 A2989 1010 76 2200 120/05 RMK AO2 T02330189
04850KAOH AOH20160704151511207/04/16 15:15:31  5-MIN KAOH 042015Z AUTO 13005KT 10SM OVC017 23/19 A2989 1000 78 2200 130/05 RMK AO2 T02330194
04850KAOH AOH20160704152011207/04/16 15:20:31  5-MIN KAOH 042020Z AUTO 12004KT 10SM OVC017 23/19 A2989 1010 81 2200 130/04 RMK AO2 T02280194
04850KAOH AOH20160704152511207/04/16 15:25:31  5-MIN KAOH 042025Z AUTO 15004KT 10SM OVC017 23/19 A2989 1000 78 2200 150/04 RMK AO2 T02330194
04850KAOH AOH20160704153011207/04/16 15:30:31  5-MIN KAOH 042030Z AUTO 14004KT 10SM OVC017 23/19 A2989 1000 78 2200 150/04 RMK AO2 T02330194
04850KAOH AOH20160704153511207/04/16 15:35:31  5-MIN KAOH 042035Z AUTO 16006KT 10SM OVC017 23/19 A2989 1000 78 2200 170/06 RMK AO2 T02330194
04850KAOH AOH20160704154011207/04/16 15:40:31  5-MIN KAOH 042040Z AUTO 18006KT 10SM OVC017 23/19 A2989 1000 81 2200 190/06 RMK AO2 T02280194
04850KAOH AOH20160704154511207/04/16 15:45:31  5-MIN KAOH 042045Z AUTO 18005KT 10SM OVC017 23/19 A2989 1000 81 2200 190/05 RMK AO2 T02280194
04850KAOH AOH20160704155012507/04/16 15:50:31  5-MIN KAOH 042050Z AUTO 18006KT 10SM OVC017 23/20 A2990 1000 84 2200 190/06 RMK AO2 SLP118 T02280200 58012
04850KAOH AOH20160704155511207/04/16 15:55:31  5-MIN KAOH 042055Z AUTO 19006KT 10SM OVC017 23/19 A2989 1000 81 2200 190/06 RMK AO2 T02280194
04850KAOH AOH20160704160011207/04/16 16:00:31  5-MIN KAOH 042100Z AUTO 20005KT 10SM OVC017 23/19 A2989 1000 81 2200 210/05 RMK AO2 T02280194
04850KAOH AOH20160704160511207/04/16 16:05:31  5-MIN KAOH 042105Z AUTO 19004KT 10SM OVC017 23/20 A2989 1000 84 2200 200/04 RMK AO2 T02280200
04850KAOH AOH20160704161011207/04/16 16:10:31  5-MIN KAOH 042110Z AUTO 20004KT 10SM OVC019 23/19 A2989 1010 81 2200 200/04 RMK AO2 T02280194
04850KAOH AOH20160704161511207/04/16 16:15:31  5-MIN KAOH 042115Z AUTO 17004KT 10SM OVC019 23/20 A2989 1010 84 2200 180/04 RMK AO2 T02280200
04850KAOH AOH20160704162011207/04/16 16:20:31  5-MIN KAOH 042120Z AUTO 21004KT 10SM OVC019 23/20 A2989 1010 84 2200 210/04 RMK AO2 T02280200
04850KAOH AOH20160704162511207/04/16 16:25:31  5-MIN KAOH 042125Z AUTO 19004KT 10SM OVC019 23/20 A2988 1010 84 2200 200/04 RMK AO2 T02280200
04850KAOH AOH20160704163011207/04/16 16:30:31  5-MIN KAOH 042130Z AUTO 19004KT 10SM OVC019 23/20 A2988 1010 84 2200 190/04 RMK AO2 T02280200
04850KAOH AOH20160704163511207/04/16 16:35:31  5-MIN KAOH 042135Z AUTO 19003KT 10SM OVC019 23/20 A2988 1020 84 2200 200/03 RMK AO2 T02280200
04850KAOH AOH20160704164011207/04/16 16:40:31  5-MIN KAOH 042140Z AUTO 20003KT 10SM OVC019 23/20 A2988 1020 84 2200 210/03 RMK AO2 T02280200
04850KAOH AOH20160704164511207/04/16 16:45:31  5-MIN KAOH 042145Z AUTO 21003KT 10SM OVC019 23/20 A2988 1020 84 2200 210/03 RMK AO2 T02280200
04850KAOH AOH20160704165011907/04/16 16:50:31  5-MIN KAOH 042150Z AUTO 18003KT 10SM OVC019 23/20 A2988 1020 84 2200 180/03 RMK AO2 SLP112 T02280200
04850KAOH AOH20160704165511207/04/16 16:55:31  5-MIN KAOH 042155Z AUTO 21003KT 10SM OVC019 23/20 A2988 1020 84 2200 220/03 RMK AO2 T02280200
04850KAOH AOH20160704170011207/04/16 17:00:31  5-MIN KAOH 042200Z AUTO 18003KT 10SM OVC018 23/20 A2988 1020 84 2200 190/03 RMK AO2 T02280200
04850KAOH AOH20160704170511207/04/16 17:05:31  5-MIN KAOH 042205Z AUTO 21009KT 10SM OVC018 23/20 A2988 1020 84 2200 210/09 RMK AO2 T02280200
04850KAOH AOH20160704171011207/04/16 17:10:31  5-MIN KAOH 042210Z AUTO 22007KT 10SM OVC016 22/20 A2988 1020 87 2100 220/07 RMK AO2 T02220200
04850KAOH AOH20160704171511207/04/16 17:15:31  5-MIN KAOH 042215Z AUTO 24004KT 10SM OVC016 22/20 A2987 1020 87 2100 240/04 RMK AO2 T02220200
04850KAOH AOH20160704172011907/04/16 17:20:31  5-MIN KAOH 042220Z AUTO 22004KT 10SM BKN016 OVC025 22/20 A2987 1020 87 2100 230/04 RMK AO2 T02220200
04850KAOH AOH20160704172511907/04/16 17:25:31  5-MIN KAOH 042225Z AUTO 22005KT 10SM BKN016 OVC025 22/21 A2987 1020 90 2100 230/05 RMK AO2 T02220206
04850KAOH AOH20160704173011207/04/16 17:30:31  5-MIN KAOH 042230Z AUTO 20004KT 10SM OVC016 22/21 A2987 1030 90 2100 210/04 RMK AO2 T02220206
04850KAOH AOH20160704173511207/04/16 17:35:31  5-MIN KAOH 042235Z AUTO 21004KT 10SM OVC018 22/21 A2987 1030 90 2100 210/04 RMK AO2 T02220206
04850KAOH AOH20160704174011207/04/16 17:40:31  5-MIN KAOH 042240Z AUTO 20005KT 10SM OVC018 22/21 A2986 1030 90 2100 210/05 RMK AO2 T02220206
04850KAOH AOH20160704174511207/04/16 17:45:31  5-MIN KAOH 042245Z AUTO 20005KT 10SM OVC018 22/21 A2986 1030 90 2100 210/05 RMK AO2 T02220206
04850KAOH AOH20160704175011907/04/16 17:50:31  5-MIN KAOH 042250Z AUTO 21004KT 10SM OVC019 23/21 A2986 1030 87 2200 220/04 RMK AO2 SLP106 T02280206
04850KAOH AOH20160704175511207/04/16 17:55:31  5-MIN KAOH 042255Z AUTO 21004KT 10SM OVC019 23/21 A2986 1030 87 2200 210/04 RMK AO2 T02280206
04850KAOH AOH20160704180011207/04/16 18:00:31  5-MIN KAOH 042300Z AUTO 20004KT 10SM OVC019 23/21 A2986 1030 87 2200 210/04 RMK AO2 T02280206
04850KAOH AOH20160704180511207/04/16 18:05:31  5-MIN KAOH 042305Z AUTO 20005KT 10SM OVC016 23/21 A2986 1040 87 2200 210/05 RMK AO2 T02280206
04850KAOH AOH20160704181011907/04/16 18:10:31  5-MIN KAOH 042310Z AUTO 21003KT 10SM BKN016 OVC021 23/21 A2986 1040 87 2200 220/03 RMK AO2 T02280206
04850KAOH AOH20160704181511207/04/16 18:15:31  5-MIN KAOH 042315Z AUTO 20004KT 10SM OVC018 23/21 A2985 1040 87 2200 200/04 RMK AO2 T02280206
04850KAOH AOH20160704182011207/04/16 18:20:31  5-MIN KAOH 042320Z AUTO 20004KT 10SM OVC016 23/21 A2985 1040 87 2200 200/04 RMK AO2 T02280206
04850KAOH AOH20160704182511207/04/16 18:25:31  5-MIN KAOH 042325Z AUTO 22005KT 10SM OVC016 23/21 A2985 1040 87 2200 220/05 RMK AO2 T02280206
04850KAOH AOH20160704183011207/04/16 18:30:31  5-MIN KAOH 042330Z AUTO 21005KT 10SM OVC016 23/21 A2985 1040 87 2200 220/05 RMK AO2 T02280206
04850KAOH AOH20160704183511207/04/16 18:35:31  5-MIN KAOH 042335Z AUTO 21005KT 10SM OVC016 22/21 A2985 1040 90 2200 210/05 RMK AO2 T02220206
04850KAOH AOH20160704184011207/04/16 18:40:31  5-MIN KAOH 042340Z AUTO 20005KT 10SM OVC016 22/20 A2985 1040 87 2200 210/05 RMK AO2 T02220200
04850KAOH AOH20160704184511207/04/16 18:45:31  5-MIN KAOH 042345Z AUTO 21005KT 10SM OVC016 22/20 A2985 1040 87 2200 220/05 RMK AO2 T02220200
04850KAOH AOH20160704185013707/04/16 18:50:31  5-MIN KAOH 042350Z AUTO 22005KT 10SM OVC015 22/21 A2985 1040 90 2200 230/05 RMK AO2 SLP103 T02220206 10233 20211 55003
04850KAOH AOH20160704185511207/04/16 18:55:31  5-MIN KAOH 042355Z AUTO 22004KT 10SM OVC015 22/21 A2985 1040 90 2200 230/04 RMK AO2 T02220206
04850KAOH AOH20160704190011207/04/16 19:00:31  5-MIN KAOH 050000Z AUTO 21005KT 10SM OVC015 22/21 A2985 1040 90 2200 210/05 RMK AO2 T02220206
04850KAOH AOH20160704190511207/04/16 19:05:31  5-MIN KAOH 050005Z AUTO 21005KT 10SM OVC015 22/20 A2985 1040 87 2200 220/05 RMK AO2 T02220200
04850KAOH AOH20160704191011207/04/16 19:10:31  5-MIN KAOH 050010Z AUTO 22005KT 10SM OVC014 22/20 A2985 1040 87 2200 230/05 RMK AO2 T02220200
04850KAOH AOH20160704191511207/04/16 19:15:31  5-MIN KAOH 050015Z AUTO 21004KT 10SM OVC014 22/20 A2985 1040 87 2200 220/04 RMK AO2 T02220200
04850KAOH AOH20160704192011207/04/16 19:20:31  5-MIN KAOH 050020Z AUTO 22004KT 10SM OVC014 22/20 A2985 1040 87 2200 220/04 RMK AO2 T02220200
04850KAOH AOH20160704192511207/04/16 19:25:31  5-MIN KAOH 050025Z AUTO 21004KT 10SM OVC014 22/20 A2985 1040 87 2200 220/04 RMK AO2 T02220200
04850KAOH AOH20160704193011207/04/16 19:30:31  5-MIN KAOH 050030Z AUTO 21004KT 10SM OVC014 22/20 A2985 1040 87 2200 220/04 RMK AO2 T02220200
04850KAOH AOH20160704193511207/04/16 19:35:31  5-MIN KAOH 050035Z AUTO 21005KT 10SM OVC014 22/20 A2985 1040 87 2200 220/05 RMK AO2 T02220200
04850KAOH AOH20160704194011207/04/16 19:40:31  5-MIN KAOH 050040Z AUTO 22004KT 10SM OVC014 22/20 A2986 1040 87 2200 230/04 RMK AO2 T02220200
04850KAOH AOH20160704194511207/04/16 19:45:31  5-MIN KAOH 050045Z AUTO 22004KT 10SM OVC014 22/21 A2986 1040 90 2200 220/04 RMK AO2 T02220206
04850KAOH AOH20160704195011907/04/16 19:50:31  5-MIN KAOH 050050Z AUTO 20003KT 10SM OVC014 22/21 A2986 1040 90 2200 210/03 RMK AO2 SLP105 T02220206
04850KAOH AOH20160704195511907/04/16 19:55:31  5-MIN KAOH 050055Z AUTO 19003KT 10SM BKN014 OVC021 22/20 A2986 1040 87 2200 190/03 RMK AO2 T02220200
04850KAOH AOH20160704200011907/04/16 20:00:31  5-MIN KAOH 050100Z AUTO 21003KT 10SM BKN014 OVC021 22/21 A2986 1040 90 2200 220/03 RMK AO2 T02220206
04850KAOH AOH20160704200511907/04/16 20:05:31  5-MIN KAOH 050105Z AUTO 23003KT 10SM SCT014 OVC021 22/21 A2986 1040 90 2200 240/03 RMK AO2 T02220206
04850KAOH AOH20160704201011207/04/16 20:10:31  5-MIN KAOH 050110Z AUTO 22003KT 10SM OVC019 22/21 A2985 1040 90 2200 230/03 RMK AO2 T02220206
04850KAOH AOH20160704201511207/04/16 20:15:31  5-MIN KAOH 050115Z AUTO 22003KT 10SM OVC019 22/21 A2985 1040 90 2200 230/03 RMK AO2 T02220206
04850KAOH AOH20160704202011207/04/16 20:20:31  5-MIN KAOH 050120Z AUTO 22003KT 10SM OVC019 22/21 A2985 1040 90 2200 220/03 RMK AO2 T02220206
04850KAOH AOH20160704202511207/04/16 20:25:31  5-MIN KAOH 050125Z AUTO 22003KT 10SM OVC019 22/21 A2985 1040 90 2200 230/03 RMK AO2 T02220206
04850KAOH AOH20160704203011207/04/16 20:30:31  5-MIN KAOH 050130Z AUTO 23003KT 10SM OVC017 22/21 A2985 1040 90 2200 240/03 RMK AO2 T02220206
04850KAOH AOH20160704203511207/04/16 20:35:31  5-MIN KAOH 050135Z AUTO 23003KT 10SM OVC017 22/21 A2985 1040 90 2200 240/03 RMK AO2 T02220206
04850KAOH AOH20160704204011907/04/16 20:40:31  5-MIN KAOH 050140Z AUTO 23003KT 10SM BKN018 OVC034 22/21 A2986 1040 90 2200 240/03 RMK AO2 T02220206
04850KAOH AOH20160704204511907/04/16 20:45:31  5-MIN KAOH 050145Z AUTO 22003KT 10SM BKN018 OVC034 22/21 A2986 1040 90 2200 230/03 RMK AO2 T02220206
04850KAOH AOH20160704205013307/04/16 20:50:31  5-MIN KAOH 050150Z AUTO 22003KT 10SM SCT015 BKN020 OVC034 22/21 A2986 1040 90 2200 230/03 RMK AO2 SLP105 T02220206
04850KAOH AOH20160704205511907/04/16 20:55:31  5-MIN KAOH 050155Z AUTO 00000KT 10SM BKN017 OVC034 22/21 A2985 1040 90 2200 000/00 RMK AO2 T02220206
04850KAOH AOH20160704210012607/04/16 21:00:31  5-MIN KAOH 050200Z AUTO 22003KT 10SM SCT017 BKN030 OVC034 22/21 A2986 1040 93 2100 230/03 RMK AO2 T02170206
04850KAOH AOH20160704210511907/04/16 21:05:31  5-MIN KAOH 050205Z AUTO 00000KT 10SM SCT017 OVC034 22/21 A2985 1040 90 2200 000/00 RMK AO2 T02220206
04850KAOH AOH20160704211011907/04/16 21:10:31  5-MIN KAOH 050210Z AUTO 00000KT 10SM SCT017 OVC034 22/21 A2985 1040 93 2100 000/00 RMK AO2 T02170206
04850KAOH AOH20160704211511907/04/16 21:15:31  5-MIN KAOH 050215Z AUTO 00000KT 10SM FEW017 OVC034 22/21 A2986 1040 90 2200 000/00 RMK AO2 T02220206
04850KAOH AOH20160704212011907/04/16 21:20:31  5-MIN KAOH 050220Z AUTO 00000KT 10SM FEW017 OVC034 22/21 A2986 1040 90 2200 000/00 RMK AO2 T02220206
04850KAOH AOH20160704212511207/04/16 21:25:31  5-MIN KAOH 050225Z AUTO 00000KT 10SM OVC034 22/21 A2985 1040 93 2100 000/00 RMK AO2 T02170206
04850KAOH AOH20160704213011907/04/16 21:30:31  5-MIN KAOH 050230Z AUTO 00000KT 10SM FEW016 OVC036 22/21 A2986 1040 93 2100 000/00 RMK AO2 T02170206
04850KAOH AOH20160704213511907/04/16 21:35:31  5-MIN KAOH 050235Z AUTO 00000KT 10SM FEW016 OVC036 22/21 A2986 1030 93 2100 000/00 RMK AO2 T02170206
04850KAOH AOH20160704214012607/04/16 21:40:31  5-MIN KAOH 050240Z AUTO 00000KT 10SM FEW014 SCT020 OVC035 22/21 A2986 1030 93 2100 000/00 RMK AO2 T02170206
04850KAOH AOH20160704214512607/04/16 21:45:31  5-MIN KAOH 050245Z AUTO 00000KT 10SM SCT014 BKN019 OVC035 22/21 A2986 1030 93 2100 000/00 RMK AO2 T02170206
04850KAOH AOH20160704215013907/04/16 21:50:31  5-MIN KAOH 050250Z AUTO 00000KT 10SM BKN015 BKN019 OVC035 22/21 A2986 1030 93 2100 000/00 RMK AO2 SLP106 T02170206 53005
04850KAOH AOH20160704215512607/04/16 21:55:31  5-MIN KAOH 050255Z AUTO 00000KT 10SM BKN015 BKN019 OVC035 22/21 A2986 1030 97 2100 000/00 RMK AO2 T02170211
04850KAOH AOH20160704220011207/04/16 22:00:31  5-MIN KAOH 050300Z AUTO 00000KT 10SM OVC015 22/21 A2986 1030 93 2100 000/00 RMK AO2 T02170206
04850KAOH AOH20160704220511907/04/16 22:05:31  5-MIN KAOH 050305Z AUTO 00000KT 10SM BKN015 OVC022 22/21 A2986 1030 93 2100 000/00 RMK AO2 T02170206
04850KAOH AOH20160704221011907/04/16 22:10:31  5-MIN KAOH 050310Z AUTO 00000KT 10SM BKN015 OVC022 22/21 A2986 1030 93 2100 000/00 RMK AO2 T02170206
04850KAOH AOH20160704221511907/04/16 22:15:31  5-MIN KAOH 050315Z AUTO 00000KT 10SM SCT015 OVC022 22/21 A2986 1030 93 2100 000/00 RMK AO2 T02170206
04850KAOH AOH20160704222012607/04/16 22:20:31  5-MIN KAOH 050320Z AUTO 00000KT 10SM SCT015 BKN022 OVC040 22/21 A2986 1030 93 2100 000/00 RMK AO2 T02170206
04850KAOH AOH20160704222512607/04/16 22:25:31  5-MIN KAOH 050325Z AUTO 00000KT 10SM FEW017 BKN022 OVC040 22/21 A2986 1030 93 2100 000/00 RMK AO2 T02170206
04850KAOH AOH20160704223012607/04/16 22:30:31  5-MIN KAOH 050330Z AUTO 00000KT 10SM SCT022 SCT030 OVC040 22/21 A2986 1030 93 2100 000/00 RMK AO2 T02170206
04850KAOH AOH20160704223512507/04/16 22:35:31  5-MIN KAOH 050335Z AUTO 00000KT 9SM FEW022 SCT030 OVC040 22/21 A2986 1030 93 2100 000/00 RMK AO2 T02170206
04850KAOH AOH20160704224012507/04/16 22:40:31  5-MIN KAOH 050340Z AUTO 00000KT 9SM FEW024 FEW030 OVC040 22/21 A2986 1030 93 2100 000/00 RMK AO2 T02170206
04850KAOH AOH20160704224512607/04/16 22:45:31  5-MIN KAOH 050345Z AUTO 00000KT 8SM FEW019 BKN039 OVC055 21/21 A2986 1030 100 2000 000/00 RMK AO2 T02110211
04850KAOH AOH20160704225013307/04/16 22:50:31  5-MIN KAOH 050350Z AUTO 00000KT 7SM SCT015 BKN039 OVC055 21/21 A2987 1030 100 2000 000/00 RMK AO2 SLP108 T02110211
04850KAOH AOH20160704225512507/04/16 22:55:31  5-MIN KAOH 050355Z AUTO 00000KT 8SM SCT015 BKN039 OVC055 21/21 A2986 1030 97 2000 000/00 RMK AO2 T02110206
04850KAOH AOH20160704230012607/04/16 23:00:31  5-MIN KAOH 050400Z AUTO 00000KT 10SM SCT014 SCT019 BKN039 21/21 A2986 1030 97 2000 000/00 RMK AO2 T02110206
04850KAOH AOH20160704230512607/04/16 23:05:31  5-MIN KAOH 050405Z AUTO 00000KT 10SM SCT014 BKN019 BKN038 21/21 A2986 1030 97 2000 000/00 RMK AO2 T02110206
04850KAOH AOH20160704231012607/04/16 23:10:31  5-MIN KAOH 050410Z AUTO 00000KT 10SM SCT014 BKN019 OVC055 22/21 A2986 1030 93 2100 000/00 RMK AO2 T02170206
04850KAOH AOH20160704231511207/04/16 23:15:31  5-MIN KAOH 050415Z AUTO 00000KT 10SM BKN014 22/21 A2986 1030 93 2100 000/00 RMK AO2 T02170206
04850KAOH AOH20160704232011807/04/16 23:20:31  5-MIN KAOH 050420Z AUTO 00000KT 9SM BKN014 OVC019 21/21 A2986 1030 97 2000 000/00 RMK AO2 T02110206
04850KAOH AOH20160704232511107/04/16 23:25:31  5-MIN KAOH 050425Z AUTO 26003KT 9SM OVC016 21/21 A2986 1030 97 2000 270/03 RMK AO2 T02110206
04850KAOH AOH20160704233011107/04/16 23:30:31  5-MIN KAOH 050430Z AUTO 26003KT 8SM OVC016 21/21 A2986 1030 97 2000 260/03 RMK AO2 T02110206
04850KAOH AOH20160704233511107/04/16 23:35:31  5-MIN KAOH 050435Z AUTO 26004KT 8SM OVC016 21/21 A2986 1030 97 2000 270/04 RMK AO2 T02110206
04850KAOH AOH20160704234011107/04/16 23:40:31  5-MIN KAOH 050440Z AUTO 26004KT 7SM OVC018 21/21 A2986 1030 97 2000 270/04 RMK AO2 T02110206
04850KAOH AOH20160704234511107/04/16 23:45:31  5-MIN KAOH 050445Z AUTO 26004KT 7SM OVC018 21/21 A2986 1030 97 2000 260/04 RMK AO2 T02110206
04850KAOH AOH20160704235012807/04/16 23:50:31  5-MIN KAOH 050450Z AUTO 24003KT 7SM OVC020 21/21 A2986 1030 97 2000 250/03 RMK AO2 SLP105 T02110206 402330156
04850KAOH AOH20160704235511107/04/16 23:55:31  5-MIN KAOH 050455Z AUTO 25003KT 7SM OVC022 21/21 A2986 1030 97 2000 250/03 RMK AO2 T02110206
04850KAOH AOH20160705000011107/05/16 00:00:31  5-MIN KAOH 050500Z AUTO 25003KT 7SM OVC022 21/21 A2986 1030 97 2000 250/03 RMK AO2 T02110206
04850KAOH AOH20160705000511107/05/16 00:05:31  5-MIN KAOH 050505Z AUTO 22003KT 7SM OVC022 22/21 A2986 1040 93 2100 230/03 RMK AO2 T02170206
04850KAOH AOH20160705001011107/05/16 00:10:31  5-MIN KAOH 050510Z AUTO 00000KT 7SM OVC022 22/21 A2986 1040 93 2100 000/00 RMK AO2 T02170206
04850KAOH AOH20160705001511107/05/16 00:15:31  5-MIN KAOH 050515Z AUTO 27003KT 7SM OVC022 21/21 A2986 1030 97 2000 270/03 RMK AO2 T02110206
04850KAOH AOH20160705002011107/05/16 00:20:31  5-MIN KAOH 050520Z AUTO 27003KT 7SM OVC024 21/21 A2986 1030 97 2000 270/03 RMK AO2 T02110206
04850KAOH AOH20160705002511407/05/16 00:25:31  5-MIN KAOH 050525Z AUTO 27003KT 6SM BR OVC024 21/21 A2986 1030 97 2000 270/03 RMK AO2 T02110206
04850KAOH AOH20160705003011407/05/16 00:30:31  5-MIN KAOH 050530Z AUTO 27003KT 6SM BR OVC025 21/21 A2986 1030 97 2000 270/03 RMK AO2 T02110206
04850KAOH AOH20160705003511407/05/16 00:35:31  5-MIN KAOH 050535Z AUTO 24003KT 6SM BR OVC025 21/21 A2986 1030 97 2000 250/03 RMK AO2 T02110206
04850KAOH AOH20160705004011107/05/16 00:40:31  5-MIN KAOH 050540Z AUTO 24004KT 7SM OVC025 21/21 A2986 1030 97 2000 250/04 RMK AO2 T02110206
04850KAOH AOH20160705004511107/05/16 00:45:31  5-MIN KAOH 050545Z AUTO 30003KT 7SM OVC025 21/21 A2986 1030 97 2000 310/03 RMK AO2 T02110206
04850KAOH AOH20160705005013607/05/16 00:50:31  5-MIN KAOH 050550Z AUTO 26004KT 7SM OVC025 21/21 A2987 1030 97 2000 270/04 RMK AO2 SLP107 T02110206 10222 20211 52003
04850KAOH AOH20160705005511107/05/16 00:55:31  5-MIN KAOH 050555Z AUTO 24004KT 7SM OVC023 21/21 A2987 1030 97 2000 250/04 RMK AO2 T02110206
04850KAOH AOH20160705010011107/05/16 01:00:31  5-MIN KAOH 050600Z AUTO 25005KT 8SM OVC023 21/21 A2987 1030 97 2000 260/05 RMK AO2 T02110206
04850KAOH AOH20160705010511107/05/16 01:05:31  5-MIN KAOH 050605Z AUTO 26005KT 7SM OVC023 21/21 A2987 1030 97 2000 260/05 RMK AO2 T02110206
04850KAOH AOH20160705011011107/05/16 01:10:31  5-MIN KAOH 050610Z AUTO 25005KT 7SM OVC023 21/21 A2987 1020 97 2000 250/05 RMK AO2 T02110206
04850KAOH AOH20160705011511107/05/16 01:15:31  5-MIN KAOH 050615Z AUTO 25005KT 7SM OVC023 21/21 A2987 1020 97 2000 260/05 RMK AO2 T02110206
04850KAOH AOH20160705012011107/05/16 01:20:31  5-MIN KAOH 050620Z AUTO 26004KT 7SM OVC023 21/21 A2987 1020 97 2000 260/04 RMK AO2 T02110206
04850KAOH AOH20160705012511107/05/16 01:25:31  5-MIN KAOH 050625Z AUTO 25004KT 7SM OVC025 21/21 A2987 1020 97 2000 260/04 RMK AO2 T02110206
04850KAOH AOH20160705013011807/05/16 01:30:31  5-MIN KAOH 050630Z AUTO 26004KT 7SM FEW010 OVC025 21/21 A2988 1020 97 2000 270/04 RMK AO2 T02110206
04850KAOH AOH20160705013511807/05/16 01:35:31  5-MIN KAOH 050635Z AUTO 28004KT 7SM FEW010 OVC025 21/21 A2988 1020 97 2000 290/04 RMK AO2 T02110206
04850KAOH AOH20160705014012107/05/16 01:40:31  5-MIN KAOH 050640Z AUTO 27004KT 6SM BR FEW018 OVC025 21/21 A2988 1010 97 2000 280/04 RMK AO2 T02110206
04850KAOH AOH20160705014511807/05/16 01:45:31  5-MIN KAOH 050645Z AUTO 28006KT 7SM SCT018 OVC026 21/21 A2988 1010 97 2000 290/06 RMK AO2 T02110206
04850KAOH AOH20160705015012507/05/16 01:50:31  5-MIN KAOH 050650Z AUTO 28006KT 8SM SCT018 OVC026 21/21 A2988 1010 97 2000 290/06 RMK AO2 SLP112 T02110206
04850KAOH AOH20160705015511907/05/16 01:55:31  5-MIN KAOH 050655Z AUTO 28005KT 10SM FEW018 OVC026 21/21 A2988 1010 97 2000 290/05 RMK AO2 T02110206
04850KAOH AOH20160705020011907/05/16 02:00:31  5-MIN KAOH 050700Z AUTO 27005KT 10SM FEW019 OVC026 21/20 A2988 1010 93 2000 280/05 RMK AO2 T02110200
04850KAOH AOH20160705020511907/05/16 02:05:31  5-MIN KAOH 050705Z AUTO 28005KT 10SM FEW019 OVC026 21/20 A2988 1010 93 2000 280/05 RMK AO2 T02110200
04850KAOH AOH20160705021011907/05/16 02:10:31  5-MIN KAOH 050710Z AUTO 27005KT 10SM SCT018 OVC026 21/20 A2988 1010 93 2000 280/05 RMK AO2 T02110200
04850KAOH AOH20160705021511907/05/16 02:15:31  5-MIN KAOH 050715Z AUTO 27004KT 10SM BKN023 OVC034 21/20 A2988 1010 93 2000 280/04 RMK AO2 T02110200
04850KAOH AOH20160705022012607/05/16 02:20:31  5-MIN KAOH 050720Z AUTO 27004KT 10SM BKN023 BKN027 OVC050 21/20 A2988 1010 97 1900 270/04 RMK AO2 T02060200
04850KAOH AOH20160705022512507/05/16 02:25:31  5-MIN KAOH 050725Z AUTO 28004KT 9SM BKN023 BKN027 OVC050 21/20 A2988 1010 97 1900 280/04 RMK AO2 T02060200
04850KAOH AOH20160705023011807/05/16 02:30:31  5-MIN KAOH 050730Z AUTO 28003KT 8SM BKN023 OVC050 21/20 A2988 1020 97 1900 280/03 RMK AO2 T02060200
04850KAOH AOH20160705023511807/05/16 02:35:31  5-MIN KAOH 050735Z AUTO 29003KT 9SM BKN023 OVC050 21/20 A2988 1020 93 2000 290/03 RMK AO2 T02110200
04850KAOH AOH20160705024011907/05/16 02:40:31  5-MIN KAOH 050740Z AUTO 28003KT 10SM BKN023 OVC050 21/20 A2988 1020 93 2000 290/03 RMK AO2 T02110200
04850KAOH AOH20160705024511907/05/16 02:45:31  5-MIN KAOH 050745Z AUTO 28003KT 10SM BKN025 OVC050 21/20 A2988 1020 93 2000 280/03 RMK AO2 T02110200
04850KAOH AOH20160705025011907/05/16 02:50:31  5-MIN KAOH 050750Z AUTO 25003KT 10SM OVC025 21/20 A2987 1020 93 2000 260/03 RMK AO2 SLP109 T02110200
04850KAOH AOH20160705025511207/05/16 02:55:31  5-MIN KAOH 050755Z AUTO 26004KT 10SM OVC025 21/20 A2987 1020 93 2000 260/04 RMK AO2 T02110200
04850KAOH AOH20160705030011207/05/16 03:00:31  5-MIN KAOH 050800Z AUTO 26003KT 10SM OVC025 21/20 A2987 1020 93 2000 260/03 RMK AO2 T02110200
04850KAOH AOH20160705030511207/05/16 03:05:31  5-MIN KAOH 050805Z AUTO 27004KT 10SM OVC025 21/20 A2987 1020 93 2000 270/04 RMK AO2 T02110200
04850KAOH AOH20160705031011207/05/16 03:10:31  5-MIN KAOH 050810Z AUTO 28004KT 10SM OVC027 21/20 A2988 1020 97 1900 280/04 RMK AO2 T02060200
04850KAOH AOH20160705031511207/05/16 03:15:31  5-MIN KAOH 050815Z AUTO 28004KT 10SM OVC027 21/20 A2987 1020 97 1900 280/04 RMK AO2 T02060200
04850KAOH AOH20160705032011207/05/16 03:20:31  5-MIN KAOH 050820Z AUTO 27003KT 10SM BKN027 21/20 A2987 1030 97 1900 270/03 RMK AO2 T02060200
04850KAOH AOH20160705032511207/05/16 03:25:31  5-MIN KAOH 050825Z AUTO 26003KT 10SM BKN027 21/20 A2987 1030 97 2000 270/03 RMK AO2 T02060200
04850KAOH AOH20160705033011207/05/16 03:30:31  5-MIN KAOH 050830Z AUTO 27003KT 10SM SCT027 20/19 A2987 1030 97 1900 270/03 RMK AO2 T02000194
04850KAOH AOH20160705033511207/05/16 03:35:31  5-MIN KAOH 050835Z AUTO 28003KT 10SM FEW027 20/19 A2987 1030 97 1900 280/03 RMK AO2 T02000194
04850KAOH AOH20160705034011207/05/16 03:40:31  5-MIN KAOH 050840Z AUTO 29003KT 9SM FEW028 19/19 A2987 1030 100 1800 290/03 RMK AO2 T01940194
04850KAOH AOH20160705034510907/05/16 03:45:31  5-MIN KAOH 050845Z AUTO 29005KT 8SM CLR 19/19 A2987 1020 100 1800 300/05 RMK AO2 T01940194
04850KAOH AOH20160705035012107/05/16 03:50:31  5-MIN KAOH 050850Z AUTO 29005KT 9SM CLR 19/19 A2987 1020 97 1800 290/05 RMK AO2 SLP108 T01940189 55000
04850KAOH AOH20160705035510807/05/16 03:55:31  5-MIN KAOH 050855Z AUTO 29006KT 8SM CLR 19/19 A2987 1020 97 1800 300/06 RMK AO2 T01940189
04850KAOH AOH20160705040010807/05/16 04:00:31  5-MIN KAOH 050900Z AUTO 30004KT 8SM CLR 19/19 A2987 1020 97 1800 300/04 RMK AO2 T01940189
04850KAOH AOH20160705040510807/05/16 04:05:31  5-MIN KAOH 050905Z AUTO 30005KT 7SM CLR 19/19 A2987 1020 97 1800 300/05 RMK AO2 T01940189
04850KAOH AOH20160705041010807/05/16 04:10:31  5-MIN KAOH 050910Z AUTO 30005KT 7SM CLR 19/19 A2987 1020 97 1800 300/05 RMK AO2 T01940189
04850KAOH AOH20160705041511107/05/16 04:15:31  5-MIN KAOH 050915Z AUTO 29004KT 7SM FEW019 19/19 A2987 1020 97 1800 300/04 RMK AO2 T01940189
04850KAOH AOH20160705042011107/05/16 04:20:31  5-MIN KAOH 050920Z AUTO 29004KT 7SM SCT019 19/19 A2988 1020 97 1800 300/04 RMK AO2 T01940189
04850KAOH AOH20160705042511207/05/16 04:25:31  5-MIN KAOH 050925Z AUTO 29004KT 7SM BKN019 19/19 A2988 1020 100 1800 290/04 RMK AO2 T01940194
04850KAOH AOH20160705043011107/05/16 04:30:31  5-MIN KAOH 050930Z AUTO 28004KT 7SM BKN020 20/19 A2988 1020 97 1900 280/04 RMK AO2 T02000194
04850KAOH AOH20160705043511107/05/16 04:35:31  5-MIN KAOH 050935Z AUTO 27003KT 7SM BKN020 20/19 A2988 1020 97 1900 270/03 RMK AO2 T02000194
04850KAOH AOH20160705044011107/05/16 04:40:31  5-MIN KAOH 050940Z AUTO 00000KT 7SM OVC020 20/19 A2988 1020 97 1900 000/00 RMK AO2 T02000194
04850KAOH AOH20160705044511107/05/16 04:45:31  5-MIN KAOH 050945Z AUTO 28003KT 7SM OVC020 20/19 A2988 1020 97 1900 290/03 RMK AO2 T02000194
04850KAOH AOH20160705045011807/05/16 04:50:31  5-MIN KAOH 050950Z AUTO 28003KT 7SM OVC021 20/19 A2988 1010 97 1900 290/03 RMK AO2 SLP112 T02000194
04850KAOH AOH20160705045511407/05/16 04:55:31  5-MIN KAOH 050955Z AUTO 28003KT 6SM BR OVC021 20/19 A2988 1010 97 1900 280/03 RMK AO2 T02000194
04850KAOH AOH20160705050011407/05/16 05:00:31  5-MIN KAOH 051000Z AUTO 28004KT 6SM BR OVC021 20/19 A2988 1010 97 1900 280/04 RMK AO2 T02000194
04850KAOH AOH20160705050511507/05/16 05:05:31  5-MIN KAOH 051005Z AUTO 28003KT 6SM BR OVC021 20/20 A2988 1010 100 1900 290/03 RMK AO2 T02000200
04850KAOH AOH20160705051011507/05/16 05:10:31  5-MIN KAOH 051010Z AUTO 27003KT 6SM BR OVC021 20/20 A2988 1010 100 1900 270/03 RMK AO2 T02000200
04850KAOH AOH20160705051511407/05/16 05:15:31  5-MIN KAOH 051015Z AUTO 26003KT 6SM BR OVC021 20/19 A2988 1010 97 1900 270/03 RMK AO2 T02000194
04850KAOH AOH20160705052011507/05/16 05:20:31  5-MIN KAOH 051020Z AUTO 26004KT 6SM BR OVC021 20/20 A2988 1010 100 1900 260/04 RMK AO2 T02000200
04850KAOH AOH20160705052511507/05/16 05:25:31  5-MIN KAOH 051025Z AUTO 23003KT 6SM BR OVC021 20/20 A2989 1010 100 1900 230/03 RMK AO2 T02000200
04850KAOH AOH20160705053011507/05/16 05:30:31  5-MIN KAOH 051030Z AUTO 23003KT 6SM BR OVC021 20/20 A2989 1010 100 1900 240/03 RMK AO2 T02000200
04850KAOH AOH20160705053511407/05/16 05:35:31  5-MIN KAOH 051035Z AUTO 22003KT 6SM BR OVC021 21/20 A2989 1000 97 1900 230/03 RMK AO2 T02060200
04850KAOH AOH20160705054011407/05/16 05:40:31  5-MIN KAOH 051040Z AUTO 21003KT 5SM BR OVC021 21/20 A2989 1000 97 1900 210/03 RMK AO2 T02060200
04850KAOH AOH20160705054511507/05/16 05:45:31  5-MIN KAOH 051045Z AUTO 21003KT 5SM BR OVC021 20/20 A2990 1000 100 1900 210/03 RMK AO2 T02000200
04850KAOH AOH20160705055012207/05/16 05:50:31  5-MIN KAOH 051050Z AUTO 23003KT 5SM BR OVC022 20/20 A2990 1000 100 1900 240/03 RMK AO2 SLP118 T02000200
04850KAOH AOH20160705055511507/05/16 05:55:31  5-MIN KAOH 051055Z AUTO 24004KT 5SM BR OVC022 20/20 A2990 1000 100 1800 240/04 RMK AO2 T02000200
04850KAOH AOH20160705060011507/05/16 06:00:31  5-MIN KAOH 051100Z AUTO 23004KT 5SM BR OVC022 20/20 A2990 1000 100 1800 240/04 RMK AO2 T02000200
04850KAOH AOH20160705060512207/05/16 06:05:31  5-MIN KAOH 051105Z AUTO 23004KT 5SM BR FEW008 OVC023 20/20 A2990 1000 100 1800 240/04 RMK AO2 T02000200
04850KAOH AOH20160705061012207/05/16 06:10:31  5-MIN KAOH 051110Z AUTO 23004KT 5SM BR FEW008 OVC023 20/20 A2990 1000 100 1800 240/04 RMK AO2 T02000200
04850KAOH AOH20160705061512107/05/16 06:15:31  5-MIN KAOH 051115Z AUTO 23004KT 5SM BR FEW007 OVC023 20/20 A2990 990 100 1800 230/04 RMK AO2 T02000200
04850KAOH AOH20160705062012107/05/16 06:20:31  5-MIN KAOH 051120Z AUTO 23004KT 5SM BR FEW007 OVC023 20/20 A2990 990 100 1800 230/04 RMK AO2 T02000200
04850KAOH AOH20160705062512107/05/16 06:25:31  5-MIN KAOH 051125Z AUTO 24004KT 5SM BR FEW007 OVC023 20/20 A2990 990 100 1800 240/04 RMK AO2 T02000200
04850KAOH AOH20160705063012107/05/16 06:30:31  5-MIN KAOH 051130Z AUTO 24004KT 5SM BR FEW007 OVC023 20/20 A2991 990 100 1800 240/04 RMK AO2 T02000200
04850KAOH AOH20160705063512107/05/16 06:35:31  5-MIN KAOH 051135Z AUTO 24005KT 5SM BR FEW007 OVC023 20/20 A2991 990 100 1800 240/05 RMK AO2 T02000200
04850KAOH AOH20160705064012007/05/16 06:40:31  5-MIN KAOH 051140Z AUTO 24004KT 5SM BR SCT007 OVC023 21/20 A2991 990 97 1900 250/04 RMK AO2 T02060200
04850KAOH AOH20160705064513207/05/16 06:45:31  5-MIN KAOH 051145Z AUTO 24005KT 5SM BR BKN007 OVC023 21/20 A2991 990 97 1900 240/05 RMK AO2 CIG 004V008 T02060200
04850KAOH AOH20160705065016307/05/16 06:50:31  5-MIN KAOH 051150Z AUTO 25006KT 5SM BR BKN007 OVC023 21/20 A2991 980 97 1900 260/06 RMK AO2 CIG 004V008 SLP124 70002 T02060200 10211 20194 53014
04850KAOH AOH20160705065513207/05/16 06:55:31  5-MIN KAOH 051155Z AUTO 26006KT 5SM BR BKN007 OVC021 21/20 A2992 980 97 1900 260/06 RMK AO2 CIG 004V008 T02060200
04850KAOH AOH20160705070012007/05/16 07:00:31  5-MIN KAOH 051200Z AUTO 25006KT 4SM BR BKN007 OVC021 21/20 A2992 980 97 1900 250/06 RMK AO2 T02060200
04850KAOH AOH20160705070512507/05/16 07:05:31  5-MIN KAOH 051205Z AUTO 25005KT 4SM BR OVC007 21/20 A2991 980 97 1900 260/05 RMK AO2 CIG 004V008 T02060200
04850KAOH AOH20160705071013307/05/16 07:10:31  5-MIN KAOH 051210Z AUTO 25006KT 4SM BR BKN007 OVC045 21/21 A2991 980 100 1900 250/06 RMK AO2 CIG 004V009 T02060206
04850KAOH AOH20160705071514007/05/16 07:15:31  5-MIN KAOH 051215Z AUTO 24007KT 4SM BR BKN007 BKN020 OVC045 21/21 A2991 980 100 1900 240/07 RMK AO2 CIG 005V009 T02060206
04850KAOH AOH20160705072013907/05/16 07:20:31  5-MIN KAOH 051220Z AUTO 25006KT 5SM BR BKN006 BKN020 OVC045 21/20 A2991 980 97 1900 250/06 RMK AO2 CIG 004V009 T02060200
04850KAOH AOH20160705072514007/05/16 07:25:31  5-MIN KAOH 051225Z AUTO 25005KT 4SM BR BKN006 BKN020 OVC045 21/21 A2992 980 100 1900 260/05 RMK AO2 CIG 004V009 T02060206
04850KAOH AOH20160705073013907/05/16 07:30:31  5-MIN KAOH 051230Z AUTO 25006KT 4SM BR BKN006 BKN020 OVC045 21/21 A2992 980 97 2000 250/06 RMK AO2 CIG 004V009 T02110206
04850KAOH AOH20160705073512707/05/16 07:35:31  5-MIN KAOH 051235Z AUTO 25006KT 4SM BR BKN004 BKN020 OVC045 21/21 A2992 980 97 2000 260/06 RMK AO2 T02110206
04850KAOH AOH20160705074012707/05/16 07:40:31  5-MIN KAOH 051240Z AUTO 26006KT 4SM BR SCT004 BKN019 OVC047 21/21 A2992 980 97 2000 270/06 RMK AO2 T02110206
04850KAOH AOH20160705074513207/05/16 07:45:31  5-MIN KAOH 051245Z AUTO 26007KT 4SM BR BKN004 OVC047 21/21 A2992 980 97 2000 270/07 RMK AO2 CIG 004V007 T02110206
04850KAOH AOH20160705075012707/05/16 07:50:31  5-MIN KAOH 051250Z AUTO 26008KT 5SM BR SCT006 OVC047 21/21 A2992 980 97 2000 270/08 RMK AO2 SLP126 T02110206
04850KAOH AOH20160705075512007/05/16 07:55:31  5-MIN KAOH 051255Z AUTO 26007KT 5SM BR FEW006 OVC047 21/21 A2992 970 97 1900 260/07 RMK AO2 T02110206
04850KAOH AOH20160705080012007/05/16 08:00:31  5-MIN KAOH 051300Z AUTO 25007KT 4SM BR SCT006 OVC047 21/21 A2992 980 97 2000 260/07 RMK AO2 T02110206
04850KAOH AOH20160705080512007/05/16 08:05:31  5-MIN KAOH 051305Z AUTO 27007KT 5SM BR SCT006 OVC048 21/21 A2993 970 97 1900 270/07 RMK AO2 T02110206
04850KAOH AOH20160705081012007/05/16 08:10:31  5-MIN KAOH 051310Z AUTO 27005KT 4SM BR FEW006 OVC048 21/21 A2993 970 97 1900 280/05 RMK AO2 T02110206
04850KAOH AOH20160705081512007/05/16 08:15:31  5-MIN KAOH 051315Z AUTO 27005KT 4SM BR FEW006 OVC048 22/21 A2993 970 93 2000 280/05 RMK AO2 T02170206
04850KAOH AOH20160705082012007/05/16 08:20:31  5-MIN KAOH 051320Z AUTO 27005KT 5SM BR SCT006 OVC048 22/21 A2993 970 93 2000 280/05 RMK AO2 T02170206
04850KAOH AOH20160705082512007/05/16 08:25:31  5-MIN KAOH 051325Z AUTO 29006KT 5SM BR SCT007 OVC049 22/21 A2993 970 93 2000 290/06 RMK AO2 T02170206
04850KAOH AOH20160705083012007/05/16 08:30:31  5-MIN KAOH 051330Z AUTO 29006KT 5SM BR SCT007 OVC049 22/21 A2993 970 93 2000 300/06 RMK AO2 T02170206
04850KAOH AOH20160705083512007/05/16 08:35:31  5-MIN KAOH 051335Z AUTO 28005KT 5SM BR SCT007 OVC049 22/21 A2993 970 93 2000 290/05 RMK AO2 T02170206
04850KAOH AOH20160705084012007/05/16 08:40:31  5-MIN KAOH 051340Z AUTO 27005KT 5SM BR BKN007 OVC050 22/21 A2993 970 90 2100 280/05 RMK AO2 T02220206
04850KAOH AOH20160705084512007/05/16 08:45:31  5-MIN KAOH 051345Z AUTO 27005KT 6SM BR BKN007 OVC050 22/21 A2992 970 90 2100 280/05 RMK AO2 T02220206
04850KAOH AOH20160705085013907/05/16 08:50:31  5-MIN KAOH 051350Z AUTO 27005KT 6SM BR BKN007 OVC050 22/21 A2993 970 90 2100 280/05 RMK AO2 CIG 006V012 SLP128 T02220206
04850KAOH AOH20160705085511707/05/16 08:55:31  5-MIN KAOH 051355Z AUTO 28004KT 7SM BKN009 OVC050 23/21 A2993 970 90 2100 290/04 RMK AO2 T02280211
04850KAOH AOH20160705090011707/05/16 09:00:31  5-MIN KAOH 051400Z AUTO 29004KT 7SM BKN009 OVC050 22/21 A2993 970 90 2100 300/04 RMK AO2 T02220206
04850KAOH AOH20160705090511007/05/16 09:05:31  5-MIN KAOH 051405Z AUTO VRB05KT 7SM OVC009 23/21 A2993 970 87 2100 VRB/05 RMK AO2 T02280206
04850KAOH AOH20160705091011007/05/16 09:10:31  5-MIN KAOH 051410Z AUTO 28005KT 7SM OVC009 23/21 A2993 970 90 2100 290/05 RMK AO2 T02280211
04850KAOH AOH20160705091511307/05/16 09:15:31  5-MIN KAOH 051415Z AUTO 25005KT 6SM BR OVC009 23/21 A2993 970 87 2100 260/05 RMK AO2 T02280206
04850KAOH AOH20160705092011307/05/16 09:20:31  5-MIN KAOH 051420Z AUTO 26006KT 6SM BR OVC011 23/21 A2993 970 90 2100 270/06 RMK AO2 T02280211
04850KAOH AOH20160705092511007/05/16 09:25:31  5-MIN KAOH 051425Z AUTO 29006KT 7SM OVC011 23/21 A2992 970 90 2100 290/06 RMK AO2 T02280211
04850KAOH AOH20160705093011707/05/16 09:30:31  5-MIN KAOH 051430Z AUTO 28004KT 8SM BKN010 OVC023 23/21 A2993 970 87 2200 290/04 RMK AO2 T02330211
04850KAOH AOH20160705093511707/05/16 09:35:31  5-MIN KAOH 051435Z AUTO 29004KT 9SM BKN010 OVC023 23/21 A2993 970 84 2200 300/04 RMK AO2 T02330206
04850KAOH AOH20160705094012407/05/16 09:40:31  5-MIN KAOH 051440Z AUTO 28006KT 8SM BKN011 BKN016 BKN023 23/21 A2993 970 87 2200 280/06 RMK AO2 T02330211
04850KAOH AOH20160705094512407/05/16 09:45:31  5-MIN KAOH 051445Z AUTO 28004KT 8SM BKN011 BKN016 BKN023 23/21 A2993 970 87 2200 280/04 RMK AO2 T02330211
04850KAOH AOH20160705095011407/05/16 09:50:31  5-MIN KAOH 051450Z AUTO 27004KT 8SM SCT013 BKN019 BKN023 24/21 A2993 970 84 2300 270/04 RMK AO2
04850KAOH AOH20160705095512407/05/16 09:55:31  5-MIN KAOH 051455Z AUTO 27005KT 9SM SCT015 BKN023 BKN055 24/21 A2993 970 84 2300 270/05 RMK AO2 T02390211
04850KAOH AOH20160705100012407/05/16 10:00:31  5-MIN KAOH 051500Z AUTO 27004KT 9SM SCT015 BKN025 BKN055 24/21 A2993 970 84 2300 270/04 RMK AO2 T02390211
04850KAOH AOH20160705100512407/05/16 10:05:31  5-MIN KAOH 051505Z AUTO 25005KT 9SM SCT015 BKN023 BKN031 23/21 A2993 970 84 2200 260/05 RMK AO2 T02330206
04850KAOH AOH20160705101012407/05/16 10:10:31  5-MIN KAOH 051510Z AUTO 24006KT 9SM SCT015 BKN023 BKN034 23/21 A2993 970 84 2200 250/06 RMK AO2 T02330206
04850KAOH AOH20160705101512407/05/16 10:15:31  5-MIN KAOH 051515Z AUTO 27006KT 9SM SCT016 BKN023 OVC055 24/21 A2993 970 84 2300 280/06 RMK AO2 T02390211
04850KAOH AOH20160705102012407/05/16 10:20:31  5-MIN KAOH 051520Z AUTO 26006KT 9SM FEW016 BKN049 OVC055 24/21 A2993 960 84 2300 260/06 RMK AO2 T02390211
04850KAOH AOH20160705102512407/05/16 10:25:31  5-MIN KAOH 051525Z AUTO 26006KT 9SM FEW016 BKN049 OVC055 24/21 A2993 960 81 2300 260/06 RMK AO2 T02390206
04850KAOH AOH20160705103012407/05/16 10:30:31  5-MIN KAOH 051530Z AUTO 27006KT 9SM SCT018 BKN037 OVC055 24/21 A2993 960 81 2300 270/06 RMK AO2 T02390206
04850KAOH AOH20160705103512407/05/16 10:35:31  5-MIN KAOH 051535Z AUTO 25007KT 9SM FEW018 BKN048 OVC055 24/21 A2994 960 81 2300 250/07 RMK AO2 T02390206
04850KAOH AOH20160705104012407/05/16 10:40:31  5-MIN KAOH 051540Z AUTO 28005KT 9SM FEW021 SCT033 BKN048 24/21 A2994 960 81 2200 280/05 RMK AO2 T02390206
04850KAOH AOH20160705104512507/05/16 10:45:31  5-MIN KAOH 051545Z AUTO 26005KT 10SM FEW019 SCT033 BKN055 24/21 A2994 960 81 2200 270/05 RMK AO2 T02390206
04850KAOH AOH20160705105013207/05/16 10:50:31  5-MIN KAOH 051550Z AUTO 27005KT 10SM FEW019 SCT033 BKN055 24/21 A2994 960 81 2300 270/05 RMK AO2 SLP131 T02440211
04850KAOH AOH20160705105512507/05/16 10:55:31  5-MIN KAOH 051555Z AUTO 24006KT 10SM FEW021 FEW033 BKN055 24/21 A2994 960 84 2200 250/06 RMK AO2 T02390211
04850KAOH AOH20160705110011807/05/16 11:00:31  5-MIN KAOH 051600Z AUTO 25005KT 10SM FEW033 BKN055 24/21 A2994 960 81 2300 260/05 RMK AO2 T02440211
04850KAOH AOH20160705110511807/05/16 11:05:31  5-MIN KAOH 051605Z AUTO VRB04KT 10SM FEW023 BKN055 25/21 A2994 960 79 2400 VRB/04 RMK AO2 T02500211
04850KAOH AOH20160705111011807/05/16 11:10:31  5-MIN KAOH 051610Z AUTO 24005KT 10SM SCT021 BKN055 24/21 A2994 960 78 2300 240/05 RMK AO2 T02440206
04850KAOH AOH20160705111512507/05/16 11:15:31  5-MIN KAOH 051615Z AUTO 26004KT 10SM SCT021 SCT030 BKN055 24/21 A2994 960 78 2300 260/04 RMK AO2 T02440206
04850KAOH AOH20160705112012507/05/16 11:20:31  5-MIN KAOH 051620Z AUTO 23007KT 10SM FEW021 SCT030 BKN055 26/21 A2994 960 76 2400 240/07 RMK AO2 T02560211
04850KAOH AOH20160705112511807/05/16 11:25:31  5-MIN KAOH 051625Z AUTO 24007KT 10SM SCT021 OVC055 25/21 A2994 960 76 2400 250/07 RMK AO2 T02500206
04850KAOH AOH20160705113012507/05/16 11:30:31  5-MIN KAOH 051630Z AUTO 23008KT 10SM SCT021 BKN041 OVC060 25/20 A2994 960 73 2400 240/08 RMK AO2 T02500200
04850KAOH AOH20160705113512507/05/16 11:35:31  5-MIN KAOH 051635Z AUTO 25006KT 10SM SCT022 BKN041 OVC055 24/21 A2994 960 78 2300 250/06 RMK AO2 T02440206
04850KAOH AOH20160705114012507/05/16 11:40:31  5-MIN KAOH 051640Z AUTO 23006KT 10SM FEW022 BKN030 OVC050 25/21 A2994 960 76 2400 240/06 RMK AO2 T02500206
04850KAOH AOH20160705114512507/05/16 11:45:31  5-MIN KAOH 051645Z AUTO 22008KT 10SM FEW022 BKN030 OVC055 26/21 A2994 960 73 2500 220/08 RMK AO2 T02610211
04850KAOH AOH20160705115013207/05/16 11:50:31  5-MIN KAOH 051650Z AUTO 24011KT 10SM SCT022 BKN030 OVC047 26/21 A2994 960 76 2400 240/11 RMK AO2 SLP133 T02560211
04850KAOH AOH20160705115512507/05/16 11:55:31  5-MIN KAOH 051655Z AUTO 25010KT 10SM FEW022 BKN030 OVC055 25/21 A2995 950 76 2400 250/10 RMK AO2 T02500206
04850KAOH AOH20160705120012507/05/16 12:00:31  5-MIN KAOH 051700Z AUTO 24008KT 10SM FEW022 BKN042 OVC055 25/21 A2994 950 76 2400 240/08 RMK AO2 T02500206
04850KAOH AOH20160705120512507/05/16 12:05:31  5-MIN KAOH 051705Z AUTO 25009KT 10SM FEW022 SCT030 OVC055 25/21 A2994 950 76 2400 260/09 RMK AO2 T02500206
04850KAOH AOH20160705121012507/05/16 12:10:31  5-MIN KAOH 051710Z AUTO 24008KT 10SM FEW022 SCT030 BKN055 26/21 A2994 950 73 2400 240/08 RMK AO2 T02560206
04850KAOH AOH20160705121512507/05/16 12:15:31  5-MIN KAOH 051715Z AUTO 26008KT 10SM FEW024 SCT045 BKN055 26/21 A2994 960 73 2500 260/08 RMK AO2 T02610211
04850KAOH AOH20160705122012507/05/16 12:20:31  5-MIN KAOH 051720Z AUTO 27009KT 10SM FEW024 FEW045 SCT055 26/21 A2994 960 73 2500 280/09 RMK AO2 T02610211
04850KAOH AOH20160705122511107/05/16 12:25:31  5-MIN KAOH 051725Z AUTO 23007KT 10SM FEW055 26/21 A2994 960 71 2500 240/07 RMK AO2 T02610206
04850KAOH AOH20160705123011107/05/16 12:30:31  5-MIN KAOH 051730Z AUTO VRB06KT 10SM FEW055 26/21 A2994 960 73 2500 VRB/06 RMK AO2 T02610211
04850KAOH AOH20160705123511107/05/16 12:35:31  5-MIN KAOH 051735Z AUTO 24009KT 10SM FEW026 26/21 A2994 960 71 2500 250/09 RMK AO2 T02610206
04850KAOH AOH20160705124012407/05/16 12:40:31  5-MIN KAOH 051740Z AUTO 23010G14KT 10SM FEW028 SCT055 27/21 A2994 960 69 2600 230/10G14 RMK AO2 T02670206
04850KAOH AOH20160705124511807/05/16 12:45:31  5-MIN KAOH 051745Z AUTO 24009KT 10SM FEW030 SCT055 26/20 A2994 960 68 2500 240/09 RMK AO2 T02610200
04850KAOH AOH20160705125014307/05/16 12:50:31  5-MIN KAOH 051750Z AUTO 24010KT 10SM FEW030 BKN055 26/20 A2994 960 68 2500 250/10 RMK AO2 SLP130 T02610200 10267 20206 53004
04850KAOH AOH20160705125511807/05/16 12:55:31  5-MIN KAOH 051755Z AUTO 26011KT 10SM SCT030 BKN055 26/20 A2994 960 68 2500 270/11 RMK AO2 T02610200
04850KAOH AOH20160705130012507/05/16 13:00:31  5-MIN KAOH 051800Z AUTO 26012KT 10SM SCT030 BKN040 BKN055 27/21 A2994 960 69 2600 270/12 RMK AO2 T02670206
04850KAOH AOH20160705130512507/05/16 13:05:31  5-MIN KAOH 051805Z AUTO 26010KT 10SM SCT030 SCT040 OVC055 26/20 A2994 960 68 2500 270/10 RMK AO2 T02610200
04850KAOH AOH20160705131012507/05/16 13:10:31  5-MIN KAOH 051810Z AUTO 28008KT 10SM FEW030 SCT040 BKN055 26/19 A2993 960 66 2500 280/08 RMK AO2 T02610194
04850KAOH AOH20160705131512507/05/16 13:15:31  5-MIN KAOH 051815Z AUTO 27009KT 10SM FEW030 SCT040 BKN055 27/20 A2993 960 66 2600 280/09 RMK AO2 T02670200
04850KAOH AOH20160705132012507/05/16 13:20:31  5-MIN KAOH 051820Z AUTO 26013KT 10SM FEW030 SCT040 BKN049 27/19 A2993 970 64 2600 270/13 RMK AO2 T02670194
04850KAOH AOH20160705132511807/05/16 13:25:31  5-MIN KAOH 051825Z AUTO 26013KT 10SM FEW031 BKN049 27/20 A2993 970 64 2600 270/13 RMK AO2 T02720200
04850KAOH AOH20160705133011707/05/16 13:30:31  5-MIN KAOH 051830Z AUTO 25011G19KT 10SM BKN049 27/19 A2993 970 62 2600 260/11G19 RMK AO2 T02720194
04850KAOH AOH20160705133511107/05/16 13:35:31  5-MIN KAOH 051835Z AUTO 24012KT 10SM BKN050 28/20 A2993 970 62 2700 250/12 RMK AO2 T02780200
04850KAOH AOH20160705134011707/05/16 13:40:31  5-MIN KAOH 051840Z AUTO 25011G17KT 10SM BKN050 28/19 A2993 970 60 2700 250/11G17 RMK AO2 T02780194
04850KAOH AOH20160705134511807/05/16 13:45:31  5-MIN KAOH 051845Z AUTO 25011KT 10SM SCT039 BKN050 28/19 A2993 970 60 2700 260/11 RMK AO2 T02780194
04850KAOH AOH20160705135013107/05/16 13:50:31  5-MIN KAOH 051850Z AUTO 28011G16KT 10SM SCT039 BKN050 27/19 A2993 970 60 2600 290/11G16 RMK AO2 SLP126 T02720189
04850KAOH AOH20160705135511807/05/16 13:55:31  5-MIN KAOH 051855Z AUTO 28012KT 10SM BKN039 BKN050 27/19 A2993 970 62 2600 290/12 RMK AO2 T02720194
04850KAOH AOH20160705140011807/05/16 14:00:31  5-MIN KAOH 051900Z AUTO 27010KT 10SM SCT039 BKN050 28/19 A2993 970 60 2700 280/10 RMK AO2 T02780194
04850KAOH AOH20160705140511807/05/16 14:05:31  5-MIN KAOH 051905Z AUTO 25013KT 10SM SCT039 BKN050 28/19 A2993 970 60 2700 260/13 RMK AO2 T02780194
04850KAOH AOH20160705141011107/05/16 14:10:31  5-MIN KAOH 051910Z AUTO 25012KT 10SM SCT039 28/19 A2993 970 60 2700 260/12 RMK AO2 T02780194
04850KAOH AOH20160705141511107/05/16 14:15:31  5-MIN KAOH 051915Z AUTO 27011KT 10SM SCT039 27/19 A2993 970 62 2600 270/11 RMK AO2 T02720194
04850KAOH AOH20160705142011107/05/16 14:20:31  5-MIN KAOH 051920Z AUTO 27013KT 10SM FEW037 27/19 A2993 970 60 2600 280/13 RMK AO2 T02720189
04850KAOH AOH20160705142510807/05/16 14:25:31  5-MIN KAOH 051925Z AUTO 28010KT 10SM CLR 28/19 A2993 970 58 2700 280/10 RMK AO2 T02780189
04850KAOH AOH20160705143011107/05/16 14:30:31  5-MIN KAOH 051930Z AUTO 26009KT 10SM FEW055 27/19 A2993 970 60 2600 260/09 RMK AO2 T02720189
04850KAOH AOH20160705143511107/05/16 14:35:31  5-MIN KAOH 051935Z AUTO 28011KT 10SM SCT055 27/19 A2993 970 60 2600 290/11 RMK AO2 T02720189
04850KAOH AOH20160705144011107/05/16 14:40:31  5-MIN KAOH 051940Z AUTO 27009KT 10SM BKN050 27/18 A2993 970 58 2600 270/09 RMK AO2 T02720183
04850KAOH AOH20160705144511107/05/16 14:45:31  5-MIN KAOH 051945Z AUTO 29011KT 10SM BKN050 27/19 A2993 970 62 2600 300/11 RMK AO2 T02720194
04850KAOH AOH20160705145011807/05/16 14:50:31  5-MIN KAOH 051950Z AUTO 28010KT 10SM BKN050 27/18 A2993 970 60 2600 280/10 RMK AO2 SLP128 T02670183
04850KAOH AOH20160705145511807/05/16 14:55:31  5-MIN KAOH 051955Z AUTO 26010KT 10SM SCT043 OVC050 28/19 A2993 970 58 2700 260/10 RMK AO2 T02780189
04850KAOH AOH20160705150011807/05/16 15:00:31  5-MIN KAOH 052000Z AUTO 29012KT 10SM SCT043 BKN050 28/18 A2993 970 56 2700 300/12 RMK AO2 T02780183
04850KAOH AOH20160705150511807/05/16 15:05:31  5-MIN KAOH 052005Z AUTO 25014KT 10SM FEW043 BKN050 28/18 A2993 970 56 2700 260/14 RMK AO2 T02780183
04850KAOH AOH20160705151011107/05/16 15:10:31  5-MIN KAOH 052010Z AUTO 26011KT 10SM BKN047 28/18 A2993 970 56 2700 260/11 RMK AO2 T02780183
04850KAOH AOH20160705151511107/05/16 15:15:31  5-MIN KAOH 052015Z AUTO 29010KT 10SM BKN047 27/18 A2993 970 58 2600 300/10 RMK AO2 T02720183
04850KAOH AOH20160705152011007/05/16 15:20:31  5-MIN KAOH 052020Z AUTO 30009KT 8SM BKN047 27/18 A2993 970 56 2600 300/09 RMK AO2 T02720178
04850KAOH AOH20160705152511007/05/16 15:25:31  5-MIN KAOH 052025Z AUTO 26012KT 8SM BKN047 28/19 A2993 970 56 2800 270/12 RMK AO2 T02830189
04850KAOH AOH20160705153011107/05/16 15:30:31  5-MIN KAOH 052030Z AUTO 25011KT 10SM BKN047 28/18 A2993 970 56 2700 260/11 RMK AO2 T02780183
04850KAOH AOH20160705153511107/05/16 15:35:31  5-MIN KAOH 052035Z AUTO 28010KT 10SM BKN047 28/18 A2993 970 56 2700 280/10 RMK AO2 T02780183
04850KAOH AOH20160705154011107/05/16 15:40:31  5-MIN KAOH 052040Z AUTO 29009KT 10SM BKN047 27/18 A2993 970 56 2600 290/09 RMK AO2 T02720178
04850KAOH AOH20160705154511107/05/16 15:45:31  5-MIN KAOH 052045Z AUTO 28008KT 10SM OVC047 27/18 A2993 970 56 2600 290/08 RMK AO2 T02720178
04850KAOH AOH20160705155012407/05/16 15:50:31  5-MIN KAOH 052050Z AUTO 29012KT 10SM OVC049 28/18 A2993 970 54 2700 300/12 RMK AO2 SLP129 T02780178 50002
04850KAOH AOH20160705155511107/05/16 15:55:31  5-MIN KAOH 052055Z AUTO 27009KT 10SM OVC049 27/18 A2993 970 56 2600 280/09 RMK AO2 T02720178
04850KAOH AOH20160705160011707/05/16 16:00:31  5-MIN KAOH 052100Z AUTO 27013G20KT 10SM OVC049 28/18 A2993 970 56 2700 270/13G20 RMK AO2 T02780183
04850KAOH AOH20160705160511707/05/16 16:05:31  5-MIN KAOH 052105Z AUTO 28011G20KT 10SM OVC049 28/18 A2993 970 56 2700 280/11G20 RMK AO2 T02780183
04850KAOH AOH20160705161011107/05/16 16:10:31  5-MIN KAOH 052110Z AUTO 27011KT 10SM BKN049 28/18 A2993 970 54 2800 270/11 RMK AO2 T02830183
04850KAOH AOH20160705161511107/05/16 16:15:31  5-MIN KAOH 052115Z AUTO 29010KT 10SM BKN049 28/18 A2993 970 54 2700 300/10 RMK AO2 T02780178
04850KAOH AOH20160705162011107/05/16 16:20:31  5-MIN KAOH 052120Z AUTO 29011KT 10SM BKN049 28/18 A2993 970 54 2700 290/11 RMK AO2 T02780178
04850KAOH AOH20160705162511107/05/16 16:25:31  5-MIN KAOH 052125Z AUTO 28013KT 10SM BKN049 28/18 A2993 970 54 2700 290/13 RMK AO2 T02780178
04850KAOH AOH20160705163011107/05/16 16:30:31  5-MIN KAOH 052130Z AUTO 29010KT 10SM SCT049 28/18 A2993 970 54 2700 300/10 RMK AO2 T02780178
04850KAOH AOH20160705163511107/05/16 16:35:31  5-MIN KAOH 052135Z AUTO 28011KT 10SM SCT049 28/18 A2993 970 54 2700 290/11 RMK AO2 T02780178
04850KAOH AOH20160705164011107/05/16 16:40:31  5-MIN KAOH 052140Z AUTO 29011KT 10SM FEW050 28/18 A2993 970 54 2700 300/11 RMK AO2 T02780178
04850KAOH AOH20160705164511107/05/16 16:45:31  5-MIN KAOH 052145Z AUTO 27009KT 10SM FEW050 28/18 A2993 970 54 2700 280/09 RMK AO2 T02780178
04850KAOH AOH20160705165011807/05/16 16:50:31  5-MIN KAOH 052150Z AUTO 30010KT 10SM FEW048 27/18 A2993 970 56 2600 300/10 RMK AO2 SLP128 T02720178
04850KAOH AOH20160705165511107/05/16 16:55:31  5-MIN KAOH 052155Z AUTO 29010KT 10SM SCT048 27/18 A2993 970 56 2600 300/10 RMK AO2 T02720178
04850KAOH AOH20160705170011107/05/16 17:00:31  5-MIN KAOH 052200Z AUTO 30009KT 10SM SCT048 27/18 A2993 970 56 2600 310/09 RMK AO2 T02720178
04850KAOH AOH20160705170511107/05/16 17:05:31  5-MIN KAOH 052205Z AUTO 28011KT 10SM SCT048 27/18 A2993 970 56 2600 280/11 RMK AO2 T02720178
04850KAOH AOH20160705171011107/05/16 17:10:31  5-MIN KAOH 052210Z AUTO 30009KT 10SM SCT049 27/17 A2993 970 55 2600 300/09 RMK AO2 T02670172
04850KAOH AOH20160705171511707/05/16 17:15:31  5-MIN KAOH 052215Z AUTO 29012G15KT 10SM SCT049 27/18 A2993 970 56 2600 300/12G15 RMK AO2 T02720178
04850KAOH AOH20160705172011707/05/16 17:20:31  5-MIN KAOH 052220Z AUTO 29011G15KT 10SM BKN047 27/17 A2993 970 55 2600 300/11G15 RMK AO2 T02670172
04850KAOH AOH20160705172511107/05/16 17:25:31  5-MIN KAOH 052225Z AUTO 29011KT 10SM BKN047 27/18 A2993 970 56 2600 290/11 RMK AO2 T02720178
04850KAOH AOH20160705173011107/05/16 17:30:31  5-MIN KAOH 052230Z AUTO 29009KT 10SM SCT047 27/18 A2993 970 56 2600 290/09 RMK AO2 T02720178
04850KAOH AOH20160705173511107/05/16 17:35:31  5-MIN KAOH 052235Z AUTO 29010KT 10SM SCT046 27/17 A2993 970 55 2600 300/10 RMK AO2 T02670172
04850KAOH AOH20160705174011107/05/16 17:40:31  5-MIN KAOH 052240Z AUTO 29010KT 10SM SCT046 27/17 A2993 970 54 2600 300/10 RMK AO2 T02720172
04850KAOH AOH20160705174511107/05/16 17:45:31  5-MIN KAOH 052245Z AUTO 29008KT 10SM SCT046 27/17 A2993 970 55 2600 300/08 RMK AO2 T02670172
04850KAOH AOH20160705175011807/05/16 17:50:31  5-MIN KAOH 052250Z AUTO 26010KT 10SM SCT046 27/17 A2993 970 55 2600 270/10 RMK AO2 SLP128 T02670172
04850KAOH AOH20160705175511107/05/16 17:55:31  5-MIN KAOH 052255Z AUTO 27008KT 10SM SCT046 27/18 A2993 970 57 2600 270/08 RMK AO2 T02670178
04850KAOH AOH20160705180011107/05/16 18:00:31  5-MIN KAOH 052300Z AUTO 29007KT 10SM FEW046 27/18 A2993 970 56 2600 290/07 RMK AO2 T02720178
04850KAOH AOH20160705180511107/05/16 18:05:31  5-MIN KAOH 052305Z AUTO 27008KT 10SM SCT046 27/18 A2993 970 56 2600 280/08 RMK AO2 T02720178
04850KAOH AOH20160705181011107/05/16 18:10:31  5-MIN KAOH 052310Z AUTO 28010KT 10SM SCT046 27/17 A2993 970 54 2600 290/10 RMK AO2 T02720172
04850KAOH AOH20160705181511107/05/16 18:15:31  5-MIN KAOH 052315Z AUTO 28010KT 10SM FEW045 27/17 A2993 970 55 2600 290/10 RMK AO2 T02670172
04850KAOH AOH20160705182011107/05/16 18:20:31  5-MIN KAOH 052320Z AUTO 27008KT 10SM FEW045 27/17 A2993 970 55 2600 270/08 RMK AO2 T02670172
04850KAOH AOH20160705182511107/05/16 18:25:31  5-MIN KAOH 052325Z AUTO 27007KT 10SM FEW045 27/18 A2993 970 57 2600 280/07 RMK AO2 T02670178
04850KAOH AOH20160705183011107/05/16 18:30:31  5-MIN KAOH 052330Z AUTO 26007KT 10SM FEW045 27/18 A2993 970 57 2600 270/07 RMK AO2 T02670178
04850KAOH AOH20160705183510807/05/16 18:35:31  5-MIN KAOH 052335Z AUTO 27006KT 10SM CLR 27/18 A2993 970 57 2600 270/06 RMK AO2 T02670178
04850KAOH AOH20160705184011107/05/16 18:40:31  5-MIN KAOH 052340Z AUTO 28007KT 10SM FEW045 27/18 A2993 970 57 2600 290/07 RMK AO2 T02670178
04850KAOH AOH20160705184511107/05/16 18:45:31  5-MIN KAOH 052345Z AUTO 28007KT 10SM FEW045 27/18 A2994 960 57 2600 290/07 RMK AO2 T02670178
04850KAOH AOH20160705185013607/05/16 18:50:31  5-MIN KAOH 052350Z AUTO 28010KT 10SM FEW045 27/17 A2994 960 55 2600 280/10 RMK AO2 SLP131 T02670172 10283 20261 55002
04850KAOH AOH20160705185511107/05/16 18:55:31  5-MIN KAOH 052355Z AUTO 27009KT 10SM FEW045 26/17 A2994 960 57 2500 270/09 RMK AO2 T02610172
04850KAOH AOH20160705190011107/05/16 19:00:31  5-MIN KAOH 060000Z AUTO 27008KT 10SM FEW045 26/17 A2994 960 57 2500 280/08 RMK AO2 T02610172
04850KAOH AOH20160705190511107/05/16 19:05:31  5-MIN KAOH 060005Z AUTO 29006KT 10SM FEW045 26/17 A2994 960 57 2500 290/06 RMK AO2 T02610172
04850KAOH AOH20160705191010807/05/16 19:10:31  5-MIN KAOH 060010Z AUTO 26007KT 10SM CLR 26/18 A2994 960 59 2500 270/07 RMK AO2 T02610178
04850KAOH AOH20160705191510807/05/16 19:15:31  5-MIN KAOH 060015Z AUTO 26009KT 10SM CLR 26/18 A2994 960 61 2400 260/09 RMK AO2 T02560178
04850KAOH AOH20160705192010807/05/16 19:20:31  5-MIN KAOH 060020Z AUTO 26008KT 10SM CLR 26/18 A2994 960 61 2400 270/08 RMK AO2 T02560178
04850KAOH AOH20160705192510807/05/16 19:25:31  5-MIN KAOH 060025Z AUTO 26009KT 10SM CLR 26/17 A2994 960 59 2400 260/09 RMK AO2 T02560172
04850KAOH AOH20160705193010807/05/16 19:30:31  5-MIN KAOH 060030Z AUTO 27007KT 10SM CLR 26/17 A2994 960 59 2400 280/07 RMK AO2 T02560172
04850KAOH AOH20160705193510807/05/16 19:35:31  5-MIN KAOH 060035Z AUTO 26007KT 10SM CLR 25/18 A2994 960 64 2400 270/07 RMK AO2 T02500178
04850KAOH AOH20160705194010807/05/16 19:40:31  5-MIN KAOH 060040Z AUTO 26006KT 10SM CLR 24/18 A2994 960 66 2300 270/06 RMK AO2 T02440178
04850KAOH AOH20160705194510807/05/16 19:45:31  5-MIN KAOH 060045Z AUTO 27005KT 10SM CLR 24/18 A2994 960 68 2300 270/05 RMK AO2 T02440183
04850KAOH AOH20160705195011507/05/16 19:50:31  5-MIN KAOH 060050Z AUTO 27005KT 10SM CLR 24/18 A2994 960 71 2300 280/05 RMK AO2 SLP130 T02390183
04850KAOH AOH20160705195510807/05/16 19:55:31  5-MIN KAOH 060055Z AUTO 27004KT 10SM CLR 24/18 A2994 960 71 2300 280/04 RMK AO2 T02390183
04850KAOH AOH20160705200010807/05/16 20:00:31  5-MIN KAOH 060100Z AUTO 27004KT 10SM CLR 24/18 A2994 960 68 2300 280/04 RMK AO2 T02390178
04850KAOH AOH20160705200510807/05/16 20:05:31  5-MIN KAOH 060105Z AUTO 26004KT 10SM CLR 24/18 A2994 960 68 2300 270/04 RMK AO2 T02390178
04850KAOH AOH20160705201010807/05/16 20:10:31  5-MIN KAOH 060110Z AUTO 25004KT 10SM CLR 24/17 A2994 960 63 2300 260/04 RMK AO2 T02440172
04850KAOH AOH20160705201510807/05/16 20:15:31  5-MIN KAOH 060115Z AUTO 25003KT 10SM CLR 24/17 A2994 960 66 2300 260/03 RMK AO2 T02390172
04850KAOH AOH20160705202010807/05/16 20:20:31  5-MIN KAOH 060120Z AUTO 24003KT 10SM CLR 24/18 A2994 960 68 2300 250/03 RMK AO2 T02390178
04850KAOH AOH20160705202510807/05/16 20:25:31  5-MIN KAOH 060125Z AUTO 25003KT 10SM CLR 24/18 A2993 960 68 2300 260/03 RMK AO2 T02390178
04850KAOH AOH20160705203010807/05/16 20:30:31  5-MIN KAOH 060130Z AUTO 25003KT 10SM CLR 24/17 A2994 960 66 2300 260/03 RMK AO2 T02390172
04850KAOH AOH20160705203510807/05/16 20:35:31  5-MIN KAOH 060135Z AUTO 26003KT 10SM CLR 24/17 A2993 960 66 2300 260/03 RMK AO2 T02390172
04850KAOH AOH20160705204010807/05/16 20:40:31  5-MIN KAOH 060140Z AUTO 00000KT 10SM CLR 24/17 A2993 970 66 2300 000/00 RMK AO2 T02390172
04850KAOH AOH20160705204510807/05/16 20:45:31  5-MIN KAOH 060145Z AUTO 26003KT 10SM CLR 24/17 A2993 960 66 2300 260/03 RMK AO2 T02390172
04850KAOH AOH20160705205011507/05/16 20:50:31  5-MIN KAOH 060150Z AUTO 00000KT 10SM CLR 23/18 A2993 960 73 2100 000/00 RMK AO2 SLP129 T02280178
04850KAOH AOH20160705205510807/05/16 20:55:31  5-MIN KAOH 060155Z AUTO 00000KT 10SM CLR 23/18 A2993 960 73 2100 000/00 RMK AO2 T02280178
04850KAOH AOH20160705210010807/05/16 21:00:31  5-MIN KAOH 060200Z AUTO 00000KT 10SM CLR 24/17 A2993 960 66 2300 000/00 RMK AO2 T02390172
04850KAOH AOH20160705210510807/05/16 21:05:31  5-MIN KAOH 060205Z AUTO 00000KT 10SM CLR 24/17 A2993 960 66 2300 000/00 RMK AO2 T02390172
04850KAOH AOH20160705211010807/05/16 21:10:31  5-MIN KAOH 060210Z AUTO 00000KT 10SM CLR 23/17 A2993 960 68 2200 000/00 RMK AO2 T02330172
04850KAOH AOH20160705211510807/05/16 21:15:31  5-MIN KAOH 060215Z AUTO 22004KT 10SM CLR 22/17 A2993 970 73 2100 230/04 RMK AO2 T02220172
04850KAOH AOH20160705212010807/05/16 21:20:31  5-MIN KAOH 060220Z AUTO 21003KT 10SM CLR 22/17 A2993 970 73 2100 210/03 RMK AO2 T02220172
04850KAOH AOH20160705212510807/05/16 21:25:31  5-MIN KAOH 060225Z AUTO 20003KT 10SM CLR 22/18 A2993 970 75 2100 210/03 RMK AO2 T02220178
04850KAOH AOH20160705213010807/05/16 21:30:31  5-MIN KAOH 060230Z AUTO 22004KT 10SM CLR 22/18 A2993 970 78 2000 220/04 RMK AO2 T02170178
04850KAOH AOH20160705213510807/05/16 21:35:31  5-MIN KAOH 060235Z AUTO 22003KT 10SM CLR 22/18 A2993 960 75 2100 220/03 RMK AO2 T02220178
04850KAOH AOH20160705214010807/05/16 21:40:31  5-MIN KAOH 060240Z AUTO 20003KT 10SM CLR 22/18 A2993 970 75 2100 210/03 RMK AO2 T02220178
04850KAOH AOH20160705214510807/05/16 21:45:31  5-MIN KAOH 060245Z AUTO 18004KT 10SM CLR 22/18 A2993 970 78 2000 190/04 RMK AO2 T02170178
04850KAOH AOH20160705215012107/05/16 21:50:31  5-MIN KAOH 060250Z AUTO 18003KT 10SM CLR 22/18 A2993 970 78 2000 190/03 RMK AO2 SLP128 T02170178 53001
04850KAOH AOH20160705215510807/05/16 21:55:31  5-MIN KAOH 060255Z AUTO 19003KT 10SM CLR 22/18 A2993 970 78 2000 190/03 RMK AO2 T02170178
04850KAOH AOH20160705220010807/05/16 22:00:31  5-MIN KAOH 060300Z AUTO 20003KT 10SM CLR 22/18 A2993 970 78 2000 200/03 RMK AO2 T02170178
04850KAOH AOH20160705220510807/05/16 22:05:31  5-MIN KAOH 060305Z AUTO 18003KT 10SM CLR 21/18 A2993 970 81 1900 190/03 RMK AO2 T02110178
04850KAOH AOH20160705221010807/05/16 22:10:31  5-MIN KAOH 060310Z AUTO 18003KT 10SM CLR 21/18 A2993 970 84 1900 190/03 RMK AO2 T02060178
04850KAOH AOH20160705221510807/05/16 22:15:31  5-MIN KAOH 060315Z AUTO 18003KT 10SM CLR 20/18 A2993 970 87 1800 180/03 RMK AO2 T02000178
04850KAOH AOH20160705222010807/05/16 22:20:31  5-MIN KAOH 060320Z AUTO 18004KT 10SM CLR 21/17 A2993 970 78 1900 190/04 RMK AO2 T02110172
04850KAOH AOH20160705222510807/05/16 22:25:31  5-MIN KAOH 060325Z AUTO 18004KT 10SM CLR 22/18 A2993 970 78 2000 190/04 RMK AO2 T02170178
04850KAOH AOH20160705223010807/05/16 22:30:31  5-MIN KAOH 060330Z AUTO 19004KT 10SM CLR 22/18 A2993 970 78 2000 190/04 RMK AO2 T02170178
04850KAOH AOH20160705223510807/05/16 22:35:31  5-MIN KAOH 060335Z AUTO 19003KT 10SM CLR 22/17 A2993 970 75 2000 200/03 RMK AO2 T02170172
04850KAOH AOH20160705224010807/05/16 22:40:31  5-MIN KAOH 060340Z AUTO 18003KT 10SM CLR 22/17 A2993 970 75 2000 190/03 RMK AO2 T02170172
04850KAOH AOH20160705224510807/05/16 22:45:31  5-MIN KAOH 060345Z AUTO 18003KT 10SM CLR 22/17 A2993 960 75 2000 190/03 RMK AO2 T02170172
04850KAOH AOH20160705225011507/05/16 22:50:31  5-MIN KAOH 060350Z AUTO 00000KT 10SM CLR 22/17 A2994 960 75 2000 000/00 RMK AO2 SLP130 T02170172
04850KAOH AOH20160705225510807/05/16 22:55:31  5-MIN KAOH 060355Z AUTO 00000KT 10SM CLR 21/18 A2994 960 81 1900 000/00 RMK AO2 T02110178
04850KAOH AOH20160705230010807/05/16 23:00:31  5-MIN KAOH 060400Z AUTO 00000KT 10SM CLR 21/18 A2994 960 81 1900 000/00 RMK AO2 T02110178
04850KAOH AOH20160705230510807/05/16 23:05:31  5-MIN KAOH 060405Z AUTO 00000KT 10SM CLR 21/18 A2994 960 81 1900 000/00 RMK AO2 T02110178
04850KAOH AOH20160705231010807/05/16 23:10:31  5-MIN KAOH 060410Z AUTO 17003KT 10SM CLR 21/18 A2994 960 84 1900 170/03 RMK AO2 T02060178
04850KAOH AOH20160705231510807/05/16 23:15:31  5-MIN KAOH 060415Z AUTO 17003KT 10SM CLR 21/18 A2993 960 84 1900 170/03 RMK AO2 T02060178
04850KAOH AOH20160705232010807/05/16 23:20:31  5-MIN KAOH 060420Z AUTO 17004KT 10SM CLR 20/18 A2994 960 87 1800 170/04 RMK AO2 T02000178
04850KAOH AOH20160705232510807/05/16 23:25:31  5-MIN KAOH 060425Z AUTO 17004KT 10SM CLR 20/18 A2993 970 87 1800 170/04 RMK AO2 T02000178
04850KAOH AOH20160705233010807/05/16 23:30:31  5-MIN KAOH 060430Z AUTO 17006KT 10SM CLR 20/18 A2993 960 87 1800 180/06 RMK AO2 T02000178
04850KAOH AOH20160705233510807/05/16 23:35:31  5-MIN KAOH 060435Z AUTO 18005KT 10SM CLR 20/18 A2994 960 87 1800 180/05 RMK AO2 T02000178
04850KAOH AOH20160705234010807/05/16 23:40:31  5-MIN KAOH 060440Z AUTO 00000KT 10SM CLR 19/18 A2994 960 90 1700 000/00 RMK AO2 T01940178
04850KAOH AOH20160705234510807/05/16 23:45:31  5-MIN KAOH 060445Z AUTO 00000KT 10SM CLR 20/18 A2994 960 87 1800 000/00 RMK AO2 T02000178
04850KAOH AOH20160705235012507/05/16 23:50:31  5-MIN KAOH 060450Z AUTO 00000KT 10SM CLR 20/18 A2994 960 87 1800 000/00 RMK AO2 SLP132 T02000178 402830194
04850KAOH AOH20160705235510807/05/16 23:55:31  5-MIN KAOH 060455Z AUTO 00000KT 10SM CLR 19/17 A2994 960 87 1700 000/00 RMK AO2 T01940172
04850KAOH AOH20160706000010807/06/16 00:00:31  5-MIN KAOH 060500Z AUTO 18003KT 10SM CLR 20/17 A2994 960 84 1800 190/03 RMK AO2 T02000172
04850KAOH AOH20160706000510807/06/16 00:05:31  5-MIN KAOH 060505Z AUTO 19004KT 10SM CLR 20/17 A2994 960 84 1800 190/04 RMK AO2 T02000172
04850KAOH AOH20160706001010807/06/16 00:10:31  5-MIN KAOH 060510Z AUTO 19003KT 10SM CLR 20/17 A2994 960 84 1800 200/03 RMK AO2 T02000172
04850KAOH AOH20160706001510807/06/16 00:15:31  5-MIN KAOH 060515Z AUTO 19005KT 10SM CLR 19/17 A2994 960 87 1700 190/05 RMK AO2 T01940172
04850KAOH AOH20160706002010807/06/16 00:20:31  5-MIN KAOH 060520Z AUTO 18006KT 10SM CLR 19/17 A2994 960 87 1700 190/06 RMK AO2 T01940172
04850KAOH AOH20160706002510807/06/16 00:25:31  5-MIN KAOH 060525Z AUTO 18006KT 10SM CLR 19/17 A2994 960 87 1700 190/06 RMK AO2 T01940172
04850KAOH AOH20160706003010807/06/16 00:30:31  5-MIN KAOH 060530Z AUTO 18006KT 10SM CLR 19/17 A2994 960 87 1700 190/06 RMK AO2 T01940172
04850KAOH AOH20160706003510807/06/16 00:35:31  5-MIN KAOH 060535Z AUTO 19006KT 10SM CLR 19/17 A2994 960 87 1700 190/06 RMK AO2 T01940172
04850KAOH AOH20160706004010807/06/16 00:40:31  5-MIN KAOH 060540Z AUTO 18005KT 10SM CLR 19/17 A2994 960 87 1700 190/05 RMK AO2 T01940172
04850KAOH AOH20160706004510807/06/16 00:45:31  5-MIN KAOH 060545Z AUTO 18003KT 10SM CLR 19/17 A2995 950 90 1700 190/03 RMK AO2 T01890172
04850KAOH AOH20160706005013307/06/16 00:50:31  5-MIN KAOH 060550Z AUTO 00000KT 10SM CLR 19/17 A2995 950 90 1700 000/00 RMK AO2 SLP133 T01890172 10267 20189 58002
04850KAOH AOH20160706005510807/06/16 00:55:31  5-MIN KAOH 060555Z AUTO 00000KT 10SM CLR 19/17 A2994 950 87 1700 000/00 RMK AO2 T01940172
04850KAOH AOH20160706010010807/06/16 01:00:31  5-MIN KAOH 060600Z AUTO 19003KT 10SM CLR 19/17 A2995 950 90 1700 200/03 RMK AO2 T01890172
04850KAOH AOH20160706010510807/06/16 01:05:31  5-MIN KAOH 060605Z AUTO 19004KT 10SM CLR 19/17 A2995 950 87 1700 200/04 RMK AO2 T01940172
04850KAOH AOH20160706011010807/06/16 01:10:31  5-MIN KAOH 060610Z AUTO 20004KT 10SM CLR 20/17 A2995 950 84 1800 210/04 RMK AO2 T02000172
04850KAOH AOH20160706011510807/06/16 01:15:31  5-MIN KAOH 060615Z AUTO 20006KT 10SM CLR 20/17 A2995 950 84 1800 200/06 RMK AO2 T02000172
04850KAOH AOH20160706012010807/06/16 01:20:31  5-MIN KAOH 060620Z AUTO 19006KT 10SM CLR 21/17 A2995 950 81 1900 200/06 RMK AO2 T02060172
04850KAOH AOH20160707204511907/07/16 20:45:31  5-MIN KAOH 080145Z AUTO 22008KT 10SM FEW028 SCT120 26/22 A2986 1040 81 2500 220/08 RMK AO2 T02560222
04850KAOH AOH20160707205012607/07/16 20:50:31  5-MIN KAOH 080150Z AUTO 22008KT 10SM FEW028 SCT120 26/22 A2986 1030 81 2500 230/08 RMK AO2 SLP103 T02560222
04850KAOH AOH20160707205511907/07/16 20:55:31  5-MIN KAOH 080155Z AUTO 22007KT 10SM FEW029 SCT120 26/22 A2986 1030 81 2500 230/07 RMK AO2 T02560222
04850KAOH AOH20160707210011907/07/16 21:00:31  5-MIN KAOH 080200Z AUTO 22007KT 10SM FEW029 SCT120 26/22 A2986 1030 81 2500 230/07 RMK AO2 T02560222
04850KAOH AOH20160707210511907/07/16 21:05:31  5-MIN KAOH 080205Z AUTO 22009KT 10SM FEW027 SCT120 26/22 A2987 1030 79 2500 230/09 RMK AO2 T02560217
04850KAOH AOH20160707211011207/07/16 21:10:31  5-MIN KAOH 080210Z AUTO 22009KT 10SM SCT027 26/22 A2986 1030 79 2500 220/09 RMK AO2 T02560217
04850KAOH AOH20160707211511207/07/16 21:15:31  5-MIN KAOH 080215Z AUTO 21008KT 10SM SCT027 25/22 A2986 1030 81 2500 220/08 RMK AO2 T02500217
04850KAOH AOH20160707212011207/07/16 21:20:31  5-MIN KAOH 080220Z AUTO 20008KT 10SM FEW028 25/22 A2986 1030 81 2500 200/08 RMK AO2 T02500217
04850KAOH AOH20160707212511207/07/16 21:25:31  5-MIN KAOH 080225Z AUTO 21007KT 10SM FEW028 25/22 A2986 1030 81 2500 210/07 RMK AO2 T02500217
04850KAOH AOH20160707213011207/07/16 21:30:31  5-MIN KAOH 080230Z AUTO 21007KT 10SM FEW028 25/22 A2986 1030 81 2500 210/07 RMK AO2 T02500217
04850KAOH AOH20160707213511207/07/16 21:35:31  5-MIN KAOH 080235Z AUTO 21008KT 10SM FEW028 25/22 A2987 1030 81 2500 220/08 RMK AO2 T02500217
04850KAOH AOH20160707214010907/07/16 21:40:31  5-MIN KAOH 080240Z AUTO 21008KT 10SM CLR 25/22 A2987 1020 81 2500 220/08 RMK AO2 T02500217
04850KAOH AOH20160707214511207/07/16 21:45:31  5-MIN KAOH 080245Z AUTO 21008KT 10SM FEW095 24/22 A2987 1020 84 2400 220/08 RMK AO2 T02440217
04850KAOH AOH20160707215012507/07/16 21:50:31  5-MIN KAOH 080250Z AUTO 21006KT 10SM FEW095 24/22 A2987 1020 84 2400 220/06 RMK AO2 SLP107 T02440217 55002
04850KAOH AOH20160707215510907/07/16 21:55:31  5-MIN KAOH 080255Z AUTO 20006KT 10SM CLR 24/22 A2987 1020 84 2400 210/06 RMK AO2 T02440217
04850KAOH AOH20160707220010907/07/16 22:00:31  5-MIN KAOH 080300Z AUTO 20006KT 10SM CLR 24/22 A2987 1020 84 2400 210/06 RMK AO2 T02440217
04850KAOH AOH20160707220510907/07/16 22:05:31  5-MIN KAOH 080305Z AUTO 21006KT 10SM CLR 24/22 A2987 1020 84 2400 210/06 RMK AO2 T02440217
04850KAOH AOH20160707221010907/07/16 22:10:31  5-MIN KAOH 080310Z AUTO 21006KT 10SM CLR 24/22 A2987 1020 84 2400 210/06 RMK AO2 T02440217
04850KAOH AOH20160707221510907/07/16 22:15:31  5-MIN KAOH 080315Z AUTO 20006KT 10SM CLR 24/22 A2987 1020 84 2400 210/06 RMK AO2 T02440217
04850KAOH AOH20160707222011207/07/16 22:20:31  5-MIN KAOH 080320Z AUTO 20006KT 10SM FEW120 24/22 A2987 1030 84 2400 200/06 RMK AO2 T02440217
04850KAOH AOH20160707222511707/07/16 22:25:31  5-MIN KAOH 080325Z AUTO 19007KT 10SM FEW120 24/22 A2986 1030 84 2400 190/07 RMK AO2 T02440217 TSNO
04850KAOH AOH20160707223011707/07/16 22:30:31  5-MIN KAOH 080330Z AUTO 19006KT 10SM FEW120 24/22 A2986 1030 84 2400 200/06 RMK AO2 T02440217 TSNO
04850KAOH AOH20160707223511207/07/16 22:35:31  5-MIN KAOH 080335Z AUTO 20007KT 10SM SCT110 24/22 A2986 1030 87 2300 200/07 RMK AO2 T02390217
04850KAOH AOH20160707224011207/07/16 22:40:31  5-MIN KAOH 080340Z AUTO 19007KT 10SM SCT110 24/22 A2986 1030 87 2300 200/07 RMK AO2 T02390217
04850KAOH AOH20160707224511207/07/16 22:45:31  5-MIN KAOH 080345Z AUTO 19007KT 10SM BKN110 24/22 A2986 1040 87 2300 200/07 RMK AO2 T02390217
04850KAOH AOH20160707225011907/07/16 22:50:31  5-MIN KAOH 080350Z AUTO 19007KT 10SM BKN110 24/22 A2985 1040 87 2300 200/07 RMK AO2 SLP101 T02390217
04850KAOH AOH20160707225511207/07/16 22:55:31  5-MIN KAOH 080355Z AUTO 20007KT 10SM SCT110 24/22 A2985 1040 87 2300 200/07 RMK AO2 T02390217
04850KAOH AOH20160707230011207/07/16 23:00:31  5-MIN KAOH 080400Z AUTO 20007KT 10SM SCT110 24/22 A2985 1040 87 2300 210/07 RMK AO2 T02390217
04850KAOH AOH20160707230511207/07/16 23:05:31  5-MIN KAOH 080405Z AUTO 20006KT 10SM SCT110 24/22 A2985 1040 87 2300 210/06 RMK AO2 T02390217
04850KAOH AOH20160707231011207/07/16 23:10:31  5-MIN KAOH 080410Z AUTO 20006KT 10SM FEW110 24/22 A2985 1040 87 2300 200/06 RMK AO2 T02390217
04850KAOH AOH20160707231511207/07/16 23:15:31  5-MIN KAOH 080415Z AUTO 19006KT 10SM FEW110 24/22 A2985 1050 87 2400 200/06 RMK AO2 T02390217
04850KAOH AOH20160707232010907/07/16 23:20:31  5-MIN KAOH 080420Z AUTO 19007KT 10SM CLR 24/22 A2984 1050 87 2400 190/07 RMK AO2 T02390217
04850KAOH AOH20160707232510907/07/16 23:25:31  5-MIN KAOH 080425Z AUTO 19006KT 10SM CLR 24/22 A2984 1050 87 2400 200/06 RMK AO2 T02390217
04850KAOH AOH20160707233010907/07/16 23:30:31  5-MIN KAOH 080430Z AUTO 19007KT 10SM CLR 24/22 A2983 1060 87 2400 190/07 RMK AO2 T02390217
04850KAOH AOH20160707233511207/07/16 23:35:31  5-MIN KAOH 080435Z AUTO 18007KT 10SM FEW120 24/22 A2983 1060 87 2400 190/07 RMK AO2 T02390217
04850KAOH AOH20160707234011207/07/16 23:40:31  5-MIN KAOH 080440Z AUTO 18007KT 10SM FEW120 24/22 A2982 1070 87 2400 190/07 RMK AO2 T02390217
04850KAOH AOH20160707234511907/07/16 23:45:31  5-MIN KAOH 080445Z AUTO 18006KT 10SM FEW120 24/22 A2982 1070 87 2400 180/06 RMK AO2 PRESFR T02390217
04850KAOH AOH20160707235012907/07/16 23:50:31  5-MIN KAOH 080450Z AUTO 17007KT 10SM FEW120 24/22 A2982 1070 87 2400 170/07 RMK AO2 SLP087 T02390217 403000200
04850KAOH AOH20160707235511207/07/16 23:55:31  5-MIN KAOH 080455Z AUTO 17006KT 10SM FEW120 24/22 A2982 1070 87 2400 170/06 RMK AO2 T02390217
04850KAOH AOH20160708000011207/08/16 00:00:31  5-MIN KAOH 080500Z AUTO 18005KT 10SM FEW120 24/22 A2982 1070 87 2400 190/05 RMK AO2 T02390217
04850KAOH AOH20160708000510907/08/16 00:05:31  5-MIN KAOH 080505Z AUTO 21004KT 10SM CLR 24/22 A2983 1060 87 2400 210/04 RMK AO2 T02390217
04850KAOH AOH20160708001010907/08/16 00:10:31  5-MIN KAOH 080510Z AUTO 21005KT 10SM CLR 24/22 A2983 1060 87 2400 220/05 RMK AO2 T02390217
04850KAOH AOH20160708001511207/08/16 00:15:31  5-MIN KAOH 080515Z AUTO 21005KT 10SM FEW025 24/22 A2983 1060 87 2400 210/05 RMK AO2 T02390217
04850KAOH AOH20160708002011207/08/16 00:20:31  5-MIN KAOH 080520Z AUTO 20005KT 10SM SCT023 24/22 A2983 1060 87 2400 210/05 RMK AO2 T02390217
04850KAOH AOH20160708002511907/08/16 00:25:31  5-MIN KAOH 080525Z AUTO 20005KT 10SM SCT021 BKN027 24/22 A2983 1060 87 2400 200/05 RMK AO2 T02390217
04850KAOH AOH20160708003011907/08/16 00:30:31  5-MIN KAOH 080530Z AUTO 20006KT 10SM BKN021 BKN028 24/22 A2983 1060 87 2400 210/06 RMK AO2 T02390217
04850KAOH AOH20160708003512607/08/16 00:35:31  5-MIN KAOH 080535Z AUTO 20006KT 10SM BKN021 BKN028 BKN037 24/22 A2983 1060 87 2400 210/06 RMK AO2 T02390217
04850KAOH AOH20160708004012607/08/16 00:40:31  5-MIN KAOH 080540Z AUTO 22008KT 10SM BKN021 BKN026 BKN037 24/22 A2983 1060 87 2400 220/08 RMK AO2 T02390217
04850KAOH AOH20160708004512607/08/16 00:45:31  5-MIN KAOH 080545Z AUTO 19006KT 10SM BKN021 BKN030 BKN085 24/22 A2982 1070 87 2400 200/06 RMK AO2 T02390217
04850KAOH AOH20160708005011607/08/16 00:50:31  5-MIN KAOH 080550Z AUTO 21005KT 10SM SCT021 SCT036 BKN085 24/22 A2982 1070 87 2400 210/05 RMK AO2
04850KAOH AOH20160708005512607/08/16 00:55:31  5-MIN KAOH 080555Z AUTO 22007KT 10SM FEW021 SCT034 SCT085 24/22 A2982 1070 87 2400 220/07 RMK AO2 T02390217
04850KAOH AOH20160708010012607/08/16 01:00:31  5-MIN KAOH 080600Z AUTO 23005KT 10SM FEW021 FEW034 SCT085 24/22 A2982 1070 87 2400 230/05 RMK AO2 T02390217
04850KAOH AOH20160708010511907/08/16 01:05:31  5-MIN KAOH 080605Z AUTO 22006KT 10SM FEW021 FEW085 24/22 A2982 1070 87 2400 220/06 RMK AO2 T02390217
04850KAOH AOH20160708011011907/08/16 01:10:31  5-MIN KAOH 080610Z AUTO 21006KT 10SM SCT021 SCT085 24/22 A2982 1070 87 2400 220/06 RMK AO2 T02390217
04850KAOH AOH20160708011511207/08/16 01:15:31  5-MIN KAOH 080615Z AUTO 21006KT 10SM BKN022 24/22 A2982 1070 87 2400 220/06 RMK AO2 T02390217
04850KAOH AOH20160708012011907/08/16 01:20:31  5-MIN KAOH 080620Z AUTO 21005KT 10SM BKN022 BKN080 24/22 A2982 1070 87 2400 210/05 RMK AO2 T02390217
04850KAOH AOH20160708012511907/08/16 01:25:31  5-MIN KAOH 080625Z AUTO 20006KT 10SM BKN020 BKN080 24/22 A2982 1070 87 2400 210/06 RMK AO2 T02390217
04850KAOH AOH20160708013011907/08/16 01:30:31  5-MIN KAOH 080630Z AUTO 20006KT 10SM BKN020 OVC080 24/22 A2982 1070 87 2400 210/06 RMK AO2 T02390217
04850KAOH AOH20160708013511907/08/16 01:35:31  5-MIN KAOH 080635Z AUTO 22005KT 10SM BKN020 BKN080 23/22 A2982 1070 90 2300 230/05 RMK AO2 T02330217
04850KAOH AOH20160708014011907/08/16 01:40:31  5-MIN KAOH 080640Z AUTO 22004KT 10SM BKN018 BKN080 23/22 A2982 1070 90 2300 220/04 RMK AO2 T02330217
04850KAOH AOH20160708014511907/08/16 01:45:31  5-MIN KAOH 080645Z AUTO 22005KT 10SM BKN018 BKN080 23/22 A2982 1070 90 2300 230/05 RMK AO2 T02330217
04850KAOH AOH20160708015011907/08/16 01:50:31  5-MIN KAOH 080650Z AUTO 23005KT 10SM BKN019 23/22 A2982 1070 90 2300 230/05 RMK AO2 SLP089 T02330217
04850KAOH AOH20160708015511207/08/16 01:55:31  5-MIN KAOH 080655Z AUTO 22005KT 10SM BKN019 23/22 A2982 1070 90 2300 230/05 RMK AO2 T02330217
04850KAOH AOH20160708020011907/08/16 02:00:31  5-MIN KAOH 080700Z AUTO 22004KT 10SM BKN018 BKN024 23/22 A2982 1070 90 2300 230/04 RMK AO2 T02330217
04850KAOH AOH20160708020511907/08/16 02:05:31  5-MIN KAOH 080705Z AUTO 22004KT 10SM BKN018 BKN026 23/22 A2982 1070 90 2300 230/04 RMK AO2 T02330217
04850KAOH AOH20160708021011907/08/16 02:10:31  5-MIN KAOH 080710Z AUTO 22003KT 10SM BKN018 OVC026 23/22 A2982 1070 90 2300 230/03 RMK AO2 T02330217
04850KAOH AOH20160708021511907/08/16 02:15:31  5-MIN KAOH 080715Z AUTO 22004KT 10SM BKN018 OVC026 23/22 A2982 1070 93 2300 230/04 RMK AO2 T02280217
04850KAOH AOH20160708022011907/08/16 02:20:31  5-MIN KAOH 080720Z AUTO 22004KT 10SM BKN018 OVC026 23/22 A2982 1070 93 2300 230/04 RMK AO2 T02280217
04850KAOH AOH20160708022511907/08/16 02:25:31  5-MIN KAOH 080725Z AUTO 22005KT 10SM SCT018 BKN026 23/22 A2982 1070 93 2300 230/05 RMK AO2 T02280217
04850KAOH AOH20160708023011907/08/16 02:30:31  5-MIN KAOH 080730Z AUTO 21005KT 10SM SCT018 BKN027 23/22 A2982 1070 93 2300 220/05 RMK AO2 T02280217
04850KAOH AOH20160708023511907/08/16 02:35:31  5-MIN KAOH 080735Z AUTO 21004KT 10SM FEW018 OVC027 23/22 A2982 1070 93 2300 220/04 RMK AO2 T02280217
04850KAOH AOH20160708024011907/08/16 02:40:31  5-MIN KAOH 080740Z AUTO 21003KT 10SM FEW016 OVC027 23/22 A2982 1070 93 2300 220/03 RMK AO2 T02280217
04850KAOH AOH20160708024511907/08/16 02:45:31  5-MIN KAOH 080745Z AUTO 21004KT 10SM FEW013 OVC028 23/22 A2982 1070 93 2300 220/04 RMK AO2 T02280217
04850KAOH AOH20160708025012607/08/16 02:50:31  5-MIN KAOH 080750Z AUTO 22005KT 10SM SCT013 OVC028 23/22 A2982 1070 93 2300 220/05 RMK AO2 SLP087 T02280217
04850KAOH AOH20160708025512607/08/16 02:55:31  5-MIN KAOH 080755Z AUTO 23005KT 10SM BKN013 BKN019 OVC030 23/22 A2982 1070 93 2300 240/05 RMK AO2 T02280217
04850KAOH AOH20160708030012607/08/16 03:00:31  5-MIN KAOH 080800Z AUTO 24007KT 10SM BKN013 BKN020 OVC028 23/22 A2982 1070 93 2300 240/07 RMK AO2 T02280217
04850KAOH AOH20160708030512607/08/16 03:05:31  5-MIN KAOH 080805Z AUTO 21006KT 10SM SCT013 BKN020 OVC026 23/22 A2982 1070 93 2300 220/06 RMK AO2 T02280217
04850KAOH AOH20160708031012607/08/16 03:10:31  5-MIN KAOH 080810Z AUTO 23006KT 10SM SCT013 BKN020 OVC035 23/22 A2982 1070 93 2300 240/06 RMK AO2 T02280217
04850KAOH AOH20160708031512607/08/16 03:15:31  5-MIN KAOH 080815Z AUTO 23008KT 10SM SCT013 BKN024 OVC037 23/22 A2981 1080 93 2300 240/08 RMK AO2 T02280217
04850KAOH AOH20160708032012607/08/16 03:20:31  5-MIN KAOH 080820Z AUTO 25008KT 10SM FEW013 BKN030 OVC037 23/22 A2981 1080 93 2300 260/08 RMK AO2 T02280217
04850KAOH AOH20160708032512607/08/16 03:25:31  5-MIN KAOH 080825Z AUTO 26008KT 10SM FEW013 BKN028 OVC035 23/22 A2982 1070 93 2300 260/08 RMK AO2 T02280217
04850KAOH AOH20160708033011907/08/16 03:30:31  5-MIN KAOH 080830Z AUTO 27011KT 10SM SCT028 OVC035 23/21 A2982 1070 90 2300 270/11 RMK AO2 T02280211
04850KAOH AOH20160708033512607/08/16 03:35:31  5-MIN KAOH 080835Z AUTO 26010KT 10SM FEW025 SCT030 OVC037 23/21 A2981 1080 90 2300 270/10 RMK AO2 T02280211
04850KAOH AOH20160708034012607/08/16 03:40:31  5-MIN KAOH 080840Z AUTO 26010KT 10SM FEW025 SCT030 OVC037 23/21 A2982 1070 90 2300 270/10 RMK AO2 T02280211
04850KAOH AOH20160708034511907/08/16 03:45:31  5-MIN KAOH 080845Z AUTO 26012KT 10SM FEW027 OVC037 23/21 A2982 1070 90 2300 270/12 RMK AO2 T02280211
04850KAOH AOH20160708035012507/08/16 03:50:31  5-MIN KAOH 080850Z AUTO 27012KT 10SM OVC037 23/21 A2982 1070 90 2300 270/12 RMK AO2 SLP087 T02280211 56010
04850KAOH AOH20160708035511207/08/16 03:55:31  5-MIN KAOH 080855Z AUTO 27011KT 10SM OVC037 23/21 A2982 1070 90 2300 280/11 RMK AO2 T02280211
04850KAOH AOH20160708040011207/08/16 04:00:31  5-MIN KAOH 080900Z AUTO 27011KT 10SM OVC037 23/21 A2982 1070 90 2300 280/11 RMK AO2 T02280211
04850KAOH AOH20160708040511907/08/16 04:05:31  5-MIN KAOH 080905Z AUTO 26013KT 10SM FEW013 OVC038 23/21 A2983 1060 90 2300 270/13 RMK AO2 T02280211
04850KAOH AOH20160708041011907/08/16 04:10:31  5-MIN KAOH 080910Z AUTO 26011KT 10SM FEW013 OVC038 23/21 A2983 1070 90 2300 270/11 RMK AO2 T02280211
04850KAOH AOH20160708041512607/08/16 04:15:31  5-MIN KAOH 080915Z AUTO 27010KT 10SM FEW010 FEW015 OVC040 23/21 A2982 1070 90 2300 280/10 RMK AO2 T02280211
04850KAOH AOH20160708042011907/08/16 04:20:31  5-MIN KAOH 080920Z AUTO 27009KT 10SM FEW015 OVC040 23/21 A2983 1060 90 2300 280/09 RMK AO2 T02280211
04850KAOH AOH20160708042511907/08/16 04:25:31  5-MIN KAOH 080925Z AUTO 26009KT 10SM FEW015 OVC040 23/21 A2982 1070 90 2300 270/09 RMK AO2 T02280211
04850KAOH AOH20160708043011907/08/16 04:30:31  5-MIN KAOH 080930Z AUTO 25010KT 10SM FEW015 BKN040 22/21 A2982 1070 93 2200 260/10 RMK AO2 T02220211
04850KAOH AOH20160708043511207/08/16 04:35:31  5-MIN KAOH 080935Z AUTO 25009KT 10SM BKN040 22/21 A2983 1060 93 2200 260/09 RMK AO2 T02220211
04850KAOH AOH20160708044011207/08/16 04:40:31  5-MIN KAOH 080940Z AUTO 25009KT 10SM BKN040 22/21 A2983 1060 93 2200 250/09 RMK AO2 T02220211
04850KAOH AOH20160708044511207/08/16 04:45:31  5-MIN KAOH 080945Z AUTO 25009KT 10SM SCT040 22/21 A2983 1060 93 2200 250/09 RMK AO2 T02220211
04850KAOH AOH20160708045011907/08/16 04:50:31  5-MIN KAOH 080950Z AUTO 26008KT 10SM FEW040 22/21 A2983 1060 93 2200 260/08 RMK AO2 SLP093 T02220211
04850KAOH AOH20160708045511207/08/16 04:55:31  5-MIN KAOH 080955Z AUTO 26007KT 10SM FEW038 22/21 A2983 1060 93 2200 260/07 RMK AO2 T02220211
04850KAOH AOH20160708050010907/08/16 05:00:31  5-MIN KAOH 081000Z AUTO 25006KT 10SM CLR 22/21 A2983 1060 97 2100 260/06 RMK AO2 T02170211
04850KAOH AOH20160708050510907/08/16 05:05:31  5-MIN KAOH 081005Z AUTO 26006KT 10SM CLR 22/21 A2984 1060 97 2100 260/06 RMK AO2 T02170211
04850KAOH AOH20160708051010907/08/16 05:10:31  5-MIN KAOH 081010Z AUTO 25007KT 10SM CLR 22/21 A2983 1060 97 2100 250/07 RMK AO2 T02170211
04850KAOH AOH20160708051511207/08/16 05:15:31  5-MIN KAOH 081015Z AUTO 25009KT 10SM FEW008 22/21 A2984 1050 97 2100 260/09 RMK AO2 T02170211
04850KAOH AOH20160708052011207/08/16 05:20:31  5-MIN KAOH 081020Z AUTO 25007KT 10SM FEW008 22/21 A2984 1050 97 2100 260/07 RMK AO2 T02170211
04850KAOH AOH20160708052511207/08/16 05:25:31  5-MIN KAOH 081025Z AUTO 25008KT 10SM FEW008 22/21 A2985 1050 97 2100 260/08 RMK AO2 T02170211
04850KAOH AOH20160708053011207/08/16 05:30:31  5-MIN KAOH 081030Z AUTO 25008KT 10SM FEW008 22/21 A2984 1050 97 2100 250/08 RMK AO2 T02170211
04850KAOH AOH20160708053511207/08/16 05:35:31  5-MIN KAOH 081035Z AUTO 24007KT 10SM SCT008 22/21 A2984 1050 93 2200 250/07 RMK AO2 T02220211
04850KAOH AOH20160708054011207/08/16 05:40:31  5-MIN KAOH 081040Z AUTO 24008KT 10SM BKN008 22/21 A2984 1050 93 2200 250/08 RMK AO2 T02220211
04850KAOH AOH20160708054511207/08/16 05:45:31  5-MIN KAOH 081045Z AUTO 25008KT 10SM BKN008 22/21 A2984 1050 93 2200 250/08 RMK AO2 T02220211
04850KAOH AOH20160708055011907/08/16 05:50:31  5-MIN KAOH 081050Z AUTO 25008KT 10SM BKN008 22/21 A2985 1050 93 2200 250/08 RMK AO2 SLP099 T02220211
04850KAOH AOH20160708055511207/08/16 05:55:31  5-MIN KAOH 081055Z AUTO 25008KT 10SM BKN008 22/21 A2985 1040 93 2200 250/08 RMK AO2 T02220211
04850KAOH AOH20160708060011207/08/16 06:00:31  5-MIN KAOH 081100Z AUTO 25007KT 10SM BKN007 22/21 A2985 1050 93 2200 260/07 RMK AO2 T02220211
04850KAOH AOH20160708060511207/08/16 06:05:31  5-MIN KAOH 081105Z AUTO 25006KT 10SM BKN007 22/22 A2985 1050 97 2200 260/06 RMK AO2 T02220217
04850KAOH AOH20160708061011207/08/16 06:10:31  5-MIN KAOH 081110Z AUTO 24006KT 10SM BKN007 22/22 A2984 1050 97 2200 250/06 RMK AO2 T02220217
04850KAOH AOH20160708061511207/08/16 06:15:31  5-MIN KAOH 081115Z AUTO 25007KT 10SM SCT007 22/22 A2985 1050 97 2200 250/07 RMK AO2 T02220217
04850KAOH AOH20160708062011207/08/16 06:20:31  5-MIN KAOH 081120Z AUTO 25008KT 10SM SCT007 22/22 A2985 1040 97 2200 260/08 RMK AO2 T02220217
04850KAOH AOH20160708062511907/08/16 06:25:31  5-MIN KAOH 081125Z AUTO 25008KT 10SM SCT007 SCT024 22/22 A2985 1040 97 2200 260/08 RMK AO2 T02220217
04850KAOH AOH20160708063011907/08/16 06:30:31  5-MIN KAOH 081130Z AUTO 25008KT 10SM SCT007 BKN024 23/22 A2985 1040 93 2200 260/08 RMK AO2 T02280217
04850KAOH AOH20160708063511907/08/16 06:35:31  5-MIN KAOH 081135Z AUTO 25008KT 10SM SCT007 BKN025 23/22 A2985 1040 93 2200 260/08 RMK AO2 T02280217
04850KAOH AOH20160708064011907/08/16 06:40:31  5-MIN KAOH 081140Z AUTO 26008KT 10SM FEW007 SCT025 23/22 A2985 1050 93 2200 260/08 RMK AO2 T02280217
04850KAOH AOH20160708064511907/08/16 06:45:31  5-MIN KAOH 081145Z AUTO 26008KT 10SM SCT008 SCT025 23/22 A2985 1050 93 2200 270/08 RMK AO2 T02280217
04850KAOH AOH20160708065010907/08/16 06:50:31  5-MIN KAOH 081150Z AUTO 25008KT 10SM SCT008 BKN025 23/22 A2985 1050 93 2200 260/08 RMK AO2
04850KAOH AOH20160708065511907/08/16 06:55:31  5-MIN KAOH 081155Z AUTO 26009KT 10SM BKN008 BKN025 23/22 A2985 1040 93 2200 260/09 RMK AO2 T02280217
04850KAOH AOH20160708070011207/08/16 07:00:31  5-MIN KAOH 081200Z AUTO 26008KT 10SM BKN008 23/22 A2985 1040 93 2200 260/08 RMK AO2 T02280217
04850KAOH AOH20160708070512407/08/16 07:05:31  5-MIN KAOH 081205Z AUTO 26008KT 10SM BKN010 23/22 A2985 1040 93 2200 270/08 RMK AO2 CIG 008V013 T02280217
04850KAOH AOH20160708071012407/08/16 07:10:31  5-MIN KAOH 081210Z AUTO 25009KT 10SM OVC010 23/22 A2985 1040 93 2200 260/09 RMK AO2 CIG 008V013 T02280217
04850KAOH AOH20160708071512407/08/16 07:15:31  5-MIN KAOH 081215Z AUTO 25010KT 10SM OVC010 23/22 A2985 1040 93 2200 260/10 RMK AO2 CIG 008V013 T02280217
04850KAOH AOH20160708072012407/08/16 07:20:31  5-MIN KAOH 081220Z AUTO 26008KT 10SM OVC010 23/22 A2985 1040 93 2200 270/08 RMK AO2 CIG 008V014 T02280217
04850KAOH AOH20160708072512407/08/16 07:25:31  5-MIN KAOH 081225Z AUTO 26007KT 10SM OVC010 23/21 A2985 1040 90 2200 260/07 RMK AO2 CIG 008V014 T02280211
04850KAOH AOH20160708073011207/08/16 07:30:31  5-MIN KAOH 081230Z AUTO 26009KT 10SM OVC012 23/22 A2985 1040 93 2200 270/09 RMK AO2 T02280217
04850KAOH AOH20160708073511207/08/16 07:35:31  5-MIN KAOH 081235Z AUTO 26009KT 10SM OVC012 23/22 A2985 1040 90 2300 260/09 RMK AO2 T02330217
04850KAOH AOH20160708074011907/08/16 07:40:31  5-MIN KAOH 081240Z AUTO 26008KT 10SM BKN012 OVC016 23/22 A2985 1040 90 2300 260/08 RMK AO2 T02330217
04850KAOH AOH20160708074511207/08/16 07:45:31  5-MIN KAOH 081245Z AUTO 26009KT 10SM OVC012 23/22 A2986 1040 90 2300 260/09 RMK AO2 T02330217
04850KAOH AOH20160708075011907/08/16 07:50:31  5-MIN KAOH 081250Z AUTO 26010KT 10SM BKN013 24/22 A2985 1040 87 2300 270/10 RMK AO2 SLP101 T02390217
04850KAOH AOH20160708075511207/08/16 07:55:31  5-MIN KAOH 081255Z AUTO 27010KT 10SM BKN013 24/21 A2986 1040 84 2300 280/10 RMK AO2 T02390211
04850KAOH AOH20160708080011207/08/16 08:00:31  5-MIN KAOH 081300Z AUTO 28010KT 10SM OVC015 24/21 A2986 1040 84 2300 280/10 RMK AO2 T02390211
04850KAOH AOH20160708080511207/08/16 08:05:31  5-MIN KAOH 081305Z AUTO 26009KT 10SM OVC015 24/21 A2986 1030 84 2300 270/09 RMK AO2 T02390211
04850KAOH AOH20160708081011207/08/16 08:10:31  5-MIN KAOH 081310Z AUTO 27011KT 10SM OVC015 23/21 A2986 1030 87 2300 280/11 RMK AO2 T02330211
04850KAOH AOH20160708081511207/08/16 08:15:31  5-MIN KAOH 081315Z AUTO 26010KT 10SM OVC015 23/21 A2987 1030 87 2300 270/10 RMK AO2 T02330211
04850KAOH AOH20160708082011207/08/16 08:20:31  5-MIN KAOH 081320Z AUTO 26009KT 10SM OVC015 24/21 A2987 1030 84 2300 270/09 RMK AO2 T02390211
04850KAOH AOH20160708082511207/08/16 08:25:31  5-MIN KAOH 081325Z AUTO 28010KT 10SM OVC015 24/21 A2987 1030 84 2300 290/10 RMK AO2 T02390211
04850KAOH AOH20160708083011207/08/16 08:30:31  5-MIN KAOH 081330Z AUTO 27008KT 10SM OVC015 24/21 A2986 1030 84 2300 270/08 RMK AO2 T02390211
04850KAOH AOH20160708083511207/08/16 08:35:31  5-MIN KAOH 081335Z AUTO 26011KT 10SM OVC015 24/21 A2987 1030 84 2300 270/11 RMK AO2 T02390211
04850KAOH AOH20160708084011207/08/16 08:40:31  5-MIN KAOH 081340Z AUTO 26010KT 10SM OVC015 24/21 A2987 1030 84 2300 270/10 RMK AO2 T02390211
04850KAOH AOH20160708084511207/08/16 08:45:31  5-MIN KAOH 081345Z AUTO 26011KT 10SM OVC015 24/21 A2987 1030 84 2300 270/11 RMK AO2 T02390211
04850KAOH AOH20160708085011907/08/16 08:50:31  5-MIN KAOH 081350Z AUTO 26009KT 10SM OVC016 24/21 A2987 1020 84 2300 270/09 RMK AO2 SLP106 T02390211
04850KAOH AOH20160708085511207/08/16 08:55:31  5-MIN KAOH 081355Z AUTO 26009KT 10SM OVC018 24/21 A2987 1020 84 2300 270/09 RMK AO2 T02390211
04850KAOH AOH20160708090011207/08/16 09:00:31  5-MIN KAOH 081400Z AUTO 26012KT 10SM OVC018 24/21 A2988 1020 84 2300 260/12 RMK AO2 T02390211
04850KAOH AOH20160708090511207/08/16 09:05:31  5-MIN KAOH 081405Z AUTO 26010KT 10SM OVC018 24/21 A2988 1020 84 2300 270/10 RMK AO2 T02390211
04850KAOH AOH20160708091011207/08/16 09:10:31  5-MIN KAOH 081410Z AUTO 27012KT 10SM OVC020 24/21 A2988 1020 84 2300 270/12 RMK AO2 T02390211
04850KAOH AOH20160708091511207/08/16 09:15:31  5-MIN KAOH 081415Z AUTO 27011KT 10SM OVC020 24/21 A2988 1020 84 2300 270/11 RMK AO2 T02390211
04850KAOH AOH20160708092011207/08/16 09:20:31  5-MIN KAOH 081420Z AUTO 26009KT 10SM OVC020 24/21 A2988 1020 84 2300 270/09 RMK AO2 T02390211
04850KAOH AOH20160708092511207/08/16 09:25:31  5-MIN KAOH 081425Z AUTO 26011KT 10SM OVC020 24/21 A2988 1010 84 2300 270/11 RMK AO2 T02390211
04850KAOH AOH20160708093011207/08/16 09:30:31  5-MIN KAOH 081430Z AUTO 25010KT 10SM OVC020 24/22 A2988 1010 87 2300 250/10 RMK AO2 T02390217
04850KAOH AOH20160708093511907/08/16 09:35:31  5-MIN KAOH 081435Z AUTO 27012KT 10SM FEW017 OVC024 24/21 A2988 1010 81 2400 270/12 RMK AO2 T02440211
04850KAOH AOH20160708094011907/08/16 09:40:31  5-MIN KAOH 081440Z AUTO 26012KT 10SM BKN022 OVC027 24/21 A2988 1010 81 2400 260/12 RMK AO2 T02440211
04850KAOH AOH20160708094511907/08/16 09:45:31  5-MIN KAOH 081445Z AUTO 25011KT 10SM FEW017 OVC024 24/21 A2988 1010 81 2400 260/11 RMK AO2 T02440211
04850KAOH AOH20160708095013207/08/16 09:50:31  5-MIN KAOH 081450Z AUTO 25010KT 10SM FEW017 OVC024 24/21 A2989 1010 81 2400 250/10 RMK AO2 SLP112 T02440211 51010
04850KAOH AOH20160708095511907/08/16 09:55:31  5-MIN KAOH 081455Z AUTO 24012KT 10SM FEW017 OVC025 25/22 A2989 1010 81 2400 250/12 RMK AO2 T02500217
04850KAOH AOH20160708100011907/08/16 10:00:31  5-MIN KAOH 081500Z AUTO 26010KT 10SM FEW017 OVC025 24/21 A2988 1010 81 2400 260/10 RMK AO2 T02440211
04850KAOH AOH20160708100511907/08/16 10:05:31  5-MIN KAOH 081505Z AUTO 27013KT 10SM FEW017 OVC025 25/21 A2988 1010 79 2400 270/13 RMK AO2 T02500211
04850KAOH AOH20160708101011907/08/16 10:10:31  5-MIN KAOH 081510Z AUTO 26012KT 10SM FEW017 BKN025 25/21 A2988 1010 79 2400 260/12 RMK AO2 T02500211
04850KAOH AOH20160708101511907/08/16 10:15:31  5-MIN KAOH 081515Z AUTO 26011KT 10SM FEW017 BKN024 26/22 A2988 1020 79 2500 270/11 RMK AO2 T02560217
04850KAOH AOH20160708102011207/08/16 10:20:31  5-MIN KAOH 081520Z AUTO 25009KT 10SM BKN024 26/21 A2988 1020 76 2500 260/09 RMK AO2 T02560211
04850KAOH AOH20160708102511207/08/16 10:25:31  5-MIN KAOH 081525Z AUTO 27008KT 10SM BKN022 26/22 A2987 1020 79 2500 280/08 RMK AO2 T02560217
04850KAOH AOH20160708103011207/08/16 10:30:31  5-MIN KAOH 081530Z AUTO 28008KT 10SM BKN022 26/21 A2987 1030 76 2500 290/08 RMK AO2 T02560211
04850KAOH AOH20160708103511207/08/16 10:35:31  5-MIN KAOH 081535Z AUTO 25009KT 10SM BKN022 26/22 A2987 1020 76 2600 260/09 RMK AO2 T02610217
04850KAOH AOH20160708104011207/08/16 10:40:31  5-MIN KAOH 081540Z AUTO 28007KT 10SM SCT020 26/22 A2987 1030 76 2600 280/07 RMK AO2 T02610217
04850KAOH AOH20160708104511207/08/16 10:45:31  5-MIN KAOH 081545Z AUTO 29008KT 10SM SCT020 26/22 A2987 1030 76 2600 300/08 RMK AO2 T02610217
04850KAOH AOH20160708105011907/08/16 10:50:31  5-MIN KAOH 081550Z AUTO 26011KT 10SM SCT020 26/22 A2987 1020 76 2600 270/11 RMK AO2 SLP106 T02610217
04850KAOH AOH20160708105512807/08/16 10:55:31  5-MIN KAOH 081555Z AUTO 27009KT 240V320 10SM SCT020 27/22 A2987 1020 73 2600 270/09 250V330 RMK AO2 T02670217
04850KAOH AOH20160708110011207/08/16 11:00:31  5-MIN KAOH 081600Z AUTO 29009KT 10SM SCT022 27/22 A2987 1020 73 2600 300/09 RMK AO2 T02670217
04850KAOH AOH20160708110511907/08/16 11:05:31  5-MIN KAOH 081605Z AUTO 27007KT 10SM BKN022 BKN028 26/22 A2987 1020 76 2600 280/07 RMK AO2 T02610217
04850KAOH AOH20160708111011907/08/16 11:10:31  5-MIN KAOH 081610Z AUTO 28009KT 10SM BKN022 BKN028 26/22 A2988 1020 76 2600 290/09 RMK AO2 T02610217
04850KAOH AOH20160708111511907/08/16 11:15:31  5-MIN KAOH 081615Z AUTO 30009KT 10SM SCT022 BKN028 26/22 A2988 1020 76 2600 310/09 RMK AO2 T02610217
04850KAOH AOH20160708112011907/08/16 11:20:31  5-MIN KAOH 081620Z AUTO 29008KT 10SM SCT022 SCT028 27/22 A2988 1020 73 2600 290/08 RMK AO2 T02670217
04850KAOH AOH20160708112511907/08/16 11:25:31  5-MIN KAOH 081625Z AUTO 29010KT 10SM FEW022 SCT028 27/22 A2987 1020 73 2600 300/10 RMK AO2 T02670217
04850KAOH AOH20160708113011207/08/16 11:30:31  5-MIN KAOH 081630Z AUTO 32009KT 10SM FEW023 27/21 A2987 1030 71 2600 320/09 RMK AO2 T02670211
04850KAOH AOH20160708113511207/08/16 11:35:31  5-MIN KAOH 081635Z AUTO 30005KT 10SM SCT023 27/21 A2987 1030 71 2600 310/05 RMK AO2 T02670211
04850KAOH AOH20160708114011207/08/16 11:40:31  5-MIN KAOH 081640Z AUTO 29006KT 10SM SCT023 27/22 A2987 1030 73 2600 300/06 RMK AO2 T02670217
04850KAOH AOH20160708114511207/08/16 11:45:31  5-MIN KAOH 081645Z AUTO 29005KT 10SM BKN023 27/22 A2986 1030 73 2600 290/05 RMK AO2 T02670217
04850KAOH AOH20160708115011907/08/16 11:50:31  5-MIN KAOH 081650Z AUTO 32008KT 10SM BKN023 27/22 A2986 1030 73 2600 320/08 RMK AO2 SLP105 T02670217
04850KAOH AOH20160708115511207/08/16 11:55:31  5-MIN KAOH 081655Z AUTO 28009KT 10SM SCT024 27/22 A2987 1030 71 2700 290/09 RMK AO2 T02720217
04850KAOH AOH20160708120011207/08/16 12:00:31  5-MIN KAOH 081700Z AUTO 28007KT 10SM BKN024 27/22 A2987 1030 71 2700 290/07 RMK AO2 T02720217
04850KAOH AOH20160708120511207/08/16 12:05:31  5-MIN KAOH 081705Z AUTO 30006KT 10SM BKN025 27/22 A2987 1030 71 2700 300/06 RMK AO2 T02720217
04850KAOH AOH20160708121011207/08/16 12:10:31  5-MIN KAOH 081710Z AUTO 29007KT 10SM SCT025 28/22 A2987 1020 69 2800 290/07 RMK AO2 T02780217
04850KAOH AOH20160708121511207/08/16 12:15:31  5-MIN KAOH 081715Z AUTO 28009KT 10SM FEW025 28/22 A2988 1020 71 2800 290/09 RMK AO2 T02780222
04850KAOH AOH20160708122011207/08/16 12:20:31  5-MIN KAOH 081720Z AUTO 26009KT 10SM FEW025 28/21 A2988 1020 66 2800 270/09 RMK AO2 T02780211
04850KAOH AOH20160708122511207/08/16 12:25:31  5-MIN KAOH 081725Z AUTO 31006KT 10SM SCT027 27/21 A2988 1020 69 2700 320/06 RMK AO2 T02720211
04850KAOH AOH20160708123011207/08/16 12:30:31  5-MIN KAOH 081730Z AUTO 24008KT 10SM SCT027 28/22 A2988 1020 66 2800 240/08 RMK AO2 T02830217
04850KAOH AOH20160708123511807/08/16 12:35:31  5-MIN KAOH 081735Z AUTO VRB06G16KT 10SM SCT027 28/22 A2988 1020 69 2800 VRB/06G16 RMK AO2 T02830222
04850KAOH AOH20160708124011807/08/16 12:40:31  5-MIN KAOH 081740Z AUTO 22009G16KT 10SM SCT029 28/22 A2988 1020 66 2800 230/09G16 RMK AO2 T02830217
04850KAOH AOH20160708124511207/08/16 12:45:31  5-MIN KAOH 081745Z AUTO 24009KT 10SM SCT029 28/21 A2988 1020 66 2800 240/09 RMK AO2 T02780211
04850KAOH AOH20160708125013707/08/16 12:50:31  5-MIN KAOH 081750Z AUTO 24005KT 10SM SCT029 28/22 A2988 1020 69 2800 250/05 RMK AO2 SLP108 T02780217 10283 20228 53013
04850KAOH AOH20160708125511207/08/16 12:55:31  5-MIN KAOH 081755Z AUTO 27007KT 10SM BKN029 28/21 A2988 1010 66 2800 280/07 RMK AO2 T02780211
04850KAOH AOH20160708130013507/08/16 13:00:31  5-MIN KAOH 081800Z AUTO 25007KT 210V280 10SM BKN029 BKN035 27/22 A2988 1020 71 2700 250/07 220V290 RMK AO2 T02720217
04850KAOH AOH20160708130511207/08/16 13:05:31  5-MIN KAOH 081805Z AUTO 24008KT 10SM BKN031 28/22 A2988 1020 69 2800 250/08 RMK AO2 T02780217
04850KAOH AOH20160708131011907/08/16 13:10:31  5-MIN KAOH 081810Z AUTO 25007KT 10SM BKN031 BKN039 28/22 A2988 1020 69 2800 260/07 RMK AO2 T02780217
04850KAOH AOH20160708131511907/08/16 13:15:31  5-MIN KAOH 081815Z AUTO 24011KT 10SM SCT030 BKN038 28/22 A2988 1020 66 2800 250/11 RMK AO2 T02830217
04850KAOH AOH20160708132011907/08/16 13:20:31  5-MIN KAOH 081820Z AUTO 24007KT 10SM SCT032 BKN041 28/22 A2987 1020 69 2800 250/07 RMK AO2 T02780217
04850KAOH AOH20160708132511907/08/16 13:25:31  5-MIN KAOH 081825Z AUTO 21009KT 10SM BKN032 BKN041 28/21 A2987 1030 66 2800 220/09 RMK AO2 T02780211
04850KAOH AOH20160708133011207/08/16 13:30:31  5-MIN KAOH 081830Z AUTO 23010KT 10SM BKN035 29/22 A2986 1030 64 2900 230/10 RMK AO2 T02890217
04850KAOH AOH20160708133511907/08/16 13:35:31  5-MIN KAOH 081835Z AUTO 24008KT 10SM SCT033 SCT041 29/22 A2986 1030 64 2900 240/08 RMK AO2 T02890217
04850KAOH AOH20160708134011907/08/16 13:40:31  5-MIN KAOH 081840Z AUTO 24008KT 10SM FEW033 SCT041 29/22 A2986 1030 64 2900 250/08 RMK AO2 T02890217
04850KAOH AOH20160708134511207/08/16 13:45:31  5-MIN KAOH 081845Z AUTO 24005KT 10SM SCT033 28/21 A2986 1030 64 2800 240/05 RMK AO2 T02830211
04850KAOH AOH20160708135012607/08/16 13:50:31  5-MIN KAOH 081850Z AUTO 24007KT 10SM SCT033 BKN046 28/22 A2986 1040 66 2800 250/07 RMK AO2 SLP101 T02830217
04850KAOH AOH20160708135511907/08/16 13:55:31  5-MIN KAOH 081855Z AUTO 20008KT 10SM FEW033 SCT046 29/22 A2986 1040 64 2900 210/08 RMK AO2 T02890217
04850KAOH AOH20160708140011907/08/16 14:00:31  5-MIN KAOH 081900Z AUTO 26009KT 10SM FEW035 SCT046 29/22 A2985 1040 64 2900 260/09 RMK AO2 T02890217
04850KAOH AOH20160708140511907/08/16 14:05:31  5-MIN KAOH 081905Z AUTO 24009KT 10SM FEW035 SCT046 29/22 A2985 1040 64 2900 250/09 RMK AO2 T02890217
04850KAOH AOH20160708141011907/08/16 14:10:31  5-MIN KAOH 081910Z AUTO 26008KT 10SM FEW034 SCT044 29/22 A2984 1050 64 2900 270/08 RMK AO2 T02890217
04850KAOH AOH20160708141511907/08/16 14:15:31  5-MIN KAOH 081915Z AUTO 23006KT 10SM FEW034 SCT044 29/22 A2984 1050 64 2900 240/06 RMK AO2 T02890217
04850KAOH AOH20160708142011207/08/16 14:20:31  5-MIN KAOH 081920Z AUTO 25010KT 10SM FEW044 29/22 A2984 1050 62 3000 250/10 RMK AO2 T02940217
04850KAOH AOH20160708142511207/08/16 14:25:31  5-MIN KAOH 081925Z AUTO 25009KT 10SM SCT041 29/21 A2984 1060 62 2900 250/09 RMK AO2 T02890211
04850KAOH AOH20160708143012807/08/16 14:30:31  5-MIN KAOH 081930Z AUTO 24008KT 220V280 10SM FEW041 29/22 A2983 1060 62 3000 250/08 230V290 RMK AO2 T02940217
04850KAOH AOH20160708143511207/08/16 14:35:31  5-MIN KAOH 081935Z AUTO 26010KT 10SM FEW040 30/21 A2983 1060 58 3100 270/10 RMK AO2 T03000211
04850KAOH AOH20160708144011207/08/16 14:40:31  5-MIN KAOH 081940Z AUTO 27008KT 10SM FEW040 29/21 A2983 1060 60 3000 270/08 RMK AO2 T02940211
04850KAOH AOH20160708144511207/08/16 14:45:31  5-MIN KAOH 081945Z AUTO 25008KT 10SM SCT038 29/22 A2983 1070 62 3000 250/08 RMK AO2 T02940217
04850KAOH AOH20160708145012507/08/16 14:50:31  5-MIN KAOH 081950Z AUTO 27010G14KT 10SM SCT038 29/21 A2982 1070 60 3000 270/10G14 RMK AO2 SLP089 T02940211
04850KAOH AOH20160708145511807/08/16 14:55:31  5-MIN KAOH 081955Z AUTO 27010G14KT 10SM FEW038 30/21 A2982 1070 58 3100 270/10G14 RMK AO2 T03000211
04850KAOH AOH20160708150011207/08/16 15:00:31  5-MIN KAOH 082000Z AUTO 23010KT 10SM FEW038 30/21 A2982 1070 58 3100 240/10 RMK AO2 T03000211
04850KAOH AOH20160708150511207/08/16 15:05:31  5-MIN KAOH 082005Z AUTO 25011KT 10SM SCT040 30/21 A2982 1070 58 3100 260/11 RMK AO2 T03000211
04850KAOH AOH20160708151011207/08/16 15:10:31  5-MIN KAOH 082010Z AUTO 24010KT 10SM SCT040 30/22 A2981 1080 60 3100 250/10 RMK AO2 T03000217
04850KAOH AOH20160708151511207/08/16 15:15:31  5-MIN KAOH 082015Z AUTO 25010KT 10SM SCT040 29/21 A2981 1080 60 3000 250/10 RMK AO2 T02940211
04850KAOH AOH20160708152011207/08/16 15:20:31  5-MIN KAOH 082020Z AUTO 25011KT 10SM SCT040 29/21 A2981 1080 60 3000 250/11 RMK AO2 T02940211
04850KAOH AOH20160708152511207/08/16 15:25:31  5-MIN KAOH 082025Z AUTO 25010KT 10SM SCT040 30/21 A2981 1080 58 3100 260/10 RMK AO2 T03000211
04850KAOH AOH20160708153011907/08/16 15:30:31  5-MIN KAOH 082030Z AUTO 26013KT 10SM SCT042 BKN050 29/21 A2981 1080 58 3000 260/13 RMK AO2 T02940206
04850KAOH AOH20160708153511907/08/16 15:35:31  5-MIN KAOH 082035Z AUTO 25014KT 10SM SCT042 BKN050 29/21 A2981 1080 60 3000 260/14 RMK AO2 T02940211
04850KAOH AOH20160708154011907/08/16 15:40:31  5-MIN KAOH 082040Z AUTO 25011KT 10SM BKN042 BKN050 29/21 A2981 1080 58 3000 260/11 RMK AO2 T02940206
04850KAOH AOH20160708154511907/08/16 15:45:31  5-MIN KAOH 082045Z AUTO 25011KT 10SM BKN042 BKN050 29/21 A2981 1080 58 3000 250/11 RMK AO2 T02940206
04850KAOH AOH20160708155013207/08/16 15:50:31  5-MIN KAOH 082050Z AUTO 26013KT 10SM SCT043 BKN050 29/21 A2981 1080 58 3000 270/13 RMK AO2 SLP085 T02940206 53003
04850KAOH AOH20160708155511907/08/16 15:55:31  5-MIN KAOH 082055Z AUTO 28010KT 10SM BKN045 BKN055 29/21 A2981 1080 58 3000 290/10 RMK AO2 T02940206
04850KAOH AOH20160708160011907/08/16 16:00:31  5-MIN KAOH 082100Z AUTO 25011KT 10SM BKN045 BKN055 29/21 A2981 1080 58 3000 260/11 RMK AO2 T02940206
04850KAOH AOH20160708160511907/08/16 16:05:31  5-MIN KAOH 082105Z AUTO 26013KT 10SM BKN045 BKN055 29/21 A2981 1080 58 3000 260/13 RMK AO2 T02940206
04850KAOH AOH20160708161011907/08/16 16:10:31  5-MIN KAOH 082110Z AUTO 27011KT 10SM SCT045 BKN055 29/21 A2981 1080 60 3000 280/11 RMK AO2 T02890206
04850KAOH AOH20160708161511907/08/16 16:15:31  5-MIN KAOH 082115Z AUTO 27009KT 10SM BKN047 BKN055 30/21 A2981 1080 58 3100 280/09 RMK AO2 T03000211
04850KAOH AOH20160708162012507/08/16 16:20:31  5-MIN KAOH 082120Z AUTO 28012G18KT 10SM BKN047 BKN055 29/21 A2981 1080 58 3000 280/12G18 RMK AO2 T02940206
04850KAOH AOH20160708162512507/08/16 16:25:31  5-MIN KAOH 082125Z AUTO 26011G18KT 10SM BKN047 BKN055 29/21 A2981 1080 58 3000 270/11G18 RMK AO2 T02940206
04850KAOH AOH20160708163011907/08/16 16:30:31  5-MIN KAOH 082130Z AUTO 27010KT 10SM BKN045 BKN055 29/21 A2981 1080 60 3000 270/10 RMK AO2 T02940211
04850KAOH AOH20160708163511907/08/16 16:35:31  5-MIN KAOH 082135Z AUTO 27010KT 10SM SCT045 BKN055 29/21 A2981 1080 58 3000 270/10 RMK AO2 T02940206
04850KAOH AOH20160708164011907/08/16 16:40:31  5-MIN KAOH 082140Z AUTO 26009KT 10SM SCT047 BKN065 29/21 A2981 1080 60 3000 260/09 RMK AO2 T02940211
04850KAOH AOH20160708164511907/08/16 16:45:31  5-MIN KAOH 082145Z AUTO 26012KT 10SM SCT047 BKN060 30/21 A2981 1080 58 3100 270/12 RMK AO2 T03000211
04850KAOH AOH20160708165012607/08/16 16:50:31  5-MIN KAOH 082150Z AUTO 25010KT 10SM FEW047 SCT060 30/21 A2981 1080 58 3100 260/10 RMK AO2 SLP086 T03000211
04850KAOH AOH20160708165511907/08/16 16:55:31  5-MIN KAOH 082155Z AUTO 27011KT 10SM FEW047 FEW060 30/21 A2981 1080 58 3100 280/11 RMK AO2 T03000211
04850KAOH AOH20160708170011907/08/16 17:00:31  5-MIN KAOH 082200Z AUTO 26011KT 10SM FEW049 FEW060 30/21 A2981 1080 58 3100 260/11 RMK AO2 T03000211
04850KAOH AOH20160708170511207/08/16 17:05:31  5-MIN KAOH 082205Z AUTO 26008KT 10SM FEW060 29/21 A2981 1080 60 3000 270/08 RMK AO2 T02940211
04850KAOH AOH20160708171011207/08/16 17:10:31  5-MIN KAOH 082210Z AUTO 26011KT 10SM FEW060 29/21 A2981 1080 60 3000 270/11 RMK AO2 T02940211
04850KAOH AOH20160708171511207/08/16 17:15:31  5-MIN KAOH 082215Z AUTO 24010KT 10SM FEW070 30/21 A2980 1090 58 3100 250/10 RMK AO2 T03000211
04850KAOH AOH20160708172011207/08/16 17:20:31  5-MIN KAOH 082220Z AUTO 26011KT 10SM FEW070 30/22 A2980 1090 62 3100 270/11 RMK AO2 T03000222
04850KAOH AOH20160708172511207/08/16 17:25:31  5-MIN KAOH 082225Z AUTO 26013KT 10SM FEW070 30/22 A2980 1090 60 3100 270/13 RMK AO2 T03000217
04850KAOH AOH20160708173011907/08/16 17:30:31  5-MIN KAOH 082230Z AUTO 23011KT 10SM FEW040 SCT070 30/22 A2980 1090 60 3100 240/11 RMK AO2 T03000217
04850KAOH AOH20160708173511907/08/16 17:35:31  5-MIN KAOH 082235Z AUTO 23011KT 10SM FEW040 SCT070 29/21 A2980 1090 60 3000 240/11 RMK AO2 T02940211
04850KAOH AOH20160708174011907/08/16 17:40:31  5-MIN KAOH 082240Z AUTO 25012KT 10SM FEW040 FEW070 29/22 A2980 1090 62 3000 260/12 RMK AO2 T02940217
04850KAOH AOH20160708174511207/08/16 17:45:31  5-MIN KAOH 082245Z AUTO 24013KT 10SM FEW041 29/22 A2980 1090 62 3000 240/13 RMK AO2 T02940217
04850KAOH AOH20160708175011907/08/16 17:50:31  5-MIN KAOH 082250Z AUTO 25013KT 10SM FEW041 29/22 A2980 1090 62 3000 250/13 RMK AO2 SLP081 T02940217
04850KAOH AOH20160708175511207/08/16 17:55:31  5-MIN KAOH 082255Z AUTO 25011KT 10SM FEW041 29/21 A2980 1090 60 3000 260/11 RMK AO2 T02940211
04850KAOH AOH20160708180011207/08/16 18:00:31  5-MIN KAOH 082300Z AUTO 22010KT 10SM FEW041 29/22 A2980 1090 62 3000 230/10 RMK AO2 T02940217
04850KAOH AOH20160708180511207/08/16 18:05:31  5-MIN KAOH 082305Z AUTO 24014KT 10SM SCT040 29/21 A2980 1090 62 3000 240/14 RMK AO2 T02890211
04850KAOH AOH20160708181011207/08/16 18:10:31  5-MIN KAOH 082310Z AUTO 24012KT 10SM FEW040 29/21 A2980 1090 60 3000 240/12 RMK AO2 T02940211
04850KAOH AOH20160708181511907/08/16 18:15:31  5-MIN KAOH 082315Z AUTO 24012KT 10SM FEW040 SCT055 29/21 A2980 1090 60 3000 240/12 RMK AO2 T02940211
04850KAOH AOH20160708182011907/08/16 18:20:31  5-MIN KAOH 082320Z AUTO 25014KT 10SM FEW041 SCT055 29/21 A2980 1090 60 3000 260/14 RMK AO2 T02890206
04850KAOH AOH20160708182511907/08/16 18:25:31  5-MIN KAOH 082325Z AUTO 25013KT 10SM SCT042 SCT060 29/21 A2979 1090 60 3000 260/13 RMK AO2 T02940211
04850KAOH AOH20160708183011907/08/16 18:30:31  5-MIN KAOH 082330Z AUTO 23014KT 10SM SCT044 SCT055 29/21 A2979 1100 58 3000 240/14 RMK AO2 T02940206
04850KAOH AOH20160708183511207/08/16 18:35:31  5-MIN KAOH 082335Z AUTO 24011KT 10SM BKN046 29/21 A2980 1090 58 3000 240/11 RMK AO2 T02940206
04850KAOH AOH20160708184011207/08/16 18:40:31  5-MIN KAOH 082340Z AUTO 24011KT 10SM SCT046 29/21 A2980 1090 60 3000 250/11 RMK AO2 T02890206
04850KAOH AOH20160708184511207/08/16 18:45:31  5-MIN KAOH 082345Z AUTO 24011KT 10SM SCT046 29/21 A2980 1090 62 3000 250/11 RMK AO2 T02890211
04850KAOH AOH20160708185013707/08/16 18:50:31  5-MIN KAOH 082350Z AUTO 25011KT 10SM FEW046 28/21 A2980 1090 62 2900 250/11 RMK AO2 SLP082 T02830206 10300 20272 56023
04850KAOH AOH20160708185511207/08/16 18:55:31  5-MIN KAOH 082355Z AUTO 25012KT 10SM FEW046 29/21 A2980 1090 60 3000 260/12 RMK AO2 T02890206
04850KAOH AOH20160708190011207/08/16 19:00:31  5-MIN KAOH 090000Z AUTO 24013KT 10SM FEW046 28/21 A2979 1090 62 2900 250/13 RMK AO2 T02830206
04850KAOH AOH20160708190510907/08/16 19:05:31  5-MIN KAOH 090005Z AUTO 24011KT 10SM CLR 28/21 A2979 1100 62 2900 250/11 RMK AO2 T02830206
04850KAOH AOH20160708191010907/08/16 19:10:31  5-MIN KAOH 090010Z AUTO 24011KT 10SM CLR 28/21 A2980 1090 62 2900 250/11 RMK AO2 T02830206
04850KAOH AOH20160708191510907/08/16 19:15:31  5-MIN KAOH 090015Z AUTO 25010KT 10SM CLR 28/21 A2980 1090 62 2900 260/10 RMK AO2 T02830206
04850KAOH AOH20160708192010907/08/16 19:20:31  5-MIN KAOH 090020Z AUTO 25010KT 10SM CLR 28/21 A2980 1090 64 2800 250/10 RMK AO2 T02780206
04850KAOH AOH20160708192512107/08/16 19:25:31  5-MIN KAOH 090025Z AUTO 25011KT 10SM CLR 28/21 A2980 1090 64 2800 250/11 RMK AO2 LTG DSNT NW T02780206
04850KAOH AOH20160708193012107/08/16 19:30:31  5-MIN KAOH 090030Z AUTO 25014KT 10SM CLR 28/21 A2980 1090 62 2900 260/14 RMK AO2 LTG DSNT NW T02830206
04850KAOH AOH20160708193512107/08/16 19:35:31  5-MIN KAOH 090035Z AUTO 25011KT 10SM CLR 28/20 A2980 1090 62 2800 260/11 RMK AO2 LTG DSNT NW T02780200
04850KAOH AOH20160708194012707/08/16 19:40:31  5-MIN KAOH 090040Z AUTO 25010KT 10SM CLR 28/20 A2981 1080 62 2800 260/10 RMK AO2 LTG DSNT N AND NW T02780200
04850KAOH AOH20160708194512707/08/16 19:45:31  5-MIN KAOH 090045Z AUTO 25009KT 10SM CLR 27/20 A2981 1080 64 2800 250/09 RMK AO2 LTG DSNT N AND NW T02720200
04850KAOH AOH20160708195013407/08/16 19:50:31  5-MIN KAOH 090050Z AUTO 25008KT 10SM CLR 27/20 A2981 1080 64 2800 250/08 RMK AO2 LTG DSNT N AND NW SLP087 T02720200
04850KAOH AOH20160708195512707/08/16 19:55:31  5-MIN KAOH 090055Z AUTO 24009KT 10SM CLR 27/20 A2981 1080 64 2800 250/09 RMK AO2 LTG DSNT N AND NW T02720200
04850KAOH AOH20160708200012707/08/16 20:00:31  5-MIN KAOH 090100Z AUTO 24009KT 10SM CLR 27/20 A2981 1080 64 2800 250/09 RMK AO2 LTG DSNT N AND NW T02720200
04850KAOH AOH20160708200512407/08/16 20:05:31  5-MIN KAOH 090105Z AUTO 25009KT 10SM CLR 26/20 A2982 1070 68 2600 250/09 RMK AO2 LTG DSNT NW-NE T02610200
04850KAOH AOH20160708201012707/08/16 20:10:31  5-MIN KAOH 090110Z AUTO 25008KT 10SM FEW048 27/20 A2982 1070 64 2800 260/08 RMK AO2 LTG DSNT NW-NE T02720200
04850KAOH AOH20160708201512707/08/16 20:15:31  5-MIN KAOH 090115Z AUTO 24007KT 10SM FEW048 27/20 A2982 1070 66 2700 250/07 RMK AO2 LTG DSNT NW-NE T02670200
04850KAOH AOH20160708202013107/08/16 20:20:31  5-MIN KAOH 090120Z AUTO 24008KT 10SM FEW048 SCT060 27/20 A2982 1070 64 2800 250/08 RMK AO2 LTG DSNT NW T02720200
04850KAOH AOH20160708202512407/08/16 20:25:31  5-MIN KAOH 090125Z AUTO 24010KT 10SM SCT050 27/20 A2982 1070 64 2800 240/10 RMK AO2 LTG DSNT NW T02720200
04850KAOH AOH20160708203013007/08/16 20:30:31  5-MIN KAOH 090130Z AUTO 24010KT 10SM SCT050 27/20 A2982 1070 64 2800 240/10 RMK AO2 LTG DSNT N AND NW T02720200
04850KAOH AOH20160708203514807/08/16 20:35:31  5-MIN KAOH 090135Z AUTO 24010KT 10SM VCTS FEW047 BKN055 BKN070 27/20 A2982 1070 64 2800 240/10 RMK AO2 LTG DSNT N AND W T02720200
04850KAOH AOH20160708204016107/08/16 20:40:31  5-MIN KAOH 090140Z AUTO 32017G21KT 10SM VCTS FEW045 BKN055 BKN070 27/20 A2984 1050 66 2700 330/17G21 RMK AO2 LTG DSNT N AND W PRESRR T02670200
04850KAOH AOH20160708204518907/08/16 20:45:31  5-MIN KAOH 090145Z AUTO 32021G34KT 10SM VCTS -RA FEW026 SCT045 BKN055 25/19 A2985 1040 71 2500 330/21G34 RMK AO2 PK WND 31034/0144 LTG DSNT W RAB45 PRESRR P0000 T02500194
04850KAOH AOH20160708205017607/08/16 20:50:31  5-MIN KAOH 090150Z AUTO 33019G34KT 10SM -TSRA FEW023 BKN040 BKN055 22/20 A2986 1040 87 2200 330/19G34 RMK AO2 PK WND 31034/0144 LTG DSNT NE RAB45 TSB47 P0000
04850KAOH AOH20160708205517507/08/16 20:55:31  5-MIN KAOH 090155Z AUTO 34017G29KT 6SM TSRA BR FEW022 BKN042 OVC055 21/19 A2986 1030 90 2000 340/17G29 RMK AO2 WSHFT 0140 LTG DSNT NE PRESRR P0006 T02110194
04850KAOH AOH20160708210018007/08/16 21:00:31  5-MIN KAOH 090200Z AUTO 31019G25KT 1 1/4SM +TSRA BR SCT011 BKN032 OVC055 21/21 A2987 1020 97 2000 320/19G25 RMK AO2 WSHFT 0140 LTG DSNT NE PRESRR P0037 T02110206
04850KAOH AOH20160708210516807/08/16 21:05:31  5-MIN KAOH 090205Z AUTO 27013G25KT 1SM +TSRA BR BKN014 BKN025 OVC040 21/21 A2987 1020 97 2000 270/13G25 RMK AO2 WSHFT 0140 LTG DSNT E P0053 T02110206
04850KAOH AOH20160708211016607/08/16 21:10:31  5-MIN KAOH 090210Z AUTO 25010KT 1 1/2SM TSRA BR SCT016 BKN027 OVC048 21/21 A2988 1020 100 2000 260/10 RMK AO2 WSHFT 0140 LTG DSNT E P0055 T02110211
04850KAOH AOH20160708211517707/08/16 21:15:31  5-MIN KAOH 090215Z AUTO 29007KT 1 3/4SM +TSRA BR SCT018 BKN035 OVC043 21/21 A2988 1020 100 2000 300/07 RMK AO2 WSHFT 0140 VIS 3/4V5 LTG DSNT E P0067 T02110211
04850KAOH AOH20160708212017707/08/16 21:20:31  5-MIN KAOH 090220Z AUTO 30008KT 1 3/4SM +TSRA BR SCT018 BKN037 OVC045 22/22 A2988 1010 100 2100 310/08 RMK AO2 WSHFT 0140 VIS 3/4V5 LTG DSNT E P0071 T02170217
04850KAOH AOH20160708212518107/08/16 21:25:31  5-MIN KAOH 090225Z AUTO 28014G22KT 2 1/2SM VCTS +RA BR SCT022 BKN037 OVC045 22/21 A2988 1010 97 2100 280/14G22 RMK AO2 WSHFT 0140 LTG DSNT E TSE25 P0077 T02170211
04850KAOH AOH20160708213018107/08/16 21:30:31  5-MIN KAOH 090230Z AUTO 29009G22KT 2 1/2SM VCTS +RA BR SCT027 BKN045 OVC070 22/21 A2988 1020 93 2100 290/09G22 RMK AO2 WSHFT 0140 LTG DSNT E TSE25 P0080 T02170206
04850KAOH AOH20160708213517807/08/16 21:35:31  5-MIN KAOH 090235Z AUTO 29006KT 5SM VCTS -RA BR FEW031 BKN045 OVC085 22/21 A2987 1020 93 2100 300/06 RMK AO2 WSHFT 0140 LTG DSNT E AND SE TSE25 P0080 T02170206
04850KAOH AOH20160708214017107/08/16 21:40:31  5-MIN KAOH 090240Z AUTO 30006KT 10SM -RA FEW031 BKN060 OVC085 22/21 A2987 1020 93 2100 310/06 RMK AO2 WSHFT 0140 LTG DSNT E AND SE TSE25 P0080 T02170206
04850KAOH AOH20160708214517307/08/16 21:45:31  5-MIN KAOH 090245Z AUTO 30006KT 10SM FEW041 SCT060 BKN075 22/21 A2988 1020 93 2100 310/06 RMK AO2 WSHFT 0140 LTG DSNT E AND SE RAE45 TSE25 P0080 T02170206
04850KAOH AOH20160708215019207/08/16 21:50:31  5-MIN KAOH 090250Z AUTO 29005KT 10SM FEW039 BKN075 BKN090 22/21 A2988 1020 93 2100 290/05 RMK AO2 WSHFT 0140 LTG DSNT E AND SE RAE45 TSE25 SLP110 P0080 60082 T02170206 58004
04850KAOH AOH20160708215513807/08/16 21:55:31  5-MIN KAOH 090255Z AUTO 26003KT 10SM FEW060 SCT075 SCT090 21/21 A2988 1020 97 2000 270/03 RMK AO2 LTG DSNT SE T02110206
04850KAOH AOH20160708220014407/08/16 22:00:31  5-MIN KAOH 090300Z AUTO 00000KT 10SM FEW060 FEW075 SCT090 22/21 A2988 1020 93 2100 000/00 RMK AO2 LTG DSNT SE AND S T02170206
04850KAOH AOH20160708220512307/08/16 22:05:31  5-MIN KAOH 090305Z AUTO 26003KT 10SM FEW080 22/21 A2988 1020 93 2100 260/03 RMK AO2 LTG DSNT S T02170206
04850KAOH AOH20160708221012007/08/16 22:10:31  5-MIN KAOH 090310Z AUTO 22004KT 10SM CLR 22/20 A2988 1020 90 2100 230/04 RMK AO2 LTG DSNT S T02170200
04850KAOH AOH20160708221510907/08/16 22:15:31  5-MIN KAOH 090315Z AUTO VRB03KT 10SM CLR 21/20 A2988 1020 93 2000 VRB/03 RMK AO2 T02110200
04850KAOH AOH20160708222010907/08/16 22:20:31  5-MIN KAOH 090320Z AUTO 28003KT 10SM CLR 22/20 A2988 1020 90 2100 290/03 RMK AO2 T02170200
04850KAOH AOH20160708222510907/08/16 22:25:31  5-MIN KAOH 090325Z AUTO 27003KT 10SM CLR 22/20 A2987 1020 90 2100 270/03 RMK AO2 T02170200
04850KAOH AOH20160708223010907/08/16 22:30:31  5-MIN KAOH 090330Z AUTO 00000KT 10SM CLR 22/20 A2987 1030 90 2100 000/00 RMK AO2 T02170200
04850KAOH AOH20160708223510907/08/16 22:35:31  5-MIN KAOH 090335Z AUTO 00000KT 10SM CLR 21/20 A2987 1030 93 2000 000/00 RMK AO2 T02110200
04850KAOH AOH20160708224010907/08/16 22:40:31  5-MIN KAOH 090340Z AUTO 00000KT 10SM CLR 21/20 A2986 1030 93 2000 000/00 RMK AO2 T02110200
04850KAOH AOH20160708224510907/08/16 22:45:31  5-MIN KAOH 090345Z AUTO 00000KT 10SM CLR 21/20 A2986 1030 93 2000 000/00 RMK AO2 T02110200
04850KAOH AOH20160708225011607/08/16 22:50:31  5-MIN KAOH 090350Z AUTO 00000KT 10SM CLR 21/20 A2986 1030 93 2000 000/00 RMK AO2 SLP104 T02110200
04850KAOH AOH20160708225510907/08/16 22:55:31  5-MIN KAOH 090355Z AUTO 00000KT 10SM CLR 21/20 A2986 1030 97 2000 000/00 RMK AO2 T02060200
04850KAOH AOH20160708230010907/08/16 23:00:31  5-MIN KAOH 090400Z AUTO 24003KT 10SM CLR 21/20 A2986 1030 97 2000 240/03 RMK AO2 T02060200
04850KAOH AOH20160708230510907/08/16 23:05:31  5-MIN KAOH 090405Z AUTO 23004KT 10SM CLR 21/20 A2986 1030 97 2000 240/04 RMK AO2 T02060200
04850KAOH AOH20160708231010907/08/16 23:10:31  5-MIN KAOH 090410Z AUTO 22004KT 10SM CLR 21/20 A2986 1030 97 2000 220/04 RMK AO2 T02060200
04850KAOH AOH20160708231510907/08/16 23:15:31  5-MIN KAOH 090415Z AUTO 22004KT 10SM CLR 21/20 A2986 1030 93 2000 220/04 RMK AO2 T02110200
04850KAOH AOH20160708232010907/08/16 23:20:31  5-MIN KAOH 090420Z AUTO 22004KT 10SM CLR 21/20 A2986 1030 93 2000 220/04 RMK AO2 T02110200
04850KAOH AOH20160708232510907/08/16 23:25:31  5-MIN KAOH 090425Z AUTO 22004KT 10SM CLR 21/20 A2986 1030 93 2000 220/04 RMK AO2 T02110200
04850KAOH AOH20160708233010907/08/16 23:30:31  5-MIN KAOH 090430Z AUTO 21005KT 10SM CLR 21/20 A2986 1030 93 2000 220/05 RMK AO2 T02110200
04850KAOH AOH20160708233510907/08/16 23:35:31  5-MIN KAOH 090435Z AUTO 21006KT 10SM CLR 21/19 A2986 1030 90 2000 210/06 RMK AO2 T02110194
04850KAOH AOH20160708234010907/08/16 23:40:31  5-MIN KAOH 090440Z AUTO 21005KT 10SM CLR 21/19 A2986 1030 93 2000 220/05 RMK AO2 T02060194
04850KAOH AOH20160708234510907/08/16 23:45:31  5-MIN KAOH 090445Z AUTO 22006KT 10SM CLR 21/19 A2986 1040 93 2000 220/06 RMK AO2 T02060194
04850KAOH AOH20160708235012607/08/16 23:50:31  5-MIN KAOH 090450Z AUTO 22006KT 10SM CLR 21/19 A2986 1030 93 2000 230/06 RMK AO2 SLP104 T02060194 403000206
04850KAOH AOH20160708235510907/08/16 23:55:31  5-MIN KAOH 090455Z AUTO 23007KT 10SM CLR 21/20 A2986 1030 97 2000 230/07 RMK AO2 T02060200
04850KAOH AOH20160709000010907/09/16 00:00:31  5-MIN KAOH 090500Z AUTO 24006KT 10SM CLR 21/19 A2986 1040 93 2000 240/06 RMK AO2 T02060194
04850KAOH AOH20160709000510907/09/16 00:05:31  5-MIN KAOH 090505Z AUTO 24007KT 10SM CLR 21/19 A2985 1040 90 2000 250/07 RMK AO2 T02110194
04850KAOH AOH20160709001010907/09/16 00:10:31  5-MIN KAOH 090510Z AUTO 24007KT 10SM CLR 21/19 A2985 1040 90 2000 250/07 RMK AO2 T02110194
04850KAOH AOH20160709001510907/09/16 00:15:31  5-MIN KAOH 090515Z AUTO 25006KT 10SM CLR 21/19 A2984 1050 93 2000 260/06 RMK AO2 T02060194
04850KAOH AOH20160709002010907/09/16 00:20:31  5-MIN KAOH 090520Z AUTO 25006KT 10SM CLR 21/19 A2984 1050 93 2000 250/06 RMK AO2 T02060194
04850KAOH AOH20160709002510907/09/16 00:25:31  5-MIN KAOH 090525Z AUTO 24006KT 10SM CLR 21/19 A2985 1050 93 2000 250/06 RMK AO2 T02060194
04850KAOH AOH20160709003010907/09/16 00:30:31  5-MIN KAOH 090530Z AUTO 24006KT 10SM CLR 21/19 A2984 1050 90 2000 240/06 RMK AO2 T02060189
04850KAOH AOH20160709003510907/09/16 00:35:31  5-MIN KAOH 090535Z AUTO 25006KT 10SM CLR 21/19 A2984 1050 90 2000 250/06 RMK AO2 T02060189
04850KAOH AOH20160709004010907/09/16 00:40:31  5-MIN KAOH 090540Z AUTO 24007KT 10SM CLR 21/19 A2984 1050 87 2000 250/07 RMK AO2 T02110189
04850KAOH AOH20160709004510907/09/16 00:45:31  5-MIN KAOH 090545Z AUTO 24006KT 10SM CLR 21/19 A2984 1050 87 2000 240/06 RMK AO2 T02110189
04850KAOH AOH20160709005014007/09/16 00:50:31  5-MIN KAOH 090550Z AUTO 24007KT 10SM CLR 21/18 A2985 1050 87 2000 240/07 RMK AO2 SLP098 60082 T02060183 10289 20206 53026
04850KAOH AOH20160709005510907/09/16 00:55:31  5-MIN KAOH 090555Z AUTO 24007KT 10SM CLR 21/18 A2984 1050 87 2000 240/07 RMK AO2 T02060183
04850KAOH AOH20160709010010907/09/16 01:00:31  5-MIN KAOH 090600Z AUTO 24007KT 10SM CLR 21/18 A2984 1050 87 2000 250/07 RMK AO2 T02060183
04850KAOH AOH20160709010510907/09/16 01:05:31  5-MIN KAOH 090605Z AUTO 25007KT 10SM CLR 21/18 A2984 1050 87 2000 250/07 RMK AO2 T02060183
04850KAOH AOH20160709011010907/09/16 01:10:31  5-MIN KAOH 090610Z AUTO 25008KT 10SM CLR 21/18 A2985 1040 87 2000 250/08 RMK AO2 T02060183
04850KAOH AOH20160709011510907/09/16 01:15:31  5-MIN KAOH 090615Z AUTO 25008KT 10SM CLR 21/18 A2985 1040 84 2000 250/08 RMK AO2 T02060178
04850KAOH AOH20160709012010907/09/16 01:20:31  5-MIN KAOH 090620Z AUTO 25008KT 10SM CLR 21/18 A2985 1040 84 2000 250/08 RMK AO2 T02060178
04850KAOH AOH20160709012510907/09/16 01:25:31  5-MIN KAOH 090625Z AUTO 24009KT 10SM CLR 21/18 A2986 1040 84 2000 240/09 RMK AO2 T02060178
04850KAOH AOH20160709013010907/09/16 01:30:31  5-MIN KAOH 090630Z AUTO 24009KT 10SM CLR 21/18 A2986 1030 84 2000 250/09 RMK AO2 T02060178
04850KAOH AOH20160709013510907/09/16 01:35:31  5-MIN KAOH 090635Z AUTO 24009KT 10SM CLR 21/18 A2986 1030 84 2000 250/09 RMK AO2 T02060178
04850KAOH AOH20160709014010907/09/16 01:40:31  5-MIN KAOH 090640Z AUTO 24009KT 10SM CLR 21/18 A2986 1030 84 2000 250/09 RMK AO2 T02060178
04850KAOH AOH20160709014510907/09/16 01:45:31  5-MIN KAOH 090645Z AUTO 25008KT 10SM CLR 20/18 A2987 1030 87 1900 250/08 RMK AO2 T02000178
04850KAOH AOH20160709015011607/09/16 01:50:31  5-MIN KAOH 090650Z AUTO 25009KT 10SM CLR 20/18 A2987 1030 87 1900 250/09 RMK AO2 SLP105 T02000178
04850KAOH AOH20160709015510907/09/16 01:55:31  5-MIN KAOH 090655Z AUTO 24008KT 10SM CLR 20/18 A2987 1020 87 1900 250/08 RMK AO2 T02000178
04850KAOH AOH20160709020010907/09/16 02:00:31  5-MIN KAOH 090700Z AUTO 25008KT 10SM CLR 20/18 A2987 1020 87 1900 250/08 RMK AO2 T02000178
04850KAOH AOH20160709020510907/09/16 02:05:31  5-MIN KAOH 090705Z AUTO 25008KT 10SM CLR 19/18 A2987 1020 90 1800 260/08 RMK AO2 T01940178
04850KAOH AOH20160709021010907/09/16 02:10:31  5-MIN KAOH 090710Z AUTO 25008KT 10SM CLR 19/18 A2987 1020 90 1800 260/08 RMK AO2 T01940178
04850KAOH AOH20160709021510907/09/16 02:15:31  5-MIN KAOH 090715Z AUTO 25007KT 10SM CLR 19/18 A2987 1020 90 1800 260/07 RMK AO2 T01940178
04850KAOH AOH20160709022010907/09/16 02:20:31  5-MIN KAOH 090720Z AUTO 25007KT 10SM CLR 19/18 A2987 1020 90 1800 260/07 RMK AO2 T01940178
04850KAOH AOH20160709022510907/09/16 02:25:31  5-MIN KAOH 090725Z AUTO 26008KT 10SM CLR 19/18 A2987 1020 90 1800 260/08 RMK AO2 T01940178
04850KAOH AOH20160709023010907/09/16 02:30:31  5-MIN KAOH 090730Z AUTO 25008KT 10SM CLR 19/18 A2987 1020 90 1800 260/08 RMK AO2 T01940178
04850KAOH AOH20160709023510907/09/16 02:35:31  5-MIN KAOH 090735Z AUTO 25006KT 10SM CLR 19/18 A2987 1020 90 1800 260/06 RMK AO2 T01940178
04850KAOH AOH20160709024010907/09/16 02:40:31  5-MIN KAOH 090740Z AUTO 25006KT 10SM CLR 19/18 A2987 1020 90 1800 260/06 RMK AO2 T01940178
04850KAOH AOH20160709024510907/09/16 02:45:31  5-MIN KAOH 090745Z AUTO 25006KT 10SM CLR 19/17 A2987 1020 90 1800 260/06 RMK AO2 T01890172
04850KAOH AOH20160709025011607/09/16 02:50:31  5-MIN KAOH 090750Z AUTO 26006KT 10SM CLR 19/17 A2987 1020 90 1800 260/06 RMK AO2 SLP108 T01890172
04850KAOH AOH20160709025510907/09/16 02:55:31  5-MIN KAOH 090755Z AUTO 26006KT 10SM CLR 19/17 A2987 1020 90 1800 270/06 RMK AO2 T01890172
04850KAOH AOH20160709030010907/09/16 03:00:31  5-MIN KAOH 090800Z AUTO 26006KT 10SM CLR 19/17 A2987 1020 90 1800 260/06 RMK AO2 T01890172
04850KAOH AOH20160709030510907/09/16 03:05:31  5-MIN KAOH 090805Z AUTO 26006KT 10SM CLR 19/17 A2987 1020 90 1800 260/06 RMK AO2 T01890172
04850KAOH AOH20160709031010907/09/16 03:10:31  5-MIN KAOH 090810Z AUTO 26006KT 10SM CLR 19/17 A2987 1020 90 1800 260/06 RMK AO2 T01890172
04850KAOH AOH20160709031510907/09/16 03:15:31  5-MIN KAOH 090815Z AUTO 26006KT 10SM CLR 19/17 A2987 1020 90 1800 270/06 RMK AO2 T01890172
04850KAOH AOH20160709032010907/09/16 03:20:31  5-MIN KAOH 090820Z AUTO 26006KT 10SM CLR 18/17 A2987 1020 93 1700 270/06 RMK AO2 T01830172
04850KAOH AOH20160709032510907/09/16 03:25:31  5-MIN KAOH 090825Z AUTO 26006KT 10SM CLR 18/17 A2987 1020 93 1700 270/06 RMK AO2 T01830172
04850KAOH AOH20160709033010907/09/16 03:30:31  5-MIN KAOH 090830Z AUTO 26005KT 10SM CLR 18/17 A2987 1020 93 1700 270/05 RMK AO2 T01830172
04850KAOH AOH20160709033510907/09/16 03:35:31  5-MIN KAOH 090835Z AUTO 27005KT 10SM CLR 18/17 A2987 1020 93 1700 270/05 RMK AO2 T01830172
04850KAOH AOH20160709034010907/09/16 03:40:31  5-MIN KAOH 090840Z AUTO 27005KT 10SM CLR 18/17 A2987 1020 93 1700 280/05 RMK AO2 T01830172
04850KAOH AOH20160709034510907/09/16 03:45:31  5-MIN KAOH 090845Z AUTO 27005KT 10SM CLR 18/17 A2987 1020 96 1600 280/05 RMK AO2 T01780172
04850KAOH AOH20160709035012207/09/16 03:50:31  5-MIN KAOH 090850Z AUTO 27005KT 10SM CLR 18/17 A2987 1020 96 1600 280/05 RMK AO2 SLP109 T01780172 56010
04850KAOH AOH20160709035510907/09/16 03:55:31  5-MIN KAOH 090855Z AUTO 27005KT 10SM CLR 18/17 A2988 1020 96 1600 280/05 RMK AO2 T01780172
04850KAOH AOH20160709040010907/09/16 04:00:31  5-MIN KAOH 090900Z AUTO 27004KT 10SM CLR 18/17 A2988 1020 96 1600 280/04 RMK AO2 T01780172
04850KAOH AOH20160709040510907/09/16 04:05:31  5-MIN KAOH 090905Z AUTO 28004KT 10SM CLR 18/17 A2988 1010 96 1600 280/04 RMK AO2 T01780172
04850KAOH AOH20160709041010907/09/16 04:10:31  5-MIN KAOH 090910Z AUTO 27005KT 10SM CLR 18/17 A2988 1010 93 1700 280/05 RMK AO2 T01830172
04850KAOH AOH20160709041510907/09/16 04:15:31  5-MIN KAOH 090915Z AUTO 27005KT 10SM CLR 18/17 A2989 1010 93 1700 280/05 RMK AO2 T01830172
04850KAOH AOH20160709042010907/09/16 04:20:31  5-MIN KAOH 090920Z AUTO 27005KT 10SM CLR 18/17 A2989 1010 93 1700 280/05 RMK AO2 T01830172
04850KAOH AOH20160709042510907/09/16 04:25:31  5-MIN KAOH 090925Z AUTO 27005KT 10SM CLR 18/17 A2989 1000 93 1700 280/05 RMK AO2 T01830172
04850KAOH AOH20160709043010907/09/16 04:30:31  5-MIN KAOH 090930Z AUTO 28006KT 10SM CLR 18/17 A2989 1000 93 1700 280/06 RMK AO2 T01830172
04850KAOH AOH20160709043510907/09/16 04:35:31  5-MIN KAOH 090935Z AUTO 28006KT 10SM CLR 18/17 A2989 1000 93 1700 280/06 RMK AO2 T01830172
04850KAOH AOH20160709044010907/09/16 04:40:31  5-MIN KAOH 090940Z AUTO 28005KT 10SM CLR 18/17 A2990 1000 93 1700 280/05 RMK AO2 T01830172
04850KAOH AOH20160709044510907/09/16 04:45:31  5-MIN KAOH 090945Z AUTO 27006KT 10SM CLR 18/17 A2990 1000 93 1700 280/06 RMK AO2 T01830172
04850KAOH AOH20160709045011607/09/16 04:50:31  5-MIN KAOH 090950Z AUTO 25005KT 10SM CLR 18/17 A2990 1000 96 1600 260/05 RMK AO2 SLP117 T01780172
04850KAOH AOH20160709045510907/09/16 04:55:31  5-MIN KAOH 090955Z AUTO 26004KT 10SM CLR 18/17 A2990 1000 96 1600 270/04 RMK AO2 T01780172
04850KAOH AOH20160709050010907/09/16 05:00:31  5-MIN KAOH 091000Z AUTO 26004KT 10SM CLR 18/17 A2990 1000 96 1600 260/04 RMK AO2 T01780172
04850KAOH AOH20160709050510907/09/16 05:05:31  5-MIN KAOH 091005Z AUTO 25004KT 10SM CLR 18/17 A2990 1000 96 1600 250/04 RMK AO2 T01780172
04850KAOH AOH20160709051010807/09/16 05:10:31  5-MIN KAOH 091010Z AUTO 25005KT 10SM CLR 18/17 A2990 990 93 1600 250/05 RMK AO2 T01780167
04850KAOH AOH20160709051510807/09/16 05:15:31  5-MIN KAOH 091015Z AUTO 25005KT 10SM CLR 18/17 A2990 990 93 1600 260/05 RMK AO2 T01780167
04850KAOH AOH20160709052010807/09/16 05:20:31  5-MIN KAOH 091020Z AUTO 26006KT 10SM CLR 18/17 A2990 990 93 1600 260/06 RMK AO2 T01780167
04850KAOH AOH20160709052510807/09/16 05:25:31  5-MIN KAOH 091025Z AUTO 26005KT 10SM CLR 18/17 A2990 990 96 1600 260/05 RMK AO2 T01780172
04850KAOH AOH20160709053010807/09/16 05:30:31  5-MIN KAOH 091030Z AUTO 26005KT 10SM CLR 18/17 A2990 990 96 1600 270/05 RMK AO2 T01780172
04850KAOH AOH20160709053510907/09/16 05:35:31  5-MIN KAOH 091035Z AUTO 26005KT 10SM CLR 17/17 A2991 990 100 1500 270/05 RMK AO2 T01720172
04850KAOH AOH20160709054010907/09/16 05:40:31  5-MIN KAOH 091040Z AUTO 26005KT 10SM CLR 17/17 A2991 990 100 1500 260/05 RMK AO2 T01720172
04850KAOH AOH20160709054510807/09/16 05:45:31  5-MIN KAOH 091045Z AUTO 26005KT 10SM CLR 18/17 A2991 990 96 1600 260/05 RMK AO2 T01780172
04850KAOH AOH20160709055011507/09/16 05:50:31  5-MIN KAOH 091050Z AUTO 26004KT 10SM CLR 18/17 A2991 990 96 1600 260/04 RMK AO2 SLP122 T01780172
04850KAOH AOH20160709055510807/09/16 05:55:31  5-MIN KAOH 091055Z AUTO 25004KT 10SM CLR 18/17 A2991 980 96 1600 260/04 RMK AO2 T01780172
04850KAOH AOH20160709060010807/09/16 06:00:31  5-MIN KAOH 091100Z AUTO 26004KT 10SM CLR 18/17 A2991 980 93 1600 260/04 RMK AO2 T01830172
04850KAOH AOH20160709060510807/09/16 06:05:31  5-MIN KAOH 091105Z AUTO 26003KT 10SM CLR 18/18 A2991 980 96 1600 270/03 RMK AO2 T01830178
04850KAOH AOH20160709061010807/09/16 06:10:31  5-MIN KAOH 091110Z AUTO 26004KT 10SM CLR 18/18 A2992 980 96 1600 260/04 RMK AO2 T01830178
04850KAOH AOH20160709061510807/09/16 06:15:31  5-MIN KAOH 091115Z AUTO 25005KT 10SM CLR 18/18 A2992 980 96 1600 260/05 RMK AO2 T01830178
04850KAOH AOH20160709062010807/09/16 06:20:31  5-MIN KAOH 091120Z AUTO 25005KT 10SM CLR 18/18 A2992 980 96 1600 250/05 RMK AO2 T01830178
04850KAOH AOH20160709062510807/09/16 06:25:31  5-MIN KAOH 091125Z AUTO 25006KT 10SM CLR 19/18 A2992 980 93 1700 250/06 RMK AO2 T01890178
04850KAOH AOH20160709063010807/09/16 06:30:31  5-MIN KAOH 091130Z AUTO 25005KT 10SM CLR 19/18 A2992 980 93 1700 250/05 RMK AO2 T01890178
04850KAOH AOH20160709063510807/09/16 06:35:31  5-MIN KAOH 091135Z AUTO 24005KT 10SM CLR 19/18 A2992 980 93 1700 250/05 RMK AO2 T01890178
04850KAOH AOH20160709064010807/09/16 06:40:31  5-MIN KAOH 091140Z AUTO 25005KT 10SM CLR 19/18 A2992 980 90 1800 260/05 RMK AO2 T01940178
04850KAOH AOH20160709064510807/09/16 06:45:31  5-MIN KAOH 091145Z AUTO 25006KT 10SM CLR 19/18 A2992 980 90 1800 260/06 RMK AO2 T01940178
04850KAOH AOH20160709065013907/09/16 06:50:31  5-MIN KAOH 091150Z AUTO 26006KT 10SM CLR 19/18 A2992 980 90 1800 270/06 RMK AO2 SLP125 70082 T01940178 10206 20172 51010
04850KAOH AOH20160709065510807/09/16 06:55:31  5-MIN KAOH 091155Z AUTO 25005KT 10SM CLR 19/18 A2992 980 90 1800 260/05 RMK AO2 T01940178
04850KAOH AOH20160709070010807/09/16 07:00:31  5-MIN KAOH 091200Z AUTO 26006KT 10SM CLR 19/18 A2992 980 90 1800 260/06 RMK AO2 T01940178
04850KAOH AOH20160709070510807/09/16 07:05:31  5-MIN KAOH 091205Z AUTO 25006KT 10SM CLR 20/18 A2992 980 87 1800 260/06 RMK AO2 T02000178
04850KAOH AOH20160709071010807/09/16 07:10:31  5-MIN KAOH 091210Z AUTO 25006KT 10SM CLR 20/18 A2992 980 87 1800 260/06 RMK AO2 T02000178
04850KAOH AOH20160709071510807/09/16 07:15:31  5-MIN KAOH 091215Z AUTO 25007KT 10SM CLR 20/18 A2992 980 90 1800 260/07 RMK AO2 T02000183
04850KAOH AOH20160709072010807/09/16 07:20:31  5-MIN KAOH 091220Z AUTO 26007KT 10SM CLR 21/18 A2992 980 87 1900 260/07 RMK AO2 T02060183
04850KAOH AOH20160709072510807/09/16 07:25:31  5-MIN KAOH 091225Z AUTO 27007KT 10SM CLR 21/18 A2992 980 87 1900 270/07 RMK AO2 T02060183
04850KAOH AOH20160709073010807/09/16 07:30:31  5-MIN KAOH 091230Z AUTO 28008KT 10SM CLR 21/18 A2992 980 87 1900 280/08 RMK AO2 T02060183
04850KAOH AOH20160709073510807/09/16 07:35:31  5-MIN KAOH 091235Z AUTO 29008KT 10SM CLR 21/18 A2992 980 84 1900 290/08 RMK AO2 T02060178
04850KAOH AOH20160709074010807/09/16 07:40:31  5-MIN KAOH 091240Z AUTO 28007KT 10SM CLR 21/18 A2992 970 84 1900 290/07 RMK AO2 T02060178
04850KAOH AOH20160709074510807/09/16 07:45:31  5-MIN KAOH 091245Z AUTO 28009KT 10SM CLR 21/18 A2992 980 81 2000 290/09 RMK AO2 T02110178
04850KAOH AOH20160709075011507/09/16 07:50:31  5-MIN KAOH 091250Z AUTO 28008KT 10SM CLR 21/18 A2992 980 81 2000 290/08 RMK AO2 SLP124 T02110178
04850KAOH AOH20160709075510807/09/16 07:55:31  5-MIN KAOH 091255Z AUTO 29010KT 10SM CLR 21/18 A2992 980 81 2000 290/10 RMK AO2 T02110178
04850KAOH AOH20160709080011407/09/16 08:00:31  5-MIN KAOH 091300Z AUTO 28010G17KT 10SM CLR 21/18 A2992 970 81 2000 290/10G17 RMK AO2 T02110178
04850KAOH AOH20160709080511407/09/16 08:05:31  5-MIN KAOH 091305Z AUTO 28010G17KT 10SM CLR 21/18 A2992 980 81 2000 280/10G17 RMK AO2 T02110178
04850KAOH AOH20160709081010807/09/16 08:10:31  5-MIN KAOH 091310Z AUTO 29008KT 10SM CLR 21/18 A2992 970 81 1900 300/08 RMK AO2 T02110178
04850KAOH AOH20160709081510807/09/16 08:15:31  5-MIN KAOH 091315Z AUTO 30008KT 10SM CLR 22/18 A2992 970 81 2000 300/08 RMK AO2 T02170183
04850KAOH AOH20160709082010807/09/16 08:20:31  5-MIN KAOH 091320Z AUTO 29008KT 10SM CLR 22/18 A2992 980 81 2000 300/08 RMK AO2 T02170183
04850KAOH AOH20160709082510807/09/16 08:25:31  5-MIN KAOH 091325Z AUTO 29008KT 10SM CLR 22/18 A2993 970 78 2000 300/08 RMK AO2 T02170178
04850KAOH AOH20160709083010807/09/16 08:30:31  5-MIN KAOH 091330Z AUTO 30008KT 10SM CLR 22/18 A2993 970 81 2000 310/08 RMK AO2 T02170183
04850KAOH AOH20160709083510807/09/16 08:35:31  5-MIN KAOH 091335Z AUTO 29011KT 10SM CLR 22/18 A2993 970 81 2000 300/11 RMK AO2 T02170183
04850KAOH AOH20160709084010807/09/16 08:40:31  5-MIN KAOH 091340Z AUTO 29009KT 10SM CLR 22/18 A2993 970 78 2000 300/09 RMK AO2 T02170178
04850KAOH AOH20160709084510807/09/16 08:45:31  5-MIN KAOH 091345Z AUTO 29009KT 10SM CLR 22/18 A2993 970 78 2100 300/09 RMK AO2 T02220183
04850KAOH AOH20160709085011807/09/16 08:50:31  5-MIN KAOH 091350Z AUTO 28012KT 10SM FEW021 22/18 A2993 970 81 2000 290/12 RMK AO2 SLP130 T02170183
04850KAOH AOH20160709085511107/09/16 08:55:31  5-MIN KAOH 091355Z AUTO 29009KT 10SM SCT023 22/18 A2993 960 78 2000 290/09 RMK AO2 T02170178
04850KAOH AOH20160709090011807/09/16 09:00:31  5-MIN KAOH 091400Z AUTO 28011KT 10SM SCT025 SCT031 22/18 A2993 960 78 2000 290/11 RMK AO2 T02170178
04850KAOH AOH20160709090511807/09/16 09:05:31  5-MIN KAOH 091405Z AUTO 28008KT 10SM SCT025 SCT031 22/18 A2994 960 78 2000 290/08 RMK AO2 T02170178
04850KAOH AOH20160709091011107/09/16 09:10:31  5-MIN KAOH 091410Z AUTO 29007KT 10SM SCT025 22/18 A2994 960 75 2100 290/07 RMK AO2 T02220178
04850KAOH AOH20160709091511107/09/16 09:15:31  5-MIN KAOH 091415Z AUTO 27010KT 10SM SCT025 22/18 A2994 960 78 2100 270/10 RMK AO2 T02220183
04850KAOH AOH20160709092011107/09/16 09:20:31  5-MIN KAOH 091420Z AUTO 28010KT 10SM FEW025 23/18 A2993 960 73 2100 290/10 RMK AO2 T02280178
04850KAOH AOH20160709092511107/09/16 09:25:31  5-MIN KAOH 091425Z AUTO 30010KT 10SM FEW027 22/18 A2994 960 75 2100 310/10 RMK AO2 T02220178
04850KAOH AOH20160709093011107/09/16 09:30:31  5-MIN KAOH 091430Z AUTO 28012KT 10SM SCT027 22/18 A2994 960 75 2100 290/12 RMK AO2 T02220178
04850KAOH AOH20160709093511807/09/16 09:35:31  5-MIN KAOH 091435Z AUTO 30012KT 10SM SCT027 BKN033 22/18 A2994 960 75 2100 300/12 RMK AO2 T02220178
04850KAOH AOH20160709094011807/09/16 09:40:31  5-MIN KAOH 091440Z AUTO 30012KT 10SM BKN027 BKN033 22/18 A2994 960 78 2000 300/12 RMK AO2 T02170178
04850KAOH AOH20160709094512507/09/16 09:45:31  5-MIN KAOH 091445Z AUTO 30010KT 10SM SCT027 BKN033 BKN044 22/18 A2994 960 75 2100 310/10 RMK AO2 T02220178
04850KAOH AOH20160709095013807/09/16 09:50:31  5-MIN KAOH 091450Z AUTO 31010KT 10SM SCT027 BKN033 BKN044 22/18 A2995 950 75 2100 320/10 RMK AO2 SLP134 T02220178 53009
04850KAOH AOH20160709095512507/09/16 09:55:31  5-MIN KAOH 091455Z AUTO 29012KT 10SM SCT027 BKN033 OVC065 23/18 A2995 950 76 2100 300/12 RMK AO2 T02280183
04850KAOH AOH20160709100012507/09/16 10:00:31  5-MIN KAOH 091500Z AUTO 30009KT 10SM SCT025 BKN034 OVC070 23/18 A2995 950 76 2100 310/09 RMK AO2 T02280183
04850KAOH AOH20160709100512507/09/16 10:05:31  5-MIN KAOH 091505Z AUTO 28012KT 10SM SCT025 BKN034 BKN042 22/18 A2995 950 75 2000 290/12 RMK AO2 T02220178
04850KAOH AOH20160709101012507/09/16 10:10:31  5-MIN KAOH 091510Z AUTO 29010KT 10SM FEW025 SCT032 BKN042 23/18 A2995 950 76 2100 300/10 RMK AO2 T02280183
04850KAOH AOH20160709101512507/09/16 10:15:31  5-MIN KAOH 091515Z AUTO 31011KT 10SM SCT025 SCT031 BKN042 23/18 A2995 950 76 2100 320/11 RMK AO2 T02280183
04850KAOH AOH20160709102012507/09/16 10:20:31  5-MIN KAOH 091520Z AUTO 30010KT 10SM SCT025 BKN040 OVC055 22/18 A2995 950 78 2000 310/10 RMK AO2 T02220183
04850KAOH AOH20160709102511807/09/16 10:25:31  5-MIN KAOH 091525Z AUTO 30011KT 10SM SCT025 BKN055 22/18 A2995 950 78 2000 310/11 RMK AO2 T02220183
04850KAOH AOH20160709103012407/09/16 10:30:31  5-MIN KAOH 091530Z AUTO 30014G17KT 10SM SCT025 BKN055 23/18 A2995 950 76 2100 300/14G17 RMK AO2 T02280183
04850KAOH AOH20160709103511807/09/16 10:35:31  5-MIN KAOH 091535Z AUTO 30013KT 10SM SCT025 BKN055 23/18 A2996 940 73 2100 300/13 RMK AO2 T02280178
04850KAOH AOH20160709104011807/09/16 10:40:31  5-MIN KAOH 091540Z AUTO 30014KT 10SM FEW025 SCT055 23/18 A2996 940 73 2100 310/14 RMK AO2 T02280178
04850KAOH AOH20160709104512407/09/16 10:45:31  5-MIN KAOH 091545Z AUTO 31011G20KT 10SM FEW025 FEW055 23/18 A2995 950 70 2200 320/11G20 RMK AO2 T02330178
04850KAOH AOH20160709105011807/09/16 10:50:31  5-MIN KAOH 091550Z AUTO 31013KT 10SM FEW025 24/18 A2996 940 71 2200 320/13 RMK AO2 SLP137 T02390183
04850KAOH AOH20160709105511807/09/16 10:55:31  5-MIN KAOH 091555Z AUTO 29013KT 10SM FEW032 SCT043 23/18 A2996 940 70 2200 300/13 RMK AO2 T02330178
04850KAOH AOH20160709110012407/09/16 11:00:31  5-MIN KAOH 091600Z AUTO 31010G19KT 10SM FEW030 SCT043 23/18 A2996 940 70 2200 320/10G19 RMK AO2 T02330178
04850KAOH AOH20160709110511807/09/16 11:05:31  5-MIN KAOH 091605Z AUTO 32015KT 10SM FEW032 SCT043 23/18 A2996 940 70 2200 330/15 RMK AO2 T02330178
04850KAOH AOH20160709111011807/09/16 11:10:31  5-MIN KAOH 091610Z AUTO 33010KT 10SM SCT030 BKN043 23/17 A2996 940 68 2100 330/10 RMK AO2 T02280167
04850KAOH AOH20160709111512407/09/16 11:15:31  5-MIN KAOH 091615Z AUTO 32013G19KT 10SM SCT030 BKN043 23/18 A2996 940 70 2200 320/13G19 RMK AO2 T02330178
04850KAOH AOH20160709112013107/09/16 11:20:31  5-MIN KAOH 091620Z AUTO 29014G19KT 10SM SCT030 BKN037 BKN045 23/18 A2996 940 70 2200 290/14G19 RMK AO2 T02330178
04850KAOH AOH20160709112511807/09/16 11:25:31  5-MIN KAOH 091625Z AUTO 29012KT 10SM SCT032 BKN045 24/18 A2997 940 71 2200 300/12 RMK AO2 T02390183
04850KAOH AOH20160709113013107/09/16 11:30:31  5-MIN KAOH 091630Z AUTO 30015G19KT 10SM FEW030 SCT037 SCT045 24/18 A2996 940 68 2200 310/15G19 RMK AO2 T02390178
04850KAOH AOH20160709113513107/09/16 11:35:31  5-MIN KAOH 091635Z AUTO 31014G19KT 10SM FEW030 FEW037 SCT045 24/17 A2997 930 63 2200 310/14G19 RMK AO2 T02390167
04850KAOH AOH20160709114012507/09/16 11:40:31  5-MIN KAOH 091640Z AUTO 30012KT 10SM FEW030 FEW038 SCT045 23/17 A2997 930 66 2200 310/12 RMK AO2 T02330167
04850KAOH AOH20160709114511107/09/16 11:45:31  5-MIN KAOH 091645Z AUTO 31013KT 10SM FEW038 24/17 A2997 940 63 2200 320/13 RMK AO2 T02390167
04850KAOH AOH20160709115011807/09/16 11:50:31  5-MIN KAOH 091650Z AUTO 32012KT 10SM FEW039 24/17 A2996 940 63 2200 330/12 RMK AO2 SLP140 T02390167
04850KAOH AOH20160709115511107/09/16 11:55:31  5-MIN KAOH 091655Z AUTO 31013KT 10SM FEW039 24/17 A2996 940 63 2300 310/13 RMK AO2 T02440172
04850KAOH AOH20160709120011407/09/16 12:00:31  5-MIN KAOH 091700Z AUTO 32014G19KT 10SM CLR 24/17 A2996 940 63 2300 330/14G19 RMK AO2 T02440172
04850KAOH AOH20160709120510807/09/16 12:05:31  5-MIN KAOH 091705Z AUTO 31012KT 10SM CLR 24/17 A2996 940 61 2300 320/12 RMK AO2 T02440167
04850KAOH AOH20160709121011107/09/16 12:10:31  5-MIN KAOH 091710Z AUTO 31014KT 10SM FEW040 24/17 A2996 940 66 2200 310/14 RMK AO2 T02390172
04850KAOH AOH20160709121511807/09/16 12:15:31  5-MIN KAOH 091715Z AUTO 29011KT 10SM SCT040 SCT055 24/17 A2996 940 61 2300 300/11 RMK AO2 T02440167
04850KAOH AOH20160709122011107/09/16 12:20:31  5-MIN KAOH 091720Z AUTO 31010KT 10SM SCT042 24/17 A2996 940 63 2200 320/10 RMK AO2 T02390167
04850KAOH AOH20160709122511807/09/16 12:25:31  5-MIN KAOH 091725Z AUTO 30010KT 10SM SCT042 BKN060 24/17 A2996 940 66 2200 310/10 RMK AO2 T02390172
04850KAOH AOH20160709123011807/09/16 12:30:31  5-MIN KAOH 091730Z AUTO 30010KT 10SM SCT042 BKN060 23/17 A2996 940 66 2200 300/10 RMK AO2 T02330167
04850KAOH AOH20160709123511807/09/16 12:35:31  5-MIN KAOH 091735Z AUTO 29013KT 10SM SCT040 BKN060 24/17 A2996 940 66 2200 290/13 RMK AO2 T02390172
04850KAOH AOH20160709124012507/09/16 12:40:31  5-MIN KAOH 091740Z AUTO 33013KT 10SM SCT040 BKN046 BKN060 23/17 A2996 940 66 2200 330/13 RMK AO2 T02330167
04850KAOH AOH20160709124512507/09/16 12:45:31  5-MIN KAOH 091745Z AUTO 32012KT 10SM SCT040 SCT046 BKN060 24/17 A2996 940 66 2200 320/12 RMK AO2 T02390172
04850KAOH AOH20160709125015007/09/16 12:50:31  5-MIN KAOH 091750Z AUTO 32013KT 10SM FEW040 SCT046 BKN060 24/18 A2996 940 66 2300 330/13 RMK AO2 SLP139 T02440178 10244 20194 51009
04850KAOH AOH20160709125513107/09/16 12:55:31  5-MIN KAOH 091755Z AUTO 30016G21KT 10SM SCT039 SCT046 BKN060 24/17 A2996 940 63 2200 310/16G21 RMK AO2 T02390167
04850KAOH AOH20160709130013107/09/16 13:00:31  5-MIN KAOH 091800Z AUTO 32015G21KT 10SM SCT042 SCT050 BKN060 24/17 A2996 940 63 2200 320/15G21 RMK AO2 T02390167
04850KAOH AOH20160709130511807/09/16 13:05:31  5-MIN KAOH 091805Z AUTO 32013KT 10SM SCT042 BKN060 23/17 A2997 930 66 2200 320/13 RMK AO2 T02330167
04850KAOH AOH20160709131011807/09/16 13:10:31  5-MIN KAOH 091810Z AUTO 32015KT 10SM SCT040 SCT060 24/16 A2997 930 61 2200 320/15 RMK AO2 T02390161
04850KAOH AOH20160709131512407/09/16 13:15:31  5-MIN KAOH 091815Z AUTO 31011G20KT 10SM FEW040 SCT060 24/17 A2997 930 61 2300 320/11G20 RMK AO2 T02440167
04850KAOH AOH20160709132011807/09/16 13:20:31  5-MIN KAOH 091820Z AUTO 32011KT 10SM FEW040 FEW060 24/17 A2997 930 61 2300 320/11 RMK AO2 T02440167
04850KAOH AOH20160709132511707/09/16 13:25:31  5-MIN KAOH 091825Z AUTO 32016G22KT 10SM FEW041 24/16 A2997 930 59 2300 320/16G22 RMK AO2 T02440161
04850KAOH AOH20160709133011707/09/16 13:30:31  5-MIN KAOH 091830Z AUTO 31013G22KT 10SM FEW039 24/16 A2997 940 59 2300 310/13G22 RMK AO2 T02440161
04850KAOH AOH20160709133511407/09/16 13:35:31  5-MIN KAOH 091835Z AUTO 32011G17KT 10SM CLR 25/17 A2996 940 59 2300 330/11G17 RMK AO2 T02500167
04850KAOH AOH20160709134011407/09/16 13:40:31  5-MIN KAOH 091840Z AUTO 31015G19KT 10SM CLR 25/17 A2997 940 59 2300 310/15G19 RMK AO2 T02500167
04850KAOH AOH20160709134511407/09/16 13:45:31  5-MIN KAOH 091845Z AUTO 30012G19KT 10SM CLR 25/17 A2997 940 59 2300 310/12G19 RMK AO2 T02500167
04850KAOH AOH20160709135011807/09/16 13:50:31  5-MIN KAOH 091850Z AUTO 29014KT 10SM FEW050 24/16 A2997 930 59 2300 290/14 RMK AO2 SLP142 T02440161
04850KAOH AOH20160709135511707/09/16 13:55:31  5-MIN KAOH 091855Z AUTO 30015G20KT 10SM SCT050 24/17 A2997 930 61 2300 310/15G20 RMK AO2 T02440167
04850KAOH AOH20160709140011707/09/16 14:00:31  5-MIN KAOH 091900Z AUTO 30012G20KT 10SM FEW050 24/17 A2997 930 61 2300 300/12G20 RMK AO2 T02440167
04850KAOH AOH20160709140511107/09/16 14:05:31  5-MIN KAOH 091905Z AUTO 32014KT 10SM FEW050 24/17 A2997 930 61 2300 330/14 RMK AO2 T02440167
04850KAOH AOH20160709141011707/09/16 14:10:31  5-MIN KAOH 091910Z AUTO 32013G19KT 10SM SCT050 24/17 A2997 930 63 2200 320/13G19 RMK AO2 T02390167
04850KAOH AOH20160709141511107/09/16 14:15:31  5-MIN KAOH 091915Z AUTO 30012KT 10SM BKN050 24/16 A2997 930 61 2200 310/12 RMK AO2 T02390161
04850KAOH AOH20160709142011807/09/16 14:20:31  5-MIN KAOH 091920Z AUTO 31013KT 10SM FEW045 BKN055 24/16 A2997 930 61 2200 310/13 RMK AO2 T02390161
04850KAOH AOH20160709142511807/09/16 14:25:31  5-MIN KAOH 091925Z AUTO 32010KT 10SM FEW041 SCT055 23/16 A2997 930 63 2200 320/10 RMK AO2 T02330161
04850KAOH AOH20160709143012407/09/16 14:30:31  5-MIN KAOH 091930Z AUTO 31013G17KT 10SM FEW043 SCT055 24/17 A2997 930 61 2300 320/13G17 RMK AO2 T02440167
04850KAOH AOH20160709143512407/09/16 14:35:31  5-MIN KAOH 091935Z AUTO 32010G17KT 10SM FEW043 SCT055 24/17 A2997 930 63 2300 330/10G17 RMK AO2 T02440172
04850KAOH AOH20160709144011807/09/16 14:40:31  5-MIN KAOH 091940Z AUTO 30011KT 10SM SCT043 BKN055 25/17 A2997 930 59 2300 310/11 RMK AO2 T02500167
04850KAOH AOH20160709144511807/09/16 14:45:31  5-MIN KAOH 091945Z AUTO 29012KT 10SM SCT043 BKN055 25/17 A2997 930 59 2300 300/12 RMK AO2 T02500167
04850KAOH AOH20160709145012507/09/16 14:50:31  5-MIN KAOH 091950Z AUTO 31012KT 10SM SCT045 SCT055 24/17 A2997 930 61 2300 320/12 RMK AO2 SLP142 T02440167
04850KAOH AOH20160709145511807/09/16 14:55:31  5-MIN KAOH 091955Z AUTO 34012KT 10SM SCT045 BKN055 24/16 A2997 930 59 2300 340/12 RMK AO2 T02440161
04850KAOH AOH20160709150011707/09/16 15:00:31  5-MIN KAOH 092000Z AUTO 31011G17KT 10SM SCT045 24/17 A2997 930 61 2300 320/11G17 RMK AO2 T02440167
04850KAOH AOH20160709150511707/09/16 15:05:31  5-MIN KAOH 092005Z AUTO 33010G17KT 10SM SCT045 25/16 A2997 930 57 2300 330/10G17 RMK AO2 T02500161
04850KAOH AOH20160709151011107/09/16 15:10:31  5-MIN KAOH 092010Z AUTO 34013KT 10SM FEW047 24/16 A2997 930 59 2300 350/13 RMK AO2 T02440161
04850KAOH AOH20160709151511107/09/16 15:15:31  5-MIN KAOH 092015Z AUTO 32011KT 10SM SCT047 24/16 A2997 930 59 2200 320/11 RMK AO2 T02390156
04850KAOH AOH20160709152011107/09/16 15:20:31  5-MIN KAOH 092020Z AUTO 30011KT 10SM SCT047 24/16 A2998 930 59 2300 300/11 RMK AO2 T02440161
04850KAOH AOH20160709152511707/09/16 15:25:31  5-MIN KAOH 092025Z AUTO 31011G18KT 10SM SCT046 24/16 A2998 920 59 2300 310/11G18 RMK AO2 T02440161
04850KAOH AOH20160709153011707/09/16 15:30:31  5-MIN KAOH 092030Z AUTO 33011G18KT 10SM SCT046 24/16 A2998 920 59 2300 340/11G18 RMK AO2 T02440161
04850KAOH AOH20160709153511807/09/16 15:35:31  5-MIN KAOH 092035Z AUTO 31012KT 10SM SCT046 SCT055 24/16 A2998 920 59 2300 310/12 RMK AO2 T02440161
04850KAOH AOH20160709154011807/09/16 15:40:31  5-MIN KAOH 092040Z AUTO 32011KT 10SM SCT046 SCT055 24/16 A2998 920 59 2200 320/11 RMK AO2 T02390156
04850KAOH AOH20160709154512407/09/16 15:45:31  5-MIN KAOH 092045Z AUTO 30013G20KT 10SM SCT048 BKN055 24/16 A2998 920 59 2200 310/13G20 RMK AO2 T02390156
04850KAOH AOH20160709155013707/09/16 15:50:31  5-MIN KAOH 092050Z AUTO 29009G20KT 10SM SCT048 BKN055 24/16 A2998 920 59 2300 300/09G20 RMK AO2 SLP147 T02440161 51005
04850KAOH AOH20160709155511107/09/16 15:55:31  5-MIN KAOH 092055Z AUTO 32013KT 10SM SCT050 25/16 A2998 920 57 2300 330/13 RMK AO2 T02500161
04850KAOH AOH20160709160011107/09/16 16:00:31  5-MIN KAOH 092100Z AUTO 33010KT 10SM SCT050 24/16 A2998 920 59 2200 330/10 RMK AO2 T02390156
04850KAOH AOH20160709160511107/09/16 16:05:31  5-MIN KAOH 092105Z AUTO 33011KT 10SM BKN055 24/16 A2998 920 57 2300 330/11 RMK AO2 T02440156
04850KAOH AOH20160709161011807/09/16 16:10:31  5-MIN KAOH 092110Z AUTO 31013KT 10SM FEW047 BKN055 24/16 A2999 920 61 2200 320/13 RMK AO2 T02390161
04850KAOH AOH20160709161511807/09/16 16:15:31  5-MIN KAOH 092115Z AUTO 32012KT 10SM FEW047 BKN055 24/16 A2999 920 59 2300 320/12 RMK AO2 T02440161
04850KAOH AOH20160709162011807/09/16 16:20:31  5-MIN KAOH 092120Z AUTO 31011KT 10SM FEW047 BKN060 24/16 A2999 910 59 2300 310/11 RMK AO2 T02440161
04850KAOH AOH20160709162511807/09/16 16:25:31  5-MIN KAOH 092125Z AUTO 30011KT 10SM FEW047 BKN060 25/16 A2999 910 57 2300 310/11 RMK AO2 T02500161
04850KAOH AOH20160709163012407/09/16 16:30:31  5-MIN KAOH 092130Z AUTO 30013G18KT 10SM FEW047 BKN060 25/16 A2999 920 57 2300 310/13G18 RMK AO2 T02500161
04850KAOH AOH20160709163512407/09/16 16:35:31  5-MIN KAOH 092135Z AUTO 33010G18KT 10SM FEW047 BKN060 25/16 A2999 920 57 2300 340/10G18 RMK AO2 T02500161
04850KAOH AOH20160709164011807/09/16 16:40:31  5-MIN KAOH 092140Z AUTO 30011KT 10SM FEW047 BKN060 24/16 A2999 920 59 2300 310/11 RMK AO2 T02440161
04850KAOH AOH20160709164511807/09/16 16:45:31  5-MIN KAOH 092145Z AUTO 31010KT 10SM FEW046 BKN055 24/16 A2999 920 59 2200 320/10 RMK AO2 T02390156
04850KAOH AOH20160709165012507/09/16 16:50:31  5-MIN KAOH 092150Z AUTO 33009KT 10SM FEW046 BKN060 24/16 A2999 920 61 2200 340/09 RMK AO2 SLP148 T02390161
04850KAOH AOH20160709165511807/09/16 16:55:31  5-MIN KAOH 092155Z AUTO 33009KT 10SM FEW046 BKN060 24/16 A2999 920 59 2200 330/09 RMK AO2 T02390156
04850KAOH AOH20160709170011807/09/16 17:00:31  5-MIN KAOH 092200Z AUTO 32007KT 10SM FEW046 OVC060 24/16 A2999 920 61 2200 330/07 RMK AO2 T02390161
04850KAOH AOH20160709170511807/09/16 17:05:31  5-MIN KAOH 092205Z AUTO 29010KT 10SM FEW046 OVC060 24/16 A2999 910 61 2200 300/10 RMK AO2 T02390161
04850KAOH AOH20160709171011807/09/16 17:10:31  5-MIN KAOH 092210Z AUTO 31010KT 10SM FEW046 OVC060 24/16 A2999 920 59 2200 320/10 RMK AO2 T02390156
04850KAOH AOH20160709171511807/09/16 17:15:31  5-MIN KAOH 092215Z AUTO 30009KT 10SM FEW049 OVC060 24/16 A2999 920 61 2200 310/09 RMK AO2 T02390161
04850KAOH AOH20160709172011807/09/16 17:20:31  5-MIN KAOH 092220Z AUTO 32010KT 10SM FEW049 OVC060 24/16 A2998 920 59 2200 320/10 RMK AO2 T02390156
04850KAOH AOH20160709172511107/09/16 17:25:31  5-MIN KAOH 092225Z AUTO 32009KT 10SM BKN060 24/16 A2998 920 59 2300 330/09 RMK AO2 T02440161
04850KAOH AOH20160709173011107/09/16 17:30:31  5-MIN KAOH 092230Z AUTO 31010KT 10SM BKN060 24/16 A2998 920 61 2200 320/10 RMK AO2 T02390161
04850KAOH AOH20160709173511107/09/16 17:35:31  5-MIN KAOH 092235Z AUTO 31010KT 10SM BKN060 24/16 A2998 920 61 2200 320/10 RMK AO2 T02390161
04850KAOH AOH20160709174011107/09/16 17:40:31  5-MIN KAOH 092240Z AUTO 31008KT 10SM BKN060 24/16 A2998 920 59 2300 310/08 RMK AO2 T02440161
04850KAOH AOH20160709174511107/09/16 17:45:31  5-MIN KAOH 092245Z AUTO 32010KT 10SM BKN060 25/17 A2998 920 59 2300 330/10 RMK AO2 T02500167
04850KAOH AOH20160709175011807/09/16 17:50:31  5-MIN KAOH 092250Z AUTO 33008KT 10SM BKN065 24/16 A2998 920 59 2300 330/08 RMK AO2 SLP146 T02440161
04850KAOH AOH20160709175511107/09/16 17:55:31  5-MIN KAOH 092255Z AUTO 32011KT 10SM BKN065 24/16 A2998 920 59 2200 320/11 RMK AO2 T02390156
04850KAOH AOH20160709180011107/09/16 18:00:31  5-MIN KAOH 092300Z AUTO 32009KT 10SM BKN065 24/16 A2998 920 57 2300 330/09 RMK AO2 T02440156
04850KAOH AOH20160709180511107/09/16 18:05:31  5-MIN KAOH 092305Z AUTO 31011KT 10SM BKN065 24/16 A2998 920 59 2300 320/11 RMK AO2 T02440161
04850KAOH AOH20160709181011107/09/16 18:10:31  5-MIN KAOH 092310Z AUTO 31011KT 10SM BKN065 24/16 A2998 920 59 2300 320/11 RMK AO2 T02440161
04850KAOH AOH20160709181512707/09/16 18:15:31  5-MIN KAOH 092315Z AUTO 32009KT 290V350 10SM SCT065 24/16 A2998 920 59 2300 320/09 300V360 RMK AO2 T02440161
04850KAOH AOH20160709182011107/09/16 18:20:31  5-MIN KAOH 092320Z AUTO 33009KT 10SM BKN065 24/16 A2998 920 59 2300 340/09 RMK AO2 T02440161
04850KAOH AOH20160709182511107/09/16 18:25:31  5-MIN KAOH 092325Z AUTO 32007KT 10SM BKN065 24/16 A2998 920 61 2200 330/07 RMK AO2 T02390161
04850KAOH AOH20160709183011107/09/16 18:30:31  5-MIN KAOH 092330Z AUTO 32012KT 10SM BKN065 24/16 A2998 920 59 2300 320/12 RMK AO2 T02440161
04850KAOH AOH20160709183511707/09/16 18:35:31  5-MIN KAOH 092335Z AUTO 32014G18KT 10SM BKN065 24/16 A2999 920 59 2200 320/14G18 RMK AO2 T02390156
04850KAOH AOH20160709184011107/09/16 18:40:31  5-MIN KAOH 092340Z AUTO 31012KT 10SM BKN065 23/16 A2999 920 61 2100 320/12 RMK AO2 T02330156
04850KAOH AOH20160709184511107/09/16 18:45:31  5-MIN KAOH 092345Z AUTO 32008KT 10SM BKN065 23/16 A2999 910 63 2100 320/08 RMK AO2 T02330161
04850KAOH AOH20160709185013607/09/16 18:50:31  5-MIN KAOH 092350Z AUTO 32008KT 10SM BKN065 23/16 A2999 910 63 2100 320/08 RMK AO2 SLP149 T02330161 10250 20233 53006
04850KAOH AOH20160709185511107/09/16 18:55:31  5-MIN KAOH 092355Z AUTO 31010KT 10SM BKN065 23/16 A2999 910 61 2100 320/10 RMK AO2 T02330156
04850KAOH AOH20160709190011107/09/16 19:00:31  5-MIN KAOH 100000Z AUTO 33009KT 10SM BKN065 23/16 A2999 910 63 2100 330/09 RMK AO2 T02330161
04850KAOH AOH20160709190511107/09/16 19:05:31  5-MIN KAOH 100005Z AUTO 33007KT 10SM BKN065 23/16 A2999 910 63 2100 330/07 RMK AO2 T02330161
04850KAOH AOH20160709191011107/09/16 19:10:31  5-MIN KAOH 100010Z AUTO 34007KT 10SM OVC065 24/16 A2999 910 61 2200 340/07 RMK AO2 T02390161
04850KAOH AOH20160709191511107/09/16 19:15:31  5-MIN KAOH 100015Z AUTO 32009KT 10SM OVC065 24/16 A2999 910 61 2200 330/09 RMK AO2 T02390161
04850KAOH AOH20160709192011107/09/16 19:20:31  5-MIN KAOH 100020Z AUTO 33012KT 10SM OVC065 23/16 A2999 910 63 2100 330/12 RMK AO2 T02330161
04850KAOH AOH20160709192511107/09/16 19:25:31  5-MIN KAOH 100025Z AUTO 32009KT 10SM BKN065 23/16 A2999 910 63 2100 330/09 RMK AO2 T02330161
04850KAOH AOH20160709193011107/09/16 19:30:31  5-MIN KAOH 100030Z AUTO 32010KT 10SM BKN065 23/16 A2999 920 63 2100 330/10 RMK AO2 T02330161
04850KAOH AOH20160709193511107/09/16 19:35:31  5-MIN KAOH 100035Z AUTO 32009KT 10SM SCT065 23/16 A2999 920 63 2100 330/09 RMK AO2 T02280156
04850KAOH AOH20160709194011107/09/16 19:40:31  5-MIN KAOH 100040Z AUTO 32009KT 10SM SCT065 23/16 A2999 910 63 2100 330/09 RMK AO2 T02280156
04850KAOH AOH20160709194511107/09/16 19:45:31  5-MIN KAOH 100045Z AUTO 32010KT 10SM FEW065 23/16 A2999 910 63 2100 330/10 RMK AO2 T02280156
04850KAOH AOH20160709195011507/09/16 19:50:31  5-MIN KAOH 100050Z AUTO 32008KT 10SM CLR 22/16 A2999 910 65 2000 330/08 RMK AO2 SLP150 T02220156
04850KAOH AOH20160709195511107/09/16 19:55:31  5-MIN KAOH 100055Z AUTO 31008KT 10SM FEW060 23/16 A2999 910 63 2100 320/08 RMK AO2 T02280156
04850KAOH AOH20160709200011107/09/16 20:00:31  5-MIN KAOH 100100Z AUTO 32008KT 10SM FEW060 22/16 A2999 910 68 2000 320/08 RMK AO2 T02220161
04850KAOH AOH20160709200511107/09/16 20:05:31  5-MIN KAOH 100105Z AUTO 32009KT 10SM FEW060 23/16 A3000 910 61 2100 320/09 RMK AO2 T02330156
04850KAOH AOH20160709201011107/09/16 20:10:31  5-MIN KAOH 100110Z AUTO 32007KT 10SM FEW060 22/16 A3000 910 70 1900 320/07 RMK AO2 T02170161
04850KAOH AOH20160709201511107/09/16 20:15:31  5-MIN KAOH 100115Z AUTO 32007KT 10SM FEW060 22/16 A3000 910 70 1900 330/07 RMK AO2 T02170161
04850KAOH AOH20160709202011107/09/16 20:20:31  5-MIN KAOH 100120Z AUTO 31006KT 10SM SCT060 22/16 A2999 910 70 1900 320/06 RMK AO2 T02170161
04850KAOH AOH20160709202511107/09/16 20:25:31  5-MIN KAOH 100125Z AUTO 31006KT 10SM SCT060 21/16 A2999 910 73 1900 320/06 RMK AO2 T02110161
04850KAOH AOH20160709203011107/09/16 20:30:31  5-MIN KAOH 100130Z AUTO 31006KT 10SM FEW060 21/17 A2999 910 78 1800 320/06 RMK AO2 T02060167
04850KAOH AOH20160709203511107/09/16 20:35:31  5-MIN KAOH 100135Z AUTO 31006KT 10SM FEW060 21/17 A3000 910 78 1800 310/06 RMK AO2 T02060167
04850KAOH AOH20160709204011107/09/16 20:40:31  5-MIN KAOH 100140Z AUTO 30005KT 10SM FEW060 20/17 A3000 900 81 1700 310/05 RMK AO2 T02000167
04850KAOH AOH20160709204511107/09/16 20:45:31  5-MIN KAOH 100145Z AUTO 31005KT 10SM FEW060 20/17 A3000 900 81 1700 310/05 RMK AO2 T02000167
04850KAOH AOH20160709205011507/09/16 20:50:31  5-MIN KAOH 100150Z AUTO 30005KT 10SM CLR 20/17 A3000 900 81 1700 310/05 RMK AO2 SLP154 T02000167
04850KAOH AOH20160709205510807/09/16 20:55:31  5-MIN KAOH 100155Z AUTO 29005KT 10SM CLR 19/17 A3001 900 84 1700 300/05 RMK AO2 T01940167
04850KAOH AOH20160709210010807/09/16 21:00:31  5-MIN KAOH 100200Z AUTO 30006KT 10SM CLR 19/17 A3001 900 84 1700 310/06 RMK AO2 T01940167
04850KAOH AOH20160709210510807/09/16 21:05:31  5-MIN KAOH 100205Z AUTO 31005KT 10SM CLR 19/17 A3001 900 84 1700 310/05 RMK AO2 T01940167
04850KAOH AOH20160709211010807/09/16 21:10:31  5-MIN KAOH 100210Z AUTO 31005KT 10SM CLR 19/17 A3001 900 84 1700 320/05 RMK AO2 T01940167
04850KAOH AOH20160709211510807/09/16 21:15:31  5-MIN KAOH 100215Z AUTO 31004KT 10SM CLR 19/17 A3001 900 84 1700 310/04 RMK AO2 T01940167
04850KAOH AOH20160709212010807/09/16 21:20:31  5-MIN KAOH 100220Z AUTO 31004KT 10SM CLR 19/17 A3001 890 84 1700 310/04 RMK AO2 T01940167
04850KAOH AOH20160709212510807/09/16 21:25:31  5-MIN KAOH 100225Z AUTO 31004KT 10SM CLR 19/16 A3001 890 81 1700 310/04 RMK AO2 T01940161
04850KAOH AOH20160709213010807/09/16 21:30:31  5-MIN KAOH 100230Z AUTO 30004KT 10SM CLR 19/17 A3002 890 84 1700 310/04 RMK AO2 T01940167
04850KAOH AOH20160709213510807/09/16 21:35:31  5-MIN KAOH 100235Z AUTO 30004KT 10SM CLR 19/17 A3001 890 84 1700 300/04 RMK AO2 T01940167
04850KAOH AOH20160709214010807/09/16 21:40:31  5-MIN KAOH 100240Z AUTO 29005KT 10SM CLR 19/16 A3001 890 81 1700 300/05 RMK AO2 T01940161
04850KAOH AOH20160709214510807/09/16 21:45:31  5-MIN KAOH 100245Z AUTO 29005KT 10SM CLR 19/17 A3002 890 84 1700 290/05 RMK AO2 T01940167
04850KAOH AOH20160709215012107/09/16 21:50:31  5-MIN KAOH 100250Z AUTO 30006KT 10SM CLR 19/17 A3002 890 84 1700 300/06 RMK AO2 SLP159 T01940167 53003
04850KAOH AOH20160709215510807/09/16 21:55:31  5-MIN KAOH 100255Z AUTO 29006KT 10SM CLR 19/17 A3002 880 87 1600 290/06 RMK AO2 T01890167
04850KAOH AOH20160709220010807/09/16 22:00:31  5-MIN KAOH 100300Z AUTO 28006KT 10SM CLR 19/17 A3002 890 87 1600 290/06 RMK AO2 T01890167
04850KAOH AOH20160709220510807/09/16 22:05:31  5-MIN KAOH 100305Z AUTO 29005KT 10SM CLR 19/17 A3002 880 87 1600 300/05 RMK AO2 T01890167
04850KAOH AOH20160709221010807/09/16 22:10:31  5-MIN KAOH 100310Z AUTO 29005KT 10SM CLR 19/17 A3002 880 87 1600 300/05 RMK AO2 T01890167
04850KAOH AOH20160709221510807/09/16 22:15:31  5-MIN KAOH 100315Z AUTO 28004KT 10SM CLR 18/17 A3002 880 90 1500 280/04 RMK AO2 T01830167
04850KAOH AOH20160709222010807/09/16 22:20:31  5-MIN KAOH 100320Z AUTO 28005KT 10SM CLR 18/17 A3003 880 90 1500 290/05 RMK AO2 T01830167
04850KAOH AOH20160709222510807/09/16 22:25:31  5-MIN KAOH 100325Z AUTO 28005KT 10SM CLR 19/17 A3003 880 87 1600 290/05 RMK AO2 T01890167
04850KAOH AOH20160709223010807/09/16 22:30:31  5-MIN KAOH 100330Z AUTO 28005KT 10SM CLR 18/17 A3003 880 90 1500 290/05 RMK AO2 T01830167
04850KAOH AOH20160709223510807/09/16 22:35:31  5-MIN KAOH 100335Z AUTO 29005KT 10SM CLR 18/17 A3003 880 90 1500 290/05 RMK AO2 T01830167
04850KAOH AOH20160709224010807/09/16 22:40:31  5-MIN KAOH 100340Z AUTO 29004KT 10SM CLR 18/17 A3003 880 90 1500 300/04 RMK AO2 T01830167
04850KAOH AOH20160709224510807/09/16 22:45:31  5-MIN KAOH 100345Z AUTO 30004KT 10SM CLR 18/17 A3003 880 90 1500 300/04 RMK AO2 T01830167
04850KAOH AOH20160709225011507/09/16 22:50:31  5-MIN KAOH 100350Z AUTO 30004KT 10SM CLR 18/17 A3003 880 90 1500 310/04 RMK AO2 SLP163 T01830167
04850KAOH AOH20160709225510807/09/16 22:55:31  5-MIN KAOH 100355Z AUTO 29005KT 10SM CLR 18/16 A3003 870 87 1500 300/05 RMK AO2 T01830161
04850KAOH AOH20160709230010807/09/16 23:00:31  5-MIN KAOH 100400Z AUTO 29005KT 10SM CLR 18/17 A3003 870 90 1500 300/05 RMK AO2 T01830167
04850KAOH AOH20160709230510807/09/16 23:05:31  5-MIN KAOH 100405Z AUTO 29005KT 10SM CLR 18/17 A3004 870 90 1500 300/05 RMK AO2 T01830167
04850KAOH AOH20160709231010807/09/16 23:10:31  5-MIN KAOH 100410Z AUTO 29005KT 10SM CLR 18/17 A3004 870 93 1400 290/05 RMK AO2 T01780167
04850KAOH AOH20160709231510807/09/16 23:15:31  5-MIN KAOH 100415Z AUTO 29004KT 10SM CLR 18/17 A3004 860 93 1400 290/04 RMK AO2 T01780167
04850KAOH AOH20160709232010807/09/16 23:20:31  5-MIN KAOH 100420Z AUTO 28004KT 10SM CLR 18/17 A3004 860 93 1400 290/04 RMK AO2 T01780167
04850KAOH AOH20160709232510807/09/16 23:25:31  5-MIN KAOH 100425Z AUTO 28004KT 10SM CLR 18/16 A3005 860 87 1500 290/04 RMK AO2 T01830161
04850KAOH AOH20160709233010807/09/16 23:30:31  5-MIN KAOH 100430Z AUTO 28004KT 10SM CLR 18/17 A3005 860 93 1400 290/04 RMK AO2 T01780167
04850KAOH AOH20160709233510807/09/16 23:35:31  5-MIN KAOH 100435Z AUTO 28004KT 10SM CLR 18/16 A3004 860 90 1400 290/04 RMK AO2 T01780161
04850KAOH AOH20160709234010807/09/16 23:40:31  5-MIN KAOH 100440Z AUTO 29004KT 10SM CLR 18/16 A3004 870 90 1400 290/04 RMK AO2 T01780161
04850KAOH AOH20160709234510807/09/16 23:45:31  5-MIN KAOH 100445Z AUTO 28004KT 10SM CLR 18/16 A3004 870 90 1400 290/04 RMK AO2 T01780161
04850KAOH AOH20160709235012507/09/16 23:50:31  5-MIN KAOH 100450Z AUTO 28005KT 10SM CLR 17/16 A3004 860 93 1400 280/05 RMK AO2 SLP169 T01720161 402500172
04850KAOH AOH20160709235510807/09/16 23:55:31  5-MIN KAOH 100455Z AUTO 27006KT 10SM CLR 17/16 A3004 860 93 1400 280/06 RMK AO2 T01720161
04850KAOH AOH20160710000010807/10/16 00:00:31  5-MIN KAOH 100500Z AUTO 27005KT 10SM CLR 17/16 A3005 860 93 1400 280/05 RMK AO2 T01720161
04850KAOH AOH20160710000510807/10/16 00:05:31  5-MIN KAOH 100505Z AUTO 28005KT 10SM CLR 17/16 A3005 860 93 1400 290/05 RMK AO2 T01720161
04850KAOH AOH20160710001010807/10/16 00:10:31  5-MIN KAOH 100510Z AUTO 29005KT 10SM CLR 18/16 A3005 860 90 1400 300/05 RMK AO2 T01780161
04850KAOH AOH20160710001510807/10/16 00:15:31  5-MIN KAOH 100515Z AUTO 29005KT 10SM CLR 17/16 A3005 860 93 1400 290/05 RMK AO2 T01720161
04850KAOH AOH20160710002010807/10/16 00:20:31  5-MIN KAOH 100520Z AUTO 27005KT 10SM CLR 17/16 A3005 860 93 1400 280/05 RMK AO2 T01720161
04850KAOH AOH20160710002510807/10/16 00:25:31  5-MIN KAOH 100525Z AUTO 28005KT 10SM CLR 17/16 A3005 860 93 1400 280/05 RMK AO2 T01720161
04850KAOH AOH20160710003010807/10/16 00:30:31  5-MIN KAOH 100530Z AUTO 28005KT 10SM CLR 17/16 A3005 860 93 1400 290/05 RMK AO2 T01720161
04850KAOH AOH20160710003510807/10/16 00:35:31  5-MIN KAOH 100535Z AUTO 27005KT 10SM CLR 17/16 A3004 860 93 1400 280/05 RMK AO2 T01720161
04850KAOH AOH20160710004010807/10/16 00:40:31  5-MIN KAOH 100540Z AUTO 29005KT 10SM CLR 17/16 A3004 870 93 1400 290/05 RMK AO2 T01720161
04850KAOH AOH20160710004510807/10/16 00:45:31  5-MIN KAOH 100545Z AUTO 31004KT 10SM CLR 17/16 A3004 870 93 1400 320/04 RMK AO2 T01720161
04850KAOH AOH20160710005013307/10/16 00:50:31  5-MIN KAOH 100550Z AUTO 33005KT 10SM CLR 17/16 A3004 870 93 1400 340/05 RMK AO2 SLP166 T01720161 10239 20172 53010
04850KAOH AOH20160710005510807/10/16 00:55:31  5-MIN KAOH 100555Z AUTO 33007KT 10SM CLR 18/16 A3004 870 90 1400 330/07 RMK AO2 T01780161
04850KAOH AOH20160710010010807/10/16 01:00:31  5-MIN KAOH 100600Z AUTO 33007KT 10SM CLR 18/16 A3004 870 90 1400 330/07 RMK AO2 T01780161
04850KAOH AOH20160710010510807/10/16 01:05:31  5-MIN KAOH 100605Z AUTO 32008KT 10SM CLR 18/16 A3004 870 87 1500 330/08 RMK AO2 T01830161
04850KAOH AOH20160710011010807/10/16 01:10:31  5-MIN KAOH 100610Z AUTO 32006KT 10SM CLR 18/16 A3004 870 87 1500 330/06 RMK AO2 T01830161
04850KAOH AOH20160710011510807/10/16 01:15:31  5-MIN KAOH 100615Z AUTO 33006KT 10SM CLR 18/16 A3004 870 87 1500 330/06 RMK AO2 T01830161
04850KAOH AOH20160710012010807/10/16 01:20:31  5-MIN KAOH 100620Z AUTO 33006KT 10SM CLR 18/16 A3003 870 87 1500 330/06 RMK AO2 T01830161
04850KAOH AOH20160710012510807/10/16 01:25:31  5-MIN KAOH 100625Z AUTO 32006KT 10SM CLR 18/16 A3003 870 87 1500 330/06 RMK AO2 T01830161
04850KAOH AOH20160710013010807/10/16 01:30:31  5-MIN KAOH 100630Z AUTO 33005KT 10SM CLR 18/16 A3003 870 87 1500 340/05 RMK AO2 T01830161
04850KAOH AOH20160710013510807/10/16 01:35:31  5-MIN KAOH 100635Z AUTO 32005KT 10SM CLR 18/16 A3003 870 87 1500 330/05 RMK AO2 T01830161
04850KAOH AOH20160710014010807/10/16 01:40:31  5-MIN KAOH 100640Z AUTO 32006KT 10SM CLR 18/16 A3003 870 87 1500 330/06 RMK AO2 T01830161
04850KAOH AOH20160710014510807/10/16 01:45:31  5-MIN KAOH 100645Z AUTO 33005KT 10SM CLR 18/16 A3003 870 87 1500 330/05 RMK AO2 T01830161
04850KAOH AOH20160710015011507/10/16 01:50:31  5-MIN KAOH 100650Z AUTO 33005KT 10SM CLR 18/16 A3003 880 90 1400 330/05 RMK AO2 SLP163 T01780161
04850KAOH AOH20160710015510807/10/16 01:55:31  5-MIN KAOH 100655Z AUTO 33006KT 10SM CLR 18/16 A3003 870 90 1400 330/06 RMK AO2 T01780161
04850KAOH AOH20160710020010807/10/16 02:00:31  5-MIN KAOH 100700Z AUTO 33005KT 10SM CLR 18/16 A3003 870 90 1400 340/05 RMK AO2 T01780161
04850KAOH AOH20160710020510807/10/16 02:05:31  5-MIN KAOH 100705Z AUTO 32005KT 10SM CLR 18/16 A3003 870 90 1400 320/05 RMK AO2 T01780161
04850KAOH AOH20160710021010807/10/16 02:10:31  5-MIN KAOH 100710Z AUTO 33005KT 10SM CLR 18/16 A3003 870 90 1400 330/05 RMK AO2 T01780161
04850KAOH AOH20160710021510807/10/16 02:15:31  5-MIN KAOH 100715Z AUTO 31004KT 10SM CLR 17/16 A3004 870 93 1400 320/04 RMK AO2 T01720161
04850KAOH AOH20160710022010807/10/16 02:20:31  5-MIN KAOH 100720Z AUTO 32006KT 10SM CLR 17/16 A3004 870 93 1400 320/06 RMK AO2 T01720161
04850KAOH AOH20160710022510807/10/16 02:25:31  5-MIN KAOH 100725Z AUTO 31006KT 10SM CLR 17/16 A3004 870 93 1400 320/06 RMK AO2 T01720161
04850KAOH AOH20160710123511107/10/16 12:35:31  5-MIN KAOH 101735Z AUTO 00000KT 10SM FEW044 25/16 A3009 820 57 2200 000/00 RMK AO2 T02500161
04850KAOH AOH20160710124011107/10/16 12:40:31  5-MIN KAOH 101740Z AUTO 00000KT 10SM FEW044 26/17 A3009 820 57 2300 000/00 RMK AO2 T02560167
04850KAOH AOH20160710124511107/10/16 12:45:31  5-MIN KAOH 101745Z AUTO 18003KT 10SM FEW047 26/17 A3009 820 59 2300 190/03 RMK AO2 T02560172
04850KAOH AOH20160710125013307/10/16 12:50:31  5-MIN KAOH 101750Z AUTO VRB03KT 10SM CLR 26/17 A3009 820 55 2300 VRB/03 RMK AO2 SLP184 T02610167 10261 20183 50005
04850KAOH AOH20160710125510807/10/16 12:55:31  5-MIN KAOH 101755Z AUTO 00000KT 10SM CLR 27/17 A3009 820 55 2400 000/00 RMK AO2 T02670172
04850KAOH AOH20160710130009807/10/16 13:00:31  5-MIN KAOH 101800Z AUTO 10SM CLR 26/18 A3009 820 59 2300 M /M RMK AO2 T02610178
04850KAOH AOH20160710130510807/10/16 13:05:31  5-MIN KAOH 101805Z AUTO 28004KT 10SM CLR 26/17 A3009 820 57 2300 290/04 RMK AO2 T02610172
04850KAOH AOH20160710131010807/10/16 13:10:31  5-MIN KAOH 101810Z AUTO 22003KT 10SM CLR 26/17 A3009 820 55 2300 230/03 RMK AO2 T02610167
04850KAOH AOH20160710131511107/10/16 13:15:31  5-MIN KAOH 101815Z AUTO 00000KT 10SM FEW047 26/17 A3009 820 55 2300 000/00 RMK AO2 T02610167
04850KAOH AOH20160710132011807/10/16 13:20:31  5-MIN KAOH 101820Z AUTO VRB03KT 10SM SCT045 BKN055 27/17 A3009 820 53 2400 VRB/03 RMK AO2 T02670167
04850KAOH AOH20160710132511807/10/16 13:25:31  5-MIN KAOH 101825Z AUTO 03004KT 10SM SCT047 BKN055 26/17 A3008 830 57 2300 040/04 RMK AO2 T02610172
04850KAOH AOH20160710133011107/10/16 13:30:31  5-MIN KAOH 101830Z AUTO 02004KT 10SM BKN049 26/18 A3008 830 59 2300 030/04 RMK AO2 T02610178
04850KAOH AOH20160710133511807/10/16 13:35:31  5-MIN KAOH 101835Z AUTO 01006KT 10SM BKN049 OVC055 27/17 A3008 830 55 2400 020/06 RMK AO2 T02670172
04850KAOH AOH20160710134012507/10/16 13:40:31  5-MIN KAOH 101840Z AUTO 01006KT 10SM FEW045 BKN055 OVC070 27/17 A3008 830 55 2400 020/06 RMK AO2 T02670172
04850KAOH AOH20160710134511807/10/16 13:45:31  5-MIN KAOH 101845Z AUTO 02005KT 10SM BKN050 OVC070 26/17 A3008 830 57 2300 020/05 RMK AO2 T02560167
04850KAOH AOH20160710135012507/10/16 13:50:31  5-MIN KAOH 101850Z AUTO 01003KT 10SM SCT050 BKN070 26/17 A3008 830 59 2300 010/03 RMK AO2 SLP178 T02560172
04850KAOH AOH20160710135511807/10/16 13:55:31  5-MIN KAOH 101855Z AUTO 04003KT 10SM BKN055 BKN070 26/17 A3008 830 57 2300 040/03 RMK AO2 T02560167
04850KAOH AOH20160710140011807/10/16 14:00:31  5-MIN KAOH 101900Z AUTO 36003KT 10SM BKN060 BKN070 26/17 A3007 830 57 2300 360/03 RMK AO2 T02560167
04850KAOH AOH20160710140511107/10/16 14:05:31  5-MIN KAOH 101905Z AUTO 35003KT 10SM BKN065 26/17 A3007 840 57 2300 350/03 RMK AO2 T02560167
04850KAOH AOH20160710141011107/10/16 14:10:31  5-MIN KAOH 101910Z AUTO 36003KT 10SM BKN065 26/17 A3007 840 55 2300 010/03 RMK AO2 T02610167
04850KAOH AOH20160710141511807/10/16 14:15:31  5-MIN KAOH 101915Z AUTO 00000KT 10SM SCT060 BKN070 27/17 A3007 840 53 2400 000/00 RMK AO2 T02670167
04850KAOH AOH20160710142011807/10/16 14:20:31  5-MIN KAOH 101920Z AUTO 14003KT 10SM FEW060 SCT070 27/17 A3007 840 53 2400 150/03 RMK AO2 T02670167
04850KAOH AOH20160710142511107/10/16 14:25:31  5-MIN KAOH 101925Z AUTO 01003KT 10SM SCT070 27/17 A3007 840 54 2500 010/03 RMK AO2 T02720172
04850KAOH AOH20160710143011107/10/16 14:30:31  5-MIN KAOH 101930Z AUTO 33003KT 10SM FEW070 27/17 A3007 840 53 2400 340/03 RMK AO2 T02670167
04850KAOH AOH20160710143511107/10/16 14:35:31  5-MIN KAOH 101935Z AUTO 35003KT 10SM FEW070 27/17 A3006 840 53 2400 360/03 RMK AO2 T02670167
04850KAOH AOH20160710144010807/10/16 14:40:31  5-MIN KAOH 101940Z AUTO 34003KT 10SM CLR 26/17 A3006 850 55 2400 340/03 RMK AO2 T02610167
04850KAOH AOH20160710144510807/10/16 14:45:31  5-MIN KAOH 101945Z AUTO 32003KT 10SM CLR 27/17 A3006 850 53 2400 330/03 RMK AO2 T02670167
04850KAOH AOH20160710145011507/10/16 14:50:31  5-MIN KAOH 101950Z AUTO 00000KT 10SM CLR 27/16 A3006 850 50 2400 000/00 RMK AO2 SLP173 T02670156
04850KAOH AOH20160710145510807/10/16 14:55:31  5-MIN KAOH 101955Z AUTO 30004KT 10SM CLR 27/16 A3006 850 52 2400 300/04 RMK AO2 T02670161
04850KAOH AOH20160710150010807/10/16 15:00:31  5-MIN KAOH 102000Z AUTO 00000KT 10SM CLR 27/16 A3006 850 52 2400 000/00 RMK AO2 T02670161
04850KAOH AOH20160710150510807/10/16 15:05:31  5-MIN KAOH 102005Z AUTO 00000KT 10SM CLR 27/17 A3006 850 53 2400 000/00 RMK AO2 T02670167
04850KAOH AOH20160710151010807/10/16 15:10:31  5-MIN KAOH 102010Z AUTO VRB04KT 10SM CLR 27/17 A3006 850 55 2400 VRB/04 RMK AO2 T02670172
04850KAOH AOH20160710151510807/10/16 15:15:31  5-MIN KAOH 102015Z AUTO 00000KT 10SM CLR 27/16 A3006 850 52 2400 000/00 RMK AO2 T02670161
04850KAOH AOH20160710152010807/10/16 15:20:31  5-MIN KAOH 102020Z AUTO 33004KT 10SM CLR 27/17 A3006 850 52 2500 340/04 RMK AO2 T02720167
04850KAOH AOH20160710152510807/10/16 15:25:31  5-MIN KAOH 102025Z AUTO VRB03KT 10SM CLR 27/17 A3006 850 54 2500 VRB/03 RMK AO2 T02720172
04850KAOH AOH20160710153010807/10/16 15:30:31  5-MIN KAOH 102030Z AUTO VRB03KT 10SM CLR 27/17 A3006 850 54 2500 VRB/03 RMK AO2 T02720172
04850KAOH AOH20160710153510807/10/16 15:35:31  5-MIN KAOH 102035Z AUTO VRB03KT 10SM CLR 27/17 A3006 850 52 2500 VRB/03 RMK AO2 T02720167
04850KAOH AOH20160710154010807/10/16 15:40:31  5-MIN KAOH 102040Z AUTO 26005KT 10SM CLR 27/17 A3006 850 52 2500 260/05 RMK AO2 T02720167
04850KAOH AOH20160710154510807/10/16 15:45:31  5-MIN KAOH 102045Z AUTO VRB03KT 10SM CLR 27/17 A3006 850 54 2500 VRB/03 RMK AO2 T02720172
04850KAOH AOH20160710155012407/10/16 15:50:31  5-MIN KAOH 102050Z AUTO 36005KT 10SM FEW049 27/17 A3006 850 54 2500 010/05 RMK AO2 SLP172 T02720172 55000
04850KAOH AOH20160710155511107/10/16 15:55:31  5-MIN KAOH 102055Z AUTO 36003KT 10SM SCT049 27/17 A3006 850 52 2500 360/03 RMK AO2 T02720167
04850KAOH AOH20160710160011107/10/16 16:00:31  5-MIN KAOH 102100Z AUTO 03004KT 10SM FEW049 27/17 A3005 850 52 2500 040/04 RMK AO2 T02720167
04850KAOH AOH20160710160511107/10/16 16:05:31  5-MIN KAOH 102105Z AUTO VRB03KT 10SM FEW049 27/17 A3005 860 54 2500 VRB/03 RMK AO2 T02720172
04850KAOH AOH20160710161011107/10/16 16:10:31  5-MIN KAOH 102110Z AUTO 33005KT 10SM FEW049 27/17 A3005 860 54 2500 330/05 RMK AO2 T02720172
04850KAOH AOH20160710161511107/10/16 16:15:31  5-MIN KAOH 102115Z AUTO 31003KT 10SM FEW049 27/17 A3005 860 54 2500 320/03 RMK AO2 T02720172
04850KAOH AOH20160710162011107/10/16 16:20:31  5-MIN KAOH 102120Z AUTO 28003KT 10SM FEW049 27/17 A3005 860 53 2400 290/03 RMK AO2 T02670167
04850KAOH AOH20160710162510807/10/16 16:25:31  5-MIN KAOH 102125Z AUTO 33004KT 10SM CLR 27/17 A3005 860 52 2500 330/04 RMK AO2 T02720167
04850KAOH AOH20160710163010807/10/16 16:30:31  5-MIN KAOH 102130Z AUTO 00000KT 10SM CLR 27/16 A3005 860 50 2500 000/00 RMK AO2 T02720161
04850KAOH AOH20160710163510807/10/16 16:35:31  5-MIN KAOH 102135Z AUTO 32004KT 10SM CLR 27/16 A3005 860 50 2500 330/04 RMK AO2 T02720161
04850KAOH AOH20160710164010807/10/16 16:40:31  5-MIN KAOH 102140Z AUTO 00000KT 10SM CLR 27/16 A3004 860 50 2500 000/00 RMK AO2 T02720161
04850KAOH AOH20160710164510807/10/16 16:45:31  5-MIN KAOH 102145Z AUTO 00000KT 10SM CLR 27/16 A3004 860 50 2500 000/00 RMK AO2 T02720161
04850KAOH AOH20160710165011507/10/16 16:50:31  5-MIN KAOH 102150Z AUTO 34004KT 10SM CLR 27/16 A3004 860 50 2500 340/04 RMK AO2 SLP167 T02720161
04850KAOH AOH20160710165510807/10/16 16:55:31  5-MIN KAOH 102155Z AUTO 01003KT 10SM CLR 27/16 A3004 860 50 2500 010/03 RMK AO2 T02720161
04850KAOH AOH20160710170010807/10/16 17:00:31  5-MIN KAOH 102200Z AUTO 03003KT 10SM CLR 27/16 A3004 860 50 2500 030/03 RMK AO2 T02720161
04850KAOH AOH20160710170510807/10/16 17:05:31  5-MIN KAOH 102205Z AUTO 00000KT 10SM CLR 27/16 A3004 860 48 2500 000/00 RMK AO2 T02720156
04850KAOH AOH20160710171010807/10/16 17:10:31  5-MIN KAOH 102210Z AUTO 00000KT 10SM CLR 28/16 A3004 860 46 2600 000/00 RMK AO2 T02780156
04850KAOH AOH20160710171510807/10/16 17:15:31  5-MIN KAOH 102215Z AUTO 00000KT 10SM CLR 28/17 A3004 860 50 2600 000/00 RMK AO2 T02780167
04850KAOH AOH20160710172010807/10/16 17:20:31  5-MIN KAOH 102220Z AUTO 06004KT 10SM CLR 28/17 A3004 870 50 2600 070/04 RMK AO2 T02780167
04850KAOH AOH20160710172510807/10/16 17:25:31  5-MIN KAOH 102225Z AUTO 00000KT 10SM CLR 27/16 A3004 870 48 2500 000/00 RMK AO2 T02720156
04850KAOH AOH20160710173010807/10/16 17:30:31  5-MIN KAOH 102230Z AUTO 31003KT 10SM CLR 27/16 A3004 870 52 2500 320/03 RMK AO2 T02670161
04850KAOH AOH20160710173510807/10/16 17:35:31  5-MIN KAOH 102235Z AUTO 33003KT 10SM CLR 26/17 A3003 870 55 2400 330/03 RMK AO2 T02610167
04850KAOH AOH20160710174010807/10/16 17:40:31  5-MIN KAOH 102240Z AUTO 33003KT 10SM CLR 26/17 A3003 870 57 2400 340/03 RMK AO2 T02610172
04850KAOH AOH20160710174510807/10/16 17:45:31  5-MIN KAOH 102245Z AUTO 00000KT 10SM CLR 26/18 A3003 880 61 2300 000/00 RMK AO2 T02560178
04850KAOH AOH20160710175011507/10/16 17:50:31  5-MIN KAOH 102250Z AUTO 00000KT 10SM CLR 26/18 A3003 880 62 2400 000/00 RMK AO2 SLP163 T02610183
04850KAOH AOH20160710175510807/10/16 17:55:31  5-MIN KAOH 102255Z AUTO 00000KT 10SM CLR 26/19 A3003 880 64 2400 000/00 RMK AO2 T02610189
04850KAOH AOH20160710180010807/10/16 18:00:31  5-MIN KAOH 102300Z AUTO 00000KT 10SM CLR 26/18 A3003 880 59 2400 000/00 RMK AO2 T02610178
04850KAOH AOH20160710180510807/10/16 18:05:31  5-MIN KAOH 102305Z AUTO 00000KT 10SM CLR 26/18 A3003 880 62 2400 000/00 RMK AO2 T02610183
04850KAOH AOH20160710181010807/10/16 18:10:31  5-MIN KAOH 102310Z AUTO 02003KT 10SM CLR 26/18 A3003 880 64 2300 030/03 RMK AO2 T02560183
04850KAOH AOH20160710181510807/10/16 18:15:31  5-MIN KAOH 102315Z AUTO 00000KT 10SM CLR 26/18 A3002 880 61 2300 000/00 RMK AO2 T02560178
04850KAOH AOH20160710182010807/10/16 18:20:31  5-MIN KAOH 102320Z AUTO 00000KT 10SM CLR 27/17 A3002 880 55 2500 000/00 RMK AO2 T02670172
04850KAOH AOH20160710182510807/10/16 18:25:31  5-MIN KAOH 102325Z AUTO 00000KT 10SM CLR 27/17 A3002 880 54 2500 000/00 RMK AO2 T02720172
04850KAOH AOH20160710183010807/10/16 18:30:31  5-MIN KAOH 102330Z AUTO 00000KT 10SM CLR 27/17 A3002 880 55 2500 000/00 RMK AO2 T02670172
04850KAOH AOH20160710183510807/10/16 18:35:31  5-MIN KAOH 102335Z AUTO 00000KT 10SM CLR 27/17 A3002 880 53 2500 000/00 RMK AO2 T02670167
04850KAOH AOH20160710184010807/10/16 18:40:31  5-MIN KAOH 102340Z AUTO 00000KT 10SM CLR 26/19 A3002 880 64 2400 000/00 RMK AO2 T02610189
04850KAOH AOH20160710184510807/10/16 18:45:31  5-MIN KAOH 102345Z AUTO 00000KT 10SM CLR 26/19 A3003 880 64 2400 000/00 RMK AO2 T02610189
04850KAOH AOH20160710185013307/10/16 18:50:31  5-MIN KAOH 102350Z AUTO 00000KT 10SM CLR 26/18 A3002 880 59 2400 000/00 RMK AO2 SLP161 T02610178 10278 20256 56012
04850KAOH AOH20160710185510807/10/16 18:55:31  5-MIN KAOH 102355Z AUTO 00000KT 10SM CLR 26/17 A3003 880 57 2400 000/00 RMK AO2 T02610172
04850KAOH AOH20160710190010807/10/16 19:00:31  5-MIN KAOH 110000Z AUTO 00000KT 10SM CLR 26/18 A3003 880 64 2300 000/00 RMK AO2 T02560183
04850KAOH AOH20160710190510807/10/16 19:05:31  5-MIN KAOH 110005Z AUTO 00000KT 10SM CLR 25/21 A3003 880 76 2300 000/00 RMK AO2 T02500206
04850KAOH AOH20160710191010807/10/16 19:10:31  5-MIN KAOH 110010Z AUTO 00000KT 10SM CLR 25/19 A3003 880 71 2300 000/00 RMK AO2 T02500194
04850KAOH AOH20160710191510807/10/16 19:15:31  5-MIN KAOH 110015Z AUTO 00000KT 10SM CLR 25/19 A3003 880 68 2300 000/00 RMK AO2 T02500189
04850KAOH AOH20160710192010807/10/16 19:20:31  5-MIN KAOH 110020Z AUTO 00000KT 10SM CLR 24/20 A3003 880 76 2200 000/00 RMK AO2 T02440200
04850KAOH AOH20160710192510807/10/16 19:25:31  5-MIN KAOH 110025Z AUTO 00000KT 10SM CLR 24/21 A3003 880 78 2200 000/00 RMK AO2 T02440206
04850KAOH AOH20160710193010807/10/16 19:30:31  5-MIN KAOH 110030Z AUTO 00000KT 10SM CLR 24/22 A3003 880 87 2100 000/00 RMK AO2 T02390217
04850KAOH AOH20160710193510807/10/16 19:35:31  5-MIN KAOH 110035Z AUTO 00000KT 10SM CLR 24/22 A3003 880 87 2100 000/00 RMK AO2 T02390217
04850KAOH AOH20160710194010807/10/16 19:40:31  5-MIN KAOH 110040Z AUTO 00000KT 10SM CLR 24/22 A3003 880 87 2200 000/00 RMK AO2 T02440222
04850KAOH AOH20160710194510807/10/16 19:45:31  5-MIN KAOH 110045Z AUTO 00000KT 10SM CLR 24/21 A3003 880 81 2200 000/00 RMK AO2 T02440211
04850KAOH AOH20160710195011507/10/16 19:50:31  5-MIN KAOH 110050Z AUTO 00000KT 10SM CLR 24/19 A3003 880 73 2200 000/00 RMK AO2 SLP162 T02440194
04850KAOH AOH20160710195510807/10/16 19:55:31  5-MIN KAOH 110055Z AUTO 00000KT 10SM CLR 24/18 A3003 880 71 2100 000/00 RMK AO2 T02390183
04850KAOH AOH20160710200010807/10/16 20:00:31  5-MIN KAOH 110100Z AUTO 00000KT 10SM CLR 24/18 A3003 880 68 2100 000/00 RMK AO2 T02390178
04850KAOH AOH20160710200510807/10/16 20:05:31  5-MIN KAOH 110105Z AUTO 13003KT 10SM CLR 23/19 A3003 880 76 2100 140/03 RMK AO2 T02330189
04850KAOH AOH20160710201010807/10/16 20:10:31  5-MIN KAOH 110110Z AUTO 00000KT 10SM CLR 23/19 A3003 870 76 2100 000/00 RMK AO2 T02330189
04850KAOH AOH20160710201510807/10/16 20:15:31  5-MIN KAOH 110115Z AUTO 00000KT 10SM CLR 24/18 A3003 870 68 2100 000/00 RMK AO2 T02390178
04850KAOH AOH20160710202010807/10/16 20:20:31  5-MIN KAOH 110120Z AUTO 14003KT 10SM CLR 23/18 A3003 880 70 2100 140/03 RMK AO2 T02330178
04850KAOH AOH20160710202510807/10/16 20:25:31  5-MIN KAOH 110125Z AUTO 14003KT 10SM CLR 23/18 A3003 880 76 2000 150/03 RMK AO2 T02280183
04850KAOH AOH20160710203010807/10/16 20:30:31  5-MIN KAOH 110130Z AUTO 14003KT 10SM CLR 23/18 A3003 880 76 2000 150/03 RMK AO2 T02280183
04850KAOH AOH20160710203510807/10/16 20:35:31  5-MIN KAOH 110135Z AUTO 15003KT 10SM CLR 23/17 A3003 880 68 2100 160/03 RMK AO2 T02330172
04850KAOH AOH20160710204010807/10/16 20:40:31  5-MIN KAOH 110140Z AUTO 14003KT 10SM CLR 24/17 A3003 880 66 2100 150/03 RMK AO2 T02390172
04850KAOH AOH20160710204510807/10/16 20:45:31  5-MIN KAOH 110145Z AUTO 15003KT 10SM CLR 23/18 A3003 870 73 2000 160/03 RMK AO2 T02280178
04850KAOH AOH20160710205011507/10/16 20:50:31  5-MIN KAOH 110150Z AUTO 00000KT 10SM CLR 22/18 A3003 870 78 2000 000/00 RMK AO2 SLP163 T02220183
04850KAOH AOH20160710205510807/10/16 20:55:31  5-MIN KAOH 110155Z AUTO 00000KT 10SM CLR 22/18 A3004 870 75 2000 000/00 RMK AO2 T02220178
04850KAOH AOH20160710210010807/10/16 21:00:31  5-MIN KAOH 110200Z AUTO 16003KT 10SM CLR 22/18 A3004 870 75 2000 170/03 RMK AO2 T02220178
04850KAOH AOH20160710210510807/10/16 21:05:31  5-MIN KAOH 110205Z AUTO 00000KT 10SM CLR 22/18 A3004 870 78 1900 000/00 RMK AO2 T02220183
04850KAOH AOH20160710211010807/10/16 21:10:31  5-MIN KAOH 110210Z AUTO 16003KT 10SM CLR 22/18 A3004 870 78 1900 160/03 RMK AO2 T02220183
04850KAOH AOH20160710211510807/10/16 21:15:31  5-MIN KAOH 110215Z AUTO 15004KT 10SM CLR 22/18 A3004 870 78 1900 160/04 RMK AO2 T02220183
04850KAOH AOH20160710212010807/10/16 21:20:31  5-MIN KAOH 110220Z AUTO 15005KT 10SM CLR 22/18 A3004 870 81 1900 160/05 RMK AO2 T02170183
04850KAOH AOH20160710212510807/10/16 21:25:31  5-MIN KAOH 110225Z AUTO 16004KT 10SM CLR 22/18 A3004 870 81 1900 160/04 RMK AO2 T02170183
04850KAOH AOH20160710213010807/10/16 21:30:31  5-MIN KAOH 110230Z AUTO 16004KT 10SM CLR 22/18 A3004 870 81 1900 160/04 RMK AO2 T02170183
04850KAOH AOH20160710213510807/10/16 21:35:31  5-MIN KAOH 110235Z AUTO 15004KT 10SM CLR 22/18 A3004 860 78 1900 160/04 RMK AO2 T02170178
04850KAOH AOH20160710214010807/10/16 21:40:31  5-MIN KAOH 110240Z AUTO 16003KT 10SM CLR 22/18 A3004 860 75 1900 160/03 RMK AO2 T02220178
04850KAOH AOH20160710214510807/10/16 21:45:31  5-MIN KAOH 110245Z AUTO 16003KT 10SM CLR 22/18 A3005 860 78 1900 160/03 RMK AO2 T02170178
04850KAOH AOH20160710215012407/10/16 21:50:31  5-MIN KAOH 110250Z AUTO 00000KT 10SM FEW055 21/18 A3005 860 84 1800 000/00 RMK AO2 SLP168 T02110183 56009
04850KAOH AOH20160710215511107/10/16 21:55:31  5-MIN KAOH 110255Z AUTO 15003KT 10SM SCT055 21/18 A3005 860 84 1800 150/03 RMK AO2 T02110183
04850KAOH AOH20160710220011107/10/16 22:00:31  5-MIN KAOH 110300Z AUTO 00000KT 10SM BKN060 21/18 A3005 860 84 1800 000/00 RMK AO2 T02110183
04850KAOH AOH20160710220511107/10/16 22:05:31  5-MIN KAOH 110305Z AUTO 00000KT 10SM SCT060 21/18 A3005 860 84 1800 000/00 RMK AO2 T02110183
04850KAOH AOH20160710221011107/10/16 22:10:31  5-MIN KAOH 110310Z AUTO 00000KT 10SM SCT060 21/18 A3005 860 84 1800 000/00 RMK AO2 T02110183
04850KAOH AOH20160710221511107/10/16 22:15:31  5-MIN KAOH 110315Z AUTO 14004KT 10SM SCT060 21/18 A3005 860 81 1800 150/04 RMK AO2 T02110178
04850KAOH AOH20160710222011107/10/16 22:20:31  5-MIN KAOH 110320Z AUTO 14004KT 10SM FEW060 21/18 A3005 860 81 1800 150/04 RMK AO2 T02110178
04850KAOH AOH20160710222511107/10/16 22:25:31  5-MIN KAOH 110325Z AUTO 14005KT 10SM FEW060 21/17 A3004 860 78 1800 140/05 RMK AO2 T02110172
04850KAOH AOH20160710223010807/10/16 22:30:31  5-MIN KAOH 110330Z AUTO 13005KT 10SM CLR 21/17 A3004 860 81 1800 140/05 RMK AO2 T02060172
04850KAOH AOH20160710223510807/10/16 22:35:31  5-MIN KAOH 110335Z AUTO 14006KT 10SM CLR 21/17 A3004 860 75 1800 140/06 RMK AO2 T02110167
04850KAOH AOH20160710224010807/10/16 22:40:31  5-MIN KAOH 110340Z AUTO 14006KT 10SM CLR 21/17 A3004 860 75 1800 140/06 RMK AO2 T02110167
04850KAOH AOH20160710224510807/10/16 22:45:31  5-MIN KAOH 110345Z AUTO 14007KT 10SM CLR 21/17 A3004 860 75 1800 140/07 RMK AO2 T02110167
04850KAOH AOH20160710225011507/10/16 22:50:31  5-MIN KAOH 110350Z AUTO 14007KT 10SM CLR 21/17 A3004 860 75 1800 140/07 RMK AO2 SLP166 T02110167
04850KAOH AOH20160710225510807/10/16 22:55:31  5-MIN KAOH 110355Z AUTO 14007KT 10SM CLR 21/17 A3004 870 75 1800 140/07 RMK AO2 T02110167
04850KAOH AOH20160710230010807/10/16 23:00:31  5-MIN KAOH 110400Z AUTO 14006KT 10SM CLR 21/17 A3004 860 75 1800 140/06 RMK AO2 T02110167
04850KAOH AOH20160710230510807/10/16 23:05:31  5-MIN KAOH 110405Z AUTO 14005KT 10SM CLR 21/17 A3004 860 75 1800 140/05 RMK AO2 T02110167
04850KAOH AOH20160710231010807/10/16 23:10:31  5-MIN KAOH 110410Z AUTO 15004KT 10SM CLR 21/17 A3004 860 75 1800 160/04 RMK AO2 T02110167
04850KAOH AOH20160710231510807/10/16 23:15:31  5-MIN KAOH 110415Z AUTO 15005KT 10SM CLR 21/16 A3004 860 73 1800 150/05 RMK AO2 T02110161
04850KAOH AOH20160710232010807/10/16 23:20:31  5-MIN KAOH 110420Z AUTO 15006KT 10SM CLR 21/17 A3004 860 75 1800 150/06 RMK AO2 T02110167
04850KAOH AOH20160710232510807/10/16 23:25:31  5-MIN KAOH 110425Z AUTO 14006KT 10SM CLR 21/17 A3004 860 78 1800 140/06 RMK AO2 T02060167
04850KAOH AOH20160710233010807/10/16 23:30:31  5-MIN KAOH 110430Z AUTO 14006KT 10SM CLR 21/17 A3004 860 78 1700 150/06 RMK AO2 T02060167
04850KAOH AOH20160710233510807/10/16 23:35:31  5-MIN KAOH 110435Z AUTO 15005KT 10SM CLR 21/17 A3005 860 78 1700 150/05 RMK AO2 T02060167
04850KAOH AOH20160710234010807/10/16 23:40:31  5-MIN KAOH 110440Z AUTO 15005KT 10SM CLR 21/17 A3005 860 78 1700 160/05 RMK AO2 T02060167
04850KAOH AOH20160710234510807/10/16 23:45:31  5-MIN KAOH 110445Z AUTO 15004KT 10SM CLR 20/17 A3005 860 81 1700 160/04 RMK AO2 T02000167
04850KAOH AOH20160710235012507/10/16 23:50:31  5-MIN KAOH 110450Z AUTO 16004KT 10SM CLR 21/17 A3005 860 78 1700 170/04 RMK AO2 SLP169 T02060167 402780156
04850KAOH AOH20160710235510807/10/16 23:55:31  5-MIN KAOH 110455Z AUTO 17004KT 10SM CLR 21/17 A3005 850 78 1700 170/04 RMK AO2 T02060167
04850KAOH AOH20160711000010807/11/16 00:00:31  5-MIN KAOH 110500Z AUTO 16004KT 10SM CLR 21/17 A3005 850 75 1800 170/04 RMK AO2 T02110167
04850KAOH AOH20160711000510807/11/16 00:05:31  5-MIN KAOH 110505Z AUTO 16005KT 10SM CLR 21/17 A3005 860 78 1700 160/05 RMK AO2 T02060167
04850KAOH AOH20160711001010807/11/16 00:10:31  5-MIN KAOH 110510Z AUTO 16005KT 10SM CLR 20/17 A3005 850 81 1700 170/05 RMK AO2 T02000167
04850KAOH AOH20160711001510807/11/16 00:15:31  5-MIN KAOH 110515Z AUTO 17004KT 10SM CLR 20/17 A3005 850 81 1700 170/04 RMK AO2 T02000167
04850KAOH AOH20160711002010807/11/16 00:20:31  5-MIN KAOH 110520Z AUTO 17004KT 10SM CLR 21/17 A3006 850 78 1700 180/04 RMK AO2 T02060167
04850KAOH AOH20160711002510807/11/16 00:25:31  5-MIN KAOH 110525Z AUTO 17004KT 10SM CLR 21/17 A3005 850 78 1700 180/04 RMK AO2 T02060167
04850KAOH AOH20160711003010807/11/16 00:30:31  5-MIN KAOH 110530Z AUTO 18004KT 10SM CLR 21/17 A3005 850 78 1700 190/04 RMK AO2 T02060167
04850KAOH AOH20160711003510807/11/16 00:35:31  5-MIN KAOH 110535Z AUTO 16004KT 10SM CLR 21/17 A3005 860 78 1700 170/04 RMK AO2 T02060167
04850KAOH AOH20160711004010807/11/16 00:40:31  5-MIN KAOH 110540Z AUTO 15005KT 10SM CLR 20/17 A3005 860 81 1700 160/05 RMK AO2 T02000167
04850KAOH AOH20160711004510807/11/16 00:45:31  5-MIN KAOH 110545Z AUTO 17004KT 10SM CLR 19/17 A3005 860 84 1600 170/04 RMK AO2 T01940167
04850KAOH AOH20160711005013307/11/16 00:50:31  5-MIN KAOH 110550Z AUTO 00000KT 10SM CLR 19/17 A3005 860 90 1500 000/00 RMK AO2 SLP169 T01890172 10261 20189 53007
04850KAOH AOH20160711005510807/11/16 00:55:31  5-MIN KAOH 110555Z AUTO 00000KT 10SM CLR 20/17 A3005 860 81 1700 000/00 RMK AO2 T02000167
04850KAOH AOH20160711010010807/11/16 01:00:31  5-MIN KAOH 110600Z AUTO 00000KT 10SM CLR 20/17 A3005 860 84 1700 000/00 RMK AO2 T02000172
04850KAOH AOH20160711010510807/11/16 01:05:31  5-MIN KAOH 110605Z AUTO 00000KT 10SM CLR 20/17 A3005 860 81 1700 000/00 RMK AO2 T02000167
04850KAOH AOH20160711011010807/11/16 01:10:31  5-MIN KAOH 110610Z AUTO 16003KT 10SM CLR 19/17 A3005 860 84 1600 160/03 RMK AO2 T01940167
04850KAOH AOH20160711011510807/11/16 01:15:31  5-MIN KAOH 110615Z AUTO 16004KT 10SM CLR 19/17 A3005 860 84 1600 170/04 RMK AO2 T01940167
04850KAOH AOH20160711012010807/11/16 01:20:31  5-MIN KAOH 110620Z AUTO 00000KT 10SM CLR 19/17 A3005 860 87 1500 000/00 RMK AO2 T01890167
04850KAOH AOH20160711012510807/11/16 01:25:31  5-MIN KAOH 110625Z AUTO 00000KT 10SM CLR 18/17 A3005 860 93 1500 000/00 RMK AO2 T01830172
04850KAOH AOH20160711013010807/11/16 01:30:31  5-MIN KAOH 110630Z AUTO 00000KT 10SM CLR 19/17 A3005 850 87 1500 000/00 RMK AO2 T01890167
04850KAOH AOH20160711013510807/11/16 01:35:31  5-MIN KAOH 110635Z AUTO 00000KT 10SM CLR 20/17 A3005 850 81 1700 000/00 RMK AO2 T02000167
04850KAOH AOH20160711014010807/11/16 01:40:31  5-MIN KAOH 110640Z AUTO 00000KT 10SM CLR 20/17 A3005 850 81 1700 000/00 RMK AO2 T02000167
04850KAOH AOH20160711014510807/11/16 01:45:31  5-MIN KAOH 110645Z AUTO 16003KT 10SM CLR 20/17 A3005 860 81 1700 160/03 RMK AO2 T02000167
04850KAOH AOH20160711015011507/11/16 01:50:31  5-MIN KAOH 110650Z AUTO 16006KT 10SM CLR 19/17 A3005 860 84 1600 170/06 RMK AO2 SLP169 T01940167
04850KAOH AOH20160711015510807/11/16 01:55:31  5-MIN KAOH 110655Z AUTO 17006KT 10SM CLR 19/17 A3005 860 84 1600 170/06 RMK AO2 T01940167
04850KAOH AOH20160711020010807/11/16 02:00:31  5-MIN KAOH 110700Z AUTO 16005KT 10SM CLR 19/17 A3005 850 84 1600 170/05 RMK AO2 T01940167
04850KAOH AOH20160711020510807/11/16 02:05:31  5-MIN KAOH 110705Z AUTO 00000KT 10SM CLR 19/17 A3005 850 87 1500 000/00 RMK AO2 T01890167
04850KAOH AOH20160711021010807/11/16 02:10:31  5-MIN KAOH 110710Z AUTO 00000KT 10SM CLR 18/17 A3006 850 90 1500 000/00 RMK AO2 T01830167
04850KAOH AOH20160711021510807/11/16 02:15:31  5-MIN KAOH 110715Z AUTO 00000KT 10SM CLR 19/17 A3006 850 87 1500 000/00 RMK AO2 T01890167
04850KAOH AOH20160711022010807/11/16 02:20:31  5-MIN KAOH 110720Z AUTO 18003KT 10SM CLR 19/17 A3005 850 84 1600 180/03 RMK AO2 T01940167
04850KAOH AOH20160711022510807/11/16 02:25:31  5-MIN KAOH 110725Z AUTO 18003KT 10SM CLR 20/17 A3005 850 81 1700 190/03 RMK AO2 T02000167
04850KAOH AOH20160711023010807/11/16 02:30:31  5-MIN KAOH 110730Z AUTO 00000KT 10SM CLR 19/17 A3006 850 84 1600 000/00 RMK AO2 T01940167
04850KAOH AOH20160711023510807/11/16 02:35:31  5-MIN KAOH 110735Z AUTO 00000KT 10SM CLR 19/17 A3006 850 84 1600 000/00 RMK AO2 T01940167
04850KAOH AOH20160711024010807/11/16 02:40:31  5-MIN KAOH 110740Z AUTO 18003KT 10SM CLR 19/17 A3006 850 84 1600 190/03 RMK AO2 T01940167
04850KAOH AOH20160711024510807/11/16 02:45:31  5-MIN KAOH 110745Z AUTO 17005KT 10SM CLR 19/17 A3006 850 87 1500 180/05 RMK AO2 T01890167
04850KAOH AOH20160711025011507/11/16 02:50:31  5-MIN KAOH 110750Z AUTO 18006KT 10SM CLR 19/17 A3006 850 87 1500 180/06 RMK AO2 SLP172 T01890167
04850KAOH AOH20160711025510807/11/16 02:55:31  5-MIN KAOH 110755Z AUTO 18007KT 10SM CLR 19/17 A3006 850 84 1600 180/07 RMK AO2 T01940167
04850KAOH AOH20160711030010807/11/16 03:00:31  5-MIN KAOH 110800Z AUTO 18005KT 10SM CLR 19/17 A3006 850 84 1600 180/05 RMK AO2 T01940167
04850KAOH AOH20160711030510807/11/16 03:05:31  5-MIN KAOH 110805Z AUTO 18005KT 10SM CLR 19/17 A3006 850 87 1500 180/05 RMK AO2 T01890167
04850KAOH AOH20160711031010807/11/16 03:10:31  5-MIN KAOH 110810Z AUTO 17006KT 10SM CLR 19/17 A3006 850 87 1500 180/06 RMK AO2 T01890167
04850KAOH AOH20160711031510807/11/16 03:15:31  5-MIN KAOH 110815Z AUTO 17007KT 10SM CLR 19/17 A3006 850 87 1500 170/07 RMK AO2 T01890167
04850KAOH AOH20160711032010807/11/16 03:20:31  5-MIN KAOH 110820Z AUTO 17006KT 10SM CLR 18/17 A3006 850 90 1500 180/06 RMK AO2 T01830167
04850KAOH AOH20160711032510807/11/16 03:25:31  5-MIN KAOH 110825Z AUTO 17006KT 10SM CLR 18/17 A3006 850 90 1500 180/06 RMK AO2 T01830167
04850KAOH AOH20160711033010807/11/16 03:30:31  5-MIN KAOH 110830Z AUTO 16006KT 10SM CLR 18/17 A3006 850 90 1500 170/06 RMK AO2 T01830167
04850KAOH AOH20160711033510807/11/16 03:35:31  5-MIN KAOH 110835Z AUTO 17006KT 10SM CLR 18/17 A3007 840 90 1500 170/06 RMK AO2 T01830167
04850KAOH AOH20160711034010807/11/16 03:40:31  5-MIN KAOH 110840Z AUTO 17003KT 10SM CLR 18/17 A3006 850 90 1500 170/03 RMK AO2 T01830167
04850KAOH AOH20160711034510807/11/16 03:45:31  5-MIN KAOH 110845Z AUTO 00000KT 10SM CLR 18/17 A3006 850 93 1400 000/00 RMK AO2 T01780167
04850KAOH AOH20160711035012107/11/16 03:50:31  5-MIN KAOH 110850Z AUTO 15003KT 10SM CLR 18/17 A3006 850 90 1500 160/03 RMK AO2 SLP173 T01830167 53001
04850KAOH AOH20160711035510807/11/16 03:55:31  5-MIN KAOH 110855Z AUTO 14004KT 10SM CLR 18/17 A3006 850 90 1500 150/04 RMK AO2 T01830167
04850KAOH AOH20160711040010807/11/16 04:00:31  5-MIN KAOH 110900Z AUTO 13003KT 10SM CLR 18/17 A3006 850 93 1400 140/03 RMK AO2 T01780167
04850KAOH AOH20160711040510807/11/16 04:05:31  5-MIN KAOH 110905Z AUTO 16004KT 10SM CLR 18/17 A3006 850 90 1500 170/04 RMK AO2 T01830167
04850KAOH AOH20160711041010807/11/16 04:10:31  5-MIN KAOH 110910Z AUTO 00000KT 10SM CLR 18/17 A3006 850 90 1500 000/00 RMK AO2 T01830167
04850KAOH AOH20160711041510807/11/16 04:15:31  5-MIN KAOH 110915Z AUTO 00000KT 10SM CLR 18/17 A3006 850 90 1500 000/00 RMK AO2 T01830167
04850KAOH AOH20160711042010807/11/16 04:20:31  5-MIN KAOH 110920Z AUTO 00000KT 10SM CLR 18/17 A3006 850 90 1500 000/00 RMK AO2 T01830167
04850KAOH AOH20160711042510807/11/16 04:25:31  5-MIN KAOH 110925Z AUTO 00000KT 10SM CLR 18/17 A3006 840 90 1500 000/00 RMK AO2 T01830167
04850KAOH AOH20160711043010807/11/16 04:30:31  5-MIN KAOH 110930Z AUTO 17003KT 10SM CLR 18/17 A3007 840 90 1500 170/03 RMK AO2 T01830167
04850KAOH AOH20160711043510807/11/16 04:35:31  5-MIN KAOH 110935Z AUTO 00000KT 10SM CLR 18/17 A3006 840 90 1500 000/00 RMK AO2 T01830167
04850KAOH AOH20160711044010807/11/16 04:40:31  5-MIN KAOH 110940Z AUTO 16003KT 10SM CLR 18/17 A3006 840 90 1500 170/03 RMK AO2 T01830167
04850KAOH AOH20160711044510807/11/16 04:45:31  5-MIN KAOH 110945Z AUTO 16004KT 10SM CLR 18/16 A3006 850 87 1500 160/04 RMK AO2 T01830161
04850KAOH AOH20160711045011507/11/16 04:50:31  5-MIN KAOH 110950Z AUTO 16004KT 10SM CLR 18/16 A3006 850 90 1400 160/04 RMK AO2 SLP172 T01780161
04850KAOH AOH20160711045510807/11/16 04:55:31  5-MIN KAOH 110955Z AUTO 16006KT 10SM CLR 18/17 A3006 850 93 1400 160/06 RMK AO2 T01780167
04850KAOH AOH20160711050010807/11/16 05:00:31  5-MIN KAOH 111000Z AUTO 16006KT 10SM CLR 18/16 A3006 850 87 1500 170/06 RMK AO2 T01830161
04850KAOH AOH20160711050510807/11/16 05:05:31  5-MIN KAOH 111005Z AUTO 17007KT 10SM CLR 18/17 A3006 850 90 1500 170/07 RMK AO2 T01830167
04850KAOH AOH20160711051010807/11/16 05:10:31  5-MIN KAOH 111010Z AUTO 17006KT 10SM CLR 18/16 A3006 850 87 1500 170/06 RMK AO2 T01830161
04850KAOH AOH20160711051510807/11/16 05:15:31  5-MIN KAOH 111015Z AUTO 17006KT 10SM CLR 18/16 A3006 850 87 1500 170/06 RMK AO2 T01830161
04850KAOH AOH20160711052010807/11/16 05:20:31  5-MIN KAOH 111020Z AUTO 00000KT 10SM CLR 18/16 A3006 840 90 1400 000/00 RMK AO2 T01780161
04850KAOH AOH20160711052510807/11/16 05:25:31  5-MIN KAOH 111025Z AUTO 00000KT 10SM CLR 17/17 A3006 840 96 1300 000/00 RMK AO2 T01720167
04850KAOH AOH20160711053010807/11/16 05:30:31  5-MIN KAOH 111030Z AUTO 00000KT 10SM CLR 18/17 A3007 840 90 1500 000/00 RMK AO2 T01830167
04850KAOH AOH20160711053510807/11/16 05:35:31  5-MIN KAOH 111035Z AUTO 00000KT 10SM CLR 18/17 A3007 840 90 1500 000/00 RMK AO2 T01830167
04850KAOH AOH20160711054010807/11/16 05:40:31  5-MIN KAOH 111040Z AUTO 17003KT 10SM CLR 18/17 A3007 840 90 1500 170/03 RMK AO2 T01830167
04850KAOH AOH20160711054510807/11/16 05:45:31  5-MIN KAOH 111045Z AUTO 15003KT 10SM CLR 18/17 A3007 840 90 1500 160/03 RMK AO2 T01830167
04850KAOH AOH20160711055011507/11/16 05:50:31  5-MIN KAOH 111050Z AUTO 15003KT 10SM CLR 18/17 A3007 840 90 1500 160/03 RMK AO2 SLP178 T01830167
04850KAOH AOH20160711055510807/11/16 05:55:31  5-MIN KAOH 111055Z AUTO 15003KT 10SM CLR 18/17 A3008 830 90 1500 150/03 RMK AO2 T01830167
04850KAOH AOH20160711060010807/11/16 06:00:31  5-MIN KAOH 111100Z AUTO 14003KT 10SM CLR 19/17 A3008 830 87 1500 150/03 RMK AO2 T01890167
04850KAOH AOH20160711060510807/11/16 06:05:31  5-MIN KAOH 111105Z AUTO 15003KT 10SM CLR 19/17 A3008 830 90 1500 160/03 RMK AO2 T01890172
04850KAOH AOH20160711061010807/11/16 06:10:31  5-MIN KAOH 111110Z AUTO 16004KT 10SM CLR 19/17 A3008 830 90 1500 170/04 RMK AO2 T01890172
04850KAOH AOH20160711061510807/11/16 06:15:31  5-MIN KAOH 111115Z AUTO 17003KT 10SM CLR 19/17 A3008 830 84 1600 170/03 RMK AO2 T01940167
04850KAOH AOH20160711062010807/11/16 06:20:31  5-MIN KAOH 111120Z AUTO 00000KT 10SM CLR 19/17 A3008 830 87 1600 000/00 RMK AO2 T01940172
04850KAOH AOH20160711062510807/11/16 06:25:31  5-MIN KAOH 111125Z AUTO 15003KT 10SM CLR 19/17 A3008 830 87 1600 160/03 RMK AO2 T01940172
04850KAOH AOH20160711063010807/11/16 06:30:31  5-MIN KAOH 111130Z AUTO 15004KT 10SM CLR 19/17 A3008 830 87 1600 150/04 RMK AO2 T01940172
04850KAOH AOH20160711063510807/11/16 06:35:31  5-MIN KAOH 111135Z AUTO 15005KT 10SM CLR 19/17 A3008 830 87 1600 150/05 RMK AO2 T01940172
04850KAOH AOH20160711064010807/11/16 06:40:31  5-MIN KAOH 111140Z AUTO 15004KT 10SM CLR 20/17 A3008 830 84 1600 150/04 RMK AO2 T02000172
04850KAOH AOH20160711064510807/11/16 06:45:31  5-MIN KAOH 111145Z AUTO 14004KT 10SM CLR 20/17 A3008 830 84 1600 150/04 RMK AO2 T02000172
04850KAOH AOH20160711065013307/11/16 06:50:31  5-MIN KAOH 111150Z AUTO 15004KT 10SM CLR 20/17 A3008 830 84 1600 150/04 RMK AO2 SLP180 T02000172 10200 20172 52003
04850KAOH AOH20160711065510807/11/16 06:55:31  5-MIN KAOH 111155Z AUTO 15004KT 10SM CLR 20/17 A3008 830 84 1600 150/04 RMK AO2 T02000172
04850KAOH AOH20160711070010807/11/16 07:00:31  5-MIN KAOH 111200Z AUTO 15005KT 10SM CLR 20/17 A3008 830 84 1600 160/05 RMK AO2 T02000172
04850KAOH AOH20160711070510807/11/16 07:05:31  5-MIN KAOH 111205Z AUTO 15005KT 10SM CLR 21/17 A3009 830 81 1700 150/05 RMK AO2 T02060172
04850KAOH AOH20160711071010807/11/16 07:10:31  5-MIN KAOH 111210Z AUTO 15005KT 10SM CLR 21/18 A3009 820 84 1700 150/05 RMK AO2 T02060178
04850KAOH AOH20160711071510807/11/16 07:15:31  5-MIN KAOH 111215Z AUTO 15005KT 10SM CLR 21/18 A3009 820 84 1700 160/05 RMK AO2 T02060178
04850KAOH AOH20160711072010807/11/16 07:20:31  5-MIN KAOH 111220Z AUTO 16004KT 10SM CLR 21/18 A3009 820 84 1700 160/04 RMK AO2 T02060178
04850KAOH AOH20160711072510807/11/16 07:25:31  5-MIN KAOH 111225Z AUTO 15004KT 10SM CLR 21/18 A3009 820 81 1800 160/04 RMK AO2 T02110178
04850KAOH AOH20160711073010807/11/16 07:30:31  5-MIN KAOH 111230Z AUTO 15004KT 10SM CLR 21/18 A3009 820 84 1800 150/04 RMK AO2 T02110183
04850KAOH AOH20160711073510807/11/16 07:35:31  5-MIN KAOH 111235Z AUTO 15004KT 10SM CLR 22/18 A3009 820 81 1800 150/04 RMK AO2 T02170183
04850KAOH AOH20160711074010807/11/16 07:40:31  5-MIN KAOH 111240Z AUTO 15005KT 10SM CLR 22/18 A3009 820 81 1800 160/05 RMK AO2 T02170183
04850KAOH AOH20160711074510807/11/16 07:45:31  5-MIN KAOH 111245Z AUTO 15004KT 10SM CLR 22/18 A3009 820 78 1900 160/04 RMK AO2 T02220183
04850KAOH AOH20160711075011507/11/16 07:50:31  5-MIN KAOH 111250Z AUTO 16004KT 10SM CLR 22/19 A3009 820 81 1900 160/04 RMK AO2 SLP181 T02220189
04850KAOH AOH20160711075510807/11/16 07:55:31  5-MIN KAOH 111255Z AUTO 17004KT 10SM CLR 22/19 A3009 820 81 1900 180/04 RMK AO2 T02220189
04850KAOH AOH20160711080010807/11/16 08:00:31  5-MIN KAOH 111300Z AUTO 16003KT 10SM CLR 23/19 A3009 820 78 2000 160/03 RMK AO2 T02280189
04850KAOH AOH20160711080510807/11/16 08:05:31  5-MIN KAOH 111305Z AUTO 16004KT 10SM CLR 23/19 A3009 820 76 2000 170/04 RMK AO2 T02330189
04850KAOH AOH20160711081010807/11/16 08:10:31  5-MIN KAOH 111310Z AUTO 17004KT 10SM CLR 23/19 A3009 820 76 2000 170/04 RMK AO2 T02330189
04850KAOH AOH20160711081510807/11/16 08:15:31  5-MIN KAOH 111315Z AUTO 17004KT 10SM CLR 23/19 A3009 820 76 2000 180/04 RMK AO2 T02330189
04850KAOH AOH20160711082010807/11/16 08:20:31  5-MIN KAOH 111320Z AUTO 16005KT 10SM CLR 23/19 A3009 820 76 2000 160/05 RMK AO2 T02330189
04850KAOH AOH20160711082510807/11/16 08:25:31  5-MIN KAOH 111325Z AUTO 15005KT 10SM CLR 24/19 A3009 820 76 2100 160/05 RMK AO2 T02390194
04850KAOH AOH20160711083010807/11/16 08:30:31  5-MIN KAOH 111330Z AUTO 15005KT 10SM CLR 24/19 A3008 830 73 2100 160/05 RMK AO2 T02390189
04850KAOH AOH20160711083510807/11/16 08:35:31  5-MIN KAOH 111335Z AUTO 16006KT 10SM CLR 24/19 A3008 830 71 2100 160/06 RMK AO2 T02440189
04850KAOH AOH20160711084010807/11/16 08:40:31  5-MIN KAOH 111340Z AUTO 17007KT 10SM CLR 24/18 A3008 830 68 2100 180/07 RMK AO2 T02440183
04850KAOH AOH20160711084510807/11/16 08:45:31  5-MIN KAOH 111345Z AUTO 17005KT 10SM CLR 24/19 A3008 830 71 2100 170/05 RMK AO2 T02440189
04850KAOH AOH20160711085011507/11/16 08:50:31  5-MIN KAOH 111350Z AUTO 18005KT 10SM CLR 24/19 A3009 820 71 2100 180/05 RMK AO2 SLP181 T02440189
04850KAOH AOH20160711085510807/11/16 08:55:31  5-MIN KAOH 111355Z AUTO 17006KT 10SM CLR 24/19 A3008 830 71 2100 180/06 RMK AO2 T02440189
04850KAOH AOH20160711090010807/11/16 09:00:31  5-MIN KAOH 111400Z AUTO 19005KT 10SM CLR 25/19 A3008 830 68 2200 190/05 RMK AO2 T02500189
04850KAOH AOH20160711090510807/11/16 09:05:31  5-MIN KAOH 111405Z AUTO 16005KT 10SM CLR 25/19 A3008 830 68 2200 170/05 RMK AO2 T02500189
04850KAOH AOH20160711091010807/11/16 09:10:31  5-MIN KAOH 111410Z AUTO 17005KT 10SM CLR 26/19 A3009 820 66 2300 170/05 RMK AO2 T02560189
04850KAOH AOH20160711091510807/11/16 09:15:31  5-MIN KAOH 111415Z AUTO 16005KT 10SM CLR 26/19 A3008 830 66 2300 160/05 RMK AO2 T02560189
04850KAOH AOH20160711092010807/11/16 09:20:31  5-MIN KAOH 111420Z AUTO 17006KT 10SM CLR 26/19 A3008 830 66 2300 170/06 RMK AO2 T02560189
04850KAOH AOH20160711092510807/11/16 09:25:31  5-MIN KAOH 111425Z AUTO 19006KT 10SM CLR 26/19 A3008 830 64 2300 190/06 RMK AO2 T02610189
04850KAOH AOH20160711093010807/11/16 09:30:31  5-MIN KAOH 111430Z AUTO 20008KT 10SM CLR 26/18 A3008 830 64 2300 200/08 RMK AO2 T02560183
04850KAOH AOH20160711093510807/11/16 09:35:31  5-MIN KAOH 111435Z AUTO 20007KT 10SM CLR 26/18 A3008 830 62 2300 210/07 RMK AO2 T02610183
04850KAOH AOH20160711094010807/11/16 09:40:31  5-MIN KAOH 111440Z AUTO 17007KT 10SM CLR 26/19 A3008 830 64 2300 180/07 RMK AO2 T02610189
04850KAOH AOH20160711094510807/11/16 09:45:31  5-MIN KAOH 111445Z AUTO 17008KT 10SM CLR 26/18 A3008 830 59 2300 170/08 RMK AO2 T02610178
04850KAOH AOH20160711095012107/11/16 09:50:31  5-MIN KAOH 111450Z AUTO 20007KT 10SM CLR 26/18 A3008 830 62 2300 200/07 RMK AO2 SLP179 T02610183 53007
04850KAOH AOH20160711095510807/11/16 09:55:31  5-MIN KAOH 111455Z AUTO 19007KT 10SM CLR 26/19 A3008 830 64 2300 200/07 RMK AO2 T02610189
04850KAOH AOH20160711100010807/11/16 10:00:31  5-MIN KAOH 111500Z AUTO 18008KT 10SM CLR 27/18 A3008 830 60 2400 180/08 RMK AO2 T02670183
04850KAOH AOH20160711100510807/11/16 10:05:31  5-MIN KAOH 111505Z AUTO 17005KT 10SM CLR 27/18 A3008 830 60 2400 170/05 RMK AO2 T02670183
04850KAOH AOH20160711101010807/11/16 10:10:31  5-MIN KAOH 111510Z AUTO VRB04KT 10SM CLR 26/18 A3008 830 62 2300 VRB/04 RMK AO2 T02610183
04850KAOH AOH20160711101510807/11/16 10:15:31  5-MIN KAOH 111515Z AUTO 19004KT 10SM CLR 27/18 A3008 830 60 2400 200/04 RMK AO2 T02670183
04850KAOH AOH20160711102010807/11/16 10:20:31  5-MIN KAOH 111520Z AUTO 16008KT 10SM CLR 27/19 A3008 830 62 2400 170/08 RMK AO2 T02670189
04850KAOH AOH20160711102511107/11/16 10:25:31  5-MIN KAOH 111525Z AUTO 18006KT 10SM FEW040 27/18 A3008 830 60 2400 180/06 RMK AO2 T02670183
04850KAOH AOH20160711103011107/11/16 10:30:31  5-MIN KAOH 111530Z AUTO 19005KT 10SM FEW040 27/18 A3008 830 60 2400 200/05 RMK AO2 T02670183
04850KAOH AOH20160711103511107/11/16 10:35:31  5-MIN KAOH 111535Z AUTO 20007KT 10SM FEW040 27/18 A3008 830 60 2400 210/07 RMK AO2 T02670183
04850KAOH AOH20160711104011107/11/16 10:40:31  5-MIN KAOH 111540Z AUTO 20007KT 10SM FEW040 27/18 A3008 830 60 2400 200/07 RMK AO2 T02670183
04850KAOH AOH20160711104511107/11/16 10:45:31  5-MIN KAOH 111545Z AUTO 18009KT 10SM FEW042 27/18 A3008 830 58 2500 190/09 RMK AO2 T02720183
04850KAOH AOH20160711105011807/11/16 10:50:31  5-MIN KAOH 111550Z AUTO 21009KT 10SM FEW042 27/18 A3009 820 56 2500 220/09 RMK AO2 SLP180 T02720178
04850KAOH AOH20160711105511107/11/16 10:55:31  5-MIN KAOH 111555Z AUTO 18007KT 10SM FEW042 27/18 A3009 820 58 2500 180/07 RMK AO2 T02720183
04850KAOH AOH20160711110011107/11/16 11:00:31  5-MIN KAOH 111600Z AUTO 18008KT 10SM FEW044 27/18 A3009 820 58 2500 180/08 RMK AO2 T02720183
04850KAOH AOH20160711110511107/11/16 11:05:31  5-MIN KAOH 111605Z AUTO 20007KT 10SM SCT044 27/18 A3009 820 58 2500 200/07 RMK AO2 T02720183
04850KAOH AOH20160711111011107/11/16 11:10:31  5-MIN KAOH 111610Z AUTO 20007KT 10SM SCT044 27/19 A3009 820 60 2500 210/07 RMK AO2 T02720189
04850KAOH AOH20160711111511107/11/16 11:15:31  5-MIN KAOH 111615Z AUTO 20007KT 10SM FEW044 27/18 A3009 820 56 2500 210/07 RMK AO2 T02720178
04850KAOH AOH20160711112011107/11/16 11:20:31  5-MIN KAOH 111620Z AUTO 19009KT 10SM FEW044 28/18 A3009 820 56 2500 190/09 RMK AO2 T02780183
04850KAOH AOH20160711112511107/11/16 11:25:31  5-MIN KAOH 111625Z AUTO 16007KT 10SM SCT046 28/18 A3009 820 54 2500 170/07 RMK AO2 T02780178
04850KAOH AOH20160711113011107/11/16 11:30:31  5-MIN KAOH 111630Z AUTO 22008KT 10SM SCT046 28/18 A3009 820 56 2500 230/08 RMK AO2 T02780183
04850KAOH AOH20160711113511107/11/16 11:35:31  5-MIN KAOH 111635Z AUTO 17009KT 10SM SCT046 28/18 A3009 820 56 2500 180/09 RMK AO2 T02780183
04850KAOH AOH20160711114011107/11/16 11:40:31  5-MIN KAOH 111640Z AUTO 19006KT 10SM SCT046 28/18 A3009 820 54 2500 190/06 RMK AO2 T02780178
04850KAOH AOH20160711114511107/11/16 11:45:31  5-MIN KAOH 111645Z AUTO 22008KT 10SM SCT046 28/18 A3009 820 56 2500 230/08 RMK AO2 T02780183
04850KAOH AOH20160711115011807/11/16 11:50:31  5-MIN KAOH 111650Z AUTO 22007KT 10SM SCT046 28/18 A3009 820 56 2500 220/07 RMK AO2 SLP181 T02780183
04850KAOH AOH20160711115511107/11/16 11:55:31  5-MIN KAOH 111655Z AUTO 21007KT 10SM SCT046 28/18 A3009 820 56 2500 210/07 RMK AO2 T02780183
04850KAOH AOH20160711120011107/11/16 12:00:31  5-MIN KAOH 111700Z AUTO 18009KT 10SM FEW046 28/18 A3009 830 52 2600 180/09 RMK AO2 T02830178
04850KAOH AOH20160711120511107/11/16 12:05:31  5-MIN KAOH 111705Z AUTO 18006KT 10SM FEW046 28/18 A3009 820 54 2500 180/06 RMK AO2 T02780178
04850KAOH AOH20160711121011107/11/16 12:10:31  5-MIN KAOH 111710Z AUTO 17009KT 10SM FEW047 28/18 A3009 820 54 2500 180/09 RMK AO2 T02780178
04850KAOH AOH20160711121511107/11/16 12:15:31  5-MIN KAOH 111715Z AUTO 18007KT 10SM FEW047 28/18 A3009 830 54 2600 190/07 RMK AO2 T02830183
04850KAOH AOH20160711122011107/11/16 12:20:31  5-MIN KAOH 111720Z AUTO 18007KT 10SM FEW048 28/18 A3008 830 54 2600 180/07 RMK AO2 T02830183
04850KAOH AOH20160711122512407/11/16 12:25:31  5-MIN KAOH 111725Z AUTO 20007KT 150V230 10SM CLR 29/18 A3008 830 50 2600 210/07 160V240 RMK AO2 T02890178
04850KAOH AOH20160711123011107/11/16 12:30:31  5-MIN KAOH 111730Z AUTO 24007KT 10SM FEW110 28/17 A3008 830 50 2600 250/07 RMK AO2 T02830172
04850KAOH AOH20160711123511107/11/16 12:35:31  5-MIN KAOH 111735Z AUTO VRB05KT 10SM FEW110 28/17 A3009 830 50 2600 VRB/05 RMK AO2 T02830172
04850KAOH AOH20160711124011107/11/16 12:40:31  5-MIN KAOH 111740Z AUTO 23006KT 10SM FEW110 28/17 A3008 830 48 2600 230/06 RMK AO2 T02830167
04850KAOH AOH20160711124511807/11/16 12:45:31  5-MIN KAOH 111745Z AUTO 18005KT 10SM FEW050 FEW110 28/17 A3009 830 50 2600 190/05 RMK AO2 T02830172
04850KAOH AOH20160711125014307/11/16 12:50:31  5-MIN KAOH 111750Z AUTO 19005KT 10SM SCT050 SCT110 28/18 A3008 830 52 2600 190/05 RMK AO2 SLP179 T02830178 10289 20200 58001
04850KAOH AOH20160711125513407/11/16 12:55:31  5-MIN KAOH 111755Z AUTO 18008KT 160V220 10SM FEW050 SCT110 29/17 A3008 830 48 2700 180/08 170V230 RMK AO2 T02890172
04850KAOH AOH20160711130011107/11/16 13:00:31  5-MIN KAOH 111800Z AUTO 20008KT 10SM FEW050 29/18 A3008 830 50 2700 200/08 RMK AO2 T02890178
04850KAOH AOH20160711130511107/11/16 13:05:31  5-MIN KAOH 111805Z AUTO 16004KT 10SM FEW050 29/17 A3008 830 48 2700 160/04 RMK AO2 T02890172
04850KAOH AOH20160711131011107/11/16 13:10:31  5-MIN KAOH 111810Z AUTO 21008KT 10SM FEW050 29/17 A3008 830 48 2600 210/08 RMK AO2 T02890172
04850KAOH AOH20160711131511107/11/16 13:15:31  5-MIN KAOH 111815Z AUTO 17004KT 10SM FEW050 29/17 A3008 830 47 2700 180/04 RMK AO2 T02890167
04850KAOH AOH20160711132010807/11/16 13:20:31  5-MIN KAOH 111820Z AUTO 20007KT 10SM CLR 29/17 A3007 830 48 2700 200/07 RMK AO2 T02890172
04850KAOH AOH20160711132510807/11/16 13:25:31  5-MIN KAOH 111825Z AUTO VRB05KT 10SM CLR 29/17 A3008 830 48 2700 VRB/05 RMK AO2 T02890172
04850KAOH AOH20160711133010807/11/16 13:30:31  5-MIN KAOH 111830Z AUTO 21007KT 10SM CLR 29/17 A3007 840 48 2700 210/07 RMK AO2 T02890172
04850KAOH AOH20160711133510807/11/16 13:35:31  5-MIN KAOH 111835Z AUTO 16005KT 10SM CLR 29/17 A3007 840 47 2700 170/05 RMK AO2 T02890167
04850KAOH AOH20160711134010807/11/16 13:40:31  5-MIN KAOH 111840Z AUTO VRB05KT 10SM CLR 29/18 A3007 840 50 2700 VRB/05 RMK AO2 T02890178
04850KAOH AOH20160711134510807/11/16 13:45:31  5-MIN KAOH 111845Z AUTO 17006KT 10SM CLR 29/17 A3007 840 48 2700 180/06 RMK AO2 T02890172
04850KAOH AOH20160711135011507/11/16 13:50:31  5-MIN KAOH 111850Z AUTO 21006KT 10SM CLR 29/17 A3006 850 48 2700 220/06 RMK AO2 SLP172 T02890172
04850KAOH AOH20160711135510807/11/16 13:55:31  5-MIN KAOH 111855Z AUTO 22008KT 10SM CLR 29/18 A3006 850 49 2700 230/08 RMK AO2 T02940178
04850KAOH AOH20160711140010807/11/16 14:00:31  5-MIN KAOH 111900Z AUTO VRB05KT 10SM CLR 29/17 A3006 850 47 2700 VRB/05 RMK AO2 T02890167
04850KAOH AOH20160711140510807/11/16 14:05:31  5-MIN KAOH 111905Z AUTO 21007KT 10SM CLR 29/17 A3006 850 47 2700 220/07 RMK AO2 T02940172
04850KAOH AOH20160711141010807/11/16 14:10:31  5-MIN KAOH 111910Z AUTO 21008KT 10SM CLR 29/18 A3006 850 49 2700 220/08 RMK AO2 T02940178
04850KAOH AOH20160711141509807/11/16 14:15:31  5-MIN KAOH 111915Z AUTO 10SM CLR 29/17 A3006 850 47 2700 M /M RMK AO2 T02890167
04850KAOH AOH20160711142010807/11/16 14:20:31  5-MIN KAOH 111920Z AUTO 00000KT 10SM CLR 29/16 A3006 850 44 2700 000/00 RMK AO2 T02940161
04850KAOH AOH20160711142510807/11/16 14:25:31  5-MIN KAOH 111925Z AUTO 16004KT 10SM CLR 29/17 A3005 850 45 2700 170/04 RMK AO2 T02940167
04850KAOH AOH20160711143010807/11/16 14:30:31  5-MIN KAOH 111930Z AUTO VRB06KT 10SM CLR 30/18 A3005 850 47 2800 VRB/06 RMK AO2 T03000178
04850KAOH AOH20160711143510807/11/16 14:35:31  5-MIN KAOH 111935Z AUTO 19008KT 10SM CLR 29/17 A3006 850 47 2700 190/08 RMK AO2 T02940172
04850KAOH AOH20160711144010807/11/16 14:40:31  5-MIN KAOH 111940Z AUTO 20005KT 10SM CLR 29/17 A3005 850 45 2700 200/05 RMK AO2 T02940167
04850KAOH AOH20160711144510807/11/16 14:45:31  5-MIN KAOH 111945Z AUTO 21005KT 10SM CLR 29/17 A3005 860 45 2700 220/05 RMK AO2 T02940167
04850KAOH AOH20160711145011507/11/16 14:50:31  5-MIN KAOH 111950Z AUTO VRB03KT 10SM CLR 29/18 A3005 860 49 2700 VRB/03 RMK AO2 SLP167 T02940178
04850KAOH AOH20160711145510807/11/16 14:55:31  5-MIN KAOH 111955Z AUTO 00000KT 10SM CLR 30/17 A3005 860 44 2800 000/00 RMK AO2 T03000167
04850KAOH AOH20160711150010807/11/16 15:00:31  5-MIN KAOH 112000Z AUTO 22007KT 10SM CLR 30/17 A3004 860 45 2800 220/07 RMK AO2 T03000172
04850KAOH AOH20160711150510807/11/16 15:05:31  5-MIN KAOH 112005Z AUTO 17006KT 10SM CLR 29/17 A3005 860 47 2700 180/06 RMK AO2 T02940172
04850KAOH AOH20160711151010807/11/16 15:10:31  5-MIN KAOH 112010Z AUTO 18007KT 10SM CLR 30/17 A3004 860 45 2800 190/07 RMK AO2 T03000172
04850KAOH AOH20160711151510807/11/16 15:15:31  5-MIN KAOH 112015Z AUTO VRB03KT 10SM CLR 29/17 A3004 860 45 2800 VRB/03 RMK AO2 T02940167
04850KAOH AOH20160711152010807/11/16 15:20:31  5-MIN KAOH 112020Z AUTO VRB04KT 10SM CLR 29/17 A3005 860 45 2800 VRB/04 RMK AO2 T02940167
04850KAOH AOH20160711152510807/11/16 15:25:31  5-MIN KAOH 112025Z AUTO VRB04KT 10SM CLR 31/17 A3004 860 42 2900 VRB/04 RMK AO2 T03060167
04850KAOH AOH20160711153010807/11/16 15:30:31  5-MIN KAOH 112030Z AUTO 21006KT 10SM CLR 30/17 A3004 860 44 2800 220/06 RMK AO2 T03000167
04850KAOH AOH20160711153510807/11/16 15:35:31  5-MIN KAOH 112035Z AUTO 24005KT 10SM CLR 29/17 A3004 860 47 2800 250/05 RMK AO2 T02940172
04850KAOH AOH20160711154010807/11/16 15:40:31  5-MIN KAOH 112040Z AUTO 23004KT 10SM CLR 30/17 A3004 870 45 2800 230/04 RMK AO2 T03000172
04850KAOH AOH20160711154510807/11/16 15:45:31  5-MIN KAOH 112045Z AUTO 23008KT 10SM CLR 30/17 A3004 870 45 2800 230/08 RMK AO2 T03000172
04850KAOH AOH20160711155012107/11/16 15:50:31  5-MIN KAOH 112050Z AUTO 18008KT 10SM CLR 29/16 A3004 870 44 2800 180/08 RMK AO2 SLP165 T02940161 58000
04850KAOH AOH20160711155510807/11/16 15:55:31  5-MIN KAOH 112055Z AUTO 18005KT 10SM CLR 30/16 A3004 870 42 2800 180/05 RMK AO2 T03000161
04850KAOH AOH20160711160010807/11/16 16:00:31  5-MIN KAOH 112100Z AUTO 19008KT 10SM CLR 30/17 A3004 870 44 2800 200/08 RMK AO2 T03000167
04850KAOH AOH20160711160510807/11/16 16:05:31  5-MIN KAOH 112105Z AUTO 21007KT 10SM CLR 29/17 A3003 880 45 2800 220/07 RMK AO2 T02940167
04850KAOH AOH20160711161010807/11/16 16:10:31  5-MIN KAOH 112110Z AUTO 16005KT 10SM CLR 29/17 A3003 880 45 2800 170/05 RMK AO2 T02940167
04850KAOH AOH20160711161510807/11/16 16:15:31  5-MIN KAOH 112115Z AUTO 21006KT 10SM CLR 30/17 A3003 880 45 2800 210/06 RMK AO2 T03000172
04850KAOH AOH20160711162010807/11/16 16:20:31  5-MIN KAOH 112120Z AUTO 20008KT 10SM CLR 30/17 A3003 880 45 2800 210/08 RMK AO2 T03000172
04850KAOH AOH20160711162510807/11/16 16:25:31  5-MIN KAOH 112125Z AUTO 25006KT 10SM CLR 30/17 A3003 880 44 2800 250/06 RMK AO2 T03000167
04850KAOH AOH20160711163010807/11/16 16:30:31  5-MIN KAOH 112130Z AUTO 23006KT 10SM CLR 30/17 A3003 880 45 2800 240/06 RMK AO2 T03000172
04850KAOH AOH20160711163510807/11/16 16:35:31  5-MIN KAOH 112135Z AUTO 19005KT 10SM CLR 30/17 A3003 880 45 2800 200/05 RMK AO2 T03000172
04850KAOH AOH20160711164010807/11/16 16:40:31  5-MIN KAOH 112140Z AUTO 22005KT 10SM CLR 30/17 A3003 880 44 2800 230/05 RMK AO2 T03000167
04850KAOH AOH20160711164510807/11/16 16:45:31  5-MIN KAOH 112145Z AUTO 21005KT 10SM CLR 30/17 A3002 880 44 2800 220/05 RMK AO2 T03000167
04850KAOH AOH20160711165011507/11/16 16:50:31  5-MIN KAOH 112150Z AUTO 24006KT 10SM CLR 30/16 A3002 880 42 2800 250/06 RMK AO2 SLP160 T03000161
04850KAOH AOH20160711165510807/11/16 16:55:31  5-MIN KAOH 112155Z AUTO 23006KT 10SM CLR 30/17 A3002 880 44 2800 240/06 RMK AO2 T03000167
04850KAOH AOH20160711170010807/11/16 17:00:31  5-MIN KAOH 112200Z AUTO 21005KT 10SM CLR 30/17 A3002 890 45 2800 220/05 RMK AO2 T03000172
04850KAOH AOH20160711170510807/11/16 17:05:31  5-MIN KAOH 112205Z AUTO 20006KT 10SM CLR 30/17 A3002 890 44 2800 200/06 RMK AO2 T03000167
04850KAOH AOH20160711171010807/11/16 17:10:31  5-MIN KAOH 112210Z AUTO 23008KT 10SM CLR 30/17 A3002 880 44 2800 230/08 RMK AO2 T03000167
04850KAOH AOH20160711171510807/11/16 17:15:31  5-MIN KAOH 112215Z AUTO 22004KT 10SM CLR 30/17 A3002 880 44 2800 220/04 RMK AO2 T03000167
04850KAOH AOH20160711172010807/11/16 17:20:31  5-MIN KAOH 112220Z AUTO 22005KT 10SM CLR 30/17 A3002 890 44 2800 230/05 RMK AO2 T03000167
04850KAOH AOH20160711172510807/11/16 17:25:31  5-MIN KAOH 112225Z AUTO 19003KT 10SM CLR 30/16 A3002 890 42 2800 190/03 RMK AO2 T03000161
04850KAOH AOH20160711173010807/11/16 17:30:31  5-MIN KAOH 112230Z AUTO 20004KT 10SM CLR 30/17 A3002 890 44 2800 200/04 RMK AO2 T03000167
04850KAOH AOH20160711173510807/11/16 17:35:31  5-MIN KAOH 112235Z AUTO 17007KT 10SM CLR 30/17 A3001 890 44 2800 180/07 RMK AO2 T03000167
04850KAOH AOH20160711174010807/11/16 17:40:31  5-MIN KAOH 112240Z AUTO 17004KT 10SM CLR 30/17 A3001 890 45 2800 180/04 RMK AO2 T03000172
04850KAOH AOH20160711174510807/11/16 17:45:31  5-MIN KAOH 112245Z AUTO 18005KT 10SM CLR 30/16 A3002 890 42 2800 190/05 RMK AO2 T03000161
04850KAOH AOH20160711175011507/11/16 17:50:31  5-MIN KAOH 112250Z AUTO 17004KT 10SM CLR 29/17 A3002 890 47 2800 180/04 RMK AO2 SLP157 T02940172
04850KAOH AOH20160711175510807/11/16 17:55:31  5-MIN KAOH 112255Z AUTO 17004KT 10SM CLR 30/17 A3002 890 44 2800 180/04 RMK AO2 T03000167
04850KAOH AOH20160711180010807/11/16 18:00:31  5-MIN KAOH 112300Z AUTO 18004KT 10SM CLR 30/17 A3001 890 44 2800 190/04 RMK AO2 T03000167
04850KAOH AOH20160711180510807/11/16 18:05:31  5-MIN KAOH 112305Z AUTO 20004KT 10SM CLR 29/17 A3001 890 45 2800 210/04 RMK AO2 T02940167
04850KAOH AOH20160711181010807/11/16 18:10:31  5-MIN KAOH 112310Z AUTO 20004KT 10SM CLR 29/17 A3001 890 45 2800 210/04 RMK AO2 T02940167
04850KAOH AOH20160711181510807/11/16 18:15:31  5-MIN KAOH 112315Z AUTO 18005KT 10SM CLR 29/17 A3001 900 47 2800 190/05 RMK AO2 T02940172
04850KAOH AOH20160711182010807/11/16 18:20:31  5-MIN KAOH 112320Z AUTO 17005KT 10SM CLR 29/17 A3001 900 47 2800 180/05 RMK AO2 T02940172
04850KAOH AOH20160711182510807/11/16 18:25:31  5-MIN KAOH 112325Z AUTO 18004KT 10SM CLR 29/17 A3001 900 47 2800 190/04 RMK AO2 T02940172
04850KAOH AOH20160711183010807/11/16 18:30:31  5-MIN KAOH 112330Z AUTO 16004KT 10SM CLR 29/17 A3001 900 47 2800 170/04 RMK AO2 T02940172
04850KAOH AOH20160711183510807/11/16 18:35:31  5-MIN KAOH 112335Z AUTO 18005KT 10SM CLR 29/17 A3001 900 45 2800 180/05 RMK AO2 T02940167
04850KAOH AOH20160711184010807/11/16 18:40:31  5-MIN KAOH 112340Z AUTO 17004KT 10SM CLR 29/17 A3001 900 47 2800 170/04 RMK AO2 T02940172
04850KAOH AOH20160711184510807/11/16 18:45:31  5-MIN KAOH 112345Z AUTO 18005KT 10SM CLR 29/18 A3001 900 49 2800 180/05 RMK AO2 T02940178
04850KAOH AOH20160711185013307/11/16 18:50:31  5-MIN KAOH 112350Z AUTO 18004KT 10SM CLR 29/18 A3001 900 50 2700 190/04 RMK AO2 SLP153 T02890178 10306 20289 56014
04850KAOH AOH20160711185510807/11/16 18:55:31  5-MIN KAOH 112355Z AUTO 17005KT 10SM CLR 29/18 A3001 900 50 2700 180/05 RMK AO2 T02890178
04850KAOH AOH20160711190010807/11/16 19:00:31  5-MIN KAOH 120000Z AUTO 16004KT 10SM CLR 29/18 A3001 900 49 2800 170/04 RMK AO2 T02940178
04850KAOH AOH20160711190510807/11/16 19:05:31  5-MIN KAOH 120005Z AUTO 16004KT 10SM CLR 29/19 A3001 890 54 2700 170/04 RMK AO2 T02890189
04850KAOH AOH20160711191010807/11/16 19:10:31  5-MIN KAOH 120010Z AUTO 17004KT 10SM CLR 29/19 A3001 900 54 2700 180/04 RMK AO2 T02890189
04850KAOH AOH20160711191510807/11/16 19:15:31  5-MIN KAOH 120015Z AUTO 16004KT 10SM CLR 28/19 A3001 900 56 2700 170/04 RMK AO2 T02830189
04850KAOH AOH20160711192010807/11/16 19:20:31  5-MIN KAOH 120020Z AUTO 16004KT 10SM CLR 28/19 A3001 900 58 2700 170/04 RMK AO2 T02830194
04850KAOH AOH20160711192510807/11/16 19:25:31  5-MIN KAOH 120025Z AUTO 15004KT 10SM CLR 28/19 A3001 890 58 2700 160/04 RMK AO2 T02830194
04850KAOH AOH20160711193010807/11/16 19:30:31  5-MIN KAOH 120030Z AUTO 16003KT 10SM CLR 28/19 A3001 890 60 2600 170/03 RMK AO2 T02780194
04850KAOH AOH20160711193510807/11/16 19:35:31  5-MIN KAOH 120035Z AUTO 15003KT 10SM CLR 28/19 A3001 900 60 2600 160/03 RMK AO2 T02780194
04850KAOH AOH20160711194010807/11/16 19:40:31  5-MIN KAOH 120040Z AUTO 15003KT 10SM CLR 28/19 A3001 900 60 2600 160/03 RMK AO2 T02780194
04850KAOH AOH20160711194510807/11/16 19:45:31  5-MIN KAOH 120045Z AUTO 15004KT 10SM CLR 27/19 A3001 900 62 2500 150/04 RMK AO2 T02720194
04850KAOH AOH20160711195011507/11/16 19:50:31  5-MIN KAOH 120050Z AUTO 14004KT 10SM CLR 27/19 A3001 890 62 2500 150/04 RMK AO2 SLP154 T02720194
04850KAOH AOH20160711195510807/11/16 19:55:31  5-MIN KAOH 120055Z AUTO 14004KT 10SM CLR 27/19 A3001 900 64 2500 150/04 RMK AO2 T02670194
04850KAOH AOH20160711200010807/11/16 20:00:31  5-MIN KAOH 120100Z AUTO 14003KT 10SM CLR 27/19 A3001 900 62 2500 150/03 RMK AO2 T02670189
04850KAOH AOH20160711200510807/11/16 20:05:31  5-MIN KAOH 120105Z AUTO 15003KT 10SM CLR 27/19 A3001 900 62 2500 160/03 RMK AO2 T02670189
04850KAOH AOH20160711201010807/11/16 20:10:31  5-MIN KAOH 120110Z AUTO 17003KT 10SM CLR 27/19 A3001 890 64 2500 180/03 RMK AO2 T02670194
04850KAOH AOH20160711201510807/11/16 20:15:31  5-MIN KAOH 120115Z AUTO 18003KT 10SM CLR 27/19 A3002 890 62 2500 180/03 RMK AO2 T02670189
04850KAOH AOH20160711202010807/11/16 20:20:31  5-MIN KAOH 120120Z AUTO 19004KT 10SM CLR 27/19 A3002 890 62 2500 200/04 RMK AO2 T02670189
04850KAOH AOH20160711202510807/11/16 20:25:31  5-MIN KAOH 120125Z AUTO 17004KT 10SM CLR 26/19 A3001 890 64 2400 180/04 RMK AO2 T02610189
04850KAOH AOH20160711203010807/11/16 20:30:31  5-MIN KAOH 120130Z AUTO 17004KT 10SM CLR 26/19 A3001 890 64 2400 180/04 RMK AO2 T02610189
04850KAOH AOH20160711203510807/11/16 20:35:31  5-MIN KAOH 120135Z AUTO 17004KT 10SM CLR 26/19 A3001 890 68 2400 170/04 RMK AO2 T02560194
04850KAOH AOH20160711204010807/11/16 20:40:31  5-MIN KAOH 120140Z AUTO 16003KT 10SM CLR 25/19 A3001 890 68 2300 160/03 RMK AO2 T02500189
04850KAOH AOH20160711204510807/11/16 20:45:31  5-MIN KAOH 120145Z AUTO 18003KT 10SM CLR 25/19 A3002 890 68 2300 180/03 RMK AO2 T02500189
04850KAOH AOH20160711205011507/11/16 20:50:31  5-MIN KAOH 120150Z AUTO 00000KT 10SM CLR 26/19 A3002 890 66 2300 000/00 RMK AO2 SLP157 T02560189
04850KAOH AOH20160711205510807/11/16 20:55:31  5-MIN KAOH 120155Z AUTO 00000KT 10SM CLR 26/18 A3002 890 62 2400 000/00 RMK AO2 T02610183
04850KAOH AOH20160711210010807/11/16 21:00:31  5-MIN KAOH 120200Z AUTO 00000KT 10SM CLR 26/18 A3002 890 62 2400 000/00 RMK AO2 T02610183
04850KAOH AOH20160711210510807/11/16 21:05:31  5-MIN KAOH 120205Z AUTO 18003KT 10SM CLR 26/18 A3002 890 64 2300 190/03 RMK AO2 T02560183
04850KAOH AOH20160711211010807/11/16 21:10:31  5-MIN KAOH 120210Z AUTO 18003KT 10SM CLR 24/19 A3002 890 71 2200 180/03 RMK AO2 T02440189
04850KAOH AOH20160711211510807/11/16 21:15:31  5-MIN KAOH 120215Z AUTO 17003KT 10SM CLR 24/19 A3002 890 76 2200 170/03 RMK AO2 T02390194
04850KAOH AOH20160711212010807/11/16 21:20:31  5-MIN KAOH 120220Z AUTO 17003KT 10SM CLR 24/19 A3002 890 76 2200 170/03 RMK AO2 T02390194
04850KAOH AOH20160711212510807/11/16 21:25:31  5-MIN KAOH 120225Z AUTO 17004KT 10SM CLR 24/19 A3002 880 71 2200 180/04 RMK AO2 T02440189
04850KAOH AOH20160711213010807/11/16 21:30:31  5-MIN KAOH 120230Z AUTO 17004KT 10SM CLR 24/19 A3002 880 71 2200 180/04 RMK AO2 T02440189
04850KAOH AOH20160711213510807/11/16 21:35:31  5-MIN KAOH 120235Z AUTO 17004KT 10SM CLR 24/19 A3002 880 71 2200 180/04 RMK AO2 T02440189
04850KAOH AOH20160711214010807/11/16 21:40:31  5-MIN KAOH 120240Z AUTO 18003KT 10SM CLR 24/19 A3003 880 73 2200 190/03 RMK AO2 T02390189
04850KAOH AOH20160711214510807/11/16 21:45:31  5-MIN KAOH 120245Z AUTO 19003KT 10SM CLR 24/19 A3003 880 73 2100 190/03 RMK AO2 T02390189
04850KAOH AOH20160711215012107/11/16 21:50:31  5-MIN KAOH 120250Z AUTO 19003KT 10SM CLR 24/18 A3003 880 68 2200 190/03 RMK AO2 SLP160 T02440183 56010
04850KAOH AOH20160711215510807/11/16 21:55:31  5-MIN KAOH 120255Z AUTO 19003KT 10SM CLR 24/18 A3003 880 68 2200 200/03 RMK AO2 T02440183
04850KAOH AOH20160711220010807/11/16 22:00:31  5-MIN KAOH 120300Z AUTO 20004KT 10SM CLR 24/18 A3003 880 68 2200 200/04 RMK AO2 T02440183
04850KAOH AOH20160711220510807/11/16 22:05:31  5-MIN KAOH 120305Z AUTO 19004KT 10SM CLR 24/18 A3003 880 66 2200 200/04 RMK AO2 T02440178
04850KAOH AOH20160711221010807/11/16 22:10:31  5-MIN KAOH 120310Z AUTO 18003KT 10SM CLR 24/18 A3002 880 66 2200 190/03 RMK AO2 T02440178
04850KAOH AOH20160711221510807/11/16 22:15:31  5-MIN KAOH 120315Z AUTO 18003KT 10SM CLR 24/18 A3002 880 71 2200 190/03 RMK AO2 T02390183
04850KAOH AOH20160711222010807/11/16 22:20:31  5-MIN KAOH 120320Z AUTO 17003KT 10SM CLR 23/19 A3002 880 76 2100 180/03 RMK AO2 T02330189
04850KAOH AOH20160711222510807/11/16 22:25:31  5-MIN KAOH 120325Z AUTO 17004KT 10SM CLR 23/18 A3002 880 76 2000 170/04 RMK AO2 T02280183
04850KAOH AOH20160711223010807/11/16 22:30:31  5-MIN KAOH 120330Z AUTO 17005KT 10SM CLR 23/18 A3002 880 76 2000 170/05 RMK AO2 T02280183
04850KAOH AOH20160711223510807/11/16 22:35:31  5-MIN KAOH 120335Z AUTO 17004KT 10SM CLR 23/18 A3002 890 76 2000 180/04 RMK AO2 T02280183
04850KAOH AOH20160711224010807/11/16 22:40:31  5-MIN KAOH 120340Z AUTO 18004KT 10SM CLR 23/18 A3002 890 76 2000 190/04 RMK AO2 T02280183
04850KAOH AOH20160711224510807/11/16 22:45:31  5-MIN KAOH 120345Z AUTO 17004KT 10SM CLR 23/18 A3002 890 73 2100 180/04 RMK AO2 T02330183
04850KAOH AOH20160711225011507/11/16 22:50:31  5-MIN KAOH 120350Z AUTO 17004KT 10SM CLR 23/18 A3001 890 73 2100 180/04 RMK AO2 SLP156 T02330183
04850KAOH AOH20160711225510807/11/16 22:55:31  5-MIN KAOH 120355Z AUTO 17004KT 10SM CLR 23/18 A3001 890 76 2000 180/04 RMK AO2 T02280183
04850KAOH AOH20160711230010807/11/16 23:00:31  5-MIN KAOH 120400Z AUTO 17003KT 10SM CLR 23/18 A3002 890 76 2000 180/03 RMK AO2 T02280183
04850KAOH AOH20160711230510807/11/16 23:05:31  5-MIN KAOH 120405Z AUTO 16003KT 10SM CLR 23/18 A3002 890 76 2000 170/03 RMK AO2 T02280183
04850KAOH AOH20160711231010807/11/16 23:10:31  5-MIN KAOH 120410Z AUTO 16003KT 10SM CLR 23/18 A3002 890 76 2000 170/03 RMK AO2 T02280183
04850KAOH AOH20160711231510807/11/16 23:15:31  5-MIN KAOH 120415Z AUTO 15004KT 10SM CLR 23/18 A3002 890 76 2000 150/04 RMK AO2 T02280183
04850KAOH AOH20160711232010807/11/16 23:20:31  5-MIN KAOH 120420Z AUTO 16004KT 10SM CLR 22/18 A3002 890 75 2000 170/04 RMK AO2 T02220178
04850KAOH AOH20160711232510807/11/16 23:25:31  5-MIN KAOH 120425Z AUTO 16004KT 10SM CLR 22/18 A3002 890 78 2000 160/04 RMK AO2 T02220183
04850KAOH AOH20160711233010807/11/16 23:30:31  5-MIN KAOH 120430Z AUTO 17004KT 10SM CLR 22/18 A3001 890 78 2000 170/04 RMK AO2 T02220183
04850KAOH AOH20160711233510807/11/16 23:35:31  5-MIN KAOH 120435Z AUTO 16005KT 10SM CLR 22/18 A3001 890 78 2000 170/05 RMK AO2 T02220183
04850KAOH AOH20160711234010807/11/16 23:40:31  5-MIN KAOH 120440Z AUTO 17005KT 10SM CLR 22/18 A3001 890 78 2000 180/05 RMK AO2 T02220183
04850KAOH AOH20160711234510807/11/16 23:45:31  5-MIN KAOH 120445Z AUTO 17005KT 10SM CLR 22/18 A3001 900 81 1900 170/05 RMK AO2 T02170183
04850KAOH AOH20160711235012507/11/16 23:50:31  5-MIN KAOH 120450Z AUTO 17005KT 10SM CLR 22/18 A3001 900 81 1900 180/05 RMK AO2 SLP154 T02170183 403060172
04850KAOH AOH20160711235510807/11/16 23:55:31  5-MIN KAOH 120455Z AUTO 17005KT 10SM CLR 22/18 A3001 900 81 1900 170/05 RMK AO2 T02170183
04850KAOH AOH20160712000010807/12/16 00:00:31  5-MIN KAOH 120500Z AUTO 17004KT 10SM CLR 22/18 A3001 900 81 1900 170/04 RMK AO2 T02170183
04850KAOH AOH20160712000510807/12/16 00:05:31  5-MIN KAOH 120505Z AUTO 16004KT 10SM CLR 22/18 A3001 900 81 1900 170/04 RMK AO2 T02170183
04850KAOH AOH20160712001010807/12/16 00:10:31  5-MIN KAOH 120510Z AUTO 15004KT 10SM CLR 22/18 A3000 900 78 1900 160/04 RMK AO2 T02170178
04850KAOH AOH20160712001510807/12/16 00:15:31  5-MIN KAOH 120515Z AUTO 15004KT 10SM CLR 22/18 A3000 900 78 1900 160/04 RMK AO2 T02170178
04850KAOH AOH20160712002010807/12/16 00:20:31  5-MIN KAOH 120520Z AUTO 17004KT 10SM CLR 22/18 A3000 900 78 1900 170/04 RMK AO2 T02170178
04850KAOH AOH20160712002510807/12/16 00:25:31  5-MIN KAOH 120525Z AUTO 17004KT 10SM CLR 22/18 A3000 900 78 1900 170/04 RMK AO2 T02170178
04850KAOH AOH20160712003010807/12/16 00:30:31  5-MIN KAOH 120530Z AUTO 17004KT 10SM CLR 22/18 A3000 900 78 1900 180/04 RMK AO2 T02170178
04850KAOH AOH20160712003510807/12/16 00:35:31  5-MIN KAOH 120535Z AUTO 17004KT 10SM CLR 22/18 A3000 900 78 1900 170/04 RMK AO2 T02170178
04850KAOH AOH20160712004010807/12/16 00:40:31  5-MIN KAOH 120540Z AUTO 16004KT 10SM CLR 22/18 A3000 900 78 1900 170/04 RMK AO2 T02170178
04850KAOH AOH20160712004510807/12/16 00:45:31  5-MIN KAOH 120545Z AUTO 16004KT 10SM CLR 22/18 A3000 900 78 1900 160/04 RMK AO2 T02170178
04850KAOH AOH20160712005013307/12/16 00:50:31  5-MIN KAOH 120550Z AUTO 15004KT 10SM CLR 22/18 A3000 900 78 1900 150/04 RMK AO2 SLP152 T02170178 10294 20217 53006
04850KAOH AOH20160712005510807/12/16 00:55:31  5-MIN KAOH 120555Z AUTO 15004KT 10SM CLR 21/18 A3001 900 81 1900 150/04 RMK AO2 T02110178
04850KAOH AOH20160712010010807/12/16 01:00:31  5-MIN KAOH 120600Z AUTO 15004KT 10SM CLR 21/18 A3001 900 81 1900 160/04 RMK AO2 T02110178
04850KAOH AOH20160712010510807/12/16 01:05:31  5-MIN KAOH 120605Z AUTO 15004KT 10SM CLR 22/18 A3001 900 78 1900 160/04 RMK AO2 T02170178
04850KAOH AOH20160712011010807/12/16 01:10:31  5-MIN KAOH 120610Z AUTO 15004KT 10SM CLR 21/18 A3000 900 81 1900 160/04 RMK AO2 T02110178
04850KAOH AOH20160712011510807/12/16 01:15:31  5-MIN KAOH 120615Z AUTO 16004KT 10SM CLR 21/18 A3000 900 81 1900 160/04 RMK AO2 T02110178
04850KAOH AOH20160712012010807/12/16 01:20:31  5-MIN KAOH 120620Z AUTO 15005KT 10SM CLR 21/18 A3000 900 81 1900 150/05 RMK AO2 T02110178
04850KAOH AOH20160712012510807/12/16 01:25:31  5-MIN KAOH 120625Z AUTO 15005KT 10SM CLR 21/18 A3001 900 81 1900 160/05 RMK AO2 T02110178
04850KAOH AOH20160712013010807/12/16 01:30:31  5-MIN KAOH 120630Z AUTO 15005KT 10SM CLR 21/18 A3000 900 81 1900 160/05 RMK AO2 T02110178
04850KAOH AOH20160712013510807/12/16 01:35:31  5-MIN KAOH 120635Z AUTO 16006KT 10SM CLR 21/18 A3001 900 81 1900 170/06 RMK AO2 T02110178
04850KAOH AOH20160712014010807/12/16 01:40:31  5-MIN KAOH 120640Z AUTO 17006KT 10SM CLR 21/18 A3000 900 81 1900 170/06 RMK AO2 T02110178
04850KAOH AOH20160712014510807/12/16 01:45:31  5-MIN KAOH 120645Z AUTO 17006KT 10SM CLR 21/18 A3000 900 81 1900 170/06 RMK AO2 T02110178
04850KAOH AOH20160712015011507/12/16 01:50:31  5-MIN KAOH 120650Z AUTO 17007KT 10SM CLR 21/18 A3000 900 81 1900 170/07 RMK AO2 SLP151 T02110178
04850KAOH AOH20160712015510807/12/16 01:55:31  5-MIN KAOH 120655Z AUTO 17007KT 10SM CLR 21/18 A3000 900 81 1900 170/07 RMK AO2 T02110178
04850KAOH AOH20160712020010807/12/16 02:00:31  5-MIN KAOH 120700Z AUTO 17006KT 10SM CLR 21/18 A3000 900 81 1900 180/06 RMK AO2 T02110178
04850KAOH AOH20160712020510807/12/16 02:05:31  5-MIN KAOH 120705Z AUTO 17006KT 10SM CLR 21/18 A3000 900 81 1900 180/06 RMK AO2 T02110178
04850KAOH AOH20160712021010807/12/16 02:10:31  5-MIN KAOH 120710Z AUTO 17005KT 10SM CLR 21/18 A3000 900 84 1800 170/05 RMK AO2 T02060178
04850KAOH AOH20160712021510807/12/16 02:15:31  5-MIN KAOH 120715Z AUTO 17005KT 10SM CLR 21/18 A3000 900 84 1800 180/05 RMK AO2 T02060178
04850KAOH AOH20160712022010807/12/16 02:20:31  5-MIN KAOH 120720Z AUTO 17005KT 10SM CLR 21/18 A3000 900 84 1800 170/05 RMK AO2 T02060178
04850KAOH AOH20160712022510807/12/16 02:25:31  5-MIN KAOH 120725Z AUTO 17006KT 10SM CLR 20/18 A3000 900 87 1700 170/06 RMK AO2 T02000178
04850KAOH AOH20160712023010807/12/16 02:30:31  5-MIN KAOH 120730Z AUTO 17006KT 10SM CLR 20/18 A3000 900 87 1700 170/06 RMK AO2 T02000178
04850KAOH AOH20160712023510807/12/16 02:35:31  5-MIN KAOH 120735Z AUTO 17006KT 10SM CLR 20/18 A3000 900 87 1700 180/06 RMK AO2 T02000178
04850KAOH AOH20160712024010807/12/16 02:40:31  5-MIN KAOH 120740Z AUTO 17005KT 10SM CLR 20/18 A3000 900 87 1700 170/05 RMK AO2 T02000178
04850KAOH AOH20160712024510807/12/16 02:45:31  5-MIN KAOH 120745Z AUTO 16006KT 10SM CLR 20/18 A3000 900 87 1700 170/06 RMK AO2 T02000178
04850KAOH AOH20160712025011507/12/16 02:50:31  5-MIN KAOH 120750Z AUTO 16005KT 10SM CLR 20/18 A3000 900 87 1700 170/05 RMK AO2 SLP151 T02000178
04850KAOH AOH20160712025510807/12/16 02:55:31  5-MIN KAOH 120755Z AUTO 16006KT 10SM CLR 20/18 A3000 900 87 1700 160/06 RMK AO2 T02000178
04850KAOH AOH20160712030010807/12/16 03:00:31  5-MIN KAOH 120800Z AUTO 16007KT 10SM CLR 20/18 A3000 900 87 1700 170/07 RMK AO2 T02000178
04850KAOH AOH20160712030510807/12/16 03:05:31  5-MIN KAOH 120805Z AUTO 16006KT 10SM CLR 20/18 A3000 900 87 1700 170/06 RMK AO2 T02000178
04850KAOH AOH20160712031010807/12/16 03:10:31  5-MIN KAOH 120810Z AUTO 15006KT 10SM CLR 20/18 A3000 900 87 1700 160/06 RMK AO2 T02000178
04850KAOH AOH20160712031510807/12/16 03:15:31  5-MIN KAOH 120815Z AUTO 15006KT 10SM CLR 20/18 A3000 900 87 1700 160/06 RMK AO2 T02000178
04850KAOH AOH20160712032010807/12/16 03:20:31  5-MIN KAOH 120820Z AUTO 15007KT 10SM CLR 20/18 A3000 900 87 1700 150/07 RMK AO2 T02000178
04850KAOH AOH20160712032510807/12/16 03:25:31  5-MIN KAOH 120825Z AUTO 15006KT 10SM CLR 20/18 A3000 910 87 1700 160/06 RMK AO2 T02000178
04850KAOH AOH20160712033010807/12/16 03:30:31  5-MIN KAOH 120830Z AUTO 16006KT 10SM CLR 20/18 A3000 910 87 1700 170/06 RMK AO2 T02000178
04850KAOH AOH20160712033510807/12/16 03:35:31  5-MIN KAOH 120835Z AUTO 16006KT 10SM CLR 20/18 A3000 910 87 1700 170/06 RMK AO2 T02000178
04850KAOH AOH20160712034010807/12/16 03:40:31  5-MIN KAOH 120840Z AUTO 16006KT 10SM CLR 20/18 A3000 910 87 1700 170/06 RMK AO2 T02000178
04850KAOH AOH20160712034510807/12/16 03:45:31  5-MIN KAOH 120845Z AUTO 16006KT 10SM CLR 20/18 A3000 910 87 1700 170/06 RMK AO2 T02000178
04850KAOH AOH20160712035012107/12/16 03:50:31  5-MIN KAOH 120850Z AUTO 17006KT 10SM CLR 20/18 A3000 910 87 1700 170/06 RMK AO2 SLP150 T02000178 56007
04850KAOH AOH20160712035510807/12/16 03:55:31  5-MIN KAOH 120855Z AUTO 17006KT 10SM CLR 20/18 A3000 910 87 1700 170/06 RMK AO2 T02000178
04850KAOH AOH20160712040010807/12/16 04:00:31  5-MIN KAOH 120900Z AUTO 17006KT 10SM CLR 20/18 A3000 910 87 1700 170/06 RMK AO2 T02000178
04850KAOH AOH20160712040510807/12/16 04:05:31  5-MIN KAOH 120905Z AUTO 17006KT 10SM CLR 19/18 A2999 910 90 1700 170/06 RMK AO2 T01940178
04850KAOH AOH20160712041010807/12/16 04:10:31  5-MIN KAOH 120910Z AUTO 16006KT 10SM CLR 19/18 A3000 910 90 1700 170/06 RMK AO2 T01940178
04850KAOH AOH20160712041510807/12/16 04:15:31  5-MIN KAOH 120915Z AUTO 16006KT 10SM CLR 19/18 A2999 910 90 1700 170/06 RMK AO2 T01940178
04850KAOH AOH20160712042010807/12/16 04:20:31  5-MIN KAOH 120920Z AUTO 16006KT 10SM CLR 19/18 A2999 910 90 1700 170/06 RMK AO2 T01940178
04850KAOH AOH20160712042510807/12/16 04:25:31  5-MIN KAOH 120925Z AUTO 16006KT 10SM CLR 19/18 A2999 910 93 1600 160/06 RMK AO2 T01890178
04850KAOH AOH20160712043010807/12/16 04:30:31  5-MIN KAOH 120930Z AUTO 16006KT 10SM CLR 19/18 A2999 910 93 1600 170/06 RMK AO2 T01890178
04850KAOH AOH20160712043510807/12/16 04:35:31  5-MIN KAOH 120935Z AUTO 16006KT 10SM CLR 19/18 A2999 910 90 1700 160/06 RMK AO2 T01940178
04850KAOH AOH20160712044010807/12/16 04:40:31  5-MIN KAOH 120940Z AUTO 16006KT 10SM CLR 19/18 A2999 910 90 1700 160/06 RMK AO2 T01940178
04850KAOH AOH20160712044510807/12/16 04:45:31  5-MIN KAOH 120945Z AUTO 16006KT 10SM CLR 19/18 A2999 910 90 1700 160/06 RMK AO2 T01940178
04850KAOH AOH20160712045011507/12/16 04:50:31  5-MIN KAOH 120950Z AUTO 16007KT 10SM CLR 19/18 A2999 910 90 1700 160/07 RMK AO2 SLP149 T01940178
04850KAOH AOH20160712045510807/12/16 04:55:31  5-MIN KAOH 120955Z AUTO 16006KT 10SM CLR 19/18 A2999 910 90 1700 160/06 RMK AO2 T01940178
04850KAOH AOH20160712050010807/12/16 05:00:31  5-MIN KAOH 121000Z AUTO 16007KT 10SM CLR 19/18 A2999 910 90 1700 160/07 RMK AO2 T01940178
04850KAOH AOH20160712050510807/12/16 05:05:31  5-MIN KAOH 121005Z AUTO 16007KT 10SM CLR 19/18 A2999 910 90 1700 170/07 RMK AO2 T01940178
04850KAOH AOH20160712051010807/12/16 05:10:31  5-MIN KAOH 121010Z AUTO 16007KT 10SM CLR 19/18 A2999 910 90 1700 170/07 RMK AO2 T01940178
04850KAOH AOH20160712051510807/12/16 05:15:31  5-MIN KAOH 121015Z AUTO 17006KT 10SM CLR 20/18 A2999 910 87 1700 170/06 RMK AO2 T02000178
04850KAOH AOH20160712052010807/12/16 05:20:31  5-MIN KAOH 121020Z AUTO 17006KT 10SM CLR 20/18 A3000 910 87 1700 170/06 RMK AO2 T02000178
04850KAOH AOH20160712052510807/12/16 05:25:31  5-MIN KAOH 121025Z AUTO 17006KT 10SM CLR 20/18 A3000 910 87 1700 170/06 RMK AO2 T02000178
04850KAOH AOH20160712053010807/12/16 05:30:31  5-MIN KAOH 121030Z AUTO 16007KT 10SM CLR 19/18 A3000 900 90 1700 170/07 RMK AO2 T01940178
04850KAOH AOH20160712053510807/12/16 05:35:31  5-MIN KAOH 121035Z AUTO 16006KT 10SM CLR 19/18 A3000 900 90 1700 170/06 RMK AO2 T01940178
04850KAOH AOH20160712054010807/12/16 05:40:31  5-MIN KAOH 121040Z AUTO 17006KT 10SM CLR 19/18 A3001 900 90 1700 180/06 RMK AO2 T01940178
04850KAOH AOH20160712054510807/12/16 05:45:31  5-MIN KAOH 121045Z AUTO 18005KT 10SM CLR 20/18 A3001 900 87 1700 180/05 RMK AO2 T02000178
04850KAOH AOH20160712055011507/12/16 05:50:31  5-MIN KAOH 121050Z AUTO 17005KT 10SM CLR 21/18 A3001 900 84 1800 180/05 RMK AO2 SLP152 T02060178
04850KAOH AOH20160712055510807/12/16 05:55:31  5-MIN KAOH 121055Z AUTO 17006KT 10SM CLR 20/18 A3001 900 87 1700 180/06 RMK AO2 T02000178
04850KAOH AOH20160712060010807/12/16 06:00:31  5-MIN KAOH 121100Z AUTO 17006KT 10SM CLR 21/18 A3001 900 84 1800 180/06 RMK AO2 T02060178
04850KAOH AOH20160712060510807/12/16 06:05:31  5-MIN KAOH 121105Z AUTO 18006KT 10SM CLR 21/18 A3001 900 84 1800 180/06 RMK AO2 T02060178
04850KAOH AOH20160712061010807/12/16 06:10:31  5-MIN KAOH 121110Z AUTO 18006KT 10SM CLR 21/18 A3001 890 81 1800 190/06 RMK AO2 T02110178
04850KAOH AOH20160712061510807/12/16 06:15:31  5-MIN KAOH 121115Z AUTO 17005KT 10SM CLR 21/18 A3002 890 84 1800 180/05 RMK AO2 T02110183
04850KAOH AOH20160712062010807/12/16 06:20:31  5-MIN KAOH 121120Z AUTO 17005KT 10SM CLR 21/18 A3002 890 84 1800 180/05 RMK AO2 T02110183
04850KAOH AOH20160712062510807/12/16 06:25:31  5-MIN KAOH 121125Z AUTO 18005KT 10SM CLR 21/18 A3002 890 84 1800 180/05 RMK AO2 T02110183
04850KAOH AOH20160712063010807/12/16 06:30:31  5-MIN KAOH 121130Z AUTO 17005KT 10SM CLR 22/18 A3002 890 81 1900 180/05 RMK AO2 T02170183
04850KAOH AOH20160712063510807/12/16 06:35:31  5-MIN KAOH 121135Z AUTO 17004KT 10SM CLR 22/18 A3002 890 81 1900 180/04 RMK AO2 T02170183
04850KAOH AOH20160712064010807/12/16 06:40:31  5-MIN KAOH 121140Z AUTO 17005KT 10SM CLR 22/18 A3002 890 81 1900 170/05 RMK AO2 T02170183
04850KAOH AOH20160712064510807/12/16 06:45:31  5-MIN KAOH 121145Z AUTO 17006KT 10SM CLR 22/18 A3002 890 81 1900 170/06 RMK AO2 T02170183
04850KAOH AOH20160712065013307/12/16 06:50:31  5-MIN KAOH 121150Z AUTO 17007KT 10SM CLR 22/18 A3002 890 81 1900 180/07 RMK AO2 SLP156 T02170183 10217 20189 58003
04850KAOH AOH20160712065510807/12/16 06:55:31  5-MIN KAOH 121155Z AUTO 17006KT 10SM CLR 22/18 A3001 890 78 2000 170/06 RMK AO2 T02220183
04850KAOH AOH20160712070010807/12/16 07:00:31  5-MIN KAOH 121200Z AUTO 16007KT 10SM CLR 22/19 A3001 890 81 2000 170/07 RMK AO2 T02220189
04850KAOH AOH20160712070510807/12/16 07:05:31  5-MIN KAOH 121205Z AUTO 16006KT 10SM CLR 22/19 A3002 890 81 2000 170/06 RMK AO2 T02220189
04850KAOH AOH20160712071010807/12/16 07:10:31  5-MIN KAOH 121210Z AUTO 16006KT 10SM CLR 23/19 A3001 890 78 2000 170/06 RMK AO2 T02280189
04850KAOH AOH20160712071510807/12/16 07:15:31  5-MIN KAOH 121215Z AUTO 17006KT 10SM CLR 23/19 A3001 890 81 2000 170/06 RMK AO2 T02280194
04850KAOH AOH20160712072010807/12/16 07:20:31  5-MIN KAOH 121220Z AUTO 16007KT 10SM CLR 23/19 A3001 900 78 2100 170/07 RMK AO2 T02330194
04850KAOH AOH20160712072510807/12/16 07:25:31  5-MIN KAOH 121225Z AUTO 16007KT 10SM CLR 23/19 A3000 900 78 2100 170/07 RMK AO2 T02330194
04850KAOH AOH20160712073010807/12/16 07:30:31  5-MIN KAOH 121230Z AUTO 15008KT 10SM CLR 23/19 A3000 900 78 2100 160/08 RMK AO2 T02330194
04850KAOH AOH20160712073510807/12/16 07:35:31  5-MIN KAOH 121235Z AUTO 16006KT 10SM CLR 24/19 A3000 900 76 2200 170/06 RMK AO2 T02390194
04850KAOH AOH20160712074010807/12/16 07:40:31  5-MIN KAOH 121240Z AUTO 17007KT 10SM CLR 24/19 A3000 900 76 2200 180/07 RMK AO2 T02390194
04850KAOH AOH20160712074510807/12/16 07:45:31  5-MIN KAOH 121245Z AUTO 18008KT 10SM CLR 24/19 A3001 900 76 2200 190/08 RMK AO2 T02390194
04850KAOH AOH20160712075011507/12/16 07:50:31  5-MIN KAOH 121250Z AUTO 18006KT 10SM CLR 24/19 A3001 890 73 2200 180/06 RMK AO2 SLP153 T02440194
04850KAOH AOH20160712075510807/12/16 07:55:31  5-MIN KAOH 121255Z AUTO 17006KT 10SM CLR 24/19 A3001 900 73 2200 180/06 RMK AO2 T02440194
04850KAOH AOH20160712080010807/12/16 08:00:31  5-MIN KAOH 121300Z AUTO 17007KT 10SM CLR 24/20 A3001 900 76 2200 170/07 RMK AO2 T02440200
04850KAOH AOH20160712080510807/12/16 08:05:31  5-MIN KAOH 121305Z AUTO 17009KT 10SM CLR 25/20 A3001 900 73 2300 170/09 RMK AO2 T02500200
04850KAOH AOH20160712081010807/12/16 08:10:31  5-MIN KAOH 121310Z AUTO 18007KT 10SM CLR 24/20 A3001 890 76 2200 180/07 RMK AO2 T02440200
04850KAOH AOH20160712081510807/12/16 08:15:31  5-MIN KAOH 121315Z AUTO 17007KT 10SM CLR 25/19 A3001 890 71 2300 180/07 RMK AO2 T02500194
04850KAOH AOH20160712082010807/12/16 08:20:31  5-MIN KAOH 121320Z AUTO 18007KT 10SM CLR 25/19 A3002 890 71 2300 190/07 RMK AO2 T02500194
04850KAOH AOH20160712082510807/12/16 08:25:31  5-MIN KAOH 121325Z AUTO 16008KT 10SM CLR 25/20 A3002 890 73 2300 160/08 RMK AO2 T02500200
04850KAOH AOH20160712083010807/12/16 08:30:31  5-MIN KAOH 121330Z AUTO 16007KT 10SM CLR 26/20 A3001 890 71 2400 170/07 RMK AO2 T02560200
04850KAOH AOH20160712083510807/12/16 08:35:31  5-MIN KAOH 121335Z AUTO 16007KT 10SM CLR 26/20 A3002 890 71 2400 170/07 RMK AO2 T02560200
04850KAOH AOH20160712084010807/12/16 08:40:31  5-MIN KAOH 121340Z AUTO 17006KT 10SM CLR 26/20 A3001 890 71 2400 180/06 RMK AO2 T02560200
04850KAOH AOH20160712084510807/12/16 08:45:31  5-MIN KAOH 121345Z AUTO 17007KT 10SM CLR 26/20 A3001 890 71 2400 170/07 RMK AO2 T02560200
04850KAOH AOH20160712085011507/12/16 08:50:31  5-MIN KAOH 121350Z AUTO 15007KT 10SM CLR 26/21 A3001 890 71 2400 160/07 RMK AO2 SLP154 T02610206
04850KAOH AOH20160712085510807/12/16 08:55:31  5-MIN KAOH 121355Z AUTO 17006KT 10SM CLR 26/21 A3001 890 71 2400 170/06 RMK AO2 T02610206
04850KAOH AOH20160712090010807/12/16 09:00:31  5-MIN KAOH 121400Z AUTO 16008KT 10SM CLR 26/21 A3001 890 71 2400 170/08 RMK AO2 T02610206
04850KAOH AOH20160712090510807/12/16 09:05:31  5-MIN KAOH 121405Z AUTO 17006KT 10SM CLR 27/21 A3001 890 71 2500 180/06 RMK AO2 T02670211
04850KAOH AOH20160712091010807/12/16 09:10:31  5-MIN KAOH 121410Z AUTO 18007KT 10SM CLR 27/21 A3001 900 71 2500 190/07 RMK AO2 T02670211
04850KAOH AOH20160712091510807/12/16 09:15:31  5-MIN KAOH 121415Z AUTO 19008KT 10SM CLR 27/21 A3001 890 71 2500 190/08 RMK AO2 T02670211
04850KAOH AOH20160712092010807/12/16 09:20:31  5-MIN KAOH 121420Z AUTO 20006KT 10SM CLR 27/21 A3001 900 71 2500 210/06 RMK AO2 T02670211
04850KAOH AOH20160712092510807/12/16 09:25:31  5-MIN KAOH 121425Z AUTO 18005KT 10SM CLR 27/21 A3001 890 71 2500 190/05 RMK AO2 T02670211
04850KAOH AOH20160712093010807/12/16 09:30:31  5-MIN KAOH 121430Z AUTO 18008KT 10SM CLR 27/22 A3001 900 71 2500 190/08 RMK AO2 T02720217
04850KAOH AOH20160712093510807/12/16 09:35:31  5-MIN KAOH 121435Z AUTO 19006KT 10SM CLR 27/21 A3001 900 69 2500 200/06 RMK AO2 T02720211
04850KAOH AOH20160712094012407/12/16 09:40:31  5-MIN KAOH 121440Z AUTO 19007KT 160V220 10SM CLR 27/22 A3001 900 71 2500 190/07 170V230 RMK AO2 T02720217
04850KAOH AOH20160712094510807/12/16 09:45:31  5-MIN KAOH 121445Z AUTO 19007KT 10SM CLR 27/22 A3001 900 71 2500 190/07 RMK AO2 T02720217
04850KAOH AOH20160712095012107/12/16 09:50:31  5-MIN KAOH 121450Z AUTO 18008KT 10SM CLR 27/22 A3000 900 71 2500 180/08 RMK AO2 SLP151 T02720217 53007
04850KAOH AOH20160712095510807/12/16 09:55:31  5-MIN KAOH 121455Z AUTO 18005KT 10SM CLR 27/22 A3000 900 71 2500 190/05 RMK AO2 T02720217
04850KAOH AOH20160712100010807/12/16 10:00:31  5-MIN KAOH 121500Z AUTO 18006KT 10SM CLR 28/22 A3000 900 69 2600 190/06 RMK AO2 T02780217
04850KAOH AOH20160712100510807/12/16 10:05:31  5-MIN KAOH 121505Z AUTO 17008KT 10SM CLR 28/22 A3000 900 69 2600 180/08 RMK AO2 T02780217
04850KAOH AOH20160712101011107/12/16 10:10:31  5-MIN KAOH 121510Z AUTO 18007KT 10SM FEW027 28/22 A3000 900 69 2600 190/07 RMK AO2 T02780217
04850KAOH AOH20160712101511107/12/16 10:15:31  5-MIN KAOH 121515Z AUTO 18011KT 10SM SCT027 28/22 A3000 910 71 2600 180/11 RMK AO2 T02780222
04850KAOH AOH20160712102011107/12/16 10:20:31  5-MIN KAOH 121520Z AUTO 18009KT 10SM SCT027 28/22 A2999 910 69 2600 180/09 RMK AO2 T02780217
04850KAOH AOH20160712102511107/12/16 10:25:31  5-MIN KAOH 121525Z AUTO 17011KT 10SM SCT027 28/22 A2999 910 66 2700 180/11 RMK AO2 T02830217
04850KAOH AOH20160712103011107/12/16 10:30:31  5-MIN KAOH 121530Z AUTO 20008KT 10SM FEW027 28/22 A2999 910 69 2700 200/08 RMK AO2 T02830222
04850KAOH AOH20160712103511107/12/16 10:35:31  5-MIN KAOH 121535Z AUTO 21009KT 10SM FEW027 28/22 A2999 910 69 2600 220/09 RMK AO2 T02780217
04850KAOH AOH20160712104011107/12/16 10:40:31  5-MIN KAOH 121540Z AUTO 19009KT 10SM FEW029 28/22 A2999 910 66 2700 200/09 RMK AO2 T02830217
04850KAOH AOH20160712104511107/12/16 10:45:31  5-MIN KAOH 121545Z AUTO 21008KT 10SM FEW029 28/22 A2999 920 69 2700 210/08 RMK AO2 T02830222
04850KAOH AOH20160712105011507/12/16 10:50:31  5-MIN KAOH 121550Z AUTO 18009KT 10SM CLR 29/22 A2998 920 64 2800 180/09 RMK AO2 SLP144 T02890217
04850KAOH AOH20160712105510807/12/16 10:55:31  5-MIN KAOH 121555Z AUTO 18009KT 10SM CLR 29/23 A2998 920 69 2800 180/09 RMK AO2 T02890228
04850KAOH AOH20160712110011107/12/16 11:00:31  5-MIN KAOH 121600Z AUTO 18009KT 10SM FEW037 29/22 A2998 920 64 2800 180/09 RMK AO2 T02890217
04850KAOH AOH20160712110511107/12/16 11:05:31  5-MIN KAOH 121605Z AUTO 18009KT 10SM FEW035 29/22 A2998 920 64 2800 190/09 RMK AO2 T02890217
04850KAOH AOH20160712111011107/12/16 11:10:31  5-MIN KAOH 121610Z AUTO 18009KT 10SM FEW035 29/22 A2998 920 64 2800 190/09 RMK AO2 T02890217
04850KAOH AOH20160712111511107/12/16 11:15:31  5-MIN KAOH 121615Z AUTO 18009KT 10SM FEW036 29/22 A2998 920 64 2800 190/09 RMK AO2 T02890217
04850KAOH AOH20160712112011107/12/16 11:20:31  5-MIN KAOH 121620Z AUTO 18010KT 10SM FEW036 29/22 A2997 930 64 2800 190/10 RMK AO2 T02890217
04850KAOH AOH20160712112511107/12/16 11:25:31  5-MIN KAOH 121625Z AUTO 18010KT 10SM FEW038 29/22 A2997 930 62 2800 180/10 RMK AO2 T02940217
04850KAOH AOH20160712113011107/12/16 11:30:31  5-MIN KAOH 121630Z AUTO 16010KT 10SM FEW038 29/22 A2997 930 62 2800 170/10 RMK AO2 T02940217
04850KAOH AOH20160712113511107/12/16 11:35:31  5-MIN KAOH 121635Z AUTO 19009KT 10SM SCT038 29/21 A2998 920 62 2800 190/09 RMK AO2 T02890211
04850KAOH AOH20160712114011107/12/16 11:40:31  5-MIN KAOH 121640Z AUTO 20009KT 10SM SCT038 29/21 A2998 920 60 2800 210/09 RMK AO2 T02940211
04850KAOH AOH20160712114511107/12/16 11:45:31  5-MIN KAOH 121645Z AUTO 18009KT 10SM BKN038 28/21 A2998 920 64 2700 190/09 RMK AO2 T02830211
04850KAOH AOH20160712115011807/12/16 11:50:31  5-MIN KAOH 121650Z AUTO 20004KT 10SM BKN038 28/21 A2998 920 62 2700 210/04 RMK AO2 SLP143 T02830206
04850KAOH AOH20160712115511107/12/16 11:55:31  5-MIN KAOH 121655Z AUTO 19008KT 10SM BKN040 29/22 A2998 920 62 2800 200/08 RMK AO2 T02940217
04850KAOH AOH20160712120011807/12/16 12:00:31  5-MIN KAOH 121700Z AUTO 21006KT 10SM SCT040 BKN046 29/21 A2998 920 60 2800 220/06 RMK AO2 T02940211
04850KAOH AOH20160712120511807/12/16 12:05:31  5-MIN KAOH 121705Z AUTO 20008KT 10SM SCT040 BKN048 29/21 A2998 920 62 2800 210/08 RMK AO2 T02890211
04850KAOH AOH20160712121011807/12/16 12:10:31  5-MIN KAOH 121710Z AUTO 20009KT 10SM SCT040 BKN048 29/21 A2998 920 60 2800 210/09 RMK AO2 T02940211
04850KAOH AOH20160712121511807/12/16 12:15:31  5-MIN KAOH 121715Z AUTO 20009KT 10SM FEW040 SCT047 30/21 A2998 920 58 2900 210/09 RMK AO2 T03000211
04850KAOH AOH20160712122011807/12/16 12:20:31  5-MIN KAOH 121720Z AUTO 20006KT 10SM FEW041 FEW049 29/21 A2998 920 60 2800 210/06 RMK AO2 T02940211
04850KAOH AOH20160712122512407/12/16 12:25:31  5-MIN KAOH 121725Z AUTO 20010G14KT 10SM FEW042 SCT050 29/21 A2998 930 60 2800 210/10G14 RMK AO2 T02940211
04850KAOH AOH20160712123011707/12/16 12:30:31  5-MIN KAOH 121730Z AUTO VRB05G14KT 10SM SCT044 29/21 A2997 930 60 2800 VRB/05G14 RMK AO2 T02940211
04850KAOH AOH20160712123511107/12/16 12:35:31  5-MIN KAOH 121735Z AUTO 21009KT 10SM FEW044 30/21 A2997 930 58 2900 220/09 RMK AO2 T03000211
04850KAOH AOH20160712124011107/12/16 12:40:31  5-MIN KAOH 121740Z AUTO 20006KT 10SM FEW042 30/22 A2997 930 60 2900 210/06 RMK AO2 T03000217
04850KAOH AOH20160712124511807/12/16 12:45:31  5-MIN KAOH 121745Z AUTO 21009KT 10SM FEW042 FEW060 30/21 A2996 940 58 2900 220/09 RMK AO2 T03000211
04850KAOH AOH20160712125013607/12/16 12:50:31  5-MIN KAOH 121750Z AUTO 19011KT 10SM SCT042 30/21 A2996 940 58 2900 200/11 RMK AO2 SLP137 T03000211 10300 20222 57004
04850KAOH AOH20160712125511107/12/16 12:55:31  5-MIN KAOH 121755Z AUTO 19009KT 10SM FEW044 30/21 A2996 940 58 2900 190/09 RMK AO2 T03000211
04850KAOH AOH20160712130011107/12/16 13:00:31  5-MIN KAOH 121800Z AUTO 20008KT 10SM FEW042 30/21 A2996 940 58 2900 210/08 RMK AO2 T03000211
04850KAOH AOH20160712130511807/12/16 13:05:31  5-MIN KAOH 121805Z AUTO 19010KT 10SM SCT044 SCT070 29/21 A2996 940 58 2800 200/10 RMK AO2 T02940206
04850KAOH AOH20160712131011107/12/16 13:10:31  5-MIN KAOH 121810Z AUTO 18009KT 10SM SCT044 30/21 A2996 940 58 2900 180/09 RMK AO2 T03000211
04850KAOH AOH20160712131511107/12/16 13:15:31  5-MIN KAOH 121815Z AUTO 21010KT 10SM FEW046 31/21 A2995 950 56 3000 210/10 RMK AO2 T03060211
04850KAOH AOH20160712132011107/12/16 13:20:31  5-MIN KAOH 121820Z AUTO 20009KT 10SM FEW046 31/22 A2995 950 58 3000 200/09 RMK AO2 T03060217
04850KAOH AOH20160712132511107/12/16 13:25:31  5-MIN KAOH 121825Z AUTO 17009KT 10SM FEW046 31/22 A2995 950 58 3000 180/09 RMK AO2 T03060217
04850KAOH AOH20160712133011807/12/16 13:30:31  5-MIN KAOH 121830Z AUTO 20011KT 10SM FEW046 SCT070 31/21 A2995 950 56 3000 210/11 RMK AO2 T03060211
04850KAOH AOH20160712133512407/12/16 13:35:31  5-MIN KAOH 121835Z AUTO 20007G16KT 10SM FEW046 FEW075 31/21 A2995 950 56 3000 210/07G16 RMK AO2 T03060211
04850KAOH AOH20160712134011807/12/16 13:40:31  5-MIN KAOH 121840Z AUTO 21012KT 10SM FEW044 SCT075 31/22 A2995 950 58 3000 210/12 RMK AO2 T03060217
04850KAOH AOH20160712134511807/12/16 13:45:31  5-MIN KAOH 121845Z AUTO 19010KT 10SM FEW044 FEW075 31/21 A2995 950 56 3000 190/10 RMK AO2 T03060211
04850KAOH AOH20160712135012507/12/16 13:50:31  5-MIN KAOH 121850Z AUTO 19010KT 10SM FEW044 FEW075 31/22 A2994 960 56 3000 200/10 RMK AO2 SLP131 T03110217
04850KAOH AOH20160712135511807/12/16 13:55:31  5-MIN KAOH 121855Z AUTO 20010KT 10SM FEW044 FEW075 31/21 A2994 960 56 3000 210/10 RMK AO2 T03060211
04850KAOH AOH20160712140010807/12/16 14:00:31  5-MIN KAOH 121900Z AUTO 19010KT 10SM CLR 31/21 A2994 960 56 3000 190/10 RMK AO2 T03060211
04850KAOH AOH20160712140510807/12/16 14:05:31  5-MIN KAOH 121905Z AUTO 19011KT 10SM CLR 31/22 A2994 960 58 3000 200/11 RMK AO2 T03060217
04850KAOH AOH20160712141010807/12/16 14:10:31  5-MIN KAOH 121910Z AUTO 19012KT 10SM CLR 31/21 A2994 960 56 3000 200/12 RMK AO2 T03060211
04850KAOH AOH20160712141510807/12/16 14:15:31  5-MIN KAOH 121915Z AUTO 19012KT 10SM CLR 31/21 A2995 950 56 3000 200/12 RMK AO2 T03060211
04850KAOH AOH20160712142010807/12/16 14:20:31  5-MIN KAOH 121920Z AUTO 20011KT 10SM CLR 31/22 A2995 950 56 3000 210/11 RMK AO2 T03110217
04850KAOH AOH20160712142511107/12/16 14:25:31  5-MIN KAOH 121925Z AUTO 19010KT 10SM FEW047 31/21 A2995 950 54 3000 190/10 RMK AO2 T03110211
04850KAOH AOH20160712143011107/12/16 14:30:31  5-MIN KAOH 121930Z AUTO 18011KT 10SM FEW047 31/21 A2994 960 56 3000 180/11 RMK AO2 T03060211
04850KAOH AOH20160712143511107/12/16 14:35:31  5-MIN KAOH 121935Z AUTO 21011KT 10SM FEW047 31/21 A2994 960 54 3100 220/11 RMK AO2 T03110211
04850KAOH AOH20160712144011107/12/16 14:40:31  5-MIN KAOH 121940Z AUTO 20011KT 10SM FEW048 31/21 A2994 960 54 3100 200/11 RMK AO2 T03110211
04850KAOH AOH20160712144511107/12/16 14:45:31  5-MIN KAOH 121945Z AUTO 19010KT 10SM SCT050 31/21 A2994 960 54 3100 190/10 RMK AO2 T03110211
04850KAOH AOH20160712145012407/12/16 14:50:31  5-MIN KAOH 121950Z AUTO 19013G18KT 10SM SCT050 31/21 A2993 960 54 3000 200/13G18 RMK AO2 SLP129 T03060206
04850KAOH AOH20160712145511707/12/16 14:55:31  5-MIN KAOH 121955Z AUTO 19011G18KT 10SM SCT050 31/21 A2993 960 53 3100 200/11G18 RMK AO2 T03110206
04850KAOH AOH20160712150011707/12/16 15:00:31  5-MIN KAOH 122000Z AUTO 19011G17KT 10SM SCT050 31/21 A2993 970 54 3100 200/11G17 RMK AO2 T03110211
04850KAOH AOH20160712150511707/12/16 15:05:31  5-MIN KAOH 122005Z AUTO 19011G17KT 10SM FEW050 31/21 A2993 970 54 3100 190/11G17 RMK AO2 T03110211
04850KAOH AOH20160712151011107/12/16 15:10:31  5-MIN KAOH 122010Z AUTO 19010KT 10SM FEW050 31/21 A2993 970 54 3100 200/10 RMK AO2 T03110211
04850KAOH AOH20160712151511707/12/16 15:15:31  5-MIN KAOH 122015Z AUTO 19013G18KT 10SM FEW050 31/21 A2993 970 53 3100 200/13G18 RMK AO2 T03110206
04850KAOH AOH20160712152011407/12/16 15:20:31  5-MIN KAOH 122020Z AUTO 18011G18KT 10SM CLR 31/21 A2993 970 54 3100 190/11G18 RMK AO2 T03110211
04850KAOH AOH20160712152510807/12/16 15:25:31  5-MIN KAOH 122025Z AUTO 19011KT 10SM CLR 31/21 A2992 970 54 3100 190/11 RMK AO2 T03110211
04850KAOH AOH20160712153010807/12/16 15:30:31  5-MIN KAOH 122030Z AUTO 19014KT 10SM CLR 31/21 A2992 970 54 3100 200/14 RMK AO2 T03110211
04850KAOH AOH20160712153510807/12/16 15:35:31  5-MIN KAOH 122035Z AUTO 19012KT 10SM CLR 31/21 A2992 980 54 3100 190/12 RMK AO2 T03110211
04850KAOH AOH20160712154010807/12/16 15:40:31  5-MIN KAOH 122040Z AUTO 18012KT 10SM CLR 31/21 A2992 980 54 3100 190/12 RMK AO2 T03110211
04850KAOH AOH20160712154511407/12/16 15:45:31  5-MIN KAOH 122045Z AUTO 19010G18KT 10SM CLR 31/21 A2991 980 54 3100 190/10G18 RMK AO2 T03110211
04850KAOH AOH20160712155012707/12/16 15:50:31  5-MIN KAOH 122050Z AUTO 19013G19KT 10SM CLR 31/21 A2991 980 54 3000 200/13G19 RMK AO2 SLP121 T03060206 56014
04850KAOH AOH20160712155511407/12/16 15:55:31  5-MIN KAOH 122055Z AUTO 19009G19KT 10SM CLR 31/21 A2991 990 53 3100 200/09G19 RMK AO2 T03110206
04850KAOH AOH20160712160010807/12/16 16:00:31  5-MIN KAOH 122100Z AUTO 20010KT 10SM CLR 31/21 A2991 990 53 3100 210/10 RMK AO2 T03110206
04850KAOH AOH20160712160510807/12/16 16:05:31  5-MIN KAOH 122105Z AUTO 20013KT 10SM CLR 31/20 A2990 990 51 3100 210/13 RMK AO2 T03110200
04850KAOH AOH20160712161011507/12/16 16:10:31  5-MIN KAOH 122110Z AUTO 20011G18KT 10SM CLR 31/20 A2990 1000 51 3100 210/11G18 RMK AO2 T03110200
04850KAOH AOH20160712161511507/12/16 16:15:31  5-MIN KAOH 122115Z AUTO 19010G18KT 10SM CLR 31/19 A2990 1000 49 3100 200/10G18 RMK AO2 T03110194
04850KAOH AOH20160712162010907/12/16 16:20:31  5-MIN KAOH 122120Z AUTO 19011KT 10SM CLR 31/21 A2990 1000 53 3100 200/11 RMK AO2 T03110206
04850KAOH AOH20160712162510907/12/16 16:25:31  5-MIN KAOH 122125Z AUTO 19012KT 10SM CLR 31/20 A2989 1000 51 3100 200/12 RMK AO2 T03110200
04850KAOH AOH20160712163010907/12/16 16:30:31  5-MIN KAOH 122130Z AUTO 18012KT 10SM CLR 31/20 A2989 1010 51 3100 190/12 RMK AO2 T03110200
04850KAOH AOH20160712163510907/12/16 16:35:31  5-MIN KAOH 122135Z AUTO 18010KT 10SM CLR 31/20 A2989 1010 51 3100 190/10 RMK AO2 T03110200
04850KAOH AOH20160712164010907/12/16 16:40:31  5-MIN KAOH 122140Z AUTO 18012KT 10SM CLR 31/20 A2988 1010 51 3100 180/12 RMK AO2 T03110200
04850KAOH AOH20160712164510907/12/16 16:45:31  5-MIN KAOH 122145Z AUTO 17012KT 10SM CLR 31/20 A2988 1020 51 3100 180/12 RMK AO2 T03110200
04850KAOH AOH20160712165011607/12/16 16:50:31  5-MIN KAOH 122150Z AUTO 18010KT 10SM CLR 31/20 A2988 1020 51 3100 190/10 RMK AO2 SLP109 T03110200
04850KAOH AOH20160712165510907/12/16 16:55:31  5-MIN KAOH 122155Z AUTO 18009KT 10SM CLR 31/20 A2987 1020 52 3100 190/09 RMK AO2 T03060200
04850KAOH AOH20160712170010907/12/16 17:00:31  5-MIN KAOH 122200Z AUTO 18012KT 10SM CLR 31/19 A2987 1020 51 3100 190/12 RMK AO2 T03060194
04850KAOH AOH20160712170510907/12/16 17:05:31  5-MIN KAOH 122205Z AUTO 19009KT 10SM CLR 31/19 A2987 1020 51 3100 200/09 RMK AO2 T03060194
04850KAOH AOH20160712171010907/12/16 17:10:31  5-MIN KAOH 122210Z AUTO 21012KT 10SM CLR 31/19 A2987 1020 51 3100 210/12 RMK AO2 T03060194
04850KAOH AOH20160712171510907/12/16 17:15:31  5-MIN KAOH 122215Z AUTO 19010KT 10SM CLR 31/19 A2987 1030 51 3100 200/10 RMK AO2 T03060194
04850KAOH AOH20160712172010907/12/16 17:20:31  5-MIN KAOH 122220Z AUTO 19010KT 10SM CLR 31/20 A2987 1030 52 3100 200/10 RMK AO2 T03060200
04850KAOH AOH20160712172510907/12/16 17:25:31  5-MIN KAOH 122225Z AUTO 19012KT 10SM CLR 31/20 A2987 1030 52 3100 200/12 RMK AO2 T03060200
04850KAOH AOH20160712173011507/12/16 17:30:31  5-MIN KAOH 122230Z AUTO 21008G18KT 10SM CLR 31/20 A2987 1020 52 3100 210/08G18 RMK AO2 T03060200
04850KAOH AOH20160712173510907/12/16 17:35:31  5-MIN KAOH 122235Z AUTO 20010KT 10SM CLR 31/20 A2987 1030 52 3100 200/10 RMK AO2 T03060200
04850KAOH AOH20160712174011807/12/16 17:40:31  5-MIN KAOH 122240Z AUTO 20014G21KT 10SM FEW050 30/21 A2988 1020 56 3000 200/14G21 RMK AO2 T03000206
04850KAOH AOH20160712174511807/12/16 17:45:31  5-MIN KAOH 122245Z AUTO 20015G21KT 10SM FEW050 29/21 A2988 1020 62 2900 210/15G21 RMK AO2 T02890211
04850KAOH AOH20160712175012507/12/16 17:50:31  5-MIN KAOH 122250Z AUTO 20013G21KT 10SM FEW050 29/22 A2988 1010 62 2900 210/13G21 RMK AO2 SLP110 T02940217
04850KAOH AOH20160712175511807/12/16 17:55:31  5-MIN KAOH 122255Z AUTO 22015G20KT 10SM SCT050 29/22 A2989 1010 62 2900 230/15G20 RMK AO2 T02940217
04850KAOH AOH20160712180011207/12/16 18:00:31  5-MIN KAOH 122300Z AUTO 21014KT 10SM BKN050 29/22 A2989 1010 62 2900 220/14 RMK AO2 T02940217
04850KAOH AOH20160712180511207/12/16 18:05:31  5-MIN KAOH 122305Z AUTO 21012KT 10SM BKN050 29/22 A2989 1000 64 2900 210/12 RMK AO2 T02890217
04850KAOH AOH20160712181011807/12/16 18:10:31  5-MIN KAOH 122310Z AUTO 21013G20KT 10SM SCT050 29/21 A2990 1000 62 2900 210/13G20 RMK AO2 T02890211
04850KAOH AOH20160712181511707/12/16 18:15:31  5-MIN KAOH 122315Z AUTO 23018G23KT 10SM FEW050 29/21 A2990 990 62 2800 230/18G23 RMK AO2 T02890211
04850KAOH AOH20160712182011707/12/16 18:20:31  5-MIN KAOH 122320Z AUTO 23016G23KT 10SM FEW050 28/21 A2991 990 64 2800 240/16G23 RMK AO2 T02830211
04850KAOH AOH20160712182512407/12/16 18:25:31  5-MIN KAOH 122325Z AUTO 23017G23KT 10SM FEW050 28/21 A2992 980 64 2800 230/17G23 RMK AO2 PRESRR T02830211
04850KAOH AOH20160712183011407/12/16 18:30:31  5-MIN KAOH 122330Z AUTO 22014G23KT 10SM CLR 28/21 A2992 980 64 2800 230/14G23 RMK AO2 T02830211
04850KAOH AOH20160712183511507/12/16 18:35:31  5-MIN KAOH 122335Z AUTO 23014KT 10SM CLR 28/21 A2993 970 64 2800 230/14 RMK AO2 PRESRR T02830211
04850KAOH AOH20160712184010807/12/16 18:40:31  5-MIN KAOH 122340Z AUTO 23012KT 10SM CLR 28/21 A2993 970 64 2800 240/12 RMK AO2 T02830211
04850KAOH AOH20160712184511507/12/16 18:45:31  5-MIN KAOH 122345Z AUTO 24011KT 10SM CLR 28/21 A2994 960 64 2700 250/11 RMK AO2 PRESRR T02830211
04850KAOH AOH20160712185013307/12/16 18:50:31  5-MIN KAOH 122350Z AUTO 24013KT 10SM CLR 28/21 A2994 960 66 2700 240/13 RMK AO2 SLP131 T02780211 10311 20278 58018
04850KAOH AOH20160712185510807/12/16 18:55:31  5-MIN KAOH 122355Z AUTO 24013KT 10SM CLR 28/21 A2994 950 66 2700 240/13 RMK AO2 T02780211
04850KAOH AOH20160712190010807/12/16 19:00:31  5-MIN KAOH 130000Z AUTO 23014KT 10SM CLR 27/21 A2995 950 69 2600 240/14 RMK AO2 T02720211
04850KAOH AOH20160712190511407/12/16 19:05:31  5-MIN KAOH 130005Z AUTO 22010G17KT 10SM CLR 27/21 A2995 950 69 2600 230/10G17 RMK AO2 T02720211
04850KAOH AOH20160712191010807/12/16 19:10:31  5-MIN KAOH 130010Z AUTO 23010KT 10SM CLR 27/21 A2995 950 69 2600 230/10 RMK AO2 T02720211
04850KAOH AOH20160712191510807/12/16 19:15:31  5-MIN KAOH 130015Z AUTO 23009KT 10SM CLR 27/21 A2995 950 69 2600 240/09 RMK AO2 T02720211
04850KAOH AOH20160712192010807/12/16 19:20:31  5-MIN KAOH 130020Z AUTO 22006KT 10SM CLR 27/21 A2995 950 69 2600 220/06 RMK AO2 T02720211
04850KAOH AOH20160712192510807/12/16 19:25:31  5-MIN KAOH 130025Z AUTO 20006KT 10SM CLR 27/21 A2994 960 71 2600 210/06 RMK AO2 T02670211
04850KAOH AOH20160712193010807/12/16 19:30:31  5-MIN KAOH 130030Z AUTO 22007KT 10SM CLR 27/21 A2995 950 71 2600 230/07 RMK AO2 T02670211
04850KAOH AOH20160712193510807/12/16 19:35:31  5-MIN KAOH 130035Z AUTO 23008KT 10SM CLR 27/22 A2995 950 73 2500 240/08 RMK AO2 T02670217
04850KAOH AOH20160712194010807/12/16 19:40:31  5-MIN KAOH 130040Z AUTO 22007KT 10SM CLR 27/22 A2995 950 73 2500 230/07 RMK AO2 T02670217
04850KAOH AOH20160712194510807/12/16 19:45:31  5-MIN KAOH 130045Z AUTO 21005KT 10SM CLR 26/22 A2995 950 76 2500 220/05 RMK AO2 T02610217
04850KAOH AOH20160712195011507/12/16 19:50:31  5-MIN KAOH 130050Z AUTO 21006KT 10SM CLR 26/22 A2995 950 76 2500 210/06 RMK AO2 SLP134 T02610217
04850KAOH AOH20160712195510807/12/16 19:55:31  5-MIN KAOH 130055Z AUTO 21008KT 10SM CLR 26/22 A2995 950 76 2500 220/08 RMK AO2 T02610217
04850KAOH AOH20160712200010807/12/16 20:00:31  5-MIN KAOH 130100Z AUTO 23008KT 10SM CLR 26/22 A2996 940 76 2500 230/08 RMK AO2 T02610217
04850KAOH AOH20160712200510807/12/16 20:05:31  5-MIN KAOH 130105Z AUTO 23007KT 10SM CLR 26/22 A2996 950 76 2500 230/07 RMK AO2 T02610217
04850KAOH AOH20160712201011107/12/16 20:10:31  5-MIN KAOH 130110Z AUTO 23007KT 10SM FEW031 26/22 A2996 950 76 2500 230/07 RMK AO2 T02610217
04850KAOH AOH20160712201511107/12/16 20:15:31  5-MIN KAOH 130115Z AUTO 23006KT 10SM FEW031 26/22 A2995 950 76 2500 240/06 RMK AO2 T02610217
04850KAOH AOH20160712202011107/12/16 20:20:31  5-MIN KAOH 130120Z AUTO 24008KT 10SM FEW031 26/22 A2995 950 76 2500 240/08 RMK AO2 T02610217
04850KAOH AOH20160712202511107/12/16 20:25:31  5-MIN KAOH 130125Z AUTO 23006KT 10SM FEW031 26/22 A2995 950 76 2500 230/06 RMK AO2 T02610217
04850KAOH AOH20160712203011107/12/16 20:30:31  5-MIN KAOH 130130Z AUTO 23007KT 10SM FEW031 26/22 A2995 950 76 2500 230/07 RMK AO2 T02610217
04850KAOH AOH20160712203511107/12/16 20:35:31  5-MIN KAOH 130135Z AUTO 22006KT 10SM FEW031 26/22 A2995 950 76 2500 220/06 RMK AO2 T02610217
04850KAOH AOH20160712204010807/12/16 20:40:31  5-MIN KAOH 130140Z AUTO 22006KT 10SM CLR 26/22 A2995 950 79 2400 230/06 RMK AO2 T02560217
04850KAOH AOH20160712204510807/12/16 20:45:31  5-MIN KAOH 130145Z AUTO 22005KT 10SM CLR 26/22 A2995 950 79 2400 220/05 RMK AO2 T02560217
04850KAOH AOH20160712205011507/12/16 20:50:31  5-MIN KAOH 130150Z AUTO 21006KT 10SM CLR 26/22 A2995 950 79 2400 210/06 RMK AO2 SLP134 T02560217
04850KAOH AOH20160712205510807/12/16 20:55:31  5-MIN KAOH 130155Z AUTO 21005KT 10SM CLR 26/22 A2996 940 79 2400 210/05 RMK AO2 T02560217
04850KAOH AOH20160712210010807/12/16 21:00:31  5-MIN KAOH 130200Z AUTO 20005KT 10SM CLR 26/22 A2995 950 79 2400 200/05 RMK AO2 T02560217
04850KAOH AOH20160712210510807/12/16 21:05:31  5-MIN KAOH 130205Z AUTO 20004KT 10SM CLR 26/22 A2995 950 79 2400 210/04 RMK AO2 T02560217
04850KAOH AOH20160712211010807/12/16 21:10:31  5-MIN KAOH 130210Z AUTO 21005KT 10SM CLR 25/22 A2996 950 81 2400 210/05 RMK AO2 T02500217
04850KAOH AOH20160712211510807/12/16 21:15:31  5-MIN KAOH 130215Z AUTO 21005KT 10SM CLR 25/22 A2996 940 81 2400 210/05 RMK AO2 T02500217
04850KAOH AOH20160712212010807/12/16 21:20:31  5-MIN KAOH 130220Z AUTO 20005KT 10SM CLR 25/22 A2996 940 84 2400 210/05 RMK AO2 T02500222
04850KAOH AOH20160712212510807/12/16 21:25:31  5-MIN KAOH 130225Z AUTO 20006KT 10SM CLR 25/22 A2996 940 84 2400 200/06 RMK AO2 T02500222
04850KAOH AOH20160712213010807/12/16 21:30:31  5-MIN KAOH 130230Z AUTO 19006KT 10SM CLR 25/22 A2995 950 84 2400 200/06 RMK AO2 T02500222
04850KAOH AOH20160712213510807/12/16 21:35:31  5-MIN KAOH 130235Z AUTO 20006KT 10SM CLR 25/22 A2995 950 84 2400 200/06 RMK AO2 T02500222
04850KAOH AOH20160712214010807/12/16 21:40:31  5-MIN KAOH 130240Z AUTO 19006KT 10SM CLR 25/22 A2995 950 84 2400 200/06 RMK AO2 T02500222
04850KAOH AOH20160712214510807/12/16 21:45:31  5-MIN KAOH 130245Z AUTO 18007KT 10SM CLR 25/22 A2995 950 84 2400 190/07 RMK AO2 T02500222
04850KAOH AOH20160712215012107/12/16 21:50:31  5-MIN KAOH 130250Z AUTO 19006KT 10SM CLR 25/22 A2995 950 84 2400 190/06 RMK AO2 SLP134 T02500222 53011
04850KAOH AOH20160712215510807/12/16 21:55:31  5-MIN KAOH 130255Z AUTO 19007KT 10SM CLR 24/22 A2996 940 87 2300 200/07 RMK AO2 T02440222
04850KAOH AOH20160712220010807/12/16 22:00:31  5-MIN KAOH 130300Z AUTO 20007KT 10SM CLR 24/22 A2996 940 87 2300 200/07 RMK AO2 T02440222
04850KAOH AOH20160712220510807/12/16 22:05:31  5-MIN KAOH 130305Z AUTO 20008KT 10SM CLR 24/22 A2996 940 87 2300 210/08 RMK AO2 T02440222
04850KAOH AOH20160712221010807/12/16 22:10:31  5-MIN KAOH 130310Z AUTO 21009KT 10SM CLR 24/22 A2996 940 87 2300 210/09 RMK AO2 T02440222
04850KAOH AOH20160712221510807/12/16 22:15:31  5-MIN KAOH 130315Z AUTO 20008KT 10SM CLR 25/22 A2996 940 81 2300 210/08 RMK AO2 T02500217
04850KAOH AOH20160712222010807/12/16 22:20:31  5-MIN KAOH 130320Z AUTO 20007KT 10SM CLR 24/22 A2997 930 84 2300 210/07 RMK AO2 T02440217
04850KAOH AOH20160712222510807/12/16 22:25:31  5-MIN KAOH 130325Z AUTO 20009KT 10SM CLR 24/22 A2997 930 84 2300 210/09 RMK AO2 T02440217
04850KAOH AOH20160712223010807/12/16 22:30:31  5-MIN KAOH 130330Z AUTO 20007KT 10SM CLR 24/22 A2997 940 84 2300 210/07 RMK AO2 T02440217
04850KAOH AOH20160712223510807/12/16 22:35:31  5-MIN KAOH 130335Z AUTO 20007KT 10SM CLR 24/22 A2997 930 84 2300 210/07 RMK AO2 T02440217
04850KAOH AOH20160712224010807/12/16 22:40:31  5-MIN KAOH 130340Z AUTO 20006KT 10SM CLR 24/22 A2997 940 84 2300 210/06 RMK AO2 T02440217
04850KAOH AOH20160712224510807/12/16 22:45:31  5-MIN KAOH 130345Z AUTO 20007KT 10SM CLR 24/22 A2997 930 84 2300 210/07 RMK AO2 T02440217
04850KAOH AOH20160712225011507/12/16 22:50:31  5-MIN KAOH 130350Z AUTO 21008KT 10SM CLR 24/22 A2997 930 84 2300 210/08 RMK AO2 SLP138 T02440217
04850KAOH AOH20160712225510807/12/16 22:55:31  5-MIN KAOH 130355Z AUTO 20008KT 10SM CLR 24/22 A2997 930 84 2300 210/08 RMK AO2 T02440217
04850KAOH AOH20160712230010807/12/16 23:00:31  5-MIN KAOH 130400Z AUTO 20008KT 10SM CLR 24/22 A2997 930 84 2300 210/08 RMK AO2 T02440217
04850KAOH AOH20160712230510807/12/16 23:05:31  5-MIN KAOH 130405Z AUTO 20006KT 10SM CLR 24/22 A2997 930 84 2300 210/06 RMK AO2 T02440217
04850KAOH AOH20160712231010807/12/16 23:10:31  5-MIN KAOH 130410Z AUTO 21009KT 10SM CLR 24/22 A2997 930 84 2300 210/09 RMK AO2 T02440217
04850KAOH AOH20160712231510807/12/16 23:15:31  5-MIN KAOH 130415Z AUTO 20008KT 10SM CLR 24/22 A2997 930 84 2300 210/08 RMK AO2 T02440217
04850KAOH AOH20160712232010807/12/16 23:20:31  5-MIN KAOH 130420Z AUTO 20008KT 10SM CLR 24/22 A2997 930 84 2300 210/08 RMK AO2 T02440217
04850KAOH AOH20160712232510807/12/16 23:25:31  5-MIN KAOH 130425Z AUTO 21008KT 10SM CLR 24/22 A2997 930 84 2300 210/08 RMK AO2 T02440217
04850KAOH AOH20160712233010807/12/16 23:30:31  5-MIN KAOH 130430Z AUTO 20008KT 10SM CLR 24/22 A2997 930 87 2200 200/08 RMK AO2 T02390217
04850KAOH AOH20160712233510807/12/16 23:35:31  5-MIN KAOH 130435Z AUTO 20008KT 10SM CLR 24/22 A2997 930 87 2200 200/08 RMK AO2 T02390217
04850KAOH AOH20160712234010807/12/16 23:40:31  5-MIN KAOH 130440Z AUTO 20007KT 10SM CLR 24/22 A2997 930 87 2200 210/07 RMK AO2 T02390217
04850KAOH AOH20160712234510807/12/16 23:45:31  5-MIN KAOH 130445Z AUTO 20008KT 10SM CLR 24/22 A2997 930 87 2200 200/08 RMK AO2 T02390217
04850KAOH AOH20160712235012507/12/16 23:50:31  5-MIN KAOH 130450Z AUTO 20007KT 10SM CLR 24/22 A2997 940 87 2200 200/07 RMK AO2 SLP138 T02390217 403110189
04850KAOH AOH20160712235510807/12/16 23:55:31  5-MIN KAOH 130455Z AUTO 20007KT 10SM CLR 24/22 A2997 930 87 2200 210/07 RMK AO2 T02390217
04850KAOH AOH20160713000010807/13/16 00:00:31  5-MIN KAOH 130500Z AUTO 21007KT 10SM CLR 24/22 A2997 930 87 2200 220/07 RMK AO2 T02390217
04850KAOH AOH20160713000510807/13/16 00:05:31  5-MIN KAOH 130505Z AUTO 21006KT 10SM CLR 24/22 A2998 920 87 2200 220/06 RMK AO2 T02390217
04850KAOH AOH20160713001010807/13/16 00:10:31  5-MIN KAOH 130510Z AUTO 22007KT 10SM CLR 24/22 A2998 930 87 2200 220/07 RMK AO2 T02390217
04850KAOH AOH20160713001510807/13/16 00:15:31  5-MIN KAOH 130515Z AUTO 22006KT 10SM CLR 24/22 A2998 930 87 2200 220/06 RMK AO2 T02390217
04850KAOH AOH20160713002010807/13/16 00:20:31  5-MIN KAOH 130520Z AUTO 21007KT 10SM CLR 24/22 A2998 930 87 2200 220/07 RMK AO2 T02390217
04850KAOH AOH20160713002510807/13/16 00:25:31  5-MIN KAOH 130525Z AUTO 21006KT 10SM CLR 24/22 A2998 930 87 2200 220/06 RMK AO2 T02390217
04850KAOH AOH20160713003010807/13/16 00:30:31  5-MIN KAOH 130530Z AUTO 22008KT 10SM CLR 24/22 A2998 930 87 2200 220/08 RMK AO2 T02390217
04850KAOH AOH20160713003510807/13/16 00:35:31  5-MIN KAOH 130535Z AUTO 21008KT 10SM CLR 24/22 A2998 920 87 2200 220/08 RMK AO2 T02390217
04850KAOH AOH20160713004010807/13/16 00:40:31  5-MIN KAOH 130540Z AUTO 21008KT 10SM CLR 23/22 A2998 930 90 2100 210/08 RMK AO2 T02330217
04850KAOH AOH20160713004510807/13/16 00:45:31  5-MIN KAOH 130545Z AUTO 20007KT 10SM CLR 23/22 A2998 930 90 2100 210/07 RMK AO2 T02330217
04850KAOH AOH20160713005013307/13/16 00:50:31  5-MIN KAOH 130550Z AUTO 21007KT 10SM CLR 23/22 A2998 930 90 2100 210/07 RMK AO2 SLP142 T02330217 10278 20233 51004
04850KAOH AOH20160713005510807/13/16 00:55:31  5-MIN KAOH 130555Z AUTO 21007KT 10SM CLR 23/22 A2998 930 90 2100 210/07 RMK AO2 T02330217
04850KAOH AOH20160713010010807/13/16 01:00:31  5-MIN KAOH 130600Z AUTO 20006KT 10SM CLR 23/22 A2998 930 90 2100 210/06 RMK AO2 T02330217
04850KAOH AOH20160713010510807/13/16 01:05:31  5-MIN KAOH 130605Z AUTO 20006KT 10SM CLR 23/22 A2998 930 90 2100 210/06 RMK AO2 T02330217
04850KAOH AOH20160713011010807/13/16 01:10:31  5-MIN KAOH 130610Z AUTO 20007KT 10SM CLR 23/22 A2998 930 90 2100 210/07 RMK AO2 T02330217
04850KAOH AOH20160713011510807/13/16 01:15:31  5-MIN KAOH 130615Z AUTO 20006KT 10SM CLR 23/22 A2998 920 90 2100 210/06 RMK AO2 T02330217
04850KAOH AOH20160713012010807/13/16 01:20:31  5-MIN KAOH 130620Z AUTO 20006KT 10SM CLR 23/22 A2998 920 93 2100 210/06 RMK AO2 T02330222
04850KAOH AOH20160713012510807/13/16 01:25:31  5-MIN KAOH 130625Z AUTO 20007KT 10SM CLR 23/22 A2998 920 93 2100 210/07 RMK AO2 T02330222
04850KAOH AOH20160713013010807/13/16 01:30:31  5-MIN KAOH 130630Z AUTO 20006KT 10SM CLR 23/22 A2998 920 93 2100 210/06 RMK AO2 T02330222
04850KAOH AOH20160713013510807/13/16 01:35:31  5-MIN KAOH 130635Z AUTO 20006KT 10SM CLR 23/22 A2998 920 93 2100 210/06 RMK AO2 T02330222
04850KAOH AOH20160713014010807/13/16 01:40:31  5-MIN KAOH 130640Z AUTO 21006KT 10SM CLR 23/22 A2998 920 93 2100 210/06 RMK AO2 T02330222
04850KAOH AOH20160713014510807/13/16 01:45:31  5-MIN KAOH 130645Z AUTO 21007KT 10SM CLR 23/22 A2998 920 93 2100 210/07 RMK AO2 T02330222
04850KAOH AOH20160713015011507/13/16 01:50:31  5-MIN KAOH 130650Z AUTO 21007KT 10SM CLR 23/22 A2998 920 93 2100 210/07 RMK AO2 SLP143 T02330222
04850KAOH AOH20160713015510807/13/16 01:55:31  5-MIN KAOH 130655Z AUTO 21005KT 10SM CLR 23/22 A2998 920 93 2100 210/05 RMK AO2 T02330222
04850KAOH AOH20160713020010807/13/16 02:00:31  5-MIN KAOH 130700Z AUTO 20004KT 10SM CLR 23/22 A2998 920 93 2100 210/04 RMK AO2 T02330222
04850KAOH AOH20160713020510807/13/16 02:05:31  5-MIN KAOH 130705Z AUTO 21005KT 10SM CLR 23/22 A2998 920 93 2100 210/05 RMK AO2 T02330222
04850KAOH AOH20160713021010807/13/16 02:10:31  5-MIN KAOH 130710Z AUTO 21006KT 10SM CLR 23/22 A2998 920 93 2100 210/06 RMK AO2 T02330222
04850KAOH AOH20160713021510807/13/16 02:15:31  5-MIN KAOH 130715Z AUTO 21006KT 10SM CLR 23/22 A2998 920 93 2100 220/06 RMK AO2 T02330222
04850KAOH AOH20160713022010807/13/16 02:20:31  5-MIN KAOH 130720Z AUTO 22007KT 10SM CLR 23/22 A2998 920 93 2100 230/07 RMK AO2 T02330222
04850KAOH AOH20160713022510807/13/16 02:25:31  5-MIN KAOH 130725Z AUTO 22008KT 10SM CLR 23/22 A2998 920 90 2100 220/08 RMK AO2 T02330217
04850KAOH AOH20160713023010807/13/16 02:30:31  5-MIN KAOH 130730Z AUTO 22007KT 10SM CLR 23/22 A2998 920 90 2100 220/07 RMK AO2 T02330217
04850KAOH AOH20160713023510807/13/16 02:35:31  5-MIN KAOH 130735Z AUTO 22007KT 10SM CLR 23/22 A2998 920 90 2100 230/07 RMK AO2 T02330217
04850KAOH AOH20160713024010807/13/16 02:40:31  5-MIN KAOH 130740Z AUTO 22007KT 10SM CLR 23/22 A2998 920 90 2100 220/07 RMK AO2 T02330217
04850KAOH AOH20160713024510807/13/16 02:45:31  5-MIN KAOH 130745Z AUTO 22006KT 10SM CLR 23/22 A2998 920 90 2100 220/06 RMK AO2 T02330217
04850KAOH AOH20160713025011507/13/16 02:50:31  5-MIN KAOH 130750Z AUTO 21007KT 10SM CLR 23/22 A2998 920 90 2100 220/07 RMK AO2 SLP144 T02330217
04850KAOH AOH20160713025510807/13/16 02:55:31  5-MIN KAOH 130755Z AUTO 23007KT 10SM CLR 23/22 A2998 920 90 2100 230/07 RMK AO2 T02330217
04850KAOH AOH20160713030010807/13/16 03:00:31  5-MIN KAOH 130800Z AUTO 22006KT 10SM CLR 23/22 A2998 920 90 2100 220/06 RMK AO2 T02330217
04850KAOH AOH20160713030510807/13/16 03:05:31  5-MIN KAOH 130805Z AUTO 21006KT 10SM CLR 23/22 A2998 920 90 2100 220/06 RMK AO2 T02330217
04850KAOH AOH20160713031011107/13/16 03:10:31  5-MIN KAOH 130810Z AUTO 21006KT 10SM FEW100 23/22 A2998 920 90 2100 220/06 RMK AO2 T02330217
04850KAOH AOH20160713031511807/13/16 03:15:31  5-MIN KAOH 130815Z AUTO 20004KT 10SM FEW075 SCT100 23/22 A2998 920 90 2100 210/04 RMK AO2 T02330217
04850KAOH AOH20160713032012507/13/16 03:20:31  5-MIN KAOH 130820Z AUTO 20005KT 10SM FEW075 SCT100 SCT120 23/22 A2998 920 90 2100 210/05 RMK AO2 T02330217
04850KAOH AOH20160713032512507/13/16 03:25:31  5-MIN KAOH 130825Z AUTO 20005KT 10SM FEW075 FEW100 SCT120 23/22 A2998 920 93 2100 210/05 RMK AO2 T02280217
04850KAOH AOH20160713033012507/13/16 03:30:31  5-MIN KAOH 130830Z AUTO 20004KT 10SM FEW075 FEW100 SCT120 23/22 A2998 920 93 2100 200/04 RMK AO2 T02280217
04850KAOH AOH20160713033512507/13/16 03:35:31  5-MIN KAOH 130835Z AUTO 20005KT 10SM FEW075 FEW100 SCT120 23/22 A2998 920 93 2100 210/05 RMK AO2 T02280217
04850KAOH AOH20160713034011807/13/16 03:40:31  5-MIN KAOH 130840Z AUTO 21004KT 10SM FEW075 FEW120 23/22 A2998 920 93 2100 210/04 RMK AO2 T02280217
04850KAOH AOH20160713034511107/13/16 03:45:31  5-MIN KAOH 130845Z AUTO 20005KT 10SM FEW120 23/22 A2998 920 93 2100 210/05 RMK AO2 T02280217
04850KAOH AOH20160713035012107/13/16 03:50:31  5-MIN KAOH 130850Z AUTO 21005KT 10SM CLR 23/22 A2998 920 93 2100 210/05 RMK AO2 SLP144 T02280217 52006
04850KAOH AOH20160713035510807/13/16 03:55:31  5-MIN KAOH 130855Z AUTO 22005KT 10SM CLR 23/22 A2999 920 93 2100 220/05 RMK AO2 T02280217
04850KAOH AOH20160713040010807/13/16 04:00:31  5-MIN KAOH 130900Z AUTO 21005KT 10SM CLR 23/22 A2999 920 93 2100 220/05 RMK AO2 T02280217
04850KAOH AOH20160713040510807/13/16 04:05:31  5-MIN KAOH 130905Z AUTO 22004KT 10SM CLR 23/22 A2999 920 93 2100 220/04 RMK AO2 T02280217
04850KAOH AOH20160713041010807/13/16 04:10:31  5-MIN KAOH 130910Z AUTO 22005KT 10SM CLR 23/22 A2999 920 93 2100 220/05 RMK AO2 T02280217
04850KAOH AOH20160713041510807/13/16 04:15:31  5-MIN KAOH 130915Z AUTO 22005KT 10SM CLR 23/21 A2999 910 90 2100 220/05 RMK AO2 T02280211
04850KAOH AOH20160713042010807/13/16 04:20:31  5-MIN KAOH 130920Z AUTO 21005KT 10SM CLR 23/21 A2999 910 90 2100 220/05 RMK AO2 T02280211
04850KAOH AOH20160713042510807/13/16 04:25:31  5-MIN KAOH 130925Z AUTO 21005KT 10SM CLR 23/21 A2999 910 90 2100 220/05 RMK AO2 T02280211
04850KAOH AOH20160713043010807/13/16 04:30:31  5-MIN KAOH 130930Z AUTO 22005KT 10SM CLR 23/21 A2999 910 90 2100 220/05 RMK AO2 T02280211
04850KAOH AOH20160713043510807/13/16 04:35:31  5-MIN KAOH 130935Z AUTO 21005KT 10SM CLR 23/21 A2999 910 90 2100 220/05 RMK AO2 T02280211
04850KAOH AOH20160713044010807/13/16 04:40:31  5-MIN KAOH 130940Z AUTO 21004KT 10SM CLR 23/22 A2999 910 93 2100 220/04 RMK AO2 T02280217
04850KAOH AOH20160713044510807/13/16 04:45:31  5-MIN KAOH 130945Z AUTO 22004KT 10SM CLR 23/22 A2999 910 93 2100 220/04 RMK AO2 T02280217
04850KAOH AOH20160713045011507/13/16 04:50:31  5-MIN KAOH 130950Z AUTO 22004KT 10SM CLR 23/22 A2999 910 93 2100 220/04 RMK AO2 SLP148 T02280217
04850KAOH AOH20160713045510807/13/16 04:55:31  5-MIN KAOH 130955Z AUTO 22004KT 10SM CLR 23/22 A3000 910 93 2100 220/04 RMK AO2 T02280217
04850KAOH AOH20160713050010807/13/16 05:00:31  5-MIN KAOH 131000Z AUTO 22004KT 10SM CLR 23/22 A3000 910 93 2100 230/04 RMK AO2 T02280217
04850KAOH AOH20160713050510807/13/16 05:05:31  5-MIN KAOH 131005Z AUTO 22004KT 10SM CLR 23/22 A3000 910 93 2100 220/04 RMK AO2 T02280217
04850KAOH AOH20160713051010807/13/16 05:10:31  5-MIN KAOH 131010Z AUTO 23004KT 10SM CLR 23/22 A3000 910 93 2100 230/04 RMK AO2 T02280217
04850KAOH AOH20160713051510807/13/16 05:15:31  5-MIN KAOH 131015Z AUTO 22004KT 10SM CLR 23/22 A3000 910 93 2100 230/04 RMK AO2 T02280217
04850KAOH AOH20160713052010807/13/16 05:20:31  5-MIN KAOH 131020Z AUTO 22004KT 10SM CLR 23/22 A3000 900 93 2100 230/04 RMK AO2 T02280217
04850KAOH AOH20160713052510807/13/16 05:25:31  5-MIN KAOH 131025Z AUTO 22004KT 10SM CLR 23/22 A3000 900 93 2100 220/04 RMK AO2 T02280217
04850KAOH AOH20160713053010807/13/16 05:30:31  5-MIN KAOH 131030Z AUTO 20004KT 10SM CLR 23/22 A3000 900 93 2100 200/04 RMK AO2 T02280217
04850KAOH AOH20160713053510807/13/16 05:35:31  5-MIN KAOH 131035Z AUTO 19004KT 10SM CLR 23/22 A3000 900 93 2100 190/04 RMK AO2 T02280217
04850KAOH AOH20160713054010807/13/16 05:40:31  5-MIN KAOH 131040Z AUTO 21004KT 10SM CLR 22/22 A3000 900 97 2000 210/04 RMK AO2 T02220217
04850KAOH AOH20160713054510807/13/16 05:45:31  5-MIN KAOH 131045Z AUTO 21004KT 10SM CLR 23/22 A3000 900 93 2000 220/04 RMK AO2 T02280217
04850KAOH AOH20160713055011507/13/16 05:50:31  5-MIN KAOH 131050Z AUTO 21003KT 10SM CLR 23/22 A3000 900 93 2100 220/03 RMK AO2 SLP151 T02280217
04850KAOH AOH20160713055510807/13/16 05:55:31  5-MIN KAOH 131055Z AUTO 21003KT 10SM CLR 22/22 A3000 900 97 2000 220/03 RMK AO2 T02220217
04850KAOH AOH20160713060010807/13/16 06:00:31  5-MIN KAOH 131100Z AUTO 22003KT 10SM CLR 22/22 A3000 900 97 2000 220/03 RMK AO2 T02220217
04850KAOH AOH20160713060510807/13/16 06:05:31  5-MIN KAOH 131105Z AUTO 22004KT 10SM CLR 22/22 A3000 900 97 2000 220/04 RMK AO2 T02220217
04850KAOH AOH20160713061010807/13/16 06:10:31  5-MIN KAOH 131110Z AUTO 22003KT 10SM CLR 22/22 A3000 900 97 2000 230/03 RMK AO2 T02220217
04850KAOH AOH20160713061510807/13/16 06:15:31  5-MIN KAOH 131115Z AUTO 22004KT 10SM CLR 23/22 A3000 900 93 2000 220/04 RMK AO2 T02280217
04850KAOH AOH20160713062010807/13/16 06:20:31  5-MIN KAOH 131120Z AUTO 22003KT 10SM CLR 23/22 A3001 900 93 2000 230/03 RMK AO2 T02280217
04850KAOH AOH20160713062510807/13/16 06:25:31  5-MIN KAOH 131125Z AUTO 22005KT 10SM CLR 23/22 A3001 900 93 2000 230/05 RMK AO2 T02280217
04850KAOH AOH20160713063010807/13/16 06:30:31  5-MIN KAOH 131130Z AUTO 22004KT 10SM CLR 23/22 A3001 900 93 2000 230/04 RMK AO2 T02280217
04850KAOH AOH20160713063510807/13/16 06:35:31  5-MIN KAOH 131135Z AUTO 22005KT 10SM CLR 23/22 A3001 900 93 2000 220/05 RMK AO2 T02280217
04850KAOH AOH20160713064010807/13/16 06:40:31  5-MIN KAOH 131140Z AUTO 21005KT 10SM CLR 23/22 A3001 900 93 2100 220/05 RMK AO2 T02330222
04850KAOH AOH20160713064510807/13/16 06:45:31  5-MIN KAOH 131145Z AUTO 22005KT 10SM CLR 23/22 A3001 890 93 2100 230/05 RMK AO2 T02330222
04850KAOH AOH20160713065013307/13/16 06:50:31  5-MIN KAOH 131150Z AUTO 21007KT 10SM CLR 23/22 A3001 890 93 2100 210/07 RMK AO2 SLP155 T02330222 10233 20222 51003
04850KAOH AOH20160713065510807/13/16 06:55:31  5-MIN KAOH 131155Z AUTO 21006KT 10SM CLR 23/22 A3001 900 93 2100 210/06 RMK AO2 T02330222
04850KAOH AOH20160713070010807/13/16 07:00:31  5-MIN KAOH 131200Z AUTO 21007KT 10SM CLR 23/22 A3001 900 93 2100 220/07 RMK AO2 T02330222
04850KAOH AOH20160713070510807/13/16 07:05:31  5-MIN KAOH 131205Z AUTO 22006KT 10SM CLR 24/22 A3001 900 90 2200 220/06 RMK AO2 T02390222
04850KAOH AOH20160713071010807/13/16 07:10:31  5-MIN KAOH 131210Z AUTO 21006KT 10SM CLR 24/22 A3001 890 90 2200 220/06 RMK AO2 T02390222
04850KAOH AOH20160713071510807/13/16 07:15:31  5-MIN KAOH 131215Z AUTO 21006KT 10SM CLR 24/22 A3001 890 90 2200 220/06 RMK AO2 T02390222
04850KAOH AOH20160713072010807/13/16 07:20:31  5-MIN KAOH 131220Z AUTO 21006KT 10SM CLR 24/22 A3001 890 90 2200 220/06 RMK AO2 T02390222
04850KAOH AOH20160713072510807/13/16 07:25:31  5-MIN KAOH 131225Z AUTO 21005KT 10SM CLR 24/22 A3001 890 90 2200 210/05 RMK AO2 T02390222
04850KAOH AOH20160713073010807/13/16 07:30:31  5-MIN KAOH 131230Z AUTO 19006KT 10SM CLR 24/22 A3001 890 90 2200 200/06 RMK AO2 T02390222
04850KAOH AOH20160713073510807/13/16 07:35:31  5-MIN KAOH 131235Z AUTO 21005KT 10SM CLR 24/22 A3001 890 87 2200 210/05 RMK AO2 T02440222
04850KAOH AOH20160713074010807/13/16 07:40:31  5-MIN KAOH 131240Z AUTO 21004KT 10SM CLR 24/22 A3001 890 87 2200 210/04 RMK AO2 T02440222
04850KAOH AOH20160713074511107/13/16 07:45:31  5-MIN KAOH 131245Z AUTO 19006KT 10SM FEW011 24/22 A3001 890 87 2200 200/06 RMK AO2 T02440222
04850KAOH AOH20160713075011807/13/16 07:50:31  5-MIN KAOH 131250Z AUTO 20005KT 10SM FEW011 24/23 A3001 890 90 2200 200/05 RMK AO2 SLP155 T02440228
04850KAOH AOH20160713075511107/13/16 07:55:31  5-MIN KAOH 131255Z AUTO 20005KT 10SM SCT011 25/23 A3002 890 87 2300 200/05 RMK AO2 T02500228
04850KAOH AOH20160713080011107/13/16 08:00:31  5-MIN KAOH 131300Z AUTO 20005KT 10SM BKN011 24/22 A3002 890 87 2200 200/05 RMK AO2 T02440222
04850KAOH AOH20160713080511107/13/16 08:05:31  5-MIN KAOH 131305Z AUTO 24006KT 10SM BKN012 25/23 A3002 890 87 2300 240/06 RMK AO2 T02500228
04850KAOH AOH20160713081011107/13/16 08:10:31  5-MIN KAOH 131310Z AUTO 23005KT 10SM BKN012 25/23 A3002 890 87 2300 240/05 RMK AO2 T02500228
04850KAOH AOH20160713081511107/13/16 08:15:31  5-MIN KAOH 131315Z AUTO 21005KT 10SM OVC012 24/23 A3002 880 90 2200 220/05 RMK AO2 T02440228
04850KAOH AOH20160713082011107/13/16 08:20:31  5-MIN KAOH 131320Z AUTO VRB05KT 10SM OVC012 24/22 A3002 890 87 2200 VRB/05 RMK AO2 T02440222
04850KAOH AOH20160713082511107/13/16 08:25:31  5-MIN KAOH 131325Z AUTO 21006KT 10SM OVC012 24/23 A3002 890 90 2200 210/06 RMK AO2 T02440228
04850KAOH AOH20160713083011107/13/16 08:30:31  5-MIN KAOH 131330Z AUTO 23005KT 10SM OVC014 25/23 A3001 890 87 2300 230/05 RMK AO2 T02500228
04850KAOH AOH20160713083511107/13/16 08:35:31  5-MIN KAOH 131335Z AUTO 21007KT 10SM OVC014 25/23 A3002 890 87 2300 220/07 RMK AO2 T02500228
04850KAOH AOH20160713084011107/13/16 08:40:31  5-MIN KAOH 131340Z AUTO 21008KT 10SM OVC014 25/23 A3002 890 87 2300 210/08 RMK AO2 T02500228
04850KAOH AOH20160713084511107/13/16 08:45:31  5-MIN KAOH 131345Z AUTO 21007KT 10SM OVC014 25/22 A3002 890 84 2300 220/07 RMK AO2 T02500222
04850KAOH AOH20160713085011807/13/16 08:50:31  5-MIN KAOH 131350Z AUTO 22006KT 10SM BKN014 26/22 A3002 890 81 2300 220/06 RMK AO2 SLP157 T02560222
04850KAOH AOH20160713085511107/13/16 08:55:31  5-MIN KAOH 131355Z AUTO 23007KT 10SM BKN016 26/23 A3002 880 84 2300 230/07 RMK AO2 T02560228
04850KAOH AOH20160713090011807/13/16 09:00:31  5-MIN KAOH 131400Z AUTO 23007KT 10SM BKN014 BKN020 25/23 A3002 890 87 2300 230/07 RMK AO2 T02500228
04850KAOH AOH20160713090511107/13/16 09:05:31  5-MIN KAOH 131405Z AUTO 21008KT 10SM BKN017 26/23 A3002 890 84 2300 220/08 RMK AO2 T02560228
04850KAOH AOH20160713091011107/13/16 09:10:31  5-MIN KAOH 131410Z AUTO 21009KT 10SM BKN017 26/23 A3002 890 84 2300 220/09 RMK AO2 T02560228
04850KAOH AOH20160713091511807/13/16 09:15:31  5-MIN KAOH 131415Z AUTO 23010KT 10SM FEW014 BKN020 26/23 A3002 880 81 2400 230/10 RMK AO2 T02610228
04850KAOH AOH20160713092012307/13/16 09:20:31  5-MIN KAOH 131420Z AUTO 21008KT 10SM OVC020 26/23 A3002 880 84 2300 220/08 RMK AO2 CIG 013V023 T02560228
04850KAOH AOH20160713092511807/13/16 09:25:31  5-MIN KAOH 131425Z AUTO 24009KT 10SM BKN017 BKN022 26/23 A3002 880 84 2400 240/09 RMK AO2 T02610233
04850KAOH AOH20160713093011807/13/16 09:30:31  5-MIN KAOH 131430Z AUTO 24010KT 10SM BKN017 BKN022 26/23 A3003 880 84 2300 250/10 RMK AO2 T02560228
04850KAOH AOH20160713093512507/13/16 09:35:31  5-MIN KAOH 131435Z AUTO 23009KT 10SM FEW017 BKN022 BKN028 26/23 A3003 880 81 2400 230/09 RMK AO2 T02610228
04850KAOH AOH20160713094012507/13/16 09:40:31  5-MIN KAOH 131440Z AUTO 22010KT 10SM FEW016 SCT022 BKN030 27/23 A3002 880 79 2500 220/10 RMK AO2 T02670228
04850KAOH AOH20160713094512507/13/16 09:45:31  5-MIN KAOH 131445Z AUTO 22007KT 10SM FEW016 SCT022 BKN032 26/23 A3002 890 81 2400 230/07 RMK AO2 T02610228
04850KAOH AOH20160713095013807/13/16 09:50:31  5-MIN KAOH 131450Z AUTO 22006KT 10SM FEW015 FEW020 BKN030 26/23 A3001 890 81 2400 230/06 RMK AO2 SLP156 T02610228 51008
04850KAOH AOH20160713095511107/13/16 09:55:31  5-MIN KAOH 131455Z AUTO 20007KT 10SM SCT030 27/22 A3001 890 76 2500 210/07 RMK AO2 T02670222
04850KAOH AOH20160713100011107/13/16 10:00:31  5-MIN KAOH 131500Z AUTO 22006KT 10SM FEW030 27/22 A3001 890 76 2500 230/06 RMK AO2 T02670222
04850KAOH AOH20160713100511807/13/16 10:05:31  5-MIN KAOH 131505Z AUTO 20008KT 10SM FEW019 FEW032 27/23 A3001 890 79 2500 210/08 RMK AO2 T02670228
04850KAOH AOH20160713101011107/13/16 10:10:31  5-MIN KAOH 131510Z AUTO 20008KT 10SM FEW019 27/23 A3001 890 79 2500 210/08 RMK AO2 T02670228
04850KAOH AOH20160713101511107/13/16 10:15:31  5-MIN KAOH 131515Z AUTO 20007KT 10SM FEW019 27/23 A3001 890 79 2500 210/07 RMK AO2 T02670228
04850KAOH AOH20160713102011107/13/16 10:20:31  5-MIN KAOH 131520Z AUTO 19007KT 10SM SCT019 27/23 A3001 890 76 2500 200/07 RMK AO2 T02720228
04850KAOH AOH20160713102511107/13/16 10:25:31  5-MIN KAOH 131525Z AUTO 19009KT 10SM SCT020 27/23 A3001 890 76 2500 190/09 RMK AO2 T02720228
04850KAOH AOH20160713103011107/13/16 10:30:31  5-MIN KAOH 131530Z AUTO 19008KT 10SM FEW020 28/23 A3001 890 74 2600 200/08 RMK AO2 T02780228
04850KAOH AOH20160713103511107/13/16 10:35:31  5-MIN KAOH 131535Z AUTO 21009KT 10SM FEW020 28/22 A3001 890 71 2600 210/09 RMK AO2 T02780222
04850KAOH AOH20160713104011107/13/16 10:40:31  5-MIN KAOH 131540Z AUTO 23009KT 10SM FEW020 28/22 A3001 890 71 2600 230/09 RMK AO2 T02780222
04850KAOH AOH20160713104511107/13/16 10:45:31  5-MIN KAOH 131545Z AUTO 21010KT 10SM FEW020 28/23 A3000 900 74 2600 210/10 RMK AO2 T02780228
04850KAOH AOH20160713105011507/13/16 10:50:31  5-MIN KAOH 131550Z AUTO 20008KT 10SM CLR 28/22 A3000 910 71 2600 200/08 RMK AO2 SLP149 T02780222
04850KAOH AOH20160713105510807/13/16 10:55:31  5-MIN KAOH 131555Z AUTO 20008KT 10SM CLR 28/23 A2999 910 71 2700 210/08 RMK AO2 T02830228
04850KAOH AOH20160713110010807/13/16 11:00:31  5-MIN KAOH 131600Z AUTO 19009KT 10SM CLR 28/23 A2999 910 71 2700 190/09 RMK AO2 T02830228
04850KAOH AOH20160713110510807/13/16 11:05:31  5-MIN KAOH 131605Z AUTO 20009KT 10SM CLR 28/22 A3000 910 69 2700 210/09 RMK AO2 T02830222
04850KAOH AOH20160713111010807/13/16 11:10:31  5-MIN KAOH 131610Z AUTO 21009KT 10SM CLR 28/23 A3000 900 71 2700 220/09 RMK AO2 T02830228
04850KAOH AOH20160713111510807/13/16 11:15:31  5-MIN KAOH 131615Z AUTO 21009KT 10SM CLR 29/23 A3000 900 69 2700 220/09 RMK AO2 T02890228
04850KAOH AOH20160713112010807/13/16 11:20:31  5-MIN KAOH 131620Z AUTO 22012KT 10SM CLR 29/22 A3000 900 67 2700 230/12 RMK AO2 T02890222
04850KAOH AOH20160713112510807/13/16 11:25:31  5-MIN KAOH 131625Z AUTO 21009KT 10SM CLR 29/22 A3001 900 64 2800 210/09 RMK AO2 T02940222
04850KAOH AOH20160713113011807/13/16 11:30:31  5-MIN KAOH 131630Z AUTO 23011KT 10SM FEW035 FEW044 29/23 A3001 900 67 2800 230/11 RMK AO2 T02940228
04850KAOH AOH20160713113511807/13/16 11:35:31  5-MIN KAOH 131635Z AUTO 21008KT 10SM FEW035 FEW044 29/22 A3000 900 64 2800 210/08 RMK AO2 T02940222
04850KAOH AOH20160713114011107/13/16 11:40:31  5-MIN KAOH 131640Z AUTO 22010KT 10SM SCT035 29/22 A3000 910 64 2800 220/10 RMK AO2 T02940222
04850KAOH AOH20160713114511107/13/16 11:45:31  5-MIN KAOH 131645Z AUTO 21009KT 10SM SCT037 29/22 A2999 910 64 2800 220/09 RMK AO2 T02940222
04850KAOH AOH20160713115011807/13/16 11:50:31  5-MIN KAOH 131650Z AUTO 21010KT 10SM SCT037 29/23 A2999 910 67 2800 220/10 RMK AO2 SLP147 T02940228
04850KAOH AOH20160713115511107/13/16 11:55:31  5-MIN KAOH 131655Z AUTO 20011KT 10SM SCT037 29/22 A2999 910 64 2800 200/11 RMK AO2 T02940222
04850KAOH AOH20160713120011707/13/16 12:00:31  5-MIN KAOH 131700Z AUTO 21010G15KT 10SM SCT037 30/22 A2999 910 62 2900 210/10G15 RMK AO2 T03000222
04850KAOH AOH20160713120511107/13/16 12:05:31  5-MIN KAOH 131705Z AUTO 24010KT 10SM SCT037 30/22 A3000 910 62 2900 250/10 RMK AO2 T03000222
04850KAOH AOH20160713121011107/13/16 12:10:31  5-MIN KAOH 131710Z AUTO 23010KT 10SM SCT039 30/22 A3000 910 62 2900 240/10 RMK AO2 T03000222
04850KAOH AOH20160713121511807/13/16 12:15:31  5-MIN KAOH 131715Z AUTO 22010KT 10SM SCT039 SCT047 30/22 A3000 900 62 2900 220/10 RMK AO2 T03000222
04850KAOH AOH20160713122011807/13/16 12:20:31  5-MIN KAOH 131720Z AUTO 22011KT 10SM SCT041 SCT049 31/22 A3000 900 60 2900 220/11 RMK AO2 T03060222
04850KAOH AOH20160713122511807/13/16 12:25:31  5-MIN KAOH 131725Z AUTO 23012KT 10SM SCT041 BKN049 30/22 A3000 910 60 2900 240/12 RMK AO2 T03000217
04850KAOH AOH20160713123011807/13/16 12:30:31  5-MIN KAOH 131730Z AUTO 22012KT 10SM SCT041 BKN049 31/22 A3000 910 58 2900 230/12 RMK AO2 T03060217
04850KAOH AOH20160713123513107/13/16 12:35:31  5-MIN KAOH 131735Z AUTO 23014G19KT 10SM SCT042 SCT049 BKN055 30/22 A3000 910 60 2900 240/14G19 RMK AO2 T03000217
04850KAOH AOH20160713124012507/13/16 12:40:31  5-MIN KAOH 131740Z AUTO 23014KT 10SM SCT042 BKN049 BKN055 30/22 A2999 910 60 2900 230/14 RMK AO2 T03000217
04850KAOH AOH20160713124512507/13/16 12:45:31  5-MIN KAOH 131745Z AUTO 22013KT 10SM SCT042 BKN049 BKN055 30/22 A2999 920 60 2900 230/13 RMK AO2 T03000217
04850KAOH AOH20160713125015007/13/16 12:50:31  5-MIN KAOH 131750Z AUTO 23015KT 10SM BKN042 BKN049 BKN055 31/22 A2999 920 58 2900 240/15 RMK AO2 SLP145 T03060217 10306 20233 50000
04850KAOH AOH20160713125511807/13/16 12:55:31  5-MIN KAOH 131755Z AUTO 24013KT 10SM SCT042 BKN055 31/22 A2998 920 58 2900 240/13 RMK AO2 T03060217
04850KAOH AOH20160713130012507/13/16 13:00:31  5-MIN KAOH 131800Z AUTO 22013KT 10SM FEW042 SCT048 SCT055 31/21 A2998 920 56 2900 230/13 RMK AO2 T03060211
04850KAOH AOH20160713130511807/13/16 13:05:31  5-MIN KAOH 131805Z AUTO 22014KT 10SM FEW041 SCT050 31/21 A2999 910 56 2900 220/14 RMK AO2 T03060211
04850KAOH AOH20160713131011107/13/16 13:10:31  5-MIN KAOH 131810Z AUTO 22012KT 10SM FEW041 31/22 A2999 910 58 2900 230/12 RMK AO2 T03060217
04850KAOH AOH20160713131511107/13/16 13:15:31  5-MIN KAOH 131815Z AUTO 22012KT 10SM FEW043 31/22 A2999 910 58 2900 220/12 RMK AO2 T03060217
04850KAOH AOH20160713132011807/13/16 13:20:31  5-MIN KAOH 131820Z AUTO 22010KT 10SM FEW043 FEW050 31/22 A2999 910 58 2900 220/10 RMK AO2 T03060217
04850KAOH AOH20160713132511807/13/16 13:25:31  5-MIN KAOH 131825Z AUTO 23013KT 10SM FEW043 FEW050 31/22 A2999 910 56 3000 240/13 RMK AO2 T03110217
04850KAOH AOH20160713133011707/13/16 13:30:31  5-MIN KAOH 131830Z AUTO 22013G21KT 10SM FEW045 31/21 A2999 910 56 2900 230/13G21 RMK AO2 T03060211
04850KAOH AOH20160713133511707/13/16 13:35:31  5-MIN KAOH 131835Z AUTO 24013G21KT 10SM FEW047 31/21 A2999 910 56 2900 250/13G21 RMK AO2 T03060211
04850KAOH AOH20160713134011707/13/16 13:40:31  5-MIN KAOH 131840Z AUTO 24012G21KT 10SM SCT047 31/22 A2999 920 56 3000 250/12G21 RMK AO2 T03110217
04850KAOH AOH20160713134511707/13/16 13:45:31  5-MIN KAOH 131845Z AUTO 23011G21KT 10SM FEW047 31/22 A2998 920 56 3000 230/11G21 RMK AO2 T03110217
04850KAOH AOH20160713135012407/13/16 13:50:31  5-MIN KAOH 131850Z AUTO 24013G20KT 10SM SCT047 31/22 A2998 920 58 3000 240/13G20 RMK AO2 SLP144 T03110222
04850KAOH AOH20160713135513407/13/16 13:55:31  5-MIN KAOH 131855Z AUTO 23009KT 190V250 10SM SCT047 BKN055 31/22 A2998 920 58 2900 240/09 200V260 RMK AO2 T03060217
04850KAOH AOH20160713140011807/13/16 14:00:31  5-MIN KAOH 131900Z AUTO 23013KT 10SM SCT047 BKN060 31/22 A2998 920 58 3000 230/13 RMK AO2 T03110222
04850KAOH AOH20160713140511807/13/16 14:05:31  5-MIN KAOH 131905Z AUTO 22012KT 10SM SCT045 BKN055 31/22 A2998 930 58 3000 220/12 RMK AO2 T03110222
04850KAOH AOH20160713141013407/13/16 14:10:31  5-MIN KAOH 131910Z AUTO 22009KT 190V250 10SM SCT045 BKN055 31/22 A2997 930 58 3000 220/09 200V260 RMK AO2 T03110222
04850KAOH AOH20160713141511807/13/16 14:15:31  5-MIN KAOH 131915Z AUTO 21009KT 10SM SCT045 BKN055 31/22 A2997 930 60 3000 210/09 RMK AO2 T03060222
04850KAOH AOH20160713142011807/13/16 14:20:31  5-MIN KAOH 131920Z AUTO 27011KT 10SM SCT045 BKN055 31/22 A2996 940 60 3000 270/11 RMK AO2 T03060222
04850KAOH AOH20160713142512407/13/16 14:25:31  5-MIN KAOH 131925Z AUTO 23011G20KT 10SM BKN045 BKN055 32/22 A2996 940 55 3100 240/11G20 RMK AO2 T03170217
04850KAOH AOH20160713143012407/13/16 14:30:31  5-MIN KAOH 131930Z AUTO 25011G20KT 10SM SCT045 SCT060 31/22 A2995 950 58 3000 260/11G20 RMK AO2 T03110222
04850KAOH AOH20160713143511107/13/16 14:35:31  5-MIN KAOH 131935Z AUTO 26011KT 10SM FEW045 32/22 A2995 950 56 3100 260/11 RMK AO2 T03170222
04850KAOH AOH20160713144011107/13/16 14:40:31  5-MIN KAOH 131940Z AUTO 22010KT 10SM FEW045 32/22 A2995 950 56 3100 220/10 RMK AO2 T03170222
04850KAOH AOH20160713144511107/13/16 14:45:31  5-MIN KAOH 131945Z AUTO 24013KT 10SM FEW045 32/22 A2995 950 55 3100 240/13 RMK AO2 T03170217
04850KAOH AOH20160713145011507/13/16 14:50:31  5-MIN KAOH 131950Z AUTO 23014KT 10SM CLR 32/22 A2995 950 55 3100 240/14 RMK AO2 SLP132 T03170217
04850KAOH AOH20160713145511107/13/16 14:55:31  5-MIN KAOH 131955Z AUTO 25011KT 10SM FEW047 32/22 A2995 950 55 3100 250/11 RMK AO2 T03170217
04850KAOH AOH20160713150011107/13/16 15:00:31  5-MIN KAOH 132000Z AUTO 22009KT 10SM FEW049 32/22 A2994 960 55 3100 230/09 RMK AO2 T03170217
04850KAOH AOH20160713150511107/13/16 15:05:31  5-MIN KAOH 132005Z AUTO 21009KT 10SM FEW049 32/22 A2994 960 56 3100 210/09 RMK AO2 T03170222
04850KAOH AOH20160713151011107/13/16 15:10:31  5-MIN KAOH 132010Z AUTO 23009KT 10SM FEW049 32/22 A2993 970 56 3100 240/09 RMK AO2 T03170222
04850KAOH AOH20160713151511107/13/16 15:15:31  5-MIN KAOH 132015Z AUTO 25011KT 10SM FEW050 32/22 A2993 970 56 3100 250/11 RMK AO2 T03170222
04850KAOH AOH20160713152011107/13/16 15:20:31  5-MIN KAOH 132020Z AUTO 21009KT 10SM FEW050 31/21 A2992 970 54 3100 220/09 RMK AO2 T03110211
04850KAOH AOH20160713152511107/13/16 15:25:31  5-MIN KAOH 132025Z AUTO 22010KT 10SM FEW050 31/22 A2992 980 56 3100 230/10 RMK AO2 T03110217
04850KAOH AOH20160713153010807/13/16 15:30:31  5-MIN KAOH 132030Z AUTO 22010KT 10SM CLR 32/22 A2992 980 55 3200 230/10 RMK AO2 T03220222
04850KAOH AOH20160713153510807/13/16 15:35:31  5-MIN KAOH 132035Z AUTO 19009KT 10SM CLR 32/22 A2991 990 56 3100 200/09 RMK AO2 T03170222
04850KAOH AOH20160713154010807/13/16 15:40:31  5-MIN KAOH 132040Z AUTO 21008KT 10SM CLR 32/22 A2991 990 55 3200 210/08 RMK AO2 T03170217
04850KAOH AOH20160713154510807/13/16 15:45:31  5-MIN KAOH 132045Z AUTO 20008KT 10SM CLR 32/22 A2990 990 56 3200 210/08 RMK AO2 T03170222
04850KAOH AOH20160713155012107/13/16 15:50:31  5-MIN KAOH 132050Z AUTO 20008KT 10SM CLR 32/22 A2990 990 56 3200 200/08 RMK AO2 SLP116 T03170222 56008
04850KAOH AOH20160713155510907/13/16 15:55:31  5-MIN KAOH 132055Z AUTO 20010KT 10SM CLR 32/22 A2990 1000 56 3200 210/10 RMK AO2 T03170222
04850KAOH AOH20160713160010907/13/16 16:00:31  5-MIN KAOH 132100Z AUTO 20009KT 10SM CLR 32/22 A2989 1000 55 3200 210/09 RMK AO2 T03170217
04850KAOH AOH20160713160511507/13/16 16:05:31  5-MIN KAOH 132105Z AUTO 19011G18KT 10SM CLR 32/22 A2990 1000 55 3200 200/11G18 RMK AO2 T03170217
04850KAOH AOH20160713161011507/13/16 16:10:31  5-MIN KAOH 132110Z AUTO 21010G18KT 10SM CLR 32/22 A2989 1000 55 3200 220/10G18 RMK AO2 T03170217
04850KAOH AOH20160713161510907/13/16 16:15:31  5-MIN KAOH 132115Z AUTO 21008KT 10SM CLR 32/22 A2989 1010 55 3200 210/08 RMK AO2 T03220222
04850KAOH AOH20160713162010907/13/16 16:20:31  5-MIN KAOH 132120Z AUTO 20010KT 10SM CLR 32/22 A2989 1010 55 3200 210/10 RMK AO2 T03170217
04850KAOH AOH20160713162510907/13/16 16:25:31  5-MIN KAOH 132125Z AUTO 20008KT 10SM CLR 32/22 A2989 1010 55 3200 210/08 RMK AO2 T03170217
04850KAOH AOH20160713163011507/13/16 16:30:31  5-MIN KAOH 132130Z AUTO 20006G15KT 10SM CLR 32/22 A2988 1010 56 3200 200/06G15 RMK AO2 T03170222
04850KAOH AOH20160713163511507/13/16 16:35:31  5-MIN KAOH 132135Z AUTO 19007G15KT 10SM CLR 32/23 A2988 1020 58 3200 190/07G15 RMK AO2 T03170228
04850KAOH AOH20160713164010907/13/16 16:40:31  5-MIN KAOH 132140Z AUTO 19010KT 10SM CLR 32/22 A2987 1020 56 3200 200/10 RMK AO2 T03170222
04850KAOH AOH20160713164510907/13/16 16:45:31  5-MIN KAOH 132145Z AUTO 20009KT 10SM CLR 32/22 A2988 1020 55 3200 210/09 RMK AO2 T03170217
04850KAOH AOH20160713165011607/13/16 16:50:31  5-MIN KAOH 132150Z AUTO 20010KT 10SM CLR 32/22 A2988 1020 56 3200 210/10 RMK AO2 SLP108 T03170222
04850KAOH AOH20160713165511207/13/16 16:55:31  5-MIN KAOH 132155Z AUTO 20011KT 10SM FEW050 32/22 A2988 1020 55 3200 210/11 RMK AO2 T03170217
04850KAOH AOH20160713170011807/13/16 17:00:31  5-MIN KAOH 132200Z AUTO 21011G19KT 10SM FEW050 32/22 A2988 1010 55 3200 210/11G19 RMK AO2 T03170217
04850KAOH AOH20160713170512707/13/16 17:05:31  5-MIN KAOH 132205Z AUTO 21011G19KT 10SM CLR 32/21 A2988 1010 53 3200 220/11G19 RMK AO2 LTG DSNT NW T03170211
04850KAOH AOH20160713171012407/13/16 17:10:31  5-MIN KAOH 132210Z AUTO 21011KT 10SM FEW050 31/21 A2988 1010 54 3100 210/11 RMK AO2 LTG DSNT NW T03110211
04850KAOH AOH20160713171513007/13/16 17:15:31  5-MIN KAOH 132215Z AUTO 20013G18KT 10SM FEW050 31/21 A2988 1020 56 3100 210/13G18 RMK AO2 LTG DSNT NW T03060211
04850KAOH AOH20160713172012107/13/16 17:20:31  5-MIN KAOH 132220Z AUTO 22012KT 10SM CLR 31/21 A2988 1020 56 3100 230/12 RMK AO2 LTG DSNT NW T03060211
04850KAOH AOH20160713172512107/13/16 17:25:31  5-MIN KAOH 132225Z AUTO 21009KT 10SM CLR 31/21 A2987 1020 56 3100 220/09 RMK AO2 LTG DSNT NW T03060211
04850KAOH AOH20160713173013107/13/16 17:30:31  5-MIN KAOH 132230Z AUTO 21011KT 10SM FEW050 FEW060 31/21 A2988 1020 56 3100 220/11 RMK AO2 LTG DSNT NW T03060211
04850KAOH AOH20160713173513707/13/16 17:35:31  5-MIN KAOH 132235Z AUTO 21009KT 10SM FEW050 SCT065 31/22 A2988 1020 58 3100 210/09 RMK AO2 LTG DSNT W AND NW T03060217
04850KAOH AOH20160713174015307/13/16 17:40:31  5-MIN KAOH 132240Z AUTO 20009KT 10SM -RA SCT050 SCT065 30/22 A2987 1020 60 3000 200/09 RMK AO2 LTG DSNT W AND NW RAB39 P0000 T03000217
04850KAOH AOH20160713174516007/13/16 17:45:31  5-MIN KAOH 132245Z AUTO 20011KT 10SM -RA SCT047 SCT055 BKN065 30/22 A2988 1020 62 3000 210/11 RMK AO2 LTG DSNT W AND NW RAB39 P0000 T03000222
04850KAOH AOH20160713175016407/13/16 17:50:31  5-MIN KAOH 132250Z AUTO 21009KT 10SM -RA SCT047 BKN055 BKN065 30/23 A2988 1020 65 3000 210/09 RMK AO2 LTG DSNT SW-NW RAB39 SLP109 P0000 T03000228
04850KAOH AOH20160713175515107/13/16 17:55:31  5-MIN KAOH 132255Z AUTO 20011KT 10SM -RA SCT047 SCT055 BKN070 29/23 A2988 1020 67 2900 210/11 RMK AO2 LTG DSNT SW-NW P0000 T02940228
04850KAOH AOH20160713180015407/13/16 18:00:31  5-MIN KAOH 132300Z AUTO 21014KT 10SM FEW045 SCT050 BKN070 30/22 A2988 1020 62 3000 210/14 RMK AO2 LTG DSNT SW-N RAE2259 P0000 T03000222
04850KAOH AOH20160713180515307/13/16 18:05:31  5-MIN KAOH 132305Z AUTO 20016G24KT 10SM FEW045 SCT060 30/22 A2988 1020 60 3000 210/16G24 RMK AO2 LTG DSNT SW-N RAE2259 P0000 T03000217
04850KAOH AOH20160713181016607/13/16 18:10:31  5-MIN KAOH 132310Z AUTO 21017G24KT 10SM VCTS FEW047 SCT060 SCT075 30/22 A2988 1010 60 3000 210/17G24 RMK AO2 LTG DSNT ALQDS RAE2259 P0000 T03000217
04850KAOH AOH20160713181516507/13/16 18:15:31  5-MIN KAOH 132315Z AUTO 22015G25KT 10SM VCTS FEW047 SCT080 SCT090 30/22 A2990 1000 60 3000 220/15G25 RMK AO2 LTG DSNT W-NE RAE2259 P0000 T03000217
04850KAOH AOH20160713182019107/13/16 18:20:31  5-MIN KAOH 132320Z AUTO 26037G45KT 9SM VCTS SQ FEW041 SCT050 BKN090 28/21 A2994 960 64 2700 260/37G45 RMK AO2 PK WND 25045/2319 LTG DSNT W-NE RAE2259 PRESRR P0000 T02780206
04850KAOH AOH20160713182520707/13/16 18:25:31  5-MIN KAOH 132325Z AUTO 26023G45KT 2SM TSRA BR SQ FEW025 SCT050 BKN070 22/21 A2993 960 90 2100 270/23G45 RMK AO2 PK WND 25045/2319 WSHFT 2310 LTG DSNT W-NE RAE2259B21 TSB25 P0007 T02220206
04850KAOH AOH20160713183021007/13/16 18:30:31  5-MIN KAOH 132330Z AUTO 27017G40KT 1 1/2SM +TSRA BR SCT035 SCT046 BKN070 21/21 A2992 970 97 1900 280/17G40 RMK AO2 PK WND 25045/2319 WSHFT 2310 LTG DSNT ALQDS RAE2259B21 TSB25 P0011 T02110206
04850KAOH AOH20160713183520607/13/16 18:35:31  5-MIN KAOH 132335Z AUTO 24014G27KT 3SM -TSRA BR SCT041 BKN070 BKN090 22/21 A2992 970 93 2000 250/14G27 RMK AO2 PK WND 25045/2319 WSHFT 2310 LTG DSNT ALQDS RAE2259B21 TSB25 P0011 T02170206
04850KAOH AOH20160713184020407/13/16 18:40:31  5-MIN KAOH 132340Z AUTO 24012KT 10SM VCTS -RA SCT041 SCT070 BKN090 22/21 A2992 980 90 2100 250/12 RMK AO2 PK WND 25045/2319 WSHFT 2310 LTG DSNT ALQDS RAE2259B21 TSB25E40 P0011 T02220206
04850KAOH AOH20160713184520407/13/16 18:45:31  5-MIN KAOH 132345Z AUTO 23010KT 10SM VCTS -RA FEW040 SCT070 BKN110 22/21 A2992 980 90 2100 240/10 RMK AO2 PK WND 25045/2319 WSHFT 2310 LTG DSNT ALQDS RAE2259B21 TSB25E40 P0011 T02220206
04850KAOH AOH20160713185018707/13/16 18:50:31  5-MIN KAOH 132350Z AUTO 24007KT 9SM -RA FEW036 FEW070 BKN110 22/21 A2991 990 93 2100 240/07 RMK AO2 PK WND 25045/2319 WSHFT 2310 LTG DSNT NW-E RAE2259B21 TSB25E40 P0012
04850KAOH AOH20160713185515007/13/16 18:55:31  5-MIN KAOH 132355Z AUTO 23006KT 9SM -RA FEW044 BKN110 22/21 A2990 1000 93 2100 240/06 RMK AO2 LTG DSNT NW-NE PRESFR P0001 T02220211
04850KAOH AOH20160713190013607/13/16 19:00:31  5-MIN KAOH 140000Z AUTO 22006KT 10SM -RA BKN110 22/21 A2990 990 93 2000 230/06 RMK AO2 LTG DSNT NW-NE P0001 T02170206
04850KAOH AOH20160713190513607/13/16 19:05:31  5-MIN KAOH 140005Z AUTO 23006KT 10SM -RA SCT110 22/21 A2991 980 93 2100 230/06 RMK AO2 LTG DSNT NW-NE P0002 T02220211
04850KAOH AOH20160713191013307/13/16 19:10:31  5-MIN KAOH 140010Z AUTO 23004KT 10SM -RA SCT100 22/21 A2991 990 97 2000 240/04 RMK AO2 LTG DSNT NE P0002 T02170211
04850KAOH AOH20160713191513307/13/16 19:15:31  5-MIN KAOH 140015Z AUTO 24005KT 10SM -RA SCT100 22/21 A2991 990 97 2000 240/05 RMK AO2 LTG DSNT NE P0002 T02170211
04850KAOH AOH20160713192013507/13/16 19:20:31  5-MIN KAOH 140020Z AUTO 26006KT 10SM FEW100 22/21 A2991 990 97 2000 260/06 RMK AO2 LTG DSNT NE RAE18 P0002 T02170211
04850KAOH AOH20160713192512307/13/16 19:25:31  5-MIN KAOH 140025Z AUTO 24004KT 10SM FEW095 22/21 A2991 990 93 2100 250/04 RMK AO2 RAE18 P0002 T02220211
04850KAOH AOH20160713193012307/13/16 19:30:31  5-MIN KAOH 140030Z AUTO 21004KT 10SM FEW095 22/21 A2991 990 93 2100 220/04 RMK AO2 RAE18 P0002 T02220211
04850KAOH AOH20160713193512307/13/16 19:35:31  5-MIN KAOH 140035Z AUTO 20006KT 10SM FEW085 22/21 A2992 980 97 2000 200/06 RMK AO2 RAE18 P0002 T02170211
04850KAOH AOH20160713194012307/13/16 19:40:31  5-MIN KAOH 140040Z AUTO 21004KT 10SM FEW085 22/21 A2991 980 97 2000 210/04 RMK AO2 RAE18 P0002 T02170211
04850KAOH AOH20160713194512307/13/16 19:45:31  5-MIN KAOH 140045Z AUTO 20005KT 10SM FEW085 22/21 A2991 980 97 2000 210/05 RMK AO2 RAE18 P0002 T02170211
04850KAOH AOH20160713195013007/13/16 19:50:31  5-MIN KAOH 140050Z AUTO 21005KT 10SM FEW090 22/21 A2991 990 97 2000 210/05 RMK AO2 RAE18 SLP121 P0002 T02170211
04850KAOH AOH20160713195511107/13/16 19:55:31  5-MIN KAOH 140055Z AUTO 21006KT 10SM FEW090 22/21 A2991 990 97 2000 210/06 RMK AO2 T02170211
04850KAOH AOH20160713200011107/13/16 20:00:31  5-MIN KAOH 140100Z AUTO 19008KT 10SM SCT095 22/21 A2991 990 97 2000 190/08 RMK AO2 T02170211
04850KAOH AOH20160713200511807/13/16 20:05:31  5-MIN KAOH 140105Z AUTO 20007KT 10SM FEW080 BKN100 22/21 A2991 990 93 2000 200/07 RMK AO2 T02170206
04850KAOH AOH20160713201011807/13/16 20:10:31  5-MIN KAOH 140110Z AUTO 18007KT 10SM FEW080 BKN100 22/21 A2991 990 93 2000 190/07 RMK AO2 T02170206
04850KAOH AOH20160713201511807/13/16 20:15:31  5-MIN KAOH 140115Z AUTO 19007KT 10SM SCT080 BKN100 22/21 A2991 990 93 2000 200/07 RMK AO2 T02170206
04850KAOH AOH20160713202011807/13/16 20:20:31  5-MIN KAOH 140120Z AUTO 20008KT 10SM SCT080 BKN100 22/21 A2992 980 93 2000 210/08 RMK AO2 T02170206
04850KAOH AOH20160713202512507/13/16 20:25:31  5-MIN KAOH 140125Z AUTO 20009KT 10SM FEW055 BKN085 BKN100 22/21 A2992 980 93 2000 210/09 RMK AO2 T02170206
04850KAOH AOH20160713203012507/13/16 20:30:31  5-MIN KAOH 140130Z AUTO 21010KT 10SM FEW050 BKN085 BKN100 22/21 A2993 970 93 2000 220/10 RMK AO2 T02170206
04850KAOH AOH20160713203513607/13/16 20:35:31  5-MIN KAOH 140135Z AUTO 20010KT 10SM SCT050 BKN080 BKN100 22/21 A2993 970 93 2000 210/10 RMK AO2 LTG DSNT S T02170206
04850KAOH AOH20160713204014307/13/16 20:40:31  5-MIN KAOH 140140Z AUTO 19010KT 10SM SCT050 BKN080 BKN100 22/21 A2993 960 93 2000 200/10 RMK AO2 LTG DSNT SE AND S T02170206
04850KAOH AOH20160713204514307/13/16 20:45:31  5-MIN KAOH 140145Z AUTO 20009KT 10SM SCT050 BKN080 BKN100 22/21 A2993 970 93 2000 200/09 RMK AO2 LTG DSNT SE AND S T02170206
04850KAOH AOH20160713205014307/13/16 20:50:31  5-MIN KAOH 140150Z AUTO 20008KT 10SM BKN050 BKN090 22/21 A2993 960 93 2000 210/08 RMK AO2 LTG DSNT SE AND S SLP129 T02170206
04850KAOH AOH20160713205512607/13/16 20:55:31  5-MIN KAOH 140155Z AUTO 20009KT 10SM BKN050 22/20 A2994 960 90 2000 200/09 RMK AO2 LTG DSNT SE-SW T02170200
04850KAOH AOH20160713210012607/13/16 21:00:31  5-MIN KAOH 140200Z AUTO 21008KT 10SM SCT050 22/20 A2994 960 90 2000 220/08 RMK AO2 LTG DSNT SE-SW T02170200
04850KAOH AOH20160713210513607/13/16 21:05:31  5-MIN KAOH 140205Z AUTO 21008KT 10SM FEW050 SCT120 22/20 A2994 960 90 2000 210/08 RMK AO2 LTG DSNT S AND SW T02170200
04850KAOH AOH20160713211015207/13/16 21:10:31  5-MIN KAOH 140210Z AUTO 20009KT 10SM -RA FEW049 SCT120 22/20 A2994 960 90 2000 210/09 RMK AO2 LTG DSNT S AND SW RAB07 P0000 T02170200
04850KAOH AOH20160713211514507/13/16 21:15:31  5-MIN KAOH 140215Z AUTO 20009KT 10SM -RA FEW049 SCT120 22/20 A2994 960 90 2000 210/09 RMK AO2 LTG DSNT W RAB07 P0000 T02170200
04850KAOH AOH20160713212014507/13/16 21:20:31  5-MIN KAOH 140220Z AUTO 21009KT 10SM -RA FEW120 22/20 A2994 960 90 2000 220/09 RMK AO2 LTG DSNT NE AND W RAB07 P0000 T02170200
04850KAOH AOH20160713212514507/13/16 21:25:31  5-MIN KAOH 140225Z AUTO 21012KT 10SM -RA FEW120 22/20 A2994 960 90 2000 220/12 RMK AO2 LTG DSNT NE AND W RAB07 P0000 T02170200
04850KAOH AOH20160713213013907/13/16 21:30:31  5-MIN KAOH 140230Z AUTO 22012KT 10SM -RA FEW120 22/20 A2994 960 90 2000 230/12 RMK AO2 LTG DSNT NE RAB07 P0000 T02170200
04850KAOH AOH20160713213513807/13/16 21:35:31  5-MIN KAOH 140235Z AUTO 22013KT 10SM RA SCT110 22/20 A2994 960 90 2000 230/13 RMK AO2 LTG DSNT NE RAB07 P0001 T02170200
04850KAOH AOH20160713214013707/13/16 21:40:31  5-MIN KAOH 140240Z AUTO 23011KT 9SM RA SCT110 22/20 A2993 960 90 2000 240/11 RMK AO2 LTG DSNT NE RAB07 P0002 T02170200
04850KAOH AOH20160713214512707/13/16 21:45:31  5-MIN KAOH 140245Z AUTO 23010KT 10SM -RA SCT110 21/20 A2994 960 93 1900 230/10 RMK AO2 RAB07 P0003 T02110200
04850KAOH AOH20160713215015207/13/16 21:50:31  5-MIN KAOH 140250Z AUTO 23015G19KT 10SM -RA FEW110 21/19 A2993 970 90 1900 230/15G19 RMK AO2 RAB07 SLP128 P0003 60005 T02110194 55000
04850KAOH AOH20160713215512707/13/16 21:55:31  5-MIN KAOH 140255Z AUTO 21013G19KT 10SM -RA FEW110 21/19 A2993 970 90 1900 220/13G19 RMK AO2 P0000 T02110194
04850KAOH AOH20160713220012107/13/16 22:00:31  5-MIN KAOH 140300Z AUTO 20012KT 10SM -RA FEW110 21/19 A2992 980 87 2000 210/12 RMK AO2 P0001 T02110189
04850KAOH AOH20160713220512107/13/16 22:05:31  5-MIN KAOH 140305Z AUTO 20010KT 10SM -RA FEW110 21/19 A2992 980 90 1900 200/10 RMK AO2 P0001 T02060189
04850KAOH AOH20160713221012107/13/16 22:10:31  5-MIN KAOH 140310Z AUTO 20011KT 10SM -RA FEW110 21/19 A2991 990 90 1900 200/11 RMK AO2 P0001 T02060189
04850KAOH AOH20160713221512907/13/16 22:15:31  5-MIN KAOH 140315Z AUTO 20012KT 10SM -RA FEW110 21/19 A2990 1000 90 1900 200/12 RMK AO2 PRESFR P0001 T02060189
04850KAOH AOH20160713222012907/13/16 22:20:31  5-MIN KAOH 140320Z AUTO 19010KT 10SM -RA FEW110 21/19 A2989 1010 90 1900 190/10 RMK AO2 PRESFR P0001 T02060189
04850KAOH AOH20160713222512907/13/16 22:25:31  5-MIN KAOH 140325Z AUTO 19010KT 10SM -RA SCT110 21/19 A2988 1020 93 1900 200/10 RMK AO2 PRESFR P0001 T02060194
04850KAOH AOH20160713223013807/13/16 22:30:31  5-MIN KAOH 140330Z AUTO 18009KT 10SM FEW100 FEW120 21/19 A2986 1030 93 2000 190/09 RMK AO2 RAE29 PRESFR P0001 T02060194
04850KAOH AOH20160713223513107/13/16 22:35:31  5-MIN KAOH 140335Z AUTO 18009KT 10SM FEW100 21/19 A2986 1040 93 2000 190/09 RMK AO2 RAE29 PRESFR P0001 T02060194
04850KAOH AOH20160713224013107/13/16 22:40:31  5-MIN KAOH 140340Z AUTO 17009KT 10SM FEW100 21/19 A2985 1040 93 2000 180/09 RMK AO2 RAE29 PRESFR P0001 T02060194
04850KAOH AOH20160713224512407/13/16 22:45:31  5-MIN KAOH 140345Z AUTO 18009KT 10SM FEW100 21/19 A2986 1040 93 2000 180/09 RMK AO2 RAE29 P0001 T02060194
04850KAOH AOH20160713225012807/13/16 22:50:31  5-MIN KAOH 140350Z AUTO 19012KT 10SM CLR 21/19 A2987 1020 93 1900 190/12 RMK AO2 RAE29 SLP106 P0001 T02060194
04850KAOH AOH20160713225511207/13/16 22:55:31  5-MIN KAOH 140355Z AUTO 19010KT 10SM FEW110 21/19 A2987 1020 90 1900 200/10 RMK AO2 T02060189
04850KAOH AOH20160713230011207/13/16 23:00:31  5-MIN KAOH 140400Z AUTO 20011KT 10SM FEW110 21/19 A2987 1020 90 1900 210/11 RMK AO2 T02060189
04850KAOH AOH20160713230511207/13/16 23:05:31  5-MIN KAOH 140405Z AUTO 19009KT 10SM FEW110 21/19 A2987 1030 90 1900 200/09 RMK AO2 T02060189
04850KAOH AOH20160713231011207/13/16 23:10:31  5-MIN KAOH 140410Z AUTO 20008KT 10SM FEW110 21/19 A2987 1020 90 1900 210/08 RMK AO2 T02060189
04850KAOH AOH20160713231511207/13/16 23:15:31  5-MIN KAOH 140415Z AUTO 26010KT 10SM FEW110 21/19 A2988 1010 90 1900 260/10 RMK AO2 T02060189
04850KAOH AOH20160713232011207/13/16 23:20:31  5-MIN KAOH 140420Z AUTO 25010KT 10SM FEW110 20/19 A2989 1010 97 1900 260/10 RMK AO2 T02000194
04850KAOH AOH20160713232510907/13/16 23:25:31  5-MIN KAOH 140425Z AUTO 24009KT 10SM CLR 20/19 A2989 1010 97 1900 250/09 RMK AO2 T02000194
04850KAOH AOH20160713233010907/13/16 23:30:31  5-MIN KAOH 140430Z AUTO 23008KT 10SM CLR 21/19 A2988 1010 93 1900 240/08 RMK AO2 T02060194
04850KAOH AOH20160713233510907/13/16 23:35:31  5-MIN KAOH 140435Z AUTO 20005KT 10SM CLR 20/19 A2987 1020 97 1900 210/05 RMK AO2 T02000194
04850KAOH AOH20160713234010907/13/16 23:40:31  5-MIN KAOH 140440Z AUTO 21007KT 10SM CLR 20/19 A2987 1020 93 1900 220/07 RMK AO2 T02000189
04850KAOH AOH20160713234510907/13/16 23:45:31  5-MIN KAOH 140445Z AUTO 21007KT 10SM CLR 20/19 A2988 1020 93 1900 220/07 RMK AO2 T02000189
04850KAOH AOH20160713235012607/13/16 23:50:31  5-MIN KAOH 140450Z AUTO 22008KT 10SM CLR 21/19 A2989 1010 90 1900 230/08 RMK AO2 SLP112 T02060189 403220200
04850KAOH AOH20160713235510907/13/16 23:55:31  5-MIN KAOH 140455Z AUTO 22009KT 10SM CLR 21/19 A2989 1010 93 1900 230/09 RMK AO2 T02060194
04850KAOH AOH20160714000010907/14/16 00:00:31  5-MIN KAOH 140500Z AUTO 22007KT 10SM CLR 21/19 A2990 1000 93 1900 230/07 RMK AO2 T02060194
04850KAOH AOH20160714000510907/14/16 00:05:31  5-MIN KAOH 140505Z AUTO 22009KT 10SM CLR 20/19 A2990 1000 97 1900 220/09 RMK AO2 T02000194
04850KAOH AOH20160714001011207/14/16 00:10:31  5-MIN KAOH 140510Z AUTO 22007KT 10SM FEW080 20/19 A2989 1000 97 1900 220/07 RMK AO2 T02000194
04850KAOH AOH20160714001511207/14/16 00:15:31  5-MIN KAOH 140515Z AUTO 21008KT 10SM SCT075 21/19 A2990 1000 93 1900 220/08 RMK AO2 T02060194
04850KAOH AOH20160714002011207/14/16 00:20:31  5-MIN KAOH 140520Z AUTO 21009KT 10SM BKN070 21/19 A2990 1000 93 1900 220/09 RMK AO2 T02060194
04850KAOH AOH20160714002511207/14/16 00:25:31  5-MIN KAOH 140525Z AUTO 22009KT 10SM BKN070 21/19 A2990 1000 93 1900 220/09 RMK AO2 T02060194
04850KAOH AOH20160714003011907/14/16 00:30:31  5-MIN KAOH 140530Z AUTO 21009KT 10SM BKN065 BKN080 21/19 A2989 1000 93 1900 220/09 RMK AO2 T02060194
04850KAOH AOH20160714003512607/14/16 00:35:31  5-MIN KAOH 140535Z AUTO 20007KT 10SM BKN065 BKN080 OVC090 21/19 A2989 1000 93 1900 200/07 RMK AO2 T02060194
04850KAOH AOH20160714004012607/14/16 00:40:31  5-MIN KAOH 140540Z AUTO 21010KT 10SM BKN065 BKN075 OVC095 21/19 A2990 1000 93 1900 210/10 RMK AO2 T02060194
04850KAOH AOH20160714004512607/14/16 00:45:31  5-MIN KAOH 140545Z AUTO 21008KT 10SM FEW018 BKN065 OVC095 21/19 A2989 1000 93 1900 220/08 RMK AO2 T02060194
04850KAOH AOH20160714005015707/14/16 00:50:31  5-MIN KAOH 140550Z AUTO 21010KT 10SM FEW018 BKN060 OVC110 21/19 A2989 1000 93 1900 220/10 RMK AO2 SLP115 60006 T02060194 10222 20200 50008
04850KAOH AOH20160714005512607/14/16 00:55:31  5-MIN KAOH 140555Z AUTO 21010KT 10SM FEW016 BKN080 OVC110 21/19 A2989 1000 93 1900 220/10 RMK AO2 T02060194
04850KAOH AOH20160714010012607/14/16 01:00:31  5-MIN KAOH 140600Z AUTO 21008KT 10SM FEW016 BKN075 OVC095 21/19 A2989 1000 93 1900 220/08 RMK AO2 T02060194
04850KAOH AOH20160714010512607/14/16 01:05:31  5-MIN KAOH 140605Z AUTO 21011KT 10SM SCT018 BKN075 OVC095 21/19 A2989 1000 93 1900 220/11 RMK AO2 T02060194
04850KAOH AOH20160714011011907/14/16 01:10:31  5-MIN KAOH 140610Z AUTO 22011KT 10SM BKN016 OVC075 21/19 A2990 1000 93 1900 220/11 RMK AO2 T02060194
04850KAOH AOH20160714011511907/14/16 01:15:31  5-MIN KAOH 140615Z AUTO 22010KT 10SM BKN014 OVC075 21/19 A2989 1000 93 1900 220/10 RMK AO2 T02060194
04850KAOH AOH20160714012012607/14/16 01:20:31  5-MIN KAOH 140620Z AUTO 22009KT 10SM BKN012 BKN018 OVC070 21/19 A2990 1000 93 1900 220/09 RMK AO2 T02060194
04850KAOH AOH20160714012511907/14/16 01:25:31  5-MIN KAOH 140625Z AUTO 22011KT 10SM BKN012 OVC070 21/19 A2990 1000 93 1900 230/11 RMK AO2 T02060194
04850KAOH AOH20160714013012507/14/16 01:30:31  5-MIN KAOH 140630Z AUTO 22009G17KT 10SM BKN012 OVC017 21/19 A2989 1000 93 1900 230/09G17 RMK AO2 T02060194
04850KAOH AOH20160714013511207/14/16 01:35:31  5-MIN KAOH 140635Z AUTO 22011KT 10SM OVC012 21/19 A2989 1010 93 1900 220/11 RMK AO2 T02060194
04850KAOH AOH20160714014013007/14/16 01:40:31  5-MIN KAOH 140640Z AUTO 22008G16KT 10SM OVC010 21/19 A2989 1010 93 1900 220/08G16 RMK AO2 CIG 008V014 T02060194
04850KAOH AOH20160714014512407/14/16 01:45:31  5-MIN KAOH 140645Z AUTO 22012KT 10SM OVC010 21/19 A2989 1010 93 1900 220/12 RMK AO2 CIG 008V012 T02060194
04850KAOH AOH20160714015011907/14/16 01:50:31  5-MIN KAOH 140650Z AUTO 22009KT 10SM OVC010 21/19 A2989 1010 93 1900 230/09 RMK AO2 SLP111 T02060194
04850KAOH AOH20160714015511207/14/16 01:55:31  5-MIN KAOH 140655Z AUTO 22010KT 10SM OVC009 21/19 A2989 1010 93 1900 230/10 RMK AO2 T02060194
04850KAOH AOH20160714020011807/14/16 02:00:31  5-MIN KAOH 140700Z AUTO 23011G19KT 10SM OVC009 21/19 A2989 1010 93 1900 240/11G19 RMK AO2 T02060194
04850KAOH AOH20160714020513007/14/16 02:05:31  5-MIN KAOH 140705Z AUTO 23009G19KT 10SM OVC009 21/20 A2989 1010 97 1900 230/09G19 RMK AO2 CIG 007V012 T02060200
04850KAOH AOH20160714021013107/14/16 02:10:31  5-MIN KAOH 140710Z AUTO 23010KT 10SM BKN009 OVC014 21/20 A2989 1010 97 1900 230/10 RMK AO2 CIG 007V013 T02060200
04850KAOH AOH20160714021511207/14/16 02:15:31  5-MIN KAOH 140715Z AUTO 24011KT 10SM OVC012 21/20 A2990 1000 97 1900 240/11 RMK AO2 T02060200
04850KAOH AOH20160714022011207/14/16 02:20:31  5-MIN KAOH 140720Z AUTO 24011KT 10SM OVC012 21/20 A2990 1000 97 1900 240/11 RMK AO2 T02060200
04850KAOH AOH20160714022513107/14/16 02:25:31  5-MIN KAOH 140725Z AUTO 23008KT 10SM BKN009 OVC014 21/20 A2989 1000 97 1900 230/08 RMK AO2 CIG 007V012 T02060200
04850KAOH AOH20160714023013107/14/16 02:30:31  5-MIN KAOH 140730Z AUTO 23011KT 10SM BKN009 OVC014 21/20 A2990 1000 97 1900 240/11 RMK AO2 CIG 007V012 T02060200
04850KAOH AOH20160714023513007/14/16 02:35:31  5-MIN KAOH 140735Z AUTO 24011KT 10SM BKN009 OVC014 21/20 A2990 990 97 1900 240/11 RMK AO2 CIG 007V012 T02060200
04850KAOH AOH20160714024013107/14/16 02:40:31  5-MIN KAOH 140740Z AUTO 23009KT 10SM BKN009 OVC014 21/20 A2990 1000 97 1900 230/09 RMK AO2 CIG 007V012 T02060200
04850KAOH AOH20160714024511107/14/16 02:45:31  5-MIN KAOH 140745Z AUTO 24009KT 10SM OVC011 21/20 A2990 990 97 1900 240/09 RMK AO2 T02060200
04850KAOH AOH20160714025013107/14/16 02:50:31  5-MIN KAOH 140750Z AUTO 23010KT 10SM OVC009 21/20 A2990 1000 97 1900 240/10 RMK AO2 CIG 007V016 SLP115 T02060200
04850KAOH AOH20160714025513107/14/16 02:55:31  5-MIN KAOH 140755Z AUTO 23011KT 10SM BKN009 OVC014 21/20 A2990 1000 97 1900 240/11 RMK AO2 CIG 008V013 T02060200
04850KAOH AOH20160714030011107/14/16 03:00:31  5-MIN KAOH 140800Z AUTO 24012KT 10SM OVC010 21/20 A2990 990 97 1900 240/12 RMK AO2 T02060200
04850KAOH AOH20160714030511907/14/16 03:05:31  5-MIN KAOH 140805Z AUTO 24010KT 10SM BKN010 OVC018 21/20 A2990 1000 97 1900 250/10 RMK AO2 T02060200
04850KAOH AOH20160714031013007/14/16 03:10:31  5-MIN KAOH 140810Z AUTO 24010KT 10SM BKN010 BKN016 21/20 A2990 990 97 1900 250/10 RMK AO2 CIG 008V012 T02060200
04850KAOH AOH20160714031511807/14/16 03:15:31  5-MIN KAOH 140815Z AUTO 24007KT 10SM BKN012 BKN018 21/20 A2990 990 97 1900 240/07 RMK AO2 T02060200
04850KAOH AOH20160714032011807/14/16 03:20:31  5-MIN KAOH 140820Z AUTO 24008KT 10SM BKN012 OVC018 21/20 A2990 990 97 1900 240/08 RMK AO2 T02060200
04850KAOH AOH20160714032511807/14/16 03:25:31  5-MIN KAOH 140825Z AUTO 23009KT 10SM BKN013 OVC020 21/20 A2990 990 97 1900 240/09 RMK AO2 T02060200
04850KAOH AOH20160714033012507/14/16 03:30:31  5-MIN KAOH 140830Z AUTO 23009KT 10SM BKN013 BKN019 OVC024 21/20 A2990 990 97 1900 240/09 RMK AO2 T02060200
04850KAOH AOH20160714033512507/14/16 03:35:31  5-MIN KAOH 140835Z AUTO 24010KT 10SM BKN013 BKN019 OVC024 21/20 A2990 990 97 1900 240/10 RMK AO2 T02060200
04850KAOH AOH20160714034011807/14/16 03:40:31  5-MIN KAOH 140840Z AUTO 24010KT 10SM BKN016 OVC021 21/20 A2990 990 97 1900 240/10 RMK AO2 T02060200
04850KAOH AOH20160714034511107/14/16 03:45:31  5-MIN KAOH 140845Z AUTO 23012KT 10SM OVC016 21/20 A2990 990 93 2000 240/12 RMK AO2 T02110200
04850KAOH AOH20160714035012407/14/16 03:50:31  5-MIN KAOH 140850Z AUTO 24012KT 10SM OVC016 21/19 A2991 990 90 2000 240/12 RMK AO2 SLP117 T02110194 55012
04850KAOH AOH20160714035511107/14/16 03:55:31  5-MIN KAOH 140855Z AUTO 25010KT 10SM OVC016 21/19 A2991 990 90 2000 250/10 RMK AO2 T02110194
04850KAOH AOH20160714040011807/14/16 04:00:31  5-MIN KAOH 140900Z AUTO 25009KT 10SM BKN016 OVC021 21/20 A2991 990 93 2000 250/09 RMK AO2 T02110200
04850KAOH AOH20160714040511107/14/16 04:05:31  5-MIN KAOH 140905Z AUTO 24011KT 10SM OVC016 21/20 A2991 990 93 2000 250/11 RMK AO2 T02110200
04850KAOH AOH20160714041011107/14/16 04:10:31  5-MIN KAOH 140910Z AUTO 25011KT 10SM OVC015 21/20 A2991 990 93 2000 260/11 RMK AO2 T02110200
04850KAOH AOH20160714041511107/14/16 04:15:31  5-MIN KAOH 140915Z AUTO 25013KT 10SM OVC015 21/19 A2990 990 90 2000 250/13 RMK AO2 T02110194
04850KAOH AOH20160714042011107/14/16 04:20:31  5-MIN KAOH 140920Z AUTO 25013KT 10SM OVC015 21/19 A2990 990 90 2000 250/13 RMK AO2 T02110194
04850KAOH AOH20160714042511207/14/16 04:25:31  5-MIN KAOH 140925Z AUTO 25012KT 10SM OVC015 21/19 A2990 1000 90 2000 250/12 RMK AO2 T02110194
04850KAOH AOH20160714043011907/14/16 04:30:31  5-MIN KAOH 140930Z AUTO 25010KT 10SM BKN015 OVC019 21/19 A2990 1000 90 2000 260/10 RMK AO2 T02110194
04850KAOH AOH20160714043511207/14/16 04:35:31  5-MIN KAOH 140935Z AUTO 25012KT 10SM OVC015 21/19 A2990 1000 90 2000 260/12 RMK AO2 T02110194
04850KAOH AOH20160714044011207/14/16 04:40:31  5-MIN KAOH 140940Z AUTO 25010KT 10SM OVC015 21/19 A2990 1000 93 1900 250/10 RMK AO2 T02060194
04850KAOH AOH20160714044511207/14/16 04:45:31  5-MIN KAOH 140945Z AUTO 25012KT 10SM OVC015 21/19 A2990 1000 93 1900 260/12 RMK AO2 T02060194
04850KAOH AOH20160714045011907/14/16 04:50:31  5-MIN KAOH 140950Z AUTO 25009KT 10SM OVC015 21/19 A2990 1000 93 1900 250/09 RMK AO2 SLP115 T02060194
04850KAOH AOH20160714045511207/14/16 04:55:31  5-MIN KAOH 140955Z AUTO 25008KT 10SM OVC013 21/19 A2990 1000 93 1900 250/08 RMK AO2 T02060194
04850KAOH AOH20160714050011207/14/16 05:00:31  5-MIN KAOH 141000Z AUTO 24009KT 10SM OVC013 21/19 A2990 1000 93 1900 240/09 RMK AO2 T02060194
04850KAOH AOH20160714050511207/14/16 05:05:31  5-MIN KAOH 141005Z AUTO 24008KT 10SM OVC012 21/19 A2990 1000 93 1900 250/08 RMK AO2 T02060194
04850KAOH AOH20160714051011207/14/16 05:10:31  5-MIN KAOH 141010Z AUTO 24007KT 10SM BKN012 21/19 A2990 1000 93 1900 240/07 RMK AO2 T02060194
04850KAOH AOH20160714051511207/14/16 05:15:31  5-MIN KAOH 141015Z AUTO 23007KT 10SM BKN012 21/19 A2989 1000 93 1900 240/07 RMK AO2 T02060194
04850KAOH AOH20160714052011207/14/16 05:20:31  5-MIN KAOH 141020Z AUTO 24007KT 10SM SCT012 20/19 A2990 1000 97 1900 250/07 RMK AO2 T02000194
04850KAOH AOH20160714052511207/14/16 05:25:31  5-MIN KAOH 141025Z AUTO 24007KT 10SM SCT012 20/19 A2990 1000 97 1900 250/07 RMK AO2 T02000194
04850KAOH AOH20160715023010807/15/16 02:30:31  5-MIN KAOH 150730Z AUTO 24008KT 10SM CLR 22/19 A2994 960 87 2000 250/08 RMK AO2 T02170194
04850KAOH AOH20160715023510807/15/16 02:35:31  5-MIN KAOH 150735Z AUTO 25008KT 10SM CLR 22/19 A2994 960 87 2000 250/08 RMK AO2 T02170194
04850KAOH AOH20160715024011107/15/16 02:40:31  5-MIN KAOH 150740Z AUTO 25008KT 10SM FEW060 21/19 A2994 960 90 1900 260/08 RMK AO2 T02110194
04850KAOH AOH20160715024511107/15/16 02:45:31  5-MIN KAOH 150745Z AUTO 24008KT 10SM FEW065 21/19 A2993 970 90 1900 250/08 RMK AO2 T02110194
04850KAOH AOH20160715025011807/15/16 02:50:31  5-MIN KAOH 150750Z AUTO 24006KT 10SM FEW065 21/19 A2993 970 90 1900 240/06 RMK AO2 SLP128 T02110194
04850KAOH AOH20160715025511107/15/16 02:55:31  5-MIN KAOH 150755Z AUTO 25007KT 10SM FEW065 21/19 A2993 970 90 1900 250/07 RMK AO2 T02110194
04850KAOH AOH20160715030011107/15/16 03:00:31  5-MIN KAOH 150800Z AUTO 24007KT 10SM FEW065 21/19 A2993 960 87 1900 250/07 RMK AO2 T02110189
04850KAOH AOH20160715030511107/15/16 03:05:31  5-MIN KAOH 150805Z AUTO 24007KT 10SM FEW065 21/19 A2994 960 87 1900 250/07 RMK AO2 T02110189
04850KAOH AOH20160715031011107/15/16 03:10:31  5-MIN KAOH 150810Z AUTO 24007KT 10SM SCT065 21/19 A2993 970 87 1900 240/07 RMK AO2 T02110189
04850KAOH AOH20160715031511107/15/16 03:15:31  5-MIN KAOH 150815Z AUTO 23006KT 10SM SCT060 22/19 A2993 970 84 2000 240/06 RMK AO2 T02170189
04850KAOH AOH20160715032011107/15/16 03:20:31  5-MIN KAOH 150820Z AUTO 23007KT 10SM FEW060 22/19 A2993 970 84 2000 240/07 RMK AO2 T02170189
04850KAOH AOH20160715032511807/15/16 03:25:31  5-MIN KAOH 150825Z AUTO 24007KT 10SM FEW060 FEW075 22/19 A2993 970 84 2000 240/07 RMK AO2 T02170189
04850KAOH AOH20160715033011807/15/16 03:30:31  5-MIN KAOH 150830Z AUTO 24006KT 10SM FEW055 SCT075 21/19 A2993 960 87 1900 250/06 RMK AO2 T02110189
04850KAOH AOH20160715033511807/15/16 03:35:31  5-MIN KAOH 150835Z AUTO 25006KT 10SM SCT055 SCT070 21/19 A2993 960 87 1900 260/06 RMK AO2 T02110189
04850KAOH AOH20160715034011807/15/16 03:40:31  5-MIN KAOH 150840Z AUTO 25005KT 10SM SCT055 SCT070 21/19 A2994 960 87 1900 250/05 RMK AO2 T02110189
04850KAOH AOH20160715034511807/15/16 03:45:31  5-MIN KAOH 150845Z AUTO 24006KT 10SM SCT055 SCT070 21/19 A2994 960 87 1900 250/06 RMK AO2 T02110189
04850KAOH AOH20160715035013107/15/16 03:50:31  5-MIN KAOH 150850Z AUTO 25006KT 10SM FEW050 SCT070 21/19 A2994 960 87 1900 250/06 RMK AO2 SLP130 T02110189 53003
04850KAOH AOH20160715035511107/15/16 03:55:31  5-MIN KAOH 150855Z AUTO 25006KT 10SM FEW050 21/19 A2994 960 90 1900 250/06 RMK AO2 T02060189
04850KAOH AOH20160715040011107/15/16 04:00:31  5-MIN KAOH 150900Z AUTO 25007KT 10SM FEW055 21/19 A2994 960 90 1900 250/07 RMK AO2 T02060189
04850KAOH AOH20160715040511107/15/16 04:05:31  5-MIN KAOH 150905Z AUTO 24007KT 10SM FEW050 21/19 A2994 960 90 1900 250/07 RMK AO2 T02060189
04850KAOH AOH20160715041010807/15/16 04:10:31  5-MIN KAOH 150910Z AUTO 24006KT 10SM CLR 21/19 A2994 960 90 1900 250/06 RMK AO2 T02060189
04850KAOH AOH20160715041510807/15/16 04:15:31  5-MIN KAOH 150915Z AUTO 24007KT 10SM CLR 21/19 A2995 950 90 1900 250/07 RMK AO2 T02060189
04850KAOH AOH20160715042010807/15/16 04:20:31  5-MIN KAOH 150920Z AUTO 24007KT 10SM CLR 21/19 A2995 950 90 1900 250/07 RMK AO2 T02060189
04850KAOH AOH20160715042510807/15/16 04:25:31  5-MIN KAOH 150925Z AUTO 24006KT 10SM CLR 21/19 A2995 950 90 1900 250/06 RMK AO2 T02060189
04850KAOH AOH20160715043010807/15/16 04:30:31  5-MIN KAOH 150930Z AUTO 24007KT 10SM CLR 21/19 A2995 950 90 1900 250/07 RMK AO2 T02060189
04850KAOH AOH20160715043510807/15/16 04:35:31  5-MIN KAOH 150935Z AUTO 25008KT 10SM CLR 21/19 A2995 950 90 1900 250/08 RMK AO2 T02060189
04850KAOH AOH20160715044010807/15/16 04:40:31  5-MIN KAOH 150940Z AUTO 25007KT 10SM CLR 21/19 A2995 950 90 1900 250/07 RMK AO2 T02060189
04850KAOH AOH20160715044510807/15/16 04:45:31  5-MIN KAOH 150945Z AUTO 25007KT 10SM CLR 21/18 A2995 950 87 1900 260/07 RMK AO2 T02060183
04850KAOH AOH20160715045011507/15/16 04:50:31  5-MIN KAOH 150950Z AUTO 25007KT 10SM CLR 20/18 A2995 950 90 1800 260/07 RMK AO2 SLP135 T02000183
04850KAOH AOH20160715045510807/15/16 04:55:31  5-MIN KAOH 150955Z AUTO 25007KT 10SM CLR 20/18 A2995 950 90 1800 260/07 RMK AO2 T02000183
04850KAOH AOH20160715050010807/15/16 05:00:31  5-MIN KAOH 151000Z AUTO 25007KT 10SM CLR 20/18 A2995 950 90 1800 260/07 RMK AO2 T02000183
04850KAOH AOH20160715050510807/15/16 05:05:31  5-MIN KAOH 151005Z AUTO 25007KT 10SM CLR 20/18 A2996 940 90 1800 260/07 RMK AO2 T02000183
04850KAOH AOH20160715051010807/15/16 05:10:31  5-MIN KAOH 151010Z AUTO 25006KT 10SM CLR 20/18 A2996 940 90 1800 260/06 RMK AO2 T02000183
04850KAOH AOH20160715051510807/15/16 05:15:31  5-MIN KAOH 151015Z AUTO 25007KT 10SM CLR 20/18 A2996 940 90 1800 260/07 RMK AO2 T02000183
04850KAOH AOH20160715052010807/15/16 05:20:31  5-MIN KAOH 151020Z AUTO 25007KT 10SM CLR 20/18 A2996 940 90 1800 260/07 RMK AO2 T02000183
04850KAOH AOH20160715052510807/15/16 05:25:31  5-MIN KAOH 151025Z AUTO 25007KT 10SM CLR 20/18 A2996 940 90 1800 260/07 RMK AO2 T02000183
04850KAOH AOH20160715053010807/15/16 05:30:31  5-MIN KAOH 151030Z AUTO 25007KT 10SM CLR 20/18 A2996 940 90 1800 260/07 RMK AO2 T02000183
04850KAOH AOH20160715053510807/15/16 05:35:31  5-MIN KAOH 151035Z AUTO 25007KT 10SM CLR 20/18 A2996 940 90 1800 260/07 RMK AO2 T02000183
04850KAOH AOH20160715054010807/15/16 05:40:31  5-MIN KAOH 151040Z AUTO 26007KT 10SM CLR 20/18 A2997 940 90 1800 260/07 RMK AO2 T02000183
04850KAOH AOH20160715054510807/15/16 05:45:31  5-MIN KAOH 151045Z AUTO 26007KT 10SM CLR 20/18 A2997 930 90 1800 260/07 RMK AO2 T02000183
04850KAOH AOH20160715055011507/15/16 05:50:31  5-MIN KAOH 151050Z AUTO 26006KT 10SM CLR 20/18 A2997 930 90 1800 260/06 RMK AO2 SLP140 T02000183
04850KAOH AOH20160715055510807/15/16 05:55:31  5-MIN KAOH 151055Z AUTO 26006KT 10SM CLR 20/19 A2997 930 93 1800 270/06 RMK AO2 T02000189
04850KAOH AOH20160715060011107/15/16 06:00:31  5-MIN KAOH 151100Z AUTO 26005KT 10SM FEW060 20/19 A2997 940 93 1800 270/05 RMK AO2 T02000189
04850KAOH AOH20160715060511107/15/16 06:05:31  5-MIN KAOH 151105Z AUTO 25005KT 10SM FEW060 20/19 A2997 940 93 1800 260/05 RMK AO2 T02000189
04850KAOH AOH20160715061011107/15/16 06:10:31  5-MIN KAOH 151110Z AUTO 25005KT 10SM FEW060 21/19 A2997 930 90 1800 250/05 RMK AO2 T02060189
04850KAOH AOH20160715061510807/15/16 06:15:31  5-MIN KAOH 151115Z AUTO 24006KT 10SM CLR 21/19 A2997 930 90 1800 250/06 RMK AO2 T02060189
04850KAOH AOH20160715062010807/15/16 06:20:31  5-MIN KAOH 151120Z AUTO 24006KT 10SM CLR 21/18 A2997 930 84 1900 240/06 RMK AO2 T02110183
04850KAOH AOH20160715062510807/15/16 06:25:31  5-MIN KAOH 151125Z AUTO 24006KT 10SM CLR 21/18 A2997 930 84 1900 250/06 RMK AO2 T02110183
04850KAOH AOH20160715063010807/15/16 06:30:31  5-MIN KAOH 151130Z AUTO 25007KT 10SM CLR 21/18 A2997 930 84 1900 250/07 RMK AO2 T02110183
04850KAOH AOH20160715063510807/15/16 06:35:31  5-MIN KAOH 151135Z AUTO 25007KT 10SM CLR 21/18 A2997 930 84 1900 260/07 RMK AO2 T02110183
04850KAOH AOH20160715064010807/15/16 06:40:31  5-MIN KAOH 151140Z AUTO 25007KT 10SM CLR 21/18 A2997 930 84 1900 260/07 RMK AO2 T02110183
04850KAOH AOH20160715064510807/15/16 06:45:31  5-MIN KAOH 151145Z AUTO 26006KT 10SM CLR 22/19 A2997 930 84 2000 270/06 RMK AO2 T02170189
04850KAOH AOH20160715065013307/15/16 06:50:31  5-MIN KAOH 151150Z AUTO 26007KT 10SM CLR 22/19 A2997 930 84 2000 270/07 RMK AO2 SLP141 T02170189 10217 20200 53001
04850KAOH AOH20160715065510807/15/16 06:55:31  5-MIN KAOH 151155Z AUTO 27006KT 10SM CLR 22/19 A2997 930 84 2000 270/06 RMK AO2 T02170189
04850KAOH AOH20160715070010807/15/16 07:00:31  5-MIN KAOH 151200Z AUTO 27006KT 10SM CLR 22/19 A2997 930 84 2000 280/06 RMK AO2 T02170189
04850KAOH AOH20160715070510807/15/16 07:05:31  5-MIN KAOH 151205Z AUTO 27007KT 10SM CLR 22/19 A2998 930 84 2000 270/07 RMK AO2 T02170189
04850KAOH AOH20160715071010807/15/16 07:10:31  5-MIN KAOH 151210Z AUTO 27007KT 10SM CLR 22/19 A2998 930 81 2000 270/07 RMK AO2 T02220189
04850KAOH AOH20160715071510807/15/16 07:15:31  5-MIN KAOH 151215Z AUTO 27008KT 10SM CLR 22/19 A2998 930 81 2000 270/08 RMK AO2 T02220189
04850KAOH AOH20160715072010807/15/16 07:20:31  5-MIN KAOH 151220Z AUTO 27008KT 10SM CLR 22/18 A2998 920 78 2000 280/08 RMK AO2 T02220183
04850KAOH AOH20160715072510807/15/16 07:25:31  5-MIN KAOH 151225Z AUTO 27006KT 10SM CLR 23/19 A2998 920 78 2100 270/06 RMK AO2 T02280189
04850KAOH AOH20160715073010807/15/16 07:30:31  5-MIN KAOH 151230Z AUTO 25008KT 10SM CLR 23/19 A2998 920 78 2100 260/08 RMK AO2 T02280189
04850KAOH AOH20160715073510807/15/16 07:35:31  5-MIN KAOH 151235Z AUTO 25007KT 10SM CLR 23/19 A2998 920 78 2100 260/07 RMK AO2 T02280189
04850KAOH AOH20160715074011107/15/16 07:40:31  5-MIN KAOH 151240Z AUTO 26008KT 10SM FEW065 23/19 A2999 920 78 2100 260/08 RMK AO2 T02280189
04850KAOH AOH20160715074511107/15/16 07:45:31  5-MIN KAOH 151245Z AUTO 26007KT 10SM FEW065 23/19 A2999 910 78 2100 270/07 RMK AO2 T02280189
04850KAOH AOH20160715075011807/15/16 07:50:31  5-MIN KAOH 151250Z AUTO 26008KT 10SM FEW070 23/19 A2999 910 76 2100 270/08 RMK AO2 SLP147 T02330189
04850KAOH AOH20160715075511107/15/16 07:55:31  5-MIN KAOH 151255Z AUTO 27010KT 10SM FEW070 23/19 A2999 910 78 2100 270/10 RMK AO2 T02280189
04850KAOH AOH20160715080011107/15/16 08:00:31  5-MIN KAOH 151300Z AUTO 27009KT 10SM SCT070 23/18 A2999 910 73 2100 270/09 RMK AO2 T02330183
04850KAOH AOH20160715080511107/15/16 08:05:31  5-MIN KAOH 151305Z AUTO 27008KT 10SM SCT070 23/19 A2999 910 76 2100 270/08 RMK AO2 T02330189
04850KAOH AOH20160715081011107/15/16 08:10:31  5-MIN KAOH 151310Z AUTO 27007KT 10SM SCT070 23/18 A2999 910 73 2100 270/07 RMK AO2 T02330183
04850KAOH AOH20160715081511807/15/16 08:15:31  5-MIN KAOH 151315Z AUTO 26008KT 10SM FEW065 FEW075 23/19 A3000 910 76 2100 270/08 RMK AO2 T02330189
04850KAOH AOH20160715082011107/15/16 08:20:31  5-MIN KAOH 151320Z AUTO 26009KT 10SM FEW065 24/19 A3000 910 73 2200 270/09 RMK AO2 T02390189
04850KAOH AOH20160715082511107/15/16 08:25:31  5-MIN KAOH 151325Z AUTO 27009KT 10SM FEW060 23/18 A3000 900 73 2100 270/09 RMK AO2 T02330183
04850KAOH AOH20160715083011107/15/16 08:30:31  5-MIN KAOH 151330Z AUTO 28006KT 10SM SCT060 24/18 A3000 900 71 2200 280/06 RMK AO2 T02390183
04850KAOH AOH20160715083511807/15/16 08:35:31  5-MIN KAOH 151335Z AUTO 27008KT 10SM SCT060 SCT075 24/18 A3000 900 71 2200 280/08 RMK AO2 T02390183
04850KAOH AOH20160715084011807/15/16 08:40:31  5-MIN KAOH 151340Z AUTO 26010KT 10SM SCT060 SCT075 24/18 A3000 900 71 2200 270/10 RMK AO2 T02390183
04850KAOH AOH20160715084511107/15/16 08:45:31  5-MIN KAOH 151345Z AUTO 24007KT 10SM SCT065 24/18 A3000 900 68 2200 250/07 RMK AO2 T02390178
04850KAOH AOH20160715085012507/15/16 08:50:31  5-MIN KAOH 151350Z AUTO 26008KT 10SM SCT065 BKN080 24/18 A3000 900 68 2200 260/08 RMK AO2 SLP151 T02440183
04850KAOH AOH20160715085511807/15/16 08:55:31  5-MIN KAOH 151355Z AUTO 26007KT 10SM BKN065 BKN075 24/18 A3000 910 68 2200 270/07 RMK AO2 T02390178
04850KAOH AOH20160715090011107/15/16 09:00:31  5-MIN KAOH 151400Z AUTO 27007KT 10SM BKN070 24/18 A3000 910 68 2200 280/07 RMK AO2 T02390178
04850KAOH AOH20160715090511107/15/16 09:05:31  5-MIN KAOH 151405Z AUTO 26008KT 10SM BKN070 24/18 A3000 910 66 2200 270/08 RMK AO2 T02440178
04850KAOH AOH20160715091011107/15/16 09:10:31  5-MIN KAOH 151410Z AUTO 26007KT 10SM BKN070 24/18 A2999 910 66 2200 270/07 RMK AO2 T02440178
04850KAOH AOH20160715091511107/15/16 09:15:31  5-MIN KAOH 151415Z AUTO 26008KT 10SM SCT070 24/18 A3000 910 66 2200 270/08 RMK AO2 T02440178
04850KAOH AOH20160715092011107/15/16 09:20:31  5-MIN KAOH 151420Z AUTO 26008KT 10SM SCT070 24/18 A3000 900 66 2200 270/08 RMK AO2 T02440178
04850KAOH AOH20160715092511107/15/16 09:25:31  5-MIN KAOH 151425Z AUTO 25010KT 10SM FEW070 24/18 A3000 900 68 2200 260/10 RMK AO2 T02440183
04850KAOH AOH20160715093011107/15/16 09:30:31  5-MIN KAOH 151430Z AUTO 27010KT 10SM FEW070 24/18 A3000 900 66 2200 280/10 RMK AO2 T02440178
04850KAOH AOH20160715093510807/15/16 09:35:31  5-MIN KAOH 151435Z AUTO 25009KT 10SM CLR 24/18 A3000 900 66 2200 260/09 RMK AO2 T02440178
04850KAOH AOH20160715094010807/15/16 09:40:31  5-MIN KAOH 151440Z AUTO 24010KT 10SM CLR 25/18 A3000 900 64 2300 250/10 RMK AO2 T02500178
04850KAOH AOH20160715094510807/15/16 09:45:31  5-MIN KAOH 151445Z AUTO 26009KT 10SM CLR 25/18 A3000 910 64 2300 260/09 RMK AO2 T02500178
04850KAOH AOH20160715095012107/15/16 09:50:31  5-MIN KAOH 151450Z AUTO 28011KT 10SM CLR 26/18 A3000 910 61 2400 280/11 RMK AO2 SLP150 T02560178 51010
04850KAOH AOH20160715095510807/15/16 09:55:31  5-MIN KAOH 151455Z AUTO 29014KT 10SM CLR 25/17 A3000 910 59 2300 300/14 RMK AO2 T02500167
04850KAOH AOH20160715100010807/15/16 10:00:31  5-MIN KAOH 151500Z AUTO 29013KT 10SM CLR 25/17 A3000 910 59 2300 290/13 RMK AO2 T02500167
04850KAOH AOH20160715100511107/15/16 10:05:31  5-MIN KAOH 151505Z AUTO 27012KT 10SM FEW045 26/16 A3000 910 55 2400 270/12 RMK AO2 T02560161
04850KAOH AOH20160715101012407/15/16 10:10:31  5-MIN KAOH 151510Z AUTO 31008G18KT 10SM FEW045 FEW070 26/17 A3000 910 57 2400 320/08G18 RMK AO2 T02560167
04850KAOH AOH20160715101511707/15/16 10:15:31  5-MIN KAOH 151515Z AUTO 29015G21KT 10SM FEW065 26/17 A3000 900 57 2400 290/15G21 RMK AO2 T02560167
04850KAOH AOH20160715102012407/15/16 10:20:31  5-MIN KAOH 151520Z AUTO 29014G21KT 10SM FEW047 FEW070 26/16 A3000 910 55 2400 300/14G21 RMK AO2 T02560161
04850KAOH AOH20160715102512407/15/16 10:25:31  5-MIN KAOH 151525Z AUTO 29011G20KT 10SM FEW047 FEW070 26/16 A3000 900 55 2400 300/11G20 RMK AO2 T02560161
04850KAOH AOH20160715103012407/15/16 10:30:31  5-MIN KAOH 151530Z AUTO 31010G19KT 10SM FEW047 FEW070 26/17 A3000 900 57 2400 310/10G19 RMK AO2 T02560167
04850KAOH AOH20160715103511107/15/16 10:35:31  5-MIN KAOH 151535Z AUTO 30010KT 10SM FEW070 26/17 A3000 910 57 2400 310/10 RMK AO2 T02560167
04850KAOH AOH20160715104012407/15/16 10:40:31  5-MIN KAOH 151540Z AUTO 29014G22KT 10SM FEW049 FEW070 26/16 A3000 900 53 2400 290/14G22 RMK AO2 T02560156
04850KAOH AOH20160715104512407/15/16 10:45:31  5-MIN KAOH 151545Z AUTO 28014G22KT 10SM FEW049 FEW070 26/16 A3000 900 53 2400 290/14G22 RMK AO2 T02560156
04850KAOH AOH20160715105011807/15/16 10:50:31  5-MIN KAOH 151550Z AUTO 29011KT 10SM FEW070 26/16 A3000 910 53 2400 300/11 RMK AO2 SLP150 T02610161
04850KAOH AOH20160715105511107/15/16 10:55:31  5-MIN KAOH 151555Z AUTO 29014KT 10SM SCT070 26/16 A3000 910 55 2400 300/14 RMK AO2 T02560161
04850KAOH AOH20160715110011707/15/16 11:00:31  5-MIN KAOH 151600Z AUTO 30011G19KT 10SM SCT070 26/17 A3000 900 55 2400 300/11G19 RMK AO2 T02610167
04850KAOH AOH20160715110511107/15/16 11:05:31  5-MIN KAOH 151605Z AUTO 28010KT 10SM SCT070 26/16 A3000 910 55 2400 280/10 RMK AO2 T02560161
04850KAOH AOH20160715111011707/15/16 11:10:31  5-MIN KAOH 151610Z AUTO 29016G21KT 10SM SCT070 26/16 A3000 910 53 2400 300/16G21 RMK AO2 T02610161
04850KAOH AOH20160715111511707/15/16 11:15:31  5-MIN KAOH 151615Z AUTO 29009G21KT 10SM SCT070 26/16 A3000 910 53 2400 300/09G21 RMK AO2 T02560156
04850KAOH AOH20160715112011107/15/16 11:20:31  5-MIN KAOH 151620Z AUTO 29010KT 10SM SCT070 26/16 A2999 910 53 2400 300/10 RMK AO2 T02610161
04850KAOH AOH20160715112511107/15/16 11:25:31  5-MIN KAOH 151625Z AUTO 29010KT 10SM SCT070 27/17 A2999 910 53 2500 290/10 RMK AO2 T02670167
04850KAOH AOH20160715113011707/15/16 11:30:31  5-MIN KAOH 151630Z AUTO 26014G17KT 10SM FEW065 27/17 A3000 910 53 2500 270/14G17 RMK AO2 T02670167
04850KAOH AOH20160715113511707/15/16 11:35:31  5-MIN KAOH 151635Z AUTO 29014G19KT 10SM FEW070 27/17 A2999 910 53 2500 290/14G19 RMK AO2 T02670167
04850KAOH AOH20160715114011707/15/16 11:40:31  5-MIN KAOH 151640Z AUTO 28013G20KT 10SM FEW070 27/16 A3000 910 52 2500 290/13G20 RMK AO2 T02670161
04850KAOH AOH20160715114511707/15/16 11:45:31  5-MIN KAOH 151645Z AUTO 28013G20KT 10SM FEW065 27/16 A2999 910 52 2500 280/13G20 RMK AO2 T02670161
04850KAOH AOH20160715115012107/15/16 11:50:31  5-MIN KAOH 151650Z AUTO 28013G18KT 10SM CLR 27/17 A3000 910 54 2600 280/13G18 RMK AO2 SLP149 T02720172
04850KAOH AOH20160715115511407/15/16 11:55:31  5-MIN KAOH 151655Z AUTO 27014G18KT 10SM CLR 27/16 A2999 910 52 2500 280/14G18 RMK AO2 T02670161
04850KAOH AOH20160715120010807/15/16 12:00:31  5-MIN KAOH 151700Z AUTO 27013KT 10SM CLR 27/16 A2999 910 52 2500 280/13 RMK AO2 T02670161
04850KAOH AOH20160715120510807/15/16 12:05:31  5-MIN KAOH 151705Z AUTO 29010KT 10SM CLR 27/16 A2999 910 50 2600 290/10 RMK AO2 T02720161
04850KAOH AOH20160715121011707/15/16 12:10:31  5-MIN KAOH 151710Z AUTO 29012G17KT 10SM FEW050 27/17 A2999 910 52 2600 300/12G17 RMK AO2 T02720167
04850KAOH AOH20160715121511707/15/16 12:15:31  5-MIN KAOH 151715Z AUTO 27012G17KT 10SM FEW050 27/16 A2999 910 52 2500 280/12G17 RMK AO2 T02670161
04850KAOH AOH20160715122011107/15/16 12:20:31  5-MIN KAOH 151720Z AUTO 25009KT 10SM FEW050 27/16 A2999 920 50 2600 260/09 RMK AO2 T02720161
04850KAOH AOH20160715122511707/15/16 12:25:31  5-MIN KAOH 151725Z AUTO 28010G19KT 10SM FEW050 27/17 A2999 920 52 2600 290/10G19 RMK AO2 T02720167
04850KAOH AOH20160715123011707/15/16 12:30:31  5-MIN KAOH 151730Z AUTO 30010G19KT 10SM FEW050 27/16 A2998 920 52 2500 300/10G19 RMK AO2 T02670161
04850KAOH AOH20160715123511707/15/16 12:35:31  5-MIN KAOH 151735Z AUTO 27013G18KT 10SM FEW050 27/16 A2998 920 50 2600 270/13G18 RMK AO2 T02720161
04850KAOH AOH20160715124011707/15/16 12:40:31  5-MIN KAOH 151740Z AUTO 28011G18KT 10SM FEW055 28/17 A2998 920 50 2600 280/11G18 RMK AO2 T02780167
04850KAOH AOH20160715124511707/15/16 12:45:31  5-MIN KAOH 151745Z AUTO 29009G18KT 10SM FEW055 28/17 A2998 920 50 2600 300/09G18 RMK AO2 T02780167
04850KAOH AOH20160715125013607/15/16 12:50:31  5-MIN KAOH 151750Z AUTO 29011KT 10SM FEW055 27/17 A2998 920 52 2600 300/11 RMK AO2 SLP144 T02720167 10278 20217 50009
04850KAOH AOH20160715125511107/15/16 12:55:31  5-MIN KAOH 151755Z AUTO 28008KT 10SM FEW055 28/16 A2998 920 48 2600 280/08 RMK AO2 T02780161
04850KAOH AOH20160715130011707/15/16 13:00:31  5-MIN KAOH 151800Z AUTO 28012G17KT 10SM FEW055 28/16 A2998 920 48 2600 290/12G17 RMK AO2 T02780161
04850KAOH AOH20160715130511707/15/16 13:05:31  5-MIN KAOH 151805Z AUTO 27013G19KT 10SM FEW055 28/16 A2998 920 48 2600 280/13G19 RMK AO2 T02780161
04850KAOH AOH20160715131011107/15/16 13:10:31  5-MIN KAOH 151810Z AUTO 25009KT 10SM FEW060 28/16 A2998 920 48 2600 250/09 RMK AO2 T02780161
04850KAOH AOH20160715131511107/15/16 13:15:31  5-MIN KAOH 151815Z AUTO 28010KT 10SM FEW060 28/17 A2998 920 50 2600 280/10 RMK AO2 T02780167
04850KAOH AOH20160715132011107/15/16 13:20:31  5-MIN KAOH 151820Z AUTO 27016KT 10SM FEW055 28/16 A2998 920 48 2600 280/16 RMK AO2 T02780161
04850KAOH AOH20160715132511107/15/16 13:25:31  5-MIN KAOH 151825Z AUTO 26008KT 10SM SCT060 28/16 A2998 920 48 2600 270/08 RMK AO2 T02780161
04850KAOH AOH20160715133012707/15/16 13:30:31  5-MIN KAOH 151830Z AUTO 26011KT 230V300 10SM SCT060 28/17 A2999 920 50 2600 270/11 240V310 RMK AO2 T02780167
04850KAOH AOH20160715133511107/15/16 13:35:31  5-MIN KAOH 151835Z AUTO 29015KT 10SM SCT060 27/17 A2999 920 52 2600 300/15 RMK AO2 T02720167
04850KAOH AOH20160715134011707/15/16 13:40:31  5-MIN KAOH 151840Z AUTO 30010G18KT 10SM SCT060 28/17 A2999 910 50 2700 310/10G18 RMK AO2 T02830172
04850KAOH AOH20160715134511707/15/16 13:45:31  5-MIN KAOH 151845Z AUTO 28016G21KT 10SM BKN060 28/17 A2999 910 48 2700 290/16G21 RMK AO2 T02830167
04850KAOH AOH20160715135012407/15/16 13:50:31  5-MIN KAOH 151850Z AUTO 28010G21KT 10SM BKN060 28/17 A2999 910 50 2600 290/10G21 RMK AO2 SLP148 T02780167
04850KAOH AOH20160715135512407/15/16 13:55:31  5-MIN KAOH 151855Z AUTO 27013G16KT 10SM SCT060 SCT075 28/16 A2999 910 48 2600 270/13G16 RMK AO2 T02780161
04850KAOH AOH20160715140012407/15/16 14:00:31  5-MIN KAOH 151900Z AUTO 27013G20KT 10SM SCT060 SCT075 27/16 A2999 920 50 2600 270/13G20 RMK AO2 T02720161
04850KAOH AOH20160715140512407/15/16 14:05:31  5-MIN KAOH 151905Z AUTO 29012G20KT 10SM SCT060 SCT075 28/17 A2999 920 50 2600 290/12G20 RMK AO2 T02780167
04850KAOH AOH20160715141011107/15/16 14:10:31  5-MIN KAOH 151910Z AUTO 30011KT 10SM FEW060 28/17 A2998 920 50 2600 300/11 RMK AO2 T02780167
04850KAOH AOH20160715141511807/15/16 14:15:31  5-MIN KAOH 151915Z AUTO 28014KT 10SM FEW060 FEW075 28/17 A2999 910 50 2600 280/14 RMK AO2 T02780167
04850KAOH AOH20160715142011107/15/16 14:20:31  5-MIN KAOH 151920Z AUTO 26013KT 10SM FEW065 28/16 A2999 920 48 2600 260/13 RMK AO2 T02780161
04850KAOH AOH20160715142511107/15/16 14:25:31  5-MIN KAOH 151925Z AUTO 27014KT 10SM FEW060 28/17 A2999 920 48 2700 280/14 RMK AO2 T02830167
04850KAOH AOH20160716113511107/16/16 11:35:31  5-MIN KAOH 161635Z AUTO 00000KT 10SM BKN024 23/17 A3012 790 68 1900 000/00 RMK AO2 T02280167
04850KAOH AOH20160716114011107/16/16 11:40:31  5-MIN KAOH 161640Z AUTO VRB03KT 10SM BKN024 23/18 A3012 790 70 2000 VRB/03 RMK AO2 T02330178
04850KAOH AOH20160716114511107/16/16 11:45:31  5-MIN KAOH 161645Z AUTO 00000KT 10SM BKN024 23/17 A3012 790 68 1900 000/00 RMK AO2 T02280167
04850KAOH AOH20160716115011807/16/16 11:50:31  5-MIN KAOH 161650Z AUTO 00000KT 10SM BKN025 23/17 A3012 790 68 1900 000/00 RMK AO2 SLP195 T02280167
04850KAOH AOH20160716115511107/16/16 11:55:31  5-MIN KAOH 161655Z AUTO VRB06KT 10SM BKN025 23/17 A3013 790 68 1900 VRB/06 RMK AO2 T02280167
04850KAOH AOH20160716120011807/16/16 12:00:31  5-MIN KAOH 161700Z AUTO VRB04KT 10SM BKN027 BKN031 23/17 A3013 790 68 1900 VRB/04 RMK AO2 T02280167
04850KAOH AOH20160716120511107/16/16 12:05:31  5-MIN KAOH 161705Z AUTO VRB04KT 10SM BKN027 23/17 A3013 790 68 2000 VRB/04 RMK AO2 T02330172
04850KAOH AOH20160716121011107/16/16 12:10:31  5-MIN KAOH 161710Z AUTO VRB04KT 10SM BKN028 23/17 A3013 790 68 2000 VRB/04 RMK AO2 T02330172
04850KAOH AOH20160716121511107/16/16 12:15:31  5-MIN KAOH 161715Z AUTO 18003KT 10SM SCT028 23/17 A3013 790 68 1900 180/03 RMK AO2 T02280167
04850KAOH AOH20160716122011107/16/16 12:20:31  5-MIN KAOH 161720Z AUTO VRB04KT 10SM SCT028 23/17 A3013 790 68 1900 VRB/04 RMK AO2 T02280167
04850KAOH AOH20160716122511107/16/16 12:25:31  5-MIN KAOH 161725Z AUTO 28004KT 10SM FEW030 23/17 A3013 790 68 2000 290/04 RMK AO2 T02330172
04850KAOH AOH20160716123011107/16/16 12:30:31  5-MIN KAOH 161730Z AUTO 26005KT 10SM FEW030 23/17 A3013 790 68 1900 260/05 RMK AO2 T02280167
04850KAOH AOH20160716123510807/16/16 12:35:31  5-MIN KAOH 161735Z AUTO 26005KT 10SM CLR 23/17 A3013 780 68 1900 270/05 RMK AO2 T02280167
04850KAOH AOH20160716124009807/16/16 12:40:31  5-MIN KAOH 161740Z AUTO 10SM CLR 23/16 A3013 780 63 2000 M /M RMK AO2 T02330161
04850KAOH AOH20160716124511107/16/16 12:45:31  5-MIN KAOH 161745Z AUTO 23005KT 10SM FEW034 23/16 A3013 780 63 2000 230/05 RMK AO2 T02330161
04850KAOH AOH20160716125013607/16/16 12:50:31  5-MIN KAOH 161750Z AUTO 25006KT 10SM FEW034 23/16 A3013 780 63 2000 260/06 RMK AO2 SLP198 T02330161 10239 20167 51009
04850KAOH AOH20160716125511107/16/16 12:55:31  5-MIN KAOH 161755Z AUTO VRB05KT 10SM FEW035 23/17 A3013 780 66 2000 VRB/05 RMK AO2 T02330167
04850KAOH AOH20160716130011107/16/16 13:00:31  5-MIN KAOH 161800Z AUTO 24005KT 10SM FEW035 23/17 A3013 790 66 2000 240/05 RMK AO2 T02330167
04850KAOH AOH20160716130511107/16/16 13:05:31  5-MIN KAOH 161805Z AUTO 31006KT 10SM SCT035 24/17 A3013 790 63 2000 320/06 RMK AO2 T02390167
04850KAOH AOH20160716131011107/16/16 13:10:31  5-MIN KAOH 161810Z AUTO 31007KT 10SM SCT035 23/17 A3013 790 66 2000 320/07 RMK AO2 T02330167
04850KAOH AOH20160716131512707/16/16 13:15:31  5-MIN KAOH 161815Z AUTO 32007KT 290V360 10SM SCT035 24/17 A3012 790 63 2000 330/07 300V010 RMK AO2 T02390167
04850KAOH AOH20160716132011107/16/16 13:20:31  5-MIN KAOH 161820Z AUTO VRB05KT 10SM FEW035 24/16 A3012 790 61 2000 VRB/05 RMK AO2 T02390161
04850KAOH AOH20160716132511107/16/16 13:25:31  5-MIN KAOH 161825Z AUTO VRB06KT 10SM FEW035 24/16 A3012 790 61 2000 VRB/06 RMK AO2 T02390161
04850KAOH AOH20160716133011107/16/16 13:30:31  5-MIN KAOH 161830Z AUTO VRB06KT 10SM FEW035 24/17 A3012 790 63 2000 VRB/06 RMK AO2 T02390167
04850KAOH AOH20160716133511107/16/16 13:35:31  5-MIN KAOH 161835Z AUTO 28007KT 10SM FEW035 24/16 A3012 790 59 2100 290/07 RMK AO2 T02440161
04850KAOH AOH20160716134010807/16/16 13:40:31  5-MIN KAOH 161840Z AUTO 00000KT 10SM CLR 24/16 A3012 790 61 2000 000/00 RMK AO2 T02390161
04850KAOH AOH20160716134510107/16/16 13:45:31  5-MIN KAOH 161845Z AUTO 10SM FEW038 24/16 A3012 790 59 2000 M /M RMK AO2 T02390156
04850KAOH AOH20160716135011807/16/16 13:50:31  5-MIN KAOH 161850Z AUTO VRB03KT 10SM FEW040 24/16 A3012 790 59 2100 VRB/03 RMK AO2 SLP194 T02440161
04850KAOH AOH20160716135511807/16/16 13:55:31  5-MIN KAOH 161855Z AUTO 36005KT 10SM FEW038 SCT045 24/17 A3012 790 63 2000 360/05 RMK AO2 T02390167
04850KAOH AOH20160716140013407/16/16 14:00:31  5-MIN KAOH 161900Z AUTO 33008KT 280V020 10SM SCT038 SCT047 24/17 A3012 790 63 2100 330/08 290V030 RMK AO2 T02440172
04850KAOH AOH20160716140511807/16/16 14:05:31  5-MIN KAOH 161905Z AUTO 25006KT 10SM FEW036 SCT047 25/17 A3012 790 59 2200 260/06 RMK AO2 T02500167
04850KAOH AOH20160716141011807/16/16 14:10:31  5-MIN KAOH 161910Z AUTO 29007KT 10SM SCT036 BKN047 24/17 A3012 790 63 2000 300/07 RMK AO2 T02390167
04850KAOH AOH20160716141511807/16/16 14:15:31  5-MIN KAOH 161915Z AUTO VRB04KT 10SM SCT036 BKN047 23/16 A3012 790 63 2000 VRB/04 RMK AO2 T02330161
04850KAOH AOH20160716142011807/16/16 14:20:31  5-MIN KAOH 161920Z AUTO VRB04KT 10SM BKN038 BKN047 24/17 A3012 800 63 2000 VRB/04 RMK AO2 T02390167
04850KAOH AOH20160716142511807/16/16 14:25:31  5-MIN KAOH 161925Z AUTO 32006KT 10SM SCT038 BKN047 24/16 A3012 800 61 2000 330/06 RMK AO2 T02390161
04850KAOH AOH20160716143011807/16/16 14:30:31  5-MIN KAOH 161930Z AUTO 30009KT 10SM SCT038 BKN047 23/16 A3011 800 63 2000 310/09 RMK AO2 T02330161
04850KAOH AOH20160716143513407/16/16 14:35:31  5-MIN KAOH 161935Z AUTO 32008KT 270V340 10SM SCT038 BKN047 24/17 A3011 800 61 2100 320/08 280V350 RMK AO2 T02440167
04850KAOH AOH20160716144011807/16/16 14:40:31  5-MIN KAOH 161940Z AUTO VRB06KT 10SM SCT038 BKN047 24/16 A3011 800 59 2100 VRB/06 RMK AO2 T02440161
04850KAOH AOH20160716144511107/16/16 14:45:31  5-MIN KAOH 161945Z AUTO 28005KT 10SM FEW040 24/16 A3011 800 59 2100 290/05 RMK AO2 T02440161
04850KAOH AOH20160716145011807/16/16 14:50:31  5-MIN KAOH 161950Z AUTO VRB06KT 10SM FEW044 24/17 A3011 800 61 2100 VRB/06 RMK AO2 SLP190 T02440167
04850KAOH AOH20160716145511107/16/16 14:55:31  5-MIN KAOH 161955Z AUTO 29007KT 10SM FEW042 25/16 A3011 810 57 2200 300/07 RMK AO2 T02500161
04850KAOH AOH20160716150011107/16/16 15:00:31  5-MIN KAOH 162000Z AUTO VRB03KT 10SM FEW040 24/16 A3010 810 59 2100 VRB/03 RMK AO2 T02440161
04850KAOH AOH20160716150511107/16/16 15:05:31  5-MIN KAOH 162005Z AUTO 26008KT 10SM FEW040 25/16 A3010 810 57 2200 270/08 RMK AO2 T02500161
04850KAOH AOH20160716151011107/16/16 15:10:31  5-MIN KAOH 162010Z AUTO 32005KT 10SM FEW039 24/16 A3010 810 59 2100 320/05 RMK AO2 T02440161
04850KAOH AOH20160716151511107/16/16 15:15:31  5-MIN KAOH 162015Z AUTO 32006KT 10SM SCT041 24/16 A3010 810 57 2100 330/06 RMK AO2 T02440156
04850KAOH AOH20160716152011107/16/16 15:20:31  5-MIN KAOH 162020Z AUTO 27008KT 10SM SCT041 25/16 A3011 810 57 2200 270/08 RMK AO2 T02500161
04850KAOH AOH20160716152511107/16/16 15:25:31  5-MIN KAOH 162025Z AUTO 27006KT 10SM SCT041 24/16 A3010 810 59 2100 280/06 RMK AO2 T02390156
04850KAOH AOH20160716153011107/16/16 15:30:31  5-MIN KAOH 162030Z AUTO 28006KT 10SM SCT041 24/16 A3010 810 57 2100 280/06 RMK AO2 T02440156
04850KAOH AOH20160716153511107/16/16 15:35:31  5-MIN KAOH 162035Z AUTO 33005KT 10SM SCT043 24/16 A3010 810 59 2100 340/05 RMK AO2 T02440161
04850KAOH AOH20160716154011807/16/16 15:40:31  5-MIN KAOH 162040Z AUTO 33003KT 10SM BKN043 BKN049 24/16 A3010 810 59 2100 340/03 RMK AO2 T02440161
04850KAOH AOH20160716154511107/16/16 15:45:31  5-MIN KAOH 162045Z AUTO 27005KT 10SM BKN042 25/17 A3010 820 59 2200 280/05 RMK AO2 T02500167
04850KAOH AOH20160716155013107/16/16 15:50:31  5-MIN KAOH 162050Z AUTO 30007KT 10SM BKN042 BKN050 25/16 A3010 820 57 2200 310/07 RMK AO2 SLP186 T02500161 53002
04850KAOH AOH20160716155511807/16/16 15:55:31  5-MIN KAOH 162055Z AUTO 29006KT 10SM SCT042 BKN050 24/16 A3009 820 57 2100 290/06 RMK AO2 T02440156
04850KAOH AOH20160716160011807/16/16 16:00:31  5-MIN KAOH 162100Z AUTO 30006KT 10SM SCT042 SCT050 24/16 A3009 820 57 2100 310/06 RMK AO2 T02440156
04850KAOH AOH20160716160511107/16/16 16:05:31  5-MIN KAOH 162105Z AUTO 35005KT 10SM SCT042 24/16 A3009 820 59 2100 350/05 RMK AO2 T02440161
04850KAOH AOH20160716161011107/16/16 16:10:31  5-MIN KAOH 162110Z AUTO VRB03KT 10SM SCT042 24/16 A3009 820 59 2100 VRB/03 RMK AO2 T02440161
04850KAOH AOH20160716161511107/16/16 16:15:31  5-MIN KAOH 162115Z AUTO 00000KT 10SM FEW042 25/16 A3009 820 57 2200 000/00 RMK AO2 T02500161
04850KAOH AOH20160716162011107/16/16 16:20:31  5-MIN KAOH 162120Z AUTO VRB04KT 10SM SCT042 25/16 A3009 820 57 2200 VRB/04 RMK AO2 T02500161
04850KAOH AOH20160716162511107/16/16 16:25:31  5-MIN KAOH 162125Z AUTO VRB04KT 10SM SCT042 25/16 A3009 820 57 2200 VRB/04 RMK AO2 T02500161
04850KAOH AOH20160716163011107/16/16 16:30:31  5-MIN KAOH 162130Z AUTO 26007KT 10SM SCT042 25/16 A3009 820 57 2200 270/07 RMK AO2 T02500161
04850KAOH AOH20160716163511107/16/16 16:35:31  5-MIN KAOH 162135Z AUTO 00000KT 10SM FEW042 25/14 A3009 820 51 2200 000/00 RMK AO2 T02500144
04850KAOH AOH20160716164011107/16/16 16:40:31  5-MIN KAOH 162140Z AUTO 25004KT 10SM FEW042 25/16 A3009 820 55 2200 260/04 RMK AO2 T02500156
04850KAOH AOH20160716164511107/16/16 16:45:31  5-MIN KAOH 162145Z AUTO 28007KT 10SM FEW042 24/16 A3009 820 57 2100 290/07 RMK AO2 T02440156
04850KAOH AOH20160716165011807/16/16 16:50:31  5-MIN KAOH 162150Z AUTO 26004KT 10SM FEW042 24/15 A3009 820 55 2100 270/04 RMK AO2 SLP185 T02440150
04850KAOH AOH20160716165510807/16/16 16:55:31  5-MIN KAOH 162155Z AUTO 29003KT 10SM CLR 24/15 A3009 820 55 2100 290/03 RMK AO2 T02440150
04850KAOH AOH20160716170010807/16/16 17:00:31  5-MIN KAOH 162200Z AUTO VRB03KT 10SM CLR 25/15 A3009 820 53 2200 VRB/03 RMK AO2 T02500150
04850KAOH AOH20160716170510807/16/16 17:05:31  5-MIN KAOH 162205Z AUTO VRB05KT 10SM CLR 25/15 A3009 820 53 2200 VRB/05 RMK AO2 T02500150
04850KAOH AOH20160716171011107/16/16 17:10:31  5-MIN KAOH 162210Z AUTO 29007KT 10SM FEW047 26/16 A3010 810 53 2300 300/07 RMK AO2 T02560156
04850KAOH AOH20160716171511107/16/16 17:15:31  5-MIN KAOH 162215Z AUTO 31007KT 10SM SCT049 26/15 A3010 810 51 2300 310/07 RMK AO2 T02560150
04850KAOH AOH20160716172011107/16/16 17:20:31  5-MIN KAOH 162220Z AUTO 29006KT 10SM SCT049 24/16 A3010 810 57 2100 300/06 RMK AO2 T02440156
04850KAOH AOH20160716172511107/16/16 17:25:31  5-MIN KAOH 162225Z AUTO 28007KT 10SM SCT049 24/15 A3010 810 55 2100 280/07 RMK AO2 T02440150
04850KAOH AOH20160716173011107/16/16 17:30:31  5-MIN KAOH 162230Z AUTO 28008KT 10SM SCT048 26/16 A3010 810 53 2300 290/08 RMK AO2 T02560156
04850KAOH AOH20160716173511107/16/16 17:35:31  5-MIN KAOH 162235Z AUTO 32007KT 10SM SCT048 25/15 A3010 810 53 2200 320/07 RMK AO2 T02500150
04850KAOH AOH20160716174011107/16/16 17:40:31  5-MIN KAOH 162240Z AUTO 30006KT 10SM FEW048 25/16 A3010 810 55 2200 300/06 RMK AO2 T02500156
04850KAOH AOH20160716174511107/16/16 17:45:31  5-MIN KAOH 162245Z AUTO 29009KT 10SM FEW048 25/16 A3010 810 55 2200 290/09 RMK AO2 T02500156
04850KAOH AOH20160716175011807/16/16 17:50:31  5-MIN KAOH 162250Z AUTO 28008KT 10SM FEW048 25/16 A3010 810 55 2200 290/08 RMK AO2 SLP188 T02500156
04850KAOH AOH20160716175511107/16/16 17:55:31  5-MIN KAOH 162255Z AUTO 27007KT 10SM FEW048 25/15 A3010 810 53 2200 270/07 RMK AO2 T02500150
04850KAOH AOH20160716180011107/16/16 18:00:31  5-MIN KAOH 162300Z AUTO 27006KT 10SM FEW048 24/16 A3009 820 57 2100 270/06 RMK AO2 T02440156
04850KAOH AOH20160716180511107/16/16 18:05:31  5-MIN KAOH 162305Z AUTO 26005KT 10SM FEW048 24/16 A3009 820 57 2100 260/05 RMK AO2 T02440156
04850KAOH AOH20160716181011107/16/16 18:10:31  5-MIN KAOH 162310Z AUTO 26006KT 10SM FEW048 25/15 A3009 820 53 2200 270/06 RMK AO2 T02500150
04850KAOH AOH20160716181511107/16/16 18:15:31  5-MIN KAOH 162315Z AUTO 29004KT 10SM FEW048 25/15 A3009 820 53 2200 290/04 RMK AO2 T02500150
04850KAOH AOH20160716182011107/16/16 18:20:31  5-MIN KAOH 162320Z AUTO 35004KT 10SM SCT048 24/15 A3009 820 55 2100 350/04 RMK AO2 T02440150
04850KAOH AOH20160716182511107/16/16 18:25:31  5-MIN KAOH 162325Z AUTO 32006KT 10SM FEW048 24/14 A3009 820 53 2100 330/06 RMK AO2 T02440144
04850KAOH AOH20160716183011107/16/16 18:30:31  5-MIN KAOH 162330Z AUTO 29004KT 10SM FEW048 24/14 A3009 820 53 2100 300/04 RMK AO2 T02440144
04850KAOH AOH20160716183511107/16/16 18:35:31  5-MIN KAOH 162335Z AUTO 29004KT 10SM FEW048 24/16 A3009 820 57 2100 290/04 RMK AO2 T02440156
04850KAOH AOH20160716184011107/16/16 18:40:31  5-MIN KAOH 162340Z AUTO 27005KT 10SM FEW048 24/15 A3009 820 55 2100 270/05 RMK AO2 T02440150
04850KAOH AOH20160716184511107/16/16 18:45:31  5-MIN KAOH 162345Z AUTO 26005KT 10SM FEW048 24/15 A3009 820 55 2100 270/05 RMK AO2 T02440150
04850KAOH AOH20160716185013307/16/16 18:50:31  5-MIN KAOH 162350Z AUTO 27005KT 10SM CLR 24/14 A3009 820 53 2100 280/05 RMK AO2 SLP184 T02440144 10256 20233 58012
04850KAOH AOH20160716185510807/16/16 18:55:31  5-MIN KAOH 162355Z AUTO 28004KT 10SM CLR 24/16 A3009 820 59 2100 280/04 RMK AO2 T02390156
04850KAOH AOH20160716190010807/16/16 19:00:31  5-MIN KAOH 170000Z AUTO 27004KT 10SM CLR 24/15 A3009 820 57 2100 280/04 RMK AO2 T02390150
04850KAOH AOH20160716190510807/16/16 19:05:31  5-MIN KAOH 170005Z AUTO 00000KT 10SM CLR 24/16 A3009 820 59 2100 000/00 RMK AO2 T02390156
04850KAOH AOH20160716191010807/16/16 19:10:31  5-MIN KAOH 170010Z AUTO 29004KT 10SM CLR 23/16 A3009 820 63 2000 300/04 RMK AO2 T02330161
04850KAOH AOH20160716191510807/16/16 19:15:31  5-MIN KAOH 170015Z AUTO 30003KT 10SM CLR 23/16 A3009 820 61 2000 300/03 RMK AO2 T02330156
04850KAOH AOH20160716192010807/16/16 19:20:31  5-MIN KAOH 170020Z AUTO 29004KT 10SM CLR 23/16 A3010 810 61 2000 300/04 RMK AO2 T02330156
04850KAOH AOH20160716192510807/16/16 19:25:31  5-MIN KAOH 170025Z AUTO 28005KT 10SM CLR 23/16 A3010 810 63 1900 290/05 RMK AO2 T02280156
04850KAOH AOH20160716193010807/16/16 19:30:31  5-MIN KAOH 170030Z AUTO 28005KT 10SM CLR 22/16 A3010 810 65 1900 280/05 RMK AO2 T02220156
04850KAOH AOH20160716193510807/16/16 19:35:31  5-MIN KAOH 170035Z AUTO 27006KT 10SM CLR 22/16 A3010 810 65 1900 270/06 RMK AO2 T02220156
04850KAOH AOH20160716194010807/16/16 19:40:31  5-MIN KAOH 170040Z AUTO 25005KT 10SM CLR 22/16 A3010 810 65 1900 260/05 RMK AO2 T02220156
04850KAOH AOH20160716194510807/16/16 19:45:31  5-MIN KAOH 170045Z AUTO 23004KT 10SM CLR 22/16 A3011 810 65 1900 230/04 RMK AO2 T02220156
04850KAOH AOH20160716195011507/16/16 19:50:31  5-MIN KAOH 170050Z AUTO 25004KT 10SM CLR 22/15 A3011 800 63 1900 250/04 RMK AO2 SLP191 T02220150
04850KAOH AOH20160716195510807/16/16 19:55:31  5-MIN KAOH 170055Z AUTO 25004KT 10SM CLR 22/16 A3011 800 68 1800 260/04 RMK AO2 T02170156
04850KAOH AOH20160716200010807/16/16 20:00:31  5-MIN KAOH 170100Z AUTO 22003KT 10SM CLR 23/16 A3010 810 63 1900 230/03 RMK AO2 T02280156
04850KAOH AOH20160716200510807/16/16 20:05:31  5-MIN KAOH 170105Z AUTO 24003KT 10SM CLR 22/15 A3010 810 63 1900 240/03 RMK AO2 T02220150
04850KAOH AOH20160716201010807/16/16 20:10:31  5-MIN KAOH 170110Z AUTO 24003KT 10SM CLR 21/16 A3011 810 70 1700 250/03 RMK AO2 T02110156
04850KAOH AOH20160716201510807/16/16 20:15:31  5-MIN KAOH 170115Z AUTO 25005KT 10SM CLR 20/16 A3011 800 78 1600 250/05 RMK AO2 T02000161
04850KAOH AOH20160716202010807/16/16 20:20:31  5-MIN KAOH 170120Z AUTO 25005KT 10SM CLR 21/16 A3011 800 73 1700 260/05 RMK AO2 T02060156
04850KAOH AOH20160716202510807/16/16 20:25:31  5-MIN KAOH 170125Z AUTO 25004KT 10SM CLR 20/16 A3011 800 75 1600 260/04 RMK AO2 T02000156
04850KAOH AOH20160716203010807/16/16 20:30:31  5-MIN KAOH 170130Z AUTO 26004KT 10SM CLR 19/17 A3011 800 84 1500 260/04 RMK AO2 T01940167
04850KAOH AOH20160716203510807/16/16 20:35:31  5-MIN KAOH 170135Z AUTO 25004KT 10SM CLR 19/16 A3011 800 81 1500 260/04 RMK AO2 T01940161
04850KAOH AOH20160716204010807/16/16 20:40:31  5-MIN KAOH 170140Z AUTO 25004KT 10SM CLR 19/16 A3011 800 81 1500 260/04 RMK AO2 T01940161
04850KAOH AOH20160716204510807/16/16 20:45:31  5-MIN KAOH 170145Z AUTO 00000KT 10SM CLR 19/16 A3011 800 78 1500 000/00 RMK AO2 T01940156
04850KAOH AOH20160716205011507/16/16 20:50:31  5-MIN KAOH 170150Z AUTO 00000KT 10SM CLR 19/16 A3012 800 81 1500 000/00 RMK AO2 SLP193 T01940161
04850KAOH AOH20160716205510807/16/16 20:55:31  5-MIN KAOH 170155Z AUTO 00000KT 10SM CLR 20/16 A3012 800 75 1600 000/00 RMK AO2 T02000156
04850KAOH AOH20160716210010807/16/16 21:00:31  5-MIN KAOH 170200Z AUTO 00000KT 10SM CLR 19/16 A3012 800 78 1500 000/00 RMK AO2 T01940156
04850KAOH AOH20160716210510807/16/16 21:05:31  5-MIN KAOH 170205Z AUTO 00000KT 10SM CLR 19/16 A3012 790 78 1500 000/00 RMK AO2 T01940156
04850KAOH AOH20160716211010807/16/16 21:10:31  5-MIN KAOH 170210Z AUTO 00000KT 10SM CLR 19/16 A3012 790 81 1500 000/00 RMK AO2 T01890156
04850KAOH AOH20160716211510807/16/16 21:15:31  5-MIN KAOH 170215Z AUTO 00000KT 10SM CLR 19/16 A3012 790 81 1500 000/00 RMK AO2 T01890156
04850KAOH AOH20160716212010807/16/16 21:20:31  5-MIN KAOH 170220Z AUTO 00000KT 10SM CLR 19/16 A3013 790 81 1500 000/00 RMK AO2 T01890156
04850KAOH AOH20160716212510807/16/16 21:25:31  5-MIN KAOH 170225Z AUTO 20003KT 10SM CLR 19/15 A3013 790 78 1500 210/03 RMK AO2 T01890150
04850KAOH AOH20160716213010807/16/16 21:30:31  5-MIN KAOH 170230Z AUTO 22004KT 10SM CLR 19/16 A3013 790 78 1500 220/04 RMK AO2 T01940156
04850KAOH AOH20160716213510807/16/16 21:35:31  5-MIN KAOH 170235Z AUTO 22003KT 10SM CLR 20/16 A3013 790 75 1600 220/03 RMK AO2 T02000156
04850KAOH AOH20160716214010807/16/16 21:40:31  5-MIN KAOH 170240Z AUTO 21003KT 10SM CLR 20/16 A3012 790 75 1600 220/03 RMK AO2 T02000156
04850KAOH AOH20160716214510807/16/16 21:45:31  5-MIN KAOH 170245Z AUTO 21003KT 10SM CLR 19/16 A3013 790 78 1500 210/03 RMK AO2 T01940156
04850KAOH AOH20160716215012107/16/16 21:50:31  5-MIN KAOH 170250Z AUTO 20003KT 10SM CLR 18/16 A3013 790 84 1400 200/03 RMK AO2 SLP199 T01830156 58002
04850KAOH AOH20160716215510807/16/16 21:55:31  5-MIN KAOH 170255Z AUTO 21004KT 10SM CLR 19/16 A3013 780 81 1500 220/04 RMK AO2 T01890156
04850KAOH AOH20160716220010807/16/16 22:00:31  5-MIN KAOH 170300Z AUTO 22004KT 10SM CLR 20/16 A3013 780 75 1600 230/04 RMK AO2 T02000156
04850KAOH AOH20160716220510807/16/16 22:05:31  5-MIN KAOH 170305Z AUTO 24004KT 10SM CLR 20/15 A3013 780 72 1600 240/04 RMK AO2 T02000150
04850KAOH AOH20160716221010807/16/16 22:10:31  5-MIN KAOH 170310Z AUTO 24004KT 10SM CLR 20/15 A3013 780 72 1600 240/04 RMK AO2 T02000150
04850KAOH AOH20160716221510807/16/16 22:15:31  5-MIN KAOH 170315Z AUTO 24004KT 10SM CLR 21/14 A3013 780 67 1600 240/04 RMK AO2 T02060144
04850KAOH AOH20160716222010807/16/16 22:20:31  5-MIN KAOH 170320Z AUTO 24003KT 10SM CLR 21/14 A3013 780 67 1700 250/03 RMK AO2 T02060144
04850KAOH AOH20160716222510807/16/16 22:25:31  5-MIN KAOH 170325Z AUTO 24003KT 10SM CLR 21/14 A3013 780 67 1600 240/03 RMK AO2 T02060144
04850KAOH AOH20160716223010807/16/16 22:30:31  5-MIN KAOH 170330Z AUTO 23004KT 10SM CLR 21/14 A3013 780 67 1700 230/04 RMK AO2 T02060144
04850KAOH AOH20160716223510807/16/16 22:35:31  5-MIN KAOH 170335Z AUTO 24004KT 10SM CLR 20/14 A3013 780 70 1600 250/04 RMK AO2 T02000144
04850KAOH AOH20160716224010807/16/16 22:40:31  5-MIN KAOH 170340Z AUTO 24003KT 10SM CLR 19/14 A3013 780 72 1500 250/03 RMK AO2 T01940144
04850KAOH AOH20160716224510807/16/16 22:45:31  5-MIN KAOH 170345Z AUTO 24003KT 10SM CLR 18/15 A3013 780 81 1400 250/03 RMK AO2 T01830150
04850KAOH AOH20160716225011507/16/16 22:50:31  5-MIN KAOH 170350Z AUTO 00000KT 10SM CLR 18/15 A3013 780 81 1400 000/00 RMK AO2 SLP199 T01830150
04850KAOH AOH20160716225510807/16/16 22:55:31  5-MIN KAOH 170355Z AUTO 00000KT 10SM CLR 18/15 A3013 780 83 1300 000/00 RMK AO2 T01780150
04850KAOH AOH20160716230010807/16/16 23:00:31  5-MIN KAOH 170400Z AUTO 00000KT 10SM CLR 18/15 A3013 780 83 1300 000/00 RMK AO2 T01780150
04850KAOH AOH20160716230510807/16/16 23:05:31  5-MIN KAOH 170405Z AUTO 00000KT 10SM CLR 18/15 A3013 780 83 1300 000/00 RMK AO2 T01780150
04850KAOH AOH20160716231010807/16/16 23:10:31  5-MIN KAOH 170410Z AUTO 25003KT 10SM CLR 18/15 A3013 780 81 1400 250/03 RMK AO2 T01830150
04850KAOH AOH20160716231510807/16/16 23:15:31  5-MIN KAOH 170415Z AUTO 24003KT 10SM CLR 18/14 A3013 780 81 1300 240/03 RMK AO2 T01780144
04850KAOH AOH20160716232010807/16/16 23:20:31  5-MIN KAOH 170420Z AUTO 00000KT 10SM CLR 18/14 A3013 780 78 1400 000/00 RMK AO2 T01830144
04850KAOH AOH20160716232510807/16/16 23:25:31  5-MIN KAOH 170425Z AUTO 00000KT 10SM CLR 18/14 A3014 780 78 1400 000/00 RMK AO2 T01830144
04850KAOH AOH20160716233010807/16/16 23:30:31  5-MIN KAOH 170430Z AUTO 00000KT 10SM CLR 17/14 A3014 780 83 1300 000/00 RMK AO2 T01720144
04850KAOH AOH20160717093010807/17/16 09:30:31  5-MIN KAOH 171430Z AUTO 20007KT 10SM CLR 24/17 A3017 750 66 2000 210/07 RMK AO2 T02390172
04850KAOH AOH20160717093510807/17/16 09:35:31  5-MIN KAOH 171435Z AUTO 20006KT 10SM CLR 24/17 A3017 750 66 2000 200/06 RMK AO2 T02390172
04850KAOH AOH20160717094010807/17/16 09:40:31  5-MIN KAOH 171440Z AUTO 20006KT 10SM CLR 24/18 A3016 750 66 2100 210/06 RMK AO2 T02440178
04850KAOH AOH20160717094510807/17/16 09:45:31  5-MIN KAOH 171445Z AUTO VRB06KT 10SM CLR 24/18 A3016 750 66 2100 VRB/06 RMK AO2 T02440178
04850KAOH AOH20160717095012107/17/16 09:50:31  5-MIN KAOH 171450Z AUTO 19006KT 10SM CLR 24/18 A3016 750 66 2100 190/06 RMK AO2 SLP208 T02440178 52010
04850KAOH AOH20160717095510807/17/16 09:55:31  5-MIN KAOH 171455Z AUTO 18007KT 10SM CLR 25/17 A3017 750 61 2100 180/07 RMK AO2 T02500172
04850KAOH AOH20160717100010807/17/16 10:00:31  5-MIN KAOH 171500Z AUTO 21006KT 10SM CLR 25/18 A3017 740 64 2100 220/06 RMK AO2 T02500178
04850KAOH AOH20160717100510807/17/16 10:05:31  5-MIN KAOH 171505Z AUTO 19007KT 10SM CLR 25/17 A3018 740 61 2100 200/07 RMK AO2 T02500172
04850KAOH AOH20160717101012407/17/16 10:10:31  5-MIN KAOH 171510Z AUTO 21007KT 190V250 10SM CLR 26/18 A3018 740 61 2200 220/07 200V260 RMK AO2 T02560178
04850KAOH AOH20160717101510807/17/16 10:15:31  5-MIN KAOH 171515Z AUTO VRB06KT 10SM CLR 26/18 A3018 740 61 2200 VRB/06 RMK AO2 T02560178
04850KAOH AOH20160717102010807/17/16 10:20:31  5-MIN KAOH 171520Z AUTO 19004KT 10SM CLR 26/18 A3017 740 61 2200 190/04 RMK AO2 T02560178
04850KAOH AOH20160717102510807/17/16 10:25:31  5-MIN KAOH 171525Z AUTO 20007KT 10SM CLR 26/18 A3017 740 59 2200 210/07 RMK AO2 T02610178
04850KAOH AOH20160717103010807/17/16 10:30:31  5-MIN KAOH 171530Z AUTO 19007KT 10SM CLR 26/17 A3017 740 59 2200 190/07 RMK AO2 T02560172
04850KAOH AOH20160717103510807/17/16 10:35:31  5-MIN KAOH 171535Z AUTO VRB05KT 10SM CLR 26/18 A3018 740 59 2200 VRB/05 RMK AO2 T02610178
04850KAOH AOH20160717104010807/17/16 10:40:31  5-MIN KAOH 171540Z AUTO 17006KT 10SM CLR 26/18 A3018 740 59 2200 180/06 RMK AO2 T02610178
04850KAOH AOH20160717104509807/17/16 10:45:31  5-MIN KAOH 171545Z AUTO 10SM CLR 26/17 A3017 740 57 2200 M /M RMK AO2 T02610172
04850KAOH AOH20160717105011507/17/16 10:50:31  5-MIN KAOH 171550Z AUTO 19005KT 10SM CLR 26/17 A3017 740 57 2200 200/05 RMK AO2 SLP212 T02610172
04850KAOH AOH20160717105510807/17/16 10:55:31  5-MIN KAOH 171555Z AUTO 22008KT 10SM CLR 27/18 A3017 740 57 2300 230/08 RMK AO2 T02670178
04850KAOH AOH20160717110010807/17/16 11:00:31  5-MIN KAOH 171600Z AUTO 19005KT 10SM CLR 27/17 A3018 740 55 2300 190/05 RMK AO2 T02670172
04850KAOH AOH20160717110510807/17/16 11:05:31  5-MIN KAOH 171605Z AUTO 19008KT 10SM CLR 27/17 A3018 740 53 2300 190/08 RMK AO2 T02670167
04850KAOH AOH20160717111010807/17/16 11:10:31  5-MIN KAOH 171610Z AUTO VRB06KT 10SM CLR 27/17 A3017 750 55 2300 VRB/06 RMK AO2 T02670172
04850KAOH AOH20160717111510807/17/16 11:15:31  5-MIN KAOH 171615Z AUTO 19008KT 10SM CLR 27/18 A3017 750 57 2300 200/08 RMK AO2 T02670178
04850KAOH AOH20160717112010807/17/16 11:20:31  5-MIN KAOH 171620Z AUTO 20008KT 10SM CLR 27/18 A3017 750 57 2300 210/08 RMK AO2 T02670178
04850KAOH AOH20160717112510807/17/16 11:25:31  5-MIN KAOH 171625Z AUTO 20010KT 10SM CLR 27/17 A3017 750 55 2300 200/10 RMK AO2 T02670172
04850KAOH AOH20160717113010807/17/16 11:30:31  5-MIN KAOH 171630Z AUTO 20006KT 10SM CLR 27/17 A3017 750 54 2400 200/06 RMK AO2 T02720172
04850KAOH AOH20160717113511407/17/16 11:35:31  5-MIN KAOH 171635Z AUTO 18012G16KT 10SM CLR 27/18 A3016 760 56 2400 190/12G16 RMK AO2 T02720178
04850KAOH AOH20160717114011407/17/16 11:40:31  5-MIN KAOH 171640Z AUTO 18009G16KT 10SM CLR 27/17 A3016 760 53 2300 190/09G16 RMK AO2 T02670167
04850KAOH AOH20160717114510807/17/16 11:45:31  5-MIN KAOH 171645Z AUTO 18008KT 10SM CLR 27/17 A3015 760 55 2300 190/08 RMK AO2 T02670172
04850KAOH AOH20160717115011507/17/16 11:50:31  5-MIN KAOH 171650Z AUTO 18010KT 10SM CLR 27/17 A3015 770 54 2400 180/10 RMK AO2 SLP203 T02720172
04850KAOH AOH20160717115510807/17/16 11:55:31  5-MIN KAOH 171655Z AUTO 20008KT 10SM CLR 27/17 A3015 770 52 2400 210/08 RMK AO2 T02720167
04850KAOH AOH20160717120010807/17/16 12:00:31  5-MIN KAOH 171700Z AUTO 18010KT 10SM CLR 27/17 A3015 770 54 2400 190/10 RMK AO2 T02720172
04850KAOH AOH20160717120510807/17/16 12:05:31  5-MIN KAOH 171705Z AUTO 18010KT 10SM CLR 27/17 A3015 770 54 2400 190/10 RMK AO2 T02720172
04850KAOH AOH20160717121010807/17/16 12:10:31  5-MIN KAOH 171710Z AUTO 19011KT 10SM CLR 27/18 A3015 770 56 2400 190/11 RMK AO2 T02720178
04850KAOH AOH20160717121510807/17/16 12:15:31  5-MIN KAOH 171715Z AUTO 21008KT 10SM CLR 27/17 A3015 770 54 2400 220/08 RMK AO2 T02720172
04850KAOH AOH20160717122010807/17/16 12:20:31  5-MIN KAOH 171720Z AUTO 20011KT 10SM CLR 28/18 A3014 770 54 2500 200/11 RMK AO2 T02780178
04850KAOH AOH20160717122510807/17/16 12:25:31  5-MIN KAOH 171725Z AUTO 18012KT 10SM CLR 28/18 A3014 780 54 2500 190/12 RMK AO2 T02780178
04850KAOH AOH20160717123010807/17/16 12:30:31  5-MIN KAOH 171730Z AUTO 19011KT 10SM CLR 28/18 A3013 780 54 2500 200/11 RMK AO2 T02780178
04850KAOH AOH20160717123510807/17/16 12:35:31  5-MIN KAOH 171735Z AUTO 20011KT 10SM CLR 28/18 A3013 790 54 2500 210/11 RMK AO2 T02780178
04850KAOH AOH20160717124010807/17/16 12:40:31  5-MIN KAOH 171740Z AUTO 21009KT 10SM CLR 28/18 A3013 790 56 2500 210/09 RMK AO2 T02780183
04850KAOH AOH20160717124510807/17/16 12:45:31  5-MIN KAOH 171745Z AUTO 20010KT 10SM CLR 28/18 A3013 790 56 2500 210/10 RMK AO2 T02780183
04850KAOH AOH20160717125013307/17/16 12:50:31  5-MIN KAOH 171750Z AUTO 21011KT 10SM CLR 28/18 A3013 780 56 2500 210/11 RMK AO2 SLP198 T02780183 10278 20178 58001
04850KAOH AOH20160717125511407/17/16 12:55:31  5-MIN KAOH 171755Z AUTO 20013G18KT 10SM CLR 28/18 A3013 780 54 2500 210/13G18 RMK AO2 T02830183
04850KAOH AOH20160717130011407/17/16 13:00:31  5-MIN KAOH 171800Z AUTO 19011G18KT 10SM CLR 28/18 A3013 780 54 2500 200/11G18 RMK AO2 T02830183
04850KAOH AOH20160717130511407/17/16 13:05:31  5-MIN KAOH 171805Z AUTO 20015G21KT 10SM CLR 29/19 A3013 780 52 2700 210/15G21 RMK AO2 T02940189
04850KAOH AOH20160717131011407/17/16 13:10:31  5-MIN KAOH 171810Z AUTO 20012G21KT 10SM CLR 29/18 A3013 780 50 2600 210/12G21 RMK AO2 T02940183
04850KAOH AOH20160717131510807/17/16 13:15:31  5-MIN KAOH 171815Z AUTO 23014KT 10SM CLR 29/18 A3013 780 50 2700 230/14 RMK AO2 T02940183
04850KAOH AOH20160717132011707/17/16 13:20:31  5-MIN KAOH 171820Z AUTO 21015G19KT 10SM FEW048 29/18 A3014 780 52 2600 220/15G19 RMK AO2 T02890183
04850KAOH AOH20160717132511107/17/16 13:25:31  5-MIN KAOH 171825Z AUTO 23014KT 10SM FEW048 29/18 A3014 770 52 2600 230/14 RMK AO2 T02890183
04850KAOH AOH20160717133010807/17/16 13:30:31  5-MIN KAOH 171830Z AUTO 22013KT 10SM CLR 28/18 A3014 770 54 2500 230/13 RMK AO2 T02830183
04850KAOH AOH20160717133510807/17/16 13:35:31  5-MIN KAOH 171835Z AUTO 22013KT 10SM CLR 28/18 A3014 780 54 2500 220/13 RMK AO2 T02830183
04850KAOH AOH20160717134010807/17/16 13:40:31  5-MIN KAOH 171840Z AUTO 23012KT 10SM CLR 28/18 A3014 780 54 2500 230/12 RMK AO2 T02830183
04850KAOH AOH20160717134510807/17/16 13:45:31  5-MIN KAOH 171845Z AUTO 23011KT 10SM CLR 28/18 A3014 780 56 2500 230/11 RMK AO2 T02780183
04850KAOH AOH20160717135012107/17/16 13:50:31  5-MIN KAOH 171850Z AUTO 21014G18KT 10SM CLR 28/19 A3014 780 56 2500 220/14G18 RMK AO2 SLP198 T02830189
04850KAOH AOH20160717135511407/17/16 13:55:31  5-MIN KAOH 171855Z AUTO 22012G18KT 10SM CLR 28/19 A3013 780 58 2500 220/12G18 RMK AO2 T02780189
04850KAOH AOH20160717140011407/17/16 14:00:31  5-MIN KAOH 171900Z AUTO 21011G18KT 10SM CLR 28/19 A3013 780 58 2500 220/11G18 RMK AO2 T02780189
04850KAOH AOH20160717140511707/17/16 14:05:31  5-MIN KAOH 171905Z AUTO 21010G18KT 10SM FEW045 28/19 A3013 790 60 2500 220/10G18 RMK AO2 T02780194
04850KAOH AOH20160717141011107/17/16 14:10:31  5-MIN KAOH 171910Z AUTO 21013KT 10SM FEW045 29/19 A3013 790 56 2600 220/13 RMK AO2 T02890194
04850KAOH AOH20160717141511107/17/16 14:15:31  5-MIN KAOH 171915Z AUTO 21011KT 10SM FEW045 29/20 A3013 790 56 2700 220/11 RMK AO2 T02940200
04850KAOH AOH20160717142011707/17/16 14:20:31  5-MIN KAOH 171920Z AUTO 24015G19KT 10SM FEW045 29/19 A3012 790 54 2700 250/15G19 RMK AO2 T02940194
04850KAOH AOH20160717142511107/17/16 14:25:31  5-MIN KAOH 171925Z AUTO 21014KT 10SM FEW045 29/19 A3012 790 54 2700 210/14 RMK AO2 T02940194
04850KAOH AOH20160717143013307/17/16 14:30:31  5-MIN KAOH 171930Z AUTO 22012G21KT 180V240 10SM FEW049 29/19 A3012 790 54 2700 220/12G21 190V250 RMK AO2 T02940194
04850KAOH AOH20160717143511707/17/16 14:35:31  5-MIN KAOH 171935Z AUTO 23017G23KT 10SM SCT049 29/19 A3012 790 54 2600 230/17G23 RMK AO2 T02890189
04850KAOH AOH20160717144011707/17/16 14:40:31  5-MIN KAOH 171940Z AUTO 23019G24KT 10SM FEW049 29/19 A3012 790 54 2600 240/19G24 RMK AO2 T02890189
04850KAOH AOH20160717144511707/17/16 14:45:31  5-MIN KAOH 171945Z AUTO 23017G24KT 10SM FEW050 29/18 A3012 800 52 2600 240/17G24 RMK AO2 T02890183
04850KAOH AOH20160717145012407/17/16 14:50:31  5-MIN KAOH 171950Z AUTO 24017G24KT 10SM FEW050 28/19 A3012 790 56 2500 240/17G24 RMK AO2 SLP193 T02830189
04850KAOH AOH20160717145511707/17/16 14:55:31  5-MIN KAOH 171955Z AUTO 23013G24KT 10SM FEW050 29/19 A3012 800 54 2600 240/13G24 RMK AO2 T02890189
04850KAOH AOH20160717150011707/17/16 15:00:31  5-MIN KAOH 172000Z AUTO 23016G23KT 10SM FEW050 29/19 A3012 790 54 2700 230/16G23 RMK AO2 T02940194
04850KAOH AOH20160717150511407/17/16 15:05:31  5-MIN KAOH 172005Z AUTO 23018G25KT 10SM CLR 29/19 A3011 800 54 2700 240/18G25 RMK AO2 T02940194
04850KAOH AOH20160717151011407/17/16 15:10:31  5-MIN KAOH 172010Z AUTO 21014G25KT 10SM CLR 29/19 A3010 810 56 2600 220/14G25 RMK AO2 T02890194
04850KAOH AOH20160717151511407/17/16 15:15:31  5-MIN KAOH 172015Z AUTO 21014G24KT 10SM CLR 29/19 A3010 810 56 2600 220/14G24 RMK AO2 T02890194
04850KAOH AOH20160717152011407/17/16 15:20:31  5-MIN KAOH 172020Z AUTO 21015G25KT 10SM CLR 28/19 A3009 820 58 2600 220/15G25 RMK AO2 T02830194
04850KAOH AOH20160717152511407/17/16 15:25:31  5-MIN KAOH 172025Z AUTO 21016G25KT 10SM CLR 28/19 A3009 820 56 2600 220/16G25 RMK AO2 T02830189
04850KAOH AOH20160717153011407/17/16 15:30:31  5-MIN KAOH 172030Z AUTO 21017G25KT 10SM CLR 28/19 A3008 830 58 2600 220/17G25 RMK AO2 T02830194
04850KAOH AOH20160717153512107/17/16 15:35:31  5-MIN KAOH 172035Z AUTO 20014G20KT 10SM CLR 28/20 A3007 840 60 2600 210/14G20 RMK AO2 PRESFR T02830200
04850KAOH AOH20160717154012107/17/16 15:40:31  5-MIN KAOH 172040Z AUTO 20014G22KT 10SM CLR 28/20 A3007 840 60 2600 210/14G22 RMK AO2 PRESFR T02830200
04850KAOH AOH20160717154512107/17/16 15:45:31  5-MIN KAOH 172045Z AUTO 20018G24KT 10SM CLR 28/20 A3006 850 62 2500 200/18G24 RMK AO2 PRESFR T02780200
04850KAOH AOH20160717155012707/17/16 15:50:31  5-MIN KAOH 172050Z AUTO 21011G24KT 10SM CLR 28/20 A3006 850 62 2500 210/11G24 RMK AO2 SLP174 T02780200 58011
04850KAOH AOH20160717155511707/17/16 15:55:31  5-MIN KAOH 172055Z AUTO 20013G22KT 10SM FEW110 28/20 A3006 850 62 2600 210/13G22 RMK AO2 T02780200
04850KAOH AOH20160717160011707/17/16 16:00:31  5-MIN KAOH 172100Z AUTO 21011G22KT 10SM FEW110 28/20 A3006 850 62 2600 210/11G22 RMK AO2 T02780200
04850KAOH AOH20160717160511707/17/16 16:05:31  5-MIN KAOH 172105Z AUTO 20015G21KT 10SM FEW110 28/20 A3005 860 62 2600 210/15G21 RMK AO2 T02780200
04850KAOH AOH20160717161011707/17/16 16:10:31  5-MIN KAOH 172110Z AUTO 20015G21KT 10SM FEW110 28/20 A3004 860 62 2600 210/15G21 RMK AO2 T02780200
04850KAOH AOH20160717161511707/17/16 16:15:31  5-MIN KAOH 172115Z AUTO 20013G21KT 10SM SCT110 28/20 A3004 870 62 2600 200/13G21 RMK AO2 T02780200
04850KAOH AOH20160717162012407/17/16 16:20:31  5-MIN KAOH 172120Z AUTO 20012G21KT 10SM FEW047 SCT110 28/20 A3004 870 62 2600 200/12G21 RMK AO2 T02780200
04850KAOH AOH20160717162512407/17/16 16:25:31  5-MIN KAOH 172125Z AUTO 20012G20KT 10SM FEW047 SCT110 28/20 A3004 870 62 2600 210/12G20 RMK AO2 T02780200
04850KAOH AOH20160717163011707/17/16 16:30:31  5-MIN KAOH 172130Z AUTO 20013G20KT 10SM FEW110 28/20 A3004 870 62 2600 210/13G20 RMK AO2 T02780200
04850KAOH AOH20160717163511707/17/16 16:35:31  5-MIN KAOH 172135Z AUTO 20015G22KT 10SM FEW110 28/20 A3004 870 62 2600 210/15G22 RMK AO2 T02780200
04850KAOH AOH20160717164011707/17/16 16:40:31  5-MIN KAOH 172140Z AUTO 20012G22KT 10SM FEW110 28/21 A3004 860 64 2600 210/12G22 RMK AO2 T02780206
04850KAOH AOH20160717164511407/17/16 16:45:31  5-MIN KAOH 172145Z AUTO 21013G19KT 10SM CLR 28/21 A3005 860 64 2600 210/13G19 RMK AO2 T02780206
04850KAOH AOH20160717165012107/17/16 16:50:31  5-MIN KAOH 172150Z AUTO 20012G19KT 10SM CLR 28/21 A3005 860 64 2600 210/12G19 RMK AO2 SLP169 T02780206
04850KAOH AOH20160717165511407/17/16 16:55:31  5-MIN KAOH 172155Z AUTO 20013G19KT 10SM CLR 28/21 A3005 860 64 2600 210/13G19 RMK AO2 T02780206
04850KAOH AOH20160717170010807/17/16 17:00:31  5-MIN KAOH 172200Z AUTO 21011KT 10SM CLR 28/21 A3005 850 62 2600 220/11 RMK AO2 T02830206
04850KAOH AOH20160717170510807/17/16 17:05:31  5-MIN KAOH 172205Z AUTO 21012KT 10SM CLR 28/21 A3006 850 62 2600 220/12 RMK AO2 T02830206
04850KAOH AOH20160717171010807/17/16 17:10:31  5-MIN KAOH 172210Z AUTO 22012KT 10SM CLR 28/21 A3006 850 62 2600 230/12 RMK AO2 T02830206
04850KAOH AOH20160717171510807/17/16 17:15:31  5-MIN KAOH 172215Z AUTO 21011KT 10SM CLR 28/21 A3006 840 62 2600 220/11 RMK AO2 T02830206
04850KAOH AOH20160717172011407/17/16 17:20:31  5-MIN KAOH 172220Z AUTO 21014G19KT 10SM CLR 28/20 A3006 850 60 2600 220/14G19 RMK AO2 T02830200
04850KAOH AOH20160717172511407/17/16 17:25:31  5-MIN KAOH 172225Z AUTO 20015G22KT 10SM CLR 28/20 A3006 850 62 2500 210/15G22 RMK AO2 T02780200
04850KAOH AOH20160717173011407/17/16 17:30:31  5-MIN KAOH 172230Z AUTO 21011G22KT 10SM CLR 28/21 A3007 840 64 2500 220/11G22 RMK AO2 T02780206
04850KAOH AOH20160717173510807/17/16 17:35:31  5-MIN KAOH 172235Z AUTO 21012KT 10SM CLR 28/21 A3007 840 64 2500 220/12 RMK AO2 T02780206
04850KAOH AOH20160717174011407/17/16 17:40:31  5-MIN KAOH 172240Z AUTO 21014G20KT 10SM CLR 28/21 A3007 840 64 2500 220/14G20 RMK AO2 T02780206
04850KAOH AOH20160717174511407/17/16 17:45:31  5-MIN KAOH 172245Z AUTO 21011G20KT 10SM CLR 28/21 A3007 840 64 2500 220/11G20 RMK AO2 T02780206
04850KAOH AOH20160717175011507/17/16 17:50:31  5-MIN KAOH 172250Z AUTO 21010KT 10SM CLR 28/21 A3007 840 64 2500 220/10 RMK AO2 SLP178 T02780206
04850KAOH AOH20160717175510807/17/16 17:55:31  5-MIN KAOH 172255Z AUTO 22012KT 10SM CLR 28/21 A3007 840 64 2500 220/12 RMK AO2 T02780206
04850KAOH AOH20160717180010807/17/16 18:00:31  5-MIN KAOH 172300Z AUTO 21012KT 10SM CLR 28/21 A3007 840 64 2500 220/12 RMK AO2 T02780206
04850KAOH AOH20160717180510807/17/16 18:05:31  5-MIN KAOH 172305Z AUTO 22010KT 10SM CLR 28/21 A3008 830 64 2500 220/10 RMK AO2 T02780206
04850KAOH AOH20160717181010807/17/16 18:10:31  5-MIN KAOH 172310Z AUTO 22012KT 10SM CLR 28/21 A3008 830 64 2500 230/12 RMK AO2 T02780206
04850KAOH AOH20160717181511707/17/16 18:15:31  5-MIN KAOH 172315Z AUTO 21011G18KT 10SM FEW110 28/21 A3008 830 62 2600 220/11G18 RMK AO2 T02830206
04850KAOH AOH20160717182011707/17/16 18:20:31  5-MIN KAOH 172320Z AUTO 22012G18KT 10SM FEW110 28/21 A3008 830 62 2600 220/12G18 RMK AO2 T02830206
04850KAOH AOH20160717182511107/17/16 18:25:31  5-MIN KAOH 172325Z AUTO 21011KT 10SM FEW100 28/21 A3007 830 66 2500 210/11 RMK AO2 T02780211
04850KAOH AOH20160717183011107/17/16 18:30:31  5-MIN KAOH 172330Z AUTO 21010KT 10SM SCT100 28/21 A3007 840 64 2600 220/10 RMK AO2 T02830211
04850KAOH AOH20160717183511107/17/16 18:35:31  5-MIN KAOH 172335Z AUTO 21009KT 10SM SCT100 28/21 A3007 840 64 2600 220/09 RMK AO2 T02830211
04850KAOH AOH20160717184011107/17/16 18:40:31  5-MIN KAOH 172340Z AUTO 21012KT 10SM FEW100 28/21 A3007 840 66 2500 220/12 RMK AO2 T02780211
04850KAOH AOH20160717184511107/17/16 18:45:31  5-MIN KAOH 172345Z AUTO 21010KT 10SM FEW100 28/21 A3007 840 66 2500 220/10 RMK AO2 T02780211
04850KAOH AOH20160717185013607/17/16 18:50:31  5-MIN KAOH 172350Z AUTO 21011KT 10SM FEW100 28/21 A3007 840 66 2500 220/11 RMK AO2 SLP174 T02780211 10294 20278 58025
04850KAOH AOH20160717185511107/17/16 18:55:31  5-MIN KAOH 172355Z AUTO 21011KT 10SM FEW100 28/21 A3006 840 66 2500 210/11 RMK AO2 T02780211
04850KAOH AOH20160717190010807/17/16 19:00:31  5-MIN KAOH 180000Z AUTO 21012KT 10SM CLR 28/21 A3007 840 66 2500 220/12 RMK AO2 T02780211
04850KAOH AOH20160717190510807/17/16 19:05:31  5-MIN KAOH 180005Z AUTO 22011KT 10SM CLR 28/21 A3007 840 64 2500 220/11 RMK AO2 T02780206
04850KAOH AOH20160717191011107/17/16 19:10:31  5-MIN KAOH 180010Z AUTO 21010KT 10SM FEW100 28/21 A3007 840 64 2500 220/10 RMK AO2 T02780206
04850KAOH AOH20160717191511707/17/16 19:15:31  5-MIN KAOH 180015Z AUTO 22009G16KT 10SM SCT100 28/21 A3007 840 64 2500 220/09G16 RMK AO2 T02780206
04850KAOH AOH20160717192011807/17/16 19:20:31  5-MIN KAOH 180020Z AUTO 21010KT 10SM FEW090 SCT110 28/21 A3006 840 64 2500 220/10 RMK AO2 T02780206
04850KAOH AOH20160717192511107/17/16 19:25:31  5-MIN KAOH 180025Z AUTO 21010KT 10SM FEW100 28/21 A3007 840 64 2500 220/10 RMK AO2 T02780206
04850KAOH AOH20160717193011107/17/16 19:30:31  5-MIN KAOH 180030Z AUTO 21011KT 10SM FEW100 28/21 A3007 840 64 2500 220/11 RMK AO2 T02780206
04850KAOH AOH20160717193511807/17/16 19:35:31  5-MIN KAOH 180035Z AUTO 22010KT 10SM FEW080 FEW100 28/21 A3007 840 64 2500 220/10 RMK AO2 T02780206
04850KAOH AOH20160717194011807/17/16 19:40:31  5-MIN KAOH 180040Z AUTO 21007KT 10SM FEW080 FEW100 27/21 A3007 840 66 2500 210/07 RMK AO2 T02720206
04850KAOH AOH20160717194511107/17/16 19:45:31  5-MIN KAOH 180045Z AUTO 22007KT 10SM FEW070 27/21 A3007 840 66 2500 220/07 RMK AO2 T02720206
04850KAOH AOH20160717195011807/17/16 19:50:31  5-MIN KAOH 180050Z AUTO 21007KT 10SM FEW075 27/21 A3007 840 66 2500 220/07 RMK AO2 SLP177 T02720206
04850KAOH AOH20160717195511807/17/16 19:55:31  5-MIN KAOH 180055Z AUTO 21006KT 10SM SCT080 SCT095 27/21 A3008 830 66 2500 220/06 RMK AO2 T02720206
04850KAOH AOH20160717200011807/17/16 20:00:31  5-MIN KAOH 180100Z AUTO 21005KT 10SM SCT080 BKN095 27/21 A3008 830 66 2500 220/05 RMK AO2 T02720206
04850KAOH AOH20160717200511807/17/16 20:05:31  5-MIN KAOH 180105Z AUTO 20005KT 10SM SCT080 BKN095 27/21 A3007 840 69 2400 210/05 RMK AO2 T02670206
04850KAOH AOH20160717201011807/17/16 20:10:31  5-MIN KAOH 180110Z AUTO 20006KT 10SM SCT080 BKN095 27/21 A3008 830 69 2400 210/06 RMK AO2 T02670206
04850KAOH AOH20160717201511807/17/16 20:15:31  5-MIN KAOH 180115Z AUTO 20007KT 10SM SCT080 BKN095 27/21 A3008 830 69 2400 210/07 RMK AO2 T02670206
04850KAOH AOH20160717202011807/17/16 20:20:31  5-MIN KAOH 180120Z AUTO 20007KT 10SM SCT075 BKN095 27/21 A3008 830 69 2400 210/07 RMK AO2 T02670206
04850KAOH AOH20160717202511807/17/16 20:25:31  5-MIN KAOH 180125Z AUTO 21007KT 10SM SCT075 BKN095 27/21 A3008 830 69 2400 210/07 RMK AO2 T02670206
04850KAOH AOH20160717203011807/17/16 20:30:31  5-MIN KAOH 180130Z AUTO 21006KT 10SM BKN070 BKN090 27/21 A3008 830 69 2400 220/06 RMK AO2 T02670206
04850KAOH AOH20160717203511807/17/16 20:35:31  5-MIN KAOH 180135Z AUTO 21008KT 10SM BKN070 BKN090 27/21 A3009 820 71 2400 210/08 RMK AO2 T02670211
04850KAOH AOH20160717204011807/17/16 20:40:31  5-MIN KAOH 180140Z AUTO 21006KT 10SM BKN070 BKN090 27/21 A3009 820 71 2400 210/06 RMK AO2 T02670211
04850KAOH AOH20160717204511807/17/16 20:45:31  5-MIN KAOH 180145Z AUTO 21007KT 10SM BKN075 BKN090 27/21 A3009 820 71 2400 210/07 RMK AO2 T02670211
04850KAOH AOH20160717205012507/17/16 20:50:31  5-MIN KAOH 180150Z AUTO 20008KT 10SM SCT075 BKN090 26/21 A3009 820 73 2300 210/08 RMK AO2 SLP181 T02610211
04850KAOH AOH20160717205511807/17/16 20:55:31  5-MIN KAOH 180155Z AUTO 21007KT 10SM SCT075 SCT090 26/21 A3009 820 73 2300 210/07 RMK AO2 T02610211
04850KAOH AOH20160717210011807/17/16 21:00:31  5-MIN KAOH 180200Z AUTO 21007KT 10SM SCT080 BKN095 26/21 A3010 810 73 2300 220/07 RMK AO2 T02610211
04850KAOH AOH20160717210511107/17/16 21:05:31  5-MIN KAOH 180205Z AUTO 21006KT 10SM BKN080 26/21 A3010 810 73 2300 210/06 RMK AO2 T02610211
04850KAOH AOH20160717211011807/17/16 21:10:31  5-MIN KAOH 180210Z AUTO 20007KT 10SM SCT075 BKN090 26/21 A3010 810 73 2300 210/07 RMK AO2 T02610211
04850KAOH AOH20160717211511807/17/16 21:15:31  5-MIN KAOH 180215Z AUTO 20006KT 10SM BKN080 BKN110 26/21 A3010 810 73 2300 210/06 RMK AO2 T02610211
04850KAOH AOH20160717212012507/17/16 21:20:31  5-MIN KAOH 180220Z AUTO 20006KT 10SM SCT080 BKN090 BKN110 26/21 A3010 810 73 2300 210/06 RMK AO2 T02610211
04850KAOH AOH20160717212513707/17/16 21:25:31  5-MIN KAOH 180225Z AUTO 19005KT 10SM SCT080 BKN100 OVC110 26/21 A3010 810 73 2300 190/05 RMK AO2 LTG DSNT NW T02610211
04850KAOH AOH20160717213013707/17/16 21:30:31  5-MIN KAOH 180230Z AUTO 19006KT 10SM SCT080 BKN100 BKN110 26/21 A3011 810 73 2300 200/06 RMK AO2 LTG DSNT NW T02610211
04850KAOH AOH20160717213513007/17/16 21:35:31  5-MIN KAOH 180235Z AUTO 20006KT 10SM SCT085 BKN110 26/21 A3011 800 76 2200 210/06 RMK AO2 LTG DSNT NW T02560211
04850KAOH AOH20160717214011807/17/16 21:40:31  5-MIN KAOH 180240Z AUTO 20006KT 10SM FEW085 BKN110 26/21 A3011 800 76 2200 210/06 RMK AO2 T02560211
04850KAOH AOH20160717214512507/17/16 21:45:31  5-MIN KAOH 180245Z AUTO 20007KT 10SM FEW075 FEW100 SCT110 26/21 A3011 800 76 2200 200/07 RMK AO2 T02560211
04850KAOH AOH20160717215013107/17/16 21:50:31  5-MIN KAOH 180250Z AUTO 20006KT 10SM FEW085 SCT110 26/21 A3011 800 76 2200 200/06 RMK AO2 SLP188 T02560211 52003
04850KAOH AOH20160717215511107/17/16 21:55:31  5-MIN KAOH 180255Z AUTO 20005KT 10SM SCT090 26/21 A3011 800 76 2200 210/05 RMK AO2 T02560211
04850KAOH AOH20160717220011807/17/16 22:00:31  5-MIN KAOH 180300Z AUTO 20007KT 10SM SCT090 SCT110 26/22 A3011 800 79 2200 210/07 RMK AO2 T02560217
04850KAOH AOH20160717220511807/17/16 22:05:31  5-MIN KAOH 180305Z AUTO 21005KT 10SM SCT085 BKN100 26/22 A3011 800 76 2300 210/05 RMK AO2 T02610217
04850KAOH AOH20160717221014107/17/16 22:10:31  5-MIN KAOH 180310Z AUTO 21007KT 10SM -RA FEW055 FEW075 BKN100 26/22 A3011 800 79 2200 210/07 RMK AO2 RAB07 P0000 T02560217
04850KAOH AOH20160717221514107/17/16 22:15:31  5-MIN KAOH 180315Z AUTO 21007KT 10SM -RA FEW075 SCT090 BKN110 26/22 A3011 800 79 2200 210/07 RMK AO2 RAB07 P0000 T02560217
04850KAOH AOH20160717222014007/17/16 22:20:31  5-MIN KAOH 180320Z AUTO 21007KT 10SM FEW075 SCT095 BKN120 26/22 A3011 800 76 2300 220/07 RMK AO2 RAB07E17 P0000 T02610217
04850KAOH AOH20160717222514007/17/16 22:25:31  5-MIN KAOH 180325Z AUTO 22005KT 10SM FEW075 SCT085 BKN110 26/22 A3012 800 76 2300 230/05 RMK AO2 RAB07E17 P0000 T02610217
04850KAOH AOH20160717223014007/17/16 22:30:31  5-MIN KAOH 180330Z AUTO 21005KT 10SM FEW075 BKN085 BKN110 26/22 A3012 790 76 2300 220/05 RMK AO2 RAB07E17 P0000 T02610217
04850KAOH AOH20160717223514007/17/16 22:35:31  5-MIN KAOH 180335Z AUTO 21005KT 10SM FEW070 BKN090 OVC120 26/22 A3012 790 76 2300 210/05 RMK AO2 RAB07E17 P0000 T02610217
04850KAOH AOH20160717224014007/17/16 22:40:31  5-MIN KAOH 180340Z AUTO 20004KT 10SM FEW070 BKN090 OVC120 26/22 A3012 790 76 2300 210/04 RMK AO2 RAB07E17 P0000 T02610217
04850KAOH AOH20160717224513307/17/16 22:45:31  5-MIN KAOH 180345Z AUTO 20004KT 10SM SCT065 OVC090 26/22 A3012 790 76 2300 200/04 RMK AO2 RAB07E17 P0000 T02610217
04850KAOH AOH20160717225014007/17/16 22:50:31  5-MIN KAOH 180350Z AUTO 19004KT 10SM SCT065 OVC085 26/22 A3012 790 76 2300 200/04 RMK AO2 RAB07E17 SLP190 P0000 T02610217
04850KAOH AOH20160717225512307/17/16 22:55:31  5-MIN KAOH 180355Z AUTO 19005KT 10SM VCTS BKN070 OVC090 26/22 A3012 790 76 2300 200/05 RMK AO2 T02610217
04850KAOH AOH20160717230012307/17/16 23:00:31  5-MIN KAOH 180400Z AUTO 19005KT 10SM VCTS BKN070 OVC090 26/22 A3012 790 76 2300 200/05 RMK AO2 T02610217
04850KAOH AOH20160717230511607/17/16 23:05:31  5-MIN KAOH 180405Z AUTO 19006KT 10SM VCTS OVC070 26/22 A3012 790 76 2300 190/06 RMK AO2 T02610217
04850KAOH AOH20160717231011107/17/16 23:10:31  5-MIN KAOH 180410Z AUTO 19006KT 10SM OVC070 26/22 A3012 800 76 2300 190/06 RMK AO2 T02610217
04850KAOH AOH20160717231511107/17/16 23:15:31  5-MIN KAOH 180415Z AUTO 20006KT 10SM BKN070 26/22 A3012 800 76 2300 210/06 RMK AO2 T02610217
04850KAOH AOH20160717232012307/17/16 23:20:31  5-MIN KAOH 180420Z AUTO 20006KT 10SM BKN070 26/22 A3012 790 79 2200 200/06 RMK AO2 LTG DSNT NE T02560217
04850KAOH AOH20160717232512307/17/16 23:25:31  5-MIN KAOH 180425Z AUTO 20006KT 10SM SCT070 26/22 A3012 790 79 2200 200/06 RMK AO2 LTG DSNT NE T02560217
04850KAOH AOH20160717233012307/17/16 23:30:31  5-MIN KAOH 180430Z AUTO 20007KT 10SM SCT070 26/22 A3012 800 79 2200 200/07 RMK AO2 LTG DSNT NE T02560217
04850KAOH AOH20160717233511107/17/16 23:35:31  5-MIN KAOH 180435Z AUTO 20008KT 10SM FEW065 26/22 A3012 790 79 2200 210/08 RMK AO2 T02560217
04850KAOH AOH20160717234010807/17/16 23:40:31  5-MIN KAOH 180440Z AUTO 21007KT 10SM CLR 26/22 A3012 790 79 2200 210/07 RMK AO2 T02560217
04850KAOH AOH20160717234510807/17/16 23:45:31  5-MIN KAOH 180445Z AUTO 20008KT 10SM CLR 26/22 A3011 800 79 2200 210/08 RMK AO2 T02560217
04850KAOH AOH20160717235012507/17/16 23:50:31  5-MIN KAOH 180450Z AUTO 20008KT 10SM CLR 26/22 A3011 800 79 2200 210/08 RMK AO2 SLP188 T02560217 402940139
04850KAOH AOH20160717235510807/17/16 23:55:31  5-MIN KAOH 180455Z AUTO 20008KT 10SM CLR 26/22 A3011 800 79 2200 200/08 RMK AO2 T02560217
04850KAOH AOH20160718000010807/18/16 00:00:31  5-MIN KAOH 180500Z AUTO 20008KT 10SM CLR 26/22 A3011 800 79 2200 210/08 RMK AO2 T02560217
04850KAOH AOH20160718000510807/18/16 00:05:31  5-MIN KAOH 180505Z AUTO 20009KT 10SM CLR 25/22 A3011 810 81 2200 200/09 RMK AO2 T02500217
04850KAOH AOH20160718001010807/18/16 00:10:31  5-MIN KAOH 180510Z AUTO 20008KT 10SM CLR 25/22 A3011 810 81 2200 200/08 RMK AO2 T02500217
04850KAOH AOH20160718001510807/18/16 00:15:31  5-MIN KAOH 180515Z AUTO 20008KT 10SM CLR 25/22 A3011 810 81 2200 200/08 RMK AO2 T02500217
04850KAOH AOH20160718002010807/18/16 00:20:31  5-MIN KAOH 180520Z AUTO 20008KT 10SM CLR 25/22 A3010 810 81 2200 210/08 RMK AO2 T02500217
04850KAOH AOH20160718002510807/18/16 00:25:31  5-MIN KAOH 180525Z AUTO 20008KT 10SM CLR 25/22 A3010 810 81 2200 200/08 RMK AO2 T02500217
04850KAOH AOH20160718003010807/18/16 00:30:31  5-MIN KAOH 180530Z AUTO 19008KT 10SM CLR 25/22 A3009 820 81 2200 200/08 RMK AO2 T02500217
04850KAOH AOH20160718003510807/18/16 00:35:31  5-MIN KAOH 180535Z AUTO 19008KT 10SM CLR 25/22 A3009 820 81 2200 200/08 RMK AO2 T02500217
04850KAOH AOH20160718004010807/18/16 00:40:31  5-MIN KAOH 180540Z AUTO 19008KT 10SM CLR 25/22 A3009 820 81 2200 200/08 RMK AO2 T02500217
04850KAOH AOH20160718004510807/18/16 00:45:31  5-MIN KAOH 180545Z AUTO 19008KT 10SM CLR 25/22 A3008 830 81 2200 200/08 RMK AO2 T02500217
04850KAOH AOH20160718005013907/18/16 00:50:31  5-MIN KAOH 180550Z AUTO 19009KT 10SM CLR 25/22 A3008 830 81 2200 200/09 RMK AO2 SLP176 60000 T02500217 10278 20250 53014
04850KAOH AOH20160718005510807/18/16 00:55:31  5-MIN KAOH 180555Z AUTO 19008KT 10SM CLR 25/22 A3007 840 81 2200 200/08 RMK AO2 T02500217
04850KAOH AOH20160718010011507/18/16 01:00:31  5-MIN KAOH 180600Z AUTO 19008KT 10SM CLR 25/22 A3006 840 81 2200 200/08 RMK AO2 PRESFR T02500217
04850KAOH AOH20160718010510807/18/16 01:05:31  5-MIN KAOH 180605Z AUTO 20009KT 10SM CLR 25/22 A3007 840 81 2200 200/09 RMK AO2 T02500217
04850KAOH AOH20160718011010807/18/16 01:10:31  5-MIN KAOH 180610Z AUTO 20008KT 10SM CLR 25/22 A3007 840 81 2200 210/08 RMK AO2 T02500217
04850KAOH AOH20160718011510807/18/16 01:15:31  5-MIN KAOH 180615Z AUTO 20009KT 10SM CLR 25/22 A3008 830 81 2200 210/09 RMK AO2 T02500217
04850KAOH AOH20160718012010807/18/16 01:20:31  5-MIN KAOH 180620Z AUTO 21009KT 10SM CLR 25/22 A3008 830 81 2200 220/09 RMK AO2 T02500217
04850KAOH AOH20160718012510807/18/16 01:25:31  5-MIN KAOH 180625Z AUTO 20010KT 10SM CLR 26/22 A3008 830 79 2300 210/10 RMK AO2 T02560217
04850KAOH AOH20160718013010807/18/16 01:30:31  5-MIN KAOH 180630Z AUTO 21010KT 10SM CLR 26/22 A3008 830 79 2300 210/10 RMK AO2 T02560217
04850KAOH AOH20160718013510807/18/16 01:35:31  5-MIN KAOH 180635Z AUTO 21009KT 10SM CLR 26/22 A3009 820 79 2300 220/09 RMK AO2 T02560217
04850KAOH AOH20160718014010807/18/16 01:40:31  5-MIN KAOH 180640Z AUTO 21011KT 10SM CLR 26/22 A3009 820 79 2300 220/11 RMK AO2 T02560217
04850KAOH AOH20160718014510807/18/16 01:45:31  5-MIN KAOH 180645Z AUTO 21010KT 10SM CLR 26/22 A3009 820 79 2300 220/10 RMK AO2 T02560217
04850KAOH AOH20160718015011807/18/16 01:50:31  5-MIN KAOH 180650Z AUTO 21008KT 10SM FEW044 26/22 A3009 820 79 2300 220/08 RMK AO2 SLP182 T02560217
04850KAOH AOH20160718015511107/18/16 01:55:31  5-MIN KAOH 180655Z AUTO 22010KT 10SM SCT044 26/22 A3009 820 81 2300 220/10 RMK AO2 T02560222
04850KAOH AOH20160718020011107/18/16 02:00:31  5-MIN KAOH 180700Z AUTO 22009KT 10SM SCT044 26/22 A3010 820 81 2300 220/09 RMK AO2 T02560222
04850KAOH AOH20160718020511107/18/16 02:05:31  5-MIN KAOH 180705Z AUTO 21009KT 10SM FEW046 26/22 A3009 820 81 2300 220/09 RMK AO2 T02560222
04850KAOH AOH20160718021012207/18/16 02:10:31  5-MIN KAOH 180710Z AUTO 21009KT 10SM SCT046 26/22 A3009 820 81 2300 220/09 RMK AO2 LTG DSNT W T02560222
04850KAOH AOH20160718021512807/18/16 02:15:31  5-MIN KAOH 180715Z AUTO 21008KT 10SM BKN048 26/22 A3009 820 81 2300 210/08 RMK AO2 LTG DSNT N AND W T02560222
04850KAOH AOH20160718022013107/18/16 02:20:31  5-MIN KAOH 180720Z AUTO 21008KT 10SM BKN048 BKN060 26/22 A3009 820 81 2300 220/08 RMK AO2 LTG DSNT W-N T02560222
04850KAOH AOH20160718022513107/18/16 02:25:31  5-MIN KAOH 180725Z AUTO 22009KT 10SM BKN046 BKN060 26/22 A3009 820 81 2300 220/09 RMK AO2 LTG DSNT W-N T02560222
04850KAOH AOH20160718023014807/18/16 02:30:31  5-MIN KAOH 180730Z AUTO 21009KT 10SM -RA BKN046 BKN060 26/22 A3009 830 81 2300 220/09 RMK AO2 LTG DSNT SW-N RAB29 P0000 T02560222
04850KAOH AOH20160718023516007/18/16 02:35:31  5-MIN KAOH 180735Z AUTO 21009KT 10SM VCTS -RA BKN046 BKN060 BKN110 26/22 A3008 830 81 2300 210/09 RMK AO2 LTG DSNT SW-N RAB29 P0000 T02560222
04850KAOH AOH20160718024016007/18/16 02:40:31  5-MIN KAOH 180740Z AUTO 21007KT 10SM VCTS -RA SCT046 BKN060 BKN110 25/22 A3008 830 84 2200 210/07 RMK AO2 LTG DSNT SW-N RAB29 P0000 T02500222
04850KAOH AOH20160718024516007/18/16 02:45:31  5-MIN KAOH 180745Z AUTO 20009KT 10SM VCTS -RA SCT046 BKN060 BKN075 25/22 A3008 830 84 2200 210/09 RMK AO2 LTG DSNT SW-N RAB29 P0000 T02500222
04850KAOH AOH20160718025016807/18/16 02:50:31  5-MIN KAOH 180750Z AUTO 23006KT 10SM VCTS -RA SCT048 BKN070 BKN100 25/22 A3007 830 84 2200 230/06 RMK AO2 LTG DSNT ALQDS RAB29 SLP175 P0000 T02500222
04850KAOH AOH20160718025515807/18/16 02:55:31  5-MIN KAOH 180755Z AUTO 22013G18KT 7SM VCTS RA SCT050 SCT075 BKN100 25/23 A3007 840 87 2200 230/13G18 RMK AO2 LTG DSNT W-NE P0001 T02500228
04850KAOH AOH20160718030016407/18/16 03:00:31  5-MIN KAOH 180800Z AUTO 20008G18KT 7SM -TSRA FEW035 SCT050 BKN075 25/23 A3007 840 87 2200 210/08G18 RMK AO2 LTG DSNT W-NE TSB0757 P0002 T02500228
04850KAOH AOH20160718030515907/18/16 03:05:31  5-MIN KAOH 180805Z AUTO 20007KT 10SM -TSRA FEW035 BKN050 BKN075 24/23 A3007 840 90 2200 210/07 RMK AO2 LTG DSNT W-NE TSB0757 P0002 T02440228
04850KAOH AOH20160718031016307/18/16 03:10:31  5-MIN KAOH 180810Z AUTO 20010G19KT 8SM TSRA FEW045 BKN055 BKN075 24/23 A3007 840 90 2200 200/10G19 RMK AO2 LTG DSNT W-NE TSB0757 P0003 T02440228
04850KAOH AOH20160718031516507/18/16 03:15:31  5-MIN KAOH 180815Z AUTO 23011G19KT 8SM -TSRA SCT050 BKN075 BKN095 24/23 A3007 840 90 2200 230/11G19 RMK AO2 LTG DSNT ALQDS TSB0757 P0003 T02440228
04850KAOH AOH20160718032016607/18/16 03:20:31  5-MIN KAOH 180820Z AUTO 24010G16KT 10SM -TSRA FEW048 BKN090 OVC110 24/23 A3007 840 90 2200 240/10G16 RMK AO2 LTG DSNT ALQDS TSB0757 P0003 T02440228
04850KAOH AOH20160718032516007/18/16 03:25:31  5-MIN KAOH 180825Z AUTO 23010KT 10SM -TSRA FEW044 SCT060 BKN095 24/23 A3006 840 90 2200 240/10 RMK AO2 LTG DSNT ALQDS TSB0757 P0003 T02440228
04850KAOH AOH20160718033015307/18/16 03:30:31  5-MIN KAOH 180830Z AUTO 23011KT 10SM -TSRA FEW055 BKN100 24/23 A3007 840 90 2200 240/11 RMK AO2 LTG DSNT ALQDS TSB0757 P0004 T02440228
04850KAOH AOH20160718033515307/18/16 03:35:31  5-MIN KAOH 180835Z AUTO 24009KT 10SM -TSRA FEW060 BKN110 24/23 A3008 830 90 2200 250/09 RMK AO2 LTG DSNT ALQDS TSB0757 P0004 T02440228
04850KAOH AOH20160718034016207/18/16 03:40:31  5-MIN KAOH 180840Z AUTO 24004KT 4SM -TSRA BR FEW037 BKN100 BKN120 24/23 A3008 830 93 2100 250/04 RMK AO2 LTG DSNT ALQDS TSB0757 P0008 T02390228
04850KAOH AOH20160718034516007/18/16 03:45:31  5-MIN KAOH 180845Z AUTO 26003KT 3SM TSRA BR FEW031 SCT065 BKN090 24/23 A3009 830 93 2100 260/03 RMK AO2 LTG DSNT N-SE TSB0757 P0009 T02390228
04850KAOH AOH20160718035018107/18/16 03:50:31  5-MIN KAOH 180850Z AUTO 28003KT 6SM -TSRA BR SCT027 BKN065 BKN095 24/23 A3009 820 93 2100 280/03 RMK AO2 LTG DSNT ALQDS TSB0757 SLP180 P0009 60010 T02390228 58012
04850KAOH AOH20160718035515207/18/16 03:55:31  5-MIN KAOH 180855Z AUTO 27004KT 10SM -TSRA SCT023 BKN034 BKN070 24/23 A3009 820 93 2100 270/04 RMK AO2 LTG DSNT ALQDS P0000 T02390228
04850KAOH AOH20160718040015207/18/16 04:00:31  5-MIN KAOH 180900Z AUTO 26004KT 10SM -TSRA BKN023 BKN039 OVC120 24/23 A3009 820 93 2100 270/04 RMK AO2 LTG DSNT ALQDS P0000 T02390228
04850KAOH AOH20160718040515307/18/16 04:05:31  5-MIN KAOH 180905Z AUTO 26005KT 9SM VCTS -RA BKN021 OVC039 24/23 A3009 820 97 2100 270/05 RMK AO2 LTG DSNT ALQDS TSE05 P0001 T02390233
04850KAOH AOH20160718041015307/18/16 04:10:31  5-MIN KAOH 180910Z AUTO 27005KT 9SM VCTS -RA BKN021 OVC032 24/23 A3009 820 97 2100 270/05 RMK AO2 LTG DSNT ALQDS TSE05 P0001 T02390233
04850KAOH AOH20160718041515307/18/16 04:15:31  5-MIN KAOH 180915Z AUTO 27006KT 9SM -TSRA BKN019 OVC025 24/23 A3009 820 97 2100 270/06 RMK AO2 LTG DSNT ALQDS TSE05B15 P0001 T02390233
04850KAOH AOH20160718042015307/18/16 04:20:31  5-MIN KAOH 180920Z AUTO 28008KT 8SM -TSRA BKN019 OVC025 24/23 A3010 810 97 2100 280/08 RMK AO2 LTG DSNT ALQDS TSE05B15 P0002 T02390233
04850KAOH AOH20160718042516007/18/16 04:25:31  5-MIN KAOH 180925Z AUTO 27009KT 7SM -TSRA BKN019 BKN025 BKN100 24/23 A3010 810 97 2100 280/09 RMK AO2 LTG DSNT ALQDS TSE05B15 P0002 T02390233
04850KAOH AOH20160718043017207/18/16 04:30:31  5-MIN KAOH 180930Z AUTO 26014G18KT 7SM VCTS -RA SCT019 SCT025 BKN100 24/23 A3010 810 93 2100 270/14G18 RMK AO2 LTG DSNT ALQDS TSE05B15E30 P0003 T02440233
04850KAOH AOH20160718043515907/18/16 04:35:31  5-MIN KAOH 180935Z AUTO 26010KT 8SM VCTS -RA FEW019 SCT024 24/23 A3010 810 93 2100 260/10 RMK AO2 LTG DSNT ALQDS TSE05B15E30 P0003 T02440233
04850KAOH AOH20160718044015407/18/16 04:40:31  5-MIN KAOH 180940Z AUTO 24013KT 9SM -RA FEW017 FEW024 24/23 A3009 820 93 2100 250/13 RMK AO2 LTG DSNT ALQDS TSE05B15E30 P0003 T02390228
04850KAOH AOH20160718044515407/18/16 04:45:31  5-MIN KAOH 180945Z AUTO 24017G23KT 10SM -RA FEW017 24/23 A3009 820 93 2100 240/17G23 RMK AO2 LTG DSNT ALQDS TSE05B15E30 P0004 T02390228
04850KAOH AOH20160718045015507/18/16 04:50:31  5-MIN KAOH 180950Z AUTO 25018KT 10SM -RA SCT120 23/22 A3010 810 90 2000 250/18 RMK AO2 LTG DSNT ALQDS TSE05B15E30 SLP184 P0004 T02330217
04850KAOH AOH20160718045515907/18/16 04:55:31  5-MIN KAOH 180955Z AUTO 25023G32KT 10SM RA SCT120 23/22 A3010 810 90 2000 250/23G32 RMK AO2 PK WND 25032/0955 LTG DSNT ALQDS P0001 T02330217
04850KAOH AOH20160718050015907/18/16 05:00:31  5-MIN KAOH 181000Z AUTO 24024G33KT 10SM RA BKN110 22/21 A3010 810 90 1900 250/24G33 RMK AO2 PK WND 24033/0956 LTG DSNT ALQDS P0002 T02220206
04850KAOH AOH20160718050517107/18/16 05:05:31  5-MIN KAOH 181005Z AUTO 24023G33KT 10SM VCTS RA SCT100 BKN120 22/21 A3009 820 93 1800 250/23G33 RMK AO2 PK WND 24033/0956 LTG DSNT ALQDS P0003 T02170206
04850KAOH AOH20160718051017007/18/16 05:10:31  5-MIN KAOH 181010Z AUTO 24024G30KT 10SM VCTS RA SCT100 BKN120 22/21 A3009 820 90 1900 240/24G30 RMK AO2 PK WND 24033/0956 LTG DSNT SE-W P0005 T02220206
04850KAOH AOH20160718051516907/18/16 05:15:31  5-MIN KAOH 181015Z AUTO 24022G32KT 4SM VCTS RA BKN095 BKN120 23/19 A3009 820 81 2000 240/22G32 RMK AO2 PK WND 24033/0956 LTG DSNT SE-W P0006 T02280194
04850KAOH AOH20160718052016907/18/16 05:20:31  5-MIN KAOH 181020Z AUTO 23020G32KT 4SM VCTS RA BKN100 BKN120 23/19 A3008 830 78 2000 230/20G32 RMK AO2 PK WND 24033/0956 LTG DSNT SE-W P0008 T02280189
04850KAOH AOH20160718052518007/18/16 05:25:31  5-MIN KAOH 181025Z AUTO 22017G26KT 8SM VCTS RA BKN100 BKN120 22/19 A3007 840 81 1900 230/17G26 RMK AO2 PK WND 24033/0956 LTG DSNT SE AND S PRESFR P0009 T02220189
04850KAOH AOH20160718053017707/18/16 05:30:31  5-MIN KAOH 181030Z AUTO 21017G25KT 10SM -RA BKN100 BKN120 22/18 A3006 850 78 1900 220/17G25 RMK AO2 PK WND 24033/0956 LTG DSNT SE AND S PRESFR P0010 T02220183
04850KAOH AOH20160718053517007/18/16 05:35:31  5-MIN KAOH 181035Z AUTO 21017G23KT 10SM -RA SCT100 BKN120 22/18 A3006 850 78 1900 220/17G23 RMK AO2 PK WND 24033/0956 LTG DSNT SE AND S P0010 T02220183
04850KAOH AOH20160718054015707/18/16 05:40:31  5-MIN KAOH 181040Z AUTO 21020G26KT 10SM -RA BKN110 22/18 A3005 850 78 1900 220/20G26 RMK AO2 PK WND 24033/0956 LTG DSNT SE P0011 T02220183
04850KAOH AOH20160718054516307/18/16 05:45:31  5-MIN KAOH 181045Z AUTO 20016G29KT 10SM -RA BKN110 23/18 A3004 860 73 2000 210/16G29 RMK AO2 PK WND 24033/0956 LTG DSNT S PRESFR P0011 T02280178
04850KAOH AOH20160718055016307/18/16 05:50:31  5-MIN KAOH 181050Z AUTO 21016G29KT 10SM -RA SCT110 22/18 A3005 860 78 1900 210/16G29 RMK AO2 PK WND 24033/0956 LTG DSNT S SLP168 P0012 T02220183
04850KAOH AOH20160718055513807/18/16 05:55:31  5-MIN KAOH 181055Z AUTO 21017G24KT 10SM -RA FEW110 22/18 A3005 850 81 1900 210/17G24 RMK AO2 LTG DSNT S P0000 T02170183
04850KAOH AOH20160718060013807/18/16 06:00:31  5-MIN KAOH 181100Z AUTO 21019G24KT 10SM -RA FEW110 22/18 A3006 850 81 1900 220/19G24 RMK AO2 LTG DSNT S P0000 T02170183
04850KAOH AOH20160718060515607/18/16 06:05:31  5-MIN KAOH 181105Z AUTO 21018G26KT 10SM -RA FEW120 22/18 A3006 850 81 1900 220/18G26 RMK AO2 PK WND 21026/1103 LTG DSNT S P0000 T02170183
04850KAOH AOH20160718061014507/18/16 06:10:31  5-MIN KAOH 181110Z AUTO 20019G26KT 10SM -RA FEW110 22/18 A3005 850 81 1900 210/19G26 RMK AO2 PK WND 21026/1103 P0001 T02170183
04850KAOH AOH20160718061515207/18/16 06:15:31  5-MIN KAOH 181115Z AUTO 20011G25KT 10SM -RA FEW100 SCT120 22/18 A3006 850 81 1900 200/11G25 RMK AO2 PK WND 21026/1103 P0001 T02170183
04850KAOH AOH20160718062014607/18/16 06:20:31  5-MIN KAOH 181120Z AUTO 21011KT 10SM -RA FEW090 SCT110 22/18 A3008 830 78 1900 220/11 RMK AO2 PK WND 21026/1103 P0001 T02220183
04850KAOH AOH20160718062516507/18/16 06:25:31  5-MIN KAOH 181125Z AUTO 20012KT 10SM -RA FEW090 SCT110 22/18 A3009 820 81 1800 210/12 RMK AO2 PK WND 21026/1103 LTG DSNT SE PRESRR P0001 T02170183
04850KAOH AOH20160718063017307/18/16 06:30:31  5-MIN KAOH 181130Z AUTO VRB06KT 10SM FEW090 FEW110 22/18 A3010 810 81 1800 VRB/06 RMK AO2 PK WND 21026/1103 LTG DSNT SE AND S RAE29 PRESRR P0001 T02170183
04850KAOH AOH20160718063517307/18/16 06:35:31  5-MIN KAOH 181135Z AUTO VRB03KT 10SM FEW090 FEW100 21/19 A3011 800 87 1700 VRB/03 RMK AO2 PK WND 21026/1103 LTG DSNT SE AND S RAE29 PRESRR P0001 T02110189
04850KAOH AOH20160718064016607/18/16 06:40:31  5-MIN KAOH 181140Z AUTO 17005KT 10SM FEW090 FEW110 22/19 A3010 810 84 1800 180/05 RMK AO2 PK WND 21026/1103 LTG DSNT SE AND S RAE29 P0001 T02170189
04850KAOH AOH20160718064512807/18/16 06:45:31  5-MIN KAOH 181145Z AUTO 10SM CLR 21/19 A3011 800 87 1700 M /M RMK AO2 PK WND 21026/1103 RAE29 P0001 T02110189
04850KAOH AOH20160718065017507/18/16 06:50:31  5-MIN KAOH 181150Z AUTO 34008KT 10SM CLR 21/19 A3012 790 87 1700 340/08 RMK AO2 PK WND 21026/1103 RAE29 SLP191 P0001 60028 70028 T02110189 10256 20211 52006
04850KAOH AOH20160718065510807/18/16 06:55:31  5-MIN KAOH 181155Z AUTO 33004KT 10SM CLR 21/19 A3012 790 87 1700 330/04 RMK AO2 T02110189
04850KAOH AOH20160718070010807/18/16 07:00:31  5-MIN KAOH 181200Z AUTO 32003KT 10SM CLR 21/19 A3012 790 90 1700 330/03 RMK AO2 T02110194
04850KAOH AOH20160718070511507/18/16 07:05:31  5-MIN KAOH 181205Z AUTO 32004KT 10SM CLR 21/19 A3014 780 90 1700 330/04 RMK AO2 PRESRR T02110194
04850KAOH AOH20160718071010807/18/16 07:10:31  5-MIN KAOH 181210Z AUTO 23005KT 10SM CLR 21/19 A3014 770 90 1700 240/05 RMK AO2 T02110194
04850KAOH AOH20160718071511507/18/16 07:15:31  5-MIN KAOH 181215Z AUTO 27006KT 10SM CLR 21/19 A3015 770 87 1700 270/06 RMK AO2 PRESRR T02110189
04850KAOH AOH20160718072010807/18/16 07:20:31  5-MIN KAOH 181220Z AUTO 27006KT 10SM CLR 21/19 A3015 760 90 1700 280/06 RMK AO2 T02110194
04850KAOH AOH20160718072510807/18/16 07:25:31  5-MIN KAOH 181225Z AUTO 28005KT 10SM CLR 21/19 A3016 760 93 1600 290/05 RMK AO2 T02060194
04850KAOH AOH20160718073010807/18/16 07:30:31  5-MIN KAOH 181230Z AUTO 25004KT 10SM CLR 21/19 A3015 770 93 1600 260/04 RMK AO2 T02060194
04850KAOH AOH20160718073510807/18/16 07:35:31  5-MIN KAOH 181235Z AUTO 24004KT 10SM CLR 21/19 A3015 770 90 1700 250/04 RMK AO2 T02110194
04850KAOH AOH20160718074010807/18/16 07:40:31  5-MIN KAOH 181240Z AUTO 22003KT 10SM CLR 21/20 A3015 770 93 1700 230/03 RMK AO2 T02110200
04850KAOH AOH20160718074510807/18/16 07:45:31  5-MIN KAOH 181245Z AUTO 26004KT 10SM CLR 21/19 A3015 760 90 1700 260/04 RMK AO2 T02110194
04850KAOH AOH20160718075011507/18/16 07:50:31  5-MIN KAOH 181250Z AUTO 25004KT 10SM CLR 21/20 A3015 770 93 1700 260/04 RMK AO2 SLP202 T02110200
04850KAOH AOH20160718075510807/18/16 07:55:31  5-MIN KAOH 181255Z AUTO 25004KT 10SM CLR 21/20 A3015 760 93 1700 260/04 RMK AO2 T02110200
04850KAOH AOH20160718080010807/18/16 08:00:31  5-MIN KAOH 181300Z AUTO 25004KT 10SM CLR 21/20 A3015 760 93 1700 250/04 RMK AO2 T02110200
04850KAOH AOH20160718080510807/18/16 08:05:31  5-MIN KAOH 181305Z AUTO 23004KT 10SM CLR 21/20 A3015 760 93 1700 240/04 RMK AO2 T02110200
04850KAOH AOH20160718081010807/18/16 08:10:31  5-MIN KAOH 181310Z AUTO 22003KT 10SM CLR 21/20 A3015 760 93 1700 230/03 RMK AO2 T02110200
04850KAOH AOH20160718081510807/18/16 08:15:31  5-MIN KAOH 181315Z AUTO 00000KT 10SM CLR 21/20 A3015 760 93 1700 000/00 RMK AO2 T02110200
04850KAOH AOH20160718082010807/18/16 08:20:31  5-MIN KAOH 181320Z AUTO 26003KT 10SM CLR 21/20 A3016 760 93 1700 260/03 RMK AO2 T02110200
04850KAOH AOH20160718082510807/18/16 08:25:31  5-MIN KAOH 181325Z AUTO 25003KT 10SM CLR 21/20 A3016 760 93 1700 260/03 RMK AO2 T02110200
04850KAOH AOH20160718083010807/18/16 08:30:31  5-MIN KAOH 181330Z AUTO 27003KT 10SM CLR 21/20 A3016 760 93 1700 270/03 RMK AO2 T02110200
04850KAOH AOH20160718083510807/18/16 08:35:31  5-MIN KAOH 181335Z AUTO 00000KT 10SM CLR 21/20 A3016 760 93 1700 000/00 RMK AO2 T02110200
04850KAOH AOH20160718084010807/18/16 08:40:31  5-MIN KAOH 181340Z AUTO 00000KT 10SM CLR 22/20 A3016 760 90 1800 000/00 RMK AO2 T02170200
04850KAOH AOH20160718084510807/18/16 08:45:31  5-MIN KAOH 181345Z AUTO 31003KT 10SM CLR 22/20 A3016 760 90 1800 320/03 RMK AO2 T02170200
04850KAOH AOH20160718085011507/18/16 08:50:31  5-MIN KAOH 181350Z AUTO 30004KT 10SM CLR 22/20 A3016 760 90 1700 310/04 RMK AO2 SLP206 T02170200
04850KAOH AOH20160718085510807/18/16 08:55:31  5-MIN KAOH 181355Z AUTO 29004KT 10SM CLR 22/20 A3016 760 90 1700 300/04 RMK AO2 T02170200
04850KAOH AOH20160718090010807/18/16 09:00:31  5-MIN KAOH 181400Z AUTO 28004KT 10SM CLR 22/20 A3016 760 90 1800 290/04 RMK AO2 T02170200
04850KAOH AOH20160718090510807/18/16 09:05:31  5-MIN KAOH 181405Z AUTO 28005KT 10SM CLR 22/20 A3016 760 87 1800 280/05 RMK AO2 T02220200
04850KAOH AOH20160718091010807/18/16 09:10:31  5-MIN KAOH 181410Z AUTO 28005KT 10SM CLR 22/20 A3016 760 87 1800 280/05 RMK AO2 T02220200
04850KAOH AOH20160718091510807/18/16 09:15:31  5-MIN KAOH 181415Z AUTO 25005KT 10SM CLR 22/21 A3015 760 90 1800 260/05 RMK AO2 T02220206
04850KAOH AOH20160718092010807/18/16 09:20:31  5-MIN KAOH 181420Z AUTO 25006KT 10SM CLR 23/21 A3016 760 87 1900 250/06 RMK AO2 T02280206
04850KAOH AOH20160718092510807/18/16 09:25:31  5-MIN KAOH 181425Z AUTO 26008KT 10SM CLR 23/21 A3015 760 87 1900 270/08 RMK AO2 T02280206
04850KAOH AOH20160718093010807/18/16 09:30:31  5-MIN KAOH 181430Z AUTO 27008KT 10SM CLR 23/20 A3016 760 84 1900 280/08 RMK AO2 T02280200
04850KAOH AOH20160718093510807/18/16 09:35:31  5-MIN KAOH 181435Z AUTO 27008KT 10SM CLR 23/20 A3016 760 84 1900 270/08 RMK AO2 T02280200
04850KAOH AOH20160718094010807/18/16 09:40:31  5-MIN KAOH 181440Z AUTO 27007KT 10SM CLR 23/20 A3016 750 81 1900 280/07 RMK AO2 T02330200
04850KAOH AOH20160718094510807/18/16 09:45:31  5-MIN KAOH 181445Z AUTO 27007KT 10SM CLR 23/20 A3016 750 81 1900 270/07 RMK AO2 T02330200
04850KAOH AOH20160718095012107/18/16 09:50:31  5-MIN KAOH 181450Z AUTO 26009KT 10SM CLR 23/20 A3016 760 81 1900 270/09 RMK AO2 SLP205 T02330200 53009
04850KAOH AOH20160718095510807/18/16 09:55:31  5-MIN KAOH 181455Z AUTO 26010KT 10SM CLR 23/19 A3016 750 78 1900 270/10 RMK AO2 T02330194
04850KAOH AOH20160718100010807/18/16 10:00:31  5-MIN KAOH 181500Z AUTO 26010KT 10SM CLR 23/20 A3016 760 81 1900 260/10 RMK AO2 T02330200
04850KAOH AOH20160718100510807/18/16 10:05:31  5-MIN KAOH 181505Z AUTO 27009KT 10SM CLR 23/20 A3016 760 81 1900 280/09 RMK AO2 T02330200
04850KAOH AOH20160718101010807/18/16 10:10:31  5-MIN KAOH 181510Z AUTO 27010KT 10SM CLR 24/20 A3016 760 78 2000 280/10 RMK AO2 T02390200
04850KAOH AOH20160718101510807/18/16 10:15:31  5-MIN KAOH 181515Z AUTO 27010KT 10SM CLR 24/20 A3016 750 78 2000 270/10 RMK AO2 T02390200
04850KAOH AOH20160718102010807/18/16 10:20:31  5-MIN KAOH 181520Z AUTO 28012KT 10SM CLR 24/20 A3016 750 78 2000 280/12 RMK AO2 T02390200
04850KAOH AOH20160718102510807/18/16 10:25:31  5-MIN KAOH 181525Z AUTO 27008KT 10SM CLR 24/20 A3017 750 76 2100 280/08 RMK AO2 T02440200
04850KAOH AOH20160718103010807/18/16 10:30:31  5-MIN KAOH 181530Z AUTO 26009KT 10SM CLR 24/21 A3017 750 78 2100 260/09 RMK AO2 T02440206
04850KAOH AOH20160718103510807/18/16 10:35:31  5-MIN KAOH 181535Z AUTO 26010KT 10SM CLR 25/21 A3017 750 76 2100 260/10 RMK AO2 T02500206
04850KAOH AOH20160718104010807/18/16 10:40:31  5-MIN KAOH 181540Z AUTO 26011KT 10SM CLR 25/21 A3017 750 76 2100 270/11 RMK AO2 T02500206
04850KAOH AOH20160718104510807/18/16 10:45:31  5-MIN KAOH 181545Z AUTO 27011KT 10SM CLR 24/20 A3017 750 76 2100 270/11 RMK AO2 T02440200
04850KAOH AOH20160718105011507/18/16 10:50:31  5-MIN KAOH 181550Z AUTO 28010KT 10SM CLR 25/20 A3017 750 73 2100 290/10 RMK AO2 SLP208 T02500200
04850KAOH AOH20160718105510807/18/16 10:55:31  5-MIN KAOH 181555Z AUTO 27012KT 10SM CLR 26/21 A3017 750 73 2200 280/12 RMK AO2 T02560206
04850KAOH AOH20160718110010807/18/16 11:00:31  5-MIN KAOH 181600Z AUTO 27010KT 10SM CLR 26/21 A3017 750 73 2200 280/10 RMK AO2 T02560206
04850KAOH AOH20160718110510807/18/16 11:05:31  5-MIN KAOH 181605Z AUTO 26011KT 10SM CLR 26/20 A3017 750 71 2200 270/11 RMK AO2 T02560200
04850KAOH AOH20160718111010807/18/16 11:10:31  5-MIN KAOH 181610Z AUTO 26010KT 10SM CLR 26/21 A3017 740 73 2200 270/10 RMK AO2 T02560206
04850KAOH AOH20160718111510807/18/16 11:15:31  5-MIN KAOH 181615Z AUTO 26009KT 10SM CLR 26/21 A3017 740 73 2200 270/09 RMK AO2 T02560206
04850KAOH AOH20160718112010807/18/16 11:20:31  5-MIN KAOH 181620Z AUTO 27008KT 10SM CLR 26/21 A3018 740 71 2200 270/08 RMK AO2 T02610206
04850KAOH AOH20160718112510807/18/16 11:25:31  5-MIN KAOH 181625Z AUTO 24011KT 10SM CLR 26/21 A3017 740 71 2200 250/11 RMK AO2 T02610206
04850KAOH AOH20160718113010807/18/16 11:30:31  5-MIN KAOH 181630Z AUTO 26011KT 10SM CLR 26/21 A3017 750 71 2200 270/11 RMK AO2 T02610206
04850KAOH AOH20160718113510807/18/16 11:35:31  5-MIN KAOH 181635Z AUTO 27010KT 10SM CLR 27/21 A3017 750 69 2300 280/10 RMK AO2 T02670206
04850KAOH AOH20160718114010807/18/16 11:40:31  5-MIN KAOH 181640Z AUTO 25009KT 10SM CLR 27/21 A3017 750 69 2300 250/09 RMK AO2 T02670206
04850KAOH AOH20160718114510807/18/16 11:45:31  5-MIN KAOH 181645Z AUTO 26010KT 10SM CLR 27/21 A3017 750 71 2300 270/10 RMK AO2 T02670211
04850KAOH AOH20160718115011507/18/16 11:50:31  5-MIN KAOH 181650Z AUTO 27009KT 10SM CLR 27/21 A3017 750 71 2300 280/09 RMK AO2 SLP208 T02670211
04850KAOH AOH20160718115510807/18/16 11:55:31  5-MIN KAOH 181655Z AUTO 26009KT 10SM CLR 27/21 A3017 750 71 2300 260/09 RMK AO2 T02670211
04850KAOH AOH20160718120010807/18/16 12:00:31  5-MIN KAOH 181700Z AUTO 26010KT 10SM CLR 27/21 A3017 750 71 2300 270/10 RMK AO2 T02670211
04850KAOH AOH20160718120510807/18/16 12:05:31  5-MIN KAOH 181705Z AUTO 24014KT 10SM CLR 27/21 A3017 750 71 2300 250/14 RMK AO2 T02670211
04850KAOH AOH20160718121010807/18/16 12:10:31  5-MIN KAOH 181710Z AUTO 27013KT 10SM CLR 27/21 A3017 740 66 2400 270/13 RMK AO2 T02720206
04850KAOH AOH20160718121511407/18/16 12:15:31  5-MIN KAOH 181715Z AUTO 25014G19KT 10SM CLR 27/21 A3017 750 66 2400 260/14G19 RMK AO2 T02720206
04850KAOH AOH20160718122011407/18/16 12:20:31  5-MIN KAOH 181720Z AUTO 24011G19KT 10SM CLR 27/21 A3017 740 66 2400 240/11G19 RMK AO2 T02720206
04850KAOH AOH20160718122510807/18/16 12:25:31  5-MIN KAOH 181725Z AUTO 26013KT 10SM CLR 27/21 A3018 740 66 2400 260/13 RMK AO2 T02720206
04850KAOH AOH20160718123010807/18/16 12:30:31  5-MIN KAOH 181730Z AUTO 28012KT 10SM CLR 28/21 A3018 740 66 2400 280/12 RMK AO2 T02780211
04850KAOH AOH20160718123510807/18/16 12:35:31  5-MIN KAOH 181735Z AUTO 27014KT 10SM CLR 27/21 A3018 740 66 2400 280/14 RMK AO2 T02720206
04850KAOH AOH20160718124010807/18/16 12:40:31  5-MIN KAOH 181740Z AUTO 28013KT 10SM CLR 27/20 A3017 740 64 2400 290/13 RMK AO2 T02720200
04850KAOH AOH20160718124510807/18/16 12:45:31  5-MIN KAOH 181745Z AUTO 28012KT 10SM CLR 27/20 A3017 740 64 2400 280/12 RMK AO2 T02720200
04850KAOH AOH20160718125013307/18/16 12:50:31  5-MIN KAOH 181750Z AUTO 26011KT 10SM CLR 27/20 A3017 740 66 2300 270/11 RMK AO2 SLP209 T02670200 10278 20206 51014
04850KAOH AOH20160718125510807/18/16 12:55:31  5-MIN KAOH 181755Z AUTO 25012KT 10SM CLR 27/21 A3017 740 66 2400 260/12 RMK AO2 T02720206
04850KAOH AOH20160718130010807/18/16 13:00:31  5-MIN KAOH 181800Z AUTO 26011KT 10SM CLR 28/21 A3017 750 66 2400 270/11 RMK AO2 T02780211
04850KAOH AOH20160718130510807/18/16 13:05:31  5-MIN KAOH 181805Z AUTO 28014KT 10SM CLR 28/21 A3017 740 66 2400 290/14 RMK AO2 T02780211
04850KAOH AOH20160718131011407/18/16 13:10:31  5-MIN KAOH 181810Z AUTO 29013G18KT 10SM CLR 27/21 A3017 750 66 2400 290/13G18 RMK AO2 T02720206
04850KAOH AOH20160718131511407/18/16 13:15:31  5-MIN KAOH 181815Z AUTO 28014G18KT 10SM CLR 27/21 A3017 750 69 2400 280/14G18 RMK AO2 T02720211
04850KAOH AOH20160718132010807/18/16 13:20:31  5-MIN KAOH 181820Z AUTO 26012KT 10SM CLR 28/21 A3017 750 66 2400 270/12 RMK AO2 T02780211
04850KAOH AOH20160718132510807/18/16 13:25:31  5-MIN KAOH 181825Z AUTO 29013KT 10SM CLR 28/21 A3017 750 66 2400 300/13 RMK AO2 T02780211
04850KAOH AOH20160718133011407/18/16 13:30:31  5-MIN KAOH 181830Z AUTO 30012G19KT 10SM CLR 27/21 A3017 750 69 2400 300/12G19 RMK AO2 T02720211
04850KAOH AOH20160718133510807/18/16 13:35:31  5-MIN KAOH 181835Z AUTO 27012KT 10SM CLR 28/22 A3017 750 69 2400 270/12 RMK AO2 T02780217
04850KAOH AOH20160718134011107/18/16 13:40:31  5-MIN KAOH 181840Z AUTO 28012KT 10SM SCT033 28/22 A3017 750 69 2400 290/12 RMK AO2 T02780217
04850KAOH AOH20160718134511107/18/16 13:45:31  5-MIN KAOH 181845Z AUTO 29010KT 10SM SCT033 28/22 A3016 750 69 2400 290/10 RMK AO2 T02780217
04850KAOH AOH20160718135011807/18/16 13:50:31  5-MIN KAOH 181850Z AUTO 28010KT 10SM FEW032 28/22 A3016 750 69 2400 290/10 RMK AO2 SLP206 T02780217
04850KAOH AOH20160718135511107/18/16 13:55:31  5-MIN KAOH 181855Z AUTO 30012KT 10SM SCT032 28/22 A3016 750 69 2400 310/12 RMK AO2 T02780217
04850KAOH AOH20160718140011107/18/16 14:00:31  5-MIN KAOH 181900Z AUTO 29010KT 10SM SCT032 28/22 A3016 760 71 2400 290/10 RMK AO2 T02780222
04850KAOH AOH20160718140511107/18/16 14:05:31  5-MIN KAOH 181905Z AUTO 29011KT 10SM SCT033 28/22 A3016 760 69 2400 290/11 RMK AO2 T02780217
04850KAOH AOH20160718141011107/18/16 14:10:31  5-MIN KAOH 181910Z AUTO 29011KT 10SM SCT033 28/22 A3016 760 71 2400 300/11 RMK AO2 T02780222
04850KAOH AOH20160718141511107/18/16 14:15:31  5-MIN KAOH 181915Z AUTO 29011KT 10SM BKN033 27/22 A3016 750 71 2400 300/11 RMK AO2 T02720217
04850KAOH AOH20160718142011107/18/16 14:20:31  5-MIN KAOH 181920Z AUTO 27012KT 10SM BKN033 28/22 A3016 750 69 2400 280/12 RMK AO2 T02780217
04850KAOH AOH20160718142511107/18/16 14:25:31  5-MIN KAOH 181925Z AUTO 28010KT 10SM BKN035 28/22 A3016 750 69 2400 290/10 RMK AO2 T02780217
04850KAOH AOH20160718143011107/18/16 14:30:31  5-MIN KAOH 181930Z AUTO 28011KT 10SM BKN035 28/22 A3016 760 69 2500 290/11 RMK AO2 T02830222
04850KAOH AOH20160718143511107/18/16 14:35:31  5-MIN KAOH 181935Z AUTO 27012KT 10SM BKN037 28/22 A3016 760 69 2500 270/12 RMK AO2 T02830222
04850KAOH AOH20160718144011107/18/16 14:40:31  5-MIN KAOH 181940Z AUTO 28009KT 10SM SCT037 28/22 A3016 760 69 2400 290/09 RMK AO2 T02780217
04850KAOH AOH20160718144511107/18/16 14:45:31  5-MIN KAOH 181945Z AUTO 29012KT 10SM SCT037 28/23 A3016 760 71 2500 300/12 RMK AO2 T02830228
04850KAOH AOH20160718145011807/18/16 14:50:31  5-MIN KAOH 181950Z AUTO 29009KT 10SM FEW037 28/22 A3016 760 71 2400 300/09 RMK AO2 SLP203 T02780222
04850KAOH AOH20160718145511107/18/16 14:55:31  5-MIN KAOH 181955Z AUTO 30008KT 10SM FEW039 28/22 A3015 760 71 2400 300/08 RMK AO2 T02780222
04850KAOH AOH20160718150011107/18/16 15:00:31  5-MIN KAOH 182000Z AUTO 31006KT 10SM FEW034 28/23 A3015 770 71 2500 310/06 RMK AO2 T02830228
04850KAOH AOH20160718150511107/18/16 15:05:31  5-MIN KAOH 182005Z AUTO 28012KT 10SM SCT034 28/23 A3015 770 71 2500 290/12 RMK AO2 T02830228
04850KAOH AOH20160718151011107/18/16 15:10:31  5-MIN KAOH 182010Z AUTO 27011KT 10SM FEW032 28/22 A3015 760 69 2500 280/11 RMK AO2 T02830222
04850KAOH AOH20160718151511107/18/16 15:15:31  5-MIN KAOH 182015Z AUTO 27011KT 10SM FEW034 28/22 A3015 760 69 2500 270/11 RMK AO2 T02830222
04850KAOH AOH20160718152011107/18/16 15:20:31  5-MIN KAOH 182020Z AUTO 28009KT 10SM SCT034 28/22 A3014 770 69 2500 290/09 RMK AO2 T02830222
04850KAOH AOH20160718152511807/18/16 15:25:31  5-MIN KAOH 182025Z AUTO 29009KT 10SM SCT034 SCT040 28/22 A3014 770 69 2500 290/09 RMK AO2 T02830222
04850KAOH AOH20160718153011107/18/16 15:30:31  5-MIN KAOH 182030Z AUTO 28008KT 10SM SCT036 28/22 A3015 770 71 2500 290/08 RMK AO2 T02780222
04850KAOH AOH20160718153511107/18/16 15:35:31  5-MIN KAOH 182035Z AUTO 27008KT 10SM SCT036 27/22 A3015 770 74 2400 280/08 RMK AO2 T02720222
04850KAOH AOH20160718154011107/18/16 15:40:31  5-MIN KAOH 182040Z AUTO 29008KT 10SM BKN036 27/22 A3014 770 74 2400 290/08 RMK AO2 T02720222
04850KAOH AOH20160718154511107/18/16 15:45:31  5-MIN KAOH 182045Z AUTO 29008KT 10SM SCT033 27/22 A3014 770 74 2400 300/08 RMK AO2 T02720222
04850KAOH AOH20160718155012407/18/16 15:50:31  5-MIN KAOH 182050Z AUTO 28007KT 10SM FEW035 27/23 A3014 770 76 2400 290/07 RMK AO2 SLP199 T02720228 51004
04850KAOH AOH20160718155511807/18/16 15:55:31  5-MIN KAOH 182055Z AUTO 29008KT 10SM FEW032 FEW039 27/22 A3014 780 74 2400 300/08 RMK AO2 T02720222
04850KAOH AOH20160718160011807/18/16 16:00:31  5-MIN KAOH 182100Z AUTO 29008KT 10SM FEW034 SCT041 27/22 A3014 780 74 2400 290/08 RMK AO2 T02720222
04850KAOH AOH20160718160511107/18/16 16:05:31  5-MIN KAOH 182105Z AUTO 29005KT 10SM SCT034 27/22 A3013 780 74 2400 290/05 RMK AO2 T02720222
04850KAOH AOH20160718161011107/18/16 16:10:31  5-MIN KAOH 182110Z AUTO 28009KT 10SM SCT033 27/22 A3013 780 74 2400 280/09 RMK AO2 T02720222
04850KAOH AOH20160718161511807/18/16 16:15:31  5-MIN KAOH 182115Z AUTO 28010KT 10SM SCT030 SCT037 28/22 A3013 780 71 2500 280/10 RMK AO2 T02780222
04850KAOH AOH20160718162011807/18/16 16:20:31  5-MIN KAOH 182120Z AUTO 28008KT 10SM FEW030 SCT037 28/22 A3013 780 69 2500 290/08 RMK AO2 T02780217
04850KAOH AOH20160718162511807/18/16 16:25:31  5-MIN KAOH 182125Z AUTO 27009KT 10SM FEW030 SCT037 27/22 A3013 780 74 2400 280/09 RMK AO2 T02720222
04850KAOH AOH20160718163011107/18/16 16:30:31  5-MIN KAOH 182130Z AUTO 27008KT 10SM SCT030 28/22 A3014 780 71 2500 280/08 RMK AO2 T02780222
04850KAOH AOH20160718163511107/18/16 16:35:31  5-MIN KAOH 182135Z AUTO 28009KT 10SM SCT030 28/22 A3014 780 71 2500 290/09 RMK AO2 T02780222
04850KAOH AOH20160718164011107/18/16 16:40:31  5-MIN KAOH 182140Z AUTO 28010KT 10SM FEW030 27/22 A3014 780 74 2400 280/10 RMK AO2 T02720222
04850KAOH AOH20160718164511107/18/16 16:45:31  5-MIN KAOH 182145Z AUTO 29007KT 10SM FEW030 27/22 A3014 780 74 2400 300/07 RMK AO2 T02720222
04850KAOH AOH20160718165011807/18/16 16:50:31  5-MIN KAOH 182150Z AUTO 29010KT 10SM FEW030 27/22 A3014 780 71 2400 290/10 RMK AO2 SLP198 T02720217
04850KAOH AOH20160718165511107/18/16 16:55:31  5-MIN KAOH 182155Z AUTO 28008KT 10SM FEW030 27/22 A3014 780 71 2400 290/08 RMK AO2 T02720217
04850KAOH AOH20160718170010807/18/16 17:00:31  5-MIN KAOH 182200Z AUTO 28007KT 10SM CLR 27/22 A3014 770 76 2300 280/07 RMK AO2 T02670222
04850KAOH AOH20160718170511807/18/16 17:05:31  5-MIN KAOH 182205Z AUTO 29006KT 10SM FEW033 FEW041 27/22 A3014 780 73 2300 290/06 RMK AO2 T02670217
04850KAOH AOH20160718171011807/18/16 17:10:31  5-MIN KAOH 182210Z AUTO 28007KT 10SM FEW033 SCT041 27/22 A3014 780 73 2300 290/07 RMK AO2 T02670217
04850KAOH AOH20160718171511807/18/16 17:15:31  5-MIN KAOH 182215Z AUTO 28009KT 10SM FEW032 SCT041 27/22 A3014 780 73 2300 280/09 RMK AO2 T02670217
04850KAOH AOH20160718172011807/18/16 17:20:31  5-MIN KAOH 182220Z AUTO 28008KT 10SM FEW032 SCT041 27/22 A3014 770 76 2300 280/08 RMK AO2 T02670222
04850KAOH AOH20160718172511807/18/16 17:25:31  5-MIN KAOH 182225Z AUTO 28009KT 10SM FEW032 SCT041 27/22 A3015 770 76 2300 290/09 RMK AO2 T02670222
04850KAOH AOH20160718173011807/18/16 17:30:31  5-MIN KAOH 182230Z AUTO 27008KT 10SM FEW032 BKN041 27/22 A3015 770 73 2300 270/08 RMK AO2 T02670217
04850KAOH AOH20160718173511107/18/16 17:35:31  5-MIN KAOH 182235Z AUTO 27011KT 10SM BKN041 27/22 A3015 770 76 2300 280/11 RMK AO2 T02670222
04850KAOH AOH20160718174011107/18/16 17:40:31  5-MIN KAOH 182240Z AUTO 27009KT 10SM BKN043 27/22 A3015 770 76 2300 270/09 RMK AO2 T02670222
04850KAOH AOH20160718174511107/18/16 17:45:31  5-MIN KAOH 182245Z AUTO 27008KT 10SM SCT041 26/22 A3015 770 79 2300 280/08 RMK AO2 T02610222
04850KAOH AOH20160718175012507/18/16 17:50:31  5-MIN KAOH 182250Z AUTO 27010KT 10SM FEW025 SCT041 26/22 A3014 770 79 2300 280/10 RMK AO2 SLP200 T02610222
04850KAOH AOH20160718175511807/18/16 17:55:31  5-MIN KAOH 182255Z AUTO 27012KT 10SM FEW025 BKN043 26/22 A3014 770 79 2300 280/12 RMK AO2 T02610222
04850KAOH AOH20160718180011807/18/16 18:00:31  5-MIN KAOH 182300Z AUTO 27010KT 10SM SCT024 BKN043 27/22 A3014 770 76 2300 270/10 RMK AO2 T02670222
04850KAOH AOH20160718180511807/18/16 18:05:31  5-MIN KAOH 182305Z AUTO 27009KT 10SM SCT024 SCT045 26/23 A3014 770 81 2300 280/09 RMK AO2 T02610228
04850KAOH AOH20160718181011807/18/16 18:10:31  5-MIN KAOH 182310Z AUTO 28010KT 10SM BKN025 BKN035 26/22 A3014 770 79 2300 280/10 RMK AO2 T02610222
04850KAOH AOH20160718181511107/18/16 18:15:31  5-MIN KAOH 182315Z AUTO 27011KT 10SM BKN025 26/22 A3014 770 79 2300 280/11 RMK AO2 T02610222
04850KAOH AOH20160718182011807/18/16 18:20:31  5-MIN KAOH 182320Z AUTO 28010KT 10SM BKN024 BKN032 26/22 A3014 780 79 2300 280/10 RMK AO2 T02610222
04850KAOH AOH20160718182511807/18/16 18:25:31  5-MIN KAOH 182325Z AUTO 28009KT 10SM BKN024 BKN032 26/22 A3014 770 79 2300 290/09 RMK AO2 T02610222
04850KAOH AOH20160718183011707/18/16 18:30:31  5-MIN KAOH 182330Z AUTO 28007G16KT 10SM BKN024 26/22 A3014 770 79 2300 290/07G16 RMK AO2 T02610222
04850KAOH AOH20160718183511107/18/16 18:35:31  5-MIN KAOH 182335Z AUTO 29010KT 10SM SCT024 26/22 A3014 770 79 2300 290/10 RMK AO2 T02610222
04850KAOH AOH20160718184011107/18/16 18:40:31  5-MIN KAOH 182340Z AUTO 28011KT 10SM SCT024 26/22 A3014 770 76 2300 290/11 RMK AO2 T02610217
04850KAOH AOH20160718184511107/18/16 18:45:31  5-MIN KAOH 182345Z AUTO 28011KT 10SM FEW024 26/22 A3014 770 79 2200 290/11 RMK AO2 T02560217
04850KAOH AOH20160718185013307/18/16 18:50:31  5-MIN KAOH 182350Z AUTO 29010KT 10SM CLR 26/22 A3014 770 79 2200 290/10 RMK AO2 SLP199 T02560217 10283 20256 58010
04850KAOH AOH20160718185510807/18/16 18:55:31  5-MIN KAOH 182355Z AUTO 28008KT 10SM CLR 26/22 A3014 780 79 2200 290/08 RMK AO2 T02560217
04850KAOH AOH20160718190010807/18/16 19:00:31  5-MIN KAOH 190000Z AUTO 29007KT 10SM CLR 26/22 A3014 780 79 2200 300/07 RMK AO2 T02560217
04850KAOH AOH20160718190510807/18/16 19:05:31  5-MIN KAOH 190005Z AUTO 29009KT 10SM CLR 25/22 A3014 780 81 2100 290/09 RMK AO2 T02500217
04850KAOH AOH20160718191010807/18/16 19:10:31  5-MIN KAOH 190010Z AUTO 29009KT 10SM CLR 25/22 A3014 780 81 2100 290/09 RMK AO2 T02500217
04850KAOH AOH20160718191510807/18/16 19:15:31  5-MIN KAOH 190015Z AUTO 28007KT 10SM CLR 25/22 A3014 780 81 2100 290/07 RMK AO2 T02500217
04850KAOH AOH20160718192010807/18/16 19:20:31  5-MIN KAOH 190020Z AUTO 29006KT 10SM CLR 25/22 A3014 770 81 2100 290/06 RMK AO2 T02500217
04850KAOH AOH20160718192510807/18/16 19:25:31  5-MIN KAOH 190025Z AUTO 28007KT 10SM CLR 25/22 A3014 770 81 2100 290/07 RMK AO2 T02500217
04850KAOH AOH20160719003511307/19/16 00:35:31  5-MIN KAOH 190535Z AUTO 28003KT 1/2SM FG CLR 21/21 A3020 720 100 1600 290/03 RMK AO2 T02110211
04850KAOH AOH20160719004011307/19/16 00:40:31  5-MIN KAOH 190540Z AUTO 00000KT 1/2SM FG CLR 21/21 A3020 720 100 1600 000/00 RMK AO2 T02110211
04850KAOH AOH20160719004511307/19/16 00:45:31  5-MIN KAOH 190545Z AUTO 00000KT 1/4SM FG CLR 21/21 A3019 720 100 1600 000/00 RMK AO2 T02060206
04850KAOH AOH20160719005010507/19/16 00:50:31  5-MIN KAOH 190550Z AUTO 00000KT 1/4SM FG VV002 20/20 A3019 730 100 1500 000/00 RMK AO2
04850KAOH AOH20160719005511507/19/16 00:55:31  5-MIN KAOH 190555Z AUTO 00000KT 1/4SM FG VV002 20/20 A3019 730 100 1500 000/00 RMK AO2 T02000200
04850KAOH AOH20160719010011507/19/16 01:00:31  5-MIN KAOH 190600Z AUTO 00000KT 1/4SM FG VV002 19/19 A3020 720 100 1500 000/00 RMK AO2 T01940194
04850KAOH AOH20160719010511507/19/16 01:05:31  5-MIN KAOH 190605Z AUTO 00000KT 1/2SM FG VV002 21/21 A3020 720 100 1600 000/00 RMK AO2 T02060206
04850KAOH AOH20160719011012807/19/16 01:10:31  5-MIN KAOH 190610Z AUTO 00000KT 1 3/4SM BR SCT002 21/21 A3020 720 100 1600 000/00 RMK AO2 VIS 3/4V4 T02060206
04850KAOH AOH20160719011511407/19/16 01:15:31  5-MIN KAOH 190615Z AUTO 00000KT 3SM BR BKN002 21/21 A3020 720 100 1600 000/00 RMK AO2 T02060206
04850KAOH AOH20160719012011407/19/16 01:20:31  5-MIN KAOH 190620Z AUTO 00000KT 5SM BR SCT002 21/21 A3020 720 100 1600 000/00 RMK AO2 T02060206
04850KAOH AOH20160719012511407/19/16 01:25:31  5-MIN KAOH 190625Z AUTO 00000KT 5SM BR FEW002 21/21 A3020 720 100 1600 000/00 RMK AO2 T02060206
04850KAOH AOH20160719013011407/19/16 01:30:31  5-MIN KAOH 190630Z AUTO 00000KT 6SM BR FEW002 20/20 A3020 720 100 1500 000/00 RMK AO2 T02000200
04850KAOH AOH20160719013511407/19/16 01:35:31  5-MIN KAOH 190635Z AUTO 00000KT 5SM BR FEW002 19/19 A3020 720 100 1400 000/00 RMK AO2 T01940194
04850KAOH AOH20160719014011407/19/16 01:40:31  5-MIN KAOH 190640Z AUTO 00000KT 3SM BR FEW002 19/19 A3020 720 100 1400 000/00 RMK AO2 T01940194
04850KAOH AOH20160719014511007/19/16 01:45:31  5-MIN KAOH 190645Z AUTO 00000KT 3SM BR CLR 20/19 A3021 710 97 1500 000/00 RMK AO2 T02000194
04850KAOH AOH20160719015011707/19/16 01:50:31  5-MIN KAOH 190650Z AUTO 26003KT 1SM BR CLR 21/20 A3021 710 97 1600 270/03 RMK AO2 SLP221 T02060200
04850KAOH AOH20160719015511107/19/16 01:55:31  5-MIN KAOH 190655Z AUTO 00000KT 1SM BR CLR 20/20 A3021 710 100 1500 000/00 RMK AO2 T02000200
04850KAOH AOH20160719020011107/19/16 02:00:31  5-MIN KAOH 190700Z AUTO 25003KT 2SM BR CLR 20/20 A3021 710 100 1500 250/03 RMK AO2 T02000200
04850KAOH AOH20160719020511107/19/16 02:05:31  5-MIN KAOH 190705Z AUTO 26003KT 5SM BR CLR 20/20 A3021 710 100 1500 270/03 RMK AO2 T02000200
04850KAOH AOH20160719021011107/19/16 02:10:31  5-MIN KAOH 190710Z AUTO 00000KT 6SM BR CLR 20/20 A3021 710 100 1500 000/00 RMK AO2 T02000200
04850KAOH AOH20160719021510807/19/16 02:15:31  5-MIN KAOH 190715Z AUTO 00000KT 7SM CLR 19/19 A3021 710 100 1400 000/00 RMK AO2 T01940194
04850KAOH AOH20160719022011107/19/16 02:20:31  5-MIN KAOH 190720Z AUTO 00000KT 4SM BR CLR 19/19 A3021 710 100 1400 000/00 RMK AO2 T01890189
04850KAOH AOH20160719022511107/19/16 02:25:31  5-MIN KAOH 190725Z AUTO 25003KT 4SM BR CLR 19/19 A3021 710 100 1400 260/03 RMK AO2 T01940194
04850KAOH AOH20160719023011107/19/16 02:30:31  5-MIN KAOH 190730Z AUTO 25003KT 6SM BR CLR 19/19 A3021 710 100 1400 250/03 RMK AO2 T01890189
04850KAOH AOH20160719023510807/19/16 02:35:31  5-MIN KAOH 190735Z AUTO 25003KT 9SM CLR 19/19 A3021 710 100 1400 250/03 RMK AO2 T01940194
04850KAOH AOH20160719024010907/19/16 02:40:31  5-MIN KAOH 190740Z AUTO 25003KT 10SM CLR 19/19 A3021 710 100 1400 260/03 RMK AO2 T01940194
04850KAOH AOH20160719024510907/19/16 02:45:31  5-MIN KAOH 190745Z AUTO 00000KT 10SM CLR 19/19 A3021 710 100 1400 000/00 RMK AO2 T01940194
04850KAOH AOH20160719025011607/19/16 02:50:31  5-MIN KAOH 190750Z AUTO 23003KT 10SM CLR 19/19 A3021 710 100 1400 230/03 RMK AO2 SLP224 T01890189
04850KAOH AOH20160719025510907/19/16 02:55:31  5-MIN KAOH 190755Z AUTO 24003KT 10SM CLR 19/19 A3021 710 100 1400 250/03 RMK AO2 T01890189
04850KAOH AOH20160719030010907/19/16 03:00:31  5-MIN KAOH 190800Z AUTO 00000KT 10SM CLR 18/18 A3021 710 100 1300 000/00 RMK AO2 T01830183
04850KAOH AOH20160719030510907/19/16 03:05:31  5-MIN KAOH 190805Z AUTO 28003KT 10SM CLR 18/18 A3021 710 100 1200 290/03 RMK AO2 T01780178
04850KAOH AOH20160719031010907/19/16 03:10:31  5-MIN KAOH 190810Z AUTO 00000KT 10SM CLR 17/17 A3021 710 100 1200 000/00 RMK AO2 T01720172
04850KAOH AOH20160719031510807/19/16 03:15:31  5-MIN KAOH 190815Z AUTO 00000KT 9SM CLR 18/18 A3021 710 100 1200 000/00 RMK AO2 T01780178
04850KAOH AOH20160719032010807/19/16 03:20:31  5-MIN KAOH 190820Z AUTO 26003KT 8SM CLR 18/18 A3021 710 100 1200 270/03 RMK AO2 T01780178
04850KAOH AOH20160719032510707/19/16 03:25:31  5-MIN KAOH 190825Z AUTO 00000KT 7SM CLR 18/18 A3021 710 96 1300 000/00 RMK AO2 T01830178
04850KAOH AOH20160719033010807/19/16 03:30:31  5-MIN KAOH 190830Z AUTO 00000KT 7SM CLR 18/18 A3021 710 100 1300 000/00 RMK AO2 T01830183
04850KAOH AOH20160719033510807/19/16 03:35:31  5-MIN KAOH 190835Z AUTO 00000KT 8SM CLR 18/18 A3021 710 100 1300 000/00 RMK AO2 T01830183
04850KAOH AOH20160719034010807/19/16 03:40:31  5-MIN KAOH 190840Z AUTO 26003KT 9SM CLR 18/18 A3022 700 100 1200 260/03 RMK AO2 T01780178
04850KAOH AOH20160719034510907/19/16 03:45:31  5-MIN KAOH 190845Z AUTO 26003KT 10SM CLR 18/18 A3022 700 100 1200 270/03 RMK AO2 T01780178
04850KAOH AOH20160719035012207/19/16 03:50:31  5-MIN KAOH 190850Z AUTO 26003KT 10SM CLR 17/17 A3022 700 100 1200 260/03 RMK AO2 SLP227 T01720172 58001
04850KAOH AOH20160719035510807/19/16 03:55:31  5-MIN KAOH 190855Z AUTO 00000KT 9SM CLR 17/17 A3021 710 100 1200 000/00 RMK AO2 T01720172
04850KAOH AOH20160719040010807/19/16 04:00:31  5-MIN KAOH 190900Z AUTO 00000KT 9SM CLR 18/18 A3021 710 100 1200 000/00 RMK AO2 T01780178
04850KAOH AOH20160719040511107/19/16 04:05:31  5-MIN KAOH 190905Z AUTO 00000KT 5SM BR CLR 17/17 A3021 710 100 1200 000/00 RMK AO2 T01720172
04850KAOH AOH20160719041011507/19/16 04:10:31  5-MIN KAOH 190910Z AUTO 28003KT 2 1/2SM BR CLR 17/17 A3022 710 100 1200 280/03 RMK AO2 T01720172
04850KAOH AOH20160719041511907/19/16 04:15:31  5-MIN KAOH 190915Z AUTO 00000KT 2SM BR CLR 17/17 A3022 700 100 1100 000/00 RMK AO2 VIS 1V4 T01670167
04850KAOH AOH20160719042011507/19/16 04:20:31  5-MIN KAOH 190920Z AUTO 00000KT 2 1/2SM BR CLR 17/17 A3022 700 100 1200 000/00 RMK AO2 T01720172
04850KAOH AOH20160719042511507/19/16 04:25:31  5-MIN KAOH 190925Z AUTO 00000KT 1 1/4SM BR CLR 17/17 A3022 700 100 1200 000/00 RMK AO2 T01720172
04850KAOH AOH20160719043011507/19/16 04:30:31  5-MIN KAOH 190930Z AUTO 00000KT 1 1/2SM BR CLR 18/18 A3022 700 100 1200 000/00 RMK AO2 T01780178
04850KAOH AOH20160719043510807/19/16 04:35:31  5-MIN KAOH 190935Z AUTO 00000KT 7SM CLR 17/17 A3022 700 100 1200 000/00 RMK AO2 T01720172
04850KAOH AOH20160719044010907/19/16 04:40:31  5-MIN KAOH 190940Z AUTO 00000KT 10SM CLR 18/18 A3022 700 100 1200 000/00 RMK AO2 T01780178
04850KAOH AOH20160719044510807/19/16 04:45:31  5-MIN KAOH 190945Z AUTO 00000KT 10SM CLR 18/17 A3022 700 96 1200 000/00 RMK AO2 T01780172
04850KAOH AOH20160719045011507/19/16 04:50:31  5-MIN KAOH 190950Z AUTO 00000KT 9SM CLR 17/17 A3022 700 100 1200 000/00 RMK AO2 SLP229 T01720172
04850KAOH AOH20160719045510807/19/16 04:55:31  5-MIN KAOH 190955Z AUTO 00000KT 7SM CLR 17/17 A3022 700 100 1200 000/00 RMK AO2 T01720172
04850KAOH AOH20160719050011107/19/16 05:00:31  5-MIN KAOH 191000Z AUTO 00000KT 6SM BR CLR 17/17 A3023 700 100 1200 000/00 RMK AO2 T01720172
04850KAOH AOH20160719050511107/19/16 05:05:31  5-MIN KAOH 191005Z AUTO 00000KT 6SM BR CLR 17/17 A3023 700 100 1200 000/00 RMK AO2 T01720172
04850KAOH AOH20160719051010807/19/16 05:10:31  5-MIN KAOH 191010Z AUTO 00000KT 7SM CLR 17/17 A3023 690 100 1100 000/00 RMK AO2 T01670167
04850KAOH AOH20160719051510707/19/16 05:15:31  5-MIN KAOH 191015Z AUTO 00000KT 9SM CLR 17/17 A3023 690 96 1200 000/00 RMK AO2 T01720167
04850KAOH AOH20160719052011007/19/16 05:20:31  5-MIN KAOH 191020Z AUTO 00000KT 6SM BR CLR 17/17 A3023 690 96 1200 000/00 RMK AO2 T01720167
04850KAOH AOH20160719052511107/19/16 05:25:31  5-MIN KAOH 191025Z AUTO 00000KT 5SM BR CLR 17/17 A3023 690 100 1200 000/00 RMK AO2 T01720172
04850KAOH AOH20160719053010707/19/16 05:30:31  5-MIN KAOH 191030Z AUTO 00000KT 8SM CLR 17/17 A3023 690 96 1200 000/00 RMK AO2 T01720167
04850KAOH AOH20160719053510807/19/16 05:35:31  5-MIN KAOH 191035Z AUTO 00000KT 8SM CLR 17/17 A3023 690 100 1100 000/00 RMK AO2 T01670167
04850KAOH AOH20160719054010807/19/16 05:40:31  5-MIN KAOH 191040Z AUTO 00000KT 8SM CLR 17/17 A3023 690 100 1100 000/00 RMK AO2 T01670167
04850KAOH AOH20160719054510807/19/16 05:45:31  5-MIN KAOH 191045Z AUTO 00000KT 9SM CLR 17/17 A3023 690 100 1100 000/00 RMK AO2 T01670167
04850KAOH AOH20160719055011607/19/16 05:50:31  5-MIN KAOH 191050Z AUTO 00000KT 10SM CLR 17/17 A3024 690 100 1100 000/00 RMK AO2 SLP233 T01670167
04850KAOH AOH20160719055510907/19/16 05:55:31  5-MIN KAOH 191055Z AUTO 00000KT 10SM CLR 17/17 A3024 680 100 1100 000/00 RMK AO2 T01670167
04850KAOH AOH20160719060010807/19/16 06:00:31  5-MIN KAOH 191100Z AUTO 00000KT 10SM CLR 17/17 A3024 680 96 1100 000/00 RMK AO2 T01720167
04850KAOH AOH20160719060510907/19/16 06:05:31  5-MIN KAOH 191105Z AUTO 26004KT 10SM CLR 17/17 A3025 680 100 1100 260/04 RMK AO2 T01720172
04850KAOH AOH20160719061010907/19/16 06:10:31  5-MIN KAOH 191110Z AUTO 00000KT 10SM CLR 17/17 A3025 670 100 1100 000/00 RMK AO2 T01670167
04850KAOH AOH20160719061510807/19/16 06:15:31  5-MIN KAOH 191115Z AUTO 00000KT 8SM CLR 17/17 A3025 680 100 1100 000/00 RMK AO2 T01670167
04850KAOH AOH20160719062011107/19/16 06:20:31  5-MIN KAOH 191120Z AUTO 00000KT 6SM BR CLR 17/17 A3025 680 100 1100 000/00 RMK AO2 T01720172
04850KAOH AOH20160719062510807/19/16 06:25:31  5-MIN KAOH 191125Z AUTO 00000KT 7SM CLR 18/18 A3024 680 100 1200 000/00 RMK AO2 T01780178
04850KAOH AOH20160719063010807/19/16 06:30:31  5-MIN KAOH 191130Z AUTO 00000KT 8SM CLR 18/18 A3025 680 100 1300 000/00 RMK AO2 T01830183
04850KAOH AOH20160719063510907/19/16 06:35:31  5-MIN KAOH 191135Z AUTO 00000KT 10SM CLR 18/18 A3025 680 100 1300 000/00 RMK AO2 T01830183
04850KAOH AOH20160719064010807/19/16 06:40:31  5-MIN KAOH 191140Z AUTO 00000KT 10SM CLR 19/18 A3025 670 97 1300 000/00 RMK AO2 T01890183
04850KAOH AOH20160719064510907/19/16 06:45:31  5-MIN KAOH 191145Z AUTO 00000KT 10SM CLR 19/19 A3025 670 100 1300 000/00 RMK AO2 T01890189
04850KAOH AOH20160719065013307/19/16 06:50:31  5-MIN KAOH 191150Z AUTO 00000KT 10SM CLR 19/19 A3025 670 97 1400 000/00 RMK AO2 SLP238 T01940189 10211 20167 51007
04850KAOH AOH20160719065510907/19/16 06:55:31  5-MIN KAOH 191155Z AUTO 00000KT 10SM CLR 19/19 A3025 670 100 1400 000/00 RMK AO2 T01940194
04850KAOH AOH20160719070010807/19/16 07:00:31  5-MIN KAOH 191200Z AUTO 00000KT 10SM CLR 20/19 A3025 670 93 1500 000/00 RMK AO2 T02000189
04850KAOH AOH20160719070510807/19/16 07:05:31  5-MIN KAOH 191205Z AUTO 00000KT 10SM CLR 20/19 A3025 670 93 1400 000/00 RMK AO2 T02000189
04850KAOH AOH20160719071010807/19/16 07:10:31  5-MIN KAOH 191210Z AUTO 00000KT 10SM CLR 20/19 A3025 670 93 1500 000/00 RMK AO2 T02000189
04850KAOH AOH20160719071510807/19/16 07:15:31  5-MIN KAOH 191215Z AUTO 00000KT 10SM CLR 21/19 A3025 670 90 1500 000/00 RMK AO2 T02060189
04850KAOH AOH20160719072010807/19/16 07:20:31  5-MIN KAOH 191220Z AUTO 00000KT 10SM CLR 21/19 A3025 670 90 1500 000/00 RMK AO2 T02060189
04850KAOH AOH20160719072510807/19/16 07:25:31  5-MIN KAOH 191225Z AUTO 00000KT 10SM CLR 21/20 A3025 670 93 1600 000/00 RMK AO2 T02110200
04850KAOH AOH20160719073010807/19/16 07:30:31  5-MIN KAOH 191230Z AUTO 00000KT 10SM CLR 21/19 A3025 670 93 1500 000/00 RMK AO2 T02060194
04850KAOH AOH20160719073510807/19/16 07:35:31  5-MIN KAOH 191235Z AUTO 00000KT 10SM CLR 21/19 A3025 670 90 1600 000/00 RMK AO2 T02110194
04850KAOH AOH20160719074010807/19/16 07:40:31  5-MIN KAOH 191240Z AUTO 00000KT 10SM CLR 21/19 A3025 670 87 1600 000/00 RMK AO2 T02110189
04850KAOH AOH20160719074510807/19/16 07:45:31  5-MIN KAOH 191245Z AUTO 00000KT 10SM CLR 22/19 A3025 670 84 1600 000/00 RMK AO2 T02170189
04850KAOH AOH20160719075011507/19/16 07:50:31  5-MIN KAOH 191250Z AUTO 00000KT 10SM CLR 22/19 A3025 670 84 1600 000/00 RMK AO2 SLP237 T02170189
04850KAOH AOH20160719075510807/19/16 07:55:31  5-MIN KAOH 191255Z AUTO 00000KT 10SM CLR 22/19 A3025 670 84 1600 000/00 RMK AO2 T02170189
04850KAOH AOH20160719080010807/19/16 08:00:31  5-MIN KAOH 191300Z AUTO 00000KT 10SM CLR 22/19 A3026 670 84 1600 000/00 RMK AO2 T02170189
04850KAOH AOH20160719080510807/19/16 08:05:31  5-MIN KAOH 191305Z AUTO 15003KT 10SM CLR 22/19 A3026 670 81 1700 160/03 RMK AO2 T02220189
04850KAOH AOH20160719081010807/19/16 08:10:31  5-MIN KAOH 191310Z AUTO 00000KT 10SM CLR 22/19 A3026 670 81 1700 000/00 RMK AO2 T02220189
04850KAOH AOH20160719081510807/19/16 08:15:31  5-MIN KAOH 191315Z AUTO 00000KT 10SM CLR 23/19 A3026 660 78 1800 000/00 RMK AO2 T02280189
04850KAOH AOH20160719082010807/19/16 08:20:31  5-MIN KAOH 191320Z AUTO 00000KT 10SM CLR 23/19 A3027 660 78 1800 000/00 RMK AO2 T02280189
04850KAOH AOH20160719082510807/19/16 08:25:31  5-MIN KAOH 191325Z AUTO 00000KT 10SM CLR 23/18 A3027 660 76 1800 000/00 RMK AO2 T02280183
04850KAOH AOH20160719083010807/19/16 08:30:31  5-MIN KAOH 191330Z AUTO 00000KT 10SM CLR 23/19 A3026 660 78 1800 000/00 RMK AO2 T02280189
04850KAOH AOH20160719083510807/19/16 08:35:31  5-MIN KAOH 191335Z AUTO 22003KT 10SM CLR 23/19 A3027 660 76 1800 220/03 RMK AO2 T02330189
04850KAOH AOH20160719084010807/19/16 08:40:31  5-MIN KAOH 191340Z AUTO 00000KT 10SM CLR 23/19 A3027 660 76 1800 000/00 RMK AO2 T02330189
04850KAOH AOH20160719084510807/19/16 08:45:31  5-MIN KAOH 191345Z AUTO VRB03KT 10SM CLR 23/19 A3027 660 78 1800 VRB/03 RMK AO2 T02330194
04850KAOH AOH20160719085011507/19/16 08:50:31  5-MIN KAOH 191350Z AUTO 23004KT 10SM CLR 23/19 A3027 660 78 1800 240/04 RMK AO2 SLP243 T02330194
04850KAOH AOH20160719085510807/19/16 08:55:31  5-MIN KAOH 191355Z AUTO 23003KT 10SM CLR 24/19 A3027 660 76 1900 230/03 RMK AO2 T02390194
04850KAOH AOH20160719090010807/19/16 09:00:31  5-MIN KAOH 191400Z AUTO 23004KT 10SM CLR 24/19 A3027 650 76 1900 240/04 RMK AO2 T02390194
04850KAOH AOH20160719090510807/19/16 09:05:31  5-MIN KAOH 191405Z AUTO 00000KT 10SM CLR 24/19 A3027 650 76 1900 000/00 RMK AO2 T02390194
04850KAOH AOH20160719091010807/19/16 09:10:31  5-MIN KAOH 191410Z AUTO 24003KT 10SM CLR 24/19 A3027 650 73 1900 240/03 RMK AO2 T02440194
04850KAOH AOH20160719091510807/19/16 09:15:31  5-MIN KAOH 191415Z AUTO 00000KT 10SM CLR 24/19 A3027 650 71 1900 000/00 RMK AO2 T02440189
04850KAOH AOH20160719092010807/19/16 09:20:31  5-MIN KAOH 191420Z AUTO 29003KT 10SM CLR 24/19 A3027 650 73 1900 300/03 RMK AO2 T02440194
04850KAOH AOH20160719092510807/19/16 09:25:31  5-MIN KAOH 191425Z AUTO 28003KT 10SM CLR 24/19 A3027 650 73 1900 280/03 RMK AO2 T02440194
04850KAOH AOH20160719093010807/19/16 09:30:31  5-MIN KAOH 191430Z AUTO 30003KT 10SM CLR 24/19 A3027 650 73 1900 310/03 RMK AO2 T02440194
04850KAOH AOH20160719093510807/19/16 09:35:31  5-MIN KAOH 191435Z AUTO 30003KT 10SM CLR 24/19 A3027 650 73 1900 310/03 RMK AO2 T02440194
04850KAOH AOH20160719094010807/19/16 09:40:31  5-MIN KAOH 191440Z AUTO 00000KT 10SM CLR 24/19 A3027 660 71 1900 000/00 RMK AO2 T02440189
04850KAOH AOH20160719094510807/19/16 09:45:31  5-MIN KAOH 191445Z AUTO 32003KT 10SM CLR 25/19 A3027 660 68 2000 330/03 RMK AO2 T02500189
04850KAOH AOH20160719095012107/19/16 09:50:31  5-MIN KAOH 191450Z AUTO 00000KT 10SM CLR 25/19 A3027 660 68 2000 000/00 RMK AO2 SLP241 T02500189 53012
04850KAOH AOH20160719095510807/19/16 09:55:31  5-MIN KAOH 191455Z AUTO 27003KT 10SM CLR 26/18 A3027 660 64 2100 280/03 RMK AO2 T02560183
04850KAOH AOH20160719100010807/19/16 10:00:31  5-MIN KAOH 191500Z AUTO 00000KT 10SM CLR 26/18 A3027 660 61 2100 000/00 RMK AO2 T02560178
04850KAOH AOH20160719100510807/19/16 10:05:31  5-MIN KAOH 191505Z AUTO 28003KT 10SM CLR 26/18 A3027 660 61 2100 290/03 RMK AO2 T02560178
04850KAOH AOH20160719101010807/19/16 10:10:31  5-MIN KAOH 191510Z AUTO 00000KT 10SM CLR 26/16 A3027 660 53 2100 000/00 RMK AO2 T02610161
04850KAOH AOH20160719101510807/19/16 10:15:31  5-MIN KAOH 191515Z AUTO 00000KT 10SM CLR 26/17 A3026 660 55 2100 000/00 RMK AO2 T02610167
04850KAOH AOH20160719102010807/19/16 10:20:31  5-MIN KAOH 191520Z AUTO 00000KT 10SM CLR 26/17 A3027 660 55 2100 000/00 RMK AO2 T02610167
04850KAOH AOH20160719102510807/19/16 10:25:31  5-MIN KAOH 191525Z AUTO 00000KT 10SM CLR 26/18 A3027 660 59 2100 000/00 RMK AO2 T02610178
04850KAOH AOH20160719103010807/19/16 10:30:31  5-MIN KAOH 191530Z AUTO VRB03KT 10SM CLR 26/17 A3027 660 57 2100 VRB/03 RMK AO2 T02610172
04850KAOH AOH20160719103510807/19/16 10:35:31  5-MIN KAOH 191535Z AUTO 18003KT 10SM CLR 27/17 A3027 660 55 2200 190/03 RMK AO2 T02670172
04850KAOH AOH20160719104010807/19/16 10:40:31  5-MIN KAOH 191540Z AUTO 00000KT 10SM CLR 27/17 A3027 660 53 2200 000/00 RMK AO2 T02670167
04850KAOH AOH20160719104510807/19/16 10:45:31  5-MIN KAOH 191545Z AUTO VRB03KT 10SM CLR 26/18 A3027 660 59 2100 VRB/03 RMK AO2 T02610178
04850KAOH AOH20160719105011507/19/16 10:50:31  5-MIN KAOH 191550Z AUTO 21003KT 10SM CLR 27/18 A3027 660 57 2200 220/03 RMK AO2 SLP241 T02670178
04850KAOH AOH20160719105510807/19/16 10:55:31  5-MIN KAOH 191555Z AUTO 22003KT 10SM CLR 27/18 A3027 660 57 2200 230/03 RMK AO2 T02670178
04850KAOH AOH20160719110010807/19/16 11:00:31  5-MIN KAOH 191600Z AUTO 00000KT 10SM CLR 27/17 A3026 660 55 2200 000/00 RMK AO2 T02670172
04850KAOH AOH20160719110510807/19/16 11:05:31  5-MIN KAOH 191605Z AUTO VRB03KT 10SM CLR 27/17 A3027 660 54 2300 VRB/03 RMK AO2 T02720172
04850KAOH AOH20160719111010807/19/16 11:10:31  5-MIN KAOH 191610Z AUTO 20004KT 10SM CLR 27/17 A3027 660 52 2300 210/04 RMK AO2 T02720167
04850KAOH AOH20160719111510807/19/16 11:15:31  5-MIN KAOH 191615Z AUTO VRB03KT 10SM CLR 27/17 A3027 660 54 2300 VRB/03 RMK AO2 T02720172
04850KAOH AOH20160719112010807/19/16 11:20:31  5-MIN KAOH 191620Z AUTO 31003KT 10SM CLR 27/17 A3026 660 52 2300 320/03 RMK AO2 T02720167
04850KAOH AOH20160719112510807/19/16 11:25:31  5-MIN KAOH 191625Z AUTO 00000KT 10SM CLR 27/17 A3026 660 52 2300 000/00 RMK AO2 T02720167
04850KAOH AOH20160719113010807/19/16 11:30:31  5-MIN KAOH 191630Z AUTO 03003KT 10SM CLR 28/18 A3026 660 54 2300 030/03 RMK AO2 T02780178
04850KAOH AOH20160719113510807/19/16 11:35:31  5-MIN KAOH 191635Z AUTO 00000KT 10SM CLR 28/18 A3026 660 54 2300 000/00 RMK AO2 T02780178
04850KAOH AOH20160719114010807/19/16 11:40:31  5-MIN KAOH 191640Z AUTO 25003KT 10SM CLR 27/17 A3026 670 54 2300 260/03 RMK AO2 T02720172
04850KAOH AOH20160719114511107/19/16 11:45:31  5-MIN KAOH 191645Z AUTO 00000KT 10SM FEW048 28/17 A3026 670 50 2300 000/00 RMK AO2 T02780167
04850KAOH AOH20160719115011807/19/16 11:50:31  5-MIN KAOH 191650Z AUTO 09004KT 10SM FEW048 28/17 A3025 670 50 2400 100/04 RMK AO2 SLP238 T02830172
04850KAOH AOH20160719115510807/19/16 11:55:31  5-MIN KAOH 191655Z AUTO 05003KT 10SM CLR 28/17 A3025 670 48 2400 050/03 RMK AO2 T02830167
04850KAOH AOH20160719120011107/19/16 12:00:31  5-MIN KAOH 191700Z AUTO 00000KT 10SM FEW060 28/17 A3025 670 52 2300 000/00 RMK AO2 T02780172
04850KAOH AOH20160719120511107/19/16 12:05:31  5-MIN KAOH 191705Z AUTO VRB03KT 10SM SCT060 27/18 A3025 670 56 2300 VRB/03 RMK AO2 T02720178
04850KAOH AOH20160719121011107/19/16 12:10:31  5-MIN KAOH 191710Z AUTO 00000KT 10SM BKN055 28/17 A3025 670 52 2300 000/00 RMK AO2 T02780172
04850KAOH AOH20160719121511107/19/16 12:15:31  5-MIN KAOH 191715Z AUTO 00000KT 10SM BKN055 28/18 A3025 680 56 2300 000/00 RMK AO2 T02780183
04850KAOH AOH20160719122011107/19/16 12:20:31  5-MIN KAOH 191720Z AUTO VRB03KT 10SM SCT055 28/18 A3025 670 54 2300 VRB/03 RMK AO2 T02780178
04850KAOH AOH20160719122511107/19/16 12:25:31  5-MIN KAOH 191725Z AUTO 00000KT 10SM SCT055 28/17 A3025 680 52 2300 000/00 RMK AO2 T02780172
04850KAOH AOH20160719123011107/19/16 12:30:31  5-MIN KAOH 191730Z AUTO 00000KT 10SM SCT055 28/16 A3025 670 48 2300 000/00 RMK AO2 T02780161
04850KAOH AOH20160719123511107/19/16 12:35:31  5-MIN KAOH 191735Z AUTO 00000KT 10SM SCT060 27/17 A3025 670 52 2300 000/00 RMK AO2 T02720167
04850KAOH AOH20160719124011107/19/16 12:40:31  5-MIN KAOH 191740Z AUTO 32003KT 10SM SCT060 28/17 A3025 670 48 2400 330/03 RMK AO2 T02830167
04850KAOH AOH20160719124511107/19/16 12:45:31  5-MIN KAOH 191745Z AUTO 34004KT 10SM FEW060 28/17 A3025 670 50 2400 350/04 RMK AO2 T02830172
04850KAOH AOH20160719125013607/19/16 12:50:31  5-MIN KAOH 191750Z AUTO 35003KT 10SM FEW060 28/17 A3025 670 50 2400 360/03 RMK AO2 SLP236 T02830172 10283 20194 50006
04850KAOH AOH20160719125511107/19/16 12:55:31  5-MIN KAOH 191755Z AUTO 00000KT 10SM FEW060 28/16 A3025 680 45 2400 000/00 RMK AO2 T02830156
04850KAOH AOH20160719130011107/19/16 13:00:31  5-MIN KAOH 191800Z AUTO 00000KT 10SM FEW055 27/16 A3024 680 48 2300 000/00 RMK AO2 T02720156
04850KAOH AOH20160719130511107/19/16 13:05:31  5-MIN KAOH 191805Z AUTO 35003KT 10SM FEW055 28/16 A3024 680 48 2300 360/03 RMK AO2 T02780161
04850KAOH AOH20160719131010807/19/16 13:10:31  5-MIN KAOH 191810Z AUTO 00000KT 10SM CLR 28/16 A3024 680 48 2300 000/00 RMK AO2 T02780161
04850KAOH AOH20160719131510807/19/16 13:15:31  5-MIN KAOH 191815Z AUTO 32005KT 10SM CLR 28/17 A3024 690 50 2400 330/05 RMK AO2 T02780167
04850KAOH AOH20160719132010807/19/16 13:20:31  5-MIN KAOH 191820Z AUTO 30004KT 10SM CLR 28/17 A3024 690 50 2400 300/04 RMK AO2 T02780167
04850KAOH AOH20160719132511107/19/16 13:25:31  5-MIN KAOH 191825Z AUTO 00000KT 10SM FEW060 28/16 A3024 690 47 2400 000/00 RMK AO2 T02830161
04850KAOH AOH20160719133011107/19/16 13:30:31  5-MIN KAOH 191830Z AUTO 04003KT 10SM FEW055 29/17 A3024 690 47 2500 050/03 RMK AO2 T02890167
04850KAOH AOH20160719133511107/19/16 13:35:31  5-MIN KAOH 191835Z AUTO 36006KT 10SM SCT055 29/17 A3024 690 48 2500 360/06 RMK AO2 T02890172
04850KAOH AOH20160719134011107/19/16 13:40:31  5-MIN KAOH 191840Z AUTO 02006KT 10SM FEW055 28/17 A3024 690 50 2400 030/06 RMK AO2 T02830172
04850KAOH AOH20160719134511107/19/16 13:45:31  5-MIN KAOH 191845Z AUTO 00000KT 10SM FEW060 28/16 A3024 690 47 2400 000/00 RMK AO2 T02830161
04850KAOH AOH20160719135010807/19/16 13:50:31  5-MIN KAOH 191850Z AUTO 10SM FEW060 29/17 A3024 690 48 2500 M /M RMK AO2 SLP231 T02890172
04850KAOH AOH20160719135511107/19/16 13:55:31  5-MIN KAOH 191855Z AUTO VRB05KT 10SM FEW055 28/17 A3023 690 48 2400 VRB/05 RMK AO2 T02830167
04850KAOH AOH20160719140010807/19/16 14:00:31  5-MIN KAOH 191900Z AUTO 28003KT 10SM CLR 28/16 A3024 690 48 2400 290/03 RMK AO2 T02780161
04850KAOH AOH20160719140510807/19/16 14:05:31  5-MIN KAOH 191905Z AUTO 35004KT 10SM CLR 28/17 A3023 690 50 2400 350/04 RMK AO2 T02780167
04850KAOH AOH20160719141011107/19/16 14:10:31  5-MIN KAOH 191910Z AUTO 00000KT 10SM FEW060 28/16 A3024 690 47 2400 000/00 RMK AO2 T02830161
04850KAOH AOH20160719141511107/19/16 14:15:31  5-MIN KAOH 191915Z AUTO VRB04KT 10SM FEW060 29/16 A3023 690 45 2500 VRB/04 RMK AO2 T02890161
04850KAOH AOH20160719142010807/19/16 14:20:31  5-MIN KAOH 191920Z AUTO 32005KT 10SM CLR 29/17 A3023 690 48 2500 320/05 RMK AO2 T02890172
04850KAOH AOH20160719142510807/19/16 14:25:31  5-MIN KAOH 191925Z AUTO VRB05KT 10SM CLR 29/17 A3023 700 47 2500 VRB/05 RMK AO2 T02890167
04850KAOH AOH20160719143010807/19/16 14:30:31  5-MIN KAOH 191930Z AUTO VRB04KT 10SM CLR 28/17 A3023 700 48 2400 VRB/04 RMK AO2 T02830167
04850KAOH AOH20160719143510807/19/16 14:35:31  5-MIN KAOH 191935Z AUTO 02004KT 10SM CLR 28/17 A3022 700 48 2400 020/04 RMK AO2 T02830167
04850KAOH AOH20160719144010807/19/16 14:40:31  5-MIN KAOH 191940Z AUTO 00000KT 10SM CLR 28/16 A3023 690 47 2400 000/00 RMK AO2 T02830161
04850KAOH AOH20160719144509807/19/16 14:45:31  5-MIN KAOH 191945Z AUTO 10SM CLR 29/17 A3023 690 47 2500 M /M RMK AO2 T02890167
04850KAOH AOH20160719145011507/19/16 14:50:31  5-MIN KAOH 191950Z AUTO VRB04KT 10SM CLR 29/16 A3023 690 45 2500 VRB/04 RMK AO2 SLP230 T02890161
04850KAOH AOH20160719145510807/19/16 14:55:31  5-MIN KAOH 191955Z AUTO 35006KT 10SM CLR 29/16 A3023 690 44 2500 360/06 RMK AO2 T02890156
04850KAOH AOH20160719150010807/19/16 15:00:31  5-MIN KAOH 192000Z AUTO 32006KT 10SM CLR 28/16 A3023 700 47 2400 330/06 RMK AO2 T02830161
04850KAOH AOH20160719150510807/19/16 15:05:31  5-MIN KAOH 192005Z AUTO 31004KT 10SM CLR 29/16 A3022 700 45 2500 320/04 RMK AO2 T02890161
04850KAOH AOH20160719151010807/19/16 15:10:31  5-MIN KAOH 192010Z AUTO 01005KT 10SM CLR 28/17 A3022 700 48 2400 020/05 RMK AO2 T02830167
04850KAOH AOH20160719151510807/19/16 15:15:31  5-MIN KAOH 192015Z AUTO 35006KT 10SM CLR 29/17 A3022 700 47 2500 350/06 RMK AO2 T02890167
04850KAOH AOH20160719152010807/19/16 15:20:31  5-MIN KAOH 192020Z AUTO 34006KT 10SM CLR 29/16 A3022 700 45 2500 340/06 RMK AO2 T02890161
04850KAOH AOH20160719152510807/19/16 15:25:31  5-MIN KAOH 192025Z AUTO 33007KT 10SM CLR 29/17 A3022 700 47 2500 340/07 RMK AO2 T02890167
04850KAOH AOH20160719153010807/19/16 15:30:31  5-MIN KAOH 192030Z AUTO 30005KT 10SM CLR 29/16 A3022 700 44 2500 300/05 RMK AO2 T02890156
04850KAOH AOH20160719153510807/19/16 15:35:31  5-MIN KAOH 192035Z AUTO VRB06KT 10SM CLR 29/16 A3022 700 45 2500 VRB/06 RMK AO2 T02890161
04850KAOH AOH20160719154010807/19/16 15:40:31  5-MIN KAOH 192040Z AUTO 31005KT 10SM CLR 29/17 A3021 710 47 2500 320/05 RMK AO2 T02890167
04850KAOH AOH20160719154510807/19/16 15:45:31  5-MIN KAOH 192045Z AUTO 32004KT 10SM CLR 29/16 A3021 710 45 2500 330/04 RMK AO2 T02890161
04850KAOH AOH20160719155012107/19/16 15:50:31  5-MIN KAOH 192050Z AUTO 31006KT 10SM CLR 29/16 A3021 710 45 2500 320/06 RMK AO2 SLP224 T02890161 58006
04850KAOH AOH20160719155510807/19/16 15:55:31  5-MIN KAOH 192055Z AUTO 33008KT 10SM CLR 29/16 A3021 710 45 2500 330/08 RMK AO2 T02890161
04850KAOH AOH20160719160010807/19/16 16:00:31  5-MIN KAOH 192100Z AUTO 34005KT 10SM CLR 28/16 A3021 710 47 2400 350/05 RMK AO2 T02830161
04850KAOH AOH20160719160510807/19/16 16:05:31  5-MIN KAOH 192105Z AUTO 01007KT 10SM CLR 29/17 A3021 710 47 2500 010/07 RMK AO2 T02890167
04850KAOH AOH20160719161010807/19/16 16:10:31  5-MIN KAOH 192110Z AUTO 03008KT 10SM CLR 29/17 A3021 710 47 2500 030/08 RMK AO2 T02890167
04850KAOH AOH20160719161510807/19/16 16:15:31  5-MIN KAOH 192115Z AUTO 02005KT 10SM CLR 29/17 A3020 720 47 2500 020/05 RMK AO2 T02890167
04850KAOH AOH20160719162010807/19/16 16:20:31  5-MIN KAOH 192120Z AUTO 35005KT 10SM CLR 29/17 A3020 720 47 2500 360/05 RMK AO2 T02890167
04850KAOH AOH20160719162510807/19/16 16:25:31  5-MIN KAOH 192125Z AUTO VRB04KT 10SM CLR 28/17 A3020 720 48 2500 VRB/04 RMK AO2 T02830167
04850KAOH AOH20160719163010807/19/16 16:30:31  5-MIN KAOH 192130Z AUTO 00000KT 10SM CLR 29/16 A3020 720 45 2500 000/00 RMK AO2 T02890161
04850KAOH AOH20160719163510807/19/16 16:35:31  5-MIN KAOH 192135Z AUTO VRB05KT 10SM CLR 29/16 A3020 720 45 2500 VRB/05 RMK AO2 T02890161
04850KAOH AOH20160719164010807/19/16 16:40:31  5-MIN KAOH 192140Z AUTO 34005KT 10SM CLR 29/17 A3020 720 48 2500 350/05 RMK AO2 T02890172
04850KAOH AOH20160719164510807/19/16 16:45:31  5-MIN KAOH 192145Z AUTO VRB04KT 10SM CLR 28/17 A3020 720 48 2500 VRB/04 RMK AO2 T02830167
04850KAOH AOH20160719165011507/19/16 16:50:31  5-MIN KAOH 192150Z AUTO 01006KT 10SM CLR 29/17 A3020 720 47 2500 020/06 RMK AO2 SLP218 T02890167
04850KAOH AOH20160719165510807/19/16 16:55:31  5-MIN KAOH 192155Z AUTO 34005KT 10SM CLR 29/17 A3020 720 48 2500 350/05 RMK AO2 T02890172
04850KAOH AOH20160719170010807/19/16 17:00:31  5-MIN KAOH 192200Z AUTO 34006KT 10SM CLR 29/17 A3020 720 47 2500 350/06 RMK AO2 T02890167
04850KAOH AOH20160719170510807/19/16 17:05:31  5-MIN KAOH 192205Z AUTO 35004KT 10SM CLR 29/16 A3020 720 45 2500 360/04 RMK AO2 T02890161
04850KAOH AOH20160719171010807/19/16 17:10:31  5-MIN KAOH 192210Z AUTO 00000KT 10SM CLR 29/16 A3020 720 45 2500 000/00 RMK AO2 T02890161
04850KAOH AOH20160719171510807/19/16 17:15:31  5-MIN KAOH 192215Z AUTO 32006KT 10SM CLR 28/17 A3019 730 48 2500 330/06 RMK AO2 T02830167
04850KAOH AOH20160719172010807/19/16 17:20:31  5-MIN KAOH 192220Z AUTO 35004KT 10SM CLR 28/17 A3019 730 50 2500 360/04 RMK AO2 T02830172
04850KAOH AOH20160719172510807/19/16 17:25:31  5-MIN KAOH 192225Z AUTO 35005KT 10SM CLR 29/18 A3019 730 50 2500 350/05 RMK AO2 T02890178
04850KAOH AOH20160719173010807/19/16 17:30:31  5-MIN KAOH 192230Z AUTO VRB05KT 10SM CLR 29/18 A3020 720 50 2500 VRB/05 RMK AO2 T02890178
04850KAOH AOH20160719173510807/19/16 17:35:31  5-MIN KAOH 192235Z AUTO 34006KT 10SM CLR 28/17 A3020 720 50 2500 340/06 RMK AO2 T02830172
04850KAOH AOH20160719174010807/19/16 17:40:31  5-MIN KAOH 192240Z AUTO 35006KT 10SM CLR 28/17 A3019 730 48 2500 350/06 RMK AO2 T02830167
04850KAOH AOH20160719174510807/19/16 17:45:31  5-MIN KAOH 192245Z AUTO 01005KT 10SM CLR 28/17 A3019 730 48 2500 010/05 RMK AO2 T02830167
04850KAOH AOH20160719175011507/19/16 17:50:31  5-MIN KAOH 192250Z AUTO 36005KT 10SM CLR 28/17 A3019 720 50 2500 360/05 RMK AO2 SLP218 T02830172
04850KAOH AOH20160719175510807/19/16 17:55:31  5-MIN KAOH 192255Z AUTO 33005KT 10SM CLR 28/18 A3019 730 54 2400 340/05 RMK AO2 T02780178
04850KAOH AOH20160719180010807/19/16 18:00:31  5-MIN KAOH 192300Z AUTO 36005KT 10SM CLR 28/17 A3019 730 52 2400 360/05 RMK AO2 T02780172
04850KAOH AOH20160719180510807/19/16 18:05:31  5-MIN KAOH 192305Z AUTO 34006KT 10SM CLR 28/17 A3019 730 52 2400 340/06 RMK AO2 T02780172
04850KAOH AOH20160719181010807/19/16 18:10:31  5-MIN KAOH 192310Z AUTO 01005KT 10SM CLR 28/17 A3019 730 50 2500 010/05 RMK AO2 T02830172
04850KAOH AOH20160719181510807/19/16 18:15:31  5-MIN KAOH 192315Z AUTO 33004KT 10SM CLR 28/17 A3020 720 50 2500 340/04 RMK AO2 T02830172
04850KAOH AOH20160719182010807/19/16 18:20:31  5-MIN KAOH 192320Z AUTO 34004KT 10SM CLR 28/18 A3020 720 54 2400 350/04 RMK AO2 T02780178
04850KAOH AOH20160719182510807/19/16 18:25:31  5-MIN KAOH 192325Z AUTO 33005KT 10SM CLR 28/17 A3020 720 52 2400 340/05 RMK AO2 T02780172
04850KAOH AOH20160719183010807/19/16 18:30:31  5-MIN KAOH 192330Z AUTO 34004KT 10SM CLR 28/18 A3020 720 54 2400 340/04 RMK AO2 T02780178
04850KAOH AOH20160719183510807/19/16 18:35:31  5-MIN KAOH 192335Z AUTO 36005KT 10SM CLR 28/18 A3020 720 56 2400 360/05 RMK AO2 T02780183
04850KAOH AOH20160719184010807/19/16 18:40:31  5-MIN KAOH 192340Z AUTO 35004KT 10SM CLR 28/18 A3020 720 54 2400 350/04 RMK AO2 T02780178
04850KAOH AOH20160719184510807/19/16 18:45:31  5-MIN KAOH 192345Z AUTO 35005KT 10SM CLR 27/18 A3019 720 58 2300 360/05 RMK AO2 T02720183
04850KAOH AOH20160719185013307/19/16 18:50:31  5-MIN KAOH 192350Z AUTO 36004KT 10SM CLR 27/18 A3019 730 58 2300 010/04 RMK AO2 SLP217 T02720183 10294 20272 58012
04850KAOH AOH20160719185510807/19/16 18:55:31  5-MIN KAOH 192355Z AUTO 35004KT 10SM CLR 27/19 A3019 730 62 2300 360/04 RMK AO2 T02670189
04850KAOH AOH20160719190010807/19/16 19:00:31  5-MIN KAOH 200000Z AUTO 35003KT 10SM CLR 27/19 A3019 730 62 2300 360/03 RMK AO2 T02670189
04850KAOH AOH20160719190510807/19/16 19:05:31  5-MIN KAOH 200005Z AUTO 36003KT 10SM CLR 27/19 A3019 730 64 2300 010/03 RMK AO2 T02670194
04850KAOH AOH20160719191010807/19/16 19:10:31  5-MIN KAOH 200010Z AUTO 36003KT 10SM CLR 27/19 A3019 730 64 2300 360/03 RMK AO2 T02670194
04850KAOH AOH20160719191510807/19/16 19:15:31  5-MIN KAOH 200015Z AUTO 35003KT 10SM CLR 27/19 A3019 730 62 2300 360/03 RMK AO2 T02670189
04850KAOH AOH20160719192010807/19/16 19:20:31  5-MIN KAOH 200020Z AUTO 35003KT 10SM CLR 27/18 A3019 730 60 2300 360/03 RMK AO2 T02670183
04850KAOH AOH20160719192510807/19/16 19:25:31  5-MIN KAOH 200025Z AUTO 36004KT 10SM CLR 27/19 A3019 730 62 2300 010/04 RMK AO2 T02670189
04850KAOH AOH20160719193010807/19/16 19:30:31  5-MIN KAOH 200030Z AUTO 01004KT 10SM CLR 26/19 A3019 730 66 2200 020/04 RMK AO2 T02610194
04850KAOH AOH20160719193510807/19/16 19:35:31  5-MIN KAOH 200035Z AUTO 02004KT 10SM CLR 25/20 A3019 730 73 2100 020/04 RMK AO2 T02500200
04850KAOH AOH20160719194010807/19/16 19:40:31  5-MIN KAOH 200040Z AUTO 02003KT 10SM CLR 25/20 A3019 730 73 2100 020/03 RMK AO2 T02500200
04850KAOH AOH20160719194510807/19/16 19:45:31  5-MIN KAOH 200045Z AUTO 02003KT 10SM CLR 26/19 A3019 730 66 2200 020/03 RMK AO2 T02560189
04850KAOH AOH20160719195011507/19/16 19:50:31  5-MIN KAOH 200050Z AUTO 01003KT 10SM CLR 26/19 A3019 730 66 2200 010/03 RMK AO2 SLP217 T02560189
04850KAOH AOH20160719195510807/19/16 19:55:31  5-MIN KAOH 200055Z AUTO 36003KT 10SM CLR 25/18 A3019 730 66 2100 010/03 RMK AO2 T02500183
04850KAOH AOH20160719200010807/19/16 20:00:31  5-MIN KAOH 200100Z AUTO 35003KT 10SM CLR 25/18 A3019 720 66 2100 350/03 RMK AO2 T02500183
04850KAOH AOH20160719200510807/19/16 20:05:31  5-MIN KAOH 200105Z AUTO 00000KT 10SM CLR 24/20 A3019 730 78 2000 000/00 RMK AO2 T02390200
04850KAOH AOH20160719201010807/19/16 20:10:31  5-MIN KAOH 200110Z AUTO 00000KT 10SM CLR 24/20 A3019 730 78 2000 000/00 RMK AO2 T02390200
04850KAOH AOH20160719201510807/19/16 20:15:31  5-MIN KAOH 200115Z AUTO 01003KT 10SM CLR 23/19 A3019 730 78 1900 020/03 RMK AO2 T02330194
04850KAOH AOH20160719202010807/19/16 20:20:31  5-MIN KAOH 200120Z AUTO 04003KT 10SM CLR 23/19 A3019 730 81 1800 040/03 RMK AO2 T02280194
04850KAOH AOH20160719202510807/19/16 20:25:31  5-MIN KAOH 200125Z AUTO 00000KT 10SM CLR 22/19 A3019 730 84 1800 000/00 RMK AO2 T02220194
04850KAOH AOH20160719203010807/19/16 20:30:31  5-MIN KAOH 200130Z AUTO 00000KT 10SM CLR 23/19 A3019 730 76 1900 000/00 RMK AO2 T02330189
04850KAOH AOH20160719203510807/19/16 20:35:31  5-MIN KAOH 200135Z AUTO 00000KT 10SM CLR 24/19 A3019 730 73 2000 000/00 RMK AO2 T02390189
04850KAOH AOH20160719204010807/19/16 20:40:31  5-MIN KAOH 200140Z AUTO 00000KT 10SM CLR 23/19 A3019 730 76 1900 000/00 RMK AO2 T02330189
04850KAOH AOH20160719204510807/19/16 20:45:31  5-MIN KAOH 200145Z AUTO 00000KT 10SM CLR 23/19 A3019 730 78 1800 000/00 RMK AO2 T02280189
04850KAOH AOH20160719205011507/19/16 20:50:31  5-MIN KAOH 200150Z AUTO 00000KT 10SM CLR 24/18 A3019 720 71 2000 000/00 RMK AO2 SLP218 T02390183
04850KAOH AOH20160719205510807/19/16 20:55:31  5-MIN KAOH 200155Z AUTO 00000KT 10SM CLR 23/19 A3020 720 76 1900 000/00 RMK AO2 T02330189
04850KAOH AOH20160719210010807/19/16 21:00:31  5-MIN KAOH 200200Z AUTO 00000KT 10SM CLR 23/19 A3020 720 78 1800 000/00 RMK AO2 T02280189
04850KAOH AOH20160719210510807/19/16 21:05:31  5-MIN KAOH 200205Z AUTO 00000KT 10SM CLR 23/19 A3020 720 78 1800 000/00 RMK AO2 T02280189
04850KAOH AOH20160719211010807/19/16 21:10:31  5-MIN KAOH 200210Z AUTO 00000KT 10SM CLR 22/18 A3020 720 78 1800 000/00 RMK AO2 T02220183
04850KAOH AOH20160719211510807/19/16 21:15:31  5-MIN KAOH 200215Z AUTO 00000KT 10SM CLR 22/19 A3021 710 84 1700 000/00 RMK AO2 T02170189
04850KAOH AOH20160719212010807/19/16 21:20:31  5-MIN KAOH 200220Z AUTO 00000KT 10SM CLR 22/19 A3021 710 84 1700 000/00 RMK AO2 T02170189
04850KAOH AOH20160719212510807/19/16 21:25:31  5-MIN KAOH 200225Z AUTO 00000KT 10SM CLR 22/19 A3021 710 87 1700 000/00 RMK AO2 T02170194
04850KAOH AOH20160719213010807/19/16 21:30:31  5-MIN KAOH 200230Z AUTO 00000KT 10SM CLR 22/19 A3021 710 87 1700 000/00 RMK AO2 T02170194
04850KAOH AOH20160719213510807/19/16 21:35:31  5-MIN KAOH 200235Z AUTO 00000KT 10SM CLR 22/19 A3021 710 84 1700 000/00 RMK AO2 T02170189
04850KAOH AOH20160719214010807/19/16 21:40:31  5-MIN KAOH 200240Z AUTO 00000KT 10SM CLR 21/19 A3021 710 87 1600 000/00 RMK AO2 T02110189
04850KAOH AOH20160719214510807/19/16 21:45:31  5-MIN KAOH 200245Z AUTO 00000KT 10SM CLR 21/19 A3021 710 87 1600 000/00 RMK AO2 T02110189
04850KAOH AOH20160719215012107/19/16 21:50:31  5-MIN KAOH 200250Z AUTO 03004KT 10SM CLR 21/19 A3022 700 87 1600 040/04 RMK AO2 SLP226 T02110189 56006
04850KAOH AOH20160719215510807/19/16 21:55:31  5-MIN KAOH 200255Z AUTO 05004KT 10SM CLR 21/19 A3022 700 87 1600 060/04 RMK AO2 T02110189
04850KAOH AOH20160719220010807/19/16 22:00:31  5-MIN KAOH 200300Z AUTO 05004KT 10SM CLR 22/18 A3022 700 81 1700 060/04 RMK AO2 T02170183
04850KAOH AOH20160719220510807/19/16 22:05:31  5-MIN KAOH 200305Z AUTO 05005KT 10SM CLR 22/18 A3022 700 81 1700 060/05 RMK AO2 T02170183
04850KAOH AOH20160719221010807/19/16 22:10:31  5-MIN KAOH 200310Z AUTO 06006KT 10SM CLR 22/18 A3022 700 81 1700 070/06 RMK AO2 T02170183
04850KAOH AOH20160719221510807/19/16 22:15:31  5-MIN KAOH 200315Z AUTO 07005KT 10SM CLR 22/18 A3022 700 81 1700 070/05 RMK AO2 T02170183
04850KAOH AOH20160719222010807/19/16 22:20:31  5-MIN KAOH 200320Z AUTO 07005KT 10SM CLR 21/18 A3022 700 84 1600 080/05 RMK AO2 T02110183
04850KAOH AOH20160719222510807/19/16 22:25:31  5-MIN KAOH 200325Z AUTO 09004KT 10SM CLR 21/18 A3022 700 84 1600 090/04 RMK AO2 T02110183
04850KAOH AOH20160719223010807/19/16 22:30:31  5-MIN KAOH 200330Z AUTO 09005KT 10SM CLR 21/18 A3022 700 84 1600 090/05 RMK AO2 T02110183
04850KAOH AOH20160719223510807/19/16 22:35:31  5-MIN KAOH 200335Z AUTO 09005KT 10SM CLR 20/18 A3022 700 90 1500 090/05 RMK AO2 T02000183
04850KAOH AOH20160719224010807/19/16 22:40:31  5-MIN KAOH 200340Z AUTO 08005KT 10SM CLR 20/18 A3022 700 90 1500 090/05 RMK AO2 T02000183
04850KAOH AOH20160719224510807/19/16 22:45:31  5-MIN KAOH 200345Z AUTO 09006KT 10SM CLR 21/18 A3022 700 87 1500 100/06 RMK AO2 T02060183
04850KAOH AOH20160719225011507/19/16 22:50:31  5-MIN KAOH 200350Z AUTO 09006KT 10SM CLR 21/18 A3022 700 87 1600 100/06 RMK AO2 SLP227 T02060183
04850KAOH AOH20160719225510807/19/16 22:55:31  5-MIN KAOH 200355Z AUTO 09006KT 10SM CLR 21/18 A3022 700 87 1500 100/06 RMK AO2 T02060183
04850KAOH AOH20160719230010807/19/16 23:00:31  5-MIN KAOH 200400Z AUTO 09007KT 10SM CLR 21/18 A3022 700 87 1500 100/07 RMK AO2 T02060183
04850KAOH AOH20160719230510807/19/16 23:05:31  5-MIN KAOH 200405Z AUTO 08006KT 10SM CLR 21/18 A3022 700 87 1500 090/06 RMK AO2 T02060183
04850KAOH AOH20160719231010807/19/16 23:10:31  5-MIN KAOH 200410Z AUTO 07005KT 10SM CLR 21/18 A3023 700 87 1500 080/05 RMK AO2 T02060183
04850KAOH AOH20160719231510807/19/16 23:15:31  5-MIN KAOH 200415Z AUTO 08006KT 10SM CLR 21/18 A3023 690 87 1500 080/06 RMK AO2 T02060183
04850KAOH AOH20160719232010807/19/16 23:20:31  5-MIN KAOH 200420Z AUTO 08006KT 10SM CLR 21/18 A3023 690 87 1500 090/06 RMK AO2 T02060183
04850KAOH AOH20160719232510807/19/16 23:25:31  5-MIN KAOH 200425Z AUTO 08006KT 10SM CLR 20/18 A3023 690 90 1500 080/06 RMK AO2 T02000183
04850KAOH AOH20160720183010807/20/16 18:30:31  5-MIN KAOH 202330Z AUTO 21003KT 10SM CLR 29/18 A3016 750 50 2600 220/03 RMK AO2 T02940183
04850KAOH AOH20160720183510807/20/16 18:35:31  5-MIN KAOH 202335Z AUTO 21003KT 10SM CLR 29/19 A3017 750 54 2600 220/03 RMK AO2 T02890189
04850KAOH AOH20160720184011107/20/16 18:40:31  5-MIN KAOH 202340Z AUTO 21004KT 10SM FEW055 29/19 A3016 750 52 2600 210/04 RMK AO2 T02940189
04850KAOH AOH20160720184511107/20/16 18:45:31  5-MIN KAOH 202345Z AUTO 21003KT 10SM FEW055 29/19 A3016 750 56 2600 220/03 RMK AO2 T02890194
04850KAOH AOH20160720185013607/20/16 18:50:31  5-MIN KAOH 202350Z AUTO 00000KT 10SM FEW055 29/19 A3016 750 52 2600 000/00 RMK AO2 SLP207 T02940189 10311 20289 56013
04850KAOH AOH20160720185511107/20/16 18:55:31  5-MIN KAOH 202355Z AUTO 00000KT 10SM FEW055 29/19 A3016 750 54 2600 000/00 RMK AO2 T02890189
04850KAOH AOH20160720190011107/20/16 19:00:31  5-MIN KAOH 210000Z AUTO 00000KT 10SM FEW055 29/19 A3016 750 54 2600 000/00 RMK AO2 T02890189
04850KAOH AOH20160720190511107/20/16 19:05:31  5-MIN KAOH 210005Z AUTO 00000KT 10SM FEW055 29/19 A3016 750 56 2600 000/00 RMK AO2 T02890194
04850KAOH AOH20160720191011107/20/16 19:10:31  5-MIN KAOH 210010Z AUTO 00000KT 10SM FEW055 28/22 A3016 750 66 2500 000/00 RMK AO2 T02830217
04850KAOH AOH20160720191510807/20/16 19:15:31  5-MIN KAOH 210015Z AUTO 00000KT 10SM CLR 28/23 A3016 750 74 2400 000/00 RMK AO2 T02780228
04850KAOH AOH20160720192010807/20/16 19:20:31  5-MIN KAOH 210020Z AUTO 00000KT 10SM CLR 28/23 A3016 750 76 2400 000/00 RMK AO2 T02780233
04850KAOH AOH20160720192510807/20/16 19:25:31  5-MIN KAOH 210025Z AUTO 00000KT 10SM CLR 28/22 A3016 750 69 2500 000/00 RMK AO2 T02830222
04850KAOH AOH20160720193010807/20/16 19:30:31  5-MIN KAOH 210030Z AUTO 00000KT 10SM CLR 28/22 A3016 750 66 2500 000/00 RMK AO2 T02830217
04850KAOH AOH20160720193510807/20/16 19:35:31  5-MIN KAOH 210035Z AUTO 00000KT 10SM CLR 28/21 A3016 750 64 2500 000/00 RMK AO2 T02830211
04850KAOH AOH20160720194010807/20/16 19:40:31  5-MIN KAOH 210040Z AUTO 00000KT 10SM CLR 28/22 A3017 750 71 2400 000/00 RMK AO2 T02780222
04850KAOH AOH20160720194510807/20/16 19:45:31  5-MIN KAOH 210045Z AUTO 05004KT 10SM CLR 27/23 A3016 750 79 2300 060/04 RMK AO2 T02670228
04850KAOH AOH20160720195011507/20/16 19:50:31  5-MIN KAOH 210050Z AUTO 10004KT 10SM CLR 27/22 A3016 750 73 2300 110/04 RMK AO2 SLP206 T02670217
04850KAOH AOH20160720195510807/20/16 19:55:31  5-MIN KAOH 210055Z AUTO 14005KT 10SM CLR 27/21 A3016 760 71 2300 140/05 RMK AO2 T02670211
04850KAOH AOH20160720200010807/20/16 20:00:31  5-MIN KAOH 210100Z AUTO 13006KT 10SM CLR 27/21 A3016 750 69 2300 140/06 RMK AO2 T02670206
04850KAOH AOH20160720200510807/20/16 20:05:31  5-MIN KAOH 210105Z AUTO 13007KT 10SM CLR 27/21 A3016 760 69 2300 140/07 RMK AO2 T02670206
04850KAOH AOH20160720201010807/20/16 20:10:31  5-MIN KAOH 210110Z AUTO 13007KT 10SM CLR 26/21 A3016 760 71 2200 140/07 RMK AO2 T02610206
04850KAOH AOH20160720201510807/20/16 20:15:31  5-MIN KAOH 210115Z AUTO 14006KT 10SM CLR 26/21 A3016 750 71 2200 140/06 RMK AO2 T02610206
04850KAOH AOH20160720202010807/20/16 20:20:31  5-MIN KAOH 210120Z AUTO 14006KT 10SM CLR 26/21 A3016 750 71 2200 140/06 RMK AO2 T02610206
04850KAOH AOH20160720202510807/20/16 20:25:31  5-MIN KAOH 210125Z AUTO 14006KT 10SM CLR 26/21 A3016 750 76 2200 150/06 RMK AO2 T02560211
04850KAOH AOH20160720203010807/20/16 20:30:31  5-MIN KAOH 210130Z AUTO 15006KT 10SM CLR 26/21 A3017 750 73 2200 150/06 RMK AO2 T02560206
04850KAOH AOH20160720203510807/20/16 20:35:31  5-MIN KAOH 210135Z AUTO 15007KT 10SM CLR 26/21 A3017 750 73 2200 160/07 RMK AO2 T02560206
04850KAOH AOH20160720204010807/20/16 20:40:31  5-MIN KAOH 210140Z AUTO 15006KT 10SM CLR 26/21 A3017 750 73 2200 150/06 RMK AO2 T02560206
04850KAOH AOH20160720204510807/20/16 20:45:31  5-MIN KAOH 210145Z AUTO 15006KT 10SM CLR 26/21 A3017 740 73 2200 160/06 RMK AO2 T02560206
04850KAOH AOH20160720205011507/20/16 20:50:31  5-MIN KAOH 210150Z AUTO 15007KT 10SM CLR 25/21 A3017 740 76 2100 160/07 RMK AO2 SLP210 T02500206
04850KAOH AOH20160720205510807/20/16 20:55:31  5-MIN KAOH 210155Z AUTO 15006KT 10SM CLR 25/21 A3018 740 76 2100 150/06 RMK AO2 T02500206
04850KAOH AOH20160720210010807/20/16 21:00:31  5-MIN KAOH 210200Z AUTO 15006KT 10SM CLR 25/21 A3018 740 76 2100 150/06 RMK AO2 T02500206
04850KAOH AOH20160720210510807/20/16 21:05:31  5-MIN KAOH 210205Z AUTO 14006KT 10SM CLR 25/21 A3018 740 76 2100 150/06 RMK AO2 T02500206
04850KAOH AOH20160720211010807/20/16 21:10:31  5-MIN KAOH 210210Z AUTO 15006KT 10SM CLR 25/21 A3018 740 76 2100 150/06 RMK AO2 T02500206
04850KAOH AOH20160720211510807/20/16 21:15:31  5-MIN KAOH 210215Z AUTO 15006KT 10SM CLR 25/21 A3018 740 76 2100 160/06 RMK AO2 T02500206
04850KAOH AOH20160720212010807/20/16 21:20:31  5-MIN KAOH 210220Z AUTO 15006KT 10SM CLR 24/21 A3018 740 78 2000 160/06 RMK AO2 T02440206
04850KAOH AOH20160720212510807/20/16 21:25:31  5-MIN KAOH 210225Z AUTO 15006KT 10SM CLR 24/21 A3018 740 78 2000 160/06 RMK AO2 T02440206
04850KAOH AOH20160720213010807/20/16 21:30:31  5-MIN KAOH 210230Z AUTO 15006KT 10SM CLR 24/21 A3018 730 81 2000 160/06 RMK AO2 T02390206
04850KAOH AOH20160720213510807/20/16 21:35:31  5-MIN KAOH 210235Z AUTO 15005KT 10SM CLR 24/21 A3019 730 81 2000 160/05 RMK AO2 T02390206
04850KAOH AOH20160720214010807/20/16 21:40:31  5-MIN KAOH 210240Z AUTO 16005KT 10SM CLR 24/21 A3019 730 81 2000 170/05 RMK AO2 T02390206
04850KAOH AOH20160720214510807/20/16 21:45:31  5-MIN KAOH 210245Z AUTO 16005KT 10SM CLR 24/21 A3019 730 81 2000 170/05 RMK AO2 T02390206
04850KAOH AOH20160720215012107/20/16 21:50:31  5-MIN KAOH 210250Z AUTO 17005KT 10SM CLR 24/21 A3019 730 78 2000 180/05 RMK AO2 SLP215 T02440206 56010
04850KAOH AOH20160720215510807/20/16 21:55:31  5-MIN KAOH 210255Z AUTO 17005KT 10SM CLR 24/21 A3019 730 78 2000 170/05 RMK AO2 T02440206
04850KAOH AOH20160720220010807/20/16 22:00:31  5-MIN KAOH 210300Z AUTO 17005KT 10SM CLR 24/21 A3019 730 81 2000 170/05 RMK AO2 T02390206
04850KAOH AOH20160720220510807/20/16 22:05:31  5-MIN KAOH 210305Z AUTO 16004KT 10SM CLR 24/21 A3019 730 81 2000 170/04 RMK AO2 T02390206
04850KAOH AOH20160720221010807/20/16 22:10:31  5-MIN KAOH 210310Z AUTO 17003KT 10SM CLR 22/21 A3019 730 90 1800 180/03 RMK AO2 T02220206
04850KAOH AOH20160720221510807/20/16 22:15:31  5-MIN KAOH 210315Z AUTO 18004KT 10SM CLR 22/21 A3019 730 90 1800 180/04 RMK AO2 T02220206
04850KAOH AOH20160720222010807/20/16 22:20:31  5-MIN KAOH 210320Z AUTO 17006KT 10SM CLR 23/21 A3019 730 84 1900 180/06 RMK AO2 T02330206
04850KAOH AOH20160720222510807/20/16 22:25:31  5-MIN KAOH 210325Z AUTO 18006KT 10SM CLR 23/21 A3019 730 84 1900 180/06 RMK AO2 T02330206
04850KAOH AOH20160720223010807/20/16 22:30:31  5-MIN KAOH 210330Z AUTO 18006KT 10SM CLR 23/21 A3019 730 84 1900 190/06 RMK AO2 T02330206
04850KAOH AOH20160720223510807/20/16 22:35:31  5-MIN KAOH 210335Z AUTO 20005KT 10SM CLR 23/21 A3019 730 84 1900 200/05 RMK AO2 T02330206
04850KAOH AOH20160720224010807/20/16 22:40:31  5-MIN KAOH 210340Z AUTO 21003KT 10SM CLR 24/21 A3019 730 81 2000 220/03 RMK AO2 T02390206
04850KAOH AOH20160720224510807/20/16 22:45:31  5-MIN KAOH 210345Z AUTO 00000KT 10SM CLR 23/21 A3019 730 87 1800 000/00 RMK AO2 T02280206
04850KAOH AOH20160720225011507/20/16 22:50:31  5-MIN KAOH 210350Z AUTO 00000KT 10SM CLR 23/21 A3019 730 84 1900 000/00 RMK AO2 SLP215 T02330206
04850KAOH AOH20160720225510807/20/16 22:55:31  5-MIN KAOH 210355Z AUTO 00000KT 10SM CLR 23/21 A3019 730 84 1900 000/00 RMK AO2 T02330206
04850KAOH AOH20160720230010807/20/16 23:00:31  5-MIN KAOH 210400Z AUTO 18004KT 10SM CLR 23/21 A3019 730 84 1900 180/04 RMK AO2 T02330206
04850KAOH AOH20160720230510807/20/16 23:05:31  5-MIN KAOH 210405Z AUTO 18005KT 10SM CLR 23/21 A3018 730 84 1900 190/05 RMK AO2 T02330206
04850KAOH AOH20160720231010807/20/16 23:10:31  5-MIN KAOH 210410Z AUTO 19004KT 10SM CLR 23/21 A3018 730 84 1900 190/04 RMK AO2 T02330206
04850KAOH AOH20160720231510807/20/16 23:15:31  5-MIN KAOH 210415Z AUTO 18004KT 10SM CLR 23/21 A3019 730 84 1900 190/04 RMK AO2 T02330206
04850KAOH AOH20160720232010807/20/16 23:20:31  5-MIN KAOH 210420Z AUTO 17004KT 10SM CLR 23/21 A3019 730 87 1800 180/04 RMK AO2 T02280206
04850KAOH AOH20160720232510807/20/16 23:25:31  5-MIN KAOH 210425Z AUTO 17005KT 10SM CLR 23/21 A3019 730 87 1800 180/05 RMK AO2 T02280206
04850KAOH AOH20160720233010807/20/16 23:30:31  5-MIN KAOH 210430Z AUTO 17005KT 10SM CLR 23/21 A3018 730 87 1800 180/05 RMK AO2 T02280206
04850KAOH AOH20160720233510807/20/16 23:35:31  5-MIN KAOH 210435Z AUTO 18005KT 10SM CLR 23/21 A3018 730 87 1800 180/05 RMK AO2 T02280206
04850KAOH AOH20160720234010807/20/16 23:40:31  5-MIN KAOH 210440Z AUTO 16004KT 10SM CLR 22/21 A3018 740 90 1800 170/04 RMK AO2 T02220206
04850KAOH AOH20160720234510807/20/16 23:45:31  5-MIN KAOH 210445Z AUTO 00000KT 10SM CLR 22/20 A3018 740 90 1700 000/00 RMK AO2 T02170200
04850KAOH AOH20160720235012507/20/16 23:50:31  5-MIN KAOH 210450Z AUTO 00000KT 10SM CLR 22/20 A3018 740 90 1700 000/00 RMK AO2 SLP213 T02170200 403110183
04850KAOH AOH20160720235510807/20/16 23:55:31  5-MIN KAOH 210455Z AUTO 17004KT 10SM CLR 22/20 A3018 740 90 1700 170/04 RMK AO2 T02170200
04850KAOH AOH20160721000010807/21/16 00:00:31  5-MIN KAOH 210500Z AUTO 17005KT 10SM CLR 22/20 A3018 740 87 1800 170/05 RMK AO2 T02220200
04850KAOH AOH20160721000510807/21/16 00:05:31  5-MIN KAOH 210505Z AUTO 17004KT 10SM CLR 22/20 A3018 740 87 1800 180/04 RMK AO2 T02220200
04850KAOH AOH20160721001010807/21/16 00:10:31  5-MIN KAOH 210510Z AUTO 17005KT 10SM CLR 22/20 A3018 740 87 1800 170/05 RMK AO2 T02220200
04850KAOH AOH20160721001510807/21/16 00:15:31  5-MIN KAOH 210515Z AUTO 17006KT 10SM CLR 22/20 A3018 740 90 1700 170/06 RMK AO2 T02170200
04850KAOH AOH20160721002010807/21/16 00:20:31  5-MIN KAOH 210520Z AUTO 17005KT 10SM CLR 22/20 A3018 740 87 1800 180/05 RMK AO2 T02220200
04850KAOH AOH20160721002510807/21/16 00:25:31  5-MIN KAOH 210525Z AUTO 17005KT 10SM CLR 22/20 A3018 740 87 1800 180/05 RMK AO2 T02220200
04850KAOH AOH20160721003010807/21/16 00:30:31  5-MIN KAOH 210530Z AUTO 16006KT 10SM CLR 22/20 A3018 740 87 1800 170/06 RMK AO2 T02220200
04850KAOH AOH20160721003510807/21/16 00:35:31  5-MIN KAOH 210535Z AUTO 16006KT 10SM CLR 22/20 A3018 740 87 1800 170/06 RMK AO2 T02220200
04850KAOH AOH20160721004010807/21/16 00:40:31  5-MIN KAOH 210540Z AUTO 16006KT 10SM CLR 22/20 A3018 740 87 1800 170/06 RMK AO2 T02220200
04850KAOH AOH20160721004510807/21/16 00:45:31  5-MIN KAOH 210545Z AUTO 16007KT 10SM CLR 22/20 A3018 740 87 1800 170/07 RMK AO2 T02220200
04850KAOH AOH20160721005013307/21/16 00:50:31  5-MIN KAOH 210550Z AUTO 16006KT 10SM CLR 22/20 A3017 750 87 1800 170/06 RMK AO2 SLP208 T02220200 10294 20217 53008
04850KAOH AOH20160721005510807/21/16 00:55:31  5-MIN KAOH 210555Z AUTO 16006KT 10SM CLR 22/20 A3017 750 90 1700 170/06 RMK AO2 T02170200
04850KAOH AOH20160721010010807/21/16 01:00:31  5-MIN KAOH 210600Z AUTO 16007KT 10SM CLR 22/19 A3017 750 87 1700 170/07 RMK AO2 T02170194
04850KAOH AOH20160721010510807/21/16 01:05:31  5-MIN KAOH 210605Z AUTO 16006KT 10SM CLR 22/19 A3017 750 87 1700 170/06 RMK AO2 T02170194
04850KAOH AOH20160721011010807/21/16 01:10:31  5-MIN KAOH 210610Z AUTO 17006KT 10SM CLR 22/19 A3017 750 87 1700 170/06 RMK AO2 T02170194
04850KAOH AOH20160721011510807/21/16 01:15:31  5-MIN KAOH 210615Z AUTO 17006KT 10SM CLR 22/19 A3016 750 87 1700 180/06 RMK AO2 T02170194
04850KAOH AOH20160721012010807/21/16 01:20:31  5-MIN KAOH 210620Z AUTO 17006KT 10SM CLR 22/19 A3016 750 87 1700 170/06 RMK AO2 T02170194
04850KAOH AOH20160721012510807/21/16 01:25:31  5-MIN KAOH 210625Z AUTO 16006KT 10SM CLR 22/19 A3016 750 87 1700 170/06 RMK AO2 T02170194
04850KAOH AOH20160721013010807/21/16 01:30:31  5-MIN KAOH 210630Z AUTO 16006KT 10SM CLR 22/19 A3016 750 87 1700 170/06 RMK AO2 T02170194
04850KAOH AOH20160721013510807/21/16 01:35:31  5-MIN KAOH 210635Z AUTO 16007KT 10SM CLR 22/19 A3016 760 87 1700 170/07 RMK AO2 T02170194
04850KAOH AOH20160721014010807/21/16 01:40:31  5-MIN KAOH 210640Z AUTO 16006KT 10SM CLR 22/19 A3016 760 87 1700 160/06 RMK AO2 T02170194
04850KAOH AOH20160721014510807/21/16 01:45:31  5-MIN KAOH 210645Z AUTO 16006KT 10SM CLR 22/19 A3016 750 87 1700 160/06 RMK AO2 T02170194
04850KAOH AOH20160721015011507/21/16 01:50:31  5-MIN KAOH 210650Z AUTO 16006KT 10SM CLR 22/19 A3016 750 87 1700 160/06 RMK AO2 SLP205 T02170194
04850KAOH AOH20160721015510807/21/16 01:55:31  5-MIN KAOH 210655Z AUTO 16007KT 10SM CLR 22/19 A3016 750 87 1700 160/07 RMK AO2 T02170194
04850KAOH AOH20160721020010807/21/16 02:00:31  5-MIN KAOH 210700Z AUTO 16007KT 10SM CLR 22/19 A3016 750 87 1700 170/07 RMK AO2 T02170194
04850KAOH AOH20160721020510807/21/16 02:05:31  5-MIN KAOH 210705Z AUTO 16007KT 10SM CLR 22/19 A3016 750 87 1700 170/07 RMK AO2 T02170194
04850KAOH AOH20160721021010807/21/16 02:10:31  5-MIN KAOH 210710Z AUTO 16007KT 10SM CLR 22/19 A3016 750 87 1700 160/07 RMK AO2 T02170194
04850KAOH AOH20160721021510807/21/16 02:15:31  5-MIN KAOH 210715Z AUTO 16006KT 10SM CLR 21/19 A3016 750 90 1700 160/06 RMK AO2 T02110194
04850KAOH AOH20160721022010807/21/16 02:20:31  5-MIN KAOH 210720Z AUTO 16007KT 10SM CLR 21/19 A3016 760 90 1700 170/07 RMK AO2 T02110194
04850KAOH AOH20160721022510807/21/16 02:25:31  5-MIN KAOH 210725Z AUTO 16007KT 10SM CLR 21/19 A3016 760 90 1700 170/07 RMK AO2 T02110194
04850KAOH AOH20160721023010807/21/16 02:30:31  5-MIN KAOH 210730Z AUTO 16007KT 10SM CLR 21/19 A3016 750 90 1700 160/07 RMK AO2 T02110194
04850KAOH AOH20160721023510807/21/16 02:35:31  5-MIN KAOH 210735Z AUTO 16007KT 10SM CLR 21/19 A3016 750 87 1700 160/07 RMK AO2 T02110189
04850KAOH AOH20160721024010807/21/16 02:40:31  5-MIN KAOH 210740Z AUTO 16007KT 10SM CLR 21/19 A3016 750 87 1700 160/07 RMK AO2 T02110189
04850KAOH AOH20160721024510807/21/16 02:45:31  5-MIN KAOH 210745Z AUTO 15006KT 10SM CLR 21/19 A3016 750 87 1700 160/06 RMK AO2 T02110189
04850KAOH AOH20160721025011507/21/16 02:50:31  5-MIN KAOH 210750Z AUTO 15006KT 10SM CLR 21/19 A3016 750 90 1600 150/06 RMK AO2 SLP207 T02060189
04850KAOH AOH20160721025510807/21/16 02:55:31  5-MIN KAOH 210755Z AUTO 15006KT 10SM CLR 21/19 A3017 750 90 1600 150/06 RMK AO2 T02060189
04850KAOH AOH20160721030010807/21/16 03:00:31  5-MIN KAOH 210800Z AUTO 15006KT 10SM CLR 21/19 A3017 750 90 1600 160/06 RMK AO2 T02060189
04850KAOH AOH20160721030510807/21/16 03:05:31  5-MIN KAOH 210805Z AUTO 15007KT 10SM CLR 21/19 A3017 750 90 1600 150/07 RMK AO2 T02060189
04850KAOH AOH20160721031010807/21/16 03:10:31  5-MIN KAOH 210810Z AUTO 15007KT 10SM CLR 21/19 A3017 750 90 1600 160/07 RMK AO2 T02060189
04850KAOH AOH20160721031510807/21/16 03:15:31  5-MIN KAOH 210815Z AUTO 16006KT 10SM CLR 21/19 A3016 750 87 1700 160/06 RMK AO2 T02110189
04850KAOH AOH20160721032010807/21/16 03:20:31  5-MIN KAOH 210820Z AUTO 16006KT 10SM CLR 21/19 A3016 750 87 1700 160/06 RMK AO2 T02110189
04850KAOH AOH20160721032510807/21/16 03:25:31  5-MIN KAOH 210825Z AUTO 16006KT 10SM CLR 21/19 A3016 750 87 1700 160/06 RMK AO2 T02110189
04850KAOH AOH20160721033010807/21/16 03:30:31  5-MIN KAOH 210830Z AUTO 16006KT 10SM CLR 21/19 A3016 750 87 1700 160/06 RMK AO2 T02110189
04850KAOH AOH20160721033510807/21/16 03:35:31  5-MIN KAOH 210835Z AUTO 16006KT 10SM CLR 21/19 A3017 750 90 1600 160/06 RMK AO2 T02060189
04850KAOH AOH20160721034010807/21/16 03:40:31  5-MIN KAOH 210840Z AUTO 16007KT 10SM CLR 21/19 A3017 750 90 1600 170/07 RMK AO2 T02060189
04850KAOH AOH20160721034510807/21/16 03:45:31  5-MIN KAOH 210845Z AUTO 16007KT 10SM CLR 21/19 A3017 750 87 1700 170/07 RMK AO2 T02110189
04850KAOH AOH20160721035012107/21/16 03:50:31  5-MIN KAOH 210850Z AUTO 16007KT 10SM CLR 21/19 A3017 750 87 1700 160/07 RMK AO2 SLP207 T02110189 58006
04850KAOH AOH20160721035510807/21/16 03:55:31  5-MIN KAOH 210855Z AUTO 16006KT 10SM CLR 21/19 A3017 750 90 1600 160/06 RMK AO2 T02060189
04850KAOH AOH20160721040010807/21/16 04:00:31  5-MIN KAOH 210900Z AUTO 16006KT 10SM CLR 21/18 A3017 740 87 1600 170/06 RMK AO2 T02060183
04850KAOH AOH20160721040510807/21/16 04:05:31  5-MIN KAOH 210905Z AUTO 17006KT 10SM CLR 21/18 A3017 740 84 1700 170/06 RMK AO2 T02110183
04850KAOH AOH20160721041010807/21/16 04:10:31  5-MIN KAOH 210910Z AUTO 17006KT 10SM CLR 21/18 A3017 750 87 1600 170/06 RMK AO2 T02060183
04850KAOH AOH20160721041510807/21/16 04:15:31  5-MIN KAOH 210915Z AUTO 16006KT 10SM CLR 21/18 A3017 750 87 1600 170/06 RMK AO2 T02060183
04850KAOH AOH20160721042010807/21/16 04:20:31  5-MIN KAOH 210920Z AUTO 16006KT 10SM CLR 21/18 A3017 750 87 1600 170/06 RMK AO2 T02060183
04850KAOH AOH20160721042510807/21/16 04:25:31  5-MIN KAOH 210925Z AUTO 17007KT 10SM CLR 21/18 A3017 750 87 1600 170/07 RMK AO2 T02060183
04850KAOH AOH20160721043010807/21/16 04:30:31  5-MIN KAOH 210930Z AUTO 17007KT 10SM CLR 21/18 A3017 740 84 1700 170/07 RMK AO2 T02110183
04850KAOH AOH20160721043510807/21/16 04:35:31  5-MIN KAOH 210935Z AUTO 17007KT 10SM CLR 21/18 A3017 740 84 1700 170/07 RMK AO2 T02110183
04850KAOH AOH20160721044010807/21/16 04:40:31  5-MIN KAOH 210940Z AUTO 17007KT 10SM CLR 21/18 A3017 740 87 1600 170/07 RMK AO2 T02060183
04850KAOH AOH20160721044510807/21/16 04:45:31  5-MIN KAOH 210945Z AUTO 17006KT 10SM CLR 21/18 A3017 740 87 1600 180/06 RMK AO2 T02060183
04850KAOH AOH20160721045011507/21/16 04:50:31  5-MIN KAOH 210950Z AUTO 17007KT 10SM CLR 21/18 A3017 740 87 1600 180/07 RMK AO2 SLP210 T02060183
04850KAOH AOH20160721045510807/21/16 04:55:31  5-MIN KAOH 210955Z AUTO 17007KT 10SM CLR 21/18 A3017 740 87 1600 180/07 RMK AO2 T02060183
04850KAOH AOH20160721050010807/21/16 05:00:31  5-MIN KAOH 211000Z AUTO 17007KT 10SM CLR 21/18 A3017 750 87 1600 180/07 RMK AO2 T02060183
04850KAOH AOH20160721050510807/21/16 05:05:31  5-MIN KAOH 211005Z AUTO 17007KT 10SM CLR 21/18 A3017 740 87 1600 180/07 RMK AO2 T02060183
04850KAOH AOH20160721051010807/21/16 05:10:31  5-MIN KAOH 211010Z AUTO 17006KT 10SM CLR 21/18 A3017 750 87 1600 170/06 RMK AO2 T02060183
04850KAOH AOH20160721051510807/21/16 05:15:31  5-MIN KAOH 211015Z AUTO 17007KT 10SM CLR 21/18 A3017 740 87 1600 180/07 RMK AO2 T02060183
04850KAOH AOH20160721052010807/21/16 05:20:31  5-MIN KAOH 211020Z AUTO 17007KT 10SM CLR 21/18 A3018 740 87 1600 180/07 RMK AO2 T02060183
04850KAOH AOH20160721052510807/21/16 05:25:31  5-MIN KAOH 211025Z AUTO 17007KT 10SM CLR 21/18 A3018 740 87 1600 180/07 RMK AO2 T02060183
04850KAOH AOH20160721053010807/21/16 05:30:31  5-MIN KAOH 211030Z AUTO 18007KT 10SM CLR 21/18 A3018 740 87 1600 180/07 RMK AO2 T02060183
04850KAOH AOH20160721053510807/21/16 05:35:31  5-MIN KAOH 211035Z AUTO 18007KT 10SM CLR 21/18 A3018 740 87 1600 180/07 RMK AO2 T02060183
04850KAOH AOH20160721054010807/21/16 05:40:31  5-MIN KAOH 211040Z AUTO 18007KT 10SM CLR 21/18 A3018 740 87 1600 190/07 RMK AO2 T02060183
04850KAOH AOH20160721054510807/21/16 05:45:31  5-MIN KAOH 211045Z AUTO 18006KT 10SM CLR 21/18 A3018 740 84 1700 190/06 RMK AO2 T02110183
04850KAOH AOH20160721055011507/21/16 05:50:31  5-MIN KAOH 211050Z AUTO 18007KT 10SM CLR 21/18 A3018 740 84 1700 180/07 RMK AO2 SLP210 T02110183
04850KAOH AOH20160721055510807/21/16 05:55:31  5-MIN KAOH 211055Z AUTO 18007KT 10SM CLR 21/18 A3018 740 87 1600 190/07 RMK AO2 T02060183
04850KAOH AOH20160721060010807/21/16 06:00:31  5-MIN KAOH 211100Z AUTO 18007KT 10SM CLR 21/18 A3017 740 84 1700 190/07 RMK AO2 T02110183
04850KAOH AOH20160721060510807/21/16 06:05:31  5-MIN KAOH 211105Z AUTO 18006KT 10SM CLR 21/18 A3017 740 84 1700 190/06 RMK AO2 T02110183
04850KAOH AOH20160721061010807/21/16 06:10:31  5-MIN KAOH 211110Z AUTO 18006KT 10SM CLR 21/18 A3018 740 84 1700 190/06 RMK AO2 T02110183
04850KAOH AOH20160721061510807/21/16 06:15:31  5-MIN KAOH 211115Z AUTO 17006KT 10SM CLR 21/18 A3018 740 84 1700 180/06 RMK AO2 T02110183
04850KAOH AOH20160721062010807/21/16 06:20:31  5-MIN KAOH 211120Z AUTO 17006KT 10SM CLR 21/19 A3017 740 87 1700 170/06 RMK AO2 T02110189
04850KAOH AOH20160721062510807/21/16 06:25:31  5-MIN KAOH 211125Z AUTO 17007KT 10SM CLR 21/19 A3017 750 87 1700 180/07 RMK AO2 T02110189
04850KAOH AOH20160721063010807/21/16 06:30:31  5-MIN KAOH 211130Z AUTO 17006KT 10SM CLR 21/19 A3017 750 87 1700 180/06 RMK AO2 T02110189
04850KAOH AOH20160721063510807/21/16 06:35:31  5-MIN KAOH 211135Z AUTO 17006KT 10SM CLR 22/19 A3017 750 84 1700 180/06 RMK AO2 T02170189
04850KAOH AOH20160721064010807/21/16 06:40:31  5-MIN KAOH 211140Z AUTO 17006KT 10SM CLR 22/19 A3017 750 84 1700 180/06 RMK AO2 T02170189
04850KAOH AOH20160721064510807/21/16 06:45:31  5-MIN KAOH 211145Z AUTO 17005KT 10SM CLR 22/19 A3017 740 84 1700 180/05 RMK AO2 T02170189
04850KAOH AOH20160721065013307/21/16 06:50:31  5-MIN KAOH 211150Z AUTO 17005KT 10SM CLR 22/19 A3018 740 81 1800 180/05 RMK AO2 SLP210 T02220189 10222 20206 55000
04850KAOH AOH20160721065510807/21/16 06:55:31  5-MIN KAOH 211155Z AUTO 18004KT 10SM CLR 22/19 A3018 740 84 1800 180/04 RMK AO2 T02220194
04850KAOH AOH20160721070010807/21/16 07:00:31  5-MIN KAOH 211200Z AUTO 19005KT 10SM CLR 22/19 A3018 740 84 1800 200/05 RMK AO2 T02220194
04850KAOH AOH20160721070510807/21/16 07:05:31  5-MIN KAOH 211205Z AUTO 20004KT 10SM CLR 23/19 A3018 740 81 1900 200/04 RMK AO2 T02280194
04850KAOH AOH20160721071010807/21/16 07:10:31  5-MIN KAOH 211210Z AUTO 18006KT 10SM CLR 23/20 A3018 740 84 1900 190/06 RMK AO2 T02280200
04850KAOH AOH20160721071510807/21/16 07:15:31  5-MIN KAOH 211215Z AUTO 19006KT 10SM CLR 23/20 A3018 740 84 1900 190/06 RMK AO2 T02280200
04850KAOH AOH20160721072010807/21/16 07:20:31  5-MIN KAOH 211220Z AUTO 20006KT 10SM CLR 23/20 A3017 740 84 1900 200/06 RMK AO2 T02280200
04850KAOH AOH20160721072510807/21/16 07:25:31  5-MIN KAOH 211225Z AUTO 20006KT 10SM CLR 23/20 A3017 740 84 1900 210/06 RMK AO2 T02280200
04850KAOH AOH20160721073010807/21/16 07:30:31  5-MIN KAOH 211230Z AUTO 20006KT 10SM CLR 23/21 A3018 740 84 1900 200/06 RMK AO2 T02330206
04850KAOH AOH20160721073510807/21/16 07:35:31  5-MIN KAOH 211235Z AUTO 20005KT 10SM CLR 23/20 A3018 740 81 1900 200/05 RMK AO2 T02330200
04850KAOH AOH20160721074010807/21/16 07:40:31  5-MIN KAOH 211240Z AUTO 21005KT 10SM CLR 23/21 A3018 740 84 1900 220/05 RMK AO2 T02330206
04850KAOH AOH20160721074510807/21/16 07:45:31  5-MIN KAOH 211245Z AUTO 21006KT 10SM CLR 24/21 A3018 740 81 2000 210/06 RMK AO2 T02390206
04850KAOH AOH20160721075011507/21/16 07:50:31  5-MIN KAOH 211250Z AUTO 21004KT 10SM CLR 24/21 A3018 740 84 2000 210/04 RMK AO2 SLP211 T02390211
04850KAOH AOH20160721075510807/21/16 07:55:31  5-MIN KAOH 211255Z AUTO 19005KT 10SM CLR 24/21 A3018 740 81 2000 200/05 RMK AO2 T02440211
04850KAOH AOH20160721080010807/21/16 08:00:31  5-MIN KAOH 211300Z AUTO 20007KT 10SM CLR 24/21 A3018 740 81 2000 210/07 RMK AO2 T02440211
04850KAOH AOH20160721080510807/21/16 08:05:31  5-MIN KAOH 211305Z AUTO 20007KT 10SM CLR 24/21 A3018 740 81 2000 210/07 RMK AO2 T02440211
04850KAOH AOH20160721081010807/21/16 08:10:31  5-MIN KAOH 211310Z AUTO 20007KT 10SM CLR 25/21 A3018 740 79 2100 200/07 RMK AO2 T02500211
04850KAOH AOH20160721081510807/21/16 08:15:31  5-MIN KAOH 211315Z AUTO 19009KT 10SM CLR 25/21 A3018 740 79 2100 200/09 RMK AO2 T02500211
04850KAOH AOH20160721082010807/21/16 08:20:31  5-MIN KAOH 211320Z AUTO 20008KT 10SM CLR 25/21 A3018 740 76 2100 210/08 RMK AO2 T02500206
04850KAOH AOH20160721082510807/21/16 08:25:31  5-MIN KAOH 211325Z AUTO 22008KT 10SM CLR 26/21 A3018 730 76 2200 220/08 RMK AO2 T02560211
04850KAOH AOH20160721083010807/21/16 08:30:31  5-MIN KAOH 211330Z AUTO 20008KT 10SM CLR 26/21 A3018 740 76 2200 200/08 RMK AO2 T02560211
04850KAOH AOH20160721083510807/21/16 08:35:31  5-MIN KAOH 211335Z AUTO 21008KT 10SM CLR 26/21 A3018 740 76 2200 220/08 RMK AO2 T02560211
04850KAOH AOH20160721084010807/21/16 08:40:31  5-MIN KAOH 211340Z AUTO 22007KT 10SM CLR 26/21 A3018 740 73 2200 220/07 RMK AO2 T02610211
04850KAOH AOH20160721084510807/21/16 08:45:31  5-MIN KAOH 211345Z AUTO 22008KT 10SM CLR 26/21 A3017 740 73 2200 230/08 RMK AO2 T02610211
04850KAOH AOH20160721085011507/21/16 08:50:31  5-MIN KAOH 211350Z AUTO 22009KT 10SM CLR 27/22 A3017 740 73 2300 220/09 RMK AO2 SLP209 T02670217
04850KAOH AOH20160721085510807/21/16 08:55:31  5-MIN KAOH 211355Z AUTO 23008KT 10SM CLR 27/22 A3017 740 73 2300 230/08 RMK AO2 T02670217
04850KAOH AOH20160721090010807/21/16 09:00:31  5-MIN KAOH 211400Z AUTO 21009KT 10SM CLR 27/22 A3017 750 74 2400 220/09 RMK AO2 T02720222
04850KAOH AOH20160721090510807/21/16 09:05:31  5-MIN KAOH 211405Z AUTO 20008KT 10SM CLR 27/22 A3017 750 71 2400 210/08 RMK AO2 T02720217
04850KAOH AOH20160721091010807/21/16 09:10:31  5-MIN KAOH 211410Z AUTO 22008KT 10SM CLR 27/22 A3017 750 71 2400 230/08 RMK AO2 T02720217
04850KAOH AOH20160721091510807/21/16 09:15:31  5-MIN KAOH 211415Z AUTO 23009KT 10SM CLR 28/22 A3017 750 69 2400 230/09 RMK AO2 T02780217
04850KAOH AOH20160721092010807/21/16 09:20:31  5-MIN KAOH 211420Z AUTO 22008KT 10SM CLR 28/22 A3017 750 69 2400 230/08 RMK AO2 T02780217
04850KAOH AOH20160721092510807/21/16 09:25:31  5-MIN KAOH 211425Z AUTO 21010KT 10SM CLR 28/22 A3016 750 69 2400 220/10 RMK AO2 T02780217
04850KAOH AOH20160721093010807/21/16 09:30:31  5-MIN KAOH 211430Z AUTO 23012KT 10SM CLR 28/22 A3016 750 69 2400 240/12 RMK AO2 T02780217
04850KAOH AOH20160721093510807/21/16 09:35:31  5-MIN KAOH 211435Z AUTO 21008KT 10SM CLR 28/22 A3016 750 69 2400 220/08 RMK AO2 T02780217
04850KAOH AOH20160721094010807/21/16 09:40:31  5-MIN KAOH 211440Z AUTO 22009KT 10SM CLR 28/22 A3017 750 66 2500 230/09 RMK AO2 T02830217
04850KAOH AOH20160721094510807/21/16 09:45:31  5-MIN KAOH 211445Z AUTO 22008KT 10SM CLR 28/22 A3016 750 66 2500 230/08 RMK AO2 T02830217
04850KAOH AOH20160721095012107/21/16 09:50:31  5-MIN KAOH 211450Z AUTO 22008KT 10SM CLR 28/22 A3016 750 66 2500 220/08 RMK AO2 SLP205 T02830217 51003
04850KAOH AOH20160721095510807/21/16 09:55:31  5-MIN KAOH 211455Z AUTO 23009KT 10SM CLR 29/22 A3016 760 67 2600 240/09 RMK AO2 T02890222
04850KAOH AOH20160721100010807/21/16 10:00:31  5-MIN KAOH 211500Z AUTO 20010KT 10SM CLR 29/22 A3015 770 64 2600 210/10 RMK AO2 T02890217
04850KAOH AOH20160721100510807/21/16 10:05:31  5-MIN KAOH 211505Z AUTO 21008KT 10SM CLR 29/22 A3014 770 64 2600 210/08 RMK AO2 T02890217
04850KAOH AOH20160721101010807/21/16 10:10:31  5-MIN KAOH 211510Z AUTO 22007KT 10SM CLR 29/22 A3014 770 67 2600 230/07 RMK AO2 T02890222
04850KAOH AOH20160721101510807/21/16 10:15:31  5-MIN KAOH 211515Z AUTO 19011KT 10SM CLR 29/22 A3014 770 67 2600 200/11 RMK AO2 T02890222
04850KAOH AOH20160721102011107/21/16 10:20:31  5-MIN KAOH 211520Z AUTO 21008KT 10SM FEW032 29/22 A3014 770 67 2600 220/08 RMK AO2 T02890222
04850KAOH AOH20160721102511107/21/16 10:25:31  5-MIN KAOH 211525Z AUTO 20010KT 10SM FEW032 29/22 A3014 770 62 2600 200/10 RMK AO2 T02940217
04850KAOH AOH20160721103010807/21/16 10:30:31  5-MIN KAOH 211530Z AUTO 24011KT 10SM CLR 29/22 A3014 770 62 2600 240/11 RMK AO2 T02940217
04850KAOH AOH20160721103510807/21/16 10:35:31  5-MIN KAOH 211535Z AUTO 21010KT 10SM CLR 29/22 A3014 770 62 2600 210/10 RMK AO2 T02940217
04850KAOH AOH20160721104011107/21/16 10:40:31  5-MIN KAOH 211540Z AUTO 23009KT 10SM FEW033 29/22 A3015 770 62 2600 240/09 RMK AO2 T02940217
04850KAOH AOH20160721104511107/21/16 10:45:31  5-MIN KAOH 211545Z AUTO 21010KT 10SM FEW033 29/22 A3015 760 62 2600 220/10 RMK AO2 T02940217
04850KAOH AOH20160721105011507/21/16 10:50:31  5-MIN KAOH 211550Z AUTO 23009KT 10SM CLR 30/22 A3015 770 60 2700 240/09 RMK AO2 SLP200 T03000217
04850KAOH AOH20160721105510807/21/16 10:55:31  5-MIN KAOH 211555Z AUTO 22010KT 10SM CLR 30/22 A3015 770 60 2700 230/10 RMK AO2 T03000217
04850KAOH AOH20160721110011107/21/16 11:00:31  5-MIN KAOH 211600Z AUTO 25010KT 10SM FEW038 29/21 A3015 770 60 2600 260/10 RMK AO2 T02940211
04850KAOH AOH20160721110511107/21/16 11:05:31  5-MIN KAOH 211605Z AUTO 22011KT 10SM FEW038 30/22 A3015 770 60 2700 230/11 RMK AO2 T03000217
04850KAOH AOH20160721111011107/21/16 11:10:31  5-MIN KAOH 211610Z AUTO 24011KT 10SM FEW040 30/21 A3015 770 58 2700 240/11 RMK AO2 T03000211
04850KAOH AOH20160721111511107/21/16 11:15:31  5-MIN KAOH 211615Z AUTO 23010KT 10SM SCT040 30/21 A3015 770 58 2700 240/10 RMK AO2 T03000211
04850KAOH AOH20160721112011107/21/16 11:20:31  5-MIN KAOH 211620Z AUTO 23012KT 10SM FEW038 30/21 A3015 770 58 2700 240/12 RMK AO2 T03000211
04850KAOH AOH20160721112511107/21/16 11:25:31  5-MIN KAOH 211625Z AUTO 23011KT 10SM FEW040 30/21 A3015 770 58 2700 240/11 RMK AO2 T03000211
04850KAOH AOH20160721113011107/21/16 11:30:31  5-MIN KAOH 211630Z AUTO 21010KT 10SM SCT042 30/21 A3015 770 58 2700 220/10 RMK AO2 T03000211
04850KAOH AOH20160721113511107/21/16 11:35:31  5-MIN KAOH 211635Z AUTO 22011KT 10SM SCT040 31/22 A3015 760 58 2800 230/11 RMK AO2 T03060217
04850KAOH AOH20160721114011807/21/16 11:40:31  5-MIN KAOH 211640Z AUTO 22013KT 10SM SCT040 SCT050 31/21 A3015 760 56 2800 230/13 RMK AO2 T03060211
04850KAOH AOH20160721114511807/21/16 11:45:31  5-MIN KAOH 211645Z AUTO 23011KT 10SM FEW042 SCT050 31/21 A3016 760 56 2700 230/11 RMK AO2 T03060211
04850KAOH AOH20160721115012507/21/16 11:50:31  5-MIN KAOH 211650Z AUTO 24011KT 10SM FEW042 SCT055 31/21 A3015 760 54 2800 240/11 RMK AO2 SLP202 T03110211
04850KAOH AOH20160721115511807/21/16 11:55:31  5-MIN KAOH 211655Z AUTO 24011KT 10SM FEW042 SCT055 31/21 A3015 760 54 2800 250/11 RMK AO2 T03110211
04850KAOH AOH20160721120011807/21/16 12:00:31  5-MIN KAOH 211700Z AUTO 22010KT 10SM FEW042 BKN055 31/21 A3015 760 54 2800 230/10 RMK AO2 T03110211
04850KAOH AOH20160721120511807/21/16 12:05:31  5-MIN KAOH 211705Z AUTO 22013KT 10SM FEW042 BKN055 31/21 A3015 760 54 2800 220/13 RMK AO2 T03110211
04850KAOH AOH20160721121011807/21/16 12:10:31  5-MIN KAOH 211710Z AUTO 24012KT 10SM SCT042 BKN055 31/22 A3015 760 58 2800 240/12 RMK AO2 T03060217
04850KAOH AOH20160721121511807/21/16 12:15:31  5-MIN KAOH 211715Z AUTO 26011KT 10SM FEW042 BKN055 31/22 A3015 760 58 2800 260/11 RMK AO2 T03060217
04850KAOH AOH20160721122011807/21/16 12:20:31  5-MIN KAOH 211720Z AUTO 25009KT 10SM FEW042 SCT055 31/22 A3015 770 56 2800 250/09 RMK AO2 T03110217
04850KAOH AOH20160721122511807/21/16 12:25:31  5-MIN KAOH 211725Z AUTO 24011KT 10SM FEW042 SCT055 30/22 A3015 770 60 2700 250/11 RMK AO2 T03000217
04850KAOH AOH20160721123011807/21/16 12:30:31  5-MIN KAOH 211730Z AUTO 24010KT 10SM FEW043 SCT055 30/22 A3015 770 60 2700 250/10 RMK AO2 T03000217
04850KAOH AOH20160721123511807/21/16 12:35:31  5-MIN KAOH 211735Z AUTO 26011KT 10SM FEW043 SCT050 30/22 A3014 770 60 2700 270/11 RMK AO2 T03000217
04850KAOH AOH20160721124011807/21/16 12:40:31  5-MIN KAOH 211740Z AUTO 25012KT 10SM FEW045 FEW055 31/22 A3014 770 60 2800 250/12 RMK AO2 T03060222
04850KAOH AOH20160721124511807/21/16 12:45:31  5-MIN KAOH 211745Z AUTO 23010KT 10SM FEW045 FEW055 31/22 A3014 770 58 2800 240/10 RMK AO2 T03110222
04850KAOH AOH20160721125014307/21/16 12:50:31  5-MIN KAOH 211750Z AUTO 23012KT 10SM FEW044 FEW055 31/22 A3014 770 56 2800 240/12 RMK AO2 SLP199 T03110217 10311 20222 58006
04850KAOH AOH20160721125511107/21/16 12:55:31  5-MIN KAOH 211755Z AUTO 24010KT 10SM FEW060 31/22 A3014 770 56 2800 250/10 RMK AO2 T03110217
04850KAOH AOH20160721130011107/21/16 13:00:31  5-MIN KAOH 211800Z AUTO 21010KT 10SM SCT060 31/21 A3014 770 56 2800 220/10 RMK AO2 T03060211
04850KAOH AOH20160721130511807/21/16 13:05:31  5-MIN KAOH 211805Z AUTO 24010KT 10SM FEW042 SCT060 31/22 A3014 770 56 2800 240/10 RMK AO2 T03110217
04850KAOH AOH20160721131011807/21/16 13:10:31  5-MIN KAOH 211810Z AUTO 22013KT 10SM FEW042 SCT060 32/22 A3014 780 55 2900 230/13 RMK AO2 T03170217
04850KAOH AOH20160721131511807/21/16 13:15:31  5-MIN KAOH 211815Z AUTO 24012KT 10SM FEW042 SCT060 31/21 A3013 780 54 2800 240/12 RMK AO2 T03110211
04850KAOH AOH20160721132011807/21/16 13:20:31  5-MIN KAOH 211820Z AUTO 23009KT 10SM FEW042 BKN060 31/22 A3013 780 56 2800 240/09 RMK AO2 T03110217
04850KAOH AOH20160721132512507/21/16 13:25:31  5-MIN KAOH 211825Z AUTO 24011KT 10SM FEW042 FEW050 BKN060 31/22 A3013 790 56 2800 240/11 RMK AO2 T03110217
04850KAOH AOH20160721133011807/21/16 13:30:31  5-MIN KAOH 211830Z AUTO 23011KT 10SM SCT047 BKN060 31/21 A3012 790 56 2800 240/11 RMK AO2 T03060211
04850KAOH AOH20160721133511807/21/16 13:35:31  5-MIN KAOH 211835Z AUTO 24008KT 10SM SCT047 BKN060 31/22 A3012 790 58 2800 250/08 RMK AO2 T03060217
04850KAOH AOH20160721134011807/21/16 13:40:31  5-MIN KAOH 211840Z AUTO 22009KT 10SM SCT047 BKN060 31/22 A3011 800 58 2900 230/09 RMK AO2 T03110222
04850KAOH AOH20160721134511807/21/16 13:45:31  5-MIN KAOH 211845Z AUTO 22010KT 10SM BKN046 BKN060 31/22 A3011 800 56 2900 230/10 RMK AO2 T03110217
04850KAOH AOH20160721135011807/21/16 13:50:31  5-MIN KAOH 211850Z AUTO 23012KT 10SM BKN047 32/22 A3011 800 55 2900 230/12 RMK AO2 SLP188 T03170217
04850KAOH AOH20160721135511807/21/16 13:55:31  5-MIN KAOH 211855Z AUTO 22009KT 10SM SCT043 SCT050 32/22 A3011 800 55 2900 220/09 RMK AO2 T03170217
04850KAOH AOH20160721140011107/21/16 14:00:31  5-MIN KAOH 211900Z AUTO 23011KT 10SM SCT045 32/22 A3011 800 55 2900 230/11 RMK AO2 T03170217
04850KAOH AOH20160721140512407/21/16 14:05:31  5-MIN KAOH 211905Z AUTO 22013G17KT 10SM FEW043 SCT050 31/22 A3010 810 56 2900 230/13G17 RMK AO2 T03110217
04850KAOH AOH20160721141011707/21/16 14:10:31  5-MIN KAOH 211910Z AUTO 24011G17KT 10SM FEW045 31/22 A3010 810 56 2900 240/11G17 RMK AO2 T03110217
04850KAOH AOH20160721141511107/21/16 14:15:31  5-MIN KAOH 211915Z AUTO 22011KT 10SM FEW045 31/22 A3010 820 56 2900 230/11 RMK AO2 T03110217
04850KAOH AOH20160721142011807/21/16 14:20:31  5-MIN KAOH 211920Z AUTO 24009KT 10SM FEW045 FEW060 31/22 A3009 820 56 2900 240/09 RMK AO2 T03110217
04850KAOH AOH20160721142511807/21/16 14:25:31  5-MIN KAOH 211925Z AUTO 22010KT 10SM FEW047 FEW060 31/22 A3009 820 56 2900 220/10 RMK AO2 T03110217
04850KAOH AOH20160721143011107/21/16 14:30:31  5-MIN KAOH 211930Z AUTO 22009KT 10SM FEW050 31/22 A3009 820 58 2900 230/09 RMK AO2 T03110222
04850KAOH AOH20160721143511807/21/16 14:35:31  5-MIN KAOH 211935Z AUTO 22012KT 10SM FEW050 FEW060 31/22 A3009 820 56 2900 230/12 RMK AO2 T03110217
04850KAOH AOH20160721144011807/21/16 14:40:31  5-MIN KAOH 211940Z AUTO 24013KT 10SM FEW050 FEW060 31/22 A3009 820 56 2900 240/13 RMK AO2 T03110217
04850KAOH AOH20160721144511107/21/16 14:45:31  5-MIN KAOH 211945Z AUTO 23012KT 10SM FEW055 31/22 A3010 810 56 2900 240/12 RMK AO2 T03110217
04850KAOH AOH20160721145011507/21/16 14:50:31  5-MIN KAOH 211950Z AUTO 24010KT 10SM CLR 31/22 A3010 810 56 2900 240/10 RMK AO2 SLP184 T03110217
04850KAOH AOH20160721145510807/21/16 14:55:31  5-MIN KAOH 211955Z AUTO 25010KT 10SM CLR 31/22 A3010 810 58 2800 260/10 RMK AO2 T03060217
04850KAOH AOH20160721150011107/21/16 15:00:31  5-MIN KAOH 212000Z AUTO 23012KT 10SM FEW044 31/22 A3010 810 58 2800 240/12 RMK AO2 T03060217
04850KAOH AOH20160721150511107/21/16 15:05:31  5-MIN KAOH 212005Z AUTO 26011KT 10SM FEW044 31/22 A3011 800 58 2800 270/11 RMK AO2 T03060217
04850KAOH AOH20160721151011107/21/16 15:10:31  5-MIN KAOH 212010Z AUTO 26012KT 10SM SCT044 31/22 A3011 800 60 2800 270/12 RMK AO2 T03060222
04850KAOH AOH20160721151511107/21/16 15:15:31  5-MIN KAOH 212015Z AUTO 25013KT 10SM SCT045 31/22 A3011 800 58 2900 260/13 RMK AO2 T03110222
04850KAOH AOH20160721152011107/21/16 15:20:31  5-MIN KAOH 212020Z AUTO 25012KT 10SM FEW045 32/22 A3011 800 56 2900 260/12 RMK AO2 T03170222
04850KAOH AOH20160721152511107/21/16 15:25:31  5-MIN KAOH 212025Z AUTO 26013KT 10SM FEW045 31/22 A3011 800 58 2900 270/13 RMK AO2 T03110222
04850KAOH AOH20160721153011107/21/16 15:30:31  5-MIN KAOH 212030Z AUTO 25012KT 10SM FEW045 32/22 A3011 810 56 2900 260/12 RMK AO2 T03170222
04850KAOH AOH20160721153511107/21/16 15:35:31  5-MIN KAOH 212035Z AUTO 26010KT 10SM FEW045 32/22 A3010 810 56 2900 270/10 RMK AO2 T03170222
04850KAOH AOH20160721154010807/21/16 15:40:31  5-MIN KAOH 212040Z AUTO 26012KT 10SM CLR 31/22 A3011 810 60 2800 260/12 RMK AO2 T03060222
04850KAOH AOH20160721154510807/21/16 15:45:31  5-MIN KAOH 212045Z AUTO 26011KT 10SM CLR 31/22 A3011 810 58 2800 270/11 RMK AO2 T03060217
04850KAOH AOH20160721155012407/21/16 15:50:31  5-MIN KAOH 212050Z AUTO 25010KT 10SM FEW046 31/22 A3010 810 58 2800 250/10 RMK AO2 SLP185 T03060217 56005
04850KAOH AOH20160721155511107/21/16 15:55:31  5-MIN KAOH 212055Z AUTO 26011KT 10SM FEW043 31/22 A3011 810 58 2800 270/11 RMK AO2 T03060217
04850KAOH AOH20160721160011107/21/16 16:00:31  5-MIN KAOH 212100Z AUTO 25011KT 10SM FEW045 31/21 A3010 810 56 2800 260/11 RMK AO2 T03060211
04850KAOH AOH20160721160511807/21/16 16:05:31  5-MIN KAOH 212105Z AUTO 26009KT 10SM FEW045 FEW075 30/22 A3010 810 60 2700 260/09 RMK AO2 T03000217
04850KAOH AOH20160721161011807/21/16 16:10:31  5-MIN KAOH 212110Z AUTO 25008KT 10SM FEW043 FEW075 30/22 A3010 810 62 2700 260/08 RMK AO2 T03000222
04850KAOH AOH20160721161511807/21/16 16:15:31  5-MIN KAOH 212115Z AUTO 25011KT 10SM FEW043 FEW075 30/22 A3010 810 62 2700 250/11 RMK AO2 T03000222
04850KAOH AOH20160721162012207/21/16 16:20:31  5-MIN KAOH 212120Z AUTO 24012KT 10SM FEW075 30/22 A3010 810 62 2800 250/12 RMK AO2 LTG DSNT N T03000222
04850KAOH AOH20160721162512907/21/16 16:25:31  5-MIN KAOH 212125Z AUTO 25009KT 10SM FEW075 30/22 A3010 810 62 2800 260/09 RMK AO2 LTG DSNT N AND NW T03000222
04850KAOH AOH20160721163012907/21/16 16:30:31  5-MIN KAOH 212130Z AUTO 25010KT 10SM FEW075 30/22 A3010 810 62 2800 260/10 RMK AO2 LTG DSNT N AND NW T03000222
04850KAOH AOH20160721163512907/21/16 16:35:31  5-MIN KAOH 212135Z AUTO 25010KT 10SM FEW075 29/22 A3010 810 64 2700 260/10 RMK AO2 LTG DSNT N AND NW T02940222
04850KAOH AOH20160721164012407/21/16 16:40:31  5-MIN KAOH 212140Z AUTO 25010KT 10SM FEW075 29/22 A3010 810 64 2700 260/10 RMK AO2 LTG DSNT W-N T02940222
04850KAOH AOH20160721164512107/21/16 16:45:31  5-MIN KAOH 212145Z AUTO 26011KT 10SM CLR 29/22 A3010 810 64 2700 260/11 RMK AO2 LTG DSNT W-N T02940222
04850KAOH AOH20160721165012807/21/16 16:50:31  5-MIN KAOH 212150Z AUTO 26012KT 10SM CLR 29/22 A3010 810 64 2700 260/12 RMK AO2 LTG DSNT W-N SLP186 T02940222
04850KAOH AOH20160721165512507/21/16 16:55:31  5-MIN KAOH 212155Z AUTO 26011KT 10SM FEW075 29/22 A3011 810 64 2700 270/11 RMK AO2 LTG DSNT W-NE T02940222
04850KAOH AOH20160721170012507/21/16 17:00:31  5-MIN KAOH 212200Z AUTO 27008KT 10SM SCT080 29/22 A3011 810 67 2600 280/08 RMK AO2 LTG DSNT W-NE T02890222
04850KAOH AOH20160721170513207/21/16 17:05:31  5-MIN KAOH 212205Z AUTO 27008KT 10SM SCT080 BKN095 29/22 A3011 800 67 2600 270/08 RMK AO2 LTG DSNT W-NE T02890222
04850KAOH AOH20160721171013207/21/16 17:10:31  5-MIN KAOH 212210Z AUTO 27009KT 10SM FEW048 BKN075 29/22 A3011 800 67 2600 280/09 RMK AO2 LTG DSNT W-NE T02890222
04850KAOH AOH20160721171513307/21/16 17:15:31  5-MIN KAOH 212215Z AUTO 27011KT 10SM FEW046 BKN075 29/22 A3011 800 67 2600 270/11 RMK AO2 LTG DSNT ALQDS T02890222
04850KAOH AOH20160721172014507/21/16 17:20:31  5-MIN KAOH 212220Z AUTO 27008KT 10SM VCTS FEW040 SCT048 BKN075 29/22 A3011 800 67 2600 280/08 RMK AO2 LTG DSNT ALQDS T02890222
04850KAOH AOH20160721172514507/21/16 17:25:31  5-MIN KAOH 212225Z AUTO 32006KT 10SM VCTS SCT040 BKN050 OVC075 29/22 A3011 800 67 2600 320/06 RMK AO2 LTG DSNT ALQDS T02890222
04850KAOH AOH20160721173015107/21/16 17:30:31  5-MIN KAOH 212230Z AUTO 01013G18KT 10SM VCTS BKN040 BKN048 OVC075 28/20 A3011 800 60 2600 010/13G18 RMK AO2 LTG DSNT ALQDS T02830200
04850KAOH AOH20160721173515507/21/16 17:35:31  5-MIN KAOH 212235Z AUTO 04010G18KT 10SM TS BKN040 BKN048 BKN075 25/19 A3010 810 68 2200 040/10G18 RMK AO2 LTG DSNT ALQDS TSB31 T02500189
04850KAOH AOH20160721174015507/21/16 17:40:31  5-MIN KAOH 212240Z AUTO 03007G16KT 10SM TS SCT039 BKN048 BKN100 23/19 A3010 810 78 2000 040/07G16 RMK AO2 LTG DSNT ALQDS TSB31 T02330194
04850KAOH AOH20160721174515707/21/16 17:45:31  5-MIN KAOH 212245Z AUTO 13004KT 10SM -TSRA SCT039 BKN100 24/19 A3010 810 76 2100 130/04 RMK AO2 LTG DSNT ALQDS RAB44 TSB31 P0000 T02390194
04850KAOH AOH20160721175016407/21/16 17:50:31  5-MIN KAOH 212250Z AUTO 15004KT 10SM -TSRA SCT039 BKN100 24/20 A3010 810 78 2100 160/04 RMK AO2 LTG DSNT ALQDS RAB44 TSB31 SLP186 P0000 T02390200
04850KAOH AOH20160721175516107/21/16 17:55:31  5-MIN KAOH 212255Z AUTO 00000KT 10SM -TSRA FEW039 SCT100 SCT120 24/20 A3010 810 78 2100 000/00 RMK AO2 LTG DSNT E AND SW AND W P0000 T02390200
04850KAOH AOH20160721180014607/21/16 18:00:31  5-MIN KAOH 212300Z AUTO 11005KT 9SM -TSRA SCT110 23/21 A3010 810 84 2000 110/05 RMK AO2 LTG DSNT E AND SW AND W P0001 T02330206
04850KAOH AOH20160721180515907/21/16 18:05:31  5-MIN KAOH 212305Z AUTO 14009KT 7SM TSRA SCT100 BKN120 23/21 A3007 840 84 2000 140/09 RMK AO2 LTG DSNT E AND SW AND W PRESFR P0002 T02330206
04850KAOH AOH20160721181016207/21/16 18:10:31  5-MIN KAOH 212310Z AUTO 17016KT 7SM VCTS -RA BKN110 23/21 A3003 880 87 2000 170/16 RMK AO2 LTG DSNT E AND SW AND W TSE06 PRESFR P0003 T02280206
04850KAOH AOH20160721181515707/21/16 18:15:31  5-MIN KAOH 212315Z AUTO 18017KT 10SM VCTS -RA SCT110 23/20 A2999 910 81 2100 180/17 RMK AO2 LTG DSNT SW AND W TSE06 PRESFR P0003 T02330200
04850KAOH AOH20160721182016807/21/16 18:20:31  5-MIN KAOH 212320Z AUTO 18017KT 10SM VCTS -RA SCT110 24/21 A2998 920 78 2300 180/17 RMK AO2 WSHFT 2306 LTG DSNT SW AND W TSE06 PRESFR P0003 T02440206
04850KAOH AOH20160721182517007/21/16 18:25:31  5-MIN KAOH 212325Z AUTO 18012G23KT 10SM -RA FEW045 FEW090 SCT110 24/21 A2999 920 81 2300 180/12G23 RMK AO2 WSHFT 2306 LTG DSNT SW TSE06 P0003 T02440211
04850KAOH AOH20160721183016407/21/16 18:30:31  5-MIN KAOH 212330Z AUTO 20010KT 10SM -RA FEW045 FEW090 SCT110 24/22 A3000 900 84 2200 200/10 RMK AO2 WSHFT 2306 LTG DSNT SW TSE06 P0003 T02440217
04850KAOH AOH20160721183514007/21/16 18:35:31  5-MIN KAOH 212335Z AUTO 22005KT 10SM FEW110 24/22 A3000 900 84 2200 230/05 RMK AO2 WSHFT 2306 RAE35 TSE06 P0003 T02440217
04850KAOH AOH20160721184014407/21/16 18:40:31  5-MIN KAOH 212340Z AUTO VRB05KT 10SM CLR 24/22 A3001 890 84 2200 VRB/05 RMK AO2 WSHFT 2306 RAE35 TSE06 PRESRR P0003 T02440217
04850KAOH AOH20160721184513707/21/16 18:45:31  5-MIN KAOH 212345Z AUTO VRB06KT 10SM CLR 24/22 A3001 890 87 2200 VRB/06 RMK AO2 WSHFT 2306 RAE35 TSE06 P0003 T02390217
04850KAOH AOH20160721185016807/21/16 18:50:31  5-MIN KAOH 212350Z AUTO 20007KT 10SM CLR 24/22 A3000 900 84 2200 210/07 RMK AO2 WSHFT 2306 RAE35 TSE06 SLP152 P0003 60003 T02440217 10317 20228 55013
04850KAOH AOH20160721185510807/21/16 18:55:31  5-MIN KAOH 212355Z AUTO 33015KT 10SM CLR 24/22 A3002 890 90 2200 330/15 RMK AO2 T02390222
04850KAOH AOH20160721190011407/21/16 19:00:31  5-MIN KAOH 220000Z AUTO 31012G16KT 10SM CLR 24/22 A3003 880 87 2100 310/12G16 RMK AO2 T02390217
04850KAOH AOH20160721190511507/21/16 19:05:31  5-MIN KAOH 220005Z AUTO 30010KT 10SM CLR 23/22 A3004 870 90 2100 310/10 RMK AO2 PRESRR T02330217
04850KAOH AOH20160721191012507/21/16 19:10:31  5-MIN KAOH 220010Z AUTO 31013G22KT 10SM CLR 23/22 A3003 880 93 2000 310/13G22 RMK AO2 WSHFT 2354 T02280217
04850KAOH AOH20160721191512507/21/16 19:15:31  5-MIN KAOH 220015Z AUTO 31012G22KT 10SM CLR 23/21 A3004 870 90 2000 310/12G22 RMK AO2 WSHFT 2354 T02280211
04850KAOH AOH20160721192011907/21/16 19:20:31  5-MIN KAOH 220020Z AUTO 31009KT 10SM CLR 22/21 A3004 870 93 1900 310/09 RMK AO2 WSHFT 2354 T02220211
04850KAOH AOH20160721192511907/21/16 19:25:31  5-MIN KAOH 220025Z AUTO 30010KT 10SM CLR 22/21 A3004 860 93 1900 310/10 RMK AO2 WSHFT 2354 T02220211
04850KAOH AOH20160721193011907/21/16 19:30:31  5-MIN KAOH 220030Z AUTO 30010KT 10SM CLR 22/21 A3005 860 93 1900 300/10 RMK AO2 WSHFT 2354 T02220211
04850KAOH AOH20160721193511907/21/16 19:35:31  5-MIN KAOH 220035Z AUTO 30007KT 10SM CLR 22/21 A3005 860 90 1900 300/07 RMK AO2 WSHFT 2354 T02220206
04850KAOH AOH20160721194011907/21/16 19:40:31  5-MIN KAOH 220040Z AUTO 30006KT 10SM CLR 22/21 A3005 860 90 1900 310/06 RMK AO2 WSHFT 2354 T02220206
04850KAOH AOH20160721194511907/21/16 19:45:31  5-MIN KAOH 220045Z AUTO 31006KT 10SM CLR 22/21 A3005 860 90 1900 310/06 RMK AO2 WSHFT 2354 T02220206
04850KAOH AOH20160721195012607/21/16 19:50:31  5-MIN KAOH 220050Z AUTO 28003KT 10SM CLR 22/21 A3005 860 90 1900 290/03 RMK AO2 WSHFT 2354 SLP168 T02220206
04850KAOH AOH20160721195510807/21/16 19:55:31  5-MIN KAOH 220055Z AUTO 00000KT 10SM CLR 22/21 A3005 860 93 1900 000/00 RMK AO2 T02170206
04850KAOH AOH20160721200010807/21/16 20:00:31  5-MIN KAOH 220100Z AUTO 00000KT 10SM CLR 22/21 A3005 860 90 1900 000/00 RMK AO2 T02220206
04850KAOH AOH20160721200510807/21/16 20:05:31  5-MIN KAOH 220105Z AUTO 00000KT 10SM CLR 22/20 A3004 860 87 1900 000/00 RMK AO2 T02220200
04850KAOH AOH20160721201010807/21/16 20:10:31  5-MIN KAOH 220110Z AUTO 00000KT 10SM CLR 22/20 A3004 860 87 1900 000/00 RMK AO2 T02220200
04850KAOH AOH20160721201510807/21/16 20:15:31  5-MIN KAOH 220115Z AUTO 00000KT 10SM CLR 22/20 A3004 860 87 1900 000/00 RMK AO2 T02220200
04850KAOH AOH20160721202010807/21/16 20:20:31  5-MIN KAOH 220120Z AUTO 00000KT 10SM CLR 22/20 A3004 860 87 1900 000/00 RMK AO2 T02220200
04850KAOH AOH20160721202510807/21/16 20:25:31  5-MIN KAOH 220125Z AUTO 00000KT 10SM CLR 22/20 A3005 860 87 1900 000/00 RMK AO2 T02220200
04850KAOH AOH20160721203010807/21/16 20:30:31  5-MIN KAOH 220130Z AUTO 24003KT 10SM CLR 22/20 A3005 860 87 1900 250/03 RMK AO2 T02220200
04850KAOH AOH20160721203510807/21/16 20:35:31  5-MIN KAOH 220135Z AUTO 00000KT 10SM CLR 22/20 A3005 860 90 1900 000/00 RMK AO2 T02170200
04850KAOH AOH20160721204010807/21/16 20:40:31  5-MIN KAOH 220140Z AUTO 18003KT 10SM CLR 22/20 A3005 860 90 1900 190/03 RMK AO2 T02170200
04850KAOH AOH20160721204510807/21/16 20:45:31  5-MIN KAOH 220145Z AUTO 18004KT 10SM CLR 21/20 A3005 860 93 1800 190/04 RMK AO2 T02110200
04850KAOH AOH20160721205011507/21/16 20:50:31  5-MIN KAOH 220150Z AUTO 19004KT 10SM CLR 21/20 A3006 850 93 1800 190/04 RMK AO2 SLP171 T02110200
04850KAOH AOH20160721205510807/21/16 20:55:31  5-MIN KAOH 220155Z AUTO 17004KT 10SM CLR 21/20 A3005 850 93 1800 180/04 RMK AO2 T02110200
04850KAOH AOH20160721210010807/21/16 21:00:31  5-MIN KAOH 220200Z AUTO 18006KT 10SM CLR 21/20 A3006 850 93 1800 180/06 RMK AO2 T02110200
04850KAOH AOH20160721210510807/21/16 21:05:31  5-MIN KAOH 220205Z AUTO 18006KT 10SM CLR 21/21 A3006 850 97 1800 180/06 RMK AO2 T02110206
04850KAOH AOH20160721211010807/21/16 21:10:31  5-MIN KAOH 220210Z AUTO 19004KT 10SM CLR 21/21 A3006 850 97 1800 190/04 RMK AO2 T02110206
04850KAOH AOH20160721211510807/21/16 21:15:31  5-MIN KAOH 220215Z AUTO 18004KT 10SM CLR 21/20 A3006 850 93 1800 180/04 RMK AO2 T02110200
04850KAOH AOH20160721212010807/21/16 21:20:31  5-MIN KAOH 220220Z AUTO 17006KT 10SM CLR 21/20 A3006 850 93 1800 180/06 RMK AO2 T02110200
04850KAOH AOH20160721212510807/21/16 21:25:31  5-MIN KAOH 220225Z AUTO 17006KT 10SM CLR 21/20 A3006 850 93 1800 180/06 RMK AO2 T02110200
04850KAOH AOH20160721213010807/21/16 21:30:31  5-MIN KAOH 220230Z AUTO 18006KT 10SM CLR 21/20 A3006 850 97 1700 180/06 RMK AO2 T02060200
04850KAOH AOH20160721213510807/21/16 21:35:31  5-MIN KAOH 220235Z AUTO 18006KT 10SM CLR 21/20 A3006 850 97 1700 190/06 RMK AO2 T02060200
04850KAOH AOH20160721214010807/21/16 21:40:31  5-MIN KAOH 220240Z AUTO 18006KT 10SM CLR 21/20 A3006 850 93 1800 190/06 RMK AO2 T02110200
04850KAOH AOH20160721214510807/21/16 21:45:31  5-MIN KAOH 220245Z AUTO 19007KT 10SM CLR 21/20 A3006 850 93 1800 200/07 RMK AO2 T02110200
04850KAOH AOH20160721215012107/21/16 21:50:31  5-MIN KAOH 220250Z AUTO 18006KT 10SM CLR 21/20 A3006 850 93 1800 190/06 RMK AO2 SLP171 T02110200 58029
04850KAOH AOH20160721215510807/21/16 21:55:31  5-MIN KAOH 220255Z AUTO 18006KT 10SM CLR 21/20 A3006 850 97 1700 180/06 RMK AO2 T02060200
04850KAOH AOH20160721220010807/21/16 22:00:31  5-MIN KAOH 220300Z AUTO 18006KT 10SM CLR 21/20 A3006 850 97 1700 180/06 RMK AO2 T02060200
04850KAOH AOH20160721220510807/21/16 22:05:31  5-MIN KAOH 220305Z AUTO 17008KT 10SM CLR 21/20 A3006 850 93 1800 180/08 RMK AO2 T02110200
04850KAOH AOH20160721221010807/21/16 22:10:31  5-MIN KAOH 220310Z AUTO 16008KT 10SM CLR 21/20 A3005 850 97 1700 170/08 RMK AO2 T02060200
04850KAOH AOH20160721221510807/21/16 22:15:31  5-MIN KAOH 220315Z AUTO 17008KT 10SM CLR 21/20 A3006 850 97 1700 170/08 RMK AO2 T02060200
04850KAOH AOH20160721222010807/21/16 22:20:31  5-MIN KAOH 220320Z AUTO 17006KT 10SM CLR 21/20 A3006 850 97 1700 170/06 RMK AO2 T02060200
04850KAOH AOH20160721222510807/21/16 22:25:31  5-MIN KAOH 220325Z AUTO 17006KT 10SM CLR 21/20 A3006 850 97 1700 170/06 RMK AO2 T02060200
04850KAOH AOH20160721223010807/21/16 22:30:31  5-MIN KAOH 220330Z AUTO 16006KT 10SM CLR 21/20 A3006 850 97 1700 170/06 RMK AO2 T02060200
04850KAOH AOH20160721223510807/21/16 22:35:31  5-MIN KAOH 220335Z AUTO 17007KT 10SM CLR 21/20 A3006 850 97 1700 170/07 RMK AO2 T02060200
04850KAOH AOH20160721224010807/21/16 22:40:31  5-MIN KAOH 220340Z AUTO 17006KT 10SM CLR 21/20 A3006 850 97 1700 170/06 RMK AO2 T02060200
04850KAOH AOH20160721224510807/21/16 22:45:31  5-MIN KAOH 220345Z AUTO 17005KT 10SM CLR 21/20 A3006 850 97 1700 180/05 RMK AO2 T02060200
04850KAOH AOH20160721225011507/21/16 22:50:31  5-MIN KAOH 220350Z AUTO 17005KT 10SM CLR 21/19 A3006 840 93 1700 180/05 RMK AO2 SLP173 T02060194
04850KAOH AOH20160721225510807/21/16 22:55:31  5-MIN KAOH 220355Z AUTO 17007KT 10SM CLR 21/19 A3007 840 93 1700 180/07 RMK AO2 T02060194
04850KAOH AOH20160721230010807/21/16 23:00:31  5-MIN KAOH 220400Z AUTO 18007KT 10SM CLR 21/19 A3007 840 93 1700 190/07 RMK AO2 T02060194
04850KAOH AOH20160721230510807/21/16 23:05:31  5-MIN KAOH 220405Z AUTO 18006KT 10SM CLR 21/19 A3007 840 93 1700 190/06 RMK AO2 T02060194
04850KAOH AOH20160721231010807/21/16 23:10:31  5-MIN KAOH 220410Z AUTO 18005KT 10SM CLR 21/19 A3007 840 90 1800 190/05 RMK AO2 T02110194
04850KAOH AOH20160721231510807/21/16 23:15:31  5-MIN KAOH 220415Z AUTO 18006KT 10SM CLR 21/19 A3007 840 90 1800 180/06 RMK AO2 T02110194
04850KAOH AOH20160721232010807/21/16 23:20:31  5-MIN KAOH 220420Z AUTO 17006KT 10SM CLR 21/19 A3007 840 90 1800 180/06 RMK AO2 T02110194
04850KAOH AOH20160721232510807/21/16 23:25:31  5-MIN KAOH 220425Z AUTO 17006KT 10SM CLR 21/19 A3007 840 90 1800 180/06 RMK AO2 T02110194
04850KAOH AOH20160721233010807/21/16 23:30:31  5-MIN KAOH 220430Z AUTO 18005KT 10SM CLR 21/19 A3007 840 93 1700 180/05 RMK AO2 T02060194
04850KAOH AOH20160721233510807/21/16 23:35:31  5-MIN KAOH 220435Z AUTO 18005KT 10SM CLR 21/19 A3007 840 93 1700 180/05 RMK AO2 T02060194
04850KAOH AOH20160721234010807/21/16 23:40:31  5-MIN KAOH 220440Z AUTO 18005KT 10SM CLR 21/19 A3007 840 93 1700 180/05 RMK AO2 T02060194
04850KAOH AOH20160721234510807/21/16 23:45:31  5-MIN KAOH 220445Z AUTO 17007KT 10SM CLR 21/19 A3006 850 93 1700 180/07 RMK AO2 T02060194
04850KAOH AOH20160721235012507/21/16 23:50:31  5-MIN KAOH 220450Z AUTO 17007KT 10SM CLR 21/19 A3006 850 93 1700 180/07 RMK AO2 SLP171 T02060194 403170206
04850KAOH AOH20160721235510807/21/16 23:55:31  5-MIN KAOH 220455Z AUTO 17008KT 10SM CLR 21/19 A3006 850 93 1700 180/08 RMK AO2 T02060194
04850KAOH AOH20160722000010807/22/16 00:00:31  5-MIN KAOH 220500Z AUTO 17008KT 10SM CLR 21/19 A3006 850 93 1700 180/08 RMK AO2 T02060194
04850KAOH AOH20160722000510807/22/16 00:05:31  5-MIN KAOH 220505Z AUTO 17008KT 10SM CLR 21/19 A3006 850 93 1700 180/08 RMK AO2 T02060194
04850KAOH AOH20160722001010807/22/16 00:10:31  5-MIN KAOH 220510Z AUTO 17008KT 10SM CLR 21/19 A3005 850 90 1800 180/08 RMK AO2 T02110194
04850KAOH AOH20160722001510807/22/16 00:15:31  5-MIN KAOH 220515Z AUTO 18009KT 10SM CLR 21/19 A3005 850 90 1800 180/09 RMK AO2 T02110194
04850KAOH AOH20160722002010807/22/16 00:20:31  5-MIN KAOH 220520Z AUTO 18009KT 10SM CLR 21/19 A3005 860 90 1800 190/09 RMK AO2 T02110194
04850KAOH AOH20160722002510807/22/16 00:25:31  5-MIN KAOH 220525Z AUTO 18009KT 10SM CLR 21/19 A3005 860 90 1800 190/09 RMK AO2 T02110194
04850KAOH AOH20160722003010807/22/16 00:30:31  5-MIN KAOH 220530Z AUTO 18010KT 10SM CLR 21/19 A3005 850 90 1800 190/10 RMK AO2 T02110194
04850KAOH AOH20160722003510807/22/16 00:35:31  5-MIN KAOH 220535Z AUTO 18010KT 10SM CLR 21/19 A3005 860 90 1800 190/10 RMK AO2 T02110194
04850KAOH AOH20160722004010807/22/16 00:40:31  5-MIN KAOH 220540Z AUTO 18009KT 10SM CLR 21/19 A3005 860 90 1800 190/09 RMK AO2 T02110194
04850KAOH AOH20160722004510807/22/16 00:45:31  5-MIN KAOH 220545Z AUTO 19009KT 10SM CLR 22/19 A3005 860 87 1900 190/09 RMK AO2 T02170194
04850KAOH AOH20160722005013307/22/16 00:50:31  5-MIN KAOH 220550Z AUTO 19010KT 10SM CLR 22/19 A3005 860 87 1900 190/10 RMK AO2 SLP166 T02170194 10239 20206 51014
04850KAOH AOH20160722005510807/22/16 00:55:31  5-MIN KAOH 220555Z AUTO 19010KT 10SM CLR 22/19 A3005 860 87 1900 190/10 RMK AO2 T02170194
04850KAOH AOH20160722010010807/22/16 01:00:31  5-MIN KAOH 220600Z AUTO 19010KT 10SM CLR 22/19 A3005 860 87 1900 190/10 RMK AO2 T02170194
04850KAOH AOH20160722010510807/22/16 01:05:31  5-MIN KAOH 220605Z AUTO 19010KT 10SM CLR 22/19 A3004 860 87 1900 200/10 RMK AO2 T02170194
04850KAOH AOH20160722011010807/22/16 01:10:31  5-MIN KAOH 220610Z AUTO 19010KT 10SM CLR 22/19 A3005 860 87 1900 190/10 RMK AO2 T02170194
04850KAOH AOH20160722011510807/22/16 01:15:31  5-MIN KAOH 220615Z AUTO 18011KT 10SM CLR 22/19 A3004 860 87 1900 190/11 RMK AO2 T02170194
04850KAOH AOH20160722012010807/22/16 01:20:31  5-MIN KAOH 220620Z AUTO 19009KT 10SM CLR 22/19 A3004 860 87 1900 190/09 RMK AO2 T02170194
04850KAOH AOH20160722012510807/22/16 01:25:31  5-MIN KAOH 220625Z AUTO 19009KT 10SM CLR 22/19 A3004 860 87 1900 200/09 RMK AO2 T02170194
04850KAOH AOH20160722013010807/22/16 01:30:31  5-MIN KAOH 220630Z AUTO 19010KT 10SM CLR 22/19 A3004 870 87 1900 190/10 RMK AO2 T02170194
04850KAOH AOH20160722013510807/22/16 01:35:31  5-MIN KAOH 220635Z AUTO 19009KT 10SM CLR 22/19 A3004 870 87 1900 190/09 RMK AO2 T02170194
04850KAOH AOH20160722014010807/22/16 01:40:31  5-MIN KAOH 220640Z AUTO 19010KT 10SM CLR 22/19 A3003 870 87 1900 190/10 RMK AO2 T02170194
04850KAOH AOH20160722014510807/22/16 01:45:31  5-MIN KAOH 220645Z AUTO 19009KT 10SM CLR 22/19 A3003 870 87 1900 190/09 RMK AO2 T02170194
04850KAOH AOH20160722015011507/22/16 01:50:31  5-MIN KAOH 220650Z AUTO 19009KT 10SM CLR 22/19 A3003 870 87 1900 200/09 RMK AO2 SLP161 T02170194
04850KAOH AOH20160722015510807/22/16 01:55:31  5-MIN KAOH 220655Z AUTO 20008KT 10SM CLR 22/19 A3003 870 87 1900 200/08 RMK AO2 T02170194
04850KAOH AOH20160722020010807/22/16 02:00:31  5-MIN KAOH 220700Z AUTO 20007KT 10SM CLR 22/19 A3003 880 87 1900 200/07 RMK AO2 T02170194
04850KAOH AOH20160722020510807/22/16 02:05:31  5-MIN KAOH 220705Z AUTO 20008KT 10SM CLR 22/20 A3003 880 90 1900 200/08 RMK AO2 T02170200
04850KAOH AOH20160722021010807/22/16 02:10:31  5-MIN KAOH 220710Z AUTO 20009KT 10SM CLR 22/20 A3003 880 87 2000 200/09 RMK AO2 T02220200
04850KAOH AOH20160722021510807/22/16 02:15:31  5-MIN KAOH 220715Z AUTO 20008KT 10SM CLR 22/20 A3003 880 87 2000 210/08 RMK AO2 T02220200
04850KAOH AOH20160722022010807/22/16 02:20:31  5-MIN KAOH 220720Z AUTO 20008KT 10SM CLR 22/20 A3002 880 87 2000 200/08 RMK AO2 T02220200
04850KAOH AOH20160722022510807/22/16 02:25:31  5-MIN KAOH 220725Z AUTO 19008KT 10SM CLR 22/20 A3002 890 87 2000 200/08 RMK AO2 T02220200
04850KAOH AOH20160722023010807/22/16 02:30:31  5-MIN KAOH 220730Z AUTO 19009KT 10SM CLR 23/21 A3002 890 87 2000 200/09 RMK AO2 T02280206
04850KAOH AOH20160722023510807/22/16 02:35:31  5-MIN KAOH 220735Z AUTO 19009KT 10SM CLR 22/21 A3001 890 90 2000 200/09 RMK AO2 T02220206
04850KAOH AOH20160722024010807/22/16 02:40:31  5-MIN KAOH 220740Z AUTO 19009KT 10SM CLR 22/21 A3001 890 90 2000 200/09 RMK AO2 T02220206
04850KAOH AOH20160722024510807/22/16 02:45:31  5-MIN KAOH 220745Z AUTO 19009KT 10SM CLR 23/21 A3001 900 87 2000 190/09 RMK AO2 T02280206
04850KAOH AOH20160722025011507/22/16 02:50:31  5-MIN KAOH 220750Z AUTO 19010KT 10SM CLR 23/21 A3001 900 87 2000 190/10 RMK AO2 SLP152 T02280206
04850KAOH AOH20160722025510807/22/16 02:55:31  5-MIN KAOH 220755Z AUTO 19010KT 10SM CLR 23/21 A3000 900 87 2000 200/10 RMK AO2 T02280206
04850KAOH AOH20160722030010807/22/16 03:00:31  5-MIN KAOH 220800Z AUTO 19009KT 10SM CLR 23/21 A3000 900 87 2000 200/09 RMK AO2 T02280206
04850KAOH AOH20160722030510807/22/16 03:05:31  5-MIN KAOH 220805Z AUTO 19008KT 10SM CLR 23/21 A3000 900 87 2000 200/08 RMK AO2 T02280206
04850KAOH AOH20160722031010807/22/16 03:10:31  5-MIN KAOH 220810Z AUTO 19008KT 10SM CLR 23/21 A3000 900 87 2000 200/08 RMK AO2 T02280206
04850KAOH AOH20160722031510807/22/16 03:15:31  5-MIN KAOH 220815Z AUTO 19008KT 10SM CLR 23/21 A3000 900 87 2000 200/08 RMK AO2 T02280206
04850KAOH AOH20160722032010807/22/16 03:20:31  5-MIN KAOH 220820Z AUTO 19008KT 10SM CLR 23/21 A3000 900 87 2000 200/08 RMK AO2 T02280206
04850KAOH AOH20160722032510807/22/16 03:25:31  5-MIN KAOH 220825Z AUTO 19008KT 10SM CLR 23/21 A3000 900 87 2100 200/08 RMK AO2 T02280206
04850KAOH AOH20160722033010807/22/16 03:30:31  5-MIN KAOH 220830Z AUTO 19008KT 10SM CLR 23/21 A3000 910 90 2100 200/08 RMK AO2 T02280211
04850KAOH AOH20160722033510807/22/16 03:35:31  5-MIN KAOH 220835Z AUTO 19009KT 10SM CLR 23/21 A3000 910 90 2100 200/09 RMK AO2 T02280211
04850KAOH AOH20160722034010807/22/16 03:40:31  5-MIN KAOH 220840Z AUTO 19009KT 10SM CLR 23/21 A2999 910 90 2100 190/09 RMK AO2 T02280211
04850KAOH AOH20160722034510807/22/16 03:45:31  5-MIN KAOH 220845Z AUTO 18009KT 10SM CLR 23/21 A2999 910 90 2100 190/09 RMK AO2 T02280211
04850KAOH AOH20160722035012107/22/16 03:50:31  5-MIN KAOH 220850Z AUTO 19008KT 10SM CLR 23/21 A3000 910 90 2100 190/08 RMK AO2 SLP149 T02280211 58004
04850KAOH AOH20160722035510807/22/16 03:55:31  5-MIN KAOH 220855Z AUTO 19008KT 10SM CLR 23/22 A3000 900 90 2100 190/08 RMK AO2 T02330217
04850KAOH AOH20160722040010807/22/16 04:00:31  5-MIN KAOH 220900Z AUTO 19007KT 10SM CLR 23/22 A3000 900 93 2100 190/07 RMK AO2 T02280217
04850KAOH AOH20160722040510807/22/16 04:05:31  5-MIN KAOH 220905Z AUTO 19007KT 10SM CLR 23/22 A3000 900 93 2100 200/07 RMK AO2 T02280217
04850KAOH AOH20160722041010807/22/16 04:10:31  5-MIN KAOH 220910Z AUTO 19006KT 10SM CLR 23/22 A3000 900 90 2100 200/06 RMK AO2 T02330217
04850KAOH AOH20160722041510807/22/16 04:15:31  5-MIN KAOH 220915Z AUTO 19007KT 10SM CLR 23/22 A3000 900 93 2000 200/07 RMK AO2 T02280217
04850KAOH AOH20160722042010807/22/16 04:20:31  5-MIN KAOH 220920Z AUTO 19006KT 10SM CLR 23/22 A3001 900 93 2000 200/06 RMK AO2 T02280217
04850KAOH AOH20160722042511107/22/16 04:25:31  5-MIN KAOH 220925Z AUTO 19006KT 10SM FEW025 23/22 A3001 900 93 2000 200/06 RMK AO2 T02280217
04850KAOH AOH20160722043011107/22/16 04:30:31  5-MIN KAOH 220930Z AUTO 19007KT 10SM SCT025 23/22 A3001 900 90 2100 190/07 RMK AO2 T02330217
04850KAOH AOH20160722043512507/22/16 04:35:31  5-MIN KAOH 220935Z AUTO 19006KT 10SM SCT025 BKN031 BKN043 23/22 A3001 900 90 2100 200/06 RMK AO2 T02330217
04850KAOH AOH20160722044012507/22/16 04:40:31  5-MIN KAOH 220940Z AUTO 20004KT 10SM BKN025 BKN031 BKN043 23/22 A3001 890 90 2100 210/04 RMK AO2 T02330217
04850KAOH AOH20160722044512507/22/16 04:45:31  5-MIN KAOH 220945Z AUTO 20005KT 10SM BKN025 BKN030 OVC050 23/22 A3001 890 90 2100 200/05 RMK AO2 T02330217
04850KAOH AOH20160722045013207/22/16 04:50:31  5-MIN KAOH 220950Z AUTO 20005KT 10SM SCT025 SCT030 BKN040 23/22 A3001 890 90 2100 200/05 RMK AO2 SLP154 T02330217
04850KAOH AOH20160722045512507/22/16 04:55:31  5-MIN KAOH 220955Z AUTO 20005KT 10SM FEW025 SCT030 SCT040 23/22 A3001 890 90 2100 210/05 RMK AO2 T02330217
04850KAOH AOH20160722050012507/22/16 05:00:31  5-MIN KAOH 221000Z AUTO 20005KT 10SM FEW025 FEW033 SCT042 23/22 A3001 890 90 2100 200/05 RMK AO2 T02330217
04850KAOH AOH20160722050511807/22/16 05:05:31  5-MIN KAOH 221005Z AUTO 20004KT 10SM FEW025 FEW039 23/22 A3001 890 93 2000 210/04 RMK AO2 T02280217
04850KAOH AOH20160722051011107/22/16 05:10:31  5-MIN KAOH 221010Z AUTO 20003KT 10SM FEW039 23/22 A3001 890 97 2000 210/03 RMK AO2 T02280222
04850KAOH AOH20160722051510807/22/16 05:15:31  5-MIN KAOH 221015Z AUTO 21003KT 10SM CLR 23/22 A3002 890 93 2100 220/03 RMK AO2 T02330222
04850KAOH AOH20160722052011107/22/16 05:20:31  5-MIN KAOH 221020Z AUTO 23003KT 10SM FEW024 23/22 A3002 880 97 2000 240/03 RMK AO2 T02280222
04850KAOH AOH20160722052511107/22/16 05:25:31  5-MIN KAOH 221025Z AUTO 25003KT 10SM SCT024 23/22 A3003 880 97 2000 250/03 RMK AO2 T02280222
04850KAOH AOH20160722053011007/22/16 05:30:31  5-MIN KAOH 221030Z AUTO 29003KT 9SM BKN024 23/22 A3003 870 93 2000 300/03 RMK AO2 T02280217
04850KAOH AOH20160722053511007/22/16 05:35:31  5-MIN KAOH 221035Z AUTO 25004KT 8SM BKN024 23/22 A3003 880 97 2000 260/04 RMK AO2 T02280222
04850KAOH AOH20160722054011007/22/16 05:40:31  5-MIN KAOH 221040Z AUTO 21004KT 8SM BKN024 23/22 A3003 880 97 2000 220/04 RMK AO2 T02280222
04850KAOH AOH20160722054511007/22/16 05:45:31  5-MIN KAOH 221045Z AUTO 22005KT 9SM OVC023 23/22 A3003 880 97 2000 220/05 RMK AO2 T02280222
04850KAOH AOH20160722055011707/22/16 05:50:31  5-MIN KAOH 221050Z AUTO 22005KT 9SM OVC023 23/22 A3002 880 93 2100 220/05 RMK AO2 SLP160 T02330222
04850KAOH AOH20160722055511107/22/16 05:55:31  5-MIN KAOH 221055Z AUTO 22005KT 10SM OVC023 23/22 A3003 880 93 2100 220/05 RMK AO2 T02330222
04850KAOH AOH20160722060011107/22/16 06:00:31  5-MIN KAOH 221100Z AUTO 21005KT 10SM OVC023 23/22 A3003 880 93 2100 220/05 RMK AO2 T02330222
04850KAOH AOH20160722060511107/22/16 06:05:31  5-MIN KAOH 221105Z AUTO 23004KT 10SM OVC023 23/22 A3003 880 93 2100 230/04 RMK AO2 T02330222
04850KAOH AOH20160722061011807/22/16 06:10:31  5-MIN KAOH 221110Z AUTO 22004KT 10SM BKN023 OVC029 23/22 A3003 880 93 2100 230/04 RMK AO2 T02330222
04850KAOH AOH20160722061512507/22/16 06:15:31  5-MIN KAOH 221115Z AUTO 22003KT 10SM FEW019 BKN023 OVC029 23/22 A3003 880 93 2100 230/03 RMK AO2 T02330222
04850KAOH AOH20160722062012507/22/16 06:20:31  5-MIN KAOH 221120Z AUTO VRB03KT 10SM BKN019 BKN028 OVC039 23/22 A3003 870 93 2100 VRB/03 RMK AO2 T02330222
04850KAOH AOH20160722062512407/22/16 06:25:31  5-MIN KAOH 221125Z AUTO 30004KT 9SM BKN019 BKN026 OVC040 23/22 A3004 870 93 2100 310/04 RMK AO2 T02330222
04850KAOH AOH20160722063011707/22/16 06:30:31  5-MIN KAOH 221130Z AUTO 28003KT 8SM BKN017 OVC026 23/22 A3004 870 93 2100 290/03 RMK AO2 T02330222
04850KAOH AOH20160722063511707/22/16 06:35:31  5-MIN KAOH 221135Z AUTO 24003KT 8SM BKN017 OVC026 23/22 A3003 870 93 2100 250/03 RMK AO2 T02330222
04850KAOH AOH20160722064011007/22/16 06:40:31  5-MIN KAOH 221140Z AUTO 20004KT 8SM OVC019 23/22 A3003 880 93 2100 210/04 RMK AO2 T02330222
04850KAOH AOH20160722064511007/22/16 06:45:31  5-MIN KAOH 221145Z AUTO 19004KT 9SM OVC019 23/22 A3003 880 93 2100 200/04 RMK AO2 T02330222
04850KAOH AOH20160722065014107/22/16 06:50:31  5-MIN KAOH 221150Z AUTO 19006KT 9SM BKN019 23/22 A3002 880 93 2100 200/06 RMK AO2 SLP159 70003 T02330222 10233 20217 56015
04850KAOH AOH20160722065511007/22/16 06:55:31  5-MIN KAOH 221155Z AUTO 19006KT 9SM BKN019 23/22 A3002 890 93 2100 190/06 RMK AO2 T02330222
04850KAOH AOH20160722070011007/22/16 07:00:31  5-MIN KAOH 221200Z AUTO 19007KT 9SM SCT019 24/23 A3002 890 93 2200 190/07 RMK AO2 T02390228
04850KAOH AOH20160722070511107/22/16 07:05:31  5-MIN KAOH 221205Z AUTO 19006KT 10SM FEW021 24/23 A3002 890 93 2200 200/06 RMK AO2 T02390228
04850KAOH AOH20160722071011007/22/16 07:10:31  5-MIN KAOH 221210Z AUTO 20005KT 9SM FEW021 24/23 A3003 880 93 2200 210/05 RMK AO2 T02390228
04850KAOH AOH20160722071510707/22/16 07:15:31  5-MIN KAOH 221215Z AUTO 22005KT 9SM CLR 24/23 A3003 880 93 2100 230/05 RMK AO2 T02390228
04850KAOH AOH20160722072010707/22/16 07:20:31  5-MIN KAOH 221220Z AUTO 20007KT 9SM CLR 24/23 A3003 880 93 2100 210/07 RMK AO2 T02390228
04850KAOH AOH20160722072510707/22/16 07:25:31  5-MIN KAOH 221225Z AUTO 20007KT 8SM CLR 24/23 A3002 880 93 2200 200/07 RMK AO2 T02390228
04850KAOH AOH20160722073010707/22/16 07:30:31  5-MIN KAOH 221230Z AUTO 19009KT 8SM CLR 24/23 A3002 880 93 2200 200/09 RMK AO2 T02390228
04850KAOH AOH20160722073510707/22/16 07:35:31  5-MIN KAOH 221235Z AUTO 19009KT 8SM CLR 24/23 A3002 880 93 2200 190/09 RMK AO2 T02390228
04850KAOH AOH20160722074010707/22/16 07:40:31  5-MIN KAOH 221240Z AUTO 21007KT 8SM CLR 24/23 A3003 880 93 2100 210/07 RMK AO2 T02390228
04850KAOH AOH20160722074511007/22/16 07:45:31  5-MIN KAOH 221245Z AUTO 20008KT 8SM FEW110 24/23 A3002 880 93 2200 210/08 RMK AO2 T02390228
04850KAOH AOH20160722075011707/22/16 07:50:31  5-MIN KAOH 221250Z AUTO 21004KT 8SM SCT110 24/23 A3003 880 93 2200 220/04 RMK AO2 SLP161 T02390228
04850KAOH AOH20160722075511007/22/16 07:55:31  5-MIN KAOH 221255Z AUTO 20005KT 8SM SCT110 24/23 A3002 880 93 2200 200/05 RMK AO2 T02390228
04850KAOH AOH20160722080011007/22/16 08:00:31  5-MIN KAOH 221300Z AUTO 21003KT 8SM SCT100 24/23 A3003 880 93 2100 210/03 RMK AO2 T02390228
04850KAOH AOH20160722080511007/22/16 08:05:31  5-MIN KAOH 221305Z AUTO 22004KT 8SM SCT110 24/23 A3003 870 93 2200 230/04 RMK AO2 T02440233
04850KAOH AOH20160722081011007/22/16 08:10:31  5-MIN KAOH 221310Z AUTO 21005KT 8SM SCT110 24/23 A3003 880 93 2200 220/05 RMK AO2 T02440233
04850KAOH AOH20160722081511007/22/16 08:15:31  5-MIN KAOH 221315Z AUTO 23004KT 7SM SCT110 24/23 A3003 880 93 2200 240/04 RMK AO2 T02440233
04850KAOH AOH20160722082011007/22/16 08:20:31  5-MIN KAOH 221320Z AUTO 22005KT 7SM SCT110 24/23 A3003 880 93 2200 230/05 RMK AO2 T02440233
04850KAOH AOH20160722082511007/22/16 08:25:31  5-MIN KAOH 221325Z AUTO 22005KT 7SM BKN110 24/23 A3003 880 93 2200 230/05 RMK AO2 T02440233
04850KAOH AOH20160722083011007/22/16 08:30:31  5-MIN KAOH 221330Z AUTO 21006KT 7SM SCT120 24/23 A3002 880 93 2200 220/06 RMK AO2 T02440233
04850KAOH AOH20160722083511007/22/16 08:35:31  5-MIN KAOH 221335Z AUTO 22005KT 7SM SCT120 24/23 A3003 880 93 2200 230/05 RMK AO2 T02440233
04850KAOH AOH20160722084011007/22/16 08:40:31  5-MIN KAOH 221340Z AUTO 21004KT 7SM SCT120 25/23 A3002 880 90 2300 210/04 RMK AO2 T02500233
04850KAOH AOH20160722084512107/22/16 08:45:31  5-MIN KAOH 221345Z AUTO 25003KT 7SM FEW120 25/23 A3002 880 90 2300 260/03 RMK AO2 LTG DSNT S T02500233
04850KAOH AOH20160722085012807/22/16 08:50:31  5-MIN KAOH 221350Z AUTO 19003KT 7SM FEW120 25/23 A3002 890 90 2300 200/03 RMK AO2 LTG DSNT S SLP157 T02500233
04850KAOH AOH20160722085512107/22/16 08:55:31  5-MIN KAOH 221355Z AUTO 19003KT 7SM FEW120 25/23 A3001 890 90 2300 200/03 RMK AO2 LTG DSNT S T02500233
04850KAOH AOH20160722090011007/22/16 09:00:31  5-MIN KAOH 221400Z AUTO 00000KT 7SM SCT110 25/23 A3002 890 90 2300 000/00 RMK AO2 T02500233
04850KAOH AOH20160722090511707/22/16 09:05:31  5-MIN KAOH 221405Z AUTO 25004KT 7SM FEW095 SCT120 25/24 A3002 890 93 2300 250/04 RMK AO2 T02500239
04850KAOH AOH20160722091011707/22/16 09:10:31  5-MIN KAOH 221410Z AUTO 24004KT 8SM FEW090 BKN110 26/24 A3001 890 90 2400 250/04 RMK AO2 T02560239
04850KAOH AOH20160722091511007/22/16 09:15:31  5-MIN KAOH 221415Z AUTO 20003KT 8SM SCT110 26/24 A3000 900 90 2400 200/03 RMK AO2 T02560239
04850KAOH AOH20160722092011707/22/16 09:20:31  5-MIN KAOH 221420Z AUTO 00000KT 8SM FEW090 SCT110 26/24 A3000 910 90 2400 000/00 RMK AO2 T02560239
04850KAOH AOH20160722092511707/22/16 09:25:31  5-MIN KAOH 221425Z AUTO 16003KT 8SM FEW090 SCT110 27/24 A3000 910 84 2500 160/03 RMK AO2 T02670239
04850KAOH AOH20160722093011707/22/16 09:30:31  5-MIN KAOH 221430Z AUTO 18003KT 9SM FEW100 FEW120 27/24 A3000 900 87 2500 190/03 RMK AO2 T02670244
04850KAOH AOH20160722093511007/22/16 09:35:31  5-MIN KAOH 221435Z AUTO 00000KT 9SM FEW110 27/24 A3000 900 84 2600 000/00 RMK AO2 T02720244
04850KAOH AOH20160722094010707/22/16 09:40:31  5-MIN KAOH 221440Z AUTO 00000KT 9SM CLR 27/24 A3000 900 84 2600 000/00 RMK AO2 T02720244
04850KAOH AOH20160722094510807/22/16 09:45:31  5-MIN KAOH 221445Z AUTO VRB04KT 10SM CLR 28/25 A3000 900 84 2600 VRB/04 RMK AO2 T02780250
04850KAOH AOH20160722095012107/22/16 09:50:31  5-MIN KAOH 221450Z AUTO 24003KT 10SM CLR 28/24 A3001 900 82 2600 250/03 RMK AO2 SLP153 T02780244 50006
04850KAOH AOH20160722095510807/22/16 09:55:31  5-MIN KAOH 221455Z AUTO 26004KT 10SM CLR 28/24 A3001 890 82 2600 270/04 RMK AO2 T02780244
04850KAOH AOH20160722100010807/22/16 10:00:31  5-MIN KAOH 221500Z AUTO 25005KT 10SM CLR 27/24 A3002 890 84 2500 260/05 RMK AO2 T02720244
04850KAOH AOH20160722100510807/22/16 10:05:31  5-MIN KAOH 221505Z AUTO 24004KT 10SM CLR 28/24 A3002 890 82 2600 240/04 RMK AO2 T02780244
04850KAOH AOH20160722101010807/22/16 10:10:31  5-MIN KAOH 221510Z AUTO 24004KT 10SM CLR 28/24 A3002 880 82 2600 250/04 RMK AO2 T02780244
04850KAOH AOH20160722101510807/22/16 10:15:31  5-MIN KAOH 221515Z AUTO 27004KT 10SM CLR 28/24 A3003 880 82 2600 270/04 RMK AO2 T02780244
04850KAOH AOH20160722102010807/22/16 10:20:31  5-MIN KAOH 221520Z AUTO 27004KT 10SM CLR 28/25 A3003 870 82 2600 280/04 RMK AO2 T02830250
04850KAOH AOH20160722102510807/22/16 10:25:31  5-MIN KAOH 221525Z AUTO 29006KT 10SM CLR 29/25 A3003 870 79 2700 290/06 RMK AO2 T02890250
04850KAOH AOH20160722103010807/22/16 10:30:31  5-MIN KAOH 221530Z AUTO 30008KT 10SM CLR 29/25 A3003 870 79 2700 310/08 RMK AO2 T02890250
04850KAOH AOH20160722103510807/22/16 10:35:31  5-MIN KAOH 221535Z AUTO VRB06KT 10SM CLR 29/24 A3004 870 74 2800 VRB/06 RMK AO2 T02940244
04850KAOH AOH20160722104010807/22/16 10:40:31  5-MIN KAOH 221540Z AUTO 30005KT 10SM CLR 29/25 A3004 870 76 2800 310/05 RMK AO2 T02940250
04850KAOH AOH20160722104511107/22/16 10:45:31  5-MIN KAOH 221545Z AUTO 27006KT 10SM FEW043 29/25 A3004 870 79 2700 280/06 RMK AO2 T02890250
04850KAOH AOH20160722105011807/22/16 10:50:31  5-MIN KAOH 221550Z AUTO 26004KT 10SM FEW043 29/24 A3004 870 76 2700 270/04 RMK AO2 SLP163 T02890244
04850KAOH AOH20160722105511107/22/16 10:55:31  5-MIN KAOH 221555Z AUTO 29004KT 10SM FEW044 29/24 A3003 870 76 2700 300/04 RMK AO2 T02890244
04850KAOH AOH20160722110011107/22/16 11:00:31  5-MIN KAOH 221600Z AUTO 28003KT 10SM FEW044 29/24 A3003 870 74 2700 290/03 RMK AO2 T02890239
04850KAOH AOH20160722110511107/22/16 11:05:31  5-MIN KAOH 221605Z AUTO 29004KT 10SM FEW044 29/24 A3003 870 74 2800 300/04 RMK AO2 T02940244
04850KAOH AOH20160722111011107/22/16 11:10:31  5-MIN KAOH 221610Z AUTO 28006KT 10SM FEW045 29/25 A3003 870 76 2800 280/06 RMK AO2 T02940250
04850KAOH AOH20160722111510807/22/16 11:15:31  5-MIN KAOH 221615Z AUTO 27005KT 10SM CLR 29/25 A3003 870 79 2700 280/05 RMK AO2 T02890250
04850KAOH AOH20160722112012007/22/16 11:20:31  5-MIN KAOH 221620Z AUTO 26006KT 10SM CLR 29/25 A3003 870 76 2800 270/06 RMK AO2 LTG DSNT SE T02940250
04850KAOH AOH20160722112512007/22/16 11:25:31  5-MIN KAOH 221625Z AUTO 27004KT 10SM CLR 29/24 A3004 870 74 2800 270/04 RMK AO2 LTG DSNT SE T02940244
04850KAOH AOH20160722113012007/22/16 11:30:31  5-MIN KAOH 221630Z AUTO 25006KT 10SM CLR 29/24 A3004 870 76 2700 260/06 RMK AO2 LTG DSNT SE T02890244
04850KAOH AOH20160722113512007/22/16 11:35:31  5-MIN KAOH 221635Z AUTO VRB03KT 10SM CLR 29/24 A3004 870 74 2800 VRB/03 RMK AO2 LTG DSNT SE T02940244
04850KAOH AOH20160722114012007/22/16 11:40:31  5-MIN KAOH 221640Z AUTO 00000KT 10SM CLR 29/24 A3004 860 71 2800 000/00 RMK AO2 LTG DSNT SE T02940239
04850KAOH AOH20160722114512007/22/16 11:45:31  5-MIN KAOH 221645Z AUTO VRB03KT 10SM CLR 30/24 A3004 860 72 2800 VRB/03 RMK AO2 LTG DSNT SE T03000244
04850KAOH AOH20160722115012707/22/16 11:50:31  5-MIN KAOH 221650Z AUTO 25003KT 10SM CLR 30/24 A3004 860 69 2800 260/03 RMK AO2 LTG DSNT SE SLP166 T03000239
04850KAOH AOH20160722115512007/22/16 11:55:31  5-MIN KAOH 221655Z AUTO 00000KT 10SM CLR 29/24 A3005 860 71 2700 000/00 RMK AO2 LTG DSNT SE T02940239
04850KAOH AOH20160722120012307/22/16 12:00:31  5-MIN KAOH 221700Z AUTO 00000KT 10SM SCT031 30/23 A3005 860 67 2800 000/00 RMK AO2 LTG DSNT SE T03000233
04850KAOH AOH20160722120512307/22/16 12:05:31  5-MIN KAOH 221705Z AUTO 00000KT 10SM SCT033 31/23 A3004 860 65 2900 000/00 RMK AO2 LTG DSNT SE T03060233
04850KAOH AOH20160722121012307/22/16 12:10:31  5-MIN KAOH 221710Z AUTO 03003KT 10SM SCT033 31/24 A3004 860 67 2900 040/03 RMK AO2 LTG DSNT SE T03060239
04850KAOH AOH20160722121512307/22/16 12:15:31  5-MIN KAOH 221715Z AUTO 00000KT 10SM SCT033 31/24 A3004 860 67 2900 000/00 RMK AO2 LTG DSNT SE T03060239
04850KAOH AOH20160722122012307/22/16 12:20:31  5-MIN KAOH 221720Z AUTO 00000KT 10SM SCT033 31/23 A3005 860 65 2900 000/00 RMK AO2 LTG DSNT SE T03060233
04850KAOH AOH20160722122512907/22/16 12:25:31  5-MIN KAOH 221725Z AUTO VRB03KT 10SM SCT033 31/23 A3004 860 62 2900 VRB/03 RMK AO2 LTG DSNT E AND SE T03060228
04850KAOH AOH20160722123012207/22/16 12:30:31  5-MIN KAOH 221730Z AUTO 20007KT 10SM SCT037 31/23 A3004 870 62 2900 210/07 RMK AO2 LTG DSNT E T03060228
04850KAOH AOH20160722123512207/22/16 12:35:31  5-MIN KAOH 221735Z AUTO VRB06KT 10SM FEW037 31/22 A3005 860 58 2900 VRB/06 RMK AO2 LTG DSNT E T03110222
04850KAOH AOH20160722124011107/22/16 12:40:31  5-MIN KAOH 221740Z AUTO VRB05KT 10SM FEW039 31/23 A3005 860 60 2900 VRB/05 RMK AO2 T03110228
04850KAOH AOH20160722124511107/22/16 12:45:31  5-MIN KAOH 221745Z AUTO 25007KT 10SM FEW039 31/22 A3005 860 60 2900 250/07 RMK AO2 T03060222
04850KAOH AOH20160722125015007/22/16 12:50:31  5-MIN KAOH 221750Z AUTO 25008KT 10SM FEW039 SCT047 BKN055 31/23 A3005 860 62 2900 260/08 RMK AO2 SLP166 T03060228 10311 20233 58003
04850KAOH AOH20160722125511807/22/16 12:55:31  5-MIN KAOH 221755Z AUTO 24007KT 10SM FEW040 BKN055 30/23 A3005 860 65 2800 250/07 RMK AO2 T03000228
04850KAOH AOH20160722130011807/22/16 13:00:31  5-MIN KAOH 221800Z AUTO 24008KT 10SM FEW040 BKN055 30/23 A3005 860 67 2800 250/08 RMK AO2 T03000233
04850KAOH AOH20160722130511807/22/16 13:05:31  5-MIN KAOH 221805Z AUTO 22006KT 10SM FEW040 BKN055 30/23 A3005 860 67 2800 230/06 RMK AO2 T03000233
04850KAOH AOH20160722131011807/22/16 13:10:31  5-MIN KAOH 221810Z AUTO 21007KT 10SM FEW040 BKN055 30/23 A3004 860 65 2800 210/07 RMK AO2 T03000228
04850KAOH AOH20160722131511807/22/16 13:15:31  5-MIN KAOH 221815Z AUTO 21006KT 10SM FEW046 SCT055 31/23 A3004 870 65 2900 210/06 RMK AO2 T03060233
04850KAOH AOH20160722132011807/22/16 13:20:31  5-MIN KAOH 221820Z AUTO 19005KT 10SM FEW046 SCT060 31/24 A3004 870 67 2900 190/05 RMK AO2 T03060239
04850KAOH AOH20160722132511807/22/16 13:25:31  5-MIN KAOH 221825Z AUTO 17006KT 10SM FEW037 FEW055 31/24 A3004 870 65 2900 170/06 RMK AO2 T03110239
04850KAOH AOH20160722133011807/22/16 13:30:31  5-MIN KAOH 221830Z AUTO 18007KT 10SM FEW036 FEW065 30/24 A3003 870 69 2800 190/07 RMK AO2 T03000239
04850KAOH AOH20160722133511107/22/16 13:35:31  5-MIN KAOH 221835Z AUTO 22007KT 10SM FEW032 31/24 A3003 870 67 2900 220/07 RMK AO2 T03060239
04850KAOH AOH20160722134011807/22/16 13:40:31  5-MIN KAOH 221840Z AUTO 21008KT 10SM FEW032 FEW060 31/24 A3003 880 67 2900 220/08 RMK AO2 T03060239
04850KAOH AOH20160722134511807/22/16 13:45:31  5-MIN KAOH 221845Z AUTO 23010KT 10SM FEW034 FEW060 31/24 A3003 880 67 2900 240/10 RMK AO2 T03060239
04850KAOH AOH20160722135011807/22/16 13:50:31  5-MIN KAOH 221850Z AUTO 19007KT 10SM FEW034 30/24 A3003 870 69 2800 190/07 RMK AO2 SLP161 T03000239
04850KAOH AOH20160722135510807/22/16 13:55:31  5-MIN KAOH 221855Z AUTO 25006KT 10SM CLR 31/24 A3004 870 67 2900 260/06 RMK AO2 T03060239
04850KAOH AOH20160722140012407/22/16 14:00:31  5-MIN KAOH 221900Z AUTO 22007KT 180V240 10SM CLR 31/24 A3003 870 67 2900 230/07 190V250 RMK AO2 T03060239
04850KAOH AOH20160722140511107/22/16 14:05:31  5-MIN KAOH 221905Z AUTO 22006KT 10SM FEW033 31/24 A3003 880 65 3000 230/06 RMK AO2 T03110239
04850KAOH AOH20160722141011107/22/16 14:10:31  5-MIN KAOH 221910Z AUTO 20005KT 10SM FEW033 31/23 A3002 880 63 3000 210/05 RMK AO2 T03110233
04850KAOH AOH20160722141511107/22/16 14:15:31  5-MIN KAOH 221915Z AUTO 22007KT 10SM FEW033 31/23 A3002 880 63 3000 230/07 RMK AO2 T03110233
04850KAOH AOH20160722142011107/22/16 14:20:31  5-MIN KAOH 221920Z AUTO 28007KT 10SM FEW033 31/23 A3002 890 60 3000 280/07 RMK AO2 T03110228
04850KAOH AOH20160722142511107/22/16 14:25:31  5-MIN KAOH 221925Z AUTO 24009KT 10SM FEW033 31/23 A3001 890 63 3000 240/09 RMK AO2 T03110233
04850KAOH AOH20160722143011107/22/16 14:30:31  5-MIN KAOH 221930Z AUTO 24007KT 10SM FEW033 31/22 A3001 890 58 3000 250/07 RMK AO2 T03110222
04850KAOH AOH20160722143510807/22/16 14:35:31  5-MIN KAOH 221935Z AUTO 24004KT 10SM CLR 31/22 A3001 890 60 2900 250/04 RMK AO2 T03060222
04850KAOH AOH20160722144010807/22/16 14:40:31  5-MIN KAOH 221940Z AUTO 24007KT 10SM CLR 32/22 A3001 890 56 3000 250/07 RMK AO2 T03170222
04850KAOH AOH20160722144510807/22/16 14:45:31  5-MIN KAOH 221945Z AUTO 25009KT 10SM CLR 32/22 A3001 890 55 3100 260/09 RMK AO2 T03220222
04850KAOH AOH20160722145011507/22/16 14:50:31  5-MIN KAOH 221950Z AUTO 24007KT 10SM CLR 32/22 A3001 890 56 3000 250/07 RMK AO2 SLP153 T03170222
04850KAOH AOH20160722145510807/22/16 14:55:31  5-MIN KAOH 221955Z AUTO 22006KT 10SM CLR 32/23 A3001 900 58 3000 230/06 RMK AO2 T03170228
04850KAOH AOH20160722150010807/22/16 15:00:31  5-MIN KAOH 222000Z AUTO 24009KT 10SM CLR 32/21 A3001 900 51 3100 240/09 RMK AO2 T03220211
04850KAOH AOH20160722150510807/22/16 15:05:31  5-MIN KAOH 222005Z AUTO 23009KT 10SM CLR 32/22 A3001 900 55 3000 240/09 RMK AO2 T03170217
04850KAOH AOH20160722151010807/22/16 15:10:31  5-MIN KAOH 222010Z AUTO 24008KT 10SM CLR 32/22 A3001 900 55 3100 250/08 RMK AO2 T03220222
04850KAOH AOH20160722151510807/22/16 15:15:31  5-MIN KAOH 222015Z AUTO 25010KT 10SM CLR 32/22 A3000 900 55 3100 260/10 RMK AO2 T03220222
04850KAOH AOH20160722152010807/22/16 15:20:31  5-MIN KAOH 222020Z AUTO 24006KT 10SM CLR 32/22 A3000 900 56 3000 240/06 RMK AO2 T03170222
04850KAOH AOH20160722152511807/22/16 15:25:31  5-MIN KAOH 222025Z AUTO 21005KT 10SM FEW046 SCT055 31/22 A3000 900 56 3000 220/05 RMK AO2 T03110217
04850KAOH AOH20160722153014007/22/16 15:30:31  5-MIN KAOH 222030Z AUTO 27011G16KT 220V310 10SM FEW046 SCT055 32/22 A3000 900 56 3000 270/11G16 230V320 RMK AO2 T03170222
04850KAOH AOH20160722153512407/22/16 15:35:31  5-MIN KAOH 222035Z AUTO 29008G16KT 10SM SCT046 BKN055 31/23 A3000 900 60 3000 290/08G16 RMK AO2 T03110228
04850KAOH AOH20160722154011807/22/16 15:40:31  5-MIN KAOH 222040Z AUTO 28006KT 10SM SCT046 BKN055 32/23 A3000 910 61 3000 290/06 RMK AO2 T03170233
04850KAOH AOH20160722154511807/22/16 15:45:31  5-MIN KAOH 222045Z AUTO 25008KT 10SM SCT046 BKN055 31/23 A3000 900 62 2900 260/08 RMK AO2 T03060228
04850KAOH AOH20160722155013107/22/16 15:50:31  5-MIN KAOH 222050Z AUTO 25005KT 10SM FEW046 BKN060 31/23 A3000 900 62 2900 260/05 RMK AO2 SLP150 T03060228 51013
04850KAOH AOH20160722155511807/22/16 15:55:31  5-MIN KAOH 222055Z AUTO 29004KT 10SM FEW046 BKN060 31/23 A3000 910 63 3000 290/04 RMK AO2 T03110233
04850KAOH AOH20160722160011807/22/16 16:00:31  5-MIN KAOH 222100Z AUTO 26005KT 10SM FEW045 BKN060 32/23 A3000 910 58 3100 260/05 RMK AO2 T03170228
04850KAOH AOH20160722160511107/22/16 16:05:31  5-MIN KAOH 222105Z AUTO 25008KT 10SM FEW060 32/23 A3000 910 61 3000 260/08 RMK AO2 T03170233
04850KAOH AOH20160722161011107/22/16 16:10:31  5-MIN KAOH 222110Z AUTO 25007KT 10SM FEW060 32/23 A3000 910 58 3000 250/07 RMK AO2 T03170228
04850KAOH AOH20160722161511107/22/16 16:15:31  5-MIN KAOH 222115Z AUTO 23008KT 10SM FEW060 32/23 A3000 910 58 3100 230/08 RMK AO2 T03170228
04850KAOH AOH20160722162011807/22/16 16:20:31  5-MIN KAOH 222120Z AUTO 24007KT 10SM FEW044 FEW060 32/23 A2999 910 58 3100 240/07 RMK AO2 T03170228
04850KAOH AOH20160722162511807/22/16 16:25:31  5-MIN KAOH 222125Z AUTO 23006KT 10SM FEW044 FEW055 32/23 A2999 910 58 3100 240/06 RMK AO2 T03170228
04850KAOH AOH20160722163011107/22/16 16:30:31  5-MIN KAOH 222130Z AUTO 26009KT 10SM SCT046 31/22 A2999 910 58 3000 260/09 RMK AO2 T03110222
04850KAOH AOH20160722163511107/22/16 16:35:31  5-MIN KAOH 222135Z AUTO 25009KT 10SM FEW046 31/22 A2999 910 58 3000 260/09 RMK AO2 T03110222
04850KAOH AOH20160722164011807/22/16 16:40:31  5-MIN KAOH 222140Z AUTO 25010KT 10SM FEW047 SCT055 32/23 A2999 920 58 3100 250/10 RMK AO2 T03170228
04850KAOH AOH20160722164511807/22/16 16:45:31  5-MIN KAOH 222145Z AUTO 25008KT 10SM FEW047 SCT055 31/22 A2999 920 58 3000 260/08 RMK AO2 T03110222
04850KAOH AOH20160722165014107/22/16 16:50:31  5-MIN KAOH 222150Z AUTO 25007KT 200V270 10SM FEW046 FEW055 31/22 A2999 920 60 2900 250/07 210V280 RMK AO2 SLP145 T03060222
04850KAOH AOH20160722165511807/22/16 16:55:31  5-MIN KAOH 222155Z AUTO 22008KT 10SM FEW046 FEW060 31/22 A2998 920 60 2900 230/08 RMK AO2 T03060222
04850KAOH AOH20160722170011107/22/16 17:00:31  5-MIN KAOH 222200Z AUTO 23008KT 10SM FEW060 31/22 A2998 920 60 2900 230/08 RMK AO2 T03060222
04850KAOH AOH20160722170511807/22/16 17:05:31  5-MIN KAOH 222205Z AUTO 24008KT 10SM FEW047 FEW060 31/22 A2998 920 60 2900 250/08 RMK AO2 T03060222
04850KAOH AOH20160722171011107/22/16 17:10:31  5-MIN KAOH 222210Z AUTO 23009KT 10SM FEW049 31/23 A2998 920 60 3000 240/09 RMK AO2 T03110228
04850KAOH AOH20160722171511107/22/16 17:15:31  5-MIN KAOH 222215Z AUTO 22008KT 10SM FEW049 31/22 A2998 920 60 2900 230/08 RMK AO2 T03060222
04850KAOH AOH20160722172011107/22/16 17:20:31  5-MIN KAOH 222220Z AUTO 22008KT 10SM FEW049 31/23 A2997 930 62 3000 230/08 RMK AO2 T03060228
04850KAOH AOH20160722172511107/22/16 17:25:31  5-MIN KAOH 222225Z AUTO 23007KT 10SM FEW049 31/23 A2997 930 62 3000 230/07 RMK AO2 T03060228
04850KAOH AOH20160722173011107/22/16 17:30:31  5-MIN KAOH 222230Z AUTO 25008KT 10SM FEW048 31/23 A2997 930 60 3000 260/08 RMK AO2 T03110228
04850KAOH AOH20160722173511107/22/16 17:35:31  5-MIN KAOH 222235Z AUTO 25009KT 10SM FEW048 31/23 A2997 930 60 3000 260/09 RMK AO2 T03110228
04850KAOH AOH20160722174011107/22/16 17:40:31  5-MIN KAOH 222240Z AUTO 24008KT 10SM FEW047 31/23 A2997 930 62 3000 250/08 RMK AO2 T03060228
04850KAOH AOH20160722174511107/22/16 17:45:31  5-MIN KAOH 222245Z AUTO 23009KT 10SM FEW047 31/23 A2996 940 60 3000 240/09 RMK AO2 T03110228
04850KAOH AOH20160722175011507/22/16 17:50:31  5-MIN KAOH 222250Z AUTO 23007KT 10SM CLR 31/22 A2996 940 60 3000 240/07 RMK AO2 SLP138 T03060222
04850KAOH AOH20160722175510807/22/16 17:55:31  5-MIN KAOH 222255Z AUTO 23006KT 10SM CLR 31/23 A2996 940 62 3000 230/06 RMK AO2 T03060228
04850KAOH AOH20160722180010807/22/16 18:00:31  5-MIN KAOH 222300Z AUTO 24007KT 10SM CLR 31/23 A2996 940 62 3000 240/07 RMK AO2 T03060228
04850KAOH AOH20160722180510807/22/16 18:05:31  5-MIN KAOH 222305Z AUTO 24006KT 10SM CLR 31/23 A2996 940 62 3000 250/06 RMK AO2 T03060228
04850KAOH AOH20160722181010807/22/16 18:10:31  5-MIN KAOH 222310Z AUTO 24007KT 10SM CLR 31/23 A2996 940 65 3000 250/07 RMK AO2 T03060233
04850KAOH AOH20160722181510807/22/16 18:15:31  5-MIN KAOH 222315Z AUTO 24008KT 10SM CLR 30/23 A2996 940 65 2900 250/08 RMK AO2 T03000228
04850KAOH AOH20160722182010807/22/16 18:20:31  5-MIN KAOH 222320Z AUTO 24009KT 10SM CLR 31/23 A2997 930 62 3000 240/09 RMK AO2 T03060228
04850KAOH AOH20160722182510807/22/16 18:25:31  5-MIN KAOH 222325Z AUTO 24007KT 10SM CLR 31/23 A2997 930 62 3000 250/07 RMK AO2 T03060228
04850KAOH AOH20160722183010807/22/16 18:30:31  5-MIN KAOH 222330Z AUTO 25009KT 10SM CLR 30/23 A2997 930 67 2900 260/09 RMK AO2 T03000233
04850KAOH AOH20160722183510807/22/16 18:35:31  5-MIN KAOH 222335Z AUTO 25008KT 10SM CLR 29/23 A2997 930 67 2800 250/08 RMK AO2 T02940228
04850KAOH AOH20160722184010807/22/16 18:40:31  5-MIN KAOH 222340Z AUTO 23008KT 10SM CLR 29/23 A2997 930 67 2800 240/08 RMK AO2 T02940228
04850KAOH AOH20160722184510807/22/16 18:45:31  5-MIN KAOH 222345Z AUTO 23008KT 10SM CLR 30/23 A2997 930 65 2900 240/08 RMK AO2 T03000228
04850KAOH AOH20160722185013307/22/16 18:50:31  5-MIN KAOH 222350Z AUTO 24006KT 10SM CLR 29/23 A2997 930 67 2800 250/06 RMK AO2 SLP141 T02940228 10322 20294 56016
04850KAOH AOH20160722185510807/22/16 18:55:31  5-MIN KAOH 222355Z AUTO 24007KT 10SM CLR 29/23 A2997 930 67 2800 240/07 RMK AO2 T02940228
04850KAOH AOH20160722190010807/22/16 19:00:31  5-MIN KAOH 230000Z AUTO 24007KT 10SM CLR 29/23 A2997 930 67 2800 250/07 RMK AO2 T02940228
04850KAOH AOH20160722190511107/22/16 19:05:31  5-MIN KAOH 230005Z AUTO 23008KT 10SM FEW043 29/23 A2998 920 67 2800 240/08 RMK AO2 T02940228
04850KAOH AOH20160722191011107/22/16 19:10:31  5-MIN KAOH 230010Z AUTO 24007KT 10SM FEW043 29/23 A2998 920 67 2800 240/07 RMK AO2 T02940228
04850KAOH AOH20160722191510807/22/16 19:15:31  5-MIN KAOH 230015Z AUTO 24007KT 10SM CLR 29/23 A2998 920 67 2800 240/07 RMK AO2 T02940228
04850KAOH AOH20160722192010807/22/16 19:20:31  5-MIN KAOH 230020Z AUTO 23006KT 10SM CLR 29/23 A2998 920 67 2800 240/06 RMK AO2 T02940228
04850KAOH AOH20160722192510807/22/16 19:25:31  5-MIN KAOH 230025Z AUTO 22005KT 10SM CLR 29/23 A2998 920 67 2800 230/05 RMK AO2 T02940228
04850KAOH AOH20160722193010807/22/16 19:30:31  5-MIN KAOH 230030Z AUTO 23004KT 10SM CLR 29/23 A2998 920 69 2800 240/04 RMK AO2 T02890228
04850KAOH AOH20160722193510807/22/16 19:35:31  5-MIN KAOH 230035Z AUTO 22004KT 10SM CLR 29/23 A2998 920 71 2800 220/04 RMK AO2 T02890233
04850KAOH AOH20160722194010807/22/16 19:40:31  5-MIN KAOH 230040Z AUTO 22004KT 10SM CLR 28/23 A2998 920 71 2700 230/04 RMK AO2 T02830228
04850KAOH AOH20160722194510807/22/16 19:45:31  5-MIN KAOH 230045Z AUTO 23006KT 10SM CLR 28/23 A2998 920 71 2700 240/06 RMK AO2 T02830228
04850KAOH AOH20160722195011507/22/16 19:50:31  5-MIN KAOH 230050Z AUTO 23005KT 10SM CLR 28/23 A2999 920 71 2700 240/05 RMK AO2 SLP145 T02830228
04850KAOH AOH20160722195510807/22/16 19:55:31  5-MIN KAOH 230055Z AUTO 23006KT 10SM CLR 28/23 A2999 920 71 2700 230/06 RMK AO2 T02830228
04850KAOH AOH20160722200010807/22/16 20:00:31  5-MIN KAOH 230100Z AUTO 23006KT 10SM CLR 28/23 A2998 920 71 2700 240/06 RMK AO2 T02830228
04850KAOH AOH20160722200510807/22/16 20:05:31  5-MIN KAOH 230105Z AUTO 23006KT 10SM CLR 28/23 A2999 920 71 2700 230/06 RMK AO2 T02830228
04850KAOH AOH20160722201010807/22/16 20:10:31  5-MIN KAOH 230110Z AUTO 23005KT 10SM CLR 28/23 A2999 920 74 2600 230/05 RMK AO2 T02780228
04850KAOH AOH20160722201510807/22/16 20:15:31  5-MIN KAOH 230115Z AUTO 23006KT 10SM CLR 28/23 A2999 920 74 2600 240/06 RMK AO2 T02780228
04850KAOH AOH20160722202010807/22/16 20:20:31  5-MIN KAOH 230120Z AUTO 23006KT 10SM CLR 28/23 A2999 920 74 2600 230/06 RMK AO2 T02780228
04850KAOH AOH20160722202510807/22/16 20:25:31  5-MIN KAOH 230125Z AUTO 23005KT 10SM CLR 28/23 A2999 910 74 2600 230/05 RMK AO2 T02780228
04850KAOH AOH20160722203010807/22/16 20:30:31  5-MIN KAOH 230130Z AUTO 23005KT 10SM CLR 28/23 A2999 910 74 2600 230/05 RMK AO2 T02780228
04850KAOH AOH20160722203510807/22/16 20:35:31  5-MIN KAOH 230135Z AUTO 23005KT 10SM CLR 27/23 A2999 910 76 2600 230/05 RMK AO2 T02720228
04850KAOH AOH20160722204010807/22/16 20:40:31  5-MIN KAOH 230140Z AUTO 23005KT 10SM CLR 27/23 A2999 910 76 2600 230/05 RMK AO2 T02720228
04850KAOH AOH20160722204510807/22/16 20:45:31  5-MIN KAOH 230145Z AUTO 22005KT 10SM CLR 27/22 A3000 910 74 2600 230/05 RMK AO2 T02720222
04850KAOH AOH20160722205011507/22/16 20:50:31  5-MIN KAOH 230150Z AUTO 22005KT 10SM CLR 27/22 A3000 910 74 2600 230/05 RMK AO2 SLP149 T02720222
04850KAOH AOH20160722205510807/22/16 20:55:31  5-MIN KAOH 230155Z AUTO 22005KT 10SM CLR 27/22 A3000 900 74 2600 230/05 RMK AO2 T02720222
04850KAOH AOH20160722210010807/22/16 21:00:31  5-MIN KAOH 230200Z AUTO 22005KT 10SM CLR 27/22 A3000 900 74 2600 230/05 RMK AO2 T02720222
04850KAOH AOH20160722210510807/22/16 21:05:31  5-MIN KAOH 230205Z AUTO 23004KT 10SM CLR 27/22 A3000 900 76 2500 230/04 RMK AO2 T02670222
04850KAOH AOH20160722211010807/22/16 21:10:31  5-MIN KAOH 230210Z AUTO 23004KT 10SM CLR 27/23 A3000 900 79 2500 240/04 RMK AO2 T02670228
04850KAOH AOH20160722211510807/22/16 21:15:31  5-MIN KAOH 230215Z AUTO 23004KT 10SM CLR 26/23 A3000 900 84 2400 230/04 RMK AO2 T02560228
04850KAOH AOH20160722212010807/22/16 21:20:31  5-MIN KAOH 230220Z AUTO 23005KT 10SM CLR 26/23 A3001 900 84 2400 240/05 RMK AO2 T02560228
04850KAOH AOH20160722212510807/22/16 21:25:31  5-MIN KAOH 230225Z AUTO 23004KT 10SM CLR 27/23 A3001 900 79 2500 240/04 RMK AO2 T02670228
04850KAOH AOH20160722213010807/22/16 21:30:31  5-MIN KAOH 230230Z AUTO 21005KT 10SM CLR 27/23 A3001 890 79 2500 220/05 RMK AO2 T02670228
04850KAOH AOH20160722213510807/22/16 21:35:31  5-MIN KAOH 230235Z AUTO 22005KT 10SM CLR 27/23 A3001 890 79 2500 220/05 RMK AO2 T02670228
04850KAOH AOH20160722214010807/22/16 21:40:31  5-MIN KAOH 230240Z AUTO 22005KT 10SM CLR 27/23 A3001 890 79 2500 220/05 RMK AO2 T02670228
04850KAOH AOH20160722214510807/22/16 21:45:31  5-MIN KAOH 230245Z AUTO 22005KT 10SM CLR 26/23 A3001 890 81 2400 220/05 RMK AO2 T02610228
04850KAOH AOH20160722215012107/22/16 21:50:31  5-MIN KAOH 230250Z AUTO 22005KT 10SM CLR 26/23 A3001 890 81 2400 220/05 RMK AO2 SLP154 T02610228 55008
04850KAOH AOH20160722215510807/22/16 21:55:31  5-MIN KAOH 230255Z AUTO 23004KT 10SM CLR 26/23 A3002 890 81 2400 240/04 RMK AO2 T02610228
04850KAOH AOH20160722220010807/22/16 22:00:31  5-MIN KAOH 230300Z AUTO 23004KT 10SM CLR 26/23 A3002 890 81 2400 240/04 RMK AO2 T02610228
04850KAOH AOH20160722220510807/22/16 22:05:31  5-MIN KAOH 230305Z AUTO 21005KT 10SM CLR 26/23 A3002 890 81 2400 210/05 RMK AO2 T02610228
04850KAOH AOH20160722221010807/22/16 22:10:31  5-MIN KAOH 230310Z AUTO 18006KT 10SM CLR 26/23 A3002 890 84 2300 190/06 RMK AO2 T02560228
04850KAOH AOH20160722221510807/22/16 22:15:31  5-MIN KAOH 230315Z AUTO 20005KT 10SM CLR 25/23 A3002 890 87 2300 210/05 RMK AO2 T02500228
04850KAOH AOH20160722222010807/22/16 22:20:31  5-MIN KAOH 230320Z AUTO 20005KT 10SM CLR 25/23 A3002 890 87 2300 210/05 RMK AO2 T02500228
04850KAOH AOH20160722222510807/22/16 22:25:31  5-MIN KAOH 230325Z AUTO 19005KT 10SM CLR 25/23 A3002 890 87 2300 200/05 RMK AO2 T02500228
04850KAOH AOH20160722223010807/22/16 22:30:31  5-MIN KAOH 230330Z AUTO 18007KT 10SM CLR 25/23 A3002 890 87 2300 190/07 RMK AO2 T02500228
04850KAOH AOH20160722223510807/22/16 22:35:31  5-MIN KAOH 230335Z AUTO 19005KT 10SM CLR 25/23 A3001 890 87 2300 200/05 RMK AO2 T02500228
04850KAOH AOH20160722224010807/22/16 22:40:31  5-MIN KAOH 230340Z AUTO 20006KT 10SM CLR 25/23 A3001 890 87 2300 200/06 RMK AO2 T02500228
04850KAOH AOH20160722224510807/22/16 22:45:31  5-MIN KAOH 230345Z AUTO 19006KT 10SM CLR 25/23 A3001 890 87 2300 200/06 RMK AO2 T02500228
04850KAOH AOH20160722225011507/22/16 22:50:31  5-MIN KAOH 230350Z AUTO 19007KT 10SM CLR 25/23 A3001 890 87 2300 200/07 RMK AO2 SLP154 T02500228
04850KAOH AOH20160722225510807/22/16 22:55:31  5-MIN KAOH 230355Z AUTO 20005KT 10SM CLR 25/23 A3001 890 87 2300 200/05 RMK AO2 T02500228
04850KAOH AOH20160722230010807/22/16 23:00:31  5-MIN KAOH 230400Z AUTO 20006KT 10SM CLR 25/23 A3001 890 87 2300 210/06 RMK AO2 T02500228
04850KAOH AOH20160722230510807/22/16 23:05:31  5-MIN KAOH 230405Z AUTO 21005KT 10SM CLR 25/23 A3001 890 87 2300 210/05 RMK AO2 T02500228
04850KAOH AOH20160722231010807/22/16 23:10:31  5-MIN KAOH 230410Z AUTO 20005KT 10SM CLR 25/23 A3001 890 87 2300 210/05 RMK AO2 T02500228
04850KAOH AOH20160722231510807/22/16 23:15:31  5-MIN KAOH 230415Z AUTO 21004KT 10SM CLR 25/23 A3002 890 87 2300 220/04 RMK AO2 T02500228
04850KAOH AOH20160722232010807/22/16 23:20:31  5-MIN KAOH 230420Z AUTO 21005KT 10SM CLR 25/23 A3002 890 87 2300 220/05 RMK AO2 T02500228
04850KAOH AOH20160722232510807/22/16 23:25:31  5-MIN KAOH 230425Z AUTO 22005KT 10SM CLR 25/23 A3002 890 90 2300 230/05 RMK AO2 T02500233
04850KAOH AOH20160722233010807/22/16 23:30:31  5-MIN KAOH 230430Z AUTO 24004KT 10SM CLR 25/23 A3002 890 90 2300 250/04 RMK AO2 T02500233
04850KAOH AOH20160722233510807/22/16 23:35:31  5-MIN KAOH 230435Z AUTO 23005KT 10SM CLR 24/23 A3002 890 93 2200 240/05 RMK AO2 T02440233
04850KAOH AOH20160722234010807/22/16 23:40:31  5-MIN KAOH 230440Z AUTO 24004KT 10SM CLR 24/23 A3002 880 93 2200 240/04 RMK AO2 T02440233
04850KAOH AOH20160722234510807/22/16 23:45:31  5-MIN KAOH 230445Z AUTO 25003KT 10SM CLR 24/23 A3003 880 97 2200 250/03 RMK AO2 T02390233
04850KAOH AOH20160722235012507/22/16 23:50:31  5-MIN KAOH 230450Z AUTO 00000KT 10SM CLR 23/22 A3003 880 93 2100 000/00 RMK AO2 SLP159 T02330222 403220206
04850KAOH AOH20160722235510807/22/16 23:55:31  5-MIN KAOH 230455Z AUTO 00000KT 10SM CLR 23/22 A3002 880 97 2000 000/00 RMK AO2 T02280222
04850KAOH AOH20160723000010807/23/16 00:00:31  5-MIN KAOH 230500Z AUTO 00000KT 10SM CLR 23/22 A3002 880 97 2000 000/00 RMK AO2 T02280222
04850KAOH AOH20160723000510807/23/16 00:05:31  5-MIN KAOH 230505Z AUTO 00000KT 10SM CLR 23/22 A3002 890 93 2100 000/00 RMK AO2 T02330222
04850KAOH AOH20160723001010807/23/16 00:10:31  5-MIN KAOH 230510Z AUTO 00000KT 10SM CLR 23/23 A3002 890 97 2100 000/00 RMK AO2 T02330228
04850KAOH AOH20160723001510807/23/16 00:15:31  5-MIN KAOH 230515Z AUTO 00000KT 10SM CLR 24/23 A3002 890 93 2200 000/00 RMK AO2 T02390228
04850KAOH AOH20160723002010807/23/16 00:20:31  5-MIN KAOH 230520Z AUTO 00000KT 10SM CLR 23/22 A3002 890 93 2100 000/00 RMK AO2 T02330222
04850KAOH AOH20160723002510807/23/16 00:25:31  5-MIN KAOH 230525Z AUTO 00000KT 10SM CLR 23/22 A3002 890 93 2100 000/00 RMK AO2 T02330222
04850KAOH AOH20160723003010707/23/16 00:30:31  5-MIN KAOH 230530Z AUTO 17003KT 9SM CLR 23/22 A3002 890 93 2100 180/03 RMK AO2 T02330222
04850KAOH AOH20160723003510707/23/16 00:35:31  5-MIN KAOH 230535Z AUTO 18003KT 9SM CLR 23/22 A3002 890 93 2100 180/03 RMK AO2 T02330222
04850KAOH AOH20160723004010707/23/16 00:40:31  5-MIN KAOH 230540Z AUTO 18004KT 8SM CLR 23/23 A3002 890 97 2100 190/04 RMK AO2 T02330228
04850KAOH AOH20160723004510707/23/16 00:45:31  5-MIN KAOH 230545Z AUTO 19004KT 8SM CLR 23/23 A3002 890 97 2100 190/04 RMK AO2 T02330228
04850KAOH AOH20160723005013207/23/16 00:50:31  5-MIN KAOH 230550Z AUTO 20004KT 7SM CLR 23/23 A3002 890 97 2100 210/04 RMK AO2 SLP155 T02330228 10294 20228 53013
04850KAOH AOH20160723005510707/23/16 00:55:31  5-MIN KAOH 230555Z AUTO 20004KT 7SM CLR 23/23 A3001 890 97 2100 210/04 RMK AO2 T02330228
04850KAOH AOH20160723010010707/23/16 01:00:31  5-MIN KAOH 230600Z AUTO 20005KT 8SM CLR 23/23 A3001 890 97 2100 210/05 RMK AO2 T02330228
04850KAOH AOH20160723010510707/23/16 01:05:31  5-MIN KAOH 230605Z AUTO 21004KT 8SM CLR 24/23 A3001 890 97 2200 210/04 RMK AO2 T02390233
04850KAOH AOH20160723011010707/23/16 01:10:31  5-MIN KAOH 230610Z AUTO 21005KT 8SM CLR 24/23 A3001 890 97 2200 220/05 RMK AO2 T02390233
04850KAOH AOH20160723011510707/23/16 01:15:31  5-MIN KAOH 230615Z AUTO 20005KT 8SM CLR 24/23 A3001 890 97 2200 210/05 RMK AO2 T02390233
04850KAOH AOH20160723012010707/23/16 01:20:31  5-MIN KAOH 230620Z AUTO 20004KT 7SM CLR 24/23 A3001 890 97 2200 210/04 RMK AO2 T02390233
04850KAOH AOH20160723012510807/23/16 01:25:31  5-MIN KAOH 230625Z AUTO 21004KT 7SM CLR 23/23 A3001 890 100 2100 220/04 RMK AO2 T02330233
04850KAOH AOH20160723013010807/23/16 01:30:31  5-MIN KAOH 230630Z AUTO 22004KT 7SM CLR 23/23 A3001 890 100 2100 230/04 RMK AO2 T02330233
04850KAOH AOH20160723013510707/23/16 01:35:31  5-MIN KAOH 230635Z AUTO 23004KT 7SM CLR 23/23 A3001 890 97 2100 240/04 RMK AO2 T02330228
04850KAOH AOH20160723014010707/23/16 01:40:31  5-MIN KAOH 230640Z AUTO 23003KT 8SM CLR 23/23 A3001 890 97 2100 230/03 RMK AO2 T02330228
04850KAOH AOH20160723014510707/23/16 01:45:31  5-MIN KAOH 230645Z AUTO 00000KT 8SM CLR 23/23 A3001 890 97 2100 000/00 RMK AO2 T02330228
04850KAOH AOH20160723015011507/23/16 01:50:31  5-MIN KAOH 230650Z AUTO 00000KT 7SM CLR 23/23 A3002 890 100 2000 000/00 RMK AO2 SLP155 T02280228
04850KAOH AOH20160723015510707/23/16 01:55:31  5-MIN KAOH 230655Z AUTO 22004KT 8SM CLR 23/23 A3001 890 97 2100 230/04 RMK AO2 T02330228
04850KAOH AOH20160723020010707/23/16 02:00:31  5-MIN KAOH 230700Z AUTO 22003KT 9SM CLR 23/23 A3002 890 97 2100 220/03 RMK AO2 T02330228
04850KAOH AOH20160723020510807/23/16 02:05:31  5-MIN KAOH 230705Z AUTO 00000KT 10SM CLR 23/22 A3002 890 93 2100 000/00 RMK AO2 T02330222
04850KAOH AOH20160723021010807/23/16 02:10:31  5-MIN KAOH 230710Z AUTO 22003KT 10SM CLR 23/22 A3002 890 97 2000 220/03 RMK AO2 T02280222
04850KAOH AOH20160723021510807/23/16 02:15:31  5-MIN KAOH 230715Z AUTO 00000KT 10SM CLR 23/22 A3002 890 93 2100 000/00 RMK AO2 T02330222
04850KAOH AOH20160723022010807/23/16 02:20:31  5-MIN KAOH 230720Z AUTO 00000KT 10SM CLR 23/23 A3002 890 97 2100 000/00 RMK AO2 T02330228
04850KAOH AOH20160723022510807/23/16 02:25:31  5-MIN KAOH 230725Z AUTO 00000KT 10SM CLR 23/22 A3001 890 93 2100 000/00 RMK AO2 T02330222
04850KAOH AOH20160723023010807/23/16 02:30:31  5-MIN KAOH 230730Z AUTO 21003KT 10SM CLR 23/22 A3001 890 93 2100 220/03 RMK AO2 T02330222
04850KAOH AOH20160723023510807/23/16 02:35:31  5-MIN KAOH 230735Z AUTO 00000KT 10SM CLR 23/22 A3002 890 93 2100 000/00 RMK AO2 T02330222
04850KAOH AOH20160723024010807/23/16 02:40:31  5-MIN KAOH 230740Z AUTO 00000KT 10SM CLR 23/22 A3002 890 93 2100 000/00 RMK AO2 T02330222
04850KAOH AOH20160723024510807/23/16 02:45:31  5-MIN KAOH 230745Z AUTO 23003KT 10SM CLR 23/22 A3001 890 93 2100 230/03 RMK AO2 T02330222
04850KAOH AOH20160723025011507/23/16 02:50:31  5-MIN KAOH 230750Z AUTO 23003KT 10SM CLR 23/22 A3001 890 97 2000 230/03 RMK AO2 SLP155 T02280222
04850KAOH AOH20160723025510807/23/16 02:55:31  5-MIN KAOH 230755Z AUTO 22003KT 10SM CLR 23/22 A3001 890 97 2000 230/03 RMK AO2 T02280222
04850KAOH AOH20160723030010807/23/16 03:00:31  5-MIN KAOH 230800Z AUTO 23003KT 10SM CLR 23/22 A3001 890 97 2000 240/03 RMK AO2 T02280222
04850KAOH AOH20160723030510807/23/16 03:05:31  5-MIN KAOH 230805Z AUTO 23003KT 10SM CLR 23/22 A3002 890 97 2000 240/03 RMK AO2 T02280222
04850KAOH AOH20160723031010807/23/16 03:10:31  5-MIN KAOH 230810Z AUTO 23003KT 10SM CLR 23/22 A3002 890 97 2000 240/03 RMK AO2 T02280222
04850KAOH AOH20160723031510807/23/16 03:15:31  5-MIN KAOH 230815Z AUTO 23003KT 10SM CLR 23/22 A3001 890 93 2000 230/03 RMK AO2 T02280217
04850KAOH AOH20160723032010807/23/16 03:20:31  5-MIN KAOH 230820Z AUTO 23003KT 10SM CLR 23/22 A3001 890 97 2000 240/03 RMK AO2 T02280222
04850KAOH AOH20160723032510807/23/16 03:25:31  5-MIN KAOH 230825Z AUTO 24003KT 10SM CLR 23/22 A3002 890 97 2000 250/03 RMK AO2 T02280222
04850KAOH AOH20160723033010807/23/16 03:30:31  5-MIN KAOH 230830Z AUTO 23003KT 10SM CLR 22/22 A3002 890 97 2000 240/03 RMK AO2 T02220217
04850KAOH AOH20160723033510807/23/16 03:35:31  5-MIN KAOH 230835Z AUTO 24003KT 10SM CLR 22/22 A3002 890 97 2000 250/03 RMK AO2 T02220217
04850KAOH AOH20160723034010707/23/16 03:40:31  5-MIN KAOH 230840Z AUTO 25003KT 9SM CLR 22/21 A3002 890 97 1900 250/03 RMK AO2 T02170211
04850KAOH AOH20160723034510807/23/16 03:45:31  5-MIN KAOH 230845Z AUTO 25003KT 9SM CLR 22/22 A3002 880 100 1900 250/03 RMK AO2 T02170217
04850KAOH AOH20160723035012007/23/16 03:50:31  5-MIN KAOH 230850Z AUTO 25004KT 9SM CLR 22/22 A3002 880 97 2000 250/04 RMK AO2 SLP157 T02220217 50000
04850KAOH AOH20160723035510807/23/16 03:55:31  5-MIN KAOH 230855Z AUTO 23003KT 9SM CLR 22/22 A3002 880 100 1900 240/03 RMK AO2 T02170217
04850KAOH AOH20160723040010707/23/16 04:00:31  5-MIN KAOH 230900Z AUTO 24003KT 9SM CLR 22/22 A3002 880 97 2000 250/03 RMK AO2 T02220217
04850KAOH AOH20160723040510807/23/16 04:05:31  5-MIN KAOH 230905Z AUTO 24003KT 10SM CLR 22/22 A3002 880 97 2000 250/03 RMK AO2 T02220217
04850KAOH AOH20160723041010807/23/16 04:10:31  5-MIN KAOH 230910Z AUTO 25003KT 10SM CLR 22/22 A3002 880 97 2000 250/03 RMK AO2 T02220217
04850KAOH AOH20160723041510707/23/16 04:15:31  5-MIN KAOH 230915Z AUTO 25003KT 9SM CLR 22/21 A3002 880 97 1900 260/03 RMK AO2 T02170211
04850KAOH AOH20160723042010707/23/16 04:20:31  5-MIN KAOH 230920Z AUTO 25003KT 8SM CLR 22/21 A3002 880 97 1900 250/03 RMK AO2 T02170211
04850KAOH AOH20160723042510807/23/16 04:25:31  5-MIN KAOH 230925Z AUTO 23003KT 8SM CLR 22/22 A3002 880 100 1900 240/03 RMK AO2 T02170217
04850KAOH AOH20160723043010707/23/16 04:30:31  5-MIN KAOH 230930Z AUTO 24003KT 9SM CLR 22/22 A3002 890 97 2000 240/03 RMK AO2 T02220217
04850KAOH AOH20160723043510707/23/16 04:35:31  5-MIN KAOH 230935Z AUTO 24003KT 9SM CLR 22/22 A3002 890 97 2000 250/03 RMK AO2 T02220217
04850KAOH AOH20160723044010707/23/16 04:40:31  5-MIN KAOH 230940Z AUTO 00000KT 9SM CLR 22/22 A3001 890 97 2000 000/00 RMK AO2 T02220217
04850KAOH AOH20160723044510707/23/16 04:45:31  5-MIN KAOH 230945Z AUTO 22003KT 9SM CLR 22/22 A3001 890 97 2000 230/03 RMK AO2 T02220217
04850KAOH AOH20160723045011407/23/16 04:50:31  5-MIN KAOH 230950Z AUTO 00000KT 9SM CLR 22/22 A3002 890 97 2000 000/00 RMK AO2 SLP155 T02220217
04850KAOH AOH20160723045510807/23/16 04:55:31  5-MIN KAOH 230955Z AUTO 00000KT 9SM CLR 21/21 A3002 890 100 1800 000/00 RMK AO2 T02110211
04850KAOH AOH20160723050010707/23/16 05:00:31  5-MIN KAOH 231000Z AUTO 00000KT 7SM CLR 22/21 A3002 890 97 1900 000/00 RMK AO2 T02170211
04850KAOH AOH20160723050511107/23/16 05:05:31  5-MIN KAOH 231005Z AUTO 00000KT 6SM BR CLR 21/21 A3001 890 100 1800 000/00 RMK AO2 T02110211
04850KAOH AOH20160723051011107/23/16 05:10:31  5-MIN KAOH 231010Z AUTO 00000KT 6SM BR CLR 21/21 A3001 890 100 1900 000/00 RMK AO2 T02110211
04850KAOH AOH20160723051511007/23/16 05:15:31  5-MIN KAOH 231015Z AUTO 15003KT 6SM BR CLR 21/21 A3001 890 97 1800 160/03 RMK AO2 T02110206
04850KAOH AOH20160723052011107/23/16 05:20:31  5-MIN KAOH 231020Z AUTO 17003KT 6SM BR CLR 21/21 A3002 890 100 1800 170/03 RMK AO2 T02060206
04850KAOH AOH20160723052511107/23/16 05:25:31  5-MIN KAOH 231025Z AUTO 17003KT 5SM BR CLR 21/21 A3002 890 100 1800 180/03 RMK AO2 T02060206
04850KAOH AOH20160723053011107/23/16 05:30:31  5-MIN KAOH 231030Z AUTO 18004KT 4SM BR CLR 21/21 A3002 890 100 1800 180/04 RMK AO2 T02110211
04850KAOH AOH20160723053511107/23/16 05:35:31  5-MIN KAOH 231035Z AUTO 18004KT 3SM BR CLR 21/21 A3002 890 100 1800 190/04 RMK AO2 T02110211
04850KAOH AOH20160723054011807/23/16 05:40:31  5-MIN KAOH 231040Z AUTO 18004KT 1 1/4SM BR FEW004 21/21 A3002 890 100 1800 180/04 RMK AO2 T02110211
04850KAOH AOH20160723054511507/23/16 05:45:31  5-MIN KAOH 231045Z AUTO 18004KT 1/2SM FG VV004 21/21 A3002 890 100 1800 180/04 RMK AO2 T02110211
04850KAOH AOH20160723055012207/23/16 05:50:31  5-MIN KAOH 231050Z AUTO 18004KT 1/2SM FG VV004 21/21 A3001 890 100 1900 190/04 RMK AO2 SLP154 T02110211
04850KAOH AOH20160723055511307/23/16 05:55:31  5-MIN KAOH 231055Z AUTO 18003KT 1SM BR VV004 21/21 A3001 890 100 1800 190/03 RMK AO2 T02110211
04850KAOH AOH20160723060011807/23/16 06:00:31  5-MIN KAOH 231100Z AUTO 19003KT 2 1/2SM BR FEW004 21/21 A3001 890 100 1800 190/03 RMK AO2 T02110211
04850KAOH AOH20160723060511107/23/16 06:05:31  5-MIN KAOH 231105Z AUTO 19003KT 3SM BR CLR 22/22 A3001 890 100 1900 200/03 RMK AO2 T02170217
04850KAOH AOH20160723061011107/23/16 06:10:31  5-MIN KAOH 231110Z AUTO 20003KT 4SM BR CLR 22/22 A3001 890 100 1900 200/03 RMK AO2 T02170217
04850KAOH AOH20160723061511107/23/16 06:15:31  5-MIN KAOH 231115Z AUTO 21003KT 4SM BR CLR 22/22 A3002 890 100 1900 220/03 RMK AO2 T02170217
04850KAOH AOH20160723062011107/23/16 06:20:31  5-MIN KAOH 231120Z AUTO 00000KT 4SM BR CLR 22/22 A3002 890 100 2000 000/00 RMK AO2 T02220222
04850KAOH AOH20160723062511107/23/16 06:25:31  5-MIN KAOH 231125Z AUTO 21003KT 5SM BR CLR 22/22 A3002 890 100 2000 220/03 RMK AO2 T02220222
04850KAOH AOH20160723063011107/23/16 06:30:31  5-MIN KAOH 231130Z AUTO 00000KT 5SM BR CLR 22/22 A3002 890 100 2000 000/00 RMK AO2 T02220222
04850KAOH AOH20160723063511107/23/16 06:35:31  5-MIN KAOH 231135Z AUTO 00000KT 5SM BR CLR 22/22 A3001 890 100 2000 000/00 RMK AO2 T02220222
04850KAOH AOH20160723064011007/23/16 06:40:31  5-MIN KAOH 231140Z AUTO 21003KT 6SM BR CLR 23/22 A3002 890 97 2000 220/03 RMK AO2 T02280222
04850KAOH AOH20160723064511007/23/16 06:45:31  5-MIN KAOH 231145Z AUTO 22004KT 6SM BR CLR 23/22 A3002 890 97 2000 230/04 RMK AO2 T02280222
04850KAOH AOH20160723065013507/23/16 06:50:31  5-MIN KAOH 231150Z AUTO 22003KT 6SM BR CLR 23/22 A3002 890 97 2000 220/03 RMK AO2 SLP156 T02280222 10239 20206 53002
04850KAOH AOH20160723065510707/23/16 06:55:31  5-MIN KAOH 231155Z AUTO 22003KT 7SM CLR 23/22 A3002 890 97 2000 220/03 RMK AO2 T02280222
04850KAOH AOH20160723070010707/23/16 07:00:31  5-MIN KAOH 231200Z AUTO 23004KT 7SM CLR 23/22 A3002 890 97 2000 230/04 RMK AO2 T02280222
04850KAOH AOH20160723070510707/23/16 07:05:31  5-MIN KAOH 231205Z AUTO 23004KT 7SM CLR 23/22 A3002 880 93 2100 230/04 RMK AO2 T02330222
04850KAOH AOH20160723071010707/23/16 07:10:31  5-MIN KAOH 231210Z AUTO 24003KT 7SM CLR 23/23 A3002 890 97 2100 250/03 RMK AO2 T02330228
04850KAOH AOH20160723071510707/23/16 07:15:31  5-MIN KAOH 231215Z AUTO 26004KT 8SM CLR 23/23 A3002 890 97 2100 260/04 RMK AO2 T02330228
04850KAOH AOH20160723072010707/23/16 07:20:31  5-MIN KAOH 231220Z AUTO 27003KT 8SM CLR 23/23 A3002 880 97 2100 280/03 RMK AO2 T02330228
04850KAOH AOH20160723072510707/23/16 07:25:31  5-MIN KAOH 231225Z AUTO 29004KT 8SM CLR 24/23 A3003 880 93 2100 290/04 RMK AO2 T02390228
04850KAOH AOH20160723073010707/23/16 07:30:31  5-MIN KAOH 231230Z AUTO 26003KT 8SM CLR 24/23 A3002 880 93 2200 270/03 RMK AO2 T02390228
04850KAOH AOH20160723073510707/23/16 07:35:31  5-MIN KAOH 231235Z AUTO 28003KT 8SM CLR 24/23 A3002 880 93 2200 280/03 RMK AO2 T02390228
04850KAOH AOH20160723074010707/23/16 07:40:31  5-MIN KAOH 231240Z AUTO 26003KT 8SM CLR 24/23 A3002 880 93 2200 270/03 RMK AO2 T02390228
04850KAOH AOH20160723074510707/23/16 07:45:31  5-MIN KAOH 231245Z AUTO 26003KT 8SM CLR 24/23 A3002 880 93 2200 270/03 RMK AO2 T02440233
04850KAOH AOH20160723075011407/23/16 07:50:31  5-MIN KAOH 231250Z AUTO 00000KT 8SM CLR 24/23 A3002 880 93 2200 000/00 RMK AO2 SLP157 T02440233
04850KAOH AOH20160723075510707/23/16 07:55:31  5-MIN KAOH 231255Z AUTO 00000KT 8SM CLR 24/23 A3003 880 93 2200 000/00 RMK AO2 T02440233
04850KAOH AOH20160723080010707/23/16 08:00:31  5-MIN KAOH 231300Z AUTO 00000KT 9SM CLR 25/23 A3003 880 90 2300 000/00 RMK AO2 T02500233
04850KAOH AOH20160723080510707/23/16 08:05:31  5-MIN KAOH 231305Z AUTO VRB03KT 9SM CLR 25/23 A3003 880 90 2300 VRB/03 RMK AO2 T02500233
04850KAOH AOH20160723081010707/23/16 08:10:31  5-MIN KAOH 231310Z AUTO 00000KT 9SM CLR 26/24 A3003 870 90 2300 000/00 RMK AO2 T02560239
04850KAOH AOH20160723081510707/23/16 08:15:31  5-MIN KAOH 231315Z AUTO 27003KT 9SM CLR 26/24 A3004 870 90 2300 280/03 RMK AO2 T02560239
04850KAOH AOH20160723082010807/23/16 08:20:31  5-MIN KAOH 231320Z AUTO 00000KT 10SM CLR 26/23 A3004 870 87 2300 000/00 RMK AO2 T02560233
04850KAOH AOH20160723082510807/23/16 08:25:31  5-MIN KAOH 231325Z AUTO 00000KT 10SM CLR 26/23 A3003 870 87 2300 000/00 RMK AO2 T02560233
04850KAOH AOH20160723083010807/23/16 08:30:31  5-MIN KAOH 231330Z AUTO 00000KT 10SM CLR 26/23 A3003 870 87 2300 000/00 RMK AO2 T02560233
04850KAOH AOH20160723083510807/23/16 08:35:31  5-MIN KAOH 231335Z AUTO 00000KT 10SM CLR 26/24 A3003 870 87 2400 000/00 RMK AO2 T02610239
04850KAOH AOH20160723084010807/23/16 08:40:31  5-MIN KAOH 231340Z AUTO 00000KT 10SM CLR 26/23 A3003 870 84 2400 000/00 RMK AO2 T02610233
04850KAOH AOH20160723084510807/23/16 08:45:31  5-MIN KAOH 231345Z AUTO 00000KT 10SM CLR 26/23 A3003 870 84 2400 000/00 RMK AO2 T02610233
04850KAOH AOH20160723085011507/23/16 08:50:31  5-MIN KAOH 231350Z AUTO 00000KT 10SM CLR 26/23 A3003 870 84 2400 000/00 RMK AO2 SLP161 T02610233
04850KAOH AOH20160723085510807/23/16 08:55:31  5-MIN KAOH 231355Z AUTO 29003KT 10SM CLR 27/23 A3003 870 82 2500 290/03 RMK AO2 T02670233
04850KAOH AOH20160723090010807/23/16 09:00:31  5-MIN KAOH 231400Z AUTO 00000KT 10SM CLR 27/23 A3003 870 82 2500 000/00 RMK AO2 T02670233
04850KAOH AOH20160723090510807/23/16 09:05:31  5-MIN KAOH 231405Z AUTO 00000KT 10SM CLR 27/24 A3003 880 82 2500 000/00 RMK AO2 T02720239
04850KAOH AOH20160723091010807/23/16 09:10:31  5-MIN KAOH 231410Z AUTO 00000KT 10SM CLR 27/24 A3003 880 82 2500 000/00 RMK AO2 T02720239
04850KAOH AOH20160723091510807/23/16 09:15:31  5-MIN KAOH 231415Z AUTO 00000KT 10SM CLR 27/23 A3003 880 79 2500 000/00 RMK AO2 T02720233
04850KAOH AOH20160723092010807/23/16 09:20:31  5-MIN KAOH 231420Z AUTO 00000KT 10SM CLR 27/23 A3003 880 79 2500 000/00 RMK AO2 T02720233
04850KAOH AOH20160723092511107/23/16 09:25:31  5-MIN KAOH 231425Z AUTO 28003KT 10SM FEW028 27/23 A3003 880 82 2500 280/03 RMK AO2 T02670233
04850KAOH AOH20160723093011107/23/16 09:30:31  5-MIN KAOH 231430Z AUTO 24003KT 10SM FEW028 27/23 A3003 880 79 2500 250/03 RMK AO2 T02720233
04850KAOH AOH20160723093511807/23/16 09:35:31  5-MIN KAOH 231435Z AUTO 00000KT 10SM FEW024 SCT030 28/23 A3002 880 76 2600 000/00 RMK AO2 T02780233
04850KAOH AOH20160723094011807/23/16 09:40:31  5-MIN KAOH 231440Z AUTO 00000KT 10SM SCT021 BKN030 28/24 A3003 880 76 2600 000/00 RMK AO2 T02830239
04850KAOH AOH20160723094511807/23/16 09:45:31  5-MIN KAOH 231445Z AUTO 26005KT 10SM BKN021 BKN030 27/23 A3003 880 79 2500 260/05 RMK AO2 T02720233
04850KAOH AOH20160723095010807/23/16 09:50:31  5-MIN KAOH 231450Z AUTO VRB03KT 10SM BKN021 BKN029 27/23 A3002 880 79 2500 VRB/03 RMK AO2
04850KAOH AOH20160723095511807/23/16 09:55:31  5-MIN KAOH 231455Z AUTO 00000KT 10SM SCT021 BKN029 28/23 A3002 890 76 2600 000/00 RMK AO2 T02780233
04850KAOH AOH20160723100011807/23/16 10:00:31  5-MIN KAOH 231500Z AUTO VRB03KT 10SM SCT021 SCT029 28/23 A3001 890 74 2700 VRB/03 RMK AO2 T02830233
04850KAOH AOH20160723100511107/23/16 10:05:31  5-MIN KAOH 231505Z AUTO 21004KT 10SM SCT021 28/23 A3001 890 76 2600 210/04 RMK AO2 T02780233
04850KAOH AOH20160723101011107/23/16 10:10:31  5-MIN KAOH 231510Z AUTO 19004KT 10SM FEW021 28/23 A3001 890 74 2600 200/04 RMK AO2 T02780228
04850KAOH AOH20160723101511107/23/16 10:15:31  5-MIN KAOH 231515Z AUTO 15003KT 10SM FEW020 28/23 A3002 890 71 2700 160/03 RMK AO2 T02830228
04850KAOH AOH20160723102011107/23/16 10:20:31  5-MIN KAOH 231520Z AUTO 20004KT 10SM FEW025 29/23 A3001 890 71 2700 200/04 RMK AO2 T02890233
04850KAOH AOH20160723102511107/23/16 10:25:31  5-MIN KAOH 231525Z AUTO 18004KT 10SM SCT025 29/23 A3001 890 71 2700 190/04 RMK AO2 T02890233
04850KAOH AOH20160723103011107/23/16 10:30:31  5-MIN KAOH 231530Z AUTO 23005KT 10SM FEW025 28/23 A3001 900 71 2700 240/05 RMK AO2 T02830228
04850KAOH AOH20160723103511107/23/16 10:35:31  5-MIN KAOH 231535Z AUTO 22005KT 10SM SCT027 28/22 A3001 900 71 2600 230/05 RMK AO2 T02780222
04850KAOH AOH20160723104011107/23/16 10:40:31  5-MIN KAOH 231540Z AUTO 00000KT 10SM SCT027 28/23 A3001 890 71 2700 000/00 RMK AO2 T02830228
04850KAOH AOH20160723104511107/23/16 10:45:31  5-MIN KAOH 231545Z AUTO 21006KT 10SM SCT027 29/23 A3001 890 69 2700 220/06 RMK AO2 T02890228
04850KAOH AOH20160723105012507/23/16 10:50:31  5-MIN KAOH 231550Z AUTO VRB06KT 10SM SCT027 BKN031 28/23 A3001 900 71 2700 VRB/06 RMK AO2 SLP153 T02830228
04850KAOH AOH20160723105511107/23/16 10:55:31  5-MIN KAOH 231555Z AUTO 23007KT 10SM BKN029 29/23 A3001 890 69 2700 230/07 RMK AO2 T02890228
04850KAOH AOH20160723110011107/23/16 11:00:31  5-MIN KAOH 231600Z AUTO 21004KT 10SM SCT029 29/23 A3001 890 67 2800 220/04 RMK AO2 T02940228
04850KAOH AOH20160723110510107/23/16 11:05:31  5-MIN KAOH 231605Z AUTO 10SM FEW029 29/23 A3002 890 67 2800 M /M RMK AO2 T02940228
04850KAOH AOH20160723111011107/23/16 11:10:31  5-MIN KAOH 231610Z AUTO 20005KT 10SM SCT029 29/23 A3002 890 69 2800 210/05 RMK AO2 T02940233
04850KAOH AOH20160723111511107/23/16 11:15:31  5-MIN KAOH 231615Z AUTO 20005KT 10SM BKN031 29/23 A3002 890 69 2800 210/05 RMK AO2 T02940233
04850KAOH AOH20160723112011107/23/16 11:20:31  5-MIN KAOH 231620Z AUTO 27008KT 10SM BKN031 29/23 A3002 890 69 2800 270/08 RMK AO2 T02940233
04850KAOH AOH20160723112511107/23/16 11:25:31  5-MIN KAOH 231625Z AUTO 22006KT 10SM BKN033 30/23 A3002 890 65 2800 230/06 RMK AO2 T03000228
04850KAOH AOH20160723113011107/23/16 11:30:31  5-MIN KAOH 231630Z AUTO 21005KT 10SM BKN033 30/23 A3002 890 65 2800 220/05 RMK AO2 T03000228
04850KAOH AOH20160723113511107/23/16 11:35:31  5-MIN KAOH 231635Z AUTO 25004KT 10SM BKN033 30/22 A3002 890 62 2800 250/04 RMK AO2 T03000222
04850KAOH AOH20160723114011107/23/16 11:40:31  5-MIN KAOH 231640Z AUTO 28007KT 10SM OVC033 29/23 A3003 880 67 2800 290/07 RMK AO2 T02940228
04850KAOH AOH20160723114511107/23/16 11:45:31  5-MIN KAOH 231645Z AUTO 29004KT 10SM OVC033 29/23 A3003 880 69 2700 300/04 RMK AO2 T02890228
04850KAOH AOH20160723115012507/23/16 11:50:31  5-MIN KAOH 231650Z AUTO 25007KT 10SM BKN033 OVC043 29/23 A3003 880 69 2700 260/07 RMK AO2 SLP160 T02890228
04850KAOH AOH20160723115511807/23/16 11:55:31  5-MIN KAOH 231655Z AUTO 26007KT 10SM BKN033 BKN043 29/23 A3003 880 69 2800 270/07 RMK AO2 T02940233
04850KAOH AOH20160723120011807/23/16 12:00:31  5-MIN KAOH 231700Z AUTO 25005KT 10SM SCT033 BKN043 30/23 A3003 880 65 2800 250/05 RMK AO2 T03000228
04850KAOH AOH20160723120511807/23/16 12:05:31  5-MIN KAOH 231705Z AUTO 24003KT 10SM FEW033 SCT043 30/22 A3003 880 62 2800 240/03 RMK AO2 T03000222
04850KAOH AOH20160723121011807/23/16 12:10:31  5-MIN KAOH 231710Z AUTO VRB05KT 10SM FEW035 SCT043 31/22 A3002 880 60 2900 VRB/05 RMK AO2 T03060222
04850KAOH AOH20160723121511107/23/16 12:15:31  5-MIN KAOH 231715Z AUTO VRB06KT 10SM SCT040 31/23 A3002 880 63 3000 VRB/06 RMK AO2 T03110233
04850KAOH AOH20160723122011107/23/16 12:20:31  5-MIN KAOH 231720Z AUTO 30006KT 10SM FEW040 30/22 A3003 880 62 2800 310/06 RMK AO2 T03000222
04850KAOH AOH20160723122512707/23/16 12:25:31  5-MIN KAOH 231725Z AUTO 27007KT 230V290 10SM FEW038 31/22 A3003 880 60 2900 270/07 240V300 RMK AO2 T03060222
04850KAOH AOH20160723123011107/23/16 12:30:31  5-MIN KAOH 231730Z AUTO 24005KT 10SM FEW038 31/22 A3003 880 58 3000 250/05 RMK AO2 T03110222
04850KAOH AOH20160723123512707/23/16 12:35:31  5-MIN KAOH 231735Z AUTO 27007KT 230V300 10SM SCT038 31/22 A3003 880 58 2900 280/07 240V310 RMK AO2 T03060217
04850KAOH AOH20160723124011807/23/16 12:40:31  5-MIN KAOH 231740Z AUTO 33008KT 10SM FEW038 SCT048 31/23 A3003 880 62 2900 330/08 RMK AO2 T03060228
04850KAOH AOH20160723124511807/23/16 12:45:31  5-MIN KAOH 231745Z AUTO 31006KT 10SM SCT040 SCT048 29/23 A3002 880 67 2800 320/06 RMK AO2 T02940228
04850KAOH AOH20160723125014307/23/16 12:50:31  5-MIN KAOH 231750Z AUTO 32004KT 10SM SCT040 BKN050 30/23 A3002 890 65 2800 320/04 RMK AO2 SLP156 T03000228 10311 20228 58001
04850KAOH AOH20160723125511807/23/16 12:55:31  5-MIN KAOH 231755Z AUTO 31006KT 10SM FEW040 SCT050 31/23 A3002 890 62 2900 320/06 RMK AO2 T03060228
04850KAOH AOH20160723130011807/23/16 13:00:31  5-MIN KAOH 231800Z AUTO 29006KT 10SM FEW040 SCT049 31/23 A3002 890 63 3000 300/06 RMK AO2 T03110233
04850KAOH AOH20160723130511807/23/16 13:05:31  5-MIN KAOH 231805Z AUTO 30006KT 10SM FEW040 SCT049 31/23 A3001 890 62 2900 300/06 RMK AO2 T03060228
04850KAOH AOH20160723131011807/23/16 13:10:31  5-MIN KAOH 231810Z AUTO 30006KT 10SM FEW040 FEW049 31/23 A3001 890 62 2900 310/06 RMK AO2 T03060228
04850KAOH AOH20160723131511107/23/16 13:15:31  5-MIN KAOH 231815Z AUTO 00000KT 10SM FEW050 30/22 A3001 900 60 2900 000/00 RMK AO2 T03000217
04850KAOH AOH20160723132011107/23/16 13:20:31  5-MIN KAOH 231820Z AUTO 00000KT 10SM FEW050 31/23 A3001 900 65 2900 000/00 RMK AO2 T03060233
04850KAOH AOH20160723132510807/23/16 13:25:31  5-MIN KAOH 231825Z AUTO 25005KT 10SM CLR 31/23 A3000 900 60 3000 250/05 RMK AO2 T03110228
04850KAOH AOH20160723133011107/23/16 13:30:31  5-MIN KAOH 231830Z AUTO VRB04KT 10SM FEW050 31/22 A3000 900 58 2900 VRB/04 RMK AO2 T03060217
04850KAOH AOH20160723133510107/23/16 13:35:31  5-MIN KAOH 231835Z AUTO 10SM FEW050 32/22 A3000 900 56 3000 M /M RMK AO2 T03170222
04850KAOH AOH20160723134011107/23/16 13:40:31  5-MIN KAOH 231840Z AUTO VRB05KT 10SM FEW050 31/22 A3001 900 58 3000 VRB/05 RMK AO2 T03110222
04850KAOH AOH20160723134511107/23/16 13:45:31  5-MIN KAOH 231845Z AUTO 27004KT 10SM FEW048 31/23 A3001 900 60 3000 280/04 RMK AO2 T03110228
04850KAOH AOH20160723135011507/23/16 13:50:31  5-MIN KAOH 231850Z AUTO 10SM FEW041 FEW048 31/22 A3000 900 56 3000 M /M RMK AO2 SLP151 T03110217
04850KAOH AOH20160723135511807/23/16 13:55:31  5-MIN KAOH 231855Z AUTO VRB05KT 10SM FEW041 FEW048 32/22 A3000 900 56 3000 VRB/05 RMK AO2 T03170222
04850KAOH AOH20160723140011107/23/16 14:00:31  5-MIN KAOH 231900Z AUTO 23006KT 10SM FEW049 32/23 A3000 900 58 3000 240/06 RMK AO2 T03170228
04850KAOH AOH20160723140511107/23/16 14:05:31  5-MIN KAOH 231905Z AUTO VRB04KT 10SM FEW049 32/23 A3000 910 58 3000 VRB/04 RMK AO2 T03170228
04850KAOH AOH20160723141010807/23/16 14:10:31  5-MIN KAOH 231910Z AUTO VRB03KT 10SM CLR 32/23 A3000 910 58 3000 VRB/03 RMK AO2 T03170228
04850KAOH AOH20160723141511807/23/16 14:15:31  5-MIN KAOH 231915Z AUTO 25006KT 10SM FEW041 FEW050 32/22 A3000 910 56 3100 250/06 RMK AO2 T03170222
04850KAOH AOH20160723142011107/23/16 14:20:31  5-MIN KAOH 231920Z AUTO VRB03KT 10SM SCT050 32/22 A2999 910 56 3100 VRB/03 RMK AO2 T03170222
04850KAOH AOH20160723142511107/23/16 14:25:31  5-MIN KAOH 231925Z AUTO 00000KT 10SM BKN050 32/22 A2999 910 56 3100 000/00 RMK AO2 T03170222
04850KAOH AOH20160723143011107/23/16 14:30:31  5-MIN KAOH 231930Z AUTO 26005KT 10SM BKN049 32/22 A2999 910 56 3100 260/05 RMK AO2 T03170222
04850KAOH AOH20160723143511107/23/16 14:35:31  5-MIN KAOH 231935Z AUTO 26004KT 10SM SCT049 32/22 A2999 910 56 3100 270/04 RMK AO2 T03170222
04850KAOH AOH20160723144011107/23/16 14:40:31  5-MIN KAOH 231940Z AUTO VRB06KT 10SM SCT049 32/23 A2999 910 58 3100 VRB/06 RMK AO2 T03170228
04850KAOH AOH20160723144511107/23/16 14:45:31  5-MIN KAOH 231945Z AUTO 31005KT 10SM SCT049 32/23 A2999 910 58 3100 320/05 RMK AO2 T03170228
04850KAOH AOH20160723145011807/23/16 14:50:31  5-MIN KAOH 231950Z AUTO 31004KT 10SM SCT048 31/23 A2999 910 62 2900 310/04 RMK AO2 SLP148 T03060228
04850KAOH AOH20160723145511807/23/16 14:55:31  5-MIN KAOH 231955Z AUTO VRB03KT 10SM SCT043 SCT050 31/23 A2999 910 60 3000 VRB/03 RMK AO2 T03110228
04850KAOH AOH20160723150011807/23/16 15:00:31  5-MIN KAOH 232000Z AUTO VRB03KT 10SM SCT043 BKN050 31/22 A2999 910 58 3000 VRB/03 RMK AO2 T03110222
04850KAOH AOH20160723150511807/23/16 15:05:31  5-MIN KAOH 232005Z AUTO 30004KT 10SM SCT043 BKN050 31/23 A3000 910 60 3000 310/04 RMK AO2 T03110228
04850KAOH AOH20160723151011807/23/16 15:10:31  5-MIN KAOH 232010Z AUTO 28004KT 10SM BKN043 BKN050 31/23 A3000 910 60 3000 280/04 RMK AO2 T03110228
04850KAOH AOH20160723151511807/23/16 15:15:31  5-MIN KAOH 232015Z AUTO 31005KT 10SM BKN045 BKN055 31/22 A3000 910 58 3000 320/05 RMK AO2 T03110222
04850KAOH AOH20160723152011807/23/16 15:20:31  5-MIN KAOH 232020Z AUTO 30004KT 10SM SCT043 BKN055 31/23 A3000 910 62 2900 310/04 RMK AO2 T03060228
04850KAOH AOH20160723152511807/23/16 15:25:31  5-MIN KAOH 232025Z AUTO 28006KT 10SM SCT043 OVC050 31/23 A3000 910 62 2900 290/06 RMK AO2 T03060228
04850KAOH AOH20160723153011807/23/16 15:30:31  5-MIN KAOH 232030Z AUTO 27005KT 10SM BKN045 OVC055 31/23 A3000 910 65 2900 270/05 RMK AO2 T03060233
04850KAOH AOH20160723153511107/23/16 15:35:31  5-MIN KAOH 232035Z AUTO 29003KT 10SM OVC050 31/23 A3000 910 62 2900 300/03 RMK AO2 T03060228
04850KAOH AOH20160723154011807/23/16 15:40:31  5-MIN KAOH 232040Z AUTO 30003KT 10SM SCT047 OVC055 31/23 A3000 910 60 3000 300/03 RMK AO2 T03110228
04850KAOH AOH20160723154511807/23/16 15:45:31  5-MIN KAOH 232045Z AUTO 00000KT 10SM SCT047 BKN055 31/22 A2999 910 58 3000 000/00 RMK AO2 T03110222
04850KAOH AOH20160723155013107/23/16 15:50:31  5-MIN KAOH 232050Z AUTO 00000KT 10SM BKN047 BKN055 32/22 A2999 910 56 3100 000/00 RMK AO2 SLP147 T03170222 57001
04850KAOH AOH20160723155511807/23/16 15:55:31  5-MIN KAOH 232055Z AUTO 00000KT 10SM BKN049 BKN060 32/23 A2999 920 57 3100 000/00 RMK AO2 T03220228
04850KAOH AOH20160723160011807/23/16 16:00:31  5-MIN KAOH 232100Z AUTO VRB03KT 10SM BKN047 BKN060 32/23 A2999 920 58 3100 VRB/03 RMK AO2 T03170228
04850KAOH AOH20160723160511807/23/16 16:05:31  5-MIN KAOH 232105Z AUTO 07003KT 10SM BKN047 BKN060 33/23 A2998 920 55 3200 080/03 RMK AO2 T03280228
04850KAOH AOH20160723161011807/23/16 16:10:31  5-MIN KAOH 232110Z AUTO 05003KT 10SM BKN047 BKN055 32/22 A2998 930 55 3100 050/03 RMK AO2 T03220222
04850KAOH AOH20160723161511807/23/16 16:15:31  5-MIN KAOH 232115Z AUTO 04005KT 10SM BKN047 BKN055 32/23 A2997 930 57 3100 050/05 RMK AO2 T03220228
04850KAOH AOH20160723162011807/23/16 16:20:31  5-MIN KAOH 232120Z AUTO 04004KT 10SM SCT047 SCT055 32/23 A2997 930 57 3100 040/04 RMK AO2 T03220228
04850KAOH AOH20160723162511107/23/16 16:25:31  5-MIN KAOH 232125Z AUTO 03004KT 10SM SCT047 32/23 A2997 930 57 3100 040/04 RMK AO2 T03220228
04850KAOH AOH20160723163011107/23/16 16:30:31  5-MIN KAOH 232130Z AUTO 03003KT 10SM SCT047 32/22 A2997 930 55 3100 030/03 RMK AO2 T03220222
04850KAOH AOH20160723163511107/23/16 16:35:31  5-MIN KAOH 232135Z AUTO 00000KT 10SM SCT047 32/22 A2997 930 55 3100 000/00 RMK AO2 T03170217
04850KAOH AOH20160723164011107/23/16 16:40:31  5-MIN KAOH 232140Z AUTO 00000KT 10SM FEW047 32/22 A2997 930 56 3100 000/00 RMK AO2 T03170222
04850KAOH AOH20160723164511107/23/16 16:45:31  5-MIN KAOH 232145Z AUTO 04003KT 10SM FEW050 32/22 A2997 930 56 3100 040/03 RMK AO2 T03170222
04850KAOH AOH20160723165011807/23/16 16:50:31  5-MIN KAOH 232150Z AUTO 00000KT 10SM FEW050 32/22 A2997 930 55 3100 000/00 RMK AO2 SLP140 T03170217
04850KAOH AOH20160723165511107/23/16 16:55:31  5-MIN KAOH 232155Z AUTO 04004KT 10SM FEW048 32/22 A2997 930 56 3100 050/04 RMK AO2 T03170222
04850KAOH AOH20160723170011107/23/16 17:00:31  5-MIN KAOH 232200Z AUTO 05004KT 10SM FEW055 31/23 A2997 930 60 3000 060/04 RMK AO2 T03110228
04850KAOH AOH20160723170511107/23/16 17:05:31  5-MIN KAOH 232205Z AUTO 02004KT 10SM FEW055 31/23 A2997 930 62 3000 030/04 RMK AO2 T03060228
04850KAOH AOH20160723171011107/23/16 17:10:31  5-MIN KAOH 232210Z AUTO 04003KT 10SM FEW055 31/23 A2997 930 63 3000 040/03 RMK AO2 T03110233
04850KAOH AOH20160723171511107/23/16 17:15:31  5-MIN KAOH 232215Z AUTO 03004KT 10SM SCT055 31/23 A2997 930 60 3000 030/04 RMK AO2 T03110228
04850KAOH AOH20160723172011107/23/16 17:20:31  5-MIN KAOH 232220Z AUTO 05004KT 10SM SCT055 31/23 A2996 940 65 3000 050/04 RMK AO2 T03060233
04850KAOH AOH20160723172511107/23/16 17:25:31  5-MIN KAOH 232225Z AUTO 05003KT 10SM BKN055 31/24 A2996 940 67 3000 050/03 RMK AO2 T03060239
04850KAOH AOH20160723173011107/23/16 17:30:31  5-MIN KAOH 232230Z AUTO 05003KT 10SM BKN055 31/23 A2996 940 65 3000 050/03 RMK AO2 T03060233
04850KAOH AOH20160723173511107/23/16 17:35:31  5-MIN KAOH 232235Z AUTO 04003KT 10SM SCT055 31/23 A2996 940 65 3000 050/03 RMK AO2 T03060233
04850KAOH AOH20160723174011107/23/16 17:40:31  5-MIN KAOH 232240Z AUTO 04004KT 10SM BKN055 30/24 A2996 940 69 2900 050/04 RMK AO2 T03000239
04850KAOH AOH20160723174511107/23/16 17:45:31  5-MIN KAOH 232245Z AUTO 05003KT 10SM BKN055 30/24 A2996 940 69 2900 050/03 RMK AO2 T03000239
04850KAOH AOH20160723175012507/23/16 17:50:31  5-MIN KAOH 232250Z AUTO 04003KT 10SM FEW049 SCT060 30/24 A2996 940 69 2900 050/03 RMK AO2 SLP137 T03000239
04850KAOH AOH20160723175511107/23/16 17:55:31  5-MIN KAOH 232255Z AUTO 04003KT 10SM SCT060 30/24 A2996 940 69 2900 050/03 RMK AO2 T03000239
04850KAOH AOH20160723180011807/23/16 18:00:31  5-MIN KAOH 232300Z AUTO 05003KT 10SM SCT050 BKN060 30/24 A2995 950 72 2900 060/03 RMK AO2 T03000244
04850KAOH AOH20160723180511807/23/16 18:05:31  5-MIN KAOH 232305Z AUTO 00000KT 10SM BKN047 BKN055 30/24 A2995 950 69 2900 000/00 RMK AO2 T03000239
04850KAOH AOH20160723181011807/23/16 18:10:31  5-MIN KAOH 232310Z AUTO 08003KT 10SM BKN047 BKN060 30/24 A2995 950 69 2900 090/03 RMK AO2 T03000239
04850KAOH AOH20160723181511807/23/16 18:15:31  5-MIN KAOH 232315Z AUTO 09003KT 10SM BKN049 BKN060 30/24 A2995 950 72 2900 090/03 RMK AO2 T03000244
04850KAOH AOH20160723182011807/23/16 18:20:31  5-MIN KAOH 232320Z AUTO 08003KT 10SM BKN047 OVC060 30/24 A2996 940 69 2900 080/03 RMK AO2 T03000239
04850KAOH AOH20160723182511107/23/16 18:25:31  5-MIN KAOH 232325Z AUTO 06003KT 10SM OVC049 30/24 A2996 940 72 2900 070/03 RMK AO2 T03000244
04850KAOH AOH20160723183011807/23/16 18:30:31  5-MIN KAOH 232330Z AUTO 04003KT 10SM BKN047 OVC055 30/24 A2996 940 72 2900 050/03 RMK AO2 T03000244
04850KAOH AOH20160723183511807/23/16 18:35:31  5-MIN KAOH 232335Z AUTO 05003KT 10SM BKN047 OVC055 29/24 A2996 940 74 2800 060/03 RMK AO2 T02940244
04850KAOH AOH20160723184011807/23/16 18:40:31  5-MIN KAOH 232340Z AUTO 00000KT 10SM SCT047 BKN060 30/24 A2996 940 72 2900 000/00 RMK AO2 T03000244
04850KAOH AOH20160723184511807/23/16 18:45:31  5-MIN KAOH 232345Z AUTO 05003KT 10SM FEW047 BKN055 30/24 A2996 940 72 2900 050/03 RMK AO2 T03000244
04850KAOH AOH20160723185014307/23/16 18:50:31  5-MIN KAOH 232350Z AUTO 06003KT 10SM FEW047 SCT055 30/24 A2996 940 69 2900 060/03 RMK AO2 SLP136 T03000239 10328 20294 56009
04850KAOH AOH20160723185511807/23/16 18:55:31  5-MIN KAOH 232355Z AUTO 07003KT 10SM FEW045 SCT060 31/24 A2996 940 67 3000 080/03 RMK AO2 T03060239
04850KAOH AOH20160723190011807/23/16 19:00:31  5-MIN KAOH 240000Z AUTO 00000KT 10SM FEW045 FEW060 31/24 A2996 940 67 3000 000/00 RMK AO2 T03060239
04850KAOH AOH20160723190511107/23/16 19:05:31  5-MIN KAOH 240005Z AUTO 00000KT 10SM FEW045 30/24 A2996 940 69 2900 000/00 RMK AO2 T03000239
04850KAOH AOH20160723191011107/23/16 19:10:31  5-MIN KAOH 240010Z AUTO 07003KT 10SM FEW048 29/24 A2996 940 74 2800 080/03 RMK AO2 T02940244
04850KAOH AOH20160723191511107/23/16 19:15:31  5-MIN KAOH 240015Z AUTO 07003KT 10SM SCT048 29/25 A2996 940 76 2800 080/03 RMK AO2 T02940250
04850KAOH AOH20160723192011107/23/16 19:20:31  5-MIN KAOH 240020Z AUTO 08003KT 10SM SCT048 29/24 A2997 930 76 2800 090/03 RMK AO2 T02890244
04850KAOH AOH20160723192511107/23/16 19:25:31  5-MIN KAOH 240025Z AUTO 09003KT 10SM FEW050 29/24 A2997 930 76 2800 090/03 RMK AO2 T02890244
04850KAOH AOH20160723193011107/23/16 19:30:31  5-MIN KAOH 240030Z AUTO 08003KT 10SM SCT050 28/24 A2997 930 79 2700 090/03 RMK AO2 T02830244
04850KAOH AOH20160723193511107/23/16 19:35:31  5-MIN KAOH 240035Z AUTO 07003KT 10SM BKN055 28/24 A2997 930 79 2700 080/03 RMK AO2 T02830244
04850KAOH AOH20160723194011807/23/16 19:40:31  5-MIN KAOH 240040Z AUTO 06003KT 10SM FEW047 BKN060 28/24 A2997 930 79 2700 060/03 RMK AO2 T02830244
04850KAOH AOH20160723194511107/23/16 19:45:31  5-MIN KAOH 240045Z AUTO 00000KT 10SM BKN060 28/25 A2997 930 84 2600 000/00 RMK AO2 T02780250
04850KAOH AOH20160723195011807/23/16 19:50:31  5-MIN KAOH 240050Z AUTO 00000KT 10SM BKN060 27/24 A2997 930 84 2600 000/00 RMK AO2 SLP140 T02720244
04850KAOH AOH20160723195511107/23/16 19:55:31  5-MIN KAOH 240055Z AUTO 00000KT 10SM SCT060 27/24 A2997 930 84 2600 000/00 RMK AO2 T02720244
04850KAOH AOH20160723200011107/23/16 20:00:31  5-MIN KAOH 240100Z AUTO 00000KT 10SM SCT060 26/24 A2997 930 87 2500 000/00 RMK AO2 T02610239
04850KAOH AOH20160723200511107/23/16 20:05:31  5-MIN KAOH 240105Z AUTO 12003KT 10SM FEW060 27/24 A2997 930 82 2600 130/03 RMK AO2 T02720239
04850KAOH AOH20160723201011107/23/16 20:10:31  5-MIN KAOH 240110Z AUTO 00000KT 10SM FEW060 27/23 A2998 930 79 2600 000/00 RMK AO2 T02720233
04850KAOH AOH20160723201510807/23/16 20:15:31  5-MIN KAOH 240115Z AUTO 00000KT 10SM CLR 28/23 A2998 920 76 2600 000/00 RMK AO2 T02780233
04850KAOH AOH20160723202010807/23/16 20:20:31  5-MIN KAOH 240120Z AUTO 00000KT 10SM CLR 28/23 A2998 920 74 2600 000/00 RMK AO2 T02780228
04850KAOH AOH20160723202510807/23/16 20:25:31  5-MIN KAOH 240125Z AUTO 00000KT 10SM CLR 28/23 A2998 920 74 2600 000/00 RMK AO2 T02780228
04850KAOH AOH20160723203010807/23/16 20:30:31  5-MIN KAOH 240130Z AUTO 00000KT 10SM CLR 27/23 A2998 920 82 2500 000/00 RMK AO2 T02670233
04850KAOH AOH20160723203510807/23/16 20:35:31  5-MIN KAOH 240135Z AUTO 00000KT 10SM CLR 26/23 A2999 920 84 2400 000/00 RMK AO2 T02610233
04850KAOH AOH20160723204010807/23/16 20:40:31  5-MIN KAOH 240140Z AUTO 00000KT 10SM CLR 27/23 A2999 910 79 2500 000/00 RMK AO2 T02670228
04850KAOH AOH20160723204510807/23/16 20:45:31  5-MIN KAOH 240145Z AUTO 24005KT 10SM CLR 26/23 A3000 910 87 2400 240/05 RMK AO2 T02560233
04850KAOH AOH20160723205011507/23/16 20:50:31  5-MIN KAOH 240150Z AUTO 22003KT 10SM CLR 27/23 A3000 910 82 2500 220/03 RMK AO2 SLP148 T02670233
04850KAOH AOH20160723205510807/23/16 20:55:31  5-MIN KAOH 240155Z AUTO 00000KT 10SM CLR 27/23 A2999 910 79 2600 000/00 RMK AO2 T02720233
04850KAOH AOH20160723210010807/23/16 21:00:31  5-MIN KAOH 240200Z AUTO 00000KT 10SM CLR 26/23 A2999 910 84 2400 000/00 RMK AO2 T02610233
04850KAOH AOH20160723210510807/23/16 21:05:31  5-MIN KAOH 240205Z AUTO 00000KT 10SM CLR 26/23 A3000 910 84 2400 000/00 RMK AO2 T02610233
04850KAOH AOH20160723211010807/23/16 21:10:31  5-MIN KAOH 240210Z AUTO 19003KT 10SM CLR 26/24 A3000 900 87 2400 190/03 RMK AO2 T02610239
04850KAOH AOH20160723211510807/23/16 21:15:31  5-MIN KAOH 240215Z AUTO 18003KT 10SM CLR 26/24 A3000 900 87 2400 190/03 RMK AO2 T02610239
04850KAOH AOH20160723212010807/23/16 21:20:31  5-MIN KAOH 240220Z AUTO 18003KT 10SM CLR 26/23 A3000 900 87 2400 180/03 RMK AO2 T02560233
04850KAOH AOH20160723212510807/23/16 21:25:31  5-MIN KAOH 240225Z AUTO 19004KT 10SM CLR 26/23 A3001 900 87 2400 190/04 RMK AO2 T02560233
04850KAOH AOH20160723213010807/23/16 21:30:31  5-MIN KAOH 240230Z AUTO 20003KT 10SM CLR 27/23 A3001 900 79 2500 210/03 RMK AO2 T02720233
04850KAOH AOH20160723213510807/23/16 21:35:31  5-MIN KAOH 240235Z AUTO 19003KT 10SM CLR 27/23 A3001 900 79 2500 200/03 RMK AO2 T02720233
04850KAOH AOH20160723214010807/23/16 21:40:31  5-MIN KAOH 240240Z AUTO 19003KT 10SM CLR 27/23 A3001 900 82 2500 200/03 RMK AO2 T02670233
04850KAOH AOH20160723214510807/23/16 21:45:31  5-MIN KAOH 240245Z AUTO 19003KT 10SM CLR 27/23 A3001 900 79 2500 200/03 RMK AO2 T02670228
04850KAOH AOH20160723215012107/23/16 21:50:31  5-MIN KAOH 240250Z AUTO 00000KT 10SM CLR 26/23 A3001 900 84 2400 000/00 RMK AO2 SLP153 T02610233 55009
04850KAOH AOH20160723215510807/23/16 21:55:31  5-MIN KAOH 240255Z AUTO 00000KT 10SM CLR 26/23 A3001 900 84 2400 000/00 RMK AO2 T02610233
04850KAOH AOH20160723220010807/23/16 22:00:31  5-MIN KAOH 240300Z AUTO 00000KT 10SM CLR 26/23 A3001 890 87 2400 000/00 RMK AO2 T02560233
04850KAOH AOH20160723220510807/23/16 22:05:31  5-MIN KAOH 240305Z AUTO 00000KT 10SM CLR 26/23 A3001 890 87 2400 000/00 RMK AO2 T02560233
04850KAOH AOH20160723221010807/23/16 22:10:31  5-MIN KAOH 240310Z AUTO 00000KT 10SM CLR 26/23 A3001 890 81 2400 000/00 RMK AO2 T02610228
04850KAOH AOH20160723221510807/23/16 22:15:31  5-MIN KAOH 240315Z AUTO 00000KT 10SM CLR 26/23 A3001 890 84 2400 000/00 RMK AO2 T02560228
04850KAOH AOH20160723222010807/23/16 22:20:31  5-MIN KAOH 240320Z AUTO 15003KT 10SM CLR 26/23 A3001 890 87 2400 150/03 RMK AO2 T02560233
04850KAOH AOH20160723222510807/23/16 22:25:31  5-MIN KAOH 240325Z AUTO 17003KT 10SM CLR 26/23 A3001 890 87 2400 180/03 RMK AO2 T02560233
04850KAOH AOH20160723223010807/23/16 22:30:31  5-MIN KAOH 240330Z AUTO 19003KT 10SM CLR 26/23 A3001 890 87 2400 190/03 RMK AO2 T02560233
04850KAOH AOH20160723223510807/23/16 22:35:31  5-MIN KAOH 240335Z AUTO 19003KT 10SM CLR 26/23 A3001 900 87 2400 200/03 RMK AO2 T02560233
04850KAOH AOH20160723224010807/23/16 22:40:31  5-MIN KAOH 240340Z AUTO 00000KT 10SM CLR 26/23 A3001 900 87 2400 000/00 RMK AO2 T02560233
04850KAOH AOH20160723224510807/23/16 22:45:31  5-MIN KAOH 240345Z AUTO 00000KT 10SM CLR 26/24 A3001 900 87 2400 000/00 RMK AO2 T02610239
04850KAOH AOH20160723225011507/23/16 22:50:31  5-MIN KAOH 240350Z AUTO 18004KT 10SM CLR 26/23 A3001 900 84 2400 180/04 RMK AO2 SLP152 T02610233
04850KAOH AOH20160723225510807/23/16 22:55:31  5-MIN KAOH 240355Z AUTO 17004KT 10SM CLR 26/23 A3001 900 84 2400 180/04 RMK AO2 T02610233
04850KAOH AOH20160723230010807/23/16 23:00:31  5-MIN KAOH 240400Z AUTO 17004KT 10SM CLR 26/23 A3000 900 87 2400 180/04 RMK AO2 T02560233
04850KAOH AOH20160723230510807/23/16 23:05:31  5-MIN KAOH 240405Z AUTO 16005KT 10SM CLR 26/23 A3000 910 87 2400 170/05 RMK AO2 T02560233
04850KAOH AOH20160723231010807/23/16 23:10:31  5-MIN KAOH 240410Z AUTO 15005KT 10SM CLR 26/23 A2999 910 87 2400 160/05 RMK AO2 T02560233
04850KAOH AOH20160723231510807/23/16 23:15:31  5-MIN KAOH 240415Z AUTO 14004KT 10SM CLR 25/23 A2999 910 90 2300 150/04 RMK AO2 T02500233
04850KAOH AOH20160723232010807/23/16 23:20:31  5-MIN KAOH 240420Z AUTO 14004KT 10SM CLR 25/23 A2999 910 90 2300 140/04 RMK AO2 T02500233
04850KAOH AOH20160723232510807/23/16 23:25:31  5-MIN KAOH 240425Z AUTO 14004KT 10SM CLR 25/23 A2999 920 90 2300 140/04 RMK AO2 T02500233
04850KAOH AOH20160723233010807/23/16 23:30:31  5-MIN KAOH 240430Z AUTO 17003KT 10SM CLR 25/23 A2999 920 87 2300 170/03 RMK AO2 T02500228
04850KAOH AOH20160723233510807/23/16 23:35:31  5-MIN KAOH 240435Z AUTO 00000KT 10SM CLR 24/23 A2999 910 93 2200 000/00 RMK AO2 T02390228
04850KAOH AOH20160723234010807/23/16 23:40:31  5-MIN KAOH 240440Z AUTO 00000KT 10SM CLR 24/23 A2999 910 90 2200 000/00 RMK AO2 T02440228
04850KAOH AOH20160723234510807/23/16 23:45:31  5-MIN KAOH 240445Z AUTO 00000KT 10SM CLR 24/23 A3000 910 90 2200 000/00 RMK AO2 T02440228
04850KAOH AOH20160723235012507/23/16 23:50:31  5-MIN KAOH 240450Z AUTO 00000KT 10SM CLR 24/23 A3000 910 90 2200 000/00 RMK AO2 SLP148 T02440228 403280206
04850KAOH AOH20160723235510807/23/16 23:55:31  5-MIN KAOH 240455Z AUTO 00000KT 10SM CLR 24/23 A3000 910 93 2200 000/00 RMK AO2 T02390228
04850KAOH AOH20160724000010807/24/16 00:00:31  5-MIN KAOH 240500Z AUTO 00000KT 10SM CLR 24/23 A3000 910 93 2200 000/00 RMK AO2 T02390228
04850KAOH AOH20160724000510807/24/16 00:05:31  5-MIN KAOH 240505Z AUTO 16003KT 10SM CLR 24/23 A3000 910 93 2200 170/03 RMK AO2 T02390228
04850KAOH AOH20160724001010807/24/16 00:10:31  5-MIN KAOH 240510Z AUTO 16003KT 10SM CLR 24/23 A2999 910 93 2200 170/03 RMK AO2 T02390228
04850KAOH AOH20160724001510807/24/16 00:15:31  5-MIN KAOH 240515Z AUTO 16003KT 10SM CLR 24/23 A2999 910 93 2200 160/03 RMK AO2 T02390228
04850KAOH AOH20160724002010807/24/16 00:20:31  5-MIN KAOH 240520Z AUTO 16005KT 10SM CLR 24/23 A2999 910 90 2300 170/05 RMK AO2 T02440228
04850KAOH AOH20160724002510807/24/16 00:25:31  5-MIN KAOH 240525Z AUTO 18004KT 10SM CLR 25/23 A2999 910 87 2300 180/04 RMK AO2 T02500228
04850KAOH AOH20160724003010807/24/16 00:30:31  5-MIN KAOH 240530Z AUTO 00000KT 10SM CLR 25/23 A2999 910 87 2300 000/00 RMK AO2 T02500228
04850KAOH AOH20160724003510807/24/16 00:35:31  5-MIN KAOH 240535Z AUTO 00000KT 10SM CLR 24/23 A2999 910 90 2300 000/00 RMK AO2 T02440228
04850KAOH AOH20160724004010807/24/16 00:40:31  5-MIN KAOH 240540Z AUTO 00000KT 10SM CLR 24/23 A2999 910 90 2300 000/00 RMK AO2 T02440228
04850KAOH AOH20160724004510807/24/16 00:45:31  5-MIN KAOH 240545Z AUTO 00000KT 10SM CLR 24/23 A2999 910 90 2300 000/00 RMK AO2 T02440228
04850KAOH AOH20160724005013307/24/16 00:50:31  5-MIN KAOH 240550Z AUTO 00000KT 10SM CLR 24/23 A2999 910 90 2300 000/00 RMK AO2 SLP146 T02440228 10306 20239 53016
04850KAOH AOH20160724005510807/24/16 00:55:31  5-MIN KAOH 240555Z AUTO 00000KT 10SM CLR 25/23 A2999 910 87 2300 000/00 RMK AO2 T02500228
04850KAOH AOH20160724010010807/24/16 01:00:31  5-MIN KAOH 240600Z AUTO 00000KT 10SM CLR 24/23 A2999 910 90 2200 000/00 RMK AO2 T02440228
04850KAOH AOH20160724010510807/24/16 01:05:31  5-MIN KAOH 240605Z AUTO 00000KT 10SM CLR 24/23 A3000 910 90 2200 000/00 RMK AO2 T02440228
04850KAOH AOH20160724011010807/24/16 01:10:31  5-MIN KAOH 240610Z AUTO 00000KT 10SM CLR 24/23 A3000 910 90 2200 000/00 RMK AO2 T02440228
04850KAOH AOH20160724011510807/24/16 01:15:31  5-MIN KAOH 240615Z AUTO 00000KT 10SM CLR 24/23 A3000 910 90 2200 000/00 RMK AO2 T02440228
04850KAOH AOH20160724012010807/24/16 01:20:31  5-MIN KAOH 240620Z AUTO 17003KT 10SM CLR 24/23 A3000 910 90 2200 170/03 RMK AO2 T02440228
04850KAOH AOH20160724012510807/24/16 01:25:31  5-MIN KAOH 240625Z AUTO 18003KT 10SM CLR 24/23 A3000 910 90 2200 190/03 RMK AO2 T02440228
04850KAOH AOH20160724013010807/24/16 01:30:31  5-MIN KAOH 240630Z AUTO 00000KT 10SM CLR 24/23 A3000 910 90 2200 000/00 RMK AO2 T02440228
04850KAOH AOH20160724013510807/24/16 01:35:31  5-MIN KAOH 240635Z AUTO 17003KT 10SM CLR 24/23 A3000 910 90 2200 180/03 RMK AO2 T02440228
04850KAOH AOH20160724014010807/24/16 01:40:31  5-MIN KAOH 240640Z AUTO 17005KT 10SM CLR 24/23 A2999 910 90 2200 180/05 RMK AO2 T02440228
04850KAOH AOH20160724014510807/24/16 01:45:31  5-MIN KAOH 240645Z AUTO 17006KT 10SM CLR 24/23 A2999 910 93 2200 170/06 RMK AO2 T02390228
04850KAOH AOH20160724015011507/24/16 01:50:31  5-MIN KAOH 240650Z AUTO 17006KT 10SM CLR 24/23 A2999 920 93 2200 170/06 RMK AO2 SLP144 T02390228
04850KAOH AOH20160724015510807/24/16 01:55:31  5-MIN KAOH 240655Z AUTO 17006KT 10SM CLR 24/23 A2999 920 93 2200 180/06 RMK AO2 T02390228
04850KAOH AOH20160724020010807/24/16 02:00:31  5-MIN KAOH 240700Z AUTO 17007KT 10SM CLR 24/23 A2999 920 93 2200 180/07 RMK AO2 T02390228
04850KAOH AOH20160724020510807/24/16 02:05:31  5-MIN KAOH 240705Z AUTO 17007KT 10SM CLR 24/23 A2998 920 93 2200 170/07 RMK AO2 T02390228
04850KAOH AOH20160724021010807/24/16 02:10:31  5-MIN KAOH 240710Z AUTO 17006KT 10SM CLR 24/23 A2998 920 93 2200 180/06 RMK AO2 T02390228
04850KAOH AOH20160724021510807/24/16 02:15:31  5-MIN KAOH 240715Z AUTO 17006KT 10SM CLR 24/23 A2998 920 93 2200 180/06 RMK AO2 T02390228
04850KAOH AOH20160724022010807/24/16 02:20:31  5-MIN KAOH 240720Z AUTO 18005KT 10SM CLR 24/23 A2998 920 93 2200 190/05 RMK AO2 T02390228
04850KAOH AOH20160724022510807/24/16 02:25:31  5-MIN KAOH 240725Z AUTO 00000KT 10SM CLR 24/23 A2998 920 93 2200 000/00 RMK AO2 T02390228
04850KAOH AOH20160724023010807/24/16 02:30:31  5-MIN KAOH 240730Z AUTO 00000KT 10SM CLR 23/23 A2999 920 97 2100 000/00 RMK AO2 T02330228
04850KAOH AOH20160724023510807/24/16 02:35:31  5-MIN KAOH 240735Z AUTO 00000KT 10SM CLR 24/23 A2999 920 93 2200 000/00 RMK AO2 T02390228
04850KAOH AOH20160724024010807/24/16 02:40:31  5-MIN KAOH 240740Z AUTO 00000KT 10SM CLR 24/23 A2998 920 93 2200 000/00 RMK AO2 T02390228
04850KAOH AOH20160724024510807/24/16 02:45:31  5-MIN KAOH 240745Z AUTO 00000KT 10SM CLR 23/22 A2998 920 93 2100 000/00 RMK AO2 T02330222
04850KAOH AOH20160724025011507/24/16 02:50:31  5-MIN KAOH 240750Z AUTO 00000KT 10SM CLR 23/22 A2999 920 93 2100 000/00 RMK AO2 SLP145 T02330222
04850KAOH AOH20160724025510807/24/16 02:55:31  5-MIN KAOH 240755Z AUTO 24003KT 10SM CLR 23/22 A2999 910 93 2100 240/03 RMK AO2 T02330222
04850KAOH AOH20160724030010807/24/16 03:00:31  5-MIN KAOH 240800Z AUTO 25003KT 10SM CLR 23/22 A2999 910 97 2100 250/03 RMK AO2 T02280222
04850KAOH AOH20160724030510907/24/16 03:05:31  5-MIN KAOH 240805Z AUTO 26003KT 10SM CLR 22/22 A3000 910 100 2000 270/03 RMK AO2 T02220222
04850KAOH AOH20160724031010807/24/16 03:10:31  5-MIN KAOH 240810Z AUTO 25003KT 10SM CLR 23/22 A3000 900 97 2100 260/03 RMK AO2 T02280222
04850KAOH AOH20160724031510807/24/16 03:15:31  5-MIN KAOH 240815Z AUTO 25004KT 10SM CLR 23/22 A3000 900 97 2000 260/04 RMK AO2 T02280222
04850KAOH AOH20160724032010807/24/16 03:20:31  5-MIN KAOH 240820Z AUTO 25004KT 10SM CLR 23/22 A3001 890 97 2000 260/04 RMK AO2 T02280222
04850KAOH AOH20160724032510807/24/16 03:25:31  5-MIN KAOH 240825Z AUTO 26006KT 10SM CLR 23/22 A3001 890 97 2000 260/06 RMK AO2 T02280222
04850KAOH AOH20160724033010807/24/16 03:30:31  5-MIN KAOH 240830Z AUTO 26006KT 10SM CLR 23/22 A3001 890 93 2100 270/06 RMK AO2 T02330222
04850KAOH AOH20160724033511107/24/16 03:35:31  5-MIN KAOH 240835Z AUTO 26006KT 10SM FEW042 23/22 A3001 890 93 2100 260/06 RMK AO2 T02330222
04850KAOH AOH20160724034011807/24/16 03:40:31  5-MIN KAOH 240840Z AUTO 25005KT 10SM SCT042 SCT050 24/22 A3001 890 90 2200 260/05 RMK AO2 T02390222
04850KAOH AOH20160724034511807/24/16 03:45:31  5-MIN KAOH 240845Z AUTO 25005KT 10SM SCT044 BKN055 24/23 A3001 900 93 2200 260/05 RMK AO2 T02390228
04850KAOH AOH20160724035013107/24/16 03:50:31  5-MIN KAOH 240850Z AUTO 25004KT 10SM SCT046 BKN055 24/23 A3001 900 93 2200 260/04 RMK AO2 SLP151 T02390228 58006
04850KAOH AOH20160724035511807/24/16 03:55:31  5-MIN KAOH 240855Z AUTO 25004KT 10SM BKN046 BKN055 24/23 A3001 900 93 2200 250/04 RMK AO2 T02390228
04850KAOH AOH20160724040011807/24/16 04:00:31  5-MIN KAOH 240900Z AUTO 23004KT 10SM BKN045 OVC055 24/23 A3000 900 90 2200 240/04 RMK AO2 T02440228
04850KAOH AOH20160724040511807/24/16 04:05:31  5-MIN KAOH 240905Z AUTO 19003KT 10SM BKN045 BKN055 24/23 A3000 910 90 2200 190/03 RMK AO2 T02440228
04850KAOH AOH20160724041011807/24/16 04:10:31  5-MIN KAOH 240910Z AUTO 18004KT 10SM SCT047 BKN055 24/23 A3000 910 90 2200 190/04 RMK AO2 T02440228
04850KAOH AOH20160724041511107/24/16 04:15:31  5-MIN KAOH 240915Z AUTO 16006KT 10SM SCT047 24/23 A3000 910 90 2200 160/06 RMK AO2 T02440228
04850KAOH AOH20160724042011107/24/16 04:20:31  5-MIN KAOH 240920Z AUTO 00000KT 10SM SCT045 24/22 A3000 910 90 2200 000/00 RMK AO2 T02390222
04850KAOH AOH20160724042511107/24/16 04:25:31  5-MIN KAOH 240925Z AUTO 16004KT 10SM BKN045 23/22 A3000 900 93 2100 170/04 RMK AO2 T02330222
04850KAOH AOH20160724043011107/24/16 04:30:31  5-MIN KAOH 240930Z AUTO 15006KT 10SM SCT045 23/22 A3000 910 93 2100 160/06 RMK AO2 T02330222
04850KAOH AOH20160724043511107/24/16 04:35:31  5-MIN KAOH 240935Z AUTO 16005KT 10SM SCT045 23/22 A2999 910 93 2100 160/05 RMK AO2 T02330222
04850KAOH AOH20160724044011107/24/16 04:40:31  5-MIN KAOH 240940Z AUTO 18003KT 10SM FEW045 23/22 A2999 910 93 2100 190/03 RMK AO2 T02330222
04850KAOH AOH20160724044511107/24/16 04:45:31  5-MIN KAOH 240945Z AUTO 19003KT 10SM FEW045 23/22 A2999 910 93 2100 200/03 RMK AO2 T02330222
04850KAOH AOH20160724045011807/24/16 04:50:31  5-MIN KAOH 240950Z AUTO 00000KT 10SM FEW045 23/22 A2999 910 93 2100 000/00 RMK AO2 SLP147 T02330222
04850KAOH AOH20160724045510807/24/16 04:55:31  5-MIN KAOH 240955Z AUTO 00000KT 10SM CLR 23/22 A3000 910 93 2100 000/00 RMK AO2 T02330222
04850KAOH AOH20160724050010807/24/16 05:00:31  5-MIN KAOH 241000Z AUTO 00000KT 10SM CLR 23/22 A3000 910 93 2100 000/00 RMK AO2 T02330222
04850KAOH AOH20160724050510807/24/16 05:05:31  5-MIN KAOH 241005Z AUTO 22004KT 10SM CLR 23/22 A3000 910 93 2100 230/04 RMK AO2 T02330222
04850KAOH AOH20160724051010807/24/16 05:10:31  5-MIN KAOH 241010Z AUTO 21003KT 10SM CLR 23/22 A3000 910 93 2100 220/03 RMK AO2 T02330222
04850KAOH AOH20160724051510807/24/16 05:15:31  5-MIN KAOH 241015Z AUTO 19003KT 10SM CLR 24/22 A2999 910 90 2200 200/03 RMK AO2 T02390222
04850KAOH AOH20160724052010807/24/16 05:20:31  5-MIN KAOH 241020Z AUTO 21003KT 10SM CLR 23/22 A2999 910 93 2100 220/03 RMK AO2 T02330222
04850KAOH AOH20160724052510807/24/16 05:25:31  5-MIN KAOH 241025Z AUTO 24003KT 10SM CLR 23/22 A2999 910 93 2100 240/03 RMK AO2 T02330222
04850KAOH AOH20160724053010807/24/16 05:30:31  5-MIN KAOH 241030Z AUTO 00000KT 10SM CLR 23/23 A2999 910 97 2100 000/00 RMK AO2 T02330228
04850KAOH AOH20160724053510807/24/16 05:35:31  5-MIN KAOH 241035Z AUTO 00000KT 10SM CLR 23/22 A2999 910 97 2100 000/00 RMK AO2 T02280222
04850KAOH AOH20160724054010807/24/16 05:40:31  5-MIN KAOH 241040Z AUTO 00000KT 10SM CLR 23/23 A2999 910 97 2100 000/00 RMK AO2 T02330228
04850KAOH AOH20160724054510807/24/16 05:45:31  5-MIN KAOH 241045Z AUTO 21003KT 10SM CLR 23/23 A2999 910 97 2100 210/03 RMK AO2 T02330228
04850KAOH AOH20160724055011507/24/16 05:50:31  5-MIN KAOH 241050Z AUTO 19004KT 10SM CLR 23/23 A2999 910 97 2100 200/04 RMK AO2 SLP146 T02330228
04850KAOH AOH20160724055510807/24/16 05:55:31  5-MIN KAOH 241055Z AUTO 19004KT 10SM CLR 23/23 A2999 910 97 2100 190/04 RMK AO2 T02330228
04850KAOH AOH20160724060011107/24/16 06:00:31  5-MIN KAOH 241100Z AUTO 22004KT 10SM FEW041 23/22 A2999 910 93 2100 230/04 RMK AO2 T02330222
04850KAOH AOH20160724060511807/24/16 06:05:31  5-MIN KAOH 241105Z AUTO 22004KT 10SM FEW032 FEW041 23/23 A2999 910 97 2100 220/04 RMK AO2 T02330228
04850KAOH AOH20160724061011807/24/16 06:10:31  5-MIN KAOH 241110Z AUTO 23004KT 10SM FEW032 FEW041 24/23 A2999 910 93 2200 230/04 RMK AO2 T02390228
04850KAOH AOH20160724061511107/24/16 06:15:31  5-MIN KAOH 241115Z AUTO 22003KT 10SM SCT038 24/23 A2999 910 93 2200 230/03 RMK AO2 T02390228
04850KAOH AOH20160724062011107/24/16 06:20:31  5-MIN KAOH 241120Z AUTO 00000KT 10SM SCT038 24/23 A2999 910 93 2200 000/00 RMK AO2 T02390228
04850KAOH AOH20160724062511107/24/16 06:25:31  5-MIN KAOH 241125Z AUTO 16003KT 10SM FEW037 24/23 A2999 910 93 2200 160/03 RMK AO2 T02390228
04850KAOH AOH20160724063011007/24/16 06:30:31  5-MIN KAOH 241130Z AUTO 17004KT 9SM FEW038 24/23 A2999 920 93 2200 180/04 RMK AO2 T02390228
04850KAOH AOH20160724063511007/24/16 06:35:31  5-MIN KAOH 241135Z AUTO 16005KT 9SM FEW038 24/23 A2999 920 93 2200 170/05 RMK AO2 T02390228
04850KAOH AOH20160724064011107/24/16 06:40:31  5-MIN KAOH 241140Z AUTO 17004KT 10SM FEW038 24/23 A2999 920 93 2200 170/04 RMK AO2 T02390228
04850KAOH AOH20160724064510807/24/16 06:45:31  5-MIN KAOH 241145Z AUTO 16005KT 10SM CLR 24/23 A2998 920 93 2200 170/05 RMK AO2 T02390228
04850KAOH AOH20160724065013307/24/16 06:50:31  5-MIN KAOH 241150Z AUTO 17005KT 10SM CLR 24/23 A2999 920 93 2200 180/05 RMK AO2 SLP145 T02390228 10250 20222 53005
04850KAOH AOH20160724065510807/24/16 06:55:31  5-MIN KAOH 241155Z AUTO 17005KT 10SM CLR 24/23 A2999 920 93 2200 180/05 RMK AO2 T02390228
04850KAOH AOH20160724070010807/24/16 07:00:31  5-MIN KAOH 241200Z AUTO 18004KT 10SM CLR 24/23 A2999 910 93 2200 190/04 RMK AO2 T02390228
04850KAOH AOH20160724070510707/24/16 07:05:31  5-MIN KAOH 241205Z AUTO 19004KT 9SM CLR 24/23 A2999 910 93 2200 190/04 RMK AO2 T02390228
04850KAOH AOH20160724071010707/24/16 07:10:31  5-MIN KAOH 241210Z AUTO 20003KT 9SM CLR 24/23 A2999 910 93 2300 210/03 RMK AO2 T02440233
04850KAOH AOH20160724071510807/24/16 07:15:31  5-MIN KAOH 241215Z AUTO 20004KT 10SM CLR 24/23 A2999 910 93 2200 210/04 RMK AO2 T02440233
04850KAOH AOH20160724072010807/24/16 07:20:31  5-MIN KAOH 241220Z AUTO 21005KT 10SM CLR 24/23 A2999 910 93 2300 210/05 RMK AO2 T02440233
04850KAOH AOH20160724072510807/24/16 07:25:31  5-MIN KAOH 241225Z AUTO 18006KT 10SM CLR 25/23 A2999 910 90 2300 190/06 RMK AO2 T02500233
04850KAOH AOH20160724073010807/24/16 07:30:31  5-MIN KAOH 241230Z AUTO 18005KT 10SM CLR 25/24 A2999 910 93 2300 180/05 RMK AO2 T02500239
04850KAOH AOH20160724073510807/24/16 07:35:31  5-MIN KAOH 241235Z AUTO 18005KT 10SM CLR 26/24 A2999 910 90 2400 180/05 RMK AO2 T02560239
04850KAOH AOH20160724074010807/24/16 07:40:31  5-MIN KAOH 241240Z AUTO 19006KT 10SM CLR 26/24 A3000 910 87 2400 200/06 RMK AO2 T02610239
04850KAOH AOH20160724074510807/24/16 07:45:31  5-MIN KAOH 241245Z AUTO 19006KT 10SM CLR 26/24 A3000 900 87 2400 200/06 RMK AO2 T02610239
04850KAOH AOH20160724075011507/24/16 07:50:31  5-MIN KAOH 241250Z AUTO 20005KT 10SM CLR 26/24 A3000 900 90 2400 210/05 RMK AO2 SLP151 T02560239
04850KAOH AOH20160724075510807/24/16 07:55:31  5-MIN KAOH 241255Z AUTO 20006KT 10SM CLR 26/24 A3000 900 87 2400 210/06 RMK AO2 T02610239
04850KAOH AOH20160724080010807/24/16 08:00:31  5-MIN KAOH 241300Z AUTO 19005KT 10SM CLR 26/24 A3000 900 87 2400 190/05 RMK AO2 T02610239
04850KAOH AOH20160724080510807/24/16 08:05:31  5-MIN KAOH 241305Z AUTO 20004KT 10SM CLR 27/24 A3001 900 84 2500 200/04 RMK AO2 T02670239
04850KAOH AOH20160724081010807/24/16 08:10:31  5-MIN KAOH 241310Z AUTO 20004KT 10SM CLR 27/24 A3001 900 84 2500 200/04 RMK AO2 T02670239
04850KAOH AOH20160724081510807/24/16 08:15:31  5-MIN KAOH 241315Z AUTO 22005KT 10SM CLR 27/24 A3001 900 84 2500 230/05 RMK AO2 T02670239
04850KAOH AOH20160724082010807/24/16 08:20:31  5-MIN KAOH 241320Z AUTO VRB04KT 10SM CLR 27/24 A3001 890 84 2500 VRB/04 RMK AO2 T02670239
04850KAOH AOH20160724082510807/24/16 08:25:31  5-MIN KAOH 241325Z AUTO 23004KT 10SM CLR 27/24 A3001 890 84 2500 240/04 RMK AO2 T02670239
04850KAOH AOH20160724083010807/24/16 08:30:31  5-MIN KAOH 241330Z AUTO 22003KT 10SM CLR 27/23 A3002 890 82 2500 220/03 RMK AO2 T02670233
04850KAOH AOH20160724083511107/24/16 08:35:31  5-MIN KAOH 241335Z AUTO 00000KT 10SM SCT110 27/24 A3002 890 84 2500 000/00 RMK AO2 T02670239
04850KAOH AOH20160724084011107/24/16 08:40:31  5-MIN KAOH 241340Z AUTO 24003KT 10SM SCT110 27/24 A3002 890 84 2500 250/03 RMK AO2 T02670239
04850KAOH AOH20160724084511107/24/16 08:45:31  5-MIN KAOH 241345Z AUTO 21003KT 10SM SCT110 26/24 A3002 890 87 2400 220/03 RMK AO2 T02610239
04850KAOH AOH20160724085011807/24/16 08:50:31  5-MIN KAOH 241350Z AUTO 22004KT 10SM SCT110 27/24 A3002 890 84 2500 220/04 RMK AO2 SLP155 T02670239
04850KAOH AOH20160724085511107/24/16 08:55:31  5-MIN KAOH 241355Z AUTO 21004KT 10SM FEW110 26/24 A3002 890 87 2400 210/04 RMK AO2 T02610239
04850KAOH AOH20160724090011107/24/16 09:00:31  5-MIN KAOH 241400Z AUTO 20004KT 10SM FEW110 26/24 A3002 890 87 2400 210/04 RMK AO2 T02610239
04850KAOH AOH20160724090511107/24/16 09:05:31  5-MIN KAOH 241405Z AUTO 21004KT 10SM FEW110 26/24 A3002 890 87 2400 220/04 RMK AO2 T02610239
04850KAOH AOH20160724091011107/24/16 09:10:31  5-MIN KAOH 241410Z AUTO 21004KT 10SM FEW100 27/24 A3002 880 84 2500 220/04 RMK AO2 T02670239
04850KAOH AOH20160724091511807/24/16 09:15:31  5-MIN KAOH 241415Z AUTO 22003KT 10SM FEW075 SCT100 27/24 A3002 880 84 2500 230/03 RMK AO2 T02670239
04850KAOH AOH20160724092014107/24/16 09:20:31  5-MIN KAOH 241420Z AUTO 22004KT 10SM -RA FEW042 SCT070 BKN100 27/24 A3002 890 84 2500 220/04 RMK AO2 RAB20 P0000 T02670239
04850KAOH AOH20160724092514107/24/16 09:25:31  5-MIN KAOH 241425Z AUTO 21005KT 10SM -RA FEW039 FEW070 SCT100 27/24 A3002 890 84 2500 210/05 RMK AO2 RAB20 P0000 T02670239
04850KAOH AOH20160724093014007/24/16 09:30:31  5-MIN KAOH 241430Z AUTO 20005KT 10SM FEW041 FEW065 SCT100 27/24 A3002 890 84 2500 200/05 RMK AO2 RAB20E30 P0000 T02670239
04850KAOH AOH20160724093514007/24/16 09:35:31  5-MIN KAOH 241435Z AUTO 20006KT 10SM FEW041 FEW065 SCT100 27/24 A3002 890 82 2500 200/06 RMK AO2 RAB20E30 P0000 T02720239
04850KAOH AOH20160724094013307/24/16 09:40:31  5-MIN KAOH 241440Z AUTO 20005KT 10SM FEW042 FEW070 27/24 A3002 890 82 2500 210/05 RMK AO2 RAB20E30 P0000 T02720239
04850KAOH AOH20160724094512607/24/16 09:45:31  5-MIN KAOH 241445Z AUTO 21007KT 10SM FEW038 27/24 A3002 890 82 2500 220/07 RMK AO2 RAB20E30 P0000 T02720239
04850KAOH AOH20160724095014207/24/16 09:50:31  5-MIN KAOH 241450Z AUTO 21007KT 10SM CLR 27/24 A3002 880 82 2500 220/07 RMK AO2 RAB20E30 SLP157 P0000 60000 T02720239 56006
04850KAOH AOH20160724095510807/24/16 09:55:31  5-MIN KAOH 241455Z AUTO 21007KT 10SM CLR 27/24 A3002 890 82 2500 220/07 RMK AO2 T02720239
04850KAOH AOH20160724100010807/24/16 10:00:31  5-MIN KAOH 241500Z AUTO 22007KT 10SM CLR 28/24 A3002 890 79 2600 230/07 RMK AO2 T02780239
04850KAOH AOH20160724100510807/24/16 10:05:31  5-MIN KAOH 241505Z AUTO 20005KT 10SM CLR 28/24 A3002 890 79 2600 210/05 RMK AO2 T02780239
04850KAOH AOH20160724101010807/24/16 10:10:31  5-MIN KAOH 241510Z AUTO 21006KT 10SM CLR 28/24 A3002 890 82 2600 220/06 RMK AO2 T02780244
04850KAOH AOH20160724101510807/24/16 10:15:31  5-MIN KAOH 241515Z AUTO 21006KT 10SM CLR 28/24 A3001 890 82 2600 210/06 RMK AO2 T02780244
04850KAOH AOH20160724102010807/24/16 10:20:31  5-MIN KAOH 241520Z AUTO 22007KT 10SM CLR 28/24 A3001 890 76 2700 220/07 RMK AO2 T02830239
04850KAOH AOH20160724102510807/24/16 10:25:31  5-MIN KAOH 241525Z AUTO 22008KT 10SM CLR 28/24 A3001 890 79 2600 220/08 RMK AO2 T02780239
04850KAOH AOH20160724103010807/24/16 10:30:31  5-MIN KAOH 241530Z AUTO 22007KT 10SM CLR 28/24 A3001 890 76 2700 230/07 RMK AO2 T02830239
04850KAOH AOH20160724103510807/24/16 10:35:31  5-MIN KAOH 241535Z AUTO 23007KT 10SM CLR 29/24 A3001 890 76 2700 240/07 RMK AO2 T02890244
04850KAOH AOH20160724104010807/24/16 10:40:31  5-MIN KAOH 241540Z AUTO 23009KT 10SM CLR 29/24 A3001 890 71 2800 240/09 RMK AO2 T02940239
04850KAOH AOH20160724104510807/24/16 10:45:31  5-MIN KAOH 241545Z AUTO 22009KT 10SM CLR 29/23 A3001 890 69 2800 230/09 RMK AO2 T02940233
04850KAOH AOH20160724105011507/24/16 10:50:31  5-MIN KAOH 241550Z AUTO 22009KT 10SM CLR 30/24 A3001 890 69 2800 230/09 RMK AO2 SLP153 T03000239
04850KAOH AOH20160724105510807/24/16 10:55:31  5-MIN KAOH 241555Z AUTO 23007KT 10SM CLR 30/23 A3001 890 67 2800 240/07 RMK AO2 T03000233
04850KAOH AOH20160724110010807/24/16 11:00:31  5-MIN KAOH 241600Z AUTO 22006KT 10SM CLR 30/23 A3001 890 67 2800 230/06 RMK AO2 T03000233
04850KAOH AOH20160724110510807/24/16 11:05:31  5-MIN KAOH 241605Z AUTO 25006KT 10SM CLR 30/23 A3001 890 65 2900 250/06 RMK AO2 T03000228
04850KAOH AOH20160724111010807/24/16 11:10:31  5-MIN KAOH 241610Z AUTO 25006KT 10SM CLR 31/23 A3001 900 62 2900 260/06 RMK AO2 T03060228
04850KAOH AOH20160724111510807/24/16 11:15:31  5-MIN KAOH 241615Z AUTO 24005KT 10SM CLR 31/22 A3001 900 60 2900 250/05 RMK AO2 T03060222
04850KAOH AOH20160724112010807/24/16 11:20:31  5-MIN KAOH 241620Z AUTO 24006KT 10SM CLR 31/22 A3001 900 58 2900 250/06 RMK AO2 T03060217
04850KAOH AOH20160724112510807/24/16 11:25:31  5-MIN KAOH 241625Z AUTO 25007KT 10SM CLR 31/22 A3001 900 56 3000 260/07 RMK AO2 T03110217
04850KAOH AOH20160724113011107/24/16 11:30:31  5-MIN KAOH 241630Z AUTO 22007KT 10SM FEW120 31/22 A3001 900 56 3000 230/07 RMK AO2 T03110217
04850KAOH AOH20160724113511107/24/16 11:35:31  5-MIN KAOH 241635Z AUTO 24007KT 10SM SCT110 31/21 A3001 900 53 3000 250/07 RMK AO2 T03110206
04850KAOH AOH20160724114011107/24/16 11:40:31  5-MIN KAOH 241640Z AUTO 22006KT 10SM BKN110 31/21 A3001 890 54 2900 220/06 RMK AO2 T03060206
04850KAOH AOH20160724114511107/24/16 11:45:31  5-MIN KAOH 241645Z AUTO 24010KT 10SM BKN110 31/21 A3002 890 54 2900 240/10 RMK AO2 T03060206
04850KAOH AOH20160724115011807/24/16 11:50:31  5-MIN KAOH 241650Z AUTO 23008KT 10SM BKN110 31/21 A3002 890 53 3000 230/08 RMK AO2 SLP154 T03110206
04850KAOH AOH20160724115511107/24/16 11:55:31  5-MIN KAOH 241655Z AUTO 23008KT 10SM BKN110 31/22 A3002 890 56 3000 240/08 RMK AO2 T03110217
04850KAOH AOH20160724120011107/24/16 12:00:31  5-MIN KAOH 241700Z AUTO 26006KT 10SM BKN110 31/23 A3002 890 60 3000 260/06 RMK AO2 T03110228
04850KAOH AOH20160724120511107/24/16 12:05:31  5-MIN KAOH 241705Z AUTO 25010KT 10SM SCT110 31/22 A3002 890 58 3000 260/10 RMK AO2 T03110222
04850KAOH AOH20160724121011107/24/16 12:10:31  5-MIN KAOH 241710Z AUTO 28006KT 10SM SCT110 31/22 A3002 890 60 2900 290/06 RMK AO2 T03060222
04850KAOH AOH20160724121511107/24/16 12:15:31  5-MIN KAOH 241715Z AUTO 29008KT 10SM BKN110 30/23 A3002 880 65 2800 300/08 RMK AO2 T03000228
04850KAOH AOH20160724122011807/24/16 12:20:31  5-MIN KAOH 241720Z AUTO 28007KT 10SM BKN100 BKN120 29/23 A3003 880 67 2800 290/07 RMK AO2 T02940228
04850KAOH AOH20160724122511807/24/16 12:25:31  5-MIN KAOH 241725Z AUTO 29007KT 10SM BKN100 BKN120 30/23 A3003 880 65 2800 290/07 RMK AO2 T03000228
04850KAOH AOH20160724123012507/24/16 12:30:31  5-MIN KAOH 241730Z AUTO 28006KT 10SM FEW070 BKN100 OVC120 29/23 A3003 880 67 2800 290/06 RMK AO2 T02940228
04850KAOH AOH20160724123511807/24/16 12:35:31  5-MIN KAOH 241735Z AUTO 26006KT 10SM FEW075 OVC095 30/23 A3003 880 65 2800 270/06 RMK AO2 T03000228
04850KAOH AOH20160724124011807/24/16 12:40:31  5-MIN KAOH 241740Z AUTO 28005KT 10SM FEW075 OVC095 30/23 A3003 880 65 2800 290/05 RMK AO2 T03000228
04850KAOH AOH20160724124513007/24/16 12:45:31  5-MIN KAOH 241745Z AUTO 29004KT 10SM SCT075 OVC095 30/23 A3002 880 67 2800 290/04 RMK AO2 LTG DSNT SE T03000233
04850KAOH AOH20160724125016807/24/16 12:50:31  5-MIN KAOH 241750Z AUTO 30004KT 10SM FEW046 BKN075 OVC095 30/23 A3002 880 67 2800 300/04 RMK AO2 LTG DSNT SE SLP158 60000 T03000233 10317 20239 51011
04850KAOH AOH20160724125514307/24/16 12:55:31  5-MIN KAOH 241755Z AUTO 35014G17KT 10SM SCT044 BKN075 OVC095 29/23 A3003 880 69 2800 360/14G17 RMK AO2 LTG DSNT SE T02940233
04850KAOH AOH20160724130014307/24/16 13:00:31  5-MIN KAOH 241800Z AUTO 01009G17KT 10SM FEW030 BKN044 OVC090 27/22 A3003 880 76 2500 010/09G17 RMK AO2 LTG DSNT SE T02670222
04850KAOH AOH20160724130515907/24/16 13:05:31  5-MIN KAOH 241805Z AUTO 02016G20KT 10SM -RA SCT034 BKN044 OVC075 26/22 A3003 880 76 2400 020/16G20 RMK AO2 LTG DSNT SE RAB04 P0000 T02610217
04850KAOH AOH20160724131015907/24/16 13:10:31  5-MIN KAOH 241810Z AUTO 02011G20KT 10SM -RA BKN039 BKN049 OVC080 27/22 A3002 880 73 2500 030/11G20 RMK AO2 LTG DSNT SE RAB04 P0000 T02670217
04850KAOH AOH20160724131514507/24/16 13:15:31  5-MIN KAOH 241815Z AUTO 01014KT 10SM BKN039 BKN050 27/22 A3002 880 74 2500 020/14 RMK AO2 LTG DSNT SE RAB04E13 P0000 T02720222
04850KAOH AOH20160724132014507/24/16 13:20:31  5-MIN KAOH 241820Z AUTO 02010KT 10SM SCT039 BKN050 27/22 A3003 880 73 2500 030/10 RMK AO2 LTG DSNT SE RAB04E13 P0000 T02670217
04850KAOH AOH20160724132514507/24/16 13:25:31  5-MIN KAOH 241825Z AUTO 03013KT 10SM SCT039 BKN050 27/22 A3002 880 73 2500 030/13 RMK AO2 LTG DSNT SE RAB04E13 P0000 T02670217
04850KAOH AOH20160724133015107/24/16 13:30:31  5-MIN KAOH 241830Z AUTO 03012G17KT 10SM FEW039 SCT050 27/22 A3002 880 73 2500 030/12G17 RMK AO2 LTG DSNT SE RAB04E13 P0000 T02670217
04850KAOH AOH20160724133514507/24/16 13:35:31  5-MIN KAOH 241835Z AUTO 03010KT 10SM FEW039 FEW050 27/22 A3002 880 73 2500 040/10 RMK AO2 LTG DSNT SE RAB04E13 P0000 T02670217
04850KAOH AOH20160724134014507/24/16 13:40:31  5-MIN KAOH 241840Z AUTO 04012KT 10SM FEW050 SCT065 27/22 A3002 880 71 2500 040/12 RMK AO2 LTG DSNT SE RAB04E13 P0000 T02720217
04850KAOH AOH20160724134513807/24/16 13:45:31  5-MIN KAOH 241845Z AUTO 03012KT 10SM SCT060 28/22 A3002 890 69 2600 040/12 RMK AO2 LTG DSNT SE RAB04E13 P0000 T02780217
04850KAOH AOH20160724135015207/24/16 13:50:31  5-MIN KAOH 241850Z AUTO 03011KT 10SM SCT060 BKN075 27/21 A3002 890 69 2500 040/11 RMK AO2 LTG DSNT SE RAB04E13 SLP156 P0000 T02720211
04850KAOH AOH20160724135513707/24/16 13:55:31  5-MIN KAOH 241855Z AUTO 03008KT 10SM FEW049 BKN060 BKN070 27/21 A3002 890 69 2500 040/08 RMK AO2 LTG DSNT SE T02720211
04850KAOH AOH20160724140014307/24/16 14:00:31  5-MIN KAOH 241900Z AUTO 05010KT 10SM FEW044 BKN055 BKN070 27/21 A3002 890 69 2500 060/10 RMK AO2 LTG DSNT SE AND S T02720211
04850KAOH AOH20160724140514307/24/16 14:05:31  5-MIN KAOH 241905Z AUTO 06007KT 10SM FEW043 BKN055 BKN070 29/22 A3002 890 64 2700 070/07 RMK AO2 LTG DSNT SE AND S T02890217
04850KAOH AOH20160724141014307/24/16 14:10:31  5-MIN KAOH 241910Z AUTO 07007KT 10SM FEW047 SCT055 BKN070 29/22 A3002 890 64 2800 080/07 RMK AO2 LTG DSNT SE AND S T02940222
04850KAOH AOH20160724141514307/24/16 14:15:31  5-MIN KAOH 241915Z AUTO 06006KT 10SM FEW040 SCT055 SCT070 29/22 A3002 890 64 2800 070/06 RMK AO2 LTG DSNT SE AND S T02940222
04850KAOH AOH20160724142014307/24/16 14:20:31  5-MIN KAOH 241920Z AUTO 07010KT 10SM FEW040 SCT048 SCT060 29/22 A3001 900 64 2800 070/10 RMK AO2 LTG DSNT SE AND S T02940222
04850KAOH AOH20160724142513607/24/16 14:25:31  5-MIN KAOH 241925Z AUTO 07009KT 10SM FEW040 FEW050 30/22 A3001 900 62 2900 080/09 RMK AO2 LTG DSNT SE AND S T03000222
04850KAOH AOH20160724143012207/24/16 14:30:31  5-MIN KAOH 241930Z AUTO 06009KT 10SM CLR 30/22 A3001 900 60 2900 070/09 RMK AO2 LTG DSNT SE-W T03000217
04850KAOH AOH20160724143512207/24/16 14:35:31  5-MIN KAOH 241935Z AUTO 05009KT 10SM CLR 31/22 A3001 900 58 2900 060/09 RMK AO2 LTG DSNT SE-W T03060217
04850KAOH AOH20160724144012207/24/16 14:40:31  5-MIN KAOH 241940Z AUTO 09011KT 10SM CLR 31/22 A3001 900 58 2900 100/11 RMK AO2 LTG DSNT SE-W T03060217
04850KAOH AOH20160724144512207/24/16 14:45:31  5-MIN KAOH 241945Z AUTO 08009KT 10SM CLR 31/21 A3000 900 56 2900 080/09 RMK AO2 LTG DSNT SE-W T03060211
04850KAOH AOH20160724145012907/24/16 14:50:31  5-MIN KAOH 241950Z AUTO 08010KT 10SM CLR 31/22 A3000 900 58 2900 080/10 RMK AO2 LTG DSNT SE-W SLP150 T03060217
04850KAOH AOH20160724145512207/24/16 14:55:31  5-MIN KAOH 241955Z AUTO 09008KT 10SM CLR 31/22 A3000 910 58 2900 100/08 RMK AO2 LTG DSNT SE-W T03060217
04850KAOH AOH20160724150012007/24/16 15:00:31  5-MIN KAOH 242000Z AUTO 11009KT 10SM CLR 31/22 A3000 910 56 3000 120/09 RMK AO2 LTG DSNT SE T03110217
04850KAOH AOH20160724150512007/24/16 15:05:31  5-MIN KAOH 242005Z AUTO 10009KT 10SM CLR 31/22 A3000 910 58 2900 110/09 RMK AO2 LTG DSNT SE T03060217
04850KAOH AOH20160724151010807/24/16 15:10:31  5-MIN KAOH 242010Z AUTO 10008KT 10SM CLR 30/22 A3000 910 60 2900 110/08 RMK AO2 T03000217
04850KAOH AOH20160724151510807/24/16 15:15:31  5-MIN KAOH 242015Z AUTO 10010KT 10SM CLR 30/21 A3000 910 58 2900 100/10 RMK AO2 T03000211
04850KAOH AOH20160724152010807/24/16 15:20:31  5-MIN KAOH 242020Z AUTO 12009KT 10SM CLR 30/22 A3000 910 60 2900 130/09 RMK AO2 T03000217
04850KAOH AOH20160724152510807/24/16 15:25:31  5-MIN KAOH 242025Z AUTO 12010KT 10SM CLR 29/21 A2999 910 60 2800 120/10 RMK AO2 T02940211
04850KAOH AOH20160724153010807/24/16 15:30:31  5-MIN KAOH 242030Z AUTO 12010KT 10SM CLR 29/21 A2999 910 60 2800 120/10 RMK AO2 T02940211
04850KAOH AOH20160724153512007/24/16 15:35:31  5-MIN KAOH 242035Z AUTO 12013KT 10SM CLR 29/21 A2999 910 60 2800 130/13 RMK AO2 LTG DSNT SW T02940211
04850KAOH AOH20160724154012007/24/16 15:40:31  5-MIN KAOH 242040Z AUTO 12011KT 10SM CLR 29/21 A2999 920 58 2800 130/11 RMK AO2 LTG DSNT SW T02940206
04850KAOH AOH20160724154512007/24/16 15:45:31  5-MIN KAOH 242045Z AUTO 13010KT 10SM CLR 30/22 A2998 920 60 2900 130/10 RMK AO2 LTG DSNT SW T03000217
04850KAOH AOH20160724155013907/24/16 15:50:31  5-MIN KAOH 242050Z AUTO 12013KT 10SM CLR 30/22 A2998 920 62 2900 130/13 RMK AO2 LTG DSNT SW SLP144 60000 T03000222 53002
04850KAOH AOH20160724155512007/24/16 15:55:31  5-MIN KAOH 242055Z AUTO 13012KT 10SM CLR 29/22 A2998 920 62 2800 130/12 RMK AO2 LTG DSNT SW T02940217
04850KAOH AOH20160724160012007/24/16 16:00:31  5-MIN KAOH 242100Z AUTO 13011KT 10SM CLR 29/22 A2998 930 62 2800 130/11 RMK AO2 LTG DSNT SW T02940217
04850KAOH AOH20160724160512007/24/16 16:05:31  5-MIN KAOH 242105Z AUTO 15009KT 10SM CLR 29/22 A2998 920 67 2800 160/09 RMK AO2 LTG DSNT SW T02890222
04850KAOH AOH20160724161010807/24/16 16:10:31  5-MIN KAOH 242110Z AUTO 14010KT 10SM CLR 29/23 A2998 920 69 2800 150/10 RMK AO2 T02890228
04850KAOH AOH20160724161510807/24/16 16:15:31  5-MIN KAOH 242115Z AUTO 14007KT 10SM CLR 29/23 A2998 920 69 2800 150/07 RMK AO2 T02940233
04850KAOH AOH20160724162010807/24/16 16:20:31  5-MIN KAOH 242120Z AUTO 14008KT 10SM CLR 29/23 A2998 930 69 2800 150/08 RMK AO2 T02940233
04850KAOH AOH20160724162510807/24/16 16:25:31  5-MIN KAOH 242125Z AUTO 14007KT 10SM CLR 29/23 A2997 930 69 2800 150/07 RMK AO2 T02940233
04850KAOH AOH20160724163010807/24/16 16:30:31  5-MIN KAOH 242130Z AUTO 14009KT 10SM CLR 29/23 A2997 930 67 2800 150/09 RMK AO2 T02940228
04850KAOH AOH20160724163510807/24/16 16:35:31  5-MIN KAOH 242135Z AUTO 14010KT 10SM CLR 29/23 A2997 940 67 2800 150/10 RMK AO2 T02940228
04850KAOH AOH20160724164010807/24/16 16:40:31  5-MIN KAOH 242140Z AUTO 14008KT 10SM CLR 29/23 A2996 940 67 2800 140/08 RMK AO2 T02940228
04850KAOH AOH20160724164510807/24/16 16:45:31  5-MIN KAOH 242145Z AUTO 14007KT 10SM CLR 29/23 A2997 940 67 2800 140/07 RMK AO2 T02940228
04850KAOH AOH20160724165011507/24/16 16:50:31  5-MIN KAOH 242150Z AUTO 14007KT 10SM CLR 29/23 A2997 930 67 2800 140/07 RMK AO2 SLP139 T02940228
04850KAOH AOH20160724165510807/24/16 16:55:31  5-MIN KAOH 242155Z AUTO 15006KT 10SM CLR 30/23 A2997 930 65 2900 150/06 RMK AO2 T03000228
04850KAOH AOH20160724170010807/24/16 17:00:31  5-MIN KAOH 242200Z AUTO 15006KT 10SM CLR 29/23 A2997 930 67 2800 160/06 RMK AO2 T02940228
04850KAOH AOH20160724170510807/24/16 17:05:31  5-MIN KAOH 242205Z AUTO 16006KT 10SM CLR 29/23 A2996 940 67 2800 160/06 RMK AO2 T02940228
04850KAOH AOH20160724171010807/24/16 17:10:31  5-MIN KAOH 242210Z AUTO 16006KT 10SM CLR 29/23 A2996 940 67 2800 160/06 RMK AO2 T02940228
04850KAOH AOH20160724171510807/24/16 17:15:31  5-MIN KAOH 242215Z AUTO 15006KT 10SM CLR 29/23 A2996 940 67 2800 160/06 RMK AO2 T02940228
04850KAOH AOH20160724172010807/24/16 17:20:31  5-MIN KAOH 242220Z AUTO 16005KT 10SM CLR 29/23 A2996 940 67 2800 160/05 RMK AO2 T02940228
04850KAOH AOH20160724172510807/24/16 17:25:31  5-MIN KAOH 242225Z AUTO 16006KT 10SM CLR 30/23 A2996 940 65 2900 160/06 RMK AO2 T03000228
04850KAOH AOH20160724173010807/24/16 17:30:31  5-MIN KAOH 242230Z AUTO 15007KT 10SM CLR 30/23 A2996 940 65 2900 160/07 RMK AO2 T03000228
04850KAOH AOH20160724173510807/24/16 17:35:31  5-MIN KAOH 242235Z AUTO 16007KT 10SM CLR 30/23 A2996 940 65 2900 170/07 RMK AO2 T03000228
04850KAOH AOH20160724174010807/24/16 17:40:31  5-MIN KAOH 242240Z AUTO 17006KT 10SM CLR 30/23 A2996 940 67 2900 180/06 RMK AO2 T03000233
04850KAOH AOH20160724174510807/24/16 17:45:31  5-MIN KAOH 242245Z AUTO 18007KT 10SM CLR 30/23 A2996 940 67 2900 190/07 RMK AO2 T03000233
04850KAOH AOH20160724175011507/24/16 17:50:31  5-MIN KAOH 242250Z AUTO 17007KT 10SM CLR 30/23 A2996 940 67 2900 170/07 RMK AO2 SLP136 T03000233
04850KAOH AOH20160724175510807/24/16 17:55:31  5-MIN KAOH 242255Z AUTO 18007KT 10SM CLR 30/23 A2996 940 67 2900 190/07 RMK AO2 T03000233
04850KAOH AOH20160724180010807/24/16 18:00:31  5-MIN KAOH 242300Z AUTO 18006KT 10SM CLR 30/23 A2996 940 67 2900 180/06 RMK AO2 T03000233
04850KAOH AOH20160724180510807/24/16 18:05:31  5-MIN KAOH 242305Z AUTO 18005KT 10SM CLR 29/23 A2996 940 69 2800 190/05 RMK AO2 T02940233
04850KAOH AOH20160724181010807/24/16 18:10:31  5-MIN KAOH 242310Z AUTO 18006KT 10SM CLR 29/23 A2996 940 69 2900 180/06 RMK AO2 T02940233
04850KAOH AOH20160724181510807/24/16 18:15:31  5-MIN KAOH 242315Z AUTO 18005KT 10SM CLR 30/23 A2996 940 67 2900 190/05 RMK AO2 T03000233
04850KAOH AOH20160724182010807/24/16 18:20:31  5-MIN KAOH 242320Z AUTO 17006KT 10SM CLR 30/23 A2995 950 67 2900 180/06 RMK AO2 T03000233
04850KAOH AOH20160724182510807/24/16 18:25:31  5-MIN KAOH 242325Z AUTO 18005KT 10SM CLR 29/24 A2995 950 71 2900 180/05 RMK AO2 T02940239
04850KAOH AOH20160724183010807/24/16 18:30:31  5-MIN KAOH 242330Z AUTO 18005KT 10SM CLR 29/24 A2995 950 71 2900 190/05 RMK AO2 T02940239
04850KAOH AOH20160724183510807/24/16 18:35:31  5-MIN KAOH 242335Z AUTO 18005KT 10SM CLR 29/24 A2995 950 71 2900 180/05 RMK AO2 T02940239
04850KAOH AOH20160724184010807/24/16 18:40:31  5-MIN KAOH 242340Z AUTO 18005KT 10SM CLR 29/24 A2995 950 71 2900 190/05 RMK AO2 T02940239
04850KAOH AOH20160724184510807/24/16 18:45:31  5-MIN KAOH 242345Z AUTO 19006KT 10SM CLR 29/23 A2995 950 71 2800 190/06 RMK AO2 T02890233
04850KAOH AOH20160724185013907/24/16 18:50:31  5-MIN KAOH 242350Z AUTO 18006KT 10SM CLR 29/23 A2995 950 71 2800 180/06 RMK AO2 SLP134 60000 T02890233 10311 20261 58015
04850KAOH AOH20160724185510807/24/16 18:55:31  5-MIN KAOH 242355Z AUTO 18006KT 10SM CLR 29/23 A2995 950 71 2800 180/06 RMK AO2 T02890233
04850KAOH AOH20160724190010807/24/16 19:00:31  5-MIN KAOH 250000Z AUTO 18005KT 10SM CLR 29/23 A2995 950 71 2800 190/05 RMK AO2 T02890233
04850KAOH AOH20160724190510807/24/16 19:05:31  5-MIN KAOH 250005Z AUTO 17005KT 10SM CLR 29/24 A2995 950 74 2800 180/05 RMK AO2 T02890239
04850KAOH AOH20160724191010807/24/16 19:10:31  5-MIN KAOH 250010Z AUTO 17006KT 10SM CLR 29/24 A2995 950 74 2800 180/06 RMK AO2 T02890239
04850KAOH AOH20160724191510807/24/16 19:15:31  5-MIN KAOH 250015Z AUTO 17006KT 10SM CLR 28/24 A2995 950 76 2700 180/06 RMK AO2 T02830239
04850KAOH AOH20160724192010807/24/16 19:20:31  5-MIN KAOH 250020Z AUTO 17007KT 10SM CLR 28/24 A2995 950 76 2700 180/07 RMK AO2 T02830239
04850KAOH AOH20160724192510807/24/16 19:25:31  5-MIN KAOH 250025Z AUTO 17005KT 10SM CLR 28/24 A2995 950 76 2700 180/05 RMK AO2 T02830239
04850KAOH AOH20160724193010807/24/16 19:30:31  5-MIN KAOH 250030Z AUTO 17006KT 10SM CLR 28/24 A2994 960 76 2700 180/06 RMK AO2 T02830239
04850KAOH AOH20160724193510807/24/16 19:35:31  5-MIN KAOH 250035Z AUTO 16006KT 10SM CLR 28/24 A2994 960 76 2700 170/06 RMK AO2 T02830239
04850KAOH AOH20160724194010807/24/16 19:40:31  5-MIN KAOH 250040Z AUTO 16005KT 10SM CLR 28/24 A2994 960 82 2700 170/05 RMK AO2 T02780244
04850KAOH AOH20160724194510807/24/16 19:45:31  5-MIN KAOH 250045Z AUTO 17005KT 10SM CLR 28/24 A2994 960 82 2700 170/05 RMK AO2 T02780244
04850KAOH AOH20160724195011507/24/16 19:50:31  5-MIN KAOH 250050Z AUTO 17006KT 10SM CLR 27/24 A2994 960 82 2600 170/06 RMK AO2 SLP130 T02720239
04850KAOH AOH20160724195510807/24/16 19:55:31  5-MIN KAOH 250055Z AUTO 17005KT 10SM CLR 27/24 A2994 960 82 2600 180/05 RMK AO2 T02720239
04850KAOH AOH20160724200010807/24/16 20:00:31  5-MIN KAOH 250100Z AUTO 17005KT 10SM CLR 28/24 A2994 960 79 2700 180/05 RMK AO2 T02780239
04850KAOH AOH20160724200510807/24/16 20:05:31  5-MIN KAOH 250105Z AUTO 17005KT 10SM CLR 27/24 A2994 960 82 2600 180/05 RMK AO2 T02720239
04850KAOH AOH20160724201010807/24/16 20:10:31  5-MIN KAOH 250110Z AUTO 17005KT 10SM CLR 27/24 A2994 960 82 2600 180/05 RMK AO2 T02720239
04850KAOH AOH20160724201510807/24/16 20:15:31  5-MIN KAOH 250115Z AUTO 17006KT 10SM CLR 27/24 A2994 960 82 2600 170/06 RMK AO2 T02720239
04850KAOH AOH20160724202010807/24/16 20:20:31  5-MIN KAOH 250120Z AUTO 17005KT 10SM CLR 27/24 A2995 950 82 2600 180/05 RMK AO2 T02720239
04850KAOH AOH20160724202510807/24/16 20:25:31  5-MIN KAOH 250125Z AUTO 17005KT 10SM CLR 27/24 A2995 950 84 2600 180/05 RMK AO2 T02670239
04850KAOH AOH20160724203010807/24/16 20:30:31  5-MIN KAOH 250130Z AUTO 17005KT 10SM CLR 27/24 A2995 950 84 2600 180/05 RMK AO2 T02670239
04850KAOH AOH20160724203510807/24/16 20:35:31  5-MIN KAOH 250135Z AUTO 18004KT 10SM CLR 27/24 A2995 950 84 2500 190/04 RMK AO2 T02670239
04850KAOH AOH20160724204010807/24/16 20:40:31  5-MIN KAOH 250140Z AUTO 19004KT 10SM CLR 27/24 A2995 950 82 2600 190/04 RMK AO2 T02720239
04850KAOH AOH20160724204510807/24/16 20:45:31  5-MIN KAOH 250145Z AUTO 19005KT 10SM CLR 27/24 A2995 950 82 2600 200/05 RMK AO2 T02720239
04850KAOH AOH20160724205011507/24/16 20:50:31  5-MIN KAOH 250150Z AUTO 19006KT 10SM CLR 27/24 A2995 950 82 2600 190/06 RMK AO2 SLP134 T02720239
04850KAOH AOH20160724205510807/24/16 20:55:31  5-MIN KAOH 250155Z AUTO 19007KT 10SM CLR 27/24 A2995 950 82 2600 190/07 RMK AO2 T02720239
04850KAOH AOH20160724210010807/24/16 21:00:31  5-MIN KAOH 250200Z AUTO 19006KT 10SM CLR 27/24 A2996 940 82 2600 190/06 RMK AO2 T02720239
04850KAOH AOH20160724210510807/24/16 21:05:31  5-MIN KAOH 250205Z AUTO 19006KT 10SM CLR 27/24 A2996 940 82 2600 200/06 RMK AO2 T02720239
04850KAOH AOH20160724211010807/24/16 21:10:31  5-MIN KAOH 250210Z AUTO 19007KT 10SM CLR 27/24 A2996 940 82 2600 200/07 RMK AO2 T02720239
04850KAOH AOH20160724211510807/24/16 21:15:31  5-MIN KAOH 250215Z AUTO 19007KT 10SM CLR 27/24 A2996 940 82 2600 200/07 RMK AO2 T02720239
04850KAOH AOH20160724212010807/24/16 21:20:31  5-MIN KAOH 250220Z AUTO 19007KT 10SM CLR 27/24 A2996 940 82 2600 190/07 RMK AO2 T02720239
04850KAOH AOH20160724212510807/24/16 21:25:31  5-MIN KAOH 250225Z AUTO 18006KT 10SM CLR 27/24 A2996 940 82 2600 190/06 RMK AO2 T02720239
04850KAOH AOH20160724213010807/24/16 21:30:31  5-MIN KAOH 250230Z AUTO 18006KT 10SM CLR 27/24 A2996 940 84 2500 190/06 RMK AO2 T02670239
04850KAOH AOH20160724213510807/24/16 21:35:31  5-MIN KAOH 250235Z AUTO 18006KT 10SM CLR 27/24 A2996 940 84 2500 190/06 RMK AO2 T02670239
04850KAOH AOH20160724214010807/24/16 21:40:31  5-MIN KAOH 250240Z AUTO 18007KT 10SM CLR 27/24 A2996 940 84 2500 190/07 RMK AO2 T02670239
04850KAOH AOH20160724214510807/24/16 21:45:31  5-MIN KAOH 250245Z AUTO 18006KT 10SM CLR 27/24 A2996 940 84 2500 180/06 RMK AO2 T02670239
04850KAOH AOH20160724215012107/24/16 21:50:31  5-MIN KAOH 250250Z AUTO 17005KT 10SM CLR 26/24 A2996 940 87 2500 180/05 RMK AO2 SLP136 T02610239 56009
04850KAOH AOH20160724215510807/24/16 21:55:31  5-MIN KAOH 250255Z AUTO 16006KT 10SM CLR 26/24 A2996 940 87 2500 170/06 RMK AO2 T02610239
04850KAOH AOH20160724220010807/24/16 22:00:31  5-MIN KAOH 250300Z AUTO 16007KT 10SM CLR 26/24 A2996 940 90 2400 170/07 RMK AO2 T02560239
04850KAOH AOH20160724220510807/24/16 22:05:31  5-MIN KAOH 250305Z AUTO 17007KT 10SM CLR 26/24 A2996 940 90 2400 170/07 RMK AO2 T02560239
04850KAOH AOH20160724221010807/24/16 22:10:31  5-MIN KAOH 250310Z AUTO 17005KT 10SM CLR 26/24 A2996 940 90 2400 180/05 RMK AO2 T02560239
04850KAOH AOH20160724221510807/24/16 22:15:31  5-MIN KAOH 250315Z AUTO 17006KT 10SM CLR 26/23 A2995 950 84 2500 180/06 RMK AO2 T02610233
04850KAOH AOH20160724222010807/24/16 22:20:31  5-MIN KAOH 250320Z AUTO 17006KT 10SM CLR 26/23 A2995 950 84 2500 180/06 RMK AO2 T02610233
04850KAOH AOH20160724222510807/24/16 22:25:31  5-MIN KAOH 250325Z AUTO 17006KT 10SM CLR 26/23 A2995 950 84 2500 180/06 RMK AO2 T02610233
04850KAOH AOH20160724223010807/24/16 22:30:31  5-MIN KAOH 250330Z AUTO 18006KT 10SM CLR 26/23 A2995 950 84 2500 180/06 RMK AO2 T02610233
04850KAOH AOH20160724223510807/24/16 22:35:31  5-MIN KAOH 250335Z AUTO 18005KT 10SM CLR 26/23 A2995 950 84 2500 180/05 RMK AO2 T02610233
04850KAOH AOH20160724224010807/24/16 22:40:31  5-MIN KAOH 250340Z AUTO 17006KT 10SM CLR 26/23 A2995 950 84 2500 180/06 RMK AO2 T02610233
04850KAOH AOH20160724224510807/24/16 22:45:31  5-MIN KAOH 250345Z AUTO 18005KT 10SM CLR 26/23 A2995 950 84 2500 190/05 RMK AO2 T02610233
04850KAOH AOH20160724225011507/24/16 22:50:31  5-MIN KAOH 250350Z AUTO 18006KT 10SM CLR 26/23 A2995 950 84 2500 190/06 RMK AO2 SLP133 T02610233
04850KAOH AOH20160724225510807/24/16 22:55:31  5-MIN KAOH 250355Z AUTO 19007KT 10SM CLR 26/23 A2995 950 84 2500 190/07 RMK AO2 T02610233
04850KAOH AOH20160724230010807/24/16 23:00:31  5-MIN KAOH 250400Z AUTO 19007KT 10SM CLR 27/23 A2996 940 82 2500 200/07 RMK AO2 T02670233
04850KAOH AOH20160724230510807/24/16 23:05:31  5-MIN KAOH 250405Z AUTO 19007KT 10SM CLR 27/24 A2996 940 84 2500 200/07 RMK AO2 T02670239
04850KAOH AOH20160724231010807/24/16 23:10:31  5-MIN KAOH 250410Z AUTO 19007KT 10SM CLR 27/24 A2995 950 84 2500 200/07 RMK AO2 T02670239
04850KAOH AOH20160724231510807/24/16 23:15:31  5-MIN KAOH 250415Z AUTO 19007KT 10SM CLR 27/24 A2996 940 84 2500 200/07 RMK AO2 T02670239
04850KAOH AOH20160724232010807/24/16 23:20:31  5-MIN KAOH 250420Z AUTO 19008KT 10SM CLR 27/24 A2995 950 84 2500 200/08 RMK AO2 T02670239
04850KAOH AOH20160724232510807/24/16 23:25:31  5-MIN KAOH 250425Z AUTO 19008KT 10SM CLR 27/24 A2996 940 84 2500 200/08 RMK AO2 T02670239
04850KAOH AOH20160724233010807/24/16 23:30:31  5-MIN KAOH 250430Z AUTO 19008KT 10SM CLR 27/24 A2996 940 84 2500 200/08 RMK AO2 T02670239
04850KAOH AOH20160724233510807/24/16 23:35:31  5-MIN KAOH 250435Z AUTO 19008KT 10SM CLR 27/24 A2996 940 84 2500 200/08 RMK AO2 T02670239
04850KAOH AOH20160724234010807/24/16 23:40:31  5-MIN KAOH 250440Z AUTO 19008KT 10SM CLR 26/24 A2997 940 87 2500 200/08 RMK AO2 T02610239
04850KAOH AOH20160724234510807/24/16 23:45:31  5-MIN KAOH 250445Z AUTO 20007KT 10SM CLR 27/24 A2997 930 84 2500 200/07 RMK AO2 T02670239
04850KAOH AOH20160724235012507/24/16 23:50:31  5-MIN KAOH 250450Z AUTO 20007KT 10SM CLR 27/24 A2997 930 84 2500 210/07 RMK AO2 SLP140 T02670239 403170222
04850KAOH AOH20160724235510807/24/16 23:55:31  5-MIN KAOH 250455Z AUTO 20007KT 10SM CLR 26/24 A2997 930 87 2500 210/07 RMK AO2 T02610239
04850KAOH AOH20160725000010807/25/16 00:00:31  5-MIN KAOH 250500Z AUTO 20007KT 10SM CLR 26/24 A2997 930 87 2500 210/07 RMK AO2 T02610239
04850KAOH AOH20160725000510807/25/16 00:05:31  5-MIN KAOH 250505Z AUTO 20008KT 10SM CLR 26/24 A2998 930 87 2500 200/08 RMK AO2 T02610239
04850KAOH AOH20160725001010807/25/16 00:10:31  5-MIN KAOH 250510Z AUTO 20007KT 10SM CLR 26/24 A2998 930 87 2500 200/07 RMK AO2 T02610239
04850KAOH AOH20160725001511307/25/16 00:15:31  5-MIN KAOH 250515Z AUTO 20007KT 10SM CLR 26/24 A2998 920 87 2500 210/07 RMK AO2 T02610239 TSNO
04850KAOH AOH20160725002010807/25/16 00:20:31  5-MIN KAOH 250520Z AUTO 20007KT 10SM CLR 26/24 A2998 920 87 2500 210/07 RMK AO2 T02610239
04850KAOH AOH20160725002510807/25/16 00:25:31  5-MIN KAOH 250525Z AUTO 20008KT 10SM CLR 26/24 A2998 920 87 2500 210/08 RMK AO2 T02610239
04850KAOH AOH20160725003010807/25/16 00:30:31  5-MIN KAOH 250530Z AUTO 21007KT 10SM CLR 26/24 A2998 920 87 2500 210/07 RMK AO2 T02610239
04850KAOH AOH20160725003510807/25/16 00:35:31  5-MIN KAOH 250535Z AUTO 22007KT 10SM CLR 26/24 A2998 920 87 2400 220/07 RMK AO2 T02610239
04850KAOH AOH20160725004010807/25/16 00:40:31  5-MIN KAOH 250540Z AUTO 22008KT 10SM CLR 26/24 A2998 920 90 2500 220/08 RMK AO2 T02610244
04850KAOH AOH20160725004510807/25/16 00:45:31  5-MIN KAOH 250545Z AUTO 22008KT 10SM CLR 26/24 A2998 920 90 2500 220/08 RMK AO2 T02610244
04850KAOH AOH20160725005013307/25/16 00:50:31  5-MIN KAOH 250550Z AUTO 22008KT 10SM CLR 26/24 A2998 920 90 2500 220/08 RMK AO2 SLP141 T02610244 10289 20256 53002
04850KAOH AOH20160725005510807/25/16 00:55:31  5-MIN KAOH 250555Z AUTO 22007KT 10SM CLR 26/24 A2998 930 90 2500 220/07 RMK AO2 T02610244
04850KAOH AOH20160725010010807/25/16 01:00:31  5-MIN KAOH 250600Z AUTO 22008KT 10SM CLR 26/24 A2997 930 90 2500 220/08 RMK AO2 T02610244
04850KAOH AOH20160725010510807/25/16 01:05:31  5-MIN KAOH 250605Z AUTO 22007KT 10SM CLR 26/24 A2997 930 90 2500 230/07 RMK AO2 T02610244
04850KAOH AOH20160725011010807/25/16 01:10:31  5-MIN KAOH 250610Z AUTO 22007KT 10SM CLR 26/24 A2997 930 90 2500 230/07 RMK AO2 T02610244
04850KAOH AOH20160725011510807/25/16 01:15:31  5-MIN KAOH 250615Z AUTO 22006KT 10SM CLR 26/24 A2997 930 90 2500 230/06 RMK AO2 T02610244
04850KAOH AOH20160725012010807/25/16 01:20:31  5-MIN KAOH 250620Z AUTO 23007KT 10SM CLR 26/24 A2997 930 90 2500 230/07 RMK AO2 T02610244
04850KAOH AOH20160725012510807/25/16 01:25:31  5-MIN KAOH 250625Z AUTO 22007KT 10SM CLR 26/24 A2997 940 90 2500 230/07 RMK AO2 T02610244
04850KAOH AOH20160725013010807/25/16 01:30:31  5-MIN KAOH 250630Z AUTO 22007KT 10SM CLR 26/24 A2996 940 90 2500 230/07 RMK AO2 T02610244
04850KAOH AOH20160725013510807/25/16 01:35:31  5-MIN KAOH 250635Z AUTO 22008KT 10SM CLR 26/24 A2996 940 90 2500 230/08 RMK AO2 T02610244
04850KAOH AOH20160725014010807/25/16 01:40:31  5-MIN KAOH 250640Z AUTO 22007KT 10SM CLR 26/24 A2996 940 90 2500 230/07 RMK AO2 T02610244
04850KAOH AOH20160725014510807/25/16 01:45:31  5-MIN KAOH 250645Z AUTO 22007KT 10SM CLR 26/24 A2996 940 90 2500 230/07 RMK AO2 T02610244
04850KAOH AOH20160725015011507/25/16 01:50:31  5-MIN KAOH 250650Z AUTO 22007KT 10SM CLR 26/24 A2996 940 90 2500 230/07 RMK AO2 SLP135 T02610244
04850KAOH AOH20160725015511307/25/16 01:55:31  5-MIN KAOH 250655Z AUTO 22007KT 10SM CLR 26/24 A2995 950 90 2500 220/07 RMK AO2 T02610244 TSNO
04850KAOH AOH20160725020010807/25/16 02:00:31  5-MIN KAOH 250700Z AUTO 20007KT 10SM CLR 26/24 A2995 950 90 2500 210/07 RMK AO2 T02610244
04850KAOH AOH20160725020510807/25/16 02:05:31  5-MIN KAOH 250705Z AUTO 20008KT 10SM CLR 26/24 A2995 950 90 2500 210/08 RMK AO2 T02610244
04850KAOH AOH20160725021010807/25/16 02:10:31  5-MIN KAOH 250710Z AUTO 20007KT 10SM CLR 26/24 A2995 950 90 2500 200/07 RMK AO2 T02610244
04850KAOH AOH20160725021510807/25/16 02:15:31  5-MIN KAOH 250715Z AUTO 20007KT 10SM CLR 26/24 A2995 950 90 2500 210/07 RMK AO2 T02610244
04850KAOH AOH20160725022010807/25/16 02:20:31  5-MIN KAOH 250720Z AUTO 20007KT 10SM CLR 26/24 A2994 960 93 2400 210/07 RMK AO2 T02560244
04850KAOH AOH20160725022510707/25/16 02:25:31  5-MIN KAOH 250725Z AUTO 21008KT 9SM CLR 26/24 A2994 960 90 2500 210/08 RMK AO2 T02610244
04850KAOH AOH20160725023010707/25/16 02:30:31  5-MIN KAOH 250730Z AUTO 22007KT 9SM CLR 26/24 A2994 960 90 2500 220/07 RMK AO2 T02610244
04850KAOH AOH20160725023510707/25/16 02:35:31  5-MIN KAOH 250735Z AUTO 22006KT 9SM CLR 26/24 A2994 960 90 2500 220/06 RMK AO2 T02610244
04850KAOH AOH20160725024010707/25/16 02:40:31  5-MIN KAOH 250740Z AUTO 22008KT 9SM CLR 26/24 A2994 960 90 2500 230/08 RMK AO2 T02610244
04850KAOH AOH20160725024510707/25/16 02:45:31  5-MIN KAOH 250745Z AUTO 22006KT 9SM CLR 26/24 A2993 960 90 2500 220/06 RMK AO2 T02610244
04850KAOH AOH20160725025011407/25/16 02:50:31  5-MIN KAOH 250750Z AUTO 21007KT 9SM CLR 26/24 A2993 960 93 2400 220/07 RMK AO2 SLP126 T02560244
04850KAOH AOH20160725025510707/25/16 02:55:31  5-MIN KAOH 250755Z AUTO 23006KT 9SM CLR 26/24 A2994 960 93 2400 230/06 RMK AO2 T02560244
04850KAOH AOH20160725030010707/25/16 03:00:31  5-MIN KAOH 250800Z AUTO 24007KT 9SM CLR 26/24 A2994 960 93 2400 240/07 RMK AO2 T02560244
04850KAOH AOH20160725030511007/25/16 03:05:31  5-MIN KAOH 250805Z AUTO 25007KT 9SM FEW017 26/24 A2995 950 93 2400 250/07 RMK AO2 T02560244
04850KAOH AOH20160725031011007/25/16 03:10:31  5-MIN KAOH 250810Z AUTO 25009KT 9SM SCT017 26/24 A2995 950 93 2400 250/09 RMK AO2 T02560244
04850KAOH AOH20160725031511007/25/16 03:15:31  5-MIN KAOH 250815Z AUTO 25009KT 9SM SCT017 26/24 A2995 950 90 2500 250/09 RMK AO2 T02610244
04850KAOH AOH20160725032011007/25/16 03:20:31  5-MIN KAOH 250820Z AUTO 24007KT 9SM SCT017 26/24 A2995 950 93 2400 250/07 RMK AO2 T02560244
04850KAOH AOH20160725032511007/25/16 03:25:31  5-MIN KAOH 250825Z AUTO 24009KT 9SM FEW017 26/24 A2995 950 93 2400 240/09 RMK AO2 T02560244
04850KAOH AOH20160725033011007/25/16 03:30:31  5-MIN KAOH 250830Z AUTO 24008KT 9SM FEW017 26/24 A2995 950 93 2400 250/08 RMK AO2 T02560244
04850KAOH AOH20160725033511007/25/16 03:35:31  5-MIN KAOH 250835Z AUTO 24006KT 9SM FEW017 26/24 A2996 950 93 2400 250/06 RMK AO2 T02560244
04850KAOH AOH20160725034011007/25/16 03:40:31  5-MIN KAOH 250840Z AUTO 24007KT 9SM FEW017 26/24 A2996 940 93 2400 250/07 RMK AO2 T02560244
04850KAOH AOH20160725034510707/25/16 03:45:31  5-MIN KAOH 250845Z AUTO 25008KT 8SM CLR 25/24 A2996 940 97 2300 260/08 RMK AO2 T02500244
04850KAOH AOH20160725035012007/25/16 03:50:31  5-MIN KAOH 250850Z AUTO 25008KT 8SM CLR 25/24 A2996 940 97 2400 260/08 RMK AO2 SLP135 T02500244 53006
04850KAOH AOH20160725035510707/25/16 03:55:31  5-MIN KAOH 250855Z AUTO 26008KT 7SM CLR 25/24 A2996 940 97 2400 260/08 RMK AO2 T02500244
04850KAOH AOH20160725040010707/25/16 04:00:31  5-MIN KAOH 250900Z AUTO 26008KT 7SM CLR 25/24 A2996 940 93 2300 260/08 RMK AO2 T02500239
04850KAOH AOH20160725040510707/25/16 04:05:31  5-MIN KAOH 250905Z AUTO 26010KT 8SM CLR 25/24 A2996 940 93 2300 270/10 RMK AO2 T02500239
04850KAOH AOH20160725041010707/25/16 04:10:31  5-MIN KAOH 250910Z AUTO 26009KT 9SM CLR 24/23 A2997 930 93 2300 270/09 RMK AO2 T02440233
04850KAOH AOH20160725041510807/25/16 04:15:31  5-MIN KAOH 250915Z AUTO 27009KT 10SM CLR 24/23 A2997 940 90 2300 280/09 RMK AO2 T02440228
04850KAOH AOH20160725042010807/25/16 04:20:31  5-MIN KAOH 250920Z AUTO 27010KT 10SM CLR 24/22 A2996 940 84 2300 280/10 RMK AO2 T02440217
04850KAOH AOH20160725042510807/25/16 04:25:31  5-MIN KAOH 250925Z AUTO 28008KT 10SM CLR 24/21 A2996 940 81 2300 290/08 RMK AO2 T02440211
04850KAOH AOH20160725043010807/25/16 04:30:31  5-MIN KAOH 250930Z AUTO 27007KT 10SM CLR 24/21 A2996 940 81 2300 280/07 RMK AO2 T02440211
04850KAOH AOH20160725043510807/25/16 04:35:31  5-MIN KAOH 250935Z AUTO 27007KT 10SM CLR 24/21 A2996 940 81 2200 270/07 RMK AO2 T02390206
04850KAOH AOH20160725044010807/25/16 04:40:31  5-MIN KAOH 250940Z AUTO 27006KT 10SM CLR 24/21 A2996 940 81 2200 270/06 RMK AO2 T02390206
04850KAOH AOH20160725044510807/25/16 04:45:31  5-MIN KAOH 250945Z AUTO 27006KT 10SM CLR 23/21 A2995 950 87 2200 280/06 RMK AO2 T02330211
04850KAOH AOH20160725045011507/25/16 04:50:31  5-MIN KAOH 250950Z AUTO 27006KT 10SM CLR 23/21 A2995 950 87 2200 270/06 RMK AO2 SLP133 T02330211
04850KAOH AOH20160725045510807/25/16 04:55:31  5-MIN KAOH 250955Z AUTO 27005KT 10SM CLR 23/22 A2995 950 93 2100 280/05 RMK AO2 T02280217
04850KAOH AOH20160725050010807/25/16 05:00:31  5-MIN KAOH 251000Z AUTO 27004KT 10SM CLR 23/22 A2995 950 93 2100 270/04 RMK AO2 T02280217
04850KAOH AOH20160725050510807/25/16 05:05:31  5-MIN KAOH 251005Z AUTO 26004KT 10SM CLR 23/22 A2995 950 93 2100 260/04 RMK AO2 T02280217
04850KAOH AOH20160725051010807/25/16 05:10:31  5-MIN KAOH 251010Z AUTO 26004KT 10SM CLR 23/21 A2996 950 90 2100 260/04 RMK AO2 T02280211
04850KAOH AOH20160725051510807/25/16 05:15:31  5-MIN KAOH 251015Z AUTO 25004KT 10SM CLR 23/21 A2996 940 90 2100 250/04 RMK AO2 T02280211
04850KAOH AOH20160725052010807/25/16 05:20:31  5-MIN KAOH 251020Z AUTO 22004KT 10SM CLR 23/21 A2996 940 90 2100 220/04 RMK AO2 T02280211
04850KAOH AOH20160725052510807/25/16 05:25:31  5-MIN KAOH 251025Z AUTO 20004KT 10SM CLR 23/22 A2996 940 93 2100 200/04 RMK AO2 T02280217
04850KAOH AOH20160725053010807/25/16 05:30:31  5-MIN KAOH 251030Z AUTO 21004KT 10SM CLR 23/22 A2996 940 93 2100 220/04 RMK AO2 T02280217
04850KAOH AOH20160725053510807/25/16 05:35:31  5-MIN KAOH 251035Z AUTO 22005KT 10SM CLR 23/21 A2997 940 90 2100 220/05 RMK AO2 T02280211
04850KAOH AOH20160725054010807/25/16 05:40:31  5-MIN KAOH 251040Z AUTO 22006KT 10SM CLR 23/21 A2997 930 90 2100 230/06 RMK AO2 T02280211
04850KAOH AOH20160725054510807/25/16 05:45:31  5-MIN KAOH 251045Z AUTO 24006KT 10SM CLR 23/21 A2998 930 87 2100 240/06 RMK AO2 T02280206
04850KAOH AOH20160725055011507/25/16 05:50:31  5-MIN KAOH 251050Z AUTO 25006KT 10SM CLR 23/21 A2998 920 87 2100 250/06 RMK AO2 SLP143 T02280206
04850KAOH AOH20160725055510807/25/16 05:55:31  5-MIN KAOH 251055Z AUTO 24006KT 10SM CLR 23/21 A2998 920 87 2100 250/06 RMK AO2 T02280206
04850KAOH AOH20160725060010807/25/16 06:00:31  5-MIN KAOH 251100Z AUTO 25006KT 10SM CLR 23/21 A2998 920 87 2100 250/06 RMK AO2 T02280206
04850KAOH AOH20160725060510807/25/16 06:05:31  5-MIN KAOH 251105Z AUTO 25005KT 10SM CLR 23/21 A2998 920 90 2100 260/05 RMK AO2 T02280211
04850KAOH AOH20160725061010807/25/16 06:10:31  5-MIN KAOH 251110Z AUTO 25006KT 10SM CLR 23/21 A2998 920 90 2100 260/06 RMK AO2 T02280211
04850KAOH AOH20160725061510807/25/16 06:15:31  5-MIN KAOH 251115Z AUTO 24005KT 10SM CLR 23/21 A2999 920 87 2100 240/05 RMK AO2 T02330211
04850KAOH AOH20160725062010807/25/16 06:20:31  5-MIN KAOH 251120Z AUTO 24006KT 10SM CLR 23/21 A2998 920 87 2100 240/06 RMK AO2 T02330211
04850KAOH AOH20160725062510807/25/16 06:25:31  5-MIN KAOH 251125Z AUTO 23006KT 10SM CLR 23/21 A2998 920 87 2100 240/06 RMK AO2 T02330211
04850KAOH AOH20160725063010807/25/16 06:30:31  5-MIN KAOH 251130Z AUTO 22005KT 10SM CLR 24/21 A2999 920 84 2200 230/05 RMK AO2 T02390211
04850KAOH AOH20160725063510807/25/16 06:35:31  5-MIN KAOH 251135Z AUTO 23006KT 10SM CLR 24/21 A2999 910 84 2200 230/06 RMK AO2 T02390211
04850KAOH AOH20160725064010807/25/16 06:40:31  5-MIN KAOH 251140Z AUTO 24006KT 10SM CLR 24/21 A2999 910 84 2200 250/06 RMK AO2 T02390211
04850KAOH AOH20160725064510807/25/16 06:45:31  5-MIN KAOH 251145Z AUTO 26007KT 10SM CLR 24/22 A3000 910 87 2200 260/07 RMK AO2 T02390217
04850KAOH AOH20160725065013307/25/16 06:50:31  5-MIN KAOH 251150Z AUTO 25007KT 10SM CLR 24/22 A3000 910 87 2200 260/07 RMK AO2 SLP149 T02390217 10261 20228 55005
04850KAOH AOH20160725065510807/25/16 06:55:31  5-MIN KAOH 251155Z AUTO 25007KT 10SM CLR 24/22 A3000 900 87 2200 260/07 RMK AO2 T02390217
04850KAOH AOH20160725070010807/25/16 07:00:31  5-MIN KAOH 251200Z AUTO 25007KT 10SM CLR 24/22 A3000 910 84 2200 250/07 RMK AO2 T02440217
04850KAOH AOH20160725070510807/25/16 07:05:31  5-MIN KAOH 251205Z AUTO 24008KT 10SM CLR 24/22 A3000 910 84 2200 250/08 RMK AO2 T02440217
04850KAOH AOH20160725071010807/25/16 07:10:31  5-MIN KAOH 251210Z AUTO 25008KT 10SM CLR 24/21 A3000 910 81 2200 250/08 RMK AO2 T02440211
04850KAOH AOH20160725071510807/25/16 07:15:31  5-MIN KAOH 251215Z AUTO 25007KT 10SM CLR 24/21 A2999 910 81 2200 250/07 RMK AO2 T02440211
04850KAOH AOH20160725072010807/25/16 07:20:31  5-MIN KAOH 251220Z AUTO 26007KT 10SM CLR 24/22 A3000 910 84 2200 270/07 RMK AO2 T02440217
04850KAOH AOH20160725072510807/25/16 07:25:31  5-MIN KAOH 251225Z AUTO 26008KT 10SM CLR 24/22 A3000 900 84 2200 260/08 RMK AO2 T02440217
04850KAOH AOH20160725073010807/25/16 07:30:31  5-MIN KAOH 251230Z AUTO 26009KT 10SM CLR 24/22 A3000 900 84 2200 270/09 RMK AO2 T02440217
04850KAOH AOH20160725073510807/25/16 07:35:31  5-MIN KAOH 251235Z AUTO 26008KT 10SM CLR 25/22 A3000 900 81 2300 270/08 RMK AO2 T02500217
04850KAOH AOH20160725074010807/25/16 07:40:31  5-MIN KAOH 251240Z AUTO 26006KT 10SM CLR 25/22 A3000 900 81 2300 270/06 RMK AO2 T02500217
04850KAOH AOH20160725074510807/25/16 07:45:31  5-MIN KAOH 251245Z AUTO 26009KT 10SM CLR 25/22 A3000 900 81 2300 270/09 RMK AO2 T02500217
04850KAOH AOH20160725075011507/25/16 07:50:31  5-MIN KAOH 251250Z AUTO 26007KT 10SM CLR 25/22 A3000 900 81 2300 270/07 RMK AO2 SLP150 T02500217
04850KAOH AOH20160725075510807/25/16 07:55:31  5-MIN KAOH 251255Z AUTO 27007KT 10SM CLR 25/22 A3000 910 81 2300 270/07 RMK AO2 T02500217
04850KAOH AOH20160725080010807/25/16 08:00:31  5-MIN KAOH 251300Z AUTO 27007KT 10SM CLR 25/21 A3000 910 79 2300 280/07 RMK AO2 T02500211
04850KAOH AOH20160725080510807/25/16 08:05:31  5-MIN KAOH 251305Z AUTO 25007KT 10SM CLR 26/22 A2999 910 79 2400 250/07 RMK AO2 T02560217
04850KAOH AOH20160725081010807/25/16 08:10:31  5-MIN KAOH 251310Z AUTO 27004KT 10SM CLR 26/21 A2999 910 76 2400 270/04 RMK AO2 T02560211
04850KAOH AOH20160725081510807/25/16 08:15:31  5-MIN KAOH 251315Z AUTO 25005KT 10SM CLR 26/22 A2999 910 76 2400 260/05 RMK AO2 T02610217
04850KAOH AOH20160725082010807/25/16 08:20:31  5-MIN KAOH 251320Z AUTO 26006KT 10SM CLR 26/21 A2999 910 73 2400 270/06 RMK AO2 T02610211
04850KAOH AOH20160725082510807/25/16 08:25:31  5-MIN KAOH 251325Z AUTO 30008KT 10SM CLR 26/20 A3000 910 71 2400 310/08 RMK AO2 T02560200
04850KAOH AOH20160725083010807/25/16 08:30:31  5-MIN KAOH 251330Z AUTO 30008KT 10SM CLR 26/20 A2999 910 71 2400 310/08 RMK AO2 T02560200
04850KAOH AOH20160725083510807/25/16 08:35:31  5-MIN KAOH 251335Z AUTO 30006KT 10SM CLR 26/21 A2999 910 73 2400 310/06 RMK AO2 T02560206
04850KAOH AOH20160725084010807/25/16 08:40:31  5-MIN KAOH 251340Z AUTO 29006KT 10SM CLR 26/21 A3000 910 71 2400 290/06 RMK AO2 T02610206
04850KAOH AOH20160725084511107/25/16 08:45:31  5-MIN KAOH 251345Z AUTO 29008KT 10SM FEW055 26/21 A3000 900 71 2400 300/08 RMK AO2 T02610206
04850KAOH AOH20160725085011807/25/16 08:50:31  5-MIN KAOH 251350Z AUTO 30007KT 10SM SCT060 26/21 A3000 900 71 2400 310/07 RMK AO2 SLP151 T02610206
04850KAOH AOH20160725085511107/25/16 08:55:31  5-MIN KAOH 251355Z AUTO 28006KT 10SM BKN060 26/21 A3000 900 73 2400 290/06 RMK AO2 T02560206
04850KAOH AOH20160725090011107/25/16 09:00:31  5-MIN KAOH 251400Z AUTO 28005KT 10SM BKN060 26/21 A3000 900 73 2400 290/05 RMK AO2 T02560206
04850KAOH AOH20160725090511107/25/16 09:05:31  5-MIN KAOH 251405Z AUTO 27004KT 10SM SCT060 26/21 A2999 910 73 2400 280/04 RMK AO2 T02560206
04850KAOH AOH20160725091011107/25/16 09:10:31  5-MIN KAOH 251410Z AUTO 28004KT 10SM SCT060 26/21 A2999 910 73 2400 280/04 RMK AO2 T02560206
04850KAOH AOH20160725091511107/25/16 09:15:31  5-MIN KAOH 251415Z AUTO 28005KT 10SM FEW060 25/21 A3000 900 76 2300 280/05 RMK AO2 T02500206
04850KAOH AOH20160725092011107/25/16 09:20:31  5-MIN KAOH 251420Z AUTO 29006KT 10SM FEW060 25/21 A3001 900 79 2300 290/06 RMK AO2 T02500211
04850KAOH AOH20160725092510807/25/16 09:25:31  5-MIN KAOH 251425Z AUTO 30007KT 10SM CLR 26/21 A3001 900 76 2400 300/07 RMK AO2 T02560211
04850KAOH AOH20160725093010807/25/16 09:30:31  5-MIN KAOH 251430Z AUTO 30009KT 10SM CLR 25/21 A3001 890 76 2300 310/09 RMK AO2 T02500206
04850KAOH AOH20160725093510807/25/16 09:35:31  5-MIN KAOH 251435Z AUTO 28009KT 10SM CLR 25/20 A3001 890 73 2300 290/09 RMK AO2 T02500200
04850KAOH AOH20160725094010807/25/16 09:40:31  5-MIN KAOH 251440Z AUTO 29006KT 10SM CLR 25/20 A3001 890 73 2300 300/06 RMK AO2 T02500200
04850KAOH AOH20160725094510807/25/16 09:45:31  5-MIN KAOH 251445Z AUTO 29009KT 10SM CLR 25/20 A3002 890 73 2300 290/09 RMK AO2 T02500200
04850KAOH AOH20160725095012107/25/16 09:50:31  5-MIN KAOH 251450Z AUTO 30010KT 10SM CLR 25/19 A3001 890 71 2300 300/10 RMK AO2 SLP156 T02500194 53013
04850KAOH AOH20160725095510807/25/16 09:55:31  5-MIN KAOH 251455Z AUTO 30007KT 10SM CLR 25/20 A3002 890 73 2300 300/07 RMK AO2 T02500200
04850KAOH AOH20160725100010807/25/16 10:00:31  5-MIN KAOH 251500Z AUTO 28007KT 10SM CLR 25/20 A3002 880 73 2300 290/07 RMK AO2 T02500200
04850KAOH AOH20160725100510807/25/16 10:05:31  5-MIN KAOH 251505Z AUTO 28008KT 10SM CLR 25/20 A3002 880 73 2300 290/08 RMK AO2 T02500200
04850KAOH AOH20160725101010807/25/16 10:10:31  5-MIN KAOH 251510Z AUTO 31008KT 10SM CLR 26/21 A3002 890 71 2400 320/08 RMK AO2 T02610206
04850KAOH AOH20160725101510807/25/16 10:15:31  5-MIN KAOH 251515Z AUTO 31009KT 10SM CLR 26/20 A3002 890 68 2400 320/09 RMK AO2 T02610200
04850KAOH AOH20160725102010807/25/16 10:20:31  5-MIN KAOH 251520Z AUTO 29008KT 10SM CLR 26/21 A3002 880 71 2400 300/08 RMK AO2 T02610206
04850KAOH AOH20160725102510807/25/16 10:25:31  5-MIN KAOH 251525Z AUTO 30008KT 10SM CLR 27/20 A3002 890 66 2500 310/08 RMK AO2 T02670200
04850KAOH AOH20160725103010807/25/16 10:30:31  5-MIN KAOH 251530Z AUTO 30007KT 10SM CLR 26/20 A3002 890 68 2400 300/07 RMK AO2 T02610200
04850KAOH AOH20160725103510807/25/16 10:35:31  5-MIN KAOH 251535Z AUTO 30006KT 10SM CLR 27/20 A3002 880 66 2500 300/06 RMK AO2 T02670200
04850KAOH AOH20160725104010807/25/16 10:40:31  5-MIN KAOH 251540Z AUTO 29006KT 10SM CLR 27/21 A3002 880 69 2500 300/06 RMK AO2 T02670206
04850KAOH AOH20160725104510807/25/16 10:45:31  5-MIN KAOH 251545Z AUTO 28007KT 10SM CLR 26/20 A3002 880 68 2400 290/07 RMK AO2 T02610200
04850KAOH AOH20160725105011507/25/16 10:50:31  5-MIN KAOH 251550Z AUTO 29007KT 10SM CLR 26/20 A3002 880 68 2400 300/07 RMK AO2 SLP157 T02610200
04850KAOH AOH20160725105510807/25/16 10:55:31  5-MIN KAOH 251555Z AUTO 29008KT 10SM CLR 26/20 A3003 880 68 2400 290/08 RMK AO2 T02610200
04850KAOH AOH20160725110010807/25/16 11:00:31  5-MIN KAOH 251600Z AUTO 28007KT 10SM CLR 26/20 A3002 880 68 2400 290/07 RMK AO2 T02610200
04850KAOH AOH20160725110510807/25/16 11:05:31  5-MIN KAOH 251605Z AUTO 27005KT 10SM CLR 27/20 A3002 880 66 2500 280/05 RMK AO2 T02670200
04850KAOH AOH20160725111010807/25/16 11:10:31  5-MIN KAOH 251610Z AUTO 28006KT 10SM CLR 27/20 A3002 880 66 2500 280/06 RMK AO2 T02670200
04850KAOH AOH20160725111510807/25/16 11:15:31  5-MIN KAOH 251615Z AUTO 29007KT 10SM CLR 26/20 A3002 880 68 2400 290/07 RMK AO2 T02610200
04850KAOH AOH20160725112010807/25/16 11:20:31  5-MIN KAOH 251620Z AUTO 28006KT 10SM CLR 27/20 A3002 880 66 2500 280/06 RMK AO2 T02670200
04850KAOH AOH20160725112510807/25/16 11:25:31  5-MIN KAOH 251625Z AUTO 27006KT 10SM CLR 27/20 A3003 880 66 2500 280/06 RMK AO2 T02670200
04850KAOH AOH20160725113010807/25/16 11:30:31  5-MIN KAOH 251630Z AUTO 26008KT 10SM CLR 27/20 A3003 880 66 2500 260/08 RMK AO2 T02670200
04850KAOH AOH20160725113510807/25/16 11:35:31  5-MIN KAOH 251635Z AUTO 25006KT 10SM CLR 27/19 A3003 880 64 2500 250/06 RMK AO2 T02670194
04850KAOH AOH20160725114010807/25/16 11:40:31  5-MIN KAOH 251640Z AUTO 25008KT 10SM CLR 27/19 A3002 880 64 2500 250/08 RMK AO2 T02670194
04850KAOH AOH20160725114510807/25/16 11:45:31  5-MIN KAOH 251645Z AUTO 23007KT 10SM CLR 27/19 A3002 880 64 2500 240/07 RMK AO2 T02670194
04850KAOH AOH20160725115011507/25/16 11:50:31  5-MIN KAOH 251650Z AUTO 23006KT 10SM CLR 27/19 A3002 880 64 2500 230/06 RMK AO2 SLP158 T02670194
04850KAOH AOH20160725115510807/25/16 11:55:31  5-MIN KAOH 251655Z AUTO 23006KT 10SM CLR 27/19 A3002 880 64 2500 230/06 RMK AO2 T02670194
04850KAOH AOH20160725120010807/25/16 12:00:31  5-MIN KAOH 251700Z AUTO 21006KT 10SM CLR 27/19 A3002 880 64 2500 220/06 RMK AO2 T02670194
04850KAOH AOH20160725120510807/25/16 12:05:31  5-MIN KAOH 251705Z AUTO 24006KT 10SM CLR 27/19 A3002 890 64 2500 240/06 RMK AO2 T02670194
04850KAOH AOH20160725121010807/25/16 12:10:31  5-MIN KAOH 251710Z AUTO 23005KT 10SM CLR 27/19 A3002 890 64 2500 240/05 RMK AO2 T02670194
04850KAOH AOH20160725121510807/25/16 12:15:31  5-MIN KAOH 251715Z AUTO 22005KT 10SM CLR 27/19 A3002 890 64 2500 230/05 RMK AO2 T02670194
04850KAOH AOH20160725122010807/25/16 12:20:31  5-MIN KAOH 251720Z AUTO 22006KT 10SM CLR 27/20 A3002 890 66 2500 220/06 RMK AO2 T02670200
04850KAOH AOH20160725122510807/25/16 12:25:31  5-MIN KAOH 251725Z AUTO 23005KT 10SM CLR 27/20 A3002 890 66 2500 230/05 RMK AO2 T02670200
04850KAOH AOH20160725123010807/25/16 12:30:31  5-MIN KAOH 251730Z AUTO 23007KT 10SM CLR 27/20 A3002 890 66 2500 230/07 RMK AO2 T02670200
04850KAOH AOH20160725123510807/25/16 12:35:31  5-MIN KAOH 251735Z AUTO 22007KT 10SM CLR 27/20 A3002 890 64 2500 230/07 RMK AO2 T02720200
04850KAOH AOH20160725124010807/25/16 12:40:31  5-MIN KAOH 251740Z AUTO 22007KT 10SM CLR 27/20 A3002 890 64 2500 230/07 RMK AO2 T02720200
04850KAOH AOH20160725124510807/25/16 12:45:31  5-MIN KAOH 251745Z AUTO 21006KT 10SM CLR 28/20 A3002 890 62 2600 220/06 RMK AO2 T02780200
04850KAOH AOH20160725125013307/25/16 12:50:31  5-MIN KAOH 251750Z AUTO 23006KT 10SM CLR 28/21 A3002 890 62 2700 240/06 RMK AO2 SLP155 T02830206 10283 20239 53006
04850KAOH AOH20160725125510807/25/16 12:55:31  5-MIN KAOH 251755Z AUTO 25006KT 10SM CLR 28/20 A3001 890 62 2600 260/06 RMK AO2 T02780200
04850KAOH AOH20160725130010807/25/16 13:00:31  5-MIN KAOH 251800Z AUTO 24006KT 10SM CLR 28/21 A3001 890 64 2600 240/06 RMK AO2 T02780206
04850KAOH AOH20160725130510807/25/16 13:05:31  5-MIN KAOH 251805Z AUTO 25007KT 10SM CLR 29/21 A3001 890 60 2700 250/07 RMK AO2 T02890206
04850KAOH AOH20160725131010807/25/16 13:10:31  5-MIN KAOH 251810Z AUTO VRB06KT 10SM CLR 29/21 A3001 900 60 2700 VRB/06 RMK AO2 T02890206
04850KAOH AOH20160725131510807/25/16 13:15:31  5-MIN KAOH 251815Z AUTO VRB05KT 10SM CLR 29/20 A3001 900 58 2700 VRB/05 RMK AO2 T02890200
04850KAOH AOH20160725132010807/25/16 13:20:31  5-MIN KAOH 251820Z AUTO 24010KT 10SM CLR 29/21 A3000 900 58 2800 240/10 RMK AO2 T02940206
04850KAOH AOH20160725132510807/25/16 13:25:31  5-MIN KAOH 251825Z AUTO 28006KT 10SM CLR 29/20 A3000 900 58 2700 290/06 RMK AO2 T02890200
04850KAOH AOH20160725133010807/25/16 13:30:31  5-MIN KAOH 251830Z AUTO 27008KT 10SM CLR 29/21 A3000 900 58 2800 280/08 RMK AO2 T02940206
04850KAOH AOH20160725133510807/25/16 13:35:31  5-MIN KAOH 251835Z AUTO 28007KT 10SM CLR 29/21 A3000 900 58 2800 290/07 RMK AO2 T02940206
04850KAOH AOH20160725134010807/25/16 13:40:31  5-MIN KAOH 251840Z AUTO VRB04KT 10SM CLR 29/21 A3000 900 58 2800 VRB/04 RMK AO2 T02940206
04850KAOH AOH20160725134510807/25/16 13:45:31  5-MIN KAOH 251845Z AUTO 26009KT 10SM CLR 29/21 A3000 900 58 2800 270/09 RMK AO2 T02940206
04850KAOH AOH20160725135011507/25/16 13:50:31  5-MIN KAOH 251850Z AUTO 24009KT 10SM CLR 29/20 A3000 910 56 2800 240/09 RMK AO2 SLP148 T02940200
04850KAOH AOH20160725135510807/25/16 13:55:31  5-MIN KAOH 251855Z AUTO 25006KT 10SM CLR 29/20 A2999 910 56 2800 260/06 RMK AO2 T02940200
04850KAOH AOH20160725140010807/25/16 14:00:31  5-MIN KAOH 251900Z AUTO 24007KT 10SM CLR 30/21 A2999 910 56 2900 240/07 RMK AO2 T03000206
04850KAOH AOH20160725140510807/25/16 14:05:31  5-MIN KAOH 251905Z AUTO 23009KT 10SM CLR 30/20 A2999 910 54 2900 240/09 RMK AO2 T03000200
04850KAOH AOH20160725141010807/25/16 14:10:31  5-MIN KAOH 251910Z AUTO 23010KT 10SM CLR 30/20 A2999 920 54 2900 230/10 RMK AO2 T03000200
04850KAOH AOH20160725141510807/25/16 14:15:31  5-MIN KAOH 251915Z AUTO 23008KT 10SM CLR 30/20 A2998 920 54 2900 240/08 RMK AO2 T03000200
04850KAOH AOH20160725142010807/25/16 14:20:31  5-MIN KAOH 251920Z AUTO 25009KT 10SM CLR 30/20 A2998 920 54 2900 250/09 RMK AO2 T03000200
04850KAOH AOH20160725142510807/25/16 14:25:31  5-MIN KAOH 251925Z AUTO 25005KT 10SM CLR 30/20 A2998 920 54 2900 250/05 RMK AO2 T03000200
04850KAOH AOH20160725143011407/25/16 14:30:31  5-MIN KAOH 251930Z AUTO 24009G14KT 10SM CLR 30/20 A2998 920 54 2900 240/09G14 RMK AO2 T03000200
04850KAOH AOH20160725143510807/25/16 14:35:31  5-MIN KAOH 251935Z AUTO 24008KT 10SM CLR 31/20 A2998 920 52 2900 250/08 RMK AO2 T03060200
04850KAOH AOH20160725144010807/25/16 14:40:31  5-MIN KAOH 251940Z AUTO 24009KT 10SM CLR 31/21 A2998 920 53 3000 250/09 RMK AO2 T03110206
04850KAOH AOH20160725144510807/25/16 14:45:31  5-MIN KAOH 251945Z AUTO 24009KT 10SM CLR 31/20 A2998 920 52 2900 240/09 RMK AO2 T03060200
04850KAOH AOH20160725145011507/25/16 14:50:31  5-MIN KAOH 251950Z AUTO 25007KT 10SM CLR 31/20 A2997 930 52 3000 250/07 RMK AO2 SLP140 T03060200
04850KAOH AOH20160725145510807/25/16 14:55:31  5-MIN KAOH 251955Z AUTO 25009KT 10SM CLR 31/21 A2997 930 54 3000 260/09 RMK AO2 T03060206
04850KAOH AOH20160725150011407/25/16 15:00:31  5-MIN KAOH 252000Z AUTO 25010G14KT 10SM CLR 31/21 A2997 930 54 3000 250/10G14 RMK AO2 T03060206
04850KAOH AOH20160725150511407/25/16 15:05:31  5-MIN KAOH 252005Z AUTO 28009G15KT 10SM CLR 31/21 A2997 930 54 3000 280/09G15 RMK AO2 T03060206
04850KAOH AOH20160725151010807/25/16 15:10:31  5-MIN KAOH 252010Z AUTO 25010KT 10SM CLR 31/21 A2997 930 56 3000 260/10 RMK AO2 T03060211
04850KAOH AOH20160725151510807/25/16 15:15:31  5-MIN KAOH 252015Z AUTO 26011KT 10SM CLR 31/21 A2997 930 56 3000 270/11 RMK AO2 T03060211
04850KAOH AOH20160725152010807/25/16 15:20:31  5-MIN KAOH 252020Z AUTO 27009KT 10SM CLR 31/21 A2997 930 54 3000 280/09 RMK AO2 T03110211
04850KAOH AOH20160725152510807/25/16 15:25:31  5-MIN KAOH 252025Z AUTO 29009KT 10SM CLR 31/22 A2997 930 58 3000 290/09 RMK AO2 T03060217
04850KAOH AOH20160725153010807/25/16 15:30:31  5-MIN KAOH 252030Z AUTO 31010KT 10SM CLR 30/22 A2996 940 60 2900 310/10 RMK AO2 T03000217
04850KAOH AOH20160725153510807/25/16 15:35:31  5-MIN KAOH 252035Z AUTO 31008KT 10SM CLR 30/22 A2996 940 60 2900 310/08 RMK AO2 T03000217
04850KAOH AOH20160725154010807/25/16 15:40:31  5-MIN KAOH 252040Z AUTO 30008KT 10SM CLR 31/22 A2996 940 60 3000 310/08 RMK AO2 T03060222
04850KAOH AOH20160725154510807/25/16 15:45:31  5-MIN KAOH 252045Z AUTO 29008KT 10SM CLR 31/22 A2996 940 60 3000 290/08 RMK AO2 T03060222
04850KAOH AOH20160725155012107/25/16 15:50:31  5-MIN KAOH 252050Z AUTO 30008KT 10SM CLR 31/23 A2996 940 62 3000 300/08 RMK AO2 SLP135 T03060228 58002
04850KAOH AOH20160725155510807/25/16 15:55:31  5-MIN KAOH 252055Z AUTO 30009KT 10SM CLR 30/22 A2996 940 60 2900 300/09 RMK AO2 T03000217
04850KAOH AOH20160725160010807/25/16 16:00:31  5-MIN KAOH 252100Z AUTO 29010KT 10SM CLR 30/22 A2996 940 60 2900 290/10 RMK AO2 T03000217
04850KAOH AOH20160725160510807/25/16 16:05:31  5-MIN KAOH 252105Z AUTO 29009KT 10SM CLR 30/22 A2996 940 62 2900 290/09 RMK AO2 T03000222
04850KAOH AOH20160725161010807/25/16 16:10:31  5-MIN KAOH 252110Z AUTO 29009KT 10SM CLR 30/22 A2996 940 62 2900 300/09 RMK AO2 T03000222
04850KAOH AOH20160725161510807/25/16 16:15:31  5-MIN KAOH 252115Z AUTO 28009KT 10SM CLR 30/22 A2996 940 62 2900 290/09 RMK AO2 T03000222
04850KAOH AOH20160725162010807/25/16 16:20:31  5-MIN KAOH 252120Z AUTO 29010KT 10SM CLR 30/22 A2996 940 60 2900 300/10 RMK AO2 T03000217
04850KAOH AOH20160725162510807/25/16 16:25:31  5-MIN KAOH 252125Z AUTO 28007KT 10SM CLR 29/22 A2996 940 64 2800 290/07 RMK AO2 T02940222
04850KAOH AOH20160725163010807/25/16 16:30:31  5-MIN KAOH 252130Z AUTO 29007KT 10SM CLR 29/22 A2996 940 64 2800 300/07 RMK AO2 T02940222
04850KAOH AOH20160725163510807/25/16 16:35:31  5-MIN KAOH 252135Z AUTO 28009KT 10SM CLR 30/22 A2996 940 62 2900 280/09 RMK AO2 T03000222
04850KAOH AOH20160725164010807/25/16 16:40:31  5-MIN KAOH 252140Z AUTO 28008KT 10SM CLR 30/23 A2996 940 65 2900 290/08 RMK AO2 T03000228
04850KAOH AOH20160725164510807/25/16 16:45:31  5-MIN KAOH 252145Z AUTO 30009KT 10SM CLR 30/23 A2996 940 65 2900 300/09 RMK AO2 T03000228
04850KAOH AOH20160725165011507/25/16 16:50:31  5-MIN KAOH 252150Z AUTO 31009KT 10SM CLR 29/22 A2996 940 64 2800 310/09 RMK AO2 SLP136 T02940222
04850KAOH AOH20160725165510807/25/16 16:55:31  5-MIN KAOH 252155Z AUTO 27009KT 10SM CLR 29/23 A2996 940 67 2800 280/09 RMK AO2 T02940228
04850KAOH AOH20160725170010807/25/16 17:00:31  5-MIN KAOH 252200Z AUTO 28008KT 10SM CLR 30/22 A2996 940 62 2900 280/08 RMK AO2 T03000222
04850KAOH AOH20160725170510807/25/16 17:05:31  5-MIN KAOH 252205Z AUTO 30008KT 10SM CLR 30/22 A2996 940 62 2900 300/08 RMK AO2 T03000222
04850KAOH AOH20160725171010807/25/16 17:10:31  5-MIN KAOH 252210Z AUTO 30008KT 10SM CLR 30/22 A2996 940 60 2900 300/08 RMK AO2 T03000217
04850KAOH AOH20160725171510807/25/16 17:15:31  5-MIN KAOH 252215Z AUTO 29007KT 10SM CLR 30/22 A2996 940 60 2900 300/07 RMK AO2 T03000217
04850KAOH AOH20160725172010807/25/16 17:20:31  5-MIN KAOH 252220Z AUTO 29010KT 10SM CLR 29/22 A2996 940 62 2900 300/10 RMK AO2 T02940217
04850KAOH AOH20160725172510807/25/16 17:25:31  5-MIN KAOH 252225Z AUTO 28011KT 10SM CLR 29/22 A2996 940 62 2900 280/11 RMK AO2 T02940217
04850KAOH AOH20160725173010807/25/16 17:30:31  5-MIN KAOH 252230Z AUTO 29009KT 10SM CLR 29/22 A2996 940 62 2800 300/09 RMK AO2 T02940217
04850KAOH AOH20160725173510807/25/16 17:35:31  5-MIN KAOH 252235Z AUTO 28009KT 10SM CLR 29/22 A2996 940 62 2800 290/09 RMK AO2 T02940217
04850KAOH AOH20160725174010807/25/16 17:40:31  5-MIN KAOH 252240Z AUTO 28009KT 10SM CLR 29/22 A2996 940 64 2800 290/09 RMK AO2 T02890217
04850KAOH AOH20160725174510807/25/16 17:45:31  5-MIN KAOH 252245Z AUTO 28007KT 10SM CLR 29/22 A2996 940 64 2800 290/07 RMK AO2 T02890217
04850KAOH AOH20160725175011507/25/16 17:50:31  5-MIN KAOH 252250Z AUTO 27009KT 10SM CLR 28/22 A2996 940 66 2700 280/09 RMK AO2 SLP137 T02830217
04850KAOH AOH20160725175510807/25/16 17:55:31  5-MIN KAOH 252255Z AUTO 27007KT 10SM CLR 28/22 A2996 940 66 2700 270/07 RMK AO2 T02830217
04850KAOH AOH20160725180010807/25/16 18:00:31  5-MIN KAOH 252300Z AUTO 29008KT 10SM CLR 28/22 A2996 940 66 2700 290/08 RMK AO2 T02830217
04850KAOH AOH20160725180510807/25/16 18:05:31  5-MIN KAOH 252305Z AUTO 29007KT 10SM CLR 28/22 A2996 940 66 2700 290/07 RMK AO2 T02830217
04850KAOH AOH20160725181010807/25/16 18:10:31  5-MIN KAOH 252310Z AUTO 28007KT 10SM CLR 28/22 A2996 940 69 2700 280/07 RMK AO2 T02830222
04850KAOH AOH20160725181510807/25/16 18:15:31  5-MIN KAOH 252315Z AUTO 28006KT 10SM CLR 28/22 A2996 940 69 2700 290/06 RMK AO2 T02830222
04850KAOH AOH20160725182010807/25/16 18:20:31  5-MIN KAOH 252320Z AUTO 28007KT 10SM CLR 28/22 A2997 940 69 2700 280/07 RMK AO2 T02830222
04850KAOH AOH20160725182510807/25/16 18:25:31  5-MIN KAOH 252325Z AUTO 28006KT 10SM CLR 28/22 A2997 930 69 2700 290/06 RMK AO2 T02830222
04850KAOH AOH20160725183010807/25/16 18:30:31  5-MIN KAOH 252330Z AUTO 27006KT 10SM CLR 28/23 A2997 940 71 2700 280/06 RMK AO2 T02830228
04850KAOH AOH20160725183510807/25/16 18:35:31  5-MIN KAOH 252335Z AUTO 28006KT 10SM CLR 28/22 A2997 930 69 2700 290/06 RMK AO2 T02830222
04850KAOH AOH20160725184010807/25/16 18:40:31  5-MIN KAOH 252340Z AUTO 27006KT 10SM CLR 28/23 A2997 930 74 2700 280/06 RMK AO2 T02780228
04850KAOH AOH20160725184510807/25/16 18:45:31  5-MIN KAOH 252345Z AUTO 27007KT 10SM CLR 28/22 A2997 930 71 2700 270/07 RMK AO2 T02780222
04850KAOH AOH20160725185013307/25/16 18:50:31  5-MIN KAOH 252350Z AUTO 27007KT 10SM CLR 27/22 A2997 930 74 2600 280/07 RMK AO2 SLP141 T02720222 10311 20272 56018
04850KAOH AOH20160725185510807/25/16 18:55:31  5-MIN KAOH 252355Z AUTO 27006KT 10SM CLR 27/22 A2997 930 74 2600 280/06 RMK AO2 T02720222
04850KAOH AOH20160725190010807/25/16 19:00:31  5-MIN KAOH 260000Z AUTO 27006KT 10SM CLR 27/22 A2997 930 74 2600 280/06 RMK AO2 T02720222
04850KAOH AOH20160725190510807/25/16 19:05:31  5-MIN KAOH 260005Z AUTO 27008KT 10SM CLR 27/22 A2997 930 74 2600 280/08 RMK AO2 T02720222
04850KAOH AOH20160725191010807/25/16 19:10:31  5-MIN KAOH 260010Z AUTO 27007KT 10SM CLR 27/22 A2997 930 74 2600 280/07 RMK AO2 T02720222
04850KAOH AOH20160725191510807/25/16 19:15:31  5-MIN KAOH 260015Z AUTO 27008KT 10SM CLR 27/22 A2998 920 74 2600 270/08 RMK AO2 T02720222
04850KAOH AOH20160725192010807/25/16 19:20:31  5-MIN KAOH 260020Z AUTO 26007KT 10SM CLR 27/22 A2998 920 74 2600 270/07 RMK AO2 T02720222
04850KAOH AOH20160725192510807/25/16 19:25:31  5-MIN KAOH 260025Z AUTO 25006KT 10SM CLR 27/22 A2998 920 74 2600 260/06 RMK AO2 T02720222
04850KAOH AOH20160725193010807/25/16 19:30:31  5-MIN KAOH 260030Z AUTO 25006KT 10SM CLR 27/22 A2998 920 74 2600 260/06 RMK AO2 T02720222
04850KAOH AOH20160725193510807/25/16 19:35:31  5-MIN KAOH 260035Z AUTO 26007KT 10SM CLR 27/22 A2998 920 76 2500 260/07 RMK AO2 T02670222
04850KAOH AOH20160725194010807/25/16 19:40:31  5-MIN KAOH 260040Z AUTO 25006KT 10SM CLR 27/22 A2998 920 76 2500 260/06 RMK AO2 T02670222
04850KAOH AOH20160725194510807/25/16 19:45:31  5-MIN KAOH 260045Z AUTO 26007KT 10SM CLR 26/22 A2998 920 79 2500 270/07 RMK AO2 T02610222
04850KAOH AOH20160725195011507/25/16 19:50:31  5-MIN KAOH 260050Z AUTO 27008KT 10SM CLR 26/22 A2998 920 79 2500 280/08 RMK AO2 SLP144 T02610222
04850KAOH AOH20160725195510807/25/16 19:55:31  5-MIN KAOH 260055Z AUTO 27007KT 10SM CLR 26/22 A2998 920 79 2500 280/07 RMK AO2 T02610222
04850KAOH AOH20160725200010807/25/16 20:00:31  5-MIN KAOH 260100Z AUTO 27006KT 10SM CLR 26/22 A2998 920 76 2400 280/06 RMK AO2 T02610217
04850KAOH AOH20160725200510807/25/16 20:05:31  5-MIN KAOH 260105Z AUTO 27007KT 10SM CLR 26/22 A2998 920 81 2400 270/07 RMK AO2 T02560222
04850KAOH AOH20160725201010807/25/16 20:10:31  5-MIN KAOH 260110Z AUTO 27007KT 10SM CLR 26/22 A2998 920 79 2400 270/07 RMK AO2 T02560217
04850KAOH AOH20160725201510807/25/16 20:15:31  5-MIN KAOH 260115Z AUTO 27007KT 10SM CLR 26/22 A2998 920 79 2400 280/07 RMK AO2 T02560217
04850KAOH AOH20160725202010807/25/16 20:20:31  5-MIN KAOH 260120Z AUTO 27007KT 10SM CLR 25/22 A2999 920 81 2300 280/07 RMK AO2 T02500217
04850KAOH AOH20160725202510807/25/16 20:25:31  5-MIN KAOH 260125Z AUTO 28006KT 10SM CLR 25/22 A2999 920 81 2300 280/06 RMK AO2 T02500217
04850KAOH AOH20160725203010807/25/16 20:30:31  5-MIN KAOH 260130Z AUTO 27006KT 10SM CLR 24/22 A2999 920 84 2300 280/06 RMK AO2 T02440217
04850KAOH AOH20160725203510807/25/16 20:35:31  5-MIN KAOH 260135Z AUTO 27006KT 10SM CLR 24/22 A2999 910 84 2300 280/06 RMK AO2 T02440217
04850KAOH AOH20160725204010807/25/16 20:40:31  5-MIN KAOH 260140Z AUTO 28005KT 10SM CLR 24/22 A2999 910 84 2300 290/05 RMK AO2 T02440217
04850KAOH AOH20160725204510807/25/16 20:45:31  5-MIN KAOH 260145Z AUTO 29004KT 10SM CLR 24/22 A2999 910 87 2200 300/04 RMK AO2 T02390217
04850KAOH AOH20160725205011507/25/16 20:50:31  5-MIN KAOH 260150Z AUTO 29005KT 10SM CLR 24/22 A2999 910 87 2200 300/05 RMK AO2 SLP149 T02390217
04850KAOH AOH20160725205510807/25/16 20:55:31  5-MIN KAOH 260155Z AUTO 28006KT 10SM CLR 24/22 A3000 910 84 2200 290/06 RMK AO2 T02440217
04850KAOH AOH20160725210010807/25/16 21:00:31  5-MIN KAOH 260200Z AUTO 28007KT 10SM CLR 24/22 A3000 910 84 2200 280/07 RMK AO2 T02440217
04850KAOH AOH20160725210510807/25/16 21:05:31  5-MIN KAOH 260205Z AUTO 28006KT 10SM CLR 24/22 A3000 910 84 2200 290/06 RMK AO2 T02440217
04850KAOH AOH20160725211010807/25/16 21:10:31  5-MIN KAOH 260210Z AUTO 29007KT 10SM CLR 24/22 A3000 910 87 2200 290/07 RMK AO2 T02390217
04850KAOH AOH20160725211510807/25/16 21:15:31  5-MIN KAOH 260215Z AUTO 29006KT 10SM CLR 24/21 A3000 900 84 2200 290/06 RMK AO2 T02390211
04850KAOH AOH20160725212010807/25/16 21:20:31  5-MIN KAOH 260220Z AUTO 28006KT 10SM CLR 24/21 A3000 900 84 2200 290/06 RMK AO2 T02390211
04850KAOH AOH20160725212510807/25/16 21:25:31  5-MIN KAOH 260225Z AUTO 27006KT 10SM CLR 24/21 A3000 900 84 2200 280/06 RMK AO2 T02390211
04850KAOH AOH20160725213010807/25/16 21:30:31  5-MIN KAOH 260230Z AUTO 28006KT 10SM CLR 24/21 A3000 900 84 2200 290/06 RMK AO2 T02390211
04850KAOH AOH20160725213510807/25/16 21:35:31  5-MIN KAOH 260235Z AUTO 28007KT 10SM CLR 23/21 A3001 900 87 2100 290/07 RMK AO2 T02330211
04850KAOH AOH20160725214010807/25/16 21:40:31  5-MIN KAOH 260240Z AUTO 28006KT 10SM CLR 23/21 A3001 900 87 2100 290/06 RMK AO2 T02330211
04850KAOH AOH20160725214510807/25/16 21:45:31  5-MIN KAOH 260245Z AUTO 28005KT 10SM CLR 23/21 A3001 900 87 2100 280/05 RMK AO2 T02330211
04850KAOH AOH20160725215012107/25/16 21:50:31  5-MIN KAOH 260250Z AUTO 28005KT 10SM CLR 23/21 A3001 900 90 2000 290/05 RMK AO2 SLP154 T02280211 53005
04850KAOH AOH20160725215510807/25/16 21:55:31  5-MIN KAOH 260255Z AUTO 29004KT 10SM CLR 23/21 A3000 900 87 2100 290/04 RMK AO2 T02330211
04850KAOH AOH20160725220010807/25/16 22:00:31  5-MIN KAOH 260300Z AUTO 29004KT 10SM CLR 23/21 A3001 900 87 2100 300/04 RMK AO2 T02330211
04850KAOH AOH20160725220510807/25/16 22:05:31  5-MIN KAOH 260305Z AUTO 28004KT 10SM CLR 23/21 A3001 890 87 2100 280/04 RMK AO2 T02330211
04850KAOH AOH20160725221010807/25/16 22:10:31  5-MIN KAOH 260310Z AUTO 26003KT 10SM CLR 23/21 A3001 890 87 2100 270/03 RMK AO2 T02330211
04850KAOH AOH20160725221510807/25/16 22:15:31  5-MIN KAOH 260315Z AUTO 25004KT 10SM CLR 23/21 A3001 890 87 2100 250/04 RMK AO2 T02330211
04850KAOH AOH20160725222010807/25/16 22:20:31  5-MIN KAOH 260320Z AUTO 25003KT 10SM CLR 23/21 A3001 890 84 2100 250/03 RMK AO2 T02330206
04850KAOH AOH20160725222510807/25/16 22:25:31  5-MIN KAOH 260325Z AUTO 24003KT 10SM CLR 23/21 A3001 900 87 2100 250/03 RMK AO2 T02330211
04850KAOH AOH20160725223010807/25/16 22:30:31  5-MIN KAOH 260330Z AUTO 25003KT 10SM CLR 24/21 A3001 900 84 2200 250/03 RMK AO2 T02390211
04850KAOH AOH20160725223510807/25/16 22:35:31  5-MIN KAOH 260335Z AUTO 25004KT 10SM CLR 24/21 A3001 900 84 2200 260/04 RMK AO2 T02390211
04850KAOH AOH20160725224010807/25/16 22:40:31  5-MIN KAOH 260340Z AUTO 24003KT 10SM CLR 24/21 A3001 900 84 2200 250/03 RMK AO2 T02390211
04850KAOH AOH20160725224510807/25/16 22:45:31  5-MIN KAOH 260345Z AUTO 25004KT 10SM CLR 23/21 A3001 890 87 2100 260/04 RMK AO2 T02330211
04850KAOH AOH20160725225011507/25/16 22:50:31  5-MIN KAOH 260350Z AUTO 25004KT 10SM CLR 23/21 A3001 890 84 2100 260/04 RMK AO2 SLP155 T02330206
04850KAOH AOH20160725225510807/25/16 22:55:31  5-MIN KAOH 260355Z AUTO 27004KT 10SM CLR 23/21 A3001 890 87 2000 280/04 RMK AO2 T02280206
04850KAOH AOH20160725230010807/25/16 23:00:31  5-MIN KAOH 260400Z AUTO 28004KT 10SM CLR 22/21 A3001 890 93 1900 280/04 RMK AO2 T02170206
04850KAOH AOH20160725230510807/25/16 23:05:31  5-MIN KAOH 260405Z AUTO 27003KT 10SM CLR 22/21 A3001 890 93 1900 280/03 RMK AO2 T02170206
04850KAOH AOH20160725231010807/25/16 23:10:31  5-MIN KAOH 260410Z AUTO 29004KT 10SM CLR 22/20 A3001 890 90 1900 290/04 RMK AO2 T02170200
04850KAOH AOH20160725231510807/25/16 23:15:31  5-MIN KAOH 260415Z AUTO 30004KT 10SM CLR 21/20 A3001 890 93 1800 310/04 RMK AO2 T02110200
04850KAOH AOH20160725232010807/25/16 23:20:31  5-MIN KAOH 260420Z AUTO 31004KT 10SM CLR 21/20 A3001 890 93 1800 310/04 RMK AO2 T02110200
04850KAOH AOH20160725232510807/25/16 23:25:31  5-MIN KAOH 260425Z AUTO 31004KT 10SM CLR 21/20 A3001 890 93 1800 320/04 RMK AO2 T02110200
04850KAOH AOH20160725233010807/25/16 23:30:31  5-MIN KAOH 260430Z AUTO 30003KT 10SM CLR 22/20 A3001 890 90 1900 310/03 RMK AO2 T02170200
04850KAOH AOH20160725233510807/25/16 23:35:31  5-MIN KAOH 260435Z AUTO 30004KT 10SM CLR 22/20 A3002 890 87 2000 310/04 RMK AO2 T02220200
04850KAOH AOH20160725234010807/25/16 23:40:31  5-MIN KAOH 260440Z AUTO 30005KT 10SM CLR 22/20 A3002 890 87 2000 300/05 RMK AO2 T02220200
04850KAOH AOH20160725234510807/25/16 23:45:31  5-MIN KAOH 260445Z AUTO 31005KT 10SM CLR 22/20 A3002 890 90 1900 320/05 RMK AO2 T02170200
04850KAOH AOH20160725235012507/25/16 23:50:31  5-MIN KAOH 260450Z AUTO 32006KT 10SM CLR 21/19 A3002 890 90 1800 330/06 RMK AO2 SLP158 T02110194 403110211
04850KAOH AOH20160725235510807/25/16 23:55:31  5-MIN KAOH 260455Z AUTO 33005KT 10SM CLR 22/19 A3002 890 87 1900 340/05 RMK AO2 T02170194
04850KAOH AOH20160726000010807/26/16 00:00:31  5-MIN KAOH 260500Z AUTO 33005KT 10SM CLR 22/19 A3002 890 84 1900 340/05 RMK AO2 T02170189
04850KAOH AOH20160726000510807/26/16 00:05:31  5-MIN KAOH 260505Z AUTO 33005KT 10SM CLR 22/19 A3002 890 81 2000 340/05 RMK AO2 T02220189
04850KAOH AOH20160726001010807/26/16 00:10:31  5-MIN KAOH 260510Z AUTO 33005KT 10SM CLR 22/19 A3002 890 81 2000 340/05 RMK AO2 T02220189
04850KAOH AOH20160726001510807/26/16 00:15:31  5-MIN KAOH 260515Z AUTO 33004KT 10SM CLR 22/19 A3002 890 84 2000 340/04 RMK AO2 T02220194
04850KAOH AOH20160726002010807/26/16 00:20:31  5-MIN KAOH 260520Z AUTO 33004KT 10SM CLR 22/19 A3002 890 81 2000 330/04 RMK AO2 T02220189
04850KAOH AOH20160726002510807/26/16 00:25:31  5-MIN KAOH 260525Z AUTO 33004KT 10SM CLR 22/19 A3002 890 81 2000 340/04 RMK AO2 T02220189
04850KAOH AOH20160726003010807/26/16 00:30:31  5-MIN KAOH 260530Z AUTO 33004KT 10SM CLR 22/19 A3002 890 84 1900 340/04 RMK AO2 T02170189
04850KAOH AOH20160726003510807/26/16 00:35:31  5-MIN KAOH 260535Z AUTO 33005KT 10SM CLR 22/19 A3002 890 84 1900 340/05 RMK AO2 T02170189
04850KAOH AOH20160726004010807/26/16 00:40:31  5-MIN KAOH 260540Z AUTO 33005KT 10SM CLR 22/19 A3002 890 84 1900 340/05 RMK AO2 T02170189
04850KAOH AOH20160726004510807/26/16 00:45:31  5-MIN KAOH 260545Z AUTO 33004KT 10SM CLR 22/19 A3002 890 84 1900 340/04 RMK AO2 T02170189
04850KAOH AOH20160726005013307/26/16 00:50:31  5-MIN KAOH 260550Z AUTO 33004KT 10SM CLR 22/19 A3002 890 84 1900 340/04 RMK AO2 SLP156 T02170189 10272 20211 53011
04850KAOH AOH20160726005510807/26/16 00:55:31  5-MIN KAOH 260555Z AUTO 33004KT 10SM CLR 22/19 A3002 890 84 1900 330/04 RMK AO2 T02170189
04850KAOH AOH20160726010010807/26/16 01:00:31  5-MIN KAOH 260600Z AUTO 33005KT 10SM CLR 22/19 A3002 890 84 1900 340/05 RMK AO2 T02170189
04850KAOH AOH20160726010510807/26/16 01:05:31  5-MIN KAOH 260605Z AUTO 34005KT 10SM CLR 22/19 A3002 890 84 1900 350/05 RMK AO2 T02170189
04850KAOH AOH20160726011010807/26/16 01:10:31  5-MIN KAOH 260610Z AUTO 35004KT 10SM CLR 22/19 A3001 890 84 1900 350/04 RMK AO2 T02170189
04850KAOH AOH20160726011510807/26/16 01:15:31  5-MIN KAOH 260615Z AUTO 34004KT 10SM CLR 22/19 A3002 890 84 1900 340/04 RMK AO2 T02170189
04850KAOH AOH20160726012010807/26/16 01:20:31  5-MIN KAOH 260620Z AUTO 34004KT 10SM CLR 22/19 A3002 890 84 1900 340/04 RMK AO2 T02170189
04850KAOH AOH20160726012510807/26/16 01:25:31  5-MIN KAOH 260625Z AUTO 34004KT 10SM CLR 22/19 A3002 890 84 1900 350/04 RMK AO2 T02170189
04850KAOH AOH20160726013010807/26/16 01:30:31  5-MIN KAOH 260630Z AUTO 34004KT 10SM CLR 22/19 A3002 890 84 1900 350/04 RMK AO2 T02170189
04850KAOH AOH20160726013510807/26/16 01:35:31  5-MIN KAOH 260635Z AUTO 34003KT 10SM CLR 22/19 A3002 890 84 1900 350/03 RMK AO2 T02170189
04850KAOH AOH20160726014010807/26/16 01:40:31  5-MIN KAOH 260640Z AUTO 34004KT 10SM CLR 21/19 A3002 880 87 1800 340/04 RMK AO2 T02110189
04850KAOH AOH20160726014510807/26/16 01:45:31  5-MIN KAOH 260645Z AUTO 33004KT 10SM CLR 21/19 A3002 880 87 1800 340/04 RMK AO2 T02110189
04850KAOH AOH20160726015011507/26/16 01:50:31  5-MIN KAOH 260650Z AUTO 33004KT 10SM CLR 21/19 A3003 880 87 1800 330/04 RMK AO2 SLP159 T02110189
04850KAOH AOH20160726015510807/26/16 01:55:31  5-MIN KAOH 260655Z AUTO 32004KT 10SM CLR 21/19 A3003 880 87 1800 330/04 RMK AO2 T02110189
04850KAOH AOH20160726020010807/26/16 02:00:31  5-MIN KAOH 260700Z AUTO 33003KT 10SM CLR 21/18 A3003 880 84 1800 330/03 RMK AO2 T02110183
04850KAOH AOH20160726020510807/26/16 02:05:31  5-MIN KAOH 260705Z AUTO 32003KT 10SM CLR 21/18 A3003 880 87 1800 330/03 RMK AO2 T02060183
04850KAOH AOH20160726021010807/26/16 02:10:31  5-MIN KAOH 260710Z AUTO 33003KT 10SM CLR 21/18 A3003 880 87 1800 330/03 RMK AO2 T02060183
04850KAOH AOH20160726021510807/26/16 02:15:31  5-MIN KAOH 260715Z AUTO 33003KT 10SM CLR 21/18 A3003 880 87 1800 340/03 RMK AO2 T02060183
04850KAOH AOH20160726022010807/26/16 02:20:31  5-MIN KAOH 260720Z AUTO 00000KT 10SM CLR 21/18 A3003 880 87 1800 000/00 RMK AO2 T02060183
04850KAOH AOH20160726022510807/26/16 02:25:31  5-MIN KAOH 260725Z AUTO 00000KT 10SM CLR 21/18 A3003 880 87 1800 000/00 RMK AO2 T02060183
04850KAOH AOH20160726023010807/26/16 02:30:31  5-MIN KAOH 260730Z AUTO 34003KT 10SM CLR 21/18 A3003 880 87 1800 340/03 RMK AO2 T02060183
04850KAOH AOH20160726023510807/26/16 02:35:31  5-MIN KAOH 260735Z AUTO 33003KT 10SM CLR 21/18 A3003 880 87 1800 340/03 RMK AO2 T02060183
04850KAOH AOH20160726024010807/26/16 02:40:31  5-MIN KAOH 260740Z AUTO 33003KT 10SM CLR 21/18 A3003 880 87 1800 340/03 RMK AO2 T02060183
04850KAOH AOH20160726024510807/26/16 02:45:31  5-MIN KAOH 260745Z AUTO 34003KT 10SM CLR 20/18 A3003 880 90 1700 340/03 RMK AO2 T02000183
04850KAOH AOH20160726025011507/26/16 02:50:31  5-MIN KAOH 260750Z AUTO 33003KT 10SM CLR 21/18 A3003 880 87 1800 340/03 RMK AO2 SLP160 T02060183
04850KAOH AOH20160726025510807/26/16 02:55:31  5-MIN KAOH 260755Z AUTO 33003KT 10SM CLR 20/18 A3003 880 90 1700 340/03 RMK AO2 T02000183
04850KAOH AOH20160726030010807/26/16 03:00:31  5-MIN KAOH 260800Z AUTO 33003KT 10SM CLR 20/18 A3003 880 90 1700 330/03 RMK AO2 T02000183
04850KAOH AOH20160726030510807/26/16 03:05:31  5-MIN KAOH 260805Z AUTO 34004KT 10SM CLR 20/18 A3003 880 90 1700 340/04 RMK AO2 T02000183
04850KAOH AOH20160726031010807/26/16 03:10:31  5-MIN KAOH 260810Z AUTO 35003KT 10SM CLR 20/18 A3003 880 90 1700 350/03 RMK AO2 T02000183
04850KAOH AOH20160726031510807/26/16 03:15:31  5-MIN KAOH 260815Z AUTO 35003KT 10SM CLR 20/18 A3003 880 90 1700 350/03 RMK AO2 T02000183
04850KAOH AOH20160726032010807/26/16 03:20:31  5-MIN KAOH 260820Z AUTO 36003KT 10SM CLR 20/18 A3003 880 90 1700 360/03 RMK AO2 T02000183
04850KAOH AOH20160726032510807/26/16 03:25:31  5-MIN KAOH 260825Z AUTO 35003KT 10SM CLR 20/18 A3003 880 90 1700 360/03 RMK AO2 T02000183
04850KAOH AOH20160726033010807/26/16 03:30:31  5-MIN KAOH 260830Z AUTO 36003KT 10SM CLR 20/18 A3003 880 90 1700 010/03 RMK AO2 T02000183
04850KAOH AOH20160726033510807/26/16 03:35:31  5-MIN KAOH 260835Z AUTO 01003KT 10SM CLR 20/18 A3003 880 90 1700 020/03 RMK AO2 T02000183
04850KAOH AOH20160726034010807/26/16 03:40:31  5-MIN KAOH 260840Z AUTO 02003KT 10SM CLR 20/18 A3003 880 90 1700 030/03 RMK AO2 T02000183
04850KAOH AOH20160726034510807/26/16 03:45:31  5-MIN KAOH 260845Z AUTO 00000KT 10SM CLR 20/18 A3003 880 90 1700 000/00 RMK AO2 T02000183
04850KAOH AOH20160726035012107/26/16 03:50:31  5-MIN KAOH 260850Z AUTO 00000KT 10SM CLR 20/18 A3003 880 90 1700 000/00 RMK AO2 SLP160 T02000183 51004
04850KAOH AOH20160726035510807/26/16 03:55:31  5-MIN KAOH 260855Z AUTO 00000KT 10SM CLR 20/18 A3003 880 90 1700 000/00 RMK AO2 T02000183
04850KAOH AOH20160726040010807/26/16 04:00:31  5-MIN KAOH 260900Z AUTO 00000KT 10SM CLR 20/18 A3003 880 90 1700 000/00 RMK AO2 T02000183
04850KAOH AOH20160726040510807/26/16 04:05:31  5-MIN KAOH 260905Z AUTO 00000KT 10SM CLR 20/18 A3003 870 90 1700 000/00 RMK AO2 T02000183
04850KAOH AOH20160726041010807/26/16 04:10:31  5-MIN KAOH 260910Z AUTO 00000KT 10SM CLR 20/18 A3003 870 90 1700 000/00 RMK AO2 T02000183
04850KAOH AOH20160726041510807/26/16 04:15:31  5-MIN KAOH 260915Z AUTO 00000KT 10SM CLR 19/18 A3004 870 93 1600 000/00 RMK AO2 T01940183
04850KAOH AOH20160726042010807/26/16 04:20:31  5-MIN KAOH 260920Z AUTO 00000KT 10SM CLR 20/18 A3004 870 90 1700 000/00 RMK AO2 T02000183
04850KAOH AOH20160726042510807/26/16 04:25:31  5-MIN KAOH 260925Z AUTO 00000KT 10SM CLR 20/18 A3004 870 90 1700 000/00 RMK AO2 T02000183
04850KAOH AOH20160726043010807/26/16 04:30:31  5-MIN KAOH 260930Z AUTO 00000KT 10SM CLR 20/18 A3004 870 90 1700 000/00 RMK AO2 T02000183
04850KAOH AOH20160726043510807/26/16 04:35:31  5-MIN KAOH 260935Z AUTO 00000KT 10SM CLR 20/18 A3004 870 90 1700 000/00 RMK AO2 T02000183
04850KAOH AOH20160726044010807/26/16 04:40:31  5-MIN KAOH 260940Z AUTO 00000KT 10SM CLR 20/18 A3004 870 90 1700 000/00 RMK AO2 T02000183
04850KAOH AOH20160726044510807/26/16 04:45:31  5-MIN KAOH 260945Z AUTO 00000KT 10SM CLR 19/18 A3004 870 93 1600 000/00 RMK AO2 T01890178
04850KAOH AOH20160726045011507/26/16 04:50:31  5-MIN KAOH 260950Z AUTO 00000KT 10SM CLR 18/18 A3004 860 96 1500 000/00 RMK AO2 SLP166 T01830178
04850KAOH AOH20160726045510807/26/16 04:55:31  5-MIN KAOH 260955Z AUTO 00000KT 10SM CLR 18/18 A3005 860 96 1500 000/00 RMK AO2 T01830178
04850KAOH AOH20160726050010807/26/16 05:00:31  5-MIN KAOH 261000Z AUTO 00000KT 10SM CLR 19/18 A3005 860 93 1600 000/00 RMK AO2 T01890178
04850KAOH AOH20160726050510807/26/16 05:05:31  5-MIN KAOH 261005Z AUTO 00000KT 10SM CLR 19/18 A3005 860 93 1600 000/00 RMK AO2 T01940183
04850KAOH AOH20160726051010807/26/16 05:10:31  5-MIN KAOH 261010Z AUTO 31003KT 10SM CLR 18/17 A3005 860 93 1500 310/03 RMK AO2 T01830172
04850KAOH AOH20160726051510807/26/16 05:15:31  5-MIN KAOH 261015Z AUTO 00000KT 10SM CLR 18/17 A3005 850 93 1500 000/00 RMK AO2 T01830172
04850KAOH AOH20160726052010807/26/16 05:20:31  5-MIN KAOH 261020Z AUTO 00000KT 10SM CLR 18/18 A3006 850 96 1500 000/00 RMK AO2 T01830178
04850KAOH AOH20160726052510807/26/16 05:25:31  5-MIN KAOH 261025Z AUTO 00000KT 10SM CLR 18/17 A3006 850 93 1500 000/00 RMK AO2 T01830172
04850KAOH AOH20160726053010807/26/16 05:30:31  5-MIN KAOH 261030Z AUTO 00000KT 10SM CLR 18/18 A3006 850 96 1500 000/00 RMK AO2 T01830178
04850KAOH AOH20160726053510807/26/16 05:35:31  5-MIN KAOH 261035Z AUTO 00000KT 10SM CLR 18/18 A3006 850 96 1500 000/00 RMK AO2 T01830178
04850KAOH AOH20160726054010907/26/16 05:40:31  5-MIN KAOH 261040Z AUTO 35003KT 10SM CLR 18/18 A3006 850 100 1400 350/03 RMK AO2 T01780178
04850KAOH AOH20160726054510907/26/16 05:45:31  5-MIN KAOH 261045Z AUTO 35003KT 10SM CLR 18/18 A3006 850 100 1400 360/03 RMK AO2 T01780178
04850KAOH AOH20160726055011507/26/16 05:50:31  5-MIN KAOH 261050Z AUTO 00000KT 10SM CLR 18/18 A3006 850 96 1500 000/00 RMK AO2 SLP170 T01830178
04850KAOH AOH20160726055510807/26/16 05:55:31  5-MIN KAOH 261055Z AUTO 00000KT 10SM CLR 18/18 A3006 850 96 1500 000/00 RMK AO2 T01830178
04850KAOH AOH20160726060010807/26/16 06:00:31  5-MIN KAOH 261100Z AUTO 00000KT 10SM CLR 19/18 A3006 850 93 1500 000/00 RMK AO2 T01890178
04850KAOH AOH20160726060510807/26/16 06:05:31  5-MIN KAOH 261105Z AUTO 00000KT 10SM CLR 19/18 A3006 850 97 1500 000/00 RMK AO2 T01890183
04850KAOH AOH20160726061010807/26/16 06:10:31  5-MIN KAOH 261110Z AUTO 00000KT 10SM CLR 19/18 A3006 850 93 1600 000/00 RMK AO2 T01940183
04850KAOH AOH20160726061510807/26/16 06:15:31  5-MIN KAOH 261115Z AUTO 00000KT 10SM CLR 20/19 A3006 840 93 1700 000/00 RMK AO2 T02000189
04850KAOH AOH20160726062010807/26/16 06:20:31  5-MIN KAOH 261120Z AUTO 00000KT 10SM CLR 21/19 A3007 840 90 1700 000/00 RMK AO2 T02060189
04850KAOH AOH20160726062510807/26/16 06:25:31  5-MIN KAOH 261125Z AUTO 00000KT 10SM CLR 21/19 A3007 840 90 1700 000/00 RMK AO2 T02060189
04850KAOH AOH20160726063010807/26/16 06:30:31  5-MIN KAOH 261130Z AUTO 01003KT 10SM CLR 21/19 A3007 840 90 1700 020/03 RMK AO2 T02060189
04850KAOH AOH20160726063510807/26/16 06:35:31  5-MIN KAOH 261135Z AUTO 36003KT 10SM CLR 21/18 A3007 840 87 1700 010/03 RMK AO2 T02060183
04850KAOH AOH20160726064010807/26/16 06:40:31  5-MIN KAOH 261140Z AUTO 01003KT 10SM CLR 21/18 A3007 840 87 1700 010/03 RMK AO2 T02060183
04850KAOH AOH20160726064510807/26/16 06:45:31  5-MIN KAOH 261145Z AUTO 01004KT 10SM CLR 21/18 A3007 840 87 1700 020/04 RMK AO2 T02060183
04850KAOH AOH20160726065013307/26/16 06:50:31  5-MIN KAOH 261150Z AUTO 01004KT 10SM CLR 21/19 A3007 840 90 1700 020/04 RMK AO2 SLP175 T02060189 10217 20178 51004
04850KAOH AOH20160726065510807/26/16 06:55:31  5-MIN KAOH 261155Z AUTO 01004KT 10SM CLR 21/19 A3007 840 90 1700 020/04 RMK AO2 T02060189
04850KAOH AOH20160726070010807/26/16 07:00:31  5-MIN KAOH 261200Z AUTO 36003KT 10SM CLR 21/19 A3007 840 90 1700 010/03 RMK AO2 T02060189
04850KAOH AOH20160726070510807/26/16 07:05:31  5-MIN KAOH 261205Z AUTO 02004KT 10SM CLR 21/19 A3007 840 87 1800 030/04 RMK AO2 T02110189
04850KAOH AOH20160726071010807/26/16 07:10:31  5-MIN KAOH 261210Z AUTO 03005KT 10SM CLR 21/19 A3007 840 90 1700 040/05 RMK AO2 T02060189
04850KAOH AOH20160726071510807/26/16 07:15:31  5-MIN KAOH 261215Z AUTO 03004KT 10SM CLR 21/19 A3007 840 90 1700 030/04 RMK AO2 T02060189
04850KAOH AOH20160726072010807/26/16 07:20:31  5-MIN KAOH 261220Z AUTO 03005KT 10SM CLR 21/19 A3007 840 87 1800 040/05 RMK AO2 T02110189
04850KAOH AOH20160726072510807/26/16 07:25:31  5-MIN KAOH 261225Z AUTO 03004KT 10SM CLR 21/19 A3007 840 87 1800 030/04 RMK AO2 T02110189
04850KAOH AOH20160726073010807/26/16 07:30:31  5-MIN KAOH 261230Z AUTO 02006KT 10SM CLR 21/19 A3007 840 87 1800 030/06 RMK AO2 T02110189
04850KAOH AOH20160726073510807/26/16 07:35:31  5-MIN KAOH 261235Z AUTO 02004KT 10SM CLR 22/19 A3007 840 84 1800 030/04 RMK AO2 T02170189
04850KAOH AOH20160726074010807/26/16 07:40:31  5-MIN KAOH 261240Z AUTO 02005KT 10SM CLR 22/19 A3007 840 84 1800 020/05 RMK AO2 T02170189
04850KAOH AOH20160726074510807/26/16 07:45:31  5-MIN KAOH 261245Z AUTO 02005KT 10SM CLR 22/19 A3007 840 84 1900 020/05 RMK AO2 T02170189
04850KAOH AOH20160726075011507/26/16 07:50:31  5-MIN KAOH 261250Z AUTO 03004KT 10SM CLR 22/19 A3007 840 84 1900 030/04 RMK AO2 SLP173 T02220194
04850KAOH AOH20160726075510807/26/16 07:55:31  5-MIN KAOH 261255Z AUTO 04005KT 10SM CLR 23/20 A3007 840 84 2000 040/05 RMK AO2 T02280200
04850KAOH AOH20160726080010807/26/16 08:00:31  5-MIN KAOH 261300Z AUTO 04004KT 10SM CLR 23/19 A3007 840 81 2000 040/04 RMK AO2 T02280194
04850KAOH AOH20160726080510807/26/16 08:05:31  5-MIN KAOH 261305Z AUTO 06004KT 10SM CLR 23/19 A3007 840 81 2000 060/04 RMK AO2 T02280194
04850KAOH AOH20160726081010807/26/16 08:10:31  5-MIN KAOH 261310Z AUTO 05005KT 10SM CLR 23/19 A3007 840 81 2000 060/05 RMK AO2 T02280194
04850KAOH AOH20160726081510807/26/16 08:15:31  5-MIN KAOH 261315Z AUTO 04005KT 10SM CLR 23/19 A3007 840 78 2000 050/05 RMK AO2 T02330194
04850KAOH AOH20160726082010807/26/16 08:20:31  5-MIN KAOH 261320Z AUTO 04005KT 10SM CLR 23/20 A3007 840 81 2000 050/05 RMK AO2 T02330200
04850KAOH AOH20160726082510807/26/16 08:25:31  5-MIN KAOH 261325Z AUTO 04006KT 10SM CLR 24/20 A3006 840 78 2100 050/06 RMK AO2 T02390200
04850KAOH AOH20160726083010807/26/16 08:30:31  5-MIN KAOH 261330Z AUTO 04006KT 10SM CLR 24/20 A3007 840 78 2100 050/06 RMK AO2 T02390200
04850KAOH AOH20160726083510807/26/16 08:35:31  5-MIN KAOH 261335Z AUTO 05006KT 10SM CLR 24/20 A3007 840 76 2200 060/06 RMK AO2 T02440200
04850KAOH AOH20160726084010807/26/16 08:40:31  5-MIN KAOH 261340Z AUTO 05005KT 10SM CLR 24/19 A3007 840 76 2100 060/05 RMK AO2 T02390194
04850KAOH AOH20160726084510807/26/16 08:45:31  5-MIN KAOH 261345Z AUTO 06006KT 10SM CLR 24/19 A3007 840 73 2200 070/06 RMK AO2 T02440194
04850KAOH AOH20160726085011507/26/16 08:50:31  5-MIN KAOH 261350Z AUTO 06006KT 10SM CLR 24/19 A3007 840 73 2200 060/06 RMK AO2 SLP175 T02440194
04850KAOH AOH20160726085510807/26/16 08:55:31  5-MIN KAOH 261355Z AUTO 07006KT 10SM CLR 26/20 A3007 840 71 2300 080/06 RMK AO2 T02560200
04850KAOH AOH20160726090010807/26/16 09:00:31  5-MIN KAOH 261400Z AUTO 06007KT 10SM CLR 26/20 A3007 840 71 2300 070/07 RMK AO2 T02560200
04850KAOH AOH20160726090510807/26/16 09:05:31  5-MIN KAOH 261405Z AUTO 06007KT 10SM CLR 25/19 A3007 840 71 2200 070/07 RMK AO2 T02500194
04850KAOH AOH20160726091010807/26/16 09:10:31  5-MIN KAOH 261410Z AUTO 06009KT 10SM CLR 26/19 A3007 840 68 2300 070/09 RMK AO2 T02560194
04850KAOH AOH20160726091510807/26/16 09:15:31  5-MIN KAOH 261415Z AUTO 05008KT 10SM CLR 25/19 A3007 840 68 2200 060/08 RMK AO2 T02500189
04850KAOH AOH20160726092010807/26/16 09:20:31  5-MIN KAOH 261420Z AUTO 07006KT 10SM CLR 25/19 A3007 840 68 2200 080/06 RMK AO2 T02500189
04850KAOH AOH20160726092510807/26/16 09:25:31  5-MIN KAOH 261425Z AUTO 07009KT 10SM CLR 26/19 A3007 840 64 2300 080/09 RMK AO2 T02610189
04850KAOH AOH20160726093010807/26/16 09:30:31  5-MIN KAOH 261430Z AUTO 07007KT 10SM CLR 26/19 A3007 830 66 2300 070/07 RMK AO2 T02560189
04850KAOH AOH20160726093510807/26/16 09:35:31  5-MIN KAOH 261435Z AUTO 05007KT 10SM CLR 26/19 A3007 840 66 2300 060/07 RMK AO2 T02610194
04850KAOH AOH20160726094010807/26/16 09:40:31  5-MIN KAOH 261440Z AUTO 10007KT 10SM CLR 26/19 A3007 840 66 2300 100/07 RMK AO2 T02610194
04850KAOH AOH20160726094510807/26/16 09:45:31  5-MIN KAOH 261445Z AUTO 08004KT 10SM CLR 26/19 A3007 840 66 2300 080/04 RMK AO2 T02610194
04850KAOH AOH20160726095012107/26/16 09:50:31  5-MIN KAOH 261450Z AUTO 07007KT 10SM CLR 26/19 A3007 840 68 2300 080/07 RMK AO2 SLP175 T02560194 51013
04850KAOH AOH20160726095510807/26/16 09:55:31  5-MIN KAOH 261455Z AUTO 08007KT 10SM CLR 26/19 A3008 830 66 2300 080/07 RMK AO2 T02560189
04850KAOH AOH20160726100010807/26/16 10:00:31  5-MIN KAOH 261500Z AUTO 10006KT 10SM CLR 26/19 A3008 830 64 2300 100/06 RMK AO2 T02610189
04850KAOH AOH20160726100510807/26/16 10:05:31  5-MIN KAOH 261505Z AUTO 08006KT 10SM CLR 27/19 A3008 830 60 2500 090/06 RMK AO2 T02720189
04850KAOH AOH20160726101010807/26/16 10:10:31  5-MIN KAOH 261510Z AUTO 09004KT 10SM CLR 27/19 A3008 830 60 2500 090/04 RMK AO2 T02720189
04850KAOH AOH20160726101510807/26/16 10:15:31  5-MIN KAOH 261515Z AUTO 10004KT 10SM CLR 27/19 A3008 830 62 2500 110/04 RMK AO2 T02720194
04850KAOH AOH20160726102010807/26/16 10:20:31  5-MIN KAOH 261520Z AUTO 09006KT 10SM CLR 27/19 A3007 840 62 2500 090/06 RMK AO2 T02720194
04850KAOH AOH20160726102510807/26/16 10:25:31  5-MIN KAOH 261525Z AUTO 00000KT 10SM CLR 27/19 A3007 840 60 2500 000/00 RMK AO2 T02720189
04850KAOH AOH20160726103009807/26/16 10:30:31  5-MIN KAOH 261530Z AUTO 10SM CLR 27/19 A3007 840 62 2500 M /M RMK AO2 T02720194
04850KAOH AOH20160726103510807/26/16 10:35:31  5-MIN KAOH 261535Z AUTO 10005KT 10SM CLR 28/19 A3007 830 60 2500 110/05 RMK AO2 T02780194
04850KAOH AOH20160726104010807/26/16 10:40:31  5-MIN KAOH 261540Z AUTO 08006KT 10SM CLR 28/19 A3008 830 58 2500 080/06 RMK AO2 T02780189
04850KAOH AOH20160726104510807/26/16 10:45:31  5-MIN KAOH 261545Z AUTO 06006KT 10SM CLR 27/18 A3007 840 58 2500 060/06 RMK AO2 T02720183
04850KAOH AOH20160726105011507/26/16 10:50:31  5-MIN KAOH 261550Z AUTO 11004KT 10SM CLR 28/19 A3007 840 56 2600 110/04 RMK AO2 SLP174 T02830189
04850KAOH AOH20160726105510807/26/16 10:55:31  5-MIN KAOH 261555Z AUTO VRB04KT 10SM CLR 28/18 A3007 840 54 2600 VRB/04 RMK AO2 T02830183
04850KAOH AOH20160726110011307/26/16 11:00:31  5-MIN KAOH 261600Z AUTO VRB04KT 10SM CLR 28/18 A3007 840 54 2600 VRB/04 RMK AO2 T02830183 TSNO
04850KAOH AOH20160726110510807/26/16 11:05:31  5-MIN KAOH 261605Z AUTO 04005KT 10SM CLR 28/19 A3007 840 56 2600 040/05 RMK AO2 T02830189
04850KAOH AOH20160726111010807/26/16 11:10:31  5-MIN KAOH 261610Z AUTO VRB05KT 10SM CLR 28/19 A3007 840 56 2600 VRB/05 RMK AO2 T02830189
04850KAOH AOH20160726111510807/26/16 11:15:31  5-MIN KAOH 261615Z AUTO VRB05KT 10SM CLR 29/19 A3007 840 56 2700 VRB/05 RMK AO2 T02890194
04850KAOH AOH20160726112010807/26/16 11:20:31  5-MIN KAOH 261620Z AUTO 07005KT 10SM CLR 29/19 A3007 840 54 2700 080/05 RMK AO2 T02890189
04850KAOH AOH20160726112510807/26/16 11:25:31  5-MIN KAOH 261625Z AUTO 05004KT 10SM CLR 29/19 A3007 840 54 2700 050/04 RMK AO2 T02890189
04850KAOH AOH20160726113010807/26/16 11:30:31  5-MIN KAOH 261630Z AUTO VRB03KT 10SM CLR 28/19 A3007 840 56 2600 VRB/03 RMK AO2 T02830189
04850KAOH AOH20160726113511107/26/16 11:35:31  5-MIN KAOH 261635Z AUTO 00000KT 10SM FEW041 29/19 A3007 840 54 2700 000/00 RMK AO2 T02890189
04850KAOH AOH20160726114011107/26/16 11:40:31  5-MIN KAOH 261640Z AUTO 08003KT 10SM FEW041 28/19 A3007 840 56 2600 080/03 RMK AO2 T02830189
04850KAOH AOH20160726114511807/26/16 11:45:31  5-MIN KAOH 261645Z AUTO 05003KT 10SM FEW041 SCT120 29/19 A3007 840 54 2700 050/03 RMK AO2 T02890189
04850KAOH AOH20160726115012507/26/16 11:50:31  5-MIN KAOH 261650Z AUTO 07006KT 10SM FEW042 SCT120 29/19 A3007 840 54 2700 080/06 RMK AO2 SLP173 T02890189
04850KAOH AOH20160726115511807/26/16 11:55:31  5-MIN KAOH 261655Z AUTO 10004KT 10SM FEW042 SCT120 29/18 A3006 840 52 2700 100/04 RMK AO2 T02890183
04850KAOH AOH20160726120011807/26/16 12:00:31  5-MIN KAOH 261700Z AUTO 00000KT 10SM FEW042 SCT120 29/18 A3007 840 52 2700 000/00 RMK AO2 T02890183
04850KAOH AOH20160726120511807/26/16 12:05:31  5-MIN KAOH 261705Z AUTO 00000KT 10SM FEW042 FEW120 28/18 A3006 850 54 2600 000/00 RMK AO2 T02830183
04850KAOH AOH20160726121011107/26/16 12:10:31  5-MIN KAOH 261710Z AUTO VRB05KT 10SM FEW120 30/19 A3006 850 51 2800 VRB/05 RMK AO2 T03000189
04850KAOH AOH20160726121511107/26/16 12:15:31  5-MIN KAOH 261715Z AUTO VRB05KT 10SM FEW120 29/19 A3006 850 54 2700 VRB/05 RMK AO2 T02890189
04850KAOH AOH20160726122011107/26/16 12:20:31  5-MIN KAOH 261720Z AUTO 04004KT 10SM FEW044 28/19 A3006 850 56 2600 050/04 RMK AO2 T02830189
04850KAOH AOH20160726122511107/26/16 12:25:31  5-MIN KAOH 261725Z AUTO 03005KT 10SM FEW044 28/19 A3006 850 56 2600 040/05 RMK AO2 T02830189
04850KAOH AOH20160726123011107/26/16 12:30:31  5-MIN KAOH 261730Z AUTO 02004KT 10SM FEW044 28/19 A3006 850 56 2600 020/04 RMK AO2 T02830189
04850KAOH AOH20160726123511107/26/16 12:35:31  5-MIN KAOH 261735Z AUTO 01004KT 10SM FEW044 28/19 A3006 850 56 2600 020/04 RMK AO2 T02830189
04850KAOH AOH20160726124011807/26/16 12:40:31  5-MIN KAOH 261740Z AUTO 00000KT 10SM FEW044 FEW100 28/18 A3006 850 54 2600 000/00 RMK AO2 T02830183
04850KAOH AOH20160726124511807/26/16 12:45:31  5-MIN KAOH 261745Z AUTO 34003KT 10SM FEW044 SCT100 28/18 A3006 850 56 2600 350/03 RMK AO2 T02780183
04850KAOH AOH20160726125014307/26/16 12:50:31  5-MIN KAOH 261750Z AUTO VRB05KT 10SM FEW044 FEW100 28/18 A3006 850 54 2600 VRB/05 RMK AO2 SLP171 T02830183 10300 20206 53002
04850KAOH AOH20160726125511807/26/16 12:55:31  5-MIN KAOH 261755Z AUTO 15004KT 10SM SCT044 SCT100 28/18 A3006 850 54 2600 160/04 RMK AO2 T02830183
04850KAOH AOH20160726130011807/26/16 13:00:31  5-MIN KAOH 261800Z AUTO 00000KT 10SM BKN044 BKN100 28/18 A3005 850 54 2600 000/00 RMK AO2 T02830183
04850KAOH AOH20160726130511807/26/16 13:05:31  5-MIN KAOH 261805Z AUTO 05003KT 10SM BKN044 BKN100 29/19 A3005 860 54 2700 060/03 RMK AO2 T02890189
04850KAOH AOH20160726131011107/26/16 13:10:31  5-MIN KAOH 261810Z AUTO 01004KT 10SM SCT044 29/19 A3005 860 54 2700 020/04 RMK AO2 T02890189
04850KAOH AOH20160726131511107/26/16 13:15:31  5-MIN KAOH 261815Z AUTO 01003KT 10SM SCT044 28/19 A3005 860 56 2600 010/03 RMK AO2 T02830189
04850KAOH AOH20160726132011107/26/16 13:20:31  5-MIN KAOH 261820Z AUTO 36003KT 10SM FEW044 28/18 A3005 860 54 2600 360/03 RMK AO2 T02830183
04850KAOH AOH20160726132511807/26/16 13:25:31  5-MIN KAOH 261825Z AUTO 00000KT 10SM FEW044 SCT090 28/19 A3005 860 58 2600 000/00 RMK AO2 T02830194
04850KAOH AOH20160726133011107/26/16 13:30:31  5-MIN KAOH 261830Z AUTO 02004KT 10SM SCT090 28/19 A3005 860 56 2600 030/04 RMK AO2 T02830189
04850KAOH AOH20160726133511107/26/16 13:35:31  5-MIN KAOH 261835Z AUTO 03004KT 10SM SCT090 28/19 A3005 860 56 2600 030/04 RMK AO2 T02830189
04850KAOH AOH20160726134011807/26/16 13:40:31  5-MIN KAOH 261840Z AUTO 36004KT 10SM FEW045 SCT090 28/19 A3004 860 58 2600 010/04 RMK AO2 T02830194
04850KAOH AOH20160726134511807/26/16 13:45:31  5-MIN KAOH 261845Z AUTO 02005KT 10SM FEW045 SCT090 28/19 A3004 870 58 2600 030/05 RMK AO2 T02830194
04850KAOH AOH20160726135011807/26/16 13:50:31  5-MIN KAOH 261850Z AUTO 03003KT 10SM FEW090 28/19 A3004 870 56 2600 030/03 RMK AO2 SLP163 T02830189
04850KAOH AOH20160726135511107/26/16 13:55:31  5-MIN KAOH 261855Z AUTO 02003KT 10SM FEW090 28/19 A3003 870 56 2600 030/03 RMK AO2 T02830189
04850KAOH AOH20160726140010807/26/16 14:00:31  5-MIN KAOH 261900Z AUTO 00000KT 10SM CLR 28/18 A3003 870 54 2600 000/00 RMK AO2 T02830183
04850KAOH AOH20160726140510807/26/16 14:05:31  5-MIN KAOH 261905Z AUTO 35004KT 10SM CLR 28/19 A3003 870 56 2600 350/04 RMK AO2 T02830189
04850KAOH AOH20160726141010807/26/16 14:10:31  5-MIN KAOH 261910Z AUTO VRB03KT 10SM CLR 28/19 A3003 870 56 2600 VRB/03 RMK AO2 T02830189
04850KAOH AOH20160726141510807/26/16 14:15:31  5-MIN KAOH 261915Z AUTO 00000KT 10SM CLR 29/19 A3003 880 54 2700 000/00 RMK AO2 T02890189
04850KAOH AOH20160726142010807/26/16 14:20:31  5-MIN KAOH 261920Z AUTO 06003KT 10SM CLR 29/18 A3003 880 52 2700 070/03 RMK AO2 T02890183
04850KAOH AOH20160726142510807/26/16 14:25:31  5-MIN KAOH 261925Z AUTO 00000KT 10SM CLR 29/18 A3003 880 52 2700 000/00 RMK AO2 T02890183
04850KAOH AOH20160726143010807/26/16 14:30:31  5-MIN KAOH 261930Z AUTO 00000KT 10SM CLR 29/18 A3003 880 50 2700 000/00 RMK AO2 T02890178
04850KAOH AOH20160726143510807/26/16 14:35:31  5-MIN KAOH 261935Z AUTO 04005KT 10SM CLR 28/18 A3002 880 54 2700 040/05 RMK AO2 T02830183
04850KAOH AOH20160726144010807/26/16 14:40:31  5-MIN KAOH 261940Z AUTO VRB03KT 10SM CLR 28/19 A3002 880 56 2700 VRB/03 RMK AO2 T02830189
04850KAOH AOH20160726144510807/26/16 14:45:31  5-MIN KAOH 261945Z AUTO 07005KT 10SM CLR 28/19 A3002 880 56 2700 080/05 RMK AO2 T02830189
04850KAOH AOH20160726145011507/26/16 14:50:31  5-MIN KAOH 261950Z AUTO 03004KT 10SM CLR 28/19 A3002 890 56 2700 040/04 RMK AO2 SLP157 T02830189
04850KAOH AOH20160726145510807/26/16 14:55:31  5-MIN KAOH 261955Z AUTO 01003KT 10SM CLR 28/19 A3002 890 58 2600 020/03 RMK AO2 T02780189
04850KAOH AOH20160726150010807/26/16 15:00:31  5-MIN KAOH 262000Z AUTO 09003KT 10SM CLR 28/19 A3002 890 58 2600 090/03 RMK AO2 T02780189
04850KAOH AOH20160726150510807/26/16 15:05:31  5-MIN KAOH 262005Z AUTO 09005KT 10SM CLR 28/19 A3002 890 56 2700 100/05 RMK AO2 T02830189
04850KAOH AOH20160726151010807/26/16 15:10:31  5-MIN KAOH 262010Z AUTO 05003KT 10SM CLR 28/19 A3002 890 58 2700 050/03 RMK AO2 T02830194
04850KAOH AOH20160726151510807/26/16 15:15:31  5-MIN KAOH 262015Z AUTO 05003KT 10SM CLR 28/19 A3002 880 58 2700 060/03 RMK AO2 T02830194
04850KAOH AOH20160726152010807/26/16 15:20:31  5-MIN KAOH 262020Z AUTO 03004KT 10SM CLR 28/19 A3002 890 60 2600 030/04 RMK AO2 T02780194
04850KAOH AOH20160726152510807/26/16 15:25:31  5-MIN KAOH 262025Z AUTO 00000KT 10SM CLR 28/19 A3002 890 58 2600 000/00 RMK AO2 T02780189
04850KAOH AOH20160726153010807/26/16 15:30:31  5-MIN KAOH 262030Z AUTO 05003KT 10SM CLR 28/19 A3002 890 58 2700 060/03 RMK AO2 T02830194
04850KAOH AOH20160726153510807/26/16 15:35:31  5-MIN KAOH 262035Z AUTO 03004KT 10SM CLR 28/19 A3002 890 60 2600 030/04 RMK AO2 T02780194
04850KAOH AOH20160726154010807/26/16 15:40:31  5-MIN KAOH 262040Z AUTO 02004KT 10SM CLR 28/19 A3002 890 60 2600 020/04 RMK AO2 T02780194
04850KAOH AOH20160726154510807/26/16 15:45:31  5-MIN KAOH 262045Z AUTO 02005KT 10SM CLR 28/20 A3001 890 62 2600 030/05 RMK AO2 T02780200
04850KAOH AOH20160726155012107/26/16 15:50:31  5-MIN KAOH 262050Z AUTO 03005KT 10SM CLR 28/20 A3001 890 60 2700 040/05 RMK AO2 SLP156 T02830200 58005
04850KAOH AOH20160726155510807/26/16 15:55:31  5-MIN KAOH 262055Z AUTO 04005KT 10SM CLR 28/20 A3001 890 60 2700 040/05 RMK AO2 T02830200
04850KAOH AOH20160726160010807/26/16 16:00:31  5-MIN KAOH 262100Z AUTO 04005KT 10SM CLR 28/19 A3001 890 60 2600 050/05 RMK AO2 T02780194
04850KAOH AOH20160726160510807/26/16 16:05:31  5-MIN KAOH 262105Z AUTO 02004KT 10SM CLR 28/19 A3001 890 58 2700 030/04 RMK AO2 T02830194
04850KAOH AOH20160726161010807/26/16 16:10:31  5-MIN KAOH 262110Z AUTO 03004KT 10SM CLR 28/20 A3001 890 60 2700 040/04 RMK AO2 T02830200
04850KAOH AOH20160726161510807/26/16 16:15:31  5-MIN KAOH 262115Z AUTO 06004KT 10SM CLR 28/19 A3001 890 60 2600 060/04 RMK AO2 T02780194
04850KAOH AOH20160726162010807/26/16 16:20:31  5-MIN KAOH 262120Z AUTO 04005KT 10SM CLR 28/19 A3001 890 58 2700 050/05 RMK AO2 T02830194
04850KAOH AOH20160726162510807/26/16 16:25:31  5-MIN KAOH 262125Z AUTO 00000KT 10SM CLR 28/19 A3001 890 58 2700 000/00 RMK AO2 T02830194
04850KAOH AOH20160726163010807/26/16 16:30:31  5-MIN KAOH 262130Z AUTO 07004KT 10SM CLR 29/19 A3001 900 56 2700 080/04 RMK AO2 T02890194
04850KAOH AOH20160726163510807/26/16 16:35:31  5-MIN KAOH 262135Z AUTO VRB03KT 10SM CLR 28/19 A3001 900 56 2700 VRB/03 RMK AO2 T02830189
04850KAOH AOH20160726164010807/26/16 16:40:31  5-MIN KAOH 262140Z AUTO 04005KT 10SM CLR 29/20 A3001 900 58 2700 040/05 RMK AO2 T02890200
04850KAOH AOH20160726164510807/26/16 16:45:31  5-MIN KAOH 262145Z AUTO VRB04KT 10SM CLR 28/19 A3001 900 56 2700 VRB/04 RMK AO2 T02830189
04850KAOH AOH20160726165011807/26/16 16:50:31  5-MIN KAOH 262150Z AUTO 35003KT 10SM FEW110 28/19 A3000 900 58 2600 350/03 RMK AO2 SLP153 T02780189
04850KAOH AOH20160726165511107/26/16 16:55:31  5-MIN KAOH 262155Z AUTO 02003KT 10SM SCT100 28/20 A3000 900 62 2600 020/03 RMK AO2 T02780200
04850KAOH AOH20160726170011107/26/16 17:00:31  5-MIN KAOH 262200Z AUTO 01005KT 10SM BKN100 28/19 A3000 900 60 2600 020/05 RMK AO2 T02780194
04850KAOH AOH20160726170511107/26/16 17:05:31  5-MIN KAOH 262205Z AUTO 01005KT 10SM BKN100 28/19 A3000 900 60 2600 020/05 RMK AO2 T02780194
04850KAOH AOH20160726171011107/26/16 17:10:31  5-MIN KAOH 262210Z AUTO 36004KT 10SM BKN110 28/19 A3000 900 58 2600 010/04 RMK AO2 T02780189
04850KAOH AOH20160726171511107/26/16 17:15:31  5-MIN KAOH 262215Z AUTO 05003KT 10SM OVC110 28/19 A3000 900 60 2600 060/03 RMK AO2 T02780194
04850KAOH AOH20160726172011107/26/16 17:20:31  5-MIN KAOH 262220Z AUTO 04003KT 10SM OVC110 28/19 A3000 900 60 2600 040/03 RMK AO2 T02780194
04850KAOH AOH20160726172511107/26/16 17:25:31  5-MIN KAOH 262225Z AUTO 02003KT 10SM OVC100 28/19 A3000 900 60 2600 030/03 RMK AO2 T02780194
04850KAOH AOH20160726173011107/26/16 17:30:31  5-MIN KAOH 262230Z AUTO 02003KT 10SM OVC100 28/19 A3000 900 60 2600 030/03 RMK AO2 T02780194
04850KAOH AOH20160726173511107/26/16 17:35:31  5-MIN KAOH 262235Z AUTO 00000KT 10SM OVC100 28/19 A3000 900 60 2600 000/00 RMK AO2 T02780194
04850KAOH AOH20160726174011107/26/16 17:40:31  5-MIN KAOH 262240Z AUTO 01003KT 10SM OVC100 28/19 A3001 900 60 2600 010/03 RMK AO2 T02780194
04850KAOH AOH20160726174511107/26/16 17:45:31  5-MIN KAOH 262245Z AUTO 00000KT 10SM OVC100 28/19 A3001 900 60 2600 000/00 RMK AO2 T02780194
04850KAOH AOH20160726175011807/26/16 17:50:31  5-MIN KAOH 262250Z AUTO 00000KT 10SM BKN100 28/19 A3001 900 60 2600 000/00 RMK AO2 SLP154 T02780194
04850KAOH AOH20160726175511107/26/16 17:55:31  5-MIN KAOH 262255Z AUTO 00000KT 10SM BKN100 28/19 A3001 900 58 2700 000/00 RMK AO2 T02830194
04850KAOH AOH20160726180011107/26/16 18:00:31  5-MIN KAOH 262300Z AUTO 00000KT 10SM SCT100 28/19 A3001 900 56 2700 000/00 RMK AO2 T02830189
04850KAOH AOH20160726180511107/26/16 18:05:31  5-MIN KAOH 262305Z AUTO 00000KT 10SM SCT100 28/19 A3001 900 56 2700 000/00 RMK AO2 T02830189
04850KAOH AOH20160726181011107/26/16 18:10:31  5-MIN KAOH 262310Z AUTO 00000KT 10SM BKN100 28/19 A3001 890 58 2700 000/00 RMK AO2 T02830194
04850KAOH AOH20160726181511107/26/16 18:15:31  5-MIN KAOH 262315Z AUTO 00000KT 10SM BKN100 28/19 A3001 900 60 2600 000/00 RMK AO2 T02780194
04850KAOH AOH20160726182011107/26/16 18:20:31  5-MIN KAOH 262320Z AUTO 00000KT 10SM BKN100 28/19 A3001 900 60 2600 000/00 RMK AO2 T02780194
04850KAOH AOH20160726182511107/26/16 18:25:31  5-MIN KAOH 262325Z AUTO 04003KT 10SM BKN100 28/20 A3001 900 62 2600 040/03 RMK AO2 T02780200
04850KAOH AOH20160726183011107/26/16 18:30:31  5-MIN KAOH 262330Z AUTO 00000KT 10SM OVC100 28/19 A3001 890 58 2600 000/00 RMK AO2 T02780189
04850KAOH AOH20160726183511107/26/16 18:35:31  5-MIN KAOH 262335Z AUTO 00000KT 10SM OVC095 27/20 A3001 890 64 2500 000/00 RMK AO2 T02720200
04850KAOH AOH20160726184011107/26/16 18:40:31  5-MIN KAOH 262340Z AUTO 00000KT 10SM OVC095 27/20 A3001 890 64 2500 000/00 RMK AO2 T02720200
04850KAOH AOH20160726184511107/26/16 18:45:31  5-MIN KAOH 262345Z AUTO 00000KT 10SM OVC095 27/21 A3001 890 66 2500 000/00 RMK AO2 T02720206
04850KAOH AOH20160726185013607/26/16 18:50:31  5-MIN KAOH 262350Z AUTO 00000KT 10SM BKN095 28/20 A3001 890 62 2600 000/00 RMK AO2 SLP155 T02780200 10294 20272 56014
04850KAOH AOH20160726185511107/26/16 18:55:31  5-MIN KAOH 262355Z AUTO 00000KT 10SM BKN100 28/20 A3001 890 62 2600 000/00 RMK AO2 T02780200
04850KAOH AOH20160726190011107/26/16 19:00:31  5-MIN KAOH 270000Z AUTO 00000KT 10SM BKN095 27/21 A3001 890 66 2500 000/00 RMK AO2 T02720206
04850KAOH AOH20160726190511107/26/16 19:05:31  5-MIN KAOH 270005Z AUTO 00000KT 10SM BKN100 27/20 A3001 900 64 2500 000/00 RMK AO2 T02720200
04850KAOH AOH20160726191011107/26/16 19:10:31  5-MIN KAOH 270010Z AUTO 00000KT 10SM BKN100 27/21 A3001 890 66 2500 000/00 RMK AO2 T02720206
04850KAOH AOH20160726191511107/26/16 19:15:31  5-MIN KAOH 270015Z AUTO 00000KT 10SM SCT095 27/21 A3001 890 71 2500 000/00 RMK AO2 T02670211
04850KAOH AOH20160726192011107/26/16 19:20:31  5-MIN KAOH 270020Z AUTO 00000KT 10SM SCT100 27/21 A3001 900 71 2500 000/00 RMK AO2 T02670211
04850KAOH AOH20160726192511107/26/16 19:25:31  5-MIN KAOH 270025Z AUTO 00000KT 10SM SCT095 26/21 A3001 890 73 2400 000/00 RMK AO2 T02610211
04850KAOH AOH20160726193011107/26/16 19:30:31  5-MIN KAOH 270030Z AUTO 00000KT 10SM SCT095 26/21 A3001 890 73 2400 000/00 RMK AO2 T02610211
04850KAOH AOH20160726193511107/26/16 19:35:31  5-MIN KAOH 270035Z AUTO 00000KT 10SM BKN095 26/21 A3001 890 73 2400 000/00 RMK AO2 T02610211
04850KAOH AOH20160726194011107/26/16 19:40:31  5-MIN KAOH 270040Z AUTO 00000KT 10SM BKN095 27/21 A3001 890 69 2500 000/00 RMK AO2 T02670206
04850KAOH AOH20160726194511107/26/16 19:45:31  5-MIN KAOH 270045Z AUTO 00000KT 10SM BKN095 26/21 A3001 890 71 2400 000/00 RMK AO2 T02610206
04850KAOH AOH20160726195011807/26/16 19:50:31  5-MIN KAOH 270050Z AUTO 00000KT 10SM SCT095 26/21 A3001 890 71 2400 000/00 RMK AO2 SLP155 T02610206
04850KAOH AOH20160726195511107/26/16 19:55:31  5-MIN KAOH 270055Z AUTO 00000KT 10SM SCT095 26/21 A3001 890 73 2400 000/00 RMK AO2 T02560206
04850KAOH AOH20160726200011107/26/16 20:00:31  5-MIN KAOH 270100Z AUTO 00000KT 10SM SCT095 26/20 A3001 900 71 2400 000/00 RMK AO2 T02560200
04850KAOH AOH20160726200511107/26/16 20:05:31  5-MIN KAOH 270105Z AUTO 00000KT 10SM FEW095 25/20 A3001 900 73 2300 000/00 RMK AO2 T02500200
04850KAOH AOH20160726201010807/26/16 20:10:31  5-MIN KAOH 270110Z AUTO 00000KT 10SM CLR 24/21 A3001 900 78 2200 000/00 RMK AO2 T02440206
04850KAOH AOH20160726201510807/26/16 20:15:31  5-MIN KAOH 270115Z AUTO 00000KT 10SM CLR 24/21 A3001 900 81 2200 000/00 RMK AO2 T02390206
04850KAOH AOH20160726202010807/26/16 20:20:31  5-MIN KAOH 270120Z AUTO 00000KT 10SM CLR 23/21 A3001 900 84 2100 000/00 RMK AO2 T02330206
04850KAOH AOH20160726202510807/26/16 20:25:31  5-MIN KAOH 270125Z AUTO 00000KT 10SM CLR 23/21 A3001 900 84 2100 000/00 RMK AO2 T02330206
04850KAOH AOH20160726203010807/26/16 20:30:31  5-MIN KAOH 270130Z AUTO 00000KT 10SM CLR 23/21 A3001 890 84 2100 000/00 RMK AO2 T02330206
04850KAOH AOH20160726203510807/26/16 20:35:31  5-MIN KAOH 270135Z AUTO VRB03KT 10SM CLR 23/20 A3001 890 81 2100 VRB/03 RMK AO2 T02330200
04850KAOH AOH20160726204010807/26/16 20:40:31  5-MIN KAOH 270140Z AUTO 01003KT 10SM CLR 22/20 A3001 890 87 2000 010/03 RMK AO2 T02220200
04850KAOH AOH20160726204510807/26/16 20:45:31  5-MIN KAOH 270145Z AUTO 00000KT 10SM CLR 22/20 A3002 890 87 2000 000/00 RMK AO2 T02220200
04850KAOH AOH20160726205011507/26/16 20:50:31  5-MIN KAOH 270150Z AUTO 00000KT 10SM CLR 23/20 A3002 890 84 2000 000/00 RMK AO2 SLP158 T02280200
04850KAOH AOH20160726205510807/26/16 20:55:31  5-MIN KAOH 270155Z AUTO 00000KT 10SM CLR 23/20 A3002 880 81 2100 000/00 RMK AO2 T02330200
04850KAOH AOH20160726210010807/26/16 21:00:31  5-MIN KAOH 270200Z AUTO 00000KT 10SM CLR 23/20 A3002 880 81 2100 000/00 RMK AO2 T02330200
04850KAOH AOH20160726210510807/26/16 21:05:31  5-MIN KAOH 270205Z AUTO 00000KT 10SM CLR 23/20 A3002 880 81 2100 000/00 RMK AO2 T02330200
04850KAOH AOH20160726211010807/26/16 21:10:31  5-MIN KAOH 270210Z AUTO 00000KT 10SM CLR 23/20 A3002 880 84 2000 000/00 RMK AO2 T02280200
04850KAOH AOH20160726211510807/26/16 21:15:31  5-MIN KAOH 270215Z AUTO 00000KT 10SM CLR 23/20 A3002 880 84 2000 000/00 RMK AO2 T02280200
04850KAOH AOH20160726212010807/26/16 21:20:31  5-MIN KAOH 270220Z AUTO 00000KT 10SM CLR 22/20 A3003 880 90 1900 000/00 RMK AO2 T02170200
04850KAOH AOH20160726212510807/26/16 21:25:31  5-MIN KAOH 270225Z AUTO 00000KT 10SM CLR 22/20 A3003 880 87 2000 000/00 RMK AO2 T02220200
04850KAOH AOH20160726213010807/26/16 21:30:31  5-MIN KAOH 270230Z AUTO 09004KT 10SM CLR 22/19 A3003 880 87 1900 100/04 RMK AO2 T02170194
04850KAOH AOH20160726213510807/26/16 21:35:31  5-MIN KAOH 270235Z AUTO 09004KT 10SM CLR 21/19 A3003 880 90 1800 100/04 RMK AO2 T02110194
04850KAOH AOH20160726214010807/26/16 21:40:31  5-MIN KAOH 270240Z AUTO 09003KT 10SM CLR 22/20 A3003 880 90 1900 090/03 RMK AO2 T02170200
04850KAOH AOH20160726214510807/26/16 21:45:31  5-MIN KAOH 270245Z AUTO 04005KT 10SM CLR 21/19 A3003 880 93 1800 050/05 RMK AO2 T02060194
04850KAOH AOH20160726215012107/26/16 21:50:31  5-MIN KAOH 270250Z AUTO 06005KT 10SM CLR 22/19 A3003 880 87 1900 070/05 RMK AO2 SLP161 T02170194 55001
04850KAOH AOH20160726215510807/26/16 21:55:31  5-MIN KAOH 270255Z AUTO 07006KT 10SM CLR 22/19 A3003 880 87 1900 070/06 RMK AO2 T02170194
04850KAOH AOH20160726220010807/26/16 22:00:31  5-MIN KAOH 270300Z AUTO 07005KT 10SM CLR 21/19 A3003 880 90 1800 080/05 RMK AO2 T02110194
04850KAOH AOH20160726220510807/26/16 22:05:31  5-MIN KAOH 270305Z AUTO 08005KT 10SM CLR 21/19 A3003 880 90 1800 080/05 RMK AO2 T02110194
04850KAOH AOH20160726221010807/26/16 22:10:31  5-MIN KAOH 270310Z AUTO 08005KT 10SM CLR 21/19 A3003 880 93 1800 090/05 RMK AO2 T02060194
04850KAOH AOH20160726221510807/26/16 22:15:31  5-MIN KAOH 270315Z AUTO 09005KT 10SM CLR 21/19 A3003 880 90 1800 090/05 RMK AO2 T02110194
04850KAOH AOH20160726222010807/26/16 22:20:31  5-MIN KAOH 270320Z AUTO 09005KT 10SM CLR 21/19 A3003 880 87 1800 090/05 RMK AO2 T02110189
04850KAOH AOH20160726222510807/26/16 22:25:31  5-MIN KAOH 270325Z AUTO 09005KT 10SM CLR 21/19 A3003 880 87 1800 100/05 RMK AO2 T02110189
04850KAOH AOH20160726223010807/26/16 22:30:31  5-MIN KAOH 270330Z AUTO 09005KT 10SM CLR 21/18 A3003 880 84 1800 100/05 RMK AO2 T02110183
04850KAOH AOH20160726223510807/26/16 22:35:31  5-MIN KAOH 270335Z AUTO 08004KT 10SM CLR 21/18 A3003 880 87 1800 080/04 RMK AO2 T02060183
04850KAOH AOH20160726224010807/26/16 22:40:31  5-MIN KAOH 270340Z AUTO 07004KT 10SM CLR 21/18 A3003 880 84 1800 070/04 RMK AO2 T02110183
04850KAOH AOH20160726224510807/26/16 22:45:31  5-MIN KAOH 270345Z AUTO 08004KT 10SM CLR 21/18 A3003 880 81 1800 080/04 RMK AO2 T02110178
04850KAOH AOH20160726225011507/26/16 22:50:31  5-MIN KAOH 270350Z AUTO 09004KT 10SM CLR 21/18 A3003 880 81 1800 090/04 RMK AO2 SLP161 T02110178
04850KAOH AOH20160726225510807/26/16 22:55:31  5-MIN KAOH 270355Z AUTO 07005KT 10SM CLR 21/18 A3003 870 84 1800 080/05 RMK AO2 T02060178
04850KAOH AOH20160726230010807/26/16 23:00:31  5-MIN KAOH 270400Z AUTO 08006KT 10SM CLR 21/18 A3003 870 84 1800 080/06 RMK AO2 T02060178
04850KAOH AOH20160726230510807/26/16 23:05:31  5-MIN KAOH 270405Z AUTO 09006KT 10SM CLR 21/18 A3003 870 84 1800 090/06 RMK AO2 T02060178
04850KAOH AOH20160726231010807/26/16 23:10:31  5-MIN KAOH 270410Z AUTO 09005KT 10SM CLR 20/18 A3003 870 87 1700 100/05 RMK AO2 T02000178
04850KAOH AOH20160726231510807/26/16 23:15:31  5-MIN KAOH 270415Z AUTO 10006KT 10SM CLR 20/18 A3003 880 87 1700 100/06 RMK AO2 T02000178
04850KAOH AOH20160726232010807/26/16 23:20:31  5-MIN KAOH 270420Z AUTO 09005KT 10SM CLR 20/18 A3003 880 87 1700 100/05 RMK AO2 T02000178
04850KAOH AOH20160726232510807/26/16 23:25:31  5-MIN KAOH 270425Z AUTO 10005KT 10SM CLR 20/18 A3003 880 87 1700 110/05 RMK AO2 T02000178
04850KAOH AOH20160726233010807/26/16 23:30:31  5-MIN KAOH 270430Z AUTO 10004KT 10SM CLR 20/18 A3003 880 87 1700 110/04 RMK AO2 T02000178
04850KAOH AOH20160726233510807/26/16 23:35:31  5-MIN KAOH 270435Z AUTO 11003KT 10SM CLR 20/18 A3003 880 87 1700 110/03 RMK AO2 T02000178
04850KAOH AOH20160726234010807/26/16 23:40:31  5-MIN KAOH 270440Z AUTO 11004KT 10SM CLR 20/18 A3003 880 87 1700 110/04 RMK AO2 T02000178
04850KAOH AOH20160726234510807/26/16 23:45:31  5-MIN KAOH 270445Z AUTO 11005KT 10SM CLR 20/18 A3003 880 87 1700 120/05 RMK AO2 T02000178
04850KAOH AOH20160726235012507/26/16 23:50:31  5-MIN KAOH 270450Z AUTO 11005KT 10SM CLR 21/18 A3003 880 81 1800 120/05 RMK AO2 SLP161 T02110178 403000178
04850KAOH AOH20160726235510807/26/16 23:55:31  5-MIN KAOH 270455Z AUTO 12004KT 10SM CLR 21/18 A3003 870 81 1800 120/04 RMK AO2 T02110178
04850KAOH AOH20160727000010807/27/16 00:00:31  5-MIN KAOH 270500Z AUTO 12003KT 10SM CLR 21/18 A3003 870 81 1800 130/03 RMK AO2 T02110178
04850KAOH AOH20160727000510807/27/16 00:05:31  5-MIN KAOH 270505Z AUTO 14003KT 10SM CLR 21/18 A3003 880 84 1800 150/03 RMK AO2 T02060178
04850KAOH AOH20160727001010807/27/16 00:10:31  5-MIN KAOH 270510Z AUTO 00000KT 10SM CLR 21/18 A3003 880 84 1800 000/00 RMK AO2 T02060178
04850KAOH AOH20160727001510807/27/16 00:15:31  5-MIN KAOH 270515Z AUTO 00000KT 10SM CLR 21/18 A3003 880 84 1800 000/00 RMK AO2 T02060178
04850KAOH AOH20160727002010807/27/16 00:20:31  5-MIN KAOH 270520Z AUTO 00000KT 10SM CLR 21/18 A3002 880 84 1800 000/00 RMK AO2 T02060178
04850KAOH AOH20160727002510807/27/16 00:25:31  5-MIN KAOH 270525Z AUTO 13003KT 10SM CLR 21/18 A3002 880 84 1800 140/03 RMK AO2 T02060178
04850KAOH AOH20160727003010807/27/16 00:30:31  5-MIN KAOH 270530Z AUTO 13004KT 10SM CLR 20/18 A3002 880 87 1700 140/04 RMK AO2 T02000178
04850KAOH AOH20160727003510807/27/16 00:35:31  5-MIN KAOH 270535Z AUTO 13003KT 10SM CLR 20/18 A3002 880 87 1700 140/03 RMK AO2 T02000178
04850KAOH AOH20160727004010807/27/16 00:40:31  5-MIN KAOH 270540Z AUTO 00000KT 10SM CLR 20/18 A3002 890 87 1700 000/00 RMK AO2 T02000178
04850KAOH AOH20160727004510807/27/16 00:45:31  5-MIN KAOH 270545Z AUTO 00000KT 10SM CLR 21/18 A3002 890 84 1800 000/00 RMK AO2 T02060178
04850KAOH AOH20160727005013307/27/16 00:50:31  5-MIN KAOH 270550Z AUTO 13003KT 10SM CLR 20/18 A3002 890 87 1700 130/03 RMK AO2 SLP157 T02000178 10278 20200 53006
04850KAOH AOH20160727005510807/27/16 00:55:31  5-MIN KAOH 270555Z AUTO 13003KT 10SM CLR 20/18 A3001 890 87 1700 140/03 RMK AO2 T02000178
04850KAOH AOH20160727010010807/27/16 01:00:31  5-MIN KAOH 270600Z AUTO 13003KT 10SM CLR 21/18 A3002 890 84 1800 140/03 RMK AO2 T02060178
04850KAOH AOH20160727010510807/27/16 01:05:31  5-MIN KAOH 270605Z AUTO 14004KT 10SM CLR 21/18 A3002 890 84 1800 150/04 RMK AO2 T02060178
04850KAOH AOH20160727011010807/27/16 01:10:31  5-MIN KAOH 270610Z AUTO 15003KT 10SM CLR 21/17 A3001 890 78 1800 160/03 RMK AO2 T02110172
04850KAOH AOH20160727011510807/27/16 01:15:31  5-MIN KAOH 270615Z AUTO 16004KT 10SM CLR 21/17 A3002 890 81 1800 170/04 RMK AO2 T02060172
04850KAOH AOH20160727012010807/27/16 01:20:31  5-MIN KAOH 270620Z AUTO 14005KT 10SM CLR 20/18 A3001 890 87 1700 150/05 RMK AO2 T02000178
04850KAOH AOH20160727012510807/27/16 01:25:31  5-MIN KAOH 270625Z AUTO 14004KT 10SM CLR 20/18 A3001 890 87 1700 150/04 RMK AO2 T02000178
04850KAOH AOH20160727013010807/27/16 01:30:31  5-MIN KAOH 270630Z AUTO 15004KT 10SM CLR 20/17 A3001 890 84 1700 150/04 RMK AO2 T02000172
04850KAOH AOH20160727013510807/27/16 01:35:31  5-MIN KAOH 270635Z AUTO 15004KT 10SM CLR 20/18 A3001 890 87 1700 160/04 RMK AO2 T02000178
04850KAOH AOH20160727014010807/27/16 01:40:31  5-MIN KAOH 270640Z AUTO 15004KT 10SM CLR 20/17 A3001 890 84 1700 150/04 RMK AO2 T02000172
04850KAOH AOH20160727014510807/27/16 01:45:31  5-MIN KAOH 270645Z AUTO 00000KT 10SM CLR 19/17 A3001 890 87 1700 000/00 RMK AO2 T01940172
04850KAOH AOH20160727015011507/27/16 01:50:31  5-MIN KAOH 270650Z AUTO 14003KT 10SM CLR 19/17 A3001 890 87 1700 150/03 RMK AO2 SLP155 T01940172
04850KAOH AOH20160727015510807/27/16 01:55:31  5-MIN KAOH 270655Z AUTO 14003KT 10SM CLR 19/17 A3001 900 87 1700 150/03 RMK AO2 T01940172
04850KAOH AOH20160727020010807/27/16 02:00:31  5-MIN KAOH 270700Z AUTO 15004KT 10SM CLR 19/17 A3001 900 90 1600 150/04 RMK AO2 T01890172
04850KAOH AOH20160727020510807/27/16 02:05:31  5-MIN KAOH 270705Z AUTO 15005KT 10SM CLR 19/17 A3001 900 87 1700 160/05 RMK AO2 T01940172
04850KAOH AOH20160727021010807/27/16 02:10:31  5-MIN KAOH 270710Z AUTO 16005KT 10SM CLR 20/17 A3001 900 84 1700 160/05 RMK AO2 T02000172
04850KAOH AOH20160727021510807/27/16 02:15:31  5-MIN KAOH 270715Z AUTO 15004KT 10SM CLR 19/17 A3001 900 87 1700 160/04 RMK AO2 T01940172
04850KAOH AOH20160727022010807/27/16 02:20:31  5-MIN KAOH 270720Z AUTO 00000KT 10SM CLR 19/17 A3000 900 87 1700 000/00 RMK AO2 T01940172
04850KAOH AOH20160727022510807/27/16 02:25:31  5-MIN KAOH 270725Z AUTO 00000KT 10SM CLR 19/17 A3000 900 84 1700 000/00 RMK AO2 T01940167
04850KAOH AOH20160727023010807/27/16 02:30:31  5-MIN KAOH 270730Z AUTO 00000KT 10SM CLR 20/17 A3001 900 81 1700 000/00 RMK AO2 T02000167
04850KAOH AOH20160727023510807/27/16 02:35:31  5-MIN KAOH 270735Z AUTO 00000KT 10SM CLR 21/17 A3001 900 78 1800 000/00 RMK AO2 T02060167
04850KAOH AOH20160727024010807/27/16 02:40:31  5-MIN KAOH 270740Z AUTO 00000KT 10SM CLR 20/17 A3001 900 81 1700 000/00 RMK AO2 T02000167
04850KAOH AOH20160727024510807/27/16 02:45:31  5-MIN KAOH 270745Z AUTO 00000KT 10SM CLR 20/17 A3001 900 81 1700 000/00 RMK AO2 T02000167
04850KAOH AOH20160727025011507/27/16 02:50:31  5-MIN KAOH 270750Z AUTO 00000KT 10SM CLR 21/17 A3001 900 78 1800 000/00 RMK AO2 SLP153 T02060167
04850KAOH AOH20160727025510807/27/16 02:55:31  5-MIN KAOH 270755Z AUTO 00000KT 10SM CLR 21/16 A3001 900 75 1800 000/00 RMK AO2 T02060161
04850KAOH AOH20160727030010807/27/16 03:00:31  5-MIN KAOH 270800Z AUTO 00000KT 10SM CLR 21/16 A3001 900 75 1800 000/00 RMK AO2 T02060161
04850KAOH AOH20160727030510807/27/16 03:05:31  5-MIN KAOH 270805Z AUTO 00000KT 10SM CLR 21/16 A3001 900 75 1800 000/00 RMK AO2 T02060161
04850KAOH AOH20160727031010807/27/16 03:10:31  5-MIN KAOH 270810Z AUTO 00000KT 10SM CLR 21/16 A3001 900 75 1800 000/00 RMK AO2 T02060161
04850KAOH AOH20160727031510807/27/16 03:15:31  5-MIN KAOH 270815Z AUTO 00000KT 10SM CLR 21/16 A3000 900 75 1800 000/00 RMK AO2 T02060161
04850KAOH AOH20160727032010807/27/16 03:20:31  5-MIN KAOH 270820Z AUTO 00000KT 10SM CLR 20/16 A3000 900 78 1700 000/00 RMK AO2 T02000161
04850KAOH AOH20160727032510807/27/16 03:25:31  5-MIN KAOH 270825Z AUTO 16003KT 10SM CLR 21/16 A3000 900 75 1800 170/03 RMK AO2 T02060161
04850KAOH AOH20160727033010807/27/16 03:30:31  5-MIN KAOH 270830Z AUTO 00000KT 10SM CLR 21/16 A3000 900 73 1900 000/00 RMK AO2 T02110161
04850KAOH AOH20160727033510807/27/16 03:35:31  5-MIN KAOH 270835Z AUTO 00000KT 10SM CLR 20/16 A3001 900 78 1700 000/00 RMK AO2 T02000161
04850KAOH AOH20160727034010807/27/16 03:40:31  5-MIN KAOH 270840Z AUTO 14003KT 10SM CLR 20/16 A3001 900 78 1700 140/03 RMK AO2 T02000161
04850KAOH AOH20160727034511107/27/16 03:45:31  5-MIN KAOH 270845Z AUTO 15003KT 10SM FEW065 21/16 A3001 900 75 1800 160/03 RMK AO2 T02060161
04850KAOH AOH20160727035012407/27/16 03:50:31  5-MIN KAOH 270850Z AUTO 17003KT 10SM SCT065 21/16 A3001 900 75 1800 180/03 RMK AO2 SLP154 T02060161 58004
04850KAOH AOH20160727035511107/27/16 03:55:31  5-MIN KAOH 270855Z AUTO 18003KT 10SM BKN065 20/16 A3001 900 78 1700 180/03 RMK AO2 T02000161
04850KAOH AOH20160727040011107/27/16 04:00:31  5-MIN KAOH 270900Z AUTO 00000KT 10SM BKN065 20/17 A3001 900 81 1700 000/00 RMK AO2 T02000167
04850KAOH AOH20160727040511107/27/16 04:05:31  5-MIN KAOH 270905Z AUTO 00000KT 10SM BKN065 20/17 A3001 890 81 1700 000/00 RMK AO2 T02000167
04850KAOH AOH20160727041011107/27/16 04:10:31  5-MIN KAOH 270910Z AUTO 15003KT 10SM OVC065 21/16 A3001 900 75 1800 150/03 RMK AO2 T02060161
04850KAOH AOH20160727041511107/27/16 04:15:31  5-MIN KAOH 270915Z AUTO 15003KT 10SM OVC065 21/16 A3001 890 73 1900 160/03 RMK AO2 T02110161
04850KAOH AOH20160727042011107/27/16 04:20:31  5-MIN KAOH 270920Z AUTO 14003KT 10SM OVC065 21/16 A3001 900 73 1900 140/03 RMK AO2 T02110161
04850KAOH AOH20160727042511107/27/16 04:25:31  5-MIN KAOH 270925Z AUTO 00000KT 10SM OVC065 21/16 A3001 900 73 1900 000/00 RMK AO2 T02110161
04850KAOH AOH20160727043011107/27/16 04:30:31  5-MIN KAOH 270930Z AUTO 00000KT 10SM OVC065 21/16 A3001 900 75 1800 000/00 RMK AO2 T02060161
04850KAOH AOH20160727043511107/27/16 04:35:31  5-MIN KAOH 270935Z AUTO 00000KT 10SM OVC065 20/17 A3001 890 81 1700 000/00 RMK AO2 T02000167
04850KAOH AOH20160727044011107/27/16 04:40:31  5-MIN KAOH 270940Z AUTO 00000KT 10SM OVC065 21/17 A3001 890 78 1800 000/00 RMK AO2 T02060167
04850KAOH AOH20160727044511107/27/16 04:45:31  5-MIN KAOH 270945Z AUTO 00000KT 10SM OVC065 20/17 A3002 890 81 1700 000/00 RMK AO2 T02000167
04850KAOH AOH20160727045011807/27/16 04:50:31  5-MIN KAOH 270950Z AUTO 00000KT 10SM OVC065 19/17 A3002 890 87 1700 000/00 RMK AO2 SLP158 T01940172
04850KAOH AOH20160727045511107/27/16 04:55:31  5-MIN KAOH 270955Z AUTO 00000KT 10SM OVC065 21/17 A3002 890 78 1800 000/00 RMK AO2 T02060167
04850KAOH AOH20160727050011107/27/16 05:00:31  5-MIN KAOH 271000Z AUTO 14003KT 10SM OVC065 21/17 A3002 890 78 1800 140/03 RMK AO2 T02060167
04850KAOH AOH20160727050511107/27/16 05:05:31  5-MIN KAOH 271005Z AUTO 00000KT 10SM BKN070 21/17 A3002 890 78 1800 000/00 RMK AO2 T02060167
04850KAOH AOH20160727051011107/27/16 05:10:31  5-MIN KAOH 271010Z AUTO 00000KT 10SM BKN070 21/16 A3002 890 75 1800 000/00 RMK AO2 T02060161
04850KAOH AOH20160727051511107/27/16 05:15:31  5-MIN KAOH 271015Z AUTO 00000KT 10SM BKN070 19/17 A3002 890 87 1600 000/00 RMK AO2 T01940172
04850KAOH AOH20160727052011107/27/16 05:20:31  5-MIN KAOH 271020Z AUTO 00000KT 10SM SCT070 19/17 A3002 890 90 1600 000/00 RMK AO2 T01890172
04850KAOH AOH20160727052511107/27/16 05:25:31  5-MIN KAOH 271025Z AUTO 00000KT 10SM FEW070 20/16 A3002 880 78 1700 000/00 RMK AO2 T02000161
04850KAOH AOH20160727053011107/27/16 05:30:31  5-MIN KAOH 271030Z AUTO 00000KT 10SM FEW070 20/16 A3002 880 78 1700 000/00 RMK AO2 T02000161
04850KAOH AOH20160727053511107/27/16 05:35:31  5-MIN KAOH 271035Z AUTO 00000KT 10SM FEW070 19/16 A3003 880 81 1600 000/00 RMK AO2 T01940161
04850KAOH AOH20160727054011107/27/16 05:40:31  5-MIN KAOH 271040Z AUTO 00000KT 10SM FEW070 20/16 A3003 880 78 1700 000/00 RMK AO2 T02000161
04850KAOH AOH20160727054511107/27/16 05:45:31  5-MIN KAOH 271045Z AUTO 00000KT 10SM FEW070 20/16 A3003 880 75 1700 000/00 RMK AO2 T02000156
04850KAOH AOH20160727055011807/27/16 05:50:31  5-MIN KAOH 271050Z AUTO 00000KT 10SM SCT070 20/16 A3003 870 78 1700 000/00 RMK AO2 SLP163 T02000161
04850KAOH AOH20160727055511107/27/16 05:55:31  5-MIN KAOH 271055Z AUTO 00000KT 10SM SCT070 18/17 A3003 870 90 1500 000/00 RMK AO2 T01830167
04850KAOH AOH20160727060011107/27/16 06:00:31  5-MIN KAOH 271100Z AUTO 00000KT 10SM BKN070 19/17 A3003 870 90 1600 000/00 RMK AO2 T01890172
04850KAOH AOH20160727060511107/27/16 06:05:31  5-MIN KAOH 271105Z AUTO 00000KT 10SM SCT070 19/17 A3003 870 90 1600 000/00 RMK AO2 T01890172
04850KAOH AOH20160727061011107/27/16 06:10:31  5-MIN KAOH 271110Z AUTO 01003KT 10SM SCT070 19/17 A3003 870 90 1600 020/03 RMK AO2 T01890172
04850KAOH AOH20160727061511107/27/16 06:15:31  5-MIN KAOH 271115Z AUTO 03003KT 10SM FEW070 19/17 A3003 870 87 1600 040/03 RMK AO2 T01940172
04850KAOH AOH20160727062011107/27/16 06:20:31  5-MIN KAOH 271120Z AUTO 00000KT 10SM FEW070 19/17 A3003 870 87 1600 000/00 RMK AO2 T01940172
04850KAOH AOH20160727062511107/27/16 06:25:31  5-MIN KAOH 271125Z AUTO 00000KT 10SM FEW070 19/17 A3004 870 87 1600 000/00 RMK AO2 T01940172
04850KAOH AOH20160727063011107/27/16 06:30:31  5-MIN KAOH 271130Z AUTO 00000KT 10SM FEW070 20/17 A3004 870 84 1700 000/00 RMK AO2 T02000172
04850KAOH AOH20160727063511107/27/16 06:35:31  5-MIN KAOH 271135Z AUTO 00000KT 10SM FEW070 20/17 A3004 870 84 1700 000/00 RMK AO2 T02000172
04850KAOH AOH20160727064010807/27/16 06:40:31  5-MIN KAOH 271140Z AUTO 00000KT 10SM CLR 21/18 A3004 870 84 1800 000/00 RMK AO2 T02060178
04850KAOH AOH20160727064511107/27/16 06:45:31  5-MIN KAOH 271145Z AUTO 00000KT 10SM FEW048 21/18 A3004 870 81 1800 000/00 RMK AO2 T02110178
04850KAOH AOH20160727065014307/27/16 06:50:31  5-MIN KAOH 271150Z AUTO 00000KT 10SM FEW048 FEW070 22/18 A3004 860 78 1900 000/00 RMK AO2 SLP165 T02170178 10217 20183 56003
04850KAOH AOH20160727065511107/27/16 06:55:31  5-MIN KAOH 271155Z AUTO 00000KT 10SM SCT070 22/18 A3004 860 78 1900 000/00 RMK AO2 T02170178
04850KAOH AOH20160727070011807/27/16 07:00:31  5-MIN KAOH 271200Z AUTO 00000KT 10SM FEW049 BKN070 22/18 A3004 860 78 1900 000/00 RMK AO2 T02220183
04850KAOH AOH20160727070511807/27/16 07:05:31  5-MIN KAOH 271205Z AUTO 00000KT 10SM SCT049 BKN070 22/18 A3005 860 78 1900 000/00 RMK AO2 T02220183
04850KAOH AOH20160727071011807/27/16 07:10:31  5-MIN KAOH 271210Z AUTO 00000KT 10SM BKN049 BKN070 23/18 A3005 860 73 2000 000/00 RMK AO2 T02280178
04850KAOH AOH20160727071511807/27/16 07:15:31  5-MIN KAOH 271215Z AUTO 00000KT 10SM BKN049 OVC070 23/18 A3005 860 76 2000 000/00 RMK AO2 T02280183
04850KAOH AOH20160727072011807/27/16 07:20:31  5-MIN KAOH 271220Z AUTO 00000KT 10SM BKN055 OVC070 23/19 A3005 860 78 2000 000/00 RMK AO2 T02280189
04850KAOH AOH20160727072511807/27/16 07:25:31  5-MIN KAOH 271225Z AUTO 00000KT 10SM BKN055 BKN070 23/19 A3005 860 78 2000 000/00 RMK AO2 T02280189
04850KAOH AOH20160727073011807/27/16 07:30:31  5-MIN KAOH 271230Z AUTO 00000KT 10SM SCT055 BKN070 23/18 A3005 860 70 2100 000/00 RMK AO2 T02330178
04850KAOH AOH20160727073511807/27/16 07:35:31  5-MIN KAOH 271235Z AUTO 00000KT 10SM SCT055 BKN070 24/18 A3005 860 68 2100 000/00 RMK AO2 T02390178
04850KAOH AOH20160727074011807/27/16 07:40:31  5-MIN KAOH 271240Z AUTO 00000KT 10SM FEW055 BKN070 24/18 A3005 860 68 2200 000/00 RMK AO2 T02440183
04850KAOH AOH20160727074510807/27/16 07:45:31  5-MIN KAOH 271245Z AUTO 10SM FEW055 SCT070 24/19 A3005 860 71 2200 M /M RMK AO2 T02440189
04850KAOH AOH20160727075011807/27/16 07:50:31  5-MIN KAOH 271250Z AUTO 00000KT 10SM FEW070 25/18 A3005 860 64 2200 000/00 RMK AO2 SLP168 T02500178
04850KAOH AOH20160727075511107/27/16 07:55:31  5-MIN KAOH 271255Z AUTO 00000KT 10SM FEW070 25/17 A3005 860 61 2200 000/00 RMK AO2 T02500172
04850KAOH AOH20160727080011107/27/16 08:00:31  5-MIN KAOH 271300Z AUTO 14003KT 10SM FEW070 26/17 A3005 860 57 2300 150/03 RMK AO2 T02560167
04850KAOH AOH20160727080510807/27/16 08:05:31  5-MIN KAOH 271305Z AUTO 17003KT 10SM CLR 26/16 A3005 860 55 2300 170/03 RMK AO2 T02560161
04850KAOH AOH20160727081011107/27/16 08:10:31  5-MIN KAOH 271310Z AUTO 17003KT 10SM FEW050 26/17 A3005 860 57 2300 180/03 RMK AO2 T02560167
04850KAOH AOH20160727081511107/27/16 08:15:31  5-MIN KAOH 271315Z AUTO 17003KT 10SM FEW050 26/17 A3005 860 59 2300 170/03 RMK AO2 T02560172
04850KAOH AOH20160727082011107/27/16 08:20:31  5-MIN KAOH 271320Z AUTO 00000KT 10SM FEW050 26/17 A3005 860 59 2300 000/00 RMK AO2 T02560172
04850KAOH AOH20160727082511107/27/16 08:25:31  5-MIN KAOH 271325Z AUTO 00000KT 10SM FEW050 26/17 A3005 860 57 2400 000/00 RMK AO2 T02610172
04850KAOH AOH20160727083011107/27/16 08:30:31  5-MIN KAOH 271330Z AUTO 19003KT 10SM FEW050 26/18 A3005 860 59 2400 190/03 RMK AO2 T02610178
04850KAOH AOH20160727083511107/27/16 08:35:31  5-MIN KAOH 271335Z AUTO 18004KT 10SM FEW050 26/17 A3005 860 57 2400 180/04 RMK AO2 T02610172
04850KAOH AOH20160727084010807/27/16 08:40:31  5-MIN KAOH 271340Z AUTO 17004KT 10SM CLR 26/16 A3004 860 53 2400 180/04 RMK AO2 T02610161
04850KAOH AOH20160727084510807/27/16 08:45:31  5-MIN KAOH 271345Z AUTO 00000KT 10SM CLR 26/17 A3004 860 57 2400 000/00 RMK AO2 T02610172
04850KAOH AOH20160727085011507/27/16 08:50:31  5-MIN KAOH 271350Z AUTO 20003KT 10SM CLR 27/18 A3004 860 57 2400 200/03 RMK AO2 SLP166 T02670178
04850KAOH AOH20160727085510807/27/16 08:55:31  5-MIN KAOH 271355Z AUTO 00000KT 10SM CLR 26/18 A3004 860 59 2400 000/00 RMK AO2 T02610178
04850KAOH AOH20160727090010807/27/16 09:00:31  5-MIN KAOH 271400Z AUTO 22003KT 10SM CLR 26/18 A3004 870 59 2400 230/03 RMK AO2 T02610178
04850KAOH AOH20160727090510807/27/16 09:05:31  5-MIN KAOH 271405Z AUTO 00000KT 10SM CLR 27/18 A3004 870 57 2500 000/00 RMK AO2 T02670178
04850KAOH AOH20160727091010807/27/16 09:10:31  5-MIN KAOH 271410Z AUTO 00000KT 10SM CLR 27/18 A3004 870 57 2500 000/00 RMK AO2 T02670178
04850KAOH AOH20160727091510807/27/16 09:15:31  5-MIN KAOH 271415Z AUTO 00000KT 10SM CLR 27/17 A3003 870 55 2500 000/00 RMK AO2 T02670172
04850KAOH AOH20160727092010807/27/16 09:20:31  5-MIN KAOH 271420Z AUTO 00000KT 10SM CLR 27/17 A3003 880 55 2500 000/00 RMK AO2 T02670172
04850KAOH AOH20160727092510807/27/16 09:25:31  5-MIN KAOH 271425Z AUTO 00000KT 10SM CLR 27/17 A3003 880 54 2500 000/00 RMK AO2 T02720172
04850KAOH AOH20160727093010807/27/16 09:30:31  5-MIN KAOH 271430Z AUTO 00000KT 10SM CLR 28/17 A3003 880 52 2600 000/00 RMK AO2 T02780172
04850KAOH AOH20160727093510807/27/16 09:35:31  5-MIN KAOH 271435Z AUTO 00000KT 10SM CLR 27/18 A3003 880 56 2500 000/00 RMK AO2 T02720178
04850KAOH AOH20160727094010807/27/16 09:40:31  5-MIN KAOH 271440Z AUTO 00000KT 10SM CLR 27/18 A3002 880 56 2500 000/00 RMK AO2 T02720178
04850KAOH AOH20160727094510807/27/16 09:45:31  5-MIN KAOH 271445Z AUTO VRB04KT 10SM CLR 28/17 A3002 880 52 2600 VRB/04 RMK AO2 T02780172
04850KAOH AOH20160727095012107/27/16 09:50:31  5-MIN KAOH 271450Z AUTO 34003KT 10SM CLR 28/18 A3003 880 54 2600 350/03 RMK AO2 SLP159 T02830183 53012
04850KAOH AOH20160727095510807/27/16 09:55:31  5-MIN KAOH 271455Z AUTO 00000KT 10SM CLR 28/18 A3002 880 56 2600 000/00 RMK AO2 T02780183
04850KAOH AOH20160727100010807/27/16 10:00:31  5-MIN KAOH 271500Z AUTO 07003KT 10SM CLR 28/18 A3002 880 52 2700 080/03 RMK AO2 T02830178
04850KAOH AOH20160727100510807/27/16 10:05:31  5-MIN KAOH 271505Z AUTO 10003KT 10SM CLR 28/18 A3002 880 52 2700 100/03 RMK AO2 T02830178
04850KAOH AOH20160727101009807/27/16 10:10:31  5-MIN KAOH 271510Z AUTO 10SM CLR 28/18 A3002 890 52 2700 M /M RMK AO2 T02830178
04850KAOH AOH20160727101510807/27/16 10:15:31  5-MIN KAOH 271515Z AUTO 00000KT 10SM CLR 28/18 A3002 890 52 2700 000/00 RMK AO2 T02830178
04850KAOH AOH20160727102010807/27/16 10:20:31  5-MIN KAOH 271520Z AUTO 00000KT 10SM CLR 28/18 A3002 890 52 2700 000/00 RMK AO2 T02830178
04850KAOH AOH20160727102510807/27/16 10:25:31  5-MIN KAOH 271525Z AUTO 05004KT 10SM CLR 29/18 A3002 890 52 2700 060/04 RMK AO2 T02890183
04850KAOH AOH20160727103010807/27/16 10:30:31  5-MIN KAOH 271530Z AUTO 09003KT 10SM CLR 29/18 A3002 890 50 2700 100/03 RMK AO2 T02890178
04850KAOH AOH20160727103510807/27/16 10:35:31  5-MIN KAOH 271535Z AUTO 09003KT 10SM CLR 29/18 A3002 880 49 2800 100/03 RMK AO2 T02940178
04850KAOH AOH20160727104010807/27/16 10:40:31  5-MIN KAOH 271540Z AUTO 00000KT 10SM CLR 29/18 A3002 880 50 2700 000/00 RMK AO2 T02890178
04850KAOH AOH20160727104510807/27/16 10:45:31  5-MIN KAOH 271545Z AUTO VRB03KT 10SM CLR 29/18 A3002 880 52 2700 VRB/03 RMK AO2 T02890183
04850KAOH AOH20160727105011507/27/16 10:50:31  5-MIN KAOH 271550Z AUTO VRB03KT 10SM CLR 29/18 A3003 880 50 2700 VRB/03 RMK AO2 SLP160 T02890178
04850KAOH AOH20160727105510807/27/16 10:55:31  5-MIN KAOH 271555Z AUTO 08004KT 10SM CLR 29/18 A3003 880 49 2800 080/04 RMK AO2 T02940178
04850KAOH AOH20160727110010807/27/16 11:00:31  5-MIN KAOH 271600Z AUTO 00000KT 10SM CLR 29/17 A3003 880 48 2700 000/00 RMK AO2 T02890172
04850KAOH AOH20160727110510807/27/16 11:05:31  5-MIN KAOH 271605Z AUTO 00000KT 10SM CLR 28/17 A3003 880 50 2600 000/00 RMK AO2 T02830172
04850KAOH AOH20160727111010807/27/16 11:10:31  5-MIN KAOH 271610Z AUTO 00000KT 10SM CLR 29/17 A3003 880 48 2700 000/00 RMK AO2 T02890172
04850KAOH AOH20160727111510807/27/16 11:15:31  5-MIN KAOH 271615Z AUTO 00000KT 10SM CLR 29/18 A3003 880 49 2800 000/00 RMK AO2 T02940178
04850KAOH AOH20160727112010807/27/16 11:20:31  5-MIN KAOH 271620Z AUTO 12003KT 10SM CLR 30/18 A3003 880 47 2800 120/03 RMK AO2 T03000178
04850KAOH AOH20160727112510807/27/16 11:25:31  5-MIN KAOH 271625Z AUTO 00000KT 10SM CLR 29/18 A3003 880 50 2700 000/00 RMK AO2 T02890178
04850KAOH AOH20160727113010807/27/16 11:30:31  5-MIN KAOH 271630Z AUTO 06004KT 10SM CLR 30/18 A3002 880 49 2800 070/04 RMK AO2 T03000183
04850KAOH AOH20160727113510807/27/16 11:35:31  5-MIN KAOH 271635Z AUTO 07004KT 10SM CLR 30/18 A3002 880 49 2800 080/04 RMK AO2 T03000183
04850KAOH AOH20160727114010807/27/16 11:40:31  5-MIN KAOH 271640Z AUTO 08004KT 10SM CLR 29/18 A3002 880 49 2800 080/04 RMK AO2 T02940178
04850KAOH AOH20160727114510807/27/16 11:45:31  5-MIN KAOH 271645Z AUTO 06005KT 10SM CLR 29/18 A3002 880 49 2800 070/05 RMK AO2 T02940178
04850KAOH AOH20160727115011507/27/16 11:50:31  5-MIN KAOH 271650Z AUTO 00000KT 10SM CLR 29/17 A3002 880 47 2800 000/00 RMK AO2 SLP158 T02940172
04850KAOH AOH20160727115510807/27/16 11:55:31  5-MIN KAOH 271655Z AUTO VRB03KT 10SM CLR 30/18 A3002 880 49 2800 VRB/03 RMK AO2 T03000183
04850KAOH AOH20160727120011107/27/16 12:00:31  5-MIN KAOH 271700Z AUTO 23004KT 10SM FEW055 29/18 A3002 880 49 2800 240/04 RMK AO2 T02940178
04850KAOH AOH20160727120511107/27/16 12:05:31  5-MIN KAOH 271705Z AUTO 20003KT 10SM FEW055 29/17 A3002 880 48 2700 210/03 RMK AO2 T02890172
04850KAOH AOH20160727121011107/27/16 12:10:31  5-MIN KAOH 271710Z AUTO VRB03KT 10SM SCT055 29/17 A3002 880 47 2800 VRB/03 RMK AO2 T02940172
04850KAOH AOH20160727121511107/27/16 12:15:31  5-MIN KAOH 271715Z AUTO 00000KT 10SM BKN055 28/17 A3002 880 48 2700 000/00 RMK AO2 T02830167
04850KAOH AOH20160727122011107/27/16 12:20:31  5-MIN KAOH 271720Z AUTO 33005KT 10SM BKN050 28/18 A3002 890 52 2700 340/05 RMK AO2 T02830178
04850KAOH AOH20160727122511107/27/16 12:25:31  5-MIN KAOH 271725Z AUTO 36003KT 10SM BKN055 28/18 A3002 890 52 2700 010/03 RMK AO2 T02830178
04850KAOH AOH20160727123011107/27/16 12:30:31  5-MIN KAOH 271730Z AUTO VRB04KT 10SM BKN060 28/18 A3002 890 52 2700 VRB/04 RMK AO2 T02830178
04850KAOH AOH20160727123511107/27/16 12:35:31  5-MIN KAOH 271735Z AUTO 03003KT 10SM BKN055 28/18 A3002 890 54 2700 030/03 RMK AO2 T02830183
04850KAOH AOH20160727124011107/27/16 12:40:31  5-MIN KAOH 271740Z AUTO 00000KT 10SM SCT060 28/18 A3002 890 52 2700 000/00 RMK AO2 T02830178
04850KAOH AOH20160727124511107/27/16 12:45:31  5-MIN KAOH 271745Z AUTO 00000KT 10SM SCT060 29/17 A3002 890 48 2700 000/00 RMK AO2 T02890172
04850KAOH AOH20160727125013607/27/16 12:50:31  5-MIN KAOH 271750Z AUTO VRB03KT 10SM FEW060 29/18 A3001 890 50 2800 VRB/03 RMK AO2 SLP156 T02940183 10300 20217 58007
04850KAOH AOH20160727125511107/27/16 12:55:31  5-MIN KAOH 271755Z AUTO 00000KT 10SM FEW060 31/18 A3001 890 46 2900 000/00 RMK AO2 T03060178
04850KAOH AOH20160727130010807/27/16 13:00:31  5-MIN KAOH 271800Z AUTO 05005KT 10SM CLR 30/18 A3001 890 47 2900 050/05 RMK AO2 T03000178
04850KAOH AOH20160727130510807/27/16 13:05:31  5-MIN KAOH 271805Z AUTO VRB04KT 10SM CLR 31/18 A3001 890 46 2900 VRB/04 RMK AO2 T03060178
04850KAOH AOH20160727131010807/27/16 13:10:31  5-MIN KAOH 271810Z AUTO 00000KT 10SM CLR 31/17 A3001 900 44 2900 000/00 RMK AO2 T03060172
04850KAOH AOH20160727131511107/27/16 13:15:31  5-MIN KAOH 271815Z AUTO 00000KT 10SM FEW070 29/17 A3001 900 45 2800 000/00 RMK AO2 T02940167
04850KAOH AOH20160727132011107/27/16 13:20:31  5-MIN KAOH 271820Z AUTO 00000KT 10SM FEW070 31/17 A3001 900 44 2900 000/00 RMK AO2 T03060172
04850KAOH AOH20160727132511107/27/16 13:25:31  5-MIN KAOH 271825Z AUTO 07004KT 10SM SCT070 31/17 A3001 900 44 2900 070/04 RMK AO2 T03060172
04850KAOH AOH20160727133011807/27/16 13:30:31  5-MIN KAOH 271830Z AUTO 13004KT 10SM SCT060 BKN070 31/18 A3000 900 46 2900 130/04 RMK AO2 T03060178
04850KAOH AOH20160727133511807/27/16 13:35:31  5-MIN KAOH 271835Z AUTO 11005KT 10SM SCT060 BKN070 31/17 A3000 900 44 2900 120/05 RMK AO2 T03060172
04850KAOH AOH20160727134011807/27/16 13:40:31  5-MIN KAOH 271840Z AUTO 06003KT 10SM FEW060 BKN070 31/18 A3000 900 46 2900 060/03 RMK AO2 T03060178
04850KAOH AOH20160727134511807/27/16 13:45:31  5-MIN KAOH 271845Z AUTO 00000KT 10SM FEW060 SCT070 29/17 A3000 900 47 2800 000/00 RMK AO2 T02940172
04850KAOH AOH20160727135012507/27/16 13:50:31  5-MIN KAOH 271850Z AUTO 17003KT 10SM SCT060 SCT075 30/18 A3000 910 47 2900 170/03 RMK AO2 SLP150 T03000178
04850KAOH AOH20160727135511807/27/16 13:55:31  5-MIN KAOH 271855Z AUTO 17003KT 10SM BKN060 BKN075 29/17 A2999 910 47 2800 170/03 RMK AO2 T02940172
04850KAOH AOH20160727140011107/27/16 14:00:31  5-MIN KAOH 271900Z AUTO 00000KT 10SM SCT060 31/17 A2999 910 44 2900 000/00 RMK AO2 T03060172
04850KAOH AOH20160727140511107/27/16 14:05:31  5-MIN KAOH 271905Z AUTO 00000KT 10SM FEW060 31/17 A2999 920 44 2900 000/00 RMK AO2 T03060172
04850KAOH AOH20160727141011107/27/16 14:10:31  5-MIN KAOH 271910Z AUTO 00000KT 10SM FEW060 30/17 A2999 920 44 2900 000/00 RMK AO2 T03000167
04850KAOH AOH20160727141511107/27/16 14:15:31  5-MIN KAOH 271915Z AUTO 00000KT 10SM FEW060 31/17 A2998 920 44 2900 000/00 RMK AO2 T03060172
04850KAOH AOH20160727142011107/27/16 14:20:31  5-MIN KAOH 271920Z AUTO VRB03KT 10SM FEW060 31/17 A2999 920 44 2900 VRB/03 RMK AO2 T03060172
04850KAOH AOH20160727142510807/27/16 14:25:31  5-MIN KAOH 271925Z AUTO 00000KT 10SM CLR 31/17 A2998 920 42 3000 000/00 RMK AO2 T03110172
04850KAOH AOH20160727143010807/27/16 14:30:31  5-MIN KAOH 271930Z AUTO 00000KT 10SM CLR 31/17 A2998 920 44 2900 000/00 RMK AO2 T03060172
04850KAOH AOH20160727143510807/27/16 14:35:31  5-MIN KAOH 271935Z AUTO 00000KT 10SM CLR 31/18 A2998 920 46 2900 000/00 RMK AO2 T03060178
04850KAOH AOH20160727144011107/27/16 14:40:31  5-MIN KAOH 271940Z AUTO 03004KT 10SM SCT060 31/18 A2998 920 46 3000 040/04 RMK AO2 T03110183
04850KAOH AOH20160727144511107/27/16 14:45:31  5-MIN KAOH 271945Z AUTO 04005KT 10SM BKN055 31/18 A2997 930 46 3000 040/05 RMK AO2 T03110183
04850KAOH AOH20160727145011807/27/16 14:50:31  5-MIN KAOH 271950Z AUTO VRB04KT 10SM SCT055 31/18 A2997 930 46 3000 VRB/04 RMK AO2 SLP141 T03110183
04850KAOH AOH20160727145511107/27/16 14:55:31  5-MIN KAOH 271955Z AUTO VRB04KT 10SM SCT055 31/18 A2997 930 46 3000 VRB/04 RMK AO2 T03060178
04850KAOH AOH20160727150011107/27/16 15:00:31  5-MIN KAOH 272000Z AUTO 06003KT 10SM SCT055 31/18 A2997 930 44 3000 070/03 RMK AO2 T03110178
04850KAOH AOH20160727150511107/27/16 15:05:31  5-MIN KAOH 272005Z AUTO 11005KT 10SM SCT055 32/18 A2997 930 43 3100 120/05 RMK AO2 T03170178
04850KAOH AOH20160727151011107/27/16 15:10:31  5-MIN KAOH 272010Z AUTO 10006KT 10SM FEW055 32/18 A2997 930 43 3100 100/06 RMK AO2 T03170178
04850KAOH AOH20160727151510807/27/16 15:15:31  5-MIN KAOH 272015Z AUTO VRB03KT 10SM CLR 32/18 A2997 930 43 3100 VRB/03 RMK AO2 T03170178
04850KAOH AOH20160727152010807/27/16 15:20:31  5-MIN KAOH 272020Z AUTO 10006KT 10SM CLR 32/18 A2997 940 43 3100 100/06 RMK AO2 T03170178
04850KAOH AOH20160727152510807/27/16 15:25:31  5-MIN KAOH 272025Z AUTO 09005KT 10SM CLR 32/18 A2996 940 43 3100 090/05 RMK AO2 T03170178
04850KAOH AOH20160727153011107/27/16 15:30:31  5-MIN KAOH 272030Z AUTO 12004KT 10SM FEW060 32/18 A2996 940 43 3100 120/04 RMK AO2 T03170178
04850KAOH AOH20160727153511107/27/16 15:35:31  5-MIN KAOH 272035Z AUTO VRB04KT 10SM SCT060 32/18 A2996 940 43 3100 VRB/04 RMK AO2 T03170178
04850KAOH AOH20160727154011107/27/16 15:40:31  5-MIN KAOH 272040Z AUTO 05005KT 10SM FEW060 31/18 A2996 940 44 3000 060/05 RMK AO2 T03110178
04850KAOH AOH20160727154511107/27/16 15:45:31  5-MIN KAOH 272045Z AUTO 05004KT 10SM FEW060 30/18 A2996 940 49 2900 060/04 RMK AO2 T03000183
04850KAOH AOH20160727155012407/27/16 15:50:31  5-MIN KAOH 272050Z AUTO 04006KT 10SM SCT060 31/18 A2996 940 44 3000 040/06 RMK AO2 SLP135 T03110178 58003
04850KAOH AOH20160727155511107/27/16 15:55:31  5-MIN KAOH 272055Z AUTO 03007KT 10SM SCT060 31/18 A2996 940 46 3000 030/07 RMK AO2 T03110183
04850KAOH AOH20160727160011107/27/16 16:00:31  5-MIN KAOH 272100Z AUTO VRB03KT 10SM SCT060 31/18 A2996 940 46 3000 VRB/03 RMK AO2 T03060178
04850KAOH AOH20160727160511107/27/16 16:05:31  5-MIN KAOH 272105Z AUTO VRB03KT 10SM FEW060 31/18 A2995 950 44 3000 VRB/03 RMK AO2 T03110178
04850KAOH AOH20160727161011107/27/16 16:10:31  5-MIN KAOH 272110Z AUTO 02005KT 10SM FEW060 31/18 A2995 950 46 3000 020/05 RMK AO2 T03060178
04850KAOH AOH20160727161511107/27/16 16:15:31  5-MIN KAOH 272115Z AUTO 33004KT 10SM FEW060 31/17 A2995 950 44 3000 340/04 RMK AO2 T03060172
04850KAOH AOH20160727162011107/27/16 16:20:31  5-MIN KAOH 272120Z AUTO VRB03KT 10SM FEW060 30/17 A2995 950 45 2900 VRB/03 RMK AO2 T03000172
04850KAOH AOH20160727162510807/27/16 16:25:31  5-MIN KAOH 272125Z AUTO 01005KT 10SM CLR 30/18 A2995 950 47 2900 010/05 RMK AO2 T03000178
04850KAOH AOH20160727163010807/27/16 16:30:31  5-MIN KAOH 272130Z AUTO 03003KT 10SM CLR 29/17 A2995 950 47 2900 030/03 RMK AO2 T02940172
04850KAOH AOH20160727163510807/27/16 16:35:31  5-MIN KAOH 272135Z AUTO 00000KT 10SM CLR 30/18 A2994 960 47 2900 000/00 RMK AO2 T03000178
04850KAOH AOH20160727164010807/27/16 16:40:31  5-MIN KAOH 272140Z AUTO 00000KT 10SM CLR 31/17 A2994 960 44 3000 000/00 RMK AO2 T03060172
04850KAOH AOH20160727164510807/27/16 16:45:31  5-MIN KAOH 272145Z AUTO 04003KT 10SM CLR 31/18 A2994 960 47 3000 040/03 RMK AO2 T03060183
04850KAOH AOH20160727165011507/27/16 16:50:31  5-MIN KAOH 272150Z AUTO 04003KT 10SM CLR 31/18 A2995 950 46 3000 050/03 RMK AO2 SLP133 T03110183
04850KAOH AOH20160727165510807/27/16 16:55:31  5-MIN KAOH 272155Z AUTO 02004KT 10SM CLR 31/18 A2995 950 47 3000 030/04 RMK AO2 T03060183
04850KAOH AOH20160727170010807/27/16 17:00:31  5-MIN KAOH 272200Z AUTO 00000KT 10SM CLR 30/18 A2995 950 49 2900 000/00 RMK AO2 T03000183
04850KAOH AOH20160727170511107/27/16 17:05:31  5-MIN KAOH 272205Z AUTO 36004KT 10SM FEW070 30/18 A2995 950 49 2900 010/04 RMK AO2 T03000183
04850KAOH AOH20160727171011107/27/16 17:10:31  5-MIN KAOH 272210Z AUTO 36004KT 10SM SCT070 29/19 A2995 950 52 2900 360/04 RMK AO2 T02940189
04850KAOH AOH20160727171511107/27/16 17:15:31  5-MIN KAOH 272215Z AUTO 02005KT 10SM FEW070 29/19 A2995 950 54 2900 030/05 RMK AO2 T02940194
04850KAOH AOH20160727172011107/27/16 17:20:31  5-MIN KAOH 272220Z AUTO 02003KT 10SM FEW070 29/19 A2995 950 52 2900 030/03 RMK AO2 T02940189
04850KAOH AOH20160727172511107/27/16 17:25:31  5-MIN KAOH 272225Z AUTO 01004KT 10SM FEW070 29/19 A2994 960 54 2900 010/04 RMK AO2 T02940194
04850KAOH AOH20160727173011107/27/16 17:30:31  5-MIN KAOH 272230Z AUTO 02003KT 10SM FEW070 29/19 A2994 960 52 2900 020/03 RMK AO2 T02940189
04850KAOH AOH20160727173511107/27/16 17:35:31  5-MIN KAOH 272235Z AUTO 02004KT 10SM FEW070 29/20 A2994 960 58 2800 030/04 RMK AO2 T02890200
04850KAOH AOH20160727174010807/27/16 17:40:31  5-MIN KAOH 272240Z AUTO 02003KT 10SM CLR 29/20 A2994 960 58 2800 020/03 RMK AO2 T02890200
04850KAOH AOH20160727174510807/27/16 17:45:31  5-MIN KAOH 272245Z AUTO 02003KT 10SM CLR 28/20 A2994 960 60 2700 030/03 RMK AO2 T02830200
04850KAOH AOH20160727175011507/27/16 17:50:31  5-MIN KAOH 272250Z AUTO 05003KT 10SM CLR 28/21 A2993 960 62 2800 060/03 RMK AO2 SLP129 T02830206
04850KAOH AOH20160727175510807/27/16 17:55:31  5-MIN KAOH 272255Z AUTO 04003KT 10SM CLR 29/21 A2994 960 60 2800 050/03 RMK AO2 T02890206
04850KAOH AOH20160727180010807/27/16 18:00:31  5-MIN KAOH 272300Z AUTO 04003KT 10SM CLR 28/20 A2993 960 60 2800 050/03 RMK AO2 T02830200
04850KAOH AOH20160727180510807/27/16 18:05:31  5-MIN KAOH 272305Z AUTO 04003KT 10SM CLR 28/21 A2993 960 62 2800 050/03 RMK AO2 T02830206
04850KAOH AOH20160727181010807/27/16 18:10:31  5-MIN KAOH 272310Z AUTO 00000KT 10SM CLR 28/21 A2994 960 66 2700 000/00 RMK AO2 T02780211
04850KAOH AOH20160727181510807/27/16 18:15:31  5-MIN KAOH 272315Z AUTO 00000KT 10SM CLR 28/21 A2994 960 64 2700 000/00 RMK AO2 T02830211
04850KAOH AOH20160727182010807/27/16 18:20:31  5-MIN KAOH 272320Z AUTO 00000KT 10SM CLR 29/20 A2994 960 58 2800 000/00 RMK AO2 T02890200
04850KAOH AOH20160727182510807/27/16 18:25:31  5-MIN KAOH 272325Z AUTO 00000KT 10SM CLR 29/20 A2994 960 58 2800 000/00 RMK AO2 T02890200
04850KAOH AOH20160727183011107/27/16 18:30:31  5-MIN KAOH 272330Z AUTO 00000KT 10SM FEW070 29/21 A2994 960 60 2800 000/00 RMK AO2 T02890206
04850KAOH AOH20160727183511107/27/16 18:35:31  5-MIN KAOH 272335Z AUTO 00000KT 10SM SCT070 29/21 A2994 960 62 2800 000/00 RMK AO2 T02890211
04850KAOH AOH20160727184011107/27/16 18:40:31  5-MIN KAOH 272340Z AUTO 00000KT 10SM SCT065 29/21 A2994 960 60 2800 000/00 RMK AO2 T02890206
04850KAOH AOH20160727184511107/27/16 18:45:31  5-MIN KAOH 272345Z AUTO 00000KT 10SM SCT065 29/20 A2994 960 58 2800 000/00 RMK AO2 T02890200
04850KAOH AOH20160727185013607/27/16 18:50:31  5-MIN KAOH 272350Z AUTO 09003KT 10SM FEW065 29/21 A2993 960 60 2800 100/03 RMK AO2 SLP128 T02890206 10317 20278 56019
04850KAOH AOH20160727185511107/27/16 18:55:31  5-MIN KAOH 272355Z AUTO 00000KT 10SM FEW065 28/21 A2993 970 64 2800 000/00 RMK AO2 T02830211
04850KAOH AOH20160727190011107/27/16 19:00:31  5-MIN KAOH 280000Z AUTO 08003KT 10SM FEW065 28/21 A2993 970 64 2800 080/03 RMK AO2 T02830211
04850KAOH AOH20160727190511107/27/16 19:05:31  5-MIN KAOH 280005Z AUTO 07003KT 10SM FEW060 28/22 A2993 970 69 2700 080/03 RMK AO2 T02780217
04850KAOH AOH20160727191010807/27/16 19:10:31  5-MIN KAOH 280010Z AUTO 00000KT 10SM CLR 28/22 A2993 970 69 2700 000/00 RMK AO2 T02780217
04850KAOH AOH20160727191510807/27/16 19:15:31  5-MIN KAOH 280015Z AUTO 07003KT 10SM CLR 27/22 A2993 970 74 2600 080/03 RMK AO2 T02720222
04850KAOH AOH20160727192011107/27/16 19:20:31  5-MIN KAOH 280020Z AUTO 00000KT 10SM FEW060 27/23 A2993 970 79 2600 000/00 RMK AO2 T02670228
04850KAOH AOH20160727192511107/27/16 19:25:31  5-MIN KAOH 280025Z AUTO 00000KT 10SM SCT060 27/22 A2993 970 76 2600 000/00 RMK AO2 T02670222
04850KAOH AOH20160727193011107/27/16 19:30:31  5-MIN KAOH 280030Z AUTO 00000KT 10SM BKN060 27/23 A2993 970 82 2600 000/00 RMK AO2 T02670233
04850KAOH AOH20160727193511107/27/16 19:35:31  5-MIN KAOH 280035Z AUTO 00000KT 10SM BKN060 27/23 A2993 970 79 2600 000/00 RMK AO2 T02670228
04850KAOH AOH20160727194011107/27/16 19:40:31  5-MIN KAOH 280040Z AUTO 00000KT 10SM BKN060 27/23 A2993 970 76 2600 000/00 RMK AO2 T02720228
04850KAOH AOH20160727194511107/27/16 19:45:31  5-MIN KAOH 280045Z AUTO 00000KT 10SM OVC060 27/23 A2993 970 79 2600 000/00 RMK AO2 T02670228
04850KAOH AOH20160727195011807/27/16 19:50:31  5-MIN KAOH 280050Z AUTO 00000KT 10SM OVC060 27/22 A2993 970 71 2600 000/00 RMK AO2 SLP127 T02720217
04850KAOH AOH20160727195511107/27/16 19:55:31  5-MIN KAOH 280055Z AUTO 00000KT 10SM OVC060 27/21 A2993 970 69 2600 000/00 RMK AO2 T02720211
04850KAOH AOH20160727200011107/27/16 20:00:31  5-MIN KAOH 280100Z AUTO 00000KT 10SM OVC060 27/21 A2994 960 69 2600 000/00 RMK AO2 T02720211
04850KAOH AOH20160727200511107/27/16 20:05:31  5-MIN KAOH 280105Z AUTO 00000KT 10SM OVC060 26/22 A2994 960 79 2500 000/00 RMK AO2 T02610222
04850KAOH AOH20160727201011107/27/16 20:10:31  5-MIN KAOH 280110Z AUTO 00000KT 10SM OVC060 26/22 A2994 960 76 2500 000/00 RMK AO2 T02610217
04850KAOH AOH20160727201511107/27/16 20:15:31  5-MIN KAOH 280115Z AUTO 00000KT 10SM OVC060 26/21 A2994 960 73 2500 000/00 RMK AO2 T02610211
04850KAOH AOH20160727202011107/27/16 20:20:31  5-MIN KAOH 280120Z AUTO 00000KT 10SM OVC060 27/20 A2994 960 66 2600 000/00 RMK AO2 T02670200
04850KAOH AOH20160727202511107/27/16 20:25:31  5-MIN KAOH 280125Z AUTO 00000KT 10SM BKN060 27/19 A2994 960 64 2600 000/00 RMK AO2 T02670194
04850KAOH AOH20160727203011107/27/16 20:30:31  5-MIN KAOH 280130Z AUTO 00000KT 10SM BKN060 27/19 A2994 960 64 2600 000/00 RMK AO2 T02670194
04850KAOH AOH20160727203511107/27/16 20:35:31  5-MIN KAOH 280135Z AUTO 22003KT 10SM BKN060 26/20 A2995 950 68 2500 230/03 RMK AO2 T02610200
04850KAOH AOH20160727204011107/27/16 20:40:31  5-MIN KAOH 280140Z AUTO 00000KT 10SM BKN060 27/19 A2995 950 62 2600 000/00 RMK AO2 T02720194
04850KAOH AOH20160727204511107/27/16 20:45:31  5-MIN KAOH 280145Z AUTO 00000KT 10SM BKN060 26/21 A2995 950 76 2400 000/00 RMK AO2 T02560211
04850KAOH AOH20160727205011807/27/16 20:50:31  5-MIN KAOH 280150Z AUTO 16003KT 10SM SCT060 25/21 A2995 950 79 2400 160/03 RMK AO2 SLP134 T02500211
04850KAOH AOH20160727205511107/27/16 20:55:31  5-MIN KAOH 280155Z AUTO 17003KT 10SM SCT060 25/21 A2995 950 76 2400 180/03 RMK AO2 T02500206
04850KAOH AOH20160727210011107/27/16 21:00:31  5-MIN KAOH 280200Z AUTO 18003KT 10SM BKN060 25/21 A2996 940 79 2400 190/03 RMK AO2 T02500211
04850KAOH AOH20160727210511107/27/16 21:05:31  5-MIN KAOH 280205Z AUTO 22004KT 10SM BKN060 26/20 A2996 950 71 2400 220/04 RMK AO2 T02560200
04850KAOH AOH20160727211011107/27/16 21:10:31  5-MIN KAOH 280210Z AUTO 22003KT 10SM BKN060 26/18 A2996 940 62 2500 220/03 RMK AO2 T02610183
04850KAOH AOH20160727211511107/27/16 21:15:31  5-MIN KAOH 280215Z AUTO 00000KT 10SM BKN060 26/18 A2996 940 62 2500 000/00 RMK AO2 T02610183
04850KAOH AOH20160727212011107/27/16 21:20:31  5-MIN KAOH 280220Z AUTO 00000KT 10SM SCT060 25/19 A2996 940 71 2300 000/00 RMK AO2 T02500194
04850KAOH AOH20160727212511107/27/16 21:25:31  5-MIN KAOH 280225Z AUTO 00000KT 10SM SCT060 24/20 A2996 940 76 2300 000/00 RMK AO2 T02440200
04850KAOH AOH20160727213011107/27/16 21:30:31  5-MIN KAOH 280230Z AUTO 00000KT 10SM SCT065 24/20 A2997 940 78 2200 000/00 RMK AO2 T02390200
04850KAOH AOH20160727213511107/27/16 21:35:31  5-MIN KAOH 280235Z AUTO 00000KT 10SM FEW065 24/19 A2997 940 76 2200 000/00 RMK AO2 T02390194
04850KAOH AOH20160727214009807/27/16 21:40:31  5-MIN KAOH 280240Z AUTO 10SM CLR 23/20 A2997 930 84 2100 M /M RMK AO2 T02280200
04850KAOH AOH20160727214510807/27/16 21:45:31  5-MIN KAOH 280245Z AUTO 00000KT 10SM CLR 24/19 A2997 930 73 2200 000/00 RMK AO2 T02390189
04850KAOH AOH20160727215012107/27/16 21:50:31  5-MIN KAOH 280250Z AUTO 00000KT 10SM CLR 24/19 A2997 930 71 2300 000/00 RMK AO2 SLP140 T02440189 56007
04850KAOH AOH20160727215510807/27/16 21:55:31  5-MIN KAOH 280255Z AUTO 00000KT 10SM CLR 24/19 A2997 930 71 2300 000/00 RMK AO2 T02440189
04850KAOH AOH20160727220010807/27/16 22:00:31  5-MIN KAOH 280300Z AUTO 00000KT 10SM CLR 24/19 A2997 930 71 2300 000/00 RMK AO2 T02440189
04850KAOH AOH20160727220510807/27/16 22:05:31  5-MIN KAOH 280305Z AUTO 00000KT 10SM CLR 24/19 A2997 930 73 2200 000/00 RMK AO2 T02390189
04850KAOH AOH20160727221010807/27/16 22:10:31  5-MIN KAOH 280310Z AUTO 00000KT 10SM CLR 23/19 A2997 930 78 2200 000/00 RMK AO2 T02330194
04850KAOH AOH20160727221510807/27/16 22:15:31  5-MIN KAOH 280315Z AUTO 00000KT 10SM CLR 22/19 A2997 930 84 2000 000/00 RMK AO2 T02220194
04850KAOH AOH20160727222010807/27/16 22:20:31  5-MIN KAOH 280320Z AUTO 00000KT 10SM CLR 22/19 A2997 930 84 2000 000/00 RMK AO2 T02220194
04850KAOH AOH20160727222510807/27/16 22:25:31  5-MIN KAOH 280325Z AUTO 00000KT 10SM CLR 22/19 A2997 940 81 2000 000/00 RMK AO2 T02220189
04850KAOH AOH20160727223010807/27/16 22:30:31  5-MIN KAOH 280330Z AUTO 00000KT 10SM CLR 22/19 A2996 940 81 2000 000/00 RMK AO2 T02220189
04850KAOH AOH20160727223510807/27/16 22:35:31  5-MIN KAOH 280335Z AUTO 00000KT 10SM CLR 22/19 A2996 940 81 2000 000/00 RMK AO2 T02220189
04850KAOH AOH20160727224010807/27/16 22:40:31  5-MIN KAOH 280340Z AUTO 00000KT 10SM CLR 22/19 A2996 940 81 2000 000/00 RMK AO2 T02220189
04850KAOH AOH20160727224510807/27/16 22:45:31  5-MIN KAOH 280345Z AUTO 00000KT 10SM CLR 22/19 A2996 940 84 2000 000/00 RMK AO2 T02220194
04850KAOH AOH20160727225011507/27/16 22:50:31  5-MIN KAOH 280350Z AUTO 00000KT 10SM CLR 22/19 A2996 940 81 2000 000/00 RMK AO2 SLP138 T02220189
04850KAOH AOH20160727225510807/27/16 22:55:31  5-MIN KAOH 280355Z AUTO 00000KT 10SM CLR 22/19 A2996 940 84 2000 000/00 RMK AO2 T02170189
04850KAOH AOH20160727230010807/27/16 23:00:31  5-MIN KAOH 280400Z AUTO 00000KT 10SM CLR 22/19 A2996 940 87 2000 000/00 RMK AO2 T02170194
04850KAOH AOH20160727230510807/27/16 23:05:31  5-MIN KAOH 280405Z AUTO 23003KT 10SM CLR 22/19 A2996 940 84 2000 240/03 RMK AO2 T02170189
04850KAOH AOH20160727231010807/27/16 23:10:31  5-MIN KAOH 280410Z AUTO 00000KT 10SM CLR 22/19 A2996 940 81 2000 000/00 RMK AO2 T02220189
04850KAOH AOH20160727231510807/27/16 23:15:31  5-MIN KAOH 280415Z AUTO 11004KT 10SM CLR 22/19 A2996 950 84 2000 120/04 RMK AO2 T02170189
04850KAOH AOH20160727232010807/27/16 23:20:31  5-MIN KAOH 280420Z AUTO 13004KT 10SM CLR 22/18 A2995 950 78 2000 140/04 RMK AO2 T02220183
04850KAOH AOH20160727232510807/27/16 23:25:31  5-MIN KAOH 280425Z AUTO 00000KT 10SM CLR 22/18 A2995 950 78 2000 000/00 RMK AO2 T02220183
04850KAOH AOH20160727233010807/27/16 23:30:31  5-MIN KAOH 280430Z AUTO 00000KT 10SM CLR 23/18 A2995 950 76 2100 000/00 RMK AO2 T02280183
04850KAOH AOH20160727233510807/27/16 23:35:31  5-MIN KAOH 280435Z AUTO 13003KT 10SM CLR 22/19 A2995 950 84 2000 130/03 RMK AO2 T02170189
04850KAOH AOH20160727234010807/27/16 23:40:31  5-MIN KAOH 280440Z AUTO 00000KT 10SM CLR 21/19 A2995 950 87 1900 000/00 RMK AO2 T02110189
04850KAOH AOH20160727234510807/27/16 23:45:31  5-MIN KAOH 280445Z AUTO 10004KT 10SM CLR 21/19 A2995 950 87 1900 100/04 RMK AO2 T02110189
04850KAOH AOH20160727235012507/27/16 23:50:31  5-MIN KAOH 280450Z AUTO 00000KT 10SM CLR 21/19 A2995 950 87 1900 000/00 RMK AO2 SLP134 T02110189 403170183
04850KAOH AOH20160727235510807/27/16 23:55:31  5-MIN KAOH 280455Z AUTO 00000KT 10SM CLR 21/19 A2995 950 87 1900 000/00 RMK AO2 T02110189
04850KAOH AOH20160728000010807/28/16 00:00:31  5-MIN KAOH 280500Z AUTO 00000KT 10SM CLR 22/19 A2995 950 84 2000 000/00 RMK AO2 T02170189
04850KAOH AOH20160728000510807/28/16 00:05:31  5-MIN KAOH 280505Z AUTO 00000KT 10SM CLR 22/19 A2995 950 84 2000 000/00 RMK AO2 T02170189
04850KAOH AOH20160728001010807/28/16 00:10:31  5-MIN KAOH 280510Z AUTO 00000KT 10SM CLR 21/19 A2995 950 90 1900 000/00 RMK AO2 T02110194
04850KAOH AOH20160728001510807/28/16 00:15:31  5-MIN KAOH 280515Z AUTO 00000KT 10SM CLR 21/19 A2995 950 87 1900 000/00 RMK AO2 T02110189
04850KAOH AOH20160728002010807/28/16 00:20:31  5-MIN KAOH 280520Z AUTO 00000KT 10SM CLR 21/19 A2995 950 90 1900 000/00 RMK AO2 T02110194
04850KAOH AOH20160728002510807/28/16 00:25:31  5-MIN KAOH 280525Z AUTO 00000KT 10SM CLR 21/19 A2995 950 90 1900 000/00 RMK AO2 T02110194
04850KAOH AOH20160728003010807/28/16 00:30:31  5-MIN KAOH 280530Z AUTO 00000KT 10SM CLR 22/19 A2995 950 84 2000 000/00 RMK AO2 T02170189
04850KAOH AOH20160728003510807/28/16 00:35:31  5-MIN KAOH 280535Z AUTO 00000KT 10SM CLR 22/19 A2995 950 81 2000 000/00 RMK AO2 T02220189
04850KAOH AOH20160728004010807/28/16 00:40:31  5-MIN KAOH 280540Z AUTO 18003KT 10SM CLR 22/19 A2995 950 81 2000 180/03 RMK AO2 T02220189
04850KAOH AOH20160728004510807/28/16 00:45:31  5-MIN KAOH 280545Z AUTO 00000KT 10SM CLR 22/19 A2995 950 81 2100 000/00 RMK AO2 T02220189
04850KAOH AOH20160728005013307/28/16 00:50:31  5-MIN KAOH 280550Z AUTO 00000KT 10SM CLR 22/19 A2995 950 81 2100 000/00 RMK AO2 SLP131 T02220189 10283 20211 53013
04850KAOH AOH20160728005510807/28/16 00:55:31  5-MIN KAOH 280555Z AUTO 00000KT 10SM CLR 22/19 A2995 950 87 2000 000/00 RMK AO2 T02170194
04850KAOH AOH20160728010010807/28/16 01:00:31  5-MIN KAOH 280600Z AUTO 00000KT 10SM CLR 22/19 A2995 950 87 2000 000/00 RMK AO2 T02170194
04850KAOH AOH20160728010510807/28/16 01:05:31  5-MIN KAOH 280605Z AUTO 17003KT 10SM CLR 22/19 A2995 950 84 2100 170/03 RMK AO2 T02220194
04850KAOH AOH20160728011010807/28/16 01:10:31  5-MIN KAOH 280610Z AUTO 14003KT 10SM CLR 22/19 A2995 950 84 2100 150/03 RMK AO2 T02220194
04850KAOH AOH20160728011510807/28/16 01:15:31  5-MIN KAOH 280615Z AUTO 00000KT 10SM CLR 22/20 A2994 960 90 2000 000/00 RMK AO2 T02170200
04850KAOH AOH20160728012010807/28/16 01:20:31  5-MIN KAOH 280620Z AUTO 00000KT 10SM CLR 22/20 A2994 960 90 2000 000/00 RMK AO2 T02170200
04850KAOH AOH20160728012510807/28/16 01:25:31  5-MIN KAOH 280625Z AUTO 00000KT 10SM CLR 22/19 A2994 960 87 2000 000/00 RMK AO2 T02170194
04850KAOH AOH20160728013010807/28/16 01:30:31  5-MIN KAOH 280630Z AUTO 00000KT 10SM CLR 22/19 A2994 960 84 2100 000/00 RMK AO2 T02220194
04850KAOH AOH20160728013510807/28/16 01:35:31  5-MIN KAOH 280635Z AUTO 00000KT 10SM CLR 22/19 A2994 960 81 2100 000/00 RMK AO2 T02220189
04850KAOH AOH20160728014010807/28/16 01:40:31  5-MIN KAOH 280640Z AUTO 18003KT 10SM CLR 22/19 A2993 970 81 2100 190/03 RMK AO2 T02220189
04850KAOH AOH20160728014510807/28/16 01:45:31  5-MIN KAOH 280645Z AUTO 00000KT 10SM CLR 22/19 A2993 970 84 2000 000/00 RMK AO2 T02170189
04850KAOH AOH20160728015011507/28/16 01:50:31  5-MIN KAOH 280650Z AUTO 17003KT 10SM CLR 22/19 A2993 970 84 2000 170/03 RMK AO2 SLP124 T02170189
04850KAOH AOH20160728015510807/28/16 01:55:31  5-MIN KAOH 280655Z AUTO 00000KT 10SM CLR 22/19 A2993 970 84 2000 000/00 RMK AO2 T02170189
04850KAOH AOH20160728020010807/28/16 02:00:31  5-MIN KAOH 280700Z AUTO 00000KT 10SM CLR 22/19 A2993 970 84 2000 000/00 RMK AO2 T02170189
04850KAOH AOH20160728020510807/28/16 02:05:31  5-MIN KAOH 280705Z AUTO 00000KT 10SM CLR 22/18 A2992 980 78 2100 000/00 RMK AO2 T02220183
04850KAOH AOH20160728021010807/28/16 02:10:31  5-MIN KAOH 280710Z AUTO 00000KT 10SM CLR 22/19 A2992 980 81 2100 000/00 RMK AO2 T02220189
04850KAOH AOH20160728021510807/28/16 02:15:31  5-MIN KAOH 280715Z AUTO 00000KT 10SM CLR 22/19 A2992 980 84 2000 000/00 RMK AO2 T02170189
04850KAOH AOH20160728022010807/28/16 02:20:31  5-MIN KAOH 280720Z AUTO 00000KT 10SM CLR 22/19 A2992 980 87 2000 000/00 RMK AO2 T02170194
04850KAOH AOH20160728022510807/28/16 02:25:31  5-MIN KAOH 280725Z AUTO 22003KT 10SM CLR 22/19 A2992 980 84 2000 220/03 RMK AO2 T02170189
04850KAOH AOH20160728023010807/28/16 02:30:31  5-MIN KAOH 280730Z AUTO 21003KT 10SM CLR 22/19 A2992 980 81 2100 210/03 RMK AO2 T02220189
04850KAOH AOH20160728023510807/28/16 02:35:31  5-MIN KAOH 280735Z AUTO 00000KT 10SM CLR 22/19 A2992 980 81 2100 000/00 RMK AO2 T02220189
04850KAOH AOH20160728024010807/28/16 02:40:31  5-MIN KAOH 280740Z AUTO 00000KT 10SM CLR 22/19 A2992 980 81 2100 000/00 RMK AO2 T02220189
04850KAOH AOH20160728024510807/28/16 02:45:31  5-MIN KAOH 280745Z AUTO 00000KT 10SM CLR 22/19 A2991 980 81 2100 000/00 RMK AO2 T02220189
04850KAOH AOH20160728025011807/28/16 02:50:31  5-MIN KAOH 280750Z AUTO 18003KT 10SM FEW100 22/19 A2991 980 87 2000 190/03 RMK AO2 SLP120 T02170194
04850KAOH AOH20160728025513507/28/16 02:55:31  5-MIN KAOH 280755Z AUTO 17003KT 10SM -RA FEW055 FEW075 SCT110 22/19 A2991 990 87 2000 180/03 RMK AO2 P0000 T02170194
04850KAOH AOH20160728030013507/28/16 03:00:31  5-MIN KAOH 280800Z AUTO 14004KT 10SM -RA FEW055 FEW075 SCT110 22/19 A2991 990 84 2000 150/04 RMK AO2 P0000 T02170189
04850KAOH AOH20160728030512107/28/16 03:05:31  5-MIN KAOH 280805Z AUTO 14004KT 10SM -RA FEW110 21/19 A2990 990 87 2000 140/04 RMK AO2 P0000 T02110189
04850KAOH AOH20160728031012407/28/16 03:10:31  5-MIN KAOH 280810Z AUTO 15004KT 10SM FEW110 22/19 A2990 1000 84 2000 160/04 RMK AO2 RAE09 P0000 T02170189
04850KAOH AOH20160728031512407/28/16 03:15:31  5-MIN KAOH 280815Z AUTO 15004KT 10SM FEW110 21/19 A2990 1000 87 2000 160/04 RMK AO2 RAE09 P0000 T02110189
04850KAOH AOH20160728032012307/28/16 03:20:31  5-MIN KAOH 280820Z AUTO 00000KT 10SM FEW120 22/19 A2990 990 84 2000 000/00 RMK AO2 RAE09 P0000 T02170189
04850KAOH AOH20160728032512407/28/16 03:25:31  5-MIN KAOH 280825Z AUTO 14003KT 10SM FEW120 22/19 A2990 1000 84 2000 140/03 RMK AO2 RAE09 P0000 T02170189
04850KAOH AOH20160728033012407/28/16 03:30:31  5-MIN KAOH 280830Z AUTO 00000KT 10SM FEW120 21/19 A2990 1000 87 2000 000/00 RMK AO2 RAE09 P0000 T02110189
04850KAOH AOH20160728033512107/28/16 03:35:31  5-MIN KAOH 280835Z AUTO 00000KT 10SM CLR 21/19 A2990 1000 90 1900 000/00 RMK AO2 RAE09 P0000 T02060189
04850KAOH AOH20160728034012107/28/16 03:40:31  5-MIN KAOH 280840Z AUTO 00000KT 10SM CLR 21/19 A2990 1000 90 1900 000/00 RMK AO2 RAE09 P0000 T02060189
04850KAOH AOH20160728034512107/28/16 03:45:31  5-MIN KAOH 280845Z AUTO 00000KT 10SM CLR 21/19 A2990 1000 90 1900 000/00 RMK AO2 RAE09 P0000 T02060189
04850KAOH AOH20160728035014007/28/16 03:50:31  5-MIN KAOH 280850Z AUTO 00000KT 10SM CLR 21/19 A2990 1000 90 1900 000/00 RMK AO2 RAE09 SLP115 P0000 60000 T02060189 56009
04850KAOH AOH20160728035510907/28/16 03:55:31  5-MIN KAOH 280855Z AUTO 00000KT 10SM CLR 21/19 A2990 1000 93 1900 000/00 RMK AO2 T02060194
04850KAOH AOH20160728040010907/28/16 04:00:31  5-MIN KAOH 280900Z AUTO 00000KT 10SM CLR 21/19 A2990 1000 90 1900 000/00 RMK AO2 T02060189
04850KAOH AOH20160728040510907/28/16 04:05:31  5-MIN KAOH 280905Z AUTO 09003KT 10SM CLR 21/19 A2990 1000 93 1900 100/03 RMK AO2 T02060194
04850KAOH AOH20160728041010907/28/16 04:10:31  5-MIN KAOH 280910Z AUTO 09003KT 10SM CLR 21/19 A2989 1000 93 1900 090/03 RMK AO2 T02060194
04850KAOH AOH20160728041510907/28/16 04:15:31  5-MIN KAOH 280915Z AUTO 09004KT 10SM CLR 21/19 A2990 1000 90 1900 100/04 RMK AO2 T02060189
04850KAOH AOH20160728042010907/28/16 04:20:31  5-MIN KAOH 280920Z AUTO 10003KT 10SM CLR 20/19 A2990 1000 93 1900 100/03 RMK AO2 T02000189
04850KAOH AOH20160728042510907/28/16 04:25:31  5-MIN KAOH 280925Z AUTO 00000KT 10SM CLR 20/19 A2990 1000 93 1900 000/00 RMK AO2 T02000189
04850KAOH AOH20160728043011207/28/16 04:30:31  5-MIN KAOH 280930Z AUTO 00000KT 10SM FEW120 20/19 A2990 1000 93 1900 000/00 RMK AO2 T02000189
04850KAOH AOH20160728043511207/28/16 04:35:31  5-MIN KAOH 280935Z AUTO 00000KT 10SM SCT120 20/19 A2990 1000 93 1800 000/00 RMK AO2 T02000189
04850KAOH AOH20160728044011207/28/16 04:40:31  5-MIN KAOH 280940Z AUTO 00000KT 10SM BKN120 20/19 A2990 1000 93 1800 000/00 RMK AO2 T02000189
04850KAOH AOH20160728044511107/28/16 04:45:31  5-MIN KAOH 280945Z AUTO 00000KT 10SM BKN120 21/19 A2990 990 90 1900 000/00 RMK AO2 T02060189
04850KAOH AOH20160728045011807/28/16 04:50:31  5-MIN KAOH 280950Z AUTO 00000KT 10SM BKN120 21/19 A2990 990 90 1900 000/00 RMK AO2 SLP117 T02060189
04850KAOH AOH20160728045511107/28/16 04:55:31  5-MIN KAOH 280955Z AUTO 00000KT 10SM SCT120 20/19 A2990 990 93 1800 000/00 RMK AO2 T02000189
04850KAOH AOH20160728050011107/28/16 05:00:31  5-MIN KAOH 281000Z AUTO 00000KT 10SM SCT120 20/19 A2991 990 93 1800 000/00 RMK AO2 T02000189
04850KAOH AOH20160728050511807/28/16 05:05:31  5-MIN KAOH 281005Z AUTO 00000KT 10SM SCT050 BKN120 20/19 A2991 980 93 1800 000/00 RMK AO2 T02000189
04850KAOH AOH20160728051011807/28/16 05:10:31  5-MIN KAOH 281010Z AUTO 00000KT 10SM BKN050 BKN120 20/19 A2991 990 93 1800 000/00 RMK AO2 T02000189
04850KAOH AOH20160728051511107/28/16 05:15:31  5-MIN KAOH 281015Z AUTO 29003KT 10SM BKN050 21/19 A2991 990 90 1900 290/03 RMK AO2 T02060189
04850KAOH AOH20160728052011107/28/16 05:20:31  5-MIN KAOH 281020Z AUTO 32003KT 10SM BKN050 20/19 A2991 980 97 1800 320/03 RMK AO2 T02000194
04850KAOH AOH20160728052511107/28/16 05:25:31  5-MIN KAOH 281025Z AUTO 00000KT 10SM BKN055 20/19 A2991 990 93 1800 000/00 RMK AO2 T02000189
04850KAOH AOH20160728053011807/28/16 05:30:31  5-MIN KAOH 281030Z AUTO 00000KT 10SM BKN050 BKN060 20/19 A2991 990 97 1800 000/00 RMK AO2 T02000194
04850KAOH AOH20160728053511807/28/16 05:35:31  5-MIN KAOH 281035Z AUTO 00000KT 10SM BKN050 BKN060 20/19 A2991 990 93 1800 000/00 RMK AO2 T02000189
04850KAOH AOH20160728054011107/28/16 05:40:31  5-MIN KAOH 281040Z AUTO 00000KT 10SM SCT055 21/19 A2991 990 90 1900 000/00 RMK AO2 T02060189
04850KAOH AOH20160728054511807/28/16 05:45:31  5-MIN KAOH 281045Z AUTO 00000KT 10SM SCT055 SCT120 21/19 A2991 980 90 1900 000/00 RMK AO2 T02060189
04850KAOH AOH20160728055012507/28/16 05:50:31  5-MIN KAOH 281050Z AUTO 00000KT 10SM FEW055 SCT120 21/19 A2992 980 90 1900 000/00 RMK AO2 SLP122 T02060189
04850KAOH AOH20160728055511807/28/16 05:55:31  5-MIN KAOH 281055Z AUTO 00000KT 10SM FEW050 FEW120 21/19 A2992 980 90 1900 000/00 RMK AO2 T02060189
04850KAOH AOH20160728060011807/28/16 06:00:31  5-MIN KAOH 281100Z AUTO 00000KT 10SM FEW060 SCT120 21/19 A2992 970 90 1900 000/00 RMK AO2 T02060189
04850KAOH AOH20160728060511807/28/16 06:05:31  5-MIN KAOH 281105Z AUTO 00000KT 10SM SCT060 SCT120 21/19 A2992 970 87 2000 000/00 RMK AO2 T02110189
04850KAOH AOH20160728061011807/28/16 06:10:31  5-MIN KAOH 281110Z AUTO 00000KT 10SM SCT060 SCT120 21/19 A2992 970 87 1900 000/00 RMK AO2 T02110189
04850KAOH AOH20160728061511107/28/16 06:15:31  5-MIN KAOH 281115Z AUTO 00000KT 10SM SCT060 21/19 A2992 980 90 2000 000/00 RMK AO2 T02110194
04850KAOH AOH20160728062011107/28/16 06:20:31  5-MIN KAOH 281120Z AUTO 00000KT 10SM SCT060 21/19 A2992 970 93 1900 000/00 RMK AO2 T02060194
04850KAOH AOH20160728062511107/28/16 06:25:31  5-MIN KAOH 281125Z AUTO 00000KT 10SM SCT060 21/19 A2992 980 93 1900 000/00 RMK AO2 T02060194
04850KAOH AOH20160728063011107/28/16 06:30:31  5-MIN KAOH 281130Z AUTO 00000KT 10SM FEW060 21/19 A2992 970 93 1900 000/00 RMK AO2 T02060194
04850KAOH AOH20160728063511107/28/16 06:35:31  5-MIN KAOH 281135Z AUTO 00000KT 10SM FEW060 21/20 A2992 970 97 1900 000/00 RMK AO2 T02060200
04850KAOH AOH20160728064011107/28/16 06:40:31  5-MIN KAOH 281140Z AUTO 00000KT 10SM FEW060 21/20 A2992 980 93 2000 000/00 RMK AO2 T02110200
04850KAOH AOH20160728064511107/28/16 06:45:31  5-MIN KAOH 281145Z AUTO 00000KT 10SM FEW060 22/21 A2992 980 93 2000 000/00 RMK AO2 T02170206
04850KAOH AOH20160728065013907/28/16 06:50:31  5-MIN KAOH 281150Z AUTO 00000KT 10SM CLR 22/20 A2992 970 90 2000 000/00 RMK AO2 SLP125 60000 T02170200 10222 20194 56016
04850KAOH AOH20160728065511107/28/16 06:55:31  5-MIN KAOH 281155Z AUTO 00000KT 10SM FEW050 22/20 A2993 970 90 2000 000/00 RMK AO2 T02170200
04850KAOH AOH20160728070011107/28/16 07:00:31  5-MIN KAOH 281200Z AUTO 00000KT 10SM SCT050 22/19 A2993 970 84 2100 000/00 RMK AO2 T02220194
04850KAOH AOH20160728070511107/28/16 07:05:31  5-MIN KAOH 281205Z AUTO 00000KT 10SM BKN055 22/20 A2993 970 87 2100 000/00 RMK AO2 T02220200
04850KAOH AOH20160728071011107/28/16 07:10:31  5-MIN KAOH 281210Z AUTO 00000KT 10SM BKN055 23/20 A2993 970 84 2100 000/00 RMK AO2 T02280200
04850KAOH AOH20160728071511107/28/16 07:15:31  5-MIN KAOH 281215Z AUTO 00000KT 10SM BKN055 23/19 A2993 970 81 2100 000/00 RMK AO2 T02280194
04850KAOH AOH20160728072011107/28/16 07:20:31  5-MIN KAOH 281220Z AUTO 00000KT 10SM SCT055 23/20 A2993 970 81 2200 000/00 RMK AO2 T02330200
04850KAOH AOH20160728072511107/28/16 07:25:31  5-MIN KAOH 281225Z AUTO 00000KT 10SM BKN055 23/20 A2993 970 81 2200 000/00 RMK AO2 T02330200
04850KAOH AOH20160728073011107/28/16 07:30:31  5-MIN KAOH 281230Z AUTO 00000KT 10SM BKN050 23/21 A2993 970 84 2200 000/00 RMK AO2 T02330206
04850KAOH AOH20160728073511107/28/16 07:35:31  5-MIN KAOH 281235Z AUTO 00000KT 10SM BKN050 23/21 A2993 970 84 2200 000/00 RMK AO2 T02330206
04850KAOH AOH20160728074011807/28/16 07:40:31  5-MIN KAOH 281240Z AUTO 00000KT 10SM BKN050 BKN065 23/20 A2993 970 81 2200 000/00 RMK AO2 T02330200
04850KAOH AOH20160728074511807/28/16 07:45:31  5-MIN KAOH 281245Z AUTO 00000KT 10SM BKN050 BKN065 23/20 A2993 970 81 2200 000/00 RMK AO2 T02330200
04850KAOH AOH20160728075011807/28/16 07:50:31  5-MIN KAOH 281250Z AUTO 00000KT 10SM BKN050 24/20 A2993 970 78 2300 000/00 RMK AO2 SLP125 T02390200
04850KAOH AOH20160728075511107/28/16 07:55:31  5-MIN KAOH 281255Z AUTO 00000KT 10SM BKN050 24/20 A2993 970 78 2300 000/00 RMK AO2 T02390200
04850KAOH AOH20160728080011107/28/16 08:00:31  5-MIN KAOH 281300Z AUTO 00000KT 10SM BKN055 24/20 A2993 970 78 2300 000/00 RMK AO2 T02390200
04850KAOH AOH20160728080511107/28/16 08:05:31  5-MIN KAOH 281305Z AUTO 09003KT 10SM BKN055 24/20 A2992 970 76 2300 100/03 RMK AO2 T02440200
04850KAOH AOH20160728081011107/28/16 08:10:31  5-MIN KAOH 281310Z AUTO 07003KT 10SM BKN055 24/19 A2993 970 73 2300 070/03 RMK AO2 T02440194
04850KAOH AOH20160728081511107/28/16 08:15:31  5-MIN KAOH 281315Z AUTO 08003KT 10SM BKN055 24/20 A2992 970 76 2300 090/03 RMK AO2 T02440200
04850KAOH AOH20160728082011107/28/16 08:20:31  5-MIN KAOH 281320Z AUTO 00000KT 10SM SCT055 24/20 A2992 970 76 2300 000/00 RMK AO2 T02440200
04850KAOH AOH20160728082511107/28/16 08:25:31  5-MIN KAOH 281325Z AUTO 00000KT 10SM FEW060 24/20 A2992 970 76 2300 000/00 RMK AO2 T02440200
04850KAOH AOH20160728083011107/28/16 08:30:31  5-MIN KAOH 281330Z AUTO 07003KT 10SM FEW060 25/19 A2992 970 71 2400 070/03 RMK AO2 T02500194
04850KAOH AOH20160728083511107/28/16 08:35:31  5-MIN KAOH 281335Z AUTO 08003KT 10SM FEW060 25/20 A2992 980 73 2400 080/03 RMK AO2 T02500200
04850KAOH AOH20160728084010807/28/16 08:40:31  5-MIN KAOH 281340Z AUTO 10003KT 10SM CLR 26/20 A2992 980 71 2500 110/03 RMK AO2 T02560200
04850KAOH AOH20160728084510807/28/16 08:45:31  5-MIN KAOH 281345Z AUTO 08003KT 10SM CLR 26/20 A2992 980 71 2500 090/03 RMK AO2 T02560200
04850KAOH AOH20160728085011507/28/16 08:50:31  5-MIN KAOH 281350Z AUTO 05003KT 10SM CLR 26/19 A2992 980 68 2500 060/03 RMK AO2 SLP123 T02560194
04850KAOH AOH20160728085510807/28/16 08:55:31  5-MIN KAOH 281355Z AUTO 00000KT 10SM CLR 26/19 A2991 980 68 2500 000/00 RMK AO2 T02560194
04850KAOH AOH20160728090010807/28/16 09:00:31  5-MIN KAOH 281400Z AUTO 04003KT 10SM CLR 26/19 A2991 980 66 2500 040/03 RMK AO2 T02610194
04850KAOH AOH20160728090510807/28/16 09:05:31  5-MIN KAOH 281405Z AUTO 00000KT 10SM CLR 26/19 A2991 980 66 2500 000/00 RMK AO2 T02610194
04850KAOH AOH20160728091010807/28/16 09:10:31  5-MIN KAOH 281410Z AUTO 00000KT 10SM CLR 26/19 A2991 980 66 2500 000/00 RMK AO2 T02610194
04850KAOH AOH20160728091510807/28/16 09:15:31  5-MIN KAOH 281415Z AUTO 01003KT 10SM CLR 27/20 A2991 990 66 2600 020/03 RMK AO2 T02670200
04850KAOH AOH20160728092010807/28/16 09:20:31  5-MIN KAOH 281420Z AUTO 00000KT 10SM CLR 26/20 A2991 990 68 2500 000/00 RMK AO2 T02610200
04850KAOH AOH20160728092510807/28/16 09:25:31  5-MIN KAOH 281425Z AUTO 00000KT 10SM CLR 27/20 A2991 990 66 2600 000/00 RMK AO2 T02670200
04850KAOH AOH20160728093010807/28/16 09:30:31  5-MIN KAOH 281430Z AUTO 00000KT 10SM CLR 26/20 A2991 990 68 2500 000/00 RMK AO2 T02610200
04850KAOH AOH20160728093510807/28/16 09:35:31  5-MIN KAOH 281435Z AUTO 35003KT 10SM CLR 27/20 A2991 990 66 2600 360/03 RMK AO2 T02670200
04850KAOH AOH20160728094010807/28/16 09:40:31  5-MIN KAOH 281440Z AUTO 36003KT 10SM CLR 26/20 A2991 990 68 2500 010/03 RMK AO2 T02610200
04850KAOH AOH20160728094510807/28/16 09:45:31  5-MIN KAOH 281445Z AUTO 00000KT 10SM CLR 26/20 A2991 990 68 2500 000/00 RMK AO2 T02610200
04850KAOH AOH20160728095012107/28/16 09:50:31  5-MIN KAOH 281450Z AUTO 02003KT 10SM CLR 27/20 A2990 990 66 2600 030/03 RMK AO2 SLP118 T02670200 52009
04850KAOH AOH20160728095510807/28/16 09:55:31  5-MIN KAOH 281455Z AUTO 36003KT 10SM CLR 27/20 A2990 990 66 2600 010/03 RMK AO2 T02670200
04850KAOH AOH20160728100010807/28/16 10:00:31  5-MIN KAOH 281500Z AUTO 00000KT 10SM CLR 27/19 A2991 990 64 2600 000/00 RMK AO2 T02670194
04850KAOH AOH20160728100510807/28/16 10:05:31  5-MIN KAOH 281505Z AUTO 00000KT 10SM CLR 27/20 A2991 990 66 2600 000/00 RMK AO2 T02670200
04850KAOH AOH20160728101010807/28/16 10:10:31  5-MIN KAOH 281510Z AUTO 00000KT 10SM CLR 27/20 A2991 990 66 2600 000/00 RMK AO2 T02670200
04850KAOH AOH20160728101510807/28/16 10:15:31  5-MIN KAOH 281515Z AUTO 00000KT 10SM CLR 27/20 A2991 990 64 2700 000/00 RMK AO2 T02720200
04850KAOH AOH20160728102010807/28/16 10:20:31  5-MIN KAOH 281520Z AUTO 32003KT 10SM CLR 27/20 A2991 990 64 2700 330/03 RMK AO2 T02720200
04850KAOH AOH20160728102511107/28/16 10:25:31  5-MIN KAOH 281525Z AUTO 00000KT 10SM FEW060 27/20 A2991 990 66 2600 000/00 RMK AO2 T02670200
04850KAOH AOH20160728103011107/28/16 10:30:31  5-MIN KAOH 281530Z AUTO 00000KT 10SM FEW060 27/20 A2991 990 66 2600 000/00 RMK AO2 T02670200
04850KAOH AOH20160728103511107/28/16 10:35:31  5-MIN KAOH 281535Z AUTO 00000KT 10SM FEW060 27/20 A2991 990 64 2700 000/00 RMK AO2 T02720200
04850KAOH AOH20160728104011107/28/16 10:40:31  5-MIN KAOH 281540Z AUTO 00000KT 10SM FEW060 27/21 A2991 990 66 2700 000/00 RMK AO2 T02720206
04850KAOH AOH20160728104511107/28/16 10:45:31  5-MIN KAOH 281545Z AUTO 31003KT 10SM FEW060 27/21 A2991 990 66 2700 320/03 RMK AO2 T02720206
04850KAOH AOH20160728105011507/28/16 10:50:31  5-MIN KAOH 281550Z AUTO 00000KT 10SM CLR 27/20 A2991 990 64 2700 000/00 RMK AO2 SLP120 T02720200
04850KAOH AOH20160728105510807/28/16 10:55:31  5-MIN KAOH 281555Z AUTO VRB03KT 10SM CLR 28/20 A2991 990 62 2700 VRB/03 RMK AO2 T02780200
04850KAOH AOH20160728110010807/28/16 11:00:31  5-MIN KAOH 281600Z AUTO 00000KT 10SM CLR 28/20 A2991 990 62 2700 000/00 RMK AO2 T02780200
04850KAOH AOH20160728110510807/28/16 11:05:31  5-MIN KAOH 281605Z AUTO 00000KT 10SM CLR 28/20 A2991 990 62 2700 000/00 RMK AO2 T02780200
04850KAOH AOH20160728111010807/28/16 11:10:31  5-MIN KAOH 281610Z AUTO 00000KT 10SM CLR 28/20 A2991 990 62 2700 000/00 RMK AO2 T02780200
04850KAOH AOH20160728111510807/28/16 11:15:31  5-MIN KAOH 281615Z AUTO 00000KT 10SM CLR 28/20 A2990 990 62 2700 000/00 RMK AO2 T02780200
04850KAOH AOH20160728112010807/28/16 11:20:31  5-MIN KAOH 281620Z AUTO 00000KT 10SM CLR 28/20 A2990 990 62 2700 000/00 RMK AO2 T02780200
04850KAOH AOH20160728112510807/28/16 11:25:31  5-MIN KAOH 281625Z AUTO 00000KT 10SM CLR 28/19 A2990 990 60 2700 000/00 RMK AO2 T02780194
04850KAOH AOH20160728113010807/28/16 11:30:31  5-MIN KAOH 281630Z AUTO 15003KT 10SM CLR 28/20 A2990 990 60 2800 150/03 RMK AO2 T02830200
04850KAOH AOH20160728113510807/28/16 11:35:31  5-MIN KAOH 281635Z AUTO 00000KT 10SM CLR 28/20 A2990 990 60 2800 000/00 RMK AO2 T02830200
04850KAOH AOH20160728114010807/28/16 11:40:31  5-MIN KAOH 281640Z AUTO 00000KT 10SM CLR 28/20 A2990 990 60 2800 000/00 RMK AO2 T02830200
04850KAOH AOH20160728114510807/28/16 11:45:31  5-MIN KAOH 281645Z AUTO 19004KT 10SM CLR 28/19 A2990 990 58 2700 200/04 RMK AO2 T02780189
04850KAOH AOH20160728115011507/28/16 11:50:31  5-MIN KAOH 281650Z AUTO 16005KT 10SM CLR 28/19 A2990 990 56 2800 170/05 RMK AO2 SLP118 T02830189
04850KAOH AOH20160728115510807/28/16 11:55:31  5-MIN KAOH 281655Z AUTO 00000KT 10SM CLR 28/19 A2990 990 56 2800 000/00 RMK AO2 T02830189
04850KAOH AOH20160728120010807/28/16 12:00:31  5-MIN KAOH 281700Z AUTO 10004KT 10SM CLR 29/19 A2990 990 56 2900 110/04 RMK AO2 T02890194
04850KAOH AOH20160728120510907/28/16 12:05:31  5-MIN KAOH 281705Z AUTO 12004KT 10SM CLR 29/19 A2990 1000 54 2900 120/04 RMK AO2 T02940194
04850KAOH AOH20160728121010907/28/16 12:10:31  5-MIN KAOH 281710Z AUTO 11003KT 10SM CLR 29/19 A2990 1000 54 2900 110/03 RMK AO2 T02890189
04850KAOH AOH20160728121510907/28/16 12:15:31  5-MIN KAOH 281715Z AUTO 00000KT 10SM CLR 28/19 A2990 1000 56 2800 000/00 RMK AO2 T02830189
04850KAOH AOH20160728122010907/28/16 12:20:31  5-MIN KAOH 281720Z AUTO 00000KT 10SM CLR 29/19 A2990 1000 56 2900 000/00 RMK AO2 T02890194
04850KAOH AOH20160728122510907/28/16 12:25:31  5-MIN KAOH 281725Z AUTO 00000KT 10SM CLR 29/19 A2990 1000 56 2900 000/00 RMK AO2 T02890194
04850KAOH AOH20160728123010907/28/16 12:30:31  5-MIN KAOH 281730Z AUTO VRB03KT 10SM CLR 29/19 A2990 1000 54 2900 VRB/03 RMK AO2 T02940194
04850KAOH AOH20160728123510907/28/16 12:35:31  5-MIN KAOH 281735Z AUTO 00000KT 10SM CLR 29/19 A2990 1000 56 2900 000/00 RMK AO2 T02890194
04850KAOH AOH20160728124010907/28/16 12:40:31  5-MIN KAOH 281740Z AUTO 00000KT 10SM CLR 29/19 A2990 1000 54 2900 000/00 RMK AO2 T02890189
04850KAOH AOH20160728124510907/28/16 12:45:31  5-MIN KAOH 281745Z AUTO 33004KT 10SM CLR 29/19 A2990 1000 54 2900 340/04 RMK AO2 T02940194
04850KAOH AOH20160728125013407/28/16 12:50:31  5-MIN KAOH 281750Z AUTO 00000KT 10SM CLR 29/19 A2990 1000 54 2900 000/00 RMK AO2 SLP115 T02890189 10294 20217 58007
04850KAOH AOH20160728125510907/28/16 12:55:31  5-MIN KAOH 281755Z AUTO 36003KT 10SM CLR 29/19 A2989 1000 54 2900 360/03 RMK AO2 T02940194
04850KAOH AOH20160728130011207/28/16 13:00:31  5-MIN KAOH 281800Z AUTO 30004KT 10SM FEW060 28/19 A2989 1000 58 2800 310/04 RMK AO2 T02830194
04850KAOH AOH20160728130511207/28/16 13:05:31  5-MIN KAOH 281805Z AUTO 00000KT 10SM FEW060 28/18 A2989 1000 54 2800 000/00 RMK AO2 T02830183
04850KAOH AOH20160728131011207/28/16 13:10:31  5-MIN KAOH 281810Z AUTO VRB03KT 10SM FEW060 29/19 A2989 1000 52 2900 VRB/03 RMK AO2 T02940189
04850KAOH AOH20160728131511207/28/16 13:15:31  5-MIN KAOH 281815Z AUTO 06003KT 10SM FEW060 29/18 A2989 1010 50 2900 060/03 RMK AO2 T02940183
04850KAOH AOH20160728132011207/28/16 13:20:31  5-MIN KAOH 281820Z AUTO 09003KT 10SM FEW060 30/18 A2989 1010 49 3000 090/03 RMK AO2 T03000183
04850KAOH AOH20160728132511207/28/16 13:25:31  5-MIN KAOH 281825Z AUTO VRB04KT 10SM FEW060 29/18 A2989 1010 50 2900 VRB/04 RMK AO2 T02940183
04850KAOH AOH20160728133010907/28/16 13:30:31  5-MIN KAOH 281830Z AUTO 00000KT 10SM CLR 30/18 A2989 1010 49 3000 000/00 RMK AO2 T03000183
04850KAOH AOH20160728133510907/28/16 13:35:31  5-MIN KAOH 281835Z AUTO 05004KT 10SM CLR 29/18 A2989 1010 50 2900 060/04 RMK AO2 T02940183
04850KAOH AOH20160728134010907/28/16 13:40:31  5-MIN KAOH 281840Z AUTO 00000KT 10SM CLR 29/18 A2989 1010 49 2900 000/00 RMK AO2 T02940178
04850KAOH AOH20160728134510907/28/16 13:45:31  5-MIN KAOH 281845Z AUTO 09004KT 10SM CLR 29/18 A2988 1010 50 2900 090/04 RMK AO2 T02940183
04850KAOH AOH20160728135011607/28/16 13:50:31  5-MIN KAOH 281850Z AUTO 00000KT 10SM CLR 30/18 A2988 1010 49 3000 000/00 RMK AO2 SLP110 T03000183
04850KAOH AOH20160728135510907/28/16 13:55:31  5-MIN KAOH 281855Z AUTO 17003KT 10SM CLR 29/18 A2988 1010 49 2900 180/03 RMK AO2 T02940178
04850KAOH AOH20160728140011207/28/16 14:00:31  5-MIN KAOH 281900Z AUTO 11003KT 10SM FEW046 29/18 A2988 1020 50 2900 120/03 RMK AO2 T02940183
04850KAOH AOH20160728140511207/28/16 14:05:31  5-MIN KAOH 281905Z AUTO 03003KT 10SM FEW046 30/19 A2988 1020 51 3000 030/03 RMK AO2 T03000189
04850KAOH AOH20160728141010907/28/16 14:10:31  5-MIN KAOH 281910Z AUTO 00000KT 10SM CLR 29/19 A2988 1020 54 2900 000/00 RMK AO2 T02940194
04850KAOH AOH20160728141510907/28/16 14:15:31  5-MIN KAOH 281915Z AUTO 00000KT 10SM CLR 29/18 A2988 1020 50 2900 000/00 RMK AO2 T02940183
04850KAOH AOH20160728142010907/28/16 14:20:31  5-MIN KAOH 281920Z AUTO 03003KT 10SM CLR 29/19 A2988 1020 54 2900 040/03 RMK AO2 T02890189
04850KAOH AOH20160728142511207/28/16 14:25:31  5-MIN KAOH 281925Z AUTO 00000KT 10SM FEW046 29/19 A2988 1020 54 2900 000/00 RMK AO2 T02890189
04850KAOH AOH20160728143011207/28/16 14:30:31  5-MIN KAOH 281930Z AUTO 00000KT 10SM SCT044 29/19 A2988 1020 54 2900 000/00 RMK AO2 T02890189
04850KAOH AOH20160728143511207/28/16 14:35:31  5-MIN KAOH 281935Z AUTO 04006KT 10SM SCT046 29/20 A2988 1020 58 2900 040/06 RMK AO2 T02890200
04850KAOH AOH20160728144012607/28/16 14:40:31  5-MIN KAOH 281940Z AUTO 06005KT 10SM SCT046 BKN060 BKN080 29/20 A2987 1020 56 2900 070/05 RMK AO2 T02940200
04850KAOH AOH20160728144512607/28/16 14:45:31  5-MIN KAOH 281945Z AUTO 06005KT 10SM SCT046 BKN065 BKN080 29/20 A2987 1020 56 2900 070/05 RMK AO2 T02940200
04850KAOH AOH20160728145012607/28/16 14:50:31  5-MIN KAOH 281950Z AUTO 06007KT 10SM BKN046 BKN060 29/20 A2987 1020 56 2900 070/07 RMK AO2 SLP107 T02940200
04850KAOH AOH20160728145511907/28/16 14:55:31  5-MIN KAOH 281955Z AUTO 07007KT 10SM BKN046 BKN065 29/19 A2987 1030 54 2900 070/07 RMK AO2 T02890189
04850KAOH AOH20160728150011907/28/16 15:00:31  5-MIN KAOH 282000Z AUTO 06005KT 10SM SCT046 OVC070 29/19 A2987 1030 54 2900 070/05 RMK AO2 T02890189
04850KAOH AOH20160728150511907/28/16 15:05:31  5-MIN KAOH 282005Z AUTO 06006KT 10SM SCT047 BKN070 29/19 A2987 1030 56 2900 070/06 RMK AO2 T02890194
04850KAOH AOH20160728151012607/28/16 15:10:31  5-MIN KAOH 282010Z AUTO 06005KT 10SM FEW045 SCT060 BKN070 29/19 A2987 1020 56 2900 060/05 RMK AO2 T02890194
04850KAOH AOH20160728151512607/28/16 15:15:31  5-MIN KAOH 282015Z AUTO 07007KT 10SM FEW045 FEW060 BKN070 29/19 A2987 1020 54 2900 080/07 RMK AO2 T02940194
04850KAOH AOH20160728152011907/28/16 15:20:31  5-MIN KAOH 282020Z AUTO 06004KT 10SM FEW045 SCT070 29/19 A2987 1020 56 2900 070/04 RMK AO2 T02890194
04850KAOH AOH20160728152511207/28/16 15:25:31  5-MIN KAOH 282025Z AUTO 04005KT 10SM SCT070 29/19 A2987 1020 56 2900 040/05 RMK AO2 T02890194
04850KAOH AOH20160728153011207/28/16 15:30:31  5-MIN KAOH 282030Z AUTO 08005KT 10SM FEW070 29/19 A2987 1020 56 2900 090/05 RMK AO2 T02890194
04850KAOH AOH20160728153511207/28/16 15:35:31  5-MIN KAOH 282035Z AUTO 08005KT 10SM FEW070 29/19 A2987 1020 52 2900 080/05 RMK AO2 T02940189
04850KAOH AOH20160728154010907/28/16 15:40:31  5-MIN KAOH 282040Z AUTO 08003KT 10SM CLR 29/18 A2987 1030 50 2900 080/03 RMK AO2 T02940183
04850KAOH AOH20160728154510907/28/16 15:45:31  5-MIN KAOH 282045Z AUTO 08005KT 10SM CLR 29/19 A2987 1030 54 3000 090/05 RMK AO2 T02940194
04850KAOH AOH20160728155012207/28/16 15:50:31  5-MIN KAOH 282050Z AUTO 10004KT 10SM CLR 29/19 A2987 1030 52 3000 110/04 RMK AO2 SLP106 T02940189 58003
04850KAOH AOH20160728155510907/28/16 15:55:31  5-MIN KAOH 282055Z AUTO 08004KT 10SM CLR 29/19 A2987 1030 52 3000 090/04 RMK AO2 T02940189
04850KAOH AOH20160728160010907/28/16 16:00:31  5-MIN KAOH 282100Z AUTO 11005KT 10SM CLR 29/18 A2987 1030 50 3000 120/05 RMK AO2 T02940183
04850KAOH AOH20160728160510907/28/16 16:05:31  5-MIN KAOH 282105Z AUTO 10004KT 10SM CLR 29/18 A2987 1030 50 3000 100/04 RMK AO2 T02940183
04850KAOH AOH20160728161010907/28/16 16:10:31  5-MIN KAOH 282110Z AUTO 10003KT 10SM CLR 30/18 A2986 1030 49 3000 100/03 RMK AO2 T03000183
04850KAOH AOH20160728161510907/28/16 16:15:31  5-MIN KAOH 282115Z AUTO 10004KT 10SM CLR 30/18 A2986 1030 49 3000 100/04 RMK AO2 T03000183
04850KAOH AOH20160728162010907/28/16 16:20:31  5-MIN KAOH 282120Z AUTO 06005KT 10SM CLR 30/19 A2986 1040 51 3000 060/05 RMK AO2 T03000189
04850KAOH AOH20160728162510907/28/16 16:25:31  5-MIN KAOH 282125Z AUTO 06005KT 10SM CLR 30/19 A2986 1040 51 3000 060/05 RMK AO2 T03000189
04850KAOH AOH20160728163010907/28/16 16:30:31  5-MIN KAOH 282130Z AUTO 09004KT 10SM CLR 30/19 A2986 1030 51 3000 100/04 RMK AO2 T03000189
04850KAOH AOH20160728163510907/28/16 16:35:31  5-MIN KAOH 282135Z AUTO 07003KT 10SM CLR 29/18 A2986 1030 50 3000 080/03 RMK AO2 T02940183
04850KAOH AOH20160728164010907/28/16 16:40:31  5-MIN KAOH 282140Z AUTO 04005KT 10SM CLR 29/19 A2986 1030 52 3000 050/05 RMK AO2 T02940189
04850KAOH AOH20160728164510907/28/16 16:45:31  5-MIN KAOH 282145Z AUTO 07005KT 10SM CLR 29/19 A2987 1030 52 3000 070/05 RMK AO2 T02940189
04850KAOH AOH20160728165011607/28/16 16:50:31  5-MIN KAOH 282150Z AUTO 09003KT 10SM CLR 30/18 A2987 1030 49 3000 090/03 RMK AO2 SLP106 T03000183
04850KAOH AOH20160728165510907/28/16 16:55:31  5-MIN KAOH 282155Z AUTO 07003KT 10SM CLR 30/19 A2987 1020 51 3000 080/03 RMK AO2 T03000189
04850KAOH AOH20160728170010907/28/16 17:00:31  5-MIN KAOH 282200Z AUTO 12004KT 10SM CLR 30/18 A2987 1020 49 3000 130/04 RMK AO2 T03000183
04850KAOH AOH20160728170510907/28/16 17:05:31  5-MIN KAOH 282205Z AUTO 08004KT 10SM CLR 30/18 A2987 1020 49 3000 080/04 RMK AO2 T03000183
04850KAOH AOH20160728171011207/28/16 17:10:31  5-MIN KAOH 282210Z AUTO 09004KT 10SM FEW080 30/18 A2987 1020 49 3000 090/04 RMK AO2 T03000183
04850KAOH AOH20160728171511207/28/16 17:15:31  5-MIN KAOH 282215Z AUTO 05004KT 10SM FEW080 30/18 A2987 1020 49 3000 050/04 RMK AO2 T03000183
04850KAOH AOH20160728172011207/28/16 17:20:31  5-MIN KAOH 282220Z AUTO 35003KT 10SM FEW080 29/18 A2987 1020 50 2900 360/03 RMK AO2 T02940183
04850KAOH AOH20160728172511207/28/16 17:25:31  5-MIN KAOH 282225Z AUTO VRB03KT 10SM FEW080 29/19 A2987 1020 52 2900 VRB/03 RMK AO2 T02940189
04850KAOH AOH20160728173011207/28/16 17:30:31  5-MIN KAOH 282230Z AUTO 05003KT 10SM FEW080 30/18 A2988 1020 49 3000 050/03 RMK AO2 T03000183
04850KAOH AOH20160728173511207/28/16 17:35:31  5-MIN KAOH 282235Z AUTO 00000KT 10SM FEW080 29/18 A2988 1020 50 2900 000/00 RMK AO2 T02940183
04850KAOH AOH20160728174010907/28/16 17:40:31  5-MIN KAOH 282240Z AUTO 06003KT 10SM CLR 29/18 A2988 1020 50 2900 070/03 RMK AO2 T02940183
04850KAOH AOH20160728174510907/28/16 17:45:31  5-MIN KAOH 282245Z AUTO VRB03KT 10SM CLR 29/19 A2988 1010 52 2900 VRB/03 RMK AO2 T02940189
04850KAOH AOH20160728175011607/28/16 17:50:31  5-MIN KAOH 282250Z AUTO 01003KT 10SM CLR 29/19 A2988 1010 52 2900 020/03 RMK AO2 SLP111 T02940189
04850KAOH AOH20160728175510907/28/16 17:55:31  5-MIN KAOH 282255Z AUTO 01004KT 10SM CLR 29/19 A2988 1010 52 2900 010/04 RMK AO2 T02940189
04850KAOH AOH20160728180010907/28/16 18:00:31  5-MIN KAOH 282300Z AUTO 02004KT 10SM CLR 29/19 A2988 1010 54 2900 020/04 RMK AO2 T02890189
04850KAOH AOH20160728180510907/28/16 18:05:31  5-MIN KAOH 282305Z AUTO 02005KT 10SM CLR 28/19 A2989 1010 60 2700 020/05 RMK AO2 T02780194
04850KAOH AOH20160728181010907/28/16 18:10:31  5-MIN KAOH 282310Z AUTO 36003KT 10SM CLR 28/19 A2989 1010 60 2700 360/03 RMK AO2 T02780194
04850KAOH AOH20160728181510907/28/16 18:15:31  5-MIN KAOH 282315Z AUTO 01003KT 10SM CLR 28/20 A2989 1010 62 2700 020/03 RMK AO2 T02780200
04850KAOH AOH20160728182010907/28/16 18:20:31  5-MIN KAOH 282320Z AUTO 00000KT 10SM CLR 28/20 A2989 1010 62 2700 000/00 RMK AO2 T02780200
04850KAOH AOH20160728182510907/28/16 18:25:31  5-MIN KAOH 282325Z AUTO 00000KT 10SM CLR 27/20 A2989 1010 64 2700 000/00 RMK AO2 T02720200
04850KAOH AOH20160728183010907/28/16 18:30:31  5-MIN KAOH 282330Z AUTO 00000KT 10SM CLR 28/19 A2989 1010 60 2700 000/00 RMK AO2 T02780194
04850KAOH AOH20160728183510907/28/16 18:35:31  5-MIN KAOH 282335Z AUTO 02003KT 10SM CLR 27/20 A2989 1010 64 2700 020/03 RMK AO2 T02720200
04850KAOH AOH20160728184010907/28/16 18:40:31  5-MIN KAOH 282340Z AUTO 01004KT 10SM CLR 27/21 A2989 1010 69 2700 020/04 RMK AO2 T02720211
04850KAOH AOH20160728184510907/28/16 18:45:31  5-MIN KAOH 282345Z AUTO 01005KT 10SM CLR 27/21 A2989 1010 69 2700 010/05 RMK AO2 T02720211
04850KAOH AOH20160728185013407/28/16 18:50:31  5-MIN KAOH 282350Z AUTO 02006KT 10SM CLR 28/21 A2989 1010 64 2700 030/06 RMK AO2 SLP113 T02780206 10300 20272 56009
04850KAOH AOH20160728185510907/28/16 18:55:31  5-MIN KAOH 282355Z AUTO 02005KT 10SM CLR 27/21 A2989 1010 69 2700 030/05 RMK AO2 T02720211
04850KAOH AOH20160728190010907/28/16 19:00:31  5-MIN KAOH 290000Z AUTO 02007KT 10SM CLR 27/21 A2989 1010 69 2700 020/07 RMK AO2 T02720211
04850KAOH AOH20160728190510907/28/16 19:05:31  5-MIN KAOH 290005Z AUTO 03009KT 10SM CLR 27/21 A2988 1010 69 2700 030/09 RMK AO2 T02720211
04850KAOH AOH20160728191010907/28/16 19:10:31  5-MIN KAOH 290010Z AUTO 04005KT 10SM CLR 27/21 A2988 1010 66 2700 050/05 RMK AO2 T02720206
04850KAOH AOH20160728191510907/28/16 19:15:31  5-MIN KAOH 290015Z AUTO 03005KT 10SM CLR 27/21 A2989 1010 71 2600 040/05 RMK AO2 T02670211
04850KAOH AOH20160728192010907/28/16 19:20:31  5-MIN KAOH 290020Z AUTO 03006KT 10SM CLR 27/21 A2989 1010 69 2600 040/06 RMK AO2 T02670206
04850KAOH AOH20160728192510907/28/16 19:25:31  5-MIN KAOH 290025Z AUTO 03005KT 10SM CLR 26/21 A2989 1000 71 2600 040/05 RMK AO2 T02610206
04850KAOH AOH20160728193010907/28/16 19:30:31  5-MIN KAOH 290030Z AUTO 04005KT 10SM CLR 26/21 A2989 1000 71 2600 050/05 RMK AO2 T02610206
04850KAOH AOH20160728193510907/28/16 19:35:31  5-MIN KAOH 290035Z AUTO 05005KT 10SM CLR 26/21 A2989 1000 71 2600 050/05 RMK AO2 T02610206
04850KAOH AOH20160728194011207/28/16 19:40:31  5-MIN KAOH 290040Z AUTO 05005KT 10SM FEW046 26/21 A2989 1000 73 2500 060/05 RMK AO2 T02560206
04850KAOH AOH20160728194511207/28/16 19:45:31  5-MIN KAOH 290045Z AUTO 06004KT 10SM FEW046 26/21 A2989 1000 73 2500 060/04 RMK AO2 T02560206
04850KAOH AOH20160728195011907/28/16 19:50:31  5-MIN KAOH 290050Z AUTO 06004KT 10SM FEW046 26/21 A2990 1000 73 2500 060/04 RMK AO2 SLP115 T02560206
04850KAOH AOH20160728195511207/28/16 19:55:31  5-MIN KAOH 290055Z AUTO 06003KT 10SM FEW046 25/21 A2990 1000 76 2400 070/03 RMK AO2 T02500206
04850KAOH AOH20160728200011207/28/16 20:00:31  5-MIN KAOH 290100Z AUTO 06004KT 10SM FEW046 24/21 A2989 1000 78 2400 070/04 RMK AO2 T02440206
04850KAOH AOH20160728200511207/28/16 20:05:31  5-MIN KAOH 290105Z AUTO 06003KT 10SM FEW046 24/21 A2990 1000 81 2300 070/03 RMK AO2 T02390206
04850KAOH AOH20160728201010907/28/16 20:10:31  5-MIN KAOH 290110Z AUTO 07004KT 10SM CLR 24/21 A2990 1000 81 2300 080/04 RMK AO2 T02390206
04850KAOH AOH20160728201510907/28/16 20:15:31  5-MIN KAOH 290115Z AUTO 07003KT 10SM CLR 24/21 A2990 1000 81 2300 070/03 RMK AO2 T02390206
04850KAOH AOH20160728202010907/28/16 20:20:31  5-MIN KAOH 290120Z AUTO 06003KT 10SM CLR 24/21 A2990 1000 81 2300 070/03 RMK AO2 T02390206
04850KAOH AOH20160728202510907/28/16 20:25:31  5-MIN KAOH 290125Z AUTO 08003KT 10SM CLR 24/21 A2990 1000 81 2300 090/03 RMK AO2 T02390206
04850KAOH AOH20160728203010907/28/16 20:30:31  5-MIN KAOH 290130Z AUTO 09003KT 10SM CLR 24/21 A2990 1000 81 2300 100/03 RMK AO2 T02390206
04850KAOH AOH20160728203510907/28/16 20:35:31  5-MIN KAOH 290135Z AUTO 10004KT 10SM CLR 24/20 A2990 1000 78 2300 100/04 RMK AO2 T02390200
04850KAOH AOH20160728204010907/28/16 20:40:31  5-MIN KAOH 290140Z AUTO 10005KT 10SM CLR 23/20 A2990 1000 81 2200 100/05 RMK AO2 T02330200
04850KAOH AOH20160728204510907/28/16 20:45:31  5-MIN KAOH 290145Z AUTO 11003KT 10SM CLR 23/20 A2990 1000 81 2200 110/03 RMK AO2 T02330200
04850KAOH AOH20160728205011607/28/16 20:50:31  5-MIN KAOH 290150Z AUTO 08003KT 10SM CLR 23/20 A2990 1000 84 2200 090/03 RMK AO2 SLP117 T02280200
04850KAOH AOH20160728205510907/28/16 20:55:31  5-MIN KAOH 290155Z AUTO 07003KT 10SM CLR 23/20 A2990 1000 84 2200 070/03 RMK AO2 T02280200
04850KAOH AOH20160728210010907/28/16 21:00:31  5-MIN KAOH 290200Z AUTO 08003KT 10SM CLR 23/20 A2990 1000 81 2200 090/03 RMK AO2 T02330200
04850KAOH AOH20160728210510907/28/16 21:05:31  5-MIN KAOH 290205Z AUTO 07004KT 10SM CLR 23/20 A2990 1000 81 2200 080/04 RMK AO2 T02330200
04850KAOH AOH20160728211010907/28/16 21:10:31  5-MIN KAOH 290210Z AUTO 06003KT 10SM CLR 23/20 A2990 1000 84 2200 060/03 RMK AO2 T02280200
04850KAOH AOH20160728211510907/28/16 21:15:31  5-MIN KAOH 290215Z AUTO 00000KT 10SM CLR 22/19 A2990 1000 84 2100 000/00 RMK AO2 T02220194
04850KAOH AOH20160728212010807/28/16 21:20:31  5-MIN KAOH 290220Z AUTO 00000KT 10SM CLR 23/20 A2990 990 84 2200 000/00 RMK AO2 T02280200
04850KAOH AOH20160728212510807/28/16 21:25:31  5-MIN KAOH 290225Z AUTO 08003KT 10SM CLR 22/20 A2991 990 87 2100 080/03 RMK AO2 T02220200
04850KAOH AOH20160728213010807/28/16 21:30:31  5-MIN KAOH 290230Z AUTO 06003KT 10SM CLR 22/20 A2992 980 90 2000 070/03 RMK AO2 T02170200
04850KAOH AOH20160728213510807/28/16 21:35:31  5-MIN KAOH 290235Z AUTO 00000KT 10SM CLR 22/20 A2992 980 87 2100 000/00 RMK AO2 T02220200
04850KAOH AOH20160728214010807/28/16 21:40:31  5-MIN KAOH 290240Z AUTO 00000KT 10SM CLR 22/20 A2992 980 87 2100 000/00 RMK AO2 T02220200
04850KAOH AOH20160728214510807/28/16 21:45:31  5-MIN KAOH 290245Z AUTO 09003KT 10SM CLR 22/19 A2992 980 84 2100 100/03 RMK AO2 T02220194
04850KAOH AOH20160728215012107/28/16 21:50:31  5-MIN KAOH 290250Z AUTO 09003KT 10SM CLR 22/19 A2992 980 84 2100 100/03 RMK AO2 SLP123 T02220194 53007
04850KAOH AOH20160728215510807/28/16 21:55:31  5-MIN KAOH 290255Z AUTO 00000KT 10SM CLR 22/19 A2992 980 84 2100 000/00 RMK AO2 T02220194
04850KAOH AOH20160728220010807/28/16 22:00:31  5-MIN KAOH 290300Z AUTO 10003KT 10SM CLR 22/19 A2992 980 84 2100 100/03 RMK AO2 T02220194
04850KAOH AOH20160728220510807/28/16 22:05:31  5-MIN KAOH 290305Z AUTO 00000KT 10SM CLR 22/19 A2992 980 84 2100 000/00 RMK AO2 T02220194
04850KAOH AOH20160728221010807/28/16 22:10:31  5-MIN KAOH 290310Z AUTO 00000KT 10SM CLR 22/19 A2992 980 84 2100 000/00 RMK AO2 T02220194
04850KAOH AOH20160728221510807/28/16 22:15:31  5-MIN KAOH 290315Z AUTO 08003KT 10SM CLR 22/19 A2991 980 87 2000 090/03 RMK AO2 T02170194
04850KAOH AOH20160728222010807/28/16 22:20:31  5-MIN KAOH 290320Z AUTO 08004KT 10SM CLR 21/19 A2991 990 90 2000 090/04 RMK AO2 T02110194
04850KAOH AOH20160728222510807/28/16 22:25:31  5-MIN KAOH 290325Z AUTO 08004KT 10SM CLR 21/19 A2991 990 90 2000 090/04 RMK AO2 T02110194
04850KAOH AOH20160728223010807/28/16 22:30:31  5-MIN KAOH 290330Z AUTO 08003KT 10SM CLR 21/19 A2991 990 90 2000 090/03 RMK AO2 T02110194
04850KAOH AOH20160728223510807/28/16 22:35:31  5-MIN KAOH 290335Z AUTO 08003KT 10SM CLR 21/19 A2991 990 90 2000 090/03 RMK AO2 T02110194
04850KAOH AOH20160728224010807/28/16 22:40:31  5-MIN KAOH 290340Z AUTO 08003KT 10SM CLR 22/19 A2991 980 87 2000 090/03 RMK AO2 T02170194
04850KAOH AOH20160728224510807/28/16 22:45:31  5-MIN KAOH 290345Z AUTO 09003KT 10SM CLR 22/19 A2991 990 87 2000 090/03 RMK AO2 T02170194
04850KAOH AOH20160728225011507/28/16 22:50:31  5-MIN KAOH 290350Z AUTO 10004KT 10SM CLR 22/19 A2991 990 87 2000 100/04 RMK AO2 SLP120 T02170194
04850KAOH AOH20160728225510807/28/16 22:55:31  5-MIN KAOH 290355Z AUTO 10004KT 10SM CLR 21/19 A2991 990 90 1900 110/04 RMK AO2 T02060189
04850KAOH AOH20160728230010807/28/16 23:00:31  5-MIN KAOH 290400Z AUTO 10004KT 10SM CLR 21/19 A2991 990 90 1900 100/04 RMK AO2 T02060189
04850KAOH AOH20160728230510807/28/16 23:05:31  5-MIN KAOH 290405Z AUTO 10004KT 10SM CLR 21/19 A2990 990 90 1900 110/04 RMK AO2 T02060189
04850KAOH AOH20160728231010807/28/16 23:10:31  5-MIN KAOH 290410Z AUTO 10005KT 10SM CLR 20/19 A2990 990 93 1800 110/05 RMK AO2 T02000189
04850KAOH AOH20160728231510807/28/16 23:15:31  5-MIN KAOH 290415Z AUTO 09005KT 10SM CLR 20/19 A2990 990 93 1800 100/05 RMK AO2 T02000189
04850KAOH AOH20160728232010807/28/16 23:20:31  5-MIN KAOH 290420Z AUTO 09004KT 10SM CLR 21/19 A2990 990 90 1900 090/04 RMK AO2 T02060189
04850KAOH AOH20160728232510807/28/16 23:25:31  5-MIN KAOH 290425Z AUTO 10003KT 10SM CLR 21/19 A2991 990 87 2000 110/03 RMK AO2 T02110189
04850KAOH AOH20160728233010807/28/16 23:30:31  5-MIN KAOH 290430Z AUTO 00000KT 10SM CLR 21/19 A2991 980 90 1900 000/00 RMK AO2 T02060189
04850KAOH AOH20160728233510807/28/16 23:35:31  5-MIN KAOH 290435Z AUTO 08003KT 10SM CLR 21/19 A2991 990 93 1900 090/03 RMK AO2 T02060194
04850KAOH AOH20160728234010807/28/16 23:40:31  5-MIN KAOH 290440Z AUTO 09003KT 10SM CLR 21/19 A2991 990 90 2000 100/03 RMK AO2 T02110194
04850KAOH AOH20160728234510807/28/16 23:45:31  5-MIN KAOH 290445Z AUTO 00000KT 10SM CLR 21/19 A2991 990 87 2000 000/00 RMK AO2 T02110189
04850KAOH AOH20160728235012507/28/16 23:50:31  5-MIN KAOH 290450Z AUTO 00000KT 10SM CLR 21/19 A2991 990 87 2000 000/00 RMK AO2 SLP120 T02110189 403000194
04850KAOH AOH20160728235510807/28/16 23:55:31  5-MIN KAOH 290455Z AUTO 00000KT 10SM CLR 21/19 A2991 980 87 2000 000/00 RMK AO2 T02110189
04850KAOH AOH20160729000010807/29/16 00:00:31  5-MIN KAOH 290500Z AUTO 00000KT 10SM CLR 21/19 A2992 980 90 1900 000/00 RMK AO2 T02060189
04850KAOH AOH20160729000510807/29/16 00:05:31  5-MIN KAOH 290505Z AUTO 00000KT 10SM CLR 21/19 A2992 980 90 1900 000/00 RMK AO2 T02060189
04850KAOH AOH20160729001010807/29/16 00:10:31  5-MIN KAOH 290510Z AUTO 00000KT 10SM CLR 20/18 A2992 980 90 1800 000/00 RMK AO2 T02000183
04850KAOH AOH20160729001510807/29/16 00:15:31  5-MIN KAOH 290515Z AUTO 00000KT 10SM CLR 19/18 A2992 980 93 1800 000/00 RMK AO2 T01940183
04850KAOH AOH20160729002010807/29/16 00:20:31  5-MIN KAOH 290520Z AUTO 00000KT 10SM CLR 19/18 A2992 980 93 1800 000/00 RMK AO2 T01940183
04850KAOH AOH20160729002510807/29/16 00:25:31  5-MIN KAOH 290525Z AUTO 00000KT 10SM CLR 20/19 A2992 980 93 1800 000/00 RMK AO2 T02000189
04850KAOH AOH20160729003011107/29/16 00:30:31  5-MIN KAOH 290530Z AUTO 00000KT 10SM FEW065 20/19 A2992 970 93 1800 000/00 RMK AO2 T02000189
04850KAOH AOH20160729003511107/29/16 00:35:31  5-MIN KAOH 290535Z AUTO 00000KT 10SM SCT065 20/19 A2992 970 93 1800 000/00 RMK AO2 T02000189
04850KAOH AOH20160729004011107/29/16 00:40:31  5-MIN KAOH 290540Z AUTO 00000KT 10SM FEW065 20/19 A2992 970 93 1800 000/00 RMK AO2 T02000189
04850KAOH AOH20160729004511107/29/16 00:45:31  5-MIN KAOH 290545Z AUTO 00000KT 10SM FEW065 20/19 A2992 980 93 1800 000/00 RMK AO2 T02000189
04850KAOH AOH20160729005013607/29/16 00:50:31  5-MIN KAOH 290550Z AUTO 00000KT 10SM FEW065 20/19 A2992 980 93 1800 000/00 RMK AO2 SLP124 T02000189 10272 20194 53009
04850KAOH AOH20160729005511107/29/16 00:55:31  5-MIN KAOH 290555Z AUTO 00000KT 10SM FEW065 21/19 A2992 980 90 1900 000/00 RMK AO2 T02060189
04850KAOH AOH20160729010011107/29/16 01:00:31  5-MIN KAOH 290600Z AUTO 00000KT 10SM FEW065 21/19 A2992 980 90 1900 000/00 RMK AO2 T02060189
04850KAOH AOH20160729010510807/29/16 01:05:31  5-MIN KAOH 290605Z AUTO 00000KT 10SM CLR 21/19 A2992 980 90 1900 000/00 RMK AO2 T02060189
04850KAOH AOH20160729011010807/29/16 01:10:31  5-MIN KAOH 290610Z AUTO 00000KT 10SM CLR 20/18 A2992 980 90 1800 000/00 RMK AO2 T02000183
04850KAOH AOH20160729011510807/29/16 01:15:31  5-MIN KAOH 290615Z AUTO 00000KT 10SM CLR 20/18 A2992 980 90 1800 000/00 RMK AO2 T02000183
04850KAOH AOH20160729012010807/29/16 01:20:31  5-MIN KAOH 290620Z AUTO 11003KT 10SM CLR 20/18 A2992 980 90 1800 120/03 RMK AO2 T02000183
04850KAOH AOH20160729012510807/29/16 01:25:31  5-MIN KAOH 290625Z AUTO 13004KT 10SM CLR 19/18 A2992 980 93 1800 140/04 RMK AO2 T01940183
04850KAOH AOH20160729013010807/29/16 01:30:31  5-MIN KAOH 290630Z AUTO 14004KT 10SM CLR 19/18 A2992 980 93 1800 150/04 RMK AO2 T01940183
04850KAOH AOH20160729013510807/29/16 01:35:31  5-MIN KAOH 290635Z AUTO 00000KT 10SM CLR 19/18 A2991 980 93 1800 000/00 RMK AO2 T01940183
04850KAOH AOH20160729014010807/29/16 01:40:31  5-MIN KAOH 290640Z AUTO 03003KT 10SM CLR 19/18 A2992 980 93 1800 030/03 RMK AO2 T01940183
04850KAOH AOH20160729014510707/29/16 01:45:31  5-MIN KAOH 290645Z AUTO 02006KT 9SM CLR 19/18 A2992 980 97 1700 030/06 RMK AO2 T01890183
04850KAOH AOH20160729015011407/29/16 01:50:31  5-MIN KAOH 290650Z AUTO 00000KT 9SM CLR 19/18 A2992 980 97 1700 000/00 RMK AO2 SLP123 T01890183
04850KAOH AOH20160729015510707/29/16 01:55:31  5-MIN KAOH 290655Z AUTO 00000KT 9SM CLR 19/18 A2992 980 97 1700 000/00 RMK AO2 T01890183
04850KAOH AOH20160729020010807/29/16 02:00:31  5-MIN KAOH 290700Z AUTO 00000KT 10SM CLR 19/19 A2991 980 97 1800 000/00 RMK AO2 T01940189
04850KAOH AOH20160729020510807/29/16 02:05:31  5-MIN KAOH 290705Z AUTO 08003KT 10SM CLR 19/18 A2991 980 97 1700 080/03 RMK AO2 T01890183
04850KAOH AOH20160729021010707/29/16 02:10:31  5-MIN KAOH 290710Z AUTO 07003KT 9SM CLR 19/18 A2991 990 97 1700 080/03 RMK AO2 T01890183
04850KAOH AOH20160729021510707/29/16 02:15:31  5-MIN KAOH 290715Z AUTO 07003KT 8SM CLR 19/18 A2991 990 97 1700 080/03 RMK AO2 T01890183
04850KAOH AOH20160729022010707/29/16 02:20:31  5-MIN KAOH 290720Z AUTO 08003KT 8SM CLR 19/18 A2991 980 97 1700 090/03 RMK AO2 T01890183
04850KAOH AOH20160729022510807/29/16 02:25:31  5-MIN KAOH 290725Z AUTO 03003KT 8SM CLR 18/18 A2992 980 100 1600 040/03 RMK AO2 T01830183
04850KAOH AOH20160729023010707/29/16 02:30:31  5-MIN KAOH 290730Z AUTO 04005KT 8SM CLR 19/18 A2992 980 97 1700 050/05 RMK AO2 T01890183
04850KAOH AOH20160729023510707/29/16 02:35:31  5-MIN KAOH 290735Z AUTO 04006KT 9SM CLR 19/18 A2991 980 97 1700 050/06 RMK AO2 T01890183
04850KAOH AOH20160729024010807/29/16 02:40:31  5-MIN KAOH 290740Z AUTO 04005KT 10SM CLR 19/18 A2991 990 93 1800 040/05 RMK AO2 T01940183
04850KAOH AOH20160729024510807/29/16 02:45:31  5-MIN KAOH 290745Z AUTO 04006KT 10SM CLR 19/18 A2991 980 97 1700 050/06 RMK AO2 T01890183
04850KAOH AOH20160729025011507/29/16 02:50:31  5-MIN KAOH 290750Z AUTO 04005KT 10SM CLR 19/18 A2991 980 93 1800 050/05 RMK AO2 SLP121 T01940183
04850KAOH AOH20160729025510807/29/16 02:55:31  5-MIN KAOH 290755Z AUTO 04005KT 10SM CLR 19/19 A2991 980 97 1800 050/05 RMK AO2 T01940189
04850KAOH AOH20160729030010807/29/16 03:00:31  5-MIN KAOH 290800Z AUTO 04005KT 10SM CLR 19/18 A2991 990 93 1800 050/05 RMK AO2 T01940183
04850KAOH AOH20160729030510807/29/16 03:05:31  5-MIN KAOH 290805Z AUTO 05004KT 10SM CLR 19/18 A2991 990 93 1800 060/04 RMK AO2 T01940183
04850KAOH AOH20160729031010807/29/16 03:10:31  5-MIN KAOH 290810Z AUTO 05004KT 10SM CLR 19/18 A2991 980 93 1800 060/04 RMK AO2 T01940183
04850KAOH AOH20160729031510807/29/16 03:15:31  5-MIN KAOH 290815Z AUTO 13004KT 10SM CLR 19/18 A2992 980 93 1800 140/04 RMK AO2 T01940183
04850KAOH AOH20160729032010707/29/16 03:20:31  5-MIN KAOH 290820Z AUTO 11004KT 9SM CLR 19/18 A2991 980 97 1700 120/04 RMK AO2 T01890183
04850KAOH AOH20160729032510707/29/16 03:25:31  5-MIN KAOH 290825Z AUTO 09004KT 9SM CLR 19/18 A2991 980 97 1700 100/04 RMK AO2 T01890183
04850KAOH AOH20160729033010707/29/16 03:30:31  5-MIN KAOH 290830Z AUTO 09004KT 9SM CLR 19/18 A2991 980 97 1700 100/04 RMK AO2 T01890183
04850KAOH AOH20160729033510707/29/16 03:35:31  5-MIN KAOH 290835Z AUTO 10004KT 9SM CLR 19/18 A2992 980 97 1700 100/04 RMK AO2 T01890183
04850KAOH AOH20160729034010807/29/16 03:40:31  5-MIN KAOH 290840Z AUTO 00000KT 10SM CLR 19/18 A2992 980 97 1700 000/00 RMK AO2 T01890183
04850KAOH AOH20160729034510807/29/16 03:45:31  5-MIN KAOH 290845Z AUTO 00000KT 10SM CLR 19/18 A2991 980 93 1800 000/00 RMK AO2 T01940183
04850KAOH AOH20160729035012107/29/16 03:50:31  5-MIN KAOH 290850Z AUTO 06003KT 10SM CLR 19/18 A2992 980 97 1700 070/03 RMK AO2 SLP122 T01890183 53001
04850KAOH AOH20160729035510807/29/16 03:55:31  5-MIN KAOH 290855Z AUTO 00000KT 10SM CLR 19/18 A2992 980 93 1700 000/00 RMK AO2 T01890178
04850KAOH AOH20160729040010707/29/16 04:00:31  5-MIN KAOH 290900Z AUTO 09003KT 9SM CLR 18/18 A2992 980 96 1600 100/03 RMK AO2 T01830178
04850KAOH AOH20160729040510707/29/16 04:05:31  5-MIN KAOH 290905Z AUTO 07004KT 9SM CLR 18/18 A2992 980 96 1600 080/04 RMK AO2 T01830178
04850KAOH AOH20160729041010707/29/16 04:10:31  5-MIN KAOH 290910Z AUTO 08004KT 9SM CLR 18/18 A2992 980 96 1600 080/04 RMK AO2 T01830178
04850KAOH AOH20160729041510707/29/16 04:15:31  5-MIN KAOH 290915Z AUTO 08003KT 9SM CLR 18/18 A2992 980 96 1600 090/03 RMK AO2 T01830178
04850KAOH AOH20160729042010707/29/16 04:20:31  5-MIN KAOH 290920Z AUTO 09003KT 8SM CLR 18/18 A2992 980 96 1600 100/03 RMK AO2 T01830178
04850KAOH AOH20160729042510707/29/16 04:25:31  5-MIN KAOH 290925Z AUTO 00000KT 8SM CLR 18/18 A2992 980 96 1600 000/00 RMK AO2 T01830178
04850KAOH AOH20160729043010707/29/16 04:30:31  5-MIN KAOH 290930Z AUTO 00000KT 9SM CLR 19/18 A2992 980 93 1700 000/00 RMK AO2 T01890178
04850KAOH AOH20160729043510807/29/16 04:35:31  5-MIN KAOH 290935Z AUTO 11003KT 10SM CLR 19/18 A2992 980 93 1700 120/03 RMK AO2 T01890178
04850KAOH AOH20160729044010807/29/16 04:40:31  5-MIN KAOH 290940Z AUTO 11004KT 10SM CLR 19/18 A2992 980 93 1800 120/04 RMK AO2 T01940183
04850KAOH AOH20160729044510807/29/16 04:45:31  5-MIN KAOH 290945Z AUTO 13004KT 10SM CLR 19/18 A2992 980 93 1800 130/04 RMK AO2 T01940183
04850KAOH AOH20160729045011507/29/16 04:50:31  5-MIN KAOH 290950Z AUTO 14004KT 10SM CLR 19/18 A2992 980 93 1700 140/04 RMK AO2 SLP123 T01890178
04850KAOH AOH20160729045510807/29/16 04:55:31  5-MIN KAOH 290955Z AUTO 12004KT 10SM CLR 19/18 A2992 980 93 1700 130/04 RMK AO2 T01890178
04850KAOH AOH20160729050010707/29/16 05:00:31  5-MIN KAOH 291000Z AUTO 13004KT 9SM CLR 19/18 A2992 980 93 1700 140/04 RMK AO2 T01890178
04850KAOH AOH20160729050510707/29/16 05:05:31  5-MIN KAOH 291005Z AUTO 12004KT 9SM CLR 19/18 A2992 980 97 1700 130/04 RMK AO2 T01890183
04850KAOH AOH20160729051010707/29/16 05:10:31  5-MIN KAOH 291010Z AUTO 13003KT 9SM CLR 19/18 A2992 980 97 1700 130/03 RMK AO2 T01890183
04850KAOH AOH20160729051510707/29/16 05:15:31  5-MIN KAOH 291015Z AUTO 13004KT 9SM CLR 19/18 A2992 970 97 1700 140/04 RMK AO2 T01890183
04850KAOH AOH20160729052010707/29/16 05:20:31  5-MIN KAOH 291020Z AUTO 12003KT 9SM CLR 19/18 A2992 980 93 1700 130/03 RMK AO2 T01890178
04850KAOH AOH20160729052510707/29/16 05:25:31  5-MIN KAOH 291025Z AUTO 13004KT 9SM CLR 18/18 A2992 980 96 1600 140/04 RMK AO2 T01830178
04850KAOH AOH20160729053010707/29/16 05:30:31  5-MIN KAOH 291030Z AUTO 12003KT 8SM CLR 19/18 A2992 980 93 1700 120/03 RMK AO2 T01890178
04850KAOH AOH20160729053511007/29/16 05:35:31  5-MIN KAOH 291035Z AUTO 00000KT 6SM BR CLR 18/18 A2992 980 96 1600 000/00 RMK AO2 T01830178
04850KAOH AOH20160729054011007/29/16 05:40:31  5-MIN KAOH 291040Z AUTO 00000KT 5SM BR CLR 18/18 A2992 970 96 1600 000/00 RMK AO2 T01830178
04850KAOH AOH20160729054511007/29/16 05:45:31  5-MIN KAOH 291045Z AUTO 13004KT 5SM BR CLR 18/17 A2992 970 96 1600 140/04 RMK AO2 T01780172
04850KAOH AOH20160729055011407/29/16 05:50:31  5-MIN KAOH 291050Z AUTO 12005KT 7SM CLR 19/18 A2993 970 93 1800 130/05 RMK AO2 SLP125 T01940183
04850KAOH AOH20160729055510707/29/16 05:55:31  5-MIN KAOH 291055Z AUTO 12005KT 8SM CLR 19/18 A2993 970 93 1800 130/05 RMK AO2 T01940183
04850KAOH AOH20160729060010707/29/16 06:00:31  5-MIN KAOH 291100Z AUTO 12004KT 7SM CLR 20/18 A2993 970 90 1800 130/04 RMK AO2 T02000183
04850KAOH AOH20160729060510707/29/16 06:05:31  5-MIN KAOH 291105Z AUTO 12003KT 7SM CLR 20/18 A2993 970 90 1800 120/03 RMK AO2 T02000183
04850KAOH AOH20160729061011007/29/16 06:10:31  5-MIN KAOH 291110Z AUTO 05003KT 6SM BR CLR 19/18 A2993 970 93 1700 060/03 RMK AO2 T01940183
04850KAOH AOH20160729061511007/29/16 06:15:31  5-MIN KAOH 291115Z AUTO 06003KT 5SM BR CLR 19/18 A2993 970 97 1700 060/03 RMK AO2 T01890183
04850KAOH AOH20160729062011007/29/16 06:20:31  5-MIN KAOH 291120Z AUTO 07003KT 5SM BR CLR 19/18 A2993 970 93 1800 080/03 RMK AO2 T01940183
04850KAOH AOH20160729062511007/29/16 06:25:31  5-MIN KAOH 291125Z AUTO 07003KT 5SM BR CLR 19/19 A2993 970 97 1700 080/03 RMK AO2 T01940189
04850KAOH AOH20160729063011007/29/16 06:30:31  5-MIN KAOH 291130Z AUTO 07004KT 5SM BR CLR 20/19 A2993 960 93 1800 080/04 RMK AO2 T02000189
04850KAOH AOH20160729063511007/29/16 06:35:31  5-MIN KAOH 291135Z AUTO 07003KT 5SM BR CLR 20/19 A2994 960 93 1800 080/03 RMK AO2 T02000189
04850KAOH AOH20160729064011007/29/16 06:40:31  5-MIN KAOH 291140Z AUTO 09003KT 5SM BR CLR 20/19 A2994 960 93 1800 090/03 RMK AO2 T02000189
04850KAOH AOH20160729064511307/29/16 06:45:31  5-MIN KAOH 291145Z AUTO 06004KT 5SM BR FEW075 20/19 A2994 960 97 1800 060/04 RMK AO2 T02000194
04850KAOH AOH20160729065013807/29/16 06:50:31  5-MIN KAOH 291150Z AUTO 08003KT 5SM BR SCT080 21/19 A2994 950 93 1900 090/03 RMK AO2 SLP132 T02060194 10206 20178 55001
04850KAOH AOH20160729065511307/29/16 06:55:31  5-MIN KAOH 291155Z AUTO 05003KT 5SM BR SCT080 21/19 A2995 950 93 1900 060/03 RMK AO2 T02060194
04850KAOH AOH20160729070011307/29/16 07:00:31  5-MIN KAOH 291200Z AUTO 06003KT 6SM BR SCT080 21/19 A2995 950 93 1900 060/03 RMK AO2 T02060194
04850KAOH AOH20160729070511307/29/16 07:05:31  5-MIN KAOH 291205Z AUTO 07003KT 6SM BR BKN080 21/19 A2995 950 90 1900 070/03 RMK AO2 T02110194
04850KAOH AOH20160729071011307/29/16 07:10:31  5-MIN KAOH 291210Z AUTO 07003KT 6SM BR BKN080 22/20 A2995 950 90 2000 070/03 RMK AO2 T02170200
04850KAOH AOH20160729071511307/29/16 07:15:31  5-MIN KAOH 291215Z AUTO 07003KT 6SM BR BKN080 22/20 A2995 950 90 2000 080/03 RMK AO2 T02170200
04850KAOH AOH20160729072011007/29/16 07:20:31  5-MIN KAOH 291220Z AUTO 08003KT 7SM BKN080 22/19 A2995 950 87 2000 080/03 RMK AO2 T02170194
04850KAOH AOH20160729072511007/29/16 07:25:31  5-MIN KAOH 291225Z AUTO 00000KT 7SM SCT080 22/20 A2995 950 90 2000 000/00 RMK AO2 T02170200
04850KAOH AOH20160729073011007/29/16 07:30:31  5-MIN KAOH 291230Z AUTO 00000KT 7SM SCT080 22/20 A2995 950 87 2000 000/00 RMK AO2 T02220200
04850KAOH AOH20160729073511007/29/16 07:35:31  5-MIN KAOH 291235Z AUTO 07003KT 7SM FEW080 23/21 A2995 950 87 2100 080/03 RMK AO2 T02280206
04850KAOH AOH20160729074011007/29/16 07:40:31  5-MIN KAOH 291240Z AUTO 00000KT 8SM FEW080 23/21 A2995 950 87 2100 000/00 RMK AO2 T02280206
04850KAOH AOH20160729074510707/29/16 07:45:31  5-MIN KAOH 291245Z AUTO 00000KT 8SM CLR 23/21 A2995 950 87 2100 000/00 RMK AO2 T02280206
04850KAOH AOH20160729075011407/29/16 07:50:31  5-MIN KAOH 291250Z AUTO 10003KT 8SM CLR 23/21 A2995 950 87 2100 100/03 RMK AO2 SLP134 T02280206
04850KAOH AOH20160729075510707/29/16 07:55:31  5-MIN KAOH 291255Z AUTO 11003KT 9SM CLR 23/21 A2995 950 87 2100 120/03 RMK AO2 T02280206
04850KAOH AOH20160729080010807/29/16 08:00:31  5-MIN KAOH 291300Z AUTO 10003KT 10SM CLR 23/21 A2995 950 84 2200 110/03 RMK AO2 T02330206
04850KAOH AOH20160729080510807/29/16 08:05:31  5-MIN KAOH 291305Z AUTO 09003KT 10SM CLR 24/21 A2995 950 84 2200 100/03 RMK AO2 T02390211
04850KAOH AOH20160729081010807/29/16 08:10:31  5-MIN KAOH 291310Z AUTO 00000KT 10SM CLR 24/21 A2995 950 84 2200 000/00 RMK AO2 T02390211
04850KAOH AOH20160729081511107/29/16 08:15:31  5-MIN KAOH 291315Z AUTO 04003KT 10SM SCT065 24/21 A2995 950 84 2200 050/03 RMK AO2 T02390211
04850KAOH AOH20160729082011107/29/16 08:20:31  5-MIN KAOH 291320Z AUTO 00000KT 10SM BKN065 24/21 A2995 950 84 2200 000/00 RMK AO2 T02390211
04850KAOH AOH20160729082511107/29/16 08:25:31  5-MIN KAOH 291325Z AUTO 03003KT 10SM BKN065 24/21 A2995 950 84 2200 040/03 RMK AO2 T02390211
04850KAOH AOH20160729083011107/29/16 08:30:31  5-MIN KAOH 291330Z AUTO VRB03KT 10SM SCT065 24/21 A2994 960 81 2300 VRB/03 RMK AO2 T02440211
04850KAOH AOH20160729083511107/29/16 08:35:31  5-MIN KAOH 291335Z AUTO 00000KT 10SM SCT065 24/22 A2994 960 84 2300 000/00 RMK AO2 T02440217
04850KAOH AOH20160729084011107/29/16 08:40:31  5-MIN KAOH 291340Z AUTO VRB03KT 10SM SCT065 25/21 A2994 950 79 2400 VRB/03 RMK AO2 T02500211
04850KAOH AOH20160729084511107/29/16 08:45:31  5-MIN KAOH 291345Z AUTO 08003KT 10SM FEW065 25/21 A2994 960 79 2400 080/03 RMK AO2 T02500211
04850KAOH AOH20160729085011507/29/16 08:50:31  5-MIN KAOH 291350Z AUTO VRB03KT 10SM CLR 26/21 A2994 960 76 2400 VRB/03 RMK AO2 SLP132 T02560211
04850KAOH AOH20160729085510807/29/16 08:55:31  5-MIN KAOH 291355Z AUTO 00000KT 10SM CLR 26/21 A2994 960 76 2400 000/00 RMK AO2 T02560211
04850KAOH AOH20160729090010807/29/16 09:00:31  5-MIN KAOH 291400Z AUTO VRB03KT 10SM CLR 26/22 A2994 960 76 2500 VRB/03 RMK AO2 T02610217
04850KAOH AOH20160729090510807/29/16 09:05:31  5-MIN KAOH 291405Z AUTO 15003KT 10SM CLR 26/21 A2994 960 73 2500 150/03 RMK AO2 T02610211
04850KAOH AOH20160729091010807/29/16 09:10:31  5-MIN KAOH 291410Z AUTO 13004KT 10SM CLR 26/22 A2994 960 76 2500 140/04 RMK AO2 T02610217
04850KAOH AOH20160729091510807/29/16 09:15:31  5-MIN KAOH 291415Z AUTO 13003KT 10SM CLR 27/21 A2994 960 71 2600 140/03 RMK AO2 T02670211
04850KAOH AOH20160729092010807/29/16 09:20:31  5-MIN KAOH 291420Z AUTO 00000KT 10SM CLR 27/22 A2994 960 73 2600 000/00 RMK AO2 T02670217
04850KAOH AOH20160729092510807/29/16 09:25:31  5-MIN KAOH 291425Z AUTO VRB04KT 10SM CLR 27/22 A2994 960 71 2600 VRB/04 RMK AO2 T02720217
04850KAOH AOH20160729093010807/29/16 09:30:31  5-MIN KAOH 291430Z AUTO 17005KT 10SM CLR 27/22 A2994 960 73 2600 170/05 RMK AO2 T02670217
04850KAOH AOH20160729093510807/29/16 09:35:31  5-MIN KAOH 291435Z AUTO 00000KT 10SM CLR 26/21 A2994 960 73 2500 000/00 RMK AO2 T02610211
04850KAOH AOH20160729094010807/29/16 09:40:31  5-MIN KAOH 291440Z AUTO 17004KT 10SM CLR 27/22 A2994 960 71 2600 170/04 RMK AO2 T02720217
04850KAOH AOH20160729094510807/29/16 09:45:31  5-MIN KAOH 291445Z AUTO 00000KT 10SM CLR 27/22 A2994 960 73 2600 000/00 RMK AO2 T02670217
04850KAOH AOH20160729095012107/29/16 09:50:31  5-MIN KAOH 291450Z AUTO 19004KT 10SM CLR 27/22 A2994 960 71 2600 190/04 RMK AO2 SLP130 T02720217 53010
04850KAOH AOH20160729095510807/29/16 09:55:31  5-MIN KAOH 291455Z AUTO 15005KT 10SM CLR 28/22 A2994 960 69 2700 150/05 RMK AO2 T02780217
04850KAOH AOH20160729100010807/29/16 10:00:31  5-MIN KAOH 291500Z AUTO 17005KT 10SM CLR 27/22 A2994 960 71 2600 180/05 RMK AO2 T02720217
04850KAOH AOH20160729100510807/29/16 10:05:31  5-MIN KAOH 291505Z AUTO 17005KT 10SM CLR 28/21 A2994 960 66 2700 170/05 RMK AO2 T02780211
04850KAOH AOH20160729101010807/29/16 10:10:31  5-MIN KAOH 291510Z AUTO 17004KT 10SM CLR 28/22 A2994 960 69 2700 170/04 RMK AO2 T02780217
04850KAOH AOH20160729101510807/29/16 10:15:31  5-MIN KAOH 291515Z AUTO 15003KT 10SM CLR 28/21 A2994 960 64 2700 150/03 RMK AO2 T02830211
04850KAOH AOH20160729102010807/29/16 10:20:31  5-MIN KAOH 291520Z AUTO 14004KT 10SM CLR 28/22 A2994 960 66 2700 150/04 RMK AO2 T02830217
04850KAOH AOH20160729102510807/29/16 10:25:31  5-MIN KAOH 291525Z AUTO VRB04KT 10SM CLR 28/21 A2994 960 62 2700 VRB/04 RMK AO2 T02830206
04850KAOH AOH20160729103010807/29/16 10:30:31  5-MIN KAOH 291530Z AUTO 17006KT 10SM CLR 28/21 A2994 960 62 2700 170/06 RMK AO2 T02830206
04850KAOH AOH20160729103510807/29/16 10:35:31  5-MIN KAOH 291535Z AUTO 00000KT 10SM CLR 28/20 A2994 960 60 2700 000/00 RMK AO2 T02830200
04850KAOH AOH20160729104010807/29/16 10:40:31  5-MIN KAOH 291540Z AUTO VRB03KT 10SM CLR 29/21 A2994 960 60 2800 VRB/03 RMK AO2 T02890206
04850KAOH AOH20160729104510807/29/16 10:45:31  5-MIN KAOH 291545Z AUTO 16003KT 10SM CLR 29/21 A2994 960 58 2900 160/03 RMK AO2 T02940206
04850KAOH AOH20160729105011507/29/16 10:50:31  5-MIN KAOH 291550Z AUTO VRB03KT 10SM CLR 29/20 A2994 960 58 2800 VRB/03 RMK AO2 SLP131 T02890200
04850KAOH AOH20160729105509807/29/16 10:55:31  5-MIN KAOH 291555Z AUTO 10SM CLR 29/20 A2994 960 56 2900 M /M RMK AO2 T02940200
04850KAOH AOH20160729110010807/29/16 11:00:31  5-MIN KAOH 291600Z AUTO 14006KT 10SM CLR 30/19 A2994 960 51 2900 150/06 RMK AO2 T03000189
04850KAOH AOH20160729110510807/29/16 11:05:31  5-MIN KAOH 291605Z AUTO 15004KT 10SM CLR 29/19 A2994 950 56 2800 160/04 RMK AO2 T02890194
04850KAOH AOH20160729111012007/29/16 11:10:31  5-MIN KAOH 291610Z AUTO 00000KT 10SM CLR 29/19 A2994 960 56 2800 000/00 RMK AO2 LTG DSNT SE T02890194
04850KAOH AOH20160729111512307/29/16 11:15:31  5-MIN KAOH 291615Z AUTO VRB04KT 10SM FEW042 30/21 A2995 950 56 2900 VRB/04 RMK AO2 LTG DSNT SE T03000206
04850KAOH AOH20160729112012307/29/16 11:20:31  5-MIN KAOH 291620Z AUTO VRB04KT 10SM FEW042 30/19 A2995 950 52 2900 VRB/04 RMK AO2 LTG DSNT SE T03000194
04850KAOH AOH20160729112512207/29/16 11:25:31  5-MIN KAOH 291625Z AUTO 15006KT 10SM FEW042 31/19 A2994 960 49 3000 150/06 RMK AO2 LTG DSNT S T03060189
04850KAOH AOH20160729113012207/29/16 11:30:31  5-MIN KAOH 291630Z AUTO VRB03KT 10SM FEW042 30/18 A2994 960 49 2900 VRB/03 RMK AO2 LTG DSNT S T03000183
04850KAOH AOH20160729113512907/29/16 11:35:31  5-MIN KAOH 291635Z AUTO 14003KT 10SM FEW042 FEW060 31/19 A2994 960 49 3000 150/03 RMK AO2 LTG DSNT S T03060189
04850KAOH AOH20160729114011807/29/16 11:40:31  5-MIN KAOH 291640Z AUTO VRB04KT 10SM SCT044 SCT060 30/19 A2994 960 51 2900 VRB/04 RMK AO2 T03000189
04850KAOH AOH20160729114512807/29/16 11:45:31  5-MIN KAOH 291645Z AUTO 21005KT 10SM VCTS SCT046 29/19 A2994 960 52 2900 210/05 RMK AO2 LTG DSNT SW T02940189
04850KAOH AOH20160729115012407/29/16 11:50:31  5-MIN KAOH 291650Z AUTO 23003KT 10SM VCTS SCT048 29/18 A2994 960 52 2800 240/03 RMK AO2 LTG DSNT S AND SW
04850KAOH AOH20160729115514107/29/16 11:55:31  5-MIN KAOH 291655Z AUTO 00000KT 10SM VCTS SCT048 SCT070 29/18 A2993 970 52 2800 000/00 RMK AO2 LTG DSNT S AND SW T02890183
04850KAOH AOH20160729120012907/29/16 12:00:31  5-MIN KAOH 291700Z AUTO 17003KT 10SM SCT048 SCT110 29/18 A2993 960 50 2900 170/03 RMK AO2 LTG DSNT S T02940183
04850KAOH AOH20160729120512507/29/16 12:05:31  5-MIN KAOH 291705Z AUTO 00000KT 10SM SCT048 SCT065 SCT110 29/18 A2994 960 49 2900 000/00 RMK AO2 T02940178
04850KAOH AOH20160729121012507/29/16 12:10:31  5-MIN KAOH 291710Z AUTO VRB04KT 10SM SCT048 BKN065 BKN080 29/19 A2993 960 54 2800 VRB/04 RMK AO2 T02890189
04850KAOH AOH20160729121513707/29/16 12:15:31  5-MIN KAOH 291715Z AUTO 34008KT 10SM BKN048 BKN070 BKN080 28/20 A2993 960 62 2700 350/08 RMK AO2 LTG DSNT SE T02780200
04850KAOH AOH20160729122012907/29/16 12:20:31  5-MIN KAOH 291720Z AUTO 01005KT 10SM BKN048 27/20 A2993 970 64 2600 020/05 RMK AO2 LTG DSNT SE AND S T02720200
04850KAOH AOH20160729122514307/29/16 12:25:31  5-MIN KAOH 291725Z AUTO 01006KT 10SM BKN048 BKN070 BKN085 27/21 A2993 970 66 2600 020/06 RMK AO2 LTG DSNT SE AND S T02720206
04850KAOH AOH20160729123014307/29/16 12:30:31  5-MIN KAOH 291730Z AUTO 01005KT 10SM SCT048 BKN055 BKN070 27/21 A2993 970 66 2600 010/05 RMK AO2 LTG DSNT SE AND S T02720206
04850KAOH AOH20160729123513207/29/16 12:35:31  5-MIN KAOH 291735Z AUTO 01010KT 10SM SCT048 SCT070 28/21 A2992 970 66 2700 020/10 RMK AO2 LTG DSNT NE-S T02780211
04850KAOH AOH20160729124014307/29/16 12:40:31  5-MIN KAOH 291740Z AUTO 01010KT 10SM SCT048 SCT060 27/21 A2993 970 69 2600 020/10 RMK AO2 LTG DSNT NE AND S AND NW T02720211
04850KAOH AOH20160729124513307/29/16 12:45:31  5-MIN KAOH 291745Z AUTO 01009KT 10SM FEW048 SCT055 27/21 A2993 970 69 2600 020/09 RMK AO2 LTG DSNT ALQDS T02670206
04850KAOH AOH20160729125016407/29/16 12:50:31  5-MIN KAOH 291750Z AUTO 03006KT 10SM BKN049 BKN070 BKN090 27/21 A2992 980 71 2600 030/06 RMK AO2 LTG DSNT S-NW SLP125 T02670211 10306 20206 58003
04850KAOH AOH20160729125514407/29/16 12:55:31  5-MIN KAOH 291755Z AUTO 02007KT 10SM FEW049 SCT060 BKN075 27/21 A2992 980 71 2600 030/07 RMK AO2 LTG DSNT SE AND SW T02670211
04850KAOH AOH20160729130016207/29/16 13:00:31  5-MIN KAOH 291800Z AUTO 01008KT 10SM -RA FEW049 BKN065 BKN075 26/22 A2992 980 76 2500 020/08 RMK AO2 LTG DSNT SE AND SW RAB1757 P0000 T02610217
04850KAOH AOH20160729130515407/29/16 13:05:31  5-MIN KAOH 291805Z AUTO 03009KT 9SM -RA FEW049 OVC070 26/21 A2992 980 76 2500 030/09 RMK AO2 LTG DSNT SE AND SW RAB1757 P0001 T02560211
04850KAOH AOH20160729131015407/29/16 13:10:31  5-MIN KAOH 291810Z AUTO 04005KT 10SM -RA FEW049 OVC070 26/22 A2992 980 79 2500 040/05 RMK AO2 LTG DSNT E AND SE RAB1757 P0001 T02560217
04850KAOH AOH20160729131515407/29/16 13:15:31  5-MIN KAOH 291815Z AUTO 07004KT 10SM -RA FEW049 OVC070 26/22 A2992 980 79 2500 080/04 RMK AO2 LTG DSNT E AND SE RAB1757 P0001 T02560217
04850KAOH AOH20160729132014607/29/16 13:20:31  5-MIN KAOH 291820Z AUTO 14007KT 10SM FEW047 OVC070 26/22 A2992 970 79 2500 140/07 RMK AO2 LTG DSNT E RAB1757E16 P0001 T02610222
04850KAOH AOH20160729132515307/29/16 13:25:31  5-MIN KAOH 291825Z AUTO 12006KT 10SM SCT042 SCT049 OVC065 26/22 A2993 970 81 2500 120/06 RMK AO2 LTG DSNT E RAB1757E16 P0001 T02560222
04850KAOH AOH20160729133014707/29/16 13:30:31  5-MIN KAOH 291830Z AUTO 10005KT 10SM -RA BKN044 OVC065 26/22 A2993 970 79 2500 110/05 RMK AO2 LTG DSNT E RAB1757 P0001 T02560217
04850KAOH AOH20160729133513607/29/16 13:35:31  5-MIN KAOH 291835Z AUTO 14009KT 10SM -RA BKN044 OVC060 26/22 A2993 970 81 2400 140/09 RMK AO2 RAB1757 P0001 T02560222
04850KAOH AOH20160729134014107/29/16 13:40:31  5-MIN KAOH 291840Z AUTO 15009KT 6SM RA SCT044 BKN055 OVC070 24/22 A2993 970 84 2300 150/09 RMK AO2 RAB1757 P0004 T02440217
04850KAOH AOH20160729134513707/29/16 13:45:31  5-MIN KAOH 291845Z AUTO 16006KT 4SM RA BR SCT044 OVC060 24/22 A2993 970 90 2300 160/06 RMK AO2 RAB1757 P0006 T02390222
04850KAOH AOH20160729135014507/29/16 13:50:31  5-MIN KAOH 291850Z AUTO 15008KT 5SM -RA BR FEW042 OVC060 24/23 A2993 970 93 2300 160/08 RMK AO2 RAB1757 SLP129 P0006 T02390228
04850KAOH AOH20160729135513607/29/16 13:55:31  5-MIN KAOH 291855Z AUTO 15009KT 5SM RA BR FEW045 BKN060 OVC075 24/22 A2993 970 90 2300 160/09 RMK AO2 P0001 T02390222
04850KAOH AOH20160729140013607/29/16 14:00:31  5-MIN KAOH 291900Z AUTO 16007KT 4SM RA BR BKN060 BKN075 OVC090 24/22 A2993 970 90 2300 160/07 RMK AO2 P0002 T02390222
04850KAOH AOH20160729140514707/29/16 14:05:31  5-MIN KAOH 291905Z AUTO 15006KT 4SM RA BR BKN060 BKN075 OVC090 24/22 A2992 970 90 2300 160/06 RMK AO2 LTG DSNT E P0003 T02390222
04850KAOH AOH20160729141014107/29/16 14:10:31  5-MIN KAOH 291910Z AUTO 13005KT 6SM -RA BR BKN065 OVC090 24/23 A2992 980 93 2300 130/05 RMK AO2 LTG DSNT E P0003 T02390228
04850KAOH AOH20160729141514707/29/16 14:15:31  5-MIN KAOH 291915Z AUTO 12005KT 10SM -TSRA BKN065 OVC085 24/23 A2992 980 90 2300 130/05 RMK AO2 LTG DSNT E TSB11 P0003 T02440228
04850KAOH AOH20160729142015407/29/16 14:20:31  5-MIN KAOH 291920Z AUTO 11005KT 10SM -TSRA FEW060 BKN075 OVC090 25/23 A2992 980 87 2400 120/05 RMK AO2 LTG DSNT E TSB11 P0003 T02500228
04850KAOH AOH20160729142515407/29/16 14:25:31  5-MIN KAOH 291925Z AUTO 12006KT 10SM -TSRA BKN075 BKN090 26/22 A2992 980 81 2500 130/06 RMK AO2 LTG DSNT E AND SW TSB11 P0003 T02560222
04850KAOH AOH20160729143016207/29/16 14:30:31  5-MIN KAOH 291930Z AUTO 16005KT 10SM VCTS BKN070 BKN090 25/23 A2992 980 90 2400 170/05 RMK AO2 LTG DSNT E AND SW RAE28 TSB11E29 P0003 T02500233
04850KAOH AOH20160729143515507/29/16 14:35:31  5-MIN KAOH 291935Z AUTO 13005KT 10SM VCTS BKN070 25/23 A2992 980 87 2400 130/05 RMK AO2 LTG DSNT E AND SW RAE28 TSB11E29 P0003 T02500228
04850KAOH AOH20160729144016207/29/16 14:40:31  5-MIN KAOH 291940Z AUTO 14006KT 10SM VCTS SCT070 BKN100 26/22 A2991 980 81 2500 150/06 RMK AO2 LTG DSNT E AND SW RAE28 TSB11E29 P0003 T02560222
04850KAOH AOH20160729144516207/29/16 14:45:31  5-MIN KAOH 291945Z AUTO 14007KT 10SM VCTS SCT075 BKN100 26/22 A2991 990 79 2500 150/07 RMK AO2 LTG DSNT E AND SW RAE28 TSB11E29 P0003 T02610222
04850KAOH AOH20160729145016307/29/16 14:50:31  5-MIN KAOH 291950Z AUTO 12006KT 10SM VCTS SCT075 SCT100 27/22 A2991 990 76 2600 130/06 RMK AO2 LTG DSNT SW RAE28 TSB11E29 SLP120 P0003 T02670222
04850KAOH AOH20160729145512807/29/16 14:55:31  5-MIN KAOH 291955Z AUTO 12003KT 10SM VCTS BKN075 27/22 A2991 990 73 2600 130/03 RMK AO2 LTG DSNT SW T02670217
04850KAOH AOH20160729150014007/29/16 15:00:31  5-MIN KAOH 292000Z AUTO 08007KT 10SM TS BKN075 27/23 A2991 990 76 2700 090/07 RMK AO2 LTG DSNT S AND SW TSB1957 T02720228
04850KAOH AOH20160729150514607/29/16 15:05:31  5-MIN KAOH 292005Z AUTO 06006KT 10SM TS BKN080 27/23 A2991 990 79 2600 070/06 RMK AO2 LTG DSNT N AND S AND SW TSB1957 T02670228
04850KAOH AOH20160729151014607/29/16 15:10:31  5-MIN KAOH 292010Z AUTO 07006KT 10SM TS BKN080 26/23 A2991 990 81 2500 070/06 RMK AO2 LTG DSNT N AND S AND SW TSB1957 T02610228
04850KAOH AOH20160729151514507/29/16 15:15:31  5-MIN KAOH 292015Z AUTO 05006KT 10SM VCTS BKN075 27/23 A2991 990 79 2600 050/06 RMK AO2 LTG DSNT N AND SW TSB1957E12 T02670228
04850KAOH AOH20160729152013907/29/16 15:20:31  5-MIN KAOH 292020Z AUTO 06005KT 10SM VCTS BKN075 27/22 A2991 990 76 2600 070/05 RMK AO2 LTG DSNT SW TSB1957E12 T02670222
04850KAOH AOH20160729152512207/29/16 15:25:31  5-MIN KAOH 292025Z AUTO 07006KT 10SM BKN075 27/22 A2990 990 73 2600 080/06 RMK AO2 TSB1957E12 T02670217
04850KAOH AOH20160729153013407/29/16 15:30:31  5-MIN KAOH 292030Z AUTO 05006KT 10SM BKN075 26/22 A2990 990 76 2500 050/06 RMK AO2 LTG DSNT SW TSB1957E12 T02610217
04850KAOH AOH20160729153513407/29/16 15:35:31  5-MIN KAOH 292035Z AUTO 04005KT 10SM BKN075 26/22 A2991 990 76 2500 050/05 RMK AO2 LTG DSNT SW TSB1957E12 T02610217
04850KAOH AOH20160729154013407/29/16 15:40:31  5-MIN KAOH 292040Z AUTO 03005KT 10SM BKN075 26/22 A2991 990 76 2500 030/05 RMK AO2 LTG DSNT SW TSB1957E12 T02610217
04850KAOH AOH20160729154514107/29/16 15:45:31  5-MIN KAOH 292045Z AUTO 03006KT 10SM BKN075 26/22 A2991 990 79 2500 030/06 RMK AO2 LTG DSNT NE AND SW TSB1957E12 T02610222
04850KAOH AOH20160729155016007/29/16 15:50:31  5-MIN KAOH 292050Z AUTO 01005KT 10SM SCT075 26/23 A2991 990 84 2500 010/05 RMK AO2 LTG DSNT NE AND SW TSB1957E12 SLP120 60011 T02560228 58007
04850KAOH AOH20160729155513007/29/16 15:55:31  5-MIN KAOH 292055Z AUTO VRB04KT 10SM SCT075 25/23 A2991 990 87 2400 VRB/04 RMK AO2 LTG DSNT NE AND SW T02500228
04850KAOH AOH20160729160012307/29/16 16:00:31  5-MIN KAOH 292100Z AUTO 35004KT 10SM FEW075 25/23 A2991 990 87 2400 350/04 RMK AO2 LTG DSNT SW T02500228
04850KAOH AOH20160729160513007/29/16 16:05:31  5-MIN KAOH 292105Z AUTO 33004KT 10SM FEW075 FEW120 25/23 A2991 990 87 2400 330/04 RMK AO2 LTG DSNT SW T02500228
04850KAOH AOH20160729161013707/29/16 16:10:31  5-MIN KAOH 292110Z AUTO 32004KT 10SM FEW100 SCT120 25/23 A2991 990 87 2400 320/04 RMK AO2 LTG DSNT NE AND SW T02500228
04850KAOH AOH20160729161513707/29/16 16:15:31  5-MIN KAOH 292115Z AUTO 29003KT 10SM SCT100 BKN110 24/22 A2991 990 87 2300 300/03 RMK AO2 LTG DSNT NE AND SW T02440222
04850KAOH AOH20160729162014307/29/16 16:20:31  5-MIN KAOH 292120Z AUTO 00000KT 10SM BKN090 BKN110 24/23 A2991 990 90 2300 000/00 RMK AO2 LTG DSNT NE AND SW AND W T02440228
04850KAOH AOH20160729162513607/29/16 16:25:31  5-MIN KAOH 292125Z AUTO 00000KT 10SM BKN090 BKN110 25/23 A2991 990 87 2400 000/00 RMK AO2 LTG DSNT SW AND W T02500228
04850KAOH AOH20160729163014307/29/16 16:30:31  5-MIN KAOH 292130Z AUTO 00000KT 10SM BKN090 OVC110 25/23 A2991 990 87 2400 000/00 RMK AO2 LTG DSNT NE AND SW AND W T02500228
04850KAOH AOH20160729163514307/29/16 16:35:31  5-MIN KAOH 292135Z AUTO 00000KT 10SM BKN090 OVC110 26/23 A2991 990 84 2500 000/00 RMK AO2 LTG DSNT NE AND SW AND W T02560228
04850KAOH AOH20160729164013707/29/16 16:40:31  5-MIN KAOH 292140Z AUTO 00000KT 10SM SCT090 BKN110 26/23 A2991 990 81 2500 000/00 RMK AO2 LTG DSNT NE AND SW T02610228
04850KAOH AOH20160729164511807/29/16 16:45:31  5-MIN KAOH 292145Z AUTO 00000KT 10SM SCT090 BKN110 26/23 A2991 990 81 2500 000/00 RMK AO2 T02610228
04850KAOH AOH20160729165012507/29/16 16:50:31  5-MIN KAOH 292150Z AUTO 00000KT 10SM FEW090 BKN110 26/23 A2991 990 81 2500 000/00 RMK AO2 SLP120 T02610228
04850KAOH AOH20160729165511107/29/16 16:55:31  5-MIN KAOH 292155Z AUTO 00000KT 10SM SCT100 26/23 A2991 990 81 2500 000/00 RMK AO2 T02610228
04850KAOH AOH20160729170011107/29/16 17:00:31  5-MIN KAOH 292200Z AUTO 02003KT 10SM FEW110 25/23 A2991 990 90 2400 020/03 RMK AO2 T02500233
04850KAOH AOH20160729170511107/29/16 17:05:31  5-MIN KAOH 292205Z AUTO 01003KT 10SM FEW110 25/23 A2991 980 90 2400 010/03 RMK AO2 T02500233
04850KAOH AOH20160729171012207/29/16 17:10:31  5-MIN KAOH 292210Z AUTO 03003KT 10SM SCT120 25/23 A2991 990 90 2400 030/03 RMK AO2 LTG DSNT N T02500233
04850KAOH AOH20160729171515807/29/16 17:15:31  5-MIN KAOH 292215Z AUTO 06003KT 10SM -RA FEW042 FEW055 BKN120 26/23 A2991 990 87 2500 060/03 RMK AO2 LTG DSNT N AND W RAB12 P0000 T02560233
04850KAOH AOH20160729172015807/29/16 17:20:31  5-MIN KAOH 292220Z AUTO 09003KT 10SM -RA FEW045 SCT055 BKN120 26/23 A2991 980 87 2500 090/03 RMK AO2 LTG DSNT N AND W RAB12 P0000 T02560233
04850KAOH AOH20160729172515707/29/16 17:25:31  5-MIN KAOH 292225Z AUTO 10004KT 10SM FEW047 FEW055 BKN120 26/23 A2990 990 84 2500 110/04 RMK AO2 LTG DSNT N AND W RAB12E23 P0000 T02610233
04850KAOH AOH20160729173015807/29/16 17:30:31  5-MIN KAOH 292230Z AUTO 11004KT 10SM FEW049 SCT090 BKN110 26/23 A2990 1000 84 2500 120/04 RMK AO2 LTG DSNT N AND W RAB12E23 P0000 T02610233
04850KAOH AOH20160729173515807/29/16 17:35:31  5-MIN KAOH 292235Z AUTO 12005KT 10SM FEW049 SCT080 BKN110 26/23 A2990 1000 84 2500 130/05 RMK AO2 LTG DSNT N AND W RAB12E23 P0000 T02610233
04850KAOH AOH20160729174015207/29/16 17:40:31  5-MIN KAOH 292240Z AUTO 12003KT 10SM -RA FEW049 SCT065 BKN110 26/23 A2990 990 84 2500 130/03 RMK AO2 LTG DSNT W RAB12 P0000 T02610233
04850KAOH AOH20160729174515907/29/16 17:45:31  5-MIN KAOH 292245Z AUTO 00000KT 10SM -RA FEW060 SCT075 BKN110 26/23 A2991 990 81 2500 000/00 RMK AO2 LTG DSNT W AND NW RAB12 P0000 T02610228
04850KAOH AOH20160729175016507/29/16 17:50:31  5-MIN KAOH 292250Z AUTO 07004KT 10SM FEW060 FEW080 SCT110 26/23 A2991 990 87 2500 070/04 RMK AO2 LTG DSNT W AND NW RAB12E47 SLP119 P0000 T02560233
04850KAOH AOH20160729175514307/29/16 17:55:31  5-MIN KAOH 292255Z AUTO 05005KT 10SM FEW060 FEW080 SCT110 25/23 A2991 990 87 2400 060/05 RMK AO2 LTG DSNT W AND NW T02500228
04850KAOH AOH20160729180013607/29/16 18:00:31  5-MIN KAOH 292300Z AUTO 04005KT 10SM FEW065 FEW110 25/23 A2991 980 87 2400 040/05 RMK AO2 LTG DSNT W AND NW T02500228
04850KAOH AOH20160729180512907/29/16 18:05:31  5-MIN KAOH 292305Z AUTO 03006KT 10SM FEW065 25/23 A2992 980 90 2400 030/06 RMK AO2 LTG DSNT W AND NW T02500233
04850KAOH AOH20160729181012607/29/16 18:10:31  5-MIN KAOH 292310Z AUTO 06006KT 10SM CLR 25/23 A2992 980 90 2400 060/06 RMK AO2 LTG DSNT W AND NW T02500233
04850KAOH AOH20160729181512907/29/16 18:15:31  5-MIN KAOH 292315Z AUTO 08007KT 10SM FEW120 25/23 A2992 980 87 2400 080/07 RMK AO2 LTG DSNT W AND NW T02500228
04850KAOH AOH20160729182012907/29/16 18:20:31  5-MIN KAOH 292320Z AUTO 08006KT 10SM FEW120 24/21 A2993 970 81 2300 080/06 RMK AO2 LTG DSNT W AND NW T02440211
04850KAOH AOH20160729182512907/29/16 18:25:31  5-MIN KAOH 292325Z AUTO 08007KT 10SM FEW120 24/21 A2994 960 78 2300 080/07 RMK AO2 LTG DSNT W AND NW T02440206
04850KAOH AOH20160729183013607/29/16 18:30:31  5-MIN KAOH 292330Z AUTO 07008KT 10SM FEW065 SCT120 24/20 A2994 960 76 2300 080/08 RMK AO2 LTG DSNT W AND NW T02440200
04850KAOH AOH20160729183513107/29/16 18:35:31  5-MIN KAOH 292335Z AUTO 07007KT 10SM FEW065 BKN120 24/20 A2993 970 76 2300 080/07 RMK AO2 LTG DSNT W-N T02440200
04850KAOH AOH20160729184014307/29/16 18:40:31  5-MIN KAOH 292340Z AUTO 07006KT 10SM FEW065 FEW100 BKN120 24/20 A2993 970 76 2300 080/06 RMK AO2 LTG DSNT N AND NW T02440200
04850KAOH AOH20160729184514307/29/16 18:45:31  5-MIN KAOH 292345Z AUTO 07006KT 10SM SCT065 SCT095 BKN120 24/20 A2993 970 76 2300 080/06 RMK AO2 LTG DSNT N AND NW T02440200
04850KAOH AOH20160729185016107/29/16 18:50:31  5-MIN KAOH 292350Z AUTO 07005KT 10SM BKN065 BKN120 24/20 A2993 970 76 2300 080/05 RMK AO2 LTG DSNT NW SLP129 60011 T02440200 10272 20239 58005
04850KAOH AOH20160729185513007/29/16 18:55:31  5-MIN KAOH 292355Z AUTO 05005KT 10SM BKN065 BKN120 24/20 A2993 970 78 2300 060/05 RMK AO2 LTG DSNT NW T02390200
04850KAOH AOH20160729190013707/29/16 19:00:31  5-MIN KAOH 300000Z AUTO 05005KT 10SM BKN060 BKN070 OVC120 24/20 A2993 970 78 2300 060/05 RMK AO2 LTG DSNT NW T02390200
04850KAOH AOH20160729190513007/29/16 19:05:31  5-MIN KAOH 300005Z AUTO 07005KT 10SM BKN060 OVC075 24/20 A2993 960 78 2300 070/05 RMK AO2 LTG DSNT NW T02390200
04850KAOH AOH20160729191013007/29/16 19:10:31  5-MIN KAOH 300010Z AUTO 07005KT 10SM BKN060 OVC075 24/21 A2994 960 81 2300 070/05 RMK AO2 LTG DSNT NW T02390206
04850KAOH AOH20160729191513507/29/16 19:15:31  5-MIN KAOH 300015Z AUTO 08006KT 10SM VCTS BKN060 OVC075 24/21 A2994 960 81 2300 080/06 RMK AO2 LTG DSNT NW T02390206
04850KAOH AOH20160729192013507/29/16 19:20:31  5-MIN KAOH 300020Z AUTO 08006KT 10SM VCTS BKN055 OVC075 24/21 A2994 960 81 2200 080/06 RMK AO2 LTG DSNT NW T02390206
04850KAOH AOH20160729192514207/29/16 19:25:31  5-MIN KAOH 300025Z AUTO 08005KT 10SM VCTS FEW046 BKN060 OVC075 24/21 A2995 950 81 2200 080/05 RMK AO2 LTG DSNT NW T02390206
04850KAOH AOH20160729193015307/29/16 19:30:31  5-MIN KAOH 300030Z AUTO 10004KT 10SM -RA FEW044 BKN055 OVC075 24/21 A2995 950 81 2200 100/04 RMK AO2 LTG DSNT NW RAB29 P0000 T02390206
04850KAOH AOH20160729193515307/29/16 19:35:31  5-MIN KAOH 300035Z AUTO 10004KT 10SM -RA FEW044 BKN055 OVC110 24/21 A2994 960 81 2200 100/04 RMK AO2 LTG DSNT NW RAB29 P0000 T02390206
04850KAOH AOH20160729194015307/29/16 19:40:31  5-MIN KAOH 300040Z AUTO 10003KT 10SM -RA FEW045 BKN070 OVC110 23/21 A2994 960 87 2100 110/03 RMK AO2 LTG DSNT NW RAB29 P0000 T02280206
04850KAOH AOH20160729194514007/29/16 19:45:31  5-MIN KAOH 300045Z AUTO 11004KT 10SM FEW045 BKN090 OVC110 23/21 A2994 960 87 2100 110/04 RMK AO2 RAB29E41 P0000 T02280206
04850KAOH AOH20160729195014707/29/16 19:50:31  5-MIN KAOH 300050Z AUTO 10005KT 10SM FEW047 SCT090 OVC110 23/21 A2994 960 87 2100 100/05 RMK AO2 RAB29E41 SLP131 P0000 T02280206
04850KAOH AOH20160729195512507/29/16 19:55:31  5-MIN KAOH 300055Z AUTO 10003KT 10SM FEW050 SCT090 OVC110 23/20 A2994 960 84 2100 110/03 RMK AO2 T02280200
04850KAOH AOH20160729200011807/29/16 20:00:31  5-MIN KAOH 300100Z AUTO 00000KT 10SM FEW049 OVC100 23/21 A2994 960 87 2100 000/00 RMK AO2 T02280206
04850KAOH AOH20160729200514107/29/16 20:05:31  5-MIN KAOH 300105Z AUTO 00000KT 10SM -RA SCT047 BKN090 OVC110 23/21 A2994 960 84 2200 000/00 RMK AO2 RAB05 P0000 T02330206
04850KAOH AOH20160729201014107/29/16 20:10:31  5-MIN KAOH 300110Z AUTO 34004KT 10SM -RA SCT047 BKN090 OVC110 23/21 A2994 960 90 2100 350/04 RMK AO2 RAB05 P0000 T02280211
04850KAOH AOH20160729201514107/29/16 20:15:31  5-MIN KAOH 300115Z AUTO 33006KT 10SM -RA FEW047 BKN090 OVC110 22/21 A2994 960 93 2100 330/06 RMK AO2 RAB05 P0001 T02220211
04850KAOH AOH20160729202013407/29/16 20:20:31  5-MIN KAOH 300120Z AUTO 35007KT 10SM -RA FEW047 OVC095 22/21 A2994 960 93 2100 350/07 RMK AO2 RAB05 P0001 T02220211
04850KAOH AOH20160729202514107/29/16 20:25:31  5-MIN KAOH 300125Z AUTO 35005KT 10SM -RA FEW049 BKN095 OVC120 22/21 A2995 950 93 2100 350/05 RMK AO2 RAB05 P0001 T02220211
04850KAOH AOH20160729203014107/29/16 20:30:31  5-MIN KAOH 300130Z AUTO 34004KT 10SM -RA FEW049 BKN100 OVC120 22/21 A2995 950 93 2000 350/04 RMK AO2 RAB05 P0001 T02220211
04850KAOH AOH20160729203513307/29/16 20:35:31  5-MIN KAOH 300135Z AUTO 31004KT 10SM BKN100 OVC120 22/21 A2995 950 93 2000 320/04 RMK AO2 RAB05E31 P0001 T02220211
04850KAOH AOH20160729204013307/29/16 20:40:31  5-MIN KAOH 300140Z AUTO 32004KT 10SM BKN100 OVC120 22/21 A2995 950 93 2000 320/04 RMK AO2 RAB05E31 P0001 T02220211
04850KAOH AOH20160729204514007/29/16 20:45:31  5-MIN KAOH 300145Z AUTO 33006KT 10SM SCT031 BKN100 OVC120 22/21 A2996 940 97 2000 330/06 RMK AO2 RAB05E31 P0001 T02170211
04850KAOH AOH20160729205014707/29/16 20:50:31  5-MIN KAOH 300150Z AUTO 32004KT 10SM BKN031 BKN100 OVC120 22/21 A2996 940 97 2000 330/04 RMK AO2 RAB05E31 SLP138 P0001 T02170211
04850KAOH AOH20160729205512507/29/16 20:55:31  5-MIN KAOH 300155Z AUTO 32005KT 10SM SCT031 BKN055 OVC100 22/21 A2996 940 97 2000 330/05 RMK AO2 T02170211
04850KAOH AOH20160729210012507/29/16 21:00:31  5-MIN KAOH 300200Z AUTO 33006KT 10SM SCT030 BKN055 OVC100 22/21 A2996 940 97 2000 330/06 RMK AO2 T02170211
04850KAOH AOH20160729210512507/29/16 21:05:31  5-MIN KAOH 300205Z AUTO 34006KT 10SM SCT030 SCT055 OVC100 22/21 A2996 940 97 2000 350/06 RMK AO2 T02170211
04850KAOH AOH20160729211014007/29/16 21:10:31  5-MIN KAOH 300210Z AUTO 36005KT 9SM -RA FEW030 SCT055 OVC100 22/21 A2996 940 97 2000 360/05 RMK AO2 RAB07 P0000 T02170211
04850KAOH AOH20160729211514007/29/16 21:15:31  5-MIN KAOH 300215Z AUTO 36005KT 9SM -RA FEW030 BKN100 OVC120 22/21 A2996 940 97 2000 360/05 RMK AO2 RAB07 P0000 T02170211
04850KAOH AOH20160729212014107/29/16 21:20:31  5-MIN KAOH 300220Z AUTO 36003KT 10SM -RA FEW050 BKN100 BKN120 22/21 A2996 940 97 2000 010/03 RMK AO2 RAB07 P0000 T02170211
04850KAOH AOH20160729212513307/29/16 21:25:31  5-MIN KAOH 300225Z AUTO 01003KT 9SM BKN100 BKN120 22/22 A2996 940 100 2000 020/03 RMK AO2 RAB07E22 P0000 T02170217
04850KAOH AOH20160729213013307/29/16 21:30:31  5-MIN KAOH 300230Z AUTO 04005KT 9SM SCT100 BKN120 22/22 A2996 940 100 2000 040/05 RMK AO2 RAB07E22 P0000 T02170217
04850KAOH AOH20160729213513207/29/16 21:35:31  5-MIN KAOH 300235Z AUTO 05006KT 9SM FEW100 BKN120 22/21 A2995 950 97 2000 060/06 RMK AO2 RAB07E22 P0000 T02170211
04850KAOH AOH20160729214013207/29/16 21:40:31  5-MIN KAOH 300240Z AUTO 05005KT 9SM FEW085 BKN120 22/21 A2995 950 97 2000 050/05 RMK AO2 RAB07E22 P0000 T02170211
04850KAOH AOH20160729214513207/29/16 21:45:31  5-MIN KAOH 300245Z AUTO 04003KT 8SM FEW085 BKN120 22/21 A2995 950 97 2000 040/03 RMK AO2 RAB07E22 P0000 T02170211
04850KAOH AOH20160729215014407/29/16 21:50:31  5-MIN KAOH 300250Z AUTO 04003KT 8SM BKN120 22/21 A2995 950 97 2000 050/03 RMK AO2 RAB07E22 SLP135 P0000 60001 T02170211 53008
04850KAOH AOH20160729215511107/29/16 21:55:31  5-MIN KAOH 300255Z AUTO 03004KT 8SM BKN120 22/22 A2995 950 100 2000 040/04 RMK AO2 T02170217
04850KAOH AOH20160729220011107/29/16 22:00:31  5-MIN KAOH 300300Z AUTO 02004KT 8SM BKN120 22/22 A2995 950 100 2000 030/04 RMK AO2 T02170217
04850KAOH AOH20160729220511807/29/16 22:05:31  5-MIN KAOH 300305Z AUTO 03004KT 7SM FEW085 BKN120 22/22 A2995 950 100 2000 040/04 RMK AO2 T02170217
04850KAOH AOH20160729221011807/29/16 22:10:31  5-MIN KAOH 300310Z AUTO 05005KT 7SM FEW085 OVC110 22/22 A2995 950 100 2000 060/05 RMK AO2 T02170217
04850KAOH AOH20160729221511107/29/16 22:15:31  5-MIN KAOH 300315Z AUTO 06007KT 7SM OVC110 22/22 A2995 950 100 2000 070/07 RMK AO2 T02170217
04850KAOH AOH20160729222011107/29/16 22:20:31  5-MIN KAOH 300320Z AUTO 07006KT 7SM OVC110 22/22 A2995 950 100 2000 070/06 RMK AO2 T02170217
04850KAOH AOH20160729222511407/29/16 22:25:31  5-MIN KAOH 300325Z AUTO 07006KT 6SM BR OVC110 22/22 A2994 960 100 2000 070/06 RMK AO2 T02170217
04850KAOH AOH20160729223011407/29/16 22:30:31  5-MIN KAOH 300330Z AUTO 08006KT 6SM BR OVC110 22/22 A2994 960 100 2000 090/06 RMK AO2 T02170217
04850KAOH AOH20160729223511407/29/16 22:35:31  5-MIN KAOH 300335Z AUTO 08007KT 5SM BR OVC110 22/22 A2994 960 100 2000 090/07 RMK AO2 T02170217
04850KAOH AOH20160729224013007/29/16 22:40:31  5-MIN KAOH 300340Z AUTO 08006KT 5SM -RA BR OVC110 22/22 A2994 960 100 2000 090/06 RMK AO2 RAB36 P0000 T02170217
04850KAOH AOH20160729224513007/29/16 22:45:31  5-MIN KAOH 300345Z AUTO 09006KT 6SM -RA BR OVC110 22/22 A2994 960 100 2000 090/06 RMK AO2 RAB36 P0000 T02170217
04850KAOH AOH20160729225013607/29/16 22:50:31  5-MIN KAOH 300350Z AUTO 08007KT 6SM BR OVC110 22/22 A2994 960 100 2000 090/07 RMK AO2 RAB36E46 SLP130 P0000 T02170217
04850KAOH AOH20160729225511407/29/16 22:55:31  5-MIN KAOH 300355Z AUTO 08006KT 6SM BR BKN110 22/22 A2994 960 100 2000 080/06 RMK AO2 T02170217
04850KAOH AOH20160729230011407/29/16 23:00:31  5-MIN KAOH 300400Z AUTO 08005KT 5SM BR BKN110 22/22 A2994 960 100 2000 090/05 RMK AO2 T02170217
04850KAOH AOH20160729230511407/29/16 23:05:31  5-MIN KAOH 300405Z AUTO 08006KT 5SM BR BKN110 22/22 A2994 960 100 2000 080/06 RMK AO2 T02170217
04850KAOH AOH20160729231011407/29/16 23:10:31  5-MIN KAOH 300410Z AUTO 07006KT 5SM BR BKN110 22/22 A2993 960 100 2000 080/06 RMK AO2 T02170217
04850KAOH AOH20160729231511407/29/16 23:15:31  5-MIN KAOH 300415Z AUTO 09007KT 5SM BR BKN110 22/22 A2993 960 100 2000 100/07 RMK AO2 T02170217
04850KAOH AOH20160729232011407/29/16 23:20:31  5-MIN KAOH 300420Z AUTO 09007KT 6SM BR BKN120 22/22 A2994 960 100 2000 100/07 RMK AO2 T02170217
04850KAOH AOH20160729232511407/29/16 23:25:31  5-MIN KAOH 300425Z AUTO 10006KT 6SM BR BKN120 22/22 A2994 960 100 2000 110/06 RMK AO2 T02170217
04850KAOH AOH20160729233011407/29/16 23:30:31  5-MIN KAOH 300430Z AUTO 10006KT 6SM BR BKN110 22/22 A2994 960 100 2000 110/06 RMK AO2 T02170217
04850KAOH AOH20160729233511407/29/16 23:35:31  5-MIN KAOH 300435Z AUTO 09005KT 6SM BR BKN110 22/22 A2994 960 100 2000 100/05 RMK AO2 T02170217
04850KAOH AOH20160729234011107/29/16 23:40:31  5-MIN KAOH 300440Z AUTO 09005KT 7SM OVC110 22/22 A2994 960 100 2000 090/05 RMK AO2 T02170217
04850KAOH AOH20160729234511107/29/16 23:45:31  5-MIN KAOH 300445Z AUTO 09004KT 7SM BKN110 22/22 A2994 960 100 2000 090/04 RMK AO2 T02170217
04850KAOH AOH20160729235012807/29/16 23:50:31  5-MIN KAOH 300450Z AUTO 08005KT 7SM BKN110 22/22 A2994 960 100 2000 080/05 RMK AO2 SLP129 T02170217 403060178
04850KAOH AOH20160729235511007/29/16 23:55:31  5-MIN KAOH 300455Z AUTO 08005KT 7SM BKN110 22/21 A2994 960 97 2000 080/05 RMK AO2 T02170211
04850KAOH AOH20160730000011007/30/16 00:00:31  5-MIN KAOH 300500Z AUTO 07004KT 7SM SCT110 22/21 A2994 960 97 2000 070/04 RMK AO2 T02170211
04850KAOH AOH20160730000511007/30/16 00:05:31  5-MIN KAOH 300505Z AUTO 04004KT 8SM FEW110 22/21 A2994 960 97 2000 050/04 RMK AO2 T02170211
04850KAOH AOH20160730001011007/30/16 00:10:31  5-MIN KAOH 300510Z AUTO 03004KT 8SM FEW110 22/21 A2994 960 97 2000 040/04 RMK AO2 T02170211
04850KAOH AOH20160730001510707/30/16 00:15:31  5-MIN KAOH 300515Z AUTO 03004KT 8SM CLR 22/21 A2994 960 97 2000 040/04 RMK AO2 T02170211
04850KAOH AOH20160730002010707/30/16 00:20:31  5-MIN KAOH 300520Z AUTO 04004KT 8SM CLR 22/21 A2994 960 97 2000 040/04 RMK AO2 T02170211
04850KAOH AOH20160730002510707/30/16 00:25:31  5-MIN KAOH 300525Z AUTO 03004KT 8SM CLR 22/21 A2994 960 97 2000 030/04 RMK AO2 T02170211
04850KAOH AOH20160730003010707/30/16 00:30:31  5-MIN KAOH 300530Z AUTO 02003KT 8SM CLR 22/21 A2994 960 97 2000 030/03 RMK AO2 T02170211
04850KAOH AOH20160730003510807/30/16 00:35:31  5-MIN KAOH 300535Z AUTO 03003KT 7SM CLR 21/21 A2994 960 100 1900 030/03 RMK AO2 T02110211
04850KAOH AOH20160730004011107/30/16 00:40:31  5-MIN KAOH 300540Z AUTO 04003KT 7SM FEW120 21/21 A2994 960 100 1900 050/03 RMK AO2 T02110211
04850KAOH AOH20160730004511107/30/16 00:45:31  5-MIN KAOH 300545Z AUTO 05004KT 8SM FEW120 21/21 A2994 960 100 1900 060/04 RMK AO2 T02110211
04850KAOH AOH20160730005014107/30/16 00:50:31  5-MIN KAOH 300550Z AUTO 06003KT 8SM FEW120 22/21 A2994 960 97 2000 060/03 RMK AO2 SLP129 60001 T02170211 10239 20211 50007
04850KAOH AOH20160730005511007/30/16 00:55:31  5-MIN KAOH 300555Z AUTO 00000KT 8SM FEW120 22/21 A2994 960 97 2000 000/00 RMK AO2 T02170211
04850KAOH AOH20160730010011007/30/16 01:00:31  5-MIN KAOH 300600Z AUTO 07003KT 8SM FEW120 22/21 A2993 970 97 2000 070/03 RMK AO2 T02170211
04850KAOH AOH20160730010511107/30/16 01:05:31  5-MIN KAOH 300605Z AUTO 08004KT 7SM FEW120 21/21 A2993 970 100 1900 080/04 RMK AO2 T02110211
04850KAOH AOH20160730011011407/30/16 01:10:31  5-MIN KAOH 300610Z AUTO 09004KT 6SM BR FEW120 21/21 A2992 980 100 2000 090/04 RMK AO2 T02110211
04850KAOH AOH20160730011511407/30/16 01:15:31  5-MIN KAOH 300615Z AUTO 09004KT 6SM BR FEW120 21/21 A2992 980 100 2000 100/04 RMK AO2 T02110211
04850KAOH AOH20160730012011107/30/16 01:20:31  5-MIN KAOH 300620Z AUTO 08003KT 6SM BR CLR 21/21 A2992 980 100 2000 080/03 RMK AO2 T02110211
04850KAOH AOH20160730012511107/30/16 01:25:31  5-MIN KAOH 300625Z AUTO 06003KT 6SM BR CLR 21/21 A2992 980 100 2000 060/03 RMK AO2 T02110211
04850KAOH AOH20160730013011107/30/16 01:30:31  5-MIN KAOH 300630Z AUTO 05003KT 6SM BR CLR 21/21 A2992 980 100 2000 050/03 RMK AO2 T02110211
04850KAOH AOH20160730013511007/30/16 01:35:31  5-MIN KAOH 300635Z AUTO 05003KT 6SM BR CLR 21/21 A2992 980 97 2000 060/03 RMK AO2 T02110206
04850KAOH AOH20160730014011007/30/16 01:40:31  5-MIN KAOH 300640Z AUTO 05004KT 6SM BR CLR 21/21 A2992 980 97 2000 060/04 RMK AO2 T02110206
04850KAOH AOH20160730014511007/30/16 01:45:31  5-MIN KAOH 300645Z AUTO 04004KT 6SM BR CLR 21/21 A2992 980 97 2000 050/04 RMK AO2 T02110206
04850KAOH AOH20160730015011807/30/16 01:50:31  5-MIN KAOH 300650Z AUTO 03005KT 6SM BR CLR 21/21 A2992 980 100 1900 040/05 RMK AO2 SLP125 T02060206
04850KAOH AOH20160730015511107/30/16 01:55:31  5-MIN KAOH 300655Z AUTO 04004KT 6SM BR CLR 21/21 A2992 980 100 1900 050/04 RMK AO2 T02060206
04850KAOH AOH20160730020011107/30/16 02:00:31  5-MIN KAOH 300700Z AUTO 06004KT 6SM BR CLR 21/21 A2992 980 100 1900 070/04 RMK AO2 T02060206
04850KAOH AOH20160730020511107/30/16 02:05:31  5-MIN KAOH 300705Z AUTO 07005KT 6SM BR CLR 21/21 A2992 980 100 1900 080/05 RMK AO2 T02060206
04850KAOH AOH20160730021011107/30/16 02:10:31  5-MIN KAOH 300710Z AUTO 08004KT 6SM BR CLR 21/21 A2992 980 100 1900 080/04 RMK AO2 T02060206
04850KAOH AOH20160730021511107/30/16 02:15:31  5-MIN KAOH 300715Z AUTO 06004KT 5SM BR CLR 21/21 A2992 980 100 1900 070/04 RMK AO2 T02060206
04850KAOH AOH20160730022011107/30/16 02:20:31  5-MIN KAOH 300720Z AUTO 04003KT 5SM BR CLR 21/21 A2993 970 100 1900 040/03 RMK AO2 T02060206
04850KAOH AOH20160730022511407/30/16 02:25:31  5-MIN KAOH 300725Z AUTO 02004KT 5SM BR FEW070 21/21 A2993 970 100 1900 030/04 RMK AO2 T02060206
04850KAOH AOH20160730023011407/30/16 02:30:31  5-MIN KAOH 300730Z AUTO 02004KT 5SM BR SCT070 20/20 A2993 970 100 1800 020/04 RMK AO2 T02000200
04850KAOH AOH20160730023512107/30/16 02:35:31  5-MIN KAOH 300735Z AUTO 05003KT 4SM BR FEW034 BKN070 20/20 A2992 970 100 1800 050/03 RMK AO2 T02000200
04850KAOH AOH20160730024012007/30/16 02:40:31  5-MIN KAOH 300740Z AUTO 00000KT 5SM BR FEW034 BKN070 21/20 A2992 970 97 1900 000/00 RMK AO2 T02060200
04850KAOH AOH20160730024512107/30/16 02:45:31  5-MIN KAOH 300745Z AUTO 00000KT 5SM BR SCT034 BKN070 21/21 A2992 970 100 1900 000/00 RMK AO2 T02060206
04850KAOH AOH20160730025012807/30/16 02:50:31  5-MIN KAOH 300750Z AUTO 05003KT 5SM BR SCT036 BKN070 21/21 A2992 980 100 1900 060/03 RMK AO2 SLP125 T02060206
04850KAOH AOH20160730025512007/30/16 02:55:31  5-MIN KAOH 300755Z AUTO 06003KT 4SM BR SCT036 BKN070 21/20 A2992 980 97 1900 060/03 RMK AO2 T02060200
04850KAOH AOH20160730030012107/30/16 03:00:31  5-MIN KAOH 300800Z AUTO 06003KT 4SM BR FEW036 SCT070 20/20 A2992 970 100 1800 070/03 RMK AO2 T02000200
04850KAOH AOH20160730030511407/30/16 03:05:31  5-MIN KAOH 300805Z AUTO 08003KT 4SM BR SCT036 20/20 A2992 980 100 1800 080/03 RMK AO2 T02000200
04850KAOH AOH20160730031011407/30/16 03:10:31  5-MIN KAOH 300810Z AUTO 07004KT 4SM BR BKN034 20/20 A2992 980 100 1800 070/04 RMK AO2 T02000200
04850KAOH AOH20160730031511407/30/16 03:15:31  5-MIN KAOH 300815Z AUTO 05003KT 4SM BR BKN032 20/20 A2992 980 100 1800 060/03 RMK AO2 T02000200
04850KAOH AOH20160730032011307/30/16 03:20:31  5-MIN KAOH 300820Z AUTO 06003KT 4SM BR BKN032 21/20 A2992 980 97 1900 070/03 RMK AO2 T02060200
04850KAOH AOH20160730032511407/30/16 03:25:31  5-MIN KAOH 300825Z AUTO 00000KT 4SM BR BKN033 21/21 A2992 980 100 1900 000/00 RMK AO2 T02060206
04850KAOH AOH20160730033011307/30/16 03:30:31  5-MIN KAOH 300830Z AUTO 08003KT 4SM BR BKN033 21/20 A2992 980 97 1900 090/03 RMK AO2 T02060200
04850KAOH AOH20160730033511407/30/16 03:35:31  5-MIN KAOH 300835Z AUTO 07003KT 4SM BR BKN033 20/20 A2992 980 100 1800 080/03 RMK AO2 T02000200
04850KAOH AOH20160730034011407/30/16 03:40:31  5-MIN KAOH 300840Z AUTO 00000KT 3SM BR SCT033 20/20 A2992 980 100 1800 000/00 RMK AO2 T02000200
04850KAOH AOH20160730034511407/30/16 03:45:31  5-MIN KAOH 300845Z AUTO 00000KT 3SM BR SCT033 20/20 A2992 980 100 1800 000/00 RMK AO2 T02000200
04850KAOH AOH20160730035012707/30/16 03:50:31  5-MIN KAOH 300850Z AUTO 00000KT 3SM BR FEW033 19/19 A2992 980 100 1800 000/00 RMK AO2 SLP123 T01940194 56005
04850KAOH AOH20160730035511407/30/16 03:55:31  5-MIN KAOH 300855Z AUTO 00000KT 3SM BR FEW038 20/20 A2992 980 100 1800 000/00 RMK AO2 T02000200
04850KAOH AOH20160730040011407/30/16 04:00:31  5-MIN KAOH 300900Z AUTO 00000KT 3SM BR SCT038 20/20 A2992 980 100 1800 000/00 RMK AO2 T02000200
04850KAOH AOH20160730040511407/30/16 04:05:31  5-MIN KAOH 300905Z AUTO 00000KT 3SM BR BKN038 20/20 A2992 980 100 1800 000/00 RMK AO2 T02000200
04850KAOH AOH20160730041011407/30/16 04:10:31  5-MIN KAOH 300910Z AUTO 00000KT 2SM BR BKN037 19/19 A2992 980 100 1800 000/00 RMK AO2 T01940194
04850KAOH AOH20160730041511807/30/16 04:15:31  5-MIN KAOH 300915Z AUTO 00000KT 1 3/4SM BR BKN037 19/19 A2992 980 100 1800 000/00 RMK AO2 T01940194
04850KAOH AOH20160730042011807/30/16 04:20:31  5-MIN KAOH 300920Z AUTO 00000KT 1 3/4SM BR BKN037 19/19 A2992 970 100 1800 000/00 RMK AO2 T01940194
04850KAOH AOH20160730042511807/30/16 04:25:31  5-MIN KAOH 300925Z AUTO 00000KT 1 3/4SM BR OVC035 20/20 A2992 970 100 1800 000/00 RMK AO2 T02000200
04850KAOH AOH20160730043012507/30/16 04:30:31  5-MIN KAOH 300930Z AUTO 00000KT 2 1/2SM BR BKN031 OVC039 20/20 A2993 970 100 1800 000/00 RMK AO2 T02000200
04850KAOH AOH20160730043512807/30/16 04:35:31  5-MIN KAOH 300935Z AUTO 00000KT 3SM BR BKN033 BKN039 BKN049 20/20 A2993 970 100 1800 000/00 RMK AO2 T02000200
04850KAOH AOH20160730044012107/30/16 04:40:31  5-MIN KAOH 300940Z AUTO 00000KT 3SM BR BKN033 BKN043 20/20 A2993 970 100 1800 000/00 RMK AO2 T02000200
04850KAOH AOH20160730044512807/30/16 04:45:31  5-MIN KAOH 300945Z AUTO 00000KT 3SM BR BKN033 BKN041 BKN050 20/20 A2993 970 100 1800 000/00 RMK AO2 T02000200
04850KAOH AOH20160730045013507/30/16 04:50:31  5-MIN KAOH 300950Z AUTO 00000KT 3SM BR FEW033 SCT041 BKN050 20/20 A2993 970 100 1800 000/00 RMK AO2 SLP127 T02000200
04850KAOH AOH20160730045512107/30/16 04:55:31  5-MIN KAOH 300955Z AUTO 00000KT 3SM BR FEW030 SCT039 20/20 A2993 970 100 1800 000/00 RMK AO2 T02000200
04850KAOH AOH20160730050012507/30/16 05:00:31  5-MIN KAOH 301000Z AUTO 00000KT 2 1/2SM BR SCT028 BKN037 19/19 A2993 970 100 1800 000/00 RMK AO2 T01940194
04850KAOH AOH20160730050512507/30/16 05:05:31  5-MIN KAOH 301005Z AUTO 00000KT 2 1/2SM BR FEW028 BKN037 20/20 A2993 970 100 1800 000/00 RMK AO2 T02000200
04850KAOH AOH20160730051012107/30/16 05:10:31  5-MIN KAOH 301010Z AUTO 00000KT 3SM BR FEW027 FEW037 19/19 A2993 970 100 1800 000/00 RMK AO2 T01940194
04850KAOH AOH20160730051511407/30/16 05:15:31  5-MIN KAOH 301015Z AUTO 00000KT 2SM BR FEW027 19/19 A2993 970 100 1800 000/00 RMK AO2 T01940194
04850KAOH AOH20160730052011807/30/16 05:20:31  5-MIN KAOH 301020Z AUTO 00000KT 1 3/4SM BR FEW027 19/19 A2993 970 100 1800 000/00 RMK AO2 T01940194
04850KAOH AOH20160730052511807/30/16 05:25:31  5-MIN KAOH 301025Z AUTO 00000KT 2 1/2SM BR FEW027 19/19 A2993 970 100 1800 000/00 RMK AO2 T01940194
04850KAOH AOH20160730053011107/30/16 05:30:31  5-MIN KAOH 301030Z AUTO 00000KT 3SM BR CLR 19/19 A2993 970 100 1800 000/00 RMK AO2 T01940194
04850KAOH AOH20160730053511107/30/16 05:35:31  5-MIN KAOH 301035Z AUTO 00000KT 3SM BR CLR 19/19 A2993 970 100 1800 000/00 RMK AO2 T01940194
04850KAOH AOH20160730054011507/30/16 05:40:31  5-MIN KAOH 301040Z AUTO 00000KT 2 1/2SM BR CLR 19/19 A2993 970 100 1700 000/00 RMK AO2 T01890189
04850KAOH AOH20160730054511507/30/16 05:45:31  5-MIN KAOH 301045Z AUTO 00000KT 2 1/2SM BR CLR 19/19 A2993 970 100 1800 000/00 RMK AO2 T01940194
04850KAOH AOH20160730055011807/30/16 05:50:31  5-MIN KAOH 301050Z AUTO 00000KT 2SM BR CLR 19/19 A2993 970 100 1700 000/00 RMK AO2 SLP129 T01890189
04850KAOH AOH20160730055511107/30/16 05:55:31  5-MIN KAOH 301055Z AUTO 00000KT 2SM BR CLR 19/19 A2993 970 100 1700 000/00 RMK AO2 T01890189
04850KAOH AOH20160730060011407/30/16 06:00:31  5-MIN KAOH 301100Z AUTO 00000KT 2 1/2SM BR CLR 19/19 A2993 970 97 1700 000/00 RMK AO2 T01940189
04850KAOH AOH20160730060511507/30/16 06:05:31  5-MIN KAOH 301105Z AUTO 00000KT 2 1/2SM BR CLR 19/19 A2993 970 100 1700 000/00 RMK AO2 T01940194
04850KAOH AOH20160730061011507/30/16 06:10:31  5-MIN KAOH 301110Z AUTO 00000KT 2 1/2SM BR CLR 19/19 A2994 960 100 1700 000/00 RMK AO2 T01940194
04850KAOH AOH20160730061511107/30/16 06:15:31  5-MIN KAOH 301115Z AUTO 00000KT 2SM BR CLR 19/19 A2994 960 100 1700 000/00 RMK AO2 T01940194
04850KAOH AOH20160730062011107/30/16 06:20:31  5-MIN KAOH 301120Z AUTO 00000KT 2SM BR CLR 19/19 A2994 960 100 1700 000/00 RMK AO2 T01940194
04850KAOH AOH20160730062511507/30/16 06:25:31  5-MIN KAOH 301125Z AUTO 00000KT 1 3/4SM BR CLR 19/19 A2994 960 100 1700 000/00 RMK AO2 T01940194
04850KAOH AOH20160730063011507/30/16 06:30:31  5-MIN KAOH 301130Z AUTO 00000KT 1 1/4SM BR CLR 20/20 A2994 960 100 1800 000/00 RMK AO2 T02000200
04850KAOH AOH20160730063511507/30/16 06:35:31  5-MIN KAOH 301135Z AUTO 00000KT 1 3/4SM BR CLR 20/20 A2994 960 100 1800 000/00 RMK AO2 T02000200
04850KAOH AOH20160730064011107/30/16 06:40:31  5-MIN KAOH 301140Z AUTO 00000KT 2SM BR CLR 20/20 A2994 960 100 1800 000/00 RMK AO2 T02000200
04850KAOH AOH20160730064511107/30/16 06:45:31  5-MIN KAOH 301145Z AUTO 00000KT 2SM BR CLR 20/20 A2994 960 100 1800 000/00 RMK AO2 T02000200
04850KAOH AOH20160730065014607/30/16 06:50:31  5-MIN KAOH 301150Z AUTO 00000KT 2 1/2SM BR CLR 20/20 A2994 960 100 1800 000/00 RMK AO2 SLP134 70012 T02000200 10217 20189 56006
04850KAOH AOH20160730065511407/30/16 06:55:31  5-MIN KAOH 301155Z AUTO 00000KT 2 1/2SM BR CLR 21/20 A2994 960 97 1900 000/00 RMK AO2 T02060200
04850KAOH AOH20160730070011407/30/16 07:00:31  5-MIN KAOH 301200Z AUTO 00000KT 2SM BR FEW007 21/21 A2994 960 100 1900 000/00 RMK AO2 T02060206
04850KAOH AOH20160730070511307/30/16 07:05:31  5-MIN KAOH 301205Z AUTO 00000KT 2SM BR FEW007 21/21 A2994 960 97 1900 000/00 RMK AO2 T02110206
04850KAOH AOH20160730071011807/30/16 07:10:31  5-MIN KAOH 301210Z AUTO 00000KT 2 1/2SM BR FEW007 21/21 A2995 950 100 1900 000/00 RMK AO2 T02060206
04850KAOH AOH20160730071511307/30/16 07:15:31  5-MIN KAOH 301215Z AUTO 17003KT 3SM BR FEW007 21/21 A2995 950 97 1900 170/03 RMK AO2 T02110206
04850KAOH AOH20160730072011307/30/16 07:20:31  5-MIN KAOH 301220Z AUTO 18003KT 4SM BR FEW007 21/21 A2995 950 97 1900 190/03 RMK AO2 T02110206
04850KAOH AOH20160730072511307/30/16 07:25:31  5-MIN KAOH 301225Z AUTO 16004KT 4SM BR FEW007 21/21 A2995 950 97 1900 160/04 RMK AO2 T02110206
04850KAOH AOH20160730073011007/30/16 07:30:31  5-MIN KAOH 301230Z AUTO 17004KT 5SM BR CLR 22/21 A2995 950 97 2000 170/04 RMK AO2 T02170211
04850KAOH AOH20160730073511007/30/16 07:35:31  5-MIN KAOH 301235Z AUTO 17003KT 5SM BR CLR 22/21 A2995 950 93 2000 170/03 RMK AO2 T02170206
04850KAOH AOH20160730074011007/30/16 07:40:31  5-MIN KAOH 301240Z AUTO 18004KT 5SM BR CLR 22/21 A2995 950 93 2000 190/04 RMK AO2 T02170206
04850KAOH AOH20160730074511007/30/16 07:45:31  5-MIN KAOH 301245Z AUTO 19004KT 5SM BR CLR 22/21 A2995 950 93 2000 200/04 RMK AO2 T02170206
04850KAOH AOH20160730075011707/30/16 07:50:31  5-MIN KAOH 301250Z AUTO 21004KT 6SM BR CLR 22/21 A2995 950 93 2000 220/04 RMK AO2 SLP135 T02220211
04850KAOH AOH20160730075511007/30/16 07:55:31  5-MIN KAOH 301255Z AUTO 20004KT 6SM BR CLR 22/21 A2995 950 93 2000 210/04 RMK AO2 T02220211
04850KAOH AOH20160730080011007/30/16 08:00:31  5-MIN KAOH 301300Z AUTO 19004KT 6SM BR CLR 22/21 A2995 950 93 2000 200/04 RMK AO2 T02220211
04850KAOH AOH20160730080511007/30/16 08:05:31  5-MIN KAOH 301305Z AUTO 22005KT 6SM BR CLR 22/21 A2995 950 93 2000 230/05 RMK AO2 T02220211
04850KAOH AOH20160730081011007/30/16 08:10:31  5-MIN KAOH 301310Z AUTO 23005KT 7SM FEW007 22/21 A2995 950 93 2000 240/05 RMK AO2 T02220211
04850KAOH AOH20160730081511007/30/16 08:15:31  5-MIN KAOH 301315Z AUTO 20005KT 7SM FEW007 22/21 A2995 950 93 2000 210/05 RMK AO2 T02220211
04850KAOH AOH20160730082011007/30/16 08:20:31  5-MIN KAOH 301320Z AUTO 22006KT 7SM FEW007 23/21 A2995 950 90 2100 220/06 RMK AO2 T02280211
04850KAOH AOH20160730082511007/30/16 08:25:31  5-MIN KAOH 301325Z AUTO 23004KT 8SM SCT007 23/22 A2995 950 90 2200 240/04 RMK AO2 T02330217
04850KAOH AOH20160730083011007/30/16 08:30:31  5-MIN KAOH 301330Z AUTO 22005KT 8SM SCT007 23/21 A2996 940 87 2200 230/05 RMK AO2 T02330211
04850KAOH AOH20160730083511007/30/16 08:35:31  5-MIN KAOH 301335Z AUTO 22005KT 9SM SCT008 23/21 A2996 950 90 2100 230/05 RMK AO2 T02280211
04850KAOH AOH20160730084011007/30/16 08:40:31  5-MIN KAOH 301340Z AUTO 22004KT 8SM SCT008 23/21 A2996 940 90 2100 230/04 RMK AO2 T02280211
04850KAOH AOH20160730084512207/30/16 08:45:31  5-MIN KAOH 301345Z AUTO 26006KT 8SM BKN008 23/21 A2996 940 90 2100 260/06 RMK AO2 CIG 007V011 T02280211
04850KAOH AOH20160730085010007/30/16 08:50:31  5-MIN KAOH 301350Z AUTO 27006KT 9SM BKN009 23/22 A2996 940 90 2200 270/06 RMK AO2
04850KAOH AOH20160730085511007/30/16 08:55:31  5-MIN KAOH 301355Z AUTO 24007KT 9SM BKN009 23/21 A2996 940 90 2100 250/07 RMK AO2 T02280211
04850KAOH AOH20160730090011107/30/16 09:00:31  5-MIN KAOH 301400Z AUTO 28004KT 10SM BKN010 23/21 A2996 940 87 2200 280/04 RMK AO2 T02330211
04850KAOH AOH20160730090511107/30/16 09:05:31  5-MIN KAOH 301405Z AUTO 27007KT 10SM BKN010 24/22 A2996 940 87 2200 280/07 RMK AO2 T02390217
04850KAOH AOH20160730091012207/30/16 09:10:31  5-MIN KAOH 301410Z AUTO 27005KT 9SM BKN010 23/21 A2996 940 90 2100 270/05 RMK AO2 CIG 009V013 T02280211
04850KAOH AOH20160730091511107/30/16 09:15:31  5-MIN KAOH 301415Z AUTO 21003KT 10SM BKN010 23/21 A2996 940 87 2200 220/03 RMK AO2 T02330211
04850KAOH AOH20160730092011107/30/16 09:20:31  5-MIN KAOH 301420Z AUTO 26006KT 10SM BKN012 24/21 A2996 940 84 2200 270/06 RMK AO2 T02390211
04850KAOH AOH20160730092511107/30/16 09:25:31  5-MIN KAOH 301425Z AUTO 28004KT 10SM BKN012 23/21 A2996 940 87 2200 280/04 RMK AO2 T02330211
04850KAOH AOH20160730093011107/30/16 09:30:31  5-MIN KAOH 301430Z AUTO 26004KT 10SM BKN012 24/22 A2996 940 87 2200 270/04 RMK AO2 T02390217
04850KAOH AOH20160730093511107/30/16 09:35:31  5-MIN KAOH 301435Z AUTO VRB04KT 10SM BKN012 24/21 A2996 940 84 2200 VRB/04 RMK AO2 T02390211
04850KAOH AOH20160730094011107/30/16 09:40:31  5-MIN KAOH 301440Z AUTO 28007KT 10SM BKN012 24/22 A2996 940 84 2300 280/07 RMK AO2 T02440217
04850KAOH AOH20160730094511107/30/16 09:45:31  5-MIN KAOH 301445Z AUTO 25006KT 10SM BKN012 24/22 A2997 930 87 2200 260/06 RMK AO2 T02390217
04850KAOH AOH20160730095012407/30/16 09:50:31  5-MIN KAOH 301450Z AUTO 26007KT 10SM BKN012 24/22 A2997 930 87 2200 260/07 RMK AO2 SLP141 T02390217 53009
04850KAOH AOH20160730095511107/30/16 09:55:31  5-MIN KAOH 301455Z AUTO 26008KT 10SM BKN014 23/21 A2997 930 87 2100 260/08 RMK AO2 T02330211
04850KAOH AOH20160730100011107/30/16 10:00:31  5-MIN KAOH 301500Z AUTO 26008KT 10SM BKN014 24/21 A2997 930 84 2200 260/08 RMK AO2 T02390211
04850KAOH AOH20160730100511107/30/16 10:05:31  5-MIN KAOH 301505Z AUTO 25007KT 10SM BKN016 24/22 A2997 930 87 2200 250/07 RMK AO2 T02390217
04850KAOH AOH20160730101011107/30/16 10:10:31  5-MIN KAOH 301510Z AUTO 25006KT 10SM BKN016 24/22 A2997 930 87 2200 260/06 RMK AO2 T02390217
04850KAOH AOH20160730101511007/30/16 10:15:31  5-MIN KAOH 301515Z AUTO 26008KT 8SM BKN015 24/22 A2997 930 87 2200 260/08 RMK AO2 T02390217
04850KAOH AOH20160730102011007/30/16 10:20:31  5-MIN KAOH 301520Z AUTO 26009KT 7SM BKN015 23/21 A2998 930 87 2100 270/09 RMK AO2 T02330211
04850KAOH AOH20160730102511007/30/16 10:25:31  5-MIN KAOH 301525Z AUTO 27008KT 8SM OVC015 24/21 A2998 930 84 2200 270/08 RMK AO2 T02390211
04850KAOH AOH20160730103011007/30/16 10:30:31  5-MIN KAOH 301530Z AUTO 25008KT 8SM OVC015 24/22 A2998 930 87 2200 260/08 RMK AO2 T02390217
04850KAOH AOH20160730103511007/30/16 10:35:31  5-MIN KAOH 301535Z AUTO 28007KT 8SM OVC013 23/21 A2998 930 87 2100 280/07 RMK AO2 T02330211
04850KAOH AOH20160730104011007/30/16 10:40:31  5-MIN KAOH 301540Z AUTO 26008KT 8SM OVC013 23/21 A2998 920 87 2100 270/08 RMK AO2 T02330211
04850KAOH AOH20160730104511007/30/16 10:45:31  5-MIN KAOH 301545Z AUTO 26008KT 8SM OVC013 23/21 A2998 920 87 2100 270/08 RMK AO2 T02330211
04850KAOH AOH20160730105011707/30/16 10:50:31  5-MIN KAOH 301550Z AUTO 24006KT 8SM OVC013 23/21 A2998 920 87 2100 250/06 RMK AO2 SLP145 T02330211
04850KAOH AOH20160730105511007/30/16 10:55:31  5-MIN KAOH 301555Z AUTO VRB04KT 9SM BKN015 23/21 A2998 920 87 2100 VRB/04 RMK AO2 T02330211
04850KAOH AOH20160730110011007/30/16 11:00:31  5-MIN KAOH 301600Z AUTO 32004KT 9SM BKN015 24/21 A2998 930 84 2200 320/04 RMK AO2 T02390211
04850KAOH AOH20160730110511007/30/16 11:05:31  5-MIN KAOH 301605Z AUTO 33005KT 9SM BKN013 24/21 A2998 920 84 2200 340/05 RMK AO2 T02390211
04850KAOH AOH20160730111011007/30/16 11:10:31  5-MIN KAOH 301610Z AUTO VRB03KT 8SM BKN015 24/21 A2998 920 84 2200 VRB/03 RMK AO2 T02390211
04850KAOH AOH20160730111511007/30/16 11:15:31  5-MIN KAOH 301615Z AUTO 28007KT 8SM BKN015 24/22 A2998 920 87 2200 290/07 RMK AO2 T02390217
04850KAOH AOH20160730112011007/30/16 11:20:31  5-MIN KAOH 301620Z AUTO 28006KT 8SM BKN015 24/22 A2998 920 87 2200 290/06 RMK AO2 T02390217
04850KAOH AOH20160730112511007/30/16 11:25:31  5-MIN KAOH 301625Z AUTO 31006KT 8SM OVC015 24/21 A2998 930 84 2200 320/06 RMK AO2 T02390211
04850KAOH AOH20160730113011707/30/16 11:30:31  5-MIN KAOH 301630Z AUTO 28006KT 9SM BKN015 OVC022 24/22 A2998 920 87 2200 290/06 RMK AO2 T02390217
04850KAOH AOH20160730113511707/30/16 11:35:31  5-MIN KAOH 301635Z AUTO 32005KT 9SM BKN015 BKN022 24/22 A2998 930 87 2300 330/05 RMK AO2 T02440222
04850KAOH AOH20160730114011707/30/16 11:40:31  5-MIN KAOH 301640Z AUTO 27005KT 9SM BKN015 OVC022 24/22 A2998 920 84 2300 280/05 RMK AO2 T02440217
04850KAOH AOH20160730114511707/30/16 11:45:31  5-MIN KAOH 301645Z AUTO 29005KT 9SM BKN015 OVC022 24/22 A2998 930 84 2300 300/05 RMK AO2 T02440217
04850KAOH AOH20160730115013107/30/16 11:50:31  5-MIN KAOH 301650Z AUTO 27006KT 9SM SCT015 BKN022 OVC027 24/22 A2998 930 84 2300 280/06 RMK AO2 SLP144 T02440217
04850KAOH AOH20160730115511707/30/16 11:55:31  5-MIN KAOH 301655Z AUTO 26006KT 9SM SCT015 OVC022 24/21 A2998 930 81 2300 270/06 RMK AO2 T02440211
04850KAOH AOH20160730120011807/30/16 12:00:31  5-MIN KAOH 301700Z AUTO 27007KT 10SM BKN015 OVC023 24/22 A2998 920 87 2200 280/07 RMK AO2 T02390217
04850KAOH AOH20160730120512507/30/16 12:05:31  5-MIN KAOH 301705Z AUTO 25004KT 10SM SCT015 BKN021 OVC026 24/22 A2998 920 84 2300 250/04 RMK AO2 T02440217
04850KAOH AOH20160730121011807/30/16 12:10:31  5-MIN KAOH 301710Z AUTO 27007KT 10SM SCT015 BKN023 25/21 A2998 930 79 2300 280/07 RMK AO2 T02500211
04850KAOH AOH20160730121511807/30/16 12:15:31  5-MIN KAOH 301715Z AUTO 28006KT 10SM SCT017 BKN025 25/22 A2998 920 81 2300 290/06 RMK AO2 T02500217
04850KAOH AOH20160730122013407/30/16 12:20:31  5-MIN KAOH 301720Z AUTO 29007KT 260V330 10SM SCT017 BKN025 25/22 A2998 920 81 2300 300/07 270V340 RMK AO2 T02500217
04850KAOH AOH20160730122511807/30/16 12:25:31  5-MIN KAOH 301725Z AUTO 27005KT 10SM SCT017 BKN025 26/22 A2998 930 79 2400 270/05 RMK AO2 T02560217
04850KAOH AOH20160730123011807/30/16 12:30:31  5-MIN KAOH 301730Z AUTO 28009KT 10SM BKN017 BKN025 26/21 A2997 930 76 2400 280/09 RMK AO2 T02560211
04850KAOH AOH20160730123511807/30/16 12:35:31  5-MIN KAOH 301735Z AUTO 25008KT 10SM BKN017 OVC027 26/21 A2997 930 76 2400 250/08 RMK AO2 T02560211
04850KAOH AOH20160730124011807/30/16 12:40:31  5-MIN KAOH 301740Z AUTO 28008KT 10SM FEW019 OVC027 26/21 A2997 930 73 2500 280/08 RMK AO2 T02610211
04850KAOH AOH20160730124511807/30/16 12:45:31  5-MIN KAOH 301745Z AUTO 25007KT 10SM FEW019 BKN027 26/21 A2997 930 73 2500 260/07 RMK AO2 T02610211
04850KAOH AOH20160730125014307/30/16 12:50:31  5-MIN KAOH 301750Z AUTO 25008KT 10SM FEW019 BKN027 26/21 A2997 930 73 2500 260/08 RMK AO2 SLP141 T02610211 10261 20222 53009
04850KAOH AOH20160730125511807/30/16 12:55:31  5-MIN KAOH 301755Z AUTO 23007KT 10SM FEW019 BKN027 27/21 A2997 930 69 2500 240/07 RMK AO2 T02670206
04850KAOH AOH20160730130011107/30/16 13:00:31  5-MIN KAOH 301800Z AUTO 28007KT 10SM BKN025 27/21 A2997 930 71 2500 290/07 RMK AO2 T02670211
04850KAOH AOH20160730130511107/30/16 13:05:31  5-MIN KAOH 301805Z AUTO 27007KT 10SM SCT025 27/21 A2997 930 71 2500 270/07 RMK AO2 T02670211
04850KAOH AOH20160730131011107/30/16 13:10:31  5-MIN KAOH 301810Z AUTO 29008KT 10SM SCT025 27/22 A2997 930 73 2500 300/08 RMK AO2 T02670217
04850KAOH AOH20160730131511807/30/16 13:15:31  5-MIN KAOH 301815Z AUTO 30007KT 10SM BKN024 BKN029 26/21 A2997 930 76 2400 310/07 RMK AO2 T02560211
04850KAOH AOH20160730132011107/30/16 13:20:31  5-MIN KAOH 301820Z AUTO 31008KT 10SM BKN026 26/21 A2997 930 73 2500 310/08 RMK AO2 T02610211
04850KAOH AOH20160730132511107/30/16 13:25:31  5-MIN KAOH 301825Z AUTO 29005KT 10SM BKN026 26/21 A2997 930 73 2500 300/05 RMK AO2 T02610211
04850KAOH AOH20160730133012707/30/16 13:30:31  5-MIN KAOH 301830Z AUTO 30007KT 270V330 10SM BKN026 27/21 A2997 930 71 2500 310/07 280V340 RMK AO2 T02670211
04850KAOH AOH20160730133511107/30/16 13:35:31  5-MIN KAOH 301835Z AUTO VRB05KT 10SM BKN026 27/22 A2996 940 73 2500 VRB/05 RMK AO2 T02670217
04850KAOH AOH20160730134011107/30/16 13:40:31  5-MIN KAOH 301840Z AUTO VRB03KT 10SM BKN026 26/21 A2996 940 73 2500 VRB/03 RMK AO2 T02610211
04850KAOH AOH20160730134511107/30/16 13:45:31  5-MIN KAOH 301845Z AUTO VRB04KT 10SM BKN026 26/21 A2996 950 71 2500 VRB/04 RMK AO2 T02610206
04850KAOH AOH20160730135011807/30/16 13:50:31  5-MIN KAOH 301850Z AUTO 31008KT 10SM BKN026 27/22 A2995 950 71 2600 320/08 RMK AO2 SLP136 T02720217
04850KAOH AOH20160730135510107/30/16 13:55:31  5-MIN KAOH 301855Z AUTO 10SM BKN026 26/21 A2995 950 73 2500 M /M RMK AO2 T02610211
04850KAOH AOH20160730140011107/30/16 14:00:31  5-MIN KAOH 301900Z AUTO 34008KT 10SM BKN026 27/21 A2995 950 69 2600 350/08 RMK AO2 T02720211
04850KAOH AOH20160730140511107/30/16 14:05:31  5-MIN KAOH 301905Z AUTO 33007KT 10SM SCT026 27/22 A2995 950 71 2600 340/07 RMK AO2 T02720217
04850KAOH AOH20160730141011107/30/16 14:10:31  5-MIN KAOH 301910Z AUTO 31004KT 10SM SCT026 26/21 A2995 950 73 2500 320/04 RMK AO2 T02610211
04850KAOH AOH20160730141511107/30/16 14:15:31  5-MIN KAOH 301915Z AUTO 33005KT 10SM SCT026 26/21 A2995 950 71 2500 340/05 RMK AO2 T02610206
04850KAOH AOH20160730142011107/30/16 14:20:31  5-MIN KAOH 301920Z AUTO 34006KT 10SM SCT026 26/21 A2995 950 73 2500 340/06 RMK AO2 T02610211
04850KAOH AOH20160730142511107/30/16 14:25:31  5-MIN KAOH 301925Z AUTO 30006KT 10SM SCT026 26/21 A2995 950 71 2500 310/06 RMK AO2 T02610206
04850KAOH AOH20160730143011107/30/16 14:30:31  5-MIN KAOH 301930Z AUTO 31004KT 10SM FEW027 27/21 A2995 950 69 2600 320/04 RMK AO2 T02720211
04850KAOH AOH20160730143511107/30/16 14:35:31  5-MIN KAOH 301935Z AUTO 34008KT 10SM SCT027 27/21 A2994 960 71 2600 350/08 RMK AO2 T02670211
04850KAOH AOH20160730144011107/30/16 14:40:31  5-MIN KAOH 301940Z AUTO 33007KT 10SM FEW027 27/22 A2995 950 71 2600 340/07 RMK AO2 T02720217
04850KAOH AOH20160730144511107/30/16 14:45:31  5-MIN KAOH 301945Z AUTO 35008KT 10SM SCT028 27/22 A2994 960 71 2600 350/08 RMK AO2 T02720217
04850KAOH AOH20160730145011807/30/16 14:50:31  5-MIN KAOH 301950Z AUTO 34009KT 10SM FEW026 27/22 A2994 960 71 2600 350/09 RMK AO2 SLP132 T02720217
04850KAOH AOH20160730145511107/30/16 14:55:31  5-MIN KAOH 301955Z AUTO 34008KT 10SM SCT026 27/22 A2994 960 71 2600 350/08 RMK AO2 T02720217
04850KAOH AOH20160730150011107/30/16 15:00:31  5-MIN KAOH 302000Z AUTO 33009KT 10SM SCT026 28/22 A2994 960 69 2700 330/09 RMK AO2 T02780217
04850KAOH AOH20160730150511107/30/16 15:05:31  5-MIN KAOH 302005Z AUTO VRB04KT 10SM FEW026 27/22 A2994 960 71 2600 VRB/04 RMK AO2 T02720217
04850KAOH AOH20160730151011107/30/16 15:10:31  5-MIN KAOH 302010Z AUTO 31008KT 10SM FEW026 27/21 A2994 960 69 2600 310/08 RMK AO2 T02720211
04850KAOH AOH20160730151511107/30/16 15:15:31  5-MIN KAOH 302015Z AUTO 29005KT 10SM FEW026 28/22 A2994 960 69 2700 300/05 RMK AO2 T02780217
04850KAOH AOH20160730152011107/30/16 15:20:31  5-MIN KAOH 302020Z AUTO 30007KT 10SM FEW026 28/22 A2994 960 69 2700 310/07 RMK AO2 T02780217
04850KAOH AOH20160730152510807/30/16 15:25:31  5-MIN KAOH 302025Z AUTO 32007KT 10SM CLR 27/21 A2994 960 69 2600 320/07 RMK AO2 T02720211
04850KAOH AOH20160730153011107/30/16 15:30:31  5-MIN KAOH 302030Z AUTO 34008KT 10SM FEW028 28/22 A2994 960 69 2700 350/08 RMK AO2 T02780217
04850KAOH AOH20160730153511107/30/16 15:35:31  5-MIN KAOH 302035Z AUTO 33006KT 10SM FEW028 27/21 A2994 960 69 2600 340/06 RMK AO2 T02720211
04850KAOH AOH20160730154010807/30/16 15:40:31  5-MIN KAOH 302040Z AUTO 33008KT 10SM CLR 27/22 A2994 960 71 2600 330/08 RMK AO2 T02720217
04850KAOH AOH20160730154511107/30/16 15:45:31  5-MIN KAOH 302045Z AUTO 35006KT 10SM SCT028 27/21 A2994 960 69 2600 360/06 RMK AO2 T02720211
04850KAOH AOH20160730155012407/30/16 15:50:31  5-MIN KAOH 302050Z AUTO 34009KT 10SM SCT028 28/21 A2994 960 66 2700 350/09 RMK AO2 SLP130 T02780211 58000
04850KAOH AOH20160730155511107/30/16 15:55:31  5-MIN KAOH 302055Z AUTO 35005KT 10SM SCT029 28/21 A2994 960 66 2700 350/05 RMK AO2 T02780211
04850KAOH AOH20160730160011107/30/16 16:00:31  5-MIN KAOH 302100Z AUTO VRB05KT 10SM FEW029 28/21 A2993 960 66 2700 VRB/05 RMK AO2 T02780211
04850KAOH AOH20160730160511107/30/16 16:05:31  5-MIN KAOH 302105Z AUTO 35007KT 10SM FEW029 28/21 A2993 960 66 2700 360/07 RMK AO2 T02780211
04850KAOH AOH20160730161011107/30/16 16:10:31  5-MIN KAOH 302110Z AUTO 36007KT 10SM FEW029 28/21 A2994 960 66 2700 010/07 RMK AO2 T02780211
04850KAOH AOH20160730161511107/30/16 16:15:31  5-MIN KAOH 302115Z AUTO 33005KT 10SM FEW031 28/21 A2993 960 66 2700 340/05 RMK AO2 T02780211
04850KAOH AOH20160730162010807/30/16 16:20:31  5-MIN KAOH 302120Z AUTO 34004KT 10SM CLR 28/22 A2994 960 69 2700 350/04 RMK AO2 T02780217
04850KAOH AOH20160730162510807/30/16 16:25:31  5-MIN KAOH 302125Z AUTO 31006KT 10SM CLR 27/21 A2994 960 66 2600 320/06 RMK AO2 T02720206
04850KAOH AOH20160730163009807/30/16 16:30:31  5-MIN KAOH 302130Z AUTO 10SM CLR 28/21 A2994 960 64 2700 M /M RMK AO2 T02780206
04850KAOH AOH20160730163510807/30/16 16:35:31  5-MIN KAOH 302135Z AUTO 33007KT 10SM CLR 28/21 A2994 960 64 2700 340/07 RMK AO2 T02780206
04850KAOH AOH20160730164010807/30/16 16:40:31  5-MIN KAOH 302140Z AUTO 35006KT 10SM CLR 28/21 A2994 960 66 2700 360/06 RMK AO2 T02780211
04850KAOH AOH20160730164510807/30/16 16:45:31  5-MIN KAOH 302145Z AUTO 36006KT 10SM CLR 27/21 A2994 960 66 2600 010/06 RMK AO2 T02720206
04850KAOH AOH20160730165011507/30/16 16:50:31  5-MIN KAOH 302150Z AUTO 36005KT 10SM CLR 27/20 A2994 960 64 2600 360/05 RMK AO2 SLP131 T02720200
04850KAOH AOH20160730165511107/30/16 16:55:31  5-MIN KAOH 302155Z AUTO 33005KT 10SM FEW044 27/21 A2994 960 66 2600 340/05 RMK AO2 T02720206
04850KAOH AOH20160730170011107/30/16 17:00:31  5-MIN KAOH 302200Z AUTO 34005KT 10SM FEW040 27/21 A2994 960 66 2600 350/05 RMK AO2 T02720206
04850KAOH AOH20160730170511107/30/16 17:05:31  5-MIN KAOH 302205Z AUTO 36007KT 10SM FEW040 27/21 A2994 960 66 2600 360/07 RMK AO2 T02720206
04850KAOH AOH20160730171011107/30/16 17:10:31  5-MIN KAOH 302210Z AUTO 36006KT 10SM FEW041 28/21 A2994 960 64 2700 010/06 RMK AO2 T02780206
04850KAOH AOH20160730171511107/30/16 17:15:31  5-MIN KAOH 302215Z AUTO 36008KT 10SM FEW041 28/21 A2994 960 64 2700 010/08 RMK AO2 T02780206
04850KAOH AOH20160730172011107/30/16 17:20:31  5-MIN KAOH 302220Z AUTO 33007KT 10SM FEW041 27/20 A2994 960 64 2600 330/07 RMK AO2 T02720200
04850KAOH AOH20160730172510807/30/16 17:25:31  5-MIN KAOH 302225Z AUTO VRB05KT 10SM CLR 27/20 A2994 960 66 2600 VRB/05 RMK AO2 T02670200
04850KAOH AOH20160730173010807/30/16 17:30:31  5-MIN KAOH 302230Z AUTO 35006KT 10SM CLR 27/21 A2994 960 69 2600 350/06 RMK AO2 T02670206
04850KAOH AOH20160730173510807/30/16 17:35:31  5-MIN KAOH 302235Z AUTO 36008KT 10SM CLR 28/21 A2994 960 64 2700 360/08 RMK AO2 T02780206
04850KAOH AOH20160730174010807/30/16 17:40:31  5-MIN KAOH 302240Z AUTO 36006KT 10SM CLR 27/21 A2994 960 66 2600 010/06 RMK AO2 T02720206
04850KAOH AOH20160730174511907/30/16 17:45:31  5-MIN KAOH 302245Z AUTO 36007KT 10SM CLR 27/21 A2994 960 66 2600 010/07 RMK AO2 LTG DSNT S T02720206
04850KAOH AOH20160730175012607/30/16 17:50:31  5-MIN KAOH 302250Z AUTO 34006KT 10SM CLR 27/20 A2994 960 64 2600 350/06 RMK AO2 LTG DSNT S SLP130 T02720200
04850KAOH AOH20160730175511907/30/16 17:55:31  5-MIN KAOH 302255Z AUTO 35005KT 10SM CLR 27/20 A2993 970 64 2600 360/05 RMK AO2 LTG DSNT S T02720200
04850KAOH AOH20160730180011907/30/16 18:00:31  5-MIN KAOH 302300Z AUTO 35006KT 10SM CLR 27/20 A2993 970 64 2600 360/06 RMK AO2 LTG DSNT S T02720200
04850KAOH AOH20160730180511907/30/16 18:05:31  5-MIN KAOH 302305Z AUTO 36006KT 10SM CLR 27/21 A2992 970 66 2600 010/06 RMK AO2 LTG DSNT S T02720206
04850KAOH AOH20160730181010807/30/16 18:10:31  5-MIN KAOH 302310Z AUTO 01005KT 10SM CLR 27/21 A2992 980 66 2600 020/05 RMK AO2 T02720206
04850KAOH AOH20160730181510807/30/16 18:15:31  5-MIN KAOH 302315Z AUTO 35004KT 10SM CLR 27/20 A2992 980 64 2600 360/04 RMK AO2 T02720200
04850KAOH AOH20160730182010807/30/16 18:20:31  5-MIN KAOH 302320Z AUTO 35004KT 10SM CLR 27/20 A2992 980 64 2600 360/04 RMK AO2 T02720200
04850KAOH AOH20160730182510807/30/16 18:25:31  5-MIN KAOH 302325Z AUTO 01004KT 10SM CLR 27/21 A2992 980 69 2600 010/04 RMK AO2 T02670206
04850KAOH AOH20160730183010807/30/16 18:30:31  5-MIN KAOH 302330Z AUTO 35005KT 10SM CLR 27/21 A2992 970 66 2600 360/05 RMK AO2 T02720206
04850KAOH AOH20160730183510807/30/16 18:35:31  5-MIN KAOH 302335Z AUTO 35006KT 10SM CLR 27/21 A2993 970 69 2600 360/06 RMK AO2 T02670206
04850KAOH AOH20160730184010807/30/16 18:40:31  5-MIN KAOH 302340Z AUTO 36006KT 10SM CLR 26/20 A2993 970 68 2500 360/06 RMK AO2 T02610200
04850KAOH AOH20160730184510807/30/16 18:45:31  5-MIN KAOH 302345Z AUTO 35004KT 10SM CLR 26/20 A2993 970 68 2500 350/04 RMK AO2 T02610200
04850KAOH AOH20160730185013307/30/16 18:50:31  5-MIN KAOH 302350Z AUTO 36003KT 10SM CLR 27/21 A2994 960 69 2600 010/03 RMK AO2 SLP130 T02670206 10283 20256 56011
04850KAOH AOH20160730185510807/30/16 18:55:31  5-MIN KAOH 302355Z AUTO 01004KT 10SM CLR 26/21 A2994 960 71 2500 010/04 RMK AO2 T02610206
04850KAOH AOH20160730190010807/30/16 19:00:31  5-MIN KAOH 310000Z AUTO 01004KT 10SM CLR 26/21 A2994 960 73 2500 010/04 RMK AO2 T02610211
04850KAOH AOH20160730190510807/30/16 19:05:31  5-MIN KAOH 310005Z AUTO 36005KT 10SM CLR 26/21 A2994 960 73 2500 010/05 RMK AO2 T02610211
04850KAOH AOH20160730191010807/30/16 19:10:31  5-MIN KAOH 310010Z AUTO 36005KT 10SM CLR 26/21 A2994 960 76 2400 360/05 RMK AO2 T02560211
04850KAOH AOH20160730191510807/30/16 19:15:31  5-MIN KAOH 310015Z AUTO 36005KT 10SM CLR 26/21 A2994 960 76 2400 010/05 RMK AO2 T02560211
04850KAOH AOH20160730192011107/30/16 19:20:31  5-MIN KAOH 310020Z AUTO 36004KT 10SM FEW055 25/21 A2994 960 79 2400 360/04 RMK AO2 T02500211
04850KAOH AOH20160730192511107/30/16 19:25:31  5-MIN KAOH 310025Z AUTO 36004KT 10SM FEW055 25/21 A2994 960 79 2400 010/04 RMK AO2 T02500211
04850KAOH AOH20160730193011107/30/16 19:30:31  5-MIN KAOH 310030Z AUTO 01004KT 10SM FEW055 25/21 A2994 960 79 2400 010/04 RMK AO2 T02500211
04850KAOH AOH20160730193510807/30/16 19:35:31  5-MIN KAOH 310035Z AUTO 02005KT 10SM CLR 24/21 A2994 960 81 2300 030/05 RMK AO2 T02440211
04850KAOH AOH20160730194010807/30/16 19:40:31  5-MIN KAOH 310040Z AUTO 03004KT 10SM CLR 24/21 A2994 960 81 2300 040/04 RMK AO2 T02440211
04850KAOH AOH20160730194511107/30/16 19:45:31  5-MIN KAOH 310045Z AUTO 04003KT 10SM FEW039 24/21 A2994 960 81 2300 050/03 RMK AO2 T02440211
04850KAOH AOH20160730195011807/30/16 19:50:31  5-MIN KAOH 310050Z AUTO 05003KT 10SM FEW039 24/21 A2994 960 81 2300 050/03 RMK AO2 SLP132 T02440211
04850KAOH AOH20160730195511107/30/16 19:55:31  5-MIN KAOH 310055Z AUTO 05003KT 10SM FEW039 24/21 A2994 950 81 2300 060/03 RMK AO2 T02440211
04850KAOH AOH20160730200011107/30/16 20:00:31  5-MIN KAOH 310100Z AUTO 05003KT 10SM FEW039 24/21 A2995 950 81 2300 060/03 RMK AO2 T02440211
04850KAOH AOH20160730200511107/30/16 20:05:31  5-MIN KAOH 310105Z AUTO 03003KT 10SM FEW039 24/21 A2995 950 81 2300 030/03 RMK AO2 T02440211
04850KAOH AOH20160730201011107/30/16 20:10:31  5-MIN KAOH 310110Z AUTO 00000KT 10SM FEW039 24/21 A2995 950 84 2200 000/00 RMK AO2 T02390211
04850KAOH AOH20160730201512507/30/16 20:15:31  5-MIN KAOH 310115Z AUTO 00000KT 10SM FEW041 SCT050 SCT065 24/21 A2996 940 84 2200 000/00 RMK AO2 T02390211
04850KAOH AOH20160730202012507/30/16 20:20:31  5-MIN KAOH 310120Z AUTO 03004KT 10SM SCT041 SCT050 BKN070 24/21 A2996 950 84 2200 030/04 RMK AO2 T02390211
04850KAOH AOH20160730202511807/30/16 20:25:31  5-MIN KAOH 310125Z AUTO 02004KT 10SM BKN045 BKN070 23/22 A2995 950 90 2200 030/04 RMK AO2 T02330217
04850KAOH AOH20160730203011807/30/16 20:30:31  5-MIN KAOH 310130Z AUTO 04003KT 10SM BKN045 BKN060 23/22 A2995 950 90 2200 040/03 RMK AO2 T02330217
04850KAOH AOH20160730203512507/30/16 20:35:31  5-MIN KAOH 310135Z AUTO 05003KT 10SM SCT043 BKN050 BKN065 24/21 A2995 950 84 2200 050/03 RMK AO2 T02390211
04850KAOH AOH20160730204012507/30/16 20:40:31  5-MIN KAOH 310140Z AUTO 03004KT 10SM BKN045 BKN060 BKN080 23/21 A2996 940 87 2200 030/04 RMK AO2 T02330211
04850KAOH AOH20160730204512507/30/16 20:45:31  5-MIN KAOH 310145Z AUTO 35003KT 10SM BKN045 BKN060 OVC080 23/22 A2996 940 90 2200 350/03 RMK AO2 T02330217
04850KAOH AOH20160730205013207/30/16 20:50:31  5-MIN KAOH 310150Z AUTO 26003KT 10SM BKN045 BKN060 OVC085 23/22 A2996 940 90 2200 260/03 RMK AO2 SLP138 T02330217
04850KAOH AOH20160730205512507/30/16 20:55:31  5-MIN KAOH 310155Z AUTO 00000KT 10SM SCT045 BKN060 BKN080 23/22 A2996 940 90 2200 000/00 RMK AO2 T02330217
04850KAOH AOH20160730210012507/30/16 21:00:31  5-MIN KAOH 310200Z AUTO 00000KT 10SM FEW037 SCT045 BKN080 24/21 A2996 940 84 2200 000/00 RMK AO2 T02390211
04850KAOH AOH20160730210512507/30/16 21:05:31  5-MIN KAOH 310205Z AUTO 00000KT 10SM FEW035 BKN045 BKN060 24/21 A2996 940 81 2300 000/00 RMK AO2 T02440211
04850KAOH AOH20160730211012507/30/16 21:10:31  5-MIN KAOH 310210Z AUTO 06003KT 10SM FEW035 BKN043 BKN065 24/21 A2996 940 81 2300 070/03 RMK AO2 T02440211
04850KAOH AOH20160730211512507/30/16 21:15:31  5-MIN KAOH 310215Z AUTO 04003KT 10SM FEW035 BKN043 BKN065 24/21 A2996 940 84 2200 040/03 RMK AO2 T02390211
04850KAOH AOH20160730212011807/30/16 21:20:31  5-MIN KAOH 310220Z AUTO 03004KT 10SM FEW035 SCT044 23/21 A2996 940 87 2200 040/04 RMK AO2 T02330211
04850KAOH AOH20160730212511807/30/16 21:25:31  5-MIN KAOH 310225Z AUTO 05003KT 10SM FEW035 SCT044 23/21 A2997 940 90 2100 060/03 RMK AO2 T02280211
04850KAOH AOH20160730213011107/30/16 21:30:31  5-MIN KAOH 310230Z AUTO 10006KT 10SM FEW044 23/21 A2997 930 90 2100 110/06 RMK AO2 T02280211
04850KAOH AOH20160730213511107/30/16 21:35:31  5-MIN KAOH 310235Z AUTO 08004KT 10SM FEW044 23/21 A2997 930 90 2100 090/04 RMK AO2 T02280211
04850KAOH AOH20160730214011107/30/16 21:40:31  5-MIN KAOH 310240Z AUTO 08003KT 10SM FEW042 22/21 A2997 930 93 2000 090/03 RMK AO2 T02220211
04850KAOH AOH20160730214512007/30/16 21:45:31  5-MIN KAOH 310245Z AUTO 06003KT 10SM CLR 22/21 A2997 930 93 2000 070/03 RMK AO2 LTG DSNT NW T02220211
04850KAOH AOH20160730215013307/30/16 21:50:31  5-MIN KAOH 310250Z AUTO 08006KT 10SM CLR 22/21 A2997 930 90 2000 090/06 RMK AO2 LTG DSNT NW SLP142 T02220206 51000
04850KAOH AOH20160730215512007/30/16 21:55:31  5-MIN KAOH 310255Z AUTO 11006KT 10SM CLR 22/21 A2997 930 90 2000 110/06 RMK AO2 LTG DSNT NW T02220206
04850KAOH AOH20160730220012007/30/16 22:00:31  5-MIN KAOH 310300Z AUTO 13007KT 10SM CLR 23/21 A2998 930 90 2100 140/07 RMK AO2 LTG DSNT NW T02280211
04850KAOH AOH20160730220512007/30/16 22:05:31  5-MIN KAOH 310305Z AUTO 12005KT 10SM CLR 22/21 A2998 920 90 2000 130/05 RMK AO2 LTG DSNT NW T02220206
04850KAOH AOH20160730221010807/30/16 22:10:31  5-MIN KAOH 310310Z AUTO 12004KT 10SM CLR 22/21 A2998 920 90 2000 130/04 RMK AO2 T02220206
04850KAOH AOH20160730221510807/30/16 22:15:31  5-MIN KAOH 310315Z AUTO 13004KT 10SM CLR 22/21 A2998 920 90 2000 130/04 RMK AO2 T02220206
04850KAOH AOH20160730222010807/30/16 22:20:31  5-MIN KAOH 310320Z AUTO 13004KT 10SM CLR 22/21 A2998 920 90 2000 140/04 RMK AO2 T02220206
04850KAOH AOH20160730222510807/30/16 22:25:31  5-MIN KAOH 310325Z AUTO 13004KT 10SM CLR 22/21 A2998 930 93 2000 130/04 RMK AO2 T02170206
04850KAOH AOH20160730223010807/30/16 22:30:31  5-MIN KAOH 310330Z AUTO 12003KT 10SM CLR 22/21 A2997 930 93 2000 120/03 RMK AO2 T02170206
04850KAOH AOH20160730223510807/30/16 22:35:31  5-MIN KAOH 310335Z AUTO 11003KT 10SM CLR 22/21 A2997 930 93 2000 120/03 RMK AO2 T02170206
04850KAOH AOH20160730224010807/30/16 22:40:31  5-MIN KAOH 310340Z AUTO 12004KT 10SM CLR 22/21 A2997 930 93 2000 130/04 RMK AO2 T02170206
04850KAOH AOH20160730224510807/30/16 22:45:31  5-MIN KAOH 310345Z AUTO 12004KT 10SM CLR 22/21 A2997 930 93 2000 130/04 RMK AO2 T02170206
04850KAOH AOH20160730225012607/30/16 22:50:31  5-MIN KAOH 310350Z AUTO 00000KT 10SM CLR 22/21 A2997 930 93 2000 000/00 RMK AO2 LTG DSNT N SLP143 T02170206
04850KAOH AOH20160730225511907/30/16 22:55:31  5-MIN KAOH 310355Z AUTO 00000KT 10SM CLR 22/21 A2998 930 93 2000 000/00 RMK AO2 LTG DSNT N T02170206
04850KAOH AOH20160730230011907/30/16 23:00:31  5-MIN KAOH 310400Z AUTO 00000KT 10SM CLR 22/21 A2998 920 93 2000 000/00 RMK AO2 LTG DSNT N T02170206
04850KAOH AOH20160730230511907/30/16 23:05:31  5-MIN KAOH 310405Z AUTO 00000KT 10SM CLR 22/21 A2998 920 93 1900 000/00 RMK AO2 LTG DSNT N T02170206
04850KAOH AOH20160730231011907/30/16 23:10:31  5-MIN KAOH 310410Z AUTO 00000KT 10SM CLR 22/21 A2998 920 93 1900 000/00 RMK AO2 LTG DSNT N T02170206
04850KAOH AOH20160730231510807/30/16 23:15:31  5-MIN KAOH 310415Z AUTO 13003KT 10SM CLR 21/21 A2998 920 97 1900 140/03 RMK AO2 T02110206
04850KAOH AOH20160730232010807/30/16 23:20:31  5-MIN KAOH 310420Z AUTO 00000KT 10SM CLR 21/21 A2998 920 97 1900 000/00 RMK AO2 T02110206
04850KAOH AOH20160730232510807/30/16 23:25:31  5-MIN KAOH 310425Z AUTO 17003KT 10SM CLR 21/21 A2998 920 97 1900 170/03 RMK AO2 T02110206
04850KAOH AOH20160730233010807/30/16 23:30:31  5-MIN KAOH 310430Z AUTO 16003KT 10SM CLR 21/21 A2998 920 97 1900 160/03 RMK AO2 T02110206
04850KAOH AOH20160730233510807/30/16 23:35:31  5-MIN KAOH 310435Z AUTO 00000KT 10SM CLR 21/21 A2998 920 97 1900 000/00 RMK AO2 T02110206
04850KAOH AOH20160730234010807/30/16 23:40:31  5-MIN KAOH 310440Z AUTO 00000KT 10SM CLR 21/20 A2998 920 97 1800 000/00 RMK AO2 T02060200
04850KAOH AOH20160730234510807/30/16 23:45:31  5-MIN KAOH 310445Z AUTO 00000KT 10SM CLR 21/20 A2998 920 97 1800 000/00 RMK AO2 T02060200
04850KAOH AOH20160730235012507/30/16 23:50:31  5-MIN KAOH 310450Z AUTO 18003KT 10SM CLR 21/20 A2998 930 97 1800 180/03 RMK AO2 SLP143 T02060200 402830189
04850KAOH AOH20160730235510807/30/16 23:55:31  5-MIN KAOH 310455Z AUTO 18004KT 10SM CLR 21/20 A2997 930 93 1900 180/04 RMK AO2 T02110200
04850KAOH AOH20160731000010807/31/16 00:00:31  5-MIN KAOH 310500Z AUTO 18005KT 10SM CLR 21/20 A2997 930 93 1900 180/05 RMK AO2 T02110200
04850KAOH AOH20160731000510807/31/16 00:05:31  5-MIN KAOH 310505Z AUTO 19005KT 10SM CLR 21/20 A2997 930 93 1900 190/05 RMK AO2 T02110200
04850KAOH AOH20160731001010807/31/16 00:10:31  5-MIN KAOH 310510Z AUTO 19004KT 10SM CLR 21/20 A2997 930 97 1800 200/04 RMK AO2 T02060200
04850KAOH AOH20160731001510807/31/16 00:15:31  5-MIN KAOH 310515Z AUTO 21003KT 10SM CLR 21/20 A2997 930 97 1800 210/03 RMK AO2 T02060200
04850KAOH AOH20160731002010907/31/16 00:20:31  5-MIN KAOH 310520Z AUTO 29004KT 10SM CLR 20/20 A2997 930 100 1800 300/04 RMK AO2 T02000200
04850KAOH AOH20160731002510807/31/16 00:25:31  5-MIN KAOH 310525Z AUTO 25003KT 8SM CLR 19/19 A2997 930 100 1700 260/03 RMK AO2 T01940194
04850KAOH AOH20160731003010807/31/16 00:30:31  5-MIN KAOH 310530Z AUTO 00000KT 8SM CLR 20/20 A2997 930 100 1800 000/00 RMK AO2 T02000200
04850KAOH AOH20160731003510707/31/16 00:35:31  5-MIN KAOH 310535Z AUTO 00000KT 9SM CLR 20/19 A2997 930 97 1800 000/00 RMK AO2 T02000194
04850KAOH AOH20160731004010807/31/16 00:40:31  5-MIN KAOH 310540Z AUTO 00000KT 9SM CLR 19/19 A2996 940 100 1700 000/00 RMK AO2 T01940194
04850KAOH AOH20160731004510807/31/16 00:45:31  5-MIN KAOH 310545Z AUTO 00000KT 8SM CLR 19/19 A2996 940 100 1700 000/00 RMK AO2 T01940194
04850KAOH AOH20160731005013207/31/16 00:50:31  5-MIN KAOH 310550Z AUTO 00000KT 7SM CLR 19/19 A2997 930 97 1700 000/00 RMK AO2 SLP140 T01940189 10261 20194 53012
04850KAOH AOH20160731005510807/31/16 00:55:31  5-MIN KAOH 310555Z AUTO 00000KT 7SM CLR 19/19 A2997 930 100 1700 000/00 RMK AO2 T01940194
04850KAOH AOH20160731010010807/31/16 01:00:31  5-MIN KAOH 310600Z AUTO 00000KT 8SM CLR 19/19 A2997 930 100 1700 000/00 RMK AO2 T01940194
04850KAOH AOH20160731010510807/31/16 01:05:31  5-MIN KAOH 310605Z AUTO 00000KT 10SM CLR 20/19 A2997 930 97 1800 000/00 RMK AO2 T02000194
04850KAOH AOH20160731011010807/31/16 01:10:31  5-MIN KAOH 310610Z AUTO 01005KT 9SM CLR 19/19 A2997 930 100 1600 020/05 RMK AO2 T01890189
04850KAOH AOH20160731011511107/31/16 01:15:31  5-MIN KAOH 310615Z AUTO 02003KT 6SM BR CLR 19/19 A2997 930 100 1600 030/03 RMK AO2 T01890189
04850KAOH AOH20160731012011107/31/16 01:20:31  5-MIN KAOH 310620Z AUTO 02003KT 6SM BR CLR 19/19 A2997 930 100 1700 020/03 RMK AO2 T01940194
04850KAOH AOH20160731012511107/31/16 01:25:31  5-MIN KAOH 310625Z AUTO 00000KT 6SM BR CLR 19/19 A2997 930 100 1600 000/00 RMK AO2 T01890189
04850KAOH AOH20160731013011107/31/16 01:30:31  5-MIN KAOH 310630Z AUTO 00000KT 5SM BR CLR 19/19 A2997 930 100 1600 000/00 RMK AO2 T01890189
04850KAOH AOH20160731013511107/31/16 01:35:31  5-MIN KAOH 310635Z AUTO 00000KT 5SM BR CLR 19/19 A2997 930 100 1600 000/00 RMK AO2 T01890189
04850KAOH AOH20160731014011107/31/16 01:40:31  5-MIN KAOH 310640Z AUTO 06003KT 5SM BR CLR 19/19 A2998 930 100 1600 070/03 RMK AO2 T01890189
04850KAOH AOH20160731014511107/31/16 01:45:31  5-MIN KAOH 310645Z AUTO 07004KT 5SM BR CLR 19/19 A2997 930 100 1600 080/04 RMK AO2 T01890189
04850KAOH AOH20160731015011807/31/16 01:50:31  5-MIN KAOH 310650Z AUTO 00000KT 6SM BR CLR 19/19 A2997 930 100 1600 000/00 RMK AO2 SLP142 T01890189
04850KAOH AOH20160731015511107/31/16 01:55:31  5-MIN KAOH 310655Z AUTO 12004KT 6SM BR CLR 19/19 A2997 930 100 1600 130/04 RMK AO2 T01890189
04850KAOH AOH20160731020010807/31/16 02:00:31  5-MIN KAOH 310700Z AUTO 11003KT 8SM CLR 19/19 A2997 930 100 1600 110/03 RMK AO2 T01890189
04850KAOH AOH20160731020510807/31/16 02:05:31  5-MIN KAOH 310705Z AUTO 08003KT 8SM CLR 19/19 A2997 930 100 1600 090/03 RMK AO2 T01890189
04850KAOH AOH20160731021010807/31/16 02:10:31  5-MIN KAOH 310710Z AUTO 00000KT 7SM CLR 19/19 A2997 930 100 1600 000/00 RMK AO2 T01890189
04850KAOH AOH20160731021511107/31/16 02:15:31  5-MIN KAOH 310715Z AUTO 00000KT 6SM BR CLR 19/19 A2996 940 100 1600 000/00 RMK AO2 T01890189
04850KAOH AOH20160731022011107/31/16 02:20:31  5-MIN KAOH 310720Z AUTO 06003KT 6SM BR CLR 19/19 A2996 940 100 1600 070/03 RMK AO2 T01890189
04850KAOH AOH20160731022511107/31/16 02:25:31  5-MIN KAOH 310725Z AUTO 08003KT 5SM BR CLR 18/18 A2996 940 100 1600 090/03 RMK AO2 T01830183
04850KAOH AOH20160731023011107/31/16 02:30:31  5-MIN KAOH 310730Z AUTO 00000KT 5SM BR CLR 18/18 A2996 940 100 1600 000/00 RMK AO2 T01830183
04850KAOH AOH20160731023511107/31/16 02:35:31  5-MIN KAOH 310735Z AUTO 00000KT 6SM BR CLR 18/18 A2996 940 100 1600 000/00 RMK AO2 T01830183
04850KAOH AOH20160731024010807/31/16 02:40:31  5-MIN KAOH 310740Z AUTO 00000KT 7SM CLR 19/19 A2996 940 100 1700 000/00 RMK AO2 T01890189
04850KAOH AOH20160731024510807/31/16 02:45:31  5-MIN KAOH 310745Z AUTO 12003KT 9SM CLR 19/19 A2996 940 100 1700 130/03 RMK AO2 T01890189
04850KAOH AOH20160731025011507/31/16 02:50:31  5-MIN KAOH 310750Z AUTO 14003KT 9SM CLR 19/19 A2996 940 100 1700 140/03 RMK AO2 SLP138 T01890189
04850KAOH AOH20160731025510907/31/16 02:55:31  5-MIN KAOH 310755Z AUTO 14003KT 10SM CLR 19/19 A2996 940 100 1700 150/03 RMK AO2 T01890189
04850KAOH AOH20160731030010807/31/16 03:00:31  5-MIN KAOH 310800Z AUTO 00000KT 10SM CLR 19/19 A2996 940 97 1700 000/00 RMK AO2 T01940189
04850KAOH AOH20160731030510807/31/16 03:05:31  5-MIN KAOH 310805Z AUTO 15003KT 10SM CLR 19/19 A2996 940 97 1700 160/03 RMK AO2 T01940189
04850KAOH AOH20160731031010707/31/16 03:10:31  5-MIN KAOH 310810Z AUTO 15004KT 9SM CLR 19/19 A2996 940 97 1700 160/04 RMK AO2 T01940189
04850KAOH AOH20160731031510707/31/16 03:15:31  5-MIN KAOH 310815Z AUTO 15004KT 9SM CLR 19/19 A2996 940 97 1700 160/04 RMK AO2 T01940189
04850KAOH AOH20160731032010707/31/16 03:20:31  5-MIN KAOH 310820Z AUTO 15003KT 9SM CLR 19/19 A2996 940 97 1700 160/03 RMK AO2 T01940189
04850KAOH AOH20160731032510807/31/16 03:25:31  5-MIN KAOH 310825Z AUTO 00000KT 10SM CLR 19/19 A2996 940 97 1700 000/00 RMK AO2 T01940189
04850KAOH AOH20160731033010907/31/16 03:30:31  5-MIN KAOH 310830Z AUTO 16003KT 10SM CLR 19/19 A2996 940 100 1700 160/03 RMK AO2 T01890189
04850KAOH AOH20160731033510907/31/16 03:35:31  5-MIN KAOH 310835Z AUTO 16003KT 10SM CLR 19/19 A2996 940 100 1600 170/03 RMK AO2 T01890189
04850KAOH AOH20160731034010807/31/16 03:40:31  5-MIN KAOH 310840Z AUTO 17004KT 9SM CLR 19/19 A2996 940 100 1600 180/04 RMK AO2 T01890189
04850KAOH AOH20160731034510807/31/16 03:45:31  5-MIN KAOH 310845Z AUTO 18003KT 8SM CLR 19/19 A2996 940 100 1600 190/03 RMK AO2 T01890189
04850KAOH AOH20160731035012107/31/16 03:50:31  5-MIN KAOH 310850Z AUTO 19003KT 9SM CLR 19/19 A2996 940 100 1600 190/03 RMK AO2 SLP139 T01890189 58002
04850KAOH AOH20160731035510807/31/16 03:55:31  5-MIN KAOH 310855Z AUTO 19003KT 9SM CLR 19/19 A2996 940 100 1600 190/03 RMK AO2 T01890189
04850KAOH AOH20160731040010807/31/16 04:00:31  5-MIN KAOH 310900Z AUTO 19004KT 10SM CLR 19/19 A2997 940 97 1700 200/04 RMK AO2 T01940189
04850KAOH AOH20160731040510807/31/16 04:05:31  5-MIN KAOH 310905Z AUTO 20003KT 10SM CLR 19/19 A2997 940 97 1700 210/03 RMK AO2 T01940189
04850KAOH AOH20160731041010807/31/16 04:10:31  5-MIN KAOH 310910Z AUTO 00000KT 9SM CLR 19/19 A2997 940 100 1600 000/00 RMK AO2 T01890189
04850KAOH AOH20160731041510807/31/16 04:15:31  5-MIN KAOH 310915Z AUTO 00000KT 7SM CLR 18/18 A2997 930 100 1500 000/00 RMK AO2 T01780178
04850KAOH AOH20160731042011107/31/16 04:20:31  5-MIN KAOH 310920Z AUTO 00000KT 6SM BR CLR 18/18 A2997 930 100 1600 000/00 RMK AO2 T01830183
04850KAOH AOH20160731042510807/31/16 04:25:31  5-MIN KAOH 310925Z AUTO 00000KT 7SM CLR 18/18 A2997 930 100 1600 000/00 RMK AO2 T01830183
04850KAOH AOH20160731043011107/31/16 04:30:31  5-MIN KAOH 310930Z AUTO 00000KT 6SM BR CLR 18/18 A2997 930 100 1600 000/00 RMK AO2 T01830183
04850KAOH AOH20160731043511107/31/16 04:35:31  5-MIN KAOH 310935Z AUTO 00000KT 4SM BR CLR 18/18 A2997 930 100 1500 000/00 RMK AO2 T01780178
04850KAOH AOH20160731044011107/31/16 04:40:31  5-MIN KAOH 310940Z AUTO 00000KT 2SM BR CLR 18/18 A2997 930 100 1500 000/00 RMK AO2 T01780178
04850KAOH AOH20160731044511107/31/16 04:45:31  5-MIN KAOH 310945Z AUTO 25003KT 2SM BR CLR 18/18 A2997 930 100 1500 250/03 RMK AO2 T01780178
04850KAOH AOH20160731045011107/31/16 04:50:31  5-MIN KAOH 310950Z AUTO 00000KT 4SM BR CLR 18/18 A2998 930 100 1500 000/00 RMK AO2 T01780178
04850KAOH AOH20160731045511107/31/16 04:55:31  5-MIN KAOH 310955Z AUTO 33003KT 2SM BR CLR 17/17 A2998 920 100 1400 330/03 RMK AO2 T01720172
04850KAOH AOH20160731050011107/31/16 05:00:31  5-MIN KAOH 311000Z AUTO 00000KT 2SM BR CLR 18/18 A2998 920 100 1500 000/00 RMK AO2 T01780178
04850KAOH AOH20160731050511107/31/16 05:05:31  5-MIN KAOH 311005Z AUTO 35003KT 3SM BR CLR 18/18 A2998 920 100 1500 350/03 RMK AO2 T01780178
04850KAOH AOH20160731051011107/31/16 05:10:31  5-MIN KAOH 311010Z AUTO 00000KT 3SM BR CLR 18/18 A2998 920 100 1500 000/00 RMK AO2 T01780178
04850KAOH AOH20160731051511407/31/16 05:15:31  5-MIN KAOH 311015Z AUTO 00000KT 3SM BR FEW006 18/18 A2999 920 100 1600 000/00 RMK AO2 T01830183
04850KAOH AOH20160731052013007/31/16 05:20:31  5-MIN KAOH 311020Z AUTO 00000KT 2 1/2SM BR SCT004 18/18 A2999 910 100 1600 000/00 RMK AO2 VIS 1 1/2V4 T01830183
04850KAOH AOH20160731052513007/31/16 05:25:31  5-MIN KAOH 311025Z AUTO 01003KT 2 1/2SM BR BKN004 18/18 A2999 910 100 1500 010/03 RMK AO2 VIS 1 1/2V5 T01780178
04850KAOH AOH20160731053011407/31/16 05:30:31  5-MIN KAOH 311030Z AUTO 36004KT 4SM BR BKN004 18/18 A2999 910 100 1600 360/04 RMK AO2 T01830183
04850KAOH AOH20160731053511407/31/16 05:35:31  5-MIN KAOH 311035Z AUTO 36004KT 2SM BR BKN002 19/19 A2999 910 100 1600 010/04 RMK AO2 T01890189
04850KAOH AOH20160731054011507/31/16 05:40:31  5-MIN KAOH 311040Z AUTO 01004KT 3/4SM BR VV002 19/19 A2999 910 100 1700 010/04 RMK AO2 T01940194
04850KAOH AOH20160731054511507/31/16 05:45:31  5-MIN KAOH 311045Z AUTO 36004KT 1/4SM FG VV002 19/19 A3000 910 100 1700 360/04 RMK AO2 T01940194
04850KAOH AOH20160731055012207/31/16 05:50:31  5-MIN KAOH 311050Z AUTO 36003KT 1/4SM FG VV002 19/19 A3000 900 100 1700 360/03 RMK AO2 SLP151 T01940194
04850KAOH AOH20160731055511507/31/16 05:55:31  5-MIN KAOH 311055Z AUTO 36003KT 1/4SM FG VV002 19/19 A3000 900 100 1700 360/03 RMK AO2 T01940194
04850KAOH AOH20160731060011507/31/16 06:00:31  5-MIN KAOH 311100Z AUTO 00000KT 1/4SM FG VV002 19/19 A3000 900 100 1700 000/00 RMK AO2 T01940194
04850KAOH AOH20160731060511507/31/16 06:05:31  5-MIN KAOH 311105Z AUTO 00000KT 1/4SM FG VV002 19/19 A3000 900 100 1700 000/00 RMK AO2 T01940194
04850KAOH AOH20160731061011607/31/16 06:10:31  5-MIN KAOH 311110Z AUTO 00000KT M1/4SM FG VV002 19/19 A3000 900 100 1700 000/00 RMK AO2 T01940194
04850KAOH AOH20160731061511607/31/16 06:15:31  5-MIN KAOH 311115Z AUTO 00000KT M1/4SM FG VV002 19/19 A3000 900 100 1700 000/00 RMK AO2 T01940194
04850KAOH AOH20160731062011607/31/16 06:20:31  5-MIN KAOH 311120Z AUTO 00000KT M1/4SM FG VV002 19/19 A3001 900 100 1700 000/00 RMK AO2 T01940194
04850KAOH AOH20160731062511607/31/16 06:25:31  5-MIN KAOH 311125Z AUTO 00000KT M1/4SM FG VV002 20/20 A3001 900 100 1700 000/00 RMK AO2 T02000200
04850KAOH AOH20160731063011607/31/16 06:30:31  5-MIN KAOH 311130Z AUTO 00000KT M1/4SM FG VV002 20/20 A3001 890 100 1700 000/00 RMK AO2 T02000200
04850KAOH AOH20160731063511607/31/16 06:35:31  5-MIN KAOH 311135Z AUTO 00000KT M1/4SM FG VV002 20/20 A3001 890 100 1700 000/00 RMK AO2 T02000200
04850KAOH AOH20160731064011507/31/16 06:40:31  5-MIN KAOH 311140Z AUTO 00000KT 1/4SM FG VV002 20/20 A3001 890 100 1700 000/00 RMK AO2 T02000200
04850KAOH AOH20160731064511507/31/16 06:45:31  5-MIN KAOH 311145Z AUTO 00000KT 1/4SM FG VV002 20/20 A3002 890 100 1700 000/00 RMK AO2 T02000200
04850KAOH AOH20160731065014007/31/16 06:50:31  5-MIN KAOH 311150Z AUTO 00000KT 1/4SM FG VV002 20/20 A3002 890 100 1700 000/00 RMK AO2 SLP157 T02000200 10200 20178 55001
04850KAOH AOH20160731065511507/31/16 06:55:31  5-MIN KAOH 311155Z AUTO 01003KT 1/4SM FG VV002 20/20 A3002 890 100 1700 020/03 RMK AO2 T02000200
04850KAOH AOH20160731070011507/31/16 07:00:31  5-MIN KAOH 311200Z AUTO 01004KT 1/4SM FG VV002 21/21 A3002 890 100 1800 010/04 RMK AO2 T02060206
04850KAOH AOH20160731070511507/31/16 07:05:31  5-MIN KAOH 311205Z AUTO 00000KT 1/4SM FG VV002 21/21 A3002 890 100 1800 000/00 RMK AO2 T02060206
04850KAOH AOH20160731071011507/31/16 07:10:31  5-MIN KAOH 311210Z AUTO 36003KT 1/4SM FG VV002 21/21 A3002 890 100 1800 360/03 RMK AO2 T02060206
04850KAOH AOH20160731071511507/31/16 07:15:31  5-MIN KAOH 311215Z AUTO 00000KT 1/4SM FG VV002 21/21 A3002 880 100 1800 000/00 RMK AO2 T02060206
04850KAOH AOH20160731072011507/31/16 07:20:31  5-MIN KAOH 311220Z AUTO 00000KT 1/4SM FG VV002 21/21 A3002 880 100 1800 000/00 RMK AO2 T02060206
04850KAOH AOH20160731072511507/31/16 07:25:31  5-MIN KAOH 311225Z AUTO 00000KT 1/2SM FG VV002 21/21 A3002 880 100 1800 000/00 RMK AO2 T02060206
04850KAOH AOH20160731073011507/31/16 07:30:31  5-MIN KAOH 311230Z AUTO 00000KT 3/4SM BR VV002 21/21 A3002 880 100 1800 000/00 RMK AO2 T02060206
04850KAOH AOH20160731073511607/31/16 07:35:31  5-MIN KAOH 311235Z AUTO 34003KT 3/4SM BR OVC002 21/21 A3002 880 100 1800 340/03 RMK AO2 T02060206
04850KAOH AOH20160731074011807/31/16 07:40:31  5-MIN KAOH 311240Z AUTO 33004KT 1 1/2SM BR OVC002 21/21 A3002 880 100 1800 340/04 RMK AO2 T02060206
04850KAOH AOH20160731074511807/31/16 07:45:31  5-MIN KAOH 311245Z AUTO VRB03KT 2 1/2SM BR OVC002 21/21 A3002 880 100 1800 VRB/03 RMK AO2 T02060206
04850KAOH AOH20160731075010407/31/16 07:50:31  5-MIN KAOH 311250Z AUTO 30003KT 3SM BR OVC004 21/21 A3003 880 100 1800 310/03 RMK AO2
04850KAOH AOH20160731075512107/31/16 07:55:31  5-MIN KAOH 311255Z AUTO 32003KT 4SM BR BKN004 OVC008 21/21 A3003 880 100 1800 320/03 RMK AO2 T02060206
04850KAOH AOH20160731080012607/31/16 08:00:31  5-MIN KAOH 311300Z AUTO 33003KT 4SM BR OVC006 21/21 A3003 880 100 1800 330/03 RMK AO2 CIG 002V009 T02110211
04850KAOH AOH20160731080512607/31/16 08:05:31  5-MIN KAOH 311305Z AUTO 32004KT 4SM BR OVC006 21/21 A3003 880 100 1800 320/04 RMK AO2 CIG 004V009 T02060206
04850KAOH AOH20160731081013307/31/16 08:10:31  5-MIN KAOH 311310Z AUTO 30003KT 4SM BR BKN006 OVC010 21/21 A3003 880 100 1800 310/03 RMK AO2 CIG 004V009 T02110211
04850KAOH AOH20160731081512607/31/16 08:15:31  5-MIN KAOH 311315Z AUTO 33003KT 5SM BR OVC008 21/21 A3003 880 100 1800 330/03 RMK AO2 CIG 004V011 T02110211
04850KAOH AOH20160731082012607/31/16 08:20:31  5-MIN KAOH 311320Z AUTO 31003KT 5SM BR OVC008 21/21 A3003 880 100 1800 320/03 RMK AO2 CIG 005V011 T02110211
04850KAOH AOH20160731082512607/31/16 08:25:31  5-MIN KAOH 311325Z AUTO 32004KT 5SM BR OVC008 21/21 A3003 880 100 1800 320/04 RMK AO2 CIG 005V012 T02110211
04850KAOH AOH20160731083012107/31/16 08:30:31  5-MIN KAOH 311330Z AUTO 30004KT 6SM BR BKN006 OVC011 21/21 A3003 870 100 1800 310/04 RMK AO2 T02110211
04850KAOH AOH20160731083511807/31/16 08:35:31  5-MIN KAOH 311335Z AUTO 30003KT 7SM BKN008 OVC013 21/21 A3003 870 100 1800 300/03 RMK AO2 T02110211
04850KAOH AOH20160731084011807/31/16 08:40:31  5-MIN KAOH 311340Z AUTO VRB03KT 8SM SCT008 OVC013 21/21 A3003 870 100 1800 VRB/03 RMK AO2 T02110211
04850KAOH AOH20160731084511807/31/16 08:45:31  5-MIN KAOH 311345Z AUTO 31005KT 8SM SCT007 OVC013 21/21 A3003 870 100 1800 310/05 RMK AO2 T02110211
04850KAOH AOH20160731085012407/31/16 08:50:31  5-MIN KAOH 311350Z AUTO 29003KT 8SM FEW007 OVC013 22/21 A3003 870 97 1900 300/03 RMK AO2 SLP162 T02170211
04850KAOH AOH20160731085511807/31/16 08:55:31  5-MIN KAOH 311355Z AUTO 29005KT 8SM FEW007 OVC013 21/21 A3003 870 100 1800 300/05 RMK AO2 T02110211
04850KAOH AOH20160731090011007/31/16 09:00:31  5-MIN KAOH 311400Z AUTO 29004KT 9SM BKN013 22/21 A3003 870 93 1900 290/04 RMK AO2 T02170206
04850KAOH AOH20160731090511007/31/16 09:05:31  5-MIN KAOH 311405Z AUTO 30004KT 9SM BKN014 22/21 A3003 880 93 2000 300/04 RMK AO2 T02220211
04850KAOH AOH20160731091011107/31/16 09:10:31  5-MIN KAOH 311410Z AUTO VRB03KT 10SM BKN014 23/21 A3003 880 87 2000 VRB/03 RMK AO2 T02280206
04850KAOH AOH20160731091511107/31/16 09:15:31  5-MIN KAOH 311415Z AUTO 25004KT 10SM BKN014 23/21 A3003 880 87 2000 260/04 RMK AO2 T02280206
04850KAOH AOH20160731092011107/31/16 09:20:31  5-MIN KAOH 311420Z AUTO 28003KT 10SM BKN014 23/21 A3003 880 87 2000 290/03 RMK AO2 T02280206
04850KAOH AOH20160731092511807/31/16 09:25:31  5-MIN KAOH 311425Z AUTO 29003KT 10SM BKN014 BKN019 23/21 A3003 880 87 2100 290/03 RMK AO2 T02330211
04850KAOH AOH20160731093011807/31/16 09:30:31  5-MIN KAOH 311430Z AUTO 31005KT 10SM BKN014 BKN019 24/21 A3003 880 84 2100 320/05 RMK AO2 T02390211
04850KAOH AOH20160731093511807/31/16 09:35:31  5-MIN KAOH 311435Z AUTO 30005KT 10SM BKN014 OVC019 23/21 A3003 870 87 2100 310/05 RMK AO2 T02330211
04850KAOH AOH20160731094011107/31/16 09:40:31  5-MIN KAOH 311440Z AUTO 30005KT 10SM OVC014 23/21 A3003 870 84 2100 310/05 RMK AO2 T02330206
04850KAOH AOH20160731094511807/31/16 09:45:31  5-MIN KAOH 311445Z AUTO 29004KT 10SM BKN014 BKN019 23/21 A3003 870 84 2100 290/04 RMK AO2 T02330206
04850KAOH AOH20160731095013107/31/16 09:50:31  5-MIN KAOH 311450Z AUTO 30005KT 10SM BKN013 BKN019 24/21 A3004 870 81 2100 300/05 RMK AO2 SLP164 T02390206 51014
04850KAOH AOH20160731095511807/31/16 09:55:31  5-MIN KAOH 311455Z AUTO 31004KT 10SM BKN015 BKN022 24/21 A3004 870 81 2100 310/04 RMK AO2 T02390206
04850KAOH AOH20160731100011807/31/16 10:00:31  5-MIN KAOH 311500Z AUTO 31006KT 10SM SCT015 BKN022 24/21 A3004 870 78 2200 320/06 RMK AO2 T02440206
04850KAOH AOH20160731100511807/31/16 10:05:31  5-MIN KAOH 311505Z AUTO 00000KT 10SM SCT015 BKN022 24/21 A3004 870 78 2200 000/00 RMK AO2 T02440206
04850KAOH AOH20160731101011807/31/16 10:10:31  5-MIN KAOH 311510Z AUTO VRB04KT 10SM BKN018 BKN024 24/21 A3004 870 81 2100 VRB/04 RMK AO2 T02390206
04850KAOH AOH20160731101511807/31/16 10:15:31  5-MIN KAOH 311515Z AUTO 27003KT 10SM BKN018 BKN024 24/21 A3004 870 81 2100 280/03 RMK AO2 T02390206
04850KAOH AOH20160731102011807/31/16 10:20:31  5-MIN KAOH 311520Z AUTO VRB03KT 10SM BKN018 OVC025 24/21 A3003 870 78 2200 VRB/03 RMK AO2 T02440206
04850KAOH AOH20160731102511807/31/16 10:25:31  5-MIN KAOH 311525Z AUTO 31005KT 10SM BKN018 OVC025 25/21 A3004 870 79 2300 320/05 RMK AO2 T02500211
04850KAOH AOH20160731103011807/31/16 10:30:31  5-MIN KAOH 311530Z AUTO 24006KT 10SM BKN018 OVC025 24/21 A3004 870 78 2200 250/06 RMK AO2 T02440206
04850KAOH AOH20160731103511807/31/16 10:35:31  5-MIN KAOH 311535Z AUTO 00000KT 10SM BKN018 BKN025 25/21 A3003 870 76 2300 000/00 RMK AO2 T02500206
04850KAOH AOH20160731104011807/31/16 10:40:31  5-MIN KAOH 311540Z AUTO VRB03KT 10SM BKN020 BKN025 25/21 A3003 870 76 2300 VRB/03 RMK AO2 T02500206
04850KAOH AOH20160731104511107/31/16 10:45:31  5-MIN KAOH 311545Z AUTO 24006KT 10SM BKN022 25/21 A3003 870 76 2300 240/06 RMK AO2 T02500206
04850KAOH AOH20160731105011807/31/16 10:50:31  5-MIN KAOH 311550Z AUTO VRB04KT 10SM BKN022 26/20 A3003 870 71 2300 VRB/04 RMK AO2 SLP163 T02560200
04850KAOH AOH20160731105511807/31/16 10:55:31  5-MIN KAOH 311555Z AUTO 23006KT 10SM SCT022 SCT030 26/21 A3003 870 71 2400 230/06 RMK AO2 T02610206
04850KAOH AOH20160731110011807/31/16 11:00:31  5-MIN KAOH 311600Z AUTO 24007KT 10SM BKN022 BKN032 26/21 A3003 870 71 2400 240/07 RMK AO2 T02610206
04850KAOH AOH20160731110511107/31/16 11:05:31  5-MIN KAOH 311605Z AUTO 28008KT 10SM BKN022 26/21 A3004 870 71 2400 280/08 RMK AO2 T02610206
04850KAOH AOH20160731111011807/31/16 11:10:31  5-MIN KAOH 311610Z AUTO 29006KT 10SM BKN022 BKN042 26/21 A3004 870 73 2300 300/06 RMK AO2 T02560206
04850KAOH AOH20160731111512507/31/16 11:15:31  5-MIN KAOH 311615Z AUTO 31005KT 10SM SCT022 BKN030 BKN039 26/21 A3004 870 73 2400 320/05 RMK AO2 T02610211
04850KAOH AOH20160731112012507/31/16 11:20:31  5-MIN KAOH 311620Z AUTO 27005KT 10SM SCT023 SCT030 BKN039 26/20 A3004 870 68 2400 280/05 RMK AO2 T02610200
04850KAOH AOH20160731112511807/31/16 11:25:31  5-MIN KAOH 311625Z AUTO 29007KT 10SM SCT023 SCT039 26/21 A3004 870 71 2400 300/07 RMK AO2 T02610206
04850KAOH AOH20160731113011807/31/16 11:30:31  5-MIN KAOH 311630Z AUTO 27006KT 10SM FEW023 SCT040 26/20 A3004 870 68 2400 280/06 RMK AO2 T02610200
04850KAOH AOH20160731113512507/31/16 11:35:31  5-MIN KAOH 311635Z AUTO VRB06KT 10SM FEW025 FEW030 SCT040 27/21 A3003 870 66 2500 VRB/06 RMK AO2 T02720206
04850KAOH AOH20160731114011807/31/16 11:40:31  5-MIN KAOH 311640Z AUTO 30008KT 10SM SCT028 SCT038 27/21 A3003 870 71 2500 310/08 RMK AO2 T02670211
04850KAOH AOH20160731114511807/31/16 11:45:31  5-MIN KAOH 311645Z AUTO 28007KT 10SM FEW028 SCT032 26/20 A3003 870 71 2300 290/07 RMK AO2 T02560200
04850KAOH AOH20160731115011807/31/16 11:50:31  5-MIN KAOH 311650Z AUTO 29004KT 10SM SCT030 25/20 A3003 880 73 2300 300/04 RMK AO2 SLP162 T02500200
04850KAOH AOH20160731115511107/31/16 11:55:31  5-MIN KAOH 311655Z AUTO VRB03KT 10SM SCT030 26/21 A3003 880 71 2400 VRB/03 RMK AO2 T02610206
04850KAOH AOH20160731120010107/31/16 12:00:31  5-MIN KAOH 311700Z AUTO 10SM FEW030 27/20 A3003 880 66 2500 M /M RMK AO2 T02670200
04850KAOH AOH20160731120511107/31/16 12:05:31  5-MIN KAOH 311705Z AUTO 00000KT 10SM FEW028 27/20 A3002 880 66 2500 000/00 RMK AO2 T02670200
04850KAOH AOH20160731121010107/31/16 12:10:31  5-MIN KAOH 311710Z AUTO 10SM FEW031 27/21 A3002 880 66 2500 M /M RMK AO2 T02720206
04850KAOH AOH20160731121510807/31/16 12:15:31  5-MIN KAOH 311715Z AUTO 28004KT 10SM CLR 27/21 A3002 880 69 2500 290/04 RMK AO2 T02670206
04850KAOH AOH20160731122010807/31/16 12:20:31  5-MIN KAOH 311720Z AUTO 27007KT 10SM CLR 27/21 A3002 880 66 2500 270/07 RMK AO2 T02720206
04850KAOH AOH20160731122510807/31/16 12:25:31  5-MIN KAOH 311725Z AUTO 28005KT 10SM CLR 27/20 A3003 880 64 2500 290/05 RMK AO2 T02720200
04850KAOH AOH20160731123010807/31/16 12:30:31  5-MIN KAOH 311730Z AUTO 26006KT 10SM CLR 27/19 A3003 880 64 2500 260/06 RMK AO2 T02670194
04850KAOH AOH20160731123510807/31/16 12:35:31  5-MIN KAOH 311735Z AUTO 00000KT 10SM CLR 27/19 A3003 880 62 2500 000/00 RMK AO2 T02720194
04850KAOH AOH20160731124010807/31/16 12:40:31  5-MIN KAOH 311740Z AUTO 24006KT 10SM CLR 27/19 A3003 880 62 2500 250/06 RMK AO2 T02720194
04850KAOH AOH20160731124511107/31/16 12:45:31  5-MIN KAOH 311745Z AUTO 23008KT 10SM FEW035 28/19 A3003 880 58 2600 240/08 RMK AO2 T02830194
04850KAOH AOH20160731125013607/31/16 12:50:31  5-MIN KAOH 311750Z AUTO 21008KT 10SM FEW039 28/19 A3003 880 58 2600 220/08 RMK AO2 SLP161 T02830194 10283 20200 51006
04850KAOH AOH20160731125511807/31/16 12:55:31  5-MIN KAOH 311755Z AUTO 27005KT 10SM FEW041 SCT049 27/19 A3003 880 60 2500 270/05 RMK AO2 T02720189
04850KAOH AOH20160731130011807/31/16 13:00:31  5-MIN KAOH 311800Z AUTO 29005KT 10SM SCT042 BKN050 27/19 A3003 880 64 2500 290/05 RMK AO2 T02670194
04850KAOH AOH20160731130512507/31/16 13:05:31  5-MIN KAOH 311805Z AUTO 30005KT 10SM FEW036 BKN044 BKN050 27/19 A3003 880 64 2500 310/05 RMK AO2 T02670194
04850KAOH AOH20160731131012507/31/16 13:10:31  5-MIN KAOH 311810Z AUTO 25006KT 10SM FEW036 SCT045 BKN065 27/19 A3003 880 62 2500 260/06 RMK AO2 T02720194
04850KAOH AOH20160731131512507/31/16 13:15:31  5-MIN KAOH 311815Z AUTO 29005KT 10SM FEW036 SCT045 SCT065 28/19 A3003 880 58 2600 300/05 RMK AO2 T02830194
04850KAOH AOH20160731132012507/31/16 13:20:31  5-MIN KAOH 311820Z AUTO 27008KT 10SM FEW036 SCT046 SCT065 28/19 A3002 880 58 2700 270/08 RMK AO2 T02830194
04850KAOH AOH20160731132512507/31/16 13:25:31  5-MIN KAOH 311825Z AUTO 26005KT 10SM FEW036 FEW044 FEW065 28/19 A3002 880 56 2700 260/05 RMK AO2 T02830189
04850KAOH AOH20160731133011107/31/16 13:30:31  5-MIN KAOH 311830Z AUTO VRB03KT 10SM FEW065 29/19 A3002 890 54 2700 VRB/03 RMK AO2 T02890189
04850KAOH AOH20160731133511807/31/16 13:35:31  5-MIN KAOH 311835Z AUTO 31006KT 10SM FEW040 FEW065 28/19 A3002 890 58 2700 310/06 RMK AO2 T02830194
04850KAOH AOH20160731134012507/31/16 13:40:31  5-MIN KAOH 311840Z AUTO 28004KT 10SM FEW040 FEW050 SCT065 28/19 A3002 890 58 2700 290/04 RMK AO2 T02830194
04850KAOH AOH20160731134512507/31/16 13:45:31  5-MIN KAOH 311845Z AUTO VRB05KT 10SM SCT044 SCT055 BKN070 28/19 A3002 890 56 2700 VRB/05 RMK AO2 T02830189
04850KAOH AOH20160731135012507/31/16 13:50:31  5-MIN KAOH 311850Z AUTO 32007KT 10SM SCT046 BKN065 28/19 A3002 890 58 2700 330/07 RMK AO2 SLP158 T02830194
04850KAOH AOH20160731135512507/31/16 13:55:31  5-MIN KAOH 311855Z AUTO 30006KT 10SM SCT043 BKN050 BKN065 27/19 A3002 890 60 2500 310/06 RMK AO2 T02720189
04850KAOH AOH20160731140012507/31/16 14:00:31  5-MIN KAOH 311900Z AUTO 36007KT 10SM SCT043 BKN055 BKN070 27/20 A3002 890 64 2500 010/07 RMK AO2 T02720200
04850KAOH AOH20160731140512507/31/16 14:05:31  5-MIN KAOH 311905Z AUTO 34008KT 10SM SCT043 BKN055 BKN070 28/21 A3002 890 66 2600 340/08 RMK AO2 T02780211
04850KAOH AOH20160731141012507/31/16 14:10:31  5-MIN KAOH 311910Z AUTO 35007KT 10SM FEW031 BKN043 BKN050 27/21 A3001 890 69 2500 360/07 RMK AO2 T02720211
04850KAOH AOH20160731141512507/31/16 14:15:31  5-MIN KAOH 311915Z AUTO 33008KT 10SM FEW031 SCT043 BKN050 27/21 A3002 890 71 2500 330/08 RMK AO2 T02670211
04850KAOH AOH20160731142012507/31/16 14:20:31  5-MIN KAOH 311920Z AUTO 33007KT 10SM FEW031 SCT042 BKN050 27/21 A3002 890 71 2500 330/07 RMK AO2 T02670211
04850KAOH AOH20160731142512507/31/16 14:25:31  5-MIN KAOH 311925Z AUTO 35007KT 10SM FEW038 BKN055 BKN070 27/21 A3002 890 69 2500 350/07 RMK AO2 T02720211
04850KAOH AOH20160731143012507/31/16 14:30:31  5-MIN KAOH 311930Z AUTO 01006KT 10SM SCT038 SCT050 BKN060 27/21 A3002 890 69 2500 020/06 RMK AO2 T02720211
04850KAOH AOH20160731143512507/31/16 14:35:31  5-MIN KAOH 311935Z AUTO 01006KT 10SM FEW032 SCT046 BKN060 28/21 A3001 890 64 2700 010/06 RMK AO2 T02830211
04850KAOH AOH20160731144012507/31/16 14:40:31  5-MIN KAOH 311940Z AUTO 33008KT 10SM FEW037 SCT060 SCT100 27/21 A3002 890 69 2500 340/08 RMK AO2 T02720211
04850KAOH AOH20160731144512507/31/16 14:45:31  5-MIN KAOH 311945Z AUTO 35007KT 10SM FEW040 SCT060 BKN100 26/21 A3002 890 73 2400 350/07 RMK AO2 T02610211
04850KAOH AOH20160731145013207/31/16 14:50:31  5-MIN KAOH 311950Z AUTO 35005KT 10SM FEW040 SCT050 BKN065 27/21 A3002 890 71 2500 350/05 RMK AO2 SLP158 T02670211
04850KAOH AOH20160731145512507/31/16 14:55:31  5-MIN KAOH 311955Z AUTO 32005KT 10SM SCT033 SCT041 BKN065 27/21 A3002 890 71 2500 320/05 RMK AO2 T02670211
04850KAOH AOH20160731150012507/31/16 15:00:31  5-MIN KAOH 312000Z AUTO 33009KT 10SM FEW027 BKN034 BKN042 26/21 A3001 890 73 2400 330/09 RMK AO2 T02610211
04850KAOH AOH20160731150512507/31/16 15:05:31  5-MIN KAOH 312005Z AUTO 32007KT 10SM SCT029 BKN039 BKN049 27/21 A3002 890 71 2500 320/07 RMK AO2 T02670211
04850KAOH AOH20160731151012507/31/16 15:10:31  5-MIN KAOH 312010Z AUTO 33006KT 10SM SCT031 BKN039 OVC070 27/21 A3001 890 69 2500 340/06 RMK AO2 T02720211
04850KAOH AOH20160731151512507/31/16 15:15:31  5-MIN KAOH 312015Z AUTO 01005KT 10SM FEW027 BKN035 OVC065 27/21 A3001 890 69 2500 010/05 RMK AO2 T02720211
04850KAOH AOH20160731152012507/31/16 15:20:31  5-MIN KAOH 312020Z AUTO VRB05KT 10SM FEW027 BKN035 OVC050 27/22 A3001 890 71 2500 VRB/05 RMK AO2 T02720217
04850KAOH AOH20160731152512507/31/16 15:25:31  5-MIN KAOH 312025Z AUTO VRB06KT 10SM FEW029 BKN036 OVC050 28/21 A3001 890 64 2700 VRB/06 RMK AO2 T02830211
04850KAOH AOH20160731153012507/31/16 15:30:31  5-MIN KAOH 312030Z AUTO 29009KT 10SM BKN036 BKN050 BKN075 28/21 A3001 890 62 2700 290/09 RMK AO2 T02830206
04850KAOH AOH20160731153512507/31/16 15:35:31  5-MIN KAOH 312035Z AUTO 31006KT 10SM SCT036 BKN050 BKN075 28/21 A3001 890 62 2700 320/06 RMK AO2 T02830206
04850KAOH AOH20160731154011807/31/16 15:40:31  5-MIN KAOH 312040Z AUTO 32006KT 10SM SCT036 BKN050 29/21 A3001 900 62 2700 320/06 RMK AO2 T02890211
04850KAOH AOH20160731154512507/31/16 15:45:31  5-MIN KAOH 312045Z AUTO VRB06KT 10SM FEW033 SCT041 BKN050 28/21 A3000 900 64 2700 VRB/06 RMK AO2 T02830211
04850KAOH AOH20160731155013807/31/16 15:50:31  5-MIN KAOH 312050Z AUTO 32009KT 10SM FEW035 FEW042 SCT050 28/21 A3000 900 66 2600 330/09 RMK AO2 SLP153 T02780211 56003
04850KAOH AOH20160731155511807/31/16 15:55:31  5-MIN KAOH 312055Z AUTO 32008KT 10SM FEW041 SCT049 27/20 A3000 900 64 2600 330/08 RMK AO2 T02720200
04850KAOH AOH20160731160012507/31/16 16:00:31  5-MIN KAOH 312100Z AUTO 34007KT 10SM FEW042 SCT050 BKN095 28/21 A3000 900 64 2600 350/07 RMK AO2 T02780206
04850KAOH AOH20160731160512507/31/16 16:05:31  5-MIN KAOH 312105Z AUTO 34006KT 10SM FEW042 SCT050 BKN090 28/21 A3000 900 66 2600 350/06 RMK AO2 T02780211
04850KAOH AOH20160731161014107/31/16 16:10:31  5-MIN KAOH 312110Z AUTO 32008KT 290V360 10SM FEW040 SCT050 SCT090 28/21 A3000 900 64 2700 320/08 300V010 RMK AO2 T02830211
04850KAOH AOH20160731161512507/31/16 16:15:31  5-MIN KAOH 312115Z AUTO 33010KT 10SM SCT037 SCT050 SCT090 28/20 A3000 910 60 2700 340/10 RMK AO2 T02830200
04850KAOH AOH20160731162012507/31/16 16:20:31  5-MIN KAOH 312120Z AUTO 34008KT 10SM SCT037 BKN050 BKN090 28/21 A3000 910 64 2600 340/08 RMK AO2 T02780206
04850KAOH AOH20160731162512507/31/16 16:25:31  5-MIN KAOH 312125Z AUTO 35008KT 10SM BKN037 BKN050 BKN090 27/20 A2999 910 64 2600 350/08 RMK AO2 T02720200
04850KAOH AOH20160731163011107/31/16 16:30:31  5-MIN KAOH 312130Z AUTO 35010KT 10SM SCT037 28/20 A2999 910 60 2700 360/10 RMK AO2 T02830200
04850KAOH AOH20160731163511107/31/16 16:35:31  5-MIN KAOH 312135Z AUTO 34007KT 10SM SCT038 28/20 A3000 910 60 2700 350/07 RMK AO2 T02830200
04850KAOH AOH20160731164011107/31/16 16:40:31  5-MIN KAOH 312140Z AUTO 32006KT 10SM SCT038 28/20 A3000 910 62 2600 330/06 RMK AO2 T02780200
04850KAOH AOH20160731164511107/31/16 16:45:31  5-MIN KAOH 312145Z AUTO VRB05KT 10SM SCT038 28/20 A3000 910 62 2600 VRB/05 RMK AO2 T02780200
04850KAOH AOH20160731165011807/31/16 16:50:31  5-MIN KAOH 312150Z AUTO 34008KT 10SM FEW038 28/20 A3000 910 60 2700 340/08 RMK AO2 SLP151 T02830200
04850KAOH AOH20160731165510807/31/16 16:55:31  5-MIN KAOH 312155Z AUTO 33009KT 10SM CLR 28/20 A3000 910 62 2600 340/09 RMK AO2 T02780200
04850KAOH AOH20160731170010807/31/16 17:00:31  5-MIN KAOH 312200Z AUTO 34009KT 10SM CLR 28/20 A3000 910 62 2600 340/09 RMK AO2 T02780200
04850KAOH AOH20160731170510807/31/16 17:05:31  5-MIN KAOH 312205Z AUTO 35008KT 10SM CLR 28/20 A2999 910 62 2600 350/08 RMK AO2 T02780200
04850KAOH AOH20160731171010807/31/16 17:10:31  5-MIN KAOH 312210Z AUTO 33008KT 10SM CLR 28/20 A3000 910 62 2600 340/08 RMK AO2 T02780200
04850KAOH AOH20160731171510807/31/16 17:15:31  5-MIN KAOH 312215Z AUTO 34008KT 10SM CLR 28/21 A3000 910 64 2600 350/08 RMK AO2 T02780206
04850KAOH AOH20160731172010807/31/16 17:20:31  5-MIN KAOH 312220Z AUTO 34007KT 10SM CLR 27/20 A3000 910 64 2600 340/07 RMK AO2 T02720200
04850KAOH AOH20160731172510807/31/16 17:25:31  5-MIN KAOH 312225Z AUTO 33007KT 10SM CLR 27/21 A3000 910 66 2600 340/07 RMK AO2 T02720206
04850KAOH AOH20160731173010807/31/16 17:30:31  5-MIN KAOH 312230Z AUTO 35008KT 10SM CLR 27/20 A3000 900 64 2600 350/08 RMK AO2 T02720200
04850KAOH AOH20160731173510807/31/16 17:35:31  5-MIN KAOH 312235Z AUTO 35006KT 10SM CLR 26/20 A3000 910 68 2400 360/06 RMK AO2 T02610200
04850KAOH AOH20160731174010807/31/16 17:40:31  5-MIN KAOH 312240Z AUTO 34006KT 10SM CLR 27/19 A3000 910 64 2500 340/06 RMK AO2 T02670194
04850KAOH AOH20160731174510807/31/16 17:45:31  5-MIN KAOH 312245Z AUTO 34004KT 10SM CLR 27/20 A3000 910 66 2500 350/04 RMK AO2 T02670200
04850KAOH AOH20160731175011507/31/16 17:50:31  5-MIN KAOH 312250Z AUTO 33006KT 10SM CLR 27/19 A3000 900 64 2500 330/06 RMK AO2 SLP152 T02670194
04850KAOH AOH20160731175510807/31/16 17:55:31  5-MIN KAOH 312255Z AUTO 34004KT 10SM CLR 27/19 A3000 900 62 2600 340/04 RMK AO2 T02720194
04850KAOH AOH20160731180010807/31/16 18:00:31  5-MIN KAOH 312300Z AUTO 33007KT 10SM CLR 27/19 A3000 900 64 2500 330/07 RMK AO2 T02670194
04850KAOH AOH20160731180510807/31/16 18:05:31  5-MIN KAOH 312305Z AUTO 34005KT 10SM CLR 27/19 A3000 900 64 2500 340/05 RMK AO2 T02670194
04850KAOH AOH20160731181010807/31/16 18:10:31  5-MIN KAOH 312310Z AUTO 34008KT 10SM CLR 27/19 A3000 900 62 2600 340/08 RMK AO2 T02720194
04850KAOH AOH20160731181510807/31/16 18:15:31  5-MIN KAOH 312315Z AUTO 33007KT 10SM CLR 27/19 A3000 900 64 2500 340/07 RMK AO2 T02670194
04850KAOH AOH20160731182010807/31/16 18:20:31  5-MIN KAOH 312320Z AUTO 33006KT 10SM CLR 27/19 A3000 900 64 2500 340/06 RMK AO2 T02670194
04850KAOH AOH20160731182510807/31/16 18:25:31  5-MIN KAOH 312325Z AUTO 31008KT 10SM CLR 27/20 A3000 900 66 2500 310/08 RMK AO2 T02670200
04850KAOH AOH20160731183011107/31/16 18:30:31  5-MIN KAOH 312330Z AUTO 33005KT 10SM FEW110 27/20 A3000 900 66 2500 330/05 RMK AO2 T02670200
04850KAOH AOH20160731183511107/31/16 18:35:31  5-MIN KAOH 312335Z AUTO 32006KT 10SM FEW110 27/20 A3000 900 66 2500 330/06 RMK AO2 T02670200
04850KAOH AOH20160731184010807/31/16 18:40:31  5-MIN KAOH 312340Z AUTO 32005KT 10SM CLR 26/20 A3000 900 68 2400 330/05 RMK AO2 T02610200
04850KAOH AOH20160731184510807/31/16 18:45:31  5-MIN KAOH 312345Z AUTO 32006KT 10SM CLR 26/20 A3000 900 71 2400 330/06 RMK AO2 T02560200
04850KAOH AOH20160731185013307/31/16 18:50:31  5-MIN KAOH 312350Z AUTO 33006KT 10SM CLR 26/21 A3000 900 73 2400 330/06 RMK AO2 SLP153 T02560206 10289 20256 58008
04850KAOH AOH20160731185510807/31/16 18:55:31  5-MIN KAOH 312355Z AUTO 32005KT 10SM CLR 26/19 A3001 900 68 2400 330/05 RMK AO2 T02560194
04850KAOH AOH20160731190010807/31/16 19:00:31  5-MIN KAOH 010000Z AUTO 33005KT 10SM CLR 26/19 A3001 900 68 2400 330/05 RMK AO2 T02560194
04850KAOH AOH20160731190510807/31/16 19:05:31  5-MIN KAOH 010005Z AUTO 33004KT 10SM CLR 25/19 A3001 900 71 2300 340/04 RMK AO2 T02500194
04850KAOH AOH20160731191010807/31/16 19:10:31  5-MIN KAOH 010010Z AUTO 34004KT 10SM CLR 26/19 A3001 900 68 2400 350/04 RMK AO2 T02560194
04850KAOH AOH20160731191510807/31/16 19:15:31  5-MIN KAOH 010015Z AUTO 34003KT 10SM CLR 25/19 A3001 890 71 2300 340/03 RMK AO2 T02500194
04850KAOH AOH20160731192010807/31/16 19:20:31  5-MIN KAOH 010020Z AUTO 33003KT 10SM CLR 25/19 A3001 890 71 2300 340/03 RMK AO2 T02500194
04850KAOH AOH20160731192510807/31/16 19:25:31  5-MIN KAOH 010025Z AUTO 34005KT 10SM CLR 24/20 A3001 890 76 2200 340/05 RMK AO2 T02440200
04850KAOH AOH20160731193010807/31/16 19:30:31  5-MIN KAOH 010030Z AUTO 34005KT 10SM CLR 24/20 A3001 890 76 2200 340/05 RMK AO2 T02440200
04850KAOH AOH20160731193510807/31/16 19:35:31  5-MIN KAOH 010035Z AUTO 34005KT 10SM CLR 24/19 A3002 890 73 2200 340/05 RMK AO2 T02440194
04850KAOH AOH20160731194010807/31/16 19:40:31  5-MIN KAOH 010040Z AUTO 33004KT 10SM CLR 24/19 A3002 890 73 2200 340/04 RMK AO2 T02440194
04850KAOH AOH20160731194510807/31/16 19:45:31  5-MIN KAOH 010045Z AUTO 33003KT 10SM CLR 24/20 A3002 890 78 2200 340/03 RMK AO2 T02390200
04850KAOH AOH20160731195011507/31/16 19:50:31  5-MIN KAOH 010050Z AUTO 34003KT 10SM CLR 24/20 A3002 890 78 2200 350/03 RMK AO2 SLP159 T02390200
04850KAOH AOH20160731195510807/31/16 19:55:31  5-MIN KAOH 010055Z AUTO 36003KT 10SM CLR 24/20 A3002 890 78 2200 360/03 RMK AO2 T02390200
04850KAOH AOH20160731200010807/31/16 20:00:31  5-MIN KAOH 010100Z AUTO 35003KT 10SM CLR 23/20 A3002 890 81 2100 360/03 RMK AO2 T02330200
04850KAOH AOH20160731200510807/31/16 20:05:31  5-MIN KAOH 010105Z AUTO 36003KT 10SM CLR 24/19 A3002 890 76 2200 360/03 RMK AO2 T02390194
04850KAOH AOH20160731201010807/31/16 20:10:31  5-MIN KAOH 010110Z AUTO 00000KT 10SM CLR 24/19 A3002 880 76 2200 000/00 RMK AO2 T02390194
04850KAOH AOH20160731201510807/31/16 20:15:31  5-MIN KAOH 010115Z AUTO 01003KT 10SM CLR 24/20 A3002 880 78 2200 020/03 RMK AO2 T02390200
04850KAOH AOH20160731202010807/31/16 20:20:31  5-MIN KAOH 010120Z AUTO 00000KT 10SM CLR 24/19 A3002 880 76 2200 000/00 RMK AO2 T02390194
04850KAOH AOH20160731202510807/31/16 20:25:31  5-MIN KAOH 010125Z AUTO 00000KT 10SM CLR 23/20 A3002 880 84 2000 000/00 RMK AO2 T02280200
04850KAOH AOH20160731203010807/31/16 20:30:31  5-MIN KAOH 010130Z AUTO 02003KT 10SM CLR 23/20 A3003 880 84 2000 030/03 RMK AO2 T02280200
04850KAOH AOH20160731203510807/31/16 20:35:31  5-MIN KAOH 010135Z AUTO 03004KT 10SM CLR 22/20 A3003 880 87 2000 030/04 RMK AO2 T02220200
04850KAOH AOH20160731204010807/31/16 20:40:31  5-MIN KAOH 010140Z AUTO 36004KT 10SM CLR 22/20 A3003 880 87 2000 010/04 RMK AO2 T02220200
04850KAOH AOH20160731204510807/31/16 20:45:31  5-MIN KAOH 010145Z AUTO 01003KT 10SM CLR 22/20 A3003 870 87 2000 010/03 RMK AO2 T02220200
04850KAOH AOH20160731205011507/31/16 20:50:31  5-MIN KAOH 010150Z AUTO 00000KT 10SM CLR 23/20 A3003 870 84 2000 000/00 RMK AO2 SLP164 T02280200
04850KAOH AOH20160731205511107/31/16 20:55:31  5-MIN KAOH 010155Z AUTO 00000KT 10SM FEW037 23/20 A3004 870 84 2000 000/00 RMK AO2 T02280200
04850KAOH AOH20160731210011107/31/16 21:00:31  5-MIN KAOH 010200Z AUTO 00000KT 10SM SCT037 23/20 A3004 870 84 2000 000/00 RMK AO2 T02280200
04850KAOH AOH20160731210511107/31/16 21:05:31  5-MIN KAOH 010205Z AUTO 09003KT 10SM SCT037 23/20 A3004 870 84 2000 100/03 RMK AO2 T02280200
04850KAOH AOH20160731211011107/31/16 21:10:31  5-MIN KAOH 010210Z AUTO 06004KT 10SM SCT037 22/20 A3004 870 87 1900 070/04 RMK AO2 T02220200
04850KAOH AOH20160731211511107/31/16 21:15:31  5-MIN KAOH 010215Z AUTO 05004KT 10SM SCT038 22/20 A3004 870 90 1900 060/04 RMK AO2 T02170200
04850KAOH AOH20160731212011107/31/16 21:20:31  5-MIN KAOH 010220Z AUTO 06003KT 10SM SCT038 22/20 A3004 870 90 1900 070/03 RMK AO2 T02170200
04850KAOH AOH20160731212511107/31/16 21:25:31  5-MIN KAOH 010225Z AUTO 06003KT 10SM SCT038 22/20 A3004 860 90 1900 070/03 RMK AO2 T02170200
04850KAOH AOH20160731213011107/31/16 21:30:31  5-MIN KAOH 010230Z AUTO 07003KT 10SM BKN038 22/21 A3004 860 93 1900 070/03 RMK AO2 T02170206
04850KAOH AOH20160731213511107/31/16 21:35:31  5-MIN KAOH 010235Z AUTO 05004KT 10SM BKN039 22/21 A3004 860 93 1900 060/04 RMK AO2 T02170206
04850KAOH AOH20160731214011107/31/16 21:40:31  5-MIN KAOH 010240Z AUTO 06003KT 10SM BKN039 22/21 A3004 860 93 1900 060/03 RMK AO2 T02170206
04850KAOH AOH20160731214511107/31/16 21:45:31  5-MIN KAOH 010245Z AUTO 06004KT 10SM BKN039 22/21 A3004 860 93 1900 060/04 RMK AO2 T02170206
04850KAOH AOH20160731215012407/31/16 21:50:31  5-MIN KAOH 010250Z AUTO 05003KT 10SM BKN039 22/21 A3005 860 93 1900 050/03 RMK AO2 SLP167 T02170206 55000
04850KAOH AOH20160731215511107/31/16 21:55:31  5-MIN KAOH 010255Z AUTO 00000KT 10SM BKN039 22/21 A3005 860 93 1900 000/00 RMK AO2 T02170206
04850KAOH AOH20160731220011107/31/16 22:00:31  5-MIN KAOH 010300Z AUTO 00000KT 10SM SCT039 22/21 A3005 860 93 1900 000/00 RMK AO2 T02170206
04850KAOH AOH20160731220511107/31/16 22:05:31  5-MIN KAOH 010305Z AUTO 00000KT 10SM SCT039 22/21 A3005 860 90 1900 000/00 RMK AO2 T02220206
04850KAOH AOH20160731221011107/31/16 22:10:31  5-MIN KAOH 010310Z AUTO 00000KT 10SM FEW039 22/21 A3005 860 90 1900 000/00 RMK AO2 T02220206
04850KAOH AOH20160731221511107/31/16 22:15:31  5-MIN KAOH 010315Z AUTO 00000KT 10SM SCT041 22/21 A3005 860 90 1900 000/00 RMK AO2 T02220206
04850KAOH AOH20160731222011107/31/16 22:20:31  5-MIN KAOH 010320Z AUTO 10003KT 10SM FEW041 22/21 A3005 860 90 1900 100/03 RMK AO2 T02220206
04850KAOH AOH20160731222511107/31/16 22:25:31  5-MIN KAOH 010325Z AUTO 00000KT 10SM SCT039 22/21 A3005 860 90 1900 000/00 RMK AO2 T02220206
04850KAOH AOH20160731223011107/31/16 22:30:31  5-MIN KAOH 010330Z AUTO 00000KT 10SM SCT039 22/21 A3005 860 90 1900 000/00 RMK AO2 T02220206
04850KAOH AOH20160731223511107/31/16 22:35:31  5-MIN KAOH 010335Z AUTO 10003KT 10SM SCT039 22/21 A3005 850 90 1900 100/03 RMK AO2 T02220206
04850KAOH AOH20160731224011107/31/16 22:40:31  5-MIN KAOH 010340Z AUTO 00000KT 10SM BKN039 22/21 A3005 850 90 1900 000/00 RMK AO2 T02220206
04850KAOH AOH20160731224511107/31/16 22:45:31  5-MIN KAOH 010345Z AUTO 10004KT 10SM BKN039 22/21 A3006 850 90 1900 100/04 RMK AO2 T02220206
04850KAOH AOH20160731225011807/31/16 22:50:31  5-MIN KAOH 010350Z AUTO 09004KT 10SM BKN039 22/21 A3006 850 93 1900 100/04 RMK AO2 SLP171 T02170206
04850KAOH AOH20160731225511107/31/16 22:55:31  5-MIN KAOH 010355Z AUTO 08004KT 10SM BKN039 22/21 A3006 850 93 1900 090/04 RMK AO2 T02170206
04850KAOH AOH20160731230011107/31/16 23:00:31  5-MIN KAOH 010400Z AUTO 08003KT 10SM BKN039 22/21 A3006 850 93 1900 090/03 RMK AO2 T02170206
04850KAOH AOH20160731230511107/31/16 23:05:31  5-MIN KAOH 010405Z AUTO 00000KT 10SM BKN039 21/21 A3006 850 97 1800 000/00 RMK AO2 T02110206
04850KAOH AOH20160731231011107/31/16 23:10:31  5-MIN KAOH 010410Z AUTO 00000KT 10SM BKN039 21/21 A3006 850 97 1800 000/00 RMK AO2 T02110206
04850KAOH AOH20160731231511107/31/16 23:15:31  5-MIN KAOH 010415Z AUTO 00000KT 10SM BKN042 21/21 A3006 850 97 1800 000/00 RMK AO2 T02110206
04850KAOH AOH20160731232011107/31/16 23:20:31  5-MIN KAOH 010420Z AUTO 00000KT 10SM BKN045 21/21 A3006 850 97 1800 000/00 RMK AO2 T02110206
04850KAOH AOH20160731232511807/31/16 23:25:31  5-MIN KAOH 010425Z AUTO 00000KT 10SM BKN043 BKN050 22/20 A3006 850 90 1900 000/00 RMK AO2 T02170200
04850KAOH AOH20160731233011807/31/16 23:30:31  5-MIN KAOH 010430Z AUTO 00000KT 10SM BKN045 OVC050 22/20 A3006 850 87 1900 000/00 RMK AO2 T02220200
04850KAOH AOH20160731233511807/31/16 23:35:31  5-MIN KAOH 010435Z AUTO 00000KT 10SM SCT042 BKN050 22/20 A3006 850 87 1900 000/00 RMK AO2 T02220200
04850KAOH AOH20160731234011107/31/16 23:40:31  5-MIN KAOH 010440Z AUTO 00000KT 10SM SCT048 22/20 A3006 850 87 1900 000/00 RMK AO2 T02220200
04850KAOH AOH20160731234511107/31/16 23:45:31  5-MIN KAOH 010445Z AUTO 00000KT 10SM SCT050 22/20 A3006 850 87 1900 000/00 RMK AO2 T02220200
04850KAOH AOH20160731235013507/31/16 23:50:31  5-MIN KAOH 010450Z AUTO 00000KT 10SM FEW035 SCT050 22/20 A3006 850 90 1900 000/00 RMK AO2 SLP172 T02170200 402890172
04850KAOH AOH20160731235511807/31/16 23:55:31  5-MIN KAOH 010455Z AUTO 00000KT 10SM SCT035 SCT050 21/20 A3006 850 97 1700 000/00 RMK AO2 T02060200
