63870K0J4 0J420160701001510807/01/16 00:15:31  5-MIN K0J4 010515Z AUTO 00000KT 10SM CLR 23/22 A3000 240 93 1200 000/00 RMK AO2 T02280217
63870K0J4 0J420160701002010807/01/16 00:20:31  5-MIN K0J4 010520Z AUTO 00000KT 10SM CLR 23/22 A3000 240 93 1200 000/00 RMK AO2 T02280217
63870K0J4 0J420160701002510807/01/16 00:25:31  5-MIN K0J4 010525Z AUTO 00000KT 10SM CLR 23/22 A3000 240 93 1200 000/00 RMK AO2 T02280217
63870K0J4 0J420160701003010807/01/16 00:30:31  5-MIN K0J4 010530Z AUTO 00000KT 10SM CLR 23/22 A3000 240 93 1200 000/00 RMK AO2 T02280217
63870K0J4 0J420160701003510807/01/16 00:35:31  5-MIN K0J4 010535Z AUTO 00000KT 10SM CLR 23/22 A3000 240 93 1200 000/00 RMK AO2 T02280217
63870K0J4 0J420160701004010807/01/16 00:40:31  5-MIN K0J4 010540Z AUTO 00000KT 10SM CLR 23/22 A3000 240 93 1200 000/00 RMK AO2 T02280217
63870K0J4 0J420160701004510807/01/16 00:45:31  5-MIN K0J4 010545Z AUTO 00000KT 10SM CLR 23/22 A3000 240 93 1200 000/00 RMK AO2 T02280217
63870K0J4 0J420160701005010807/01/16 00:50:31  5-MIN K0J4 010550Z AUTO 00000KT 10SM CLR 22/21 A3000 240 93 1200 000/00 RMK AO2 T02220211
63870K0J4 0J420160701005513307/01/16 00:55:31  5-MIN K0J4 010555Z AUTO 00000KT 10SM CLR 23/22 A3000 240 93 1200 000/00 RMK AO2 SLP154 T02280217 10272 20222 53011
63870K0J4 0J420160701010010807/01/16 01:00:31  5-MIN K0J4 010600Z AUTO 00000KT 10SM CLR 23/22 A3000 240 93 1200 000/00 RMK AO2 T02280217
63870K0J4 0J420160701010510807/01/16 01:05:31  5-MIN K0J4 010605Z AUTO 00000KT 10SM CLR 23/22 A3000 250 93 1200 000/00 RMK AO2 T02280217
63870K0J4 0J420160701011010807/01/16 01:10:31  5-MIN K0J4 010610Z AUTO 00000KT 10SM CLR 22/21 A2999 250 93 1200 000/00 RMK AO2 T02220211
63870K0J4 0J420160701011510807/01/16 01:15:31  5-MIN K0J4 010615Z AUTO 00000KT 10SM CLR 22/21 A2999 250 93 1200 000/00 RMK AO2 T02220211
63870K0J4 0J420160701012010807/01/16 01:20:31  5-MIN K0J4 010620Z AUTO 00000KT 10SM CLR 22/21 A2999 250 93 1200 000/00 RMK AO2 T02220211
63870K0J4 0J420160701012510807/01/16 01:25:31  5-MIN K0J4 010625Z AUTO 00000KT 10SM CLR 22/21 A2999 250 93 1200 000/00 RMK AO2 T02220211
63870K0J4 0J420160701013010807/01/16 01:30:31  5-MIN K0J4 010630Z AUTO 00000KT 10SM CLR 22/21 A2999 250 93 1200 000/00 RMK AO2 T02220211
63870K0J4 0J420160701013510807/01/16 01:35:31  5-MIN K0J4 010635Z AUTO 00000KT 10SM CLR 22/21 A2999 250 93 1200 000/00 RMK AO2 T02220211
63870K0J4 0J420160701014010707/01/16 01:40:31  5-MIN K0J4 010640Z AUTO 00000KT 9SM CLR 22/21 A2999 250 93 1200 000/00 RMK AO2 T02220211
63870K0J4 0J420160701014510707/01/16 01:45:31  5-MIN K0J4 010645Z AUTO 00000KT 9SM CLR 22/21 A2999 250 93 1200 000/00 RMK AO2 T02220211
63870K0J4 0J420160701015010807/01/16 01:50:31  5-MIN K0J4 010650Z AUTO 00000KT 10SM CLR 22/21 A2999 250 93 1200 000/00 RMK AO2 T02220211
63870K0J4 0J420160701015511507/01/16 01:55:31  5-MIN K0J4 010655Z AUTO 00000KT 10SM CLR 23/21 A2999 250 90 1300 000/00 RMK AO2 SLP152 T02280211
63870K0J4 0J420160701020010807/01/16 02:00:31  5-MIN K0J4 010700Z AUTO 00000KT 10SM CLR 22/21 A2999 250 93 1200 000/00 RMK AO2 T02220211
63870K0J4 0J420160701020510807/01/16 02:05:31  5-MIN K0J4 010705Z AUTO 00000KT 10SM CLR 22/21 A2999 250 93 1200 000/00 RMK AO2 T02220211
63870K0J4 0J420160701021010807/01/16 02:10:31  5-MIN K0J4 010710Z AUTO 00000KT 10SM CLR 22/21 A2999 250 93 1200 000/00 RMK AO2 T02220211
63870K0J4 0J420160701021510807/01/16 02:15:31  5-MIN K0J4 010715Z AUTO 00000KT 10SM CLR 22/21 A2999 250 93 1200 000/00 RMK AO2 T02220211
63870K0J4 0J420160701022010807/01/16 02:20:31  5-MIN K0J4 010720Z AUTO 00000KT 10SM CLR 22/21 A2999 250 93 1200 000/00 RMK AO2 T02220211
63870K0J4 0J420160701022510807/01/16 02:25:31  5-MIN K0J4 010725Z AUTO 00000KT 10SM CLR 22/22 A2999 250 97 1200 000/00 RMK AO2 T02220217
63870K0J4 0J420160701023010807/01/16 02:30:31  5-MIN K0J4 010730Z AUTO 00000KT 10SM CLR 22/21 A2999 250 93 1200 000/00 RMK AO2 T02220211
63870K0J4 0J420160701023510807/01/16 02:35:31  5-MIN K0J4 010735Z AUTO 00000KT 10SM CLR 22/21 A2999 250 93 1200 000/00 RMK AO2 T02220211
63870K0J4 0J420160701024010807/01/16 02:40:31  5-MIN K0J4 010740Z AUTO 00000KT 10SM CLR 22/21 A2999 250 93 1200 000/00 RMK AO2 T02220211
63870K0J4 0J420160701024510807/01/16 02:45:31  5-MIN K0J4 010745Z AUTO 00000KT 10SM CLR 22/21 A2999 250 93 1200 000/00 RMK AO2 T02220211
63870K0J4 0J420160701025010807/01/16 02:50:31  5-MIN K0J4 010750Z AUTO 00000KT 10SM CLR 22/21 A2999 250 97 1100 000/00 RMK AO2 T02170211
63870K0J4 0J420160701025511507/01/16 02:55:31  5-MIN K0J4 010755Z AUTO 00000KT 10SM CLR 22/21 A2999 250 97 1100 000/00 RMK AO2 SLP151 T02170211
63870K0J4 0J420160701030010807/01/16 03:00:31  5-MIN K0J4 010800Z AUTO 00000KT 10SM CLR 22/21 A2999 250 93 1200 000/00 RMK AO2 T02220211
63870K0J4 0J420160701030510807/01/16 03:05:31  5-MIN K0J4 010805Z AUTO 00000KT 10SM CLR 22/21 A2999 250 93 1200 000/00 RMK AO2 T02220211
63870K0J4 0J420160701031010807/01/16 03:10:31  5-MIN K0J4 010810Z AUTO 00000KT 10SM CLR 22/21 A2999 250 93 1100 000/00 RMK AO2 T02170206
63870K0J4 0J420160701031510807/01/16 03:15:31  5-MIN K0J4 010815Z AUTO 00000KT 10SM CLR 22/21 A2999 250 93 1100 000/00 RMK AO2 T02170206
63870K0J4 0J420160701032010807/01/16 03:20:31  5-MIN K0J4 010820Z AUTO 00000KT 10SM CLR 22/21 A3000 250 93 1100 000/00 RMK AO2 T02170206
63870K0J4 0J420160701032510807/01/16 03:25:31  5-MIN K0J4 010825Z AUTO 00000KT 10SM CLR 22/21 A3000 240 93 1100 000/00 RMK AO2 T02170206
63870K0J4 0J420160701033010807/01/16 03:30:31  5-MIN K0J4 010830Z AUTO 00000KT 10SM CLR 22/21 A3000 240 93 1100 000/00 RMK AO2 T02170206
63870K0J4 0J420160701033510807/01/16 03:35:31  5-MIN K0J4 010835Z AUTO 00000KT 10SM CLR 22/21 A3000 240 93 1200 000/00 RMK AO2 T02220211
63870K0J4 0J420160701034011107/01/16 03:40:31  5-MIN K0J4 010840Z AUTO 00000KT 10SM FEW002 22/21 A3000 240 97 1100 000/00 RMK AO2 T02170211
63870K0J4 0J420160701034511107/01/16 03:45:31  5-MIN K0J4 010845Z AUTO 00000KT 10SM SCT002 22/21 A3000 250 97 1100 000/00 RMK AO2 T02170211
63870K0J4 0J420160701035011107/01/16 03:50:31  5-MIN K0J4 010850Z AUTO 00000KT 10SM SCT002 22/21 A3000 240 93 1100 000/00 RMK AO2 T02170206
63870K0J4 0J420160701035512607/01/16 03:55:31  5-MIN K0J4 010855Z AUTO 00000KT 6SM BR BKN001 22/21 A3000 250 93 1100 000/00 RMK AO2 SLP153 T02170206 58002
63870K0J4 0J420160701040011307/01/16 04:00:31  5-MIN K0J4 010900Z AUTO 00000KT 3SM BR BKN001 22/21 A3000 240 93 1100 000/00 RMK AO2 T02170206
63870K0J4 0J420160701040511407/01/16 04:05:31  5-MIN K0J4 010905Z AUTO 00000KT 1/2SM FG VV001 22/21 A3000 240 93 1100 000/00 RMK AO2 T02170206
63870K0J4 0J420160701041011407/01/16 04:10:31  5-MIN K0J4 010910Z AUTO 00000KT 1/4SM FG VV001 22/21 A3000 240 97 1100 000/00 RMK AO2 T02170211
63870K0J4 0J420160701041511407/01/16 04:15:31  5-MIN K0J4 010915Z AUTO 00000KT 1/4SM FG VV001 22/21 A3001 240 97 1100 000/00 RMK AO2 T02170211
63870K0J4 0J420160701042011407/01/16 04:20:31  5-MIN K0J4 010920Z AUTO 00000KT 1/4SM FG VV001 22/21 A3001 240 97 1100 000/00 RMK AO2 T02170211
63870K0J4 0J420160701042511407/01/16 04:25:31  5-MIN K0J4 010925Z AUTO 00000KT 1/4SM FG VV001 22/21 A3001 240 97 1100 000/00 RMK AO2 T02170211
63870K0J4 0J420160701043011407/01/16 04:30:31  5-MIN K0J4 010930Z AUTO 00000KT 1/4SM FG VV001 22/21 A3001 240 97 1100 000/00 RMK AO2 T02170211
63870K0J4 0J420160701043511407/01/16 04:35:31  5-MIN K0J4 010935Z AUTO 00000KT 1/4SM FG VV001 22/21 A3001 230 97 1100 000/00 RMK AO2 T02170211
63870K0J4 0J420160701044011407/01/16 04:40:31  5-MIN K0J4 010940Z AUTO 00000KT 1/4SM FG VV001 22/21 A3001 230 97 1100 000/00 RMK AO2 T02170211
63870K0J4 0J420160701044511407/01/16 04:45:31  5-MIN K0J4 010945Z AUTO 00000KT 1/4SM FG VV001 22/21 A3001 230 97 1100 000/00 RMK AO2 T02170211
63870K0J4 0J420160701045011407/01/16 04:50:31  5-MIN K0J4 010950Z AUTO 00000KT 1/4SM FG VV001 22/21 A3001 230 97 1100 000/00 RMK AO2 T02170211
63870K0J4 0J420160701045512107/01/16 04:55:31  5-MIN K0J4 010955Z AUTO 00000KT 1/4SM FG VV001 22/21 A3001 230 97 1100 000/00 RMK AO2 SLP158 T02170211
63870K0J4 0J420160701050011407/01/16 05:00:31  5-MIN K0J4 011000Z AUTO 00000KT 1/4SM FG VV001 22/21 A3001 230 97 1100 000/00 RMK AO2 T02170211
63870K0J4 0J420160701050511407/01/16 05:05:31  5-MIN K0J4 011005Z AUTO 00000KT 1/4SM FG VV001 22/21 A3002 230 97 1100 000/00 RMK AO2 T02170211
63870K0J4 0J420160701051011407/01/16 05:10:31  5-MIN K0J4 011010Z AUTO 00000KT 1/4SM FG VV001 22/21 A3002 230 97 1100 000/00 RMK AO2 T02170211
63870K0J4 0J420160701051511407/01/16 05:15:31  5-MIN K0J4 011015Z AUTO 00000KT 1/2SM FG VV001 22/21 A3002 230 97 1100 000/00 RMK AO2 T02170211
63870K0J4 0J420160701052011407/01/16 05:20:31  5-MIN K0J4 011020Z AUTO 00000KT 1/2SM FG VV001 22/21 A3002 220 97 1100 000/00 RMK AO2 T02170211
63870K0J4 0J420160701052511407/01/16 05:25:31  5-MIN K0J4 011025Z AUTO 00000KT 3/4SM BR VV001 22/21 A3002 230 97 1100 000/00 RMK AO2 T02170211
63870K0J4 0J420160701053011407/01/16 05:30:31  5-MIN K0J4 011030Z AUTO 00000KT 1/2SM FG VV001 22/21 A3002 220 97 1100 000/00 RMK AO2 T02170211
63870K0J4 0J420160701053511407/01/16 05:35:31  5-MIN K0J4 011035Z AUTO 00000KT 1/4SM FG VV001 22/21 A3002 220 97 1100 000/00 RMK AO2 T02170211
63870K0J4 0J420160701054011407/01/16 05:40:31  5-MIN K0J4 011040Z AUTO 00000KT 1/4SM FG VV001 22/21 A3002 220 97 1100 000/00 RMK AO2 T02170211
63870K0J4 0J420160701054513007/01/16 05:45:31  5-MIN K0J4 011045Z AUTO 00000KT 1/4SM -RA FG VV001 22/21 A3002 220 97 1100 000/00 RMK AO2 RAB45 P0000 T02170211
63870K0J4 0J420160701055012907/01/16 05:50:31  5-MIN K0J4 011050Z AUTO 00000KT 1/4SM FG VV001 22/21 A3002 220 97 1100 000/00 RMK AO2 RAB45E48 P0000 T02170211
63870K0J4 0J420160701055513607/01/16 05:55:31  5-MIN K0J4 011055Z AUTO 00000KT 1/4SM FG VV001 22/21 A3002 220 97 1100 000/00 RMK AO2 RAB45E48 SLP161 P0000 T02170211
63870K0J4 0J420160701060011407/01/16 06:00:31  5-MIN K0J4 011100Z AUTO 00000KT 1/4SM FG VV001 22/21 A3002 220 97 1100 000/00 RMK AO2 T02170211
63870K0J4 0J420160701060511407/01/16 06:05:31  5-MIN K0J4 011105Z AUTO 00000KT 1/4SM FG VV001 22/21 A3002 220 97 1100 000/00 RMK AO2 T02170211
63870K0J4 0J420160701061011207/01/16 06:10:31  5-MIN K0J4 011110Z AUTO 00000KT 1SM BR VV001 22/21 A3002 220 97 1100 000/00 RMK AO2 T02170211
63870K0J4 0J420160701061511307/01/16 06:15:31  5-MIN K0J4 011115Z AUTO 00000KT 5SM BR BKN001 22/21 A3002 220 97 1100 000/00 RMK AO2 T02170211
63870K0J4 0J420160701062011107/01/16 06:20:31  5-MIN K0J4 011120Z AUTO 00000KT 10SM SCT001 22/21 A3002 230 97 1100 000/00 RMK AO2 T02170211
63870K0J4 0J420160701062512707/01/16 06:25:31  5-MIN K0J4 011125Z AUTO 00000KT 10SM -RA FEW001 22/21 A3002 230 97 1100 000/00 RMK AO2 RAB25 P0000 T02170211
63870K0J4 0J420160701063012707/01/16 06:30:31  5-MIN K0J4 011130Z AUTO 00000KT 10SM -RA FEW001 22/22 A3002 220 97 1200 000/00 RMK AO2 RAB25 P0000 T02220217
63870K0J4 0J420160701063512407/01/16 06:35:31  5-MIN K0J4 011135Z AUTO 00000KT 10SM -RA CLR 22/22 A3002 220 97 1200 000/00 RMK AO2 RAB25 P0000 T02220217
63870K0J4 0J420160701064012307/01/16 06:40:31  5-MIN K0J4 011140Z AUTO 00000KT 10SM CLR 23/22 A3002 220 97 1200 000/00 RMK AO2 RAB25E37 P0000 T02280222
63870K0J4 0J420160701064512307/01/16 06:45:31  5-MIN K0J4 011145Z AUTO 00000KT 10SM CLR 23/22 A3002 220 97 1200 000/00 RMK AO2 RAB25E37 P0000 T02280222
63870K0J4 0J420160701065012607/01/16 06:50:31  5-MIN K0J4 011150Z AUTO 00000KT 10SM FEW001 23/22 A3002 220 97 1200 000/00 RMK AO2 RAB25E37 P0000 T02280222
63870K0J4 0J420160701065515707/01/16 06:55:31  5-MIN K0J4 011155Z AUTO 22003KT 10SM FEW001 23/22 A3002 220 97 1200 220/03 RMK AO2 RAB25E37 SLP162 P0000 60000 T02280222 10228 20217 55001
63870K0J4 0J420160701070011107/01/16 07:00:31  5-MIN K0J4 011200Z AUTO 24004KT 10SM FEW001 23/22 A3002 220 97 1200 240/04 RMK AO2 T02280222
63870K0J4 0J420160701070511107/01/16 07:05:31  5-MIN K0J4 011205Z AUTO 21003KT 10SM FEW001 23/22 A3002 220 97 1200 210/03 RMK AO2 T02280222
63870K0J4 0J420160701071011107/01/16 07:10:31  5-MIN K0J4 011210Z AUTO 20005KT 10SM FEW001 23/22 A3003 220 97 1200 200/05 RMK AO2 T02280222
63870K0J4 0J420160701071510807/01/16 07:15:31  5-MIN K0J4 011215Z AUTO 20004KT 10SM CLR 23/22 A3003 210 93 1300 200/04 RMK AO2 T02330222
63870K0J4 0J420160701072010807/01/16 07:20:31  5-MIN K0J4 011220Z AUTO 22003KT 10SM CLR 23/23 A3003 210 97 1300 220/03 RMK AO2 T02330228
63870K0J4 0J420160701072510807/01/16 07:25:31  5-MIN K0J4 011225Z AUTO 23003KT 10SM CLR 23/23 A3003 210 97 1300 230/03 RMK AO2 T02330228
63870K0J4 0J420160701073010807/01/16 07:30:31  5-MIN K0J4 011230Z AUTO VRB04KT 10SM CLR 23/23 A3003 210 97 1300 VRB/04 RMK AO2 T02330228
63870K0J4 0J420160701073510807/01/16 07:35:31  5-MIN K0J4 011235Z AUTO 25003KT 10SM CLR 24/23 A3003 210 93 1300 250/03 RMK AO2 T02390228
63870K0J4 0J420160701074010807/01/16 07:40:31  5-MIN K0J4 011240Z AUTO 00000KT 10SM CLR 24/23 A3003 210 90 1400 000/00 RMK AO2 T02440228
63870K0J4 0J420160701074510807/01/16 07:45:31  5-MIN K0J4 011245Z AUTO 00000KT 10SM CLR 25/23 A3003 210 87 1500 000/00 RMK AO2 T02500228
63870K0J4 0J420160701075010807/01/16 07:50:31  5-MIN K0J4 011250Z AUTO 00000KT 10SM CLR 26/23 A3003 210 84 1500 000/00 RMK AO2 T02560228
63870K0J4 0J420160701075511507/01/16 07:55:31  5-MIN K0J4 011255Z AUTO 00000KT 10SM CLR 26/23 A3003 210 81 1600 000/00 RMK AO2 SLP165 T02610228
63870K0J4 0J420160701080010807/01/16 08:00:31  5-MIN K0J4 011300Z AUTO 00000KT 10SM CLR 26/23 A3003 210 84 1600 000/00 RMK AO2 T02610233
63870K0J4 0J420160701080510807/01/16 08:05:31  5-MIN K0J4 011305Z AUTO 00000KT 10SM CLR 27/23 A3003 210 82 1600 000/00 RMK AO2 T02670233
63870K0J4 0J420160701081010807/01/16 08:10:31  5-MIN K0J4 011310Z AUTO 00000KT 10SM CLR 27/23 A3003 210 79 1600 000/00 RMK AO2 T02670228
63870K0J4 0J420160701081510807/01/16 08:15:31  5-MIN K0J4 011315Z AUTO VRB03KT 10SM CLR 27/23 A3003 210 79 1600 VRB/03 RMK AO2 T02670228
63870K0J4 0J420160701082010807/01/16 08:20:31  5-MIN K0J4 011320Z AUTO 00000KT 10SM CLR 27/23 A3003 210 79 1600 000/00 RMK AO2 T02670228
63870K0J4 0J420160701082510807/01/16 08:25:31  5-MIN K0J4 011325Z AUTO 32004KT 10SM CLR 27/23 A3003 210 76 1700 320/04 RMK AO2 T02720228
63870K0J4 0J420160701083010807/01/16 08:30:31  5-MIN K0J4 011330Z AUTO 00000KT 10SM CLR 27/23 A3003 210 76 1700 000/00 RMK AO2 T02720228
63870K0J4 0J420160701083511107/01/16 08:35:31  5-MIN K0J4 011335Z AUTO 23003KT 10SM FEW015 27/23 A3004 210 76 1700 230/03 RMK AO2 T02720228
63870K0J4 0J420160701084011107/01/16 08:40:31  5-MIN K0J4 011340Z AUTO 22004KT 10SM FEW015 27/23 A3004 210 76 1700 220/04 RMK AO2 T02720228
63870K0J4 0J420160701084511107/01/16 08:45:31  5-MIN K0J4 011345Z AUTO 23003KT 10SM FEW015 27/22 A3004 210 76 1600 230/03 RMK AO2 T02670222
63870K0J4 0J420160701085011107/01/16 08:50:31  5-MIN K0J4 011350Z AUTO 03003KT 10SM SCT017 27/23 A3004 200 76 1700 030/03 RMK AO2 T02720228
63870K0J4 0J420160701085510807/01/16 08:55:31  5-MIN K0J4 011355Z AUTO 00000KT 10SM BKN017 BKN024 27/23 A3004 200 76 1700 000/00 RMK AO2
63870K0J4 0J420160701090011807/01/16 09:00:31  5-MIN K0J4 011400Z AUTO 00000KT 10SM SCT017 BKN022 27/22 A3004 200 74 1700 000/00 RMK AO2 T02720222
63870K0J4 0J420160701090511807/01/16 09:05:31  5-MIN K0J4 011405Z AUTO 00000KT 10SM SCT017 SCT024 27/22 A3004 210 74 1700 000/00 RMK AO2 T02720222
63870K0J4 0J420160701091011807/01/16 09:10:31  5-MIN K0J4 011410Z AUTO 00000KT 10SM FEW017 SCT024 28/22 A3004 200 71 1800 000/00 RMK AO2 T02780222
63870K0J4 0J420160701091514107/01/16 09:15:31  5-MIN K0J4 011415Z AUTO 00000KT 10SM -RA FEW017 SCT024 SCT034 28/22 A3004 200 69 1800 000/00 RMK AO2 RAB11 P0000 T02830222
63870K0J4 0J420160701092013407/01/16 09:20:31  5-MIN K0J4 011420Z AUTO 00000KT 10SM -RA SCT020 BKN034 29/22 A3004 210 67 1900 000/00 RMK AO2 RAB11 P0000 T02890222
63870K0J4 0J420160701092513407/01/16 09:25:31  5-MIN K0J4 011425Z AUTO 27003KT 10SM -RA SCT018 SCT033 28/22 A3004 200 69 1800 270/03 RMK AO2 RAB11 P0000 T02780217
63870K0J4 0J420160701093013307/01/16 09:30:31  5-MIN K0J4 011430Z AUTO 00000KT 10SM FEW018 FEW033 28/22 A3004 200 71 1800 000/00 RMK AO2 RAB11E26 P0000 T02780222
63870K0J4 0J420160701093513307/01/16 09:35:31  5-MIN K0J4 011435Z AUTO 33003KT 10SM FEW018 FEW032 28/22 A3005 200 69 1800 330/03 RMK AO2 RAB11E26 P0000 T02830222
63870K0J4 0J420160701094014007/01/16 09:40:31  5-MIN K0J4 011440Z AUTO 00000KT 10SM FEW019 SCT050 SCT060 29/22 A3005 200 67 1900 000/00 RMK AO2 RAB11E26 P0000 T02890222
63870K0J4 0J420160701094514007/01/16 09:45:31  5-MIN K0J4 011445Z AUTO VRB03KT 10SM SCT021 SCT050 BKN060 29/22 A3004 200 64 1900 VRB/03 RMK AO2 RAB11E26 P0000 T02940222
63870K0J4 0J420160701095014007/01/16 09:50:31  5-MIN K0J4 011450Z AUTO VRB05KT 10SM SCT023 SCT028 BKN050 29/22 A3005 200 64 1900 VRB/05 RMK AO2 RAB11E26 P0000 T02940222
63870K0J4 0J420160701095515907/01/16 09:55:31  5-MIN K0J4 011455Z AUTO VRB03KT 10SM SCT023 BKN032 BKN055 28/22 A3005 200 66 1800 VRB/03 RMK AO2 RAB11E26 SLP170 P0000 60000 T02830217 51009
63870K0J4 0J420160701100012507/01/16 10:00:31  5-MIN K0J4 011500Z AUTO 28004KT 10SM SCT023 SCT032 BKN055 28/21 A3005 200 64 1800 280/04 RMK AO2 T02830211
63870K0J4 0J420160701100511807/01/16 10:05:31  5-MIN K0J4 011505Z AUTO VRB03KT 10SM FEW023 SCT055 29/22 A3005 200 64 1900 VRB/03 RMK AO2 T02940222
63870K0J4 0J420160701101011807/01/16 10:10:31  5-MIN K0J4 011510Z AUTO VRB03KT 10SM FEW023 SCT050 29/22 A3005 190 62 1900 VRB/03 RMK AO2 T02940217
63870K0J4 0J420160701101511807/01/16 10:15:31  5-MIN K0J4 011515Z AUTO 34004KT 10SM FEW023 FEW050 29/22 A3005 190 62 1900 340/04 RMK AO2 T02940217
63870K0J4 0J420160701102011107/01/16 10:20:31  5-MIN K0J4 011520Z AUTO 00000KT 10SM FEW060 30/22 A3005 190 62 2000 000/00 RMK AO2 T03000222
63870K0J4 0J420160701102511807/01/16 10:25:31  5-MIN K0J4 011525Z AUTO 32007KT 10SM FEW027 SCT060 31/22 A3005 190 58 2100 320/07 RMK AO2 T03060217
63870K0J4 0J420160701103011807/01/16 10:30:31  5-MIN K0J4 011530Z AUTO 31004KT 10SM FEW027 SCT060 28/22 A3006 190 66 1800 310/04 RMK AO2 T02830217
63870K0J4 0J420160701103511107/01/16 10:35:31  5-MIN K0J4 011535Z AUTO 01005KT 10SM SCT060 29/22 A3006 190 64 1900 010/05 RMK AO2 T02890217
63870K0J4 0J420160701104011807/01/16 10:40:31  5-MIN K0J4 011540Z AUTO VRB06KT 10SM FEW027 SCT060 29/21 A3006 190 60 1900 VRB/06 RMK AO2 T02940211
63870K0J4 0J420160701104512507/01/16 10:45:31  5-MIN K0J4 011545Z AUTO VRB06KT 10SM SCT030 SCT037 BKN060 29/21 A3006 190 62 1900 VRB/06 RMK AO2 T02890211
63870K0J4 0J420160701105012507/01/16 10:50:31  5-MIN K0J4 011550Z AUTO VRB04KT 10SM FEW026 BKN033 BKN060 29/22 A3006 190 64 1900 VRB/04 RMK AO2 T02940222
63870K0J4 0J420160701105514807/01/16 10:55:31  5-MIN K0J4 011555Z AUTO 33007KT 300V360 10SM FEW028 SCT037 BKN055 29/22 A3006 190 64 1900 330/07 300V360 RMK AO2 SLP174 T02940222
63870K0J4 0J420160701110012507/01/16 11:00:31  5-MIN K0J4 011600Z AUTO VRB03KT 10SM FEW028 BKN055 BKN070 29/22 A3006 190 64 1900 VRB/03 RMK AO2 T02940222
63870K0J4 0J420160701110512507/01/16 11:05:31  5-MIN K0J4 011605Z AUTO VRB05KT 10SM FEW028 FEW035 SCT055 31/22 A3006 190 60 2100 VRB/05 RMK AO2 T03060222
63870K0J4 0J420160701111013407/01/16 11:10:31  5-MIN K0J4 011610Z AUTO 33007KT 310V020 10SM FEW028 SCT055 30/21 A3006 190 58 2000 330/07 310V020 RMK AO2 T03000211
63870K0J4 0J420160701111511807/01/16 11:15:31  5-MIN K0J4 011615Z AUTO 00000KT 10SM FEW028 SCT055 30/21 A3006 190 58 2000 000/00 RMK AO2 T03000211
63870K0J4 0J420160701112011107/01/16 11:20:31  5-MIN K0J4 011620Z AUTO VRB06KT 10SM FEW055 31/22 A3005 190 58 2100 VRB/06 RMK AO2 T03060217
63870K0J4 0J420160701112511107/01/16 11:25:31  5-MIN K0J4 011625Z AUTO 35007KT 10SM FEW055 31/22 A3005 190 58 2100 350/07 RMK AO2 T03060217
63870K0J4 0J420160701113011807/01/16 11:30:31  5-MIN K0J4 011630Z AUTO 34006KT 10SM FEW043 SCT050 31/22 A3005 190 58 2100 340/06 RMK AO2 T03060217
63870K0J4 0J420160701113512507/01/16 11:35:31  5-MIN K0J4 011635Z AUTO VRB05KT 10SM SCT028 SCT043 BKN050 29/22 A3005 190 62 1900 VRB/05 RMK AO2 T02940217
63870K0J4 0J420160701114012507/01/16 11:40:31  5-MIN K0J4 011640Z AUTO VRB04KT 10SM SCT028 BKN038 BKN048 29/22 A3006 190 67 1900 VRB/04 RMK AO2 T02890222
63870K0J4 0J420160701114512507/01/16 11:45:31  5-MIN K0J4 011645Z AUTO 35005KT 10SM FEW026 SCT034 SCT041 29/22 A3005 190 67 1900 350/05 RMK AO2 T02890222
63870K0J4 0J420160701115012507/01/16 11:50:31  5-MIN K0J4 011650Z AUTO 36005KT 10SM FEW026 FEW034 SCT041 30/22 A3005 190 62 2000 360/05 RMK AO2 T03000222
63870K0J4 0J420160701115513207/01/16 11:55:31  5-MIN K0J4 011655Z AUTO 04007KT 10SM FEW026 FEW034 SCT043 31/22 A3005 200 60 2100 040/07 RMK AO2 SLP171 T03060222
63870K0J4 0J420160701120011807/01/16 12:00:31  5-MIN K0J4 011700Z AUTO 05007KT 10SM FEW028 FEW036 31/23 A3005 200 60 2100 050/07 RMK AO2 T03110228
63870K0J4 0J420160701120512507/01/16 12:05:31  5-MIN K0J4 011705Z AUTO VRB05KT 10SM FEW034 FEW047 SCT065 31/22 A3004 200 58 2100 VRB/05 RMK AO2 T03110222
63870K0J4 0J420160701121012507/01/16 12:10:31  5-MIN K0J4 011710Z AUTO 02007KT 10SM FEW030 SCT047 SCT065 30/22 A3004 200 60 2000 020/07 RMK AO2 T03000217
63870K0J4 0J420160701121512507/01/16 12:15:31  5-MIN K0J4 011715Z AUTO 01005KT 10SM FEW030 SCT047 SCT065 31/22 A3004 210 60 2100 010/05 RMK AO2 T03060222
63870K0J4 0J420160701122011807/01/16 12:20:31  5-MIN K0J4 011720Z AUTO 36007KT 10SM FEW030 FEW065 31/22 A3004 210 58 2100 360/07 RMK AO2 T03110222
63870K0J4 0J420160701122511807/01/16 12:25:31  5-MIN K0J4 011725Z AUTO 03007KT 10SM FEW030 FEW065 31/22 A3003 210 56 2100 030/07 RMK AO2 T03110217
63870K0J4 0J420160701123011807/01/16 12:30:31  5-MIN K0J4 011730Z AUTO 01005KT 10SM FEW030 FEW065 32/22 A3003 210 55 2200 010/05 RMK AO2 T03170217
63870K0J4 0J420160701123512507/01/16 12:35:31  5-MIN K0J4 011735Z AUTO 01009KT 10SM FEW030 SCT036 SCT048 31/22 A3003 210 56 2100 010/09 RMK AO2 T03110217
63870K0J4 0J420160701124011807/01/16 12:40:31  5-MIN K0J4 011740Z AUTO 35007KT 10SM FEW036 SCT048 31/22 A3003 220 58 2100 350/07 RMK AO2 T03110222
63870K0J4 0J420160701124511807/01/16 12:45:31  5-MIN K0J4 011745Z AUTO 02005KT 10SM FEW036 FEW047 32/21 A3003 220 53 2200 020/05 RMK AO2 T03170211
63870K0J4 0J420160701125011107/01/16 12:50:31  5-MIN K0J4 011750Z AUTO 02005KT 10SM FEW037 32/22 A3002 220 53 2300 020/05 RMK AO2 T03220217
63870K0J4 0J420160701125514207/01/16 12:55:31  5-MIN K0J4 011755Z AUTO 35007KT 10SM FEW037 32/22 A3002 230 53 2300 350/07 RMK AO2 SLP160 60000 T03220217 10322 20261 51008
63870K0J4 0J420160701130011107/01/16 13:00:31  5-MIN K0J4 011800Z AUTO VRB05KT 10SM FEW038 32/22 A3002 220 53 2300 VRB/05 RMK AO2 T03220217
63870K0J4 0J420160701130510807/01/16 13:05:31  5-MIN K0J4 011805Z AUTO VRB04KT 10SM CLR 32/21 A3002 220 51 2300 VRB/04 RMK AO2 T03220211
63870K0J4 0J420160701131011107/01/16 13:10:31  5-MIN K0J4 011810Z AUTO VRB03KT 10SM FEW050 33/21 A3002 230 49 2300 VRB/03 RMK AO2 T03280211
63870K0J4 0J420160701131511107/01/16 13:15:31  5-MIN K0J4 011815Z AUTO 04007KT 10SM SCT045 33/21 A3001 230 48 2300 040/07 RMK AO2 T03280206
63870K0J4 0J420160701132011107/01/16 13:20:31  5-MIN K0J4 011820Z AUTO 36005KT 10SM SCT045 32/21 A3001 230 49 2300 360/05 RMK AO2 T03220206
63870K0J4 0J420160701132511807/01/16 13:25:31  5-MIN K0J4 011825Z AUTO 03007KT 10SM FEW047 SCT055 32/21 A3001 230 51 2200 030/07 RMK AO2 T03170206
63870K0J4 0J420160701133013407/01/16 13:30:31  5-MIN K0J4 011830Z AUTO 01007KT 320V050 10SM FEW047 SCT055 32/21 A3001 230 49 2300 010/07 320V050 RMK AO2 T03220206
63870K0J4 0J420160701133511107/01/16 13:35:31  5-MIN K0J4 011835Z AUTO 06005KT 10SM FEW047 33/21 A3001 240 49 2400 060/05 RMK AO2 T03280211
63870K0J4 0J420160701134011107/01/16 13:40:31  5-MIN K0J4 011840Z AUTO 01007KT 10SM FEW047 33/21 A3000 240 48 2400 010/07 RMK AO2 T03280206
63870K0J4 0J420160701134511107/01/16 13:45:31  5-MIN K0J4 011845Z AUTO VRB04KT 10SM FEW055 33/21 A3000 240 48 2400 VRB/04 RMK AO2 T03280206
63870K0J4 0J420160701135011107/01/16 13:50:31  5-MIN K0J4 011850Z AUTO 05004KT 10SM FEW055 33/21 A3000 240 48 2400 050/04 RMK AO2 T03280206
63870K0J4 0J420160701135511807/01/16 13:55:31  5-MIN K0J4 011855Z AUTO VRB03KT 10SM FEW046 33/21 A3000 240 49 2400 VRB/03 RMK AO2 SLP154 T03280211
63870K0J4 0J420160701140012707/01/16 14:00:31  5-MIN K0J4 011900Z AUTO 36008KT 330V040 10SM FEW044 32/21 A3000 250 49 2300 360/08 330V040 RMK AO2 T03220206
63870K0J4 0J420160701140511107/01/16 14:05:31  5-MIN K0J4 011905Z AUTO 04007KT 10SM FEW044 32/21 A2999 250 49 2300 040/07 RMK AO2 T03220206
63870K0J4 0J420160701141011107/01/16 14:10:31  5-MIN K0J4 011910Z AUTO 00000KT 10SM FEW045 33/21 A2999 250 48 2400 000/00 RMK AO2 T03330211
63870K0J4 0J420160701141511107/01/16 14:15:31  5-MIN K0J4 011915Z AUTO 36006KT 10SM SCT045 33/21 A2999 250 46 2400 360/06 RMK AO2 T03330206
63870K0J4 0J420160701142011107/01/16 14:20:31  5-MIN K0J4 011920Z AUTO VRB04KT 10SM FEW046 33/20 A2999 250 45 2400 VRB/04 RMK AO2 T03330200
63870K0J4 0J420160701142511107/01/16 14:25:31  5-MIN K0J4 011925Z AUTO VRB03KT 10SM FEW046 34/20 A2999 250 43 2500 VRB/03 RMK AO2 T03390200
63870K0J4 0J420160701143011107/01/16 14:30:31  5-MIN K0J4 011930Z AUTO VRB04KT 10SM FEW048 34/21 A2999 250 45 2500 VRB/04 RMK AO2 T03390206
63870K0J4 0J420160701143511107/01/16 14:35:31  5-MIN K0J4 011935Z AUTO 02005KT 10SM SCT048 33/20 A2999 250 46 2400 020/05 RMK AO2 T03280200
63870K0J4 0J420160701144011107/01/16 14:40:31  5-MIN K0J4 011940Z AUTO 01005KT 10SM SCT048 32/20 A2999 250 48 2300 010/05 RMK AO2 T03220200
63870K0J4 0J420160701144511107/01/16 14:45:31  5-MIN K0J4 011945Z AUTO VRB05KT 10SM SCT048 33/20 A2999 260 45 2400 VRB/05 RMK AO2 T03330200
63870K0J4 0J420160701145011107/01/16 14:50:31  5-MIN K0J4 011950Z AUTO 36004KT 10SM FEW049 32/19 A2999 260 46 2300 360/04 RMK AO2 T03220194
63870K0J4 0J420160701145511807/01/16 14:55:31  5-MIN K0J4 011955Z AUTO VRB03KT 10SM FEW049 32/19 A2998 260 46 2300 VRB/03 RMK AO2 SLP149 T03220194
63870K0J4 0J420160701150011107/01/16 15:00:31  5-MIN K0J4 012000Z AUTO 05006KT 10SM SCT049 33/20 A2999 250 46 2400 050/06 RMK AO2 T03280200
63870K0J4 0J420160701150511807/01/16 15:05:31  5-MIN K0J4 012005Z AUTO 03006KT 10SM SCT049 BKN060 32/19 A2999 250 46 2300 030/06 RMK AO2 T03220194
63870K0J4 0J420160701151011107/01/16 15:10:31  5-MIN K0J4 012010Z AUTO 03005KT 10SM BKN055 32/19 A2999 250 44 2300 030/05 RMK AO2 T03220189
63870K0J4 0J420160701151511807/01/16 15:15:31  5-MIN K0J4 012015Z AUTO VRB04KT 10SM SCT050 SCT065 32/19 A2999 250 44 2300 VRB/04 RMK AO2 T03220189
63870K0J4 0J420160701152011107/01/16 15:20:31  5-MIN K0J4 012020Z AUTO VRB03KT 10SM SCT055 33/19 A2999 260 42 2400 VRB/03 RMK AO2 T03330189
63870K0J4 0J420160701152510107/01/16 15:25:31  5-MIN K0J4 012025Z AUTO 10SM SCT055 33/20 A2999 260 45 2400 M /M RMK AO2 T03330200
63870K0J4 0J420160701153011107/01/16 15:30:31  5-MIN K0J4 012030Z AUTO 36007KT 10SM FEW055 34/20 A2999 250 43 2500 360/07 RMK AO2 T03390200
63870K0J4 0J420160701153511807/01/16 15:35:31  5-MIN K0J4 012035Z AUTO 01005KT 10SM FEW055 SCT070 33/19 A2999 260 44 2400 010/05 RMK AO2 T03280194
63870K0J4 0J420160701154011807/01/16 15:40:31  5-MIN K0J4 012040Z AUTO 02006KT 10SM FEW060 SCT075 33/19 A2999 260 43 2400 020/06 RMK AO2 T03330194
63870K0J4 0J420160701154511807/01/16 15:45:31  5-MIN K0J4 012045Z AUTO VRB05KT 10SM FEW060 FEW075 33/19 A2999 260 43 2400 VRB/05 RMK AO2 T03330194
63870K0J4 0J420160701155011107/01/16 15:50:31  5-MIN K0J4 012050Z AUTO 03007KT 10SM FEW060 34/19 A2998 260 42 2500 030/07 RMK AO2 T03390194
63870K0J4 0J420160701155512407/01/16 15:55:31  5-MIN K0J4 012055Z AUTO 01006KT 10SM FEW060 34/19 A2998 260 42 2500 010/06 RMK AO2 SLP148 T03390194 58010
63870K0J4 0J420160701160011107/01/16 16:00:31  5-MIN K0J4 012100Z AUTO 01007KT 10SM FEW060 33/19 A2998 260 43 2400 010/07 RMK AO2 T03330194
63870K0J4 0J420160701160511107/01/16 16:05:31  5-MIN K0J4 012105Z AUTO 01007KT 10SM FEW060 34/18 A2998 260 39 2500 010/07 RMK AO2 T03390183
63870K0J4 0J420160701161011107/01/16 16:10:31  5-MIN K0J4 012110Z AUTO 00000KT 10SM FEW060 34/18 A2998 260 39 2500 000/00 RMK AO2 T03390183
63870K0J4 0J420160701161511107/01/16 16:15:31  5-MIN K0J4 012115Z AUTO 05006KT 10SM FEW060 34/19 A2998 260 40 2500 050/06 RMK AO2 T03390189
63870K0J4 0J420160701162010807/01/16 16:20:31  5-MIN K0J4 012120Z AUTO 04005KT 10SM CLR 34/18 A2997 270 39 2500 040/05 RMK AO2 T03390183
63870K0J4 0J420160701162510807/01/16 16:25:31  5-MIN K0J4 012125Z AUTO 02005KT 10SM CLR 34/18 A2998 260 37 2500 020/05 RMK AO2 T03390178
63870K0J4 0J420160701163010807/01/16 16:30:31  5-MIN K0J4 012130Z AUTO 03004KT 10SM CLR 34/18 A2998 260 37 2500 030/04 RMK AO2 T03390178
63870K0J4 0J420160701163510807/01/16 16:35:31  5-MIN K0J4 012135Z AUTO 03006KT 10SM CLR 34/18 A2998 260 39 2500 030/06 RMK AO2 T03390183
63870K0J4 0J420160701164010807/01/16 16:40:31  5-MIN K0J4 012140Z AUTO 03005KT 10SM CLR 33/19 A2998 260 42 2400 030/05 RMK AO2 T03330189
63870K0J4 0J420160701164510807/01/16 16:45:31  5-MIN K0J4 012145Z AUTO 05005KT 10SM CLR 34/18 A2998 260 39 2500 050/05 RMK AO2 T03390183
63870K0J4 0J420160701165010807/01/16 16:50:31  5-MIN K0J4 012150Z AUTO VRB03KT 10SM CLR 34/18 A2998 260 39 2500 VRB/03 RMK AO2 T03390183
63870K0J4 0J420160701165511507/01/16 16:55:31  5-MIN K0J4 012155Z AUTO VRB03KT 10SM CLR 34/19 A2998 260 40 2500 VRB/03 RMK AO2 SLP146 T03390189
63870K0J4 0J420160701170010807/01/16 17:00:31  5-MIN K0J4 012200Z AUTO 00000KT 10SM CLR 34/18 A2998 270 39 2500 000/00 RMK AO2 T03390183
63870K0J4 0J420160701170511107/01/16 17:05:31  5-MIN K0J4 012205Z AUTO 00000KT 10SM SCT060 34/19 A2997 270 39 2600 000/00 RMK AO2 T03440189
63870K0J4 0J420160701171011107/01/16 17:10:31  5-MIN K0J4 012210Z AUTO VRB03KT 10SM BKN060 34/19 A2997 270 39 2600 VRB/03 RMK AO2 T03440189
63870K0J4 0J420160701171511107/01/16 17:15:31  5-MIN K0J4 012215Z AUTO 02004KT 10SM SCT060 34/19 A2997 270 40 2500 020/04 RMK AO2 T03390189
63870K0J4 0J420160701172011107/01/16 17:20:31  5-MIN K0J4 012220Z AUTO VRB05KT 10SM SCT060 34/19 A2997 270 40 2500 VRB/05 RMK AO2 T03390189
63870K0J4 0J420160701172511107/01/16 17:25:31  5-MIN K0J4 012225Z AUTO 02006KT 10SM BKN060 34/19 A2997 270 40 2500 020/06 RMK AO2 T03390189
63870K0J4 0J420160701173011107/01/16 17:30:31  5-MIN K0J4 012230Z AUTO VRB06KT 10SM BKN060 33/18 A2997 270 41 2400 VRB/06 RMK AO2 T03280183
63870K0J4 0J420160701173511107/01/16 17:35:31  5-MIN K0J4 012235Z AUTO 36005KT 10SM BKN060 33/18 A2997 270 39 2500 360/05 RMK AO2 T03330178
63870K0J4 0J420160701174011107/01/16 17:40:31  5-MIN K0J4 012240Z AUTO 36005KT 10SM SCT060 33/18 A2997 270 39 2500 360/05 RMK AO2 T03330178
63870K0J4 0J420160701174511107/01/16 17:45:31  5-MIN K0J4 012245Z AUTO 00000KT 10SM SCT060 34/18 A2997 270 39 2500 000/00 RMK AO2 T03390183
63870K0J4 0J420160701175011107/01/16 17:50:31  5-MIN K0J4 012250Z AUTO VRB04KT 10SM SCT060 34/18 A2997 270 39 2500 VRB/04 RMK AO2 T03390183
63870K0J4 0J420160701175511807/01/16 17:55:31  5-MIN K0J4 012255Z AUTO 33006KT 10SM FEW060 33/18 A2997 270 40 2500 330/06 RMK AO2 SLP144 T03330183
63870K0J4 0J420160701180010807/01/16 18:00:31  5-MIN K0J4 012300Z AUTO 01004KT 10SM CLR 33/18 A2997 270 39 2500 010/04 RMK AO2 T03330178
63870K0J4 0J420160701180510807/01/16 18:05:31  5-MIN K0J4 012305Z AUTO 36005KT 10SM CLR 33/18 A2997 270 40 2500 360/05 RMK AO2 T03330183
63870K0J4 0J420160701181010807/01/16 18:10:31  5-MIN K0J4 012310Z AUTO 01005KT 10SM CLR 33/18 A2997 270 40 2500 010/05 RMK AO2 T03330183
63870K0J4 0J420160701181510807/01/16 18:15:31  5-MIN K0J4 012315Z AUTO 36003KT 10SM CLR 33/18 A2998 270 40 2500 360/03 RMK AO2 T03330183
63870K0J4 0J420160701182010807/01/16 18:20:31  5-MIN K0J4 012320Z AUTO 36004KT 10SM CLR 33/18 A2998 260 40 2500 360/04 RMK AO2 T03330183
63870K0J4 0J420160701182510807/01/16 18:25:31  5-MIN K0J4 012325Z AUTO VRB03KT 10SM CLR 33/18 A2998 260 40 2400 VRB/03 RMK AO2 T03280178
63870K0J4 0J420160701183010807/01/16 18:30:31  5-MIN K0J4 012330Z AUTO VRB03KT 10SM CLR 33/18 A2998 260 40 2400 VRB/03 RMK AO2 T03280178
63870K0J4 0J420160701183510807/01/16 18:35:31  5-MIN K0J4 012335Z AUTO VRB03KT 10SM CLR 33/18 A2998 260 40 2400 VRB/03 RMK AO2 T03280178
63870K0J4 0J420160701184010807/01/16 18:40:31  5-MIN K0J4 012340Z AUTO 00000KT 10SM CLR 33/18 A2998 260 40 2400 000/00 RMK AO2 T03280178
63870K0J4 0J420160701184510807/01/16 18:45:31  5-MIN K0J4 012345Z AUTO 35004KT 10SM CLR 32/18 A2998 260 41 2300 350/04 RMK AO2 T03220178
63870K0J4 0J420160701185010807/01/16 18:50:31  5-MIN K0J4 012350Z AUTO VRB03KT 10SM CLR 32/18 A2999 260 43 2300 VRB/03 RMK AO2 T03220183
63870K0J4 0J420160701185513307/01/16 18:55:31  5-MIN K0J4 012355Z AUTO VRB03KT 10SM CLR 32/18 A2999 260 43 2300 VRB/03 RMK AO2 SLP149 T03170178 10344 20317 56013
63870K0J4 0J420160701190010807/01/16 19:00:31  5-MIN K0J4 020000Z AUTO 33003KT 10SM CLR 32/18 A2999 250 44 2300 330/03 RMK AO2 T03170183
63870K0J4 0J420160701190510807/01/16 19:05:31  5-MIN K0J4 020005Z AUTO 00000KT 10SM CLR 31/18 A2999 250 46 2200 000/00 RMK AO2 T03110183
63870K0J4 0J420160701191010807/01/16 19:10:31  5-MIN K0J4 020010Z AUTO 00000KT 10SM CLR 31/19 A2999 250 47 2200 000/00 RMK AO2 T03110189
63870K0J4 0J420160701191510807/01/16 19:15:31  5-MIN K0J4 020015Z AUTO 00000KT 10SM CLR 30/19 A2999 250 51 2100 000/00 RMK AO2 T03000189
63870K0J4 0J420160701192010807/01/16 19:20:31  5-MIN K0J4 020020Z AUTO 00000KT 10SM CLR 30/19 A3000 250 52 2100 000/00 RMK AO2 T03000194
63870K0J4 0J420160701192510807/01/16 19:25:31  5-MIN K0J4 020025Z AUTO 00000KT 10SM CLR 29/19 A2999 250 52 2000 000/00 RMK AO2 T02940189
63870K0J4 0J420160701193010807/01/16 19:30:31  5-MIN K0J4 020030Z AUTO 00000KT 10SM CLR 29/19 A2999 250 54 2000 000/00 RMK AO2 T02940194
63870K0J4 0J420160701193510807/01/16 19:35:31  5-MIN K0J4 020035Z AUTO 00000KT 10SM CLR 29/19 A2999 250 54 2000 000/00 RMK AO2 T02940194
63870K0J4 0J420160701194010807/01/16 19:40:31  5-MIN K0J4 020040Z AUTO 00000KT 10SM CLR 28/20 A2999 250 60 1900 000/00 RMK AO2 T02830200
63870K0J4 0J420160701194510807/01/16 19:45:31  5-MIN K0J4 020045Z AUTO 00000KT 10SM CLR 28/20 A3000 250 62 1800 000/00 RMK AO2 T02780200
63870K0J4 0J420160701195010807/01/16 19:50:31  5-MIN K0J4 020050Z AUTO 35003KT 10SM CLR 28/20 A3000 250 62 1800 350/03 RMK AO2 T02780200
63870K0J4 0J420160701195511507/01/16 19:55:31  5-MIN K0J4 020055Z AUTO 00000KT 10SM CLR 28/19 A3000 250 58 1900 000/00 RMK AO2 SLP153 T02830194
63870K0J4 0J420160701200010807/01/16 20:00:31  5-MIN K0J4 020100Z AUTO 00000KT 10SM CLR 27/20 A3000 250 64 1800 000/00 RMK AO2 T02720200
63870K0J4 0J420160701200510807/01/16 20:05:31  5-MIN K0J4 020105Z AUTO 19005KT 10SM CLR 26/21 A3000 240 73 1600 190/05 RMK AO2 T02610211
63870K0J4 0J420160701201010807/01/16 20:10:31  5-MIN K0J4 020110Z AUTO 21004KT 10SM CLR 26/21 A3000 240 71 1600 210/04 RMK AO2 T02610206
63870K0J4 0J420160701201510807/01/16 20:15:31  5-MIN K0J4 020115Z AUTO 22003KT 10SM CLR 27/20 A3000 240 64 1700 220/03 RMK AO2 T02720200
63870K0J4 0J420160701202010807/01/16 20:20:31  5-MIN K0J4 020120Z AUTO 21005KT 10SM CLR 28/21 A3000 240 64 1800 210/05 RMK AO2 T02780206
63870K0J4 0J420160701202510807/01/16 20:25:31  5-MIN K0J4 020125Z AUTO 20005KT 10SM CLR 27/22 A3000 240 71 1700 200/05 RMK AO2 T02720217
63870K0J4 0J420160701203010807/01/16 20:30:31  5-MIN K0J4 020130Z AUTO 19004KT 10SM CLR 28/23 A3000 240 74 1800 190/04 RMK AO2 T02780228
63870K0J4 0J420160701203510807/01/16 20:35:31  5-MIN K0J4 020135Z AUTO 19003KT 10SM CLR 27/23 A3001 240 76 1700 190/03 RMK AO2 T02720228
63870K0J4 0J420160701204010807/01/16 20:40:31  5-MIN K0J4 020140Z AUTO 19003KT 10SM CLR 27/23 A3001 240 79 1700 190/03 RMK AO2 T02670228
63870K0J4 0J420160701204510807/01/16 20:45:31  5-MIN K0J4 020145Z AUTO 19004KT 10SM CLR 27/23 A3001 230 79 1700 190/04 RMK AO2 T02670228
63870K0J4 0J420160701205010807/01/16 20:50:31  5-MIN K0J4 020150Z AUTO 19004KT 10SM CLR 27/23 A3001 230 82 1700 190/04 RMK AO2 T02670233
63870K0J4 0J420160701205511507/01/16 20:55:31  5-MIN K0J4 020155Z AUTO 20005KT 10SM CLR 27/23 A3001 230 82 1700 200/05 RMK AO2 SLP159 T02670233
63870K0J4 0J420160701210010807/01/16 21:00:31  5-MIN K0J4 020200Z AUTO 21006KT 10SM CLR 27/23 A3001 230 82 1700 210/06 RMK AO2 T02670233
63870K0J4 0J420160701210510807/01/16 21:05:31  5-MIN K0J4 020205Z AUTO 21005KT 10SM CLR 27/23 A3001 230 82 1700 210/05 RMK AO2 T02670233
63870K0J4 0J420160701211010807/01/16 21:10:31  5-MIN K0J4 020210Z AUTO 20005KT 10SM CLR 27/23 A3002 230 82 1700 200/05 RMK AO2 T02670233
63870K0J4 0J420160701211510807/01/16 21:15:31  5-MIN K0J4 020215Z AUTO 20004KT 10SM CLR 27/23 A3002 220 82 1700 200/04 RMK AO2 T02670233
63870K0J4 0J420160701212010807/01/16 21:20:31  5-MIN K0J4 020220Z AUTO 19004KT 10SM CLR 27/23 A3002 220 82 1700 190/04 RMK AO2 T02670233
63870K0J4 0J420160701212510807/01/16 21:25:31  5-MIN K0J4 020225Z AUTO 20004KT 10SM CLR 27/23 A3003 220 82 1700 200/04 RMK AO2 T02670233
63870K0J4 0J420160701213010807/01/16 21:30:31  5-MIN K0J4 020230Z AUTO 20005KT 10SM CLR 27/23 A3003 220 82 1700 200/05 RMK AO2 T02670233
63870K0J4 0J420160701213510807/01/16 21:35:31  5-MIN K0J4 020235Z AUTO 20005KT 10SM CLR 27/23 A3003 210 82 1700 200/05 RMK AO2 T02670233
63870K0J4 0J420160701214010807/01/16 21:40:31  5-MIN K0J4 020240Z AUTO 20005KT 10SM CLR 27/23 A3003 210 82 1600 200/05 RMK AO2 T02670233
63870K0J4 0J420160701214510807/01/16 21:45:31  5-MIN K0J4 020245Z AUTO 20005KT 10SM CLR 26/23 A3004 210 84 1600 200/05 RMK AO2 T02610233
63870K0J4 0J420160701215010807/01/16 21:50:31  5-MIN K0J4 020250Z AUTO 19005KT 10SM CLR 27/23 A3004 210 82 1600 190/05 RMK AO2 T02670233
63870K0J4 0J420160701215512107/01/16 21:55:31  5-MIN K0J4 020255Z AUTO 19004KT 10SM CLR 26/23 A3004 210 84 1600 190/04 RMK AO2 SLP167 T02610233 53002
63870K0J4 0J420160701220010807/01/16 22:00:31  5-MIN K0J4 020300Z AUTO 20005KT 10SM CLR 26/23 A3004 210 81 1600 200/05 RMK AO2 T02610228
63870K0J4 0J420160701220510807/01/16 22:05:31  5-MIN K0J4 020305Z AUTO 20004KT 10SM CLR 26/23 A3004 210 81 1600 200/04 RMK AO2 T02610228
63870K0J4 0J420160701221010807/01/16 22:10:31  5-MIN K0J4 020310Z AUTO 20005KT 10SM CLR 26/23 A3004 200 81 1600 200/05 RMK AO2 T02610228
63870K0J4 0J420160701221510807/01/16 22:15:31  5-MIN K0J4 020315Z AUTO 19004KT 10SM CLR 26/23 A3004 200 81 1600 190/04 RMK AO2 T02610228
63870K0J4 0J420160701222010807/01/16 22:20:31  5-MIN K0J4 020320Z AUTO 19005KT 10SM CLR 26/23 A3004 200 81 1600 190/05 RMK AO2 T02610228
63870K0J4 0J420160701222510807/01/16 22:25:31  5-MIN K0J4 020325Z AUTO 20004KT 10SM CLR 26/23 A3004 200 84 1600 200/04 RMK AO2 T02610233
63870K0J4 0J420160701223010807/01/16 22:30:31  5-MIN K0J4 020330Z AUTO 20004KT 10SM CLR 26/23 A3005 200 84 1500 200/04 RMK AO2 T02560228
63870K0J4 0J420160701223510807/01/16 22:35:31  5-MIN K0J4 020335Z AUTO 20004KT 10SM CLR 26/23 A3005 200 87 1500 200/04 RMK AO2 T02560233
63870K0J4 0J420160701224010807/01/16 22:40:31  5-MIN K0J4 020340Z AUTO 20006KT 10SM CLR 26/23 A3005 200 87 1500 200/06 RMK AO2 T02560233
63870K0J4 0J420160701224510807/01/16 22:45:31  5-MIN K0J4 020345Z AUTO 21005KT 10SM CLR 26/23 A3005 200 87 1500 210/05 RMK AO2 T02560233
63870K0J4 0J420160701225010807/01/16 22:50:31  5-MIN K0J4 020350Z AUTO 21005KT 10SM CLR 25/23 A3005 200 90 1400 210/05 RMK AO2 T02500233
63870K0J4 0J420160701225511507/01/16 22:55:31  5-MIN K0J4 020355Z AUTO 20005KT 10SM CLR 26/23 A3005 200 87 1500 200/05 RMK AO2 SLP171 T02560233
63870K0J4 0J420160701230010807/01/16 23:00:31  5-MIN K0J4 020400Z AUTO 21005KT 10SM CLR 26/23 A3005 200 87 1500 210/05 RMK AO2 T02560233
63870K0J4 0J420160701230510807/01/16 23:05:31  5-MIN K0J4 020405Z AUTO 21005KT 10SM CLR 26/23 A3005 200 87 1500 210/05 RMK AO2 T02560233
63870K0J4 0J420160701231010807/01/16 23:10:31  5-MIN K0J4 020410Z AUTO 22005KT 10SM CLR 26/23 A3005 200 87 1500 220/05 RMK AO2 T02560233
63870K0J4 0J420160701231510807/01/16 23:15:31  5-MIN K0J4 020415Z AUTO 22005KT 10SM CLR 26/23 A3005 200 87 1500 220/05 RMK AO2 T02560233
63870K0J4 0J420160701232010807/01/16 23:20:31  5-MIN K0J4 020420Z AUTO 21005KT 10SM CLR 26/23 A3005 200 87 1500 210/05 RMK AO2 T02560233
63870K0J4 0J420160701232510807/01/16 23:25:31  5-MIN K0J4 020425Z AUTO 21005KT 10SM CLR 26/23 A3005 200 87 1500 210/05 RMK AO2 T02560233
63870K0J4 0J420160701233010807/01/16 23:30:31  5-MIN K0J4 020430Z AUTO 22005KT 10SM CLR 26/23 A3005 200 87 1500 220/05 RMK AO2 T02560233
63870K0J4 0J420160701233510807/01/16 23:35:31  5-MIN K0J4 020435Z AUTO 23004KT 10SM CLR 26/23 A3005 200 87 1500 230/04 RMK AO2 T02560233
63870K0J4 0J420160701234010807/01/16 23:40:31  5-MIN K0J4 020440Z AUTO 22004KT 10SM CLR 26/23 A3005 200 87 1500 220/04 RMK AO2 T02560233
63870K0J4 0J420160701234510807/01/16 23:45:31  5-MIN K0J4 020445Z AUTO 23004KT 10SM CLR 26/23 A3005 200 87 1500 230/04 RMK AO2 T02560233
63870K0J4 0J420160701235010807/01/16 23:50:31  5-MIN K0J4 020450Z AUTO 23004KT 10SM CLR 26/23 A3005 200 87 1500 230/04 RMK AO2 T02560233
63870K0J4 0J420160701235512507/01/16 23:55:31  5-MIN K0J4 020455Z AUTO 23004KT 10SM CLR 25/23 A3005 200 90 1400 230/04 RMK AO2 SLP170 T02500233 403440217
63870K0J4 0J420160702000010807/02/16 00:00:31  5-MIN K0J4 020500Z AUTO 22004KT 10SM CLR 25/23 A3005 200 87 1400 220/04 RMK AO2 T02500228
63870K0J4 0J420160702000510807/02/16 00:05:31  5-MIN K0J4 020505Z AUTO 23004KT 10SM CLR 25/23 A3005 200 90 1400 230/04 RMK AO2 T02500233
63870K0J4 0J420160702001010807/02/16 00:10:31  5-MIN K0J4 020510Z AUTO 23004KT 10SM CLR 25/23 A3005 200 87 1400 230/04 RMK AO2 T02500228
63870K0J4 0J420160702001510807/02/16 00:15:31  5-MIN K0J4 020515Z AUTO 21004KT 10SM CLR 25/23 A3005 200 87 1400 210/04 RMK AO2 T02500228
63870K0J4 0J420160702002010807/02/16 00:20:31  5-MIN K0J4 020520Z AUTO 21004KT 10SM CLR 24/23 A3005 200 90 1400 210/04 RMK AO2 T02440228
63870K0J4 0J420160702002510807/02/16 00:25:31  5-MIN K0J4 020525Z AUTO 21004KT 10SM CLR 24/23 A3005 200 90 1400 210/04 RMK AO2 T02440228
63870K0J4 0J420160702003010807/02/16 00:30:31  5-MIN K0J4 020530Z AUTO 21004KT 10SM CLR 24/23 A3005 200 90 1400 210/04 RMK AO2 T02440228
63870K0J4 0J420160702003510807/02/16 00:35:31  5-MIN K0J4 020535Z AUTO 00000KT 10SM CLR 24/23 A3004 200 90 1400 000/00 RMK AO2 T02440228
63870K0J4 0J420160702004010807/02/16 00:40:31  5-MIN K0J4 020540Z AUTO 23003KT 10SM CLR 24/23 A3004 200 90 1400 230/03 RMK AO2 T02440228
63870K0J4 0J420160702004510807/02/16 00:45:31  5-MIN K0J4 020545Z AUTO 23003KT 10SM CLR 24/23 A3004 200 90 1400 230/03 RMK AO2 T02440228
63870K0J4 0J420160702005010807/02/16 00:50:31  5-MIN K0J4 020550Z AUTO 23003KT 10SM CLR 24/23 A3004 210 90 1400 230/03 RMK AO2 T02440228
63870K0J4 0J420160702005513307/02/16 00:55:31  5-MIN K0J4 020555Z AUTO 22004KT 10SM CLR 24/23 A3004 210 90 1400 220/04 RMK AO2 SLP167 T02440228 10317 20244 53018
63870K0J4 0J420160702010010807/02/16 01:00:31  5-MIN K0J4 020600Z AUTO 22003KT 10SM CLR 24/23 A3004 210 90 1400 220/03 RMK AO2 T02440228
63870K0J4 0J420160702010510807/02/16 01:05:31  5-MIN K0J4 020605Z AUTO 23004KT 10SM CLR 24/23 A3004 210 90 1400 230/04 RMK AO2 T02440228
63870K0J4 0J420160702011010807/02/16 01:10:31  5-MIN K0J4 020610Z AUTO 23003KT 10SM CLR 24/23 A3004 210 90 1400 230/03 RMK AO2 T02440228
63870K0J4 0J420160702011510807/02/16 01:15:31  5-MIN K0J4 020615Z AUTO 23004KT 10SM CLR 24/23 A3003 210 90 1400 230/04 RMK AO2 T02440228
63870K0J4 0J420160702012010807/02/16 01:20:31  5-MIN K0J4 020620Z AUTO 23004KT 10SM CLR 24/23 A3003 210 90 1400 230/04 RMK AO2 T02440228
63870K0J4 0J420160702012510807/02/16 01:25:31  5-MIN K0J4 020625Z AUTO 22003KT 10SM CLR 24/23 A3003 210 90 1400 220/03 RMK AO2 T02440228
63870K0J4 0J420160702013010807/02/16 01:30:31  5-MIN K0J4 020630Z AUTO 23003KT 10SM CLR 24/23 A3003 220 90 1400 230/03 RMK AO2 T02440228
63870K0J4 0J420160702013510807/02/16 01:35:31  5-MIN K0J4 020635Z AUTO 22003KT 10SM CLR 24/23 A3003 220 90 1400 220/03 RMK AO2 T02440228
63870K0J4 0J420160702014010807/02/16 01:40:31  5-MIN K0J4 020640Z AUTO 23004KT 10SM CLR 24/23 A3003 220 90 1400 230/04 RMK AO2 T02440228
63870K0J4 0J420160702014510807/02/16 01:45:31  5-MIN K0J4 020645Z AUTO 22004KT 10SM CLR 24/23 A3003 220 90 1400 220/04 RMK AO2 T02440228
63870K0J4 0J420160702015010807/02/16 01:50:31  5-MIN K0J4 020650Z AUTO 22003KT 10SM CLR 24/23 A3002 220 93 1300 220/03 RMK AO2 T02390228
63870K0J4 0J420160702015511507/02/16 01:55:31  5-MIN K0J4 020655Z AUTO 22003KT 10SM CLR 24/23 A3003 220 93 1300 220/03 RMK AO2 SLP163 T02390228
63870K0J4 0J420160702020010807/02/16 02:00:31  5-MIN K0J4 020700Z AUTO 23003KT 10SM CLR 24/23 A3003 220 90 1400 230/03 RMK AO2 T02440228
63870K0J4 0J420160702020510807/02/16 02:05:31  5-MIN K0J4 020705Z AUTO 22003KT 10SM CLR 24/23 A3002 220 93 1300 220/03 RMK AO2 T02390228
63870K0J4 0J420160702021010807/02/16 02:10:31  5-MIN K0J4 020710Z AUTO 22003KT 10SM CLR 24/23 A3002 220 93 1300 220/03 RMK AO2 T02390228
63870K0J4 0J420160702021510807/02/16 02:15:31  5-MIN K0J4 020715Z AUTO 21003KT 10SM CLR 24/23 A3002 220 93 1300 210/03 RMK AO2 T02390228
63870K0J4 0J420160702022010807/02/16 02:20:31  5-MIN K0J4 020720Z AUTO 23003KT 10SM CLR 24/23 A3002 220 93 1300 230/03 RMK AO2 T02390228
63870K0J4 0J420160702022510807/02/16 02:25:31  5-MIN K0J4 020725Z AUTO 23003KT 10SM CLR 24/23 A3002 220 93 1300 230/03 RMK AO2 T02390228
63870K0J4 0J420160702023010807/02/16 02:30:31  5-MIN K0J4 020730Z AUTO VRB03KT 10SM CLR 24/23 A3002 220 93 1300 VRB/03 RMK AO2 T02390228
63870K0J4 0J420160702023510807/02/16 02:35:31  5-MIN K0J4 020735Z AUTO 23003KT 10SM CLR 24/23 A3002 220 93 1300 230/03 RMK AO2 T02390228
63870K0J4 0J420160702024010807/02/16 02:40:31  5-MIN K0J4 020740Z AUTO 23003KT 10SM CLR 24/23 A3002 220 93 1300 230/03 RMK AO2 T02390228
63870K0J4 0J420160702024510807/02/16 02:45:31  5-MIN K0J4 020745Z AUTO 23003KT 10SM CLR 24/23 A3002 230 93 1400 230/03 RMK AO2 T02390228
63870K0J4 0J420160702025010807/02/16 02:50:31  5-MIN K0J4 020750Z AUTO 23003KT 10SM CLR 24/23 A3002 230 93 1400 230/03 RMK AO2 T02390228
63870K0J4 0J420160702025511507/02/16 02:55:31  5-MIN K0J4 020755Z AUTO 22003KT 10SM CLR 24/23 A3002 230 93 1400 220/03 RMK AO2 SLP160 T02390228
63870K0J4 0J420160702030010807/02/16 03:00:31  5-MIN K0J4 020800Z AUTO 23003KT 10SM CLR 23/23 A3002 230 97 1300 230/03 RMK AO2 T02330228
63870K0J4 0J420160702030510807/02/16 03:05:31  5-MIN K0J4 020805Z AUTO 23004KT 10SM CLR 24/23 A3002 230 93 1400 230/04 RMK AO2 T02390228
63870K0J4 0J420160702031010807/02/16 03:10:31  5-MIN K0J4 020810Z AUTO 23004KT 10SM CLR 24/23 A3001 230 93 1400 230/04 RMK AO2 T02390228
63870K0J4 0J420160702031510807/02/16 03:15:31  5-MIN K0J4 020815Z AUTO 23004KT 10SM CLR 24/23 A3001 230 90 1400 230/04 RMK AO2 T02440228
63870K0J4 0J420160702032010807/02/16 03:20:31  5-MIN K0J4 020820Z AUTO 22004KT 10SM CLR 24/23 A3002 230 93 1400 220/04 RMK AO2 T02390228
63870K0J4 0J420160702032510807/02/16 03:25:31  5-MIN K0J4 020825Z AUTO 22003KT 10SM CLR 24/23 A3002 230 93 1400 220/03 RMK AO2 T02390228
63870K0J4 0J420160702033010807/02/16 03:30:31  5-MIN K0J4 020830Z AUTO 23003KT 10SM CLR 24/23 A3002 230 93 1400 230/03 RMK AO2 T02390228
63870K0J4 0J420160702033510807/02/16 03:35:31  5-MIN K0J4 020835Z AUTO 00000KT 10SM CLR 24/23 A3002 230 93 1400 000/00 RMK AO2 T02390228
63870K0J4 0J420160702034010807/02/16 03:40:31  5-MIN K0J4 020840Z AUTO 23003KT 10SM CLR 24/23 A3002 230 93 1400 230/03 RMK AO2 T02390228
63870K0J4 0J420160702034510807/02/16 03:45:31  5-MIN K0J4 020845Z AUTO 00000KT 10SM CLR 24/23 A3002 230 93 1400 000/00 RMK AO2 T02390228
63870K0J4 0J420160702035010807/02/16 03:50:31  5-MIN K0J4 020850Z AUTO 23003KT 10SM CLR 23/23 A3002 230 97 1300 230/03 RMK AO2 T02330228
63870K0J4 0J420160702035512107/02/16 03:55:31  5-MIN K0J4 020855Z AUTO 23003KT 10SM CLR 24/23 A3002 230 93 1400 230/03 RMK AO2 SLP159 T02390228 50000
63870K0J4 0J420160702040010807/02/16 04:00:31  5-MIN K0J4 020900Z AUTO 00000KT 10SM CLR 24/23 A3002 230 93 1400 000/00 RMK AO2 T02390228
63870K0J4 0J420160702040510807/02/16 04:05:31  5-MIN K0J4 020905Z AUTO 00000KT 10SM CLR 24/23 A3002 230 93 1300 000/00 RMK AO2 T02390228
63870K0J4 0J420160702041010807/02/16 04:10:31  5-MIN K0J4 020910Z AUTO 00000KT 10SM CLR 23/22 A3002 220 93 1300 000/00 RMK AO2 T02330222
63870K0J4 0J420160702041510807/02/16 04:15:31  5-MIN K0J4 020915Z AUTO 00000KT 10SM CLR 23/22 A3002 220 93 1300 000/00 RMK AO2 T02330222
63870K0J4 0J420160702042010807/02/16 04:20:31  5-MIN K0J4 020920Z AUTO 00000KT 10SM CLR 23/22 A3002 220 93 1300 000/00 RMK AO2 T02330222
63870K0J4 0J420160702042510807/02/16 04:25:31  5-MIN K0J4 020925Z AUTO 00000KT 10SM CLR 24/23 A3003 220 93 1300 000/00 RMK AO2 T02390228
63870K0J4 0J420160702043010807/02/16 04:30:31  5-MIN K0J4 020930Z AUTO 00000KT 10SM CLR 24/23 A3003 220 93 1300 000/00 RMK AO2 T02390228
63870K0J4 0J420160702043510807/02/16 04:35:31  5-MIN K0J4 020935Z AUTO 00000KT 10SM CLR 24/23 A3003 220 93 1300 000/00 RMK AO2 T02390228
63870K0J4 0J420160702044010807/02/16 04:40:31  5-MIN K0J4 020940Z AUTO 00000KT 10SM CLR 24/23 A3003 210 93 1300 000/00 RMK AO2 T02390228
63870K0J4 0J420160702044510807/02/16 04:45:31  5-MIN K0J4 020945Z AUTO 24003KT 10SM CLR 24/23 A3003 210 93 1300 240/03 RMK AO2 T02390228
63870K0J4 0J420160702045010807/02/16 04:50:31  5-MIN K0J4 020950Z AUTO 00000KT 10SM CLR 23/23 A3003 210 97 1300 000/00 RMK AO2 T02330228
63870K0J4 0J420160702045511507/02/16 04:55:31  5-MIN K0J4 020955Z AUTO 00000KT 10SM CLR 24/23 A3003 210 93 1300 000/00 RMK AO2 SLP165 T02390228
63870K0J4 0J420160702050010807/02/16 05:00:31  5-MIN K0J4 021000Z AUTO 00000KT 10SM CLR 23/23 A3004 210 97 1300 000/00 RMK AO2 T02330228
63870K0J4 0J420160702050510807/02/16 05:05:31  5-MIN K0J4 021005Z AUTO 00000KT 10SM CLR 23/22 A3004 210 93 1300 000/00 RMK AO2 T02330222
63870K0J4 0J420160702051010807/02/16 05:10:31  5-MIN K0J4 021010Z AUTO 00000KT 10SM CLR 23/22 A3004 210 93 1300 000/00 RMK AO2 T02330222
63870K0J4 0J420160702051510807/02/16 05:15:31  5-MIN K0J4 021015Z AUTO 00000KT 10SM CLR 23/22 A3004 210 93 1300 000/00 RMK AO2 T02330222
63870K0J4 0J420160702052010807/02/16 05:20:31  5-MIN K0J4 021020Z AUTO 00000KT 10SM CLR 23/22 A3004 200 93 1300 000/00 RMK AO2 T02330222
63870K0J4 0J420160702052510807/02/16 05:25:31  5-MIN K0J4 021025Z AUTO 00000KT 10SM CLR 23/22 A3004 200 93 1300 000/00 RMK AO2 T02330222
63870K0J4 0J420160702053010807/02/16 05:30:31  5-MIN K0J4 021030Z AUTO 00000KT 10SM CLR 23/22 A3004 200 93 1300 000/00 RMK AO2 T02330222
63870K0J4 0J420160702053510807/02/16 05:35:31  5-MIN K0J4 021035Z AUTO 00000KT 10SM CLR 23/22 A3005 200 93 1300 000/00 RMK AO2 T02330222
63870K0J4 0J420160702054010807/02/16 05:40:31  5-MIN K0J4 021040Z AUTO VRB03KT 10SM CLR 23/22 A3005 200 93 1300 VRB/03 RMK AO2 T02330222
63870K0J4 0J420160702054510807/02/16 05:45:31  5-MIN K0J4 021045Z AUTO 00000KT 10SM CLR 23/22 A3005 200 93 1200 000/00 RMK AO2 T02330222
63870K0J4 0J420160702055010707/02/16 05:50:31  5-MIN K0J4 021050Z AUTO 00000KT 9SM CLR 23/22 A3005 190 93 1200 000/00 RMK AO2 T02330222
63870K0J4 0J420160702055511407/02/16 05:55:31  5-MIN K0J4 021055Z AUTO 00000KT 9SM CLR 23/22 A3005 190 93 1200 000/00 RMK AO2 SLP172 T02330222
63870K0J4 0J420160702060010707/02/16 06:00:31  5-MIN K0J4 021100Z AUTO 00000KT 9SM CLR 23/22 A3005 190 93 1200 000/00 RMK AO2 T02330222
63870K0J4 0J420160702060510707/02/16 06:05:31  5-MIN K0J4 021105Z AUTO 00000KT 9SM CLR 23/22 A3005 190 93 1200 000/00 RMK AO2 T02330222
63870K0J4 0J420160702061010707/02/16 06:10:31  5-MIN K0J4 021110Z AUTO 00000KT 9SM CLR 24/23 A3005 190 93 1300 000/00 RMK AO2 T02390228
63870K0J4 0J420160702061510707/02/16 06:15:31  5-MIN K0J4 021115Z AUTO 00000KT 9SM CLR 24/23 A3005 190 93 1300 000/00 RMK AO2 T02390228
63870K0J4 0J420160702062010707/02/16 06:20:31  5-MIN K0J4 021120Z AUTO 00000KT 9SM CLR 24/23 A3006 190 93 1300 000/00 RMK AO2 T02390228
63870K0J4 0J420160702062510707/02/16 06:25:31  5-MIN K0J4 021125Z AUTO 00000KT 9SM CLR 24/23 A3006 190 93 1300 000/00 RMK AO2 T02390228
63870K0J4 0J420160702063010707/02/16 06:30:31  5-MIN K0J4 021130Z AUTO 00000KT 9SM CLR 24/23 A3006 190 93 1300 000/00 RMK AO2 T02390228
63870K0J4 0J420160702063510807/02/16 06:35:31  5-MIN K0J4 021135Z AUTO 00000KT 10SM CLR 24/23 A3006 190 90 1400 000/00 RMK AO2 T02440228
63870K0J4 0J420160702064010807/02/16 06:40:31  5-MIN K0J4 021140Z AUTO 00000KT 10SM CLR 24/23 A3006 190 93 1400 000/00 RMK AO2 T02440233
63870K0J4 0J420160702064510807/02/16 06:45:31  5-MIN K0J4 021145Z AUTO 00000KT 10SM CLR 24/23 A3006 190 93 1400 000/00 RMK AO2 T02440233
63870K0J4 0J420160702065010807/02/16 06:50:31  5-MIN K0J4 021150Z AUTO 00000KT 10SM CLR 25/23 A3006 190 90 1400 000/00 RMK AO2 T02500233
63870K0J4 0J420160702065513307/02/16 06:55:31  5-MIN K0J4 021155Z AUTO 00000KT 10SM CLR 25/23 A3006 190 90 1400 000/00 RMK AO2 SLP174 T02500233 10250 20228 56007
63870K0J4 0J420160702070010807/02/16 07:00:31  5-MIN K0J4 021200Z AUTO 00000KT 10SM CLR 25/23 A3006 190 90 1400 000/00 RMK AO2 T02500233
63870K0J4 0J420160702070510807/02/16 07:05:31  5-MIN K0J4 021205Z AUTO 00000KT 10SM CLR 25/24 A3006 190 93 1400 000/00 RMK AO2 T02500239
63870K0J4 0J420160702071010807/02/16 07:10:31  5-MIN K0J4 021210Z AUTO 00000KT 10SM CLR 25/23 A3006 180 90 1400 000/00 RMK AO2 T02500233
63870K0J4 0J420160702071510807/02/16 07:15:31  5-MIN K0J4 021215Z AUTO 00000KT 10SM CLR 26/24 A3006 180 90 1500 000/00 RMK AO2 T02560239
63870K0J4 0J420160702072010807/02/16 07:20:31  5-MIN K0J4 021220Z AUTO 00000KT 10SM CLR 26/24 A3007 180 90 1500 000/00 RMK AO2 T02560239
63870K0J4 0J420160702072510807/02/16 07:25:31  5-MIN K0J4 021225Z AUTO 00000KT 10SM CLR 26/24 A3007 180 87 1500 000/00 RMK AO2 T02610239
63870K0J4 0J420160702073010807/02/16 07:30:31  5-MIN K0J4 021230Z AUTO 31003KT 10SM CLR 26/23 A3007 180 84 1500 310/03 RMK AO2 T02610233
63870K0J4 0J420160702073510807/02/16 07:35:31  5-MIN K0J4 021235Z AUTO 00000KT 10SM CLR 27/24 A3007 180 84 1600 000/00 RMK AO2 T02670239
63870K0J4 0J420160702074010807/02/16 07:40:31  5-MIN K0J4 021240Z AUTO 00000KT 10SM CLR 27/23 A3007 180 82 1600 000/00 RMK AO2 T02670233
63870K0J4 0J420160702074510807/02/16 07:45:31  5-MIN K0J4 021245Z AUTO VRB03KT 10SM CLR 27/23 A3007 170 79 1600 VRB/03 RMK AO2 T02670228
63870K0J4 0J420160702075010807/02/16 07:50:31  5-MIN K0J4 021250Z AUTO 00000KT 10SM CLR 27/23 A3008 170 79 1600 000/00 RMK AO2 T02670228
63870K0J4 0J420160702075511507/02/16 07:55:31  5-MIN K0J4 021255Z AUTO 30003KT 10SM CLR 27/23 A3008 170 76 1700 300/03 RMK AO2 SLP180 T02720228
63870K0J4 0J420160702080010807/02/16 08:00:31  5-MIN K0J4 021300Z AUTO 00000KT 10SM CLR 27/23 A3008 170 76 1700 000/00 RMK AO2 T02720228
63870K0J4 0J420160702080510807/02/16 08:05:31  5-MIN K0J4 021305Z AUTO VRB04KT 10SM CLR 27/22 A3008 170 74 1700 VRB/04 RMK AO2 T02720222
63870K0J4 0J420160702081012407/02/16 08:10:31  5-MIN K0J4 021310Z AUTO 28003KT 10SM -RA CLR 28/23 A3008 170 74 1700 280/03 RMK AO2 RAB08 P0000 T02780228
63870K0J4 0J420160702081512407/02/16 08:15:31  5-MIN K0J4 021315Z AUTO 00000KT 10SM -RA CLR 28/22 A3008 170 71 1700 000/00 RMK AO2 RAB08 P0000 T02780222
63870K0J4 0J420160702082012307/02/16 08:20:31  5-MIN K0J4 021320Z AUTO 00000KT 10SM CLR 28/23 A3008 170 71 1800 000/00 RMK AO2 RAB08E17 P0000 T02830228
63870K0J4 0J420160702082512307/02/16 08:25:31  5-MIN K0J4 021325Z AUTO 00000KT 10SM CLR 28/23 A3008 170 71 1800 000/00 RMK AO2 RAB08E17 P0000 T02830228
63870K0J4 0J420160702083012307/02/16 08:30:31  5-MIN K0J4 021330Z AUTO VRB03KT 10SM CLR 28/22 A3008 170 69 1800 VRB/03 RMK AO2 RAB08E17 P0000 T02830222
63870K0J4 0J420160702083512307/02/16 08:35:31  5-MIN K0J4 021335Z AUTO 00000KT 10SM CLR 28/22 A3008 170 69 1800 000/00 RMK AO2 RAB08E17 P0000 T02830222
63870K0J4 0J420160702084012307/02/16 08:40:31  5-MIN K0J4 021340Z AUTO 36004KT 10SM CLR 29/23 A3008 170 69 1800 360/04 RMK AO2 RAB08E17 P0000 T02890228
63870K0J4 0J420160702084512307/02/16 08:45:31  5-MIN K0J4 021345Z AUTO 35003KT 10SM CLR 29/22 A3009 160 64 1900 350/03 RMK AO2 RAB08E17 P0000 T02940222
63870K0J4 0J420160702085012307/02/16 08:50:31  5-MIN K0J4 021350Z AUTO 00000KT 10SM CLR 29/22 A3009 160 64 1900 000/00 RMK AO2 RAB08E17 P0000 T02940222
63870K0J4 0J420160702085513007/02/16 08:55:31  5-MIN K0J4 021355Z AUTO VRB03KT 10SM CLR 29/22 A3009 160 64 1900 VRB/03 RMK AO2 RAB08E17 SLP183 P0000 T02940222
63870K0J4 0J420160702090010807/02/16 09:00:31  5-MIN K0J4 021400Z AUTO 34003KT 10SM CLR 30/22 A3009 160 62 2000 340/03 RMK AO2 T03000222
63870K0J4 0J420160702090510807/02/16 09:05:31  5-MIN K0J4 021405Z AUTO VRB03KT 10SM CLR 30/22 A3009 160 60 2000 VRB/03 RMK AO2 T03000217
63870K0J4 0J420160702091010807/02/16 09:10:31  5-MIN K0J4 021410Z AUTO 00000KT 10SM CLR 30/22 A3009 160 60 2000 000/00 RMK AO2 T03000217
63870K0J4 0J420160702091510807/02/16 09:15:31  5-MIN K0J4 021415Z AUTO 00000KT 10SM CLR 30/22 A3009 160 62 2000 000/00 RMK AO2 T03000222
63870K0J4 0J420160702092010807/02/16 09:20:31  5-MIN K0J4 021420Z AUTO 00000KT 10SM CLR 30/22 A3008 160 60 2000 000/00 RMK AO2 T03000217
63870K0J4 0J420160702092510807/02/16 09:25:31  5-MIN K0J4 021425Z AUTO VRB03KT 10SM CLR 31/22 A3008 160 60 2000 VRB/03 RMK AO2 T03060222
63870K0J4 0J420160702093010807/02/16 09:30:31  5-MIN K0J4 021430Z AUTO VRB03KT 10SM CLR 30/22 A3008 160 60 2000 VRB/03 RMK AO2 T03000217
63870K0J4 0J420160702093510807/02/16 09:35:31  5-MIN K0J4 021435Z AUTO VRB03KT 10SM CLR 31/21 A3008 160 54 2100 VRB/03 RMK AO2 T03110211
63870K0J4 0J420160702094010807/02/16 09:40:31  5-MIN K0J4 021440Z AUTO 23003KT 10SM CLR 31/21 A3009 160 54 2100 230/03 RMK AO2 T03110211
63870K0J4 0J420160702094510807/02/16 09:45:31  5-MIN K0J4 021445Z AUTO VRB04KT 10SM CLR 31/21 A3009 160 54 2100 VRB/04 RMK AO2 T03110211
63870K0J4 0J420160702095010807/02/16 09:50:31  5-MIN K0J4 021450Z AUTO 00000KT 10SM CLR 32/21 A3009 160 51 2100 000/00 RMK AO2 T03170206
63870K0J4 0J420160702095512707/02/16 09:55:31  5-MIN K0J4 021455Z AUTO 19003KT 10SM CLR 31/21 A3008 160 53 2100 190/03 RMK AO2 SLP182 60000 T03110206 51014
63870K0J4 0J420160702100010807/02/16 10:00:31  5-MIN K0J4 021500Z AUTO VRB05KT 10SM CLR 32/21 A3008 160 53 2100 VRB/05 RMK AO2 T03170211
63870K0J4 0J420160702100510807/02/16 10:05:31  5-MIN K0J4 021505Z AUTO 00000KT 10SM CLR 32/20 A3008 170 49 2100 000/00 RMK AO2 T03170200
63870K0J4 0J420160702101010807/02/16 10:10:31  5-MIN K0J4 021510Z AUTO 00000KT 10SM CLR 32/20 A3008 160 48 2200 000/00 RMK AO2 T03220200
63870K0J4 0J420160702101510807/02/16 10:15:31  5-MIN K0J4 021515Z AUTO 00000KT 10SM CLR 32/20 A3008 170 48 2200 000/00 RMK AO2 T03220200
63870K0J4 0J420160702102010807/02/16 10:20:31  5-MIN K0J4 021520Z AUTO 00000KT 10SM CLR 32/19 A3008 170 47 2100 000/00 RMK AO2 T03170194
63870K0J4 0J420160702102510807/02/16 10:25:31  5-MIN K0J4 021525Z AUTO VRB03KT 10SM CLR 32/19 A3008 170 44 2200 VRB/03 RMK AO2 T03220189
63870K0J4 0J420160702103010807/02/16 10:30:31  5-MIN K0J4 021530Z AUTO 00000KT 10SM CLR 33/18 A3008 170 41 2300 000/00 RMK AO2 T03280183
63870K0J4 0J420160702103510807/02/16 10:35:31  5-MIN K0J4 021535Z AUTO VRB03KT 10SM CLR 32/18 A3008 170 41 2200 VRB/03 RMK AO2 T03220178
63870K0J4 0J420160702104010807/02/16 10:40:31  5-MIN K0J4 021540Z AUTO 31003KT 10SM CLR 33/18 A3008 170 41 2300 310/03 RMK AO2 T03280183
63870K0J4 0J420160702104510807/02/16 10:45:31  5-MIN K0J4 021545Z AUTO 02004KT 10SM CLR 33/18 A3008 170 40 2300 020/04 RMK AO2 T03280178
63870K0J4 0J420160702105010807/02/16 10:50:31  5-MIN K0J4 021550Z AUTO VRB03KT 10SM CLR 33/18 A3008 170 41 2300 VRB/03 RMK AO2 T03280183
63870K0J4 0J420160702105511507/02/16 10:55:31  5-MIN K0J4 021555Z AUTO 00000KT 10SM CLR 33/18 A3008 170 41 2300 000/00 RMK AO2 SLP179 T03280183
63870K0J4 0J420160702110010807/02/16 11:00:31  5-MIN K0J4 021600Z AUTO VRB03KT 10SM CLR 33/18 A3007 170 40 2300 VRB/03 RMK AO2 T03280178
63870K0J4 0J420160702110510807/02/16 11:05:31  5-MIN K0J4 021605Z AUTO VRB04KT 10SM CLR 33/19 A3007 180 42 2300 VRB/04 RMK AO2 T03330189
63870K0J4 0J420160702111010807/02/16 11:10:31  5-MIN K0J4 021610Z AUTO VRB03KT 10SM CLR 33/19 A3007 180 43 2300 VRB/03 RMK AO2 T03330194
63870K0J4 0J420160702111510807/02/16 11:15:31  5-MIN K0J4 021615Z AUTO 00000KT 10SM CLR 33/18 A3007 170 40 2300 000/00 RMK AO2 T03280178
63870K0J4 0J420160702112010807/02/16 11:20:31  5-MIN K0J4 021620Z AUTO 00000KT 10SM CLR 33/18 A3007 170 40 2300 000/00 RMK AO2 T03330183
63870K0J4 0J420160702112510807/02/16 11:25:31  5-MIN K0J4 021625Z AUTO 20003KT 10SM CLR 33/18 A3007 170 40 2300 200/03 RMK AO2 T03330183
63870K0J4 0J420160702113010807/02/16 11:30:31  5-MIN K0J4 021630Z AUTO 00000KT 10SM CLR 33/18 A3007 170 41 2300 000/00 RMK AO2 T03280183
63870K0J4 0J420160702113510807/02/16 11:35:31  5-MIN K0J4 021635Z AUTO VRB03KT 10SM CLR 33/18 A3007 170 40 2300 VRB/03 RMK AO2 T03280178
63870K0J4 0J420160702114010807/02/16 11:40:31  5-MIN K0J4 021640Z AUTO VRB04KT 10SM CLR 33/18 A3007 170 39 2300 VRB/04 RMK AO2 T03330178
63870K0J4 0J420160702114510807/02/16 11:45:31  5-MIN K0J4 021645Z AUTO 17004KT 10SM CLR 33/18 A3007 170 39 2300 170/04 RMK AO2 T03330178
63870K0J4 0J420160702115010807/02/16 11:50:31  5-MIN K0J4 021650Z AUTO VRB03KT 10SM CLR 33/18 A3007 170 40 2300 VRB/03 RMK AO2 T03330183
63870K0J4 0J420160702115511507/02/16 11:55:31  5-MIN K0J4 021655Z AUTO 00000KT 10SM CLR 33/18 A3008 170 39 2300 000/00 RMK AO2 SLP179 T03330178
63870K0J4 0J420160702120011107/02/16 12:00:31  5-MIN K0J4 021700Z AUTO VRB03KT 10SM SCT060 34/18 A3008 170 39 2400 VRB/03 RMK AO2 T03390183
63870K0J4 0J420160702120511107/02/16 12:05:31  5-MIN K0J4 021705Z AUTO 00000KT 10SM BKN060 34/19 A3008 170 40 2400 000/00 RMK AO2 T03390189
63870K0J4 0J420160702121011107/02/16 12:10:31  5-MIN K0J4 021710Z AUTO 00000KT 10SM BKN060 33/18 A3008 170 41 2300 000/00 RMK AO2 T03280183
63870K0J4 0J420160702121511107/02/16 12:15:31  5-MIN K0J4 021715Z AUTO 00000KT 10SM BKN060 33/18 A3007 170 41 2300 000/00 RMK AO2 T03280183
63870K0J4 0J420160702122011107/02/16 12:20:31  5-MIN K0J4 021720Z AUTO VRB03KT 10SM OVC060 33/18 A3007 180 41 2300 VRB/03 RMK AO2 T03280183
63870K0J4 0J420160702122511107/02/16 12:25:31  5-MIN K0J4 021725Z AUTO 24004KT 10SM OVC060 32/19 A3007 180 44 2200 240/04 RMK AO2 T03220189
63870K0J4 0J420160702123010107/02/16 12:30:31  5-MIN K0J4 021730Z AUTO 10SM BKN060 32/19 A3007 180 44 2200 M /M RMK AO2 T03220189
63870K0J4 0J420160702123511107/02/16 12:35:31  5-MIN K0J4 021735Z AUTO 00000KT 10SM BKN060 32/18 A3007 180 43 2200 000/00 RMK AO2 T03220183
63870K0J4 0J420160702124011107/02/16 12:40:31  5-MIN K0J4 021740Z AUTO 00000KT 10SM OVC060 32/18 A3007 180 43 2200 000/00 RMK AO2 T03220183
63870K0J4 0J420160702124511107/02/16 12:45:31  5-MIN K0J4 021745Z AUTO VRB04KT 10SM OVC060 32/19 A3007 180 44 2200 VRB/04 RMK AO2 T03220189
63870K0J4 0J420160702125011107/02/16 12:50:31  5-MIN K0J4 021750Z AUTO 00000KT 10SM OVC060 33/18 A3007 180 40 2300 000/00 RMK AO2 T03280178
63870K0J4 0J420160702125514207/02/16 12:55:31  5-MIN K0J4 021755Z AUTO VRB04KT 10SM BKN060 33/18 A3007 180 40 2300 VRB/04 RMK AO2 SLP176 60000 T03330183 10339 20250 50008
63870K0J4 0J420160702130011107/02/16 13:00:31  5-MIN K0J4 021800Z AUTO VRB04KT 10SM BKN065 34/19 A3007 180 39 2500 VRB/04 RMK AO2 T03440189
63870K0J4 0J420160702130511107/02/16 13:05:31  5-MIN K0J4 021805Z AUTO 00000KT 10SM BKN065 34/18 A3007 180 38 2500 000/00 RMK AO2 T03440183
63870K0J4 0J420160702131011107/02/16 13:10:31  5-MIN K0J4 021810Z AUTO 00000KT 10SM BKN060 34/18 A3007 180 38 2500 000/00 RMK AO2 T03440183
63870K0J4 0J420160702131511107/02/16 13:15:31  5-MIN K0J4 021815Z AUTO 01003KT 10SM BKN060 33/18 A3007 180 40 2400 010/03 RMK AO2 T03330183
63870K0J4 0J420160702132011107/02/16 13:20:31  5-MIN K0J4 021820Z AUTO 36003KT 10SM BKN060 33/19 A3006 180 42 2400 360/03 RMK AO2 T03330189
63870K0J4 0J420160702132511107/02/16 13:25:31  5-MIN K0J4 021825Z AUTO 00000KT 10SM OVC060 34/19 A3006 180 39 2500 000/00 RMK AO2 T03440189
63870K0J4 0J420160702133011107/02/16 13:30:31  5-MIN K0J4 021830Z AUTO 19003KT 10SM BKN060 33/18 A3006 180 40 2400 190/03 RMK AO2 T03330183
63870K0J4 0J420160702133511807/02/16 13:35:31  5-MIN K0J4 021835Z AUTO 19004KT 10SM BKN060 BKN080 33/19 A3006 190 43 2300 190/04 RMK AO2 T03280189
63870K0J4 0J420160702134011807/02/16 13:40:31  5-MIN K0J4 021840Z AUTO 17003KT 10SM SCT060 BKN080 33/19 A3006 190 43 2300 170/03 RMK AO2 T03280189
63870K0J4 0J420160702134511807/02/16 13:45:31  5-MIN K0J4 021845Z AUTO 15003KT 10SM FEW060 SCT080 34/19 A3006 190 42 2400 150/03 RMK AO2 T03390194
63870K0J4 0J420160702135011807/02/16 13:50:31  5-MIN K0J4 021850Z AUTO 00000KT 10SM FEW060 FEW080 34/19 A3006 190 39 2500 000/00 RMK AO2 T03440189
63870K0J4 0J420160702135511807/02/16 13:55:31  5-MIN K0J4 021855Z AUTO VRB03KT 10SM FEW080 35/19 A3006 190 38 2500 VRB/03 RMK AO2 SLP172 T03500189
63870K0J4 0J420160702140011107/02/16 14:00:31  5-MIN K0J4 021900Z AUTO 04004KT 10SM FEW080 35/19 A3005 190 38 2500 040/04 RMK AO2 T03500189
63870K0J4 0J420160702140510807/02/16 14:05:31  5-MIN K0J4 021905Z AUTO 09004KT 10SM CLR 34/19 A3005 190 40 2400 090/04 RMK AO2 T03390189
63870K0J4 0J420160702141010807/02/16 14:10:31  5-MIN K0J4 021910Z AUTO VRB06KT 10SM CLR 34/19 A3005 190 39 2500 VRB/06 RMK AO2 T03440189
63870K0J4 0J420160702141511107/02/16 14:15:31  5-MIN K0J4 021915Z AUTO 14005KT 10SM FEW060 33/19 A3005 200 42 2400 140/05 RMK AO2 T03330189
63870K0J4 0J420160702142011107/02/16 14:20:31  5-MIN K0J4 021920Z AUTO 11005KT 10SM FEW065 34/19 A3005 200 40 2400 110/05 RMK AO2 T03390189
63870K0J4 0J420160702142511107/02/16 14:25:31  5-MIN K0J4 021925Z AUTO VRB03KT 10SM FEW065 34/19 A3005 200 40 2400 VRB/03 RMK AO2 T03390189
63870K0J4 0J420160702143011107/02/16 14:30:31  5-MIN K0J4 021930Z AUTO 00000KT 10SM FEW065 33/18 A3004 200 40 2400 000/00 RMK AO2 T03330183
63870K0J4 0J420160702143511107/02/16 14:35:31  5-MIN K0J4 021935Z AUTO 14004KT 10SM SCT070 34/19 A3004 200 39 2500 140/04 RMK AO2 T03440189
63870K0J4 0J420160702144011107/02/16 14:40:31  5-MIN K0J4 021940Z AUTO 00000KT 10SM SCT070 34/18 A3004 210 38 2500 000/00 RMK AO2 T03440183
63870K0J4 0J420160702144511107/02/16 14:45:31  5-MIN K0J4 021945Z AUTO VRB03KT 10SM FEW070 34/18 A3004 210 39 2400 VRB/03 RMK AO2 T03390183
63870K0J4 0J420160702145011107/02/16 14:50:31  5-MIN K0J4 021950Z AUTO 18006KT 10SM FEW070 34/19 A3004 210 40 2400 180/06 RMK AO2 T03390189
63870K0J4 0J420160702145511807/02/16 14:55:31  5-MIN K0J4 021955Z AUTO 17006KT 10SM FEW070 33/18 A3004 210 40 2400 170/06 RMK AO2 SLP165 T03330183
63870K0J4 0J420160702150011107/02/16 15:00:31  5-MIN K0J4 022000Z AUTO 19005KT 10SM FEW070 33/18 A3003 210 41 2300 190/05 RMK AO2 T03280183
63870K0J4 0J420160702150510807/02/16 15:05:31  5-MIN K0J4 022005Z AUTO VRB03KT 10SM CLR 34/19 A3003 210 39 2500 VRB/03 RMK AO2 T03440189
63870K0J4 0J420160702151010807/02/16 15:10:31  5-MIN K0J4 022010Z AUTO 13004KT 10SM CLR 34/18 A3003 210 38 2500 130/04 RMK AO2 T03440183
63870K0J4 0J420160702151510807/02/16 15:15:31  5-MIN K0J4 022015Z AUTO 00000KT 10SM CLR 34/18 A3003 220 36 2500 000/00 RMK AO2 T03440178
63870K0J4 0J420160702152010807/02/16 15:20:31  5-MIN K0J4 022020Z AUTO 00000KT 10SM CLR 34/17 A3003 220 36 2500 000/00 RMK AO2 T03390172
63870K0J4 0J420160702152510807/02/16 15:25:31  5-MIN K0J4 022025Z AUTO VRB04KT 10SM CLR 34/18 A3003 220 39 2500 VRB/04 RMK AO2 T03390183
63870K0J4 0J420160702153010807/02/16 15:30:31  5-MIN K0J4 022030Z AUTO 17003KT 10SM CLR 34/18 A3003 220 38 2500 170/03 RMK AO2 T03440183
63870K0J4 0J420160702153510807/02/16 15:35:31  5-MIN K0J4 022035Z AUTO 19003KT 10SM CLR 34/18 A3002 220 38 2500 190/03 RMK AO2 T03440183
63870K0J4 0J420160702154010807/02/16 15:40:31  5-MIN K0J4 022040Z AUTO 00000KT 10SM CLR 34/18 A3002 220 36 2500 000/00 RMK AO2 T03440178
63870K0J4 0J420160702154510807/02/16 15:45:31  5-MIN K0J4 022045Z AUTO 21004KT 10SM CLR 35/18 A3002 220 36 2600 210/04 RMK AO2 T03500183
63870K0J4 0J420160702155010807/02/16 15:50:31  5-MIN K0J4 022050Z AUTO 23004KT 10SM CLR 34/18 A3002 230 36 2500 230/04 RMK AO2 T03440178
63870K0J4 0J420160702155512107/02/16 15:55:31  5-MIN K0J4 022055Z AUTO VRB03KT 10SM CLR 35/18 A3002 230 35 2600 VRB/03 RMK AO2 SLP159 T03500178 58006
63870K0J4 0J420160702160010807/02/16 16:00:31  5-MIN K0J4 022100Z AUTO VRB03KT 10SM CLR 34/18 A3002 230 36 2500 VRB/03 RMK AO2 T03440178
63870K0J4 0J420160702160510807/02/16 16:05:31  5-MIN K0J4 022105Z AUTO 00000KT 10SM CLR 34/18 A3001 230 36 2500 000/00 RMK AO2 T03440178
63870K0J4 0J420160702161010807/02/16 16:10:31  5-MIN K0J4 022110Z AUTO 19005KT 10SM CLR 34/18 A3001 230 38 2500 190/05 RMK AO2 T03440183
63870K0J4 0J420160702161510807/02/16 16:15:31  5-MIN K0J4 022115Z AUTO 21007KT 10SM CLR 35/18 A3001 230 36 2600 210/07 RMK AO2 T03500183
63870K0J4 0J420160702162010807/02/16 16:20:31  5-MIN K0J4 022120Z AUTO 22005KT 10SM CLR 34/18 A3001 230 36 2500 220/05 RMK AO2 T03440178
63870K0J4 0J420160702162511107/02/16 16:25:31  5-MIN K0J4 022125Z AUTO VRB03KT 10SM FEW065 34/18 A3001 230 38 2500 VRB/03 RMK AO2 T03440183
63870K0J4 0J420160702163011107/02/16 16:30:31  5-MIN K0J4 022130Z AUTO 23004KT 10SM FEW065 35/18 A3001 230 36 2600 230/04 RMK AO2 T03500183
63870K0J4 0J420160702163511107/02/16 16:35:31  5-MIN K0J4 022135Z AUTO 22005KT 10SM FEW070 34/18 A3001 230 36 2500 220/05 RMK AO2 T03440178
63870K0J4 0J420160702164011107/02/16 16:40:31  5-MIN K0J4 022140Z AUTO VRB03KT 10SM FEW065 34/18 A3001 230 36 2500 VRB/03 RMK AO2 T03440178
63870K0J4 0J420160702164511107/02/16 16:45:31  5-MIN K0J4 022145Z AUTO 00000KT 10SM FEW065 36/18 A3001 240 35 2700 000/00 RMK AO2 T03560183
63870K0J4 0J420160702165011107/02/16 16:50:31  5-MIN K0J4 022150Z AUTO 00000KT 10SM FEW065 34/18 A3001 240 36 2500 000/00 RMK AO2 T03440178
63870K0J4 0J420160702165511807/02/16 16:55:31  5-MIN K0J4 022155Z AUTO 20006KT 10SM FEW070 34/18 A3001 230 36 2500 200/06 RMK AO2 SLP156 T03440178
63870K0J4 0J420160702170010807/02/16 17:00:31  5-MIN K0J4 022200Z AUTO 22006KT 10SM CLR 34/18 A3001 230 36 2500 220/06 RMK AO2 T03440178
63870K0J4 0J420160702170510807/02/16 17:05:31  5-MIN K0J4 022205Z AUTO 21006KT 10SM CLR 34/18 A3001 240 36 2500 210/06 RMK AO2 T03440178
63870K0J4 0J420160702171010807/02/16 17:10:31  5-MIN K0J4 022210Z AUTO 20005KT 10SM CLR 34/17 A3001 240 35 2500 200/05 RMK AO2 T03440172
63870K0J4 0J420160702171510807/02/16 17:15:31  5-MIN K0J4 022215Z AUTO VRB04KT 10SM CLR 34/18 A3001 230 36 2500 VRB/04 RMK AO2 T03440178
63870K0J4 0J420160702172010807/02/16 17:20:31  5-MIN K0J4 022220Z AUTO VRB05KT 10SM CLR 34/18 A3001 240 38 2500 VRB/05 RMK AO2 T03440183
63870K0J4 0J420160702172510807/02/16 17:25:31  5-MIN K0J4 022225Z AUTO 21006KT 10SM CLR 34/18 A3001 240 36 2500 210/06 RMK AO2 T03440178
63870K0J4 0J420160702173010807/02/16 17:30:31  5-MIN K0J4 022230Z AUTO 20006KT 10SM CLR 34/18 A3001 240 36 2500 200/06 RMK AO2 T03440178
63870K0J4 0J420160702173510807/02/16 17:35:31  5-MIN K0J4 022235Z AUTO 22006KT 10SM CLR 34/18 A3001 240 36 2500 220/06 RMK AO2 T03440178
63870K0J4 0J420160702174010807/02/16 17:40:31  5-MIN K0J4 022240Z AUTO 21005KT 10SM CLR 34/18 A3001 240 36 2500 210/05 RMK AO2 T03440178
63870K0J4 0J420160702174510807/02/16 17:45:31  5-MIN K0J4 022245Z AUTO 22004KT 10SM CLR 34/18 A3000 240 38 2500 220/04 RMK AO2 T03440183
63870K0J4 0J420160702175010807/02/16 17:50:31  5-MIN K0J4 022250Z AUTO VRB05KT 10SM CLR 34/18 A3000 240 38 2500 VRB/05 RMK AO2 T03440183
63870K0J4 0J420160702175511507/02/16 17:55:31  5-MIN K0J4 022255Z AUTO 21006KT 10SM CLR 34/18 A3001 240 38 2500 210/06 RMK AO2 SLP155 T03440183
63870K0J4 0J420160702180010807/02/16 18:00:31  5-MIN K0J4 022300Z AUTO 21006KT 10SM CLR 34/18 A3001 230 37 2500 210/06 RMK AO2 T03390178
63870K0J4 0J420160702180510807/02/16 18:05:31  5-MIN K0J4 022305Z AUTO 22005KT 10SM CLR 34/18 A3001 230 37 2500 220/05 RMK AO2 T03390178
63870K0J4 0J420160702181010807/02/16 18:10:31  5-MIN K0J4 022310Z AUTO 21005KT 10SM CLR 34/18 A3001 230 39 2500 210/05 RMK AO2 T03390183
63870K0J4 0J420160702181510807/02/16 18:15:31  5-MIN K0J4 022315Z AUTO 20005KT 10SM CLR 34/18 A3001 230 39 2500 200/05 RMK AO2 T03390183
63870K0J4 0J420160702182010807/02/16 18:20:31  5-MIN K0J4 022320Z AUTO 20005KT 10SM CLR 34/18 A3001 230 39 2500 200/05 RMK AO2 T03390183
63870K0J4 0J420160702182510807/02/16 18:25:31  5-MIN K0J4 022325Z AUTO 20005KT 10SM CLR 34/18 A3001 230 39 2500 200/05 RMK AO2 T03390183
63870K0J4 0J420160702183010807/02/16 18:30:31  5-MIN K0J4 022330Z AUTO 19004KT 10SM CLR 34/18 A3001 230 39 2500 190/04 RMK AO2 T03390183
63870K0J4 0J420160702183510807/02/16 18:35:31  5-MIN K0J4 022335Z AUTO 21005KT 10SM CLR 33/19 A3001 230 43 2400 210/05 RMK AO2 T03330194
63870K0J4 0J420160702184010807/02/16 18:40:31  5-MIN K0J4 022340Z AUTO 21004KT 10SM CLR 33/21 A3001 230 48 2300 210/04 RMK AO2 T03280206
63870K0J4 0J420160702184510807/02/16 18:45:31  5-MIN K0J4 022345Z AUTO 20004KT 10SM CLR 33/21 A3002 230 48 2300 200/04 RMK AO2 T03280206
63870K0J4 0J420160702185010807/02/16 18:50:31  5-MIN K0J4 022350Z AUTO 20004KT 10SM CLR 33/21 A3002 230 48 2300 200/04 RMK AO2 T03280206
63870K0J4 0J420160702185513307/02/16 18:55:31  5-MIN K0J4 022355Z AUTO 20004KT 10SM CLR 32/21 A3002 220 51 2300 200/04 RMK AO2 SLP160 T03220211 10356 20322 58017
63870K0J4 0J420160702190010807/02/16 19:00:31  5-MIN K0J4 030000Z AUTO 21003KT 10SM CLR 32/21 A3002 220 53 2200 210/03 RMK AO2 T03170211
63870K0J4 0J420160702190510807/02/16 19:05:31  5-MIN K0J4 030005Z AUTO 20004KT 10SM CLR 32/21 A3002 220 53 2200 200/04 RMK AO2 T03170211
63870K0J4 0J420160702191010807/02/16 19:10:31  5-MIN K0J4 030010Z AUTO 19003KT 10SM CLR 32/22 A3002 220 55 2200 190/03 RMK AO2 T03170217
63870K0J4 0J420160702191510807/02/16 19:15:31  5-MIN K0J4 030015Z AUTO 20004KT 10SM CLR 31/22 A3002 220 56 2200 200/04 RMK AO2 T03110217
63870K0J4 0J420160702192010807/02/16 19:20:31  5-MIN K0J4 030020Z AUTO 21008KT 10SM CLR 31/22 A3003 220 58 2200 210/08 RMK AO2 T03110222
63870K0J4 0J420160702192510807/02/16 19:25:31  5-MIN K0J4 030025Z AUTO 22006KT 10SM CLR 31/22 A3003 220 58 2200 220/06 RMK AO2 T03110222
63870K0J4 0J420160702193010807/02/16 19:30:31  5-MIN K0J4 030030Z AUTO 22005KT 10SM CLR 31/22 A3003 220 58 2100 220/05 RMK AO2 T03110222
63870K0J4 0J420160702193510807/02/16 19:35:31  5-MIN K0J4 030035Z AUTO 21006KT 10SM CLR 31/22 A3003 210 60 2100 210/06 RMK AO2 T03060222
63870K0J4 0J420160702194010807/02/16 19:40:31  5-MIN K0J4 030040Z AUTO 21006KT 10SM CLR 31/22 A3003 210 60 2100 210/06 RMK AO2 T03060222
63870K0J4 0J420160702194510807/02/16 19:45:31  5-MIN K0J4 030045Z AUTO 22006KT 10SM CLR 31/22 A3004 210 60 2100 220/06 RMK AO2 T03060222
63870K0J4 0J420160702195010807/02/16 19:50:31  5-MIN K0J4 030050Z AUTO 22007KT 10SM CLR 31/22 A3004 210 60 2100 220/07 RMK AO2 T03060222
63870K0J4 0J420160702195511507/02/16 19:55:31  5-MIN K0J4 030055Z AUTO 22006KT 10SM CLR 31/22 A3004 210 60 2100 220/06 RMK AO2 SLP166 T03060222
63870K0J4 0J420160702200010807/02/16 20:00:31  5-MIN K0J4 030100Z AUTO 21007KT 10SM CLR 30/22 A3004 210 62 2000 210/07 RMK AO2 T03000222
63870K0J4 0J420160702200510807/02/16 20:05:31  5-MIN K0J4 030105Z AUTO 22006KT 10SM CLR 29/22 A3004 200 67 1900 220/06 RMK AO2 T02890222
63870K0J4 0J420160702201010807/02/16 20:10:31  5-MIN K0J4 030110Z AUTO 21007KT 10SM CLR 30/22 A3005 200 62 2000 210/07 RMK AO2 T03000222
63870K0J4 0J420160702201510807/02/16 20:15:31  5-MIN K0J4 030115Z AUTO 22004KT 10SM CLR 29/22 A3005 200 64 1900 220/04 RMK AO2 T02940222
63870K0J4 0J420160702202010807/02/16 20:20:31  5-MIN K0J4 030120Z AUTO 22006KT 10SM CLR 29/22 A3005 200 64 1900 220/06 RMK AO2 T02940222
63870K0J4 0J420160702202510807/02/16 20:25:31  5-MIN K0J4 030125Z AUTO 22005KT 10SM CLR 29/22 A3005 200 64 1900 220/05 RMK AO2 T02940222
63870K0J4 0J420160702203010807/02/16 20:30:31  5-MIN K0J4 030130Z AUTO 22005KT 10SM CLR 29/23 A3005 200 67 1900 220/05 RMK AO2 T02940228
63870K0J4 0J420160702203510807/02/16 20:35:31  5-MIN K0J4 030135Z AUTO 22004KT 10SM CLR 29/23 A3005 190 69 1900 220/04 RMK AO2 T02890228
63870K0J4 0J420160702204010807/02/16 20:40:31  5-MIN K0J4 030140Z AUTO 22005KT 10SM CLR 29/23 A3005 190 69 1900 220/05 RMK AO2 T02890228
63870K0J4 0J420160702204510807/02/16 20:45:31  5-MIN K0J4 030145Z AUTO 23004KT 10SM CLR 29/23 A3006 190 69 1900 230/04 RMK AO2 T02890228
63870K0J4 0J420160702205010807/02/16 20:50:31  5-MIN K0J4 030150Z AUTO 22004KT 10SM CLR 29/23 A3006 190 69 1900 220/04 RMK AO2 T02890228
63870K0J4 0J420160702205511507/02/16 20:55:31  5-MIN K0J4 030155Z AUTO 23004KT 10SM CLR 28/23 A3006 190 71 1800 230/04 RMK AO2 SLP172 T02830228
63870K0J4 0J420160702210010807/02/16 21:00:31  5-MIN K0J4 030200Z AUTO 22004KT 10SM CLR 29/23 A3006 190 69 1900 220/04 RMK AO2 T02890228
63870K0J4 0J420160702210510807/02/16 21:05:31  5-MIN K0J4 030205Z AUTO 22004KT 10SM CLR 28/23 A3006 190 71 1800 220/04 RMK AO2 T02830228
63870K0J4 0J420160702211010807/02/16 21:10:31  5-MIN K0J4 030210Z AUTO 22004KT 10SM CLR 28/23 A3006 190 74 1700 220/04 RMK AO2 T02780228
63870K0J4 0J420160702211510807/02/16 21:15:31  5-MIN K0J4 030215Z AUTO 23004KT 10SM CLR 28/23 A3006 190 71 1800 230/04 RMK AO2 T02830228
63870K0J4 0J420160702212010807/02/16 21:20:31  5-MIN K0J4 030220Z AUTO 23004KT 10SM CLR 28/23 A3006 190 71 1800 230/04 RMK AO2 T02830228
63870K0J4 0J420160702212510807/02/16 21:25:31  5-MIN K0J4 030225Z AUTO 22004KT 10SM CLR 28/22 A3006 190 69 1800 220/04 RMK AO2 T02830222
63870K0J4 0J420160702213010807/02/16 21:30:31  5-MIN K0J4 030230Z AUTO 23003KT 10SM CLR 28/22 A3006 190 71 1700 230/03 RMK AO2 T02780222
63870K0J4 0J420160702213510807/02/16 21:35:31  5-MIN K0J4 030235Z AUTO 23003KT 10SM CLR 28/22 A3006 180 71 1700 230/03 RMK AO2 T02780222
63870K0J4 0J420160702214010807/02/16 21:40:31  5-MIN K0J4 030240Z AUTO 24003KT 10SM CLR 28/23 A3006 180 74 1700 240/03 RMK AO2 T02780228
63870K0J4 0J420160702214510807/02/16 21:45:31  5-MIN K0J4 030245Z AUTO 23004KT 10SM CLR 28/22 A3006 180 71 1700 230/04 RMK AO2 T02780222
63870K0J4 0J420160702215010807/02/16 21:50:31  5-MIN K0J4 030250Z AUTO 22004KT 10SM CLR 28/22 A3007 180 71 1700 220/04 RMK AO2 T02780222
63870K0J4 0J420160702215512107/02/16 21:55:31  5-MIN K0J4 030255Z AUTO 20003KT 10SM CLR 28/22 A3007 180 71 1700 200/03 RMK AO2 SLP176 T02780222 53002
63870K0J4 0J420160702220010807/02/16 22:00:31  5-MIN K0J4 030300Z AUTO 21003KT 10SM CLR 27/23 A3007 180 76 1700 210/03 RMK AO2 T02720228
63870K0J4 0J420160702220510807/02/16 22:05:31  5-MIN K0J4 030305Z AUTO 00000KT 10SM CLR 27/23 A3007 180 79 1600 000/00 RMK AO2 T02670228
63870K0J4 0J420160702221010807/02/16 22:10:31  5-MIN K0J4 030310Z AUTO 21003KT 10SM CLR 27/23 A3007 180 76 1700 210/03 RMK AO2 T02720228
63870K0J4 0J420160702221510807/02/16 22:15:31  5-MIN K0J4 030315Z AUTO 21003KT 10SM CLR 27/22 A3007 180 74 1700 210/03 RMK AO2 T02720222
63870K0J4 0J420160702222010807/02/16 22:20:31  5-MIN K0J4 030320Z AUTO 21003KT 10SM CLR 27/22 A3007 180 76 1600 210/03 RMK AO2 T02670222
63870K0J4 0J420160702222510807/02/16 22:25:31  5-MIN K0J4 030325Z AUTO 22003KT 10SM CLR 27/22 A3007 180 76 1600 220/03 RMK AO2 T02670222
63870K0J4 0J420160702223010807/02/16 22:30:31  5-MIN K0J4 030330Z AUTO 21004KT 10SM CLR 27/22 A3007 180 76 1600 210/04 RMK AO2 T02670222
63870K0J4 0J420160702223510807/02/16 22:35:31  5-MIN K0J4 030335Z AUTO 21003KT 10SM CLR 27/22 A3007 180 76 1600 210/03 RMK AO2 T02670222
63870K0J4 0J420160702224010807/02/16 22:40:31  5-MIN K0J4 030340Z AUTO 20004KT 10SM CLR 27/22 A3007 180 76 1600 200/04 RMK AO2 T02670222
63870K0J4 0J420160702224510807/02/16 22:45:31  5-MIN K0J4 030345Z AUTO 22003KT 10SM CLR 26/22 A3007 180 79 1500 220/03 RMK AO2 T02610222
63870K0J4 0J420160702225010807/02/16 22:50:31  5-MIN K0J4 030350Z AUTO VRB03KT 10SM CLR 27/22 A3007 180 76 1600 VRB/03 RMK AO2 T02670222
63870K0J4 0J420160702225511507/02/16 22:55:31  5-MIN K0J4 030355Z AUTO 21003KT 10SM CLR 27/22 A3007 180 76 1600 210/03 RMK AO2 SLP176 T02670222
63870K0J4 0J420160702230010807/02/16 23:00:31  5-MIN K0J4 030400Z AUTO 00000KT 10SM CLR 27/22 A3007 180 76 1600 000/00 RMK AO2 T02670222
63870K0J4 0J420160702230510807/02/16 23:05:31  5-MIN K0J4 030405Z AUTO 00000KT 10SM CLR 26/22 A3007 180 79 1500 000/00 RMK AO2 T02610222
63870K0J4 0J420160702231010807/02/16 23:10:31  5-MIN K0J4 030410Z AUTO 23003KT 10SM CLR 26/22 A3006 180 79 1600 230/03 RMK AO2 T02610222
63870K0J4 0J420160702231510807/02/16 23:15:31  5-MIN K0J4 030415Z AUTO 23003KT 10SM CLR 26/22 A3006 190 79 1600 230/03 RMK AO2 T02610222
63870K0J4 0J420160702232010807/02/16 23:20:31  5-MIN K0J4 030420Z AUTO 23003KT 10SM CLR 26/22 A3006 190 79 1600 230/03 RMK AO2 T02610222
63870K0J4 0J420160702232510807/02/16 23:25:31  5-MIN K0J4 030425Z AUTO 00000KT 10SM CLR 26/22 A3006 190 79 1600 000/00 RMK AO2 T02610222
63870K0J4 0J420160702233010807/02/16 23:30:31  5-MIN K0J4 030430Z AUTO 00000KT 10SM CLR 26/22 A3006 180 81 1500 000/00 RMK AO2 T02560222
63870K0J4 0J420160702233510807/02/16 23:35:31  5-MIN K0J4 030435Z AUTO 00000KT 10SM CLR 26/22 A3006 180 79 1500 000/00 RMK AO2 T02610222
63870K0J4 0J420160702234010807/02/16 23:40:31  5-MIN K0J4 030440Z AUTO 23003KT 10SM CLR 26/22 A3006 180 79 1600 230/03 RMK AO2 T02610222
63870K0J4 0J420160702234510807/02/16 23:45:31  5-MIN K0J4 030445Z AUTO 22003KT 10SM CLR 26/22 A3006 180 79 1500 220/03 RMK AO2 T02610222
63870K0J4 0J420160702235010807/02/16 23:50:31  5-MIN K0J4 030450Z AUTO 22003KT 10SM CLR 26/23 A3006 180 81 1600 220/03 RMK AO2 T02610228
63870K0J4 0J420160702235512507/02/16 23:55:31  5-MIN K0J4 030455Z AUTO 22003KT 10SM CLR 26/23 A3006 190 81 1600 220/03 RMK AO2 SLP174 T02610228 403560228
63870K0J4 0J420160703000010807/03/16 00:00:31  5-MIN K0J4 030500Z AUTO 21003KT 10SM CLR 26/23 A3006 190 84 1500 210/03 RMK AO2 T02560228
63870K0J4 0J420160703000510807/03/16 00:05:31  5-MIN K0J4 030505Z AUTO 21003KT 10SM CLR 26/23 A3006 190 84 1500 210/03 RMK AO2 T02560228
63870K0J4 0J420160703001010807/03/16 00:10:31  5-MIN K0J4 030510Z AUTO 00000KT 10SM CLR 26/23 A3006 190 84 1500 000/00 RMK AO2 T02560228
63870K0J4 0J420160703001510807/03/16 00:15:31  5-MIN K0J4 030515Z AUTO 00000KT 10SM CLR 26/23 A3006 190 84 1500 000/00 RMK AO2 T02560228
63870K0J4 0J420160703002010807/03/16 00:20:31  5-MIN K0J4 030520Z AUTO 00000KT 10SM CLR 26/23 A3006 190 84 1500 000/00 RMK AO2 T02560228
63870K0J4 0J420160703002510807/03/16 00:25:31  5-MIN K0J4 030525Z AUTO 00000KT 10SM CLR 25/23 A3006 190 87 1400 000/00 RMK AO2 T02500228
63870K0J4 0J420160703003010807/03/16 00:30:31  5-MIN K0J4 030530Z AUTO 00000KT 10SM CLR 25/23 A3006 190 87 1400 000/00 RMK AO2 T02500228
63870K0J4 0J420160703003510807/03/16 00:35:31  5-MIN K0J4 030535Z AUTO 23004KT 10SM CLR 25/23 A3006 190 87 1400 230/04 RMK AO2 T02500228
63870K0J4 0J420160703004010807/03/16 00:40:31  5-MIN K0J4 030540Z AUTO 23004KT 10SM CLR 26/23 A3006 190 84 1500 230/04 RMK AO2 T02560228
63870K0J4 0J420160703004510807/03/16 00:45:31  5-MIN K0J4 030545Z AUTO 23004KT 10SM CLR 26/23 A3006 190 84 1500 230/04 RMK AO2 T02560228
63870K0J4 0J420160703005010807/03/16 00:50:31  5-MIN K0J4 030550Z AUTO 23003KT 10SM CLR 26/23 A3006 190 84 1500 230/03 RMK AO2 T02560228
63870K0J4 0J420160703005513307/03/16 00:55:31  5-MIN K0J4 030555Z AUTO 22003KT 10SM CLR 26/23 A3006 190 84 1500 220/03 RMK AO2 SLP173 T02560228 10317 20250 51016
63870K0J4 0J420160703010010807/03/16 01:00:31  5-MIN K0J4 030600Z AUTO 23003KT 10SM CLR 26/23 A3006 190 84 1500 230/03 RMK AO2 T02560228
63870K0J4 0J420160703010510807/03/16 01:05:31  5-MIN K0J4 030605Z AUTO 23003KT 10SM CLR 25/23 A3006 190 87 1400 230/03 RMK AO2 T02500228
63870K0J4 0J420160703011010807/03/16 01:10:31  5-MIN K0J4 030610Z AUTO 00000KT 10SM CLR 25/23 A3006 190 87 1400 000/00 RMK AO2 T02500228
63870K0J4 0J420160703011510807/03/16 01:15:31  5-MIN K0J4 030615Z AUTO 21003KT 10SM CLR 25/23 A3005 190 87 1400 210/03 RMK AO2 T02500228
63870K0J4 0J420160703012010807/03/16 01:20:31  5-MIN K0J4 030620Z AUTO 00000KT 10SM CLR 24/22 A3005 190 87 1400 000/00 RMK AO2 T02440222
63870K0J4 0J420160703012510807/03/16 01:25:31  5-MIN K0J4 030625Z AUTO 22003KT 10SM CLR 24/23 A3005 190 90 1400 220/03 RMK AO2 T02440228
63870K0J4 0J420160703013010807/03/16 01:30:31  5-MIN K0J4 030630Z AUTO 23003KT 10SM CLR 25/23 A3005 200 87 1400 230/03 RMK AO2 T02500228
63870K0J4 0J420160703013510807/03/16 01:35:31  5-MIN K0J4 030635Z AUTO 00000KT 10SM CLR 25/23 A3005 200 87 1400 000/00 RMK AO2 T02500228
63870K0J4 0J420160703014010807/03/16 01:40:31  5-MIN K0J4 030640Z AUTO 00000KT 10SM CLR 25/23 A3005 200 87 1400 000/00 RMK AO2 T02500228
63870K0J4 0J420160703014510807/03/16 01:45:31  5-MIN K0J4 030645Z AUTO 22003KT 10SM CLR 25/23 A3005 200 87 1400 220/03 RMK AO2 T02500228
63870K0J4 0J420160703015010807/03/16 01:50:31  5-MIN K0J4 030650Z AUTO 21004KT 10SM CLR 25/23 A3005 200 87 1400 210/04 RMK AO2 T02500228
63870K0J4 0J420160703015511507/03/16 01:55:31  5-MIN K0J4 030655Z AUTO 22003KT 10SM CLR 24/23 A3005 200 90 1400 220/03 RMK AO2 SLP170 T02440228
63870K0J4 0J420160703020010807/03/16 02:00:31  5-MIN K0J4 030700Z AUTO 22003KT 10SM CLR 24/23 A3005 200 90 1400 220/03 RMK AO2 T02440228
63870K0J4 0J420160703020510807/03/16 02:05:31  5-MIN K0J4 030705Z AUTO 22003KT 10SM CLR 24/23 A3005 200 90 1400 220/03 RMK AO2 T02440228
63870K0J4 0J420160703021010807/03/16 02:10:31  5-MIN K0J4 030710Z AUTO 22003KT 10SM CLR 25/23 A3005 200 87 1400 220/03 RMK AO2 T02500228
63870K0J4 0J420160703021510807/03/16 02:15:31  5-MIN K0J4 030715Z AUTO 21003KT 10SM CLR 24/23 A3005 200 90 1400 210/03 RMK AO2 T02440228
63870K0J4 0J420160703022010807/03/16 02:20:31  5-MIN K0J4 030720Z AUTO 21003KT 10SM CLR 24/22 A3005 200 87 1400 210/03 RMK AO2 T02440222
63870K0J4 0J420160703022510807/03/16 02:25:31  5-MIN K0J4 030725Z AUTO 22003KT 10SM CLR 24/23 A3005 200 90 1400 220/03 RMK AO2 T02440228
63870K0J4 0J420160703023010807/03/16 02:30:31  5-MIN K0J4 030730Z AUTO 22003KT 10SM CLR 25/23 A3005 200 87 1400 220/03 RMK AO2 T02500228
63870K0J4 0J420160703023510807/03/16 02:35:31  5-MIN K0J4 030735Z AUTO 00000KT 10SM CLR 24/23 A3005 200 90 1400 000/00 RMK AO2 T02440228
63870K0J4 0J420160703024010807/03/16 02:40:31  5-MIN K0J4 030740Z AUTO 22003KT 10SM CLR 25/23 A3005 200 87 1400 220/03 RMK AO2 T02500228
63870K0J4 0J420160703024510807/03/16 02:45:31  5-MIN K0J4 030745Z AUTO 00000KT 10SM CLR 24/23 A3005 200 90 1400 000/00 RMK AO2 T02440228
63870K0J4 0J420160703025010807/03/16 02:50:31  5-MIN K0J4 030750Z AUTO 00000KT 10SM CLR 24/23 A3005 200 90 1400 000/00 RMK AO2 T02440228
63870K0J4 0J420160703025511507/03/16 02:55:31  5-MIN K0J4 030755Z AUTO 00000KT 10SM CLR 24/23 A3005 200 90 1400 000/00 RMK AO2 SLP170 T02440228
63870K0J4 0J420160703030010807/03/16 03:00:31  5-MIN K0J4 030800Z AUTO 22003KT 10SM CLR 24/23 A3005 200 90 1400 220/03 RMK AO2 T02440228
63870K0J4 0J420160703030510807/03/16 03:05:31  5-MIN K0J4 030805Z AUTO 00000KT 10SM CLR 24/23 A3005 200 90 1400 000/00 RMK AO2 T02440228
63870K0J4 0J420160703031010807/03/16 03:10:31  5-MIN K0J4 030810Z AUTO 00000KT 10SM CLR 24/22 A3005 200 87 1400 000/00 RMK AO2 T02440222
63870K0J4 0J420160703031510707/03/16 03:15:31  5-MIN K0J4 030815Z AUTO 00000KT 9SM CLR 24/22 A3005 190 87 1400 000/00 RMK AO2 T02440222
63870K0J4 0J420160703032010707/03/16 03:20:31  5-MIN K0J4 030820Z AUTO 00000KT 9SM CLR 24/23 A3005 190 90 1400 000/00 RMK AO2 T02440228
63870K0J4 0J420160703032510707/03/16 03:25:31  5-MIN K0J4 030825Z AUTO 00000KT 9SM CLR 24/23 A3006 190 93 1300 000/00 RMK AO2 T02390228
63870K0J4 0J420160703033010707/03/16 03:30:31  5-MIN K0J4 030830Z AUTO 00000KT 9SM CLR 24/22 A3006 190 90 1300 000/00 RMK AO2 T02390222
63870K0J4 0J420160703033510707/03/16 03:35:31  5-MIN K0J4 030835Z AUTO 00000KT 9SM CLR 24/22 A3006 190 90 1300 000/00 RMK AO2 T02390222
63870K0J4 0J420160703034010707/03/16 03:40:31  5-MIN K0J4 030840Z AUTO 00000KT 9SM CLR 24/22 A3006 190 90 1300 000/00 RMK AO2 T02390222
63870K0J4 0J420160703034510707/03/16 03:45:31  5-MIN K0J4 030845Z AUTO 00000KT 9SM CLR 24/22 A3006 190 90 1300 000/00 RMK AO2 T02390222
63870K0J4 0J420160703035010707/03/16 03:50:31  5-MIN K0J4 030850Z AUTO 00000KT 9SM CLR 23/22 A3006 190 93 1200 000/00 RMK AO2 T02330222
63870K0J4 0J420160703035512007/03/16 03:55:31  5-MIN K0J4 030855Z AUTO 00000KT 8SM CLR 23/22 A3006 190 90 1200 000/00 RMK AO2 SLP172 T02330217 58003
63870K0J4 0J420160703040010707/03/16 04:00:31  5-MIN K0J4 030900Z AUTO 00000KT 8SM CLR 24/22 A3005 190 90 1300 000/00 RMK AO2 T02390222
63870K0J4 0J420160703040510707/03/16 04:05:31  5-MIN K0J4 030905Z AUTO 00000KT 8SM CLR 24/23 A3005 190 93 1300 000/00 RMK AO2 T02390228
63870K0J4 0J420160703041010707/03/16 04:10:31  5-MIN K0J4 030910Z AUTO 00000KT 8SM CLR 24/22 A3005 190 90 1300 000/00 RMK AO2 T02390222
63870K0J4 0J420160703041510707/03/16 04:15:31  5-MIN K0J4 030915Z AUTO 00000KT 8SM CLR 24/22 A3005 190 90 1300 000/00 RMK AO2 T02390222
63870K0J4 0J420160703042010707/03/16 04:20:31  5-MIN K0J4 030920Z AUTO 00000KT 7SM CLR 24/22 A3006 190 90 1300 000/00 RMK AO2 T02390222
63870K0J4 0J420160703042510707/03/16 04:25:31  5-MIN K0J4 030925Z AUTO 00000KT 7SM CLR 23/22 A3006 190 93 1200 000/00 RMK AO2 T02330222
63870K0J4 0J420160703043010707/03/16 04:30:31  5-MIN K0J4 030930Z AUTO 00000KT 8SM CLR 23/22 A3006 190 90 1200 000/00 RMK AO2 T02330217
63870K0J4 0J420160703043510707/03/16 04:35:31  5-MIN K0J4 030935Z AUTO 00000KT 8SM CLR 23/22 A3006 190 90 1200 000/00 RMK AO2 T02330217
63870K0J4 0J420160703044010707/03/16 04:40:31  5-MIN K0J4 030940Z AUTO 00000KT 7SM CLR 23/22 A3006 180 90 1200 000/00 RMK AO2 T02330217
63870K0J4 0J420160703044511007/03/16 04:45:31  5-MIN K0J4 030945Z AUTO 22003KT 6SM BR CLR 23/22 A3006 180 93 1200 220/03 RMK AO2 T02330222
63870K0J4 0J420160703045011007/03/16 04:50:31  5-MIN K0J4 030950Z AUTO 00000KT 6SM BR CLR 23/22 A3006 180 93 1200 000/00 RMK AO2 T02330222
63870K0J4 0J420160703045511707/03/16 04:55:31  5-MIN K0J4 030955Z AUTO 00000KT 6SM BR CLR 23/22 A3007 180 93 1200 000/00 RMK AO2 SLP176 T02330222
63870K0J4 0J420160703050011007/03/16 05:00:31  5-MIN K0J4 031000Z AUTO 00000KT 6SM BR CLR 23/22 A3007 180 93 1200 000/00 RMK AO2 T02330222
63870K0J4 0J420160703050510707/03/16 05:05:31  5-MIN K0J4 031005Z AUTO 22003KT 7SM CLR 23/22 A3007 180 90 1200 220/03 RMK AO2 T02330217
63870K0J4 0J420160703051010707/03/16 05:10:31  5-MIN K0J4 031010Z AUTO 22003KT 7SM CLR 23/22 A3007 180 90 1200 220/03 RMK AO2 T02330217
63870K0J4 0J420160703051511007/03/16 05:15:31  5-MIN K0J4 031015Z AUTO 22003KT 6SM BR CLR 23/22 A3007 180 93 1200 220/03 RMK AO2 T02330222
63870K0J4 0J420160703052011007/03/16 05:20:31  5-MIN K0J4 031020Z AUTO 00000KT 6SM BR CLR 23/22 A3007 180 93 1200 000/00 RMK AO2 T02330222
63870K0J4 0J420160703052511007/03/16 05:25:31  5-MIN K0J4 031025Z AUTO 00000KT 6SM BR CLR 23/22 A3007 180 93 1200 000/00 RMK AO2 T02330222
63870K0J4 0J420160703053010707/03/16 05:30:31  5-MIN K0J4 031030Z AUTO 21003KT 7SM CLR 23/22 A3007 180 93 1200 210/03 RMK AO2 T02330222
63870K0J4 0J420160703053510707/03/16 05:35:31  5-MIN K0J4 031035Z AUTO 00000KT 7SM CLR 23/22 A3007 180 90 1200 000/00 RMK AO2 T02330217
63870K0J4 0J420160703054011007/03/16 05:40:31  5-MIN K0J4 031040Z AUTO 22003KT 6SM BR CLR 23/22 A3007 180 93 1200 220/03 RMK AO2 T02330222
63870K0J4 0J420160703054511007/03/16 05:45:31  5-MIN K0J4 031045Z AUTO 23003KT 5SM BR CLR 24/22 A3007 180 90 1300 230/03 RMK AO2 T02390222
63870K0J4 0J420160703055011007/03/16 05:50:31  5-MIN K0J4 031050Z AUTO 22003KT 5SM BR CLR 24/23 A3007 180 93 1300 220/03 RMK AO2 T02390228
63870K0J4 0J420160703055511707/03/16 05:55:31  5-MIN K0J4 031055Z AUTO 22003KT 5SM BR CLR 24/23 A3007 180 93 1300 220/03 RMK AO2 SLP177 T02390228
63870K0J4 0J420160703060011007/03/16 06:00:31  5-MIN K0J4 031100Z AUTO 00000KT 5SM BR CLR 23/22 A3007 180 93 1200 000/00 RMK AO2 T02330222
63870K0J4 0J420160703060511007/03/16 06:05:31  5-MIN K0J4 031105Z AUTO 00000KT 6SM BR CLR 23/22 A3007 180 93 1200 000/00 RMK AO2 T02330222
63870K0J4 0J420160703061011007/03/16 06:10:31  5-MIN K0J4 031110Z AUTO 00000KT 5SM BR CLR 24/22 A3007 180 90 1300 000/00 RMK AO2 T02390222
63870K0J4 0J420160703061511007/03/16 06:15:31  5-MIN K0J4 031115Z AUTO 00000KT 5SM BR CLR 24/23 A3007 180 93 1300 000/00 RMK AO2 T02390228
63870K0J4 0J420160703062010007/03/16 06:20:31  5-MIN K0J4 031120Z AUTO 5SM BR CLR 24/23 A3008 170 90 1300 M /M RMK AO2 T02440228
63870K0J4 0J420160703062511007/03/16 06:25:31  5-MIN K0J4 031125Z AUTO 00000KT 6SM BR CLR 24/23 A3008 170 90 1300 000/00 RMK AO2 T02440228
63870K0J4 0J420160703063011007/03/16 06:30:31  5-MIN K0J4 031130Z AUTO 00000KT 6SM BR CLR 24/23 A3008 170 90 1300 000/00 RMK AO2 T02440228
63870K0J4 0J420160703063511007/03/16 06:35:31  5-MIN K0J4 031135Z AUTO 00000KT 6SM BR CLR 25/23 A3008 170 90 1400 000/00 RMK AO2 T02500233
63870K0J4 0J420160703064011007/03/16 06:40:31  5-MIN K0J4 031140Z AUTO 20003KT 5SM BR CLR 24/23 A3008 170 93 1300 200/03 RMK AO2 T02440233
63870K0J4 0J420160703064511007/03/16 06:45:31  5-MIN K0J4 031145Z AUTO 20004KT 5SM BR CLR 24/23 A3008 170 93 1300 200/04 RMK AO2 T02440233
63870K0J4 0J420160703065011007/03/16 06:50:31  5-MIN K0J4 031150Z AUTO 21003KT 6SM BR CLR 25/23 A3008 170 90 1400 210/03 RMK AO2 T02500233
63870K0J4 0J420160703065513507/03/16 06:55:31  5-MIN K0J4 031155Z AUTO 20004KT 6SM BR CLR 25/23 A3008 170 90 1400 200/04 RMK AO2 SLP181 T02500233 10256 20233 55001
63870K0J4 0J420160703070011007/03/16 07:00:31  5-MIN K0J4 031200Z AUTO 20004KT 6SM BR CLR 26/23 A3008 160 87 1500 200/04 RMK AO2 T02560233
63870K0J4 0J420160703070511007/03/16 07:05:31  5-MIN K0J4 031205Z AUTO 21003KT 7SM FEW075 26/23 A3009 160 87 1500 210/03 RMK AO2 T02560233
63870K0J4 0J420160703071011007/03/16 07:10:31  5-MIN K0J4 031210Z AUTO 22003KT 7SM FEW075 26/23 A3009 160 84 1500 220/03 RMK AO2 T02610233
63870K0J4 0J420160703071511007/03/16 07:15:31  5-MIN K0J4 031215Z AUTO VRB04KT 8SM SCT075 26/23 A3009 160 84 1500 VRB/04 RMK AO2 T02610233
63870K0J4 0J420160703072011007/03/16 07:20:31  5-MIN K0J4 031220Z AUTO 23004KT 8SM BKN075 26/23 A3010 150 84 1500 230/04 RMK AO2 T02610233
63870K0J4 0J420160703072511007/03/16 07:25:31  5-MIN K0J4 031225Z AUTO 23003KT 8SM BKN070 26/23 A3010 150 84 1500 230/03 RMK AO2 T02610233
63870K0J4 0J420160703073011007/03/16 07:30:31  5-MIN K0J4 031230Z AUTO 00000KT 8SM BKN070 26/23 A3010 150 84 1500 000/00 RMK AO2 T02610233
63870K0J4 0J420160703073511007/03/16 07:35:31  5-MIN K0J4 031235Z AUTO 00000KT 9SM BKN075 27/24 A3010 150 84 1600 000/00 RMK AO2 T02670239
63870K0J4 0J420160703074011007/03/16 07:40:31  5-MIN K0J4 031240Z AUTO 00000KT 9SM BKN075 27/24 A3010 150 84 1600 000/00 RMK AO2 T02670239
63870K0J4 0J420160703074511007/03/16 07:45:31  5-MIN K0J4 031245Z AUTO 24003KT 9SM BKN070 27/24 A3010 150 82 1600 240/03 RMK AO2 T02720239
63870K0J4 0J420160703075011107/03/16 07:50:31  5-MIN K0J4 031250Z AUTO 23005KT 10SM BKN070 27/24 A3010 150 82 1600 230/05 RMK AO2 T02720239
63870K0J4 0J420160703075511807/03/16 07:55:31  5-MIN K0J4 031255Z AUTO VRB03KT 10SM SCT075 28/24 A3010 150 79 1700 VRB/03 RMK AO2 SLP188 T02780239
63870K0J4 0J420160703080011107/03/16 08:00:31  5-MIN K0J4 031300Z AUTO 23006KT 10SM FEW075 28/23 A3010 150 76 1700 230/06 RMK AO2 T02780233
63870K0J4 0J420160703080511107/03/16 08:05:31  5-MIN K0J4 031305Z AUTO VRB04KT 10SM FEW070 28/24 A3011 150 76 1800 VRB/04 RMK AO2 T02830239
63870K0J4 0J420160703081011107/03/16 08:10:31  5-MIN K0J4 031310Z AUTO 24004KT 10SM FEW070 28/23 A3011 140 74 1800 240/04 RMK AO2 T02830233
63870K0J4 0J420160704062511107/04/16 06:25:31  5-MIN K0J4 041125Z AUTO 22003KT 10SM FEW033 25/23 A3011 140 90 1400 220/03 RMK AO2 T02500233
63870K0J4 0J420160704063011107/04/16 06:30:31  5-MIN K0J4 041130Z AUTO 00000KT 10SM FEW060 25/23 A3012 130 90 1400 000/00 RMK AO2 T02500233
63870K0J4 0J420160704063511807/04/16 06:35:31  5-MIN K0J4 041135Z AUTO 00000KT 10SM FEW041 SCT060 25/23 A3012 130 90 1400 000/00 RMK AO2 T02500233
63870K0J4 0J420160704064011807/04/16 06:40:31  5-MIN K0J4 041140Z AUTO 00000KT 10SM FEW041 SCT060 25/23 A3012 130 90 1400 000/00 RMK AO2 T02500233
63870K0J4 0J420160704064512507/04/16 06:45:31  5-MIN K0J4 041145Z AUTO 00000KT 10SM FEW041 FEW060 SCT075 25/23 A3012 130 90 1400 000/00 RMK AO2 T02500233
63870K0J4 0J420160704065012507/04/16 06:50:31  5-MIN K0J4 041150Z AUTO 00000KT 10SM FEW029 SCT060 BKN075 26/23 A3012 130 87 1400 000/00 RMK AO2 T02560233
63870K0J4 0J420160704065515007/04/16 06:55:31  5-MIN K0J4 041155Z AUTO 21003KT 10SM FEW029 SCT060 SCT075 26/23 A3012 130 87 1400 210/03 RMK AO2 SLP196 T02560233 10261 20244 53003
63870K0J4 0J420160704070012507/04/16 07:00:31  5-MIN K0J4 041200Z AUTO 22003KT 10SM FEW031 SCT060 SCT075 26/23 A3013 130 87 1400 220/03 RMK AO2 T02560233
63870K0J4 0J420160704070511807/04/16 07:05:31  5-MIN K0J4 041205Z AUTO 21003KT 10SM SCT029 SCT075 26/23 A3013 130 87 1400 210/03 RMK AO2 T02560233
63870K0J4 0J420160704071012507/04/16 07:10:31  5-MIN K0J4 041210Z AUTO 00000KT 10SM FEW027 SCT032 BKN075 26/24 A3012 130 90 1400 000/00 RMK AO2 T02560239
63870K0J4 0J420160704071512507/04/16 07:15:31  5-MIN K0J4 041215Z AUTO 00000KT 10SM FEW029 FEW033 BKN080 26/24 A3012 130 90 1400 000/00 RMK AO2 T02560239
63870K0J4 0J420160704072011807/04/16 07:20:31  5-MIN K0J4 041220Z AUTO 22004KT 10SM FEW029 SCT080 26/24 A3013 130 90 1400 220/04 RMK AO2 T02560239
63870K0J4 0J420160704072511807/04/16 07:25:31  5-MIN K0J4 041225Z AUTO 23003KT 10SM FEW029 SCT080 26/23 A3013 130 84 1500 230/03 RMK AO2 T02610233
63870K0J4 0J420160704073011807/04/16 07:30:31  5-MIN K0J4 041230Z AUTO VRB03KT 10SM FEW029 SCT080 26/23 A3012 130 84 1500 VRB/03 RMK AO2 T02610233
63870K0J4 0J420160704073511107/04/16 07:35:31  5-MIN K0J4 041235Z AUTO 22003KT 10SM SCT080 26/23 A3013 130 84 1500 220/03 RMK AO2 T02610233
63870K0J4 0J420160704074011107/04/16 07:40:31  5-MIN K0J4 041240Z AUTO 23003KT 10SM SCT080 26/23 A3013 120 84 1500 230/03 RMK AO2 T02610233
63870K0J4 0J420160704074511107/04/16 07:45:31  5-MIN K0J4 041245Z AUTO 00000KT 10SM SCT080 26/23 A3013 120 84 1500 000/00 RMK AO2 T02610233
63870K0J4 0J420160704075011107/04/16 07:50:31  5-MIN K0J4 041250Z AUTO 21003KT 10SM BKN080 26/23 A3013 120 84 1500 210/03 RMK AO2 T02610233
63870K0J4 0J420160704075511807/04/16 07:55:31  5-MIN K0J4 041255Z AUTO 20003KT 10SM BKN080 26/24 A3013 120 87 1500 200/03 RMK AO2 SLP199 T02610239
63870K0J4 0J420160704080011107/04/16 08:00:31  5-MIN K0J4 041300Z AUTO 20004KT 10SM BKN080 26/24 A3013 120 87 1500 200/04 RMK AO2 T02610239
63870K0J4 0J420160704080511107/04/16 08:05:31  5-MIN K0J4 041305Z AUTO 20003KT 10SM BKN080 27/24 A3013 120 84 1500 200/03 RMK AO2 T02670239
63870K0J4 0J420160704081011107/04/16 08:10:31  5-MIN K0J4 041310Z AUTO 19004KT 10SM SCT080 27/24 A3013 120 84 1500 190/04 RMK AO2 T02670239
63870K0J4 0J420160704081511107/04/16 08:15:31  5-MIN K0J4 041315Z AUTO 19004KT 10SM SCT080 27/24 A3013 120 84 1500 190/04 RMK AO2 T02670239
63870K0J4 0J420160704082011107/04/16 08:20:31  5-MIN K0J4 041320Z AUTO 20004KT 10SM FEW080 27/24 A3014 120 82 1600 200/04 RMK AO2 T02720239
63870K0J4 0J420160704082510807/04/16 08:25:31  5-MIN K0J4 041325Z AUTO 20005KT 10SM CLR 27/24 A3014 120 82 1600 200/05 RMK AO2 T02720239
63870K0J4 0J420160704083010807/04/16 08:30:31  5-MIN K0J4 041330Z AUTO 20003KT 10SM CLR 27/24 A3014 120 82 1600 200/03 RMK AO2 T02720239
63870K0J4 0J420160704083510807/04/16 08:35:31  5-MIN K0J4 041335Z AUTO 22004KT 10SM CLR 28/24 A3014 120 79 1700 220/04 RMK AO2 T02780239
63870K0J4 0J420160704084010807/04/16 08:40:31  5-MIN K0J4 041340Z AUTO 21006KT 10SM CLR 28/24 A3014 120 76 1700 210/06 RMK AO2 T02830239
63870K0J4 0J420160704084510807/04/16 08:45:31  5-MIN K0J4 041345Z AUTO VRB04KT 10SM CLR 28/24 A3014 120 76 1700 VRB/04 RMK AO2 T02830239
63870K0J4 0J420160704085010807/04/16 08:50:31  5-MIN K0J4 041350Z AUTO VRB05KT 10SM CLR 29/24 A3013 120 74 1800 VRB/05 RMK AO2 T02940244
63870K0J4 0J420160704085511507/04/16 08:55:31  5-MIN K0J4 041355Z AUTO 22005KT 10SM CLR 29/24 A3013 120 74 1800 220/05 RMK AO2 SLP198 T02940244
63870K0J4 0J420160704090011107/04/16 09:00:31  5-MIN K0J4 041400Z AUTO VRB04KT 10SM FEW021 29/24 A3013 120 71 1800 VRB/04 RMK AO2 T02940239
63870K0J4 0J420160704090511807/04/16 09:05:31  5-MIN K0J4 041405Z AUTO VRB03KT 10SM SCT018 SCT023 29/24 A3013 120 74 1800 VRB/03 RMK AO2 T02940244
63870K0J4 0J420160704091012507/04/16 09:10:31  5-MIN K0J4 041410Z AUTO 23005KT 10SM SCT018 BKN023 BKN030 29/24 A3013 120 74 1800 230/05 RMK AO2 T02890239
63870K0J4 0J420160704091511807/04/16 09:15:31  5-MIN K0J4 041415Z AUTO VRB03KT 10SM BKN020 BKN030 28/24 A3013 120 76 1700 VRB/03 RMK AO2 T02830239
63870K0J4 0J420160704092012507/04/16 09:20:31  5-MIN K0J4 041420Z AUTO VRB03KT 10SM BKN020 BKN030 BKN037 28/24 A3014 120 76 1700 VRB/03 RMK AO2 T02830239
63870K0J4 0J420160704092512507/04/16 09:25:31  5-MIN K0J4 041425Z AUTO 00000KT 10SM SCT020 BKN027 OVC034 28/24 A3013 120 76 1700 000/00 RMK AO2 T02830239
63870K0J4 0J420160704093012507/04/16 09:30:31  5-MIN K0J4 041430Z AUTO VRB03KT 10SM SCT020 BKN027 OVC055 28/24 A3014 120 76 1700 VRB/03 RMK AO2 T02830239
63870K0J4 0J420160704093512507/04/16 09:35:31  5-MIN K0J4 041435Z AUTO VRB04KT 10SM SCT023 BKN033 OVC060 29/24 A3014 120 74 1800 VRB/04 RMK AO2 T02890239
63870K0J4 0J420160704094014107/04/16 09:40:31  5-MIN K0J4 041440Z AUTO 22006KT 10SM -RA FEW026 BKN047 OVC080 28/24 A3014 120 76 1700 220/06 RMK AO2 RAB38 P0000 T02830239
63870K0J4 0J420160704094514107/04/16 09:45:31  5-MIN K0J4 041445Z AUTO 22003KT 10SM -RA FEW029 SCT038 BKN065 28/24 A3014 120 76 1700 220/03 RMK AO2 RAB38 P0000 T02830239
63870K0J4 0J420160704095014007/04/16 09:50:31  5-MIN K0J4 041450Z AUTO VRB03KT 10SM FEW029 SCT065 SCT080 28/24 A3014 120 76 1700 VRB/03 RMK AO2 RAB38E47 P0000 T02830239
63870K0J4 0J420160704095512807/04/16 09:55:31  5-MIN K0J4 041455Z AUTO 00000KT 10SM VCTS FEW049 FEW065 29/24 A3014 110 76 1800 000/00 RMK AO2 RAB38E47 P0000
63870K0J4 0J420160704100011607/04/16 10:00:31  5-MIN K0J4 041500Z AUTO 00000KT 10SM VCTS FEW065 29/24 A3014 110 74 1800 000/00 RMK AO2 T02940244
63870K0J4 0J420160704100511607/04/16 10:05:31  5-MIN K0J4 041505Z AUTO 00000KT 10SM VCTS FEW075 29/24 A3014 110 74 1800 000/00 RMK AO2 T02940244
63870K0J4 0J420160704101010807/04/16 10:10:31  5-MIN K0J4 041510Z AUTO 00000KT 10SM CLR 29/24 A3014 110 74 1800 000/00 RMK AO2 T02940244
63870K0J4 0J420160704101511107/04/16 10:15:31  5-MIN K0J4 041515Z AUTO VRB04KT 10SM FEW026 30/24 A3014 110 69 1900 VRB/04 RMK AO2 T03000239
63870K0J4 0J420160704102011107/04/16 10:20:31  5-MIN K0J4 041520Z AUTO VRB03KT 10SM SCT026 30/24 A3014 110 69 1900 VRB/03 RMK AO2 T03000239
63870K0J4 0J420160704102511807/04/16 10:25:31  5-MIN K0J4 041525Z AUTO VRB04KT 10SM SCT024 SCT030 31/24 A3014 120 67 2000 VRB/04 RMK AO2 T03060239
63870K0J4 0J420160704103014107/04/16 10:30:31  5-MIN K0J4 041530Z AUTO VRB03KT 10SM -RA FEW026 SCT030 SCT060 32/24 A3013 120 63 2100 VRB/03 RMK AO2 RAB26 P0000 T03170239
63870K0J4 0J420160704103514107/04/16 10:35:31  5-MIN K0J4 041535Z AUTO VRB05KT 10SM -RA SCT026 BKN034 BKN060 31/24 A3013 120 65 2000 VRB/05 RMK AO2 RAB26 P0000 T03110239
63870K0J4 0J420160704104014007/04/16 10:40:31  5-MIN K0J4 041540Z AUTO VRB04KT 10SM SCT026 BKN031 BKN039 30/23 A3014 110 67 1900 VRB/04 RMK AO2 RAB26E36 P0000 T03000233
63870K0J4 0J420160704104513607/04/16 10:45:31  5-MIN K0J4 041545Z AUTO 1SM -RA SCT023 BKN028 BKN036 28/23 A3016 100 76 1600 M /M RMK AO2 RAB26E36B44 P0013 T02780233
63870K0J4 0J420160704105017307/04/16 10:50:31  5-MIN K0J4 041550Z AUTO 29008KT 220V010 1/4SM +RA FG SCT012 SCT023 BKN028 24/22 A3016 90 87 1200 290/08 220V010 RMK AO2 RAB26E36B44 PRESRR P0043 T02440222
63870K0J4 0J420160704105515807/04/16 10:55:31  5-MIN K0J4 041555Z AUTO 03004KT 1/4SM +RA FG SCT014 BKN026 BKN036 24/22 A3015 110 90 1200 030/04 RMK AO2 RAB26E36B44 SLP204 P0055 T02390222
63870K0J4 0J420160704110013907/04/16 11:00:31  5-MIN K0J4 041600Z AUTO VRB03KT 1SM -TSRA BR SCT014 BKN026 BKN037 24/23 A3016 100 93 1200 VRB/03 RMK AO2 P0000 T02390228
63870K0J4 0J420160704110513507/04/16 11:05:31  5-MIN K0J4 041605Z AUTO 00000KT 9SM -TSRA FEW014 SCT028 BKN045 24/23 A3016 90 93 1300 000/00 RMK AO2 P0000 T02440233
63870K0J4 0J420160704111014007/04/16 11:10:31  5-MIN K0J4 041610Z AUTO 00000KT 10SM TS FEW014 SCT024 BKN085 24/23 A3016 100 93 1300 000/00 RMK AO2 RAE08 P0000 T02440233
63870K0J4 0J420160704111513207/04/16 11:15:31  5-MIN K0J4 041615Z AUTO 00000KT 10SM TS FEW013 SCT085 25/24 A3016 90 97 1300 000/00 RMK AO2 RAE08 P0000 T02500244
63870K0J4 0J420160704112014207/04/16 11:20:31  5-MIN K0J4 041620Z AUTO 27003KT 3SM TS BR FEW021 SCT048 BKN110 25/24 A3016 100 97 1300 270/03 RMK AO2 RAE08 P0000 T02500244
63870K0J4 0J420160704160510807/04/16 16:05:31  5-MIN K0J4 042105Z AUTO 22007KT 10SM CLR 32/21 A3009 160 49 2200 220/07 RMK AO2 T03220206
63870K0J4 0J420160704161010807/04/16 16:10:31  5-MIN K0J4 042110Z AUTO 22007KT 10SM CLR 32/21 A3008 170 49 2200 220/07 RMK AO2 T03220206
63870K0J4 0J420160704161510807/04/16 16:15:31  5-MIN K0J4 042115Z AUTO 21008KT 10SM CLR 32/21 A3008 170 49 2200 210/08 RMK AO2 T03220206
63870K0J4 0J420160704162010807/04/16 16:20:31  5-MIN K0J4 042120Z AUTO 21009KT 10SM CLR 32/21 A3008 170 49 2200 210/09 RMK AO2 T03220206
63870K0J4 0J420160704162510807/04/16 16:25:31  5-MIN K0J4 042125Z AUTO 20008KT 10SM CLR 32/21 A3007 170 51 2200 200/08 RMK AO2 T03170206
63870K0J4 0J420160704163010807/04/16 16:30:31  5-MIN K0J4 042130Z AUTO 19007KT 10SM CLR 32/21 A3007 180 51 2200 190/07 RMK AO2 T03170206
63870K0J4 0J420160704163510807/04/16 16:35:31  5-MIN K0J4 042135Z AUTO 19008KT 10SM CLR 32/21 A3007 180 51 2200 190/08 RMK AO2 T03170206
63870K0J4 0J420160704164010807/04/16 16:40:31  5-MIN K0J4 042140Z AUTO 19007KT 10SM CLR 31/21 A3007 180 53 2100 190/07 RMK AO2 T03110206
63870K0J4 0J420160704164510807/04/16 16:45:31  5-MIN K0J4 042145Z AUTO 19006KT 10SM CLR 31/21 A3007 180 53 2100 190/06 RMK AO2 T03110206
63870K0J4 0J420160704165010807/04/16 16:50:31  5-MIN K0J4 042150Z AUTO 22005KT 10SM CLR 31/21 A3007 180 54 2100 220/05 RMK AO2 T03110211
63870K0J4 0J420160704165511507/04/16 16:55:31  5-MIN K0J4 042155Z AUTO VRB04KT 10SM CLR 31/21 A3007 180 54 2100 VRB/04 RMK AO2 SLP177 T03110211
63870K0J4 0J420160704170010807/04/16 17:00:31  5-MIN K0J4 042200Z AUTO 22008KT 10SM CLR 31/22 A3007 180 58 2000 220/08 RMK AO2 T03060217
63870K0J4 0J420160704170510807/04/16 17:05:31  5-MIN K0J4 042205Z AUTO 22007KT 10SM CLR 31/22 A3007 180 60 2000 220/07 RMK AO2 T03060222
63870K0J4 0J420160704171010807/04/16 17:10:31  5-MIN K0J4 042210Z AUTO 22006KT 10SM CLR 31/22 A3007 180 60 2000 220/06 RMK AO2 T03060222
63870K0J4 0J420160704171510807/04/16 17:15:31  5-MIN K0J4 042215Z AUTO 23006KT 10SM CLR 31/23 A3007 180 62 2000 230/06 RMK AO2 T03060228
63870K0J4 0J420160704172010807/04/16 17:20:31  5-MIN K0J4 042220Z AUTO 24004KT 10SM CLR 31/23 A3007 180 62 2000 240/04 RMK AO2 T03060228
63870K0J4 0J420160704172510807/04/16 17:25:31  5-MIN K0J4 042225Z AUTO VRB03KT 10SM CLR 31/22 A3007 180 60 2000 VRB/03 RMK AO2 T03060222
63870K0J4 0J420160704173010807/04/16 17:30:31  5-MIN K0J4 042230Z AUTO 00000KT 10SM CLR 31/23 A3007 180 62 2000 000/00 RMK AO2 T03060228
63870K0J4 0J420160704173510807/04/16 17:35:31  5-MIN K0J4 042235Z AUTO 00000KT 10SM CLR 31/23 A3007 180 65 2000 000/00 RMK AO2 T03060233
63870K0J4 0J420160704174010807/04/16 17:40:31  5-MIN K0J4 042240Z AUTO VRB03KT 10SM CLR 31/23 A3007 180 65 2000 VRB/03 RMK AO2 T03060233
63870K0J4 0J420160704174510807/04/16 17:45:31  5-MIN K0J4 042245Z AUTO 24003KT 10SM CLR 31/23 A3007 180 62 2000 240/03 RMK AO2 T03060228
63870K0J4 0J420160704175010807/04/16 17:50:31  5-MIN K0J4 042250Z AUTO 00000KT 10SM CLR 31/23 A3007 180 62 2000 000/00 RMK AO2 T03060228
63870K0J4 0J420160704175511507/04/16 17:55:31  5-MIN K0J4 042255Z AUTO VRB03KT 10SM CLR 31/23 A3007 180 62 2000 VRB/03 RMK AO2 SLP177 T03060228
63870K0J4 0J420160704180010807/04/16 18:00:31  5-MIN K0J4 042300Z AUTO 23003KT 10SM CLR 31/23 A3007 180 62 2000 230/03 RMK AO2 T03060228
63870K0J4 0J420160704180510807/04/16 18:05:31  5-MIN K0J4 042305Z AUTO VRB03KT 10SM CLR 30/23 A3007 180 65 2000 VRB/03 RMK AO2 T03000228
63870K0J4 0J420160704181010807/04/16 18:10:31  5-MIN K0J4 042310Z AUTO 24003KT 10SM CLR 30/23 A3007 180 65 2000 240/03 RMK AO2 T03000228
63870K0J4 0J420160704181510807/04/16 18:15:31  5-MIN K0J4 042315Z AUTO 00000KT 10SM CLR 30/23 A3007 180 65 2000 000/00 RMK AO2 T03000228
63870K0J4 0J420160704182010807/04/16 18:20:31  5-MIN K0J4 042320Z AUTO 00000KT 10SM CLR 29/23 A3007 180 67 1900 000/00 RMK AO2 T02940228
63870K0J4 0J420160704182510807/04/16 18:25:31  5-MIN K0J4 042325Z AUTO 00000KT 10SM CLR 29/23 A3007 180 69 1900 000/00 RMK AO2 T02940233
63870K0J4 0J420160704183010807/04/16 18:30:31  5-MIN K0J4 042330Z AUTO 00000KT 10SM CLR 29/23 A3007 170 69 1900 000/00 RMK AO2 T02940233
63870K0J4 0J420160704183510807/04/16 18:35:31  5-MIN K0J4 042335Z AUTO 00000KT 10SM CLR 29/23 A3008 170 71 1800 000/00 RMK AO2 T02890233
63870K0J4 0J420160704184010807/04/16 18:40:31  5-MIN K0J4 042340Z AUTO 00000KT 10SM CLR 29/23 A3008 170 71 1800 000/00 RMK AO2 T02890233
63870K0J4 0J420160704184510807/04/16 18:45:31  5-MIN K0J4 042345Z AUTO 00000KT 10SM CLR 29/23 A3008 170 69 1900 000/00 RMK AO2 T02940233
63870K0J4 0J420160704185010807/04/16 18:50:31  5-MIN K0J4 042350Z AUTO 22004KT 10SM CLR 29/23 A3008 170 69 1900 220/04 RMK AO2 T02940233
63870K0J4 0J420160704185513907/04/16 18:55:31  5-MIN K0J4 042355Z AUTO 23003KT 10SM CLR 29/23 A3008 170 69 1900 230/03 RMK AO2 SLP181 60000 T02940233 10333 20289 58012
63870K0J4 0J420160704190010807/04/16 19:00:31  5-MIN K0J4 050000Z AUTO 23003KT 10SM CLR 29/23 A3008 170 69 1900 230/03 RMK AO2 T02940233
63870K0J4 0J420160704190510807/04/16 19:05:31  5-MIN K0J4 050005Z AUTO 23005KT 10SM CLR 29/22 A3009 160 64 1900 230/05 RMK AO2 T02940222
63870K0J4 0J420160704191010807/04/16 19:10:31  5-MIN K0J4 050010Z AUTO 23007KT 10SM CLR 29/22 A3009 160 64 1900 230/07 RMK AO2 T02940222
63870K0J4 0J420160704191510807/04/16 19:15:31  5-MIN K0J4 050015Z AUTO 23005KT 10SM CLR 29/21 A3009 160 60 1900 230/05 RMK AO2 T02940211
63870K0J4 0J420160704192010807/04/16 19:20:31  5-MIN K0J4 050020Z AUTO 22006KT 10SM CLR 29/21 A3009 160 60 1900 220/06 RMK AO2 T02940211
63870K0J4 0J420160704192510807/04/16 19:25:31  5-MIN K0J4 050025Z AUTO 22007KT 10SM CLR 29/21 A3009 160 60 1900 220/07 RMK AO2 T02940211
63870K0J4 0J420160704193010807/04/16 19:30:31  5-MIN K0J4 050030Z AUTO 23008KT 10SM CLR 29/21 A3009 160 60 1900 230/08 RMK AO2 T02940211
63870K0J4 0J420160704193510807/04/16 19:35:31  5-MIN K0J4 050035Z AUTO 22005KT 10SM CLR 29/21 A3009 160 60 1900 220/05 RMK AO2 T02940211
63870K0J4 0J420160704194010807/04/16 19:40:31  5-MIN K0J4 050040Z AUTO 21004KT 10SM CLR 29/22 A3009 160 64 1800 210/04 RMK AO2 T02890217
63870K0J4 0J420160704194510807/04/16 19:45:31  5-MIN K0J4 050045Z AUTO 21005KT 10SM CLR 28/22 A3009 160 69 1800 210/05 RMK AO2 T02830222
63870K0J4 0J420160704195010807/04/16 19:50:31  5-MIN K0J4 050050Z AUTO 21006KT 10SM CLR 28/22 A3008 160 69 1800 210/06 RMK AO2 T02830222
63870K0J4 0J420160704195511507/04/16 19:55:31  5-MIN K0J4 050055Z AUTO 20006KT 10SM CLR 28/22 A3008 170 69 1800 200/06 RMK AO2 SLP181 T02830222
63870K0J4 0J420160704200010807/04/16 20:00:31  5-MIN K0J4 050100Z AUTO 20006KT 10SM CLR 28/22 A3008 170 71 1700 200/06 RMK AO2 T02780222
63870K0J4 0J420160704200510807/04/16 20:05:31  5-MIN K0J4 050105Z AUTO 20006KT 10SM CLR 28/22 A3008 170 71 1700 200/06 RMK AO2 T02780222
63870K0J4 0J420160704201010807/04/16 20:10:31  5-MIN K0J4 050110Z AUTO 20006KT 10SM CLR 28/22 A3008 170 71 1700 200/06 RMK AO2 T02780222
63870K0J4 0J420160704201510807/04/16 20:15:31  5-MIN K0J4 050115Z AUTO 20006KT 10SM CLR 28/22 A3007 180 71 1700 200/06 RMK AO2 T02780222
63870K0J4 0J420160704202010807/04/16 20:20:31  5-MIN K0J4 050120Z AUTO 18004KT 10SM CLR 28/22 A3007 180 71 1700 180/04 RMK AO2 T02780222
63870K0J4 0J420160704202510807/04/16 20:25:31  5-MIN K0J4 050125Z AUTO 19006KT 10SM CLR 27/23 A3007 180 76 1700 190/06 RMK AO2 T02720228
63870K0J4 0J420160704203010807/04/16 20:30:31  5-MIN K0J4 050130Z AUTO 19006KT 10SM CLR 28/23 A3007 180 74 1700 190/06 RMK AO2 T02780228
63870K0J4 0J420160704203510807/04/16 20:35:31  5-MIN K0J4 050135Z AUTO 19007KT 10SM CLR 28/23 A3007 180 74 1700 190/07 RMK AO2 T02780228
63870K0J4 0J420160704204010807/04/16 20:40:31  5-MIN K0J4 050140Z AUTO 20008KT 10SM CLR 28/23 A3007 180 76 1700 200/08 RMK AO2 T02780233
63870K0J4 0J420160704204510807/04/16 20:45:31  5-MIN K0J4 050145Z AUTO 20008KT 10SM CLR 27/23 A3007 180 79 1700 200/08 RMK AO2 T02720233
63870K0J4 0J420160704205010807/04/16 20:50:31  5-MIN K0J4 050150Z AUTO 19006KT 10SM CLR 27/23 A3007 180 79 1700 190/06 RMK AO2 T02720233
63870K0J4 0J420160704205511507/04/16 20:55:31  5-MIN K0J4 050155Z AUTO 18007KT 10SM CLR 27/23 A3006 180 79 1700 180/07 RMK AO2 SLP176 T02720233
63870K0J4 0J420160704210010807/04/16 21:00:31  5-MIN K0J4 050200Z AUTO 19007KT 10SM CLR 27/23 A3006 180 79 1700 190/07 RMK AO2 T02720233
63870K0J4 0J420160704210510807/04/16 21:05:31  5-MIN K0J4 050205Z AUTO 19007KT 10SM CLR 27/23 A3007 180 79 1700 190/07 RMK AO2 T02720233
63870K0J4 0J420160704211010807/04/16 21:10:31  5-MIN K0J4 050210Z AUTO 19006KT 10SM CLR 27/23 A3007 180 79 1700 190/06 RMK AO2 T02720233
63870K0J4 0J420160704211510807/04/16 21:15:31  5-MIN K0J4 050215Z AUTO 18007KT 10SM CLR 27/23 A3006 190 82 1600 180/07 RMK AO2 T02670233
63870K0J4 0J420160704212010807/04/16 21:20:31  5-MIN K0J4 050220Z AUTO 18006KT 10SM CLR 27/23 A3006 180 82 1600 180/06 RMK AO2 T02670233
63870K0J4 0J420160704212510807/04/16 21:25:31  5-MIN K0J4 050225Z AUTO 19005KT 10SM CLR 27/24 A3007 180 84 1600 190/05 RMK AO2 T02670239
63870K0J4 0J420160704213010807/04/16 21:30:31  5-MIN K0J4 050230Z AUTO 19005KT 10SM CLR 27/24 A3007 180 84 1600 190/05 RMK AO2 T02670239
63870K0J4 0J420160704213510807/04/16 21:35:31  5-MIN K0J4 050235Z AUTO 19007KT 10SM CLR 27/24 A3007 180 84 1600 190/07 RMK AO2 T02670239
63870K0J4 0J420160704214010807/04/16 21:40:31  5-MIN K0J4 050240Z AUTO 19006KT 10SM CLR 27/24 A3007 180 84 1600 190/06 RMK AO2 T02670239
63870K0J4 0J420160704214510807/04/16 21:45:31  5-MIN K0J4 050245Z AUTO 18006KT 10SM CLR 27/24 A3007 180 84 1600 180/06 RMK AO2 T02670239
63870K0J4 0J420160704215010807/04/16 21:50:31  5-MIN K0J4 050250Z AUTO 19007KT 10SM CLR 27/24 A3007 180 84 1600 190/07 RMK AO2 T02670239
63870K0J4 0J420160704215512107/04/16 21:55:31  5-MIN K0J4 050255Z AUTO 19007KT 10SM CLR 27/24 A3007 170 84 1600 190/07 RMK AO2 SLP179 T02670239 55001
63870K0J4 0J420160704220010807/04/16 22:00:31  5-MIN K0J4 050300Z AUTO 19006KT 10SM CLR 27/24 A3007 170 84 1600 190/06 RMK AO2 T02670239
63870K0J4 0J420160704220510807/04/16 22:05:31  5-MIN K0J4 050305Z AUTO 20007KT 10SM CLR 26/24 A3008 170 87 1500 200/07 RMK AO2 T02610239
63870K0J4 0J420160704221010807/04/16 22:10:31  5-MIN K0J4 050310Z AUTO 20007KT 10SM CLR 27/24 A3008 170 84 1600 200/07 RMK AO2 T02670239
63870K0J4 0J420160704221510807/04/16 22:15:31  5-MIN K0J4 050315Z AUTO 21006KT 10SM CLR 26/24 A3008 170 87 1500 210/06 RMK AO2 T02610239
63870K0J4 0J420160704222010807/04/16 22:20:31  5-MIN K0J4 050320Z AUTO 21006KT 10SM CLR 26/24 A3009 160 87 1500 210/06 RMK AO2 T02610239
63870K0J4 0J420160704222510807/04/16 22:25:31  5-MIN K0J4 050325Z AUTO 24005KT 10SM CLR 26/24 A3010 150 87 1500 240/05 RMK AO2 T02610239
63870K0J4 0J420160704223010807/04/16 22:30:31  5-MIN K0J4 050330Z AUTO 22005KT 10SM CLR 26/24 A3010 150 87 1500 220/05 RMK AO2 T02610239
63870K0J4 0J420160704223510807/04/16 22:35:31  5-MIN K0J4 050335Z AUTO 23004KT 10SM CLR 26/24 A3010 150 87 1500 230/04 RMK AO2 T02610239
63870K0J4 0J420160704224010807/04/16 22:40:31  5-MIN K0J4 050340Z AUTO 25004KT 10SM CLR 26/24 A3011 140 87 1500 250/04 RMK AO2 T02610239
63870K0J4 0J420160704224510807/04/16 22:45:31  5-MIN K0J4 050345Z AUTO 23003KT 10SM CLR 26/24 A3011 140 87 1500 230/03 RMK AO2 T02610239
63870K0J4 0J420160704225010807/04/16 22:50:31  5-MIN K0J4 050350Z AUTO VRB03KT 10SM CLR 26/24 A3011 140 87 1500 VRB/03 RMK AO2 T02610239
63870K0J4 0J420160704225511507/04/16 22:55:31  5-MIN K0J4 050355Z AUTO 23003KT 10SM CLR 26/24 A3011 140 90 1400 230/03 RMK AO2 SLP192 T02560239
63870K0J4 0J420160704230010807/04/16 23:00:31  5-MIN K0J4 050400Z AUTO 23004KT 10SM CLR 26/24 A3011 140 90 1400 230/04 RMK AO2 T02560239
63870K0J4 0J420160704230510807/04/16 23:05:31  5-MIN K0J4 050405Z AUTO 23003KT 10SM CLR 26/24 A3011 140 90 1400 230/03 RMK AO2 T02560239
63870K0J4 0J420160704231010707/04/16 23:10:31  5-MIN K0J4 050410Z AUTO 00000KT 9SM CLR 26/24 A3012 140 90 1400 000/00 RMK AO2 T02560239
63870K0J4 0J420160704231510707/04/16 23:15:31  5-MIN K0J4 050415Z AUTO 00000KT 9SM CLR 26/24 A3011 140 90 1400 000/00 RMK AO2 T02560239
63870K0J4 0J420160704232010707/04/16 23:20:31  5-MIN K0J4 050420Z AUTO VRB03KT 9SM CLR 26/24 A3012 140 90 1400 VRB/03 RMK AO2 T02560239
63870K0J4 0J420160704232510707/04/16 23:25:31  5-MIN K0J4 050425Z AUTO 24003KT 9SM CLR 26/24 A3012 130 90 1400 240/03 RMK AO2 T02560239
63870K0J4 0J420160704233010707/04/16 23:30:31  5-MIN K0J4 050430Z AUTO 00000KT 9SM CLR 26/24 A3012 130 90 1400 000/00 RMK AO2 T02560239
63870K0J4 0J420160704233510707/04/16 23:35:31  5-MIN K0J4 050435Z AUTO 23004KT 9SM CLR 26/24 A3012 130 90 1400 230/04 RMK AO2 T02560239
63870K0J4 0J420160704234010707/04/16 23:40:31  5-MIN K0J4 050440Z AUTO 00000KT 8SM CLR 26/24 A3012 130 90 1400 000/00 RMK AO2 T02560239
63870K0J4 0J420160704234510707/04/16 23:45:31  5-MIN K0J4 050445Z AUTO 23003KT 8SM CLR 26/24 A3012 130 90 1400 230/03 RMK AO2 T02560239
63870K0J4 0J420160704235010707/04/16 23:50:31  5-MIN K0J4 050450Z AUTO 00000KT 8SM CLR 26/24 A3012 130 90 1400 000/00 RMK AO2 T02560239
63870K0J4 0J420160704235512407/04/16 23:55:31  5-MIN K0J4 050455Z AUTO 00000KT 7SM CLR 26/24 A3012 130 90 1400 000/00 RMK AO2 SLP194 T02560239 403330239
63870K0J4 0J420160705000010707/05/16 00:00:31  5-MIN K0J4 050500Z AUTO 21003KT 7SM CLR 26/24 A3011 140 90 1400 210/03 RMK AO2 T02560239
63870K0J4 0J420160705000510707/05/16 00:05:31  5-MIN K0J4 050505Z AUTO 22003KT 7SM CLR 26/24 A3011 140 90 1400 220/03 RMK AO2 T02560239
63870K0J4 0J420160705001010707/05/16 00:10:31  5-MIN K0J4 050510Z AUTO 00000KT 7SM CLR 25/24 A3011 140 93 1400 000/00 RMK AO2 T02500239
63870K0J4 0J420160705001510707/05/16 00:15:31  5-MIN K0J4 050515Z AUTO 00000KT 7SM CLR 25/24 A3011 140 93 1400 000/00 RMK AO2 T02500239
63870K0J4 0J420160705002010707/05/16 00:20:31  5-MIN K0J4 050520Z AUTO 21003KT 7SM CLR 25/24 A3011 140 93 1400 210/03 RMK AO2 T02500239
63870K0J4 0J420160705002510707/05/16 00:25:31  5-MIN K0J4 050525Z AUTO 23003KT 7SM CLR 25/24 A3011 140 93 1400 230/03 RMK AO2 T02500239
63870K0J4 0J420160705003010707/05/16 00:30:31  5-MIN K0J4 050530Z AUTO 22003KT 7SM CLR 26/24 A3011 140 90 1400 220/03 RMK AO2 T02560239
63870K0J4 0J420160705003510707/05/16 00:35:31  5-MIN K0J4 050535Z AUTO 22003KT 7SM CLR 25/24 A3011 140 93 1400 220/03 RMK AO2 T02500239
63870K0J4 0J420160705004010707/05/16 00:40:31  5-MIN K0J4 050540Z AUTO 23003KT 7SM CLR 25/24 A3011 140 93 1400 230/03 RMK AO2 T02500239
63870K0J4 0J420160705004511007/05/16 00:45:31  5-MIN K0J4 050545Z AUTO 00000KT 6SM BR CLR 25/24 A3011 140 93 1400 000/00 RMK AO2 T02500239
63870K0J4 0J420160705005011007/05/16 00:50:31  5-MIN K0J4 050550Z AUTO 20003KT 6SM BR CLR 25/24 A3011 150 93 1400 200/03 RMK AO2 T02500239
63870K0J4 0J420160705005513507/05/16 00:55:31  5-MIN K0J4 050555Z AUTO 20003KT 6SM BR CLR 24/23 A3010 150 93 1300 200/03 RMK AO2 SLP189 T02440233 10294 20244 55003
63870K0J4 0J420160705010011007/05/16 01:00:31  5-MIN K0J4 050600Z AUTO 21003KT 6SM BR CLR 24/23 A3011 150 93 1300 210/03 RMK AO2 T02440233
63870K0J4 0J420160705010511007/05/16 01:05:31  5-MIN K0J4 050605Z AUTO 00000KT 6SM BR CLR 25/24 A3010 150 93 1400 000/00 RMK AO2 T02500239
63870K0J4 0J420160705011011007/05/16 01:10:31  5-MIN K0J4 050610Z AUTO 21003KT 6SM BR CLR 25/24 A3010 150 93 1400 210/03 RMK AO2 T02500239
63870K0J4 0J420160705011511007/05/16 01:15:31  5-MIN K0J4 050615Z AUTO 00000KT 6SM BR CLR 25/24 A3010 150 93 1400 000/00 RMK AO2 T02500239
63870K0J4 0J420160705012011007/05/16 01:20:31  5-MIN K0J4 050620Z AUTO 19003KT 6SM BR CLR 24/23 A3010 150 93 1300 190/03 RMK AO2 T02440233
63870K0J4 0J420160705012511007/05/16 01:25:31  5-MIN K0J4 050625Z AUTO 21003KT 6SM BR CLR 25/24 A3010 150 93 1400 210/03 RMK AO2 T02500239
63870K0J4 0J420160705013011007/05/16 01:30:31  5-MIN K0J4 050630Z AUTO 21004KT 6SM BR CLR 25/24 A3010 150 93 1400 210/04 RMK AO2 T02500239
63870K0J4 0J420160705013511007/05/16 01:35:31  5-MIN K0J4 050635Z AUTO 20004KT 6SM BR CLR 25/24 A3010 150 93 1400 200/04 RMK AO2 T02500239
63870K0J4 0J420160705014011007/05/16 01:40:31  5-MIN K0J4 050640Z AUTO 20004KT 6SM BR CLR 25/24 A3009 160 93 1400 200/04 RMK AO2 T02500239
63870K0J4 0J420160705014511007/05/16 01:45:31  5-MIN K0J4 050645Z AUTO 20004KT 6SM BR CLR 25/24 A3010 160 93 1400 200/04 RMK AO2 T02500239
63870K0J4 0J420160705015011007/05/16 01:50:31  5-MIN K0J4 050650Z AUTO 20004KT 6SM BR CLR 25/24 A3009 160 93 1400 200/04 RMK AO2 T02500239
63870K0J4 0J420160705015511707/05/16 01:55:31  5-MIN K0J4 050655Z AUTO 19003KT 6SM BR CLR 25/24 A3009 160 93 1400 190/03 RMK AO2 SLP185 T02500239
63870K0J4 0J420160705020011007/05/16 02:00:31  5-MIN K0J4 050700Z AUTO 20003KT 6SM BR CLR 25/24 A3009 160 93 1400 200/03 RMK AO2 T02500239
63870K0J4 0J420160705020511007/05/16 02:05:31  5-MIN K0J4 050705Z AUTO 21004KT 6SM BR CLR 25/24 A3009 160 93 1400 210/04 RMK AO2 T02500239
63870K0J4 0J420160705021011007/05/16 02:10:31  5-MIN K0J4 050710Z AUTO 20004KT 6SM BR CLR 25/24 A3009 160 93 1400 200/04 RMK AO2 T02500239
63870K0J4 0J420160705021511007/05/16 02:15:31  5-MIN K0J4 050715Z AUTO 21004KT 6SM BR CLR 25/24 A3009 160 93 1400 210/04 RMK AO2 T02500239
63870K0J4 0J420160705022011307/05/16 02:20:31  5-MIN K0J4 050720Z AUTO 20004KT 6SM BR FEW016 25/24 A3009 160 93 1400 200/04 RMK AO2 T02500239
63870K0J4 0J420160705022512007/05/16 02:25:31  5-MIN K0J4 050725Z AUTO 20004KT 6SM BR FEW016 FEW023 25/24 A3009 160 93 1400 200/04 RMK AO2 T02500239
63870K0J4 0J420160705023011307/05/16 02:30:31  5-MIN K0J4 050730Z AUTO 20004KT 6SM BR FEW023 25/24 A3008 170 93 1400 200/04 RMK AO2 T02500239
63870K0J4 0J420160705023511307/05/16 02:35:31  5-MIN K0J4 050735Z AUTO 21005KT 6SM BR FEW023 25/24 A3008 170 93 1400 210/05 RMK AO2 T02500239
63870K0J4 0J420160705024011007/05/16 02:40:31  5-MIN K0J4 050740Z AUTO 20005KT 7SM FEW023 25/24 A3008 170 93 1400 200/05 RMK AO2 T02500239
63870K0J4 0J420160705024511007/05/16 02:45:31  5-MIN K0J4 050745Z AUTO 22005KT 7SM FEW023 25/24 A3008 170 93 1400 220/05 RMK AO2 T02500239
63870K0J4 0J420160705025011007/05/16 02:50:31  5-MIN K0J4 050750Z AUTO 21006KT 7SM FEW023 26/24 A3008 170 90 1500 210/06 RMK AO2 T02560239
63870K0J4 0J420160705025511407/05/16 02:55:31  5-MIN K0J4 050755Z AUTO 20004KT 7SM CLR 25/24 A3008 170 93 1400 200/04 RMK AO2 SLP182 T02500239
63870K0J4 0J420160705030010707/05/16 03:00:31  5-MIN K0J4 050800Z AUTO 20006KT 7SM CLR 26/24 A3008 170 90 1500 200/06 RMK AO2 T02560239
63870K0J4 0J420160705030511007/05/16 03:05:31  5-MIN K0J4 050805Z AUTO 21004KT 7SM FEW020 25/24 A3008 170 93 1400 210/04 RMK AO2 T02500239
63870K0J4 0J420160705031011007/05/16 03:10:31  5-MIN K0J4 050810Z AUTO 21006KT 7SM FEW020 26/24 A3008 170 90 1500 210/06 RMK AO2 T02560239
63870K0J4 0J420160705031511007/05/16 03:15:31  5-MIN K0J4 050815Z AUTO 21005KT 7SM FEW021 26/24 A3008 170 90 1500 210/05 RMK AO2 T02560239
63870K0J4 0J420160705032011007/05/16 03:20:31  5-MIN K0J4 050820Z AUTO 22005KT 7SM FEW021 25/24 A3008 170 93 1400 220/05 RMK AO2 T02500239
63870K0J4 0J420160705032511007/05/16 03:25:31  5-MIN K0J4 050825Z AUTO 23004KT 7SM FEW021 26/24 A3008 170 90 1500 230/04 RMK AO2 T02560239
63870K0J4 0J420160705033011007/05/16 03:30:31  5-MIN K0J4 050830Z AUTO 23004KT 7SM FEW023 26/24 A3008 170 90 1500 230/04 RMK AO2 T02560239
63870K0J4 0J420160705033511007/05/16 03:35:31  5-MIN K0J4 050835Z AUTO 22004KT 7SM FEW023 25/24 A3008 170 93 1400 220/04 RMK AO2 T02500239
63870K0J4 0J420160705034011007/05/16 03:40:31  5-MIN K0J4 050840Z AUTO 23005KT 7SM FEW023 25/24 A3008 170 93 1400 230/05 RMK AO2 T02500239
63870K0J4 0J420160705034511007/05/16 03:45:31  5-MIN K0J4 050845Z AUTO 22005KT 7SM FEW023 25/24 A3009 160 93 1400 220/05 RMK AO2 T02500239
63870K0J4 0J420160705035011307/05/16 03:50:31  5-MIN K0J4 050850Z AUTO 22004KT 6SM BR FEW022 25/24 A3009 160 93 1400 220/04 RMK AO2 T02500239
63870K0J4 0J420160705035512607/05/16 03:55:31  5-MIN K0J4 050855Z AUTO 22005KT 6SM BR FEW022 25/24 A3009 160 93 1400 220/05 RMK AO2 SLP183 T02500239 50010
63870K0J4 0J420160705040011007/05/16 04:00:31  5-MIN K0J4 050900Z AUTO 23003KT 6SM BR CLR 25/24 A3009 160 93 1400 230/03 RMK AO2 T02500239
63870K0J4 0J420160705040511007/05/16 04:05:31  5-MIN K0J4 050905Z AUTO 23004KT 6SM BR CLR 25/24 A3009 160 93 1400 230/04 RMK AO2 T02500239
63870K0J4 0J420160705041011007/05/16 04:10:31  5-MIN K0J4 050910Z AUTO 23004KT 6SM BR CLR 25/24 A3009 160 93 1400 230/04 RMK AO2 T02500239
63870K0J4 0J420160705041511007/05/16 04:15:31  5-MIN K0J4 050915Z AUTO 24003KT 6SM BR CLR 25/24 A3009 160 93 1400 240/03 RMK AO2 T02500239
63870K0J4 0J420160705042011007/05/16 04:20:31  5-MIN K0J4 050920Z AUTO 00000KT 6SM BR CLR 24/23 A3009 160 93 1300 000/00 RMK AO2 T02440233
63870K0J4 0J420160705042511007/05/16 04:25:31  5-MIN K0J4 050925Z AUTO 00000KT 5SM BR CLR 24/24 A3009 160 97 1300 000/00 RMK AO2 T02440239
63870K0J4 0J420160705043011007/05/16 04:30:31  5-MIN K0J4 050930Z AUTO 22003KT 5SM BR CLR 24/24 A3009 160 97 1300 220/03 RMK AO2 T02440239
63870K0J4 0J420160705043511007/05/16 04:35:31  5-MIN K0J4 050935Z AUTO 22003KT 6SM BR CLR 24/24 A3010 150 97 1300 220/03 RMK AO2 T02440239
63870K0J4 0J420160705044011007/05/16 04:40:31  5-MIN K0J4 050940Z AUTO 22004KT 6SM BR CLR 24/24 A3010 150 97 1300 220/04 RMK AO2 T02440239
63870K0J4 0J420160705044511007/05/16 04:45:31  5-MIN K0J4 050945Z AUTO 23003KT 6SM BR CLR 24/24 A3010 150 97 1300 230/03 RMK AO2 T02440239
63870K0J4 0J420160705045011007/05/16 04:50:31  5-MIN K0J4 050950Z AUTO 22003KT 6SM BR CLR 24/23 A3010 150 93 1300 220/03 RMK AO2 T02440233
63870K0J4 0J420160705045511707/05/16 04:55:31  5-MIN K0J4 050955Z AUTO 22003KT 6SM BR CLR 24/24 A3010 150 97 1300 220/03 RMK AO2 SLP188 T02440239
63870K0J4 0J420160705050011007/05/16 05:00:31  5-MIN K0J4 051000Z AUTO 22003KT 6SM BR CLR 24/24 A3010 150 97 1300 220/03 RMK AO2 T02440239
63870K0J4 0J420160705050511007/05/16 05:05:31  5-MIN K0J4 051005Z AUTO 00000KT 6SM BR CLR 24/24 A3010 150 97 1300 000/00 RMK AO2 T02440239
63870K0J4 0J420160705051011007/05/16 05:10:31  5-MIN K0J4 051010Z AUTO 00000KT 6SM BR CLR 24/23 A3010 150 93 1300 000/00 RMK AO2 T02440233
63870K0J4 0J420160705051511307/05/16 05:15:31  5-MIN K0J4 051015Z AUTO 00000KT 5SM BR FEW005 24/23 A3011 140 93 1300 000/00 RMK AO2 T02440233
63870K0J4 0J420160705052011007/05/16 05:20:31  5-MIN K0J4 051020Z AUTO 00000KT 5SM BR CLR 24/23 A3011 140 93 1300 000/00 RMK AO2 T02440233
63870K0J4 0J420160705052511007/05/16 05:25:31  5-MIN K0J4 051025Z AUTO 00000KT 5SM BR CLR 24/23 A3011 140 93 1300 000/00 RMK AO2 T02440233
63870K0J4 0J420160705053011007/05/16 05:30:31  5-MIN K0J4 051030Z AUTO 00000KT 5SM BR CLR 24/23 A3011 140 93 1300 000/00 RMK AO2 T02440233
63870K0J4 0J420160705053512607/05/16 05:35:31  5-MIN K0J4 051035Z AUTO 00000KT 5SM -RA BR CLR 24/23 A3012 140 93 1300 000/00 RMK AO2 RAB32 P0000 T02440233
63870K0J4 0J420160705054012607/05/16 05:40:31  5-MIN K0J4 051040Z AUTO 00000KT 5SM -RA BR CLR 24/23 A3012 130 93 1300 000/00 RMK AO2 RAB32 P0000 T02440233
63870K0J4 0J420160705054512507/05/16 05:45:31  5-MIN K0J4 051045Z AUTO 00000KT 4SM BR CLR 24/23 A3012 130 93 1300 000/00 RMK AO2 RAB32E41 P0000 T02440233
63870K0J4 0J420160705055012507/05/16 05:50:31  5-MIN K0J4 051050Z AUTO 00000KT 3SM BR CLR 24/23 A3012 130 93 1200 000/00 RMK AO2 RAB32E41 P0000 T02390228
63870K0J4 0J420160705055513207/05/16 05:55:31  5-MIN K0J4 051055Z AUTO 00000KT 3SM BR CLR 24/23 A3012 140 93 1200 000/00 RMK AO2 RAB32E41 SLP194 P0000 T02390228
63870K0J4 0J420160705060011007/05/16 06:00:31  5-MIN K0J4 051100Z AUTO 00000KT 4SM BR CLR 23/23 A3012 130 97 1200 000/00 RMK AO2 T02330228
63870K0J4 0J420160705060511007/05/16 06:05:31  5-MIN K0J4 051105Z AUTO 00000KT 4SM BR CLR 23/23 A3012 130 97 1200 000/00 RMK AO2 T02330228
63870K0J4 0J420160705061011007/05/16 06:10:31  5-MIN K0J4 051110Z AUTO 00000KT 4SM BR CLR 24/23 A3012 130 93 1200 000/00 RMK AO2 T02390228
63870K0J4 0J420160705061511007/05/16 06:15:31  5-MIN K0J4 051115Z AUTO 00000KT 4SM BR CLR 24/23 A3012 130 93 1200 000/00 RMK AO2 T02390228
63870K0J4 0J420160705062012607/05/16 06:20:31  5-MIN K0J4 051120Z AUTO 00000KT 5SM -RA BR CLR 24/23 A3012 130 93 1200 000/00 RMK AO2 RAB20 P0000 T02390228
63870K0J4 0J420160705062512607/05/16 06:25:31  5-MIN K0J4 051125Z AUTO 00000KT 4SM -RA BR CLR 24/23 A3012 130 93 1200 000/00 RMK AO2 RAB20 P0000 T02390228
63870K0J4 0J420160705063012507/05/16 06:30:31  5-MIN K0J4 051130Z AUTO 00000KT 4SM BR CLR 24/23 A3012 130 93 1300 000/00 RMK AO2 RAB20E28 P0000 T02440233
63870K0J4 0J420160705063512507/05/16 06:35:31  5-MIN K0J4 051135Z AUTO 00000KT 4SM BR CLR 24/23 A3012 130 93 1300 000/00 RMK AO2 RAB20E28 P0000 T02440233
63870K0J4 0J420160705064012507/05/16 06:40:31  5-MIN K0J4 051140Z AUTO 00000KT 4SM BR CLR 25/24 A3012 130 93 1400 000/00 RMK AO2 RAB20E28 P0000 T02500239
63870K0J4 0J420160705064512507/05/16 06:45:31  5-MIN K0J4 051145Z AUTO 00000KT 5SM BR CLR 25/24 A3013 130 93 1400 000/00 RMK AO2 RAB20E28 P0000 T02500239
63870K0J4 0J420160705065012507/05/16 06:50:31  5-MIN K0J4 051150Z AUTO 00000KT 5SM BR CLR 26/24 A3013 120 90 1400 000/00 RMK AO2 RAB20E28 P0000 T02560239
63870K0J4 0J420160705065516207/05/16 06:55:31  5-MIN K0J4 051155Z AUTO 00000KT 6SM BR CLR 26/24 A3013 120 93 1400 000/00 RMK AO2 RAB20E28 SLP198 P0000 60000 70056 T02560244 10256 20233 55005
63870K0J4 0J420160705070012407/05/16 07:00:31  5-MIN K0J4 051200Z AUTO 00000KT 7SM CLR 26/24 A3013 120 90 1500 000/00 RMK AO2 RAB1159E00 P0000 T02610244
63870K0J4 0J420160705070512407/05/16 07:05:31  5-MIN K0J4 051205Z AUTO 00000KT 8SM CLR 26/24 A3014 120 90 1500 000/00 RMK AO2 RAB1159E00 P0000 T02610244
63870K0J4 0J420160705071012407/05/16 07:10:31  5-MIN K0J4 051210Z AUTO 00000KT 8SM CLR 26/24 A3014 120 90 1500 000/00 RMK AO2 RAB1159E00 P0000 T02610244
63870K0J4 0J420160705071512407/05/16 07:15:31  5-MIN K0J4 051215Z AUTO 00000KT 8SM CLR 26/24 A3014 110 90 1500 000/00 RMK AO2 RAB1159E00 P0000 T02610244
63870K0J4 0J420160705072012407/05/16 07:20:31  5-MIN K0J4 051220Z AUTO VRB04KT 9SM CLR 26/24 A3014 120 90 1500 VRB/04 RMK AO2 RAB1159E00 P0000 T02610244
63870K0J4 0J420160705072512507/05/16 07:25:31  5-MIN K0J4 051225Z AUTO VRB03KT 10SM CLR 27/24 A3014 110 84 1500 VRB/03 RMK AO2 RAB1159E00 P0000 T02670239
63870K0J4 0J420160705073012507/05/16 07:30:31  5-MIN K0J4 051230Z AUTO VRB03KT 10SM CLR 27/24 A3014 110 84 1500 VRB/03 RMK AO2 RAB1159E00 P0000 T02670239
63870K0J4 0J420160705073512507/05/16 07:35:31  5-MIN K0J4 051235Z AUTO VRB05KT 10SM CLR 27/24 A3014 120 82 1600 VRB/05 RMK AO2 RAB1159E00 P0000 T02720239
63870K0J4 0J420160705074012507/05/16 07:40:31  5-MIN K0J4 051240Z AUTO VRB03KT 10SM CLR 27/24 A3014 120 82 1600 VRB/03 RMK AO2 RAB1159E00 P0000 T02720239
63870K0J4 0J420160705074512507/05/16 07:45:31  5-MIN K0J4 051245Z AUTO 23003KT 10SM CLR 27/24 A3014 120 84 1600 230/03 RMK AO2 RAB1159E00 P0000 T02720244
63870K0J4 0J420160705075012507/05/16 07:50:31  5-MIN K0J4 051250Z AUTO 22005KT 10SM CLR 27/24 A3014 110 82 1600 220/05 RMK AO2 RAB1159E00 P0000 T02720239
63870K0J4 0J420160705075513207/05/16 07:55:31  5-MIN K0J4 051255Z AUTO 25005KT 10SM CLR 28/24 A3014 110 79 1700 250/05 RMK AO2 RAB1159E00 SLP201 P0000 T02780239
63870K0J4 0J420160705080010807/05/16 08:00:31  5-MIN K0J4 051300Z AUTO VRB04KT 10SM CLR 28/24 A3014 120 79 1700 VRB/04 RMK AO2 T02780239
63870K0J4 0J420160705080510807/05/16 08:05:31  5-MIN K0J4 051305Z AUTO VRB05KT 10SM CLR 28/24 A3014 110 82 1700 VRB/05 RMK AO2 T02780244
63870K0J4 0J420160705081010807/05/16 08:10:31  5-MIN K0J4 051310Z AUTO 22006KT 10SM CLR 28/24 A3014 110 82 1600 220/06 RMK AO2 T02780244
63870K0J4 0J420160705081510807/05/16 08:15:31  5-MIN K0J4 051315Z AUTO VRB05KT 10SM CLR 28/24 A3014 110 79 1700 VRB/05 RMK AO2 T02830244
63870K0J4 0J420160705082010807/05/16 08:20:31  5-MIN K0J4 051320Z AUTO 23006KT 10SM CLR 28/24 A3014 110 76 1700 230/06 RMK AO2 T02830239
63870K0J4 0J420160705082510807/05/16 08:25:31  5-MIN K0J4 051325Z AUTO 23007KT 10SM CLR 28/24 A3014 110 76 1700 230/07 RMK AO2 T02830239
63870K0J4 0J420160705083010807/05/16 08:30:31  5-MIN K0J4 051330Z AUTO 21007KT 10SM CLR 28/24 A3014 110 76 1700 210/07 RMK AO2 T02830239
63870K0J4 0J420160705083510807/05/16 08:35:31  5-MIN K0J4 051335Z AUTO VRB05KT 10SM CLR 28/24 A3014 110 76 1700 VRB/05 RMK AO2 T02830239
63870K0J4 0J420160705084010807/05/16 08:40:31  5-MIN K0J4 051340Z AUTO 20007KT 10SM CLR 29/24 A3014 110 74 1800 200/07 RMK AO2 T02890239
63870K0J4 0J420160705084510807/05/16 08:45:31  5-MIN K0J4 051345Z AUTO 22008KT 10SM CLR 29/24 A3014 110 74 1800 220/08 RMK AO2 T02890239
63870K0J4 0J420160705085010807/05/16 08:50:31  5-MIN K0J4 051350Z AUTO VRB06KT 10SM CLR 29/24 A3014 110 74 1800 VRB/06 RMK AO2 T02890239
63870K0J4 0J420160705085511807/05/16 08:55:31  5-MIN K0J4 051355Z AUTO 21006KT 10SM FEW018 29/24 A3014 110 71 1800 210/06 RMK AO2 SLP203 T02940239
63870K0J4 0J420160705090011107/05/16 09:00:31  5-MIN K0J4 051400Z AUTO VRB03KT 10SM FEW018 29/24 A3014 110 71 1800 VRB/03 RMK AO2 T02940239
63870K0J4 0J420160705090511107/05/16 09:05:31  5-MIN K0J4 051405Z AUTO VRB04KT 10SM FEW018 29/24 A3014 110 71 1800 VRB/04 RMK AO2 T02940239
63870K0J4 0J420160705091011107/05/16 09:10:31  5-MIN K0J4 051410Z AUTO 23007KT 10SM FEW018 30/23 A3014 110 67 1900 230/07 RMK AO2 T03000233
63870K0J4 0J420160705091510807/05/16 09:15:31  5-MIN K0J4 051415Z AUTO 23009KT 10SM CLR 29/23 A3014 110 67 1800 230/09 RMK AO2 T02940228
63870K0J4 0J420160705092010807/05/16 09:20:31  5-MIN K0J4 051420Z AUTO VRB05KT 10SM CLR 30/23 A3014 110 65 1900 VRB/05 RMK AO2 T03000228
63870K0J4 0J420160705092510807/05/16 09:25:31  5-MIN K0J4 051425Z AUTO 22007KT 10SM CLR 30/23 A3014 110 65 1900 220/07 RMK AO2 T03000228
63870K0J4 0J420160705093010807/05/16 09:30:31  5-MIN K0J4 051430Z AUTO 22009KT 10SM CLR 30/22 A3014 120 62 1900 220/09 RMK AO2 T03000222
63870K0J4 0J420160705093510807/05/16 09:35:31  5-MIN K0J4 051435Z AUTO 22008KT 10SM CLR 30/22 A3014 110 62 1900 220/08 RMK AO2 T03000222
63870K0J4 0J420160705094010807/05/16 09:40:31  5-MIN K0J4 051440Z AUTO 22010KT 10SM CLR 31/22 A3014 110 60 2000 220/10 RMK AO2 T03060222
63870K0J4 0J420160705094510807/05/16 09:45:31  5-MIN K0J4 051445Z AUTO 22009KT 10SM CLR 31/22 A3014 110 60 2000 220/09 RMK AO2 T03060222
63870K0J4 0J420160705095010807/05/16 09:50:31  5-MIN K0J4 051450Z AUTO VRB05KT 10SM CLR 31/22 A3014 110 60 2000 VRB/05 RMK AO2 T03060222
63870K0J4 0J420160705095513007/05/16 09:55:31  5-MIN K0J4 051455Z AUTO 22010KT 10SM FEW031 31/23 A3014 110 62 2000 220/10 RMK AO2 SLP202 60000 T03060228 53014
63870K0J4 0J420160705100012707/05/16 10:00:31  5-MIN K0J4 051500Z AUTO 24007KT 200V290 10SM FEW034 31/22 A3014 110 58 2000 240/07 200V290 RMK AO2 T03110222
63870K0J4 0J420160705100511107/05/16 10:05:31  5-MIN K0J4 051505Z AUTO 22008KT 10SM FEW034 31/22 A3015 110 60 2000 220/08 RMK AO2 T03060222
63870K0J4 0J420160705101011107/05/16 10:10:31  5-MIN K0J4 051510Z AUTO VRB06KT 10SM FEW034 31/22 A3015 110 60 2000 VRB/06 RMK AO2 T03060222
63870K0J4 0J420160705101512707/05/16 10:15:31  5-MIN K0J4 051515Z AUTO 23008KT 210V270 10SM FEW034 31/22 A3015 100 58 2000 230/08 210V270 RMK AO2 T03110222
63870K0J4 0J420160705102011107/05/16 10:20:31  5-MIN K0J4 051520Z AUTO 22006KT 10SM FEW034 31/22 A3015 100 58 2000 220/06 RMK AO2 T03110222
63870K0J4 0J420160705102511107/05/16 10:25:31  5-MIN K0J4 051525Z AUTO VRB05KT 10SM FEW034 31/22 A3015 100 58 2000 VRB/05 RMK AO2 T03110222
63870K0J4 0J420160705103011407/05/16 10:30:31  5-MIN K0J4 051530Z AUTO 22011G15KT 10SM CLR 31/22 A3015 100 56 2000 220/11G15 RMK AO2 T03110217
63870K0J4 0J420160705103511407/05/16 10:35:31  5-MIN K0J4 051535Z AUTO VRB05G15KT 10SM CLR 31/22 A3015 100 56 2000 VRB/05G15 RMK AO2 T03110217
63870K0J4 0J420160705104010807/05/16 10:40:31  5-MIN K0J4 051540Z AUTO 22008KT 10SM CLR 32/22 A3015 110 56 2100 220/08 RMK AO2 T03170222
63870K0J4 0J420160705104510807/05/16 10:45:31  5-MIN K0J4 051545Z AUTO 23008KT 10SM CLR 32/22 A3015 110 55 2100 230/08 RMK AO2 T03170217
63870K0J4 0J420160705105010807/05/16 10:50:31  5-MIN K0J4 051550Z AUTO 22009KT 10SM CLR 32/22 A3015 100 55 2100 220/09 RMK AO2 T03170217
63870K0J4 0J420160705105513407/05/16 10:55:31  5-MIN K0J4 051555Z AUTO 23008KT 190V260 10SM FEW039 32/22 A3015 100 55 2100 230/08 190V260 RMK AO2 SLP204 T03220222
63870K0J4 0J420160705110011807/05/16 11:00:31  5-MIN K0J4 051600Z AUTO VRB05KT 10SM FEW039 SCT050 32/23 A3015 100 57 2100 VRB/05 RMK AO2 T03220228
63870K0J4 0J420160705110513407/05/16 11:05:31  5-MIN K0J4 051605Z AUTO 25007KT 200V300 10SM FEW037 SCT055 32/22 A3015 110 56 2100 250/07 200V300 RMK AO2 T03170222
63870K0J4 0J420160705111011807/05/16 11:10:31  5-MIN K0J4 051610Z AUTO VRB05KT 10SM SCT037 SCT055 31/22 A3015 110 56 2000 VRB/05 RMK AO2 T03110217
63870K0J4 0J420160705111511807/05/16 11:15:31  5-MIN K0J4 051615Z AUTO VRB05KT 10SM FEW037 SCT055 32/22 A3014 110 55 2100 VRB/05 RMK AO2 T03170217
63870K0J4 0J420160705112014107/05/16 11:20:31  5-MIN K0J4 051620Z AUTO 22007KT 190V250 10SM FEW038 SCT046 SCT055 32/22 A3014 110 53 2100 220/07 190V250 RMK AO2 T03220217
63870K0J4 0J420160705112512507/05/16 11:25:31  5-MIN K0J4 051625Z AUTO 21011KT 10SM FEW036 FEW045 SCT055 32/22 A3014 120 53 2100 210/11 RMK AO2 T03220217
63870K0J4 0J420160705113011807/05/16 11:30:31  5-MIN K0J4 051630Z AUTO VRB04KT 10SM FEW036 FEW045 32/21 A3013 120 51 2200 VRB/04 RMK AO2 T03220211
63870K0J4 0J420160705113511107/05/16 11:35:31  5-MIN K0J4 051635Z AUTO 20007KT 10SM FEW043 32/21 A3013 120 51 2200 200/07 RMK AO2 T03220211
63870K0J4 0J420160705114011107/05/16 11:40:31  5-MIN K0J4 051640Z AUTO 22008KT 10SM FEW043 32/21 A3013 120 51 2200 220/08 RMK AO2 T03220211
63870K0J4 0J420160705114511107/05/16 11:45:31  5-MIN K0J4 051645Z AUTO VRB06KT 10SM SCT044 32/21 A3013 120 51 2200 VRB/06 RMK AO2 T03220211
63870K0J4 0J420160705115011107/05/16 11:50:31  5-MIN K0J4 051650Z AUTO VRB06KT 10SM FEW044 33/22 A3013 120 51 2200 VRB/06 RMK AO2 T03280217
63870K0J4 0J420160705115511807/05/16 11:55:31  5-MIN K0J4 051655Z AUTO 23008KT 10SM FEW044 33/21 A3013 120 49 2200 230/08 RMK AO2 SLP197 T03280211
63870K0J4 0J420160705120011107/05/16 12:00:31  5-MIN K0J4 051700Z AUTO 22011KT 10SM FEW046 33/21 A3013 120 49 2200 220/11 RMK AO2 T03280211
63870K0J4 0J420160705120511107/05/16 12:05:31  5-MIN K0J4 051705Z AUTO 21005KT 10SM FEW046 32/21 A3013 120 49 2200 210/05 RMK AO2 T03220206
63870K0J4 0J420160705121011707/05/16 12:10:31  5-MIN K0J4 051710Z AUTO 21011G14KT 10SM FEW046 33/21 A3013 120 48 2300 210/11G14 RMK AO2 T03330211
63870K0J4 0J420160705121513007/05/16 12:15:31  5-MIN K0J4 051715Z AUTO 26008G14KT 230V290 10SM CLR 33/19 A3013 120 44 2200 260/08G14 230V290 RMK AO2 T03280194
63870K0J4 0J420160705122010807/05/16 12:20:31  5-MIN K0J4 051720Z AUTO 21009KT 10SM CLR 33/21 A3014 120 46 2300 210/09 RMK AO2 T03330206
63870K0J4 0J420160705122511107/05/16 12:25:31  5-MIN K0J4 051725Z AUTO VRB06KT 10SM FEW060 33/20 A3014 120 45 2300 VRB/06 RMK AO2 T03330200
63870K0J4 0J420160705123012707/05/16 12:30:31  5-MIN K0J4 051730Z AUTO 24007KT 200V290 10SM FEW060 33/20 A3014 120 45 2300 240/07 200V290 RMK AO2 T03330200
63870K0J4 0J420160705123510807/05/16 12:35:31  5-MIN K0J4 051735Z AUTO 21010KT 10SM CLR 33/21 A3013 120 46 2300 210/10 RMK AO2 T03330206
63870K0J4 0J420160705124011107/05/16 12:40:31  5-MIN K0J4 051740Z AUTO 22008KT 10SM FEW055 33/20 A3013 120 45 2300 220/08 RMK AO2 T03330200
63870K0J4 0J420160705124511107/05/16 12:45:31  5-MIN K0J4 051745Z AUTO 22008KT 10SM FEW055 33/21 A3013 130 46 2300 220/08 RMK AO2 T03330206
63870K0J4 0J420160705125011107/05/16 12:50:31  5-MIN K0J4 051750Z AUTO 22011KT 10SM FEW055 34/21 A3013 130 45 2300 220/11 RMK AO2 T03390206
63870K0J4 0J420160705125514207/05/16 12:55:31  5-MIN K0J4 051755Z AUTO 22008KT 10SM FEW050 33/19 A3013 120 43 2300 220/08 RMK AO2 SLP197 60000 T03330194 10339 20261 50004
63870K0J4 0J420160705130011107/05/16 13:00:31  5-MIN K0J4 051800Z AUTO 22010KT 10SM FEW050 33/20 A3013 120 45 2300 220/10 RMK AO2 T03330200
63870K0J4 0J420160705130511107/05/16 13:05:31  5-MIN K0J4 051805Z AUTO VRB05KT 10SM FEW050 33/20 A3013 120 45 2300 VRB/05 RMK AO2 T03330200
63870K0J4 0J420160705131011107/05/16 13:10:31  5-MIN K0J4 051810Z AUTO 26006KT 10SM FEW050 33/19 A3013 120 43 2300 260/06 RMK AO2 T03330194
63870K0J4 0J420160705131511707/05/16 13:15:31  5-MIN K0J4 051815Z AUTO 22010G14KT 10SM FEW055 33/20 A3013 130 45 2300 220/10G14 RMK AO2 T03330200
63870K0J4 0J420160705132011707/05/16 13:20:31  5-MIN K0J4 051820Z AUTO 23009G15KT 10SM FEW055 34/21 A3013 120 45 2300 230/09G15 RMK AO2 T03390206
63870K0J4 0J420160705132513307/05/16 13:25:31  5-MIN K0J4 051825Z AUTO 25008G15KT 200V290 10SM FEW055 34/21 A3013 120 45 2300 250/08G15 200V290 RMK AO2 T03390206
63870K0J4 0J420160705133011107/05/16 13:30:31  5-MIN K0J4 051830Z AUTO 23008KT 10SM FEW055 34/21 A3013 120 45 2300 230/08 RMK AO2 T03390206
63870K0J4 0J420160705133512707/05/16 13:35:31  5-MIN K0J4 051835Z AUTO 24008KT 220V280 10SM FEW055 34/21 A3013 130 45 2300 240/08 220V280 RMK AO2 T03390206
63870K0J4 0J420160705134010107/05/16 13:40:31  5-MIN K0J4 051840Z AUTO 10SM SCT060 33/21 A3013 130 46 2300 M /M RMK AO2 T03330206
63870K0J4 0J420160705134511807/05/16 13:45:31  5-MIN K0J4 051845Z AUTO 25005KT 10SM FEW055 SCT070 34/21 A3013 120 45 2300 250/05 RMK AO2 T03390206
63870K0J4 0J420160705135013407/05/16 13:50:31  5-MIN K0J4 051850Z AUTO 34007KT 310V020 10SM SCT060 SCT070 34/21 A3013 120 46 2300 340/07 310V020 RMK AO2 T03390211
63870K0J4 0J420160705135512507/05/16 13:55:31  5-MIN K0J4 051855Z AUTO VRB06KT 10SM SCT050 BKN065 32/22 A3013 130 55 2100 VRB/06 RMK AO2 SLP197 T03170217
63870K0J4 0J420160705140012507/05/16 14:00:31  5-MIN K0J4 051900Z AUTO 32004KT 10SM FEW039 BKN050 BKN065 32/22 A3013 120 56 2100 320/04 RMK AO2 T03170222
63870K0J4 0J420160705140514107/05/16 14:05:31  5-MIN K0J4 051905Z AUTO 31007KT 260V340 10SM FEW039 SCT050 BKN065 32/22 A3013 120 55 2200 310/07 260V340 RMK AO2 T03220222
63870K0J4 0J420160705141011507/05/16 14:10:31  5-MIN K0J4 051910Z AUTO 10SM FEW042 SCT050 BKN070 32/22 A3013 120 55 2200 M /M RMK AO2 T03220222
63870K0J4 0J420160705141512507/05/16 14:15:31  5-MIN K0J4 051915Z AUTO 36009KT 10SM FEW042 SCT055 SCT070 33/22 A3013 120 51 2200 360/09 RMK AO2 T03280217
63870K0J4 0J420160705142012307/05/16 14:20:31  5-MIN K0J4 051920Z AUTO VRB05KT 10SM VCTS FEW050 SCT065 32/22 A3013 120 55 2200 VRB/05 RMK AO2 T03220222
63870K0J4 0J420160705142511607/05/16 14:25:31  5-MIN K0J4 051925Z AUTO VRB05KT 10SM VCTS FEW070 33/22 A3014 120 53 2200 VRB/05 RMK AO2 T03280222
63870K0J4 0J420160705143011307/05/16 14:30:31  5-MIN K0J4 051930Z AUTO VRB05KT 10SM VCTS CLR 32/21 A3014 120 51 2100 VRB/05 RMK AO2 T03220211
63870K0J4 0J420160705143510807/05/16 14:35:31  5-MIN K0J4 051935Z AUTO VRB06KT 10SM CLR 33/21 A3014 120 49 2200 VRB/06 RMK AO2 T03280211
63870K0J4 0J420160705144010807/05/16 14:40:31  5-MIN K0J4 051940Z AUTO VRB05KT 10SM CLR 33/21 A3013 120 48 2200 VRB/05 RMK AO2 T03280206
63870K0J4 0J420160705144511407/05/16 14:45:31  5-MIN K0J4 051945Z AUTO VRB05G15KT 10SM CLR 33/21 A3013 130 48 2200 VRB/05G15 RMK AO2 T03280206
63870K0J4 0J420160705145011407/05/16 14:50:31  5-MIN K0J4 051950Z AUTO VRB03G15KT 10SM CLR 33/21 A3012 130 49 2200 VRB/03G15 RMK AO2 T03280211
63870K0J4 0J420160705145510507/05/16 14:55:31  5-MIN K0J4 051955Z AUTO 10SM CLR 33/22 A3012 130 51 2200 M /M RMK AO2 SLP195 T03280217
63870K0J4 0J420160705150010807/05/16 15:00:31  5-MIN K0J4 052000Z AUTO VRB06KT 10SM CLR 33/21 A3012 130 49 2200 VRB/06 RMK AO2 T03280211
63870K0J4 0J420160705150510807/05/16 15:05:31  5-MIN K0J4 052005Z AUTO VRB03KT 10SM CLR 33/21 A3012 130 49 2200 VRB/03 RMK AO2 T03280211
63870K0J4 0J420160705151010807/05/16 15:10:31  5-MIN K0J4 052010Z AUTO 23008KT 10SM CLR 32/21 A3013 130 51 2200 230/08 RMK AO2 T03220211
63870K0J4 0J420160705151510807/05/16 15:15:31  5-MIN K0J4 052015Z AUTO 22009KT 10SM CLR 31/22 A3013 120 56 2000 220/09 RMK AO2 T03110217
63870K0J4 0J420160705152010807/05/16 15:20:31  5-MIN K0J4 052020Z AUTO 22006KT 10SM CLR 31/22 A3013 120 58 2000 220/06 RMK AO2 T03060217
63870K0J4 0J420160705152510807/05/16 15:25:31  5-MIN K0J4 052025Z AUTO VRB03KT 10SM CLR 31/22 A3013 120 58 2000 VRB/03 RMK AO2 T03060217
63870K0J4 0J420160705153010807/05/16 15:30:31  5-MIN K0J4 052030Z AUTO VRB04KT 10SM CLR 31/22 A3013 120 58 2000 VRB/04 RMK AO2 T03060217
63870K0J4 0J420160705153510807/05/16 15:35:31  5-MIN K0J4 052035Z AUTO VRB03KT 10SM CLR 30/22 A3013 120 60 1900 VRB/03 RMK AO2 T03000217
63870K0J4 0J420160705154012407/05/16 15:40:31  5-MIN K0J4 052040Z AUTO VRB04KT 10SM -RA CLR 30/22 A3014 120 60 1900 VRB/04 RMK AO2 RAB37 P0000 T03000217
63870K0J4 0J420160705154512407/05/16 15:45:31  5-MIN K0J4 052045Z AUTO 00000KT 10SM -RA CLR 30/22 A3014 120 62 1900 000/00 RMK AO2 RAB37 P0000 T03000222
63870K0J4 0J420160705155012407/05/16 15:50:31  5-MIN K0J4 052050Z AUTO 00000KT 10SM -RA CLR 30/22 A3014 110 62 1900 000/00 RMK AO2 RAB37 P0000 T03000222
63870K0J4 0J420160705155514307/05/16 15:55:31  5-MIN K0J4 052055Z AUTO 00000KT 10SM -RA CLR 30/22 A3014 110 62 1900 000/00 RMK AO2 RAB37 SLP201 P0000 60000 T03000222 58005
63870K0J4 0J420160705160012007/05/16 16:00:31  5-MIN K0J4 052100Z AUTO 00000KT 10SM CLR 30/22 A3014 120 62 1900 000/00 RMK AO2 RAE00 P0000 T03000222
63870K0J4 0J420160705160512007/05/16 16:05:31  5-MIN K0J4 052105Z AUTO 00000KT 10SM CLR 30/23 A3013 120 65 1900 000/00 RMK AO2 RAE00 P0000 T03000228
63870K0J4 0J420160705161012007/05/16 16:10:31  5-MIN K0J4 052110Z AUTO 00000KT 10SM CLR 31/23 A3013 120 62 2000 000/00 RMK AO2 RAE00 P0000 T03060228
63870K0J4 0J420160705161512007/05/16 16:15:31  5-MIN K0J4 052115Z AUTO VRB03KT 10SM CLR 31/23 A3012 130 62 2000 VRB/03 RMK AO2 RAE00 P0000 T03060228
63870K0J4 0J420160705162012007/05/16 16:20:31  5-MIN K0J4 052120Z AUTO 00000KT 10SM CLR 31/23 A3012 130 62 2000 000/00 RMK AO2 RAE00 P0000 T03060228
63870K0J4 0J420160705162512907/05/16 16:25:31  5-MIN K0J4 052125Z AUTO VRB04KT 10SM TS CLR 31/22 A3011 140 60 2000 VRB/04 RMK AO2 RAE00 TSB23 P0000 T03060222
63870K0J4 0J420160705163012907/05/16 16:30:31  5-MIN K0J4 052130Z AUTO VRB05KT 10SM TS CLR 31/22 A3011 140 60 2000 VRB/05 RMK AO2 RAE00 TSB23 P0000 T03060222
63870K0J4 0J420160705163512907/05/16 16:35:31  5-MIN K0J4 052135Z AUTO VRB03KT 10SM TS CLR 31/22 A3011 140 60 2000 VRB/03 RMK AO2 RAE00 TSB23 P0000 T03060222
63870K0J4 0J420160705164012907/05/16 16:40:31  5-MIN K0J4 052140Z AUTO VRB04KT 10SM CLR 31/23 A3011 140 62 2000 VRB/04 RMK AO2 RAE00 TSB23E38 P0000 T03060228
63870K0J4 0J420160705164512907/05/16 16:45:31  5-MIN K0J4 052145Z AUTO 31003KT 10SM CLR 31/23 A3011 140 62 2000 310/03 RMK AO2 RAE00 TSB23E38 P0000 T03060228
63870K0J4 0J420160705165012907/05/16 16:50:31  5-MIN K0J4 052150Z AUTO VRB03KT 10SM CLR 31/23 A3010 150 62 2000 VRB/03 RMK AO2 RAE00 TSB23E38 P0000 T03060228
63870K0J4 0J420160705165513607/05/16 16:55:31  5-MIN K0J4 052155Z AUTO VRB03KT 10SM CLR 31/23 A3010 150 60 2100 VRB/03 RMK AO2 RAE00 TSB23E38 SLP189 P0000 T03110228
63870K0J4 0J420160705170010807/05/16 17:00:31  5-MIN K0J4 052200Z AUTO 00000KT 10SM CLR 31/23 A3011 150 62 2000 000/00 RMK AO2 T03060228
63870K0J4 0J420160705170510807/05/16 17:05:31  5-MIN K0J4 052205Z AUTO VRB03KT 10SM CLR 31/23 A3011 140 60 2100 VRB/03 RMK AO2 T03110228
63870K0J4 0J420160705171010807/05/16 17:10:31  5-MIN K0J4 052210Z AUTO 23003KT 10SM CLR 31/23 A3012 140 62 2000 230/03 RMK AO2 T03060228
63870K0J4 0J420160705171510807/05/16 17:15:31  5-MIN K0J4 052215Z AUTO VRB03KT 10SM CLR 31/23 A3011 140 62 2000 VRB/03 RMK AO2 T03060228
63870K0J4 0J420160705172010807/05/16 17:20:31  5-MIN K0J4 052220Z AUTO 00000KT 10SM CLR 31/23 A3011 140 63 2100 000/00 RMK AO2 T03110233
63870K0J4 0J420160705172510807/05/16 17:25:31  5-MIN K0J4 052225Z AUTO 00000KT 10SM CLR 31/23 A3010 150 62 2000 000/00 RMK AO2 T03060228
63870K0J4 0J420160705173010807/05/16 17:30:31  5-MIN K0J4 052230Z AUTO 22004KT 10SM CLR 31/23 A3010 150 63 2100 220/04 RMK AO2 T03110233
63870K0J4 0J420160705173510807/05/16 17:35:31  5-MIN K0J4 052235Z AUTO 23005KT 10SM CLR 31/23 A3011 150 63 2100 230/05 RMK AO2 T03110233
63870K0J4 0J420160705174010807/05/16 17:40:31  5-MIN K0J4 052240Z AUTO 24003KT 10SM CLR 31/23 A3010 150 65 2000 240/03 RMK AO2 T03060233
63870K0J4 0J420160705174510807/05/16 17:45:31  5-MIN K0J4 052245Z AUTO 22003KT 10SM CLR 31/23 A3010 150 65 2000 220/03 RMK AO2 T03060233
63870K0J4 0J420160705175010807/05/16 17:50:31  5-MIN K0J4 052250Z AUTO 22003KT 10SM CLR 31/23 A3010 150 65 2000 220/03 RMK AO2 T03060233
63870K0J4 0J420160705175511507/05/16 17:55:31  5-MIN K0J4 052255Z AUTO 23004KT 10SM CLR 31/23 A3010 150 65 2000 230/04 RMK AO2 SLP188 T03060233
63870K0J4 0J420160705180010807/05/16 18:00:31  5-MIN K0J4 052300Z AUTO 22005KT 10SM CLR 31/23 A3010 150 65 2000 220/05 RMK AO2 T03060233
63870K0J4 0J420160705180510807/05/16 18:05:31  5-MIN K0J4 052305Z AUTO 21008KT 10SM CLR 31/23 A3010 150 65 2000 210/08 RMK AO2 T03060233
63870K0J4 0J420160705181010807/05/16 18:10:31  5-MIN K0J4 052310Z AUTO 19007KT 10SM CLR 30/24 A3010 150 69 1900 190/07 RMK AO2 T03000239
63870K0J4 0J420160705181510807/05/16 18:15:31  5-MIN K0J4 052315Z AUTO 19007KT 10SM CLR 30/24 A3009 160 69 2000 190/07 RMK AO2 T03000239
63870K0J4 0J420160705182010807/05/16 18:20:31  5-MIN K0J4 052320Z AUTO 20010KT 10SM CLR 29/24 A3009 160 71 1900 200/10 RMK AO2 T02940239
63870K0J4 0J420160705182510807/05/16 18:25:31  5-MIN K0J4 052325Z AUTO 19007KT 10SM CLR 29/24 A3009 160 71 1900 190/07 RMK AO2 T02940239
63870K0J4 0J420160705183010807/05/16 18:30:31  5-MIN K0J4 052330Z AUTO 19008KT 10SM CLR 29/24 A3009 160 74 1800 190/08 RMK AO2 T02890239
63870K0J4 0J420160705183510807/05/16 18:35:31  5-MIN K0J4 052335Z AUTO 20006KT 10SM CLR 29/24 A3009 160 74 1800 200/06 RMK AO2 T02890239
63870K0J4 0J420160705184010807/05/16 18:40:31  5-MIN K0J4 052340Z AUTO 20007KT 10SM CLR 29/24 A3009 160 74 1800 200/07 RMK AO2 T02890239
63870K0J4 0J420160705184510807/05/16 18:45:31  5-MIN K0J4 052345Z AUTO 21008KT 10SM CLR 28/24 A3009 160 76 1800 210/08 RMK AO2 T02830239
63870K0J4 0J420160705185010807/05/16 18:50:31  5-MIN K0J4 052350Z AUTO 21005KT 10SM CLR 28/23 A3009 160 74 1800 210/05 RMK AO2 T02830233
63870K0J4 0J420160705185513907/05/16 18:55:31  5-MIN K0J4 052355Z AUTO 20005KT 10SM CLR 28/24 A3009 160 76 1800 200/05 RMK AO2 SLP184 60000 T02830239 10344 20283 53003
63870K0J4 0J420160705190010807/05/16 19:00:31  5-MIN K0J4 060000Z AUTO 20007KT 10SM CLR 28/24 A3009 160 76 1800 200/07 RMK AO2 T02830239
63870K0J4 0J420160705190510807/05/16 19:05:31  5-MIN K0J4 060005Z AUTO 22006KT 10SM CLR 28/23 A3009 160 74 1800 220/06 RMK AO2 T02830233
63870K0J4 0J420160705191010807/05/16 19:10:31  5-MIN K0J4 060010Z AUTO 22004KT 10SM CLR 28/23 A3010 150 74 1800 220/04 RMK AO2 T02830233
63870K0J4 0J420160705191510807/05/16 19:15:31  5-MIN K0J4 060015Z AUTO 21005KT 10SM CLR 28/23 A3009 160 76 1700 210/05 RMK AO2 T02780233
63870K0J4 0J420160705192010807/05/16 19:20:31  5-MIN K0J4 060020Z AUTO 22004KT 10SM CLR 28/23 A3010 150 76 1700 220/04 RMK AO2 T02780233
63870K0J4 0J420160705192510807/05/16 19:25:31  5-MIN K0J4 060025Z AUTO 22006KT 10SM CLR 28/23 A3010 150 76 1700 220/06 RMK AO2 T02780233
63870K0J4 0J420160705193010807/05/16 19:30:31  5-MIN K0J4 060030Z AUTO VRB05KT 10SM CLR 28/23 A3010 150 76 1700 VRB/05 RMK AO2 T02780233
63870K0J4 0J420160705193510807/05/16 19:35:31  5-MIN K0J4 060035Z AUTO 20004KT 10SM CLR 28/23 A3010 150 74 1700 200/04 RMK AO2 T02780228
63870K0J4 0J420160705194010807/05/16 19:40:31  5-MIN K0J4 060040Z AUTO 21004KT 10SM CLR 27/23 A3010 150 76 1600 210/04 RMK AO2 T02720228
63870K0J4 0J420160705194510807/05/16 19:45:31  5-MIN K0J4 060045Z AUTO 22003KT 10SM CLR 27/23 A3010 150 76 1600 220/03 RMK AO2 T02720228
63870K0J4 0J420160705195010807/05/16 19:50:31  5-MIN K0J4 060050Z AUTO 19004KT 10SM CLR 27/23 A3010 150 76 1600 190/04 RMK AO2 T02720228
63870K0J4 0J420160705195511507/05/16 19:55:31  5-MIN K0J4 060055Z AUTO 20005KT 10SM CLR 27/23 A3010 150 79 1600 200/05 RMK AO2 SLP189 T02670228
63870K0J4 0J420160705200010807/05/16 20:00:31  5-MIN K0J4 060100Z AUTO 19004KT 10SM CLR 27/22 A3011 150 76 1600 190/04 RMK AO2 T02670222
63870K0J4 0J420160705200510807/05/16 20:05:31  5-MIN K0J4 060105Z AUTO 21005KT 10SM CLR 27/22 A3011 140 74 1600 210/05 RMK AO2 T02720222
63870K0J4 0J420160705201010807/05/16 20:10:31  5-MIN K0J4 060110Z AUTO 22003KT 10SM CLR 27/23 A3011 140 79 1600 220/03 RMK AO2 T02670228
63870K0J4 0J420160705201510807/05/16 20:15:31  5-MIN K0J4 060115Z AUTO 23004KT 10SM CLR 26/22 A3011 140 76 1500 230/04 RMK AO2 T02610217
63870K0J4 0J420160705202010807/05/16 20:20:31  5-MIN K0J4 060120Z AUTO 23003KT 10SM CLR 26/21 A3011 140 73 1500 230/03 RMK AO2 T02610211
63870K0J4 0J420160705202510807/05/16 20:25:31  5-MIN K0J4 060125Z AUTO 21003KT 10SM CLR 26/21 A3011 140 73 1500 210/03 RMK AO2 T02610211
63870K0J4 0J420160705203011107/05/16 20:30:31  5-MIN K0J4 060130Z AUTO 22004KT 10SM FEW041 26/21 A3010 150 73 1500 220/04 RMK AO2 T02610211
63870K0J4 0J420160705203511107/05/16 20:35:31  5-MIN K0J4 060135Z AUTO 23004KT 10SM FEW041 26/21 A3010 150 73 1500 230/04 RMK AO2 T02610211
63870K0J4 0J420160705204011107/05/16 20:40:31  5-MIN K0J4 060140Z AUTO 21004KT 10SM FEW041 26/21 A3010 150 73 1500 210/04 RMK AO2 T02610211
63870K0J4 0J420160705204511107/05/16 20:45:31  5-MIN K0J4 060145Z AUTO 20005KT 10SM FEW041 26/21 A3010 150 73 1500 200/05 RMK AO2 T02610211
63870K0J4 0J420160705205011107/05/16 20:50:31  5-MIN K0J4 060150Z AUTO 20004KT 10SM FEW041 26/21 A3011 140 73 1500 200/04 RMK AO2 T02610211
63870K0J4 0J420160705205511807/05/16 20:55:31  5-MIN K0J4 060155Z AUTO 21004KT 10SM FEW041 26/21 A3011 140 76 1400 210/04 RMK AO2 SLP190 T02560211
63870K0J4 0J420160705210010807/05/16 21:00:31  5-MIN K0J4 060200Z AUTO 20006KT 10SM CLR 26/21 A3011 140 76 1400 200/06 RMK AO2 T02560211
63870K0J4 0J420160705210510807/05/16 21:05:31  5-MIN K0J4 060205Z AUTO 20005KT 10SM CLR 26/21 A3010 150 73 1500 200/05 RMK AO2 T02610211
63870K0J4 0J420160705211010807/05/16 21:10:31  5-MIN K0J4 060210Z AUTO 20005KT 10SM CLR 26/21 A3010 150 76 1400 200/05 RMK AO2 T02560211
63870K0J4 0J420160705211510807/05/16 21:15:31  5-MIN K0J4 060215Z AUTO 22004KT 10SM CLR 26/21 A3011 140 76 1400 220/04 RMK AO2 T02560211
63870K0J4 0J420160705212010807/05/16 21:20:31  5-MIN K0J4 060220Z AUTO 21004KT 10SM CLR 26/21 A3011 140 76 1400 210/04 RMK AO2 T02560211
63870K0J4 0J420160705212510807/05/16 21:25:31  5-MIN K0J4 060225Z AUTO 19004KT 10SM CLR 26/22 A3011 140 79 1400 190/04 RMK AO2 T02560217
63870K0J4 0J420160705213010807/05/16 21:30:31  5-MIN K0J4 060230Z AUTO 19003KT 10SM CLR 26/22 A3011 140 79 1400 190/03 RMK AO2 T02560217
63870K0J4 0J420160705213510807/05/16 21:35:31  5-MIN K0J4 060235Z AUTO 20005KT 10SM CLR 26/22 A3011 140 79 1400 200/05 RMK AO2 T02560217
63870K0J4 0J420160705214010807/05/16 21:40:31  5-MIN K0J4 060240Z AUTO 20005KT 10SM CLR 26/22 A3011 140 79 1400 200/05 RMK AO2 T02560217
63870K0J4 0J420160705214510807/05/16 21:45:31  5-MIN K0J4 060245Z AUTO 22004KT 10SM CLR 26/22 A3011 150 81 1400 220/04 RMK AO2 T02560222
63870K0J4 0J420160705215010807/05/16 21:50:31  5-MIN K0J4 060250Z AUTO 21005KT 10SM CLR 26/22 A3011 140 81 1400 210/05 RMK AO2 T02560222
63870K0J4 0J420160705215512107/05/16 21:55:31  5-MIN K0J4 060255Z AUTO 21005KT 10SM CLR 26/22 A3011 150 81 1400 210/05 RMK AO2 SLP190 T02560222 56017
63870K0J4 0J420160705220010807/05/16 22:00:31  5-MIN K0J4 060300Z AUTO 20005KT 10SM CLR 26/22 A3010 150 81 1400 200/05 RMK AO2 T02560222
63870K0J4 0J420160705220510807/05/16 22:05:31  5-MIN K0J4 060305Z AUTO 20005KT 10SM CLR 26/22 A3011 140 81 1400 200/05 RMK AO2 T02560222
63870K0J4 0J420160705221010807/05/16 22:10:31  5-MIN K0J4 060310Z AUTO 21005KT 10SM CLR 26/22 A3011 140 81 1400 210/05 RMK AO2 T02560222
63870K0J4 0J420160705221510807/05/16 22:15:31  5-MIN K0J4 060315Z AUTO 21005KT 10SM CLR 26/23 A3011 140 84 1400 210/05 RMK AO2 T02560228
63870K0J4 0J420160705222010807/05/16 22:20:31  5-MIN K0J4 060320Z AUTO 21005KT 10SM CLR 26/23 A3011 140 84 1400 210/05 RMK AO2 T02560228
63870K0J4 0J420160705222510807/05/16 22:25:31  5-MIN K0J4 060325Z AUTO 21004KT 10SM CLR 26/23 A3011 140 84 1400 210/04 RMK AO2 T02560228
63870K0J4 0J420160705223010807/05/16 22:30:31  5-MIN K0J4 060330Z AUTO 21004KT 10SM CLR 26/23 A3011 140 84 1400 210/04 RMK AO2 T02560228
63870K0J4 0J420160705223510807/05/16 22:35:31  5-MIN K0J4 060335Z AUTO 19005KT 10SM CLR 26/23 A3011 140 84 1400 190/05 RMK AO2 T02560228
63870K0J4 0J420160705224010807/05/16 22:40:31  5-MIN K0J4 060340Z AUTO 20004KT 10SM CLR 26/23 A3011 140 81 1500 200/04 RMK AO2 T02610228
63870K0J4 0J420160705224510807/05/16 22:45:31  5-MIN K0J4 060345Z AUTO 23003KT 10SM CLR 26/23 A3011 140 87 1400 230/03 RMK AO2 T02560233
63870K0J4 0J420160705225010807/05/16 22:50:31  5-MIN K0J4 060350Z AUTO 22003KT 10SM CLR 26/23 A3011 140 87 1400 220/03 RMK AO2 T02560233
63870K0J4 0J420160705225511507/05/16 22:55:31  5-MIN K0J4 060355Z AUTO 23003KT 10SM CLR 26/23 A3011 140 84 1500 230/03 RMK AO2 SLP192 T02610233
63870K0J4 0J420160705230010807/05/16 23:00:31  5-MIN K0J4 060400Z AUTO 23003KT 10SM CLR 26/23 A3011 140 87 1400 230/03 RMK AO2 T02560233
63870K0J4 0J420160705230510807/05/16 23:05:31  5-MIN K0J4 060405Z AUTO 23003KT 10SM CLR 26/23 A3011 140 87 1400 230/03 RMK AO2 T02560233
63870K0J4 0J420160705231010807/05/16 23:10:31  5-MIN K0J4 060410Z AUTO 21003KT 10SM CLR 26/23 A3011 140 87 1400 210/03 RMK AO2 T02560233
63870K0J4 0J420160705231510807/05/16 23:15:31  5-MIN K0J4 060415Z AUTO 20003KT 10SM CLR 26/23 A3011 140 87 1400 200/03 RMK AO2 T02560233
63870K0J4 0J420160705232010807/05/16 23:20:31  5-MIN K0J4 060420Z AUTO 19003KT 10SM CLR 25/23 A3010 150 90 1400 190/03 RMK AO2 T02500233
63870K0J4 0J420160705232510807/05/16 23:25:31  5-MIN K0J4 060425Z AUTO 20005KT 10SM CLR 26/23 A3010 150 87 1400 200/05 RMK AO2 T02560233
63870K0J4 0J420160705233010807/05/16 23:30:31  5-MIN K0J4 060430Z AUTO 21004KT 10SM CLR 25/23 A3010 150 90 1400 210/04 RMK AO2 T02500233
63870K0J4 0J420160705233510807/05/16 23:35:31  5-MIN K0J4 060435Z AUTO 22004KT 10SM CLR 25/23 A3011 140 90 1400 220/04 RMK AO2 T02500233
63870K0J4 0J420160705234010807/05/16 23:40:31  5-MIN K0J4 060440Z AUTO 21004KT 10SM CLR 26/23 A3011 140 87 1400 210/04 RMK AO2 T02560233
63870K0J4 0J420160705234510807/05/16 23:45:31  5-MIN K0J4 060445Z AUTO 00000KT 10SM CLR 25/23 A3011 140 90 1400 000/00 RMK AO2 T02500233
63870K0J4 0J420160705235010807/05/16 23:50:31  5-MIN K0J4 060450Z AUTO 20003KT 10SM CLR 25/23 A3011 140 90 1400 200/03 RMK AO2 T02500233
63870K0J4 0J420160705235512507/05/16 23:55:31  5-MIN K0J4 060455Z AUTO 00000KT 10SM CLR 25/23 A3011 140 90 1400 000/00 RMK AO2 SLP191 T02500233 403440233
63870K0J4 0J420160706000010807/06/16 00:00:31  5-MIN K0J4 060500Z AUTO 00000KT 10SM CLR 25/23 A3011 140 90 1400 000/00 RMK AO2 T02500233
63870K0J4 0J420160706000510807/06/16 00:05:31  5-MIN K0J4 060505Z AUTO 00000KT 10SM CLR 25/23 A3011 140 90 1400 000/00 RMK AO2 T02500233
63870K0J4 0J420160706001010807/06/16 00:10:31  5-MIN K0J4 060510Z AUTO 00000KT 10SM CLR 25/23 A3011 140 90 1400 000/00 RMK AO2 T02500233
63870K0J4 0J420160706001510807/06/16 00:15:31  5-MIN K0J4 060515Z AUTO 00000KT 10SM CLR 24/23 A3011 140 93 1300 000/00 RMK AO2 T02440233
63870K0J4 0J420160706002010807/06/16 00:20:31  5-MIN K0J4 060520Z AUTO 22003KT 10SM CLR 25/23 A3011 140 90 1400 220/03 RMK AO2 T02500233
63870K0J4 0J420160706002510807/06/16 00:25:31  5-MIN K0J4 060525Z AUTO 00000KT 10SM CLR 24/23 A3011 140 93 1300 000/00 RMK AO2 T02440233
63870K0J4 0J420160706003011107/06/16 00:30:31  5-MIN K0J4 060530Z AUTO 00000KT 10SM FEW015 24/23 A3011 140 90 1300 000/00 RMK AO2 T02440228
63870K0J4 0J420160706003511107/06/16 00:35:31  5-MIN K0J4 060535Z AUTO 21003KT 10SM FEW015 24/23 A3011 140 93 1300 210/03 RMK AO2 T02440233
63870K0J4 0J420160706004010707/06/16 00:40:31  5-MIN K0J4 060540Z AUTO 18003KT 9SM CLR 24/23 A3011 140 93 1300 180/03 RMK AO2 T02440233
63870K0J4 0J420160706004510707/06/16 00:45:31  5-MIN K0J4 060545Z AUTO 00000KT 9SM CLR 24/23 A3011 140 90 1300 000/00 RMK AO2 T02440228
63870K0J4 0J420160706005010707/06/16 00:50:31  5-MIN K0J4 060550Z AUTO 00000KT 8SM CLR 24/23 A3011 140 90 1300 000/00 RMK AO2 T02440228
63870K0J4 0J420160706005513207/06/16 00:55:31  5-MIN K0J4 060555Z AUTO 00000KT 9SM CLR 24/23 A3011 140 93 1300 000/00 RMK AO2 SLP191 T02440233 10283 20244 50005
63870K0J4 0J420160706010010707/06/16 01:00:31  5-MIN K0J4 060600Z AUTO 00000KT 9SM CLR 24/23 A3011 140 93 1300 000/00 RMK AO2 T02440233
63870K0J4 0J420160706010510707/06/16 01:05:31  5-MIN K0J4 060605Z AUTO 00000KT 9SM CLR 24/23 A3011 140 93 1300 000/00 RMK AO2 T02440233
63870K0J4 0J420160706011010707/06/16 01:10:31  5-MIN K0J4 060610Z AUTO 00000KT 8SM CLR 24/23 A3011 140 93 1300 000/00 RMK AO2 T02440233
63870K0J4 0J420160706011510707/06/16 01:15:31  5-MIN K0J4 060615Z AUTO 00000KT 8SM CLR 24/23 A3011 140 93 1200 000/00 RMK AO2 T02390228
63870K0J4 0J420160706012010707/06/16 01:20:31  5-MIN K0J4 060620Z AUTO 00000KT 8SM CLR 24/23 A3011 140 93 1200 000/00 RMK AO2 T02390228
63870K0J4 0J420160706012510707/06/16 01:25:31  5-MIN K0J4 060625Z AUTO 00000KT 8SM CLR 24/23 A3012 140 90 1300 000/00 RMK AO2 T02440228
63870K0J4 0J420160706013010707/06/16 01:30:31  5-MIN K0J4 060630Z AUTO 00000KT 8SM CLR 24/23 A3012 140 90 1300 000/00 RMK AO2 T02440228
63870K0J4 0J420160706013510707/06/16 01:35:31  5-MIN K0J4 060635Z AUTO 00000KT 8SM CLR 24/23 A3011 140 93 1300 000/00 RMK AO2 T02440233
63870K0J4 0J420160706014010707/06/16 01:40:31  5-MIN K0J4 060640Z AUTO 00000KT 7SM CLR 24/23 A3011 140 90 1300 000/00 RMK AO2 T02440228
63870K0J4 0J420160706014510707/06/16 01:45:31  5-MIN K0J4 060645Z AUTO 00000KT 7SM CLR 24/23 A3011 140 90 1300 000/00 RMK AO2 T02440228
63870K0J4 0J420160706015010707/06/16 01:50:31  5-MIN K0J4 060650Z AUTO 00000KT 7SM CLR 24/23 A3011 140 90 1300 000/00 RMK AO2 T02440228
63870K0J4 0J420160706015511707/06/16 01:55:31  5-MIN K0J4 060655Z AUTO 00000KT 8SM FEW017 24/23 A3011 140 93 1200 000/00 RMK AO2 SLP192 T02390228
63870K0J4 0J420160706020011007/06/16 02:00:31  5-MIN K0J4 060700Z AUTO 00000KT 9SM FEW017 24/23 A3011 140 90 1300 000/00 RMK AO2 T02440228
63870K0J4 0J420160706020511707/06/16 02:05:31  5-MIN K0J4 060705Z AUTO 00000KT 8SM FEW017 SCT023 24/23 A3011 140 90 1300 000/00 RMK AO2 T02440228
63870K0J4 0J420160706021011707/06/16 02:10:31  5-MIN K0J4 060710Z AUTO 00000KT 8SM FEW017 SCT023 24/23 A3011 140 93 1300 000/00 RMK AO2 T02440233
63870K0J4 0J420160706021511707/06/16 02:15:31  5-MIN K0J4 060715Z AUTO 00000KT 7SM SCT017 SCT023 24/23 A3011 140 93 1300 000/00 RMK AO2 T02440233
63870K0J4 0J420160706022011707/06/16 02:20:31  5-MIN K0J4 060720Z AUTO 00000KT 7SM SCT017 BKN023 24/23 A3011 140 90 1300 000/00 RMK AO2 T02440228
63870K0J4 0J420160706022511707/06/16 02:25:31  5-MIN K0J4 060725Z AUTO 00000KT 8SM SCT017 SCT023 24/23 A3011 140 93 1200 000/00 RMK AO2 T02390228
63870K0J4 0J420160706023011707/06/16 02:30:31  5-MIN K0J4 060730Z AUTO 00000KT 7SM FEW016 SCT023 24/23 A3011 140 90 1300 000/00 RMK AO2 T02440228
63870K0J4 0J420160706023512007/06/16 02:35:31  5-MIN K0J4 060735Z AUTO 00000KT 6SM BR FEW016 SCT025 24/23 A3011 150 93 1300 000/00 RMK AO2 T02440233
63870K0J4 0J420160706024012007/06/16 02:40:31  5-MIN K0J4 060740Z AUTO 00000KT 6SM BR FEW016 SCT025 24/23 A3010 150 93 1300 000/00 RMK AO2 T02440233
63870K0J4 0J420160706024511307/06/16 02:45:31  5-MIN K0J4 060745Z AUTO 00000KT 6SM BR FEW016 24/23 A3010 150 93 1300 000/00 RMK AO2 T02440233
63870K0J4 0J420160706025011307/06/16 02:50:31  5-MIN K0J4 060750Z AUTO 23003KT 6SM BR FEW016 24/23 A3010 150 93 1300 230/03 RMK AO2 T02440233
63870K0J4 0J420160706025512007/06/16 02:55:31  5-MIN K0J4 060755Z AUTO 00000KT 6SM BR FEW016 24/23 A3010 150 93 1300 000/00 RMK AO2 SLP188 T02440233
63870K0J4 0J420160706030011307/06/16 03:00:31  5-MIN K0J4 060800Z AUTO 21003KT 6SM BR FEW016 25/24 A3010 150 93 1400 210/03 RMK AO2 T02500239
63870K0J4 0J420160706030511307/06/16 03:05:31  5-MIN K0J4 060805Z AUTO 20003KT 6SM BR FEW016 24/23 A3010 150 93 1300 200/03 RMK AO2 T02440233
63870K0J4 0J420160706031010707/06/16 03:10:31  5-MIN K0J4 060810Z AUTO 20003KT 7SM CLR 24/23 A3010 150 93 1300 200/03 RMK AO2 T02440233
63870K0J4 0J420160706031511007/06/16 03:15:31  5-MIN K0J4 060815Z AUTO 20003KT 6SM BR CLR 24/23 A3010 150 93 1300 200/03 RMK AO2 T02440233
63870K0J4 0J420160706032011007/06/16 03:20:31  5-MIN K0J4 060820Z AUTO 23003KT 6SM BR CLR 24/23 A3010 150 93 1300 230/03 RMK AO2 T02440233
63870K0J4 0J420160706032511007/06/16 03:25:31  5-MIN K0J4 060825Z AUTO 22003KT 6SM BR CLR 24/24 A3010 150 97 1300 220/03 RMK AO2 T02440239
63870K0J4 0J420160706033011007/06/16 03:30:31  5-MIN K0J4 060830Z AUTO 00000KT 6SM BR CLR 25/24 A3010 150 93 1400 000/00 RMK AO2 T02500239
63870K0J4 0J420160706033511007/06/16 03:35:31  5-MIN K0J4 060835Z AUTO 22003KT 6SM BR CLR 25/24 A3010 150 93 1400 220/03 RMK AO2 T02500239
63870K0J4 0J420160706034011007/06/16 03:40:31  5-MIN K0J4 060840Z AUTO 22004KT 6SM BR CLR 25/24 A3010 150 93 1400 220/04 RMK AO2 T02500239
63870K0J4 0J420160706034511007/06/16 03:45:31  5-MIN K0J4 060845Z AUTO 22003KT 6SM BR CLR 25/24 A3010 150 93 1400 220/03 RMK AO2 T02500239
63870K0J4 0J420160706035011007/06/16 03:50:31  5-MIN K0J4 060850Z AUTO 21005KT 6SM BR CLR 25/24 A3010 150 93 1400 210/05 RMK AO2 T02500239
63870K0J4 0J420160706035512307/06/16 03:55:31  5-MIN K0J4 060855Z AUTO 22003KT 6SM BR CLR 25/24 A3010 150 93 1400 220/03 RMK AO2 SLP188 T02500239 51003
63870K0J4 0J420160706040011007/06/16 04:00:31  5-MIN K0J4 060900Z AUTO 21005KT 6SM BR CLR 25/24 A3010 150 93 1400 210/05 RMK AO2 T02500239
63870K0J4 0J420160706040511007/06/16 04:05:31  5-MIN K0J4 060905Z AUTO 21005KT 6SM BR CLR 25/24 A3010 150 93 1400 210/05 RMK AO2 T02500239
63870K0J4 0J420160706041011007/06/16 04:10:31  5-MIN K0J4 060910Z AUTO 21004KT 6SM BR CLR 25/24 A3010 150 93 1400 210/04 RMK AO2 T02500239
63870K0J4 0J420160706041511007/06/16 04:15:31  5-MIN K0J4 060915Z AUTO 23003KT 6SM BR CLR 25/24 A3010 150 93 1400 230/03 RMK AO2 T02500239
63870K0J4 0J420160706042011007/06/16 04:20:31  5-MIN K0J4 060920Z AUTO 00000KT 6SM BR CLR 25/24 A3010 150 93 1400 000/00 RMK AO2 T02500239
63870K0J4 0J420160706042511007/06/16 04:25:31  5-MIN K0J4 060925Z AUTO 00000KT 6SM BR CLR 25/24 A3010 150 93 1400 000/00 RMK AO2 T02500239
63870K0J4 0J420160706043011007/06/16 04:30:31  5-MIN K0J4 060930Z AUTO 00000KT 6SM BR CLR 25/24 A3010 150 93 1400 000/00 RMK AO2 T02500239
63870K0J4 0J420160706043511007/06/16 04:35:31  5-MIN K0J4 060935Z AUTO 00000KT 5SM BR CLR 25/24 A3011 140 93 1400 000/00 RMK AO2 T02500239
63870K0J4 0J420160706044011007/06/16 04:40:31  5-MIN K0J4 060940Z AUTO 00000KT 5SM BR CLR 25/24 A3011 140 93 1400 000/00 RMK AO2 T02500239
63870K0J4 0J420160706044511007/06/16 04:45:31  5-MIN K0J4 060945Z AUTO 00000KT 5SM BR CLR 24/24 A3011 140 97 1300 000/00 RMK AO2 T02440239
63870K0J4 0J420160706045011007/06/16 04:50:31  5-MIN K0J4 060950Z AUTO 00000KT 5SM BR CLR 24/23 A3011 140 93 1300 000/00 RMK AO2 T02440233
63870K0J4 0J420160706045511707/06/16 04:55:31  5-MIN K0J4 060955Z AUTO 18003KT 4SM BR CLR 24/23 A3011 140 93 1200 180/03 RMK AO2 SLP193 T02390228
63870K0J4 0J420160706050011007/06/16 05:00:31  5-MIN K0J4 061000Z AUTO 19003KT 4SM BR CLR 24/23 A3012 140 97 1200 190/03 RMK AO2 T02390233
63870K0J4 0J420160706050511007/06/16 05:05:31  5-MIN K0J4 061005Z AUTO 20003KT 4SM BR CLR 24/23 A3012 130 97 1200 200/03 RMK AO2 T02390233
63870K0J4 0J420160706051011007/06/16 05:10:31  5-MIN K0J4 061010Z AUTO 20003KT 5SM BR CLR 24/23 A3012 130 97 1200 200/03 RMK AO2 T02390233
63870K0J4 0J420160706051511007/06/16 05:15:31  5-MIN K0J4 061015Z AUTO 20003KT 5SM BR CLR 24/23 A3012 130 97 1200 200/03 RMK AO2 T02390233
63870K0J4 0J420160706052011007/06/16 05:20:31  5-MIN K0J4 061020Z AUTO 21003KT 4SM BR CLR 24/23 A3012 130 97 1200 210/03 RMK AO2 T02390233
63870K0J4 0J420160706052511007/06/16 05:25:31  5-MIN K0J4 061025Z AUTO 00000KT 4SM BR CLR 24/23 A3012 130 97 1200 000/00 RMK AO2 T02390233
63870K0J4 0J420160706053011007/06/16 05:30:31  5-MIN K0J4 061030Z AUTO 00000KT 3SM BR CLR 24/23 A3012 130 97 1200 000/00 RMK AO2 T02390233
63870K0J4 0J420160706053511007/06/16 05:35:31  5-MIN K0J4 061035Z AUTO 00000KT 4SM BR CLR 24/23 A3012 130 93 1300 000/00 RMK AO2 T02440233
63870K0J4 0J420160706054011007/06/16 05:40:31  5-MIN K0J4 061040Z AUTO 00000KT 4SM BR CLR 24/23 A3012 130 93 1300 000/00 RMK AO2 T02440233
63870K0J4 0J420160706054511407/06/16 05:45:31  5-MIN K0J4 061045Z AUTO 00000KT 2 1/2SM BR CLR 24/23 A3012 130 97 1200 000/00 RMK AO2 T02390233
63870K0J4 0J420160706055011007/06/16 05:50:31  5-MIN K0J4 061050Z AUTO 00000KT 2SM BR CLR 24/23 A3012 130 97 1200 000/00 RMK AO2 T02390233
63870K0J4 0J420160706055512107/06/16 05:55:31  5-MIN K0J4 061055Z AUTO 00000KT 2 1/2SM BR CLR 24/23 A3013 130 97 1200 000/00 RMK AO2 SLP197 T02390233
63870K0J4 0J420160706060011407/06/16 06:00:31  5-MIN K0J4 061100Z AUTO 00000KT 2 1/2SM BR CLR 24/23 A3013 120 93 1300 000/00 RMK AO2 T02440233
63870K0J4 0J420160706060511407/06/16 06:05:31  5-MIN K0J4 061105Z AUTO 00000KT 2 1/2SM BR CLR 24/23 A3013 120 93 1300 000/00 RMK AO2 T02440233
63870K0J4 0J420160706061011407/06/16 06:10:31  5-MIN K0J4 061110Z AUTO 00000KT 2 1/2SM BR CLR 24/23 A3013 120 97 1200 000/00 RMK AO2 T02390233
63870K0J4 0J420160706061511407/06/16 06:15:31  5-MIN K0J4 061115Z AUTO 00000KT 2 1/2SM BR CLR 24/23 A3013 120 93 1300 000/00 RMK AO2 T02440233
63870K0J4 0J420160706062011007/06/16 06:20:31  5-MIN K0J4 061120Z AUTO 00000KT 3SM BR CLR 24/24 A3013 120 97 1300 000/00 RMK AO2 T02440239
63870K0J4 0J420160706062512607/06/16 06:25:31  5-MIN K0J4 061125Z AUTO 00000KT 3SM -RA BR CLR 24/24 A3013 120 97 1300 000/00 RMK AO2 RAB24 P0000 T02440239
63870K0J4 0J420160706063012507/06/16 06:30:31  5-MIN K0J4 061130Z AUTO 00000KT 4SM BR CLR 25/24 A3014 120 93 1300 000/00 RMK AO2 RAB24E27 P0000 T02500239
63870K0J4 0J420160706063512507/06/16 06:35:31  5-MIN K0J4 061135Z AUTO 00000KT 4SM BR CLR 25/24 A3014 120 93 1300 000/00 RMK AO2 RAB24E27 P0000 T02500239
63870K0J4 0J420160706064012507/06/16 06:40:31  5-MIN K0J4 061140Z AUTO 00000KT 4SM BR CLR 25/24 A3014 110 93 1300 000/00 RMK AO2 RAB24E27 P0000 T02500239
63870K0J4 0J420160706064511507/06/16 06:45:31  5-MIN K0J4 061145Z AUTO 4SM BR CLR 26/24 A3014 110 93 1400 M /M RMK AO2 RAB24E27 P0000 T02560244
63870K0J4 0J420160706065012507/06/16 06:50:31  5-MIN K0J4 061150Z AUTO 00000KT 5SM BR CLR 26/24 A3015 110 90 1500 000/00 RMK AO2 RAB24E27 P0000 T02610244
63870K0J4 0J420160706065515607/06/16 06:55:31  5-MIN K0J4 061155Z AUTO 00000KT 5SM BR CLR 26/24 A3015 110 90 1500 000/00 RMK AO2 RAB24E27 SLP204 P0000 60000 T02610244 10261 20239 58005
63870K0J4 0J420160706070011007/06/16 07:00:31  5-MIN K0J4 061200Z AUTO 00000KT 6SM BR CLR 26/24 A3015 110 90 1500 000/00 RMK AO2 T02610244
63870K0J4 0J420160706070511007/06/16 07:05:31  5-MIN K0J4 061205Z AUTO 00000KT 6SM BR CLR 26/24 A3015 110 90 1500 000/00 RMK AO2 T02610244
63870K0J4 0J420160706071010707/06/16 07:10:31  5-MIN K0J4 061210Z AUTO 21003KT 7SM CLR 26/24 A3015 100 90 1500 210/03 RMK AO2 T02610244
63870K0J4 0J420160706071510707/06/16 07:15:31  5-MIN K0J4 061215Z AUTO 22003KT 7SM CLR 26/24 A3015 100 90 1500 220/03 RMK AO2 T02610244
63870K0J4 0J420160706072010707/06/16 07:20:31  5-MIN K0J4 061220Z AUTO 00000KT 8SM CLR 26/24 A3015 100 90 1500 000/00 RMK AO2 T02610244
63870K0J4 0J420160706072510707/06/16 07:25:31  5-MIN K0J4 061225Z AUTO 21003KT 8SM CLR 26/24 A3015 100 90 1500 210/03 RMK AO2 T02610244
63870K0J4 0J420160706073010707/06/16 07:30:31  5-MIN K0J4 061230Z AUTO 22003KT 9SM CLR 27/25 A3015 100 90 1500 220/03 RMK AO2 T02670250
63870K0J4 0J420160706073510707/06/16 07:35:31  5-MIN K0J4 061235Z AUTO 23003KT 9SM CLR 27/25 A3016 100 87 1600 230/03 RMK AO2 T02720250
63870K0J4 0J420160706074010807/06/16 07:40:31  5-MIN K0J4 061240Z AUTO 23003KT 10SM CLR 27/25 A3016 100 87 1600 230/03 RMK AO2 T02720250
63870K0J4 0J420160706074510807/06/16 07:45:31  5-MIN K0J4 061245Z AUTO VRB03KT 10SM CLR 28/25 A3016 100 84 1600 VRB/03 RMK AO2 T02780250
63870K0J4 0J420160706075010707/06/16 07:50:31  5-MIN K0J4 061250Z AUTO 23004KT 10SM CLR 28/25 A3016 90 84 1600 230/04 RMK AO2 T02780250
63870K0J4 0J420160706075511407/06/16 07:55:31  5-MIN K0J4 061255Z AUTO 00000KT 10SM CLR 28/24 A3016 90 82 1600 000/00 RMK AO2 SLP210 T02780244
63870K0J4 0J420160706080010707/06/16 08:00:31  5-MIN K0J4 061300Z AUTO VRB03KT 10SM CLR 28/25 A3017 90 82 1700 VRB/03 RMK AO2 T02830250
63870K0J4 0J420160706080510707/06/16 08:05:31  5-MIN K0J4 061305Z AUTO 23004KT 10SM CLR 28/24 A3017 90 79 1700 230/04 RMK AO2 T02830244
63870K0J4 0J420160706081010707/06/16 08:10:31  5-MIN K0J4 061310Z AUTO VRB04KT 10SM CLR 28/24 A3017 90 79 1700 VRB/04 RMK AO2 T02830244
63870K0J4 0J420160706081510707/06/16 08:15:31  5-MIN K0J4 061315Z AUTO VRB03KT 10SM CLR 28/24 A3017 80 79 1700 VRB/03 RMK AO2 T02830244
63870K0J4 0J420160706082010707/06/16 08:20:31  5-MIN K0J4 061320Z AUTO VRB05KT 10SM CLR 28/24 A3017 80 79 1700 VRB/05 RMK AO2 T02830244
63870K0J4 0J420160706082510707/06/16 08:25:31  5-MIN K0J4 061325Z AUTO VRB04KT 10SM CLR 28/24 A3018 80 79 1700 VRB/04 RMK AO2 T02830244
63870K0J4 0J420160706083010707/06/16 08:30:31  5-MIN K0J4 061330Z AUTO 23005KT 10SM CLR 29/25 A3018 80 79 1700 230/05 RMK AO2 T02890250
63870K0J4 0J420160706083511007/06/16 08:35:31  5-MIN K0J4 061335Z AUTO 23005KT 10SM FEW015 29/24 A3018 80 76 1700 230/05 RMK AO2 T02890244
63870K0J4 0J420160706084011007/06/16 08:40:31  5-MIN K0J4 061340Z AUTO VRB03KT 10SM SCT015 29/24 A3018 80 76 1700 VRB/03 RMK AO2 T02890244
63870K0J4 0J420160706084511007/06/16 08:45:31  5-MIN K0J4 061345Z AUTO VRB03KT 10SM SCT015 29/25 A3018 80 76 1800 VRB/03 RMK AO2 T02940250
63870K0J4 0J420160706085011007/06/16 08:50:31  5-MIN K0J4 061350Z AUTO VRB05KT 10SM SCT015 29/25 A3017 80 76 1800 VRB/05 RMK AO2 T02940250
63870K0J4 0J420160706085511707/06/16 08:55:31  5-MIN K0J4 061355Z AUTO VRB04KT 10SM SCT015 29/24 A3017 80 74 1800 VRB/04 RMK AO2 SLP213 T02940244
63870K0J4 0J420160706090011007/06/16 09:00:31  5-MIN K0J4 061400Z AUTO VRB03KT 10SM SCT017 29/24 A3017 80 74 1800 VRB/03 RMK AO2 T02940244
63870K0J4 0J420160706090511007/06/16 09:05:31  5-MIN K0J4 061405Z AUTO VRB06KT 10SM SCT017 30/24 A3018 80 72 1900 VRB/06 RMK AO2 T03000244
63870K0J4 0J420160706091011007/06/16 09:10:31  5-MIN K0J4 061410Z AUTO 00000KT 10SM FEW017 30/24 A3018 80 72 1900 000/00 RMK AO2 T03000244
63870K0J4 0J420160706091511007/06/16 09:15:31  5-MIN K0J4 061415Z AUTO VRB04KT 10SM FEW017 30/24 A3018 80 72 1900 VRB/04 RMK AO2 T03000244
63870K0J4 0J420160706092011007/06/16 09:20:31  5-MIN K0J4 061420Z AUTO VRB05KT 10SM SCT019 30/24 A3018 80 72 1900 VRB/05 RMK AO2 T03000244
63870K0J4 0J420160706092511007/06/16 09:25:31  5-MIN K0J4 061425Z AUTO VRB04KT 10SM SCT019 30/24 A3018 80 69 1900 VRB/04 RMK AO2 T03000239
63870K0J4 0J420160706093011007/06/16 09:30:31  5-MIN K0J4 061430Z AUTO VRB03KT 10SM FEW022 31/24 A3018 80 67 1900 VRB/03 RMK AO2 T03060239
63870K0J4 0J420160706093511007/06/16 09:35:31  5-MIN K0J4 061435Z AUTO 24004KT 10SM FEW022 30/24 A3018 80 69 1900 240/04 RMK AO2 T03000239
63870K0J4 0J420160706094011007/06/16 09:40:31  5-MIN K0J4 061440Z AUTO VRB05KT 10SM FEW022 30/23 A3017 80 67 1900 VRB/05 RMK AO2 T03000233
63870K0J4 0J420160706094511007/06/16 09:45:31  5-MIN K0J4 061445Z AUTO 23005KT 10SM FEW022 30/24 A3017 80 69 1900 230/05 RMK AO2 T03000239
63870K0J4 0J420160706095011007/06/16 09:50:31  5-MIN K0J4 061450Z AUTO VRB05KT 10SM FEW022 31/24 A3017 90 67 1900 VRB/05 RMK AO2 T03060239
63870K0J4 0J420160706095513007/06/16 09:55:31  5-MIN K0J4 061455Z AUTO VRB05KT 10SM FEW024 FEW060 31/24 A3017 80 67 1900 VRB/05 RMK AO2 SLP213 T03060239 53017
63870K0J4 0J420160706100011707/06/16 10:00:31  5-MIN K0J4 061500Z AUTO VRB06KT 10SM FEW024 FEW060 31/24 A3017 80 67 1900 VRB/06 RMK AO2 T03060239
63870K0J4 0J420160706100510707/06/16 10:05:31  5-MIN K0J4 061505Z AUTO VRB06KT 10SM CLR 31/23 A3017 90 65 1900 VRB/06 RMK AO2 T03060233
63870K0J4 0J420160706101010707/06/16 10:10:31  5-MIN K0J4 061510Z AUTO 20006KT 10SM CLR 31/23 A3017 80 63 2000 200/06 RMK AO2 T03110233
63870K0J4 0J420160706101510707/06/16 10:15:31  5-MIN K0J4 061515Z AUTO VRB05KT 10SM CLR 31/23 A3017 90 63 2000 VRB/05 RMK AO2 T03110233
63870K0J4 0J420160706102010707/06/16 10:20:31  5-MIN K0J4 061520Z AUTO VRB04KT 10SM CLR 32/23 A3017 90 58 2100 VRB/04 RMK AO2 T03170228
63870K0J4 0J420160706102510707/06/16 10:25:31  5-MIN K0J4 061525Z AUTO VRB05KT 10SM CLR 32/23 A3017 90 61 2100 VRB/05 RMK AO2 T03170233
63870K0J4 0J420160706103013107/06/16 10:30:31  5-MIN K0J4 061530Z AUTO VRB05KT 10SM VCTS -RA FEW060 32/23 A3017 80 61 2000 VRB/05 RMK AO2 RAB30 P0000 T03170233
63870K0J4 0J420160706103514107/06/16 10:35:31  5-MIN K0J4 061535Z AUTO VRB03KT 10SM -TSRA FEW045 SCT060 31/23 A3018 80 63 2000 VRB/03 RMK AO2 RAB30 TSB35 P0000 T03110233
63870K0J4 0J420160706104015107/06/16 10:40:31  5-MIN K0J4 061540Z AUTO VRB05KT 10SM TS FEW030 FEW045 BKN060 31/23 A3018 80 63 2000 VRB/05 RMK AO2 RAB30E40 TSB35B37 P0000 T03110233
63870K0J4 0J420160706104515107/06/16 10:45:31  5-MIN K0J4 061545Z AUTO 22008KT 10SM TS FEW030 SCT041 BKN080 31/23 A3017 80 65 1900 220/08 RMK AO2 RAB30E40 TSB35B37 P0000 T03060233
63870K0J4 0J420160706105015607/06/16 10:50:31  5-MIN K0J4 061550Z AUTO 20011G18KT 7SM -TSRA FEW028 SCT050 BKN070 28/24 A3018 80 79 1600 200/11G18 RMK AO2 RAB30 TSB35B37 P0001 T02780239
63870K0J4 0J420160706105514707/06/16 10:55:31  5-MIN K0J4 061555Z AUTO 20006G18KT 7SM -RA FEW028 SCT050 BKN080 27/23 A3017 80 79 1500 200/06G18 RMK AO2 RAB30 TSB35B37E53 P0001
63870K0J4 0J420160706110013407/06/16 11:00:31  5-MIN K0J4 061600Z AUTO 19006KT 10SM TS FEW025 SCT090 27/23 A3018 80 79 1500 190/06 RMK AO2 RAE1559 P0000 T02720233
63870K0J4 0J420160706110514107/06/16 11:05:31  5-MIN K0J4 061605Z AUTO 19005KT 10SM TS FEW021 FEW031 FEW090 27/24 A3018 80 82 1500 190/05 RMK AO2 RAE1559 P0000 T02720239
63870K0J4 0J420160706111013407/06/16 11:10:31  5-MIN K0J4 061610Z AUTO 24004KT 10SM TS FEW021 FEW085 27/24 A3017 80 82 1600 240/04 RMK AO2 RAE1559 P0000 T02720239
63870K0J4 0J420160706111512407/06/16 11:15:31  5-MIN K0J4 061615Z AUTO 22003KT 10SM TS CLR 28/24 A3017 90 79 1600 220/03 RMK AO2 RAE1559 P0000 T02780239
63870K0J4 0J420160706112012407/06/16 11:20:31  5-MIN K0J4 061620Z AUTO 19004KT 10SM TS CLR 28/24 A3017 80 82 1600 190/04 RMK AO2 RAE1559 P0000 T02780244
63870K0J4 0J420160706112512407/06/16 11:25:31  5-MIN K0J4 061625Z AUTO 18004KT 10SM TS CLR 28/25 A3018 80 84 1600 180/04 RMK AO2 RAE1559 P0000 T02780250
63870K0J4 0J420160706113012407/06/16 11:30:31  5-MIN K0J4 061630Z AUTO 21005KT 10SM TS CLR 28/24 A3018 80 79 1700 210/05 RMK AO2 RAE1559 P0000 T02830244
63870K0J4 0J420160706113512407/06/16 11:35:31  5-MIN K0J4 061635Z AUTO 22004KT 10SM TS CLR 29/25 A3018 80 79 1700 220/04 RMK AO2 RAE1559 P0000 T02890250
63870K0J4 0J420160706114012407/06/16 11:40:31  5-MIN K0J4 061640Z AUTO VRB04KT 10SM TS CLR 29/24 A3018 80 74 1800 VRB/04 RMK AO2 RAE1559 P0000 T02940244
63870K0J4 0J420160706114512407/06/16 11:45:31  5-MIN K0J4 061645Z AUTO 21005KT 10SM TS CLR 30/25 A3018 80 74 1900 210/05 RMK AO2 RAE1559 P0000 T03000250
63870K0J4 0J420160706115012407/06/16 11:50:31  5-MIN K0J4 061650Z AUTO 21009KT 10SM TS CLR 29/24 A3018 80 74 1800 210/09 RMK AO2 RAE1559 P0000 T02940244
63870K0J4 0J420160706115513107/06/16 11:55:31  5-MIN K0J4 061655Z AUTO 24006KT 10SM TS CLR 29/24 A3017 80 74 1800 240/06 RMK AO2 RAE1559 SLP213 P0000 T02940244
63870K0J4 0J420160706120011007/06/16 12:00:31  5-MIN K0J4 061700Z AUTO 23004KT 10SM TS CLR 29/24 A3017 80 71 1800 230/04 RMK AO2 T02940239
63870K0J4 0J420160706120510007/06/16 12:05:31  5-MIN K0J4 061705Z AUTO 10SM TS CLR 29/24 A3017 90 74 1800 M /M RMK AO2 T02940244
63870K0J4 0J420160706121011007/06/16 12:10:31  5-MIN K0J4 061710Z AUTO 02004KT 10SM TS CLR 29/24 A3017 80 71 1800 020/04 RMK AO2 T02940239
63870K0J4 0J420160706121512807/06/16 12:15:31  5-MIN K0J4 061715Z AUTO 01004KT 10SM -TSRA FEW029 28/23 A3018 80 71 1700 010/04 RMK AO2 RAB12 P0000 T02830228
63870K0J4 0J420160706122013507/06/16 12:20:31  5-MIN K0J4 061720Z AUTO 01005KT 10SM -TSRA FEW029 SCT090 28/22 A3018 80 69 1700 010/05 RMK AO2 RAB12 P0000 T02830222
63870K0J4 0J420160706122514207/06/16 12:25:31  5-MIN K0J4 061725Z AUTO 00000KT 10SM -TSRA FEW028 SCT095 BKN110 28/23 A3018 80 74 1600 000/00 RMK AO2 RAB12 P0000 T02780228
63870K0J4 0J420160706123014207/06/16 12:30:31  5-MIN K0J4 061730Z AUTO 04003KT 10SM -TSRA FEW030 BKN090 BKN110 27/23 A3017 90 76 1600 040/03 RMK AO2 RAB12 P0000 T02720228
63870K0J4 0J420160706123514207/06/16 12:35:31  5-MIN K0J4 061735Z AUTO 32003KT 10SM -TSRA SCT034 SCT050 BKN075 27/23 A3017 80 76 1600 320/03 RMK AO2 RAB12 P0000 T02720228
63870K0J4 0J420160706124014207/06/16 12:40:31  5-MIN K0J4 061740Z AUTO 30004KT 10SM -TSRA SCT032 BKN050 BKN090 27/24 A3018 70 84 1500 300/04 RMK AO2 RAB12 P0000 T02670239
63870K0J4 0J420160706124516407/06/16 12:45:31  5-MIN K0J4 061745Z AUTO 34009G15KT 310V010 10SM -TSRA SCT032 BKN048 OVC110 27/23 A3018 70 82 1500 340/09G15 310V010 RMK AO2 RAB12 P0000 T02670233
63870K0J4 0J420160706125016407/06/16 12:50:31  5-MIN K0J4 061750Z AUTO 34007G15KT 300V010 10SM -TSRA FEW033 BKN050 OVC085 26/21 A3017 90 76 1400 340/07G15 300V010 RMK AO2 RAB12 P0000 T02560211
63870K0J4 0J420160706125517407/06/16 12:55:31  5-MIN K0J4 061755Z AUTO 35004KT 10SM -TSRA BKN033 BKN046 OVC080 24/20 A3016 100 76 1300 350/04 RMK AO2 RAB12 SLP208 P0001 60002 T02440200 10317 20244 50007
63870K0J4 0J420160706130013707/06/16 13:00:31  5-MIN K0J4 061800Z AUTO 02005KT 10SM -TSRA SCT030 BKN037 BKN046 24/20 A3016 100 76 1300 020/05 RMK AO2 P0000 T02440200
63870K0J4 0J420160706230010807/06/16 23:00:31  5-MIN K0J4 070400Z AUTO 19004KT 10SM CLR 25/24 A3009 160 93 1400 190/04 RMK AO2 T02500239
63870K0J4 0J420160706230510807/06/16 23:05:31  5-MIN K0J4 070405Z AUTO 22003KT 10SM CLR 25/23 A3009 160 90 1400 220/03 RMK AO2 T02500233
63870K0J4 0J420160706231010807/06/16 23:10:31  5-MIN K0J4 070410Z AUTO 21004KT 10SM CLR 25/23 A3009 160 90 1400 210/04 RMK AO2 T02500233
63870K0J4 0J420160706231510807/06/16 23:15:31  5-MIN K0J4 070415Z AUTO 20004KT 10SM CLR 25/23 A3009 160 90 1400 200/04 RMK AO2 T02500233
63870K0J4 0J420160706232010807/06/16 23:20:31  5-MIN K0J4 070420Z AUTO 22003KT 10SM CLR 25/23 A3009 160 90 1400 220/03 RMK AO2 T02500233
63870K0J4 0J420160706232510807/06/16 23:25:31  5-MIN K0J4 070425Z AUTO 24003KT 10SM CLR 25/23 A3009 160 90 1400 240/03 RMK AO2 T02500233
63870K0J4 0J420160706233010807/06/16 23:30:31  5-MIN K0J4 070430Z AUTO 22004KT 10SM CLR 25/23 A3009 160 90 1400 220/04 RMK AO2 T02500233
63870K0J4 0J420160706233510807/06/16 23:35:31  5-MIN K0J4 070435Z AUTO 21005KT 10SM CLR 25/24 A3009 160 93 1400 210/05 RMK AO2 T02500239
63870K0J4 0J420160706234010807/06/16 23:40:31  5-MIN K0J4 070440Z AUTO 19005KT 10SM CLR 25/23 A3009 160 90 1400 190/05 RMK AO2 T02500233
63870K0J4 0J420160706234510807/06/16 23:45:31  5-MIN K0J4 070445Z AUTO 21005KT 10SM CLR 25/23 A3009 160 90 1400 210/05 RMK AO2 T02500233
63870K0J4 0J420160706235010807/06/16 23:50:31  5-MIN K0J4 070450Z AUTO 21005KT 10SM CLR 25/23 A3010 150 90 1400 210/05 RMK AO2 T02500233
63870K0J4 0J420160706235512507/06/16 23:55:31  5-MIN K0J4 070455Z AUTO 20007KT 10SM CLR 25/23 A3009 160 90 1400 200/07 RMK AO2 SLP186 T02500233 403170239
63870K0J4 0J420160707000010807/07/16 00:00:31  5-MIN K0J4 070500Z AUTO 20008KT 10SM CLR 25/23 A3009 160 90 1400 200/08 RMK AO2 T02500233
63870K0J4 0J420160707000510807/07/16 00:05:31  5-MIN K0J4 070505Z AUTO 21006KT 10SM CLR 25/23 A3009 160 90 1400 210/06 RMK AO2 T02500233
63870K0J4 0J420160707001010807/07/16 00:10:31  5-MIN K0J4 070510Z AUTO 21005KT 10SM CLR 24/23 A3009 160 93 1300 210/05 RMK AO2 T02440233
63870K0J4 0J420160707001510807/07/16 00:15:31  5-MIN K0J4 070515Z AUTO 21005KT 10SM CLR 24/23 A3009 160 93 1300 210/05 RMK AO2 T02440233
63870K0J4 0J420160707002010807/07/16 00:20:31  5-MIN K0J4 070520Z AUTO 20006KT 10SM CLR 24/23 A3009 160 93 1300 200/06 RMK AO2 T02440233
63870K0J4 0J420160707002510807/07/16 00:25:31  5-MIN K0J4 070525Z AUTO 20006KT 10SM CLR 24/23 A3009 160 93 1300 200/06 RMK AO2 T02440233
63870K0J4 0J420160707003010807/07/16 00:30:31  5-MIN K0J4 070530Z AUTO 22005KT 10SM CLR 24/23 A3009 160 93 1300 220/05 RMK AO2 T02440233
63870K0J4 0J420160707003510807/07/16 00:35:31  5-MIN K0J4 070535Z AUTO VRB03KT 10SM CLR 24/23 A3009 160 93 1300 VRB/03 RMK AO2 T02440233
63870K0J4 0J420160707004010807/07/16 00:40:31  5-MIN K0J4 070540Z AUTO VRB03KT 10SM CLR 25/23 A3009 160 90 1400 VRB/03 RMK AO2 T02500233
63870K0J4 0J420160707004510807/07/16 00:45:31  5-MIN K0J4 070545Z AUTO 00000KT 10SM CLR 24/23 A3009 160 93 1300 000/00 RMK AO2 T02440233
63870K0J4 0J420160707005010807/07/16 00:50:31  5-MIN K0J4 070550Z AUTO 00000KT 10SM CLR 24/23 A3009 160 93 1300 000/00 RMK AO2 T02440233
63870K0J4 0J420160707005513907/07/16 00:55:31  5-MIN K0J4 070555Z AUTO 22003KT 10SM CLR 24/23 A3008 170 93 1300 220/03 RMK AO2 SLP182 60000 T02440233 10278 20244 58002
63870K0J4 0J420160707010010807/07/16 01:00:31  5-MIN K0J4 070600Z AUTO 00000KT 10SM CLR 24/23 A3008 170 93 1300 000/00 RMK AO2 T02440233
63870K0J4 0J420160707010510807/07/16 01:05:31  5-MIN K0J4 070605Z AUTO 00000KT 10SM CLR 24/23 A3008 170 93 1300 000/00 RMK AO2 T02440233
63870K0J4 0J420160707011010707/07/16 01:10:31  5-MIN K0J4 070610Z AUTO 00000KT 9SM CLR 24/23 A3008 170 93 1300 000/00 RMK AO2 T02390228
63870K0J4 0J420160707011510707/07/16 01:15:31  5-MIN K0J4 070615Z AUTO 00000KT 9SM CLR 24/23 A3008 170 93 1300 000/00 RMK AO2 T02440233
63870K0J4 0J420160707012010707/07/16 01:20:31  5-MIN K0J4 070620Z AUTO 00000KT 9SM CLR 24/23 A3008 170 93 1300 000/00 RMK AO2 T02440233
63870K0J4 0J420160707012510707/07/16 01:25:31  5-MIN K0J4 070625Z AUTO 00000KT 8SM CLR 24/23 A3008 170 93 1300 000/00 RMK AO2 T02390228
63870K0J4 0J420160707013010707/07/16 01:30:31  5-MIN K0J4 070630Z AUTO 00000KT 8SM CLR 24/23 A3008 170 93 1300 000/00 RMK AO2 T02440233
63870K0J4 0J420160707013510707/07/16 01:35:31  5-MIN K0J4 070635Z AUTO 00000KT 8SM CLR 24/23 A3008 170 93 1300 000/00 RMK AO2 T02390228
63870K0J4 0J420160707014010707/07/16 01:40:31  5-MIN K0J4 070640Z AUTO 00000KT 8SM CLR 24/23 A3008 170 93 1300 000/00 RMK AO2 T02440233
63870K0J4 0J420160707014510707/07/16 01:45:31  5-MIN K0J4 070645Z AUTO 00000KT 8SM CLR 24/23 A3008 170 97 1300 000/00 RMK AO2 T02390233
63870K0J4 0J420160707015010707/07/16 01:50:31  5-MIN K0J4 070650Z AUTO 00000KT 8SM CLR 24/23 A3008 170 93 1300 000/00 RMK AO2 T02390228
63870K0J4 0J420160707015511407/07/16 01:55:31  5-MIN K0J4 070655Z AUTO 00000KT 7SM CLR 24/23 A3007 170 93 1300 000/00 RMK AO2 SLP179 T02390228
63870K0J4 0J420160707020010707/07/16 02:00:31  5-MIN K0J4 070700Z AUTO 00000KT 7SM CLR 24/23 A3007 170 93 1300 000/00 RMK AO2 T02390228
63870K0J4 0J420160707020510707/07/16 02:05:31  5-MIN K0J4 070705Z AUTO 00000KT 7SM CLR 24/23 A3007 180 93 1300 000/00 RMK AO2 T02390228
63870K0J4 0J420160707021010707/07/16 02:10:31  5-MIN K0J4 070710Z AUTO 21003KT 8SM CLR 24/23 A3007 180 93 1300 210/03 RMK AO2 T02390228
63870K0J4 0J420160707021510707/07/16 02:15:31  5-MIN K0J4 070715Z AUTO 21004KT 8SM CLR 24/23 A3007 180 93 1300 210/04 RMK AO2 T02390228
63870K0J4 0J420160707022010707/07/16 02:20:31  5-MIN K0J4 070720Z AUTO 22003KT 9SM CLR 24/23 A3007 180 93 1300 220/03 RMK AO2 T02390228
63870K0J4 0J420160707022510707/07/16 02:25:31  5-MIN K0J4 070725Z AUTO 22003KT 8SM CLR 24/23 A3007 180 93 1300 220/03 RMK AO2 T02390228
63870K0J4 0J420160707023010707/07/16 02:30:31  5-MIN K0J4 070730Z AUTO 22004KT 8SM CLR 24/23 A3007 180 93 1400 220/04 RMK AO2 T02440233
63870K0J4 0J420160707023510707/07/16 02:35:31  5-MIN K0J4 070735Z AUTO 22003KT 8SM CLR 24/23 A3006 190 93 1400 220/03 RMK AO2 T02440233
63870K0J4 0J420160707024010707/07/16 02:40:31  5-MIN K0J4 070740Z AUTO 21003KT 8SM CLR 24/23 A3006 190 93 1300 210/03 RMK AO2 T02390228
63870K0J4 0J420160707024510707/07/16 02:45:31  5-MIN K0J4 070745Z AUTO 00000KT 7SM CLR 24/23 A3006 190 93 1300 000/00 RMK AO2 T02390228
63870K0J4 0J420160707025010707/07/16 02:50:31  5-MIN K0J4 070750Z AUTO 00000KT 7SM CLR 24/23 A3006 190 93 1300 000/00 RMK AO2 T02390228
63870K0J4 0J420160707025511407/07/16 02:55:31  5-MIN K0J4 070755Z AUTO 21004KT 7SM CLR 24/23 A3005 190 93 1300 210/04 RMK AO2 SLP173 T02390228
63870K0J4 0J420160707030010707/07/16 03:00:31  5-MIN K0J4 070800Z AUTO 22004KT 7SM CLR 24/23 A3006 190 93 1400 220/04 RMK AO2 T02440233
63870K0J4 0J420160707030510707/07/16 03:05:31  5-MIN K0J4 070805Z AUTO 00000KT 8SM CLR 24/23 A3006 190 93 1400 000/00 RMK AO2 T02440233
63870K0J4 0J420160707031010707/07/16 03:10:31  5-MIN K0J4 070810Z AUTO 23003KT 8SM CLR 24/23 A3006 190 93 1400 230/03 RMK AO2 T02440233
63870K0J4 0J420160707031510707/07/16 03:15:31  5-MIN K0J4 070815Z AUTO 22003KT 8SM CLR 24/23 A3006 190 93 1400 220/03 RMK AO2 T02440233
63870K0J4 0J420160707032010707/07/16 03:20:31  5-MIN K0J4 070820Z AUTO 00000KT 7SM CLR 24/23 A3006 190 93 1400 000/00 RMK AO2 T02440233
63870K0J4 0J420160707032510707/07/16 03:25:31  5-MIN K0J4 070825Z AUTO 22003KT 7SM CLR 24/23 A3006 190 93 1400 220/03 RMK AO2 T02440233
63870K0J4 0J420160707033010707/07/16 03:30:31  5-MIN K0J4 070830Z AUTO 22003KT 7SM CLR 24/23 A3006 190 93 1400 220/03 RMK AO2 T02440233
63870K0J4 0J420160707033510707/07/16 03:35:31  5-MIN K0J4 070835Z AUTO 22003KT 7SM CLR 24/23 A3006 190 97 1300 220/03 RMK AO2 T02390233
63870K0J4 0J420160707034011007/07/16 03:40:31  5-MIN K0J4 070840Z AUTO 21003KT 6SM BR CLR 24/23 A3006 190 97 1300 210/03 RMK AO2 T02390233
63870K0J4 0J420160707034510707/07/16 03:45:31  5-MIN K0J4 070845Z AUTO 00000KT 7SM CLR 24/23 A3006 190 93 1300 000/00 RMK AO2 T02390228
63870K0J4 0J420160707035011007/07/16 03:50:31  5-MIN K0J4 070850Z AUTO 00000KT 6SM BR CLR 24/23 A3006 190 93 1300 000/00 RMK AO2 T02390228
63870K0J4 0J420160707035512307/07/16 03:55:31  5-MIN K0J4 070855Z AUTO 00000KT 6SM BR CLR 24/23 A3006 190 93 1300 000/00 RMK AO2 SLP174 T02390228 58004
63870K0J4 0J420160707040011007/07/16 04:00:31  5-MIN K0J4 070900Z AUTO 21003KT 6SM BR CLR 24/23 A3006 190 93 1300 210/03 RMK AO2 T02390228
63870K0J4 0J420160707040511007/07/16 04:05:31  5-MIN K0J4 070905Z AUTO 22003KT 6SM BR CLR 24/23 A3006 190 93 1300 220/03 RMK AO2 T02390228
63870K0J4 0J420160707041011007/07/16 04:10:31  5-MIN K0J4 070910Z AUTO 21004KT 6SM BR CLR 24/23 A3006 190 93 1300 210/04 RMK AO2 T02390228
63870K0J4 0J420160707041511007/07/16 04:15:31  5-MIN K0J4 070915Z AUTO 00000KT 5SM BR CLR 24/23 A3006 190 97 1300 000/00 RMK AO2 T02390233
63870K0J4 0J420160707042011007/07/16 04:20:31  5-MIN K0J4 070920Z AUTO 21003KT 5SM BR CLR 24/23 A3006 190 97 1300 210/03 RMK AO2 T02390233
63870K0J4 0J420160707042511007/07/16 04:25:31  5-MIN K0J4 070925Z AUTO 22003KT 6SM BR CLR 24/23 A3006 180 97 1300 220/03 RMK AO2 T02390233
63870K0J4 0J420160707043011007/07/16 04:30:31  5-MIN K0J4 070930Z AUTO 21004KT 6SM BR CLR 24/23 A3006 180 97 1300 210/04 RMK AO2 T02390233
63870K0J4 0J420160707043511007/07/16 04:35:31  5-MIN K0J4 070935Z AUTO 22003KT 6SM BR CLR 24/23 A3007 180 97 1300 220/03 RMK AO2 T02390233
63870K0J4 0J420160707044011007/07/16 04:40:31  5-MIN K0J4 070940Z AUTO 23003KT 6SM BR CLR 24/23 A3007 180 93 1400 230/03 RMK AO2 T02440233
63870K0J4 0J420160707044511007/07/16 04:45:31  5-MIN K0J4 070945Z AUTO 00000KT 6SM BR CLR 24/23 A3008 170 97 1300 000/00 RMK AO2 T02390233
63870K0J4 0J420160707045011007/07/16 04:50:31  5-MIN K0J4 070950Z AUTO 00000KT 5SM BR CLR 24/23 A3008 170 93 1300 000/00 RMK AO2 T02390228
63870K0J4 0J420160707045511707/07/16 04:55:31  5-MIN K0J4 070955Z AUTO 00000KT 5SM BR CLR 24/23 A3008 170 97 1300 000/00 RMK AO2 SLP182 T02390233
63870K0J4 0J420160707050011007/07/16 05:00:31  5-MIN K0J4 071000Z AUTO 00000KT 5SM BR CLR 24/23 A3009 160 93 1300 000/00 RMK AO2 T02390228
63870K0J4 0J420160707050511007/07/16 05:05:31  5-MIN K0J4 071005Z AUTO 00000KT 5SM BR CLR 24/23 A3009 160 93 1300 000/00 RMK AO2 T02390228
63870K0J4 0J420160707051011007/07/16 05:10:31  5-MIN K0J4 071010Z AUTO 00000KT 5SM BR CLR 24/23 A3010 150 93 1300 000/00 RMK AO2 T02390228
63870K0J4 0J420160707051511007/07/16 05:15:31  5-MIN K0J4 071015Z AUTO 00000KT 5SM BR CLR 24/23 A3010 150 93 1300 000/00 RMK AO2 T02390228
63870K0J4 0J420160707052011007/07/16 05:20:31  5-MIN K0J4 071020Z AUTO 00000KT 4SM BR CLR 23/23 A3010 150 97 1200 000/00 RMK AO2 T02330228
63870K0J4 0J420160707052512307/07/16 05:25:31  5-MIN K0J4 071025Z AUTO 00000KT 2SM BR FEW002 23/22 A3010 150 97 1100 000/00 RMK AO2 VIS 3/4V5 T02280222
63870K0J4 0J420160707053011707/07/16 05:30:31  5-MIN K0J4 071030Z AUTO 00000KT 1 1/4SM BR FEW002 23/22 A3010 150 97 1100 000/00 RMK AO2 T02280222
63870K0J4 0J420160707053511307/07/16 05:35:31  5-MIN K0J4 071035Z AUTO 00000KT 2SM BR FEW002 23/22 A3010 150 93 1200 000/00 RMK AO2 T02330222
63870K0J4 0J420160707054011307/07/16 05:40:31  5-MIN K0J4 071040Z AUTO 00000KT 3SM BR FEW002 23/22 A3010 150 97 1100 000/00 RMK AO2 T02280222
63870K0J4 0J420160707054511707/07/16 05:45:31  5-MIN K0J4 071045Z AUTO 00000KT 1 1/4SM BR FEW002 22/22 A3011 150 97 1100 000/00 RMK AO2 T02220217
63870K0J4 0J420160707055012907/07/16 05:50:31  5-MIN K0J4 071050Z AUTO 00000KT 1/4SM FG VV003 22/22 A3011 140 97 1100 000/00 RMK AO2 VIS M1/4V1 3/4 T02220217
63870K0J4 0J420160707055512107/07/16 05:55:31  5-MIN K0J4 071055Z AUTO 00000KT 1/4SM FG VV003 23/22 A3011 140 93 1100 000/00 RMK AO2 SLP190 T02280217
63870K0J4 0J420160707060011407/07/16 06:00:31  5-MIN K0J4 071100Z AUTO 00000KT 1 1/2SM BR CLR 23/22 A3011 140 97 1100 000/00 RMK AO2 T02280222
63870K0J4 0J420160707060511007/07/16 06:05:31  5-MIN K0J4 071105Z AUTO 00000KT 4SM BR CLR 22/21 A3011 140 93 1100 000/00 RMK AO2 T02220211
63870K0J4 0J420160707061011007/07/16 06:10:31  5-MIN K0J4 071110Z AUTO 00000KT 4SM BR CLR 22/22 A3011 140 97 1100 000/00 RMK AO2 T02220217
63870K0J4 0J420160707061510707/07/16 06:15:31  5-MIN K0J4 071115Z AUTO 00000KT 7SM CLR 22/22 A3012 140 97 1000 000/00 RMK AO2 T02220217
63870K0J4 0J420160707062010707/07/16 06:20:31  5-MIN K0J4 071120Z AUTO 00000KT 8SM CLR 23/22 A3012 140 93 1100 000/00 RMK AO2 T02280217
63870K0J4 0J420160707062510707/07/16 06:25:31  5-MIN K0J4 071125Z AUTO 00000KT 7SM CLR 23/22 A3012 130 93 1100 000/00 RMK AO2 T02280217
63870K0J4 0J420160707063011007/07/16 06:30:31  5-MIN K0J4 071130Z AUTO 00000KT 6SM BR CLR 23/22 A3012 130 93 1200 000/00 RMK AO2 T02330222
63870K0J4 0J420160707063511007/07/16 06:35:31  5-MIN K0J4 071135Z AUTO 00000KT 6SM BR CLR 23/22 A3012 130 93 1200 000/00 RMK AO2 T02330222
63870K0J4 0J420160707064011007/07/16 06:40:31  5-MIN K0J4 071140Z AUTO 00000KT 7SM FEW003 23/22 A3012 130 93 1200 000/00 RMK AO2 T02330222
63870K0J4 0J420160707064511007/07/16 06:45:31  5-MIN K0J4 071145Z AUTO 00000KT 8SM FEW003 24/23 A3012 130 93 1200 000/00 RMK AO2 T02390228
63870K0J4 0J420160707065011007/07/16 06:50:31  5-MIN K0J4 071150Z AUTO 00000KT 8SM FEW003 24/23 A3012 130 93 1200 000/00 RMK AO2 T02390228
63870K0J4 0J420160707065515107/07/16 06:55:31  5-MIN K0J4 071155Z AUTO 00000KT 6SM BR FEW003 SCT021 25/23 A3013 130 90 1400 000/00 RMK AO2 SLP197 70002 T02500233 10250 20222 55007
63870K0J4 0J420160707070012007/07/16 07:00:31  5-MIN K0J4 071200Z AUTO 00000KT 5SM BR FEW003 SCT021 25/24 A3013 130 93 1400 000/00 RMK AO2 T02500239
63870K0J4 0J420160707070512007/07/16 07:05:31  5-MIN K0J4 071205Z AUTO 00000KT 6SM BR FEW003 SCT021 25/24 A3013 120 93 1400 000/00 RMK AO2 T02500239
63870K0J4 0J420160707071012007/07/16 07:10:31  5-MIN K0J4 071210Z AUTO 00000KT 6SM BR FEW003 FEW021 26/24 A3013 120 93 1400 000/00 RMK AO2 T02560244
63870K0J4 0J420160707071511007/07/16 07:15:31  5-MIN K0J4 071215Z AUTO 00000KT 7SM FEW021 26/24 A3013 120 93 1400 000/00 RMK AO2 T02560244
63870K0J4 0J420160707072011007/07/16 07:20:31  5-MIN K0J4 071220Z AUTO 00000KT 8SM FEW021 26/24 A3013 120 93 1400 000/00 RMK AO2 T02560244
63870K0J4 0J420160707072510707/07/16 07:25:31  5-MIN K0J4 071225Z AUTO 00000KT 8SM CLR 26/24 A3014 120 93 1400 000/00 RMK AO2 T02560244
63870K0J4 0J420160707073010707/07/16 07:30:31  5-MIN K0J4 071230Z AUTO 00000KT 9SM CLR 26/24 A3014 110 90 1500 000/00 RMK AO2 T02610244
63870K0J4 0J420160707073510807/07/16 07:35:31  5-MIN K0J4 071235Z AUTO 22003KT 10SM CLR 26/25 A3014 110 93 1500 220/03 RMK AO2 T02610250
63870K0J4 0J420160707074010807/07/16 07:40:31  5-MIN K0J4 071240Z AUTO 00000KT 10SM CLR 27/25 A3014 110 90 1500 000/00 RMK AO2 T02670250
63870K0J4 0J420160707074510807/07/16 07:45:31  5-MIN K0J4 071245Z AUTO 23003KT 10SM CLR 27/24 A3015 110 87 1500 230/03 RMK AO2 T02670244
63870K0J4 0J420160707075010807/07/16 07:50:31  5-MIN K0J4 071250Z AUTO VRB04KT 10SM CLR 27/24 A3014 110 87 1500 VRB/04 RMK AO2 T02670244
63870K0J4 0J420160707075511507/07/16 07:55:31  5-MIN K0J4 071255Z AUTO 00000KT 10SM CLR 27/24 A3014 110 84 1600 000/00 RMK AO2 SLP203 T02720244
63870K0J4 0J420160707080010807/07/16 08:00:31  5-MIN K0J4 071300Z AUTO VRB03KT 10SM CLR 28/24 A3015 110 82 1600 VRB/03 RMK AO2 T02780244
63870K0J4 0J420160707080510807/07/16 08:05:31  5-MIN K0J4 071305Z AUTO 22004KT 10SM CLR 28/24 A3015 110 82 1600 220/04 RMK AO2 T02780244
63870K0J4 0J420160707081010807/07/16 08:10:31  5-MIN K0J4 071310Z AUTO VRB04KT 10SM CLR 28/24 A3015 110 82 1600 VRB/04 RMK AO2 T02780244
63870K0J4 0J420160707081510807/07/16 08:15:31  5-MIN K0J4 071315Z AUTO 23004KT 10SM CLR 28/24 A3015 100 82 1600 230/04 RMK AO2 T02780244
63870K0J4 0J420160707082010807/07/16 08:20:31  5-MIN K0J4 071320Z AUTO VRB04KT 10SM CLR 28/24 A3015 100 79 1700 VRB/04 RMK AO2 T02830244
63870K0J4 0J420160707082510807/07/16 08:25:31  5-MIN K0J4 071325Z AUTO VRB04KT 10SM CLR 28/24 A3016 100 79 1700 VRB/04 RMK AO2 T02830244
63870K0J4 0J420160707083011107/07/16 08:30:31  5-MIN K0J4 071330Z AUTO VRB04KT 10SM FEW015 29/24 A3016 100 76 1800 VRB/04 RMK AO2 T02890244
63870K0J4 0J420160707083511107/07/16 08:35:31  5-MIN K0J4 071335Z AUTO 23005KT 10SM FEW015 28/24 A3015 100 79 1700 230/05 RMK AO2 T02830244
63870K0J4 0J420160707084011107/07/16 08:40:31  5-MIN K0J4 071340Z AUTO VRB06KT 10SM FEW015 28/24 A3015 100 79 1700 VRB/06 RMK AO2 T02830244
63870K0J4 0J420160707084511107/07/16 08:45:31  5-MIN K0J4 071345Z AUTO VRB04KT 10SM FEW015 28/24 A3016 100 76 1700 VRB/04 RMK AO2 T02830239
63870K0J4 0J420160707085011107/07/16 08:50:31  5-MIN K0J4 071350Z AUTO 24006KT 10SM FEW015 29/24 A3016 100 76 1800 240/06 RMK AO2 T02890244
63870K0J4 0J420160707085511807/07/16 08:55:31  5-MIN K0J4 071355Z AUTO VRB05KT 10SM FEW015 29/24 A3015 100 76 1800 VRB/05 RMK AO2 SLP206 T02890244
63870K0J4 0J420160707090011107/07/16 09:00:31  5-MIN K0J4 071400Z AUTO 23006KT 10SM FEW017 29/24 A3015 100 71 1800 230/06 RMK AO2 T02940239
63870K0J4 0J420160707090511107/07/16 09:05:31  5-MIN K0J4 071405Z AUTO VRB04KT 10SM FEW018 29/24 A3015 100 71 1800 VRB/04 RMK AO2 T02940239
63870K0J4 0J420160707091011107/07/16 09:10:31  5-MIN K0J4 071410Z AUTO VRB05KT 10SM FEW018 29/24 A3015 100 71 1800 VRB/05 RMK AO2 T02940239
63870K0J4 0J420160707091511107/07/16 09:15:31  5-MIN K0J4 071415Z AUTO 22007KT 10SM FEW020 30/24 A3015 100 69 1900 220/07 RMK AO2 T03000239
63870K0J4 0J420160707092012707/07/16 09:20:31  5-MIN K0J4 071420Z AUTO 23008KT 200V270 10SM FEW020 30/23 A3015 100 67 1900 230/08 200V270 RMK AO2 T03000233
63870K0J4 0J420160707092511107/07/16 09:25:31  5-MIN K0J4 071425Z AUTO 22007KT 10SM FEW020 29/23 A3015 100 69 1800 220/07 RMK AO2 T02940233
63870K0J4 0J420160707093011107/07/16 09:30:31  5-MIN K0J4 071430Z AUTO 22006KT 10SM FEW020 30/23 A3015 100 67 1900 220/06 RMK AO2 T03000233
63870K0J4 0J420160707093511107/07/16 09:35:31  5-MIN K0J4 071435Z AUTO 21008KT 10SM SCT020 31/23 A3015 100 65 2000 210/08 RMK AO2 T03060233
63870K0J4 0J420160707094011107/07/16 09:40:31  5-MIN K0J4 071440Z AUTO VRB04KT 10SM SCT020 30/23 A3015 100 67 1900 VRB/04 RMK AO2 T03000233
63870K0J4 0J420160707094511107/07/16 09:45:31  5-MIN K0J4 071445Z AUTO VRB03KT 10SM SCT022 29/23 A3015 100 69 1800 VRB/03 RMK AO2 T02940233
63870K0J4 0J420160707095011107/07/16 09:50:31  5-MIN K0J4 071450Z AUTO VRB05KT 10SM SCT024 29/23 A3015 100 69 1800 VRB/05 RMK AO2 T02940233
63870K0J4 0J420160707095512407/07/16 09:55:31  5-MIN K0J4 071455Z AUTO 22005KT 10SM SCT024 30/23 A3015 100 65 1900 220/05 RMK AO2 SLP205 T03000228 51023
63870K0J4 0J420160707100011807/07/16 10:00:31  5-MIN K0J4 071500Z AUTO 25005KT 10SM FEW024 SCT029 31/23 A3015 100 62 2000 250/05 RMK AO2 T03060228
63870K0J4 0J420160707100511107/07/16 10:05:31  5-MIN K0J4 071505Z AUTO VRB05KT 10SM FEW026 31/23 A3015 110 60 2000 VRB/05 RMK AO2 T03110228
63870K0J4 0J420160707101011107/07/16 10:10:31  5-MIN K0J4 071510Z AUTO 23007KT 10SM FEW026 31/23 A3015 110 62 2000 230/07 RMK AO2 T03060228
63870K0J4 0J420160707101511107/07/16 10:15:31  5-MIN K0J4 071515Z AUTO 22008KT 10SM FEW028 31/23 A3015 110 60 2000 220/08 RMK AO2 T03110228
63870K0J4 0J420160707102011107/07/16 10:20:31  5-MIN K0J4 071520Z AUTO 23006KT 10SM FEW030 31/23 A3015 110 60 2000 230/06 RMK AO2 T03110228
63870K0J4 0J420160707102511107/07/16 10:25:31  5-MIN K0J4 071525Z AUTO VRB05KT 10SM FEW030 31/23 A3015 110 60 2000 VRB/05 RMK AO2 T03110228
63870K0J4 0J420160707103011107/07/16 10:30:31  5-MIN K0J4 071530Z AUTO VRB04KT 10SM FEW030 31/23 A3015 110 62 2000 VRB/04 RMK AO2 T03060228
63870K0J4 0J420160707103511107/07/16 10:35:31  5-MIN K0J4 071535Z AUTO VRB04KT 10SM SCT030 31/23 A3015 110 60 2000 VRB/04 RMK AO2 T03110228
63870K0J4 0J420160707104011107/07/16 10:40:31  5-MIN K0J4 071540Z AUTO VRB04KT 10SM SCT030 32/23 A3015 110 58 2100 VRB/04 RMK AO2 T03170228
63870K0J4 0J420160707104511807/07/16 10:45:31  5-MIN K0J4 071545Z AUTO VRB04KT 10SM FEW029 FEW035 31/22 A3015 110 58 2000 VRB/04 RMK AO2 T03110222
63870K0J4 0J420160707105013407/07/16 10:50:31  5-MIN K0J4 071550Z AUTO 24007KT 200V280 10SM FEW029 FEW035 31/22 A3015 110 56 2000 240/07 200V280 RMK AO2 T03110217
63870K0J4 0J420160707105511807/07/16 10:55:31  5-MIN K0J4 071555Z AUTO 22008KT 10SM FEW029 31/22 A3015 110 56 2000 220/08 RMK AO2 SLP203 T03110217
63870K0J4 0J420160707110011107/07/16 11:00:31  5-MIN K0J4 071600Z AUTO 20009KT 10SM FEW029 32/22 A3014 110 55 2100 200/09 RMK AO2 T03170217
63870K0J4 0J420160707110510807/07/16 11:05:31  5-MIN K0J4 071605Z AUTO 23007KT 10SM CLR 32/22 A3014 110 55 2100 230/07 RMK AO2 T03170217
63870K0J4 0J420160707111010807/07/16 11:10:31  5-MIN K0J4 071610Z AUTO VRB04KT 10SM CLR 32/22 A3014 110 55 2100 VRB/04 RMK AO2 T03170217
63870K0J4 0J420160707111510807/07/16 11:15:31  5-MIN K0J4 071615Z AUTO 20009KT 10SM CLR 32/22 A3014 110 53 2100 200/09 RMK AO2 T03220217
63870K0J4 0J420160707112010807/07/16 11:20:31  5-MIN K0J4 071620Z AUTO 21007KT 10SM CLR 32/22 A3014 110 55 2100 210/07 RMK AO2 T03170217
63870K0J4 0J420160707112511107/07/16 11:25:31  5-MIN K0J4 071625Z AUTO 22009KT 10SM FEW039 33/22 A3014 110 53 2200 220/09 RMK AO2 T03280222
63870K0J4 0J420160707113012707/07/16 11:30:31  5-MIN K0J4 071630Z AUTO 21008KT 180V240 10SM FEW039 32/22 A3014 110 53 2100 210/08 180V240 RMK AO2 T03220217
63870K0J4 0J420160707113511107/07/16 11:35:31  5-MIN K0J4 071635Z AUTO 22008KT 10SM FEW039 32/22 A3014 110 53 2100 220/08 RMK AO2 T03220217
63870K0J4 0J420160707114012707/07/16 11:40:31  5-MIN K0J4 071640Z AUTO 24007KT 200V290 10SM FEW039 33/21 A3014 110 48 2200 240/07 200V290 RMK AO2 T03280206
63870K0J4 0J420160707114511107/07/16 11:45:31  5-MIN K0J4 071645Z AUTO VRB06KT 10SM FEW039 32/20 A3014 110 48 2100 VRB/06 RMK AO2 T03220200
63870K0J4 0J420160707115011107/07/16 11:50:31  5-MIN K0J4 071650Z AUTO 21007KT 10SM FEW039 33/21 A3014 110 48 2200 210/07 RMK AO2 T03280206
63870K0J4 0J420160707115511807/07/16 11:55:31  5-MIN K0J4 071655Z AUTO 21006KT 10SM FEW039 33/21 A3014 110 49 2200 210/06 RMK AO2 SLP200 T03280211
63870K0J4 0J420160707120011107/07/16 12:00:31  5-MIN K0J4 071700Z AUTO 22006KT 10SM FEW039 33/21 A3014 120 49 2200 220/06 RMK AO2 T03280211
63870K0J4 0J420160707120511707/07/16 12:05:31  5-MIN K0J4 071705Z AUTO 21006G15KT 10SM FEW045 33/21 A3014 120 49 2200 210/06G15 RMK AO2 T03280211
63870K0J4 0J420160707121011707/07/16 12:10:31  5-MIN K0J4 071710Z AUTO VRB06G15KT 10SM FEW047 33/21 A3013 120 49 2200 VRB/06G15 RMK AO2 T03280211
63870K0J4 0J420160707121511807/07/16 12:15:31  5-MIN K0J4 071715Z AUTO 20006KT 10SM FEW045 FEW055 33/22 A3013 120 51 2200 200/06 RMK AO2 T03280217
63870K0J4 0J420160707122011807/07/16 12:20:31  5-MIN K0J4 071720Z AUTO 21008KT 10SM FEW043 SCT050 33/22 A3013 120 51 2200 210/08 RMK AO2 T03280217
63870K0J4 0J420160707122511807/07/16 12:25:31  5-MIN K0J4 071725Z AUTO 21009KT 10SM FEW043 SCT055 33/22 A3013 120 51 2200 210/09 RMK AO2 T03280217
63870K0J4 0J420160707123011807/07/16 12:30:31  5-MIN K0J4 071730Z AUTO VRB04KT 10SM FEW043 BKN050 33/22 A3013 120 53 2200 VRB/04 RMK AO2 T03280222
63870K0J4 0J420160707123511807/07/16 12:35:31  5-MIN K0J4 071735Z AUTO VRB06KT 10SM SCT045 BKN050 32/22 A3013 120 53 2200 VRB/06 RMK AO2 T03220217
63870K0J4 0J420160707124011107/07/16 12:40:31  5-MIN K0J4 071740Z AUTO 22005KT 10SM SCT047 33/21 A3013 130 48 2200 220/05 RMK AO2 T03280206
63870K0J4 0J420160707124511807/07/16 12:45:31  5-MIN K0J4 071745Z AUTO 21009KT 10SM FEW045 SCT050 33/20 A3013 130 45 2300 210/09 RMK AO2 T03330200
63870K0J4 0J420160707125011807/07/16 12:50:31  5-MIN K0J4 071750Z AUTO 21007KT 10SM FEW045 FEW055 33/19 A3012 130 42 2300 210/07 RMK AO2 T03330189
63870K0J4 0J420160707125513607/07/16 12:55:31  5-MIN K0J4 071755Z AUTO VRB05KT 10SM FEW047 34/20 A3012 130 43 2300 VRB/05 RMK AO2 SLP194 T03390200 10339 20250 50008
63870K0J4 0J420160707130011107/07/16 13:00:31  5-MIN K0J4 071800Z AUTO VRB05KT 10SM FEW047 33/21 A3012 130 46 2300 VRB/05 RMK AO2 T03330206
63870K0J4 0J420160707130510107/07/16 13:05:31  5-MIN K0J4 071805Z AUTO 10SM FEW050 34/21 A3012 130 45 2300 M /M RMK AO2 T03390206
63870K0J4 0J420160707131011107/07/16 13:10:31  5-MIN K0J4 071810Z AUTO 22010KT 10SM FEW050 33/20 A3012 130 45 2300 220/10 RMK AO2 T03330200
63870K0J4 0J420160707131511107/07/16 13:15:31  5-MIN K0J4 071815Z AUTO 20005KT 10SM FEW050 34/19 A3012 130 42 2400 200/05 RMK AO2 T03390194
63870K0J4 0J420160707132010807/07/16 13:20:31  5-MIN K0J4 071820Z AUTO 22007KT 10SM CLR 34/21 A3012 140 45 2400 220/07 RMK AO2 T03390206
63870K0J4 0J420160707132512407/07/16 13:25:31  5-MIN K0J4 071825Z AUTO 23007KT 200V270 10SM CLR 34/20 A3011 140 43 2400 230/07 200V270 RMK AO2 T03390200
63870K0J4 0J420160707133010807/07/16 13:30:31  5-MIN K0J4 071830Z AUTO VRB06KT 10SM CLR 34/20 A3011 140 43 2400 VRB/06 RMK AO2 T03390200
63870K0J4 0J420160707133510807/07/16 13:35:31  5-MIN K0J4 071835Z AUTO 20010KT 10SM CLR 34/21 A3011 140 45 2400 200/10 RMK AO2 T03390206
63870K0J4 0J420160707134010807/07/16 13:40:31  5-MIN K0J4 071840Z AUTO 25007KT 10SM CLR 34/20 A3011 140 43 2400 250/07 RMK AO2 T03390200
63870K0J4 0J420160707134510807/07/16 13:45:31  5-MIN K0J4 071845Z AUTO 25006KT 10SM CLR 34/19 A3010 150 42 2400 250/06 RMK AO2 T03390194
63870K0J4 0J420160707135010807/07/16 13:50:31  5-MIN K0J4 071850Z AUTO 21010KT 10SM CLR 34/20 A3010 150 43 2400 210/10 RMK AO2 T03390200
63870K0J4 0J420160707135511807/07/16 13:55:31  5-MIN K0J4 071855Z AUTO 21011KT 10SM FEW050 34/20 A3010 150 43 2400 210/11 RMK AO2 SLP187 T03390200
63870K0J4 0J420160707140011107/07/16 14:00:31  5-MIN K0J4 071900Z AUTO 20008KT 10SM FEW055 34/21 A3010 150 43 2400 200/08 RMK AO2 T03440206
63870K0J4 0J420160707140511107/07/16 14:05:31  5-MIN K0J4 071905Z AUTO 21008KT 10SM FEW055 34/21 A3010 150 43 2400 210/08 RMK AO2 T03440206
63870K0J4 0J420160707141012707/07/16 14:10:31  5-MIN K0J4 071910Z AUTO 24008KT 210V280 10SM FEW055 34/21 A3010 150 45 2400 240/08 210V280 RMK AO2 T03390206
63870K0J4 0J420160707141511107/07/16 14:15:31  5-MIN K0J4 071915Z AUTO VRB04KT 10SM FEW055 34/20 A3010 150 43 2400 VRB/04 RMK AO2 T03390200
63870K0J4 0J420160707142011107/07/16 14:20:31  5-MIN K0J4 071920Z AUTO 21009KT 10SM FEW050 34/21 A3010 150 45 2400 210/09 RMK AO2 T03390206
63870K0J4 0J420160707142511107/07/16 14:25:31  5-MIN K0J4 071925Z AUTO 22006KT 10SM FEW050 34/21 A3010 150 45 2400 220/06 RMK AO2 T03440211
63870K0J4 0J420160707143012707/07/16 14:30:31  5-MIN K0J4 071930Z AUTO 24007KT 200V270 10SM FEW050 34/21 A3009 160 45 2400 240/07 200V270 RMK AO2 T03390206
63870K0J4 0J420160707143510807/07/16 14:35:31  5-MIN K0J4 071935Z AUTO 24008KT 10SM CLR 34/20 A3009 160 43 2400 240/08 RMK AO2 T03390200
63870K0J4 0J420160707144011107/07/16 14:40:31  5-MIN K0J4 071940Z AUTO 22006KT 10SM FEW055 34/21 A3009 160 45 2400 220/06 RMK AO2 T03390206
63870K0J4 0J420160707144512707/07/16 14:45:31  5-MIN K0J4 071945Z AUTO 25007KT 220V280 10SM FEW055 34/21 A3009 160 43 2400 250/07 220V280 RMK AO2 T03440206
63870K0J4 0J420160707145011107/07/16 14:50:31  5-MIN K0J4 071950Z AUTO 20007KT 10SM FEW050 33/21 A3009 160 46 2300 200/07 RMK AO2 T03330206
63870K0J4 0J420160707145511807/07/16 14:55:31  5-MIN K0J4 071955Z AUTO 20008KT 10SM SCT050 34/21 A3009 160 46 2400 200/08 RMK AO2 SLP182 T03390211
63870K0J4 0J420160707150011107/07/16 15:00:31  5-MIN K0J4 072000Z AUTO 21006KT 10SM SCT050 34/20 A3008 170 42 2500 210/06 RMK AO2 T03440200
63870K0J4 0J420160707150513307/07/16 15:05:31  5-MIN K0J4 072005Z AUTO 25008G15KT 220V300 10SM FEW050 34/20 A3008 170 42 2500 250/08G15 220V300 RMK AO2 T03440200
63870K0J4 0J420160707151011707/07/16 15:10:31  5-MIN K0J4 072010Z AUTO 23008G15KT 10SM FEW050 34/20 A3008 170 42 2500 230/08G15 RMK AO2 T03440200
63870K0J4 0J420160707151511107/07/16 15:15:31  5-MIN K0J4 072015Z AUTO VRB06KT 10SM FEW055 34/20 A3008 170 42 2500 VRB/06 RMK AO2 T03440200
63870K0J4 0J420160707152012707/07/16 15:20:31  5-MIN K0J4 072020Z AUTO 21007KT 050V260 10SM FEW055 35/20 A3008 170 40 2500 210/07 050V260 RMK AO2 T03500200
63870K0J4 0J420160707152510107/07/16 15:25:31  5-MIN K0J4 072025Z AUTO 10SM FEW055 35/21 A3008 160 42 2500 M /M RMK AO2 T03500206
63870K0J4 0J420160707153010807/07/16 15:30:31  5-MIN K0J4 072030Z AUTO 24005KT 10SM CLR 35/21 A3008 170 42 2500 240/05 RMK AO2 T03500206
63870K0J4 0J420160707153510807/07/16 15:35:31  5-MIN K0J4 072035Z AUTO 25006KT 10SM CLR 35/21 A3008 170 42 2500 250/06 RMK AO2 T03500206
63870K0J4 0J420160707154011107/07/16 15:40:31  5-MIN K0J4 072040Z AUTO 21006KT 10SM FEW055 34/20 A3008 170 43 2400 210/06 RMK AO2 T03390200
63870K0J4 0J420160707154511807/07/16 15:45:31  5-MIN K0J4 072045Z AUTO 21009KT 10SM SCT055 SCT075 34/21 A3008 170 43 2500 210/09 RMK AO2 T03440206
63870K0J4 0J420160707155011807/07/16 15:50:31  5-MIN K0J4 072050Z AUTO 21010KT 10SM SCT055 BKN070 35/21 A3007 180 43 2500 210/10 RMK AO2 T03500211
63870K0J4 0J420160707155513107/07/16 15:55:31  5-MIN K0J4 072055Z AUTO 22009KT 10SM SCT055 SCT075 35/21 A3007 170 42 2500 220/09 RMK AO2 SLP178 T03500206 58010
63870K0J4 0J420160707160011807/07/16 16:00:31  5-MIN K0J4 072100Z AUTO 22007KT 10SM SCT055 SCT075 34/21 A3007 180 43 2500 220/07 RMK AO2 T03440206
63870K0J4 0J420160707160511807/07/16 16:05:31  5-MIN K0J4 072105Z AUTO 20016KT 10SM SCT055 BKN075 33/22 A3007 180 50 2300 200/16 RMK AO2 T03330217
63870K0J4 0J420160707161011707/07/16 16:10:31  5-MIN K0J4 072110Z AUTO 21015G19KT 10SM BKN055 34/22 A3007 180 50 2400 210/15G19 RMK AO2 T03390222
63870K0J4 0J420160707161511107/07/16 16:15:31  5-MIN K0J4 072115Z AUTO 22014KT 10SM SCT055 34/22 A3007 180 50 2400 220/14 RMK AO2 T03390222
63870K0J4 0J420160707162011707/07/16 16:20:31  5-MIN K0J4 072120Z AUTO 21014G20KT 10SM FEW055 34/23 A3007 180 51 2400 210/14G20 RMK AO2 T03390228
63870K0J4 0J420160707162511707/07/16 16:25:31  5-MIN K0J4 072125Z AUTO 23009G19KT 10SM FEW055 34/22 A3007 170 50 2400 230/09G19 RMK AO2 T03390222
63870K0J4 0J420160707163011707/07/16 16:30:31  5-MIN K0J4 072130Z AUTO 22010G17KT 10SM FEW055 34/22 A3007 170 50 2400 220/10G17 RMK AO2 T03390222
63870K0J4 0J420160707163511107/07/16 16:35:31  5-MIN K0J4 072135Z AUTO 22011KT 10SM FEW060 34/22 A3008 170 48 2400 220/11 RMK AO2 T03390217
63870K0J4 0J420160707164011407/07/16 16:40:31  5-MIN K0J4 072140Z AUTO 23011G19KT 10SM CLR 33/22 A3008 170 50 2300 230/11G19 RMK AO2 T03330217
63870K0J4 0J420160707164511707/07/16 16:45:31  5-MIN K0J4 072145Z AUTO 23011G19KT 10SM FEW055 32/22 A3007 170 53 2200 230/11G19 RMK AO2 T03220217
63870K0J4 0J420160707165012407/07/16 16:50:31  5-MIN K0J4 072150Z AUTO 22010G18KT 10SM FEW044 SCT055 32/22 A3008 170 55 2200 220/10G18 RMK AO2 T03220222
63870K0J4 0J420160707165513207/07/16 16:55:31  5-MIN K0J4 072155Z AUTO 22009KT 10SM FEW041 BKN060 BKN110 32/22 A3007 170 55 2200 220/09 RMK AO2 SLP179 T03220222
63870K0J4 0J420160707170012507/07/16 17:00:31  5-MIN K0J4 072200Z AUTO 22009KT 10SM FEW044 BKN055 BKN110 33/22 A3007 180 53 2300 220/09 RMK AO2 T03280222
63870K0J4 0J420160707170513107/07/16 17:05:31  5-MIN K0J4 072205Z AUTO 21011G17KT 10SM FEW042 BKN055 BKN070 33/23 A3007 180 53 2300 210/11G17 RMK AO2 T03330228
63870K0J4 0J420160707171012407/07/16 17:10:31  5-MIN K0J4 072210Z AUTO 22011G17KT 10SM SCT042 BKN055 33/23 A3007 180 53 2400 220/11G17 RMK AO2 T03330228
63870K0J4 0J420160707171512407/07/16 17:15:31  5-MIN K0J4 072215Z AUTO 23010G15KT 10SM FEW042 BKN055 33/22 A3007 180 53 2300 230/10G15 RMK AO2 T03280222
63870K0J4 0J420160707172012507/07/16 17:20:31  5-MIN K0J4 072220Z AUTO 22010KT 10SM FEW040 FEW048 SCT060 33/22 A3006 180 53 2300 220/10 RMK AO2 T03280222
63870K0J4 0J420160707172511807/07/16 17:25:31  5-MIN K0J4 072225Z AUTO 22008KT 10SM FEW040 SCT050 33/23 A3006 190 53 2400 220/08 RMK AO2 T03330228
63870K0J4 0J420160707173014007/07/16 17:30:31  5-MIN K0J4 072230Z AUTO 23007G14KT 200V270 10SM FEW040 SCT055 33/23 A3006 190 53 2400 230/07G14 200V270 RMK AO2 T03330228
63870K0J4 0J420160707173512407/07/16 17:35:31  5-MIN K0J4 072235Z AUTO VRB06G14KT 10SM SCT040 SCT050 33/23 A3006 190 55 2300 VRB/06G14 RMK AO2 T03280228
63870K0J4 0J420160707174013407/07/16 17:40:31  5-MIN K0J4 072240Z AUTO 22009KT 190V270 10SM SCT042 BKN049 33/23 A3006 190 53 2400 220/09 190V270 RMK AO2 T03330228
63870K0J4 0J420160707174513407/07/16 17:45:31  5-MIN K0J4 072245Z AUTO 23008KT 200V260 10SM SCT042 SCT049 33/22 A3006 190 53 2300 230/08 200V260 RMK AO2 T03280222
63870K0J4 0J420160707175011807/07/16 17:50:31  5-MIN K0J4 072250Z AUTO VRB06KT 10SM FEW042 SCT050 33/22 A3006 190 53 2300 VRB/06 RMK AO2 T03280222
63870K0J4 0J420160707175511807/07/16 17:55:31  5-MIN K0J4 072255Z AUTO 23007KT 10SM FEW042 33/22 A3006 190 53 2300 230/07 RMK AO2 SLP175 T03280222
63870K0J4 0J420160707180011807/07/16 18:00:31  5-MIN K0J4 072300Z AUTO 24006KT 10SM SCT042 SCT049 33/22 A3006 190 53 2300 240/06 RMK AO2 T03280222
63870K0J4 0J420160707180511807/07/16 18:05:31  5-MIN K0J4 072305Z AUTO VRB06KT 10SM SCT042 BKN049 33/22 A3006 180 53 2300 VRB/06 RMK AO2 T03280222
63870K0J4 0J420160707181011107/07/16 18:10:31  5-MIN K0J4 072310Z AUTO VRB06KT 10SM SCT044 33/22 A3007 180 53 2300 VRB/06 RMK AO2 T03280222
63870K0J4 0J420160707181511107/07/16 18:15:31  5-MIN K0J4 072315Z AUTO VRB06KT 10SM SCT044 32/22 A3007 180 55 2200 VRB/06 RMK AO2 T03220222
63870K0J4 0J420160707182011107/07/16 18:20:31  5-MIN K0J4 072320Z AUTO VRB06KT 10SM SCT044 32/22 A3007 180 53 2200 VRB/06 RMK AO2 T03220217
63870K0J4 0J420160707182511107/07/16 18:25:31  5-MIN K0J4 072325Z AUTO 24003KT 10SM SCT044 32/22 A3007 180 55 2200 240/03 RMK AO2 T03220222
63870K0J4 0J420160707183011107/07/16 18:30:31  5-MIN K0J4 072330Z AUTO VRB04KT 10SM FEW044 32/22 A3007 180 55 2200 VRB/04 RMK AO2 T03220222
63870K0J4 0J420160707183510807/07/16 18:35:31  5-MIN K0J4 072335Z AUTO VRB03KT 10SM CLR 32/22 A3007 180 56 2200 VRB/03 RMK AO2 T03170222
63870K0J4 0J420160707184009807/07/16 18:40:31  5-MIN K0J4 072340Z AUTO 10SM CLR 32/22 A3007 180 55 2200 M /M RMK AO2 T03170217
63870K0J4 0J420160707184510807/07/16 18:45:31  5-MIN K0J4 072345Z AUTO 22005KT 10SM CLR 32/22 A3007 180 55 2200 220/05 RMK AO2 T03170217
63870K0J4 0J420160707185010807/07/16 18:50:31  5-MIN K0J4 072350Z AUTO VRB05KT 10SM CLR 31/22 A3007 180 56 2100 VRB/05 RMK AO2 T03110217
63870K0J4 0J420160707185513307/07/16 18:55:31  5-MIN K0J4 072355Z AUTO 23009KT 10SM CLR 31/22 A3007 180 56 2100 230/09 RMK AO2 SLP177 T03110217 10350 20311 56016
63870K0J4 0J420160707190010807/07/16 19:00:31  5-MIN K0J4 080000Z AUTO 23007KT 10SM CLR 31/21 A3007 180 54 2100 230/07 RMK AO2 T03110211
63870K0J4 0J420160707190510807/07/16 19:05:31  5-MIN K0J4 080005Z AUTO 23006KT 10SM CLR 31/21 A3007 180 54 2100 230/06 RMK AO2 T03110211
63870K0J4 0J420160707191010807/07/16 19:10:31  5-MIN K0J4 080010Z AUTO 23007KT 10SM CLR 31/21 A3007 180 56 2000 230/07 RMK AO2 T03060211
63870K0J4 0J420160707191510807/07/16 19:15:31  5-MIN K0J4 080015Z AUTO VRB05KT 10SM CLR 31/21 A3007 180 56 2000 VRB/05 RMK AO2 T03060211
63870K0J4 0J420160707192010807/07/16 19:20:31  5-MIN K0J4 080020Z AUTO 23006KT 10SM CLR 31/21 A3007 170 56 2000 230/06 RMK AO2 T03060211
63870K0J4 0J420160707192510807/07/16 19:25:31  5-MIN K0J4 080025Z AUTO VRB04KT 10SM CLR 31/21 A3008 170 56 2000 VRB/04 RMK AO2 T03060211
63870K0J4 0J420160707193010807/07/16 19:30:31  5-MIN K0J4 080030Z AUTO 23005KT 10SM CLR 30/21 A3008 170 58 2000 230/05 RMK AO2 T03000211
63870K0J4 0J420160707193510807/07/16 19:35:31  5-MIN K0J4 080035Z AUTO VRB04KT 10SM CLR 30/21 A3008 170 58 2000 VRB/04 RMK AO2 T03000211
63870K0J4 0J420160707194010807/07/16 19:40:31  5-MIN K0J4 080040Z AUTO 00000KT 10SM CLR 30/22 A3008 170 60 2000 000/00 RMK AO2 T03000217
63870K0J4 0J420160707194510807/07/16 19:45:31  5-MIN K0J4 080045Z AUTO 22004KT 10SM CLR 29/22 A3008 170 62 1900 220/04 RMK AO2 T02940217
63870K0J4 0J420160707195010807/07/16 19:50:31  5-MIN K0J4 080050Z AUTO 00000KT 10SM CLR 29/22 A3008 170 62 1900 000/00 RMK AO2 T02940217
63870K0J4 0J420160707195511507/07/16 19:55:31  5-MIN K0J4 080055Z AUTO 00000KT 10SM CLR 29/22 A3008 170 62 1900 000/00 RMK AO2 SLP182 T02940217
63870K0J4 0J420160707200010807/07/16 20:00:31  5-MIN K0J4 080100Z AUTO 23003KT 10SM CLR 29/22 A3008 170 64 1800 230/03 RMK AO2 T02890217
63870K0J4 0J420160707200510807/07/16 20:05:31  5-MIN K0J4 080105Z AUTO 22004KT 10SM CLR 29/22 A3008 160 64 1800 220/04 RMK AO2 T02890217
63870K0J4 0J420160707201010807/07/16 20:10:31  5-MIN K0J4 080110Z AUTO 22004KT 10SM CLR 29/22 A3009 160 64 1800 220/04 RMK AO2 T02890217
63870K0J4 0J420160707201511107/07/16 20:15:31  5-MIN K0J4 080115Z AUTO 22005KT 10SM FEW001 29/22 A3009 160 64 1800 220/05 RMK AO2 T02890217
63870K0J4 0J420160707202011107/07/16 20:20:31  5-MIN K0J4 080120Z AUTO 22006KT 10SM FEW001 29/22 A3008 170 64 1800 220/06 RMK AO2 T02890217
63870K0J4 0J420160707202510807/07/16 20:25:31  5-MIN K0J4 080125Z AUTO 23004KT 10SM CLR 29/22 A3008 160 64 1800 230/04 RMK AO2 T02890217
63870K0J4 0J420160707203010807/07/16 20:30:31  5-MIN K0J4 080130Z AUTO 24003KT 10SM CLR 28/22 A3008 170 66 1800 240/03 RMK AO2 T02830217
63870K0J4 0J420160707203510807/07/16 20:35:31  5-MIN K0J4 080135Z AUTO 24003KT 10SM CLR 28/22 A3009 160 66 1800 240/03 RMK AO2 T02830217
63870K0J4 0J420160707204010807/07/16 20:40:31  5-MIN K0J4 080140Z AUTO 22004KT 10SM CLR 28/22 A3009 160 69 1800 220/04 RMK AO2 T02830222
63870K0J4 0J420160707204510807/07/16 20:45:31  5-MIN K0J4 080145Z AUTO 21004KT 10SM CLR 28/22 A3009 160 69 1800 210/04 RMK AO2 T02830222
63870K0J4 0J420160707205010807/07/16 20:50:31  5-MIN K0J4 080150Z AUTO 21003KT 10SM CLR 28/22 A3009 160 71 1700 210/03 RMK AO2 T02780222
63870K0J4 0J420160707205513107/07/16 20:55:31  5-MIN K0J4 080155Z AUTO 20003KT 10SM -RA CLR 27/22 A3009 160 74 1600 200/03 RMK AO2 RAB54 SLP186 P0000 T02720222
63870K0J4 0J420160707210011807/07/16 21:00:31  5-MIN K0J4 080200Z AUTO 22003KT 10SM -RA CLR 27/22 A3009 160 74 1600 220/03 RMK AO2 P0000 T02720222
63870K0J4 0J420160707210512007/07/16 21:05:31  5-MIN K0J4 080205Z AUTO 21004KT 10SM CLR 27/22 A3009 160 74 1600 210/04 RMK AO2 RAE01 P0000 T02720222
63870K0J4 0J420160707211012007/07/16 21:10:31  5-MIN K0J4 080210Z AUTO 21005KT 10SM CLR 27/22 A3009 160 76 1600 210/05 RMK AO2 RAE01 P0000 T02670222
63870K0J4 0J420160707211512007/07/16 21:15:31  5-MIN K0J4 080215Z AUTO 22005KT 10SM CLR 27/22 A3009 160 76 1600 220/05 RMK AO2 RAE01 P0000 T02670222
63870K0J4 0J420160707212012007/07/16 21:20:31  5-MIN K0J4 080220Z AUTO 22004KT 10SM CLR 27/22 A3009 160 74 1600 220/04 RMK AO2 RAE01 P0000 T02720222
63870K0J4 0J420160707212512007/07/16 21:25:31  5-MIN K0J4 080225Z AUTO 22004KT 10SM CLR 27/22 A3009 160 74 1600 220/04 RMK AO2 RAE01 P0000 T02720222
63870K0J4 0J420160707213012007/07/16 21:30:31  5-MIN K0J4 080230Z AUTO 22003KT 10SM CLR 27/22 A3009 160 74 1600 220/03 RMK AO2 RAE01 P0000 T02720222
63870K0J4 0J420160707213512007/07/16 21:35:31  5-MIN K0J4 080235Z AUTO 23003KT 10SM CLR 27/22 A3009 160 74 1600 230/03 RMK AO2 RAE01 P0000 T02720222
63870K0J4 0J420160707214012007/07/16 21:40:31  5-MIN K0J4 080240Z AUTO 22004KT 10SM CLR 27/22 A3009 160 74 1600 220/04 RMK AO2 RAE01 P0000 T02720222
63870K0J4 0J420160707214512007/07/16 21:45:31  5-MIN K0J4 080245Z AUTO 23003KT 10SM CLR 27/22 A3009 160 74 1600 230/03 RMK AO2 RAE01 P0000 T02720222
63870K0J4 0J420160707215012007/07/16 21:50:31  5-MIN K0J4 080250Z AUTO 23004KT 10SM CLR 27/22 A3009 160 76 1600 230/04 RMK AO2 RAE01 P0000 T02670222
63870K0J4 0J420160707215513907/07/16 21:55:31  5-MIN K0J4 080255Z AUTO 22004KT 10SM CLR 27/22 A3010 150 76 1600 220/04 RMK AO2 RAE01 SLP187 P0000 60000 T02670222 55002
63870K0J4 0J420160707220010807/07/16 22:00:31  5-MIN K0J4 080300Z AUTO 22004KT 10SM CLR 27/23 A3010 150 79 1600 220/04 RMK AO2 T02670228
63870K0J4 0J420160707220510807/07/16 22:05:31  5-MIN K0J4 080305Z AUTO 24003KT 10SM CLR 27/23 A3010 150 79 1600 240/03 RMK AO2 T02670228
63870K0J4 0J420160707221010807/07/16 22:10:31  5-MIN K0J4 080310Z AUTO 22004KT 10SM CLR 27/23 A3010 150 79 1600 220/04 RMK AO2 T02670228
63870K0J4 0J420160707221510807/07/16 22:15:31  5-MIN K0J4 080315Z AUTO 22005KT 10SM CLR 27/23 A3010 150 79 1600 220/05 RMK AO2 T02670228
63870K0J4 0J420160707222010807/07/16 22:20:31  5-MIN K0J4 080320Z AUTO 21004KT 10SM CLR 27/23 A3010 150 79 1600 210/04 RMK AO2 T02670228
63870K0J4 0J420160707222510807/07/16 22:25:31  5-MIN K0J4 080325Z AUTO 22003KT 10SM CLR 26/23 A3010 150 84 1500 220/03 RMK AO2 T02610233
63870K0J4 0J420160707223010807/07/16 22:30:31  5-MIN K0J4 080330Z AUTO 22003KT 10SM CLR 26/23 A3010 150 84 1500 220/03 RMK AO2 T02610233
63870K0J4 0J420160707223510807/07/16 22:35:31  5-MIN K0J4 080335Z AUTO 23003KT 10SM CLR 27/23 A3010 150 82 1600 230/03 RMK AO2 T02670233
63870K0J4 0J420160707224010807/07/16 22:40:31  5-MIN K0J4 080340Z AUTO 22003KT 10SM CLR 27/23 A3010 150 82 1600 220/03 RMK AO2 T02670233
63870K0J4 0J420160707224510807/07/16 22:45:31  5-MIN K0J4 080345Z AUTO 23004KT 10SM CLR 26/23 A3010 150 84 1500 230/04 RMK AO2 T02610233
63870K0J4 0J420160707225010807/07/16 22:50:31  5-MIN K0J4 080350Z AUTO 22005KT 10SM CLR 26/23 A3010 150 84 1500 220/05 RMK AO2 T02610233
63870K0J4 0J420160707225511507/07/16 22:55:31  5-MIN K0J4 080355Z AUTO 22006KT 10SM CLR 26/23 A3010 150 84 1500 220/06 RMK AO2 SLP186 T02610233
63870K0J4 0J420160707230010807/07/16 23:00:31  5-MIN K0J4 080400Z AUTO 22005KT 10SM CLR 26/23 A3009 160 84 1500 220/05 RMK AO2 T02610233
63870K0J4 0J420160707230510807/07/16 23:05:31  5-MIN K0J4 080405Z AUTO 21005KT 10SM CLR 26/23 A3009 160 84 1500 210/05 RMK AO2 T02610233
63870K0J4 0J420160707231010807/07/16 23:10:31  5-MIN K0J4 080410Z AUTO 21006KT 10SM CLR 26/23 A3009 160 84 1500 210/06 RMK AO2 T02610233
63870K0J4 0J420160707231510807/07/16 23:15:31  5-MIN K0J4 080415Z AUTO 22005KT 10SM CLR 26/23 A3009 160 87 1500 220/05 RMK AO2 T02560233
63870K0J4 0J420160707232010807/07/16 23:20:31  5-MIN K0J4 080420Z AUTO 22005KT 10SM CLR 26/23 A3009 160 84 1500 220/05 RMK AO2 T02610233
63870K0J4 0J420160707232510807/07/16 23:25:31  5-MIN K0J4 080425Z AUTO 22005KT 10SM CLR 26/23 A3009 160 84 1500 220/05 RMK AO2 T02610233
63870K0J4 0J420160707233010807/07/16 23:30:31  5-MIN K0J4 080430Z AUTO 21005KT 10SM CLR 26/23 A3008 170 84 1500 210/05 RMK AO2 T02610233
63870K0J4 0J420160707233510807/07/16 23:35:31  5-MIN K0J4 080435Z AUTO 21005KT 10SM CLR 26/23 A3008 170 87 1500 210/05 RMK AO2 T02560233
63870K0J4 0J420160707234010807/07/16 23:40:31  5-MIN K0J4 080440Z AUTO 21006KT 10SM CLR 26/23 A3008 170 87 1500 210/06 RMK AO2 T02560233
63870K0J4 0J420160707234510807/07/16 23:45:31  5-MIN K0J4 080445Z AUTO 22005KT 10SM CLR 26/23 A3008 170 84 1500 220/05 RMK AO2 T02610233
63870K0J4 0J420160707235010807/07/16 23:50:31  5-MIN K0J4 080450Z AUTO 21008KT 10SM CLR 26/23 A3008 170 84 1500 210/08 RMK AO2 T02610233
63870K0J4 0J420160707235512507/07/16 23:55:31  5-MIN K0J4 080455Z AUTO 21008KT 10SM CLR 26/23 A3008 170 84 1500 210/08 RMK AO2 SLP179 T02610233 403500222
63870K0J4 0J420160708000010807/08/16 00:00:31  5-MIN K0J4 080500Z AUTO 21008KT 10SM CLR 26/23 A3008 170 84 1500 210/08 RMK AO2 T02610233
63870K0J4 0J420160708000510807/08/16 00:05:31  5-MIN K0J4 080505Z AUTO 21007KT 10SM CLR 26/23 A3007 180 84 1500 210/07 RMK AO2 T02610233
63870K0J4 0J420160708001010807/08/16 00:10:31  5-MIN K0J4 080510Z AUTO 21007KT 10SM CLR 26/23 A3007 180 87 1500 210/07 RMK AO2 T02560233
63870K0J4 0J420160708001510807/08/16 00:15:31  5-MIN K0J4 080515Z AUTO 21009KT 10SM CLR 26/23 A3007 180 87 1500 210/09 RMK AO2 T02560233
63870K0J4 0J420160708002010807/08/16 00:20:31  5-MIN K0J4 080520Z AUTO 21008KT 10SM CLR 26/23 A3006 180 87 1500 210/08 RMK AO2 T02560233
63870K0J4 0J420160708002510807/08/16 00:25:31  5-MIN K0J4 080525Z AUTO 22008KT 10SM CLR 26/23 A3007 180 87 1500 220/08 RMK AO2 T02560233
63870K0J4 0J420160708003010807/08/16 00:30:31  5-MIN K0J4 080530Z AUTO 22007KT 10SM CLR 26/24 A3007 180 87 1500 220/07 RMK AO2 T02610239
63870K0J4 0J420160708003510807/08/16 00:35:31  5-MIN K0J4 080535Z AUTO 23007KT 10SM CLR 26/24 A3007 180 87 1500 230/07 RMK AO2 T02610239
63870K0J4 0J420160708004010807/08/16 00:40:31  5-MIN K0J4 080540Z AUTO 23005KT 10SM CLR 26/24 A3007 180 87 1500 230/05 RMK AO2 T02610239
63870K0J4 0J420160708004510807/08/16 00:45:31  5-MIN K0J4 080545Z AUTO 23006KT 10SM CLR 26/23 A3007 180 87 1500 230/06 RMK AO2 T02560233
63870K0J4 0J420160708005010807/08/16 00:50:31  5-MIN K0J4 080550Z AUTO 22006KT 10SM CLR 26/23 A3007 180 87 1500 220/06 RMK AO2 T02560233
63870K0J4 0J420160708005513907/08/16 00:55:31  5-MIN K0J4 080555Z AUTO 21007KT 10SM CLR 26/23 A3007 180 87 1500 210/07 RMK AO2 SLP176 60000 T02560233 10311 20256 51010
63870K0J4 0J420160708010010807/08/16 01:00:31  5-MIN K0J4 080600Z AUTO 21006KT 10SM CLR 26/23 A3007 180 87 1500 210/06 RMK AO2 T02560233
63870K0J4 0J420160708010512407/08/16 01:05:31  5-MIN K0J4 080605Z AUTO 21008KT 10SM -RA CLR 25/23 A3006 180 90 1400 210/08 RMK AO2 RAB04 P0000 T02500233
63870K0J4 0J420160708011012307/08/16 01:10:31  5-MIN K0J4 080610Z AUTO 22007KT 10SM CLR 25/23 A3006 180 90 1400 220/07 RMK AO2 RAB04E10 P0000 T02500233
63870K0J4 0J420160708011512307/08/16 01:15:31  5-MIN K0J4 080615Z AUTO 23006KT 10SM CLR 26/23 A3007 180 87 1500 230/06 RMK AO2 RAB04E10 P0000 T02560233
63870K0J4 0J420160708012012307/08/16 01:20:31  5-MIN K0J4 080620Z AUTO 22006KT 10SM CLR 26/23 A3007 180 87 1500 220/06 RMK AO2 RAB04E10 P0000 T02560233
63870K0J4 0J420160708012512307/08/16 01:25:31  5-MIN K0J4 080625Z AUTO 22006KT 10SM CLR 26/23 A3007 180 87 1500 220/06 RMK AO2 RAB04E10 P0000 T02560233
63870K0J4 0J420160708013012307/08/16 01:30:31  5-MIN K0J4 080630Z AUTO 22006KT 10SM CLR 26/23 A3007 180 87 1500 220/06 RMK AO2 RAB04E10 P0000 T02560233
63870K0J4 0J420160708013512307/08/16 01:35:31  5-MIN K0J4 080635Z AUTO 22006KT 10SM CLR 26/23 A3007 180 87 1500 220/06 RMK AO2 RAB04E10 P0000 T02560233
63870K0J4 0J420160708014012307/08/16 01:40:31  5-MIN K0J4 080640Z AUTO 22005KT 10SM CLR 26/23 A3007 180 87 1500 220/05 RMK AO2 RAB04E10 P0000 T02560233
63870K0J4 0J420160708014512307/08/16 01:45:31  5-MIN K0J4 080645Z AUTO 22006KT 10SM CLR 25/23 A3007 180 90 1400 220/06 RMK AO2 RAB04E10 P0000 T02500233
63870K0J4 0J420160708015012307/08/16 01:50:31  5-MIN K0J4 080650Z AUTO 22006KT 10SM CLR 25/23 A3006 180 90 1400 220/06 RMK AO2 RAB04E10 P0000 T02500233
63870K0J4 0J420160708015513007/08/16 01:55:31  5-MIN K0J4 080655Z AUTO 22007KT 10SM CLR 25/23 A3006 190 90 1400 220/07 RMK AO2 RAB04E10 SLP174 P0000 T02500233
63870K0J4 0J420160708020010807/08/16 02:00:31  5-MIN K0J4 080700Z AUTO 22006KT 10SM CLR 25/23 A3006 190 90 1400 220/06 RMK AO2 T02500233
63870K0J4 0J420160708020510807/08/16 02:05:31  5-MIN K0J4 080705Z AUTO 21006KT 10SM CLR 25/23 A3006 190 90 1400 210/06 RMK AO2 T02500233
63870K0J4 0J420160708021010807/08/16 02:10:31  5-MIN K0J4 080710Z AUTO 22006KT 10SM CLR 25/23 A3006 190 90 1400 220/06 RMK AO2 T02500233
63870K0J4 0J420160708021510807/08/16 02:15:31  5-MIN K0J4 080715Z AUTO 23006KT 10SM CLR 25/23 A3006 190 90 1400 230/06 RMK AO2 T02500233
63870K0J4 0J420160708022010807/08/16 02:20:31  5-MIN K0J4 080720Z AUTO 22005KT 10SM CLR 25/23 A3006 190 90 1400 220/05 RMK AO2 T02500233
63870K0J4 0J420160708022510807/08/16 02:25:31  5-MIN K0J4 080725Z AUTO 22006KT 10SM CLR 25/23 A3006 190 90 1400 220/06 RMK AO2 T02500233
63870K0J4 0J420160708023010807/08/16 02:30:31  5-MIN K0J4 080730Z AUTO 22005KT 10SM CLR 25/23 A3006 190 90 1400 220/05 RMK AO2 T02500233
63870K0J4 0J420160708023510807/08/16 02:35:31  5-MIN K0J4 080735Z AUTO 24003KT 10SM CLR 25/23 A3006 190 90 1400 240/03 RMK AO2 T02500233
63870K0J4 0J420160708024010807/08/16 02:40:31  5-MIN K0J4 080740Z AUTO 24004KT 10SM CLR 25/23 A3006 190 90 1400 240/04 RMK AO2 T02500233
63870K0J4 0J420160708024510807/08/16 02:45:31  5-MIN K0J4 080745Z AUTO 23004KT 10SM CLR 25/23 A3006 190 90 1400 230/04 RMK AO2 T02500233
63870K0J4 0J420160708025010807/08/16 02:50:31  5-MIN K0J4 080750Z AUTO 22004KT 10SM CLR 25/23 A3006 190 90 1400 220/04 RMK AO2 T02500233
63870K0J4 0J420160708025511507/08/16 02:55:31  5-MIN K0J4 080755Z AUTO 22003KT 10SM CLR 25/23 A3006 190 90 1400 220/03 RMK AO2 SLP172 T02500233
63870K0J4 0J420160708030010807/08/16 03:00:31  5-MIN K0J4 080800Z AUTO 22004KT 10SM CLR 25/23 A3006 190 90 1400 220/04 RMK AO2 T02500233
63870K0J4 0J420160708030510807/08/16 03:05:31  5-MIN K0J4 080805Z AUTO 21005KT 10SM CLR 24/23 A3005 190 93 1400 210/05 RMK AO2 T02440233
63870K0J4 0J420160708031010807/08/16 03:10:31  5-MIN K0J4 080810Z AUTO 21005KT 10SM CLR 24/23 A3005 190 93 1400 210/05 RMK AO2 T02440233
63870K0J4 0J420160708031510807/08/16 03:15:31  5-MIN K0J4 080815Z AUTO 21005KT 10SM CLR 24/23 A3005 190 93 1400 210/05 RMK AO2 T02440233
63870K0J4 0J420160708032010807/08/16 03:20:31  5-MIN K0J4 080820Z AUTO 22005KT 10SM CLR 24/23 A3005 190 93 1400 220/05 RMK AO2 T02440233
63870K0J4 0J420160708032510807/08/16 03:25:31  5-MIN K0J4 080825Z AUTO 22004KT 10SM CLR 24/23 A3005 190 93 1400 220/04 RMK AO2 T02440233
63870K0J4 0J420160708033010807/08/16 03:30:31  5-MIN K0J4 080830Z AUTO 22004KT 10SM CLR 24/23 A3006 190 93 1400 220/04 RMK AO2 T02440233
63870K0J4 0J420160708033510807/08/16 03:35:31  5-MIN K0J4 080835Z AUTO 22004KT 10SM CLR 24/23 A3006 190 93 1400 220/04 RMK AO2 T02440233
63870K0J4 0J420160708034010807/08/16 03:40:31  5-MIN K0J4 080840Z AUTO 22004KT 10SM CLR 24/23 A3006 190 93 1400 220/04 RMK AO2 T02440233
63870K0J4 0J420160708034510807/08/16 03:45:31  5-MIN K0J4 080845Z AUTO 22004KT 10SM CLR 24/23 A3006 190 93 1400 220/04 RMK AO2 T02440233
63870K0J4 0J420160708035010807/08/16 03:50:31  5-MIN K0J4 080850Z AUTO 22004KT 10SM CLR 24/23 A3006 190 93 1400 220/04 RMK AO2 T02440233
63870K0J4 0J420160708035512707/08/16 03:55:31  5-MIN K0J4 080855Z AUTO 23003KT 10SM CLR 24/23 A3006 190 93 1400 230/03 RMK AO2 SLP173 60000 T02440233 58011
63870K0J4 0J420160708040010807/08/16 04:00:31  5-MIN K0J4 080900Z AUTO 00000KT 10SM CLR 24/23 A3006 180 93 1400 000/00 RMK AO2 T02440233
63870K0J4 0J420160708040510807/08/16 04:05:31  5-MIN K0J4 080905Z AUTO 23003KT 10SM CLR 24/23 A3006 180 93 1400 230/03 RMK AO2 T02440233
63870K0J4 0J420160708041010807/08/16 04:10:31  5-MIN K0J4 080910Z AUTO 21003KT 10SM CLR 24/23 A3006 180 93 1400 210/03 RMK AO2 T02440233
63870K0J4 0J420160708041510807/08/16 04:15:31  5-MIN K0J4 080915Z AUTO 21005KT 10SM CLR 24/23 A3006 190 93 1400 210/05 RMK AO2 T02440233
63870K0J4 0J420160708042010807/08/16 04:20:31  5-MIN K0J4 080920Z AUTO 21004KT 10SM CLR 24/23 A3006 190 93 1400 210/04 RMK AO2 T02440233
63870K0J4 0J420160708042510807/08/16 04:25:31  5-MIN K0J4 080925Z AUTO 22004KT 10SM CLR 24/23 A3006 180 93 1300 220/04 RMK AO2 T02390228
63870K0J4 0J420160708043010807/08/16 04:30:31  5-MIN K0J4 080930Z AUTO 23004KT 10SM CLR 24/23 A3007 180 93 1400 230/04 RMK AO2 T02440233
63870K0J4 0J420160708043510807/08/16 04:35:31  5-MIN K0J4 080935Z AUTO 22003KT 10SM CLR 24/23 A3007 180 93 1400 220/03 RMK AO2 T02440233
63870K0J4 0J420160708044010807/08/16 04:40:31  5-MIN K0J4 080940Z AUTO 00000KT 10SM CLR 24/23 A3007 180 93 1400 000/00 RMK AO2 T02440233
63870K0J4 0J420160708044510807/08/16 04:45:31  5-MIN K0J4 080945Z AUTO 00000KT 10SM CLR 24/23 A3007 180 93 1400 000/00 RMK AO2 T02440233
63870K0J4 0J420160708045010807/08/16 04:50:31  5-MIN K0J4 080950Z AUTO 22003KT 10SM CLR 24/23 A3007 170 93 1300 220/03 RMK AO2 T02440233
63870K0J4 0J420160708045511507/08/16 04:55:31  5-MIN K0J4 080955Z AUTO 00000KT 10SM CLR 24/23 A3008 170 93 1300 000/00 RMK AO2 SLP180 T02390228
63870K0J4 0J420160708050010807/08/16 05:00:31  5-MIN K0J4 081000Z AUTO 00000KT 10SM CLR 24/23 A3008 170 93 1300 000/00 RMK AO2 T02390228
63870K0J4 0J420160708050510807/08/16 05:05:31  5-MIN K0J4 081005Z AUTO 00000KT 10SM CLR 24/23 A3008 160 93 1300 000/00 RMK AO2 T02390228
63870K0J4 0J420160708051010807/08/16 05:10:31  5-MIN K0J4 081010Z AUTO 00000KT 10SM CLR 24/23 A3009 160 93 1300 000/00 RMK AO2 T02390228
63870K0J4 0J420160708051510807/08/16 05:15:31  5-MIN K0J4 081015Z AUTO 00000KT 10SM CLR 24/23 A3010 150 93 1300 000/00 RMK AO2 T02390228
63870K0J4 0J420160708052010807/08/16 05:20:31  5-MIN K0J4 081020Z AUTO 00000KT 10SM CLR 24/23 A3010 150 93 1300 000/00 RMK AO2 T02390228
63870K0J4 0J420160708052510807/08/16 05:25:31  5-MIN K0J4 081025Z AUTO 00000KT 10SM CLR 24/23 A3010 150 93 1300 000/00 RMK AO2 T02390228
63870K0J4 0J420160708053010807/08/16 05:30:31  5-MIN K0J4 081030Z AUTO 00000KT 10SM CLR 24/23 A3011 150 93 1300 000/00 RMK AO2 T02390228
63870K0J4 0J420160708053510807/08/16 05:35:31  5-MIN K0J4 081035Z AUTO 36003KT 10SM CLR 24/23 A3011 140 93 1200 360/03 RMK AO2 T02390228
63870K0J4 0J420160708054010707/08/16 05:40:31  5-MIN K0J4 081040Z AUTO 35003KT 9SM CLR 24/23 A3011 140 93 1200 350/03 RMK AO2 T02390228
63870K0J4 0J420160708054510707/08/16 05:45:31  5-MIN K0J4 081045Z AUTO 01003KT 9SM CLR 24/23 A3012 130 93 1200 010/03 RMK AO2 T02390228
63870K0J4 0J420160708055010707/08/16 05:50:31  5-MIN K0J4 081050Z AUTO 36003KT 8SM CLR 24/23 A3012 130 93 1200 360/03 RMK AO2 T02390228
63870K0J4 0J420160708055511707/08/16 05:55:31  5-MIN K0J4 081055Z AUTO 01004KT 8SM FEW021 24/23 A3012 130 93 1200 010/04 RMK AO2 SLP196 T02390228
63870K0J4 0J420160708060011007/08/16 06:00:31  5-MIN K0J4 081100Z AUTO 01003KT 8SM SCT021 24/23 A3013 130 93 1200 010/03 RMK AO2 T02390228
63870K0J4 0J420160708060511007/08/16 06:05:31  5-MIN K0J4 081105Z AUTO 01003KT 7SM SCT021 24/23 A3013 120 93 1200 010/03 RMK AO2 T02390228
63870K0J4 0J420160708061011707/08/16 06:10:31  5-MIN K0J4 081110Z AUTO 00000KT 7SM SCT021 BKN028 24/23 A3013 120 93 1200 000/00 RMK AO2 T02390228
63870K0J4 0J420160708061511707/08/16 06:15:31  5-MIN K0J4 081115Z AUTO 00000KT 8SM SCT021 BKN031 24/23 A3013 120 97 1200 000/00 RMK AO2 T02390233
63870K0J4 0J420160708062011707/08/16 06:20:31  5-MIN K0J4 081120Z AUTO 00000KT 8SM SCT021 BKN031 24/23 A3013 120 97 1200 000/00 RMK AO2 T02390233
63870K0J4 0J420160708062511707/08/16 06:25:31  5-MIN K0J4 081125Z AUTO 00000KT 8SM SCT021 BKN029 24/23 A3013 120 97 1200 000/00 RMK AO2 T02390233
63870K0J4 0J420160708063011707/08/16 06:30:31  5-MIN K0J4 081130Z AUTO 00000KT 9SM FEW021 SCT029 24/23 A3014 120 93 1300 000/00 RMK AO2 T02440233
63870K0J4 0J420160708063513307/08/16 06:35:31  5-MIN K0J4 081135Z AUTO 00000KT 9SM -RA FEW021 FEW029 24/23 A3014 120 93 1300 000/00 RMK AO2 RAB31 P0000 T02440233
63870K0J4 0J420160708064012707/08/16 06:40:31  5-MIN K0J4 081140Z AUTO 00000KT 10SM -RA FEW029 24/23 A3014 120 93 1300 000/00 RMK AO2 RAB31 P0000 T02440233
63870K0J4 0J420160708064512307/08/16 06:45:31  5-MIN K0J4 081145Z AUTO 00000KT 10SM CLR 25/23 A3014 110 90 1300 000/00 RMK AO2 RAB31E41 P0000 T02500233
63870K0J4 0J420160708065012307/08/16 06:50:31  5-MIN K0J4 081150Z AUTO 00000KT 10SM CLR 25/23 A3014 110 90 1300 000/00 RMK AO2 RAB31E41 P0000 T02500233
63870K0J4 0J420160708065515407/08/16 06:55:31  5-MIN K0J4 081155Z AUTO 00000KT 10SM CLR 26/24 A3014 110 90 1400 000/00 RMK AO2 RAB31E41 SLP202 P0000 60000 T02560239 10256 20239 55002
63870K0J4 0J420160708070010807/08/16 07:00:31  5-MIN K0J4 081200Z AUTO 00000KT 10SM CLR 26/24 A3014 110 90 1400 000/00 RMK AO2 T02560239
63870K0J4 0J420160708070510807/08/16 07:05:31  5-MIN K0J4 081205Z AUTO 00000KT 10SM CLR 26/24 A3014 110 90 1400 000/00 RMK AO2 T02560239
63870K0J4 0J420160708071010807/08/16 07:10:31  5-MIN K0J4 081210Z AUTO 00000KT 10SM CLR 26/24 A3014 110 90 1400 000/00 RMK AO2 T02560239
63870K0J4 0J420160708071510807/08/16 07:15:31  5-MIN K0J4 081215Z AUTO 00000KT 10SM CLR 26/24 A3014 110 87 1500 000/00 RMK AO2 T02610239
63870K0J4 0J420160708072010807/08/16 07:20:31  5-MIN K0J4 081220Z AUTO 00000KT 10SM CLR 26/24 A3015 110 87 1500 000/00 RMK AO2 T02610239
63870K0J4 0J420160708072510807/08/16 07:25:31  5-MIN K0J4 081225Z AUTO 00000KT 10SM CLR 26/24 A3015 110 87 1500 000/00 RMK AO2 T02610239
63870K0J4 0J420160708073012407/08/16 07:30:31  5-MIN K0J4 081230Z AUTO 00000KT 10SM -RA CLR 27/24 A3015 110 84 1500 000/00 RMK AO2 RAB29 P0000 T02670239
63870K0J4 0J420160708073512307/08/16 07:35:31  5-MIN K0J4 081235Z AUTO 00000KT 10SM CLR 27/24 A3015 100 84 1500 000/00 RMK AO2 RAB29E35 P0000 T02670239
63870K0J4 0J420160708074012307/08/16 07:40:31  5-MIN K0J4 081240Z AUTO 28003KT 10SM CLR 27/24 A3015 100 84 1500 280/03 RMK AO2 RAB29E35 P0000 T02670239
63870K0J4 0J420160708074512307/08/16 07:45:31  5-MIN K0J4 081245Z AUTO 00000KT 10SM CLR 27/24 A3015 100 82 1600 000/00 RMK AO2 RAB29E35 P0000 T02720239
63870K0J4 0J420160708075012307/08/16 07:50:31  5-MIN K0J4 081250Z AUTO 00000KT 10SM CLR 28/24 A3015 100 82 1600 000/00 RMK AO2 RAB29E35 P0000 T02780244
63870K0J4 0J420160708075513007/08/16 07:55:31  5-MIN K0J4 081255Z AUTO 00000KT 10SM CLR 28/24 A3015 100 82 1600 000/00 RMK AO2 RAB29E35 SLP205 P0000 T02780244
63870K0J4 0J420160708080010807/08/16 08:00:31  5-MIN K0J4 081300Z AUTO 25003KT 10SM CLR 28/24 A3015 100 82 1600 250/03 RMK AO2 T02780244
63870K0J4 0J420160708080511107/08/16 08:05:31  5-MIN K0J4 081305Z AUTO 00000KT 10SM FEW025 28/24 A3015 100 79 1700 000/00 RMK AO2 T02830244
63870K0J4 0J420160708081011107/08/16 08:10:31  5-MIN K0J4 081310Z AUTO 32004KT 10SM FEW025 28/24 A3015 100 76 1700 320/04 RMK AO2 T02830239
63870K0J4 0J420160708081511107/08/16 08:15:31  5-MIN K0J4 081315Z AUTO 00000KT 10SM FEW026 28/24 A3015 100 76 1700 000/00 RMK AO2 T02830239
63870K0J4 0J420160708082011107/08/16 08:20:31  5-MIN K0J4 081320Z AUTO VRB04KT 10SM FEW026 28/24 A3016 100 76 1700 VRB/04 RMK AO2 T02830239
63870K0J4 0J420160708082511107/08/16 08:25:31  5-MIN K0J4 081325Z AUTO 00000KT 10SM FEW026 28/24 A3016 100 76 1700 000/00 RMK AO2 T02830239
63870K0J4 0J420160708083010807/08/16 08:30:31  5-MIN K0J4 081330Z AUTO VRB03KT 10SM CLR 29/24 A3016 100 74 1800 VRB/03 RMK AO2 T02890239
63870K0J4 0J420160708083510807/08/16 08:35:31  5-MIN K0J4 081335Z AUTO VRB03KT 10SM CLR 29/24 A3016 100 74 1800 VRB/03 RMK AO2 T02890239
63870K0J4 0J420160708084010807/08/16 08:40:31  5-MIN K0J4 081340Z AUTO 00000KT 10SM CLR 29/24 A3016 100 71 1800 000/00 RMK AO2 T02940239
63870K0J4 0J420160708084510807/08/16 08:45:31  5-MIN K0J4 081345Z AUTO VRB05KT 10SM CLR 29/24 A3016 100 71 1800 VRB/05 RMK AO2 T02940239
63870K0J4 0J420160708085010807/08/16 08:50:31  5-MIN K0J4 081350Z AUTO VRB05KT 10SM CLR 29/23 A3016 100 71 1800 VRB/05 RMK AO2 T02890233
63870K0J4 0J420160708085511807/08/16 08:55:31  5-MIN K0J4 081355Z AUTO VRB05KT 10SM FEW020 29/24 A3016 100 71 1800 VRB/05 RMK AO2 SLP208 T02940239
63870K0J4 0J420160708090011107/08/16 09:00:31  5-MIN K0J4 081400Z AUTO VRB04KT 10SM FEW020 30/24 A3016 100 69 1900 VRB/04 RMK AO2 T03000239
63870K0J4 0J420160708090511107/08/16 09:05:31  5-MIN K0J4 081405Z AUTO VRB04KT 10SM SCT020 30/24 A3016 100 69 1900 VRB/04 RMK AO2 T03000239
63870K0J4 0J420160708091011107/08/16 09:10:31  5-MIN K0J4 081410Z AUTO VRB05KT 10SM SCT020 31/24 A3016 100 67 1900 VRB/05 RMK AO2 T03060239
63870K0J4 0J420160708091511107/08/16 09:15:31  5-MIN K0J4 081415Z AUTO VRB03KT 10SM BKN022 30/24 A3016 100 69 1900 VRB/03 RMK AO2 T03000239
63870K0J4 0J420160708092011807/08/16 09:20:31  5-MIN K0J4 081420Z AUTO 30005KT 10SM BKN022 BKN027 29/23 A3016 100 69 1800 300/05 RMK AO2 T02940233
63870K0J4 0J420160708092511807/08/16 09:25:31  5-MIN K0J4 081425Z AUTO 00000KT 10SM BKN022 BKN030 30/24 A3016 100 69 1900 000/00 RMK AO2 T03000239
63870K0J4 0J420160708093011807/08/16 09:30:31  5-MIN K0J4 081430Z AUTO VRB04KT 10SM BKN022 BKN027 30/23 A3016 100 67 1900 VRB/04 RMK AO2 T03000233
63870K0J4 0J420160708093512507/08/16 09:35:31  5-MIN K0J4 081435Z AUTO 00000KT 10SM SCT022 SCT028 BKN035 30/23 A3016 100 67 1900 000/00 RMK AO2 T03000233
63870K0J4 0J420160708094011807/08/16 09:40:31  5-MIN K0J4 081440Z AUTO VRB03KT 10SM SCT022 BKN035 31/23 A3016 100 63 2000 VRB/03 RMK AO2 T03110233
63870K0J4 0J420160708094512507/08/16 09:45:31  5-MIN K0J4 081445Z AUTO 24004KT 10SM SCT023 BKN035 BKN047 30/23 A3016 100 67 1900 240/04 RMK AO2 T03000233
63870K0J4 0J420160708095012507/08/16 09:50:31  5-MIN K0J4 081450Z AUTO 00000KT 10SM SCT023 BKN029 BKN035 30/23 A3016 100 67 1900 000/00 RMK AO2 T03000233
63870K0J4 0J420160708095514407/08/16 09:55:31  5-MIN K0J4 081455Z AUTO VRB03KT 10SM FEW023 SCT029 SCT035 29/23 A3016 100 67 1800 VRB/03 RMK AO2 SLP207 60000 T02940228 51027
63870K0J4 0J420160708100012507/08/16 10:00:31  5-MIN K0J4 081500Z AUTO 00000KT 10SM FEW025 SCT029 SCT035 29/23 A3015 100 69 1800 000/00 RMK AO2 T02940233
63870K0J4 0J420160708100511807/08/16 10:05:31  5-MIN K0J4 081505Z AUTO VRB04KT 10SM FEW025 SCT033 31/23 A3016 100 62 1900 VRB/04 RMK AO2 T03060228
63870K0J4 0J420160708101012507/08/16 10:10:31  5-MIN K0J4 081510Z AUTO 28005KT 10SM FEW024 FEW029 SCT036 31/23 A3015 100 62 1900 280/05 RMK AO2 T03060228
63870K0J4 0J420160708101511807/08/16 10:15:31  5-MIN K0J4 081515Z AUTO VRB05KT 10SM FEW026 SCT033 32/23 A3015 100 58 2100 VRB/05 RMK AO2 T03170228
63870K0J4 0J420160708102011107/08/16 10:20:31  5-MIN K0J4 081520Z AUTO VRB05KT 10SM SCT030 31/22 A3016 100 60 1900 VRB/05 RMK AO2 T03060222
63870K0J4 0J420160708102511107/08/16 10:25:31  5-MIN K0J4 081525Z AUTO 00000KT 10SM FEW030 31/22 A3015 100 60 1900 000/00 RMK AO2 T03060222
63870K0J4 0J420160708103011107/08/16 10:30:31  5-MIN K0J4 081530Z AUTO VRB04KT 10SM FEW032 32/22 A3015 100 56 2100 VRB/04 RMK AO2 T03170222
63870K0J4 0J420160708103511107/08/16 10:35:31  5-MIN K0J4 081535Z AUTO VRB04KT 10SM FEW032 32/22 A3015 100 56 2100 VRB/04 RMK AO2 T03170222
63870K0J4 0J420160708104011107/08/16 10:40:31  5-MIN K0J4 081540Z AUTO VRB03KT 10SM FEW032 32/22 A3015 110 55 2100 VRB/03 RMK AO2 T03220222
63870K0J4 0J420160708104509807/08/16 10:45:31  5-MIN K0J4 081545Z AUTO 10SM CLR 32/22 A3015 110 55 2100 M /M RMK AO2 T03220222
63870K0J4 0J420160708105010807/08/16 10:50:31  5-MIN K0J4 081550Z AUTO VRB04KT 10SM CLR 32/22 A3015 110 56 2100 VRB/04 RMK AO2 T03170222
63870K0J4 0J420160708105511807/08/16 10:55:31  5-MIN K0J4 081555Z AUTO VRB03KT 10SM FEW060 32/22 A3015 110 56 2100 VRB/03 RMK AO2 SLP203 T03170222
63870K0J4 0J420160708110011807/08/16 11:00:31  5-MIN K0J4 081600Z AUTO 28004KT 10SM FEW038 FEW060 32/22 A3015 110 55 2100 280/04 RMK AO2 T03170217
63870K0J4 0J420160708110511807/08/16 11:05:31  5-MIN K0J4 081605Z AUTO VRB05KT 10SM FEW038 FEW060 32/22 A3014 110 55 2100 VRB/05 RMK AO2 T03170217
63870K0J4 0J420160708111011807/08/16 11:10:31  5-MIN K0J4 081610Z AUTO VRB03KT 10SM SCT038 SCT060 32/22 A3014 110 55 2100 VRB/03 RMK AO2 T03170217
63870K0J4 0J420160708111511807/08/16 11:15:31  5-MIN K0J4 081615Z AUTO VRB04KT 10SM FEW038 SCT060 31/22 A3014 110 56 2000 VRB/04 RMK AO2 T03110217
63870K0J4 0J420160708112011807/08/16 11:20:31  5-MIN K0J4 081620Z AUTO VRB03KT 10SM FEW038 FEW060 32/22 A3014 110 53 2100 VRB/03 RMK AO2 T03220217
63870K0J4 0J420160708112510107/08/16 11:25:31  5-MIN K0J4 081625Z AUTO 10SM SCT038 32/22 A3014 110 55 2100 M /M RMK AO2 T03220222
63870K0J4 0J420160708113011107/08/16 11:30:31  5-MIN K0J4 081630Z AUTO 31005KT 10SM SCT038 32/22 A3014 110 53 2100 310/05 RMK AO2 T03220217
63870K0J4 0J420160708113511107/08/16 11:35:31  5-MIN K0J4 081635Z AUTO VRB06KT 10SM FEW038 32/21 A3014 110 51 2100 VRB/06 RMK AO2 T03220211
63870K0J4 0J420160708114011107/08/16 11:40:31  5-MIN K0J4 081640Z AUTO VRB04KT 10SM FEW039 33/22 A3014 110 51 2200 VRB/04 RMK AO2 T03280217
63870K0J4 0J420160708114511107/08/16 11:45:31  5-MIN K0J4 081645Z AUTO VRB04KT 10SM FEW039 33/22 A3014 120 51 2200 VRB/04 RMK AO2 T03280217
63870K0J4 0J420160708115011107/08/16 11:50:31  5-MIN K0J4 081650Z AUTO VRB06KT 10SM FEW039 33/22 A3013 120 51 2200 VRB/06 RMK AO2 T03280217
63870K0J4 0J420160708115511507/08/16 11:55:31  5-MIN K0J4 081655Z AUTO VRB04KT 10SM CLR 32/21 A3013 120 51 2200 VRB/04 RMK AO2 SLP199 T03220211
63870K0J4 0J420160708120009807/08/16 12:00:31  5-MIN K0J4 081700Z AUTO 10SM CLR 33/21 A3013 120 49 2200 M /M RMK AO2 T03280211
63870K0J4 0J420160708120510807/08/16 12:05:31  5-MIN K0J4 081705Z AUTO VRB05KT 10SM CLR 33/19 A3013 120 44 2200 VRB/05 RMK AO2 T03280194
63870K0J4 0J420160708121010807/08/16 12:10:31  5-MIN K0J4 081710Z AUTO VRB03KT 10SM CLR 33/19 A3013 120 44 2200 VRB/03 RMK AO2 T03280194
63870K0J4 0J420160708121510807/08/16 12:15:31  5-MIN K0J4 081715Z AUTO 00000KT 10SM CLR 33/20 A3013 120 45 2300 000/00 RMK AO2 T03330200
63870K0J4 0J420160708122010807/08/16 12:20:31  5-MIN K0J4 081720Z AUTO VRB05KT 10SM CLR 33/21 A3013 120 48 2300 VRB/05 RMK AO2 T03330211
63870K0J4 0J420160708122509807/08/16 12:25:31  5-MIN K0J4 081725Z AUTO 10SM CLR 34/21 A3013 130 45 2300 M /M RMK AO2 T03390206
63870K0J4 0J420160708123010807/08/16 12:30:31  5-MIN K0J4 081730Z AUTO 22007KT 10SM CLR 33/21 A3012 130 46 2300 220/07 RMK AO2 T03330206
63870K0J4 0J420160708123510807/08/16 12:35:31  5-MIN K0J4 081735Z AUTO VRB04KT 10SM CLR 33/20 A3012 130 45 2300 VRB/04 RMK AO2 T03330200
63870K0J4 0J420160708124010807/08/16 12:40:31  5-MIN K0J4 081740Z AUTO VRB05KT 10SM CLR 33/20 A3012 130 45 2300 VRB/05 RMK AO2 T03330200
63870K0J4 0J420160708124510807/08/16 12:45:31  5-MIN K0J4 081745Z AUTO VRB03KT 10SM CLR 33/20 A3012 130 45 2300 VRB/03 RMK AO2 T03330200
63870K0J4 0J420160708125010807/08/16 12:50:31  5-MIN K0J4 081750Z AUTO 00000KT 10SM CLR 34/21 A3011 140 45 2400 000/00 RMK AO2 T03390206
63870K0J4 0J420160708125514207/08/16 12:55:31  5-MIN K0J4 081755Z AUTO VRB03KT 10SM FEW050 34/21 A3011 140 45 2400 VRB/03 RMK AO2 SLP191 60000 T03390206 10339 20256 50004
63870K0J4 0J420160708130011107/08/16 13:00:31  5-MIN K0J4 081800Z AUTO 00000KT 10SM FEW050 35/22 A3011 140 45 2500 000/00 RMK AO2 T03500217
63870K0J4 0J420160708130510107/08/16 13:05:31  5-MIN K0J4 081805Z AUTO 10SM FEW050 34/20 A3010 150 42 2400 M /M RMK AO2 T03440200
63870K0J4 0J420160708131011107/08/16 13:10:31  5-MIN K0J4 081810Z AUTO 00000KT 10SM FEW050 34/20 A3010 150 43 2400 000/00 RMK AO2 T03390200
63870K0J4 0J420160708131511107/08/16 13:15:31  5-MIN K0J4 081815Z AUTO 00000KT 10SM SCT050 35/20 A3010 150 40 2500 000/00 RMK AO2 T03500200
63870K0J4 0J420160708132012707/08/16 13:20:31  5-MIN K0J4 081820Z AUTO 22009KT 190V250 10SM FEW055 34/20 A3010 150 42 2400 220/09 190V250 RMK AO2 T03440200
63870K0J4 0J420160708132511107/08/16 13:25:31  5-MIN K0J4 081825Z AUTO VRB05KT 10SM FEW055 34/19 A3010 150 40 2400 VRB/05 RMK AO2 T03440194
63870K0J4 0J420160708133011107/08/16 13:30:31  5-MIN K0J4 081830Z AUTO VRB05KT 10SM FEW055 35/20 A3010 150 40 2500 VRB/05 RMK AO2 T03500200
63870K0J4 0J420160708133511107/08/16 13:35:31  5-MIN K0J4 081835Z AUTO 25006KT 10SM FEW055 34/21 A3010 150 43 2400 250/06 RMK AO2 T03440206
63870K0J4 0J420160708134010807/08/16 13:40:31  5-MIN K0J4 081840Z AUTO 22006KT 10SM CLR 34/21 A3009 160 43 2400 220/06 RMK AO2 T03440206
63870K0J4 0J420160708134510807/08/16 13:45:31  5-MIN K0J4 081845Z AUTO 22004KT 10SM CLR 33/20 A3009 160 45 2300 220/04 RMK AO2 T03330200
63870K0J4 0J420160708135011107/08/16 13:50:31  5-MIN K0J4 081850Z AUTO VRB03KT 10SM FEW055 34/21 A3009 160 46 2400 VRB/03 RMK AO2 T03390211
63870K0J4 0J420160708135511807/08/16 13:55:31  5-MIN K0J4 081855Z AUTO 00000KT 10SM FEW055 34/21 A3009 160 43 2400 000/00 RMK AO2 SLP183 T03440206
63870K0J4 0J420160708140011807/08/16 14:00:31  5-MIN K0J4 081900Z AUTO VRB04KT 10SM FEW055 FEW070 34/20 A3009 160 43 2400 VRB/04 RMK AO2 T03390200
63870K0J4 0J420160708140511807/08/16 14:05:31  5-MIN K0J4 081905Z AUTO VRB04KT 10SM FEW055 FEW070 34/20 A3009 160 42 2400 VRB/04 RMK AO2 T03440200
63870K0J4 0J420160708141011807/08/16 14:10:31  5-MIN K0J4 081910Z AUTO VRB04KT 10SM FEW055 FEW070 35/21 A3009 160 43 2500 VRB/04 RMK AO2 T03500211
63870K0J4 0J420160708141511807/08/16 14:15:31  5-MIN K0J4 081915Z AUTO 00000KT 10SM FEW055 FEW070 34/21 A3008 170 43 2500 000/00 RMK AO2 T03440206
63870K0J4 0J420160708142011107/08/16 14:20:31  5-MIN K0J4 081920Z AUTO 19003KT 10SM FEW055 34/21 A3008 170 43 2500 190/03 RMK AO2 T03440206
63870K0J4 0J420160708142511107/08/16 14:25:31  5-MIN K0J4 081925Z AUTO 00000KT 10SM FEW055 33/20 A3008 170 45 2300 000/00 RMK AO2 T03330200
63870K0J4 0J420160708143011107/08/16 14:30:31  5-MIN K0J4 081930Z AUTO VRB04KT 10SM FEW055 34/20 A3008 170 42 2500 VRB/04 RMK AO2 T03440200
63870K0J4 0J420160708143511107/08/16 14:35:31  5-MIN K0J4 081935Z AUTO 20006KT 10SM FEW055 34/21 A3008 170 43 2500 200/06 RMK AO2 T03440206
63870K0J4 0J420160708144011807/08/16 14:40:31  5-MIN K0J4 081940Z AUTO VRB05KT 10SM FEW055 FEW075 35/21 A3008 170 42 2500 VRB/05 RMK AO2 T03500206
63870K0J4 0J420160708144511807/08/16 14:45:31  5-MIN K0J4 081945Z AUTO 00000KT 10SM FEW055 SCT075 34/19 A3008 170 40 2500 000/00 RMK AO2 T03440194
63870K0J4 0J420160708145011807/08/16 14:50:31  5-MIN K0J4 081950Z AUTO VRB04KT 10SM FEW055 FEW075 35/20 A3008 170 40 2500 VRB/04 RMK AO2 T03500200
63870K0J4 0J420160708145511507/08/16 14:55:31  5-MIN K0J4 081955Z AUTO 10SM SCT055 SCT075 35/20 A3008 170 40 2500 M /M RMK AO2 SLP179 T03500200
63870K0J4 0J420160708150011807/08/16 15:00:31  5-MIN K0J4 082000Z AUTO 00000KT 10SM SCT055 SCT075 35/21 A3007 180 42 2500 000/00 RMK AO2 T03500206
63870K0J4 0J420160708150511107/08/16 15:05:31  5-MIN K0J4 082005Z AUTO 21004KT 10SM FEW055 34/20 A3007 180 42 2500 210/04 RMK AO2 T03440200
63870K0J4 0J420160708151010107/08/16 15:10:31  5-MIN K0J4 082010Z AUTO 10SM SCT055 34/20 A3007 180 42 2500 M /M RMK AO2 T03440200
63870K0J4 0J420160708151511107/08/16 15:15:31  5-MIN K0J4 082015Z AUTO 21007KT 10SM SCT060 35/20 A3007 180 40 2500 210/07 RMK AO2 T03500200
63870K0J4 0J420160708152011107/08/16 15:20:31  5-MIN K0J4 082020Z AUTO VRB05KT 10SM SCT060 34/20 A3006 190 42 2500 VRB/05 RMK AO2 T03440200
63870K0J4 0J420160708152511607/08/16 15:25:31  5-MIN K0J4 082025Z AUTO 24005KT 10SM VCTS FEW060 35/20 A3006 190 40 2500 240/05 RMK AO2 T03500200
63870K0J4 0J420160708153011607/08/16 15:30:31  5-MIN K0J4 082030Z AUTO 24006KT 10SM VCTS FEW060 34/21 A3006 190 45 2400 240/06 RMK AO2 T03390206
63870K0J4 0J420160708153512307/08/16 15:35:31  5-MIN K0J4 082035Z AUTO 20006KT 10SM VCTS FEW060 FEW080 34/21 A3006 180 45 2400 200/06 RMK AO2 T03390206
63870K0J4 0J420160708154011107/08/16 15:40:31  5-MIN K0J4 082040Z AUTO 20006KT 10SM FEW060 33/21 A3006 190 48 2400 200/06 RMK AO2 T03330211
63870K0J4 0J420160708154511807/08/16 15:45:31  5-MIN K0J4 082045Z AUTO 21006KT 10SM SCT060 SCT090 33/21 A3006 190 48 2400 210/06 RMK AO2 T03330211
63870K0J4 0J420160708155011807/08/16 15:50:31  5-MIN K0J4 082050Z AUTO 21011KT 10SM SCT060 SCT085 34/21 A3006 190 46 2400 210/11 RMK AO2 T03390211
63870K0J4 0J420160708155512407/08/16 15:55:31  5-MIN K0J4 082055Z AUTO 20011KT 10SM SCT060 34/22 A3006 190 46 2500 200/11 RMK AO2 SLP172 T03440217 58015
63870K0J4 0J420160708160011107/08/16 16:00:31  5-MIN K0J4 082100Z AUTO 22011KT 10SM SCT060 34/22 A3005 200 46 2500 220/11 RMK AO2 T03440217
63870K0J4 0J420160708160511707/08/16 16:05:31  5-MIN K0J4 082105Z AUTO 21014G17KT 10SM SCT060 34/22 A3005 200 48 2500 210/14G17 RMK AO2 T03440222
63870K0J4 0J420160708161011107/08/16 16:10:31  5-MIN K0J4 082110Z AUTO 21013KT 10SM FEW060 34/22 A3005 200 50 2400 210/13 RMK AO2 T03390222
63870K0J4 0J420160708161511107/08/16 16:15:31  5-MIN K0J4 082115Z AUTO 21012KT 10SM FEW060 34/22 A3005 200 48 2400 210/12 RMK AO2 T03390217
63870K0J4 0J420160708162010807/08/16 16:20:31  5-MIN K0J4 082120Z AUTO 20012KT 10SM CLR 34/22 A3005 200 48 2400 200/12 RMK AO2 T03390217
63870K0J4 0J420160708162510807/08/16 16:25:31  5-MIN K0J4 082125Z AUTO 21016KT 10SM CLR 34/22 A3005 200 48 2400 210/16 RMK AO2 T03390217
63870K0J4 0J420160708163013007/08/16 16:30:31  5-MIN K0J4 082130Z AUTO 22012G21KT 210V270 10SM CLR 33/22 A3005 190 51 2400 220/12G21 210V270 RMK AO2 T03330222
63870K0J4 0J420160708163510807/08/16 16:35:31  5-MIN K0J4 082135Z AUTO 22011KT 10SM CLR 33/23 A3006 190 53 2400 220/11 RMK AO2 T03330228
63870K0J4 0J420160708164011407/08/16 16:40:31  5-MIN K0J4 082140Z AUTO 22013G18KT 10SM CLR 33/23 A3006 190 55 2300 220/13G18 RMK AO2 T03280228
63870K0J4 0J420160708164511407/08/16 16:45:31  5-MIN K0J4 082145Z AUTO 22011G18KT 10SM CLR 32/23 A3006 190 57 2200 220/11G18 RMK AO2 T03220228
63870K0J4 0J420160708165010807/08/16 16:50:31  5-MIN K0J4 082150Z AUTO 22009KT 10SM CLR 32/22 A3006 190 55 2200 220/09 RMK AO2 T03220222
63870K0J4 0J420160708165511507/08/16 16:55:31  5-MIN K0J4 082155Z AUTO 21014KT 10SM CLR 32/22 A3006 190 55 2200 210/14 RMK AO2 SLP173 T03220222
63870K0J4 0J420160708170010807/08/16 17:00:31  5-MIN K0J4 082200Z AUTO 21012KT 10SM CLR 32/22 A3006 190 55 2200 210/12 RMK AO2 T03220222
63870K0J4 0J420160708170510807/08/16 17:05:31  5-MIN K0J4 082205Z AUTO 21009KT 10SM CLR 32/22 A3006 190 55 2200 210/09 RMK AO2 T03220222
63870K0J4 0J420160708171013007/08/16 17:10:31  5-MIN K0J4 082210Z AUTO 21011G16KT 200V260 10SM CLR 32/22 A3005 190 55 2200 210/11G16 200V260 RMK AO2 T03220222
63870K0J4 0J420160708171511407/08/16 17:15:31  5-MIN K0J4 082215Z AUTO 21012G16KT 10SM CLR 32/22 A3005 200 53 2200 210/12G16 RMK AO2 T03220217
63870K0J4 0J420160708172010807/08/16 17:20:31  5-MIN K0J4 082220Z AUTO 20010KT 10SM CLR 32/21 A3005 200 51 2200 200/10 RMK AO2 T03220211
63870K0J4 0J420160708172510807/08/16 17:25:31  5-MIN K0J4 082225Z AUTO 21011KT 10SM CLR 32/22 A3005 200 53 2200 210/11 RMK AO2 T03220217
63870K0J4 0J420160708173011407/08/16 17:30:31  5-MIN K0J4 082230Z AUTO 20012G18KT 10SM CLR 32/22 A3005 200 55 2300 200/12G18 RMK AO2 T03220222
63870K0J4 0J420160708173510807/08/16 17:35:31  5-MIN K0J4 082235Z AUTO 22010KT 10SM CLR 32/22 A3005 200 56 2200 220/10 RMK AO2 T03170222
63870K0J4 0J420160708174010807/08/16 17:40:31  5-MIN K0J4 082240Z AUTO 21013KT 10SM CLR 32/22 A3005 200 56 2200 210/13 RMK AO2 T03170222
63870K0J4 0J420160708174510807/08/16 17:45:31  5-MIN K0J4 082245Z AUTO 21010KT 10SM CLR 32/22 A3005 200 56 2200 210/10 RMK AO2 T03170222
63870K0J4 0J420160708175010807/08/16 17:50:31  5-MIN K0J4 082250Z AUTO 22013KT 10SM CLR 32/22 A3005 200 56 2200 220/13 RMK AO2 T03170222
63870K0J4 0J420160708175511507/08/16 17:55:31  5-MIN K0J4 082255Z AUTO 22013KT 10SM CLR 31/22 A3005 200 58 2100 220/13 RMK AO2 SLP170 T03110222
63870K0J4 0J420160708180010807/08/16 18:00:31  5-MIN K0J4 082300Z AUTO 22012KT 10SM CLR 31/22 A3005 200 58 2100 220/12 RMK AO2 T03110222
63870K0J4 0J420160708180510807/08/16 18:05:31  5-MIN K0J4 082305Z AUTO 21012KT 10SM CLR 31/22 A3004 200 58 2100 210/12 RMK AO2 T03110222
63870K0J4 0J420160708181010807/08/16 18:10:31  5-MIN K0J4 082310Z AUTO 21012KT 10SM CLR 31/22 A3004 200 58 2100 210/12 RMK AO2 T03110222
63870K0J4 0J420160708181510807/08/16 18:15:31  5-MIN K0J4 082315Z AUTO 22012KT 10SM CLR 31/22 A3004 200 58 2100 220/12 RMK AO2 T03110222
63870K0J4 0J420160708182011407/08/16 18:20:31  5-MIN K0J4 082320Z AUTO 21011G18KT 10SM CLR 31/22 A3004 200 60 2100 210/11G18 RMK AO2 T03060222
63870K0J4 0J420160708182511407/08/16 18:25:31  5-MIN K0J4 082325Z AUTO 21011G18KT 10SM CLR 31/22 A3004 200 60 2100 210/11G18 RMK AO2 T03060222
63870K0J4 0J420160708183010807/08/16 18:30:31  5-MIN K0J4 082330Z AUTO 21011KT 10SM CLR 31/22 A3004 200 60 2100 210/11 RMK AO2 T03060222
63870K0J4 0J420160708183510807/08/16 18:35:31  5-MIN K0J4 082335Z AUTO 21010KT 10SM CLR 31/22 A3005 200 60 2100 210/10 RMK AO2 T03060222
63870K0J4 0J420160708184010807/08/16 18:40:31  5-MIN K0J4 082340Z AUTO 22009KT 10SM CLR 31/22 A3005 200 60 2100 220/09 RMK AO2 T03060222
63870K0J4 0J420160708184510807/08/16 18:45:31  5-MIN K0J4 082345Z AUTO 21009KT 10SM CLR 30/22 A3005 200 62 2000 210/09 RMK AO2 T03000222
63870K0J4 0J420160708185010807/08/16 18:50:31  5-MIN K0J4 082350Z AUTO 22011KT 10SM CLR 30/22 A3005 200 60 2000 220/11 RMK AO2 T03000217
63870K0J4 0J420160708185513307/08/16 18:55:31  5-MIN K0J4 082355Z AUTO 21010KT 10SM CLR 30/22 A3005 200 60 2000 210/10 RMK AO2 SLP171 T03000217 10356 20300 56019
63870K0J4 0J420160708190010807/08/16 19:00:31  5-MIN K0J4 090000Z AUTO 22009KT 10SM CLR 30/22 A3005 200 60 2000 220/09 RMK AO2 T03000217
63870K0J4 0J420160708190510807/08/16 19:05:31  5-MIN K0J4 090005Z AUTO 21009KT 10SM CLR 30/22 A3005 200 60 2000 210/09 RMK AO2 T03000217
63870K0J4 0J420160708191012407/08/16 19:10:31  5-MIN K0J4 090010Z AUTO 22010KT 210V300 10SM CLR 29/22 A3005 200 62 1900 220/10 210V300 RMK AO2 T02940217
63870K0J4 0J420160708191511407/08/16 19:15:31  5-MIN K0J4 090015Z AUTO 21008G20KT 10SM CLR 29/22 A3005 190 62 1900 210/08G20 RMK AO2 T02940217
63870K0J4 0J420160708192011407/08/16 19:20:31  5-MIN K0J4 090020Z AUTO 21008G20KT 10SM CLR 29/22 A3005 190 62 1900 210/08G20 RMK AO2 T02940217
63870K0J4 0J420160708192510807/08/16 19:25:31  5-MIN K0J4 090025Z AUTO 20006KT 10SM CLR 29/22 A3006 190 62 1900 200/06 RMK AO2 T02940217
63870K0J4 0J420160708193010807/08/16 19:30:31  5-MIN K0J4 090030Z AUTO 22005KT 10SM CLR 29/22 A3006 190 64 1900 220/05 RMK AO2 T02890217
63870K0J4 0J420160708193510807/08/16 19:35:31  5-MIN K0J4 090035Z AUTO 21005KT 10SM CLR 29/22 A3006 190 64 1900 210/05 RMK AO2 T02890217
63870K0J4 0J420160708194010807/08/16 19:40:31  5-MIN K0J4 090040Z AUTO 21006KT 10SM CLR 29/22 A3006 190 64 1900 210/06 RMK AO2 T02890217
63870K0J4 0J420160708194510807/08/16 19:45:31  5-MIN K0J4 090045Z AUTO 21004KT 10SM CLR 28/22 A3006 190 69 1800 210/04 RMK AO2 T02830222
63870K0J4 0J420160708195010807/08/16 19:50:31  5-MIN K0J4 090050Z AUTO 21006KT 10SM CLR 28/22 A3006 190 69 1800 210/06 RMK AO2 T02830222
63870K0J4 0J420160708195511507/08/16 19:55:31  5-MIN K0J4 090055Z AUTO 21005KT 10SM CLR 28/22 A3006 190 69 1800 210/05 RMK AO2 SLP173 T02830222
63870K0J4 0J420160708200010807/08/16 20:00:31  5-MIN K0J4 090100Z AUTO 22007KT 10SM CLR 28/22 A3006 190 69 1800 220/07 RMK AO2 T02830222
63870K0J4 0J420160708200510807/08/16 20:05:31  5-MIN K0J4 090105Z AUTO 22006KT 10SM CLR 28/22 A3006 190 69 1800 220/06 RMK AO2 T02830222
63870K0J4 0J420160708201010807/08/16 20:10:31  5-MIN K0J4 090110Z AUTO 21007KT 10SM CLR 28/23 A3006 190 71 1800 210/07 RMK AO2 T02830228
63870K0J4 0J420160708201510807/08/16 20:15:31  5-MIN K0J4 090115Z AUTO 21006KT 10SM CLR 28/23 A3006 190 74 1700 210/06 RMK AO2 T02780228
63870K0J4 0J420160708202010807/08/16 20:20:31  5-MIN K0J4 090120Z AUTO 22007KT 10SM CLR 28/23 A3006 190 74 1700 220/07 RMK AO2 T02780228
63870K0J4 0J420160708202510807/08/16 20:25:31  5-MIN K0J4 090125Z AUTO 22007KT 10SM CLR 28/23 A3006 190 71 1800 220/07 RMK AO2 T02830228
63870K0J4 0J420160708203010807/08/16 20:30:31  5-MIN K0J4 090130Z AUTO 22007KT 10SM CLR 28/23 A3006 190 71 1800 220/07 RMK AO2 T02830228
63870K0J4 0J420160708203510807/08/16 20:35:31  5-MIN K0J4 090135Z AUTO 22007KT 10SM CLR 28/23 A3006 180 71 1800 220/07 RMK AO2 T02830228
63870K0J4 0J420160708204010807/08/16 20:40:31  5-MIN K0J4 090140Z AUTO 22005KT 10SM CLR 28/23 A3007 180 71 1800 220/05 RMK AO2 T02830228
63870K0J4 0J420160708204510807/08/16 20:45:31  5-MIN K0J4 090145Z AUTO 23005KT 10SM CLR 28/23 A3007 180 74 1700 230/05 RMK AO2 T02780228
63870K0J4 0J420160708205010807/08/16 20:50:31  5-MIN K0J4 090150Z AUTO 23006KT 10SM CLR 28/23 A3007 180 74 1700 230/06 RMK AO2 T02780228
63870K0J4 0J420160708205511507/08/16 20:55:31  5-MIN K0J4 090155Z AUTO 22006KT 10SM CLR 28/23 A3007 180 74 1700 220/06 RMK AO2 SLP177 T02780228
63870K0J4 0J420160708210010807/08/16 21:00:31  5-MIN K0J4 090200Z AUTO 21007KT 10SM CLR 28/23 A3007 180 74 1700 210/07 RMK AO2 T02780228
63870K0J4 0J420160708210510807/08/16 21:05:31  5-MIN K0J4 090205Z AUTO 21006KT 10SM CLR 27/23 A3007 180 76 1700 210/06 RMK AO2 T02720228
63870K0J4 0J420160708211010807/08/16 21:10:31  5-MIN K0J4 090210Z AUTO 21006KT 10SM CLR 27/23 A3007 180 76 1700 210/06 RMK AO2 T02720228
63870K0J4 0J420160708211510807/08/16 21:15:31  5-MIN K0J4 090215Z AUTO 21005KT 10SM CLR 27/23 A3007 180 76 1700 210/05 RMK AO2 T02720228
63870K0J4 0J420160708212010807/08/16 21:20:31  5-MIN K0J4 090220Z AUTO 22005KT 10SM CLR 27/23 A3007 180 76 1700 220/05 RMK AO2 T02720228
63870K0J4 0J420160708212510807/08/16 21:25:31  5-MIN K0J4 090225Z AUTO 22006KT 10SM CLR 27/23 A3007 170 76 1700 220/06 RMK AO2 T02720228
63870K0J4 0J420160708213010807/08/16 21:30:31  5-MIN K0J4 090230Z AUTO 22004KT 10SM CLR 27/23 A3008 170 76 1700 220/04 RMK AO2 T02720228
63870K0J4 0J420160708213510807/08/16 21:35:31  5-MIN K0J4 090235Z AUTO 22004KT 10SM CLR 27/23 A3008 170 76 1700 220/04 RMK AO2 T02720228
63870K0J4 0J420160708214010807/08/16 21:40:31  5-MIN K0J4 090240Z AUTO 23003KT 10SM CLR 27/23 A3008 170 76 1700 230/03 RMK AO2 T02720228
63870K0J4 0J420160708214510807/08/16 21:45:31  5-MIN K0J4 090245Z AUTO 22004KT 10SM CLR 27/23 A3008 170 76 1700 220/04 RMK AO2 T02720228
63870K0J4 0J420160708215010807/08/16 21:50:31  5-MIN K0J4 090250Z AUTO 22005KT 10SM CLR 27/23 A3008 170 82 1600 220/05 RMK AO2 T02670233
63870K0J4 0J420160708215512107/08/16 21:55:31  5-MIN K0J4 090255Z AUTO 22005KT 10SM CLR 27/23 A3008 170 82 1600 220/05 RMK AO2 SLP182 T02670233 58001
63870K0J4 0J420160708220010807/08/16 22:00:31  5-MIN K0J4 090300Z AUTO 22005KT 10SM CLR 27/23 A3008 170 82 1600 220/05 RMK AO2 T02670233
63870K0J4 0J420160708220510807/08/16 22:05:31  5-MIN K0J4 090305Z AUTO 22005KT 10SM CLR 27/23 A3008 160 79 1600 220/05 RMK AO2 T02670228
63870K0J4 0J420160708221010807/08/16 22:10:31  5-MIN K0J4 090310Z AUTO 22005KT 10SM CLR 27/23 A3008 170 79 1600 220/05 RMK AO2 T02670228
63870K0J4 0J420160708221510807/08/16 22:15:31  5-MIN K0J4 090315Z AUTO 22005KT 10SM CLR 27/23 A3008 170 79 1600 220/05 RMK AO2 T02670228
63870K0J4 0J420160708222010807/08/16 22:20:31  5-MIN K0J4 090320Z AUTO 22004KT 10SM CLR 27/23 A3008 170 79 1600 220/04 RMK AO2 T02670228
63870K0J4 0J420160708222510807/08/16 22:25:31  5-MIN K0J4 090325Z AUTO 22004KT 10SM CLR 27/23 A3008 170 79 1600 220/04 RMK AO2 T02670228
63870K0J4 0J420160708223010807/08/16 22:30:31  5-MIN K0J4 090330Z AUTO 23004KT 10SM CLR 27/23 A3009 160 79 1600 230/04 RMK AO2 T02670228
63870K0J4 0J420160708223510807/08/16 22:35:31  5-MIN K0J4 090335Z AUTO 23004KT 10SM CLR 27/23 A3009 160 79 1600 230/04 RMK AO2 T02670228
63870K0J4 0J420160708224010807/08/16 22:40:31  5-MIN K0J4 090340Z AUTO 22004KT 10SM CLR 26/23 A3009 160 81 1500 220/04 RMK AO2 T02610228
63870K0J4 0J420160708224510807/08/16 22:45:31  5-MIN K0J4 090345Z AUTO 23003KT 10SM CLR 26/23 A3009 160 84 1500 230/03 RMK AO2 T02610233
63870K0J4 0J420160708225010807/08/16 22:50:31  5-MIN K0J4 090350Z AUTO 23004KT 10SM CLR 26/23 A3009 160 84 1500 230/04 RMK AO2 T02610233
63870K0J4 0J420160708225511507/08/16 22:55:31  5-MIN K0J4 090355Z AUTO 23003KT 10SM CLR 26/23 A3009 160 84 1500 230/03 RMK AO2 SLP183 T02610233
63870K0J4 0J420160708230010807/08/16 23:00:31  5-MIN K0J4 090400Z AUTO 23004KT 10SM CLR 26/23 A3009 160 84 1500 230/04 RMK AO2 T02610233
63870K0J4 0J420160708230510807/08/16 23:05:31  5-MIN K0J4 090405Z AUTO 23004KT 10SM CLR 26/23 A3008 160 84 1500 230/04 RMK AO2 T02610233
63870K0J4 0J420160708231010807/08/16 23:10:31  5-MIN K0J4 090410Z AUTO 22004KT 10SM CLR 26/23 A3008 170 84 1500 220/04 RMK AO2 T02610233
63870K0J4 0J420160708231510807/08/16 23:15:31  5-MIN K0J4 090415Z AUTO 21005KT 10SM CLR 26/23 A3008 170 84 1500 210/05 RMK AO2 T02610233
63870K0J4 0J420160708232010807/08/16 23:20:31  5-MIN K0J4 090420Z AUTO 22004KT 10SM CLR 26/23 A3008 170 87 1500 220/04 RMK AO2 T02560233
63870K0J4 0J420160708232510807/08/16 23:25:31  5-MIN K0J4 090425Z AUTO 22003KT 10SM CLR 26/23 A3009 160 87 1500 220/03 RMK AO2 T02560233
63870K0J4 0J420160708233010807/08/16 23:30:31  5-MIN K0J4 090430Z AUTO 23004KT 10SM CLR 26/23 A3008 170 84 1500 230/04 RMK AO2 T02610233
63870K0J4 0J420160708233511107/08/16 23:35:31  5-MIN K0J4 090435Z AUTO 00000KT 10SM FEW070 26/23 A3009 160 84 1500 000/00 RMK AO2 T02610233
63870K0J4 0J420160708234011107/08/16 23:40:31  5-MIN K0J4 090440Z AUTO 00000KT 10SM SCT070 26/23 A3009 160 84 1500 000/00 RMK AO2 T02610233
63870K0J4 0J420160708234511107/08/16 23:45:31  5-MIN K0J4 090445Z AUTO 00000KT 10SM BKN070 26/23 A3009 160 84 1500 000/00 RMK AO2 T02610233
63870K0J4 0J420160708235011107/08/16 23:50:31  5-MIN K0J4 090450Z AUTO 23003KT 10SM BKN070 26/23 A3008 160 84 1500 230/03 RMK AO2 T02610233
63870K0J4 0J420160708235512807/08/16 23:55:31  5-MIN K0J4 090455Z AUTO 22004KT 10SM BKN070 26/23 A3008 170 84 1500 220/04 RMK AO2 SLP181 T02610233 403560239
63870K0J4 0J420160709000011107/09/16 00:00:31  5-MIN K0J4 090500Z AUTO 22004KT 10SM OVC070 26/23 A3008 170 84 1500 220/04 RMK AO2 T02610233
63870K0J4 0J420160709000511107/09/16 00:05:31  5-MIN K0J4 090505Z AUTO 23004KT 10SM OVC070 26/23 A3008 170 84 1500 230/04 RMK AO2 T02610233
63870K0J4 0J420160709001011107/09/16 00:10:31  5-MIN K0J4 090510Z AUTO 22005KT 10SM OVC070 26/23 A3008 170 84 1500 220/05 RMK AO2 T02610233
63870K0J4 0J420160709001511107/09/16 00:15:31  5-MIN K0J4 090515Z AUTO 22005KT 10SM BKN070 26/23 A3008 170 84 1500 220/05 RMK AO2 T02610233
63870K0J4 0J420160709002011107/09/16 00:20:31  5-MIN K0J4 090520Z AUTO 23004KT 10SM BKN070 26/23 A3008 170 87 1500 230/04 RMK AO2 T02560233
63870K0J4 0J420160709002511107/09/16 00:25:31  5-MIN K0J4 090525Z AUTO 22004KT 10SM SCT070 26/23 A3008 170 87 1500 220/04 RMK AO2 T02560233
63870K0J4 0J420160709003011107/09/16 00:30:31  5-MIN K0J4 090530Z AUTO 22004KT 10SM FEW070 26/23 A3008 170 87 1500 220/04 RMK AO2 T02560233
63870K0J4 0J420160709003511107/09/16 00:35:31  5-MIN K0J4 090535Z AUTO 23004KT 10SM FEW070 26/23 A3008 170 87 1500 230/04 RMK AO2 T02560233
63870K0J4 0J420160709004010807/09/16 00:40:31  5-MIN K0J4 090540Z AUTO 22004KT 10SM CLR 26/23 A3008 170 87 1500 220/04 RMK AO2 T02560233
63870K0J4 0J420160709004510807/09/16 00:45:31  5-MIN K0J4 090545Z AUTO 22004KT 10SM CLR 26/23 A3007 170 87 1500 220/04 RMK AO2 T02560233
63870K0J4 0J420160709005010807/09/16 00:50:31  5-MIN K0J4 090550Z AUTO 23004KT 10SM CLR 26/23 A3008 170 87 1500 230/04 RMK AO2 T02560233
63870K0J4 0J420160709005513307/09/16 00:55:31  5-MIN K0J4 090555Z AUTO VRB03KT 10SM CLR 26/23 A3008 170 87 1500 VRB/03 RMK AO2 SLP180 T02560233 10300 20256 53012
63870K0J4 0J420160709010010807/09/16 01:00:31  5-MIN K0J4 090600Z AUTO 00000KT 10SM CLR 26/23 A3008 170 87 1500 000/00 RMK AO2 T02560233
63870K0J4 0J420160709010510807/09/16 01:05:31  5-MIN K0J4 090605Z AUTO 23004KT 10SM CLR 26/23 A3008 170 87 1500 230/04 RMK AO2 T02560233
63870K0J4 0J420160709011010807/09/16 01:10:31  5-MIN K0J4 090610Z AUTO 00000KT 10SM CLR 26/23 A3007 170 87 1500 000/00 RMK AO2 T02560233
63870K0J4 0J420160709011510807/09/16 01:15:31  5-MIN K0J4 090615Z AUTO 23003KT 10SM CLR 26/23 A3007 170 87 1500 230/03 RMK AO2 T02560233
63870K0J4 0J420160709012010807/09/16 01:20:31  5-MIN K0J4 090620Z AUTO 22003KT 10SM CLR 26/23 A3007 180 87 1500 220/03 RMK AO2 T02560233
63870K0J4 0J420160709012510807/09/16 01:25:31  5-MIN K0J4 090625Z AUTO 22003KT 10SM CLR 26/23 A3007 180 87 1500 220/03 RMK AO2 T02560233
63870K0J4 0J420160709013010807/09/16 01:30:31  5-MIN K0J4 090630Z AUTO 23004KT 10SM CLR 26/23 A3007 180 84 1500 230/04 RMK AO2 T02560228
63870K0J4 0J420160709013510807/09/16 01:35:31  5-MIN K0J4 090635Z AUTO 22004KT 10SM CLR 25/23 A3007 180 87 1400 220/04 RMK AO2 T02500228
63870K0J4 0J420160709014010807/09/16 01:40:31  5-MIN K0J4 090640Z AUTO 22004KT 10SM CLR 25/23 A3007 180 87 1400 220/04 RMK AO2 T02500228
63870K0J4 0J420160709014510807/09/16 01:45:31  5-MIN K0J4 090645Z AUTO 23003KT 10SM CLR 25/23 A3007 180 87 1400 230/03 RMK AO2 T02500228
63870K0J4 0J420160709015010807/09/16 01:50:31  5-MIN K0J4 090650Z AUTO 00000KT 10SM CLR 25/23 A3007 180 87 1400 000/00 RMK AO2 T02500228
63870K0J4 0J420160709015511507/09/16 01:55:31  5-MIN K0J4 090655Z AUTO 23003KT 10SM CLR 25/23 A3007 170 87 1400 230/03 RMK AO2 SLP178 T02500228
63870K0J4 0J420160709020010807/09/16 02:00:31  5-MIN K0J4 090700Z AUTO 00000KT 10SM CLR 25/23 A3007 170 87 1400 000/00 RMK AO2 T02500228
63870K0J4 0J420160709020510807/09/16 02:05:31  5-MIN K0J4 090705Z AUTO 00000KT 10SM CLR 25/23 A3007 170 87 1400 000/00 RMK AO2 T02500228
63870K0J4 0J420160709021010807/09/16 02:10:31  5-MIN K0J4 090710Z AUTO 00000KT 10SM CLR 25/23 A3007 170 87 1400 000/00 RMK AO2 T02500228
63870K0J4 0J420160709021510807/09/16 02:15:31  5-MIN K0J4 090715Z AUTO 00000KT 10SM CLR 25/23 A3008 170 87 1400 000/00 RMK AO2 T02500228
63870K0J4 0J420160709022010807/09/16 02:20:31  5-MIN K0J4 090720Z AUTO 00000KT 10SM CLR 25/23 A3007 170 87 1400 000/00 RMK AO2 T02500228
63870K0J4 0J420160709022510807/09/16 02:25:31  5-MIN K0J4 090725Z AUTO 00000KT 10SM CLR 25/23 A3008 170 87 1400 000/00 RMK AO2 T02500228
63870K0J4 0J420160709023010807/09/16 02:30:31  5-MIN K0J4 090730Z AUTO 00000KT 10SM CLR 24/23 A3007 170 90 1400 000/00 RMK AO2 T02440228
63870K0J4 0J420160709023510807/09/16 02:35:31  5-MIN K0J4 090735Z AUTO 00000KT 10SM CLR 24/23 A3007 180 90 1400 000/00 RMK AO2 T02440228
63870K0J4 0J420160709024010807/09/16 02:40:31  5-MIN K0J4 090740Z AUTO 00000KT 10SM CLR 24/23 A3007 180 90 1400 000/00 RMK AO2 T02440228
63870K0J4 0J420160709024510807/09/16 02:45:31  5-MIN K0J4 090745Z AUTO 00000KT 10SM CLR 24/23 A3007 180 90 1400 000/00 RMK AO2 T02440228
63870K0J4 0J420160709025010807/09/16 02:50:31  5-MIN K0J4 090750Z AUTO 00000KT 10SM CLR 24/23 A3007 180 90 1400 000/00 RMK AO2 T02440228
63870K0J4 0J420160709025511507/09/16 02:55:31  5-MIN K0J4 090755Z AUTO 00000KT 10SM CLR 24/23 A3007 180 90 1400 000/00 RMK AO2 SLP177 T02440228
63870K0J4 0J420160709030010807/09/16 03:00:31  5-MIN K0J4 090800Z AUTO 00000KT 10SM CLR 25/23 A3007 180 87 1400 000/00 RMK AO2 T02500228
63870K0J4 0J420160709030510807/09/16 03:05:31  5-MIN K0J4 090805Z AUTO 00000KT 10SM CLR 24/23 A3007 180 90 1400 000/00 RMK AO2 T02440228
63870K0J4 0J420160709031010807/09/16 03:10:31  5-MIN K0J4 090810Z AUTO 21003KT 10SM CLR 24/23 A3007 180 90 1400 210/03 RMK AO2 T02440228
63870K0J4 0J420160709031510807/09/16 03:15:31  5-MIN K0J4 090815Z AUTO 22003KT 10SM CLR 24/23 A3007 180 90 1400 220/03 RMK AO2 T02440228
63870K0J4 0J420160709032010807/09/16 03:20:31  5-MIN K0J4 090820Z AUTO 00000KT 10SM CLR 24/23 A3007 180 93 1300 000/00 RMK AO2 T02390228
63870K0J4 0J420160709032510807/09/16 03:25:31  5-MIN K0J4 090825Z AUTO 21003KT 10SM CLR 24/23 A3007 180 93 1300 210/03 RMK AO2 T02390228
63870K0J4 0J420160709033010807/09/16 03:30:31  5-MIN K0J4 090830Z AUTO 00000KT 10SM CLR 24/23 A3007 180 93 1300 000/00 RMK AO2 T02390228
63870K0J4 0J420160709033510807/09/16 03:35:31  5-MIN K0J4 090835Z AUTO 00000KT 10SM CLR 24/23 A3007 180 93 1300 000/00 RMK AO2 T02390228
63870K0J4 0J420160709034010807/09/16 03:40:31  5-MIN K0J4 090840Z AUTO 23003KT 10SM CLR 24/23 A3007 180 93 1300 230/03 RMK AO2 T02390228
63870K0J4 0J420160709034510807/09/16 03:45:31  5-MIN K0J4 090845Z AUTO 00000KT 10SM CLR 24/23 A3007 180 93 1300 000/00 RMK AO2 T02390228
63870K0J4 0J420160709035010807/09/16 03:50:31  5-MIN K0J4 090850Z AUTO 00000KT 10SM CLR 24/23 A3007 180 93 1300 000/00 RMK AO2 T02390228
63870K0J4 0J420160709035512107/09/16 03:55:31  5-MIN K0J4 090855Z AUTO 22003KT 10SM CLR 24/23 A3007 180 93 1300 220/03 RMK AO2 SLP177 T02390228 58001
63870K0J4 0J420160709040010807/09/16 04:00:31  5-MIN K0J4 090900Z AUTO 22003KT 10SM CLR 24/23 A3007 180 90 1400 220/03 RMK AO2 T02440228
63870K0J4 0J420160709040510807/09/16 04:05:31  5-MIN K0J4 090905Z AUTO 00000KT 10SM CLR 24/23 A3007 180 90 1400 000/00 RMK AO2 T02440228
63870K0J4 0J420160709041010807/09/16 04:10:31  5-MIN K0J4 090910Z AUTO 24003KT 10SM CLR 24/23 A3007 180 93 1300 240/03 RMK AO2 T02390228
63870K0J4 0J420160709041512407/09/16 04:15:31  5-MIN K0J4 090915Z AUTO 00000KT 10SM -RA CLR 24/23 A3007 180 93 1300 000/00 RMK AO2 RAB12 P0000 T02390228
63870K0J4 0J420160709042012307/09/16 04:20:31  5-MIN K0J4 090920Z AUTO 00000KT 10SM CLR 24/23 A3007 180 93 1300 000/00 RMK AO2 RAB12E17 P0000 T02390228
63870K0J4 0J420160709042512307/09/16 04:25:31  5-MIN K0J4 090925Z AUTO 00000KT 10SM CLR 24/23 A3007 170 93 1300 000/00 RMK AO2 RAB12E17 P0000 T02390228
63870K0J4 0J420160709043012307/09/16 04:30:31  5-MIN K0J4 090930Z AUTO 00000KT 10SM CLR 24/23 A3007 180 93 1300 000/00 RMK AO2 RAB12E17 P0000 T02390228
63870K0J4 0J420160709043512307/09/16 04:35:31  5-MIN K0J4 090935Z AUTO 23003KT 10SM CLR 24/23 A3007 180 93 1300 230/03 RMK AO2 RAB12E17 P0000 T02390228
63870K0J4 0J420160709044012307/09/16 04:40:31  5-MIN K0J4 090940Z AUTO 22004KT 10SM CLR 24/23 A3007 170 93 1300 220/04 RMK AO2 RAB12E17 P0000 T02390228
63870K0J4 0J420160709044512307/09/16 04:45:31  5-MIN K0J4 090945Z AUTO 22005KT 10SM CLR 24/23 A3007 170 93 1300 220/05 RMK AO2 RAB12E17 P0000 T02390228
63870K0J4 0J420160709045012307/09/16 04:50:31  5-MIN K0J4 090950Z AUTO 22004KT 10SM CLR 24/23 A3007 170 93 1300 220/04 RMK AO2 RAB12E17 P0000 T02390228
63870K0J4 0J420160709045513007/09/16 04:55:31  5-MIN K0J4 090955Z AUTO 00000KT 10SM CLR 24/23 A3008 170 93 1300 000/00 RMK AO2 RAB12E17 SLP181 P0000 T02390228
63870K0J4 0J420160709050010807/09/16 05:00:31  5-MIN K0J4 091000Z AUTO 00000KT 10SM CLR 24/23 A3008 170 93 1300 000/00 RMK AO2 T02390228
63870K0J4 0J420160709050510807/09/16 05:05:31  5-MIN K0J4 091005Z AUTO 00000KT 10SM CLR 24/23 A3008 170 93 1300 000/00 RMK AO2 T02390228
63870K0J4 0J420160709051010807/09/16 05:10:31  5-MIN K0J4 091010Z AUTO 00000KT 10SM CLR 24/23 A3008 170 90 1300 000/00 RMK AO2 T02440228
63870K0J4 0J420160711115513407/11/16 11:55:31  5-MIN K0J4 111655Z AUTO 00000KT 7SM -TSRA BKN026 BKN046 OVC110 24/23 A3016 90 93 1200 000/00 RMK AO2 TSB02B03 P0018
63870K0J4 0J420160711120014307/11/16 12:00:31  5-MIN K0J4 111700Z AUTO 00000KT 10SM -TSRA BKN026 BKN080 OVC110 24/23 A3018 80 90 1200 000/00 RMK AO2 PRESRR P0000 T02440228
63870K0J4 0J420160711120513607/11/16 12:05:31  5-MIN K0J4 111705Z AUTO 04005KT 10SM -TSRA FEW010 BKN026 OVC100 24/23 A3017 90 90 1200 040/05 RMK AO2 P0000 T02440228
63870K0J4 0J420160711121013707/11/16 12:10:31  5-MIN K0J4 111710Z AUTO 06006KT 10SM -TSRA FEW010 BKN027 OVC100 24/23 A3016 100 90 1300 060/06 RMK AO2 P0000 T02440228
63870K0J4 0J420160711121513707/11/16 12:15:31  5-MIN K0J4 111715Z AUTO 09004KT 10SM -TSRA FEW010 BKN027 OVC100 24/23 A3015 100 93 1200 090/04 RMK AO2 P0000 T02390228
63870K0J4 0J420160711122014407/11/16 12:20:31  5-MIN K0J4 111720Z AUTO 11005KT 10SM -TSRA FEW010 SCT025 BKN033 24/23 A3015 110 93 1200 110/05 RMK AO2 PRESFR P0000 T02390228
63870K0J4 0J420160711122513707/11/16 12:25:31  5-MIN K0J4 111725Z AUTO 08007KT 10SM -TSRA FEW010 SCT028 SCT100 24/22 A3015 110 90 1200 080/07 RMK AO2 P0000 T02390222
63870K0J4 0J420160711123013707/11/16 12:30:31  5-MIN K0J4 111730Z AUTO 03005KT 10SM -TSRA FEW010 SCT038 SCT100 24/23 A3015 100 90 1300 030/05 RMK AO2 P0000 T02440228
63870K0J4 0J420160711123513607/11/16 12:35:31  5-MIN K0J4 111735Z AUTO 02003KT 2 1/2SM -TSRA BR FEW010 FEW100 24/23 A3015 100 90 1300 020/03 RMK AO2 P0000 T02440228
63870K0J4 0J420160711124013607/11/16 12:40:31  5-MIN K0J4 111740Z AUTO 07004KT 2 1/2SM -TSRA BR FEW010 SCT110 24/22 A3014 110 90 1200 070/04 RMK AO2 P0000 T02390222
63870K0J4 0J420160711124513007/11/16 12:45:31  5-MIN K0J4 111745Z AUTO 09003KT 10SM -TSRA SCT110 24/22 A3013 130 90 1200 090/03 RMK AO2 PRESFR P0000 T02390222
63870K0J4 0J420160711125012307/11/16 12:50:31  5-MIN K0J4 111750Z AUTO 16004KT 10SM -TSRA SCT110 24/22 A3012 130 87 1200 160/04 RMK AO2 P0000 T02390217
63870K0J4 0J420160711125515407/11/16 12:55:31  5-MIN K0J4 111755Z AUTO 00000KT 10SM -TSRA BKN110 24/22 A3012 130 87 1200 000/00 RMK AO2 SLP195 P0000 60018 T02390217 10306 20228 50005
63870K0J4 0J420160711130013707/11/16 13:00:31  5-MIN K0J4 111800Z AUTO 17004KT 10SM -TSRA FEW070 SCT095 BKN110 24/22 A3012 130 87 1200 170/04 RMK AO2 P0000 T02390217
63870K0J4 0J420160711130514107/11/16 13:05:31  5-MIN K0J4 111805Z AUTO 18007KT 10SM -RA FEW042 SCT070 BKN100 24/22 A3013 120 87 1200 180/07 RMK AO2 TSE04 P0000 T02390217
63870K0J4 0J420160711131013607/11/16 13:10:31  5-MIN K0J4 111810Z AUTO 20005KT 10SM -TSRA FEW042 BKN100 24/22 A3013 120 90 1200 200/05 RMK AO2 TSE04 P0000 T02390222
63870K0J4 0J420160711131514307/11/16 13:15:31  5-MIN K0J4 111815Z AUTO 20004KT 10SM -TSRA FEW042 SCT095 SCT120 24/23 A3013 120 93 1200 200/04 RMK AO2 TSE04 P0000 T02390228
63870K0J4 0J420160711132008807/11/16 13:20:31  5-MIN K0J4 111820Z AUTO 00000KT TS M M M 000/00 RMK AO2 TSE04 P0000 $
63870K0J4 0J420160711132511907/11/16 13:25:31  5-MIN K0J4 111825Z AUTO 00000KT TS 24/23 A3013 120 93 1200 000/00 RMK AO2 TSE04B22 P0000 T02390228 $
63870K0J4 0J420160711133012407/11/16 13:30:31  5-MIN K0J4 111830Z AUTO VRB03KT 10SM TS 24/23 A3013 120 90 1300 VRB/03 RMK AO2 TSE04B22 P0000 T02440228 $
63870K0J4 0J420160711133512407/11/16 13:35:31  5-MIN K0J4 111835Z AUTO VRB03KT 10SM TS 24/23 A3013 120 90 1300 VRB/03 RMK AO2 TSE04B22 P0000 T02440228 $
63870K0J4 0J420160711134012407/11/16 13:40:31  5-MIN K0J4 111840Z AUTO VRB03KT 10SM 24/23 A3013 130 90 1300 VRB/03 RMK AO2 TSE04B22E37 P0000 T02440228 $
63870K0J4 0J420160711134512407/11/16 13:45:31  5-MIN K0J4 111845Z AUTO 19004KT 10SM 24/23 A3013 120 90 1300 190/04 RMK AO2 TSE04B22E37 P0000 T02440228 $
63870K0J4 0J420160711135013107/11/16 13:50:31  5-MIN K0J4 111850Z AUTO 18003KT 10SM FEW060 25/23 A3013 120 90 1300 180/03 RMK AO2 TSE04B22E37 P0000 T02500233 $
63870K0J4 0J420160711135513807/11/16 13:55:31  5-MIN K0J4 111855Z AUTO 00000KT 10SM FEW060 25/23 A3013 120 90 1300 000/00 RMK AO2 TSE04B22E37 SLP199 P0000 T02500233 $
63870K0J4 0J420160711140011007/11/16 14:00:31  5-MIN K0J4 111900Z AUTO 19003KT 10SM CLR 25/23 A3013 120 90 1400 190/03 RMK AO2 T02500233 $
63870K0J4 0J420160711140511007/11/16 14:05:31  5-MIN K0J4 111905Z AUTO 20004KT 10SM CLR 25/23 A3013 130 90 1400 200/04 RMK AO2 T02500233 $
63870K0J4 0J420160711141011007/11/16 14:10:31  5-MIN K0J4 111910Z AUTO 16006KT 10SM CLR 25/23 A3013 130 90 1400 160/06 RMK AO2 T02500233 $
63870K0J4 0J420160711141511007/11/16 14:15:31  5-MIN K0J4 111915Z AUTO 18006KT 10SM CLR 25/23 A3013 130 90 1400 180/06 RMK AO2 T02500233 $
63870K0J4 0J420160711142011007/11/16 14:20:31  5-MIN K0J4 111920Z AUTO 18006KT 10SM CLR 25/23 A3013 130 87 1400 180/06 RMK AO2 T02500228 $
63870K0J4 0J420160711142511007/11/16 14:25:31  5-MIN K0J4 111925Z AUTO 19006KT 10SM CLR 26/23 A3013 130 87 1400 190/06 RMK AO2 T02560233 $
63870K0J4 0J420160711143011007/11/16 14:30:31  5-MIN K0J4 111930Z AUTO 21006KT 10SM CLR 26/23 A3013 130 84 1400 210/06 RMK AO2 T02560228 $
63870K0J4 0J420160711143511007/11/16 14:35:31  5-MIN K0J4 111935Z AUTO 19005KT 10SM CLR 26/23 A3012 130 84 1400 190/05 RMK AO2 T02560228 $
63870K0J4 0J420160711144011007/11/16 14:40:31  5-MIN K0J4 111940Z AUTO 19005KT 10SM CLR 26/23 A3013 130 84 1400 190/05 RMK AO2 T02560228 $
63870K0J4 0J420160711144511007/11/16 14:45:31  5-MIN K0J4 111945Z AUTO 18005KT 10SM CLR 26/22 A3012 130 79 1400 180/05 RMK AO2 T02560217 $
63870K0J4 0J420160711145011007/11/16 14:50:31  5-MIN K0J4 111950Z AUTO 18004KT 10SM CLR 26/22 A3012 130 79 1500 180/04 RMK AO2 T02610222 $
63870K0J4 0J420160711145511707/11/16 14:55:31  5-MIN K0J4 111955Z AUTO 16004KT 10SM CLR 26/22 A3012 130 79 1500 160/04 RMK AO2 SLP196 T02610222 $
63870K0J4 0J420160711150011007/11/16 15:00:31  5-MIN K0J4 112000Z AUTO 19004KT 10SM CLR 26/22 A3012 130 76 1500 190/04 RMK AO2 T02610217 $
63870K0J4 0J420160711150511007/11/16 15:05:31  5-MIN K0J4 112005Z AUTO 14004KT 10SM CLR 26/22 A3012 140 76 1500 140/04 RMK AO2 T02610217 $
63870K0J4 0J420160711151011007/11/16 15:10:31  5-MIN K0J4 112010Z AUTO 16004KT 10SM CLR 26/22 A3011 140 76 1500 160/04 RMK AO2 T02610217 $
63870K0J4 0J420160711151511707/11/16 15:15:31  5-MIN K0J4 112015Z AUTO 12003KT 10SM CLR 26/22 A3010 150 79 1500 120/03 RMK AO2 PRESFR T02610222 $
63870K0J4 0J420160711152011007/11/16 15:20:31  5-MIN K0J4 112020Z AUTO 13003KT 10SM CLR 27/22 A3010 150 76 1600 130/03 RMK AO2 T02670222 $
63870K0J4 0J420160711152511007/11/16 15:25:31  5-MIN K0J4 112025Z AUTO 00000KT 10SM CLR 27/22 A3010 150 76 1600 000/00 RMK AO2 T02670222 $
63870K0J4 0J420160711153011007/11/16 15:30:31  5-MIN K0J4 112030Z AUTO 12003KT 10SM CLR 27/22 A3010 150 76 1600 120/03 RMK AO2 T02670222 $
63870K0J4 0J420160711153511007/11/16 15:35:31  5-MIN K0J4 112035Z AUTO VRB03KT 10SM CLR 27/22 A3009 160 76 1600 VRB/03 RMK AO2 T02670222 $
63870K0J4 0J420160711154011007/11/16 15:40:31  5-MIN K0J4 112040Z AUTO 16004KT 10SM CLR 27/23 A3009 160 79 1600 160/04 RMK AO2 T02670228 $
63870K0J4 0J420160711154507007/11/16 15:45:31  5-MIN K0J4 112045Z AUTO M M M M /M RMK AO2 FZRANO $
63870K0J4 0J420160711155010107/11/16 15:50:31  5-MIN K0J4 112050Z AUTO 14004KT 27/22 A3010 150 74 1600 140/04 RMK AO2 T02720222 $
63870K0J4 0J420160711155511907/11/16 15:55:31  5-MIN K0J4 112055Z AUTO 14003KT 10SM 27/22 A3010 150 76 1600 140/03 RMK AO2 SLP188 60000 T02670222 $
63870K0J4 0J420160711160010607/11/16 16:00:31  5-MIN K0J4 112100Z AUTO 18003KT 10SM 27/23 A3010 150 79 1600 180/03 RMK AO2 T02670228 $
63870K0J4 0J420160711160510407/11/16 16:05:31  5-MIN K0J4 112105Z AUTO 00000KT 10SM 27/23 A3011 140 76 1600 000/00 RMK AO2 T02720228
63870K0J4 0J420160711161010407/11/16 16:10:31  5-MIN K0J4 112110Z AUTO 00000KT 10SM 28/23 A3011 140 74 1700 000/00 RMK AO2 T02780228
63870K0J4 0J420160711161510807/11/16 16:15:31  5-MIN K0J4 112115Z AUTO 20003KT 10SM CLR 27/22 A3011 150 74 1600 200/03 RMK AO2 T02720222
63870K0J4 0J420160711162010807/11/16 16:20:31  5-MIN K0J4 112120Z AUTO 19004KT 10SM CLR 27/23 A3010 150 76 1600 190/04 RMK AO2 T02720228
63870K0J4 0J420160711162510807/11/16 16:25:31  5-MIN K0J4 112125Z AUTO 19004KT 10SM CLR 27/23 A3010 150 76 1600 190/04 RMK AO2 T02720228
63870K0J4 0J420160711163010807/11/16 16:30:31  5-MIN K0J4 112130Z AUTO 20004KT 10SM CLR 27/23 A3010 150 76 1600 200/04 RMK AO2 T02720228
63870K0J4 0J420160711163510807/11/16 16:35:31  5-MIN K0J4 112135Z AUTO 00000KT 10SM CLR 28/23 A3010 150 74 1700 000/00 RMK AO2 T02780228
63870K0J4 0J420160711164011107/11/16 16:40:31  5-MIN K0J4 112140Z AUTO 00000KT 10SM FEW090 28/23 A3010 150 74 1700 000/00 RMK AO2 T02780228
63870K0J4 0J420160711164511107/11/16 16:45:31  5-MIN K0J4 112145Z AUTO 19003KT 10SM FEW090 28/23 A3009 160 71 1800 190/03 RMK AO2 T02830228
63870K0J4 0J420160711165011107/11/16 16:50:31  5-MIN K0J4 112150Z AUTO 00000KT 10SM FEW090 28/23 A3010 150 74 1700 000/00 RMK AO2 T02780228
63870K0J4 0J420160711165511807/11/16 16:55:31  5-MIN K0J4 112155Z AUTO 00000KT 10SM FEW090 28/23 A3009 160 71 1800 000/00 RMK AO2 SLP186 T02830228
63870K0J4 0J420160711170011107/11/16 17:00:31  5-MIN K0J4 112200Z AUTO 00000KT 10SM FEW090 28/23 A3009 160 74 1700 000/00 RMK AO2 T02780228
63870K0J4 0J420160711170511107/11/16 17:05:31  5-MIN K0J4 112205Z AUTO 16004KT 10SM FEW090 28/23 A3009 160 76 1700 160/04 RMK AO2 T02780233
63870K0J4 0J420160711171010807/11/16 17:10:31  5-MIN K0J4 112210Z AUTO 18003KT 10SM CLR 28/23 A3009 160 74 1700 180/03 RMK AO2 T02780228
63870K0J4 0J420160711171510807/11/16 17:15:31  5-MIN K0J4 112215Z AUTO 17003KT 10SM CLR 28/23 A3009 160 74 1700 170/03 RMK AO2 T02780228
63870K0J4 0J420160711172010807/11/16 17:20:31  5-MIN K0J4 112220Z AUTO 14003KT 10SM CLR 28/23 A3009 160 76 1700 140/03 RMK AO2 T02780233
63870K0J4 0J420160711172510807/11/16 17:25:31  5-MIN K0J4 112225Z AUTO 16003KT 10SM CLR 28/23 A3009 160 76 1700 160/03 RMK AO2 T02780233
63870K0J4 0J420160711173010807/11/16 17:30:31  5-MIN K0J4 112230Z AUTO 15003KT 10SM CLR 28/23 A3009 160 76 1700 150/03 RMK AO2 T02780233
63870K0J4 0J420160711173510807/11/16 17:35:31  5-MIN K0J4 112235Z AUTO 14004KT 10SM CLR 28/23 A3009 160 76 1700 140/04 RMK AO2 T02780233
63870K0J4 0J420160711174010807/11/16 17:40:31  5-MIN K0J4 112240Z AUTO 15004KT 10SM CLR 28/23 A3009 160 76 1700 150/04 RMK AO2 T02780233
63870K0J4 0J420160711174510807/11/16 17:45:31  5-MIN K0J4 112245Z AUTO 18003KT 10SM CLR 28/23 A3009 160 76 1700 180/03 RMK AO2 T02780233
63870K0J4 0J420160711175010807/11/16 17:50:31  5-MIN K0J4 112250Z AUTO 19003KT 10SM CLR 28/23 A3009 160 76 1700 190/03 RMK AO2 T02780233
63870K0J4 0J420160711175511507/11/16 17:55:31  5-MIN K0J4 112255Z AUTO 00000KT 10SM CLR 28/23 A3009 160 76 1700 000/00 RMK AO2 SLP186 T02780233
63870K0J4 0J420160711180010807/11/16 18:00:31  5-MIN K0J4 112300Z AUTO 15003KT 10SM CLR 28/23 A3009 160 76 1700 150/03 RMK AO2 T02780233
63870K0J4 0J420160711180510807/11/16 18:05:31  5-MIN K0J4 112305Z AUTO 14004KT 10SM CLR 27/24 A3009 160 82 1600 140/04 RMK AO2 T02720239
63870K0J4 0J420160711181010807/11/16 18:10:31  5-MIN K0J4 112310Z AUTO 00000KT 10SM CLR 27/24 A3009 160 82 1600 000/00 RMK AO2 T02720239
63870K0J4 0J420160711181510807/11/16 18:15:31  5-MIN K0J4 112315Z AUTO 00000KT 10SM CLR 27/24 A3009 160 82 1600 000/00 RMK AO2 T02720239
63870K0J4 0J420160711182010807/11/16 18:20:31  5-MIN K0J4 112320Z AUTO 15003KT 10SM CLR 27/23 A3009 160 79 1600 150/03 RMK AO2 T02720233
63870K0J4 0J420160711182510807/11/16 18:25:31  5-MIN K0J4 112325Z AUTO 16003KT 10SM CLR 27/24 A3009 160 84 1600 160/03 RMK AO2 T02670239
63870K0J4 0J420160711183010807/11/16 18:30:31  5-MIN K0J4 112330Z AUTO 00000KT 10SM CLR 27/24 A3009 160 84 1600 000/00 RMK AO2 T02670239
63870K0J4 0J420160711183510807/11/16 18:35:31  5-MIN K0J4 112335Z AUTO 00000KT 10SM CLR 27/24 A3009 160 84 1600 000/00 RMK AO2 T02670239
63870K0J4 0J420160711184010807/11/16 18:40:31  5-MIN K0J4 112340Z AUTO 14003KT 10SM CLR 27/24 A3009 160 84 1600 140/03 RMK AO2 T02670239
63870K0J4 0J420160711184510807/11/16 18:45:31  5-MIN K0J4 112345Z AUTO 16003KT 10SM CLR 27/24 A3009 160 84 1600 160/03 RMK AO2 T02670239
63870K0J4 0J420160711185010807/11/16 18:50:31  5-MIN K0J4 112350Z AUTO 15004KT 10SM CLR 27/24 A3008 170 84 1600 150/04 RMK AO2 T02670239
63870K0J4 0J420160711185513307/11/16 18:55:31  5-MIN K0J4 112355Z AUTO 16004KT 10SM CLR 26/24 A3008 170 87 1500 160/04 RMK AO2 SLP181 60000 T02610239 10283 20239
63870K0J4 0J420160711190010807/11/16 19:00:31  5-MIN K0J4 120000Z AUTO 17003KT 10SM CLR 26/24 A3008 170 87 1500 170/03 RMK AO2 T02610239
63870K0J4 0J420160711190510807/11/16 19:05:31  5-MIN K0J4 120005Z AUTO 16003KT 10SM CLR 26/24 A3008 170 87 1500 160/03 RMK AO2 T02610239
63870K0J4 0J420160711191010807/11/16 19:10:31  5-MIN K0J4 120010Z AUTO 16005KT 10SM CLR 26/24 A3008 170 87 1500 160/05 RMK AO2 T02610239
63870K0J4 0J420160711191510807/11/16 19:15:31  5-MIN K0J4 120015Z AUTO 17004KT 10SM CLR 26/24 A3008 170 87 1500 170/04 RMK AO2 T02610239
63870K0J4 0J420160711192010807/11/16 19:20:31  5-MIN K0J4 120020Z AUTO 00000KT 10SM CLR 26/24 A3008 170 87 1500 000/00 RMK AO2 T02610239
63870K0J4 0J420160711192510807/11/16 19:25:31  5-MIN K0J4 120025Z AUTO 18003KT 10SM CLR 26/24 A3008 170 87 1500 180/03 RMK AO2 T02610239
63870K0J4 0J420160711193010807/11/16 19:30:31  5-MIN K0J4 120030Z AUTO 20003KT 10SM CLR 26/24 A3008 170 87 1500 200/03 RMK AO2 T02610239
63870K0J4 0J420160711193510807/11/16 19:35:31  5-MIN K0J4 120035Z AUTO 22003KT 10SM CLR 26/24 A3009 160 90 1500 220/03 RMK AO2 T02560239
63870K0J4 0J420160711194010807/11/16 19:40:31  5-MIN K0J4 120040Z AUTO 00000KT 10SM CLR 26/24 A3009 160 90 1500 000/00 RMK AO2 T02560239
63870K0J4 0J420160711194510807/11/16 19:45:31  5-MIN K0J4 120045Z AUTO 00000KT 10SM CLR 26/24 A3009 160 90 1500 000/00 RMK AO2 T02560239
63870K0J4 0J420160711195010807/11/16 19:50:31  5-MIN K0J4 120050Z AUTO 00000KT 10SM CLR 26/24 A3009 160 90 1500 000/00 RMK AO2 T02560239
63870K0J4 0J420160711195511507/11/16 19:55:31  5-MIN K0J4 120055Z AUTO 00000KT 10SM CLR 26/24 A3009 160 90 1500 000/00 RMK AO2 SLP185 T02560239
63870K0J4 0J420160711200010807/11/16 20:00:31  5-MIN K0J4 120100Z AUTO 00000KT 10SM CLR 26/24 A3009 160 90 1500 000/00 RMK AO2 T02560239
63870K0J4 0J420160711200510807/11/16 20:05:31  5-MIN K0J4 120105Z AUTO 20003KT 10SM CLR 25/24 A3009 160 93 1400 200/03 RMK AO2 T02500239
63870K0J4 0J420160711201010807/11/16 20:10:31  5-MIN K0J4 120110Z AUTO 19004KT 10SM CLR 25/24 A3008 160 93 1400 190/04 RMK AO2 T02500239
63870K0J4 0J420160711201510807/11/16 20:15:31  5-MIN K0J4 120115Z AUTO 20003KT 10SM CLR 26/24 A3008 160 90 1500 200/03 RMK AO2 T02560239
63870K0J4 0J420160711202010807/11/16 20:20:31  5-MIN K0J4 120120Z AUTO 23003KT 10SM CLR 25/24 A3009 160 93 1400 230/03 RMK AO2 T02500239
63870K0J4 0J420160711202510807/11/16 20:25:31  5-MIN K0J4 120125Z AUTO 23004KT 10SM CLR 26/24 A3009 160 90 1500 230/04 RMK AO2 T02560239
63870K0J4 0J420160711203010807/11/16 20:30:31  5-MIN K0J4 120130Z AUTO 00000KT 10SM CLR 26/24 A3009 160 90 1500 000/00 RMK AO2 T02560239
63870K0J4 0J420160711203510807/11/16 20:35:31  5-MIN K0J4 120135Z AUTO 00000KT 10SM CLR 25/23 A3009 160 90 1400 000/00 RMK AO2 T02500233
63870K0J4 0J420160711204010807/11/16 20:40:31  5-MIN K0J4 120140Z AUTO 00000KT 10SM CLR 25/23 A3009 160 90 1400 000/00 RMK AO2 T02500233
63870K0J4 0J420160711204510807/11/16 20:45:31  5-MIN K0J4 120145Z AUTO 24003KT 10SM CLR 25/23 A3010 150 90 1400 240/03 RMK AO2 T02500233
63870K0J4 0J420160711205010807/11/16 20:50:31  5-MIN K0J4 120150Z AUTO 00000KT 10SM CLR 25/23 A3009 160 90 1400 000/00 RMK AO2 T02500233
63870K0J4 0J420160711205511507/11/16 20:55:31  5-MIN K0J4 120155Z AUTO 00000KT 10SM CLR 25/23 A3010 150 90 1400 000/00 RMK AO2 SLP187 T02500233
63870K0J4 0J420160711210010807/11/16 21:00:31  5-MIN K0J4 120200Z AUTO 00000KT 10SM CLR 25/23 A3010 150 90 1400 000/00 RMK AO2 T02500233
63870K0J4 0J420160711210510807/11/16 21:05:31  5-MIN K0J4 120205Z AUTO 00000KT 10SM CLR 25/23 A3010 150 90 1400 000/00 RMK AO2 T02500233
63870K0J4 0J420160711211010807/11/16 21:10:31  5-MIN K0J4 120210Z AUTO 00000KT 10SM CLR 25/23 A3010 150 90 1400 000/00 RMK AO2 T02500233
63870K0J4 0J420160711211510807/11/16 21:15:31  5-MIN K0J4 120215Z AUTO 00000KT 10SM CLR 24/23 A3010 150 93 1300 000/00 RMK AO2 T02440233
63870K0J4 0J420160711212010807/11/16 21:20:31  5-MIN K0J4 120220Z AUTO 00000KT 10SM CLR 24/23 A3011 140 93 1300 000/00 RMK AO2 T02440233
63870K0J4 0J420160711212510807/11/16 21:25:31  5-MIN K0J4 120225Z AUTO 00000KT 10SM CLR 24/23 A3011 140 93 1300 000/00 RMK AO2 T02440233
63870K0J4 0J420160711213010807/11/16 21:30:31  5-MIN K0J4 120230Z AUTO 00000KT 10SM CLR 24/23 A3011 140 93 1300 000/00 RMK AO2 T02440233
63870K0J4 0J420160711213510807/11/16 21:35:31  5-MIN K0J4 120235Z AUTO 00000KT 10SM CLR 24/23 A3011 140 93 1300 000/00 RMK AO2 T02440233
63870K0J4 0J420160711214011107/11/16 21:40:31  5-MIN K0J4 120240Z AUTO 00000KT 10SM FEW034 24/23 A3011 140 93 1300 000/00 RMK AO2 T02440233
63870K0J4 0J420160711214511107/11/16 21:45:31  5-MIN K0J4 120245Z AUTO 00000KT 10SM FEW034 24/23 A3011 140 97 1200 000/00 RMK AO2 T02390233
63870K0J4 0J420160711215011107/11/16 21:50:31  5-MIN K0J4 120250Z AUTO 00000KT 10SM FEW032 24/23 A3011 140 93 1300 000/00 RMK AO2 T02440233
63870K0J4 0J420160711215512407/11/16 21:55:31  5-MIN K0J4 120255Z AUTO 34003KT 10SM FEW032 24/23 A3011 140 93 1300 340/03 RMK AO2 SLP192 T02440233 58008
63870K0J4 0J420160711220011107/11/16 22:00:31  5-MIN K0J4 120300Z AUTO 36003KT 10SM FEW033 24/23 A3011 140 93 1300 360/03 RMK AO2 T02440233
63870K0J4 0J420160711220511107/11/16 22:05:31  5-MIN K0J4 120305Z AUTO 00000KT 10SM FEW033 24/23 A3011 140 93 1300 000/00 RMK AO2 T02440233
63870K0J4 0J420160711221010707/11/16 22:10:31  5-MIN K0J4 120310Z AUTO 00000KT 9SM CLR 24/23 A3011 140 97 1200 000/00 RMK AO2 T02390233
63870K0J4 0J420160711221510707/11/16 22:15:31  5-MIN K0J4 120315Z AUTO 00000KT 9SM CLR 24/23 A3011 140 97 1200 000/00 RMK AO2 T02390233
63870K0J4 0J420160711222010707/11/16 22:20:31  5-MIN K0J4 120320Z AUTO 00000KT 9SM CLR 24/23 A3011 140 97 1200 000/00 RMK AO2 T02390233
63870K0J4 0J420160711222510707/11/16 22:25:31  5-MIN K0J4 120325Z AUTO 00000KT 9SM CLR 24/23 A3011 140 93 1200 000/00 RMK AO2 T02390228
63870K0J4 0J420160711223010707/11/16 22:30:31  5-MIN K0J4 120330Z AUTO 00000KT 9SM CLR 23/23 A3011 140 97 1200 000/00 RMK AO2 T02330228
63870K0J4 0J420160711223510707/11/16 22:35:31  5-MIN K0J4 120335Z AUTO 00000KT 9SM CLR 23/23 A3011 140 97 1200 000/00 RMK AO2 T02330228
63870K0J4 0J420160711224010707/11/16 22:40:31  5-MIN K0J4 120340Z AUTO 00000KT 9SM CLR 24/23 A3011 140 93 1200 000/00 RMK AO2 T02390228
63870K0J4 0J420160711224510707/11/16 22:45:31  5-MIN K0J4 120345Z AUTO 00000KT 9SM CLR 23/23 A3011 140 97 1200 000/00 RMK AO2 T02330228
63870K0J4 0J420160711225010807/11/16 22:50:31  5-MIN K0J4 120350Z AUTO 00000KT 10SM CLR 24/23 A3011 140 93 1200 000/00 RMK AO2 T02390228
63870K0J4 0J420160711225511507/11/16 22:55:31  5-MIN K0J4 120355Z AUTO 00000KT 10SM CLR 23/22 A3011 140 93 1200 000/00 RMK AO2 SLP191 T02330222
63870K0J4 0J420160711230010807/11/16 23:00:31  5-MIN K0J4 120400Z AUTO 00000KT 10SM CLR 23/22 A3011 140 93 1200 000/00 RMK AO2 T02330222
63870K0J4 0J420160711230510707/11/16 23:05:31  5-MIN K0J4 120405Z AUTO 00000KT 9SM CLR 23/23 A3011 140 97 1200 000/00 RMK AO2 T02330228
63870K0J4 0J420160711231010707/11/16 23:10:31  5-MIN K0J4 120410Z AUTO 00000KT 8SM CLR 23/23 A3011 140 97 1200 000/00 RMK AO2 T02330228
63870K0J4 0J420160711231510707/11/16 23:15:31  5-MIN K0J4 120415Z AUTO 16004KT 7SM CLR 23/22 A3010 150 93 1200 160/04 RMK AO2 T02330222
63870K0J4 0J420160711232011007/11/16 23:20:31  5-MIN K0J4 120420Z AUTO 17003KT 6SM BR CLR 23/22 A3010 150 93 1200 170/03 RMK AO2 T02330222
63870K0J4 0J420160711232511007/11/16 23:25:31  5-MIN K0J4 120425Z AUTO 00000KT 6SM BR CLR 23/23 A3010 150 97 1200 000/00 RMK AO2 T02330228
63870K0J4 0J420160711233010707/11/16 23:30:31  5-MIN K0J4 120430Z AUTO 00000KT 7SM CLR 23/23 A3010 150 97 1200 000/00 RMK AO2 T02330228
63870K0J4 0J420160711233510707/11/16 23:35:31  5-MIN K0J4 120435Z AUTO 19003KT 7SM CLR 23/23 A3010 150 97 1200 190/03 RMK AO2 T02330228
63870K0J4 0J420160711234011007/11/16 23:40:31  5-MIN K0J4 120440Z AUTO 00000KT 7SM FEW001 23/23 A3010 150 97 1200 000/00 RMK AO2 T02330228
63870K0J4 0J420160711234511307/11/16 23:45:31  5-MIN K0J4 120445Z AUTO 00000KT 6SM BR FEW001 23/23 A3010 150 97 1200 000/00 RMK AO2 T02330228
63870K0J4 0J420160711235011307/11/16 23:50:31  5-MIN K0J4 120450Z AUTO 00000KT 6SM BR FEW001 23/23 A3010 150 97 1200 000/00 RMK AO2 T02330228
63870K0J4 0J420160711235512707/11/16 23:55:31  5-MIN K0J4 120455Z AUTO 00000KT 7SM FEW001 23/23 A3010 150 97 1200 000/00 RMK AO2 SLP187 T02330228 403060211
63870K0J4 0J420160712000011007/12/16 00:00:31  5-MIN K0J4 120500Z AUTO 00000KT 8SM FEW001 23/23 A3009 160 97 1200 000/00 RMK AO2 T02330228
63870K0J4 0J420160712000511007/12/16 00:05:31  5-MIN K0J4 120505Z AUTO 00000KT 7SM FEW001 23/22 A3009 160 93 1200 000/00 RMK AO2 T02330222
63870K0J4 0J420160712001010707/12/16 00:10:31  5-MIN K0J4 120510Z AUTO 00000KT 7SM CLR 23/23 A3009 160 97 1200 000/00 RMK AO2 T02330228
63870K0J4 0J420160712001510707/12/16 00:15:31  5-MIN K0J4 120515Z AUTO 00000KT 8SM CLR 23/22 A3010 150 97 1100 000/00 RMK AO2 T02280222
63870K0J4 0J420160712002010707/12/16 00:20:31  5-MIN K0J4 120520Z AUTO 00000KT 8SM CLR 23/22 A3010 150 97 1100 000/00 RMK AO2 T02280222
63870K0J4 0J420160712002511007/12/16 00:25:31  5-MIN K0J4 120525Z AUTO 00000KT 5SM BR CLR 23/22 A3010 150 93 1100 000/00 RMK AO2 T02280217
63870K0J4 0J420160712003011007/12/16 00:30:31  5-MIN K0J4 120530Z AUTO 00000KT 5SM BR CLR 23/22 A3010 150 93 1200 000/00 RMK AO2 T02330222
63870K0J4 0J420160712003511007/12/16 00:35:31  5-MIN K0J4 120535Z AUTO 00000KT 6SM BR CLR 23/22 A3010 150 93 1200 000/00 RMK AO2 T02330222
63870K0J4 0J420160712004010707/12/16 00:40:31  5-MIN K0J4 120540Z AUTO 00000KT 7SM CLR 23/22 A3010 150 93 1200 000/00 RMK AO2 T02330222
63870K0J4 0J420160712004511007/12/16 00:45:31  5-MIN K0J4 120545Z AUTO 00000KT 6SM BR CLR 23/22 A3009 160 93 1200 000/00 RMK AO2 T02330222
63870K0J4 0J420160712005010707/12/16 00:50:31  5-MIN K0J4 120550Z AUTO 00000KT 7SM CLR 23/22 A3009 160 93 1200 000/00 RMK AO2 T02330222
63870K0J4 0J420160712005513207/12/16 00:55:31  5-MIN K0J4 120555Z AUTO 00000KT 7SM CLR 23/23 A3009 160 97 1200 000/00 RMK AO2 SLP186 T02330228 10261 20228 53012
63870K0J4 0J420160712010010707/12/16 01:00:31  5-MIN K0J4 120600Z AUTO 00000KT 8SM CLR 23/23 A3009 160 97 1200 000/00 RMK AO2 T02330228
63870K0J4 0J420160712010510707/12/16 01:05:31  5-MIN K0J4 120605Z AUTO 00000KT 8SM CLR 23/23 A3009 160 97 1200 000/00 RMK AO2 T02330228
63870K0J4 0J420160712011010707/12/16 01:10:31  5-MIN K0J4 120610Z AUTO 00000KT 8SM CLR 23/23 A3009 160 97 1200 000/00 RMK AO2 T02330228
63870K0J4 0J420160712011510707/12/16 01:15:31  5-MIN K0J4 120615Z AUTO 00000KT 8SM CLR 23/22 A3009 160 93 1200 000/00 RMK AO2 T02330222
63870K0J4 0J420160712012010707/12/16 01:20:31  5-MIN K0J4 120620Z AUTO 00000KT 7SM CLR 23/22 A3009 160 93 1200 000/00 RMK AO2 T02330222
63870K0J4 0J420160712012510707/12/16 01:25:31  5-MIN K0J4 120625Z AUTO 00000KT 7SM CLR 23/22 A3009 160 93 1200 000/00 RMK AO2 T02330222
63870K0J4 0J420160712013010707/12/16 01:30:31  5-MIN K0J4 120630Z AUTO 00000KT 7SM CLR 23/22 A3009 160 93 1200 000/00 RMK AO2 T02330222
63870K0J4 0J420160712013510707/12/16 01:35:31  5-MIN K0J4 120635Z AUTO 00000KT 7SM CLR 23/22 A3009 160 93 1200 000/00 RMK AO2 T02330222
63870K0J4 0J420160712014010707/12/16 01:40:31  5-MIN K0J4 120640Z AUTO 00000KT 7SM CLR 23/22 A3008 170 93 1200 000/00 RMK AO2 T02330222
63870K0J4 0J420160712014511007/12/16 01:45:31  5-MIN K0J4 120645Z AUTO 00000KT 6SM BR CLR 23/22 A3008 170 97 1100 000/00 RMK AO2 T02280222
63870K0J4 0J420160712015011007/12/16 01:50:31  5-MIN K0J4 120650Z AUTO 00000KT 6SM BR CLR 23/22 A3008 170 97 1100 000/00 RMK AO2 T02280222
63870K0J4 0J420160712015511707/12/16 01:55:31  5-MIN K0J4 120655Z AUTO 00000KT 6SM BR CLR 23/22 A3008 170 93 1200 000/00 RMK AO2 SLP181 T02330222
63870K0J4 0J420160712020011007/12/16 02:00:31  5-MIN K0J4 120700Z AUTO 00000KT 6SM BR CLR 23/22 A3008 170 93 1200 000/00 RMK AO2 T02330222
63870K0J4 0J420160712020511007/12/16 02:05:31  5-MIN K0J4 120705Z AUTO 00000KT 4SM BR CLR 22/22 A3008 170 97 1100 000/00 RMK AO2 T02220217
63870K0J4 0J420160712021011307/12/16 02:10:31  5-MIN K0J4 120710Z AUTO 00000KT 4SM BR FEW002 22/21 A3008 170 97 1000 000/00 RMK AO2 T02170211
63870K0J4 0J420160712021511207/12/16 02:15:31  5-MIN K0J4 120715Z AUTO 00000KT 1SM BR VV003 22/21 A3008 170 93 1100 000/00 RMK AO2 T02220211
63870K0J4 0J420160712022011407/12/16 02:20:31  5-MIN K0J4 120720Z AUTO 00000KT 3/4SM BR VV003 23/22 A3008 170 93 1200 000/00 RMK AO2 T02280217
63870K0J4 0J420160712022511707/12/16 02:25:31  5-MIN K0J4 120725Z AUTO 00000KT 1 1/4SM BR FEW003 23/22 A3008 170 97 1200 000/00 RMK AO2 T02280222
63870K0J4 0J420160712023011307/12/16 02:30:31  5-MIN K0J4 120730Z AUTO 00000KT 4SM BR FEW003 22/21 A3008 170 93 1100 000/00 RMK AO2 T02220211
63870K0J4 0J420160712023511307/12/16 02:35:31  5-MIN K0J4 120735Z AUTO 00000KT 3SM BR FEW003 22/21 A3008 170 93 1100 000/00 RMK AO2 T02220211
63870K0J4 0J420160712024011307/12/16 02:40:31  5-MIN K0J4 120740Z AUTO 00000KT 4SM BR FEW003 23/22 A3008 170 93 1200 000/00 RMK AO2 T02280217
63870K0J4 0J420160712024511007/12/16 02:45:31  5-MIN K0J4 120745Z AUTO 00000KT 7SM FEW002 23/22 A3008 170 93 1200 000/00 RMK AO2 T02280217
63870K0J4 0J420160712025011007/12/16 02:50:31  5-MIN K0J4 120750Z AUTO 00000KT 8SM FEW002 23/22 A3008 170 97 1200 000/00 RMK AO2 T02280222
63870K0J4 0J420160712025511707/12/16 02:55:31  5-MIN K0J4 120755Z AUTO 00000KT 8SM FEW002 23/22 A3008 170 97 1200 000/00 RMK AO2 SLP181 T02280222
63870K0J4 0J420160712030011007/12/16 03:00:31  5-MIN K0J4 120800Z AUTO 00000KT 8SM FEW002 23/22 A3008 170 97 1200 000/00 RMK AO2 T02280222
63870K0J4 0J420160712030510707/12/16 03:05:31  5-MIN K0J4 120805Z AUTO 00000KT 7SM CLR 23/22 A3008 170 93 1200 000/00 RMK AO2 T02280217
63870K0J4 0J420160712031011007/12/16 03:10:31  5-MIN K0J4 120810Z AUTO 00000KT 6SM BR CLR 23/22 A3008 170 93 1200 000/00 RMK AO2 T02280217
63870K0J4 0J420160712031511007/12/16 03:15:31  5-MIN K0J4 120815Z AUTO 00000KT 6SM BR CLR 23/22 A3008 170 93 1200 000/00 RMK AO2 T02280217
63870K0J4 0J420160712032011007/12/16 03:20:31  5-MIN K0J4 120820Z AUTO 00000KT 5SM BR CLR 23/22 A3008 170 93 1100 000/00 RMK AO2 T02280217
63870K0J4 0J420160712032511007/12/16 03:25:31  5-MIN K0J4 120825Z AUTO 00000KT 5SM BR CLR 23/22 A3009 160 93 1100 000/00 RMK AO2 T02280217
63870K0J4 0J420160712033011007/12/16 03:30:31  5-MIN K0J4 120830Z AUTO 00000KT 6SM BR CLR 23/22 A3009 160 93 1100 000/00 RMK AO2 T02280217
63870K0J4 0J420160712033511007/12/16 03:35:31  5-MIN K0J4 120835Z AUTO 00000KT 6SM BR CLR 23/22 A3009 160 93 1100 000/00 RMK AO2 T02280217
63870K0J4 0J420160712034011007/12/16 03:40:31  5-MIN K0J4 120840Z AUTO 00000KT 6SM BR CLR 23/22 A3008 170 93 1100 000/00 RMK AO2 T02280217
63870K0J4 0J420160712034511007/12/16 03:45:31  5-MIN K0J4 120845Z AUTO 00000KT 6SM BR CLR 23/22 A3008 170 93 1100 000/00 RMK AO2 T02280217
63870K0J4 0J420160712035011007/12/16 03:50:31  5-MIN K0J4 120850Z AUTO 00000KT 6SM BR CLR 23/22 A3008 170 93 1200 000/00 RMK AO2 T02280217
63870K0J4 0J420160712035512307/12/16 03:55:31  5-MIN K0J4 120855Z AUTO 00000KT 6SM BR CLR 23/22 A3008 170 93 1200 000/00 RMK AO2 SLP182 T02280217 57007
63870K0J4 0J420160712040010707/12/16 04:00:31  5-MIN K0J4 120900Z AUTO 00000KT 7SM CLR 23/22 A3008 170 93 1200 000/00 RMK AO2 T02280217
63870K0J4 0J420160712040510707/12/16 04:05:31  5-MIN K0J4 120905Z AUTO 00000KT 7SM CLR 23/22 A3008 170 93 1200 000/00 RMK AO2 T02280217
63870K0J4 0J420160712041010707/12/16 04:10:31  5-MIN K0J4 120910Z AUTO 00000KT 7SM CLR 22/22 A3008 170 97 1100 000/00 RMK AO2 T02220217
63870K0J4 0J420160712041510707/12/16 04:15:31  5-MIN K0J4 120915Z AUTO 00000KT 7SM CLR 22/22 A3008 170 97 1100 000/00 RMK AO2 T02220217
63870K0J4 0J420160712042010707/12/16 04:20:31  5-MIN K0J4 120920Z AUTO 00000KT 8SM CLR 23/22 A3008 170 93 1200 000/00 RMK AO2 T02280217
63870K0J4 0J420160712042510707/12/16 04:25:31  5-MIN K0J4 120925Z AUTO 00000KT 8SM CLR 23/22 A3008 170 93 1100 000/00 RMK AO2 T02280217
63870K0J4 0J420160712043010707/12/16 04:30:31  5-MIN K0J4 120930Z AUTO 00000KT 8SM CLR 22/22 A3009 160 97 1100 000/00 RMK AO2 T02220217
63870K0J4 0J420160712043511007/12/16 04:35:31  5-MIN K0J4 120935Z AUTO 00000KT 5SM BR CLR 22/21 A3009 160 93 1100 000/00 RMK AO2 T02220211
63870K0J4 0J420160712044011007/12/16 04:40:31  5-MIN K0J4 120940Z AUTO 00000KT 4SM BR CLR 22/21 A3009 160 93 1100 000/00 RMK AO2 T02220211
63870K0J4 0J420160712044511007/12/16 04:45:31  5-MIN K0J4 120945Z AUTO 00000KT 6SM BR CLR 22/21 A3009 160 93 1100 000/00 RMK AO2 T02220211
63870K0J4 0J420160712045010707/12/16 04:50:31  5-MIN K0J4 120950Z AUTO 00000KT 7SM CLR 22/22 A3009 160 97 1100 000/00 RMK AO2 T02220217
63870K0J4 0J420160712045511707/12/16 04:55:31  5-MIN K0J4 120955Z AUTO 00000KT 6SM BR CLR 22/21 A3009 160 93 1100 000/00 RMK AO2 SLP184 T02220211
63870K0J4 0J420160712050011007/12/16 05:00:31  5-MIN K0J4 121000Z AUTO 00000KT 6SM BR CLR 22/21 A3009 160 93 1000 000/00 RMK AO2 T02170206
63870K0J4 0J420160712050510707/12/16 05:05:31  5-MIN K0J4 121005Z AUTO 00000KT 7SM CLR 22/21 A3009 160 93 1000 000/00 RMK AO2 T02170206
63870K0J4 0J420160712051010607/12/16 05:10:31  5-MIN K0J4 121010Z AUTO 00000KT 7SM CLR 21/21 A3009 160 97 900 000/00 RMK AO2 T02110206
63870K0J4 0J420160712051510607/12/16 05:15:31  5-MIN K0J4 121015Z AUTO 00000KT 7SM CLR 21/21 A3010 150 97 900 000/00 RMK AO2 T02110206
63870K0J4 0J420160712052010707/12/16 05:20:31  5-MIN K0J4 121020Z AUTO 00000KT 7SM CLR 22/21 A3010 150 93 1000 000/00 RMK AO2 T02170206
63870K0J4 0J420160712052510607/12/16 05:25:31  5-MIN K0J4 121025Z AUTO 00000KT 7SM CLR 21/21 A3010 150 97 900 000/00 RMK AO2 T02110206
63870K0J4 0J420160712053010607/12/16 05:30:31  5-MIN K0J4 121030Z AUTO 00000KT 7SM CLR 21/21 A3010 150 97 900 000/00 RMK AO2 T02110206
63870K0J4 0J420160712053510607/12/16 05:35:31  5-MIN K0J4 121035Z AUTO 00000KT 7SM CLR 21/21 A3010 150 97 900 000/00 RMK AO2 T02110206
63870K0J4 0J420160712054010607/12/16 05:40:31  5-MIN K0J4 121040Z AUTO 00000KT 8SM CLR 21/21 A3010 150 97 900 000/00 RMK AO2 T02110206
63870K0J4 0J420160712054510607/12/16 05:45:31  5-MIN K0J4 121045Z AUTO 00000KT 8SM CLR 21/21 A3010 150 97 900 000/00 RMK AO2 T02110206
63870K0J4 0J420160712055010607/12/16 05:50:31  5-MIN K0J4 121050Z AUTO 00000KT 8SM CLR 21/21 A3010 150 97 900 000/00 RMK AO2 T02110206
63870K0J4 0J420160712055511307/12/16 05:55:31  5-MIN K0J4 121055Z AUTO 00000KT 7SM CLR 21/21 A3011 140 97 900 000/00 RMK AO2 SLP190 T02110206
63870K0J4 0J420160712060010607/12/16 06:00:31  5-MIN K0J4 121100Z AUTO 00000KT 8SM CLR 21/21 A3010 150 97 900 000/00 RMK AO2 T02110206
63870K0J4 0J420160712060510607/12/16 06:05:31  5-MIN K0J4 121105Z AUTO 00000KT 8SM CLR 21/21 A3010 150 97 900 000/00 RMK AO2 T02110206
63870K0J4 0J420160712061010707/12/16 06:10:31  5-MIN K0J4 121110Z AUTO 00000KT 9SM CLR 22/21 A3011 140 97 1000 000/00 RMK AO2 T02170211
63870K0J4 0J420160712061510807/12/16 06:15:31  5-MIN K0J4 121115Z AUTO 00000KT 10SM CLR 22/21 A3011 140 93 1000 000/00 RMK AO2 T02170206
63870K0J4 0J420160712062010807/12/16 06:20:31  5-MIN K0J4 121120Z AUTO 00000KT 10SM CLR 22/21 A3011 140 93 1000 000/00 RMK AO2 T02170206
63870K0J4 0J420160712062510807/12/16 06:25:31  5-MIN K0J4 121125Z AUTO 00000KT 10SM CLR 22/21 A3012 140 93 1000 000/00 RMK AO2 T02220211
63870K0J4 0J420160712063010807/12/16 06:30:31  5-MIN K0J4 121130Z AUTO 00000KT 10SM CLR 23/22 A3012 130 93 1100 000/00 RMK AO2 T02280217
63870K0J4 0J420160712063510807/12/16 06:35:31  5-MIN K0J4 121135Z AUTO 00000KT 10SM CLR 23/22 A3012 130 93 1100 000/00 RMK AO2 T02280217
63870K0J4 0J420160712064010807/12/16 06:40:31  5-MIN K0J4 121140Z AUTO 00000KT 10SM CLR 23/22 A3012 130 90 1200 000/00 RMK AO2 T02330217
63870K0J4 0J420160712064510807/12/16 06:45:31  5-MIN K0J4 121145Z AUTO 00000KT 10SM CLR 23/22 A3012 130 93 1200 000/00 RMK AO2 T02330222
63870K0J4 0J420160712065010807/12/16 06:50:31  5-MIN K0J4 121150Z AUTO 00000KT 10SM CLR 23/22 A3012 130 93 1200 000/00 RMK AO2 T02330222
63870K0J4 0J420160712065513907/12/16 06:55:31  5-MIN K0J4 121155Z AUTO 00000KT 10SM CLR 23/22 A3012 130 93 1200 000/00 RMK AO2 SLP195 70018 T02330222 10233 20211 55003
63870K0J4 0J420160712070010807/12/16 07:00:31  5-MIN K0J4 121200Z AUTO 07003KT 10SM CLR 23/22 A3012 130 93 1200 070/03 RMK AO2 T02330222
63870K0J4 0J420160712070510807/12/16 07:05:31  5-MIN K0J4 121205Z AUTO 07004KT 10SM CLR 23/22 A3013 130 93 1200 070/04 RMK AO2 T02330222
63870K0J4 0J420160713071510907/13/16 07:15:31  5-MIN K0J4 131215Z AUTO 00000KT 10SM CLR 23/22 A3017 90 90 1100 000/00 RMK AO2 T02330217 $
63870K0J4 0J420160713072010907/13/16 07:20:31  5-MIN K0J4 131220Z AUTO 00000KT 10SM CLR 24/21 A3017 90 84 1200 000/00 RMK AO2 T02390211 $
63870K0J4 0J420160713072510907/13/16 07:25:31  5-MIN K0J4 131225Z AUTO 05003KT 10SM CLR 24/22 A3017 90 87 1200 050/03 RMK AO2 T02390217 $
63870K0J4 0J420160713073010907/13/16 07:30:31  5-MIN K0J4 131230Z AUTO 00000KT 10SM CLR 24/22 A3017 80 84 1200 000/00 RMK AO2 T02440217 $
63870K0J4 0J420160713073510907/13/16 07:35:31  5-MIN K0J4 131235Z AUTO 08004KT 10SM CLR 24/22 A3017 80 84 1200 080/04 RMK AO2 T02440217 $
63870K0J4 0J420160713074010907/13/16 07:40:31  5-MIN K0J4 131240Z AUTO 09003KT 10SM CLR 24/22 A3017 80 84 1200 090/03 RMK AO2 T02440217 $
63870K0J4 0J420160713074510907/13/16 07:45:31  5-MIN K0J4 131245Z AUTO 08003KT 10SM CLR 24/22 A3018 80 84 1200 080/03 RMK AO2 T02440217 $
63870K0J4 0J420160713075010907/13/16 07:50:31  5-MIN K0J4 131250Z AUTO 00000KT 10SM CLR 25/22 A3018 80 84 1300 000/00 RMK AO2 T02500222 $
63870K0J4 0J420160713075511607/13/16 07:55:31  5-MIN K0J4 131255Z AUTO 00000KT 10SM CLR 25/22 A3018 80 81 1300 000/00 RMK AO2 SLP215 T02500217 $
63870K0J4 0J420160713080010907/13/16 08:00:31  5-MIN K0J4 131300Z AUTO 08003KT 10SM CLR 25/22 A3018 70 84 1300 080/03 RMK AO2 T02500222 $
63870K0J4 0J420160713080510907/13/16 08:05:31  5-MIN K0J4 131305Z AUTO 00000KT 10SM CLR 26/22 A3018 80 79 1400 000/00 RMK AO2 T02560217 $
63870K0J4 0J420160713081010907/13/16 08:10:31  5-MIN K0J4 131310Z AUTO VRB03KT 10SM CLR 26/22 A3018 70 81 1400 VRB/03 RMK AO2 T02560222 $
63870K0J4 0J420160713081510907/13/16 08:15:31  5-MIN K0J4 131315Z AUTO VRB03KT 10SM CLR 26/22 A3018 70 81 1400 VRB/03 RMK AO2 T02560222 $
63870K0J4 0J420160713082010907/13/16 08:20:31  5-MIN K0J4 131320Z AUTO 11003KT 10SM CLR 26/22 A3018 70 81 1400 110/03 RMK AO2 T02560222 $
63870K0J4 0J420160713082510907/13/16 08:25:31  5-MIN K0J4 131325Z AUTO VRB03KT 10SM CLR 26/22 A3018 70 79 1400 VRB/03 RMK AO2 T02610222 $
63870K0J4 0J420160713083010907/13/16 08:30:31  5-MIN K0J4 131330Z AUTO 07003KT 10SM CLR 26/22 A3018 70 79 1400 070/03 RMK AO2 T02610222 $
63870K0J4 0J420160713083510907/13/16 08:35:31  5-MIN K0J4 131335Z AUTO 11004KT 10SM CLR 27/22 A3018 70 76 1500 110/04 RMK AO2 T02670222 $
63870K0J4 0J420160713084010907/13/16 08:40:31  5-MIN K0J4 131340Z AUTO 11003KT 10SM CLR 26/22 A3018 70 79 1400 110/03 RMK AO2 T02610222 $
63870K0J4 0J420160713084510907/13/16 08:45:31  5-MIN K0J4 131345Z AUTO VRB03KT 10SM CLR 27/23 A3019 70 79 1500 VRB/03 RMK AO2 T02670228 $
63870K0J4 0J420160713085010907/13/16 08:50:31  5-MIN K0J4 131350Z AUTO 07003KT 10SM CLR 27/23 A3019 70 76 1500 070/03 RMK AO2 T02720228 $
63870K0J4 0J420160713085511607/13/16 08:55:31  5-MIN K0J4 131355Z AUTO 00000KT 10SM CLR 27/23 A3019 70 76 1500 000/00 RMK AO2 SLP217 T02720228 $
63870K0J4 0J420160713090010907/13/16 09:00:31  5-MIN K0J4 131400Z AUTO 06003KT 10SM CLR 28/23 A3019 70 74 1600 060/03 RMK AO2 T02780228 $
63870K0J4 0J420160713090510907/13/16 09:05:31  5-MIN K0J4 131405Z AUTO VRB03KT 10SM CLR 28/23 A3019 70 71 1700 VRB/03 RMK AO2 T02830228 $
63870K0J4 0J420160713091010907/13/16 09:10:31  5-MIN K0J4 131410Z AUTO 13003KT 10SM CLR 28/23 A3019 70 74 1600 130/03 RMK AO2 T02780228 $
63870K0J4 0J420160713091510907/13/16 09:15:31  5-MIN K0J4 131415Z AUTO 00000KT 10SM CLR 28/23 A3019 70 76 1600 000/00 RMK AO2 T02780233 $
63870K0J4 0J420160713092010907/13/16 09:20:31  5-MIN K0J4 131420Z AUTO 00000KT 10SM CLR 28/23 A3019 70 74 1700 000/00 RMK AO2 T02830233 $
63870K0J4 0J420160713092510907/13/16 09:25:31  5-MIN K0J4 131425Z AUTO 00000KT 10SM CLR 28/23 A3019 70 74 1700 000/00 RMK AO2 T02830233 $
63870K0J4 0J420160713093010907/13/16 09:30:31  5-MIN K0J4 131430Z AUTO 00000KT 10SM CLR 28/23 A3019 70 74 1700 000/00 RMK AO2 T02830233 $
63870K0J4 0J420160713093510907/13/16 09:35:31  5-MIN K0J4 131435Z AUTO 00000KT 10SM CLR 29/23 A3019 70 71 1700 000/00 RMK AO2 T02890233 $
63870K0J4 0J420160713094010907/13/16 09:40:31  5-MIN K0J4 131440Z AUTO VRB04KT 10SM CLR 29/24 A3019 70 71 1800 VRB/04 RMK AO2 T02940239 $
63870K0J4 0J420160713094510907/13/16 09:45:31  5-MIN K0J4 131445Z AUTO 08003KT 10SM CLR 29/24 A3018 70 74 1800 080/03 RMK AO2 T02940244 $
63870K0J4 0J420160713095010907/13/16 09:50:31  5-MIN K0J4 131450Z AUTO 00000KT 10SM CLR 30/23 A3018 70 67 1900 000/00 RMK AO2 T03000233 $
63870K0J4 0J420160713095512207/13/16 09:55:31  5-MIN K0J4 131455Z AUTO 00000KT 10SM CLR 29/23 A3018 70 69 1800 000/00 RMK AO2 SLP216 T02940233 53010 $
63870K0J4 0J420160713100009907/13/16 10:00:31  5-MIN K0J4 131500Z AUTO 10SM CLR 29/23 A3018 70 67 1800 M /M RMK AO2 T02940228 $
63870K0J4 0J420160713100510907/13/16 10:05:31  5-MIN K0J4 131505Z AUTO 00000KT 10SM CLR 30/23 A3019 70 67 1800 000/00 RMK AO2 T03000233 $
63870K0J4 0J420160713101010907/13/16 10:10:31  5-MIN K0J4 131510Z AUTO 06003KT 10SM CLR 30/23 A3019 70 67 1800 060/03 RMK AO2 T03000233 $
63870K0J4 0J420160713101510907/13/16 10:15:31  5-MIN K0J4 131515Z AUTO 00000KT 10SM CLR 30/23 A3019 70 67 1800 000/00 RMK AO2 T03000233 $
63870K0J4 0J420160713102010907/13/16 10:20:31  5-MIN K0J4 131520Z AUTO 00000KT 10SM CLR 31/23 A3019 70 62 1900 000/00 RMK AO2 T03060228 $
63870K0J4 0J420160713102510907/13/16 10:25:31  5-MIN K0J4 131525Z AUTO 00000KT 10SM CLR 30/22 A3019 70 62 1800 000/00 RMK AO2 T03000222 $
63870K0J4 0J420160713103010907/13/16 10:30:31  5-MIN K0J4 131530Z AUTO VRB03KT 10SM CLR 31/23 A3019 70 62 1900 VRB/03 RMK AO2 T03060228 $
63870K0J4 0J420160713103510907/13/16 10:35:31  5-MIN K0J4 131535Z AUTO VRB03KT 10SM CLR 31/23 A3019 70 62 1900 VRB/03 RMK AO2 T03060228 $
63870K0J4 0J420160713104011207/13/16 10:40:31  5-MIN K0J4 131540Z AUTO 00000KT 10SM FEW034 30/23 A3019 70 65 1800 000/00 RMK AO2 T03000228 $
63870K0J4 0J420160713104511207/13/16 10:45:31  5-MIN K0J4 131545Z AUTO 11005KT 10SM SCT034 31/23 A3019 70 62 1900 110/05 RMK AO2 T03060228 $
63870K0J4 0J420160713105011007/13/16 10:50:31  5-MIN K0J4 131550Z AUTO 00000KT 10SM SCT033 30/23 A3019 60 65 1800 000/00 RMK AO2 T03000228
63870K0J4 0J420160713105511707/13/16 10:55:31  5-MIN K0J4 131555Z AUTO VRB05KT 10SM FEW033 31/23 A3020 60 60 2000 VRB/05 RMK AO2 SLP220 T03110228
63870K0J4 0J420160713110011007/13/16 11:00:31  5-MIN K0J4 131600Z AUTO 18005KT 10SM SCT033 31/23 A3020 60 62 1900 180/05 RMK AO2 T03060228
63870K0J4 0J420160713110511007/13/16 11:05:31  5-MIN K0J4 131605Z AUTO 22003KT 10SM FEW032 30/22 A3020 60 62 1800 220/03 RMK AO2 T03000222
63870K0J4 0J420160713111010207/13/16 11:10:31  5-MIN K0J4 131610Z AUTO 10SM FEW032 31/22 A3020 60 60 1900 M /M RMK AO2 T03060222 $
63870K0J4 0J420160713111510207/13/16 11:15:31  5-MIN K0J4 131615Z AUTO 10SM FEW032 31/22 A3020 60 58 1900 M /M RMK AO2 T03060217 $
63870K0J4 0J420160713112010007/13/16 11:20:31  5-MIN K0J4 131620Z AUTO 10SM SCT032 31/22 A3020 60 58 2000 M /M RMK AO2 T03110222
63870K0J4 0J420160713112510007/13/16 11:25:31  5-MIN K0J4 131625Z AUTO 10SM FEW031 31/22 A3019 70 58 2000 M /M RMK AO2 T03110222
63870K0J4 0J420160713113010007/13/16 11:30:31  5-MIN K0J4 131630Z AUTO 10SM FEW031 31/23 A3019 60 60 2000 M /M RMK AO2 T03110228
63870K0J4 0J420160713113510007/13/16 11:35:31  5-MIN K0J4 131635Z AUTO 10SM FEW031 31/22 A3019 70 60 1900 M /M RMK AO2 T03060222
63870K0J4 0J420160713114010007/13/16 11:40:31  5-MIN K0J4 131640Z AUTO 10SM SCT033 30/22 A3019 70 60 1800 M /M RMK AO2 T03000217
63870K0J4 0J420160713114510007/13/16 11:45:31  5-MIN K0J4 131645Z AUTO 10SM BKN035 31/22 A3019 70 58 1900 M /M RMK AO2 T03060217
63870K0J4 0J420160713115010707/13/16 11:50:31  5-MIN K0J4 131650Z AUTO 10SM SCT037 BKN049 31/22 A3019 70 56 2000 M /M RMK AO2 T03110217
63870K0J4 0J420160713115511407/13/16 11:55:31  5-MIN K0J4 131655Z AUTO 10SM SCT037 BKN049 31/22 A3019 70 56 2000 M /M RMK AO2 SLP217 T03110217
63870K0J4 0J420160713120010707/13/16 12:00:31  5-MIN K0J4 131700Z AUTO 10SM SCT037 BKN049 31/22 A3019 70 58 1900 M /M RMK AO2 T03060217
63870K0J4 0J420160713120510707/13/16 12:05:31  5-MIN K0J4 131705Z AUTO 10SM BKN037 BKN047 32/22 A3018 80 56 2000 M /M RMK AO2 T03170222
63870K0J4 0J420160713121011407/13/16 12:10:31  5-MIN K0J4 131710Z AUTO 10SM SCT037 BKN047 BKN060 32/21 A3017 80 53 2000 M /M RMK AO2 T03170211
63870K0J4 0J420160713121511907/13/16 12:15:31  5-MIN K0J4 131715Z AUTO 10SM VCTS FEW037 SCT047 SCT060 32/21 A3018 80 51 2100 M /M RMK AO2 T03220211
63870K0J4 0J420160713122011207/13/16 12:20:31  5-MIN K0J4 131720Z AUTO 10SM VCTS FEW037 SCT046 32/22 A3018 70 53 2100 M /M RMK AO2 T03220217
63870K0J4 0J420160713122511607/13/16 12:25:31  5-MIN K0J4 131725Z AUTO 10SM TS SCT039 BKN046 31/21 A3018 70 53 2000 M /M RMK AO2 TSB21 T03110206
63870K0J4 0J420160713123010907/13/16 12:30:31  5-MIN K0J4 131730Z AUTO 10SM TS BKN041 31/21 A3018 80 56 1900 M /M RMK AO2 TSB21 T03060211
63870K0J4 0J420160713123511607/13/16 12:35:31  5-MIN K0J4 131735Z AUTO 10SM TS SCT041 BKN060 31/22 A3018 80 56 2000 M /M RMK AO2 TSB21 T03110217
63870K0J4 0J420160713124011607/13/16 12:40:31  5-MIN K0J4 131740Z AUTO 10SM SCT041 BKN060 31/21 A3018 80 54 2000 M /M RMK AO2 TSB21E36 T03110211
63870K0J4 0J420160713124512907/13/16 12:45:31  5-MIN K0J4 131745Z AUTO 10SM TS SCT041 BKN065 OVC085 31/21 A3018 70 54 2000 M /M RMK AO2 TSB21E36B44 T03110211
63870K0J4 0J420160713125013207/13/16 12:50:31  5-MIN K0J4 131750Z AUTO 10SM TS SCT041 BKN060 BKN090 27/21 A3019 70 69 1500 M /M RMK AO2 TSB21E36B44B48 T02720211
63870K0J4 0J420160713125515707/13/16 12:55:31  5-MIN K0J4 131755Z AUTO 10SM TS FEW042 SCT060 BKN085 27/20 A3019 70 66 1500 M /M RMK AO2 TSB21E36B44B48 SLP219 T02670200 10322 20228 50009
63870K0J4 0J420160713130011707/13/16 13:00:31  5-MIN K0J4 131800Z AUTO 10SM TS FEW044 SCT060 SCT085 26/20 A3019 70 68 1400 M /M RMK AO2 T02610200
63870K0J4 0J420160713130512507/13/16 13:05:31  5-MIN K0J4 131805Z AUTO 10SM VCTS FEW044 FEW065 SCT090 26/19 A3018 80 66 1400 M /M RMK AO2 TSE02 T02610194
63870K0J4 0J420160713131012507/13/16 13:10:31  5-MIN K0J4 131810Z AUTO 10SM VCTS FEW044 FEW090 SCT110 26/19 A3017 80 68 1400 M /M RMK AO2 TSE02 T02560194
63870K0J4 0J420160713131511107/13/16 13:15:31  5-MIN K0J4 131815Z AUTO 10SM VCTS SCT110 25/19 A3017 90 71 1300 M /M RMK AO2 TSE02 T02500194
63870K0J4 0J420160713132013607/13/16 13:20:31  5-MIN K0J4 131820Z AUTO 10SM -RA FEW080 BKN100 BKN120 25/19 A3016 90 71 1300 M /M RMK AO2 RAB19 TSE02 P0000 T02500194
63870K0J4 0J420160713132512907/13/16 13:25:31  5-MIN K0J4 131825Z AUTO 10SM -RA FEW080 BKN110 24/20 A3016 90 76 1200 M /M RMK AO2 RAB19 TSE02 P0000 T02440200
63870K0J4 0J420160713133013607/13/16 13:30:31  5-MIN K0J4 131830Z AUTO 10SM -RA FEW070 SCT080 BKN110 25/20 A3017 90 73 1300 M /M RMK AO2 RAB19 TSE02 P0000 T02500200
63870K0J4 0J420160713133513607/13/16 13:35:31  5-MIN K0J4 131835Z AUTO 10SM -RA FEW050 BKN075 OVC110 25/21 A3017 90 76 1300 M /M RMK AO2 RAB19 TSE02 P0000 T02500206
63870K0J4 0J420160713134013507/13/16 13:40:31  5-MIN K0J4 131840Z AUTO 10SM FEW048 BKN075 BKN100 25/21 A3017 90 76 1300 M /M RMK AO2 RAB19E39 TSE02 P0000 T02500206
63870K0J4 0J420160713134513607/13/16 13:45:31  5-MIN K0J4 131845Z AUTO 10SM -RA FEW045 SCT075 BKN110 25/21 A3017 90 76 1300 M /M RMK AO2 RAB19 TSE02 P0000 T02500206
63870K0J4 0J420160713135013607/13/16 13:50:31  5-MIN K0J4 131850Z AUTO 10SM -RA FEW048 SCT075 SCT110 26/21 A3017 90 73 1400 M /M RMK AO2 RAB19 TSE02 P0000 T02560206
63870K0J4 0J420160713135513507/13/16 13:55:31  5-MIN K0J4 131855Z AUTO 10SM FEW050 FEW070 26/21 A3016 90 73 1400 M /M RMK AO2 RAB19E53 TSE02 SLP211 P0000 T02560206
63870K0J4 0J420160713140010107/13/16 14:00:31  5-MIN K0J4 131900Z AUTO 10SM FEW048 26/21 A3016 100 73 1400 M /M RMK AO2 T02560206
63870K0J4 0J420160713140509807/13/16 14:05:31  5-MIN K0J4 131905Z AUTO 10SM CLR 26/21 A3016 100 71 1400 M /M RMK AO2 T02610206
63870K0J4 0J420160713141009807/13/16 14:10:31  5-MIN K0J4 131910Z AUTO 10SM CLR 27/20 A3016 100 66 1500 M /M RMK AO2 T02670200
63870K0J4 0J420160713141509807/13/16 14:15:31  5-MIN K0J4 131915Z AUTO 10SM CLR 27/19 A3016 100 64 1500 M /M RMK AO2 T02670194
63870K0J4 0J420160713142009707/13/16 14:20:31  5-MIN K0J4 131920Z AUTO 10SM CLR 27/19 A3016 90 64 1500 M /M RMK AO2 T02670194
63870K0J4 0J420160713142509707/13/16 14:25:31  5-MIN K0J4 131925Z AUTO 10SM CLR 27/20 A3016 90 66 1500 M /M RMK AO2 T02670200
63870K0J4 0J420160713143009707/13/16 14:30:31  5-MIN K0J4 131930Z AUTO 10SM CLR 27/21 A3017 90 69 1500 M /M RMK AO2 T02670206
63870K0J4 0J420160713143509707/13/16 14:35:31  5-MIN K0J4 131935Z AUTO 10SM CLR 26/20 A3017 80 68 1400 M /M RMK AO2 T02610200
63870K0J4 0J420160713144009707/13/16 14:40:31  5-MIN K0J4 131940Z AUTO 10SM CLR 26/20 A3017 80 71 1400 M /M RMK AO2 T02560200
63870K0J4 0J420160713144509707/13/16 14:45:31  5-MIN K0J4 131945Z AUTO 10SM CLR 26/20 A3017 90 71 1400 M /M RMK AO2 T02560200
63870K0J4 0J420160713145009707/13/16 14:50:31  5-MIN K0J4 131950Z AUTO 10SM CLR 26/20 A3017 90 71 1400 M /M RMK AO2 T02560200
63870K0J4 0J420160713145510407/13/16 14:55:31  5-MIN K0J4 131955Z AUTO 10SM CLR 26/21 A3017 90 73 1400 M /M RMK AO2 SLP212 T02560206
63870K0J4 0J420160713150009707/13/16 15:00:31  5-MIN K0J4 132000Z AUTO 10SM CLR 26/21 A3017 90 76 1400 M /M RMK AO2 T02560211
63870K0J4 0J420160713150509707/13/16 15:05:31  5-MIN K0J4 132005Z AUTO 10SM CLR 26/21 A3017 90 76 1400 M /M RMK AO2 T02560211
63870K0J4 0J420160713151009707/13/16 15:10:31  5-MIN K0J4 132010Z AUTO 10SM CLR 26/22 A3017 90 76 1400 M /M RMK AO2 T02610217
63870K0J4 0J420160713151509707/13/16 15:15:31  5-MIN K0J4 132015Z AUTO 10SM CLR 26/21 A3016 90 73 1400 M /M RMK AO2 T02610211
63870K0J4 0J420160713152009807/13/16 15:20:31  5-MIN K0J4 132020Z AUTO 10SM CLR 26/22 A3016 100 76 1400 M /M RMK AO2 T02610217
63870K0J4 0J420160713152509807/13/16 15:25:31  5-MIN K0J4 132025Z AUTO 10SM CLR 26/22 A3016 100 76 1400 M /M RMK AO2 T02610217
63870K0J4 0J420160713153009807/13/16 15:30:31  5-MIN K0J4 132030Z AUTO 10SM CLR 26/22 A3015 100 76 1400 M /M RMK AO2 T02610217
63870K0J4 0J420160713153509807/13/16 15:35:31  5-MIN K0J4 132035Z AUTO 10SM CLR 26/22 A3015 100 76 1400 M /M RMK AO2 T02610217
63870K0J4 0J420160713154009807/13/16 15:40:31  5-MIN K0J4 132040Z AUTO 10SM CLR 27/22 A3016 100 73 1500 M /M RMK AO2 T02670217
63870K0J4 0J420160713154509807/13/16 15:45:31  5-MIN K0J4 132045Z AUTO 10SM CLR 27/22 A3016 100 76 1500 M /M RMK AO2 T02670222
63870K0J4 0J420160713155009807/13/16 15:50:31  5-MIN K0J4 132050Z AUTO 10SM CLR 27/22 A3016 100 74 1600 M /M RMK AO2 T02720222
63870K0J4 0J420160713155511707/13/16 15:55:31  5-MIN K0J4 132055Z AUTO 10SM CLR 27/22 A3016 100 76 1500 M /M RMK AO2 SLP208 60000 T02670222 51002
63870K0J4 0J420160713160009807/13/16 16:00:31  5-MIN K0J4 132100Z AUTO 10SM CLR 27/22 A3016 100 73 1500 M /M RMK AO2 T02670217
63870K0J4 0J420160713160509807/13/16 16:05:31  5-MIN K0J4 132105Z AUTO 10SM CLR 26/22 A3016 100 76 1400 M /M RMK AO2 T02610217
63870K0J4 0J420160713161009807/13/16 16:10:31  5-MIN K0J4 132110Z AUTO 10SM CLR 26/22 A3016 100 76 1400 M /M RMK AO2 T02610217
63870K0J4 0J420160713161509807/13/16 16:15:31  5-MIN K0J4 132115Z AUTO 10SM CLR 26/22 A3015 100 76 1500 M /M RMK AO2 T02610217
63870K0J4 0J420160713162009807/13/16 16:20:31  5-MIN K0J4 132120Z AUTO 10SM CLR 26/22 A3015 110 76 1500 M /M RMK AO2 T02610217
63870K0J4 0J420160713162509807/13/16 16:25:31  5-MIN K0J4 132125Z AUTO 10SM CLR 26/22 A3014 110 79 1500 M /M RMK AO2 T02610222
63870K0J4 0J420160713163009807/13/16 16:30:31  5-MIN K0J4 132130Z AUTO 10SM CLR 26/22 A3014 120 76 1500 M /M RMK AO2 T02610217
63870K0J4 0J420160713163509807/13/16 16:35:31  5-MIN K0J4 132135Z AUTO 10SM CLR 26/22 A3014 120 76 1500 M /M RMK AO2 T02610217
63870K0J4 0J420160713164009807/13/16 16:40:31  5-MIN K0J4 132140Z AUTO 10SM CLR 26/22 A3013 130 76 1500 M /M RMK AO2 T02610217
63870K0J4 0J420160713164510507/13/16 16:45:31  5-MIN K0J4 132145Z AUTO 10SM CLR 26/22 A3012 130 79 1500 M /M RMK AO2 PRESFR T02610222
63870K0J4 0J420160713165010507/13/16 16:50:31  5-MIN K0J4 132150Z AUTO 10SM CLR 26/22 A3011 140 79 1500 M /M RMK AO2 PRESFR T02610222
63870K0J4 0J420160713165510507/13/16 16:55:31  5-MIN K0J4 132155Z AUTO 10SM CLR 27/22 A3011 140 76 1600 M /M RMK AO2 SLP191 T02670222
63870K0J4 0J420160713170009807/13/16 17:00:31  5-MIN K0J4 132200Z AUTO 10SM CLR 27/22 A3011 140 76 1600 M /M RMK AO2 T02670222
63870K0J4 0J420160713170509807/13/16 17:05:31  5-MIN K0J4 132205Z AUTO 10SM CLR 27/22 A3010 150 76 1600 M /M RMK AO2 T02670222
63870K0J4 0J420160713171009807/13/16 17:10:31  5-MIN K0J4 132210Z AUTO 10SM CLR 27/23 A3010 150 79 1600 M /M RMK AO2 T02670228
63870K0J4 0J420160713171509807/13/16 17:15:31  5-MIN K0J4 132215Z AUTO 10SM CLR 27/22 A3010 150 76 1600 M /M RMK AO2 T02670222
63870K0J4 0J420160713172009807/13/16 17:20:31  5-MIN K0J4 132220Z AUTO 10SM CLR 27/22 A3009 160 76 1600 M /M RMK AO2 T02670222
63870K0J4 0J420160713172509807/13/16 17:25:31  5-MIN K0J4 132225Z AUTO 10SM CLR 27/23 A3009 160 79 1600 M /M RMK AO2 T02670228
63870K0J4 0J420160713173009807/13/16 17:30:31  5-MIN K0J4 132230Z AUTO 10SM CLR 27/22 A3009 160 76 1600 M /M RMK AO2 T02670222
63870K0J4 0J420160713173509807/13/16 17:35:31  5-MIN K0J4 132235Z AUTO 10SM CLR 27/23 A3009 160 79 1600 M /M RMK AO2 T02670228
63870K0J4 0J420160713174009807/13/16 17:40:31  5-MIN K0J4 132240Z AUTO 10SM CLR 27/23 A3009 160 79 1600 M /M RMK AO2 T02670228
63870K0J4 0J420160713174509807/13/16 17:45:31  5-MIN K0J4 132245Z AUTO 10SM CLR 27/23 A3009 160 79 1600 M /M RMK AO2 T02670228
63870K0J4 0J420160713175009807/13/16 17:50:31  5-MIN K0J4 132250Z AUTO 10SM CLR 27/23 A3010 150 79 1600 M /M RMK AO2 T02670228
63870K0J4 0J420160713175510507/13/16 17:55:31  5-MIN K0J4 132255Z AUTO 10SM CLR 27/23 A3010 150 79 1600 M /M RMK AO2 SLP189 T02670228
63870K0J4 0J420160713180009807/13/16 18:00:31  5-MIN K0J4 132300Z AUTO 10SM CLR 27/23 A3010 150 79 1600 M /M RMK AO2 T02670228
63870K0J4 0J420160713180509807/13/16 18:05:31  5-MIN K0J4 132305Z AUTO 10SM CLR 26/23 A3011 140 81 1500 M /M RMK AO2 T02610228
63870K0J4 0J420160713181009807/13/16 18:10:31  5-MIN K0J4 132310Z AUTO 10SM CLR 26/23 A3011 140 81 1500 M /M RMK AO2 T02610228
63870K0J4 0J420160713181509807/13/16 18:15:31  5-MIN K0J4 132315Z AUTO 10SM CLR 26/23 A3011 140 81 1500 M /M RMK AO2 T02610228
63870K0J4 0J420160713182009807/13/16 18:20:31  5-MIN K0J4 132320Z AUTO 10SM CLR 26/23 A3011 140 81 1500 M /M RMK AO2 T02610228
63870K0J4 0J420160713182509807/13/16 18:25:31  5-MIN K0J4 132325Z AUTO 10SM CLR 27/23 A3011 140 79 1600 M /M RMK AO2 T02670228
63870K0J4 0J420160713183009807/13/16 18:30:31  5-MIN K0J4 132330Z AUTO 10SM CLR 27/23 A3011 140 79 1600 M /M RMK AO2 T02670228
63870K0J4 0J420160713183509807/13/16 18:35:31  5-MIN K0J4 132335Z AUTO 10SM CLR 26/23 A3011 140 81 1500 M /M RMK AO2 T02610228
63870K0J4 0J420160713184009807/13/16 18:40:31  5-MIN K0J4 132340Z AUTO 10SM CLR 26/23 A3011 140 81 1500 M /M RMK AO2 T02610228
63870K0J4 0J420160713184509807/13/16 18:45:31  5-MIN K0J4 132345Z AUTO 10SM CLR 26/23 A3011 140 81 1500 M /M RMK AO2 T02610228
63870K0J4 0J420160713185009807/13/16 18:50:31  5-MIN K0J4 132350Z AUTO 10SM CLR 26/23 A3011 140 81 1500 M /M RMK AO2 T02610228
63870K0J4 0J420160713185512907/13/16 18:55:31  5-MIN K0J4 132355Z AUTO 10SM CLR 26/23 A3011 140 81 1500 M /M RMK AO2 SLP192 60000 T02610228 10272 20244 56010
63870K0J4 0J420160713190009807/13/16 19:00:31  5-MIN K0J4 140000Z AUTO 10SM CLR 26/23 A3011 140 84 1400 M /M RMK AO2 T02560228
63870K0J4 0J420160713190509807/13/16 19:05:31  5-MIN K0J4 140005Z AUTO 10SM CLR 26/23 A3011 140 84 1400 M /M RMK AO2 T02560228
63870K0J4 0J420160713191009807/13/16 19:10:31  5-MIN K0J4 140010Z AUTO 10SM CLR 26/23 A3010 150 84 1400 M /M RMK AO2 T02560228
63870K0J4 0J420160713191509807/13/16 19:15:31  5-MIN K0J4 140015Z AUTO 10SM CLR 26/23 A3011 150 84 1400 M /M RMK AO2 T02560228
63870K0J4 0J420160713192009807/13/16 19:20:31  5-MIN K0J4 140020Z AUTO 10SM CLR 25/23 A3011 140 87 1400 M /M RMK AO2 T02500228
63870K0J4 0J420160713192509807/13/16 19:25:31  5-MIN K0J4 140025Z AUTO 10SM CLR 25/23 A3011 140 87 1400 M /M RMK AO2 T02500228
63870K0J4 0J420160713193009807/13/16 19:30:31  5-MIN K0J4 140030Z AUTO 10SM CLR 25/23 A3011 140 87 1400 M /M RMK AO2 T02500228
63870K0J4 0J420160713193509807/13/16 19:35:31  5-MIN K0J4 140035Z AUTO 10SM CLR 24/23 A3011 140 90 1300 M /M RMK AO2 T02440228
63870K0J4 0J420160713194009807/13/16 19:40:31  5-MIN K0J4 140040Z AUTO 10SM CLR 25/23 A3011 140 87 1400 M /M RMK AO2 T02500228
63870K0J4 0J420160713194509807/13/16 19:45:31  5-MIN K0J4 140045Z AUTO 10SM CLR 24/23 A3011 140 90 1300 M /M RMK AO2 T02440228
63870K0J4 0J420160713195009807/13/16 19:50:31  5-MIN K0J4 140050Z AUTO 10SM CLR 24/23 A3011 140 90 1300 M /M RMK AO2 T02440228
63870K0J4 0J420160713195510507/13/16 19:55:31  5-MIN K0J4 140055Z AUTO 10SM CLR 24/23 A3012 140 90 1300 M /M RMK AO2 SLP194 T02440228
63870K0J4 0J420160713200009807/13/16 20:00:31  5-MIN K0J4 140100Z AUTO 10SM CLR 24/23 A3012 130 90 1300 M /M RMK AO2 T02440228
63870K0J4 0J420160713200509807/13/16 20:05:31  5-MIN K0J4 140105Z AUTO 10SM CLR 24/23 A3012 130 93 1200 M /M RMK AO2 T02390228
63870K0J4 0J420160713201009807/13/16 20:10:31  5-MIN K0J4 140110Z AUTO 10SM CLR 24/23 A3013 130 93 1200 M /M RMK AO2 T02390228
63870K0J4 0J420160713201509807/13/16 20:15:31  5-MIN K0J4 140115Z AUTO 10SM CLR 24/23 A3013 120 93 1200 M /M RMK AO2 T02390228
63870K0J4 0J420160713202009807/13/16 20:20:31  5-MIN K0J4 140120Z AUTO 10SM CLR 24/23 A3013 120 93 1200 M /M RMK AO2 T02390228
63870K0J4 0J420160713202509807/13/16 20:25:31  5-MIN K0J4 140125Z AUTO 10SM CLR 24/23 A3013 120 93 1200 M /M RMK AO2 T02390228
63870K0J4 0J420160713203009807/13/16 20:30:31  5-MIN K0J4 140130Z AUTO 10SM CLR 24/23 A3014 120 93 1200 M /M RMK AO2 T02390228
63870K0J4 0J420160713203509807/13/16 20:35:31  5-MIN K0J4 140135Z AUTO 10SM CLR 24/23 A3014 110 90 1300 M /M RMK AO2 T02440228
63870K0J4 0J420160713204009807/13/16 20:40:31  5-MIN K0J4 140140Z AUTO 10SM CLR 24/23 A3014 110 90 1300 M /M RMK AO2 T02440228
63870K0J4 0J420160713204509807/13/16 20:45:31  5-MIN K0J4 140145Z AUTO 10SM CLR 24/23 A3014 110 90 1300 M /M RMK AO2 T02440228
63870K0J4 0J420160713205009807/13/16 20:50:31  5-MIN K0J4 140150Z AUTO 10SM CLR 24/23 A3014 110 90 1300 M /M RMK AO2 T02440228
63870K0J4 0J420160713205510507/13/16 20:55:31  5-MIN K0J4 140155Z AUTO 10SM CLR 24/23 A3014 110 90 1300 M /M RMK AO2 SLP203 T02440228
63870K0J4 0J420160713210009807/13/16 21:00:31  5-MIN K0J4 140200Z AUTO 10SM CLR 24/23 A3015 110 93 1200 M /M RMK AO2 T02390228
63870K0J4 0J420160713210509807/13/16 21:05:31  5-MIN K0J4 140205Z AUTO 10SM CLR 24/23 A3015 110 93 1200 M /M RMK AO2 T02390228
63870K0J4 0J420160713211009807/13/16 21:10:31  5-MIN K0J4 140210Z AUTO 10SM CLR 24/23 A3014 110 90 1300 M /M RMK AO2 T02440228
63870K0J4 0J420160713211509807/13/16 21:15:31  5-MIN K0J4 140215Z AUTO 10SM CLR 24/23 A3015 110 90 1300 M /M RMK AO2 T02440228
63870K0J4 0J420160713212009807/13/16 21:20:31  5-MIN K0J4 140220Z AUTO 10SM CLR 24/23 A3014 110 90 1300 M /M RMK AO2 T02440228
63870K0J4 0J420160713212509807/13/16 21:25:31  5-MIN K0J4 140225Z AUTO 10SM CLR 24/23 A3015 110 90 1300 M /M RMK AO2 T02440228
63870K0J4 0J420160713213009807/13/16 21:30:31  5-MIN K0J4 140230Z AUTO 10SM CLR 24/23 A3015 100 90 1300 M /M RMK AO2 T02440228
63870K0J4 0J420160713213509807/13/16 21:35:31  5-MIN K0J4 140235Z AUTO 10SM CLR 24/23 A3015 100 90 1300 M /M RMK AO2 T02440228
63870K0J4 0J420160713214009807/13/16 21:40:31  5-MIN K0J4 140240Z AUTO 10SM CLR 24/23 A3015 100 90 1300 M /M RMK AO2 T02440228
63870K0J4 0J420160713214509807/13/16 21:45:31  5-MIN K0J4 140245Z AUTO 10SM CLR 24/23 A3015 100 90 1300 M /M RMK AO2 T02440228
63870K0J4 0J420160713215009807/13/16 21:50:31  5-MIN K0J4 140250Z AUTO 10SM CLR 24/23 A3015 100 90 1300 M /M RMK AO2 T02440228
63870K0J4 0J420160713215511107/13/16 21:55:31  5-MIN K0J4 140255Z AUTO 10SM CLR 24/23 A3016 100 90 1300 M /M RMK AO2 SLP207 T02440228 55017
63870K0J4 0J420160713220010107/13/16 22:00:31  5-MIN K0J4 140300Z AUTO 10SM FEW017 24/23 A3016 100 90 1300 M /M RMK AO2 T02440228
63870K0J4 0J420160713220510107/13/16 22:05:31  5-MIN K0J4 140305Z AUTO 10SM SCT017 24/23 A3016 100 90 1300 M /M RMK AO2 T02440228
63870K0J4 0J420160713221010107/13/16 22:10:31  5-MIN K0J4 140310Z AUTO 10SM SCT019 24/23 A3016 100 90 1300 M /M RMK AO2 T02440228
63870K0J4 0J420160713221510107/13/16 22:15:31  5-MIN K0J4 140315Z AUTO 10SM SCT019 24/23 A3015 100 90 1300 M /M RMK AO2 T02440228
63870K0J4 0J420160713222010107/13/16 22:20:31  5-MIN K0J4 140320Z AUTO 10SM SCT019 24/23 A3015 100 90 1300 M /M RMK AO2 T02440228
63870K0J4 0J420160713222510107/13/16 22:25:31  5-MIN K0J4 140325Z AUTO 10SM SCT019 24/23 A3015 100 93 1200 M /M RMK AO2 T02390228
63870K0J4 0J420160713223010107/13/16 22:30:31  5-MIN K0J4 140330Z AUTO 10SM FEW019 24/23 A3015 100 93 1200 M /M RMK AO2 T02390228
63870K0J4 0J420160713223510107/13/16 22:35:31  5-MIN K0J4 140335Z AUTO 10SM FEW017 24/23 A3015 100 93 1200 M /M RMK AO2 T02390228
63870K0J4 0J420160713224009807/13/16 22:40:31  5-MIN K0J4 140340Z AUTO 10SM CLR 24/23 A3015 100 93 1200 M /M RMK AO2 T02390228
63870K0J4 0J420160713224509807/13/16 22:45:31  5-MIN K0J4 140345Z AUTO 10SM CLR 24/23 A3015 100 93 1200 M /M RMK AO2 T02390228
63870K0J4 0J420160713225009807/13/16 22:50:31  5-MIN K0J4 140350Z AUTO 10SM CLR 24/23 A3015 100 90 1300 M /M RMK AO2 T02440228
63870K0J4 0J420160713225510507/13/16 22:55:31  5-MIN K0J4 140355Z AUTO 10SM CLR 24/23 A3015 100 93 1200 M /M RMK AO2 SLP206 T02390228
63870K0J4 0J420160713230009807/13/16 23:00:31  5-MIN K0J4 140400Z AUTO 10SM CLR 24/23 A3015 100 93 1200 M /M RMK AO2 T02390228
63870K0J4 0J420160713230509807/13/16 23:05:31  5-MIN K0J4 140405Z AUTO 10SM CLR 24/23 A3015 110 93 1200 M /M RMK AO2 T02390228
63870K0J4 0J420160713231009807/13/16 23:10:31  5-MIN K0J4 140410Z AUTO 10SM CLR 24/23 A3015 110 93 1200 M /M RMK AO2 T02390228
63870K0J4 0J420160713231509807/13/16 23:15:31  5-MIN K0J4 140415Z AUTO 10SM CLR 24/22 A3015 110 90 1200 M /M RMK AO2 T02390222
63870K0J4 0J420160713232009807/13/16 23:20:31  5-MIN K0J4 140420Z AUTO 10SM CLR 23/22 A3014 110 93 1100 M /M RMK AO2 T02330222
63870K0J4 0J420160713232509807/13/16 23:25:31  5-MIN K0J4 140425Z AUTO 10SM CLR 23/22 A3015 110 90 1100 M /M RMK AO2 T02330217
63870K0J4 0J420160713233009807/13/16 23:30:31  5-MIN K0J4 140430Z AUTO 10SM CLR 23/22 A3015 110 93 1100 M /M RMK AO2 T02330222
63870K0J4 0J420160713233509807/13/16 23:35:31  5-MIN K0J4 140435Z AUTO 10SM CLR 23/22 A3015 100 93 1100 M /M RMK AO2 T02330222
63870K0J4 0J420160713234009807/13/16 23:40:31  5-MIN K0J4 140440Z AUTO 10SM CLR 23/22 A3015 110 93 1100 M /M RMK AO2 T02330222
63870K0J4 0J420160713234509807/13/16 23:45:31  5-MIN K0J4 140445Z AUTO 10SM CLR 23/22 A3015 110 93 1100 M /M RMK AO2 T02330222
63870K0J4 0J420160713235009807/13/16 23:50:31  5-MIN K0J4 140450Z AUTO 10SM CLR 23/22 A3014 110 97 1100 M /M RMK AO2 T02280222
63870K0J4 0J420160713235511407/13/16 23:55:31  5-MIN K0J4 140455Z AUTO 9SM CLR 23/22 A3014 110 97 1100 M /M RMK AO2 SLP202 T02280222 403220206
63870K0J4 0J420160714000009707/14/16 00:00:31  5-MIN K0J4 140500Z AUTO 9SM CLR 23/22 A3014 110 97 1100 M /M RMK AO2 T02280222
63870K0J4 0J420160714000509807/14/16 00:05:31  5-MIN K0J4 140505Z AUTO 10SM CLR 23/22 A3014 120 93 1100 M /M RMK AO2 T02280217
63870K0J4 0J420160714001009807/14/16 00:10:31  5-MIN K0J4 140510Z AUTO 10SM CLR 22/21 A3014 120 93 1000 M /M RMK AO2 T02220211
63870K0J4 0J420160714001509807/14/16 00:15:31  5-MIN K0J4 140515Z AUTO 10SM CLR 23/21 A3014 120 90 1100 M /M RMK AO2 T02280211
63870K0J4 0J420160714002009807/14/16 00:20:31  5-MIN K0J4 140520Z AUTO 10SM CLR 23/22 A3014 120 93 1100 M /M RMK AO2 T02280217
63870K0J4 0J420160714002509807/14/16 00:25:31  5-MIN K0J4 140525Z AUTO 10SM CLR 23/22 A3014 120 93 1100 M /M RMK AO2 T02280217
63870K0J4 0J420160714003009807/14/16 00:30:31  5-MIN K0J4 140530Z AUTO 10SM CLR 23/22 A3014 120 93 1100 M /M RMK AO2 T02280217
63870K0J4 0J420160714003509807/14/16 00:35:31  5-MIN K0J4 140535Z AUTO 10SM CLR 22/21 A3013 120 93 1000 M /M RMK AO2 T02220211
63870K0J4 0J420160714004009807/14/16 00:40:31  5-MIN K0J4 140540Z AUTO 10SM CLR 22/21 A3013 120 93 1000 M /M RMK AO2 T02220211
63870K0J4 0J420160714004509807/14/16 00:45:31  5-MIN K0J4 140545Z AUTO 10SM CLR 23/21 A3013 120 90 1100 M /M RMK AO2 T02280211
63870K0J4 0J420160714005009707/14/16 00:50:31  5-MIN K0J4 140550Z AUTO 9SM CLR 22/21 A3013 120 93 1000 M /M RMK AO2 T02220211
63870K0J4 0J420160714005512207/14/16 00:55:31  5-MIN K0J4 140555Z AUTO 9SM CLR 22/21 A3013 120 93 1000 M /M RMK AO2 SLP199 T02220211 10256 20222 53016
63870K0J4 0J420160714010009707/14/16 01:00:31  5-MIN K0J4 140600Z AUTO 9SM CLR 22/21 A3013 120 93 1000 M /M RMK AO2 T02220211
63870K0J4 0J420160714010509707/14/16 01:05:31  5-MIN K0J4 140605Z AUTO 9SM CLR 22/21 A3013 120 93 1000 M /M RMK AO2 T02220211
63870K0J4 0J420160714011009807/14/16 01:10:31  5-MIN K0J4 140610Z AUTO 10SM CLR 22/21 A3013 130 93 1000 M /M RMK AO2 T02220211
63870K0J4 0J420160714011509807/14/16 01:15:31  5-MIN K0J4 140615Z AUTO 10SM CLR 22/21 A3012 130 93 1000 M /M RMK AO2 T02220211
63870K0J4 0J420160714012009807/14/16 01:20:31  5-MIN K0J4 140620Z AUTO 10SM CLR 22/21 A3012 130 93 1000 M /M RMK AO2 T02170206
63870K0J4 0J420160714012509807/14/16 01:25:31  5-MIN K0J4 140625Z AUTO 10SM CLR 22/21 A3012 130 90 1000 M /M RMK AO2 T02220206
63870K0J4 0J420160714013009807/14/16 01:30:31  5-MIN K0J4 140630Z AUTO 10SM CLR 22/21 A3011 140 93 1100 M /M RMK AO2 T02220211
63870K0J4 0J420160714013509807/14/16 01:35:31  5-MIN K0J4 140635Z AUTO 10SM CLR 22/21 A3011 140 93 1100 M /M RMK AO2 T02220211
63870K0J4 0J420160714014009707/14/16 01:40:31  5-MIN K0J4 140640Z AUTO 9SM CLR 22/21 A3011 140 93 1100 M /M RMK AO2 T02220211
63870K0J4 0J420160714014509707/14/16 01:45:31  5-MIN K0J4 140645Z AUTO 9SM CLR 22/21 A3011 140 93 1100 M /M RMK AO2 T02220211
63870K0J4 0J420160714015009807/14/16 01:50:31  5-MIN K0J4 140650Z AUTO 10SM CLR 22/21 A3011 140 93 1000 M /M RMK AO2 T02170206
63870K0J4 0J420160714015510507/14/16 01:55:31  5-MIN K0J4 140655Z AUTO 10SM CLR 22/21 A3010 150 93 1000 M /M RMK AO2 SLP189 T02170206
63870K0J4 0J420160714020009807/14/16 02:00:31  5-MIN K0J4 140700Z AUTO 10SM CLR 22/21 A3010 150 93 1000 M /M RMK AO2 T02170206
63870K0J4 0J420160714020509807/14/16 02:05:31  5-MIN K0J4 140705Z AUTO 10SM CLR 22/21 A3010 150 93 1000 M /M RMK AO2 T02170206
63870K0J4 0J420160714021009807/14/16 02:10:31  5-MIN K0J4 140710Z AUTO 10SM CLR 22/21 A3010 150 93 1000 M /M RMK AO2 T02170206
63870K0J4 0J420160714021509807/14/16 02:15:31  5-MIN K0J4 140715Z AUTO 10SM CLR 22/21 A3010 150 93 1000 M /M RMK AO2 T02170206
63870K0J4 0J420160714022009807/14/16 02:20:31  5-MIN K0J4 140720Z AUTO 10SM CLR 22/21 A3010 150 90 1100 M /M RMK AO2 T02220206
63870K0J4 0J420160714022509807/14/16 02:25:31  5-MIN K0J4 140725Z AUTO 10SM CLR 22/21 A3010 150 93 1100 M /M RMK AO2 T02220211
63870K0J4 0J420160714023009807/14/16 02:30:31  5-MIN K0J4 140730Z AUTO 10SM CLR 22/21 A3010 150 97 1000 M /M RMK AO2 T02170211
63870K0J4 0J420160714023509807/14/16 02:35:31  5-MIN K0J4 140735Z AUTO 10SM CLR 22/21 A3010 150 93 1000 M /M RMK AO2 T02170206
63870K0J4 0J420160714024009807/14/16 02:40:31  5-MIN K0J4 140740Z AUTO 10SM CLR 22/21 A3010 150 93 1000 M /M RMK AO2 T02170206
63870K0J4 0J420160714024509807/14/16 02:45:31  5-MIN K0J4 140745Z AUTO 10SM CLR 22/21 A3009 160 93 1000 M /M RMK AO2 T02170206
63870K0J4 0J420160714025009707/14/16 02:50:31  5-MIN K0J4 140750Z AUTO 10SM CLR 21/20 A3009 160 93 900 M /M RMK AO2 T02110200
63870K0J4 0J420160714025510307/14/16 02:55:31  5-MIN K0J4 140755Z AUTO 9SM CLR 21/21 A3009 160 97 900 M /M RMK AO2 SLP186 T02110206
63870K0J4 0J420160714030009607/14/16 03:00:31  5-MIN K0J4 140800Z AUTO 9SM CLR 21/21 A3009 160 97 900 M /M RMK AO2 T02110206
63870K0J4 0J420160714030509707/14/16 03:05:31  5-MIN K0J4 140805Z AUTO 10SM CLR 21/21 A3010 150 97 900 M /M RMK AO2 T02110206
63870K0J4 0J420160714031009807/14/16 03:10:31  5-MIN K0J4 140810Z AUTO 10SM CLR 22/21 A3009 160 93 1100 M /M RMK AO2 T02220211
63870K0J4 0J420160714031509707/14/16 03:15:31  5-MIN K0J4 140815Z AUTO 9SM CLR 22/21 A3009 160 97 1000 M /M RMK AO2 T02170211
63870K0J4 0J420160714032009607/14/16 03:20:31  5-MIN K0J4 140820Z AUTO 9SM CLR 21/21 A3009 160 97 900 M /M RMK AO2 T02110206
63870K0J4 0J420160714032509807/14/16 03:25:31  5-MIN K0J4 140825Z AUTO 10SM CLR 22/21 A3009 160 93 1000 M /M RMK AO2 T02170206
63870K0J4 0J420160714033009807/14/16 03:30:31  5-MIN K0J4 140830Z AUTO 10SM CLR 21/21 A3009 160 97 1000 M /M RMK AO2 T02110206
63870K0J4 0J420160714033509807/14/16 03:35:31  5-MIN K0J4 140835Z AUTO 10SM CLR 21/21 A3009 160 97 1000 M /M RMK AO2 T02110206
63870K0J4 0J420160714034009807/14/16 03:40:31  5-MIN K0J4 140840Z AUTO 10SM CLR 22/21 A3009 160 93 1000 M /M RMK AO2 T02170206
63870K0J4 0J420160714034509707/14/16 03:45:31  5-MIN K0J4 140845Z AUTO 9SM CLR 22/21 A3009 160 93 1000 M /M RMK AO2 T02170206
63870K0J4 0J420160714035009707/14/16 03:50:31  5-MIN K0J4 140850Z AUTO 9SM CLR 22/21 A3009 160 97 1000 M /M RMK AO2 T02170211
63870K0J4 0J420160714035511007/14/16 03:55:31  5-MIN K0J4 140855Z AUTO 9SM CLR 22/21 A3009 160 93 1000 M /M RMK AO2 SLP185 T02170206 58008
63870K0J4 0J420160714040009807/14/16 04:00:31  5-MIN K0J4 140900Z AUTO 10SM CLR 22/21 A3009 160 93 1000 M /M RMK AO2 T02170206
63870K0J4 0J420160714040509807/14/16 04:05:31  5-MIN K0J4 140905Z AUTO 10SM CLR 22/21 A3009 160 93 1000 M /M RMK AO2 T02170206
63870K0J4 0J420160714041009807/14/16 04:10:31  5-MIN K0J4 140910Z AUTO 10SM CLR 22/21 A3009 160 93 1000 M /M RMK AO2 T02170206
63870K0J4 0J420160714041509807/14/16 04:15:31  5-MIN K0J4 140915Z AUTO 10SM CLR 21/21 A3009 160 97 1000 M /M RMK AO2 T02110206
63870K0J4 0J420160714042009807/14/16 04:20:31  5-MIN K0J4 140920Z AUTO 10SM CLR 21/20 A3009 160 93 1000 M /M RMK AO2 T02110200
63870K0J4 0J420160714042509807/14/16 04:25:31  5-MIN K0J4 140925Z AUTO 10SM CLR 21/20 A3009 160 93 1000 M /M RMK AO2 T02110200
63870K0J4 0J420160714043009807/14/16 04:30:31  5-MIN K0J4 140930Z AUTO 10SM CLR 21/20 A3009 160 93 1000 M /M RMK AO2 T02110200
63870K0J4 0J420160714043509807/14/16 04:35:31  5-MIN K0J4 140935Z AUTO 10SM CLR 21/20 A3009 160 93 1000 M /M RMK AO2 T02110200
63870K0J4 0J420160714044009707/14/16 04:40:31  5-MIN K0J4 140940Z AUTO 10SM CLR 21/20 A3009 160 93 900 M /M RMK AO2 T02110200
63870K0J4 0J420160714044509707/14/16 04:45:31  5-MIN K0J4 140945Z AUTO 10SM CLR 21/20 A3009 160 93 900 M /M RMK AO2 T02110200
63870K0J4 0J420160714045009707/14/16 04:50:31  5-MIN K0J4 140950Z AUTO 10SM CLR 21/20 A3010 150 93 900 M /M RMK AO2 T02110200
63870K0J4 0J420160714045510407/14/16 04:55:31  5-MIN K0J4 140955Z AUTO 10SM CLR 21/20 A3010 150 93 900 M /M RMK AO2 SLP187 T02110200
63870K0J4 0J420160714050009707/14/16 05:00:31  5-MIN K0J4 141000Z AUTO 10SM CLR 21/20 A3010 150 93 900 M /M RMK AO2 T02110200
63870K0J4 0J420160714050509707/14/16 05:05:31  5-MIN K0J4 141005Z AUTO 10SM CLR 21/20 A3010 150 93 900 M /M RMK AO2 T02110200
63870K0J4 0J420160714051009707/14/16 05:10:31  5-MIN K0J4 141010Z AUTO 10SM CLR 21/20 A3010 150 93 900 M /M RMK AO2 T02110200
63870K0J4 0J420160714051509807/14/16 05:15:31  5-MIN K0J4 141015Z AUTO 10SM CLR 22/21 A3010 150 93 1000 M /M RMK AO2 T02170206
63870K0J4 0J420160714052009807/14/16 05:20:31  5-MIN K0J4 141020Z AUTO 10SM CLR 22/21 A3010 150 93 1000 M /M RMK AO2 T02170206
63870K0J4 0J420160714052509707/14/16 05:25:31  5-MIN K0J4 141025Z AUTO 10SM CLR 21/20 A3011 150 93 900 M /M RMK AO2 T02110200
63870K0J4 0J420160714053009707/14/16 05:30:31  5-MIN K0J4 141030Z AUTO 10SM CLR 21/20 A3011 140 93 900 M /M RMK AO2 T02110200
63870K0J4 0J420160714053509707/14/16 05:35:31  5-MIN K0J4 141035Z AUTO 10SM CLR 21/19 A3011 140 93 900 M /M RMK AO2 T02060194
63870K0J4 0J420160714054009707/14/16 05:40:31  5-MIN K0J4 141040Z AUTO 10SM CLR 21/20 A3011 140 93 900 M /M RMK AO2 T02110200
63870K0J4 0J420160714054509707/14/16 05:45:31  5-MIN K0J4 141045Z AUTO 10SM CLR 21/20 A3012 140 93 900 M /M RMK AO2 T02110200
63870K0J4 0J420160714055009707/14/16 05:50:31  5-MIN K0J4 141050Z AUTO 10SM CLR 21/20 A3012 130 93 900 M /M RMK AO2 T02110200
63870K0J4 0J420160714055510407/14/16 05:55:31  5-MIN K0J4 141055Z AUTO 10SM CLR 21/20 A3012 130 93 900 M /M RMK AO2 SLP195 T02110200
63870K0J4 0J420160714060009707/14/16 06:00:31  5-MIN K0J4 141100Z AUTO 10SM CLR 21/19 A3012 130 90 900 M /M RMK AO2 T02110194
63870K0J4 0J420160714060509707/14/16 06:05:31  5-MIN K0J4 141105Z AUTO 10SM CLR 21/20 A3012 130 93 900 M /M RMK AO2 T02110200
63870K0J4 0J420160714061009707/14/16 06:10:31  5-MIN K0J4 141110Z AUTO 10SM CLR 21/20 A3013 120 93 900 M /M RMK AO2 T02110200
63870K0J4 0J420160714061509807/14/16 06:15:31  5-MIN K0J4 141115Z AUTO 10SM CLR 22/20 A3013 120 90 1000 M /M RMK AO2 T02170200
63870K0J4 0J420160714062009807/14/16 06:20:31  5-MIN K0J4 141120Z AUTO 10SM CLR 22/21 A3013 120 93 1000 M /M RMK AO2 T02170206
63870K0J4 0J420160714062509807/14/16 06:25:31  5-MIN K0J4 141125Z AUTO 10SM CLR 22/21 A3013 120 93 1000 M /M RMK AO2 T02170206
63870K0J4 0J420160714063009807/14/16 06:30:31  5-MIN K0J4 141130Z AUTO 10SM CLR 22/21 A3013 120 90 1000 M /M RMK AO2 T02220206
63870K0J4 0J420160714063509807/14/16 06:35:31  5-MIN K0J4 141135Z AUTO 10SM CLR 23/22 A3014 120 93 1100 M /M RMK AO2 T02280217
63870K0J4 0J420160714064009807/14/16 06:40:31  5-MIN K0J4 141140Z AUTO 10SM CLR 23/22 A3013 120 90 1200 M /M RMK AO2 T02330217
63870K0J4 0J420160714064509707/14/16 06:45:31  5-MIN K0J4 141145Z AUTO 9SM CLR 23/22 A3013 120 93 1200 M /M RMK AO2 T02330222
63870K0J4 0J420160714065009707/14/16 06:50:31  5-MIN K0J4 141150Z AUTO 9SM CLR 23/22 A3013 120 93 1200 M /M RMK AO2 T02330222
63870K0J4 0J420160714065512307/14/16 06:55:31  5-MIN K0J4 141155Z AUTO 10SM CLR 24/22 A3013 120 90 1200 M /M RMK AO2 SLP199 T02390222 10239 20206 55013
63870K0J4 0J420160714070009807/14/16 07:00:31  5-MIN K0J4 141200Z AUTO 10SM CLR 24/23 A3013 130 93 1200 M /M RMK AO2 T02390228
63870K0J4 0J420160714070509807/14/16 07:05:31  5-MIN K0J4 141205Z AUTO 10SM CLR 24/23 A3012 130 90 1300 M /M RMK AO2 T02440228
63870K0J4 0J420160714071010007/14/16 07:10:31  5-MIN K0J4 141210Z AUTO 10SM CLR 24/23 A3013 130 90 1300 M /M RMK AO2 T02440228 $
63870K0J4 0J420160714071510007/14/16 07:15:31  5-MIN K0J4 141215Z AUTO 10SM CLR 24/23 A3013 120 93 1300 M /M RMK AO2 T02440233 $
63870K0J4 0J420160714072010007/14/16 07:20:31  5-MIN K0J4 141220Z AUTO 10SM CLR 24/23 A3013 120 93 1300 M /M RMK AO2 T02440233 $
63870K0J4 0J420160714072510007/14/16 07:25:31  5-MIN K0J4 141225Z AUTO 10SM CLR 25/23 A3013 120 90 1300 M /M RMK AO2 T02500233 $
63870K0J4 0J420160714073010007/14/16 07:30:31  5-MIN K0J4 141230Z AUTO 10SM CLR 25/23 A3014 120 90 1300 M /M RMK AO2 T02500233 $
63870K0J4 0J420160714073510007/14/16 07:35:31  5-MIN K0J4 141235Z AUTO 10SM CLR 26/23 A3014 120 84 1500 M /M RMK AO2 T02610233 $
63870K0J4 0J420160714074010007/14/16 07:40:31  5-MIN K0J4 141240Z AUTO 10SM CLR 26/24 A3014 120 87 1500 M /M RMK AO2 T02610239 $
63870K0J4 0J420160714074510007/14/16 07:45:31  5-MIN K0J4 141245Z AUTO 10SM CLR 26/24 A3014 110 90 1400 M /M RMK AO2 T02560239 $
63870K0J4 0J420160714075010007/14/16 07:50:31  5-MIN K0J4 141250Z AUTO 10SM CLR 26/24 A3014 110 90 1400 M /M RMK AO2 T02560239 $
63870K0J4 0J420160714075510707/14/16 07:55:31  5-MIN K0J4 141255Z AUTO 10SM CLR 26/24 A3014 110 87 1500 M /M RMK AO2 SLP202 T02610239 $
63870K0J4 0J420160714080010007/14/16 08:00:31  5-MIN K0J4 141300Z AUTO 10SM CLR 27/24 A3014 110 84 1500 M /M RMK AO2 T02670239 $
63870K0J4 0J420160714080510007/14/16 08:05:31  5-MIN K0J4 141305Z AUTO 10SM CLR 27/24 A3015 110 84 1500 M /M RMK AO2 T02670239 $
63870K0J4 0J420160714081010007/14/16 08:10:31  5-MIN K0J4 141310Z AUTO 10SM CLR 27/24 A3014 110 84 1500 M /M RMK AO2 T02670239 $
63870K0J4 0J420160714081510007/14/16 08:15:31  5-MIN K0J4 141315Z AUTO 10SM CLR 27/24 A3014 110 82 1600 M /M RMK AO2 T02720239 $
63870K0J4 0J420160714082010007/14/16 08:20:31  5-MIN K0J4 141320Z AUTO 10SM CLR 27/24 A3014 110 82 1600 M /M RMK AO2 T02720239 $
63870K0J4 0J420160714082510007/14/16 08:25:31  5-MIN K0J4 141325Z AUTO 10SM CLR 27/24 A3014 110 84 1500 M /M RMK AO2 T02670239 $
63870K0J4 0J420160714083010007/14/16 08:30:31  5-MIN K0J4 141330Z AUTO 10SM CLR 27/24 A3014 110 82 1600 M /M RMK AO2 T02720239 $
63870K0J4 0J420160714083510007/14/16 08:35:31  5-MIN K0J4 141335Z AUTO 10SM CLR 28/24 A3014 110 79 1700 M /M RMK AO2 T02780239 $
63870K0J4 0J420160714084010007/14/16 08:40:31  5-MIN K0J4 141340Z AUTO 10SM CLR 28/24 A3014 110 79 1700 M /M RMK AO2 T02830244 $
63870K0J4 0J420160714084510007/14/16 08:45:31  5-MIN K0J4 141345Z AUTO 10SM CLR 28/24 A3014 110 76 1700 M /M RMK AO2 T02830239 $
63870K0J4 0J420160714085010307/14/16 08:50:31  5-MIN K0J4 141350Z AUTO 10SM FEW013 28/24 A3015 110 76 1700 M /M RMK AO2 T02830239 $
63870K0J4 0J420160714085511007/14/16 08:55:31  5-MIN K0J4 141355Z AUTO 10SM FEW013 29/24 A3015 110 76 1800 M /M RMK AO2 SLP204 T02890244 $
63870K0J4 0J420160714090010007/14/16 09:00:31  5-MIN K0J4 141400Z AUTO 10SM CLR 29/24 A3014 110 76 1800 M /M RMK AO2 T02890244 $
63870K0J4 0J420160714090510007/14/16 09:05:31  5-MIN K0J4 141405Z AUTO 10SM CLR 29/24 A3014 110 74 1800 M /M RMK AO2 T02890239 $
63870K0J4 0J420160714091010307/14/16 09:10:31  5-MIN K0J4 141410Z AUTO 10SM FEW015 29/24 A3014 110 74 1800 M /M RMK AO2 T02940244 $
63870K0J4 0J420160714091510307/14/16 09:15:31  5-MIN K0J4 141415Z AUTO 10SM FEW015 29/24 A3014 110 74 1800 M /M RMK AO2 T02890239 $
63870K0J4 0J420160714092010307/14/16 09:20:31  5-MIN K0J4 141420Z AUTO 10SM SCT017 29/24 A3014 110 74 1800 M /M RMK AO2 T02890239 $
63870K0J4 0J420160714092510307/14/16 09:25:31  5-MIN K0J4 141425Z AUTO 10SM SCT019 29/24 A3015 110 74 1800 M /M RMK AO2 T02890239 $
63870K0J4 0J420160714093010307/14/16 09:30:31  5-MIN K0J4 141430Z AUTO 10SM SCT019 29/24 A3015 110 71 1800 M /M RMK AO2 T02940239 $
63870K0J4 0J420160714093510307/14/16 09:35:31  5-MIN K0J4 141435Z AUTO 10SM BKN019 29/24 A3015 110 71 1800 M /M RMK AO2 T02940239 $
63870K0J4 0J420160714094011007/14/16 09:40:31  5-MIN K0J4 141440Z AUTO 10SM BKN019 BKN025 29/23 A3015 110 71 1800 M /M RMK AO2 T02890233 $
63870K0J4 0J420160714094511007/14/16 09:45:31  5-MIN K0J4 141445Z AUTO 10SM BKN019 BKN025 29/24 A3015 110 71 1800 M /M RMK AO2 T02940239 $
63870K0J4 0J420160714095010307/14/16 09:50:31  5-MIN K0J4 141450Z AUTO 10SM BKN021 30/24 A3015 110 72 1900 M /M RMK AO2 T03000244 $
63870K0J4 0J420160714095512307/14/16 09:55:31  5-MIN K0J4 141455Z AUTO 10SM BKN021 BKN028 30/24 A3015 100 69 1900 M /M RMK AO2 SLP205 T03000239 51013 $
63870K0J4 0J420160714100011007/14/16 10:00:31  5-MIN K0J4 141500Z AUTO 10SM BKN021 BKN028 30/23 A3015 100 67 1900 M /M RMK AO2 T03000233 $
63870K0J4 0J420160714100511007/14/16 10:05:31  5-MIN K0J4 141505Z AUTO 10SM SCT021 BKN027 29/23 A3015 100 71 1800 M /M RMK AO2 T02890233 $
63870K0J4 0J420160714101011007/14/16 10:10:31  5-MIN K0J4 141510Z AUTO 10SM SCT021 BKN027 30/24 A3015 100 69 1900 M /M RMK AO2 T03000239 $
63870K0J4 0J420160714101511007/14/16 10:15:31  5-MIN K0J4 141515Z AUTO 10SM SCT021 BKN027 30/24 A3015 100 69 1900 M /M RMK AO2 T03000239 $
63870K0J4 0J420160714102011007/14/16 10:20:31  5-MIN K0J4 141520Z AUTO 10SM SCT023 SCT029 29/24 A3015 110 71 1800 M /M RMK AO2 T02940239 $
63870K0J4 0J420160714102510307/14/16 10:25:31  5-MIN K0J4 141525Z AUTO 10SM FEW023 31/24 A3014 110 67 2000 M /M RMK AO2 T03060239 $
63870K0J4 0J420160714103010307/14/16 10:30:31  5-MIN K0J4 141530Z AUTO 10SM FEW025 31/23 A3014 110 63 2000 M /M RMK AO2 T03110233 $
63870K0J4 0J420160714103510307/14/16 10:35:31  5-MIN K0J4 141535Z AUTO 10SM FEW025 31/23 A3014 110 63 2000 M /M RMK AO2 T03110233 $
63870K0J4 0J420160714104010307/14/16 10:40:31  5-MIN K0J4 141540Z AUTO 10SM FEW025 31/23 A3014 110 63 2000 M /M RMK AO2 T03110233 $
63870K0J4 0J420160714104510307/14/16 10:45:31  5-MIN K0J4 141545Z AUTO 10SM FEW032 31/23 A3014 110 63 2000 M /M RMK AO2 T03110233 $
63870K0J4 0J420160714105010307/14/16 10:50:31  5-MIN K0J4 141550Z AUTO 10SM FEW032 32/23 A3014 110 58 2100 M /M RMK AO2 T03170228 $
63870K0J4 0J420160714105511007/14/16 10:55:31  5-MIN K0J4 141555Z AUTO 10SM SCT032 31/22 A3014 110 58 2000 M /M RMK AO2 SLP201 T03110222 $
63870K0J4 0J420160714110010307/14/16 11:00:31  5-MIN K0J4 141600Z AUTO 10SM BKN032 31/22 A3014 120 58 2000 M /M RMK AO2 T03060217 $
63870K0J4 0J420160714110510307/14/16 11:05:31  5-MIN K0J4 141605Z AUTO 10SM SCT032 31/22 A3014 120 60 2000 M /M RMK AO2 T03060222 $
63870K0J4 0J420160714111010307/14/16 11:10:31  5-MIN K0J4 141610Z AUTO 10SM SCT034 32/22 A3014 120 56 2100 M /M RMK AO2 T03170222 $
63870K0J4 0J420160714111511007/14/16 11:15:31  5-MIN K0J4 141615Z AUTO 10SM BKN034 BKN041 32/22 A3014 110 55 2100 M /M RMK AO2 T03220222 $
63870K0J4 0J420160714112011007/14/16 11:20:31  5-MIN K0J4 141620Z AUTO 10SM BKN034 BKN041 31/21 A3014 110 56 2000 M /M RMK AO2 T03060211 $
63870K0J4 0J420160714112510307/14/16 11:25:31  5-MIN K0J4 141625Z AUTO 10SM BKN034 31/22 A3014 120 58 2000 M /M RMK AO2 T03060217 $
63870K0J4 0J420160714113011007/14/16 11:30:31  5-MIN K0J4 141630Z AUTO 10SM BKN036 BKN043 31/23 A3014 120 60 2000 M /M RMK AO2 T03110228 $
63870K0J4 0J420160714113510307/14/16 11:35:31  5-MIN K0J4 141635Z AUTO 10SM BKN036 31/23 A3013 120 60 2000 M /M RMK AO2 T03110228 $
63870K0J4 0J420160714114011007/14/16 11:40:31  5-MIN K0J4 141640Z AUTO 10SM BKN038 BKN070 31/22 A3013 120 60 2000 M /M RMK AO2 T03060222 $
63870K0J4 0J420160714114511707/14/16 11:45:31  5-MIN K0J4 141645Z AUTO 10SM SCT038 BKN055 BKN070 31/22 A3013 120 58 2000 M /M RMK AO2 T03110222 $
63870K0J4 0J420160714115011707/14/16 11:50:31  5-MIN K0J4 141650Z AUTO 10SM FEW038 SCT055 BKN070 33/23 A3012 130 57 2200 M /M RMK AO2 T03280233 $
63870K0J4 0J420160714115512407/14/16 11:55:31  5-MIN K0J4 141655Z AUTO 10SM FEW038 SCT055 SCT110 32/23 A3012 130 57 2200 M /M RMK AO2 SLP196 T03220228 $
63870K0J4 0J420160714120011007/14/16 12:00:31  5-MIN K0J4 141700Z AUTO 10SM FEW038 SCT060 33/23 A3012 130 55 2200 M /M RMK AO2 T03280228 $
63870K0J4 0J420160714120510307/14/16 12:05:31  5-MIN K0J4 141705Z AUTO 10SM SCT065 33/23 A3012 130 55 2200 M /M RMK AO2 T03280228 $
63870K0J4 0J420160714123004907/14/16 12:30:31  5-MIN K0J4 141730Z AUTO RVRNO 
63870K0J4 0J420160714123509207/14/16 12:35:31  5-MIN K0J4 141735Z AUTO 17003KT A3012 M M M 170/03 RMK AO2 PWINO FZRANO $
63870K0J4 0J420160714124010407/14/16 12:40:31  5-MIN K0J4 141740Z AUTO VRB03KT 10SM 31/22 A3012 130 58 2000 VRB/03 RMK AO2 T03110222
63870K0J4 0J420160714124510407/14/16 12:45:31  5-MIN K0J4 141745Z AUTO VRB04KT 10SM 32/22 A3011 140 55 2200 VRB/04 RMK AO2 T03220222
63870K0J4 0J420160714125010407/14/16 12:50:31  5-MIN K0J4 141750Z AUTO 00000KT 10SM 32/22 A3011 150 55 2100 000/00 RMK AO2 T03170217
63870K0J4 0J420160714125509907/14/16 12:55:31  5-MIN K0J4 141755Z AUTO 00000KT 10SM VCTS 32/22 A3011 140 56 2100 000/00 RMK AO2
63870K0J4 0J420160714130011607/14/16 13:00:31  5-MIN K0J4 141800Z AUTO VRB03KT 10SM VCTS BKN041 31/23 A3011 140 60 2100 VRB/03 RMK AO2 T03110228
63870K0J4 0J420160714130511607/14/16 13:05:31  5-MIN K0J4 141805Z AUTO VRB03KT 10SM VCTS OVC041 30/22 A3011 140 62 1900 VRB/03 RMK AO2 T03000222
63870K0J4 0J420160714131013407/14/16 13:10:31  5-MIN K0J4 141810Z AUTO 23005KT 10SM TS BKN039 BKN080 OVC100 29/22 A3011 140 64 1900 230/05 RMK AO2 TSB08 T02940222
63870K0J4 0J420160714131515207/14/16 13:15:31  5-MIN K0J4 141815Z AUTO 23007KT 10SM -TSRA BKN039 BKN060 OVC100 29/22 A3011 140 67 1800 230/07 RMK AO2 RAB12 TSB08B11 P0000 T02890222
63870K0J4 0J420160714132015207/14/16 13:20:31  5-MIN K0J4 141820Z AUTO 24005KT 10SM -TSRA SCT039 BKN060 OVC075 28/22 A3010 150 69 1800 240/05 RMK AO2 RAB12 TSB08B11 P0000 T02830222
63870K0J4 0J420160714132515207/14/16 13:25:31  5-MIN K0J4 141825Z AUTO 19005KT 10SM -TSRA FEW039 BKN060 OVC090 28/22 A3009 160 66 1800 190/05 RMK AO2 RAB12 TSB08B11 P0000 T02830217
63870K0J4 0J420160714133015207/14/16 13:30:31  5-MIN K0J4 141830Z AUTO 20003KT 10SM TS FEW039 BKN060 OVC110 28/21 A3009 160 64 1800 200/03 RMK AO2 RAB12E28 TSB08B11 P0000 T02830211
63870K0J4 0J420160714133515207/14/16 13:35:31  5-MIN K0J4 141835Z AUTO 21007KT 10SM TS SCT060 BKN080 BKN100 29/22 A3009 160 64 1800 210/07 RMK AO2 RAB12E28 TSB08B11 P0000 T02890217
63870K0J4 0J420160714134015207/14/16 13:40:31  5-MIN K0J4 141840Z AUTO 16005KT 10SM TS SCT060 BKN080 BKN110 28/22 A3009 160 71 1700 160/05 RMK AO2 RAB12E28 TSB08B11 P0000 T02780222
63870K0J4 0J420160714134515207/14/16 13:45:31  5-MIN K0J4 141845Z AUTO 17005KT 10SM TS FEW055 SCT080 BKN110 27/23 A3009 160 76 1600 170/05 RMK AO2 RAB12E28 TSB08B11 P0000 T02720228
63870K0J4 0J420160714135015207/14/16 13:50:31  5-MIN K0J4 141850Z AUTO 19005KT 10SM TS FEW055 FEW090 BKN110 27/23 A3008 170 79 1700 190/05 RMK AO2 RAB12E28 TSB08B11 P0000 T02720233
63870K0J4 0J420160714135515907/14/16 13:55:31  5-MIN K0J4 141855Z AUTO 17006KT 10SM TS FEW075 FEW085 BKN110 27/23 A3008 170 79 1700 170/06 RMK AO2 RAB12E28 TSB08B11 SLP182 P0000 T02720233
63870K0J4 0J420160714140012107/14/16 14:00:31  5-MIN K0J4 141900Z AUTO 15007KT 10SM TS FEW075 BKN110 27/23 A3010 150 82 1600 150/07 RMK AO2 T02670233
63870K0J4 0J420160714140513407/14/16 14:05:31  5-MIN K0J4 141905Z AUTO 18007KT 9SM TSRA FEW070 BKN100 26/23 A3010 150 84 1500 180/07 RMK AO2 RAB01 P0001 T02610233
63870K0J4 0J420160714141014207/14/16 14:10:31  5-MIN K0J4 141910Z AUTO VRB06KT 9SM -TSRA FEW070 SCT090 OVC110 26/23 A3010 150 81 1500 VRB/06 RMK AO2 RAB01 P0001 T02610228
63870K0J4 0J420160714141514307/14/16 14:15:31  5-MIN K0J4 141915Z AUTO 20005KT 10SM -TSRA FEW070 BKN095 OVC110 26/22 A3010 150 79 1400 200/05 RMK AO2 RAB01 P0001 T02560217
63870K0J4 0J420160714142014307/14/16 14:20:31  5-MIN K0J4 141920Z AUTO 18004KT 10SM -TSRA FEW065 SCT080 OVC100 26/22 A3010 150 81 1400 180/04 RMK AO2 RAB01 P0001 T02560222
63870K0J4 0J420160714142514307/14/16 14:25:31  5-MIN K0J4 141925Z AUTO 16004KT 10SM -TSRA SCT065 BKN080 OVC100 26/23 A3010 150 84 1400 160/04 RMK AO2 RAB01 P0001 T02560228
63870K0J4 0J420160714143014307/14/16 14:30:31  5-MIN K0J4 141930Z AUTO 17004KT 10SM -TSRA FEW040 SCT055 OVC090 25/23 A3010 150 87 1400 170/04 RMK AO2 RAB01 P0001 T02500228
63870K0J4 0J420160714143514307/14/16 14:35:31  5-MIN K0J4 141935Z AUTO 21004KT 10SM -TSRA FEW038 SCT055 BKN075 25/23 A3009 160 87 1400 210/04 RMK AO2 RAB01 P0001 T02500228
63870K0J4 0J420160714144014307/14/16 14:40:31  5-MIN K0J4 141940Z AUTO 00000KT 10SM -TSRA FEW040 FEW065 SCT090 26/23 A3008 160 84 1500 000/00 RMK AO2 RAB01 P0001 T02560228
63870K0J4 0J420160714144515207/14/16 14:45:31  5-MIN K0J4 141945Z AUTO 00000KT 10SM VCTS -RA FEW040 FEW065 SCT080 26/23 A3008 170 81 1500 000/00 RMK AO2 RAB01 TSE42 P0001 T02610228
63870K0J4 0J420160714145014407/14/16 14:50:31  5-MIN K0J4 141950Z AUTO 24004KT 10SM VCTS FEW040 FEW065 26/22 A3008 170 79 1500 240/04 RMK AO2 RAB01E50 TSE42 P0001 T02610222
63870K0J4 0J420160714145514407/14/16 14:55:31  5-MIN K0J4 141955Z AUTO 25003KT 10SM VCTS FEW035 26/23 A3008 170 84 1500 250/03 RMK AO2 RAB01E50 TSE42 SLP182 P0001 T02610233
63870K0J4 0J420160714150011307/14/16 15:00:31  5-MIN K0J4 142000Z AUTO 22003KT 10SM VCTS CLR 27/23 A3008 170 82 1600 220/03 RMK AO2 T02670233
63870K0J4 0J420160714150510807/14/16 15:05:31  5-MIN K0J4 142005Z AUTO 19003KT 10SM CLR 27/23 A3008 170 79 1600 190/03 RMK AO2 T02670228
63870K0J4 0J420160714151010807/14/16 15:10:31  5-MIN K0J4 142010Z AUTO 00000KT 10SM CLR 27/23 A3008 170 82 1600 000/00 RMK AO2 T02670233
63870K0J4 0J420160714151510807/14/16 15:15:31  5-MIN K0J4 142015Z AUTO 00000KT 10SM CLR 27/23 A3007 170 82 1600 000/00 RMK AO2 T02670233
63870K0J4 0J420160714152010807/14/16 15:20:31  5-MIN K0J4 142020Z AUTO 00000KT 10SM CLR 28/23 A3007 180 76 1700 000/00 RMK AO2 T02780233
63870K0J4 0J420160714152510807/14/16 15:25:31  5-MIN K0J4 142025Z AUTO 22004KT 10SM CLR 27/23 A3006 180 79 1700 220/04 RMK AO2 T02720233
63870K0J4 0J420160714153010807/14/16 15:30:31  5-MIN K0J4 142030Z AUTO 24003KT 10SM CLR 28/24 A3006 180 79 1700 240/03 RMK AO2 T02780239
63870K0J4 0J420160714153510807/14/16 15:35:31  5-MIN K0J4 142035Z AUTO 22005KT 10SM CLR 28/24 A3006 180 79 1700 220/05 RMK AO2 T02780239
63870K0J4 0J420160714154010807/14/16 15:40:31  5-MIN K0J4 142040Z AUTO 22006KT 10SM CLR 28/23 A3006 190 76 1700 220/06 RMK AO2 T02780233
63870K0J4 0J420160714154510807/14/16 15:45:31  5-MIN K0J4 142045Z AUTO 23005KT 10SM CLR 28/23 A3006 190 76 1700 230/05 RMK AO2 T02780233
63870K0J4 0J420160714155010807/14/16 15:50:31  5-MIN K0J4 142050Z AUTO 22006KT 10SM CLR 28/24 A3006 190 76 1800 220/06 RMK AO2 T02830239
63870K0J4 0J420160714155512107/14/16 15:55:31  5-MIN K0J4 142055Z AUTO 21005KT 10SM CLR 28/24 A3006 190 76 1800 210/05 RMK AO2 SLP174 60001 T02830239
63870K0J4 0J420160714160010807/14/16 16:00:31  5-MIN K0J4 142100Z AUTO 21007KT 10SM CLR 28/24 A3006 190 76 1800 210/07 RMK AO2 T02830239
63870K0J4 0J420160714160510807/14/16 16:05:31  5-MIN K0J4 142105Z AUTO VRB05KT 10SM CLR 29/24 A3006 190 74 1900 VRB/05 RMK AO2 T02890239
63870K0J4 0J420160714161010807/14/16 16:10:31  5-MIN K0J4 142110Z AUTO 21008KT 10SM CLR 29/24 A3006 190 71 1900 210/08 RMK AO2 T02940239
63870K0J4 0J420160714161510807/14/16 16:15:31  5-MIN K0J4 142115Z AUTO 21007KT 10SM CLR 29/24 A3006 190 71 1900 210/07 RMK AO2 T02940239
63870K0J4 0J420160714162010807/14/16 16:20:31  5-MIN K0J4 142120Z AUTO 20008KT 10SM CLR 29/23 A3006 190 69 1900 200/08 RMK AO2 T02940233
63870K0J4 0J420160714162510807/14/16 16:25:31  5-MIN K0J4 142125Z AUTO VRB05KT 10SM CLR 29/24 A3006 190 71 1900 VRB/05 RMK AO2 T02940239
63870K0J4 0J420160714163010807/14/16 16:30:31  5-MIN K0J4 142130Z AUTO 21006KT 10SM CLR 29/24 A3007 180 71 1900 210/06 RMK AO2 T02940239
63870K0J4 0J420160714163510807/14/16 16:35:31  5-MIN K0J4 142135Z AUTO 21008KT 10SM CLR 29/23 A3006 180 69 1900 210/08 RMK AO2 T02940233
63870K0J4 0J420160714164010807/14/16 16:40:31  5-MIN K0J4 142140Z AUTO 22005KT 10SM CLR 29/23 A3006 190 69 1900 220/05 RMK AO2 T02940233
63870K0J4 0J420160714164510807/14/16 16:45:31  5-MIN K0J4 142145Z AUTO 21008KT 10SM CLR 30/23 A3006 190 67 2000 210/08 RMK AO2 T03000233
63870K0J4 0J420160714165010807/14/16 16:50:31  5-MIN K0J4 142150Z AUTO 22007KT 10SM CLR 30/23 A3006 190 67 2000 220/07 RMK AO2 T03000233
63870K0J4 0J420160714165511507/14/16 16:55:31  5-MIN K0J4 142155Z AUTO 22006KT 10SM CLR 30/23 A3005 190 67 2000 220/06 RMK AO2 SLP172 T03000233
63870K0J4 0J420160714170010807/14/16 17:00:31  5-MIN K0J4 142200Z AUTO 21007KT 10SM CLR 31/24 A3005 190 67 2100 210/07 RMK AO2 T03060239
63870K0J4 0J420160714170510807/14/16 17:05:31  5-MIN K0J4 142205Z AUTO 22006KT 10SM CLR 30/23 A3005 200 67 2000 220/06 RMK AO2 T03000233
63870K0J4 0J420160714171010807/14/16 17:10:31  5-MIN K0J4 142210Z AUTO 20008KT 10SM CLR 31/23 A3005 200 65 2100 200/08 RMK AO2 T03060233
63870K0J4 0J420160714171510807/14/16 17:15:31  5-MIN K0J4 142215Z AUTO 20007KT 10SM CLR 31/23 A3005 200 65 2100 200/07 RMK AO2 T03060233
63870K0J4 0J420160714172010807/14/16 17:20:31  5-MIN K0J4 142220Z AUTO 20006KT 10SM CLR 31/23 A3005 200 65 2100 200/06 RMK AO2 T03060233
63870K0J4 0J420160714172510807/14/16 17:25:31  5-MIN K0J4 142225Z AUTO 19008KT 10SM CLR 31/24 A3005 200 67 2100 190/08 RMK AO2 T03060239
63870K0J4 0J420160714173010807/14/16 17:30:31  5-MIN K0J4 142230Z AUTO 19007KT 10SM CLR 31/23 A3005 200 65 2100 190/07 RMK AO2 T03060233
63870K0J4 0J420160714173510807/14/16 17:35:31  5-MIN K0J4 142235Z AUTO 20007KT 10SM CLR 30/23 A3005 190 67 2000 200/07 RMK AO2 T03000233
63870K0J4 0J420160714174010807/14/16 17:40:31  5-MIN K0J4 142240Z AUTO 19006KT 10SM CLR 30/23 A3006 190 67 2000 190/06 RMK AO2 T03000233
63870K0J4 0J420160714174511107/14/16 17:45:31  5-MIN K0J4 142245Z AUTO 24004KT 10SM FEW027 30/24 A3006 190 69 2000 240/04 RMK AO2 T03000239
63870K0J4 0J420160714175011107/14/16 17:50:31  5-MIN K0J4 142250Z AUTO 00000KT 10SM SCT027 30/24 A3006 180 69 2000 000/00 RMK AO2 T03000239
63870K0J4 0J420160714175510107/14/16 17:55:31  5-MIN K0J4 142255Z AUTO 00000KT 10SM BKN027 29/24 A3007 180 71 1900 000/00 RMK AO2
63870K0J4 0J420160714180011807/14/16 18:00:31  5-MIN K0J4 142300Z AUTO 28004KT 10SM BKN027 BKN046 29/23 A3007 180 69 1900 280/04 RMK AO2 T02940233
63870K0J4 0J420160714180512507/14/16 18:05:31  5-MIN K0J4 142305Z AUTO VRB03KT 10SM SCT027 BKN033 BKN046 29/23 A3007 170 69 1900 VRB/03 RMK AO2 T02940233
63870K0J4 0J420160714181012507/14/16 18:10:31  5-MIN K0J4 142310Z AUTO VRB03KT 10SM SCT027 BKN033 OVC060 29/23 A3008 170 69 1900 VRB/03 RMK AO2 T02940233
63870K0J4 0J420160714181512507/14/16 18:15:31  5-MIN K0J4 142315Z AUTO 00000KT 10SM SCT027 BKN033 BKN047 29/23 A3008 170 69 1800 000/00 RMK AO2 T02890228
63870K0J4 0J420160714182012507/14/16 18:20:31  5-MIN K0J4 142320Z AUTO 00000KT 10SM FEW027 BKN033 BKN047 29/23 A3008 170 71 1800 000/00 RMK AO2 T02890233
63870K0J4 0J420160714182512507/14/16 18:25:31  5-MIN K0J4 142325Z AUTO VRB04KT 10SM SCT033 BKN047 BKN060 28/23 A3008 170 71 1800 VRB/04 RMK AO2 T02830228
63870K0J4 0J420160714183012507/14/16 18:30:31  5-MIN K0J4 142330Z AUTO VRB04KT 10SM SCT033 BKN047 BKN060 28/23 A3008 170 71 1800 VRB/04 RMK AO2 T02830228
63870K0J4 0J420160714183512507/14/16 18:35:31  5-MIN K0J4 142335Z AUTO 00000KT 10SM SCT033 SCT047 SCT060 28/23 A3008 160 71 1800 000/00 RMK AO2 T02830228
63870K0J4 0J420160714184011107/14/16 18:40:31  5-MIN K0J4 142340Z AUTO VRB03KT 10SM FEW033 28/23 A3009 160 74 1700 VRB/03 RMK AO2 T02780228
63870K0J4 0J420160714184511107/14/16 18:45:31  5-MIN K0J4 142345Z AUTO 00000KT 10SM FEW033 28/23 A3009 160 74 1700 000/00 RMK AO2 T02780228
63870K0J4 0J420160714185011107/14/16 18:50:31  5-MIN K0J4 142350Z AUTO 00000KT 10SM FEW033 28/23 A3009 160 74 1700 000/00 RMK AO2 T02780228
63870K0J4 0J420160714185514207/14/16 18:55:31  5-MIN K0J4 142355Z AUTO 00000KT 10SM FEW033 28/23 A3009 160 74 1700 000/00 RMK AO2 SLP183 60001 T02780228 10317 20250 58016
63870K0J4 0J420160714190011107/14/16 19:00:31  5-MIN K0J4 150000Z AUTO 00000KT 10SM FEW110 27/23 A3009 160 76 1600 000/00 RMK AO2 T02720228
63870K0J4 0J420160714190511807/14/16 19:05:31  5-MIN K0J4 150005Z AUTO VRB03KT 10SM FEW080 SCT110 27/23 A3010 150 76 1600 VRB/03 RMK AO2 T02720228
63870K0J4 0J420160714191014107/14/16 19:10:31  5-MIN K0J4 150010Z AUTO VRB03KT 10SM -RA FEW044 SCT075 SCT120 27/23 A3010 150 76 1600 VRB/03 RMK AO2 RAB10 P0000 T02720228
63870K0J4 0J420160714191514107/14/16 19:15:31  5-MIN K0J4 150015Z AUTO VRB04KT 10SM -RA FEW033 SCT046 BKN070 27/22 A3010 150 76 1600 VRB/04 RMK AO2 RAB10 P0000 T02670222
63870K0J4 0J420160714192014107/14/16 19:20:31  5-MIN K0J4 150020Z AUTO VRB04KT 10SM -RA FEW033 SCT048 BKN120 27/22 A3010 150 76 1600 VRB/04 RMK AO2 RAB10 P0000 T02670222
63870K0J4 0J420160714192514007/14/16 19:25:31  5-MIN K0J4 150025Z AUTO 34005KT 10SM FEW047 SCT075 SCT120 26/22 A3010 150 79 1500 340/05 RMK AO2 RAB10E21 P0000 T02610222
63870K0J4 0J420160714193013307/14/16 19:30:31  5-MIN K0J4 150030Z AUTO VRB04KT 10SM FEW047 SCT075 26/22 A3010 150 79 1400 VRB/04 RMK AO2 RAB10E21 P0000 T02560217
63870K0J4 0J420160714193512607/14/16 19:35:31  5-MIN K0J4 150035Z AUTO 00000KT 10SM FEW047 26/22 A3010 150 79 1500 000/00 RMK AO2 RAB10E21 P0000 T02560217
63870K0J4 0J420160714194012607/14/16 19:40:31  5-MIN K0J4 150040Z AUTO VRB03KT 10SM FEW049 26/22 A3009 160 79 1500 VRB/03 RMK AO2 RAB10E21 P0000 T02560217
63870K0J4 0J420160714194512307/14/16 19:45:31  5-MIN K0J4 150045Z AUTO VRB03KT 10SM CLR 26/21 A3009 160 76 1500 VRB/03 RMK AO2 RAB10E21 P0000 T02560211
63870K0J4 0J420160714195012307/14/16 19:50:31  5-MIN K0J4 150050Z AUTO 00000KT 10SM CLR 25/21 A3009 160 79 1400 000/00 RMK AO2 RAB10E21 P0000 T02500211
63870K0J4 0J420160714195513007/14/16 19:55:31  5-MIN K0J4 150055Z AUTO 34003KT 10SM CLR 25/21 A3009 160 79 1400 340/03 RMK AO2 RAB10E21 SLP184 P0000 T02500211
63870K0J4 0J420160714200010807/14/16 20:00:31  5-MIN K0J4 150100Z AUTO 00000KT 10SM CLR 25/21 A3009 160 79 1400 000/00 RMK AO2 T02500211
63870K0J4 0J420160714200510807/14/16 20:05:31  5-MIN K0J4 150105Z AUTO 00000KT 10SM CLR 24/21 A3008 170 81 1300 000/00 RMK AO2 T02440211
63870K0J4 0J420160714201010807/14/16 20:10:31  5-MIN K0J4 150110Z AUTO 00000KT 10SM CLR 24/21 A3008 170 81 1300 000/00 RMK AO2 T02440211
63870K0J4 0J420160714201510807/14/16 20:15:31  5-MIN K0J4 150115Z AUTO 00000KT 10SM CLR 24/21 A3008 170 81 1300 000/00 RMK AO2 T02440211
63870K0J4 0J420160714202010807/14/16 20:20:31  5-MIN K0J4 150120Z AUTO 00000KT 10SM CLR 24/21 A3008 170 84 1300 000/00 RMK AO2 T02390211
63870K0J4 0J420160714202510807/14/16 20:25:31  5-MIN K0J4 150125Z AUTO 00000KT 10SM CLR 24/21 A3007 170 84 1300 000/00 RMK AO2 T02390211
63870K0J4 0J420160714203010807/14/16 20:30:31  5-MIN K0J4 150130Z AUTO 00000KT 10SM CLR 24/21 A3007 180 84 1300 000/00 RMK AO2 T02390211
63870K0J4 0J420160714203510807/14/16 20:35:31  5-MIN K0J4 150135Z AUTO 00000KT 10SM CLR 24/21 A3007 180 84 1300 000/00 RMK AO2 T02390211
63870K0J4 0J420160714204010807/14/16 20:40:31  5-MIN K0J4 150140Z AUTO 00000KT 10SM CLR 24/21 A3007 180 84 1300 000/00 RMK AO2 T02390211
63870K0J4 0J420160714204510807/14/16 20:45:31  5-MIN K0J4 150145Z AUTO 00000KT 10SM CLR 23/21 A3007 180 87 1200 000/00 RMK AO2 T02330211
63870K0J4 0J420160714205010807/14/16 20:50:31  5-MIN K0J4 150150Z AUTO 00000KT 10SM CLR 23/21 A3007 180 87 1200 000/00 RMK AO2 T02330211
63870K0J4 0J420160714205511507/14/16 20:55:31  5-MIN K0J4 150155Z AUTO 00000KT 10SM CLR 23/21 A3007 180 87 1200 000/00 RMK AO2 SLP178 T02330211
63870K0J4 0J420160714210010807/14/16 21:00:31  5-MIN K0J4 150200Z AUTO 00000KT 10SM CLR 23/21 A3007 180 87 1200 000/00 RMK AO2 T02330211
63870K0J4 0J420160714210510807/14/16 21:05:31  5-MIN K0J4 150205Z AUTO 00000KT 10SM CLR 23/21 A3008 170 87 1200 000/00 RMK AO2 T02330211
63870K0J4 0J420160714211010807/14/16 21:10:31  5-MIN K0J4 150210Z AUTO 00000KT 10SM CLR 23/21 A3007 170 87 1200 000/00 RMK AO2 T02330211
63870K0J4 0J420160714211510807/14/16 21:15:31  5-MIN K0J4 150215Z AUTO 00000KT 10SM CLR 23/21 A3007 180 90 1200 000/00 RMK AO2 T02280211
63870K0J4 0J420160714212010807/14/16 21:20:31  5-MIN K0J4 150220Z AUTO 20005KT 10SM CLR 23/21 A3007 180 90 1200 200/05 RMK AO2 T02280211
63870K0J4 0J420160714212510807/14/16 21:25:31  5-MIN K0J4 150225Z AUTO 20004KT 10SM CLR 23/21 A3007 180 90 1200 200/04 RMK AO2 T02280211
63870K0J4 0J420160714213010807/14/16 21:30:31  5-MIN K0J4 150230Z AUTO 17004KT 10SM CLR 23/21 A3007 180 90 1200 170/04 RMK AO2 T02280211
63870K0J4 0J420160714213510807/14/16 21:35:31  5-MIN K0J4 150235Z AUTO 19003KT 10SM CLR 23/21 A3007 180 90 1200 190/03 RMK AO2 T02280211
63870K0J4 0J420160714214010807/14/16 21:40:31  5-MIN K0J4 150240Z AUTO 21003KT 10SM CLR 23/21 A3008 170 90 1200 210/03 RMK AO2 T02280211
63870K0J4 0J420160714214510807/14/16 21:45:31  5-MIN K0J4 150245Z AUTO 00000KT 10SM CLR 23/21 A3008 170 90 1200 000/00 RMK AO2 T02280211
63870K0J4 0J420160714215010807/14/16 21:50:31  5-MIN K0J4 150250Z AUTO 00000KT 10SM CLR 23/21 A3008 160 90 1100 000/00 RMK AO2 T02280211
63870K0J4 0J420160714215512707/14/16 21:55:31  5-MIN K0J4 150255Z AUTO 00000KT 10SM CLR 23/21 A3009 160 90 1100 000/00 RMK AO2 SLP183 60000 T02280211 53010
63870K0J4 0J420160714220010807/14/16 22:00:31  5-MIN K0J4 150300Z AUTO 00000KT 10SM CLR 23/21 A3009 160 90 1100 000/00 RMK AO2 T02280211
63870K0J4 0J420160714220510807/14/16 22:05:31  5-MIN K0J4 150305Z AUTO 00000KT 10SM CLR 23/21 A3009 160 90 1100 000/00 RMK AO2 T02280211
63870K0J4 0J420160714221010807/14/16 22:10:31  5-MIN K0J4 150310Z AUTO 00000KT 10SM CLR 23/21 A3009 160 90 1100 000/00 RMK AO2 T02280211
63870K0J4 0J420160714221510807/14/16 22:15:31  5-MIN K0J4 150315Z AUTO 00000KT 10SM CLR 23/21 A3010 150 90 1100 000/00 RMK AO2 T02280211
63870K0J4 0J420160714222010807/14/16 22:20:31  5-MIN K0J4 150320Z AUTO 00000KT 10SM CLR 23/21 A3009 160 90 1100 000/00 RMK AO2 T02280211
63870K0J4 0J420160714222510807/14/16 22:25:31  5-MIN K0J4 150325Z AUTO 00000KT 10SM CLR 22/21 A3009 160 93 1100 000/00 RMK AO2 T02220211
63870K0J4 0J420160714223010807/14/16 22:30:31  5-MIN K0J4 150330Z AUTO 00000KT 10SM CLR 22/21 A3010 150 93 1100 000/00 RMK AO2 T02220211
63870K0J4 0J420160714223510807/14/16 22:35:31  5-MIN K0J4 150335Z AUTO 00000KT 10SM CLR 22/21 A3011 140 93 1100 000/00 RMK AO2 T02220211
63870K0J4 0J420160714224010807/14/16 22:40:31  5-MIN K0J4 150340Z AUTO 00000KT 10SM CLR 22/21 A3011 140 93 1100 000/00 RMK AO2 T02220211
63870K0J4 0J420160714224510807/14/16 22:45:31  5-MIN K0J4 150345Z AUTO 33003KT 10SM CLR 23/21 A3012 140 90 1100 330/03 RMK AO2 T02280211
63870K0J4 0J420160714225010807/14/16 22:50:31  5-MIN K0J4 150350Z AUTO 32003KT 10SM CLR 23/21 A3012 130 90 1100 320/03 RMK AO2 T02280211
63870K0J4 0J420160714225511507/14/16 22:55:31  5-MIN K0J4 150355Z AUTO VRB03KT 10SM CLR 23/21 A3012 130 90 1100 VRB/03 RMK AO2 SLP195 T02280211
63870K0J4 0J420160714230010807/14/16 23:00:31  5-MIN K0J4 150400Z AUTO 00000KT 10SM CLR 23/21 A3012 130 87 1100 000/00 RMK AO2 T02280206
63870K0J4 0J420160714230510807/14/16 23:05:31  5-MIN K0J4 150405Z AUTO 36004KT 10SM CLR 23/21 A3012 130 87 1100 360/04 RMK AO2 T02280206
63870K0J4 0J420160714231010807/14/16 23:10:31  5-MIN K0J4 150410Z AUTO 00000KT 10SM CLR 23/21 A3012 130 87 1100 000/00 RMK AO2 T02280206
63870K0J4 0J420160714231510807/14/16 23:15:31  5-MIN K0J4 150415Z AUTO 00000KT 10SM CLR 23/21 A3012 130 87 1100 000/00 RMK AO2 T02280206
63870K0J4 0J420160714232010807/14/16 23:20:31  5-MIN K0J4 150420Z AUTO 00000KT 10SM CLR 23/21 A3012 130 87 1100 000/00 RMK AO2 T02280206
63870K0J4 0J420160714232510807/14/16 23:25:31  5-MIN K0J4 150425Z AUTO 00000KT 10SM CLR 23/21 A3012 130 87 1100 000/00 RMK AO2 T02280206
63870K0J4 0J420160714233010807/14/16 23:30:31  5-MIN K0J4 150430Z AUTO 00000KT 10SM CLR 22/21 A3012 140 90 1000 000/00 RMK AO2 T02220206
63870K0J4 0J420160714233510807/14/16 23:35:31  5-MIN K0J4 150435Z AUTO VRB04KT 10SM CLR 22/21 A3011 140 90 1100 VRB/04 RMK AO2 T02220206
63870K0J4 0J420160714234010807/14/16 23:40:31  5-MIN K0J4 150440Z AUTO 35004KT 10SM CLR 22/21 A3011 140 90 1100 350/04 RMK AO2 T02220206
63870K0J4 0J420160714234510807/14/16 23:45:31  5-MIN K0J4 150445Z AUTO 35003KT 10SM CLR 22/21 A3011 140 90 1100 350/03 RMK AO2 T02220206
63870K0J4 0J420160714235010807/14/16 23:50:31  5-MIN K0J4 150450Z AUTO 35004KT 10SM CLR 22/21 A3012 130 93 1000 350/04 RMK AO2 T02220211
63870K0J4 0J420160714235512807/14/16 23:55:31  5-MIN K0J4 150455Z AUTO VRB04KT 10SM FEW019 22/21 A3011 140 93 1100 VRB/04 RMK AO2 SLP193 T02220211 403280206
63870K0J4 0J420160715000011107/15/16 00:00:31  5-MIN K0J4 150500Z AUTO 00000KT 10SM FEW019 22/21 A3011 140 93 1100 000/00 RMK AO2 T02220211
63870K0J4 0J420160715000510807/15/16 00:05:31  5-MIN K0J4 150505Z AUTO VRB04KT 10SM CLR 22/21 A3011 140 93 1100 VRB/04 RMK AO2 T02220211
63870K0J4 0J420160715001010807/15/16 00:10:31  5-MIN K0J4 150510Z AUTO 01004KT 10SM CLR 22/21 A3010 150 93 1100 010/04 RMK AO2 T02220211
63870K0J4 0J420160715001510807/15/16 00:15:31  5-MIN K0J4 150515Z AUTO 00000KT 10SM CLR 22/21 A3010 150 93 1100 000/00 RMK AO2 T02220211
63870K0J4 0J420160715002010807/15/16 00:20:31  5-MIN K0J4 150520Z AUTO 00000KT 10SM CLR 22/21 A3010 150 93 1100 000/00 RMK AO2 T02220211
63870K0J4 0J420160715002510807/15/16 00:25:31  5-MIN K0J4 150525Z AUTO 00000KT 10SM CLR 22/21 A3010 150 93 1100 000/00 RMK AO2 T02220211
63870K0J4 0J420160715003010807/15/16 00:30:31  5-MIN K0J4 150530Z AUTO 00000KT 10SM CLR 22/21 A3010 150 93 1100 000/00 RMK AO2 T02220211
63870K0J4 0J420160715003510807/15/16 00:35:31  5-MIN K0J4 150535Z AUTO 00000KT 10SM CLR 22/21 A3009 160 93 1100 000/00 RMK AO2 T02220211
63870K0J4 0J420160715004010707/15/16 00:40:31  5-MIN K0J4 150540Z AUTO 00000KT 9SM CLR 22/21 A3009 160 93 1100 000/00 RMK AO2 T02220211
63870K0J4 0J420160715004510707/15/16 00:45:31  5-MIN K0J4 150545Z AUTO 00000KT 9SM CLR 22/21 A3008 170 93 1100 000/00 RMK AO2 T02220211
63870K0J4 0J420160715005010707/15/16 00:50:31  5-MIN K0J4 150550Z AUTO 35003KT 9SM CLR 22/21 A3008 170 93 1100 350/03 RMK AO2 T02220211
63870K0J4 0J420160715005513807/15/16 00:55:31  5-MIN K0J4 150555Z AUTO 36004KT 9SM CLR 22/21 A3008 170 93 1100 360/04 RMK AO2 SLP182 60000 T02220211 10272 20222 55001
63870K0J4 0J420160715010010707/15/16 01:00:31  5-MIN K0J4 150600Z AUTO 35004KT 9SM CLR 22/21 A3008 170 93 1100 350/04 RMK AO2 T02220211
63870K0J4 0J420160715010510707/15/16 01:05:31  5-MIN K0J4 150605Z AUTO 36003KT 9SM CLR 22/21 A3008 170 93 1100 360/03 RMK AO2 T02220211
63870K0J4 0J420160715011010707/15/16 01:10:31  5-MIN K0J4 150610Z AUTO 35003KT 9SM CLR 22/21 A3008 170 93 1100 350/03 RMK AO2 T02220211
63870K0J4 0J420160715011510707/15/16 01:15:31  5-MIN K0J4 150615Z AUTO VRB03KT 9SM CLR 22/21 A3008 170 93 1100 VRB/03 RMK AO2 T02220211
63870K0J4 0J420160715012010707/15/16 01:20:31  5-MIN K0J4 150620Z AUTO 33003KT 9SM CLR 22/21 A3008 170 93 1100 330/03 RMK AO2 T02220211
63870K0J4 0J420160715012510707/15/16 01:25:31  5-MIN K0J4 150625Z AUTO VRB03KT 8SM CLR 22/21 A3007 170 93 1100 VRB/03 RMK AO2 T02220211
63870K0J4 0J420160715013010707/15/16 01:30:31  5-MIN K0J4 150630Z AUTO 00000KT 8SM CLR 22/21 A3007 170 93 1100 000/00 RMK AO2 T02220211
63870K0J4 0J420160715013510707/15/16 01:35:31  5-MIN K0J4 150635Z AUTO 00000KT 8SM CLR 22/21 A3007 180 93 1100 000/00 RMK AO2 T02220211
63870K0J4 0J420160715014010707/15/16 01:40:31  5-MIN K0J4 150640Z AUTO 00000KT 8SM CLR 22/21 A3007 180 93 1100 000/00 RMK AO2 T02220211
63870K0J4 0J420160715014510707/15/16 01:45:31  5-MIN K0J4 150645Z AUTO 00000KT 8SM CLR 22/21 A3006 180 93 1100 000/00 RMK AO2 T02220211
63870K0J4 0J420160715015010707/15/16 01:50:31  5-MIN K0J4 150650Z AUTO 00000KT 8SM CLR 22/21 A3006 190 93 1100 000/00 RMK AO2 T02220211
63870K0J4 0J420160715015511407/15/16 01:55:31  5-MIN K0J4 150655Z AUTO 00000KT 7SM CLR 22/21 A3006 190 97 1000 000/00 RMK AO2 SLP174 T02170211
63870K0J4 0J420160715020010707/15/16 02:00:31  5-MIN K0J4 150700Z AUTO 00000KT 7SM CLR 22/21 A3006 190 93 1100 000/00 RMK AO2 T02220211
63870K0J4 0J420160715020510707/15/16 02:05:31  5-MIN K0J4 150705Z AUTO 19003KT 7SM CLR 22/21 A3006 190 97 1100 190/03 RMK AO2 T02170211
63870K0J4 0J420160715021010707/15/16 02:10:31  5-MIN K0J4 150710Z AUTO 19003KT 7SM CLR 22/21 A3006 190 93 1100 190/03 RMK AO2 T02170206
63870K0J4 0J420160715021510707/15/16 02:15:31  5-MIN K0J4 150715Z AUTO 20003KT 7SM CLR 22/21 A3006 190 93 1100 200/03 RMK AO2 T02170206
63870K0J4 0J420160715022011007/15/16 02:20:31  5-MIN K0J4 150720Z AUTO 00000KT 6SM BR CLR 22/21 A3006 190 93 1000 000/00 RMK AO2 T02170206
63870K0J4 0J420160715022511007/15/16 02:25:31  5-MIN K0J4 150725Z AUTO 00000KT 6SM BR CLR 22/21 A3006 190 97 1000 000/00 RMK AO2 T02170211
63870K0J4 0J420160715023011007/15/16 02:30:31  5-MIN K0J4 150730Z AUTO 16003KT 6SM BR CLR 22/21 A3006 190 97 1100 160/03 RMK AO2 T02170211
63870K0J4 0J420160715023511007/15/16 02:35:31  5-MIN K0J4 150735Z AUTO 15003KT 6SM BR CLR 22/21 A3005 190 97 1100 150/03 RMK AO2 T02170211
63870K0J4 0J420160715024011007/15/16 02:40:31  5-MIN K0J4 150740Z AUTO 00000KT 5SM BR CLR 22/21 A3005 190 97 1100 000/00 RMK AO2 T02170211
63870K0J4 0J420160715024511007/15/16 02:45:31  5-MIN K0J4 150745Z AUTO 00000KT 6SM BR CLR 22/21 A3005 190 97 1100 000/00 RMK AO2 T02170211
63870K0J4 0J420160715025011007/15/16 02:50:31  5-MIN K0J4 150750Z AUTO 00000KT 6SM BR CLR 22/21 A3005 190 97 1100 000/00 RMK AO2 T02170211
63870K0J4 0J420160715025511707/15/16 02:55:31  5-MIN K0J4 150755Z AUTO 00000KT 6SM BR CLR 22/21 A3005 200 93 1100 000/00 RMK AO2 SLP171 T02170206
63870K0J4 0J420160715030010707/15/16 03:00:31  5-MIN K0J4 150800Z AUTO 00000KT 7SM CLR 22/21 A3005 200 93 1100 000/00 RMK AO2 T02170206
63870K0J4 0J420160715030510707/15/16 03:05:31  5-MIN K0J4 150805Z AUTO 00000KT 7SM CLR 22/21 A3005 200 93 1100 000/00 RMK AO2 T02170206
63870K0J4 0J420160715031010707/15/16 03:10:31  5-MIN K0J4 150810Z AUTO 00000KT 7SM CLR 22/21 A3005 200 93 1100 000/00 RMK AO2 T02170206
63870K0J4 0J420160715031510707/15/16 03:15:31  5-MIN K0J4 150815Z AUTO 00000KT 7SM CLR 21/21 A3005 200 97 1000 000/00 RMK AO2 T02110206
63870K0J4 0J420160715032011007/15/16 03:20:31  5-MIN K0J4 150820Z AUTO 00000KT 4SM BR CLR 21/21 A3004 200 97 1000 000/00 RMK AO2 T02110206
63870K0J4 0J420160715032511007/15/16 03:25:31  5-MIN K0J4 150825Z AUTO 19003KT 4SM BR CLR 21/21 A3004 200 97 1000 190/03 RMK AO2 T02110206
63870K0J4 0J420160715033010707/15/16 03:30:31  5-MIN K0J4 150830Z AUTO 19003KT 7SM CLR 21/20 A3004 210 93 1000 190/03 RMK AO2 T02110200
63870K0J4 0J420160715033510707/15/16 03:35:31  5-MIN K0J4 150835Z AUTO 20004KT 8SM CLR 21/20 A3004 210 93 1000 200/04 RMK AO2 T02110200
63870K0J4 0J420160715034010707/15/16 03:40:31  5-MIN K0J4 150840Z AUTO 20005KT 7SM CLR 21/21 A3004 210 97 1000 200/05 RMK AO2 T02110206
63870K0J4 0J420160715034510707/15/16 03:45:31  5-MIN K0J4 150845Z AUTO 19003KT 8SM CLR 22/21 A3004 210 93 1100 190/03 RMK AO2 T02170206
63870K0J4 0J420160715035010707/15/16 03:50:31  5-MIN K0J4 150850Z AUTO 18003KT 8SM CLR 22/21 A3003 210 93 1100 180/03 RMK AO2 T02170206
63870K0J4 0J420160715035512007/15/16 03:55:31  5-MIN K0J4 150855Z AUTO 18003KT 8SM CLR 22/21 A3003 210 93 1100 180/03 RMK AO2 SLP164 T02170206 58001
63870K0J4 0J420160715040010707/15/16 04:00:31  5-MIN K0J4 150900Z AUTO 18003KT 7SM CLR 22/21 A3003 220 93 1100 180/03 RMK AO2 T02170206
63870K0J4 0J420160715040510707/15/16 04:05:31  5-MIN K0J4 150905Z AUTO 00000KT 7SM CLR 22/21 A3002 220 93 1100 000/00 RMK AO2 T02170206
63870K0J4 0J420160715041010707/15/16 04:10:31  5-MIN K0J4 150910Z AUTO 00000KT 8SM CLR 22/21 A3002 220 93 1100 000/00 RMK AO2 T02170206
63870K0J4 0J420160715041510707/15/16 04:15:31  5-MIN K0J4 150915Z AUTO 20004KT 8SM CLR 22/21 A3002 220 93 1100 200/04 RMK AO2 T02170206
63870K0J4 0J420160715042010707/15/16 04:20:31  5-MIN K0J4 150920Z AUTO 20005KT 8SM CLR 22/21 A3002 220 93 1100 200/05 RMK AO2 T02170206
63870K0J4 0J420160715042510707/15/16 04:25:31  5-MIN K0J4 150925Z AUTO 19003KT 8SM CLR 22/21 A3002 220 93 1100 190/03 RMK AO2 T02170206
63870K0J4 0J420160715043010707/15/16 04:30:31  5-MIN K0J4 150930Z AUTO 00000KT 8SM CLR 22/21 A3002 220 93 1100 000/00 RMK AO2 T02170206
63870K0J4 0J420160715043510707/15/16 04:35:31  5-MIN K0J4 150935Z AUTO 00000KT 8SM CLR 22/21 A3002 230 93 1100 000/00 RMK AO2 T02170206
63870K0J4 0J420160715044010707/15/16 04:40:31  5-MIN K0J4 150940Z AUTO 18003KT 8SM CLR 22/21 A3002 220 93 1100 180/03 RMK AO2 T02170206
63870K0J4 0J420160715044510707/15/16 04:45:31  5-MIN K0J4 150945Z AUTO 17003KT 8SM CLR 21/21 A3002 220 97 1000 170/03 RMK AO2 T02110206
63870K0J4 0J420160715045010707/15/16 04:50:31  5-MIN K0J4 150950Z AUTO 17003KT 8SM CLR 22/21 A3002 220 93 1100 170/03 RMK AO2 T02170206
63870K0J4 0J420160715045511407/15/16 04:55:31  5-MIN K0J4 150955Z AUTO 16003KT 9SM CLR 22/21 A3002 220 93 1100 160/03 RMK AO2 SLP162 T02170206
63870K0J4 0J420160715050010707/15/16 05:00:31  5-MIN K0J4 151000Z AUTO 16003KT 9SM CLR 22/21 A3003 220 93 1100 160/03 RMK AO2 T02170206
63870K0J4 0J420160715050510707/15/16 05:05:31  5-MIN K0J4 151005Z AUTO 15004KT 9SM CLR 21/21 A3003 220 97 1000 150/04 RMK AO2 T02110206
63870K0J4 0J420160715051010707/15/16 05:10:31  5-MIN K0J4 151010Z AUTO 15005KT 9SM CLR 21/21 A3003 220 97 1000 150/05 RMK AO2 T02110206
63870K0J4 0J420160715051510807/15/16 05:15:31  5-MIN K0J4 151015Z AUTO 16004KT 10SM CLR 22/21 A3003 220 93 1100 160/04 RMK AO2 T02170206
63870K0J4 0J420160715052010807/15/16 05:20:31  5-MIN K0J4 151020Z AUTO 16004KT 10SM CLR 22/21 A3003 210 93 1100 160/04 RMK AO2 T02170206
63870K0J4 0J420160715052510807/15/16 05:25:31  5-MIN K0J4 151025Z AUTO 16003KT 10SM CLR 22/21 A3003 210 93 1100 160/03 RMK AO2 T02170206
63870K0J4 0J420160715053010807/15/16 05:30:31  5-MIN K0J4 151030Z AUTO 00000KT 10SM CLR 22/21 A3004 210 93 1100 000/00 RMK AO2 T02170206
63870K0J4 0J420160715053510807/15/16 05:35:31  5-MIN K0J4 151035Z AUTO 00000KT 10SM CLR 22/21 A3004 200 93 1100 000/00 RMK AO2 T02170206
63870K0J4 0J420160715054010807/15/16 05:40:31  5-MIN K0J4 151040Z AUTO 00000KT 10SM CLR 22/21 A3005 200 93 1100 000/00 RMK AO2 T02170206
63870K0J4 0J420160715054510707/15/16 05:45:31  5-MIN K0J4 151045Z AUTO 26003KT 8SM CLR 22/21 A3005 200 93 1100 260/03 RMK AO2 T02170206
63870K0J4 0J420160715055010707/15/16 05:50:31  5-MIN K0J4 151050Z AUTO 22004KT 8SM CLR 22/21 A3005 190 93 1100 220/04 RMK AO2 T02170206
63870K0J4 0J420160715055511407/15/16 05:55:31  5-MIN K0J4 151055Z AUTO 00000KT 9SM CLR 22/21 A3006 190 93 1100 000/00 RMK AO2 SLP173 T02170206
63870K0J4 0J420160715060010707/15/16 06:00:31  5-MIN K0J4 151100Z AUTO 18003KT 9SM CLR 21/21 A3005 190 97 1000 180/03 RMK AO2 T02110206
63870K0J4 0J420160715060510707/15/16 06:05:31  5-MIN K0J4 151105Z AUTO 16003KT 8SM CLR 21/21 A3006 190 97 1000 160/03 RMK AO2 T02110206
63870K0J4 0J420160715061010707/15/16 06:10:31  5-MIN K0J4 151110Z AUTO 17003KT 9SM CLR 21/21 A3005 190 97 1000 170/03 RMK AO2 T02110206
63870K0J4 0J420160715061510807/15/16 06:15:31  5-MIN K0J4 151115Z AUTO 16003KT 10SM CLR 22/21 A3005 190 93 1100 160/03 RMK AO2 T02170206
63870K0J4 0J420160715062010807/15/16 06:20:31  5-MIN K0J4 151120Z AUTO 16003KT 10SM CLR 22/21 A3005 190 93 1100 160/03 RMK AO2 T02170206
63870K0J4 0J420160715062510807/15/16 06:25:31  5-MIN K0J4 151125Z AUTO 00000KT 10SM CLR 22/21 A3005 190 93 1100 000/00 RMK AO2 T02170206
63870K0J4 0J420160715063010807/15/16 06:30:31  5-MIN K0J4 151130Z AUTO 18003KT 10SM CLR 22/21 A3005 190 93 1100 180/03 RMK AO2 T02170206
63870K0J4 0J420160715063510807/15/16 06:35:31  5-MIN K0J4 151135Z AUTO 00000KT 10SM CLR 22/21 A3005 190 90 1100 000/00 RMK AO2 T02220206
63870K0J4 0J420160715064010807/15/16 06:40:31  5-MIN K0J4 151140Z AUTO 00000KT 10SM CLR 22/21 A3006 190 93 1100 000/00 RMK AO2 T02220211
63870K0J4 0J420160715064510807/15/16 06:45:31  5-MIN K0J4 151145Z AUTO 00000KT 10SM CLR 22/21 A3007 180 93 1100 000/00 RMK AO2 T02220211
63870K0J4 0J420160715065010807/15/16 06:50:31  5-MIN K0J4 151150Z AUTO 00000KT 10SM CLR 23/21 A3007 180 90 1200 000/00 RMK AO2 T02280211
63870K0J4 0J420160715065513907/15/16 06:55:31  5-MIN K0J4 151155Z AUTO 00000KT 10SM CLR 23/21 A3007 180 90 1200 000/00 RMK AO2 SLP177 7//// T02280211 10233 20206 56018
63870K0J4 0J420160715070010807/15/16 07:00:31  5-MIN K0J4 151200Z AUTO 00000KT 10SM CLR 23/21 A3007 180 90 1200 000/00 RMK AO2 T02280211
63870K0J4 0J420160715070510807/15/16 07:05:31  5-MIN K0J4 151205Z AUTO 00000KT 10SM CLR 23/21 A3007 180 87 1200 000/00 RMK AO2 T02330211
63870K0J4 0J420160715071010807/15/16 07:10:31  5-MIN K0J4 151210Z AUTO 00000KT 10SM CLR 23/21 A3007 170 87 1200 000/00 RMK AO2 T02330211
63870K0J4 0J420160715071510807/15/16 07:15:31  5-MIN K0J4 151215Z AUTO 00000KT 10SM CLR 24/21 A3008 170 84 1300 000/00 RMK AO2 T02390211
63870K0J4 0J420160715072010807/15/16 07:20:31  5-MIN K0J4 151220Z AUTO 00000KT 10SM CLR 24/21 A3008 170 84 1300 000/00 RMK AO2 T02390211
63870K0J4 0J420160715072510807/15/16 07:25:31  5-MIN K0J4 151225Z AUTO 00000KT 10SM CLR 24/21 A3008 170 84 1300 000/00 RMK AO2 T02390211
63870K0J4 0J420160715073010807/15/16 07:30:31  5-MIN K0J4 151230Z AUTO 00000KT 10SM CLR 24/21 A3008 170 81 1300 000/00 RMK AO2 T02440211
63870K0J4 0J420160715073510807/15/16 07:35:31  5-MIN K0J4 151235Z AUTO 00000KT 10SM CLR 24/21 A3009 160 81 1300 000/00 RMK AO2 T02440211
63870K0J4 0J420160715074010807/15/16 07:40:31  5-MIN K0J4 151240Z AUTO 15003KT 10SM CLR 24/21 A3009 160 81 1300 150/03 RMK AO2 T02440211
63870K0J4 0J420160715074510807/15/16 07:45:31  5-MIN K0J4 151245Z AUTO 00000KT 10SM CLR 25/21 A3009 160 79 1400 000/00 RMK AO2 T02500211
63870K0J4 0J420160715075010807/15/16 07:50:31  5-MIN K0J4 151250Z AUTO 00000KT 10SM CLR 25/21 A3009 160 79 1400 000/00 RMK AO2 T02500211
63870K0J4 0J420160715075511507/15/16 07:55:31  5-MIN K0J4 151255Z AUTO 00000KT 10SM CLR 25/21 A3009 160 79 1400 000/00 RMK AO2 SLP185 T02500211
63870K0J4 0J420160715080010807/15/16 08:00:31  5-MIN K0J4 151300Z AUTO 00000KT 10SM CLR 25/21 A3009 160 79 1400 000/00 RMK AO2 T02500211
63870K0J4 0J420160715080510807/15/16 08:05:31  5-MIN K0J4 151305Z AUTO 19003KT 10SM CLR 26/21 A3009 160 76 1500 190/03 RMK AO2 T02560211
63870K0J4 0J420160715081010807/15/16 08:10:31  5-MIN K0J4 151310Z AUTO 21003KT 10SM CLR 26/22 A3009 160 79 1500 210/03 RMK AO2 T02560217
63870K0J4 0J420160715081510807/15/16 08:15:31  5-MIN K0J4 151315Z AUTO 21003KT 10SM CLR 26/22 A3010 150 79 1500 210/03 RMK AO2 T02560217
63870K0J4 0J420160715082010807/15/16 08:20:31  5-MIN K0J4 151320Z AUTO VRB03KT 10SM CLR 26/21 A3009 160 73 1500 VRB/03 RMK AO2 T02610211
63870K0J4 0J420160715082510807/15/16 08:25:31  5-MIN K0J4 151325Z AUTO 21005KT 10SM CLR 26/21 A3009 160 73 1500 210/05 RMK AO2 T02610211
63870K0J4 0J420160715083010807/15/16 08:30:31  5-MIN K0J4 151330Z AUTO 20004KT 10SM CLR 27/21 A3010 150 71 1600 200/04 RMK AO2 T02670211
63870K0J4 0J420160715083510807/15/16 08:35:31  5-MIN K0J4 151335Z AUTO VRB03KT 10SM CLR 27/22 A3010 150 71 1600 VRB/03 RMK AO2 T02720217
63870K0J4 0J420160715084010807/15/16 08:40:31  5-MIN K0J4 151340Z AUTO 29003KT 10SM CLR 27/22 A3010 150 71 1600 290/03 RMK AO2 T02720217
63870K0J4 0J420160715084510807/15/16 08:45:31  5-MIN K0J4 151345Z AUTO 31004KT 10SM CLR 27/22 A3010 150 73 1600 310/04 RMK AO2 T02670217
63870K0J4 0J420160715085010807/15/16 08:50:31  5-MIN K0J4 151350Z AUTO 28003KT 10SM CLR 26/21 A3011 140 73 1500 280/03 RMK AO2 T02610211
63870K0J4 0J420160715085511507/15/16 08:55:31  5-MIN K0J4 151355Z AUTO 00000KT 10SM CLR 26/21 A3011 140 73 1500 000/00 RMK AO2 SLP191 T02610211
63870K0J4 0J420160715090010807/15/16 09:00:31  5-MIN K0J4 151400Z AUTO 00000KT 10SM CLR 26/22 A3011 140 76 1500 000/00 RMK AO2 T02610217
63870K0J4 0J420160715090510807/15/16 09:05:31  5-MIN K0J4 151405Z AUTO 00000KT 10SM CLR 26/22 A3011 140 76 1500 000/00 RMK AO2 T02610217
63870K0J4 0J420160715091010807/15/16 09:10:31  5-MIN K0J4 151410Z AUTO 00000KT 10SM CLR 26/22 A3011 140 76 1500 000/00 RMK AO2 T02610217
63870K0J4 0J420160715091510807/15/16 09:15:31  5-MIN K0J4 151415Z AUTO 00000KT 10SM CLR 26/22 A3011 140 79 1500 000/00 RMK AO2 T02610222
63870K0J4 0J420160715092010807/15/16 09:20:31  5-MIN K0J4 151420Z AUTO VRB04KT 10SM CLR 26/22 A3011 140 79 1500 VRB/04 RMK AO2 T02610222
63870K0J4 0J420160715092510807/15/16 09:25:31  5-MIN K0J4 151425Z AUTO 00000KT 10SM CLR 26/23 A3011 140 81 1500 000/00 RMK AO2 T02610228
63870K0J4 0J420160715093010807/15/16 09:30:31  5-MIN K0J4 151430Z AUTO 00000KT 10SM CLR 27/23 A3011 140 76 1600 000/00 RMK AO2 T02720228
63870K0J4 0J420160715093510807/15/16 09:35:31  5-MIN K0J4 151435Z AUTO 00000KT 10SM CLR 27/22 A3011 140 76 1600 000/00 RMK AO2 T02670222
63870K0J4 0J420160715094010807/15/16 09:40:31  5-MIN K0J4 151440Z AUTO 08003KT 10SM CLR 28/23 A3011 140 74 1700 080/03 RMK AO2 T02780228
63870K0J4 0J420160715094510807/15/16 09:45:31  5-MIN K0J4 151445Z AUTO 00000KT 10SM CLR 28/23 A3011 140 74 1700 000/00 RMK AO2 T02780228
63870K0J4 0J420160715095010807/15/16 09:50:31  5-MIN K0J4 151450Z AUTO 00000KT 10SM CLR 27/22 A3011 140 74 1600 000/00 RMK AO2 T02720222
63870K0J4 0J420160715095512107/15/16 09:55:31  5-MIN K0J4 151455Z AUTO 00000KT 10SM CLR 28/22 A3011 140 71 1700 000/00 RMK AO2 SLP192 T02780222 53013
63870K0J4 0J420160715100010807/15/16 10:00:31  5-MIN K0J4 151500Z AUTO 22004KT 10SM CLR 28/22 A3011 140 69 1700 220/04 RMK AO2 T02780217
63870K0J4 0J420160715100510807/15/16 10:05:31  5-MIN K0J4 151505Z AUTO 00000KT 10SM CLR 28/22 A3011 140 71 1700 000/00 RMK AO2 T02780222
63870K0J4 0J420160715101010807/15/16 10:10:31  5-MIN K0J4 151510Z AUTO VRB03KT 10SM CLR 28/22 A3012 140 69 1700 VRB/03 RMK AO2 T02830222
63870K0J4 0J420160715101510807/15/16 10:15:31  5-MIN K0J4 151515Z AUTO 00000KT 10SM CLR 28/22 A3011 140 69 1700 000/00 RMK AO2 T02830222
63870K0J4 0J420160715102010807/15/16 10:20:31  5-MIN K0J4 151520Z AUTO 00000KT 10SM CLR 29/22 A3011 140 67 1800 000/00 RMK AO2 T02890222
63870K0J4 0J420160715102510807/15/16 10:25:31  5-MIN K0J4 151525Z AUTO 00000KT 10SM CLR 28/22 A3011 140 69 1700 000/00 RMK AO2 T02830222
63870K0J4 0J420160715103010807/15/16 10:30:31  5-MIN K0J4 151530Z AUTO VRB03KT 10SM CLR 28/22 A3011 140 69 1700 VRB/03 RMK AO2 T02830222
63870K0J4 0J420160715103510807/15/16 10:35:31  5-MIN K0J4 151535Z AUTO VRB04KT 10SM CLR 29/22 A3011 140 64 1800 VRB/04 RMK AO2 T02890217
63870K0J4 0J420160715104010807/15/16 10:40:31  5-MIN K0J4 151540Z AUTO 25003KT 10SM CLR 29/21 A3011 140 62 1800 250/03 RMK AO2 T02890211
63870K0J4 0J420160715104510807/15/16 10:45:31  5-MIN K0J4 151545Z AUTO 22006KT 10SM CLR 29/21 A3011 140 62 1800 220/06 RMK AO2 T02890211
63870K0J4 0J420160715105010807/15/16 10:50:31  5-MIN K0J4 151550Z AUTO VRB04KT 10SM CLR 29/21 A3011 140 62 1800 VRB/04 RMK AO2 T02890211
63870K0J4 0J420160715105511507/15/16 10:55:31  5-MIN K0J4 151555Z AUTO VRB05KT 10SM CLR 29/22 A3011 140 64 1800 VRB/05 RMK AO2 SLP192 T02890217
63870K0J4 0J420160715110010807/15/16 11:00:31  5-MIN K0J4 151600Z AUTO VRB03KT 10SM CLR 29/22 A3011 140 64 1800 VRB/03 RMK AO2 T02890217
63870K0J4 0J420160715110510807/15/16 11:05:31  5-MIN K0J4 151605Z AUTO 00000KT 10SM CLR 29/22 A3011 140 62 1900 000/00 RMK AO2 T02940217
63870K0J4 0J420160715111011107/15/16 11:10:31  5-MIN K0J4 151610Z AUTO 00000KT 10SM FEW028 29/22 A3011 140 64 1900 000/00 RMK AO2 T02940222
63870K0J4 0J420160715111511107/15/16 11:15:31  5-MIN K0J4 151615Z AUTO 00000KT 10SM SCT028 29/22 A3011 140 64 1800 000/00 RMK AO2 T02890217
63870K0J4 0J420160715112011107/15/16 11:20:31  5-MIN K0J4 151620Z AUTO 34004KT 10SM SCT028 29/22 A3011 140 62 1900 340/04 RMK AO2 T02940217
63870K0J4 0J420160715112511807/15/16 11:25:31  5-MIN K0J4 151625Z AUTO 00000KT 10SM SCT027 BKN036 30/22 A3010 150 62 1900 000/00 RMK AO2 T03000222
63870K0J4 0J420160715113011807/15/16 11:30:31  5-MIN K0J4 151630Z AUTO 33004KT 10SM BKN027 BKN036 29/22 A3010 150 62 1900 330/04 RMK AO2 T02940217
63870K0J4 0J420160715113511107/15/16 11:35:31  5-MIN K0J4 151635Z AUTO 00000KT 10SM BKN027 29/22 A3010 150 64 1800 000/00 RMK AO2 T02890217
63870K0J4 0J420160715114011107/15/16 11:40:31  5-MIN K0J4 151640Z AUTO 30006KT 10SM BKN027 30/22 A3010 150 62 1900 300/06 RMK AO2 T03000222
63870K0J4 0J420160715114510107/15/16 11:45:31  5-MIN K0J4 151645Z AUTO 10SM SCT027 29/22 A3009 160 62 1900 M /M RMK AO2 T02940217
63870K0J4 0J420160715115011107/15/16 11:50:31  5-MIN K0J4 151650Z AUTO VRB04KT 10SM FEW028 30/21 A3009 160 58 2000 VRB/04 RMK AO2 T03000211
63870K0J4 0J420160715115511807/15/16 11:55:31  5-MIN K0J4 151655Z AUTO 00000KT 10SM FEW028 30/21 A3009 160 58 2000 000/00 RMK AO2 SLP185 T03000211
63870K0J4 0J420160715120011107/15/16 12:00:31  5-MIN K0J4 151700Z AUTO VRB05KT 10SM FEW030 31/21 A3009 160 56 2000 VRB/05 RMK AO2 T03060211
63870K0J4 0J420160715120511107/15/16 12:05:31  5-MIN K0J4 151705Z AUTO 00000KT 10SM FEW030 30/21 A3009 160 56 2000 000/00 RMK AO2 T03000206
63870K0J4 0J420160715121010807/15/16 12:10:31  5-MIN K0J4 151710Z AUTO 00000KT 10SM CLR 31/21 A3009 160 56 2000 000/00 RMK AO2 T03060211
63870K0J4 0J420160715121510807/15/16 12:15:31  5-MIN K0J4 151715Z AUTO 00000KT 10SM CLR 31/22 A3008 170 56 2100 000/00 RMK AO2 T03110217
63870K0J4 0J420160715122011107/15/16 12:20:31  5-MIN K0J4 151720Z AUTO VRB03KT 10SM FEW034 31/21 A3008 170 54 2100 VRB/03 RMK AO2 T03110211
63870K0J4 0J420160715122511107/15/16 12:25:31  5-MIN K0J4 151725Z AUTO 01004KT 10SM FEW038 31/21 A3008 170 54 2100 010/04 RMK AO2 T03110211
63870K0J4 0J420160715123011107/15/16 12:30:31  5-MIN K0J4 151730Z AUTO VRB03KT 10SM FEW038 31/21 A3008 170 54 2000 VRB/03 RMK AO2 T03060206
63870K0J4 0J420160715123511107/15/16 12:35:31  5-MIN K0J4 151735Z AUTO VRB03KT 10SM SCT038 30/21 A3007 170 56 2000 VRB/03 RMK AO2 T03000206
63870K0J4 0J420160715124011107/15/16 12:40:31  5-MIN K0J4 151740Z AUTO VRB04KT 10SM SCT038 29/21 A3007 170 58 1900 VRB/04 RMK AO2 T02940206
63870K0J4 0J420160715124511107/15/16 12:45:31  5-MIN K0J4 151745Z AUTO 00000KT 10SM FEW038 31/21 A3007 180 54 2000 000/00 RMK AO2 T03060206
63870K0J4 0J420160715125010107/15/16 12:50:31  5-MIN K0J4 151750Z AUTO 10SM FEW038 31/21 A3007 180 54 2100 M /M RMK AO2 T03110211
63870K0J4 0J420160715125513607/15/16 12:55:31  5-MIN K0J4 151755Z AUTO VRB04KT 10SM FEW038 31/21 A3007 180 56 2000 VRB/04 RMK AO2 SLP177 T03060211 10311 20228 51015
63870K0J4 0J420160715130011107/15/16 13:00:31  5-MIN K0J4 151800Z AUTO VRB03KT 10SM FEW038 31/21 A3007 180 54 2000 VRB/03 RMK AO2 T03060206
63870K0J4 0J420160715130510807/15/16 13:05:31  5-MIN K0J4 151805Z AUTO VRB03KT 10SM CLR 31/20 A3006 180 51 2100 VRB/03 RMK AO2 T03110200
63870K0J4 0J420160715131011107/15/16 13:10:31  5-MIN K0J4 151810Z AUTO 00000KT 10SM FEW039 32/21 A3006 190 53 2200 000/00 RMK AO2 T03170211
63870K0J4 0J420160715131511107/15/16 13:15:31  5-MIN K0J4 151815Z AUTO 03006KT 10SM SCT039 31/21 A3006 190 53 2100 030/06 RMK AO2 T03110206
63870K0J4 0J420160715132011107/15/16 13:20:31  5-MIN K0J4 151820Z AUTO 33003KT 10SM BKN039 31/21 A3006 190 53 2100 330/03 RMK AO2 T03110206
63870K0J4 0J420160715132511107/15/16 13:25:31  5-MIN K0J4 151825Z AUTO VRB03KT 10SM BKN041 31/20 A3006 190 52 2000 VRB/03 RMK AO2 T03060200
63870K0J4 0J420160715133011107/15/16 13:30:31  5-MIN K0J4 151830Z AUTO VRB04KT 10SM BKN041 31/21 A3006 190 53 2100 VRB/04 RMK AO2 T03110206
63870K0J4 0J420160715133511807/15/16 13:35:31  5-MIN K0J4 151835Z AUTO VRB03KT 10SM BKN042 BKN048 32/21 A3006 190 49 2200 VRB/03 RMK AO2 T03220206
63870K0J4 0J420160715134011107/15/16 13:40:31  5-MIN K0J4 151840Z AUTO VRB03KT 10SM BKN042 31/21 A3006 190 53 2100 VRB/03 RMK AO2 T03110206
63870K0J4 0J420160715134511107/15/16 13:45:31  5-MIN K0J4 151845Z AUTO 00000KT 10SM BKN042 31/20 A3006 190 51 2100 000/00 RMK AO2 T03110200
63870K0J4 0J420160715135011807/15/16 13:50:31  5-MIN K0J4 151850Z AUTO 00000KT 10SM BKN044 OVC050 31/20 A3005 200 52 2100 000/00 RMK AO2 T03060200
63870K0J4 0J420160715135511807/15/16 13:55:31  5-MIN K0J4 151855Z AUTO VRB03KT 10SM BKN044 31/20 A3005 190 51 2100 VRB/03 RMK AO2 SLP172 T03110200
63870K0J4 0J420160715140011807/15/16 14:00:31  5-MIN K0J4 151900Z AUTO 34003KT 10SM BKN044 BKN055 31/20 A3005 190 52 2100 340/03 RMK AO2 T03060200
63870K0J4 0J420160715140511107/15/16 14:05:31  5-MIN K0J4 151905Z AUTO 00000KT 10SM BKN044 31/20 A3005 200 52 2100 000/00 RMK AO2 T03060200
63870K0J4 0J420160715141011107/15/16 14:10:31  5-MIN K0J4 151910Z AUTO 00000KT 10SM BKN044 31/21 A3005 200 53 2100 000/00 RMK AO2 T03110206
63870K0J4 0J420160715141511807/15/16 14:15:31  5-MIN K0J4 151915Z AUTO 32004KT 10SM BKN044 BKN050 31/20 A3005 200 51 2100 320/04 RMK AO2 T03110200
63870K0J4 0J420160715142011807/15/16 14:20:31  5-MIN K0J4 151920Z AUTO 00000KT 10SM BKN044 BKN055 32/21 A3004 200 51 2200 000/00 RMK AO2 T03170206
63870K0J4 0J420160715142511807/15/16 14:25:31  5-MIN K0J4 151925Z AUTO 00000KT 10SM SCT042 BKN050 32/21 A3004 200 51 2200 000/00 RMK AO2 T03170206
63870K0J4 0J420160715143011807/15/16 14:30:31  5-MIN K0J4 151930Z AUTO VRB04KT 10SM BKN044 BKN055 32/21 A3004 200 51 2300 VRB/04 RMK AO2 T03220211
63870K0J4 0J420160715143511807/15/16 14:35:31  5-MIN K0J4 151935Z AUTO 22006KT 10SM SCT044 BKN055 32/20 A3004 210 49 2200 220/06 RMK AO2 T03170200
63870K0J4 0J420160715144011107/15/16 14:40:31  5-MIN K0J4 151940Z AUTO 00000KT 10SM SCT047 31/21 A3004 210 53 2100 000/00 RMK AO2 T03110206
63870K0J4 0J420160715144511807/15/16 14:45:31  5-MIN K0J4 151945Z AUTO VRB04KT 10SM SCT047 SCT055 32/21 A3004 210 49 2300 VRB/04 RMK AO2 T03220206
63870K0J4 0J420160715145011107/15/16 14:50:31  5-MIN K0J4 151950Z AUTO VRB04KT 10SM FEW047 32/20 A3004 210 48 2300 VRB/04 RMK AO2 T03220200
63870K0J4 0J420160715145511807/15/16 14:55:31  5-MIN K0J4 151955Z AUTO 20006KT 10SM FEW046 32/21 A3003 210 51 2200 200/06 RMK AO2 SLP165 T03170206
63870K0J4 0J420160715150011107/15/16 15:00:31  5-MIN K0J4 152000Z AUTO VRB05KT 10SM FEW046 32/21 A3003 210 51 2200 VRB/05 RMK AO2 T03170206
63870K0J4 0J420160715150511107/15/16 15:05:31  5-MIN K0J4 152005Z AUTO 00000KT 10SM FEW046 32/21 A3003 220 51 2200 000/00 RMK AO2 T03170206
63870K0J4 0J420160715151011107/15/16 15:10:31  5-MIN K0J4 152010Z AUTO 23003KT 10SM FEW046 32/20 A3003 220 49 2200 230/03 RMK AO2 T03170200
63870K0J4 0J420160715151510807/15/16 15:15:31  5-MIN K0J4 152015Z AUTO 21007KT 10SM CLR 32/21 A3002 220 49 2300 210/07 RMK AO2 T03220206
63870K0J4 0J420160716011510807/16/16 01:15:31  5-MIN K0J4 160615Z AUTO 00000KT 10SM CLR 23/22 A3006 190 90 1200 000/00 RMK AO2 T02330217
63870K0J4 0J420160716012010807/16/16 01:20:31  5-MIN K0J4 160620Z AUTO 00000KT 10SM CLR 22/21 A3005 190 93 1100 000/00 RMK AO2 T02220211
63870K0J4 0J420160716012510807/16/16 01:25:31  5-MIN K0J4 160625Z AUTO 00000KT 10SM CLR 23/21 A3005 190 90 1200 000/00 RMK AO2 T02280211
63870K0J4 0J420160716013010807/16/16 01:30:31  5-MIN K0J4 160630Z AUTO 00000KT 10SM CLR 23/22 A3005 190 90 1200 000/00 RMK AO2 T02330217
63870K0J4 0J420160716013510807/16/16 01:35:31  5-MIN K0J4 160635Z AUTO 00000KT 10SM CLR 23/22 A3005 190 90 1200 000/00 RMK AO2 T02330217
63870K0J4 0J420160716014010807/16/16 01:40:31  5-MIN K0J4 160640Z AUTO 00000KT 10SM CLR 23/22 A3005 200 90 1200 000/00 RMK AO2 T02330217
63870K0J4 0J420160716014510807/16/16 01:45:31  5-MIN K0J4 160645Z AUTO 00000KT 10SM CLR 23/22 A3005 200 90 1200 000/00 RMK AO2 T02330217
63870K0J4 0J420160716015010807/16/16 01:50:31  5-MIN K0J4 160650Z AUTO 04003KT 10SM CLR 23/21 A3005 200 90 1200 040/03 RMK AO2 T02280211
63870K0J4 0J420160716015511507/16/16 01:55:31  5-MIN K0J4 160655Z AUTO 00000KT 10SM CLR 23/22 A3005 200 93 1200 000/00 RMK AO2 SLP171 T02280217
63870K0J4 0J420160716020010807/16/16 02:00:31  5-MIN K0J4 160700Z AUTO 00000KT 10SM CLR 23/22 A3005 190 93 1200 000/00 RMK AO2 T02280217
63870K0J4 0J420160716020510807/16/16 02:05:31  5-MIN K0J4 160705Z AUTO 00000KT 10SM CLR 23/22 A3005 190 93 1200 000/00 RMK AO2 T02280217
63870K0J4 0J420160716021010807/16/16 02:10:31  5-MIN K0J4 160710Z AUTO 00000KT 10SM CLR 22/21 A3005 200 93 1100 000/00 RMK AO2 T02220211
63870K0J4 0J420160716021510807/16/16 02:15:31  5-MIN K0J4 160715Z AUTO 00000KT 10SM CLR 22/21 A3005 200 93 1100 000/00 RMK AO2 T02220211
63870K0J4 0J420160716022010707/16/16 02:20:31  5-MIN K0J4 160720Z AUTO 00000KT 9SM CLR 22/21 A3005 200 93 1100 000/00 RMK AO2 T02220211
63870K0J4 0J420160716022510707/16/16 02:25:31  5-MIN K0J4 160725Z AUTO 00000KT 9SM CLR 23/22 A3005 200 93 1200 000/00 RMK AO2 T02280217
63870K0J4 0J420160716023010807/16/16 02:30:31  5-MIN K0J4 160730Z AUTO 00000KT 10SM CLR 22/22 A3005 200 97 1100 000/00 RMK AO2 T02220217
63870K0J4 0J420160716023510807/16/16 02:35:31  5-MIN K0J4 160735Z AUTO 00000KT 10SM CLR 22/21 A3005 200 93 1100 000/00 RMK AO2 T02220211
63870K0J4 0J420160716024010807/16/16 02:40:31  5-MIN K0J4 160740Z AUTO 00000KT 10SM CLR 23/22 A3005 190 93 1200 000/00 RMK AO2 T02280217
63870K0J4 0J420160716024510807/16/16 02:45:31  5-MIN K0J4 160745Z AUTO 00000KT 10SM CLR 23/22 A3005 190 93 1200 000/00 RMK AO2 T02280217
63870K0J4 0J420160716025010807/16/16 02:50:31  5-MIN K0J4 160750Z AUTO 00000KT 10SM CLR 23/22 A3005 190 93 1200 000/00 RMK AO2 T02280217
63870K0J4 0J420160716025511407/16/16 02:55:31  5-MIN K0J4 160755Z AUTO 00000KT 9SM CLR 23/22 A3006 190 93 1200 000/00 RMK AO2 SLP173 T02280217
63870K0J4 0J420160716030010707/16/16 03:00:31  5-MIN K0J4 160800Z AUTO 00000KT 9SM CLR 23/22 A3006 190 93 1200 000/00 RMK AO2 T02280217
63870K0J4 0J420160716030510707/16/16 03:05:31  5-MIN K0J4 160805Z AUTO 00000KT 8SM CLR 22/22 A3006 190 97 1100 000/00 RMK AO2 T02220217
63870K0J4 0J420160716031010707/16/16 03:10:31  5-MIN K0J4 160810Z AUTO 00000KT 8SM CLR 22/21 A3006 190 93 1100 000/00 RMK AO2 T02220211
63870K0J4 0J420160716031510707/16/16 03:15:31  5-MIN K0J4 160815Z AUTO 00000KT 9SM CLR 23/22 A3006 190 93 1200 000/00 RMK AO2 T02280217
63870K0J4 0J420160716032010707/16/16 03:20:31  5-MIN K0J4 160820Z AUTO 00000KT 9SM CLR 22/21 A3006 190 93 1100 000/00 RMK AO2 T02220211
63870K0J4 0J420160716032510707/16/16 03:25:31  5-MIN K0J4 160825Z AUTO 00000KT 8SM CLR 22/21 A3006 190 93 1100 000/00 RMK AO2 T02220211
63870K0J4 0J420160716033010707/16/16 03:30:31  5-MIN K0J4 160830Z AUTO 00000KT 9SM CLR 22/21 A3006 190 93 1100 000/00 RMK AO2 T02220211
63870K0J4 0J420160716033510807/16/16 03:35:31  5-MIN K0J4 160835Z AUTO 00000KT 10SM CLR 22/21 A3005 190 93 1100 000/00 RMK AO2 T02220211
63870K0J4 0J420160716034010707/16/16 03:40:31  5-MIN K0J4 160840Z AUTO 00000KT 9SM CLR 22/21 A3005 200 93 1100 000/00 RMK AO2 T02220211
63870K0J4 0J420160716034510707/16/16 03:45:31  5-MIN K0J4 160845Z AUTO 00000KT 7SM CLR 23/22 A3005 200 93 1200 000/00 RMK AO2 T02280217
63870K0J4 0J420160716035010707/16/16 03:50:31  5-MIN K0J4 160850Z AUTO 00000KT 7SM CLR 23/22 A3005 200 93 1200 000/00 RMK AO2 T02280217
63870K0J4 0J420160716035512007/16/16 03:55:31  5-MIN K0J4 160855Z AUTO 00000KT 7SM CLR 23/22 A3005 200 93 1200 000/00 RMK AO2 SLP171 T02280217 51004
63870K0J4 0J420160716040010707/16/16 04:00:31  5-MIN K0J4 160900Z AUTO 00000KT 7SM CLR 23/22 A3005 200 97 1200 000/00 RMK AO2 T02280222
63870K0J4 0J420160716040510707/16/16 04:05:31  5-MIN K0J4 160905Z AUTO 00000KT 7SM CLR 23/22 A3005 200 93 1200 000/00 RMK AO2 T02280217
63870K0J4 0J420160716041011007/16/16 04:10:31  5-MIN K0J4 160910Z AUTO 00000KT 6SM BR CLR 22/21 A3005 200 93 1100 000/00 RMK AO2 T02220211
63870K0J4 0J420160716041511307/16/16 04:15:31  5-MIN K0J4 160915Z AUTO 00000KT 4SM BR FEW001 23/22 A3005 200 93 1200 000/00 RMK AO2 T02280217
63870K0J4 0J420160716042011307/16/16 04:20:31  5-MIN K0J4 160920Z AUTO 00000KT 5SM BR SCT001 23/22 A3005 190 93 1200 000/00 RMK AO2 T02280217
63870K0J4 0J420160716042511307/16/16 04:25:31  5-MIN K0J4 160925Z AUTO 00000KT 6SM BR BKN001 23/22 A3005 200 93 1200 000/00 RMK AO2 T02280217
63870K0J4 0J420160716043011307/16/16 04:30:31  5-MIN K0J4 160930Z AUTO 00000KT 4SM BR BKN001 22/22 A3005 200 97 1100 000/00 RMK AO2 T02220217
63870K0J4 0J420160716043511307/16/16 04:35:31  5-MIN K0J4 160935Z AUTO 00000KT 3SM BR BKN001 22/21 A3005 200 93 1100 000/00 RMK AO2 T02220211
63870K0J4 0J420160716044011307/16/16 04:40:31  5-MIN K0J4 160940Z AUTO 00000KT 3SM BR BKN001 21/20 A3005 200 93 1000 000/00 RMK AO2 T02110200
63870K0J4 0J420160716044511707/16/16 04:45:31  5-MIN K0J4 160945Z AUTO 00000KT 1 1/2SM BR BKN001 22/21 A3004 200 93 1100 000/00 RMK AO2 T02170206
63870K0J4 0J420160716045011707/16/16 04:50:31  5-MIN K0J4 160950Z AUTO 00000KT 1 1/2SM BR BKN001 22/21 A3004 200 93 1100 000/00 RMK AO2 T02170206
63870K0J4 0J420160716045512007/16/16 04:55:31  5-MIN K0J4 160955Z AUTO 00000KT 4SM BR BKN001 22/21 A3005 200 93 1100 000/00 RMK AO2 SLP170 T02170206
63870K0J4 0J420160716050011307/16/16 05:00:31  5-MIN K0J4 161000Z AUTO 00000KT 4SM BR SCT001 22/21 A3005 200 93 1100 000/00 RMK AO2 T02170206
63870K0J4 0J420160716050511307/16/16 05:05:31  5-MIN K0J4 161005Z AUTO 00000KT 4SM BR SCT001 22/21 A3005 200 93 1100 000/00 RMK AO2 T02170206
63870K0J4 0J420160716051011307/16/16 05:10:31  5-MIN K0J4 161010Z AUTO 00000KT 4SM BR FEW001 22/21 A3005 200 93 1100 000/00 RMK AO2 T02170206
63870K0J4 0J420160716051511007/16/16 05:15:31  5-MIN K0J4 161015Z AUTO 00000KT 7SM FEW001 21/21 A3005 200 97 1000 000/00 RMK AO2 T02110206
63870K0J4 0J420160716052010807/16/16 05:20:31  5-MIN K0J4 161020Z AUTO 00000KT 10SM CLR 22/21 A3005 190 93 1100 000/00 RMK AO2 T02170206
63870K0J4 0J420160716052510807/16/16 05:25:31  5-MIN K0J4 161025Z AUTO 00000KT 10SM CLR 22/21 A3005 190 93 1100 000/00 RMK AO2 T02170206
63870K0J4 0J420160716053010807/16/16 05:30:31  5-MIN K0J4 161030Z AUTO 00000KT 10SM CLR 22/21 A3006 190 93 1100 000/00 RMK AO2 T02170206
63870K0J4 0J420160716053510707/16/16 05:35:31  5-MIN K0J4 161035Z AUTO 03003KT 9SM CLR 22/21 A3006 190 93 1000 030/03 RMK AO2 T02170206
63870K0J4 0J420160716054011007/16/16 05:40:31  5-MIN K0J4 161040Z AUTO 04003KT 7SM FEW001 22/21 A3006 190 93 1000 040/03 RMK AO2 T02170206
63870K0J4 0J420160716054511307/16/16 05:45:31  5-MIN K0J4 161045Z AUTO 04003KT 4SM BR SCT001 22/21 A3006 180 93 1000 040/03 RMK AO2 T02170206
63870K0J4 0J420160716055011407/16/16 05:50:31  5-MIN K0J4 161050Z AUTO 00000KT 3/4SM BR VV001 22/21 A3007 180 93 1100 000/00 RMK AO2 T02220211
63870K0J4 0J420160716055512107/16/16 05:55:31  5-MIN K0J4 161055Z AUTO 00000KT 1/4SM FG VV001 22/21 A3007 180 97 1000 000/00 RMK AO2 SLP177 T02170211
63870K0J4 0J420160716060011407/16/16 06:00:31  5-MIN K0J4 161100Z AUTO 01003KT 1/4SM FG VV001 22/21 A3007 170 93 1100 010/03 RMK AO2 T02220211
63870K0J4 0J420160716060511407/16/16 06:05:31  5-MIN K0J4 161105Z AUTO 00000KT 1/4SM FG VV001 22/22 A3007 170 97 1100 000/00 RMK AO2 T02220217
63870K0J4 0J420160716061011407/16/16 06:10:31  5-MIN K0J4 161110Z AUTO 00000KT 1/4SM FG VV001 22/22 A3008 170 97 1100 000/00 RMK AO2 T02220217
63870K0J4 0J420160716061511407/16/16 06:15:31  5-MIN K0J4 161115Z AUTO 00000KT 1/4SM FG VV001 22/21 A3008 170 97 1000 000/00 RMK AO2 T02170211
63870K0J4 0J420160716062011407/16/16 06:20:31  5-MIN K0J4 161120Z AUTO 00000KT 1/4SM FG VV001 22/21 A3008 170 97 1000 000/00 RMK AO2 T02170211
63870K0J4 0J420160716062511407/16/16 06:25:31  5-MIN K0J4 161125Z AUTO 00000KT 1/4SM FG VV001 22/21 A3008 170 97 1000 000/00 RMK AO2 T02170211
63870K0J4 0J420160716063011407/16/16 06:30:31  5-MIN K0J4 161130Z AUTO 00000KT 3/4SM BR VV001 22/21 A3007 170 97 1000 000/00 RMK AO2 T02170211
63870K0J4 0J420160716063511707/16/16 06:35:31  5-MIN K0J4 161135Z AUTO 00000KT 1 1/2SM BR OVC001 22/21 A3007 170 97 1000 000/00 RMK AO2 T02170211
63870K0J4 0J420160716064011707/16/16 06:40:31  5-MIN K0J4 161140Z AUTO 00000KT 1 1/2SM BR OVC001 22/21 A3007 170 97 1000 000/00 RMK AO2 T02170211
63870K0J4 0J420160716064511207/16/16 06:45:31  5-MIN K0J4 161145Z AUTO 00000KT 1SM BR VV001 22/22 A3008 170 97 1100 000/00 RMK AO2 T02220217
63870K0J4 0J420160716065011707/16/16 06:50:31  5-MIN K0J4 161150Z AUTO 00000KT 1 1/2SM BR OVC001 22/22 A3008 170 97 1100 000/00 RMK AO2 T02220217
63870K0J4 0J420160716065513807/16/16 06:55:31  5-MIN K0J4 161155Z AUTO 00000KT 4SM BR BKN001 23/22 A3009 160 93 1100 000/00 RMK AO2 SLP184 T02280217 10233 20211 58002
63870K0J4 0J420160716070011007/16/16 07:00:31  5-MIN K0J4 161200Z AUTO 00000KT 8SM BKN001 23/22 A3009 160 97 1100 000/00 RMK AO2 T02280222
63870K0J4 0J420160716070511007/16/16 07:05:31  5-MIN K0J4 161205Z AUTO 00000KT 8SM SCT001 23/22 A3009 160 97 1100 000/00 RMK AO2 T02280222
63870K0J4 0J420160716071011007/16/16 07:10:31  5-MIN K0J4 161210Z AUTO 00000KT 7SM FEW001 23/22 A3009 160 97 1100 000/00 RMK AO2 T02280222
63870K0J4 0J420160716071511007/16/16 07:15:31  5-MIN K0J4 161215Z AUTO 00000KT 8SM FEW001 23/22 A3010 150 97 1100 000/00 RMK AO2 T02280222
63870K0J4 0J420160716072010707/16/16 07:20:31  5-MIN K0J4 161220Z AUTO 00000KT 9SM CLR 23/22 A3009 160 93 1200 000/00 RMK AO2 T02330222
63870K0J4 0J420160716072510807/16/16 07:25:31  5-MIN K0J4 161225Z AUTO 00000KT 10SM CLR 24/23 A3010 150 93 1300 000/00 RMK AO2 T02390228
63870K0J4 0J420160716073010807/16/16 07:30:31  5-MIN K0J4 161230Z AUTO 00000KT 10SM CLR 24/23 A3010 150 93 1300 000/00 RMK AO2 T02390228
63870K0J4 0J420160716073510807/16/16 07:35:31  5-MIN K0J4 161235Z AUTO 14004KT 10SM CLR 24/23 A3010 150 93 1300 140/04 RMK AO2 T02390228
63870K0J4 0J420160716074010807/16/16 07:40:31  5-MIN K0J4 161240Z AUTO 14003KT 10SM CLR 24/23 A3010 150 93 1300 140/03 RMK AO2 T02390228
63870K0J4 0J420160716074510807/16/16 07:45:31  5-MIN K0J4 161245Z AUTO 15003KT 10SM CLR 24/23 A3010 150 90 1300 150/03 RMK AO2 T02440228
63870K0J4 0J420160716075010807/16/16 07:50:31  5-MIN K0J4 161250Z AUTO 00000KT 10SM CLR 24/23 A3010 150 90 1300 000/00 RMK AO2 T02440228
63870K0J4 0J420160716075511507/16/16 07:55:31  5-MIN K0J4 161255Z AUTO 00000KT 10SM CLR 25/23 A3010 150 90 1400 000/00 RMK AO2 SLP187 T02500233
63870K0J4 0J420160716080010807/16/16 08:00:31  5-MIN K0J4 161300Z AUTO 00000KT 10SM CLR 25/23 A3010 150 87 1400 000/00 RMK AO2 T02500228
63870K0J4 0J420160716080510807/16/16 08:05:31  5-MIN K0J4 161305Z AUTO 00000KT 10SM CLR 26/23 A3010 150 87 1400 000/00 RMK AO2 T02560233
63870K0J4 0J420160716081010807/16/16 08:10:31  5-MIN K0J4 161310Z AUTO 00000KT 10SM CLR 26/23 A3010 150 87 1400 000/00 RMK AO2 T02560233
63870K0J4 0J420160716081510807/16/16 08:15:31  5-MIN K0J4 161315Z AUTO 00000KT 10SM CLR 26/23 A3010 150 84 1500 000/00 RMK AO2 T02610233
63870K0J4 0J420160716082010807/16/16 08:20:31  5-MIN K0J4 161320Z AUTO 00000KT 10SM CLR 26/23 A3011 150 84 1500 000/00 RMK AO2 T02610233
63870K0J4 0J420160716082510807/16/16 08:25:31  5-MIN K0J4 161325Z AUTO 00000KT 10SM CLR 26/23 A3011 140 84 1500 000/00 RMK AO2 T02610233
63870K0J4 0J420160716083010807/16/16 08:30:31  5-MIN K0J4 161330Z AUTO 00000KT 10SM CLR 27/23 A3011 140 82 1600 000/00 RMK AO2 T02670233
63870K0J4 0J420160716083510807/16/16 08:35:31  5-MIN K0J4 161335Z AUTO 00000KT 10SM CLR 27/23 A3011 140 82 1600 000/00 RMK AO2 T02670233
63870K0J4 0J420160716084010807/16/16 08:40:31  5-MIN K0J4 161340Z AUTO 00000KT 10SM CLR 27/23 A3011 140 82 1600 000/00 RMK AO2 T02670233
63870K0J4 0J420160716084510807/16/16 08:45:31  5-MIN K0J4 161345Z AUTO 00000KT 10SM CLR 27/23 A3011 140 79 1600 000/00 RMK AO2 T02720233
63870K0J4 0J420160716085011107/16/16 08:50:31  5-MIN K0J4 161350Z AUTO 00000KT 10SM FEW012 28/23 A3011 140 74 1700 000/00 RMK AO2 T02830233
63870K0J4 0J420160716085511807/16/16 08:55:31  5-MIN K0J4 161355Z AUTO 00000KT 10SM FEW012 28/23 A3011 140 74 1700 000/00 RMK AO2 SLP192 T02780228
63870K0J4 0J420160716090010807/16/16 09:00:31  5-MIN K0J4 161400Z AUTO 00000KT 10SM CLR 28/23 A3011 140 74 1700 000/00 RMK AO2 T02780228
63870K0J4 0J420160716090510807/16/16 09:05:31  5-MIN K0J4 161405Z AUTO 08003KT 10SM CLR 28/23 A3011 140 74 1700 080/03 RMK AO2 T02830233
63870K0J4 0J420160716091010807/16/16 09:10:31  5-MIN K0J4 161410Z AUTO 04003KT 10SM CLR 28/23 A3011 140 74 1700 040/03 RMK AO2 T02830233
63870K0J4 0J420160716091510807/16/16 09:15:31  5-MIN K0J4 161415Z AUTO 36003KT 10SM CLR 29/23 A3011 140 71 1800 360/03 RMK AO2 T02890233
63870K0J4 0J420160716092011107/16/16 09:20:31  5-MIN K0J4 161420Z AUTO 00000KT 10SM FEW017 29/23 A3011 140 71 1800 000/00 RMK AO2 T02890233
63870K0J4 0J420160716092511107/16/16 09:25:31  5-MIN K0J4 161425Z AUTO 00000KT 10SM SCT017 29/23 A3011 140 71 1800 000/00 RMK AO2 T02890233
63870K0J4 0J420160716093011107/16/16 09:30:31  5-MIN K0J4 161430Z AUTO 00000KT 10SM SCT017 29/23 A3012 140 71 1800 000/00 RMK AO2 T02890233
63870K0J4 0J420160716093511107/16/16 09:35:31  5-MIN K0J4 161435Z AUTO 17003KT 10SM BKN018 29/23 A3012 140 69 1800 170/03 RMK AO2 T02890228
63870K0J4 0J420160716094011107/16/16 09:40:31  5-MIN K0J4 161440Z AUTO 20003KT 10SM SCT018 28/22 A3012 130 69 1700 200/03 RMK AO2 T02830222
63870K0J4 0J420160716094511107/16/16 09:45:31  5-MIN K0J4 161445Z AUTO VRB03KT 10SM SCT018 28/22 A3012 130 69 1700 VRB/03 RMK AO2 T02830222
63870K0J4 0J420160716095012507/16/16 09:50:31  5-MIN K0J4 161450Z AUTO 00000KT 10SM FEW018 SCT023 SCT039 28/22 A3012 130 69 1700 000/00 RMK AO2 T02830222
63870K0J4 0J420160716095513807/16/16 09:55:31  5-MIN K0J4 161455Z AUTO 00000KT 10SM FEW018 FEW023 SCT039 28/22 A3012 130 69 1700 000/00 RMK AO2 SLP195 T02830222 53013
63870K0J4 0J420160716100011807/16/16 10:00:31  5-MIN K0J4 161500Z AUTO 00000KT 10SM FEW023 FEW040 28/22 A3012 130 66 1700 000/00 RMK AO2 T02830217
63870K0J4 0J420160716100511107/16/16 10:05:31  5-MIN K0J4 161505Z AUTO 00000KT 10SM FEW038 29/22 A3012 130 67 1800 000/00 RMK AO2 T02890222
63870K0J4 0J420160716101011107/16/16 10:10:31  5-MIN K0J4 161510Z AUTO VRB03KT 10SM FEW038 30/23 A3012 130 65 1900 VRB/03 RMK AO2 T03000228
63870K0J4 0J420160716101511107/16/16 10:15:31  5-MIN K0J4 161515Z AUTO 18006KT 10SM FEW038 29/22 A3012 130 64 1900 180/06 RMK AO2 T02940222
63870K0J4 0J420160716102010807/16/16 10:20:31  5-MIN K0J4 161520Z AUTO 00000KT 10SM CLR 29/22 A3012 130 62 1900 000/00 RMK AO2 T02940217
63870K0J4 0J420160716102510807/16/16 10:25:31  5-MIN K0J4 161525Z AUTO VRB04KT 10SM CLR 29/22 A3012 130 64 1900 VRB/04 RMK AO2 T02940222
63870K0J4 0J420160716103010807/16/16 10:30:31  5-MIN K0J4 161530Z AUTO VRB04KT 10SM CLR 29/22 A3012 130 64 1900 VRB/04 RMK AO2 T02940222
63870K0J4 0J420160716103510807/16/16 10:35:31  5-MIN K0J4 161535Z AUTO VRB03KT 10SM CLR 29/22 A3012 130 64 1900 VRB/03 RMK AO2 T02940222
63870K0J4 0J420160716104010807/16/16 10:40:31  5-MIN K0J4 161540Z AUTO 00000KT 10SM CLR 30/22 A3012 130 62 1900 000/00 RMK AO2 T03000222
63870K0J4 0J420160716104510807/16/16 10:45:31  5-MIN K0J4 161545Z AUTO 22004KT 10SM CLR 29/22 A3012 130 62 1900 220/04 RMK AO2 T02940217
63870K0J4 0J420160716105010807/16/16 10:50:31  5-MIN K0J4 161550Z AUTO 08005KT 10SM CLR 31/22 A3012 130 60 2000 080/05 RMK AO2 T03060222
63870K0J4 0J420160716105511507/16/16 10:55:31  5-MIN K0J4 161555Z AUTO 00000KT 10SM CLR 31/23 A3012 130 60 2000 000/00 RMK AO2 SLP195 T03110228
63870K0J4 0J420160716110010807/16/16 11:00:31  5-MIN K0J4 161600Z AUTO 11006KT 10SM CLR 31/23 A3012 130 62 2000 110/06 RMK AO2 T03060228
63870K0J4 0J420160716110510807/16/16 11:05:31  5-MIN K0J4 161605Z AUTO VRB03KT 10SM CLR 31/23 A3012 130 62 2000 VRB/03 RMK AO2 T03060228
63870K0J4 0J420160716111011607/16/16 11:10:31  5-MIN K0J4 161610Z AUTO VRB03KT 10SM VCTS FEW029 30/22 A3012 140 62 1900 VRB/03 RMK AO2 T03000222
63870K0J4 0J420160716111511607/16/16 11:15:31  5-MIN K0J4 161615Z AUTO 00000KT 10SM VCTS SCT029 29/22 A3011 140 64 1900 000/00 RMK AO2 T02940222
63870K0J4 0J420160716112011607/16/16 11:20:31  5-MIN K0J4 161620Z AUTO VRB03KT 10SM VCTS SCT029 31/23 A3012 140 62 2000 VRB/03 RMK AO2 T03060228
63870K0J4 0J420160716112512307/16/16 11:25:31  5-MIN K0J4 161625Z AUTO 13006KT 10SM VCTS SCT029 SCT038 30/22 A3012 140 62 1900 130/06 RMK AO2 T03000222
63870K0J4 0J420160716113011607/16/16 11:30:31  5-MIN K0J4 161630Z AUTO 10004KT 10SM VCTS BKN032 30/22 A3012 140 60 1900 100/04 RMK AO2 T03000217
63870K0J4 0J420160716113511107/16/16 11:35:31  5-MIN K0J4 161635Z AUTO 14003KT 10SM BKN032 29/22 A3012 130 64 1900 140/03 RMK AO2 T02940222
63870K0J4 0J420160716114011107/16/16 11:40:31  5-MIN K0J4 161640Z AUTO 13005KT 10SM BKN032 29/22 A3012 140 64 1900 130/05 RMK AO2 T02940222
63870K0J4 0J420160716114511107/16/16 11:45:31  5-MIN K0J4 161645Z AUTO 11005KT 10SM SCT031 29/22 A3011 140 67 1800 110/05 RMK AO2 T02890222
63870K0J4 0J420160716115012507/16/16 11:50:31  5-MIN K0J4 161650Z AUTO 09005KT 10SM FEW028 BKN034 BKN046 29/23 A3012 140 69 1800 090/05 RMK AO2 T02890228
63870K0J4 0J420160716115514807/16/16 11:55:31  5-MIN K0J4 161655Z AUTO 13004KT 10SM -RA SCT026 BKN034 BKN044 28/23 A3011 140 74 1700 130/04 RMK AO2 RAB54 SLP193 P0000 T02830233
63870K0J4 0J420160716120013507/16/16 12:00:31  5-MIN K0J4 161700Z AUTO 15004KT 10SM -RA SCT026 SCT031 BKN044 29/24 A3011 140 74 1800 150/04 RMK AO2 P0000 T02890239
63870K0J4 0J420160716120512807/16/16 12:05:31  5-MIN K0J4 161705Z AUTO 11006KT 10SM -RA FEW026 SCT045 30/24 A3011 140 69 1900 110/06 RMK AO2 P0000 T03000239
63870K0J4 0J420160716121013007/16/16 12:10:31  5-MIN K0J4 161710Z AUTO 10005KT 10SM FEW026 SCT045 31/23 A3011 140 65 2000 100/05 RMK AO2 RAE06 P0000 T03060233
63870K0J4 0J420160716121513007/16/16 12:15:31  5-MIN K0J4 161715Z AUTO VRB03KT 10SM FEW026 FEW045 30/23 A3011 140 67 1900 VRB/03 RMK AO2 RAE06 P0000 T03000233
63870K0J4 0J420160716122012307/16/16 12:20:31  5-MIN K0J4 161720Z AUTO 13003KT 10SM FEW025 30/23 A3010 150 67 1900 130/03 RMK AO2 RAE06 P0000 T03000233
63870K0J4 0J420160716122512007/16/16 12:25:31  5-MIN K0J4 161725Z AUTO VRB03KT 10SM CLR 32/24 A3010 150 63 2100 VRB/03 RMK AO2 RAE06 P0000 T03170239
63870K0J4 0J420160716123012007/16/16 12:30:31  5-MIN K0J4 161730Z AUTO 12006KT 10SM CLR 31/24 A3010 150 65 2100 120/06 RMK AO2 RAE06 P0000 T03110239
63870K0J4 0J420160716123512007/16/16 12:35:31  5-MIN K0J4 161735Z AUTO 14006KT 10SM CLR 31/23 A3010 150 63 2100 140/06 RMK AO2 RAE06 P0000 T03110233
63870K0J4 0J420160716124012007/16/16 12:40:31  5-MIN K0J4 161740Z AUTO 13007KT 10SM CLR 31/23 A3010 150 62 2000 130/07 RMK AO2 RAE06 P0000 T03060228
63870K0J4 0J420160716124512007/16/16 12:45:31  5-MIN K0J4 161745Z AUTO 15005KT 10SM CLR 31/23 A3010 150 65 2000 150/05 RMK AO2 RAE06 P0000 T03060233
63870K0J4 0J420160716125012007/16/16 12:50:31  5-MIN K0J4 161750Z AUTO 14006KT 10SM CLR 31/23 A3010 150 65 2000 140/06 RMK AO2 RAE06 P0000 T03060233
63870K0J4 0J420160716125515107/16/16 12:55:31  5-MIN K0J4 161755Z AUTO 11006KT 10SM CLR 31/23 A3010 150 62 2000 110/06 RMK AO2 RAE06 SLP186 P0000 60000 T03060228 10317 20228 52010
63870K0J4 0J420160716130010807/16/16 13:00:31  5-MIN K0J4 161800Z AUTO VRB06KT 10SM CLR 31/23 A3009 160 63 2100 VRB/06 RMK AO2 T03110233
63870K0J4 0J420160716130510807/16/16 13:05:31  5-MIN K0J4 161805Z AUTO 13005KT 10SM CLR 31/23 A3009 160 60 2100 130/05 RMK AO2 T03110228
63870K0J4 0J420160716131011307/16/16 13:10:31  5-MIN K0J4 161810Z AUTO 17005KT 10SM VCTS CLR 31/23 A3009 160 60 2100 170/05 RMK AO2 T03110228
63870K0J4 0J420160716132010307/16/16 13:20:31  5-MIN K0J4 161820Z AUTO 10SM VCTS CLR 32/23 A3009 160 58 2100 M /M RMK AO2 T03170228
63870K0J4 0J420160716132511307/16/16 13:25:31  5-MIN K0J4 161825Z AUTO 17009KT 10SM VCTS CLR 32/22 A3008 160 56 2100 170/09 RMK AO2 T03170222
63870K0J4 0J420160716133011307/16/16 13:30:31  5-MIN K0J4 161830Z AUTO 15005KT 10SM VCTS CLR 32/22 A3008 170 55 2200 150/05 RMK AO2 T03170217
63870K0J4 0J420160716133511307/16/16 13:35:31  5-MIN K0J4 161835Z AUTO 19008KT 10SM VCTS CLR 32/22 A3008 170 55 2200 190/08 RMK AO2 T03170217
63870K0J4 0J420160716134011307/16/16 13:40:31  5-MIN K0J4 161840Z AUTO 18009KT 10SM VCTS CLR 32/22 A3008 170 56 2200 180/09 RMK AO2 T03170222
63870K0J4 0J420160716134511307/16/16 13:45:31  5-MIN K0J4 161845Z AUTO 16007KT 10SM VCTS CLR 31/21 A3007 170 56 2000 160/07 RMK AO2 T03060211
63870K0J4 0J420160716135011307/16/16 13:50:31  5-MIN K0J4 161850Z AUTO 17008KT 10SM VCTS CLR 31/21 A3007 180 54 2100 170/08 RMK AO2 T03110211
63870K0J4 0J420160716135512007/16/16 13:55:31  5-MIN K0J4 161855Z AUTO 18012KT 10SM VCTS CLR 30/22 A3007 180 60 2000 180/12 RMK AO2 SLP179 T03000217
63870K0J4 0J420160716140011307/16/16 14:00:31  5-MIN K0J4 161900Z AUTO 17010KT 10SM VCTS CLR 29/22 A3007 180 67 1900 170/10 RMK AO2 T02890222
63870K0J4 0J420160716140511307/16/16 14:05:31  5-MIN K0J4 161905Z AUTO 17010KT 10SM VCTS CLR 29/22 A3007 180 64 1900 170/10 RMK AO2 T02890217
63870K0J4 0J420160716141011707/16/16 14:10:31  5-MIN K0J4 161910Z AUTO 18008KT 10SM TS CLR 29/22 A3007 170 62 1900 180/08 RMK AO2 TSB09 T02940217
63870K0J4 0J420160716141511707/16/16 14:15:31  5-MIN K0J4 161915Z AUTO VRB06KT 10SM TS CLR 29/21 A3008 170 60 1900 VRB/06 RMK AO2 TSB09 T02940211
63870K0J4 0J420160716142011707/16/16 14:20:31  5-MIN K0J4 161920Z AUTO VRB05KT 10SM TS CLR 29/22 A3008 170 67 1800 VRB/05 RMK AO2 TSB09 T02890222
63870K0J4 0J420160716142512007/16/16 14:25:31  5-MIN K0J4 161925Z AUTO 23005KT 10SM TS CLR 28/22 A3008 170 69 1700 230/05 RMK AO2 TSB09B22 T02780217
63870K0J4 0J420160716143012007/16/16 14:30:31  5-MIN K0J4 161930Z AUTO 22004KT 10SM TS CLR 27/22 A3008 170 71 1700 220/04 RMK AO2 TSB09B22 T02720217
63870K0J4 0J420160716143512007/16/16 14:35:31  5-MIN K0J4 161935Z AUTO 23005KT 10SM TS CLR 28/22 A3008 170 69 1700 230/05 RMK AO2 TSB09B22 T02780217
63870K0J4 0J420160716144012007/16/16 14:40:31  5-MIN K0J4 161940Z AUTO VRB05KT 10SM CLR 27/22 A3009 160 71 1600 VRB/05 RMK AO2 TSB09B22E38 T02720217
63870K0J4 0J420160716144512007/16/16 14:45:31  5-MIN K0J4 161945Z AUTO VRB04KT 10SM CLR 27/22 A3009 160 71 1700 VRB/04 RMK AO2 TSB09B22E38 T02720217
63870K0J4 0J420160716145012007/16/16 14:50:31  5-MIN K0J4 161950Z AUTO VRB03KT 10SM CLR 27/22 A3008 170 71 1700 VRB/03 RMK AO2 TSB09B22E38 T02720217
63870K0J4 0J420160716145512707/16/16 14:55:31  5-MIN K0J4 161955Z AUTO 00000KT 10SM CLR 27/21 A3008 170 69 1700 000/00 RMK AO2 TSB09B22E38 SLP180 T02720211
63870K0J4 0J420160716150010807/16/16 15:00:31  5-MIN K0J4 162000Z AUTO VRB03KT 10SM CLR 28/22 A3007 180 66 1800 VRB/03 RMK AO2 T02830217
63870K0J4 0J420160716150510807/16/16 15:05:31  5-MIN K0J4 162005Z AUTO 00000KT 10SM CLR 30/22 A3007 180 62 2000 000/00 RMK AO2 T03000222
63870K0J4 0J420160716151011507/16/16 15:10:31  5-MIN K0J4 162010Z AUTO 00000KT 10SM CLR 29/22 A3006 190 62 1900 000/00 RMK AO2 PRESFR T02940217
63870K0J4 0J420160716151511507/16/16 15:15:31  5-MIN K0J4 162015Z AUTO VRB03KT 10SM CLR 30/22 A3006 190 60 2000 VRB/03 RMK AO2 PRESFR T03000217
63870K0J4 0J420160716152010807/16/16 15:20:31  5-MIN K0J4 162020Z AUTO 13003KT 10SM CLR 29/22 A3005 190 62 1900 130/03 RMK AO2 T02940217
63870K0J4 0J420160716152510807/16/16 15:25:31  5-MIN K0J4 162025Z AUTO VRB06KT 10SM CLR 30/22 A3005 190 60 2000 VRB/06 RMK AO2 T03000217
63870K0J4 0J420160716153010807/16/16 15:30:31  5-MIN K0J4 162030Z AUTO 13006KT 10SM CLR 30/22 A3005 190 62 2000 130/06 RMK AO2 T03000222
63870K0J4 0J420160716153510807/16/16 15:35:31  5-MIN K0J4 162035Z AUTO 14005KT 10SM CLR 30/22 A3006 190 62 2000 140/05 RMK AO2 T03000222
63870K0J4 0J420160716154010807/16/16 15:40:31  5-MIN K0J4 162040Z AUTO VRB06KT 10SM CLR 30/22 A3005 190 62 2000 VRB/06 RMK AO2 T03000222
63870K0J4 0J420160716154511107/16/16 15:45:31  5-MIN K0J4 162045Z AUTO 10007KT 10SM FEW031 30/22 A3005 190 62 2000 100/07 RMK AO2 T03000222
63870K0J4 0J420160716155012707/16/16 15:50:31  5-MIN K0J4 162050Z AUTO 09008KT 070V140 10SM FEW031 29/22 A3005 190 64 1900 090/08 070V140 RMK AO2 T02940222
63870K0J4 0J420160716155512407/16/16 15:55:31  5-MIN K0J4 162055Z AUTO 13006KT 10SM FEW031 29/22 A3006 190 67 1900 130/06 RMK AO2 SLP173 T02890222 58009
63870K0J4 0J420160716160011107/16/16 16:00:31  5-MIN K0J4 162100Z AUTO 14006KT 10SM FEW031 29/22 A3006 190 64 1900 140/06 RMK AO2 T02890217
63870K0J4 0J420160716160511107/16/16 16:05:31  5-MIN K0J4 162105Z AUTO 12005KT 10SM FEW031 29/22 A3006 190 67 1900 120/05 RMK AO2 T02890222
63870K0J4 0J420160716161011107/16/16 16:10:31  5-MIN K0J4 162110Z AUTO 14006KT 10SM FEW031 28/22 A3006 190 66 1800 140/06 RMK AO2 T02830217
63870K0J4 0J420160716161510807/16/16 16:15:31  5-MIN K0J4 162115Z AUTO 14004KT 10SM CLR 28/22 A3006 190 66 1800 140/04 RMK AO2 T02830217
63870K0J4 0J420160716162010807/16/16 16:20:31  5-MIN K0J4 162120Z AUTO 14005KT 10SM CLR 28/22 A3006 190 69 1800 140/05 RMK AO2 T02830222
63870K0J4 0J420160716162510807/16/16 16:25:31  5-MIN K0J4 162125Z AUTO 15005KT 10SM CLR 28/22 A3006 190 66 1800 150/05 RMK AO2 T02830217
63870K0J4 0J420160716163010807/16/16 16:30:31  5-MIN K0J4 162130Z AUTO 15006KT 10SM CLR 28/22 A3006 190 66 1800 150/06 RMK AO2 T02830217
63870K0J4 0J420160716163510807/16/16 16:35:31  5-MIN K0J4 162135Z AUTO 15005KT 10SM CLR 28/22 A3006 180 66 1800 150/05 RMK AO2 T02830217
63870K0J4 0J420160716164010807/16/16 16:40:31  5-MIN K0J4 162140Z AUTO 15004KT 10SM CLR 28/22 A3007 180 69 1800 150/04 RMK AO2 T02830222
63870K0J4 0J420160716164510807/16/16 16:45:31  5-MIN K0J4 162145Z AUTO 14005KT 10SM CLR 29/22 A3006 180 67 1900 140/05 RMK AO2 T02890222
63870K0J4 0J420160716165010807/16/16 16:50:31  5-MIN K0J4 162150Z AUTO 14005KT 10SM CLR 29/22 A3007 180 67 1900 140/05 RMK AO2 T02890222
63870K0J4 0J420160716165511507/16/16 16:55:31  5-MIN K0J4 162155Z AUTO 11005KT 10SM CLR 29/22 A3006 180 64 1900 110/05 RMK AO2 SLP176 T02940222
63870K0J4 0J420160716170010807/16/16 17:00:31  5-MIN K0J4 162200Z AUTO 13004KT 10SM CLR 30/23 A3006 180 65 2000 130/04 RMK AO2 T03000228
63870K0J4 0J420160716170510807/16/16 17:05:31  5-MIN K0J4 162205Z AUTO 12006KT 10SM CLR 29/22 A3006 180 64 1900 120/06 RMK AO2 T02940222
63870K0J4 0J420160716171010807/16/16 17:10:31  5-MIN K0J4 162210Z AUTO 11007KT 10SM CLR 29/22 A3006 180 62 1900 110/07 RMK AO2 T02940217
63870K0J4 0J420160716171510807/16/16 17:15:31  5-MIN K0J4 162215Z AUTO 12008KT 10SM CLR 29/22 A3006 180 62 1900 120/08 RMK AO2 T02940217
63870K0J4 0J420160716172010807/16/16 17:20:31  5-MIN K0J4 162220Z AUTO 12007KT 10SM CLR 29/22 A3006 180 64 1900 120/07 RMK AO2 T02890217
63870K0J4 0J420160716172510807/16/16 17:25:31  5-MIN K0J4 162225Z AUTO VRB05KT 10SM CLR 29/22 A3007 180 62 1900 VRB/05 RMK AO2 T02940217
63870K0J4 0J420160716173010807/16/16 17:30:31  5-MIN K0J4 162230Z AUTO 11006KT 10SM CLR 29/22 A3007 180 62 1900 110/06 RMK AO2 T02940217
63870K0J4 0J420160716173510807/16/16 17:35:31  5-MIN K0J4 162235Z AUTO 12005KT 10SM CLR 29/22 A3007 180 62 1900 120/05 RMK AO2 T02940217
63870K0J4 0J420160716174010807/16/16 17:40:31  5-MIN K0J4 162240Z AUTO 14004KT 10SM CLR 29/22 A3007 180 62 1900 140/04 RMK AO2 T02940217
63870K0J4 0J420160716174511307/16/16 17:45:31  5-MIN K0J4 162245Z AUTO 15004KT 10SM VCTS CLR 29/22 A3006 180 62 1900 150/04 RMK AO2 T02940217
63870K0J4 0J420160716175011307/16/16 17:50:31  5-MIN K0J4 162250Z AUTO 16006KT 10SM VCTS CLR 29/22 A3006 190 64 1900 160/06 RMK AO2 T02890217
63870K0J4 0J420160716175512007/16/16 17:55:31  5-MIN K0J4 162255Z AUTO 16005KT 10SM VCTS CLR 29/22 A3006 180 64 1900 160/05 RMK AO2 SLP176 T02890217
63870K0J4 0J420160716180011307/16/16 18:00:31  5-MIN K0J4 162300Z AUTO 18005KT 10SM VCTS CLR 29/22 A3007 180 64 1900 180/05 RMK AO2 T02890217
63870K0J4 0J420160716180510807/16/16 18:05:31  5-MIN K0J4 162305Z AUTO 17005KT 10SM CLR 28/22 A3007 180 69 1800 170/05 RMK AO2 T02830222
63870K0J4 0J420160716181010807/16/16 18:10:31  5-MIN K0J4 162310Z AUTO 17004KT 10SM CLR 28/22 A3007 180 69 1800 170/04 RMK AO2 T02830222
63870K0J4 0J420160716181510807/16/16 18:15:31  5-MIN K0J4 162315Z AUTO 15004KT 10SM CLR 28/22 A3007 180 69 1800 150/04 RMK AO2 T02830222
63870K0J4 0J420160716182010807/16/16 18:20:31  5-MIN K0J4 162320Z AUTO 14004KT 10SM CLR 28/22 A3007 180 69 1800 140/04 RMK AO2 T02830222
63870K0J4 0J420160716182511307/16/16 18:25:31  5-MIN K0J4 162325Z AUTO 13003KT 10SM VCTS CLR 28/23 A3007 180 74 1700 130/03 RMK AO2 T02780228
63870K0J4 0J420160716183011307/16/16 18:30:31  5-MIN K0J4 162330Z AUTO 15004KT 10SM VCTS CLR 28/23 A3007 180 74 1700 150/04 RMK AO2 T02780228
63870K0J4 0J420160716183511307/16/16 18:35:31  5-MIN K0J4 162335Z AUTO 00000KT 10SM VCTS CLR 28/23 A3007 180 74 1700 000/00 RMK AO2 T02780228
63870K0J4 0J420160716184010807/16/16 18:40:31  5-MIN K0J4 162340Z AUTO 00000KT 10SM CLR 28/23 A3007 170 74 1700 000/00 RMK AO2 T02780228
63870K0J4 0J420160716184510807/16/16 18:45:31  5-MIN K0J4 162345Z AUTO 00000KT 10SM CLR 28/23 A3008 170 74 1700 000/00 RMK AO2 T02780228
63870K0J4 0J420160716185010807/16/16 18:50:31  5-MIN K0J4 162350Z AUTO 17003KT 10SM CLR 28/23 A3008 170 74 1700 170/03 RMK AO2 T02780228
63870K0J4 0J420160716185513307/16/16 18:55:31  5-MIN K0J4 162355Z AUTO 17004KT 10SM CLR 27/23 A3008 170 79 1700 170/04 RMK AO2 SLP180 T02720233 10322 20272 56012
63870K0J4 0J420160716190010807/16/16 19:00:31  5-MIN K0J4 170000Z AUTO 18004KT 10SM CLR 27/23 A3008 170 79 1700 180/04 RMK AO2 T02720233
63870K0J4 0J420160716190515407/16/16 19:05:31  5-MIN K0J4 170005Z AUTO 16004KT 10SM CLR 27/23 A3008 170 76 1700 160/04 RMK AO2 T0272022807/16/16 19:25:31  5-MM CLR 27/23 A3008 170228
63870K0J4 0J420160716195010807/16/16 19:50:31  5-MIN K0J4 170050Z AUTO 16003KT 10SM CLR 26/23 A3009 160 81 1500 160/03 RMK AO2 T02610228
63870K0J4 0J420160716195511507/16/16 19:55:31  5-MIN K0J4 170055Z AUTO 16003KT 10SM CLR 26/23 A3009 160 81 1500 160/03 RMK AO2 SLP184 T02610228
63870K0J4 0J420160716200010807/16/16 20:00:31  5-MIN K0J4 170100Z AUTO 15003KT 10SM CLR 26/23 A3009 160 81 1500 150/03 RMK AO2 T02610228
63870K0J4 0J420160716200510807/16/16 20:05:31  5-MIN K0J4 170105Z AUTO 15003KT 10SM CLR 26/23 A3009 160 81 1500 150/03 RMK AO2 T02610228
63870K0J4 0J420160716201010807/16/16 20:10:31  5-MIN K0J4 170110Z AUTO 00000KT 10SM CLR 26/23 A3010 150 81 1500 000/00 RMK AO2 T02610228
63870K0J4 0J420160716201510807/16/16 20:15:31  5-MIN K0J4 170115Z AUTO 00000KT 10SM CLR 26/23 A3010 150 81 1500 000/00 RMK AO2 T02610228
63870K0J4 0J420160716202010807/16/16 20:20:31  5-MIN K0J4 170120Z AUTO 00000KT 10SM CLR 26/23 A3011 140 81 1500 000/00 RMK AO2 T02610228
63870K0J4 0J420160716202510807/16/16 20:25:31  5-MIN K0J4 170125Z AUTO 00000KT 10SM CLR 26/23 A3011 140 81 1500 000/00 RMK AO2 T02610228
63870K0J4 0J420160716203010807/16/16 20:30:31  5-MIN K0J4 170130Z AUTO 00000KT 10SM CLR 26/23 A3011 140 84 1400 000/00 RMK AO2 T02560228
63870K0J4 0J420160716203510807/16/16 20:35:31  5-MIN K0J4 170135Z AUTO 00000KT 10SM CLR 26/23 A3011 140 84 1400 000/00 RMK AO2 T02560228
63870K0J4 0J420160716204010807/16/16 20:40:31  5-MIN K0J4 170140Z AUTO 00000KT 10SM CLR 26/23 A3012 130 84 1400 000/00 RMK AO2 T02560228
63870K0J4 0J420160716204510807/16/16 20:45:31  5-MIN K0J4 170145Z AUTO 00000KT 10SM CLR 26/23 A3012 130 84 1400 000/00 RMK AO2 T02560228
63870K0J4 0J420160716205010807/16/16 20:50:31  5-MIN K0J4 170150Z AUTO 00000KT 10SM CLR 26/23 A3012 130 84 1400 000/00 RMK AO2 T02560228
63870K0J4 0J420160716205511507/16/16 20:55:31  5-MIN K0J4 170155Z AUTO 00000KT 10SM CLR 26/23 A3012 130 84 1400 000/00 RMK AO2 SLP196 T02560228
63870K0J4 0J420160716210010807/16/16 21:00:31  5-MIN K0J4 170200Z AUTO 00000KT 10SM CLR 26/23 A3012 130 84 1400 000/00 RMK AO2 T02560228
63870K0J4 0J420160716210510807/16/16 21:05:31  5-MIN K0J4 170205Z AUTO 00000KT 10SM CLR 26/23 A3012 130 84 1400 000/00 RMK AO2 T02560228
63870K0J4 0J420160716211010807/16/16 21:10:31  5-MIN K0J4 170210Z AUTO 00000KT 10SM CLR 26/23 A3013 130 84 1400 000/00 RMK AO2 T02560228
63870K0J4 0J420160716211510807/16/16 21:15:31  5-MIN K0J4 170215Z AUTO 00000KT 10SM CLR 25/23 A3013 130 87 1400 000/00 RMK AO2 T02500228
63870K0J4 0J420160716212010807/16/16 21:20:31  5-MIN K0J4 170220Z AUTO 19003KT 10SM CLR 25/23 A3013 130 87 1400 190/03 RMK AO2 T02500228
63870K0J4 0J420160716212510807/16/16 21:25:31  5-MIN K0J4 170225Z AUTO 00000KT 10SM CLR 25/23 A3012 130 87 1400 000/00 RMK AO2 T02500228
63870K0J4 0J420160716213010807/16/16 21:30:31  5-MIN K0J4 170230Z AUTO 00000KT 10SM CLR 25/23 A3013 130 87 1400 000/00 RMK AO2 T02500228
63870K0J4 0J420160716213510807/16/16 21:35:31  5-MIN K0J4 170235Z AUTO 00000KT 10SM CLR 25/23 A3013 130 87 1400 000/00 RMK AO2 T02500228
63870K0J4 0J420160716214010807/16/16 21:40:31  5-MIN K0J4 170240Z AUTO 00000KT 10SM CLR 25/23 A3013 130 87 1400 000/00 RMK AO2 T02500228
63870K0J4 0J420160716214510807/16/16 21:45:31  5-MIN K0J4 170245Z AUTO 00000KT 10SM CLR 25/23 A3013 120 87 1400 000/00 RMK AO2 T02500228
63870K0J4 0J420160716215010807/16/16 21:50:31  5-MIN K0J4 170250Z AUTO 00000KT 10SM CLR 25/23 A3013 120 87 1300 000/00 RMK AO2 T02500228
63870K0J4 0J420160716215512107/16/16 21:55:31  5-MIN K0J4 170255Z AUTO 00000KT 10SM CLR 25/22 A3013 120 84 1300 000/00 RMK AO2 SLP199 T02500222 53006
63870K0J4 0J420160716220010807/16/16 22:00:31  5-MIN K0J4 170300Z AUTO 00000KT 10SM CLR 24/22 A3014 120 87 1300 000/00 RMK AO2 T02440222
63870K0J4 0J420160716220510807/16/16 22:05:31  5-MIN K0J4 170305Z AUTO 00000KT 10SM CLR 24/22 A3014 110 87 1300 000/00 RMK AO2 T02440222
63870K0J4 0J420160716221010807/16/16 22:10:31  5-MIN K0J4 170310Z AUTO 00000KT 10SM CLR 24/23 A3014 110 90 1300 000/00 RMK AO2 T02440228
63870K0J4 0J420160716221510807/16/16 22:15:31  5-MIN K0J4 170315Z AUTO 00000KT 10SM CLR 24/22 A3014 110 87 1300 000/00 RMK AO2 T02440222
63870K0J4 0J420160716222010807/16/16 22:20:31  5-MIN K0J4 170320Z AUTO 00000KT 10SM CLR 24/23 A3014 110 90 1300 000/00 RMK AO2 T02440228
63870K0J4 0J420160716222510807/16/16 22:25:31  5-MIN K0J4 170325Z AUTO 00000KT 10SM CLR 24/23 A3015 110 90 1300 000/00 RMK AO2 T02440228
63870K0J4 0J420160716223010807/16/16 22:30:31  5-MIN K0J4 170330Z AUTO 00000KT 10SM CLR 24/22 A3015 110 87 1300 000/00 RMK AO2 T02440222
63870K0J4 0J420160716223510807/16/16 22:35:31  5-MIN K0J4 170335Z AUTO 00000KT 10SM CLR 24/22 A3014 110 87 1300 000/00 RMK AO2 T02440222
63870K0J4 0J420160716224010807/16/16 22:40:31  5-MIN K0J4 170340Z AUTO 00000KT 10SM CLR 24/22 A3015 110 87 1300 000/00 RMK AO2 T02440222
63870K0J4 0J420160716224510807/16/16 22:45:31  5-MIN K0J4 170345Z AUTO 00000KT 10SM CLR 24/22 A3015 110 87 1300 000/00 RMK AO2 T02440222
63870K0J4 0J420160716225010807/16/16 22:50:31  5-MIN K0J4 170350Z AUTO 00000KT 10SM CLR 24/22 A3015 110 87 1300 000/00 RMK AO2 T02440222
63870K0J4 0J420160716225511507/16/16 22:55:31  5-MIN K0J4 170355Z AUTO 00000KT 10SM CLR 24/22 A3014 110 87 1300 000/00 RMK AO2 SLP203 T02440222
63870K0J4 0J420160716230010807/16/16 23:00:31  5-MIN K0J4 170400Z AUTO 00000KT 10SM CLR 24/22 A3014 110 87 1300 000/00 RMK AO2 T02440222
63870K0J4 0J420160716230510807/16/16 23:05:31  5-MIN K0J4 170405Z AUTO 00000KT 10SM CLR 24/22 A3014 110 90 1200 000/00 RMK AO2 T02390222
63870K0J4 0J420160716231010807/16/16 23:10:31  5-MIN K0J4 170410Z AUTO 00000KT 10SM CLR 24/22 A3014 110 90 1200 000/00 RMK AO2 T02390222
63870K0J4 0J420160716231510807/16/16 23:15:31  5-MIN K0J4 170415Z AUTO 00000KT 10SM CLR 24/22 A3014 110 90 1200 000/00 RMK AO2 T02390222
63870K0J4 0J420160716232010807/16/16 23:20:31  5-MIN K0J4 170420Z AUTO 00000KT 10SM CLR 24/22 A3014 110 90 1200 000/00 RMK AO2 T02390222
63870K0J4 0J420160716232510807/16/16 23:25:31  5-MIN K0J4 170425Z AUTO 00000KT 10SM CLR 24/22 A3014 110 90 1200 000/00 RMK AO2 T02390222
63870K0J4 0J420160716233010807/16/16 23:30:31  5-MIN K0J4 170430Z AUTO 00000KT 10SM CLR 24/22 A3014 110 90 1200 000/00 RMK AO2 T02390222
63870K0J4 0J420160716233510807/16/16 23:35:31  5-MIN K0J4 170435Z AUTO 00000KT 10SM CLR 24/22 A3014 110 90 1200 000/00 RMK AO2 T02390222
63870K0J4 0J420160716234010807/16/16 23:40:31  5-MIN K0J4 170440Z AUTO 00000KT 10SM CLR 24/22 A3014 110 90 1200 000/00 RMK AO2 T02390222
63870K0J4 0J420160716234510807/16/16 23:45:31  5-MIN K0J4 170445Z AUTO 00000KT 10SM CLR 24/22 A3014 110 90 1200 000/00 RMK AO2 T02390222
63870K0J4 0J420160716235010807/16/16 23:50:31  5-MIN K0J4 170450Z AUTO 00000KT 10SM CLR 24/22 A3014 120 90 1200 000/00 RMK AO2 T02390222
63870K0J4 0J420160716235512507/16/16 23:55:31  5-MIN K0J4 170455Z AUTO 00000KT 10SM CLR 24/22 A3014 120 90 1200 000/00 RMK AO2 SLP201 T02390222 403220211
63870K0J4 0J420160717000010807/17/16 00:00:31  5-MIN K0J4 170500Z AUTO 00000KT 10SM CLR 24/22 A3013 120 90 1200 000/00 RMK AO2 T02390222
63870K0J4 0J420160717000510807/17/16 00:05:31  5-MIN K0J4 170505Z AUTO 00000KT 10SM CLR 23/22 A3013 120 93 1200 000/00 RMK AO2 T02330222
63870K0J4 0J420160717001010807/17/16 00:10:31  5-MIN K0J4 170510Z AUTO 00000KT 10SM CLR 23/22 A3013 120 93 1200 000/00 RMK AO2 T02330222
63870K0J4 0J420160717001510807/17/16 00:15:31  5-MIN K0J4 170515Z AUTO 00000KT 10SM CLR 23/22 A3013 120 93 1200 000/00 RMK AO2 T02330222
63870K0J4 0J420160717002010807/17/16 00:20:31  5-MIN K0J4 170520Z AUTO 00000KT 10SM CLR 23/22 A3013 120 93 1200 000/00 RMK AO2 T02330222
63870K0J4 0J420160717002510807/17/16 00:25:31  5-MIN K0J4 170525Z AUTO 00000KT 10SM CLR 23/22 A3013 120 93 1200 000/00 RMK AO2 T02330222
63870K0J4 0J420160717003010807/17/16 00:30:31  5-MIN K0J4 170530Z AUTO 00000KT 10SM CLR 23/22 A3013 120 93 1200 000/00 RMK AO2 T02330222
63870K0J4 0J420160717003510807/17/16 00:35:31  5-MIN K0J4 170535Z AUTO 00000KT 10SM CLR 23/22 A3013 120 93 1200 000/00 RMK AO2 T02330222
63870K0J4 0J420160717004010807/17/16 00:40:31  5-MIN K0J4 170540Z AUTO 00000KT 10SM CLR 23/22 A3013 130 93 1200 000/00 RMK AO2 T02330222
63870K0J4 0J420160717004510807/17/16 00:45:31  5-MIN K0J4 170545Z AUTO 00000KT 10SM CLR 23/22 A3012 130 93 1200 000/00 RMK AO2 T02330222
63870K0J4 0J420160717005010807/17/16 00:50:31  5-MIN K0J4 170550Z AUTO 00000KT 10SM CLR 23/22 A3012 130 93 1200 000/00 RMK AO2 T02330222
63870K0J4 0J420160717005513307/17/16 00:55:31  5-MIN K0J4 170555Z AUTO 00000KT 10SM CLR 23/22 A3012 130 93 1200 000/00 RMK AO2 SLP195 T02330222 10272 20233 51019
63870K0J4 0J420160717010010807/17/16 01:00:31  5-MIN K0J4 170600Z AUTO 00000KT 10SM CLR 23/22 A3012 130 93 1200 000/00 RMK AO2 T02330222
63870K0J4 0J420160717010510807/17/16 01:05:31  5-MIN K0J4 170605Z AUTO 00000KT 10SM CLR 23/22 A3012 130 93 1200 000/00 RMK AO2 T02330222
63870K0J4 0J420160717011010807/17/16 01:10:31  5-MIN K0J4 170610Z AUTO 00000KT 10SM CLR 23/22 A3012 130 93 1200 000/00 RMK AO2 T02330222
63870K0J4 0J420160717011510807/17/16 01:15:31  5-MIN K0J4 170615Z AUTO 00000KT 10SM CLR 23/22 A3012 130 93 1200 000/00 RMK AO2 T02330222
63870K0J4 0J420160717012010807/17/16 01:20:31  5-MIN K0J4 170620Z AUTO 00000KT 10SM CLR 23/22 A3012 130 93 1200 000/00 RMK AO2 T02330222
63870K0J4 0J420160717012510807/17/16 01:25:31  5-MIN K0J4 170625Z AUTO 00000KT 10SM CLR 23/22 A3012 130 97 1100 000/00 RMK AO2 T02280222
63870K0J4 0J420160717013010807/17/16 01:30:31  5-MIN K0J4 170630Z AUTO 00000KT 10SM CLR 23/22 A3012 130 97 1100 000/00 RMK AO2 T02280222
63870K0J4 0J420160717013510807/17/16 01:35:31  5-MIN K0J4 170635Z AUTO 00000KT 10SM CLR 23/22 A3012 130 97 1100 000/00 RMK AO2 T02280222
63870K0J4 0J420160717014010807/17/16 01:40:31  5-MIN K0J4 170640Z AUTO 11003KT 10SM CLR 23/22 A3012 130 97 1100 110/03 RMK AO2 T02280222
63870K0J4 0J420160717014510807/17/16 01:45:31  5-MIN K0J4 170645Z AUTO 00000KT 10SM CLR 23/22 A3012 130 97 1100 000/00 RMK AO2 T02280222
63870K0J4 0J420160717015010807/17/16 01:50:31  5-MIN K0J4 170650Z AUTO 00000KT 10SM CLR 23/22 A3012 130 97 1100 000/00 RMK AO2 T02280222
63870K0J4 0J420160717015511507/17/16 01:55:31  5-MIN K0J4 170655Z AUTO 00000KT 10SM CLR 23/22 A3011 140 97 1100 000/00 RMK AO2 SLP193 T02280222
63870K0J4 0J420160717020010807/17/16 02:00:31  5-MIN K0J4 170700Z AUTO 00000KT 10SM CLR 23/22 A3011 140 97 1100 000/00 RMK AO2 T02280222
63870K0J4 0J420160717020510807/17/16 02:05:31  5-MIN K0J4 170705Z AUTO 00000KT 10SM CLR 23/22 A3012 140 97 1100 000/00 RMK AO2 T02280222
63870K0J4 0J420160717021010807/17/16 02:10:31  5-MIN K0J4 170710Z AUTO 00000KT 10SM CLR 23/22 A3012 140 97 1100 000/00 RMK AO2 T02280222
63870K0J4 0J420160717021510807/17/16 02:15:31  5-MIN K0J4 170715Z AUTO 00000KT 10SM CLR 23/22 A3011 140 97 1100 000/00 RMK AO2 T02280222
63870K0J4 0J420160717022010707/17/16 02:20:31  5-MIN K0J4 170720Z AUTO 00000KT 9SM CLR 23/22 A3011 140 97 1100 000/00 RMK AO2 T02280222
63870K0J4 0J420160717022510707/17/16 02:25:31  5-MIN K0J4 170725Z AUTO 00000KT 8SM CLR 23/22 A3011 140 97 1100 000/00 RMK AO2 T02280222
63870K0J4 0J420160717023010707/17/16 02:30:31  5-MIN K0J4 170730Z AUTO 00000KT 9SM CLR 23/22 A3011 140 97 1100 000/00 RMK AO2 T02280222
63870K0J4 0J420160717023511007/17/16 02:35:31  5-MIN K0J4 170735Z AUTO 00000KT 9SM FEW020 23/22 A3011 140 97 1100 000/00 RMK AO2 T02280222
63870K0J4 0J420160717024011707/17/16 02:40:31  5-MIN K0J4 170740Z AUTO 00000KT 9SM FEW001 SCT020 23/22 A3011 140 97 1100 000/00 RMK AO2 T02280222
63870K0J4 0J420160717024511707/17/16 02:45:31  5-MIN K0J4 170745Z AUTO 00000KT 8SM FEW001 SCT020 23/22 A3012 140 97 1100 000/00 RMK AO2 T02280222
63870K0J4 0J420160717025011707/17/16 02:50:31  5-MIN K0J4 170750Z AUTO 00000KT 8SM FEW001 FEW020 23/22 A3012 140 93 1100 000/00 RMK AO2 T02280217
63870K0J4 0J420160717025512407/17/16 02:55:31  5-MIN K0J4 170755Z AUTO 00000KT 9SM FEW001 FEW020 23/22 A3012 140 93 1100 000/00 RMK AO2 SLP193 T02280217
63870K0J4 0J420160717030011807/17/16 03:00:31  5-MIN K0J4 170800Z AUTO 00000KT 10SM FEW001 FEW020 23/22 A3011 140 93 1100 000/00 RMK AO2 T02280217
63870K0J4 0J420160717030511107/17/16 03:05:31  5-MIN K0J4 170805Z AUTO 00000KT 10SM FEW001 23/22 A3011 140 93 1100 000/00 RMK AO2 T02280217
63870K0J4 0J420160717031010807/17/16 03:10:31  5-MIN K0J4 170810Z AUTO 00000KT 10SM CLR 23/22 A3011 140 93 1100 000/00 RMK AO2 T02280217
63870K0J4 0J420160717031510807/17/16 03:15:31  5-MIN K0J4 170815Z AUTO 00000KT 10SM CLR 23/22 A3011 140 93 1100 000/00 RMK AO2 T02280217
63870K0J4 0J420160717032010807/17/16 03:20:31  5-MIN K0J4 170820Z AUTO 00000KT 10SM CLR 23/22 A3011 140 93 1100 000/00 RMK AO2 T02280217
63870K0J4 0J420160717032510807/17/16 03:25:31  5-MIN K0J4 170825Z AUTO 00000KT 10SM CLR 23/22 A3012 140 93 1100 000/00 RMK AO2 T02280217
63870K0J4 0J420160717033010807/17/16 03:30:31  5-MIN K0J4 170830Z AUTO 00000KT 10SM CLR 23/22 A3011 140 93 1100 000/00 RMK AO2 T02280217
63870K0J4 0J420160717033510807/17/16 03:35:31  5-MIN K0J4 170835Z AUTO 00000KT 10SM CLR 23/22 A3011 140 93 1100 000/00 RMK AO2 T02280217
63870K0J4 0J420160717034010807/17/16 03:40:31  5-MIN K0J4 170840Z AUTO 00000KT 10SM CLR 23/22 A3011 140 93 1100 000/00 RMK AO2 T02280217
63870K0J4 0J420160717034510807/17/16 03:45:31  5-MIN K0J4 170845Z AUTO 00000KT 10SM CLR 23/22 A3011 140 93 1100 000/00 RMK AO2 T02280217
63870K0J4 0J420160717035010807/17/16 03:50:31  5-MIN K0J4 170850Z AUTO 00000KT 10SM CLR 23/22 A3011 140 93 1100 000/00 RMK AO2 T02280217
63870K0J4 0J420160717035512107/17/16 03:55:31  5-MIN K0J4 170855Z AUTO 00000KT 10SM CLR 23/22 A3011 140 93 1100 000/00 RMK AO2 SLP193 T02280217 58004
63870K0J4 0J420160717040010707/17/16 04:00:31  5-MIN K0J4 170900Z AUTO 08003KT 9SM CLR 23/22 A3012 140 93 1100 080/03 RMK AO2 T02280217
63870K0J4 0J420160717040510707/17/16 04:05:31  5-MIN K0J4 170905Z AUTO 00000KT 9SM CLR 23/22 A3011 140 93 1100 000/00 RMK AO2 T02280217
63870K0J4 0J420160717041010807/17/16 04:10:31  5-MIN K0J4 170910Z AUTO 00000KT 10SM CLR 23/22 A3011 140 93 1100 000/00 RMK AO2 T02280217
63870K0J4 0J420160717041510807/17/16 04:15:31  5-MIN K0J4 170915Z AUTO 00000KT 10SM CLR 23/22 A3012 140 93 1100 000/00 RMK AO2 T02280217
63870K0J4 0J420160717042010707/17/16 04:20:31  5-MIN K0J4 170920Z AUTO 00000KT 9SM CLR 22/22 A3012 140 97 1000 000/00 RMK AO2 T02220217
63870K0J4 0J420160717042510707/17/16 04:25:31  5-MIN K0J4 170925Z AUTO 00000KT 9SM CLR 22/22 A3012 130 97 1000 000/00 RMK AO2 T02220217
63870K0J4 0J420160717043010807/17/16 04:30:31  5-MIN K0J4 170930Z AUTO 00000KT 10SM CLR 22/22 A3012 130 97 1000 000/00 RMK AO2 T02220217
63870K0J4 0J420160717043510807/17/16 04:35:31  5-MIN K0J4 170935Z AUTO 00000KT 10SM CLR 22/22 A3012 130 97 1000 000/00 RMK AO2 T02220217
63870K0J4 0J420160717044010807/17/16 04:40:31  5-MIN K0J4 170940Z AUTO 00000KT 10SM CLR 22/22 A3012 130 97 1000 000/00 RMK AO2 T02220217
63870K0J4 0J420160717044510807/17/16 04:45:31  5-MIN K0J4 170945Z AUTO 00000KT 10SM CLR 22/22 A3012 130 97 1000 000/00 RMK AO2 T02220217
63870K0J4 0J420160717045010807/17/16 04:50:31  5-MIN K0J4 170950Z AUTO 00000KT 10SM CLR 22/22 A3012 130 97 1000 000/00 RMK AO2 T02220217
63870K0J4 0J420160717045511507/17/16 04:55:31  5-MIN K0J4 170955Z AUTO 00000KT 10SM CLR 22/22 A3012 130 97 1000 000/00 RMK AO2 SLP196 T02220217
63870K0J4 0J420160717050011007/17/16 05:00:31  5-MIN K0J4 171000Z AUTO 00000KT 9SM FEW001 22/22 A3013 130 97 1000 000/00 RMK AO2 T02220217
63870K0J4 0J420160717050511007/17/16 05:05:31  5-MIN K0J4 171005Z AUTO 00000KT 8SM SCT001 22/22 A3013 130 97 1000 000/00 RMK AO2 T02220217
63870K0J4 0J420160717051011007/17/16 05:10:31  5-MIN K0J4 171010Z AUTO 00000KT 8SM BKN001 22/21 A3013 120 93 1000 000/00 RMK AO2 T02220211
63870K0J4 0J420160717051511007/17/16 05:15:31  5-MIN K0J4 171015Z AUTO 00000KT 7SM BKN001 22/21 A3013 120 93 1000 000/00 RMK AO2 T02220211
63870K0J4 0J420160717052011007/17/16 05:20:31  5-MIN K0J4 171020Z AUTO 00000KT 7SM BKN001 22/22 A3013 120 97 1000 000/00 RMK AO2 T02220217
63870K0J4 0J420160717052511307/17/16 05:25:31  5-MIN K0J4 171025Z AUTO 00000KT 6SM BR OVC001 22/22 A3013 120 97 1000 000/00 RMK AO2 T02220217
63870K0J4 0J420160717053011307/17/16 05:30:31  5-MIN K0J4 171030Z AUTO 00000KT 5SM BR OVC001 22/22 A3013 120 97 1000 000/00 RMK AO2 T02220217
63870K0J4 0J420160717053511307/17/16 05:35:31  5-MIN K0J4 171035Z AUTO 00000KT 5SM BR BKN001 22/22 A3013 120 97 1000 000/00 RMK AO2 T02220217
63870K0J4 0J420160717054011307/17/16 05:40:31  5-MIN K0J4 171040Z AUTO 00000KT 5SM BR BKN001 22/21 A3013 120 93 1000 000/00 RMK AO2 T02220211
63870K0J4 0J420160717054511307/17/16 05:45:31  5-MIN K0J4 171045Z AUTO 00000KT 5SM BR BKN001 22/21 A3013 120 93 1000 000/00 RMK AO2 T02220211
63870K0J4 0J420160717055011007/17/16 05:50:31  5-MIN K0J4 171050Z AUTO 00000KT 8SM SCT001 22/22 A3014 120 97 1000 000/00 RMK AO2 T02220217
63870K0J4 0J420160717055511807/17/16 05:55:31  5-MIN K0J4 171055Z AUTO 00000KT 10SM SCT001 22/22 A3014 110 97 1000 000/00 RMK AO2 SLP202 T02220217
63870K0J4 0J420160717060011107/17/16 06:00:31  5-MIN K0J4 171100Z AUTO 00000KT 10SM FEW001 22/22 A3014 110 97 1000 000/00 RMK AO2 T02220217
63870K0J4 0J420160717060511107/17/16 06:05:31  5-MIN K0J4 171105Z AUTO 00000KT 10SM FEW001 22/22 A3014 110 97 1000 000/00 RMK AO2 T02220217
63870K0J4 0J420160717061010807/17/16 06:10:31  5-MIN K0J4 171110Z AUTO 00000KT 10SM CLR 22/22 A3015 110 97 1000 000/00 RMK AO2 T02220217
63870K0J4 0J420160717061510807/17/16 06:15:31  5-MIN K0J4 171115Z AUTO 00000KT 10SM CLR 22/22 A3015 110 97 1000 000/00 RMK AO2 T02220217
63870K0J4 0J420160717062010807/17/16 06:20:31  5-MIN K0J4 171120Z AUTO 00000KT 10SM CLR 22/22 A3015 100 97 1000 000/00 RMK AO2 T02220217
63870K0J4 0J420160717062510807/17/16 06:25:31  5-MIN K0J4 171125Z AUTO 00000KT 10SM CLR 23/22 A3015 100 93 1100 000/00 RMK AO2 T02280217
63870K0J4 0J420160717063010807/17/16 06:30:31  5-MIN K0J4 171130Z AUTO 00000KT 10SM CLR 23/22 A3015 100 93 1100 000/00 RMK AO2 T02280217
63870K0J4 0J420160717063510807/17/16 06:35:31  5-MIN K0J4 171135Z AUTO 00000KT 10SM CLR 23/22 A3016 100 93 1100 000/00 RMK AO2 T02280217
63870K0J4 0J420160717064010807/17/16 06:40:31  5-MIN K0J4 171140Z AUTO 00000KT 10SM CLR 23/22 A3016 100 93 1100 000/00 RMK AO2 T02280217
63870K0J4 0J420160717064510807/17/16 06:45:31  5-MIN K0J4 171145Z AUTO 00000KT 10SM CLR 23/22 A3016 100 93 1100 000/00 RMK AO2 T02330222
63870K0J4 0J420160717065010707/17/16 06:50:31  5-MIN K0J4 171150Z AUTO 00000KT 10SM CLR 23/22 A3016 90 93 1100 000/00 RMK AO2 T02330222
63870K0J4 0J420160717065513207/17/16 06:55:31  5-MIN K0J4 171155Z AUTO 11003KT 10SM CLR 23/22 A3016 90 93 1100 110/03 RMK AO2 SLP210 T02330222 10233 20222 56003
63870K0J4 0J420160717070010707/17/16 07:00:31  5-MIN K0J4 171200Z AUTO 10003KT 10SM CLR 23/22 A3017 90 93 1100 100/03 RMK AO2 T02330222
63870K0J4 0J420160717070510707/17/16 07:05:31  5-MIN K0J4 171205Z AUTO 09003KT 10SM CLR 24/22 A3017 90 90 1200 090/03 RMK AO2 T02390222
63870K0J4 0J420160717071010707/17/16 07:10:31  5-MIN K0J4 171210Z AUTO 08004KT 10SM CLR 24/22 A3016 90 90 1200 080/04 RMK AO2 T02390222
63870K0J4 0J420160717071510707/17/16 07:15:31  5-MIN K0J4 171215Z AUTO 08003KT 10SM CLR 24/22 A3017 90 90 1200 080/03 RMK AO2 T02390222
63870K0J4 0J420160717072010707/17/16 07:20:31  5-MIN K0J4 171220Z AUTO 09003KT 10SM CLR 24/22 A3017 90 90 1200 090/03 RMK AO2 T02390222
63870K0J4 0J420160717072510707/17/16 07:25:31  5-MIN K0J4 171225Z AUTO VRB03KT 10SM CLR 24/23 A3017 80 90 1200 VRB/03 RMK AO2 T02440228
63870K0J4 0J420160717073010707/17/16 07:30:31  5-MIN K0J4 171230Z AUTO 00000KT 10SM CLR 24/23 A3017 80 90 1200 000/00 RMK AO2 T02440228
63870K0J4 0J420160717073510707/17/16 07:35:31  5-MIN K0J4 171235Z AUTO 11003KT 10SM CLR 25/23 A3018 80 87 1300 110/03 RMK AO2 T02500228
63870K0J4 0J420160717074010707/17/16 07:40:31  5-MIN K0J4 171240Z AUTO 00000KT 10SM CLR 25/23 A3018 80 87 1300 000/00 RMK AO2 T02500228
63870K0J4 0J420160717074510707/17/16 07:45:31  5-MIN K0J4 171245Z AUTO 13003KT 10SM CLR 25/23 A3018 70 87 1300 130/03 RMK AO2 T02500228
63870K0J4 0J420160717075010707/17/16 07:50:31  5-MIN K0J4 171250Z AUTO 13004KT 10SM CLR 25/23 A3018 70 87 1300 130/04 RMK AO2 T02500228
63870K0J4 0J420160717075511407/17/16 07:55:31  5-MIN K0J4 171255Z AUTO 10003KT 10SM CLR 26/23 A3019 70 84 1400 100/03 RMK AO2 SLP217 T02560228
63870K0J4 0J420160717080010707/17/16 08:00:31  5-MIN K0J4 171300Z AUTO 13004KT 10SM CLR 26/23 A3019 70 87 1400 130/04 RMK AO2 T02560233
63870K0J4 0J420160717080510707/17/16 08:05:31  5-MIN K0J4 171305Z AUTO 13004KT 10SM CLR 26/23 A3019 70 81 1400 130/04 RMK AO2 T02610228
63870K0J4 0J420160717081010707/17/16 08:10:31  5-MIN K0J4 171310Z AUTO 00000KT 10SM CLR 26/23 A3019 70 84 1400 000/00 RMK AO2 T02610233
63870K0J4 0J420160717081510707/17/16 08:15:31  5-MIN K0J4 171315Z AUTO 13004KT 10SM CLR 27/23 A3019 70 82 1500 130/04 RMK AO2 T02670233
63870K0J4 0J420160717082010707/17/16 08:20:31  5-MIN K0J4 171320Z AUTO VRB03KT 10SM CLR 27/23 A3019 70 82 1500 VRB/03 RMK AO2 T02670233
63870K0J4 0J420160717082510707/17/16 08:25:31  5-MIN K0J4 171325Z AUTO 12005KT 10SM CLR 27/23 A3019 70 79 1500 120/05 RMK AO2 T02720233
63870K0J4 0J420160717083010707/17/16 08:30:31  5-MIN K0J4 171330Z AUTO 10005KT 10SM CLR 27/23 A3019 70 79 1500 100/05 RMK AO2 T02720233
63870K0J4 0J420160717083510707/17/16 08:35:31  5-MIN K0J4 171335Z AUTO 13006KT 10SM CLR 27/23 A3019 70 79 1500 130/06 RMK AO2 T02720233
63870K0J4 0J420160717084010707/17/16 08:40:31  5-MIN K0J4 171340Z AUTO 13004KT 10SM CLR 28/23 A3019 70 76 1600 130/04 RMK AO2 T02780233
63870K0J4 0J420160717084510707/17/16 08:45:31  5-MIN K0J4 171345Z AUTO 14004KT 10SM CLR 28/23 A3019 60 76 1600 140/04 RMK AO2 T02780233
63870K0J4 0J420160717085010707/17/16 08:50:31  5-MIN K0J4 171350Z AUTO 12005KT 10SM CLR 28/23 A3019 70 74 1700 120/05 RMK AO2 T02830233
63870K0J4 0J420160717085511407/17/16 08:55:31  5-MIN K0J4 171355Z AUTO VRB04KT 10SM CLR 28/23 A3019 60 74 1700 VRB/04 RMK AO2 SLP220 T02830233
63870K0J4 0J420160717090010707/17/16 09:00:31  5-MIN K0J4 171400Z AUTO 11005KT 10SM CLR 28/23 A3019 70 74 1700 110/05 RMK AO2 T02830233
63870K0J4 0J420160717090510707/17/16 09:05:31  5-MIN K0J4 171405Z AUTO 11005KT 10SM CLR 29/23 A3019 60 71 1700 110/05 RMK AO2 T02890233
63870K0J4 0J420160717091010707/17/16 09:10:31  5-MIN K0J4 171410Z AUTO 10005KT 10SM CLR 29/23 A3019 60 71 1700 100/05 RMK AO2 T02890233
63870K0J4 0J420160717091510707/17/16 09:15:31  5-MIN K0J4 171415Z AUTO 00000KT 10SM CLR 29/24 A3019 60 74 1700 000/00 RMK AO2 T02890239
63870K0J4 0J420160717092011007/17/16 09:20:31  5-MIN K0J4 171420Z AUTO VRB05KT 10SM FEW018 29/24 A3019 70 71 1800 VRB/05 RMK AO2 T02940239
63870K0J4 0J420160717092511007/17/16 09:25:31  5-MIN K0J4 171425Z AUTO 14004KT 10SM FEW018 29/24 A3019 70 74 1700 140/04 RMK AO2 T02890239
63870K0J4 0J420160717093011007/17/16 09:30:31  5-MIN K0J4 171430Z AUTO 16004KT 10SM FEW018 29/23 A3019 70 71 1700 160/04 RMK AO2 T02890233
63870K0J4 0J420160717093511007/17/16 09:35:31  5-MIN K0J4 171435Z AUTO 14006KT 10SM FEW018 29/24 A3019 70 71 1800 140/06 RMK AO2 T02940239
63870K0J4 0J420160717094011007/17/16 09:40:31  5-MIN K0J4 171440Z AUTO 15006KT 10SM FEW020 29/23 A3020 60 69 1800 150/06 RMK AO2 T02940233
63870K0J4 0J420160717094511707/17/16 09:45:31  5-MIN K0J4 171445Z AUTO VRB04KT 10SM FEW018 SCT027 29/23 A3020 60 71 1700 VRB/04 RMK AO2 T02890233
63870K0J4 0J420160717095012407/17/16 09:50:31  5-MIN K0J4 171450Z AUTO 16004KT 10SM FEW018 SCT034 SCT047 29/23 A3020 60 71 1700 160/04 RMK AO2 T02890233
63870K0J4 0J420160717095513707/17/16 09:55:31  5-MIN K0J4 171455Z AUTO 12006KT 10SM FEW019 SCT034 BKN045 30/23 A3019 60 67 1800 120/06 RMK AO2 SLP220 T03000233 53017
63870K0J4 0J420160717100012407/17/16 10:00:31  5-MIN K0J4 171500Z AUTO 15006KT 10SM FEW025 SCT033 BKN042 29/23 A3019 60 67 1800 150/06 RMK AO2 T02940228
63870K0J4 0J420160717100512407/17/16 10:05:31  5-MIN K0J4 171505Z AUTO 18007KT 10SM SCT027 SCT036 BKN044 29/23 A3020 60 67 1800 180/07 RMK AO2 T02940228
63870K0J4 0J420160717101012407/17/16 10:10:31  5-MIN K0J4 171510Z AUTO VRB04KT 10SM SCT027 BKN034 BKN044 30/23 A3020 60 67 1800 VRB/04 RMK AO2 T03000233
63870K0J4 0J420160717101512407/17/16 10:15:31  5-MIN K0J4 171515Z AUTO 12008KT 10SM SCT027 SCT034 BKN044 31/24 A3020 60 67 1900 120/08 RMK AO2 T03060239
63870K0J4 0J420160717102012407/17/16 10:20:31  5-MIN K0J4 171520Z AUTO 15006KT 10SM FEW027 SCT032 BKN041 30/23 A3020 60 65 1800 150/06 RMK AO2 T03000228
63870K0J4 0J420160717102512407/17/16 10:25:31  5-MIN K0J4 171525Z AUTO 16008KT 10SM FEW027 SCT042 BKN049 31/23 A3020 60 65 1900 160/08 RMK AO2 T03060233
63870K0J4 0J420160717103012407/17/16 10:30:31  5-MIN K0J4 171530Z AUTO 16006KT 10SM FEW027 SCT032 BKN049 31/23 A3020 60 65 1900 160/06 RMK AO2 T03060233
63870K0J4 0J420160717103512407/17/16 10:35:31  5-MIN K0J4 171535Z AUTO 14004KT 10SM FEW027 SCT041 SCT050 31/23 A3020 60 62 1900 140/04 RMK AO2 T03060228
63870K0J4 0J420160717104011407/17/16 10:40:31  5-MIN K0J4 171540Z AUTO 10SM FEW029 FEW041 SCT050 31/23 A3020 60 63 2000 M /M RMK AO2 T03110233
63870K0J4 0J420160717104514007/17/16 10:45:31  5-MIN K0J4 171545Z AUTO 15007KT 120V180 10SM FEW028 FEW041 SCT050 31/23 A3020 60 65 1900 150/07 120V180 RMK AO2 T03060233
63870K0J4 0J420160717105012407/17/16 10:50:31  5-MIN K0J4 171550Z AUTO 13007KT 10SM FEW030 SCT045 BKN065 31/23 A3020 60 60 2000 130/07 RMK AO2 T03110228
63870K0J4 0J420160717105511907/17/16 10:55:31  5-MIN K0J4 171555Z AUTO VRB06KT 10SM VCTS FEW030 SCT055 BKN065 31/23 A3020 60 63 2000 VRB/06 RMK AO2
63870K0J4 0J420160717110012907/17/16 11:00:31  5-MIN K0J4 171600Z AUTO 10004KT 10SM VCTS FEW030 SCT045 BKN065 31/23 A3020 60 62 1900 100/04 RMK AO2 T03060228
63870K0J4 0J420160717210010707/17/16 21:00:31  5-MIN K0J4 180200Z AUTO 00000KT 10SM CLR 24/23 A3021 50 93 1200 000/00 RMK AO2 T02440233
63870K0J4 0J420160717210510707/17/16 21:05:31  5-MIN K0J4 180205Z AUTO 09004KT 10SM CLR 24/23 A3021 50 90 1200 090/04 RMK AO2 T02440228
63870K0J4 0J420160717211010707/17/16 21:10:31  5-MIN K0J4 180210Z AUTO 10004KT 10SM CLR 24/23 A3021 50 90 1200 100/04 RMK AO2 T02440228
63870K0J4 0J420160717211510707/17/16 21:15:31  5-MIN K0J4 180215Z AUTO VRB03KT 10SM CLR 25/23 A3021 50 87 1300 VRB/03 RMK AO2 T02500228
63870K0J4 0J420160717212010707/17/16 21:20:31  5-MIN K0J4 180220Z AUTO 00000KT 10SM CLR 25/23 A3021 50 87 1300 000/00 RMK AO2 T02500228
63870K0J4 0J420160717212510707/17/16 21:25:31  5-MIN K0J4 180225Z AUTO 00000KT 10SM CLR 25/23 A3022 40 87 1300 000/00 RMK AO2 T02500228
63870K0J4 0J420160717213010707/17/16 21:30:31  5-MIN K0J4 180230Z AUTO 00000KT 10SM CLR 25/23 A3022 40 87 1200 000/00 RMK AO2 T02500228
63870K0J4 0J420160717213510707/17/16 21:35:31  5-MIN K0J4 180235Z AUTO 00000KT 10SM CLR 25/23 A3022 40 87 1200 000/00 RMK AO2 T02500228
63870K0J4 0J420160717214010707/17/16 21:40:31  5-MIN K0J4 180240Z AUTO 00000KT 10SM CLR 24/23 A3023 30 90 1200 000/00 RMK AO2 T02440228
63870K0J4 0J420160717214510707/17/16 21:45:31  5-MIN K0J4 180245Z AUTO 00000KT 10SM CLR 24/23 A3023 30 90 1200 000/00 RMK AO2 T02440228
63870K0J4 0J420160717215010707/17/16 21:50:31  5-MIN K0J4 180250Z AUTO 00000KT 10SM CLR 24/23 A3023 30 90 1200 000/00 RMK AO2 T02440228
63870K0J4 0J420160717215512007/17/16 21:55:31  5-MIN K0J4 180255Z AUTO 00000KT 10SM CLR 24/23 A3023 30 90 1200 000/00 RMK AO2 SLP233 T02440228 55003
63870K0J4 0J420160717220010707/17/16 22:00:31  5-MIN K0J4 180300Z AUTO 00000KT 10SM CLR 24/23 A3024 30 90 1200 000/00 RMK AO2 T02440228
63870K0J4 0J420160717220510707/17/16 22:05:31  5-MIN K0J4 180305Z AUTO 00000KT 10SM CLR 24/23 A3023 30 90 1200 000/00 RMK AO2 T02440228
63870K0J4 0J420160717222510007/17/16 22:25:31  5-MIN K0J4 180325Z AUTO 00000KT 24/22 A3023 30 87 1200 000/00 RMK AO2 T02440222 $
63870K0J4 0J420160717223010007/17/16 22:30:31  5-MIN K0J4 180330Z AUTO 00000KT 24/23 A3023 30 90 1200 000/00 RMK AO2 T02440228 $
63870K0J4 0J420160717223510507/17/16 22:35:31  5-MIN K0J4 180335Z AUTO 10003KT 10SM 24/23 A3023 30 90 1200 100/03 RMK AO2 T02440228 $
63870K0J4 0J420160717224010507/17/16 22:40:31  5-MIN K0J4 180340Z AUTO 00000KT 10SM 24/23 A3024 30 90 1200 000/00 RMK AO2 T02440228 $
63870K0J4 0J420160717224510507/17/16 22:45:31  5-MIN K0J4 180345Z AUTO 00000KT 10SM 24/22 A3024 20 87 1200 000/00 RMK AO2 T02440222 $
63870K0J4 0J420160717225010507/17/16 22:50:31  5-MIN K0J4 180350Z AUTO 00000KT 10SM 24/22 A3024 30 87 1200 000/00 RMK AO2 T02440222 $
63870K0J4 0J420160717225511607/17/16 22:55:31  5-MIN K0J4 180355Z AUTO 11003KT 10SM CLR 24/22 A3024 20 90 1100 110/03 RMK AO2 SLP234 T02390222 $
63870K0J4 0J420160717230010907/17/16 23:00:31  5-MIN K0J4 180400Z AUTO 11003KT 10SM CLR 24/22 A3023 30 90 1100 110/03 RMK AO2 T02390222 $
63870K0J4 0J420160717230510907/17/16 23:05:31  5-MIN K0J4 180405Z AUTO 12003KT 10SM CLR 24/22 A3024 20 90 1100 120/03 RMK AO2 T02390222 $
63870K0J4 0J420160717231010907/17/16 23:10:31  5-MIN K0J4 180410Z AUTO VRB03KT 10SM CLR 24/22 A3024 20 90 1100 VRB/03 RMK AO2 T02390222 $
63870K0J4 0J420160717231510907/17/16 23:15:31  5-MIN K0J4 180415Z AUTO 00000KT 10SM CLR 24/23 A3024 20 93 1100 000/00 RMK AO2 T02390228 $
63870K0J4 0J420160717232010907/17/16 23:20:31  5-MIN K0J4 180420Z AUTO 00000KT 10SM CLR 24/22 A3023 30 90 1100 000/00 RMK AO2 T02390222 $
63870K0J4 0J420160717232510907/17/16 23:25:31  5-MIN K0J4 180425Z AUTO 00000KT 10SM CLR 24/22 A3023 30 90 1100 000/00 RMK AO2 T02390222 $
63870K0J4 0J420160717233010907/17/16 23:30:31  5-MIN K0J4 180430Z AUTO 00000KT 10SM CLR 24/22 A3023 30 90 1100 000/00 RMK AO2 T02390222 $
63870K0J4 0J420160717233510907/17/16 23:35:31  5-MIN K0J4 180435Z AUTO 00000KT 10SM CLR 24/22 A3023 30 90 1100 000/00 RMK AO2 T02390222 $
63870K0J4 0J420160717234010907/17/16 23:40:31  5-MIN K0J4 180440Z AUTO 00000KT 10SM CLR 24/22 A3023 30 90 1100 000/00 RMK AO2 T02390222 $
63870K0J4 0J420160717234510907/17/16 23:45:31  5-MIN K0J4 180445Z AUTO 00000KT 10SM CLR 24/22 A3023 30 90 1100 000/00 RMK AO2 T02390222 $
63870K0J4 0J420160717235010907/17/16 23:50:31  5-MIN K0J4 180450Z AUTO 15003KT 10SM CLR 24/22 A3023 30 90 1100 150/03 RMK AO2 T02390222 $
63870K0J4 0J420160717235512607/17/16 23:55:31  5-MIN K0J4 180455Z AUTO 14003KT 10SM CLR 23/22 A3023 30 93 1100 140/03 RMK AO2 SLP231 T02330222 403110222 $
63870K0J4 0J420160718000010907/18/16 00:00:31  5-MIN K0J4 180500Z AUTO 00000KT 10SM CLR 23/22 A3023 30 93 1000 000/00 RMK AO2 T02330222 $
63870K0J4 0J420160718000510907/18/16 00:05:31  5-MIN K0J4 180505Z AUTO 11003KT 10SM CLR 23/22 A3023 30 93 1000 110/03 RMK AO2 T02330222 $
63870K0J4 0J420160718001010907/18/16 00:10:31  5-MIN K0J4 180510Z AUTO 12003KT 10SM CLR 23/22 A3023 30 93 1000 120/03 RMK AO2 T02330222 $
63870K0J4 0J420160718001510907/18/16 00:15:31  5-MIN K0J4 180515Z AUTO 11003KT 10SM CLR 23/22 A3023 30 93 1000 110/03 RMK AO2 T02330222 $
63870K0J4 0J420160718002010907/18/16 00:20:31  5-MIN K0J4 180520Z AUTO 12003KT 10SM CLR 23/22 A3023 30 93 1000 120/03 RMK AO2 T02330222 $
63870K0J4 0J420160718002510907/18/16 00:25:31  5-MIN K0J4 180525Z AUTO 13003KT 10SM CLR 23/22 A3023 30 93 1000 130/03 RMK AO2 T02330222 $
63870K0J4 0J420160718003010907/18/16 00:30:31  5-MIN K0J4 180530Z AUTO 13003KT 10SM CLR 23/22 A3023 30 93 1000 130/03 RMK AO2 T02330222 $
63870K0J4 0J420160718003510907/18/16 00:35:31  5-MIN K0J4 180535Z AUTO 13004KT 10SM CLR 23/22 A3023 30 93 1000 130/04 RMK AO2 T02330222 $
63870K0J4 0J420160718004010907/18/16 00:40:31  5-MIN K0J4 180540Z AUTO 16003KT 10SM CLR 23/22 A3023 30 93 1100 160/03 RMK AO2 T02330222 $
63870K0J4 0J420160718004510907/18/16 00:45:31  5-MIN K0J4 180545Z AUTO 00000KT 10SM CLR 23/22 A3022 40 93 1100 000/00 RMK AO2 T02330222 $
63870K0J4 0J420160718005010907/18/16 00:50:31  5-MIN K0J4 180550Z AUTO 17003KT 10SM CLR 23/22 A3022 40 93 1100 170/03 RMK AO2 T02330222 $
63870K0J4 0J420160718005512807/18/16 00:55:31  5-MIN K0J4 180555Z AUTO 00000KT 10SM CLR 23/22 A3021 50 93 1100 000/00 RMK AO2 SLP227 T02330222 10278 20233 $
63870K0J4 0J420160718010010907/18/16 01:00:31  5-MIN K0J4 180600Z AUTO 14003KT 10SM CLR 23/22 A3021 50 93 1100 140/03 RMK AO2 T02330222 $
63870K0J4 0J420160718010510907/18/16 01:05:31  5-MIN K0J4 180605Z AUTO 00000KT 10SM CLR 23/22 A3021 50 93 1100 000/00 RMK AO2 T02330222 $
63870K0J4 0J420160718011010907/18/16 01:10:31  5-MIN K0J4 180610Z AUTO 00000KT 10SM CLR 23/22 A3021 50 93 1100 000/00 RMK AO2 T02330222 $
63870K0J4 0J420160718011510907/18/16 01:15:31  5-MIN K0J4 180615Z AUTO 00000KT 10SM CLR 23/22 A3021 50 90 1100 000/00 RMK AO2 T02330217 $
63870K0J4 0J420160718012010907/18/16 01:20:31  5-MIN K0J4 180620Z AUTO 00000KT 10SM CLR 23/22 A3021 50 93 1000 000/00 RMK AO2 T02280217 $
63870K0J4 0J420160718012510907/18/16 01:25:31  5-MIN K0J4 180625Z AUTO 00000KT 10SM CLR 23/22 A3020 50 93 1000 000/00 RMK AO2 T02280217 $
63870K0J4 0J420160718013010907/18/16 01:30:31  5-MIN K0J4 180630Z AUTO 00000KT 10SM CLR 23/22 A3020 60 93 1000 000/00 RMK AO2 T02280217 $
63870K0J4 0J420160718013510907/18/16 01:35:31  5-MIN K0J4 180635Z AUTO 00000KT 10SM CLR 23/22 A3020 60 93 1000 000/00 RMK AO2 T02280217 $
63870K0J4 0J420160718014010907/18/16 01:40:31  5-MIN K0J4 180640Z AUTO 00000KT 10SM CLR 23/22 A3020 60 93 1000 000/00 RMK AO2 T02280217 $
63870K0J4 0J420160718014510907/18/16 01:45:31  5-MIN K0J4 180645Z AUTO 00000KT 10SM CLR 23/22 A3019 70 93 1000 000/00 RMK AO2 T02280217 $
63870K0J4 0J420160718015010907/18/16 01:50:31  5-MIN K0J4 180650Z AUTO 00000KT 10SM CLR 23/22 A3019 70 93 1000 000/00 RMK AO2 T02280217 $
63870K0J4 0J420160718015511607/18/16 01:55:31  5-MIN K0J4 180655Z AUTO 00000KT 10SM CLR 23/22 A3018 70 93 1000 000/00 RMK AO2 SLP218 T02280217 $
63870K0J4 0J420160718020010907/18/16 02:00:31  5-MIN K0J4 180700Z AUTO 00000KT 10SM CLR 23/22 A3018 70 93 1000 000/00 RMK AO2 T02280217 $
63870K0J4 0J420160718020510907/18/16 02:05:31  5-MIN K0J4 180705Z AUTO 00000KT 10SM CLR 23/22 A3019 70 93 1000 000/00 RMK AO2 T02280217 $
63870K0J4 0J420160718021010907/18/16 02:10:31  5-MIN K0J4 180710Z AUTO 00000KT 10SM CLR 23/22 A3018 70 93 1000 000/00 RMK AO2 T02280217 $
63870K0J4 0J420160718021510907/18/16 02:15:31  5-MIN K0J4 180715Z AUTO 00000KT 10SM CLR 23/22 A3019 70 93 1000 000/00 RMK AO2 T02280217 $
63870K0J4 0J420160718022010907/18/16 02:20:31  5-MIN K0J4 180720Z AUTO 00000KT 10SM CLR 23/22 A3018 80 93 1000 000/00 RMK AO2 T02280217 $
63870K0J4 0J420160718022510907/18/16 02:25:31  5-MIN K0J4 180725Z AUTO 00000KT 10SM CLR 23/22 A3018 70 93 1000 000/00 RMK AO2 T02280217 $
63870K0J4 0J420160718023010907/18/16 02:30:31  5-MIN K0J4 180730Z AUTO 06003KT 10SM CLR 22/21 A3018 80 93 1000 060/03 RMK AO2 T02220211 $
63870K0J4 0J420160718023510907/18/16 02:35:31  5-MIN K0J4 180735Z AUTO 00000KT 10SM CLR 22/21 A3018 80 93 1000 000/00 RMK AO2 T02220211 $
63870K0J4 0J420160718024010907/18/16 02:40:31  5-MIN K0J4 180740Z AUTO 00000KT 10SM CLR 22/21 A3018 80 93 1000 000/00 RMK AO2 T02220211 $
63870K0J4 0J420160718024510907/18/16 02:45:31  5-MIN K0J4 180745Z AUTO 00000KT 10SM CLR 23/22 A3018 80 93 1000 000/00 RMK AO2 T02280217 $
63870K0J4 0J420160718025010907/18/16 02:50:31  5-MIN K0J4 180750Z AUTO 00000KT 10SM CLR 23/22 A3017 80 93 1000 000/00 RMK AO2 T02280217 $
63870K0J4 0J420160718025511607/18/16 02:55:31  5-MIN K0J4 180755Z AUTO 00000KT 10SM CLR 23/22 A3018 80 93 1000 000/00 RMK AO2 SLP214 T02280217 $
63870K0J4 0J420160718030010907/18/16 03:00:31  5-MIN K0J4 180800Z AUTO 00000KT 10SM CLR 23/21 A3017 80 90 1000 000/00 RMK AO2 T02280211 $
63870K0J4 0J420160718030510907/18/16 03:05:31  5-MIN K0J4 180805Z AUTO 00000KT 10SM CLR 23/22 A3017 80 93 1000 000/00 RMK AO2 T02280217 $
63870K0J4 0J420160718031010907/18/16 03:10:31  5-MIN K0J4 180810Z AUTO 00000KT 10SM CLR 22/21 A3017 90 93 1000 000/00 RMK AO2 T02220211 $
63870K0J4 0J420160718031510907/18/16 03:15:31  5-MIN K0J4 180815Z AUTO 00000KT 10SM CLR 23/22 A3017 80 93 1000 000/00 RMK AO2 T02280217 $
63870K0J4 0J420160718032010907/18/16 03:20:31  5-MIN K0J4 180820Z AUTO 00000KT 10SM CLR 23/22 A3017 80 93 1000 000/00 RMK AO2 T02280217 $
63870K0J4 0J420160718032510907/18/16 03:25:31  5-MIN K0J4 180825Z AUTO 00000KT 10SM CLR 23/22 A3017 80 93 1000 000/00 RMK AO2 T02280217 $
63870K0J4 0J420160718033010907/18/16 03:30:31  5-MIN K0J4 180830Z AUTO 00000KT 10SM CLR 22/21 A3018 80 93 1000 000/00 RMK AO2 T02220211 $
63870K0J4 0J420160718033510907/18/16 03:35:31  5-MIN K0J4 180835Z AUTO 00000KT 10SM CLR 22/21 A3018 80 93 1000 000/00 RMK AO2 T02220211 $
63870K0J4 0J420160718034010907/18/16 03:40:31  5-MIN K0J4 180840Z AUTO 00000KT 10SM CLR 22/21 A3018 80 93 1000 000/00 RMK AO2 T02220211 $
63870K0J4 0J420160718034510907/18/16 03:45:31  5-MIN K0J4 180845Z AUTO 00000KT 10SM CLR 22/21 A3018 80 93 1000 000/00 RMK AO2 T02220211 $
63870K0J4 0J420160718035010907/18/16 03:50:31  5-MIN K0J4 180850Z AUTO 00000KT 10SM CLR 22/21 A3018 80 93 1000 000/00 RMK AO2 T02220211 $
63870K0J4 0J420160718035511607/18/16 03:55:31  5-MIN K0J4 180855Z AUTO 00000KT 10SM CLR 22/21 A3018 70 93 1000 000/00 RMK AO2 SLP216 T02220211 $
63870K0J4 0J420160718040010907/18/16 04:00:31  5-MIN K0J4 180900Z AUTO 00000KT 10SM CLR 22/21 A3018 70 93 1000 000/00 RMK AO2 T02220211 $
63870K0J4 0J420160718040510907/18/16 04:05:31  5-MIN K0J4 180905Z AUTO 00000KT 10SM CLR 22/21 A3018 70 93 1000 000/00 RMK AO2 T02220211 $
63870K0J4 0J420160718041010907/18/16 04:10:31  5-MIN K0J4 180910Z AUTO 00000KT 10SM CLR 22/21 A3019 70 93 1000 000/00 RMK AO2 T02220211 $
63870K0J4 0J420160718041510907/18/16 04:15:31  5-MIN K0J4 180915Z AUTO 00000KT 10SM CLR 22/21 A3019 70 93 1000 000/00 RMK AO2 T02220211 $
63870K0J4 0J420160718042010907/18/16 04:20:31  5-MIN K0J4 180920Z AUTO 00000KT 10SM CLR 23/22 A3019 70 93 1000 000/00 RMK AO2 T02280217 $
63870K0J4 0J420160718042510907/18/16 04:25:31  5-MIN K0J4 180925Z AUTO 00000KT 10SM CLR 22/22 A3019 70 97 1000 000/00 RMK AO2 T02220217 $
63870K0J4 0J420160718043010907/18/16 04:30:31  5-MIN K0J4 180930Z AUTO 00000KT 10SM CLR 22/21 A3020 60 93 1000 000/00 RMK AO2 T02220211 $
63870K0J4 0J420160718043510807/18/16 04:35:31  5-MIN K0J4 180935Z AUTO 00000KT 10SM CLR 22/21 A3020 60 97 900 000/00 RMK AO2 T02170211 $
63870K0J4 0J420160718044010807/18/16 04:40:31  5-MIN K0J4 180940Z AUTO 00000KT 10SM CLR 22/21 A3020 60 93 900 000/00 RMK AO2 T02170206 $
63870K0J4 0J420160718044510807/18/16 04:45:31  5-MIN K0J4 180945Z AUTO 03003KT 10SM CLR 22/21 A3020 60 93 900 030/03 RMK AO2 T02170206 $
63870K0J4 0J420160718045010907/18/16 04:50:31  5-MIN K0J4 180950Z AUTO 02003KT 10SM CLR 22/21 A3020 60 93 1000 020/03 RMK AO2 T02220211 $
63870K0J4 0J420160718045511607/18/16 04:55:31  5-MIN K0J4 180955Z AUTO 01003KT 10SM CLR 22/21 A3020 60 93 1000 010/03 RMK AO2 SLP221 T02220211 $
63870K0J4 0J420160718050010907/18/16 05:00:31  5-MIN K0J4 181000Z AUTO 00000KT 10SM CLR 22/21 A3020 60 93 1000 000/00 RMK AO2 T02220211 $
63870K0J4 0J420160718050510807/18/16 05:05:31  5-MIN K0J4 181005Z AUTO 00000KT 10SM CLR 22/21 A3020 50 93 900 000/00 RMK AO2 T02220211 $
63870K0J4 0J420160718051010807/18/16 05:10:31  5-MIN K0J4 181010Z AUTO 00000KT 10SM CLR 22/21 A3021 50 97 900 000/00 RMK AO2 T02170211 $
63870K0J4 0J420160718051510807/18/16 05:15:31  5-MIN K0J4 181015Z AUTO 00000KT 10SM CLR 22/21 A3020 50 97 900 000/00 RMK AO2 T02170211 $
63870K0J4 0J420160718052010807/18/16 05:20:31  5-MIN K0J4 181020Z AUTO 00000KT 10SM CLR 22/21 A3021 50 93 900 000/00 RMK AO2 T02220211 $
63870K0J4 0J420160718052510807/18/16 05:25:31  5-MIN K0J4 181025Z AUTO 00000KT 10SM CLR 22/21 A3021 50 93 900 000/00 RMK AO2 T02220211 $
63870K0J4 0J420160718053011107/18/16 05:30:31  5-MIN K0J4 181030Z AUTO 00000KT 10SM FEW020 22/21 A3021 50 93 900 000/00 RMK AO2 T02220211 $
63870K0J4 0J420160718053511107/18/16 05:35:31  5-MIN K0J4 181035Z AUTO 00000KT 10SM SCT020 22/21 A3021 50 93 900 000/00 RMK AO2 T02220211 $
63870K0J4 0J420160718054011107/18/16 05:40:31  5-MIN K0J4 181040Z AUTO 00000KT 10SM BKN020 22/21 A3021 50 93 900 000/00 RMK AO2 T02220211 $
63870K0J4 0J420160718054511107/18/16 05:45:31  5-MIN K0J4 181045Z AUTO 00000KT 10SM BKN020 22/21 A3022 40 93 900 000/00 RMK AO2 T02220211 $
63870K0J4 0J420160718055011107/18/16 05:50:31  5-MIN K0J4 181050Z AUTO 00000KT 10SM BKN020 22/21 A3022 40 93 900 000/00 RMK AO2 T02220211 $
63870K0J4 0J420160718055511807/18/16 05:55:31  5-MIN K0J4 181055Z AUTO 00000KT 10SM BKN020 22/21 A3022 40 93 900 000/00 RMK AO2 SLP228 T02220211 $
63870K0J4 0J420160718060011107/18/16 06:00:31  5-MIN K0J4 181100Z AUTO 00000KT 10SM BKN020 22/21 A3022 40 93 900 000/00 RMK AO2 T02220211 $
63870K0J4 0J420160718060511107/18/16 06:05:31  5-MIN K0J4 181105Z AUTO 03003KT 10SM SCT020 22/21 A3022 40 93 900 030/03 RMK AO2 T02220211 $
63870K0J4 0J420160718061011107/18/16 06:10:31  5-MIN K0J4 181110Z AUTO 03003KT 10SM SCT020 22/21 A3022 40 93 900 030/03 RMK AO2 T02220211 $
63870K0J4 0J420160718061511107/18/16 06:15:31  5-MIN K0J4 181115Z AUTO 04003KT 10SM FEW019 22/21 A3022 40 93 900 040/03 RMK AO2 T02220211 $
63870K0J4 0J420160718062010807/18/16 06:20:31  5-MIN K0J4 181120Z AUTO 03003KT 10SM CLR 22/21 A3022 40 93 900 030/03 RMK AO2 T02220211 $
63870K0J4 0J420160718062510807/18/16 06:25:31  5-MIN K0J4 181125Z AUTO 05003KT 10SM CLR 22/21 A3022 40 93 900 050/03 RMK AO2 T02220211 $
63870K0J4 0J420160718063010907/18/16 06:30:31  5-MIN K0J4 181130Z AUTO 00000KT 10SM CLR 23/21 A3023 30 90 1000 000/00 RMK AO2 T02280211 $
63870K0J4 0J420160718063510907/18/16 06:35:31  5-MIN K0J4 181135Z AUTO 00000KT 10SM CLR 23/22 A3023 30 93 1000 000/00 RMK AO2 T02280217 $
63870K0J4 0J420160718064010907/18/16 06:40:31  5-MIN K0J4 181140Z AUTO 00000KT 10SM CLR 23/22 A3023 30 90 1000 000/00 RMK AO2 T02330217 $
63870K0J4 0J420160718064510907/18/16 06:45:31  5-MIN K0J4 181145Z AUTO 00000KT 10SM CLR 23/22 A3023 30 90 1000 000/00 RMK AO2 T02330217 $
63870K0J4 0J420160718065010907/18/16 06:50:31  5-MIN K0J4 181150Z AUTO 08003KT 10SM CLR 23/22 A3023 30 90 1000 080/03 RMK AO2 T02330217 $
63870K0J4 0J420160718065514007/18/16 06:55:31  5-MIN K0J4 181155Z AUTO 07003KT 10SM CLR 23/22 A3023 30 90 1000 070/03 RMK AO2 SLP232 70035 T02330217 10233 20217 55009 $
63870K0J4 0J420160718070010907/18/16 07:00:31  5-MIN K0J4 181200Z AUTO 08003KT 10SM CLR 23/22 A3023 30 90 1000 080/03 RMK AO2 T02330217 $
63870K0J4 0J420160718070510707/18/16 07:05:31  5-MIN K0J4 181205Z AUTO 06003KT 10SM CLR 23/22 A3023 30 90 1000 060/03 RMK AO2 T02330217
63870K0J4 0J420160718071010707/18/16 07:10:31  5-MIN K0J4 181210Z AUTO 06003KT 10SM CLR 23/22 A3024 30 90 1000 060/03 RMK AO2 T02330217
63870K0J4 0J420160718071510707/18/16 07:15:31  5-MIN K0J4 181215Z AUTO 08003KT 10SM CLR 24/22 A3024 20 90 1100 080/03 RMK AO2 T02390222
63870K0J4 0J420160718072010707/18/16 07:20:31  5-MIN K0J4 181220Z AUTO 09003KT 10SM CLR 24/22 A3024 20 90 1100 090/03 RMK AO2 T02390222
63870K0J4 0J420160718072510707/18/16 07:25:31  5-MIN K0J4 181225Z AUTO 08003KT 10SM CLR 24/22 A3025 20 90 1100 080/03 RMK AO2 T02390222
63870K0J4 0J420160718073010707/18/16 07:30:31  5-MIN K0J4 181230Z AUTO 07003KT 10SM CLR 24/22 A3025 10 87 1200 070/03 RMK AO2 T02440222
63870K0J4 0J420160718073510707/18/16 07:35:31  5-MIN K0J4 181235Z AUTO 11004KT 10SM CLR 24/22 A3025 10 87 1100 110/04 RMK AO2 T02440222
63870K0J4 0J420160718074010707/18/16 07:40:31  5-MIN K0J4 181240Z AUTO 12004KT 10SM CLR 24/22 A3026 10 87 1100 120/04 RMK AO2 T02440222
63870K0J4 0J420160718074510707/18/16 07:45:31  5-MIN K0J4 181245Z AUTO 10004KT 10SM CLR 24/22 A3025 10 87 1100 100/04 RMK AO2 T02440222
63870K0J4 0J420160718075010707/18/16 07:50:31  5-MIN K0J4 181250Z AUTO 13004KT 10SM CLR 24/22 A3026 10 87 1100 130/04 RMK AO2 T02440222
63870K0J4 0J420160718075511407/18/16 07:55:31  5-MIN K0J4 181255Z AUTO 13003KT 10SM CLR 24/22 A3026 10 87 1100 130/03 RMK AO2 SLP241 T02440222
63870K0J4 0J420160718080010707/18/16 08:00:31  5-MIN K0J4 181300Z AUTO 00000KT 10SM CLR 25/23 A3026 10 87 1200 000/00 RMK AO2 T02500228
63870K0J4 0J420160718080510607/18/16 08:05:31  5-MIN K0J4 181305Z AUTO 07003KT 10SM CLR 26/23 A3026 0 84 1300 070/03 RMK AO2 T02560228
63870K0J4 0J420160718081010607/18/16 08:10:31  5-MIN K0J4 181310Z AUTO 09003KT 10SM CLR 26/23 A3026 0 81 1300 090/03 RMK AO2 T02610228
63870K0J4 0J420160718081510607/18/16 08:15:31  5-MIN K0J4 181315Z AUTO VRB03KT 10SM CLR 26/23 A3026 0 81 1300 VRB/03 RMK AO2 T02610228
63870K0J4 0J420160718082010607/18/16 08:20:31  5-MIN K0J4 181320Z AUTO 00000KT 10SM CLR 27/23 A3026 0 79 1400 000/00 RMK AO2 T02670228
63870K0J4 0J420160718082510607/18/16 08:25:31  5-MIN K0J4 181325Z AUTO 07003KT 10SM CLR 27/23 A3026 0 82 1400 070/03 RMK AO2 T02670233
63870K0J4 0J420160718083010607/18/16 08:30:31  5-MIN K0J4 181330Z AUTO VRB03KT 10SM CLR 27/23 A3026 0 79 1400 VRB/03 RMK AO2 T02670228
63870K0J4 0J420160718083510607/18/16 08:35:31  5-MIN K0J4 181335Z AUTO 11004KT 10SM CLR 27/23 A3026 0 76 1400 110/04 RMK AO2 T02720228
63870K0J4 0J420160718084010607/18/16 08:40:31  5-MIN K0J4 181340Z AUTO 08005KT 10SM CLR 27/23 A3027 0 76 1400 080/05 RMK AO2 T02720228
63870K0J4 0J420160718084510907/18/16 08:45:31  5-MIN K0J4 181345Z AUTO 09004KT 10SM FEW018 27/23 A3027 0 76 1400 090/04 RMK AO2 T02720228
63870K0J4 0J420160718085010907/18/16 08:50:31  5-MIN K0J4 181350Z AUTO 07005KT 10SM SCT018 27/23 A3027 0 79 1400 070/05 RMK AO2 T02720233
63870K0J4 0J420160718085511607/18/16 08:55:31  5-MIN K0J4 181355Z AUTO 06005KT 10SM SCT018 28/23 A3027 0 76 1500 060/05 RMK AO2 SLP247 T02780233
63870K0J4 0J420160718090010907/18/16 09:00:31  5-MIN K0J4 181400Z AUTO 09004KT 10SM SCT018 28/23 A3027 0 74 1600 090/04 RMK AO2 T02830233
63870K0J4 0J420160718090510907/18/16 09:05:31  5-MIN K0J4 181405Z AUTO 08005KT 10SM FEW018 28/23 A3027 0 74 1600 080/05 RMK AO2 T02830233
63870K0J4 0J420160718091010907/18/16 09:10:31  5-MIN K0J4 181410Z AUTO 08003KT 10SM FEW018 28/23 A3027 0 74 1600 080/03 RMK AO2 T02830233
63870K0J4 0J420160718091510907/18/16 09:15:31  5-MIN K0J4 181415Z AUTO 07006KT 10SM FEW018 28/23 A3027 0 74 1600 070/06 RMK AO2 T02830233
63870K0J4 0J420160718092011107/18/16 09:20:31  5-MIN K0J4 181420Z AUTO 09005KT 10SM FEW018 28/23 A3027 -10 74 1600 090/05 RMK AO2 T02830233
63870K0J4 0J420160718092510807/18/16 09:25:31  5-MIN K0J4 181425Z AUTO 09004KT 10SM CLR 29/23 A3028 -10 71 1600 090/04 RMK AO2 T02890233
63870K0J4 0J420160718093010807/18/16 09:30:31  5-MIN K0J4 181430Z AUTO 07005KT 10SM CLR 29/23 A3028 -10 71 1600 070/05 RMK AO2 T02890233
63870K0J4 0J420160718093510807/18/16 09:35:31  5-MIN K0J4 181435Z AUTO VRB06KT 10SM CLR 29/23 A3028 -10 71 1600 VRB/06 RMK AO2 T02890233
63870K0J4 0J420160718094010807/18/16 09:40:31  5-MIN K0J4 181440Z AUTO 07007KT 10SM CLR 29/23 A3028 -10 71 1600 070/07 RMK AO2 T02890233
63870K0J4 0J420160718094510807/18/16 09:45:31  5-MIN K0J4 181445Z AUTO VRB04KT 10SM CLR 29/23 A3028 -10 69 1700 VRB/04 RMK AO2 T02940233
63870K0J4 0J420160718095010807/18/16 09:50:31  5-MIN K0J4 181450Z AUTO 11007KT 10SM CLR 29/23 A3028 -10 71 1600 110/07 RMK AO2 T02890233
63870K0J4 0J420160718095512407/18/16 09:55:31  5-MIN K0J4 181455Z AUTO 09005KT 10SM FEW019 29/23 A3028 -10 71 1600 090/05 RMK AO2 SLP249 T02890233 51016
63870K0J4 0J420160718100011107/18/16 10:00:31  5-MIN K0J4 181500Z AUTO 06006KT 10SM FEW019 29/23 A3028 -10 71 1600 060/06 RMK AO2 T02890233
63870K0J4 0J420160718100511107/18/16 10:05:31  5-MIN K0J4 181505Z AUTO 07007KT 10SM SCT018 29/24 A3028 -10 71 1700 070/07 RMK AO2 T02940239
63870K0J4 0J420160718101011107/18/16 10:10:31  5-MIN K0J4 181510Z AUTO 07006KT 10SM SCT018 30/24 A3028 -10 69 1700 070/06 RMK AO2 T03000239
63870K0J4 0J420160718101511107/18/16 10:15:31  5-MIN K0J4 181515Z AUTO 08004KT 10SM FEW019 30/23 A3028 -10 67 1700 080/04 RMK AO2 T03000233
63870K0J4 0J420160718102011107/18/16 10:20:31  5-MIN K0J4 181520Z AUTO 08005KT 10SM SCT019 30/24 A3028 -10 69 1700 080/05 RMK AO2 T03000239
63870K0J4 0J420160718102511107/18/16 10:25:31  5-MIN K0J4 181525Z AUTO VRB05KT 10SM SCT019 30/23 A3028 -10 67 1700 VRB/05 RMK AO2 T03000233
63870K0J4 0J420160718103011107/18/16 10:30:31  5-MIN K0J4 181530Z AUTO VRB03KT 10SM FEW021 31/24 A3029 -20 67 1800 VRB/03 RMK AO2 T03060239
63870K0J4 0J420160718103511107/18/16 10:35:31  5-MIN K0J4 181535Z AUTO 08005KT 10SM FEW021 31/23 A3029 -10 65 1800 080/05 RMK AO2 T03060233
63870K0J4 0J420160718104011107/18/16 10:40:31  5-MIN K0J4 181540Z AUTO 00000KT 10SM FEW020 31/23 A3028 -10 65 1800 000/00 RMK AO2 T03060233
63870K0J4 0J420160718104511107/18/16 10:45:31  5-MIN K0J4 181545Z AUTO VRB06KT 10SM SCT022 31/23 A3028 -10 65 1800 VRB/06 RMK AO2 T03060233
63870K0J4 0J420160718105011107/18/16 10:50:31  5-MIN K0J4 181550Z AUTO 07006KT 10SM FEW022 31/24 A3029 -20 65 1900 070/06 RMK AO2 T03110239
63870K0J4 0J420160718105511807/18/16 10:55:31  5-MIN K0J4 181555Z AUTO VRB04KT 10SM FEW024 31/23 A3029 -20 65 1800 VRB/04 RMK AO2 SLP251 T03060233
63870K0J4 0J420160718110011107/18/16 11:00:31  5-MIN K0J4 181600Z AUTO 04003KT 10SM FEW024 31/23 A3029 -20 62 1800 040/03 RMK AO2 T03060228
63870K0J4 0J420160718110511107/18/16 11:05:31  5-MIN K0J4 181605Z AUTO VRB03KT 10SM FEW024 31/23 A3029 -20 63 1900 VRB/03 RMK AO2 T03110233
63870K0J4 0J420160718111011107/18/16 11:10:31  5-MIN K0J4 181610Z AUTO 02003KT 10SM FEW026 31/23 A3028 -10 63 1900 020/03 RMK AO2 T03110233
63870K0J4 0J420160718111511107/18/16 11:15:31  5-MIN K0J4 181615Z AUTO VRB05KT 10SM FEW026 31/23 A3028 -10 63 1900 VRB/05 RMK AO2 T03110233
63870K0J4 0J420160718112011107/18/16 11:20:31  5-MIN K0J4 181620Z AUTO 07004KT 10SM FEW028 31/23 A3028 -10 60 1900 070/04 RMK AO2 T03110228
63870K0J4 0J420160718112511107/18/16 11:25:31  5-MIN K0J4 181625Z AUTO 00000KT 10SM FEW028 32/23 A3028 -10 58 1900 000/00 RMK AO2 T03170228
63870K0J4 0J420160718113011107/18/16 11:30:31  5-MIN K0J4 181630Z AUTO 03005KT 10SM FEW028 32/22 A3028 -10 55 2000 030/05 RMK AO2 T03220222
63870K0J4 0J420160718113511107/18/16 11:35:31  5-MIN K0J4 181635Z AUTO 36004KT 10SM FEW029 32/22 A3028 -10 56 1900 360/04 RMK AO2 T03170222
63870K0J4 0J420160718114011107/18/16 11:40:31  5-MIN K0J4 181640Z AUTO 36006KT 10SM SCT029 31/22 A3028 -10 60 1800 360/06 RMK AO2 T03060222
63870K0J4 0J420160718114511107/18/16 11:45:31  5-MIN K0J4 181645Z AUTO 08004KT 10SM FEW029 31/22 A3028 -10 58 1900 080/04 RMK AO2 T03110222
63870K0J4 0J420160718115011107/18/16 11:50:31  5-MIN K0J4 181650Z AUTO 08006KT 10SM FEW030 32/22 A3028 -10 53 2000 080/06 RMK AO2 T03220217
63870K0J4 0J420160718115511807/18/16 11:55:31  5-MIN K0J4 181655Z AUTO 10004KT 10SM FEW030 32/22 A3028 -10 55 2000 100/04 RMK AO2 SLP249 T03220222
63870K0J4 0J420160718120011107/18/16 12:00:31  5-MIN K0J4 181700Z AUTO VRB04KT 10SM FEW030 32/22 A3028 -10 56 1900 VRB/04 RMK AO2 T03170222
63870K0J4 0J420160718120510907/18/16 12:05:31  5-MIN K0J4 181705Z AUTO 10004KT 10SM FEW031 33/23 A3027 0 55 2100 100/04 RMK AO2 T03280228
63870K0J4 0J420160718121010607/18/16 12:10:31  5-MIN K0J4 181710Z AUTO 05007KT 10SM CLR 32/22 A3027 0 53 2000 050/07 RMK AO2 T03220217
63870K0J4 0J420160718121510607/18/16 12:15:31  5-MIN K0J4 181715Z AUTO VRB04KT 10SM CLR 32/22 A3027 0 56 1900 VRB/04 RMK AO2 T03170222
63870K0J4 0J420160718122010907/18/16 12:20:31  5-MIN K0J4 181720Z AUTO 11004KT 10SM FEW035 32/22 A3027 0 55 1900 110/04 RMK AO2 T03170217
63870K0J4 0J420160718122510907/18/16 12:25:31  5-MIN K0J4 181725Z AUTO VRB03KT 10SM FEW037 32/22 A3026 0 55 2000 VRB/03 RMK AO2 T03220222
63870K0J4 0J420160718123010907/18/16 12:30:31  5-MIN K0J4 181730Z AUTO VRB04KT 10SM FEW037 32/22 A3026 0 53 2000 VRB/04 RMK AO2 T03220217
63870K0J4 0J420160718123510907/18/16 12:35:31  5-MIN K0J4 181735Z AUTO 06005KT 10SM FEW037 32/22 A3026 0 53 2000 060/05 RMK AO2 T03220217
63870K0J4 0J420160718124011007/18/16 12:40:31  5-MIN K0J4 181740Z AUTO 00000KT 10SM FEW037 32/22 A3026 10 53 2000 000/00 RMK AO2 T03220217
63870K0J4 0J420160718124511007/18/16 12:45:31  5-MIN K0J4 181745Z AUTO 08006KT 10SM FEW037 33/22 A3025 10 51 2100 080/06 RMK AO2 T03280217
63870K0J4 0J420160718125011007/18/16 12:50:31  5-MIN K0J4 181750Z AUTO 16003KT 10SM FEW037 32/21 A3025 10 51 2000 160/03 RMK AO2 T03220211
63870K0J4 0J420160718125513507/18/16 12:55:31  5-MIN K0J4 181755Z AUTO 04006KT 10SM FEW040 32/22 A3024 20 53 2000 040/06 RMK AO2 SLP237 T03220217 10328 20233 51016
63870K0J4 0J420160718130011007/18/16 13:00:31  5-MIN K0J4 181800Z AUTO 03005KT 10SM FEW040 33/23 A3024 20 55 2100 030/05 RMK AO2 T03280228
63870K0J4 0J420160718130511007/18/16 13:05:31  5-MIN K0J4 181805Z AUTO VRB03KT 10SM FEW040 33/22 A3024 20 51 2100 VRB/03 RMK AO2 T03280217
63870K0J4 0J420160718131011007/18/16 13:10:31  5-MIN K0J4 181810Z AUTO 12003KT 10SM FEW040 33/22 A3024 30 51 2100 120/03 RMK AO2 T03280217
63870K0J4 0J420160718131511007/18/16 13:15:31  5-MIN K0J4 181815Z AUTO VRB03KT 10SM FEW039 33/21 A3023 30 49 2100 VRB/03 RMK AO2 T03280211
63870K0J4 0J420160718132011007/18/16 13:20:31  5-MIN K0J4 181820Z AUTO VRB03KT 10SM FEW039 33/22 A3023 30 51 2100 VRB/03 RMK AO2 T03280217
63870K0J4 0J420160718132510707/18/16 13:25:31  5-MIN K0J4 181825Z AUTO 04005KT 10SM CLR 33/21 A3023 30 48 2200 040/05 RMK AO2 T03330211
63870K0J4 0J420160718133011007/18/16 13:30:31  5-MIN K0J4 181830Z AUTO 00000KT 10SM FEW042 33/21 A3022 40 49 2100 000/00 RMK AO2 T03280211
63870K0J4 0J420160718133511007/18/16 13:35:31  5-MIN K0J4 181835Z AUTO 04007KT 10SM FEW042 33/21 A3022 40 49 2100 040/07 RMK AO2 T03280211
63870K0J4 0J420160718134010707/18/16 13:40:31  5-MIN K0J4 181840Z AUTO 08005KT 10SM CLR 33/21 A3022 40 46 2200 080/05 RMK AO2 T03330206
63870K0J4 0J420160718134510707/18/16 13:45:31  5-MIN K0J4 181845Z AUTO 03006KT 10SM CLR 33/21 A3021 50 46 2200 030/06 RMK AO2 T03330206
63870K0J4 0J420160718135010707/18/16 13:50:31  5-MIN K0J4 181850Z AUTO VRB06KT 10SM CLR 33/21 A3021 50 46 2200 VRB/06 RMK AO2 T03330206
63870K0J4 0J420160718135511407/18/16 13:55:31  5-MIN K0J4 181855Z AUTO 07005KT 10SM CLR 33/21 A3021 50 48 2200 070/05 RMK AO2 SLP227 T03330211
63870K0J4 0J420160718140010707/18/16 14:00:31  5-MIN K0J4 181900Z AUTO VRB03KT 10SM CLR 33/22 A3021 50 50 2200 VRB/03 RMK AO2 T03330217
63870K0J4 0J420160718140510707/18/16 14:05:31  5-MIN K0J4 181905Z AUTO 07004KT 10SM CLR 34/22 A3021 50 48 2200 070/04 RMK AO2 T03390217
63870K0J4 0J420160718141010707/18/16 14:10:31  5-MIN K0J4 181910Z AUTO VRB04KT 10SM CLR 33/21 A3021 50 48 2200 VRB/04 RMK AO2 T03330211
63870K0J4 0J420160718141510707/18/16 14:15:31  5-MIN K0J4 181915Z AUTO 34004KT 10SM CLR 34/21 A3021 50 45 2300 340/04 RMK AO2 T03390206
63870K0J4 0J420160718142010707/18/16 14:20:31  5-MIN K0J4 181920Z AUTO 08003KT 10SM CLR 33/21 A3020 50 46 2200 080/03 RMK AO2 T03330206
63870K0J4 0J420160718142510707/18/16 14:25:31  5-MIN K0J4 181925Z AUTO VRB04KT 10SM CLR 33/21 A3020 50 48 2200 VRB/04 RMK AO2 T03330211
63870K0J4 0J420160718143010707/18/16 14:30:31  5-MIN K0J4 181930Z AUTO 04006KT 10SM CLR 33/21 A3020 60 49 2100 040/06 RMK AO2 T03280211
63870K0J4 0J420160718143510707/18/16 14:35:31  5-MIN K0J4 181935Z AUTO VRB05KT 10SM CLR 33/21 A3020 60 46 2200 VRB/05 RMK AO2 T03330206
63870K0J4 0J420160718144010707/18/16 14:40:31  5-MIN K0J4 181940Z AUTO 07004KT 10SM CLR 34/21 A3020 60 45 2300 070/04 RMK AO2 T03390206
63870K0J4 0J420160718144510707/18/16 14:45:31  5-MIN K0J4 181945Z AUTO 16004KT 10SM CLR 33/21 A3020 60 46 2200 160/04 RMK AO2 T03330206
63870K0J4 0J420160718145010707/18/16 14:50:31  5-MIN K0J4 181950Z AUTO VRB05KT 10SM CLR 33/21 A3020 60 46 2200 VRB/05 RMK AO2 T03330206
63870K0J4 0J420160718145511407/18/16 14:55:31  5-MIN K0J4 181955Z AUTO VRB04KT 10SM CLR 34/21 A3020 60 45 2300 VRB/04 RMK AO2 SLP221 T03390206
63870K0J4 0J420160718150010707/18/16 15:00:31  5-MIN K0J4 182000Z AUTO 11006KT 10SM CLR 33/21 A3019 70 46 2200 110/06 RMK AO2 T03330206
63870K0J4 0J420160718150510707/18/16 15:05:31  5-MIN K0J4 182005Z AUTO 07006KT 10SM CLR 34/21 A3019 70 45 2300 070/06 RMK AO2 T03390206
63870K0J4 0J420160718151010707/18/16 15:10:31  5-MIN K0J4 182010Z AUTO VRB04KT 10SM CLR 34/21 A3019 70 45 2300 VRB/04 RMK AO2 T03390206
63870K0J4 0J420160718151510707/18/16 15:15:31  5-MIN K0J4 182015Z AUTO 11004KT 10SM CLR 34/21 A3018 70 45 2300 110/04 RMK AO2 T03390206
63870K0J4 0J420160718152010707/18/16 15:20:31  5-MIN K0J4 182020Z AUTO VRB04KT 10SM CLR 34/21 A3018 70 46 2300 VRB/04 RMK AO2 T03390211
63870K0J4 0J420160718152510707/18/16 15:25:31  5-MIN K0J4 182025Z AUTO VRB03KT 10SM CLR 33/21 A3018 70 46 2200 VRB/03 RMK AO2 T03330206
63870K0J4 0J420160718153010707/18/16 15:30:31  5-MIN K0J4 182030Z AUTO 09008KT 10SM CLR 34/21 A3018 70 45 2300 090/08 RMK AO2 T03390206
63870K0J4 0J420160718153510707/18/16 15:35:31  5-MIN K0J4 182035Z AUTO 10006KT 10SM CLR 34/20 A3018 70 43 2300 100/06 RMK AO2 T03390200
63870K0J4 0J420160718154010707/18/16 15:40:31  5-MIN K0J4 182040Z AUTO VRB06KT 10SM CLR 34/21 A3019 70 45 2300 VRB/06 RMK AO2 T03390206
63870K0J4 0J420160718154510707/18/16 15:45:31  5-MIN K0J4 182045Z AUTO VRB03KT 10SM CLR 34/20 A3019 70 42 2300 VRB/03 RMK AO2 T03440200
63870K0J4 0J420160718155010707/18/16 15:50:31  5-MIN K0J4 182050Z AUTO 00000KT 10SM CLR 34/21 A3019 70 43 2300 000/00 RMK AO2 T03440206
63870K0J4 0J420160718155512307/18/16 15:55:31  5-MIN K0J4 182055Z AUTO 05005KT 10SM FEW055 34/21 A3018 70 43 2300 050/05 RMK AO2 SLP217 T03440206 58012
63870K0J4 0J420160718160011007/18/16 16:00:31  5-MIN K0J4 182100Z AUTO 04005KT 10SM FEW055 34/19 A3018 70 40 2300 040/05 RMK AO2 T03440194
63870K0J4 0J420160718160510707/18/16 16:05:31  5-MIN K0J4 182105Z AUTO 10005KT 10SM CLR 34/19 A3018 80 42 2300 100/05 RMK AO2 T03390194
63870K0J4 0J420160718161010707/18/16 16:10:31  5-MIN K0J4 182110Z AUTO 11004KT 10SM CLR 34/19 A3018 80 42 2300 110/04 RMK AO2 T03390194
63870K0J4 0J420160718161510707/18/16 16:15:31  5-MIN K0J4 182115Z AUTO 10004KT 10SM CLR 34/21 A3018 80 45 2300 100/04 RMK AO2 T03390206
63870K0J4 0J420160718162011007/18/16 16:20:31  5-MIN K0J4 182120Z AUTO VRB06KT 10SM FEW055 34/21 A3018 80 45 2300 VRB/06 RMK AO2 T03390206
63870K0J4 0J420160718162511007/18/16 16:25:31  5-MIN K0J4 182125Z AUTO 15006KT 10SM FEW050 34/21 A3018 80 46 2300 150/06 RMK AO2 T03390211
63870K0J4 0J420160718163010707/18/16 16:30:31  5-MIN K0J4 182130Z AUTO 10005KT 10SM CLR 34/20 A3018 80 43 2300 100/05 RMK AO2 T03390200
63870K0J4 0J420160718163510707/18/16 16:35:31  5-MIN K0J4 182135Z AUTO 10004KT 10SM CLR 34/19 A3018 80 42 2300 100/04 RMK AO2 T03390194
63870K0J4 0J420160718164010707/18/16 16:40:31  5-MIN K0J4 182140Z AUTO VRB03KT 10SM CLR 34/19 A3017 80 40 2300 VRB/03 RMK AO2 T03390189
63870K0J4 0J420160718164510707/18/16 16:45:31  5-MIN K0J4 182145Z AUTO 10004KT 10SM CLR 34/20 A3018 80 43 2300 100/04 RMK AO2 T03390200
63870K0J4 0J420160718165010707/18/16 16:50:31  5-MIN K0J4 182150Z AUTO VRB03KT 10SM CLR 34/21 A3018 80 46 2300 VRB/03 RMK AO2 T03390211
63870K0J4 0J420160718165511407/18/16 16:55:31  5-MIN K0J4 182155Z AUTO 00000KT 10SM CLR 34/20 A3018 80 43 2300 000/00 RMK AO2 SLP215 T03390200
63870K0J4 0J420160718170011007/18/16 17:00:31  5-MIN K0J4 182200Z AUTO 14005KT 10SM FEW055 34/20 A3019 70 43 2300 140/05 RMK AO2 T03390200
63870K0J4 0J420160718170514107/18/16 17:05:31  5-MIN K0J4 182205Z AUTO 16018G26KT 10SM SCT055 32/21 A3020 60 51 2100 160/18G26 RMK AO2 PK WND 16026/2204 PRESRR T03220211
63870K0J4 0J420160718171014107/18/16 17:10:31  5-MIN K0J4 182210Z AUTO 17014G26KT 10SM BKN055 29/22 A3021 50 64 1800 170/14G26 RMK AO2 PK WND 16026/2204 PRESRR T02940222
63870K0J4 0J420160718171514107/18/16 17:15:31  5-MIN K0J4 182215Z AUTO 17011G23KT 10SM BKN050 29/22 A3022 40 67 1700 170/11G23 RMK AO2 PK WND 16026/2204 PRESRR T02890222
63870K0J4 0J420160718172014107/18/16 17:20:31  5-MIN K0J4 182220Z AUTO 19013G23KT 10SM BKN055 BKN070 29/22 A3022 40 67 1700 190/13G23 RMK AO2 PK WND 16026/2204 T02890222
63870K0J4 0J420160718172513507/18/16 17:25:31  5-MIN K0J4 182225Z AUTO 20016KT 10SM BKN055 OVC070 28/22 A3021 50 69 1600 200/16 RMK AO2 PK WND 16026/2204 T02830222
63870K0J4 0J420160718173013507/18/16 17:30:31  5-MIN K0J4 182230Z AUTO 20013KT 10SM BKN055 BKN070 28/22 A3022 40 71 1600 200/13 RMK AO2 PK WND 16026/2204 T02780222
63870K0J4 0J420160718173515807/18/16 17:35:31  5-MIN K0J4 182235Z AUTO 19010KT 10SM -RA FEW017 SCT050 BKN070 27/23 A3021 50 76 1500 190/10 RMK AO2 PK WND 16026/2204 RAB34 P0000 T02720228
63870K0J4 0J420160718174015807/18/16 17:40:31  5-MIN K0J4 182240Z AUTO 19009KT 10SM -RA FEW019 BKN055 BKN070 28/23 A3022 40 76 1600 190/09 RMK AO2 PK WND 16026/2204 RAB34 P0000 T02780233
63870K0J4 0J420160718174515807/18/16 17:45:31  5-MIN K0J4 182245Z AUTO 18007KT 10SM -RA FEW019 SCT055 BKN070 28/23 A3022 40 76 1600 180/07 RMK AO2 PK WND 16026/2204 RAB34 P0000 T02780233
63870K0J4 0J420160718175015007/18/16 17:50:31  5-MIN K0J4 182250Z AUTO 19007KT 10SM FEW019 SCT060 27/23 A3021 40 79 1500 190/07 RMK AO2 PK WND 16026/2204 RAB34E49 P0000 T02720233
63870K0J4 0J420160718175515707/18/16 17:55:31  5-MIN K0J4 182255Z AUTO 17008KT 10SM FEW019 FEW060 27/23 A3022 40 79 1500 170/08 RMK AO2 PK WND 16026/2204 RAB34E49 SLP227 P0000 T02720233
63870K0J4 0J420160718180011707/18/16 18:00:31  5-MIN K0J4 182300Z AUTO 17006KT 10SM FEW019 FEW060 28/23 A3022 40 76 1600 170/06 RMK AO2 T02780233
63870K0J4 0J420160718180511007/18/16 18:05:31  5-MIN K0J4 182305Z AUTO 16008KT 10SM FEW060 28/23 A3022 40 76 1600 160/08 RMK AO2 T02780233
63870K0J4 0J420160718181010707/18/16 18:10:31  5-MIN K0J4 182310Z AUTO 16006KT 10SM CLR 28/23 A3021 50 76 1600 160/06 RMK AO2 T02780233
63870K0J4 0J420160718181510707/18/16 18:15:31  5-MIN K0J4 182315Z AUTO 18006KT 10SM CLR 28/23 A3021 50 76 1600 180/06 RMK AO2 T02780233
63870K0J4 0J420160718182010707/18/16 18:20:31  5-MIN K0J4 182320Z AUTO 18008KT 10SM CLR 28/23 A3021 50 74 1600 180/08 RMK AO2 T02780228
63870K0J4 0J420160718182510707/18/16 18:25:31  5-MIN K0J4 182325Z AUTO 19007KT 10SM CLR 28/23 A3020 60 74 1600 190/07 RMK AO2 T02780228
63870K0J4 0J420160718183010707/18/16 18:30:31  5-MIN K0J4 182330Z AUTO 19005KT 10SM CLR 27/22 A3020 60 71 1500 190/05 RMK AO2 T02720217
63870K0J4 0J420160718183510707/18/16 18:35:31  5-MIN K0J4 182335Z AUTO VRB03KT 10SM CLR 27/22 A3020 60 71 1500 VRB/03 RMK AO2 T02720217
63870K0J4 0J420160718184010707/18/16 18:40:31  5-MIN K0J4 182340Z AUTO 17003KT 10SM CLR 27/22 A3020 60 74 1500 170/03 RMK AO2 T02720222
63870K0J4 0J420160718184510707/18/16 18:45:31  5-MIN K0J4 182345Z AUTO 15005KT 10SM CLR 27/22 A3020 60 74 1500 150/05 RMK AO2 T02720222
63870K0J4 0J420160718185010707/18/16 18:50:31  5-MIN K0J4 182350Z AUTO 13004KT 10SM CLR 27/22 A3019 60 76 1500 130/04 RMK AO2 T02670222
63870K0J4 0J420160718185513807/18/16 18:55:31  5-MIN K0J4 182355Z AUTO 16004KT 10SM CLR 27/22 A3019 60 76 1500 160/04 RMK AO2 SLP220 60000 T02670222 10344 20267 56020
63870K0J4 0J420160718190010707/18/16 19:00:31  5-MIN K0J4 190000Z AUTO 00000KT 10SM CLR 27/22 A3020 60 76 1500 000/00 RMK AO2 T02670222
63870K0J4 0J420160718190510707/18/16 19:05:31  5-MIN K0J4 190005Z AUTO 17003KT 10SM CLR 27/22 A3020 60 76 1500 170/03 RMK AO2 T02670222
63870K0J4 0J420160718191010707/18/16 19:10:31  5-MIN K0J4 190010Z AUTO 14003KT 10SM CLR 27/23 A3020 60 79 1500 140/03 RMK AO2 T02670228
63870K0J4 0J420160718191510707/18/16 19:15:31  5-MIN K0J4 190015Z AUTO 00000KT 10SM CLR 27/22 A3020 60 76 1500 000/00 RMK AO2 T02670222
63870K0J4 0J420160718192010707/18/16 19:20:31  5-MIN K0J4 190020Z AUTO 11004KT 10SM CLR 26/23 A3020 60 81 1400 110/04 RMK AO2 T02610228
63870K0J4 0J420160718192510707/18/16 19:25:31  5-MIN K0J4 190025Z AUTO 11003KT 10SM CLR 26/22 A3020 60 79 1400 110/03 RMK AO2 T02610222
63870K0J4 0J420160718193010707/18/16 19:30:31  5-MIN K0J4 190030Z AUTO 00000KT 10SM CLR 26/23 A3020 60 81 1400 000/00 RMK AO2 T02610228
63870K0J4 0J420160718193510707/18/16 19:35:31  5-MIN K0J4 190035Z AUTO 00000KT 10SM CLR 26/22 A3020 60 79 1400 000/00 RMK AO2 T02610222
63870K0J4 0J420160718194010707/18/16 19:40:31  5-MIN K0J4 190040Z AUTO 00000KT 10SM CLR 26/22 A3020 60 79 1400 000/00 RMK AO2 T02610222
63870K0J4 0J420160718194510707/18/16 19:45:31  5-MIN K0J4 190045Z AUTO 00000KT 10SM CLR 26/22 A3020 60 79 1400 000/00 RMK AO2 T02610222
63870K0J4 0J420160718195010707/18/16 19:50:31  5-MIN K0J4 190050Z AUTO 00000KT 10SM CLR 26/23 A3020 60 81 1400 000/00 RMK AO2 T02610228
63870K0J4 0J420160718195511407/18/16 19:55:31  5-MIN K0J4 190055Z AUTO 00000KT 10SM CLR 26/23 A3020 60 84 1300 000/00 RMK AO2 SLP220 T02560228
63870K0J4 0J420160718200010707/18/16 20:00:31  5-MIN K0J4 190100Z AUTO 00000KT 10SM CLR 26/23 A3019 60 84 1300 000/00 RMK AO2 T02560228
63870K0J4 0J420160718200510707/18/16 20:05:31  5-MIN K0J4 190105Z AUTO 00000KT 10SM CLR 25/23 A3019 60 87 1300 000/00 RMK AO2 T02500228
63870K0J4 0J420160718201010707/18/16 20:10:31  5-MIN K0J4 190110Z AUTO 00000KT 10SM CLR 25/23 A3019 60 87 1300 000/00 RMK AO2 T02500228
63870K0J4 0J420160718201510707/18/16 20:15:31  5-MIN K0J4 190115Z AUTO 00000KT 10SM CLR 25/23 A3019 70 87 1300 000/00 RMK AO2 T02500228
63870K0J4 0J420160718202010707/18/16 20:20:31  5-MIN K0J4 190120Z AUTO 00000KT 10SM CLR 25/23 A3019 70 87 1300 000/00 RMK AO2 T02500228
63870K0J4 0J420160719021010707/19/16 02:10:31  5-MIN K0J4 190710Z AUTO 00000KT 10SM CLR 22/21 A3019 70 93 1000 000/00 RMK AO2 T02220211
63870K0J4 0J420160719021510707/19/16 02:15:31  5-MIN K0J4 190715Z AUTO 00000KT 10SM CLR 22/21 A3018 70 93 1000 000/00 RMK AO2 T02220211
63870K0J4 0J420160719022010707/19/16 02:20:31  5-MIN K0J4 190720Z AUTO 00000KT 10SM CLR 22/21 A3018 70 93 1000 000/00 RMK AO2 T02220211
63870K0J4 0J420160719022510707/19/16 02:25:31  5-MIN K0J4 190725Z AUTO 00000KT 10SM CLR 22/21 A3018 80 93 1000 000/00 RMK AO2 T02220211
63870K0J4 0J420160719023010707/19/16 02:30:31  5-MIN K0J4 190730Z AUTO 00000KT 10SM CLR 22/21 A3018 80 93 1000 000/00 RMK AO2 T02220211
63870K0J4 0J420160719023510707/19/16 02:35:31  5-MIN K0J4 190735Z AUTO 00000KT 10SM CLR 22/21 A3018 70 90 1000 000/00 RMK AO2 T02220206
63870K0J4 0J420160719024010607/19/16 02:40:31  5-MIN K0J4 190740Z AUTO 00000KT 10SM CLR 22/21 A3019 70 93 900 000/00 RMK AO2 T02170206
63870K0J4 0J420160719024510607/19/16 02:45:31  5-MIN K0J4 190745Z AUTO 18003KT 10SM CLR 22/21 A3019 70 93 900 180/03 RMK AO2 T02170206
63870K0J4 0J420160719025010607/19/16 02:50:31  5-MIN K0J4 190750Z AUTO 00000KT 10SM CLR 22/21 A3019 70 93 900 000/00 RMK AO2 T02170206
63870K0J4 0J420160719025511407/19/16 02:55:31  5-MIN K0J4 190755Z AUTO 00000KT 10SM CLR 22/21 A3019 70 93 1000 000/00 RMK AO2 SLP218 T02220211
63870K0J4 0J420160719030010707/19/16 03:00:31  5-MIN K0J4 190800Z AUTO 00000KT 10SM CLR 22/21 A3019 70 93 1000 000/00 RMK AO2 T02220211
63870K0J4 0J420160719030510707/19/16 03:05:31  5-MIN K0J4 190805Z AUTO 00000KT 10SM CLR 22/21 A3019 70 93 1000 000/00 RMK AO2 T02220211
63870K0J4 0J420160719031010707/19/16 03:10:31  5-MIN K0J4 190810Z AUTO 00000KT 10SM CLR 22/21 A3019 70 93 1000 000/00 RMK AO2 T02220211
63870K0J4 0J420160719031510707/19/16 03:15:31  5-MIN K0J4 190815Z AUTO 00000KT 10SM CLR 22/21 A3020 60 93 1000 000/00 RMK AO2 T02220211
63870K0J4 0J420160719032010707/19/16 03:20:31  5-MIN K0J4 190820Z AUTO 00000KT 10SM CLR 23/21 A3020 60 90 1000 000/00 RMK AO2 T02280211
63870K0J4 0J420160719032510707/19/16 03:25:31  5-MIN K0J4 190825Z AUTO 00000KT 10SM CLR 22/21 A3020 60 93 1000 000/00 RMK AO2 T02220211
63870K0J4 0J420160719033010707/19/16 03:30:31  5-MIN K0J4 190830Z AUTO 00000KT 10SM CLR 22/21 A3020 60 93 1000 000/00 RMK AO2 T02220211
63870K0J4 0J420160719033510707/19/16 03:35:31  5-MIN K0J4 190835Z AUTO 00000KT 10SM CLR 22/21 A3020 60 93 1000 000/00 RMK AO2 T02220211
63870K0J4 0J420160719034010707/19/16 03:40:31  5-MIN K0J4 190840Z AUTO 00000KT 10SM CLR 22/21 A3020 60 93 1000 000/00 RMK AO2 T02220211
63870K0J4 0J420160719034510707/19/16 03:45:31  5-MIN K0J4 190845Z AUTO 00000KT 10SM CLR 22/21 A3020 60 93 1000 000/00 RMK AO2 T02220211
63870K0J4 0J420160719035010707/19/16 03:50:31  5-MIN K0J4 190850Z AUTO 00000KT 10SM CLR 22/21 A3020 60 93 1000 000/00 RMK AO2 T02220211
63870K0J4 0J420160719035512007/19/16 03:55:31  5-MIN K0J4 190855Z AUTO 35003KT 10SM CLR 22/21 A3020 60 93 1000 350/03 RMK AO2 SLP222 T02220211 58008
63870K0J4 0J420160719040010607/19/16 04:00:31  5-MIN K0J4 190900Z AUTO 36003KT 10SM CLR 22/21 A3020 60 93 900 360/03 RMK AO2 T02170206
63870K0J4 0J420160719040510607/19/16 04:05:31  5-MIN K0J4 190905Z AUTO 00000KT 10SM CLR 22/21 A3020 50 93 900 000/00 RMK AO2 T02170206
63870K0J4 0J420160719041010607/19/16 04:10:31  5-MIN K0J4 190910Z AUTO 02003KT 10SM CLR 22/21 A3021 50 93 900 020/03 RMK AO2 T02170206
63870K0J4 0J420160719041510607/19/16 04:15:31  5-MIN K0J4 190915Z AUTO 00000KT 10SM CLR 22/21 A3021 50 93 900 000/00 RMK AO2 T02170206
63870K0J4 0J420160719042010607/19/16 04:20:31  5-MIN K0J4 190920Z AUTO 00000KT 10SM CLR 22/21 A3021 50 93 900 000/00 RMK AO2 T02170206
63870K0J4 0J420160719042510607/19/16 04:25:31  5-MIN K0J4 190925Z AUTO 00000KT 10SM CLR 22/21 A3021 50 93 900 000/00 RMK AO2 T02170206
63870K0J4 0J420160719043010607/19/16 04:30:31  5-MIN K0J4 190930Z AUTO 00000KT 10SM CLR 22/21 A3021 50 93 900 000/00 RMK AO2 T02170206
63870K0J4 0J420160719043510607/19/16 04:35:31  5-MIN K0J4 190935Z AUTO 20003KT 10SM CLR 22/21 A3021 50 93 900 200/03 RMK AO2 T02170206
63870K0J4 0J420160719044010607/19/16 04:40:31  5-MIN K0J4 190940Z AUTO 20003KT 10SM CLR 21/20 A3021 50 93 800 200/03 RMK AO2 T02110200
63870K0J4 0J420160719044510607/19/16 04:45:31  5-MIN K0J4 190945Z AUTO 00000KT 10SM CLR 21/21 A3021 50 97 800 000/00 RMK AO2 T02110206
63870K0J4 0J420160719045010607/19/16 04:50:31  5-MIN K0J4 190950Z AUTO 00000KT 10SM CLR 22/21 A3021 50 93 900 000/00 RMK AO2 T02170206
63870K0J4 0J420160719045511307/19/16 04:55:31  5-MIN K0J4 190955Z AUTO 00000KT 10SM CLR 22/21 A3021 50 93 900 000/00 RMK AO2 SLP226 T02170206
63870K0J4 0J420160719050010607/19/16 05:00:31  5-MIN K0J4 191000Z AUTO 00000KT 10SM CLR 22/21 A3021 50 93 900 000/00 RMK AO2 T02170206
63870K0J4 0J420160719050510607/19/16 05:05:31  5-MIN K0J4 191005Z AUTO 00000KT 10SM CLR 21/20 A3021 50 93 800 000/00 RMK AO2 T02110200
63870K0J4 0J420160719051010607/19/16 05:10:31  5-MIN K0J4 191010Z AUTO 00000KT 10SM CLR 22/20 A3021 50 90 900 000/00 RMK AO2 T02170200
63870K0J4 0J420160719051510607/19/16 05:15:31  5-MIN K0J4 191015Z AUTO 00000KT 10SM CLR 22/21 A3021 50 93 900 000/00 RMK AO2 T02170206
63870K0J4 0J420160719052010607/19/16 05:20:31  5-MIN K0J4 191020Z AUTO 00000KT 10SM CLR 22/20 A3022 40 90 900 000/00 RMK AO2 T02170200
63870K0J4 0J420160719052510607/19/16 05:25:31  5-MIN K0J4 191025Z AUTO 00000KT 10SM CLR 22/20 A3022 40 90 900 000/00 RMK AO2 T02170200
63870K0J4 0J420160719053010607/19/16 05:30:31  5-MIN K0J4 191030Z AUTO 00000KT 10SM CLR 22/21 A3022 40 93 900 000/00 RMK AO2 T02170206
63870K0J4 0J420160719053510607/19/16 05:35:31  5-MIN K0J4 191035Z AUTO 00000KT 10SM CLR 21/20 A3022 40 93 800 000/00 RMK AO2 T02110200
63870K0J4 0J420160719054010607/19/16 05:40:31  5-MIN K0J4 191040Z AUTO 00000KT 10SM CLR 21/20 A3022 40 93 800 000/00 RMK AO2 T02110200
63870K0J4 0J420160719054510607/19/16 05:45:31  5-MIN K0J4 191045Z AUTO 00000KT 10SM CLR 21/20 A3022 40 93 800 000/00 RMK AO2 T02110200
63870K0J4 0J420160719055010607/19/16 05:50:31  5-MIN K0J4 191050Z AUTO 00000KT 10SM CLR 21/20 A3022 40 93 800 000/00 RMK AO2 T02110200
63870K0J4 0J420160719055511307/19/16 05:55:31  5-MIN K0J4 191055Z AUTO 00000KT 10SM CLR 21/20 A3022 40 93 800 000/00 RMK AO2 SLP230 T02110200
63870K0J4 0J420160719060010607/19/16 06:00:31  5-MIN K0J4 191100Z AUTO 00000KT 10SM CLR 21/20 A3022 40 93 800 000/00 RMK AO2 T02110200
63870K0J4 0J420160719060510607/19/16 06:05:31  5-MIN K0J4 191105Z AUTO 00000KT 10SM CLR 21/20 A3023 30 93 800 000/00 RMK AO2 T02110200
63870K0J4 0J420160719061010607/19/16 06:10:31  5-MIN K0J4 191110Z AUTO 00000KT 10SM CLR 22/21 A3023 30 93 900 000/00 RMK AO2 T02170206
63870K0J4 0J420160719061510607/19/16 06:15:31  5-MIN K0J4 191115Z AUTO 00000KT 10SM CLR 22/21 A3023 30 93 900 000/00 RMK AO2 T02170206
63870K0J4 0J420160719062010607/19/16 06:20:31  5-MIN K0J4 191120Z AUTO 00000KT 10SM CLR 22/21 A3023 30 93 900 000/00 RMK AO2 T02170206
63870K0J4 0J420160719062510607/19/16 06:25:31  5-MIN K0J4 191125Z AUTO 00000KT 10SM CLR 22/21 A3024 30 93 900 000/00 RMK AO2 T02220211
63870K0J4 0J420160719063010607/19/16 06:30:31  5-MIN K0J4 191130Z AUTO 00000KT 10SM CLR 22/22 A3024 20 97 900 000/00 RMK AO2 T02220217
63870K0J4 0J420160719063510607/19/16 06:35:31  5-MIN K0J4 191135Z AUTO 00000KT 10SM CLR 22/21 A3024 20 93 900 000/00 RMK AO2 T02220211
63870K0J4 0J420160719064010607/19/16 06:40:31  5-MIN K0J4 191140Z AUTO 00000KT 10SM CLR 22/21 A3024 20 93 900 000/00 RMK AO2 T02220211
63870K0J4 0J420160719064510607/19/16 06:45:31  5-MIN K0J4 191145Z AUTO 00000KT 10SM CLR 22/21 A3024 30 93 800 000/00 RMK AO2 T02170206
63870K0J4 0J420160719065010607/19/16 06:50:31  5-MIN K0J4 191150Z AUTO 00000KT 10SM CLR 22/21 A3024 30 93 800 000/00 RMK AO2 T02170206
63870K0J4 0J420160719065513107/19/16 06:55:31  5-MIN K0J4 191155Z AUTO 00000KT 10SM CLR 22/21 A3024 30 93 900 000/00 RMK AO2 SLP234 T02220211 10228 20211 53003
63870K0J4 0J420160719070010707/19/16 07:00:31  5-MIN K0J4 191200Z AUTO 00000KT 10SM CLR 23/22 A3024 20 93 1000 000/00 RMK AO2 T02280217
63870K0J4 0J420160719070510707/19/16 07:05:31  5-MIN K0J4 191205Z AUTO 00000KT 10SM CLR 24/22 A3024 20 90 1100 000/00 RMK AO2 T02390222
63870K0J4 0J420160719071010707/19/16 07:10:31  5-MIN K0J4 191210Z AUTO 00000KT 10SM CLR 24/22 A3024 20 90 1100 000/00 RMK AO2 T02390222
63870K0J4 0J420160719120010707/19/16 12:00:31  5-MIN K0J4 191700Z AUTO VRB03KT 10SM CLR 32/20 A3024 20 48 2000 VRB/03 RMK AO2 T03220200
63870K0J4 0J420160719120510707/19/16 12:05:31  5-MIN K0J4 191705Z AUTO 19003KT 10SM CLR 32/20 A3023 30 48 2000 190/03 RMK AO2 T03220200
63870K0J4 0J420160719121010707/19/16 12:10:31  5-MIN K0J4 191710Z AUTO 00000KT 10SM CLR 33/21 A3023 30 48 2100 000/00 RMK AO2 T03280206
63870K0J4 0J420160719121510707/19/16 12:15:31  5-MIN K0J4 191715Z AUTO 00000KT 10SM CLR 32/19 A3023 30 46 2000 000/00 RMK AO2 T03220194
63870K0J4 0J420160719122010707/19/16 12:20:31  5-MIN K0J4 191720Z AUTO 21004KT 10SM CLR 32/20 A3023 30 48 2000 210/04 RMK AO2 T03220200
63870K0J4 0J420160719122511007/19/16 12:25:31  5-MIN K0J4 191725Z AUTO 25003KT 10SM FEW050 32/19 A3023 30 46 2000 250/03 RMK AO2 T03220194
63870K0J4 0J420160719123011007/19/16 12:30:31  5-MIN K0J4 191730Z AUTO 00000KT 10SM FEW050 32/20 A3022 40 48 2100 000/00 RMK AO2 T03220200
63870K0J4 0J420160719123510707/19/16 12:35:31  5-MIN K0J4 191735Z AUTO 13003KT 10SM CLR 32/21 A3022 40 49 2100 130/03 RMK AO2 T03220206
63870K0J4 0J420160719124010707/19/16 12:40:31  5-MIN K0J4 191740Z AUTO 18004KT 10SM CLR 33/21 A3022 40 48 2100 180/04 RMK AO2 T03280206
63870K0J4 0J420160719124511007/19/16 12:45:31  5-MIN K0J4 191745Z AUTO VRB05KT 10SM FEW050 33/21 A3022 40 48 2100 VRB/05 RMK AO2 T03280206
63870K0J4 0J420160719125011007/19/16 12:50:31  5-MIN K0J4 191750Z AUTO 35004KT 10SM FEW050 33/20 A3022 40 46 2100 350/04 RMK AO2 T03280200
63870K0J4 0J420160719125513507/19/16 12:55:31  5-MIN K0J4 191755Z AUTO 00000KT 10SM FEW050 33/20 A3021 50 46 2100 000/00 RMK AO2 SLP227 T03280200 10328 20228 51011
63870K0J4 0J420160719130011007/19/16 13:00:31  5-MIN K0J4 191800Z AUTO VRB03KT 10SM FEW050 33/21 A3021 50 46 2200 VRB/03 RMK AO2 T03330206
63870K0J4 0J420160719130511007/19/16 13:05:31  5-MIN K0J4 191805Z AUTO 00000KT 10SM FEW050 33/21 A3021 50 48 2200 000/00 RMK AO2 T03330211
63870K0J4 0J420160719131011007/19/16 13:10:31  5-MIN K0J4 191810Z AUTO 04005KT 10SM SCT050 33/20 A3021 50 45 2200 040/05 RMK AO2 T03330200
63870K0J4 0J420160719132510007/19/16 13:25:31  5-MIN K0J4 191825Z AUTO 13004KT 33/21 A3020 60 48 2200 130/04 RMK AO2 T03330211 $
63870K0J4 0J420160719133010507/19/16 13:30:31  5-MIN K0J4 191830Z AUTO 00000KT 10SM 33/21 A3020 60 46 2200 000/00 RMK AO2 T03330206 $
63870K0J4 0J420160719133510507/19/16 13:35:31  5-MIN K0J4 191835Z AUTO 00000KT 10SM 33/21 A3019 60 46 2200 000/00 RMK AO2 T03330206 $
63870K0J4 0J420160719134010507/19/16 13:40:31  5-MIN K0J4 191840Z AUTO 00000KT 10SM 33/21 A3019 60 48 2100 000/00 RMK AO2 T03280206 $
63870K0J4 0J420160719134510507/19/16 13:45:31  5-MIN K0J4 191845Z AUTO 00000KT 10SM 32/21 A3019 60 49 2100 000/00 RMK AO2 T03220206 $
63870K0J4 0J420160719135011207/19/16 13:50:31  5-MIN K0J4 191850Z AUTO 00000KT 10SM SCT050 33/21 A3019 60 48 2100 000/00 RMK AO2 T03280206 $
63870K0J4 0J420160719135512607/19/16 13:55:31  5-MIN K0J4 191855Z AUTO 00000KT 10SM SCT050 BKN065 33/21 A3019 60 46 2200 000/00 RMK AO2 SLP220 T03330206 $
63870K0J4 0J420160719140011907/19/16 14:00:31  5-MIN K0J4 191900Z AUTO 00000KT 10SM BKN050 BKN065 33/20 A3020 60 45 2200 000/00 RMK AO2 T03330200 $
63870K0J4 0J420160719140511907/19/16 14:05:31  5-MIN K0J4 191905Z AUTO 00000KT 10SM SCT050 SCT065 33/20 A3020 60 46 2100 000/00 RMK AO2 T03280200 $
63870K0J4 0J420160719141011907/19/16 14:10:31  5-MIN K0J4 191910Z AUTO 00000KT 10SM FEW050 SCT065 33/20 A3020 60 45 2200 000/00 RMK AO2 T03330200 $
63870K0J4 0J420160719141511907/19/16 14:15:31  5-MIN K0J4 191915Z AUTO VRB03KT 10SM FEW050 FEW065 34/21 A3020 60 45 2300 VRB/03 RMK AO2 T03390206 $
63870K0J4 0J420160719142011907/19/16 14:20:31  5-MIN K0J4 191920Z AUTO 00000KT 10SM FEW050 FEW065 33/20 A3019 60 45 2200 000/00 RMK AO2 T03330200 $
63870K0J4 0J420160719142511907/19/16 14:25:31  5-MIN K0J4 191925Z AUTO 00000KT 10SM FEW050 SCT065 33/20 A3019 70 45 2200 000/00 RMK AO2 T03330200 $
63870K0J4 0J420160719143011907/19/16 14:30:31  5-MIN K0J4 191930Z AUTO 00000KT 10SM SCT050 SCT065 33/19 A3019 70 44 2200 000/00 RMK AO2 T03280194 $
63870K0J4 0J420160719143511207/19/16 14:35:31  5-MIN K0J4 191935Z AUTO 00000KT 10SM BKN050 33/19 A3018 70 44 2200 000/00 RMK AO2 T03280194 $
63870K0J4 0J420160719144011207/19/16 14:40:31  5-MIN K0J4 191940Z AUTO 00000KT 10SM SCT050 33/20 A3018 80 46 2200 000/00 RMK AO2 T03280200 $
63870K0J4 0J420160719144511207/19/16 14:45:31  5-MIN K0J4 191945Z AUTO 16003KT 10SM SCT050 33/20 A3018 80 46 2200 160/03 RMK AO2 T03280200 $
63870K0J4 0J420160719145011207/19/16 14:50:31  5-MIN K0J4 191950Z AUTO VRB03KT 10SM SCT050 33/20 A3017 80 45 2200 VRB/03 RMK AO2 T03330200 $
63870K0J4 0J420160719145511907/19/16 14:55:31  5-MIN K0J4 191955Z AUTO 00000KT 10SM SCT050 33/20 A3017 80 45 2200 000/00 RMK AO2 SLP213 T03330200 $
63870K0J4 0J420160719150011007/19/16 15:00:31  5-MIN K0J4 192000Z AUTO 00000KT 10SM FEW055 34/21 A3017 90 45 2300 000/00 RMK AO2 T03390206
63870K0J4 0J420160719150511007/19/16 15:05:31  5-MIN K0J4 192005Z AUTO 26004KT 10SM SCT055 34/20 A3017 80 43 2300 260/04 RMK AO2 T03390200
63870K0J4 0J420160719151011007/19/16 15:10:31  5-MIN K0J4 192010Z AUTO VRB03KT 10SM BKN055 33/21 A3017 80 48 2200 VRB/03 RMK AO2 T03330211
63870K0J4 0J420160719151511007/19/16 15:15:31  5-MIN K0J4 192015Z AUTO VRB03KT 10SM BKN055 33/21 A3018 80 48 2200 VRB/03 RMK AO2 T03330211
63870K0J4 0J420160719152011007/19/16 15:20:31  5-MIN K0J4 192020Z AUTO 36003KT 10SM BKN055 33/21 A3017 80 49 2200 360/03 RMK AO2 T03280211
63870K0J4 0J420160719152511007/19/16 15:25:31  5-MIN K0J4 192025Z AUTO 36007KT 10SM OVC050 32/21 A3018 80 51 2100 360/07 RMK AO2 T03220211
63870K0J4 0J420160719153011007/19/16 15:30:31  5-MIN K0J4 192030Z AUTO 01006KT 10SM OVC050 32/21 A3018 80 53 2000 010/06 RMK AO2 T03170211
63870K0J4 0J420160719153511007/19/16 15:35:31  5-MIN K0J4 192035Z AUTO 01006KT 10SM BKN050 32/21 A3018 80 53 2000 010/06 RMK AO2 T03170211
63870K0J4 0J420160719154011007/19/16 15:40:31  5-MIN K0J4 192040Z AUTO 01006KT 10SM BKN050 32/21 A3018 80 53 2000 010/06 RMK AO2 T03170211
63870K0J4 0J420160719154511007/19/16 15:45:31  5-MIN K0J4 192045Z AUTO 02005KT 10SM BKN050 32/22 A3018 80 55 2000 020/05 RMK AO2 T03170217
63870K0J4 0J420160719155012607/19/16 15:50:31  5-MIN K0J4 192050Z AUTO 03006KT 10SM -RA BKN050 32/22 A3018 80 55 2000 030/06 RMK AO2 RAB50 P0000 T03170217
63870K0J4 0J420160719155514607/19/16 15:55:31  5-MIN K0J4 192055Z AUTO 02006KT 10SM -RA FEW037 BKN055 31/23 A3017 80 60 2000 020/06 RMK AO2 RAB50 SLP213 P0000 60000 T03110228
63870K0J4 0J420160719160012707/19/16 16:00:31  5-MIN K0J4 192100Z AUTO 02006KT 10SM -RA FEW037 BKN055 31/23 A3017 80 60 2000 020/06 RMK AO2 P0000 T03110228
63870K0J4 0J420160719160512207/19/16 16:05:31  5-MIN K0J4 192105Z AUTO 01006KT 10SM SCT055 31/23 A3017 90 60 2000 010/06 RMK AO2 RAE02 P0000 T03110228
63870K0J4 0J420160719161012507/19/16 16:10:31  5-MIN K0J4 192110Z AUTO 01005KT 10SM TS SCT055 31/23 A3017 90 60 2000 010/05 RMK AO2 RAE02 P0000 T03110228
63870K0J4 0J420160719161513307/19/16 16:15:31  5-MIN K0J4 192115Z AUTO 03006KT 10SM VCTS SCT055 31/23 A3017 90 60 2000 030/06 RMK AO2 RAE02 TSE12 P0000 T03110228
63870K0J4 0J420160719162013307/19/16 16:20:31  5-MIN K0J4 192120Z AUTO 04006KT 10SM VCTS SCT060 31/23 A3017 90 60 2000 040/06 RMK AO2 RAE02 TSE12 P0000 T03110228
63870K0J4 0J420160719162512807/19/16 16:25:31  5-MIN K0J4 192125Z AUTO 08008KT 10SM FEW060 31/23 A3017 80 65 1900 080/08 RMK AO2 RAE02 TSE12 P0000 T03060233
63870K0J4 0J420160719163012807/19/16 16:30:31  5-MIN K0J4 192130Z AUTO 08010KT 10SM FEW060 30/23 A3017 80 67 1900 080/10 RMK AO2 RAE02 TSE12 P0000 T03000233
63870K0J4 0J420160719163512807/19/16 16:35:31  5-MIN K0J4 192135Z AUTO 08007KT 10SM FEW060 29/23 A3017 90 69 1800 080/07 RMK AO2 RAE02 TSE12 P0000 T02940233
63870K0J4 0J420160719164012807/19/16 16:40:31  5-MIN K0J4 192140Z AUTO 07006KT 10SM FEW060 29/23 A3017 90 69 1800 070/06 RMK AO2 RAE02 TSE12 P0000 T02940233
63870K0J4 0J420160719164512807/19/16 16:45:31  5-MIN K0J4 192145Z AUTO 07006KT 10SM FEW060 29/23 A3017 90 69 1800 070/06 RMK AO2 RAE02 TSE12 P0000 T02940233
63870K0J4 0J420160719165012507/19/16 16:50:31  5-MIN K0J4 192150Z AUTO 06006KT 10SM CLR 29/23 A3016 90 69 1800 060/06 RMK AO2 RAE02 TSE12 P0000 T02940233
63870K0J4 0J420160719165513207/19/16 16:55:31  5-MIN K0J4 192155Z AUTO 05006KT 10SM CLR 29/23 A3016 90 71 1800 050/06 RMK AO2 RAE02 TSE12 SLP209 P0000 T02890233
63870K0J4 0J420160719170010807/19/16 17:00:31  5-MIN K0J4 192200Z AUTO 04005KT 10SM CLR 29/23 A3016 100 71 1800 040/05 RMK AO2 T02890233
63870K0J4 0J420160719170510807/19/16 17:05:31  5-MIN K0J4 192205Z AUTO 05005KT 10SM CLR 29/24 A3015 100 74 1800 050/05 RMK AO2 T02890239
63870K0J4 0J420160719171010807/19/16 17:10:31  5-MIN K0J4 192210Z AUTO 04004KT 10SM CLR 29/24 A3015 100 74 1800 040/04 RMK AO2 T02890239
63870K0J4 0J420160719171510807/19/16 17:15:31  5-MIN K0J4 192215Z AUTO 03004KT 10SM CLR 29/24 A3015 110 74 1800 030/04 RMK AO2 T02890239
63870K0J4 0J420160719172010807/19/16 17:20:31  5-MIN K0J4 192220Z AUTO 03004KT 10SM CLR 29/24 A3015 110 74 1800 030/04 RMK AO2 T02890239
63870K0J4 0J420160719172510807/19/16 17:25:31  5-MIN K0J4 192225Z AUTO 07004KT 10SM CLR 29/24 A3014 110 71 1800 070/04 RMK AO2 T02940239
63870K0J4 0J420160719173010807/19/16 17:30:31  5-MIN K0J4 192230Z AUTO 07005KT 10SM CLR 29/24 A3014 110 71 1800 070/05 RMK AO2 T02940239
63870K0J4 0J420160719173510807/19/16 17:35:31  5-MIN K0J4 192235Z AUTO 07005KT 10SM CLR 29/24 A3014 120 74 1800 070/05 RMK AO2 T02940244
63870K0J4 0J420160719174010807/19/16 17:40:31  5-MIN K0J4 192240Z AUTO 05005KT 10SM CLR 29/24 A3013 120 74 1800 050/05 RMK AO2 T02940244
63870K0J4 0J420160719174510807/19/16 17:45:31  5-MIN K0J4 192245Z AUTO 06006KT 10SM CLR 29/24 A3013 120 71 1800 060/06 RMK AO2 T02940239
63870K0J4 0J420160719175010807/19/16 17:50:31  5-MIN K0J4 192250Z AUTO 07005KT 10SM CLR 29/24 A3013 120 74 1800 070/05 RMK AO2 T02940244
63870K0J4 0J420160719175511507/19/16 17:55:31  5-MIN K0J4 192255Z AUTO 06006KT 10SM CLR 29/24 A3014 120 71 1800 060/06 RMK AO2 SLP201 T02940239
63870K0J4 0J420160719180010807/19/16 18:00:31  5-MIN K0J4 192300Z AUTO 07006KT 10SM CLR 29/24 A3014 120 74 1800 070/06 RMK AO2 T02890239
63870K0J4 0J420160719180510807/19/16 18:05:31  5-MIN K0J4 192305Z AUTO 08004KT 10SM CLR 29/24 A3013 120 74 1800 080/04 RMK AO2 T02890239
63870K0J4 0J420160719181010807/19/16 18:10:31  5-MIN K0J4 192310Z AUTO 12003KT 10SM CLR 29/24 A3013 120 76 1800 120/03 RMK AO2 T02890244
63870K0J4 0J420160719181510807/19/16 18:15:31  5-MIN K0J4 192315Z AUTO 11003KT 10SM CLR 29/24 A3013 120 76 1800 110/03 RMK AO2 T02890244
63870K0J4 0J420160719182010807/19/16 18:20:31  5-MIN K0J4 192320Z AUTO 12004KT 10SM CLR 29/24 A3013 120 74 1800 120/04 RMK AO2 T02890239
63870K0J4 0J420160719182510807/19/16 18:25:31  5-MIN K0J4 192325Z AUTO 08004KT 10SM CLR 29/24 A3013 120 74 1800 080/04 RMK AO2 T02890239
63870K0J4 0J420160719183010807/19/16 18:30:31  5-MIN K0J4 192330Z AUTO 09005KT 10SM CLR 29/24 A3014 120 74 1800 090/05 RMK AO2 T02890239
63870K0J4 0J420160719183510807/19/16 18:35:31  5-MIN K0J4 192335Z AUTO 00000KT 10SM CLR 28/23 A3014 120 71 1700 000/00 RMK AO2 T02830228
63870K0J4 0J420160719184010807/19/16 18:40:31  5-MIN K0J4 192340Z AUTO 07003KT 10SM CLR 28/23 A3014 110 71 1700 070/03 RMK AO2 T02830228
63870K0J4 0J420160719184510807/19/16 18:45:31  5-MIN K0J4 192345Z AUTO 05003KT 10SM CLR 28/22 A3014 120 69 1700 050/03 RMK AO2 T02830222
63870K0J4 0J420160719185010807/19/16 18:50:31  5-MIN K0J4 192350Z AUTO 03004KT 10SM CLR 28/22 A3014 120 69 1700 030/04 RMK AO2 T02830222
63870K0J4 0J420160719185513307/19/16 18:55:31  5-MIN K0J4 192355Z AUTO 03004KT 10SM CLR 28/22 A3014 110 69 1700 030/04 RMK AO2 SLP201 60000 T02830222 10339 20283
63870K0J4 0J420160719190010807/19/16 19:00:31  5-MIN K0J4 200000Z AUTO 01004KT 10SM CLR 28/23 A3014 110 74 1700 010/04 RMK AO2 T02780228
63870K0J4 0J420160719190510807/19/16 19:05:31  5-MIN K0J4 200005Z AUTO 01004KT 10SM CLR 28/22 A3014 120 69 1700 010/04 RMK AO2 T02830222
63870K0J4 0J420160719191010807/19/16 19:10:31  5-MIN K0J4 200010Z AUTO 01003KT 10SM CLR 28/22 A3014 120 71 1700 010/03 RMK AO2 T02780222
63870K0J4 0J420160719191510807/19/16 19:15:31  5-MIN K0J4 200015Z AUTO 00000KT 10SM CLR 28/23 A3014 110 74 1700 000/00 RMK AO2 T02780228
63870K0J4 0J420160719192010807/19/16 19:20:31  5-MIN K0J4 200020Z AUTO 03003KT 10SM CLR 28/23 A3015 110 74 1600 030/03 RMK AO2 T02780228
63870K0J4 0J420160719192510807/19/16 19:25:31  5-MIN K0J4 200025Z AUTO 04005KT 10SM CLR 27/23 A3015 100 76 1600 040/05 RMK AO2 T02720228
63870K0J4 0J420160719193010807/19/16 19:30:31  5-MIN K0J4 200030Z AUTO 05003KT 10SM CLR 27/22 A3015 100 74 1600 050/03 RMK AO2 T02720222
63870K0J4 0J420160719193510807/19/16 19:35:31  5-MIN K0J4 200035Z AUTO 02003KT 10SM CLR 27/23 A3015 100 76 1600 020/03 RMK AO2 T02720228
63870K0J4 0J420160719194010807/19/16 19:40:31  5-MIN K0J4 200040Z AUTO 00000KT 10SM CLR 27/23 A3016 100 76 1600 000/00 RMK AO2 T02720228
63870K0J4 0J420160719194510807/19/16 19:45:31  5-MIN K0J4 200045Z AUTO 00000KT 10SM CLR 27/23 A3016 100 76 1600 000/00 RMK AO2 T02720228
63870K0J4 0J420160719195010807/19/16 19:50:31  5-MIN K0J4 200050Z AUTO 00000KT 10SM CLR 27/23 A3016 100 82 1500 000/00 RMK AO2 T02670233
63870K0J4 0J420160719195511407/19/16 19:55:31  5-MIN K0J4 200055Z AUTO 08003KT 10SM CLR 27/23 A3016 90 79 1500 080/03 RMK AO2 SLP209 T02670228
63870K0J4 0J420160719200010807/19/16 20:00:31  5-MIN K0J4 200100Z AUTO 00000KT 10SM CLR 26/23 A3016 100 81 1400 000/00 RMK AO2 T02610228
63870K0J4 0J420160719200510807/19/16 20:05:31  5-MIN K0J4 200105Z AUTO 00000KT 10SM CLR 26/23 A3016 100 81 1400 000/00 RMK AO2 T02610228
63870K0J4 0J420160719201010807/19/16 20:10:31  5-MIN K0J4 200110Z AUTO 00000KT 10SM CLR 26/23 A3016 100 81 1400 000/00 RMK AO2 T02610228
63870K0J4 0J420160719201510707/19/16 20:15:31  5-MIN K0J4 200115Z AUTO 00000KT 10SM CLR 26/23 A3016 90 81 1400 000/00 RMK AO2 T02610228
63870K0J4 0J420160719202010807/19/16 20:20:31  5-MIN K0J4 200120Z AUTO 00000KT 10SM CLR 26/23 A3016 100 81 1400 000/00 RMK AO2 T02610228
63870K0J4 0J420160719202510707/19/16 20:25:31  5-MIN K0J4 200125Z AUTO 00000KT 10SM CLR 26/23 A3016 90 81 1400 000/00 RMK AO2 T02610228
63870K0J4 0J420160719203010707/19/16 20:30:31  5-MIN K0J4 200130Z AUTO 06003KT 10SM CLR 26/23 A3016 90 81 1400 060/03 RMK AO2 T02610228
63870K0J4 0J420160719203510707/19/16 20:35:31  5-MIN K0J4 200135Z AUTO 00000KT 10SM CLR 26/23 A3017 90 81 1400 000/00 RMK AO2 T02610228
63870K0J4 0J420160719204010707/19/16 20:40:31  5-MIN K0J4 200140Z AUTO 00000KT 10SM CLR 26/23 A3017 80 81 1400 000/00 RMK AO2 T02610228
63870K0J4 0J420160719204510707/19/16 20:45:31  5-MIN K0J4 200145Z AUTO 03003KT 10SM CLR 26/23 A3017 80 84 1400 030/03 RMK AO2 T02560228
63870K0J4 0J420160719205010707/19/16 20:50:31  5-MIN K0J4 200150Z AUTO 04003KT 10SM CLR 26/23 A3017 80 84 1400 040/03 RMK AO2 T02560228
63870K0J4 0J420160719205511407/19/16 20:55:31  5-MIN K0J4 200155Z AUTO 08003KT 10SM CLR 25/23 A3018 80 87 1300 080/03 RMK AO2 SLP214 T02500228
63870K0J4 0J420160719210010707/19/16 21:00:31  5-MIN K0J4 200200Z AUTO 05003KT 10SM CLR 25/23 A3018 80 87 1300 050/03 RMK AO2 T02500228
63870K0J4 0J420160719210510707/19/16 21:05:31  5-MIN K0J4 200205Z AUTO 00000KT 10SM CLR 25/23 A3018 80 87 1300 000/00 RMK AO2 T02500228
63870K0J4 0J420160719211010707/19/16 21:10:31  5-MIN K0J4 200210Z AUTO 00000KT 10SM CLR 26/23 A3018 80 84 1400 000/00 RMK AO2 T02560228
63870K0J4 0J420160719211510707/19/16 21:15:31  5-MIN K0J4 200215Z AUTO 00000KT 10SM CLR 26/23 A3018 70 84 1400 000/00 RMK AO2 T02560228
63870K0J4 0J420160719212010707/19/16 21:20:31  5-MIN K0J4 200220Z AUTO 00000KT 10SM CLR 26/23 A3018 70 84 1400 000/00 RMK AO2 T02560228
63870K0J4 0J420160719212510707/19/16 21:25:31  5-MIN K0J4 200225Z AUTO 00000KT 10SM CLR 26/23 A3018 70 84 1400 000/00 RMK AO2 T02560228
63870K0J4 0J420160719213010707/19/16 21:30:31  5-MIN K0J4 200230Z AUTO 00000KT 10SM CLR 26/23 A3018 70 84 1400 000/00 RMK AO2 T02560228
63870K0J4 0J420160719213510707/19/16 21:35:31  5-MIN K0J4 200235Z AUTO 00000KT 10SM CLR 26/23 A3019 70 84 1300 000/00 RMK AO2 T02560228
63870K0J4 0J420160719214010707/19/16 21:40:31  5-MIN K0J4 200240Z AUTO 00000KT 10SM CLR 26/23 A3019 70 84 1300 000/00 RMK AO2 T02560228
63870K0J4 0J420160719214510707/19/16 21:45:31  5-MIN K0J4 200245Z AUTO 00000KT 10SM CLR 26/23 A3019 70 84 1300 000/00 RMK AO2 T02560228
63870K0J4 0J420160719215010707/19/16 21:50:31  5-MIN K0J4 200250Z AUTO 00000KT 10SM CLR 25/23 A3019 70 87 1300 000/00 RMK AO2 T02500228
63870K0J4 0J420160719215512007/19/16 21:55:31  5-MIN K0J4 200255Z AUTO 00000KT 10SM CLR 25/23 A3019 70 87 1300 000/00 RMK AO2 SLP217 T02500228 55011
63870K0J4 0J420160719220010707/19/16 22:00:31  5-MIN K0J4 200300Z AUTO 00000KT 10SM CLR 25/23 A3019 70 87 1300 000/00 RMK AO2 T02500228
63870K0J4 0J420160719220510707/19/16 22:05:31  5-MIN K0J4 200305Z AUTO 00000KT 10SM CLR 25/23 A3019 70 87 1300 000/00 RMK AO2 T02500228
63870K0J4 0J420160719221010707/19/16 22:10:31  5-MIN K0J4 200310Z AUTO 00000KT 10SM CLR 25/23 A3018 70 87 1300 000/00 RMK AO2 T02500228
63870K0J4 0J420160719221510707/19/16 22:15:31  5-MIN K0J4 200315Z AUTO 00000KT 10SM CLR 25/23 A3018 80 87 1300 000/00 RMK AO2 T02500228
63870K0J4 0J420160719222010707/19/16 22:20:31  5-MIN K0J4 200320Z AUTO 00000KT 10SM CLR 25/22 A3018 80 84 1300 000/00 RMK AO2 T02500222
63870K0J4 0J420160719222510707/19/16 22:25:31  5-MIN K0J4 200325Z AUTO 00000KT 10SM CLR 25/22 A3018 80 84 1300 000/00 RMK AO2 T02500222
63870K0J4 0J420160719223010707/19/16 22:30:31  5-MIN K0J4 200330Z AUTO 03003KT 10SM CLR 25/22 A3018 70 84 1300 030/03 RMK AO2 T02500222
63870K0J4 0J420160719223510707/19/16 22:35:31  5-MIN K0J4 200335Z AUTO 00000KT 10SM CLR 24/23 A3018 70 90 1200 000/00 RMK AO2 T02440228
63870K0J4 0J420160719224010707/19/16 22:40:31  5-MIN K0J4 200340Z AUTO 00000KT 10SM CLR 24/23 A3018 70 90 1200 000/00 RMK AO2 T02440228
63870K0J4 0J420160719224510707/19/16 22:45:31  5-MIN K0J4 200345Z AUTO 00000KT 10SM CLR 24/23 A3018 80 90 1200 000/00 RMK AO2 T02440228
63870K0J4 0J420160719225010707/19/16 22:50:31  5-MIN K0J4 200350Z AUTO 00000KT 10SM CLR 24/23 A3018 80 90 1200 000/00 RMK AO2 T02440228
63870K0J4 0J420160719225511407/19/16 22:55:31  5-MIN K0J4 200355Z AUTO 00000KT 10SM CLR 24/23 A3018 80 90 1200 000/00 RMK AO2 SLP214 T02440228
63870K0J4 0J420160719230010707/19/16 23:00:31  5-MIN K0J4 200400Z AUTO 00000KT 10SM CLR 24/22 A3018 80 87 1200 000/00 RMK AO2 T02440222
63870K0J4 0J420160719230510707/19/16 23:05:31  5-MIN K0J4 200405Z AUTO 00000KT 10SM CLR 24/22 A3018 80 90 1200 000/00 RMK AO2 T02390222
63870K0J4 0J420160719231010707/19/16 23:10:31  5-MIN K0J4 200410Z AUTO 00000KT 10SM CLR 24/22 A3018 80 90 1200 000/00 RMK AO2 T02390222
63870K0J4 0J420160719231510707/19/16 23:15:31  5-MIN K0J4 200415Z AUTO 00000KT 10SM CLR 24/22 A3018 80 90 1200 000/00 RMK AO2 T02390222
63870K0J4 0J420160719232010707/19/16 23:20:31  5-MIN K0J4 200420Z AUTO 10003KT 10SM CLR 24/22 A3018 80 90 1200 100/03 RMK AO2 T02390222
63870K0J4 0J420160719232510707/19/16 23:25:31  5-MIN K0J4 200425Z AUTO 00000KT 10SM CLR 24/22 A3018 80 87 1200 000/00 RMK AO2 T02440222
63870K0J4 0J420160719233010707/19/16 23:30:31  5-MIN K0J4 200430Z AUTO 00000KT 10SM CLR 24/22 A3018 80 87 1200 000/00 RMK AO2 T02440222
63870K0J4 0J420160719233510707/19/16 23:35:31  5-MIN K0J4 200435Z AUTO 00000KT 10SM CLR 25/22 A3018 80 84 1300 000/00 RMK AO2 T02500222
63870K0J4 0J420160719234010707/19/16 23:40:31  5-MIN K0J4 200440Z AUTO 00000KT 10SM CLR 25/22 A3018 70 84 1300 000/00 RMK AO2 T02500222
63870K0J4 0J420160719234510707/19/16 23:45:31  5-MIN K0J4 200445Z AUTO 00000KT 10SM CLR 24/22 A3019 70 90 1200 000/00 RMK AO2 T02390222
63870K0J4 0J420160719235010707/19/16 23:50:31  5-MIN K0J4 200450Z AUTO 00000KT 10SM CLR 24/22 A3019 70 90 1200 000/00 RMK AO2 T02390222
63870K0J4 0J420160719235512407/19/16 23:55:31  5-MIN K0J4 200455Z AUTO 00000KT 10SM CLR 24/22 A3018 70 90 1200 000/00 RMK AO2 SLP217 T02390222 403390211
63870K0J4 0J420160720000010707/20/16 00:00:31  5-MIN K0J4 200500Z AUTO 00000KT 10SM CLR 23/22 A3018 80 93 1100 000/00 RMK AO2 T02330222
63870K0J4 0J420160720000510707/20/16 00:05:31  5-MIN K0J4 200505Z AUTO 00000KT 10SM CLR 23/22 A3018 80 93 1100 000/00 RMK AO2 T02330222
63870K0J4 0J420160720001010707/20/16 00:10:31  5-MIN K0J4 200510Z AUTO 00000KT 10SM CLR 23/22 A3018 80 93 1100 000/00 RMK AO2 T02330222
63870K0J4 0J420160720001510707/20/16 00:15:31  5-MIN K0J4 200515Z AUTO 00000KT 10SM CLR 24/22 A3018 80 90 1200 000/00 RMK AO2 T02390222
63870K0J4 0J420160720002010707/20/16 00:20:31  5-MIN K0J4 200520Z AUTO 00000KT 10SM CLR 24/22 A3017 90 90 1200 000/00 RMK AO2 T02390222
63870K0J4 0J420160720002510707/20/16 00:25:31  5-MIN K0J4 200525Z AUTO 00000KT 10SM CLR 24/22 A3017 80 90 1200 000/00 RMK AO2 T02390222
63870K0J4 0J420160720003010707/20/16 00:30:31  5-MIN K0J4 200530Z AUTO 00000KT 10SM CLR 24/22 A3017 90 90 1200 000/00 RMK AO2 T02390222
63870K0J4 0J420160720003510707/20/16 00:35:31  5-MIN K0J4 200535Z AUTO 00000KT 10SM CLR 23/22 A3017 90 90 1100 000/00 RMK AO2 T02330217
63870K0J4 0J420160720004010707/20/16 00:40:31  5-MIN K0J4 200540Z AUTO 00000KT 10SM CLR 23/22 A3017 90 90 1100 000/00 RMK AO2 T02330217
63870K0J4 0J420160720004510707/20/16 00:45:31  5-MIN K0J4 200545Z AUTO 00000KT 10SM CLR 23/22 A3017 80 90 1100 000/00 RMK AO2 T02330217
63870K0J4 0J420160720005010707/20/16 00:50:31  5-MIN K0J4 200550Z AUTO 00000KT 10SM CLR 23/22 A3017 80 90 1100 000/00 RMK AO2 T02330217
63870K0J4 0J420160720005513207/20/16 00:55:31  5-MIN K0J4 200555Z AUTO 00000KT 10SM CLR 24/22 A3017 90 90 1200 000/00 RMK AO2 SLP212 T02390222 10283 20233 51016
63870K0J4 0J420160720010010707/20/16 01:00:31  5-MIN K0J4 200600Z AUTO 00000KT 10SM CLR 24/22 A3017 90 90 1200 000/00 RMK AO2 T02390222
63870K0J4 0J420160720010510707/20/16 01:05:31  5-MIN K0J4 200605Z AUTO 00000KT 10SM CLR 23/22 A3017 90 93 1100 000/00 RMK AO2 T02330222
63870K0J4 0J420160720011010707/20/16 01:10:31  5-MIN K0J4 200610Z AUTO 00000KT 10SM CLR 23/22 A3017 90 93 1100 000/00 RMK AO2 T02330222
63870K0J4 0J420160720011510707/20/16 01:15:31  5-MIN K0J4 200615Z AUTO 34004KT 10SM CLR 23/22 A3017 90 93 1100 340/04 RMK AO2 T02330222
63870K0J4 0J420160720012010707/20/16 01:20:31  5-MIN K0J4 200620Z AUTO 31003KT 10SM CLR 23/22 A3016 90 93 1100 310/03 RMK AO2 T02330222
63870K0J4 0J420160720012510707/20/16 01:25:31  5-MIN K0J4 200625Z AUTO 00000KT 10SM CLR 23/22 A3016 90 93 1100 000/00 RMK AO2 T02330222
63870K0J4 0J420160720013010807/20/16 01:30:31  5-MIN K0J4 200630Z AUTO 00000KT 10SM CLR 23/22 A3016 100 93 1100 000/00 RMK AO2 T02330222
63870K0J4 0J420160720013510807/20/16 01:35:31  5-MIN K0J4 200635Z AUTO 00000KT 10SM CLR 23/22 A3016 100 90 1100 000/00 RMK AO2 T02330217
63870K0J4 0J420160720014010807/20/16 01:40:31  5-MIN K0J4 200640Z AUTO 00000KT 10SM CLR 23/22 A3015 100 93 1100 000/00 RMK AO2 T02280217
63870K0J4 0J420160720014510807/20/16 01:45:31  5-MIN K0J4 200645Z AUTO 00000KT 10SM CLR 23/22 A3015 100 93 1100 000/00 RMK AO2 T02280217
63870K0J4 0J420160720015010807/20/16 01:50:31  5-MIN K0J4 200650Z AUTO 00000KT 10SM CLR 23/22 A3015 110 93 1100 000/00 RMK AO2 T02280217
63870K0J4 0J420160720015511507/20/16 01:55:31  5-MIN K0J4 200655Z AUTO 00000KT 10SM CLR 23/22 A3015 100 93 1100 000/00 RMK AO2 SLP205 T02280217
63870K0J4 0J420160720020010807/20/16 02:00:31  5-MIN K0J4 200700Z AUTO 00000KT 10SM CLR 23/22 A3015 110 93 1100 000/00 RMK AO2 T02280217
63870K0J4 0J420160720020510807/20/16 02:05:31  5-MIN K0J4 200705Z AUTO 00000KT 10SM CLR 22/22 A3015 100 97 1000 000/00 RMK AO2 T02220217
63870K0J4 0J420160720021010707/20/16 02:10:31  5-MIN K0J4 200710Z AUTO 14003KT 9SM CLR 22/21 A3015 100 93 1000 140/03 RMK AO2 T02220211
63870K0J4 0J420160720021510707/20/16 02:15:31  5-MIN K0J4 200715Z AUTO 00000KT 9SM CLR 22/22 A3016 100 97 1000 000/00 RMK AO2 T02220217
63870K0J4 0J420160720022010707/20/16 02:20:31  5-MIN K0J4 200720Z AUTO 00000KT 9SM CLR 22/21 A3016 100 93 1000 000/00 RMK AO2 T02220211
63870K0J4 0J420160720022510607/20/16 02:25:31  5-MIN K0J4 200725Z AUTO 13004KT 9SM CLR 22/22 A3016 90 97 1000 130/04 RMK AO2 T02220217
63870K0J4 0J420160720023010607/20/16 02:30:31  5-MIN K0J4 200730Z AUTO 00000KT 9SM CLR 23/22 A3016 90 93 1100 000/00 RMK AO2 T02280217
63870K0J4 0J420160720023510707/20/16 02:35:31  5-MIN K0J4 200735Z AUTO 00000KT 10SM CLR 23/22 A3016 90 93 1100 000/00 RMK AO2 T02280217
63870K0J4 0J420160720024010707/20/16 02:40:31  5-MIN K0J4 200740Z AUTO 00000KT 10SM CLR 23/22 A3016 90 93 1100 000/00 RMK AO2 T02280217
63870K0J4 0J420160720024510707/20/16 02:45:31  5-MIN K0J4 200745Z AUTO 01003KT 10SM CLR 23/22 A3016 90 93 1100 010/03 RMK AO2 T02280217
63870K0J4 0J420160720025010707/20/16 02:50:31  5-MIN K0J4 200750Z AUTO 00000KT 10SM CLR 23/22 A3017 90 93 1100 000/00 RMK AO2 T02280217
63870K0J4 0J420160720025511407/20/16 02:55:31  5-MIN K0J4 200755Z AUTO 00000KT 10SM CLR 23/22 A3017 90 93 1100 000/00 RMK AO2 SLP211 T02280217
63870K0J4 0J420160720030010707/20/16 03:00:31  5-MIN K0J4 200800Z AUTO 00000KT 10SM CLR 22/21 A3017 90 93 1000 000/00 RMK AO2 T02220211
63870K0J4 0J420160720030510707/20/16 03:05:31  5-MIN K0J4 200805Z AUTO 00000KT 10SM CLR 22/21 A3017 90 93 1000 000/00 RMK AO2 T02220211
63870K0J4 0J420160720031010707/20/16 03:10:31  5-MIN K0J4 200810Z AUTO 00000KT 10SM CLR 22/21 A3016 90 93 1000 000/00 RMK AO2 T02220211
63870K0J4 0J420160720031510707/20/16 03:15:31  5-MIN K0J4 200815Z AUTO 00000KT 10SM CLR 22/21 A3017 90 93 1000 000/00 RMK AO2 T02220211
63870K0J4 0J420160720032010707/20/16 03:20:31  5-MIN K0J4 200820Z AUTO 00000KT 10SM CLR 22/22 A3017 90 97 1000 000/00 RMK AO2 T02220217
63870K0J4 0J420160720032510707/20/16 03:25:31  5-MIN K0J4 200825Z AUTO 00000KT 10SM CLR 23/22 A3016 90 93 1100 000/00 RMK AO2 T02280217
63870K0J4 0J420160720033010707/20/16 03:30:31  5-MIN K0J4 200830Z AUTO 00000KT 10SM CLR 23/22 A3016 90 93 1100 000/00 RMK AO2 T02280217
63870K0J4 0J420160720033510707/20/16 03:35:31  5-MIN K0J4 200835Z AUTO 00000KT 10SM CLR 22/22 A3016 90 97 1000 000/00 RMK AO2 T02220217
63870K0J4 0J420160720034010607/20/16 03:40:31  5-MIN K0J4 200840Z AUTO 00000KT 9SM CLR 22/22 A3016 90 97 1000 000/00 RMK AO2 T02220217
63870K0J4 0J420160720034510607/20/16 03:45:31  5-MIN K0J4 200845Z AUTO 00000KT 9SM CLR 23/22 A3016 90 93 1100 000/00 RMK AO2 T02280217
63870K0J4 0J420160720035010707/20/16 03:50:31  5-MIN K0J4 200850Z AUTO 00000KT 10SM CLR 22/21 A3016 90 93 1000 000/00 RMK AO2 T02220211
63870K0J4 0J420160720035512007/20/16 03:55:31  5-MIN K0J4 200855Z AUTO 00000KT 10SM CLR 22/21 A3016 90 93 1000 000/00 RMK AO2 SLP209 T02220211 58006
63870K0J4 0J420160720040010707/20/16 04:00:31  5-MIN K0J4 200900Z AUTO 00000KT 10SM CLR 22/21 A3017 90 93 1000 000/00 RMK AO2 T02220211
63870K0J4 0J420160720040510707/20/16 04:05:31  5-MIN K0J4 200905Z AUTO 00000KT 10SM CLR 22/21 A3016 90 93 1000 000/00 RMK AO2 T02220211
63870K0J4 0J420160720041010707/20/16 04:10:31  5-MIN K0J4 200910Z AUTO 00000KT 10SM CLR 22/21 A3017 90 93 1000 000/00 RMK AO2 T02220211
63870K0J4 0J420160720041510707/20/16 04:15:31  5-MIN K0J4 200915Z AUTO 00000KT 10SM CLR 22/21 A3017 90 93 1000 000/00 RMK AO2 T02220211
63870K0J4 0J420160720042010607/20/16 04:20:31  5-MIN K0J4 200920Z AUTO 00000KT 10SM CLR 22/21 A3016 90 93 900 000/00 RMK AO2 T02170206
63870K0J4 0J420160720042510707/20/16 04:25:31  5-MIN K0J4 200925Z AUTO 00000KT 10SM CLR 22/21 A3016 90 93 1000 000/00 RMK AO2 T02220211
63870K0J4 0J420160720043010707/20/16 04:30:31  5-MIN K0J4 200930Z AUTO 00000KT 10SM CLR 22/21 A3016 90 93 1000 000/00 RMK AO2 T02220211
63870K0J4 0J420160720043510707/20/16 04:35:31  5-MIN K0J4 200935Z AUTO 00000KT 10SM CLR 22/21 A3016 90 93 1000 000/00 RMK AO2 T02220211
63870K0J4 0J420160720044010707/20/16 04:40:31  5-MIN K0J4 200940Z AUTO 00000KT 10SM CLR 22/21 A3016 90 93 1000 000/00 RMK AO2 T02220211
63870K0J4 0J420160720044510707/20/16 04:45:31  5-MIN K0J4 200945Z AUTO 00000KT 10SM CLR 22/21 A3016 90 93 1000 000/00 RMK AO2 T02220211
63870K0J4 0J420160720045010707/20/16 04:50:31  5-MIN K0J4 200950Z AUTO 00000KT 10SM CLR 22/21 A3016 90 90 1000 000/00 RMK AO2 T02220206
63870K0J4 0J420160720045511307/20/16 04:55:31  5-MIN K0J4 200955Z AUTO 00000KT 10SM CLR 22/21 A3016 90 93 900 000/00 RMK AO2 SLP210 T02170206
63870K0J4 0J420160720050010707/20/16 05:00:31  5-MIN K0J4 201000Z AUTO 00000KT 10SM CLR 22/21 A3017 90 90 1000 000/00 RMK AO2 T02220206
63870K0J4 0J420160720050510707/20/16 05:05:31  5-MIN K0J4 201005Z AUTO 00000KT 10SM CLR 22/21 A3017 90 93 1000 000/00 RMK AO2 T02220211
63870K0J4 0J420160720051010707/20/16 05:10:31  5-MIN K0J4 201010Z AUTO 00000KT 10SM CLR 23/21 A3017 90 90 1100 000/00 RMK AO2 T02280211
63870K0J4 0J420160720051510707/20/16 05:15:31  5-MIN K0J4 201015Z AUTO 00000KT 10SM CLR 22/21 A3017 90 93 1000 000/00 RMK AO2 T02220211
63870K0J4 0J420160720052010707/20/16 05:20:31  5-MIN K0J4 201020Z AUTO 00000KT 10SM CLR 22/21 A3017 90 93 1000 000/00 RMK AO2 T02220211
63870K0J4 0J420160720052510707/20/16 05:25:31  5-MIN K0J4 201025Z AUTO 00000KT 10SM CLR 22/21 A3017 90 93 1000 000/00 RMK AO2 T02220211
63870K0J4 0J420160720053010707/20/16 05:30:31  5-MIN K0J4 201030Z AUTO 00000KT 10SM CLR 22/21 A3017 90 93 1000 000/00 RMK AO2 T02220211
63870K0J4 0J420160720053510707/20/16 05:35:31  5-MIN K0J4 201035Z AUTO 00000KT 10SM CLR 22/21 A3017 90 93 1000 000/00 RMK AO2 T02220211
63870K0J4 0J420160720054010707/20/16 05:40:31  5-MIN K0J4 201040Z AUTO 00000KT 10SM CLR 22/21 A3017 90 90 1000 000/00 RMK AO2 T02220206
63870K0J4 0J420160720054510607/20/16 05:45:31  5-MIN K0J4 201045Z AUTO 00000KT 10SM CLR 22/21 A3017 90 93 900 000/00 RMK AO2 T02170206
63870K0J4 0J420160720055010607/20/16 05:50:31  5-MIN K0J4 201050Z AUTO 00000KT 10SM CLR 22/21 A3017 90 93 900 000/00 RMK AO2 T02170206
63870K0J4 0J420160720055511307/20/16 05:55:31  5-MIN K0J4 201055Z AUTO 00000KT 10SM CLR 22/21 A3017 80 93 900 000/00 RMK AO2 SLP212 T02170206
63870K0J4 0J420160720060010707/20/16 06:00:31  5-MIN K0J4 201100Z AUTO 00000KT 10SM CLR 22/21 A3017 80 90 1000 000/00 RMK AO2 T02220206
63870K0J4 0J420160720060510707/20/16 06:05:31  5-MIN K0J4 201105Z AUTO 00000KT 10SM CLR 22/21 A3017 80 90 1000 000/00 RMK AO2 T02220206
63870K0J4 0J420160720061010607/20/16 06:10:31  5-MIN K0J4 201110Z AUTO 00000KT 10SM CLR 22/21 A3017 80 93 900 000/00 RMK AO2 T02170206
63870K0J4 0J420160720061510707/20/16 06:15:31  5-MIN K0J4 201115Z AUTO 00000KT 10SM CLR 22/21 A3017 80 90 1000 000/00 RMK AO2 T02220206
63870K0J4 0J420160720062010707/20/16 06:20:31  5-MIN K0J4 201120Z AUTO 00000KT 10SM CLR 22/21 A3017 80 93 1000 000/00 RMK AO2 T02220211
63870K0J4 0J420160720062510707/20/16 06:25:31  5-MIN K0J4 201125Z AUTO 00000KT 10SM CLR 22/21 A3018 80 93 1000 000/00 RMK AO2 T02220211
63870K0J4 0J420160720063010707/20/16 06:30:31  5-MIN K0J4 201130Z AUTO 00000KT 10SM CLR 22/21 A3018 80 93 1000 000/00 RMK AO2 T02220211
63870K0J4 0J420160720063510707/20/16 06:35:31  5-MIN K0J4 201135Z AUTO 00000KT 10SM CLR 23/22 A3018 80 93 1000 000/00 RMK AO2 T02280217
63870K0J4 0J420160720064010707/20/16 06:40:31  5-MIN K0J4 201140Z AUTO 00000KT 10SM CLR 23/22 A3018 80 93 1000 000/00 RMK AO2 T02280217
63870K0J4 0J420160720064510707/20/16 06:45:31  5-MIN K0J4 201145Z AUTO 00000KT 10SM CLR 23/22 A3018 80 90 1100 000/00 RMK AO2 T02330217
63870K0J4 0J420160720065010707/20/16 06:50:31  5-MIN K0J4 201150Z AUTO 00000KT 10SM CLR 24/22 A3018 80 90 1200 000/00 RMK AO2 T02390222
63870K0J4 0J420160720065513207/20/16 06:55:31  5-MIN K0J4 201155Z AUTO 00000KT 10SM CLR 24/22 A3018 70 90 1200 000/00 RMK AO2 SLP216 T02390222 10239 20217 56001
63870K0J4 0J420160720070010707/20/16 07:00:31  5-MIN K0J4 201200Z AUTO 00000KT 10SM CLR 24/23 A3018 70 90 1200 000/00 RMK AO2 T02440228
63870K0J4 0J420160720070510707/20/16 07:05:31  5-MIN K0J4 201205Z AUTO 00000KT 10SM CLR 24/22 A3019 70 87 1200 000/00 RMK AO2 T02440222
63870K0J4 0J420160720071010707/20/16 07:10:31  5-MIN K0J4 201210Z AUTO 00000KT 10SM CLR 24/22 A3019 70 87 1200 000/00 RMK AO2 T02440222
63870K0J4 0J420160720071510707/20/16 07:15:31  5-MIN K0J4 201215Z AUTO 00000KT 10SM CLR 25/23 A3019 70 87 1300 000/00 RMK AO2 T02500228
63870K0J4 0J420160720072010707/20/16 07:20:31  5-MIN K0J4 201220Z AUTO 00000KT 10SM CLR 25/23 A3019 70 87 1300 000/00 RMK AO2 T02500228
63870K0J4 0J420160720072510707/20/16 07:25:31  5-MIN K0J4 201225Z AUTO 00000KT 10SM CLR 26/23 A3019 70 84 1300 000/00 RMK AO2 T02560228
63870K0J4 0J420160720073010707/20/16 07:30:31  5-MIN K0J4 201230Z AUTO 00000KT 10SM CLR 26/23 A3019 70 84 1300 000/00 RMK AO2 T02560228
63870K0J4 0J420160720073510707/20/16 07:35:31  5-MIN K0J4 201235Z AUTO 04003KT 10SM CLR 26/23 A3019 70 81 1400 040/03 RMK AO2 T02610228
63870K0J4 0J420160720074010707/20/16 07:40:31  5-MIN K0J4 201240Z AUTO 00000KT 10SM CLR 26/23 A3019 60 81 1400 000/00 RMK AO2 T02610228
63870K0J4 0J420160720074510707/20/16 07:45:31  5-MIN K0J4 201245Z AUTO 00000KT 10SM CLR 27/23 A3019 60 79 1500 000/00 RMK AO2 T02670228
63870K0J4 0J420160720075010707/20/16 07:50:31  5-MIN K0J4 201250Z AUTO 00000KT 10SM CLR 27/23 A3020 60 76 1500 000/00 RMK AO2 T02720228
63870K0J4 0J420160720075511407/20/16 07:55:31  5-MIN K0J4 201255Z AUTO 00000KT 10SM CLR 27/23 A3020 60 76 1500 000/00 RMK AO2 SLP221 T02720228
63870K0J4 0J420160720080010707/20/16 08:00:31  5-MIN K0J4 201300Z AUTO 00000KT 10SM CLR 28/23 A3020 60 74 1600 000/00 RMK AO2 T02780228
63870K0J4 0J420160720080510707/20/16 08:05:31  5-MIN K0J4 201305Z AUTO 00000KT 10SM CLR 28/23 A3020 60 74 1600 000/00 RMK AO2 T02780228
63870K0J4 0J420160720081010707/20/16 08:10:31  5-MIN K0J4 201310Z AUTO 00000KT 10SM CLR 28/23 A3020 50 74 1600 000/00 RMK AO2 T02780228
63870K0J4 0J420160720081510707/20/16 08:15:31  5-MIN K0J4 201315Z AUTO 00000KT 10SM CLR 28/22 A3020 50 71 1600 000/00 RMK AO2 T02780222
63870K0J4 0J420160720082010707/20/16 08:20:31  5-MIN K0J4 201320Z AUTO 00000KT 10SM CLR 28/23 A3020 50 71 1600 000/00 RMK AO2 T02830228
63870K0J4 0J420160720082510707/20/16 08:25:31  5-MIN K0J4 201325Z AUTO 00000KT 10SM CLR 29/23 A3020 50 69 1700 000/00 RMK AO2 T02890228
63870K0J4 0J420160720083010707/20/16 08:30:31  5-MIN K0J4 201330Z AUTO 00000KT 10SM CLR 29/23 A3021 50 69 1700 000/00 RMK AO2 T02890228
63870K0J4 0J420160720083510707/20/16 08:35:31  5-MIN K0J4 201335Z AUTO 00000KT 10SM CLR 29/23 A3020 50 69 1700 000/00 RMK AO2 T02890228
63870K0J4 0J420160720084010707/20/16 08:40:31  5-MIN K0J4 201340Z AUTO 00000KT 10SM CLR 29/23 A3020 50 69 1800 000/00 RMK AO2 T02940233
63870K0J4 0J420160720084510707/20/16 08:45:31  5-MIN K0J4 201345Z AUTO 00000KT 10SM CLR 29/22 A3020 50 64 1800 000/00 RMK AO2 T02940222
63870K0J4 0J420160720085010707/20/16 08:50:31  5-MIN K0J4 201350Z AUTO 30003KT 10SM CLR 29/22 A3020 60 62 1800 300/03 RMK AO2 T02940217
63870K0J4 0J420160720085511407/20/16 08:55:31  5-MIN K0J4 201355Z AUTO 00000KT 10SM CLR 29/22 A3020 60 64 1800 000/00 RMK AO2 SLP223 T02940222
63870K0J4 0J420160720090010707/20/16 09:00:31  5-MIN K0J4 201400Z AUTO 00000KT 10SM CLR 30/22 A3020 60 62 1800 000/00 RMK AO2 T03000222
63870K0J4 0J420160720090510707/20/16 09:05:31  5-MIN K0J4 201405Z AUTO 06004KT 10SM CLR 31/22 A3020 50 56 2000 060/04 RMK AO2 T03110217
63870K0J4 0J420160720091010707/20/16 09:10:31  5-MIN K0J4 201410Z AUTO 04004KT 10SM CLR 31/21 A3021 50 56 1900 040/04 RMK AO2 T03060211
63870K0J4 0J420160720091510707/20/16 09:15:31  5-MIN K0J4 201415Z AUTO 00000KT 10SM CLR 31/21 A3021 50 56 1900 000/00 RMK AO2 T03060211
63870K0J4 0J420160720092010707/20/16 09:20:31  5-MIN K0J4 201420Z AUTO VRB03KT 10SM CLR 31/21 A3021 50 54 1900 VRB/03 RMK AO2 T03110211
63870K0J4 0J420160720092510707/20/16 09:25:31  5-MIN K0J4 201425Z AUTO 00000KT 10SM CLR 31/21 A3021 50 53 2000 000/00 RMK AO2 T03110206
63870K0J4 0J420160720093010707/20/16 09:30:31  5-MIN K0J4 201430Z AUTO 00000KT 10SM CLR 31/21 A3021 50 54 1900 000/00 RMK AO2 T03110211
63870K0J4 0J420160720093510707/20/16 09:35:31  5-MIN K0J4 201435Z AUTO VRB03KT 10SM CLR 32/21 A3021 50 53 2000 VRB/03 RMK AO2 T03170211
63870K0J4 0J420160720094010707/20/16 09:40:31  5-MIN K0J4 201440Z AUTO 07005KT 10SM CLR 31/22 A3020 50 56 2000 070/05 RMK AO2 T03110217
63870K0J4 0J420160720094510707/20/16 09:45:31  5-MIN K0J4 201445Z AUTO 06004KT 10SM CLR 31/22 A3021 50 56 1900 060/04 RMK AO2 T03110217
63870K0J4 0J420160720095010707/20/16 09:50:31  5-MIN K0J4 201450Z AUTO 00000KT 10SM CLR 31/22 A3021 50 56 1900 000/00 RMK AO2 T03110217
63870K0J4 0J420160720095512007/20/16 09:55:31  5-MIN K0J4 201455Z AUTO 10005KT 10SM CLR 31/22 A3021 50 56 1900 100/05 RMK AO2 SLP224 T03110217 53006
63870K0J4 0J420160720100010707/20/16 10:00:31  5-MIN K0J4 201500Z AUTO 12004KT 10SM CLR 31/22 A3021 50 58 1900 120/04 RMK AO2 T03110222
63870K0J4 0J420160720100510707/20/16 10:05:31  5-MIN K0J4 201505Z AUTO 14003KT 10SM CLR 31/22 A3021 50 58 1900 140/03 RMK AO2 T03110222
63870K0J4 0J420160720101010707/20/16 10:10:31  5-MIN K0J4 201510Z AUTO 07006KT 10SM CLR 32/22 A3021 50 56 2000 070/06 RMK AO2 T03170222
63870K0J4 0J420160720101510707/20/16 10:15:31  5-MIN K0J4 201515Z AUTO 09003KT 10SM CLR 32/22 A3021 50 55 2000 090/03 RMK AO2 T03170217
63870K0J4 0J420160720102010707/20/16 10:20:31  5-MIN K0J4 201520Z AUTO VRB03KT 10SM CLR 32/22 A3021 50 56 2000 VRB/03 RMK AO2 T03170222
63870K0J4 0J420160720102510707/20/16 10:25:31  5-MIN K0J4 201525Z AUTO 08005KT 10SM CLR 32/22 A3021 50 55 2100 080/05 RMK AO2 T03220222
63870K0J4 0J420160720103010707/20/16 10:30:31  5-MIN K0J4 201530Z AUTO 09006KT 10SM CLR 32/22 A3021 50 56 2000 090/06 RMK AO2 T03170222
63870K0J4 0J420160720103510707/20/16 10:35:31  5-MIN K0J4 201535Z AUTO 08005KT 10SM CLR 32/23 A3021 50 57 2100 080/05 RMK AO2 T03220228
63870K0J4 0J420160720104009707/20/16 10:40:31  5-MIN K0J4 201540Z AUTO 10SM CLR 32/23 A3021 50 57 2100 M /M RMK AO2 T03220228
63870K0J4 0J420160720104510707/20/16 10:45:31  5-MIN K0J4 201545Z AUTO 12005KT 10SM CLR 32/23 A3020 60 58 2000 120/05 RMK AO2 T03170228
63870K0J4 0J420160720105010707/20/16 10:50:31  5-MIN K0J4 201550Z AUTO 00000KT 10SM CLR 32/22 A3020 60 56 2000 000/00 RMK AO2 T03170222
63870K0J4 0J420160720105511407/20/16 10:55:31  5-MIN K0J4 201555Z AUTO 04005KT 10SM CLR 32/23 A3020 60 57 2100 040/05 RMK AO2 SLP223 T03220228
63870K0J4 0J420160720110010707/20/16 11:00:31  5-MIN K0J4 201600Z AUTO VRB03KT 10SM CLR 33/22 A3020 60 53 2100 VRB/03 RMK AO2 T03280222
63870K0J4 0J420160720110510707/20/16 11:05:31  5-MIN K0J4 201605Z AUTO 09007KT 10SM CLR 32/23 A3020 60 57 2100 090/07 RMK AO2 T03220228
63870K0J4 0J420160720111010707/20/16 11:10:31  5-MIN K0J4 201610Z AUTO 07005KT 10SM CLR 32/22 A3020 60 55 2100 070/05 RMK AO2 T03220222
63870K0J4 0J420160720111510707/20/16 11:15:31  5-MIN K0J4 201615Z AUTO 00000KT 10SM CLR 32/22 A3020 60 55 2100 000/00 RMK AO2 T03220222
63870K0J4 0J420160720112010707/20/16 11:20:31  5-MIN K0J4 201620Z AUTO VRB04KT 10SM CLR 32/22 A3020 60 55 2100 VRB/04 RMK AO2 T03220222
63870K0J4 0J420160720112510707/20/16 11:25:31  5-MIN K0J4 201625Z AUTO 11003KT 10SM CLR 33/23 A3020 60 55 2100 110/03 RMK AO2 T03280228
63870K0J4 0J420160720113010707/20/16 11:30:31  5-MIN K0J4 201630Z AUTO 02005KT 10SM CLR 33/22 A3020 60 53 2100 020/05 RMK AO2 T03280222
63870K0J4 0J420160720113510707/20/16 11:35:31  5-MIN K0J4 201635Z AUTO 06003KT 10SM CLR 32/22 A3020 60 55 2100 060/03 RMK AO2 T03220222
63870K0J4 0J420160720114010707/20/16 11:40:31  5-MIN K0J4 201640Z AUTO 32003KT 10SM CLR 33/22 A3020 60 53 2100 320/03 RMK AO2 T03280222
63870K0J4 0J420160720114509707/20/16 11:45:31  5-MIN K0J4 201645Z AUTO 10SM CLR 33/22 A3020 60 53 2100 M /M RMK AO2 T03280222
63870K0J4 0J420160720115009707/20/16 11:50:31  5-MIN K0J4 201650Z AUTO 10SM CLR 33/23 A3019 60 55 2200 M /M RMK AO2 T03330233
63870K0J4 0J420160720115511707/20/16 11:55:31  5-MIN K0J4 201655Z AUTO VRB04KT 10SM FEW042 33/23 A3019 60 53 2200 VRB/04 RMK AO2 SLP219 T03330228
63870K0J4 0J420160720120011007/20/16 12:00:31  5-MIN K0J4 201700Z AUTO 00000KT 10SM FEW040 33/23 A3019 70 53 2200 000/00 RMK AO2 T03330228
63870K0J4 0J420160720120511007/20/16 12:05:31  5-MIN K0J4 201705Z AUTO 04005KT 10SM FEW040 33/23 A3019 70 55 2100 040/05 RMK AO2 T03280228
63870K0J4 0J420160720121011007/20/16 12:10:31  5-MIN K0J4 201710Z AUTO 07005KT 10SM SCT040 33/23 A3019 70 55 2200 070/05 RMK AO2 T03280228
63870K0J4 0J420160720121511007/20/16 12:15:31  5-MIN K0J4 201715Z AUTO 00000KT 10SM BKN040 33/23 A3019 70 55 2200 000/00 RMK AO2 T03280228
63870K0J4 0J420160720122011007/20/16 12:20:31  5-MIN K0J4 201720Z AUTO VRB05KT 10SM BKN040 32/23 A3019 70 57 2100 VRB/05 RMK AO2 T03220228
63870K0J4 0J420160720122511707/20/16 12:25:31  5-MIN K0J4 201725Z AUTO 36004KT 10SM BKN040 BKN055 32/23 A3019 70 57 2100 360/04 RMK AO2 T03220228
63870K0J4 0J420160720123011707/20/16 12:30:31  5-MIN K0J4 201730Z AUTO 01004KT 10SM BKN039 BKN055 32/23 A3018 70 57 2100 010/04 RMK AO2 T03220228
63870K0J4 0J420160720123511707/20/16 12:35:31  5-MIN K0J4 201735Z AUTO 00000KT 10SM SCT039 BKN055 33/23 A3018 80 55 2200 000/00 RMK AO2 T03280228
63870K0J4 0J420160720124011007/20/16 12:40:31  5-MIN K0J4 201740Z AUTO 00000KT 10SM SCT038 32/23 A3018 80 57 2100 000/00 RMK AO2 T03220228
63870K0J4 0J420160720124511007/20/16 12:45:31  5-MIN K0J4 201745Z AUTO 00000KT 10SM FEW038 34/24 A3018 80 55 2300 000/00 RMK AO2 T03390239
63870K0J4 0J420160720125011007/20/16 12:50:31  5-MIN K0J4 201750Z AUTO 00000KT 10SM FEW038 34/23 A3017 80 51 2300 000/00 RMK AO2 T03390228
63870K0J4 0J420160720125513207/20/16 12:55:31  5-MIN K0J4 201755Z AUTO 00000KT 10SM CLR 34/23 A3017 90 51 2300 000/00 RMK AO2 SLP211 T03390228 10339 20244 51008
63870K0J4 0J420160720130011007/20/16 13:00:31  5-MIN K0J4 201800Z AUTO 03004KT 10SM FEW050 34/23 A3017 90 52 2400 030/04 RMK AO2 T03440233
63870K0J4 0J420160720130511007/20/16 13:05:31  5-MIN K0J4 201805Z AUTO 00000KT 10SM FEW050 34/23 A3016 90 51 2300 000/00 RMK AO2 T03390228
63870K0J4 0J420160720131011107/20/16 13:10:31  5-MIN K0J4 201810Z AUTO 11005KT 10SM SCT055 34/23 A3016 100 53 2300 110/05 RMK AO2 T03390233
63870K0J4 0J420160720131512507/20/16 13:15:31  5-MIN K0J4 201815Z AUTO 09004KT 10SM FEW040 SCT047 BKN060 33/23 A3016 100 55 2200 090/04 RMK AO2 T03330233
63870K0J4 0J420160720132012507/20/16 13:20:31  5-MIN K0J4 201820Z AUTO 00000KT 10SM FEW040 SCT047 SCT060 34/23 A3016 100 53 2300 000/00 RMK AO2 T03390233
63870K0J4 0J420160720132512507/20/16 13:25:31  5-MIN K0J4 201825Z AUTO VRB03KT 10SM FEW040 FEW047 SCT060 33/23 A3015 100 53 2300 VRB/03 RMK AO2 T03330228
63870K0J4 0J420160720133011807/20/16 13:30:31  5-MIN K0J4 201830Z AUTO 00000KT 10SM FEW042 SCT060 33/23 A3015 100 53 2300 000/00 RMK AO2 T03330228
63870K0J4 0J420160720133511807/20/16 13:35:31  5-MIN K0J4 201835Z AUTO 08005KT 10SM SCT042 BKN060 33/23 A3015 100 53 2300 080/05 RMK AO2 T03330228
63870K0J4 0J420160720134011107/20/16 13:40:31  5-MIN K0J4 201840Z AUTO 00000KT 10SM SCT042 34/23 A3015 110 50 2400 000/00 RMK AO2 T03440228
63870K0J4 0J420160720134511807/20/16 13:45:31  5-MIN K0J4 201845Z AUTO VRB03KT 10SM FEW043 FEW055 34/23 A3015 110 51 2300 VRB/03 RMK AO2 T03390228
63870K0J4 0J420160720135011807/20/16 13:50:31  5-MIN K0J4 201850Z AUTO VRB03KT 10SM FEW047 SCT055 34/22 A3014 110 50 2300 VRB/03 RMK AO2 T03390222
63870K0J4 0J420160720135512507/20/16 13:55:31  5-MIN K0J4 201855Z AUTO 03007KT 10SM FEW047 SCT055 34/23 A3014 110 50 2400 030/07 RMK AO2 SLP200 T03440228
63870K0J4 0J420160720140011807/20/16 14:00:31  5-MIN K0J4 201900Z AUTO 01004KT 10SM FEW050 SCT060 34/23 A3014 120 50 2400 010/04 RMK AO2 T03440228
63870K0J4 0J420160720140511107/20/16 14:05:31  5-MIN K0J4 201905Z AUTO 00000KT 10SM FEW055 35/23 A3014 120 50 2500 000/00 RMK AO2 T03500233
63870K0J4 0J420160720141010807/20/16 14:10:31  5-MIN K0J4 201910Z AUTO 10SM FEW055 SCT080 34/23 A3014 120 50 2400 M /M RMK AO2 T03440228
63870K0J4 0J420160720141511807/20/16 14:15:31  5-MIN K0J4 201915Z AUTO 03006KT 10SM FEW055 BKN075 34/23 A3014 120 51 2300 030/06 RMK AO2 T03390228
63870K0J4 0J420160720142011807/20/16 14:20:31  5-MIN K0J4 201920Z AUTO VRB05KT 10SM FEW060 SCT075 33/23 A3013 120 53 2300 VRB/05 RMK AO2 T03330228
63870K0J4 0J420160720142511807/20/16 14:25:31  5-MIN K0J4 201925Z AUTO 03004KT 10SM FEW060 SCT075 34/23 A3013 120 51 2300 030/04 RMK AO2 T03390228
63870K0J4 0J420160720143011107/20/16 14:30:31  5-MIN K0J4 201930Z AUTO 00000KT 10SM FEW070 34/23 A3013 120 53 2300 000/00 RMK AO2 T03390233
63870K0J4 0J420160720143511107/20/16 14:35:31  5-MIN K0J4 201935Z AUTO VRB03KT 10SM FEW070 34/23 A3013 120 50 2400 VRB/03 RMK AO2 T03440228
63870K0J4 0J420160720144011107/20/16 14:40:31  5-MIN K0J4 201940Z AUTO 00000KT 10SM FEW070 34/23 A3013 120 50 2400 000/00 RMK AO2 T03440228
63870K0J4 0J420160720144510807/20/16 14:45:31  5-MIN K0J4 201945Z AUTO 00000KT 10SM CLR 34/22 A3013 120 48 2400 000/00 RMK AO2 T03440222
63870K0J4 0J420160720145010807/20/16 14:50:31  5-MIN K0J4 201950Z AUTO 00000KT 10SM CLR 34/22 A3013 130 50 2300 000/00 RMK AO2 T03390222
63870K0J4 0J420160720145511507/20/16 14:55:31  5-MIN K0J4 201955Z AUTO 00000KT 10SM CLR 34/23 A3013 130 50 2400 000/00 RMK AO2 SLP196 T03440228
63870K0J4 0J420160720150011107/20/16 15:00:31  5-MIN K0J4 202000Z AUTO VRB03KT 10SM FEW045 34/23 A3013 120 51 2300 VRB/03 RMK AO2 T03390228
63870K0J4 0J420160720150511107/20/16 15:05:31  5-MIN K0J4 202005Z AUTO 08004KT 10SM FEW045 34/22 A3012 130 50 2300 080/04 RMK AO2 T03390222
63870K0J4 0J420160720151011807/20/16 15:10:31  5-MIN K0J4 202010Z AUTO 02003KT 10SM FEW046 FEW060 34/22 A3012 130 48 2400 020/03 RMK AO2 T03440222
63870K0J4 0J420160720151511807/20/16 15:15:31  5-MIN K0J4 202015Z AUTO 03005KT 10SM FEW046 FEW060 35/22 A3012 130 47 2500 030/05 RMK AO2 T03500222
63870K0J4 0J420160720152010807/20/16 15:20:31  5-MIN K0J4 202020Z AUTO 35004KT 10SM CLR 34/23 A3012 130 50 2400 350/04 RMK AO2 T03440228
63870K0J4 0J420160720152511307/20/16 15:25:31  5-MIN K0J4 202025Z AUTO 00000KT 10SM VCTS CLR 34/22 A3012 130 48 2400 000/00 RMK AO2 T03440222
63870K0J4 0J420160720153011307/20/16 15:30:31  5-MIN K0J4 202030Z AUTO 00000KT 10SM VCTS CLR 35/23 A3012 130 48 2500 000/00 RMK AO2 T03500228
63870K0J4 0J420160720153511307/20/16 15:35:31  5-MIN K0J4 202035Z AUTO 02006KT 10SM VCTS CLR 35/22 A3012 140 47 2500 020/06 RMK AO2 T03500222
63870K0J4 0J420160720154011307/20/16 15:40:31  5-MIN K0J4 202040Z AUTO VRB04KT 10SM VCTS CLR 35/22 A3012 140 45 2500 VRB/04 RMK AO2 T03500217
63870K0J4 0J420160720154511307/20/16 15:45:31  5-MIN K0J4 202045Z AUTO 00000KT 10SM VCTS CLR 35/22 A3011 140 45 2500 000/00 RMK AO2 T03500217
63870K0J4 0J420160720155010807/20/16 15:50:31  5-MIN K0J4 202050Z AUTO 15003KT 10SM CLR 34/21 A3011 140 45 2400 150/03 RMK AO2 T03390206
63870K0J4 0J420160720155512107/20/16 15:55:31  5-MIN K0J4 202055Z AUTO VRB03KT 10SM CLR 34/21 A3011 150 46 2400 VRB/03 RMK AO2 SLP190 T03390211 58014
63870K0J4 0J420160720160010807/20/16 16:00:31  5-MIN K0J4 202100Z AUTO 02007KT 10SM CLR 33/22 A3011 140 51 2300 020/07 RMK AO2 T03330222
63870K0J4 0J420160720160511607/20/16 16:05:31  5-MIN K0J4 202105Z AUTO 36006KT 10SM VCTS FEW050 34/23 A3011 140 51 2400 360/06 RMK AO2 T03390228
63870K0J4 0J420160720161011607/20/16 16:10:31  5-MIN K0J4 202110Z AUTO 01006KT 10SM VCTS FEW050 34/23 A3011 140 51 2400 010/06 RMK AO2 T03390228
63870K0J4 0J420160720161511607/20/16 16:15:31  5-MIN K0J4 202115Z AUTO 35003KT 10SM VCTS FEW050 34/23 A3010 150 51 2400 350/03 RMK AO2 T03390228
63870K0J4 0J420160720162011107/20/16 16:20:31  5-MIN K0J4 202120Z AUTO VRB04KT 10SM FEW050 34/23 A3010 150 51 2400 VRB/04 RMK AO2 T03390228
63870K0J4 0J420160720162511107/20/16 16:25:31  5-MIN K0J4 202125Z AUTO 35004KT 10SM FEW050 34/22 A3010 150 46 2400 350/04 RMK AO2 T03440217
63870K0J4 0J420160720163011107/20/16 16:30:31  5-MIN K0J4 202130Z AUTO VRB03KT 10SM FEW050 34/22 A3010 150 48 2400 VRB/03 RMK AO2 T03390217
63870K0J4 0J420160720163510807/20/16 16:35:31  5-MIN K0J4 202135Z AUTO 36005KT 10SM CLR 33/23 A3010 150 53 2300 360/05 RMK AO2 T03330228
63870K0J4 0J420160720164010807/20/16 16:40:31  5-MIN K0J4 202140Z AUTO 36004KT 10SM CLR 33/23 A3010 150 55 2300 360/04 RMK AO2 T03280228
63870K0J4 0J420160720164510807/20/16 16:45:31  5-MIN K0J4 202145Z AUTO VRB03KT 10SM CLR 33/23 A3010 150 57 2300 VRB/03 RMK AO2 T03280233
63870K0J4 0J420160720165010807/20/16 16:50:31  5-MIN K0J4 202150Z AUTO VRB03KT 10SM CLR 33/23 A3010 150 57 2300 VRB/03 RMK AO2 T03280233
63870K0J4 0J420160720165511507/20/16 16:55:31  5-MIN K0J4 202155Z AUTO VRB03KT 10SM CLR 33/23 A3010 150 55 2300 VRB/03 RMK AO2 SLP188 T03280228
63870K0J4 0J420160720170010807/20/16 17:00:31  5-MIN K0J4 202200Z AUTO 00000KT 10SM CLR 33/23 A3010 150 57 2300 000/00 RMK AO2 T03280233
63870K0J4 0J420160720170510807/20/16 17:05:31  5-MIN K0J4 202205Z AUTO 00000KT 10SM CLR 33/24 A3009 160 57 2300 000/00 RMK AO2 T03330239
63870K0J4 0J420160720171010807/20/16 17:10:31  5-MIN K0J4 202210Z AUTO 31003KT 10SM CLR 33/24 A3010 150 57 2300 310/03 RMK AO2 T03330239
63870K0J4 0J420160720171510807/20/16 17:15:31  5-MIN K0J4 202215Z AUTO 00000KT 10SM CLR 33/24 A3009 160 57 2300 000/00 RMK AO2 T03330239
63870K0J4 0J420160720172010807/20/16 17:20:31  5-MIN K0J4 202220Z AUTO 00000KT 10SM CLR 33/24 A3009 160 57 2300 000/00 RMK AO2 T03330239
63870K0J4 0J420160720172510807/20/16 17:25:31  5-MIN K0J4 202225Z AUTO 00000KT 10SM CLR 33/23 A3009 160 55 2300 000/00 RMK AO2 T03330233
63870K0J4 0J420160720173010807/20/16 17:30:31  5-MIN K0J4 202230Z AUTO 00000KT 10SM CLR 33/23 A3009 160 55 2300 000/00 RMK AO2 T03330233
63870K0J4 0J420160720173510807/20/16 17:35:31  5-MIN K0J4 202235Z AUTO 22004KT 10SM CLR 33/23 A3009 160 55 2300 220/04 RMK AO2 T03330233
63870K0J4 0J420160720174010807/20/16 17:40:31  5-MIN K0J4 202240Z AUTO VRB03KT 10SM CLR 33/23 A3009 160 57 2300 VRB/03 RMK AO2 T03280233
63870K0J4 0J420160720174510807/20/16 17:45:31  5-MIN K0J4 202245Z AUTO 00000KT 10SM CLR 33/23 A3009 160 55 2300 000/00 RMK AO2 T03330233
63870K0J4 0J420160720175010807/20/16 17:50:31  5-MIN K0J4 202250Z AUTO 00000KT 10SM CLR 33/23 A3009 160 55 2300 000/00 RMK AO2 T03330233
63870K0J4 0J420160720175511507/20/16 17:55:31  5-MIN K0J4 202255Z AUTO 00000KT 10SM CLR 33/23 A3009 160 55 2300 000/00 RMK AO2 SLP185 T03330233
63870K0J4 0J420160720180010807/20/16 18:00:31  5-MIN K0J4 202300Z AUTO 00000KT 10SM CLR 33/23 A3009 160 53 2300 000/00 RMK AO2 T03330228
63870K0J4 0J420160720180510807/20/16 18:05:31  5-MIN K0J4 202305Z AUTO 00000KT 10SM CLR 33/23 A3009 160 55 2300 000/00 RMK AO2 T03330233
63870K0J4 0J420160720181010807/20/16 18:10:31  5-MIN K0J4 202310Z AUTO 00000KT 10SM CLR 33/24 A3010 150 59 2300 000/00 RMK AO2 T03280239
63870K0J4 0J420160720181510807/20/16 18:15:31  5-MIN K0J4 202315Z AUTO 00000KT 10SM CLR 33/24 A3010 150 59 2300 000/00 RMK AO2 T03280239
63870K0J4 0J420160720182011107/20/16 18:20:31  5-MIN K0J4 202320Z AUTO VRB03KT 10SM FEW060 33/23 A3009 160 57 2300 VRB/03 RMK AO2 T03280233
63870K0J4 0J420160720182511107/20/16 18:25:31  5-MIN K0J4 202325Z AUTO 00000KT 10SM SCT060 32/23 A3010 150 57 2200 000/00 RMK AO2 T03220228
63870K0J4 0J420160720183011107/20/16 18:30:31  5-MIN K0J4 202330Z AUTO 00000KT 10SM BKN060 32/23 A3009 160 59 2200 000/00 RMK AO2 T03220233
63870K0J4 0J420160720183511107/20/16 18:35:31  5-MIN K0J4 202335Z AUTO 00000KT 10SM BKN060 32/23 A3009 160 61 2100 000/00 RMK AO2 T03170233
63870K0J4 0J420160720184011107/20/16 18:40:31  5-MIN K0J4 202340Z AUTO 00000KT 10SM SCT060 31/24 A3010 150 65 2100 000/00 RMK AO2 T03110239
63870K0J4 0J420160720184511107/20/16 18:45:31  5-MIN K0J4 202345Z AUTO 00000KT 10SM SCT060 31/24 A3010 150 67 2000 000/00 RMK AO2 T03060239
63870K0J4 0J420160720185011107/20/16 18:50:31  5-MIN K0J4 202350Z AUTO 00000KT 10SM SCT060 31/24 A3010 150 67 2000 000/00 RMK AO2 T03060239
63870K0J4 0J420160720185513607/20/16 18:55:31  5-MIN K0J4 202355Z AUTO 00000KT 10SM FEW055 30/24 A3010 150 72 1900 000/00 RMK AO2 SLP189 T03000244 10350 20300 56020
63870K0J4 0J420160720190012107/20/16 19:00:31  5-MIN K0J4 210000Z AUTO 00000KT 10SM TS FEW055 SCT070 30/24 A3010 150 72 1900 000/00 RMK AO2 T03000244
63870K0J4 0J420160720190512107/20/16 19:05:31  5-MIN K0J4 210005Z AUTO 00000KT 10SM TS FEW055 SCT070 30/24 A3010 150 72 1900 000/00 RMK AO2 T03000244
63870K0J4 0J420160720191012407/20/16 19:10:31  5-MIN K0J4 210010Z AUTO 20009KT 10SM FEW055 FEW070 30/24 A3011 140 69 1900 200/09 RMK AO2 TSE10 T03000239
63870K0J4 0J420160720191512407/20/16 19:15:31  5-MIN K0J4 210015Z AUTO 22010KT 10SM FEW055 FEW070 31/24 A3011 140 67 2000 220/10 RMK AO2 TSE10 T03060239
63870K0J4 0J420160720192512407/20/16 19:25:31  5-MIN K0J4 210025Z AUTO 22007KT 10SM FEW055 FEW070 29/23 A3011 140 67 1900 220/07 RMK AO2 TSE10 T02940228
63870K0J4 0J420160720193012007/20/16 19:30:31  5-MIN K0J4 210030Z AUTO 22009G16KT 10SM CLR 29/23 A3012 130 67 1900 220/09G16 RMK AO2 TSE10 T02940228
63870K0J4 0J420160720193512907/20/16 19:35:31  5-MIN K0J4 210035Z AUTO 22008G16KT 10SM TS FEW055 29/22 A3012 130 67 1800 220/08G16 RMK AO2 TSE10B35 T02890222
63870K0J4 0J420160720194012307/20/16 19:40:31  5-MIN K0J4 210040Z AUTO 22007KT 10SM TS SCT055 29/22 A3012 130 67 1800 220/07 RMK AO2 TSE10B35 T02890222
63870K0J4 0J420160720194512307/20/16 19:45:31  5-MIN K0J4 210045Z AUTO 22006KT 10SM TS BKN055 29/22 A3012 130 67 1800 220/06 RMK AO2 TSE10B35 T02890222
63870K0J4 0J420160720195012307/20/16 19:50:31  5-MIN K0J4 210050Z AUTO VRB05KT 10SM TS BKN050 29/23 A3013 120 69 1800 VRB/05 RMK AO2 TSE10B35 T02890228
63870K0J4 0J420160720195513007/20/16 19:55:31  5-MIN K0J4 210055Z AUTO 12004KT 10SM TS BKN050 28/23 A3014 110 71 1700 120/04 RMK AO2 TSE10B35 SLP201 T02830228
63870K0J4 0J420160720200011407/20/16 20:00:31  5-MIN K0J4 210100Z AUTO 13005KT 10SM TS OVC050 28/23 A3014 110 71 1700 130/05 RMK AO2 T02830228
63870K0J4 0J420160720200512107/20/16 20:05:31  5-MIN K0J4 210105Z AUTO 15006KT 10SM TS BKN055 OVC075 28/22 A3015 110 71 1600 150/06 RMK AO2 T02780222
63870K0J4 0J420160720201012107/20/16 20:10:31  5-MIN K0J4 210110Z AUTO 14005KT 10SM TS BKN055 OVC080 27/21 A3014 110 69 1600 140/05 RMK AO2 T02720211
63870K0J4 0J420160720201512107/20/16 20:15:31  5-MIN K0J4 210115Z AUTO 17005KT 10SM TS BKN055 OVC080 27/22 A3015 100 73 1500 170/05 RMK AO2 T02670217
63870K0J4 0J420160720202012807/20/16 20:20:31  5-MIN K0J4 210120Z AUTO 11004KT 10SM TS SCT045 BKN055 OVC075 27/22 A3016 100 76 1500 110/04 RMK AO2 T02670222
63870K0J4 0J420160720202514207/20/16 20:25:31  5-MIN K0J4 210125Z AUTO 08005KT 10SM -TSRA BKN045 BKN055 OVC075 27/23 A3016 90 79 1500 080/05 RMK AO2 RAB24 P0000 T02670228
63870K0J4 0J420160720203014207/20/16 20:30:31  5-MIN K0J4 210130Z AUTO 05011KT 10SM -TSRA BKN045 OVC080 26/23 A3017 80 81 1400 050/11 RMK AO2 RAB24 PRESRR P0000 T02610228
63870K0J4 0J420160720203513407/20/16 20:35:31  5-MIN K0J4 210135Z AUTO 03004KT 10SM TSRA BKN046 OVC060 26/22 A3017 90 81 1400 030/04 RMK AO2 RAB24 P0001 T02560222
63870K0J4 0J420160720204014007/20/16 20:40:31  5-MIN K0J4 210140Z AUTO 04010KT 8SM TSRA BKN046 OVC060 24/22 A3018 80 84 1200 040/10 RMK AO2 RAB24 PRESRR P0002 T02440217
63870K0J4 0J420160720204513407/20/16 20:45:31  5-MIN K0J4 210145Z AUTO 36008KT 4SM +TSRA BKN044 OVC060 24/21 A3018 70 84 1200 360/08 RMK AO2 RAB24 P0011 T02390211
63870K0J4 0J420160720205014807/20/16 20:50:31  5-MIN K0J4 210150Z AUTO 33005KT 1 1/4SM +TSRA BR BKN030 BKN046 OVC060 23/21 A3017 90 87 1100 330/05 RMK AO2 RAB24 P0027 T02330211
63870K0J4 0J420160720205514407/20/16 20:55:31  5-MIN K0J4 210155Z AUTO 34006KT 1SM +TSRA BR BKN032 OVC060 23/22 A3016 90 93 1100 340/06 RMK AO2 RAB24 SLP209 P0038 T02280217
63870K0J4 0J420160720210014207/20/16 21:00:31  5-MIN K0J4 210200Z AUTO 36007KT 1 3/4SM +TSRA BR BKN036 BKN060 OVC095 23/22 A3017 90 93 1100 360/07 RMK AO2 P0001 T02280217
63870K0J4 0J420160720210513707/20/16 21:05:31  5-MIN K0J4 210205Z AUTO 36009KT 3SM TSRA BR SCT036 BKN070 OVC110 23/21 A3016 90 90 1100 360/09 RMK AO2 P0002 T02280211
63870K0J4 0J420160720211013207/20/16 21:10:31  5-MIN K0J4 210210Z AUTO 35006KT 6SM -TSRA BR SCT034 BKN110 23/21 A3016 100 90 1100 350/06 RMK AO2 P0002 T02280211
63870K0J4 0J420160720211514107/20/16 21:15:31  5-MIN K0J4 210215Z AUTO VRB03KT 10SM -RA SCT030 SCT100 BKN120 23/21 A3015 100 90 1100 VRB/03 RMK AO2 TSE11 P0002 T02280211
63870K0J4 0J420160720212014107/20/16 21:20:31  5-MIN K0J4 210220Z AUTO 00000KT 10SM -RA FEW040 SCT095 BKN120 23/21 A3015 100 90 1100 000/00 RMK AO2 TSE11 P0002 T02280211
63870K0J4 0J420160720212513407/20/16 21:25:31  5-MIN K0J4 210225Z AUTO 22004KT 10SM -RA SCT095 BKN120 23/22 A3015 100 90 1100 220/04 RMK AO2 TSE11 P0002 T02330217
63870K0J4 0J420160720213013607/20/16 21:30:31  5-MIN K0J4 210230Z AUTO 22003KT 10SM FEW085 BKN110 23/22 A3015 100 93 1100 220/03 RMK AO2 RAE29 TSE11 P0002 T02280217
63870K0J4 0J420160720213513607/20/16 21:35:31  5-MIN K0J4 210235Z AUTO 21004KT 10SM FEW085 SCT120 23/22 A3016 100 93 1100 210/04 RMK AO2 RAE29 TSE11 P0002 T02280217
63870K0J4 0J420160720214013607/20/16 21:40:31  5-MIN K0J4 210240Z AUTO 00000KT 10SM FEW090 FEW120 23/22 A3016 100 93 1100 000/00 RMK AO2 RAE29 TSE11 P0002 T02280217
63870K0J4 0J420160720214513507/20/16 21:45:31  5-MIN K0J4 210245Z AUTO 00000KT 10SM FEW090 FEW110 23/22 A3016 90 93 1100 000/00 RMK AO2 RAE29 TSE11 P0002 T02280217
63870K0J4 0J420160720215012907/20/16 21:50:31  5-MIN K0J4 210250Z AUTO 21003KT 10SM FEW085 23/22 A3016 100 93 1100 210/03 RMK AO2 RAE29 TSE11 P0002 T02280217
63870K0J4 0J420160720215514507/20/16 21:55:31  5-MIN K0J4 210255Z AUTO 00000KT 10SM CLR 23/22 A3015 100 90 1100 000/00 RMK AO2 RAE29 TSE11 SLP206 P0002 60043 T02330217 55000
63870K0J4 0J420160720220011107/20/16 22:00:31  5-MIN K0J4 210300Z AUTO 00000KT 10SM FEW060 23/22 A3015 100 93 1100 000/00 RMK AO2 T02280217
63870K0J4 0J420160720220511107/20/16 22:05:31  5-MIN K0J4 210305Z AUTO 22003KT 10SM SCT060 23/22 A3016 100 93 1100 220/03 RMK AO2 T02330222
63870K0J4 0J420160720221011007/20/16 22:10:31  5-MIN K0J4 210310Z AUTO 20003KT 10SM SCT055 23/22 A3016 90 93 1100 200/03 RMK AO2 T02330222
63870K0J4 0J420160720221511007/20/16 22:15:31  5-MIN K0J4 210315Z AUTO 00000KT 10SM SCT055 23/22 A3016 90 93 1100 000/00 RMK AO2 T02330222
63870K0J4 0J420160720222011007/20/16 22:20:31  5-MIN K0J4 210320Z AUTO 00000KT 10SM SCT055 23/22 A3016 90 93 1100 000/00 RMK AO2 T02330222
63870K0J4 0J420160720222511107/20/16 22:25:31  5-MIN K0J4 210325Z AUTO 00000KT 10SM BKN055 23/22 A3016 100 93 1100 000/00 RMK AO2 T02330222
63870K0J4 0J420160720223011107/20/16 22:30:31  5-MIN K0J4 210330Z AUTO 20004KT 10SM BKN055 24/23 A3015 100 93 1200 200/04 RMK AO2 T02390228
63870K0J4 0J420160720223511107/20/16 22:35:31  5-MIN K0J4 210335Z AUTO 00000KT 10SM SCT055 24/23 A3015 100 93 1200 000/00 RMK AO2 T02390228
63870K0J4 0J420160720224011107/20/16 22:40:31  5-MIN K0J4 210340Z AUTO 00000KT 10SM SCT055 24/23 A3016 100 93 1200 000/00 RMK AO2 T02390228
63870K0J4 0J420160720224511107/20/16 22:45:31  5-MIN K0J4 210345Z AUTO 00000KT 10SM BKN055 24/23 A3016 100 93 1200 000/00 RMK AO2 T02390228
63870K0J4 0J420160720225011107/20/16 22:50:31  5-MIN K0J4 210350Z AUTO 02006KT 10SM BKN055 24/23 A3016 100 93 1200 020/06 RMK AO2 T02390228
63870K0J4 0J420160720225511807/20/16 22:55:31  5-MIN K0J4 210355Z AUTO 06003KT 10SM BKN055 23/22 A3016 100 93 1100 060/03 RMK AO2 SLP207 T02330222
63870K0J4 0J420160720230011107/20/16 23:00:31  5-MIN K0J4 210400Z AUTO 05004KT 10SM SCT055 23/23 A3016 100 97 1100 050/04 RMK AO2 T02330228
63870K0J4 0J420160720230511107/20/16 23:05:31  5-MIN K0J4 210405Z AUTO 00000KT 10SM SCT055 23/22 A3016 100 93 1100 000/00 RMK AO2 T02330222
63870K0J4 0J420160720231011107/20/16 23:10:31  5-MIN K0J4 210410Z AUTO 00000KT 10SM FEW055 23/22 A3016 100 93 1100 000/00 RMK AO2 T02330222
63870K0J4 0J420160720231511107/20/16 23:15:31  5-MIN K0J4 210415Z AUTO 00000KT 10SM FEW055 23/22 A3016 100 93 1100 000/00 RMK AO2 T02330222
63870K0J4 0J420160720232011107/20/16 23:20:31  5-MIN K0J4 210420Z AUTO 00000KT 10SM FEW055 23/22 A3016 100 93 1100 000/00 RMK AO2 T02330222
63870K0J4 0J420160720232510807/20/16 23:25:31  5-MIN K0J4 210425Z AUTO 00000KT 10SM CLR 24/23 A3015 100 93 1200 000/00 RMK AO2 T02390228
63870K0J4 0J420160720233010807/20/16 23:30:31  5-MIN K0J4 210430Z AUTO 00000KT 10SM CLR 23/23 A3015 100 97 1100 000/00 RMK AO2 T02330228
63870K0J4 0J420160720233510807/20/16 23:35:31  5-MIN K0J4 210435Z AUTO 00000KT 10SM CLR 24/23 A3016 100 93 1200 000/00 RMK AO2 T02390228
63870K0J4 0J420160720234010807/20/16 23:40:31  5-MIN K0J4 210440Z AUTO 00000KT 10SM CLR 24/23 A3016 100 93 1200 000/00 RMK AO2 T02390228
63870K0J4 0J420160720234510807/20/16 23:45:31  5-MIN K0J4 210445Z AUTO 00000KT 10SM CLR 24/23 A3015 100 93 1200 000/00 RMK AO2 T02390228
63870K0J4 0J420160720235010807/20/16 23:50:31  5-MIN K0J4 210450Z AUTO 00000KT 10SM CLR 24/23 A3015 100 93 1200 000/00 RMK AO2 T02390228
63870K0J4 0J420160720235512507/20/16 23:55:31  5-MIN K0J4 210455Z AUTO 00000KT 10SM CLR 24/23 A3015 110 93 1200 000/00 RMK AO2 SLP204 T02390228 403500217
63870K0J4 0J420160721000010707/21/16 00:00:31  5-MIN K0J4 210500Z AUTO 00000KT 9SM CLR 24/23 A3015 110 93 1200 000/00 RMK AO2 T02390228
63870K0J4 0J420160721000510707/21/16 00:05:31  5-MIN K0J4 210505Z AUTO 00000KT 9SM CLR 24/23 A3015 110 93 1200 000/00 RMK AO2 T02390228
63870K0J4 0J420160721001010707/21/16 00:10:31  5-MIN K0J4 210510Z AUTO 00000KT 8SM CLR 24/23 A3015 110 93 1200 000/00 RMK AO2 T02390228
63870K0J4 0J420160721001510707/21/16 00:15:31  5-MIN K0J4 210515Z AUTO 00000KT 9SM CLR 24/23 A3015 110 93 1200 000/00 RMK AO2 T02390228
63870K0J4 0J420160721002010807/21/16 00:20:31  5-MIN K0J4 210520Z AUTO 00000KT 10SM CLR 24/23 A3015 110 93 1200 000/00 RMK AO2 T02390228
63870K0J4 0J420160721002510807/21/16 00:25:31  5-MIN K0J4 210525Z AUTO 00000KT 10SM CLR 24/23 A3015 110 93 1200 000/00 RMK AO2 T02390228
63870K0J4 0J420160721003010707/21/16 00:30:31  5-MIN K0J4 210530Z AUTO 00000KT 9SM CLR 24/23 A3014 110 93 1200 000/00 RMK AO2 T02390228
63870K0J4 0J420160721003510707/21/16 00:35:31  5-MIN K0J4 210535Z AUTO 00000KT 8SM CLR 24/23 A3014 110 93 1200 000/00 RMK AO2 T02390228
63870K0J4 0J420160721004010707/21/16 00:40:31  5-MIN K0J4 210540Z AUTO 00000KT 8SM CLR 24/23 A3014 120 93 1200 000/00 RMK AO2 T02390228
63870K0J4 0J420160721004510707/21/16 00:45:31  5-MIN K0J4 210545Z AUTO 00000KT 8SM CLR 24/23 A3014 120 93 1200 000/00 RMK AO2 T02390228
63870K0J4 0J420160721005010707/21/16 00:50:31  5-MIN K0J4 210550Z AUTO 00000KT 8SM CLR 24/23 A3014 120 93 1200 000/00 RMK AO2 T02390228
63870K0J4 0J420160721005513807/21/16 00:55:31  5-MIN K0J4 210555Z AUTO 00000KT 8SM CLR 24/23 A3013 120 93 1200 000/00 RMK AO2 SLP198 60043 T02390228 10306 20228 50017
63870K0J4 0J420160721010010707/21/16 01:00:31  5-MIN K0J4 210600Z AUTO 00000KT 8SM CLR 24/23 A3013 120 93 1200 000/00 RMK AO2 T02390228
63870K0J4 0J420160721010510707/21/16 01:05:31  5-MIN K0J4 210605Z AUTO 16003KT 8SM CLR 24/23 A3013 120 93 1200 160/03 RMK AO2 T02390228
63870K0J4 0J420160721011010707/21/16 01:10:31  5-MIN K0J4 210610Z AUTO 00000KT 8SM CLR 23/23 A3013 130 97 1200 000/00 RMK AO2 T02330228
63870K0J4 0J420160721011510707/21/16 01:15:31  5-MIN K0J4 210615Z AUTO 00000KT 9SM CLR 23/23 A3012 130 97 1200 000/00 RMK AO2 T02330228
63870K0J4 0J420160721012010707/21/16 01:20:31  5-MIN K0J4 210620Z AUTO 00000KT 9SM CLR 24/23 A3012 130 93 1200 000/00 RMK AO2 T02390228
63870K0J4 0J420160721012510707/21/16 01:25:31  5-MIN K0J4 210625Z AUTO 00000KT 9SM CLR 24/23 A3012 130 93 1200 000/00 RMK AO2 T02390228
63870K0J4 0J420160721013010707/21/16 01:30:31  5-MIN K0J4 210630Z AUTO 00000KT 9SM CLR 24/23 A3012 130 93 1200 000/00 RMK AO2 T02390228
63870K0J4 0J420160721013510707/21/16 01:35:31  5-MIN K0J4 210635Z AUTO 00000KT 9SM CLR 23/23 A3012 140 97 1200 000/00 RMK AO2 T02330228
63870K0J4 0J420160721014010807/21/16 01:40:31  5-MIN K0J4 210640Z AUTO 00000KT 10SM CLR 24/23 A3011 140 93 1200 000/00 RMK AO2 T02390228
63870K0J4 0J420160721014510807/21/16 01:45:31  5-MIN K0J4 210645Z AUTO 00000KT 10SM CLR 23/23 A3011 140 97 1200 000/00 RMK AO2 T02330228
63870K0J4 0J420160721015010807/21/16 01:50:31  5-MIN K0J4 210650Z AUTO 00000KT 10SM CLR 23/23 A3011 140 97 1200 000/00 RMK AO2 T02330228
63870K0J4 0J420160721015511507/21/16 01:55:31  5-MIN K0J4 210655Z AUTO 00000KT 10SM CLR 23/23 A3011 140 97 1200 000/00 RMK AO2 SLP191 T02330228
63870K0J4 0J420160721020010807/21/16 02:00:31  5-MIN K0J4 210700Z AUTO 00000KT 10SM CLR 24/23 A3011 140 93 1200 000/00 RMK AO2 T02390228
63870K0J4 0J420160721020510707/21/16 02:05:31  5-MIN K0J4 210705Z AUTO 00000KT 9SM CLR 24/23 A3011 140 93 1200 000/00 RMK AO2 T02390228
63870K0J4 0J420160721021010707/21/16 02:10:31  5-MIN K0J4 210710Z AUTO 00000KT 8SM CLR 24/23 A3011 140 93 1200 000/00 RMK AO2 T02390228
63870K0J4 0J420160721021510707/21/16 02:15:31  5-MIN K0J4 210715Z AUTO 00000KT 7SM CLR 23/23 A3010 150 97 1200 000/00 RMK AO2 T02330228
63870K0J4 0J420160721022010707/21/16 02:20:31  5-MIN K0J4 210720Z AUTO 00000KT 8SM CLR 24/23 A3010 150 93 1300 000/00 RMK AO2 T02390228
63870K0J4 0J420160721022510707/21/16 02:25:31  5-MIN K0J4 210725Z AUTO 00000KT 8SM CLR 24/23 A3010 150 93 1300 000/00 RMK AO2 T02390228
63870K0J4 0J420160721023010707/21/16 02:30:31  5-MIN K0J4 210730Z AUTO 00000KT 9SM CLR 24/23 A3010 150 93 1300 000/00 RMK AO2 T02390228
63870K0J4 0J420160721023510807/21/16 02:35:31  5-MIN K0J4 210735Z AUTO 00000KT 10SM CLR 24/23 A3010 150 93 1300 000/00 RMK AO2 T02390228
63870K0J4 0J420160721024010707/21/16 02:40:31  5-MIN K0J4 210740Z AUTO 00000KT 8SM CLR 23/23 A3010 150 97 1200 000/00 RMK AO2 T02330228
63870K0J4 0J420160721024512307/21/16 02:45:31  5-MIN K0J4 210745Z AUTO 00000KT 7SM -RA CLR 23/23 A3010 150 97 1200 000/00 RMK AO2 RAB41 P0000 T02330228
63870K0J4 0J420160721025012307/21/16 02:50:31  5-MIN K0J4 210750Z AUTO 00000KT 8SM -RA CLR 23/23 A3010 150 97 1200 000/00 RMK AO2 RAB41 P0000 T02330228
63870K0J4 0J420160721025512907/21/16 02:55:31  5-MIN K0J4 210755Z AUTO 00000KT 8SM CLR 23/23 A3010 150 97 1200 000/00 RMK AO2 RAB41E51 SLP187 P0000 T02330228
63870K0J4 0J420160721030010707/21/16 03:00:31  5-MIN K0J4 210800Z AUTO 00000KT 9SM CLR 24/23 A3010 150 93 1300 000/00 RMK AO2 T02390228
63870K0J4 0J420160721030510707/21/16 03:05:31  5-MIN K0J4 210805Z AUTO 00000KT 9SM CLR 24/23 A3010 150 93 1300 000/00 RMK AO2 T02390228
63870K0J4 0J420160721031010807/21/16 03:10:31  5-MIN K0J4 210810Z AUTO 00000KT 10SM CLR 23/23 A3010 150 97 1200 000/00 RMK AO2 T02330228
63870K0J4 0J420160721031510707/21/16 03:15:31  5-MIN K0J4 210815Z AUTO 00000KT 9SM CLR 24/23 A3010 150 93 1300 000/00 RMK AO2 T02390228
63870K0J4 0J420160721032010707/21/16 03:20:31  5-MIN K0J4 210820Z AUTO 00000KT 8SM CLR 24/23 A3010 150 93 1300 000/00 RMK AO2 T02390228
63870K0J4 0J420160721032510707/21/16 03:25:31  5-MIN K0J4 210825Z AUTO 00000KT 8SM CLR 23/23 A3011 140 97 1200 000/00 RMK AO2 T02330228
63870K0J4 0J420160721033010707/21/16 03:30:31  5-MIN K0J4 210830Z AUTO 00000KT 9SM CLR 23/23 A3011 140 97 1200 000/00 RMK AO2 T02330228
63870K0J4 0J420160721033510807/21/16 03:35:31  5-MIN K0J4 210835Z AUTO 00000KT 10SM CLR 23/22 A3011 140 93 1200 000/00 RMK AO2 T02330222
63870K0J4 0J420160721034010707/21/16 03:40:31  5-MIN K0J4 210840Z AUTO 00000KT 9SM CLR 23/22 A3011 150 93 1200 000/00 RMK AO2 T02330222
63870K0J4 0J420160721034510807/21/16 03:45:31  5-MIN K0J4 210845Z AUTO 00000KT 10SM CLR 23/22 A3010 150 93 1200 000/00 RMK AO2 T02330222
63870K0J4 0J420160721035010807/21/16 03:50:31  5-MIN K0J4 210850Z AUTO 00000KT 10SM CLR 23/23 A3010 150 97 1200 000/00 RMK AO2 T02330228
63870K0J4 0J420160721035512607/21/16 03:55:31  5-MIN K0J4 210855Z AUTO 00000KT 8SM CLR 23/22 A3010 150 93 1200 000/00 RMK AO2 SLP188 60000 T02330222 58007
63870K0J4 0J420160721040010707/21/16 04:00:31  5-MIN K0J4 210900Z AUTO 00000KT 7SM CLR 23/23 A3010 150 97 1200 000/00 RMK AO2 T02330228
63870K0J4 0J420160721040510707/21/16 04:05:31  5-MIN K0J4 210905Z AUTO 00000KT 7SM CLR 23/23 A3010 150 97 1200 000/00 RMK AO2 T02330228
63870K0J4 0J420160721041010707/21/16 04:10:31  5-MIN K0J4 210910Z AUTO 00000KT 8SM CLR 23/22 A3010 150 97 1100 000/00 RMK AO2 T02280222
63870K0J4 0J420160721041510707/21/16 04:15:31  5-MIN K0J4 210915Z AUTO 00000KT 9SM CLR 23/22 A3011 150 93 1200 000/00 RMK AO2 T02330222
63870K0J4 0J420160721042010707/21/16 04:20:31  5-MIN K0J4 210920Z AUTO 00000KT 9SM CLR 23/22 A3011 150 93 1200 000/00 RMK AO2 T02330222
63870K0J4 0J420160721042510707/21/16 04:25:31  5-MIN K0J4 210925Z AUTO 00000KT 9SM CLR 23/22 A3011 150 93 1200 000/00 RMK AO2 T02330222
63870K0J4 0J420160721043010707/21/16 04:30:31  5-MIN K0J4 210930Z AUTO 05003KT 8SM CLR 23/22 A3011 140 93 1200 050/03 RMK AO2 T02330222
63870K0J4 0J420160721043510707/21/16 04:35:31  5-MIN K0J4 210935Z AUTO 00000KT 9SM CLR 23/22 A3011 140 97 1100 000/00 RMK AO2 T02280222
63870K0J4 0J420160721044010807/21/16 04:40:31  5-MIN K0J4 210940Z AUTO 00000KT 10SM CLR 23/22 A3011 140 93 1200 000/00 RMK AO2 T02330222
63870K0J4 0J420160721044510707/21/16 04:45:31  5-MIN K0J4 210945Z AUTO 02003KT 9SM CLR 23/22 A3011 140 97 1100 020/03 RMK AO2 T02280222
63870K0J4 0J420160721045010707/21/16 04:50:31  5-MIN K0J4 210950Z AUTO 00000KT 9SM CLR 23/22 A3011 140 97 1100 000/00 RMK AO2 T02280222
63870K0J4 0J420160721045511407/21/16 04:55:31  5-MIN K0J4 210955Z AUTO 00000KT 9SM CLR 23/22 A3011 140 97 1100 000/00 RMK AO2 SLP192 T02280222
63870K0J4 0J420160721050010807/21/16 05:00:31  5-MIN K0J4 211000Z AUTO 00000KT 10SM CLR 23/22 A3011 140 97 1100 000/00 RMK AO2 T02280222
63870K0J4 0J420160721050510807/21/16 05:05:31  5-MIN K0J4 211005Z AUTO 00000KT 10SM CLR 23/22 A3011 140 97 1100 000/00 RMK AO2 T02280222
63870K0J4 0J420160721051010807/21/16 05:10:31  5-MIN K0J4 211010Z AUTO 00000KT 10SM CLR 23/22 A3011 140 97 1100 000/00 RMK AO2 T02280222
63870K0J4 0J420160721051510807/21/16 05:15:31  5-MIN K0J4 211015Z AUTO 00000KT 10SM CLR 23/22 A3012 140 97 1100 000/00 RMK AO2 T02280222
63870K0J4 0J420160721052010707/21/16 05:20:31  5-MIN K0J4 211020Z AUTO 00000KT 9SM CLR 23/22 A3011 140 97 1100 000/00 RMK AO2 T02280222
63870K0J4 0J420160721052510707/21/16 05:25:31  5-MIN K0J4 211025Z AUTO 00000KT 9SM CLR 23/22 A3011 140 97 1100 000/00 RMK AO2 T02280222
63870K0J4 0J420160721053010707/21/16 05:30:31  5-MIN K0J4 211030Z AUTO 00000KT 9SM CLR 23/22 A3011 140 93 1200 000/00 RMK AO2 T02330222
63870K0J4 0J420160721053510707/21/16 05:35:31  5-MIN K0J4 211035Z AUTO 00000KT 9SM CLR 23/22 A3012 140 97 1100 000/00 RMK AO2 T02280222
63870K0J4 0J420160721054011007/21/16 05:40:31  5-MIN K0J4 211040Z AUTO 00000KT 8SM FEW001 23/22 A3012 140 97 1100 000/00 RMK AO2 T02280222
63870K0J4 0J420160721054511007/21/16 05:45:31  5-MIN K0J4 211045Z AUTO 00000KT 8SM FEW001 23/22 A3012 130 97 1100 000/00 RMK AO2 T02280222
63870K0J4 0J420160721055010707/21/16 05:50:31  5-MIN K0J4 211050Z AUTO 00000KT 8SM CLR 23/22 A3012 130 93 1100 000/00 RMK AO2 T02280217
63870K0J4 0J420160721055511407/21/16 05:55:31  5-MIN K0J4 211055Z AUTO 00000KT 8SM CLR 23/22 A3012 130 93 1100 000/00 RMK AO2 SLP195 T02280217
63870K0J4 0J420160721060010707/21/16 06:00:31  5-MIN K0J4 211100Z AUTO 00000KT 8SM CLR 23/22 A3012 130 93 1100 000/00 RMK AO2 T02280217
63870K0J4 0J420160721060510707/21/16 06:05:31  5-MIN K0J4 211105Z AUTO 00000KT 8SM CLR 23/22 A3012 130 93 1100 000/00 RMK AO2 T02280217
63870K0J4 0J420160721061010707/21/16 06:10:31  5-MIN K0J4 211110Z AUTO 00000KT 8SM CLR 23/22 A3013 130 93 1100 000/00 RMK AO2 T02280217
63870K0J4 0J420160721061510707/21/16 06:15:31  5-MIN K0J4 211115Z AUTO 00000KT 9SM CLR 23/22 A3013 120 93 1100 000/00 RMK AO2 T02280217
63870K0J4 0J420160721062010807/21/16 06:20:31  5-MIN K0J4 211120Z AUTO 00000KT 10SM CLR 23/22 A3013 120 93 1200 000/00 RMK AO2 T02330222
63870K0J4 0J420160721062510807/21/16 06:25:31  5-MIN K0J4 211125Z AUTO 00000KT 10SM CLR 23/22 A3013 120 93 1200 000/00 RMK AO2 T02330222
63870K0J4 0J420160721063010807/21/16 06:30:31  5-MIN K0J4 211130Z AUTO 00000KT 10SM CLR 23/22 A3013 120 93 1200 000/00 RMK AO2 T02330222
63870K0J4 0J420160721063510807/21/16 06:35:31  5-MIN K0J4 211135Z AUTO 00000KT 10SM CLR 23/22 A3014 120 93 1200 000/00 RMK AO2 T02330222
63870K0J4 0J420160721064010807/21/16 06:40:31  5-MIN K0J4 211140Z AUTO 00000KT 10SM CLR 23/22 A3014 120 93 1200 000/00 RMK AO2 T02330222
63870K0J4 0J420160721064510807/21/16 06:45:31  5-MIN K0J4 211145Z AUTO 00000KT 10SM CLR 23/22 A3014 110 93 1100 000/00 RMK AO2 T02330222
63870K0J4 0J420160721065010807/21/16 06:50:31  5-MIN K0J4 211150Z AUTO 00000KT 10SM CLR 23/22 A3014 110 93 1100 000/00 RMK AO2 T02330222
63870K0J4 0J420160721065514507/21/16 06:55:31  5-MIN K0J4 211155Z AUTO 00000KT 10SM CLR 24/23 A3014 110 93 1200 000/00 RMK AO2 SLP203 60000 70043 T02390228 10239 20228 55010
63870K0J4 0J420160721070010807/21/16 07:00:31  5-MIN K0J4 211200Z AUTO 00000KT 10SM CLR 24/23 A3015 110 90 1300 000/00 RMK AO2 T02440228
63870K0J4 0J420160721070510807/21/16 07:05:31  5-MIN K0J4 211205Z AUTO 00000KT 10SM CLR 24/23 A3015 110 90 1300 000/00 RMK AO2 T02440228
63870K0J4 0J420160721071010807/21/16 07:10:31  5-MIN K0J4 211210Z AUTO 00000KT 10SM CLR 25/23 A3015 100 90 1300 000/00 RMK AO2 T02500233
63870K0J4 0J420160721071510807/21/16 07:15:31  5-MIN K0J4 211215Z AUTO 00000KT 10SM CLR 24/23 A3015 100 93 1300 000/00 RMK AO2 T02440233
63870K0J4 0J420160721072010807/21/16 07:20:31  5-MIN K0J4 211220Z AUTO 00000KT 10SM CLR 24/23 A3015 100 93 1300 000/00 RMK AO2 T02440233
63870K0J4 0J420160721072510807/21/16 07:25:31  5-MIN K0J4 211225Z AUTO 00000KT 10SM CLR 25/23 A3015 100 90 1300 000/00 RMK AO2 T02500233
63870K0J4 0J420160721073010807/21/16 07:30:31  5-MIN K0J4 211230Z AUTO 00000KT 10SM CLR 25/23 A3016 100 90 1300 000/00 RMK AO2 T02500233
63870K0J4 0J420160721073510807/21/16 07:35:31  5-MIN K0J4 211235Z AUTO 00000KT 10SM CLR 26/23 A3016 100 87 1400 000/00 RMK AO2 T02560233
63870K0J4 0J420160721074010807/21/16 07:40:31  5-MIN K0J4 211240Z AUTO 00000KT 10SM CLR 26/23 A3016 100 87 1400 000/00 RMK AO2 T02560233
63870K0J4 0J420160721074510807/21/16 07:45:31  5-MIN K0J4 211245Z AUTO 00000KT 10SM CLR 26/23 A3016 100 84 1400 000/00 RMK AO2 T02610233
63870K0J4 0J420160721075010807/21/16 07:50:31  5-MIN K0J4 211250Z AUTO 00000KT 10SM CLR 27/23 A3016 100 82 1500 000/00 RMK AO2 T02670233
63870K0J4 0J420160721075511507/21/16 07:55:31  5-MIN K0J4 211255Z AUTO 00000KT 10SM CLR 27/23 A3016 100 82 1500 000/00 RMK AO2 SLP207 T02670233
63870K0J4 0J420160721080010807/21/16 08:00:31  5-MIN K0J4 211300Z AUTO 00000KT 10SM CLR 27/23 A3016 100 82 1500 000/00 RMK AO2 T02670233
63870K0J4 0J420160721080510807/21/16 08:05:31  5-MIN K0J4 211305Z AUTO 00000KT 10SM CLR 27/23 A3016 100 79 1600 000/00 RMK AO2 T02720233
63870K0J4 0J420160721081010707/21/16 08:10:31  5-MIN K0J4 211310Z AUTO 00000KT 10SM CLR 27/24 A3016 90 82 1600 000/00 RMK AO2 T02720239
63870K0J4 0J420160721081510707/21/16 08:15:31  5-MIN K0J4 211315Z AUTO 00000KT 10SM CLR 27/24 A3016 90 82 1600 000/00 RMK AO2 T02720239
63870K0J4 0J420160721082010707/21/16 08:20:31  5-MIN K0J4 211320Z AUTO 02003KT 10SM CLR 28/24 A3017 90 79 1600 020/03 RMK AO2 T02780239
63870K0J4 0J420160721082510707/21/16 08:25:31  5-MIN K0J4 211325Z AUTO 02004KT 10SM CLR 28/24 A3016 90 79 1600 020/04 RMK AO2 T02780239
63870K0J4 0J420160721083010707/21/16 08:30:31  5-MIN K0J4 211330Z AUTO 00000KT 10SM CLR 28/24 A3016 90 79 1600 000/00 RMK AO2 T02780239
63870K0J4 0J420160721083510707/21/16 08:35:31  5-MIN K0J4 211335Z AUTO 00000KT 10SM CLR 28/24 A3016 90 76 1700 000/00 RMK AO2 T02830239
63870K0J4 0J420160721084010707/21/16 08:40:31  5-MIN K0J4 211340Z AUTO 00000KT 10SM CLR 28/24 A3017 90 76 1700 000/00 RMK AO2 T02830239
63870K0J4 0J420160721084510707/21/16 08:45:31  5-MIN K0J4 211345Z AUTO 00000KT 10SM CLR 28/24 A3017 90 76 1700 000/00 RMK AO2 T02830239
63870K0J4 0J420160721085010707/21/16 08:50:31  5-MIN K0J4 211350Z AUTO 32003KT 10SM CLR 29/24 A3017 90 74 1700 320/03 RMK AO2 T02890239
63870K0J4 0J420160721085511407/21/16 08:55:31  5-MIN K0J4 211355Z AUTO 01003KT 10SM CLR 28/24 A3017 90 76 1700 010/03 RMK AO2 SLP211 T02830239
63870K0J4 0J420160721090010707/21/16 09:00:31  5-MIN K0J4 211400Z AUTO 04004KT 10SM CLR 29/24 A3017 80 76 1700 040/04 RMK AO2 T02890244
63870K0J4 0J420160721090510707/21/16 09:05:31  5-MIN K0J4 211405Z AUTO 02003KT 10SM CLR 29/24 A3017 80 76 1700 020/03 RMK AO2 T02890244
63870K0J4 0J420160721091010707/21/16 09:10:31  5-MIN K0J4 211410Z AUTO 02003KT 10SM CLR 29/24 A3017 80 74 1800 020/03 RMK AO2 T02940244
63870K0J4 0J420160721091510707/21/16 09:15:31  5-MIN K0J4 211415Z AUTO 00000KT 10SM CLR 29/24 A3018 80 74 1800 000/00 RMK AO2 T02940244
63870K0J4 0J420160721092010707/21/16 09:20:31  5-MIN K0J4 211420Z AUTO 05003KT 10SM CLR 29/24 A3018 80 71 1800 050/03 RMK AO2 T02940239
63870K0J4 0J420160721092510707/21/16 09:25:31  5-MIN K0J4 211425Z AUTO 03003KT 10SM CLR 30/24 A3018 80 72 1900 030/03 RMK AO2 T03000244
63870K0J4 0J420160721093010707/21/16 09:30:31  5-MIN K0J4 211430Z AUTO 01004KT 10SM CLR 30/24 A3018 80 72 1900 010/04 RMK AO2 T03000244
63870K0J4 0J420160721093510707/21/16 09:35:31  5-MIN K0J4 211435Z AUTO 00000KT 10SM CLR 30/24 A3018 80 72 1900 000/00 RMK AO2 T03000244
63870K0J4 0J420160721094010707/21/16 09:40:31  5-MIN K0J4 211440Z AUTO 06003KT 10SM CLR 30/24 A3018 80 72 1900 060/03 RMK AO2 T03000244
63870K0J4 0J420160721094510707/21/16 09:45:31  5-MIN K0J4 211445Z AUTO 00000KT 10SM CLR 30/24 A3017 80 72 1900 000/00 RMK AO2 T03000244
63870K0J4 0J420160721095010707/21/16 09:50:31  5-MIN K0J4 211450Z AUTO 00000KT 10SM CLR 30/24 A3017 80 72 1900 000/00 RMK AO2 T03000244
63870K0J4 0J420160721095512007/21/16 09:55:31  5-MIN K0J4 211455Z AUTO 34003KT 10SM CLR 31/24 A3017 80 69 1900 340/03 RMK AO2 SLP213 T03060244 53014
63870K0J4 0J420160721100010707/21/16 10:00:31  5-MIN K0J4 211500Z AUTO 36003KT 10SM CLR 31/24 A3018 80 69 1900 360/03 RMK AO2 T03060244
63870K0J4 0J420160721100510707/21/16 10:05:31  5-MIN K0J4 211505Z AUTO VRB03KT 10SM CLR 31/24 A3018 80 67 1900 VRB/03 RMK AO2 T03060239
63870K0J4 0J420160721101010707/21/16 10:10:31  5-MIN K0J4 211510Z AUTO 35003KT 10SM CLR 31/24 A3018 80 69 1900 350/03 RMK AO2 T03060244
63870K0J4 0J420160721101510707/21/16 10:15:31  5-MIN K0J4 211515Z AUTO 00000KT 10SM CLR 31/24 A3017 80 67 2000 000/00 RMK AO2 T03110244
63870K0J4 0J420160721102010707/21/16 10:20:31  5-MIN K0J4 211520Z AUTO 07003KT 10SM CLR 32/24 A3017 80 65 2000 070/03 RMK AO2 T03170244
63870K0J4 0J420160721102510707/21/16 10:25:31  5-MIN K0J4 211525Z AUTO 10003KT 10SM CLR 31/25 A3017 80 69 2000 100/03 RMK AO2 T03110250
63870K0J4 0J420160721103010707/21/16 10:30:31  5-MIN K0J4 211530Z AUTO 00000KT 10SM CLR 32/24 A3017 80 65 2000 000/00 RMK AO2 T03170244
63870K0J4 0J420160721103510707/21/16 10:35:31  5-MIN K0J4 211535Z AUTO 00000KT 10SM CLR 32/24 A3017 80 63 2000 000/00 RMK AO2 T03170239
63870K0J4 0J420160721104010707/21/16 10:40:31  5-MIN K0J4 211540Z AUTO 00000KT 10SM CLR 32/24 A3017 80 65 2000 000/00 RMK AO2 T03170244
63870K0J4 0J420160721104510707/21/16 10:45:31  5-MIN K0J4 211545Z AUTO 07003KT 10SM CLR 32/24 A3017 90 63 2100 070/03 RMK AO2 T03220244
63870K0J4 0J420160721105010707/21/16 10:50:31  5-MIN K0J4 211550Z AUTO 12003KT 10SM CLR 32/24 A3017 90 65 2100 120/03 RMK AO2 T03170244
63870K0J4 0J420160721105511407/21/16 10:55:31  5-MIN K0J4 211555Z AUTO 00000KT 10SM CLR 32/25 A3017 90 67 2100 000/00 RMK AO2 SLP212 T03170250
63870K0J4 0J420160721110010707/21/16 11:00:31  5-MIN K0J4 211600Z AUTO 00000KT 10SM CLR 33/24 A3017 90 61 2200 000/00 RMK AO2 T03280244
63870K0J4 0J420160721110511007/21/16 11:05:31  5-MIN K0J4 211605Z AUTO 00000KT 10SM FEW025 33/24 A3017 90 61 2200 000/00 RMK AO2 T03280244
63870K0J4 0J420160721111011007/21/16 11:10:31  5-MIN K0J4 211610Z AUTO 00000KT 10SM FEW025 32/25 A3017 90 65 2100 000/00 RMK AO2 T03220250
63870K0J4 0J420160721111511007/21/16 11:15:31  5-MIN K0J4 211615Z AUTO VRB03KT 10SM FEW027 32/24 A3016 90 63 2100 VRB/03 RMK AO2 T03220244
63870K0J4 0J420160721112011007/21/16 11:20:31  5-MIN K0J4 211620Z AUTO 20004KT 10SM FEW027 32/24 A3016 90 65 2100 200/04 RMK AO2 T03170244
63870K0J4 0J420160721112511107/21/16 11:25:31  5-MIN K0J4 211625Z AUTO 16005KT 10SM FEW027 32/24 A3016 100 63 2100 160/05 RMK AO2 T03170239
63870K0J4 0J420160721113011107/21/16 11:30:31  5-MIN K0J4 211630Z AUTO 00000KT 10SM FEW027 31/24 A3016 100 67 2000 000/00 RMK AO2 T03110244
63870K0J4 0J420160721113511107/21/16 11:35:31  5-MIN K0J4 211635Z AUTO 00000KT 10SM FEW043 31/24 A3016 100 67 2000 000/00 RMK AO2 T03110244
63870K0J4 0J420160721114011107/21/16 11:40:31  5-MIN K0J4 211640Z AUTO 00000KT 10SM FEW043 32/24 A3016 100 65 2100 000/00 RMK AO2 T03170244
63870K0J4 0J420160721114511107/21/16 11:45:31  5-MIN K0J4 211645Z AUTO 00000KT 10SM FEW043 32/24 A3015 100 63 2100 000/00 RMK AO2 T03220244
63870K0J4 0J420160721115011107/21/16 11:50:31  5-MIN K0J4 211650Z AUTO VRB04KT 10SM FEW043 33/24 A3015 100 61 2200 VRB/04 RMK AO2 T03280244
63870K0J4 0J420160721115511807/21/16 11:55:31  5-MIN K0J4 211655Z AUTO 18003KT 10SM FEW045 32/24 A3015 100 61 2100 180/03 RMK AO2 SLP206 T03220239
63870K0J4 0J420160721120011107/21/16 12:00:31  5-MIN K0J4 211700Z AUTO 14004KT 10SM FEW045 33/24 A3015 100 57 2300 140/04 RMK AO2 T03330239
63870K0J4 0J420160721120510807/21/16 12:05:31  5-MIN K0J4 211705Z AUTO 21004KT 10SM CLR 33/23 A3015 100 55 2200 210/04 RMK AO2 T03280228
63870K0J4 0J420160721121010807/21/16 12:10:31  5-MIN K0J4 211710Z AUTO 22003KT 10SM CLR 33/23 A3015 110 53 2300 220/03 RMK AO2 T03330228
63870K0J4 0J420160721121510807/21/16 12:15:31  5-MIN K0J4 211715Z AUTO VRB04KT 10SM CLR 33/23 A3015 110 53 2300 VRB/04 RMK AO2 T03330228
63870K0J4 0J420160721122010807/21/16 12:20:31  5-MIN K0J4 211720Z AUTO 11004KT 10SM CLR 33/23 A3015 110 53 2300 110/04 RMK AO2 T03330228
63870K0J4 0J420160721122510807/21/16 12:25:31  5-MIN K0J4 211725Z AUTO VRB03KT 10SM CLR 34/24 A3014 110 55 2300 VRB/03 RMK AO2 T03390239
63870K0J4 0J420160721123011107/21/16 12:30:31  5-MIN K0J4 211730Z AUTO 19005KT 10SM FEW037 33/23 A3014 110 55 2200 190/05 RMK AO2 T03280228
63870K0J4 0J420160721123511107/21/16 12:35:31  5-MIN K0J4 211735Z AUTO 21004KT 10SM FEW037 33/23 A3014 110 53 2300 210/04 RMK AO2 T03330228
63870K0J4 0J420160721124011107/21/16 12:40:31  5-MIN K0J4 211740Z AUTO 00000KT 10SM FEW039 33/23 A3014 110 55 2300 000/00 RMK AO2 T03330233
63870K0J4 0J420160721124511107/21/16 12:45:31  5-MIN K0J4 211745Z AUTO VRB04KT 10SM FEW037 34/23 A3014 110 53 2300 VRB/04 RMK AO2 T03390233
63870K0J4 0J420160721125011107/21/16 12:50:31  5-MIN K0J4 211750Z AUTO 14005KT 10SM FEW037 33/23 A3014 120 55 2300 140/05 RMK AO2 T03330233
63870K0J4 0J420160721125513607/21/16 12:55:31  5-MIN K0J4 211755Z AUTO VRB04KT 10SM FEW037 34/23 A3014 120 53 2300 VRB/04 RMK AO2 SLP200 T03390233 10339 20244 51010
63870K0J4 0J420160721130010807/21/16 13:00:31  5-MIN K0J4 211800Z AUTO VRB03KT 10SM CLR 34/23 A3014 120 51 2300 VRB/03 RMK AO2 T03390228
63870K0J4 0J420160721130510807/21/16 13:05:31  5-MIN K0J4 211805Z AUTO 13004KT 10SM CLR 34/23 A3014 120 53 2300 130/04 RMK AO2 T03390233
63870K0J4 0J420160721131010807/21/16 13:10:31  5-MIN K0J4 211810Z AUTO 00000KT 10SM CLR 34/22 A3013 120 48 2400 000/00 RMK AO2 T03440222
63870K0J4 0J420160721131509807/21/16 13:15:31  5-MIN K0J4 211815Z AUTO 10SM CLR 34/23 A3013 120 51 2300 M /M RMK AO2 T03390228
63870K0J4 0J420160721132010807/21/16 13:20:31  5-MIN K0J4 211820Z AUTO VRB04KT 10SM CLR 34/23 A3013 120 51 2300 VRB/04 RMK AO2 T03390228
63870K0J4 0J420160721132510807/21/16 13:25:31  5-MIN K0J4 211825Z AUTO VRB03KT 10SM CLR 34/23 A3013 120 51 2300 VRB/03 RMK AO2 T03390228
63870K0J4 0J420160721133010807/21/16 13:30:31  5-MIN K0J4 211830Z AUTO 00000KT 10SM CLR 34/23 A3012 130 51 2300 000/00 RMK AO2 T03390228
63870K0J4 0J420160721133511107/21/16 13:35:31  5-MIN K0J4 211835Z AUTO VRB04KT 10SM FEW075 34/23 A3012 130 50 2400 VRB/04 RMK AO2 T03440228
63870K0J4 0J420160721134011107/21/16 13:40:31  5-MIN K0J4 211840Z AUTO 17004KT 10SM FEW045 33/23 A3012 140 53 2300 170/04 RMK AO2 T03330228
63870K0J4 0J420160721134511107/21/16 13:45:31  5-MIN K0J4 211845Z AUTO 00000KT 10SM SCT047 33/23 A3011 140 53 2300 000/00 RMK AO2 T03330228
63870K0J4 0J420160721135011807/21/16 13:50:31  5-MIN K0J4 211850Z AUTO 00000KT 10SM SCT047 BKN060 33/23 A3011 140 53 2300 000/00 RMK AO2 T03330228
63870K0J4 0J420160721135513207/21/16 13:55:31  5-MIN K0J4 211855Z AUTO 18005KT 10SM BKN045 BKN055 BKN070 34/23 A3010 150 53 2400 180/05 RMK AO2 SLP188 T03390233
63870K0J4 0J420160721140010807/21/16 14:00:31  5-MIN K0J4 211900Z AUTO 10SM SCT045 BKN065 34/23 A3010 150 53 2400 M /M RMK AO2 T03390233
63870K0J4 0J420160721140511807/21/16 14:05:31  5-MIN K0J4 211905Z AUTO 24003KT 10SM SCT045 SCT065 34/23 A3010 150 52 2400 240/03 RMK AO2 T03440233
63870K0J4 0J420160721141012507/21/16 14:10:31  5-MIN K0J4 211910Z AUTO 22005KT 10SM SCT046 SCT055 SCT065 34/23 A3010 150 50 2400 220/05 RMK AO2 T03440228
63870K0J4 0J420160721141510807/21/16 14:15:31  5-MIN K0J4 211915Z AUTO 10SM SCT044 BKN065 35/23 A3009 160 48 2500 M /M RMK AO2 T03500228
63870K0J4 0J420160721142013407/21/16 14:20:31  5-MIN K0J4 211920Z AUTO 00000KT 10SM TS SCT046 BKN055 BKN065 34/23 A3009 160 50 2400 000/00 RMK AO2 TSB20 T03440228
63870K0J4 0J420160721142513407/21/16 14:25:31  5-MIN K0J4 211925Z AUTO 00000KT 10SM TS FEW046 SCT050 BKN070 35/23 A3009 160 50 2500 000/00 RMK AO2 TSB20 T03500233
63870K0J4 0J420160721143013407/21/16 14:30:31  5-MIN K0J4 211930Z AUTO 19008KT 10SM TS SCT048 SCT055 BKN075 34/23 A3008 160 50 2500 190/08 RMK AO2 TSB20 T03440228
63870K0J4 0J420160721143513407/21/16 14:35:31  5-MIN K0J4 211935Z AUTO 21004KT 10SM TS SCT048 BKN080 OVC100 33/22 A3008 170 51 2300 210/04 RMK AO2 TSB20 T03330222
63870K0J4 0J420160721144013707/21/16 14:40:31  5-MIN K0J4 211940Z AUTO 27003KT 10SM TS SCT049 BKN095 OVC110 33/22 A3008 160 51 2300 270/03 RMK AO2 TSB20B36 T03330222
63870K0J4 0J420160721144513707/21/16 14:45:31  5-MIN K0J4 211945Z AUTO 00000KT 10SM TS FEW049 SCT075 BKN120 33/23 A3008 170 55 2300 000/00 RMK AO2 TSB20B36 T03280228
63870K0J4 0J420160721145013707/21/16 14:50:31  5-MIN K0J4 211950Z AUTO 00000KT 10SM TS FEW075 FEW085 BKN110 32/23 A3008 170 59 2200 000/00 RMK AO2 TSB20B36 T03220233
63870K0J4 0J420160721145514707/21/16 14:55:31  5-MIN K0J4 211955Z AUTO 33004KT 10SM TS FEW050 SCT090 BKN110 32/24 A3008 170 63 2200 330/04 RMK AO2 TSB20B36B53 SLP181 T03170239
63870K0J4 0J420160721150012807/21/16 15:00:31  5-MIN K0J4 212000Z AUTO 33005KT 10SM TS FEW050 SCT090 BKN110 31/24 A3008 170 65 2100 330/05 RMK AO2 T03110239
63870K0J4 0J420160721150514207/21/16 15:05:31  5-MIN K0J4 212005Z AUTO 35003KT 9SM -TSRA SCT050 SCT060 BKN090 29/24 A3007 170 74 1900 350/03 RMK AO2 RAB03 P0000 T02940244
63870K0J4 0J420160721151014207/21/16 15:10:31  5-MIN K0J4 212010Z AUTO VRB05KT 8SM -TSRA FEW011 SCT050 BKN060 28/25 A3007 180 82 1800 VRB/05 RMK AO2 RAB03 P0000 T02830250
63870K0J4 0J420160721151514807/21/16 15:15:31  5-MIN K0J4 212015Z AUTO VRB04KT 9SM -TSRA FEW011 SCT060 SCT090 28/24 A3006 180 82 1700 VRB/04 RMK AO2 RAB03 TSB14 P0001 T02780244
63870K0J4 0J420160721152014907/21/16 15:20:31  5-MIN K0J4 212020Z AUTO 32003KT 10SM -TSRA FEW050 SCT060 SCT085 27/24 A3007 180 84 1700 320/03 RMK AO2 RAB03 TSB14 P0001 T02720244
63870K0J4 0J420160721152514207/21/16 15:25:31  5-MIN K0J4 212025Z AUTO 01004KT 10SM TS SCT055 SCT080 28/24 A3007 180 82 1700 010/04 RMK AO2 RAB03E22 TSB14 P0001 T02780244
63870K0J4 0J420160721153014207/21/16 15:30:31  5-MIN K0J4 212030Z AUTO 02005KT 10SM TS SCT055 BKN075 27/24 A3007 170 84 1700 020/05 RMK AO2 RAB03E22 TSB14 P0001 T02720244
63870K0J4 0J420160721153513507/21/16 15:35:31  5-MIN K0J4 212035Z AUTO 36004KT 10SM BKN055 27/24 A3008 170 84 1700 360/04 RMK AO2 RAB03E22 TSB14E31 P0001 T02720244
63870K0J4 0J420160721154013507/21/16 15:40:31  5-MIN K0J4 212040Z AUTO 21007KT 10SM BKN050 27/24 A3008 170 84 1700 210/07 RMK AO2 RAB03E22 TSB14E31 P0001 T02720244
63870K0J4 0J420160721154513507/21/16 15:45:31  5-MIN K0J4 212045Z AUTO 23004KT 10SM BKN050 28/24 A3007 170 79 1700 230/04 RMK AO2 RAB03E22 TSB14E31 P0001 T02780239
63870K0J4 0J420160721155014107/21/16 15:50:31  5-MIN K0J4 212050Z AUTO 25003KT 10SM TS BKN050 28/24 A3008 170 79 1700 250/03 RMK AO2 RAB03E22 TSB14E31B49 P0001 T02780239
63870K0J4 0J420160721155516007/21/16 15:55:31  5-MIN K0J4 212055Z AUTO 23004KT 10SM TS OVC050 28/24 A3008 170 82 1700 230/04 RMK AO2 RAB03E22 TSB14E31B49 SLP181 P0001 60001 T02780244 58013
63870K0J4 0J420160721160011407/21/16 16:00:31  5-MIN K0J4 212100Z AUTO 22007KT 10SM TS OVC050 28/24 A3009 160 76 1800 220/07 RMK AO2 T02830239
63870K0J4 0J420160721160512707/21/16 16:05:31  5-MIN K0J4 212105Z AUTO 22009G17KT 10SM TS OVC050 27/22 A3010 150 74 1600 220/09G17 RMK AO2 PRESRR T02720222
63870K0J4 0J420160721161012707/21/16 16:10:31  5-MIN K0J4 212110Z AUTO 19010G17KT 10SM TS FEW040 OVC050 27/21 A3010 150 71 1600 190/10G17 RMK AO2 T02670211
63870K0J4 0J420160721161512107/21/16 16:15:31  5-MIN K0J4 212115Z AUTO VRB05KT 10SM TS BKN040 OVC050 27/21 A3010 150 71 1600 VRB/05 RMK AO2 T02670211
63870K0J4 0J420160721162012107/21/16 16:20:31  5-MIN K0J4 212120Z AUTO 11004KT 10SM TS BKN042 OVC050 27/21 A3009 160 71 1600 110/04 RMK AO2 T02670211
63870K0J4 0J420160721162512107/21/16 16:25:31  5-MIN K0J4 212125Z AUTO VRB03KT 10SM TS BKN042 OVC050 27/22 A3009 160 73 1600 VRB/03 RMK AO2 T02670217
63870K0J4 0J420160721163012107/21/16 16:30:31  5-MIN K0J4 212130Z AUTO VRB06KT 10SM TS BKN040 OVC050 26/22 A3009 160 79 1500 VRB/06 RMK AO2 T02610222
63870K0J4 0J420160721163512107/21/16 16:35:31  5-MIN K0J4 212135Z AUTO VRB03KT 10SM TS SCT040 OVC050 26/22 A3010 150 79 1500 VRB/03 RMK AO2 T02610222
63870K0J4 0J420160721164012807/21/16 16:40:31  5-MIN K0J4 212140Z AUTO 18004KT 10SM TS FEW025 BKN040 OVC050 27/22 A3010 150 73 1600 180/04 RMK AO2 T02670217
63870K0J4 0J420160721164512807/21/16 16:45:31  5-MIN K0J4 212145Z AUTO VRB05KT 10SM TS SCT025 BKN042 OVC050 27/22 A3011 150 76 1600 VRB/05 RMK AO2 T02670222
63870K0J4 0J420160721165015007/21/16 16:50:31  5-MIN K0J4 212150Z AUTO VRB04KT 10SM -TSRA BKN025 BKN046 OVC055 26/22 A3012 140 79 1500 VRB/04 RMK AO2 RAB50 PRESRR P0000 T02610222
63870K0J4 0J420160721165515007/21/16 16:55:31  5-MIN K0J4 212155Z AUTO VRB06KT 10SM -TSRA BKN025 BKN034 OVC050 26/23 A3012 130 84 1400 VRB/06 RMK AO2 RAB50 SLP194 P0000 T02560228
63870K0J4 0J420160721170013607/21/16 17:00:31  5-MIN K0J4 212200Z AUTO VRB04KT 8SM -TSRA SCT025 BKN034 OVC055 25/23 A3012 130 87 1400 VRB/04 RMK AO2 P0000 T02500228
63870K0J4 0J420160721170512907/21/16 17:05:31  5-MIN K0J4 212205Z AUTO 23007KT 8SM -TSRA SCT025 OVC038 25/23 A3013 130 87 1400 230/07 RMK AO2 P0000 T02500228
63870K0J4 0J420160721171013307/21/16 17:10:31  5-MIN K0J4 212210Z AUTO 24007KT 10SM TS SCT025 OVC038 24/23 A3013 120 90 1300 240/07 RMK AO2 RAE09 P0000 T02440228
63870K0J4 0J420160721171514607/21/16 17:15:31  5-MIN K0J4 212215Z AUTO 25009G16KT 10SM TS FEW025 BKN038 OVC046 24/23 A3013 120 90 1300 250/09G16 RMK AO2 RAE09 P0000 T02440228
63870K0J4 0J420160721172016207/21/16 17:20:31  5-MIN K0J4 212220Z AUTO 25008G16KT 210V280 10SM TS BKN038 BKN046 OVC070 24/23 A3012 130 90 1300 250/08G16 210V280 RMK AO2 RAE09 P0000 T02440228
63870K0J4 0J420160721172515307/21/16 17:25:31  5-MIN K0J4 212225Z AUTO 23006G15KT 10SM TS SCT038 BKN046 OVC070 24/23 A3011 150 93 1300 230/06G15 RMK AO2 RAE09 PRESFR P0000 T02390228
63870K0J4 0J420160721173008807/21/16 17:30:31  5-MIN K0J4 212230Z AUTO 22006KT TS M M M 220/06 RMK AO2 RAE09 P0000 $
63870K0J4 0J420160721173512807/21/16 17:35:31  5-MIN K0J4 212235Z AUTO 21007KT -TSRA 24/22 A3012 130 90 1200 210/07 RMK AO2 RAE09B33 TSB32 P0000 T02390222 $
63870K0J4 0J420160721174013307/21/16 17:40:31  5-MIN K0J4 212240Z AUTO 20007KT 10SM -TSRA 24/22 A3012 130 90 1200 200/07 RMK AO2 RAE09B33 TSB32 P0000 T02390222 $
63870K0J4 0J420160721174513307/21/16 17:45:31  5-MIN K0J4 212245Z AUTO 17008KT 10SM -TSRA 24/23 A3012 130 93 1200 170/08 RMK AO2 RAE09B33 TSB32 P0000 T02390228 $
63870K0J4 0J420160721175013307/21/16 17:50:31  5-MIN K0J4 212250Z AUTO 17008KT 10SM TS 24/22 A3013 130 90 1200 170/08 RMK AO2 RAE09B33E49 TSB32 P0000 T02390222 $
63870K0J4 0J420160721175514007/21/16 17:55:31  5-MIN K0J4 212255Z AUTO 18008KT 10SM TS 24/23 A3012 130 93 1200 180/08 RMK AO2 RAE09B33E49 TSB32 SLP197 P0000 T02390228 $
63870K0J4 0J420160722023011307/22/16 02:30:31  5-MIN K0J4 220730Z AUTO 00000KT 10SM SCT075 22/21 A3010 150 93 1100 000/00 RMK AO2 T02220211 $
63870K0J4 0J420160722023511307/22/16 02:35:31  5-MIN K0J4 220735Z AUTO 00000KT 10SM SCT075 22/21 A3010 150 93 1100 000/00 RMK AO2 T02220211 $
63870K0J4 0J420160722024011307/22/16 02:40:31  5-MIN K0J4 220740Z AUTO 00000KT 10SM FEW070 22/21 A3009 160 93 1100 000/00 RMK AO2 T02220211 $
63870K0J4 0J420160722024511307/22/16 02:45:31  5-MIN K0J4 220745Z AUTO 00000KT 10SM FEW075 22/21 A3009 160 93 1100 000/00 RMK AO2 T02220211 $
63870K0J4 0J420160722025011007/22/16 02:50:31  5-MIN K0J4 220750Z AUTO 00000KT 10SM CLR 22/21 A3009 160 93 1100 000/00 RMK AO2 T02220211 $
63870K0J4 0J420160722025511707/22/16 02:55:31  5-MIN K0J4 220755Z AUTO 00000KT 10SM CLR 22/21 A3008 160 93 1100 000/00 RMK AO2 SLP183 T02220211 $
63870K0J4 0J420160722030011007/22/16 03:00:31  5-MIN K0J4 220800Z AUTO 00000KT 10SM CLR 22/21 A3008 160 93 1100 000/00 RMK AO2 T02220211 $
63870K0J4 0J420160722030511007/22/16 03:05:31  5-MIN K0J4 220805Z AUTO 00000KT 10SM CLR 22/21 A3009 160 93 1100 000/00 RMK AO2 T02220211 $
63870K0J4 0J420160722031011007/22/16 03:10:31  5-MIN K0J4 220810Z AUTO 03003KT 10SM CLR 22/21 A3009 160 93 1100 030/03 RMK AO2 T02220211 $
63870K0J4 0J420160722031511007/22/16 03:15:31  5-MIN K0J4 220815Z AUTO 03004KT 10SM CLR 22/21 A3009 160 93 1100 030/04 RMK AO2 T02220211 $
63870K0J4 0J420160722032011307/22/16 03:20:31  5-MIN K0J4 220820Z AUTO 06003KT 10SM FEW070 22/21 A3009 160 93 1100 060/03 RMK AO2 T02220211 $
63870K0J4 0J420160722032511307/22/16 03:25:31  5-MIN K0J4 220825Z AUTO 00000KT 10SM FEW070 22/21 A3009 160 93 1100 000/00 RMK AO2 T02220211 $
63870K0J4 0J420160722033011307/22/16 03:30:31  5-MIN K0J4 220830Z AUTO 00000KT 10SM FEW070 22/21 A3008 170 93 1100 000/00 RMK AO2 T02220211 $
63870K0J4 0J420160722033511307/22/16 03:35:31  5-MIN K0J4 220835Z AUTO 00000KT 10SM FEW070 22/21 A3009 160 93 1100 000/00 RMK AO2 T02220211 $
63870K0J4 0J420160722034012007/22/16 03:40:31  5-MIN K0J4 220840Z AUTO 13004KT 10SM FEW015 SCT070 22/21 A3011 140 93 1100 130/04 RMK AO2 T02220211 $
63870K0J4 0J420160722034512007/22/16 03:45:31  5-MIN K0J4 220845Z AUTO VRB05KT 10SM SCT015 BKN070 22/21 A3011 140 93 1100 VRB/05 RMK AO2 T02220211 $
63870K0J4 0J420160722035012707/22/16 03:50:31  5-MIN K0J4 220850Z AUTO VRB04KT 10SM FEW002 BKN016 BKN070 22/21 A3010 150 93 1100 VRB/04 RMK AO2 T02220211 $
63870K0J4 0J420160722035514007/22/16 03:55:31  5-MIN K0J4 220855Z AUTO 12004KT 10SM SCT002 BKN016 BKN070 22/21 A3010 150 93 1100 120/04 RMK AO2 SLP189 T02220211 55002 $
63870K0J4 0J420160722040012707/22/16 04:00:31  5-MIN K0J4 220900Z AUTO 13005KT 10SM SCT002 BKN016 BKN070 22/21 A3010 150 97 1000 130/05 RMK AO2 T02170211 $
63870K0J4 0J420160722040512007/22/16 04:05:31  5-MIN K0J4 220905Z AUTO 00000KT 10SM FEW002 BKN016 22/21 A3010 150 97 1000 000/00 RMK AO2 T02170211 $
63870K0J4 0J420160722041012007/22/16 04:10:31  5-MIN K0J4 220910Z AUTO 00000KT 10SM FEW002 BKN016 22/21 A3010 150 97 1000 000/00 RMK AO2 T02170211 $
63870K0J4 0J420160722041512007/22/16 04:15:31  5-MIN K0J4 220915Z AUTO 00000KT 10SM FEW002 BKN016 22/21 A3011 140 97 1000 000/00 RMK AO2 T02170211 $
63870K0J4 0J420160722042012007/22/16 04:20:31  5-MIN K0J4 220920Z AUTO 10003KT 10SM FEW002 BKN016 22/21 A3011 140 93 1100 100/03 RMK AO2 T02220211 $
63870K0J4 0J420160722042511307/22/16 04:25:31  5-MIN K0J4 220925Z AUTO 00000KT 10SM BKN017 22/21 A3011 140 93 1100 000/00 RMK AO2 T02220211 $
63870K0J4 0J420160722043011307/22/16 04:30:31  5-MIN K0J4 220930Z AUTO 00000KT 10SM BKN017 22/21 A3011 140 93 1100 000/00 RMK AO2 T02220211 $
63870K0J4 0J420160722043512007/22/16 04:35:31  5-MIN K0J4 220935Z AUTO 00000KT 10SM BKN017 BKN023 22/21 A3011 140 97 1000 000/00 RMK AO2 T02170211 $
63870K0J4 0J420160722044011307/22/16 04:40:31  5-MIN K0J4 220940Z AUTO 00000KT 10SM BKN017 22/21 A3011 140 93 1100 000/00 RMK AO2 T02220211 $
63870K0J4 0J420160722044511307/22/16 04:45:31  5-MIN K0J4 220945Z AUTO 00000KT 10SM BKN017 22/21 A3011 150 97 1000 000/00 RMK AO2 T02170211 $
63870K0J4 0J420160722045011307/22/16 04:50:31  5-MIN K0J4 220950Z AUTO 15003KT 10SM BKN017 22/21 A3010 150 93 1000 150/03 RMK AO2 T02170206 $
63870K0J4 0J420160722045510307/22/16 04:55:31  5-MIN K0J4 220955Z AUTO 16003KT 10SM SCT017 22/21 A3010 150 93 1000 160/03 RMK AO2 $
63870K0J4 0J420160722050011307/22/16 05:00:31  5-MIN K0J4 221000Z AUTO 00000KT 10SM BKN017 22/21 A3011 150 93 1000 000/00 RMK AO2 T02170206 $
63870K0J4 0J420160722050511307/22/16 05:05:31  5-MIN K0J4 221005Z AUTO 00000KT 10SM SCT017 22/21 A3011 140 93 1000 000/00 RMK AO2 T02170206 $
63870K0J4 0J420160722051011307/22/16 05:10:31  5-MIN K0J4 221010Z AUTO 00000KT 10SM FEW017 22/21 A3011 140 93 1000 000/00 RMK AO2 T02170206 $
63870K0J4 0J420160722051511307/22/16 05:15:31  5-MIN K0J4 221015Z AUTO 00000KT 10SM FEW018 22/21 A3011 140 93 1000 000/00 RMK AO2 T02170206 $
63870K0J4 0J420160722052011307/22/16 05:20:31  5-MIN K0J4 221020Z AUTO 00000KT 10SM FEW018 22/21 A3011 140 93 1000 000/00 RMK AO2 T02170206 $
63870K0J4 0J420160722052511307/22/16 05:25:31  5-MIN K0J4 221025Z AUTO 00000KT 10SM FEW018 22/21 A3011 140 93 1000 000/00 RMK AO2 T02170206 $
63870K0J4 0J420160722053011307/22/16 05:30:31  5-MIN K0J4 221030Z AUTO 00000KT 10SM FEW020 22/21 A3012 130 90 1000 000/00 RMK AO2 T02220206 $
63870K0J4 0J420160722053511307/22/16 05:35:31  5-MIN K0J4 221035Z AUTO 00000KT 10SM FEW020 22/21 A3012 130 90 1000 000/00 RMK AO2 T02220206 $
63870K0J4 0J420160722054011307/22/16 05:40:31  5-MIN K0J4 221040Z AUTO 00000KT 10SM FEW020 22/21 A3012 130 90 1000 000/00 RMK AO2 T02220206 $
63870K0J4 0J420160722054511307/22/16 05:45:31  5-MIN K0J4 221045Z AUTO 02003KT 10SM FEW020 22/21 A3012 140 90 1000 020/03 RMK AO2 T02220206 $
63870K0J4 0J420160722055011307/22/16 05:50:31  5-MIN K0J4 221050Z AUTO 00000KT 10SM FEW021 22/21 A3011 140 93 1000 000/00 RMK AO2 T02170206 $
63870K0J4 0J420160722055512007/22/16 05:55:31  5-MIN K0J4 221055Z AUTO 00000KT 10SM FEW021 22/21 A3012 140 90 1000 000/00 RMK AO2 SLP195 T02220206 $
63870K0J4 0J420160722060011307/22/16 06:00:31  5-MIN K0J4 221100Z AUTO 00000KT 10SM FEW023 22/21 A3012 140 90 1000 000/00 RMK AO2 T02220206 $
63870K0J4 0J420160722060511007/22/16 06:05:31  5-MIN K0J4 221105Z AUTO 00000KT 10SM CLR 22/21 A3012 140 90 1000 000/00 RMK AO2 T02220206 $
63870K0J4 0J420160722061011007/22/16 06:10:31  5-MIN K0J4 221110Z AUTO 00000KT 10SM CLR 22/21 A3012 140 90 1000 000/00 RMK AO2 T02220206 $
63870K0J4 0J420160722061511007/22/16 06:15:31  5-MIN K0J4 221115Z AUTO 00000KT 10SM CLR 22/21 A3012 140 93 1000 000/00 RMK AO2 T02220211 $
63870K0J4 0J420160722062011007/22/16 06:20:31  5-MIN K0J4 221120Z AUTO 00000KT 10SM CLR 22/21 A3012 130 93 1000 000/00 RMK AO2 T02220211 $
63870K0J4 0J420160722062511007/22/16 06:25:31  5-MIN K0J4 221125Z AUTO 00000KT 10SM CLR 22/21 A3012 130 90 1000 000/00 RMK AO2 T02220206 $
63870K0J4 0J420160722063011007/22/16 06:30:31  5-MIN K0J4 221130Z AUTO 00000KT 10SM CLR 22/21 A3012 130 93 1000 000/00 RMK AO2 T02220211 $
63870K0J4 0J420160722063511007/22/16 06:35:31  5-MIN K0J4 221135Z AUTO 00000KT 10SM CLR 22/21 A3013 130 93 1000 000/00 RMK AO2 T02220211 $
63870K0J4 0J420160722064011007/22/16 06:40:31  5-MIN K0J4 221140Z AUTO 00000KT 10SM CLR 22/21 A3013 130 93 1000 000/00 RMK AO2 T02220211 $
63870K0J4 0J420160722064511007/22/16 06:45:31  5-MIN K0J4 221145Z AUTO 00000KT 10SM CLR 22/21 A3013 130 93 1000 000/00 RMK AO2 T02220211 $
63870K0J4 0J420160722065011007/22/16 06:50:31  5-MIN K0J4 221150Z AUTO 00000KT 10SM CLR 22/21 A3012 130 93 1000 000/00 RMK AO2 T02220211 $
63870K0J4 0J420160722065514107/22/16 06:55:31  5-MIN K0J4 221155Z AUTO 00000KT 10SM CLR 22/21 A3012 130 93 1000 000/00 RMK AO2 SLP195 70001 T02220211 10222 20217 55009 $
63870K0J4 0J420160722070011007/22/16 07:00:31  5-MIN K0J4 221200Z AUTO 00000KT 10SM CLR 23/21 A3012 130 90 1100 000/00 RMK AO2 T02280211 $
63870K0J4 0J420160722070511007/22/16 07:05:31  5-MIN K0J4 221205Z AUTO 00000KT 10SM CLR 23/21 A3012 130 90 1100 000/00 RMK AO2 T02280211 $
63870K0J4 0J420160722071011007/22/16 07:10:31  5-MIN K0J4 221210Z AUTO 00000KT 10SM CLR 23/21 A3012 140 90 1100 000/00 RMK AO2 T02280211 $
63870K0J4 0J420160722071511007/22/16 07:15:31  5-MIN K0J4 221215Z AUTO 00000KT 10SM CLR 23/21 A3012 140 90 1100 000/00 RMK AO2 T02280211 $
63870K0J4 0J420160722072011007/22/16 07:20:31  5-MIN K0J4 221220Z AUTO 00000KT 10SM CLR 23/21 A3012 130 87 1200 000/00 RMK AO2 T02330211 $
63870K0J4 0J420160722072510807/22/16 07:25:31  5-MIN K0J4 221225Z AUTO 00000KT 10SM CLR 24/22 A3012 130 87 1200 000/00 RMK AO2 T02390217
63870K0J4 0J420160722073010807/22/16 07:30:31  5-MIN K0J4 221230Z AUTO 00000KT 10SM CLR 24/22 A3013 120 87 1200 000/00 RMK AO2 T02390217
63870K0J4 0J420160722073510807/22/16 07:35:31  5-MIN K0J4 221235Z AUTO 14003KT 10SM CLR 24/22 A3013 120 87 1200 140/03 RMK AO2 T02390217
63870K0J4 0J420160722074010807/22/16 07:40:31  5-MIN K0J4 221240Z AUTO 00000KT 10SM CLR 24/22 A3013 120 87 1200 000/00 RMK AO2 T02390217
63870K0J4 0J420160722074510807/22/16 07:45:31  5-MIN K0J4 221245Z AUTO 13005KT 10SM CLR 24/22 A3013 120 87 1200 130/05 RMK AO2 T02390217
63870K0J4 0J420160722075010807/22/16 07:50:31  5-MIN K0J4 221250Z AUTO 00000KT 10SM CLR 24/22 A3013 120 84 1300 000/00 RMK AO2 T02440217
63870K0J4 0J420160722075511807/22/16 07:55:31  5-MIN K0J4 221255Z AUTO VRB03KT 10SM FEW015 24/22 A3014 120 87 1300 VRB/03 RMK AO2 SLP200 T02440222
63870K0J4 0J420160722080011107/22/16 08:00:31  5-MIN K0J4 221300Z AUTO 13003KT 10SM SCT015 24/22 A3013 120 87 1300 130/03 RMK AO2 T02440222
63870K0J4 0J420160722080511107/22/16 08:05:31  5-MIN K0J4 221305Z AUTO 14005KT 10SM SCT015 24/22 A3013 120 87 1300 140/05 RMK AO2 T02440222
63870K0J4 0J420160722081011107/22/16 08:10:31  5-MIN K0J4 221310Z AUTO 17004KT 10SM SCT015 25/22 A3013 120 84 1400 170/04 RMK AO2 T02500222
63870K0J4 0J420160722081511107/22/16 08:15:31  5-MIN K0J4 221315Z AUTO 14005KT 10SM SCT015 25/22 A3013 130 84 1400 140/05 RMK AO2 T02500222
63870K0J4 0J420160722082011107/22/16 08:20:31  5-MIN K0J4 221320Z AUTO 17004KT 10SM SCT015 26/22 A3012 130 81 1400 170/04 RMK AO2 T02560222
63870K0J4 0J420160722082511107/22/16 08:25:31  5-MIN K0J4 221325Z AUTO 16003KT 10SM FEW015 26/22 A3012 130 81 1400 160/03 RMK AO2 T02560222
63870K0J4 0J420160722083010807/22/16 08:30:31  5-MIN K0J4 221330Z AUTO 17004KT 10SM CLR 26/23 A3012 130 81 1500 170/04 RMK AO2 T02610228
63870K0J4 0J420160722083510807/22/16 08:35:31  5-MIN K0J4 221335Z AUTO 17004KT 10SM CLR 26/22 A3012 130 79 1500 170/04 RMK AO2 T02610222
63870K0J4 0J420160722084010807/22/16 08:40:31  5-MIN K0J4 221340Z AUTO 20003KT 10SM CLR 27/22 A3013 130 76 1500 200/03 RMK AO2 T02670222
63870K0J4 0J420160722084510807/22/16 08:45:31  5-MIN K0J4 221345Z AUTO VRB03KT 10SM CLR 27/23 A3013 130 79 1500 VRB/03 RMK AO2 T02670228
63870K0J4 0J420160722085010807/22/16 08:50:31  5-MIN K0J4 221350Z AUTO 00000KT 10SM CLR 27/22 A3013 130 76 1500 000/00 RMK AO2 T02670222
63870K0J4 0J420160722085511507/22/16 08:55:31  5-MIN K0J4 221355Z AUTO VRB03KT 10SM CLR 27/22 A3013 130 74 1600 VRB/03 RMK AO2 SLP197 T02720222
63870K0J4 0J420160722090010807/22/16 09:00:31  5-MIN K0J4 221400Z AUTO 21003KT 10SM CLR 27/22 A3013 130 74 1600 210/03 RMK AO2 T02720222
63870K0J4 0J420160722090510807/22/16 09:05:31  5-MIN K0J4 221405Z AUTO VRB03KT 10SM CLR 27/22 A3013 130 74 1600 VRB/03 RMK AO2 T02720222
63870K0J4 0J420160722091010807/22/16 09:10:31  5-MIN K0J4 221410Z AUTO 17003KT 10SM CLR 28/23 A3013 130 74 1700 170/03 RMK AO2 T02780228
63870K0J4 0J420160722091510807/22/16 09:15:31  5-MIN K0J4 221415Z AUTO 21004KT 10SM CLR 28/23 A3013 130 74 1700 210/04 RMK AO2 T02780228
63870K0J4 0J420160722092011107/22/16 09:20:31  5-MIN K0J4 221420Z AUTO VRB03KT 10SM FEW014 28/23 A3013 130 74 1700 VRB/03 RMK AO2 T02780228
63870K0J4 0J420160722092511107/22/16 09:25:31  5-MIN K0J4 221425Z AUTO 19003KT 10SM SCT014 28/23 A3013 130 74 1700 190/03 RMK AO2 T02780228
63870K0J4 0J420160722093011807/22/16 09:30:31  5-MIN K0J4 221430Z AUTO 21004KT 10SM SCT014 BKN021 28/23 A3012 130 74 1700 210/04 RMK AO2 T02780228
63870K0J4 0J420160722093511807/22/16 09:35:31  5-MIN K0J4 221435Z AUTO 19004KT 10SM BKN015 BKN021 28/23 A3013 130 74 1700 190/04 RMK AO2 T02780228
63870K0J4 0J420160722094011807/22/16 09:40:31  5-MIN K0J4 221440Z AUTO VRB04KT 10SM BKN015 BKN021 28/23 A3012 130 74 1700 VRB/04 RMK AO2 T02780228
63870K0J4 0J420160722094511107/22/16 09:45:31  5-MIN K0J4 221445Z AUTO 18004KT 10SM BKN017 28/23 A3013 130 71 1700 180/04 RMK AO2 T02830228
63870K0J4 0J420160722095011807/22/16 09:50:31  5-MIN K0J4 221450Z AUTO 22005KT 10SM BKN017 OVC021 28/23 A3013 130 74 1700 220/05 RMK AO2 T02780228
63870K0J4 0J420160722095513107/22/16 09:55:31  5-MIN K0J4 221455Z AUTO 18003KT 10SM BKN017 BKN021 28/23 A3013 120 71 1700 180/03 RMK AO2 SLP197 T02830228 52007
63870K0J4 0J420160722100011807/22/16 10:00:31  5-MIN K0J4 221500Z AUTO 17003KT 10SM SCT016 BKN021 28/23 A3013 130 71 1700 170/03 RMK AO2 T02830228
63870K0J4 0J420160722100511807/22/16 10:05:31  5-MIN K0J4 221505Z AUTO 16003KT 10SM SCT016 SCT021 28/23 A3013 120 74 1700 160/03 RMK AO2 T02830233
63870K0J4 0J420160722101011807/22/16 10:10:31  5-MIN K0J4 221510Z AUTO 15005KT 10SM FEW016 FEW021 29/23 A3013 120 71 1800 150/05 RMK AO2 T02890233
63870K0J4 0J420160722101511107/22/16 10:15:31  5-MIN K0J4 221515Z AUTO 00000KT 10SM FEW018 29/23 A3013 120 71 1800 000/00 RMK AO2 T02890233
63870K0J4 0J420160722102010807/22/16 10:20:31  5-MIN K0J4 221520Z AUTO 24003KT 10SM CLR 29/24 A3013 130 74 1800 240/03 RMK AO2 T02890239
63870K0J4 0J420160722102510807/22/16 10:25:31  5-MIN K0J4 221525Z AUTO 00000KT 10SM CLR 29/23 A3012 130 69 1900 000/00 RMK AO2 T02940233
63870K0J4 0J420160722103010807/22/16 10:30:31  5-MIN K0J4 221530Z AUTO 00000KT 10SM CLR 29/24 A3012 130 71 1900 000/00 RMK AO2 T02940239
63870K0J4 0J420160722103511107/22/16 10:35:31  5-MIN K0J4 221535Z AUTO 00000KT 10SM FEW020 29/24 A3012 130 71 1900 000/00 RMK AO2 T02940239
63870K0J4 0J420160722104011107/22/16 10:40:31  5-MIN K0J4 221540Z AUTO 14003KT 10SM SCT020 29/24 A3012 130 74 1800 140/03 RMK AO2 T02890239
63870K0J4 0J420160722104511107/22/16 10:45:31  5-MIN K0J4 221545Z AUTO 15004KT 10SM BKN019 29/24 A3012 130 74 1800 150/04 RMK AO2 T02890239
63870K0J4 0J420160722105011107/22/16 10:50:31  5-MIN K0J4 221550Z AUTO 00000KT 10SM BKN019 29/23 A3012 130 71 1800 000/00 RMK AO2 T02890233
63870K0J4 0J420160722105511807/22/16 10:55:31  5-MIN K0J4 221555Z AUTO 14003KT 10SM BKN019 29/23 A3012 130 71 1800 140/03 RMK AO2 SLP196 T02890233
63870K0J4 0J420160722110011107/22/16 11:00:31  5-MIN K0J4 221600Z AUTO 00000KT 10SM SCT019 29/23 A3012 130 71 1800 000/00 RMK AO2 T02890233
63870K0J4 0J420160722110511107/22/16 11:05:31  5-MIN K0J4 221605Z AUTO 00000KT 10SM SCT019 29/23 A3012 130 69 1900 000/00 RMK AO2 T02940233
63870K0J4 0J420160722111011107/22/16 11:10:31  5-MIN K0J4 221610Z AUTO 00000KT 10SM FEW021 30/23 A3012 130 67 1900 000/00 RMK AO2 T03000233
63870K0J4 0J420160722111511107/22/16 11:15:31  5-MIN K0J4 221615Z AUTO VRB03KT 10SM FEW021 31/24 A3012 130 65 2000 VRB/03 RMK AO2 T03110239
63870K0J4 0J420160722112010807/22/16 11:20:31  5-MIN K0J4 221620Z AUTO 15004KT 10SM CLR 31/23 A3012 130 65 2000 150/04 RMK AO2 T03060233
63870K0J4 0J420160722112510807/22/16 11:25:31  5-MIN K0J4 221625Z AUTO 14004KT 10SM CLR 31/23 A3012 130 62 2000 140/04 RMK AO2 T03060228
63870K0J4 0J420160722113010807/22/16 11:30:31  5-MIN K0J4 221630Z AUTO 00000KT 10SM CLR 31/23 A3012 130 62 2000 000/00 RMK AO2 T03060228
63870K0J4 0J420160722113511107/22/16 11:35:31  5-MIN K0J4 221635Z AUTO 00000KT 10SM FEW028 31/23 A3012 130 65 2000 000/00 RMK AO2 T03060233
63870K0J4 0J420160722114011107/22/16 11:40:31  5-MIN K0J4 221640Z AUTO 16003KT 10SM SCT028 31/23 A3012 130 60 2000 160/03 RMK AO2 T03110228
63870K0J4 0J420160722114511807/22/16 11:45:31  5-MIN K0J4 221645Z AUTO VRB03KT 10SM SCT028 BKN040 31/23 A3012 130 60 2000 VRB/03 RMK AO2 T03110228
63870K0J4 0J420160722115011807/22/16 11:50:31  5-MIN K0J4 221650Z AUTO 18005KT 10SM SCT028 SCT040 31/23 A3012 130 60 2000 180/05 RMK AO2 T03110228
63870K0J4 0J420160722115512507/22/16 11:55:31  5-MIN K0J4 221655Z AUTO 23005KT 10SM FEW028 SCT070 31/23 A3013 130 60 2000 230/05 RMK AO2 SLP197 T03110228
63870K0J4 0J420160722120012507/22/16 12:00:31  5-MIN K0J4 221700Z AUTO 00000KT 10SM SCT028 SCT036 BKN070 31/22 A3012 130 58 2000 000/00 RMK AO2 T03110222
63870K0J4 0J420160722120512507/22/16 12:05:31  5-MIN K0J4 221705Z AUTO VRB06KT 10SM FEW028 SCT036 BKN070 31/22 A3012 130 60 2000 VRB/06 RMK AO2 T03060222
63870K0J4 0J420160722121012507/22/16 12:10:31  5-MIN K0J4 221710Z AUTO 00000KT 10SM FEW030 FEW036 BKN070 31/22 A3012 130 60 2000 000/00 RMK AO2 T03060222
63870K0J4 0J420160722121511807/22/16 12:15:31  5-MIN K0J4 221715Z AUTO 16005KT 10SM SCT032 BKN070 32/23 A3012 130 61 2100 160/05 RMK AO2 T03170233
63870K0J4 0J420160722122011807/22/16 12:20:31  5-MIN K0J4 221720Z AUTO 19006KT 10SM SCT032 BKN070 31/23 A3012 130 63 2000 190/06 RMK AO2 T03110233
63870K0J4 0J420160722122511807/22/16 12:25:31  5-MIN K0J4 221725Z AUTO 16003KT 10SM FEW033 BKN070 31/23 A3012 130 60 2000 160/03 RMK AO2 T03110228
63870K0J4 0J420160722123011807/22/16 12:30:31  5-MIN K0J4 221730Z AUTO 17005KT 10SM FEW033 SCT070 32/23 A3011 140 58 2100 170/05 RMK AO2 T03170228
63870K0J4 0J420160722123511807/22/16 12:35:31  5-MIN K0J4 221735Z AUTO 00000KT 10SM FEW033 SCT070 32/23 A3011 140 58 2100 000/00 RMK AO2 T03170228
63870K0J4 0J420160722124011807/22/16 12:40:31  5-MIN K0J4 221740Z AUTO 17006KT 10SM FEW033 SCT075 32/23 A3011 140 58 2100 170/06 RMK AO2 T03170228
63870K0J4 0J420160722124511807/22/16 12:45:31  5-MIN K0J4 221745Z AUTO VRB05KT 10SM SCT035 SCT075 31/23 A3010 150 60 2100 VRB/05 RMK AO2 T03110228
63870K0J4 0J420160722125011807/22/16 12:50:31  5-MIN K0J4 221750Z AUTO 00000KT 10SM FEW037 SCT060 31/23 A3010 150 60 2100 000/00 RMK AO2 T03110228
63870K0J4 0J420160722125514307/22/16 12:55:31  5-MIN K0J4 221755Z AUTO VRB05KT 10SM FEW035 SCT060 32/23 A3010 150 58 2100 VRB/05 RMK AO2 SLP190 T03170228 10322 20222 51002
63870K0J4 0J420160722130011807/22/16 13:00:31  5-MIN K0J4 221800Z AUTO 18005KT 10SM FEW035 SCT065 32/22 A3010 150 56 2100 180/05 RMK AO2 T03170222
63870K0J4 0J420160722130511807/22/16 13:05:31  5-MIN K0J4 221805Z AUTO VRB03KT 10SM FEW035 SCT065 32/22 A3010 150 56 2100 VRB/03 RMK AO2 T03170222
63870K0J4 0J420160722131011807/22/16 13:10:31  5-MIN K0J4 221810Z AUTO 21005KT 10SM FEW037 FEW060 32/22 A3010 150 55 2200 210/05 RMK AO2 T03220222
63870K0J4 0J420160722131511107/22/16 13:15:31  5-MIN K0J4 221815Z AUTO 00000KT 10SM FEW065 32/22 A3010 150 55 2200 000/00 RMK AO2 T03220222
63870K0J4 0J420160722132011107/22/16 13:20:31  5-MIN K0J4 221820Z AUTO 18008KT 10SM FEW065 32/22 A3010 150 55 2200 180/08 RMK AO2 T03220222
63870K0J4 0J420160722132511107/22/16 13:25:31  5-MIN K0J4 221825Z AUTO VRB04KT 10SM FEW065 32/22 A3010 150 55 2200 VRB/04 RMK AO2 T03220222
63870K0J4 0J420160722133011807/22/16 13:30:31  5-MIN K0J4 221830Z AUTO 00000KT 10SM FEW039 SCT065 33/22 A3010 150 53 2300 000/00 RMK AO2 T03280222
63870K0J4 0J420160722133511807/22/16 13:35:31  5-MIN K0J4 221835Z AUTO 23004KT 10SM SCT037 SCT065 32/22 A3010 150 56 2100 230/04 RMK AO2 T03170222
63870K0J4 0J420160722134012507/22/16 13:40:31  5-MIN K0J4 221840Z AUTO VRB06KT 10SM FEW029 BKN035 BKN065 31/23 A3010 150 62 2000 VRB/06 RMK AO2 T03060228
63870K0J4 0J420160722134512507/22/16 13:45:31  5-MIN K0J4 221845Z AUTO 00000KT 10SM SCT029 BKN035 BKN065 30/23 A3010 150 67 1900 000/00 RMK AO2 T03000233
63870K0J4 0J420160722135012507/22/16 13:50:31  5-MIN K0J4 221850Z AUTO 00000KT 10SM SCT029 BKN035 OVC065 30/24 A3010 150 69 2000 000/00 RMK AO2 T03000239
63870K0J4 0J420160722135513207/22/16 13:55:31  5-MIN K0J4 221855Z AUTO 00000KT 10SM FEW028 BKN035 OVC060 30/23 A3009 160 67 2000 000/00 RMK AO2 SLP185 T03000233
63870K0J4 0J420160722140012507/22/16 14:00:31  5-MIN K0J4 221900Z AUTO VRB03KT 10SM FEW028 BKN035 OVC060 29/23 A3009 160 69 1900 VRB/03 RMK AO2 T02940233
63870K0J4 0J420160722140514107/22/16 14:05:31  5-MIN K0J4 221905Z AUTO 33003KT 10SM -RA FEW028 BKN035 OVC060 29/24 A3010 150 74 1800 330/03 RMK AO2 RAB01 P0000 T02890239
63870K0J4 0J420160722141014107/22/16 14:10:31  5-MIN K0J4 221910Z AUTO 33005KT 10SM -RA FEW028 SCT035 OVC065 28/24 A3010 150 79 1800 330/05 RMK AO2 RAB01 P0001 T02830244
63870K0J4 0J420160722141514607/22/16 14:15:31  5-MIN K0J4 221915Z AUTO 03010G15KT 2SM +RA SCT023 BKN035 OVC065 28/24 A3011 140 82 1700 030/10G15 RMK AO2 RAB01 P0014 T02780244
63870K0J4 0J420160722142015107/22/16 14:20:31  5-MIN K0J4 221920Z AUTO VRB05G15KT 1/2SM +RA FG BKN021 BKN035 OVC065 26/23 A3010 150 87 1400 VRB/05G15 RMK AO2 RAB01 P0033 T02560233
63870K0J4 0J420160722142514507/22/16 14:25:31  5-MIN K0J4 221925Z AUTO 28004KT 1/2SM +RA FG BKN024 BKN036 OVC065 26/24 A3009 160 93 1500 280/04 RMK AO2 RAB01 P0043 T02560244
63870K0J4 0J420160722143014407/22/16 14:30:31  5-MIN K0J4 221930Z AUTO 31003KT 3/4SM RA BR SCT029 BKN038 OVC070 26/24 A3009 160 93 1500 310/03 RMK AO2 RAB01 P0044 T02560244
63870K0J4 0J420160722143514707/22/16 14:35:31  5-MIN K0J4 221935Z AUTO 00000KT 2 1/2SM -RA BR SCT029 BKN036 OVC065 26/24 A3009 160 90 1500 000/00 RMK AO2 RAB01 P0044 T02610244
63870K0J4 0J420160722144014007/22/16 14:40:31  5-MIN K0J4 221940Z AUTO 00000KT 8SM -RA BKN023 BKN034 OVC047 28/26 A3008 160 87 1700 000/00 RMK AO2 RAB01 P0044 T02780256
63870K0J4 0J420160722144514107/22/16 14:45:31  5-MIN K0J4 221945Z AUTO 32003KT 10SM -RA SCT023 BKN034 BKN047 28/26 A3008 170 85 1800 320/03 RMK AO2 RAB01 P0044 T02830256
63870K0J4 0J420160722145013307/22/16 14:50:31  5-MIN K0J4 221950Z AUTO VRB03KT 10SM FEW028 SCT047 29/26 A3008 170 79 1900 VRB/03 RMK AO2 RAB01E48 P0044 T02940256
63870K0J4 0J420160722145514707/22/16 14:55:31  5-MIN K0J4 221955Z AUTO 00000KT 10SM FEW025 SCT042 SCT055 29/25 A3008 170 76 1900 000/00 RMK AO2 RAB01E48 SLP181 P0044 T02940250
63870K0J4 0J420160722150012807/22/16 15:00:31  5-MIN K0J4 222000Z AUTO 00000KT 10SM -RA FEW019 FEW044 30/26 A3008 170 77 2000 000/00 RMK AO2 P0000 T03000256
63870K0J4 0J420160722150512107/22/16 15:05:31  5-MIN K0J4 222005Z AUTO 26003KT 10SM -RA FEW013 30/25 A3007 180 74 2000 260/03 RMK AO2 P0000 T03000250
63870K0J4 0J420160722151012007/22/16 15:10:31  5-MIN K0J4 222010Z AUTO VRB03KT 10SM CLR 31/25 A3007 180 72 2000 VRB/03 RMK AO2 RAE07 P0000 T03060250
63870K0J4 0J420160722151512007/22/16 15:15:31  5-MIN K0J4 222015Z AUTO 00000KT 10SM CLR 31/25 A3007 180 72 2000 000/00 RMK AO2 RAE07 P0000 T03060250
63870K0J4 0J420160722152012007/22/16 15:20:31  5-MIN K0J4 222020Z AUTO VRB03KT 10SM CLR 31/25 A3006 180 72 2000 VRB/03 RMK AO2 RAE07 P0000 T03060250
63870K0J4 0J420160722152512007/22/16 15:25:31  5-MIN K0J4 222025Z AUTO VRB03KT 10SM CLR 31/25 A3006 190 72 2000 VRB/03 RMK AO2 RAE07 P0000 T03060250
63870K0J4 0J420160722153012007/22/16 15:30:31  5-MIN K0J4 222030Z AUTO VRB03KT 10SM CLR 31/25 A3006 190 69 2100 VRB/03 RMK AO2 RAE07 P0000 T03110250
63870K0J4 0J420160722153512007/22/16 15:35:31  5-MIN K0J4 222035Z AUTO VRB04KT 10SM CLR 31/23 A3006 190 65 2100 VRB/04 RMK AO2 RAE07 P0000 T03060233
63870K0J4 0J420160722154012007/22/16 15:40:31  5-MIN K0J4 222040Z AUTO 00000KT 10SM CLR 31/24 A3005 190 65 2100 000/00 RMK AO2 RAE07 P0000 T03110239
63870K0J4 0J420160722154512007/22/16 15:45:31  5-MIN K0J4 222045Z AUTO VRB03KT 10SM CLR 31/23 A3005 200 63 2100 VRB/03 RMK AO2 RAE07 P0000 T03110233
63870K0J4 0J420160722155012007/22/16 15:50:31  5-MIN K0J4 222050Z AUTO 00000KT 10SM CLR 31/23 A3005 200 60 2100 000/00 RMK AO2 RAE07 P0000 T03110228
63870K0J4 0J420160722155513907/22/16 15:55:31  5-MIN K0J4 222055Z AUTO 00000KT 10SM CLR 31/23 A3005 200 60 2100 000/00 RMK AO2 RAE07 SLP171 P0000 60044 T03110228 58008
63870K0J4 0J420160722160010807/22/16 16:00:31  5-MIN K0J4 222100Z AUTO VRB03KT 10SM CLR 32/23 A3005 200 61 2200 VRB/03 RMK AO2 T03170233
63870K0J4 0J420160722160509807/22/16 16:05:31  5-MIN K0J4 222105Z AUTO 10SM CLR 32/23 A3005 200 57 2200 M /M RMK AO2 T03220228
63870K0J4 0J420160722161011807/22/16 16:10:31  5-MIN K0J4 222110Z AUTO 31003KT 10SM FEW030 FEW044 31/23 A3005 200 63 2100 310/03 RMK AO2 T03110233
63870K0J4 0J420160722161512507/22/16 16:15:31  5-MIN K0J4 222115Z AUTO VRB03KT 10SM FEW030 FEW044 SCT050 31/23 A3005 200 63 2100 VRB/03 RMK AO2 T03110233
63870K0J4 0J420160722162011807/22/16 16:20:31  5-MIN K0J4 222120Z AUTO 00000KT 10SM FEW030 SCT050 31/23 A3005 200 65 2100 000/00 RMK AO2 T03060233
63870K0J4 0J420160722162512507/22/16 16:25:31  5-MIN K0J4 222125Z AUTO VRB06KT 10SM SCT032 BKN043 BKN050 30/23 A3005 200 67 2000 VRB/06 RMK AO2 T03000233
63870K0J4 0J420160722163012507/22/16 16:30:31  5-MIN K0J4 222130Z AUTO VRB05KT 10SM SCT032 SCT044 BKN050 29/24 A3005 200 74 1900 VRB/05 RMK AO2 T02890239
63870K0J4 0J420160722163511807/22/16 16:35:31  5-MIN K0J4 222135Z AUTO VRB03KT 10SM FEW032 BKN048 29/24 A3004 200 74 1900 VRB/03 RMK AO2 T02890239
63870K0J4 0J420160722164011807/22/16 16:40:31  5-MIN K0J4 222140Z AUTO 00000KT 10SM FEW032 BKN048 29/24 A3004 200 71 1900 000/00 RMK AO2 T02940239
63870K0J4 0J420160722164512507/22/16 16:45:31  5-MIN K0J4 222145Z AUTO 34003KT 10SM FEW034 SCT048 BKN120 29/24 A3005 200 71 1900 340/03 RMK AO2 T02940239
63870K0J4 0J420160722165012507/22/16 16:50:31  5-MIN K0J4 222150Z AUTO 00000KT 10SM FEW034 SCT049 BKN120 29/24 A3005 200 71 1900 000/00 RMK AO2 T02940239
63870K0J4 0J420160722165512507/22/16 16:55:31  5-MIN K0J4 222155Z AUTO 00000KT 10SM FEW049 SCT120 30/24 A3004 200 72 2000 000/00 RMK AO2 SLP169 T03000244
63870K0J4 0J420160722170007507/22/16 17:00:31  5-MIN K0J4 222200Z AUTO VRB03KT 10SM FEW049 SCT110 29/24
63870K0J4 0J420160723002010807/23/16 00:20:31  5-MIN K0J4 230520Z AUTO 00000KT 10SM CLR 23/22 A3006 190 97 1200 000/00 RMK AO2 T02280222
63870K0J4 0J420160723002510807/23/16 00:25:31  5-MIN K0J4 230525Z AUTO 00000KT 10SM CLR 23/22 A3005 190 97 1200 000/00 RMK AO2 T02280222
63870K0J4 0J420160723003010807/23/16 00:30:31  5-MIN K0J4 230530Z AUTO 00000KT 10SM CLR 23/22 A3005 190 97 1200 000/00 RMK AO2 T02280222
63870K0J4 0J420160723003510807/23/16 00:35:31  5-MIN K0J4 230535Z AUTO 00000KT 10SM CLR 23/22 A3005 190 93 1200 000/00 RMK AO2 T02330222
63870K0J4 0J420160723004010807/23/16 00:40:31  5-MIN K0J4 230540Z AUTO 00000KT 10SM CLR 23/22 A3005 200 97 1200 000/00 RMK AO2 T02280222
63870K0J4 0J420160723004510807/23/16 00:45:31  5-MIN K0J4 230545Z AUTO 00000KT 10SM CLR 23/22 A3005 200 97 1200 000/00 RMK AO2 T02280222
63870K0J4 0J420160723005010807/23/16 00:50:31  5-MIN K0J4 230550Z AUTO 11003KT 10SM CLR 23/22 A3004 200 97 1200 110/03 RMK AO2 T02280222
63870K0J4 0J420160723005513907/23/16 00:55:31  5-MIN K0J4 230555Z AUTO 11004KT 10SM CLR 23/22 A3004 200 97 1200 110/04 RMK AO2 SLP168 60000 T02280222 10267 20228 58001
63870K0J4 0J420160723010010807/23/16 01:00:31  5-MIN K0J4 230600Z AUTO 00000KT 10SM CLR 23/22 A3004 210 97 1200 000/00 RMK AO2 T02280222
63870K0J4 0J420160723010510807/23/16 01:05:31  5-MIN K0J4 230605Z AUTO 00000KT 10SM CLR 23/22 A3004 210 93 1200 000/00 RMK AO2 T02280217
63870K0J4 0J420160723011010807/23/16 01:10:31  5-MIN K0J4 230610Z AUTO 00000KT 10SM CLR 23/22 A3004 210 97 1200 000/00 RMK AO2 T02280222
63870K0J4 0J420160723011510807/23/16 01:15:31  5-MIN K0J4 230615Z AUTO 00000KT 10SM CLR 23/22 A3004 210 97 1200 000/00 RMK AO2 T02280222
63870K0J4 0J420160723012507907/23/16 01:25:31  5-MIN K0J4 230625Z AUTO 00000KT A3004 M M M 000/00 RMK AO2 $
63870K0J4 0J420160723013010107/23/16 01:30:31  5-MIN K0J4 230630Z AUTO 00000KT 23/22 A3004 210 97 1200 000/00 RMK AO2 T02280222 $
63870K0J4 0J420160723013510607/23/16 01:35:31  5-MIN K0J4 230635Z AUTO 00000KT 10SM 23/22 A3004 210 97 1200 000/00 RMK AO2 T02280222 $
63870K0J4 0J420160723014010607/23/16 01:40:31  5-MIN K0J4 230640Z AUTO 00000KT 10SM 23/22 A3004 210 97 1200 000/00 RMK AO2 T02280222 $
63870K0J4 0J420160723014510607/23/16 01:45:31  5-MIN K0J4 230645Z AUTO 00000KT 10SM 23/22 A3003 210 97 1200 000/00 RMK AO2 T02280222 $
63870K0J4 0J420160723015010607/23/16 01:50:31  5-MIN K0J4 230650Z AUTO 00000KT 10SM 23/22 A3003 210 97 1200 000/00 RMK AO2 T02280222 $
63870K0J4 0J420160723015511707/23/16 01:55:31  5-MIN K0J4 230655Z AUTO 00000KT 10SM CLR 23/22 A3003 210 93 1200 000/00 RMK AO2 SLP165 T02280217 $
63870K0J4 0J420160723020011007/23/16 02:00:31  5-MIN K0J4 230700Z AUTO 00000KT 10SM CLR 23/22 A3003 210 93 1200 000/00 RMK AO2 T02280217 $
63870K0J4 0J420160723020511007/23/16 02:05:31  5-MIN K0J4 230705Z AUTO 00000KT 10SM CLR 23/22 A3003 210 93 1200 000/00 RMK AO2 T02280217 $
63870K0J4 0J420160723021011007/23/16 02:10:31  5-MIN K0J4 230710Z AUTO 16003KT 10SM CLR 23/22 A3003 210 93 1200 160/03 RMK AO2 T02280217 $
63870K0J4 0J420160723021510907/23/16 02:15:31  5-MIN K0J4 230715Z AUTO 15003KT 9SM CLR 22/22 A3003 210 97 1100 150/03 RMK AO2 T02220217 $
63870K0J4 0J420160723022010907/23/16 02:20:31  5-MIN K0J4 230720Z AUTO 00000KT 8SM CLR 23/22 A3003 210 93 1200 000/00 RMK AO2 T02280217 $
63870K0J4 0J420160723022510907/23/16 02:25:31  5-MIN K0J4 230725Z AUTO 00000KT 9SM CLR 23/22 A3003 210 93 1200 000/00 RMK AO2 T02280217 $
63870K0J4 0J420160723023010907/23/16 02:30:31  5-MIN K0J4 230730Z AUTO 00000KT 9SM CLR 23/22 A3003 210 93 1200 000/00 RMK AO2 T02280217 $
63870K0J4 0J420160723023510907/23/16 02:35:31  5-MIN K0J4 230735Z AUTO 17003KT 9SM CLR 23/22 A3003 210 93 1200 170/03 RMK AO2 T02280217 $
63870K0J4 0J420160723024010907/23/16 02:40:31  5-MIN K0J4 230740Z AUTO 00000KT 9SM CLR 23/22 A3003 210 93 1200 000/00 RMK AO2 T02280217 $
63870K0J4 0J420160723024511007/23/16 02:45:31  5-MIN K0J4 230745Z AUTO 00000KT 10SM CLR 23/22 A3003 210 93 1200 000/00 RMK AO2 T02280217 $
63870K0J4 0J420160723025011007/23/16 02:50:31  5-MIN K0J4 230750Z AUTO 00000KT 10SM CLR 23/22 A3003 220 93 1200 000/00 RMK AO2 T02280217 $
63870K0J4 0J420160723025511707/23/16 02:55:31  5-MIN K0J4 230755Z AUTO 00000KT 10SM CLR 23/22 A3003 220 93 1200 000/00 RMK AO2 SLP164 T02280217 $
63870K0J4 0J420160723030011007/23/16 03:00:31  5-MIN K0J4 230800Z AUTO 00000KT 10SM CLR 23/22 A3002 220 93 1200 000/00 RMK AO2 T02280217 $
63870K0J4 0J420160723030511007/23/16 03:05:31  5-MIN K0J4 230805Z AUTO 00000KT 10SM CLR 23/22 A3002 220 93 1200 000/00 RMK AO2 T02280217 $
63870K0J4 0J420160723031011007/23/16 03:10:31  5-MIN K0J4 230810Z AUTO 00000KT 10SM CLR 23/22 A3002 220 93 1200 000/00 RMK AO2 T02280217 $
63870K0J4 0J420160723031511007/23/16 03:15:31  5-MIN K0J4 230815Z AUTO 00000KT 10SM CLR 23/22 A3002 220 93 1200 000/00 RMK AO2 T02280217 $
63870K0J4 0J420160723032011007/23/16 03:20:31  5-MIN K0J4 230820Z AUTO 00000KT 10SM CLR 23/22 A3002 220 93 1200 000/00 RMK AO2 T02280217 $
63870K0J4 0J420160723032511007/23/16 03:25:31  5-MIN K0J4 230825Z AUTO 00000KT 10SM CLR 23/22 A3002 220 93 1200 000/00 RMK AO2 T02280217 $
63870K0J4 0J420160723033011007/23/16 03:30:31  5-MIN K0J4 230830Z AUTO 00000KT 10SM CLR 23/22 A3002 220 93 1200 000/00 RMK AO2 T02280217 $
63870K0J4 0J420160723033511007/23/16 03:35:31  5-MIN K0J4 230835Z AUTO 00000KT 10SM CLR 23/22 A3002 220 93 1200 000/00 RMK AO2 T02280217 $
63870K0J4 0J420160723034011007/23/16 03:40:31  5-MIN K0J4 230840Z AUTO 00000KT 10SM CLR 23/22 A3002 220 93 1200 000/00 RMK AO2 T02280217 $
63870K0J4 0J420160723034511007/23/16 03:45:31  5-MIN K0J4 230845Z AUTO 00000KT 10SM CLR 23/22 A3002 220 93 1200 000/00 RMK AO2 T02280217 $
63870K0J4 0J420160723035011007/23/16 03:50:31  5-MIN K0J4 230850Z AUTO 00000KT 10SM CLR 23/22 A3002 220 93 1200 000/00 RMK AO2 T02280217 $
63870K0J4 0J420160723035511707/23/16 03:55:31  5-MIN K0J4 230855Z AUTO 00000KT 10SM CLR 23/22 A3002 220 93 1200 000/00 RMK AO2 SLP162 T02280217 $
63870K0J4 0J420160723040011007/23/16 04:00:31  5-MIN K0J4 230900Z AUTO 00000KT 10SM CLR 23/22 A3002 220 93 1200 000/00 RMK AO2 T02280217 $
63870K0J4 0J420160723040511007/23/16 04:05:31  5-MIN K0J4 230905Z AUTO 00000KT 10SM CLR 22/21 A3003 220 93 1200 000/00 RMK AO2 T02220211 $
63870K0J4 0J420160723041011007/23/16 04:10:31  5-MIN K0J4 230910Z AUTO 00000KT 10SM CLR 22/21 A3003 220 93 1200 000/00 RMK AO2 T02220211 $
63870K0J4 0J420160723041511007/23/16 04:15:31  5-MIN K0J4 230915Z AUTO 00000KT 10SM CLR 22/21 A3003 220 93 1200 000/00 RMK AO2 T02220211 $
63870K0J4 0J420160723042011007/23/16 04:20:31  5-MIN K0J4 230920Z AUTO 00000KT 10SM CLR 22/21 A3003 220 93 1100 000/00 RMK AO2 T02220211 $
63870K0J4 0J420160723042511007/23/16 04:25:31  5-MIN K0J4 230925Z AUTO 00000KT 10SM CLR 22/22 A3003 220 97 1200 000/00 RMK AO2 T02220217 $
63870K0J4 0J420160723043010907/23/16 04:30:31  5-MIN K0J4 230930Z AUTO 00000KT 9SM CLR 22/22 A3003 220 97 1100 000/00 RMK AO2 T02220217 $
63870K0J4 0J420160723043510907/23/16 04:35:31  5-MIN K0J4 230935Z AUTO 00000KT 9SM CLR 22/21 A3003 220 93 1100 000/00 RMK AO2 T02220211 $
63870K0J4 0J420160723044011007/23/16 04:40:31  5-MIN K0J4 230940Z AUTO 00000KT 10SM CLR 22/21 A3003 220 93 1100 000/00 RMK AO2 T02220211 $
63870K0J4 0J420160723044511007/23/16 04:45:31  5-MIN K0J4 230945Z AUTO 00000KT 10SM CLR 22/21 A3003 220 93 1100 000/00 RMK AO2 T02220211 $
63870K0J4 0J420160723045011007/23/16 04:50:31  5-MIN K0J4 230950Z AUTO 00000KT 10SM CLR 22/21 A3003 220 97 1100 000/00 RMK AO2 T02170211 $
63870K0J4 0J420160723045511707/23/16 04:55:31  5-MIN K0J4 230955Z AUTO 00000KT 10SM CLR 22/21 A3003 220 93 1100 000/00 RMK AO2 SLP164 T02170206 $
63870K0J4 0J420160723050011007/23/16 05:00:31  5-MIN K0J4 231000Z AUTO 00000KT 10SM CLR 22/21 A3003 220 93 1100 000/00 RMK AO2 T02170206 $
63870K0J4 0J420160723050511007/23/16 05:05:31  5-MIN K0J4 231005Z AUTO 00000KT 10SM CLR 22/21 A3003 220 93 1200 000/00 RMK AO2 T02220211 $
63870K0J4 0J420160723051011007/23/16 05:10:31  5-MIN K0J4 231010Z AUTO 00000KT 10SM CLR 22/21 A3003 220 93 1100 000/00 RMK AO2 T02220211 $
63870K0J4 0J420160723051511007/23/16 05:15:31  5-MIN K0J4 231015Z AUTO 00000KT 10SM CLR 22/21 A3003 220 93 1100 000/00 RMK AO2 T02220211 $
63870K0J4 0J420160723052011007/23/16 05:20:31  5-MIN K0J4 231020Z AUTO 00000KT 10SM CLR 22/21 A3003 220 93 1200 000/00 RMK AO2 T02220211 $
63870K0J4 0J420160723052511007/23/16 05:25:31  5-MIN K0J4 231025Z AUTO 00000KT 10SM CLR 23/21 A3003 220 90 1200 000/00 RMK AO2 T02280211 $
63870K0J4 0J420160723053011007/23/16 05:30:31  5-MIN K0J4 231030Z AUTO 00000KT 10SM CLR 23/22 A3003 220 93 1200 000/00 RMK AO2 T02280217 $
63870K0J4 0J420160723053511007/23/16 05:35:31  5-MIN K0J4 231035Z AUTO 00000KT 10SM CLR 23/21 A3003 220 90 1200 000/00 RMK AO2 T02280211 $
63870K0J4 0J420160723054011007/23/16 05:40:31  5-MIN K0J4 231040Z AUTO 00000KT 10SM CLR 23/22 A3003 220 93 1200 000/00 RMK AO2 T02280217 $
63870K0J4 0J420160723054511007/23/16 05:45:31  5-MIN K0J4 231045Z AUTO 00000KT 10SM CLR 23/22 A3003 210 93 1200 000/00 RMK AO2 T02280217 $
63870K0J4 0J420160723055011007/23/16 05:50:31  5-MIN K0J4 231050Z AUTO 00000KT 10SM CLR 23/22 A3003 210 93 1200 000/00 RMK AO2 T02280217 $
63870K0J4 0J420160723055511707/23/16 05:55:31  5-MIN K0J4 231055Z AUTO 00000KT 10SM CLR 22/21 A3003 210 93 1100 000/00 RMK AO2 SLP165 T02220211 $
63870K0J4 0J420160723060011007/23/16 06:00:31  5-MIN K0J4 231100Z AUTO 00000KT 10SM CLR 22/21 A3003 220 93 1100 000/00 RMK AO2 T02220211 $
63870K0J4 0J420160723060511007/23/16 06:05:31  5-MIN K0J4 231105Z AUTO 00000KT 10SM CLR 22/21 A3003 210 93 1100 000/00 RMK AO2 T02220211 $
63870K0J4 0J420160723061011007/23/16 06:10:31  5-MIN K0J4 231110Z AUTO 00000KT 10SM CLR 22/21 A3003 210 93 1100 000/00 RMK AO2 T02220211 $
63870K0J4 0J420160723061511007/23/16 06:15:31  5-MIN K0J4 231115Z AUTO 00000KT 10SM CLR 22/21 A3003 210 93 1100 000/00 RMK AO2 T02220211 $
63870K0J4 0J420160723062011007/23/16 06:20:31  5-MIN K0J4 231120Z AUTO 00000KT 10SM CLR 22/21 A3003 210 93 1100 000/00 RMK AO2 T02220211 $
63870K0J4 0J420160723062511007/23/16 06:25:31  5-MIN K0J4 231125Z AUTO 00000KT 10SM CLR 22/21 A3003 210 93 1100 000/00 RMK AO2 T02220211 $
63870K0J4 0J420160723063011007/23/16 06:30:31  5-MIN K0J4 231130Z AUTO 00000KT 10SM CLR 23/21 A3003 210 90 1200 000/00 RMK AO2 T02280211 $
63870K0J4 0J420160723063511007/23/16 06:35:31  5-MIN K0J4 231135Z AUTO 00000KT 10SM CLR 23/22 A3003 210 93 1200 000/00 RMK AO2 T02280217 $
63870K0J4 0J420160723064011007/23/16 06:40:31  5-MIN K0J4 231140Z AUTO 00000KT 10SM CLR 22/22 A3004 210 97 1100 000/00 RMK AO2 T02220217 $
63870K0J4 0J420160723064511007/23/16 06:45:31  5-MIN K0J4 231145Z AUTO 00000KT 10SM CLR 23/22 A3004 210 93 1200 000/00 RMK AO2 T02280217 $
63870K0J4 0J420160723065011007/23/16 06:50:31  5-MIN K0J4 231150Z AUTO 00000KT 10SM CLR 23/22 A3004 210 93 1200 000/00 RMK AO2 T02280217 $
63870K0J4 0J420160723065513507/23/16 06:55:31  5-MIN K0J4 231155Z AUTO 00000KT 10SM CLR 23/22 A3004 210 93 1200 000/00 RMK AO2 SLP167 70044 T02280217 10233 20217 $
63870K0J4 0J420160723070011007/23/16 07:00:31  5-MIN K0J4 231200Z AUTO 00000KT 10SM CLR 23/22 A3004 210 90 1300 000/00 RMK AO2 T02330217 $
63870K0J4 0J420160723070511007/23/16 07:05:31  5-MIN K0J4 231205Z AUTO 00000KT 10SM CLR 23/22 A3004 210 93 1300 000/00 RMK AO2 T02330222 $
63870K0J4 0J420160723071011007/23/16 07:10:31  5-MIN K0J4 231210Z AUTO 00000KT 10SM CLR 24/22 A3004 200 90 1300 000/00 RMK AO2 T02390222 $
63870K0J4 0J420160723071511007/23/16 07:15:31  5-MIN K0J4 231215Z AUTO 00000KT 10SM CLR 24/22 A3004 200 90 1300 000/00 RMK AO2 T02390222 $
63870K0J4 0J420160723072011007/23/16 07:20:31  5-MIN K0J4 231220Z AUTO 00000KT 10SM CLR 24/22 A3005 200 90 1300 000/00 RMK AO2 T02390222 $
63870K0J4 0J420160723072511007/23/16 07:25:31  5-MIN K0J4 231225Z AUTO 00000KT 10SM CLR 25/23 A3005 200 87 1400 000/00 RMK AO2 T02500228 $
63870K0J4 0J420160723073011007/23/16 07:30:31  5-MIN K0J4 231230Z AUTO 00000KT 10SM CLR 25/23 A3005 200 87 1400 000/00 RMK AO2 T02500228 $
63870K0J4 0J420160723073511007/23/16 07:35:31  5-MIN K0J4 231235Z AUTO 00000KT 10SM CLR 25/23 A3005 200 87 1400 000/00 RMK AO2 T02500228 $
63870K0J4 0J420160723074011307/23/16 07:40:31  5-MIN K0J4 231240Z AUTO 00000KT 10SM SCT014 25/22 A3005 190 84 1400 000/00 RMK AO2 T02500222 $
63870K0J4 0J420160723074511307/23/16 07:45:31  5-MIN K0J4 231245Z AUTO 16003KT 10SM BKN014 25/23 A3005 190 87 1400 160/03 RMK AO2 T02500228 $
63870K0J4 0J420160723075011307/23/16 07:50:31  5-MIN K0J4 231250Z AUTO 00000KT 10SM BKN014 25/23 A3006 190 87 1400 000/00 RMK AO2 T02500228 $
63870K0J4 0J420160723075510307/23/16 07:55:31  5-MIN K0J4 231255Z AUTO 00000KT 10SM BKN016 25/22 A3006 190 84 1400 000/00 RMK AO2 $
63870K0J4 0J420160723080012007/23/16 08:00:31  5-MIN K0J4 231300Z AUTO 00000KT 10SM BKN014 BKN020 25/23 A3006 190 87 1400 000/00 RMK AO2 T02500228 $
63870K0J4 0J420160723080512007/23/16 08:05:31  5-MIN K0J4 231305Z AUTO 00000KT 10SM BKN014 BKN020 26/23 A3006 190 87 1500 000/00 RMK AO2 T02560233 $
63870K0J4 0J420160723081011307/23/16 08:10:31  5-MIN K0J4 231310Z AUTO 00000KT 10SM SCT017 26/23 A3006 190 84 1600 000/00 RMK AO2 T02610233 $
63870K0J4 0J420160723081511307/23/16 08:15:31  5-MIN K0J4 231315Z AUTO 00000KT 10SM SCT017 26/23 A3006 190 84 1600 000/00 RMK AO2 T02610233 $
63870K0J4 0J420160723082011307/23/16 08:20:31  5-MIN K0J4 231320Z AUTO 00000KT 10SM FEW017 27/23 A3006 190 82 1600 000/00 RMK AO2 T02670233 $
63870K0J4 0J420160723082511307/23/16 08:25:31  5-MIN K0J4 231325Z AUTO 00000KT 10SM FEW019 27/23 A3006 190 82 1600 000/00 RMK AO2 T02670233 $
63870K0J4 0J420160723083011007/23/16 08:30:31  5-MIN K0J4 231330Z AUTO 10003KT 10SM CLR 27/23 A3006 190 79 1700 100/03 RMK AO2 T02720233 $
63870K0J4 0J420160723083511007/23/16 08:35:31  5-MIN K0J4 231335Z AUTO 09004KT 10SM CLR 27/23 A3006 190 79 1700 090/04 RMK AO2 T02720233 $
63870K0J4 0J420160723084011007/23/16 08:40:31  5-MIN K0J4 231340Z AUTO 00000KT 10SM CLR 28/23 A3006 190 74 1700 000/00 RMK AO2 T02780228 $
63870K0J4 0J420160723084511007/23/16 08:45:31  5-MIN K0J4 231345Z AUTO 08003KT 10SM CLR 28/23 A3006 190 74 1700 080/03 RMK AO2 T02780228 $
63870K0J4 0J420160723085011007/23/16 08:50:31  5-MIN K0J4 231350Z AUTO 00000KT 10SM CLR 28/23 A3006 190 74 1800 000/00 RMK AO2 T02830233 $
63870K0J4 0J420160723085512007/23/16 08:55:31  5-MIN K0J4 231355Z AUTO 00000KT 10SM FEW015 28/23 A3006 190 76 1700 000/00 RMK AO2 SLP175 T02780233 $
63870K0J4 0J420160723090011307/23/16 09:00:31  5-MIN K0J4 231400Z AUTO 04003KT 10SM SCT015 28/23 A3006 190 74 1800 040/03 RMK AO2 T02830233 $
63870K0J4 0J420160723090511307/23/16 09:05:31  5-MIN K0J4 231405Z AUTO 00000KT 10SM SCT015 28/23 A3006 190 74 1800 000/00 RMK AO2 T02830233 $
63870K0J4 0J420160723091011307/23/16 09:10:31  5-MIN K0J4 231410Z AUTO 11003KT 10SM FEW015 28/23 A3006 190 74 1800 110/03 RMK AO2 T02830233 $
63870K0J4 0J420160723091511307/23/16 09:15:31  5-MIN K0J4 231415Z AUTO 00000KT 10SM FEW015 28/23 A3006 190 76 1700 000/00 RMK AO2 T02780233 $
63870K0J4 0J420160723092011307/23/16 09:20:31  5-MIN K0J4 231420Z AUTO VRB03KT 10SM FEW015 28/23 A3006 190 74 1800 VRB/03 RMK AO2 T02830233 $
63870K0J4 0J420160723092511307/23/16 09:25:31  5-MIN K0J4 231425Z AUTO 08003KT 10SM FEW015 29/24 A3006 190 71 1900 080/03 RMK AO2 T02940239 $
63870K0J4 0J420160723093011007/23/16 09:30:31  5-MIN K0J4 231430Z AUTO 00000KT 10SM CLR 29/23 A3006 190 71 1900 000/00 RMK AO2 T02890233 $
63870K0J4 0J420160723093511007/23/16 09:35:31  5-MIN K0J4 231435Z AUTO 00000KT 10SM CLR 29/24 A3006 190 74 1900 000/00 RMK AO2 T02890239 $
63870K0J4 0J420160723094011307/23/16 09:40:31  5-MIN K0J4 231440Z AUTO 00000KT 10SM FEW016 29/24 A3006 190 71 1900 000/00 RMK AO2 T02940239 $
63870K0J4 0J420160723094511307/23/16 09:45:31  5-MIN K0J4 231445Z AUTO 00000KT 10SM SCT016 29/24 A3006 190 71 1900 000/00 RMK AO2 T02940239 $
63870K0J4 0J420160723095011307/23/16 09:50:31  5-MIN K0J4 231450Z AUTO 00000KT 10SM SCT016 28/24 A3006 190 76 1800 000/00 RMK AO2 T02830239 $
63870K0J4 0J420160723095512607/23/16 09:55:31  5-MIN K0J4 231455Z AUTO 00000KT 10SM SCT016 29/24 A3006 190 74 1900 000/00 RMK AO2 SLP174 T02890239 53004 $
63870K0J4 0J420160723100011307/23/16 10:00:31  5-MIN K0J4 231500Z AUTO 00000KT 10SM SCT016 29/23 A3006 190 71 1900 000/00 RMK AO2 T02890233 $
63870K0J4 0J420160723100511307/23/16 10:05:31  5-MIN K0J4 231505Z AUTO 00000KT 10SM BKN018 29/24 A3006 190 71 1900 000/00 RMK AO2 T02940239 $
63870K0J4 0J420160723101011307/23/16 10:10:31  5-MIN K0J4 231510Z AUTO VRB03KT 10SM BKN018 29/23 A3006 190 69 1900 VRB/03 RMK AO2 T02940233 $
63870K0J4 0J420160723101511307/23/16 10:15:31  5-MIN K0J4 231515Z AUTO 08003KT 10SM SCT018 29/24 A3005 190 71 1900 080/03 RMK AO2 T02940239 $
63870K0J4 0J420160723102011307/23/16 10:20:31  5-MIN K0J4 231520Z AUTO VRB03KT 10SM FEW019 30/23 A3005 190 67 2000 VRB/03 RMK AO2 T03000233 $
63870K0J4 0J420160723102511307/23/16 10:25:31  5-MIN K0J4 231525Z AUTO 15003KT 10SM FEW019 29/23 A3005 190 69 1900 150/03 RMK AO2 T02890228 $
63870K0J4 0J420160723103011307/23/16 10:30:31  5-MIN K0J4 231530Z AUTO 00000KT 10SM FEW019 29/23 A3005 190 71 1900 000/00 RMK AO2 T02890233 $
63870K0J4 0J420160723103511007/23/16 10:35:31  5-MIN K0J4 231535Z AUTO 00000KT 10SM CLR 29/23 A3005 200 71 1900 000/00 RMK AO2 T02890233 $
63870K0J4 0J420160723104011007/23/16 10:40:31  5-MIN K0J4 231540Z AUTO VRB03KT 10SM CLR 30/23 A3005 190 67 2000 VRB/03 RMK AO2 T03000233 $
63870K0J4 0J420160723104511007/23/16 10:45:31  5-MIN K0J4 231545Z AUTO VRB03KT 10SM CLR 30/23 A3005 190 67 2000 VRB/03 RMK AO2 T03000233 $
63870K0J4 0J420160723105011007/23/16 10:50:31  5-MIN K0J4 231550Z AUTO VRB04KT 10SM CLR 31/23 A3005 190 65 2100 VRB/04 RMK AO2 T03060233 $
63870K0J4 0J420160723105511707/23/16 10:55:31  5-MIN K0J4 231555Z AUTO 00000KT 10SM CLR 31/23 A3006 190 62 2100 000/00 RMK AO2 SLP173 T03060228 $
63870K0J4 0J420160723110011007/23/16 11:00:31  5-MIN K0J4 231600Z AUTO 00000KT 10SM CLR 30/23 A3006 190 65 2000 000/00 RMK AO2 T03000228 $
63870K0J4 0J420160723110511307/23/16 11:05:31  5-MIN K0J4 231605Z AUTO 19004KT 10SM FEW028 29/23 A3006 190 67 1900 190/04 RMK AO2 T02940228 $
63870K0J4 0J420160723111011307/23/16 11:10:31  5-MIN K0J4 231610Z AUTO 00000KT 10SM FEW028 30/23 A3005 190 67 2000 000/00 RMK AO2 T03000233 $
63870K0J4 0J420160723111511007/23/16 11:15:31  5-MIN K0J4 231615Z AUTO 10003KT 10SM CLR 31/23 A3005 200 63 2100 100/03 RMK AO2 T03110233 $
63870K0J4 0J420160723112011007/23/16 11:20:31  5-MIN K0J4 231620Z AUTO 13003KT 10SM CLR 30/23 A3005 200 67 2000 130/03 RMK AO2 T03000233 $
63870K0J4 0J420160723112511307/23/16 11:25:31  5-MIN K0J4 231625Z AUTO 00000KT 10SM FEW075 29/23 A3005 200 67 1900 000/00 RMK AO2 T02940228 $
63870K0J4 0J420160723113011307/23/16 11:30:31  5-MIN K0J4 231630Z AUTO 13003KT 10SM FEW070 30/23 A3005 200 67 2000 130/03 RMK AO2 T03000233 $
63870K0J4 0J420160723113512707/23/16 11:35:31  5-MIN K0J4 231635Z AUTO VRB03KT 10SM FEW027 FEW034 SCT070 31/23 A3005 200 63 2100 VRB/03 RMK AO2 T03110233 $
63870K0J4 0J420160723114012007/23/16 11:40:31  5-MIN K0J4 231640Z AUTO VRB05KT 10SM FEW029 SCT034 31/23 A3005 200 60 2100 VRB/05 RMK AO2 T03110228 $
63870K0J4 0J420160723114512007/23/16 11:45:31  5-MIN K0J4 231645Z AUTO 14003KT 10SM FEW029 SCT034 31/23 A3005 200 60 2100 140/03 RMK AO2 T03110228 $
63870K0J4 0J420160723115012007/23/16 11:50:31  5-MIN K0J4 231650Z AUTO 00000KT 10SM FEW029 SCT036 31/23 A3005 200 62 2100 000/00 RMK AO2 T03060228 $
63870K0J4 0J420160723115512707/23/16 11:55:31  5-MIN K0J4 231655Z AUTO 00000KT 10SM SCT029 BKN036 31/22 A3004 200 60 2100 000/00 RMK AO2 SLP169 T03060222 $
63870K0J4 0J420160723120012007/23/16 12:00:31  5-MIN K0J4 231700Z AUTO 16004KT 10SM SCT029 BKN036 31/23 A3004 200 60 2100 160/04 RMK AO2 T03110228 $
63870K0J4 0J420160723120512007/23/16 12:05:31  5-MIN K0J4 231705Z AUTO 16005KT 10SM BKN030 BKN037 31/23 A3004 200 62 2100 160/05 RMK AO2 T03060228 $
63870K0J4 0J420160723121011307/23/16 12:10:31  5-MIN K0J4 231710Z AUTO VRB04KT 10SM BKN030 31/23 A3004 200 62 2100 VRB/04 RMK AO2 T03060228 $
63870K0J4 0J420160723121511307/23/16 12:15:31  5-MIN K0J4 231715Z AUTO 00000KT 10SM BKN030 31/23 A3004 200 62 2100 000/00 RMK AO2 T03060228 $
63870K0J4 0J420160723122011307/23/16 12:20:31  5-MIN K0J4 231720Z AUTO VRB04KT 10SM SCT030 31/23 A3004 200 60 2100 VRB/04 RMK AO2 T03110228 $
63870K0J4 0J420160723222511007/23/16 22:25:31  5-MIN K0J4 240325Z AUTO 00000KT 10SM CLR 25/23 A3003 220 87 1500 000/00 RMK AO2 T02500228 $
63870K0J4 0J420160723223011007/23/16 22:30:31  5-MIN K0J4 240330Z AUTO 00000KT 10SM CLR 25/23 A3003 210 87 1500 000/00 RMK AO2 T02500228 $
63870K0J4 0J420160723223511007/23/16 22:35:31  5-MIN K0J4 240335Z AUTO 00000KT 10SM CLR 26/23 A3003 210 84 1500 000/00 RMK AO2 T02560228 $
63870K0J4 0J420160723224011007/23/16 22:40:31  5-MIN K0J4 240340Z AUTO 00000KT 10SM CLR 25/23 A3003 210 87 1500 000/00 RMK AO2 T02500228 $
63870K0J4 0J420160723224511007/23/16 22:45:31  5-MIN K0J4 240345Z AUTO 00000KT 10SM CLR 25/23 A3004 210 87 1500 000/00 RMK AO2 T02500228 $
63870K0J4 0J420160723225011007/23/16 22:50:31  5-MIN K0J4 240350Z AUTO 00000KT 10SM CLR 25/23 A3004 210 87 1500 000/00 RMK AO2 T02500228 $
63870K0J4 0J420160723225511707/23/16 22:55:31  5-MIN K0J4 240355Z AUTO 00000KT 10SM CLR 25/23 A3004 210 87 1500 000/00 RMK AO2 SLP167 T02500228 $
63870K0J4 0J420160723230011007/23/16 23:00:31  5-MIN K0J4 240400Z AUTO 00000KT 10SM CLR 25/23 A3004 210 87 1500 000/00 RMK AO2 T02500228 $
63870K0J4 0J420160723230511007/23/16 23:05:31  5-MIN K0J4 240405Z AUTO 00000KT 10SM CLR 25/23 A3004 210 87 1500 000/00 RMK AO2 T02500228 $
63870K0J4 0J420160723231011007/23/16 23:10:31  5-MIN K0J4 240410Z AUTO 00000KT 10SM CLR 24/23 A3004 210 90 1400 000/00 RMK AO2 T02440228 $
63870K0J4 0J420160723231511007/23/16 23:15:31  5-MIN K0J4 240415Z AUTO 00000KT 10SM CLR 24/23 A3004 210 90 1400 000/00 RMK AO2 T02440228 $
63870K0J4 0J420160723232011007/23/16 23:20:31  5-MIN K0J4 240420Z AUTO 22003KT 10SM CLR 24/23 A3004 210 93 1300 220/03 RMK AO2 T02390228 $
63870K0J4 0J420160723232511007/23/16 23:25:31  5-MIN K0J4 240425Z AUTO 23003KT 10SM CLR 24/23 A3004 210 90 1400 230/03 RMK AO2 T02440228 $
63870K0J4 0J420160723233011007/23/16 23:30:31  5-MIN K0J4 240430Z AUTO 00000KT 10SM CLR 24/23 A3004 210 90 1400 000/00 RMK AO2 T02440228 $
63870K0J4 0J420160723233511007/23/16 23:35:31  5-MIN K0J4 240435Z AUTO 00000KT 10SM CLR 24/23 A3004 210 90 1400 000/00 RMK AO2 T02440228 $
63870K0J4 0J420160723234011007/23/16 23:40:31  5-MIN K0J4 240440Z AUTO 00000KT 10SM CLR 24/23 A3004 210 90 1400 000/00 RMK AO2 T02440228 $
63870K0J4 0J420160723234511007/23/16 23:45:31  5-MIN K0J4 240445Z AUTO 00000KT 10SM CLR 24/23 A3004 210 90 1400 000/00 RMK AO2 T02440228 $
63870K0J4 0J420160723235011007/23/16 23:50:31  5-MIN K0J4 240450Z AUTO 00000KT 10SM CLR 24/23 A3004 210 90 1400 000/00 RMK AO2 T02440228 $
63870K0J4 0J420160723235512707/23/16 23:55:31  5-MIN K0J4 240455Z AUTO 00000KT 10SM CLR 24/23 A3004 210 90 1400 000/00 RMK AO2 SLP167 T02440228 403220217 $
63870K0J4 0J420160724000007307/24/16 00:00:31  5-MIN K0J4 240500Z AUTO 00000KT M M M 000/00 RMK AO2 $
63870K0J4 0J420160724000510107/24/16 00:05:31  5-MIN K0J4 240505Z AUTO 00000KT 24/23 A3004 210 90 1400 000/00 RMK AO2 T02440228 $
63870K0J4 0J420160724001010607/24/16 00:10:31  5-MIN K0J4 240510Z AUTO 00000KT 10SM 24/23 A3003 210 90 1400 000/00 RMK AO2 T02440228 $
63870K0J4 0J420160724001510607/24/16 00:15:31  5-MIN K0J4 240515Z AUTO 00000KT 10SM 24/23 A3003 210 90 1400 000/00 RMK AO2 T02440228 $
63870K0J4 0J420160724002010607/24/16 00:20:31  5-MIN K0J4 240520Z AUTO 00000KT 10SM 24/23 A3003 210 90 1400 000/00 RMK AO2 T02440228 $
63870K0J4 0J420160724002510607/24/16 00:25:31  5-MIN K0J4 240525Z AUTO 00000KT 10SM 24/23 A3003 210 90 1400 000/00 RMK AO2 T02440228 $
63870K0J4 0J420160724003011007/24/16 00:30:31  5-MIN K0J4 240530Z AUTO 00000KT 10SM CLR 24/23 A3003 220 90 1400 000/00 RMK AO2 T02440228 $
63870K0J4 0J420160724003511007/24/16 00:35:31  5-MIN K0J4 240535Z AUTO 00000KT 10SM CLR 24/23 A3003 220 90 1400 000/00 RMK AO2 T02440228 $
63870K0J4 0J420160724004011007/24/16 00:40:31  5-MIN K0J4 240540Z AUTO 00000KT 10SM CLR 24/22 A3003 210 90 1300 000/00 RMK AO2 T02390222 $
63870K0J4 0J420160724004511007/24/16 00:45:31  5-MIN K0J4 240545Z AUTO 00000KT 10SM CLR 24/23 A3003 210 93 1300 000/00 RMK AO2 T02390228 $
63870K0J4 0J420160724005011007/24/16 00:50:31  5-MIN K0J4 240550Z AUTO 00000KT 10SM CLR 24/23 A3003 210 93 1300 000/00 RMK AO2 T02390228 $
63870K0J4 0J420160724005512907/24/16 00:55:31  5-MIN K0J4 240555Z AUTO 00000KT 10SM CLR 24/22 A3003 220 90 1300 000/00 RMK AO2 SLP164 T02390222 10300 20239 $
63870K0J4 0J420160724010011007/24/16 01:00:31  5-MIN K0J4 240600Z AUTO 00000KT 10SM CLR 24/22 A3003 220 90 1300 000/00 RMK AO2 T02390222 $
63870K0J4 0J420160724010511007/24/16 01:05:31  5-MIN K0J4 240605Z AUTO 00000KT 10SM CLR 24/22 A3003 220 90 1300 000/00 RMK AO2 T02390222 $
63870K0J4 0J420160724011011007/24/16 01:10:31  5-MIN K0J4 240610Z AUTO 00000KT 10SM CLR 24/23 A3002 220 93 1300 000/00 RMK AO2 T02390228 $
63870K0J4 0J420160724011511007/24/16 01:15:31  5-MIN K0J4 240615Z AUTO 00000KT 10SM CLR 24/23 A3002 220 93 1300 000/00 RMK AO2 T02390228 $
63870K0J4 0J420160724012011007/24/16 01:20:31  5-MIN K0J4 240620Z AUTO 00000KT 10SM CLR 24/22 A3002 230 90 1300 000/00 RMK AO2 T02390222 $
63870K0J4 0J420160724012511007/24/16 01:25:31  5-MIN K0J4 240625Z AUTO 00000KT 10SM CLR 24/22 A3002 230 90 1400 000/00 RMK AO2 T02390222 $
63870K0J4 0J420160724013011007/24/16 01:30:31  5-MIN K0J4 240630Z AUTO 00000KT 10SM CLR 24/22 A3001 230 90 1400 000/00 RMK AO2 T02390222 $
63870K0J4 0J420160724013511007/24/16 01:35:31  5-MIN K0J4 240635Z AUTO 00000KT 10SM CLR 23/22 A3001 230 93 1300 000/00 RMK AO2 T02330222 $
63870K0J4 0J420160724014011007/24/16 01:40:31  5-MIN K0J4 240640Z AUTO 00000KT 10SM CLR 23/22 A3001 230 93 1300 000/00 RMK AO2 T02330222 $
63870K0J4 0J420160724014511007/24/16 01:45:31  5-MIN K0J4 240645Z AUTO 00000KT 10SM CLR 24/22 A3001 230 90 1400 000/00 RMK AO2 T02390222 $
63870K0J4 0J420160724015011007/24/16 01:50:31  5-MIN K0J4 240650Z AUTO 00000KT 10SM CLR 24/22 A3001 230 90 1400 000/00 RMK AO2 T02390222 $
63870K0J4 0J420160724015511707/24/16 01:55:31  5-MIN K0J4 240655Z AUTO 00000KT 10SM CLR 24/23 A3001 230 93 1400 000/00 RMK AO2 SLP157 T02390228 $
63870K0J4 0J420160724020011007/24/16 02:00:31  5-MIN K0J4 240700Z AUTO 00000KT 10SM CLR 24/23 A3001 230 93 1400 000/00 RMK AO2 T02390228 $
63870K0J4 0J420160724020511007/24/16 02:05:31  5-MIN K0J4 240705Z AUTO 00000KT 10SM CLR 24/22 A3001 230 90 1400 000/00 RMK AO2 T02390222 $
63870K0J4 0J420160724021011007/24/16 02:10:31  5-MIN K0J4 240710Z AUTO 00000KT 10SM CLR 24/22 A3001 230 90 1400 000/00 RMK AO2 T02390222 $
63870K0J4 0J420160724021511007/24/16 02:15:31  5-MIN K0J4 240715Z AUTO 00000KT 10SM CLR 24/22 A3001 230 90 1400 000/00 RMK AO2 T02390222 $
63870K0J4 0J420160724022011007/24/16 02:20:31  5-MIN K0J4 240720Z AUTO 00000KT 10SM CLR 24/22 A3001 230 90 1400 000/00 RMK AO2 T02390222 $
63870K0J4 0J420160724022511007/24/16 02:25:31  5-MIN K0J4 240725Z AUTO 00000KT 10SM CLR 24/22 A3001 240 90 1400 000/00 RMK AO2 T02390222 $
63870K0J4 0J420160724023011007/24/16 02:30:31  5-MIN K0J4 240730Z AUTO 00000KT 10SM CLR 23/22 A3000 240 93 1300 000/00 RMK AO2 T02330222 $
63870K0J4 0J420160724023511007/24/16 02:35:31  5-MIN K0J4 240735Z AUTO 00000KT 10SM CLR 23/22 A3000 240 93 1300 000/00 RMK AO2 T02330222 $
63870K0J4 0J420160724024011007/24/16 02:40:31  5-MIN K0J4 240740Z AUTO 00000KT 10SM CLR 23/22 A3000 240 93 1300 000/00 RMK AO2 T02330222 $
63870K0J4 0J420160724024511007/24/16 02:45:31  5-MIN K0J4 240745Z AUTO 00000KT 10SM CLR 23/22 A3000 240 93 1300 000/00 RMK AO2 T02330222 $
63870K0J4 0J420160724025011007/24/16 02:50:31  5-MIN K0J4 240750Z AUTO 00000KT 10SM CLR 23/22 A3000 240 93 1300 000/00 RMK AO2 T02330222 $
63870K0J4 0J420160724025511707/24/16 02:55:31  5-MIN K0J4 240755Z AUTO 00000KT 10SM CLR 23/22 A3000 240 93 1200 000/00 RMK AO2 SLP154 T02280217 $
63870K0J4 0J420160724030011007/24/16 03:00:31  5-MIN K0J4 240800Z AUTO 00000KT 10SM CLR 23/22 A3000 240 90 1300 000/00 RMK AO2 T02330217 $
63870K0J4 0J420160724030511007/24/16 03:05:31  5-MIN K0J4 240805Z AUTO 00000KT 10SM CLR 23/22 A2999 250 93 1300 000/00 RMK AO2 T02280217 $
63870K0J4 0J420160724031011007/24/16 03:10:31  5-MIN K0J4 240810Z AUTO 00000KT 10SM CLR 23/22 A2999 250 90 1300 000/00 RMK AO2 T02330217 $
63870K0J4 0J420160724031511007/24/16 03:15:31  5-MIN K0J4 240815Z AUTO 00000KT 10SM CLR 23/22 A2999 250 90 1300 000/00 RMK AO2 T02330217 $
63870K0J4 0J420160724032011007/24/16 03:20:31  5-MIN K0J4 240820Z AUTO 00000KT 10SM CLR 23/22 A2999 250 90 1300 000/00 RMK AO2 T02330217 $
63870K0J4 0J420160724032511007/24/16 03:25:31  5-MIN K0J4 240825Z AUTO 00000KT 10SM CLR 23/22 A2999 250 90 1300 000/00 RMK AO2 T02330217 $
63870K0J4 0J420160724033011007/24/16 03:30:31  5-MIN K0J4 240830Z AUTO 00000KT 10SM CLR 23/22 A2999 250 90 1300 000/00 RMK AO2 T02330217 $
63870K0J4 0J420160724033511007/24/16 03:35:31  5-MIN K0J4 240835Z AUTO 00000KT 10SM CLR 23/22 A3000 250 93 1200 000/00 RMK AO2 T02280217 $
63870K0J4 0J420160724034011007/24/16 03:40:31  5-MIN K0J4 240840Z AUTO 00000KT 10SM CLR 23/22 A3000 240 93 1200 000/00 RMK AO2 T02280217 $
63870K0J4 0J420160724034511007/24/16 03:45:31  5-MIN K0J4 240845Z AUTO 00000KT 10SM CLR 23/22 A3000 240 93 1200 000/00 RMK AO2 T02280217 $
63870K0J4 0J420160724035011007/24/16 03:50:31  5-MIN K0J4 240850Z AUTO 00000KT 10SM CLR 23/22 A3000 240 90 1300 000/00 RMK AO2 T02330217 $
63870K0J4 0J420160724035511707/24/16 03:55:31  5-MIN K0J4 240855Z AUTO 00000KT 10SM CLR 23/22 A3000 240 90 1300 000/00 RMK AO2 SLP154 T02330217 $
63870K0J4 0J420160724040011007/24/16 04:00:31  5-MIN K0J4 240900Z AUTO 00000KT 10SM CLR 23/22 A3000 240 93 1200 000/00 RMK AO2 T02280217 $
63870K0J4 0J420160724040511007/24/16 04:05:31  5-MIN K0J4 240905Z AUTO 00000KT 10SM CLR 23/22 A3000 250 93 1200 000/00 RMK AO2 T02280217 $
63870K0J4 0J420160724041011007/24/16 04:10:31  5-MIN K0J4 240910Z AUTO 00000KT 10SM CLR 23/22 A3000 240 93 1200 000/00 RMK AO2 T02280217 $
63870K0J4 0J420160724041511007/24/16 04:15:31  5-MIN K0J4 240915Z AUTO 00000KT 10SM CLR 23/21 A3000 240 90 1200 000/00 RMK AO2 T02280211 $
63870K0J4 0J420160724042011007/24/16 04:20:31  5-MIN K0J4 240920Z AUTO 00000KT 10SM CLR 23/21 A3000 240 90 1200 000/00 RMK AO2 T02280211 $
63870K0J4 0J420160724042511007/24/16 04:25:31  5-MIN K0J4 240925Z AUTO 00000KT 10SM CLR 23/22 A3000 240 90 1300 000/00 RMK AO2 T02330217 $
63870K0J4 0J420160724043011007/24/16 04:30:31  5-MIN K0J4 240930Z AUTO 00000KT 10SM CLR 23/22 A3001 240 90 1300 000/00 RMK AO2 T02330217 $
63870K0J4 0J420160724043511007/24/16 04:35:31  5-MIN K0J4 240935Z AUTO 00000KT 10SM CLR 23/22 A3001 240 90 1300 000/00 RMK AO2 T02330217 $
63870K0J4 0J420160724044011007/24/16 04:40:31  5-MIN K0J4 240940Z AUTO 00000KT 10SM CLR 23/22 A3001 240 90 1300 000/00 RMK AO2 T02330217 $
63870K0J4 0J420160724044511007/24/16 04:45:31  5-MIN K0J4 240945Z AUTO 00000KT 10SM CLR 23/22 A3001 240 90 1300 000/00 RMK AO2 T02330217 $
63870K0J4 0J420160724045011007/24/16 04:50:31  5-MIN K0J4 240950Z AUTO 00000KT 10SM CLR 23/22 A3001 230 93 1300 000/00 RMK AO2 T02330222 $
63870K0J4 0J420160724045511707/24/16 04:55:31  5-MIN K0J4 240955Z AUTO 00000KT 10SM CLR 23/22 A3001 230 93 1200 000/00 RMK AO2 SLP159 T02280217 $
63870K0J4 0J420160724050011007/24/16 05:00:31  5-MIN K0J4 241000Z AUTO 00000KT 10SM CLR 23/22 A3002 230 93 1200 000/00 RMK AO2 T02280217 $
63870K0J4 0J420160724050511007/24/16 05:05:31  5-MIN K0J4 241005Z AUTO 00000KT 10SM CLR 23/22 A3002 230 93 1200 000/00 RMK AO2 T02280217 $
63870K0J4 0J420160724051011007/24/16 05:10:31  5-MIN K0J4 241010Z AUTO 00000KT 10SM CLR 23/22 A3002 230 97 1200 000/00 RMK AO2 T02280222 $
63870K0J4 0J420160724051511007/24/16 05:15:31  5-MIN K0J4 241015Z AUTO 00000KT 10SM CLR 23/22 A3002 220 93 1200 000/00 RMK AO2 T02280217 $
63870K0J4 0J420160724052011007/24/16 05:20:31  5-MIN K0J4 241020Z AUTO 00000KT 10SM CLR 24/22 A3002 220 87 1300 000/00 RMK AO2 T02390217 $
63870K0J4 0J420160724052511007/24/16 05:25:31  5-MIN K0J4 241025Z AUTO 00000KT 10SM CLR 23/22 A3002 220 93 1200 000/00 RMK AO2 T02280217 $
63870K0J4 0J420160724053011007/24/16 05:30:31  5-MIN K0J4 241030Z AUTO 00000KT 10SM CLR 23/22 A3002 220 93 1200 000/00 RMK AO2 T02280217 $
63870K0J4 0J420160724053511007/24/16 05:35:31  5-MIN K0J4 241035Z AUTO 00000KT 10SM CLR 23/22 A3003 220 93 1200 000/00 RMK AO2 T02280217 $
63870K0J4 0J420160724054011007/24/16 05:40:31  5-MIN K0J4 241040Z AUTO 00000KT 10SM CLR 23/22 A3003 220 93 1200 000/00 RMK AO2 T02280217 $
63870K0J4 0J420160724054511007/24/16 05:45:31  5-MIN K0J4 241045Z AUTO 00000KT 10SM CLR 23/22 A3003 220 93 1200 000/00 RMK AO2 T02280217 $
63870K0J4 0J420160724055011007/24/16 05:50:31  5-MIN K0J4 241050Z AUTO 00000KT 10SM CLR 23/22 A3003 210 93 1300 000/00 RMK AO2 T02330222 $
63870K0J4 0J420160724055511707/24/16 05:55:31  5-MIN K0J4 241055Z AUTO 00000KT 10SM CLR 23/22 A3003 210 93 1300 000/00 RMK AO2 SLP165 T02330222 $
63870K0J4 0J420160724060011007/24/16 06:00:31  5-MIN K0J4 241100Z AUTO 00000KT 10SM CLR 23/22 A3003 210 97 1200 000/00 RMK AO2 T02280222 $
63870K0J4 0J420160724060511007/24/16 06:05:31  5-MIN K0J4 241105Z AUTO 00000KT 10SM CLR 23/22 A3003 210 97 1200 000/00 RMK AO2 T02280222 $
63870K0J4 0J420160724061011007/24/16 06:10:31  5-MIN K0J4 241110Z AUTO 00000KT 10SM CLR 23/22 A3003 210 97 1200 000/00 RMK AO2 T02280222 $
63870K0J4 0J420160724061511007/24/16 06:15:31  5-MIN K0J4 241115Z AUTO 00000KT 10SM CLR 23/22 A3003 210 97 1200 000/00 RMK AO2 T02280222 $
63870K0J4 0J420160724062011007/24/16 06:20:31  5-MIN K0J4 241120Z AUTO 00000KT 10SM CLR 23/22 A3003 210 93 1200 000/00 RMK AO2 T02280217 $
63870K0J4 0J420160724062511007/24/16 06:25:31  5-MIN K0J4 241125Z AUTO 00000KT 10SM CLR 23/22 A3004 210 97 1200 000/00 RMK AO2 T02280222 $
63870K0J4 0J420160724063011007/24/16 06:30:31  5-MIN K0J4 241130Z AUTO 00000KT 10SM CLR 23/22 A3003 210 93 1200 000/00 RMK AO2 T02280217 $
63870K0J4 0J420160724063511007/24/16 06:35:31  5-MIN K0J4 241135Z AUTO 00000KT 10SM CLR 23/22 A3004 210 93 1300 000/00 RMK AO2 T02330222 $
63870K0J4 0J420160724064011007/24/16 06:40:31  5-MIN K0J4 241140Z AUTO 00000KT 10SM CLR 24/22 A3004 210 90 1300 000/00 RMK AO2 T02390222 $
63870K0J4 0J420160724064511007/24/16 06:45:31  5-MIN K0J4 241145Z AUTO 00000KT 10SM CLR 24/23 A3004 210 93 1300 000/00 RMK AO2 T02390228 $
63870K0J4 0J420160724065011007/24/16 06:50:31  5-MIN K0J4 241150Z AUTO 00000KT 10SM CLR 24/23 A3004 210 93 1300 000/00 RMK AO2 T02390228 $
63870K0J4 0J420160724065513507/24/16 06:55:31  5-MIN K0J4 241155Z AUTO 00000KT 10SM CLR 24/23 A3004 210 93 1300 000/00 RMK AO2 SLP168 T02390228 10239 20228 55009 $
63870K0J4 0J420160724070011007/24/16 07:00:31  5-MIN K0J4 241200Z AUTO 00000KT 10SM CLR 24/23 A3004 210 93 1300 000/00 RMK AO2 T02390228 $
63870K0J4 0J420160724070511007/24/16 07:05:31  5-MIN K0J4 241205Z AUTO 00000KT 10SM CLR 24/23 A3004 200 90 1400 000/00 RMK AO2 T02440228 $
63870K0J4 0J420160724071011007/24/16 07:10:31  5-MIN K0J4 241210Z AUTO 00000KT 10SM CLR 24/23 A3004 200 93 1400 000/00 RMK AO2 T02440233 $
63870K0J4 0J420160724071511007/24/16 07:15:31  5-MIN K0J4 241215Z AUTO 08004KT 10SM CLR 24/23 A3005 200 93 1400 080/04 RMK AO2 T02440233 $
63870K0J4 0J420160724072011007/24/16 07:20:31  5-MIN K0J4 241220Z AUTO 00000KT 10SM CLR 24/23 A3005 200 90 1400 000/00 RMK AO2 T02440228 $
63870K0J4 0J420160724072511007/24/16 07:25:31  5-MIN K0J4 241225Z AUTO 11003KT 10SM CLR 24/23 A3005 200 93 1400 110/03 RMK AO2 T02440233 $
63870K0J4 0J420160724073011007/24/16 07:30:31  5-MIN K0J4 241230Z AUTO 12003KT 10SM CLR 25/23 A3005 190 87 1400 120/03 RMK AO2 T02500228 $
63870K0J4 0J420160724073511007/24/16 07:35:31  5-MIN K0J4 241235Z AUTO 11004KT 10SM CLR 25/23 A3005 200 90 1400 110/04 RMK AO2 T02500233 $
63870K0J4 0J420160724074011007/24/16 07:40:31  5-MIN K0J4 241240Z AUTO 11003KT 10SM CLR 26/23 A3006 190 87 1500 110/03 RMK AO2 T02560233 $
63870K0J4 0J420160724074511007/24/16 07:45:31  5-MIN K0J4 241245Z AUTO 00000KT 10SM CLR 26/23 A3006 190 87 1500 000/00 RMK AO2 T02560233 $
63870K0J4 0J420160724075011007/24/16 07:50:31  5-MIN K0J4 241250Z AUTO 08003KT 10SM CLR 26/23 A3006 190 84 1600 080/03 RMK AO2 T02610233 $
63870K0J4 0J420160724075511707/24/16 07:55:31  5-MIN K0J4 241255Z AUTO 00000KT 10SM CLR 26/23 A3006 190 84 1600 000/00 RMK AO2 SLP174 T02610233 $
63870K0J4 0J420160724080011007/24/16 08:00:31  5-MIN K0J4 241300Z AUTO VRB03KT 10SM CLR 27/23 A3006 190 82 1600 VRB/03 RMK AO2 T02670233 $
63870K0J4 0J420160724080511007/24/16 08:05:31  5-MIN K0J4 241305Z AUTO 00000KT 10SM CLR 27/23 A3006 190 82 1600 000/00 RMK AO2 T02670233 $
63870K0J4 0J420160724081011007/24/16 08:10:31  5-MIN K0J4 241310Z AUTO VRB03KT 10SM CLR 27/23 A3006 190 79 1700 VRB/03 RMK AO2 T02720233 $
63870K0J4 0J420160724081511007/24/16 08:15:31  5-MIN K0J4 241315Z AUTO 08003KT 10SM CLR 27/23 A3006 190 79 1700 080/03 RMK AO2 T02720233 $
63870K0J4 0J420160724082011007/24/16 08:20:31  5-MIN K0J4 241320Z AUTO 00000KT 10SM CLR 28/23 A3006 190 76 1700 000/00 RMK AO2 T02780233 $
63870K0J4 0J420160724082511007/24/16 08:25:31  5-MIN K0J4 241325Z AUTO 05003KT 10SM CLR 28/24 A3006 190 76 1800 050/03 RMK AO2 T02830239 $
63870K0J4 0J420160724083011007/24/16 08:30:31  5-MIN K0J4 241330Z AUTO 08004KT 10SM CLR 28/24 A3006 190 76 1800 080/04 RMK AO2 T02830239 $
63870K0J4 0J420160724083511007/24/16 08:35:31  5-MIN K0J4 241335Z AUTO 12004KT 10SM CLR 28/23 A3006 190 74 1800 120/04 RMK AO2 T02830233 $
63870K0J4 0J420160724084011007/24/16 08:40:31  5-MIN K0J4 241340Z AUTO 00000KT 10SM CLR 28/23 A3005 190 74 1800 000/00 RMK AO2 T02830233 $
63870K0J4 0J420160724084511007/24/16 08:45:31  5-MIN K0J4 241345Z AUTO VRB05KT 10SM CLR 29/24 A3005 190 74 1900 VRB/05 RMK AO2 T02890239 $
63870K0J4 0J420160724085011007/24/16 08:50:31  5-MIN K0J4 241350Z AUTO VRB04KT 10SM CLR 28/23 A3006 190 74 1800 VRB/04 RMK AO2 T02830233 $
63870K0J4 0J420160724085511707/24/16 08:55:31  5-MIN K0J4 241355Z AUTO 11004KT 10SM CLR 29/24 A3006 190 74 1900 110/04 RMK AO2 SLP174 T02890239 $
63870K0J4 0J420160724090011007/24/16 09:00:31  5-MIN K0J4 241400Z AUTO 13006KT 10SM CLR 28/24 A3006 190 76 1800 130/06 RMK AO2 T02830239 $
63870K0J4 0J420160724090511007/24/16 09:05:31  5-MIN K0J4 241405Z AUTO 10005KT 10SM CLR 29/24 A3006 190 74 1900 100/05 RMK AO2 T02890239 $
63870K0J4 0J420160724091011307/24/16 09:10:31  5-MIN K0J4 241410Z AUTO 11004KT 10SM FEW020 29/24 A3006 190 74 1900 110/04 RMK AO2 T02890239 $
63870K0J4 0J420160724091511307/24/16 09:15:31  5-MIN K0J4 241415Z AUTO VRB05KT 10SM FEW020 29/24 A3006 190 74 1900 VRB/05 RMK AO2 T02890239 $
63870K0J4 0J420160724092011307/24/16 09:20:31  5-MIN K0J4 241420Z AUTO 07005KT 10SM FEW019 29/24 A3006 190 74 1900 070/05 RMK AO2 T02890239 $
63870K0J4 0J420160724092511307/24/16 09:25:31  5-MIN K0J4 241425Z AUTO 06004KT 10SM SCT019 29/24 A3006 190 71 1900 060/04 RMK AO2 T02940239 $
63870K0J4 0J420160724093011307/24/16 09:30:31  5-MIN K0J4 241430Z AUTO VRB04KT 10SM SCT018 30/24 A3006 190 69 2000 VRB/04 RMK AO2 T03000239 $
63870K0J4 0J420160724093512007/24/16 09:35:31  5-MIN K0J4 241435Z AUTO 07004KT 10SM FEW018 SCT027 29/23 A3006 190 71 1900 070/04 RMK AO2 T02890233 $
63870K0J4 0J420160724094012007/24/16 09:40:31  5-MIN K0J4 241440Z AUTO 07005KT 10SM FEW018 SCT029 29/24 A3006 190 74 1900 070/05 RMK AO2 T02890239 $
63870K0J4 0J420160724094512007/24/16 09:45:31  5-MIN K0J4 241445Z AUTO VRB04KT 10SM SCT018 BKN027 29/24 A3006 190 74 1900 VRB/04 RMK AO2 T02890239 $
63870K0J4 0J420160724095012007/24/16 09:50:31  5-MIN K0J4 241450Z AUTO VRB05KT 10SM SCT018 BKN027 29/24 A3006 190 74 1900 VRB/05 RMK AO2 T02890239 $
63870K0J4 0J420160724095514007/24/16 09:55:31  5-MIN K0J4 241455Z AUTO VRB04KT 10SM FEW018 FEW027 SCT049 29/23 A3006 190 71 1900 VRB/04 RMK AO2 SLP175 T02890233 51014 $
63870K0J4 0J420160724100012707/24/16 10:00:31  5-MIN K0J4 241500Z AUTO VRB04KT 10SM FEW020 SCT024 BKN049 29/23 A3006 180 71 1900 VRB/04 RMK AO2 T02890233 $
63870K0J4 0J420160724100512707/24/16 10:05:31  5-MIN K0J4 241505Z AUTO 13006KT 10SM SCT020 SCT026 BKN047 30/24 A3006 180 69 2000 130/06 RMK AO2 T03000239 $
63870K0J4 0J420160724101012007/24/16 10:10:31  5-MIN K0J4 241510Z AUTO 14006KT 10SM FEW020 SCT047 29/24 A3006 190 71 1900 140/06 RMK AO2 T02940239 $
63870K0J4 0J420160724101512007/24/16 10:15:31  5-MIN K0J4 241515Z AUTO VRB04KT 10SM FEW020 FEW048 29/23 A3006 190 69 1900 VRB/04 RMK AO2 T02940233 $
63870K0J4 0J420160724102012007/24/16 10:20:31  5-MIN K0J4 241520Z AUTO VRB04KT 10SM FEW020 FEW048 31/24 A3006 190 67 2100 VRB/04 RMK AO2 T03060239 $
63870K0J4 0J420160724203011007/24/16 20:30:31  5-MIN K0J4 250130Z AUTO 00000KT 10SM CLR 26/22 A3003 210 81 1500 000/00 RMK AO2 T02560222 $
63870K0J4 0J420160724203511007/24/16 20:35:31  5-MIN K0J4 250135Z AUTO 00000KT 10SM CLR 26/22 A3003 220 81 1500 000/00 RMK AO2 T02560222 $
63870K0J4 0J420160724204011007/24/16 20:40:31  5-MIN K0J4 250140Z AUTO 00000KT 10SM CLR 26/22 A3003 220 81 1500 000/00 RMK AO2 T02560222 $
63870K0J4 0J420160724204511007/24/16 20:45:31  5-MIN K0J4 250145Z AUTO 00000KT 10SM CLR 26/23 A3003 220 84 1500 000/00 RMK AO2 T02560228 $
63870K0J4 0J420160724205011007/24/16 20:50:31  5-MIN K0J4 250150Z AUTO 00000KT 10SM CLR 26/23 A3003 220 84 1500 000/00 RMK AO2 T02560228 $
63870K0J4 0J420160724205511707/24/16 20:55:31  5-MIN K0J4 250155Z AUTO 00000KT 10SM CLR 26/22 A3003 210 81 1500 000/00 RMK AO2 SLP164 T02560222 $
63870K0J4 0J420160724210011007/24/16 21:00:31  5-MIN K0J4 250200Z AUTO 00000KT 10SM CLR 26/22 A3003 220 81 1500 000/00 RMK AO2 T02560222 $
63870K0J4 0J420160724210511007/24/16 21:05:31  5-MIN K0J4 250205Z AUTO 00000KT 10SM CLR 25/22 A3003 210 84 1500 000/00 RMK AO2 T02500222 $
63870K0J4 0J420160724211011007/24/16 21:10:31  5-MIN K0J4 250210Z AUTO 00000KT 10SM CLR 25/23 A3003 210 87 1500 000/00 RMK AO2 T02500228 $
63870K0J4 0J420160724211511007/24/16 21:15:31  5-MIN K0J4 250215Z AUTO 00000KT 10SM CLR 25/23 A3004 210 87 1500 000/00 RMK AO2 T02500228 $
63870K0J4 0J420160724212011007/24/16 21:20:31  5-MIN K0J4 250220Z AUTO 00000KT 10SM CLR 25/23 A3004 210 87 1500 000/00 RMK AO2 T02500228 $
63870K0J4 0J420160724212511007/24/16 21:25:31  5-MIN K0J4 250225Z AUTO 00000KT 10SM CLR 25/23 A3004 210 87 1500 000/00 RMK AO2 T02500228 $
63870K0J4 0J420160724213011007/24/16 21:30:31  5-MIN K0J4 250230Z AUTO 00000KT 10SM CLR 25/23 A3004 200 87 1500 000/00 RMK AO2 T02500228 $
63870K0J4 0J420160724213511007/24/16 21:35:31  5-MIN K0J4 250235Z AUTO 00000KT 10SM CLR 25/23 A3004 200 87 1400 000/00 RMK AO2 T02500228 $
63870K0J4 0J420160724214011007/24/16 21:40:31  5-MIN K0J4 250240Z AUTO 00000KT 10SM CLR 24/23 A3004 200 90 1400 000/00 RMK AO2 T02440228 $
63870K0J4 0J420160724214511007/24/16 21:45:31  5-MIN K0J4 250245Z AUTO 00000KT 10SM CLR 24/22 A3005 200 87 1400 000/00 RMK AO2 T02440222 $
63870K0J4 0J420160724215011007/24/16 21:50:31  5-MIN K0J4 250250Z AUTO 00000KT 10SM CLR 24/22 A3005 200 87 1400 000/00 RMK AO2 T02440222 $
63870K0J4 0J420160724215512307/24/16 21:55:31  5-MIN K0J4 250255Z AUTO 00000KT 10SM CLR 24/22 A3005 200 87 1400 000/00 RMK AO2 SLP171 T02440222 51008 $
63870K0J4 0J420160724220011007/24/16 22:00:31  5-MIN K0J4 250300Z AUTO 00000KT 10SM CLR 24/23 A3005 200 90 1400 000/00 RMK AO2 T02440228 $
63870K0J4 0J420160724220511007/24/16 22:05:31  5-MIN K0J4 250305Z AUTO 00000KT 10SM CLR 24/22 A3005 200 87 1400 000/00 RMK AO2 T02440222 $
63870K0J4 0J420160724221011007/24/16 22:10:31  5-MIN K0J4 250310Z AUTO 00000KT 10SM CLR 24/22 A3005 200 87 1400 000/00 RMK AO2 T02440222 $
63870K0J4 0J420160724221511007/24/16 22:15:31  5-MIN K0J4 250315Z AUTO 00000KT 10SM CLR 24/22 A3005 200 90 1300 000/00 RMK AO2 T02390222 $
63870K0J4 0J420160724222011007/24/16 22:20:31  5-MIN K0J4 250320Z AUTO 00000KT 10SM CLR 24/22 A3005 200 90 1300 000/00 RMK AO2 T02390222 $
63870K0J4 0J420160724222511007/24/16 22:25:31  5-MIN K0J4 250325Z AUTO 00000KT 10SM CLR 24/22 A3005 200 90 1300 000/00 RMK AO2 T02390222 $
63870K0J4 0J420160724223011007/24/16 22:30:31  5-MIN K0J4 250330Z AUTO 10003KT 10SM CLR 24/22 A3005 190 90 1300 100/03 RMK AO2 T02390222 $
63870K0J4 0J420160724223511007/24/16 22:35:31  5-MIN K0J4 250335Z AUTO 11003KT 10SM CLR 24/22 A3005 190 87 1400 110/03 RMK AO2 T02440222 $
63870K0J4 0J420160724224011007/24/16 22:40:31  5-MIN K0J4 250340Z AUTO 00000KT 10SM CLR 24/22 A3005 190 87 1400 000/00 RMK AO2 T02440222 $
63870K0J4 0J420160724224511007/24/16 22:45:31  5-MIN K0J4 250345Z AUTO 09003KT 10SM CLR 24/22 A3006 190 87 1400 090/03 RMK AO2 T02440222 $
63870K0J4 0J420160724225011007/24/16 22:50:31  5-MIN K0J4 250350Z AUTO 08003KT 10SM CLR 24/22 A3006 190 87 1400 080/03 RMK AO2 T02440222 $
63870K0J4 0J420160724225511707/24/16 22:55:31  5-MIN K0J4 250355Z AUTO 08003KT 10SM CLR 24/22 A3005 190 90 1300 080/03 RMK AO2 SLP173 T02390222 $
63870K0J4 0J420160724230011007/24/16 23:00:31  5-MIN K0J4 250400Z AUTO 10003KT 10SM CLR 24/22 A3005 190 90 1300 100/03 RMK AO2 T02390222 $
63870K0J4 0J420160724230511007/24/16 23:05:31  5-MIN K0J4 250405Z AUTO 11003KT 10SM CLR 24/22 A3006 190 90 1300 110/03 RMK AO2 T02390222 $
63870K0J4 0J420160724231011007/24/16 23:10:31  5-MIN K0J4 250410Z AUTO 00000KT 10SM CLR 24/23 A3005 190 90 1400 000/00 RMK AO2 T02440228 $
63870K0J4 0J420160724231511007/24/16 23:15:31  5-MIN K0J4 250415Z AUTO 00000KT 10SM CLR 24/22 A3005 190 90 1300 000/00 RMK AO2 T02390222 $
63870K0J4 0J420160724232011007/24/16 23:20:31  5-MIN K0J4 250420Z AUTO 00000KT 10SM CLR 23/22 A3005 190 93 1200 000/00 RMK AO2 T02330222 $
63870K0J4 0J420160724232511007/24/16 23:25:31  5-MIN K0J4 250425Z AUTO 00000KT 10SM CLR 24/22 A3005 190 90 1300 000/00 RMK AO2 T02390222 $
63870K0J4 0J420160724233011007/24/16 23:30:31  5-MIN K0J4 250430Z AUTO 00000KT 10SM CLR 24/22 A3005 190 90 1300 000/00 RMK AO2 T02390222 $
63870K0J4 0J420160724233511007/24/16 23:35:31  5-MIN K0J4 250435Z AUTO 00000KT 10SM CLR 23/22 A3005 190 93 1200 000/00 RMK AO2 T02330222 $
63870K0J4 0J420160724234011007/24/16 23:40:31  5-MIN K0J4 250440Z AUTO 00000KT 10SM CLR 23/22 A3005 200 93 1300 000/00 RMK AO2 T02330222 $
63870K0J4 0J420160724234511007/24/16 23:45:31  5-MIN K0J4 250445Z AUTO 00000KT 10SM CLR 23/22 A3005 200 93 1300 000/00 RMK AO2 T02330222 $
63870K0J4 0J420160724235011007/24/16 23:50:31  5-MIN K0J4 250450Z AUTO 00000KT 10SM CLR 23/22 A3005 200 93 1300 000/00 RMK AO2 T02330222 $
63870K0J4 0J420160724235512707/24/16 23:55:31  5-MIN K0J4 250455Z AUTO 00000KT 10SM CLR 23/22 A3005 200 93 1300 000/00 RMK AO2 SLP170 T02330222 403390228 $
63870K0J4 0J420160725000011007/25/16 00:00:31  5-MIN K0J4 250500Z AUTO 00000KT 10SM CLR 23/22 A3005 200 93 1300 000/00 RMK AO2 T02330222 $
63870K0J4 0J420160725000511007/25/16 00:05:31  5-MIN K0J4 250505Z AUTO 00000KT 10SM CLR 23/22 A3005 200 93 1300 000/00 RMK AO2 T02330222 $
63870K0J4 0J420160725001011007/25/16 00:10:31  5-MIN K0J4 250510Z AUTO 00000KT 10SM CLR 23/22 A3005 200 93 1300 000/00 RMK AO2 T02330222 $
63870K0J4 0J420160725001511007/25/16 00:15:31  5-MIN K0J4 250515Z AUTO 00000KT 10SM CLR 23/22 A3005 200 90 1300 000/00 RMK AO2 T02330217 $
63870K0J4 0J420160725002011007/25/16 00:20:31  5-MIN K0J4 250520Z AUTO 00000KT 10SM CLR 23/22 A3004 200 90 1300 000/00 RMK AO2 T02330217 $
63870K0J4 0J420160725002511007/25/16 00:25:31  5-MIN K0J4 250525Z AUTO 10003KT 10SM CLR 23/22 A3005 200 93 1300 100/03 RMK AO2 T02330222 $
63870K0J4 0J420160725003011007/25/16 00:30:31  5-MIN K0J4 250530Z AUTO 00000KT 10SM CLR 24/22 A3004 200 90 1300 000/00 RMK AO2 T02390222 $
63870K0J4 0J420160725003511007/25/16 00:35:31  5-MIN K0J4 250535Z AUTO 00000KT 10SM CLR 24/22 A3004 210 90 1300 000/00 RMK AO2 T02390222 $
63870K0J4 0J420160725004011007/25/16 00:40:31  5-MIN K0J4 250540Z AUTO 00000KT 10SM CLR 24/22 A3004 210 90 1300 000/00 RMK AO2 T02390222 $
63870K0J4 0J420160725004511007/25/16 00:45:31  5-MIN K0J4 250545Z AUTO 00000KT 10SM CLR 24/22 A3003 210 90 1300 000/00 RMK AO2 T02390222 $
63870K0J4 0J420160725005011007/25/16 00:50:31  5-MIN K0J4 250550Z AUTO 00000KT 10SM CLR 23/22 A3003 210 93 1300 000/00 RMK AO2 T02330222 $
63870K0J4 0J420160725005513507/25/16 00:55:31  5-MIN K0J4 250555Z AUTO 00000KT 10SM CLR 24/22 A3003 210 90 1300 000/00 RMK AO2 SLP164 T02390222 10283 20233 53013 $
63870K0J4 0J420160725010011007/25/16 01:00:31  5-MIN K0J4 250600Z AUTO 00000KT 10SM CLR 24/22 A3003 210 90 1300 000/00 RMK AO2 T02390222 $
63870K0J4 0J420160725010511007/25/16 01:05:31  5-MIN K0J4 250605Z AUTO 00000KT 10SM CLR 24/22 A3003 210 90 1300 000/00 RMK AO2 T02390222 $
63870K0J4 0J420160725011011007/25/16 01:10:31  5-MIN K0J4 250610Z AUTO 00000KT 10SM CLR 24/22 A3003 220 90 1300 000/00 RMK AO2 T02390222 $
63870K0J4 0J420160725011511007/25/16 01:15:31  5-MIN K0J4 250615Z AUTO 00000KT 10SM CLR 23/22 A3002 220 93 1300 000/00 RMK AO2 T02330222 $
63870K0J4 0J420160725012011007/25/16 01:20:31  5-MIN K0J4 250620Z AUTO 00000KT 10SM CLR 23/22 A3002 220 93 1300 000/00 RMK AO2 T02330222 $
63870K0J4 0J420160725012511007/25/16 01:25:31  5-MIN K0J4 250625Z AUTO 00000KT 10SM CLR 23/22 A3002 230 93 1300 000/00 RMK AO2 T02330222 $
63870K0J4 0J420160725013011007/25/16 01:30:31  5-MIN K0J4 250630Z AUTO 00000KT 10SM CLR 23/22 A3001 230 93 1300 000/00 RMK AO2 T02330222 $
63870K0J4 0J420160725013511007/25/16 01:35:31  5-MIN K0J4 250635Z AUTO 00000KT 10SM CLR 23/22 A3001 230 93 1300 000/00 RMK AO2 T02330222 $
63870K0J4 0J420160725014011007/25/16 01:40:31  5-MIN K0J4 250640Z AUTO 00000KT 10SM CLR 23/22 A3001 230 93 1300 000/00 RMK AO2 T02330222 $
63870K0J4 0J420160725014511007/25/16 01:45:31  5-MIN K0J4 250645Z AUTO 00000KT 10SM CLR 23/22 A3001 230 93 1300 000/00 RMK AO2 T02330222 $
63870K0J4 0J420160725015011007/25/16 01:50:31  5-MIN K0J4 250650Z AUTO 00000KT 10SM CLR 23/22 A3001 240 90 1300 000/00 RMK AO2 T02330217 $
63870K0J4 0J420160725015511707/25/16 01:55:31  5-MIN K0J4 250655Z AUTO 00000KT 10SM CLR 23/22 A3000 240 93 1300 000/00 RMK AO2 SLP155 T02330222 $
63870K0J4 0J420160725020011007/25/16 02:00:31  5-MIN K0J4 250700Z AUTO 00000KT 10SM CLR 23/22 A3000 240 93 1300 000/00 RMK AO2 T02330222 $
63870K0J4 0J420160725020511007/25/16 02:05:31  5-MIN K0J4 250705Z AUTO 14004KT 10SM CLR 23/22 A3000 240 93 1300 140/04 RMK AO2 T02330222 $
63870K0J4 0J420160725021011007/25/16 02:10:31  5-MIN K0J4 250710Z AUTO 14003KT 10SM CLR 23/22 A3000 240 93 1300 140/03 RMK AO2 T02330222 $
63870K0J4 0J420160725021511007/25/16 02:15:31  5-MIN K0J4 250715Z AUTO 00000KT 10SM CLR 23/22 A2999 250 93 1300 000/00 RMK AO2 T02330222 $
63870K0J4 0J420160725022011007/25/16 02:20:31  5-MIN K0J4 250720Z AUTO 00000KT 10SM CLR 23/22 A2999 250 93 1300 000/00 RMK AO2 T02330222 $
63870K0J4 0J420160725022511007/25/16 02:25:31  5-MIN K0J4 250725Z AUTO 00000KT 10SM CLR 23/22 A2999 250 93 1300 000/00 RMK AO2 T02330222 $
63870K0J4 0J420160725023011007/25/16 02:30:31  5-MIN K0J4 250730Z AUTO 00000KT 10SM CLR 23/22 A3000 250 93 1300 000/00 RMK AO2 T02330222 $
63870K0J4 0J420160725023511007/25/16 02:35:31  5-MIN K0J4 250735Z AUTO 00000KT 10SM CLR 23/22 A2999 250 93 1300 000/00 RMK AO2 T02330222 $
63870K0J4 0J420160725024011007/25/16 02:40:31  5-MIN K0J4 250740Z AUTO 00000KT 10SM CLR 23/22 A2999 250 93 1300 000/00 RMK AO2 T02330222 $
63870K0J4 0J420160725024511007/25/16 02:45:31  5-MIN K0J4 250745Z AUTO 00000KT 10SM CLR 23/22 A2999 250 93 1300 000/00 RMK AO2 T02330222 $
63870K0J4 0J420160725025011007/25/16 02:50:31  5-MIN K0J4 250750Z AUTO 10003KT 10SM CLR 23/22 A2999 250 93 1300 100/03 RMK AO2 T02330222 $
63870K0J4 0J420160725025511707/25/16 02:55:31  5-MIN K0J4 250755Z AUTO 00000KT 10SM CLR 23/22 A2999 250 93 1300 000/00 RMK AO2 SLP152 T02330222 $
63870K0J4 0J420160725030011007/25/16 03:00:31  5-MIN K0J4 250800Z AUTO 00000KT 10SM CLR 23/22 A2999 250 93 1300 000/00 RMK AO2 T02330222 $
63870K0J4 0J420160725030511007/25/16 03:05:31  5-MIN K0J4 250805Z AUTO VRB03KT 10SM CLR 23/22 A2999 250 93 1300 VRB/03 RMK AO2 T02330222 $
63870K0J4 0J420160725031011007/25/16 03:10:31  5-MIN K0J4 250810Z AUTO 11003KT 10SM CLR 23/22 A3000 250 93 1300 110/03 RMK AO2 T02330222 $
63870K0J4 0J420160725031511007/25/16 03:15:31  5-MIN K0J4 250815Z AUTO 00000KT 10SM CLR 23/22 A3000 250 93 1300 000/00 RMK AO2 T02330222 $
63870K0J4 0J420160725032011007/25/16 03:20:31  5-MIN K0J4 250820Z AUTO 00000KT 10SM CLR 23/22 A3000 240 93 1300 000/00 RMK AO2 T02330222 $
63870K0J4 0J420160725032511007/25/16 03:25:31  5-MIN K0J4 250825Z AUTO 00000KT 10SM CLR 23/22 A3000 240 93 1300 000/00 RMK AO2 T02330222 $
63870K0J4 0J420160725033011007/25/16 03:30:31  5-MIN K0J4 250830Z AUTO 00000KT 10SM CLR 23/22 A3000 240 93 1300 000/00 RMK AO2 T02330222 $
63870K0J4 0J420160725033511007/25/16 03:35:31  5-MIN K0J4 250835Z AUTO 00000KT 10SM CLR 23/22 A3000 240 93 1300 000/00 RMK AO2 T02330222 $
63870K0J4 0J420160725034011007/25/16 03:40:31  5-MIN K0J4 250840Z AUTO 08003KT 10SM CLR 23/22 A3000 240 97 1200 080/03 RMK AO2 T02280222 $
63870K0J4 0J420160725034511007/25/16 03:45:31  5-MIN K0J4 250845Z AUTO 08004KT 10SM CLR 23/22 A3001 240 97 1200 080/04 RMK AO2 T02280222 $
63870K0J4 0J420160725035011007/25/16 03:50:31  5-MIN K0J4 250850Z AUTO 09003KT 10SM CLR 23/22 A3001 230 93 1300 090/03 RMK AO2 T02330222 $
63870K0J4 0J420160725035512307/25/16 03:55:31  5-MIN K0J4 250855Z AUTO 09003KT 10SM CLR 23/22 A3001 230 93 1300 090/03 RMK AO2 SLP158 T02330222 58006 $
63870K0J4 0J420160725040011007/25/16 04:00:31  5-MIN K0J4 250900Z AUTO 08003KT 10SM CLR 23/22 A3001 230 97 1200 080/03 RMK AO2 T02280222 $
63870K0J4 0J420160725040511007/25/16 04:05:31  5-MIN K0J4 250905Z AUTO 09003KT 10SM CLR 23/22 A3001 230 97 1200 090/03 RMK AO2 T02280222 $
63870K0J4 0J420160725041011007/25/16 04:10:31  5-MIN K0J4 250910Z AUTO 08004KT 10SM CLR 23/22 A3001 230 97 1200 080/04 RMK AO2 T02280222 $
63870K0J4 0J420160725041511007/25/16 04:15:31  5-MIN K0J4 250915Z AUTO 08004KT 10SM CLR 23/22 A3001 230 97 1200 080/04 RMK AO2 T02280222 $
63870K0J4 0J420160725042011007/25/16 04:20:31  5-MIN K0J4 250920Z AUTO 08004KT 10SM CLR 23/22 A3001 230 97 1200 080/04 RMK AO2 T02280222 $
63870K0J4 0J420160725042511007/25/16 04:25:31  5-MIN K0J4 250925Z AUTO 08003KT 10SM CLR 23/22 A3001 230 97 1200 080/03 RMK AO2 T02280222 $
63870K0J4 0J420160725043011007/25/16 04:30:31  5-MIN K0J4 250930Z AUTO 00000KT 10SM CLR 23/22 A3001 230 97 1200 000/00 RMK AO2 T02280222 $
63870K0J4 0J420160725043511007/25/16 04:35:31  5-MIN K0J4 250935Z AUTO 00000KT 10SM CLR 23/22 A3002 230 97 1200 000/00 RMK AO2 T02280222 $
63870K0J4 0J420160725044011007/25/16 04:40:31  5-MIN K0J4 250940Z AUTO 00000KT 10SM CLR 23/22 A3002 220 97 1200 000/00 RMK AO2 T02280222 $
63870K0J4 0J420160725044511007/25/16 04:45:31  5-MIN K0J4 250945Z AUTO 00000KT 10SM CLR 23/22 A3002 220 97 1200 000/00 RMK AO2 T02280222 $
63870K0J4 0J420160725045011007/25/16 04:50:31  5-MIN K0J4 250950Z AUTO 00000KT 10SM CLR 23/22 A3002 220 97 1200 000/00 RMK AO2 T02280222 $
63870K0J4 0J420160725045511707/25/16 04:55:31  5-MIN K0J4 250955Z AUTO 07003KT 10SM CLR 23/22 A3003 220 93 1200 070/03 RMK AO2 SLP163 T02280217 $
63870K0J4 0J420160725050011007/25/16 05:00:31  5-MIN K0J4 251000Z AUTO 05003KT 10SM CLR 23/22 A3003 220 93 1200 050/03 RMK AO2 T02280217 $
63870K0J4 0J420160725050511007/25/16 05:05:31  5-MIN K0J4 251005Z AUTO 06003KT 10SM CLR 23/22 A3003 220 93 1200 060/03 RMK AO2 T02280217 $
63870K0J4 0J420160725051011207/25/16 05:10:31  5-MIN K0J4 251010Z AUTO 07004KT 9SM FEW001 23/22 A3003 210 93 1200 070/04 RMK AO2 T02280217 $
63870K0J4 0J420160725051511207/25/16 05:15:31  5-MIN K0J4 251015Z AUTO 07005KT 7SM SCT001 23/22 A3003 210 93 1200 070/05 RMK AO2 T02280217 $
63870K0J4 0J420160725052011207/25/16 05:20:31  5-MIN K0J4 251020Z AUTO 07004KT 7SM SCT001 23/22 A3004 210 93 1200 070/04 RMK AO2 T02280217 $
63870K0J4 0J420160725052511207/25/16 05:25:31  5-MIN K0J4 251025Z AUTO 07004KT 8SM FEW001 23/22 A3004 200 93 1200 070/04 RMK AO2 T02280217 $
63870K0J4 0J420160725053011207/25/16 05:30:31  5-MIN K0J4 251030Z AUTO 07004KT 9SM FEW001 23/22 A3004 200 97 1200 070/04 RMK AO2 T02280222 $
63870K0J4 0J420160725053511207/25/16 05:35:31  5-MIN K0J4 251035Z AUTO 07004KT 9SM FEW001 23/22 A3004 200 97 1200 070/04 RMK AO2 T02280222 $
63870K0J4 0J420160725054011207/25/16 05:40:31  5-MIN K0J4 251040Z AUTO 07005KT 9SM FEW001 23/22 A3005 200 97 1200 070/05 RMK AO2 T02280222 $
63870K0J4 0J420160725054510907/25/16 05:45:31  5-MIN K0J4 251045Z AUTO 07004KT 9SM CLR 23/22 A3005 200 97 1200 070/04 RMK AO2 T02280222 $
63870K0J4 0J420160725055010907/25/16 05:50:31  5-MIN K0J4 251050Z AUTO 08003KT 9SM CLR 23/22 A3005 200 97 1200 080/03 RMK AO2 T02280222 $
63870K0J4 0J420160725055511607/25/16 05:55:31  5-MIN K0J4 251055Z AUTO 00000KT 9SM CLR 23/22 A3005 190 97 1200 000/00 RMK AO2 SLP172 T02280222 $
63870K0J4 0J420160725060010907/25/16 06:00:31  5-MIN K0J4 251100Z AUTO 00000KT 8SM CLR 23/22 A3005 200 97 1200 000/00 RMK AO2 T02280222 $
63870K0J4 0J420160725060510907/25/16 06:05:31  5-MIN K0J4 251105Z AUTO 00000KT 8SM CLR 23/22 A3005 190 97 1200 000/00 RMK AO2 T02280222 $
63870K0J4 0J420160725061010907/25/16 06:10:31  5-MIN K0J4 251110Z AUTO 00000KT 8SM CLR 23/22 A3005 190 97 1200 000/00 RMK AO2 T02280222 $
63870K0J4 0J420160725061510907/25/16 06:15:31  5-MIN K0J4 251115Z AUTO 08003KT 9SM CLR 23/22 A3005 190 97 1200 080/03 RMK AO2 T02280222 $
63870K0J4 0J420160725062010907/25/16 06:20:31  5-MIN K0J4 251120Z AUTO 07003KT 9SM CLR 23/22 A3005 190 97 1200 070/03 RMK AO2 T02280222 $
63870K0J4 0J420160725062510907/25/16 06:25:31  5-MIN K0J4 251125Z AUTO 00000KT 9SM CLR 23/22 A3006 190 97 1200 000/00 RMK AO2 T02280222 $
63870K0J4 0J420160725063011007/25/16 06:30:31  5-MIN K0J4 251130Z AUTO 08004KT 10SM CLR 23/22 A3006 190 93 1200 080/04 RMK AO2 T02330222 $
63870K0J4 0J420160725063511007/25/16 06:35:31  5-MIN K0J4 251135Z AUTO 07003KT 10SM CLR 23/22 A3006 190 93 1200 070/03 RMK AO2 T02330222 $
63870K0J4 0J420160725064011007/25/16 06:40:31  5-MIN K0J4 251140Z AUTO 07003KT 10SM CLR 23/22 A3006 190 93 1200 070/03 RMK AO2 T02330222 $
63870K0J4 0J420160725064511007/25/16 06:45:31  5-MIN K0J4 251145Z AUTO 08003KT 10SM CLR 23/23 A3006 190 97 1200 080/03 RMK AO2 T02330228 $
63870K0J4 0J420160725065011007/25/16 06:50:31  5-MIN K0J4 251150Z AUTO 08004KT 10SM CLR 23/23 A3006 190 97 1200 080/04 RMK AO2 T02330228 $
63870K0J4 0J420160725065513507/25/16 06:55:31  5-MIN K0J4 251155Z AUTO 08004KT 10SM CLR 24/23 A3006 190 93 1300 080/04 RMK AO2 SLP174 T02390228 10239 20228 55007 $
63870K0J4 0J420160725070011007/25/16 07:00:31  5-MIN K0J4 251200Z AUTO 09003KT 10SM CLR 24/23 A3006 190 93 1300 090/03 RMK AO2 T02390228 $
63870K0J4 0J420160725070511007/25/16 07:05:31  5-MIN K0J4 251205Z AUTO 08004KT 10SM CLR 24/23 A3006 180 93 1300 080/04 RMK AO2 T02390228 $
63870K0J4 0J420160725071011007/25/16 07:10:31  5-MIN K0J4 251210Z AUTO 08003KT 10SM CLR 24/23 A3007 180 90 1400 080/03 RMK AO2 T02440228 $
63870K0J4 0J420160725071511007/25/16 07:15:31  5-MIN K0J4 251215Z AUTO 07004KT 10SM CLR 24/23 A3007 180 90 1400 070/04 RMK AO2 T02440228 $
63870K0J4 0J420160725072011007/25/16 07:20:31  5-MIN K0J4 251220Z AUTO 09004KT 10SM CLR 24/23 A3007 180 90 1400 090/04 RMK AO2 T02440228 $
63870K0J4 0J420160725072511007/25/16 07:25:31  5-MIN K0J4 251225Z AUTO 08004KT 10SM CLR 24/23 A3007 180 90 1400 080/04 RMK AO2 T02440228 $
63870K0J4 0J420160725073011007/25/16 07:30:31  5-MIN K0J4 251230Z AUTO 08005KT 10SM CLR 24/23 A3007 170 90 1400 080/05 RMK AO2 T02440228 $
63870K0J4 0J420160725073511007/25/16 07:35:31  5-MIN K0J4 251235Z AUTO 08005KT 10SM CLR 25/23 A3008 170 87 1400 080/05 RMK AO2 T02500228 $
63870K0J4 0J420160725074011007/25/16 07:40:31  5-MIN K0J4 251240Z AUTO 09005KT 10SM CLR 25/23 A3008 170 90 1400 090/05 RMK AO2 T02500233 $
63870K0J4 0J420160725074511007/25/16 07:45:31  5-MIN K0J4 251245Z AUTO 08005KT 10SM CLR 25/23 A3008 170 90 1400 080/05 RMK AO2 T02500233 $
63870K0J4 0J420160725075011007/25/16 07:50:31  5-MIN K0J4 251250Z AUTO 07005KT 10SM CLR 26/23 A3008 170 87 1500 070/05 RMK AO2 T02560233 $
63870K0J4 0J420160725075511707/25/16 07:55:31  5-MIN K0J4 251255Z AUTO 08006KT 10SM CLR 26/23 A3008 170 87 1500 080/06 RMK AO2 SLP180 T02560233 $
63870K0J4 0J420160725080011007/25/16 08:00:31  5-MIN K0J4 251300Z AUTO 08006KT 10SM CLR 26/23 A3008 170 87 1500 080/06 RMK AO2 T02560233 $
63870K0J4 0J420160725080511007/25/16 08:05:31  5-MIN K0J4 251305Z AUTO 09006KT 10SM CLR 26/23 A3008 170 84 1500 090/06 RMK AO2 T02610233 $
63870K0J4 0J420160725081011007/25/16 08:10:31  5-MIN K0J4 251310Z AUTO 09006KT 10SM CLR 26/24 A3008 170 87 1500 090/06 RMK AO2 T02610239 $
63870K0J4 0J420160725081511007/25/16 08:15:31  5-MIN K0J4 251315Z AUTO 09005KT 10SM CLR 27/24 A3008 170 84 1600 090/05 RMK AO2 T02670239 $
63870K0J4 0J420160725082011007/25/16 08:20:31  5-MIN K0J4 251320Z AUTO 11005KT 10SM CLR 27/23 A3008 170 82 1600 110/05 RMK AO2 T02670233 $
63870K0J4 0J420160725082511007/25/16 08:25:31  5-MIN K0J4 251325Z AUTO VRB04KT 10SM CLR 27/24 A3008 170 84 1600 VRB/04 RMK AO2 T02670239 $
63870K0J4 0J420160725181511007/25/16 18:15:31  5-MIN K0J4 252315Z AUTO 18006KT 10SM CLR 30/23 A2999 250 65 2100 180/06 RMK AO2 T03000228 $
63870K0J4 0J420160725182011007/25/16 18:20:31  5-MIN K0J4 252320Z AUTO 16005KT 10SM CLR 30/23 A2999 250 65 2100 160/05 RMK AO2 T03000228 $
63870K0J4 0J420160725182511007/25/16 18:25:31  5-MIN K0J4 252325Z AUTO 19007KT 10SM CLR 30/23 A2999 250 65 2100 190/07 RMK AO2 T03000228 $
63870K0J4 0J420160725183011007/25/16 18:30:31  5-MIN K0J4 252330Z AUTO 18006KT 10SM CLR 29/23 A2999 250 67 2000 180/06 RMK AO2 T02940228 $
63870K0J4 0J420160725183511007/25/16 18:35:31  5-MIN K0J4 252335Z AUTO 18005KT 10SM CLR 29/23 A2999 250 67 2000 180/05 RMK AO2 T02940228 $
63870K0J4 0J420160725184011007/25/16 18:40:31  5-MIN K0J4 252340Z AUTO 18005KT 10SM CLR 29/23 A3000 250 67 2000 180/05 RMK AO2 T02940228 $
63870K0J4 0J420160725184511007/25/16 18:45:31  5-MIN K0J4 252345Z AUTO 19004KT 10SM CLR 29/23 A3000 250 67 2000 190/04 RMK AO2 T02940228 $
63870K0J4 0J420160725185011007/25/16 18:50:31  5-MIN K0J4 252350Z AUTO 18003KT 10SM CLR 29/23 A3000 250 67 2000 180/03 RMK AO2 T02940228 $
63870K0J4 0J420160725185514107/25/16 18:55:31  5-MIN K0J4 252355Z AUTO 15003KT 10SM CLR 29/23 A3000 250 69 2000 150/03 RMK AO2 SLP153 60011 T02940233 10339 20256 55002 $
63870K0J4 0J420160725190011007/25/16 19:00:31  5-MIN K0J4 260000Z AUTO 15006KT 10SM CLR 29/23 A3000 250 67 2000 150/06 RMK AO2 T02940228 $
63870K0J4 0J420160725191510107/25/16 19:15:31  5-MIN K0J4 260015Z AUTO 19010KT 29/22 A3001 240 67 1900 190/10 RMK AO2 T02890222 $
63870K0J4 0J420160725192010607/25/16 19:20:31  5-MIN K0J4 260020Z AUTO 20009KT 10SM 28/22 A3001 230 69 1900 200/09 RMK AO2 T02830222 $
63870K0J4 0J420160725192510607/25/16 19:25:31  5-MIN K0J4 260025Z AUTO 18008KT 10SM 28/22 A3001 230 69 1900 180/08 RMK AO2 T02830222 $
63870K0J4 0J420160725193010607/25/16 19:30:31  5-MIN K0J4 260030Z AUTO 17006KT 10SM 28/22 A3001 230 71 1800 170/06 RMK AO2 T02780222 $
63870K0J4 0J420160725193510607/25/16 19:35:31  5-MIN K0J4 260035Z AUTO 17007KT 10SM 28/22 A3002 230 69 1800 170/07 RMK AO2 T02780217 $
63870K0J4 0J420160725194012007/25/16 19:40:31  5-MIN K0J4 260040Z AUTO 16005KT 10SM FEW031 FEW042 27/22 A3002 230 71 1700 160/05 RMK AO2 T02720217 $
63870K0J4 0J420160725194511007/25/16 19:45:31  5-MIN K0J4 260045Z AUTO 17004KT 10SM CLR 27/22 A3002 220 71 1700 170/04 RMK AO2 T02720217 $
63870K0J4 0J420160725195011007/25/16 19:50:31  5-MIN K0J4 260050Z AUTO 16004KT 10SM CLR 27/22 A3002 220 71 1700 160/04 RMK AO2 T02720217 $
63870K0J4 0J420160725195511707/25/16 19:55:31  5-MIN K0J4 260055Z AUTO 16004KT 10SM CLR 27/22 A3002 220 73 1700 160/04 RMK AO2 SLP161 T02670217 $
63870K0J4 0J420160725200011007/25/16 20:00:31  5-MIN K0J4 260100Z AUTO 16005KT 10SM CLR 27/22 A3002 220 73 1700 160/05 RMK AO2 T02670217 $
63870K0J4 0J420160725200511007/25/16 20:05:31  5-MIN K0J4 260105Z AUTO 16004KT 10SM CLR 27/22 A3002 230 73 1700 160/04 RMK AO2 T02670217 $
63870K0J4 0J420160725201011007/25/16 20:10:31  5-MIN K0J4 260110Z AUTO 16004KT 10SM CLR 26/22 A3002 230 76 1600 160/04 RMK AO2 T02610217 $
63870K0J4 0J420160725201511007/25/16 20:15:31  5-MIN K0J4 260115Z AUTO 16004KT 10SM CLR 26/22 A3002 230 76 1600 160/04 RMK AO2 T02610217 $
63870K0J4 0J420160725202011007/25/16 20:20:31  5-MIN K0J4 260120Z AUTO 17004KT 10SM CLR 26/22 A3002 230 76 1600 170/04 RMK AO2 T02610217 $
63870K0J4 0J420160725202511007/25/16 20:25:31  5-MIN K0J4 260125Z AUTO 16004KT 10SM CLR 26/22 A3002 220 76 1600 160/04 RMK AO2 T02610217 $
63870K0J4 0J420160725203011007/25/16 20:30:31  5-MIN K0J4 260130Z AUTO 16003KT 10SM CLR 26/22 A3002 220 76 1600 160/03 RMK AO2 T02610217 $
63870K0J4 0J420160725203511007/25/16 20:35:31  5-MIN K0J4 260135Z AUTO 16004KT 10SM CLR 26/22 A3002 220 79 1500 160/04 RMK AO2 T02560217 $
63870K0J4 0J420160725204011007/25/16 20:40:31  5-MIN K0J4 260140Z AUTO 16003KT 10SM CLR 26/22 A3002 220 79 1500 160/03 RMK AO2 T02560217 $
63870K0J4 0J420160725204511007/25/16 20:45:31  5-MIN K0J4 260145Z AUTO 15003KT 10SM CLR 26/22 A3002 220 79 1500 150/03 RMK AO2 T02560217 $
63870K0J4 0J420160725205011007/25/16 20:50:31  5-MIN K0J4 260150Z AUTO 14003KT 10SM CLR 26/22 A3003 220 79 1500 140/03 RMK AO2 T02560217 $
63870K0J4 0J420160725205511707/25/16 20:55:31  5-MIN K0J4 260155Z AUTO 00000KT 10SM CLR 26/22 A3003 220 79 1500 000/00 RMK AO2 SLP164 T02560217 $
63870K0J4 0J420160725210011007/25/16 21:00:31  5-MIN K0J4 260200Z AUTO 15003KT 10SM CLR 26/22 A3003 220 79 1500 150/03 RMK AO2 T02560217 $
63870K0J4 0J420160725210511007/25/16 21:05:31  5-MIN K0J4 260205Z AUTO 16003KT 10SM CLR 26/22 A3003 220 79 1500 160/03 RMK AO2 T02560217 $
63870K0J4 0J420160725211011007/25/16 21:10:31  5-MIN K0J4 260210Z AUTO 15003KT 10SM CLR 26/22 A3003 220 81 1500 150/03 RMK AO2 T02560222 $
63870K0J4 0J420160725211511007/25/16 21:15:31  5-MIN K0J4 260215Z AUTO 16003KT 10SM CLR 26/22 A3003 210 81 1500 160/03 RMK AO2 T02560222 $
63870K0J4 0J420160725212011007/25/16 21:20:31  5-MIN K0J4 260220Z AUTO 17003KT 10SM CLR 26/22 A3003 210 81 1500 170/03 RMK AO2 T02560222 $
63870K0J4 0J420160725212511007/25/16 21:25:31  5-MIN K0J4 260225Z AUTO 00000KT 10SM CLR 26/22 A3003 210 81 1500 000/00 RMK AO2 T02560222 $
63870K0J4 0J420160725213011007/25/16 21:30:31  5-MIN K0J4 260230Z AUTO 00000KT 10SM CLR 26/22 A3004 210 81 1500 000/00 RMK AO2 T02560222 $
63870K0J4 0J420160725213511007/25/16 21:35:31  5-MIN K0J4 260235Z AUTO 00000KT 10SM CLR 26/22 A3004 210 81 1500 000/00 RMK AO2 T02560222 $
63870K0J4 0J420160725214011007/25/16 21:40:31  5-MIN K0J4 260240Z AUTO 00000KT 10SM CLR 26/22 A3003 210 81 1500 000/00 RMK AO2 T02560222 $
63870K0J4 0J420160725214511007/25/16 21:45:31  5-MIN K0J4 260245Z AUTO 00000KT 10SM CLR 26/22 A3003 210 81 1500 000/00 RMK AO2 T02560222 $
63870K0J4 0J420160725215011007/25/16 21:50:31  5-MIN K0J4 260250Z AUTO 13003KT 10SM CLR 25/22 A3003 210 84 1500 130/03 RMK AO2 T02500222 $
63870K0J4 0J420160725215511707/25/16 21:55:31  5-MIN K0J4 260255Z AUTO 00000KT 10SM CLR 25/22 A3004 210 84 1500 000/00 RMK AO2 SLP166 T02500222 $
63870K0J4 0J420160725220011007/25/16 22:00:31  5-MIN K0J4 260300Z AUTO 00000KT 10SM CLR 25/22 A3004 210 84 1500 000/00 RMK AO2 T02500222 $
63870K0J4 0J420160725220511007/25/16 22:05:31  5-MIN K0J4 260305Z AUTO 00000KT 10SM CLR 25/22 A3004 210 84 1500 000/00 RMK AO2 T02500222 $
63870K0J4 0J420160725221011007/25/16 22:10:31  5-MIN K0J4 260310Z AUTO 00000KT 10SM CLR 25/22 A3004 210 84 1500 000/00 RMK AO2 T02500222 $
63870K0J4 0J420160725221511007/25/16 22:15:31  5-MIN K0J4 260315Z AUTO 00000KT 10SM CLR 25/23 A3004 210 87 1500 000/00 RMK AO2 T02500228 $
63870K0J4 0J420160725222011007/25/16 22:20:31  5-MIN K0J4 260320Z AUTO 00000KT 10SM CLR 25/22 A3003 210 84 1500 000/00 RMK AO2 T02500222 $
63870K0J4 0J420160725222511007/25/16 22:25:31  5-MIN K0J4 260325Z AUTO 14003KT 10SM CLR 25/23 A3003 210 87 1500 140/03 RMK AO2 T02500228 $
63870K0J4 0J420160725223011007/25/16 22:30:31  5-MIN K0J4 260330Z AUTO 00000KT 10SM CLR 25/23 A3004 210 87 1500 000/00 RMK AO2 T02500228 $
63870K0J4 0J420160725223511007/25/16 22:35:31  5-MIN K0J4 260335Z AUTO 14003KT 10SM CLR 25/23 A3003 210 87 1500 140/03 RMK AO2 T02500228 $
63870K0J4 0J420160725224011007/25/16 22:40:31  5-MIN K0J4 260340Z AUTO 00000KT 10SM CLR 25/23 A3004 210 87 1500 000/00 RMK AO2 T02500228 $
63870K0J4 0J420160725224511007/25/16 22:45:31  5-MIN K0J4 260345Z AUTO 00000KT 10SM CLR 25/23 A3003 210 87 1500 000/00 RMK AO2 T02500228 $
63870K0J4 0J420160725225011007/25/16 22:50:31  5-MIN K0J4 260350Z AUTO 00000KT 10SM CLR 25/23 A3003 210 87 1500 000/00 RMK AO2 T02500228 $
63870K0J4 0J420160725225511707/25/16 22:55:31  5-MIN K0J4 260355Z AUTO 00000KT 10SM CLR 25/23 A3003 210 87 1500 000/00 RMK AO2 SLP165 T02500228 $
63870K0J4 0J420160725230011007/25/16 23:00:31  5-MIN K0J4 260400Z AUTO 00000KT 10SM CLR 25/23 A3004 210 87 1500 000/00 RMK AO2 T02500228 $
63870K0J4 0J420160725230511007/25/16 23:05:31  5-MIN K0J4 260405Z AUTO 00000KT 10SM CLR 25/23 A3004 210 87 1500 000/00 RMK AO2 T02500228 $
63870K0J4 0J420160725231011007/25/16 23:10:31  5-MIN K0J4 260410Z AUTO 00000KT 10SM CLR 25/23 A3004 210 87 1500 000/00 RMK AO2 T02500228 $
63870K0J4 0J420160725231511007/25/16 23:15:31  5-MIN K0J4 260415Z AUTO 07003KT 10SM CLR 24/23 A3004 210 90 1400 070/03 RMK AO2 T02440228 $
63870K0J4 0J420160725232011007/25/16 23:20:31  5-MIN K0J4 260420Z AUTO 06003KT 10SM CLR 25/23 A3004 210 87 1500 060/03 RMK AO2 T02500228 $
63870K0J4 0J420160725232511007/25/16 23:25:31  5-MIN K0J4 260425Z AUTO 00000KT 10SM CLR 24/23 A3004 210 90 1400 000/00 RMK AO2 T02440228 $
63870K0J4 0J420160725233011007/25/16 23:30:31  5-MIN K0J4 260430Z AUTO 04003KT 10SM CLR 24/22 A3004 210 87 1400 040/03 RMK AO2 T02440222 $
63870K0J4 0J420160725233511007/25/16 23:35:31  5-MIN K0J4 260435Z AUTO 04003KT 10SM CLR 24/22 A3004 210 87 1400 040/03 RMK AO2 T02440222 $
63870K0J4 0J420160725234011007/25/16 23:40:31  5-MIN K0J4 260440Z AUTO 05003KT 10SM CLR 24/22 A3003 210 90 1300 050/03 RMK AO2 T02390222 $
63870K0J4 0J420160725234511007/25/16 23:45:31  5-MIN K0J4 260445Z AUTO 04003KT 10SM CLR 24/22 A3004 210 90 1300 040/03 RMK AO2 T02390222 $
63870K0J4 0J420160725235011007/25/16 23:50:31  5-MIN K0J4 260450Z AUTO 03003KT 10SM CLR 24/22 A3004 210 90 1300 030/03 RMK AO2 T02390222 $
63870K0J4 0J420160725235512707/25/16 23:55:31  5-MIN K0J4 260455Z AUTO 04004KT 10SM CLR 24/22 A3004 210 90 1300 040/04 RMK AO2 SLP166 T02390222 403390228 $
63870K0J4 0J420160726000011007/26/16 00:00:31  5-MIN K0J4 260500Z AUTO 00000KT 10SM CLR 24/22 A3004 210 90 1300 000/00 RMK AO2 T02390222 $
63870K0J4 0J420160726000511307/26/16 00:05:31  5-MIN K0J4 260505Z AUTO 06003KT 10SM FEW026 24/22 A3004 210 90 1300 060/03 RMK AO2 T02390222 $
63870K0J4 0J420160726001011307/26/16 00:10:31  5-MIN K0J4 260510Z AUTO 06003KT 10SM FEW026 24/22 A3004 210 90 1300 060/03 RMK AO2 T02390222 $
63870K0J4 0J420160726001511307/26/16 00:15:31  5-MIN K0J4 260515Z AUTO 07004KT 10SM FEW026 24/22 A3004 210 90 1300 070/04 RMK AO2 T02390222 $
63870K0J4 0J420160726002012007/26/16 00:20:31  5-MIN K0J4 260520Z AUTO 07003KT 10SM FEW024 SCT033 24/22 A3004 210 90 1300 070/03 RMK AO2 T02390222 $
63870K0J4 0J420160726002511307/26/16 00:25:31  5-MIN K0J4 260525Z AUTO 07004KT 10SM SCT024 24/22 A3004 210 90 1300 070/04 RMK AO2 T02390222 $
63870K0J4 0J420160726003011307/26/16 00:30:31  5-MIN K0J4 260530Z AUTO 08004KT 10SM SCT024 24/22 A3004 210 90 1300 080/04 RMK AO2 T02390222 $
63870K0J4 0J420160726003511307/26/16 00:35:31  5-MIN K0J4 260535Z AUTO 08004KT 10SM FEW024 24/22 A3004 210 90 1300 080/04 RMK AO2 T02390222 $
63870K0J4 0J420160726004011307/26/16 00:40:31  5-MIN K0J4 260540Z AUTO 08004KT 10SM FEW022 24/22 A3004 210 90 1300 080/04 RMK AO2 T02390222 $
63870K0J4 0J420160726004511307/26/16 00:45:31  5-MIN K0J4 260545Z AUTO 09004KT 10SM FEW022 24/22 A3004 210 90 1300 090/04 RMK AO2 T02390222 $
63870K0J4 0J420160726005011307/26/16 00:50:31  5-MIN K0J4 260550Z AUTO 09003KT 10SM FEW024 24/22 A3004 210 90 1300 090/03 RMK AO2 T02390222 $
63870K0J4 0J420160726005512907/26/16 00:55:31  5-MIN K0J4 260555Z AUTO 08003KT 10SM CLR 24/22 A3004 210 90 1300 080/03 RMK AO2 SLP166 T02390222 10294 20239 $
63870K0J4 0J420160726010011007/26/16 01:00:31  5-MIN K0J4 260600Z AUTO 09004KT 10SM CLR 24/22 A3004 210 90 1300 090/04 RMK AO2 T02390222 $
63870K0J4 0J420160726010511007/26/16 01:05:31  5-MIN K0J4 260605Z AUTO 08003KT 10SM CLR 24/22 A3003 210 90 1300 080/03 RMK AO2 T02390222 $
63870K0J4 0J420160726011011007/26/16 01:10:31  5-MIN K0J4 260610Z AUTO 09003KT 10SM CLR 24/22 A3003 210 90 1300 090/03 RMK AO2 T02390222 $
63870K0J4 0J420160726011511007/26/16 01:15:31  5-MIN K0J4 260615Z AUTO 00000KT 10SM CLR 24/22 A3003 210 90 1300 000/00 RMK AO2 T02390222 $
63870K0J4 0J420160726012011007/26/16 01:20:31  5-MIN K0J4 260620Z AUTO 00000KT 10SM CLR 24/22 A3003 210 90 1300 000/00 RMK AO2 T02390222 $
63870K0J4 0J420160726012511007/26/16 01:25:31  5-MIN K0J4 260625Z AUTO 00000KT 10SM CLR 24/22 A3003 210 90 1300 000/00 RMK AO2 T02390222 $
63870K0J4 0J420160726013011007/26/16 01:30:31  5-MIN K0J4 260630Z AUTO 00000KT 10SM CLR 24/22 A3003 220 90 1300 000/00 RMK AO2 T02390222 $
63870K0J4 0J420160726013511007/26/16 01:35:31  5-MIN K0J4 260635Z AUTO 00000KT 10SM CLR 24/22 A3003 220 90 1300 000/00 RMK AO2 T02390222 $
63870K0J4 0J420160726014011007/26/16 01:40:31  5-MIN K0J4 260640Z AUTO 11003KT 10SM CLR 24/22 A3003 220 90 1300 110/03 RMK AO2 T02390222 $
63870K0J4 0J420160726014511007/26/16 01:45:31  5-MIN K0J4 260645Z AUTO 12003KT 10SM CLR 23/22 A3003 220 93 1300 120/03 RMK AO2 T02330222 $
63870K0J4 0J420160726015011007/26/16 01:50:31  5-MIN K0J4 260650Z AUTO 00000KT 10SM CLR 23/22 A3003 220 93 1300 000/00 RMK AO2 T02330222 $
63870K0J4 0J420160726015511707/26/16 01:55:31  5-MIN K0J4 260655Z AUTO 00000KT 10SM CLR 23/22 A3002 220 93 1300 000/00 RMK AO2 SLP162 T02330222 $
63870K0J4 0J420160726020011007/26/16 02:00:31  5-MIN K0J4 260700Z AUTO 00000KT 10SM CLR 23/22 A3002 220 93 1300 000/00 RMK AO2 T02330222 $
63870K0J4 0J420160726020511007/26/16 02:05:31  5-MIN K0J4 260705Z AUTO 00000KT 10SM CLR 23/22 A3002 230 93 1300 000/00 RMK AO2 T02330222 $
63870K0J4 0J420160726021011007/26/16 02:10:31  5-MIN K0J4 260710Z AUTO 00000KT 10SM CLR 23/22 A3002 230 93 1300 000/00 RMK AO2 T02330222 $
63870K0J4 0J420160726021511007/26/16 02:15:31  5-MIN K0J4 260715Z AUTO 00000KT 10SM CLR 23/22 A3002 230 93 1300 000/00 RMK AO2 T02330222 $
63870K0J4 0J420160726022011007/26/16 02:20:31  5-MIN K0J4 260720Z AUTO 00000KT 10SM CLR 23/22 A3002 230 93 1300 000/00 RMK AO2 T02330222 $
63870K0J4 0J420160726022511007/26/16 02:25:31  5-MIN K0J4 260725Z AUTO 00000KT 10SM CLR 23/22 A3001 230 93 1300 000/00 RMK AO2 T02330222 $
63870K0J4 0J420160726023011007/26/16 02:30:31  5-MIN K0J4 260730Z AUTO 00000KT 10SM CLR 23/22 A3001 230 93 1300 000/00 RMK AO2 T02330222 $
63870K0J4 0J420160726023511007/26/16 02:35:31  5-MIN K0J4 260735Z AUTO 00000KT 10SM CLR 23/22 A3001 230 93 1300 000/00 RMK AO2 T02330222 $
63870K0J4 0J420160726024011007/26/16 02:40:31  5-MIN K0J4 260740Z AUTO 08003KT 10SM CLR 23/22 A3001 230 93 1300 080/03 RMK AO2 T02330222 $
63870K0J4 0J420160726024511007/26/16 02:45:31  5-MIN K0J4 260745Z AUTO 00000KT 10SM CLR 23/22 A3001 230 93 1300 000/00 RMK AO2 T02330222 $
63870K0J4 0J420160726025011007/26/16 02:50:31  5-MIN K0J4 260750Z AUTO 00000KT 10SM CLR 23/22 A3001 230 93 1300 000/00 RMK AO2 T02330222 $
63870K0J4 0J420160726025511707/26/16 02:55:31  5-MIN K0J4 260755Z AUTO 00000KT 10SM CLR 23/22 A3001 240 93 1300 000/00 RMK AO2 SLP156 T02330222 $
63870K0J4 0J420160726030011007/26/16 03:00:31  5-MIN K0J4 260800Z AUTO 00000KT 10SM CLR 23/22 A3001 240 93 1300 000/00 RMK AO2 T02330222 $
63870K0J4 0J420160726030511007/26/16 03:05:31  5-MIN K0J4 260805Z AUTO 00000KT 10SM CLR 23/22 A3001 240 93 1300 000/00 RMK AO2 T02330222 $
63870K0J4 0J420160726031011007/26/16 03:10:31  5-MIN K0J4 260810Z AUTO 07003KT 10SM CLR 23/22 A3001 240 93 1300 070/03 RMK AO2 T02330222 $
63870K0J4 0J420160726031511007/26/16 03:15:31  5-MIN K0J4 260815Z AUTO 07004KT 10SM CLR 23/22 A3001 240 93 1300 070/04 RMK AO2 T02330222 $
63870K0J4 0J420160726032011007/26/16 03:20:31  5-MIN K0J4 260820Z AUTO 07005KT 10SM CLR 23/22 A3001 240 93 1300 070/05 RMK AO2 T02330222 $
63870K0J4 0J420160726032511007/26/16 03:25:31  5-MIN K0J4 260825Z AUTO 07005KT 10SM CLR 23/22 A3000 240 93 1300 070/05 RMK AO2 T02330222 $
63870K0J4 0J420160726033011007/26/16 03:30:31  5-MIN K0J4 260830Z AUTO 07005KT 10SM CLR 23/22 A3000 240 93 1300 070/05 RMK AO2 T02330222 $
63870K0J4 0J420160726033511007/26/16 03:35:31  5-MIN K0J4 260835Z AUTO 07005KT 10SM CLR 23/22 A3000 240 93 1300 070/05 RMK AO2 T02330222 $
63870K0J4 0J420160726034011007/26/16 03:40:31  5-MIN K0J4 260840Z AUTO 07005KT 10SM CLR 23/22 A3000 240 93 1300 070/05 RMK AO2 T02330222 $
63870K0J4 0J420160726034511007/26/16 03:45:31  5-MIN K0J4 260845Z AUTO 08005KT 10SM CLR 23/22 A3000 240 93 1300 080/05 RMK AO2 T02330222 $
63870K0J4 0J420160726035011007/26/16 03:50:31  5-MIN K0J4 260850Z AUTO 08005KT 10SM CLR 23/22 A3000 240 93 1300 080/05 RMK AO2 T02330222 $
63870K0J4 0J420160726035512307/26/16 03:55:31  5-MIN K0J4 260855Z AUTO 08005KT 10SM CLR 23/22 A3000 240 93 1300 080/05 RMK AO2 SLP156 T02330222 56001 $
63870K0J4 0J420160726040011007/26/16 04:00:31  5-MIN K0J4 260900Z AUTO 09005KT 10SM CLR 23/22 A3000 240 93 1300 090/05 RMK AO2 T02330222 $
63870K0J4 0J420160726040511007/26/16 04:05:31  5-MIN K0J4 260905Z AUTO 09003KT 10SM CLR 23/22 A3000 240 93 1300 090/03 RMK AO2 T02330222 $
63870K0J4 0J420160726041011007/26/16 04:10:31  5-MIN K0J4 260910Z AUTO VRB04KT 10SM CLR 23/22 A3000 240 93 1300 VRB/04 RMK AO2 T02330222 $
63870K0J4 0J420160726041511007/26/16 04:15:31  5-MIN K0J4 260915Z AUTO 10003KT 10SM CLR 23/22 A3000 240 93 1300 100/03 RMK AO2 T02330222 $
63870K0J4 0J420160726042011007/26/16 04:20:31  5-MIN K0J4 260920Z AUTO 09004KT 10SM CLR 23/22 A3000 240 97 1200 090/04 RMK AO2 T02280222 $
63870K0J4 0J420160726042511007/26/16 04:25:31  5-MIN K0J4 260925Z AUTO VRB03KT 10SM CLR 23/22 A3000 240 93 1300 VRB/03 RMK AO2 T02330222 $
63870K0J4 0J420160726043011007/26/16 04:30:31  5-MIN K0J4 260930Z AUTO 09004KT 10SM CLR 23/22 A3000 240 93 1300 090/04 RMK AO2 T02330222 $
63870K0J4 0J420160726043511007/26/16 04:35:31  5-MIN K0J4 260935Z AUTO 08004KT 10SM CLR 23/22 A3000 240 93 1300 080/04 RMK AO2 T02330222 $
63870K0J4 0J420160726044011007/26/16 04:40:31  5-MIN K0J4 260940Z AUTO 09005KT 10SM CLR 23/22 A3000 240 93 1300 090/05 RMK AO2 T02330222 $
63870K0J4 0J420160726044511007/26/16 04:45:31  5-MIN K0J4 260945Z AUTO 10004KT 10SM CLR 23/22 A3000 240 93 1300 100/04 RMK AO2 T02330222 $
63870K0J4 0J420160726045011007/26/16 04:50:31  5-MIN K0J4 260950Z AUTO 09005KT 10SM CLR 23/22 A3000 240 93 1300 090/05 RMK AO2 T02330222 $
63870K0J4 0J420160726045511707/26/16 04:55:31  5-MIN K0J4 260955Z AUTO 08005KT 10SM CLR 23/22 A3000 240 97 1200 080/05 RMK AO2 SLP155 T02280222 $
63870K0J4 0J420160726050011007/26/16 05:00:31  5-MIN K0J4 261000Z AUTO 09005KT 10SM CLR 23/22 A3000 240 97 1200 090/05 RMK AO2 T02280222 $
63870K0J4 0J420160726050511007/26/16 05:05:31  5-MIN K0J4 261005Z AUTO 08004KT 10SM CLR 23/22 A3000 240 97 1200 080/04 RMK AO2 T02280222 $
63870K0J4 0J420160726051011007/26/16 05:10:31  5-MIN K0J4 261010Z AUTO 09003KT 10SM CLR 23/22 A3001 240 93 1300 090/03 RMK AO2 T02330222 $
63870K0J4 0J420160726051511007/26/16 05:15:31  5-MIN K0J4 261015Z AUTO 10003KT 10SM CLR 23/22 A3001 240 93 1300 100/03 RMK AO2 T02330222 $
63870K0J4 0J420160726052011307/26/16 05:20:31  5-MIN K0J4 261020Z AUTO 09003KT 10SM FEW002 23/22 A3001 230 93 1300 090/03 RMK AO2 T02330222 $
63870K0J4 0J420160726052511307/26/16 05:25:31  5-MIN K0J4 261025Z AUTO 08004KT 10SM FEW002 23/22 A3001 230 93 1300 080/04 RMK AO2 T02330222 $
63870K0J4 0J420160726053011307/26/16 05:30:31  5-MIN K0J4 261030Z AUTO 09003KT 10SM SCT002 23/22 A3001 230 93 1300 090/03 RMK AO2 T02330222 $
63870K0J4 0J420160726053511307/26/16 05:35:31  5-MIN K0J4 261035Z AUTO 09003KT 10SM SCT002 23/22 A3001 230 93 1300 090/03 RMK AO2 T02330222 $
63870K0J4 0J420160726054011307/26/16 05:40:31  5-MIN K0J4 261040Z AUTO 09004KT 10SM FEW002 23/22 A3001 230 97 1200 090/04 RMK AO2 T02280222 $
63870K0J4 0J420160726054511307/26/16 05:45:31  5-MIN K0J4 261045Z AUTO 09004KT 10SM FEW002 23/22 A3002 230 93 1300 090/04 RMK AO2 T02330222 $
63870K0J4 0J420160726055011307/26/16 05:50:31  5-MIN K0J4 261050Z AUTO 07004KT 10SM FEW002 23/22 A3002 230 93 1300 070/04 RMK AO2 T02330222 $
63870K0J4 0J420160726055512007/26/16 05:55:31  5-MIN K0J4 261055Z AUTO 08004KT 10SM FEW002 23/22 A3002 220 93 1300 080/04 RMK AO2 SLP161 T02330222 $
63870K0J4 0J420160726060011007/26/16 06:00:31  5-MIN K0J4 261100Z AUTO 08003KT 10SM CLR 23/22 A3002 220 93 1300 080/03 RMK AO2 T02330222 $
63870K0J4 0J420160726060511007/26/16 06:05:31  5-MIN K0J4 261105Z AUTO 08003KT 10SM CLR 23/22 A3002 220 93 1300 080/03 RMK AO2 T02330222 $
63870K0J4 0J420160726061011007/26/16 06:10:31  5-MIN K0J4 261110Z AUTO 08003KT 10SM CLR 23/22 A3002 220 93 1300 080/03 RMK AO2 T02330222 $
63870K0J4 0J420160726061511007/26/16 06:15:31  5-MIN K0J4 261115Z AUTO 08004KT 10SM CLR 23/22 A3003 220 93 1300 080/04 RMK AO2 T02330222 $
63870K0J4 0J420160726062011007/26/16 06:20:31  5-MIN K0J4 261120Z AUTO 08004KT 10SM CLR 23/22 A3003 220 93 1300 080/04 RMK AO2 T02330222 $
63870K0J4 0J420160726162511107/26/16 16:25:31  5-MIN K0J4 262125Z AUTO 20012KT 10SM FEW027 29/23 A3001 240 69 2000 200/12 RMK AO2 T02940233
63870K0J4 0J420160726163011107/26/16 16:30:31  5-MIN K0J4 262130Z AUTO 18012KT 10SM FEW025 29/23 A3001 240 69 2000 180/12 RMK AO2 T02940233
63870K0J4 0J420160726163511807/26/16 16:35:31  5-MIN K0J4 262135Z AUTO 18012KT 10SM FEW025 SCT029 29/23 A3001 240 69 2000 180/12 RMK AO2 T02940233
63870K0J4 0J420160726164012507/26/16 16:40:31  5-MIN K0J4 262140Z AUTO 19012KT 10SM SCT025 SCT032 BKN046 29/23 A3001 240 71 1900 190/12 RMK AO2 T02890233
63870K0J4 0J420160726164512507/26/16 16:45:31  5-MIN K0J4 262145Z AUTO 21014KT 10SM FEW023 BKN028 BKN055 29/23 A3001 240 71 1900 210/14 RMK AO2 T02890233
63870K0J4 0J420160726165014107/26/16 16:50:31  5-MIN K0J4 262150Z AUTO 21011KT 10SM -RA FEW023 SCT028 BKN055 28/23 A3001 230 74 1900 210/11 RMK AO2 RAB48 P0000 T02830233
63870K0J4 0J420160726165515307/26/16 16:55:31  5-MIN K0J4 262155Z AUTO 22011G21KT 9SM -RA SCT023 BKN050 OVC065 27/23 A3001 230 76 1700 220/11G21 RMK AO2 RAB48 SLP158 P0000 T02720228
63870K0J4 0J420160726170014007/26/16 17:00:31  5-MIN K0J4 262200Z AUTO 18006G21KT 9SM -RA FEW023 BKN050 OVC075 27/23 A3001 230 79 1700 180/06G21 RMK AO2 P0000 T02670228
63870K0J4 0J420160726170513507/26/16 17:05:31  5-MIN K0J4 262205Z AUTO 18007KT 10SM -RA SCT021 BKN055 OVC080 27/23 A3001 230 82 1700 180/07 RMK AO2 P0000 T02670233
63870K0J4 0J420160726171013507/26/16 17:10:31  5-MIN K0J4 262210Z AUTO 17005KT 10SM -RA FEW022 BKN055 OVC090 27/23 A3001 230 82 1700 170/05 RMK AO2 P0000 T02670233
63870K0J4 0J420160726171507907/26/16 17:15:31  5-MIN K0J4 262215Z AUTO 18009KT M M M 180/09 RMK AO2 P0000 $
63870K0J4 0J420160726172010707/26/16 17:20:31  5-MIN K0J4 262220Z AUTO 20011KT 27/24 A3001 230 84 1700 200/11 RMK AO2 P0000 T02670239 $
63870K0J4 0J420160726172511207/26/16 17:25:31  5-MIN K0J4 262225Z AUTO 20009KT 10SM 27/23 A3001 230 82 1700 200/09 RMK AO2 P0000 T02670233 $
63870K0J4 0J420160726173011207/26/16 17:30:31  5-MIN K0J4 262230Z AUTO 20009KT 10SM 27/23 A3001 230 79 1700 200/09 RMK AO2 P0000 T02670228 $
63870K0J4 0J420160726173511207/26/16 17:35:31  5-MIN K0J4 262235Z AUTO 18008KT 10SM 27/23 A3001 230 79 1700 180/08 RMK AO2 P0000 T02670228 $
63870K0J4 0J420160726174011207/26/16 17:40:31  5-MIN K0J4 262240Z AUTO 18006KT 10SM 26/23 A3001 230 81 1600 180/06 RMK AO2 P0000 T02610228 $
63870K0J4 0J420160726174512607/26/16 17:45:31  5-MIN K0J4 262245Z AUTO 18006KT 10SM BKN075 BKN090 26/23 A3001 240 84 1600 180/06 RMK AO2 P0000 T02610233 $
63870K0J4 0J420160726175012607/26/16 17:50:31  5-MIN K0J4 262250Z AUTO 18006KT 10SM BKN075 BKN090 26/23 A3001 240 81 1600 180/06 RMK AO2 P0000 T02610228 $
63870K0J4 0J420160726175513307/26/16 17:55:31  5-MIN K0J4 262255Z AUTO 17006KT 10SM SCT075 SCT090 26/23 A3001 240 84 1600 170/06 RMK AO2 SLP156 P0000 T02610233 $
63870K0J4 0J420160726180012007/26/16 18:00:31  5-MIN K0J4 262300Z AUTO 16006KT 10SM FEW075 SCT090 26/23 A3001 230 84 1600 160/06 RMK AO2 T02610233 $
63870K0J4 0J420160726180511307/26/16 18:05:31  5-MIN K0J4 262305Z AUTO 15006KT 10SM FEW075 26/23 A3001 230 84 1600 150/06 RMK AO2 T02610233 $
63870K0J4 0J420160726181012007/26/16 18:10:31  5-MIN K0J4 262310Z AUTO 16007KT 10SM FEW028 FEW075 26/23 A3001 230 84 1600 160/07 RMK AO2 T02610233 $
63870K0J4 0J420160726181514107/26/16 18:15:31  5-MIN K0J4 262315Z AUTO 18011G15KT 9SM -RA FEW028 SCT045 26/23 A3001 230 84 1600 180/11G15 RMK AO2 RAB15 P0000 T02610233 $
63870K0J4 0J420160726182014807/26/16 18:20:31  5-MIN K0J4 262320Z AUTO 19011G16KT 8SM -RA FEW028 SCT047 SCT060 26/23 A3002 230 87 1500 190/11G16 RMK AO2 RAB15 P0000 T02560233 $
63870K0J4 0J420160726182514807/26/16 18:25:31  5-MIN K0J4 262325Z AUTO 18007G16KT 7SM -RA FEW028 BKN048 BKN060 26/23 A3002 230 87 1500 180/07G16 RMK AO2 RAB15 P0000 T02560233 $
63870K0J4 0J420160726183014507/26/16 18:30:31  5-MIN K0J4 262330Z AUTO 18009KT 6SM -RA BR FEW028 BKN046 BKN060 25/23 A3002 230 90 1500 180/09 RMK AO2 RAB15 P0000 T02500233 $
63870K0J4 0J420160726183514207/26/16 18:35:31  5-MIN K0J4 262335Z AUTO 18008KT 8SM -RA FEW028 BKN049 OVC060 25/23 A3002 230 90 1500 180/08 RMK AO2 RAB15 P0000 T02500233 $
63870K0J4 0J420160726184014307/26/16 18:40:31  5-MIN K0J4 262340Z AUTO 19006KT 10SM -RA FEW038 BKN050 OVC055 26/23 A3002 220 87 1500 190/06 RMK AO2 RAB15 P0000 T02560233 $
63870K0J4 0J420160726184513507/26/16 18:45:31  5-MIN K0J4 262345Z AUTO 20007KT 10SM FEW044 OVC050 26/23 A3002 220 87 1500 200/07 RMK AO2 RAB15E41 P0000 T02560233 $
63870K0J4 0J420160726185013507/26/16 18:50:31  5-MIN K0J4 262350Z AUTO 19007KT 10SM SCT048 OVC055 26/23 A3002 220 87 1500 190/07 RMK AO2 RAB15E41 P0000 T02560233 $
63870K0J4 0J420160726185516007/26/16 18:55:31  5-MIN K0J4 262355Z AUTO 19005KT 10SM BKN050 OVC065 26/23 A3003 220 87 1500 190/05 RMK AO2 RAB15E41 SLP163 P0000 60000 T02560233 10300 20250 $
63870K0J4 0J420160726190012007/26/16 19:00:31  5-MIN K0J4 270000Z AUTO 18005KT 10SM BKN055 OVC070 26/23 A3003 220 87 1500 180/05 RMK AO2 T02560233 $
63870K0J4 0J420160726190512007/26/16 19:05:31  5-MIN K0J4 270005Z AUTO 18005KT 10SM BKN055 OVC100 25/23 A3002 220 90 1500 180/05 RMK AO2 T02500233 $
63870K0J4 0J420160726191012707/26/16 19:10:31  5-MIN K0J4 270010Z AUTO 18006KT 10SM SCT055 BKN065 OVC100 25/23 A3003 220 90 1500 180/06 RMK AO2 T02500233 $
63870K0J4 0J420160726191512707/26/16 19:15:31  5-MIN K0J4 270015Z AUTO 18008KT 10SM SCT060 BKN090 OVC110 25/23 A3003 210 90 1500 180/08 RMK AO2 T02500233 $
63870K0J4 0J420160726192012707/26/16 19:20:31  5-MIN K0J4 270020Z AUTO 17006KT 10SM SCT060 SCT070 BKN090 25/23 A3003 210 90 1500 170/06 RMK AO2 T02500233 $
63870K0J4 0J420160726192512707/26/16 19:25:31  5-MIN K0J4 270025Z AUTO 18007KT 10SM SCT060 BKN075 OVC110 25/23 A3003 210 87 1500 180/07 RMK AO2 T02500228 $
63870K0J4 0J420160726193012707/26/16 19:30:31  5-MIN K0J4 270030Z AUTO 18004KT 10SM BKN070 BKN090 OVC110 25/23 A3003 210 87 1500 180/04 RMK AO2 T02500228 $
63870K0J4 0J420160726193512707/26/16 19:35:31  5-MIN K0J4 270035Z AUTO 18004KT 10SM FEW029 BKN070 OVC110 25/23 A3003 210 87 1500 180/04 RMK AO2 T02500228 $
63870K0J4 0J420160726194012707/26/16 19:40:31  5-MIN K0J4 270040Z AUTO 20005KT 10SM SCT027 BKN065 OVC080 25/23 A3003 210 87 1500 200/05 RMK AO2 T02500228 $
63870K0J4 0J420160726194512707/26/16 19:45:31  5-MIN K0J4 270045Z AUTO 21005KT 10SM FEW025 BKN039 OVC080 25/23 A3003 210 90 1500 210/05 RMK AO2 T02500233 $
63870K0J4 0J420160726195014307/26/16 19:50:31  5-MIN K0J4 270050Z AUTO 20004KT 10SM -RA FEW028 BKN040 OVC070 25/23 A3003 210 90 1500 200/04 RMK AO2 RAB46 P0000 T02500233 $
63870K0J4 0J420160726195514907/26/16 19:55:31  5-MIN K0J4 270055Z AUTO 19004KT 10SM FEW026 BKN042 OVC065 25/23 A3003 210 90 1500 190/04 RMK AO2 RAB46E55 SLP166 P0000 T02500233 $
63870K0J4 0J420160726200012007/26/16 20:00:31  5-MIN K0J4 270100Z AUTO 20005KT 10SM FEW026 OVC044 25/23 A3003 210 90 1500 200/05 RMK AO2 T02500233 $
63870K0J4 0J420160726200512707/26/16 20:05:31  5-MIN K0J4 270105Z AUTO 19004KT 10SM FEW026 SCT040 OVC047 25/23 A3003 210 87 1500 190/04 RMK AO2 T02500228 $
63870K0J4 0J420160726201012007/26/16 20:10:31  5-MIN K0J4 270110Z AUTO 20004KT 10SM FEW033 OVC047 25/23 A3003 210 87 1500 200/04 RMK AO2 T02500228 $
63870K0J4 0J420160726201511307/26/16 20:15:31  5-MIN K0J4 270115Z AUTO 20003KT 10SM OVC047 25/23 A3003 210 87 1500 200/03 RMK AO2 T02500228 $
63870K0J4 0J420160726202012007/26/16 20:20:31  5-MIN K0J4 270120Z AUTO 00000KT 10SM FEW033 OVC047 25/23 A3003 210 90 1500 000/00 RMK AO2 T02500233 $
63870K0J4 0J420160726202512707/26/16 20:25:31  5-MIN K0J4 270125Z AUTO 19003KT 10SM FEW024 SCT033 OVC049 25/23 A3004 210 90 1500 190/03 RMK AO2 T02500233 $
63870K0J4 0J420160726203012707/26/16 20:30:31  5-MIN K0J4 270130Z AUTO 19007KT 10SM FEW024 SCT033 OVC049 25/23 A3004 210 90 1500 190/07 RMK AO2 T02500233 $
63870K0J4 0J420160726203512707/26/16 20:35:31  5-MIN K0J4 270135Z AUTO 19004KT 10SM FEW024 SCT035 BKN049 25/23 A3004 200 90 1400 190/04 RMK AO2 T02500233 $
63870K0J4 0J420160726204012707/26/16 20:40:31  5-MIN K0J4 270140Z AUTO 19004KT 10SM FEW024 SCT033 BKN049 25/23 A3004 200 90 1400 190/04 RMK AO2 T02500233 $
63870K0J4 0J420160726204512707/26/16 20:45:31  5-MIN K0J4 270145Z AUTO 18003KT 10SM FEW024 BKN033 BKN042 25/23 A3004 200 90 1400 180/03 RMK AO2 T02500233 $
63870K0J4 0J420160726205012707/26/16 20:50:31  5-MIN K0J4 270150Z AUTO 19004KT 10SM FEW024 BKN033 BKN048 24/23 A3004 200 93 1400 190/04 RMK AO2 T02440233 $
63870K0J4 0J420160726205513407/26/16 20:55:31  5-MIN K0J4 270155Z AUTO 18003KT 10SM FEW022 SCT034 BKN048 24/23 A3004 200 93 1400 180/03 RMK AO2 SLP169 T02440233 $
63870K0J4 0J420160726210012007/26/16 21:00:31  5-MIN K0J4 270200Z AUTO 18003KT 10SM FEW034 SCT075 24/23 A3005 200 93 1400 180/03 RMK AO2 T02440233 $
63870K0J4 0J420160726210512707/26/16 21:05:31  5-MIN K0J4 270205Z AUTO 18003KT 10SM FEW034 SCT075 SCT100 24/23 A3005 200 93 1400 180/03 RMK AO2 T02440233 $
63870K0J4 0J420160726211012707/26/16 21:10:31  5-MIN K0J4 270210Z AUTO 19005KT 10SM FEW034 FEW075 SCT100 24/23 A3005 200 93 1400 190/05 RMK AO2 T02440233 $
63870K0J4 0J420160726211511307/26/16 21:15:31  5-MIN K0J4 270215Z AUTO 18004KT 10SM FEW110 24/23 A3005 200 90 1400 180/04 RMK AO2 T02440228 $
63870K0J4 0J420160726212011307/26/16 21:20:31  5-MIN K0J4 270220Z AUTO 19004KT 10SM FEW100 24/23 A3005 200 90 1400 190/04 RMK AO2 T02440228 $
63870K0J4 0J420160726212511307/26/16 21:25:31  5-MIN K0J4 270225Z AUTO 19003KT 10SM FEW100 24/23 A3005 200 93 1400 190/03 RMK AO2 T02440233 $
63870K0J4 0J420160726213011307/26/16 21:30:31  5-MIN K0J4 270230Z AUTO 18004KT 10SM FEW100 24/23 A3005 200 90 1400 180/04 RMK AO2 T02440228 $
63870K0J4 0J420160726213511007/26/16 21:35:31  5-MIN K0J4 270235Z AUTO 17004KT 10SM CLR 24/23 A3005 200 90 1400 170/04 RMK AO2 T02440228 $
63870K0J4 0J420160726214011007/26/16 21:40:31  5-MIN K0J4 270240Z AUTO 17004KT 10SM CLR 24/23 A3005 200 93 1300 170/04 RMK AO2 T02390228 $
63870K0J4 0J420160726214511007/26/16 21:45:31  5-MIN K0J4 270245Z AUTO 19003KT 10SM CLR 24/23 A3005 190 93 1300 190/03 RMK AO2 T02390228 $
63870K0J4 0J420160726215011007/26/16 21:50:31  5-MIN K0J4 270250Z AUTO 18003KT 10SM CLR 24/23 A3006 190 93 1300 180/03 RMK AO2 T02390228 $
63870K0J4 0J420160726215512607/26/16 21:55:31  5-MIN K0J4 270255Z AUTO 18003KT 10SM FEW030 24/23 A3006 190 93 1300 180/03 RMK AO2 SLP174 60000 T02390228 $
63870K0J4 0J420160726220011307/26/16 22:00:31  5-MIN K0J4 270300Z AUTO 18003KT 10SM SCT030 24/23 A3006 190 93 1300 180/03 RMK AO2 T02390228 $
63870K0J4 0J420160726220512007/26/16 22:05:31  5-MIN K0J4 270305Z AUTO 20004KT 10SM SCT025 SCT029 24/23 A3007 180 90 1400 200/04 RMK AO2 T02440228 $
63870K0J4 0J420160726221012707/26/16 22:10:31  5-MIN K0J4 270310Z AUTO 20004KT 10SM SCT025 SCT029 BKN036 24/23 A3007 180 93 1400 200/04 RMK AO2 T02440233 $
63870K0J4 0J420160726221512707/26/16 22:15:31  5-MIN K0J4 270315Z AUTO 00000KT 10SM FEW023 SCT029 BKN036 24/23 A3007 180 90 1400 000/00 RMK AO2 T02440228 $
63870K0J4 0J420160726222012707/26/16 22:20:31  5-MIN K0J4 270320Z AUTO 00000KT 10SM FEW023 SCT029 BKN055 24/23 A3007 180 90 1400 000/00 RMK AO2 T02440228 $
63870K0J4 0J420160726222512707/26/16 22:25:31  5-MIN K0J4 270325Z AUTO 00000KT 10SM FEW024 SCT037 SCT055 24/23 A3007 180 90 1400 000/00 RMK AO2 T02440228 $
63870K0J4 0J420160726223012007/26/16 22:30:31  5-MIN K0J4 270330Z AUTO 18003KT 10SM FEW024 BKN037 24/23 A3007 180 93 1300 180/03 RMK AO2 T02390228 $
63870K0J4 0J420160726223511307/26/16 22:35:31  5-MIN K0J4 270335Z AUTO 18003KT 10SM BKN037 24/23 A3007 180 93 1300 180/03 RMK AO2 T02390228 $
63870K0J4 0J420160726224011307/26/16 22:40:31  5-MIN K0J4 270340Z AUTO 20003KT 10SM BKN039 24/23 A3007 180 90 1400 200/03 RMK AO2 T02440228 $
63870K0J4 0J420160726224511307/26/16 22:45:31  5-MIN K0J4 270345Z AUTO 20005KT 10SM BKN042 24/23 A3008 170 90 1300 200/05 RMK AO2 T02440228 $
63870K0J4 0J420160726225012007/26/16 22:50:31  5-MIN K0J4 270350Z AUTO 20004KT 10SM BKN043 OVC060 24/23 A3008 170 90 1300 200/04 RMK AO2 T02440228 $
63870K0J4 0J420160726225513407/26/16 22:55:31  5-MIN K0J4 270355Z AUTO 00000KT 10SM SCT041 BKN049 OVC060 24/23 A3007 170 90 1300 000/00 RMK AO2 SLP179 T02440228 $
63870K0J4 0J420160726230012007/26/16 23:00:31  5-MIN K0J4 270400Z AUTO 18003KT 10SM SCT043 OVC060 24/23 A3007 180 90 1400 180/03 RMK AO2 T02440228 $
63870K0J4 0J420160726230512007/26/16 23:05:31  5-MIN K0J4 270405Z AUTO 17003KT 10SM SCT045 BKN060 24/23 A3007 180 90 1400 170/03 RMK AO2 T02440228 $
63870K0J4 0J420160726231012007/26/16 23:10:31  5-MIN K0J4 270410Z AUTO 18004KT 10SM FEW047 BKN060 24/23 A3007 180 93 1300 180/04 RMK AO2 T02390228 $
63870K0J4 0J420160726231512007/26/16 23:15:31  5-MIN K0J4 270415Z AUTO 17003KT 10SM FEW049 SCT060 24/23 A3008 170 93 1300 170/03 RMK AO2 T02390228 $
63870K0J4 0J420160726232011307/26/16 23:20:31  5-MIN K0J4 270420Z AUTO 16004KT 10SM SCT060 24/23 A3008 170 93 1300 160/04 RMK AO2 T02390228 $
63870K0J4 0J420160726232511307/26/16 23:25:31  5-MIN K0J4 270425Z AUTO 16003KT 10SM FEW060 24/23 A3008 170 93 1300 160/03 RMK AO2 T02390228 $
63870K0J4 0J420160726233011307/26/16 23:30:31  5-MIN K0J4 270430Z AUTO 17005KT 10SM FEW075 24/23 A3008 170 93 1300 170/05 RMK AO2 T02390228 $
63870K0J4 0J420160726233511307/26/16 23:35:31  5-MIN K0J4 270435Z AUTO 18004KT 10SM FEW075 24/23 A3008 160 93 1300 180/04 RMK AO2 T02390228 $
63870K0J4 0J420160726234011007/26/16 23:40:31  5-MIN K0J4 270440Z AUTO 18004KT 10SM CLR 24/23 A3009 160 93 1300 180/04 RMK AO2 T02390228 $
63870K0J4 0J420160726234511007/26/16 23:45:31  5-MIN K0J4 270445Z AUTO 19003KT 10SM CLR 24/23 A3009 160 93 1300 190/03 RMK AO2 T02390228 $
63870K0J4 0J420160726235011007/26/16 23:50:31  5-MIN K0J4 270450Z AUTO 19005KT 10SM CLR 24/23 A3009 160 93 1300 190/05 RMK AO2 T02390228 $
63870K0J4 0J420160726235512707/26/16 23:55:31  5-MIN K0J4 270455Z AUTO 18004KT 10SM CLR 24/23 A3009 160 93 1300 180/04 RMK AO2 SLP183 T02390228 403000228 $
63870K0J4 0J420160727000011007/27/16 00:00:31  5-MIN K0J4 270500Z AUTO 18005KT 10SM CLR 24/23 A3008 170 93 1300 180/05 RMK AO2 T02390228 $
63870K0J4 0J420160727000511007/27/16 00:05:31  5-MIN K0J4 270505Z AUTO 18004KT 10SM CLR 24/23 A3008 170 93 1300 180/04 RMK AO2 T02390228 $
63870K0J4 0J420160727001011007/27/16 00:10:31  5-MIN K0J4 270510Z AUTO 18003KT 10SM CLR 24/22 A3008 170 90 1300 180/03 RMK AO2 T02390222 $
63870K0J4 0J420160727001511007/27/16 00:15:31  5-MIN K0J4 270515Z AUTO 00000KT 10SM CLR 24/22 A3008 170 90 1300 000/00 RMK AO2 T02390222 $
63870K0J4 0J420160727002011007/27/16 00:20:31  5-MIN K0J4 270520Z AUTO 00000KT 10SM CLR 24/22 A3008 170 90 1300 000/00 RMK AO2 T02390222 $
63870K0J4 0J420160727002511007/27/16 00:25:31  5-MIN K0J4 270525Z AUTO 17003KT 10SM CLR 23/22 A3008 170 93 1200 170/03 RMK AO2 T02330222 $
63870K0J4 0J420160727003011007/27/16 00:30:31  5-MIN K0J4 270530Z AUTO 17003KT 10SM CLR 23/22 A3008 170 93 1200 170/03 RMK AO2 T02330222 $
63870K0J4 0J420160727003511307/27/16 00:35:31  5-MIN K0J4 270535Z AUTO 17003KT 10SM FEW020 23/22 A3008 170 93 1200 170/03 RMK AO2 T02330222 $
63870K0J4 0J420160727004011307/27/16 00:40:31  5-MIN K0J4 270540Z AUTO 17004KT 10SM FEW020 23/22 A3008 170 93 1200 170/04 RMK AO2 T02330222 $
63870K0J4 0J420160727004511007/27/16 00:45:31  5-MIN K0J4 270545Z AUTO 16003KT 10SM CLR 23/22 A3007 170 93 1200 160/03 RMK AO2 T02330222 $
63870K0J4 0J420160727005011007/27/16 00:50:31  5-MIN K0J4 270550Z AUTO 17003KT 10SM CLR 23/22 A3007 180 93 1200 170/03 RMK AO2 T02330222 $
63870K0J4 0J420160727005514107/27/16 00:55:31  5-MIN K0J4 270555Z AUTO 18004KT 10SM CLR 23/22 A3007 180 93 1200 180/04 RMK AO2 SLP177 60000 T02330222 10256 20233 53011 $
63870K0J4 0J420160727010011007/27/16 01:00:31  5-MIN K0J4 270600Z AUTO 18004KT 10SM CLR 23/22 A3006 180 93 1200 180/04 RMK AO2 T02330222 $
63870K0J4 0J420160727010511007/27/16 01:05:31  5-MIN K0J4 270605Z AUTO 18004KT 10SM CLR 23/22 A3006 180 93 1200 180/04 RMK AO2 T02330222 $
63870K0J4 0J420160727011011007/27/16 01:10:31  5-MIN K0J4 270610Z AUTO 00000KT 10SM CLR 23/22 A3006 190 93 1200 000/00 RMK AO2 T02330222 $
63870K0J4 0J420160727011511007/27/16 01:15:31  5-MIN K0J4 270615Z AUTO 18003KT 10SM CLR 23/22 A3006 190 93 1200 180/03 RMK AO2 T02330222 $
63870K0J4 0J420160727012011007/27/16 01:20:31  5-MIN K0J4 270620Z AUTO 17003KT 10SM CLR 23/22 A3006 190 93 1200 170/03 RMK AO2 T02330222 $
63870K0J4 0J420160727012511007/27/16 01:25:31  5-MIN K0J4 270625Z AUTO 17003KT 10SM CLR 23/22 A3006 190 93 1200 170/03 RMK AO2 T02330222 $
63870K0J4 0J420160727013011007/27/16 01:30:31  5-MIN K0J4 270630Z AUTO 18003KT 10SM CLR 23/22 A3006 190 93 1200 180/03 RMK AO2 T02330222 $
63870K0J4 0J420160727013511007/27/16 01:35:31  5-MIN K0J4 270635Z AUTO 00000KT 10SM CLR 23/22 A3006 190 93 1200 000/00 RMK AO2 T02330222 $
63870K0J4 0J420160727014011007/27/16 01:40:31  5-MIN K0J4 270640Z AUTO 18003KT 10SM CLR 23/22 A3006 190 93 1200 180/03 RMK AO2 T02330222 $
63870K0J4 0J420160727014511007/27/16 01:45:31  5-MIN K0J4 270645Z AUTO 00000KT 10SM CLR 23/22 A3005 190 93 1200 000/00 RMK AO2 T02330222 $
63870K0J4 0J420160727015011007/27/16 01:50:31  5-MIN K0J4 270650Z AUTO 00000KT 10SM CLR 23/22 A3005 190 93 1200 000/00 RMK AO2 T02330222 $
63870K0J4 0J420160727015511707/27/16 01:55:31  5-MIN K0J4 270655Z AUTO 00000KT 10SM CLR 23/22 A3005 200 93 1200 000/00 RMK AO2 SLP171 T02330222 $
63870K0J4 0J420160727020011007/27/16 02:00:31  5-MIN K0J4 270700Z AUTO 18003KT 10SM CLR 23/22 A3005 200 93 1300 180/03 RMK AO2 T02330222 $
63870K0J4 0J420160727020511007/27/16 02:05:31  5-MIN K0J4 270705Z AUTO 00000KT 10SM CLR 23/22 A3005 200 93 1300 000/00 RMK AO2 T02330222 $
63870K0J4 0J420160727021011007/27/16 02:10:31  5-MIN K0J4 270710Z AUTO 00000KT 10SM CLR 23/22 A3004 200 93 1300 000/00 RMK AO2 T02330222 $
63870K0J4 0J420160727021511007/27/16 02:15:31  5-MIN K0J4 270715Z AUTO 00000KT 10SM CLR 23/22 A3004 200 93 1300 000/00 RMK AO2 T02330222 $
63870K0J4 0J420160727022011007/27/16 02:20:31  5-MIN K0J4 270720Z AUTO 00000KT 10SM CLR 23/22 A3004 200 93 1300 000/00 RMK AO2 T02330222 $
63870K0J4 0J420160727022511007/27/16 02:25:31  5-MIN K0J4 270725Z AUTO 00000KT 10SM CLR 23/22 A3004 210 93 1300 000/00 RMK AO2 T02330222 $
63870K0J4 0J420160727023011007/27/16 02:30:31  5-MIN K0J4 270730Z AUTO 00000KT 10SM CLR 23/22 A3004 210 93 1300 000/00 RMK AO2 T02330222 $
63870K0J4 0J420160727023511007/27/16 02:35:31  5-MIN K0J4 270735Z AUTO 00000KT 10SM CLR 23/22 A3004 210 93 1300 000/00 RMK AO2 T02330222 $
63870K0J4 0J420160727024011007/27/16 02:40:31  5-MIN K0J4 270740Z AUTO 00000KT 10SM CLR 23/22 A3004 210 93 1300 000/00 RMK AO2 T02330222 $
63870K0J4 0J420160727024511007/27/16 02:45:31  5-MIN K0J4 270745Z AUTO 00000KT 10SM CLR 23/22 A3004 210 93 1300 000/00 RMK AO2 T02330222 $
63870K0J4 0J420160727025011007/27/16 02:50:31  5-MIN K0J4 270750Z AUTO 00000KT 10SM CLR 23/22 A3004 210 93 1300 000/00 RMK AO2 T02330222 $
63870K0J4 0J420160727025511707/27/16 02:55:31  5-MIN K0J4 270755Z AUTO 00000KT 10SM CLR 23/22 A3004 210 93 1300 000/00 RMK AO2 SLP167 T02330222 $
63870K0J4 0J420160727030011007/27/16 03:00:31  5-MIN K0J4 270800Z AUTO 00000KT 10SM CLR 23/22 A3004 210 93 1300 000/00 RMK AO2 T02330222 $
63870K0J4 0J420160727030511007/27/16 03:05:31  5-MIN K0J4 270805Z AUTO 00000KT 10SM CLR 23/22 A3004 210 97 1200 000/00 RMK AO2 T02280222 $
63870K0J4 0J420160727031011007/27/16 03:10:31  5-MIN K0J4 270810Z AUTO 00000KT 10SM CLR 23/22 A3004 210 97 1200 000/00 RMK AO2 T02280222 $
63870K0J4 0J420160727031511007/27/16 03:15:31  5-MIN K0J4 270815Z AUTO 00000KT 10SM CLR 23/22 A3004 210 97 1200 000/00 RMK AO2 T02280222 $
63870K0J4 0J420160727032011007/27/16 03:20:31  5-MIN K0J4 270820Z AUTO 00000KT 10SM CLR 23/22 A3003 210 97 1200 000/00 RMK AO2 T02280222 $
63870K0J4 0J420160727032511007/27/16 03:25:31  5-MIN K0J4 270825Z AUTO 00000KT 10SM CLR 23/22 A3004 210 97 1200 000/00 RMK AO2 T02280222 $
63870K0J4 0J420160727033011007/27/16 03:30:31  5-MIN K0J4 270830Z AUTO 00000KT 10SM CLR 23/22 A3004 210 97 1200 000/00 RMK AO2 T02280222 $
63870K0J4 0J420160727033511007/27/16 03:35:31  5-MIN K0J4 270835Z AUTO 00000KT 10SM CLR 23/22 A3004 210 97 1200 000/00 RMK AO2 T02280222 $
63870K0J4 0J420160727034011007/27/16 03:40:31  5-MIN K0J4 270840Z AUTO 00000KT 10SM CLR 23/22 A3003 210 97 1200 000/00 RMK AO2 T02280222 $
63870K0J4 0J420160727034511007/27/16 03:45:31  5-MIN K0J4 270845Z AUTO 00000KT 10SM CLR 23/22 A3003 210 93 1200 000/00 RMK AO2 T02280217 $
63870K0J4 0J420160727035011007/27/16 03:50:31  5-MIN K0J4 270850Z AUTO 00000KT 10SM CLR 23/22 A3003 210 97 1200 000/00 RMK AO2 T02280222 $
63870K0J4 0J420160727035512307/27/16 03:55:31  5-MIN K0J4 270855Z AUTO 00000KT 10SM CLR 23/22 A3003 210 97 1200 000/00 RMK AO2 SLP165 T02280222 50001 $
63870K0J4 0J420160727040011007/27/16 04:00:31  5-MIN K0J4 270900Z AUTO 00000KT 10SM CLR 23/22 A3003 220 97 1200 000/00 RMK AO2 T02280222 $
63870K0J4 0J420160727040511007/27/16 04:05:31  5-MIN K0J4 270905Z AUTO 00000KT 10SM CLR 23/22 A3003 220 93 1200 000/00 RMK AO2 T02280217 $
63870K0J4 0J420160727041011007/27/16 04:10:31  5-MIN K0J4 270910Z AUTO 00000KT 10SM CLR 23/22 A3003 220 93 1200 000/00 RMK AO2 T02280217 $
63870K0J4 0J420160727041511007/27/16 04:15:31  5-MIN K0J4 270915Z AUTO 00000KT 10SM CLR 23/22 A3003 220 93 1200 000/00 RMK AO2 T02280217 $
63870K0J4 0J420160727042011007/27/16 04:20:31  5-MIN K0J4 270920Z AUTO 00000KT 10SM CLR 23/22 A3003 210 93 1200 000/00 RMK AO2 T02280217 $
63870K0J4 0J420160727042511007/27/16 04:25:31  5-MIN K0J4 270925Z AUTO 00000KT 10SM CLR 23/22 A3003 210 93 1200 000/00 RMK AO2 T02280217 $
63870K0J4 0J420160727043011007/27/16 04:30:31  5-MIN K0J4 270930Z AUTO 00000KT 10SM CLR 23/22 A3004 210 93 1200 000/00 RMK AO2 T02280217 $
63870K0J4 0J420160727043511007/27/16 04:35:31  5-MIN K0J4 270935Z AUTO 00000KT 10SM CLR 23/22 A3004 210 93 1200 000/00 RMK AO2 T02280217 $
63870K0J4 0J420160727044011007/27/16 04:40:31  5-MIN K0J4 270940Z AUTO 00000KT 10SM CLR 23/22 A3004 210 93 1200 000/00 RMK AO2 T02280217 $
63870K0J4 0J420160727044511007/27/16 04:45:31  5-MIN K0J4 270945Z AUTO 00000KT 10SM CLR 23/22 A3004 210 93 1200 000/00 RMK AO2 T02280217 $
63870K0J4 0J420160727045011007/27/16 04:50:31  5-MIN K0J4 270950Z AUTO 00000KT 10SM CLR 23/22 A3004 200 93 1200 000/00 RMK AO2 T02280217 $
63870K0J4 0J420160727045511707/27/16 04:55:31  5-MIN K0J4 270955Z AUTO 00000KT 10SM CLR 23/22 A3004 200 93 1200 000/00 RMK AO2 SLP169 T02280217 $
63870K0J4 0J420160727050011007/27/16 05:00:31  5-MIN K0J4 271000Z AUTO 00000KT 10SM CLR 23/22 A3005 200 93 1200 000/00 RMK AO2 T02280217 $
63870K0J4 0J420160727050511007/27/16 05:05:31  5-MIN K0J4 271005Z AUTO 00000KT 10SM CLR 23/22 A3005 200 93 1200 000/00 RMK AO2 T02280217 $
63870K0J4 0J420160727051011007/27/16 05:10:31  5-MIN K0J4 271010Z AUTO 00000KT 10SM CLR 23/22 A3005 200 93 1200 000/00 RMK AO2 T02280217 $
63870K0J4 0J420160727051511007/27/16 05:15:31  5-MIN K0J4 271015Z AUTO 00000KT 10SM CLR 23/22 A3005 200 93 1200 000/00 RMK AO2 T02280217 $
63870K0J4 0J420160727052011007/27/16 05:20:31  5-MIN K0J4 271020Z AUTO 00000KT 10SM CLR 23/22 A3005 200 93 1200 000/00 RMK AO2 T02280217 $
63870K0J4 0J420160727052511007/27/16 05:25:31  5-MIN K0J4 271025Z AUTO 00000KT 10SM CLR 23/22 A3005 200 93 1200 000/00 RMK AO2 T02280217 $
63870K0J4 0J420160727053011007/27/16 05:30:31  5-MIN K0J4 271030Z AUTO 00000KT 10SM CLR 23/22 A3005 190 93 1200 000/00 RMK AO2 T02280217 $
63870K0J4 0J420160727053511007/27/16 05:35:31  5-MIN K0J4 271035Z AUTO 00000KT 10SM CLR 23/22 A3006 190 93 1200 000/00 RMK AO2 T02280217 $
63870K0J4 0J420160727054011007/27/16 05:40:31  5-MIN K0J4 271040Z AUTO 00000KT 10SM CLR 23/22 A3006 190 93 1200 000/00 RMK AO2 T02280217 $
63870K0J4 0J420160727054511007/27/16 05:45:31  5-MIN K0J4 271045Z AUTO 00000KT 10SM CLR 23/22 A3005 190 93 1200 000/00 RMK AO2 T02280217 $
63870K0J4 0J420160727055011007/27/16 05:50:31  5-MIN K0J4 271050Z AUTO 00000KT 10SM CLR 23/22 A3006 190 93 1200 000/00 RMK AO2 T02280217 $
63870K0J4 0J420160727055511707/27/16 05:55:31  5-MIN K0J4 271055Z AUTO 00000KT 10SM CLR 23/22 A3006 190 93 1200 000/00 RMK AO2 SLP174 T02280217 $
63870K0J4 0J420160727060011007/27/16 06:00:31  5-MIN K0J4 271100Z AUTO 00000KT 10SM CLR 23/22 A3006 190 93 1200 000/00 RMK AO2 T02280217 $
63870K0J4 0J420160727060511007/27/16 06:05:31  5-MIN K0J4 271105Z AUTO 00000KT 10SM CLR 23/22 A3006 190 93 1200 000/00 RMK AO2 T02280217 $
63870K0J4 0J420160727061011007/27/16 06:10:31  5-MIN K0J4 271110Z AUTO 00000KT 10SM CLR 23/22 A3006 190 93 1200 000/00 RMK AO2 T02280217 $
63870K0J4 0J420160727061511007/27/16 06:15:31  5-MIN K0J4 271115Z AUTO 00000KT 10SM CLR 23/22 A3006 190 93 1200 000/00 RMK AO2 T02280217 $
63870K0J4 0J420160727062011007/27/16 06:20:31  5-MIN K0J4 271120Z AUTO 00000KT 10SM CLR 23/22 A3006 190 93 1200 000/00 RMK AO2 T02280217 $
63870K0J4 0J420160727062511007/27/16 06:25:31  5-MIN K0J4 271125Z AUTO 00000KT 10SM CLR 23/22 A3006 180 93 1200 000/00 RMK AO2 T02280217 $
63870K0J4 0J420160727063011007/27/16 06:30:31  5-MIN K0J4 271130Z AUTO 00000KT 10SM CLR 23/22 A3007 180 93 1200 000/00 RMK AO2 T02280217 $
63870K0J4 0J420160727063511007/27/16 06:35:31  5-MIN K0J4 271135Z AUTO 00000KT 10SM CLR 23/22 A3007 180 93 1200 000/00 RMK AO2 T02280217 $
63870K0J4 0J420160727064011007/27/16 06:40:31  5-MIN K0J4 271140Z AUTO 00000KT 10SM CLR 23/22 A3007 180 97 1200 000/00 RMK AO2 T02280222 $
63870K0J4 0J420160727064511007/27/16 06:45:31  5-MIN K0J4 271145Z AUTO 16003KT 10SM CLR 23/22 A3007 180 97 1200 160/03 RMK AO2 T02280222 $
63870K0J4 0J420160727065011007/27/16 06:50:31  5-MIN K0J4 271150Z AUTO 00000KT 10SM CLR 23/22 A3007 180 97 1200 000/00 RMK AO2 T02280222 $
63870K0J4 0J420160727065513507/27/16 06:55:31  5-MIN K0J4 271155Z AUTO 00000KT 10SM CLR 23/22 A3007 180 93 1200 000/00 RMK AO2 SLP179 T02330222 10233 20228 56012 $
63870K0J4 0J420160727070011007/27/16 07:00:31  5-MIN K0J4 271200Z AUTO 00000KT 10SM CLR 23/22 A3007 170 93 1200 000/00 RMK AO2 T02330222 $
63870K0J4 0J420160727070511007/27/16 07:05:31  5-MIN K0J4 271205Z AUTO 00000KT 10SM CLR 23/22 A3007 170 93 1200 000/00 RMK AO2 T02330222 $
63870K0J4 0J420160727071011007/27/16 07:10:31  5-MIN K0J4 271210Z AUTO 00000KT 10SM CLR 24/23 A3008 170 93 1300 000/00 RMK AO2 T02390228 $
63870K0J4 0J420160727071511007/27/16 07:15:31  5-MIN K0J4 271215Z AUTO 00000KT 10SM CLR 24/23 A3007 170 93 1300 000/00 RMK AO2 T02390228 $
63870K0J4 0J420160727072011007/27/16 07:20:31  5-MIN K0J4 271220Z AUTO 00000KT 10SM CLR 24/23 A3008 170 90 1300 000/00 RMK AO2 T02440228 $
63870K0J4 0J420160727072511007/27/16 07:25:31  5-MIN K0J4 271225Z AUTO 00000KT 10SM CLR 24/23 A3008 170 90 1300 000/00 RMK AO2 T02440228 $
63870K0J4 0J420160727073011007/27/16 07:30:31  5-MIN K0J4 271230Z AUTO 18003KT 10SM CLR 25/23 A3008 170 90 1400 180/03 RMK AO2 T02500233 $
63870K0J4 0J420160727073511007/27/16 07:35:31  5-MIN K0J4 271235Z AUTO 18003KT 10SM CLR 25/23 A3008 170 90 1400 180/03 RMK AO2 T02500233 $
63870K0J4 0J420160727074011007/27/16 07:40:31  5-MIN K0J4 271240Z AUTO 18003KT 10SM CLR 26/23 A3008 170 87 1500 180/03 RMK AO2 T02560233 $
63870K0J4 0J420160727074511007/27/16 07:45:31  5-MIN K0J4 271245Z AUTO 18003KT 10SM CLR 26/23 A3008 170 87 1500 180/03 RMK AO2 T02560233 $
63870K0J4 0J420160727075011007/27/16 07:50:31  5-MIN K0J4 271250Z AUTO 20004KT 10SM CLR 26/23 A3008 170 84 1500 200/04 RMK AO2 T02610233 $
63870K0J4 0J420160727075511707/27/16 07:55:31  5-MIN K0J4 271255Z AUTO 20004KT 10SM CLR 26/23 A3008 160 84 1500 200/04 RMK AO2 SLP183 T02610233 $
63870K0J4 0J420160727080011007/27/16 08:00:31  5-MIN K0J4 271300Z AUTO 20004KT 10SM CLR 27/23 A3009 160 82 1600 200/04 RMK AO2 T02670233 $
63870K0J4 0J420160727080511007/27/16 08:05:31  5-MIN K0J4 271305Z AUTO 20005KT 10SM CLR 27/23 A3009 160 82 1600 200/05 RMK AO2 T02670233 $
63870K0J4 0J420160727081011007/27/16 08:10:31  5-MIN K0J4 271310Z AUTO 19004KT 10SM CLR 27/23 A3009 160 79 1600 190/04 RMK AO2 T02720233 $
63870K0J4 0J420160727081511007/27/16 08:15:31  5-MIN K0J4 271315Z AUTO 22004KT 10SM CLR 27/23 A3009 160 79 1600 220/04 RMK AO2 T02720233 $
63870K0J4 0J420160727082011007/27/16 08:20:31  5-MIN K0J4 271320Z AUTO 20006KT 10SM CLR 27/23 A3009 160 79 1600 200/06 RMK AO2 T02720233 $
63870K0J4 0J420160727082511007/27/16 08:25:31  5-MIN K0J4 271325Z AUTO 21007KT 10SM CLR 28/23 A3009 160 76 1700 210/07 RMK AO2 T02780233 $
63870K0J4 0J420160727083007507/27/16 08:30:31  5-MIN K0J4 271330Z AUTO 21006KT 10SM CLR 28/23 A3009 160
63870K0J4 0J420160727142514207/27/16 14:25:31  5-MIN K0J4 271925Z AUTO VRB05KT 10SM FEW044 SCT060 BKN075 31/23 A3007 180 63 2100 VRB/05 RMK AO2 RAB1859E14 P0000 T03110233
63870K0J4 0J420160727143014207/27/16 14:30:31  5-MIN K0J4 271930Z AUTO 20011KT 10SM FEW043 SCT060 BKN075 32/23 A3007 180 59 2200 200/11 RMK AO2 RAB1859E14 P0000 T03220233
63870K0J4 0J420160727143514207/27/16 14:35:31  5-MIN K0J4 271935Z AUTO 21011KT 10SM FEW046 FEW060 SCT075 32/22 A3006 190 55 2200 210/11 RMK AO2 RAB1859E14 P0000 T03220222
63870K0J4 0J420160727144014207/27/16 14:40:31  5-MIN K0J4 271940Z AUTO 23010KT 10SM SCT049 SCT060 BKN075 31/22 A3006 190 58 2100 230/10 RMK AO2 RAB1859E14 P0000 T03110222
63870K0J4 0J420160727144514207/27/16 14:45:31  5-MIN K0J4 271945Z AUTO 22012KT 10SM FEW049 SCT060 BKN080 32/22 A3006 190 56 2200 220/12 RMK AO2 RAB1859E14 P0000 T03170222
63870K0J4 0J420160727145014207/27/16 14:50:31  5-MIN K0J4 271950Z AUTO 21013KT 10SM FEW049 SCT060 BKN080 32/22 A3005 190 53 2200 210/13 RMK AO2 RAB1859E14 P0000 T03220217
63870K0J4 0J420160727145514907/27/16 14:55:31  5-MIN K0J4 271955Z AUTO 20008KT 10SM FEW049 FEW060 SCT080 32/22 A3005 190 53 2200 200/08 RMK AO2 RAB1859E14 SLP172 P0000 T03220217
63870K0J4 0J420160727150014107/27/16 15:00:31  5-MIN K0J4 272000Z AUTO 21011KT 190V250 10SM FEW049 FEW065 SCT080 32/22 A3005 200 55 2200 210/11 190V250 RMK AO2 T03220222
63870K0J4 0J420160727150511807/27/16 15:05:31  5-MIN K0J4 272005Z AUTO 21009KT 10SM FEW049 SCT080 32/22 A3005 200 53 2300 210/09 RMK AO2 T03220217
63870K0J4 0J420160727151011807/27/16 15:10:31  5-MIN K0J4 272010Z AUTO 19011KT 10SM FEW045 FEW080 32/22 A3004 200 55 2300 190/11 RMK AO2 T03220222
63870K0J4 0J420160727151511107/27/16 15:15:31  5-MIN K0J4 272015Z AUTO 19009KT 10SM FEW045 31/22 A3004 200 56 2100 190/09 RMK AO2 T03110217
63870K0J4 0J420160727152011107/27/16 15:20:31  5-MIN K0J4 272020Z AUTO 20008KT 10SM SCT045 32/22 A3004 210 56 2200 200/08 RMK AO2 T03170222
63870K0J4 0J420160727152511807/27/16 15:25:31  5-MIN K0J4 272025Z AUTO 19012KT 10SM SCT043 SCT050 32/22 A3004 210 56 2200 190/12 RMK AO2 T03170222
63870K0J4 0J420160727153011807/27/16 15:30:31  5-MIN K0J4 272030Z AUTO 21010KT 10SM SCT045 BKN075 32/23 A3004 210 58 2200 210/10 RMK AO2 T03170228
63870K0J4 0J420160727153512407/27/16 15:35:31  5-MIN K0J4 272035Z AUTO 23009G16KT 10SM SCT045 SCT070 31/22 A3004 200 56 2100 230/09G16 RMK AO2 T03110217
63870K0J4 0J420160727154012407/27/16 15:40:31  5-MIN K0J4 272040Z AUTO 23006G16KT 10SM FEW045 BKN070 31/22 A3004 200 60 2100 230/06G16 RMK AO2 T03060222
63870K0J4 0J420160727154514107/27/16 15:45:31  5-MIN K0J4 272045Z AUTO 21008KT 190V250 10SM FEW045 SCT060 BKN075 31/22 A3004 210 58 2100 210/08 190V250 RMK AO2 T03110222
63870K0J4 0J420160727155013107/27/16 15:50:31  5-MIN K0J4 272050Z AUTO 22012G17KT 10SM FEW043 SCT060 BKN080 32/22 A3004 210 55 2300 220/12G17 RMK AO2 T03220222
63870K0J4 0J420160727155515007/27/16 15:55:31  5-MIN K0J4 272055Z AUTO 22012G18KT 10SM FEW060 SCT075 BKN090 32/22 A3004 210 55 2300 220/12G18 RMK AO2 SLP167 60001 T03220222 58004
63870K0J4 0J420160727160013107/27/16 16:00:31  5-MIN K0J4 272100Z AUTO 23009G18KT 10SM FEW060 SCT080 SCT090 32/22 A3004 210 53 2300 230/09G18 RMK AO2 T03220217
63870K0J4 0J420160727160513107/27/16 16:05:31  5-MIN K0J4 272105Z AUTO 20012G18KT 10SM FEW040 SCT075 SCT090 32/22 A3004 210 55 2300 200/12G18 RMK AO2 T03220222
63870K0J4 0J420160727161013107/27/16 16:10:31  5-MIN K0J4 272110Z AUTO 22008G18KT 10SM FEW040 FEW055 SCT090 32/22 A3003 210 53 2300 220/08G18 RMK AO2 T03220217
63870K0J4 0J420160727161511107/27/16 16:15:31  5-MIN K0J4 272115Z AUTO 22007KT 10SM FEW090 32/22 A3003 210 55 2200 220/07 RMK AO2 T03170217
63870K0J4 0J420160727162010807/27/16 16:20:31  5-MIN K0J4 272120Z AUTO 20013KT 10SM CLR 32/22 A3003 210 55 2300 200/13 RMK AO2 T03220222
63870K0J4 0J420160727162511107/27/16 16:25:31  5-MIN K0J4 272125Z AUTO 21011KT 10SM FEW041 32/22 A3003 210 56 2200 210/11 RMK AO2 T03170222
63870K0J4 0J420160727163011107/27/16 16:30:31  5-MIN K0J4 272130Z AUTO 21012KT 10SM FEW041 32/22 A3003 210 55 2300 210/12 RMK AO2 T03220222
63870K0J4 0J420160727163511107/27/16 16:35:31  5-MIN K0J4 272135Z AUTO 22011KT 10SM FEW043 32/22 A3003 210 55 2300 220/11 RMK AO2 T03220222
63870K0J4 0J420160727164011107/27/16 16:40:31  5-MIN K0J4 272140Z AUTO 22008KT 10SM FEW043 32/22 A3003 210 55 2200 220/08 RMK AO2 T03170217
63870K0J4 0J420160727164511707/27/16 16:45:31  5-MIN K0J4 272145Z AUTO 21012G16KT 10SM FEW043 32/22 A3003 210 55 2200 210/12G16 RMK AO2 T03170217
63870K0J4 0J420160727165011707/27/16 16:50:31  5-MIN K0J4 272150Z AUTO 22010G16KT 10SM FEW043 32/22 A3003 210 56 2200 220/10G16 RMK AO2 T03170222
63870K0J4 0J420160727165511507/27/16 16:55:31  5-MIN K0J4 272155Z AUTO 21010KT 10SM CLR 32/22 A3003 210 56 2200 210/10 RMK AO2 SLP164 T03170222
63870K0J4 0J420160727170010807/27/16 17:00:31  5-MIN K0J4 272200Z AUTO 22012KT 10SM CLR 32/22 A3003 220 55 2200 220/12 RMK AO2 T03170217
63870K0J4 0J420160727170510807/27/16 17:05:31  5-MIN K0J4 272205Z AUTO 22009KT 10SM CLR 32/22 A3003 220 55 2200 220/09 RMK AO2 T03170217
63870K0J4 0J420160727171010807/27/16 17:10:31  5-MIN K0J4 272210Z AUTO 21011KT 10SM CLR 32/22 A3003 210 56 2200 210/11 RMK AO2 T03170222
63870K0J4 0J420160727171511107/27/16 17:15:31  5-MIN K0J4 272215Z AUTO 21011KT 10SM FEW042 32/22 A3003 220 56 2200 210/11 RMK AO2 T03170222
63870K0J4 0J420160727172011107/27/16 17:20:31  5-MIN K0J4 272220Z AUTO 21009KT 10SM FEW042 32/22 A3003 210 56 2200 210/09 RMK AO2 T03170222
63870K0J4 0J420160727172511107/27/16 17:25:31  5-MIN K0J4 272225Z AUTO 21012KT 10SM FEW041 32/22 A3003 210 55 2200 210/12 RMK AO2 T03170217
63870K0J4 0J420160727173011107/27/16 17:30:31  5-MIN K0J4 272230Z AUTO 21013KT 10SM FEW044 32/22 A3003 210 56 2200 210/13 RMK AO2 T03170222
63870K0J4 0J420160727173511107/27/16 17:35:31  5-MIN K0J4 272235Z AUTO 21012KT 10SM FEW044 32/22 A3003 210 55 2200 210/12 RMK AO2 T03170217
63870K0J4 0J420160727174011107/27/16 17:40:31  5-MIN K0J4 272240Z AUTO 21012KT 10SM FEW042 31/22 A3003 210 56 2100 210/12 RMK AO2 T03110217
63870K0J4 0J420160727174511107/27/16 17:45:31  5-MIN K0J4 272245Z AUTO 22010KT 10SM FEW042 31/22 A3003 210 56 2100 220/10 RMK AO2 T03110217
63870K0J4 0J420160727175011107/27/16 17:50:31  5-MIN K0J4 272250Z AUTO 22007KT 10SM FEW042 31/22 A3004 210 58 2100 220/07 RMK AO2 T03110222
63870K0J4 0J420160727175511807/27/16 17:55:31  5-MIN K0J4 272255Z AUTO 22009KT 10SM FEW043 31/22 A3004 210 58 2100 220/09 RMK AO2 SLP167 T03110222
63870K0J4 0J420160727180010807/27/16 18:00:31  5-MIN K0J4 272300Z AUTO 22008KT 10SM CLR 31/22 A3004 210 58 2100 220/08 RMK AO2 T03060217
63870K0J4 0J420160727180510807/27/16 18:05:31  5-MIN K0J4 272305Z AUTO 22006KT 10SM CLR 31/22 A3004 210 60 2100 220/06 RMK AO2 T03060222
63870K0J4 0J420160727181010807/27/16 18:10:31  5-MIN K0J4 272310Z AUTO 21011KT 10SM CLR 31/22 A3004 210 58 2100 210/11 RMK AO2 T03110222
63870K0J4 0J420160727181510807/27/16 18:15:31  5-MIN K0J4 272315Z AUTO 21011KT 10SM CLR 31/22 A3004 200 60 2100 210/11 RMK AO2 T03060222
63870K0J4 0J420160727182010807/27/16 18:20:31  5-MIN K0J4 272320Z AUTO 22012KT 10SM CLR 31/22 A3005 200 60 2100 220/12 RMK AO2 T03060222
63870K0J4 0J420160727182510807/27/16 18:25:31  5-MIN K0J4 272325Z AUTO 22007KT 10SM CLR 30/22 A3005 200 62 2000 220/07 RMK AO2 T03000222
63870K0J4 0J420160727183010807/27/16 18:30:31  5-MIN K0J4 272330Z AUTO 22007KT 10SM CLR 30/22 A3005 200 62 2000 220/07 RMK AO2 T03000222
63870K0J4 0J420160727183510807/27/16 18:35:31  5-MIN K0J4 272335Z AUTO 22007KT 10SM CLR 30/22 A3005 190 62 2000 220/07 RMK AO2 T03000222
63870K0J4 0J420160727184010807/27/16 18:40:31  5-MIN K0J4 272340Z AUTO 22010KT 10SM CLR 30/22 A3005 200 62 2000 220/10 RMK AO2 T03000222
63870K0J4 0J420160727184510807/27/16 18:45:31  5-MIN K0J4 272345Z AUTO 22006KT 10SM CLR 30/22 A3005 190 62 2000 220/06 RMK AO2 T03000222
63870K0J4 0J420160727185010807/27/16 18:50:31  5-MIN K0J4 272350Z AUTO 22006KT 10SM CLR 29/22 A3005 190 64 1900 220/06 RMK AO2 T02940222
63870K0J4 0J420160727185513907/27/16 18:55:31  5-MIN K0J4 272355Z AUTO 22009KT 10SM CLR 29/22 A3005 190 64 1900 220/09 RMK AO2 SLP173 60001 T02940222 10328 20278 58017
63870K0J4 0J420160727190010807/27/16 19:00:31  5-MIN K0J4 280000Z AUTO 22008KT 10SM CLR 29/22 A3005 190 64 1900 220/08 RMK AO2 T02940222
63870K0J4 0J420160727190510807/27/16 19:05:31  5-MIN K0J4 280005Z AUTO 22006KT 10SM CLR 29/22 A3006 190 64 1900 220/06 RMK AO2 T02940222
63870K0J4 0J420160727191010807/27/16 19:10:31  5-MIN K0J4 280010Z AUTO 22006KT 10SM CLR 29/22 A3006 190 67 1900 220/06 RMK AO2 T02890222
63870K0J4 0J420160727191510807/27/16 19:15:31  5-MIN K0J4 280015Z AUTO 22006KT 10SM CLR 29/22 A3006 190 67 1900 220/06 RMK AO2 T02890222
63870K0J4 0J420160727192010807/27/16 19:20:31  5-MIN K0J4 280020Z AUTO 21007KT 10SM CLR 29/22 A3006 190 67 1900 210/07 RMK AO2 T02890222
63870K0J4 0J420160727192510807/27/16 19:25:31  5-MIN K0J4 280025Z AUTO 22006KT 10SM CLR 28/22 A3006 190 69 1800 220/06 RMK AO2 T02830222
63870K0J4 0J420160727193010807/27/16 19:30:31  5-MIN K0J4 280030Z AUTO 23004KT 10SM CLR 28/22 A3006 190 69 1800 230/04 RMK AO2 T02830222
63870K0J4 0J420160727193510807/27/16 19:35:31  5-MIN K0J4 280035Z AUTO 22005KT 10SM CLR 28/22 A3006 190 69 1800 220/05 RMK AO2 T02830222
63870K0J4 0J420160727194010807/27/16 19:40:31  5-MIN K0J4 280040Z AUTO 22005KT 10SM CLR 28/22 A3005 190 69 1800 220/05 RMK AO2 T02830222
63870K0J4 0J420160727194510807/27/16 19:45:31  5-MIN K0J4 280045Z AUTO 22005KT 10SM CLR 28/22 A3005 190 69 1800 220/05 RMK AO2 T02830222
63870K0J4 0J420160727195010807/27/16 19:50:31  5-MIN K0J4 280050Z AUTO 22005KT 10SM CLR 28/22 A3005 190 71 1800 220/05 RMK AO2 T02780222
63870K0J4 0J420160727195511507/27/16 19:55:31  5-MIN K0J4 280055Z AUTO 22005KT 10SM CLR 27/23 A3005 190 76 1700 220/05 RMK AO2 SLP172 T02720228
63870K0J4 0J420160727200010807/27/16 20:00:31  5-MIN K0J4 280100Z AUTO 22005KT 10SM CLR 28/22 A3005 190 71 1700 220/05 RMK AO2 T02780222
63870K0J4 0J420160727200510807/27/16 20:05:31  5-MIN K0J4 280105Z AUTO 22005KT 10SM CLR 28/22 A3006 190 71 1700 220/05 RMK AO2 T02780222
63870K0J4 0J420160727201010807/27/16 20:10:31  5-MIN K0J4 280110Z AUTO 23004KT 10SM CLR 28/22 A3006 190 71 1700 230/04 RMK AO2 T02780222
63870K0J4 0J420160727201510807/27/16 20:15:31  5-MIN K0J4 280115Z AUTO 23005KT 10SM CLR 27/22 A3006 190 74 1700 230/05 RMK AO2 T02720222
63870K0J4 0J420160727202010807/27/16 20:20:31  5-MIN K0J4 280120Z AUTO 23005KT 10SM CLR 27/22 A3006 190 74 1700 230/05 RMK AO2 T02720222
63870K0J4 0J420160727202510807/27/16 20:25:31  5-MIN K0J4 280125Z AUTO 22006KT 10SM CLR 27/22 A3006 190 74 1700 220/06 RMK AO2 T02720222
63870K0J4 0J420160727203010807/27/16 20:30:31  5-MIN K0J4 280130Z AUTO 23005KT 10SM CLR 27/23 A3006 190 76 1700 230/05 RMK AO2 T02720228
63870K0J4 0J420160727203510807/27/16 20:35:31  5-MIN K0J4 280135Z AUTO 22005KT 10SM CLR 27/23 A3006 190 76 1700 220/05 RMK AO2 T02720228
63870K0J4 0J420160727204010807/27/16 20:40:31  5-MIN K0J4 280140Z AUTO 22004KT 10SM CLR 27/23 A3006 190 79 1600 220/04 RMK AO2 T02670228
63870K0J4 0J420160727204510807/27/16 20:45:31  5-MIN K0J4 280145Z AUTO 22005KT 10SM CLR 27/23 A3006 190 79 1600 220/05 RMK AO2 T02670228
63870K0J4 0J420160727205010807/27/16 20:50:31  5-MIN K0J4 280150Z AUTO 22004KT 10SM CLR 27/23 A3006 190 79 1600 220/04 RMK AO2 T02670228
63870K0J4 0J420160727205511507/27/16 20:55:31  5-MIN K0J4 280155Z AUTO 22004KT 10SM CLR 27/23 A3006 180 79 1600 220/04 RMK AO2 SLP175 T02670228
63870K0J4 0J420160727210010807/27/16 21:00:31  5-MIN K0J4 280200Z AUTO 21004KT 10SM CLR 27/23 A3006 190 79 1600 210/04 RMK AO2 T02670228
63870K0J4 0J420160727210510807/27/16 21:05:31  5-MIN K0J4 280205Z AUTO 22003KT 10SM CLR 26/23 A3006 180 81 1600 220/03 RMK AO2 T02610228
63870K0J4 0J420160727211010807/27/16 21:10:31  5-MIN K0J4 280210Z AUTO 00000KT 10SM CLR 26/23 A3007 180 81 1500 000/00 RMK AO2 T02610228
63870K0J4 0J420160727211510807/27/16 21:15:31  5-MIN K0J4 280215Z AUTO 00000KT 10SM CLR 26/23 A3007 180 81 1500 000/00 RMK AO2 T02610228
63870K0J4 0J420160727212010807/27/16 21:20:31  5-MIN K0J4 280220Z AUTO 22003KT 10SM CLR 26/23 A3007 180 81 1500 220/03 RMK AO2 T02610228
63870K0J4 0J420160727212510807/27/16 21:25:31  5-MIN K0J4 280225Z AUTO 22003KT 10SM CLR 26/23 A3007 180 81 1500 220/03 RMK AO2 T02610228
63870K0J4 0J420160727213010807/27/16 21:30:31  5-MIN K0J4 280230Z AUTO 00000KT 10SM CLR 26/23 A3007 180 81 1500 000/00 RMK AO2 T02610228
63870K0J4 0J420160727213510807/27/16 21:35:31  5-MIN K0J4 280235Z AUTO 00000KT 10SM CLR 26/23 A3007 180 84 1500 000/00 RMK AO2 T02560228
63870K0J4 0J420160727214010807/27/16 21:40:31  5-MIN K0J4 280240Z AUTO 00000KT 10SM CLR 26/23 A3007 170 84 1500 000/00 RMK AO2 T02560228
63870K0J4 0J420160727214510807/27/16 21:45:31  5-MIN K0J4 280245Z AUTO 00000KT 10SM CLR 26/23 A3008 170 84 1500 000/00 RMK AO2 T02560228
63870K0J4 0J420160727215010807/27/16 21:50:31  5-MIN K0J4 280250Z AUTO 00000KT 10SM CLR 26/23 A3007 170 84 1500 000/00 RMK AO2 T02560228
63870K0J4 0J420160727215512107/27/16 21:55:31  5-MIN K0J4 280255Z AUTO 00000KT 10SM CLR 26/23 A3007 180 84 1500 000/00 RMK AO2 SLP179 T02560228 53005
63870K0J4 0J420160727220010807/27/16 22:00:31  5-MIN K0J4 280300Z AUTO 00000KT 10SM CLR 26/23 A3008 170 84 1500 000/00 RMK AO2 T02560228
63870K0J4 0J420160727220510807/27/16 22:05:31  5-MIN K0J4 280305Z AUTO 00000KT 10SM CLR 25/23 A3007 170 87 1400 000/00 RMK AO2 T02500228
63870K0J4 0J420160727221010807/27/16 22:10:31  5-MIN K0J4 280310Z AUTO 00000KT 10SM CLR 25/23 A3007 180 87 1400 000/00 RMK AO2 T02500228
63870K0J4 0J420160727221510807/27/16 22:15:31  5-MIN K0J4 280315Z AUTO 00000KT 10SM CLR 25/23 A3007 180 87 1400 000/00 RMK AO2 T02500228
63870K0J4 0J420160727222010807/27/16 22:20:31  5-MIN K0J4 280320Z AUTO 00000KT 10SM CLR 25/23 A3007 180 87 1400 000/00 RMK AO2 T02500228
63870K0J4 0J420160727222510807/27/16 22:25:31  5-MIN K0J4 280325Z AUTO 00000KT 10SM CLR 25/23 A3007 180 87 1400 000/00 RMK AO2 T02500228
63870K0J4 0J420160727223010807/27/16 22:30:31  5-MIN K0J4 280330Z AUTO 00000KT 10SM CLR 24/23 A3007 180 90 1400 000/00 RMK AO2 T02440228
63870K0J4 0J420160727223510807/27/16 22:35:31  5-MIN K0J4 280335Z AUTO 00000KT 10SM CLR 24/23 A3007 180 90 1400 000/00 RMK AO2 T02440228
63870K0J4 0J420160727224010807/27/16 22:40:31  5-MIN K0J4 280340Z AUTO 00000KT 10SM CLR 24/23 A3007 180 90 1400 000/00 RMK AO2 T02440228
63870K0J4 0J420160727224510807/27/16 22:45:31  5-MIN K0J4 280345Z AUTO 00000KT 10SM CLR 24/23 A3007 180 90 1400 000/00 RMK AO2 T02440228
63870K0J4 0J420160727225010807/27/16 22:50:31  5-MIN K0J4 280350Z AUTO 00000KT 10SM CLR 24/22 A3007 180 90 1300 000/00 RMK AO2 T02390222
63870K0J4 0J420160727225511507/27/16 22:55:31  5-MIN K0J4 280355Z AUTO 00000KT 10SM CLR 24/22 A3007 180 90 1300 000/00 RMK AO2 SLP178 T02390222
63870K0J4 0J420160727230010807/27/16 23:00:31  5-MIN K0J4 280400Z AUTO 00000KT 10SM CLR 24/22 A3007 180 90 1300 000/00 RMK AO2 T02390222
63870K0J4 0J420160727230510807/27/16 23:05:31  5-MIN K0J4 280405Z AUTO 00000KT 10SM CLR 24/22 A3007 180 90 1300 000/00 RMK AO2 T02390222
63870K0J4 0J420160727231010807/27/16 23:10:31  5-MIN K0J4 280410Z AUTO 00000KT 10SM CLR 24/22 A3007 180 90 1300 000/00 RMK AO2 T02390222
63870K0J4 0J420160727231510807/27/16 23:15:31  5-MIN K0J4 280415Z AUTO 00000KT 10SM CLR 24/22 A3007 180 90 1300 000/00 RMK AO2 T02390222
63870K0J4 0J420160727232010807/27/16 23:20:31  5-MIN K0J4 280420Z AUTO 00000KT 10SM CLR 24/22 A3007 180 90 1300 000/00 RMK AO2 T02390222
63870K0J4 0J420160727232510807/27/16 23:25:31  5-MIN K0J4 280425Z AUTO 00000KT 10SM CLR 23/22 A3007 180 90 1200 000/00 RMK AO2 T02330217
63870K0J4 0J420160727233010807/27/16 23:30:31  5-MIN K0J4 280430Z AUTO 00000KT 10SM CLR 23/22 A3007 180 90 1200 000/00 RMK AO2 T02330217
63870K0J4 0J420160727233510807/27/16 23:35:31  5-MIN K0J4 280435Z AUTO 00000KT 10SM CLR 23/22 A3007 180 93 1200 000/00 RMK AO2 T02330222
63870K0J4 0J420160727234010807/27/16 23:40:31  5-MIN K0J4 280440Z AUTO 00000KT 10SM CLR 23/22 A3006 180 90 1200 000/00 RMK AO2 T02330217
63870K0J4 0J420160727234510807/27/16 23:45:31  5-MIN K0J4 280445Z AUTO 00000KT 10SM CLR 23/22 A3006 180 90 1200 000/00 RMK AO2 T02330217
63870K0J4 0J420160727235010807/27/16 23:50:31  5-MIN K0J4 280450Z AUTO 00000KT 10SM CLR 23/22 A3006 180 90 1200 000/00 RMK AO2 T02330217
63870K0J4 0J420160727235512507/27/16 23:55:31  5-MIN K0J4 280455Z AUTO 00000KT 10SM CLR 23/22 A3006 180 90 1200 000/00 RMK AO2 SLP176 T02330217 403280228
63870K0J4 0J420160728000010807/28/16 00:00:31  5-MIN K0J4 280500Z AUTO 00000KT 10SM CLR 23/22 A3007 180 90 1200 000/00 RMK AO2 T02330217
63870K0J4 0J420160728000510807/28/16 00:05:31  5-MIN K0J4 280505Z AUTO 00000KT 10SM CLR 23/22 A3006 180 90 1200 000/00 RMK AO2 T02330217
63870K0J4 0J420160728001010807/28/16 00:10:31  5-MIN K0J4 280510Z AUTO 00000KT 10SM CLR 23/22 A3006 180 90 1200 000/00 RMK AO2 T02330217
63870K0J4 0J420160728001510807/28/16 00:15:31  5-MIN K0J4 280515Z AUTO 00000KT 10SM CLR 23/22 A3007 180 90 1200 000/00 RMK AO2 T02330217
63870K0J4 0J420160728002010807/28/16 00:20:31  5-MIN K0J4 280520Z AUTO 00000KT 10SM CLR 23/22 A3007 180 90 1200 000/00 RMK AO2 T02330217
63870K0J4 0J420160728002510807/28/16 00:25:31  5-MIN K0J4 280525Z AUTO 00000KT 10SM CLR 23/22 A3007 180 90 1200 000/00 RMK AO2 T02330217
63870K0J4 0J420160728003010807/28/16 00:30:31  5-MIN K0J4 280530Z AUTO 00000KT 10SM CLR 23/22 A3007 180 90 1200 000/00 RMK AO2 T02330217
63870K0J4 0J420160728003510807/28/16 00:35:31  5-MIN K0J4 280535Z AUTO 00000KT 10SM CLR 23/22 A3007 180 93 1200 000/00 RMK AO2 T02280217
63870K0J4 0J420160728004010807/28/16 00:40:31  5-MIN K0J4 280540Z AUTO 00000KT 10SM CLR 23/22 A3007 180 93 1200 000/00 RMK AO2 T02280217
63870K0J4 0J420160728004510807/28/16 00:45:31  5-MIN K0J4 280545Z AUTO 00000KT 10SM CLR 23/22 A3007 180 90 1200 000/00 RMK AO2 T02330217
63870K0J4 0J420160728005010807/28/16 00:50:31  5-MIN K0J4 280550Z AUTO 00000KT 10SM CLR 23/22 A3007 180 93 1200 000/00 RMK AO2 T02280217
63870K0J4 0J420160728005513307/28/16 00:55:31  5-MIN K0J4 280555Z AUTO 00000KT 10SM CLR 23/22 A3006 180 93 1200 000/00 RMK AO2 SLP176 T02280217 10294 20228 53007
63870K0J4 0J420160728010010807/28/16 01:00:31  5-MIN K0J4 280600Z AUTO 00000KT 10SM CLR 23/22 A3006 180 90 1200 000/00 RMK AO2 T02330217
63870K0J4 0J420160728010510807/28/16 01:05:31  5-MIN K0J4 280605Z AUTO 00000KT 10SM CLR 23/22 A3006 180 93 1200 000/00 RMK AO2 T02280217
63870K0J4 0J420160728011010807/28/16 01:10:31  5-MIN K0J4 280610Z AUTO 00000KT 10SM CLR 23/22 A3006 180 93 1200 000/00 RMK AO2 T02280217
63870K0J4 0J420160728011510807/28/16 01:15:31  5-MIN K0J4 280615Z AUTO 00000KT 10SM CLR 23/22 A3006 180 93 1200 000/00 RMK AO2 T02280217
63870K0J4 0J420160728012010807/28/16 01:20:31  5-MIN K0J4 280620Z AUTO 00000KT 10SM CLR 23/22 A3006 180 93 1200 000/00 RMK AO2 T02280217
63870K0J4 0J420160728012510807/28/16 01:25:31  5-MIN K0J4 280625Z AUTO 00000KT 10SM CLR 23/22 A3006 190 93 1200 000/00 RMK AO2 T02280217
63870K0J4 0J420160728013010807/28/16 01:30:31  5-MIN K0J4 280630Z AUTO 00000KT 10SM CLR 23/22 A3006 190 93 1200 000/00 RMK AO2 T02280217
63870K0J4 0J420160728013510807/28/16 01:35:31  5-MIN K0J4 280635Z AUTO 00000KT 10SM CLR 23/21 A3006 190 90 1200 000/00 RMK AO2 T02280211
63870K0J4 0J420160728014010807/28/16 01:40:31  5-MIN K0J4 280640Z AUTO 00000KT 10SM CLR 23/21 A3006 190 90 1200 000/00 RMK AO2 T02280211
63870K0J4 0J420160728014510807/28/16 01:45:31  5-MIN K0J4 280645Z AUTO 00000KT 10SM CLR 23/21 A3006 190 90 1200 000/00 RMK AO2 T02280211
63870K0J4 0J420160728015010807/28/16 01:50:31  5-MIN K0J4 280650Z AUTO 00000KT 10SM CLR 23/21 A3006 190 90 1200 000/00 RMK AO2 T02280211
63870K0J4 0J420160728015511507/28/16 01:55:31  5-MIN K0J4 280655Z AUTO 00000KT 10SM CLR 23/21 A3006 190 90 1200 000/00 RMK AO2 SLP175 T02280211
63870K0J4 0J420160728020010807/28/16 02:00:31  5-MIN K0J4 280700Z AUTO 00000KT 10SM CLR 23/21 A3006 180 90 1200 000/00 RMK AO2 T02280211
63870K0J4 0J420160728020510807/28/16 02:05:31  5-MIN K0J4 280705Z AUTO 00000KT 10SM CLR 22/21 A3006 180 93 1100 000/00 RMK AO2 T02220211
63870K0J4 0J420160728021010807/28/16 02:10:31  5-MIN K0J4 280710Z AUTO 00000KT 10SM CLR 22/21 A3007 180 93 1100 000/00 RMK AO2 T02220211
63870K0J4 0J420160728021510807/28/16 02:15:31  5-MIN K0J4 280715Z AUTO 00000KT 10SM CLR 23/21 A3007 180 90 1200 000/00 RMK AO2 T02280211
63870K0J4 0J420160728022010807/28/16 02:20:31  5-MIN K0J4 280720Z AUTO 00000KT 10SM CLR 22/21 A3006 180 93 1100 000/00 RMK AO2 T02220211
63870K0J4 0J420160728022510807/28/16 02:25:31  5-MIN K0J4 280725Z AUTO 00000KT 10SM CLR 22/21 A3006 190 93 1100 000/00 RMK AO2 T02220211
63870K0J4 0J420160728023010807/28/16 02:30:31  5-MIN K0J4 280730Z AUTO 00000KT 10SM CLR 22/21 A3006 190 93 1100 000/00 RMK AO2 T02220211
63870K0J4 0J420160728023510807/28/16 02:35:31  5-MIN K0J4 280735Z AUTO 00000KT 10SM CLR 22/21 A3006 180 93 1000 000/00 RMK AO2 T02170206
63870K0J4 0J420160728024010807/28/16 02:40:31  5-MIN K0J4 280740Z AUTO 00000KT 10SM CLR 22/21 A3006 180 90 1100 000/00 RMK AO2 T02220206
63870K0J4 0J420160728024510807/28/16 02:45:31  5-MIN K0J4 280745Z AUTO 00000KT 10SM CLR 22/21 A3006 180 90 1100 000/00 RMK AO2 T02220206
63870K0J4 0J420160728025010807/28/16 02:50:31  5-MIN K0J4 280750Z AUTO 00000KT 10SM CLR 22/21 A3006 180 90 1100 000/00 RMK AO2 T02220206
63870K0J4 0J420160728025511507/28/16 02:55:31  5-MIN K0J4 280755Z AUTO 00000KT 10SM CLR 22/21 A3006 180 90 1100 000/00 RMK AO2 SLP176 T02220206
63870K0J4 0J420160728030010807/28/16 03:00:31  5-MIN K0J4 280800Z AUTO 00000KT 10SM CLR 22/21 A3007 180 90 1100 000/00 RMK AO2 T02220206
63870K0J4 0J420160728030510807/28/16 03:05:31  5-MIN K0J4 280805Z AUTO 00000KT 10SM CLR 22/21 A3007 180 90 1100 000/00 RMK AO2 T02220206
63870K0J4 0J420160728031010807/28/16 03:10:31  5-MIN K0J4 280810Z AUTO 00000KT 10SM CLR 22/21 A3007 180 93 1000 000/00 RMK AO2 T02170206
63870K0J4 0J420160728031510807/28/16 03:15:31  5-MIN K0J4 280815Z AUTO 00000KT 10SM CLR 22/21 A3007 180 93 1000 000/00 RMK AO2 T02170206
63870K0J4 0J420160728032010807/28/16 03:20:31  5-MIN K0J4 280820Z AUTO 00000KT 10SM CLR 22/21 A3007 180 90 1100 000/00 RMK AO2 T02220206
63870K0J4 0J420160728032510807/28/16 03:25:31  5-MIN K0J4 280825Z AUTO 00000KT 10SM CLR 23/21 A3007 180 90 1200 000/00 RMK AO2 T02280211
63870K0J4 0J420160728033010807/28/16 03:30:31  5-MIN K0J4 280830Z AUTO 00000KT 10SM CLR 22/21 A3007 180 93 1100 000/00 RMK AO2 T02220211
63870K0J4 0J420160728033510807/28/16 03:35:31  5-MIN K0J4 280835Z AUTO 00000KT 10SM CLR 22/21 A3007 180 93 1100 000/00 RMK AO2 T02220211
63870K0J4 0J420160728034010807/28/16 03:40:31  5-MIN K0J4 280840Z AUTO 00000KT 10SM CLR 22/21 A3007 180 93 1100 000/00 RMK AO2 T02220211
63870K0J4 0J420160728034510807/28/16 03:45:31  5-MIN K0J4 280845Z AUTO 00000KT 10SM CLR 22/21 A3007 180 93 1100 000/00 RMK AO2 T02220211
63870K0J4 0J420160728035010807/28/16 03:50:31  5-MIN K0J4 280850Z AUTO 00000KT 10SM CLR 22/21 A3007 180 93 1100 000/00 RMK AO2 T02220211
63870K0J4 0J420160728035512107/28/16 03:55:31  5-MIN K0J4 280855Z AUTO 00000KT 10SM CLR 22/21 A3007 180 93 1100 000/00 RMK AO2 SLP177 T02220211 56003
63870K0J4 0J420160728040010807/28/16 04:00:31  5-MIN K0J4 280900Z AUTO 00000KT 10SM CLR 22/21 A3007 180 93 1000 000/00 RMK AO2 T02170206
63870K0J4 0J420160728040510807/28/16 04:05:31  5-MIN K0J4 280905Z AUTO 00000KT 10SM CLR 22/21 A3007 180 93 1000 000/00 RMK AO2 T02170206
63870K0J4 0J420160728041010807/28/16 04:10:31  5-MIN K0J4 280910Z AUTO 00000KT 10SM CLR 22/21 A3007 180 93 1000 000/00 RMK AO2 T02170206
63870K0J4 0J420160728041510807/28/16 04:15:31  5-MIN K0J4 280915Z AUTO 00000KT 10SM CLR 22/21 A3007 180 93 1000 000/00 RMK AO2 T02170206
63870K0J4 0J420160728042010807/28/16 04:20:31  5-MIN K0J4 280920Z AUTO 00000KT 10SM CLR 22/21 A3007 180 93 1000 000/00 RMK AO2 T02170206
63870K0J4 0J420160728042510807/28/16 04:25:31  5-MIN K0J4 280925Z AUTO 00000KT 10SM CLR 22/21 A3007 180 93 1000 000/00 RMK AO2 T02170206
63870K0J4 0J420160728043010807/28/16 04:30:31  5-MIN K0J4 280930Z AUTO 00000KT 10SM CLR 22/21 A3007 180 90 1100 000/00 RMK AO2 T02220206
63870K0J4 0J420160728043510807/28/16 04:35:31  5-MIN K0J4 280935Z AUTO 21003KT 10SM CLR 22/21 A3007 180 90 1100 210/03 RMK AO2 T02220206
63870K0J4 0J420160728044010807/28/16 04:40:31  5-MIN K0J4 280940Z AUTO 20003KT 10SM CLR 22/21 A3007 180 90 1100 200/03 RMK AO2 T02220206
63870K0J4 0J420160728044510807/28/16 04:45:31  5-MIN K0J4 280945Z AUTO 20003KT 10SM CLR 22/21 A3007 180 90 1100 200/03 RMK AO2 T02220206
63870K0J4 0J420160728045010807/28/16 04:50:31  5-MIN K0J4 280950Z AUTO 00000KT 10SM CLR 22/21 A3007 180 93 1100 000/00 RMK AO2 T02220211
63870K0J4 0J420160728045511507/28/16 04:55:31  5-MIN K0J4 280955Z AUTO 00000KT 10SM CLR 22/21 A3007 180 93 1100 000/00 RMK AO2 SLP179 T02220211
63870K0J4 0J420160728050010807/28/16 05:00:31  5-MIN K0J4 281000Z AUTO 00000KT 10SM CLR 23/21 A3007 180 90 1200 000/00 RMK AO2 T02280211
63870K0J4 0J420160728050510807/28/16 05:05:31  5-MIN K0J4 281005Z AUTO 00000KT 10SM CLR 23/21 A3007 170 90 1200 000/00 RMK AO2 T02280211
63870K0J4 0J420160728051010807/28/16 05:10:31  5-MIN K0J4 281010Z AUTO 00000KT 10SM CLR 22/21 A3008 170 90 1100 000/00 RMK AO2 T02220206
63870K0J4 0J420160728051510807/28/16 05:15:31  5-MIN K0J4 281015Z AUTO 00000KT 10SM CLR 22/21 A3008 170 93 1100 000/00 RMK AO2 T02220211
63870K0J4 0J420160728052010807/28/16 05:20:31  5-MIN K0J4 281020Z AUTO 00000KT 10SM CLR 22/21 A3008 170 90 1100 000/00 RMK AO2 T02220206
63870K0J4 0J420160728052510807/28/16 05:25:31  5-MIN K0J4 281025Z AUTO 00000KT 10SM CLR 22/21 A3008 170 90 1100 000/00 RMK AO2 T02220206
63870K0J4 0J420160728053010807/28/16 05:30:31  5-MIN K0J4 281030Z AUTO 00000KT 10SM CLR 22/21 A3008 170 93 1100 000/00 RMK AO2 T02220211
63870K0J4 0J420160728053510807/28/16 05:35:31  5-MIN K0J4 281035Z AUTO 00000KT 10SM CLR 22/21 A3008 170 93 1100 000/00 RMK AO2 T02220211
63870K0J4 0J420160728054010807/28/16 05:40:31  5-MIN K0J4 281040Z AUTO 00000KT 10SM CLR 22/21 A3008 170 93 1100 000/00 RMK AO2 T02220211
63870K0J4 0J420160728054510807/28/16 05:45:31  5-MIN K0J4 281045Z AUTO 00000KT 10SM CLR 22/21 A3008 170 93 1100 000/00 RMK AO2 T02220211
63870K0J4 0J420160728055010707/28/16 05:50:31  5-MIN K0J4 281050Z AUTO 00000KT 9SM CLR 22/21 A3008 170 93 1100 000/00 RMK AO2 T02220211
63870K0J4 0J420160728055511407/28/16 05:55:31  5-MIN K0J4 281055Z AUTO 00000KT 9SM CLR 22/21 A3008 170 93 1100 000/00 RMK AO2 SLP180 T02220211
63870K0J4 0J420160728060010707/28/16 06:00:31  5-MIN K0J4 281100Z AUTO 00000KT 9SM CLR 22/21 A3008 170 93 1100 000/00 RMK AO2 T02220211
63870K0J4 0J420160728060510707/28/16 06:05:31  5-MIN K0J4 281105Z AUTO 00000KT 9SM CLR 22/21 A3008 170 93 1100 000/00 RMK AO2 T02220211
63870K0J4 0J420160728061010807/28/16 06:10:31  5-MIN K0J4 281110Z AUTO 00000KT 10SM CLR 22/21 A3008 170 93 1100 000/00 RMK AO2 T02220211
63870K0J4 0J420160728061510807/28/16 06:15:31  5-MIN K0J4 281115Z AUTO 00000KT 10SM CLR 22/21 A3008 170 93 1100 000/00 RMK AO2 T02220211
63870K0J4 0J420160728062010807/28/16 06:20:31  5-MIN K0J4 281120Z AUTO 00000KT 10SM CLR 23/22 A3008 170 93 1200 000/00 RMK AO2 T02280217
63870K0J4 0J420160728062510807/28/16 06:25:31  5-MIN K0J4 281125Z AUTO 00000KT 10SM CLR 23/22 A3008 170 93 1200 000/00 RMK AO2 T02280217
63870K0J4 0J420160728063010807/28/16 06:30:31  5-MIN K0J4 281130Z AUTO 00000KT 10SM CLR 22/21 A3008 170 93 1100 000/00 RMK AO2 T02220211
63870K0J4 0J420160728063510807/28/16 06:35:31  5-MIN K0J4 281135Z AUTO 00000KT 10SM CLR 22/21 A3008 170 93 1100 000/00 RMK AO2 T02220211
63870K0J4 0J420160728064010807/28/16 06:40:31  5-MIN K0J4 281140Z AUTO 00000KT 10SM CLR 23/21 A3008 170 90 1200 000/00 RMK AO2 T02280211
63870K0J4 0J420160728064510807/28/16 06:45:31  5-MIN K0J4 281145Z AUTO 00000KT 10SM CLR 23/22 A3008 170 93 1200 000/00 RMK AO2 T02280217
63870K0J4 0J420160728065010707/28/16 06:50:31  5-MIN K0J4 281150Z AUTO 00000KT 9SM CLR 23/22 A3008 170 93 1200 000/00 RMK AO2 T02280217
63870K0J4 0J420160728065513807/28/16 06:55:31  5-MIN K0J4 281155Z AUTO 00000KT 9SM CLR 23/22 A3008 170 93 1200 000/00 RMK AO2 SLP180 70001 T02330222 10233 20217 53001
63870K0J4 0J420160728070010807/28/16 07:00:31  5-MIN K0J4 281200Z AUTO 00000KT 10SM CLR 23/22 A3008 170 93 1200 000/00 RMK AO2 T02330222
63870K0J4 0J420160728070510807/28/16 07:05:31  5-MIN K0J4 281205Z AUTO 00000KT 10SM CLR 24/23 A3008 170 93 1300 000/00 RMK AO2 T02390228
63870K0J4 0J420160728071010807/28/16 07:10:31  5-MIN K0J4 281210Z AUTO 00000KT 10SM CLR 24/23 A3008 170 90 1300 000/00 RMK AO2 T02440228
63870K0J4 0J420160728071510807/28/16 07:15:31  5-MIN K0J4 281215Z AUTO 00000KT 10SM CLR 24/23 A3008 170 90 1300 000/00 RMK AO2 T02440228
63870K0J4 0J420160728072010807/28/16 07:20:31  5-MIN K0J4 281220Z AUTO 00000KT 10SM CLR 25/23 A3008 170 90 1400 000/00 RMK AO2 T02500233
63870K0J4 0J420160728072510807/28/16 07:25:31  5-MIN K0J4 281225Z AUTO 00000KT 10SM CLR 25/23 A3008 170 90 1400 000/00 RMK AO2 T02500233
63870K0J4 0J420160728073010807/28/16 07:30:31  5-MIN K0J4 281230Z AUTO 00000KT 10SM CLR 26/23 A3008 170 87 1500 000/00 RMK AO2 T02560233
63870K0J4 0J420160728073510807/28/16 07:35:31  5-MIN K0J4 281235Z AUTO 00000KT 10SM CLR 26/23 A3008 170 87 1500 000/00 RMK AO2 T02560233
63870K0J4 0J420160728074010807/28/16 07:40:31  5-MIN K0J4 281240Z AUTO 00000KT 10SM CLR 26/23 A3008 170 87 1500 000/00 RMK AO2 T02560233
63870K0J4 0J420160728074510807/28/16 07:45:31  5-MIN K0J4 281245Z AUTO 00000KT 10SM CLR 26/23 A3008 170 84 1500 000/00 RMK AO2 T02610233
63870K0J4 0J420160728075010807/28/16 07:50:31  5-MIN K0J4 281250Z AUTO 00000KT 10SM CLR 26/24 A3008 160 87 1500 000/00 RMK AO2 T02610239
63870K0J4 0J420160728075511507/28/16 07:55:31  5-MIN K0J4 281255Z AUTO 00000KT 10SM CLR 27/24 A3008 170 84 1600 000/00 RMK AO2 SLP183 T02670239
63870K0J4 0J420160728080010807/28/16 08:00:31  5-MIN K0J4 281300Z AUTO 00000KT 10SM CLR 27/24 A3008 170 84 1600 000/00 RMK AO2 T02670239
63870K0J4 0J420160728080510807/28/16 08:05:31  5-MIN K0J4 281305Z AUTO 00000KT 10SM CLR 27/24 A3008 170 82 1700 000/00 RMK AO2 T02720239
63870K0J4 0J420160728081010807/28/16 08:10:31  5-MIN K0J4 281310Z AUTO VRB03KT 10SM CLR 27/24 A3009 160 82 1600 VRB/03 RMK AO2 T02720239
63870K0J4 0J420160728081510807/28/16 08:15:31  5-MIN K0J4 281315Z AUTO VRB03KT 10SM CLR 27/24 A3009 160 82 1700 VRB/03 RMK AO2 T02720239
63870K0J4 0J420160728082010807/28/16 08:20:31  5-MIN K0J4 281320Z AUTO 21003KT 10SM CLR 28/24 A3009 160 79 1700 210/03 RMK AO2 T02780239
63870K0J4 0J420160728082510807/28/16 08:25:31  5-MIN K0J4 281325Z AUTO VRB03KT 10SM CLR 28/24 A3009 160 76 1800 VRB/03 RMK AO2 T02830239
63870K0J4 0J420160728083010807/28/16 08:30:31  5-MIN K0J4 281330Z AUTO VRB03KT 10SM CLR 28/24 A3009 160 76 1800 VRB/03 RMK AO2 T02830239
63870K0J4 0J420160728083510807/28/16 08:35:31  5-MIN K0J4 281335Z AUTO VRB04KT 10SM CLR 28/24 A3009 160 76 1800 VRB/04 RMK AO2 T02830239
63870K0J4 0J420160728084010807/28/16 08:40:31  5-MIN K0J4 281340Z AUTO VRB03KT 10SM CLR 28/24 A3009 160 76 1800 VRB/03 RMK AO2 T02830239
63870K0J4 0J420160728084510807/28/16 08:45:31  5-MIN K0J4 281345Z AUTO VRB04KT 10SM CLR 28/24 A3009 160 76 1800 VRB/04 RMK AO2 T02830239
63870K0J4 0J420160728085010807/28/16 08:50:31  5-MIN K0J4 281350Z AUTO 00000KT 10SM CLR 29/24 A3009 160 76 1800 000/00 RMK AO2 T02890244
63870K0J4 0J420160728085511507/28/16 08:55:31  5-MIN K0J4 281355Z AUTO VRB05KT 10SM CLR 29/24 A3009 160 74 1800 VRB/05 RMK AO2 SLP183 T02890239
63870K0J4 0J420160728090010807/28/16 09:00:31  5-MIN K0J4 281400Z AUTO 00000KT 10SM CLR 29/24 A3009 160 74 1800 000/00 RMK AO2 T02890239
63870K0J4 0J420160728090510807/28/16 09:05:31  5-MIN K0J4 281405Z AUTO VRB05KT 10SM CLR 29/23 A3009 160 71 1800 VRB/05 RMK AO2 T02890233
63870K0J4 0J420160728091010807/28/16 09:10:31  5-MIN K0J4 281410Z AUTO VRB04KT 10SM CLR 29/23 A3009 160 69 1900 VRB/04 RMK AO2 T02940233
63870K0J4 0J420160728091510807/28/16 09:15:31  5-MIN K0J4 281415Z AUTO VRB03KT 10SM CLR 29/23 A3009 160 69 1900 VRB/03 RMK AO2 T02940233
63870K0J4 0J420160728092010807/28/16 09:20:31  5-MIN K0J4 281420Z AUTO VRB03KT 10SM CLR 29/23 A3009 160 69 1900 VRB/03 RMK AO2 T02940233
63870K0J4 0J420160728092510807/28/16 09:25:31  5-MIN K0J4 281425Z AUTO VRB03KT 10SM CLR 30/23 A3009 160 65 2000 VRB/03 RMK AO2 T03000228
63870K0J4 0J420160728093010807/28/16 09:30:31  5-MIN K0J4 281430Z AUTO 00000KT 10SM CLR 29/23 A3009 160 67 1900 000/00 RMK AO2 T02940228
63870K0J4 0J420160728093510807/28/16 09:35:31  5-MIN K0J4 281435Z AUTO VRB04KT 10SM CLR 29/22 A3009 160 64 1900 VRB/04 RMK AO2 T02940222
63870K0J4 0J420160728094010807/28/16 09:40:31  5-MIN K0J4 281440Z AUTO VRB06KT 10SM CLR 30/22 A3009 160 62 2000 VRB/06 RMK AO2 T03000222
63870K0J4 0J420160728094510807/28/16 09:45:31  5-MIN K0J4 281445Z AUTO 00000KT 10SM CLR 30/22 A3009 160 60 2000 000/00 RMK AO2 T03000217
63870K0J4 0J420160728095010807/28/16 09:50:31  5-MIN K0J4 281450Z AUTO 00000KT 10SM CLR 30/22 A3009 160 62 2000 000/00 RMK AO2 T03000222
63870K0J4 0J420160728095512107/28/16 09:55:31  5-MIN K0J4 281455Z AUTO 00000KT 10SM CLR 31/22 A3009 160 58 2000 000/00 RMK AO2 SLP184 T03060217 51003
63870K0J4 0J420160728100010807/28/16 10:00:31  5-MIN K0J4 281500Z AUTO VRB03KT 10SM CLR 31/22 A3009 160 60 2000 VRB/03 RMK AO2 T03060222
63870K0J4 0J420160728100510807/28/16 10:05:31  5-MIN K0J4 281505Z AUTO 00000KT 10SM CLR 30/22 A3009 160 62 2000 000/00 RMK AO2 T03000222
63870K0J4 0J420160728101010807/28/16 10:10:31  5-MIN K0J4 281510Z AUTO 20004KT 10SM CLR 31/23 A3009 160 62 2000 200/04 RMK AO2 T03060228
63870K0J4 0J420160728101510807/28/16 10:15:31  5-MIN K0J4 281515Z AUTO 22006KT 10SM CLR 31/23 A3009 160 62 2000 220/06 RMK AO2 T03060228
63870K0J4 0J420160728102010807/28/16 10:20:31  5-MIN K0J4 281520Z AUTO 21004KT 10SM CLR 31/22 A3009 160 60 2000 210/04 RMK AO2 T03060222
63870K0J4 0J420160728102510807/28/16 10:25:31  5-MIN K0J4 281525Z AUTO 20006KT 10SM CLR 31/22 A3009 160 58 2000 200/06 RMK AO2 T03060217
63870K0J4 0J420160728103010807/28/16 10:30:31  5-MIN K0J4 281530Z AUTO VRB04KT 10SM CLR 31/21 A3009 160 56 2000 VRB/04 RMK AO2 T03060211
63870K0J4 0J420160728103510807/28/16 10:35:31  5-MIN K0J4 281535Z AUTO VRB03KT 10SM CLR 31/21 A3009 160 56 2000 VRB/03 RMK AO2 T03060211
63870K0J4 0J420160728104010807/28/16 10:40:31  5-MIN K0J4 281540Z AUTO 21006KT 10SM CLR 31/22 A3009 160 60 2000 210/06 RMK AO2 T03060222
63870K0J4 0J420160728104510807/28/16 10:45:31  5-MIN K0J4 281545Z AUTO 21004KT 10SM CLR 31/22 A3009 160 60 2000 210/04 RMK AO2 T03060222
63870K0J4 0J420160728105011107/28/16 10:50:31  5-MIN K0J4 281550Z AUTO 23007KT 10SM FEW031 31/22 A3009 160 60 2000 230/07 RMK AO2 T03060222
63870K0J4 0J420160728105511807/28/16 10:55:31  5-MIN K0J4 281555Z AUTO 23006KT 10SM FEW031 31/22 A3009 160 58 2000 230/06 RMK AO2 SLP183 T03060217
63870K0J4 0J420160728110011107/28/16 11:00:31  5-MIN K0J4 281600Z AUTO VRB03KT 10SM FEW031 31/22 A3009 160 56 2100 VRB/03 RMK AO2 T03110217
63870K0J4 0J420160728110511107/28/16 11:05:31  5-MIN K0J4 281605Z AUTO 21006KT 10SM FEW031 31/22 A3008 160 56 2100 210/06 RMK AO2 T03110217
63870K0J4 0J420160728111012707/28/16 11:10:31  5-MIN K0J4 281610Z AUTO 22008KT 170V250 10SM FEW031 31/22 A3008 170 58 2100 220/08 170V250 RMK AO2 T03110222
63870K0J4 0J420160728111511107/28/16 11:15:31  5-MIN K0J4 281615Z AUTO 20003KT 10SM FEW031 31/22 A3008 170 58 2100 200/03 RMK AO2 T03110222
63870K0J4 0J420160728112009807/28/16 11:20:31  5-MIN K0J4 281620Z AUTO 10SM CLR 31/22 A3009 160 56 2100 M /M RMK AO2 T03110217
63870K0J4 0J420160728112510807/28/16 11:25:31  5-MIN K0J4 281625Z AUTO 21008KT 10SM CLR 32/22 A3009 160 56 2100 210/08 RMK AO2 T03170222
63870K0J4 0J420160728113010807/28/16 11:30:31  5-MIN K0J4 281630Z AUTO VRB04KT 10SM CLR 32/22 A3008 160 55 2100 VRB/04 RMK AO2 T03170217
63870K0J4 0J420160728113510807/28/16 11:35:31  5-MIN K0J4 281635Z AUTO 20006KT 10SM CLR 32/22 A3008 170 53 2200 200/06 RMK AO2 T03220217
63870K0J4 0J420160728114010807/28/16 11:40:31  5-MIN K0J4 281640Z AUTO 24007KT 10SM CLR 32/22 A3008 170 56 2200 240/07 RMK AO2 T03170222
63870K0J4 0J420160728114511107/28/16 11:45:31  5-MIN K0J4 281645Z AUTO 24005KT 10SM FEW040 32/22 A3008 170 55 2200 240/05 RMK AO2 T03170217
63870K0J4 0J420160728115011107/28/16 11:50:31  5-MIN K0J4 281650Z AUTO 20008KT 10SM FEW041 32/22 A3008 170 55 2200 200/08 RMK AO2 T03170217
63870K0J4 0J420160728115511807/28/16 11:55:31  5-MIN K0J4 281655Z AUTO 24006KT 10SM FEW041 32/22 A3008 170 56 2200 240/06 RMK AO2 SLP181 T03170222
63870K0J4 0J420160728120011107/28/16 12:00:31  5-MIN K0J4 281700Z AUTO 24007KT 10SM FEW041 32/22 A3008 170 53 2200 240/07 RMK AO2 T03220217
63870K0J4 0J420160728120511107/28/16 12:05:31  5-MIN K0J4 281705Z AUTO 22006KT 10SM FEW041 32/22 A3008 170 53 2200 220/06 RMK AO2 T03220217
63870K0J4 0J420160728121011107/28/16 12:10:31  5-MIN K0J4 281710Z AUTO 20009KT 10SM SCT043 32/22 A3008 170 55 2200 200/09 RMK AO2 T03220222
63870K0J4 0J420160728121511107/28/16 12:15:31  5-MIN K0J4 281715Z AUTO 20009KT 10SM SCT043 32/22 A3008 170 53 2200 200/09 RMK AO2 T03220217
63870K0J4 0J420160728122011107/28/16 12:20:31  5-MIN K0J4 281720Z AUTO VRB05KT 10SM FEW043 32/21 A3008 170 51 2200 VRB/05 RMK AO2 T03220211
63870K0J4 0J420160728122511107/28/16 12:25:31  5-MIN K0J4 281725Z AUTO 24006KT 10SM FEW043 33/22 A3008 170 51 2300 240/06 RMK AO2 T03280217
63870K0J4 0J420160728123011107/28/16 12:30:31  5-MIN K0J4 281730Z AUTO 21007KT 10SM FEW043 32/21 A3008 170 51 2200 210/07 RMK AO2 T03220211
63870K0J4 0J420160728123511807/28/16 12:35:31  5-MIN K0J4 281735Z AUTO 22007KT 10SM FEW043 FEW055 32/21 A3008 170 51 2200 220/07 RMK AO2 T03220211
63870K0J4 0J420160728124011807/28/16 12:40:31  5-MIN K0J4 281740Z AUTO 23005KT 10SM FEW045 FEW055 32/21 A3007 170 51 2200 230/05 RMK AO2 T03220211
63870K0J4 0J420160728124511107/28/16 12:45:31  5-MIN K0J4 281745Z AUTO 22007KT 10SM FEW045 33/22 A3008 170 51 2300 220/07 RMK AO2 T03280217
63870K0J4 0J420160728125011107/28/16 12:50:31  5-MIN K0J4 281750Z AUTO 19006KT 10SM FEW046 33/21 A3008 170 49 2300 190/06 RMK AO2 T03280211
63870K0J4 0J420160728125513607/28/16 12:55:31  5-MIN K0J4 281755Z AUTO 22005KT 10SM FEW046 33/21 A3007 180 48 2300 220/05 RMK AO2 SLP179 T03280206 10333 20233 51003
63870K0J4 0J420160728130011107/28/16 13:00:31  5-MIN K0J4 281800Z AUTO 22007KT 10SM FEW048 33/21 A3007 180 48 2300 220/07 RMK AO2 T03280206
63870K0J4 0J420160728130512707/28/16 13:05:31  5-MIN K0J4 281805Z AUTO 22007KT 190V260 10SM FEW048 33/22 A3007 180 50 2300 220/07 190V260 RMK AO2 T03330217
63870K0J4 0J420160728232511407/28/16 23:25:31  5-MIN K0J4 290425Z AUTO 21004KT 10SM CLR 24/23 A3005 190 90 1400 210/04 RMK AO2 T02440228 PNO $
63870K0J4 0J420160728233011407/28/16 23:30:31  5-MIN K0J4 290430Z AUTO 22004KT 10SM CLR 24/23 A3005 190 90 1400 220/04 RMK AO2 T02440228 PNO $
63870K0J4 0J420160728233511407/28/16 23:35:31  5-MIN K0J4 290435Z AUTO 22004KT 10SM CLR 24/23 A3006 190 90 1400 220/04 RMK AO2 T02440228 PNO $
63870K0J4 0J420160728234011407/28/16 23:40:31  5-MIN K0J4 290440Z AUTO 21004KT 10SM CLR 25/23 A3006 190 90 1400 210/04 RMK AO2 T02500233 PNO $
63870K0J4 0J420160728234511407/28/16 23:45:31  5-MIN K0J4 290445Z AUTO 21004KT 10SM CLR 24/23 A3006 190 93 1400 210/04 RMK AO2 T02440233 PNO $
63870K0J4 0J420160728235011407/28/16 23:50:31  5-MIN K0J4 290450Z AUTO 22004KT 10SM CLR 24/23 A3006 190 90 1400 220/04 RMK AO2 T02440228 PNO $
63870K0J4 0J420160728235513107/28/16 23:55:31  5-MIN K0J4 290455Z AUTO 22004KT 10SM CLR 24/23 A3006 190 90 1400 220/04 RMK AO2 SLP174 T02440228 403330217 PNO $
63870K0J4 0J420160729000011407/29/16 00:00:31  5-MIN K0J4 290500Z AUTO 22003KT 10SM CLR 25/23 A3006 190 90 1400 220/03 RMK AO2 T02500233 PNO $
63870K0J4 0J420160729000511407/29/16 00:05:31  5-MIN K0J4 290505Z AUTO 22004KT 10SM CLR 25/23 A3006 180 90 1400 220/04 RMK AO2 T02500233 PNO $
63870K0J4 0J420160729001011407/29/16 00:10:31  5-MIN K0J4 290510Z AUTO 24003KT 10SM CLR 25/23 A3006 180 90 1400 240/03 RMK AO2 T02500233 PNO $
63870K0J4 0J420160729001511407/29/16 00:15:31  5-MIN K0J4 290515Z AUTO 00000KT 10SM CLR 24/23 A3006 180 90 1400 000/00 RMK AO2 T02440228 PNO $
63870K0J4 0J420160729002011407/29/16 00:20:31  5-MIN K0J4 290520Z AUTO 23003KT 10SM CLR 24/23 A3007 180 90 1400 230/03 RMK AO2 T02440228 PNO $
63870K0J4 0J420160729002511407/29/16 00:25:31  5-MIN K0J4 290525Z AUTO 21003KT 10SM CLR 24/23 A3006 180 90 1400 210/03 RMK AO2 T02440228 PNO $
63870K0J4 0J420160729003011407/29/16 00:30:31  5-MIN K0J4 290530Z AUTO 00000KT 10SM CLR 24/23 A3006 190 93 1400 000/00 RMK AO2 T02440233 PNO $
63870K0J4 0J420160729003511407/29/16 00:35:31  5-MIN K0J4 290535Z AUTO 00000KT 10SM CLR 24/23 A3006 180 90 1400 000/00 RMK AO2 T02440228 PNO $
63870K0J4 0J420160729004011407/29/16 00:40:31  5-MIN K0J4 290540Z AUTO 00000KT 10SM CLR 24/23 A3006 190 90 1400 000/00 RMK AO2 T02440228 PNO $
63870K0J4 0J420160729004511407/29/16 00:45:31  5-MIN K0J4 290545Z AUTO 00000KT 10SM CLR 24/23 A3006 190 90 1400 000/00 RMK AO2 T02440228 PNO $
63870K0J4 0J420160729005011407/29/16 00:50:31  5-MIN K0J4 290550Z AUTO 23003KT 10SM CLR 24/23 A3006 190 93 1300 230/03 RMK AO2 T02390228 PNO $
63870K0J4 0J420160729005514507/29/16 00:55:31  5-MIN K0J4 290555Z AUTO 23003KT 10SM CLR 24/23 A3006 190 93 1300 230/03 RMK AO2 SLP174 6//// T02390228 10289 20239 53018 PNO $
63870K0J4 0J420160729010011407/29/16 01:00:31  5-MIN K0J4 290600Z AUTO 00000KT 10SM CLR 24/23 A3006 190 93 1300 000/00 RMK AO2 T02390228 PNO $
63870K0J4 0J420160729010511407/29/16 01:05:31  5-MIN K0J4 290605Z AUTO 00000KT 10SM CLR 24/23 A3006 190 90 1400 000/00 RMK AO2 T02440228 PNO $
63870K0J4 0J420160729011011407/29/16 01:10:31  5-MIN K0J4 290610Z AUTO 00000KT 10SM CLR 24/23 A3006 190 93 1300 000/00 RMK AO2 T02390228 PNO $
63870K0J4 0J420160729011511407/29/16 01:15:31  5-MIN K0J4 290615Z AUTO 00000KT 10SM CLR 24/23 A3006 190 93 1300 000/00 RMK AO2 T02390228 PNO $
63870K0J4 0J420160729012011407/29/16 01:20:31  5-MIN K0J4 290620Z AUTO 00000KT 10SM CLR 24/23 A3005 190 93 1300 000/00 RMK AO2 T02390228 PNO $
63870K0J4 0J420160729012511407/29/16 01:25:31  5-MIN K0J4 290625Z AUTO 00000KT 10SM CLR 23/22 A3005 190 93 1200 000/00 RMK AO2 T02330222 PNO $
63870K0J4 0J420160729013011407/29/16 01:30:31  5-MIN K0J4 290630Z AUTO 00000KT 10SM CLR 23/22 A3005 190 93 1200 000/00 RMK AO2 T02330222 PNO $
63870K0J4 0J420160729013511407/29/16 01:35:31  5-MIN K0J4 290635Z AUTO 00000KT 10SM CLR 24/22 A3005 190 90 1300 000/00 RMK AO2 T02390222 PNO $
63870K0J4 0J420160729014011407/29/16 01:40:31  5-MIN K0J4 290640Z AUTO 00000KT 10SM CLR 24/22 A3005 190 90 1300 000/00 RMK AO2 T02390222 PNO $
63870K0J4 0J420160729014511407/29/16 01:45:31  5-MIN K0J4 290645Z AUTO 00000KT 10SM CLR 24/23 A3005 190 93 1300 000/00 RMK AO2 T02390228 PNO $
63870K0J4 0J420160729015011307/29/16 01:50:31  5-MIN K0J4 290650Z AUTO 00000KT 9SM CLR 23/22 A3005 200 93 1200 000/00 RMK AO2 T02330222 PNO $
63870K0J4 0J420160729015512007/29/16 01:55:31  5-MIN K0J4 290655Z AUTO 00000KT 9SM CLR 23/22 A3005 190 93 1200 000/00 RMK AO2 SLP172 T02280217 PNO $
63870K0J4 0J420160729020011407/29/16 02:00:31  5-MIN K0J4 290700Z AUTO 00000KT 10SM CLR 23/22 A3005 190 93 1200 000/00 RMK AO2 T02330222 PNO $
63870K0J4 0J420160729020511407/29/16 02:05:31  5-MIN K0J4 290705Z AUTO 00000KT 10SM CLR 23/22 A3005 190 93 1200 000/00 RMK AO2 T02330222 PNO $
63870K0J4 0J420160729021011407/29/16 02:10:31  5-MIN K0J4 290710Z AUTO 00000KT 10SM CLR 23/22 A3005 200 97 1200 000/00 RMK AO2 T02280222 PNO $
63870K0J4 0J420160729021511407/29/16 02:15:31  5-MIN K0J4 290715Z AUTO 00000KT 10SM CLR 23/22 A3005 200 93 1200 000/00 RMK AO2 T02280217 PNO $
63870K0J4 0J420160729022011407/29/16 02:20:31  5-MIN K0J4 290720Z AUTO 00000KT 10SM CLR 23/22 A3005 200 93 1300 000/00 RMK AO2 T02330222 PNO $
63870K0J4 0J420160729022511307/29/16 02:25:31  5-MIN K0J4 290725Z AUTO 00000KT 9SM CLR 23/22 A3005 200 93 1300 000/00 RMK AO2 T02330222 PNO $
63870K0J4 0J420160729023011307/29/16 02:30:31  5-MIN K0J4 290730Z AUTO 00000KT 9SM CLR 23/22 A3005 200 93 1300 000/00 RMK AO2 T02330222 PNO $
63870K0J4 0J420160729023511307/29/16 02:35:31  5-MIN K0J4 290735Z AUTO 21003KT 9SM CLR 23/22 A3005 200 93 1300 210/03 RMK AO2 T02330222 PNO $
63870K0J4 0J420160729024011407/29/16 02:40:31  5-MIN K0J4 290740Z AUTO 20003KT 10SM CLR 23/23 A3005 200 97 1300 200/03 RMK AO2 T02330228 PNO $
63870K0J4 0J420160729024511407/29/16 02:45:31  5-MIN K0J4 290745Z AUTO 00000KT 10SM CLR 23/22 A3005 200 93 1300 000/00 RMK AO2 T02330222 PNO $
63870K0J4 0J420160729025011307/29/16 02:50:31  5-MIN K0J4 290750Z AUTO 18003KT 9SM CLR 23/22 A3005 200 93 1300 180/03 RMK AO2 T02330222 PNO $
63870K0J4 0J420160729025512007/29/16 02:55:31  5-MIN K0J4 290755Z AUTO 00000KT 8SM CLR 23/22 A3005 200 97 1200 000/00 RMK AO2 SLP170 T02280222 PNO $
63870K0J4 0J420160729030011307/29/16 03:00:31  5-MIN K0J4 290800Z AUTO 00000KT 8SM CLR 23/22 A3005 200 93 1300 000/00 RMK AO2 T02330222 PNO $
63870K0J4 0J420160729030511307/29/16 03:05:31  5-MIN K0J4 290805Z AUTO 00000KT 9SM CLR 23/22 A3005 200 93 1300 000/00 RMK AO2 T02330222 PNO $
63870K0J4 0J420160729031011407/29/16 03:10:31  5-MIN K0J4 290810Z AUTO 00000KT 10SM CLR 23/22 A3005 200 93 1300 000/00 RMK AO2 T02330222 PNO $
63870K0J4 0J420160729031511407/29/16 03:15:31  5-MIN K0J4 290815Z AUTO 00000KT 10SM CLR 23/22 A3005 200 93 1300 000/00 RMK AO2 T02330222 PNO $
63870K0J4 0J420160729032011407/29/16 03:20:31  5-MIN K0J4 290820Z AUTO 00000KT 10SM CLR 23/22 A3005 200 93 1300 000/00 RMK AO2 T02330222 PNO $
63870K0J4 0J420160729032511307/29/16 03:25:31  5-MIN K0J4 290825Z AUTO 00000KT 9SM CLR 23/22 A3005 200 93 1300 000/00 RMK AO2 T02330222 PNO $
63870K0J4 0J420160729033011307/29/16 03:30:31  5-MIN K0J4 290830Z AUTO 35004KT 9SM CLR 23/22 A3005 190 93 1200 350/04 RMK AO2 T02330222 PNO $
63870K0J4 0J420160729033511307/29/16 03:35:31  5-MIN K0J4 290835Z AUTO 00000KT 9SM CLR 24/23 A3005 190 93 1300 000/00 RMK AO2 T02390228 PNO $
63870K0J4 0J420160729034011307/29/16 03:40:31  5-MIN K0J4 290840Z AUTO 34003KT 9SM CLR 24/23 A3005 190 93 1300 340/03 RMK AO2 T02390228 PNO $
63870K0J4 0J420160729034511307/29/16 03:45:31  5-MIN K0J4 290845Z AUTO 00000KT 9SM CLR 24/23 A3005 190 93 1300 000/00 RMK AO2 T02390228 PNO $
63870K0J4 0J420160729035011307/29/16 03:50:31  5-MIN K0J4 290850Z AUTO 00000KT 8SM CLR 24/23 A3005 190 93 1300 000/00 RMK AO2 T02390228 PNO $
63870K0J4 0J420160729035513207/29/16 03:55:31  5-MIN K0J4 290855Z AUTO 00000KT 8SM CLR 23/23 A3005 190 97 1200 000/00 RMK AO2 SLP173 6//// T02330228 56002 PNO $
63870K0J4 0J420160729040011307/29/16 04:00:31  5-MIN K0J4 290900Z AUTO 00000KT 7SM CLR 23/22 A3005 190 93 1200 000/00 RMK AO2 T02330222 PNO $
63870K0J4 0J420160729040511307/29/16 04:05:31  5-MIN K0J4 290905Z AUTO 00000KT 7SM CLR 23/22 A3005 200 93 1200 000/00 RMK AO2 T02330222 PNO $
63870K0J4 0J420160729041011307/29/16 04:10:31  5-MIN K0J4 290910Z AUTO 00000KT 7SM CLR 23/22 A3005 190 93 1200 000/00 RMK AO2 T02330222 PNO $
63870K0J4 0J420160729041511307/29/16 04:15:31  5-MIN K0J4 290915Z AUTO 00000KT 7SM CLR 23/22 A3005 200 93 1300 000/00 RMK AO2 T02330222 PNO $
63870K0J4 0J420160729042011307/29/16 04:20:31  5-MIN K0J4 290920Z AUTO 00000KT 7SM CLR 23/22 A3005 200 93 1300 000/00 RMK AO2 T02330222 PNO $
63870K0J4 0J420160729042511307/29/16 04:25:31  5-MIN K0J4 290925Z AUTO 00000KT 7SM CLR 23/22 A3005 200 93 1300 000/00 RMK AO2 T02330222 PNO $
63870K0J4 0J420160729043011307/29/16 04:30:31  5-MIN K0J4 290930Z AUTO 00000KT 7SM CLR 23/22 A3005 200 93 1300 000/00 RMK AO2 T02330222 PNO $
63870K0J4 0J420160729043511307/29/16 04:35:31  5-MIN K0J4 290935Z AUTO 00000KT 7SM CLR 23/22 A3005 200 97 1200 000/00 RMK AO2 T02280222 PNO $
63870K0J4 0J420160729044011907/29/16 04:40:31  5-MIN K0J4 290940Z AUTO 00000KT 6SM BR FEW003 23/22 A3004 200 97 1200 000/00 RMK AO2 T02280222 PNO $
63870K0J4 0J420160729044511907/29/16 04:45:31  5-MIN K0J4 290945Z AUTO 00000KT 5SM BR FEW003 23/22 A3004 200 97 1200 000/00 RMK AO2 T02280222 PNO $
63870K0J4 0J420160729045011907/29/16 04:50:31  5-MIN K0J4 290950Z AUTO 00000KT 5SM BR FEW003 23/22 A3004 200 97 1200 000/00 RMK AO2 T02280222 PNO $
63870K0J4 0J420160729045512307/29/16 04:55:31  5-MIN K0J4 290955Z AUTO 00000KT 7SM FEW003 22/22 A3005 200 97 1100 000/00 RMK AO2 SLP169 T02220217 PNO $
63870K0J4 0J420160729050011607/29/16 05:00:31  5-MIN K0J4 291000Z AUTO 00000KT 8SM FEW003 23/22 A3004 200 93 1200 000/00 RMK AO2 T02280217 PNO $
63870K0J4 0J420160729050511607/29/16 05:05:31  5-MIN K0J4 291005Z AUTO 00000KT 9SM FEW003 23/22 A3005 200 93 1200 000/00 RMK AO2 T02280217 PNO $
63870K0J4 0J420160729051011707/29/16 05:10:31  5-MIN K0J4 291010Z AUTO 00000KT 10SM FEW003 23/22 A3005 200 93 1200 000/00 RMK AO2 T02280217 PNO $
63870K0J4 0J420160729051511607/29/16 05:15:31  5-MIN K0J4 291015Z AUTO 00000KT 9SM FEW003 23/22 A3005 200 93 1200 000/00 RMK AO2 T02280217 PNO $
63870K0J4 0J420160729052011307/29/16 05:20:31  5-MIN K0J4 291020Z AUTO 00000KT 9SM CLR 23/22 A3005 200 93 1200 000/00 RMK AO2 T02280217 PNO $
63870K0J4 0J420160729052511307/29/16 05:25:31  5-MIN K0J4 291025Z AUTO 00000KT 9SM CLR 23/22 A3005 200 93 1200 000/00 RMK AO2 T02280217 PNO $
63870K0J4 0J420160729053011307/29/16 05:30:31  5-MIN K0J4 291030Z AUTO 00000KT 8SM CLR 23/22 A3005 200 93 1200 000/00 RMK AO2 T02280217 PNO $
63870K0J4 0J420160729053511307/29/16 05:35:31  5-MIN K0J4 291035Z AUTO 00000KT 8SM CLR 23/22 A3005 200 93 1200 000/00 RMK AO2 T02280217 PNO $
63870K0J4 0J420160729054011307/29/16 05:40:31  5-MIN K0J4 291040Z AUTO 00000KT 9SM CLR 23/22 A3005 200 93 1200 000/00 RMK AO2 T02280217 PNO $
63870K0J4 0J420160729054511307/29/16 05:45:31  5-MIN K0J4 291045Z AUTO 00000KT 8SM CLR 22/22 A3005 200 97 1100 000/00 RMK AO2 T02220217 PNO $
63870K0J4 0J420160729055011307/29/16 05:50:31  5-MIN K0J4 291050Z AUTO 00000KT 9SM CLR 22/21 A3005 200 93 1100 000/00 RMK AO2 T02220211 PNO $
63870K0J4 0J420160729055512107/29/16 05:55:31  5-MIN K0J4 291055Z AUTO 00000KT 10SM CLR 22/21 A3005 190 93 1100 000/00 RMK AO2 SLP172 T02220211 PNO $
63870K0J4 0J420160729060011407/29/16 06:00:31  5-MIN K0J4 291100Z AUTO 00000KT 10SM CLR 22/21 A3005 190 93 1100 000/00 RMK AO2 T02220211 PNO $
63870K0J4 0J420160729060511407/29/16 06:05:31  5-MIN K0J4 291105Z AUTO 00000KT 10SM CLR 22/21 A3005 190 93 1100 000/00 RMK AO2 T02220211 PNO $
63870K0J4 0J420160729061011307/29/16 06:10:31  5-MIN K0J4 291110Z AUTO 00000KT 9SM CLR 23/22 A3006 190 93 1200 000/00 RMK AO2 T02280217 PNO $
63870K0J4 0J420160729061511307/29/16 06:15:31  5-MIN K0J4 291115Z AUTO 00000KT 9SM CLR 23/22 A3006 190 93 1200 000/00 RMK AO2 T02280217 PNO $
63870K0J4 0J420160729062011307/29/16 06:20:31  5-MIN K0J4 291120Z AUTO 00000KT 9SM CLR 22/21 A3006 190 93 1100 000/00 RMK AO2 T02220211 PNO $
63870K0J4 0J420160729062511307/29/16 06:25:31  5-MIN K0J4 291125Z AUTO 00000KT 9SM CLR 22/21 A3006 190 93 1100 000/00 RMK AO2 T02220211 PNO $
63870K0J4 0J420160729063011407/29/16 06:30:31  5-MIN K0J4 291130Z AUTO 00000KT 10SM CLR 23/22 A3006 190 93 1200 000/00 RMK AO2 T02280217 PNO $
63870K0J4 0J420160729063511407/29/16 06:35:31  5-MIN K0J4 291135Z AUTO 00000KT 10SM CLR 23/22 A3006 180 93 1200 000/00 RMK AO2 T02280217 PNO $
63870K0J4 0J420160729064011407/29/16 06:40:31  5-MIN K0J4 291140Z AUTO 00000KT 10SM CLR 23/22 A3007 180 93 1200 000/00 RMK AO2 T02280217 PNO $
63870K0J4 0J420160729064511407/29/16 06:45:31  5-MIN K0J4 291145Z AUTO 00000KT 10SM CLR 23/22 A3007 180 93 1200 000/00 RMK AO2 T02330222 PNO $
63870K0J4 0J420160729065011407/29/16 06:50:31  5-MIN K0J4 291150Z AUTO 00000KT 10SM CLR 24/23 A3007 180 93 1300 000/00 RMK AO2 T02390228 PNO $
63870K0J4 0J420160729065515107/29/16 06:55:31  5-MIN K0J4 291155Z AUTO 00000KT 10SM CLR 24/23 A3007 180 93 1300 000/00 RMK AO2 SLP178 6//// 7//// T02390228 10244 20222 55002 PNO $
63870K0J4 0J420160729070011407/29/16 07:00:31  5-MIN K0J4 291200Z AUTO 00000KT 10SM CLR 24/23 A3007 180 90 1400 000/00 RMK AO2 T02440228 PNO $
63870K0J4 0J420160729070511407/29/16 07:05:31  5-MIN K0J4 291205Z AUTO 00000KT 10SM CLR 24/23 A3007 180 93 1400 000/00 RMK AO2 T02440233 PNO $
63870K0J4 0J420160729071011407/29/16 07:10:31  5-MIN K0J4 291210Z AUTO 00000KT 10SM CLR 25/23 A3007 180 90 1400 000/00 RMK AO2 T02500233 PNO $
63870K0J4 0J420160729071511407/29/16 07:15:31  5-MIN K0J4 291215Z AUTO 00000KT 10SM CLR 25/24 A3007 180 93 1400 000/00 RMK AO2 T02500239 PNO $
63870K0J4 0J420160729072011407/29/16 07:20:31  5-MIN K0J4 291220Z AUTO 00000KT 10SM CLR 25/24 A3007 170 93 1400 000/00 RMK AO2 T02500239 PNO $
63870K0J4 0J420160729072511407/29/16 07:25:31  5-MIN K0J4 291225Z AUTO 00000KT 10SM CLR 26/24 A3007 170 90 1500 000/00 RMK AO2 T02560239 PNO $
63870K0J4 0J420160729073011407/29/16 07:30:31  5-MIN K0J4 291230Z AUTO 00000KT 10SM CLR 26/24 A3007 180 87 1500 000/00 RMK AO2 T02610239 PNO $
63870K0J4 0J420160729073511407/29/16 07:35:31  5-MIN K0J4 291235Z AUTO 00000KT 10SM CLR 26/24 A3007 180 87 1500 000/00 RMK AO2 T02610239 PNO $
63870K0J4 0J420160729074011407/29/16 07:40:31  5-MIN K0J4 291240Z AUTO 00000KT 10SM CLR 26/24 A3007 180 87 1500 000/00 RMK AO2 T02610239 PNO $
63870K0J4 0J420160729074511407/29/16 07:45:31  5-MIN K0J4 291245Z AUTO 00000KT 10SM CLR 26/24 A3007 180 87 1500 000/00 RMK AO2 T02610239 PNO $
63870K0J4 0J420160729075011407/29/16 07:50:31  5-MIN K0J4 291250Z AUTO 00000KT 10SM CLR 27/24 A3007 180 87 1600 000/00 RMK AO2 T02670244 PNO $
63870K0J4 0J420160729075512107/29/16 07:55:31  5-MIN K0J4 291255Z AUTO 00000KT 10SM CLR 27/24 A3007 180 84 1600 000/00 RMK AO2 SLP178 T02670239 PNO $
63870K0J4 0J420160729080011407/29/16 08:00:31  5-MIN K0J4 291300Z AUTO 00000KT 10SM CLR 27/24 A3007 180 87 1600 000/00 RMK AO2 T02670244 PNO $
63870K0J4 0J420160729080511407/29/16 08:05:31  5-MIN K0J4 291305Z AUTO 00000KT 10SM CLR 27/24 A3007 180 84 1700 000/00 RMK AO2 T02720244 PNO $
63870K0J4 0J420160729081011407/29/16 08:10:31  5-MIN K0J4 291310Z AUTO 00000KT 10SM CLR 27/24 A3007 180 84 1700 000/00 RMK AO2 T02720244 PNO $
63870K0J4 0J420160729081511407/29/16 08:15:31  5-MIN K0J4 291315Z AUTO 00000KT 10SM CLR 27/24 A3007 180 84 1700 000/00 RMK AO2 T02720244 PNO $
63870K0J4 0J420160729082011407/29/16 08:20:31  5-MIN K0J4 291320Z AUTO VRB03KT 10SM CLR 27/24 A3007 180 84 1700 VRB/03 RMK AO2 T02720244 PNO $
63870K0J4 0J420160729082511407/29/16 08:25:31  5-MIN K0J4 291325Z AUTO 00000KT 10SM CLR 28/24 A3007 180 82 1700 000/00 RMK AO2 T02780244 PNO $
63870K0J4 0J420160729083011407/29/16 08:30:31  5-MIN K0J4 291330Z AUTO 00000KT 10SM CLR 28/24 A3007 180 79 1800 000/00 RMK AO2 T02830244 PNO $
63870K0J4 0J420160729083511407/29/16 08:35:31  5-MIN K0J4 291335Z AUTO VRB03KT 10SM CLR 28/24 A3007 170 79 1800 VRB/03 RMK AO2 T02830244 PNO $
63870K0J4 0J420160729084011407/29/16 08:40:31  5-MIN K0J4 291340Z AUTO 00000KT 10SM CLR 28/24 A3007 170 79 1800 000/00 RMK AO2 T02830244 PNO $
63870K0J4 0J420160729084511407/29/16 08:45:31  5-MIN K0J4 291345Z AUTO 33004KT 10SM CLR 28/24 A3007 170 79 1800 330/04 RMK AO2 T02830244 PNO $
63870K0J4 0J420160729085011407/29/16 08:50:31  5-MIN K0J4 291350Z AUTO 00000KT 10SM CLR 29/24 A3007 180 76 1900 000/00 RMK AO2 T02890244 PNO $
63870K0J4 0J420160729085512407/29/16 08:55:31  5-MIN K0J4 291355Z AUTO 00000KT 10SM FEW015 29/24 A3007 170 74 1900 000/00 RMK AO2 SLP179 T02940244 PNO $
63870K0J4 0J420160729090011707/29/16 09:00:31  5-MIN K0J4 291400Z AUTO VRB03KT 10SM FEW015 29/24 A3007 170 74 1900 VRB/03 RMK AO2 T02940244 PNO $
63870K0J4 0J420160729090511707/29/16 09:05:31  5-MIN K0J4 291405Z AUTO 00000KT 10SM FEW015 29/24 A3008 170 74 1900 000/00 RMK AO2 T02940244 PNO $
63870K0J4 0J420160729091011707/29/16 09:10:31  5-MIN K0J4 291410Z AUTO 00000KT 10SM FEW015 29/24 A3008 170 71 1900 000/00 RMK AO2 T02940239 PNO $
63870K0J4 0J420160729091511707/29/16 09:15:31  5-MIN K0J4 291415Z AUTO VRB05KT 10SM FEW017 29/24 A3008 170 74 1800 VRB/05 RMK AO2 T02890239 PNO $
63870K0J4 0J420160729092011707/29/16 09:20:31  5-MIN K0J4 291420Z AUTO VRB05KT 10SM SCT017 29/24 A3008 170 71 1900 VRB/05 RMK AO2 T02940239 PNO $
63870K0J4 0J420160729092511707/29/16 09:25:31  5-MIN K0J4 291425Z AUTO VRB05KT 10SM SCT019 29/24 A3008 170 71 1900 VRB/05 RMK AO2 T02940239 PNO $
63870K0J4 0J420160729093011707/29/16 09:30:31  5-MIN K0J4 291430Z AUTO VRB04KT 10SM FEW019 29/24 A3008 170 71 1900 VRB/04 RMK AO2 T02940239 PNO $
63870K0J4 0J420160729093511707/29/16 09:35:31  5-MIN K0J4 291435Z AUTO 24006KT 10SM FEW019 30/23 A3008 170 67 2000 240/06 RMK AO2 T03000233 PNO $
63870K0J4 0J420160729094011707/29/16 09:40:31  5-MIN K0J4 291440Z AUTO VRB04KT 10SM FEW021 30/23 A3008 170 67 2000 VRB/04 RMK AO2 T03000233 PNO $
63870K0J4 0J420160729094511707/29/16 09:45:31  5-MIN K0J4 291445Z AUTO VRB03KT 10SM FEW021 30/23 A3008 170 67 2000 VRB/03 RMK AO2 T03000233 PNO $
63870K0J4 0J420160729095011707/29/16 09:50:31  5-MIN K0J4 291450Z AUTO 24005KT 10SM FEW023 30/23 A3008 170 67 2000 240/05 RMK AO2 T03000233 PNO $
63870K0J4 0J420160729095513607/29/16 09:55:31  5-MIN K0J4 291455Z AUTO VRB04KT 10SM SCT023 30/23 A3008 170 67 2000 VRB/04 RMK AO2 SLP180 6//// T03000233 53006 PNO $
63870K0J4 0J420160729100011707/29/16 10:00:31  5-MIN K0J4 291500Z AUTO VRB03KT 10SM SCT023 30/23 A3008 170 65 2000 VRB/03 RMK AO2 T03000228 PNO $
63870K0J4 0J420160729100511707/29/16 10:05:31  5-MIN K0J4 291505Z AUTO VRB03KT 10SM FEW024 31/23 A3008 170 62 2000 VRB/03 RMK AO2 T03060228 PNO $
63870K0J4 0J420160729101011707/29/16 10:10:31  5-MIN K0J4 291510Z AUTO VRB03KT 10SM SCT026 31/23 A3008 170 65 2000 VRB/03 RMK AO2 T03060233 PNO $
63870K0J4 0J420160729101511707/29/16 10:15:31  5-MIN K0J4 291515Z AUTO VRB04KT 10SM SCT026 30/23 A3008 170 65 2000 VRB/04 RMK AO2 T03000228 PNO $
63870K0J4 0J420160729102011707/29/16 10:20:31  5-MIN K0J4 291520Z AUTO 23006KT 10SM SCT026 31/23 A3008 170 62 2000 230/06 RMK AO2 T03060228 PNO $
63870K0J4 0J420160729102511707/29/16 10:25:31  5-MIN K0J4 291525Z AUTO VRB04KT 10SM FEW026 31/23 A3008 170 62 2000 VRB/04 RMK AO2 T03060228 PNO $
63870K0J4 0J420160729103011707/29/16 10:30:31  5-MIN K0J4 291530Z AUTO VRB04KT 10SM FEW026 31/23 A3008 170 60 2100 VRB/04 RMK AO2 T03110228 PNO $
63870K0J4 0J420160729103511707/29/16 10:35:31  5-MIN K0J4 291535Z AUTO VRB05KT 10SM FEW026 31/23 A3008 170 60 2100 VRB/05 RMK AO2 T03110228 PNO $
63870K0J4 0J420160729104011707/29/16 10:40:31  5-MIN K0J4 291540Z AUTO VRB06KT 10SM FEW028 31/23 A3008 170 62 2000 VRB/06 RMK AO2 T03060228 PNO $
63870K0J4 0J420160729104511707/29/16 10:45:31  5-MIN K0J4 291545Z AUTO 23005KT 10SM FEW030 31/23 A3008 170 62 2000 230/05 RMK AO2 T03060228 PNO $
63870K0J4 0J420160729105011707/29/16 10:50:31  5-MIN K0J4 291550Z AUTO VRB03KT 10SM FEW030 31/23 A3008 170 63 2100 VRB/03 RMK AO2 T03110233 PNO $
63870K0J4 0J420160729105513107/29/16 10:55:31  5-MIN K0J4 291555Z AUTO 23005KT 10SM FEW030 SCT044 31/23 A3008 170 60 2100 230/05 RMK AO2 SLP181 T03110228 PNO $
63870K0J4 0J420160729110012407/29/16 11:00:31  5-MIN K0J4 291600Z AUTO VRB04KT 10SM SCT030 SCT044 31/23 A3008 170 60 2100 VRB/04 RMK AO2 T03110228 PNO $
63870K0J4 0J420160729110513107/29/16 11:05:31  5-MIN K0J4 291605Z AUTO VRB03KT 10SM SCT030 SCT044 BKN060 30/22 A3008 170 62 2000 VRB/03 RMK AO2 T03000222 PNO $
63870K0J4 0J420160729111013107/29/16 11:10:31  5-MIN K0J4 291610Z AUTO 00000KT 10SM FEW030 SCT044 SCT060 30/23 A3008 170 65 2000 000/00 RMK AO2 T03000228 PNO $
63870K0J4 0J420160729111512407/29/16 11:15:31  5-MIN K0J4 291615Z AUTO VRB03KT 10SM FEW032 SCT043 31/22 A3008 170 58 2100 VRB/03 RMK AO2 T03110222 PNO $
63870K0J4 0J420160729112012407/29/16 11:20:31  5-MIN K0J4 291620Z AUTO VRB05KT 10SM FEW030 SCT037 31/22 A3008 170 56 2100 VRB/05 RMK AO2 T03110217 PNO $
63870K0J4 0J420160729112512407/29/16 11:25:31  5-MIN K0J4 291625Z AUTO 23005KT 10SM FEW030 FEW040 31/22 A3007 180 56 2100 230/05 RMK AO2 T03110217 PNO $
63870K0J4 0J420160729113011707/29/16 11:30:31  5-MIN K0J4 291630Z AUTO VRB04KT 10SM FEW038 32/22 A3007 180 55 2200 VRB/04 RMK AO2 T03170217 PNO $
63870K0J4 0J420160729113511707/29/16 11:35:31  5-MIN K0J4 291635Z AUTO 22004KT 10SM FEW038 32/22 A3007 180 55 2200 220/04 RMK AO2 T03170217 PNO $
63870K0J4 0J420160729114011707/29/16 11:40:31  5-MIN K0J4 291640Z AUTO 00000KT 10SM FEW037 32/22 A3007 180 55 2200 000/00 RMK AO2 T03220222 PNO $
63870K0J4 0J420160729114511707/29/16 11:45:31  5-MIN K0J4 291645Z AUTO VRB05KT 10SM FEW037 33/23 A3007 180 55 2300 VRB/05 RMK AO2 T03280228 PNO $
63870K0J4 0J420160729115011707/29/16 11:50:31  5-MIN K0J4 291650Z AUTO 00000KT 10SM FEW037 32/22 A3007 180 55 2200 000/00 RMK AO2 T03220222 PNO $
63870K0J4 0J420160729115512407/29/16 11:55:31  5-MIN K0J4 291655Z AUTO 33004KT 10SM SCT037 31/22 A3006 180 58 2100 330/04 RMK AO2 SLP176 T03110222 PNO $
63870K0J4 0J420160729120011707/29/16 12:00:31  5-MIN K0J4 291700Z AUTO VRB04KT 10SM SCT037 32/23 A3006 190 59 2200 VRB/04 RMK AO2 T03220233 PNO $
63870K0J4 0J420160729120511707/29/16 12:05:31  5-MIN K0J4 291705Z AUTO VRB05KT 10SM FEW037 33/23 A3006 190 55 2300 VRB/05 RMK AO2 T03280228 PNO $
63870K0J4 0J420160729121011707/29/16 12:10:31  5-MIN K0J4 291710Z AUTO 00000KT 10SM FEW037 32/23 A3006 180 57 2200 000/00 RMK AO2 T03220228 PNO $
63870K0J4 0J420160729121511707/29/16 12:15:31  5-MIN K0J4 291715Z AUTO VRB03KT 10SM FEW037 32/22 A3006 180 53 2200 VRB/03 RMK AO2 T03220217 PNO $
63870K0J4 0J420160729122011707/29/16 12:20:31  5-MIN K0J4 291720Z AUTO 32005KT 10SM FEW035 32/22 A3006 190 53 2200 320/05 RMK AO2 T03220217 PNO $
63870K0J4 0J420160729122511407/29/16 12:25:31  5-MIN K0J4 291725Z AUTO 21003KT 10SM CLR 32/21 A3006 190 51 2200 210/03 RMK AO2 T03220211 PNO $
63870K0J4 0J420160729123011707/29/16 12:30:31  5-MIN K0J4 291730Z AUTO 24006KT 10SM FEW042 33/22 A3006 190 51 2300 240/06 RMK AO2 T03280217 PNO $
63870K0J4 0J420160729123511707/29/16 12:35:31  5-MIN K0J4 291735Z AUTO VRB04KT 10SM FEW042 32/21 A3005 190 51 2200 VRB/04 RMK AO2 T03220211 PNO $
63870K0J4 0J420160729124011707/29/16 12:40:31  5-MIN K0J4 291740Z AUTO VRB03KT 10SM FEW044 33/21 A3005 190 49 2300 VRB/03 RMK AO2 T03280211 PNO $
63870K0J4 0J420160729124511707/29/16 12:45:31  5-MIN K0J4 291745Z AUTO VRB04KT 10SM SCT042 32/22 A3005 200 55 2200 VRB/04 RMK AO2 T03220222 PNO $
63870K0J4 0J420160729125011707/29/16 12:50:31  5-MIN K0J4 291750Z AUTO VRB04KT 10SM BKN042 32/22 A3005 200 56 2200 VRB/04 RMK AO2 T03170222 PNO $
63870K0J4 0J420160729125515507/29/16 12:55:31  5-MIN K0J4 291755Z AUTO VRB04KT 10SM BKN042 BKN055 32/22 A3005 200 56 2200 VRB/04 RMK AO2 SLP169 6//// T03170222 10328 20244 53002 PNO $
63870K0J4 0J420160729130012407/29/16 13:00:31  5-MIN K0J4 291800Z AUTO VRB04KT 10SM SCT043 BKN055 33/22 A3005 200 53 2300 VRB/04 RMK AO2 T03280222 PNO $
63870K0J4 0J420160729130511707/29/16 13:05:31  5-MIN K0J4 291805Z AUTO 00000KT 10SM SCT043 33/22 A3005 200 53 2300 000/00 RMK AO2 T03280222 PNO $
63870K0J4 0J420160729131011707/29/16 13:10:31  5-MIN K0J4 291810Z AUTO VRB05KT 10SM SCT043 33/22 A3005 200 51 2300 VRB/05 RMK AO2 T03280217 PNO $
63870K0J4 0J420160729131511707/29/16 13:15:31  5-MIN K0J4 291815Z AUTO VRB04KT 10SM FEW043 32/22 A3004 200 53 2300 VRB/04 RMK AO2 T03220217 PNO $
63870K0J4 0J420160729132011707/29/16 13:20:31  5-MIN K0J4 291820Z AUTO VRB04KT 10SM FEW045 32/22 A3005 200 55 2200 VRB/04 RMK AO2 T03170217 PNO $
63870K0J4 0J420160729132512407/29/16 13:25:31  5-MIN K0J4 291825Z AUTO 00000KT 10SM FEW043 SCT055 32/21 A3004 200 51 2300 000/00 RMK AO2 T03220211 PNO $
63870K0J4 0J420160729133011707/29/16 13:30:31  5-MIN K0J4 291830Z AUTO VRB03KT 10SM SCT049 33/22 A3004 200 53 2300 VRB/03 RMK AO2 T03280222 PNO $
63870K0J4 0J420160729133513307/29/16 13:35:31  5-MIN K0J4 291835Z AUTO 00000KT 10SM TS SCT049 BKN060 32/21 A3004 200 51 2300 000/00 RMK AO2 TSB33 T03220211 PNO $
63870K0J4 0J420160729134013307/29/16 13:40:31  5-MIN K0J4 291840Z AUTO 21004KT 10SM TS BKN047 BKN060 32/22 A3005 200 55 2200 210/04 RMK AO2 TSB33 T03170217 PNO $
63870K0J4 0J420160729134514607/29/16 13:45:31  5-MIN K0J4 291845Z AUTO 20017G23KT 10SM TS FEW028 BKN045 BKN060 31/22 A3005 190 60 2100 200/17G23 RMK AO2 TSB33 T03060222 PNO $
63870K0J4 0J420160729135015507/29/16 13:50:31  5-MIN K0J4 291850Z AUTO 19012G25KT 10SM -TSRA FEW028 BKN045 OVC095 27/23 A3005 190 76 1700 190/12G25 RMK AO2 RAB48 TSB33 T02720228 PNO $
63870K0J4 0J420160729135516207/29/16 13:55:31  5-MIN K0J4 291855Z AUTO 19010G25KT 10SM -TSRA SCT044 BKN055 OVC100 27/23 A3005 190 79 1600 190/10G25 RMK AO2 RAB48 TSB33 SLP172 T02670228 PNO $
63870K0J4 0J420160729140014307/29/16 14:00:31  5-MIN K0J4 291900Z AUTO 18011G17KT 10SM -TSRA FEW044 SCT050 OVC100 26/23 A3006 190 81 1600 180/11G17 RMK AO2 T02610228 PNO $
63870K0J4 0J420160729140513007/29/16 14:05:31  5-MIN K0J4 291905Z AUTO 17008KT 10SM -TSRA SCT046 OVC095 25/22 A3006 190 84 1400 170/08 RMK AO2 T02500222 PNO $
63870K0J4 0J420160729141013707/29/16 14:10:31  5-MIN K0J4 291910Z AUTO 19005KT 10SM -TSRA FEW046 SCT070 OVC095 25/22 A3007 180 84 1400 190/05 RMK AO2 T02500222 PNO $
63870K0J4 0J420160729141514407/29/16 14:15:31  5-MIN K0J4 291915Z AUTO 26005KT 10SM -TSRA FEW046 SCT065 OVC095 26/23 A3007 180 84 1500 260/05 RMK AO2 PRESRR T02560228 PNO $
63870K0J4 0J420160729142013007/29/16 14:20:31  5-MIN K0J4 291920Z AUTO 20006KT 10SM -TSRA FEW044 OVC095 25/22 A3007 180 84 1400 200/06 RMK AO2 T02500222 PNO $
63870K0J4 0J420160729142513007/29/16 14:25:31  5-MIN K0J4 291925Z AUTO 22005KT 10SM -TSRA SCT044 OVC095 26/22 A3007 180 79 1500 220/05 RMK AO2 T02560217 PNO $
63870K0J4 0J420160729143013707/29/16 14:30:31  5-MIN K0J4 291930Z AUTO 21004KT 10SM -TSRA SCT044 SCT050 OVC090 26/22 A3006 180 81 1500 210/04 RMK AO2 T02560222 PNO $
63870K0J4 0J420160729143513307/29/16 14:35:31  5-MIN K0J4 291935Z AUTO VRB03KT 8SM -RA SCT043 OVC090 26/23 A3006 190 84 1500 VRB/03 RMK AO2 TSE32 T02560228 PNO $
63870K0J4 0J420160729144014007/29/16 14:40:31  5-MIN K0J4 291940Z AUTO 00000KT 9SM -RA SCT043 BKN080 OVC100 26/23 A3006 180 87 1500 000/00 RMK AO2 TSE32 T02560233 PNO $
63870K0J4 0J420160729144514107/29/16 14:45:31  5-MIN K0J4 291945Z AUTO 24004KT 10SM -RA SCT043 BKN075 OVC110 26/23 A3006 190 84 1500 240/04 RMK AO2 TSE32 T02560228 PNO $
63870K0J4 0J420160729145014107/29/16 14:50:31  5-MIN K0J4 291950Z AUTO 24004KT 10SM -RA SCT043 BKN075 OVC110 26/23 A3006 190 81 1600 240/04 RMK AO2 TSE32 T02610228 PNO $
63870K0J4 0J420160729145514807/29/16 14:55:31  5-MIN K0J4 291955Z AUTO 23005KT 10SM -RA FEW043 BKN075 BKN090 27/23 A3005 200 82 1600 230/05 RMK AO2 TSE32 SLP170 T02670233 PNO $
63870K0J4 0J420160729150013707/29/16 15:00:31  5-MIN K0J4 292000Z AUTO 20005KT 10SM -TSRA FEW043 SCT075 BKN110 27/23 A3005 200 82 1600 200/05 RMK AO2 T02670233 PNO $
63870K0J4 0J420160729150514807/29/16 15:05:31  5-MIN K0J4 292005Z AUTO 19003KT 10SM VCTS FEW042 FEW075 SCT100 27/24 A3005 200 84 1600 190/03 RMK AO2 RAE01 TSE03 T02670239 PNO $
63870K0J4 0J420160729151014107/29/16 15:10:31  5-MIN K0J4 292010Z AUTO 00000KT 10SM VCTS FEW075 BKN095 27/24 A3005 200 84 1600 000/00 RMK AO2 RAE01 TSE03 T02670239 PNO $
63870K0J4 0J420160729151514107/29/16 15:15:31  5-MIN K0J4 292015Z AUTO 00000KT 10SM VCTS FEW075 BKN090 27/24 A3004 200 82 1700 000/00 RMK AO2 RAE01 TSE03 T02720239 PNO $
63870K0J4 0J420160729152012907/29/16 15:20:31  5-MIN K0J4 292020Z AUTO 00000KT 10SM BKN090 27/24 A3004 200 82 1700 000/00 RMK AO2 RAE01 TSE03 T02720239 PNO $
63870K0J4 0J420160729152512907/29/16 15:25:31  5-MIN K0J4 292025Z AUTO 22003KT 10SM BKN090 27/24 A3004 200 82 1700 220/03 RMK AO2 RAE01 TSE03 T02720239 PNO $
63870K0J4 0J420160729153012907/29/16 15:30:31  5-MIN K0J4 292030Z AUTO 00000KT 10SM BKN090 27/24 A3004 210 82 1700 000/00 RMK AO2 RAE01 TSE03 T02720239 PNO $
63870K0J4 0J420160729153512907/29/16 15:35:31  5-MIN K0J4 292035Z AUTO 00000KT 10SM SCT090 27/24 A3004 210 84 1700 000/00 RMK AO2 RAE01 TSE03 T02720244 PNO $
63870K0J4 0J420160729154012907/29/16 15:40:31  5-MIN K0J4 292040Z AUTO 00000KT 10SM SCT090 27/24 A3004 210 82 1700 000/00 RMK AO2 RAE01 TSE03 T02720239 PNO $
63870K0J4 0J420160729154512907/29/16 15:45:31  5-MIN K0J4 292045Z AUTO 00000KT 10SM FEW095 28/24 A3004 210 79 1800 000/00 RMK AO2 RAE01 TSE03 T02780239 PNO $
63870K0J4 0J420160729155012607/29/16 15:50:31  5-MIN K0J4 292050Z AUTO 00000KT 10SM CLR 28/24 A3004 210 79 1800 000/00 RMK AO2 RAE01 TSE03 T02780239 PNO $
63870K0J4 0J420160729155514507/29/16 15:55:31  5-MIN K0J4 292055Z AUTO 00000KT 10SM CLR 28/24 A3003 210 79 1800 000/00 RMK AO2 RAE01 TSE03 SLP166 6//// T02780239 58011 PNO $
63870K0J4 0J420160729160011407/29/16 16:00:31  5-MIN K0J4 292100Z AUTO 00000KT 10SM CLR 28/24 A3003 210 79 1800 000/00 RMK AO2 T02780239 PNO $
63870K0J4 0J420160729160511407/29/16 16:05:31  5-MIN K0J4 292105Z AUTO 00000KT 10SM CLR 28/24 A3003 210 79 1800 000/00 RMK AO2 T02830244 PNO $
63870K0J4 0J420160729161011407/29/16 16:10:31  5-MIN K0J4 292110Z AUTO 00000KT 10SM CLR 28/24 A3003 210 79 1800 000/00 RMK AO2 T02830244 PNO $
63870K0J4 0J420160729161511407/29/16 16:15:31  5-MIN K0J4 292115Z AUTO 22003KT 10SM CLR 28/24 A3003 220 79 1800 220/03 RMK AO2 T02830244 PNO $
63870K0J4 0J420160729162011407/29/16 16:20:31  5-MIN K0J4 292120Z AUTO 00000KT 10SM CLR 28/24 A3003 220 76 1800 000/00 RMK AO2 T02830239 PNO $
63870K0J4 0J420160729162511407/29/16 16:25:31  5-MIN K0J4 292125Z AUTO 21004KT 10SM CLR 29/24 A3003 220 76 1900 210/04 RMK AO2 T02890244 PNO $
63870K0J4 0J420160729163011407/29/16 16:30:31  5-MIN K0J4 292130Z AUTO 21004KT 10SM CLR 29/24 A3003 210 76 1900 210/04 RMK AO2 T02890244 PNO $
63870K0J4 0J420160729163511407/29/16 16:35:31  5-MIN K0J4 292135Z AUTO 18004KT 10SM CLR 29/24 A3003 220 76 1900 180/04 RMK AO2 T02890244 PNO $
63870K0J4 0J420160729164011407/29/16 16:40:31  5-MIN K0J4 292140Z AUTO 20006KT 10SM CLR 29/24 A3003 220 74 2000 200/06 RMK AO2 T02940244 PNO $
63870K0J4 0J420160729164511407/29/16 16:45:31  5-MIN K0J4 292145Z AUTO 21005KT 10SM CLR 29/24 A3003 220 71 2000 210/05 RMK AO2 T02940239 PNO $
63870K0J4 0J420160729165011407/29/16 16:50:31  5-MIN K0J4 292150Z AUTO 19006KT 10SM CLR 30/24 A3003 220 69 2000 190/06 RMK AO2 T03000239 PNO $
63870K0J4 0J420160729165512107/29/16 16:55:31  5-MIN K0J4 292155Z AUTO 19007KT 10SM CLR 30/24 A3003 220 69 2000 190/07 RMK AO2 SLP163 T03000239 PNO $
63870K0J4 0J420160729170011407/29/16 17:00:31  5-MIN K0J4 292200Z AUTO VRB04KT 10SM CLR 30/24 A3002 220 69 2000 VRB/04 RMK AO2 T03000239 PNO $
63870K0J4 0J420160729170511407/29/16 17:05:31  5-MIN K0J4 292205Z AUTO 19006KT 10SM CLR 30/24 A3002 220 69 2000 190/06 RMK AO2 T03000239 PNO $
63870K0J4 0J420160729171011407/29/16 17:10:31  5-MIN K0J4 292210Z AUTO 20008KT 10SM CLR 30/23 A3002 220 65 2000 200/08 RMK AO2 T03000228 PNO $
63870K0J4 0J420160729171511407/29/16 17:15:31  5-MIN K0J4 292215Z AUTO 22007KT 10SM CLR 31/23 A3002 220 62 2100 220/07 RMK AO2 T03060228 PNO $
63870K0J4 0J420160729172011407/29/16 17:20:31  5-MIN K0J4 292220Z AUTO 21006KT 10SM CLR 30/22 A3002 220 62 2000 210/06 RMK AO2 T03000222 PNO $
63870K0J4 0J420160729172511407/29/16 17:25:31  5-MIN K0J4 292225Z AUTO 18005KT 10SM CLR 29/23 A3002 220 69 2000 180/05 RMK AO2 T02940233 PNO $
63870K0J4 0J420160729173011407/29/16 17:30:31  5-MIN K0J4 292230Z AUTO 19006KT 10SM CLR 29/23 A3002 230 69 2000 190/06 RMK AO2 T02940233 PNO $
63870K0J4 0J420160729173511707/29/16 17:35:31  5-MIN K0J4 292235Z AUTO 19004KT 10SM FEW110 29/23 A3002 230 69 2000 190/04 RMK AO2 T02940233 PNO $
63870K0J4 0J420160729174011707/29/16 17:40:31  5-MIN K0J4 292240Z AUTO 19004KT 10SM FEW110 29/23 A3001 230 69 2000 190/04 RMK AO2 T02940233 PNO $
63870K0J4 0J420160729174511707/29/16 17:45:31  5-MIN K0J4 292245Z AUTO 17004KT 10SM FEW110 29/24 A3001 230 71 2000 170/04 RMK AO2 T02940239 PNO $
63870K0J4 0J420160729175011707/29/16 17:50:31  5-MIN K0J4 292250Z AUTO 19004KT 10SM FEW100 29/24 A3001 230 74 1900 190/04 RMK AO2 T02890239 PNO $
63870K0J4 0J420160729175512407/29/16 17:55:31  5-MIN K0J4 292255Z AUTO 21006KT 10SM FEW100 29/24 A3001 230 74 1900 210/06 RMK AO2 SLP157 T02890239 PNO $
63870K0J4 0J420160729180011707/29/16 18:00:31  5-MIN K0J4 292300Z AUTO 21004KT 10SM FEW110 29/24 A3001 230 74 1900 210/04 RMK AO2 T02890239 PNO $
63870K0J4 0J420160729180511707/29/16 18:05:31  5-MIN K0J4 292305Z AUTO 20006KT 10SM FEW100 29/24 A3001 230 74 1900 200/06 RMK AO2 T02890239 PNO $
63870K0J4 0J420160729181011407/29/16 18:10:31  5-MIN K0J4 292310Z AUTO 21004KT 10SM CLR 28/24 A3001 230 76 1900 210/04 RMK AO2 T02830239 PNO $
63870K0J4 0J420160729181511407/29/16 18:15:31  5-MIN K0J4 292315Z AUTO 21004KT 10SM CLR 28/24 A3001 230 76 1900 210/04 RMK AO2 T02830239 PNO $
63870K0J4 0J420160729182011407/29/16 18:20:31  5-MIN K0J4 292320Z AUTO 20006KT 10SM CLR 28/23 A3001 240 74 1900 200/06 RMK AO2 T02830233 PNO $
63870K0J4 0J420160729182511407/29/16 18:25:31  5-MIN K0J4 292325Z AUTO 21003KT 10SM CLR 28/23 A3001 230 74 1900 210/03 RMK AO2 T02830233 PNO $
63870K0J4 0J420160729183011407/29/16 18:30:31  5-MIN K0J4 292330Z AUTO 21003KT 10SM CLR 28/23 A3001 230 74 1900 210/03 RMK AO2 T02830233 PNO $
63870K0J4 0J420160729183511407/29/16 18:35:31  5-MIN K0J4 292335Z AUTO 23003KT 10SM CLR 28/23 A3001 230 76 1800 230/03 RMK AO2 T02780233 PNO $
63870K0J4 0J420160729184011407/29/16 18:40:31  5-MIN K0J4 292340Z AUTO 23004KT 10SM CLR 28/23 A3001 230 76 1800 230/04 RMK AO2 T02780233 PNO $
63870K0J4 0J420160729184511407/29/16 18:45:31  5-MIN K0J4 292345Z AUTO 23005KT 10SM CLR 28/23 A3001 230 76 1800 230/05 RMK AO2 T02780233 PNO $
63870K0J4 0J420160729185011407/29/16 18:50:31  5-MIN K0J4 292350Z AUTO 22003KT 10SM CLR 28/23 A3001 230 76 1800 220/03 RMK AO2 T02780233 PNO $
63870K0J4 0J420160729185514507/29/16 18:55:31  5-MIN K0J4 292355Z AUTO 23004KT 10SM CLR 28/23 A3002 230 74 1800 230/04 RMK AO2 SLP159 6//// T02780228 10328 20250 58004 PNO $
63870K0J4 0J420160729190011407/29/16 19:00:31  5-MIN K0J4 300000Z AUTO 23003KT 10SM CLR 27/23 A3002 230 76 1700 230/03 RMK AO2 T02720228 PNO $
63870K0J4 0J420160729190511407/29/16 19:05:31  5-MIN K0J4 300005Z AUTO 22004KT 10SM CLR 27/23 A3002 230 76 1700 220/04 RMK AO2 T02720228 PNO $
63870K0J4 0J420160729191011407/29/16 19:10:31  5-MIN K0J4 300010Z AUTO 22005KT 10SM CLR 27/23 A3002 220 79 1700 220/05 RMK AO2 T02720233 PNO $
63870K0J4 0J420160729191511407/29/16 19:15:31  5-MIN K0J4 300015Z AUTO 23004KT 10SM CLR 27/23 A3002 220 76 1700 230/04 RMK AO2 T02720228 PNO $
63870K0J4 0J420160729192011407/29/16 19:20:31  5-MIN K0J4 300020Z AUTO 22004KT 10SM CLR 27/23 A3002 220 76 1700 220/04 RMK AO2 T02720228 PNO $
63870K0J4 0J420160729192511407/29/16 19:25:31  5-MIN K0J4 300025Z AUTO 23004KT 10SM CLR 27/23 A3002 220 76 1700 230/04 RMK AO2 T02720228 PNO $
63870K0J4 0J420160729193011407/29/16 19:30:31  5-MIN K0J4 300030Z AUTO 23004KT 10SM CLR 27/23 A3002 220 79 1700 230/04 RMK AO2 T02670228 PNO $
63870K0J4 0J420160729193511407/29/16 19:35:31  5-MIN K0J4 300035Z AUTO 23005KT 10SM CLR 27/23 A3003 220 79 1700 230/05 RMK AO2 T02670228 PNO $
63870K0J4 0J420160729194011407/29/16 19:40:31  5-MIN K0J4 300040Z AUTO 22006KT 10SM CLR 27/23 A3003 220 79 1700 220/06 RMK AO2 T02670228 PNO $
63870K0J4 0J420160729194511407/29/16 19:45:31  5-MIN K0J4 300045Z AUTO 22004KT 10SM CLR 27/23 A3003 220 79 1700 220/04 RMK AO2 T02670228 PNO $
63870K0J4 0J420160729195011407/29/16 19:50:31  5-MIN K0J4 300050Z AUTO 21004KT 10SM CLR 27/23 A3003 220 79 1700 210/04 RMK AO2 T02670228 PNO $
63870K0J4 0J420160729195512107/29/16 19:55:31  5-MIN K0J4 300055Z AUTO 19003KT 10SM CLR 27/23 A3003 220 79 1700 190/03 RMK AO2 SLP163 T02670228 PNO $
63870K0J4 0J420160729200011407/29/16 20:00:31  5-MIN K0J4 300100Z AUTO 19003KT 10SM CLR 26/23 A3003 220 84 1600 190/03 RMK AO2 T02610233 PNO $
63870K0J4 0J420160729200511407/29/16 20:05:31  5-MIN K0J4 300105Z AUTO 21003KT 10SM CLR 26/23 A3002 220 84 1600 210/03 RMK AO2 T02610233 PNO $
63870K0J4 0J420160729201011407/29/16 20:10:31  5-MIN K0J4 300110Z AUTO 23003KT 10SM CLR 26/23 A3003 220 84 1600 230/03 RMK AO2 T02610233 PNO $
63870K0J4 0J420160729201511407/29/16 20:15:31  5-MIN K0J4 300115Z AUTO 20003KT 10SM CLR 26/23 A3002 220 81 1600 200/03 RMK AO2 T02610228 PNO $
63870K0J4 0J420160729202011407/29/16 20:20:31  5-MIN K0J4 300120Z AUTO 21004KT 10SM CLR 26/23 A3003 220 81 1600 210/04 RMK AO2 T02610228 PNO $
63870K0J4 0J420160729202511407/29/16 20:25:31  5-MIN K0J4 300125Z AUTO 20004KT 10SM CLR 26/23 A3003 220 87 1500 200/04 RMK AO2 T02560233 PNO $
63870K0J4 0J420160729203011407/29/16 20:30:31  5-MIN K0J4 300130Z AUTO VRB03KT 10SM CLR 26/23 A3003 220 87 1500 VRB/03 RMK AO2 T02560233 PNO $
63870K0J4 0J420160729203511407/29/16 20:35:31  5-MIN K0J4 300135Z AUTO 21003KT 10SM CLR 26/23 A3003 220 84 1500 210/03 RMK AO2 T02560228 PNO $
63870K0J4 0J420160729204011407/29/16 20:40:31  5-MIN K0J4 300140Z AUTO 00000KT 10SM CLR 26/23 A3003 210 84 1500 000/00 RMK AO2 T02560228 PNO $
63870K0J4 0J420160729204511407/29/16 20:45:31  5-MIN K0J4 300145Z AUTO 00000KT 10SM CLR 26/23 A3003 210 84 1500 000/00 RMK AO2 T02560228 PNO $
63870K0J4 0J420160729205011407/29/16 20:50:31  5-MIN K0J4 300150Z AUTO 21003KT 10SM CLR 26/23 A3003 210 84 1500 210/03 RMK AO2 T02560228 PNO $
63870K0J4 0J420160729205512107/29/16 20:55:31  5-MIN K0J4 300155Z AUTO 19003KT 10SM CLR 26/23 A3003 210 84 1500 190/03 RMK AO2 SLP166 T02560228 PNO $
63870K0J4 0J420160729210011407/29/16 21:00:31  5-MIN K0J4 300200Z AUTO 00000KT 10SM CLR 26/23 A3004 210 84 1500 000/00 RMK AO2 T02560228 PNO $
63870K0J4 0J420160729210511407/29/16 21:05:31  5-MIN K0J4 300205Z AUTO 00000KT 10SM CLR 25/23 A3004 200 87 1400 000/00 RMK AO2 T02500228 PNO $
63870K0J4 0J420160729211011407/29/16 21:10:31  5-MIN K0J4 300210Z AUTO 00000KT 10SM CLR 25/23 A3005 200 87 1400 000/00 RMK AO2 T02500228 PNO $
63870K0J4 0J420160729211511407/29/16 21:15:31  5-MIN K0J4 300215Z AUTO 00000KT 10SM CLR 25/23 A3005 200 87 1400 000/00 RMK AO2 T02500228 PNO $
63870K0J4 0J420160729212011407/29/16 21:20:31  5-MIN K0J4 300220Z AUTO 00000KT 10SM CLR 25/23 A3005 190 87 1400 000/00 RMK AO2 T02500228 PNO $
63870K0J4 0J420160729212511407/29/16 21:25:31  5-MIN K0J4 300225Z AUTO 00000KT 10SM CLR 25/23 A3005 190 87 1400 000/00 RMK AO2 T02500228 PNO $
63870K0J4 0J420160729213011407/29/16 21:30:31  5-MIN K0J4 300230Z AUTO 00000KT 10SM CLR 25/23 A3005 190 87 1400 000/00 RMK AO2 T02500228 PNO $
63870K0J4 0J420160729213511407/29/16 21:35:31  5-MIN K0J4 300235Z AUTO 00000KT 10SM CLR 25/23 A3006 190 87 1400 000/00 RMK AO2 T02500228 PNO $
63870K0J4 0J420160729214011407/29/16 21:40:31  5-MIN K0J4 300240Z AUTO 00000KT 10SM CLR 25/23 A3006 190 87 1400 000/00 RMK AO2 T02500228 PNO $
63870K0J4 0J420160729214511407/29/16 21:45:31  5-MIN K0J4 300245Z AUTO 00000KT 10SM CLR 24/23 A3006 190 90 1400 000/00 RMK AO2 T02440228 PNO $
63870K0J4 0J420160729215011407/29/16 21:50:31  5-MIN K0J4 300250Z AUTO 00000KT 10SM CLR 24/23 A3006 190 90 1400 000/00 RMK AO2 T02440228 PNO $
63870K0J4 0J420160729215513307/29/16 21:55:31  5-MIN K0J4 300255Z AUTO 00000KT 10SM CLR 24/23 A3006 190 90 1400 000/00 RMK AO2 SLP174 6//// T02440228 55006 PNO $
63870K0J4 0J420160729220011407/29/16 22:00:31  5-MIN K0J4 300300Z AUTO 00000KT 10SM CLR 24/23 A3006 190 90 1400 000/00 RMK AO2 T02440228 PNO $
63870K0J4 0J420160729220511407/29/16 22:05:31  5-MIN K0J4 300305Z AUTO 00000KT 10SM CLR 24/23 A3006 190 90 1400 000/00 RMK AO2 T02440228 PNO $
63870K0J4 0J420160729221011407/29/16 22:10:31  5-MIN K0J4 300310Z AUTO 00000KT 10SM CLR 24/23 A3006 190 90 1400 000/00 RMK AO2 T02440228 PNO $
63870K0J4 0J420160729221511407/29/16 22:15:31  5-MIN K0J4 300315Z AUTO 00000KT 10SM CLR 24/23 A3006 190 90 1400 000/00 RMK AO2 T02440228 PNO $
63870K0J4 0J420160729222011407/29/16 22:20:31  5-MIN K0J4 300320Z AUTO 00000KT 10SM CLR 24/23 A3006 190 90 1400 000/00 RMK AO2 T02440228 PNO $
63870K0J4 0J420160729222511407/29/16 22:25:31  5-MIN K0J4 300325Z AUTO 00000KT 10SM CLR 24/23 A3006 190 93 1300 000/00 RMK AO2 T02390228 PNO $
63870K0J4 0J420160729223011407/29/16 22:30:31  5-MIN K0J4 300330Z AUTO 22003KT 10SM CLR 24/23 A3006 190 93 1300 220/03 RMK AO2 T02390228 PNO $
63870K0J4 0J420160729223511407/29/16 22:35:31  5-MIN K0J4 300335Z AUTO 00000KT 10SM CLR 24/23 A3006 190 93 1300 000/00 RMK AO2 T02390228 PNO $
63870K0J4 0J420160729224011407/29/16 22:40:31  5-MIN K0J4 300340Z AUTO 00000KT 10SM CLR 24/23 A3005 190 93 1300 000/00 RMK AO2 T02390228 PNO $
63870K0J4 0J420160729224511407/29/16 22:45:31  5-MIN K0J4 300345Z AUTO 00000KT 10SM CLR 24/23 A3005 190 93 1300 000/00 RMK AO2 T02390228 PNO $
63870K0J4 0J420160729225011407/29/16 22:50:31  5-MIN K0J4 300350Z AUTO 00000KT 10SM CLR 24/23 A3005 200 93 1300 000/00 RMK AO2 T02390228 PNO $
63870K0J4 0J420160729225512107/29/16 22:55:31  5-MIN K0J4 300355Z AUTO 00000KT 10SM CLR 24/23 A3005 200 93 1300 000/00 RMK AO2 SLP171 T02390228 PNO $
63870K0J4 0J420160729230011407/29/16 23:00:31  5-MIN K0J4 300400Z AUTO 00000KT 10SM CLR 24/22 A3005 200 90 1300 000/00 RMK AO2 T02390222 PNO $
63870K0J4 0J420160729230511407/29/16 23:05:31  5-MIN K0J4 300405Z AUTO 23003KT 10SM CLR 24/23 A3005 200 93 1300 230/03 RMK AO2 T02390228 PNO $
63870K0J4 0J420160729231011407/29/16 23:10:31  5-MIN K0J4 300410Z AUTO 00000KT 10SM CLR 24/23 A3005 200 93 1300 000/00 RMK AO2 T02390228 PNO $
63870K0J4 0J420160729231511407/29/16 23:15:31  5-MIN K0J4 300415Z AUTO 00000KT 10SM CLR 24/22 A3005 200 90 1300 000/00 RMK AO2 T02390222 PNO $
63870K0J4 0J420160729232011407/29/16 23:20:31  5-MIN K0J4 300420Z AUTO 00000KT 10SM CLR 24/22 A3005 200 90 1300 000/00 RMK AO2 T02390222 PNO $
63870K0J4 0J420160729232511407/29/16 23:25:31  5-MIN K0J4 300425Z AUTO 00000KT 10SM CLR 24/22 A3005 200 90 1300 000/00 RMK AO2 T02390222 PNO $
63870K0J4 0J420160729233011407/29/16 23:30:31  5-MIN K0J4 300430Z AUTO 00000KT 10SM CLR 23/22 A3005 190 93 1200 000/00 RMK AO2 T02330222 PNO $
63870K0J4 0J420160729233511407/29/16 23:35:31  5-MIN K0J4 300435Z AUTO 00000KT 10SM CLR 23/22 A3005 200 93 1200 000/00 RMK AO2 T02330222 PNO $
63870K0J4 0J420160729234011407/29/16 23:40:31  5-MIN K0J4 300440Z AUTO 00000KT 10SM CLR 23/22 A3005 200 93 1300 000/00 RMK AO2 T02330222 PNO $
63870K0J4 0J420160729234511407/29/16 23:45:31  5-MIN K0J4 300445Z AUTO 00000KT 10SM CLR 23/22 A3005 200 93 1300 000/00 RMK AO2 T02330222 PNO $
63870K0J4 0J420160729235011407/29/16 23:50:31  5-MIN K0J4 300450Z AUTO 00000KT 10SM CLR 23/22 A3005 200 93 1300 000/00 RMK AO2 T02330222 PNO $
63870K0J4 0J420160729235513107/29/16 23:55:31  5-MIN K0J4 300455Z AUTO 00000KT 10SM CLR 23/22 A3005 200 93 1300 000/00 RMK AO2 SLP171 T02330222 403280222 PNO $
63870K0J4 0J420160730000011407/30/16 00:00:31  5-MIN K0J4 300500Z AUTO 00000KT 10SM CLR 23/22 A3005 200 93 1300 000/00 RMK AO2 T02330222 PNO $
63870K0J4 0J420160730000511407/30/16 00:05:31  5-MIN K0J4 300505Z AUTO 00000KT 10SM CLR 23/22 A3005 200 93 1300 000/00 RMK AO2 T02330222 PNO $
63870K0J4 0J420160730001011407/30/16 00:10:31  5-MIN K0J4 300510Z AUTO 00000KT 10SM CLR 23/22 A3005 200 93 1300 000/00 RMK AO2 T02330222 PNO $
63870K0J4 0J420160730001511407/30/16 00:15:31  5-MIN K0J4 300515Z AUTO 00000KT 10SM CLR 23/22 A3005 200 93 1200 000/00 RMK AO2 T02280217 PNO $
63870K0J4 0J420160730002011407/30/16 00:20:31  5-MIN K0J4 300520Z AUTO 00000KT 10SM CLR 23/22 A3005 200 93 1300 000/00 RMK AO2 T02330222 PNO $
63870K0J4 0J420160730002511407/30/16 00:25:31  5-MIN K0J4 300525Z AUTO 00000KT 10SM CLR 23/22 A3005 200 93 1300 000/00 RMK AO2 T02330222 PNO $
63870K0J4 0J420160730003011407/30/16 00:30:31  5-MIN K0J4 300530Z AUTO 00000KT 10SM CLR 23/22 A3005 200 93 1300 000/00 RMK AO2 T02330222 PNO $
63870K0J4 0J420160730003511407/30/16 00:35:31  5-MIN K0J4 300535Z AUTO 00000KT 10SM CLR 23/22 A3005 200 93 1300 000/00 RMK AO2 T02330222 PNO $
63870K0J4 0J420160730004011407/30/16 00:40:31  5-MIN K0J4 300540Z AUTO 00000KT 10SM CLR 23/22 A3005 200 93 1300 000/00 RMK AO2 T02330222 PNO $
63870K0J4 0J420160730004511407/30/16 00:45:31  5-MIN K0J4 300545Z AUTO 22003KT 10SM CLR 23/22 A3004 200 93 1300 220/03 RMK AO2 T02330222 PNO $
63870K0J4 0J420160730005011407/30/16 00:50:31  5-MIN K0J4 300550Z AUTO 22003KT 10SM CLR 23/22 A3004 200 97 1200 220/03 RMK AO2 T02280222 PNO $
63870K0J4 0J420160730005514507/30/16 00:55:31  5-MIN K0J4 300555Z AUTO 00000KT 10SM CLR 23/22 A3004 210 93 1200 000/00 RMK AO2 SLP167 6//// T02280217 10278 20228 53015 PNO $
63870K0J4 0J420160730010011407/30/16 01:00:31  5-MIN K0J4 300600Z AUTO 00000KT 10SM CLR 23/22 A3004 210 93 1300 000/00 RMK AO2 T02330222 PNO $
63870K0J4 0J420160730010511407/30/16 01:05:31  5-MIN K0J4 300605Z AUTO 00000KT 10SM CLR 23/22 A3004 210 93 1300 000/00 RMK AO2 T02330222 PNO $
63870K0J4 0J420160730011011407/30/16 01:10:31  5-MIN K0J4 300610Z AUTO 20003KT 10SM CLR 23/22 A3004 210 93 1200 200/03 RMK AO2 T02280217 PNO $
63870K0J4 0J420160730011511407/30/16 01:15:31  5-MIN K0J4 300615Z AUTO 20003KT 10SM CLR 23/22 A3003 210 93 1200 200/03 RMK AO2 T02280217 PNO $
63870K0J4 0J420160730012011407/30/16 01:20:31  5-MIN K0J4 300620Z AUTO 21003KT 10SM CLR 23/22 A3003 210 93 1200 210/03 RMK AO2 T02280217 PNO $
63870K0J4 0J420160730012511407/30/16 01:25:31  5-MIN K0J4 300625Z AUTO 21004KT 10SM CLR 23/22 A3003 210 93 1300 210/04 RMK AO2 T02330222 PNO $
63870K0J4 0J420160730013011407/30/16 01:30:31  5-MIN K0J4 300630Z AUTO 23003KT 10SM CLR 23/22 A3003 210 93 1300 230/03 RMK AO2 T02330222 PNO $
63870K0J4 0J420160730013511407/30/16 01:35:31  5-MIN K0J4 300635Z AUTO 00000KT 10SM CLR 23/22 A3003 210 93 1300 000/00 RMK AO2 T02330222 PNO $
63870K0J4 0J420160730014011407/30/16 01:40:31  5-MIN K0J4 300640Z AUTO 22004KT 10SM CLR 23/22 A3003 210 93 1300 220/04 RMK AO2 T02330222 PNO $
63870K0J4 0J420160730014511407/30/16 01:45:31  5-MIN K0J4 300645Z AUTO 23003KT 10SM CLR 24/22 A3003 220 90 1300 230/03 RMK AO2 T02390222 PNO $
63870K0J4 0J420160730015011407/30/16 01:50:31  5-MIN K0J4 300650Z AUTO 22004KT 10SM CLR 24/22 A3003 220 90 1300 220/04 RMK AO2 T02390222 PNO $
63870K0J4 0J420160730015512107/30/16 01:55:31  5-MIN K0J4 300655Z AUTO 22003KT 10SM CLR 23/22 A3003 220 93 1300 220/03 RMK AO2 SLP163 T02330222 PNO $
63870K0J4 0J420160730020011407/30/16 02:00:31  5-MIN K0J4 300700Z AUTO 23003KT 10SM CLR 23/22 A3003 220 93 1300 230/03 RMK AO2 T02330222 PNO $
63870K0J4 0J420160730020511407/30/16 02:05:31  5-MIN K0J4 300705Z AUTO 00000KT 10SM CLR 24/22 A3003 220 90 1300 000/00 RMK AO2 T02390222 PNO $
63870K0J4 0J420160730021011407/30/16 02:10:31  5-MIN K0J4 300710Z AUTO 00000KT 10SM CLR 23/22 A3002 220 93 1300 000/00 RMK AO2 T02330222 PNO $
63870K0J4 0J420160730021511407/30/16 02:15:31  5-MIN K0J4 300715Z AUTO 22003KT 10SM CLR 24/22 A3002 220 90 1300 220/03 RMK AO2 T02390222 PNO $
63870K0J4 0J420160730022011407/30/16 02:20:31  5-MIN K0J4 300720Z AUTO 00000KT 10SM CLR 23/22 A3002 220 93 1300 000/00 RMK AO2 T02330222 PNO $
63870K0J4 0J420160730022511407/30/16 02:25:31  5-MIN K0J4 300725Z AUTO 00000KT 10SM CLR 23/22 A3002 230 93 1300 000/00 RMK AO2 T02330222 PNO $
63870K0J4 0J420160730023011407/30/16 02:30:31  5-MIN K0J4 300730Z AUTO 00000KT 10SM CLR 23/22 A3002 230 93 1300 000/00 RMK AO2 T02330222 PNO $
63870K0J4 0J420160730023511407/30/16 02:35:31  5-MIN K0J4 300735Z AUTO 00000KT 10SM CLR 23/22 A3002 230 93 1300 000/00 RMK AO2 T02330222 PNO $
63870K0J4 0J420160730024011407/30/16 02:40:31  5-MIN K0J4 300740Z AUTO 00000KT 10SM CLR 23/22 A3002 230 93 1300 000/00 RMK AO2 T02330222 PNO $
63870K0J4 0J420160730024511407/30/16 02:45:31  5-MIN K0J4 300745Z AUTO 22003KT 10SM CLR 23/22 A3002 230 93 1300 220/03 RMK AO2 T02330222 PNO $
63870K0J4 0J420160730025011407/30/16 02:50:31  5-MIN K0J4 300750Z AUTO 00000KT 10SM CLR 24/22 A3002 230 90 1400 000/00 RMK AO2 T02390222 PNO $
63870K0J4 0J420160730025512107/30/16 02:55:31  5-MIN K0J4 300755Z AUTO 00000KT 10SM CLR 23/22 A3002 230 93 1300 000/00 RMK AO2 SLP160 T02330222 PNO $
63870K0J4 0J420160730030011407/30/16 03:00:31  5-MIN K0J4 300800Z AUTO 00000KT 10SM CLR 24/22 A3002 230 90 1300 000/00 RMK AO2 T02390222 PNO $
63870K0J4 0J420160730030511407/30/16 03:05:31  5-MIN K0J4 300805Z AUTO 00000KT 10SM CLR 23/22 A3002 230 93 1300 000/00 RMK AO2 T02330222 PNO $
63870K0J4 0J420160730031011407/30/16 03:10:31  5-MIN K0J4 300810Z AUTO 00000KT 10SM CLR 23/22 A3002 230 93 1300 000/00 RMK AO2 T02330222 PNO $
63870K0J4 0J420160730031511407/30/16 03:15:31  5-MIN K0J4 300815Z AUTO 00000KT 10SM CLR 23/22 A3002 230 93 1300 000/00 RMK AO2 T02330222 PNO $
63870K0J4 0J420160730032011407/30/16 03:20:31  5-MIN K0J4 300820Z AUTO 00000KT 10SM CLR 23/22 A3001 230 93 1300 000/00 RMK AO2 T02330222 PNO $
63870K0J4 0J420160730032511407/30/16 03:25:31  5-MIN K0J4 300825Z AUTO 00000KT 10SM CLR 23/22 A3001 230 93 1300 000/00 RMK AO2 T02330222 PNO $
63870K0J4 0J420160730033011407/30/16 03:30:31  5-MIN K0J4 300830Z AUTO 00000KT 10SM CLR 23/22 A3001 230 93 1300 000/00 RMK AO2 T02330222 PNO $
63870K0J4 0J420160730033511407/30/16 03:35:31  5-MIN K0J4 300835Z AUTO 00000KT 10SM CLR 23/22 A3001 230 93 1300 000/00 RMK AO2 T02330222 PNO $
63870K0J4 0J420160730034011407/30/16 03:40:31  5-MIN K0J4 300840Z AUTO 00000KT 10SM CLR 23/22 A3001 230 93 1300 000/00 RMK AO2 T02330222 PNO $
63870K0J4 0J420160730034511407/30/16 03:45:31  5-MIN K0J4 300845Z AUTO 00000KT 10SM CLR 23/22 A3001 230 93 1300 000/00 RMK AO2 T02330222 PNO $
63870K0J4 0J420160730035011407/30/16 03:50:31  5-MIN K0J4 300850Z AUTO 00000KT 10SM CLR 23/22 A3001 230 93 1300 000/00 RMK AO2 T02330222 PNO $
63870K0J4 0J420160730035513307/30/16 03:55:31  5-MIN K0J4 300855Z AUTO 00000KT 10SM CLR 23/22 A3001 230 93 1300 000/00 RMK AO2 SLP158 6//// T02330222 57007 PNO $
63870K0J4 0J420160730040011407/30/16 04:00:31  5-MIN K0J4 300900Z AUTO 00000KT 10SM CLR 23/22 A3001 230 93 1300 000/00 RMK AO2 T02330222 PNO $
63870K0J4 0J420160730040511407/30/16 04:05:31  5-MIN K0J4 300905Z AUTO 00000KT 10SM CLR 23/22 A3001 230 93 1300 000/00 RMK AO2 T02330222 PNO $
63870K0J4 0J420160730041011407/30/16 04:10:31  5-MIN K0J4 300910Z AUTO 00000KT 10SM CLR 23/22 A3001 230 93 1300 000/00 RMK AO2 T02330222 PNO $
63870K0J4 0J420160730041511407/30/16 04:15:31  5-MIN K0J4 300915Z AUTO 00000KT 10SM CLR 23/22 A3001 230 93 1300 000/00 RMK AO2 T02330222 PNO $
63870K0J4 0J420160730042011407/30/16 04:20:31  5-MIN K0J4 300920Z AUTO 00000KT 10SM CLR 23/22 A3002 230 93 1300 000/00 RMK AO2 T02330222 PNO $
63870K0J4 0J420160730042511407/30/16 04:25:31  5-MIN K0J4 300925Z AUTO 00000KT 10SM CLR 23/22 A3002 230 93 1300 000/00 RMK AO2 T02330222 PNO $
63870K0J4 0J420160730043011407/30/16 04:30:31  5-MIN K0J4 300930Z AUTO 00000KT 10SM CLR 24/23 A3002 230 93 1400 000/00 RMK AO2 T02390228 PNO $
63870K0J4 0J420160730043511407/30/16 04:35:31  5-MIN K0J4 300935Z AUTO 00000KT 10SM CLR 24/23 A3002 230 93 1300 000/00 RMK AO2 T02390228 PNO $
63870K0J4 0J420160730044011407/30/16 04:40:31  5-MIN K0J4 300940Z AUTO 00000KT 10SM CLR 24/23 A3002 230 93 1300 000/00 RMK AO2 T02390228 PNO $
63870K0J4 0J420160730044511407/30/16 04:45:31  5-MIN K0J4 300945Z AUTO 00000KT 10SM CLR 24/23 A3002 220 93 1300 000/00 RMK AO2 T02390228 PNO $
63870K0J4 0J420160730045011407/30/16 04:50:31  5-MIN K0J4 300950Z AUTO 00000KT 10SM CLR 23/22 A3002 220 93 1300 000/00 RMK AO2 T02330222 PNO $
63870K0J4 0J420160730045512107/30/16 04:55:31  5-MIN K0J4 300955Z AUTO 00000KT 10SM CLR 23/22 A3002 220 93 1300 000/00 RMK AO2 SLP161 T02330222 PNO $
63870K0J4 0J420160730050011407/30/16 05:00:31  5-MIN K0J4 301000Z AUTO 00000KT 10SM CLR 23/22 A3002 220 93 1300 000/00 RMK AO2 T02330222 PNO $
63870K0J4 0J420160730050511407/30/16 05:05:31  5-MIN K0J4 301005Z AUTO 00000KT 10SM CLR 23/22 A3002 220 93 1300 000/00 RMK AO2 T02330222 PNO $
63870K0J4 0J420160730051011407/30/16 05:10:31  5-MIN K0J4 301010Z AUTO 00000KT 10SM CLR 23/22 A3002 220 93 1300 000/00 RMK AO2 T02330222 PNO $
63870K0J4 0J420160730051511407/30/16 05:15:31  5-MIN K0J4 301015Z AUTO 00000KT 10SM CLR 23/22 A3003 220 93 1300 000/00 RMK AO2 T02330222 PNO $
63870K0J4 0J420160730052011707/30/16 05:20:31  5-MIN K0J4 301020Z AUTO 00000KT 10SM FEW002 23/22 A3003 220 93 1300 000/00 RMK AO2 T02330222 PNO $
63870K0J4 0J420160730052511707/30/16 05:25:31  5-MIN K0J4 301025Z AUTO 00000KT 10SM FEW002 23/22 A3003 220 93 1300 000/00 RMK AO2 T02330222 PNO $
63870K0J4 0J420160730053011407/30/16 05:30:31  5-MIN K0J4 301030Z AUTO 00000KT 10SM CLR 23/22 A3003 220 93 1300 000/00 RMK AO2 T02330222 PNO $
63870K0J4 0J420160730053511407/30/16 05:35:31  5-MIN K0J4 301035Z AUTO 00000KT 10SM CLR 23/22 A3003 210 93 1300 000/00 RMK AO2 T02330222 PNO $
63870K0J4 0J420160730054011407/30/16 05:40:31  5-MIN K0J4 301040Z AUTO 00000KT 10SM CLR 23/22 A3003 210 93 1300 000/00 RMK AO2 T02330222 PNO $
63870K0J4 0J420160730054511407/30/16 05:45:31  5-MIN K0J4 301045Z AUTO 00000KT 10SM CLR 23/22 A3003 210 93 1300 000/00 RMK AO2 T02330222 PNO $
63870K0J4 0J420160730055011407/30/16 05:50:31  5-MIN K0J4 301050Z AUTO 00000KT 10SM CLR 23/22 A3004 210 93 1300 000/00 RMK AO2 T02330222 PNO $
63870K0J4 0J420160730055512107/30/16 05:55:31  5-MIN K0J4 301055Z AUTO 00000KT 10SM CLR 23/22 A3004 210 93 1300 000/00 RMK AO2 SLP167 T02330222 PNO $
63870K0J4 0J420160730060011407/30/16 06:00:31  5-MIN K0J4 301100Z AUTO 00000KT 10SM CLR 23/22 A3004 210 93 1300 000/00 RMK AO2 T02330222 PNO $
63870K0J4 0J420160730060511407/30/16 06:05:31  5-MIN K0J4 301105Z AUTO 00000KT 10SM CLR 23/22 A3004 200 93 1300 000/00 RMK AO2 T02330222 PNO $
63870K0J4 0J420160730061011407/30/16 06:10:31  5-MIN K0J4 301110Z AUTO 00000KT 10SM CLR 23/22 A3004 200 93 1300 000/00 RMK AO2 T02330222 PNO $
63870K0J4 0J420160730061511307/30/16 06:15:31  5-MIN K0J4 301115Z AUTO 00000KT 9SM CLR 23/22 A3004 200 93 1300 000/00 RMK AO2 T02330222 PNO $
63870K0J4 0J420160730062011307/30/16 06:20:31  5-MIN K0J4 301120Z AUTO 00000KT 9SM CLR 23/22 A3005 200 93 1300 000/00 RMK AO2 T02330222 PNO $
63870K0J4 0J420160730062511407/30/16 06:25:31  5-MIN K0J4 301125Z AUTO 21003KT 10SM CLR 23/23 A3005 200 97 1300 210/03 RMK AO2 T02330228 PNO $
63870K0J4 0J420160730063011407/30/16 06:30:31  5-MIN K0J4 301130Z AUTO 21003KT 10SM CLR 23/23 A3005 200 97 1300 210/03 RMK AO2 T02330228 PNO $
63870K0J4 0J420160730063511407/30/16 06:35:31  5-MIN K0J4 301135Z AUTO 00000KT 10SM CLR 24/23 A3005 200 93 1300 000/00 RMK AO2 T02390228 PNO $
63870K0J4 0J420160730064011407/30/16 06:40:31  5-MIN K0J4 301140Z AUTO 00000KT 10SM CLR 24/23 A3005 190 93 1300 000/00 RMK AO2 T02390228 PNO $
63870K0J4 0J420160730064511407/30/16 06:45:31  5-MIN K0J4 301145Z AUTO 00000KT 10SM CLR 24/23 A3006 190 97 1300 000/00 RMK AO2 T02390233 PNO $
63870K0J4 0J420160730065011407/30/16 06:50:31  5-MIN K0J4 301150Z AUTO 00000KT 10SM CLR 24/23 A3006 190 93 1400 000/00 RMK AO2 T02440233 PNO $
63870K0J4 0J420160730065515107/30/16 06:55:31  5-MIN K0J4 301155Z AUTO 00000KT 10SM CLR 24/23 A3006 190 93 1400 000/00 RMK AO2 SLP174 6//// 7//// T02440233 10244 20228 56009 PNO $
63870K0J4 0J420160730070011407/30/16 07:00:31  5-MIN K0J4 301200Z AUTO 00000KT 10SM CLR 24/23 A3006 190 93 1400 000/00 RMK AO2 T02440233 PNO $
63870K0J4 0J420160730070511407/30/16 07:05:31  5-MIN K0J4 301205Z AUTO 00000KT 10SM CLR 24/23 A3006 180 93 1400 000/00 RMK AO2 T02440233 PNO $
63870K0J4 0J420160730071011407/30/16 07:10:31  5-MIN K0J4 301210Z AUTO 00000KT 10SM CLR 25/23 A3007 180 90 1400 000/00 RMK AO2 T02500233 PNO $
63870K0J4 0J420160730071511407/30/16 07:15:31  5-MIN K0J4 301215Z AUTO 00000KT 10SM CLR 25/23 A3007 180 90 1400 000/00 RMK AO2 T02500233 PNO $
63870K0J4 0J420160730072011407/30/16 07:20:31  5-MIN K0J4 301220Z AUTO 22003KT 10SM CLR 25/23 A3007 180 90 1400 220/03 RMK AO2 T02500233 PNO $
63870K0J4 0J420160730072511407/30/16 07:25:31  5-MIN K0J4 301225Z AUTO VRB03KT 10SM CLR 26/23 A3007 180 87 1500 VRB/03 RMK AO2 T02560233 PNO $
63870K0J4 0J420160730073011407/30/16 07:30:31  5-MIN K0J4 301230Z AUTO VRB03KT 10SM CLR 26/24 A3007 180 90 1500 VRB/03 RMK AO2 T02560239 PNO $
63870K0J4 0J420160730073511407/30/16 07:35:31  5-MIN K0J4 301235Z AUTO 00000KT 10SM CLR 26/24 A3007 180 87 1500 000/00 RMK AO2 T02610239 PNO $
63870K0J4 0J420160730074011407/30/16 07:40:31  5-MIN K0J4 301240Z AUTO 00000KT 10SM CLR 26/24 A3007 180 87 1500 000/00 RMK AO2 T02610239 PNO $
63870K0J4 0J420160730074511407/30/16 07:45:31  5-MIN K0J4 301245Z AUTO 00000KT 10SM CLR 27/24 A3007 180 84 1600 000/00 RMK AO2 T02670239 PNO $
63870K0J4 0J420160730075011407/30/16 07:50:31  5-MIN K0J4 301250Z AUTO 00000KT 10SM CLR 27/24 A3007 180 84 1600 000/00 RMK AO2 T02670239 PNO $
63870K0J4 0J420160730075512107/30/16 07:55:31  5-MIN K0J4 301255Z AUTO VRB03KT 10SM CLR 27/24 A3007 180 84 1600 VRB/03 RMK AO2 SLP179 T02670239 PNO $
63870K0J4 0J420160730080011407/30/16 08:00:31  5-MIN K0J4 301300Z AUTO VRB03KT 10SM CLR 27/24 A3007 170 82 1700 VRB/03 RMK AO2 T02720239 PNO $
63870K0J4 0J420160730080511407/30/16 08:05:31  5-MIN K0J4 301305Z AUTO 00000KT 10SM CLR 28/24 A3008 170 79 1700 000/00 RMK AO2 T02780239 PNO $
63870K0J4 0J420160730081011407/30/16 08:10:31  5-MIN K0J4 301310Z AUTO VRB03KT 10SM CLR 28/24 A3008 170 82 1700 VRB/03 RMK AO2 T02780244 PNO $
63870K0J4 0J420160730081511407/30/16 08:15:31  5-MIN K0J4 301315Z AUTO VRB03KT 10SM CLR 28/24 A3008 170 79 1700 VRB/03 RMK AO2 T02780239 PNO $
63870K0J4 0J420160730082011407/30/16 08:20:31  5-MIN K0J4 301320Z AUTO 00000KT 10SM CLR 28/24 A3008 170 79 1800 000/00 RMK AO2 T02830244 PNO $
63870K0J4 0J420160730082511407/30/16 08:25:31  5-MIN K0J4 301325Z AUTO VRB03KT 10SM CLR 28/24 A3008 170 76 1800 VRB/03 RMK AO2 T02830239 PNO $
63870K0J4 0J420160730083011407/30/16 08:30:31  5-MIN K0J4 301330Z AUTO VRB03KT 10SM CLR 28/24 A3008 170 76 1800 VRB/03 RMK AO2 T02830239 PNO $
63870K0J4 0J420160730083511407/30/16 08:35:31  5-MIN K0J4 301335Z AUTO VRB04KT 10SM CLR 29/24 A3008 170 74 1800 VRB/04 RMK AO2 T02890239 PNO $
63870K0J4 0J420160730084011407/30/16 08:40:31  5-MIN K0J4 301340Z AUTO VRB04KT 10SM CLR 28/24 A3008 170 76 1800 VRB/04 RMK AO2 T02830239 PNO $
63870K0J4 0J420160730084511407/30/16 08:45:31  5-MIN K0J4 301345Z AUTO VRB03KT 10SM CLR 29/24 A3008 170 74 1800 VRB/03 RMK AO2 T02890239 PNO $
63870K0J4 0J420160730085011407/30/16 08:50:31  5-MIN K0J4 301350Z AUTO VRB04KT 10SM CLR 29/24 A3008 170 74 1800 VRB/04 RMK AO2 T02890239 PNO $
63870K0J4 0J420160730085512107/30/16 08:55:31  5-MIN K0J4 301355Z AUTO VRB03KT 10SM CLR 29/24 A3008 170 71 1900 VRB/03 RMK AO2 SLP181 T02940239 PNO $
63870K0J4 0J420160730090011407/30/16 09:00:31  5-MIN K0J4 301400Z AUTO VRB05KT 10SM CLR 29/24 A3008 170 71 1900 VRB/05 RMK AO2 T02940239 PNO $
63870K0J4 0J420160730090511407/30/16 09:05:31  5-MIN K0J4 301405Z AUTO VRB04KT 10SM CLR 29/24 A3008 170 71 1900 VRB/04 RMK AO2 T02940239 PNO $
63870K0J4 0J420160730091011407/30/16 09:10:31  5-MIN K0J4 301410Z AUTO 34006KT 10SM CLR 29/24 A3008 170 71 1900 340/06 RMK AO2 T02940239 PNO $
63870K0J4 0J420160730091511407/30/16 09:15:31  5-MIN K0J4 301415Z AUTO VRB04KT 10SM CLR 29/24 A3008 170 71 1900 VRB/04 RMK AO2 T02940239 PNO $
63870K0J4 0J420160730092011407/30/16 09:20:31  5-MIN K0J4 301420Z AUTO VRB04KT 10SM CLR 29/24 A3008 170 71 1900 VRB/04 RMK AO2 T02940239 PNO $
63870K0J4 0J420160730092511407/30/16 09:25:31  5-MIN K0J4 301425Z AUTO VRB05KT 10SM CLR 29/24 A3009 160 71 1900 VRB/05 RMK AO2 T02940239 PNO $
63870K0J4 0J420160730093011407/30/16 09:30:31  5-MIN K0J4 301430Z AUTO VRB04KT 10SM CLR 29/24 A3009 160 71 1900 VRB/04 RMK AO2 T02940239 PNO $
63870K0J4 0J420160730093511407/30/16 09:35:31  5-MIN K0J4 301435Z AUTO VRB04KT 10SM CLR 29/24 A3009 160 71 1900 VRB/04 RMK AO2 T02940239 PNO $
63870K0J4 0J420160730094011407/30/16 09:40:31  5-MIN K0J4 301440Z AUTO VRB03KT 10SM CLR 30/24 A3009 160 69 2000 VRB/03 RMK AO2 T03000239 PNO $
63870K0J4 0J420160730094511407/30/16 09:45:31  5-MIN K0J4 301445Z AUTO VRB03KT 10SM CLR 30/24 A3009 160 69 2000 VRB/03 RMK AO2 T03000239 PNO $
63870K0J4 0J420160730095011407/30/16 09:50:31  5-MIN K0J4 301450Z AUTO VRB03KT 10SM CLR 30/24 A3008 170 72 2000 VRB/03 RMK AO2 T03000244 PNO $
63870K0J4 0J420160730095513307/30/16 09:55:31  5-MIN K0J4 301455Z AUTO VRB05KT 10SM CLR 30/24 A3008 160 69 2000 VRB/05 RMK AO2 SLP183 6//// T03000239 53017 PNO $
63870K0J4 0J420160730100011407/30/16 10:00:31  5-MIN K0J4 301500Z AUTO 00000KT 10SM CLR 30/24 A3008 170 69 2000 000/00 RMK AO2 T03000239 PNO $
63870K0J4 0J420160730100511707/30/16 10:05:31  5-MIN K0J4 301505Z AUTO VRB04KT 10SM FEW019 31/24 A3008 160 67 2000 VRB/04 RMK AO2 T03060239 PNO $
63870K0J4 0J420160730101011707/30/16 10:10:31  5-MIN K0J4 301510Z AUTO VRB04KT 10SM FEW019 30/24 A3009 160 69 2000 VRB/04 RMK AO2 T03000239 PNO $
63870K0J4 0J420160730101511707/30/16 10:15:31  5-MIN K0J4 301515Z AUTO VRB03KT 10SM FEW019 30/23 A3009 160 67 2000 VRB/03 RMK AO2 T03000233 PNO $
63870K0J4 0J420160730102011707/30/16 10:20:31  5-MIN K0J4 301520Z AUTO VRB04KT 10SM FEW020 31/24 A3009 160 67 2000 VRB/04 RMK AO2 T03060239 PNO $
63870K0J4 0J420160730102511707/30/16 10:25:31  5-MIN K0J4 301525Z AUTO VRB05KT 10SM FEW020 31/23 A3009 160 63 2100 VRB/05 RMK AO2 T03110233 PNO $
63870K0J4 0J420160730103011507/30/16 10:30:31  5-MIN K0J4 301530Z AUTO 00000KT 10SM FEW022 31/24 A3009 160 65 2100 000/00 RMK AO2 T03110239 PNO
63870K0J4 0J420160730103511107/30/16 10:35:31  5-MIN K0J4 301535Z AUTO 00000KT 10SM SCT024 31/24 A3009 160 65 2100 000/00 RMK AO2 T03110239
63870K0J4 0J420160730104011107/30/16 10:40:31  5-MIN K0J4 301540Z AUTO 00000KT 10SM SCT026 31/24 A3009 160 67 2000 000/00 RMK AO2 T03060239
63870K0J4 0J420160730104511807/30/16 10:45:31  5-MIN K0J4 301545Z AUTO VRB03KT 10SM BKN026 BKN037 30/23 A3009 160 67 2000 VRB/03 RMK AO2 T03000233
63870K0J4 0J420160730105011107/30/16 10:50:31  5-MIN K0J4 301550Z AUTO 00000KT 10SM BKN026 30/23 A3009 160 67 2000 000/00 RMK AO2 T03000233
63870K0J4 0J420160730105510107/30/16 10:55:31  5-MIN K0J4 301555Z AUTO VRB04KT 10SM SCT026 31/23 A3009 160 63 2100 VRB/04 RMK AO2
63870K0J4 0J420160730110011107/30/16 11:00:31  5-MIN K0J4 301600Z AUTO VRB04KT 10SM SCT026 32/23 A3009 160 59 2200 VRB/04 RMK AO2 T03220233
63870K0J4 0J420160730110512507/30/16 11:05:31  5-MIN K0J4 301605Z AUTO VRB03KT 10SM FEW026 SCT060 SCT075 31/22 A3008 160 58 2100 VRB/03 RMK AO2 T03110222
63870K0J4 0J420160730111012507/30/16 11:10:31  5-MIN K0J4 301610Z AUTO VRB04KT 10SM FEW026 SCT039 BKN075 32/23 A3008 170 58 2100 VRB/04 RMK AO2 T03170228
63870K0J4 0J420160730111512507/30/16 11:15:31  5-MIN K0J4 301615Z AUTO VRB04KT 10SM SCT032 SCT039 BKN075 31/23 A3008 170 65 2000 VRB/04 RMK AO2 T03060233
63870K0J4 0J420160730112011807/30/16 11:20:31  5-MIN K0J4 301620Z AUTO 00000KT 10SM SCT032 SCT075 31/23 A3008 170 63 2100 000/00 RMK AO2 T03110233
63870K0J4 0J420160730112511807/30/16 11:25:31  5-MIN K0J4 301625Z AUTO 00000KT 10SM FEW032 SCT070 31/23 A3008 170 60 2100 000/00 RMK AO2 T03110228
63870K0J4 0J420160730113011807/30/16 11:30:31  5-MIN K0J4 301630Z AUTO VRB04KT 10SM FEW033 SCT070 32/23 A3008 170 59 2200 VRB/04 RMK AO2 T03220233
63870K0J4 0J420160730113511807/30/16 11:35:31  5-MIN K0J4 301635Z AUTO 00000KT 10SM FEW033 SCT075 32/23 A3008 170 57 2200 000/00 RMK AO2 T03220228
63870K0J4 0J420160730114011807/30/16 11:40:31  5-MIN K0J4 301640Z AUTO 04004KT 10SM FEW033 FEW075 33/23 A3007 180 57 2300 040/04 RMK AO2 T03280233
63870K0J4 0J420160730114511807/30/16 11:45:31  5-MIN K0J4 301645Z AUTO VRB03KT 10SM FEW035 SCT070 32/23 A3007 180 58 2200 VRB/03 RMK AO2 T03170228
63870K0J4 0J420160730115011107/30/16 11:50:31  5-MIN K0J4 301650Z AUTO VRB03KT 10SM SCT035 31/22 A3007 180 58 2100 VRB/03 RMK AO2 T03110222
63870K0J4 0J420160730115513207/30/16 11:55:31  5-MIN K0J4 301655Z AUTO 00000KT 10SM FEW035 SCT043 SCT070 32/22 A3007 180 53 2200 000/00 RMK AO2 SLP177 T03220217
63870K0J4 0J420160730120012507/30/16 12:00:31  5-MIN K0J4 301700Z AUTO VRB03KT 10SM FEW035 SCT070 BKN085 32/22 A3007 180 55 2200 VRB/03 RMK AO2 T03220222
63870K0J4 0J420160730120512507/30/16 12:05:31  5-MIN K0J4 301705Z AUTO 22005KT 10SM FEW037 SCT060 BKN070 32/22 A3007 180 56 2200 220/05 RMK AO2 T03170222
63870K0J4 0J420160730121012507/30/16 12:10:31  5-MIN K0J4 301710Z AUTO 26004KT 10SM FEW035 SCT050 BKN070 32/22 A3007 180 56 2200 260/04 RMK AO2 T03170222
63870K0J4 0J420160730121512507/30/16 12:15:31  5-MIN K0J4 301715Z AUTO 25003KT 10SM SCT037 BKN055 BKN070 32/22 A3007 180 56 2200 250/03 RMK AO2 T03170222
63870K0J4 0J420160730122012407/30/16 12:20:31  5-MIN K0J4 301720Z AUTO 00000KT 9SM FEW037 BKN050 OVC090 31/22 A3007 180 58 2100 000/00 RMK AO2 T03110222
63870K0J4 0J420160730122514007/30/16 12:25:31  5-MIN K0J4 301725Z AUTO 00000KT 8SM -RA FEW037 BKN075 OVC100 30/23 A3007 180 67 2000 000/00 RMK AO2 RAB21 P0000 T03000233
63870K0J4 0J420160730123014007/30/16 12:30:31  5-MIN K0J4 301730Z AUTO 00000KT 8SM -RA FEW033 SCT050 BKN075 29/24 A3007 180 71 1900 000/00 RMK AO2 RAB21 P0000 T02940239
63870K0J4 0J420160730123514107/30/16 12:35:31  5-MIN K0J4 301735Z AUTO 00000KT 10SM -RA FEW025 SCT050 BKN075 29/24 A3007 180 71 1900 000/00 RMK AO2 RAB21 P0000 T02940239
63870K0J4 0J420160730124014007/30/16 12:40:31  5-MIN K0J4 301740Z AUTO 00000KT 10SM FEW030 SCT050 SCT075 30/24 A3007 180 72 2000 000/00 RMK AO2 RAB21E38 P0000 T03000244
63870K0J4 0J420160730124514007/30/16 12:45:31  5-MIN K0J4 301745Z AUTO VRB03KT 10SM FEW032 FEW075 SCT100 32/24 A3006 180 63 2200 VRB/03 RMK AO2 RAB21E38 P0000 T03170239
63870K0J4 0J420160730125013307/30/16 12:50:31  5-MIN K0J4 301750Z AUTO 23004KT 10SM FEW030 FEW095 31/23 A3006 190 60 2100 230/04 RMK AO2 RAB21E38 P0000 T03110228
63870K0J4 0J420160730125515407/30/16 12:55:31  5-MIN K0J4 301755Z AUTO VRB03KT 10SM CLR 32/23 A3006 190 59 2200 VRB/03 RMK AO2 RAB21E38 SLP173 P0000 6//// T03220233 10328 20244 51007
63870K0J4 0J420160730130010807/30/16 13:00:31  5-MIN K0J4 301800Z AUTO VRB03KT 10SM CLR 32/23 A3005 190 57 2200 VRB/03 RMK AO2 T03220228
63870K0J4 0J420160730130510807/30/16 13:05:31  5-MIN K0J4 301805Z AUTO 19005KT 10SM CLR 32/22 A3005 200 55 2200 190/05 RMK AO2 T03220222
63870K0J4 0J420160730131010807/30/16 13:10:31  5-MIN K0J4 301810Z AUTO 21004KT 10SM CLR 32/22 A3005 200 53 2200 210/04 RMK AO2 T03220217
63870K0J4 0J420160730131510807/30/16 13:15:31  5-MIN K0J4 301815Z AUTO 22006KT 10SM CLR 32/22 A3005 200 55 2200 220/06 RMK AO2 T03170217
63870K0J4 0J420160730132010807/30/16 13:20:31  5-MIN K0J4 301820Z AUTO 18005KT 10SM CLR 32/22 A3004 200 55 2200 180/05 RMK AO2 T03170217
63870K0J4 0J420160730132510807/30/16 13:25:31  5-MIN K0J4 301825Z AUTO 18003KT 10SM CLR 32/22 A3004 200 53 2300 180/03 RMK AO2 T03220217
63870K0J4 0J420160730133010807/30/16 13:30:31  5-MIN K0J4 301830Z AUTO 21004KT 10SM CLR 33/22 A3004 200 53 2300 210/04 RMK AO2 T03280222
63870K0J4 0J420160730133511107/30/16 13:35:31  5-MIN K0J4 301835Z AUTO 00000KT 10SM FEW065 32/22 A3004 200 53 2300 000/00 RMK AO2 T03220217
63870K0J4 0J420160730134011107/30/16 13:40:31  5-MIN K0J4 301840Z AUTO 00000KT 10SM FEW065 32/22 A3004 200 56 2200 000/00 RMK AO2 T03170222
63870K0J4 0J420160730134511807/30/16 13:45:31  5-MIN K0J4 301845Z AUTO 00000KT 10SM FEW041 SCT060 32/22 A3004 210 55 2200 000/00 RMK AO2 T03170217
63870K0J4 0J420160730135011807/30/16 13:50:31  5-MIN K0J4 301850Z AUTO 00000KT 10SM SCT041 BKN060 32/22 A3004 210 55 2200 000/00 RMK AO2 T03170217
63870K0J4 0J420160730135513207/30/16 13:55:31  5-MIN K0J4 301855Z AUTO 00000KT 10SM SCT041 BKN065 BKN080 31/23 A3004 210 60 2100 000/00 RMK AO2 SLP167 T03110228
63870K0J4 0J420160730140013007/30/16 14:00:31  5-MIN K0J4 301900Z AUTO 00000KT 10SM VCTS FEW039 SCT060 BKN080 32/23 A3003 210 58 2200 000/00 RMK AO2 T03170228
63870K0J4 0J420160730140513007/30/16 14:05:31  5-MIN K0J4 301905Z AUTO 00000KT 10SM VCTS FEW039 SCT060 BKN080 32/23 A3003 210 61 2200 000/00 RMK AO2 T03170233
63870K0J4 0J420160730141013007/30/16 14:10:31  5-MIN K0J4 301910Z AUTO 00000KT 10SM VCTS FEW040 SCT075 BKN090 33/23 A3003 210 55 2300 000/00 RMK AO2 T03280228
63870K0J4 0J420160730141513007/30/16 14:15:31  5-MIN K0J4 301915Z AUTO 00000KT 10SM VCTS FEW040 SCT075 BKN110 34/23 A3003 210 51 2400 000/00 RMK AO2 T03390228
63870K0J4 0J420160730142011807/30/16 14:20:31  5-MIN K0J4 301920Z AUTO 00000KT 10SM FEW080 SCT095 34/22 A3004 210 50 2400 000/00 RMK AO2 T03390222
63870K0J4 0J420160730142511807/30/16 14:25:31  5-MIN K0J4 301925Z AUTO VRB03KT 10SM FEW080 FEW100 33/22 A3003 210 51 2300 VRB/03 RMK AO2 T03280217
63870K0J4 0J420160730143011107/30/16 14:30:31  5-MIN K0J4 301930Z AUTO VRB03KT 10SM FEW100 33/22 A3003 210 50 2400 VRB/03 RMK AO2 T03330217
63870K0J4 0J420160730143510807/30/16 14:35:31  5-MIN K0J4 301935Z AUTO 21003KT 10SM CLR 33/22 A3003 210 51 2300 210/03 RMK AO2 T03280217
63870K0J4 0J420160730144011107/30/16 14:40:31  5-MIN K0J4 301940Z AUTO 00000KT 10SM SCT047 33/22 A3003 220 51 2300 000/00 RMK AO2 T03280217
63870K0J4 0J420160730144510807/30/16 14:45:31  5-MIN K0J4 301945Z AUTO 10SM SCT047 SCT070 33/23 A3002 220 55 2300 M /M RMK AO2 T03280228
63870K0J4 0J420160730145011807/30/16 14:50:31  5-MIN K0J4 301950Z AUTO 08005KT 10SM BKN046 BKN070 33/23 A3002 220 55 2300 080/05 RMK AO2 T03280228
63870K0J4 0J420160730145511807/30/16 14:55:31  5-MIN K0J4 301955Z AUTO 08005KT 10SM BKN046 32/23 A3002 220 57 2300 080/05 RMK AO2 SLP161 T03220228
63870K0J4 0J420160730150011107/30/16 15:00:31  5-MIN K0J4 302000Z AUTO 05003KT 10SM BKN045 32/22 A3002 220 55 2300 050/03 RMK AO2 T03220222
63870K0J4 0J420160730150511107/30/16 15:05:31  5-MIN K0J4 302005Z AUTO 00000KT 10SM BKN045 32/23 A3002 230 57 2300 000/00 RMK AO2 T03220228
63870K0J4 0J420160730151011807/30/16 15:10:31  5-MIN K0J4 302010Z AUTO 08004KT 10SM SCT045 SCT060 33/23 A3002 230 55 2300 080/04 RMK AO2 T03280228
63870K0J4 0J420160730151511107/30/16 15:15:31  5-MIN K0J4 302015Z AUTO 00000KT 10SM SCT045 33/23 A3001 230 53 2400 000/00 RMK AO2 T03330228
63870K0J4 0J420160730152011107/30/16 15:20:31  5-MIN K0J4 302020Z AUTO 00000KT 10SM SCT045 32/23 A3001 230 57 2300 000/00 RMK AO2 T03220228
63870K0J4 0J420160730152511107/30/16 15:25:31  5-MIN K0J4 302025Z AUTO 00000KT 10SM FEW045 33/23 A3001 230 55 2400 000/00 RMK AO2 T03280228
63870K0J4 0J420160730153011107/30/16 15:30:31  5-MIN K0J4 302030Z AUTO 22005KT 10SM FEW045 32/22 A3001 230 55 2300 220/05 RMK AO2 T03220222
63870K0J4 0J420160730153511107/30/16 15:35:31  5-MIN K0J4 302035Z AUTO 23005KT 10SM FEW045 32/23 A3001 230 57 2300 230/05 RMK AO2 T03220228
63870K0J4 0J420160730154011107/30/16 15:40:31  5-MIN K0J4 302040Z AUTO VRB03KT 10SM FEW038 32/22 A3002 230 56 2200 VRB/03 RMK AO2 T03170222
63870K0J4 0J420160730154510807/30/16 15:45:31  5-MIN K0J4 302045Z AUTO VRB03KT 10SM CLR 32/22 A3001 230 56 2200 VRB/03 RMK AO2 T03170222
63870K0J4 0J420160730155010807/30/16 15:50:31  5-MIN K0J4 302050Z AUTO 00000KT 10SM CLR 32/22 A3001 230 53 2300 000/00 RMK AO2 T03220217
63870K0J4 0J420160730155512107/30/16 15:55:31  5-MIN K0J4 302055Z AUTO 00000KT 10SM CLR 33/22 A3001 230 53 2400 000/00 RMK AO2 SLP158 T03280222 58010
63870K0J4 0J420160730160010807/30/16 16:00:31  5-MIN K0J4 302100Z AUTO 30004KT 10SM CLR 33/22 A3001 230 53 2400 300/04 RMK AO2 T03280222
63870K0J4 0J420160730160510807/30/16 16:05:31  5-MIN K0J4 302105Z AUTO 00000KT 10SM CLR 32/22 A3001 230 55 2300 000/00 RMK AO2 T03220222
63870K0J4 0J420160730161010807/30/16 16:10:31  5-MIN K0J4 302110Z AUTO 00000KT 10SM CLR 32/22 A3002 230 55 2300 000/00 RMK AO2 T03220222
63870K0J4 0J420160730161511107/30/16 16:15:31  5-MIN K0J4 302115Z AUTO 00000KT 10SM FEW085 32/22 A3002 230 55 2300 000/00 RMK AO2 T03220222
63870K0J4 0J420160730162013007/30/16 16:20:31  5-MIN K0J4 302120Z AUTO VRB06KT 10SM TS FEW050 SCT085 32/23 A3003 220 57 2300 VRB/06 RMK AO2 TSB19B20 T03220228
63870K0J4 0J420160730162513707/30/16 16:25:31  5-MIN K0J4 302125Z AUTO 21008KT 10SM TS FEW032 SCT048 BKN085 31/23 A3003 220 65 2100 210/08 RMK AO2 TSB19B20 T03060233
63870K0J4 0J420160730163013707/30/16 16:30:31  5-MIN K0J4 302130Z AUTO 21007KT 10SM TS SCT032 BKN048 BKN085 30/23 A3003 220 67 2000 210/07 RMK AO2 TSB19B20 T03000233
63870K0J4 0J420160730163513707/30/16 16:35:31  5-MIN K0J4 302135Z AUTO 21014KT 10SM TS SCT032 BKN050 BKN085 29/23 A3003 220 67 2000 210/14 RMK AO2 TSB19B20 T02940228
63870K0J4 0J420160730164014307/30/16 16:40:31  5-MIN K0J4 302140Z AUTO 19008G16KT 10SM TS SCT034 BKN042 BKN050 29/23 A3003 210 69 1900 190/08G16 RMK AO2 TSB19B20 T02890228
63870K0J4 0J420160730164513707/30/16 16:45:31  5-MIN K0J4 302145Z AUTO VRB04KT 10SM TS SCT034 BKN045 OVC120 29/23 A3004 210 69 1900 VRB/04 RMK AO2 TSB19B20 T02890228
63870K0J4 0J420160730165013707/30/16 16:50:31  5-MIN K0J4 302150Z AUTO 13006KT 10SM TS SCT034 BKN045 BKN120 29/23 A3004 200 71 1900 130/06 RMK AO2 TSB19B20 T02890233
63870K0J4 0J420160730165515007/30/16 16:55:31  5-MIN K0J4 302155Z AUTO 11009G16KT 10SM TS FEW032 BKN042 BKN050 28/23 A3005 200 74 1800 110/09G16 RMK AO2 TSB19B20 SLP171 T02830233
63870K0J4 0J420160730170013407/30/16 17:00:31  5-MIN K0J4 302200Z AUTO 14008G16KT 10SM TS SCT042 BKN050 BKN060 28/23 A3005 200 76 1800 140/08G16 RMK AO2 T02780233
63870K0J4 0J420160730170512807/30/16 17:05:31  5-MIN K0J4 302205Z AUTO 13004KT 10SM TS SCT042 BKN050 BKN120 28/23 A3004 200 76 1800 130/04 RMK AO2 T02780233
63870K0J4 0J420160730171012707/30/16 17:10:31  5-MIN K0J4 302210Z AUTO 16009KT 8SM TS FEW043 BKN050 BKN080 27/23 A3004 210 79 1700 160/09 RMK AO2 T02720233
63870K0J4 0J420160730171514207/30/16 17:15:31  5-MIN K0J4 302215Z AUTO 15008KT 4SM +TSRA SCT047 BKN060 OVC110 27/24 A3003 210 84 1600 150/08 RMK AO2 RAB11 P0000 T02670239
63870K0J4 0J420160730172014507/30/16 17:20:31  5-MIN K0J4 302220Z AUTO 13006KT 3SM -TSRA BR SCT037 BKN050 OVC100 27/24 A3003 210 87 1600 130/06 RMK AO2 RAB11 P0000 T02670244
63870K0J4 0J420160730172514207/30/16 17:25:31  5-MIN K0J4 302225Z AUTO VRB06KT 7SM -TSRA FEW034 BKN050 OVC085 27/24 A3003 210 82 1700 VRB/06 RMK AO2 RAB11 P0000 T02720239
63870K0J4 0J420160730173014307/30/16 17:30:31  5-MIN K0J4 302230Z AUTO 16006KT 10SM -TSRA FEW037 BKN055 OVC085 27/24 A3003 220 82 1700 160/06 RMK AO2 RAB11 P0000 T02720239
63870K0J4 0J420160730173514607/30/16 17:35:31  5-MIN K0J4 302235Z AUTO 16007KT 10SM FEW037 SCT050 BKN065 28/24 A3003 220 79 1800 160/07 RMK AO2 RAB11E31 TSE34 P0000 T02780239
63870K0J4 0J420160730174014607/30/16 17:40:31  5-MIN K0J4 302240Z AUTO 14003KT 10SM FEW034 FEW050 BKN065 28/24 A3003 220 79 1800 140/03 RMK AO2 RAB11E31 TSE34 P0000 T02780239
63870K0J4 0J420160730174513907/30/16 17:45:31  5-MIN K0J4 302245Z AUTO VRB03KT 10SM FEW028 SCT060 28/24 A3002 220 76 1800 VRB/03 RMK AO2 RAB11E31 TSE34 P0000 T02830239
63870K0J4 0J420160730175013207/30/16 17:50:31  5-MIN K0J4 302250Z AUTO 11004KT 10SM SCT060 28/24 A3002 220 76 1800 110/04 RMK AO2 RAB11E31 TSE34 P0000 T02830239
63870K0J4 0J420160730175513907/30/16 17:55:31  5-MIN K0J4 302255Z AUTO 11003KT 10SM FEW060 28/24 A3002 230 76 1900 110/03 RMK AO2 RAB11E31 TSE34 SLP161 P0000 T02830239
63870K0J4 0J420160730180011107/30/16 18:00:31  5-MIN K0J4 302300Z AUTO 16004KT 10SM FEW065 29/24 A3002 230 74 1900 160/04 RMK AO2 T02890239
63870K0J4 0J420160730180510807/30/16 18:05:31  5-MIN K0J4 302305Z AUTO 16006KT 10SM CLR 28/23 A3002 230 74 1900 160/06 RMK AO2 T02830233
63870K0J4 0J420160730181010807/30/16 18:10:31  5-MIN K0J4 302310Z AUTO 15004KT 10SM CLR 28/23 A3001 230 74 1900 150/04 RMK AO2 T02830233
63870K0J4 0J420160730181510807/30/16 18:15:31  5-MIN K0J4 302315Z AUTO 14005KT 10SM CLR 28/23 A3001 230 74 1900 140/05 RMK AO2 T02830233
63870K0J4 0J420160730182010807/30/16 18:20:31  5-MIN K0J4 302320Z AUTO 15005KT 10SM CLR 28/23 A3001 230 74 1900 150/05 RMK AO2 T02830233
63870K0J4 0J420160730182510807/30/16 18:25:31  5-MIN K0J4 302325Z AUTO 18005KT 10SM CLR 28/23 A3001 230 74 1900 180/05 RMK AO2 T02830233
63870K0J4 0J420160730183010807/30/16 18:30:31  5-MIN K0J4 302330Z AUTO 16004KT 10SM CLR 28/23 A3001 230 74 1900 160/04 RMK AO2 T02830233
63870K0J4 0J420160730183510807/30/16 18:35:31  5-MIN K0J4 302335Z AUTO 15004KT 10SM CLR 28/24 A3001 230 76 1900 150/04 RMK AO2 T02830239
63870K0J4 0J420160730184010807/30/16 18:40:31  5-MIN K0J4 302340Z AUTO 15003KT 10SM CLR 28/24 A3001 230 76 1900 150/03 RMK AO2 T02830239
63870K0J4 0J420160730184510807/30/16 18:45:31  5-MIN K0J4 302345Z AUTO 14003KT 10SM CLR 28/24 A3002 230 76 1900 140/03 RMK AO2 T02830239
63870K0J4 0J420160730185010807/30/16 18:50:31  5-MIN K0J4 302350Z AUTO 16003KT 10SM CLR 28/23 A3002 230 74 1900 160/03 RMK AO2 T02830233
63870K0J4 0J420160730185513907/30/16 18:55:31  5-MIN K0J4 302355Z AUTO 17003KT 10SM CLR 28/24 A3002 230 79 1800 170/03 RMK AO2 SLP160 60000 T02780239 10339 20267 56015
63870K0J4 0J420160730190010807/30/16 19:00:31  5-MIN K0J4 310000Z AUTO 00000KT 10SM CLR 28/24 A3002 230 79 1800 000/00 RMK AO2 T02780239
63870K0J4 0J420160730190510807/30/16 19:05:31  5-MIN K0J4 310005Z AUTO 16003KT 10SM CLR 27/24 A3002 230 82 1700 160/03 RMK AO2 T02720239
63870K0J4 0J420160730191010807/30/16 19:10:31  5-MIN K0J4 310010Z AUTO 00000KT 10SM CLR 27/24 A3002 220 82 1700 000/00 RMK AO2 T02720239
63870K0J4 0J420160730191510807/30/16 19:15:31  5-MIN K0J4 310015Z AUTO 00000KT 10SM CLR 27/24 A3002 220 82 1700 000/00 RMK AO2 T02720239
63870K0J4 0J420160730192010807/30/16 19:20:31  5-MIN K0J4 310020Z AUTO 10003KT 10SM CLR 27/24 A3002 220 82 1700 100/03 RMK AO2 T02720239
63870K0J4 0J420160730192510807/30/16 19:25:31  5-MIN K0J4 310025Z AUTO VRB03KT 10SM CLR 27/24 A3002 220 82 1700 VRB/03 RMK AO2 T02720239
63870K0J4 0J420160730193010807/30/16 19:30:31  5-MIN K0J4 310030Z AUTO 00000KT 10SM CLR 27/24 A3003 220 84 1700 000/00 RMK AO2 T02670239
63870K0J4 0J420160730193510807/30/16 19:35:31  5-MIN K0J4 310035Z AUTO 00000KT 10SM CLR 27/24 A3003 220 84 1700 000/00 RMK AO2 T02670239
63870K0J4 0J420160730194010807/30/16 19:40:31  5-MIN K0J4 310040Z AUTO 00000KT 10SM CLR 27/24 A3003 220 84 1700 000/00 RMK AO2 T02670239
63870K0J4 0J420160730194510807/30/16 19:45:31  5-MIN K0J4 310045Z AUTO 00000KT 10SM CLR 27/24 A3003 210 84 1600 000/00 RMK AO2 T02670239
63870K0J4 0J420160730195010807/30/16 19:50:31  5-MIN K0J4 310050Z AUTO 16003KT 10SM CLR 26/24 A3003 210 87 1600 160/03 RMK AO2 T02610239
63870K0J4 0J420160730195511507/30/16 19:55:31  5-MIN K0J4 310055Z AUTO 16003KT 10SM CLR 27/24 A3003 210 84 1600 160/03 RMK AO2 SLP165 T02670239
63870K0J4 0J420160730200010807/30/16 20:00:31  5-MIN K0J4 310100Z AUTO 17003KT 10SM CLR 26/24 A3003 210 87 1600 170/03 RMK AO2 T02610239
63870K0J4 0J420160730200510807/30/16 20:05:31  5-MIN K0J4 310105Z AUTO 21003KT 10SM CLR 27/24 A3003 210 84 1600 210/03 RMK AO2 T02670239
63870K0J4 0J420160730201010807/30/16 20:10:31  5-MIN K0J4 310110Z AUTO 00000KT 10SM CLR 27/24 A3003 210 87 1600 000/00 RMK AO2 T02670244
63870K0J4 0J420160730201510807/30/16 20:15:31  5-MIN K0J4 310115Z AUTO 22003KT 10SM CLR 26/24 A3003 210 90 1600 220/03 RMK AO2 T02610244
63870K0J4 0J420160730202010807/30/16 20:20:31  5-MIN K0J4 310120Z AUTO 00000KT 10SM CLR 26/24 A3003 210 90 1600 000/00 RMK AO2 T02610244
63870K0J4 0J420160730202510807/30/16 20:25:31  5-MIN K0J4 310125Z AUTO 00000KT 10SM CLR 26/24 A3003 210 90 1600 000/00 RMK AO2 T02610244
63870K0J4 0J420160731055511407/31/16 05:55:31  5-MIN K0J4 311055Z AUTO 22003KT 8SM CLR 23/23 A3004 210 97 1300 220/03 RMK AO2 SLP166 T02330228
63870K0J4 0J420160731060010707/31/16 06:00:31  5-MIN K0J4 311100Z AUTO 21003KT 7SM CLR 24/23 A3004 210 93 1300 210/03 RMK AO2 T02390228
63870K0J4 0J420160731060510707/31/16 06:05:31  5-MIN K0J4 311105Z AUTO 21003KT 7SM CLR 23/23 A3004 200 97 1300 210/03 RMK AO2 T02330228
63870K0J4 0J420160731061010707/31/16 06:10:31  5-MIN K0J4 311110Z AUTO 00000KT 7SM CLR 23/22 A3004 200 93 1300 000/00 RMK AO2 T02330222
63870K0J4 0J420160731061510707/31/16 06:15:31  5-MIN K0J4 311115Z AUTO 00000KT 7SM CLR 24/23 A3004 200 93 1300 000/00 RMK AO2 T02390228
63870K0J4 0J420160731062010707/31/16 06:20:31  5-MIN K0J4 311120Z AUTO 00000KT 7SM CLR 24/23 A3005 200 93 1300 000/00 RMK AO2 T02390228
63870K0J4 0J420160731062510707/31/16 06:25:31  5-MIN K0J4 311125Z AUTO 00000KT 7SM CLR 24/23 A3005 200 93 1300 000/00 RMK AO2 T02390228
63870K0J4 0J420160731063010707/31/16 06:30:31  5-MIN K0J4 311130Z AUTO 23003KT 8SM CLR 24/23 A3005 200 93 1300 230/03 RMK AO2 T02390228
63870K0J4 0J420160731063510707/31/16 06:35:31  5-MIN K0J4 311135Z AUTO 00000KT 9SM CLR 24/23 A3005 190 97 1300 000/00 RMK AO2 T02390233
63870K0J4 0J420160731064010707/31/16 06:40:31  5-MIN K0J4 311140Z AUTO 00000KT 9SM CLR 24/23 A3005 190 93 1400 000/00 RMK AO2 T02440233
63870K0J4 0J420160731064510707/31/16 06:45:31  5-MIN K0J4 311145Z AUTO 00000KT 9SM CLR 24/23 A3006 190 93 1400 000/00 RMK AO2 T02440233
63870K0J4 0J420160731065010707/31/16 06:50:31  5-MIN K0J4 311150Z AUTO 00000KT 9SM CLR 24/23 A3006 190 93 1400 000/00 RMK AO2 T02440233
63870K0J4 0J420160731065513907/31/16 06:55:31  5-MIN K0J4 311155Z AUTO 00000KT 10SM CLR 24/23 A3006 190 93 1400 000/00 RMK AO2 SLP174 7//// T02440233 10250 20233 58005
63870K0J4 0J420160731070010807/31/16 07:00:31  5-MIN K0J4 311200Z AUTO 00000KT 10SM CLR 24/23 A3006 190 93 1400 000/00 RMK AO2 T02440233
63870K0J4 0J420160731070510807/31/16 07:05:31  5-MIN K0J4 311205Z AUTO 21003KT 10SM CLR 24/23 A3006 190 93 1400 210/03 RMK AO2 T02440233
63870K0J4 0J420160731071010807/31/16 07:10:31  5-MIN K0J4 311210Z AUTO 21003KT 10SM CLR 24/23 A3006 190 93 1400 210/03 RMK AO2 T02440233
63870K0J4 0J420160731071510807/31/16 07:15:31  5-MIN K0J4 311215Z AUTO 20003KT 10SM CLR 25/23 A3006 190 90 1400 200/03 RMK AO2 T02500233
63870K0J4 0J420160731072010807/31/16 07:20:31  5-MIN K0J4 311220Z AUTO 00000KT 10SM CLR 25/23 A3006 190 90 1400 000/00 RMK AO2 T02500233
63870K0J4 0J420160731073507307/31/16 07:35:31  5-MIN K0J4 311235Z AUTO 00000KT M M M 000/00 RMK AO2 $
63870K0J4 0J420160731074010107/31/16 07:40:31  5-MIN K0J4 311240Z AUTO 00000KT 27/24 A3006 180 84 1600 000/00 RMK AO2 T02670239 $
63870K0J4 0J420160731074510607/31/16 07:45:31  5-MIN K0J4 311245Z AUTO 00000KT 10SM 27/24 A3006 180 84 1600 000/00 RMK AO2 T02670239 $
63870K0J4 0J420160731075010607/31/16 07:50:31  5-MIN K0J4 311250Z AUTO 00000KT 10SM 27/24 A3006 180 84 1600 000/00 RMK AO2 T02670239 $
63870K0J4 0J420160731075511307/31/16 07:55:31  5-MIN K0J4 311255Z AUTO 20003KT 10SM 27/24 A3006 190 82 1700 200/03 RMK AO2 SLP175 T02720239 $
63870K0J4 0J420160731080010607/31/16 08:00:31  5-MIN K0J4 311300Z AUTO 19003KT 10SM 27/24 A3007 180 82 1700 190/03 RMK AO2 T02720239 $
63870K0J4 0J420160731080511007/31/16 08:05:31  5-MIN K0J4 311305Z AUTO 21003KT 10SM CLR 27/24 A3007 180 82 1700 210/03 RMK AO2 T02720239 $
63870K0J4 0J420160731081011007/31/16 08:10:31  5-MIN K0J4 311310Z AUTO 00000KT 10SM CLR 28/24 A3007 180 79 1700 000/00 RMK AO2 T02780239 $
63870K0J4 0J420160731081511007/31/16 08:15:31  5-MIN K0J4 311315Z AUTO VRB03KT 10SM CLR 28/24 A3007 180 79 1700 VRB/03 RMK AO2 T02780239 $
63870K0J4 0J420160731082011007/31/16 08:20:31  5-MIN K0J4 311320Z AUTO 00000KT 10SM CLR 28/24 A3007 180 79 1700 000/00 RMK AO2 T02780239 $
63870K0J4 0J420160731082511007/31/16 08:25:31  5-MIN K0J4 311325Z AUTO 00000KT 10SM CLR 28/24 A3007 180 76 1800 000/00 RMK AO2 T02830239 $
63870K0J4 0J420160731083011007/31/16 08:30:31  5-MIN K0J4 311330Z AUTO VRB03KT 10SM CLR 28/24 A3008 170 76 1800 VRB/03 RMK AO2 T02830239 $
63870K0J4 0J420160731083511007/31/16 08:35:31  5-MIN K0J4 311335Z AUTO VRB03KT 10SM CLR 28/24 A3007 170 76 1800 VRB/03 RMK AO2 T02830239 $
63870K0J4 0J420160731084011007/31/16 08:40:31  5-MIN K0J4 311340Z AUTO 26004KT 10SM CLR 28/24 A3007 170 79 1800 260/04 RMK AO2 T02830244 $
63870K0J4 0J420160731084511007/31/16 08:45:31  5-MIN K0J4 311345Z AUTO VRB05KT 10SM CLR 28/24 A3008 170 79 1800 VRB/05 RMK AO2 T02830244 $
63870K0J4 0J420160731085011007/31/16 08:50:31  5-MIN K0J4 311350Z AUTO 00000KT 10SM CLR 29/24 A3008 170 74 1800 000/00 RMK AO2 T02890239 $
63870K0J4 0J420160731085511707/31/16 08:55:31  5-MIN K0J4 311355Z AUTO 00000KT 10SM CLR 29/24 A3007 170 76 1800 000/00 RMK AO2 SLP179 T02890244 $
63870K0J4 0J420160731090011007/31/16 09:00:31  5-MIN K0J4 311400Z AUTO VRB04KT 10SM CLR 29/24 A3008 170 74 1900 VRB/04 RMK AO2 T02940244 $
63870K0J4 0J420160731090511007/31/16 09:05:31  5-MIN K0J4 311405Z AUTO 00000KT 10SM CLR 29/24 A3008 170 71 1900 000/00 RMK AO2 T02940239 $
63870K0J4 0J420160731091011007/31/16 09:10:31  5-MIN K0J4 311410Z AUTO VRB03KT 10SM CLR 29/24 A3008 170 71 1900 VRB/03 RMK AO2 T02940239 $
63870K0J4 0J420160731091511007/31/16 09:15:31  5-MIN K0J4 311415Z AUTO VRB03KT 10SM CLR 29/24 A3008 170 71 1900 VRB/03 RMK AO2 T02940239 $
63870K0J4 0J420160731092011007/31/16 09:20:31  5-MIN K0J4 311420Z AUTO VRB03KT 10SM CLR 29/24 A3008 170 71 1900 VRB/03 RMK AO2 T02940239 $
63870K0J4 0J420160731092511007/31/16 09:25:31  5-MIN K0J4 311425Z AUTO VRB03KT 10SM CLR 29/24 A3008 170 71 1900 VRB/03 RMK AO2 T02940239 $
63870K0J4 0J420160731093011007/31/16 09:30:31  5-MIN K0J4 311430Z AUTO VRB03KT 10SM CLR 30/24 A3008 170 72 2000 VRB/03 RMK AO2 T03000244 $
63870K0J4 0J420160731093511007/31/16 09:35:31  5-MIN K0J4 311435Z AUTO 00000KT 10SM CLR 30/24 A3008 170 69 2000 000/00 RMK AO2 T03000239 $
63870K0J4 0J420160731094011007/31/16 09:40:31  5-MIN K0J4 311440Z AUTO VRB03KT 10SM CLR 31/24 A3008 170 67 2000 VRB/03 RMK AO2 T03060239 $
63870K0J4 0J420160731094511007/31/16 09:45:31  5-MIN K0J4 311445Z AUTO VRB03KT 10SM CLR 31/23 A3008 170 65 2000 VRB/03 RMK AO2 T03060233 $
63870K0J4 0J420160731095011007/31/16 09:50:31  5-MIN K0J4 311450Z AUTO 00000KT 10SM CLR 31/23 A3008 170 65 2000 000/00 RMK AO2 T03060233 $
63870K0J4 0J420160731095511707/31/16 09:55:31  5-MIN K0J4 311455Z AUTO VRB03KT 10SM CLR 31/24 A3008 160 67 2000 VRB/03 RMK AO2 SLP182 T03060239 $
63870K0J4 0J420160731100011007/31/16 10:00:31  5-MIN K0J4 311500Z AUTO 00000KT 10SM CLR 31/24 A3008 160 67 2000 000/00 RMK AO2 T03060239 $
63870K0J4 0J420160731100511007/31/16 10:05:31  5-MIN K0J4 311505Z AUTO 35003KT 10SM CLR 31/23 A3009 160 63 2100 350/03 RMK AO2 T03110233 $
63870K0J4 0J420160731101011007/31/16 10:10:31  5-MIN K0J4 311510Z AUTO 00000KT 10SM CLR 32/24 A3009 160 63 2100 000/00 RMK AO2 T03170239 $
63870K0J4 0J420160731101511007/31/16 10:15:31  5-MIN K0J4 311515Z AUTO VRB03KT 10SM CLR 31/24 A3009 160 65 2100 VRB/03 RMK AO2 T03110239 $
63870K0J4 0J420160731102011007/31/16 10:20:31  5-MIN K0J4 311520Z AUTO 00000KT 10SM CLR 31/24 A3009 160 65 2100 000/00 RMK AO2 T03110239 $
63870K0J4 0J420160731102511007/31/16 10:25:31  5-MIN K0J4 311525Z AUTO VRB03KT 10SM CLR 32/24 A3009 160 63 2100 VRB/03 RMK AO2 T03170239 $
63870K0J4 0J420160731103011007/31/16 10:30:31  5-MIN K0J4 311530Z AUTO VRB03KT 10SM CLR 31/24 A3009 160 65 2100 VRB/03 RMK AO2 T03110239 $
63870K0J4 0J420160731103511007/31/16 10:35:31  5-MIN K0J4 311535Z AUTO 00000KT 10SM CLR 31/23 A3009 160 63 2100 000/00 RMK AO2 T03110233 $
63870K0J4 0J420160731104011007/31/16 10:40:31  5-MIN K0J4 311540Z AUTO 23003KT 10SM CLR 31/23 A3009 160 60 2100 230/03 RMK AO2 T03110228 $
63870K0J4 0J420160731104511007/31/16 10:45:31  5-MIN K0J4 311545Z AUTO 21003KT 10SM CLR 31/23 A3009 160 60 2100 210/03 RMK AO2 T03110228 $
63870K0J4 0J420160731105011007/31/16 10:50:31  5-MIN K0J4 311550Z AUTO VRB03KT 10SM CLR 32/23 A3009 160 61 2100 VRB/03 RMK AO2 T03170233 $
63870K0J4 0J420160731105512007/31/16 10:55:31  5-MIN K0J4 311555Z AUTO VRB03KT 10SM FEW030 31/23 A3009 160 63 2100 VRB/03 RMK AO2 SLP182 T03110233 $
63870K0J4 0J420160731110011307/31/16 11:00:31  5-MIN K0J4 311600Z AUTO VRB03KT 10SM SCT030 31/23 A3009 160 60 2100 VRB/03 RMK AO2 T03110228 $
63870K0J4 0J420160731110511307/31/16 11:05:31  5-MIN K0J4 311605Z AUTO 00000KT 10SM SCT030 31/23 A3009 160 62 2000 000/00 RMK AO2 T03060228 $
63870K0J4 0J420160731111011107/31/16 11:10:31  5-MIN K0J4 311610Z AUTO 00000KT 10SM FEW031 32/23 A3009 160 58 2100 000/00 RMK AO2 T03170228
63870K0J4 0J420160731111511107/31/16 11:15:31  5-MIN K0J4 311615Z AUTO 00000KT 10SM FEW031 32/22 A3009 160 55 2200 000/00 RMK AO2 T03220222
63870K0J4 0J420160731112011807/31/16 11:20:31  5-MIN K0J4 311620Z AUTO 00000KT 10SM FEW031 SCT038 33/23 A3009 160 55 2300 000/00 RMK AO2 T03280228
63870K0J4 0J420160731112511107/31/16 11:25:31  5-MIN K0J4 311625Z AUTO 00000KT 10SM SCT035 33/23 A3009 160 53 2300 000/00 RMK AO2 T03330228
63870K0J4 0J420160731113011107/31/16 11:30:31  5-MIN K0J4 311630Z AUTO VRB03KT 10SM BKN035 33/23 A3009 160 53 2300 VRB/03 RMK AO2 T03330228
63870K0J4 0J420160731113511107/31/16 11:35:31  5-MIN K0J4 311635Z AUTO 00000KT 10SM BKN035 32/23 A3009 160 58 2100 000/00 RMK AO2 T03170228
63870K0J4 0J420160731114011807/31/16 11:40:31  5-MIN K0J4 311640Z AUTO 00000KT 10SM BKN036 BKN045 31/23 A3009 160 60 2100 000/00 RMK AO2 T03110228
63870K0J4 0J420160731114511807/31/16 11:45:31  5-MIN K0J4 311645Z AUTO 00000KT 10SM BKN036 BKN045 31/23 A3009 160 60 2100 000/00 RMK AO2 T03110228
63870K0J4 0J420160731115011807/31/16 11:50:31  5-MIN K0J4 311650Z AUTO 00000KT 10SM SCT036 BKN045 31/22 A3009 160 58 2100 000/00 RMK AO2 T03110222
63870K0J4 0J420160731115512507/31/16 11:55:31  5-MIN K0J4 311655Z AUTO 00000KT 10SM SCT036 SCT045 31/22 A3008 160 56 2100 000/00 RMK AO2 SLP183 T03110217
63870K0J4 0J420160731120011807/31/16 12:00:31  5-MIN K0J4 311700Z AUTO 00000KT 10SM FEW036 FEW045 32/21 A3008 170 53 2100 000/00 RMK AO2 T03170211
63870K0J4 0J420160731120511807/31/16 12:05:31  5-MIN K0J4 311705Z AUTO 00000KT 10SM FEW038 SCT045 32/22 A3008 170 55 2200 000/00 RMK AO2 T03220222
63870K0J4 0J420160731121011807/31/16 12:10:31  5-MIN K0J4 311710Z AUTO 28004KT 10SM SCT039 SCT046 32/22 A3008 170 55 2200 280/04 RMK AO2 T03220222
63870K0J4 0J420160731121511807/31/16 12:15:31  5-MIN K0J4 311715Z AUTO 00000KT 10SM SCT039 BKN075 31/22 A3008 170 58 2100 000/00 RMK AO2 T03110222
63870K0J4 0J420160731122012507/31/16 12:20:31  5-MIN K0J4 311720Z AUTO 00000KT 10SM SCT039 SCT075 BKN090 31/22 A3008 170 58 2100 000/00 RMK AO2 T03110222
63870K0J4 0J420160731122511807/31/16 12:25:31  5-MIN K0J4 311725Z AUTO 00000KT 10SM FEW039 SCT090 32/22 A3008 170 55 2200 000/00 RMK AO2 T03170217
63870K0J4 0J420160731123011807/31/16 12:30:31  5-MIN K0J4 311730Z AUTO 00000KT 10SM FEW039 SCT090 33/22 A3008 170 51 2300 000/00 RMK AO2 T03280217
63870K0J4 0J420160731123512507/31/16 12:35:31  5-MIN K0J4 311735Z AUTO 00000KT 10SM FEW039 SCT080 SCT095 33/22 A3007 170 51 2300 000/00 RMK AO2 T03330222
63870K0J4 0J420160731124012507/31/16 12:40:31  5-MIN K0J4 311740Z AUTO 00000KT 10SM FEW039 FEW080 FEW095 33/22 A3007 180 50 2300 000/00 RMK AO2 T03330217
63870K0J4 0J420160731124511107/31/16 12:45:31  5-MIN K0J4 311745Z AUTO VRB04KT 10SM FEW090 33/22 A3007 180 51 2300 VRB/04 RMK AO2 T03280217
63870K0J4 0J420160731125010807/31/16 12:50:31  5-MIN K0J4 311750Z AUTO 00000KT 10SM CLR 33/22 A3007 180 51 2300 000/00 RMK AO2 T03280217
63870K0J4 0J420160731125512707/31/16 12:55:31  5-MIN K0J4 311755Z AUTO 00000KT 10SM CLR 34/22 A3006 190 50 2400 000/00 RMK AO2 SLP174 T03390222 10339 20244
63870K0J4 0J420160731130010807/31/16 13:00:31  5-MIN K0J4 311800Z AUTO VRB05KT 10SM CLR 33/22 A3006 190 51 2400 VRB/05 RMK AO2 T03330222
63870K0J4 0J420160731130510807/31/16 13:05:31  5-MIN K0J4 311805Z AUTO 22004KT 10SM CLR 33/21 A3006 190 49 2300 220/04 RMK AO2 T03280211
63870K0J4 0J420160731131010807/31/16 13:10:31  5-MIN K0J4 311810Z AUTO VRB03KT 10SM CLR 33/21 A3005 200 46 2400 VRB/03 RMK AO2 T03330206
63870K0J4 0J420160731131510807/31/16 13:15:31  5-MIN K0J4 311815Z AUTO VRB04KT 10SM CLR 33/21 A3005 200 46 2400 VRB/04 RMK AO2 T03330206
63870K0J4 0J420160731132010807/31/16 13:20:31  5-MIN K0J4 311820Z AUTO 00000KT 10SM CLR 34/21 A3005 200 46 2400 000/00 RMK AO2 T03390211
63870K0J4 0J420160731132510807/31/16 13:25:31  5-MIN K0J4 311825Z AUTO 21006KT 10SM CLR 33/21 A3005 200 46 2400 210/06 RMK AO2 T03330206
63870K0J4 0J420160731133010807/31/16 13:30:31  5-MIN K0J4 311830Z AUTO VRB03KT 10SM CLR 33/21 A3005 200 46 2400 VRB/03 RMK AO2 T03330206
63870K0J4 0J420160731133510807/31/16 13:35:31  5-MIN K0J4 311835Z AUTO 17005KT 10SM CLR 33/21 A3004 200 48 2400 170/05 RMK AO2 T03330211
63870K0J4 0J420160731134010807/31/16 13:40:31  5-MIN K0J4 311840Z AUTO 20008KT 10SM CLR 33/22 A3004 210 51 2400 200/08 RMK AO2 T03330222
63870K0J4 0J420160731134511107/31/16 13:45:31  5-MIN K0J4 311845Z AUTO 17005KT 10SM FEW047 33/22 A3004 210 50 2400 170/05 RMK AO2 T03330217
63870K0J4 0J420160731135011107/31/16 13:50:31  5-MIN K0J4 311850Z AUTO VRB04KT 10SM FEW047 33/21 A3004 210 48 2400 VRB/04 RMK AO2 T03330211
63870K0J4 0J420160731135511507/31/16 13:55:31  5-MIN K0J4 311855Z AUTO VRB03KT 10SM CLR 33/21 A3003 210 48 2400 VRB/03 RMK AO2 SLP165 T03330211
63870K0J4 0J420160731140010807/31/16 14:00:31  5-MIN K0J4 311900Z AUTO VRB03KT 10SM CLR 33/22 A3003 210 50 2400 VRB/03 RMK AO2 T03330217
63870K0J4 0J420160731140510807/31/16 14:05:31  5-MIN K0J4 311905Z AUTO 21008KT 10SM CLR 34/22 A3003 210 48 2500 210/08 RMK AO2 T03390217
63870K0J4 0J420160731141010807/31/16 14:10:31  5-MIN K0J4 311910Z AUTO VRB06KT 10SM CLR 33/22 A3003 210 50 2400 VRB/06 RMK AO2 T03330217
63870K0J4 0J420160731141510807/31/16 14:15:31  5-MIN K0J4 311915Z AUTO 00000KT 10SM CLR 33/22 A3003 220 50 2400 000/00 RMK AO2 T03330217
63870K0J4 0J420160731142010807/31/16 14:20:31  5-MIN K0J4 311920Z AUTO 00000KT 10SM CLR 34/21 A3003 220 46 2500 000/00 RMK AO2 T03390211
63870K0J4 0J420160731142510807/31/16 14:25:31  5-MIN K0J4 311925Z AUTO 20007KT 10SM CLR 34/21 A3003 220 46 2500 200/07 RMK AO2 T03390211
63870K0J4 0J420160731143010807/31/16 14:30:31  5-MIN K0J4 311930Z AUTO 22006KT 10SM CLR 34/22 A3003 210 48 2500 220/06 RMK AO2 T03390217
63870K0J4 0J420160731143510807/31/16 14:35:31  5-MIN K0J4 311935Z AUTO 21006KT 10SM CLR 34/21 A3003 210 46 2400 210/06 RMK AO2 T03390211
63870K0J4 0J420160731144011107/31/16 14:40:31  5-MIN K0J4 311940Z AUTO VRB05KT 10SM FEW085 34/21 A3003 210 46 2500 VRB/05 RMK AO2 T03390211
63870K0J4 0J420160731144510107/31/16 14:45:31  5-MIN K0J4 311945Z AUTO 10SM SCT085 34/22 A3003 220 48 2500 M /M RMK AO2 T03390217
63870K0J4 0J420160731145011107/31/16 14:50:31  5-MIN K0J4 311950Z AUTO 18006KT 10SM SCT085 34/22 A3003 220 48 2500 180/06 RMK AO2 T03390217
63870K0J4 0J420160731145511807/31/16 14:55:31  5-MIN K0J4 311955Z AUTO VRB06KT 10SM FEW085 34/21 A3003 220 46 2500 VRB/06 RMK AO2 SLP163 T03390211
63870K0J4 0J420160731150011107/31/16 15:00:31  5-MIN K0J4 312000Z AUTO 19008KT 10SM FEW085 34/21 A3002 220 45 2500 190/08 RMK AO2 T03440211
63870K0J4 0J420160731150511107/31/16 15:05:31  5-MIN K0J4 312005Z AUTO 19005KT 10SM FEW085 34/21 A3002 220 45 2500 190/05 RMK AO2 T03390206
63870K0J4 0J420160731151011107/31/16 15:10:31  5-MIN K0J4 312010Z AUTO VRB03KT 10SM FEW085 34/21 A3002 230 46 2500 VRB/03 RMK AO2 T03390211
63870K0J4 0J420160731151511307/31/16 15:15:31  5-MIN K0J4 312015Z AUTO 18009KT 10SM VCTS CLR 33/22 A3001 230 50 2400 180/09 RMK AO2 T03330217
63870K0J4 0J420160731152011907/31/16 15:20:31  5-MIN K0J4 312020Z AUTO 21014G17KT 10SM VCTS CLR 33/23 A3001 230 55 2400 210/14G17 RMK AO2 T03330233
63870K0J4 0J420160731152511907/31/16 15:25:31  5-MIN K0J4 312025Z AUTO 20008G17KT 10SM VCTS CLR 33/24 A3001 230 57 2400 200/08G17 RMK AO2 T03330239
63870K0J4 0J420160731153011307/31/16 15:30:31  5-MIN K0J4 312030Z AUTO 20009KT 10SM VCTS CLR 34/24 A3001 230 55 2500 200/09 RMK AO2 T03390239
63870K0J4 0J420160731153511307/31/16 15:35:31  5-MIN K0J4 312035Z AUTO 18008KT 10SM VCTS CLR 33/23 A3001 230 55 2400 180/08 RMK AO2 T03330233
63870K0J4 0J420160731154011307/31/16 15:40:31  5-MIN K0J4 312040Z AUTO 20010KT 10SM VCTS CLR 33/23 A3001 230 55 2400 200/10 RMK AO2 T03330233
63870K0J4 0J420160731154511707/31/16 15:45:31  5-MIN K0J4 312045Z AUTO 20011KT 10SM TS CLR 33/23 A3001 230 53 2400 200/11 RMK AO2 TSB45 T03330228
63870K0J4 0J420160731155011707/31/16 15:50:31  5-MIN K0J4 312050Z AUTO 20010KT 10SM TS CLR 33/23 A3001 240 53 2400 200/10 RMK AO2 TSB45 T03330228
63870K0J4 0J420160731155513307/31/16 15:55:31  5-MIN K0J4 312055Z AUTO 21009KT 10SM TS CLR 33/23 A3000 240 53 2400 210/09 RMK AO2 TSB45B53 SLP155 T03330228 58008
63870K0J4 0J420160731160011107/31/16 16:00:31  5-MIN K0J4 312100Z AUTO 21013KT 10SM TS CLR 33/23 A3001 240 55 2400 210/13 RMK AO2 T03330233
63870K0J4 0J420160731160511107/31/16 16:05:31  5-MIN K0J4 312105Z AUTO 22010KT 10SM TS CLR 33/23 A3001 230 55 2300 220/10 RMK AO2 T03280228
63870K0J4 0J420160731161011407/31/16 16:10:31  5-MIN K0J4 312110Z AUTO 20013KT 10SM TS FEW070 32/22 A3001 230 56 2200 200/13 RMK AO2 T03170222
63870K0J4 0J420160731161511107/31/16 16:15:31  5-MIN K0J4 312115Z AUTO 22007KT 10SM TS CLR 32/22 A3001 230 56 2200 220/07 RMK AO2 T03170222
63870K0J4 0J420160731162011407/31/16 16:20:31  5-MIN K0J4 312120Z AUTO VRB03KT 10SM TS FEW070 32/23 A3002 220 58 2200 VRB/03 RMK AO2 T03170228
63870K0J4 0J420160731162511407/31/16 16:25:31  5-MIN K0J4 312125Z AUTO VRB04KT 10SM TS FEW070 31/23 A3002 230 62 2100 VRB/04 RMK AO2 T03060228
63870K0J4 0J420160731163012107/31/16 16:30:31  5-MIN K0J4 312130Z AUTO 00000KT 10SM TS FEW040 FEW120 29/23 A3002 220 69 2000 000/00 RMK AO2 T02940233
63870K0J4 0J420160731163511407/31/16 16:35:31  5-MIN K0J4 312135Z AUTO 00000KT 10SM TS FEW120 29/23 A3002 220 69 2000 000/00 RMK AO2 T02940233
63870K0J4 0J420160731164011107/31/16 16:40:31  5-MIN K0J4 312140Z AUTO VRB04KT 10SM TS CLR 29/23 A3003 220 69 1900 VRB/04 RMK AO2 T02890228
63870K0J4 0J420160731164511107/31/16 16:45:31  5-MIN K0J4 312145Z AUTO VRB03KT 10SM TS CLR 28/22 A3002 220 71 1800 VRB/03 RMK AO2 T02780222
63870K0J4 0J420160731165011407/31/16 16:50:31  5-MIN K0J4 312150Z AUTO VRB03KT 10SM TS FEW110 28/22 A3002 220 69 1800 VRB/03 RMK AO2 T02780217
63870K0J4 0J420160731165512107/31/16 16:55:31  5-MIN K0J4 312155Z AUTO VRB03KT 10SM TS SCT110 28/22 A3002 230 69 1800 VRB/03 RMK AO2 SLP160 T02780217
63870K0J4 0J420160731170011407/31/16 17:00:31  5-MIN K0J4 312200Z AUTO 00000KT 10SM TS FEW110 27/22 A3002 220 71 1700 000/00 RMK AO2 T02720217
63870K0J4 0J420160731170511407/31/16 17:05:31  5-MIN K0J4 312205Z AUTO 00000KT 10SM TS FEW110 27/22 A3004 210 71 1700 000/00 RMK AO2 T02720217
63870K0J4 0J420160731171013507/31/16 17:10:31  5-MIN K0J4 312210Z AUTO 00000KT 10SM TS FEW070 SCT085 BKN110 27/22 A3004 200 71 1700 000/00 RMK AO2 PRESRR T02720217
63870K0J4 0J420160731171512807/31/16 17:15:31  5-MIN K0J4 312215Z AUTO 00000KT 10SM TS FEW070 SCT085 BKN110 27/22 A3004 200 71 1700 000/00 RMK AO2 T02720217
63870K0J4 0J420160731172012807/31/16 17:20:31  5-MIN K0J4 312220Z AUTO 00000KT 10SM TS FEW070 SCT090 BKN110 27/22 A3004 210 74 1700 000/00 RMK AO2 T02720222
63870K0J4 0J420160731172512807/31/16 17:25:31  5-MIN K0J4 312225Z AUTO 00000KT 10SM TS FEW070 SCT090 BKN110 27/22 A3003 210 76 1600 000/00 RMK AO2 T02670222
63870K0J4 0J420160731173012807/31/16 17:30:31  5-MIN K0J4 312230Z AUTO 00000KT 10SM TS FEW070 SCT090 BKN110 27/22 A3003 220 76 1700 000/00 RMK AO2 T02670222
63870K0J4 0J420160731173512807/31/16 17:35:31  5-MIN K0J4 312235Z AUTO 21003KT 10SM TS FEW070 SCT090 BKN110 27/22 A3002 220 76 1700 210/03 RMK AO2 T02670222
63870K0J4 0J420160731174012807/31/16 17:40:31  5-MIN K0J4 312240Z AUTO 00000KT 10SM TS FEW065 SCT080 BKN095 27/23 A3002 220 79 1700 000/00 RMK AO2 T02670228
63870K0J4 0J420160731174512807/31/16 17:45:31  5-MIN K0J4 312245Z AUTO 29003KT 10SM TS FEW060 SCT075 BKN100 27/23 A3003 210 79 1600 290/03 RMK AO2 T02670228
63870K0J4 0J420160731175012807/31/16 17:50:31  5-MIN K0J4 312250Z AUTO VRB05KT 10SM TS FEW060 SCT100 BKN120 26/23 A3004 200 81 1600 VRB/05 RMK AO2 T02610228
63870K0J4 0J420160731175515007/31/16 17:55:31  5-MIN K0J4 312255Z AUTO 13004KT 10SM -TSRA FEW070 SCT100 BKN120 26/22 A3004 210 76 1600 130/04 RMK AO2 RAB55 SLP167 P0000 T02610217
63870K0J4 0J420160731180013707/31/16 18:00:31  5-MIN K0J4 312300Z AUTO 10005KT 10SM -TSRA FEW032 SCT060 BKN120 26/22 A3005 200 79 1600 100/05 RMK AO2 P0000 T02610222
63870K0J4 0J420160731180513707/31/16 18:05:31  5-MIN K0J4 312305Z AUTO 09003KT 10SM -TSRA SCT032 BKN060 BKN075 26/22 A3005 190 79 1600 090/03 RMK AO2 P0000 T02610222
63870K0J4 0J420160731181013007/31/16 18:10:31  5-MIN K0J4 312310Z AUTO VRB03KT 10SM -TSRA BKN034 BKN120 26/22 A3005 200 79 1600 VRB/03 RMK AO2 P0000 T02610222
63870K0J4 0J420160731181513007/31/16 18:15:31  5-MIN K0J4 312315Z AUTO 05007KT 10SM -TSRA BKN032 BKN120 26/23 A3006 190 81 1600 050/07 RMK AO2 P0000 T02610228
63870K0J4 0J420160731182012307/31/16 18:20:31  5-MIN K0J4 312320Z AUTO 02006KT 10SM -TSRA BKN032 26/23 A3006 180 87 1500 020/06 RMK AO2 P0000 T02560233
63870K0J4 0J420160731182513007/31/16 18:25:31  5-MIN K0J4 312325Z AUTO 08003KT 10SM -TSRA FEW019 OVC032 26/23 A3007 180 87 1500 080/03 RMK AO2 P0000 T02560233
63870K0J4 0J420160731183012807/31/16 18:30:31  5-MIN K0J4 312330Z AUTO 13006KT 8SM TSRA FEW019 OVC032 25/23 A3008 170 90 1400 130/06 RMK AO2 P0000 T02500233
63870K0J4 0J420160731183512107/31/16 18:35:31  5-MIN K0J4 312335Z AUTO 05005KT 7SM TSRA OVC032 24/23 A3008 170 90 1300 050/05 RMK AO2 P0000 T02440228
63870K0J4 0J420160731184013807/31/16 18:40:31  5-MIN K0J4 312340Z AUTO 00000KT 6SM TSRA BR FEW018 OVC032 25/23 A3009 160 87 1400 000/00 RMK AO2 PRESRR T02500228 PNO $
63870K0J4 0J420160731184513807/31/16 18:45:31  5-MIN K0J4 312345Z AUTO 00000KT 3SM TSRA BR FEW018 SCT023 OVC032 24/23 A3009 160 93 1300 000/00 RMK AO2 T02440233 PNO $
63870K0J4 0J420160731185013607/31/16 18:50:31  5-MIN K0J4 312350Z AUTO VRB03KT 1 1/4SM +TSRA BR SCT021 OVC032 24/23 A3009 160 93 1300 VRB/03 RMK AO2 T02440233 PNO $
63870K0J4 0J420160731185517407/31/16 18:55:31  5-MIN K0J4 312355Z AUTO 17009KT 1 1/4SM +TSRA BR FEW015 SCT022 OVC034 24/23 A3010 150 93 1300 170/09 RMK AO2 SLP188 6//// T02390228 10344 20239 56018 PNO $
63870K0J4 0J420160731190013907/31/16 19:00:31  5-MIN K0J4 010000Z AUTO 17009KT 3SM +TSRA BR SCT015 SCT022 OVC034 24/22 A3010 150 90 1300 170/09 RMK AO2 T02390222 PNO $
63870K0J4 0J420160731190513907/31/16 19:05:31  5-MIN K0J4 010005Z AUTO 16009KT 3SM +TSRA BR SCT017 BKN034 OVC060 24/22 A3010 150 90 1300 160/09 RMK AO2 T02390222 PNO $
63870K0J4 0J420160731191015107/31/16 19:10:31  5-MIN K0J4 010010Z AUTO 16009KT 2 1/2SM +TSRA BR FEW017 BKN033 OVC065 23/22 A3010 150 93 1200 160/09 RMK AO2 VIS 1V4 T02330222 PNO $
63870K0J4 0J420160731191513607/31/16 19:15:31  5-MIN K0J4 010015Z AUTO 21006KT 1 1/2SM +TSRA BR FEW014 OVC035 23/22 A3011 150 93 1100 210/06 RMK AO2 T02280217 PNO $
63870K0J4 0J420160731192014307/31/16 19:20:31  5-MIN K0J4 010020Z AUTO VRB05KT 1 1/4SM +TSRA BR FEW013 BKN040 OVC095 23/22 A3011 140 93 1200 VRB/05 RMK AO2 T02330222 PNO $
63870K0J4 0J420160731192514207/31/16 19:25:31  5-MIN K0J4 010025Z AUTO 27003KT 1 3/4SM TSRA BR FEW007 BKN040 OVC110 23/22 A3011 140 97 1100 270/03 RMK AO2 T02280222 PNO $
63870K0J4 0J420160731193013907/31/16 19:30:31  5-MIN K0J4 010030Z AUTO VRB04KT 5SM -TSRA BR SCT038 BKN095 BKN110 23/22 A3011 150 93 1100 VRB/04 RMK AO2 T02280217 PNO $
63870K0J4 0J420160731193512907/31/16 19:35:31  5-MIN K0J4 010035Z AUTO 00000KT 7SM -TSRA SCT036 SCT110 23/22 A3010 150 93 1100 000/00 RMK AO2 T02280217 PNO $
63870K0J4 0J420160731194012907/31/16 19:40:31  5-MIN K0J4 010040Z AUTO 25003KT 8SM -TSRA FEW045 FEW110 23/22 A3010 150 93 1100 250/03 RMK AO2 T02280217 PNO $
63870K0J4 0J420160731194512307/31/16 19:45:31  5-MIN K0J4 010045Z AUTO 24004KT 10SM -TSRA FEW110 23/22 A3009 160 93 1100 240/04 RMK AO2 T02280217 PNO $
63870K0J4 0J420160731195012207/31/16 19:50:31  5-MIN K0J4 010050Z AUTO 21006KT 8SM -TSRA FEW110 23/22 A3009 160 93 1100 210/06 RMK AO2 T02280217 PNO $
63870K0J4 0J420160731195513707/31/16 19:55:31  5-MIN K0J4 010055Z AUTO 21005KT 6SM TSRA BR FEW110 23/22 A3009 160 93 1100 210/05 RMK AO2 TSB54 SLP186 T02280217 PNO $
63870K0J4 0J420160731200012107/31/16 20:00:31  5-MIN K0J4 010100Z AUTO 21005KT 7SM TSRA FEW110 23/22 A3010 150 93 1100 210/05 RMK AO2 T02280217 PNO $
63870K0J4 0J420160731200512807/31/16 20:05:31  5-MIN K0J4 010105Z AUTO 00000KT 8SM -TSRA SCT120 23/22 A3010 150 93 1100 000/00 RMK AO2 TSB04 T02280217 PNO $
63870K0J4 0J420160731201012807/31/16 20:10:31  5-MIN K0J4 010110Z AUTO VRB03KT 8SM -TSRA SCT110 23/22 A3010 150 93 1100 VRB/03 RMK AO2 TSB04 T02280217 PNO $
63870K0J4 0J420160731201512807/31/16 20:15:31  5-MIN K0J4 010115Z AUTO 00000KT 8SM -TSRA BKN110 23/22 A3011 140 93 1100 000/00 RMK AO2 TSB04 T02280217 PNO $
63870K0J4 0J420160731202012807/31/16 20:20:31  5-MIN K0J4 010120Z AUTO 00000KT 8SM -TSRA BKN110 23/22 A3011 140 93 1100 000/00 RMK AO2 TSB04 T02280217 PNO $
63870K0J4 0J420160731202512807/31/16 20:25:31  5-MIN K0J4 010125Z AUTO 00000KT 9SM -TSRA BKN110 23/22 A3011 140 93 1100 000/00 RMK AO2 TSB04 T02280217 PNO $
63870K0J4 0J420160731203012907/31/16 20:30:31  5-MIN K0J4 010130Z AUTO 00000KT 10SM -TSRA BKN110 23/22 A3012 130 93 1100 000/00 RMK AO2 TSB04 T02280217 PNO $
63870K0J4 0J420160731203512907/31/16 20:35:31  5-MIN K0J4 010135Z AUTO 00000KT 10SM -TSRA BKN110 23/22 A3012 130 93 1100 000/00 RMK AO2 TSB04 T02280217 PNO $
63870K0J4 0J420160731204012907/31/16 20:40:31  5-MIN K0J4 010140Z AUTO 00000KT 10SM -TSRA BKN110 23/22 A3011 140 93 1100 000/00 RMK AO2 TSB04 T02280217 PNO $
63870K0J4 0J420160731204513507/31/16 20:45:31  5-MIN K0J4 010145Z AUTO 00000KT 7SM -TSRA SCT100 BKN120 23/22 A3011 140 93 1100 000/00 RMK AO2 TSB04 T02280217 PNO $
63870K0J4 0J420160731205013707/31/16 20:50:31  5-MIN K0J4 010150Z AUTO 00000KT 5SM TSRA BR BKN100 BKN120 23/22 A3011 140 93 1100 000/00 RMK AO2 TSB04 T02280217 PNO $
63870K0J4 0J420160731205514407/31/16 20:55:31  5-MIN K0J4 010155Z AUTO 00000KT 5SM TSRA BR BKN095 BKN110 23/22 A3011 140 97 1100 000/00 RMK AO2 TSB04 SLP191 T02280222 PNO $
63870K0J4 0J420160731210012907/31/16 21:00:31  5-MIN K0J4 010200Z AUTO 03003KT 6SM RA BR BKN100 BKN120 23/22 A3011 150 93 1100 030/03 RMK AO2 T02280217 PNO $
63870K0J4 0J420160731210512707/31/16 21:05:31  5-MIN K0J4 010205Z AUTO 06004KT 7SM -RA BKN090 OVC110 23/22 A3010 150 97 1100 060/04 RMK AO2 T02280222 PNO $
63870K0J4 0J420160731211012607/31/16 21:10:31  5-MIN K0J4 010210Z AUTO 15003KT 7SM RA BKN090 OVC110 23/22 A3010 150 97 1100 150/03 RMK AO2 T02280222 PNO $
63870K0J4 0J420160731211512907/31/16 21:15:31  5-MIN K0J4 010215Z AUTO 00000KT 6SM RA BR BKN100 OVC120 23/22 A3010 150 97 1100 000/00 RMK AO2 T02280222 PNO $
63870K0J4 0J420160731212012907/31/16 21:20:31  5-MIN K0J4 010220Z AUTO 00000KT 4SM RA BR BKN100 OVC120 23/22 A3010 150 97 1100 000/00 RMK AO2 T02280222 PNO $
63870K0J4 0J420160731212512607/31/16 21:25:31  5-MIN K0J4 010225Z AUTO 00000KT 2 1/2SM RA BR OVC100 23/22 A3009 160 93 1200 000/00 RMK AO2 T02330222 PNO $
63870K0J4 0J420160731213012907/31/16 21:30:31  5-MIN K0J4 010230Z AUTO 00000KT 3SM RA BR BKN090 OVC110 23/22 A3008 170 93 1200 000/00 RMK AO2 T02330222 PNO $
63870K0J4 0J420160731213512907/31/16 21:35:31  5-MIN K0J4 010235Z AUTO 06004KT 5SM RA BR BKN090 OVC110 23/22 A3008 170 93 1200 060/04 RMK AO2 T02330222 PNO $
63870K0J4 0J420160731214012907/31/16 21:40:31  5-MIN K0J4 010240Z AUTO 00000KT 6SM RA BR BKN100 OVC110 23/22 A3007 170 93 1200 000/00 RMK AO2 T02330222 PNO $
63870K0J4 0J420160731214512607/31/16 21:45:31  5-MIN K0J4 010245Z AUTO 00000KT 7SM RA SCT090 BKN110 23/22 A3007 180 97 1200 000/00 RMK AO2 T02280222 PNO $
63870K0J4 0J420160731215012707/31/16 21:50:31  5-MIN K0J4 010250Z AUTO 22004KT 8SM -RA SCT090 BKN120 23/22 A3007 180 97 1200 220/04 RMK AO2 T02280222 PNO $
63870K0J4 0J420160731215514607/31/16 21:55:31  5-MIN K0J4 010255Z AUTO 24004KT 8SM -RA FEW090 BKN120 23/22 A3006 180 97 1200 240/04 RMK AO2 SLP176 6//// T02280222 53031 PNO $
63870K0J4 0J420160731220012007/31/16 22:00:31  5-MIN K0J4 010300Z AUTO 29003KT 9SM -RA BKN110 23/22 A3006 180 97 1200 290/03 RMK AO2 T02280222 PNO $
63870K0J4 0J420160731220512107/31/16 22:05:31  5-MIN K0J4 010305Z AUTO 00000KT 10SM -RA BKN110 23/22 A3007 180 97 1200 000/00 RMK AO2 T02280222 PNO $
63870K0J4 0J420160731221012107/31/16 22:10:31  5-MIN K0J4 010310Z AUTO 00000KT 10SM -RA SCT110 23/22 A3007 180 93 1200 000/00 RMK AO2 T02330222 PNO $
63870K0J4 0J420160731221512107/31/16 22:15:31  5-MIN K0J4 010315Z AUTO 00000KT 10SM -RA SCT110 23/22 A3007 180 93 1200 000/00 RMK AO2 T02330222 PNO $
63870K0J4 0J420160731222012107/31/16 22:20:31  5-MIN K0J4 010320Z AUTO 00000KT 10SM -RA FEW110 23/22 A3007 180 97 1200 000/00 RMK AO2 T02280222 PNO $
63870K0J4 0J420160731222512107/31/16 22:25:31  5-MIN K0J4 010325Z AUTO 34004KT 10SM -RA FEW100 23/22 A3008 170 93 1200 340/04 RMK AO2 T02330222 PNO $
63870K0J4 0J420160731223011807/31/16 22:30:31  5-MIN K0J4 010330Z AUTO VRB03KT 10SM -RA CLR 23/22 A3008 170 93 1200 VRB/03 RMK AO2 T02280217 PNO $
63870K0J4 0J420160731223511807/31/16 22:35:31  5-MIN K0J4 010335Z AUTO 30003KT 10SM -RA CLR 23/22 A3008 170 97 1200 300/03 RMK AO2 T02280222 PNO $
63870K0J4 0J420160731224012007/31/16 22:40:31  5-MIN K0J4 010340Z AUTO 26003KT 10SM CLR 23/22 A3008 170 97 1200 260/03 RMK AO2 RAE37 T02280222 PNO $
63870K0J4 0J420160731224512007/31/16 22:45:31  5-MIN K0J4 010345Z AUTO 00000KT 10SM CLR 23/22 A3008 170 97 1100 000/00 RMK AO2 RAE37 T02280222 PNO $
63870K0J4 0J420160731225012007/31/16 22:50:31  5-MIN K0J4 010350Z AUTO 00000KT 10SM CLR 23/22 A3009 160 93 1100 000/00 RMK AO2 RAE37 T02280217 PNO $
63870K0J4 0J420160731225512707/31/16 22:55:31  5-MIN K0J4 010355Z AUTO 00000KT 10SM CLR 23/22 A3009 160 93 1100 000/00 RMK AO2 RAE37 SLP184 T02280217 PNO $
63870K0J4 0J420160731230011407/31/16 23:00:31  5-MIN K0J4 010400Z AUTO 17003KT 10SM CLR 23/22 A3009 160 93 1100 170/03 RMK AO2 T02280217 PNO $
63870K0J4 0J420160731230511407/31/16 23:05:31  5-MIN K0J4 010405Z AUTO 00000KT 10SM CLR 23/22 A3009 160 93 1100 000/00 RMK AO2 T02280217 PNO $
63870K0J4 0J420160731231011407/31/16 23:10:31  5-MIN K0J4 010410Z AUTO 00000KT 10SM CLR 23/22 A3009 160 93 1100 000/00 RMK AO2 T02280217 PNO $
63870K0J4 0J420160731231511407/31/16 23:15:31  5-MIN K0J4 010415Z AUTO 00000KT 10SM CLR 23/22 A3009 160 93 1100 000/00 RMK AO2 T02280217 PNO $
63870K0J4 0J420160731232011407/31/16 23:20:31  5-MIN K0J4 010420Z AUTO 00000KT 10SM CLR 23/22 A3009 160 90 1200 000/00 RMK AO2 T02330217 PNO $
63870K0J4 0J420160731232511407/31/16 23:25:31  5-MIN K0J4 010425Z AUTO 14003KT 10SM CLR 23/22 A3009 160 93 1100 140/03 RMK AO2 T02280217 PNO $
63870K0J4 0J420160731233011407/31/16 23:30:31  5-MIN K0J4 010430Z AUTO 14003KT 10SM CLR 23/22 A3008 170 93 1100 140/03 RMK AO2 T02280217 PNO $
63870K0J4 0J420160731233511407/31/16 23:35:31  5-MIN K0J4 010435Z AUTO 00000KT 10SM CLR 23/22 A3008 170 90 1200 000/00 RMK AO2 T02330217 PNO $
63870K0J4 0J420160731234011407/31/16 23:40:31  5-MIN K0J4 010440Z AUTO 00000KT 10SM CLR 23/22 A3008 170 90 1200 000/00 RMK AO2 T02330217 PNO $
63870K0J4 0J420160731234511407/31/16 23:45:31  5-MIN K0J4 010445Z AUTO 00000KT 10SM CLR 23/22 A3008 170 90 1200 000/00 RMK AO2 T02330217 PNO $
63870K0J4 0J420160731235011407/31/16 23:50:31  5-MIN K0J4 010450Z AUTO 00000KT 10SM CLR 23/22 A3008 170 90 1200 000/00 RMK AO2 T02330217 PNO $
63870K0J4 0J420160731235513107/31/16 23:55:31  5-MIN K0J4 010455Z AUTO 27003KT 10SM CLR 23/22 A3008 170 90 1200 270/03 RMK AO2 SLP182 T02330217 403440228 PNO $
