63870K0J4 0J420160501100511405/01/16 10:05:31  5-MIN K0J4 011505Z AUTO 20012G16KT 10SM BKN024 BKN032 27/20 A3003 210 66 1600 200/12G16 RMK AO2
63870K0J4 0J420160501101011405/01/16 10:10:31  5-MIN K0J4 011510Z AUTO 18010G16KT 10SM SCT024 BKN034 26/19 A3003 210 66 1600 180/10G16 RMK AO2
63870K0J4 0J420160501101511505/01/16 10:15:31  5-MIN K0J4 011515Z AUTO 17009KT 10SM SCT024 SCT030 BKN037 27/20 A3003 210 66 1600 170/09 RMK AO2
63870K0J4 0J420160501102011505/01/16 10:20:31  5-MIN K0J4 011520Z AUTO 19011KT 10SM SCT024 BKN032 BKN040 27/19 A3003 210 62 1700 190/11 RMK AO2
63870K0J4 0J420160501102510805/01/16 10:25:31  5-MIN K0J4 011525Z AUTO 20008KT 10SM FEW024 SCT032 27/20 A3003 210 64 1700 200/08 RMK AO2
63870K0J4 0J420160501103010105/01/16 10:30:31  5-MIN K0J4 011530Z AUTO 20010KT 10SM FEW024 27/19 A3003 220 62 1700 200/10 RMK AO2
63870K0J4 0J420160501103510105/01/16 10:35:31  5-MIN K0J4 011535Z AUTO 22007KT 10SM FEW038 28/20 A3003 220 62 1800 220/07 RMK AO2
63870K0J4 0J420160501104010105/01/16 10:40:31  5-MIN K0J4 011540Z AUTO 20009KT 10SM FEW028 27/19 A3003 210 64 1700 200/09 RMK AO2
63870K0J4 0J420160501104510805/01/16 10:45:31  5-MIN K0J4 011545Z AUTO 19008KT 10SM FEW028 SCT036 26/19 A3003 220 66 1600 190/08 RMK AO2
63870K0J4 0J420160501105010805/01/16 10:50:31  5-MIN K0J4 011550Z AUTO 18006KT 10SM FEW028 SCT035 27/20 A3002 220 64 1700 180/06 RMK AO2
63870K0J4 0J420160501105512505/01/16 10:55:31  5-MIN K0J4 011555Z AUTO 19009KT 10SM FEW028 SCT035 28/20 A3002 220 62 1800 190/09 RMK AO2 SLP162 T02780200
63870K0J4 0J420160501110010805/01/16 11:00:31  5-MIN K0J4 011600Z AUTO 19008KT 10SM FEW028 SCT035 28/19 A3002 220 60 1800 190/08 RMK AO2
63870K0J4 0J420160501110511405/01/16 11:05:31  5-MIN K0J4 011605Z AUTO 18008G18KT 10SM FEW028 SCT035 28/19 A3003 220 60 1800 180/08G18 RMK AO2
63870K0J4 0J420160501111012305/01/16 11:10:31  5-MIN K0J4 011610Z AUTO 18009G18KT 140V220 10SM SCT031 27/19 A3003 220 62 1700 180/09G18 140V220 RMK AO2
63870K0J4 0J420160501111510805/01/16 11:15:31  5-MIN K0J4 011615Z AUTO 22010KT 10SM SCT031 SCT043 28/19 A3002 220 60 1800 220/10 RMK AO2
63870K0J4 0J420160501112010805/01/16 11:20:31  5-MIN K0J4 011620Z AUTO 21008KT 10SM SCT031 BKN045 27/19 A3003 220 62 1700 210/08 RMK AO2
63870K0J4 0J420160501112512105/01/16 11:25:31  5-MIN K0J4 011625Z AUTO 1-MIN K0J4 011710Z AUTO 20008KT 10/10 RMK AO2 A3003 210 56 1800 210/08 RMK AO2
63870K0J4 0J420160501124010805/01/16 12:40:31  5-MIN K0J4 011740Z AUTO 21011KT 10SM FEW039 SCT050 28/19 A3003 220 56 1800 210/11 RMK AO2
63870K0J4 0J420160501124511505/01/16 12:45:31  5-MIN K0J4 011745Z AUTO 19006KT 10SM FEW038 SCT046 BKN060 28/18 A3003 220 54 1800 190/06 RMK AO2
63870K0J4 0J420160501125010805/01/16 12:50:31  5-MIN K0J4 011750Z AUTO 21009KT 10SM FEW042 SCT060 29/19 A3002 220 54 1900 210/09 RMK AO2
63870K0J4 0J420160501125515205/01/16 12:55:31  5-MIN K0J4 011755Z AUTO 21007KT 160V230 10SM FEW045 29/19 A3002 220 56 1900 210/07 160V230 RMK AO2 SLP162 T02890194 10289 20211 51010
63870K0J4 0J420160501130010105/01/16 13:00:31  5-MIN K0J4 011800Z AUTO 21007KT 10SM FEW042 29/19 A3002 220 54 1900 210/07 RMK AO2
63870K0J4 0J420160501130510105/01/16 13:05:31  5-MIN K0J4 011805Z AUTO 17004KT 10SM FEW042 29/19 A3002 220 54 1900 170/04 RMK AO2
63870K0J4 0J420160501131011005/01/16 13:10:31  5-MIN K0J4 011810Z AU4 012325Z AUTO 21004KT 10SM CLR 26/19 A3001 230 66 1600 210/04 RMK AO2
63870K0J4 0J420160501183009805/01/16 18:30:31  5-MIN K0J4 012330Z AUTO 22004KT 10SM CLR 26/20 A3001 230 71 1500 220/04 RMK AO2
63870K0J4 0J420160501183509805/01/16 18:35:31  5-MIN K0J4 012335Z AUTO 18004KT 10SM CLR 26/20 A3000 240 71 1600 180/04 RMK AO2
63870K0J4 0J420160501184009805/01/16 18:40:31  5-MIN K0J4 012340Z AUTO 19005KT 10SM CLR 26/20 A3000 240 71 1600 190/05 RMK AO2
63870K0J4 0J420160501184509805/01/16 18:45:31  5-MIN K0J4 012345Z AUTO 19005KT 10SM CLR 26/20 A3000 240 71 1600 190/05 RMK AO2
63870K0J4 0J420160501185009805/01/16 18:50:31  5-MIN K0J4 012350Z AUTO 19005KT 10SM CLR 26/20 A3000 240 71 1600 190/05 RMK AO2
63870K0J4 0J420160501185513305/01/16 18:55:31  5-MIN K0J4 012355Z AUTO 20004KT 10SM CLR 25/20 A3000 240 73 1500 200/04 RMK AO2 SLP155 T02500200 10294 20250 55007
63870K0J4 0J420160501190009805/01/16 19:00:31  5-MIN K0J4 020000Z AUTO 18004KT 10SM CLR 25/20 A3000 240 87 1200 140/03 RMK AO2
63870K0J4 0J420160501212509805/01/16 21:25:31  5-MIN K0J4 020225Z AUTO 00000KT 10SM CLR 22/21 A3002 230 90 1200 000/00 RMK AO2
63870K0J4 0J420160501213009805/01/16 21:30:31  5-MIN K0J4 020230Z AUTO 00000KT 10SM CLR 23/21 A3003 220 87 1200 000/00 RMK AO2
63870K0J4 0J420160501213511705/01/16 21:35:31  5-MIN K0J4 020235Z AUTO 00000KT 10SM CLR 22/21 A3003 220 90 1100 000/00 RMK AO205/01/16 21:40:31O2
63870K0J4 0J420160501220509805/01/16 22:05:31  5-MIN K0J4 020305Z AUTO 00000KT 10SM CLR 22/21 A3003 210 90 1100 000/00 RMK AO2
63870K0J4 0J420160501221009805/01/16 22:10:31  5-MIN K0J4 020310Z AUTO 00000KT 10SM CLR 22/21 A3003 220 90 1100 000/00 RMK AO2
63870K0J4 0J420160501221509805/01/16 22:15:31  5-MIN K0J4 020315Z AUTO 00000KT 10SM CLR 22/21 A3003 220 93 1100 000/00 RMK AO2
63870K0J4 0J420160501222009805/01/16 22:20:31  5-MIN K0J4 020320Z AUTO 00000KT 10SM CLR 22/21 A3002 220 93 1100 000/00 RMK AO2
63870K0J4 0J420160501222509805/01/16 22:25:31  5-MIN K0J4 020325Z AUTO 00000KT 10SM CLR 22/21 A3002 220 90 1200 000/00 RMK AO2
63870K0J4 0J420160501223009805/01/16 22:30:31  5-MIN K0J4 020330Z AUTO 00000KT 10SM CLR 22/21 A3002 220 93 1100 000/00 RMK AO2
63870K0J4 0J420160501223509805/01/16 22:35:31  5-MIN K0J4 020335Z AUTO 00000KT 10SM CLR 22/20 A3003 220 90 1100 000/00 RMK AO2
63870K0J4 0J420160501224009805/01/16 22:40:31  5-MIN K0J4 020340Z AUTO 00000KT 10SM CLR 22/21 A3003 220 93 1100 000/00 RMK AO2
63870K0J4 0J420160501224509805/01/16 22:45:31  5-MIN K0J4 020345Z AUTO 20003KT 10SM CLR 22/21 A3003 210 93 1100 200/03 RMK AO2
63870K0J4 0J420160501225009805/01/16 22:50:31  5-MIN K0J4 020350Z AUTO 00000KT 10SM CLR 22/21 A3003 210 93 1100 000/00 RMK AO2
63870K0J4 0J420160501225511505/01/16 22:55:31  5-MIN K0J4 020355Z AUTO 16003KT 10SM CLR 22/21 A3003 220 93 1100 160/03 RMK AO2 SLP163 T02170206
63870K0J4 0J420160501230009805/01/16 23:00:31  5-MIN K0J4 020400Z AUTO 16003KT 10SM CLR 22/21 A3002 220 90 1200 160/03 RMK AO2
63870K0J4 0J420160501230509805/01/16 23:05:31  5-MIN K0J4 020405Z AUTO 17003KT 10SM CLR 22/21 A3003 220 90 1100 170/03 RMK AO2
63870K0J4 0J420160501231009805/01/16 23:10:31  5-MIN K0J4 020410Z AUTO 00000KT 10SM CLR 22/21 A3003 210 90 1100 000/00 RMK AO2
63870K0J4 0J420160501231509805/01/16 23:15:31  5-MIN K0J4 020415Z AUTO 00000KT 10SM CLR 22/21 A3003 210 90 1100 000/00 RMK AO2
63870K0J4 0J420160501232009805/01/16 23:20:31  5-MIN K0J4 020420Z AUTO 00000KT 10SM CLR 22/21 A3003 210 93 1100 000/00 RMK AO2
63870K0J4 0J420160501232509805/01/16 23:25:31  5-MIN K0J4 020425Z AUTO 00000KT 10SM CLR 22/21 A3004 210 93 1100 000/00 RMK AO2
63870K0J4 0J420160501233009805/01/16 23:30:31  5-MIN K0J4 020430Z AUTO 00000KT 10SM CLR 22/21 A3003 210 93 1100 000/00 RMK AO2
63870K0J4 0J420160501233509805/01/16 23:35:31  5-MIN K0J4 020435Z AUTO 00000KT 10SM CLR 22/21 A3003 210 90 1100 000/00 RMK AO2
63870K0J4 0J420160501234017505/01/16 23:40:31  5-MIN K0J4 020440Z AUTO 00000KT 10SM CLR 22/21 A3003MIN K0J4 020455Z AUTO 00000KT 10SM CLR 21/20 A3003 210 93 1000 000/00 RMK AO2 SLP165 T02110200 402940206
63870K0J4 0J420160502000009705/02/16 00:00:31  5-MIN K0J4 020500Z AUTO 00000KT 9SM CLR 21/20 A3003 210 93 1000 000/00 RMK AO2
63870K0J4 0J420160502000509705/02/16 00:05:31  5-MIN K0J4 020505Z AUTO 00000KT 9SM CLR 21/20 A3003 220 93 1000 000/00 RMK AO2
63870K0J4 0J420160502001015405/02/16 00:10:31  5-MIN K0J4 020510Z AUTO 16003KT 8SM CLR 21/20 A3003 220 93 1000 160/03 RMK AO205 00000KT 7SM CLR 21/20 A3000 240 97 1000 000/00 RMK AO2
63870K0J4 0J420160502024509905/02/16 02:45:31  5-MIN K0J4 020745Z AUTO 00000KT 6SM BR CLR 20/19 A2999 250 97 900 000/00 RMK AO2
63870K0J4 0J420160502025009905/02/16 02:50:31  5-MIN K0J4 020750Z AUTO 00000KT 6SM BR CLR 20/19 A2999 250 97 900 000/00 RMK AO2
63870K0J4 0J420160502025511605/02/16 02:55:31  5-MIN K0J4 020755Z AUTO 00000KT 5SM BR CLR 20/19 A2999 250 97 900 000/00 RMK AO2 SLP151 T02000194
63870K0J4 0J420160502030009905/02/16 03:00:31  5-MIN K0J4 020800Z AUTO 00000KT 5SM BR CLR 20/19 A2999 250 97 900 000/00 RMK AO2
63870K0J4 0J420160502030509905/02/16 03:05:31  5-MIN K0J4 020805Z AUTO 00000KT 5SM BR CLR 19/19 A2999 250 97 900 000/00 RMK AO2
63870K0J4 0J420160502031009905/02/16 03:10:31  5-MIN K0J4 020810Z AUTO 00000KT 5SM BR CLR 20/19 A3000 250 93 900 000/00 RMK AO2
63870K0J4 0J420160502031513105/02/16 03:15:31  5-MIN K0J4 020815Z AUTO 00000KT 6SM BR CLR 20/19 A2999 250 97 900 000/00 RMK AO2A2999 250 97 1000 180/04 RMK AO2
63870K0J4 0J420160502054510405/02/16 05:45:31  5-MIN K0J4 021045Z AUTO 19003KT 1/2SM FG VV002 21/20 A2999 250 97 1000 190/03 RMK AO2
63870K0J4 0J420160502055010405/02/16 05:50:31  5-MIN K0J4 021050Z AUTO 18004KT 1/2SM FG VV002 21/20 A2999 250 97 1000 180/04 RMK AO2
63870K0J4 0J420160502055507205/02/16 05:55:31  5-MIN K0J4 021055Z AUTO 18005KT 1/2SM FG VV002 21/20 
63870K0J4 0J420160502093510105/02/16 09:35:31  5-MIN K0J4 021435Z AUTO 17007KT 10SM FEW011 24/20 A3003 210 76 1400 170/07 RMK AO2
63870K0J4 0J420160502094010105/02/16 09:40:31  5-MIN K0J4 021440Z AUTO 18007KT 10SM FEW011 24/20 A3003 210 76 1400 180/07 RMK AO2
63870K0J4 0J420160502094510105/02/16 09:45:31  5-MIN K0J4 021445Z AUTO 17005KT 10SM FEW011 24/20 A3003 210 76 1400 170/05 RMK AO2
63870K0J4 0J420160502095009805/02/16 09:50:31  5-MIN K0J4 021450Z AUTO 17006KT 10SM CLR 24/20 A3004 210 76 1400 170/06 RMK AO2
63870K0J4 0J420160502095512105/02/16 09:55:31  5-MIN K0J4 021455Z AUTO 19005KT 10SM CLR 25/20 A3004 210 73 1500 190/05 RMK AO2 SLP167 T02500200 53006
63870K0J4 0J420160502100010105/02/16 10:00:31  5-MIN K0J4 021500Z AUTO 17005KT 10SM FEW021 25/20 A3004 210 73 1500 170/05 RMK AO2
63870K0J4 0J420160502100510105/02/16 10:05:31  5-MIN K0J4 021505Z AUTO 17006KT 10SM FEW021 25/20 A3004 210 73 1500 170/06 RMK AO2
63870K0J4 0J420160502101010105/02/16 10:10:31  5-MIN K0J4 021510Z AUTO VRB05KT 10SM FEW021 26/20 A3004 210 71 1500 VRB/05 RMK AO2
63870K0J4 0J420160502101510105/02/16 10:15:31  5-MIN K0J4 021515Z AUTO VRB06KT 10SM FEW021 25/20 A3004 210 73 1500 VRB/06 RMK AO2
63870K0J4 0J420160502102010105/02/16 10:20:31  5-MIN K0J4 021520Z AUTO 20007KT 10SM FEW022 25/20 A3004 210 73 1500 200/07 RMK AO2
63870K0J4 0J420160502102510105/02/16 10:25:31  5-MIN K0J4 021525Z AUTO 20006KT 10SM SCT022 25/19 A3004 210 71 1500 200/06 RMK AO2
63870K0J4 0J420160502103010105/02/16 10:30:31  5-MIN K0J4 021530Z AUTO 19005KT 10SM SCT022 25/20 A3004 210 73 1500 190/05 RMK AO2
63870K0J4 0J420160502103510105/02/16 10:35:31  5-MIN K0J4 021535Z AUTO VRB04KT 10SM SCT022 26/20 A3004 210 71 1500 VRB/04 RMK AO2
63870K0J4 0J420160502104010805/02/16 10:40:31  5-MIN K0J4 021540Z AUTO 19006KT 10SM SCT022 SCT031 26/21 A3004 210 73 1500 190/06 RMK AO2
63870K0J4 0J420160502104510105/02/16 10:45:31  5-MIN K0J4 021545Z AUTO 20007KT 10SM SCT022 26/20 A3004 200 71 1500 200/07 RMK AO2
63870K0J4 0J420160502105010805/02/16 10:50:31  5-MIN K0J4 021550Z AUTO 22007KT 10SM SCT022 BKN042 26/20 A3004 200 71 1500 220/07 RMK AO2
63870K0J4 0J420160502105513205/02/16 10:55:31  5-MIN K0J4 021555Z AUTO 22005KT 10SM FEW022 SCT031 BKN042 26/20 A3005 200 71 1500 220/05 RMK AO2 SLP170 T02560200
63870K0J4 0J420160502110011505/02/16 11:00:31  5-MIN K0J4 021600Z AUTO 21006KT 10SM FEW022 SCT026 BKN032 26/20 A3005 200 71 1500 210/06 RMK AO2
63870K0J4 0J420160502110511505/02/16 11:05:31  5-MIN K0J4 021605Z AUTO 21007KT 10SM SCT022 SCT032 BKN041 26/20 A3005 200 71 1500 210/07 RMK AO2
63870K0J4 0J420160502111011505/02/16 11:10:31  5-MIN K0J4 021610Z AUTO 23004KT 10SM FEW022 SCT032 BKN041 26/20 A3005 200 68 1600 230/04 RMK AO2
63870K0J4 0J420160502111507005/02/16 11:15:31  5-MIN K0J4 021615Z AUTO 23005KT 10SM FEW024 SCT032 
63870K0J4 0J420160502202512305/02/16 20:25:31  5-MIN K0J4 030125Z AUTO 00000KT 10SM FEW015 SCT100 22/21 A2997 270 90 1200 000/00 RMK AO2 RAB10E20 P0000
63870K0J4 0J420160502203012405/02/16 20:30:31  5-MIN K0J4 030130Z AUTO 00000KT 10SM -RA FEW015 SCT100 22/20 A2996 280 87 1200 000/00 RMK AO2 RAB10 P0000
63870K0J4 0J420160502203513005/02/16 20:35:31  5-MIN K0J4 030135Z AUTO 00000KT 9SM -RA FEW015 SCT100 SCT120 22/20 A2996 280 87 1200 000/00 RMK AO2 RAB10 P0000
63870K0J4 0J420160502204012305/02/16 20:40:31  5-MIN K0J4 030140Z AUTO 00000KT 9SM -RA SCT095 SCT120 22/20 A2997 270 87 1200 000/00 RMK AO2 RAB10 P0001
63870K0J4 0J420160502204512405/02/16 20:45:31  5-MIN K0J4 030145Z AUTO 00000KT 10SM -RA SCT090 SCT110 22/21 A2997 270 93 1100 000/00 RMK AO2 RAB10 P0001
63870K0J4 0J420160502205012305/02/16 20:50:31  5-MIN K0J4 030150Z AUTO 00000KT 9SM -RA FEW095 SCT120 22/21 A2997 270 93 1100 000/00 RMK AO2 RAB10 P0001
63870K0J4 0J420160502205514005/02/16 20:55:31  5-MIN K0J4 030155Z AUTO 00000KT 9SM -RA FEW095 BKN120 22/21 A2998 260 93 1100 000/00 RMK AO2 RAB10 SLP147 P0001 T02170206
63870K0J4 0J420160502210011705/02/16 21:00:31  5-MIN K0J4 030200Z AUTO 22003KT 9SM -RA FEW090 BKN120 22/20 A2998 260 90 1100 220/03 RMK AO2 P0000
63870K0J4 0J420160502210511705/02/16 21:05:31  5-MIN K0J4 030205Z AUTO 23003KT 9SM -RA FEW090 BKN120 22/20 A2998 260 90 1100 230/03 RMK AO2 P0000
63870K0J4 0J420160502211011005/02/16 21:10:31  5-MIN K0J4 030210Z AUTO 00000KT 8SM -RA BKN110 22/20 A2998 260 90 1100 000/00 RMK AO2 P0001
63870K0J4 0J420160502211511305/02/16 21:15:31  5-MIN K0J4 030215Z AUTO 00000KT 6SM -RA BR BKN110 21/19 A2998 260 87 1100 000/00 RMK AO2 P0001
63870K0J4 0J420160502212011305/02/16 21:20:31  5-MIN K0J4 030220Z AUTO 22003KT 6SM -RA BR BKN110 21/19 A2997 270 87 1100 220/03 RMK AO2 P0002
63870K0J4 0J420160502212511705/02/16 21:25:31  5-MIN K0J4 030225Z AUTO 20003KT 9SM -RA SCT080 BKN110 21/19 A2996 280 90 1000 200/03 RMK AO2 P0002
63870K0J4 0J420160502213012505/02/16 21:30:31  5-MIN K0J4 030230Z AUTO 19004KT 10SM -RA SCT080 BKN110 21/19 A2996 280 93 1000 190/04 RMK AO2 PRESFR P0002
63870K0J4 0J420160502213511805/02/16 21:35:31  5-MIN K0J4 030235Z AUTO 23003KT 10SM -RA FEW080 BKN110 21/19 A2996 280 93 1000 230/03 RMK AO2 P0002
63870K0J4 0J420160502214012005/02/16 21:40:31  5-MIN K0J4 030240Z AUTO 23004KT 10SM FEW080 SCT110 21/19 A2996 280 90 1000 230/04 RMK AO2 RAE39 P0002
63870K0J4 0J420160502214511105/02/16 21:45:31  5-MIN K0J4 030245Z AUTO 22004KT 10SM -RA FEW080 21/19 A2997 270 90 1000 220/04 RMK AO2 P0002
63870K0J4 0J420160502215011105/02/16 21:50:31  5-MIN K0J4 030250Z AUTO 23003KT 10SM -RA FEW080 21/19 A2997 270 90 1000 230/03 RMK AO2 P0002
63870K0J4 0J420160502215513905/02/16 21:55:31  5-MIN K0J4 030255Z AUTO 00000KT 10SM CLR 21/19 A2997 270 90 1000 000/00 RMK AO2 RAE55 SLP145 P0002 60003 T02060189 53005
63870K0J4 0J420160502220010105/02/16 22:00:31  5-MIN K0J4 030300Z AUTO 00000KT 10SM FEW095 21/19 A2997 270 93 1000 000/00 RMK AO2
63870K0J4 0J420160502220512405/02/16 22:05:31  5-MIN K0J4 030305Z AUTO 00000KT 10SM -RA SCT095 SCT120 21/19 A2997 270 93 1000 000/00 RMK AO2 RAB04 P0000
63870K0J4 0J420160502221012405/02/16 22:10:31  5-MIN K0J4 030310Z AUTO 00000KT 10SM -RA FEW095 SCT120 21/19 A2996 280 90 1000 000/00 RMK AO2 RAB04 P0000
63870K0J4 0J420160502221512405/02/16 22:15:31  5-MIN K0J4 030315Z AUTO 00000KT 10SM -RA FEW095 SCT120 21/19 A2996 280 93 1000 000/00 RMK AO2 RAB04 P0000
63870K0J4 0J420160502222012405/02/16 22:20:31  5-MIN K0J4 030320Z AUTO 00000KT 10SM -RA FEW095 SCT120 20/19 A2997 270 97 1000 000/00 RMK AO2 RAB04 P0000
63870K0J4 0J420160502222512305/02/16 22:25:31  5-MIN K0J4 030325Z AUTO 00000KT 9SM -RA FEW095 SCT120 20/19 A2997 270 97 1000 000/00 RMK AO2 RAB04 P0001
63870K0J4 0J420160502223011705/02/16 22:30:31  5-MIN K0J4 030330Z AUTO 00000KT 10SM -RA SCT110 20/19 A2997 270 97 1000 000/00 RMK AO2 RAB04 P0001
63870K0J4 0J420160502223511705/02/16 22:35:31  5-MIN K0J4 030335Z AUTO 20003KT 10SM -RA SCT110 20/19 A2997 270 93 1000 200/03 RMK AO2 RAB04 P0001
63870K0J4 0J420160502224011605/02/16 22:40:31  5-MIN K0J4 030340Z AUTO 21003KT 10SM SCT120 21/19 A2996 280 93 1000 210/03 RMK AO2 RAB04E40 P0001
63870K0J4 0J420160502224511605/02/16 22:45:31  5-MIN K0J4 030345Z AUTO 23003KT 10SM FEW120 21/19 A2997 270 93 1000 230/03 RMK AO2 RAB04E40 P0001
63870K0J4 0J420160502225011605/02/16 22:50:31  5-MIN K0J4 030350Z AUTO 00000KT 10SM FEW110 20/19 A2996 280 93 1000 000/00 RMK AO2 RAB04E40 P0001
63870K0J4 0J420160502225513305/02/16 22:55:31  5-MIN K0J4 030355Z AUTO 21003KT 10SM FEW110 20/19 A2996 280 93 1000 210/03 RMK AO2 RAB04E40 SLP143 P0001 T02000189
63870K0J4 0J420160502230010105/02/16 23:00:31  5-MIN K0J4 030400Z AUTO 22003KT 10SM FEW110 20/19 A2996 280 93 1000 220/03 RMK AO2
63870K0J4 0J420160502230509805/02/16 23:05:31  5-MIN K0J4 030405Z AUTO 00000KT 10SM CLR 20/19 A2997 270 93 1000 000/00 RMK AO2
63870K0J4 0J420160502231009805/02/16 23:10:31  5-MIN K0J4 030410Z AUTO 33004KT 10SM CLR 20/19 A2997 270 93 1000 330/04 RMK AO2
63870K0J4 0J420160502231510105/02/16 23:15:31  5-MIN K0J4 030415Z AUTO VRB03KT 10SM FEW120 20/19 A2997 270 93 1000 VRB/03 RMK AO2
63870K0J4 0J420160502232010105/02/16 23:20:31  5-MIN K0J4 030420Z AUTO 00000KT 10SM FEW120 20/19 A2996 280 93 1000 000/00 RMK AO2
63870K0J4 0J420160502232509805/02/16 23:25:31  5-MIN K0J4 030425Z AUTO 00000KT 10SM CLR 20/19 A2996 280 93 1000 000/00 RMK AO2
63870K0J4 0J420160502233010105/02/16 23:30:31  5-MIN K0J4 030430Z AUTO 33003KT 10SM FEW110 20/19 A2996 280 93 1000 330/03 RMK AO2
63870K0J4 0J420160502233510805/02/16 23:35:31  5-MIN K0J4 030435Z AUTO 00000KT 10SM FEW011 SCT110 20/19 A2997 270 93 1000 000/00 RMK AO2
63870K0J4 0J420160502234010805/02/16 23:40:31  5-MIN K0J4 030440Z AUTO 33003KT 10SM SCT011 BKN120 20/19 A2997 270 93 1000 330/03 RMK AO2
63870K0J4 0J420160502234510105/02/16 23:45:31  5-MIN K0J4 030445Z AUTO 00000KT 10SM BKN011 20/19 A2996 280 93 1000 000/00 RMK AO2
63870K0J4 0J420160502235011505/02/16 23:50:31  5-MIN K0J4 030450Z AUTO 00000KT 10SM BKN011 BKN016 BKN021 21/19 A2996 280 93 1000 000/00 RMK AO2
63870K0J4 0J420160502235513505/02/16 23:55:31  5-MIN K0J4 030455Z AUTO 00000KT 10SM BKN011 BKN021 21/19 A2996 280 90 1000 000/00 RMK AO2 SLP140 T02060189 402830189
63870K0J4 0J420160503000010805/03/16 00:00:31  5-MIN K0J4 030500Z AUTO 00000KT 10SM BKN013 OVC019 21/19 A2995 280 93 1000 000/00 RMK AO2
63870K0J4 0J420160503000510105/03/16 00:05:31  5-MIN K0J4 030505Z AUTO 00000KT 10SM OVC015 21/19 A2995 290 93 1000 000/00 RMK AO2
63870K0J4 0J420160503001010805/03/16 00:10:31  5-MIN K0J4 030510Z AUTO 00000KT 10SM BKN015 OVC020 21/19 A2995 290 93 1000 000/00 RMK AO2
63870K0J4 0J420160503001510705/03/16 00:15:31  5-MIN K0J4 030515Z AUTO 00000KT 8SM BKN015 OVC020 21/19 A2995 290 93 1000 000/00 RMK AO2
63870K0J4 0J420160503002010705/03/16 00:20:31  5-MIN K0J4 030520Z AUTO 00000KT 8SM BKN013 BKN019 21/19 A2995 290 93 1000 000/00 RMK AO2
63870K0J4 0J420160503002510705/03/16 00:25:31  5-MIN K0J4 030525Z AUTO 22003KT 8SM BKN013 BKN019 20/19 A2995 290 93 1000 220/03 RMK AO2
63870K0J4 0J420160503003010005/03/16 00:30:31  5-MIN K0J4 030530Z AUTO 00000KT 7SM BKN013 20/19 A2995 290 93 1000 000/00 RMK AO2
63870K0J4 0J420160503003510005/03/16 00:35:31  5-MIN K0J4 030535Z AUTO 00000KT 7SM BKN013 20/19 A2995 290 93 1000 000/00 RMK AO2
63870K0J4 0J420160503004009905/03/16 00:40:31  5-MIN K0J4 030540Z AUTO 00000KT 7SM BKN013 19/19 A2995 290 97 900 000/00 RMK AO2
63870K0J4 0J420160503004509905/03/16 00:45:31  5-MIN K0J4 030545Z AUTO 00000KT 7SM SCT013 19/19 A2995 290 97 900 000/00 RMK AO2
63870K0J4 0J420160503005009905/03/16 00:50:31  5-MIN K0J4 030550Z AUTO 00000KT 7SM FEW013 19/19 A2995 290 97 900 000/00 RMK AO2
63870K0J4 0J420160503005514005/03/16 00:55:31  5-MIN K0J4 030555Z AUTO 00000KT 7SM FEW013 19/19 A2995 290 97 900 000/00 RMK AO2 SLP136 60004 T01940189 10244 20194 52001
63870K0J4 0J420160503010009905/03/16 01:00:31  5-MIN K0J4 030600Z AUTO 00000KT 7SM FEW011 19/19 A2995 290 97 900 000/00 RMK AO2
63870K0J4 0J420160503010509905/03/16 01:05:31  5-MIN K0J4 030605Z AUTO 00000KT 6SM BR CLR 19/18 A2995 290 93 900 000/00 RMK AO2
63870K0J4 0J420160503011009905/03/16 01:10:31  5-MIN K0J4 030610Z AUTO 00000KT 5SM BR CLR 19/18 A2994 300 93 900 000/00 RMK AO2
63870K0J4 0J420160503011509905/03/16 01:15:31  5-MIN K0J4 030615Z AUTO 00000KT 5SM BR CLR 19/18 A2994 300 93 900 000/00 RMK AO2
63870K0J4 0J420160503012009905/03/16 01:20:31  5-MIN K0J4 030620Z AUTO 00000KT 6SM BR CLR 19/18 A2994 300 97 900 000/00 RMK AO2
63870K0J4 0J420160503012510605/03/16 01:25:31  5-MIN K0J4 030625Z AUTO 00000KT 1 1/4SM BR FEW003 19/18 A2993 300 97 900 000/00 RMK AO2
63870K0J4 0J420160503013010305/03/16 01:30:31  5-MIN K0J4 030630Z AUTO 00000KT 3/4SM BR VV004 19/18 A2993 310 97 900 000/00 RMK AO2
63870K0J4 0J420160503013510305/03/16 01:35:31  5-MIN K0J4 030635Z AUTO 00000KT 1/2SM FG VV004 19/18 A2993 310 97 900 000/00 RMK AO2
63870K0J4 0J420160503014010305/03/16 01:40:31  5-MIN K0J4 030640Z AUTO 00000KT 1/2SM FG VV003 19/18 A2993 310 97 900 000/00 RMK AO2
63870K0J4 0J420160503014510305/03/16 01:45:31  5-MIN K0J4 030645Z AUTO 00000KT 1/2SM FG VV004 19/18 A2993 310 97 900 000/00 RMK AO2
63870K0J4 0J420160503015010305/03/16 01:50:31  5-MIN K0J4 030650Z AUTO 00000KT 1/2SM FG VV005 19/18 A2992 310 97 900 000/00 RMK AO2
63870K0J4 0J420160503015512005/03/16 01:55:31  5-MIN K0J4 030655Z AUTO 00000KT 1/2SM FG VV006 19/18 A2992 320 97 900 000/00 RMK AO2 SLP128 T01890183
63870K0J4 0J420160503020010405/03/16 02:00:31  5-MIN K0J4 030700Z AUTO 00000KT 1/2SM FG VV006 18/18 A2992 310 100 800 000/00 RMK AO2
63870K0J4 0J420160503020510305/03/16 02:05:31  5-MIN K0J4 030705Z AUTO 00000KT 3/4SM BR VV007 19/18 A2992 310 97 900 000/00 RMK AO2
63870K0J4 0J420160503021010605/03/16 02:10:31  5-MIN K0J4 030710Z AUTO 00000KT 1 1/4SM BR BKN007 19/18 A2992 320 97 900 000/00 RMK AO2
63870K0J4 0J420160503021510205/03/16 02:15:31  5-MIN K0J4 030715Z AUTO 00000KT 4SM BR SCT007 19/18 A2992 320 97 900 000/00 RMK AO2
63870K0J4 0J420160503022010305/03/16 02:20:31  5-MIN K0J4 030720Z AUTO 00000KT 6SM BR SCT007 18/18 A2992 320 100 800 000/00 RMK AO2
63870K0J4 0J420160503022510205/03/16 02:25:31  5-MIN K0J4 030725Z AUTO 00000KT 6SM BR FEW007 19/18 A2992 320 97 900 000/00 RMK AO2
63870K0J4 0J420160503023010205/03/16 02:30:31  5-MIN K0J4 030730Z AUTO 00000KT 6SM BR FEW007 19/18 A2992 320 97 900 000/00 RMK AO2
63870K0J4 0J420160503023509905/03/16 02:35:31  5-MIN K0J4 030735Z AUTO 00000KT 5SM BR CLR 19/18 A2992 320 97 900 000/00 RMK AO2
63870K0J4 0J420160503024009905/03/16 02:40:31  5-MIN K0J4 030740Z AUTO 00000KT 5SM BR CLR 19/18 A2992 310 97 900 000/00 RMK AO2
63870K0J4 0J420160503024509905/03/16 02:45:31  5-MIN K0J4 030745Z AUTO 00000KT 5SM BR CLR 19/18 A2992 310 97 900 000/00 RMK AO2
63870K0J4 0J420160504052010005/04/16 05:20:31  5-MIN K0J4 041020Z AUTO 32003KT 10SM FEW041 14/13 A2987 360 90 400 320/03 RMK AO2
63870K0J4 0J420160504052510005/04/16 05:25:31  5-MIN K0J4 041025Z AUTO 00000KT 10SM FEW043 14/13 A2988 360 90 400 000/00 RMK AO2
63870K0J4 0J420160504053010005/04/16 05:30:31  5-MIN K0J4 041030Z AUTO 35003KT 10SM FEW043 14/13 A2988 360 90 400 350/03 RMK AO2
63870K0J4 0J420160504053510005/04/16 05:35:31  5-MIN K0J4 041035Z AUTO 35004KT 10SM FEW043 14/13 A2987 360 90 400 350/04 RMK AO2
63870K0J4 0J420160504054010005/04/16 05:40:31  5-MIN K0J4 041040Z AUTO VRB04KT 10SM FEW043 14/13 A2987 360 90 400 VRB/04 RMK AO2
63870K0J4 0J420160504054510005/04/16 05:45:31  5-MIN K0J4 041045Z AUTO 34003KT 10SM FEW043 14/13 A2988 360 90 400 340/03 RMK AO2
63870K0J4 0J420160504055009705/04/16 05:50:31  5-MIN K0J4 041050Z AUTO 36003KT 10SM CLR 14/12 A2988 360 86 400 360/03 RMK AO2
63870K0J4 0J420160504055511405/04/16 05:55:31  5-MIN K0J4 041055Z AUTO VRB03KT 10SM CLR 14/12 A2988 350 86 400 VRB/03 RMK AO2 SLP114 T01440122
63870K0J4 0J420160504060009705/04/16 06:00:31  5-MIN K0J4 041100Z AUTO VRB03KT 10SM CLR 14/12 A2988 350 90 300 VRB/03 RMK AO2
63870K0J4 0J420160504060509705/04/16 06:05:31  5-MIN K0J4 041105Z AUTO 00000KT 10SM CLR 14/12 A2988 350 90 300 000/00 RMK AO2
63870K0J4 0J420160504061009705/04/16 06:10:31  5-MIN K0J4 041110Z AUTO 33004KT 10SM CLR 14/12 A2988 350 90 300 330/04 RMK AO2
63870K0J4 0J420160504061509705/04/16 06:15:31  5-MIN K0J4 041115Z AUTO 00000KT 10SM CLR 14/12 A2988 350 90 300 000/00 RMK AO2
63870K0J4 0J420160504062009705/04/16 06:20:31  5-MIN K0J4 041120Z AUTO VRB03KT 10SM CLR 14/12 A2988 350 90 300 VRB/03 RMK AO2
63870K0J4 0J420160504062509705/04/16 06:25:31  5-MIN K0J4 041125Z AUTO 35003KT 10SM CLR 14/12 A2988 350 90 300 350/03 RMK AO2
63870K0J4 0J420160504063009705/04/16 06:30:31  5-MIN K0J4 041130Z AUTO VRB03KT 10SM CLR 14/12 A2988 360 90 300 VRB/03 RMK AO2
63870K0J4 0J420160504063509705/04/16 06:35:31  5-MIN K0J4 041135Z AUTO 34003KT 10SM CLR 14/12 A2988 350 86 400 340/03 RMK AO2
63870K0J4 0J420160504064009705/04/16 06:40:31  5-MIN K0J4 041140Z AUTO 34004KT 10SM CLR 14/12 A2988 350 86 400 340/04 RMK AO2
63870K0J4 0J420160504064509705/04/16 06:45:31  5-MIN K0J4 041145Z AUTO VRB03KT 10SM CLR 14/12 A2988 350 86 400 VRB/03 RMK AO2
63870K0J4 0J420160504065009705/04/16 06:50:31  5-MIN K0J4 041150Z AUTO VRB03KT 10SM CLR 14/12 A2988 360 86 400 VRB/03 RMK AO2
63870K0J4 0J420160504065513205/04/16 06:55:31  5-MIN K0J4 041155Z AUTO VRB04KT 10SM CLR 15/13 A2988 360 86 500 VRB/04 RMK AO2 SLP115 T01500128 10183 20139 55005
63870K0J4 0J420160504070009705/04/16 07:00:31  5-MIN K0J4 041200Z AUTO VRB03KT 10SM CLR 15/12 A2988 350 83 500 VRB/03 RMK AO2
63870K0J4 0J420160504070509705/04/16 07:05:31  5-MIN K0J4 041205Z AUTO 34003KT 10SM CLR 15/12 A2988 350 83 500 340/03 RMK AO2
63870K0J4 0J420160504071009705/04/16 07:10:31  5-MIN K0J4 041210Z AUTO VRB04KT 10SM CLR 15/12 A2988 350 83 500 VRB/04 RMK AO2
63870K0J4 0J420160504071509705/04/16 07:15:31  5-MIN K0J4 041215Z AUTO VRB03KT 10SM CLR 15/12 A2988 350 83 500 VRB/03 RMK AO2
63870K0J4 0J420160504072009705/04/16 07:20:31  5-MIN K0J4 041220Z AUTO VRB03KT 10SM CLR 16/12 A2988 350 80 500 VRB/03 RMK AO2
63870K0J4 0J420160504072509705/04/16 07:25:31  5-MIN K0J4 041225Z AUTO 35003KT 10SM CLR 16/12 A2988 350 80 500 350/03 RMK AO2
63870K0J4 0J420160504073009605/04/16 07:30:31  5-MIN K0J4 041230Z AUTO VRB04KT 9SM CLR 16/12 A2989 350 77 600 VRB/04 RMK AO2
63870K0J4 0J420160504073509605/04/16 07:35:31  5-MIN K0J4 041235Z AUTO 36006KT 9SM CLR 16/12 A2989 350 77 600 360/06 RMK AO2
63870K0J4 0J420160504074009705/04/16 07:40:31  5-MIN K0J4 041240Z AUTO VRB04KT 10SM CLR 16/12 A2989 350 77 600 VRB/04 RMK AO2
63870K0J4 0J420160504074509705/04/16 07:45:31  5-MIN K0J4 041245Z AUTO 01005KT 10SM CLR 17/12 A2988 350 75 700 010/05 RMK AO2
63870K0J4 0J420160504075009705/04/16 07:50:31  5-MIN K0J4 041250Z AUTO 36004KT 10SM CLR 17/12 A2988 350 75 700 360/04 RMK AO2
63870K0J4 0J420160504075511405/04/16 07:55:31  5-MIN K0J4 041255Z AUTO VRB05KT 10SM CLR 17/12 A2988 350 72 700 VRB/05 RMK AO2 SLP115 T01720122
63870K0J4 0J420160504080009705/04/16 08:00:31  5-MIN K0J4 041300Z AUTO 36004KT 10SM CLR 17/12 A2988 350 72 700 360/04 RMK AO2
63870K0J4 0J420160504080509705/04/16 08:05:31  5-MIN K0J4 041305Z AUTO 02006KT 10SM CLR 17/12 A2988 350 72 700 020/06 RMK AO2
63870K0J4 0J420160504081009705/04/16 08:10:31  5-MIN K0J4 041310Z AUTO 36007KT 10SM CLR 17/12 A2988 350 69 700 360/07 RMK AO2
63870K0J4 0J420160504081509605/04/16 08:15:31  5-MIN K0J4 041315Z AUTO 35005KT 9SM CLR 17/12 A2989 350 69 700 350/05 RMK AO2
63870K0J4 0J420160504082009605/04/16 08:20:31  5-MIN K0J4 041320Z AUTO VRB04KT 9SM CLR 18/12 A2989 350 67 800 VRB/04 RMK AO2
63870K0J4 0J420160504082509705/04/16 08:25:31  5-MIN K0J4 041325Z AUTO VRB04KT 10SM CLR 18/12 A2989 350 65 900 VRB/04 RMK AO2
63870K0J4 0J420160504083009705/04/16 08:30:31  5-MIN K0J4 041330Z AUTO VRB04KT 10SM CLR 18/12 A2989 350 67 800 VRB/04 RMK AO2
63870K0J4 0J420160504083509705/04/16 08:35:31  5-MIN K0J4 041335Z AUTO 04008KT 10SM CLR 18/12 A2989 350 65 900 040/08 RMK AO2
63870K0J4 0J420160504084009705/04/16 08:40:31  5-MIN K0J4 041340Z AUTO 03005KT 10SM CLR 18/11 A2989 350 64 800 030/05 RMK AO2
63870K0J4 0J420160504084509705/04/16 08:45:31  5-MIN K0J4 041345Z AUTO 03006KT 10SM CLR 18/11 A2989 350 62 900 030/06 RMK AO2
63870K0J4 0J420160504085009705/04/16 08:50:31  5-MIN K0J4 041350Z AUTO 35006KT 10SM CLR 18/11 A2988 350 62 900 350/06 RMK AO2
63870K0J4 0J420160504085512005/04/16 08:55:31  5-MIN K0J4 041355Z AUTO 03009G14KT 10SM CLR 18/11 A2988 350 60 900 030/09G14 RMK AO2 SLP116 T01830106
63870K0J4 0J420160504090009705/04/16 09:00:31  5-MIN K0J4 041400Z AUTO 03007KT 10SM CLR 18/11 A2989 350 60 900 030/07 RMK AO2
63870K0J4 0J420160504090509805/04/16 09:05:31  5-MIN K0J4 041405Z AUTO 01007KT 10SM CLR 19/12 A2989 350 60 1000 010/07 RMK AO2
63870K0J4 0J420160504091009705/04/16 09:10:31  5-MIN K0J4 041410Z AUTO 02007KT 10SM CLR 19/11 A2989 350 60 900 020/07 RMK AO2
63870K0J4 0J420160504091509805/04/16 09:15:31  5-MIN K0J4 041415Z AUTO 02005KT 10SM CLR 19/11 A2989 350 58 1000 020/05 RMK AO2
63870K0J4 0J420160504092011405/04/16 09:20:31  5-MIN K0J4 041420Z AUTO 01008KT 340V050 10SM CLR 20/11 A2989 350 56 1100 010/08 340V050 RMK AO2
63870K0J4 0J420160504092509705/04/16 09:25:31  5-MIN K0J4 041425Z AUTO 04009KT 10SM CLR 19/11 A2989 350 58 900 040/09 RMK AO2
63870K0J4 0J420160504093009805/04/16 09:30:31  5-MIN K0J4 041430Z AUTO 36007KT 10SM CLR 20/11 A2989 340 56 1000 360/07 RMK AO2
63870K0J4 0J420160505021010705/05/16 02:10:31  5-MIN K0J4 050710Z AUTO 00000KT 10SM SCT080 BKN100 14/10 A2981 420 74 500 000/00 RMK AO2
63870K0J4 0J420160505021510705/05/16 02:15:31  5-MIN K0J4 050715Z AUTO 00000KT 10SM FEW080 BKN100 14/11 A2981 420 77 500 000/00 RMK AO2
63870K0J4 0J420160505022010705/05/16 02:20:31  5-MIN K0J4 050720Z AUTO 00000KT 10SM FEW080 SCT100 14/10 A2981 420 74 500 000/00 RMK AO2
63870K0J4 0J420160505022510005/05/16 02:25:31  5-MIN K0J4 050725Z AUTO 00000KT 10SM SCT100 14/11 A2981 420 77 500 000/00 RMK AO2
63870K0J4 0J420160505023010005/05/16 02:30:31  5-MIN K0J4 050730Z AUTO 00000KT 10SM FEW100 14/10 A2981 420 74 500 000/00 RMK AO2
63870K0J4 0J420160505023510005/05/16 02:35:31  5-MIN K0J4 050735Z AUTO 00000KT 10SM SCT095 14/10 A2981 420 74 500 000/00 RMK AO2
63870K0J4 0J420160505024010005/05/16 02:40:31  5-MIN K0J4 050740Z AUTO 00000KT 10SM SCT090 14/10 A2981 420 77 400 000/00 RMK AO2
63870K0J4 0J420160505024510005/05/16 02:45:31  5-MIN K0J4 050745Z AUTO 00000KT 10SM SCT090 14/11 A2981 420 80 400 000/00 RMK AO2
63870K0J4 0J420160505025010005/05/16 02:50:31  5-MIN K0J4 050750Z AUTO 00000KT 10SM SCT090 14/11 A2981 420 80 400 000/00 RMK AO2
63870K0J4 0J420160505025511705/05/16 02:55:31  5-MIN K0J4 050755Z AUTO 00000KT 10SM FEW090 14/11 A2981 420 80 400 000/00 RMK AO2 SLP091 T01390106
63870K0J4 0J420160505030010005/05/16 03:00:31  5-MIN K0J4 050800Z AUTO 00000KT 10SM FEW090 14/11 A2981 420 80 400 000/00 RMK AO2
63870K0J4 0J420160505030510005/05/16 03:05:31  5-MIN K0J4 050805Z AUTO 00000KT 10SM FEW090 14/10 A2981 420 77 400 000/00 RMK AO2
63870K0J4 0J420160505031010005/05/16 03:10:31  5-MIN K0J4 050810Z AUTO 00000KT 10SM FEW095 14/10 A2981 420 77 400 000/00 RMK AO2
63870K0J4 0J420160505031510005/05/16 03:15:31  5-MIN K0J4 050815Z AUTO 00000KT 10SM FEW095 14/11 A2981 420 80 400 000/00 RMK AO2
63870K0J4 0J420160505032010005/05/16 03:20:31  5-MIN K0J4 050820Z AUTO 00000KT 10SM SCT095 14/11 A2981 420 80 400 000/00 RMK AO2
63870K0J4 0J420160505032510005/05/16 03:25:31  5-MIN K0J4 050825Z AUTO 00000KT 10SM BKN095 14/11 A2981 420 80 400 000/00 RMK AO2
63870K0J4 0J420160505033010005/05/16 03:30:31  5-MIN K0J4 050830Z AUTO 00000KT 10SM BKN095 14/11 A2981 420 77 500 000/00 RMK AO2
63870K0J4 0J420160505033510005/05/16 03:35:31  5-MIN K0J4 050835Z AUTO 00000KT 10SM BKN095 14/11 A2981 420 80 400 000/00 RMK AO2
63870K0J4 0J420160505034010005/05/16 03:40:31  5-MIN K0J4 050840Z AUTO 00000KT 10SM SCT095 14/11 A2981 420 80 400 000/00 RMK AO2
63870K0J4 0J420160505034510005/05/16 03:45:31  5-MIN K0J4 050845Z AUTO 00000KT 10SM SCT095 14/11 A2981 420 80 400 000/00 RMK AO2
63870K0J4 0J420160505035010005/05/16 03:50:31  5-MIN K0J4 050850Z AUTO 00000KT 10SM FEW095 13/11 A2981 420 83 400 000/00 RMK AO2
63870K0J4 0J420160505035512305/05/16 03:55:31  5-MIN K0J4 050855Z AUTO 00000KT 10SM FEW095 13/11 A2981 420 86 300 000/00 RMK AO2 SLP092 T01280106 53005
63870K0J4 0J420160505040009705/05/16 04:00:31  5-MIN K0J4 050900Z AUTO 00000KT 10SM CLR 13/11 A2981 420 86 300 000/00 RMK AO2
63870K0J4 0J420160505040509705/05/16 04:05:31  5-MIN K0J4 050905Z AUTO 00000KT 10SM CLR 13/11 A2981 420 86 300 000/00 RMK AO2
63870K0J4 0J420160505041009705/05/16 04:10:31  5-MIN K0J4 050910Z AUTO 00000KT 10SM CLR 13/11 A2981 420 86 300 000/00 RMK AO2
63870K0J4 0J420160505041509705/05/16 04:15:31  5-MIN K0J4 050915Z AUTO 00000KT 10SM CLR 13/11 A2981 420 86 300 000/00 RMK AO2
63870K0J4 0J420160505042009705/05/16 04:20:31  5-MIN K0J4 050920Z AUTO 00000KT 10SM CLR 12/10 A2981 420 86 200 000/00 RMK AO2
63870K0J4 0J420160505042509705/05/16 04:25:31  5-MIN K0J4 050925Z AUTO 00000KT 10SM CLR 12/10 A2981 420 86 200 000/00 RMK AO2
63870K0J4 0J420160505043009705/05/16 04:30:31  5-MIN K0J4 050930Z AUTO 00000KT 10SM CLR 12/10 A2981 420 86 200 000/00 RMK AO2
63870K0J4 0J420160505043509705/05/16 04:35:31  5-MIN K0J4 050935Z AUTO VRB03KT 10SM CLR 12/10 A2982 410 86 200 VRB/03 RMK AO2
63870K0J4 0J420160505044009705/05/16 04:40:31  5-MIN K0J4 050940Z AUTO 34003KT 10SM CLR 13/11 A2982 410 86 300 340/03 RMK AO2
63870K0J4 0J420160505044509705/05/16 04:45:31  5-MIN K0J4 050945Z AUTO 34003KT 10SM CLR 13/11 A2982 410 86 300 340/03 RMK AO2
63870K0J4 0J420160505045009705/05/16 04:50:31  5-MIN K0J4 050950Z AUTO 00000KT 10SM CLR 13/11 A2982 410 86 300 000/00 RMK AO2
63870K0J4 0J420160505045511405/05/16 04:55:31  5-MIN K0J4 050955Z AUTO 34003KT 10SM CLR 13/11 A2982 410 83 300 340/03 RMK AO2 SLP095 T01330106
63870K0J4 0J420160505050009705/05/16 05:00:31  5-MIN K0J4 051000Z AUTO 33003KT 10SM CLR 13/11 A2982 410 83 300 330/03 RMK AO2
63870K0J4 0J420160505050509705/05/16 05:05:31  5-MIN K0J4 051005Z AUTO 33004KT 10SM CLR 13/11 A2982 410 83 300 330/04 RMK AO2
63870K0J4 0J420160505051009705/05/16 05:10:31  5-MIN K0J4 051010Z AUTO VRB03KT 10SM CLR 13/11 A2982 410 83 300 VRB/03 RMK AO2
63870K0J4 0J420160505051509705/05/16 05:15:31  5-MIN K0J4 051015Z AUTO 00000KT 10SM CLR 13/11 A2982 400 83 300 000/00 RMK AO2
63870K0J4 0J420160505052009705/05/16 05:20:31  5-MIN K0J4 051020Z AUTO 00000KT 10SM CLR 13/11 A2983 400 83 300 000/00 RMK AO2
63870K0J4 0J420160505052509705/05/16 05:25:31  5-MIN K0J4 051025Z AUTO 33003KT 10SM CLR 13/11 A2983 400 83 300 330/03 RMK AO2
63870K0J4 0J420160505053009705/05/16 05:30:31  5-MIN K0J4 051030Z AUTO 33003KT 10SM CLR 13/11 A2983 400 83 300 330/03 RMK AO2
63870K0J4 0J420160505053509705/05/16 05:35:31  5-MIN K0J4 051035Z AUTO 00000KT 10SM CLR 13/11 A2983 400 83 300 000/00 RMK AO2
63870K0J4 0J420160505054009705/05/16 05:40:31  5-MIN K0J4 051040Z AUTO 00000KT 10SM CLR 13/11 A2983 400 83 300 000/00 RMK AO2
63870K0J4 0J420160505054509705/05/16 05:45:31  5-MIN K0J4 051045Z AUTO 00000KT 10SM CLR 13/11 A2984 390 86 300 000/00 RMK AO2
63870K0J4 0J420160505055009705/05/16 05:50:31  5-MIN K0J4 051050Z AUTO 00000KT 10SM CLR 13/11 A2984 390 86 300 000/00 RMK AO2
63870K0J4 0J420160505055511405/05/16 05:55:31  5-MIN K0J4 051055Z AUTO 00000KT 10SM CLR 12/11 A2984 390 89 200 000/00 RMK AO2 SLP102 T01220106
63870K0J4 0J420160505060009705/05/16 06:00:31  5-MIN K0J4 051100Z AUTO 00000KT 10SM CLR 12/11 A2984 390 89 200 000/00 RMK AO2
63870K0J4 0J420160505060509705/05/16 06:05:31  5-MIN K0J4 051105Z AUTO 33003KT 10SM CLR 12/11 A2984 390 89 200 330/03 RMK AO2
63870K0J4 0J420160505061009705/05/16 06:10:31  5-MIN K0J4 051110Z AUTO 32003KT 10SM CLR 13/11 A2985 390 86 300 320/03 RMK AO2
63870K0J4 0J420160505061509705/05/16 06:15:31  5-MIN K0J4 051115Z AUTO 00000KT 10SM CLR 13/11 A2985 380 86 200 000/00 RMK AO2
63870K0J4 0J420160505062009705/05/16 06:20:31  5-MIN K0J4 051120Z AUTO 33003KT 10SM CLR 13/11 A2985 380 89 200 330/03 RMK AO2
63870K0J4 0J420160505062509705/05/16 06:25:31  5-MIN K0J4 051125Z AUTO VRB03KT 10SM CLR 13/11 A2985 380 86 300 VRB/03 RMK AO2
63870K0J4 0J420160505063009705/05/16 06:30:31  5-MIN K0J4 051130Z AUTO 00000KT 10SM CLR 13/11 A2986 380 86 300 000/00 RMK AO2
63870K0J4 0J420160505063509705/05/16 06:35:31  5-MIN K0J4 051135Z AUTO 00000KT 10SM CLR 13/11 A2986 370 86 300 000/00 RMK AO2
63870K0J4 0J420160505064009705/05/16 06:40:31  5-MIN K0J4 051140Z AUTO 32003KT 10SM CLR 13/11 A2986 370 86 300 320/03 RMK AO2
63870K0J4 0J420160505064509705/05/16 06:45:31  5-MIN K0J4 051145Z AUTO 32003KT 10SM CLR 13/11 A2986 370 86 300 320/03 RMK AO2
63870K0J4 0J420160505065009705/05/16 06:50:31  5-MIN K0J4 051150Z AUTO 32003KT 10SM CLR 14/11 A2986 370 83 400 320/03 RMK AO2
63870K0J4 0J420160505065513205/05/16 06:55:31  5-MIN K0J4 051155Z AUTO 33003KT 10SM CLR 14/11 A2987 370 83 400 330/03 RMK AO2 SLP111 T01390111 10156 20122 55011
63870K0J4 0J420160505070007905/05/16 07:00:31  5-MIN K0J4 051200Z AUTO 32003KT A2987 M M M 320/03 RMK AO2 $
63870K0J4 0J420160505070509005/05/16 07:05:31  5-MIN K0J4 051205Z AUTO 33003KT 14/12 A2987 360 86 400 330/03 RMK AO2 $
63870K0J4 0J420160505071009505/05/16 07:10:31  5-MIN K0J4 051210Z AUTO VRB03KT 10SM 14/11 A2987 360 83 400 VRB/03 RMK AO2 $
63870K0J4 0J420160505071509505/05/16 07:15:31  5-MIN K0J4 051215Z AUTO 33004KT 10SM 14/12 A2988 360 83 400 330/04 RMK AO2 $
63870K0J4 0J420160505072009505/05/16 07:20:31  5-MIN K0J4 051220Z AUTO VRB04KT 10SM 14/12 A2988 350 83 400 VRB/04 RMK AO2 $
63870K0J4 0J420160505072509505/05/16 07:25:31  5-MIN K0J4 051225Z AUTO 35005KT 10SM 14/12 A2988 350 83 400 350/05 RMK AO2 $
63870K0J4 0J420160505073009905/05/16 07:30:31  5-MIN K0J4 051230Z AUTO 36005KT 10SM CLR 15/12 A2989 350 80 500 360/05 RMK AO2 $
63870K0J4 0J420160505073509905/05/16 07:35:31  5-MIN K0J4 051235Z AUTO 35004KT 10SM CLR 15/12 A2989 340 80 500 350/04 RMK AO2 $
63870K0J4 0J420160505074009905/05/16 07:40:31  5-MIN K0J4 051240Z AUTO 01006KT 10SM CLR 15/12 A2989 340 80 500 010/06 RMK AO2 $
63870K0J4 0J420160505074509905/05/16 07:45:31  5-MIN K0J4 051245Z AUTO 36006KT 10SM CLR 15/11 A2990 340 77 500 360/06 RMK AO2 $
63870K0J4 0J420160505075009905/05/16 07:50:31  5-MIN K0J4 051250Z AUTO VRB06KT 10SM CLR 15/12 A2990 340 80 500 VRB/06 RMK AO2 $
63870K0J4 0J420160505075511605/05/16 07:55:31  5-MIN K0J4 051255Z AUTO 01008KT 10SM CLR 16/12 A2990 340 77 500 010/08 RMK AO2 SLP121 T01560117 $
63870K0J4 0J420160505080009905/05/16 08:00:31  5-MIN K0J4 051300Z AUTO 36005KT 10SM CLR 16/12 A2990 340 77 500 360/05 RMK AO2 $
63870K0J4 0J420160505080509905/05/16 08:05:31  5-MIN K0J4 051305Z AUTO 36007KT 10SM CLR 16/12 A2990 330 75 600 360/07 RMK AO2 $
63870K0J4 0J420160505081009905/05/16 08:10:31  5-MIN K0J4 051310Z AUTO 01007KT 10SM CLR 16/11 A2990 330 72 600 010/07 RMK AO2 $
63870K0J4 0J420160505081509905/05/16 08:15:31  5-MIN K0J4 051315Z AUTO 01004KT 10SM CLR 17/12 A2990 330 72 600 010/04 RMK AO2 $
63870K0J4 0J420160505082009905/05/16 08:20:31  5-MIN K0J4 051320Z AUTO 36008KT 10SM CLR 17/11 A2990 330 69 600 360/08 RMK AO2 $
63870K0J4 0J420160505082509905/05/16 08:25:31  5-MIN K0J4 051325Z AUTO VRB05KT 10SM CLR 17/11 A2990 330 69 600 VRB/05 RMK AO2 $
63870K0J4 0J420160505083009905/05/16 08:30:31  5-MIN K0J4 051330Z AUTO VRB05KT 10SM CLR 17/11 A2990 330 67 700 VRB/05 RMK AO2 $
63870K0J4 0J420160505083509905/05/16 08:35:31  5-MIN K0J4 051335Z AUTO 01006KT 10SM CLR 18/11 A2991 330 64 800 010/06 RMK AO2 $
63870K0J4 0J420160505084009905/05/16 08:40:31  5-MIN K0J4 051340Z AUTO 36006KT 10SM CLR 18/11 A2991 330 64 800 360/06 RMK AO2 $
63870K0J4 0J420160505084509905/05/16 08:45:31  5-MIN K0J4 051345Z AUTO 35006KT 10SM CLR 18/10 A2991 330 60 800 350/06 RMK AO2 $
63870K0J4 0J420160505085009905/05/16 08:50:31  5-MIN K0J4 051350Z AUTO 36009KT 10SM CLR 18/10 A2991 320 60 800 360/09 RMK AO2 $
63870K0J4 0J420160505085511605/05/16 08:55:31  5-MIN K0J4 051355Z AUTO 36006KT 10SM CLR 18/09 A2992 320 58 800 360/06 RMK AO2 SLP128 T01780094 $
63870K0J4 0J420160505090009905/05/16 09:00:31  5-MIN K0J4 051400Z AUTO 36006KT 10SM CLR 18/09 A2992 320 55 800 360/06 RMK AO2 $
63870K0J4 0J420160505090509905/05/16 09:05:31  5-MIN K0J4 051405Z AUTO 36007KT 10SM CLR 18/08 A2992 320 52 800 360/07 RMK AO2 $
63870K0J4 0J420160505091009905/05/16 09:10:31  5-MIN K0J4 051410Z AUTO 01009KT 10SM CLR 18/08 A2992 320 50 800 010/09 RMK AO2 $
63870K0J4 0J420160505091510505/05/16 09:15:31  5-MIN K0J4 051415Z AUTO 01010G15KT 10SM CLR 18/08 A2992 320 50 800 010/10G15 RMK AO2 $
63870K0J4 0J420160505092010505/05/16 09:20:31  5-MIN K0J4 051420Z AUTO 36008G15KT 10SM CLR 18/07 A2992 320 46 800 360/08G15 RMK AO2 $
63870K0J4 0J420160505092509905/05/16 09:25:31  5-MIN K0J4 051425Z AUTO 02009KT 10SM CLR 18/07 A2992 320 48 800 020/09 RMK AO2 $
63870K0J4 0J420160505093010005/05/16 09:30:31  5-MIN K0J4 051430Z AUTO VRB05KT 10SM CLR 19/07 A2992 320 44 1000 VRB/05 RMK AO2 $
63870K0J4 0J420160505093509905/05/16 09:35:31  5-MIN K0J4 051435Z AUTO VRB05KT 10SM CLR 19/06 A2992 320 43 900 VRB/05 RMK AO2 $
63870K0J4 0J420160505094009905/05/16 09:40:31  5-MIN K0J4 051440Z AUTO 35009KT 10SM CLR 19/06 A2992 310 40 900 350/09 RMK AO2 $
63870K0J4 0J420160505094510505/05/16 09:45:31  5-MIN K0J4 051445Z AUTO 36007G15KT 10SM CLR 19/06 A2992 310 41 900 360/07G15 RMK AO2 $
63870K0J4 0J420160505095010505/05/16 09:50:31  5-MIN K0J4 051450Z AUTO 01010G17KT 10SM CLR 19/06 A2992 310 40 900 010/10G17 RMK AO2 $
63870K0J4 0J420160505095512205/05/16 09:55:31  5-MIN K0J4 051455Z AUTO 02008G17KT 10SM CLR 19/06 A2992 310 41 900 020/08G17 RMK AO2 SLP130 T01940061 $
63870K0J4 0J420160505100009905/05/16 10:00:31  5-MIN K0J4 051500Z AUTO 33006KT 10SM CLR 19/06 A2992 310 41 900 330/06 RMK AO2 $
63870K0J4 0J420160505100509905/05/16 10:05:31  5-MIN K0J4 051505Z AUTO VRB04KT 10SM CLR 19/06 A2992 310 40 900 VRB/04 RMK AO2 $
63870K0J4 0J420160505101011605/05/16 10:10:31  5-MIN K0J4 051510Z AUTO 33007KT 300V360 10SM CLR 20/06 A2992 310 40 1000 330/07 300V360 RMK AO2 $
63870K0J4 0J420160505101510005/05/16 10:15:31  5-MIN K0J4 051515Z AUTO 01008KT 10SM CLR 20/06 A2992 320 40 1000 010/08 RMK AO2 $
63870K0J4 0J420160505102010005/05/16 10:20:31  5-MIN K0J4 051520Z AUTO 02006KT 10SM CLR 19/06 A2992 320 40 1000 020/06 RMK AO2 $
63870K0J4 0J420160505102510605/05/16 10:25:31  5-MIN K0J4 051525Z AUTO VRB06G15KT 10SM CLR 20/06 A2992 320 40 1000 VRB/06G15 RMK AO2 $
63870K0J4 0J420160505103010605/05/16 10:30:31  5-MIN K0J4 051530Z AUTO 36007G15KT 10SM CLR 20/06 A2992 320 38 1000 360/07G15 RMK AO2 $
63870K0J4 0J420160505103510005/05/16 10:35:31  5-MIN K0J4 051535Z AUTO 02008KT 10SM CLR 20/06 A2992 320 38 1000 020/08 RMK AO2 $
63870K0J4 0J420160505104010005/05/16 10:40:31  5-MIN K0J4 051540Z AUTO VRB06KT 10SM CLR 21/06 A2992 320 37 1100 VRB/06 RMK AO2 $
63870K0J4 0J420160505104510005/05/16 10:45:31  5-MIN K0J4 051545Z AUTO 33006KT 10SM CLR 21/05 A2992 320 35 1100 330/06 RMK AO2 $
63870K0J4 0J420160505105010005/05/16 10:50:31  5-MIN K0J4 051550Z AUTO VRB06KT 10SM CLR 21/05 A2991 320 35 1100 VRB/06 RMK AO2 $
63870K0J4 0J420160505105512305/05/16 10:55:31  5-MIN K0J4 051555Z AUTO 36011G19KT 10SM CLR 21/04 A2991 320 34 1100 360/11G19 RMK AO2 SLP127 T02060044 $
63870K0J4 0J420160505110010605/05/16 11:00:31  5-MIN K0J4 051600Z AUTO 01009G19KT 10SM CLR 21/05 A2991 320 35 1100 010/09G19 RMK AO2 $
63870K0J4 0J420160505110511605/05/16 11:05:31  5-MIN K0J4 051605Z AUTO 32009KT 280V340 10SM CLR 21/05 A2991 320 35 1100 320/09 280V340 RMK AO2 $
63870K0J4 0J420160505111010605/05/16 11:10:31  5-MIN K0J4 051610Z AUTO VRB05G14KT 10SM CLR 21/04 A2991 330 34 1100 VRB/05G14 RMK AO2 $
63870K0J4 0J420160505111510605/05/16 11:15:31  5-MIN K0J4 051615Z AUTO 35009G16KT 10SM CLR 21/05 A2991 330 34 1200 350/09G16 RMK AO2 $
63870K0J4 0J420160505112010605/05/16 11:20:31  5-MIN K0J4 051620Z AUTO 35007G16KT 10SM CLR 21/05 A2991 330 35 1100 350/07G16 RMK AO2 $
63870K0J4 0J420160505112510005/05/16 11:25:31  5-MIN K0J4 051625Z AUTO 01009KT 10SM CLR 21/05 A2990 330 34 1200 010/09 RMK AO2 $
63870K0J4 0J420160505113010605/05/16 11:30:31  5-MIN K0J4 051630Z AUTO 36010G16KT 10SM CLR 21/04 A2990 340 33 1200 360/10G16 RMK AO2 $
63870K0J4 0J420160505113510605/05/16 11:35:31  5-MIN K0J4 051635Z AUTO 33007G16KT 10SM CLR 21/04 A2990 330 32 1200 330/07G16 RMK AO2 $
63870K0J4 0J420160505114010005/05/16 11:40:31  5-MIN K0J4 051640Z AUTO VRB06KT 10SM CLR 21/04 A2990 330 32 1200 VRB/06 RMK AO2 $
63870K0J4 0J420160505114512205/05/16 11:45:31  5-MIN K0J4 051645Z AUTO 30007G17KT 240V350 10SM CLR 22/04 A2990 330 31 1200 300/07G17 240V350 RMK AO2 $
63870K0J4 0J420160505115012205/05/16 11:50:31  5-MIN K0J4 051650Z AUTO 34007G17KT 310V020 10SM CLR 21/03 A2990 340 30 1200 340/07G17 310V020 RMK AO2 $
63870K0J4 0J420160505115511705/05/16 11:55:31  5-MIN K0J4 051655Z AUTO VRB06KT 10SM CLR 21/03 A2990 340 30 1200 VRB/06 RMK AO2 SLP121 T02110033 $
63870K0J4 0J420160505120010005/05/16 12:00:31  5-MIN K0J4 051700Z AUTO VRB05KT 10SM CLR 22/04 A2989 340 31 1200 VRB/05 RMK AO2 $
63870K0J4 0J420160505120510605/05/16 12:05:31  5-MIN K0J4 051705Z AUTO 01010G14KT 10SM CLR 22/04 A2989 340 32 1200 010/10G14 RMK AO2 $
63870K0J4 0J420160505121010605/05/16 12:10:31  5-MIN K0J4 051710Z AUTO VRB05G16KT 10SM CLR 22/04 A2989 350 31 1200 VRB/05G16 RMK AO2 $
63870K0J4 0J420160505121510605/05/16 12:15:31  5-MIN K0J4 051715Z AUTO 36011G17KT 10SM CLR 22/04 A2988 350 32 1200 360/11G17 RMK AO2 $
63870K0J4 0J420160505122010605/05/16 12:20:31  5-MIN K0J4 051720Z AUTO VRB06G17KT 10SM CLR 21/03 A2989 350 30 1200 VRB/06G17 RMK AO2 $
63870K0J4 0J420160505122511605/05/16 12:25:31  5-MIN K0J4 051725Z AUTO 01008KT 340V040 10SM CLR 22/04 A2988 350 31 1200 010/08 340V040 RMK AO2 $
63870K0J4 0J420160505123011605/05/16 12:30:31  5-MIN K0J4 051730Z AUTO 33008KT 270V010 10SM CLR 22/04 A2988 350 31 1300 330/08 270V010 RMK AO2 $
63870K0J4 0J420160505123512205/05/16 12:35:31  5-MIN K0J4 051735Z AUTO 31008G19KT 260V350 10SM CLR 21/02 A2988 350 28 1200 310/08G19 260V350 RMK AO2 $
63870K0J4 0J420160505124010605/05/16 12:40:31  5-MIN K0J4 051740Z AUTO VRB06G19KT 10SM CLR 22/03 A2988 360 28 1300 VRB/06G19 RMK AO2 $
63870K0J4 0J420160505124512205/05/16 12:45:31  5-MIN K0J4 051745Z AUTO 35012G19KT 330V030 10SM CLR 22/02 A2988 360 27 1300 350/12G19 330V030 RMK AO2 $
63870K0J4 0J420160505125010605/05/16 12:50:31  5-MIN K0J4 051750Z AUTO VRB05G19KT 10SM CLR 22/03 A2987 360 28 1300 VRB/05G19 RMK AO2 $
63870K0J4 0J420160505125513505/05/16 12:55:31  5-MIN K0J4 051755Z AUTO VRB06G17KT 10SM CLR 22/03 A2988 360 28 1300 VRB/06G17 RMK AO2 SLP114 T02220033 10228 20139 $
63870K0J4 0J420160505130012205/05/16 13:00:31  5-MIN K0J4 051800Z AUTO 32007G16KT 240V010 10SM CLR 22/03 A2987 360 29 1300 320/07G16 240V010 RMK AO2 $
63870K0J4 0J420160505130510605/05/16 13:05:31  5-MIN K0J4 051805Z AUTO 33009G16KT 10SM CLR 22/03 A2987 360 28 1300 330/09G16 RMK AO2 $
63870K0J4 0J420160505131012205/05/16 13:10:31  5-MIN K0J4 051810Z AUTO 01008G16KT 320V050 10SM CLR 22/03 A2987 360 28 1300 010/08G16 320V050 RMK AO2 $
63870K0J4 0J420160505131510605/05/16 13:15:31  5-MIN K0J4 051815Z AUTO 01008G16KT 10SM CLR 22/03 A2987 370 29 1300 010/08G16 RMK AO2 $
63870K0J4 0J420160505132012205/05/16 13:20:31  5-MIN K0J4 051820Z AUTO 35008G17KT 320V040 10SM CLR 22/03 A2986 370 28 1300 350/08G17 320V040 RMK AO2 $
63870K0J4 0J420160505132512205/05/16 13:25:31  5-MIN K0J4 051825Z AUTO 33007G17KT 300V010 10SM CLR 22/03 A2987 370 28 1300 330/07G17 300V010 RMK AO2 $
63870K0J4 0J420160505133012205/05/16 13:30:31  5-MIN K0J4 051830Z AUTO 33008G15KT 290V030 10SM CLR 22/03 A2987 370 27 1300 330/08G15 290V030 RMK AO2 $
63870K0J4 0J420160505133512205/05/16 13:35:31  5-MIN K0J4 051835Z AUTO 30007G18KT 240V330 10SM CLR 22/03 A2986 370 27 1300 300/07G18 240V330 RMK AO2 $
63870K0J4 0J420160505134010605/05/16 13:40:31  5-MIN K0J4 051840Z AUTO 34008G17KT 10SM CLR 22/03 A2986 370 27 1300 340/08G17 RMK AO2 $
63870K0J4 0J420160505134510605/05/16 13:45:31  5-MIN K0J4 051845Z AUTO VRB05G17KT 10SM CLR 22/03 A2986 370 28 1300 VRB/05G17 RMK AO2 $
63870K0J4 0J420160505135010005/05/16 13:50:31  5-MIN K0J4 051850Z AUTO VRB06KT 10SM CLR 22/03 A2986 370 27 1300 VRB/06 RMK AO2 $
63870K0J4 0J420160505135513905/05/16 13:55:31  5-MIN K0J4 051855Z AUTO 32008G16KT 280V340 10SM CLR 22/02 A2986 370 26 1300 320/08G16 280V340 RMK AO2 SLP109 T02220022 $
63870K0J4 0J420160505140010605/05/16 14:00:31  5-MIN K0J4 051900Z AUTO VRB06G16KT 10SM CLR 23/03 A2986 370 27 1400 VRB/06G16 RMK AO2 $
63870K0J4 0J420160505140512205/05/16 14:05:31  5-MIN K0J4 051905Z AUTO 32009G14KT 290V010 10SM CLR 22/03 A2986 380 27 1300 320/09G14 290V010 RMK AO2 $
63870K0J4 0J420160505141012205/05/16 14:10:31  5-MIN K0J4 051910Z AUTO 34007G14KT 300V040 10SM CLR 22/03 A2986 380 27 1300 340/07G14 300V040 RMK AO2 $
63870K0J4 0J420160505141512205/05/16 14:15:31  5-MIN K0J4 051915Z AUTO 30007G15KT 140V340 10SM CLR 23/03 A2985 380 26 1400 300/07G15 140V340 RMK AO2 $
63870K0J4 0J420160505142012205/05/16 14:20:31  5-MIN K0J4 051920Z AUTO 35007G18KT 300V010 10SM CLR 22/02 A2985 380 26 1300 350/07G18 300V010 RMK AO2 $
63870K0J4 0J420160505142512205/05/16 14:25:31  5-MIN K0J4 051925Z AUTO 34008G18KT 280V020 10SM CLR 22/03 A2985 380 27 1300 340/08G18 280V020 RMK AO2 $
63870K0J4 0J420160505143010605/05/16 14:30:31  5-MIN K0J4 051930Z AUTO VRB05G15KT 10SM CLR 23/03 A2985 380 27 1400 VRB/05G15 RMK AO2 $
63870K0J4 0J420160505143512005/05/16 14:35:31  5-MIN K0J4 051935Z AUTO 31010G15KT 260V360 10SM CLR 22/02 A2985 380 26 1400 310/10G15 260V360 RMK AO2
63870K0J4 0J420160505144010405/05/16 14:40:31  5-MIN K0J4 051940Z AUTO VRB05G15KT 10SM CLR 22/02 A2985 380 26 1400 VRB/05G15 RMK AO2
63870K0J4 0J420160505144512005/05/16 14:45:31  5-MIN K0J4 051945Z AUTO 36009G14KT 320V020 10SM CLR 23/03 A2985 380 27 1400 360/09G14 320V020 RMK AO2
63870K0J4 0J420160505145012005/05/16 14:50:31  5-MIN K0J4 051950Z AUTO 34014G20KT 300V020 10SM CLR 22/03 A2984 390 27 1400 340/14G20 300V020 RMK AO2
63870K0J4 0J420160505145512105/05/16 14:55:31  5-MIN K0J4 051955Z AUTO VRB06G20KT 10SM CLR 23/02 A2984 390 25 1400 VRB/06G20 RMK AO2 SLP102 T02280022
63870K0J4 0J420160505150012005/05/16 15:00:31  5-MIN K0J4 052000Z AUTO 33008G14KT 290V020 10SM CLR 23/02 A2985 390 24 1400 330/08G14 290V020 RMK AO2
63870K0J4 0J420160505150510405/05/16 15:05:31  5-MIN K0J4 052005Z AUTO VRB05G14KT 10SM CLR 23/02 A2984 390 25 1400 VRB/05G14 RMK AO2
63870K0J4 0J420160505151009805/05/16 15:10:31  5-MIN K0J4 052010Z AUTO VRB04KT 10SM CLR 23/03 A2984 390 27 1400 VRB/04 RMK AO2
63870K0J4 0J420160505151509805/05/16 15:15:31  5-MIN K0J4 052015Z AUTO VRB04KT 10SM CLR 23/03 A2984 390 26 1400 VRB/04 RMK AO2
63870K0J4 0J420160505152009805/05/16 15:20:31  5-MIN K0J4 052020Z AUTO VRB05KT 10SM CLR 22/02 A2984 390 26 1400 VRB/05 RMK AO2
63870K0J4 0J420160505152509805/05/16 15:25:31  5-MIN K0J4 052025Z AUTO VRB05KT 10SM CLR 23/03 A2984 390 26 1400 VRB/05 RMK AO2
63870K0J4 0J420160505153009805/05/16 15:30:31  5-MIN K0J4 052030Z AUTO VRB05KT 10SM CLR 23/02 A2983 400 25 1400 VRB/05 RMK AO2
63870K0J4 0J420160505153509805/05/16 15:35:31  5-MIN K0J4 052035Z AUTO VRB06KT 10SM CLR 23/02 A2983 400 25 1400 VRB/06 RMK AO2
63870K0J4 0J420160505154012005/05/16 15:40:31  5-MIN K0J4 052040Z AUTO 35010G14KT 320V030 10SM CLR 23/03 A2983 400 26 1400 350/10G14 320V030 RMK AO2
63870K0J4 0J420160505154512005/05/16 15:45:31  5-MIN K0J4 052045Z AUTO 35007G15KT 270V020 10SM CLR 22/02 A2983 400 26 1400 350/07G15 270V020 RMK AO2
63870K0J4 0J420160505155010405/05/16 15:50:31  5-MIN K0J4 052050Z AUTO VRB05G15KT 10SM CLR 23/02 A2983 400 25 1400 VRB/05G15 RMK AO2
63870K0J4 0J420160505155513705/05/16 15:55:31  5-MIN K0J4 052055Z AUTO 34007KT 310V010 10SM CLR 23/03 A2983 400 25 1500 340/07 310V010 RMK AO2 SLP098 T02330028 58017
63870K0J4 0J420160505160012005/05/16 16:00:31  5-MIN K0J4 052100Z AUTO 36007G14KT 310V020 10SM CLR 23/02 A2983 400 24 1400 360/07G14 310V020 RMK AO2
63870K0J4 0J420160505160512005/05/16 16:05:31  5-MIN K0J4 052105Z AUTO 35007G16KT 310V020 10SM CLR 23/02 A2983 400 25 1400 350/07G16 310V020 RMK AO2
63870K0J4 0J420160505161010405/05/16 16:10:31  5-MIN K0J4 052110Z AUTO 35007G16KT 10SM CLR 22/02 A2983 400 25 1400 350/07G16 RMK AO2
63870K0J4 0J420160505161512005/05/16 16:15:31  5-MIN K0J4 052115Z AUTO 35007G15KT 310V090 10SM CLR 22/02 A2983 400 25 1400 350/07G15 310V090 RMK AO2
63870K0J4 0J420160505162010405/05/16 16:20:31  5-MIN K0J4 052120Z AUTO 33007G15KT 10SM CLR 23/02 A2983 400 25 1400 330/07G15 RMK AO2
63870K0J4 0J420160505162511405/05/16 16:25:31  5-MIN K0J4 052125Z AUTO 34008KT 300V030 10SM CLR 23/03 A2983 400 26 1400 340/08 300V030 RMK AO2
63870K0J4 0J420160505163012005/05/16 16:30:31  5-MIN K0J4 052130Z AUTO 34009G15KT 310V010 10SM CLR 22/02 A2983 400 25 1400 340/09G15 310V010 RMK AO2
63870K0J4 0J420160505163510405/05/16 16:35:31  5-MIN K0J4 052135Z AUTO VRB05G14KT 10SM CLR 23/02 A2983 400 24 1400 VRB/05G14 RMK AO2
63870K0J4 0J420160505164012005/05/16 16:40:31  5-MIN K0J4 052140Z AUTO 35008G14KT 290V020 10SM CLR 22/01 A2983 400 24 1400 350/08G14 290V020 RMK AO2
63870K0J4 0J420160505164512005/05/16 16:45:31  5-MIN K0J4 052145Z AUTO 35008G14KT 320V030 10SM CLR 22/02 A2983 400 25 1400 350/08G14 320V030 RMK AO2
63870K0J4 0J420160505165010405/05/16 16:50:31  5-MIN K0J4 052150Z AUTO 36005G16KT 10SM CLR 22/02 A2983 400 26 1400 360/05G16 RMK AO2
63870K0J4 0J420160505165512105/05/16 16:55:31  5-MIN K0J4 052155Z AUTO VRB03G16KT 10SM CLR 22/02 A2983 400 26 1400 VRB/03G16 RMK AO2 SLP098 T02220022
63870K0J4 0J420160505170009805/05/16 17:00:31  5-MIN K0J4 052200Z AUTO VRB05KT 10SM CLR 22/02 A2983 400 26 1400 VRB/05 RMK AO2
63870K0J4 0J420160505170510405/05/16 17:05:31  5-MIN K0J4 052205Z AUTO 36008G14KT 10SM CLR 22/02 A2983 400 26 1400 360/08G14 RMK AO2
63870K0J4 0J420160505171012005/05/16 17:10:31  5-MIN K0J4 052210Z AUTO 34008G14KT 310V020 10SM CLR 22/02 A2983 400 26 1400 340/08G14 310V020 RMK AO2
63870K0J4 0J420160505171512005/05/16 17:15:31  5-MIN K0J4 052215Z AUTO 33010G18KT 300V030 10SM CLR 22/03 A2983 400 27 1400 330/10G18 300V030 RMK AO2
63870K0J4 0J420160505172010405/05/16 17:20:31  5-MIN K0J4 052220Z AUTO 36006G18KT 10SM CLR 22/03 A2983 400 28 1300 360/06G18 RMK AO2
63870K0J4 0J420160505172510405/05/16 17:25:31  5-MIN K0J4 052225Z AUTO 35009G16KT 10SM CLR 22/02 A2983 400 27 1300 350/09G16 RMK AO2
63870K0J4 0J420160505173010405/05/16 17:30:31  5-MIN K0J4 052230Z AUTO VRB06G16KT 10SM CLR 22/02 A2983 400 27 1300 VRB/06G16 RMK AO2
63870K0J4 0J420160505173510405/05/16 17:35:31  5-MIN K0J4 052235Z AUTO 35006G15KT 10SM CLR 22/02 A2984 400 27 1300 350/06G15 RMK AO2
63870K0J4 0J420160505174009805/05/16 17:40:31  5-MIN K0J4 052240Z AUTO 35008KT 10SM CLR 22/03 A2983 400 28 1300 350/08 RMK AO2
63870K0J4 0J420160505174509805/05/16 17:45:31  5-MIN K0J4 052245Z AUTO VRB06KT 10SM CLR 21/02 A2984 390 28 1200 VRB/06 RMK AO2
63870K0J4 0J420160505175011405/05/16 17:50:31  5-MIN K0J4 052250Z AUTO 34007KT 290V010 10SM CLR 22/03 A2983 400 28 1300 340/07 290V010 RMK AO2
63870K0J4 0J420160505175511505/05/16 17:55:31  5-MIN K0J4 052255Z AUTO VRB06KT 10SM CLR 21/03 A2983 400 29 1200 VRB/06 RMK AO2 SLP100 T02110028
63870K0J4 0J420160505180009805/05/16 18:00:31  5-MIN K0J4 052300Z AUTO VRB04KT 10SM CLR 21/03 A2983 400 30 1200 VRB/04 RMK AO2
63870K0J4 0J420160505180509805/05/16 18:05:31  5-MIN K0J4 052305Z AUTO VRB05KT 10SM CLR 21/03 A2984 390 30 1200 VRB/05 RMK AO2
63870K0J4 0J420160505181009805/05/16 18:10:31  5-MIN K0J4 052310Z AUTO VRB06KT 10SM CLR 21/03 A2984 390 30 1200 VRB/06 RMK AO2
63870K0J4 0J420160505181509805/05/16 18:15:31  5-MIN K0J4 052315Z AUTO 36006KT 10SM CLR 21/03 A2984 390 30 1200 360/06 RMK AO2
63870K0J4 0J420160505182009805/05/16 18:20:31  5-MIN K0J4 052320Z AUTO 35006KT 10SM CLR 21/02 A2984 390 29 1200 350/06 RMK AO2
63870K0J4 0J420160505182509805/05/16 18:25:31  5-MIN K0J4 052325Z AUTO VRB06KT 10SM CLR 21/02 A2984 390 29 1200 VRB/06 RMK AO2
63870K0J4 0J420160505183009805/05/16 18:30:31  5-MIN K0J4 052330Z AUTO VRB05KT 10SM CLR 20/03 A2984 390 31 1100 VRB/05 RMK AO2
63870K0J4 0J420160505183509805/05/16 18:35:31  5-MIN K0J4 052335Z AUTO VRB05KT 10SM CLR 20/03 A2984 390 31 1100 VRB/05 RMK AO2
63870K0J4 0J420160505184009805/05/16 18:40:31  5-MIN K0J4 052340Z AUTO 34004KT 10SM CLR 20/03 A2985 390 33 1100 340/04 RMK AO2
63870K0J4 0J420160505184509805/05/16 18:45:31  5-MIN K0J4 052345Z AUTO VRB04KT 10SM CLR 20/03 A2985 380 31 1100 VRB/04 RMK AO2
63870K0J4 0J420160505185009805/05/16 18:50:31  5-MIN K0J4 052350Z AUTO 34004KT 10SM CLR 19/03 A2985 380 34 1000 340/04 RMK AO2
63870K0J4 0J420160505185513305/05/16 18:55:31  5-MIN K0J4 052355Z AUTO 00000KT 10SM CLR 19/03 A2985 380 34 1000 000/00 RMK AO2 SLP105 T01940033 10233 20194 58014
63870K0J4 0J420160505190009805/05/16 19:00:31  5-MIN K0J4 060000Z AUTO 33004KT 10SM CLR 19/03 A2985 380 34 1000 330/04 RMK AO2
63870K0J4 0J420160505190509805/05/16 19:05:31  5-MIN K0J4 060005Z AUTO VRB03KT 10SM CLR 19/04 A2985 380 36 1000 VRB/03 RMK AO2
63870K0J4 0J420160505191009805/05/16 19:10:31  5-MIN K0J4 060010Z AUTO 00000KT 10SM CLR 19/04 A2985 380 36 1000 000/00 RMK AO2
63870K0J4 0J420160505191509705/05/16 19:15:31  5-MIN K0J4 060015Z AUTO VRB03KT 10SM CLR 18/04 A2985 380 38 900 VRB/03 RMK AO2
63870K0J4 0J420160505192009705/05/16 19:20:31  5-MIN K0J4 060020Z AUTO 00000KT 10SM CLR 18/04 A2986 380 38 900 000/00 RMK AO2
63870K0J4 0J420160505192509705/05/16 19:25:31  5-MIN K0J4 060025Z AUTO 00000KT 10SM CLR 18/04 A2986 380 41 800 000/00 RMK AO2
63870K0J4 0J420160505193009705/05/16 19:30:31  5-MIN K0J4 060030Z AUTO 00000KT 10SM CLR 18/04 A2986 370 41 800 000/00 RMK AO2
63870K0J4 0J420160505193509705/05/16 19:35:31  5-MIN K0J4 060035Z AUTO 00000KT 10SM CLR 18/04 A2986 370 41 800 000/00 RMK AO2
63870K0J4 0J420160505194007905/05/16 19:40:31  5-MIN K0J4 060040Z AUTO 00000KT A2986 M M M 000/00 RMK AO2 $
63870K0J4 0J420160505194509005/05/16 19:45:31  5-MIN K0J4 060045Z AUTO 00000KT 16/07 A2986 370 53 600 000/00 RMK AO2 $
63870K0J4 0J420160505195009505/05/16 19:50:31  5-MIN K0J4 060050Z AUTO 00000KT 10SM 16/07 A2986 370 53 600 000/00 RMK AO2 $
63870K0J4 0J420160505195511205/05/16 19:55:31  5-MIN K0J4 060055Z AUTO 00000KT 10SM 15/07 A2986 370 59 500 000/00 RMK AO2 SLP110 T01500072 $
63870K0J4 0J420160505200009505/05/16 20:00:31  5-MIN K0J4 060100Z AUTO 00000KT 10SM 16/06 A2987 370 53 600 000/00 RMK AO2 $
63870K0J4 0J420160505200509505/05/16 20:05:31  5-MIN K0J4 060105Z AUTO 00000KT 10SM 16/07 A2987 360 55 600 000/00 RMK AO2 $
63870K0J4 0J420160505201009905/05/16 20:10:31  5-MIN K0J4 060110Z AUTO 00000KT 10SM CLR 15/07 A2987 360 57 500 000/00 RMK AO2 $
63870K0J4 0J420160505201509905/05/16 20:15:31  5-MIN K0J4 060115Z AUTO 00000KT 10SM CLR 15/07 A2987 360 57 500 000/00 RMK AO2 $
63870K0J4 0J420160505202009905/05/16 20:20:31  5-MIN K0J4 060120Z AUTO 00000KT 10SM CLR 15/06 A2987 360 55 500 000/00 RMK AO2 $
63870K0J4 0J420160505202509905/05/16 20:25:31  5-MIN K0J4 060125Z AUTO 00000KT 10SM CLR 15/07 A2987 360 57 500 000/00 RMK AO2 $
63870K0J4 0J420160505203009905/05/16 20:30:31  5-MIN K0J4 060130Z AUTO 00000KT 10SM CLR 15/07 A2987 360 57 500 000/00 RMK AO2 $
63870K0J4 0J420160505203509905/05/16 20:35:31  5-MIN K0J4 060135Z AUTO 00000KT 10SM CLR 14/07 A2987 360 59 400 000/00 RMK AO2 $
63870K0J4 0J420160505204009905/05/16 20:40:31  5-MIN K0J4 060140Z AUTO 00000KT 10SM CLR 14/08 A2988 360 64 400 000/00 RMK AO2 $
63870K0J4 0J420160505204509905/05/16 20:45:31  5-MIN K0J4 060145Z AUTO 00000KT 10SM CLR 14/08 A2988 360 66 300 000/00 RMK AO2 $
63870K0J4 0J420160505205009905/05/16 20:50:31  5-MIN K0J4 060150Z AUTO 00000KT 10SM CLR 14/08 A2988 350 66 300 000/00 RMK AO2 $
63870K0J4 0J420160505205511605/05/16 20:55:31  5-MIN K0J4 060155Z AUTO 00000KT 10SM CLR 14/07 A2988 350 64 300 000/00 RMK AO2 SLP116 T01390072 $
63870K0J4 0J420160505210009905/05/16 21:00:31  5-MIN K0J4 060200Z AUTO 00000KT 10SM CLR 14/07 A2988 350 64 300 000/00 RMK AO2 $
63870K0J4 0J420160505210509905/05/16 21:05:31  5-MIN K0J4 060205Z AUTO 00000KT 10SM CLR 14/07 A2988 350 64 300 000/00 RMK AO2 $
63870K0J4 0J420160505211009905/05/16 21:10:31  5-MIN K0J4 060210Z AUTO 00000KT 10SM CLR 13/08 A2989 350 69 300 000/00 RMK AO2 $
63870K0J4 0J420160505211509905/05/16 21:15:31  5-MIN K0J4 060215Z AUTO 00000KT 10SM CLR 13/08 A2989 350 69 300 000/00 RMK AO2 $
63870K0J4 0J420160505212009905/05/16 21:20:31  5-MIN K0J4 060220Z AUTO 00000KT 10SM CLR 13/07 A2989 350 66 300 000/00 RMK AO2 $
63870K0J4 0J420160505212509905/05/16 21:25:31  5-MIN K0J4 060225Z AUTO 00000KT 10SM CLR 13/07 A2989 340 66 300 000/00 RMK AO2 $
63870K0J4 0J420160505213009905/05/16 21:30:31  5-MIN K0J4 060230Z AUTO 00000KT 10SM CLR 14/07 A2989 340 61 300 000/00 RMK AO2 $
63870K0J4 0J420160505213509905/05/16 21:35:31  5-MIN K0J4 060235Z AUTO 00000KT 10SM CLR 13/07 A2990 340 64 300 000/00 RMK AO2 $
63870K0J4 0J420160505214009905/05/16 21:40:31  5-MIN K0J4 060240Z AUTO 00000KT 10SM CLR 13/07 A2990 340 64 300 000/00 RMK AO2 $
63870K0J4 0J420160505214509905/05/16 21:45:31  5-MIN K0J4 060245Z AUTO 00000KT 10SM CLR 13/07 A2990 330 66 300 000/00 RMK AO2 $
63870K0J4 0J420160505215009905/05/16 21:50:31  5-MIN K0J4 060250Z AUTO 00000KT 10SM CLR 13/07 A2990 330 64 300 000/00 RMK AO2 $
63870K0J4 0J420160505215511605/05/16 21:55:31  5-MIN K0J4 060255Z AUTO 00000KT 10SM CLR 14/07 A2991 330 61 300 000/00 RMK AO2 SLP124 T01390067 $
63870K0J4 0J420160505220009905/05/16 22:00:31  5-MIN K0J4 060300Z AUTO 00000KT 10SM CLR 13/07 A2991 330 64 200 000/00 RMK AO2 $
63870K0J4 0J420160505220509905/05/16 22:05:31  5-MIN K0J4 060305Z AUTO 00000KT 10SM CLR 13/07 A2991 330 69 200 000/00 RMK AO2 $
63870K0J4 0J420160505221009905/05/16 22:10:31  5-MIN K0J4 060310Z AUTO 00000KT 10SM CLR 13/07 A2991 330 64 200 000/00 RMK AO2 $
63870K0J4 0J420160505221509905/05/16 22:15:31  5-MIN K0J4 060315Z AUTO 00000KT 10SM CLR 13/07 A2991 320 64 200 000/00 RMK AO2 $
63870K0J4 0J420160505222009905/05/16 22:20:31  5-MIN K0J4 060320Z AUTO 00000KT 10SM CLR 13/07 A2991 320 66 200 000/00 RMK AO2 $
63870K0J4 0J420160505222509905/05/16 22:25:31  5-MIN K0J4 060325Z AUTO 00000KT 10SM CLR 13/07 A2991 320 66 200 000/00 RMK AO2 $
63870K0J4 0J420160505223009905/05/16 22:30:31  5-MIN K0J4 060330Z AUTO 00000KT 10SM CLR 12/07 A2991 320 71 100 000/00 RMK AO2 $
63870K0J4 0J420160505223509905/05/16 22:35:31  5-MIN K0J4 060335Z AUTO 00000KT 10SM CLR 12/07 A2991 320 71 100 000/00 RMK AO2 $
63870K0J4 0J420160505224009905/05/16 22:40:31  5-MIN K0J4 060340Z AUTO 00000KT 10SM CLR 12/07 A2992 320 71 100 000/00 RMK AO2 $
63870K0J4 0J420160505224509905/05/16 22:45:31  5-MIN K0J4 060345Z AUTO 00000KT 10SM CLR 12/07 A2992 320 71 100 000/00 RMK AO2 $
63870K0J4 0J420160505225009905/05/16 22:50:31  5-MIN K0J4 060350Z AUTO 00000KT 10SM CLR 12/07 A2992 320 71 100 000/00 RMK AO2 $
63870K0J4 0J420160505225511605/05/16 22:55:31  5-MIN K0J4 060355Z AUTO 00000KT 10SM CLR 12/07 A2992 320 71 100 000/00 RMK AO2 SLP128 T01220072 $
63870K0J4 0J420160505230009705/05/16 23:00:31  5-MIN K0J4 060400Z AUTO 00000KT 10SM CLR 12/08 A2992 320 77 0 000/00 RMK AO2 $
63870K0J4 0J420160505230509905/05/16 23:05:31  5-MIN K0J4 060405Z AUTO 00000KT 10SM CLR 12/07 A2992 320 71 100 000/00 RMK AO2 $
63870K0J4 0J420160505231009905/05/16 23:10:31  5-MIN K0J4 060410Z AUTO 00000KT 10SM CLR 13/07 A2992 320 66 200 000/00 RMK AO2 $
63870K0J4 0J420160505231509905/05/16 23:15:31  5-MIN K0J4 060415Z AUTO 00000KT 10SM CLR 12/07 A2992 310 68 100 000/00 RMK AO2 $
63870K0J4 0J420160505232009905/05/16 23:20:31  5-MIN K0J4 060420Z AUTO 00000KT 10SM CLR 13/07 A2992 310 66 200 000/00 RMK AO2 $
63870K0J4 0J420160505232509905/05/16 23:25:31  5-MIN K0J4 060425Z AUTO 00000KT 10SM CLR 12/07 A2992 320 68 100 000/00 RMK AO2 $
63870K0J4 0J420160505233009905/05/16 23:30:31  5-MIN K0J4 060430Z AUTO 00000KT 10SM CLR 12/07 A2992 320 68 100 000/00 RMK AO2 $
63870K0J4 0J420160505233509705/05/16 23:35:31  5-MIN K0J4 060435Z AUTO 00000KT 10SM CLR 12/07 A2992 320 74 0 000/00 RMK AO2 $
63870K0J4 0J420160505234009705/05/16 23:40:31  5-MIN K0J4 060440Z AUTO 00000KT 10SM CLR 12/07 A2992 310 71 0 000/00 RMK AO2 $
63870K0J4 0J420160505234509705/05/16 23:45:31  5-MIN K0J4 060445Z AUTO 00000KT 10SM CLR 12/07 A2992 310 71 0 000/00 RMK AO2 $
63870K0J4 0J420160505235009905/05/16 23:50:31  5-MIN K0J4 060450Z AUTO 00000KT 10SM CLR 12/07 A2992 310 68 100 000/00 RMK AO2 $
63870K0J4 0J420160505235512605/05/16 23:55:31  5-MIN K0J4 060455Z AUTO 00000KT 10SM CLR 12/07 A2993 310 68 100 000/00 RMK AO2 SLP131 T01220067 402330117 $
63870K0J4 0J420160506000009705/06/16 00:00:31  5-MIN K0J4 060500Z AUTO 00000KT 10SM CLR 12/07 A2993 310 71 0 000/00 RMK AO2 $
63870K0J4 0J420160506000509905/06/16 00:05:31  5-MIN K0J4 060505Z AUTO 00000KT 10SM CLR 12/07 A2993 310 68 100 000/00 RMK AO2 $
63870K0J4 0J420160506001009705/06/16 00:10:31  5-MIN K0J4 060510Z AUTO 00000KT 10SM CLR 12/07 A2993 310 74 0 000/00 RMK AO2 $
63870K0J4 0J420160506001509705/06/16 00:15:31  5-MIN K0J4 060515Z AUTO 00000KT 10SM CLR 11/07 A2993 310 77 0 000/00 RMK AO2 $
63870K0J4 0J420160506002009705/06/16 00:20:31  5-MIN K0J4 060520Z AUTO 00000KT 10SM CLR 12/07 A2993 300 71 0 000/00 RMK AO2 $
63870K0J4 0J420160506002509705/06/16 00:25:31  5-MIN K0J4 060525Z AUTO 00000KT 10SM CLR 12/07 A2993 300 71 0 000/00 RMK AO2 $
63870K0J4 0J420160506003009705/06/16 00:30:31  5-MIN K0J4 060530Z AUTO 00000KT 10SM CLR 11/07 A2993 310 74 0 000/00 RMK AO2 $
63870K0J4 0J420160506003509705/06/16 00:35:31  5-MIN K0J4 060535Z AUTO 00000KT 10SM CLR 11/07 A2993 300 74 0 000/00 RMK AO2 $
63870K0J4 0J420160506004010005/06/16 00:40:31  5-MIN K0J4 060540Z AUTO 00000KT 10SM CLR 11/07 A2993 300 80 -100 000/00 RMK AO2 $
63870K0J4 0J420160506004510005/06/16 00:45:31  5-MIN K0J4 060545Z AUTO 00000KT 10SM CLR 11/07 A2993 310 80 -100 000/00 RMK AO2 $
63870K0J4 0J420160506005009705/06/16 00:50:31  5-MIN K0J4 060550Z AUTO 00000KT 10SM CLR 11/07 A2993 300 74 0 000/00 RMK AO2 $
63870K0J4 0J420160506005512605/06/16 00:55:31  5-MIN K0J4 060555Z AUTO 00000KT 10SM CLR 11/07 A2994 300 77 0 000/00 RMK AO2 SLP134 T01110072 10194 20106 $
63870K0J4 0J420160506010009705/06/16 01:00:31  5-MIN K0J4 060600Z AUTO 00000KT 10SM CLR 11/07 A2994 300 74 0 000/00 RMK AO2 $
63870K0J4 0J420160506010509705/06/16 01:05:31  5-MIN K0J4 060605Z AUTO 00000KT 10SM CLR 11/07 A2994 300 74 0 000/00 RMK AO2 $
63870K0J4 0J420160506011009705/06/16 01:10:31  5-MIN K0J4 060610Z AUTO 00000KT 10SM CLR 11/07 A2993 300 74 0 000/00 RMK AO2 $
63870K0J4 0J420160506011510005/06/16 01:15:31  5-MIN K0J4 060615Z AUTO 00000KT 10SM CLR 11/07 A2993 310 77 -100 000/00 RMK AO2 $
63870K0J4 0J420160506012009705/06/16 01:20:31  5-MIN K0J4 060620Z AUTO 00000KT 10SM CLR 11/07 A2993 300 74 0 000/00 RMK AO2 $
63870K0J4 0J420160506012509705/06/16 01:25:31  5-MIN K0J4 060625Z AUTO 32003KT 10SM CLR 11/07 A2993 300 74 0 320/03 RMK AO2 $
63870K0J4 0J420160506013009705/06/16 01:30:31  5-MIN K0J4 060630Z AUTO 33003KT 10SM CLR 11/07 A2993 300 74 0 330/03 RMK AO2 $
63870K0J4 0J420160506013509705/06/16 01:35:31  5-MIN K0J4 060635Z AUTO 33003KT 10SM CLR 11/06 A2994 300 71 0 330/03 RMK AO2 $
63870K0J4 0J420160506014009705/06/16 01:40:31  5-MIN K0J4 060640Z AUTO 34003KT 10SM CLR 12/06 A2994 300 68 0 340/03 RMK AO2 $
63870K0J4 0J420160506014509705/06/16 01:45:31  5-MIN K0J4 060645Z AUTO 00000KT 10SM CLR 11/06 A2994 300 71 0 000/00 RMK AO2 $
63870K0J4 0J420160506015009705/06/16 01:50:31  5-MIN K0J4 060650Z AUTO 33003KT 10SM CLR 11/06 A2994 300 71 0 330/03 RMK AO2 $
63870K0J4 0J420160506015511405/06/16 01:55:31  5-MIN K0J4 060655Z AUTO 33003KT 10SM CLR 11/06 A2994 300 71 0 330/03 RMK AO2 SLP136 T01110061 $
63870K0J4 0J420160506020009705/06/16 02:00:31  5-MIN K0J4 060700Z AUTO 35003KT 10SM CLR 11/06 A2994 300 71 0 350/03 RMK AO2 $
63870K0J4 0J420160506020509705/06/16 02:05:31  5-MIN K0J4 060705Z AUTO 35004KT 10SM CLR 12/06 A2994 300 68 0 350/04 RMK AO2 $
63870K0J4 0J420160506021009705/06/16 02:10:31  5-MIN K0J4 060710Z AUTO 35003KT 10SM CLR 12/06 A2994 300 68 0 350/03 RMK AO2 $
63870K0J4 0J420160506021509705/06/16 02:15:31  5-MIN K0J4 060715Z AUTO 35003KT 10SM CLR 11/06 A2994 300 71 0 350/03 RMK AO2 $
63870K0J4 0J420160506022009705/06/16 02:20:31  5-MIN K0J4 060720Z AUTO 34003KT 10SM CLR 12/06 A2994 300 68 0 340/03 RMK AO2 $
63870K0J4 0J420160506022509705/06/16 02:25:31  5-MIN K0J4 060725Z AUTO 00000KT 10SM CLR 11/06 A2994 300 71 0 000/00 RMK AO2 $
63870K0J4 0J420160506023010005/06/16 02:30:31  5-MIN K0J4 060730Z AUTO 00000KT 10SM CLR 11/06 A2994 300 74 -100 000/00 RMK AO2 $
63870K0J4 0J420160506023510005/06/16 02:35:31  5-MIN K0J4 060735Z AUTO 00000KT 10SM CLR 09/06 A2994 290 79 -200 000/00 RMK AO2 $
63870K0J4 0J420160506024010005/06/16 02:40:31  5-MIN K0J4 060740Z AUTO 00000KT 10SM CLR 10/06 A2994 290 77 -100 000/00 RMK AO2 $
63870K0J4 0J420160506024510005/06/16 02:45:31  5-MIN K0J4 060745Z AUTO 33003KT 10SM CLR 10/06 A2994 290 77 -100 330/03 RMK AO2 $
63870K0J4 0J420160506025010005/06/16 02:50:31  5-MIN K0J4 060750Z AUTO 35004KT 10SM CLR 11/06 A2995 290 74 -100 350/04 RMK AO2 $
63870K0J4 0J420160506025511405/06/16 02:55:31  5-MIN K0J4 060755Z AUTO 36004KT 10SM CLR 11/06 A2994 290 71 0 360/04 RMK AO2 SLP137 T01110061 $
63870K0J4 0J420160506030009705/06/16 03:00:31  5-MIN K0J4 060800Z AUTO 36004KT 10SM CLR 11/06 A2995 290 68 0 360/04 RMK AO2 $
63870K0J4 0J420160506030509705/06/16 03:05:31  5-MIN K0J4 060805Z AUTO 35004KT 10SM CLR 11/06 A2995 290 68 0 350/04 RMK AO2 $
63870K0J4 0J420160506031010005/06/16 03:10:31  5-MIN K0J4 060810Z AUTO 36004KT 10SM CLR 11/06 A2995 290 71 -100 360/04 RMK AO2 $
63870K0J4 0J420160506031510005/06/16 03:15:31  5-MIN K0J4 060815Z AUTO 35004KT 10SM CLR 11/06 A2995 290 71 -100 350/04 RMK AO2 $
63870K0J4 0J420160506032010005/06/16 03:20:31  5-MIN K0J4 060820Z AUTO 33003KT 10SM CLR 10/06 A2995 290 77 -100 330/03 RMK AO2 $
63870K0J4 0J420160506032510005/06/16 03:25:31  5-MIN K0J4 060825Z AUTO 34003KT 10SM CLR 10/06 A2995 290 77 -100 340/03 RMK AO2 $
63870K0J4 0J420160506033010005/06/16 03:30:31  5-MIN K0J4 060830Z AUTO 00000KT 10SM CLR 10/06 A2995 290 77 -100 000/00 RMK AO2 $
63870K0J4 0J420160506033510005/06/16 03:35:31  5-MIN K0J4 060835Z AUTO 00000KT 10SM CLR 10/06 A2995 290 77 -200 000/00 RMK AO2 $
63870K0J4 0J420160506034010005/06/16 03:40:31  5-MIN K0J4 060840Z AUTO 33003KT 10SM CLR 10/06 A2995 290 74 -200 330/03 RMK AO2 $
63870K0J4 0J420160506034510005/06/16 03:45:31  5-MIN K0J4 060845Z AUTO VRB03KT 10SM CLR 09/06 A2995 290 79 -200 VRB/03 RMK AO2 $
63870K0J4 0J420160506035010005/06/16 03:50:31  5-MIN K0J4 060850Z AUTO 00000KT 10SM CLR 10/06 A2995 290 74 -200 000/00 RMK AO2 $
63870K0J4 0J420160506035512305/06/16 03:55:31  5-MIN K0J4 060855Z AUTO 34003KT 10SM CLR 10/06 A2996 280 74 -200 340/03 RMK AO2 SLP141 T01000056 51010 $
63870K0J4 0J420160506040010005/06/16 04:00:31  5-MIN K0J4 060900Z AUTO 34003KT 10SM CLR 10/06 A2995 290 74 -200 340/03 RMK AO2 $
63870K0J4 0J420160506040510005/06/16 04:05:31  5-MIN K0J4 060905Z AUTO 34003KT 10SM CLR 10/06 A2996 280 74 -200 340/03 RMK AO2 $
63870K0J4 0J420160506041010005/06/16 04:10:31  5-MIN K0J4 060910Z AUTO 34003KT 10SM CLR 10/06 A2996 280 74 -200 340/03 RMK AO2 $
63870K0J4 0J420160506041510005/06/16 04:15:31  5-MIN K0J4 060915Z AUTO 34003KT 10SM CLR 10/06 A2996 280 74 -200 340/03 RMK AO2 $
63870K0J4 0J420160506042010005/06/16 04:20:31  5-MIN K0J4 060920Z AUTO 33003KT 10SM CLR 09/06 A2996 280 76 -200 330/03 RMK AO2 $
63870K0J4 0J420160506042510005/06/16 04:25:31  5-MIN K0J4 060925Z AUTO 00000KT 10SM CLR 09/06 A2996 280 76 -200 000/00 RMK AO2 $
63870K0J4 0J420160506043010005/06/16 04:30:31  5-MIN K0J4 060930Z AUTO 33003KT 10SM CLR 09/06 A2996 280 76 -200 330/03 RMK AO2 $
63870K0J4 0J420160506043510005/06/16 04:35:31  5-MIN K0J4 060935Z AUTO 00000KT 10SM CLR 09/06 A2996 280 76 -200 000/00 RMK AO2 $
63870K0J4 0J420160506044010005/06/16 04:40:31  5-MIN K0J4 060940Z AUTO 33003KT 10SM CLR 09/06 A2996 280 79 -300 330/03 RMK AO2 $
63870K0J4 0J420160506044510005/06/16 04:45:31  5-MIN K0J4 060945Z AUTO 34003KT 10SM CLR 09/06 A2996 280 79 -300 340/03 RMK AO2 $
63870K0J4 0J420160506045010005/06/16 04:50:31  5-MIN K0J4 060950Z AUTO 33003KT 10SM CLR 09/06 A2996 280 79 -300 330/03 RMK AO2 $
63870K0J4 0J420160506045511705/06/16 04:55:31  5-MIN K0J4 060955Z AUTO 33003KT 10SM CLR 09/06 A2996 280 76 -200 330/03 RMK AO2 SLP144 T00940056 $
63870K0J4 0J420160506050010005/06/16 05:00:31  5-MIN K0J4 061000Z AUTO 00000KT 10SM CLR 09/06 A2996 280 79 -300 000/00 RMK AO2 $
63870K0J4 0J420160506050510005/06/16 05:05:31  5-MIN K0J4 061005Z AUTO 00000KT 10SM CLR 09/06 A2996 280 79 -300 000/00 RMK AO2 $
63870K0J4 0J420160506051010005/06/16 05:10:31  5-MIN K0J4 061010Z AUTO 00000KT 10SM CLR 08/06 A2996 280 82 -400 000/00 RMK AO2 $
63870K0J4 0J420160506051510005/06/16 05:15:31  5-MIN K0J4 061015Z AUTO 00000KT 10SM CLR 07/05 A2996 280 86 -500 000/00 RMK AO2 $
63870K0J4 0J420160506052010005/06/16 05:20:31  5-MIN K0J4 061020Z AUTO 00000KT 10SM CLR 08/06 A2996 280 86 -400 000/00 RMK AO2 $
63870K0J4 0J420160506052510005/06/16 05:25:31  5-MIN K0J4 061025Z AUTO 00000KT 10SM CLR 07/06 A2996 280 89 -500 000/00 RMK AO2 $
63870K0J4 0J420160506053010005/06/16 05:30:31  5-MIN K0J4 061030Z AUTO 00000KT 10SM CLR 08/06 A2997 270 86 -400 000/00 RMK AO2 $
63870K0J4 0J420160506053510005/06/16 05:35:31  5-MIN K0J4 061035Z AUTO 31003KT 10SM CLR 08/06 A2996 280 89 -400 310/03 RMK AO2 $
63870K0J4 0J420160506054010005/06/16 05:40:31  5-MIN K0J4 061040Z AUTO 34003KT 10SM CLR 09/06 A2997 270 83 -300 340/03 RMK AO2 $
63870K0J4 0J420160506054510005/06/16 05:45:31  5-MIN K0J4 061045Z AUTO 35003KT 10SM CLR 09/06 A2997 270 83 -300 350/03 RMK AO2 $
63870K0J4 0J420160506055010005/06/16 05:50:31  5-MIN K0J4 061050Z AUTO 35003KT 10SM CLR 09/06 A2997 270 83 -300 350/03 RMK AO2 $
63870K0J4 0J420160506055511705/06/16 05:55:31  5-MIN K0J4 061055Z AUTO 35003KT 10SM CLR 09/06 A2997 270 76 -200 350/03 RMK AO2 SLP147 T00940056 $
63870K0J4 0J420160506060010005/06/16 06:00:31  5-MIN K0J4 061100Z AUTO 00000KT 10SM CLR 09/06 A2997 270 79 -300 000/00 RMK AO2 $
63870K0J4 0J420160506060510005/06/16 06:05:31  5-MIN K0J4 061105Z AUTO 00000KT 10SM CLR 08/06 A2998 260 82 -400 000/00 RMK AO2 $
63870K0J4 0J420160506061010005/06/16 06:10:31  5-MIN K0J4 061110Z AUTO 00000KT 10SM CLR 08/06 A2998 260 82 -400 000/00 RMK AO2 $
63870K0J4 0J420160506061510005/06/16 06:15:31  5-MIN K0J4 061115Z AUTO 00000KT 10SM CLR 09/06 A2999 260 83 -300 000/00 RMK AO2 $
63870K0J4 0J420160506062010005/06/16 06:20:31  5-MIN K0J4 061120Z AUTO VRB03KT 10SM CLR 09/06 A2999 250 79 -300 VRB/03 RMK AO2 $
63870K0J4 0J420160506062510005/06/16 06:25:31  5-MIN K0J4 061125Z AUTO 33003KT 10SM CLR 09/06 A2999 250 79 -300 330/03 RMK AO2 $
63870K0J4 0J420160506063010005/06/16 06:30:31  5-MIN K0J4 061130Z AUTO 32004KT 10SM CLR 09/06 A2999 250 79 -300 320/04 RMK AO2 $
63870K0J4 0J420160506063510005/06/16 06:35:31  5-MIN K0J4 061135Z AUTO 33003KT 10SM CLR 10/06 A3000 250 77 -200 330/03 RMK AO2 $
63870K0J4 0J420160506064010005/06/16 06:40:31  5-MIN K0J4 061140Z AUTO 34003KT 10SM CLR 10/06 A3000 240 77 -200 340/03 RMK AO2 $
63870K0J4 0J420160506064510005/06/16 06:45:31  5-MIN K0J4 061145Z AUTO VRB03KT 10SM CLR 10/06 A3000 240 77 -200 VRB/03 RMK AO2 $
63870K0J4 0J420160506065010005/06/16 06:50:31  5-MIN K0J4 061150Z AUTO 34003KT 10SM CLR 10/06 A3000 240 77 -200 340/03 RMK AO2 $
63870K0J4 0J420160506065513505/06/16 06:55:31  5-MIN K0J4 061155Z AUTO VRB03KT 10SM CLR 10/06 A3000 240 77 -200 VRB/03 RMK AO2 SLP157 T01000061 10117 20072 53006 $
63870K0J4 0J420160506070010005/06/16 07:00:31  5-MIN K0J4 061200Z AUTO VRB03KT 10SM CLR 10/06 A3000 240 77 -200 VRB/03 RMK AO2 $
63870K0J4 0J420160506070510005/06/16 07:05:31  5-MIN K0J4 061205Z AUTO 33003KT 10SM CLR 10/06 A3001 240 77 -200 330/03 RMK AO2 $
63870K0J4 0J420160506071010005/06/16 07:10:31  5-MIN K0J4 061210Z AUTO 33003KT 10SM CLR 10/06 A3001 230 77 -200 330/03 RMK AO2 $
63870K0J4 0J420160506071510005/06/16 07:15:31  5-MIN K0J4 061215Z AUTO 00000KT 10SM CLR 11/06 A3001 230 74 -200 000/00 RMK AO2 $
63870K0J4 0J420160506072010005/06/16 07:20:31  5-MIN K0J4 061220Z AUTO 33003KT 10SM CLR 11/06 A3001 230 74 -200 330/03 RMK AO2 $
63870K0J4 0J420160506072510005/06/16 07:25:31  5-MIN K0J4 061225Z AUTO 32003KT 10SM CLR 11/06 A3002 230 74 -200 320/03 RMK AO2 $
63870K0J4 0J420160506073010005/06/16 07:30:31  5-MIN K0J4 061230Z AUTO 33004KT 10SM CLR 11/06 A3002 220 74 -200 330/04 RMK AO2 $
63870K0J4 0J420160506073510005/06/16 07:35:31  5-MIN K0J4 061235Z AUTO 33003KT 10SM CLR 11/06 A3002 220 71 -100 330/03 RMK AO2 $
63870K0J4 0J420160506074010005/06/16 07:40:31  5-MIN K0J4 061240Z AUTO VRB03KT 10SM CLR 11/06 A3002 220 71 -100 VRB/03 RMK AO2 $
63870K0J4 0J420160506074509705/06/16 07:45:31  5-MIN K0J4 061245Z AUTO 33004KT 10SM CLR 12/07 A3003 220 71 0 330/04 RMK AO2 $
63870K0J4 0J420160506075009705/06/16 07:50:31  5-MIN K0J4 061250Z AUTO 00000KT 10SM CLR 12/07 A3003 220 71 0 000/00 RMK AO2 $
63870K0J4 0J420160506075511405/06/16 07:55:31  5-MIN K0J4 061255Z AUTO 34003KT 10SM CLR 12/07 A3003 220 71 0 340/03 RMK AO2 SLP166 T01170067 $
63870K0J4 0J420160506080009705/06/16 08:00:31  5-MIN K0J4 061300Z AUTO VRB05KT 10SM CLR 12/07 A3003 220 68 0 VRB/05 RMK AO2 $
63870K0J4 0J420160506080509705/06/16 08:05:31  5-MIN K0J4 061305Z AUTO 00000KT 10SM CLR 12/07 A3003 220 68 0 000/00 RMK AO2 $
63870K0J4 0J420160506081009705/06/16 08:10:31  5-MIN K0J4 061310Z AUTO VRB06KT 10SM CLR 12/07 A3003 220 71 0 VRB/06 RMK AO2 $
63870K0J4 0J420160506081509705/06/16 08:15:31  5-MIN K0J4 061315Z AUTO VRB03KT 10SM CLR 13/07 A3003 220 69 0 VRB/03 RMK AO2 $
63870K0J4 0J420160506082009905/06/16 08:20:31  5-MIN K0J4 061320Z AUTO 33005KT 10SM CLR 13/07 A3003 220 66 100 330/05 RMK AO2 $
63870K0J4 0J420160506082509905/06/16 08:25:31  5-MIN K0J4 061325Z AUTO 01004KT 10SM CLR 14/07 A3003 220 64 200 010/04 RMK AO2 $
63870K0J4 0J420160506083009905/06/16 08:30:31  5-MIN K0J4 061330Z AUTO 01008KT 10SM CLR 14/07 A3003 220 64 200 010/08 RMK AO2 $
63870K0J4 0J420160506083509905/06/16 08:35:31  5-MIN K0J4 061335Z AUTO VRB06KT 10SM CLR 14/07 A3003 220 64 200 VRB/06 RMK AO2 $
63870K0J4 0J420160506084009905/06/16 08:40:31  5-MIN K0J4 061340Z AUTO 02008KT 10SM CLR 14/07 A3003 220 61 200 020/08 RMK AO2 $
63870K0J4 0J420160506084509905/06/16 08:45:31  5-MIN K0J4 061345Z AUTO 01010KT 10SM CLR 14/07 A3003 210 61 200 010/10 RMK AO2 $
63870K0J4 0J420160506085009905/06/16 08:50:31  5-MIN K0J4 061350Z AUTO 01010KT 10SM CLR 14/07 A3003 210 61 200 010/10 RMK AO2 $
63870K0J4 0J420160506085511605/06/16 08:55:31  5-MIN K0J4 061355Z AUTO 02010KT 10SM CLR 14/07 A3003 210 61 200 020/10 RMK AO2 SLP168 T01440072 $
63870K0J4 0J420160506090009905/06/16 09:00:31  5-MIN K0J4 061400Z AUTO 01007KT 10SM CLR 15/07 A3003 210 59 300 010/07 RMK AO2 $
63870K0J4 0J420160506090509905/06/16 09:05:31  5-MIN K0J4 061405Z AUTO 01007KT 10SM CLR 15/07 A3003 210 59 300 010/07 RMK AO2 $
63870K0J4 0J420160506091009905/06/16 09:10:31  5-MIN K0J4 061410Z AUTO 01008KT 10SM CLR 16/07 A3003 210 57 400 010/08 RMK AO2 $
63870K0J4 0J420160506091509905/06/16 09:15:31  5-MIN K0J4 061415Z AUTO 02009KT 10SM CLR 16/07 A3003 210 55 400 020/09 RMK AO2 $
63870K0J4 0J420160506092011505/06/16 09:20:31  5-MIN K0J4 061420Z AUTO 36008KT 340V040 10SM CLR 16/07 A3003 210 57 400 360/08 340V040 RMK AO2 $
63870K0J4 0J420160506092510505/06/16 09:25:31  5-MIN K0J4 061425Z AUTO 01010G17KT 10SM CLR 16/07 A3003 210 55 400 010/10G17 RMK AO2 $
63870K0J4 0J420160506093010505/06/16 09:30:31  5-MIN K0J4 061430Z AUTO 01008G17KT 10SM CLR 16/07 A3003 210 53 400 010/08G17 RMK AO2 $
63870K0J4 0J420160506093511505/06/16 09:35:31  5-MIN K0J4 061435Z AUTO 01008KT 330V040 10SM CLR 17/07 A3003 210 53 500 010/08 330V040 RMK AO2 $
63870K0J4 0J420160506094009905/06/16 09:40:31  5-MIN K0J4 061440Z AUTO 02006KT 10SM CLR 17/07 A3003 210 51 600 020/06 RMK AO2 $
63870K0J4 0J420160506094511505/06/16 09:45:31  5-MIN K0J4 061445Z AUTO 02008KT 340V070 10SM CLR 17/07 A3003 210 51 600 020/08 340V070 RMK AO2 $
63870K0J4 0J420160506095010505/06/16 09:50:31  5-MIN K0J4 061450Z AUTO 03011G16KT 10SM CLR 17/07 A3003 220 51 600 030/11G16 RMK AO2 $
63870K0J4 0J420160506095514405/06/16 09:55:31  5-MIN K0J4 061455Z AUTO 36008G16KT 300V020 10SM CLR 17/07 A3003 220 51 600 360/08G16 300V020 RMK AO2 SLP166 T01720072 53017 $
63870K0J4 0J420160506100009905/06/16 10:00:31  5-MIN K0J4 061500Z AUTO 03008KT 10SM CLR 17/07 A3002 220 51 600 030/08 RMK AO2 $
63870K0J4 0J420160506100509905/06/16 10:05:31  5-MIN K0J4 061505Z AUTO 36010KT 10SM CLR 18/07 A3002 220 48 700 360/10 RMK AO2 $
63870K0J4 0J420160506101009905/06/16 10:10:31  5-MIN K0J4 061510Z AUTO 01010KT 10SM CLR 18/07 A3002 220 48 600 010/10 RMK AO2 $
63870K0J4 0J420160506101509905/06/16 10:15:31  5-MIN K0J4 061515Z AUTO 03006KT 10SM CLR 18/07 A3002 230 49 600 030/06 RMK AO2 $
63870K0J4 0J420160506102010505/06/16 10:20:31  5-MIN K0J4 061520Z AUTO 04012G15KT 10SM CLR 19/07 A3001 230 46 800 040/12G15 RMK AO2 $
63870K0J4 0J420160506102510505/06/16 10:25:31  5-MIN K0J4 061525Z AUTO 02010G17KT 10SM CLR 18/07 A3001 230 46 700 020/10G17 RMK AO2 $
63870K0J4 0J420160506103010505/06/16 10:30:31  5-MIN K0J4 061530Z AUTO 03009G17KT 10SM CLR 19/07 A3001 230 46 800 030/09G17 RMK AO2 $
63870K0J4 0J420160506103509905/06/16 10:35:31  5-MIN K0J4 061535Z AUTO 36010KT 10SM CLR 18/07 A3001 230 46 700 360/10 RMK AO2 $
63870K0J4 0J420160506104010505/06/16 10:40:31  5-MIN K0J4 061540Z AUTO 02012G17KT 10SM CLR 19/07 A3001 230 44 800 020/12G17 RMK AO2 $
63870K0J4 0J420160506104510505/06/16 10:45:31  5-MIN K0J4 061545Z AUTO 02009G17KT 10SM CLR 19/06 A3001 230 43 800 020/09G17 RMK AO2 $
63870K0J4 0J420160506105012105/06/16 10:50:31  5-MIN K0J4 061550Z AUTO 04010G16KT 350V070 10SM CLR 19/07 A3001 230 44 800 040/10G16 350V070 RMK AO2 $
63870K0J4 0J420160506105512205/06/16 10:55:31  5-MIN K0J4 061555Z AUTO 03011G17KT 10SM CLR 19/07 A3001 230 43 800 030/11G17 RMK AO2 SLP160 T01940067 $
63870K0J4 0J420160506110010505/06/16 11:00:31  5-MIN K0J4 061600Z AUTO 02009G17KT 10SM CLR 19/07 A3001 230 43 800 020/09G17 RMK AO2 $
63870K0J4 0J420160506110510505/06/16 11:05:31  5-MIN K0J4 061605Z AUTO 01006G14KT 10SM CLR 19/07 A3001 230 43 800 010/06G14 RMK AO2 $
63870K0J4 0J420160506111010505/06/16 11:10:31  5-MIN K0J4 061610Z AUTO 01012G16KT 10SM CLR 19/07 A3001 230 43 800 010/12G16 RMK AO2 $
63870K0J4 0J420160506111510505/06/16 11:15:31  5-MIN K0J4 061615Z AUTO 03013G19KT 10SM CLR 19/06 A3001 240 41 900 030/13G19 RMK AO2 $
63870K0J4 0J420160506112010505/06/16 11:20:31  5-MIN K0J4 061620Z AUTO 02013G19KT 10SM CLR 20/06 A3001 240 40 900 020/13G19 RMK AO2 $
63870K0J4 0J420160506112512105/06/16 11:25:31  5-MIN K0J4 061625Z AUTO 02010G19KT 340V050 10SM CLR 19/06 A3001 240 41 900 020/10G19 340V050 RMK AO2 $
63870K0J4 0J420160506113010505/06/16 11:30:31  5-MIN K0J4 061630Z AUTO 03012G22KT 10SM CLR 19/06 A3001 240 41 900 030/12G22 RMK AO2 $
63870K0J4 0J420160506113510605/06/16 11:35:31  5-MIN K0J4 061635Z AUTO 03012G22KT 10SM CLR 21/07 A3000 240 40 1000 030/12G22 RMK AO2 $
63870K0J4 0J420160506114010505/06/16 11:40:31  5-MIN K0J4 061640Z AUTO 36010G19KT 10SM CLR 20/06 A3000 240 40 900 360/10G19 RMK AO2 $
63870K0J4 0J420160506114510505/06/16 11:45:31  5-MIN K0J4 061645Z AUTO 01011G18KT 10SM CLR 20/06 A3000 240 40 900 010/11G18 RMK AO2 $
63870K0J4 0J420160506115010505/06/16 11:50:31  5-MIN K0J4 061650Z AUTO 01008G16KT 10SM CLR 20/06 A3000 240 40 900 010/08G16 RMK AO2 $
63870K0J4 0J420160506115512205/06/16 11:55:31  5-MIN K0J4 061655Z AUTO 35009G15KT 10SM CLR 20/06 A3000 240 40 900 350/09G15 RMK AO2 SLP157 T02000061 $
63870K0J4 0J420160506120010505/06/16 12:00:31  5-MIN K0J4 061700Z AUTO 02013G20KT 10SM CLR 20/06 A3000 240 40 900 020/13G20 RMK AO2 $
63870K0J4 0J420160506120512205/06/16 12:05:31  5-MIN K0J4 061705Z AUTO 03010G20KT 360V070 10SM CLR 21/07 A3000 240 40 1000 030/10G20 360V070 RMK AO2 $
63870K0J4 0J420160506121010605/06/16 12:10:31  5-MIN K0J4 061710Z AUTO 35009G17KT 10SM CLR 21/07 A3000 240 38 1100 350/09G17 RMK AO2 $
63870K0J4 0J420160506220507305/06/16 22:05:31  5-MIN K0J4 070305Z AUTO 00000KT M M M 000/00 RMK AO2 $
63870K0J4 0J420160506221509405/06/16 22:15:31  5-MIN K0J4 070315Z AUTO 00000KT 12/09 A3002 230 83 0 000/00 RMK AO2 PWINO $
63870K0J4 0J420160506222009505/06/16 22:20:31  5-MIN K0J4 070320Z AUTO 00000KT 10SM 13/09 A3002 230 77 100 000/00 RMK AO2 $
63870K0J4 0J420160506222509305/06/16 22:25:31  5-MIN K0J4 070325Z AUTO 00000KT 10SM 12/09 A3002 220 80 0 000/00 RMK AO2 $
63870K0J4 0J420160506223009305/06/16 22:30:31  5-MIN K0J4 070330Z AUTO 00000KT 10SM 12/09 A3002 220 86 0 000/00 RMK AO2 $
63870K0J4 0J420160506223509305/06/16 22:35:31  5-MIN K0J4 070335Z AUTO 00000KT 10SM 12/09 A3002 220 86 0 000/00 RMK AO2 $
63870K0J4 0J420160506224009305/06/16 22:40:31  5-MIN K0J4 070340Z AUTO 00000KT 10SM 12/09 A3002 220 83 0 000/00 RMK AO2 $
63870K0J4 0J420160506224509705/06/16 22:45:31  5-MIN K0J4 070345Z AUTO 00000KT 10SM CLR 12/09 A3002 220 83 0 000/00 RMK AO2 $
63870K0J4 0J420160506225009705/06/16 22:50:31  5-MIN K0J4 070350Z AUTO 00000KT 10SM CLR 12/09 A3002 220 83 0 000/00 RMK AO2 $
63870K0J4 0J420160506225511405/06/16 22:55:31  5-MIN K0J4 070355Z AUTO 00000KT 10SM CLR 12/09 A3002 220 83 0 000/00 RMK AO2 SLP164 T01170089 $
63870K0J4 0J420160506230010005/06/16 23:00:31  5-MIN K0J4 070400Z AUTO 00000KT 10SM CLR 11/08 A3002 220 83 -100 000/00 RMK AO2 $
63870K0J4 0J420160506230510005/06/16 23:05:31  5-MIN K0J4 070405Z AUTO 00000KT 10SM CLR 11/08 A3002 220 83 -100 000/00 RMK AO2 $
63870K0J4 0J420160506231010005/06/16 23:10:31  5-MIN K0J4 070410Z AUTO 00000KT 10SM CLR 11/08 A3002 220 83 -100 000/00 RMK AO2 $
63870K0J4 0J420160506231510005/06/16 23:15:31  5-MIN K0J4 070415Z AUTO 00000KT 10SM CLR 11/08 A3002 220 83 -100 000/00 RMK AO2 $
63870K0J4 0J420160506232009705/06/16 23:20:31  5-MIN K0J4 070420Z AUTO 00000KT 10SM CLR 12/08 A3003 220 80 0 000/00 RMK AO2 $
63870K0J4 0J420160506232509705/06/16 23:25:31  5-MIN K0J4 070425Z AUTO 00000KT 10SM CLR 12/09 A3003 220 83 0 000/00 RMK AO2 $
63870K0J4 0J420160506233010005/06/16 23:30:31  5-MIN K0J4 070430Z AUTO 00000KT 10SM CLR 11/09 A3003 220 86 -100 000/00 RMK AO2 $
63870K0J4 0J420160506233510005/06/16 23:35:31  5-MIN K0J4 070435Z AUTO 00000KT 10SM CLR 11/08 A3002 220 83 -100 000/00 RMK AO2 $
63870K0J4 0J420160506234009705/06/16 23:40:31  5-MIN K0J4 070440Z AUTO 00000KT 10SM CLR 12/09 A3002 220 83 0 000/00 RMK AO2 $
63870K0J4 0J420160506234510005/06/16 23:45:31  5-MIN K0J4 070445Z AUTO 00000KT 10SM CLR 11/09 A3002 220 86 -100 000/00 RMK AO2 $
63870K0J4 0J420160506235507905/06/16 23:55:31  5-MIN K0J4 070455Z AUTO M M M M /M RMK AO2 SLPNO 402330072 $
63870K0J4 0J420160507000009105/07/16 00:00:31  5-MIN K0J4 070500Z AUTO 00000KT 11/08 A3002 220 83 -100 000/00 RMK AO2 $
63870K0J4 0J420160507000509605/07/16 00:05:31  5-MIN K0J4 070505Z AUTO 00000KT 10SM 11/08 A3002 220 86 -200 000/00 RMK AO2 $
63870K0J4 0J420160507001509605/07/16 00:15:31  5-MIN K0J4 070515Z AUTO 00000KT 10SM 11/08 A3002 220 83 -200 000/00 RMK AO2 $
63870K0J4 0J420160507002009605/07/16 00:20:31  5-MIN K0J4 070520Z AUTO 00000KT 10SM 11/08 A3002 220 83 -200 000/00 RMK AO2 $
63870K0J4 0J420160507002509705/07/16 00:25:31  5-MIN K0J4 070525Z AUTO 00000KT 10SM CLR 12/08 A3002 230 80 0 000/00 RMK AO2 $
63870K0J4 0J420160507003010005/07/16 00:30:31  5-MIN K0J4 070530Z AUTO 00000KT 10SM CLR 11/08 A3002 230 83 -100 000/00 RMK AO2 $
63870K0J4 0J420160507003510005/07/16 00:35:31  5-MIN K0J4 070535Z AUTO 00000KT 10SM CLR 10/08 A3002 230 89 -200 000/00 RMK AO2 $
63870K0J4 0J420160507004010005/07/16 00:40:31  5-MIN K0J4 070540Z AUTO 00000KT 10SM CLR 11/08 A3002 230 86 -200 000/00 RMK AO2 $
63870K0J4 0J420160507004510005/07/16 00:45:31  5-MIN K0J4 070545Z AUTO 00000KT 10SM CLR 11/08 A3002 230 83 -100 000/00 RMK AO2 $
63870K0J4 0J420160507005010005/07/16 00:50:31  5-MIN K0J4 070550Z AUTO 00000KT 10SM CLR 11/08 A3002 220 86 -200 000/00 RMK AO2 $
63870K0J4 0J420160507005513505/07/16 00:55:31  5-MIN K0J4 070555Z AUTO 00000KT 10SM CLR 11/08 A3002 220 86 -200 000/00 RMK AO2 SLP163 6//// T01060083 10222 20100 $
63870K0J4 0J420160507010010005/07/16 01:00:31  5-MIN K0J4 070600Z AUTO 00000KT 10SM CLR 11/08 A3002 220 86 -200 000/00 RMK AO2 $
63870K0J4 0J420160507010510005/07/16 01:05:31  5-MIN K0J4 070605Z AUTO 00000KT 10SM CLR 11/08 A3002 220 86 -200 000/00 RMK AO2 $
63870K0J4 0J420160507011010005/07/16 01:10:31  5-MIN K0J4 070610Z AUTO 00000KT 10SM CLR 11/08 A3002 220 86 -200 000/00 RMK AO2 $
63870K0J4 0J420160507011510005/07/16 01:15:31  5-MIN K0J4 070615Z AUTO 00000KT 10SM CLR 11/08 A3002 230 83 -100 000/00 RMK AO2 $
63870K0J4 0J420160507012010005/07/16 01:20:31  5-MIN K0J4 070620Z AUTO 00000KT 10SM CLR 11/09 A3002 230 86 -100 000/00 RMK AO2 $
63870K0J4 0J420160507012510005/07/16 01:25:31  5-MIN K0J4 070625Z AUTO 00000KT 10SM CLR 11/08 A3002 230 83 -100 000/00 RMK AO2 $
63870K0J4 0J420160507013009705/07/16 01:30:31  5-MIN K0J4 070630Z AUTO 31003KT 10SM CLR 12/08 A3002 230 80 0 310/03 RMK AO2 $
63870K0J4 0J420160507013509705/07/16 01:35:31  5-MIN K0J4 070635Z AUTO 00000KT 10SM CLR 12/08 A3002 230 80 0 000/00 RMK AO2 $
63870K0J4 0J420160507014010005/07/16 01:40:31  5-MIN K0J4 070640Z AUTO 00000KT 10SM CLR 11/08 A3002 230 83 -100 000/00 RMK AO2 $
63870K0J4 0J420160507014510005/07/16 01:45:31  5-MIN K0J4 070645Z AUTO 00000KT 10SM CLR 11/08 A3002 230 83 -100 000/00 RMK AO2 $
63870K0J4 0J420160507015010005/07/16 01:50:31  5-MIN K0J4 070650Z AUTO 00000KT 10SM CLR 11/08 A3002 230 83 -100 000/00 RMK AO2 $
63870K0J4 0J420160507015511705/07/16 01:55:31  5-MIN K0J4 070655Z AUTO 00000KT 10SM CLR 11/08 A3001 230 83 -100 000/00 RMK AO2 SLP161 T01110083 $
63870K0J4 0J420160507020010005/07/16 02:00:31  5-MIN K0J4 070700Z AUTO 00000KT 10SM CLR 11/08 A3001 230 83 -100 000/00 RMK AO2 $
63870K0J4 0J420160507020510005/07/16 02:05:31  5-MIN K0J4 070705Z AUTO 00000KT 10SM CLR 11/08 A3001 230 83 -100 000/00 RMK AO2 $
63870K0J4 0J420160507021009705/07/16 02:10:31  5-MIN K0J4 070710Z AUTO 00000KT 10SM CLR 12/08 A3001 230 80 0 000/00 RMK AO2 $
63870K0J4 0J420160507021510005/07/16 02:15:31  5-MIN K0J4 070715Z AUTO 00000KT 10SM CLR 11/08 A3001 230 83 -100 000/00 RMK AO2 $
63870K0J4 0J420160507022010005/07/16 02:20:31  5-MIN K0J4 070720Z AUTO 00000KT 10SM CLR 11/09 A3001 230 86 -100 000/00 RMK AO2 $
63870K0J4 0J420160507022510005/07/16 02:25:31  5-MIN K0J4 070725Z AUTO 00000KT 10SM CLR 11/09 A3001 230 86 -100 000/00 RMK AO2 $
63870K0J4 0J420160507023009705/07/16 02:30:31  5-MIN K0J4 070730Z AUTO 00000KT 10SM CLR 12/08 A3001 230 80 0 000/00 RMK AO2 $
63870K0J4 0J420160507023510005/07/16 02:35:31  5-MIN K0J4 070735Z AUTO 30003KT 10SM CLR 11/08 A3001 230 83 -100 300/03 RMK AO2 $
63870K0J4 0J420160507024010005/07/16 02:40:31  5-MIN K0J4 070740Z AUTO 00000KT 10SM CLR 11/08 A3001 230 83 -100 000/00 RMK AO2 $
63870K0J4 0J420160507024510005/07/16 02:45:31  5-MIN K0J4 070745Z AUTO 00000KT 10SM CLR 11/08 A3001 230 83 -100 000/00 RMK AO2 $
63870K0J4 0J420160507025009705/07/16 02:50:31  5-MIN K0J4 070750Z AUTO VRB03KT 10SM CLR 12/08 A3001 230 80 0 VRB/03 RMK AO2 $
63870K0J4 0J420160507025511405/07/16 02:55:31  5-MIN K0J4 070755Z AUTO 31003KT 10SM CLR 12/08 A3001 230 80 0 310/03 RMK AO2 SLP161 T01170083 $
63870K0J4 0J420160507030010005/07/16 03:00:31  5-MIN K0J4 070800Z AUTO 00000KT 10SM CLR 11/08 A3001 230 83 -100 000/00 RMK AO2 $
63870K0J4 0J420160507030510005/07/16 03:05:31  5-MIN K0J4 070805Z AUTO 00000KT 10SM CLR 11/08 A3001 230 86 -200 000/00 RMK AO2 $
63870K0J4 0J420160507031010005/07/16 03:10:31  5-MIN K0J4 070810Z AUTO 00000KT 10SM CLR 11/08 A3001 230 86 -200 000/00 RMK AO2 $
63870K0J4 0J420160507031510005/07/16 03:15:31  5-MIN K0J4 070815Z AUTO 00000KT 10SM CLR 11/08 A3002 230 86 -200 000/00 RMK AO2 $
63870K0J4 0J420160507032010005/07/16 03:20:31  5-MIN K0J4 070820Z AUTO 00000KT 10SM CLR 11/08 A3002 230 86 -200 000/00 RMK AO2 $
63870K0J4 0J420160507032510005/07/16 03:25:31  5-MIN K0J4 070825Z AUTO 00000KT 10SM CLR 11/08 A3002 230 83 -100 000/00 RMK AO2 $
63870K0J4 0J420160507033010005/07/16 03:30:31  5-MIN K0J4 070830Z AUTO 00000KT 10SM CLR 11/08 A3002 230 86 -200 000/00 RMK AO2 $
63870K0J4 0J420160507033510005/07/16 03:35:31  5-MIN K0J4 070835Z AUTO 00000KT 10SM CLR 11/08 A3002 230 83 -100 000/00 RMK AO2 $
63870K0J4 0J420160507034010005/07/16 03:40:31  5-MIN K0J4 070840Z AUTO 32003KT 10SM CLR 11/08 A3002 230 86 -200 320/03 RMK AO2 $
63870K0J4 0J420160507034510005/07/16 03:45:31  5-MIN K0J4 070845Z AUTO 00000KT 10SM CLR 11/08 A3002 230 86 -200 000/00 RMK AO2 $
63870K0J4 0J420160507035010005/07/16 03:50:31  5-MIN K0J4 070850Z AUTO 34003KT 10SM CLR 11/08 A3002 230 83 -100 340/03 RMK AO2 $
63870K0J4 0J420160507035511405/07/16 03:55:31  5-MIN K0J4 070855Z AUTO 00000KT 10SM CLR 12/08 A3002 220 80 0 000/00 RMK AO2 SLP163 T01170083 $
63870K0J4 0J420160507040010005/07/16 04:00:31  5-MIN K0J4 070900Z AUTO 00000KT 10SM CLR 11/08 A3002 220 86 -200 000/00 RMK AO2 $
63870K0J4 0J420160507040510005/07/16 04:05:31  5-MIN K0J4 070905Z AUTO 32003KT 10SM CLR 11/08 A3002 220 83 -100 320/03 RMK AO2 $
63870K0J4 0J420160507041010005/07/16 04:10:31  5-MIN K0J4 070910Z AUTO 32004KT 10SM CLR 11/08 A3002 220 83 -100 320/04 RMK AO2 $
63870K0J4 0J420160507041509705/07/16 04:15:31  5-MIN K0J4 070915Z AUTO 33003KT 10SM CLR 12/08 A3002 220 80 0 330/03 RMK AO2 $
63870K0J4 0J420160507042010005/07/16 04:20:31  5-MIN K0J4 070920Z AUTO 33004KT 10SM CLR 11/08 A3002 220 83 -100 330/04 RMK AO2 $
63870K0J4 0J420160507042509705/07/16 04:25:31  5-MIN K0J4 070925Z AUTO 32003KT 10SM CLR 12/08 A3002 220 80 0 320/03 RMK AO2 $
63870K0J4 0J420160507043010005/07/16 04:30:31  5-MIN K0J4 070930Z AUTO 32003KT 10SM CLR 11/08 A3002 220 83 -100 320/03 RMK AO2 $
63870K0J4 0J420160507043510005/07/16 04:35:31  5-MIN K0J4 070935Z AUTO 00000KT 10SM CLR 11/08 A3003 220 83 -100 000/00 RMK AO2 $
63870K0J4 0J420160507044010005/07/16 04:40:31  5-MIN K0J4 070940Z AUTO 00000KT 10SM CLR 10/08 A3003 220 89 -200 000/00 RMK AO2 $
63870K0J4 0J420160507044510005/07/16 04:45:31  5-MIN K0J4 070945Z AUTO 00000KT 10SM CLR 11/08 A3003 220 86 -200 000/00 RMK AO2 $
63870K0J4 0J420160507045010005/07/16 04:50:31  5-MIN K0J4 070950Z AUTO 00000KT 10SM CLR 10/08 A3003 220 89 -200 000/00 RMK AO2 $
63870K0J4 0J420160507045511705/07/16 04:55:31  5-MIN K0J4 070955Z AUTO 00000KT 10SM CLR 10/08 A3003 220 89 -200 000/00 RMK AO2 SLP166 T01000083 $
63870K0J4 0J420160507050010005/07/16 05:00:31  5-MIN K0J4 071000Z AUTO 00000KT 10SM CLR 09/08 A3003 210 89 -300 000/00 RMK AO2 $
63870K0J4 0J420160507050510005/07/16 05:05:31  5-MIN K0J4 071005Z AUTO 00000KT 10SM CLR 09/07 A3003 210 89 -400 000/00 RMK AO2 $
63870K0J4 0J420160507051010005/07/16 05:10:31  5-MIN K0J4 071010Z AUTO 00000KT 10SM CLR 09/08 A3003 210 89 -300 000/00 RMK AO2 $
63870K0J4 0J420160507051510005/07/16 05:15:31  5-MIN K0J4 071015Z AUTO 00000KT 10SM CLR 09/07 A3004 210 89 -400 000/00 RMK AO2 $
63870K0J4 0J420160507052010005/07/16 05:20:31  5-MIN K0J4 071020Z AUTO 00000KT 10SM CLR 09/07 A3004 210 86 -300 000/00 RMK AO2 $
63870K0J4 0J420160507052510005/07/16 05:25:31  5-MIN K0J4 071025Z AUTO 00000KT 10SM CLR 09/08 A3004 210 89 -300 000/00 RMK AO2 $
63870K0J4 0J420160507053010005/07/16 05:30:31  5-MIN K0J4 071030Z AUTO 00000KT 10SM CLR 09/07 A3004 200 89 -400 000/00 RMK AO2 $
63870K0J4 0J420160507053510005/07/16 05:35:31  5-MIN K0J4 071035Z AUTO 00000KT 10SM CLR 09/07 A3004 200 89 -400 000/00 RMK AO2 $
63870K0J4 0J420160507054010005/07/16 05:40:31  5-MIN K0J4 071040Z AUTO 00000KT 10SM CLR 09/07 A3005 200 89 -400 000/00 RMK AO2 $
63870K0J4 0J420160507054510005/07/16 05:45:31  5-MIN K0J4 071045Z AUTO 00000KT 10SM CLR 09/07 A3005 200 86 -400 000/00 RMK AO2 $
63870K0J4 0J420160507055010005/07/16 05:50:31  5-MIN K0J4 071050Z AUTO 00000KT 10SM CLR 09/07 A3005 200 89 -400 000/00 RMK AO2 $
63870K0J4 0J420160507055511705/07/16 05:55:31  5-MIN K0J4 071055Z AUTO 00000KT 10SM CLR 08/07 A3005 190 93 -500 000/00 RMK AO2 SLP174 T00830072 $
63870K0J4 0J420160507060010005/07/16 06:00:31  5-MIN K0J4 071100Z AUTO 00000KT 10SM CLR 08/07 A3005 190 93 -500 000/00 RMK AO2 $
63870K0J4 0J420160507060510005/07/16 06:05:31  5-MIN K0J4 071105Z AUTO 32003KT 10SM CLR 09/08 A3005 190 89 -300 320/03 RMK AO2 $
63870K0J4 0J420160507061010005/07/16 06:10:31  5-MIN K0J4 071110Z AUTO 00000KT 10SM CLR 09/08 A3006 190 93 -400 000/00 RMK AO2 $
63870K0J4 0J420160507061510005/07/16 06:15:31  5-MIN K0J4 071115Z AUTO 00000KT 10SM CLR 09/07 A3006 190 89 -400 000/00 RMK AO2 $
63870K0J4 0J420160507062010005/07/16 06:20:31  5-MIN K0J4 071120Z AUTO 00000KT 10SM CLR 09/08 A3006 190 93 -400 000/00 RMK AO2 $
63870K0J4 0J420160507062510005/07/16 06:25:31  5-MIN K0J4 071125Z AUTO 00000KT 10SM CLR 09/08 A3006 180 93 -400 000/00 RMK AO2 $
63870K0J4 0J420160507063010005/07/16 06:30:31  5-MIN K0J4 071130Z AUTO 00000KT 10SM CLR 09/08 A3007 180 89 -400 000/00 RMK AO2 $
63870K0J4 0J420160507063510005/07/16 06:35:31  5-MIN K0J4 071135Z AUTO 00000KT 10SM CLR 09/08 A3007 180 89 -400 000/00 RMK AO2 $
63870K0J4 0J420160507064010005/07/16 06:40:31  5-MIN K0J4 071140Z AUTO 00000KT 10SM CLR 10/08 A3007 180 89 -300 000/00 RMK AO2 $
63870K0J4 0J420160507064510005/07/16 06:45:31  5-MIN K0J4 071145Z AUTO 00000KT 10SM CLR 10/08 A3007 180 89 -300 000/00 RMK AO2 $
63870K0J4 0J420160507065010005/07/16 06:50:31  5-MIN K0J4 071150Z AUTO 00000KT 10SM CLR 11/09 A3007 180 89 -200 000/00 RMK AO2 $
63870K0J4 0J420160507065514105/07/16 06:55:31  5-MIN K0J4 071155Z AUTO 00000KT 10SM CLR 11/09 A3007 180 89 -200 000/00 RMK AO2 SLP180 7//// T01110094 10117 20083 53000 $
63870K0J4 0J420160507070010005/07/16 07:00:31  5-MIN K0J4 071200Z AUTO 00000KT 10SM CLR 12/09 A3007 180 86 -100 000/00 RMK AO2 $
63870K0J4 0J420160507070509705/07/16 07:05:31  5-MIN K0J4 071205Z AUTO 00000KT 10SM CLR 13/09 A3007 180 80 0 000/00 RMK AO2 $
63870K0J4 0J420160507071009905/07/16 07:10:31  5-MIN K0J4 071210Z AUTO 00000KT 10SM CLR 13/10 A3007 170 80 100 000/00 RMK AO2 $
63870K0J4 0J420160507071509905/07/16 07:15:31  5-MIN K0J4 071215Z AUTO 00000KT 10SM CLR 14/09 A3007 180 72 200 000/00 RMK AO2 $
63870K0J4 0J420160507072009905/07/16 07:20:31  5-MIN K0J4 071220Z AUTO 34003KT 10SM CLR 14/09 A3007 170 72 200 340/03 RMK AO2 $
63870K0J4 0J420160507072509905/07/16 07:25:31  5-MIN K0J4 071225Z AUTO 00000KT 10SM CLR 15/09 A3008 170 69 300 000/00 RMK AO2 $
63870K0J4 0J420160507073009905/07/16 07:30:31  5-MIN K0J4 071230Z AUTO VRB03KT 10SM CLR 15/09 A3008 170 69 300 VRB/03 RMK AO2 $
63870K0J4 0J420160507073509905/07/16 07:35:31  5-MIN K0J4 071235Z AUTO 00000KT 10SM CLR 16/10 A3007 170 69 300 000/00 RMK AO2 $
63870K0J4 0J420160507074009905/07/16 07:40:31  5-MIN K0J4 071240Z AUTO 00000KT 10SM CLR 16/09 A3008 170 67 300 000/00 RMK AO2 $
63870K0J4 0J420160507074509905/07/16 07:45:31  5-MIN K0J4 071245Z AUTO 33003KT 10SM CLR 16/10 A3008 170 67 400 330/03 RMK AO2 $
63870K0J4 0J420160507075009905/07/16 07:50:31  5-MIN K0J4 071250Z AUTO 00000KT 10SM CLR 16/09 A3008 170 64 400 000/00 RMK AO2 $
63870K0J4 0J420160507075511605/07/16 07:55:31  5-MIN K0J4 071255Z AUTO 32003KT 10SM CLR 17/09 A3008 170 62 400 320/03 RMK AO2 SLP183 T01670094 $
63870K0J4 0J420160507080009905/07/16 08:00:31  5-MIN K0J4 071300Z AUTO 35004KT 10SM CLR 17/09 A3008 170 60 400 350/04 RMK AO2 $
63870K0J4 0J420160507080509905/07/16 08:05:31  5-MIN K0J4 071305Z AUTO 00000KT 10SM CLR 17/09 A3008 170 60 500 000/00 RMK AO2 $
63870K0J4 0J420160507081009905/07/16 08:10:31  5-MIN K0J4 071310Z AUTO VRB03KT 10SM CLR 18/09 A3008 170 58 600 VRB/03 RMK AO2 $
63870K0J4 0J420160507081509905/07/16 08:15:31  5-MIN K0J4 071315Z AUTO 36004KT 10SM CLR 18/09 A3008 170 58 600 360/04 RMK AO2 $
63870K0J4 0J420160507082009905/07/16 08:20:31  5-MIN K0J4 071320Z AUTO 36004KT 10SM CLR 18/09 A3008 170 58 600 360/04 RMK AO2 $
63870K0J4 0J420160507082509905/07/16 08:25:31  5-MIN K0J4 071325Z AUTO VRB03KT 10SM CLR 18/09 A3008 160 56 600 VRB/03 RMK AO2 $
63870K0J4 0J420160507083009905/07/16 08:30:31  5-MIN K0J4 071330Z AUTO 35004KT 10SM CLR 18/09 A3009 160 56 600 350/04 RMK AO2 $
63870K0J4 0J420160507083509905/07/16 08:35:31  5-MIN K0J4 071335Z AUTO 35004KT 10SM CLR 18/09 A3009 160 56 600 350/04 RMK AO2 $
63870K0J4 0J420160507084009905/07/16 08:40:31  5-MIN K0J4 071340Z AUTO 35004KT 10SM CLR 19/09 A3009 160 52 700 350/04 RMK AO2 $
63870K0J4 0J420160507084509905/07/16 08:45:31  5-MIN K0J4 071345Z AUTO 01006KT 10SM CLR 19/09 A3009 160 52 800 010/06 RMK AO2 $
63870K0J4 0J420160507085009905/07/16 08:50:31  5-MIN K0J4 071350Z AUTO 01004KT 10SM CLR 19/09 A3009 160 52 700 010/04 RMK AO2 $
63870K0J4 0J420160507085511605/07/16 08:55:31  5-MIN K0J4 071355Z AUTO VRB03KT 10SM CLR 19/09 A3009 160 52 800 VRB/03 RMK AO2 SLP186 T01940094 $
63870K0J4 0J420160507090009905/07/16 09:00:31  5-MIN K0J4 071400Z AUTO VRB03KT 10SM CLR 20/09 A3009 160 50 800 VRB/03 RMK AO2 $
63870K0J4 0J420160507090509905/07/16 09:05:31  5-MIN K0J4 071405Z AUTO 01004KT 10SM CLR 20/09 A3009 160 48 800 010/04 RMK AO2 $
63870K0J4 0J420160507091009905/07/16 09:10:31  5-MIN K0J4 071410Z AUTO 01005KT 10SM CLR 21/09 A3009 160 48 900 010/05 RMK AO2 $
63870K0J4 0J420160507091509905/07/16 09:15:31  5-MIN K0J4 071415Z AUTO VRB04KT 10SM CLR 21/09 A3009 160 48 900 VRB/04 RMK AO2 $
63870K0J4 0J420160507092009905/07/16 09:20:31  5-MIN K0J4 071420Z AUTO VRB04KT 10SM CLR 21/09 A3009 160 47 900 VRB/04 RMK AO2 $
63870K0J4 0J420160507092509905/07/16 09:25:31  5-MIN K0J4 071425Z AUTO 36004KT 10SM CLR 21/09 A3009 160 47 900 360/04 RMK AO2 $
63870K0J4 0J420160507093009905/07/16 09:30:31  5-MIN K0J4 071430Z AUTO 36004KT 10SM CLR 21/09 A3009 160 45 900 360/04 RMK AO2 $
63870K0J4 0J420160507093510005/07/16 09:35:31  5-MIN K0J4 071435Z AUTO 35004KT 10SM CLR 22/09 A3009 160 45 1000 350/04 RMK AO2 $
63870K0J4 0J420160507094010005/07/16 09:40:31  5-MIN K0J4 071440Z AUTO VRB04KT 10SM CLR 22/08 A3009 160 42 1000 VRB/04 RMK AO2 $
63870K0J4 0J420160507094510005/07/16 09:45:31  5-MIN K0J4 071445Z AUTO VRB04KT 10SM CLR 22/08 A3010 150 42 1000 VRB/04 RMK AO2 $
63870K0J4 0J420160507095010005/07/16 09:50:31  5-MIN K0J4 071450Z AUTO VRB04KT 10SM CLR 22/08 A3010 150 39 1100 VRB/04 RMK AO2 $
63870K0J4 0J420160507095512305/07/16 09:55:31  5-MIN K0J4 071455Z AUTO VRB06KT 10SM CLR 22/08 A3009 160 39 1100 VRB/06 RMK AO2 SLP188 T02220078 53017 $
63870K0J4 0J420160507100010005/07/16 10:00:31  5-MIN K0J4 071500Z AUTO VRB04KT 10SM CLR 22/07 A3010 150 37 1100 VRB/04 RMK AO2 $
63870K0J4 0J420160507100510005/07/16 10:05:31  5-MIN K0J4 071505Z AUTO VRB04KT 10SM CLR 23/07 A3009 160 36 1100 VRB/04 RMK AO2 $
63870K0J4 0J420160507101010005/07/16 10:10:31  5-MIN K0J4 071510Z AUTO 33003KT 10SM CLR 22/06 A3009 160 36 1000 330/03 RMK AO2 $
63870K0J4 0J420160507101510005/07/16 10:15:31  5-MIN K0J4 071515Z AUTO 01005KT 10SM CLR 23/07 A3010 150 35 1100 010/05 RMK AO2 $
63870K0J4 0J420160507102010005/07/16 10:20:31  5-MIN K0J4 071520Z AUTO VRB04KT 10SM CLR 23/06 A3010 150 32 1100 VRB/04 RMK AO2 $
63870K0J4 0J420160507102510005/07/16 10:25:31  5-MIN K0J4 071525Z AUTO VRB05KT 10SM CLR 23/07 A3010 150 33 1200 VRB/05 RMK AO2 $
63870K0J4 0J420160507103010005/07/16 10:30:31  5-MIN K0J4 071530Z AUTO 33005KT 10SM CLR 23/06 A3010 150 33 1100 330/05 RMK AO2 $
63870K0J4 0J420160507103510005/07/16 10:35:31  5-MIN K0J4 071535Z AUTO 03005KT 10SM CLR 23/07 A3009 160 35 1100 030/05 RMK AO2 $
63870K0J4 0J420160507104009805/07/16 10:40:31  5-MIN K0J4 071540Z AUTO VRB04KT 10SM CLR 23/07 A3009 160 35 1100 VRB/04 RMK AO2
63870K0J4 0J420160507104511405/07/16 10:45:31  5-MIN K0J4 071545Z AUTO 33007KT 300V030 10SM CLR 23/06 A3009 160 32 1200 330/07 300V030 RMK AO2
63870K0J4 0J420160507105009805/07/16 10:50:31  5-MIN K0J4 071550Z AUTO VRB05KT 10SM CLR 23/06 A3010 150 31 1200 VRB/05 RMK AO2
63870K0J4 0J420160507105511705/07/16 10:55:31  5-MIN K0J4 071555Z AUTO VRB05KT 10SM CLR 23/06 A3010 150 31 1200 VRB/05 RMK AO2 SLP189 T02330056 $
63870K0J4 0J420160507110009805/07/16 11:00:31  5-MIN K0J4 071600Z AUTO VRB03KT 10SM CLR 23/05 A3010 150 31 1100 VRB/03 RMK AO2
63870K0J4 0J420160507110509805/07/16 11:05:31  5-MIN K0J4 071605Z AUTO VRB05KT 10SM CLR 24/06 A3010 150 31 1300 VRB/05 RMK AO2
63870K0J4 0J420160507111011405/07/16 11:10:31  5-MIN K0J4 071610Z AUTO 33007KT 310V010 10SM CLR 23/05 A3010 150 31 1100 330/07 310V010 RMK AO2
63870K0J4 0J420160507111509805/07/16 11:15:31  5-MIN K0J4 071615Z AUTO VRB06KT 10SM CLR 23/06 A3010 150 31 1200 VRB/06 RMK AO2
63870K0J4 0J420160507112009805/07/16 11:20:31  5-MIN K0J4 071620Z AUTO VRB05KT 10SM CLR 24/07 A3010 150 32 1300 VRB/05 RMK AO2
63870K0J4 0J420160507112509805/07/16 11:25:31  5-MIN K0J4 071625Z AUTO VRB03KT 10SM CLR 23/06 A3010 150 32 1200 VRB/03 RMK AO2
63870K0J4 0J420160507113012005/07/16 11:30:31  5-MIN K0J4 071630Z AUTO 01009G16KT 300V050 10SM CLR 24/06 A3010 150 31 1300 010/09G16 300V050 RMK AO2
63870K0J4 0J420160507113510405/07/16 11:35:31  5-MIN K0J4 071635Z AUTO VRB03G16KT 10SM CLR 24/06 A3010 150 31 1300 VRB/03G16 RMK AO2
63870K0J4 0J420160507114009805/07/16 11:40:31  5-MIN K0J4 071640Z AUTO VRB05KT 10SM CLR 24/07 A3010 150 31 1300 VRB/05 RMK AO2
63870K0J4 0J420160507114509805/07/16 11:45:31  5-MIN K0J4 071645Z AUTO VRB05KT 10SM CLR 24/06 A3009 160 30 1300 VRB/05 RMK AO2
63870K0J4 0J420160507115011405/07/16 11:50:31  5-MIN K0J4 071650Z AUTO 34007KT 310V020 10SM CLR 24/06 A3009 160 31 1300 340/07 310V020 RMK AO2
63870K0J4 0J420160507115513005/07/16 11:55:31  5-MIN K0J4 071655Z AUTO 01007KT 340V050 10SM CLR 24/06 A3009 160 31 1300 010/07 340V050 RMK AO2 SLPNO T02390061
63870K0J4 0J420160507120010005/07/16 12:00:31  5-MIN K0J4 071700Z AUTO 04004KT 10SM CLR 24/06 A3009 160 31 1300 040/04 RMK AO2 $
63870K0J4 0J420160507120510005/07/16 12:05:31  5-MIN K0J4 071705Z AUTO VRB03KT 10SM CLR 24/06 A3009 160 31 1300 VRB/03 RMK AO2 $
63870K0J4 0J420160507121010005/07/16 12:10:31  5-MIN K0J4 071710Z AUTO VRB05KT 10SM CLR 24/07 A3009 160 31 1300 VRB/05 RMK AO2 $
63870K0J4 0J420160507121510005/07/16 12:15:31  5-MIN K0J4 071715Z AUTO 00000KT 10SM CLR 24/06 A3008 170 30 1300 000/00 RMK AO2 $
63870K0J4 0J420160507122010005/07/16 12:20:31  5-MIN K0J4 071720Z AUTO 01007KT 10SM CLR 24/07 A3008 170 31 1300 010/07 RMK AO2 $
63870K0J4 0J420160507122510005/07/16 12:25:31  5-MIN K0J4 071725Z AUTO 04007KT 10SM CLR 24/06 A3008 170 30 1300 040/07 RMK AO2 $
63870K0J4 0J420160507123010005/07/16 12:30:31  5-MIN K0J4 071730Z AUTO 00000KT 10SM CLR 24/07 A3008 170 31 1300 000/00 RMK AO2 $
63870K0J4 0J420160507123510005/07/16 12:35:31  5-MIN K0J4 071735Z AUTO VRB05KT 10SM CLR 25/07 A3007 180 30 1400 VRB/05 RMK AO2 $
63870K0J4 0J420160507124010005/07/16 12:40:31  5-MIN K0J4 071740Z AUTO VRB04KT 10SM CLR 24/06 A3007 180 31 1300 VRB/04 RMK AO2 $
63870K0J4 0J420160507124510005/07/16 12:45:31  5-MIN K0J4 071745Z AUTO VRB04KT 10SM CLR 24/06 A3007 180 31 1300 VRB/04 RMK AO2 $
63870K0J4 0J420160507125010005/07/16 12:50:31  5-MIN K0J4 071750Z AUTO VRB03KT 10SM CLR 25/07 A3007 180 30 1400 VRB/03 RMK AO2 $
63870K0J4 0J420160507125513505/07/16 12:55:31  5-MIN K0J4 071755Z AUTO 00000KT 10SM CLR 25/07 A3006 180 31 1400 000/00 RMK AO2 SLP178 T02500072 10250 20117 51008 $
63870K0J4 0J420160507130010005/07/16 13:00:31  5-MIN K0J4 071800Z AUTO VRB04KT 10SM CLR 26/07 A3006 180 29 1500 VRB/04 RMK AO2 $
63870K0J4 0J420160507130510005/07/16 13:05:31  5-MIN K0J4 071805Z AUTO 33006KT 10SM CLR 25/06 A3007 180 29 1400 330/06 RMK AO2 $
63870K0J4 0J420160507131010005/07/16 13:10:31  5-MIN K0J4 071810Z AUTO 00000KT 10SM CLR 25/06 A3006 180 28 1400 000/00 RMK AO2 $
63870K0J4 0J420160507131510005/07/16 13:15:31  5-MIN K0J4 071815Z AUTO 00000KT 10SM CLR 24/06 A3006 190 30 1400 000/00 RMK AO2 $
63870K0J4 0J420160507132010005/07/16 13:20:31  5-MIN K0J4 071820Z AUTO 02007KT 10SM CLR 25/07 A3006 190 30 1400 020/07 RMK AO2 $
63870K0J4 0J420160507132510005/07/16 13:25:31  5-MIN K0J4 071825Z AUTO VRB05KT 10SM CLR 25/07 A3006 190 30 1400 VRB/05 RMK AO2 $
63870K0J4 0J420160507133010005/07/16 13:30:31  5-MIN K0J4 071830Z AUTO VRB04KT 10SM CLR 26/07 A3006 190 30 1500 VRB/04 RMK AO2 $
63870K0J4 0J420160507133510005/07/16 13:35:31  5-MIN K0J4 071835Z AUTO 36006KT 10SM CLR 26/07 A3006 190 30 1500 360/06 RMK AO2 $
63870K0J4 0J420160507134010005/07/16 13:40:31  5-MIN K0J4 071840Z AUTO 07004KT 10SM CLR 26/07 A3006 190 30 1500 070/04 RMK AO2 $
63870K0J4 0J420160507134510005/07/16 13:45:31  5-MIN K0J4 071845Z AUTO VRB04KT 10SM CLR 26/08 A3006 190 31 1600 VRB/04 RMK AO2 $
63870K0J4 0J420160507135010005/07/16 13:50:31  5-MIN K0J4 071850Z AUTO 35004KT 10SM CLR 26/07 A3005 190 28 1600 350/04 RMK AO2 $
63870K0J4 0J420160507135511705/07/16 13:55:31  5-MIN K0J4 071855Z AUTO VRB03KT 10SM CLR 26/06 A3005 190 28 1500 VRB/03 RMK AO2 SLP174 T02560061 $
63870K0J4 0J420160507140010005/07/16 14:00:31  5-MIN K0J4 071900Z AUTO 05003KT 10SM CLR 26/07 A3005 200 29 1600 050/03 RMK AO2 $
63870K0J4 0J420160507140510005/07/16 14:05:31  5-MIN K0J4 071905Z AUTO 32005KT 10SM CLR 26/07 A3005 200 28 1600 320/05 RMK AO2 $
63870K0J4 0J420160507141010005/07/16 14:10:31  5-MIN K0J4 071910Z AUTO VRB04KT 10SM CLR 26/07 A3005 200 28 1600 VRB/04 RMK AO2 $
63870K0J4 0J420160507141510005/07/16 14:15:31  5-MIN K0J4 071915Z AUTO VRB05KT 10SM CLR 26/07 A3005 200 29 1500 VRB/05 RMK AO2 $
63870K0J4 0J420160507142010005/07/16 14:20:31  5-MIN K0J4 071920Z AUTO 00000KT 10SM CLR 26/07 A3005 200 28 1600 000/00 RMK AO2 $
63870K0J4 0J420160507142510005/07/16 14:25:31  5-MIN K0J4 071925Z AUTO VRB03KT 10SM CLR 26/06 A3004 200 28 1500 VRB/03 RMK AO2 $
63870K0J4 0J420160507143010005/07/16 14:30:31  5-MIN K0J4 071930Z AUTO 35004KT 10SM CLR 26/07 A3004 200 28 1600 350/04 RMK AO2 $
63870K0J4 0J420160507143510005/07/16 14:35:31  5-MIN K0J4 071935Z AUTO 00000KT 10SM CLR 26/06 A3004 210 27 1600 000/00 RMK AO2 $
63870K0J4 0J420160507144010005/07/16 14:40:31  5-MIN K0J4 071940Z AUTO 00000KT 10SM CLR 26/06 A3004 210 27 1600 000/00 RMK AO2 $
63870K0J4 0J420160507144510005/07/16 14:45:31  5-MIN K0J4 071945Z AUTO 00000KT 10SM CLR 26/06 A3004 210 27 1600 000/00 RMK AO2 $
63870K0J4 0J420160507145010005/07/16 14:50:31  5-MIN K0J4 071950Z AUTO 00000KT 10SM CLR 27/07 A3003 210 27 1600 000/00 RMK AO2 $
63870K0J4 0J420160507145511705/07/16 14:55:31  5-MIN K0J4 071955Z AUTO 21004KT 10SM CLR 26/07 A3003 210 28 1600 210/04 RMK AO2 SLP167 T02610067 $
63870K0J4 0J420160507150010005/07/16 15:00:31  5-MIN K0J4 072000Z AUTO 00000KT 10SM CLR 26/07 A3003 210 28 1600 000/00 RMK AO2 $
63870K0J4 0J420160507150510005/07/16 15:05:31  5-MIN K0J4 072005Z AUTO VRB04KT 10SM CLR 27/08 A3003 210 29 1700 VRB/04 RMK AO2 $
63870K0J4 0J420160507151010005/07/16 15:10:31  5-MIN K0J4 072010Z AUTO 00000KT 10SM CLR 27/06 A3003 220 25 1700 000/00 RMK AO2 $
63870K0J4 0J420160507151510005/07/16 15:15:31  5-MIN K0J4 072015Z AUTO VRB04KT 10SM CLR 26/06 A3003 220 27 1600 VRB/04 RMK AO2 $
63870K0J4 0J420160507152010005/07/16 15:20:31  5-MIN K0J4 072020Z AUTO VRB03KT 10SM CLR 26/06 A3002 220 26 1600 VRB/03 RMK AO2 $
63870K0J4 0J420160507152510005/07/16 15:25:31  5-MIN K0J4 072025Z AUTO VRB03KT 10SM CLR 26/06 A3003 220 27 1600 VRB/03 RMK AO2 $
63870K0J4 0J420160507153010005/07/16 15:30:31  5-MIN K0J4 072030Z AUTO VRB03KT 10SM CLR 26/06 A3003 220 27 1600 VRB/03 RMK AO2 $
63870K0J4 0J420160507153510005/07/16 15:35:31  5-MIN K0J4 072035Z AUTO 04005KT 10SM CLR 27/07 A3002 220 27 1700 040/05 RMK AO2 $
63870K0J4 0J420160507154010005/07/16 15:40:31  5-MIN K0J4 072040Z AUTO 35004KT 10SM CLR 27/07 A3002 220 27 1700 350/04 RMK AO2 $
63870K0J4 0J420160507154510005/07/16 15:45:31  5-MIN K0J4 072045Z AUTO 00000KT 10SM CLR 27/06 A3002 220 26 1700 000/00 RMK AO2 $
63870K0J4 0J420160507155010005/07/16 15:50:31  5-MIN K0J4 072050Z AUTO VRB03KT 10SM CLR 27/07 A3002 220 27 1700 VRB/03 RMK AO2 $
63870K0J4 0J420160507155512305/07/16 15:55:31  5-MIN K0J4 072055Z AUTO 00000KT 10SM CLR 26/06 A3002 230 27 1600 000/00 RMK AO2 SLP162 T02610061 58010 $
63870K0J4 0J420160507160010005/07/16 16:00:31  5-MIN K0J4 072100Z AUTO 02003KT 10SM CLR 27/07 A3002 230 26 1700 020/03 RMK AO2 $
63870K0J4 0J420160507160510005/07/16 16:05:31  5-MIN K0J4 072105Z AUTO VRB03KT 10SM CLR 27/07 A3002 230 26 1700 VRB/03 RMK AO2 $
63870K0J4 0J420160507161010005/07/16 16:10:31  5-MIN K0J4 072110Z AUTO VRB03KT 10SM CLR 27/07 A3001 230 27 1700 VRB/03 RMK AO2 $
63870K0J4 0J420160507161510005/07/16 16:15:31  5-MIN K0J4 072115Z AUTO VRB04KT 10SM CLR 27/07 A3001 230 27 1700 VRB/04 RMK AO2 $
63870K0J4 0J420160507162010005/07/16 16:20:31  5-MIN K0J4 072120Z AUTO 00000KT 10SM CLR 27/07 A3001 230 27 1700 000/00 RMK AO2 $
63870K0J4 0J420160507162510005/07/16 16:25:31  5-MIN K0J4 072125Z AUTO 00000KT 10SM CLR 26/07 A3001 230 28 1600 000/00 RMK AO2 $
63870K0J4 0J420160507163010005/07/16 16:30:31  5-MIN K0J4 072130Z AUTO VRB04KT 10SM CLR 27/07 A3001 230 28 1700 VRB/04 RMK AO2 $
63870K0J4 0J420160507163510005/07/16 16:35:31  5-MIN K0J4 072135Z AUTO VRB03KT 10SM CLR 26/07 A3001 230 28 1600 VRB/03 RMK AO2 $
63870K0J4 0J420160507164010005/07/16 16:40:31  5-MIN K0J4 072140Z AUTO 00000KT 10SM CLR 27/07 A3001 230 27 1700 000/00 RMK AO2 $
63870K0J4 0J420160507164510005/07/16 16:45:31  5-MIN K0J4 072145Z AUTO VRB04KT 10SM CLR 26/07 A3001 230 28 1600 VRB/04 RMK AO2 $
63870K0J4 0J420160507165010005/07/16 16:50:31  5-MIN K0J4 072150Z AUTO 24003KT 10SM CLR 26/07 A3001 230 29 1600 240/03 RMK AO2 $
63870K0J4 0J420160507165511705/07/16 16:55:31  5-MIN K0J4 072155Z AUTO 00000KT 10SM CLR 27/07 A3001 230 28 1700 000/00 RMK AO2 SLP159 T02670072 $
63870K0J4 0J420160507170010005/07/16 17:00:31  5-MIN K0J4 072200Z AUTO 35004KT 10SM CLR 27/07 A3001 240 28 1700 350/04 RMK AO2 $
63870K0J4 0J420160507170510005/07/16 17:05:31  5-MIN K0J4 072205Z AUTO VRB03KT 10SM CLR 27/07 A3001 240 28 1700 VRB/03 RMK AO2 $
63870K0J4 0J420160507171010005/07/16 17:10:31  5-MIN K0J4 072210Z AUTO VRB03KT 10SM CLR 26/07 A3001 240 29 1600 VRB/03 RMK AO2 $
63870K0J4 0J420160507171510005/07/16 17:15:31  5-MIN K0J4 072215Z AUTO 22003KT 10SM CLR 27/07 A3001 240 28 1700 220/03 RMK AO2 $
63870K0J4 0J420160507172010005/07/16 17:20:31  5-MIN K0J4 072220Z AUTO 00000KT 10SM CLR 26/07 A3001 240 29 1600 000/00 RMK AO2 $
63870K0J4 0J420160507172510005/07/16 17:25:31  5-MIN K0J4 072225Z AUTO 01003KT 10SM CLR 27/08 A3001 240 29 1700 010/03 RMK AO2 $
63870K0J4 0J420160507173010005/07/16 17:30:31  5-MIN K0J4 072230Z AUTO 00000KT 10SM CLR 27/08 A3001 240 29 1700 000/00 RMK AO2 $
63870K0J4 0J420160507173510005/07/16 17:35:31  5-MIN K0J4 072235Z AUTO 00000KT 10SM CLR 27/08 A3000 240 29 1700 000/00 RMK AO2 $
63870K0J4 0J420160507174010005/07/16 17:40:31  5-MIN K0J4 072240Z AUTO 00000KT 10SM CLR 26/08 A3000 240 31 1600 000/00 RMK AO2 $
63870K0J4 0J420160507174510005/07/16 17:45:31  5-MIN K0J4 072245Z AUTO 33003KT 10SM CLR 27/08 A3000 240 29 1700 330/03 RMK AO2 $
63870K0J4 0J420160507175010005/07/16 17:50:31  5-MIN K0J4 072250Z AUTO 00000KT 10SM CLR 26/07 A3000 240 29 1600 000/00 RMK AO2 $
63870K0J4 0J420160507175511705/07/16 17:55:31  5-MIN K0J4 072255Z AUTO 00000KT 10SM CLR 27/08 A3000 240 29 1700 000/00 RMK AO2 SLP156 T02670078 $
63870K0J4 0J420160507180010005/07/16 18:00:31  5-MIN K0J4 072300Z AUTO 00000KT 10SM CLR 26/08 A3000 240 31 1600 000/00 RMK AO2 $
63870K0J4 0J420160507180510005/07/16 18:05:31  5-MIN K0J4 072305Z AUTO 00000KT 10SM CLR 27/08 A3000 240 31 1700 000/00 RMK AO2 $
63870K0J4 0J420160507181010005/07/16 18:10:31  5-MIN K0J4 072310Z AUTO 00000KT 10SM CLR 26/08 A3000 240 32 1600 000/00 RMK AO2 $
63870K0J4 0J420160507181510005/07/16 18:15:31  5-MIN K0J4 072315Z AUTO 00000KT 10SM CLR 26/08 A3000 240 32 1600 000/00 RMK AO2 $
63870K0J4 0J420160507182010005/07/16 18:20:31  5-MIN K0J4 072320Z AUTO 00000KT 10SM CLR 26/08 A3000 240 33 1600 000/00 RMK AO2 $
63870K0J4 0J420160507182510005/07/16 18:25:31  5-MIN K0J4 072325Z AUTO 00000KT 10SM CLR 26/08 A3000 240 33 1600 000/00 RMK AO2 $
63870K0J4 0J420160507183010005/07/16 18:30:31  5-MIN K0J4 072330Z AUTO 00000KT 10SM CLR 25/09 A3000 240 37 1500 000/00 RMK AO2 $
63870K0J4 0J420160507183510005/07/16 18:35:31  5-MIN K0J4 072335Z AUTO 00000KT 10SM CLR 25/09 A3000 240 37 1500 000/00 RMK AO2 $
63870K0J4 0J420160507184010005/07/16 18:40:31  5-MIN K0J4 072340Z AUTO 00000KT 10SM CLR 24/10 A3000 240 39 1400 000/00 RMK AO2 $
63870K0J4 0J420160507184510005/07/16 18:45:31  5-MIN K0J4 072345Z AUTO 00000KT 10SM CLR 24/10 A3000 240 41 1400 000/00 RMK AO2 $
63870K0J4 0J420160507185010005/07/16 18:50:31  5-MIN K0J4 072350Z AUTO 00000KT 10SM CLR 23/10 A3000 240 42 1300 000/00 RMK AO2 $
63870K0J4 0J420160507185513505/07/16 18:55:31  5-MIN K0J4 072355Z AUTO 00000KT 10SM CLR 23/11 A3000 240 47 1200 000/00 RMK AO2 SLP157 T02280111 10272 20228 56016 $
63870K0J4 0J420160507190010005/07/16 19:00:31  5-MIN K0J4 080000Z AUTO 00000KT 10SM CLR 23/11 A3000 240 47 1200 000/00 RMK AO2 $
63870K0J4 0J420160507190510005/07/16 19:05:31  5-MIN K0J4 080005Z AUTO 00000KT 10SM CLR 22/11 A3000 240 50 1100 000/00 RMK AO2 $
63870K0J4 0J420160507191010005/07/16 19:10:31  5-MIN K0J4 080010Z AUTO 00000KT 10SM CLR 22/12 A3001 240 54 1100 000/00 RMK AO2 $
63870K0J4 0J420160507191510005/07/16 19:15:31  5-MIN K0J4 080015Z AUTO 00000KT 10SM CLR 21/13 A3001 240 61 1000 000/00 RMK AO2 $
63870K0J4 0J420160507192010005/07/16 19:20:31  5-MIN K0J4 080020Z AUTO 00000KT 10SM CLR 22/12 A3001 230 52 1100 000/00 RMK AO2 $
63870K0J4 0J420160507192510005/07/16 19:25:31  5-MIN K0J4 080025Z AUTO 00000KT 10SM CLR 21/11 A3001 230 52 1000 000/00 RMK AO2 $
63870K0J4 0J420160507193009905/07/16 19:30:31  5-MIN K0J4 080030Z AUTO 00000KT 10SM CLR 20/12 A3001 230 60 900 000/00 RMK AO2 $
63870K0J4 0J420160507193509905/07/16 19:35:31  5-MIN K0J4 080035Z AUTO 00000KT 10SM CLR 20/12 A3001 230 60 900 000/00 RMK AO2 $
63870K0J4 0J420160507194009905/07/16 19:40:31  5-MIN K0J4 080040Z AUTO 00000KT 10SM CLR 19/13 A3001 230 65 800 000/00 RMK AO2 $
63870K0J4 0J420160507194509905/07/16 19:45:31  5-MIN K0J4 080045Z AUTO 00000KT 10SM CLR 19/13 A3001 230 65 800 000/00 RMK AO2 $
63870K0J4 0J420160507195009905/07/16 19:50:31  5-MIN K0J4 080050Z AUTO 00000KT 10SM CLR 19/13 A3001 230 65 800 000/00 RMK AO2 $
63870K0J4 0J420160507195511605/07/16 19:55:31  5-MIN K0J4 080055Z AUTO 00000KT 10SM CLR 19/12 A3002 230 62 800 000/00 RMK AO2 SLP161 T01940122 $
63870K0J4 0J420160507200009905/07/16 20:00:31  5-MIN K0J4 080100Z AUTO 00000KT 10SM CLR 19/12 A3002 230 65 800 000/00 RMK AO2 $
63870K0J4 0J420160507200509905/07/16 20:05:31  5-MIN K0J4 080105Z AUTO 00000KT 10SM CLR 18/13 A3002 230 75 600 000/00 RMK AO2 $
63870K0J4 0J420160507201009905/07/16 20:10:31  5-MIN K0J4 080110Z AUTO 00000KT 10SM CLR 18/13 A3002 230 70 700 000/00 RMK AO2 $
63870K0J4 0J420160507201509905/07/16 20:15:31  5-MIN K0J4 080115Z AUTO 00000KT 10SM CLR 18/13 A3002 220 70 700 000/00 RMK AO2 $
63870K0J4 0J420160507202009905/07/16 20:20:31  5-MIN K0J4 080120Z AUTO 00000KT 10SM CLR 18/13 A3002 220 72 600 000/00 RMK AO2 $
63870K0J4 0J420160507202509905/07/16 20:25:31  5-MIN K0J4 080125Z AUTO 00000KT 10SM CLR 18/13 A3002 220 72 600 000/00 RMK AO2 $
63870K0J4 0J420160507203009905/07/16 20:30:31  5-MIN K0J4 080130Z AUTO 22006KT 10SM CLR 17/13 A3002 220 77 500 220/06 RMK AO2 $
63870K0J4 0J420160507203509905/07/16 20:35:31  5-MIN K0J4 080135Z AUTO 22006KT 10SM CLR 18/12 A3003 220 67 700 220/06 RMK AO2 $
63870K0J4 0J420160507204009905/07/16 20:40:31  5-MIN K0J4 080140Z AUTO 22004KT 10SM CLR 19/12 A3003 220 62 800 220/04 RMK AO2 $
63870K0J4 0J420160507204509905/07/16 20:45:31  5-MIN K0J4 080145Z AUTO 23003KT 10SM CLR 19/12 A3003 210 62 800 230/03 RMK AO2 $
63870K0J4 0J420160507205009905/07/16 20:50:31  5-MIN K0J4 080150Z AUTO 22003KT 10SM CLR 18/12 A3003 210 67 600 220/03 RMK AO2 $
63870K0J4 0J420160507205511605/07/16 20:55:31  5-MIN K0J4 080155Z AUTO 21004KT 10SM CLR 19/12 A3004 210 62 800 210/04 RMK AO2 SLP167 T01890117 $
63870K0J4 0J420160507210009905/07/16 21:00:31  5-MIN K0J4 080200Z AUTO 22004KT 10SM CLR 19/12 A3004 210 62 800 220/04 RMK AO2 $
63870K0J4 0J420160507210509905/07/16 21:05:31  5-MIN K0J4 080205Z AUTO 00000KT 10SM CLR 19/11 A3004 210 60 800 000/00 RMK AO2 $
63870K0J4 0J420160507211009905/07/16 21:10:31  5-MIN K0J4 080210Z AUTO 22003KT 10SM CLR 18/11 A3004 210 62 700 220/03 RMK AO2 $
63870K0J4 0J420160507211509905/07/16 21:15:31  5-MIN K0J4 080215Z AUTO 21003KT 10SM CLR 18/12 A3004 210 65 700 210/03 RMK AO2 $
63870K0J4 0J420160507212009905/07/16 21:20:31  5-MIN K0J4 080220Z AUTO 22004KT 10SM CLR 18/12 A3004 200 67 600 220/04 RMK AO2 $
63870K0J4 0J420160507212509905/07/16 21:25:31  5-MIN K0J4 080225Z AUTO 22006KT 10SM CLR 18/12 A3004 200 65 700 220/06 RMK AO2 $
63870K0J4 0J420160507213009905/07/16 21:30:31  5-MIN K0J4 080230Z AUTO 22004KT 10SM CLR 18/12 A3004 200 67 600 220/04 RMK AO2 $
63870K0J4 0J420160507213509905/07/16 21:35:31  5-MIN K0J4 080235Z AUTO 23004KT 10SM CLR 18/12 A3004 200 67 600 230/04 RMK AO2 $
63870K0J4 0J420160507214009905/07/16 21:40:31  5-MIN K0J4 080240Z AUTO 23004KT 10SM CLR 18/11 A3005 200 62 700 230/04 RMK AO2 $
63870K0J4 0J420160507214509905/07/16 21:45:31  5-MIN K0J4 080245Z AUTO 22003KT 10SM CLR 18/11 A3005 200 62 700 220/03 RMK AO2 $
63870K0J4 0J420160507215009905/07/16 21:50:31  5-MIN K0J4 080250Z AUTO 22003KT 10SM CLR 18/11 A3005 200 64 600 220/03 RMK AO2 $
63870K0J4 0J420160507215512205/07/16 21:55:31  5-MIN K0J4 080255Z AUTO 22004KT 10SM CLR 18/11 A3005 200 64 600 220/04 RMK AO2 SLP172 T01780111 55005 $
63870K0J4 0J420160507220009905/07/16 22:00:31  5-MIN K0J4 080300Z AUTO 22004KT 10SM CLR 18/11 A3005 200 64 600 220/04 RMK AO2 $
63870K0J4 0J420160507220509905/07/16 22:05:31  5-MIN K0J4 080305Z AUTO 22004KT 10SM CLR 18/11 A3005 200 64 600 220/04 RMK AO2 $
63870K0J4 0J420160507221009905/07/16 22:10:31  5-MIN K0J4 080310Z AUTO 23004KT 10SM CLR 17/11 A3005 190 67 500 230/04 RMK AO2 $
63870K0J4 0J420160507221509905/07/16 22:15:31  5-MIN K0J4 080315Z AUTO 22004KT 10SM CLR 18/11 A3006 190 64 600 220/04 RMK AO2 $
63870K0J4 0J420160507222009905/07/16 22:20:31  5-MIN K0J4 080320Z AUTO 22004KT 10SM CLR 17/11 A3006 190 67 500 220/04 RMK AO2 $
63870K0J4 0J420160507222509905/07/16 22:25:31  5-MIN K0J4 080325Z AUTO 22003KT 10SM CLR 17/11 A3006 190 67 500 220/03 RMK AO2 $
63870K0J4 0J420160507223009905/07/16 22:30:31  5-MIN K0J4 080330Z AUTO 22004KT 10SM CLR 17/11 A3006 190 67 500 220/04 RMK AO2 $
63870K0J4 0J420160507223509905/07/16 22:35:31  5-MIN K0J4 080335Z AUTO 23003KT 10SM CLR 17/11 A3006 180 67 500 230/03 RMK AO2 $
63870K0J4 0J420160507224009905/07/16 22:40:31  5-MIN K0J4 080340Z AUTO 00000KT 10SM CLR 17/12 A3007 180 72 500 000/00 RMK AO2 $
63870K0J4 0J420160507224509905/07/16 22:45:31  5-MIN K0J4 080345Z AUTO 23003KT 10SM CLR 17/12 A3007 180 72 500 230/03 RMK AO2 $
63870K0J4 0J420160507225009905/07/16 22:50:31  5-MIN K0J4 080350Z AUTO 00000KT 10SM CLR 16/12 A3007 180 75 400 000/00 RMK AO2 $
63870K0J4 0J420160507225511605/07/16 22:55:31  5-MIN K0J4 080355Z AUTO 00000KT 10SM CLR 16/12 A3007 180 75 400 000/00 RMK AO2 SLP178 T01610117 $
63870K0J4 0J420160507230009905/07/16 23:00:31  5-MIN K0J4 080400Z AUTO 00000KT 10SM CLR 16/12 A3007 180 75 400 000/00 RMK AO2 $
63870K0J4 0J420160507230509905/07/16 23:05:31  5-MIN K0J4 080405Z AUTO 00000KT 10SM CLR 16/12 A3007 180 75 400 000/00 RMK AO2 $
63870K0J4 0J420160507231009905/07/16 23:10:31  5-MIN K0J4 080410Z AUTO 00000KT 10SM CLR 16/11 A3007 180 74 300 000/00 RMK AO2 $
63870K0J4 0J420160507231509905/07/16 23:15:31  5-MIN K0J4 080415Z AUTO 00000KT 10SM CLR 16/11 A3007 180 72 400 000/00 RMK AO2 $
63870K0J4 0J420160507232009905/07/16 23:20:31  5-MIN K0J4 080420Z AUTO 00000KT 10SM CLR 16/12 A3007 180 77 300 000/00 RMK AO2 $
63870K0J4 0J420160507232509905/07/16 23:25:31  5-MIN K0J4 080425Z AUTO 00000KT 10SM CLR 16/12 A3007 180 77 300 000/00 RMK AO2 $
63870K0J4 0J420160507233009905/07/16 23:30:31  5-MIN K0J4 080430Z AUTO 00000KT 10SM CLR 16/12 A3007 180 77 300 000/00 RMK AO2 $
63870K0J4 0J420160507233509905/07/16 23:35:31  5-MIN K0J4 080435Z AUTO 00000KT 10SM CLR 16/11 A3007 180 74 300 000/00 RMK AO2 $
63870K0J4 0J420160507234009905/07/16 23:40:31  5-MIN K0J4 080440Z AUTO 00000KT 10SM CLR 15/11 A3007 180 77 300 000/00 RMK AO2 $
63870K0J4 0J420160507234509905/07/16 23:45:31  5-MIN K0J4 080445Z AUTO 00000KT 10SM CLR 16/12 A3007 180 77 300 000/00 RMK AO2 $
63870K0J4 0J420160507235009905/07/16 23:50:31  5-MIN K0J4 080450Z AUTO 00000KT 10SM CLR 16/12 A3007 180 77 300 000/00 RMK AO2 $
63870K0J4 0J420160507235512605/07/16 23:55:31  5-MIN K0J4 080455Z AUTO 00000KT 10SM CLR 16/12 A3007 180 77 300 000/00 RMK AO2 SLP179 T01560117 402720083 $
63870K0J4 0J420160508000009905/08/16 00:00:31  5-MIN K0J4 080500Z AUTO 00000KT 10SM CLR 16/12 A3007 180 77 300 000/00 RMK AO2 $
63870K0J4 0J420160508000509905/08/16 00:05:31  5-MIN K0J4 080505Z AUTO 00000KT 10SM CLR 15/12 A3007 180 80 300 000/00 RMK AO2 $
63870K0J4 0J420160508001009905/08/16 00:10:31  5-MIN K0J4 080510Z AUTO 00000KT 10SM CLR 14/12 A3007 180 83 200 000/00 RMK AO2 $
63870K0J4 0J420160508001509905/08/16 00:15:31  5-MIN K0J4 080515Z AUTO 00000KT 10SM CLR 15/12 A3007 180 80 300 000/00 RMK AO2 $
63870K0J4 0J420160508002009905/08/16 00:20:31  5-MIN K0J4 080520Z AUTO 00000KT 10SM CLR 15/12 A3007 180 80 300 000/00 RMK AO2 $
63870K0J4 0J420160508002509905/08/16 00:25:31  5-MIN K0J4 080525Z AUTO 22003KT 10SM CLR 15/11 A3007 180 77 300 220/03 RMK AO2 $
63870K0J4 0J420160508003009905/08/16 00:30:31  5-MIN K0J4 080530Z AUTO 00000KT 10SM CLR 14/11 A3007 180 80 200 000/00 RMK AO2 $
63870K0J4 0J420160508003509905/08/16 00:35:31  5-MIN K0J4 080535Z AUTO 00000KT 10SM CLR 14/11 A3007 180 80 200 000/00 RMK AO2 $
63870K0J4 0J420160508004009905/08/16 00:40:31  5-MIN K0J4 080540Z AUTO 00000KT 10SM CLR 14/12 A3007 180 83 200 000/00 RMK AO2 $
63870K0J4 0J420160508004509905/08/16 00:45:31  5-MIN K0J4 080545Z AUTO 00000KT 10SM CLR 14/12 A3007 180 83 200 000/00 RMK AO2 $
63870K0J4 0J420160508005009905/08/16 00:50:31  5-MIN K0J4 080550Z AUTO 00000KT 10SM CLR 14/12 A3007 180 86 100 000/00 RMK AO2 $
63870K0J4 0J420160508005513405/08/16 00:55:31  5-MIN K0J4 080555Z AUTO 00000KT 10SM CLR 14/12 A3007 180 83 200 000/00 RMK AO2 SLP178 T01440117 10228 20139 53016 $
63870K0J4 0J420160508010009905/08/16 01:00:31  5-MIN K0J4 080600Z AUTO 00000KT 10SM CLR 14/12 A3007 180 83 200 000/00 RMK AO2 $
63870K0J4 0J420160508010509905/08/16 01:05:31  5-MIN K0J4 080605Z AUTO 00000KT 10SM CLR 14/12 A3007 180 86 100 000/00 RMK AO2 $
63870K0J4 0J420160508011009905/08/16 01:10:31  5-MIN K0J4 080610Z AUTO 00000KT 10SM CLR 14/12 A3007 180 83 200 000/00 RMK AO2 $
63870K0J4 0J420160508011509905/08/16 01:15:31  5-MIN K0J4 080615Z AUTO 00000KT 10SM CLR 14/12 A3006 180 86 100 000/00 RMK AO2 $
63870K0J4 0J420160508012009905/08/16 01:20:31  5-MIN K0J4 080620Z AUTO 00000KT 10SM CLR 13/11 A3006 180 86 100 000/00 RMK AO2 $
63870K0J4 0J420160508012509905/08/16 01:25:31  5-MIN K0J4 080625Z AUTO 00000KT 10SM CLR 14/11 A3006 180 83 100 000/00 RMK AO2 $
63870K0J4 0J420160508013009905/08/16 01:30:31  5-MIN K0J4 080630Z AUTO 00000KT 10SM CLR 14/11 A3006 190 80 200 000/00 RMK AO2 $
63870K0J4 0J420160508013509905/08/16 01:35:31  5-MIN K0J4 080635Z AUTO 00000KT 10SM CLR 13/11 A3006 190 86 100 000/00 RMK AO2 $
63870K0J4 0J420160508014009905/08/16 01:40:31  5-MIN K0J4 080640Z AUTO 00000KT 10SM CLR 13/11 A3006 190 86 100 000/00 RMK AO2 $
63870K0J4 0J420160508014509905/08/16 01:45:31  5-MIN K0J4 080645Z AUTO 00000KT 10SM CLR 14/11 A3006 190 83 100 000/00 RMK AO2 $
63870K0J4 0J420160508015009905/08/16 01:50:31  5-MIN K0J4 080650Z AUTO 00000KT 10SM CLR 14/11 A3006 190 83 100 000/00 RMK AO2 $
63870K0J4 0J420160508015511605/08/16 01:55:31  5-MIN K0J4 080655Z AUTO 00000KT 10SM CLR 14/11 A3006 190 83 100 000/00 RMK AO2 SLP175 T01390111 $
63870K0J4 0J420160508020009905/08/16 02:00:31  5-MIN K0J4 080700Z AUTO 00000KT 10SM CLR 13/11 A3006 190 86 100 000/00 RMK AO2 $
63870K0J4 0J420160508020509905/08/16 02:05:31  5-MIN K0J4 080705Z AUTO 23003KT 10SM CLR 14/11 A3006 190 83 100 230/03 RMK AO2 $
63870K0J4 0J420160508021009905/08/16 02:10:31  5-MIN K0J4 080710Z AUTO 00000KT 10SM CLR 13/11 A3006 190 86 100 000/00 RMK AO2 $
63870K0J4 0J420160508021509905/08/16 02:15:31  5-MIN K0J4 080715Z AUTO 22003KT 10SM CLR 13/11 A3006 190 86 100 220/03 RMK AO2 $
63870K0J4 0J420160508022009905/08/16 02:20:31  5-MIN K0J4 080720Z AUTO 00000KT 10SM CLR 13/11 A3006 190 86 100 000/00 RMK AO2 $
63870K0J4 0J420160508022509905/08/16 02:25:31  5-MIN K0J4 080725Z AUTO 00000KT 10SM CLR 14/11 A3006 190 83 100 000/00 RMK AO2 $
63870K0J4 0J420160508023009905/08/16 02:30:31  5-MIN K0J4 080730Z AUTO 00000KT 10SM CLR 14/11 A3005 190 83 100 000/00 RMK AO2 $
63870K0J4 0J420160508023509905/08/16 02:35:31  5-MIN K0J4 080735Z AUTO 00000KT 10SM CLR 14/11 A3005 190 80 200 000/00 RMK AO2 $
63870K0J4 0J420160508024009905/08/16 02:40:31  5-MIN K0J4 080740Z AUTO 00000KT 10SM CLR 14/11 A3005 200 83 200 000/00 RMK AO2 $
63870K0J4 0J420160508024509905/08/16 02:45:31  5-MIN K0J4 080745Z AUTO 00000KT 10SM CLR 14/11 A3005 200 80 200 000/00 RMK AO2 $
63870K0J4 0J420160508025009905/08/16 02:50:31  5-MIN K0J4 080750Z AUTO 00000KT 10SM CLR 14/11 A3005 200 83 200 000/00 RMK AO2 $
63870K0J4 0J420160508025511605/08/16 02:55:31  5-MIN K0J4 080755Z AUTO 00000KT 10SM CLR 14/11 A3005 200 83 200 000/00 RMK AO2 SLP172 T01390111 $
63870K0J4 0J420160508030009905/08/16 03:00:31  5-MIN K0J4 080800Z AUTO 00000KT 10SM CLR 14/11 A3005 200 83 200 000/00 RMK AO2 $
63870K0J4 0J420160508030509905/08/16 03:05:31  5-MIN K0J4 080805Z AUTO 00000KT 10SM CLR 14/11 A3005 200 83 200 000/00 RMK AO2 $
63870K0J4 0J420160508031009905/08/16 03:10:31  5-MIN K0J4 080810Z AUTO 00000KT 10SM CLR 14/11 A3004 200 83 200 000/00 RMK AO2 $
63870K0J4 0J420160508031509905/08/16 03:15:31  5-MIN K0J4 080815Z AUTO 00000KT 10SM CLR 14/11 A3004 200 83 200 000/00 RMK AO2 $
63870K0J4 0J420160508032009905/08/16 03:20:31  5-MIN K0J4 080820Z AUTO 00000KT 10SM CLR 13/11 A3004 200 86 100 000/00 RMK AO2 $
63870K0J4 0J420160508032509905/08/16 03:25:31  5-MIN K0J4 080825Z AUTO 00000KT 10SM CLR 13/11 A3004 200 86 100 000/00 RMK AO2 $
63870K0J4 0J420160508033009905/08/16 03:30:31  5-MIN K0J4 080830Z AUTO 00000KT 10SM CLR 13/11 A3004 200 86 100 000/00 RMK AO2 $
63870K0J4 0J420160508033509905/08/16 03:35:31  5-MIN K0J4 080835Z AUTO 00000KT 10SM CLR 14/11 A3004 200 83 200 000/00 RMK AO2 $
63870K0J4 0J420160508034009905/08/16 03:40:31  5-MIN K0J4 080840Z AUTO 00000KT 10SM CLR 14/11 A3004 200 83 200 000/00 RMK AO2 $
63870K0J4 0J420160508034509905/08/16 03:45:31  5-MIN K0J4 080845Z AUTO 00000KT 10SM CLR 13/11 A3004 200 86 100 000/00 RMK AO2 $
63870K0J4 0J420160508035009905/08/16 03:50:31  5-MIN K0J4 080850Z AUTO 00000KT 10SM CLR 13/11 A3004 200 86 100 000/00 RMK AO2 $
63870K0J4 0J420160508035512205/08/16 03:55:31  5-MIN K0J4 080855Z AUTO 00000KT 10SM CLR 13/11 A3005 200 86 100 000/00 RMK AO2 SLP171 T01330111 50006 $
63870K0J4 0J420160508040009705/08/16 04:00:31  5-MIN K0J4 080900Z AUTO 00000KT 10SM CLR 13/11 A3005 200 89 0 000/00 RMK AO2 $
63870K0J4 0J420160508040509705/08/16 04:05:31  5-MIN K0J4 080905Z AUTO 00000KT 10SM CLR 13/11 A3005 200 89 0 000/00 RMK AO2 $
63870K0J4 0J420160508041009705/08/16 04:10:31  5-MIN K0J4 080910Z AUTO 00000KT 10SM CLR 13/11 A3005 200 89 0 000/00 RMK AO2 $
63870K0J4 0J420160508041509705/08/16 04:15:31  5-MIN K0J4 080915Z AUTO 00000KT 10SM CLR 13/11 A3005 200 89 0 000/00 RMK AO2 $
63870K0J4 0J420160508042009705/08/16 04:20:31  5-MIN K0J4 080920Z AUTO 00000KT 10SM CLR 13/11 A3005 200 89 0 000/00 RMK AO2 $
63870K0J4 0J420160508042509705/08/16 04:25:31  5-MIN K0J4 080925Z AUTO 00000KT 10SM CLR 13/11 A3005 200 89 0 000/00 RMK AO2 $
63870K0J4 0J420160508043009905/08/16 04:30:31  5-MIN K0J4 080930Z AUTO 00000KT 10SM CLR 13/11 A3005 200 86 100 000/00 RMK AO2 $
63870K0J4 0J420160508043509905/08/16 04:35:31  5-MIN K0J4 080935Z AUTO 00000KT 10SM CLR 13/11 A3005 200 86 100 000/00 RMK AO2 $
63870K0J4 0J420160508044009705/08/16 04:40:31  5-MIN K0J4 080940Z AUTO 00000KT 10SM CLR 13/11 A3005 200 89 0 000/00 RMK AO2 $
63870K0J4 0J420160508044509705/08/16 04:45:31  5-MIN K0J4 080945Z AUTO 00000KT 10SM CLR 13/11 A3005 200 89 0 000/00 RMK AO2 $
63870K0J4 0J420160508045009705/08/16 04:50:31  5-MIN K0J4 080950Z AUTO 00000KT 10SM CLR 13/11 A3005 190 89 0 000/00 RMK AO2 $
63870K0J4 0J420160508045511405/08/16 04:55:31  5-MIN K0J4 080955Z AUTO 00000KT 10SM CLR 13/11 A3005 190 89 0 000/00 RMK AO2 SLP173 T01280111 $
63870K0J4 0J420160508050009705/08/16 05:00:31  5-MIN K0J4 081000Z AUTO 00000KT 10SM CLR 12/11 A3006 190 93 0 000/00 RMK AO2 $
63870K0J4 0J420160508050509705/08/16 05:05:31  5-MIN K0J4 081005Z AUTO 00000KT 10SM CLR 12/11 A3006 190 89 0 000/00 RMK AO2 $
63870K0J4 0J420160508051009705/08/16 05:10:31  5-MIN K0J4 081010Z AUTO 00000KT 10SM CLR 12/11 A3006 190 89 0 000/00 RMK AO2 $
63870K0J4 0J420160508051509705/08/16 05:15:31  5-MIN K0J4 081015Z AUTO 00000KT 10SM CLR 12/11 A3006 190 89 0 000/00 RMK AO2 $
63870K0J4 0J420160508052009705/08/16 05:20:31  5-MIN K0J4 081020Z AUTO 00000KT 10SM CLR 12/11 A3006 190 89 0 000/00 RMK AO2 $
63870K0J4 0J420160508052509705/08/16 05:25:31  5-MIN K0J4 081025Z AUTO 00000KT 10SM CLR 12/11 A3006 180 89 0 000/00 RMK AO2 $
63870K0J4 0J420160508053009705/08/16 05:30:31  5-MIN K0J4 081030Z AUTO 00000KT 10SM CLR 12/11 A3006 180 89 0 000/00 RMK AO2 $
63870K0J4 0J420160508053510005/08/16 05:35:31  5-MIN K0J4 081035Z AUTO 22003KT 10SM CLR 12/11 A3007 180 93 -100 220/03 RMK AO2 $
63870K0J4 0J420160508054010005/08/16 05:40:31  5-MIN K0J4 081040Z AUTO 00000KT 10SM CLR 12/11 A3007 180 93 -100 000/00 RMK AO2 $
63870K0J4 0J420160508054510005/08/16 05:45:31  5-MIN K0J4 081045Z AUTO 00000KT 10SM CLR 12/11 A3007 180 93 -100 000/00 RMK AO2 $
63870K0J4 0J420160508055010005/08/16 05:50:31  5-MIN K0J4 081050Z AUTO 00000KT 10SM CLR 12/11 A3007 180 93 -100 000/00 RMK AO2 $
63870K0J4 0J420160508055511705/08/16 05:55:31  5-MIN K0J4 081055Z AUTO 00000KT 10SM CLR 12/11 A3007 170 93 -100 000/00 RMK AO2 SLP180 T01170106 $
63870K0J4 0J420160508060009705/08/16 06:00:31  5-MIN K0J4 081100Z AUTO 00000KT 10SM CLR 12/11 A3008 170 89 0 000/00 RMK AO2 $
63870K0J4 0J420160508060509705/08/16 06:05:31  5-MIN K0J4 081105Z AUTO 00000KT 10SM CLR 12/11 A3008 170 89 0 000/00 RMK AO2 $
63870K0J4 0J420160508061009705/08/16 06:10:31  5-MIN K0J4 081110Z AUTO 00000KT 10SM CLR 13/11 A3008 170 89 0 000/00 RMK AO2 $
63870K0J4 0J420160508061509705/08/16 06:15:31  5-MIN K0J4 081115Z AUTO 00000KT 10SM CLR 13/11 A3009 160 89 0 000/00 RMK AO2 $
63870K0J4 0J420160508062009705/08/16 06:20:31  5-MIN K0J4 081120Z AUTO 00000KT 10SM CLR 13/11 A3009 160 89 0 000/00 RMK AO2 $
63870K0J4 0J420160508062509705/08/16 06:25:31  5-MIN K0J4 081125Z AUTO 00000KT 10SM CLR 13/11 A3009 160 86 0 000/00 RMK AO2 $
63870K0J4 0J420160508063009705/08/16 06:30:31  5-MIN K0J4 081130Z AUTO 00000KT 10SM CLR 13/12 A3009 160 89 0 000/00 RMK AO2 $
63870K0J4 0J420160508063509905/08/16 06:35:31  5-MIN K0J4 081135Z AUTO 00000KT 10SM CLR 14/12 A3009 160 83 200 000/00 RMK AO2 $
63870K0J4 0J420160508064009905/08/16 06:40:31  5-MIN K0J4 081140Z AUTO VRB03KT 10SM CLR 14/12 A3009 160 83 200 VRB/03 RMK AO2 $
63870K0J4 0J420160508064509905/08/16 06:45:31  5-MIN K0J4 081145Z AUTO 00000KT 10SM CLR 14/12 A3009 160 83 200 000/00 RMK AO2 $
63870K0J4 0J420160508065009905/08/16 06:50:31  5-MIN K0J4 081150Z AUTO 00000KT 10SM CLR 15/12 A3009 160 83 200 000/00 RMK AO2 $
63870K0J4 0J420160508065513405/08/16 06:55:31  5-MIN K0J4 081155Z AUTO 00000KT 10SM CLR 15/12 A3009 160 83 200 000/00 RMK AO2 SLP187 T01500122 10150 20117 56006 $
63870K0J4 0J420160508070009905/08/16 07:00:31  5-MIN K0J4 081200Z AUTO 00000KT 10SM CLR 16/12 A3009 160 80 300 000/00 RMK AO2 $
63870K0J4 0J420160508070509905/08/16 07:05:31  5-MIN K0J4 081205Z AUTO 00000KT 10SM CLR 16/12 A3009 160 80 300 000/00 RMK AO2 $
63870K0J4 0J420160508071009905/08/16 07:10:31  5-MIN K0J4 081210Z AUTO 00000KT 10SM CLR 16/12 A3009 160 77 400 000/00 RMK AO2 $
63870K0J4 0J420160508071509905/08/16 07:15:31  5-MIN K0J4 081215Z AUTO 00000KT 10SM CLR 16/12 A3009 160 77 400 000/00 RMK AO2 $
63870K0J4 0J420160508072009905/08/16 07:20:31  5-MIN K0J4 081220Z AUTO 00000KT 10SM CLR 16/12 A3009 160 77 400 000/00 RMK AO2 $
63870K0J4 0J420160508072509905/08/16 07:25:31  5-MIN K0J4 081225Z AUTO 00000KT 10SM CLR 17/12 A3009 160 75 400 000/00 RMK AO2 $
63870K0J4 0J420160508073009905/08/16 07:30:31  5-MIN K0J4 081230Z AUTO 00000KT 10SM CLR 17/12 A3009 160 75 400 000/00 RMK AO2 $
63870K0J4 0J420160508073509905/08/16 07:35:31  5-MIN K0J4 081235Z AUTO 00000KT 10SM CLR 17/12 A3009 160 72 500 000/00 RMK AO2 $
63870K0J4 0J420160508074009905/08/16 07:40:31  5-MIN K0J4 081240Z AUTO 00000KT 10SM CLR 17/13 A3009 160 75 500 000/00 RMK AO2 $
63870K0J4 0J420160508074509905/08/16 07:45:31  5-MIN K0J4 081245Z AUTO 00000KT 10SM CLR 18/13 A3009 160 72 600 000/00 RMK AO2 $
63870K0J4 0J420160508075009905/08/16 07:50:31  5-MIN K0J4 081250Z AUTO 00000KT 10SM CLR 18/13 A3009 160 72 600 000/00 RMK AO2 $
63870K0J4 0J420160508075511605/08/16 07:55:31  5-MIN K0J4 081255Z AUTO 30003KT 10SM CLR 18/13 A3009 160 70 600 300/03 RMK AO2 SLP186 T01830128 $
63870K0J4 0J420160508080009905/08/16 08:00:31  5-MIN K0J4 081300Z AUTO 00000KT 10SM CLR 19/13 A3009 160 70 700 000/00 RMK AO2 $
63870K0J4 0J420160508080509905/08/16 08:05:31  5-MIN K0J4 081305Z AUTO 00000KT 10SM CLR 19/13 A3009 160 67 800 000/00 RMK AO2 $
63870K0J4 0J420160508081009905/08/16 08:10:31  5-MIN K0J4 081310Z AUTO VRB03KT 10SM CLR 19/13 A3009 160 65 800 VRB/03 RMK AO2 $
63870K0J4 0J420160508081509905/08/16 08:15:31  5-MIN K0J4 081315Z AUTO 00000KT 10SM CLR 20/13 A3009 160 63 800 000/00 RMK AO2 $
63870K0J4 0J420160508082009905/08/16 08:20:31  5-MIN K0J4 081320Z AUTO 00000KT 10SM CLR 20/13 A3009 160 63 800 000/00 RMK AO2 $
63870K0J4 0J420160508082509905/08/16 08:25:31  5-MIN K0J4 081325Z AUTO VRB03KT 10SM CLR 21/13 A3009 160 60 900 VRB/03 RMK AO2 $
63870K0J4 0J420160508083009905/08/16 08:30:31  5-MIN K0J4 081330Z AUTO VRB03KT 10SM CLR 21/13 A3009 160 60 900 VRB/03 RMK AO2 $
63870K0J4 0J420160508083510005/08/16 08:35:31  5-MIN K0J4 081335Z AUTO 32004KT 10SM CLR 21/13 A3009 160 58 1000 320/04 RMK AO2 $
63870K0J4 0J420160508084010005/08/16 08:40:31  5-MIN K0J4 081340Z AUTO 34004KT 10SM CLR 21/12 A3009 160 56 1000 340/04 RMK AO2 $
63870K0J4 0J420160508084510005/08/16 08:45:31  5-MIN K0J4 081345Z AUTO VRB04KT 10SM CLR 21/12 A3009 160 56 1000 VRB/04 RMK AO2 $
63870K0J4 0J420160508085010005/08/16 08:50:31  5-MIN K0J4 081350Z AUTO 32005KT 10SM CLR 21/12 A3009 160 56 1000 320/05 RMK AO2 $
63870K0J4 0J420160508085511705/08/16 08:55:31  5-MIN K0J4 081355Z AUTO 00000KT 10SM CLR 21/12 A3009 160 56 1000 000/00 RMK AO2 SLP185 T02110122 $
63870K0J4 0J420160508090010005/08/16 09:00:31  5-MIN K0J4 081400Z AUTO 32004KT 10SM CLR 22/12 A3009 160 54 1000 320/04 RMK AO2 $
63870K0J4 0J420160508090510005/08/16 09:05:31  5-MIN K0J4 081405Z AUTO 31004KT 10SM CLR 22/12 A3009 160 54 1000 310/04 RMK AO2 $
63870K0J4 0J420160508091010005/08/16 09:10:31  5-MIN K0J4 081410Z AUTO 32004KT 10SM CLR 22/12 A3009 160 54 1000 320/04 RMK AO2 $
63870K0J4 0J420160508091510005/08/16 09:15:31  5-MIN K0J4 081415Z AUTO VRB03KT 10SM CLR 22/12 A3009 160 52 1100 VRB/03 RMK AO2 $
63870K0J4 0J420160508092010005/08/16 09:20:31  5-MIN K0J4 081420Z AUTO 32003KT 10SM CLR 22/12 A3009 160 52 1100 320/03 RMK AO2 $
63870K0J4 0J420160508092510005/08/16 09:25:31  5-MIN K0J4 081425Z AUTO VRB03KT 10SM CLR 22/13 A3009 160 54 1100 VRB/03 RMK AO2 $
63870K0J4 0J420160508093010005/08/16 09:30:31  5-MIN K0J4 081430Z AUTO VRB03KT 10SM CLR 23/13 A3009 160 53 1100 VRB/03 RMK AO2 $
63870K0J4 0J420160508093510005/08/16 09:35:31  5-MIN K0J4 081435Z AUTO 33004KT 10SM CLR 22/12 A3009 160 52 1100 330/04 RMK AO2 $
63870K0J4 0J420160508094010005/08/16 09:40:31  5-MIN K0J4 081440Z AUTO 00000KT 10SM CLR 23/13 A3009 160 53 1100 000/00 RMK AO2 $
63870K0J4 0J420160508094510005/08/16 09:45:31  5-MIN K0J4 081445Z AUTO 34003KT 10SM CLR 23/13 A3009 160 53 1200 340/03 RMK AO2 $
63870K0J4 0J420160508095010005/08/16 09:50:31  5-MIN K0J4 081450Z AUTO 00000KT 10SM CLR 23/13 A3009 160 51 1200 000/00 RMK AO2 $
63870K0J4 0J420160508095512305/08/16 09:55:31  5-MIN K0J4 081455Z AUTO 00000KT 10SM CLR 24/13 A3009 160 51 1300 000/00 RMK AO2 SLP185 T02390133 53014 $
63870K0J4 0J420160508100010005/08/16 10:00:31  5-MIN K0J4 081500Z AUTO 00000KT 10SM CLR 24/13 A3009 160 49 1300 000/00 RMK AO2 $
63870K0J4 0J420160508100510005/08/16 10:05:31  5-MIN K0J4 081505Z AUTO 00000KT 10SM CLR 25/14 A3009 160 51 1400 000/00 RMK AO2 $
63870K0J4 0J420160508101010005/08/16 10:10:31  5-MIN K0J4 081510Z AUTO 00000KT 10SM CLR 24/13 A3009 160 49 1300 000/00 RMK AO2 $
63870K0J4 0J420160508101510005/08/16 10:15:31  5-MIN K0J4 081515Z AUTO 00000KT 10SM CLR 24/13 A3009 160 49 1300 000/00 RMK AO2 $
63870K0J4 0J420160508102010005/08/16 10:20:31  5-MIN K0J4 081520Z AUTO 00000KT 10SM CLR 25/14 A3009 160 49 1400 000/00 RMK AO2 $
63870K0J4 0J420160508102510005/08/16 10:25:31  5-MIN K0J4 081525Z AUTO 00000KT 10SM CLR 25/13 A3009 160 48 1400 000/00 RMK AO2 $
63870K0J4 0J420160508103010005/08/16 10:30:31  5-MIN K0J4 081530Z AUTO 00000KT 10SM CLR 26/13 A3009 160 46 1500 000/00 RMK AO2 $
63870K0J4 0J420160508103510005/08/16 10:35:31  5-MIN K0J4 081535Z AUTO VRB05KT 10SM CLR 26/13 A3009 160 44 1500 VRB/05 RMK AO2 $
63870K0J4 0J420160508104010005/08/16 10:40:31  5-MIN K0J4 081540Z AUTO 00000KT 10SM CLR 25/12 A3008 160 43 1400 000/00 RMK AO2 $
63870K0J4 0J420160508104510005/08/16 10:45:31  5-MIN K0J4 081545Z AUTO 00000KT 10SM CLR 25/11 A3009 160 41 1400 000/00 RMK AO2 $
63870K0J4 0J420160508105010005/08/16 10:50:31  5-MIN K0J4 081550Z AUTO 00000KT 10SM CLR 26/11 A3009 160 38 1500 000/00 RMK AO2 $
63870K0J4 0J420160508105511705/08/16 10:55:31  5-MIN K0J4 081555Z AUTO 00000KT 10SM CLR 26/11 A3009 160 37 1500 000/00 RMK AO2 SLP184 T02610106 $
63870K0J4 0J420160508110010005/08/16 11:00:31  5-MIN K0J4 081600Z AUTO 00000KT 10SM CLR 27/11 A3009 160 36 1600 000/00 RMK AO2 $
63870K0J4 0J420160508110510005/08/16 11:05:31  5-MIN K0J4 081605Z AUTO 00000KT 10SM CLR 26/10 A3008 160 36 1500 000/00 RMK AO2 $
63870K0J4 0J420160508111010005/08/16 11:10:31  5-MIN K0J4 081610Z AUTO 00000KT 10SM CLR 26/11 A3008 170 38 1500 000/00 RMK AO2 $
63870K0J4 0J420160508111510005/08/16 11:15:31  5-MIN K0J4 081615Z AUTO 00000KT 10SM CLR 27/12 A3008 170 37 1700 000/00 RMK AO2 $
63870K0J4 0J420160508112010005/08/16 11:20:31  5-MIN K0J4 081620Z AUTO 00000KT 10SM CLR 27/12 A3008 170 38 1600 000/00 RMK AO2 $
63870K0J4 0J420160508112510005/08/16 11:25:31  5-MIN K0J4 081625Z AUTO 00000KT 10SM CLR 27/11 A3008 170 37 1600 000/00 RMK AO2 $
63870K0J4 0J420160508113010005/08/16 11:30:31  5-MIN K0J4 081630Z AUTO 00000KT 10SM CLR 27/12 A3008 170 37 1700 000/00 RMK AO2 $
63870K0J4 0J420160508113510005/08/16 11:35:31  5-MIN K0J4 081635Z AUTO 00000KT 10SM CLR 28/12 A3008 170 36 1700 000/00 RMK AO2 $
63870K0J4 0J420160508114010005/08/16 11:40:31  5-MIN K0J4 081640Z AUTO VRB03KT 10SM CLR 27/11 A3008 170 36 1700 VRB/03 RMK AO2 $
63870K0J4 0J420160508114510005/08/16 11:45:31  5-MIN K0J4 081645Z AUTO 21006KT 10SM CLR 28/11 A3007 170 35 1700 210/06 RMK AO2 $
63870K0J4 0J420160508115010005/08/16 11:50:31  5-MIN K0J4 081650Z AUTO VRB03KT 10SM CLR 27/11 A3007 170 34 1700 VRB/03 RMK AO2 $
63870K0J4 0J420160508115511705/08/16 11:55:31  5-MIN K0J4 081655Z AUTO VRB05KT 10SM CLR 27/10 A3007 180 33 1700 VRB/05 RMK AO2 SLP180 T02720100 $
63870K0J4 0J420160508120010005/08/16 12:00:31  5-MIN K0J4 081700Z AUTO 00000KT 10SM CLR 28/11 A3007 180 33 1700 000/00 RMK AO2 $
63870K0J4 0J420160508120510005/08/16 12:05:31  5-MIN K0J4 081705Z AUTO VRB03KT 10SM CLR 28/09 A3007 180 31 1700 VRB/03 RMK AO2 $
63870K0J4 0J420160508121010005/08/16 12:10:31  5-MIN K0J4 081710Z AUTO 00000KT 10SM CLR 28/10 A3007 180 32 1700 000/00 RMK AO2 $
63870K0J4 0J420160508121510005/08/16 12:15:31  5-MIN K0J4 081715Z AUTO 21006KT 10SM CLR 28/10 A3006 180 32 1700 210/06 RMK AO2 $
63870K0J4 0J420160508122010005/08/16 12:20:31  5-MIN K0J4 081720Z AUTO VRB05KT 10SM CLR 28/11 A3006 180 33 1700 VRB/05 RMK AO2 $
63870K0J4 0J420160508122510005/08/16 12:25:31  5-MIN K0J4 081725Z AUTO 00000KT 10SM CLR 28/11 A3006 180 33 1800 000/00 RMK AO2 $
63870K0J4 0J420160508123010005/08/16 12:30:31  5-MIN K0J4 081730Z AUTO 17004KT 10SM CLR 28/11 A3006 190 33 1700 170/04 RMK AO2 $
63870K0J4 0J420160508123510005/08/16 12:35:31  5-MIN K0J4 081735Z AUTO 18005KT 10SM CLR 28/10 A3006 190 32 1700 180/05 RMK AO2 $
63870K0J4 0J420160508124010005/08/16 12:40:31  5-MIN K0J4 081740Z AUTO VRB04KT 10SM CLR 29/11 A3006 190 31 1900 VRB/04 RMK AO2 $
63870K0J4 0J420160508124510005/08/16 12:45:31  5-MIN K0J4 081745Z AUTO VRB03KT 10SM CLR 28/10 A3005 190 31 1800 VRB/03 RMK AO2 $
63870K0J4 0J420160508125010005/08/16 12:50:31  5-MIN K0J4 081750Z AUTO 00000KT 10SM CLR 28/10 A3005 190 31 1800 000/00 RMK AO2 $
63870K0J4 0J420160508125513505/08/16 12:55:31  5-MIN K0J4 081755Z AUTO VRB04KT 10SM CLR 28/11 A3005 200 32 1800 VRB/04 RMK AO2 SLP172 T02830106 10289 20150 56000 $
63870K0J4 0J420160508130010005/08/16 13:00:31  5-MIN K0J4 081800Z AUTO VRB04KT 10SM CLR 28/11 A3005 200 33 1800 VRB/04 RMK AO2 $
63870K0J4 0J420160508130510005/08/16 13:05:31  5-MIN K0J4 081805Z AUTO VRB03KT 10SM CLR 28/11 A3005 200 32 1800 VRB/03 RMK AO2 $
63870K0J4 0J420160508131010005/08/16 13:10:31  5-MIN K0J4 081810Z AUTO VRB06KT 10SM CLR 28/11 A3004 200 32 1800 VRB/06 RMK AO2 $
63870K0J4 0J420160508131510005/08/16 13:15:31  5-MIN K0J4 081815Z AUTO VRB04KT 10SM CLR 29/11 A3004 200 30 1900 VRB/04 RMK AO2 $
63870K0J4 0J420160508132010005/08/16 13:20:31  5-MIN K0J4 081820Z AUTO 19007KT 10SM CLR 29/10 A3004 200 30 1900 190/07 RMK AO2 $
63870K0J4 0J420160508132510005/08/16 13:25:31  5-MIN K0J4 081825Z AUTO 19008KT 10SM CLR 29/11 A3004 200 31 1900 190/08 RMK AO2 $
63870K0J4 0J420160508133010005/08/16 13:30:31  5-MIN K0J4 081830Z AUTO VRB04KT 10SM CLR 28/10 A3004 200 31 1800 VRB/04 RMK AO2 $
63870K0J4 0J420160508133511605/08/16 13:35:31  5-MIN K0J4 081835Z AUTO 20008KT 170V230 10SM CLR 29/11 A3004 200 31 1900 200/08 170V230 RMK AO2 $
63870K0J4 0J420160508134010005/08/16 13:40:31  5-MIN K0J4 081840Z AUTO 22007KT 10SM CLR 29/11 A3004 200 31 1900 220/07 RMK AO2 $
63870K0J4 0J420160508134510005/08/16 13:45:31  5-MIN K0J4 081845Z AUTO VRB03KT 10SM CLR 29/10 A3004 210 30 1900 VRB/03 RMK AO2 $
63870K0J4 0J420160508135010005/08/16 13:50:31  5-MIN K0J4 081850Z AUTO 18009KT 10SM CLR 29/10 A3004 210 29 2000 180/09 RMK AO2 $
63870K0J4 0J420160508135511705/08/16 13:55:31  5-MIN K0J4 081855Z AUTO 15005KT 10SM CLR 29/10 A3004 210 30 1900 150/05 RMK AO2 SLP168 T02890100 $
63870K0J4 0J420160508140011605/08/16 14:00:31  5-MIN K0J4 081900Z AUTO 19009KT 170V240 10SM CLR 29/11 A3004 210 30 2000 190/09 170V240 RMK AO2 $
63870K0J4 0J420160508140510005/08/16 14:05:31  5-MIN K0J4 081905Z AUTO 18009KT 10SM CLR 29/10 A3003 210 29 2000 180/09 RMK AO2 $
63870K0J4 0J420160508141010005/08/16 14:10:31  5-MIN K0J4 081910Z AUTO 19006KT 10SM CLR 29/10 A3003 210 29 2000 190/06 RMK AO2 $
63870K0J4 0J420160508141510005/08/16 14:15:31  5-MIN K0J4 081915Z AUTO 20008KT 10SM CLR 29/10 A3003 220 29 2000 200/08 RMK AO2 $
63870K0J4 0J420160508142010005/08/16 14:20:31  5-MIN K0J4 081920Z AUTO 18007KT 10SM CLR 29/10 A3002 220 29 2000 180/07 RMK AO2 $
63870K0J4 0J420160508142510005/08/16 14:25:31  5-MIN K0J4 081925Z AUTO 17009KT 10SM CLR 30/11 A3003 220 29 2000 170/09 RMK AO2 $
63870K0J4 0J420160508143010005/08/16 14:30:31  5-MIN K0J4 081930Z AUTO 16007KT 10SM CLR 29/10 A3003 220 29 2000 160/07 RMK AO2 $
63870K0J4 0J420160508143511605/08/16 14:35:31  5-MIN K0J4 081935Z AUTO 15007KT 120V190 10SM CLR 29/11 A3002 220 30 2000 150/07 120V190 RMK AO2 $
63870K0J4 0J420160508144010005/08/16 14:40:31  5-MIN K0J4 081940Z AUTO 19006KT 10SM CLR 29/10 A3002 220 29 2000 190/06 RMK AO2 $
63870K0J4 0J420160508144510005/08/16 14:45:31  5-MIN K0J4 081945Z AUTO VRB04KT 10SM CLR 29/10 A3002 220 29 2000 VRB/04 RMK AO2 $
63870K0J4 0J420160508145011605/08/16 14:50:31  5-MIN K0J4 081950Z AUTO 17007KT 120V210 10SM CLR 29/10 A3002 230 29 2000 170/07 120V210 RMK AO2 $
63870K0J4 0J420160508145511705/08/16 14:55:31  5-MIN K0J4 081955Z AUTO 18007KT 10SM CLR 30/11 A3002 230 29 2000 180/07 RMK AO2 SLP161 T03000106 $
63870K0J4 0J420160508150010005/08/16 15:00:31  5-MIN K0J4 082000Z AUTO 00000KT 10SM CLR 30/11 A3002 230 30 2000 000/00 RMK AO2 $
63870K0J4 0J420160508150510005/08/16 15:05:31  5-MIN K0J4 082005Z AUTO 22004KT 10SM CLR 30/11 A3002 230 29 2000 220/04 RMK AO2 $
63870K0J4 0J420160508151010005/08/16 15:10:31  5-MIN K0J4 082010Z AUTO VRB04KT 10SM CLR 29/10 A3002 230 29 2000 VRB/04 RMK AO2 $
63870K0J4 0J420160508151510005/08/16 15:15:31  5-MIN K0J4 082015Z AUTO 00000KT 10SM CLR 30/10 A3001 230 28 2000 000/00 RMK AO2 $
63870K0J4 0J420160508152010005/08/16 15:20:31  5-MIN K0J4 082020Z AUTO VRB04KT 10SM CLR 30/11 A3001 230 29 2000 VRB/04 RMK AO2 $
63870K0J4 0J420160508152510005/08/16 15:25:31  5-MIN K0J4 082025Z AUTO 20005KT 10SM CLR 30/11 A3001 240 30 2100 200/05 RMK AO2 $
63870K0J4 0J420160508153010305/08/16 15:30:31  5-MIN K0J4 082030Z AUTO VRB04KT 10SM FEW075 31/11 A3000 240 29 2100 VRB/04 RMK AO2 $
63870K0J4 0J420160508153510305/08/16 15:35:31  5-MIN K0J4 082035Z AUTO 19010KT 10SM FEW075 31/12 A3000 240 32 2100 190/10 RMK AO2 $
63870K0J4 0J420160508154010905/08/16 15:40:31  5-MIN K0J4 082040Z AUTO 22011G15KT 10SM FEW075 30/12 A3000 240 33 2100 220/11G15 RMK AO2 $
63870K0J4 0J420160508154510305/08/16 15:45:31  5-MIN K0J4 082045Z AUTO 22009KT 10SM FEW075 30/12 A3000 240 33 2100 220/09 RMK AO2 $
63870K0J4 0J420160508155010905/08/16 15:50:31  5-MIN K0J4 082050Z AUTO 21011G18KT 10SM FEW075 30/12 A3000 240 33 2100 210/11G18 RMK AO2 $
63870K0J4 0J420160508155514805/08/16 15:55:31  5-MIN K0J4 082055Z AUTO 22010G18KT 200V270 10SM FEW075 30/12 A3000 240 31 2100 220/10G18 200V270 RMK AO2 SLP155 T03000117 58014 $
63870K0J4 0J420160508160010605/08/16 16:00:31  5-MIN K0J4 082100Z AUTO 21013G16KT 10SM CLR 29/11 A3000 240 31 2000 210/13G16 RMK AO2 $
63870K0J4 0J420160508160510005/08/16 16:05:31  5-MIN K0J4 082105Z AUTO 19011KT 10SM CLR 29/11 A3000 240 31 2000 190/11 RMK AO2 $
63870K0J4 0J420160508161010005/08/16 16:10:31  5-MIN K0J4 082110Z AUTO 20015KT 10SM CLR 29/11 A3000 250 30 2000 200/15 RMK AO2 $
63870K0J4 0J420160508161510005/08/16 16:15:31  5-MIN K0J4 082115Z AUTO 19014KT 10SM CLR 29/11 A3000 250 31 1900 190/14 RMK AO2 $
63870K0J4 0J420160508162010005/08/16 16:20:31  5-MIN K0J4 082120Z AUTO 20012KT 10SM CLR 29/10 A3000 250 30 1900 200/12 RMK AO2 $
63870K0J4 0J420160508162510605/08/16 16:25:31  5-MIN K0J4 082125Z AUTO 21012G18KT 10SM CLR 29/11 A3000 250 30 2000 210/12G18 RMK AO2 $
63870K0J4 0J420160508163010605/08/16 16:30:31  5-MIN K0J4 082130Z AUTO 22013G18KT 10SM CLR 29/10 A3000 240 30 1900 220/13G18 RMK AO2 $
63870K0J4 0J420160508163510005/08/16 16:35:31  5-MIN K0J4 082135Z AUTO 20013KT 10SM CLR 29/10 A3000 240 30 1900 200/13 RMK AO2 $
63870K0J4 0J420160508164010005/08/16 16:40:31  5-MIN K0J4 082140Z AUTO 21012KT 10SM CLR 29/09 A3000 240 29 1900 210/12 RMK AO2 $
63870K0J4 0J420160508164510005/08/16 16:45:31  5-MIN K0J4 082145Z AUTO 21012KT 10SM CLR 28/09 A3000 240 30 1900 210/12 RMK AO2 $
63870K0J4 0J420160508165010005/08/16 16:50:31  5-MIN K0J4 082150Z AUTO 19013KT 10SM CLR 28/09 A3000 240 30 1900 190/13 RMK AO2 $
63870K0J4 0J420160508165511705/08/16 16:55:31  5-MIN K0J4 082155Z AUTO 20013KT 10SM CLR 28/09 A3000 240 30 1900 200/13 RMK AO2 SLP156 T02830094 $
63870K0J4 0J420160508170010605/08/16 17:00:31  5-MIN K0J4 082200Z AUTO 20014G18KT 10SM CLR 28/09 A3000 240 30 1900 200/14G18 RMK AO2 $
63870K0J4 0J420160508170510605/08/16 17:05:31  5-MIN K0J4 082205Z AUTO 22010G18KT 10SM CLR 28/09 A3000 240 31 1800 220/10G18 RMK AO2 $
63870K0J4 0J420160508171010005/08/16 17:10:31  5-MIN K0J4 082210Z AUTO 22010KT 10SM CLR 28/09 A3000 240 31 1800 220/10 RMK AO2 $
63870K0J4 0J420160508171510005/08/16 17:15:31  5-MIN K0J4 082215Z AUTO 21010KT 10SM CLR 28/09 A3000 240 31 1800 210/10 RMK AO2 $
63870K0J4 0J420160508172010605/08/16 17:20:31  5-MIN K0J4 082220Z AUTO 22010G17KT 10SM CLR 28/09 A3000 240 30 1800 220/10G17 RMK AO2 $
63870K0J4 0J420160508172510005/08/16 17:25:31  5-MIN K0J4 082225Z AUTO 22010KT 10SM CLR 27/09 A3000 240 31 1700 220/10 RMK AO2 $
63870K0J4 0J420160508173010005/08/16 17:30:31  5-MIN K0J4 082230Z AUTO 22011KT 10SM CLR 27/09 A3000 240 31 1700 220/11 RMK AO2 $
63870K0J4 0J420160508173510005/08/16 17:35:31  5-MIN K0J4 082235Z AUTO 21009KT 10SM CLR 27/09 A3000 240 31 1700 210/09 RMK AO2 $
63870K0J4 0J420160508174010005/08/16 17:40:31  5-MIN K0J4 082240Z AUTO 20010KT 10SM CLR 27/09 A3000 240 32 1700 200/10 RMK AO2 $
63870K0J4 0J420160508174510005/08/16 17:45:31  5-MIN K0J4 082245Z AUTO 21009KT 10SM CLR 27/09 A3001 240 32 1700 210/09 RMK AO2 $
63870K0J4 0J420160508175010605/08/16 17:50:31  5-MIN K0J4 082250Z AUTO 21012G16KT 10SM CLR 27/09 A3001 240 33 1700 210/12G16 RMK AO2 $
63870K0J4 0J420160508175512305/08/16 17:55:31  5-MIN K0J4 082255Z AUTO 21013G18KT 10SM CLR 27/09 A3000 240 33 1700 210/13G18 RMK AO2 SLP156 T02670094 $
63870K0J4 0J420160508180010605/08/16 18:00:31  5-MIN K0J4 082300Z AUTO 21011G18KT 10SM CLR 26/09 A3001 240 34 1600 210/11G18 RMK AO2 $
63870K0J4 0J420160508180510005/08/16 18:05:31  5-MIN K0J4 082305Z AUTO 22013KT 10SM CLR 26/09 A3001 240 34 1600 220/13 RMK AO2 $
63870K0J4 0J420160508181010005/08/16 18:10:31  5-MIN K0J4 082310Z AUTO 22008KT 10SM CLR 26/10 A3001 240 36 1600 220/08 RMK AO2 $
63870K0J4 0J420160508181510005/08/16 18:15:31  5-MIN K0J4 082315Z AUTO 21012KT 10SM CLR 26/10 A3001 240 37 1600 210/12 RMK AO2 $
63870K0J4 0J420160508182010005/08/16 18:20:31  5-MIN K0J4 082320Z AUTO 21010KT 10SM CLR 26/11 A3001 230 38 1500 210/10 RMK AO2 $
63870K0J4 0J420160508182510005/08/16 18:25:31  5-MIN K0J4 082325Z AUTO 21011KT 10SM CLR 25/11 A3001 230 39 1500 210/11 RMK AO2 $
63870K0J4 0J420160508183010005/08/16 18:30:31  5-MIN K0J4 082330Z AUTO 22011KT 10SM CLR 25/11 A3001 230 39 1500 220/11 RMK AO2 $
63870K0J4 0J420160508183510005/08/16 18:35:31  5-MIN K0J4 082335Z AUTO 22008KT 10SM CLR 25/11 A3002 230 41 1500 220/08 RMK AO2 $
63870K0J4 0J420160508184010005/08/16 18:40:31  5-MIN K0J4 082340Z AUTO 21011KT 10SM CLR 24/11 A3002 220 42 1400 210/11 RMK AO2 $
63870K0J4 0J420160508184510005/08/16 18:45:31  5-MIN K0J4 082345Z AUTO 22010KT 10SM CLR 24/11 A3003 220 41 1400 220/10 RMK AO2 $
63870K0J4 0J420160508185010005/08/16 18:50:31  5-MIN K0J4 082350Z AUTO 22008KT 10SM CLR 24/11 A3003 210 41 1400 220/08 RMK AO2 $
63870K0J4 0J420160508185513505/08/16 18:55:31  5-MIN K0J4 082355Z AUTO 22007KT 10SM CLR 24/11 A3003 210 42 1400 220/07 RMK AO2 SLP167 T02440111 10306 20244 58016 $
63870K0J4 0J420160508190010005/08/16 19:00:31  5-MIN K0J4 090000Z AUTO 21008KT 10SM CLR 24/11 A3003 210 44 1300 210/08 RMK AO2 $
63870K0J4 0J420160508190510005/08/16 19:05:31  5-MIN K0J4 090005Z AUTO 22006KT 10SM CLR 24/11 A3003 210 44 1300 220/06 RMK AO2 $
63870K0J4 0J420160508191010005/08/16 19:10:31  5-MIN K0J4 090010Z AUTO 22007KT 10SM CLR 23/11 A3004 210 45 1300 220/07 RMK AO2 $
63870K0J4 0J420160508191510005/08/16 19:15:31  5-MIN K0J4 090015Z AUTO 22006KT 10SM CLR 23/11 A3004 200 45 1300 220/06 RMK AO2 $
63870K0J4 0J420160508192010005/08/16 19:20:31  5-MIN K0J4 090020Z AUTO 22006KT 10SM CLR 23/12 A3004 200 47 1300 220/06 RMK AO2 $
63870K0J4 0J420160508192510005/08/16 19:25:31  5-MIN K0J4 090025Z AUTO 23006KT 10SM CLR 23/12 A3004 200 47 1300 230/06 RMK AO2 $
63870K0J4 0J420160508193010005/08/16 19:30:31  5-MIN K0J4 090030Z AUTO 22006KT 10SM CLR 23/12 A3004 200 49 1200 220/06 RMK AO2 $
63870K0J4 0J420160508193510005/08/16 19:35:31  5-MIN K0J4 090035Z AUTO 22005KT 10SM CLR 22/12 A3004 200 51 1100 220/05 RMK AO2 $
63870K0J4 0J420160508194010005/08/16 19:40:31  5-MIN K0J4 090040Z AUTO 23005KT 10SM CLR 22/12 A3004 200 51 1100 230/05 RMK AO2 $
63870K0J4 0J420160508194510005/08/16 19:45:31  5-MIN K0J4 090045Z AUTO 23004KT 10SM CLR 22/12 A3005 200 52 1100 230/04 RMK AO2 $
63870K0J4 0J420160508195010005/08/16 19:50:31  5-MIN K0J4 090050Z AUTO 23005KT 10SM CLR 22/12 A3005 200 51 1100 230/05 RMK AO2 $
63870K0J4 0J420160508195511705/08/16 19:55:31  5-MIN K0J4 090055Z AUTO VRB05KT 10SM CLR 22/11 A3005 190 49 1100 VRB/05 RMK AO2 SLP173 T02220111 $
63870K0J4 0J420160508200010005/08/16 20:00:31  5-MIN K0J4 090100Z AUTO 23004KT 10SM CLR 22/11 A3005 190 50 1100 230/04 RMK AO2 $
63870K0J4 0J420160508200510005/08/16 20:05:31  5-MIN K0J4 090105Z AUTO 23005KT 10SM CLR 22/11 A3006 190 50 1100 230/05 RMK AO2 $
63870K0J4 0J420160508201010005/08/16 20:10:31  5-MIN K0J4 090110Z AUTO 23005KT 10SM CLR 22/11 A3006 190 50 1000 230/05 RMK AO2 $
63870K0J4 0J420160508201510005/08/16 20:15:31  5-MIN K0J4 090115Z AUTO 23004KT 10SM CLR 22/11 A3006 180 50 1000 230/04 RMK AO2 $
63870K0J4 0J420160508202010005/08/16 20:20:31  5-MIN K0J4 090120Z AUTO 23003KT 10SM CLR 21/12 A3006 180 54 1000 230/03 RMK AO2 $
63870K0J4 0J420160508202510005/08/16 20:25:31  5-MIN K0J4 090125Z AUTO 23004KT 10SM CLR 21/12 A3007 180 54 1000 230/04 RMK AO2 $
63870K0J4 0J420160508203009905/08/16 20:30:31  5-MIN K0J4 090130Z AUTO 23003KT 10SM CLR 21/12 A3007 180 56 900 230/03 RMK AO2 $
63870K0J4 0J420160508203509905/08/16 20:35:31  5-MIN K0J4 090135Z AUTO 23003KT 10SM CLR 21/12 A3008 170 56 900 230/03 RMK AO2 $
63870K0J4 0J420160508204009905/08/16 20:40:31  5-MIN K0J4 090140Z AUTO 00000KT 10SM CLR 20/12 A3008 170 58 800 000/00 RMK AO2 $
63870K0J4 0J420160508204509905/08/16 20:45:31  5-MIN K0J4 090145Z AUTO 23003KT 10SM CLR 20/12 A3008 170 58 800 230/03 RMK AO2 $
63870K0J4 0J420160508205009905/08/16 20:50:31  5-MIN K0J4 090150Z AUTO 23003KT 10SM CLR 20/12 A3008 170 58 800 230/03 RMK AO2 $
63870K0J4 0J420160508205511605/08/16 20:55:31  5-MIN K0J4 090155Z AUTO 23003KT 10SM CLR 20/12 A3008 170 58 800 230/03 RMK AO2 SLP183 T02000117 $
63870K0J4 0J420160508210009905/08/16 21:00:31  5-MIN K0J4 090200Z AUTO 23003KT 10SM CLR 20/12 A3008 170 60 800 230/03 RMK AO2 $
63870K0J4 0J420160508210509905/08/16 21:05:31  5-MIN K0J4 090205Z AUTO 00000KT 10SM CLR 19/12 A3008 170 62 800 000/00 RMK AO2 $
63870K0J4 0J420160508211009905/08/16 21:10:31  5-MIN K0J4 090210Z AUTO 23003KT 10SM CLR 19/12 A3008 170 62 800 230/03 RMK AO2 $
63870K0J4 0J420160508211509905/08/16 21:15:31  5-MIN K0J4 090215Z AUTO VRB03KT 10SM CLR 19/12 A3008 170 65 700 VRB/03 RMK AO2 $
63870K0J4 0J420160508212009905/08/16 21:20:31  5-MIN K0J4 090220Z AUTO 00000KT 10SM CLR 19/12 A3008 170 65 700 000/00 RMK AO2 $
63870K0J4 0J420160508212509905/08/16 21:25:31  5-MIN K0J4 090225Z AUTO 00000KT 10SM CLR 18/12 A3008 170 69 600 000/00 RMK AO2 $
63870K0J4 0J420160508213009905/08/16 21:30:31  5-MIN K0J4 090230Z AUTO 00000KT 10SM CLR 17/12 A3008 170 72 500 000/00 RMK AO2 $
63870K0J4 0J420160508213509905/08/16 21:35:31  5-MIN K0J4 090235Z AUTO 00000KT 10SM CLR 18/12 A3008 170 69 600 000/00 RMK AO2 $
63870K0J4 0J420160508214009905/08/16 21:40:31  5-MIN K0J4 090240Z AUTO 00000KT 10SM CLR 17/12 A3008 170 72 500 000/00 RMK AO2 $
63870K0J4 0J420160508214509905/08/16 21:45:31  5-MIN K0J4 090245Z AUTO 00000KT 10SM CLR 17/12 A3007 170 75 500 000/00 RMK AO2 $
63870K0J4 0J420160508215009905/08/16 21:50:31  5-MIN K0J4 090250Z AUTO 00000KT 10SM CLR 16/13 A3008 170 80 400 000/00 RMK AO2 $
63870K0J4 0J420160508215512205/08/16 21:55:31  5-MIN K0J4 090255Z AUTO 00000KT 10SM CLR 17/12 A3008 170 75 400 000/00 RMK AO2 SLP182 T01670122 53011 $
63870K0J4 0J420160508220009905/08/16 22:00:31  5-MIN K0J4 090300Z AUTO 00000KT 10SM CLR 17/12 A3008 170 75 400 000/00 RMK AO2 $
63870K0J4 0J420160508220509905/08/16 22:05:31  5-MIN K0J4 090305Z AUTO 00000KT 10SM CLR 16/12 A3008 170 77 400 000/00 RMK AO2 $
63870K0J4 0J420160508221009905/08/16 22:10:31  5-MIN K0J4 090310Z AUTO 00000KT 10SM CLR 16/13 A3008 170 80 400 000/00 RMK AO2 $
63870K0J4 0J420160508221509905/08/16 22:15:31  5-MIN K0J4 090315Z AUTO 00000KT 10SM CLR 16/12 A3008 170 77 400 000/00 RMK AO2 $
63870K0J4 0J420160508222009905/08/16 22:20:31  5-MIN K0J4 090320Z AUTO 00000KT 10SM CLR 16/12 A3009 160 80 300 000/00 RMK AO2 $
63870K0J4 0J420160508222509905/08/16 22:25:31  5-MIN K0J4 090325Z AUTO 00000KT 10SM CLR 16/12 A3009 160 80 300 000/00 RMK AO2 $
63870K0J4 0J420160508223009905/08/16 22:30:31  5-MIN K0J4 090330Z AUTO 00000KT 10SM CLR 16/12 A3009 160 77 400 000/00 RMK AO2 $
63870K0J4 0J420160508223509905/08/16 22:35:31  5-MIN K0J4 090335Z AUTO 00000KT 10SM CLR 16/12 A3009 160 80 300 000/00 RMK AO2 $
63870K0J4 0J420160508224009905/08/16 22:40:31  5-MIN K0J4 090340Z AUTO 00000KT 10SM CLR 15/12 A3009 160 83 200 000/00 RMK AO2 $
63870K0J4 0J420160508224509905/08/16 22:45:31  5-MIN K0J4 090345Z AUTO 00000KT 10SM CLR 15/13 A3009 160 86 200 000/00 RMK AO2 $
63870K0J4 0J420160508225009905/08/16 22:50:31  5-MIN K0J4 090350Z AUTO 00000KT 10SM CLR 15/12 A3009 160 83 200 000/00 RMK AO2 $
63870K0J4 0J420160508225511605/08/16 22:55:31  5-MIN K0J4 090355Z AUTO 00000KT 10SM CLR 15/12 A3009 160 83 200 000/00 RMK AO2 SLP186 T01500122 $
63870K0J4 0J420160508230009905/08/16 23:00:31  5-MIN K0J4 090400Z AUTO 00000KT 10SM CLR 15/12 A3009 160 83 200 000/00 RMK AO2 $
63870K0J4 0J420160508230509905/08/16 23:05:31  5-MIN K0J4 090405Z AUTO 00000KT 10SM CLR 15/12 A3009 160 83 200 000/00 RMK AO2 $
63870K0J4 0J420160508231009905/08/16 23:10:31  5-MIN K0J4 090410Z AUTO 00000KT 10SM CLR 14/12 A3009 160 86 200 000/00 RMK AO2 $
63870K0J4 0J420160508231509905/08/16 23:15:31  5-MIN K0J4 090415Z AUTO 00000KT 10SM CLR 14/12 A3009 160 86 200 000/00 RMK AO2 $
63870K0J4 0J420160508232009905/08/16 23:20:31  5-MIN K0J4 090420Z AUTO 00000KT 10SM CLR 14/12 A3009 160 83 200 000/00 RMK AO2 $
63870K0J4 0J420160508232509905/08/16 23:25:31  5-MIN K0J4 090425Z AUTO 00000KT 10SM CLR 14/12 A3009 160 86 200 000/00 RMK AO2 $
63870K0J4 0J420160508233009905/08/16 23:30:31  5-MIN K0J4 090430Z AUTO 00000KT 10SM CLR 14/12 A3009 160 83 200 000/00 RMK AO2 $
63870K0J4 0J420160508233509905/08/16 23:35:31  5-MIN K0J4 090435Z AUTO 00000KT 10SM CLR 14/12 A3009 160 83 200 000/00 RMK AO2 $
63870K0J4 0J420160508234009905/08/16 23:40:31  5-MIN K0J4 090440Z AUTO 00000KT 10SM CLR 14/12 A3008 170 86 100 000/00 RMK AO2 $
63870K0J4 0J420160508234509905/08/16 23:45:31  5-MIN K0J4 090445Z AUTO 00000KT 10SM CLR 14/12 A3008 170 83 200 000/00 RMK AO2 $
63870K0J4 0J420160508235009905/08/16 23:50:31  5-MIN K0J4 090450Z AUTO 00000KT 10SM CLR 14/12 A3008 170 86 200 000/00 RMK AO2 $
63870K0J4 0J420160508235512605/08/16 23:55:31  5-MIN K0J4 090455Z AUTO 00000KT 10SM CLR 14/12 A3008 170 90 100 000/00 RMK AO2 SLP183 T01390122 403060117 $
63870K0J4 0J420160509000009905/09/16 00:00:31  5-MIN K0J4 090500Z AUTO 00000KT 10SM CLR 14/12 A3008 170 86 100 000/00 RMK AO2 $
63870K0J4 0J420160509000509905/09/16 00:05:31  5-MIN K0J4 090505Z AUTO 00000KT 10SM CLR 14/12 A3008 170 86 100 000/00 RMK AO2 $
63870K0J4 0J420160509001009905/09/16 00:10:31  5-MIN K0J4 090510Z AUTO 00000KT 10SM CLR 14/12 A3008 170 86 100 000/00 RMK AO2 $
63870K0J4 0J420160509001509905/09/16 00:15:31  5-MIN K0J4 090515Z AUTO 00000KT 10SM CLR 14/12 A3008 170 86 100 000/00 RMK AO2 $
63870K0J4 0J420160509002009905/09/16 00:20:31  5-MIN K0J4 090520Z AUTO 00000KT 10SM CLR 14/12 A3008 170 86 100 000/00 RMK AO2 $
63870K0J4 0J420160509002509905/09/16 00:25:31  5-MIN K0J4 090525Z AUTO 00000KT 10SM CLR 14/12 A3007 170 86 100 000/00 RMK AO2 $
63870K0J4 0J420160509003009905/09/16 00:30:31  5-MIN K0J4 090530Z AUTO 00000KT 10SM CLR 14/12 A3007 170 86 100 000/00 RMK AO2 $
63870K0J4 0J420160509003509905/09/16 00:35:31  5-MIN K0J4 090535Z AUTO 00000KT 10SM CLR 14/12 A3007 180 86 100 000/00 RMK AO2 $
63870K0J4 0J420160509004009905/09/16 00:40:31  5-MIN K0J4 090540Z AUTO 00000KT 10SM CLR 13/11 A3007 170 86 100 000/00 RMK AO2 $
63870K0J4 0J420160509004509905/09/16 00:45:31  5-MIN K0J4 090545Z AUTO 00000KT 10SM CLR 14/12 A3008 170 86 100 000/00 RMK AO2 $
63870K0J4 0J420160509005009905/09/16 00:50:31  5-MIN K0J4 090550Z AUTO 00000KT 10SM CLR 14/12 A3007 170 86 100 000/00 RMK AO2 $
63870K0J4 0J420160509005513405/09/16 00:55:31  5-MIN K0J4 090555Z AUTO 00000KT 10SM CLR 13/12 A3007 180 89 100 000/00 RMK AO2 SLP180 T01330117 10239 20133 50016 $
63870K0J4 0J420160509010009905/09/16 01:00:31  5-MIN K0J4 090600Z AUTO 00000KT 10SM CLR 13/12 A3007 180 89 100 000/00 RMK AO2 $
63870K0J4 0J420160509010509905/09/16 01:05:31  5-MIN K0J4 090605Z AUTO 00000KT 10SM CLR 13/11 A3007 180 86 100 000/00 RMK AO2 $
63870K0J4 0J420160509011009905/09/16 01:10:31  5-MIN K0J4 090610Z AUTO 00000KT 10SM CLR 13/11 A3007 180 86 100 000/00 RMK AO2 $
63870K0J4 0J420160509011509905/09/16 01:15:31  5-MIN K0J4 090615Z AUTO 00000KT 10SM CLR 13/11 A3007 180 86 100 000/00 RMK AO2 $
63870K0J4 0J420160509012009905/09/16 01:20:31  5-MIN K0J4 090620Z AUTO 00000KT 10SM CLR 13/11 A3007 180 86 100 000/00 RMK AO2 $
63870K0J4 0J420160509012509905/09/16 01:25:31  5-MIN K0J4 090625Z AUTO 00000KT 10SM CLR 13/12 A3007 180 89 100 000/00 RMK AO2 $
63870K0J4 0J420160509013009905/09/16 01:30:31  5-MIN K0J4 090630Z AUTO 00000KT 10SM CLR 13/12 A3007 180 89 100 000/00 RMK AO2 $
63870K0J4 0J420160509013509905/09/16 01:35:31  5-MIN K0J4 090635Z AUTO 00000KT 10SM CLR 13/12 A3007 180 89 100 000/00 RMK AO2 $
63870K0J4 0J420160509014009905/09/16 01:40:31  5-MIN K0J4 090640Z AUTO 00000KT 10SM CLR 13/12 A3006 180 89 100 000/00 RMK AO2 $
63870K0J4 0J420160509014509705/09/16 01:45:31  5-MIN K0J4 090645Z AUTO 00000KT 10SM CLR 13/12 A3007 180 93 0 000/00 RMK AO2 $
63870K0J4 0J420160509015009905/09/16 01:50:31  5-MIN K0J4 090650Z AUTO 00000KT 10SM CLR 13/12 A3006 180 89 100 000/00 RMK AO2 $
63870K0J4 0J420160509015511605/09/16 01:55:31  5-MIN K0J4 090655Z AUTO 00000KT 10SM CLR 13/12 A3006 190 89 100 000/00 RMK AO2 SLP176 T01330117 $
63870K0J4 0J420160509020009905/09/16 02:00:31  5-MIN K0J4 090700Z AUTO 00000KT 10SM CLR 13/12 A3006 190 89 100 000/00 RMK AO2 $
63870K0J4 0J420160509020509905/09/16 02:05:31  5-MIN K0J4 090705Z AUTO 00000KT 10SM CLR 13/12 A3006 190 89 100 000/00 RMK AO2 $
63870K0J4 0J420160509021009905/09/16 02:10:31  5-MIN K0J4 090710Z AUTO 00000KT 10SM CLR 13/12 A3006 190 89 100 000/00 RMK AO2 $
63870K0J4 0J420160509021509705/09/16 02:15:31  5-MIN K0J4 090715Z AUTO 00000KT 10SM CLR 13/12 A3006 190 93 0 000/00 RMK AO2 $
63870K0J4 0J420160509022009705/09/16 02:20:31  5-MIN K0J4 090720Z AUTO 00000KT 10SM CLR 13/11 A3006 190 89 0 000/00 RMK AO2 $
63870K0J4 0J420160509022509705/09/16 02:25:31  5-MIN K0J4 090725Z AUTO 00000KT 10SM CLR 13/11 A3006 190 89 0 000/00 RMK AO2 $
63870K0J4 0J420160509023009905/09/16 02:30:31  5-MIN K0J4 090730Z AUTO 00000KT 10SM CLR 13/12 A3006 190 89 100 000/00 RMK AO2 $
63870K0J4 0J420160509023509905/09/16 02:35:31  5-MIN K0J4 090735Z AUTO 00000KT 10SM CLR 13/12 A3006 190 89 100 000/00 RMK AO2 $
63870K0J4 0J420160509024009905/09/16 02:40:31  5-MIN K0J4 090740Z AUTO 00000KT 10SM CLR 13/12 A3006 190 89 100 000/00 RMK AO2 $
63870K0J4 0J420160509024509905/09/16 02:45:31  5-MIN K0J4 090745Z AUTO 00000KT 10SM CLR 13/12 A3005 200 93 100 000/00 RMK AO2 $
63870K0J4 0J420160509025009905/09/16 02:50:31  5-MIN K0J4 090750Z AUTO 00000KT 10SM CLR 13/12 A3005 190 93 100 000/00 RMK AO2 $
63870K0J4 0J420160509025511605/09/16 02:55:31  5-MIN K0J4 090755Z AUTO 00000KT 10SM CLR 14/12 A3006 190 90 100 000/00 RMK AO2 SLP174 T01390122 $
63870K0J4 0J420160509030009905/09/16 03:00:31  5-MIN K0J4 090800Z AUTO 00000KT 10SM CLR 13/12 A3005 190 89 100 000/00 RMK AO2 $
63870K0J4 0J420160509030509905/09/16 03:05:31  5-MIN K0J4 090805Z AUTO 00000KT 10SM CLR 13/12 A3005 200 89 100 000/00 RMK AO2 $
63870K0J4 0J420160509031009905/09/16 03:10:31  5-MIN K0J4 090810Z AUTO 00000KT 10SM CLR 13/12 A3005 200 89 100 000/00 RMK AO2 $
63870K0J4 0J420160509031509905/09/16 03:15:31  5-MIN K0J4 090815Z AUTO 00000KT 10SM CLR 14/12 A3005 200 90 200 000/00 RMK AO2 $
63870K0J4 0J420160509032009905/09/16 03:20:31  5-MIN K0J4 090820Z AUTO 00000KT 10SM CLR 14/13 A3005 190 90 200 000/00 RMK AO2 $
63870K0J4 0J420160509032509905/09/16 03:25:31  5-MIN K0J4 090825Z AUTO 00000KT 10SM CLR 14/13 A3006 190 90 200 000/00 RMK AO2 $
63870K0J4 0J420160509033009905/09/16 03:30:31  5-MIN K0J4 090830Z AUTO 00000KT 10SM CLR 14/13 A3005 190 90 200 000/00 RMK AO2 $
63870K0J4 0J420160509033509905/09/16 03:35:31  5-MIN K0J4 090835Z AUTO 00000KT 10SM CLR 14/13 A3006 190 90 200 000/00 RMK AO2 $
63870K0J4 0J420160509034009905/09/16 03:40:31  5-MIN K0J4 090840Z AUTO 00000KT 10SM CLR 14/13 A3006 190 90 200 000/00 RMK AO2 $
63870K0J4 0J420160509034509905/09/16 03:45:31  5-MIN K0J4 090845Z AUTO 00000KT 10SM CLR 14/13 A3006 190 90 200 000/00 RMK AO2 $
63870K0J4 0J420160509035009905/09/16 03:50:31  5-MIN K0J4 090850Z AUTO 00000KT 10SM CLR 14/13 A3006 190 90 200 000/00 RMK AO2 $
63870K0J4 0J420160509035512205/09/16 03:55:31  5-MIN K0J4 090855Z AUTO 00000KT 10SM CLR 14/13 A3006 190 90 200 000/00 RMK AO2 SLP176 T01440128 58003 $
63870K0J4 0J420160509040009905/09/16 04:00:31  5-MIN K0J4 090900Z AUTO 00000KT 10SM CLR 14/13 A3006 190 90 200 000/00 RMK AO2 $
63870K0J4 0J420160509040509905/09/16 04:05:31  5-MIN K0J4 090905Z AUTO 00000KT 10SM CLR 14/13 A3006 190 90 200 000/00 RMK AO2 $
63870K0J4 0J420160509041009905/09/16 04:10:31  5-MIN K0J4 090910Z AUTO 00000KT 10SM CLR 14/13 A3006 190 90 200 000/00 RMK AO2 $
63870K0J4 0J420160509041509905/09/16 04:15:31  5-MIN K0J4 090915Z AUTO 00000KT 10SM CLR 15/13 A3006 190 86 300 000/00 RMK AO2 $
63870K0J4 0J420160509042009905/09/16 04:20:31  5-MIN K0J4 090920Z AUTO 00000KT 10SM CLR 14/13 A3006 190 90 200 000/00 RMK AO2 $
63870K0J4 0J420160509042509905/09/16 04:25:31  5-MIN K0J4 090925Z AUTO 00000KT 10SM CLR 15/13 A3006 180 86 300 000/00 RMK AO2 $
63870K0J4 0J420160509043009905/09/16 04:30:31  5-MIN K0J4 090930Z AUTO 00000KT 10SM CLR 15/13 A3007 180 86 300 000/00 RMK AO2 $
63870K0J4 0J420160509043509905/09/16 04:35:31  5-MIN K0J4 090935Z AUTO 00000KT 10SM CLR 15/13 A3007 180 86 300 000/00 RMK AO2 $
63870K0J4 0J420160509044009905/09/16 04:40:31  5-MIN K0J4 090940Z AUTO 00000KT 10SM CLR 15/13 A3006 180 90 300 000/00 RMK AO2 $
63870K0J4 0J420160509044509905/09/16 04:45:31  5-MIN K0J4 090945Z AUTO 00000KT 10SM CLR 15/13 A3006 180 90 300 000/00 RMK AO2 $
63870K0J4 0J420160509045009905/09/16 04:50:31  5-MIN K0J4 090950Z AUTO 00000KT 10SM CLR 15/13 A3006 190 90 300 000/00 RMK AO2 $
63870K0J4 0J420160509045511605/09/16 04:55:31  5-MIN K0J4 090955Z AUTO 13003KT 10SM CLR 15/13 A3006 190 86 300 130/03 RMK AO2 SLP176 T01500128 $
63870K0J4 0J420160509050009905/09/16 05:00:31  5-MIN K0J4 091000Z AUTO 15004KT 10SM CLR 15/13 A3006 180 86 300 150/04 RMK AO2 $
63870K0J4 0J420160509050509905/09/16 05:05:31  5-MIN K0J4 091005Z AUTO 00000KT 10SM CLR 14/13 A3006 180 90 200 000/00 RMK AO2 $
63870K0J4 0J420160509051009905/09/16 05:10:31  5-MIN K0J4 091010Z AUTO 00000KT 10SM CLR 15/13 A3007 180 86 300 000/00 RMK AO2 $
63870K0J4 0J420160509051509905/09/16 05:15:31  5-MIN K0J4 091015Z AUTO 15003KT 10SM CLR 14/13 A3007 180 90 200 150/03 RMK AO2 $
63870K0J4 0J420160509052009905/09/16 05:20:31  5-MIN K0J4 091020Z AUTO 14004KT 10SM CLR 14/13 A3007 180 90 200 140/04 RMK AO2 $
63870K0J4 0J420160509052509905/09/16 05:25:31  5-MIN K0J4 091025Z AUTO 15003KT 10SM CLR 14/13 A3007 180 90 200 150/03 RMK AO2 $
63870K0J4 0J420160509053009905/09/16 05:30:31  5-MIN K0J4 091030Z AUTO 14003KT 10SM CLR 14/13 A3007 180 90 200 140/03 RMK AO2 $
63870K0J4 0J420160509053509905/09/16 05:35:31  5-MIN K0J4 091035Z AUTO 13003KT 10SM CLR 15/13 A3007 180 86 300 130/03 RMK AO2 $
63870K0J4 0J420160509054009905/09/16 05:40:31  5-MIN K0J4 091040Z AUTO 14003KT 10SM CLR 15/13 A3007 180 86 300 140/03 RMK AO2 $
63870K0J4 0J420160509054509905/09/16 05:45:31  5-MIN K0J4 091045Z AUTO 14003KT 10SM CLR 15/13 A3007 180 90 300 140/03 RMK AO2 $
63870K0J4 0J420160509055009905/09/16 05:50:31  5-MIN K0J4 091050Z AUTO 14003KT 10SM CLR 15/13 A3007 180 90 300 140/03 RMK AO2 $
63870K0J4 0J420160509055511605/09/16 05:55:31  5-MIN K0J4 091055Z AUTO 00000KT 10SM CLR 16/13 A3007 180 86 300 000/00 RMK AO2 SLP180 T01560133 $
63870K0J4 0J420160509060009905/09/16 06:00:31  5-MIN K0J4 091100Z AUTO 00000KT 10SM CLR 16/13 A3008 170 86 300 000/00 RMK AO2 $
63870K0J4 0J420160509060509905/09/16 06:05:31  5-MIN K0J4 091105Z AUTO 00000KT 10SM CLR 16/13 A3008 170 86 300 000/00 RMK AO2 $
63870K0J4 0J420160509061009905/09/16 06:10:31  5-MIN K0J4 091110Z AUTO 00000KT 10SM CLR 16/13 A3008 160 86 300 000/00 RMK AO2 $
63870K0J4 0J420160509061509905/09/16 06:15:31  5-MIN K0J4 091115Z AUTO 00000KT 10SM CLR 16/14 A3009 160 90 300 000/00 RMK AO2 $
63870K0J4 0J420160509062009905/09/16 06:20:31  5-MIN K0J4 091120Z AUTO 00000KT 10SM CLR 16/14 A3009 160 90 300 000/00 RMK AO2 $
63870K0J4 0J420160509062509905/09/16 06:25:31  5-MIN K0J4 091125Z AUTO 00000KT 10SM CLR 16/14 A3009 160 90 300 000/00 RMK AO2 $
63870K0J4 0J420160509063009905/09/16 06:30:31  5-MIN K0J4 091130Z AUTO 00000KT 10SM CLR 16/14 A3010 150 90 300 000/00 RMK AO2 $
63870K0J4 0J420160509063509905/09/16 06:35:31  5-MIN K0J4 091135Z AUTO 00000KT 10SM CLR 16/14 A3010 150 86 400 000/00 RMK AO2 $
63870K0J4 0J420160509064009905/09/16 06:40:31  5-MIN K0J4 091140Z AUTO 00000KT 10SM CLR 16/14 A3010 150 90 400 000/00 RMK AO2 $
63870K0J4 0J420160509064509905/09/16 06:45:31  5-MIN K0J4 091145Z AUTO 00000KT 10SM CLR 16/14 A3010 150 86 400 000/00 RMK AO2 $
63870K0J4 0J420160509065009905/09/16 06:50:31  5-MIN K0J4 091150Z AUTO 00000KT 10SM CLR 16/14 A3010 150 90 400 000/00 RMK AO2 $
63870K0J4 0J420160509065513405/09/16 06:55:31  5-MIN K0J4 091155Z AUTO 00000KT 10SM CLR 16/14 A3010 150 90 400 000/00 RMK AO2 SLP191 T01610144 10161 20128 55003 $
63870K0J4 0J420160509070009905/09/16 07:00:31  5-MIN K0J4 091200Z AUTO 00000KT 10SM CLR 16/14 A3011 140 90 300 000/00 RMK AO2 $
63870K0J4 0J420160509070509905/09/16 07:05:31  5-MIN K0J4 091205Z AUTO 00000KT 10SM CLR 17/15 A3011 140 90 400 000/00 RMK AO2 $
63870K0J4 0J420160509071009705/09/16 07:10:31  5-MIN K0J4 091210Z AUTO 00000KT 10SM CLR 17/15 A3011 140 90 400 000/00 RMK AO2
63870K0J4 0J420160509071509705/09/16 07:15:31  5-MIN K0J4 091215Z AUTO 00000KT 10SM CLR 17/15 A3011 140 90 400 000/00 RMK AO2
63870K0J4 0J420160509072009705/09/16 07:20:31  5-MIN K0J4 091220Z AUTO 00000KT 10SM CLR 17/15 A3011 140 87 500 000/00 RMK AO2
63870K0J4 0J420160509072509705/09/16 07:25:31  5-MIN K0J4 091225Z AUTO 00000KT 10SM CLR 17/15 A3012 140 87 500 000/00 RMK AO2
63870K0J4 0J420160509073009705/09/16 07:30:31  5-MIN K0J4 091230Z AUTO 00000KT 10SM CLR 17/15 A3012 130 87 500 000/00 RMK AO2
63870K0J4 0J420160509073510005/09/16 07:35:31  5-MIN K0J4 091235Z AUTO 00000KT 10SM FEW033 17/16 A3012 130 90 500 000/00 RMK AO2
63870K0J4 0J420160509074010005/09/16 07:40:31  5-MIN K0J4 091240Z AUTO 00000KT 10SM FEW033 18/16 A3012 130 87 500 000/00 RMK AO2
63870K0J4 0J420160509074510005/09/16 07:45:31  5-MIN K0J4 091245Z AUTO 00000KT 10SM FEW033 18/16 A3012 140 87 500 000/00 RMK AO2
63870K0J4 0J420160509075010005/09/16 07:50:31  5-MIN K0J4 091250Z AUTO 00000KT 10SM FEW033 18/16 A3012 130 87 500 000/00 RMK AO2
63870K0J4 0J420160509075511705/09/16 07:55:31  5-MIN K0J4 091255Z AUTO 00000KT 10SM FEW033 18/16 A3012 130 87 600 000/00 RMK AO2 SLP197 T01830161
63870K0J4 0J420160509080010005/09/16 08:00:31  5-MIN K0J4 091300Z AUTO 16003KT 10SM FEW033 18/16 A3013 130 87 600 160/03 RMK AO2
63870K0J4 0J420160509080509705/09/16 08:05:31  5-MIN K0J4 091305Z AUTO 00000KT 10SM CLR 19/16 A3013 120 84 600 000/00 RMK AO2
63870K0J4 0J420160509081009705/09/16 08:10:31  5-MIN K0J4 091310Z AUTO 00000KT 10SM CLR 19/16 A3013 120 84 600 000/00 RMK AO2
63870K0J4 0J420160509081509705/09/16 08:15:31  5-MIN K0J4 091315Z AUTO 00000KT 10SM CLR 19/16 A3013 120 84 600 000/00 RMK AO2
63870K0J4 0J420160509082009705/09/16 08:20:31  5-MIN K0J4 091320Z AUTO 00000KT 10SM CLR 19/16 A3013 120 81 700 000/00 RMK AO2
63870K0J4 0J420160509082509705/09/16 08:25:31  5-MIN K0J4 091325Z AUTO 00000KT 10SM CLR 19/16 A3013 120 84 600 000/00 RMK AO2
63870K0J4 0J420160509083009705/09/16 08:30:31  5-MIN K0J4 091330Z AUTO 00000KT 10SM CLR 19/17 A3013 120 84 700 000/00 RMK AO2
63870K0J4 0J420160509083510005/09/16 08:35:31  5-MIN K0J4 091335Z AUTO 00000KT 10SM FEW033 20/17 A3013 120 81 800 000/00 RMK AO2
63870K0J4 0J420160509084010005/09/16 08:40:31  5-MIN K0J4 091340Z AUTO 00000KT 10SM FEW033 20/16 A3013 120 78 800 000/00 RMK AO2
63870K0J4 0J420160509084510005/09/16 08:45:31  5-MIN K0J4 091345Z AUTO 00000KT 10SM SCT033 20/17 A3013 120 81 800 000/00 RMK AO2
63870K0J4 0J420160509085010005/09/16 08:50:31  5-MIN K0J4 091350Z AUTO 00000KT 10SM SCT033 21/17 A3014 120 75 900 000/00 RMK AO2
63870K0J4 0J420160509085511705/09/16 08:55:31  5-MIN K0J4 091355Z AUTO 00000KT 10SM BKN033 21/17 A3013 120 75 900 000/00 RMK AO2 SLP200 T02110167
63870K0J4 0J420160509090010105/09/16 09:00:31  5-MIN K0J4 091400Z AUTO 20005KT 10SM BKN033 22/17 A3013 120 73 1000 200/05 RMK AO2
63870K0J4 0J420160509090510105/09/16 09:05:31  5-MIN K0J4 091405Z AUTO 20005KT 10SM BKN033 22/16 A3013 120 68 1000 200/05 RMK AO2
63870K0J4 0J420160509091010105/09/16 09:10:31  5-MIN K0J4 091410Z AUTO 19005KT 10SM BKN033 22/16 A3014 120 68 1000 190/05 RMK AO2
63870K0J4 0J420160509091510105/09/16 09:15:31  5-MIN K0J4 091415Z AUTO 21006KT 10SM BKN033 22/16 A3014 120 68 1000 210/06 RMK AO2
63870K0J4 0J420160509092010105/09/16 09:20:31  5-MIN K0J4 091420Z AUTO 20006KT 10SM BKN033 23/16 A3014 110 65 1100 200/06 RMK AO2
63870K0J4 0J420160509092510105/09/16 09:25:31  5-MIN K0J4 091425Z AUTO VRB04KT 10SM BKN033 23/16 A3014 120 65 1100 VRB/04 RMK AO2
63870K0J4 0J420160509093010105/09/16 09:30:31  5-MIN K0J4 091430Z AUTO 22005KT 10SM SCT033 23/16 A3014 110 63 1100 220/05 RMK AO2
63870K0J4 0J420160509093510105/09/16 09:35:31  5-MIN K0J4 091435Z AUTO 19007KT 10SM SCT033 23/16 A3014 120 63 1200 190/07 RMK AO2
63870K0J4 0J420160509094010805/09/16 09:40:31  5-MIN K0J4 091440Z AUTO 23006KT 10SM FEW026 SCT033 23/16 A3014 110 61 1100 230/06 RMK AO2
63870K0J4 0J420160509094510105/09/16 09:45:31  5-MIN K0J4 091445Z AUTO 20009KT 10SM FEW026 23/16 A3014 110 61 1100 200/09 RMK AO2
63870K0J4 0J420160509095010105/09/16 09:50:31  5-MIN K0J4 091450Z AUTO 21007KT 10SM FEW040 24/15 A3014 110 57 1200 210/07 RMK AO2
63870K0J4 0J420160509095512405/09/16 09:55:31  5-MIN K0J4 091455Z AUTO 20010KT 10SM SCT037 24/15 A3014 110 57 1200 200/10 RMK AO2 SLP204 T02390150 53015
63870K0J4 0J420160509100010705/09/16 10:00:31  5-MIN K0J4 091500Z AUTO 20011G16KT 10SM SCT035 24/15 A3015 110 55 1300 200/11G16 RMK AO2
63870K0J4 0J420160509100511405/09/16 10:05:31  5-MIN K0J4 091505Z AUTO 21010G16KT 10SM BKN035 BKN044 26/15 A3015 110 51 1400 210/10G16 RMK AO2
63870K0J4 0J420160509101010105/09/16 10:10:31  5-MIN K0J4 091510Z AUTO 21011KT 10SM BKN035 24/15 A3015 110 57 1200 210/11 RMK AO2
63870K0J4 0J420160509101510805/09/16 10:15:31  5-MIN K0J4 091515Z AUTO 22006KT 10SM BKN035 BKN046 23/15 A3015 110 59 1100 220/06 RMK AO2
63870K0J4 0J420160509102010805/09/16 10:20:31  5-MIN K0J4 091520Z AUTO 21006KT 10SM BKN035 BKN046 24/15 A3015 110 57 1200 210/06 RMK AO2
63870K0J4 0J420160509102510805/09/16 10:25:31  5-MIN K0J4 091525Z AUTO 20008KT 10SM SCT035 BKN046 24/16 A3015 110 57 1300 200/08 RMK AO2
63870K0J4 0J420160509103011405/09/16 10:30:31  5-MIN K0J4 091530Z AUTO 21009G14KT 10SM SCT035 BKN048 24/15 A3015 100 57 1200 210/09G14 RMK AO2
63870K0J4 0J420160509103513005/09/16 10:35:31  5-MIN K0J4 091535Z AUTO 22007G14KT 200V260 10SM FEW035 BKN048 25/15 A3015 110 53 1300 220/07G14 200V260 RMK AO2
63870K0J4 0J420160509104012405/09/16 10:40:31  5-MIN K0J4 091540Z AUTO 20008KT 180V240 10SM FEW037 SCT047 25/16 A3015 110 55 1300 200/08 180V240 RMK AO2
63870K0J4 0J420160509104510805/09/16 10:45:31  5-MIN K0J4 091545Z AUTO 20011KT 10SM SCT041 SCT050 25/15 A3015 110 53 1300 200/11 RMK AO2
63870K0J4 0J420160509105011505/09/16 10:50:31  5-MIN K0J4 091550Z AUTO 20009KT 10SM FEW039 SCT050 SCT060 26/14 A3015 110 49 1400 200/09 RMK AO2
63870K0J4 0J420160509105513805/09/16 10:55:31  5-MIN K0J4 091555Z AUTO 24007G15KT 10SM SCT039 SCT050 SCT060 26/14 A3015 110 49 1400 240/07G15 RMK AO2 SLP205 T02560144
63870K0J4 0J420160509110011405/09/16 11:00:31  5-MIN K0J4 091600Z AUTO VRB06G15KT 10SM BKN041 BKN055 26/14 A3015 110 49 1400 VRB/06G15 RMK AO2
63870K0J4 0J420160509110510805/09/16 11:05:31  5-MIN K0J4 091605Z AUTO 25007KT 10SM BKN039 BKN055 24/14 A3014 110 53 1300 250/07 RMK AO2
63870K0J4 0J420160509111010105/09/16 11:10:31  5-MIN K0J4 091610Z AUTO VRB04KT 10SM SCT039 25/15 A3014 110 53 1300 VRB/04 RMK AO2
63870K0J4 0J420160509111510105/09/16 11:15:31  5-MIN K0J4 091615Z AUTO 00000KT 10SM SCT039 25/15 A3014 120 53 1300 000/00 RMK AO2
63870K0J4 0J420160509112010105/09/16 11:20:31  5-MIN K0J4 091620Z AUTO 00000KT 10SM BKN039 26/15 A3013 120 51 1400 000/00 RMK AO2
63870K0J4 0J420160509112512405/09/16 11:25:31  5-MIN K0J4 091625Z AUTO 20008KT 180V240 10SM BKN041 BKN048 26/14 A3013 120 49 1400 200/08 180V240 RMK AO2
63870K0J4 0J420160509113010105/09/16 11:30:31  5-MIN K0J4 091630Z AUTO 22008KT 10SM BKN041 26/14 A3013 120 48 1400 220/08 RMK AO2
63870K0J4 0J420160509113510105/09/16 11:35:31  5-MIN K0J4 091635Z AUTO 26004KT 10SM BKN041 26/15 A3014 120 51 1400 260/04 RMK AO2
63870K0J4 0J420160509114010805/09/16 11:40:31  5-MIN K0J4 091640Z AUTO VRB03KT 10SM BKN041 BKN055 26/15 A3013 120 51 1400 VRB/03 RMK AO2
63870K0J4 0J420160509114510805/09/16 11:45:31  5-MIN K0J4 091645Z AUTO 00000KT 10SM SCT043 BKN055 26/14 A3013 120 49 1400 000/00 RMK AO2
63870K0J4 0J420160509115010805/09/16 11:50:31  5-MIN K0J4 091650Z AUTO 22006KT 10SM SCT043 SCT055 26/14 A3013 120 49 1400 220/06 RMK AO2
63870K0J4 0J420160509115512505/09/16 11:55:31  5-MIN K0J4 091655Z AUTO 24006KT 10SM BKN045 BKN060 25/14 A3013 120 51 1300 240/06 RMK AO2 SLP200 T02500144
63870K0J4 0J420160509120010105/09/16 12:00:31  5-MIN K0J4 091700Z AUTO VRB04KT 10SM SCT047 26/14 A3013 120 48 1400 VRB/04 RMK AO2
63870K0J4 0J420160509120510105/09/16 12:05:31  5-MIN K0J4 091705Z AUTO 20011KT 10SM FEW047 26/13 A3013 120 44 1500 200/11 RMK AO2
63870K0J4 0J420160509121010705/09/16 12:10:31  5-MIN K0J4 091710Z AUTO 18010G16KT 10SM FEW047 26/13 A3013 130 44 1500 180/10G16 RMK AO2
63870K0J4 0J420160509121510105/09/16 12:15:31  5-MIN K0J4 091715Z AUTO 21011KT 10SM FEW047 26/13 A3013 130 46 1400 210/11 RMK AO2
63870K0J4 0J420160509122007505/09/16 12:20:31  5-MIN K0J4 091720Z AUTO 20009KT 10SM FEW047 26/14 A3012 
63870K0J4 0J420160509161510005/09/16 16:15:31  5-MIN K0J4 092115Z AUTO 20009KT 10SM CLR 27/13 A3005 190 43 1600 200/09 RMK AO2 $
63870K0J4 0J420160509162010005/09/16 16:20:31  5-MIN K0J4 092120Z AUTO 19009KT 10SM CLR 27/13 A3005 190 43 1600 190/09 RMK AO2 $
63870K0J4 0J420160509162510005/09/16 16:25:31  5-MIN K0J4 092125Z AUTO 20009KT 10SM CLR 26/13 A3005 190 43 1600 200/09 RMK AO2 $
63870K0J4 0J420160509163010005/09/16 16:30:31  5-MIN K0J4 092130Z AUTO 19010KT 10SM CLR 26/13 A3005 190 43 1600 190/10 RMK AO2 $
63870K0J4 0J420160509163510605/09/16 16:35:31  5-MIN K0J4 092135Z AUTO 20007G16KT 10SM CLR 26/13 A3005 190 43 1600 200/07G16 RMK AO2 $
63870K0J4 0J420160509164010005/09/16 16:40:31  5-MIN K0J4 092140Z AUTO 20010KT 10SM CLR 26/13 A3005 190 46 1500 200/10 RMK AO2 $
63870K0J4 0J420160509164510005/09/16 16:45:31  5-MIN K0J4 092145Z AUTO 19008KT 10SM CLR 26/13 A3005 200 46 1500 190/08 RMK AO2 $
63870K0J4 0J420160509165010005/09/16 16:50:31  5-MIN K0J4 092150Z AUTO 21009KT 10SM CLR 26/13 A3005 200 46 1500 210/09 RMK AO2 $
63870K0J4 0J420160509165511705/09/16 16:55:31  5-MIN K0J4 092155Z AUTO 19009KT 10SM CLR 26/13 A3005 200 46 1500 190/09 RMK AO2 SLP171 T02560133 $
63870K0J4 0J420160509170010005/09/16 17:00:31  5-MIN K0J4 092200Z AUTO 18008KT 10SM CLR 25/13 A3005 200 48 1400 180/08 RMK AO2 $
63870K0J4 0J420160509170510005/09/16 17:05:31  5-MIN K0J4 092205Z AUTO 19007KT 10SM CLR 26/13 A3004 200 46 1500 190/07 RMK AO2 $
63870K0J4 0J420160509171010005/09/16 17:10:31  5-MIN K0J4 092210Z AUTO 19009KT 10SM CLR 26/13 A3004 210 46 1500 190/09 RMK AO2 $
63870K0J4 0J420160509171510005/09/16 17:15:31  5-MIN K0J4 092215Z AUTO 19008KT 10SM CLR 25/13 A3004 210 48 1500 190/08 RMK AO2 $
63870K0J4 0J420160509172010005/09/16 17:20:31  5-MIN K0J4 092220Z AUTO 19007KT 10SM CLR 26/13 A3004 210 46 1500 190/07 RMK AO2 $
63870K0J4 0J420160509172511605/09/16 17:25:31  5-MIN K0J4 092225Z AUTO 18008KT 130V200 10SM CLR 26/14 A3004 210 48 1500 180/08 130V200 RMK AO2 $
63870K0J4 0J420160509173010605/09/16 17:30:31  5-MIN K0J4 092230Z AUTO 18010G15KT 10SM CLR 26/14 A3004 210 48 1500 180/10G15 RMK AO2 $
63870K0J4 0J420160509173510605/09/16 17:35:31  5-MIN K0J4 092235Z AUTO 19009G18KT 10SM CLR 25/14 A3004 210 49 1500 190/09G18 RMK AO2 $
63870K0J4 0J420160509174010605/09/16 17:40:31  5-MIN K0J4 092240Z AUTO 20012G18KT 10SM CLR 26/14 A3004 200 48 1500 200/12G18 RMK AO2 $
63870K0J4 0J420160509174510005/09/16 17:45:31  5-MIN K0J4 092245Z AUTO 21011KT 10SM CLR 25/14 A3005 200 49 1400 210/11 RMK AO2 $
63870K0J4 0J420160509175010605/09/16 17:50:31  5-MIN K0J4 092250Z AUTO 19008G16KT 10SM CLR 25/14 A3005 200 49 1400 190/08G16 RMK AO2 $
63870K0J4 0J420160509175512305/09/16 17:55:31  5-MIN K0J4 092255Z AUTO 20010G16KT 10SM CLR 25/14 A3005 200 51 1400 200/10G16 RMK AO2 SLP171 T02500144 $
63870K0J4 0J420160509180010005/09/16 18:00:31  5-MIN K0J4 092300Z AUTO 20008KT 10SM CLR 24/14 A3005 200 53 1400 200/08 RMK AO2 $
63870K0J4 0J420160509180510005/09/16 18:05:31  5-MIN K0J4 092305Z AUTO 18008KT 10SM CLR 24/14 A3005 200 53 1400 180/08 RMK AO2 $
63870K0J4 0J420160509181010005/09/16 18:10:31  5-MIN K0J4 092310Z AUTO 19006KT 10SM CLR 24/14 A3005 200 53 1400 190/06 RMK AO2 $
63870K0J4 0J420160509181510005/09/16 18:15:31  5-MIN K0J4 092315Z AUTO 19007KT 10SM CLR 24/14 A3005 200 53 1400 190/07 RMK AO2 $
63870K0J4 0J420160509182010005/09/16 18:20:31  5-MIN K0J4 092320Z AUTO 19007KT 10SM CLR 24/14 A3004 200 55 1300 190/07 RMK AO2 $
63870K0J4 0J420160509182510005/09/16 18:25:31  5-MIN K0J4 092325Z AUTO 19008KT 10SM CLR 24/14 A3005 200 55 1300 190/08 RMK AO2 $
63870K0J4 0J420160509183010005/09/16 18:30:31  5-MIN K0J4 092330Z AUTO 19007KT 10SM CLR 24/14 A3004 200 55 1300 190/07 RMK AO2 $
63870K0J4 0J420160509183510005/09/16 18:35:31  5-MIN K0J4 092335Z AUTO 19005KT 10SM CLR 24/14 A3004 210 55 1300 190/05 RMK AO2 $
63870K0J4 0J420160509184010005/09/16 18:40:31  5-MIN K0J4 092340Z AUTO 19006KT 10SM CLR 24/15 A3004 200 57 1300 190/06 RMK AO2 $
63870K0J4 0J420160509184510005/09/16 18:45:31  5-MIN K0J4 092345Z AUTO 18007KT 10SM CLR 23/15 A3004 200 59 1300 180/07 RMK AO2 $
63870K0J4 0J420160509185010005/09/16 18:50:31  5-MIN K0J4 092350Z AUTO 18007KT 10SM CLR 23/16 A3004 200 61 1300 180/07 RMK AO2 $
63870K0J4 0J420160509185513505/09/16 18:55:31  5-MIN K0J4 092355Z AUTO 18005KT 10SM CLR 23/16 A3004 210 61 1300 180/05 RMK AO2 SLP169 T02330156 10278 20233 56020 $
63870K0J4 0J420160509190010005/09/16 19:00:31  5-MIN K0J4 100000Z AUTO 18007KT 10SM CLR 23/16 A3004 210 63 1200 180/07 RMK AO2 $
63870K0J4 0J420160509190510005/09/16 19:05:31  5-MIN K0J4 100005Z AUTO 19006KT 10SM CLR 23/16 A3004 200 63 1200 190/06 RMK AO2 $
63870K0J4 0J420160509191010005/09/16 19:10:31  5-MIN K0J4 100010Z AUTO 19007KT 10SM CLR 23/16 A3004 200 61 1300 190/07 RMK AO2 $
63870K0J4 0J420160509191510005/09/16 19:15:31  5-MIN K0J4 100015Z AUTO 18005KT 10SM CLR 23/16 A3004 200 63 1200 180/05 RMK AO2 $
63870K0J4 0J420160509192010005/09/16 19:20:31  5-MIN K0J4 100020Z AUTO 18004KT 10SM CLR 22/16 A3004 200 65 1100 180/04 RMK AO2 $
63870K0J4 0J420160509192510005/09/16 19:25:31  5-MIN K0J4 100025Z AUTO 17005KT 10SM CLR 22/16 A3004 210 65 1100 170/05 RMK AO2 $
63870K0J4 0J420160509193010005/09/16 19:30:31  5-MIN K0J4 100030Z AUTO 16006KT 10SM CLR 22/16 A3003 210 65 1100 160/06 RMK AO2 $
63870K0J4 0J420160509193510005/09/16 19:35:31  5-MIN K0J4 100035Z AUTO 17007KT 10SM CLR 22/16 A3003 220 65 1200 170/07 RMK AO2 $
63870K0J4 0J420160509194010705/09/16 19:40:31  5-MIN K0J4 100040Z AUTO 17006KT 10SM CLR 22/16 A3002 230 68 1100 170/06 RMK AO2 PRESFR $
63870K0J4 0J420160509194510705/09/16 19:45:31  5-MIN K0J4 100045Z AUTO 16006KT 10SM CLR 22/16 A3001 230 68 1100 160/06 RMK AO2 PRESFR $
63870K0J4 0J420160509195010005/09/16 19:50:31  5-MIN K0J4 100050Z AUTO 16006KT 10SM CLR 22/16 A3001 240 68 1100 160/06 RMK AO2 $
63870K0J4 0J420160509195511705/09/16 19:55:31  5-MIN K0J4 100055Z AUTO 17005KT 10SM CLR 22/16 A3001 230 68 1100 170/05 RMK AO2 SLP159 T02170156 $
63870K0J4 0J420160509200010005/09/16 20:00:31  5-MIN K0J4 100100Z AUTO 17004KT 10SM CLR 22/16 A3002 230 68 1100 170/04 RMK AO2 $
63870K0J4 0J420160509200510005/09/16 20:05:31  5-MIN K0J4 100105Z AUTO 17005KT 10SM CLR 22/16 A3002 230 68 1100 170/05 RMK AO2 $
63870K0J4 0J420160509201010005/09/16 20:10:31  5-MIN K0J4 100110Z AUTO 17006KT 10SM CLR 21/16 A3002 230 70 1000 170/06 RMK AO2 $
63870K0J4 0J420160509201510005/09/16 20:15:31  5-MIN K0J4 100115Z AUTO 17005KT 10SM CLR 21/16 A3001 230 70 1000 170/05 RMK AO2 $
63870K0J4 0J420160509202010005/09/16 20:20:31  5-MIN K0J4 100120Z AUTO 17004KT 10SM CLR 21/16 A3002 220 70 1000 170/04 RMK AO2 $
63870K0J4 0J420160509202510005/09/16 20:25:31  5-MIN K0J4 100125Z AUTO 17004KT 10SM CLR 21/16 A3002 220 70 1000 170/04 RMK AO2 $
63870K0J4 0J420160509203010005/09/16 20:30:31  5-MIN K0J4 100130Z AUTO 18004KT 10SM CLR 21/16 A3003 210 73 1000 180/04 RMK AO2 $
63870K0J4 0J420160509203510005/09/16 20:35:31  5-MIN K0J4 100135Z AUTO 18004KT 10SM CLR 21/16 A3003 210 73 1000 180/04 RMK AO2 $
63870K0J4 0J420160509204009905/09/16 20:40:31  5-MIN K0J4 100140Z AUTO 18004KT 10SM CLR 21/16 A3004 210 75 900 180/04 RMK AO2 $
63870K0J4 0J420160509204510005/09/16 20:45:31  5-MIN K0J4 100145Z AUTO 19003KT 10SM CLR 21/16 A3004 210 73 1000 190/03 RMK AO2 $
63870K0J4 0J420160509205009905/09/16 20:50:31  5-MIN K0J4 100150Z AUTO 22003KT 10SM CLR 21/16 A3004 200 75 900 220/03 RMK AO2 $
63870K0J4 0J420160509205511605/09/16 20:55:31  5-MIN K0J4 100155Z AUTO 00000KT 10SM CLR 21/16 A3004 200 75 900 000/00 RMK AO2 SLP169 T02060161 $
63870K0J4 0J420160509210009905/09/16 21:00:31  5-MIN K0J4 100200Z AUTO 00000KT 10SM CLR 21/16 A3005 200 75 900 000/00 RMK AO2 $
63870K0J4 0J420160509210509905/09/16 21:05:31  5-MIN K0J4 100205Z AUTO 00000KT 10SM CLR 19/16 A3005 200 81 800 000/00 RMK AO2 $
63870K0J4 0J420160509211009905/09/16 21:10:31  5-MIN K0J4 100210Z AUTO 00000KT 10SM CLR 19/16 A3005 190 81 800 000/00 RMK AO2 $
63870K0J4 0J420160509211509905/09/16 21:15:31  5-MIN K0J4 100215Z AUTO 00000KT 10SM CLR 19/16 A3005 190 81 800 000/00 RMK AO2 $
63870K0J4 0J420160509212009905/09/16 21:20:31  5-MIN K0J4 100220Z AUTO 00000KT 10SM CLR 19/16 A3005 200 81 800 000/00 RMK AO2 $
63870K0J4 0J420160509212509905/09/16 21:25:31  5-MIN K0J4 100225Z AUTO 00000KT 10SM CLR 19/16 A3005 190 84 700 000/00 RMK AO2 $
63870K0J4 0J420160509213009905/09/16 21:30:31  5-MIN K0J4 100230Z AUTO 00000KT 10SM CLR 19/16 A3006 190 84 700 000/00 RMK AO2 $
63870K0J4 0J420160509213509905/09/16 21:35:31  5-MIN K0J4 100235Z AUTO 00000KT 10SM CLR 19/16 A3006 190 84 700 000/00 RMK AO2 $
63870K0J4 0J420160509214009905/09/16 21:40:31  5-MIN K0J4 100240Z AUTO 00000KT 10SM CLR 19/16 A3007 180 84 700 000/00 RMK AO2 $
63870K0J4 0J420160509214509905/09/16 21:45:31  5-MIN K0J4 100245Z AUTO 00000KT 10SM CLR 19/16 A3006 180 81 800 000/00 RMK AO2 $
63870K0J4 0J420160509215009905/09/16 21:50:31  5-MIN K0J4 100250Z AUTO 00000KT 10SM CLR 19/16 A3007 180 81 800 000/00 RMK AO2 $
63870K0J4 0J420160509215512205/09/16 21:55:31  5-MIN K0J4 100255Z AUTO 00000KT 10SM CLR 20/17 A3007 180 81 800 000/00 RMK AO2 SLP178 T02000167 56007 $
63870K0J4 0J420160509220010205/09/16 22:00:31  5-MIN K0J4 100300Z AUTO 00000KT 10SM FEW033 20/17 A3007 180 81 800 000/00 RMK AO2 $
63870K0J4 0J420160509220510205/09/16 22:05:31  5-MIN K0J4 100305Z AUTO 00000KT 10SM SCT033 20/17 A3007 180 81 800 000/00 RMK AO2 $
63870K0J4 0J420160509221010205/09/16 22:10:31  5-MIN K0J4 100310Z AUTO 00000KT 10SM BKN033 20/17 A3008 170 81 800 000/00 RMK AO2 $
63870K0J4 0J420160509221510205/09/16 22:15:31  5-MIN K0J4 100315Z AUTO 00000KT 10SM BKN031 20/17 A3007 180 81 800 000/00 RMK AO2 $
63870K0J4 0J420160509222010205/09/16 22:20:31  5-MIN K0J4 100320Z AUTO 00000KT 10SM BKN031 21/17 A3007 180 78 900 000/00 RMK AO2 $
63870K0J4 0J420160509222510205/09/16 22:25:31  5-MIN K0J4 100325Z AUTO 00000KT 10SM OVC031 20/17 A3007 180 81 800 000/00 RMK AO2 $
63870K0J4 0J420160509223010205/09/16 22:30:31  5-MIN K0J4 100330Z AUTO 00000KT 10SM BKN031 19/17 A3007 180 84 800 000/00 RMK AO2 $
63870K0J4 0J420160509223510205/09/16 22:35:31  5-MIN K0J4 100335Z AUTO 00000KT 10SM BKN031 20/17 A3006 180 81 900 000/00 RMK AO2 $
63870K0J4 0J420160509224010205/09/16 22:40:31  5-MIN K0J4 100340Z AUTO 00000KT 10SM BKN031 20/17 A3006 180 81 900 000/00 RMK AO2 $
63870K0J4 0J420160509224510205/09/16 22:45:31  5-MIN K0J4 100345Z AUTO 00000KT 10SM BKN031 19/17 A3006 190 84 800 000/00 RMK AO2 $
63870K0J4 0J420160509225010205/09/16 22:50:31  5-MIN K0J4 100350Z AUTO 00000KT 10SM BKN031 19/17 A3006 190 84 800 000/00 RMK AO2 $
63870K0J4 0J420160509225511905/09/16 22:55:31  5-MIN K0J4 100355Z AUTO 00000KT 10SM SCT033 19/17 A3006 190 87 700 000/00 RMK AO2 SLP175 T01890167 $
63870K0J4 0J420160509230010205/09/16 23:00:31  5-MIN K0J4 100400Z AUTO 00000KT 10SM FEW033 19/17 A3006 190 87 700 000/00 RMK AO2 $
63870K0J4 0J420160509230510205/09/16 23:05:31  5-MIN K0J4 100405Z AUTO 16003KT 10SM FEW033 19/17 A3006 190 87 700 160/03 RMK AO2 $
63870K0J4 0J420160509231010205/09/16 23:10:31  5-MIN K0J4 100410Z AUTO 00000KT 10SM FEW035 19/17 A3006 190 84 800 000/00 RMK AO2 $
63870K0J4 0J420160509231509905/09/16 23:15:31  5-MIN K0J4 100415Z AUTO 00000KT 10SM CLR 19/17 A3006 190 84 800 000/00 RMK AO2 $
63870K0J4 0J420160509232009905/09/16 23:20:31  5-MIN K0J4 100420Z AUTO 18003KT 10SM CLR 20/17 A3006 190 81 900 180/03 RMK AO2 $
63870K0J4 0J420160509232509905/09/16 23:25:31  5-MIN K0J4 100425Z AUTO 18003KT 10SM CLR 19/17 A3006 190 84 800 180/03 RMK AO2 $
63870K0J4 0J420160509233010205/09/16 23:30:31  5-MIN K0J4 100430Z AUTO 19003KT 10SM FEW038 19/17 A3006 180 84 800 190/03 RMK AO2 $
63870K0J4 0J420160509233510205/09/16 23:35:31  5-MIN K0J4 100435Z AUTO 19003KT 10SM BKN038 19/17 A3006 180 84 800 190/03 RMK AO2 $
63870K0J4 0J420160509234010205/09/16 23:40:31  5-MIN K0J4 100440Z AUTO 19003KT 10SM BKN038 19/17 A3006 180 84 800 190/03 RMK AO2 $
63870K0J4 0J420160509234510205/09/16 23:45:31  5-MIN K0J4 100445Z AUTO 19003KT 10SM BKN038 19/17 A3006 180 84 800 190/03 RMK AO2 $
63870K0J4 0J420160509235010205/09/16 23:50:31  5-MIN K0J4 100450Z AUTO 20003KT 10SM BKN038 19/17 A3007 180 84 800 200/03 RMK AO2 $
63870K0J4 0J420160509235512905/09/16 23:55:31  5-MIN K0J4 100455Z AUTO 19003KT 10SM BKN038 19/17 A3007 180 84 800 190/03 RMK AO2 SLP178 T01940167 402780128 $
63870K0J4 0J420160510000010205/10/16 00:00:31  5-MIN K0J4 100500Z AUTO 19003KT 10SM SCT038 19/17 A3007 180 84 800 190/03 RMK AO2 $
63870K0J4 0J420160510000510205/10/16 00:05:31  5-MIN K0J4 100505Z AUTO 20003KT 10SM FEW040 19/17 A3007 180 84 800 200/03 RMK AO2 $
63870K0J4 0J420160510001010205/10/16 00:10:31  5-MIN K0J4 100510Z AUTO 20004KT 10SM FEW040 19/17 A3007 180 87 700 200/04 RMK AO2 $
63870K0J4 0J420160510001509905/10/16 00:15:31  5-MIN K0J4 100515Z AUTO 17004KT 10SM CLR 19/17 A3007 180 87 700 170/04 RMK AO2 $
63870K0J4 0J420160510002009905/10/16 00:20:31  5-MIN K0J4 100520Z AUTO 17003KT 10SM CLR 18/17 A3007 180 90 700 170/03 RMK AO2 $
63870K0J4 0J420160510002509905/10/16 00:25:31  5-MIN K0J4 100525Z AUTO 18004KT 10SM CLR 18/16 A3006 180 87 700 180/04 RMK AO2 $
63870K0J4 0J420160510003009905/10/16 00:30:31  5-MIN K0J4 100530Z AUTO 17005KT 10SM CLR 18/16 A3006 190 87 700 170/05 RMK AO2 $
63870K0J4 0J420160510003509905/10/16 00:35:31  5-MIN K0J4 100535Z AUTO 17004KT 10SM CLR 19/17 A3006 190 87 700 170/04 RMK AO2 $
63870K0J4 0J420160510004009905/10/16 00:40:31  5-MIN K0J4 100540Z AUTO 18005KT 10SM CLR 19/17 A3006 190 87 700 180/05 RMK AO2 $
63870K0J4 0J420160510004509905/10/16 00:45:31  5-MIN K0J4 100545Z AUTO 18004KT 10SM CLR 19/17 A3006 180 87 700 180/04 RMK AO2 $
63870K0J4 0J420160510005009905/10/16 00:50:31  5-MIN K0J4 100550Z AUTO 17003KT 10SM CLR 19/16 A3006 190 84 700 170/03 RMK AO2 $
63870K0J4 0J420160510005513405/10/16 00:55:31  5-MIN K0J4 100555Z AUTO 18003KT 10SM CLR 18/16 A3006 190 87 700 180/03 RMK AO2 SLP176 T01830161 10233 20183 53010 $
63870K0J4 0J420160510010009905/10/16 01:00:31  5-MIN K0J4 100600Z AUTO 17003KT 10SM CLR 18/16 A3006 190 87 700 170/03 RMK AO2 $
63870K0J4 0J420160510010509905/10/16 01:05:31  5-MIN K0J4 100605Z AUTO 17004KT 10SM CLR 18/16 A3006 190 87 700 170/04 RMK AO2 $
63870K0J4 0J420160510011009905/10/16 01:10:31  5-MIN K0J4 100610Z AUTO 17004KT 10SM CLR 18/16 A3006 190 87 700 170/04 RMK AO2 $
63870K0J4 0J420160510011509905/10/16 01:15:31  5-MIN K0J4 100615Z AUTO 18003KT 10SM CLR 18/16 A3006 180 87 700 180/03 RMK AO2 $
63870K0J4 0J420160510012009905/10/16 01:20:31  5-MIN K0J4 100620Z AUTO 18004KT 10SM CLR 19/16 A3006 190 84 700 180/04 RMK AO2 $
63870K0J4 0J420160510012509905/10/16 01:25:31  5-MIN K0J4 100625Z AUTO 17003KT 10SM CLR 18/16 A3006 180 87 700 170/03 RMK AO2 $
63870K0J4 0J420160510013009905/10/16 01:30:31  5-MIN K0J4 100630Z AUTO 16004KT 10SM CLR 18/16 A3006 190 84 700 160/04 RMK AO2 $
63870K0J4 0J420160510013509905/10/16 01:35:31  5-MIN K0J4 100635Z AUTO 16004KT 10SM CLR 18/16 A3006 190 87 600 160/04 RMK AO2 $
63870K0J4 0J420160510014009905/10/16 01:40:31  5-MIN K0J4 100640Z AUTO 16005KT 10SM CLR 18/16 A3006 190 84 700 160/05 RMK AO2 $
63870K0J4 0J420160510014509905/10/16 01:45:31  5-MIN K0J4 100645Z AUTO 15004KT 10SM CLR 18/16 A3006 190 84 700 150/04 RMK AO2 $
63870K0J4 0J420160510015009905/10/16 01:50:31  5-MIN K0J4 100650Z AUTO 14004KT 10SM CLR 18/16 A3006 190 84 700 140/04 RMK AO2 $
63870K0J4 0J420160510015511605/10/16 01:55:31  5-MIN K0J4 100655Z AUTO 15005KT 10SM CLR 18/16 A3006 190 84 700 150/05 RMK AO2 SLP175 T01830156 $
63870K0J4 0J420160510020009905/10/16 02:00:31  5-MIN K0J4 100700Z AUTO 15004KT 10SM CLR 18/16 A3006 190 84 700 150/04 RMK AO2 $
63870K0J4 0J420160510020509905/10/16 02:05:31  5-MIN K0J4 100705Z AUTO 14004KT 10SM CLR 18/16 A3006 190 87 700 140/04 RMK AO2 $
63870K0J4 0J420160510021009905/10/16 02:10:31  5-MIN K0J4 100710Z AUTO 16004KT 10SM CLR 19/16 A3006 180 84 700 160/04 RMK AO2 $
63870K0J4 0J420160510021509905/10/16 02:15:31  5-MIN K0J4 100715Z AUTO 17004KT 10SM CLR 18/16 A3007 180 87 700 170/04 RMK AO2 $
63870K0J4 0J420160510022009905/10/16 02:20:31  5-MIN K0J4 100720Z AUTO 19003KT 10SM CLR 19/16 A3007 180 84 700 190/03 RMK AO2 $
63870K0J4 0J420160510022510205/10/16 02:25:31  5-MIN K0J4 100725Z AUTO 19004KT 10SM FEW065 19/16 A3008 170 84 700 190/04 RMK AO2 $
63870K0J4 0J420160510023010205/10/16 02:30:31  5-MIN K0J4 100730Z AUTO 00000KT 10SM SCT065 19/16 A3007 170 84 700 000/00 RMK AO2 $
63870K0J4 0J420160510023510205/10/16 02:35:31  5-MIN K0J4 100735Z AUTO 00000KT 10SM BKN070 18/16 A3007 170 87 600 000/00 RMK AO2 $
63870K0J4 0J420160510024010205/10/16 02:40:31  5-MIN K0J4 100740Z AUTO 00000KT 10SM BKN070 18/16 A3007 170 87 600 000/00 RMK AO2 $
63870K0J4 0J420160510024510205/10/16 02:45:31  5-MIN K0J4 100745Z AUTO 00000KT 10SM SCT070 18/16 A3007 180 87 600 000/00 RMK AO2 $
63870K0J4 0J420160510025010205/10/16 02:50:31  5-MIN K0J4 100750Z AUTO 00000KT 10SM SCT065 18/16 A3007 180 87 600 000/00 RMK AO2 $
63870K0J4 0J420160510025511905/10/16 02:55:31  5-MIN K0J4 100755Z AUTO 00000KT 10SM SCT065 19/16 A3007 170 84 700 000/00 RMK AO2 SLP180 T01890161 $
63870K0J4 0J420160510030010205/10/16 03:00:31  5-MIN K0J4 100800Z AUTO 00000KT 10SM FEW065 18/16 A3007 170 87 600 000/00 RMK AO2 $
63870K0J4 0J420160510030509905/10/16 03:05:31  5-MIN K0J4 100805Z AUTO 00000KT 10SM CLR 18/16 A3007 180 90 600 000/00 RMK AO2 $
63870K0J4 0J420160510031009905/10/16 03:10:31  5-MIN K0J4 100810Z AUTO 00000KT 10SM CLR 18/16 A3007 170 90 600 000/00 RMK AO2 $
63870K0J4 0J420160510031509905/10/16 03:15:31  5-MIN K0J4 100815Z AUTO 00000KT 10SM CLR 18/17 A3008 170 90 600 000/00 RMK AO2 $
63870K0J4 0J420160510032010205/10/16 03:20:31  5-MIN K0J4 100820Z AUTO 00000KT 10SM FEW065 18/16 A3008 170 87 600 000/00 RMK AO2 $
63870K0J4 0J420160510032510205/10/16 03:25:31  5-MIN K0J4 100825Z AUTO 00000KT 10SM SCT065 18/17 A3009 160 90 600 000/00 RMK AO2 $
63870K0J4 0J420160510033010205/10/16 03:30:31  5-MIN K0J4 100830Z AUTO 00000KT 10SM BKN070 18/17 A3009 160 90 600 000/00 RMK AO2 $
63870K0J4 0J420160510033510205/10/16 03:35:31  5-MIN K0J4 100835Z AUTO 00000KT 10SM BKN065 18/17 A3009 160 90 600 000/00 RMK AO2 $
63870K0J4 0J420160510034010205/10/16 03:40:31  5-MIN K0J4 100840Z AUTO 00000KT 10SM BKN070 19/17 A3009 160 87 700 000/00 RMK AO2 $
63870K0J4 0J420160510034510205/10/16 03:45:31  5-MIN K0J4 100845Z AUTO 00000KT 10SM OVC070 18/17 A3009 160 90 600 000/00 RMK AO2 $
63870K0J4 0J420160510035010205/10/16 03:50:31  5-MIN K0J4 100850Z AUTO 00000KT 10SM OVC070 18/17 A3009 160 90 600 000/00 RMK AO2 $
63870K0J4 0J420160510035513205/10/16 03:55:31  5-MIN K0J4 100855Z AUTO 00000KT 10SM FEW055 BKN075 18/17 A3009 160 90 600 000/00 RMK AO2 SLP187 T01830167 56002 $
63870K0J4 0J420160510040010905/10/16 04:00:31  5-MIN K0J4 100900Z AUTO 00000KT 10SM FEW055 OVC075 18/17 A3010 150 90 600 000/00 RMK AO2 $
63870K0J4 0J420160510040510205/10/16 04:05:31  5-MIN K0J4 100905Z AUTO 00000KT 10SM BKN075 18/17 A3010 150 90 600 000/00 RMK AO2 $
63870K0J4 0J420160510041010205/10/16 04:10:31  5-MIN K0J4 100910Z AUTO 00000KT 10SM BKN075 18/17 A3010 150 90 600 000/00 RMK AO2 $
63870K0J4 0J420160510041510205/10/16 04:15:31  5-MIN K0J4 100915Z AUTO 00000KT 10SM BKN080 18/17 A3010 150 90 600 000/00 RMK AO2 $
63870K0J4 0J420160510042010205/10/16 04:20:31  5-MIN K0J4 100920Z AUTO 00000KT 10SM BKN080 18/17 A3010 150 90 600 000/00 RMK AO2 $
63870K0J4 0J420160510042510205/10/16 04:25:31  5-MIN K0J4 100925Z AUTO 00000KT 10SM BKN080 18/17 A3010 150 90 600 000/00 RMK AO2 $
63870K0J4 0J420160510043010205/10/16 04:30:31  5-MIN K0J4 100930Z AUTO 00000KT 10SM BKN080 18/17 A3010 150 90 600 000/00 RMK AO2 $
63870K0J4 0J420160510043510205/10/16 04:35:31  5-MIN K0J4 100935Z AUTO 00000KT 10SM BKN080 18/17 A3009 160 90 600 000/00 RMK AO2 $
63870K0J4 0J420160510044010205/10/16 04:40:31  5-MIN K0J4 100940Z AUTO 13003KT 10SM SCT080 18/17 A3009 160 90 600 130/03 RMK AO2 $
63870K0J4 0J420160510044510205/10/16 04:45:31  5-MIN K0J4 100945Z AUTO 13006KT 10SM FEW085 18/17 A3008 160 90 600 130/06 RMK AO2 $
63870K0J4 0J420160510045007005/10/16 04:50:31  5-MIN K0J4 100950Z AUTO FEW085 M M M M /M RMK AO2 $
63870K0J4 0J420160510050010705/10/16 05:00:31  5-MIN K0J4 101000Z AUTO 15004KT 18/17 A3009 160 90 600 150/04 RMK AO2 SLP185 T01830167 $
63870K0J4 0J420160510050511205/10/16 05:05:31  5-MIN K0J4 101005Z AUTO 15004KT 10SM 18/17 A3009 160 90 600 150/04 RMK AO2 SLP186 T01830167 $
63870K0J4 0J420160510051011205/10/16 05:10:31  5-MIN K0J4 101010Z AUTO 15003KT 10SM 18/17 A3009 160 90 600 150/03 RMK AO2 SLP186 T01830167 $
63870K0J4 0J420160510051511205/10/16 05:15:31  5-MIN K0J4 101015Z AUTO 15003KT 10SM 18/17 A3009 160 90 600 150/03 RMK AO2 SLP187 T01830167 $
63870K0J4 0J420160510052011205/10/16 05:20:31  5-MIN K0J4 101020Z AUTO 00000KT 10SM 18/17 A3010 150 90 600 000/00 RMK AO2 SLP187 T01830167 $
63870K0J4 0J420160510052511905/10/16 05:25:31  5-MIN K0J4 101025Z AUTO 15003KT 10SM FEW085 18/17 A3010 150 90 600 150/03 RMK AO2 SLP189 T01830167 $
63870K0J4 0J420160510053011905/10/16 05:30:31  5-MIN K0J4 101030Z AUTO 15003KT 10SM FEW085 18/17 A3009 160 90 600 150/03 RMK AO2 SLP187 T01830167 $
63870K0J4 0J420160510053511905/10/16 05:35:31  5-MIN K0J4 101035Z AUTO 14004KT 10SM FEW085 18/17 A3009 160 93 600 140/04 RMK AO2 SLP187 T01830172 $
63870K0J4 0J420160510054011905/10/16 05:40:31  5-MIN K0J4 101040Z AUTO 15003KT 10SM FEW085 18/17 A3010 150 93 600 150/03 RMK AO2 SLP188 T01830172 $
63870K0J4 0J420160510054511905/10/16 05:45:31  5-MIN K0J4 101045Z AUTO 16003KT 10SM FEW085 18/17 A3010 150 93 600 160/03 RMK AO2 SLP188 T01830172 $
63870K0J4 0J420160510055011905/10/16 05:50:31  5-MIN K0J4 101050Z AUTO 14003KT 10SM FEW085 18/17 A3010 150 93 600 140/03 RMK AO2 SLP187 T01830172 $
63870K0J4 0J420160510055511605/10/16 05:55:31  5-MIN K0J4 101055Z AUTO 00000KT 10SM CLR 18/17 A3010 150 93 600 000/00 RMK AO2 SLP188 T01830172 $
63870K0J4 0J420160510060009905/10/16 06:00:31  5-MIN K0J4 101100Z AUTO 14003KT 10SM CLR 18/17 A3010 150 93 600 140/03 RMK AO2 $
63870K0J4 0J420160510060509905/10/16 06:05:31  5-MIN K0J4 101105Z AUTO 15003KT 10SM CLR 18/17 A3010 150 93 600 150/03 RMK AO2 $
63870K0J4 0J420160510061009905/10/16 06:10:31  5-MIN K0J4 101110Z AUTO 15003KT 10SM CLR 18/17 A3010 150 93 600 150/03 RMK AO2 $
63870K0J4 0J420160510061509905/10/16 06:15:31  5-MIN K0J4 101115Z AUTO 15003KT 10SM CLR 18/17 A3010 150 93 600 150/03 RMK AO2 $
63870K0J4 0J420160510062009905/10/16 06:20:31  5-MIN K0J4 101120Z AUTO 15003KT 10SM CLR 18/17 A3011 150 93 600 150/03 RMK AO2 $
63870K0J4 0J420160510062509905/10/16 06:25:31  5-MIN K0J4 101125Z AUTO 00000KT 10SM CLR 19/17 A3011 140 90 700 000/00 RMK AO2 $
63870K0J4 0J420160510063010205/10/16 06:30:31  5-MIN K0J4 101130Z AUTO 00000KT 10SM FEW100 19/17 A3011 140 90 700 000/00 RMK AO2 $
63870K0J4 0J420160510063510905/10/16 06:35:31  5-MIN K0J4 101135Z AUTO 16003KT 10SM FEW055 SCT100 19/17 A3012 140 90 700 160/03 RMK AO2 $
63870K0J4 0J420160510064010905/10/16 06:40:31  5-MIN K0J4 101140Z AUTO 00000KT 10SM FEW050 SCT100 19/17 A3011 140 90 700 000/00 RMK AO2 $
63870K0J4 0J420160510064510905/10/16 06:45:31  5-MIN K0J4 101145Z AUTO 00000KT 10SM FEW050 SCT100 19/17 A3011 140 90 700 000/00 RMK AO2 $
63870K0J4 0J420160510065010905/10/16 06:50:31  5-MIN K0J4 101150Z AUTO 00000KT 10SM FEW050 SCT100 19/17 A3011 140 90 700 000/00 RMK AO2 $
63870K0J4 0J420160510065513805/10/16 06:55:31  5-MIN K0J4 101155Z AUTO 15003KT 10SM FEW050 SCT100 19/18 A3011 140 93 700 150/03 RMK AO2 SLP194 T01890178 10194 20178 $
63870K0J4 0J420160510070010905/10/16 07:00:31  5-MIN K0J4 101200Z AUTO VRB03KT 10SM FEW055 SCT100 19/18 A3012 130 93 700 VRB/03 RMK AO2 $
63870K0J4 0J420160510070511605/10/16 07:05:31  5-MIN K0J4 101205Z AUTO 00000KT 10SM FEW060 SCT080 BKN110 19/18 A3012 130 93 700 000/00 RMK AO2 $
63870K0J4 0J420160510071011605/10/16 07:10:31  5-MIN K0J4 101210Z AUTO 00000KT 10SM FEW060 SCT080 SCT100 19/18 A3012 130 93 700 000/00 RMK AO2 $
63870K0J4 0J420160510071510905/10/16 07:15:31  5-MIN K0J4 101215Z AUTO 00000KT 10SM FEW065 SCT110 19/18 A3012 130 93 700 000/00 RMK AO2 $
63870K0J4 0J420160510072011605/10/16 07:20:31  5-MIN K0J4 101220Z AUTO 00000KT 10SM SCT055 SCT080 BKN110 19/18 A3012 130 90 700 000/00 RMK AO2 $
63870K0J4 0J420160510072513105/10/16 07:25:31  5-MIN K0J4 101225Z AUTO 15004KT 8SM -RA SCT050 SCT065 BKN080 19/18 A3012 130 93 700 150/04 RMK AO2 RAB21 P0000 $
63870K0J4 0J420160510073013105/10/16 07:30:31  5-MIN K0J4 101230Z AUTO 14003KT 9SM -RA SCT050 SCT070 BKN100 19/18 A3012 140 93 700 140/03 RMK AO2 RAB21 P0000 $
63870K0J4 0J420160510073513105/10/16 07:35:31  5-MIN K0J4 101235Z AUTO 16003KT 10SM FEW050 SCT070 BKN095 19/18 A3012 130 93 700 160/03 RMK AO2 RAB21E35 P0000 $
63870K0J4 0J420160510074013105/10/16 07:40:31  5-MIN K0J4 101240Z AUTO 16003KT 10SM FEW050 BKN070 BKN100 19/18 A3013 130 90 700 160/03 RMK AO2 RAB21E35 P0000 $
63870K0J4 0J420160510074513105/10/16 07:45:31  5-MIN K0J4 101245Z AUTO VRB05KT 10SM FEW050 BKN070 OVC100 19/18 A3013 130 90 700 VRB/05 RMK AO2 RAB21E35 P0000 $
63870K0J4 0J420160510075013205/10/16 07:50:31  5-MIN K0J4 101250Z AUTO 00000KT 10SM -RA FEW050 BKN070 OVC100 19/18 A3013 120 90 700 000/00 RMK AO2 RAB21 P0000 $
63870K0J4 0J420160510075514805/10/16 07:55:31  5-MIN K0J4 101255Z AUTO 15003KT 8SM -RA FEW048 BKN070 OVC090 19/18 A3013 120 90 700 150/03 RMK AO2 RAB21 SLP200 P0000 T01940178 $
63870K0J4 0J420160510080012505/10/16 08:00:31  5-MIN K0J4 101300Z AUTO 14003KT 8SM -RA FEW060 BKN075 OVC095 19/18 A3013 120 90 700 140/03 RMK AO2 P0000 $
63870K0J4 0J420160510080511805/10/16 08:05:31  5-MIN K0J4 101305Z AUTO 12003KT 9SM -RA FEW055 OVC075 19/18 A3013 120 93 700 120/03 RMK AO2 P0000 $
63870K0J4 0J420160510081011905/10/16 08:10:31  5-MIN K0J4 101310Z AUTO 14004KT 10SM -RA FEW055 OVC075 19/18 A3013 120 93 700 140/04 RMK AO2 P0000 $
63870K0J4 0J420160510181009805/10/16 18:10:31  5-MIN K0J4 102310Z AUTO 21007KT 10SM CLR 26/18 A3012 130 64 1400 210/07 RMK AO2
63870K0J4 0J420160510181509805/10/16 18:15:31  5-MIN K0J4 102315Z AUTO 22009KT 10SM CLR 26/18 A3012 130 61 1400 220/09 RMK AO2
63870K0J4 0J420160510182009805/10/16 18:20:31  5-MIN K0J4 102320Z AUTO 21009KT 10SM CLR 25/18 A3012 130 64 1400 210/09 RMK AO2
63870K0J4 0J420160510182509805/10/16 18:25:31  5-MIN K0J4 102325Z AUTO 22008KT 10SM CLR 25/18 A3012 130 64 1400 220/08 RMK AO2
63870K0J4 0J420160510183009805/10/16 18:30:31  5-MIN K0J4 102330Z AUTO 22006KT 10SM CLR 25/18 A3012 130 64 1400 220/06 RMK AO2
63870K0J4 0J420160510183509805/10/16 18:35:31  5-MIN K0J4 102335Z AUTO 21006KT 10SM CLR 25/18 A3012 130 64 1400 210/06 RMK AO2
63870K0J4 0J420160510184009805/10/16 18:40:31  5-MIN K0J4 102340Z AUTO 22004KT 10SM CLR 25/18 A3012 140 64 1400 220/04 RMK AO2
63870K0J4 0J420160510184509805/10/16 18:45:31  5-MIN K0J4 102345Z AUTO 21006KT 10SM CLR 25/18 A3012 140 66 1400 210/06 RMK AO2
63870K0J4 0J420160510185010105/10/16 18:50:31  5-MIN K0J4 102350Z AUTO 20004KT 10SM FEW029 25/18 A3012 130 66 1400 200/04 RMK AO2
63870K0J4 0J420160510185513605/10/16 18:55:31  5-MIN K0J4 102355Z AUTO 21007KT 10SM FEW029 24/18 A3012 130 68 1300 210/07 RMK AO2 SLP195 T02440183 10272 20239 58013
63870K0J4 0J420160510190009805/10/16 19:00:31  5-MIN K0J4 110000Z AUTO 20006KT 10SM CLR 24/18 A3012 130 68 1300 200/06 RMK AO2
63870K0J4 0J420160510190509805/10/16 19:05:31  5-MIN K0J4 110005Z AUTO 20007KT 10SM CLR 24/18 A3012 130 68 1300 200/07 RMK AO2
63870K0J4 0J420160510191009805/10/16 19:10:31  5-MIN K0J4 110010Z AUTO 20007KT 10SM CLR 24/18 A3012 130 66 1300 200/07 RMK AO2
63870K0J4 0J420160510191509805/10/16 19:15:31  5-MIN K0J4 110015Z AUTO 20005KT 10SM CLR 24/18 A3013 130 71 1200 200/05 RMK AO2
63870K0J4 0J420160510192009805/10/16 19:20:31  5-MIN K0J4 110020Z AUTO 20006KT 10SM CLR 24/18 A3013 130 71 1200 200/06 RMK AO2
63870K0J4 0J420160510192509805/10/16 19:25:31  5-MIN K0J4 110025Z AUTO 19004KT 10SM CLR 24/18 A3013 120 71 1200 190/04 RMK AO2
63870K0J4 0J420160510193009805/10/16 19:30:31  5-MIN K0J4 110030Z AUTO 19003KT 10SM CLR 23/18 A3013 120 76 1100 190/03 RMK AO2
63870K0J4 0J420160510193509805/10/16 19:35:31  5-MIN K0J4 110035Z AUTO 18003KT 10SM CLR 23/18 A3013 120 76 1100 180/03 RMK AO2
63870K0J4 0J420160510194009805/10/16 19:40:31  5-MIN K0J4 110040Z AUTO 00000KT 10SM CLR 23/18 A3013 120 76 1100 000/00 RMK AO2
63870K0J4 0J420160510194509805/10/16 19:45:31  5-MIN K0J4 110045Z AUTO 18003KT 10SM CLR 22/18 A3013 120 78 1000 180/03 RMK AO2
63870K0J4 0J420160510195009805/10/16 19:50:31  5-MIN K0J4 110050Z AUTO 18003KT 10SM CLR 22/18 A3014 120 78 1000 180/03 RMK AO2
63870K0J4 0J420160510195511505/10/16 19:55:31  5-MIN K0J4 110055Z AUTO 00000KT 10SM CLR 22/18 A3014 120 81 1000 000/00 RMK AO2 SLP201 T02170183
63870K0J4 0J420160510200009805/10/16 20:00:31  5-MIN K0J4 110100Z AUTO 00000KT 10SM CLR 22/18 A3014 120 81 1000 000/00 RMK AO2
63870K0J4 0J420160510200509805/10/16 20:05:31  5-MIN K0J4 110105Z AUTO 00000KT 10SM CLR 22/18 A3014 120 81 1000 000/00 RMK AO2
63870K0J4 0J420160510201009805/10/16 20:10:31  5-MIN K0J4 110110Z AUTO 00000KT 10SM CLR 22/18 A3014 120 81 1000 000/00 RMK AO2
63870K0J4 0J420160510201509705/10/16 20:15:31  5-MIN K0J4 110115Z AUTO 19003KT 10SM CLR 21/18 A3014 120 84 900 190/03 RMK AO2
63870K0J4 0J420160510202009705/10/16 20:20:31  5-MIN K0J4 110120Z AUTO 20003KT 10SM CLR 21/18 A3014 110 84 900 200/03 RMK AO2
63870K0J4 0J420160510202509705/10/16 20:25:31  5-MIN K0J4 110125Z AUTO 00000KT 10SM CLR 21/18 A3014 110 84 900 000/00 RMK AO2
63870K0J4 0J420160510203009705/10/16 20:30:31  5-MIN K0J4 110130Z AUTO 00000KT 10SM CLR 21/18 A3014 110 84 900 000/00 RMK AO2
63870K0J4 0J420160510203509705/10/16 20:35:31  5-MIN K0J4 110135Z AUTO 19003KT 10SM CLR 21/18 A3014 110 84 900 190/03 RMK AO2
63870K0J4 0J420160510204009705/10/16 20:40:31  5-MIN K0J4 110140Z AUTO 19003KT 10SM CLR 21/18 A3014 110 87 800 190/03 RMK AO2
63870K0J4 0J420160510204509705/10/16 20:45:31  5-MIN K0J4 110145Z AUTO 00000KT 10SM CLR 21/18 A3014 110 87 800 000/00 RMK AO2
63870K0J4 0J420160510205009705/10/16 20:50:31  5-MIN K0J4 110150Z AUTO 00000KT 10SM CLR 21/18 A3014 110 84 900 000/00 RMK AO2
63870K0J4 0J420160510205511405/10/16 20:55:31  5-MIN K0J4 110155Z AUTO 00000KT 10SM CLR 21/18 A3014 110 87 800 000/00 RMK AO2 SLP203 T02060183
63870K0J4 0J420160510210009705/10/16 21:00:31  5-MIN K0J4 110200Z AUTO 00000KT 10SM CLR 21/18 A3014 110 84 900 000/00 RMK AO2
63870K0J4 0J420160510210509705/10/16 21:05:31  5-MIN K0J4 110205Z AUTO 00000KT 10SM CLR 21/18 A3014 110 87 800 000/00 RMK AO2
63870K0J4 0J420160510211009705/10/16 21:10:31  5-MIN K0J4 110210Z AUTO 00000KT 10SM CLR 21/18 A3014 110 87 800 000/00 RMK AO2
63870K0J4 0J420160510211509705/10/16 21:15:31  5-MIN K0J4 110215Z AUTO 00000KT 10SM CLR 21/18 A3014 110 87 800 000/00 RMK AO2
63870K0J4 0J420160510212009705/10/16 21:20:31  5-MIN K0J4 110220Z AUTO 00000KT 10SM CLR 20/18 A3015 110 90 800 000/00 RMK AO2
63870K0J4 0J420160510212509705/10/16 21:25:31  5-MIN K0J4 110225Z AUTO 00000KT 10SM CLR 19/18 A3015 110 93 700 000/00 RMK AO2
63870K0J4 0J420160510213009705/10/16 21:30:31  5-MIN K0J4 110230Z AUTO 00000KT 10SM CLR 19/18 A3014 110 90 700 000/00 RMK AO2
63870K0J4 0J420160510213509705/10/16 21:35:31  5-MIN K0J4 110235Z AUTO 00000KT 10SM CLR 20/18 A3015 110 90 800 000/00 RMK AO2
63870K0J4 0J420160510214009705/10/16 21:40:31  5-MIN K0J4 110240Z AUTO 00000KT 10SM CLR 20/18 A3015 110 90 800 000/00 RMK AO2
63870K0J4 0J420160510214509705/10/16 21:45:31  5-MIN K0J4 110245Z AUTO 00000KT 10SM CLR 19/18 A3015 100 93 700 000/00 RMK AO2
63870K0J4 0J420160510215010005/10/16 21:50:31  5-MIN K0J4 110250Z AUTO 00000KT 10SM FEW070 19/18 A3015 100 90 700 000/00 RMK AO2
63870K0J4 0J420160510215512305/10/16 21:55:31  5-MIN K0J4 110255Z AUTO 00000KT 10SM FEW070 20/18 A3015 100 90 800 000/00 RMK AO2 SLP207 T02000183 52003
63870K0J4 0J420160510220010005/10/16 22:00:31  5-MIN K0J4 110300Z AUTO 00000KT 10SM FEW070 19/18 A3015 100 93 700 000/00 RMK AO2
63870K0J4 0J420160510220509705/10/16 22:05:31  5-MIN K0J4 110305Z AUTO 17003KT 10SM CLR 19/18 A3015 100 90 700 170/03 RMK AO2
63870K0J4 0J420160510221009705/10/16 22:10:31  5-MIN K0J4 110310Z AUTO 17003KT 10SM CLR 19/18 A3015 100 93 700 170/03 RMK AO2
63870K0J4 0J420160510221509705/10/16 22:15:31  5-MIN K0J4 110315Z AUTO 00000KT 10SM CLR 19/18 A3015 100 93 700 000/00 RMK AO2
63870K0J4 0J420160510222009705/10/16 22:20:31  5-MIN K0J4 110320Z AUTO 00000KT 10SM CLR 20/18 A3015 100 90 800 000/00 RMK AO2
63870K0J4 0J420160510222509705/10/16 22:25:31  5-MIN K0J4 110325Z AUTO 00000KT 10SM CLR 20/18 A3015 100 90 800 000/00 RMK AO2
63870K0J4 0J420160510223009705/10/16 22:30:31  5-MIN K0J4 110330Z AUTO 00000KT 10SM CLR 20/18 A3015 100 90 800 000/00 RMK AO2
63870K0J4 0J420160510223509705/10/16 22:35:31  5-MIN K0J4 110335Z AUTO 00000KT 10SM CLR 19/18 A3015 100 93 700 000/00 RMK AO2
63870K0J4 0J420160510224009705/10/16 22:40:31  5-MIN K0J4 110340Z AUTO 00000KT 10SM CLR 19/18 A3015 100 93 700 000/00 RMK AO2
63870K0J4 0J420160510224509705/10/16 22:45:31  5-MIN K0J4 110345Z AUTO 00000KT 10SM CLR 19/18 A3015 100 93 600 000/00 RMK AO2
63870K0J4 0J420160510225009705/10/16 22:50:31  5-MIN K0J4 110350Z AUTO 00000KT 10SM CLR 19/18 A3015 100 93 600 000/00 RMK AO2
63870K0J4 0J420160510225511405/10/16 22:55:31  5-MIN K0J4 110355Z AUTO 00000KT 10SM CLR 19/18 A3015 110 93 600 000/00 RMK AO2 SLP205 T01890178
63870K0J4 0J420160510230009705/10/16 23:00:31  5-MIN K0J4 110400Z AUTO 00000KT 10SM CLR 18/17 A3015 110 93 600 000/00 RMK AO2
63870K0J4 0J420160510230509705/10/16 23:05:31  5-MIN K0J4 110405Z AUTO 00000KT 10SM CLR 19/18 A3015 110 93 700 000/00 RMK AO2
63870K0J4 0J420160510231009705/10/16 23:10:31  5-MIN K0J4 110410Z AUTO 00000KT 10SM CLR 19/18 A3015 110 97 600 000/00 RMK AO2
63870K0J4 0J420160510231509705/10/16 23:15:31  5-MIN K0J4 110415Z AUTO 00000KT 10SM CLR 19/18 A3014 110 93 600 000/00 RMK AO2
63870K0J4 0J420160510232009705/10/16 23:20:31  5-MIN K0J4 110420Z AUTO 00000KT 10SM CLR 19/18 A3014 110 93 600 000/00 RMK AO2
63870K0J4 0J420160510232509705/10/16 23:25:31  5-MIN K0J4 110425Z AUTO 00000KT 10SM CLR 19/18 A3014 110 97 600 000/00 RMK AO2
63870K0J4 0J420160510233009605/10/16 23:30:31  5-MIN K0J4 110430Z AUTO 00000KT 9SM CLR 18/17 A3014 110 93 600 000/00 RMK AO2
63870K0J4 0J420160510233509605/10/16 23:35:31  5-MIN K0J4 110435Z AUTO 00000KT 9SM CLR 18/17 A3014 110 93 600 000/00 RMK AO2
63870K0J4 0J420160510234009605/10/16 23:40:31  5-MIN K0J4 110440Z AUTO 00000KT 9SM CLR 18/17 A3014 110 93 500 000/00 RMK AO2
63870K0J4 0J420160510234509705/10/16 23:45:31  5-MIN K0J4 110445Z AUTO 00000KT 10SM CLR 18/16 A3014 110 90 500 000/00 RMK AO2
63870K0J4 0J420160510235009705/10/16 23:50:31  5-MIN K0J4 110450Z AUTO 00000KT 10SM CLR 18/16 A3014 110 90 500 000/00 RMK AO2
63870K0J4 0J420160510235512405/10/16 23:55:31  5-MIN K0J4 110455Z AUTO 00000KT 10SM CLR 18/16 A3014 110 90 500 000/00 RMK AO2 SLP203 T01780161 402720178
63870K0J4 0J420160511000009705/11/16 00:00:31  5-MIN K0J4 110500Z AUTO 00000KT 10SM CLR 18/16 A3014 110 90 500 000/00 RMK AO2
63870K0J4 0J420160511000509705/11/16 00:05:31  5-MIN K0J4 110505Z AUTO 00000KT 10SM CLR 18/17 A3014 110 93 500 000/00 RMK AO2
63870K0J4 0J420160511001009705/11/16 00:10:31  5-MIN K0J4 110510Z AUTO 00000KT 10SM CLR 18/17 A3014 120 93 500 000/00 RMK AO2
63870K0J4 0J420160511001509705/11/16 00:15:31  5-MIN K0J4 110515Z AUTO 00000KT 10SM CLR 18/17 A3014 120 93 500 000/00 RMK AO2
63870K0J4 0J420160511002009605/11/16 00:20:31  5-MIN K0J4 110520Z AUTO 00000KT 8SM CLR 17/16 A3014 120 93 400 000/00 RMK AO2
63870K0J4 0J420160511002509905/11/16 00:25:31  5-MIN K0J4 110525Z AUTO 00000KT 6SM BR CLR 18/17 A3014 120 93 500 000/00 RMK AO2
63870K0J4 0J420160511003011305/11/16 00:30:31  5-MIN K0J4 110530Z AUTO 00000KT 1 3/4SM BR CLR 18/17 A3014 110 96 500 000/00 RMK AO2 VIS 3/4V5
63870K0J4 0J420160511003510105/11/16 00:35:31  5-MIN K0J4 110535Z AUTO 00000KT 1SM BR VV009 18/17 A3014 120 93 500 000/00 RMK AO2
63870K0J4 0J420160511004010605/11/16 00:40:31  5-MIN K0J4 110540Z AUTO 00000KT 1 1/2SM BR FEW009 18/17 A3014 120 96 500 000/00 RMK AO2
63870K0J4 0J420160511004509905/11/16 00:45:31  5-MIN K0J4 110545Z AUTO 00000KT 5SM BR CLR 17/17 A3014 120 96 400 000/00 RMK AO2
63870K0J4 0J420160511005009605/11/16 00:50:31  5-MIN K0J4 110550Z AUTO 00000KT 7SM CLR 18/17 A3014 120 93 500 000/00 RMK AO2
63870K0J4 0J420160511005513105/11/16 00:55:31  5-MIN K0J4 110555Z AUTO 00000KT 8SM CLR 17/16 A3014 120 93 400 000/00 RMK AO2 SLP202 T01720161 10244 20172 51011
63870K0J4 0J420160511010009705/11/16 01:00:31  5-MIN K0J4 110600Z AUTO 00000KT 10SM CLR 17/16 A3014 120 93 400 000/00 RMK AO2
63870K0J4 0J420160511010509805/11/16 01:05:31  5-MIN K0J4 110605Z AUTO 00000KT 8SM CLR 17/16 A3014 120 93 400 000/00 RMK AO2 $
63870K0J4 0J420160511011010505/11/16 01:10:31  5-MIN K0J4 110610Z AUTO 00000KT 2 1/2SM BR CLR 18/17 A3013 120 96 500 000/00 RMK AO2 $
63870K0J4 0J420160511011510105/11/16 01:15:31  5-MIN K0J4 110615Z AUTO 00000KT 2SM BR CLR 17/17 A3013 120 96 500 000/00 RMK AO2 $
63870K0J4 0J420160511012010105/11/16 01:20:31  5-MIN K0J4 110620Z AUTO 00000KT 3SM BR CLR 17/17 A3013 120 96 500 000/00 RMK AO2 $
63870K0J4 0J420160511012509805/11/16 01:25:31  5-MIN K0J4 110625Z AUTO 00000KT 7SM CLR 17/16 A3013 120 93 500 000/00 RMK AO2 $
63870K0J4 0J420160511013009805/11/16 01:30:31  5-MIN K0J4 110630Z AUTO 00000KT 7SM CLR 17/16 A3013 120 93 500 000/00 RMK AO2 $
63870K0J4 0J420160511013510105/11/16 01:35:31  5-MIN K0J4 110635Z AUTO 00000KT 5SM BR CLR 17/16 A3013 130 90 500 000/00 RMK AO2 $
63870K0J4 0J420160511014010105/11/16 01:40:31  5-MIN K0J4 110640Z AUTO 00000KT 4SM BR CLR 17/16 A3013 130 93 400 000/00 RMK AO2 $
63870K0J4 0J420160511014510105/11/16 01:45:31  5-MIN K0J4 110645Z AUTO 00000KT 4SM BR CLR 17/16 A3013 130 90 500 000/00 RMK AO2 $
63870K0J4 0J420160511015010105/11/16 01:50:31  5-MIN K0J4 110650Z AUTO 00000KT 6SM BR CLR 18/16 A3012 130 90 500 000/00 RMK AO2 $
63870K0J4 0J420160511015511505/11/16 01:55:31  5-MIN K0J4 110655Z AUTO 00000KT 8SM CLR 18/17 A3012 130 93 500 000/00 RMK AO2 SLP197 T01780167 $
63870K0J4 0J420160511020009805/11/16 02:00:31  5-MIN K0J4 110700Z AUTO 00000KT 7SM CLR 17/17 A3012 130 96 500 000/00 RMK AO2 $
63870K0J4 0J420160511020509805/11/16 02:05:31  5-MIN K0J4 110705Z AUTO 00000KT 8SM CLR 17/16 A3012 130 93 400 000/00 RMK AO2 $
63870K0J4 0J420160511021009805/11/16 02:10:31  5-MIN K0J4 110710Z AUTO 00000KT 8SM CLR 17/16 A3012 130 90 500 000/00 RMK AO2 $
63870K0J4 0J420160511021509805/11/16 02:15:31  5-MIN K0J4 110715Z AUTO 00000KT 8SM CLR 17/16 A3012 130 93 400 000/00 RMK AO2 $
63870K0J4 0J420160511022009805/11/16 02:20:31  5-MIN K0J4 110720Z AUTO 00000KT 8SM CLR 17/16 A3012 130 90 500 000/00 RMK AO2 $
63870K0J4 0J420160511022510105/11/16 02:25:31  5-MIN K0J4 110725Z AUTO 00000KT 3SM BR CLR 18/17 A3013 130 93 500 000/00 RMK AO2 $
63870K0J4 0J420160511023010905/11/16 02:30:31  5-MIN K0J4 110730Z AUTO 00000KT 2SM BR CLR 17/17 A3012 130 96 500 000/00 RMK AO2 VIS 1V5 $
63870K0J4 0J420160511023510505/11/16 02:35:31  5-MIN K0J4 110735Z AUTO 00000KT 2 1/2SM BR CLR 17/16 A3012 130 93 500 000/00 RMK AO2 $
63870K0J4 0J420160511024010105/11/16 02:40:31  5-MIN K0J4 110740Z AUTO 00000KT 6SM BR CLR 17/16 A3013 130 96 400 000/00 RMK AO2 $
63870K0J4 0J420160511024509805/11/16 02:45:31  5-MIN K0J4 110745Z AUTO 00000KT 7SM CLR 17/15 A3013 130 90 400 000/00 RMK AO2 $
63870K0J4 0J420160511025009805/11/16 02:50:31  5-MIN K0J4 110750Z AUTO 00000KT 8SM CLR 17/15 A3012 130 90 400 000/00 RMK AO2 $
63870K0J4 0J420160511025511505/11/16 02:55:31  5-MIN K0J4 110755Z AUTO 00000KT 9SM CLR 17/15 A3013 130 90 400 000/00 RMK AO2 SLP198 T01670150 $
63870K0J4 0J420160511030009905/11/16 03:00:31  5-MIN K0J4 110800Z AUTO 00000KT 10SM CLR 16/14 A3013 130 90 300 000/00 RMK AO2 $
63870K0J4 0J420160511030509905/11/16 03:05:31  5-MIN K0J4 110805Z AUTO 00000KT 10SM CLR 16/14 A3012 130 90 300 000/00 RMK AO2 $
63870K0J4 0J420160511031009905/11/16 03:10:31  5-MIN K0J4 110810Z AUTO 00000KT 10SM CLR 16/14 A3013 120 90 300 000/00 RMK AO2 $
63870K0J4 0J420160511031509905/11/16 03:15:31  5-MIN K0J4 110815Z AUTO 00000KT 10SM CLR 17/15 A3013 120 90 400 000/00 RMK AO2 $
63870K0J4 0J420160511032009905/11/16 03:20:31  5-MIN K0J4 110820Z AUTO 00000KT 10SM CLR 16/15 A3013 130 93 300 000/00 RMK AO2 $
63870K0J4 0J420160511032509805/11/16 03:25:31  5-MIN K0J4 110825Z AUTO 00000KT 9SM CLR 17/15 A3013 130 90 400 000/00 RMK AO2 $
63870K0J4 0J420160511033009805/11/16 03:30:31  5-MIN K0J4 110830Z AUTO 00000KT 9SM CLR 17/15 A3013 130 90 400 000/00 RMK AO2 $
63870K0J4 0J420160511033509905/11/16 03:35:31  5-MIN K0J4 110835Z AUTO 00000KT 10SM CLR 17/16 A3013 130 93 400 000/00 RMK AO2 $
63870K0J4 0J420160511034009905/11/16 03:40:31  5-MIN K0J4 110840Z AUTO 00000KT 10SM CLR 18/17 A3013 130 93 500 000/00 RMK AO2 $
63870K0J4 0J420160511034509905/11/16 03:45:31  5-MIN K0J4 110845Z AUTO 00000KT 10SM CLR 16/15 A3013 120 93 300 000/00 RMK AO2 $
63870K0J4 0J420160511035009905/11/16 03:50:31  5-MIN K0J4 110850Z AUTO 00000KT 10SM CLR 16/16 A3013 120 96 300 000/00 RMK AO2 $
63870K0J4 0J420160511035512205/11/16 03:55:31  5-MIN K0J4 110855Z AUTO 00000KT 10SM CLR 17/16 A3013 120 93 400 000/00 RMK AO2 SLP200 T01670156 56005 $
63870K0J4 0J420160511040009905/11/16 04:00:31  5-MIN K0J4 110900Z AUTO 00000KT 10SM CLR 17/16 A3013 120 96 400 000/00 RMK AO2 $
63870K0J4 0J420160511040509905/11/16 04:05:31  5-MIN K0J4 110905Z AUTO 00000KT 10SM CLR 16/15 A3013 120 93 300 000/00 RMK AO2 $
63870K0J4 0J420160511041009905/11/16 04:10:31  5-MIN K0J4 110910Z AUTO 00000KT 10SM CLR 17/16 A3012 130 93 400 000/00 RMK AO2 $
63870K0J4 0J420160511041509805/11/16 04:15:31  5-MIN K0J4 110915Z AUTO 00000KT 9SM CLR 17/16 A3013 130 93 400 000/00 RMK AO2 $
63870K0J4 0J420160511042009805/11/16 04:20:31  5-MIN K0J4 110920Z AUTO 00000KT 9SM CLR 17/16 A3013 130 93 400 000/00 RMK AO2 $
63870K0J4 0J420160511042509905/11/16 04:25:31  5-MIN K0J4 110925Z AUTO 00000KT 10SM CLR 16/15 A3013 120 96 300 000/00 RMK AO2 $
63870K0J4 0J420160511043009905/11/16 04:30:31  5-MIN K0J4 110930Z AUTO 00000KT 10SM CLR 16/14 A3013 120 93 300 000/00 RMK AO2 $
63870K0J4 0J420160511043509905/11/16 04:35:31  5-MIN K0J4 110935Z AUTO 00000KT 10SM CLR 16/14 A3013 120 90 300 000/00 RMK AO2 $
63870K0J4 0J420160511044009905/11/16 04:40:31  5-MIN K0J4 110940Z AUTO 00000KT 10SM CLR 16/14 A3013 120 90 300 000/00 RMK AO2 $
63870K0J4 0J420160511044510505/11/16 04:45:31  5-MIN K0J4 110945Z AUTO 00000KT 10SM CLR 17/16 A3013 120 93 400 000/00 RMK AO2 P0001 $
63870K0J4 0J420160511045010505/11/16 04:50:31  5-MIN K0J4 110950Z AUTO 00000KT 10SM CLR 17/16 A3013 120 93 400 000/00 RMK AO2 P0001 $
63870K0J4 0J420160511045512105/11/16 04:55:31  5-MIN K0J4 110955Z AUTO 00000KT 9SM CLR 17/16 A3014 120 93 400 000/00 RMK AO2 SLP201 P0001 T01670156 $
63870K0J4 0J420160511050009805/11/16 05:00:31  5-MIN K0J4 111000Z AUTO 00000KT 9SM CLR 16/16 A3014 120 96 300 000/00 RMK AO2 $
63870K0J4 0J420160511050509905/11/16 05:05:31  5-MIN K0J4 111005Z AUTO 00000KT 10SM CLR 17/16 A3014 110 93 400 000/00 RMK AO2 $
63870K0J4 0J420160511051009805/11/16 05:10:31  5-MIN K0J4 111010Z AUTO 00000KT 9SM CLR 16/16 A3014 110 96 300 000/00 RMK AO2 $
63870K0J4 0J420160511051509805/11/16 05:15:31  5-MIN K0J4 111015Z AUTO 00000KT 9SM CLR 16/16 A3014 110 96 300 000/00 RMK AO2 $
63870K0J4 0J420160511052009805/11/16 05:20:31  5-MIN K0J4 111020Z AUTO 00000KT 9SM CLR 16/16 A3014 110 96 300 000/00 RMK AO2 $
63870K0J4 0J420160511052509805/11/16 05:25:31  5-MIN K0J4 111025Z AUTO 00000KT 9SM CLR 17/16 A3015 110 93 400 000/00 RMK AO2 $
63870K0J4 0J420160511053009805/11/16 05:30:31  5-MIN K0J4 111030Z AUTO 00000KT 9SM CLR 17/16 A3015 110 93 400 000/00 RMK AO2 $
63870K0J4 0J420160511053509905/11/16 05:35:31  5-MIN K0J4 111035Z AUTO 00000KT 10SM CLR 17/16 A3015 110 96 400 000/00 RMK AO2 $
63870K0J4 0J420160511054009905/11/16 05:40:31  5-MIN K0J4 111040Z AUTO 00000KT 10SM CLR 17/16 A3015 110 93 400 000/00 RMK AO2 $
63870K0J4 0J420160511054509805/11/16 05:45:31  5-MIN K0J4 111045Z AUTO 00000KT 8SM CLR 17/16 A3015 110 96 400 000/00 RMK AO2 $
63870K0J4 0J420160511055009805/11/16 05:50:31  5-MIN K0J4 111050Z AUTO 00000KT 8SM CLR 17/16 A3015 110 96 400 000/00 RMK AO2 $
63870K0J4 0J420160511055511505/11/16 05:55:31  5-MIN K0J4 111055Z AUTO 00000KT 8SM CLR 17/16 A3015 100 96 400 000/00 RMK AO2 SLP206 T01670161 $
63870K0J4 0J420160511060009805/11/16 06:00:31  5-MIN K0J4 111100Z AUTO 00000KT 7SM CLR 17/16 A3015 100 96 400 000/00 RMK AO2 $
63870K0J4 0J420160511060509805/11/16 06:05:31  5-MIN K0J4 111105Z AUTO 00000KT 7SM CLR 17/16 A3015 100 96 400 000/00 RMK AO2 $
63870K0J4 0J420160511075008505/11/16 07:50:31  5-MIN K0J4 111250Z AUTO M M M M /M RMK AO2 PWINO FZRANO TSNO PNO $
63870K0J4 0J420160511075509105/11/16 07:55:31  5-MIN K0J4 111255Z AUTO M M M M /M RMK AO2 SLPNO PWINO FZRANO TSNO PNO $
63870K0J4 0J420160511080009205/11/16 08:00:31  5-MIN K0J4 111300Z AUTO 00000KT 10SM 21/19 A3019 70 87 800 000/00 RMK AO2
63870K0J4 0J420160511080509205/11/16 08:05:31  5-MIN K0J4 111305Z AUTO 00000KT 10SM 21/19 A3019 70 87 800 000/00 RMK AO2
63870K0J4 0J420160511081009205/11/16 08:10:31  5-MIN K0J4 111310Z AUTO 00000KT 10SM 21/18 A3019 70 84 800 000/00 RMK AO2
63870K0J4 0J420160511081509205/11/16 08:15:31  5-MIN K0J4 111315Z AUTO 00000KT 10SM 22/18 A3019 70 81 900 000/00 RMK AO2
63870K0J4 0J420160511082009705/11/16 08:20:31  5-MIN K0J4 111320Z AUTO 00000KT 10SM CLR 22/19 A3019 70 81 1000 000/00 RMK AO2
63870K0J4 0J420160511082509705/11/16 08:25:31  5-MIN K0J4 111325Z AUTO 00000KT 10SM CLR 22/18 A3019 70 78 1000 000/00 RMK AO2
63870K0J4 0J420160511083009705/11/16 08:30:31  5-MIN K0J4 111330Z AUTO 00000KT 10SM CLR 23/18 A3019 70 76 1000 000/00 RMK AO2
63870K0J4 0J420160511083509705/11/16 08:35:31  5-MIN K0J4 111335Z AUTO 15003KT 10SM CLR 23/18 A3019 70 73 1000 150/03 RMK AO2
63870K0J4 0J420160511084009705/11/16 08:40:31  5-MIN K0J4 111340Z AUTO 00000KT 10SM CLR 23/18 A3019 70 70 1100 000/00 RMK AO2
63870K0J4 0J420160511084509705/11/16 08:45:31  5-MIN K0J4 111345Z AUTO 20004KT 10SM CLR 23/18 A3019 70 70 1100 200/04 RMK AO2
63870K0J4 0J420160511085009705/11/16 08:50:31  5-MIN K0J4 111350Z AUTO 17003KT 10SM CLR 23/17 A3019 70 66 1100 170/03 RMK AO2
63870K0J4 0J420160511085511305/11/16 08:55:31  5-MIN K0J4 111355Z AUTO VRB03KT 10SM CLR 24/17 A3019 70 63 1200 VRB/03 RMK AO2 SLPNO T02390167
63870K0J4 0J420160511090009705/11/16 09:00:31  5-MIN K0J4 111400Z AUTO 00000KT 10SM CLR 24/17 A3019 70 63 1200 000/00 RMK AO2
63870K0J4 0J420160511090509705/11/16 09:05:31  5-MIN K0J4 111405Z AUTO 20005KT 10SM CLR 24/16 A3019 60 57 1200 200/05 RMK AO2
63870K0J4 0J420160511091009705/11/16 09:10:31  5-MIN K0J4 111410Z AUTO 21005KT 10SM CLR 24/15 A3019 70 55 1200 210/05 RMK AO2
63870K0J4 0J420160511091509705/11/16 09:15:31  5-MIN K0J4 111415Z AUTO 19005KT 10SM CLR 24/15 A3019 60 55 1200 190/05 RMK AO2
63870K0J4 0J420160511092009705/11/16 09:20:31  5-MIN K0J4 111420Z AUTO VRB04KT 10SM CLR 24/15 A3019 70 55 1200 VRB/04 RMK AO2
63870K0J4 0J420160511092509705/11/16 09:25:31  5-MIN K0J4 111425Z AUTO 15004KT 10SM CLR 25/15 A3019 70 53 1300 150/04 RMK AO2
63870K0J4 0J420160511093009705/11/16 09:30:31  5-MIN K0J4 111430Z AUTO VRB03KT 10SM CLR 25/15 A3019 70 53 1300 VRB/03 RMK AO2
63870K0J4 0J420160511093509705/11/16 09:35:31  5-MIN K0J4 111435Z AUTO 18005KT 10SM CLR 25/14 A3019 70 51 1300 180/05 RMK AO2
63870K0J4 0J420160511094009705/11/16 09:40:31  5-MIN K0J4 111440Z AUTO 16005KT 10SM CLR 26/15 A3019 70 51 1300 160/05 RMK AO2
63870K0J4 0J420160511094509705/11/16 09:45:31  5-MIN K0J4 111445Z AUTO 19005KT 10SM CLR 26/14 A3019 70 49 1300 190/05 RMK AO2
63870K0J4 0J420160511095009705/11/16 09:50:31  5-MIN K0J4 111450Z AUTO 00000KT 10SM CLR 25/14 A3019 70 51 1300 000/00 RMK AO2
63870K0J4 0J420160511095511905/11/16 09:55:31  5-MIN K0J4 111455Z AUTO 17004KT 10SM CLR 26/14 A3019 70 49 1300 170/04 RMK AO2 SLPNO 6//// T02560144
63870K0J4 0J420160511100009705/11/16 10:00:31  5-MIN K0J4 111500Z AUTO VRB04KT 10SM CLR 26/14 A3019 70 48 1400 VRB/04 RMK AO2
63870K0J4 0J420160511100509705/11/16 10:05:31  5-MIN K0J4 111505Z AUTO 20006KT 10SM CLR 26/14 A3018 70 48 1400 200/06 RMK AO2
63870K0J4 0J420160511101009705/11/16 10:10:31  5-MIN K0J4 111510Z AUTO 25003KT 10SM CLR 26/14 A3019 70 49 1400 250/03 RMK AO2
63870K0J4 0J420160511101509705/11/16 10:15:31  5-MIN K0J4 111515Z AUTO 15004KT 10SM CLR 26/14 A3019 70 48 1400 150/04 RMK AO2
63870K0J4 0J420160511102009705/11/16 10:20:31  5-MIN K0J4 111520Z AUTO 10003KT 10SM CLR 26/14 A3019 70 48 1400 100/03 RMK AO2
63870K0J4 0J420160511102509705/11/16 10:25:31  5-MIN K0J4 111525Z AUTO 00000KT 10SM CLR 27/14 A3019 70 46 1500 000/00 RMK AO2
63870K0J4 0J420160511103009705/11/16 10:30:31  5-MIN K0J4 111530Z AUTO VRB06KT 10SM CLR 27/15 A3019 70 46 1500 VRB/06 RMK AO2
63870K0J4 0J420160511103509705/11/16 10:35:31  5-MIN K0J4 111535Z AUTO 20006KT 10SM CLR 26/14 A3019 70 48 1400 200/06 RMK AO2
63870K0J4 0J420160511104009705/11/16 10:40:31  5-MIN K0J4 111540Z AUTO 19006KT 10SM CLR 27/14 A3019 70 46 1500 190/06 RMK AO2
63870K0J4 0J420160511104509705/11/16 10:45:31  5-MIN K0J4 111545Z AUTO 00000KT 10SM CLR 27/14 A3019 70 45 1500 000/00 RMK AO2
63870K0J4 0J420160511105009705/11/16 10:50:31  5-MIN K0J4 111550Z AUTO 22004KT 10SM CLR 27/14 A3019 70 45 1500 220/04 RMK AO2
63870K0J4 0J420160511105511305/11/16 10:55:31  5-MIN K0J4 111555Z AUTO 22004KT 10SM CLR 27/14 A3019 70 46 1500 220/04 RMK AO2 SLPNO T02670144
63870K0J4 0J420160511110009705/11/16 11:00:31  5-MIN K0J4 111600Z AUTO VRB04KT 10SM CLR 27/14 A3019 60 45 1500 VRB/04 RMK AO2
63870K0J4 0J420160511110509705/11/16 11:05:31  5-MIN K0J4 111605Z AUTO VRB03KT 10SM CLR 27/14 A3019 60 45 1500 VRB/03 RMK AO2
63870K0J4 0J420160511111009705/11/16 11:10:31  5-MIN K0J4 111610Z AUTO VRB04KT 10SM CLR 27/14 A3020 60 45 1500 VRB/04 RMK AO2
63870K0J4 0J420160511111509705/11/16 11:15:31  5-MIN K0J4 111615Z AUTO VRB03KT 10SM CLR 27/14 A3020 60 45 1500 VRB/03 RMK AO2
63870K0J4 0J420160511112009705/11/16 11:20:31  5-MIN K0J4 111620Z AUTO 32004KT 10SM CLR 27/13 A3020 60 42 1500 320/04 RMK AO2
63870K0J4 0J420160511112509705/11/16 11:25:31  5-MIN K0J4 111625Z AUTO 20006KT 10SM CLR 27/14 A3020 60 45 1500 200/06 RMK AO2
63870K0J4 0J420160511113009705/11/16 11:30:31  5-MIN K0J4 111630Z AUTO 00000KT 10SM CLR 27/14 A3020 60 43 1500 000/00 RMK AO2
63870K0J4 0J420160511113509705/11/16 11:35:31  5-MIN K0J4 111635Z AUTO 20006KT 10SM CLR 28/14 A3020 60 42 1600 200/06 RMK AO2
63870K0J4 0J420160511114009705/11/16 11:40:31  5-MIN K0J4 111640Z AUTO 00000KT 10SM CLR 27/14 A3019 70 43 1500 000/00 RMK AO2
63870K0J4 0J420160511114509705/11/16 11:45:31  5-MIN K0J4 111645Z AUTO 00000KT 10SM CLR 28/14 A3019 70 42 1600 000/00 RMK AO2
63870K0J4 0J420160511115009705/11/16 11:50:31  5-MIN K0J4 111650Z AUTO VRB03KT 10SM CLR 28/14 A3019 70 42 1600 VRB/03 RMK AO2
63870K0J4 0J420160511115511305/11/16 11:55:31  5-MIN K0J4 111655Z AUTO 25005KT 10SM CLR 28/14 A3019 70 43 1600 250/05 RMK AO2 SLPNO T02780144
63870K0J4 0J420160511120009705/11/16 12:00:31  5-MIN K0J4 111700Z AUTO VRB04KT 10SM CLR 28/13 A3019 70 40 1600 VRB/04 RMK AO2
63870K0J4 0J420160511120509705/11/16 12:05:31  5-MIN K0J4 111705Z AUTO VRB04KT 10SM CLR 28/14 A3019 70 42 1600 VRB/04 RMK AO2
63870K0J4 0J420160511121009705/11/16 12:10:31  5-MIN K0J4 111710Z AUTO 00000KT 10SM CLR 28/14 A3018 70 42 1600 000/00 RMK AO2
63870K0J4 0J420160511121509705/11/16 12:15:31  5-MIN K0J4 111715Z AUTO 00000KT 10SM CLR 28/14 A3018 80 40 1700 000/00 RMK AO2
63870K0J4 0J420160511122009705/11/16 12:20:31  5-MIN K0J4 111720Z AUTO VRB04KT 10SM CLR 28/14 A3018 80 40 1700 VRB/04 RMK AO2
63870K0J4 0J420160511122509705/11/16 12:25:31  5-MIN K0J4 111725Z AUTO VRB03KT 10SM CLR 28/14 A3018 80 40 1700 VRB/03 RMK AO2
63870K0J4 0J420160511123009705/11/16 12:30:31  5-MIN K0J4 111730Z AUTO VRB03KT 10SM CLR 29/14 A3018 80 39 1700 VRB/03 RMK AO2
63870K0J4 0J420160511123509705/11/16 12:35:31  5-MIN K0J4 111735Z AUTO VRB03KT 10SM CLR 29/14 A3017 80 39 1700 VRB/03 RMK AO2
63870K0J4 0J420160511124009705/11/16 12:40:31  5-MIN K0J4 111740Z AUTO 16006KT 10SM CLR 29/14 A3017 90 39 1700 160/06 RMK AO2
63870K0J4 0J420160511124509705/11/16 12:45:31  5-MIN K0J4 111745Z AUTO 15007KT 10SM CLR 29/14 A3017 90 39 1700 150/07 RMK AO2
63870K0J4 0J420160511125009705/11/16 12:50:31  5-MIN K0J4 111750Z AUTO VRB03KT 10SM CLR 29/14 A3017 80 39 1700 VRB/03 RMK AO2
63870K0J4 0J420160511125511905/11/16 12:55:31  5-MIN K0J4 111755Z AUTO 20003KT 10SM CLR 28/14 A3017 90 40 1700 200/03 RMK AO2 SLPNO 6//// T02830139
63870K0J4 0J420160511130009705/11/16 13:00:31  5-MIN K0J4 111800Z AUTO VRB03KT 10SM CLR 28/13 A3017 90 39 1700 VRB/03 RMK AO2
63870K0J4 0J420160511130509705/11/16 13:05:31  5-MIN K0J4 111805Z AUTO 00000KT 10SM CLR 29/14 A3017 90 39 1700 000/00 RMK AO2
63870K0J4 0J420160511131009705/11/16 13:10:31  5-MIN K0J4 111810Z AUTO VRB03KT 10SM CLR 29/14 A3016 90 38 1800 VRB/03 RMK AO2
63870K0J4 0J420160511131509705/11/16 13:15:31  5-MIN K0J4 111815Z AUTO 13003KT 10SM CLR 29/14 A3016 90 38 1800 130/03 RMK AO2
63870K0J4 0J420160511132009805/11/16 13:20:31  5-MIN K0J4 111820Z AUTO 00000KT 10SM CLR 29/14 A3016 100 39 1800 000/00 RMK AO2
63870K0J4 0J420160511132509805/11/16 13:25:31  5-MIN K0J4 111825Z AUTO VRB03KT 10SM CLR 29/13 A3016 100 38 1800 VRB/03 RMK AO2
63870K0J4 0J420160511133009805/11/16 13:30:31  5-MIN K0J4 111830Z AUTO 00000KT 10SM CLR 29/13 A3016 100 36 1800 000/00 RMK AO2
63870K0J4 0J420160511133509805/11/16 13:35:31  5-MIN K0J4 111835Z AUTO 01003KT 10SM CLR 29/13 A3016 100 36 1800 010/03 RMK AO2
63870K0J4 0J420160511134009805/11/16 13:40:31  5-MIN K0J4 111840Z AUTO 03005KT 10SM CLR 29/14 A3015 100 38 1800 030/05 RMK AO2
63870K0J4 0J420160511134509805/11/16 13:45:31  5-MIN K0J4 111845Z AUTO 34004KT 10SM CLR 29/13 A3015 100 36 1800 340/04 RMK AO2
63870K0J4 0J420160511135010105/11/16 13:50:31  5-MIN K0J4 111850Z AUTO 00000KT 10SM FEW060 29/13 A3015 100 36 1800 000/00 RMK AO2
63870K0J4 0J420160511135511705/11/16 13:55:31  5-MIN K0J4 111855Z AUTO 00000KT 10SM FEW060 29/14 A3015 100 38 1800 000/00 RMK AO2 SLPNO T02940139
63870K0J4 0J420160511140010105/11/16 14:00:31  5-MIN K0J4 111900Z AUTO 00000KT 10SM FEW060 29/14 A3015 100 38 1800 000/00 RMK AO2
63870K0J4 0J420160511140510105/11/16 14:05:31  5-MIN K0J4 111905Z AUTO 00000KT 10SM SCT060 29/14 A3015 110 38 1800 000/00 RMK AO2
63870K0J4 0J420160511141010105/11/16 14:10:31  5-MIN K0J4 111910Z AUTO 16004KT 10SM BKN060 30/14 A3015 110 38 1900 160/04 RMK AO2
63870K0J4 0J420160511141510105/11/16 14:15:31  5-MIN K0J4 111915Z AUTO VRB03KT 10SM BKN060 29/15 A3014 110 41 1800 VRB/03 RMK AO2
63870K0J4 0J420160511142010105/11/16 14:20:31  5-MIN K0J4 111920Z AUTO 09005KT 10SM BKN060 30/14 A3014 110 38 1900 090/05 RMK AO2
63870K0J4 0J420160511142510105/11/16 14:25:31  5-MIN K0J4 111925Z AUTO 13003KT 10SM OVC060 30/14 A3014 110 38 1900 130/03 RMK AO2
63870K0J4 0J420160511143010105/11/16 14:30:31  5-MIN K0J4 111930Z AUTO VRB03KT 10SM BKN060 29/14 A3014 110 40 1800 VRB/03 RMK AO2
63870K0J4 0J420160511143510105/11/16 14:35:31  5-MIN K0J4 111935Z AUTO 05005KT 10SM BKN060 29/14 A3014 110 39 1800 050/05 RMK AO2
63870K0J4 0J420160511144010105/11/16 14:40:31  5-MIN K0J4 111940Z AUTO 02003KT 10SM BKN060 30/14 A3014 120 38 1900 020/03 RMK AO2
63870K0J4 0J420160511144510105/11/16 14:45:31  5-MIN K0J4 111945Z AUTO 36003KT 10SM SCT060 30/14 A3014 120 36 1900 360/03 RMK AO2
63870K0J4 0J420160511145010105/11/16 14:50:31  5-MIN K0J4 111950Z AUTO 05003KT 10SM FEW060 29/14 A3014 120 38 1800 050/03 RMK AO2
63870K0J4 0J420160511145511705/11/16 14:55:31  5-MIN K0J4 111955Z AUTO 04003KT 10SM FEW060 29/14 A3013 120 39 1800 040/03 RMK AO2 SLPNO T02940144
63870K0J4 0J420160511150010105/11/16 15:00:31  5-MIN K0J4 112000Z AUTO 00000KT 10SM FEW060 29/14 A3014 120 39 1800 000/00 RMK AO2
63870K0J4 0J420160511150509805/11/16 15:05:31  5-MIN K0J4 112005Z AUTO 00000KT 10SM CLR 29/14 A3014 120 38 1800 000/00 RMK AO2
63870K0J4 0J420160511151010105/11/16 15:10:31  5-MIN K0J4 112010Z AUTO VRB03KT 10SM FEW060 30/14 A3013 120 36 1900 VRB/03 RMK AO2
63870K0J4 0J420160511151510105/11/16 15:15:31  5-MIN K0J4 112015Z AUTO VRB03KT 10SM FEW060 29/14 A3013 120 38 1800 VRB/03 RMK AO2
63870K0J4 0J420160511152010105/11/16 15:20:31  5-MIN K0J4 112020Z AUTO VRB03KT 10SM FEW060 29/13 A3013 120 36 1900 VRB/03 RMK AO2
63870K0J4 0J420160511152510105/11/16 15:25:31  5-MIN K0J4 112025Z AUTO 10005KT 10SM FEW060 30/14 A3013 130 36 1900 100/05 RMK AO2
63870K0J4 0J420160511153010105/11/16 15:30:31  5-MIN K0J4 112030Z AUTO VRB03KT 10SM BKN065 30/14 A3013 130 36 1900 VRB/03 RMK AO2
63870K0J4 0J420160511153510105/11/16 15:35:31  5-MIN K0J4 112035Z AUTO VRB04KT 10SM SCT065 30/14 A3012 130 36 1900 VRB/04 RMK AO2
63870K0J4 0J420160511154010105/11/16 15:40:31  5-MIN K0J4 112040Z AUTO 03007KT 10SM FEW065 31/14 A3012 130 37 2000 030/07 RMK AO2
63870K0J4 0J420160511154510105/11/16 15:45:31  5-MIN K0J4 112045Z AUTO 04005KT 10SM FEW065 31/14 A3012 130 35 2000 040/05 RMK AO2
63870K0J4 0J420160511155010105/11/16 15:50:31  5-MIN K0J4 112050Z AUTO 06005KT 10SM FEW065 31/14 A3012 130 37 2000 060/05 RMK AO2
63870K0J4 0J420160511155512305/11/16 15:55:31  5-MIN K0J4 112055Z AUTO 08005KT 10SM FEW065 31/14 A3012 130 35 2000 080/05 RMK AO2 SLPNO T03060139 58007
63870K0J4 0J420160511160010105/11/16 16:00:31  5-MIN K0J4 112100Z AUTO 00000KT 10SM FEW070 31/13 A3012 130 34 2000 000/00 RMK AO2
63870K0J4 0J420160511160510105/11/16 16:05:31  5-MIN K0J4 112105Z AUTO VRB03KT 10SM FEW070 31/14 A3012 130 35 2000 VRB/03 RMK AO2
63870K0J4 0J420160511161010105/11/16 16:10:31  5-MIN K0J4 112110Z AUTO 00000KT 10SM FEW065 30/14 A3012 130 36 1900 000/00 RMK AO2
63870K0J4 0J420160511161509805/11/16 16:15:31  5-MIN K0J4 112115Z AUTO 00000KT 10SM CLR 29/13 A3012 140 36 1900 000/00 RMK AO2
63870K0J4 0J420160511162009805/11/16 16:20:31  5-MIN K0J4 112120Z AUTO 15003KT 10SM CLR 29/13 A3012 130 38 1800 150/03 RMK AO2
63870K0J4 0J420160511162509805/11/16 16:25:31  5-MIN K0J4 112125Z AUTO 16003KT 10SM CLR 28/13 A3012 140 39 1700 160/03 RMK AO2
63870K0J4 0J420160511163009805/11/16 16:30:31  5-MIN K0J4 112130Z AUTO 16003KT 10SM CLR 28/14 A3012 140 40 1700 160/03 RMK AO2
63870K0J4 0J420160511163509805/11/16 16:35:31  5-MIN K0J4 112135Z AUTO 00000KT 10SM CLR 28/14 A3012 140 40 1700 000/00 RMK AO2
63870K0J4 0J420160511164009805/11/16 16:40:31  5-MIN K0J4 112140Z AUTO 00000KT 10SM CLR 29/13 A3012 140 36 1900 000/00 RMK AO2
63870K0J4 0J420160511164509805/11/16 16:45:31  5-MIN K0J4 112145Z AUTO 00000KT 10SM CLR 30/13 A3012 140 35 1900 000/00 RMK AO2
63870K0J4 0J420160511165009805/11/16 16:50:31  5-MIN K0J4 112150Z AUTO 00000KT 10SM CLR 30/13 A3012 140 34 1900 000/00 RMK AO2
63870K0J4 0J420160511165511405/11/16 16:55:31  5-MIN K0J4 112155Z AUTO 00000KT 10SM CLR 30/13 A3012 140 35 1900 000/00 RMK AO2 SLPNO T03000133
63870K0J4 0J420160511170009805/11/16 17:00:31  5-MIN K0J4 112200Z AUTO 00000KT 10SM CLR 30/13 A3011 140 34 1900 000/00 RMK AO2
63870K0J4 0J420160511170509805/11/16 17:05:31  5-MIN K0J4 112205Z AUTO 06005KT 10SM CLR 31/13 A3012 140 34 2000 060/05 RMK AO2
63870K0J4 0J420160511171009805/11/16 17:10:31  5-MIN K0J4 112210Z AUTO 06005KT 10SM CLR 30/13 A3012 140 35 1900 060/05 RMK AO2
63870K0J4 0J420160511171509805/11/16 17:15:31  5-MIN K0J4 112215Z AUTO 07005KT 10SM CLR 31/13 A3011 140 34 2000 070/05 RMK AO2
63870K0J4 0J420160511172009805/11/16 17:20:31  5-MIN K0J4 112220Z AUTO 09005KT 10SM CLR 30/13 A3011 140 35 1900 090/05 RMK AO2
63870K0J4 0J420160511172509805/11/16 17:25:31  5-MIN K0J4 112225Z AUTO VRB04KT 10SM CLR 30/13 A3011 140 35 1900 VRB/04 RMK AO2
63870K0J4 0J420160511173010005/11/16 17:30:31  5-MIN K0J4 112230Z AUTO 00000KT 10SM CLR 30/13 A3011 140 35 1900 000/00 RMK AO2 $
63870K0J4 0J420160511173510005/11/16 17:35:31  5-MIN K0J4 112235Z AUTO 00000KT 10SM CLR 30/12 A3011 140 33 1900 000/00 RMK AO2 $
63870K0J4 0J420160511174010005/11/16 17:40:31  5-MIN K0J4 112240Z AUTO 00000KT 10SM CLR 30/13 A3011 140 34 1900 000/00 RMK AO2 $
63870K0J4 0J420160511174510005/11/16 17:45:31  5-MIN K0J4 112245Z AUTO 08004KT 10SM CLR 30/13 A3011 140 35 1900 080/04 RMK AO2 $
63870K0J4 0J420160511175010005/11/16 17:50:31  5-MIN K0J4 112250Z AUTO 07003KT 10SM CLR 30/13 A3011 140 34 1900 070/03 RMK AO2 $
63870K0J4 0J420160511175511605/11/16 17:55:31  5-MIN K0J4 112255Z AUTO 08003KT 10SM CLR 30/13 A3010 150 34 1900 080/03 RMK AO2 SLPNO T03000128 $
63870K0J4 0J420160511180010005/11/16 18:00:31  5-MIN K0J4 112300Z AUTO 08004KT 10SM CLR 29/13 A3010 150 36 1900 080/04 RMK AO2 $
63870K0J4 0J420160511180510005/11/16 18:05:31  5-MIN K0J4 112305Z AUTO 06005KT 10SM CLR 29/14 A3010 150 38 1900 060/05 RMK AO2 $
63870K0J4 0J420160511181010005/11/16 18:10:31  5-MIN K0J4 112310Z AUTO 07005KT 10SM CLR 29/14 A3010 150 38 1900 070/05 RMK AO2 $
63870K0J4 0J420160511181510005/11/16 18:15:31  5-MIN K0J4 112315Z AUTO 07004KT 10SM CLR 29/13 A3010 150 38 1800 070/04 RMK AO2 $
63870K0J4 0J420160511182010005/11/16 18:20:31  5-MIN K0J4 112320Z AUTO 06004KT 10SM CLR 29/14 A3011 140 39 1800 060/04 RMK AO2 $
63870K0J4 0J420160511182510005/11/16 18:25:31  5-MIN K0J4 112325Z AUTO 06003KT 10SM CLR 28/14 A3011 140 40 1700 060/03 RMK AO2 $
63870K0J4 0J420160511183010005/11/16 18:30:31  5-MIN K0J4 112330Z AUTO 00000KT 10SM CLR 28/14 A3011 140 42 1700 000/00 RMK AO2 $
63870K0J4 0J420160511183510005/11/16 18:35:31  5-MIN K0J4 112335Z AUTO 00000KT 10SM CLR 28/15 A3011 140 45 1700 000/00 RMK AO2 $
63870K0J4 0J420160511184010005/11/16 18:40:31  5-MIN K0J4 112340Z AUTO 17003KT 10SM CLR 27/16 A3011 140 48 1600 170/03 RMK AO2 $
63870K0J4 0J420160511184510005/11/16 18:45:31  5-MIN K0J4 112345Z AUTO 18003KT 10SM CLR 27/16 A3011 140 50 1600 180/03 RMK AO2 $
63870K0J4 0J420160511185010005/11/16 18:50:31  5-MIN K0J4 112350Z AUTO 18004KT 10SM CLR 27/16 A3011 140 50 1600 180/04 RMK AO2 $
63870K0J4 0J420160511185513405/11/16 18:55:31  5-MIN K0J4 112355Z AUTO VRB03KT 10SM CLR 27/17 A3012 140 52 1600 VRB/03 RMK AO2 SLPNO T02720167 10306 20272 58015 $
63870K0J4 0J420160511190010005/11/16 19:00:31  5-MIN K0J4 120000Z AUTO 23005KT 10SM CLR 26/17 A3012 130 55 1500 230/05 RMK AO2 $
63870K0J4 0J420160511190510005/11/16 19:05:31  5-MIN K0J4 120005Z AUTO 23006KT 10SM CLR 27/17 A3012 130 55 1500 230/06 RMK AO2 $
63870K0J4 0J420160511191010005/11/16 19:10:31  5-MIN K0J4 120010Z AUTO 22006KT 10SM CLR 26/17 A3012 130 57 1500 220/06 RMK AO2 $
63870K0J4 0J420160511191510005/11/16 19:15:31  5-MIN K0J4 120015Z AUTO 22009KT 10SM CLR 26/17 A3012 130 57 1500 220/09 RMK AO2 $
63870K0J4 0J420160511192010005/11/16 19:20:31  5-MIN K0J4 120020Z AUTO 21006KT 10SM CLR 26/17 A3013 130 57 1500 210/06 RMK AO2 $
63870K0J4 0J420160511192510005/11/16 19:25:31  5-MIN K0J4 120025Z AUTO 23008KT 10SM CLR 26/17 A3013 120 59 1400 230/08 RMK AO2 $
63870K0J4 0J420160511193010005/11/16 19:30:31  5-MIN K0J4 120030Z AUTO 22008KT 10SM CLR 26/17 A3013 120 57 1400 220/08 RMK AO2 $
63870K0J4 0J420160511193510005/11/16 19:35:31  5-MIN K0J4 120035Z AUTO 22008KT 10SM CLR 25/17 A3013 120 59 1300 220/08 RMK AO2 $
63870K0J4 0J420160511194010005/11/16 19:40:31  5-MIN K0J4 120040Z AUTO 21008KT 10SM CLR 25/17 A3013 120 59 1300 210/08 RMK AO2 $
63870K0J4 0J420160511194510005/11/16 19:45:31  5-MIN K0J4 120045Z AUTO 22007KT 10SM CLR 24/17 A3014 120 61 1300 220/07 RMK AO2 $
63870K0J4 0J420160511195010005/11/16 19:50:31  5-MIN K0J4 120050Z AUTO 21006KT 10SM CLR 24/17 A3014 120 61 1300 210/06 RMK AO2 $
63870K0J4 0J420160511195511605/11/16 19:55:31  5-MIN K0J4 120055Z AUTO 21007KT 10SM CLR 24/17 A3014 120 63 1200 210/07 RMK AO2 SLPNO T02390167 $
63870K0J4 0J420160511200010005/11/16 20:00:31  5-MIN K0J4 120100Z AUTO 22006KT 10SM CLR 24/17 A3014 120 63 1200 220/06 RMK AO2 $
63870K0J4 0J420160511200510005/11/16 20:05:31  5-MIN K0J4 120105Z AUTO 22005KT 10SM CLR 24/17 A3014 110 63 1200 220/05 RMK AO2 $
63870K0J4 0J420160511201010005/11/16 20:10:31  5-MIN K0J4 120110Z AUTO 22006KT 10SM CLR 24/17 A3014 110 63 1200 220/06 RMK AO2 $
63870K0J4 0J420160511201510005/11/16 20:15:31  5-MIN K0J4 120115Z AUTO 23005KT 10SM CLR 24/17 A3014 110 63 1200 230/05 RMK AO2 $
63870K0J4 0J420160511202010005/11/16 20:20:31  5-MIN K0J4 120120Z AUTO 22005KT 10SM CLR 24/17 A3014 110 63 1200 220/05 RMK AO2 $
63870K0J4 0J420160511202510005/11/16 20:25:31  5-MIN K0J4 120125Z AUTO 21005KT 10SM CLR 23/17 A3014 110 68 1100 210/05 RMK AO2 $
63870K0J4 0J420160511203010005/11/16 20:30:31  5-MIN K0J4 120130Z AUTO 22006KT 10SM CLR 23/17 A3014 110 70 1100 220/06 RMK AO2 $
63870K0J4 0J420160511203510005/11/16 20:35:31  5-MIN K0J4 120135Z AUTO 22006KT 10SM CLR 23/17 A3015 110 68 1100 220/06 RMK AO2 $
63870K0J4 0J420160511204010005/11/16 20:40:31  5-MIN K0J4 120140Z AUTO 22006KT 10SM CLR 23/17 A3015 110 68 1100 220/06 RMK AO2 $
63870K0J4 0J420160511204510005/11/16 20:45:31  5-MIN K0J4 120145Z AUTO 22007KT 10SM CLR 23/17 A3015 110 68 1100 220/07 RMK AO2 $
63870K0J4 0J420160511205010005/11/16 20:50:31  5-MIN K0J4 120150Z AUTO 23006KT 10SM CLR 23/17 A3015 110 70 1100 230/06 RMK AO2 $
63870K0J4 0J420160511205511705/11/16 20:55:31  5-MIN K0J4 120155Z AUTO 23005KT 10SM CLR 23/17 A3015 100 70 1100 230/05 RMK AO2 SLP206 T02280172 $
63870K0J4 0J420160511210010005/11/16 21:00:31  5-MIN K0J4 120200Z AUTO 22006KT 10SM CLR 23/17 A3015 100 70 1100 220/06 RMK AO2 $
63870K0J4 0J420160511210510005/11/16 21:05:31  5-MIN K0J4 120205Z AUTO 22006KT 10SM CLR 23/18 A3015 100 73 1100 220/06 RMK AO2 $
63870K0J4 0J420160511211010005/11/16 21:10:31  5-MIN K0J4 120210Z AUTO 22005KT 10SM CLR 22/18 A3015 100 75 1000 220/05 RMK AO2 $
63870K0J4 0J420160511211510005/11/16 21:15:31  5-MIN K0J4 120215Z AUTO 21004KT 10SM CLR 22/18 A3015 100 75 1000 210/04 RMK AO2 $
63870K0J4 0J420160511212010005/11/16 21:20:31  5-MIN K0J4 120220Z AUTO 22004KT 10SM CLR 22/18 A3016 100 75 1000 220/04 RMK AO2 $
63870K0J4 0J420160511212510005/11/16 21:25:31  5-MIN K0J4 120225Z AUTO 22005KT 10SM CLR 22/18 A3016 100 75 1000 220/05 RMK AO2 $
63870K0J4 0J420160511213009905/11/16 21:30:31  5-MIN K0J4 120230Z AUTO 23003KT 10SM CLR 22/18 A3016 100 78 900 230/03 RMK AO2 $
63870K0J4 0J420160511213510005/11/16 21:35:31  5-MIN K0J4 120235Z AUTO 23004KT 10SM CLR 22/18 A3016 100 78 1000 230/04 RMK AO2 $
63870K0J4 0J420160511214009905/11/16 21:40:31  5-MIN K0J4 120240Z AUTO 23005KT 10SM CLR 22/18 A3016 100 81 900 230/05 RMK AO2 $
63870K0J4 0J420160511214509905/11/16 21:45:31  5-MIN K0J4 120245Z AUTO 22004KT 10SM CLR 22/18 A3015 100 81 900 220/04 RMK AO2 $
63870K0J4 0J420160511215009905/11/16 21:50:31  5-MIN K0J4 120250Z AUTO 22004KT 10SM CLR 22/18 A3015 100 81 900 220/04 RMK AO2 $
63870K0J4 0J420160511215512205/11/16 21:55:31  5-MIN K0J4 120255Z AUTO 22004KT 10SM CLR 22/18 A3015 100 81 900 220/04 RMK AO2 SLP206 T02170183 55001 $
63870K0J4 0J420160511220009905/11/16 22:00:31  5-MIN K0J4 120300Z AUTO 22003KT 10SM CLR 21/18 A3016 100 84 900 220/03 RMK AO2 $
63870K0J4 0J420160511220509905/11/16 22:05:31  5-MIN K0J4 120305Z AUTO 22004KT 10SM CLR 21/18 A3015 100 84 900 220/04 RMK AO2 $
63870K0J4 0J420160511221009905/11/16 22:10:31  5-MIN K0J4 120310Z AUTO 23004KT 10SM CLR 21/18 A3015 100 84 900 230/04 RMK AO2 $
63870K0J4 0J420160511221509905/11/16 22:15:31  5-MIN K0J4 120315Z AUTO 22004KT 10SM CLR 21/19 A3015 100 87 900 220/04 RMK AO2 $
63870K0J4 0J420160511222009905/11/16 22:20:31  5-MIN K0J4 120320Z AUTO 22003KT 10SM CLR 21/19 A3015 100 87 900 220/03 RMK AO2 $
63870K0J4 0J420160511222509905/11/16 22:25:31  5-MIN K0J4 120325Z AUTO 22003KT 10SM CLR 21/19 A3015 110 87 900 220/03 RMK AO2 $
63870K0J4 0J420160511223009905/11/16 22:30:31  5-MIN K0J4 120330Z AUTO 23003KT 10SM CLR 21/19 A3015 100 87 900 230/03 RMK AO2 $
63870K0J4 0J420160511223509905/11/16 22:35:31  5-MIN K0J4 120335Z AUTO 00000KT 10SM CLR 21/19 A3015 100 90 800 000/00 RMK AO2 $
63870K0J4 0J420160511224009905/11/16 22:40:31  5-MIN K0J4 120340Z AUTO 00000KT 10SM CLR 21/19 A3015 110 90 800 000/00 RMK AO2 $
63870K0J4 0J420160511224509905/11/16 22:45:31  5-MIN K0J4 120345Z AUTO 00000KT 10SM CLR 21/19 A3015 110 90 800 000/00 RMK AO2 $
63870K0J4 0J420160511225009905/11/16 22:50:31  5-MIN K0J4 120350Z AUTO 00000KT 10SM CLR 21/19 A3015 110 90 800 000/00 RMK AO2 $
63870K0J4 0J420160511225511605/11/16 22:55:31  5-MIN K0J4 120355Z AUTO 00000KT 10SM CLR 20/18 A3015 100 90 800 000/00 RMK AO2 SLP206 T02000183 $
63870K0J4 0J420160511230009905/11/16 23:00:31  5-MIN K0J4 120400Z AUTO 24003KT 10SM CLR 20/18 A3015 110 90 800 240/03 RMK AO2 $
63870K0J4 0J420160511230509905/11/16 23:05:31  5-MIN K0J4 120405Z AUTO 23003KT 10SM CLR 20/18 A3015 110 90 800 230/03 RMK AO2 $
63870K0J4 0J420160511231009905/11/16 23:10:31  5-MIN K0J4 120410Z AUTO 23003KT 10SM CLR 20/18 A3015 110 90 800 230/03 RMK AO2 $
63870K0J4 0J420160511231509905/11/16 23:15:31  5-MIN K0J4 120415Z AUTO 00000KT 10SM CLR 20/18 A3014 110 90 800 000/00 RMK AO2 $
63870K0J4 0J420160511232009905/11/16 23:20:31  5-MIN K0J4 120420Z AUTO 00000KT 10SM CLR 20/18 A3014 110 90 800 000/00 RMK AO2 $
63870K0J4 0J420160511232509905/11/16 23:25:31  5-MIN K0J4 120425Z AUTO 00000KT 10SM CLR 20/18 A3014 110 90 800 000/00 RMK AO2 $
63870K0J4 0J420160511233009905/11/16 23:30:31  5-MIN K0J4 120430Z AUTO 00000KT 10SM CLR 20/18 A3014 110 90 800 000/00 RMK AO2 $
63870K0J4 0J420160511233509905/11/16 23:35:31  5-MIN K0J4 120435Z AUTO 00000KT 10SM CLR 19/19 A3014 120 97 700 000/00 RMK AO2 $
63870K0J4 0J420160511234009905/11/16 23:40:31  5-MIN K0J4 120440Z AUTO 00000KT 10SM CLR 19/18 A3014 120 93 700 000/00 RMK AO2 $
63870K0J4 0J420160511234509905/11/16 23:45:31  5-MIN K0J4 120445Z AUTO 00000KT 10SM CLR 19/18 A3013 120 93 700 000/00 RMK AO2 $
63870K0J4 0J420160511235009905/11/16 23:50:31  5-MIN K0J4 120450Z AUTO 00000KT 10SM CLR 19/18 A3013 120 90 700 000/00 RMK AO2 $
63870K0J4 0J420160511235512605/11/16 23:55:31  5-MIN K0J4 120455Z AUTO 00000KT 10SM CLR 19/18 A3013 120 93 600 000/00 RMK AO2 SLP200 T01890178 403060189 $
63870K0J4 0J420160512000009905/12/16 00:00:31  5-MIN K0J4 120500Z AUTO 00000KT 10SM CLR 19/18 A3013 120 93 600 000/00 RMK AO2 $
63870K0J4 0J420160512000509805/12/16 00:05:31  5-MIN K0J4 120505Z AUTO 00000KT 9SM CLR 19/18 A3013 120 93 600 000/00 RMK AO2 $
63870K0J4 0J420160512001009805/12/16 00:10:31  5-MIN K0J4 120510Z AUTO 00000KT 9SM CLR 19/18 A3013 120 93 600 000/00 RMK AO2 $
63870K0J4 0J420160512001509905/12/16 00:15:31  5-MIN K0J4 120515Z AUTO 00000KT 10SM CLR 19/17 A3013 120 90 600 000/00 RMK AO2 $
63870K0J4 0J420160512002009905/12/16 00:20:31  5-MIN K0J4 120520Z AUTO 00000KT 10SM CLR 18/17 A3013 130 93 600 000/00 RMK AO2 $
63870K0J4 0J420160512002509805/12/16 00:25:31  5-MIN K0J4 120525Z AUTO 00000KT 9SM CLR 19/17 A3013 130 90 700 000/00 RMK AO2 $
63870K0J4 0J420160512003010105/12/16 00:30:31  5-MIN K0J4 120530Z AUTO 00000KT 8SM FEW002 19/18 A3013 130 97 700 000/00 RMK AO2 $
63870K0J4 0J420160512003510105/12/16 00:35:31  5-MIN K0J4 120535Z AUTO 00000KT 7SM SCT002 19/18 A3012 130 97 700 000/00 RMK AO2 $
63870K0J4 0J420160512004010405/12/16 00:40:31  5-MIN K0J4 120540Z AUTO 00000KT 6SM BR BKN002 19/18 A3012 130 93 700 000/00 RMK AO2 $
63870K0J4 0J420160512004510405/12/16 00:45:31  5-MIN K0J4 120545Z AUTO 00000KT 5SM BR BKN002 19/19 A3012 130 97 700 000/00 RMK AO2 $
63870K0J4 0J420160512005011805/12/16 00:50:31  5-MIN K0J4 120550Z AUTO 00000KT 1 3/4SM BR BKN002 19/19 A3012 130 97 700 000/00 RMK AO2 VIS 1/2V5 $
63870K0J4 0J420160512005510605/12/16 00:55:31  5-MIN K0J4 120555Z AUTO 00000KT 1/2SM FG OVC002 19/19 A3012 130 97 700 000/00 RMK AO2 $
63870K0J4 0J420160512010010605/12/16 01:00:31  5-MIN K0J4 120600Z AUTO 00000KT 1/4SM FG VV001 19/19 A3012 130 100 700 000/00 RMK AO2 $
63870K0J4 0J420160512010510505/12/16 01:05:31  5-MIN K0J4 120605Z AUTO 00000KT 1/4SM FG VV001 19/19 A3012 130 97 700 000/00 RMK AO2 $
63870K0J4 0J420160512011010505/12/16 01:10:31  5-MIN K0J4 120610Z AUTO 00000KT 1/4SM FG VV001 19/19 A3012 140 97 700 000/00 RMK AO2 $
63870K0J4 0J420160512011510605/12/16 01:15:31  5-MIN K0J4 120615Z AUTO 00000KT 1/4SM FG VV001 19/19 A3011 140 100 700 000/00 RMK AO2 $
63870K0J4 0J420160512012010505/12/16 01:20:31  5-MIN K0J4 120620Z AUTO 00000KT 1/4SM FG VV001 19/18 A3011 140 97 700 000/00 RMK AO2 $
63870K0J4 0J420160512012510505/12/16 01:25:31  5-MIN K0J4 120625Z AUTO 00000KT 1/4SM FG VV001 19/18 A3011 140 97 700 000/00 RMK AO2 $
63870K0J4 0J420160512013010505/12/16 01:30:31  5-MIN K0J4 120630Z AUTO 00000KT 1/4SM FG VV002 19/19 A3011 140 97 700 000/00 RMK AO2 $
63870K0J4 0J420160512013510505/12/16 01:35:31  5-MIN K0J4 120635Z AUTO 00000KT 1/2SM FG VV002 19/19 A3011 140 97 700 000/00 RMK AO2 $
63870K0J4 0J420160512014010505/12/16 01:40:31  5-MIN K0J4 120640Z AUTO 00000KT 1/2SM FG VV002 19/19 A3011 140 97 700 000/00 RMK AO2 $
63870K0J4 0J420160512014510505/12/16 01:45:31  5-MIN K0J4 120645Z AUTO 00000KT 1/2SM FG VV001 19/18 A3011 140 97 700 000/00 RMK AO2 $
63870K0J4 0J420160512015010505/12/16 01:50:31  5-MIN K0J4 120650Z AUTO 00000KT 1/4SM FG VV001 19/18 A3011 140 97 700 000/00 RMK AO2 $
63870K0J4 0J420160512015512205/12/16 01:55:31  5-MIN K0J4 120655Z AUTO 00000KT 1/4SM FG VV001 19/18 A3011 140 97 700 000/00 RMK AO2 SLP191 T01890183 $
63870K0J4 0J420160512020010505/12/16 02:00:31  5-MIN K0J4 120700Z AUTO 00000KT 1/4SM FG VV001 19/18 A3011 140 97 700 000/00 RMK AO2 $
63870K0J4 0J420160512020510605/12/16 02:05:31  5-MIN K0J4 120705Z AUTO 00000KT 1/4SM FG VV001 19/19 A3011 150 100 700 000/00 RMK AO2 $
63870K0J4 0J420160512021010605/12/16 02:10:31  5-MIN K0J4 120710Z AUTO 00000KT 1/4SM FG VV001 19/19 A3011 150 100 700 000/00 RMK AO2 $
63870K0J4 0J420160512021510505/12/16 02:15:31  5-MIN K0J4 120715Z AUTO 00000KT 1/4SM FG VV001 19/19 A3010 150 97 700 000/00 RMK AO2 $
63870K0J4 0J420160512022010505/12/16 02:20:31  5-MIN K0J4 120720Z AUTO 00000KT 1/4SM FG VV001 19/19 A3010 150 97 700 000/00 RMK AO2 $
63870K0J4 0J420160512022510505/12/16 02:25:31  5-MIN K0J4 120725Z AUTO 00000KT 1/4SM FG VV001 19/19 A3010 150 97 700 000/00 RMK AO2 $
63870K0J4 0J420160512023010505/12/16 02:30:31  5-MIN K0J4 120730Z AUTO 00000KT 1/4SM FG VV001 19/19 A3010 150 97 700 000/00 RMK AO2 $
63870K0J4 0J420160512023510505/12/16 02:35:31  5-MIN K0J4 120735Z AUTO 00000KT 1/4SM FG VV001 19/19 A3010 150 97 700 000/00 RMK AO2 $
63870K0J4 0J420160512024010505/12/16 02:40:31  5-MIN K0J4 120740Z AUTO 00000KT 1/4SM FG VV001 19/19 A3010 150 97 700 000/00 RMK AO2 $
63870K0J4 0J420160512024510605/12/16 02:45:31  5-MIN K0J4 120745Z AUTO 00000KT 1/4SM FG VV001 19/19 A3010 150 100 700 000/00 RMK AO2 $
63870K0J4 0J420160512025010505/12/16 02:50:31  5-MIN K0J4 120750Z AUTO 00000KT 1/4SM FG VV001 19/18 A3011 140 97 700 000/00 RMK AO2 $
63870K0J4 0J420160512025512305/12/16 02:55:31  5-MIN K0J4 120755Z AUTO 00000KT 1/4SM FG VV001 18/18 A3011 140 100 600 000/00 RMK AO2 SLP192 T01830183 $
63870K0J4 0J420160512030010605/12/16 03:00:31  5-MIN K0J4 120800Z AUTO 00000KT 1/2SM FG VV001 18/18 A3011 140 100 600 000/00 RMK AO2 $
63870K0J4 0J420160512030510805/12/16 03:05:31  5-MIN K0J4 120805Z AUTO 00000KT 1 1/2SM BR OVC001 19/18 A3012 140 97 700 000/00 RMK AO2 $
63870K0J4 0J420160512031010405/12/16 03:10:31  5-MIN K0J4 120810Z AUTO 00000KT 4SM BR OVC001 19/18 A3012 130 97 700 000/00 RMK AO2 $
63870K0J4 0J420160512031510805/12/16 03:15:31  5-MIN K0J4 120815Z AUTO 00000KT 2 1/2SM BR OVC001 19/18 A3012 130 97 700 000/00 RMK AO2 $
63870K0J4 0J420160512032010805/12/16 03:20:31  5-MIN K0J4 120820Z AUTO 00000KT 1 1/2SM BR OVC001 19/18 A3012 130 97 700 000/00 RMK AO2 $
63870K0J4 0J420160512032510805/12/16 03:25:31  5-MIN K0J4 120825Z AUTO 00000KT 1 1/2SM BR OVC001 19/18 A3012 130 97 700 000/00 RMK AO2 $
63870K0J4 0J420160512033010805/12/16 03:30:31  5-MIN K0J4 120830Z AUTO 00000KT 1 3/4SM BR OVC001 19/18 A3012 130 97 700 000/00 RMK AO2 $
63870K0J4 0J420160512033510805/12/16 03:35:31  5-MIN K0J4 120835Z AUTO 00000KT 1 3/4SM BR OVC001 19/18 A3012 130 97 700 000/00 RMK AO2 $
63870K0J4 0J420160512034010905/12/16 03:40:31  5-MIN K0J4 120840Z AUTO 00000KT 1 1/2SM BR OVC001 18/18 A3012 130 100 600 000/00 RMK AO2 $
63870K0J4 0J420160512034510905/12/16 03:45:31  5-MIN K0J4 120845Z AUTO 00000KT 1 3/4SM BR OVC001 18/18 A3012 130 100 600 000/00 RMK AO2 $
63870K0J4 0J420160512035010805/12/16 03:50:31  5-MIN K0J4 120850Z AUTO 00000KT 1 3/4SM BR OVC001 18/18 A3012 130 96 600 000/00 RMK AO2 $
63870K0J4 0J420160512035513205/12/16 03:55:31  5-MIN K0J4 120855Z AUTO 00000KT 1 1/4SM BR OVC001 18/18 A3012 130 100 600 000/00 RMK AO2 SLP195 T01830183 58013 $
63870K0J4 0J420160512040010505/12/16 04:00:31  5-MIN K0J4 120900Z AUTO 00000KT 1/2SM FG VV002 19/18 A3012 130 97 700 000/00 RMK AO2 $
63870K0J4 0J420160512040510505/12/16 04:05:31  5-MIN K0J4 120905Z AUTO 00000KT 1/4SM FG VV002 19/18 A3012 130 97 700 000/00 RMK AO2 $
63870K0J4 0J420160512041010505/12/16 04:10:31  5-MIN K0J4 120910Z AUTO 00000KT 1/4SM FG VV001 19/18 A3013 130 97 700 000/00 RMK AO2 $
63870K0J4 0J420160512041510505/12/16 04:15:31  5-MIN K0J4 120915Z AUTO 01003KT 1/4SM FG VV001 19/18 A3013 130 97 700 010/03 RMK AO2 $
63870K0J4 0J420160512042010505/12/16 04:20:31  5-MIN K0J4 120920Z AUTO 36003KT 1/4SM FG VV001 19/18 A3013 120 97 600 360/03 RMK AO2 $
63870K0J4 0J420160512042510505/12/16 04:25:31  5-MIN K0J4 120925Z AUTO 00000KT 1/4SM FG VV001 19/18 A3013 120 97 600 000/00 RMK AO2 $
63870K0J4 0J420160512043010505/12/16 04:30:31  5-MIN K0J4 120930Z AUTO 00000KT 1/4SM FG VV001 19/18 A3013 120 97 600 000/00 RMK AO2 $
63870K0J4 0J420160512043510505/12/16 04:35:31  5-MIN K0J4 120935Z AUTO 00000KT 1/4SM FG VV001 19/18 A3013 120 97 600 000/00 RMK AO2 $
63870K0J4 0J420160512044010505/12/16 04:40:31  5-MIN K0J4 120940Z AUTO 00000KT 1/4SM FG VV001 19/18 A3013 120 97 600 000/00 RMK AO2 $
63870K0J4 0J420160512044510505/12/16 04:45:31  5-MIN K0J4 120945Z AUTO 00000KT 1/4SM FG VV001 19/18 A3013 120 97 600 000/00 RMK AO2 $
63870K0J4 0J420160512045010505/12/16 04:50:31  5-MIN K0J4 120950Z AUTO 00000KT 1/4SM FG VV001 19/18 A3013 120 97 600 000/00 RMK AO2 $
63870K0J4 0J420160512045512205/12/16 04:55:31  5-MIN K0J4 120955Z AUTO 00000KT 1/4SM FG VV001 19/18 A3013 120 97 600 000/00 RMK AO2 SLP198 T01890183 $
63870K0J4 0J420160512050010605/12/16 05:00:31  5-MIN K0J4 121000Z AUTO 00000KT 1/4SM FG VV001 19/19 A3013 120 100 600 000/00 RMK AO2 $
63870K0J4 0J420160512050510605/12/16 05:05:31  5-MIN K0J4 121005Z AUTO 00000KT 1/4SM FG VV001 19/19 A3012 130 100 700 000/00 RMK AO2 $
63870K0J4 0J420160512051010505/12/16 05:10:31  5-MIN K0J4 121010Z AUTO 00000KT 1/4SM FG VV001 19/18 A3012 130 97 700 000/00 RMK AO2 $
63870K0J4 0J420160512051510605/12/16 05:15:31  5-MIN K0J4 121015Z AUTO 00000KT 1/4SM FG VV001 19/19 A3012 130 100 700 000/00 RMK AO2 $
63870K0J4 0J420160512052010605/12/16 05:20:31  5-MIN K0J4 121020Z AUTO 00000KT 1/4SM FG VV001 19/19 A3013 130 100 700 000/00 RMK AO2 $
63870K0J4 0J420160512052510605/12/16 05:25:31  5-MIN K0J4 121025Z AUTO 00000KT 1/4SM FG VV001 19/19 A3013 130 100 700 000/00 RMK AO2 $
63870K0J4 0J420160512053010505/12/16 05:30:31  5-MIN K0J4 121030Z AUTO 00000KT 1/4SM FG VV001 19/18 A3013 120 97 700 000/00 RMK AO2 $
63870K0J4 0J420160512053510505/12/16 05:35:31  5-MIN K0J4 121035Z AUTO 00000KT 1/4SM FG VV001 19/18 A3013 120 97 600 000/00 RMK AO2 $
63870K0J4 0J420160512054010505/12/16 05:40:31  5-MIN K0J4 121040Z AUTO 00000KT 1/4SM FG VV002 19/18 A3014 120 97 600 000/00 RMK AO2 $
63870K0J4 0J420160512054510505/12/16 05:45:31  5-MIN K0J4 121045Z AUTO 00000KT 1/4SM FG VV002 19/18 A3014 120 97 600 000/00 RMK AO2 $
63870K0J4 0J420160512055010505/12/16 05:50:31  5-MIN K0J4 121050Z AUTO 00000KT 1/4SM FG VV002 19/18 A3014 110 97 600 000/00 RMK AO2 $
63870K0J4 0J420160512055512205/12/16 05:55:31  5-MIN K0J4 121055Z AUTO 00000KT 1/2SM FG VV002 19/18 A3014 110 97 600 000/00 RMK AO2 SLP203 T01890183 $
63870K0J4 0J420160512060010505/12/16 06:00:31  5-MIN K0J4 121100Z AUTO 00000KT 1/2SM FG VV002 19/18 A3015 110 97 600 000/00 RMK AO2 $
63870K0J4 0J420160512060510605/12/16 06:05:31  5-MIN K0J4 121105Z AUTO 00000KT 3/4SM BR OVC001 19/18 A3015 110 97 600 000/00 RMK AO2 $
63870K0J4 0J420160512061010605/12/16 06:10:31  5-MIN K0J4 121110Z AUTO 00000KT 3/4SM BR OVC001 19/18 A3015 110 97 600 000/00 RMK AO2 $
63870K0J4 0J420160512061510505/12/16 06:15:31  5-MIN K0J4 121115Z AUTO 00000KT 1/4SM FG VV001 19/18 A3015 110 97 600 000/00 RMK AO2 $
63870K0J4 0J420160512062010505/12/16 06:20:31  5-MIN K0J4 121120Z AUTO 00000KT 1/4SM FG VV001 19/18 A3015 110 97 600 000/00 RMK AO2 $
63870K0J4 0J420160512062510705/12/16 06:25:31  5-MIN K0J4 121125Z AUTO 00000KT M1/4SM FG VV001 19/19 A3015 110 100 600 000/00 RMK AO2 $
63870K0J4 0J420160512063010705/12/16 06:30:31  5-MIN K0J4 121130Z AUTO 00000KT M1/4SM FG VV001 19/19 A3015 110 100 600 000/00 RMK AO2 $
63870K0J4 0J420160512063510705/12/16 06:35:31  5-MIN K0J4 121135Z AUTO 00000KT M1/4SM FG VV001 19/19 A3015 100 100 600 000/00 RMK AO2 $
63870K0J4 0J420160512064010705/12/16 06:40:31  5-MIN K0J4 121140Z AUTO 00000KT M1/4SM FG VV001 19/19 A3015 100 100 600 000/00 RMK AO2 $
63870K0J4 0J420160512064510705/12/16 06:45:31  5-MIN K0J4 121145Z AUTO 00000KT M1/4SM FG VV001 19/19 A3015 100 100 600 000/00 RMK AO2 $
63870K0J4 0J420160512065010705/12/16 06:50:31  5-MIN K0J4 121150Z AUTO 00000KT M1/4SM FG VV001 19/19 A3015 100 100 600 000/00 RMK AO2 $
63870K0J4 0J420160512065514805/12/16 06:55:31  5-MIN K0J4 121155Z AUTO 00000KT M1/4SM FG VV001 19/19 A3015 100 100 600 000/00 RMK AO2 SLP207 7//// T01890189 10200 20183 53001 $
63870K0J4 0J420160512070010605/12/16 07:00:31  5-MIN K0J4 121200Z AUTO 00000KT 1/4SM FG VV002 19/19 A3016 100 100 600 000/00 RMK AO2 $
63870K0J4 0J420160512070510605/12/16 07:05:31  5-MIN K0J4 121205Z AUTO 00000KT 1/4SM FG VV002 19/19 A3016 100 100 600 000/00 RMK AO2 $
63870K0J4 0J420160512071010505/12/16 07:10:31  5-MIN K0J4 121210Z AUTO 00000KT 1/2SM FG VV002 19/19 A3016 100 97 700 000/00 RMK AO2 $
63870K0J4 0J420160512071510505/12/16 07:15:31  5-MIN K0J4 121215Z AUTO 00000KT 1/4SM FG VV002 19/19 A3016 100 97 700 000/00 RMK AO2 $
63870K0J4 0J420160512072010505/12/16 07:20:31  5-MIN K0J4 121220Z AUTO 00000KT 1/4SM FG VV002 19/19 A3016 100 97 700 000/00 RMK AO2 $
63870K0J4 0J420160512072510605/12/16 07:25:31  5-MIN K0J4 121225Z AUTO 00000KT 1/4SM FG VV002 19/19 A3016 100 100 600 000/00 RMK AO2 $
63870K0J4 0J420160512073010405/12/16 07:30:31  5-MIN K0J4 121230Z AUTO 00000KT 1/4SM FG VV002 19/19 A3016 90 97 700 000/00 RMK AO2 $
63870K0J4 0J420160512073510505/12/16 07:35:31  5-MIN K0J4 121235Z AUTO 00000KT 1/4SM FG VV002 19/19 A3016 90 100 700 000/00 RMK AO2 $
63870K0J4 0J420160512074010505/12/16 07:40:31  5-MIN K0J4 121240Z AUTO 00000KT 1/4SM FG VV001 19/19 A3017 90 100 700 000/00 RMK AO2 $
63870K0J4 0J420160512074510505/12/16 07:45:31  5-MIN K0J4 121245Z AUTO 00000KT 1/4SM FG VV002 19/19 A3017 90 100 700 000/00 RMK AO2 $
63870K0J4 0J420160512075010505/12/16 07:50:31  5-MIN K0J4 121250Z AUTO 00000KT 1/4SM FG VV002 19/19 A3017 80 100 700 000/00 RMK AO2 $
63870K0J4 0J420160512075512205/12/16 07:55:31  5-MIN K0J4 121255Z AUTO 22003KT 1/4SM FG VV002 19/19 A3017 80 100 700 220/03 RMK AO2 SLP214 T01940194 $
63870K0J4 0J420160512080010505/12/16 08:00:31  5-MIN K0J4 121300Z AUTO 21004KT 1/4SM FG VV002 19/19 A3017 80 100 700 210/04 RMK AO2 $
63870K0J4 0J420160512080510505/12/16 08:05:31  5-MIN K0J4 121305Z AUTO 20004KT 1/4SM FG VV001 19/19 A3018 80 100 700 200/04 RMK AO2 $
63870K0J4 0J420160512081010405/12/16 08:10:31  5-MIN K0J4 121310Z AUTO 22004KT 1/4SM FG VV001 20/19 A3018 80 97 700 220/04 RMK AO2 $
63870K0J4 0J420160512081510405/12/16 08:15:31  5-MIN K0J4 121315Z AUTO 22003KT 1/4SM FG VV002 20/19 A3018 80 97 700 220/03 RMK AO2 $
63870K0J4 0J420160512082010405/12/16 08:20:31  5-MIN K0J4 121320Z AUTO 00000KT 1/4SM FG VV002 20/19 A3018 80 97 700 000/00 RMK AO2 $
63870K0J4 0J420160512082510505/12/16 08:25:31  5-MIN K0J4 121325Z AUTO 00000KT 1/4SM FG VV002 20/20 A3018 80 100 700 000/00 RMK AO2 $
63870K0J4 0J420160512083010405/12/16 08:30:31  5-MIN K0J4 121330Z AUTO 17004KT 1/2SM FG VV002 21/20 A3017 80 97 800 170/04 RMK AO2 $
63870K0J4 0J420160512083510405/12/16 08:35:31  5-MIN K0J4 121335Z AUTO 19006KT 3/4SM BR VV002 21/20 A3017 80 97 800 190/06 RMK AO2 $
63870K0J4 0J420160512084011305/12/16 08:40:31  5-MIN K0J4 121340Z AUTO 22003KT 2SM BR OVC002 21/20 A3018 80 97 800 220/03 RMK AO2 VIS 3/4V5 $
63870K0J4 0J420160512084510305/12/16 08:45:31  5-MIN K0J4 121345Z AUTO 24003KT 5SM BR OVC002 21/20 A3018 70 97 800 240/03 RMK AO2 $
63870K0J4 0J420160512085010005/12/16 08:50:31  5-MIN K0J4 121350Z AUTO VRB04KT 8SM OVC002 21/20 A3019 70 97 800 VRB/04 RMK AO2 $
63870K0J4 0J420160512085511805/12/16 08:55:31  5-MIN K0J4 121355Z AUTO 26003KT 10SM OVC002 21/19 A3019 70 93 800 260/03 RMK AO2 SLP219 T02060194 $
63870K0J4 0J420160512090011305/12/16 09:00:31  5-MIN K0J4 121400Z AUTO VRB03KT 10SM OVC004 21/20 A3019 70 97 800 VRB/03 RMK AO2 CIG 001V006 $
63870K0J4 0J420160512090511305/12/16 09:05:31  5-MIN K0J4 121405Z AUTO VRB03KT 10SM OVC004 21/20 A3019 70 97 800 VRB/03 RMK AO2 CIG 001V006 $
63870K0J4 0J420160512091011305/12/16 09:10:31  5-MIN K0J4 121410Z AUTO 23004KT 10SM BKN004 21/20 A3019 70 97 800 230/04 RMK AO2 CIG 002V006 $
63870K0J4 0J420160512091510105/12/16 09:15:31  5-MIN K0J4 121415Z AUTO 23004KT 10SM BKN004 21/19 A3019 70 93 800 230/04 RMK AO2 $
63870K0J4 0J420160512092010105/12/16 09:20:31  5-MIN K0J4 121420Z AUTO 22004KT 10SM SCT004 21/20 A3019 70 93 800 220/04 RMK AO2 $
63870K0J4 0J420160512092510105/12/16 09:25:31  5-MIN K0J4 121425Z AUTO 00000KT 10SM SCT004 21/20 A3019 70 93 800 000/00 RMK AO2 $
63870K0J4 0J420160512093010205/12/16 09:30:31  5-MIN K0J4 121430Z AUTO 00000KT 10SM SCT006 23/20 A3019 70 84 1000 000/00 RMK AO2 $
63870K0J4 0J420160512093510205/12/16 09:35:31  5-MIN K0J4 121435Z AUTO VRB03KT 10SM FEW006 23/20 A3019 70 84 1000 VRB/03 RMK AO2 $
63870K0J4 0J420160512094010205/12/16 09:40:31  5-MIN K0J4 121440Z AUTO 22004KT 10SM FEW006 23/20 A3019 70 84 1000 220/04 RMK AO2 $
63870K0J4 0J420160512094510205/12/16 09:45:31  5-MIN K0J4 121445Z AUTO 00000KT 10SM FEW006 23/20 A3019 70 81 1100 000/00 RMK AO2 $
63870K0J4 0J420160512095010205/12/16 09:50:31  5-MIN K0J4 121450Z AUTO 21005KT 10SM FEW008 24/20 A3019 70 78 1200 210/05 RMK AO2 $
63870K0J4 0J420160512095512305/12/16 09:55:31  5-MIN K0J4 121455Z AUTO 00000KT 10SM FEW010 24/20 A3019 70 78 1200 000/00 RMK AO2 SLP219 T02390200 53012
63870K0J4 0J420160512100010005/12/16 10:00:31  5-MIN K0J4 121500Z AUTO 22004KT 10SM FEW010 24/20 A3019 70 78 1200 220/04 RMK AO2
63870K0J4 0J420160512100510005/12/16 10:05:31  5-MIN K0J4 121505Z AUTO VRB03KT 10SM FEW010 26/20 A3019 70 71 1400 VRB/03 RMK AO2
63870K0J4 0J420160512101010005/12/16 10:10:31  5-MIN K0J4 121510Z AUTO 22004KT 10SM FEW010 24/19 A3018 70 73 1200 220/04 RMK AO2
63870K0J4 0J420160512101509705/12/16 10:15:31  5-MIN K0J4 121515Z AUTO 22005KT 10SM CLR 24/19 A3018 70 73 1200 220/05 RMK AO2
63870K0J4 0J420160512102009705/12/16 10:20:31  5-MIN K0J4 121520Z AUTO VRB04KT 10SM CLR 24/19 A3018 70 73 1200 VRB/04 RMK AO2
63870K0J4 0J420160512102509705/12/16 10:25:31  5-MIN K0J4 121525Z AUTO VRB05KT 10SM CLR 26/20 A3018 70 71 1400 VRB/05 RMK AO2
63870K0J4 0J420160512103009705/12/16 10:30:31  5-MIN K0J4 121530Z AUTO 22006KT 10SM CLR 25/19 A3018 80 71 1300 220/06 RMK AO2
63870K0J4 0J420160512103510005/12/16 10:35:31  5-MIN K0J4 121535Z AUTO VRB04KT 10SM FEW019 25/19 A3018 80 71 1300 VRB/04 RMK AO2
63870K0J4 0J420160512104010005/12/16 10:40:31  5-MIN K0J4 121540Z AUTO VRB03KT 10SM FEW021 26/19 A3018 70 68 1400 VRB/03 RMK AO2
63870K0J4 0J420160512104510005/12/16 10:45:31  5-MIN K0J4 121545Z AUTO 21006KT 10SM SCT023 26/19 A3018 70 66 1400 210/06 RMK AO2
63870K0J4 0J420160512105010005/12/16 10:50:31  5-MIN K0J4 121550Z AUTO VRB03KT 10SM SCT023 26/18 A3019 70 64 1400 VRB/03 RMK AO2
63870K0J4 0J420160512105511705/12/16 10:55:31  5-MIN K0J4 121555Z AUTO 23004KT 10SM SCT025 26/19 A3018 70 64 1400 230/04 RMK AO2 SLP217 T02610189
63870K0J4 0J420160512110010005/12/16 11:00:31  5-MIN K0J4 121600Z AUTO VRB04KT 10SM SCT025 27/19 A3018 80 60 1500 VRB/04 RMK AO2
63870K0J4 0J420160512110510005/12/16 11:05:31  5-MIN K0J4 121605Z AUTO VRB04KT 10SM SCT025 27/19 A3018 80 62 1500 VRB/04 RMK AO2
63870K0J4 0J420160512111011405/12/16 11:10:31  5-MIN K0J4 121610Z AUTO 21007KT 10SM SCT026 SCT031 SCT038 27/18 A3017 80 60 1500 210/07 RMK AO2
63870K0J4 0J420160512111510705/12/16 11:15:31  5-MIN K0J4 121615Z AUTO 24005KT 10SM SCT026 BKN034 27/18 A3017 80 56 1600 240/05 RMK AO2
63870K0J4 0J420160512112010705/12/16 11:20:31  5-MIN K0J4 121620Z AUTO VRB04KT 10SM FEW028 SCT036 27/18 A3017 90 60 1500 VRB/04 RMK AO2
63870K0J4 0J420160512112510005/12/16 11:25:31  5-MIN K0J4 121625Z AUTO 23006KT 10SM FEW030 27/18 A3017 90 56 1600 230/06 RMK AO2
63870K0J4 0J420160512113010005/12/16 11:30:31  5-MIN K0J4 121630Z AUTO VRB04KT 10SM FEW030 27/18 A3016 90 56 1600 VRB/04 RMK AO2
63870K0J4 0J420160512113510005/12/16 11:35:31  5-MIN K0J4 121635Z AUTO 20003KT 10SM FEW030 27/17 A3016 90 54 1600 200/03 RMK AO2
63870K0J4 0J420160512114010005/12/16 11:40:31  5-MIN K0J4 121640Z AUTO VRB04KT 10SM FEW035 28/18 A3016 90 54 1600 VRB/04 RMK AO2
63870K0J4 0J420160512114510005/12/16 11:45:31  5-MIN K0J4 121645Z AUTO 20004KT 10SM FEW037 28/18 A3016 90 54 1600 200/04 RMK AO2
63870K0J4 0J420160512115010005/12/16 11:50:31  5-MIN K0J4 121650Z AUTO 22005KT 10SM FEW037 27/18 A3016 90 56 1600 220/05 RMK AO2
63870K0J4 0J420160512115511805/12/16 11:55:31  5-MIN K0J4 121655Z AUTO 22007KT 10SM FEW035 28/18 A3016 100 54 1600 220/07 RMK AO2 SLP209 T02780178
63870K0J4 0J420160512120010105/12/16 12:00:31  5-MIN K0J4 121700Z AUTO 22007KT 10SM FEW035 28/18 A3016 100 54 1600 220/07 RMK AO2
63870K0J4 0J420160512120510105/12/16 12:05:31  5-MIN K0J4 121705Z AUTO VRB05KT 10SM FEW035 28/18 A3016 100 54 1600 VRB/05 RMK AO2
63870K0J4 0J420160512121010105/12/16 12:10:31  5-MIN K0J4 121710Z AUTO VRB04KT 10SM FEW035 28/18 A3015 100 52 1700 VRB/04 RMK AO2
63870K0J4 0J420160512121511505/12/16 12:15:31  5-MIN K0J4 121715Z AUTO VRB03KT 10SM FEW035 SCT047 SCT055 27/18 A3015 100 56 1600 VRB/03 RMK AO2
63870K0J4 0J420160512122010805/12/16 12:20:31  5-MIN K0J4 121720Z AUTO VRB03KT 10SM FEW035 SCT049 28/17 A3015 100 52 1600 VRB/03 RMK AO2
63870K0J4 0J420160512122510105/12/16 12:25:31  5-MIN K0J4 121725Z AUTO 26004KT 10SM FEW047 28/17 A3015 110 52 1600 260/04 RMK AO2
63870K0J4 0J420160512123010105/12/16 12:30:31  5-MIN K0J4 121730Z AUTO VRB04KT 10SM FEW047 28/17 A3015 110 50 1700 VRB/04 RMK AO2
63870K0J4 0J420160512123510805/12/16 12:35:31  5-MIN K0J4 121735Z AUTO 21006KT 10SM FEW038 SCT047 28/18 A3015 110 52 1700 210/06 RMK AO2
63870K0J4 0J420160512124010105/12/16 12:40:31  5-MIN K0J4 121740Z AUTO VRB04KT 10SM FEW038 29/18 A3015 110 50 1800 VRB/04 RMK AO2
63870K0J4 0J420160512124509805/12/16 12:45:31  5-MIN K0J4 121745Z AUTO VRB04KT 10SM CLR 29/18 A3014 110 50 1800 VRB/04 RMK AO2
63870K0J4 0J420160512125010105/12/16 12:50:31  5-MIN K0J4 121750Z AUTO VRB03KT 10SM FEW043 28/17 A3014 110 52 1600 VRB/03 RMK AO2
63870K0J4 0J420160512125514305/12/16 12:55:31  5-MIN K0J4 121755Z AUTO VRB04KT 10SM SCT045 SCT060 28/17 A3014 110 52 1700 VRB/04 RMK AO2 SLP202 T02780172 10289 20189 50010
63870K0J4 0J420160512130010805/12/16 13:00:31  5-MIN K0J4 121800Z AUTO 00000KT 10SM SCT045 BKN060 28/17 A3014 120 52 1700 000/00 RMK AO2
63870K0J4 0J420160512130510805/12/16 13:05:31  5-MIN K0J4 121805Z AUTO VRB03KT 10SM SCT045 BKN060 28/18 A3013 120 52 1700 VRB/03 RMK AO2
63870K0J4 0J420160512131010805/12/16 13:10:31  5-MIN K0J4 121810Z AUTO 00000KT 10SM SCT045 SCT055 28/17 A3013 120 50 1700 000/00 RMK AO2
63870K0J4 0J420160512131510805/12/16 13:15:31  5-MIN K0J4 121815Z AUTO VRB04KT 10SM SCT045 SCT055 28/17 A3013 120 50 1700 VRB/04 RMK AO2
63870K0J4 0J420160512132010805/12/16 13:20:31  5-MIN K0J4 121820Z AUTO VRB04KT 10SM BKN047 BKN060 29/17 A3013 130 48 1800 VRB/04 RMK AO2
63870K0J4 0J420160512132510105/12/16 13:25:31  5-MIN K0J4 121825Z AUTO VRB04KT 10SM SCT047 29/17 A3013 130 47 1900 VRB/04 RMK AO2
63870K0J4 0J420160512133010805/12/16 13:30:31  5-MIN K0J4 121830Z AUTO VRB04KT 10SM SCT045 SCT060 29/17 A3012 130 47 1800 VRB/04 RMK AO2
63870K0J4 0J420160512133510805/12/16 13:35:31  5-MIN K0J4 121835Z AUTO 00000KT 10SM SCT047 BKN065 28/17 A3012 130 48 1700 000/00 RMK AO2
63870K0J4 0J420160512134010805/12/16 13:40:31  5-MIN K0J4 121840Z AUTO 00000KT 10SM SCT045 BKN055 29/17 A3012 140 45 1900 000/00 RMK AO2
63870K0J4 0J420160512134510105/12/16 13:45:31  5-MIN K0J4 121845Z AUTO VRB05KT 10SM SCT045 29/17 A3011 140 47 1900 VRB/05 RMK AO2
63870K0J4 0J420160512135010105/12/16 13:50:31  5-MIN K0J4 121850Z AUTO VRB04KT 10SM SCT047 29/17 A3011 140 47 1800 VRB/04 RMK AO2
63870K0J4 0J420160512135511805/12/16 13:55:31  5-MIN K0J4 121855Z AUTO 00000KT 10SM BKN047 29/17 A3011 140 45 1900 000/00 RMK AO2 SLP191 T02940167
63870K0J4 0J420160512140010105/12/16 14:00:31  5-MIN K0J4 121900Z AUTO VRB05KT 10SM BKN047 30/17 A3011 150 45 1900 VRB/05 RMK AO2
63870K0J4 0J420160512140510105/12/16 14:05:31  5-MIN K0J4 121905Z AUTO 00000KT 10SM SCT047 29/17 A3010 150 47 1800 000/00 RMK AO2
63870K0J4 0J420160512141010105/12/16 14:10:31  5-MIN K0J4 121910Z AUTO VRB04KT 10SM SCT047 30/17 A3010 150 45 1900 VRB/04 RMK AO2
63870K0J4 0J420160512141510105/12/16 14:15:31  5-MIN K0J4 121915Z AUTO 32005KT 10SM SCT047 30/17 A3010 150 44 1900 320/05 RMK AO2
63870K0J4 0J420160512142010105/12/16 14:20:31  5-MIN K0J4 121920Z AUTO 32005KT 10SM BKN049 29/17 A3010 150 45 1900 320/05 RMK AO2
63870K0J4 0J420160512142510105/12/16 14:25:31  5-MIN K0J4 121925Z AUTO VRB05KT 10SM SCT049 30/17 A3010 150 45 1900 VRB/05 RMK AO2
63870K0J4 0J420160512143010805/12/16 14:30:31  5-MIN K0J4 121930Z AUTO 00000KT 10SM SCT049 SCT065 29/17 A3010 150 45 1900 000/00 RMK AO2
63870K0J4 0J420160512143510805/12/16 14:35:31  5-MIN K0J4 121935Z AUTO 29003KT 10SM SCT049 BKN065 29/17 A3009 160 45 1900 290/03 RMK AO2
63870K0J4 0J420160512144010805/12/16 14:40:31  5-MIN K0J4 121940Z AUTO 01004KT 10SM SCT049 BKN060 29/17 A3009 160 45 1900 010/04 RMK AO2
63870K0J4 0J420160512144510805/12/16 14:45:31  5-MIN K0J4 121945Z AUTO 00000KT 10SM FEW049 BKN060 29/16 A3009 160 45 1800 000/00 RMK AO2
63870K0J4 0J420160512145010805/12/16 14:50:31  5-MIN K0J4 121950Z AUTO 00000KT 10SM FEW049 SCT060 29/17 A3008 170 47 1800 000/00 RMK AO2
63870K0J4 0J420160512145512505/12/16 14:55:31  5-MIN K0J4 121955Z AUTO 00000KT 10SM FEW049 SCT060 29/17 A3008 170 47 1800 000/00 RMK AO2 SLP182 T02890167
63870K0J4 0J420160512150010805/12/16 15:00:31  5-MIN K0J4 122000Z AUTO 00000KT 10SM FEW049 SCT060 31/17 A3008 170 42 2000 000/00 RMK AO2
63870K0J4 0J420160512150510105/12/16 15:05:31  5-MIN K0J4 122005Z AUTO 00000KT 10SM FEW055 31/17 A3008 170 44 2000 000/00 RMK AO2
63870K0J4 0J420160512151010105/12/16 15:10:31  5-MIN K0J4 122010Z AUTO 24005KT 10SM FEW055 29/17 A3008 170 45 1900 240/05 RMK AO2
63870K0J4 0J420160512151510805/12/16 15:15:31  5-MIN K0J4 122015Z AUTO VRB03KT 10SM SCT050 SCT065 29/17 A3008 170 45 1900 VRB/03 RMK AO2
63870K0J4 0J420160512152010805/12/16 15:20:31  5-MIN K0J4 122020Z AUTO 00000KT 10SM FEW050 SCT065 29/17 A3008 170 47 1900 000/00 RMK AO2
63870K0J4 0J420160512152510105/12/16 15:25:31  5-MIN K0J4 122025Z AUTO 00000KT 10SM SCT055 29/17 A3008 170 47 1900 000/00 RMK AO2
63870K0J4 0J420160512153010105/12/16 15:30:31  5-MIN K0J4 122030Z AUTO VRB03KT 10SM BKN055 29/17 A3008 170 47 1900 VRB/03 RMK AO2
63870K0J4 0J420160512153510105/12/16 15:35:31  5-MIN K0J4 122035Z AUTO 32004KT 10SM BKN055 29/17 A3008 170 47 1900 320/04 RMK AO2
63870K0J4 0J420160512154010105/12/16 15:40:31  5-MIN K0J4 122040Z AUTO 35003KT 10SM BKN055 30/17 A3008 170 44 2000 350/03 RMK AO2
63870K0J4 0J420160512154510805/12/16 15:45:31  5-MIN K0J4 122045Z AUTO 00000KT 10SM FEW050 BKN065 31/17 A3007 170 44 2000 000/00 RMK AO2
63870K0J4 0J420160512155010805/12/16 15:50:31  5-MIN K0J4 122050Z AUTO 00000KT 10SM FEW050 BKN065 30/17 A3007 180 45 2000 000/00 RMK AO2
63870K0J4 0J420160512155513105/12/16 15:55:31  5-MIN K0J4 122055Z AUTO 00000KT 10SM FEW050 BKN065 29/17 A3007 180 47 1900 000/00 RMK AO2 SLP177 T02940172 58016
63870K0J4 0J420160512160010805/12/16 16:00:31  5-MIN K0J4 122100Z AUTO 00000KT 10SM BKN060 BKN070 29/17 A3007 180 45 1900 000/00 RMK AO2
63870K0J4 0J420160512160510805/12/16 16:05:31  5-MIN K0J4 122105Z AUTO 00000KT 10SM BKN060 BKN075 29/17 A3007 180 45 1900 000/00 RMK AO2
63870K0J4 0J420160512161010805/12/16 16:10:31  5-MIN K0J4 122110Z AUTO 00000KT 10SM BKN055 BKN075 29/17 A3007 180 47 1900 000/00 RMK AO2
63870K0J4 0J420160512161510805/12/16 16:15:31  5-MIN K0J4 122115Z AUTO 00000KT 10SM BKN050 BKN065 29/18 A3006 180 49 1900 000/00 RMK AO2
63870K0J4 0J420160512162010805/12/16 16:20:31  5-MIN K0J4 122120Z AUTO 00000KT 10SM BKN055 BKN075 29/17 A3006 190 45 1900 000/00 RMK AO2
63870K0J4 0J420160512162510805/12/16 16:25:31  5-MIN K0J4 122125Z AUTO 00000KT 10SM BKN055 BKN070 29/17 A3006 190 45 1900 000/00 RMK AO2
63870K0J4 0J420160512163010805/12/16 16:30:31  5-MIN K0J4 122130Z AUTO 00000KT 10SM BKN055 BKN070 29/17 A3006 190 47 1900 000/00 RMK AO2
63870K0J4 0J420160512163510805/12/16 16:35:31  5-MIN K0J4 122135Z AUTO 00000KT 10SM BKN055 OVC070 29/17 A3006 190 48 1900 000/00 RMK AO2
63870K0J4 0J420160512164010805/12/16 16:40:31  5-MIN K0J4 122140Z AUTO 00000KT 10SM BKN055 OVC070 29/17 A3006 190 48 1900 000/00 RMK AO2
63870K0J4 0J420160512164510805/12/16 16:45:31  5-MIN K0J4 122145Z AUTO 00000KT 10SM BKN055 OVC070 29/18 A3006 180 50 1900 000/00 RMK AO2
63870K0J4 0J420160512165010805/12/16 16:50:31  5-MIN K0J4 122150Z AUTO 00000KT 10SM BKN055 OVC070 29/18 A3006 190 52 1900 000/00 RMK AO2
63870K0J4 0J420160512165512505/12/16 16:55:31  5-MIN K0J4 122155Z AUTO 00000KT 10SM BKN050 OVC070 29/18 A3006 190 50 1900 000/00 RMK AO2 SLP175 T02890178
63870K0J4 0J420160512170010805/12/16 17:00:31  5-MIN K0J4 122200Z AUTO 00000KT 10SM BKN050 OVC075 29/18 A3006 190 52 1900 000/00 RMK AO2
63870K0J4 0J420160512170510805/12/16 17:05:31  5-MIN K0J4 122205Z AUTO 00000KT 10SM BKN050 BKN075 29/18 A3006 180 50 1900 000/00 RMK AO2
63870K0J4 0J420160512171010805/12/16 17:10:31  5-MIN K0J4 122210Z AUTO 00000KT 10SM BKN050 BKN075 29/18 A3007 180 50 1900 000/00 RMK AO2
63870K0J4 0J420160512171510805/12/16 17:15:31  5-MIN K0J4 122215Z AUTO 00000KT 10SM BKN055 OVC075 28/18 A3007 180 54 1800 000/00 RMK AO2
63870K0J4 0J420160512172010805/12/16 17:20:31  5-MIN K0J4 122220Z AUTO 00000KT 10SM BKN055 OVC075 29/18 A3006 180 50 1900 000/00 RMK AO2
63870K0J4 0J420160512172510805/12/16 17:25:31  5-MIN K0J4 122225Z AUTO 00000KT 10SM BKN055 OVC075 28/18 A3006 190 54 1800 000/00 RMK AO2
63870K0J4 0J420160512173010805/12/16 17:30:31  5-MIN K0J4 122230Z AUTO 00000KT 10SM BKN055 OVC075 28/18 A3006 190 54 1800 000/00 RMK AO2
63870K0J4 0J420160512173510105/12/16 17:35:31  5-MIN K0J4 122235Z AUTO 22005KT 10SM OVC055 28/19 A3006 180 56 1800 220/05 RMK AO2
63870K0J4 0J420160512174010705/12/16 17:40:31  5-MIN K0J4 122240Z AUTO 22011G14KT 10SM OVC055 28/19 A3006 190 60 1700 220/11G14 RMK AO2
63870K0J4 0J420160512174510805/12/16 17:45:31  5-MIN K0J4 122245Z AUTO 22010KT 10SM BKN055 OVC075 28/20 A3006 190 62 1700 220/10 RMK AO2
63870K0J4 0J420160512175010805/12/16 17:50:31  5-MIN K0J4 122250Z AUTO 21011KT 10SM BKN055 BKN075 28/20 A3006 190 62 1700 210/11 RMK AO2
63870K0J4 0J420160512175513105/12/16 17:55:31  5-MIN K0J4 122255Z AUTO 20013G17KT 10SM SCT050 SCT075 27/20 A3006 190 64 1700 200/13G17 RMK AO2 SLP174 T02720200
63870K0J4 0J420160512180010805/12/16 18:00:31  5-MIN K0J4 122300Z AUTO 21011KT 10SM FEW050 SCT075 27/20 A3005 190 66 1600 210/11 RMK AO2
63870K0J4 0J420160512180510105/12/16 18:05:31  5-MIN K0J4 122305Z AUTO 22011KT 10SM FEW050 27/20 A3006 190 66 1600 220/11 RMK AO2
63870K0J4 0J420160512181010105/12/16 18:10:31  5-MIN K0J4 122310Z AUTO 20011KT 10SM FEW075 27/21 A3005 200 69 1600 200/11 RMK AO2
63870K0J4 0J420160512181509805/12/16 18:15:31  5-MIN K0J4 122315Z AUTO 21009KT 10SM CLR 26/21 A3005 200 71 1600 210/09 RMK AO2
63870K0J4 0J420160512182009805/12/16 18:20:31  5-MIN K0J4 122320Z AUTO 20009KT 10SM CLR 26/20 A3005 200 68 1600 200/09 RMK AO2
63870K0J4 0J420160512182509805/12/16 18:25:31  5-MIN K0J4 122325Z AUTO 20009KT 10SM CLR 26/20 A3005 200 68 1600 200/09 RMK AO2
63870K0J4 0J420160512183009805/12/16 18:30:31  5-MIN K0J4 122330Z AUTO 22007KT 10SM CLR 26/20 A3006 190 71 1500 220/07 RMK AO2
63870K0J4 0J420160512183509805/12/16 18:35:31  5-MIN K0J4 122335Z AUTO 22008KT 10SM CLR 26/20 A3006 190 71 1500 220/08 RMK AO2
63870K0J4 0J420160512184009805/12/16 18:40:31  5-MIN K0J4 122340Z AUTO 21009KT 10SM CLR 26/20 A3005 190 71 1500 210/09 RMK AO2
63870K0J4 0J420160512184509805/12/16 18:45:31  5-MIN K0J4 122345Z AUTO 21009KT 10SM CLR 26/19 A3005 190 68 1500 210/09 RMK AO2
63870K0J4 0J420160512185009805/12/16 18:50:31  5-MIN K0J4 122350Z AUTO 21011KT 10SM CLR 26/19 A3005 200 68 1500 210/11 RMK AO2
63870K0J4 0J420160512185513305/12/16 18:55:31  5-MIN K0J4 122355Z AUTO 21011KT 10SM CLR 25/19 A3005 200 71 1400 210/11 RMK AO2 SLP172 T02500194 10311 20250 56024
63870K0J4 0J420160512190009805/12/16 19:00:31  5-MIN K0J4 130000Z AUTO 21008KT 10SM CLR 25/19 A3005 200 71 1400 210/08 RMK AO2
63870K0J4 0J420160512190509805/12/16 19:05:31  5-MIN K0J4 130005Z AUTO 21008KT 10SM CLR 25/19 A3005 200 71 1400 210/08 RMK AO2
63870K0J4 0J420160512191009805/12/16 19:10:31  5-MIN K0J4 130010Z AUTO 21008KT 10SM CLR 25/19 A3005 200 71 1400 210/08 RMK AO2
63870K0J4 0J420160512191509805/12/16 19:15:31  5-MIN K0J4 130015Z AUTO 22008KT 10SM CLR 24/19 A3005 200 73 1400 220/08 RMK AO2
63870K0J4 0J420160512192009805/12/16 19:20:31  5-MIN K0J4 130020Z AUTO 21007KT 10SM CLR 24/19 A3005 200 73 1400 210/07 RMK AO2
63870K0J4 0J420160512192509805/12/16 19:25:31  5-MIN K0J4 130025Z AUTO 21007KT 10SM CLR 24/19 A3005 200 73 1400 210/07 RMK AO2
63870K0J4 0J420160512193009805/12/16 19:30:31  5-MIN K0J4 130030Z AUTO 22006KT 10SM CLR 24/19 A3005 200 73 1400 220/06 RMK AO2
63870K0J4 0J420160512193509805/12/16 19:35:31  5-MIN K0J4 130035Z AUTO 22005KT 10SM CLR 24/19 A3005 200 73 1400 220/05 RMK AO2
63870K0J4 0J420160512194009805/12/16 19:40:31  5-MIN K0J4 130040Z AUTO 21005KT 10SM CLR 24/19 A3005 200 76 1300 210/05 RMK AO2
63870K0J4 0J420160512194509805/12/16 19:45:31  5-MIN K0J4 130045Z AUTO 21005KT 10SM CLR 24/19 A3005 200 76 1300 210/05 RMK AO2
63870K0J4 0J420160512195009805/12/16 19:50:31  5-MIN K0J4 130050Z AUTO 21005KT 10SM CLR 23/19 A3005 190 78 1200 210/05 RMK AO2
63870K0J4 0J420160512195511505/12/16 19:55:31  5-MIN K0J4 130055Z AUTO 22004KT 10SM CLR 23/19 A3006 190 78 1200 220/04 RMK AO2 SLP175 T02330194
63870K0J4 0J420160512200009805/12/16 20:00:31  5-MIN K0J4 130100Z AUTO 22005KT 10SM CLR 24/19 A3006 190 76 1300 220/05 RMK AO2
63870K0J4 0J420160512200509805/12/16 20:05:31  5-MIN K0J4 130105Z AUTO 22006KT 10SM CLR 23/19 A3006 190 78 1200 220/06 RMK AO2
63870K0J4 0J420160512201009805/12/16 20:10:31  5-MIN K0J4 130110Z AUTO 21005KT 10SM CLR 23/20 A3006 190 81 1200 210/05 RMK AO2
63870K0J4 0J420160512201509805/12/16 20:15:31  5-MIN K0J4 130115Z AUTO 20005KT 10SM CLR 23/20 A3006 190 81 1200 200/05 RMK AO2
63870K0J4 0J420160512202009805/12/16 20:20:31  5-MIN K0J4 130120Z AUTO 20005KT 10SM CLR 23/20 A3006 180 81 1200 200/05 RMK AO2
63870K0J4 0J420160512202509805/12/16 20:25:31  5-MIN K0J4 130125Z AUTO 21005KT 10SM CLR 23/20 A3006 190 81 1200 210/05 RMK AO2
63870K0J4 0J420160512203009805/12/16 20:30:31  5-MIN K0J4 130130Z AUTO 22006KT 10SM CLR 23/20 A3007 180 84 1200 220/06 RMK AO2
63870K0J4 0J420160512203509805/12/16 20:35:31  5-MIN K0J4 130135Z AUTO 22006KT 10SM CLR 23/20 A3007 180 81 1200 220/06 RMK AO2
63870K0J4 0J420160512204009805/12/16 20:40:31  5-MIN K0J4 130140Z AUTO 22006KT 10SM CLR 23/20 A3007 170 81 1200 220/06 RMK AO2
63870K0J4 0J420160512204509805/12/16 20:45:31  5-MIN K0J4 130145Z AUTO 22007KT 10SM CLR 23/20 A3008 170 81 1200 220/07 RMK AO2
63870K0J4 0J420160512205009805/12/16 20:50:31  5-MIN K0J4 130150Z AUTO 22005KT 10SM CLR 23/20 A3008 170 84 1200 220/05 RMK AO2
63870K0J4 0J420160512205511505/12/16 20:55:31  5-MIN K0J4 130155Z AUTO 22007KT 10SM CLR 23/20 A3008 170 84 1200 220/07 RMK AO2 SLP183 T02280200
63870K0J4 0J420160512210009805/12/16 21:00:31  5-MIN K0J4 130200Z AUTO 22006KT 10SM CLR 23/21 A3008 160 87 1100 220/06 RMK AO2
63870K0J4 0J420160512210509805/12/16 21:05:31  5-MIN K0J4 130205Z AUTO 22004KT 10SM CLR 23/21 A3009 160 87 1100 220/04 RMK AO2
63870K0J4 0J420160512211009805/12/16 21:10:31  5-MIN K0J4 130210Z AUTO 22005KT 10SM CLR 23/21 A3009 160 87 1100 220/05 RMK AO2
63870K0J4 0J420160512211509805/12/16 21:15:31  5-MIN K0J4 130215Z AUTO 22004KT 10SM CLR 23/21 A3009 160 87 1100 220/04 RMK AO2
63870K0J4 0J420160512212009805/12/16 21:20:31  5-MIN K0J4 130220Z AUTO 22006KT 10SM CLR 22/21 A3009 160 90 1100 220/06 RMK AO2
63870K0J4 0J420160512212509805/12/16 21:25:31  5-MIN K0J4 130225Z AUTO 22006KT 10SM CLR 22/20 A3009 160 87 1100 220/06 RMK AO2
63870K0J4 0J420160512213009805/12/16 21:30:31  5-MIN K0J4 130230Z AUTO 22006KT 10SM CLR 22/20 A3009 160 87 1100 220/06 RMK AO2
63870K0J4 0J420160512213509805/12/16 21:35:31  5-MIN K0J4 130235Z AUTO 22006KT 10SM CLR 22/20 A3009 160 87 1100 220/06 RMK AO2
63870K0J4 0J420160512214009805/12/16 21:40:31  5-MIN K0J4 130240Z AUTO 22006KT 10SM CLR 22/20 A3009 160 87 1100 220/06 RMK AO2
63870K0J4 0J420160512214509805/12/16 21:45:31  5-MIN K0J4 130245Z AUTO 22006KT 10SM CLR 22/20 A3009 160 87 1100 220/06 RMK AO2
63870K0J4 0J420160512215009805/12/16 21:50:31  5-MIN K0J4 130250Z AUTO 22006KT 10SM CLR 22/20 A3009 160 87 1100 220/06 RMK AO2
63870K0J4 0J420160512215512105/12/16 21:55:31  5-MIN K0J4 130255Z AUTO 22006KT 10SM CLR 22/20 A3009 160 87 1100 220/06 RMK AO2 SLP187 T02220200 57007
63870K0J4 0J420160512220009805/12/16 22:00:31  5-MIN K0J4 130300Z AUTO 22004KT 10SM CLR 22/20 A3009 160 87 1100 220/04 RMK AO2
63870K0J4 0J420160512220509805/12/16 22:05:31  5-MIN K0J4 130305Z AUTO 22005KT 10SM CLR 22/20 A3009 160 87 1100 220/05 RMK AO2
63870K0J4 0J420160512221009805/12/16 22:10:31  5-MIN K0J4 130310Z AUTO 00000KT 10SM CLR 22/20 A3010 150 87 1100 000/00 RMK AO2
63870K0J4 0J420160512221509805/12/16 22:15:31  5-MIN K0J4 130315Z AUTO VRB04KT 10SM CLR 22/20 A3010 150 87 1100 VRB/04 RMK AO2
63870K0J4 0J420160512222009805/12/16 22:20:31  5-MIN K0J4 130320Z AUTO 22004KT 10SM CLR 22/20 A3010 150 87 1100 220/04 RMK AO2
63870K0J4 0J420160512222509805/12/16 22:25:31  5-MIN K0J4 130325Z AUTO 22004KT 10SM CLR 22/20 A3010 150 87 1100 220/04 RMK AO2
63870K0J4 0J420160512223009805/12/16 22:30:31  5-MIN K0J4 130330Z AUTO 23004KT 10SM CLR 22/21 A3010 150 90 1100 230/04 RMK AO2
63870K0J4 0J420160512223509805/12/16 22:35:31  5-MIN K0J4 130335Z AUTO 23004KT 10SM CLR 22/21 A3010 150 90 1100 230/04 RMK AO2
63870K0J4 0J420160512224010105/12/16 22:40:31  5-MIN K0J4 130340Z AUTO 22004KT 10SM FEW060 22/21 A3011 150 93 1000 220/04 RMK AO2
63870K0J4 0J420160512224510105/12/16 22:45:31  5-MIN K0J4 130345Z AUTO 22005KT 10SM SCT060 22/21 A3010 150 93 1000 220/05 RMK AO2
63870K0J4 0J420160512225010105/12/16 22:50:31  5-MIN K0J4 130350Z AUTO 22003KT 10SM SCT060 22/21 A3010 150 93 1000 220/03 RMK AO2
63870K0J4 0J420160512225511805/12/16 22:55:31  5-MIN K0J4 130355Z AUTO 24004KT 10SM FEW060 22/21 A3011 150 93 1000 240/04 RMK AO2 SLP190 T02170206
63870K0J4 0J420160512230010105/12/16 23:00:31  5-MIN K0J4 130400Z AUTO VRB04KT 10SM FEW060 22/21 A3010 150 93 1000 VRB/04 RMK AO2
63870K0J4 0J420160512230510105/12/16 23:05:31  5-MIN K0J4 130405Z AUTO 22005KT 10SM SCT060 22/21 A3010 150 93 1000 220/05 RMK AO2
63870K0J4 0J420160512231010105/12/16 23:10:31  5-MIN K0J4 130410Z AUTO 22005KT 10SM FEW060 22/21 A3010 150 93 1000 220/05 RMK AO2
63870K0J4 0J420160512231509805/12/16 23:15:31  5-MIN K0J4 130415Z AUTO 22004KT 10SM CLR 22/21 A3010 150 93 1000 220/04 RMK AO2
63870K0J4 0J420160512232010105/12/16 23:20:31  5-MIN K0J4 130420Z AUTO 00000KT 10SM FEW060 22/21 A3010 150 93 1000 000/00 RMK AO2
63870K0J4 0J420160512232510105/12/16 23:25:31  5-MIN K0J4 130425Z AUTO 23003KT 10SM SCT060 22/21 A3010 150 93 1000 230/03 RMK AO2
63870K0J4 0J420160512233010105/12/16 23:30:31  5-MIN K0J4 130430Z AUTO 24003KT 10SM BKN060 22/21 A3010 150 93 1000 240/03 RMK AO2
63870K0J4 0J420160512233510105/12/16 23:35:31  5-MIN K0J4 130435Z AUTO VRB03KT 10SM BKN060 22/21 A3010 150 93 1000 VRB/03 RMK AO2
63870K0J4 0J420160512234010105/12/16 23:40:31  5-MIN K0J4 130440Z AUTO VRB03KT 10SM BKN060 22/21 A3010 150 93 1000 VRB/03 RMK AO2
63870K0J4 0J420160512234510805/12/16 23:45:31  5-MIN K0J4 130445Z AUTO 22003KT 10SM BKN055 BKN070 22/21 A3010 150 93 1000 220/03 RMK AO2
63870K0J4 0J420160512235010105/12/16 23:50:31  5-MIN K0J4 130450Z AUTO 23004KT 10SM OVC065 22/21 A3010 150 93 1000 230/04 RMK AO2
63870K0J4 0J420160512235513505/12/16 23:55:31  5-MIN K0J4 130455Z AUTO 23003KT 10SM FEW050 OVC070 22/21 A3010 150 93 1000 230/03 RMK AO2 SLP187 T02170206 403110183
63870K0J4 0J420160513000010805/13/16 00:00:31  5-MIN K0J4 130500Z AUTO 23004KT 10SM FEW050 OVC065 22/21 A3010 150 93 1000 230/04 RMK AO2
63870K0J4 0J420160513000510805/13/16 00:05:31  5-MIN K0J4 130505Z AUTO VRB03KT 10SM FEW050 BKN065 22/21 A3009 160 93 1000 VRB/03 RMK AO2
63870K0J4 0J420160513001010805/13/16 00:10:31  5-MIN K0J4 130510Z AUTO VRB03KT 10SM FEW055 BKN065 22/21 A3009 160 93 1000 VRB/03 RMK AO2
63870K0J4 0J420160513001510005/13/16 00:15:31  5-MIN K0J4 130515Z AUTO 00000KT 9SM SCT070 22/21 A3009 160 93 1000 000/00 RMK AO2
63870K0J4 0J420160513002010005/13/16 00:20:31  5-MIN K0J4 130520Z AUTO 23003KT 9SM FEW065 22/21 A3009 160 93 1000 230/03 RMK AO2
63870K0J4 0J420160513002510005/13/16 00:25:31  5-MIN K0J4 130525Z AUTO 23003KT 9SM FEW065 22/21 A3009 160 93 1000 230/03 RMK AO2
63870K0J4 0J420160513003009705/13/16 00:30:31  5-MIN K0J4 130530Z AUTO 00000KT 9SM CLR 22/21 A3009 160 93 1000 000/00 RMK AO2
63870K0J4 0J420160513003509705/13/16 00:35:31  5-MIN K0J4 130535Z AUTO 00000KT 8SM CLR 22/21 A3009 160 93 1000 000/00 RMK AO2
63870K0J4 0J420160513004009705/13/16 00:40:31  5-MIN K0J4 130540Z AUTO 00000KT 8SM CLR 21/21 A3009 160 97 1000 000/00 RMK AO2
63870K0J4 0J420160513004509705/13/16 00:45:31  5-MIN K0J4 130545Z AUTO 00000KT 8SM CLR 22/21 A3008 160 93 1000 000/00 RMK AO2
63870K0J4 0J420160513005009705/13/16 00:50:31  5-MIN K0J4 130550Z AUTO 22003KT 8SM CLR 22/21 A3008 170 93 1000 220/03 RMK AO2
63870K0J4 0J420160513005513205/13/16 00:55:31  5-MIN K0J4 130555Z AUTO 00000KT 8SM CLR 21/21 A3008 170 97 1000 000/00 RMK AO2 SLP182 T02110206 10250 20211 51016
63870K0J4 0J420160513010009705/13/16 01:00:31  5-MIN K0J4 130600Z AUTO 00000KT 8SM CLR 21/21 A3008 170 97 1000 000/00 RMK AO2
63870K0J4 0J420160513010509705/13/16 01:05:31  5-MIN K0J4 130605Z AUTO 00000KT 9SM CLR 22/21 A3008 170 93 1000 000/00 RMK AO2
63870K0J4 0J420160513011010005/13/16 01:10:31  5-MIN K0J4 130610Z AUTO 00000KT 9SM FEW065 22/21 A3008 170 93 1000 000/00 RMK AO2
63870K0J4 0J420160513011510005/13/16 01:15:31  5-MIN K0J4 130615Z AUTO 00000KT 9SM SCT065 22/21 A3008 170 93 1000 000/00 RMK AO2
63870K0J4 0J420160513012010005/13/16 01:20:31  5-MIN K0J4 130620Z AUTO 00000KT 9SM BKN065 22/21 A3008 170 93 1000 000/00 RMK AO2
63870K0J4 0J420160513012510005/13/16 01:25:31  5-MIN K0J4 130625Z AUTO 00000KT 9SM BKN065 22/21 A3008 170 93 1000 000/00 RMK AO2
63870K0J4 0J420160513013010005/13/16 01:30:31  5-MIN K0J4 130630Z AUTO 00000KT 9SM BKN060 22/21 A3008 170 93 1000 000/00 RMK AO2
63870K0J4 0J420160513013510705/13/16 01:35:31  5-MIN K0J4 130635Z AUTO 00000KT 9SM BKN060 OVC080 22/21 A3008 170 93 1000 000/00 RMK AO2
63870K0J4 0J420160513014011405/13/16 01:40:31  5-MIN K0J4 130640Z AUTO 36006KT 9SM FEW005 BKN060 OVC080 22/21 A3010 150 93 1000 360/06 RMK AO2
63870K0J4 0J420160513014511405/13/16 01:45:31  5-MIN K0J4 130645Z AUTO VRB06KT 9SM SCT005 BKN055 OVC070 22/21 A3010 150 93 1000 VRB/06 RMK AO2
63870K0J4 0J420160513015011405/13/16 01:50:31  5-MIN K0J4 130650Z AUTO VRB03KT 9SM SCT005 BKN013 OVC075 22/21 A3010 150 93 1000 VRB/03 RMK AO2
63870K0J4 0J420160513015511505/13/16 01:55:31  5-MIN K0J4 130655Z AUTO VRB03KT 10SM SCT005 BKN015 OVC080 22/21 A3010 150 93 1000 VRB/03 RMK AO2
63870K0J4 0J420160513020011505/13/16 02:00:31  5-MIN K0J4 130700Z AUTO 36003KT 10SM FEW005 BKN017 OVC080 22/21 A3009 160 93 1000 360/03 RMK AO2
63870K0J4 0J420160513020511505/13/16 02:05:31  5-MIN K0J4 130705Z AUTO 00000KT 10SM FEW005 BKN017 OVC060 22/20 A3009 160 90 1000 000/00 RMK AO2
63870K0J4 0J420160513021011505/13/16 02:10:31  5-MIN K0J4 130710Z AUTO VRB03KT 10SM FEW005 SCT017 BKN047 22/20 A3009 160 90 1000 VRB/03 RMK AO2
63870K0J4 0J420160513021511505/13/16 02:15:31  5-MIN K0J4 130715Z AUTO 00000KT 10SM FEW009 SCT017 BKN047 22/20 A3009 160 90 1000 000/00 RMK AO2
63870K0J4 0J420160513022011505/13/16 02:20:31  5-MIN K0J4 130720Z AUTO 00000KT 10SM SCT016 BKN047 BKN090 22/20 A3009 160 90 1000 000/00 RMK AO2
63870K0J4 0J420160513022511505/13/16 02:25:31  5-MIN K0J4 130725Z AUTO 00000KT 10SM FEW016 BKN047 BKN090 22/20 A3009 160 90 1000 000/00 RMK AO2
63870K0J4 0J420160513023011505/13/16 02:30:31  5-MIN K0J4 130730Z AUTO 00000KT 10SM FEW016 BKN047 BKN090 22/20 A3009 160 90 1000 000/00 RMK AO2
63870K0J4 0J420160513023511505/13/16 02:35:31  5-MIN K0J4 130735Z AUTO 33003KT 10SM FEW016 BKN047 BKN090 22/20 A3009 160 90 1000 330/03 RMK AO2
63870K0J4 0J420160513024010805/13/16 02:40:31  5-MIN K0J4 130740Z AUTO 00000KT 10SM FEW016 BKN049 22/20 A3009 160 90 1000 000/00 RMK AO2
63870K0J4 0J420160513024510105/13/16 02:45:31  5-MIN K0J4 130745Z AUTO 00000KT 10SM BKN047 21/20 A3008 160 93 1000 000/00 RMK AO2
63870K0J4 0J420160513025010805/13/16 02:50:31  5-MIN K0J4 130750Z AUTO 00000KT 10SM BKN047 BKN090 21/20 A3008 160 93 1000 000/00 RMK AO2
63870K0J4 0J420160513025512405/13/16 02:55:31  5-MIN K0J4 130755Z AUTO 00000KT 10SM TS BKN049 BKN055 BKN090 22/20 A3008 170 90 1000 000/00 RMK AO2 TSB55
63870K0J4 0J420160513030011805/13/16 03:00:31  5-MIN K0J4 130800Z AUTO 00000KT 10SM TS BKN049 BKN060 BKN085 22/20 A3008 170 90 1000 000/00 RMK AO2
63870K0J4 0J420160513030511805/13/16 03:05:31  5-MIN K0J4 130805Z AUTO 00000KT 10SM TS FEW028 BKN049 BKN060 22/20 A3008 170 90 1000 000/00 RMK AO2
63870K0J4 0J420160513031011805/13/16 03:10:31  5-MIN K0J4 130810Z AUTO 00000KT 10SM TS SCT028 BKN047 OVC090 22/20 A3007 170 90 1000 000/00 RMK AO2
63870K0J4 0J420160513031512105/13/16 03:15:31  5-MIN K0J4 130815Z AUTO 00000KT 10SM FEW026 BKN035 BKN050 22/20 A3007 180 90 1000 000/00 RMK AO2 TSE13
63870K0J4 0J420160513032013705/13/16 03:20:31  5-MIN K0J4 130820Z AUTO 00000KT 6SM RA BR SCT032 BKN050 OVC100 22/20 A3006 180 90 1000 000/00 RMK AO2 TSE13RAB18 P0001
63870K0J4 0J420160513032513705/13/16 03:25:31  5-MIN K0J4 130825Z AUTO 00000KT 5SM RA BR SCT032 BKN050 OVC100 22/20 A3006 190 90 1000 000/00 RMK AO2 TSE13RAB18 P0002
63870K0J4 0J420160513033013805/13/16 03:30:31  5-MIN K0J4 130830Z AUTO 00000KT 6SM -RA BR SCT032 BKN050 BKN070 21/20 A3006 190 93 1000 000/00 RMK AO2 TSE13RAB18 P0002
63870K0J4 0J420160513033513505/13/16 03:35:31  5-MIN K0J4 130835Z AUTO 00000KT 8SM -RA FEW032 SCT047 BKN100 21/20 A3006 180 93 1000 000/00 RMK AO2 TSE13RAB18 P0002
63870K0J4 0J420160513034012805/13/16 03:40:31  5-MIN K0J4 130840Z AUTO 00000KT 8SM -RA FEW033 BKN100 21/20 A3006 180 93 1000 000/00 RMK AO2 TSE13RAB18 P0002
63870K0J4 0J420160513034513505/13/16 03:45:31  5-MIN K0J4 130845Z AUTO 00000KT 7SM -RA FEW049 BKN095 BKN120 21/20 A3007 180 93 1000 000/00 RMK AO2 TSE13RAB18 P0002
63870K0J4 0J420160513035013505/13/16 03:50:31  5-MIN K0J4 130850Z AUTO 35003KT 7SM -RA FEW049 SCT095 BKN120 21/20 A3006 190 93 1000 350/03 RMK AO2 TSE13RAB18 P0002
63870K0J4 0J420160513035515705/13/16 03:55:31  5-MIN K0J4 130855Z AUTO 00000KT 7SM -RA BKN100 BKN120 21/20 A3006 180 93 1000 000/00 RMK AO2 TSE13RAB18 SLP176 P0002 60002 T02110200 58004
63870K0J4 0J420160513040011705/13/16 04:00:31  5-MIN K0J4 130900Z AUTO 00000KT 8SM -RA BKN100 BKN110 21/20 A3007 180 93 1000 000/00 RMK AO2 P0000
63870K0J4 0J420160513040512405/13/16 04:05:31  5-MIN K0J4 130905Z AUTO 00000KT 7SM -RA FEW012 SCT095 BKN110 21/20 A3008 170 93 1000 000/00 RMK AO2 P0000
63870K0J4 0J420160513041012705/13/16 04:10:31  5-MIN K0J4 130910Z AUTO 00000KT 6SM -RA BR FEW012 BKN095 BKN110 21/20 A3007 180 93 1000 000/00 RMK AO2 P0000
63870K0J4 0J420160513041512005/13/16 04:15:31  5-MIN K0J4 130915Z AUTO 00000KT 5SM -RA BR FEW010 OVC100 21/20 A3007 170 93 1000 000/00 RMK AO2 P0000
63870K0J4 0J420160513042012005/13/16 04:20:31  5-MIN K0J4 130920Z AUTO VRB03KT 5SM -RA BR SCT010 OVC100 21/20 A3007 180 93 1000 VRB/03 RMK AO2 P0001
63870K0J4 0J420160513042512605/13/16 04:25:31  5-MIN K0J4 130925Z AUTO VRB03KT 5SM -RA BR BKN010 BKN060 OVC110 21/20 A3007 170 97 900 VRB/03 RMK AO2 P0001
63870K0J4 0J420160513043012605/13/16 04:30:31  5-MIN K0J4 130930Z AUTO 00000KT 6SM -RA BR SCT010 BKN023 OVC110 21/20 A3008 170 97 900 000/00 RMK AO2 P0002
63870K0J4 0J420160513043512605/13/16 04:35:31  5-MIN K0J4 130935Z AUTO 32003KT 5SM -RA BR SCT010 SCT085 OVC110 21/20 A3008 170 97 900 320/03 RMK AO2 P0002
63870K0J4 0J420160513044011905/13/16 04:40:31  5-MIN K0J4 130940Z AUTO 00000KT 5SM -RA BR FEW010 OVC110 21/19 A3007 180 93 900 000/00 RMK AO2 P0003
63870K0J4 0J420160513044512505/13/16 04:45:31  5-MIN K0J4 130945Z AUTO 00000KT 4SM RA BR SCT010 BKN100 OVC110 21/19 A3008 170 93 900 000/00 RMK AO2 P0003
63870K0J4 0J420160513045012605/13/16 04:50:31  5-MIN K0J4 130950Z AUTO 00000KT 4SM -RA BR FEW010 BKN100 OVC110 21/19 A3007 170 93 900 000/00 RMK AO2 P0004
63870K0J4 0J420160513045514205/13/16 04:55:31  5-MIN K0J4 130955Z AUTO 22004KT 4SM RA BR FEW012 SCT085 OVC110 21/19 A3007 180 93 900 220/04 RMK AO2 SLP179 P0005 T02060194
63870K0J4 0J420160513050012605/13/16 05:00:31  5-MIN K0J4 131000Z AUTO VRB03KT 3SM +RA BR FEW050 BKN095 OVC110 21/19 A3007 180 93 900 VRB/03 RMK AO2 P0000
63870K0J4 0J420160513050512505/13/16 05:05:31  5-MIN K0J4 131005Z AUTO 00000KT 4SM RA BR FEW050 SCT080 OVC100 20/19 A3007 180 93 800 000/00 RMK AO2 P0001
63870K0J4 0J420160513051012305/13/16 05:10:31  5-MIN K0J4 131010Z AUTO 00000KT 7SM -RA FEW050 SCT080 BKN100 20/19 A3007 180 93 800 000/00 RMK AO2 P0001
63870K0J4 0J420160513051512405/13/16 05:15:31  5-MIN K0J4 131015Z AUTO 35003KT 10SM -RA FEW050 SCT085 BKN100 20/19 A3006 190 93 900 350/03 RMK AO2 P0001
63870K0J4 0J420160513052011905/13/16 05:20:31  5-MIN K0J4 131020Z AUTO 00000KT 10SM FEW050 SCT100 19/19 A3006 190 97 800 000/00 RMK AO2 RAE16 P0001
63870K0J4 0J420160513052511205/13/16 05:25:31  5-MIN K0J4 131025Z AUTO 00000KT 10SM FEW050 19/18 A3005 190 93 800 000/00 RMK AO2 RAE16 P0001
63870K0J4 0J420160513053011205/13/16 05:30:31  5-MIN K0J4 131030Z AUTO 00000KT 10SM FEW050 19/18 A3005 190 93 800 000/00 RMK AO2 RAE16 P0001
63870K0J4 0J420160513053510905/13/16 05:35:31  5-MIN K0J4 131035Z AUTO 00000KT 10SM CLR 19/18 A3005 190 93 800 000/00 RMK AO2 RAE16 P0001
63870K0J4 0J420160513054010905/13/16 05:40:31  5-MIN K0J4 131040Z AUTO 00000KT 10SM CLR 19/18 A3005 190 93 800 000/00 RMK AO2 RAE16 P0001
63870K0J4 0J420160513054510905/13/16 05:45:31  5-MIN K0J4 131045Z AUTO 35003KT 10SM CLR 19/18 A3005 190 93 700 350/03 RMK AO2 RAE16 P0001
63870K0J4 0J420160513055010905/13/16 05:50:31  5-MIN K0J4 131050Z AUTO 00000KT 10SM CLR 19/18 A3005 190 93 700 000/00 RMK AO2 RAE16 P0001
63870K0J4 0J420160513055512505/13/16 05:55:31  5-MIN K0J4 131055Z AUTO VRB03KT 9SM CLR 19/18 A3006 190 97 700 VRB/03 RMK AO2 RAE16 SLP174 P0001 T01890183
63870K0J4 0J420160513060009605/13/16 06:00:31  5-MIN K0J4 131100Z AUTO 34003KT 8SM CLR 19/18 A3006 190 93 800 340/03 RMK AO2
63870K0J4 0J420160513060509605/13/16 06:05:31  5-MIN K0J4 131105Z AUTO 00000KT 8SM CLR 19/18 A3006 190 93 800 000/00 RMK AO2
63870K0J4 0J420160513061009605/13/16 06:10:31  5-MIN K0J4 131110Z AUTO 00000KT 9SM CLR 19/18 A3006 190 93 800 000/00 RMK AO2
63870K0J4 0J420160513061509705/13/16 06:15:31  5-MIN K0J4 131115Z AUTO 34003KT 10SM CLR 19/18 A3006 190 93 800 340/03 RMK AO2
63870K0J4 0J420160513062009705/13/16 06:20:31  5-MIN K0J4 131120Z AUTO VRB03KT 10SM CLR 19/18 A3006 190 90 800 VRB/03 RMK AO2
63870K0J4 0J420160513062509705/13/16 06:25:31  5-MIN K0J4 131125Z AUTO VRB03KT 10SM CLR 19/18 A3006 190 93 700 VRB/03 RMK AO2
63870K0J4 0J420160513063009705/13/16 06:30:31  5-MIN K0J4 131130Z AUTO VRB03KT 10SM CLR 19/18 A3006 190 93 700 VRB/03 RMK AO2
63870K0J4 0J420160513063509705/13/16 06:35:31  5-MIN K0J4 131135Z AUTO 00000KT 10SM CLR 19/18 A3006 180 90 800 000/00 RMK AO2
63870K0J4 0J420160513064009705/13/16 06:40:31  5-MIN K0J4 131140Z AUTO 00000KT 10SM CLR 19/18 A3006 180 90 800 000/00 RMK AO2
63870K0J4 0J420160513064509705/13/16 06:45:31  5-MIN K0J4 131145Z AUTO 00000KT 10SM CLR 19/18 A3007 180 90 800 000/00 RMK AO2
63870K0J4 0J420160513065009705/13/16 06:50:31  5-MIN K0J4 131150Z AUTO VRB03KT 10SM CLR 19/18 A3007 180 90 800 VRB/03 RMK AO2
63870K0J4 0J420160513065514405/13/16 06:55:31  5-MIN K0J4 131155Z AUTO 00000KT 10SM CLR 20/18 A3007 180 90 800 000/00 RMK AO2 SLP178 60011 70011 T02000183 10217 20189 58004
63870K0J4 0J420160513070009705/13/16 07:00:31  5-MIN K0J4 131200Z AUTO 00000KT 10SM CLR 20/18 A3007 180 90 800 000/00 RMK AO2
63870K0J4 0J420160513070509705/13/16 07:05:31  5-MIN K0J4 131205Z AUTO 00000KT 10SM CLR 20/18 A3007 180 90 800 000/00 RMK AO2
63870K0J4 0J420160513071009705/13/16 07:10:31  5-MIN K0J4 131210Z AUTO 00000KT 10SM CLR 21/18 A3007 180 87 900 000/00 RMK AO2
63870K0J4 0J420160513071509705/13/16 07:15:31  5-MIN K0J4 131215Z AUTO 00000KT 10SM CLR 21/18 A3007 180 87 900 000/00 RMK AO2
63870K0J4 0J420160513072009705/13/16 07:20:31  5-MIN K0J4 131220Z AUTO VRB03KT 10SM CLR 21/18 A3007 180 87 900 VRB/03 RMK AO2
63870K0J4 0J420160513072509805/13/16 07:25:31  5-MIN K0J4 131225Z AUTO 00000KT 10SM CLR 21/19 A3007 170 87 1000 000/00 RMK AO2
63870K0J4 0J420160513073009805/13/16 07:30:31  5-MIN K0J4 131230Z AUTO 00000KT 10SM CLR 21/19 A3007 180 87 1000 000/00 RMK AO2
63870K0J4 0J420160513073509805/13/16 07:35:31  5-MIN K0J4 131235Z AUTO VRB04KT 10SM CLR 21/18 A3007 180 84 1000 VRB/04 RMK AO2
63870K0J4 0J420160513074009805/13/16 07:40:31  5-MIN K0J4 131240Z AUTO VRB03KT 10SM CLR 21/19 A3007 180 87 1000 VRB/03 RMK AO2
63870K0J4 0J420160513074509805/13/16 07:45:31  5-MIN K0J4 131245Z AUTO VRB03KT 10SM CLR 21/19 A3007 180 87 1000 VRB/03 RMK AO2
63870K0J4 0J420160513075009805/13/16 07:50:31  5-MIN K0J4 131250Z AUTO VRB03KT 10SM CLR 21/19 A3007 180 87 1000 VRB/03 RMK AO2
63870K0J4 0J420160513075511505/13/16 07:55:31  5-MIN K0J4 131255Z AUTO VRB04KT 10SM CLR 22/19 A3007 170 84 1000 VRB/04 RMK AO2 SLP180 T02170189
63870K0J4 0J420160513080009805/13/16 08:00:31  5-MIN K0J4 131300Z AUTO 34004KT 10SM CLR 22/19 A3007 170 84 1000 340/04 RMK AO2
63870K0J4 0J420160513080509805/13/16 08:05:31  5-MIN K0J4 131305Z AUTO VRB03KT 10SM CLR 22/19 A3008 170 81 1100 VRB/03 RMK AO2
63870K0J4 0J420160513081009805/13/16 08:10:31  5-MIN K0J4 131310Z AUTO VRB03KT 10SM CLR 22/19 A3007 170 81 1100 VRB/03 RMK AO2
63870K0J4 0J420160513081509805/13/16 08:15:31  5-MIN K0J4 131315Z AUTO VRB03KT 10SM CLR 22/19 A3008 170 81 1100 VRB/03 RMK AO2
63870K0J4 0J420160513082009805/13/16 08:20:31  5-MIN K0J4 131320Z AUTO VRB06KT 10SM CLR 22/19 A3008 170 81 1100 VRB/06 RMK AO2
63870K0J4 0J420160513082509805/13/16 08:25:31  5-MIN K0J4 131325Z AUTO 01006KT 10SM CLR 23/19 A3008 170 78 1200 010/06 RMK AO2
63870K0J4 0J420160513083011405/13/16 08:30:31  5-MIN K0J4 131330Z AUTO 36007KT 330V050 10SM CLR 23/19 A3008 170 78 1200 360/07 330V050 RMK AO2
63870K0J4 0J420160513083509805/13/16 08:35:31  5-MIN K0J4 131335Z AUTO VRB04KT 10SM CLR 23/19 A3008 170 78 1200 VRB/04 RMK AO2
63870K0J4 0J420160513084010105/13/16 08:40:31  5-MIN K0J4 131340Z AUTO 01007KT 10SM FEW012 23/19 A3008 170 78 1200 010/07 RMK AO2
63870K0J4 0J420160513084510105/13/16 08:45:31  5-MIN K0J4 131345Z AUTO 34005KT 10SM SCT012 23/19 A3008 170 78 1100 340/05 RMK AO2
63870K0J4 0J420160513085010105/13/16 08:50:31  5-MIN K0J4 131350Z AUTO VRB04KT 10SM SCT012 23/19 A3008 160 78 1200 VRB/04 RMK AO2
63870K0J4 0J420160513085511805/13/16 08:55:31  5-MIN K0J4 131355Z AUTO VRB04KT 10SM BKN012 24/19 A3009 160 76 1300 VRB/04 RMK AO2 SLP185 T02390194
63870K0J4 0J420160513090010105/13/16 09:00:31  5-MIN K0J4 131400Z AUTO 02006KT 10SM BKN012 24/19 A3009 160 73 1300 020/06 RMK AO2
63870K0J4 0J420160513090510105/13/16 09:05:31  5-MIN K0J4 131405Z AUTO 03009KT 10SM OVC012 24/19 A3009 160 73 1300 030/09 RMK AO2
63870K0J4 0J420160513091010105/13/16 09:10:31  5-MIN K0J4 131410Z AUTO 01008KT 10SM OVC014 24/19 A3009 160 73 1300 010/08 RMK AO2
63870K0J4 0J420160513091511705/13/16 09:15:31  5-MIN K0J4 131415Z AUTO 02007KT 350V050 10SM OVC014 24/19 A3009 160 73 1300 020/07 350V050 RMK AO2
63870K0J4 0J420160513092010105/13/16 09:20:31  5-MIN K0J4 131420Z AUTO 01007KT 10SM OVC014 24/19 A3009 160 73 1300 010/07 RMK AO2
63870K0J4 0J420160513092510105/13/16 09:25:31  5-MIN K0J4 131425Z AUTO 36004KT 10SM OVC014 24/19 A3009 160 73 1300 360/04 RMK AO2
63870K0J4 0J420160513093010105/13/16 09:30:31  5-MIN K0J4 131430Z AUTO VRB03KT 10SM BKN014 23/19 A3009 160 78 1100 VRB/03 RMK AO2
63870K0J4 0J420160513093510105/13/16 09:35:31  5-MIN K0J4 131435Z AUTO 32005KT 10SM BKN014 24/19 A3009 160 73 1300 320/05 RMK AO2
63870K0J4 0J420160513094010105/13/16 09:40:31  5-MIN K0J4 131440Z AUTO VRB04KT 10SM BKN014 24/19 A3008 160 71 1300 VRB/04 RMK AO2
63870K0J4 0J420160513094510105/13/16 09:45:31  5-MIN K0J4 131445Z AUTO 33004KT 10SM BKN014 24/19 A3009 160 73 1300 330/04 RMK AO2
63870K0J4 0J420160513095010105/13/16 09:50:31  5-MIN K0J4 131450Z AUTO VRB04KT 10SM SCT016 24/19 A3009 160 73 1300 VRB/04 RMK AO2
63870K0J4 0J420160513095512405/13/16 09:55:31  5-MIN K0J4 131455Z AUTO VRB05KT 10SM SCT016 24/19 A3009 160 73 1300 VRB/05 RMK AO2 SLP185 T02390189 55001
63870K0J4 0J420160513100010105/13/16 10:00:31  5-MIN K0J4 131500Z AUTO VRB03KT 10SM BKN018 24/19 A3009 160 71 1300 VRB/03 RMK AO2
63870K0J4 0J420160513100510105/13/16 10:05:31  5-MIN K0J4 131505Z AUTO VRB06KT 10SM BKN018 25/19 A3009 160 68 1400 VRB/06 RMK AO2
63870K0J4 0J420160513101010105/13/16 10:10:31  5-MIN K0J4 131510Z AUTO VRB06KT 10SM BKN018 25/19 A3009 160 68 1400 VRB/06 RMK AO2
63870K0J4 0J420160513101511705/13/16 10:15:31  5-MIN K0J4 131515Z AUTO 01007KT 330V040 10SM BKN018 25/19 A3009 160 68 1400 010/07 330V040 RMK AO2
63870K0J4 0J420160513102010105/13/16 10:20:31  5-MIN K0J4 131520Z AUTO VRB06KT 10SM BKN020 25/19 A3009 160 68 1400 VRB/06 RMK AO2
63870K0J4 0J420160513102510105/13/16 10:25:31  5-MIN K0J4 131525Z AUTO 36007KT 10SM BKN020 26/19 A3009 160 66 1500 360/07 RMK AO2
63870K0J4 0J420160513103010105/13/16 10:30:31  5-MIN K0J4 131530Z AUTO 02008KT 10SM BKN020 25/19 A3009 160 68 1400 020/08 RMK AO2
63870K0J4 0J420160513103510105/13/16 10:35:31  5-MIN K0J4 131535Z AUTO 35006KT 10SM BKN020 26/19 A3009 160 66 1500 350/06 RMK AO2
63870K0J4 0J420160513104010105/13/16 10:40:31  5-MIN K0J4 131540Z AUTO 36005KT 10SM BKN020 25/19 A3009 160 68 1400 360/05 RMK AO2
63870K0J4 0J420160513104510105/13/16 10:45:31  5-MIN K0J4 131545Z AUTO 01005KT 10SM BKN020 25/19 A3010 150 68 1400 010/05 RMK AO2
63870K0J4 0J420160513105010805/13/16 10:50:31  5-MIN K0J4 131550Z AUTO 02008KT 10SM BKN022 BKN029 26/19 A3010 150 66 1500 020/08 RMK AO2
63870K0J4 0J420160513105512505/13/16 10:55:31  5-MIN K0J4 131555Z AUTO 02007KT 10SM BKN022 OVC029 25/19 A3009 160 68 1400 020/07 RMK AO2 SLP187 T02500189
63870K0J4 0J420160513110010805/13/16 11:00:31  5-MIN K0J4 131600Z AUTO 35004KT 10SM BKN022 BKN029 25/19 A3010 150 68 1400 350/04 RMK AO2
63870K0J4 0J420160513110513105/13/16 11:05:31  5-MIN K0J4 131605Z AUTO 35007KT 310V030 10SM BKN022 BKN031 BKN036 26/19 A3009 160 66 1500 350/07 310V030 RMK AO2
63870K0J4 0J420160513111013105/13/16 11:10:31  5-MIN K0J4 131610Z AUTO 36007KT 320V030 10SM SCT022 BKN029 BKN036 25/19 A3009 160 68 1400 360/07 320V030 RMK AO2
63870K0J4 0J420160513111510805/13/16 11:15:31  5-MIN K0J4 131615Z AUTO VRB05KT 10SM SCT024 BKN032 25/19 A3009 160 68 1400 VRB/05 RMK AO2
63870K0J4 0J420160513112011505/13/16 11:20:31  5-MIN K0J4 131620Z AUTO 03008KT 10SM SCT022 SCT029 BKN035 26/19 A3009 160 66 1500 030/08 RMK AO2
63870K0J4 0J420160513112511505/13/16 11:25:31  5-MIN K0J4 131625Z AUTO VRB05KT 10SM SCT022 BKN030 BKN036 25/19 A3009 160 68 1400 VRB/05 RMK AO2
63870K0J4 0J420160513113011505/13/16 11:30:31  5-MIN K0J4 131630Z AUTO 35003KT 10SM BKN022 BKN030 OVC036 25/18 A3009 160 66 1400 350/03 RMK AO2
63870K0J4 0J420160513113510805/13/16 11:35:31  5-MIN K0J4 131635Z AUTO 01005KT 10SM BKN022 BKN033 25/19 A3009 160 68 1400 010/05 RMK AO2
63870K0J4 0J420160513114010805/13/16 11:40:31  5-MIN K0J4 131640Z AUTO VRB04KT 10SM SCT024 BKN033 26/19 A3009 160 64 1500 VRB/04 RMK AO2
63870K0J4 0J420160513114510805/13/16 11:45:31  5-MIN K0J4 131645Z AUTO VRB04KT 10SM BKN024 BKN031 26/18 A3009 160 64 1500 VRB/04 RMK AO2
63870K0J4 0J420160513115010805/13/16 11:50:31  5-MIN K0J4 131650Z AUTO 00000KT 10SM BKN024 BKN031 26/18 A3009 160 64 1500 000/00 RMK AO2
63870K0J4 0J420160513115510805/13/16 11:55:31  5-MIN K0J4 131655Z AUTO 00000KT 10SM SCT024 SCT031 27/18 A3009 160 60 1600 000/00 RMK AO2
63870K0J4 0J420160513120010105/13/16 12:00:31  5-MIN K0J4 131700Z AUTO VRB03KT 10SM SCT026 26/18 A3008 170 62 1500 VRB/03 RMK AO2
63870K0J4 0J420160513120510105/13/16 12:05:31  5-MIN K0J4 131705Z AUTO 00000KT 10SM SCT028 27/19 A3008 170 62 1600 000/00 RMK AO2
63870K0J4 0J420160513121010105/13/16 12:10:31  5-MIN K0J4 131710Z AUTO 02007KT 10SM SCT028 27/18 A3008 170 58 1700 020/07 RMK AO2
63870K0J4 0J420160513121510805/13/16 12:15:31  5-MIN K0J4 131715Z AUTO 00000KT 10SM FEW028 SCT037 27/18 A3007 170 58 1700 000/00 RMK AO2
63870K0J4 0J420160513122010105/13/16 12:20:31  5-MIN K0J4 131720Z AUTO VRB04KT 10SM SCT033 27/18 A3007 170 60 1600 VRB/04 RMK AO2
63870K0J4 0J420160513122510805/13/16 12:25:31  5-MIN K0J4 131725Z AUTO 00000KT 10SM SCT034 BKN043 27/18 A3007 170 60 1600 000/00 RMK AO2
63870K0J4 0J420160513123010805/13/16 12:30:31  5-MIN K0J4 131730Z AUTO VRB04KT 10SM BKN034 BKN043 27/18 A3007 170 60 1600 VRB/04 RMK AO2
63870K0J4 0J420160513123510805/13/16 12:35:31  5-MIN K0J4 131735Z AUTO VRB05KT 10SM BKN034 BKN043 27/18 A3007 170 58 1700 VRB/05 RMK AO2
63870K0J4 0J420160513124010805/13/16 12:40:31  5-MIN K0J4 131740Z AUTO 00000KT 10SM BKN036 BKN043 27/18 A3007 170 60 1600 000/00 RMK AO2
63870K0J4 0J420160513124511505/13/16 12:45:31  5-MIN K0J4 131745Z AUTO 03003KT 10SM BKN034 BKN043 OVC050 27/18 A3007 180 60 1600 030/03 RMK AO2
63870K0J4 0J420160513125011505/13/16 12:50:31  5-MIN K0J4 131750Z AUTO 02004KT 10SM BKN034 BKN042 OVC050 27/18 A3007 180 58 1700 020/04 RMK AO2
63870K0J4 0J420160513125515005/13/16 12:55:31  5-MIN K0J4 131755Z AUTO VRB05KT 10SM BKN036 BKN043 OVC050 28/18 A3007 180 56 1700 VRB/05 RMK AO2 SLP177 T02780183 10278 20217 51007
63870K0J4 0J420160513130010805/13/16 13:00:31  5-MIN K0J4 131800Z AUTO VRB05KT 10SM BKN036 BKN047 28/18 A3007 180 56 1700 VRB/05 RMK AO2
63870K0J4 0J420160513130511505/13/16 13:05:31  5-MIN K0J4 131805Z AUTO 00000KT 10SM SCT036 BKN047 BKN055 28/19 A3006 180 56 1800 000/00 RMK AO2
63870K0J4 0J420160513131010805/13/16 13:10:31  5-MIN K0J4 131810Z AUTO VRB03KT 10SM SCT036 BKN050 28/18 A3006 190 56 1700 VRB/03 RMK AO2
63870K0J4 0J420160513131510805/13/16 13:15:31  5-MIN K0J4 131815Z AUTO VRB05KT 10SM SCT036 BKN048 28/18 A3006 190 54 1700 VRB/05 RMK AO2
63870K0J4 0J420160513132010805/13/16 13:20:31  5-MIN K0J4 131820Z AUTO 02003KT 10SM SCT037 BKN048 27/17 A3006 190 54 1700 020/03 RMK AO2
63870K0J4 0J420160513132510805/13/16 13:25:31  5-MIN K0J4 131825Z AUTO VRB04KT 10SM SCT037 BKN048 28/18 A3006 190 54 1800 VRB/04 RMK AO2
63870K0J4 0J420160513133011505/13/16 13:30:31  5-MIN K0J4 131830Z AUTO 04007KT 10SM FEW037 SCT046 BKN055 28/18 A3006 190 54 1700 040/07 RMK AO2
63870K0J4 0J420160513133511505/13/16 13:35:31  5-MIN K0J4 131835Z AUTO 03004KT 10SM SCT040 BKN046 OVC055 27/17 A3006 190 54 1700 030/04 RMK AO2
63870K0J4 0J420160513134011505/13/16 13:40:31  5-MIN K0J4 131840Z AUTO VRB03KT 10SM BKN040 BKN050 OVC060 27/18 A3006 190 56 1700 VRB/03 RMK AO2
63870K0J4 0J420160513134510805/13/16 13:45:31  5-MIN K0J4 131845Z AUTO VRB03KT 10SM BKN040 BKN060 27/18 A3006 190 57 1600 VRB/03 RMK AO2
63870K0J4 0J420160513135010805/13/16 13:50:31  5-MIN K0J4 131850Z AUTO VRB05KT 10SM SCT040 BKN060 28/18 A3006 190 54 1700 VRB/05 RMK AO2
63870K0J4 0J420160513135512505/13/16 13:55:31  5-MIN K0J4 131855Z AUTO VRB05KT 10SM FEW040 SCT060 28/17 A3006 190 52 1700 VRB/05 RMK AO2 SLP173 T02780172
63870K0J4 0J420160513140010805/13/16 14:00:31  5-MIN K0J4 131900Z AUTO VRB05KT 10SM FEW040 SCT060 28/18 A3005 190 52 1800 VRB/05 RMK AO2
63870K0J4 0J420160513140510805/13/16 14:05:31  5-MIN K0J4 131905Z AUTO VRB03KT 10SM FEW040 BKN060 28/17 A3005 190 50 1800 VRB/03 RMK AO2
63870K0J4 0J420160513141011505/13/16 14:10:31  5-MIN K0J4 131910Z AUTO VRB05KT 10SM FEW040 SCT049 BKN060 28/17 A3005 190 50 1800 VRB/05 RMK AO2
63870K0J4 0J420160513141511505/13/16 14:15:31  5-MIN K0J4 131915Z AUTO 01006KT 10SM SCT040 BKN050 BKN065 27/17 A3005 190 54 1700 010/06 RMK AO2
63870K0J4 0J420160513142011505/13/16 14:20:31  5-MIN K0J4 131920Z AUTO VRB03KT 10SM SCT040 SCT050 SCT065 28/18 A3005 200 52 1800 VRB/03 RMK AO2
63870K0J4 0J420160513142511505/13/16 14:25:31  5-MIN K0J4 131925Z AUTO VRB04KT 10SM FEW040 SCT050 SCT065 29/18 A3005 200 50 1900 VRB/04 RMK AO2
63870K0J4 0J420160513143010805/13/16 14:30:31  5-MIN K0J4 131930Z AUTO VRB04KT 10SM FEW040 SCT050 29/18 A3004 200 49 1900 VRB/04 RMK AO2
63870K0J4 0J420160513143510105/13/16 14:35:31  5-MIN K0J4 131935Z AUTO VRB03KT 10SM SCT042 29/17 A3005 200 48 1900 VRB/03 RMK AO2
63870K0J4 0J420160513144010805/13/16 14:40:31  5-MIN K0J4 131940Z AUTO VRB03KT 10SM SCT042 BKN060 29/17 A3004 200 48 1900 VRB/03 RMK AO2
63870K0J4 0J420160513144510805/13/16 14:45:31  5-MIN K0J4 131945Z AUTO VRB05KT 10SM FEW042 BKN060 29/17 A3004 210 48 1900 VRB/05 RMK AO2
63870K0J4 0J420160513145011505/13/16 14:50:31  5-MIN K0J4 131950Z AUTO 01005KT 10SM SCT044 SCT060 BKN075 28/17 A3004 210 52 1800 010/05 RMK AO2
63870K0J4 0J420160513145512505/13/16 14:55:31  5-MIN K0J4 131955Z AUTO 34004KT 10SM SCT044 SCT060 28/17 A3004 210 52 1800 340/04 RMK AO2 SLP167 T02780172
63870K0J4 0J420160513150010805/13/16 15:00:31  5-MIN K0J4 132000Z AUTO VRB03KT 10SM FEW044 SCT060 28/17 A3004 210 50 1800 VRB/03 RMK AO2
63870K0J4 0J420160513150510805/13/16 15:05:31  5-MIN K0J4 132005Z AUTO VRB03KT 10SM FEW044 SCT075 28/17 A3004 210 52 1800 VRB/03 RMK AO2
63870K0J4 0J420160513151010105/13/16 15:10:31  5-MIN K0J4 132010Z AUTO VRB04KT 10SM SCT070 28/17 A3004 210 50 1800 VRB/04 RMK AO2
63870K0J4 0J420160513151510105/13/16 15:15:31  5-MIN K0J4 132015Z AUTO VRB04KT 10SM FEW070 28/17 A3003 210 48 1800 VRB/04 RMK AO2
63870K0J4 0J420160513152010105/13/16 15:20:31  5-MIN K0J4 132020Z AUTO VRB03KT 10SM FEW070 28/16 A3003 210 48 1800 VRB/03 RMK AO2
63870K0J4 0J420160513152510105/13/16 15:25:31  5-MIN K0J4 132025Z AUTO 00000KT 10SM SCT070 28/16 A3003 220 48 1800 000/00 RMK AO2
63870K0J4 0J420160513153010105/13/16 15:30:31  5-MIN K0J4 132030Z AUTO VRB03KT 10SM SCT070 28/17 A3003 220 50 1800 VRB/03 RMK AO2
63870K0J4 0J420160513153510105/13/16 15:35:31  5-MIN K0J4 132035Z AUTO 00000KT 10SM SCT070 28/16 A3003 220 47 1800 000/00 RMK AO2
63870K0J4 0J420160513154010105/13/16 15:40:31  5-MIN K0J4 132040Z AUTO VRB05KT 10SM FEW070 29/17 A3002 220 45 2000 VRB/05 RMK AO2
63870K0J4 0J420160513154510805/13/16 15:45:31  5-MIN K0J4 132045Z AUTO VRB05KT 10SM FEW049 SCT070 29/16 A3002 220 44 1900 VRB/05 RMK AO2
63870K0J4 0J420160513155010805/13/16 15:50:31  5-MIN K0J4 132050Z AUTO VRB05KT 10SM FEW049 BKN065 29/16 A3002 220 45 1900 VRB/05 RMK AO2
63870K0J4 0J420160513155513105/13/16 15:55:31  5-MIN K0J4 132055Z AUTO 36006KT 10SM FEW049 SCT060 28/16 A3002 220 47 1800 360/06 RMK AO2 SLP161 T02830161 58007
63870K0J4 0J420160513160010805/13/16 16:00:31  5-MIN K0J4 132100Z AUTO 01006KT 10SM FEW049 SCT060 29/16 A3002 230 44 1900 010/06 RMK AO2
63870K0J4 0J420160513160510105/13/16 16:05:31  5-MIN K0J4 132105Z AUTO VRB05KT 10SM FEW049 29/16 A3002 230 44 1900 VRB/05 RMK AO2
63870K0J4 0J420160513161010105/13/16 16:10:31  5-MIN K0J4 132110Z AUTO VRB03KT 10SM FEW049 29/16 A3001 230 45 1900 VRB/03 RMK AO2
63870K0J4 0J420160513161510105/13/16 16:15:31  5-MIN K0J4 132115Z AUTO VRB06KT 10SM FEW050 29/16 A3002 230 44 2000 VRB/06 RMK AO2
63870K0J4 0J420160513162010105/13/16 16:20:31  5-MIN K0J4 132120Z AUTO VRB05KT 10SM FEW050 29/16 A3002 230 44 1900 VRB/05 RMK AO2
63870K0J4 0J420160513162510105/13/16 16:25:31  5-MIN K0J4 132125Z AUTO 00000KT 10SM FEW050 29/16 A3001 230 42 2000 000/00 RMK AO2
63870K0J4 0J420160513163010105/13/16 16:30:31  5-MIN K0J4 132130Z AUTO VRB05KT 10SM FEW050 29/16 A3001 230 42 2000 VRB/05 RMK AO2
63870K0J4 0J420160513163510105/13/16 16:35:31  5-MIN K0J4 132135Z AUTO 01006KT 10SM FEW050 29/16 A3001 230 44 2000 010/06 RMK AO2
63870K0J4 0J420160513164010105/13/16 16:40:31  5-MIN K0J4 132140Z AUTO VRB05KT 10SM SCT055 29/16 A3001 230 44 2000 VRB/05 RMK AO2
63870K0J4 0J420160513164510105/13/16 16:45:31  5-MIN K0J4 132145Z AUTO VRB03KT 10SM FEW055 29/16 A3001 230 42 2000 VRB/03 RMK AO2
63870K0J4 0J420160513165010105/13/16 16:50:31  5-MIN K0J4 132150Z AUTO 31005KT 10SM FEW055 29/15 A3001 230 42 1900 310/05 RMK AO2
63870K0J4 0J420160513165511805/13/16 16:55:31  5-MIN K0J4 132155Z AUTO VRB04KT 10SM FEW050 29/14 A3001 230 40 1900 VRB/04 RMK AO2 SLP158 T02890144
63870K0J4 0J420160513170010105/13/16 17:00:31  5-MIN K0J4 132200Z AUTO VRB04KT 10SM FEW055 29/14 A3001 230 40 1900 VRB/04 RMK AO2
63870K0J4 0J420160513170509805/13/16 17:05:31  5-MIN K0J4 132205Z AUTO 00000KT 10SM CLR 29/14 A3001 230 39 2000 000/00 RMK AO2
63870K0J4 0J420160513171009805/13/16 17:10:31  5-MIN K0J4 132210Z AUTO VRB03KT 10SM CLR 29/14 A3001 240 40 1900 VRB/03 RMK AO2
63870K0J4 0J420160513171509805/13/16 17:15:31  5-MIN K0J4 132215Z AUTO 31005KT 10SM CLR 29/14 A3001 230 40 1900 310/05 RMK AO2
63870K0J4 0J420160513172009805/13/16 17:20:31  5-MIN K0J4 132220Z AUTO 00000KT 10SM CLR 29/14 A3001 230 40 1900 000/00 RMK AO2
63870K0J4 0J420160513172509805/13/16 17:25:31  5-MIN K0J4 132225Z AUTO VRB03KT 10SM CLR 29/14 A3001 230 39 1900 VRB/03 RMK AO2
63870K0J4 0J420160513173009805/13/16 17:30:31  5-MIN K0J4 132230Z AUTO 00000KT 10SM CLR 29/14 A3001 230 39 1900 000/00 RMK AO2
63870K0J4 0J420160513173509805/13/16 17:35:31  5-MIN K0J4 132235Z AUTO VRB03KT 10SM CLR 28/13 A3001 230 39 1900 VRB/03 RMK AO2
63870K0J4 0J420160513174009805/13/16 17:40:31  5-MIN K0J4 132240Z AUTO VRB03KT 10SM CLR 28/14 A3001 230 40 1900 VRB/03 RMK AO2
63870K0J4 0J420160513174509805/13/16 17:45:31  5-MIN K0J4 132245Z AUTO VRB04KT 10SM CLR 28/13 A3001 230 39 1900 VRB/04 RMK AO2
63870K0J4 0J420160513175010105/13/16 17:50:31  5-MIN K0J4 132250Z AUTO VRB04KT 10SM FEW060 28/13 A3001 230 39 1900 VRB/04 RMK AO2
63870K0J4 0J420160513175511805/13/16 17:55:31  5-MIN K0J4 132255Z AUTO VRB03KT 10SM SCT060 28/13 A3001 230 39 1900 VRB/03 RMK AO2 SLP158 T02830133
63870K0J4 0J420160513180010105/13/16 18:00:31  5-MIN K0J4 132300Z AUTO VRB05KT 10SM BKN060 28/13 A3001 230 39 1900 VRB/05 RMK AO2
63870K0J4 0J420160513180510105/13/16 18:05:31  5-MIN K0J4 132305Z AUTO VRB04KT 10SM BKN060 28/13 A3001 230 40 1800 VRB/04 RMK AO2
63870K0J4 0J420160513181010105/13/16 18:10:31  5-MIN K0J4 132310Z AUTO 00000KT 10SM SCT060 28/13 A3001 230 40 1800 000/00 RMK AO2
63870K0J4 0J420160513181510105/13/16 18:15:31  5-MIN K0J4 132315Z AUTO 00000KT 10SM SCT060 28/14 A3001 230 42 1800 000/00 RMK AO2
63870K0J4 0J420160513182010105/13/16 18:20:31  5-MIN K0J4 132320Z AUTO 00000KT 10SM FEW060 27/14 A3001 230 43 1700 000/00 RMK AO2
63870K0J4 0J420160513182510105/13/16 18:25:31  5-MIN K0J4 132325Z AUTO VRB04KT 10SM FEW060 27/13 A3002 230 42 1700 VRB/04 RMK AO2
63870K0J4 0J420160513183009805/13/16 18:30:31  5-MIN K0J4 132330Z AUTO 00000KT 10SM CLR 27/13 A3002 230 43 1700 000/00 RMK AO2
63870K0J4 0J420160513183509805/13/16 18:35:31  5-MIN K0J4 132335Z AUTO VRB03KT 10SM CLR 27/13 A3002 230 43 1700 VRB/03 RMK AO2
63870K0J4 0J420160513184009805/13/16 18:40:31  5-MIN K0J4 132340Z AUTO 00000KT 10SM CLR 26/13 A3002 230 44 1600 000/00 RMK AO2
63870K0J4 0J420160513184509805/13/16 18:45:31  5-MIN K0J4 132345Z AUTO 00000KT 10SM CLR 26/13 A3002 230 44 1600 000/00 RMK AO2
63870K0J4 0J420160513185009805/13/16 18:50:31  5-MIN K0J4 132350Z AUTO 00000KT 10SM CLR 26/14 A3002 230 48 1500 000/00 RMK AO2
63870K0J4 0J420160513185513305/13/16 18:55:31  5-MIN K0J4 132355Z AUTO 00000KT 10SM CLR 26/14 A3002 220 48 1500 000/00 RMK AO2 SLP162 T02560139 10294 20256 58016
63870K0J4 0J420160513190009805/13/16 19:00:31  5-MIN K0J4 140000Z AUTO 33003KT 10SM CLR 26/14 A3002 220 48 1500 330/03 RMK AO2
63870K0J4 0J420160513190509805/13/16 19:05:31  5-MIN K0J4 140005Z AUTO 00000KT 10SM CLR 25/14 A3002 220 49 1500 000/00 RMK AO2
63870K0J4 0J420160513191009805/13/16 19:10:31  5-MIN K0J4 140010Z AUTO 00000KT 10SM CLR 25/14 A3002 220 49 1500 000/00 RMK AO2
63870K0J4 0J420160513191509805/13/16 19:15:31  5-MIN K0J4 140015Z AUTO 00000KT 10SM CLR 24/14 A3003 220 53 1400 000/00 RMK AO2
63870K0J4 0J420160513192009805/13/16 19:20:31  5-MIN K0J4 140020Z AUTO 00000KT 10SM CLR 24/14 A3003 220 51 1400 000/00 RMK AO2
63870K0J4 0J420160513192509805/13/16 19:25:31  5-MIN K0J4 140025Z AUTO 00000KT 10SM CLR 23/14 A3003 220 57 1300 000/00 RMK AO2
63870K0J4 0J420160513193009805/13/16 19:30:31  5-MIN K0J4 140030Z AUTO 00000KT 10SM CLR 23/15 A3003 220 61 1200 000/00 RMK AO2
63870K0J4 0J420160513193509805/13/16 19:35:31  5-MIN K0J4 140035Z AUTO 00000KT 10SM CLR 22/15 A3003 220 63 1100 000/00 RMK AO2
63870K0J4 0J420160513194009805/13/16 19:40:31  5-MIN K0J4 140040Z AUTO 00000KT 10SM CLR 22/15 A3003 220 65 1100 000/00 RMK AO2
63870K0J4 0J420160513194509805/13/16 19:45:31  5-MIN K0J4 140045Z AUTO 00000KT 10SM CLR 22/15 A3003 210 65 1100 000/00 RMK AO2
63870K0J4 0J420160513195009805/13/16 19:50:31  5-MIN K0J4 140050Z AUTO 00000KT 10SM CLR 22/15 A3003 210 65 1100 000/00 RMK AO2
63870K0J4 0J420160513195511505/13/16 19:55:31  5-MIN K0J4 140055Z AUTO 33003KT 10SM CLR 21/15 A3003 220 70 1000 330/03 RMK AO2 SLP165 T02060150
63870K0J4 0J420160513200009805/13/16 20:00:31  5-MIN K0J4 140100Z AUTO 00000KT 10SM CLR 21/16 A3003 210 73 1000 000/00 RMK AO2
63870K0J4 0J420160513200509805/13/16 20:05:31  5-MIN K0J4 140105Z AUTO 00000KT 10SM CLR 21/15 A3003 210 70 1000 000/00 RMK AO2
63870K0J4 0J420160513201009805/13/16 20:10:31  5-MIN K0J4 140110Z AUTO 00000KT 10SM CLR 21/14 A3003 210 67 1000 000/00 RMK AO2
63870K0J4 0J420160513201509705/13/16 20:15:31  5-MIN K0J4 140115Z AUTO 00000KT 10SM CLR 20/14 A3003 210 70 900 000/00 RMK AO2
63870K0J4 0J420160513202009705/13/16 20:20:31  5-MIN K0J4 140120Z AUTO 00000KT 10SM CLR 21/14 A3003 210 67 900 000/00 RMK AO2
63870K0J4 0J420160513202509705/13/16 20:25:31  5-MIN K0J4 140125Z AUTO 00000KT 10SM CLR 20/14 A3004 210 70 900 000/00 RMK AO2
63870K0J4 0J420160513203009705/13/16 20:30:31  5-MIN K0J4 140130Z AUTO 00000KT 10SM CLR 19/14 A3004 210 72 800 000/00 RMK AO2
63870K0J4 0J420160513203509705/13/16 20:35:31  5-MIN K0J4 140135Z AUTO 00000KT 10SM CLR 19/15 A3004 210 75 800 000/00 RMK AO2
63870K0J4 0J420160513204009705/13/16 20:40:31  5-MIN K0J4 140140Z AUTO 00000KT 10SM CLR 19/15 A3004 210 75 800 000/00 RMK AO2
63870K0J4 0J420160513204509705/13/16 20:45:31  5-MIN K0J4 140145Z AUTO 00000KT 10SM CLR 19/14 A3004 210 72 800 000/00 RMK AO2
63870K0J4 0J420160513205009705/13/16 20:50:31  5-MIN K0J4 140150Z AUTO 00000KT 10SM CLR 19/14 A3004 210 72 800 000/00 RMK AO2
63870K0J4 0J420160513205511405/13/16 20:55:31  5-MIN K0J4 140155Z AUTO 00000KT 10SM CLR 19/15 A3004 200 78 700 000/00 RMK AO2 SLP169 T01890150
63870K0J4 0J420160513210009705/13/16 21:00:31  5-MIN K0J4 140200Z AUTO 32003KT 10SM CLR 19/14 A3004 200 72 800 320/03 RMK AO2
63870K0J4 0J420160513210509705/13/16 21:05:31  5-MIN K0J4 140205Z AUTO 00000KT 10SM CLR 19/14 A3005 200 70 800 000/00 RMK AO2
63870K0J4 0J420160513211009705/13/16 21:10:31  5-MIN K0J4 140210Z AUTO 00000KT 10SM CLR 19/14 A3005 200 70 800 000/00 RMK AO2
63870K0J4 0J420160513211509705/13/16 21:15:31  5-MIN K0J4 140215Z AUTO 00000KT 10SM CLR 20/14 A3005 200 67 900 000/00 RMK AO2
63870K0J4 0J420160513212009705/13/16 21:20:31  5-MIN K0J4 140220Z AUTO 00000KT 10SM CLR 20/14 A3005 200 67 900 000/00 RMK AO2
63870K0J4 0J420160513212509705/13/16 21:25:31  5-MIN K0J4 140225Z AUTO 00000KT 10SM CLR 19/14 A3005 200 70 800 000/00 RMK AO2
63870K0J4 0J420160513213009705/13/16 21:30:31  5-MIN K0J4 140230Z AUTO 00000KT 10SM CLR 19/14 A3005 200 72 700 000/00 RMK AO2
63870K0J4 0J420160513213509705/13/16 21:35:31  5-MIN K0J4 140235Z AUTO 00000KT 10SM CLR 19/14 A3005 200 70 800 000/00 RMK AO2
63870K0J4 0J420160513214009705/13/16 21:40:31  5-MIN K0J4 140240Z AUTO 00000KT 10SM CLR 19/14 A3005 200 72 700 000/00 RMK AO2
63870K0J4 0J420160513214509705/13/16 21:45:31  5-MIN K0J4 140245Z AUTO 00000KT 10SM CLR 19/14 A3005 200 72 700 000/00 RMK AO2
63870K0J4 0J420160513215009705/13/16 21:50:31  5-MIN K0J4 140250Z AUTO 00000KT 10SM CLR 19/14 A3005 200 72 700 000/00 RMK AO2
63870K0J4 0J420160513215512005/13/16 21:55:31  5-MIN K0J4 140255Z AUTO 00000KT 10SM CLR 19/14 A3005 200 72 700 000/00 RMK AO2 SLP171 T01890139 53000
63870K0J4 0J420160513220009705/13/16 22:00:31  5-MIN K0J4 140300Z AUTO 00000KT 10SM CLR 18/14 A3005 200 75 700 000/00 RMK AO2
63870K0J4 0J420160513220509705/13/16 22:05:31  5-MIN K0J4 140305Z AUTO 34003KT 10SM CLR 18/14 A3005 200 75 700 340/03 RMK AO2
63870K0J4 0J420160513221009705/13/16 22:10:31  5-MIN K0J4 140310Z AUTO 00000KT 10SM CLR 19/14 A3005 200 72 700 000/00 RMK AO2
63870K0J4 0J420160513221509705/13/16 22:15:31  5-MIN K0J4 140315Z AUTO 34003KT 10SM CLR 18/14 A3004 200 75 700 340/03 RMK AO2
63870K0J4 0J420160513222009705/13/16 22:20:31  5-MIN K0J4 140320Z AUTO 00000KT 10SM CLR 19/13 A3004 200 65 800 000/00 RMK AO2
63870K0J4 0J420160513222509705/13/16 22:25:31  5-MIN K0J4 140325Z AUTO 00000KT 10SM CLR 19/13 A3004 200 70 700 000/00 RMK AO2
63870K0J4 0J420160513223009705/13/16 22:30:31  5-MIN K0J4 140330Z AUTO 00000KT 10SM CLR 19/13 A3004 200 70 700 000/00 RMK AO2
63870K0J4 0J420160513223509705/13/16 22:35:31  5-MIN K0J4 140335Z AUTO VRB03KT 10SM CLR 19/13 A3004 210 70 700 VRB/03 RMK AO2
63870K0J4 0J420160513224009705/13/16 22:40:31  5-MIN K0J4 140340Z AUTO 34003KT 10SM CLR 18/13 A3004 210 72 700 340/03 RMK AO2
63870K0J4 0J420160513224509705/13/16 22:45:31  5-MIN K0J4 140345Z AUTO 33003KT 10SM CLR 19/13 A3004 200 70 700 330/03 RMK AO2
63870K0J4 0J420160513225009705/13/16 22:50:31  5-MIN K0J4 140350Z AUTO 35003KT 10SM CLR 19/13 A3004 210 67 800 350/03 RMK AO2
63870K0J4 0J420160513225511405/13/16 22:55:31  5-MIN K0J4 140355Z AUTO 00000KT 10SM CLR 19/13 A3004 210 70 800 000/00 RMK AO2 SLP168 T01890133
63870K0J4 0J420160513230009705/13/16 23:00:31  5-MIN K0J4 140400Z AUTO 35003KT 10SM CLR 18/13 A3004 210 75 600 350/03 RMK AO2
63870K0J4 0J420160513230509705/13/16 23:05:31  5-MIN K0J4 140405Z AUTO 00000KT 10SM CLR 18/13 A3004 210 75 600 000/00 RMK AO2
63870K0J4 0J420160513231009705/13/16 23:10:31  5-MIN K0J4 140410Z AUTO 35003KT 10SM CLR 17/13 A3004 210 78 600 350/03 RMK AO2
63870K0J4 0J420160513231509705/13/16 23:15:31  5-MIN K0J4 140415Z AUTO 35003KT 10SM CLR 18/13 A3004 210 75 600 350/03 RMK AO2
63870K0J4 0J420160513232009705/13/16 23:20:31  5-MIN K0J4 140420Z AUTO 00000KT 10SM CLR 18/13 A3004 210 72 700 000/00 RMK AO2
63870K0J4 0J420160513232509705/13/16 23:25:31  5-MIN K0J4 140425Z AUTO 00000KT 10SM CLR 18/13 A3004 210 75 600 000/00 RMK AO2
63870K0J4 0J420160513233009705/13/16 23:30:31  5-MIN K0J4 140430Z AUTO 00000KT 10SM CLR 18/13 A3004 210 72 700 000/00 RMK AO2
63870K0J4 0J420160513233509705/13/16 23:35:31  5-MIN K0J4 140435Z AUTO 35003KT 10SM CLR 17/13 A3004 210 78 600 350/03 RMK AO2
63870K0J4 0J420160513234009705/13/16 23:40:31  5-MIN K0J4 140440Z AUTO 35003KT 10SM CLR 17/13 A3003 210 78 600 350/03 RMK AO2
63870K0J4 0J420160513234509705/13/16 23:45:31  5-MIN K0J4 140445Z AUTO 35003KT 10SM CLR 18/13 A3004 210 75 600 350/03 RMK AO2
63870K0J4 0J420160513235009705/13/16 23:50:31  5-MIN K0J4 140450Z AUTO 36004KT 10SM CLR 18/13 A3004 210 72 600 360/04 RMK AO2
63870K0J4 0J420160513235512405/13/16 23:55:31  5-MIN K0J4 140455Z AUTO 34003KT 10SM CLR 18/13 A3004 210 72 600 340/03 RMK AO2 SLP167 T01780128 402940172
63870K0J4 0J420160514000009705/14/16 00:00:31  5-MIN K0J4 140500Z AUTO 36003KT 10SM CLR 18/13 A3003 210 72 600 360/03 RMK AO2
63870K0J4 0J420160514000509705/14/16 00:05:31  5-MIN K0J4 140505Z AUTO 00000KT 10SM CLR 17/13 A3003 210 75 600 000/00 RMK AO2
63870K0J4 0J420160514001009705/14/16 00:10:31  5-MIN K0J4 140510Z AUTO 36003KT 10SM CLR 17/13 A3003 210 80 500 360/03 RMK AO2
63870K0J4 0J420160514001509705/14/16 00:15:31  5-MIN K0J4 140515Z AUTO 00000KT 10SM CLR 17/13 A3003 210 80 500 000/00 RMK AO2
63870K0J4 0J420160514002009705/14/16 00:20:31  5-MIN K0J4 140520Z AUTO 36003KT 10SM CLR 16/13 A3003 210 83 400 360/03 RMK AO2
63870K0J4 0J420160514002509705/14/16 00:25:31  5-MIN K0J4 140525Z AUTO 36003KT 10SM CLR 17/13 A3003 210 80 500 360/03 RMK AO2
63870K0J4 0J420160514003009705/14/16 00:30:31  5-MIN K0J4 140530Z AUTO 35003KT 10SM CLR 17/13 A3003 210 80 500 350/03 RMK AO2
63870K0J4 0J420160514003509705/14/16 00:35:31  5-MIN K0J4 140535Z AUTO 36004KT 10SM CLR 17/13 A3003 220 75 600 360/04 RMK AO2
63870K0J4 0J420160514004009705/14/16 00:40:31  5-MIN K0J4 140540Z AUTO 35003KT 10SM CLR 17/13 A3003 210 75 600 350/03 RMK AO2
63870K0J4 0J420160514004509705/14/16 00:45:31  5-MIN K0J4 140545Z AUTO 36003KT 10SM CLR 17/13 A3003 220 75 600 360/03 RMK AO2
63870K0J4 0J420160514005009705/14/16 00:50:31  5-MIN K0J4 140550Z AUTO 36004KT 10SM CLR 17/13 A3003 220 75 600 360/04 RMK AO2
63870K0J4 0J420160514005513205/14/16 00:55:31  5-MIN K0J4 140555Z AUTO 01005KT 10SM CLR 17/13 A3003 220 77 500 010/05 RMK AO2 SLP164 T01670128 10256 20161 51009
63870K0J4 0J420160514010009705/14/16 01:00:31  5-MIN K0J4 140600Z AUTO 36004KT 10SM CLR 17/13 A3003 220 77 500 360/04 RMK AO2
63870K0J4 0J420160514010509705/14/16 01:05:31  5-MIN K0J4 140605Z AUTO 36004KT 10SM CLR 17/13 A3002 220 75 600 360/04 RMK AO2
63870K0J4 0J420160514011009705/14/16 01:10:31  5-MIN K0J4 140610Z AUTO 36004KT 10SM CLR 18/13 A3002 220 72 600 360/04 RMK AO2
63870K0J4 0J420160514011509705/14/16 01:15:31  5-MIN K0J4 140615Z AUTO 36004KT 10SM CLR 18/13 A3002 220 72 600 360/04 RMK AO2
63870K0J4 0J420160514012009705/14/16 01:20:31  5-MIN K0J4 140620Z AUTO 36003KT 10SM CLR 18/13 A3002 220 72 600 360/03 RMK AO2
63870K0J4 0J420160514012509705/14/16 01:25:31  5-MIN K0J4 140625Z AUTO 35003KT 10SM CLR 17/13 A3002 220 75 600 350/03 RMK AO2
63870K0J4 0J420160514013009705/14/16 01:30:31  5-MIN K0J4 140630Z AUTO 00000KT 10SM CLR 17/13 A3002 220 77 500 000/00 RMK AO2
63870K0J4 0J420160514013509705/14/16 01:35:31  5-MIN K0J4 140635Z AUTO 00000KT 10SM CLR 16/13 A3002 220 80 400 000/00 RMK AO2
63870K0J4 0J420160514014009705/14/16 01:40:31  5-MIN K0J4 140640Z AUTO 00000KT 10SM CLR 16/13 A3002 220 83 400 000/00 RMK AO2
63870K0J4 0J420160514014509705/14/16 01:45:31  5-MIN K0J4 140645Z AUTO 00000KT 10SM CLR 14/13 A3002 220 90 200 000/00 RMK AO2
63870K0J4 0J420160514015009705/14/16 01:50:31  5-MIN K0J4 140650Z AUTO 00000KT 10SM CLR 14/12 A3002 220 86 200 000/00 RMK AO2
63870K0J4 0J420160514015511405/14/16 01:55:31  5-MIN K0J4 140655Z AUTO 00000KT 10SM CLR 14/12 A3002 220 86 200 000/00 RMK AO2 SLP163 T01440122
63870K0J4 0J420160514020009705/14/16 02:00:31  5-MIN K0J4 140700Z AUTO 00000KT 10SM CLR 14/13 A3002 220 90 200 000/00 RMK AO2
63870K0J4 0J420160514020509705/14/16 02:05:31  5-MIN K0J4 140705Z AUTO 00000KT 10SM CLR 14/13 A3002 220 90 200 000/00 RMK AO2
63870K0J4 0J420160514021009705/14/16 02:10:31  5-MIN K0J4 140710Z AUTO 00000KT 10SM CLR 14/12 A3002 220 90 200 000/00 RMK AO2
63870K0J4 0J420160514021509705/14/16 02:15:31  5-MIN K0J4 140715Z AUTO 00000KT 10SM CLR 14/12 A3002 230 90 200 000/00 RMK AO2
63870K0J4 0J420160514022009705/14/16 02:20:31  5-MIN K0J4 140720Z AUTO 00000KT 10SM CLR 14/13 A3002 230 90 300 000/00 RMK AO2
63870K0J4 0J420160514022509705/14/16 02:25:31  5-MIN K0J4 140725Z AUTO 00000KT 10SM CLR 14/12 A3002 230 90 200 000/00 RMK AO2
63870K0J4 0J420160514023009705/14/16 02:30:31  5-MIN K0J4 140730Z AUTO 00000KT 10SM CLR 14/13 A3001 230 90 300 000/00 RMK AO2
63870K0J4 0J420160514023509705/14/16 02:35:31  5-MIN K0J4 140735Z AUTO 00000KT 10SM CLR 14/12 A3001 230 86 300 000/00 RMK AO2
63870K0J4 0J420160514024009705/14/16 02:40:31  5-MIN K0J4 140740Z AUTO 00000KT 10SM CLR 14/12 A3001 230 86 300 000/00 RMK AO2
63870K0J4 0J420160514024509705/14/16 02:45:31  5-MIN K0J4 140745Z AUTO 00000KT 10SM CLR 14/12 A3001 230 90 200 000/00 RMK AO2
63870K0J4 0J420160514025009705/14/16 02:50:31  5-MIN K0J4 140750Z AUTO 00000KT 10SM CLR 13/12 A3001 230 89 100 000/00 RMK AO2
63870K0J4 0J420160514025511405/14/16 02:55:31  5-MIN K0J4 140755Z AUTO 00000KT 10SM CLR 13/12 A3001 230 89 100 000/00 RMK AO2 SLP158 T01330117
63870K0J4 0J420160514030009705/14/16 03:00:31  5-MIN K0J4 140800Z AUTO 00000KT 10SM CLR 13/12 A3001 240 89 100 000/00 RMK AO2
63870K0J4 0J420160514030509705/14/16 03:05:31  5-MIN K0J4 140805Z AUTO 00000KT 10SM CLR 13/11 A3001 230 86 100 000/00 RMK AO2
63870K0J4 0J420160514031009705/14/16 03:10:31  5-MIN K0J4 140810Z AUTO 00000KT 10SM CLR 13/12 A3001 240 89 100 000/00 RMK AO2
63870K0J4 0J420160514031509705/14/16 03:15:31  5-MIN K0J4 140815Z AUTO 00000KT 10SM CLR 13/12 A3001 230 89 100 000/00 RMK AO2
63870K0J4 0J420160514032009705/14/16 03:20:31  5-MIN K0J4 140820Z AUTO 00000KT 10SM CLR 14/12 A3001 230 86 200 000/00 RMK AO2
63870K0J4 0J420160514032509705/14/16 03:25:31  5-MIN K0J4 140825Z AUTO 00000KT 10SM CLR 14/12 A3001 230 90 200 000/00 RMK AO2
63870K0J4 0J420160514033009705/14/16 03:30:31  5-MIN K0J4 140830Z AUTO 34003KT 10SM CLR 16/13 A3001 230 83 400 340/03 RMK AO2
63870K0J4 0J420160514033509705/14/16 03:35:31  5-MIN K0J4 140835Z AUTO 00000KT 10SM CLR 16/13 A3001 230 80 500 000/00 RMK AO2
63870K0J4 0J420160514034009705/14/16 03:40:31  5-MIN K0J4 140840Z AUTO 34003KT 10SM CLR 16/13 A3002 220 83 400 340/03 RMK AO2
63870K0J4 0J420160514034509705/14/16 03:45:31  5-MIN K0J4 140845Z AUTO 35003KT 10SM CLR 16/13 A3002 220 80 400 350/03 RMK AO2
63870K0J4 0J420160514035009705/14/16 03:50:31  5-MIN K0J4 140850Z AUTO 35003KT 10SM CLR 17/13 A3003 220 77 500 350/03 RMK AO2
63870K0J4 0J420160514035512005/14/16 03:55:31  5-MIN K0J4 140855Z AUTO 00000KT 10SM CLR 16/13 A3003 220 83 400 000/00 RMK AO2 SLP165 T01560128 58007
63870K0J4 0J420160514040009705/14/16 04:00:31  5-MIN K0J4 140900Z AUTO 00000KT 10SM CLR 16/13 A3003 220 83 400 000/00 RMK AO2
63870K0J4 0J420160514040509705/14/16 04:05:31  5-MIN K0J4 140905Z AUTO 00000KT 10SM CLR 16/13 A3003 220 83 400 000/00 RMK AO2
63870K0J4 0J420160514041009705/14/16 04:10:31  5-MIN K0J4 140910Z AUTO 00000KT 10SM CLR 15/13 A3003 210 86 300 000/00 RMK AO2
63870K0J4 0J420160514041509705/14/16 04:15:31  5-MIN K0J4 140915Z AUTO 32003KT 10SM CLR 15/13 A3003 210 86 300 320/03 RMK AO2
63870K0J4 0J420160514042009705/14/16 04:20:31  5-MIN K0J4 140920Z AUTO 00000KT 10SM CLR 15/12 A3003 210 83 300 000/00 RMK AO2
63870K0J4 0J420160514042509705/14/16 04:25:31  5-MIN K0J4 140925Z AUTO 00000KT 10SM CLR 15/12 A3003 220 83 300 000/00 RMK AO2
63870K0J4 0J420160514043009705/14/16 04:30:31  5-MIN K0J4 140930Z AUTO 00000KT 10SM CLR 15/12 A3003 220 83 300 000/00 RMK AO2
63870K0J4 0J420160514043509705/14/16 04:35:31  5-MIN K0J4 140935Z AUTO 00000KT 10SM CLR 15/12 A3003 220 83 300 000/00 RMK AO2
63870K0J4 0J420160514044009705/14/16 04:40:31  5-MIN K0J4 140940Z AUTO 00000KT 10SM CLR 14/12 A3003 220 90 200 000/00 RMK AO2
63870K0J4 0J420160514044509705/14/16 04:45:31  5-MIN K0J4 140945Z AUTO 00000KT 10SM CLR 14/13 A3003 210 93 200 000/00 RMK AO2
63870K0J4 0J420160514045009705/14/16 04:50:31  5-MIN K0J4 140950Z AUTO 00000KT 10SM CLR 14/12 A3003 210 90 200 000/00 RMK AO2
63870K0J4 0J420160514045511405/14/16 04:55:31  5-MIN K0J4 140955Z AUTO 00000KT 10SM CLR 14/12 A3004 210 90 200 000/00 RMK AO2 SLP167 T01390122
63870K0J4 0J420160514050009705/14/16 05:00:31  5-MIN K0J4 141000Z AUTO 00000KT 10SM CLR 13/12 A3003 210 93 100 000/00 RMK AO2
63870K0J4 0J420160514050509705/14/16 05:05:31  5-MIN K0J4 141005Z AUTO 00000KT 10SM CLR 13/12 A3004 210 93 100 000/00 RMK AO2
63870K0J4 0J420160514051009705/14/16 05:10:31  5-MIN K0J4 141010Z AUTO 00000KT 10SM CLR 13/12 A3004 210 89 100 000/00 RMK AO2
63870K0J4 0J420160514051509705/14/16 05:15:31  5-MIN K0J4 141015Z AUTO 00000KT 10SM CLR 13/12 A3004 210 93 100 000/00 RMK AO2
63870K0J4 0J420160514052009705/14/16 05:20:31  5-MIN K0J4 141020Z AUTO 00000KT 10SM CLR 13/12 A3004 210 93 100 000/00 RMK AO2
63870K0J4 0J420160514052509705/14/16 05:25:31  5-MIN K0J4 141025Z AUTO 00000KT 10SM CLR 13/12 A3004 210 93 100 000/00 RMK AO2
63870K0J4 0J420160514053009705/14/16 05:30:31  5-MIN K0J4 141030Z AUTO 00000KT 10SM CLR 13/12 A3004 210 93 100 000/00 RMK AO2
63870K0J4 0J420160514053509705/14/16 05:35:31  5-MIN K0J4 141035Z AUTO 00000KT 10SM CLR 13/12 A3004 210 93 100 000/00 RMK AO2
63870K0J4 0J420160514054009705/14/16 05:40:31  5-MIN K0J4 141040Z AUTO 00000KT 10SM CLR 13/12 A3004 200 89 100 000/00 RMK AO2
63870K0J4 0J420160514054509705/14/16 05:45:31  5-MIN K0J4 141045Z AUTO 00000KT 10SM CLR 13/12 A3004 200 89 100 000/00 RMK AO2
63870K0J4 0J420160514055009505/14/16 05:50:31  5-MIN K0J4 141050Z AUTO 00000KT 10SM CLR 12/12 A3004 200 96 0 000/00 RMK AO2
63870K0J4 0J420160514055511205/14/16 05:55:31  5-MIN K0J4 141055Z AUTO 00000KT 10SM CLR 13/12 A3005 200 93 0 000/00 RMK AO2 SLP171 T01280117
63870K0J4 0J420160514060009705/14/16 06:00:31  5-MIN K0J4 141100Z AUTO 00000KT 10SM CLR 13/12 A3005 200 89 100 000/00 RMK AO2
63870K0J4 0J420160514060509505/14/16 06:05:31  5-MIN K0J4 141105Z AUTO 00000KT 10SM CLR 12/11 A3005 190 93 0 000/00 RMK AO2
63870K0J4 0J420160514061009505/14/16 06:10:31  5-MIN K0J4 141110Z AUTO 00000KT 10SM CLR 12/11 A3006 190 93 0 000/00 RMK AO2
63870K0J4 0J420160514061509505/14/16 06:15:31  5-MIN K0J4 141115Z AUTO 00000KT 10SM CLR 13/11 A3006 190 89 0 000/00 RMK AO2
63870K0J4 0J420160514062009505/14/16 06:20:31  5-MIN K0J4 141120Z AUTO 00000KT 10SM CLR 13/12 A3006 190 93 0 000/00 RMK AO2
63870K0J4 0J420160514062509705/14/16 06:25:31  5-MIN K0J4 141125Z AUTO 00000KT 10SM CLR 13/12 A3006 180 93 100 000/00 RMK AO2
63870K0J4 0J420160514063009705/14/16 06:30:31  5-MIN K0J4 141130Z AUTO 00000KT 10SM CLR 13/12 A3007 180 93 100 000/00 RMK AO2
63870K0J4 0J420160514063509705/14/16 06:35:31  5-MIN K0J4 141135Z AUTO 00000KT 10SM CLR 14/12 A3007 180 90 100 000/00 RMK AO2
63870K0J4 0J420160514064009705/14/16 06:40:31  5-MIN K0J4 141140Z AUTO 00000KT 10SM CLR 14/13 A3007 180 93 100 000/00 RMK AO2
63870K0J4 0J420160514064509705/14/16 06:45:31  5-MIN K0J4 141145Z AUTO 00000KT 10SM CLR 14/13 A3007 180 90 200 000/00 RMK AO2
63870K0J4 0J420160514065009705/14/16 06:50:31  5-MIN K0J4 141150Z AUTO 00000KT 10SM CLR 14/13 A3007 180 90 200 000/00 RMK AO2
63870K0J4 0J420160514065513205/14/16 06:55:31  5-MIN K0J4 141155Z AUTO 00000KT 10SM CLR 15/13 A3007 180 90 300 000/00 RMK AO2 SLP179 T01500133 10178 20122 53000
63870K0J4 0J420160514070009705/14/16 07:00:31  5-MIN K0J4 141200Z AUTO 00000KT 10SM CLR 16/14 A3007 180 86 400 000/00 RMK AO2
63870K0J4 0J420160514070509705/14/16 07:05:31  5-MIN K0J4 141205Z AUTO 00000KT 10SM CLR 17/14 A3007 180 86 500 000/00 RMK AO2
63870K0J4 0J420160514071009705/14/16 07:10:31  5-MIN K0J4 141210Z AUTO 00000KT 10SM CLR 17/14 A3007 180 83 500 000/00 RMK AO2
63870K0J4 0J420160514071509705/14/16 07:15:31  5-MIN K0J4 141215Z AUTO 00000KT 10SM CLR 18/14 A3007 180 81 600 000/00 RMK AO2
63870K0J4 0J420160514072009705/14/16 07:20:31  5-MIN K0J4 141220Z AUTO 00000KT 10SM CLR 18/14 A3007 180 75 700 000/00 RMK AO2
63870K0J4 0J420160514072509705/14/16 07:25:31  5-MIN K0J4 141225Z AUTO 00000KT 10SM CLR 18/13 A3007 180 72 700 000/00 RMK AO2
63870K0J4 0J420160514073009705/14/16 07:30:31  5-MIN K0J4 141230Z AUTO 00000KT 10SM CLR 19/13 A3007 180 70 700 000/00 RMK AO2
63870K0J4 0J420160514073509705/14/16 07:35:31  5-MIN K0J4 141235Z AUTO 00000KT 10SM CLR 19/13 A3007 180 67 800 000/00 RMK AO2
63870K0J4 0J420160514074009705/14/16 07:40:31  5-MIN K0J4 141240Z AUTO 00000KT 10SM CLR 19/14 A3007 180 70 800 000/00 RMK AO2
63870K0J4 0J420160514074509705/14/16 07:45:31  5-MIN K0J4 141245Z AUTO 00000KT 10SM CLR 20/13 A3007 180 65 800 000/00 RMK AO2
63870K0J4 0J420160514075009705/14/16 07:50:31  5-MIN K0J4 141250Z AUTO 01003KT 10SM CLR 20/13 A3007 180 65 800 010/03 RMK AO2
63870K0J4 0J420160514075511405/14/16 07:55:31  5-MIN K0J4 141255Z AUTO 01003KT 10SM CLR 21/13 A3007 180 63 900 010/03 RMK AO2 SLP179 T02060133
63870K0J4 0J420160514080009705/14/16 08:00:31  5-MIN K0J4 141300Z AUTO VRB03KT 10SM CLR 21/13 A3007 180 60 900 VRB/03 RMK AO2
63870K0J4 0J420160514080509705/14/16 08:05:31  5-MIN K0J4 141305Z AUTO 36003KT 10SM CLR 21/13 A3007 180 60 900 360/03 RMK AO2
63870K0J4 0J420160514081009705/14/16 08:10:31  5-MIN K0J4 141310Z AUTO VRB03KT 10SM CLR 21/13 A3007 180 60 900 VRB/03 RMK AO2
63870K0J4 0J420160514081509805/14/16 08:15:31  5-MIN K0J4 141315Z AUTO VRB04KT 10SM CLR 21/13 A3007 180 58 1000 VRB/04 RMK AO2
63870K0J4 0J420160514082009805/14/16 08:20:31  5-MIN K0J4 141320Z AUTO 01003KT 10SM CLR 21/12 A3007 180 56 1000 010/03 RMK AO2
63870K0J4 0J420160514082509805/14/16 08:25:31  5-MIN K0J4 141325Z AUTO 01005KT 10SM CLR 22/13 A3007 170 56 1000 010/05 RMK AO2
63870K0J4 0J420160514083009805/14/16 08:30:31  5-MIN K0J4 141330Z AUTO 36005KT 10SM CLR 22/13 A3007 170 56 1000 360/05 RMK AO2
63870K0J4 0J420160514083509805/14/16 08:35:31  5-MIN K0J4 141335Z AUTO VRB04KT 10SM CLR 22/13 A3007 170 56 1000 VRB/04 RMK AO2
63870K0J4 0J420160514084009805/14/16 08:40:31  5-MIN K0J4 141340Z AUTO VRB04KT 10SM CLR 22/13 A3008 170 54 1100 VRB/04 RMK AO2
63870K0J4 0J420160514084509805/14/16 08:45:31  5-MIN K0J4 141345Z AUTO VRB04KT 10SM CLR 22/13 A3007 170 54 1100 VRB/04 RMK AO2
63870K0J4 0J420160514085009805/14/16 08:50:31  5-MIN K0J4 141350Z AUTO VRB04KT 10SM CLR 22/13 A3007 180 54 1100 VRB/04 RMK AO2
63870K0J4 0J420160514085511705/14/16 08:55:31  5-MIN K0J4 141355Z AUTO 35003KT 10SM CLR 23/12 A3007 180 51 1200 350/03 RMK AO2 SLP179 T02280122 $
63870K0J4 0J420160514090010005/14/16 09:00:31  5-MIN K0J4 141400Z AUTO 36004KT 10SM CLR 23/13 A3007 180 53 1200 360/04 RMK AO2 $
63870K0J4 0J420160514090510005/14/16 09:05:31  5-MIN K0J4 141405Z AUTO VRB04KT 10SM CLR 23/12 A3007 180 51 1200 VRB/04 RMK AO2 $
63870K0J4 0J420160514091010005/14/16 09:10:31  5-MIN K0J4 141410Z AUTO 35005KT 10SM CLR 23/12 A3007 180 49 1200 350/05 RMK AO2 $
63870K0J4 0J420160514091510005/14/16 09:15:31  5-MIN K0J4 141415Z AUTO VRB04KT 10SM CLR 23/12 A3007 180 47 1200 VRB/04 RMK AO2 $
63870K0J4 0J420160514092010005/14/16 09:20:31  5-MIN K0J4 141420Z AUTO 01007KT 10SM CLR 23/12 A3007 180 49 1200 010/07 RMK AO2 $
63870K0J4 0J420160514092510005/14/16 09:25:31  5-MIN K0J4 141425Z AUTO VRB03KT 10SM CLR 23/13 A3007 180 51 1200 VRB/03 RMK AO2 $
63870K0J4 0J420160514093010005/14/16 09:30:31  5-MIN K0J4 141430Z AUTO VRB04KT 10SM CLR 24/13 A3007 180 49 1300 VRB/04 RMK AO2 $
63870K0J4 0J420160514093510005/14/16 09:35:31  5-MIN K0J4 141435Z AUTO VRB04KT 10SM CLR 24/12 A3007 180 47 1300 VRB/04 RMK AO2 $
63870K0J4 0J420160514094010005/14/16 09:40:31  5-MIN K0J4 141440Z AUTO VRB05KT 10SM CLR 24/12 A3007 180 46 1400 VRB/05 RMK AO2 $
63870K0J4 0J420160514094510005/14/16 09:45:31  5-MIN K0J4 141445Z AUTO VRB03KT 10SM CLR 24/12 A3007 180 47 1300 VRB/03 RMK AO2 $
63870K0J4 0J420160514095010005/14/16 09:50:31  5-MIN K0J4 141450Z AUTO 36005KT 10SM CLR 24/12 A3007 180 46 1400 360/05 RMK AO2 $
63870K0J4 0J420160514095512305/14/16 09:55:31  5-MIN K0J4 141455Z AUTO VRB04KT 10SM CLR 24/12 A3007 180 46 1400 VRB/04 RMK AO2 SLP178 T02440122 53015 $
63870K0J4 0J420160514100010005/14/16 10:00:31  5-MIN K0J4 141500Z AUTO 34007KT 10SM CLR 24/12 A3007 180 44 1400 340/07 RMK AO2 $
63870K0J4 0J420160514100510005/14/16 10:05:31  5-MIN K0J4 141505Z AUTO 32005KT 10SM CLR 24/11 A3007 180 42 1400 320/05 RMK AO2 $
63870K0J4 0J420160514101010005/14/16 10:10:31  5-MIN K0J4 141510Z AUTO VRB06KT 10SM CLR 24/11 A3006 180 42 1400 VRB/06 RMK AO2 $
63870K0J4 0J420160514101510005/14/16 10:15:31  5-MIN K0J4 141515Z AUTO 31005KT 10SM CLR 24/11 A3006 190 42 1400 310/05 RMK AO2 $
63870K0J4 0J420160514102010005/14/16 10:20:31  5-MIN K0J4 141520Z AUTO VRB04KT 10SM CLR 24/11 A3006 190 42 1400 VRB/04 RMK AO2 $
63870K0J4 0J420160514102510005/14/16 10:25:31  5-MIN K0J4 141525Z AUTO 33007KT 10SM CLR 25/11 A3006 190 41 1400 330/07 RMK AO2 $
63870K0J4 0J420160514103010005/14/16 10:30:31  5-MIN K0J4 141530Z AUTO 02007KT 10SM CLR 25/12 A3006 190 43 1400 020/07 RMK AO2 $
63870K0J4 0J420160514103510005/14/16 10:35:31  5-MIN K0J4 141535Z AUTO VRB06KT 10SM CLR 25/12 A3006 180 43 1400 VRB/06 RMK AO2 $
63870K0J4 0J420160514104010005/14/16 10:40:31  5-MIN K0J4 141540Z AUTO VRB06KT 10SM CLR 26/11 A3007 180 40 1500 VRB/06 RMK AO2 $
63870K0J4 0J420160514104510005/14/16 10:45:31  5-MIN K0J4 141545Z AUTO VRB04KT 10SM CLR 26/11 A3007 180 40 1500 VRB/04 RMK AO2 $
63870K0J4 0J420160514105010005/14/16 10:50:31  5-MIN K0J4 141550Z AUTO VRB04KT 10SM CLR 26/11 A3007 180 40 1500 VRB/04 RMK AO2 $
63870K0J4 0J420160514105513305/14/16 10:55:31  5-MIN K0J4 141555Z AUTO 34007KT 290V040 10SM CLR 26/11 A3007 180 40 1500 340/07 290V040 RMK AO2 SLP177 T02560111 $
63870K0J4 0J420160514110010005/14/16 11:00:31  5-MIN K0J4 141600Z AUTO VRB05KT 10SM CLR 26/11 A3006 180 40 1500 VRB/05 RMK AO2 $
63870K0J4 0J420160514110510005/14/16 11:05:31  5-MIN K0J4 141605Z AUTO 33008KT 10SM CLR 26/11 A3007 180 38 1500 330/08 RMK AO2 $
63870K0J4 0J420160514111010005/14/16 11:10:31  5-MIN K0J4 141610Z AUTO VRB06KT 10SM CLR 26/10 A3006 190 37 1500 VRB/06 RMK AO2 $
63870K0J4 0J420160514111510005/14/16 11:15:31  5-MIN K0J4 141615Z AUTO VRB06KT 10SM CLR 26/11 A3006 190 37 1600 VRB/06 RMK AO2 $
63870K0J4 0J420160514112010005/14/16 11:20:31  5-MIN K0J4 141620Z AUTO VRB05KT 10SM CLR 26/11 A3006 190 37 1600 VRB/05 RMK AO2 $
63870K0J4 0J420160514112510005/14/16 11:25:31  5-MIN K0J4 141625Z AUTO VRB04KT 10SM CLR 26/10 A3006 190 37 1500 VRB/04 RMK AO2 $
63870K0J4 0J420160514211509905/14/16 21:15:31  5-MIN K0J4 150215Z AUTO 00000KT 10SM CLR 18/14 A3003 220 81 600 000/00 RMK AO2 $
63870K0J4 0J420160514212009905/14/16 21:20:31  5-MIN K0J4 150220Z AUTO 00000KT 10SM CLR 18/14 A3003 220 78 600 000/00 RMK AO2 $
63870K0J4 0J420160514212509905/14/16 21:25:31  5-MIN K0J4 150225Z AUTO 00000KT 10SM CLR 18/14 A3003 220 81 600 000/00 RMK AO2 $
63870K0J4 0J420160514213009905/14/16 21:30:31  5-MIN K0J4 150230Z AUTO 00000KT 10SM CLR 18/14 A3003 220 78 600 000/00 RMK AO2 $
63870K0J4 0J420160514213509905/14/16 21:35:31  5-MIN K0J4 150235Z AUTO 00000KT 10SM CLR 18/13 A3003 210 75 600 000/00 RMK AO2 $
63870K0J4 0J420160514214009905/14/16 21:40:31  5-MIN K0J4 150240Z AUTO 00000KT 10SM CLR 18/13 A3003 210 75 600 000/00 RMK AO2 $
63870K0J4 0J420160514214509905/14/16 21:45:31  5-MIN K0J4 150245Z AUTO 00000KT 10SM CLR 18/14 A3003 210 78 600 000/00 RMK AO2 $
63870K0J4 0J420160514215009905/14/16 21:50:31  5-MIN K0J4 150250Z AUTO 00000KT 10SM CLR 17/14 A3003 210 80 600 000/00 RMK AO2 $
63870K0J4 0J420160514215512205/14/16 21:55:31  5-MIN K0J4 150255Z AUTO 00000KT 10SM CLR 17/14 A3004 210 80 600 000/00 RMK AO2 SLP167 T01720139 58001 $
63870K0J4 0J420160514220009905/14/16 22:00:31  5-MIN K0J4 150300Z AUTO 00000KT 10SM CLR 17/13 A3004 210 78 600 000/00 RMK AO2 $
63870K0J4 0J420160514220509905/14/16 22:05:31  5-MIN K0J4 150305Z AUTO 00000KT 10SM CLR 17/14 A3004 210 83 500 000/00 RMK AO2 $
63870K0J4 0J420160514221009905/14/16 22:10:31  5-MIN K0J4 150310Z AUTO 00000KT 10SM CLR 17/14 A3004 210 83 500 000/00 RMK AO2 $
63870K0J4 0J420160514221509905/14/16 22:15:31  5-MIN K0J4 150315Z AUTO 00000KT 10SM CLR 17/14 A3004 210 83 500 000/00 RMK AO2 $
63870K0J4 0J420160514222009905/14/16 22:20:31  5-MIN K0J4 150320Z AUTO 00000KT 10SM CLR 17/13 A3004 210 80 500 000/00 RMK AO2 $
63870K0J4 0J420160514222509905/14/16 22:25:31  5-MIN K0J4 150325Z AUTO 00000KT 10SM CLR 17/13 A3004 210 80 500 000/00 RMK AO2 $
63870K0J4 0J420160514223009905/14/16 22:30:31  5-MIN K0J4 150330Z AUTO 00000KT 10SM CLR 17/13 A3004 210 78 600 000/00 RMK AO2 $
63870K0J4 0J420160514223509905/14/16 22:35:31  5-MIN K0J4 150335Z AUTO 00000KT 10SM CLR 17/13 A3004 210 80 500 000/00 RMK AO2 $
63870K0J4 0J420160514224009905/14/16 22:40:31  5-MIN K0J4 150340Z AUTO 00000KT 10SM CLR 17/13 A3004 210 80 500 000/00 RMK AO2 $
63870K0J4 0J420160514224509905/14/16 22:45:31  5-MIN K0J4 150345Z AUTO 00000KT 10SM CLR 17/13 A3004 210 80 500 000/00 RMK AO2 $
63870K0J4 0J420160514225009905/14/16 22:50:31  5-MIN K0J4 150350Z AUTO 00000KT 10SM CLR 17/14 A3004 210 83 500 000/00 RMK AO2 $
63870K0J4 0J420160514225511605/14/16 22:55:31  5-MIN K0J4 150355Z AUTO 00000KT 10SM CLR 16/13 A3004 210 83 400 000/00 RMK AO2 SLP168 T01610133 $
63870K0J4 0J420160514230009905/14/16 23:00:31  5-MIN K0J4 150400Z AUTO 00000KT 10SM CLR 16/13 A3004 210 83 400 000/00 RMK AO2 $
63870K0J4 0J420160514230509905/14/16 23:05:31  5-MIN K0J4 150405Z AUTO 00000KT 10SM CLR 17/13 A3004 210 77 500 000/00 RMK AO2 $
63870K0J4 0J420160514231009905/14/16 23:10:31  5-MIN K0J4 150410Z AUTO 00000KT 10SM CLR 17/13 A3004 200 77 500 000/00 RMK AO2 $
63870K0J4 0J420160514231509905/14/16 23:15:31  5-MIN K0J4 150415Z AUTO 00000KT 10SM CLR 17/13 A3004 200 80 500 000/00 RMK AO2 $
63870K0J4 0J420160514232009905/14/16 23:20:31  5-MIN K0J4 150420Z AUTO 00000KT 10SM CLR 17/13 A3004 200 80 500 000/00 RMK AO2 $
63870K0J4 0J420160514232509905/14/16 23:25:31  5-MIN K0J4 150425Z AUTO 00000KT 10SM CLR 16/13 A3005 200 86 400 000/00 RMK AO2 $
63870K0J4 0J420160514233009905/14/16 23:30:31  5-MIN K0J4 150430Z AUTO 00000KT 10SM CLR 16/13 A3005 200 86 400 000/00 RMK AO2 $
63870K0J4 0J420160514233509905/14/16 23:35:31  5-MIN K0J4 150435Z AUTO 00000KT 10SM CLR 16/13 A3004 200 83 400 000/00 RMK AO2 $
63870K0J4 0J420160514234009905/14/16 23:40:31  5-MIN K0J4 150440Z AUTO 00000KT 10SM CLR 16/13 A3004 200 83 400 000/00 RMK AO2 $
63870K0J4 0J420160514234509905/14/16 23:45:31  5-MIN K0J4 150445Z AUTO 00000KT 10SM CLR 16/13 A3004 200 83 400 000/00 RMK AO2 $
63870K0J4 0J420160514235009905/14/16 23:50:31  5-MIN K0J4 150450Z AUTO 00000KT 10SM CLR 16/13 A3004 210 83 400 000/00 RMK AO2 $
63870K0J4 0J420160514235512605/14/16 23:55:31  5-MIN K0J4 150455Z AUTO 00000KT 10SM CLR 16/13 A3004 200 83 400 000/00 RMK AO2 SLP169 T01610133 402940122 $
63870K0J4 0J420160515000009905/15/16 00:00:31  5-MIN K0J4 150500Z AUTO 28003KT 10SM CLR 17/13 A3004 200 80 500 280/03 RMK AO2 $
63870K0J4 0J420160515000509905/15/16 00:05:31  5-MIN K0J4 150505Z AUTO 00000KT 10SM CLR 18/13 A3004 200 72 600 000/00 RMK AO2 $
63870K0J4 0J420160515001009905/15/16 00:10:31  5-MIN K0J4 150510Z AUTO 00000KT 10SM CLR 16/13 A3004 200 80 400 000/00 RMK AO2 $
63870K0J4 0J420160515001509905/15/16 00:15:31  5-MIN K0J4 150515Z AUTO 00000KT 10SM CLR 16/13 A3004 200 83 400 000/00 RMK AO2 $
63870K0J4 0J420160515002009905/15/16 00:20:31  5-MIN K0J4 150520Z AUTO 00000KT 10SM CLR 16/13 A3004 200 83 400 000/00 RMK AO2 $
63870K0J4 0J420160515002509905/15/16 00:25:31  5-MIN K0J4 150525Z AUTO 00000KT 10SM CLR 16/14 A3004 200 86 400 000/00 RMK AO2 $
63870K0J4 0J420160515003009905/15/16 00:30:31  5-MIN K0J4 150530Z AUTO 00000KT 10SM CLR 16/13 A3004 200 86 400 000/00 RMK AO2 $
63870K0J4 0J420160515003509905/15/16 00:35:31  5-MIN K0J4 150535Z AUTO 00000KT 10SM CLR 16/13 A3004 210 83 400 000/00 RMK AO2 $
63870K0J4 0J420160515004009905/15/16 00:40:31  5-MIN K0J4 150540Z AUTO 00000KT 10SM CLR 16/13 A3004 210 83 400 000/00 RMK AO2 $
63870K0J4 0J420160515004509905/15/16 00:45:31  5-MIN K0J4 150545Z AUTO 00000KT 10SM CLR 16/13 A3004 210 80 400 000/00 RMK AO2 $
63870K0J4 0J420160515005009905/15/16 00:50:31  5-MIN K0J4 150550Z AUTO 00000KT 10SM CLR 17/13 A3004 210 77 500 000/00 RMK AO2 $
63870K0J4 0J420160515005513405/15/16 00:55:31  5-MIN K0J4 150555Z AUTO 00000KT 10SM CLR 16/13 A3004 210 83 400 000/00 RMK AO2 SLP168 T01610133 10250 20156 51016 $
63870K0J4 0J420160515010009905/15/16 01:00:31  5-MIN K0J4 150600Z AUTO 00000KT 10SM CLR 16/13 A3004 210 83 400 000/00 RMK AO2 $
63870K0J4 0J420160515010509905/15/16 01:05:31  5-MIN K0J4 150605Z AUTO 00000KT 10SM CLR 16/13 A3003 210 83 400 000/00 RMK AO2 $
63870K0J4 0J420160515011009905/15/16 01:10:31  5-MIN K0J4 150610Z AUTO 00000KT 10SM CLR 16/13 A3003 210 83 400 000/00 RMK AO2 $
63870K0J4 0J420160515011509905/15/16 01:15:31  5-MIN K0J4 150615Z AUTO 00000KT 10SM CLR 16/13 A3003 210 80 400 000/00 RMK AO2 $
63870K0J4 0J420160515012009905/15/16 01:20:31  5-MIN K0J4 150620Z AUTO 00000KT 10SM CLR 17/13 A3003 210 77 500 000/00 RMK AO2 $
63870K0J4 0J420160515012509905/15/16 01:25:31  5-MIN K0J4 150625Z AUTO 00000KT 10SM CLR 16/13 A3003 220 83 400 000/00 RMK AO2 $
63870K0J4 0J420160515013009905/15/16 01:30:31  5-MIN K0J4 150630Z AUTO 00000KT 10SM CLR 16/13 A3003 220 86 400 000/00 RMK AO2 $
63870K0J4 0J420160515013509905/15/16 01:35:31  5-MIN K0J4 150635Z AUTO 00000KT 10SM CLR 15/13 A3003 220 86 300 000/00 RMK AO2 $
63870K0J4 0J420160515014009905/15/16 01:40:31  5-MIN K0J4 150640Z AUTO 00000KT 10SM CLR 16/13 A3003 220 83 400 000/00 RMK AO2 $
63870K0J4 0J420160515014509905/15/16 01:45:31  5-MIN K0J4 150645Z AUTO 00000KT 10SM CLR 16/13 A3003 220 83 400 000/00 RMK AO2 $
63870K0J4 0J420160515015009905/15/16 01:50:31  5-MIN K0J4 150650Z AUTO 00000KT 10SM CLR 16/13 A3003 220 86 400 000/00 RMK AO2 $
63870K0J4 0J420160515015511605/15/16 01:55:31  5-MIN K0J4 150655Z AUTO VRB03KT 10SM CLR 16/13 A3003 220 83 400 VRB/03 RMK AO2 SLP165 T01560128 $
63870K0J4 0J420160515020009905/15/16 02:00:31  5-MIN K0J4 150700Z AUTO 36003KT 10SM CLR 17/13 A3003 220 75 600 360/03 RMK AO2 $
63870K0J4 0J420160515020509905/15/16 02:05:31  5-MIN K0J4 150705Z AUTO 36004KT 10SM CLR 17/13 A3003 220 75 600 360/04 RMK AO2 $
63870K0J4 0J420160515021009905/15/16 02:10:31  5-MIN K0J4 150710Z AUTO 36003KT 10SM CLR 17/12 A3003 220 75 500 360/03 RMK AO2 $
63870K0J4 0J420160515021509905/15/16 02:15:31  5-MIN K0J4 150715Z AUTO 00000KT 10SM CLR 16/13 A3002 220 80 400 000/00 RMK AO2 $
63870K0J4 0J420160515022009905/15/16 02:20:31  5-MIN K0J4 150720Z AUTO 00000KT 10SM CLR 16/13 A3003 220 80 400 000/00 RMK AO2 $
63870K0J4 0J420160515022509905/15/16 02:25:31  5-MIN K0J4 150725Z AUTO 00000KT 10SM CLR 16/13 A3003 220 80 400 000/00 RMK AO2 $
63870K0J4 0J420160515023009905/15/16 02:30:31  5-MIN K0J4 150730Z AUTO 00000KT 10SM CLR 16/13 A3003 210 83 400 000/00 RMK AO2 $
63870K0J4 0J420160515023509905/15/16 02:35:31  5-MIN K0J4 150735Z AUTO 00000KT 10SM CLR 16/13 A3003 210 80 400 000/00 RMK AO2 $
63870K0J4 0J420160515024009905/15/16 02:40:31  5-MIN K0J4 150740Z AUTO 00000KT 10SM CLR 16/13 A3004 210 80 400 000/00 RMK AO2 $
63870K0J4 0J420160515024509905/15/16 02:45:31  5-MIN K0J4 150745Z AUTO 00000KT 10SM CLR 16/13 A3003 210 80 400 000/00 RMK AO2 $
63870K0J4 0J420160515025009905/15/16 02:50:31  5-MIN K0J4 150750Z AUTO VRB03KT 10SM CLR 16/13 A3004 210 80 400 VRB/03 RMK AO2 $
63870K0J4 0J420160515025511605/15/16 02:55:31  5-MIN K0J4 150755Z AUTO 00000KT 10SM CLR 17/13 A3004 210 77 500 000/00 RMK AO2 SLP168 T01670128 $
63870K0J4 0J420160515030009905/15/16 03:00:31  5-MIN K0J4 150800Z AUTO 34003KT 10SM CLR 17/13 A3004 210 77 500 340/03 RMK AO2 $
63870K0J4 0J420160515030509905/15/16 03:05:31  5-MIN K0J4 150805Z AUTO 00000KT 10SM CLR 17/13 A3004 210 77 500 000/00 RMK AO2 $
63870K0J4 0J420160515031009905/15/16 03:10:31  5-MIN K0J4 150810Z AUTO 00000KT 10SM CLR 17/13 A3004 210 77 500 000/00 RMK AO2 $
63870K0J4 0J420160515031509905/15/16 03:15:31  5-MIN K0J4 150815Z AUTO 32003KT 10SM CLR 17/13 A3004 200 75 600 320/03 RMK AO2 $
63870K0J4 0J420160515032009905/15/16 03:20:31  5-MIN K0J4 150820Z AUTO 32003KT 10SM CLR 16/13 A3004 200 80 400 320/03 RMK AO2 $
63870K0J4 0J420160515032509905/15/16 03:25:31  5-MIN K0J4 150825Z AUTO 33003KT 10SM CLR 17/13 A3004 200 77 500 330/03 RMK AO2 $
63870K0J4 0J420160515033009905/15/16 03:30:31  5-MIN K0J4 150830Z AUTO 33003KT 10SM CLR 17/13 A3005 200 77 500 330/03 RMK AO2 $
63870K0J4 0J420160515033509905/15/16 03:35:31  5-MIN K0J4 150835Z AUTO 00000KT 10SM CLR 17/13 A3005 200 77 500 000/00 RMK AO2 $
63870K0J4 0J420160515034009905/15/16 03:40:31  5-MIN K0J4 150840Z AUTO 00000KT 10SM CLR 16/13 A3005 200 83 400 000/00 RMK AO2 $
63870K0J4 0J420160515034509905/15/16 03:45:31  5-MIN K0J4 150845Z AUTO 35003KT 10SM CLR 17/13 A3005 200 80 500 350/03 RMK AO2 $
63870K0J4 0J420160515035009905/15/16 03:50:31  5-MIN K0J4 150850Z AUTO 36003KT 10SM CLR 17/13 A3005 200 80 500 360/03 RMK AO2 $
63870K0J4 0J420160515035512205/15/16 03:55:31  5-MIN K0J4 150855Z AUTO 35004KT 10SM CLR 17/13 A3005 200 80 500 350/04 RMK AO2 SLP172 T01670133 50000 $
63870K0J4 0J420160515040009905/15/16 04:00:31  5-MIN K0J4 150900Z AUTO 36004KT 10SM CLR 17/13 A3005 190 80 500 360/04 RMK AO2 $
63870K0J4 0J420160515040509905/15/16 04:05:31  5-MIN K0J4 150905Z AUTO 35004KT 10SM CLR 17/13 A3005 190 80 500 350/04 RMK AO2 $
63870K0J4 0J420160515041009905/15/16 04:10:31  5-MIN K0J4 150910Z AUTO 36004KT 10SM CLR 17/13 A3006 190 80 500 360/04 RMK AO2 $
63870K0J4 0J420160515041509905/15/16 04:15:31  5-MIN K0J4 150915Z AUTO 36003KT 10SM CLR 17/13 A3006 190 80 500 360/03 RMK AO2 $
63870K0J4 0J420160515042009905/15/16 04:20:31  5-MIN K0J4 150920Z AUTO 35003KT 10SM CLR 16/13 A3006 190 83 400 350/03 RMK AO2 $
63870K0J4 0J420160515042509905/15/16 04:25:31  5-MIN K0J4 150925Z AUTO 35003KT 10SM CLR 16/13 A3006 190 83 400 350/03 RMK AO2 $
63870K0J4 0J420160515043009905/15/16 04:30:31  5-MIN K0J4 150930Z AUTO 36003KT 10SM CLR 16/13 A3006 180 83 400 360/03 RMK AO2 $
63870K0J4 0J420160515043509905/15/16 04:35:31  5-MIN K0J4 150935Z AUTO 36004KT 10SM CLR 16/13 A3007 180 83 400 360/04 RMK AO2 $
63870K0J4 0J420160515044009905/15/16 04:40:31  5-MIN K0J4 150940Z AUTO 35004KT 10SM CLR 16/13 A3007 180 83 400 350/04 RMK AO2 $
63870K0J4 0J420160515044509905/15/16 04:45:31  5-MIN K0J4 150945Z AUTO VRB03KT 10SM CLR 16/13 A3007 170 83 400 VRB/03 RMK AO2 $
63870K0J4 0J420160515045009905/15/16 04:50:31  5-MIN K0J4 150950Z AUTO 34003KT 10SM CLR 16/13 A3008 170 80 400 340/03 RMK AO2 $
63870K0J4 0J420160515045511605/15/16 04:55:31  5-MIN K0J4 150955Z AUTO 34003KT 10SM CLR 16/13 A3008 170 83 300 340/03 RMK AO2 SLP182 T01560128 $
63870K0J4 0J420160515050009905/15/16 05:00:31  5-MIN K0J4 151000Z AUTO 35003KT 10SM CLR 16/13 A3008 170 83 300 350/03 RMK AO2 $
63870K0J4 0J420160515050509905/15/16 05:05:31  5-MIN K0J4 151005Z AUTO VRB03KT 10SM CLR 16/13 A3009 160 83 300 VRB/03 RMK AO2 $
63870K0J4 0J420160515051009905/15/16 05:10:31  5-MIN K0J4 151010Z AUTO 36003KT 10SM CLR 16/13 A3009 160 83 300 360/03 RMK AO2 $
63870K0J4 0J420160515051509905/15/16 05:15:31  5-MIN K0J4 151015Z AUTO 35004KT 10SM CLR 16/13 A3009 160 83 300 350/04 RMK AO2 $
63870K0J4 0J420160515052009905/15/16 05:20:31  5-MIN K0J4 151020Z AUTO 35004KT 10SM CLR 16/13 A3009 160 83 300 350/04 RMK AO2 $
63870K0J4 0J420160515052509905/15/16 05:25:31  5-MIN K0J4 151025Z AUTO 35004KT 10SM CLR 16/13 A3009 160 83 300 350/04 RMK AO2 $
63870K0J4 0J420160515053009905/15/16 05:30:31  5-MIN K0J4 151030Z AUTO 36005KT 10SM CLR 15/13 A3009 160 86 200 360/05 RMK AO2 $
63870K0J4 0J420160515053509905/15/16 05:35:31  5-MIN K0J4 151035Z AUTO 36005KT 10SM CLR 15/13 A3009 160 86 200 360/05 RMK AO2 $
63870K0J4 0J420160515054009905/15/16 05:40:31  5-MIN K0J4 151040Z AUTO 36005KT 10SM CLR 15/13 A3009 160 86 200 360/05 RMK AO2 $
63870K0J4 0J420160515054509905/15/16 05:45:31  5-MIN K0J4 151045Z AUTO 36005KT 10SM CLR 15/13 A3010 150 86 200 360/05 RMK AO2 $
63870K0J4 0J420160515055009905/15/16 05:50:31  5-MIN K0J4 151050Z AUTO 36005KT 10SM CLR 15/13 A3010 150 86 200 360/05 RMK AO2 $
63870K0J4 0J420160515055511605/15/16 05:55:31  5-MIN K0J4 151055Z AUTO 36006KT 10SM CLR 15/13 A3010 150 86 200 360/06 RMK AO2 SLP188 T01500128 $
63870K0J4 0J420160515060009905/15/16 06:00:31  5-MIN K0J4 151100Z AUTO 36006KT 10SM CLR 15/13 A3010 150 86 200 360/06 RMK AO2 $
63870K0J4 0J420160515060509905/15/16 06:05:31  5-MIN K0J4 151105Z AUTO 36005KT 10SM CLR 15/13 A3010 150 86 200 360/05 RMK AO2 $
63870K0J4 0J420160515061009905/15/16 06:10:31  5-MIN K0J4 151110Z AUTO 36005KT 10SM CLR 15/13 A3011 140 86 200 360/05 RMK AO2 $
63870K0J4 0J420160515061509905/15/16 06:15:31  5-MIN K0J4 151115Z AUTO 36006KT 10SM CLR 15/13 A3011 140 86 200 360/06 RMK AO2 $
63870K0J4 0J420160515062009905/15/16 06:20:31  5-MIN K0J4 151120Z AUTO 36005KT 10SM CLR 15/13 A3011 140 86 200 360/05 RMK AO2 $
63870K0J4 0J420160515062509905/15/16 06:25:31  5-MIN K0J4 151125Z AUTO 36006KT 10SM CLR 15/13 A3012 140 86 200 360/06 RMK AO2 $
63870K0J4 0J420160515063009905/15/16 06:30:31  5-MIN K0J4 151130Z AUTO 36004KT 10SM CLR 15/13 A3012 130 86 200 360/04 RMK AO2 $
63870K0J4 0J420160515063509905/15/16 06:35:31  5-MIN K0J4 151135Z AUTO 36005KT 10SM CLR 15/13 A3012 130 86 200 360/05 RMK AO2 $
63870K0J4 0J420160515064009905/15/16 06:40:31  5-MIN K0J4 151140Z AUTO 01005KT 10SM CLR 15/12 A3012 130 83 200 010/05 RMK AO2 $
63870K0J4 0J420160515064509905/15/16 06:45:31  5-MIN K0J4 151145Z AUTO 01005KT 10SM CLR 15/12 A3012 130 83 200 010/05 RMK AO2 $
63870K0J4 0J420160515065009905/15/16 06:50:31  5-MIN K0J4 151150Z AUTO 01005KT 10SM CLR 15/12 A3013 120 83 200 010/05 RMK AO2 $
63870K0J4 0J420160515065513405/15/16 06:55:31  5-MIN K0J4 151155Z AUTO 36004KT 10SM CLR 16/12 A3013 120 80 300 360/04 RMK AO2 SLP200 T01560122 10178 20150 53004 $
63870K0J4 0J420160515070009905/15/16 07:00:31  5-MIN K0J4 151200Z AUTO 36005KT 10SM CLR 16/12 A3013 120 77 300 360/05 RMK AO2 $
63870K0J4 0J420160515070509905/15/16 07:05:31  5-MIN K0J4 151205Z AUTO 36005KT 10SM CLR 16/12 A3014 120 80 300 360/05 RMK AO2 $
63870K0J4 0J420160515071009905/15/16 07:10:31  5-MIN K0J4 151210Z AUTO 01004KT 10SM CLR 16/12 A3014 120 80 200 010/04 RMK AO2 $
63870K0J4 0J420160515071509905/15/16 07:15:31  5-MIN K0J4 151215Z AUTO 02005KT 10SM CLR 16/12 A3014 120 80 300 020/05 RMK AO2 $
63870K0J4 0J420160515072009905/15/16 07:20:31  5-MIN K0J4 151220Z AUTO 02005KT 10SM CLR 16/12 A3014 120 77 300 020/05 RMK AO2 $
63870K0J4 0J420160515072509905/15/16 07:25:31  5-MIN K0J4 151225Z AUTO 02005KT 10SM CLR 16/12 A3014 120 77 300 020/05 RMK AO2 $
63870K0J4 0J420160515073009905/15/16 07:30:31  5-MIN K0J4 151230Z AUTO 02008KT 10SM CLR 16/12 A3014 120 77 300 020/08 RMK AO2 $
63870K0J4 0J420160515073509905/15/16 07:35:31  5-MIN K0J4 151235Z AUTO 03008KT 10SM CLR 16/12 A3014 120 77 300 030/08 RMK AO2 $
63870K0J4 0J420160515074009905/15/16 07:40:31  5-MIN K0J4 151240Z AUTO 02007KT 10SM CLR 17/12 A3014 110 72 400 020/07 RMK AO2 $
63870K0J4 0J420160515074509905/15/16 07:45:31  5-MIN K0J4 151245Z AUTO 02008KT 10SM CLR 17/12 A3014 110 69 400 020/08 RMK AO2 $
63870K0J4 0J420160515075009905/15/16 07:50:31  5-MIN K0J4 151250Z AUTO 03010KT 10SM CLR 17/12 A3014 110 69 400 030/10 RMK AO2 $
63870K0J4 0J420160515075511605/15/16 07:55:31  5-MIN K0J4 151255Z AUTO 03009KT 10SM CLR 17/11 A3014 110 67 400 030/09 RMK AO2 SLP205 T01720111 $
63870K0J4 0J420160515080009905/15/16 08:00:31  5-MIN K0J4 151300Z AUTO 02010KT 10SM CLR 17/11 A3015 110 67 400 020/10 RMK AO2 $
63870K0J4 0J420160515080509905/15/16 08:05:31  5-MIN K0J4 151305Z AUTO 02008KT 10SM CLR 18/11 A3015 110 64 500 020/08 RMK AO2 $
63870K0J4 0J420160515081009905/15/16 08:10:31  5-MIN K0J4 151310Z AUTO 03008KT 10SM CLR 18/11 A3015 110 64 500 030/08 RMK AO2 $
63870K0J4 0J420160515081509905/15/16 08:15:31  5-MIN K0J4 151315Z AUTO 02009KT 10SM CLR 18/11 A3015 110 62 500 020/09 RMK AO2 $
63870K0J4 0J420160515082009905/15/16 08:20:31  5-MIN K0J4 151320Z AUTO 03012KT 10SM CLR 18/10 A3015 110 60 500 030/12 RMK AO2 $
63870K0J4 0J420160515082509905/15/16 08:25:31  5-MIN K0J4 151325Z AUTO 03012KT 10SM CLR 18/09 A3015 110 58 500 030/12 RMK AO2 $
63870K0J4 0J420160515083009905/15/16 08:30:31  5-MIN K0J4 151330Z AUTO 03011KT 10SM CLR 18/09 A3015 110 54 600 030/11 RMK AO2 $
63870K0J4 0J420160515083509905/15/16 08:35:31  5-MIN K0J4 151335Z AUTO 03011KT 10SM CLR 18/09 A3015 110 54 600 030/11 RMK AO2 $
63870K0J4 0J420160515084009905/15/16 08:40:31  5-MIN K0J4 151340Z AUTO 03013KT 10SM CLR 18/09 A3015 110 54 600 030/13 RMK AO2 $
63870K0J4 0J420160515084509905/15/16 08:45:31  5-MIN K0J4 151345Z AUTO 04012KT 10SM CLR 18/09 A3015 110 54 600 040/12 RMK AO2 $
63870K0J4 0J420160515085009905/15/16 08:50:31  5-MIN K0J4 151350Z AUTO 04011KT 10SM CLR 18/09 A3014 110 54 600 040/11 RMK AO2 $
63870K0J4 0J420160515085511605/15/16 08:55:31  5-MIN K0J4 151355Z AUTO 03010KT 10SM CLR 19/09 A3015 110 52 600 030/10 RMK AO2 SLP205 T01890089 $
63870K0J4 0J420160515090009905/15/16 09:00:31  5-MIN K0J4 151400Z AUTO 02007KT 10SM CLR 19/09 A3014 110 52 600 020/07 RMK AO2 $
63870K0J4 0J420160515090509905/15/16 09:05:31  5-MIN K0J4 151405Z AUTO 03008KT 10SM CLR 19/09 A3014 110 52 700 030/08 RMK AO2 $
63870K0J4 0J420160515091009905/15/16 09:10:31  5-MIN K0J4 151410Z AUTO 02008KT 10SM CLR 19/09 A3014 110 50 700 020/08 RMK AO2 $
63870K0J4 0J420160515190509805/15/16 19:05:31  5-MIN K0J4 160005Z AUTO 36005KT 10SM CLR 22/12 A3009 160 51 1100 360/05 RMK AO2
63870K0J4 0J420160515191009805/15/16 19:10:31  5-MIN K0J4 160010Z AUTO 36005KT 10SM CLR 22/12 A3009 160 51 1100 360/05 RMK AO2
63870K0J4 0J420160515191509805/15/16 19:15:31  5-MIN K0J4 160015Z AUTO 36004KT 10SM CLR 22/12 A3009 160 51 1100 360/04 RMK AO2
63870K0J4 0J420160515192009805/15/16 19:20:31  5-MIN K0J4 160020Z AUTO 01004KT 10SM CLR 22/12 A3009 160 52 1000 010/04 RMK AO2
63870K0J4 0J420160515192509805/15/16 19:25:31  5-MIN K0J4 160025Z AUTO 01004KT 10SM CLR 22/12 A3010 150 52 1000 010/04 RMK AO2
63870K0J4 0J420160515193009705/15/16 19:30:31  5-MIN K0J4 160030Z AUTO 01004KT 10SM CLR 21/12 A3010 150 56 900 010/04 RMK AO2
63870K0J4 0J420160515193509705/15/16 19:35:31  5-MIN K0J4 160035Z AUTO 02004KT 10SM CLR 21/12 A3010 150 58 900 020/04 RMK AO2
63870K0J4 0J420160515194009705/15/16 19:40:31  5-MIN K0J4 160040Z AUTO 00000KT 10SM CLR 21/12 A3010 150 58 900 000/00 RMK AO2
63870K0J4 0J420160515194509705/15/16 19:45:31  5-MIN K0J4 160045Z AUTO 36003KT 10SM CLR 20/13 A3010 150 63 800 360/03 RMK AO2
63870K0J4 0J420160515195009705/15/16 19:50:31  5-MIN K0J4 160050Z AUTO 36003KT 10SM CLR 21/12 A3010 150 58 900 360/03 RMK AO2
63870K0J4 0J420160515195511405/15/16 19:55:31  5-MIN K0J4 160055Z AUTO 36003KT 10SM CLR 21/12 A3011 140 58 900 360/03 RMK AO2 SLP192 T02060122
63870K0J4 0J420160515200009705/15/16 20:00:31  5-MIN K0J4 160100Z AUTO 36003KT 10SM CLR 21/12 A3011 140 58 900 360/03 RMK AO2
63870K0J4 0J420160515200509705/15/16 20:05:31  5-MIN K0J4 160105Z AUTO 00000KT 10SM CLR 19/12 A3011 140 62 700 000/00 RMK AO2
63870K0J4 0J420160515201009705/15/16 20:10:31  5-MIN K0J4 160110Z AUTO 01003KT 10SM CLR 19/13 A3011 140 65 700 010/03 RMK AO2
63870K0J4 0J420160515201509705/15/16 20:15:31  5-MIN K0J4 160115Z AUTO 36003KT 10SM CLR 19/12 A3011 140 62 700 360/03 RMK AO2
63870K0J4 0J420160515202009705/15/16 20:20:31  5-MIN K0J4 160120Z AUTO 36003KT 10SM CLR 20/12 A3011 140 58 800 360/03 RMK AO2
63870K0J4 0J420160515202509705/15/16 20:25:31  5-MIN K0J4 160125Z AUTO 36003KT 10SM CLR 20/12 A3011 140 58 800 360/03 RMK AO2
63870K0J4 0J420160515203009705/15/16 20:30:31  5-MIN K0J4 160130Z AUTO 36003KT 10SM CLR 19/12 A3012 140 60 700 360/03 RMK AO2
63870K0J4 0J420160515203509705/15/16 20:35:31  5-MIN K0J4 160135Z AUTO 36004KT 10SM CLR 19/12 A3012 140 60 700 360/04 RMK AO2
63870K0J4 0J420160515204009705/15/16 20:40:31  5-MIN K0J4 160140Z AUTO 01005KT 10SM CLR 19/12 A3012 140 60 700 010/05 RMK AO2
63870K0J4 0J420160515204509705/15/16 20:45:31  5-MIN K0J4 160145Z AUTO 01005KT 10SM CLR 19/12 A3012 140 60 700 010/05 RMK AO2
63870K0J4 0J420160515205009705/15/16 20:50:31  5-MIN K0J4 160150Z AUTO 01004KT 10SM CLR 19/12 A3012 130 62 700 010/04 RMK AO2
63870K0J4 0J420160515205511405/15/16 20:55:31  5-MIN K0J4 160155Z AUTO 36005KT 10SM CLR 19/12 A3012 130 60 700 360/05 RMK AO2 SLP197 T01940117
63870K0J4 0J420160515210009705/15/16 21:00:31  5-MIN K0J4 160200Z AUTO 01004KT 10SM CLR 19/12 A3013 130 60 700 010/04 RMK AO2
63870K0J4 0J420160515210509705/15/16 21:05:31  5-MIN K0J4 160205Z AUTO 36005KT 10SM CLR 19/12 A3013 120 62 600 360/05 RMK AO2
63870K0J4 0J420160515211009705/15/16 21:10:31  5-MIN K0J4 160210Z AUTO 36004KT 10SM CLR 19/12 A3013 120 62 600 360/04 RMK AO2
63870K0J4 0J420160515211509705/15/16 21:15:31  5-MIN K0J4 160215Z AUTO 36006KT 10SM CLR 19/12 A3013 120 62 600 360/06 RMK AO2
63870K0J4 0J420160515212009705/15/16 21:20:31  5-MIN K0J4 160220Z AUTO 01006KT 10SM CLR 19/12 A3013 120 62 600 010/06 RMK AO2
63870K0J4 0J420160515212509905/15/16 21:25:31  5-MIN K0J4 160225Z AUTO 01005KT 10SM CLR 19/12 A3013 130 62 700 010/05 RMK AO2 $
63870K0J4 0J420160515213009905/15/16 21:30:31  5-MIN K0J4 160230Z AUTO 01005KT 10SM CLR 18/12 A3013 120 65 600 010/05 RMK AO2 $
63870K0J4 0J420160515213509905/15/16 21:35:31  5-MIN K0J4 160235Z AUTO 01005KT 10SM CLR 19/12 A3013 120 62 600 010/05 RMK AO2 $
63870K0J4 0J420160515214009905/15/16 21:40:31  5-MIN K0J4 160240Z AUTO 36005KT 10SM CLR 19/12 A3013 120 62 600 360/05 RMK AO2 $
63870K0J4 0J420160515214509905/15/16 21:45:31  5-MIN K0J4 160245Z AUTO 36006KT 10SM CLR 19/11 A3013 120 60 600 360/06 RMK AO2 $
63870K0J4 0J420160515215009905/15/16 21:50:31  5-MIN K0J4 160250Z AUTO 36005KT 10SM CLR 19/11 A3014 120 60 600 360/05 RMK AO2 $
63870K0J4 0J420160515215512205/15/16 21:55:31  5-MIN K0J4 160255Z AUTO 01006KT 10SM CLR 19/12 A3014 120 62 600 010/06 RMK AO2 SLP201 T01890117 53003 $
63870K0J4 0J420160515220009905/15/16 22:00:31  5-MIN K0J4 160300Z AUTO 01004KT 10SM CLR 18/12 A3014 120 65 600 010/04 RMK AO2 $
63870K0J4 0J420160515220509905/15/16 22:05:31  5-MIN K0J4 160305Z AUTO 01005KT 10SM CLR 18/12 A3014 120 65 600 010/05 RMK AO2 $
63870K0J4 0J420160515221009905/15/16 22:10:31  5-MIN K0J4 160310Z AUTO 01005KT 10SM CLR 18/12 A3014 120 65 600 010/05 RMK AO2 $
63870K0J4 0J420160515221509905/15/16 22:15:31  5-MIN K0J4 160315Z AUTO 36005KT 10SM CLR 18/12 A3014 120 67 500 360/05 RMK AO2 $
63870K0J4 0J420160515222009905/15/16 22:20:31  5-MIN K0J4 160320Z AUTO 01006KT 10SM CLR 18/12 A3014 110 65 600 010/06 RMK AO2 $
63870K0J4 0J420160515222509905/15/16 22:25:31  5-MIN K0J4 160325Z AUTO 36005KT 10SM CLR 18/12 A3014 110 65 600 360/05 RMK AO2 $
63870K0J4 0J420160515223009905/15/16 22:30:31  5-MIN K0J4 160330Z AUTO 36005KT 10SM CLR 18/12 A3014 110 65 600 360/05 RMK AO2 $
63870K0J4 0J420160515223509905/15/16 22:35:31  5-MIN K0J4 160335Z AUTO 36004KT 10SM CLR 18/11 A3014 110 62 600 360/04 RMK AO2 $
63870K0J4 0J420160515224009905/15/16 22:40:31  5-MIN K0J4 160340Z AUTO 01004KT 10SM CLR 18/11 A3014 110 62 600 010/04 RMK AO2 $
63870K0J4 0J420160515224509905/15/16 22:45:31  5-MIN K0J4 160345Z AUTO 01004KT 10SM CLR 18/12 A3014 110 67 500 010/04 RMK AO2 $
63870K0J4 0J420160515225009905/15/16 22:50:31  5-MIN K0J4 160350Z AUTO 36005KT 10SM CLR 18/12 A3014 120 67 500 360/05 RMK AO2 $
63870K0J4 0J420160515225511605/15/16 22:55:31  5-MIN K0J4 160355Z AUTO 36004KT 10SM CLR 18/12 A3014 120 67 500 360/04 RMK AO2 SLP201 T01780117 $
63870K0J4 0J420160515230009905/15/16 23:00:31  5-MIN K0J4 160400Z AUTO 02004KT 10SM CLR 18/12 A3014 120 67 500 020/04 RMK AO2 $
63870K0J4 0J420160515230509905/15/16 23:05:31  5-MIN K0J4 160405Z AUTO 01003KT 10SM CLR 17/12 A3014 120 69 400 010/03 RMK AO2 $
63870K0J4 0J420160515231009905/15/16 23:10:31  5-MIN K0J4 160410Z AUTO 02003KT 10SM CLR 17/12 A3014 110 72 400 020/03 RMK AO2 $
63870K0J4 0J420160515231509905/15/16 23:15:31  5-MIN K0J4 160415Z AUTO 01004KT 10SM CLR 17/12 A3014 120 69 400 010/04 RMK AO2 $
63870K0J4 0J420160515232009905/15/16 23:20:31  5-MIN K0J4 160420Z AUTO 36004KT 10SM CLR 18/11 A3014 120 64 500 360/04 RMK AO2 $
63870K0J4 0J420160515232509905/15/16 23:25:31  5-MIN K0J4 160425Z AUTO 01003KT 10SM CLR 18/11 A3014 120 64 500 010/03 RMK AO2 $
63870K0J4 0J420160515233009905/15/16 23:30:31  5-MIN K0J4 160430Z AUTO 01004KT 10SM CLR 17/11 A3014 120 67 400 010/04 RMK AO2 $
63870K0J4 0J420160515233509905/15/16 23:35:31  5-MIN K0J4 160435Z AUTO 02003KT 10SM CLR 17/12 A3013 120 72 400 020/03 RMK AO2 $
63870K0J4 0J420160515234009905/15/16 23:40:31  5-MIN K0J4 160440Z AUTO 01004KT 10SM CLR 16/12 A3013 120 75 300 010/04 RMK AO2 $
63870K0J4 0J420160515234509905/15/16 23:45:31  5-MIN K0J4 160445Z AUTO 02004KT 10SM CLR 16/12 A3013 120 77 300 020/04 RMK AO2 $
63870K0J4 0J420160515235009905/15/16 23:50:31  5-MIN K0J4 160450Z AUTO 02004KT 10SM CLR 16/12 A3013 120 75 300 020/04 RMK AO2 $
63870K0J4 0J420160515235512605/15/16 23:55:31  5-MIN K0J4 160455Z AUTO 03004KT 10SM CLR 16/11 A3013 120 72 300 030/04 RMK AO2 SLP200 T01610111 402780150 $
63870K0J4 0J420160516000009905/16/16 00:00:31  5-MIN K0J4 160500Z AUTO 02004KT 10SM CLR 16/11 A3013 120 72 300 020/04 RMK AO2 $
63870K0J4 0J420160516000509905/16/16 00:05:31  5-MIN K0J4 160505Z AUTO 02003KT 10SM CLR 17/11 A3013 120 69 400 020/03 RMK AO2 $
63870K0J4 0J420160516001009905/16/16 00:10:31  5-MIN K0J4 160510Z AUTO 03003KT 10SM CLR 17/11 A3013 120 69 400 030/03 RMK AO2 $
63870K0J4 0J420160516001509905/16/16 00:15:31  5-MIN K0J4 160515Z AUTO 03003KT 10SM CLR 17/11 A3013 120 67 400 030/03 RMK AO2 $
63870K0J4 0J420160516002009905/16/16 00:20:31  5-MIN K0J4 160520Z AUTO 00000KT 10SM CLR 17/11 A3013 120 64 500 000/00 RMK AO2 $
63870K0J4 0J420160516002509905/16/16 00:25:31  5-MIN K0J4 160525Z AUTO 00000KT 10SM CLR 17/11 A3013 120 67 400 000/00 RMK AO2 $
63870K0J4 0J420160516003009905/16/16 00:30:31  5-MIN K0J4 160530Z AUTO 00000KT 10SM CLR 17/11 A3013 120 67 400 000/00 RMK AO2 $
63870K0J4 0J420160516003509905/16/16 00:35:31  5-MIN K0J4 160535Z AUTO 03004KT 10SM CLR 17/10 A3013 120 62 500 030/04 RMK AO2 $
63870K0J4 0J420160516004009905/16/16 00:40:31  5-MIN K0J4 160540Z AUTO 03005KT 10SM CLR 16/11 A3013 130 69 300 030/05 RMK AO2 $
63870K0J4 0J420160516004509905/16/16 00:45:31  5-MIN K0J4 160545Z AUTO 03005KT 10SM CLR 16/11 A3013 130 69 300 030/05 RMK AO2 $
63870K0J4 0J420160516005009905/16/16 00:50:31  5-MIN K0J4 160550Z AUTO 03004KT 10SM CLR 16/11 A3013 130 69 300 030/04 RMK AO2 $
63870K0J4 0J420160516005513405/16/16 00:55:31  5-MIN K0J4 160555Z AUTO 03004KT 10SM CLR 16/11 A3013 120 69 300 030/04 RMK AO2 SLP199 T01610106 10228 20156 51017 $
63870K0J4 0J420160516010009905/16/16 01:00:31  5-MIN K0J4 160600Z AUTO 02003KT 10SM CLR 17/10 A3013 120 64 400 020/03 RMK AO2 $
63870K0J4 0J420160516010509905/16/16 01:05:31  5-MIN K0J4 160605Z AUTO 00000KT 10SM CLR 17/10 A3013 120 64 400 000/00 RMK AO2 $
63870K0J4 0J420160516011009905/16/16 01:10:31  5-MIN K0J4 160610Z AUTO 00000KT 10SM CLR 16/11 A3013 120 69 300 000/00 RMK AO2 $
63870K0J4 0J420160516011509905/16/16 01:15:31  5-MIN K0J4 160615Z AUTO 00000KT 10SM CLR 16/11 A3013 120 69 300 000/00 RMK AO2 $
63870K0J4 0J420160516012009905/16/16 01:20:31  5-MIN K0J4 160620Z AUTO 01003KT 10SM CLR 16/11 A3013 120 72 300 010/03 RMK AO2 $
63870K0J4 0J420160516012509905/16/16 01:25:31  5-MIN K0J4 160625Z AUTO 02003KT 10SM CLR 15/11 A3013 130 77 200 020/03 RMK AO2 $
63870K0J4 0J420160516013009905/16/16 01:30:31  5-MIN K0J4 160630Z AUTO 02004KT 10SM CLR 15/11 A3012 130 74 200 020/04 RMK AO2 $
63870K0J4 0J420160516013509905/16/16 01:35:31  5-MIN K0J4 160635Z AUTO 02004KT 10SM CLR 15/11 A3012 130 74 200 020/04 RMK AO2 $
63870K0J4 0J420160516014009905/16/16 01:40:31  5-MIN K0J4 160640Z AUTO 03003KT 10SM CLR 15/11 A3012 130 74 200 030/03 RMK AO2 $
63870K0J4 0J420160516014509905/16/16 01:45:31  5-MIN K0J4 160645Z AUTO 03003KT 10SM CLR 15/10 A3012 130 72 200 030/03 RMK AO2 $
63870K0J4 0J420160516015009905/16/16 01:50:31  5-MIN K0J4 160650Z AUTO 02004KT 10SM CLR 15/10 A3012 130 72 200 020/04 RMK AO2 $
63870K0J4 0J420160516015511605/16/16 01:55:31  5-MIN K0J4 160655Z AUTO 02004KT 10SM CLR 15/11 A3012 130 74 200 020/04 RMK AO2 SLP196 T01500106 $
63870K0J4 0J420160516020009905/16/16 02:00:31  5-MIN K0J4 160700Z AUTO 03004KT 10SM CLR 15/10 A3012 130 72 200 030/04 RMK AO2 $
63870K0J4 0J420160516020509905/16/16 02:05:31  5-MIN K0J4 160705Z AUTO 03005KT 10SM CLR 15/10 A3012 130 72 200 030/05 RMK AO2 $
63870K0J4 0J420160516021009905/16/16 02:10:31  5-MIN K0J4 160710Z AUTO 03005KT 10SM CLR 15/10 A3012 130 72 200 030/05 RMK AO2 $
63870K0J4 0J420160516021509905/16/16 02:15:31  5-MIN K0J4 160715Z AUTO 03004KT 10SM CLR 15/09 A3012 130 69 200 030/04 RMK AO2 $
63870K0J4 0J420160516022009905/16/16 02:20:31  5-MIN K0J4 160720Z AUTO 02004KT 10SM CLR 15/09 A3012 130 69 200 020/04 RMK AO2 $
63870K0J4 0J420160516022509905/16/16 02:25:31  5-MIN K0J4 160725Z AUTO 04004KT 10SM CLR 15/09 A3012 130 69 200 040/04 RMK AO2 $
63870K0J4 0J420160516023009905/16/16 02:30:31  5-MIN K0J4 160730Z AUTO 03005KT 10SM CLR 15/09 A3012 140 69 200 030/05 RMK AO2 $
63870K0J4 0J420160516023509905/16/16 02:35:31  5-MIN K0J4 160735Z AUTO 03004KT 10SM CLR 15/09 A3011 140 69 200 030/04 RMK AO2 $
63870K0J4 0J420160516024009905/16/16 02:40:31  5-MIN K0J4 160740Z AUTO 03005KT 10SM CLR 15/09 A3011 140 69 200 030/05 RMK AO2 $
63870K0J4 0J420160516024509905/16/16 02:45:31  5-MIN K0J4 160745Z AUTO 03006KT 10SM CLR 15/09 A3011 140 66 200 030/06 RMK AO2 $
63870K0J4 0J420160516025009905/16/16 02:50:31  5-MIN K0J4 160750Z AUTO 03006KT 10SM CLR 15/09 A3011 140 66 200 030/06 RMK AO2 $
63870K0J4 0J420160516025511605/16/16 02:55:31  5-MIN K0J4 160755Z AUTO 04006KT 10SM CLR 15/09 A3011 140 66 200 040/06 RMK AO2 SLP193 T01500089 $
63870K0J4 0J420160516030009905/16/16 03:00:31  5-MIN K0J4 160800Z AUTO 04006KT 10SM CLR 15/09 A3011 140 66 200 040/06 RMK AO2 $
63870K0J4 0J420160516030509905/16/16 03:05:31  5-MIN K0J4 160805Z AUTO 04005KT 10SM CLR 16/09 A3011 140 64 300 040/05 RMK AO2 $
63870K0J4 0J420160516031009905/16/16 03:10:31  5-MIN K0J4 160810Z AUTO 05005KT 10SM CLR 16/08 A3011 140 62 300 050/05 RMK AO2 $
63870K0J4 0J420160516031509905/16/16 03:15:31  5-MIN K0J4 160815Z AUTO 04006KT 10SM CLR 16/08 A3011 140 62 300 040/06 RMK AO2 $
63870K0J4 0J420160516032009905/16/16 03:20:31  5-MIN K0J4 160820Z AUTO 04006KT 10SM CLR 16/09 A3011 140 64 300 040/06 RMK AO2 $
63870K0J4 0J420160516032509905/16/16 03:25:31  5-MIN K0J4 160825Z AUTO 04007KT 10SM CLR 16/08 A3011 140 62 300 040/07 RMK AO2 $
63870K0J4 0J420160516033009905/16/16 03:30:31  5-MIN K0J4 160830Z AUTO 04007KT 10SM CLR 16/08 A3011 140 59 300 040/07 RMK AO2 $
63870K0J4 0J420160516033509905/16/16 03:35:31  5-MIN K0J4 160835Z AUTO 05005KT 10SM CLR 16/08 A3011 140 59 300 050/05 RMK AO2 $
63870K0J4 0J420160516034009905/16/16 03:40:31  5-MIN K0J4 160840Z AUTO 04005KT 10SM CLR 16/08 A3011 140 59 300 040/05 RMK AO2 $
63870K0J4 0J420160516034509905/16/16 03:45:31  5-MIN K0J4 160845Z AUTO 04005KT 10SM CLR 16/08 A3011 140 59 300 040/05 RMK AO2 $
63870K0J4 0J420160516035010205/16/16 03:50:31  5-MIN K0J4 160850Z AUTO 05004KT 10SM FEW070 16/08 A3011 140 59 300 050/04 RMK AO2 $
63870K0J4 0J420160516035512505/16/16 03:55:31  5-MIN K0J4 160855Z AUTO 04005KT 10SM SCT070 16/08 A3011 140 59 300 040/05 RMK AO2 SLP194 T01610083 58003 $
63870K0J4 0J420160516040010205/16/16 04:00:31  5-MIN K0J4 160900Z AUTO 03006KT 10SM BKN070 16/08 A3011 140 62 300 030/06 RMK AO2 $
63870K0J4 0J420160516040510205/16/16 04:05:31  5-MIN K0J4 160905Z AUTO 03005KT 10SM BKN070 16/08 A3012 130 59 300 030/05 RMK AO2 $
63870K0J4 0J420160516041010205/16/16 04:10:31  5-MIN K0J4 160910Z AUTO 03006KT 10SM BKN070 16/08 A3012 130 59 300 030/06 RMK AO2 $
63870K0J4 0J420160516041510205/16/16 04:15:31  5-MIN K0J4 160915Z AUTO 03006KT 10SM OVC070 16/08 A3012 130 59 300 030/06 RMK AO2 $
63870K0J4 0J420160516042010205/16/16 04:20:31  5-MIN K0J4 160920Z AUTO 04006KT 10SM OVC070 16/08 A3012 130 59 300 040/06 RMK AO2 $
63870K0J4 0J420160516042510205/16/16 04:25:31  5-MIN K0J4 160925Z AUTO 03006KT 10SM OVC070 16/08 A3012 130 59 300 030/06 RMK AO2 $
63870K0J4 0J420160516043010205/16/16 04:30:31  5-MIN K0J4 160930Z AUTO 03005KT 10SM OVC070 16/08 A3012 130 59 300 030/05 RMK AO2 $
63870K0J4 0J420160516043510205/16/16 04:35:31  5-MIN K0J4 160935Z AUTO 03005KT 10SM OVC075 16/08 A3012 130 59 300 030/05 RMK AO2 $
63870K0J4 0J420160516044010205/16/16 04:40:31  5-MIN K0J4 160940Z AUTO 04005KT 10SM OVC075 16/08 A3012 130 59 300 040/05 RMK AO2 $
63870K0J4 0J420160516044510205/16/16 04:45:31  5-MIN K0J4 160945Z AUTO 04005KT 10SM OVC070 16/08 A3013 130 62 300 040/05 RMK AO2 $
63870K0J4 0J420160516045010205/16/16 04:50:31  5-MIN K0J4 160950Z AUTO 04006KT 10SM BKN075 16/08 A3013 130 57 300 040/06 RMK AO2 $
63870K0J4 0J420160516045511905/16/16 04:55:31  5-MIN K0J4 160955Z AUTO 04005KT 10SM BKN075 16/08 A3013 120 57 300 040/05 RMK AO2 SLP199 T01610078 $
63870K0J4 0J420160516050010205/16/16 05:00:31  5-MIN K0J4 161000Z AUTO 05005KT 10SM SCT075 16/08 A3013 120 57 300 050/05 RMK AO2 $
63870K0J4 0J420160516050510205/16/16 05:05:31  5-MIN K0J4 161005Z AUTO 05003KT 10SM SCT070 16/08 A3013 120 57 300 050/03 RMK AO2 $
63870K0J4 0J420160516051010205/16/16 05:10:31  5-MIN K0J4 161010Z AUTO 05004KT 10SM FEW070 16/08 A3013 120 57 300 050/04 RMK AO2 $
63870K0J4 0J420160516051509905/16/16 05:15:31  5-MIN K0J4 161015Z AUTO 05004KT 10SM CLR 16/08 A3013 120 57 300 050/04 RMK AO2 $
63870K0J4 0J420160516052009905/16/16 05:20:31  5-MIN K0J4 161020Z AUTO 05004KT 10SM CLR 16/08 A3014 120 57 300 050/04 RMK AO2 $
63870K0J4 0J420160516052509905/16/16 05:25:31  5-MIN K0J4 161025Z AUTO 05004KT 10SM CLR 16/08 A3014 120 57 300 050/04 RMK AO2 $
63870K0J4 0J420160516053010205/16/16 05:30:31  5-MIN K0J4 161030Z AUTO 05004KT 10SM FEW070 16/08 A3014 110 57 300 050/04 RMK AO2 $
63870K0J4 0J420160516053510205/16/16 05:35:31  5-MIN K0J4 161035Z AUTO 06004KT 10SM SCT070 16/08 A3014 110 57 300 060/04 RMK AO2 $
63870K0J4 0J420160516054010205/16/16 05:40:31  5-MIN K0J4 161040Z AUTO 07005KT 10SM FEW070 17/07 A3014 110 53 400 070/05 RMK AO2 $
63870K0J4 0J420160516054510205/16/16 05:45:31  5-MIN K0J4 161045Z AUTO 07005KT 10SM FEW070 17/07 A3014 110 53 400 070/05 RMK AO2 $
63870K0J4 0J420160516055010205/16/16 05:50:31  5-MIN K0J4 161050Z AUTO 07004KT 10SM FEW070 17/07 A3014 110 53 400 070/04 RMK AO2 $
63870K0J4 0J420160516055512605/16/16 05:55:31  5-MIN K0J4 161055Z AUTO 06004KT 10SM FEW070 SCT120 17/07 A3014 110 53 400 060/04 RMK AO2 SLP204 T01670072 $
63870K0J4 0J420160516060010905/16/16 06:00:31  5-MIN K0J4 161100Z AUTO 08005KT 10SM FEW070 BKN120 17/07 A3015 110 53 400 080/05 RMK AO2 $
63870K0J4 0J420160516060510205/16/16 06:05:31  5-MIN K0J4 161105Z AUTO 08005KT 10SM BKN120 16/07 A3015 100 55 300 080/05 RMK AO2 $
63870K0J4 0J420160516061010205/16/16 06:10:31  5-MIN K0J4 161110Z AUTO 07005KT 10SM BKN120 16/07 A3015 100 55 300 070/05 RMK AO2 $
63870K0J4 0J420160516061510205/16/16 06:15:31  5-MIN K0J4 161115Z AUTO 07005KT 10SM BKN120 16/07 A3015 100 55 300 070/05 RMK AO2 $
63870K0J4 0J420160516062010205/16/16 06:20:31  5-MIN K0J4 161120Z AUTO 08005KT 10SM SCT120 16/07 A3015 100 55 300 080/05 RMK AO2 $
63870K0J4 0J420160516062510205/16/16 06:25:31  5-MIN K0J4 161125Z AUTO 08004KT 10SM SCT120 16/07 A3016 100 55 300 080/04 RMK AO2 $
63870K0J4 0J420160516063010205/16/16 06:30:31  5-MIN K0J4 161130Z AUTO 08005KT 10SM BKN120 16/07 A3016 100 55 300 080/05 RMK AO2 $
63870K0J4 0J420160516063510205/16/16 06:35:31  5-MIN K0J4 161135Z AUTO 07004KT 10SM BKN120 16/07 A3016 100 55 300 070/04 RMK AO2 $
63870K0J4 0J420160516064010205/16/16 06:40:31  5-MIN K0J4 161140Z AUTO 06005KT 10SM BKN120 17/07 A3015 100 53 400 060/05 RMK AO2 $
63870K0J4 0J420160516064510205/16/16 06:45:31  5-MIN K0J4 161145Z AUTO 07005KT 10SM SCT120 16/07 A3015 100 55 300 070/05 RMK AO2 $
63870K0J4 0J420160516065010205/16/16 06:50:31  5-MIN K0J4 161150Z AUTO 07005KT 10SM SCT120 17/08 A3015 100 55 400 070/05 RMK AO2 $
63870K0J4 0J420160516065513705/16/16 06:55:31  5-MIN K0J4 161155Z AUTO 07006KT 10SM SCT120 17/07 A3015 110 53 400 070/06 RMK AO2 SLP205 T01670072 10167 20150 55005 $
63870K0J4 0J420160516070010205/16/16 07:00:31  5-MIN K0J4 161200Z AUTO 07006KT 10SM FEW120 16/08 A3015 110 57 300 070/06 RMK AO2 $
63870K0J4 0J420160516070510205/16/16 07:05:31  5-MIN K0J4 161205Z AUTO 08006KT 10SM FEW120 16/07 A3015 110 55 300 080/06 RMK AO2 $
63870K0J4 0J420160516071009905/16/16 07:10:31  5-MIN K0J4 161210Z AUTO 08006KT 10SM CLR 16/07 A3015 100 55 300 080/06 RMK AO2 $
63870K0J4 0J420160516071509905/16/16 07:15:31  5-MIN K0J4 161215Z AUTO 08007KT 10SM CLR 17/07 A3015 100 53 400 080/07 RMK AO2 $
63870K0J4 0J420160516072009905/16/16 07:20:31  5-MIN K0J4 161220Z AUTO 08007KT 10SM CLR 17/07 A3015 100 53 400 080/07 RMK AO2 $
63870K0J4 0J420160516072509905/16/16 07:25:31  5-MIN K0J4 161225Z AUTO 08005KT 10SM CLR 17/08 A3015 100 55 400 080/05 RMK AO2 $
63870K0J4 0J420160516073009905/16/16 07:30:31  5-MIN K0J4 161230Z AUTO 08008KT 10SM CLR 17/08 A3015 100 55 400 080/08 RMK AO2 $
63870K0J4 0J420160516073509905/16/16 07:35:31  5-MIN K0J4 161235Z AUTO 08006KT 10SM CLR 17/08 A3015 100 55 400 080/06 RMK AO2 $
63870K0J4 0J420160516074009905/16/16 07:40:31  5-MIN K0J4 161240Z AUTO 08007KT 10SM CLR 17/08 A3015 100 53 400 080/07 RMK AO2 $
63870K0J4 0J420160516074509905/16/16 07:45:31  5-MIN K0J4 161245Z AUTO 08008KT 10SM CLR 17/08 A3015 100 53 400 080/08 RMK AO2 $
63870K0J4 0J420160516075009905/16/16 07:50:31  5-MIN K0J4 161250Z AUTO 08007KT 10SM CLR 17/07 A3016 100 51 400 080/07 RMK AO2 $
63870K0J4 0J420160516075511605/16/16 07:55:31  5-MIN K0J4 161255Z AUTO 07008KT 10SM CLR 17/08 A3016 100 53 400 070/08 RMK AO2 SLP210 T01720078 $
63870K0J4 0J420160516080009905/16/16 08:00:31  5-MIN K0J4 161300Z AUTO 07008KT 10SM CLR 18/08 A3016 100 51 500 070/08 RMK AO2 $
63870K0J4 0J420160516080509905/16/16 08:05:31  5-MIN K0J4 161305Z AUTO 07008KT 10SM CLR 18/08 A3016 100 51 500 070/08 RMK AO2 $
63870K0J4 0J420160516081009905/16/16 08:10:31  5-MIN K0J4 161310Z AUTO 08007KT 10SM CLR 18/08 A3016 100 51 500 080/07 RMK AO2 $
63870K0J4 0J420160516081510205/16/16 08:15:31  5-MIN K0J4 161315Z AUTO 08006KT 10SM FEW070 18/08 A3016 100 51 500 080/06 RMK AO2 $
63870K0J4 0J420160516082010205/16/16 08:20:31  5-MIN K0J4 161320Z AUTO 09006KT 10SM SCT070 18/08 A3016 100 50 500 090/06 RMK AO2 $
63870K0J4 0J420160516082510905/16/16 08:25:31  5-MIN K0J4 161325Z AUTO 09006KT 10SM SCT070 SCT120 18/07 A3016 100 48 500 090/06 RMK AO2 $
63870K0J4 0J420160516083010905/16/16 08:30:31  5-MIN K0J4 161330Z AUTO 07008KT 10SM SCT070 BKN120 18/08 A3016 100 50 600 070/08 RMK AO2 $
63870K0J4 0J420160516083510905/16/16 08:35:31  5-MIN K0J4 161335Z AUTO 07007KT 10SM FEW070 BKN120 18/08 A3016 100 50 600 070/07 RMK AO2 $
63870K0J4 0J420160516084010905/16/16 08:40:31  5-MIN K0J4 161340Z AUTO 08007KT 10SM FEW070 BKN120 19/08 A3015 100 48 600 080/07 RMK AO2 $
63870K0J4 0J420160516084510905/16/16 08:45:31  5-MIN K0J4 161345Z AUTO 07007KT 10SM FEW070 BKN120 19/08 A3015 100 48 600 070/07 RMK AO2 $
63870K0J4 0J420160516085010205/16/16 08:50:31  5-MIN K0J4 161350Z AUTO 08007KT 10SM SCT120 19/08 A3015 110 48 600 080/07 RMK AO2 $
63870K0J4 0J420160516085511905/16/16 08:55:31  5-MIN K0J4 161355Z AUTO 08007KT 10SM SCT120 19/08 A3015 110 50 600 080/07 RMK AO2 SLP206 T01890083 $
63870K0J4 0J420160516090010205/16/16 09:00:31  5-MIN K0J4 161400Z AUTO 08006KT 10SM FEW120 19/08 A3015 100 50 600 080/06 RMK AO2 $
63870K0J4 0J420160516090510805/16/16 09:05:31  5-MIN K0J4 161405Z AUTO 08010G14KT 10SM FEW120 19/07 A3015 100 44 700 080/10G14 RMK AO2 $
63870K0J4 0J420160516091009905/16/16 09:10:31  5-MIN K0J4 161410Z AUTO 07007KT 10SM CLR 19/07 A3015 100 44 700 070/07 RMK AO2 $
63870K0J4 0J420160516091509905/16/16 09:15:31  5-MIN K0J4 161415Z AUTO 09007KT 10SM CLR 19/07 A3015 100 44 700 090/07 RMK AO2 $
63870K0J4 0J420160516092009905/16/16 09:20:31  5-MIN K0J4 161420Z AUTO 09008KT 10SM CLR 20/07 A3016 100 43 700 090/08 RMK AO2 $
63870K0J4 0J420160516092509905/16/16 09:25:31  5-MIN K0J4 161425Z AUTO 09007KT 10SM CLR 21/08 A3016 100 43 800 090/07 RMK AO2 $
63870K0J4 0J420160516093009905/16/16 09:30:31  5-MIN K0J4 161430Z AUTO 09005KT 10SM CLR 21/08 A3016 100 43 800 090/05 RMK AO2 $
63870K0J4 0J420160516093509905/16/16 09:35:31  5-MIN K0J4 161435Z AUTO 10006KT 10SM CLR 21/08 A3016 100 42 900 100/06 RMK AO2 $
63870K0J4 0J420160516094009805/16/16 09:40:31  5-MIN K0J4 161440Z AUTO 10007KT 10SM CLR 21/07 A3016 90 41 800 100/07 RMK AO2 $
63870K0J4 0J420160516094509805/16/16 09:45:31  5-MIN K0J4 161445Z AUTO VRB04KT 10SM CLR 21/07 A3016 90 40 900 VRB/04 RMK AO2 $
63870K0J4 0J420160516095009805/16/16 09:50:31  5-MIN K0J4 161450Z AUTO 11007KT 10SM CLR 21/07 A3016 90 40 900 110/07 RMK AO2 $
63870K0J4 0J420160516095512205/16/16 09:55:31  5-MIN K0J4 161455Z AUTO 11008KT 10SM CLR 21/07 A3016 100 38 900 110/08 RMK AO2 SLP209 T02110067 51012 $
63870K0J4 0J420160516100009905/16/16 10:00:31  5-MIN K0J4 161500Z AUTO 09008KT 10SM CLR 22/07 A3016 100 37 900 090/08 RMK AO2 $
63870K0J4 0J420160516100509905/16/16 10:05:31  5-MIN K0J4 161505Z AUTO 08007KT 10SM CLR 22/07 A3015 100 39 900 080/07 RMK AO2 $
63870K0J4 0J420160516101009905/16/16 10:10:31  5-MIN K0J4 161510Z AUTO 09007KT 10SM CLR 22/07 A3015 100 39 900 090/07 RMK AO2 $
63870K0J4 0J420160516101509905/16/16 10:15:31  5-MIN K0J4 161515Z AUTO 12007KT 10SM CLR 22/07 A3015 100 39 900 120/07 RMK AO2 $
63870K0J4 0J420160516102009905/16/16 10:20:31  5-MIN K0J4 161520Z AUTO 09008KT 10SM CLR 22/07 A3015 100 39 900 090/08 RMK AO2 $
63870K0J4 0J420160516102511605/16/16 10:25:31  5-MIN K0J4 161525Z AUTO 11007KT 080V140 10SM CLR 23/07 A3015 100 36 1100 110/07 080V140 RMK AO2 $
63870K0J4 0J420160516103010005/16/16 10:30:31  5-MIN K0J4 161530Z AUTO 12007KT 10SM CLR 23/07 A3015 100 36 1100 120/07 RMK AO2 $
63870K0J4 0J420160516103510005/16/16 10:35:31  5-MIN K0J4 161535Z AUTO 11005KT 10SM CLR 23/07 A3015 100 36 1100 110/05 RMK AO2 $
63870K0J4 0J420160516104010005/16/16 10:40:31  5-MIN K0J4 161540Z AUTO 11005KT 10SM CLR 23/08 A3016 100 36 1100 110/05 RMK AO2 $
63870K0J4 0J420160516104510005/16/16 10:45:31  5-MIN K0J4 161545Z AUTO 09006KT 10SM CLR 23/08 A3015 100 36 1100 090/06 RMK AO2 $
63870K0J4 0J420160516105011605/16/16 10:50:31  5-MIN K0J4 161550Z AUTO 09007KT 060V130 10SM CLR 23/07 A3015 100 36 1100 090/07 060V130 RMK AO2 $
63870K0J4 0J420160516105511705/16/16 10:55:31  5-MIN K0J4 161555Z AUTO 09006KT 10SM CLR 23/08 A3015 110 36 1100 090/06 RMK AO2 SLP206 T02330078 $
63870K0J4 0J420160516110010005/16/16 11:00:31  5-MIN K0J4 161600Z AUTO 09006KT 10SM CLR 24/08 A3015 110 35 1200 090/06 RMK AO2 $
63870K0J4 0J420160516110510005/16/16 11:05:31  5-MIN K0J4 161605Z AUTO 10005KT 10SM CLR 23/08 A3015 110 36 1100 100/05 RMK AO2 $
63870K0J4 0J420160516111010005/16/16 11:10:31  5-MIN K0J4 161610Z AUTO 12005KT 10SM CLR 23/08 A3015 110 36 1100 120/05 RMK AO2 $
63870K0J4 0J420160516111510005/16/16 11:15:31  5-MIN K0J4 161615Z AUTO 11005KT 10SM CLR 24/08 A3015 110 36 1200 110/05 RMK AO2 $
63870K0J4 0J420160516112010005/16/16 11:20:31  5-MIN K0J4 161620Z AUTO VRB05KT 10SM CLR 24/09 A3014 110 36 1300 VRB/05 RMK AO2 $
63870K0J4 0J420160516112510005/16/16 11:25:31  5-MIN K0J4 161625Z AUTO 12005KT 10SM CLR 24/08 A3014 110 35 1300 120/05 RMK AO2 $
63870K0J4 0J420160516113010005/16/16 11:30:31  5-MIN K0J4 161630Z AUTO 10005KT 10SM CLR 24/08 A3014 110 35 1300 100/05 RMK AO2 $
63870K0J4 0J420160516113510005/16/16 11:35:31  5-MIN K0J4 161635Z AUTO VRB04KT 10SM CLR 25/09 A3014 110 35 1300 VRB/04 RMK AO2 $
63870K0J4 0J420160516114011605/16/16 11:40:31  5-MIN K0J4 161640Z AUTO 08007KT 040V120 10SM CLR 25/09 A3014 110 35 1300 080/07 040V120 RMK AO2 $
63870K0J4 0J420160516114510005/16/16 11:45:31  5-MIN K0J4 161645Z AUTO 08006KT 10SM CLR 25/09 A3014 110 35 1300 080/06 RMK AO2 $
63870K0J4 0J420160516115010005/16/16 11:50:31  5-MIN K0J4 161650Z AUTO 00000KT 10SM CLR 24/09 A3014 110 36 1300 000/00 RMK AO2 $
63870K0J4 0J420160516115511705/16/16 11:55:31  5-MIN K0J4 161655Z AUTO 07005KT 10SM CLR 25/09 A3014 120 35 1300 070/05 RMK AO2 SLP202 T02500089 $
63870K0J4 0J420160516120010005/16/16 12:00:31  5-MIN K0J4 161700Z AUTO VRB04KT 10SM CLR 26/09 A3014 120 35 1400 VRB/04 RMK AO2 $
63870K0J4 0J420160516120510005/16/16 12:05:31  5-MIN K0J4 161705Z AUTO VRB04KT 10SM CLR 26/10 A3013 120 36 1500 VRB/04 RMK AO2 $
63870K0J4 0J420160516121010005/16/16 12:10:31  5-MIN K0J4 161710Z AUTO VRB05KT 10SM CLR 25/10 A3013 120 38 1300 VRB/05 RMK AO2 $
63870K0J4 0J420160516121510005/16/16 12:15:31  5-MIN K0J4 161715Z AUTO 08006KT 10SM CLR 26/11 A3013 120 37 1500 080/06 RMK AO2 $
63870K0J4 0J420160516122010005/16/16 12:20:31  5-MIN K0J4 161720Z AUTO 06006KT 10SM CLR 26/10 A3013 130 36 1500 060/06 RMK AO2 $
63870K0J4 0J420160516122510005/16/16 12:25:31  5-MIN K0J4 161725Z AUTO VRB03KT 10SM CLR 26/11 A3012 130 37 1500 VRB/03 RMK AO2 $
63870K0J4 0J420160516123010005/16/16 12:30:31  5-MIN K0J4 161730Z AUTO 12005KT 10SM CLR 27/11 A3012 130 36 1500 120/05 RMK AO2 $
63870K0J4 0J420160516123510005/16/16 12:35:31  5-MIN K0J4 161735Z AUTO VRB03KT 10SM CLR 26/10 A3012 130 36 1500 VRB/03 RMK AO2 $
63870K0J4 0J420160516124011605/16/16 12:40:31  5-MIN K0J4 161740Z AUTO 08007KT 030V100 10SM CLR 27/11 A3012 140 37 1600 080/07 030V100 RMK AO2 $
63870K0J4 0J420160516124510005/16/16 12:45:31  5-MIN K0J4 161745Z AUTO 05005KT 10SM CLR 27/12 A3011 140 37 1600 050/05 RMK AO2 $
63870K0J4 0J420160516125010005/16/16 12:50:31  5-MIN K0J4 161750Z AUTO 09008KT 10SM CLR 27/11 A3011 140 36 1600 090/08 RMK AO2 $
63870K0J4 0J420160516125513505/16/16 12:55:31  5-MIN K0J4 161755Z AUTO VRB06KT 10SM CLR 27/11 A3010 150 37 1600 VRB/06 RMK AO2 SLP190 T02670111 10272 20161 52004 $
63870K0J4 0J420160516130010005/16/16 13:00:31  5-MIN K0J4 161800Z AUTO VRB05KT 10SM CLR 27/11 A3010 150 37 1600 VRB/05 RMK AO2 $
63870K0J4 0J420160516130510005/16/16 13:05:31  5-MIN K0J4 161805Z AUTO VRB06KT 10SM CLR 28/12 A3010 150 36 1700 VRB/06 RMK AO2 $
63870K0J4 0J420160516131010005/16/16 13:10:31  5-MIN K0J4 161810Z AUTO VRB05KT 10SM CLR 27/11 A3010 150 36 1600 VRB/05 RMK AO2 $
63870K0J4 0J420160516131510005/16/16 13:15:31  5-MIN K0J4 161815Z AUTO 07008KT 10SM CLR 28/12 A3010 150 36 1700 070/08 RMK AO2 $
63870K0J4 0J420160516132010005/16/16 13:20:31  5-MIN K0J4 161820Z AUTO 07006KT 10SM CLR 28/12 A3010 150 36 1700 070/06 RMK AO2 $
63870K0J4 0J420160516132510005/16/16 13:25:31  5-MIN K0J4 161825Z AUTO 08007KT 10SM CLR 28/12 A3009 160 35 1800 080/07 RMK AO2 $
63870K0J4 0J420160516133010005/16/16 13:30:31  5-MIN K0J4 161830Z AUTO VRB05KT 10SM CLR 28/12 A3009 160 36 1800 VRB/05 RMK AO2 $
63870K0J4 0J420160516133510005/16/16 13:35:31  5-MIN K0J4 161835Z AUTO 09004KT 10SM CLR 28/12 A3009 160 36 1700 090/04 RMK AO2 $
63870K0J4 0J420160516134010005/16/16 13:40:31  5-MIN K0J4 161840Z AUTO 08006KT 10SM CLR 28/12 A3009 160 35 1800 080/06 RMK AO2 $
63870K0J4 0J420160516134510005/16/16 13:45:31  5-MIN K0J4 161845Z AUTO VRB03KT 10SM CLR 28/12 A3009 160 36 1700 VRB/03 RMK AO2 $
63870K0J4 0J420160516135010005/16/16 13:50:31  5-MIN K0J4 161850Z AUTO 12005KT 10SM CLR 28/12 A3009 160 36 1700 120/05 RMK AO2 $
63870K0J4 0J420160516135511705/16/16 13:55:31  5-MIN K0J4 161855Z AUTO 13006KT 10SM CLR 28/12 A3009 160 37 1700 130/06 RMK AO2 SLP186 T02780122 $
63870K0J4 0J420160516140010005/16/16 14:00:31  5-MIN K0J4 161900Z AUTO VRB06KT 10SM CLR 28/12 A3009 160 37 1700 VRB/06 RMK AO2 $
63870K0J4 0J420160516140510005/16/16 14:05:31  5-MIN K0J4 161905Z AUTO 11007KT 10SM CLR 28/12 A3009 160 35 1800 110/07 RMK AO2 $
63870K0J4 0J420160516141010005/16/16 14:10:31  5-MIN K0J4 161910Z AUTO 06004KT 10SM CLR 28/12 A3009 160 36 1800 060/04 RMK AO2 $
63870K0J4 0J420160516141510005/16/16 14:15:31  5-MIN K0J4 161915Z AUTO 15007KT 10SM CLR 28/12 A3009 160 36 1800 150/07 RMK AO2 $
63870K0J4 0J420160516142010005/16/16 14:20:31  5-MIN K0J4 161920Z AUTO 00000KT 10SM CLR 28/12 A3008 170 36 1800 000/00 RMK AO2 $
63870K0J4 0J420160516142510005/16/16 14:25:31  5-MIN K0J4 161925Z AUTO 12008KT 10SM CLR 28/12 A3008 170 36 1800 120/08 RMK AO2 $
63870K0J4 0J420160516143010005/16/16 14:30:31  5-MIN K0J4 161930Z AUTO 12005KT 10SM CLR 28/12 A3008 170 36 1800 120/05 RMK AO2 $
63870K0J4 0J420160516143510005/16/16 14:35:31  5-MIN K0J4 161935Z AUTO VRB04KT 10SM CLR 28/12 A3008 170 37 1700 VRB/04 RMK AO2 $
63870K0J4 0J420160516144010005/16/16 14:40:31  5-MIN K0J4 161940Z AUTO 07008KT 10SM CLR 28/12 A3007 170 36 1800 070/08 RMK AO2 $
63870K0J4 0J420160516144510005/16/16 14:45:31  5-MIN K0J4 161945Z AUTO 09005KT 10SM CLR 28/13 A3008 170 37 1800 090/05 RMK AO2 $
63870K0J4 0J420160516145010005/16/16 14:50:31  5-MIN K0J4 161950Z AUTO 10007KT 10SM CLR 28/13 A3008 170 37 1800 100/07 RMK AO2 $
63870K0J4 0J420160516145511705/16/16 14:55:31  5-MIN K0J4 161955Z AUTO 18005KT 10SM CLR 28/13 A3007 170 37 1800 180/05 RMK AO2 SLP180 T02830128 $
63870K0J4 0J420160516150010005/16/16 15:00:31  5-MIN K0J4 162000Z AUTO VRB03KT 10SM CLR 28/13 A3007 180 37 1800 VRB/03 RMK AO2 $
63870K0J4 0J420160516150510005/16/16 15:05:31  5-MIN K0J4 162005Z AUTO VRB03KT 10SM CLR 28/13 A3007 180 39 1800 VRB/03 RMK AO2 $
63870K0J4 0J420160516151010005/16/16 15:10:31  5-MIN K0J4 162010Z AUTO VRB04KT 10SM CLR 28/13 A3007 180 37 1800 VRB/04 RMK AO2 $
63870K0J4 0J420160516151510005/16/16 15:15:31  5-MIN K0J4 162015Z AUTO 14007KT 10SM CLR 29/13 A3007 180 38 1900 140/07 RMK AO2 $
63870K0J4 0J420160516152010005/16/16 15:20:31  5-MIN K0J4 162020Z AUTO 00000KT 10SM CLR 28/13 A3007 180 37 1800 000/00 RMK AO2 $
63870K0J4 0J420160516152510005/16/16 15:25:31  5-MIN K0J4 162025Z AUTO 10003KT 10SM CLR 29/13 A3007 180 36 1900 100/03 RMK AO2 $
63870K0J4 0J420160516153010005/16/16 15:30:31  5-MIN K0J4 162030Z AUTO VRB04KT 10SM CLR 29/13 A3007 180 38 1900 VRB/04 RMK AO2 $
63870K0J4 0J420160516153510005/16/16 15:35:31  5-MIN K0J4 162035Z AUTO 18006KT 10SM CLR 28/13 A3007 180 39 1800 180/06 RMK AO2 $
63870K0J4 0J420160516154010005/16/16 15:40:31  5-MIN K0J4 162040Z AUTO 15004KT 10SM CLR 28/13 A3006 180 37 1800 150/04 RMK AO2 $
63870K0J4 0J420160516154510005/16/16 15:45:31  5-MIN K0J4 162045Z AUTO VRB05KT 10SM CLR 29/13 A3006 190 38 1900 VRB/05 RMK AO2 $
63870K0J4 0J420160516155010005/16/16 15:50:31  5-MIN K0J4 162050Z AUTO VRB03KT 10SM CLR 28/13 A3006 180 39 1800 VRB/03 RMK AO2 $
63870K0J4 0J420160516155512305/16/16 15:55:31  5-MIN K0J4 162055Z AUTO 12004KT 10SM CLR 28/13 A3006 190 37 1800 120/04 RMK AO2 SLP176 T02830128 58019 $
63870K0J4 0J420160516160010005/16/16 16:00:31  5-MIN K0J4 162100Z AUTO 00000KT 10SM CLR 28/13 A3006 190 37 1800 000/00 RMK AO2 $
63870K0J4 0J420160516160510005/16/16 16:05:31  5-MIN K0J4 162105Z AUTO 10005KT 10SM CLR 29/13 A3006 190 36 1900 100/05 RMK AO2 $
63870K0J4 0J420160516161010005/16/16 16:10:31  5-MIN K0J4 162110Z AUTO 10006KT 10SM CLR 28/13 A3006 190 37 1800 100/06 RMK AO2 $
63870K0J4 0J420160516161510005/16/16 16:15:31  5-MIN K0J4 162115Z AUTO 15004KT 10SM CLR 29/13 A3005 190 38 1900 150/04 RMK AO2 $
63870K0J4 0J420160516162010005/16/16 16:20:31  5-MIN K0J4 162120Z AUTO VRB05KT 10SM CLR 28/13 A3005 190 39 1800 VRB/05 RMK AO2 $
63870K0J4 0J420160516162510005/16/16 16:25:31  5-MIN K0J4 162125Z AUTO VRB04KT 10SM CLR 28/13 A3005 190 39 1800 VRB/04 RMK AO2 $
63870K0J4 0J420160516163010005/16/16 16:30:31  5-MIN K0J4 162130Z AUTO VRB04KT 10SM CLR 28/13 A3005 200 39 1800 VRB/04 RMK AO2 $
63870K0J4 0J420160516163510005/16/16 16:35:31  5-MIN K0J4 162135Z AUTO 14004KT 10SM CLR 28/13 A3005 200 37 1800 140/04 RMK AO2 $
63870K0J4 0J420160516164010005/16/16 16:40:31  5-MIN K0J4 162140Z AUTO VRB04KT 10SM CLR 28/13 A3005 200 39 1800 VRB/04 RMK AO2 $
63870K0J4 0J420160516164510005/16/16 16:45:31  5-MIN K0J4 162145Z AUTO VRB04KT 10SM CLR 28/13 A3005 200 40 1800 VRB/04 RMK AO2 $
63870K0J4 0J420160516165010005/16/16 16:50:31  5-MIN K0J4 162150Z AUTO 10004KT 10SM CLR 28/13 A3005 200 40 1800 100/04 RMK AO2 $
63870K0J4 0J420160516165511705/16/16 16:55:31  5-MIN K0J4 162155Z AUTO 11003KT 10SM CLR 28/13 A3005 200 40 1800 110/03 RMK AO2 SLP171 T02780133 $
63870K0J4 0J420160516170010005/16/16 17:00:31  5-MIN K0J4 162200Z AUTO 08004KT 10SM CLR 28/13 A3005 200 40 1800 080/04 RMK AO2 $
63870K0J4 0J420160516170510005/16/16 17:05:31  5-MIN K0J4 162205Z AUTO 10003KT 10SM CLR 28/13 A3005 200 39 1800 100/03 RMK AO2 $
63870K0J4 0J420160516171010005/16/16 17:10:31  5-MIN K0J4 162210Z AUTO 10003KT 10SM CLR 28/13 A3005 200 40 1800 100/03 RMK AO2 $
63870K0J4 0J420160516171510005/16/16 17:15:31  5-MIN K0J4 162215Z AUTO 10003KT 10SM CLR 28/13 A3005 200 40 1800 100/03 RMK AO2 $
63870K0J4 0J420160516172010005/16/16 17:20:31  5-MIN K0J4 162220Z AUTO 10003KT 10SM CLR 27/13 A3005 200 42 1700 100/03 RMK AO2 $
63870K0J4 0J420160516172510005/16/16 17:25:31  5-MIN K0J4 162225Z AUTO 00000KT 10SM CLR 27/13 A3005 200 42 1700 000/00 RMK AO2 $
63870K0J4 0J420160516173010005/16/16 17:30:31  5-MIN K0J4 162230Z AUTO 00000KT 10SM CLR 27/14 A3005 200 43 1700 000/00 RMK AO2 $
63870K0J4 0J420160516173510005/16/16 17:35:31  5-MIN K0J4 162235Z AUTO 00000KT 10SM CLR 27/14 A3005 200 43 1700 000/00 RMK AO2 $
63870K0J4 0J420160516174010005/16/16 17:40:31  5-MIN K0J4 162240Z AUTO 08004KT 10SM CLR 27/14 A3004 200 46 1600 080/04 RMK AO2 $
63870K0J4 0J420160516174510005/16/16 17:45:31  5-MIN K0J4 162245Z AUTO 09003KT 10SM CLR 27/14 A3004 200 46 1600 090/03 RMK AO2 $
63870K0J4 0J420160516175010005/16/16 17:50:31  5-MIN K0J4 162250Z AUTO 00000KT 10SM CLR 27/14 A3004 200 46 1600 000/00 RMK AO2 $
63870K0J4 0J420160516175511705/16/16 17:55:31  5-MIN K0J4 162255Z AUTO 00000KT 10SM CLR 27/14 A3004 200 46 1600 000/00 RMK AO2 SLP170 T02670144 $
63870K0J4 0J420160516180010005/16/16 18:00:31  5-MIN K0J4 162300Z AUTO 07003KT 10SM CLR 27/14 A3004 210 46 1600 070/03 RMK AO2 $
63870K0J4 0J420160516180510005/16/16 18:05:31  5-MIN K0J4 162305Z AUTO 07004KT 10SM CLR 27/14 A3004 210 46 1600 070/04 RMK AO2 $
63870K0J4 0J420160516181010005/16/16 18:10:31  5-MIN K0J4 162310Z AUTO 07004KT 10SM CLR 27/14 A3004 210 46 1600 070/04 RMK AO2 $
63870K0J4 0J420160516181510005/16/16 18:15:31  5-MIN K0J4 162315Z AUTO 08003KT 10SM CLR 26/15 A3004 210 50 1600 080/03 RMK AO2 $
63870K0J4 0J420160516182010005/16/16 18:20:31  5-MIN K0J4 162320Z AUTO 08004KT 10SM CLR 26/15 A3004 210 50 1600 080/04 RMK AO2 $
63870K0J4 0J420160516182510005/16/16 18:25:31  5-MIN K0J4 162325Z AUTO 08003KT 10SM CLR 26/14 A3004 210 48 1600 080/03 RMK AO2 $
63870K0J4 0J420160516183010005/16/16 18:30:31  5-MIN K0J4 162330Z AUTO 08003KT 10SM CLR 26/14 A3004 210 48 1600 080/03 RMK AO2 $
63870K0J4 0J420160516183510005/16/16 18:35:31  5-MIN K0J4 162335Z AUTO 08003KT 10SM CLR 26/15 A3004 210 50 1600 080/03 RMK AO2 $
63870K0J4 0J420160516184010005/16/16 18:40:31  5-MIN K0J4 162340Z AUTO 00000KT 10SM CLR 26/15 A3004 210 51 1500 000/00 RMK AO2 $
63870K0J4 0J420160516184510005/16/16 18:45:31  5-MIN K0J4 162345Z AUTO 00000KT 10SM CLR 26/15 A3004 210 51 1500 000/00 RMK AO2 $
63870K0J4 0J420160516185010005/16/16 18:50:31  5-MIN K0J4 162350Z AUTO 07003KT 10SM CLR 26/15 A3004 200 51 1500 070/03 RMK AO2 $
63870K0J4 0J420160516185513505/16/16 18:55:31  5-MIN K0J4 162355Z AUTO 08004KT 10SM CLR 26/14 A3004 210 49 1500 080/04 RMK AO2 SLP169 T02560144 10294 20256 57014 $
63870K0J4 0J420160516190010005/16/16 19:00:31  5-MIN K0J4 170000Z AUTO 08003KT 10SM CLR 26/15 A3004 200 51 1500 080/03 RMK AO2 $
63870K0J4 0J420160516190510005/16/16 19:05:31  5-MIN K0J4 170005Z AUTO 08004KT 10SM CLR 26/14 A3004 210 49 1500 080/04 RMK AO2 $
63870K0J4 0J420160516191010005/16/16 19:10:31  5-MIN K0J4 170010Z AUTO 00000KT 10SM CLR 25/16 A3004 210 55 1500 000/00 RMK AO2 $
63870K0J4 0J420160516191510005/16/16 19:15:31  5-MIN K0J4 170015Z AUTO 00000KT 10SM CLR 24/16 A3004 210 59 1400 000/00 RMK AO2 $
63870K0J4 0J420160516192010005/16/16 19:20:31  5-MIN K0J4 170020Z AUTO 00000KT 10SM CLR 24/16 A3004 210 59 1400 000/00 RMK AO2 $
63870K0J4 0J420160516192510005/16/16 19:25:31  5-MIN K0J4 170025Z AUTO 00000KT 10SM CLR 24/16 A3004 210 57 1400 000/00 RMK AO2 $
63870K0J4 0J420160516193010005/16/16 19:30:31  5-MIN K0J4 170030Z AUTO 09003KT 10SM CLR 26/14 A3004 210 48 1500 090/03 RMK AO2 $
63870K0J4 0J420160516193510005/16/16 19:35:31  5-MIN K0J4 170035Z AUTO 00000KT 10SM CLR 26/14 A3004 210 48 1500 000/00 RMK AO2 $
63870K0J4 0J420160516194010005/16/16 19:40:31  5-MIN K0J4 170040Z AUTO 00000KT 10SM CLR 24/15 A3004 210 55 1400 000/00 RMK AO2 $
63870K0J4 0J420160516194510005/16/16 19:45:31  5-MIN K0J4 170045Z AUTO 00000KT 10SM CLR 24/16 A3004 210 59 1300 000/00 RMK AO2 $
63870K0J4 0J420160516195010005/16/16 19:50:31  5-MIN K0J4 170050Z AUTO 00000KT 10SM CLR 23/17 A3004 210 66 1300 000/00 RMK AO2 $
63870K0J4 0J420160516195511705/16/16 19:55:31  5-MIN K0J4 170055Z AUTO 00000KT 10SM CLR 23/16 A3004 210 63 1300 000/00 RMK AO2 SLP168 T02330161 $
63870K0J4 0J420160516200010005/16/16 20:00:31  5-MIN K0J4 170100Z AUTO 00000KT 10SM CLR 24/16 A3004 210 59 1300 000/00 RMK AO2 $
63870K0J4 0J420160516200510005/16/16 20:05:31  5-MIN K0J4 170105Z AUTO 07004KT 10SM CLR 24/15 A3004 210 55 1400 070/04 RMK AO2 $
63870K0J4 0J420160516201010005/16/16 20:10:31  5-MIN K0J4 170110Z AUTO 07004KT 10SM CLR 24/14 A3004 210 53 1400 070/04 RMK AO2 $
63870K0J4 0J420160516201510005/16/16 20:15:31  5-MIN K0J4 170115Z AUTO 00000KT 10SM CLR 25/14 A3004 210 51 1500 000/00 RMK AO2 $
63870K0J4 0J420160516202010005/16/16 20:20:31  5-MIN K0J4 170120Z AUTO 00000KT 10SM CLR 24/14 A3004 210 55 1300 000/00 RMK AO2 $
63870K0J4 0J420160516202510005/16/16 20:25:31  5-MIN K0J4 170125Z AUTO 00000KT 10SM CLR 24/14 A3004 210 55 1300 000/00 RMK AO2 $
63870K0J4 0J420160516203010005/16/16 20:30:31  5-MIN K0J4 170130Z AUTO 00000KT 10SM CLR 23/15 A3004 210 59 1300 000/00 RMK AO2 $
63870K0J4 0J420160516203510005/16/16 20:35:31  5-MIN K0J4 170135Z AUTO 00000KT 10SM CLR 23/16 A3003 210 61 1300 000/00 RMK AO2 $
63870K0J4 0J420160516204010005/16/16 20:40:31  5-MIN K0J4 170140Z AUTO 00000KT 10SM CLR 23/15 A3004 210 59 1300 000/00 RMK AO2 $
63870K0J4 0J420160516204510005/16/16 20:45:31  5-MIN K0J4 170145Z AUTO 00000KT 10SM CLR 23/16 A3004 210 63 1300 000/00 RMK AO2 $
63870K0J4 0J420160516205010005/16/16 20:50:31  5-MIN K0J4 170150Z AUTO 00000KT 10SM CLR 23/16 A3004 210 61 1300 000/00 RMK AO2 $
63870K0J4 0J420160516205511705/16/16 20:55:31  5-MIN K0J4 170155Z AUTO 00000KT 10SM CLR 23/16 A3004 210 65 1200 000/00 RMK AO2 SLP169 T02280161 $
63870K0J4 0J420160516210010005/16/16 21:00:31  5-MIN K0J4 170200Z AUTO 00000KT 10SM CLR 23/16 A3004 200 63 1300 000/00 RMK AO2 $
63870K0J4 0J420160516210510005/16/16 21:05:31  5-MIN K0J4 170205Z AUTO 00000KT 10SM CLR 23/15 A3005 200 59 1300 000/00 RMK AO2 $
63870K0J4 0J420160516211010005/16/16 21:10:31  5-MIN K0J4 170210Z AUTO 00000KT 10SM CLR 23/16 A3005 200 63 1300 000/00 RMK AO2 $
63870K0J4 0J420160516211510005/16/16 21:15:31  5-MIN K0J4 170215Z AUTO 00000KT 10SM CLR 23/16 A3005 200 65 1200 000/00 RMK AO2 $
63870K0J4 0J420160516212010005/16/16 21:20:31  5-MIN K0J4 170220Z AUTO 00000KT 10SM CLR 22/16 A3005 200 68 1100 000/00 RMK AO2 $
63870K0J4 0J420160516212510005/16/16 21:25:31  5-MIN K0J4 170225Z AUTO 00000KT 10SM CLR 22/16 A3005 190 68 1100 000/00 RMK AO2 $
63870K0J4 0J420160516213010005/16/16 21:30:31  5-MIN K0J4 170230Z AUTO 00000KT 10SM CLR 22/17 A3006 190 70 1100 000/00 RMK AO2 $
63870K0J4 0J420160516213510005/16/16 21:35:31  5-MIN K0J4 170235Z AUTO 20004KT 10SM CLR 22/17 A3006 190 75 1100 200/04 RMK AO2 $
63870K0J4 0J420160516214010005/16/16 21:40:31  5-MIN K0J4 170240Z AUTO 21003KT 10SM CLR 21/17 A3006 190 78 1000 210/03 RMK AO2 $
63870K0J4 0J420160516214510005/16/16 21:45:31  5-MIN K0J4 170245Z AUTO 00000KT 10SM CLR 21/17 A3006 190 75 1000 000/00 RMK AO2 $
63870K0J4 0J420160516215010005/16/16 21:50:31  5-MIN K0J4 170250Z AUTO 00000KT 10SM CLR 22/17 A3006 190 73 1000 000/00 RMK AO2 $
63870K0J4 0J420160516215512305/16/16 21:55:31  5-MIN K0J4 170255Z AUTO 00000KT 10SM CLR 22/16 A3006 190 68 1100 000/00 RMK AO2 SLP176 T02220161 56006 $
63870K0J4 0J420160516220010005/16/16 22:00:31  5-MIN K0J4 170300Z AUTO 00000KT 10SM CLR 22/16 A3006 180 68 1100 000/00 RMK AO2 $
63870K0J4 0J420160516220510005/16/16 22:05:31  5-MIN K0J4 170305Z AUTO 00000KT 10SM CLR 22/16 A3006 180 68 1100 000/00 RMK AO2 $
63870K0J4 0J420160516221010005/16/16 22:10:31  5-MIN K0J4 170310Z AUTO 00000KT 10SM CLR 22/16 A3007 180 68 1100 000/00 RMK AO2 $
63870K0J4 0J420160516221510005/16/16 22:15:31  5-MIN K0J4 170315Z AUTO 00000KT 10SM CLR 22/17 A3007 180 70 1100 000/00 RMK AO2 $
63870K0J4 0J420160516222010005/16/16 22:20:31  5-MIN K0J4 170320Z AUTO 00000KT 10SM CLR 22/17 A3007 180 70 1100 000/00 RMK AO2 $
63870K0J4 0J420160516222510005/16/16 22:25:31  5-MIN K0J4 170325Z AUTO 00000KT 10SM CLR 22/17 A3007 180 75 1000 000/00 RMK AO2 $
63870K0J4 0J420160516223010005/16/16 22:30:31  5-MIN K0J4 170330Z AUTO 00000KT 10SM CLR 22/17 A3007 180 75 1000 000/00 RMK AO2 $
63870K0J4 0J420160516223510005/16/16 22:35:31  5-MIN K0J4 170335Z AUTO 00000KT 10SM CLR 22/17 A3007 180 70 1100 000/00 RMK AO2 $
63870K0J4 0J420160516224010005/16/16 22:40:31  5-MIN K0J4 170340Z AUTO 00000KT 10SM CLR 22/17 A3007 180 75 1000 000/00 RMK AO2 $
63870K0J4 0J420160516224510005/16/16 22:45:31  5-MIN K0J4 170345Z AUTO 00000KT 10SM CLR 22/17 A3007 180 73 1000 000/00 RMK AO2 $
63870K0J4 0J420160516225010005/16/16 22:50:31  5-MIN K0J4 170350Z AUTO 00000KT 10SM CLR 22/18 A3007 180 78 1000 000/00 RMK AO2 $
63870K0J4 0J420160516225511705/16/16 22:55:31  5-MIN K0J4 170355Z AUTO 00000KT 10SM CLR 21/18 A3007 180 81 1000 000/00 RMK AO2 SLP178 T02110178 $
63870K0J4 0J420160516230010005/16/16 23:00:31  5-MIN K0J4 170400Z AUTO 00000KT 10SM CLR 21/17 A3007 180 75 1000 000/00 RMK AO2 $
63870K0J4 0J420160516230510005/16/16 23:05:31  5-MIN K0J4 170405Z AUTO 00000KT 10SM CLR 21/17 A3006 180 78 1000 000/00 RMK AO2 $
63870K0J4 0J420160516231009905/16/16 23:10:31  5-MIN K0J4 170410Z AUTO 00000KT 10SM CLR 21/17 A3006 190 81 900 000/00 RMK AO2 $
63870K0J4 0J420160516231510005/16/16 23:15:31  5-MIN K0J4 170415Z AUTO 00000KT 10SM CLR 21/17 A3006 190 75 1000 000/00 RMK AO2 $
63870K0J4 0J420160516232010005/16/16 23:20:31  5-MIN K0J4 170420Z AUTO 00000KT 10SM CLR 21/17 A3006 190 75 1000 000/00 RMK AO2 $
63870K0J4 0J420160516232510005/16/16 23:25:31  5-MIN K0J4 170425Z AUTO 00000KT 10SM CLR 21/17 A3006 190 75 1000 000/00 RMK AO2 $
63870K0J4 0J420160516233010005/16/16 23:30:31  5-MIN K0J4 170430Z AUTO 00000KT 10SM CLR 21/17 A3006 190 75 1000 000/00 RMK AO2 $
63870K0J4 0J420160516233510005/16/16 23:35:31  5-MIN K0J4 170435Z AUTO 00000KT 10SM CLR 21/17 A3006 190 75 1000 000/00 RMK AO2 $
63870K0J4 0J420160516234010005/16/16 23:40:31  5-MIN K0J4 170440Z AUTO 00000KT 10SM CLR 21/17 A3006 190 75 1000 000/00 RMK AO2 $
63870K0J4 0J420160516234510005/16/16 23:45:31  5-MIN K0J4 170445Z AUTO 00000KT 10SM CLR 21/17 A3006 190 78 1000 000/00 RMK AO2 $
63870K0J4 0J420160516235010005/16/16 23:50:31  5-MIN K0J4 170450Z AUTO 00000KT 10SM CLR 21/17 A3006 190 78 1000 000/00 RMK AO2 $
63870K0J4 0J420160516235512605/16/16 23:55:31  5-MIN K0J4 170455Z AUTO 00000KT 10SM CLR 21/17 A3006 190 81 900 000/00 RMK AO2 SLP175 T02060172 402940150 $
63870K0J4 0J420160517000009905/17/16 00:00:31  5-MIN K0J4 170500Z AUTO 00000KT 10SM CLR 21/17 A3006 190 78 900 000/00 RMK AO2 $
63870K0J4 0J420160517000509905/17/16 00:05:31  5-MIN K0J4 170505Z AUTO 00000KT 10SM CLR 21/17 A3006 180 78 900 000/00 RMK AO2 $
63870K0J4 0J420160517001009905/17/16 00:10:31  5-MIN K0J4 170510Z AUTO 00000KT 10SM CLR 21/17 A3006 180 81 900 000/00 RMK AO2 $
63870K0J4 0J420160517001509905/17/16 00:15:31  5-MIN K0J4 170515Z AUTO 00000KT 10SM CLR 20/17 A3007 180 84 900 000/00 RMK AO2 $
63870K0J4 0J420160517002009905/17/16 00:20:31  5-MIN K0J4 170520Z AUTO 00000KT 10SM CLR 20/17 A3006 180 84 900 000/00 RMK AO2 $
63870K0J4 0J420160517002509905/17/16 00:25:31  5-MIN K0J4 170525Z AUTO 00000KT 10SM CLR 20/17 A3006 190 84 900 000/00 RMK AO2 $
63870K0J4 0J420160517003009905/17/16 00:30:31  5-MIN K0J4 170530Z AUTO 00000KT 10SM CLR 21/17 A3006 190 81 900 000/00 RMK AO2 $
63870K0J4 0J420160517003509905/17/16 00:35:31  5-MIN K0J4 170535Z AUTO 00000KT 10SM CLR 20/17 A3006 190 81 900 000/00 RMK AO2 $
63870K0J4 0J420160517004009905/17/16 00:40:31  5-MIN K0J4 170540Z AUTO 00000KT 10SM CLR 20/17 A3006 190 81 900 000/00 RMK AO2 $
63870K0J4 0J420160517004509905/17/16 00:45:31  5-MIN K0J4 170545Z AUTO 00000KT 10SM CLR 21/17 A3006 190 81 900 000/00 RMK AO2 $
63870K0J4 0J420160517005009905/17/16 00:50:31  5-MIN K0J4 170550Z AUTO 00000KT 10SM CLR 21/16 A3006 180 75 900 000/00 RMK AO2 $
63870K0J4 0J420160517005513705/17/16 00:55:31  5-MIN K0J4 170555Z AUTO 00000KT 10SM FEW011 21/17 A3006 180 78 900 000/00 RMK AO2 SLP176 T02060167 10256 20200 53007 $
63870K0J4 0J420160517010010205/17/16 01:00:31  5-MIN K0J4 170600Z AUTO 00000KT 10SM SCT011 20/17 A3006 180 81 900 000/00 RMK AO2 $
63870K0J4 0J420160517010510205/17/16 01:05:31  5-MIN K0J4 170605Z AUTO 00000KT 10SM BKN011 21/17 A3006 190 78 900 000/00 RMK AO2 $
63870K0J4 0J420160517011010205/17/16 01:10:31  5-MIN K0J4 170610Z AUTO 00000KT 10SM BKN011 21/17 A3006 190 81 900 000/00 RMK AO2 $
63870K0J4 0J420160517011510205/17/16 01:15:31  5-MIN K0J4 170615Z AUTO 00000KT 10SM BKN011 21/17 A3006 190 81 900 000/00 RMK AO2 $
63870K0J4 0J420160517012010205/17/16 01:20:31  5-MIN K0J4 170620Z AUTO 00000KT 10SM BKN011 21/17 A3006 190 81 900 000/00 RMK AO2 $
63870K0J4 0J420160517012510205/17/16 01:25:31  5-MIN K0J4 170625Z AUTO 00000KT 10SM BKN011 21/17 A3006 190 81 900 000/00 RMK AO2 $
63870K0J4 0J420160517013010205/17/16 01:30:31  5-MIN K0J4 170630Z AUTO 00000KT 10SM BKN013 21/17 A3006 190 81 900 000/00 RMK AO2 $
63870K0J4 0J420160517013510205/17/16 01:35:31  5-MIN K0J4 170635Z AUTO 00000KT 10SM BKN013 21/17 A3005 190 81 900 000/00 RMK AO2 $
63870K0J4 0J420160517014010205/17/16 01:40:31  5-MIN K0J4 170640Z AUTO 00000KT 10SM BKN013 21/17 A3005 200 81 900 000/00 RMK AO2 $
63870K0J4 0J420160517014510205/17/16 01:45:31  5-MIN K0J4 170645Z AUTO 00000KT 10SM SCT013 21/18 A3005 200 84 900 000/00 RMK AO2 $
63870K0J4 0J420160517015010205/17/16 01:50:31  5-MIN K0J4 170650Z AUTO 00000KT 10SM SCT013 21/18 A3005 200 84 900 000/00 RMK AO2 $
63870K0J4 0J420160517015511905/17/16 01:55:31  5-MIN K0J4 170655Z AUTO 11003KT 10SM FEW013 21/18 A3004 210 84 900 110/03 RMK AO2 SLP168 T02060178 $
63870K0J4 0J420160517020010205/17/16 02:00:31  5-MIN K0J4 170700Z AUTO 00000KT 10SM FEW013 21/18 A3004 200 84 900 000/00 RMK AO2 $
63870K0J4 0J420160517020509905/17/16 02:05:31  5-MIN K0J4 170705Z AUTO 18003KT 10SM CLR 21/18 A3005 200 84 900 180/03 RMK AO2 $
63870K0J4 0J420160517021009905/17/16 02:10:31  5-MIN K0J4 170710Z AUTO 16003KT 10SM CLR 21/18 A3005 200 84 900 160/03 RMK AO2 $
63870K0J4 0J420160517021509905/17/16 02:15:31  5-MIN K0J4 170715Z AUTO 00000KT 10SM CLR 21/18 A3005 200 84 900 000/00 RMK AO2 $
63870K0J4 0J420160517022010205/17/16 02:20:31  5-MIN K0J4 170720Z AUTO 00000KT 10SM FEW013 21/18 A3005 200 84 900 000/00 RMK AO2 $
63870K0J4 0J420160517022510205/17/16 02:25:31  5-MIN K0J4 170725Z AUTO 00000KT 10SM FEW013 21/18 A3005 190 84 900 000/00 RMK AO2 $
63870K0J4 0J420160517023010205/17/16 02:30:31  5-MIN K0J4 170730Z AUTO 18003KT 10SM FEW013 21/18 A3006 190 84 900 180/03 RMK AO2 $
63870K0J4 0J420160517023510205/17/16 02:35:31  5-MIN K0J4 170735Z AUTO 18003KT 10SM SCT013 21/18 A3006 190 84 900 180/03 RMK AO2 $
63870K0J4 0J420160517024010905/17/16 02:40:31  5-MIN K0J4 170740Z AUTO 00000KT 10SM SCT013 BKN019 21/18 A3005 200 87 900 000/00 RMK AO2 $
63870K0J4 0J420160517024510905/17/16 02:45:31  5-MIN K0J4 170745Z AUTO 10003KT 10SM SCT013 SCT019 21/18 A3004 200 87 900 100/03 RMK AO2 $
63870K0J4 0J420160517025010905/17/16 02:50:31  5-MIN K0J4 170750Z AUTO 13003KT 10SM FEW013 SCT019 21/18 A3004 200 87 900 130/03 RMK AO2 $
63870K0J4 0J420160517025512605/17/16 02:55:31  5-MIN K0J4 170755Z AUTO 14003KT 10SM FEW013 SCT019 21/18 A3004 200 87 900 140/03 RMK AO2 SLP169 T02060183 $
63870K0J4 0J420160517030010905/17/16 03:00:31  5-MIN K0J4 170800Z AUTO 00000KT 10SM FEW008 SCT014 21/18 A3004 210 87 900 000/00 RMK AO2 $
63870K0J4 0J420160517030510205/17/16 03:05:31  5-MIN K0J4 170805Z AUTO 15003KT 10SM FEW008 21/19 A3004 200 90 900 150/03 RMK AO2 $
63870K0J4 0J420160517031009905/17/16 03:10:31  5-MIN K0J4 170810Z AUTO 15003KT 10SM CLR 21/19 A3004 210 90 900 150/03 RMK AO2 $
63870K0J4 0J420160517031509905/17/16 03:15:31  5-MIN K0J4 170815Z AUTO 00000KT 10SM CLR 21/19 A3004 210 90 900 000/00 RMK AO2 $
63870K0J4 0J420160517032009905/17/16 03:20:31  5-MIN K0J4 170820Z AUTO 00000KT 10SM CLR 21/19 A3004 210 90 900 000/00 RMK AO2 $
63870K0J4 0J420160517032509905/17/16 03:25:31  5-MIN K0J4 170825Z AUTO 00000KT 10SM CLR 21/19 A3004 210 90 900 000/00 RMK AO2 $
63870K0J4 0J420160517033010005/17/16 03:30:31  5-MIN K0J4 170830Z AUTO 00000KT 10SM CLR 21/19 A3003 210 90 1000 000/00 RMK AO2 $
63870K0J4 0J420160517033510005/17/16 03:35:31  5-MIN K0J4 170835Z AUTO 00000KT 10SM CLR 21/19 A3003 210 90 1000 000/00 RMK AO2 $
63870K0J4 0J420160517034009805/17/16 03:40:31  5-MIN K0J4 170840Z AUTO 17003KT 9SM CLR 21/19 A3004 210 90 900 170/03 RMK AO2 $
63870K0J4 0J420160517034509805/17/16 03:45:31  5-MIN K0J4 170845Z AUTO 16003KT 8SM CLR 21/19 A3004 210 93 900 160/03 RMK AO2 $
63870K0J4 0J420160517035009805/17/16 03:50:31  5-MIN K0J4 170850Z AUTO 16003KT 8SM CLR 21/19 A3004 210 93 900 160/03 RMK AO2 $
63870K0J4 0J420160517035512405/17/16 03:55:31  5-MIN K0J4 170855Z AUTO 00000KT 7SM FEW100 21/19 A3004 210 93 900 000/00 RMK AO2 SLP167 T02060194 52000 $
63870K0J4 0J420160517040010105/17/16 04:00:31  5-MIN K0J4 170900Z AUTO 00000KT 7SM FEW008 21/19 A3004 210 93 900 000/00 RMK AO2 $
63870K0J4 0J420160517040510105/17/16 04:05:31  5-MIN K0J4 170905Z AUTO 00000KT 7SM SCT008 21/19 A3004 210 93 900 000/00 RMK AO2 $
63870K0J4 0J420160517041010805/17/16 04:10:31  5-MIN K0J4 170910Z AUTO 00000KT 7SM FEW008 SCT095 21/19 A3004 210 93 900 000/00 RMK AO2 $
63870K0J4 0J420160517041510805/17/16 04:15:31  5-MIN K0J4 170915Z AUTO 00000KT 7SM FEW008 BKN095 21/19 A3004 210 93 900 000/00 RMK AO2 $
63870K0J4 0J420160517042011805/17/16 04:20:31  5-MIN K0J4 170920Z AUTO 00000KT 6SM BR FEW008 SCT100 BKN120 21/19 A3003 210 93 900 000/00 RMK AO2 $
63870K0J4 0J420160517042511105/17/16 04:25:31  5-MIN K0J4 170925Z AUTO 00000KT 6SM BR FEW008 BKN100 21/19 A3003 210 93 900 000/00 RMK AO2 $
63870K0J4 0J420160517043011205/17/16 04:30:31  5-MIN K0J4 170930Z AUTO 00000KT 6SM BR FEW006 BKN100 21/19 A3003 210 93 1000 000/00 RMK AO2 $
63870K0J4 0J420160517043511205/17/16 04:35:31  5-MIN K0J4 170935Z AUTO VRB03KT 6SM BR SCT095 BKN110 21/19 A3003 220 93 1000 VRB/03 RMK AO2 $
63870K0J4 0J420160517044011205/17/16 04:40:31  5-MIN K0J4 170940Z AUTO 00000KT 6SM BR FEW095 BKN110 21/19 A3003 220 93 1000 000/00 RMK AO2 $
63870K0J4 0J420160517044510505/17/16 04:45:31  5-MIN K0J4 170945Z AUTO 14003KT 6SM BR BKN110 21/19 A3003 220 93 1000 140/03 RMK AO2 $
63870K0J4 0J420160517045010505/17/16 04:50:31  5-MIN K0J4 170950Z AUTO 00000KT 6SM BR SCT110 21/20 A3003 220 97 1000 000/00 RMK AO2 $
63870K0J4 0J420160517045512205/17/16 04:55:31  5-MIN K0J4 170955Z AUTO 00000KT 6SM BR SCT110 21/20 A3003 220 97 1000 000/00 RMK AO2 SLP164 T02060200 $
63870K0J4 0J420160517050010505/17/16 05:00:31  5-MIN K0J4 171000Z AUTO 00000KT 5SM BR FEW110 21/20 A3003 220 97 1000 000/00 RMK AO2 $
63870K0J4 0J420160517050510505/17/16 05:05:31  5-MIN K0J4 171005Z AUTO 00000KT 6SM BR FEW110 21/20 A3003 210 97 1000 000/00 RMK AO2 $
63870K0J4 0J420160517051010205/17/16 05:10:31  5-MIN K0J4 171010Z AUTO 00000KT 6SM BR CLR 21/20 A3003 210 97 1000 000/00 RMK AO2 $
63870K0J4 0J420160517051510205/17/16 05:15:31  5-MIN K0J4 171015Z AUTO 00000KT 6SM BR CLR 21/20 A3003 210 97 1000 000/00 RMK AO2 $
63870K0J4 0J420160517052010205/17/16 05:20:31  5-MIN K0J4 171020Z AUTO 00000KT 6SM BR CLR 21/20 A3003 220 93 1000 000/00 RMK AO2 $
63870K0J4 0J420160517052510205/17/16 05:25:31  5-MIN K0J4 171025Z AUTO 00000KT 5SM BR CLR 21/20 A3003 220 97 1000 000/00 RMK AO2 $
63870K0J4 0J420160517053010205/17/16 05:30:31  5-MIN K0J4 171030Z AUTO 00000KT 5SM BR CLR 21/19 A3002 220 93 1000 000/00 RMK AO2 $
63870K0J4 0J420160517053510205/17/16 05:35:31  5-MIN K0J4 171035Z AUTO 00000KT 5SM BR CLR 21/19 A3003 220 93 1000 000/00 RMK AO2 $
63870K0J4 0J420160517054010505/17/16 05:40:31  5-MIN K0J4 171040Z AUTO 11003KT 5SM BR FEW120 21/19 A3003 220 93 1000 110/03 RMK AO2 $
63870K0J4 0J420160517054511205/17/16 05:45:31  5-MIN K0J4 171045Z AUTO 00000KT 4SM BR FEW005 SCT120 21/20 A3003 220 97 1000 000/00 RMK AO2 $
63870K0J4 0J420160517055011205/17/16 05:50:31  5-MIN K0J4 171050Z AUTO 00000KT 4SM BR FEW005 BKN120 21/20 A3003 220 97 1000 000/00 RMK AO2 $
63870K0J4 0J420160517055512905/17/16 05:55:31  5-MIN K0J4 171055Z AUTO 14003KT 4SM BR FEW005 BKN120 21/20 A3003 220 97 1000 140/03 RMK AO2 SLP163 T02060200 $
63870K0J4 0J420160517060011905/17/16 06:00:31  5-MIN K0J4 171100Z AUTO 00000KT 4SM BR SCT005 SCT095 BKN120 21/20 A3003 220 97 1000 000/00 RMK AO2 $
63870K0J4 0J420160517060511805/17/16 06:05:31  5-MIN K0J4 171105Z AUTO 00000KT 4SM BR BKN003 BKN100 BKN120 21/20 A3004 210 97 900 000/00 RMK AO2 $
63870K0J4 0J420160517061011105/17/16 06:10:31  5-MIN K0J4 171110Z AUTO 00000KT 4SM BR BKN003 OVC120 21/20 A3004 210 97 900 000/00 RMK AO2 $
63870K0J4 0J420160517061511105/17/16 06:15:31  5-MIN K0J4 171115Z AUTO 00000KT 3SM BR BKN003 OVC120 21/20 A3004 210 97 900 000/00 RMK AO2 $
63870K0J4 0J420160517062011505/17/16 06:20:31  5-MIN K0J4 171120Z AUTO 00000KT 2 1/2SM BR SCT003 OVC120 21/20 A3004 210 97 900 000/00 RMK AO2 $
63870K0J4 0J420160517062511605/17/16 06:25:31  5-MIN K0J4 171125Z AUTO 00000KT 2 1/2SM BR SCT003 OVC120 21/20 A3004 210 93 1000 000/00 RMK AO2 $
63870K0J4 0J420160517063011605/17/16 06:30:31  5-MIN K0J4 171130Z AUTO 00000KT 2 1/2SM BR SCT003 OVC120 21/20 A3004 200 93 1000 000/00 RMK AO2 $
63870K0J4 0J420160517063511505/17/16 06:35:31  5-MIN K0J4 171135Z AUTO 00000KT 2 1/2SM BR SCT003 OVC120 21/20 A3004 200 97 900 000/00 RMK AO2 $
63870K0J4 0J420160517064011605/17/16 06:40:31  5-MIN K0J4 171140Z AUTO 00000KT 2 1/2SM BR SCT003 OVC120 21/20 A3004 200 93 1000 000/00 RMK AO2 $
63870K0J4 0J420160517064511605/17/16 06:45:31  5-MIN K0J4 171145Z AUTO 00000KT 2 1/2SM BR BKN003 OVC120 21/20 A3004 200 93 1000 000/00 RMK AO2 $
63870K0J4 0J420160517065011605/17/16 06:50:31  5-MIN K0J4 171150Z AUTO 00000KT 2 1/2SM BR BKN003 OVC110 21/20 A3004 200 93 1000 000/00 RMK AO2 $
63870K0J4 0J420160517065515105/17/16 06:55:31  5-MIN K0J4 171155Z AUTO 00000KT 2 1/2SM BR BKN003 OVC110 21/20 A3004 200 93 1000 000/00 RMK AO2 SLP170 T02110200 10211 20200 56008 $
63870K0J4 0J420160517070011205/17/16 07:00:31  5-MIN K0J4 171200Z AUTO 00000KT 3SM BR BKN003 OVC100 21/20 A3005 200 93 1000 000/00 RMK AO2 $
63870K0J4 0J420160517070513205/17/16 07:05:31  5-MIN K0J4 171205Z AUTO 00000KT 2 1/2SM -RA BR BKN003 OVC100 21/21 A3004 200 97 1000 000/00 RMK AO2 RAB04 P0000 $
63870K0J4 0J420160517071014005/17/16 07:10:31  5-MIN K0J4 171210Z AUTO 00000KT 3SM -RA BR BKN003 OVC100 21/21 A3004 200 97 1000 000/00 RMK AO2 RAB04 CIG 003V007 P0000 $
63870K0J4 0J420160517071514005/17/16 07:15:31  5-MIN K0J4 171215Z AUTO 00000KT 3SM -RA BR BKN003 OVC100 21/21 A3004 200 97 1000 000/00 RMK AO2 RAB04 CIG 003V007 P0000 $
63870K0J4 0J420160517072014005/17/16 07:20:31  5-MIN K0J4 171220Z AUTO 00000KT 3SM -RA BR BKN005 OVC090 21/21 A3004 200 97 1000 000/00 RMK AO2 RAB04 CIG 003V007 P0000 $
63870K0J4 0J420160517072514005/17/16 07:25:31  5-MIN K0J4 171225Z AUTO 00000KT 3SM -RA BR BKN005 OVC090 22/21 A3004 200 93 1100 000/00 RMK AO2 RAB04 CIG 003V007 P0000 $
63870K0J4 0J420160517073014005/17/16 07:30:31  5-MIN K0J4 171230Z AUTO 00000KT 3SM -RA BR BKN005 OVC090 22/21 A3004 200 93 1100 000/00 RMK AO2 RAB04 CIG 003V009 P0000 $
63870K0J4 0J420160517073513305/17/16 07:35:31  5-MIN K0J4 171235Z AUTO 15003KT 3SM -RA BR OVC005 22/21 A3005 200 93 1100 150/03 RMK AO2 RAB04 CIG 003V009 P0000 $
63870K0J4 0J420160517074014005/17/16 07:40:31  5-MIN K0J4 171240Z AUTO 00000KT 3SM -RA BR BKN005 OVC009 22/21 A3004 200 93 1100 000/00 RMK AO2 RAB04 CIG 003V007 P0000 $
63870K0J4 0J420160517074514005/17/16 07:45:31  5-MIN K0J4 171245Z AUTO 16003KT 3SM -RA BR BKN005 OVC009 22/21 A3004 200 93 1100 160/03 RMK AO2 RAB04 CIG 003V007 P0000 $
63870K0J4 0J420160517075013305/17/16 07:50:31  5-MIN K0J4 171250Z AUTO VRB03KT 3SM -RA BR OVC005 22/21 A3004 200 93 1100 VRB/03 RMK AO2 RAB04 CIG 003V007 P0000 $
63870K0J4 0J420160517075513805/17/16 07:55:31  5-MIN K0J4 171255Z AUTO 00000KT 3SM -RA BR OVC005 22/21 A3004 210 93 1100 000/00 RMK AO2 RAB04 SLP168 P0000 T02170206 $
63870K0J4 0J420160517080011505/17/16 08:00:31  5-MIN K0J4 171300Z AUTO 00000KT 4SM -RA BR OVC005 22/21 A3003 210 97 1100 000/00 RMK AO2 P0000 $
63870K0J4 0J420160517080511705/17/16 08:05:31  5-MIN K0J4 171305Z AUTO 00000KT 4SM BR OVC005 22/21 A3003 220 93 1100 000/00 RMK AO2 RAE04 P0000 $
63870K0J4 0J420160517081011705/17/16 08:10:31  5-MIN K0J4 171310Z AUTO 00000KT 4SM BR OVC005 22/21 A3003 210 93 1100 000/00 RMK AO2 RAE04 P0000 $
63870K0J4 0J420160517081513605/17/16 08:15:31  5-MIN K0J4 171315Z AUTO 00000KT 4SM BR BKN005 OVC085 22/21 A3003 210 93 1100 000/00 RMK AO2 RAE04 CIG 002V007 P0000 $
63870K0J4 0J420160517082013605/17/16 08:20:31  5-MIN K0J4 171320Z AUTO 00000KT 4SM BR BKN005 OVC090 22/21 A3003 210 93 1100 000/00 RMK AO2 RAE04 CIG 002V007 P0000 $
63870K0J4 0J420160517082512405/17/16 08:25:31  5-MIN K0J4 171325Z AUTO 00000KT 4SM BR BKN005 OVC080 22/21 A3003 210 93 1100 000/00 RMK AO2 RAE04 P0000 $
63870K0J4 0J420160517083013605/17/16 08:30:31  5-MIN K0J4 171330Z AUTO 00000KT 5SM BR BKN005 OVC080 22/21 A3004 210 93 1100 000/00 RMK AO2 RAE04 CIG 002V007 P0000 $
63870K0J4 0J420160517083513605/17/16 08:35:31  5-MIN K0J4 171335Z AUTO 00000KT 5SM BR BKN005 OVC085 22/21 A3004 210 93 1100 000/00 RMK AO2 RAE04 CIG 002V007 P0000 $
63870K0J4 0J420160517084013605/17/16 08:40:31  5-MIN K0J4 171340Z AUTO 00000KT 5SM BR BKN005 OVC090 23/21 A3004 210 90 1200 000/00 RMK AO2 RAE04 CIG 002V007 P0000 $
63870K0J4 0J420160517084513105/17/16 08:45:31  5-MIN K0J4 171345Z AUTO 00000KT 6SM BR SCT005 BKN060 OVC090 23/21 A3004 210 90 1200 000/00 RMK AO2 RAE04 P0000 $
63870K0J4 0J420160517085012805/17/16 08:50:31  5-MIN K0J4 171350Z AUTO 17003KT 7SM FEW005 BKN060 OVC085 23/21 A3004 210 90 1200 170/03 RMK AO2 RAE04 P0000 $
63870K0J4 0J420160517085514505/17/16 08:55:31  5-MIN K0J4 171355Z AUTO 16003KT 8SM FEW005 BKN060 OVC090 23/21 A3004 210 87 1200 160/03 RMK AO2 RAE04 SLP168 P0000 T02280206 $
63870K0J4 0J420160517090011605/17/16 09:00:31  5-MIN K0J4 171400Z AUTO 15003KT 9SM FEW005 BKN060 OVC090 23/21 A3004 210 87 1200 150/03 RMK AO2 $
63870K0J4 0J420160517090510905/17/16 09:05:31  5-MIN K0J4 171405Z AUTO 14004KT 9SM SCT060 OVC090 23/21 A3004 200 87 1200 140/04 RMK AO2 $
63870K0J4 0J420160517091011005/17/16 09:10:31  5-MIN K0J4 171410Z AUTO 16003KT 10SM BKN060 OVC085 23/21 A3004 200 87 1200 160/03 RMK AO2 $
63870K0J4 0J420160517091511005/17/16 09:15:31  5-MIN K0J4 171415Z AUTO 15004KT 10SM BKN065 OVC085 23/21 A3004 200 84 1300 150/04 RMK AO2 $
63870K0J4 0J420160517092011705/17/16 09:20:31  5-MIN K0J4 171420Z AUTO 16003KT 10SM FEW060 BKN070 OVC110 23/21 A3004 200 84 1300 160/03 RMK AO2 $
63870K0J4 0J420160517092511705/17/16 09:25:31  5-MIN K0J4 171425Z AUTO 15003KT 10SM FEW060 BKN075 BKN090 23/21 A3004 200 84 1300 150/03 RMK AO2 $
63870K0J4 0J420160517093011705/17/16 09:30:31  5-MIN K0J4 171430Z AUTO 14004KT 10SM SCT065 BKN080 BKN110 24/21 A3004 210 81 1300 140/04 RMK AO2 $
63870K0J4 0J420160517093511705/17/16 09:35:31  5-MIN K0J4 171435Z AUTO 14003KT 10SM FEW055 SCT070 OVC100 23/20 A3004 210 81 1300 140/03 RMK AO2 $
63870K0J4 0J420160517094011005/17/16 09:40:31  5-MIN K0J4 171440Z AUTO 15004KT 10SM FEW070 OVC100 24/20 A3004 210 78 1300 150/04 RMK AO2 $
63870K0J4 0J420160517094511005/17/16 09:45:31  5-MIN K0J4 171445Z AUTO VRB04KT 10SM FEW075 BKN100 24/20 A3004 210 78 1300 VRB/04 RMK AO2 $
63870K0J4 0J420160517095011005/17/16 09:50:31  5-MIN K0J4 171450Z AUTO 11003KT 10SM FEW075 BKN100 24/20 A3004 210 78 1300 110/03 RMK AO2 $
63870K0J4 0J420160517095513705/17/16 09:55:31  5-MIN K0J4 171455Z AUTO 13004KT 10SM FEW075 OVC100 24/20 A3004 200 78 1300 130/04 RMK AO2 SLP169 60000 T02390200 53002
63870K0J4 0J420160517100010805/17/16 10:00:31  5-MIN K0J4 171500Z AUTO 14004KT 10SM FEW075 OVC095 24/19 A3004 200 76 1300 140/04 RMK AO2
63870K0J4 0J420160517100510805/17/16 10:05:31  5-MIN K0J4 171505Z AUTO VRB03KT 10SM FEW075 BKN100 25/19 A3004 200 71 1500 VRB/03 RMK AO2
63870K0J4 0J420160517101010805/17/16 10:10:31  5-MIN K0J4 171510Z AUTO 15005KT 10SM SCT075 BKN100 24/19 A3004 200 76 1300 150/05 RMK AO2
63870K0J4 0J420160517101510805/17/16 10:15:31  5-MIN K0J4 171515Z AUTO 17004KT 10SM BKN080 OVC100 24/19 A3005 200 73 1300 170/04 RMK AO2
63870K0J4 0J420160517102010805/17/16 10:20:31  5-MIN K0J4 171520Z AUTO 16004KT 10SM SCT080 OVC100 24/19 A3005 200 73 1400 160/04 RMK AO2
63870K0J4 0J420160517102510805/17/16 10:25:31  5-MIN K0J4 171525Z AUTO 16005KT 10SM SCT080 BKN100 24/19 A3005 190 73 1400 160/05 RMK AO2
63870K0J4 0J420160517103011505/17/16 10:30:31  5-MIN K0J4 171530Z AUTO 18005KT 10SM FEW055 BKN085 OVC100 24/19 A3006 190 73 1300 180/05 RMK AO2
63870K0J4 0J420160517103511405/17/16 10:35:31  5-MIN K0J4 171535Z AUTO 17004KT 9SM FEW055 SCT070 OVC090 24/19 A3006 190 76 1300 170/04 RMK AO2
63870K0J4 0J420160517104011405/17/16 10:40:31  5-MIN K0J4 171540Z AUTO 17004KT 9SM FEW055 SCT070 OVC085 24/19 A3006 190 76 1300 170/04 RMK AO2
63870K0J4 0J420160517104511405/17/16 10:45:31  5-MIN K0J4 171545Z AUTO 17005KT 9SM SCT055 BKN070 OVC090 24/19 A3006 190 73 1300 170/05 RMK AO2
63870K0J4 0J420160517105011405/17/16 10:50:31  5-MIN K0J4 171550Z AUTO 16003KT 9SM SCT055 BKN065 OVC090 24/19 A3006 190 73 1400 160/03 RMK AO2
63870K0J4 0J420160517105513205/17/16 10:55:31  5-MIN K0J4 171555Z AUTO 16003KT 10SM SCT055 BKN070 OVC090 24/19 A3005 190 73 1400 160/03 RMK AO2 SLP174 T02440194
63870K0J4 0J420160517110010805/17/16 11:00:31  5-MIN K0J4 171600Z AUTO 17004KT 10SM SCT055 OVC090 25/19 A3005 190 71 1400 170/04 RMK AO2
63870K0J4 0J420160517110511505/17/16 11:05:31  5-MIN K0J4 171605Z AUTO 16003KT 10SM FEW055 SCT065 BKN090 26/19 A3005 200 68 1500 160/03 RMK AO2
63870K0J4 0J420160517111011505/17/16 11:10:31  5-MIN K0J4 171610Z AUTO VRB04KT 10SM FEW055 BKN090 BKN110 26/19 A3005 200 66 1600 VRB/04 RMK AO2
63870K0J4 0J420160517111510105/17/16 11:15:31  5-MIN K0J4 171615Z AUTO 15005KT 10SM BKN095 26/19 A3005 200 66 1600 150/05 RMK AO2
63870K0J4 0J420160517112010105/17/16 11:20:31  5-MIN K0J4 171620Z AUTO VRB03KT 10SM BKN090 26/19 A3005 200 68 1500 VRB/03 RMK AO2
63870K0J4 0J420160517112510805/17/16 11:25:31  5-MIN K0J4 171625Z AUTO 15007KT 10SM FEW075 BKN090 26/19 A3005 200 68 1500 150/07 RMK AO2
63870K0J4 0J420160517113010805/17/16 11:30:31  5-MIN K0J4 171630Z AUTO VRB05KT 10SM SCT075 BKN100 26/19 A3004 200 68 1500 VRB/05 RMK AO2
63870K0J4 0J420160517113510805/17/16 11:35:31  5-MIN K0J4 171635Z AUTO 15004KT 10SM BKN075 BKN090 26/19 A3004 200 66 1600 150/04 RMK AO2
63870K0J4 0J420160517114010805/17/16 11:40:31  5-MIN K0J4 171640Z AUTO VRB04KT 10SM SCT075 BKN095 27/19 A3004 210 64 1600 VRB/04 RMK AO2
63870K0J4 0J420160517114510805/17/16 11:45:31  5-MIN K0J4 171645Z AUTO 17005KT 10SM BKN075 BKN100 27/19 A3004 210 62 1600 170/05 RMK AO2
63870K0J4 0J420160517115010805/17/16 11:50:31  5-MIN K0J4 171650Z AUTO 18004KT 10SM BKN075 OVC100 27/19 A3004 210 62 1600 180/04 RMK AO2
63870K0J4 0J420160517115516305/17/16 11:55:31  5-MIN K0J4 171655Z AUTO 19006KT 10SM FEW055 B1  5-MIN K0J4 171845Z AUTO VRB03KT 10SM FEW026 BKN070 BKN090 27/19 A2997 270 62 1800 VRB/03 RMK AO2
63870K0J4 0J420160517135011505/17/16 13:50:31  5-MIN K0J4 171850Z AUTO 16003KT 10SM FEW026 BKN075 BKN090 27/19 A2997 270 62 1800 160/03 RMK AO2
63870K0J4 0J420160517135512505/17/16 13:55:31  5-MIN K0J4 171855Z AUTO 19004KT 10SM SCT075 BKN090 27/19 A2997 270 62 1800 190/04 RMK AO2 SLP142 T02720194
63870K0J4 0J420160517140010805/17/16 14:00:31  5-MIN K0J4 171900Z AUTO VRB05KT 10SM SCT075 BKN095 28/19 A2996 280 58 1800 VRB/05 RMK AO2
63870K0J4 0J420160517140511505/17/16 14:05:31  5-MIN K0J4 171905Z AUTO VRB03KT 10SM FEW039 SCT075 BKN095 27/19 A2996 280 60 1800 VRB/03 RMK AO2
63870K0J4 0J420160517141011505/17/16 14:10:31  5-MIN K0J4 171910Z AUTO 22005KT 10SM SCT037 SCT075 BKN095 28/19 A2996 280 60 1900 220/05 RMK AO2
63870K0J4 0J420160517141512905/17/16 14:15:31  5-MIN K0J4 171915Z AUTO 00000KT 10SM FEW034 SCT042 BKN 300 93 1300 320/03 RMK AO2 TSB43 SLP133 P0004 T02280217
63870K0J4 0J420160519193010005/19/16 19:30:31  5-MIN K0J4 200030Z AUTO 00000KT 10SM CLR 23/21 A2998 260 84 1300 000/00 RMK AO2 $
63870K0J4 0J420160519193510005/19/16 19:35:31  5-MIN K0J4 200035Z AUTO 00000KT 10SM CLR 23/21 A2998 260 84 1300 000/00 RMK AO2 $
63870K0J4 0J420160519194010005/19/16 19:40:31  5-MIN K0J4 200040Z AUTO 00000KT 10SM CLR 23/21 A2998 260 84 1300 000/00 RMK AO2 $
63870K0J4 0J420160519194510005/19/16 19:45:31  5-MIN K0J4 200045Z AUTO 00000KT 10SM CLR 23/21 A2998 260 87 1300 000/00 RMK AO2 $
63870K0J4 0J420160519195010005/19/16 19:50:31  5-MIN K0J4 200050Z AUTO 00000KT 10SM CLR 23/21 A2998 260 87 1300 000/00 RMK AO2 $
63870K0J4 0J420160519195511705/19/16 19:55:31  5-MIN K0J4 200055Z AUTO 00000KT 10SM CLR 23/20 A2998 260 84 1300 000/00 RMK AO2 SLP149 T02280200 $
63870K0J4 0J420160519200010005/19/16 20:00:31  5-MIN K0J4 200100Z AUTO 00000KT 10SM CLR 23/20 A2998 260 84 1300 000/00 RMK AO2 $
63870K0J4 0J420160519200510005/19/16 20:05:31  5-MIN K0J4 200105Z AUTO 00000KT 10SM CLR 23/20 A2999 260 84 1300 000/00 RMK AO2 $
63870K0J4 0J420160519201010005/19/16 20:10:31  5-MIN K0J4 200110Z AUTO 00000KT 10SM CLR 23/20 A2999 260 84 1300 000/00 RMK AO2 $
63870K0J4 0J420160519201510005/19/16 20:15:31  5-MIN K0J4 200115Z AUTO 00000KT 10SM CLR 23/21 A2999 250 87 1300 000/00 RMK AO2 $
63870K0J4 0J420160519202010005/19/16 20:20:31  5-MIN K0J4 200120Z AUTO 00000KT 10SM CLR 23/21 A2999 250 87 1300 000/00 RMK AO2 $
63870K0J4 0J420160519202510005/19/16 20:25:31  5-MIN K0J4 200125Z AUTO 00000KT 10SM CLR 23/20 A2999 250 84 1300 000/00 RMK AO2 $
63870K0J4 0J420160519203010005/19/16 20:30:31  5-MIN K0J4 200130Z AUTO 00000KT 10SM CLR 23/21 A2999 250 87 1300 000/00 RMK AO2 $
63870K0J4 0J420160519203510005/19/16 20:35:31  5-MIN K0J4 200135Z AUTO 00000KT 10SM CLR 22/21 A2999 250 90 1200 000/00 RMK AO2 $
63870K0J4 0J420160519204010005/19/16 20:40:31  5-MIN K0J4 200140Z AUTO 00000KT 10SM CLR 23/21 A2999 250 87 1300 000/00 RMK AO2 $
63870K0J4 0J420160519204510005/19/16 20:45:31  5-MIN K0J4 200145Z AUTO 00000KT 10SM CLR 23/21 A2999 250 87 1300 000/00 RMK AO2 $
63870K0J4 0J420160519205010005/19/16 20:50:31  5-MIN K0J4 200150Z AUTO 00000KT 10SM CLR 22/20 A2999 250 87 1200 000/00 RMK AO2 $
63870K0J4 0J420160519205511705/19/16 20:55:31  5-MIN K0J4 200155Z AUTO 00000KT 10SM CLR 22/21 A2999 250 90 1200 000/00 RMK AO2 SLP152 T02220206 $
63870K0J4 0J420160519210010005/19/16 21:00:31  5-MIN K0J4 200200Z AUTO 00000KT 10SM CLR 23/21 A2999 250 87 1300 000/00 RMK AO2 $
63870K0J4 0J420160519210510005/19/16 21:05:31  5-MIN K0J4 200205Z AUTO 00000KT 10SM CLR 22/21 A2999 250 90 1200 000/00 RMK AO2 $
63870K0J4 0J420160519211010005/19/16 21:10:31  5-MIN K0J4 200210Z AUTO 00000KT 10SM CLR 22/21 A2999 250 90 1200 000/00 RMK AO2 $
63870K0J4 0J420160519211510005/19/16 21:15:31  5-MIN K0J4 200215Z AUTO 00000KT 10SM CLR 22/21 A2999 250 93 1100 000/00 RMK AO2 $
63870K0J4 0J420160519212010005/19/16 21:20:31  5-MIN K0J4 200220Z AUTO 00000KT 10SM CLR 22/20 A2999 250 90 1100 000/00 RMK AO2 $
63870K0J4 0J420160519212510005/19/16 21:25:31  5-MIN K0J4 200225Z AUTO 20003KT 10SM CLR 21/19 A3000 240 90 1100 200/03 RMK AO2 $
63870K0J4 0J420160519213010005/19/16 21:30:31  5-MIN K0J4 200230Z AUTO 00000KT 10SM CLR 21/20 A3000 240 93 1100 000/00 RMK AO2 $
63870K0J4 0J420160519213510005/19/16 21:35:31  5-MIN K0J4 200235Z AUTO 00000KT 10SM CLR 21/20 A3000 240 93 1000 000/00 RMK AO2 $
63870K0J4 0J420160519214010005/19/16 21:40:31  5-MIN K0J4 200240Z AUTO 00000KT 10SM CLR 21/20 A3001 240 93 1000 000/00 RMK AO2 $
63870K0J4 0J420160519214510005/19/16 21:45:31  5-MIN K0J4 200245Z AUTO 00000KT 10SM CLR 22/20 A3000 240 90 1100 000/00 RMK AO2 $
63870K0J4 0J420160519215010005/19/16 21:50:31  5-MIN K0J4 200250Z AUTO 00000KT 10SM CLR 22/20 A3000 240 90 1100 000/00 RMK AO2 $
63870K0J4 0J420160519215511705/19/16 21:55:31  5-MIN K0J4 200255Z AUTO 00000KT 10SM CLR 22/20 A3000 240 90 1100 000/00 RMK AO2 SLP155 T02170200 $
63870K0J4 0J420160519220010005/19/16 22:00:31  5-MIN K0J4 200300Z AUTO 00000KT 10SM CLR 22/20 A3000 240 90 1100 000/00 RMK AO2 $
63870K0J4 0J420160519220510005/19/16 22:05:31  5-MIN K0J4 200305Z AUTO 00000KT 10SM CLR 22/20 A3000 240 90 1100 000/00 RMK AO2 $
63870K0J4 0J420160519221010005/19/16 22:10:31  5-MIN K0J4 200310Z AUTO 00000KT 10SM CLR 22/20 A3000 250 90 1100 000/00 RMK AO2 $
63870K0J4 0J420160519221510005/19/16 22:15:31  5-MIN K0J4 200315Z AUTO 00000KT 10SM CLR 22/20 A3000 240 90 1100 000/00 RMK AO2 $
63870K0J4 0J420160519222010005/19/16 22:20:31  5-MIN K0J4 200320Z AUTO 00000KT 10SM CLR 21/20 A3000 240 93 1100 000/00 RMK AO2 $
63870K0J4 0J420160519222510005/19/16 22:25:31  5-MIN K0J4 200325Z AUTO 00000KT 10SM CLR 22/20 A3000 250 90 1100 000/00 RMK AO2 $
63870K0J4 0J420160519223010005/19/16 22:30:31  5-MIN K0J4 200330Z AUTO 19004KT 10SM CLR 22/20 A3000 250 90 1100 190/04 RMK AO2 $
63870K0J4 0J420160519223510005/19/16 22:35:31  5-MIN K0J4 200335Z AUTO 20003KT 10SM CLR 22/20 A3000 250 87 1200 200/03 RMK AO2 $
63870K0J4 0J420160519224010005/19/16 22:40:31  5-MIN K0J4 200340Z AUTO 00000KT 10SM CLR 22/20 A3000 250 87 1200 000/00 RMK AO2 $
63870K0J4 0J420160519224510005/19/16 22:45:31  5-MIN K0J4 200345Z AUTO 00000KT 10SM CLR 22/20 A2999 250 90 1100 000/00 RMK AO2 $
63870K0J4 0J420160519225010005/19/16 22:50:31  5-MIN K0J4 200350Z AUTO 00000KT 10SM CLR 22/20 A3000 250 90 1100 000/00 RMK AO2 $
63870K0J4 0J420160519225511705/19/16 22:55:31  5-MIN K0J4 200355Z AUTO 11004KT 10SM CLR 21/20 A3000 240 93 1100 110/04 RMK AO2 SLP155 T02110200 $
63870K0J4 0J420160519230010005/19/16 23:00:31  5-MIN K0J4 200400Z AUTO 13003KT 10SM CLR 21/20 A3000 240 93 1000 130/03 RMK AO2 $
63870K0J4 0J420160519230510305/19/16 23:05:31  5-MIN K0J4 200405Z AUTO 00000KT 10SM FEW031 21/20 A3000 240 93 1000 000/00 RMK AO2 $
63870K0J4 0J420160519231010305/19/16 23:10:31  5-MIN K0J4 200410Z AUTO 00000KT 10SM FEW031 21/20 A3000 240 93 1000 000/00 RMK AO2 $
63870K0J4 0J420160519231510005/19/16 23:15:31  5-MIN K0J4 200415Z AUTO 17003KT 10SM CLR 21/20 A3000 240 93 1100 170/03 RMK AO2 $
63870K0J4 0J420160519232010005/19/16 23:20:31  5-MIN K0J4 200420Z AUTO 16003KT 10SM CLR 21/20 A3000 240 93 1100 160/03 RMK AO2 $
63870K0J4 0J420160519232510005/19/16 23:25:31  5-MIN K0J4 200425Z AUTO 00000KT 10SM CLR 21/20 A3000 240 93 1100 000/00 RMK AO2 $
63870K0J4 0J420160519233010305/19/16 23:30:31  5-MIN K0J4 200430Z AUTO 00000KT 10SM FEW031 21/20 A3000 240 93 1000 000/00 RMK AO2 $
63870K0J4 0J420160519233510005/19/16 23:35:31  5-MIN K0J4 200435Z AUTO 00000KT 10SM CLR 21/20 A3000 240 93 1000 000/00 RMK AO2 $
63870K0J4 0J420160519234010005/19/16 23:40:31  5-MIN K0J4 200440Z AUTO 00000KT 10SM CLR 21/20 A3000 240 93 1000 000/00 RMK AO2 $
63870K0J4 0J420160519234510005/19/16 23:45:31  5-MIN K0J4 200445Z AUTO 00000KT 10SM CLR 21/20 A3001 240 93 1000 000/00 RMK AO2 $
63870K0J4 0J420160519235010005/19/16 23:50:31  5-MIN K0J4 200450Z AUTO 00000KT 10SM CLR 21/20 A3001 240 93 1000 000/00 RMK AO2 $
63870K0J4 0J420160519235512705/19/16 23:55:31  5-MIN K0J4 200455Z AUTO 00000KT 10SM CLR 21/20 A3001 240 93 1000 000/00 RMK AO2 SLP157 T02110200 403060200 $
63870K0J4 0J420160520000010005/20/16 00:00:31  5-MIN K0J4 200500Z AUTO 00000KT 10SM CLR 21/20 A3000 240 93 1000 000/00 RMK AO2 $
63870K0J4 0J420160520000510005/20/16 00:05:31  5-MIN K0J4 200505Z AUTO 00000KT 10SM CLR 21/20 A3000 240 93 1000 000/00 RMK AO2 $
63870K0J4 0J420160520001010005/20/16 00:10:31  5-MIN K0J4 200510Z AUTO 00000KT 10SM CLR 21/20 A3000 240 93 1100 000/00 RMK AO2 $
63870K0J4 0J420160520001510005/20/16 00:15:31  5-MIN K0J4 200515Z AUTO 00000KT 10SM CLR 21/20 A3000 240 93 1100 000/00 RMK AO2 $
63870K0J4 0J420160520002010005/20/16 00:20:31  5-MIN K0J4 200520Z AUTO 00000KT 10SM CLR 21/20 A3000 240 93 1100 000/00 RMK AO2 $
63870K0J4 0J420160520002510005/20/16 00:25:31  5-MIN K0J4 200525Z AUTO 00000KT 10SM CLR 21/20 A3000 240 93 1100 000/00 RMK AO2 $
63870K0J4 0J420160520003010005/20/16 00:30:31  5-MIN K0J4 200530Z AUTO 00000KT 10SM CLR 21/20 A3000 240 93 1100 000/00 RMK AO2 $
63870K0J4 0J420160520003510005/20/16 00:35:31  5-MIN K0J4 200535Z AUTO 00000KT 10SM CLR 21/20 A3000 240 93 1100 000/00 RMK AO2 $
63870K0J4 0J420160520004010005/20/16 00:40:31  5-MIN K0J4 200540Z AUTO 00000KT 10SM CLR 21/20 A3000 240 93 1100 000/00 RMK AO2 $
63870K0J4 0J420160520004510005/20/16 00:45:31  5-MIN K0J4 200545Z AUTO 00000KT 10SM CLR 21/20 A3000 250 93 1100 000/00 RMK AO2 $
63870K0J4 0J420160520005010005/20/16 00:50:31  5-MIN K0J4 200550Z AUTO 00000KT 10SM CLR 21/20 A3000 250 93 1100 000/00 RMK AO2 $
63870K0J4 0J420160520005513505/20/16 00:55:31  5-MIN K0J4 200555Z AUTO 00000KT 10SM CLR 21/20 A3000 250 93 1100 000/00 RMK AO2 SLP153 T02110200 10250 20211 51010 $
63870K0J4 0J420160520010010005/20/16 01:00:31  5-MIN K0J4 200600Z AUTO 00000KT 10SM CLR 21/20 A3000 250 93 1100 000/00 RMK AO2 $
63870K0J4 0J420160520010510005/20/16 01:05:31  5-MIN K0J4 200605Z AUTO 00000KT 10SM CLR 21/20 A2999 250 93 1100 000/00 RMK AO2 $
63870K0J4 0J420160520011010005/20/16 01:10:31  5-MIN K0J4 200610Z AUTO 00000KT 10SM CLR 21/20 A2999 260 93 1100 000/00 RMK AO2 $
63870K0J4 0J420160520011510005/20/16 01:15:31  5-MIN K0J4 200615Z AUTO 00000KT 10SM CLR 21/20 A2998 260 93 1100 000/00 RMK AO2 $
63870K0J4 0J420160520012010005/20/16 01:20:31  5-MIN K0J4 200620Z AUTO 09003KT 10SM CLR 21/20 A2998 260 93 1100 090/03 RMK AO2 $
63870K0J4 0J420160520012510005/20/16 01:25:31  5-MIN K0J4 200625Z AUTO 00000KT 10SM CLR 21/20 A2998 260 93 1100 000/00 RMK AO2 $
63870K0J4 0J420160520013010005/20/16 01:30:31  5-MIN K0J4 200630Z AUTO 00000KT 10SM CLR 21/20 A2997 270 93 1100 000/00 RMK AO2 $
63870K0J4 0J420160520013510005/20/16 01:35:31  5-MIN K0J4 200635Z AUTO 00000KT 10SM CLR 21/20 A2997 270 93 1100 000/00 RMK AO2 $
63870K0J4 0J420160520014010005/20/16 01:40:31  5-MIN K0J4 200640Z AUTO 11003KT 10SM CLR 21/20 A2997 270 93 1100 110/03 RMK AO2 $
63870K0J4 0J420160520014510005/20/16 01:45:31  5-MIN K0J4 200645Z AUTO 00000KT 10SM CLR 21/20 A2997 270 93 1100 000/00 RMK AO2 $
63870K0J4 0J420160520015010005/20/16 01:50:31  5-MIN K0J4 200650Z AUTO 00000KT 10SM CLR 21/20 A2997 270 93 1100 000/00 RMK AO2 $
63870K0J4 0J420160520015511705/20/16 01:55:31  5-MIN K0J4 200655Z AUTO 00000KT 10SM CLR 21/20 A2998 260 93 1100 000/00 RMK AO2 SLP147 T02110200 $
63870K0J4 0J420160520020010005/20/16 02:00:31  5-MIN K0J4 200700Z AUTO 18003KT 10SM CLR 21/20 A2998 260 93 1100 180/03 RMK AO2 $
63870K0J4 0J420160520020510005/20/16 02:05:31  5-MIN K0J4 200705Z AUTO 20004KT 10SM CLR 21/20 A2998 260 93 1100 200/04 RMK AO2 $
63870K0J4 0J420160520021010005/20/16 02:10:31  5-MIN K0J4 200710Z AUTO 18003KT 10SM CLR 21/20 A2998 260 97 1000 180/03 RMK AO2 $
63870K0J4 0J420160520021509905/20/16 02:15:31  5-MIN K0J4 200715Z AUTO 00000KT 9SM CLR 21/20 A2998 260 97 1000 000/00 RMK AO2 $
63870K0J4 0J420160520022010005/20/16 02:20:31  5-MIN K0J4 200720Z AUTO 21003KT 10SM CLR 21/20 A2999 250 97 1000 210/03 RMK AO2 $
63870K0J4 0J420160520022510005/20/16 02:25:31  5-MIN K0J4 200725Z AUTO 00000KT 10SM CLR 21/20 A2999 250 97 1000 000/00 RMK AO2 $
63870K0J4 0J420160520023009905/20/16 02:30:31  5-MIN K0J4 200730Z AUTO 00000KT 9SM CLR 21/20 A2999 250 97 1000 000/00 RMK AO2 $
63870K0J4 0J420160520023509905/20/16 02:35:31  5-MIN K0J4 200735Z AUTO 00000KT 9SM CLR 21/20 A2999 250 97 1000 000/00 RMK AO2 $
63870K0J4 0J420160520024009905/20/16 02:40:31  5-MIN K0J4 200740Z AUTO 00000KT 9SM CLR 21/19 A2998 260 93 1000 000/00 RMK AO2 $
63870K0J4 0J420160520024509905/20/16 02:45:31  5-MIN K0J4 200745Z AUTO 00000KT 9SM CLR 21/19 A2998 260 93 1000 000/00 RMK AO2 $
63870K0J4 0J420160520025010005/20/16 02:50:31  5-MIN K0J4 200750Z AUTO 00000KT 10SM CLR 21/20 A2998 260 93 1100 000/00 RMK AO2 $
63870K0J4 0J420160520025511705/20/16 02:55:31  5-MIN K0J4 200755Z AUTO 00000KT 10SM CLR 21/20 A2998 260 93 1100 000/00 RMK AO2 SLP147 T02110200 $
63870K0J4 0J420160520030010005/20/16 03:00:31  5-MIN K0J4 200800Z AUTO 00000KT 10SM CLR 21/19 A2998 260 93 1000 000/00 RMK AO2 $
63870K0J4 0J420160520030510005/20/16 03:05:31  5-MIN K0J4 200805Z AUTO 00000KT 10SM CLR 21/20 A2998 260 97 1000 000/00 RMK AO2 $
63870K0J4 0J420160520031010005/20/16 03:10:31  5-MIN K0J4 200810Z AUTO 00000KT 10SM CLR 21/20 A2998 260 97 1000 000/00 RMK AO2 $
63870K0J4 0J420160520031509905/20/16 03:15:31  5-MIN K0J4 200815Z AUTO 00000KT 9SM CLR 21/19 A2998 260 93 1000 000/00 RMK AO2 $
63870K0J4 0J420160520032009905/20/16 03:20:31  5-MIN K0J4 200820Z AUTO 00000KT 9SM CLR 21/20 A2997 270 97 1000 000/00 RMK AO2 $
63870K0J4 0J420160520032509905/20/16 03:25:31  5-MIN K0J4 200825Z AUTO 00000KT 9SM CLR 21/20 A2998 260 93 1100 000/00 RMK AO2 $
63870K0J4 0J420160520033010205/20/16 03:30:31  5-MIN K0J4 200830Z AUTO 00000KT 9SM FEW075 21/20 A2998 260 93 1100 000/00 RMK AO2 $
63870K0J4 0J420160520033510205/20/16 03:35:31  5-MIN K0J4 200835Z AUTO 00000KT 9SM FEW075 21/20 A2999 250 93 1100 000/00 RMK AO2 $
63870K0J4 0J420160520034011605/20/16 03:40:31  5-MIN K0J4 200840Z AUTO 00000KT 9SM FEW075 SCT090 21/19 A3000 240 93 1000 000/00 RMK AO2 PRESRR $
63870K0J4 0J420160520034510905/20/16 03:45:31  5-MIN K0J4 200845Z AUTO 17004KT 9SM SCT075 BKN085 21/20 A3000 240 97 1000 170/04 RMK AO2 $
63870K0J4 0J420160520035010205/20/16 03:50:31  5-MIN K0J4 200850Z AUTO 14003KT 9SM BKN080 21/20 A2999 250 93 1100 140/03 RMK AO2 $
63870K0J4 0J420160520035513905/20/16 03:55:31  5-MIN K0J4 200855Z AUTO 00000KT 9SM SCT075 BKN090 BKN110 21/20 A2999 250 93 1100 000/00 RMK AO2 SLP150 T02110200 58001 $
63870K0J4 0J420160520040011605/20/16 04:00:31  5-MIN K0J4 200900Z AUTO 20005KT 8SM FEW004 SCT070 BKN090 21/20 A3000 240 93 1000 200/05 RMK AO2 $
63870K0J4 0J420160520040511605/20/16 04:05:31  5-MIN K0J4 200905Z AUTO 22007KT 8SM SCT004 BKN075 BKN090 21/21 A3002 230 97 1000 220/07 RMK AO2 $
63870K0J4 0J420160520041016405/20/16 04:10:31  5-MIN K0J4 200910Z AUTO 23014G20KT 7SM -TSRA BKN004 BKN070 BKN090 22/21 A3003 220 97 1100 230/14G20 RMK AO2 TSB10RAB09 CIG 002V018 PRESRR P0001 $
63870K0J4 0J420160520041515405/20/16 04:15:31  5-MIN K0J4 200915Z AUTO VRB06G21KT 4SM +TSRA BR SCT004 BKN044 BKN060 21/19 A3004 200 90 900 VRB/06G21 RMK AO2 TSB10RAB09 PRESRR P0005 $
63870K0J4 0J420160520042015105/20/16 04:20:31  5-MIN K0J4 200920Z AUTO VRB05G21KT 1 3/4SM +TSRA BR SCT006 BKN029 BKN044 20/18 A3003 210 90 900 VRB/05G21 RMK AO2 TSB10RAB09 P0014 $
63870K0J4 0J420160520042514505/20/16 04:25:31  5-MIN K0J4 200925Z AUTO 00000KT 1 1/4SM +TSRA BR SCT006 BKN031 OVC060 19/18 A3003 220 93 800 000/00 RMK AO2 TSB10RAB09 P0020 $
63870K0J4 0J420160520043014505/20/16 04:30:31  5-MIN K0J4 200930Z AUTO 00000KT 1 1/2SM +TSRA BR SCT006 BKN035 OVC080 19/18 A3002 220 93 800 000/00 RMK AO2 TSB10RAB09 P0022 $
63870K0J4 0J420160520043514105/20/16 04:35:31  5-MIN K0J4 200935Z AUTO 00000KT 3SM -TSRA BR FEW006 BKN038 OVC095 19/18 A3003 220 90 800 000/00 RMK AO2 TSB10RAB09 P0023 $
63870K0J4 0J420160520044014005/20/16 04:40:31  5-MIN K0J4 200940Z AUTO 00000KT 5SM TSRA BR FEW009 BKN080 OVC110 19/18 A3003 220 93 800 000/00 RMK AO2 TSB10RAB09 P0024 $
63870K0J4 0J420160520044514005/20/16 04:45:31  5-MIN K0J4 200945Z AUTO 00000KT 5SM TSRA BR FEW009 BKN095 OVC110 19/18 A3002 220 93 800 000/00 RMK AO2 TSB10RAB09 P0024 $
63870K0J4 0J420160520045013305/20/16 04:50:31  5-MIN K0J4 200950Z AUTO 00000KT 5SM TSRA BR FEW040 OVC100 19/18 A3002 220 93 800 000/00 RMK AO2 TSB10RAB09 P0026 $
63870K0J4 0J420160520045515705/20/16 04:55:31  5-MIN K0J4 200955Z AUTO 00000KT 4SM TSRA BR FEW080 BKN100 OVC120 19/18 A3003 220 97 800 000/00 RMK AO2 TSB10RAB09 SLP164 P0027 T01890183 $
63870K0J4 0J420160520050011505/20/16 05:00:31  5-MIN K0J4 201000Z AUTO 00000KT 3SM TSRA BR OVC100 19/18 A3004 210 97 800 000/00 RMK AO2 P0001 $
63870K0J4 0J420160520050511505/20/16 05:05:31  5-MIN K0J4 201005Z AUTO 00000KT 3SM TSRA BR OVC100 19/18 A3004 200 97 700 000/00 RMK AO2 P0003 $
63870K0J4 0J420160520051013005/20/16 05:10:31  5-MIN K0J4 201010Z AUTO 00000KT 3SM +TSRA BR BKN095 OVC110 19/18 A3005 200 97 700 000/00 RMK AO2 PRESRR P0004 $
63870K0J4 0J420160520051512305/20/16 05:15:31  5-MIN K0J4 201015Z AUTO 00000KT 3SM +TSRA BR BKN095 OVC110 19/18 A3005 200 97 700 000/00 RMK AO2 P0007 $
63870K0J4 0J420160520052012305/20/16 05:20:31  5-MIN K0J4 201020Z AUTO 00000KT 3SM +TSRA BR SCT080 OVC100 19/18 A3004 210 97 800 000/00 RMK AO2 P0008 $
63870K0J4 0J420160520052512305/20/16 05:25:31  5-MIN K0J4 201025Z AUTO 11003KT 4SM +TSRA BR BKN085 OVC110 19/18 A3003 220 97 800 110/03 RMK AO2 P0011 $
63870K0J4 0J420160520053012905/20/16 05:30:31  5-MIN K0J4 201030Z AUTO 10004KT 5SM TSRA BR BKN090 OVC110 19/18 A3002 220 97 800 100/04 RMK AO2 PRESFR P0012 $
63870K0J4 0J420160520053512205/20/16 05:35:31  5-MIN K0J4 201035Z AUTO 00000KT 5SM TSRA BR BKN090 OVC110 19/18 A3003 220 97 800 000/00 RMK AO2 P0014 $
63870K0J4 0J420160520054012905/20/16 05:40:31  5-MIN K0J4 201040Z AUTO 14006KT 5SM TSRA BR SCT080 BKN095 OVC110 19/18 A3002 230 97 800 140/06 RMK AO2 P0015 $
63870K0J4 0J420160520054512205/20/16 05:45:31  5-MIN K0J4 201045Z AUTO 15005KT 6SM TSRA BR BKN090 OVC110 19/18 A3003 220 97 800 150/05 RMK AO2 P0017 $
63870K0J4 0J420160520055012205/20/16 05:50:31  5-MIN K0J4 201050Z AUTO 12005KT 6SM TSRA BR SCT090 OVC110 19/18 A3002 230 97 800 120/05 RMK AO2 P0018 $
63870K0J4 0J420160520055514305/20/16 05:55:31  5-MIN K0J4 201055Z AUTO 14007KT 7SM TSRA FEW090 OVC110 19/18 A3000 240 97 800 140/07 RMK AO2 PRESFR SLP156 P0018 T01890183 $
63870K0J4 0J420160520060012005/20/16 06:00:31  5-MIN K0J4 201100Z AUTO 15008KT 7SM -TSRA OVC110 19/18 A2999 250 97 800 150/08 RMK AO2 PRESFR P0000 $
63870K0J4 0J420160520060512005/20/16 06:05:31  5-MIN K0J4 201105Z AUTO 15010KT 8SM -TSRA OVC110 19/18 A2998 260 97 800 150/10 RMK AO2 PRESFR P0000 $
63870K0J4 0J420160520061013005/20/16 06:10:31  5-MIN K0J4 201110Z AUTO VRB06G15KT 8SM -RA FEW002 OVC110 19/18 A2999 250 97 800 VRB/06G15 RMK AO2 TSE08 P0001 $
63870K0J4 0J420160520061513005/20/16 06:15:31  5-MIN K0J4 201115Z AUTO VRB05G15KT 9SM -RA FEW002 OVC110 19/18 A3000 240 97 800 VRB/05G15 RMK AO2 TSE08 P0001 $
63870K0J4 0J420160520062013205/20/16 06:20:31  5-MIN K0J4 201120Z AUTO 13003KT 10SM -RA SCT002 BKN110 19/18 A3001 230 97 800 130/03 RMK AO2 TSE08 PRESRR P0001 $
63870K0J4 0J420160520062512505/20/16 06:25:31  5-MIN K0J4 201125Z AUTO 11005KT 10SM -RA SCT004 BKN110 19/18 A3000 240 97 800 110/05 RMK AO2 TSE08 P0001 $
63870K0J4 0J420160520063012505/20/16 06:30:31  5-MIN K0J4 201130Z AUTO 15008KT 10SM -RA SCT004 BKN110 19/18 A2999 260 93 800 150/08 RMK AO2 TSE08 P0001 $
63870K0J4 0J420160520063512605/20/16 06:35:31  5-MIN K0J4 201135Z AUTO 16009KT 10SM SCT004 BKN110 19/18 A2998 260 93 800 160/09 RMK AO2 TSE08RAE35 P0001 $
63870K0J4 0J420160520064012605/20/16 06:40:31  5-MIN K0J4 201140Z AUTO 17007KT 10SM FEW004 SCT110 19/18 A2999 260 97 800 170/07 RMK AO2 TSE08RAE35 P0001 $
63870K0J4 0J420160520064512605/20/16 06:45:31  5-MIN K0J4 201145Z AUTO 16007KT 10SM FEW004 SCT100 19/18 A2998 260 97 800 160/07 RMK AO2 TSE08RAE35 P0001 $
63870K0J4 0J420160520065011905/20/16 06:50:31  5-MIN K0J4 201150Z AUTO 16008KT 10SM FEW004 19/18 A2999 250 97 800 160/08 RMK AO2 TSE08RAE35 P0001 $
63870K0J4 0J420160520065516605/20/16 06:55:31  5-MIN K0J4 201155Z AUTO 17006KT 10SM FEW100 19/18 A2999 250 97 800 170/06 RMK AO2 TSE08RAE35 SLP153 P0001 60048 70048 T01890183 10217 20189 55000 $
63870K0J4 0J420160520070009905/20/16 07:00:31  5-MIN K0J4 201200Z AUTO 17005KT 10SM CLR 19/18 A2999 250 97 800 170/05 RMK AO2 $
63870K0J4 0J420160520070509905/20/16 07:05:31  5-MIN K0J4 201205Z AUTO 15003KT 10SM CLR 19/18 A3000 250 97 800 150/03 RMK AO2 $
63870K0J4 0J420160520071009905/20/16 07:10:31  5-MIN K0J4 201210Z AUTO 17003KT 10SM CLR 19/18 A3000 240 97 800 170/03 RMK AO2 $
63870K0J4 0J420160520071509905/20/16 07:15:31  5-MIN K0J4 201215Z AUTO 00000KT 10SM CLR 19/18 A3000 240 97 800 000/00 RMK AO2 $
63870K0J4 0J420160520072009905/20/16 07:20:31  5-MIN K0J4 201220Z AUTO 00000KT 10SM CLR 19/18 A3000 240 97 800 000/00 RMK AO2 $
63870K0J4 0J420160520072510205/20/16 07:25:31  5-MIN K0J4 201225Z AUTO 00000KT 10SM FEW120 19/18 A3001 240 93 900 000/00 RMK AO2 $
63870K0J4 0J420160520212509905/20/16 21:25:31  5-MIN K0J4 210225Z AUTO 00000KT 10SM CLR 20/19 A3005 200 93 900 000/00 RMK AO2 $
63870K0J4 0J420160520213009905/20/16 21:30:31  5-MIN K0J4 210230Z AUTO 00000KT 10SM CLR 20/19 A3005 200 93 900 000/00 RMK AO2 $
63870K0J4 0J420160520213509905/20/16 21:35:31  5-MIN K0J4 210235Z AUTO 00000KT 10SM CLR 20/19 A3005 200 93 900 000/00 RMK AO2 $
63870K0J4 0J420160520214009905/20/16 21:40:31  5-MIN K0J4 210240Z AUTO 00000KT 10SM CLR 20/19 A3005 190 93 900 000/00 RMK AO2 $
63870K0J4 0J420160520214509905/20/16 21:45:31  5-MIN K0J4 210245Z AUTO 00000KT 10SM CLR 19/19 A3005 200 97 800 000/00 RMK AO2 $
63870K0J4 0J420160520215009905/20/16 21:50:31  5-MIN K0J4 210250Z AUTO 00000KT 10SM CLR 19/18 A3005 190 93 800 000/00 RMK AO2 $
63870K0J4 0J420160521072012105/21/16 07:20:31  5-MIN K0J4 211220Z AUTO 00000KT 10SM BKN010 OVC017 20/19 A3006 180 97 900 000/00 RMK AO2 CIG 008V013 $
63870K0J4 0J420160521072512105/21/16 07:25:31  5-MIN K0J4 211225Z AUTO 00000KT 10SM FEW005 OVC010 21/19 A3007 180 93 900 000/00 RMK AO2 CIG 008V013 $
63870K0J4 0J420160521073012105/21/16 07:30:31  5-MIN K0J4 211230Z AUTO 00000KT 10SM FEW005 OVC010 21/19 A3007 180 93 900 000/00 RMK AO2 CIG 008V013 $
63870K0J4 0J420160521073512105/21/16 07:35:31  5-MIN K0J4 211235Z AUTO 00000KT 10SM FEW005 OVC010 21/20 A3007 180 97 900 000/00 RMK AO2 CIG 008V013 $
63870K0J4 0J420160521074012205/21/16 07:40:31  5-MIN K0J4 211240Z AUTO 00000KT 10SM FEW005 OVC010 21/20 A3007 180 93 1000 000/00 RMK AO2 CIG 008V012 $
63870K0J4 0J420160521074511505/21/16 07:45:31  5-MIN K0J4 211245Z AUTO 00000KT 10SM OVC008 21/20 A3007 180 93 1000 000/00 RMK AO2 CIG 004V012 $
63870K0J4 0J420160521075011505/21/16 07:50:31  5-MIN K0J4 211250Z AUTO 00000KT 10SM OVC008 21/21 A3007 180 97 1000 000/00 RMK AO2 CIG 004V012 $
63870K0J4 0J420160521075513205/21/16 07:55:31  5-MIN K0J4 211255Z AUTO 00000KT 10SM OVC008 22/21 A3007 180 93 1000 000/00 RMK AO2 CIG 006V012 SLP180 T02170206 $
63870K0J4 0J420160521080011505/21/16 08:00:31  5-MIN K0J4 211300Z AUTO 22003KT 10SM OVC008 22/21 A3007 180 93 1000 220/03 RMK AO2 CIG 005V009 $
63870K0J4 0J420160521080511505/21/16 08:05:31  5-MIN K0J4 211305Z AUTO 00000KT 10SM OVC006 22/21 A3007 180 93 1000 000/00 RMK AO2 CIG 004V010 $
63870K0J4 0J420160521081011505/21/16 08:10:31  5-MIN K0J4 211310Z AUTO 00000KT 10SM OVC006 22/21 A3007 170 90 1100 000/00 RMK AO2 CIG 004V008 $
63870K0J4 0J420160521081511505/21/16 08:15:31  5-MIN K0J4 211315Z AUTO 00000KT 10SM OVC006 22/21 A3008 170 93 1100 000/00 RMK AO2 CIG 003V008 $
63870K0J4 0J420160521082011405/21/16 08:20:31  5-MIN K0J4 211320Z AUTO VRB03KT 9SM OVC004 22/21 A3008 170 90 1100 VRB/03 RMK AO2 CIG 003V007 $
63870K0J4 0J420160521082510205/21/16 08:25:31  5-MIN K0J4 211325Z AUTO 00000KT 9SM OVC004 22/21 A3008 170 90 1100 000/00 RMK AO2 $
63870K0J4 0J420160521083011405/21/16 08:30:31  5-MIN K0J4 211330Z AUTO 00000KT 8SM OVC006 22/21 A3008 170 90 1100 000/00 RMK AO2 CIG 003V008 $
63870K0J4 0J420160521083512105/21/16 08:35:31  5-MIN K0J4 211335Z AUTO 00000KT 8SM BKN006 OVC010 22/21 A3008 170 90 1100 000/00 RMK AO2 CIG 003V008 $
63870K0J4 0J420160521084012105/21/16 08:40:31  5-MIN K0J4 211340Z AUTO 00000KT 9SM BKN006 OVC012 22/21 A3008 170 90 1100 000/00 RMK AO2 CIG 003V008 $
63870K0J4 0J420160521084512105/21/16 08:45:31  5-MIN K0J4 211345Z AUTO 00000KT 9SM BKN006 OVC012 23/21 A3008 170 90 1200 000/00 RMK AO2 CIG 003V009 $
63870K0J4 0J420160521085012105/21/16 08:50:31  5-MIN K0J4 211350Z AUTO 00000KT 9SM BKN006 OVC012 23/21 A3008 170 87 1200 000/00 RMK AO2 CIG 004V008 $
63870K0J4 0J420160521085513105/21/16 08:55:31  5-MIN K0J4 211355Z AUTO VRB03KT 9SM OVC008 23/21 A3008 170 87 1100 VRB/03 RMK AO2 CIG 004V010 SLP184 T02280206 $
63870K0J4 0J420160521090011405/21/16 09:00:31  5-MIN K0J4 211400Z AUTO VRB03KT 7SM OVC008 22/21 A3009 160 90 1100 VRB/03 RMK AO2 CIG 005V010 $
63870K0J4 0J420160521090511905/21/16 09:05:31  5-MIN K0J4 211405Z AUTO 00000KT 7SM BKN008 OVC011 22/21 A3009 160 90 1100 000/00 RMK AO2 CIG 005V010
63870K0J4 0J420160521091011205/21/16 09:10:31  5-MIN K0J4 211410Z AUTO 00000KT 9SM OVC008 22/21 A3009 160 90 1100 000/00 RMK AO2 CIG 005V012
63870K0J4 0J420160521091511305/21/16 09:15:31  5-MIN K0J4 211415Z AUTO 00000KT 10SM OVC008 23/21 A3009 160 87 1100 000/00 RMK AO2 CIG 005V012
63870K0J4 0J420160521092011305/21/16 09:20:31  5-MIN K0J4 211420Z AUTO 00000KT 10SM OVC008 23/21 A3009 160 87 1100 000/00 RMK AO2 CIG 005V013
63870K0J4 0J420160521092511505/21/16 09:25:31  5-MIN K0J4 211425Z AUTO VRB03KT 10SM OVC010 23/21 A3009 160 84 1200 VRB/03 RMK AO2 CIG 005V013 $
63870K0J4 0J420160521093011505/21/16 09:30:31  5-MIN K0J4 211430Z AUTO 00000KT 10SM OVC010 23/21 A3009 160 84 1200 000/00 RMK AO2 CIG 007V013 $
63870K0J4 0J420160521093511505/21/16 09:35:31  5-MIN K0J4 211435Z AUTO VRB03KT 10SM OVC010 24/21 A3009 160 81 1300 VRB/03 RMK AO2 CIG 007V013 $
63870K0J4 0J420160521094011505/21/16 09:40:31  5-MIN K0J4 211440Z AUTO 00000KT 10SM OVC010 23/21 A3009 160 84 1200 000/00 RMK AO2 CIG 007V011 $
63870K0J4 0J420160521094511505/21/16 09:45:31  5-MIN K0J4 211445Z AUTO 00000KT 10SM OVC010 23/21 A3009 160 87 1100 000/00 RMK AO2 CIG 007V013 $
63870K0J4 0J420160521095011505/21/16 09:50:31  5-MIN K0J4 211450Z AUTO 00000KT 10SM OVC008 23/21 A3009 160 84 1200 000/00 RMK AO2 CIG 007V011 $
63870K0J4 0J420160521095513805/21/16 09:55:31  5-MIN K0J4 211455Z AUTO 00000KT 10SM OVC008 23/21 A3009 160 84 1200 000/00 RMK AO2 CIG 007V013 SLP185 T02330206 53014 $
63870K0J4 0J420160521100011505/21/16 10:00:31  5-MIN K0J4 211500Z AUTO 00000KT 10SM OVC010 23/21 A3009 160 84 1200 000/00 RMK AO2 CIG 007V013 $
63870K0J4 0J420160521100512205/21/16 10:05:31  5-MIN K0J4 211505Z AUTO 00000KT 10SM BKN010 OVC014 23/21 A3009 160 84 1200 000/00 RMK AO2 CIG 007V011 $
63870K0J4 0J420160521101011505/21/16 10:10:31  5-MIN K0J4 211510Z AUTO 00000KT 10SM OVC010 23/21 A3009 160 84 1200 000/00 RMK AO2 CIG 008V013 $
63870K0J4 0J420160521101512205/21/16 10:15:31  5-MIN K0J4 211515Z AUTO 00000KT 10SM BKN010 OVC013 23/21 A3009 160 84 1200 000/00 RMK AO2 CIG 008V012 $
63870K0J4 0J420160521102010305/21/16 10:20:31  5-MIN K0J4 211520Z AUTO VRB03KT 10SM OVC010 23/21 A3009 160 84 1200 VRB/03 RMK AO2 $
63870K0J4 0J420160521102510305/21/16 10:25:31  5-MIN K0J4 211525Z AUTO 31003KT 10SM OVC010 23/21 A3009 160 84 1200 310/03 RMK AO2 $
63870K0J4 0J420160521103011005/21/16 10:30:31  5-MIN K0J4 211530Z AUTO 00000KT 10SM BKN010 OVC018 23/21 A3009 160 84 1200 000/00 RMK AO2 $
63870K0J4 0J420160521103511005/21/16 10:35:31  5-MIN K0J4 211535Z AUTO VRB04KT 10SM BKN010 OVC018 23/21 A3009 160 84 1200 VRB/04 RMK AO2 $
63870K0J4 0J420160521104011705/21/16 10:40:31  5-MIN K0J4 211540Z AUTO 00000KT 10SM BKN010 BKN018 OVC029 23/21 A3009 160 84 1200 000/00 RMK AO2 $
63870K0J4 0J420160521104511705/21/16 10:45:31  5-MIN K0J4 211545Z AUTO VRB03KT 10SM BKN010 BKN018 OVC027 24/21 A3009 160 84 1300 VRB/03 RMK AO2 $
63870K0J4 0J420160521105012905/21/16 10:50:31  5-MIN K0J4 211550Z AUTO VRB04KT 10SM BKN010 BKN016 OVC027 24/21 A3009 160 81 1300 VRB/04 RMK AO2 CIG 008V013 $
63870K0J4 0J420160521105511005/21/16 10:55:31  5-MIN K0J4 211555Z AUTO 24005KT 10SM SCT010 OVC016 24/21 A3009 160 78 1300 240/05 RMK AO2 $
63870K0J4 0J420160521110011705/21/16 11:00:31  5-MIN K0J4 211600Z AUTO VRB04KT 10SM BKN012 BKN018 OVC027 24/21 A3009 160 78 1300 VRB/04 RMK AO2 $
63870K0J4 0J420160521110511705/21/16 11:05:31  5-MIN K0J4 211605Z AUTO 00000KT 10SM FEW010 BKN016 OVC027 25/21 A3009 160 79 1400 000/00 RMK AO2 $
63870K0J4 0J420160521111011705/21/16 11:10:31  5-MIN K0J4 211610Z AUTO 00000KT 10SM FEW010 BKN016 OVC020 25/21 A3009 160 79 1400 000/00 RMK AO2 $
63870K0J4 0J420160521111511705/21/16 11:15:31  5-MIN K0J4 211615Z AUTO 00000KT 10SM BKN014 BKN020 OVC026 25/21 A3009 160 79 1400 000/00 RMK AO2 $
63870K0J4 0J420160521112011705/21/16 11:20:31  5-MIN K0J4 211620Z AUTO 00000KT 10SM BKN014 BKN020 BKN026 26/21 A3008 170 76 1500 000/00 RMK AO2 $
63870K0J4 0J420160521112511005/21/16 11:25:31  5-MIN K0J4 211625Z AUTO 00000KT 10SM SCT014 BKN020 26/21 A3008 170 73 1500 000/00 RMK AO2 $
63870K0J4 0J420160521113011005/21/16 11:30:31  5-MIN K0J4 211630Z AUTO VRB04KT 10SM FEW014 BKN020 26/21 A3008 170 71 1500 VRB/04 RMK AO2 $
63870K0J4 0J420160521113511005/21/16 11:35:31  5-MIN K0J4 211635Z AUTO 00000KT 10SM SCT017 BKN023 26/21 A3008 170 71 1500 000/00 RMK AO2 $
63870K0J4 0J420160521114011005/21/16 11:40:31  5-MIN K0J4 211640Z AUTO VRB04KT 10SM FEW014 SCT023 27/21 A3007 170 71 1600 VRB/04 RMK AO2 $
63870K0J4 0J420160521114511005/21/16 11:45:31  5-MIN K0J4 211645Z AUTO 26004KT 10SM FEW018 SCT023 27/21 A3007 180 66 1700 260/04 RMK AO2 $
63870K0J4 0J420160521115010305/21/16 11:50:31  5-MIN K0J4 211650Z AUTO 24005KT 10SM FEW018 27/21 A3007 180 69 1600 240/05 RMK AO2 $
63870K0J4 0J420160521115512005/21/16 11:55:31  5-MIN K0J4 211655Z AUTO 00000KT 10SM FEW018 28/21 A3006 180 66 1700 000/00 RMK AO2 SLP177 T02780211 $
63870K0J4 0J420160521120010305/21/16 12:00:31  5-MIN K0J4 211700Z AUTO 22005KT 10SM FEW024 27/21 A3006 190 66 1700 220/05 RMK AO2 $
63870K0J4 0J420160521120510305/21/16 12:05:31  5-MIN K0J4 211705Z AUTO VRB03KT 10SM FEW028 28/21 A3006 190 64 1700 VRB/03 RMK AO2 $
63870K0J4 0J420160521121010305/21/16 12:10:31  5-MIN K0J4 211710Z AUTO 21006KT 10SM FEW028 28/21 A3006 190 64 1700 210/06 RMK AO2 $
63870K0J4 0J420160521121510305/21/16 12:15:31  5-MIN K0J4 211715Z AUTO VRB03KT 10SM FEW026 27/21 A3006 190 66 1700 VRB/03 RMK AO2 $
63870K0J4 0J420160521122010305/21/16 12:20:31  5-MIN K0J4 211720Z AUTO 21008KT 10SM FEW026 28/21 A3006 190 66 1700 210/08 RMK AO2 $
63870K0J4 0J420160521122510305/21/16 12:25:31  5-MIN K0J4 211725Z AUTO VRB05KT 10SM FEW026 28/21 A3005 190 64 1700 VRB/05 RMK AO2 $
63870K0J4 0J420160521123011005/21/16 12:30:31  5-MIN K0J4 211730Z AUTO VRB05KT 10SM FEW027 SCT036 28/20 A3005 190 62 1800 VRB/05 RMK AO2 $
63870K0J4 0J420160521123511005/21/16 12:35:31  5-MIN K0J4 211735Z AUTO VRB05KT 10SM FEW027 SCT036 28/21 A3005 200 64 1800 VRB/05 RMK AO2 $
63870K0J4 0J420160521124011005/21/16 12:40:31  5-MIN K0J4 211740Z AUTO VRB05KT 10SM FEW032 SCT040 28/21 A3005 200 64 1800 VRB/05 RMK AO2 $
63870K0J4 0J420160521124511705/21/16 12:45:31  5-MIN K0J4 211745Z AUTO VRB06KT 10SM FEW026 SCT034 SCT043 28/21 A3004 200 64 1800 VRB/06 RMK AO2 $
63870K0J4 0J420160521125011005/21/16 12:50:31  5-MIN K0J4 211750Z AUTO VRB04KT 10SM FEW026 SCT038 28/21 A3004 210 62 1800 VRB/04 RMK AO2 $
63870K0J4 0J420160521125514505/21/16 12:55:31  5-MIN K0J4 211755Z AUTO VRB03KT 10SM FEW029 SCT039 28/21 A3004 210 62 1800 VRB/03 RMK AO2 SLP166 T02830206 10283 20194 51009 $
63870K0J4 0J420160521130011705/21/16 13:00:31  5-MIN K0J4 211800Z AUTO 23006KT 10SM FEW027 SCT034 SCT042 28/20 A3003 210 60 1800 230/06 RMK AO2 $
63870K0J4 0J420160521130511705/21/16 13:05:31  5-MIN K0J4 211805Z AUTO VRB05KT 10SM FEW027 SCT034 SCT042 28/20 A3003 210 60 1800 VRB/05 RMK AO2 $
63870K0J4 0J420160521131011705/21/16 13:10:31  5-MIN K0J4 211810Z AUTO VRB03KT 10SM FEW027 SCT034 BKN042 28/20 A3003 220 62 1800 VRB/03 RMK AO2 $
63870K0J4 0J420160521131511005/21/16 13:15:31  5-MIN K0J4 211815Z AUTO VRB04KT 10SM SCT034 SCT042 29/21 A3003 210 60 1900 VRB/04 RMK AO2 $
63870K0J4 0J420160521132011005/21/16 13:20:31  5-MIN K0J4 211820Z AUTO VRB04KT 10SM FEW034 SCT048 29/20 A3003 220 58 1900 VRB/04 RMK AO2 $
63870K0J4 0J420160521132511005/21/16 13:25:31  5-MIN K0J4 211825Z AUTO 00000KT 10SM FEW034 SCT048 29/20 A3002 220 56 2000 000/00 RMK AO2 $
63870K0J4 0J420160521133011005/21/16 13:30:31  5-MIN K0J4 211830Z AUTO 00000KT 10SM SCT036 BKN048 29/19 A3002 220 56 1900 000/00 RMK AO2 $
63870K0J4 0J420160521133511005/21/16 13:35:31  5-MIN K0J4 211835Z AUTO VRB03KT 10SM SCT036 BKN048 28/20 A3002 230 60 1900 VRB/03 RMK AO2 $
63870K0J4 0J420160521134011705/21/16 13:40:31  5-MIN K0J4 211840Z AUTO 24005KT 10SM SCT036 BKN048 BKN060 28/19 A3002 230 60 1800 240/05 RMK AO2 $
63870K0J4 0J420160521134511705/21/16 13:45:31  5-MIN K0J4 211845Z AUTO VRB03KT 10SM SCT036 BKN048 BKN060 28/20 A3002 220 60 1800 VRB/03 RMK AO2 $
63870K0J4 0J420160521135011705/21/16 13:50:31  5-MIN K0J4 211850Z AUTO VRB03KT 10SM BKN036 BKN048 BKN060 29/20 A3002 230 58 1900 VRB/03 RMK AO2 $
63870K0J4 0J420160521135512705/21/16 13:55:31  5-MIN K0J4 211855Z AUTO VRB05KT 10SM SCT036 SCT048 29/20 A3002 230 58 1900 VRB/05 RMK AO2 SLP159 T02890200 $
63870K0J4 0J420160521140011005/21/16 14:00:31  5-MIN K0J4 211900Z AUTO 00000KT 10SM FEW036 SCT046 29/19 A3001 230 56 1900 000/00 RMK AO2 $
63870K0J4 0J420160521140512105/21/16 14:05:31  5-MIN K0J4 211905Z AUTO 00000KT 10SM VCTS FEW036 SCT110 29/19 A3001 240 54 2000 000/00 RMK AO2 TSB02 $
63870K0J4 0J420160521141012105/21/16 14:10:31  5-MIN K0J4 211910Z AUTO VRB05KT 10SM VCTS FEW038 SCT110 29/20 A3001 240 56 2000 VRB/05 RMK AO2 TSB02 $
63870K0J4 0J420160521141512105/21/16 14:15:31  5-MIN K0J4 211915Z AUTO VRB03KT 10SM VCTS FEW038 SCT110 29/19 A3000 240 56 1900 VRB/03 RMK AO2 TSB02 $
63870K0J4 0J420160521142012805/21/16 14:20:31  5-MIN K0J4 211920Z AUTO VRB04KT 10SM VCTS FEW038 SCT046 BKN110 29/19 A3000 240 56 1900 VRB/04 RMK AO2 TSB02 $
63870K0J4 0J420160521142511905/21/16 14:25:31  5-MIN K0J4 211925Z AUTO VRB03KT 10SM FEW041 BKN110 29/20 A3001 240 56 2000 VRB/03 RMK AO2 TSB02E24 $
63870K0J4 0J420160521143012605/21/16 14:30:31  5-MIN K0J4 211930Z AUTO VRB05KT 10SM FEW038 SCT045 BKN110 30/19 A3000 240 52 2100 VRB/05 RMK AO2 TSB02E24 $
63870K0J4 0J420160521143512605/21/16 14:35:31  5-MIN K0J4 211935Z AUTO VRB05KT 10SM FEW038 SCT060 BKN110 31/19 A3000 240 49 2200 VRB/05 RMK AO2 TSB02E24 $
63870K0J4 0J420160521144014805/21/16 14:40:31  5-MIN K0J4 211940Z AUTO 35009G17KT 290V030 10SM FEW038 SCT050 BKN060 29/18 A3001 230 52 1900 350/09G17 290V030 RMK AO2 TSB02E24 $
63870K0J4 0J420160521144514705/21/16 14:45:31  5-MIN K0J4 211945Z AUTO 02011G18KT 10SM -RA FEW040 BKN050 BKN065 26/19 A3001 230 68 1500 020/11G18 RMK AO2 TSB02E24RAB41 P0000 $
63870K0J4 0J420160521145014705/21/16 14:50:31  5-MIN K0J4 211950Z AUTO 01007G18KT 10SM -RA SCT050 SCT065 BKN080 26/20 A3000 240 68 1600 010/07G18 RMK AO2 TSB02E24RAB41 P0000 $
63870K0J4 0J420160521145515805/21/16 14:55:31  5-MIN K0J4 211955Z AUTO 01005KT 10SM -RA FEW048 SCT065 BKN080 27/19 A3000 240 62 1700 010/05 RMK AO2 TSB02E24RAB41 SLP156 P0000 T02720194 $
63870K0J4 0J420160521150011005/21/16 15:00:31  5-MIN K0J4 212000Z AUTO VRB05KT 10SM FEW050 SCT080 27/19 A3000 240 62 1700 VRB/05 RMK AO2 $
63870K0J4 0J420160521150511005/21/16 15:05:31  5-MIN K0J4 212005Z AUTO VRB04KT 10SM FEW050 SCT080 28/20 A3000 240 62 1800 VRB/04 RMK AO2 $
63870K0J4 0J420160521151010305/21/16 15:10:31  5-MIN K0J4 212010Z AUTO 36005KT 10SM FEW080 28/19 A3000 240 60 1800 360/05 RMK AO2 $
63870K0J4 0J420160521151510305/21/16 15:15:31  5-MIN K0J4 212015Z AUTO 01005KT 10SM FEW080 28/20 A3000 250 60 1900 010/05 RMK AO2 $
63870K0J4 0J420160521152010005/21/16 15:20:31  5-MIN K0J4 212020Z AUTO 32007KT 10SM CLR 28/20 A2999 250 60 1900 320/07 RMK AO2 $
63870K0J4 0J420160521152510005/21/16 15:25:31  5-MIN K0J4 212025Z AUTO 31005KT 10SM CLR 29/20 A2999 250 58 1900 310/05 RMK AO2 $
63870K0J4 0J420160521153010005/21/16 15:30:31  5-MIN K0J4 212030Z AUTO VRB05KT 10SM CLR 29/20 A2999 250 58 1900 VRB/05 RMK AO2 $
63870K0J4 0J420160521153510005/21/16 15:35:31  5-MIN K0J4 212035Z AUTO VRB05KT 10SM CLR 29/20 A2999 250 58 1900 VRB/05 RMK AO2 $
63870K0J4 0J420160521154010005/21/16 15:40:31  5-MIN K0J4 212040Z AUTO VRB04KT 10SM CLR 29/20 A2998 260 58 2000 VRB/04 RMK AO2 $
63870K0J4 0J420160521154510305/21/16 15:45:31  5-MIN K0J4 212045Z AUTO 32005KT 10SM FEW075 28/20 A2998 260 60 1900 320/05 RMK AO2 $
63870K0J4 0J420160521155010305/21/16 15:50:31  5-MIN K0J4 212050Z AUTO 00000KT 10SM FEW075 29/20 A2998 260 56 2000 000/00 RMK AO2 $
63870K0J4 0J420160521155513205/21/16 15:55:31  5-MIN K0J4 212055Z AUTO VRB03KT 10SM FEW075 29/20 A2998 260 56 2000 VRB/03 RMK AO2 SLP146 60000 T02940200 58018 $
63870K0J4 0J420160521160010305/21/16 16:00:31  5-MIN K0J4 212100Z AUTO 34006KT 10SM FEW075 30/20 A2997 270 54 2100 340/06 RMK AO2 $
63870K0J4 0J420160521160510305/21/16 16:05:31  5-MIN K0J4 212105Z AUTO 00000KT 10SM FEW075 30/20 A2997 270 54 2100 000/00 RMK AO2 $
63870K0J4 0J420160521161010305/21/16 16:10:31  5-MIN K0J4 212110Z AUTO VRB05KT 10SM FEW044 30/19 A2997 270 51 2100 VRB/05 RMK AO2 $
63870K0J4 0J420160521161510305/21/16 16:15:31  5-MIN K0J4 212115Z AUTO VRB03KT 10SM FEW046 30/19 A2997 270 51 2100 VRB/03 RMK AO2 $
63870K0J4 0J420160521162010305/21/16 16:20:31  5-MIN K0J4 212120Z AUTO VRB03KT 10SM FEW046 31/19 A2997 270 51 2200 VRB/03 RMK AO2 $
63870K0J4 0J420160521162510305/21/16 16:25:31  5-MIN K0J4 212125Z AUTO VRB04KT 10SM FEW046 30/19 A2997 270 51 2100 VRB/04 RMK AO2 $
63870K0J4 0J420160521163011905/21/16 16:30:31  5-MIN K0J4 212130Z AUTO 33007KT 300V360 10SM FEW046 30/19 A2997 270 51 2100 330/07 300V360 RMK AO2 $
63870K0J4 0J420160521163510305/21/16 16:35:31  5-MIN K0J4 212135Z AUTO VRB05KT 10SM FEW046 29/18 A2997 270 50 2000 VRB/05 RMK AO2 $
63870K0J4 0J420160521164010305/21/16 16:40:31  5-MIN K0J4 212140Z AUTO VRB06KT 10SM FEW050 29/18 A2997 270 50 2000 VRB/06 RMK AO2 $
63870K0J4 0J420160521164510305/21/16 16:45:31  5-MIN K0J4 212145Z AUTO 00000KT 10SM FEW050 29/19 A2997 270 52 2000 000/00 RMK AO2 $
63870K0J4 0J420160521165010305/21/16 16:50:31  5-MIN K0J4 212150Z AUTO VRB06KT 10SM SCT050 30/18 A2997 270 49 2100 VRB/06 RMK AO2 $
63870K0J4 0J420160521165512005/21/16 16:55:31  5-MIN K0J4 212155Z AUTO VRB05KT 10SM FEW050 30/18 A2997 270 49 2100 VRB/05 RMK AO2 SLP143 T03000183 $
63870K0J4 0J420160521170010305/21/16 17:00:31  5-MIN K0J4 212200Z AUTO 32005KT 10SM FEW050 29/18 A2997 270 50 2000 320/05 RMK AO2 $
63870K0J4 0J420160521170510305/21/16 17:05:31  5-MIN K0J4 212205Z AUTO 00000KT 10SM FEW050 30/18 A2996 280 49 2100 000/00 RMK AO2 $
63870K0J4 0J420160521171010305/21/16 17:10:31  5-MIN K0J4 212210Z AUTO VRB03KT 10SM FEW048 30/18 A2996 280 49 2100 VRB/03 RMK AO2 $
63870K0J4 0J420160521171510305/21/16 17:15:31  5-MIN K0J4 212215Z AUTO 33007KT 10SM FEW048 29/18 A2996 280 50 2000 330/07 RMK AO2 $
63870K0J4 0J420160521172010005/21/16 17:20:31  5-MIN K0J4 212220Z AUTO VRB04KT 10SM CLR 29/18 A2996 280 50 2000 VRB/04 RMK AO2 $
63870K0J4 0J420160521172510005/21/16 17:25:31  5-MIN K0J4 212225Z AUTO VRB06KT 10SM CLR 29/18 A2996 280 50 2000 VRB/06 RMK AO2 $
63870K0J4 0J420160521173011605/21/16 17:30:31  5-MIN K0J4 212230Z AUTO 33008KT 290V360 10SM CLR 29/18 A2996 280 50 2000 330/08 290V360 RMK AO2 $
63870K0J4 0J420160521173510005/21/16 17:35:31  5-MIN K0J4 212235Z AUTO VRB06KT 10SM CLR 29/18 A2996 280 50 2000 VRB/06 RMK AO2 $
63870K0J4 0J420160521174010005/21/16 17:40:31  5-MIN K0J4 212240Z AUTO VRB05KT 10SM CLR 29/18 A2996 280 50 2000 VRB/05 RMK AO2 $
63870K0J4 0J420160521174510005/21/16 17:45:31  5-MIN K0J4 212245Z AUTO 34005KT 10SM CLR 29/18 A2996 280 50 2000 340/05 RMK AO2 $
63870K0J4 0J420160521175010005/21/16 17:50:31  5-MIN K0J4 212250Z AUTO VRB06KT 10SM CLR 29/18 A2996 280 50 2000 VRB/06 RMK AO2 $
63870K0J4 0J420160521175511705/21/16 17:55:31  5-MIN K0J4 212255Z AUTO VRB05KT 10SM CLR 29/18 A2996 280 50 2000 VRB/05 RMK AO2 SLP141 T02890178 $
63870K0J4 0J420160521180010005/21/16 18:00:31  5-MIN K0J4 212300Z AUTO VRB04KT 10SM CLR 29/18 A2996 280 50 2000 VRB/04 RMK AO2 $
63870K0J4 0J420160521180510005/21/16 18:05:31  5-MIN K0J4 212305Z AUTO VRB04KT 10SM CLR 29/18 A2996 280 52 2000 VRB/04 RMK AO2 $
63870K0J4 0J420160521181010005/21/16 18:10:31  5-MIN K0J4 212310Z AUTO VRB04KT 10SM CLR 28/18 A2997 270 54 1900 VRB/04 RMK AO2 $
63870K0J4 0J420160521181510005/21/16 18:15:31  5-MIN K0J4 212315Z AUTO VRB04KT 10SM CLR 28/18 A2997 270 52 1900 VRB/04 RMK AO2 $
63870K0J4 0J420160521182010005/21/16 18:20:31  5-MIN K0J4 212320Z AUTO 00000KT 10SM CLR 28/18 A2997 270 54 1800 000/00 RMK AO2 $
63870K0J4 0J420160521182510005/21/16 18:25:31  5-MIN K0J4 212325Z AUTO VRB03KT 10SM CLR 28/18 A2997 270 54 1800 VRB/03 RMK AO2 $
63870K0J4 0J420160521183010005/21/16 18:30:31  5-MIN K0J4 212330Z AUTO VRB03KT 10SM CLR 28/17 A2997 270 52 1800 VRB/03 RMK AO2 $
63870K0J4 0J420160521183510005/21/16 18:35:31  5-MIN K0J4 212335Z AUTO VRB04KT 10SM CLR 28/17 A2997 270 52 1800 VRB/04 RMK AO2 $
63870K0J4 0J420160521184010005/21/16 18:40:31  5-MIN K0J4 212340Z AUTO VRB05KT 10SM CLR 27/17 A2997 270 54 1800 VRB/05 RMK AO2 $
63870K0J4 0J420160521184510005/21/16 18:45:31  5-MIN K0J4 212345Z AUTO 00000KT 10SM CLR 27/17 A2998 260 54 1800 000/00 RMK AO2 $
63870K0J4 0J420160521185010005/21/16 18:50:31  5-MIN K0J4 212350Z AUTO 00000KT 10SM CLR 27/17 A2998 260 54 1800 000/00 RMK AO2 $
63870K0J4 0J420160521185514105/21/16 18:55:31  5-MIN K0J4 212355Z AUTO VRB04KT 10SM CLR 27/17 A2998 260 55 1700 VRB/04 RMK AO2 SLP149 60000 T02670172 10311 20256 58020 $
63870K0J4 0J420160521190010005/21/16 19:00:31  5-MIN K0J4 220000Z AUTO 00000KT 10SM CLR 27/17 A2998 260 55 1700 000/00 RMK AO2 $
63870K0J4 0J420160521190510005/21/16 19:05:31  5-MIN K0J4 220005Z AUTO 00000KT 10SM CLR 27/18 A2998 260 57 1700 000/00 RMK AO2 $
63870K0J4 0J420160521191010005/21/16 19:10:31  5-MIN K0J4 220010Z AUTO VRB04KT 10SM CLR 26/17 A2998 260 57 1600 VRB/04 RMK AO2 $
63870K0J4 0J420160521191510005/21/16 19:15:31  5-MIN K0J4 220015Z AUTO VRB04KT 10SM CLR 26/17 A2998 260 57 1600 VRB/04 RMK AO2 $
63870K0J4 0J420160522051509905/22/16 05:15:31  5-MIN K0J4 221015Z AUTO 34004KT 10SM CLR 17/14 A3001 230 83 600 340/04 RMK AO2 $
63870K0J4 0J420160522052009905/22/16 05:20:31  5-MIN K0J4 221020Z AUTO VRB03KT 10SM CLR 17/14 A3002 230 83 600 VRB/03 RMK AO2 $
63870K0J4 0J420160522052509905/22/16 05:25:31  5-MIN K0J4 221025Z AUTO 00000KT 10SM CLR 17/14 A3002 230 83 600 000/00 RMK AO2 $
63870K0J4 0J420160522053009905/22/16 05:30:31  5-MIN K0J4 221030Z AUTO 00000KT 10SM CLR 17/14 A3002 220 86 500 000/00 RMK AO2 $
63870K0J4 0J420160522053509905/22/16 05:35:31  5-MIN K0J4 221035Z AUTO 33003KT 10SM CLR 17/14 A3002 220 86 500 330/03 RMK AO2 $
63870K0J4 0J420160522054009905/22/16 05:40:31  5-MIN K0J4 221040Z AUTO 00000KT 10SM CLR 16/14 A3002 220 90 400 000/00 RMK AO2 $
63870K0J4 0J420160522054509905/22/16 05:45:31  5-MIN K0J4 221045Z AUTO 33003KT 10SM CLR 16/14 A3002 220 90 400 330/03 RMK AO2 $
63870K0J4 0J420160522055009905/22/16 05:50:31  5-MIN K0J4 221050Z AUTO 33003KT 10SM CLR 17/14 A3002 220 86 500 330/03 RMK AO2 $
63870K0J4 0J420160522055511605/22/16 05:55:31  5-MIN K0J4 221055Z AUTO 33003KT 10SM CLR 17/14 A3002 220 86 500 330/03 RMK AO2 SLP162 T01670144 $
63870K0J4 0J420160522060009905/22/16 06:00:31  5-MIN K0J4 221100Z AUTO 34003KT 10SM CLR 17/14 A3002 220 86 500 340/03 RMK AO2 $
63870K0J4 0J420160522060509905/22/16 06:05:31  5-MIN K0J4 221105Z AUTO 00000KT 10SM CLR 17/14 A3002 220 86 500 000/00 RMK AO2 $
63870K0J4 0J420160522061009905/22/16 06:10:31  5-MIN K0J4 221110Z AUTO 33003KT 10SM CLR 17/14 A3002 220 86 500 330/03 RMK AO2 $
63870K0J4 0J420160522061509905/22/16 06:15:31  5-MIN K0J4 221115Z AUTO VRB03KT 10SM CLR 17/14 A3002 220 86 500 VRB/03 RMK AO2 $
63870K0J4 0J420160522062009905/22/16 06:20:31  5-MIN K0J4 221120Z AUTO 32003KT 10SM CLR 17/14 A3002 220 83 600 320/03 RMK AO2 $
63870K0J4 0J420160522062509905/22/16 06:25:31  5-MIN K0J4 221125Z AUTO 31003KT 10SM CLR 17/14 A3002 220 83 600 310/03 RMK AO2 $
63870K0J4 0J420160522063009905/22/16 06:30:31  5-MIN K0J4 221130Z AUTO 00000KT 10SM CLR 17/15 A3003 220 87 600 000/00 RMK AO2 $
63870K0J4 0J420160522063509905/22/16 06:35:31  5-MIN K0J4 221135Z AUTO 32003KT 10SM CLR 17/15 A3003 220 87 600 320/03 RMK AO2 $
63870K0J4 0J420160522064009905/22/16 06:40:31  5-MIN K0J4 221140Z AUTO 34003KT 10SM CLR 17/15 A3003 220 87 600 340/03 RMK AO2 $
63870K0J4 0J420160522064509905/22/16 06:45:31  5-MIN K0J4 221145Z AUTO 32004KT 10SM CLR 17/14 A3003 220 83 600 320/04 RMK AO2 $
63870K0J4 0J420160522065009905/22/16 06:50:31  5-MIN K0J4 221150Z AUTO 32004KT 10SM CLR 18/14 A3003 210 81 600 320/04 RMK AO2 $
63870K0J4 0J420160522065513405/22/16 06:55:31  5-MIN K0J4 221155Z AUTO 33003KT 10SM CLR 18/14 A3004 210 81 600 330/03 RMK AO2 SLP167 T01780144 10183 20161 55009 $
63870K0J4 0J420160522070009905/22/16 07:00:31  5-MIN K0J4 221200Z AUTO 34003KT 10SM CLR 18/15 A3004 210 83 600 340/03 RMK AO2 $
63870K0J4 0J420160522070509905/22/16 07:05:31  5-MIN K0J4 221205Z AUTO 34004KT 10SM CLR 18/15 A3004 210 83 600 340/04 RMK AO2 $
63870K0J4 0J420160522071009905/22/16 07:10:31  5-MIN K0J4 221210Z AUTO 00000KT 10SM CLR 18/15 A3004 210 83 600 000/00 RMK AO2 $
63870K0J4 0J420160522071509905/22/16 07:15:31  5-MIN K0J4 221215Z AUTO 31003KT 10SM CLR 18/15 A3004 210 81 700 310/03 RMK AO2 $
63870K0J4 0J420160522072009905/22/16 07:20:31  5-MIN K0J4 221220Z AUTO 35003KT 10SM CLR 18/15 A3004 210 81 700 350/03 RMK AO2 $
63870K0J4 0J420160522072509905/22/16 07:25:31  5-MIN K0J4 221225Z AUTO 00000KT 10SM CLR 19/15 A3004 210 78 800 000/00 RMK AO2 $
63870K0J4 0J420160522073009905/22/16 07:30:31  5-MIN K0J4 221230Z AUTO 00000KT 10SM CLR 19/15 A3004 210 78 800 000/00 RMK AO2 $
63870K0J4 0J420160522073509905/22/16 07:35:31  5-MIN K0J4 221235Z AUTO VRB03KT 10SM CLR 19/15 A3003 210 75 800 VRB/03 RMK AO2 $
63870K0J4 0J420160522074009905/22/16 07:40:31  5-MIN K0J4 221240Z AUTO 01005KT 10SM CLR 19/14 A3003 210 72 800 010/05 RMK AO2 $
63870K0J4 0J420160522074509905/22/16 07:45:31  5-MIN K0J4 221245Z AUTO 01005KT 10SM CLR 19/14 A3003 210 72 800 010/05 RMK AO2 $
63870K0J4 0J420160522075009905/22/16 07:50:31  5-MIN K0J4 221250Z AUTO 01006KT 10SM CLR 19/14 A3004 210 72 800 010/06 RMK AO2 $
63870K0J4 0J420160522075511605/22/16 07:55:31  5-MIN K0J4 221255Z AUTO VRB04KT 10SM CLR 19/14 A3004 210 72 800 VRB/04 RMK AO2 SLP168 T01940144 $
63870K0J4 0J420160522080009905/22/16 08:00:31  5-MIN K0J4 221300Z AUTO VRB05KT 10SM CLR 19/14 A3004 210 72 800 VRB/05 RMK AO2 $
63870K0J4 0J420160522080509905/22/16 08:05:31  5-MIN K0J4 221305Z AUTO 01006KT 10SM CLR 19/14 A3004 210 72 800 010/06 RMK AO2 $
63870K0J4 0J420160522081009905/22/16 08:10:31  5-MIN K0J4 221310Z AUTO 36005KT 10SM CLR 20/15 A3004 210 72 900 360/05 RMK AO2 $
63870K0J4 0J420160522081509905/22/16 08:15:31  5-MIN K0J4 221315Z AUTO VRB05KT 10SM CLR 20/14 A3004 210 70 900 VRB/05 RMK AO2 $
63870K0J4 0J420160522082009905/22/16 08:20:31  5-MIN K0J4 221320Z AUTO 02004KT 10SM CLR 20/14 A3004 210 70 900 020/04 RMK AO2 $
63870K0J4 0J420160522082510205/22/16 08:25:31  5-MIN K0J4 221325Z AUTO 02005KT 10SM FEW002 21/15 A3004 210 70 900 020/05 RMK AO2 $
63870K0J4 0J420160522083010205/22/16 08:30:31  5-MIN K0J4 221330Z AUTO VRB05KT 10SM FEW002 21/15 A3004 200 70 900 VRB/05 RMK AO2 $
63870K0J4 0J420160522083509905/22/16 08:35:31  5-MIN K0J4 221335Z AUTO VRB05KT 10SM CLR 21/14 A3004 210 67 900 VRB/05 RMK AO2 $
63870K0J4 0J420160522084009905/22/16 08:40:31  5-MIN K0J4 221340Z AUTO 01005KT 10SM CLR 21/14 A3004 210 67 900 010/05 RMK AO2 $
63870K0J4 0J420160522084510005/22/16 08:45:31  5-MIN K0J4 221345Z AUTO 01004KT 10SM CLR 21/14 A3004 210 65 1000 010/04 RMK AO2 $
63870K0J4 0J420160522085010005/22/16 08:50:31  5-MIN K0J4 221350Z AUTO VRB03KT 10SM CLR 21/14 A3004 210 65 1000 VRB/03 RMK AO2 $
63870K0J4 0J420160522085511705/22/16 08:55:31  5-MIN K0J4 221355Z AUTO 35006KT 10SM CLR 22/14 A3004 210 63 1100 350/06 RMK AO2 SLP169 T02170144 $
63870K0J4 0J420160522090010005/22/16 09:00:31  5-MIN K0J4 221400Z AUTO VRB06KT 10SM CLR 22/14 A3004 210 61 1100 VRB/06 RMK AO2 $
63870K0J4 0J420160522090510005/22/16 09:05:31  5-MIN K0J4 221405Z AUTO VRB06KT 10SM CLR 22/13 A3004 210 58 1100 VRB/06 RMK AO2 $
63870K0J4 0J420160522091010005/22/16 09:10:31  5-MIN K0J4 221410Z AUTO 01005KT 10SM CLR 22/13 A3004 210 58 1100 010/05 RMK AO2 $
63870K0J4 0J420160522091510005/22/16 09:15:31  5-MIN K0J4 221415Z AUTO 01008KT 10SM CLR 22/13 A3004 210 56 1100 010/08 RMK AO2 $
63870K0J4 0J420160522092010005/22/16 09:20:31  5-MIN K0J4 221420Z AUTO 36006KT 10SM CLR 22/13 A3004 210 54 1100 360/06 RMK AO2 $
63870K0J4 0J420160522092510005/22/16 09:25:31  5-MIN K0J4 221425Z AUTO 02005KT 10SM CLR 22/13 A3003 210 54 1100 020/05 RMK AO2 $
63870K0J4 0J420160522093010005/22/16 09:30:31  5-MIN K0J4 221430Z AUTO VRB06KT 10SM CLR 23/13 A3003 210 55 1200 VRB/06 RMK AO2 $
63870K0J4 0J420160522093510005/22/16 09:35:31  5-MIN K0J4 221435Z AUTO 01006KT 10SM CLR 23/13 A3003 220 55 1200 010/06 RMK AO2 $
63870K0J4 0J420160522094010005/22/16 09:40:31  5-MIN K0J4 221440Z AUTO 01005KT 10SM CLR 23/13 A3002 220 53 1200 010/05 RMK AO2 $
63870K0J4 0J420160522094510005/22/16 09:45:31  5-MIN K0J4 221445Z AUTO 01006KT 10SM CLR 23/13 A3002 220 53 1200 010/06 RMK AO2 $
63870K0J4 0J420160522095010005/22/16 09:50:31  5-MIN K0J4 221450Z AUTO VRB05KT 10SM CLR 23/13 A3002 220 53 1300 VRB/05 RMK AO2 $
63870K0J4 0J420160522095512305/22/16 09:55:31  5-MIN K0J4 221455Z AUTO 02006KT 10SM CLR 23/13 A3002 230 53 1200 020/06 RMK AO2 SLP161 T02280128 51016 $
63870K0J4 0J420160522100010005/22/16 10:00:31  5-MIN K0J4 221500Z AUTO VRB06KT 10SM CLR 23/13 A3002 230 53 1300 VRB/06 RMK AO2 $
63870K0J4 0J420160522100510005/22/16 10:05:31  5-MIN K0J4 221505Z AUTO 01007KT 10SM CLR 23/13 A3001 230 53 1300 010/07 RMK AO2 $
63870K0J4 0J420160522101010005/22/16 10:10:31  5-MIN K0J4 221510Z AUTO VRB05KT 10SM CLR 24/13 A3002 230 51 1400 VRB/05 RMK AO2 $
63870K0J4 0J420160522101510005/22/16 10:15:31  5-MIN K0J4 221515Z AUTO 02008KT 10SM CLR 24/13 A3002 230 49 1400 020/08 RMK AO2 $
63870K0J4 0J420160522102011605/22/16 10:20:31  5-MIN K0J4 221520Z AUTO 35007KT 310V020 10SM CLR 24/13 A3001 230 49 1400 350/07 310V020 RMK AO2 $
63870K0J4 0J420160522102510005/22/16 10:25:31  5-MIN K0J4 221525Z AUTO 36008KT 10SM CLR 24/12 A3001 230 47 1400 360/08 RMK AO2 $
63870K0J4 0J420160522103010605/22/16 10:30:31  5-MIN K0J4 221530Z AUTO 33009G14KT 10SM CLR 23/12 A3001 230 47 1300 330/09G14 RMK AO2 $
63870K0J4 0J420160522103512205/22/16 10:35:31  5-MIN K0J4 221535Z AUTO 36007G14KT 330V030 10SM CLR 24/12 A3001 230 47 1400 360/07G14 330V030 RMK AO2 $
63870K0J4 0J420160522104012205/22/16 10:40:31  5-MIN K0J4 221540Z AUTO 36009G14KT 320V030 10SM CLR 24/12 A3001 230 47 1400 360/09G14 320V030 RMK AO2 $
63870K0J4 0J420160522104510005/22/16 10:45:31  5-MIN K0J4 221545Z AUTO 01005KT 10SM CLR 24/12 A3002 230 47 1400 010/05 RMK AO2 $
63870K0J4 0J420160522105010005/22/16 10:50:31  5-MIN K0J4 221550Z AUTO 36009KT 10SM CLR 24/12 A3001 230 47 1400 360/09 RMK AO2 $
63870K0J4 0J420160522105511705/22/16 10:55:31  5-MIN K0J4 221555Z AUTO VRB06KT 10SM CLR 24/12 A3001 230 47 1400 VRB/06 RMK AO2 SLP159 T02390122 $
63870K0J4 0J420160522110011605/22/16 11:00:31  5-MIN K0J4 221600Z AUTO 34007KT 310V010 10SM CLR 24/13 A3001 240 47 1400 340/07 310V010 RMK AO2 $
63870K0J4 0J420160522110510005/22/16 11:05:31  5-MIN K0J4 221605Z AUTO VRB06KT 10SM CLR 24/12 A3001 240 46 1400 VRB/06 RMK AO2 $
63870K0J4 0J420160522111010005/22/16 11:10:31  5-MIN K0J4 221610Z AUTO VRB05KT 10SM CLR 24/13 A3000 240 47 1400 VRB/05 RMK AO2 $
63870K0J4 0J420160522111511605/22/16 11:15:31  5-MIN K0J4 221615Z AUTO 34007KT 310V010 10SM CLR 24/13 A3000 240 47 1400 340/07 310V010 RMK AO2 $
63870K0J4 0J420160522112010005/22/16 11:20:31  5-MIN K0J4 221620Z AUTO 34008KT 10SM CLR 24/12 A3000 240 44 1400 340/08 RMK AO2 $
63870K0J4 0J420160522112511605/22/16 11:25:31  5-MIN K0J4 221625Z AUTO 36009KT 320V020 10SM CLR 24/12 A3000 240 46 1400 360/09 320V020 RMK AO2 $
63870K0J4 0J420160522113010605/22/16 11:30:31  5-MIN K0J4 221630Z AUTO VRB06G15KT 10SM CLR 24/12 A3000 240 46 1400 VRB/06G15 RMK AO2 $
63870K0J4 0J420160522113512205/22/16 11:35:31  5-MIN K0J4 221635Z AUTO 36007G15KT 310V020 10SM CLR 24/12 A3000 240 46 1400 360/07G15 310V020 RMK AO2 $
63870K0J4 0J420160522114010005/22/16 11:40:31  5-MIN K0J4 221640Z AUTO 01010KT 10SM CLR 25/13 A3000 240 48 1500 010/10 RMK AO2 $
63870K0J4 0J420160522114510005/22/16 11:45:31  5-MIN K0J4 221645Z AUTO VRB05KT 10SM CLR 25/13 A3000 240 46 1500 VRB/05 RMK AO2 $
63870K0J4 0J420160522115011605/22/16 11:50:31  5-MIN K0J4 221650Z AUTO 35007KT 320V020 10SM CLR 25/13 A3000 240 46 1500 350/07 320V020 RMK AO2 $
63870K0J4 0J420160522115511705/22/16 11:55:31  5-MIN K0J4 221655Z AUTO VRB06KT 10SM CLR 24/12 A3000 240 46 1400 VRB/06 RMK AO2 SLP156 T02440122 $
63870K0J4 0J420160522120010005/22/16 12:00:31  5-MIN K0J4 221700Z AUTO 36007KT 10SM CLR 25/12 A3001 240 44 1500 360/07 RMK AO2 $
63870K0J4 0J420160522120510005/22/16 12:05:31  5-MIN K0J4 221705Z AUTO 36009KT 10SM CLR 25/12 A3000 240 44 1500 360/09 RMK AO2 $
63870K0J4 0J420160522121010005/22/16 12:10:31  5-MIN K0J4 221710Z AUTO 03008KT 10SM CLR 26/13 A3000 240 44 1600 030/08 RMK AO2 $
63870K0J4 0J420160522121510005/22/16 12:15:31  5-MIN K0J4 221715Z AUTO 03010KT 10SM CLR 26/12 A3000 250 43 1600 030/10 RMK AO2 $
63870K0J4 0J420160522122010605/22/16 12:20:31  5-MIN K0J4 221720Z AUTO 02011G16KT 10SM CLR 26/13 A3000 250 44 1600 020/11G16 RMK AO2 $
63870K0J4 0J420160522122510605/22/16 12:25:31  5-MIN K0J4 221725Z AUTO 01008G16KT 10SM CLR 25/13 A3000 250 46 1500 010/08G16 RMK AO2 $
63870K0J4 0J420160522123010005/22/16 12:30:31  5-MIN K0J4 221730Z AUTO 01006KT 10SM CLR 26/13 A2999 250 44 1600 010/06 RMK AO2 $
63870K0J4 0J420160522123510005/22/16 12:35:31  5-MIN K0J4 221735Z AUTO VRB06KT 10SM CLR 26/13 A3000 250 44 1600 VRB/06 RMK AO2 $
63870K0J4 0J420160522124011605/22/16 12:40:31  5-MIN K0J4 221740Z AUTO 35008KT 300V030 10SM CLR 26/13 A3000 240 43 1600 350/08 300V030 RMK AO2 $
63870K0J4 0J420160522124510005/22/16 12:45:31  5-MIN K0J4 221745Z AUTO 01008KT 10SM CLR 26/12 A3000 240 41 1600 010/08 RMK AO2 $
63870K0J4 0J420160522125010005/22/16 12:50:31  5-MIN K0J4 221750Z AUTO 01009KT 10SM CLR 26/12 A3000 240 41 1600 010/09 RMK AO2 $
63870K0J4 0J420160522125513505/22/16 12:55:31  5-MIN K0J4 221755Z AUTO 02007KT 10SM CLR 26/12 A3000 240 40 1600 020/07 RMK AO2 SLP155 T02610117 10261 20178 58006 $
63870K0J4 0J420160522130010005/22/16 13:00:31  5-MIN K0J4 221800Z AUTO 01005KT 10SM CLR 26/11 A2999 250 37 1600 010/05 RMK AO2 $
63870K0J4 0J420160522130510005/22/16 13:05:31  5-MIN K0J4 221805Z AUTO VRB06KT 10SM CLR 26/11 A2999 250 38 1600 VRB/06 RMK AO2 $
63870K0J4 0J420160522131010605/22/16 13:10:31  5-MIN K0J4 221810Z AUTO 02009G16KT 10SM CLR 26/12 A2999 250 40 1600 020/09G16 RMK AO2 $
63870K0J4 0J420160522131512205/22/16 13:15:31  5-MIN K0J4 221815Z AUTO 01008G16KT 330V050 10SM CLR 26/11 A2999 250 38 1600 010/08G16 330V050 RMK AO2 $
63870K0J4 0J420160522132010605/22/16 13:20:31  5-MIN K0J4 221820Z AUTO 03012G15KT 10SM CLR 26/11 A2999 250 38 1600 030/12G15 RMK AO2 $
63870K0J4 0J420160522132510605/22/16 13:25:31  5-MIN K0J4 221825Z AUTO 03006G15KT 10SM CLR 27/11 A2999 250 37 1700 030/06G15 RMK AO2 $
63870K0J4 0J420160522133010005/22/16 13:30:31  5-MIN K0J4 221830Z AUTO 01007KT 10SM CLR 27/12 A2999 250 38 1700 010/07 RMK AO2 $
63870K0J4 0J420160522133510005/22/16 13:35:31  5-MIN K0J4 221835Z AUTO 00000KT 10SM CLR 27/12 A2999 250 40 1700 000/00 RMK AO2 $
63870K0J4 0J420160522134010005/22/16 13:40:31  5-MIN K0J4 221840Z AUTO VRB06KT 10SM CLR 27/12 A2999 250 38 1700 VRB/06 RMK AO2 $
63870K0J4 0J420160522134510005/22/16 13:45:31  5-MIN K0J4 221845Z AUTO 32006KT 10SM CLR 27/11 A2999 250 37 1700 320/06 RMK AO2 $
63870K0J4 0J420160522135010005/22/16 13:50:31  5-MIN K0J4 221850Z AUTO VRB06KT 10SM CLR 27/11 A2999 250 37 1700 VRB/06 RMK AO2 $
63870K0J4 0J420160522135512305/22/16 13:55:31  5-MIN K0J4 221855Z AUTO 02011G14KT 10SM CLR 27/11 A2999 250 36 1700 020/11G14 RMK AO2 SLP151 T02670106 $
63870K0J4 0J420160522140010605/22/16 14:00:31  5-MIN K0J4 221900Z AUTO 01007G14KT 10SM CLR 26/11 A2999 250 37 1600 010/07G14 RMK AO2 $
63870K0J4 0J420160522140510005/22/16 14:05:31  5-MIN K0J4 221905Z AUTO 02006KT 10SM CLR 27/11 A2999 250 37 1700 020/06 RMK AO2 $
63870K0J4 0J420160522141010605/22/16 14:10:31  5-MIN K0J4 221910Z AUTO 02010G15KT 10SM CLR 26/11 A2998 260 38 1600 020/10G15 RMK AO2 $
63870K0J4 0J420160522141510605/22/16 14:15:31  5-MIN K0J4 221915Z AUTO 32010G15KT 10SM CLR 26/11 A2998 260 38 1600 320/10G15 RMK AO2 $
63870K0J4 0J420160522142010605/22/16 14:20:31  5-MIN K0J4 221920Z AUTO VRB05G14KT 10SM CLR 27/11 A2998 260 37 1700 VRB/05G14 RMK AO2 $
63870K0J4 0J420160522142510005/22/16 14:25:31  5-MIN K0J4 221925Z AUTO 35006KT 10SM CLR 26/11 A2998 260 37 1600 350/06 RMK AO2 $
63870K0J4 0J420160522143010605/22/16 14:30:31  5-MIN K0J4 221930Z AUTO VRB06G14KT 10SM CLR 26/11 A2998 260 38 1600 VRB/06G14 RMK AO2 $
63870K0J4 0J420160522143510605/22/16 14:35:31  5-MIN K0J4 221935Z AUTO 36006G14KT 10SM CLR 26/11 A2998 260 37 1600 360/06G14 RMK AO2 $
63870K0J4 0J420160522144010005/22/16 14:40:31  5-MIN K0J4 221940Z AUTO 02007KT 10SM CLR 26/11 A2998 260 38 1600 020/07 RMK AO2 $
63870K0J4 0J420160522144512205/22/16 14:45:31  5-MIN K0J4 221945Z AUTO 36008G14KT 320V020 10SM CLR 27/11 A2998 260 37 1700 360/08G14 320V020 RMK AO2 $
63870K0J4 0J420160522145012205/22/16 14:50:31  5-MIN K0J4 221950Z AUTO 36007G16KT 320V030 10SM CLR 26/11 A2998 260 37 1600 360/07G16 320V030 RMK AO2 $
63870K0J4 0J420160522145513905/22/16 14:55:31  5-MIN K0J4 221955Z AUTO 02008G16KT 340V050 10SM CLR 27/11 A2998 260 37 1700 020/08G16 340V050 RMK AO2 SLP149 T02670111 $
63870K0J4 0J420160522150010605/22/16 15:00:31  5-MIN K0J4 222000Z AUTO 01008G14KT 10SM CLR 27/11 A2998 260 37 1700 010/08G14 RMK AO2 $
63870K0J4 0J420160522150510605/22/16 15:05:31  5-MIN K0J4 222005Z AUTO 03009G14KT 10SM CLR 27/11 A2998 260 37 1700 030/09G14 RMK AO2 $
63870K0J4 0J420160522151010605/22/16 15:10:31  5-MIN K0J4 222010Z AUTO 36010G14KT 10SM CLR 27/11 A2998 260 36 1700 360/10G14 RMK AO2 $
63870K0J4 0J420160522151511605/22/16 15:15:31  5-MIN K0J4 222015Z AUTO 30007KT 250V320 10SM CLR 27/11 A2998 260 37 1700 300/07 250V320 RMK AO2 $
63870K0J4 0J420160522152010005/22/16 15:20:31  5-MIN K0J4 222020Z AUTO 04004KT 10SM CLR 27/11 A2998 260 37 1700 040/04 RMK AO2 $
63870K0J4 0J420160522152511605/22/16 15:25:31  5-MIN K0J4 222025Z AUTO 34008KT 300V020 10SM CLR 27/12 A2998 260 38 1700 340/08 300V020 RMK AO2 $
63870K0J4 0J420160522153011605/22/16 15:30:31  5-MIN K0J4 222030Z AUTO 35008KT 320V030 10SM CLR 27/12 A2998 270 38 1700 350/08 320V030 RMK AO2 $
63870K0J4 0J420160522153510005/22/16 15:35:31  5-MIN K0J4 222035Z AUTO 01006KT 10SM CLR 27/11 A2997 270 37 1700 010/06 RMK AO2 $
63870K0J4 0J420160522154010605/22/16 15:40:31  5-MIN K0J4 222040Z AUTO 02010G15KT 10SM CLR 27/12 A2997 270 38 1700 020/10G15 RMK AO2 $
63870K0J4 0J420160522154512205/22/16 15:45:31  5-MIN K0J4 222045Z AUTO 35007G15KT 320V030 10SM CLR 27/11 A2997 270 36 1700 350/07G15 320V030 RMK AO2 $
63870K0J4 0J420160522155010005/22/16 15:50:31  5-MIN K0J4 222050Z AUTO 01010KT 10SM CLR 27/11 A2997 270 36 1700 010/10 RMK AO2 $
63870K0J4 0J420160522155512905/22/16 15:55:31  5-MIN K0J4 222055Z AUTO 02011G14KT 10SM CLR 27/11 A2997 270 37 1700 020/11G14 RMK AO2 SLP144 T02670111 57007 $
63870K0J4 0J420160522160010005/22/16 16:00:31  5-MIN K0J4 222100Z AUTO 04010KT 10SM CLR 27/11 A2997 270 37 1700 040/10 RMK AO2 $
63870K0J4 0J420160522160510005/22/16 16:05:31  5-MIN K0J4 222105Z AUTO 01010KT 10SM CLR 27/11 A2996 280 37 1700 010/10 RMK AO2 $
63870K0J4 0J420160522161010605/22/16 16:10:31  5-MIN K0J4 222110Z AUTO 01009G15KT 10SM CLR 27/11 A2996 280 37 1700 010/09G15 RMK AO2 $
63870K0J4 0J420160522161510005/22/16 16:15:31  5-MIN K0J4 222115Z AUTO 01008KT 10SM CLR 27/11 A2996 280 36 1700 010/08 RMK AO2 $
63870K0J4 0J420160522162010605/22/16 16:20:31  5-MIN K0J4 222120Z AUTO 02007G15KT 10SM CLR 27/11 A2996 280 37 1700 020/07G15 RMK AO2 $
63870K0J4 0J420160522162510005/22/16 16:25:31  5-MIN K0J4 222125Z AUTO 01007KT 10SM CLR 27/11 A2996 280 37 1700 010/07 RMK AO2 $
63870K0J4 0J420160522163011605/22/16 16:30:31  5-MIN K0J4 222130Z AUTO 01007KT 320V020 10SM CLR 27/11 A2995 280 37 1700 010/07 320V020 RMK AO2 $
63870K0J4 0J420160522163510005/22/16 16:35:31  5-MIN K0J4 222135Z AUTO VRB05KT 10SM CLR 26/11 A2995 280 37 1700 VRB/05 RMK AO2 $
63870K0J4 0J420160522164010005/22/16 16:40:31  5-MIN K0J4 222140Z AUTO 03007KT 10SM CLR 27/12 A2996 280 38 1700 030/07 RMK AO2 $
63870K0J4 0J420160522164510605/22/16 16:45:31  5-MIN K0J4 222145Z AUTO VRB06G15KT 10SM CLR 27/12 A2996 280 38 1700 VRB/06G15 RMK AO2 $
63870K0J4 0J420160522165010605/22/16 16:50:31  5-MIN K0J4 222150Z AUTO VRB04G15KT 10SM CLR 26/11 A2996 280 37 1700 VRB/04G15 RMK AO2 $
63870K0J4 0J420160522165511705/22/16 16:55:31  5-MIN K0J4 222155Z AUTO VRB04KT 10SM CLR 27/11 A2996 280 37 1700 VRB/04 RMK AO2 SLP141 T02670111 $
63870K0J4 0J420160522170010005/22/16 17:00:31  5-MIN K0J4 222200Z AUTO 35007KT 10SM CLR 27/11 A2996 280 37 1700 350/07 RMK AO2 $
63870K0J4 0J420160522170510005/22/16 17:05:31  5-MIN K0J4 222205Z AUTO 01008KT 10SM CLR 26/11 A2996 280 38 1700 010/08 RMK AO2 $
63870K0J4 0J420160522171010005/22/16 17:10:31  5-MIN K0J4 222210Z AUTO 01008KT 10SM CLR 26/11 A2996 280 38 1700 010/08 RMK AO2 $
63870K0J4 0J420160522171510005/22/16 17:15:31  5-MIN K0J4 222215Z AUTO VRB04KT 10SM CLR 27/11 A2996 280 37 1700 VRB/04 RMK AO2 $
63870K0J4 0J420160522172010005/22/16 17:20:31  5-MIN K0J4 222220Z AUTO 01006KT 10SM CLR 26/11 A2996 280 38 1700 010/06 RMK AO2 $
63870K0J4 0J420160522172510005/22/16 17:25:31  5-MIN K0J4 222225Z AUTO VRB06KT 10SM CLR 26/11 A2996 280 38 1700 VRB/06 RMK AO2 $
63870K0J4 0J420160522173010005/22/16 17:30:31  5-MIN K0J4 222230Z AUTO VRB05KT 10SM CLR 26/11 A2996 280 37 1700 VRB/05 RMK AO2 $
63870K0J4 0J420160522173510005/22/16 17:35:31  5-MIN K0J4 222235Z AUTO VRB05KT 10SM CLR 26/11 A2996 280 38 1700 VRB/05 RMK AO2 $
63870K0J4 0J420160522174010005/22/16 17:40:31  5-MIN K0J4 222240Z AUTO 01006KT 10SM CLR 26/11 A2996 280 37 1700 010/06 RMK AO2 $
63870K0J4 0J420160522174510005/22/16 17:45:31  5-MIN K0J4 222245Z AUTO 36005KT 10SM CLR 26/11 A2996 280 38 1600 360/05 RMK AO2 $
63870K0J4 0J420160522175010005/22/16 17:50:31  5-MIN K0J4 222250Z AUTO 36006KT 10SM CLR 26/11 A2996 280 38 1600 360/06 RMK AO2 $
63870K0J4 0J420160522175511705/22/16 17:55:31  5-MIN K0J4 222255Z AUTO 35004KT 10SM CLR 26/11 A2996 280 38 1600 350/04 RMK AO2 SLP141 T02560106 $
63870K0J4 0J420160522180010005/22/16 18:00:31  5-MIN K0J4 222300Z AUTO 02006KT 10SM CLR 26/11 A2996 280 38 1600 020/06 RMK AO2 $
63870K0J4 0J420160522180510005/22/16 18:05:31  5-MIN K0J4 222305Z AUTO 01004KT 10SM CLR 25/11 A2996 280 39 1500 010/04 RMK AO2 $
63870K0J4 0J420160522181010005/22/16 18:10:31  5-MIN K0J4 222310Z AUTO 01006KT 10SM CLR 25/11 A2995 280 39 1500 010/06 RMK AO2 $
63870K0J4 0J420160522181510005/22/16 18:15:31  5-MIN K0J4 222315Z AUTO 01005KT 10SM CLR 25/11 A2995 280 39 1500 010/05 RMK AO2 $
63870K0J4 0J420160522182010005/22/16 18:20:31  5-MIN K0J4 222320Z AUTO 01005KT 10SM CLR 25/11 A2995 280 41 1500 010/05 RMK AO2 $
63870K0J4 0J420160522182510005/22/16 18:25:31  5-MIN K0J4 222325Z AUTO 01005KT 10SM CLR 24/11 A2995 280 41 1500 010/05 RMK AO2 $
63870K0J4 0J420160522183010005/22/16 18:30:31  5-MIN K0J4 222330Z AUTO 01005KT 10SM CLR 24/11 A2996 280 41 1500 010/05 RMK AO2 $
63870K0J4 0J420160522183510005/22/16 18:35:31  5-MIN K0J4 222335Z AUTO 01004KT 10SM CLR 24/11 A2996 280 44 1400 010/04 RMK AO2 $
63870K0J4 0J420160522184010005/22/16 18:40:31  5-MIN K0J4 222340Z AUTO 35003KT 10SM CLR 24/11 A2995 280 44 1400 350/03 RMK AO2 $
63870K0J4 0J420160522184510005/22/16 18:45:31  5-MIN K0J4 222345Z AUTO 00000KT 10SM CLR 24/12 A2996 280 47 1400 000/00 RMK AO2 $
63870K0J4 0J420160522185010005/22/16 18:50:31  5-MIN K0J4 222350Z AUTO 36003KT 10SM CLR 23/12 A2996 280 47 1400 360/03 RMK AO2 $
63870K0J4 0J420160522185513505/22/16 18:55:31  5-MIN K0J4 222355Z AUTO 00000KT 10SM CLR 23/12 A2996 280 47 1400 000/00 RMK AO2 SLP140 T02330117 10272 20233 58010 $
63870K0J4 0J420160522190010005/22/16 19:00:31  5-MIN K0J4 230000Z AUTO 00000KT 10SM CLR 23/12 A2996 280 49 1400 000/00 RMK AO2 $
63870K0J4 0J420160522190510005/22/16 19:05:31  5-MIN K0J4 230005Z AUTO 00000KT 10SM CLR 23/13 A2996 280 53 1300 000/00 RMK AO2 $
63870K0J4 0J420160522191010005/22/16 19:10:31  5-MIN K0J4 230010Z AUTO 00000KT 10SM CLR 23/13 A2996 280 53 1300 000/00 RMK AO2 $
63870K0J4 0J420160522191510005/22/16 19:15:31  5-MIN K0J4 230015Z AUTO 00000KT 10SM CLR 22/13 A2996 280 56 1200 000/00 RMK AO2 $
63870K0J4 0J420160522192010005/22/16 19:20:31  5-MIN K0J4 230020Z AUTO 00000KT 10SM CLR 22/13 A2996 280 56 1200 000/00 RMK AO2 $
63870K0J4 0J420160522192510005/22/16 19:25:31  5-MIN K0J4 230025Z AUTO 00000KT 10SM CLR 22/13 A2996 280 54 1200 000/00 RMK AO2 $
63870K0J4 0J420160522193010005/22/16 19:30:31  5-MIN K0J4 230030Z AUTO 00000KT 10SM CLR 22/13 A2996 280 56 1200 000/00 RMK AO2 $
63870K0J4 0J420160522193510005/22/16 19:35:31  5-MIN K0J4 230035Z AUTO 00000KT 10SM CLR 22/13 A2996 280 56 1200 000/00 RMK AO2 $
63870K0J4 0J420160522194010005/22/16 19:40:31  5-MIN K0J4 230040Z AUTO 00000KT 10SM CLR 22/13 A2997 270 56 1200 000/00 RMK AO2 $
63870K0J4 0J420160522194510005/22/16 19:45:31  5-MIN K0J4 230045Z AUTO 00000KT 10SM CLR 22/13 A2997 270 58 1200 000/00 RMK AO2 $
63870K0J4 0J420160522195010005/22/16 19:50:31  5-MIN K0J4 230050Z AUTO 00000KT 10SM CLR 22/13 A2997 270 56 1200 000/00 RMK AO2 $
63870K0J4 0J420160522195511705/22/16 19:55:31  5-MIN K0J4 230055Z AUTO 35003KT 10SM CLR 21/12 A2997 270 56 1100 350/03 RMK AO2 SLP144 T02110122 $
63870K0J4 0J420160522200010005/22/16 20:00:31  5-MIN K0J4 230100Z AUTO 00000KT 10SM CLR 21/12 A2997 270 56 1100 000/00 RMK AO2 $
63870K0J4 0J420160522200510005/22/16 20:05:31  5-MIN K0J4 230105Z AUTO 34003KT 10SM CLR 21/12 A2997 270 56 1100 340/03 RMK AO2 $
63870K0J4 0J420160522201010005/22/16 20:10:31  5-MIN K0J4 230110Z AUTO 00000KT 10SM CLR 21/12 A2997 270 54 1100 000/00 RMK AO2 $
63870K0J4 0J420160522201510005/22/16 20:15:31  5-MIN K0J4 230115Z AUTO 00000KT 10SM CLR 21/12 A2997 270 54 1100 000/00 RMK AO2 $
63870K0J4 0J420160522202010005/22/16 20:20:31  5-MIN K0J4 230120Z AUTO 35003KT 10SM CLR 21/12 A2998 270 54 1100 350/03 RMK AO2 $
63870K0J4 0J420160522202510005/22/16 20:25:31  5-MIN K0J4 230125Z AUTO 35003KT 10SM CLR 21/12 A2998 260 56 1000 350/03 RMK AO2 $
63870K0J4 0J420160522203010005/22/16 20:30:31  5-MIN K0J4 230130Z AUTO 00000KT 10SM CLR 21/12 A2998 260 56 1000 000/00 RMK AO2 $
63870K0J4 0J420160522203510005/22/16 20:35:31  5-MIN K0J4 230135Z AUTO 00000KT 10SM CLR 20/12 A2997 270 58 1000 000/00 RMK AO2 $
63870K0J4 0J420160522204009905/22/16 20:40:31  5-MIN K0J4 230140Z AUTO 00000KT 10SM CLR 19/12 A2997 270 62 900 000/00 RMK AO2 $
63870K0J4 0J420160522204509905/22/16 20:45:31  5-MIN K0J4 230145Z AUTO 34003KT 10SM CLR 19/12 A2997 270 62 900 340/03 RMK AO2 $
63870K0J4 0J420160522205010005/22/16 20:50:31  5-MIN K0J4 230150Z AUTO 36003KT 10SM CLR 20/12 A2997 270 60 1000 360/03 RMK AO2 $
63870K0J4 0J420160522205511605/22/16 20:55:31  5-MIN K0J4 230155Z AUTO 00000KT 10SM CLR 18/13 A2997 270 72 800 000/00 RMK AO2 SLP146 T01830133 $
63870K0J4 0J420160522210009905/22/16 21:00:31  5-MIN K0J4 230200Z AUTO 00000KT 10SM CLR 18/13 A2997 270 70 800 000/00 RMK AO2 $
63870K0J4 0J420160522210509905/22/16 21:05:31  5-MIN K0J4 230205Z AUTO 00000KT 10SM CLR 18/13 A2997 270 75 700 000/00 RMK AO2 $
63870K0J4 0J420160522211009905/22/16 21:10:31  5-MIN K0J4 230210Z AUTO 00000KT 10SM CLR 18/13 A2997 270 75 700 000/00 RMK AO2 $
63870K0J4 0J420160522211509905/22/16 21:15:31  5-MIN K0J4 230215Z AUTO 00000KT 10SM CLR 17/13 A2997 270 78 600 000/00 RMK AO2 $
63870K0J4 0J420160522212009905/22/16 21:20:31  5-MIN K0J4 230220Z AUTO 00000KT 10SM CLR 17/13 A2997 270 78 600 000/00 RMK AO2 $
63870K0J4 0J420160522212509905/22/16 21:25:31  5-MIN K0J4 230225Z AUTO 00000KT 10SM CLR 17/13 A2997 270 78 600 000/00 RMK AO2 $
63870K0J4 0J420160522213009905/22/16 21:30:31  5-MIN K0J4 230230Z AUTO 00000KT 10SM CLR 18/13 A2997 270 75 700 000/00 RMK AO2 $
63870K0J4 0J420160522213509905/22/16 21:35:31  5-MIN K0J4 230235Z AUTO 00000KT 10SM CLR 18/13 A2997 270 72 700 000/00 RMK AO2 $
63870K0J4 0J420160522214009905/22/16 21:40:31  5-MIN K0J4 230240Z AUTO 00000KT 10SM CLR 17/13 A2997 270 80 600 000/00 RMK AO2 $
63870K0J4 0J420160522214509905/22/16 21:45:31  5-MIN K0J4 230245Z AUTO 00000KT 10SM CLR 17/13 A2997 270 80 600 000/00 RMK AO2 $
63870K0J4 0J420160522215009905/22/16 21:50:31  5-MIN K0J4 230250Z AUTO 00000KT 10SM CLR 17/13 A2998 260 80 600 000/00 RMK AO2 $
63870K0J4 0J420160522215512205/22/16 21:55:31  5-MIN K0J4 230255Z AUTO 00000KT 10SM CLR 16/14 A2998 260 86 500 000/00 RMK AO2 SLP148 T01610139 56004 $
63870K0J4 0J420160522220009905/22/16 22:00:31  5-MIN K0J4 230300Z AUTO 00000KT 10SM CLR 16/13 A2998 260 83 500 000/00 RMK AO2 $
63870K0J4 0J420160522220509905/22/16 22:05:31  5-MIN K0J4 230305Z AUTO 00000KT 10SM CLR 16/13 A2998 260 83 500 000/00 RMK AO2 $
63870K0J4 0J420160522221009905/22/16 22:10:31  5-MIN K0J4 230310Z AUTO 00000KT 10SM CLR 17/13 A2998 260 77 600 000/00 RMK AO2 $
63870K0J4 0J420160522221509905/22/16 22:15:31  5-MIN K0J4 230315Z AUTO 00000KT 10SM CLR 16/13 A2999 260 83 500 000/00 RMK AO2 $
63870K0J4 0J420160522222009905/22/16 22:20:31  5-MIN K0J4 230320Z AUTO 00000KT 10SM CLR 16/13 A2999 260 86 400 000/00 RMK AO2 $
63870K0J4 0J420160522222509905/22/16 22:25:31  5-MIN K0J4 230325Z AUTO 00000KT 10SM CLR 16/13 A2999 250 83 500 000/00 RMK AO2 $
63870K0J4 0J420160522223009905/22/16 22:30:31  5-MIN K0J4 230330Z AUTO 00000KT 10SM CLR 16/13 A2999 250 83 400 000/00 RMK AO2 $
63870K0J4 0J420160522223509905/22/16 22:35:31  5-MIN K0J4 230335Z AUTO 00000KT 10SM CLR 15/13 A2999 250 86 400 000/00 RMK AO2 $
63870K0J4 0J420160522224009905/22/16 22:40:31  5-MIN K0J4 230340Z AUTO 00000KT 10SM CLR 15/13 A2999 250 90 400 000/00 RMK AO2 $
63870K0J4 0J420160522224509905/22/16 22:45:31  5-MIN K0J4 230345Z AUTO 00000KT 10SM CLR 16/13 A2999 250 86 400 000/00 RMK AO2 $
63870K0J4 0J420160522225009905/22/16 22:50:31  5-MIN K0J4 230350Z AUTO 00000KT 10SM CLR 16/13 A2999 250 86 400 000/00 RMK AO2 $
63870K0J4 0J420160522225511605/22/16 22:55:31  5-MIN K0J4 230355Z AUTO 00000KT 10SM CLR 15/13 A2999 250 90 400 000/00 RMK AO2 SLP151 T01500133 $
63870K0J4 0J420160522230009905/22/16 23:00:31  5-MIN K0J4 230400Z AUTO 00000KT 10SM CLR 15/13 A2999 250 90 400 000/00 RMK AO2 $
63870K0J4 0J420160522230509905/22/16 23:05:31  5-MIN K0J4 230405Z AUTO 00000KT 10SM CLR 15/13 A2999 250 90 400 000/00 RMK AO2 $
63870K0J4 0J420160522231009905/22/16 23:10:31  5-MIN K0J4 230410Z AUTO 00000KT 10SM CLR 15/13 A2999 260 90 400 000/00 RMK AO2 $
63870K0J4 0J420160522231509905/22/16 23:15:31  5-MIN K0J4 230415Z AUTO 00000KT 10SM CLR 15/13 A2998 260 86 400 000/00 RMK AO2 $
63870K0J4 0J420160522232009905/22/16 23:20:31  5-MIN K0J4 230420Z AUTO 00000KT 10SM CLR 14/13 A2998 260 90 300 000/00 RMK AO2 $
63870K0J4 0J420160522232509905/22/16 23:25:31  5-MIN K0J4 230425Z AUTO 00000KT 10SM CLR 14/13 A2998 260 90 300 000/00 RMK AO2 $
63870K0J4 0J420160522233009905/22/16 23:30:31  5-MIN K0J4 230430Z AUTO 00000KT 10SM CLR 15/13 A2998 260 86 400 000/00 RMK AO2 $
63870K0J4 0J420160522233509905/22/16 23:35:31  5-MIN K0J4 230435Z AUTO 00000KT 10SM CLR 15/13 A2998 260 86 400 000/00 RMK AO2 $
63870K0J4 0J420160522234009905/22/16 23:40:31  5-MIN K0J4 230440Z AUTO 00000KT 10SM CLR 15/12 A2998 260 83 400 000/00 RMK AO2 $
63870K0J4 0J420160522234509905/22/16 23:45:31  5-MIN K0J4 230445Z AUTO 00000KT 10SM CLR 15/12 A2998 260 83 400 000/00 RMK AO2 $
63870K0J4 0J420160522235009905/22/16 23:50:31  5-MIN K0J4 230450Z AUTO 00000KT 10SM CLR 14/13 A2998 260 90 300 000/00 RMK AO2 $
63870K0J4 0J420160522235512605/22/16 23:55:31  5-MIN K0J4 230455Z AUTO 00000KT 10SM CLR 14/12 A2998 260 86 300 000/00 RMK AO2 SLP149 T01440122 402720144 $
63870K0J4 0J420160523000009905/23/16 00:00:31  5-MIN K0J4 230500Z AUTO 00000KT 10SM CLR 14/12 A2998 260 86 300 000/00 RMK AO2 $
63870K0J4 0J420160523000509905/23/16 00:05:31  5-MIN K0J4 230505Z AUTO 00000KT 10SM CLR 14/13 A2998 260 93 200 000/00 RMK AO2 $
63870K0J4 0J420160523001009905/23/16 00:10:31  5-MIN K0J4 230510Z AUTO 00000KT 10SM CLR 14/12 A2998 260 90 200 000/00 RMK AO2 $
63870K0J4 0J420160523001509905/23/16 00:15:31  5-MIN K0J4 230515Z AUTO 00000KT 10SM CLR 14/13 A2998 260 93 200 000/00 RMK AO2 $
63870K0J4 0J420160523002009905/23/16 00:20:31  5-MIN K0J4 230520Z AUTO 00000KT 10SM CLR 14/12 A2998 260 90 200 000/00 RMK AO2 $
63870K0J4 0J420160523002509905/23/16 00:25:31  5-MIN K0J4 230525Z AUTO 00000KT 10SM CLR 14/12 A2998 260 90 200 000/00 RMK AO2 $
63870K0J4 0J420160523003009905/23/16 00:30:31  5-MIN K0J4 230530Z AUTO 00000KT 10SM CLR 14/12 A2998 260 90 200 000/00 RMK AO2 $
63870K0J4 0J420160523003509905/23/16 00:35:31  5-MIN K0J4 230535Z AUTO 00000KT 10SM CLR 13/12 A2998 260 93 200 000/00 RMK AO2 $
63870K0J4 0J420160523004009905/23/16 00:40:31  5-MIN K0J4 230540Z AUTO 00000KT 10SM CLR 13/12 A2998 260 93 200 000/00 RMK AO2 $
63870K0J4 0J420160523004509905/23/16 00:45:31  5-MIN K0J4 230545Z AUTO 00000KT 10SM CLR 14/12 A2998 260 90 200 000/00 RMK AO2 $
63870K0J4 0J420160523005009905/23/16 00:50:31  5-MIN K0J4 230550Z AUTO 00000KT 10SM CLR 14/13 A2998 260 93 200 000/00 RMK AO2 $
63870K0J4 0J420160523005513405/23/16 00:55:31  5-MIN K0J4 230555Z AUTO 00000KT 10SM CLR 14/12 A2998 260 90 200 000/00 RMK AO2 SLP148 T01390122 10233 20133 51008 $
63870K0J4 0J420160523010009905/23/16 01:00:31  5-MIN K0J4 230600Z AUTO 00000KT 10SM CLR 14/13 A2998 260 93 200 000/00 RMK AO2 $
63870K0J4 0J420160523010509905/23/16 01:05:31  5-MIN K0J4 230605Z AUTO 00000KT 10SM CLR 14/12 A2998 260 90 200 000/00 RMK AO2 $
63870K0J4 0J420160523011009905/23/16 01:10:31  5-MIN K0J4 230610Z AUTO 00000KT 10SM CLR 13/12 A2998 260 89 200 000/00 RMK AO2 $
63870K0J4 0J420160523011509905/23/16 01:15:31  5-MIN K0J4 230615Z AUTO 00000KT 10SM CLR 13/12 A2997 270 93 200 000/00 RMK AO2 $
63870K0J4 0J420160523012009905/23/16 01:20:31  5-MIN K0J4 230620Z AUTO 00000KT 10SM CLR 13/12 A2997 270 93 200 000/00 RMK AO2 $
63870K0J4 0J420160523012509905/23/16 01:25:31  5-MIN K0J4 230625Z AUTO 00000KT 10SM CLR 14/12 A2997 270 90 200 000/00 RMK AO2 $
63870K0J4 0J420160523013009905/23/16 01:30:31  5-MIN K0J4 230630Z AUTO 00000KT 10SM CLR 13/12 A2998 270 93 200 000/00 RMK AO2 $
63870K0J4 0J420160523013509905/23/16 01:35:31  5-MIN K0J4 230635Z AUTO 00000KT 10SM CLR 13/12 A2998 260 89 200 000/00 RMK AO2 $
63870K0J4 0J420160523014009905/23/16 01:40:31  5-MIN K0J4 230640Z AUTO 00000KT 10SM CLR 13/12 A2998 260 89 200 000/00 RMK AO2 $
63870K0J4 0J420160523014509905/23/16 01:45:31  5-MIN K0J4 230645Z AUTO 00000KT 10SM CLR 14/12 A2998 260 90 200 000/00 RMK AO2 $
63870K0J4 0J420160523015009905/23/16 01:50:31  5-MIN K0J4 230650Z AUTO 00000KT 10SM CLR 13/12 A2998 260 89 200 000/00 RMK AO2 $
63870K0J4 0J420160523015511605/23/16 01:55:31  5-MIN K0J4 230655Z AUTO 00000KT 10SM CLR 13/12 A2998 260 89 200 000/00 RMK AO2 SLP148 T01330117 $
63870K0J4 0J420160523020009905/23/16 02:00:31  5-MIN K0J4 230700Z AUTO 00000KT 10SM CLR 13/12 A2998 260 89 200 000/00 RMK AO2 $
63870K0J4 0J420160523020509905/23/16 02:05:31  5-MIN K0J4 230705Z AUTO 00000KT 10SM CLR 13/12 A2998 260 89 200 000/00 RMK AO2 $
63870K0J4 0J420160523021009905/23/16 02:10:31  5-MIN K0J4 230710Z AUTO 00000KT 10SM CLR 13/12 A2998 260 89 200 000/00 RMK AO2 $
63870K0J4 0J420160523021509905/23/16 02:15:31  5-MIN K0J4 230715Z AUTO 00000KT 10SM CLR 13/12 A2998 260 89 200 000/00 RMK AO2 $
63870K0J4 0J420160523022009905/23/16 02:20:31  5-MIN K0J4 230720Z AUTO 00000KT 10SM CLR 13/12 A2998 260 89 200 000/00 RMK AO2 $
63870K0J4 0J420160523022509905/23/16 02:25:31  5-MIN K0J4 230725Z AUTO 00000KT 10SM CLR 13/12 A2999 260 89 200 000/00 RMK AO2 $
63870K0J4 0J420160523023009905/23/16 02:30:31  5-MIN K0J4 230730Z AUTO 00000KT 10SM CLR 13/12 A2999 260 89 200 000/00 RMK AO2 $
63870K0J4 0J420160523023509905/23/16 02:35:31  5-MIN K0J4 230735Z AUTO 00000KT 10SM CLR 13/11 A2998 260 89 100 000/00 RMK AO2 $
63870K0J4 0J420160523024009905/23/16 02:40:31  5-MIN K0J4 230740Z AUTO 00000KT 10SM CLR 13/11 A2998 260 89 100 000/00 RMK AO2 $
63870K0J4 0J420160523024509905/23/16 02:45:31  5-MIN K0J4 230745Z AUTO 00000KT 10SM CLR 13/12 A2998 260 89 200 000/00 RMK AO2 $
63870K0J4 0J420160523025009905/23/16 02:50:31  5-MIN K0J4 230750Z AUTO 00000KT 10SM CLR 13/12 A2998 260 93 100 000/00 RMK AO2 $
63870K0J4 0J420160523025511605/23/16 02:55:31  5-MIN K0J4 230755Z AUTO 00000KT 10SM CLR 13/11 A2998 260 89 100 000/00 RMK AO2 SLP148 T01280111 $
63870K0J4 0J420160523030009905/23/16 03:00:31  5-MIN K0J4 230800Z AUTO 00000KT 10SM CLR 13/12 A2998 260 89 200 000/00 RMK AO2 $
63870K0J4 0J420160523030509905/23/16 03:05:31  5-MIN K0J4 230805Z AUTO 00000KT 10SM CLR 13/11 A2998 260 89 100 000/00 RMK AO2 $
63870K0J4 0J420160523031009905/23/16 03:10:31  5-MIN K0J4 230810Z AUTO 00000KT 10SM CLR 13/12 A2998 260 89 200 000/00 RMK AO2 $
63870K0J4 0J420160523031509905/23/16 03:15:31  5-MIN K0J4 230815Z AUTO 00000KT 10SM CLR 13/11 A2998 260 86 200 000/00 RMK AO2 $
63870K0J4 0J420160523032009905/23/16 03:20:31  5-MIN K0J4 230820Z AUTO 32003KT 10SM CLR 13/11 A2998 260 86 200 320/03 RMK AO2 $
63870K0J4 0J420160523032509905/23/16 03:25:31  5-MIN K0J4 230825Z AUTO 33003KT 10SM CLR 13/12 A2997 270 89 200 330/03 RMK AO2 $
63870K0J4 0J420160523033009905/23/16 03:30:31  5-MIN K0J4 230830Z AUTO 00000KT 10SM CLR 13/12 A2997 270 89 200 000/00 RMK AO2 $
63870K0J4 0J420160523033509905/23/16 03:35:31  5-MIN K0J4 230835Z AUTO VRB03KT 10SM CLR 13/12 A2998 270 89 200 VRB/03 RMK AO2 $
63870K0J4 0J420160523034009905/23/16 03:40:31  5-MIN K0J4 230840Z AUTO 32003KT 10SM CLR 13/12 A2998 260 89 200 320/03 RMK AO2 $
63870K0J4 0J420160523034509905/23/16 03:45:31  5-MIN K0J4 230845Z AUTO 00000KT 10SM CLR 14/12 A2998 260 86 200 000/00 RMK AO2 $
63870K0J4 0J420160523035009905/23/16 03:50:31  5-MIN K0J4 230850Z AUTO 00000KT 10SM CLR 13/12 A2998 260 89 200 000/00 RMK AO2 $
63870K0J4 0J420160523035512205/23/16 03:55:31  5-MIN K0J4 230855Z AUTO 00000KT 10SM CLR 13/12 A2998 260 89 200 000/00 RMK AO2 SLP148 T01330117 58000 $
63870K0J4 0J420160523040009905/23/16 04:00:31  5-MIN K0J4 230900Z AUTO 00000KT 10SM CLR 13/12 A2998 260 89 200 000/00 RMK AO2 $
63870K0J4 0J420160523040509905/23/16 04:05:31  5-MIN K0J4 230905Z AUTO 00000KT 10SM CLR 13/11 A2998 260 89 100 000/00 RMK AO2 $
63870K0J4 0J420160523041009705/23/16 04:10:31  5-MIN K0J4 230910Z AUTO 00000KT 10SM CLR 12/11 A2998 260 89 0 000/00 RMK AO2 $
63870K0J4 0J420160523041509705/23/16 04:15:31  5-MIN K0J4 230915Z AUTO 00000KT 10SM CLR 12/11 A2998 260 89 0 000/00 RMK AO2 $
63870K0J4 0J420160523042009705/23/16 04:20:31  5-MIN K0J4 230920Z AUTO 00000KT 10SM CLR 12/11 A2998 260 93 0 000/00 RMK AO2 $
63870K0J4 0J420160523042509705/23/16 04:25:31  5-MIN K0J4 230925Z AUTO 00000KT 10SM CLR 12/11 A2998 260 93 0 000/00 RMK AO2 $
63870K0J4 0J420160523043009705/23/16 04:30:31  5-MIN K0J4 230930Z AUTO 00000KT 10SM CLR 12/11 A2998 260 93 0 000/00 RMK AO2 $
63870K0J4 0J420160523043509905/23/16 04:35:31  5-MIN K0J4 230935Z AUTO 00000KT 10SM CLR 13/11 A2998 260 89 100 000/00 RMK AO2 $
63870K0J4 0J420160523044009705/23/16 04:40:31  5-MIN K0J4 230940Z AUTO 00000KT 10SM CLR 12/11 A2998 260 93 0 000/00 RMK AO2 $
63870K0J4 0J420160523044509705/23/16 04:45:31  5-MIN K0J4 230945Z AUTO 00000KT 10SM CLR 12/11 A2998 260 93 0 000/00 RMK AO2 $
63870K0J4 0J420160523045009705/23/16 04:50:31  5-MIN K0J4 230950Z AUTO 00000KT 10SM CLR 12/11 A2998 260 93 0 000/00 RMK AO2 $
63870K0J4 0J420160523045511405/23/16 04:55:31  5-MIN K0J4 230955Z AUTO 00000KT 10SM CLR 12/11 A2998 260 89 0 000/00 RMK AO2 SLP148 T01220106 $
63870K0J4 0J420160523050009705/23/16 05:00:31  5-MIN K0J4 231000Z AUTO 00000KT 10SM CLR 12/11 A2998 260 89 0 000/00 RMK AO2 $
63870K0J4 0J420160523050509905/23/16 05:05:31  5-MIN K0J4 231005Z AUTO 00000KT 10SM CLR 13/11 A2998 260 89 100 000/00 RMK AO2 $
63870K0J4 0J420160523051009905/23/16 05:10:31  5-MIN K0J4 231010Z AUTO 00000KT 10SM CLR 13/12 A2999 260 93 100 000/00 RMK AO2 $
63870K0J4 0J420160523051509705/23/16 05:15:31  5-MIN K0J4 231015Z AUTO 00000KT 10SM CLR 12/11 A2999 250 93 0 000/00 RMK AO2 $
63870K0J4 0J420160523052009705/23/16 05:20:31  5-MIN K0J4 231020Z AUTO 00000KT 10SM CLR 12/11 A2999 250 93 0 000/00 RMK AO2 $
63870K0J4 0J420160523052509705/23/16 05:25:31  5-MIN K0J4 231025Z AUTO 00000KT 10SM CLR 12/11 A2999 250 93 0 000/00 RMK AO2 $
63870K0J4 0J420160523053009705/23/16 05:30:31  5-MIN K0J4 231030Z AUTO 00000KT 10SM CLR 12/11 A2999 250 89 0 000/00 RMK AO2 $
63870K0J4 0J420160523053509705/23/16 05:35:31  5-MIN K0J4 231035Z AUTO 00000KT 10SM CLR 12/11 A2999 250 89 0 000/00 RMK AO2 $
63870K0J4 0J420160523054009705/23/16 05:40:31  5-MIN K0J4 231040Z AUTO 00000KT 10SM CLR 12/11 A2999 250 89 0 000/00 RMK AO2 $
63870K0J4 0J420160523054509705/23/16 05:45:31  5-MIN K0J4 231045Z AUTO 00000KT 10SM CLR 12/11 A2999 250 89 0 000/00 RMK AO2 $
63870K0J4 0J420160523055009705/23/16 05:50:31  5-MIN K0J4 231050Z AUTO 00000KT 10SM CLR 12/11 A3000 250 93 0 000/00 RMK AO2 $
63870K0J4 0J420160523055511405/23/16 05:55:31  5-MIN K0J4 231055Z AUTO 00000KT 10SM CLR 12/11 A3000 240 89 0 000/00 RMK AO2 SLP157 T01220106 $
63870K0J4 0J420160523060009705/23/16 06:00:31  5-MIN K0J4 231100Z AUTO 00000KT 10SM CLR 12/11 A3000 240 93 0 000/00 RMK AO2 $
63870K0J4 0J420160523060509705/23/16 06:05:31  5-MIN K0J4 231105Z AUTO 00000KT 10SM CLR 12/11 A3001 240 93 0 000/00 RMK AO2 $
63870K0J4 0J420160523061009705/23/16 06:10:31  5-MIN K0J4 231110Z AUTO 00000KT 10SM CLR 12/11 A3001 230 93 0 000/00 RMK AO2 $
63870K0J4 0J420160523061509905/23/16 06:15:31  5-MIN K0J4 231115Z AUTO 00000KT 10SM CLR 13/12 A3002 230 89 100 000/00 RMK AO2 $
63870K0J4 0J420160523062009905/23/16 06:20:31  5-MIN K0J4 231120Z AUTO 00000KT 10SM CLR 13/12 A3002 230 93 100 000/00 RMK AO2 $
63870K0J4 0J420160523062509905/23/16 06:25:31  5-MIN K0J4 231125Z AUTO 09003KT 10SM CLR 13/12 A3002 220 93 100 090/03 RMK AO2 $
63870K0J4 0J420160523063009905/23/16 06:30:31  5-MIN K0J4 231130Z AUTO 00000KT 10SM CLR 13/12 A3002 230 93 100 000/00 RMK AO2 $
63870K0J4 0J420160523063509905/23/16 06:35:31  5-MIN K0J4 231135Z AUTO 00000KT 10SM CLR 14/12 A3002 230 86 300 000/00 RMK AO2 $
63870K0J4 0J420160523064009905/23/16 06:40:31  5-MIN K0J4 231140Z AUTO 00000KT 10SM CLR 15/13 A3002 230 86 300 000/00 RMK AO2 $
63870K0J4 0J420160523064509905/23/16 06:45:31  5-MIN K0J4 231145Z AUTO 00000KT 10SM CLR 16/13 A3002 220 83 400 000/00 RMK AO2 $
63870K0J4 0J420160523065009905/23/16 06:50:31  5-MIN K0J4 231150Z AUTO 00000KT 10SM CLR 16/13 A3002 230 86 400 000/00 RMK AO2 $
63870K0J4 0J420160523065513405/23/16 06:55:31  5-MIN K0J4 231155Z AUTO 00000KT 10SM CLR 16/14 A3002 230 86 500 000/00 RMK AO2 SLP161 T01610139 10161 20117 53001 $
63870K0J4 0J420160523070009905/23/16 07:00:31  5-MIN K0J4 231200Z AUTO 00000KT 10SM CLR 16/14 A3001 230 86 500 000/00 RMK AO2 $
63870K0J4 0J420160523070509905/23/16 07:05:31  5-MIN K0J4 231205Z AUTO 00000KT 10SM CLR 17/14 A3001 230 86 500 000/00 RMK AO2 $
63870K0J4 0J420160523071009905/23/16 07:10:31  5-MIN K0J4 231210Z AUTO 00000KT 10SM CLR 17/14 A3001 230 86 500 000/00 RMK AO2 $
63870K0J4 0J420160523071509705/23/16 07:15:31  5-MIN K0J4 231215Z AUTO 00000KT 10SM CLR 17/15 A3002 230 87 600 000/00 RMK AO2
63870K0J4 0J420160523072009705/23/16 07:20:31  5-MIN K0J4 231220Z AUTO 00000KT 10SM CLR 17/15 A3002 230 87 600 000/00 RMK AO2
63870K0J4 0J420160523072509705/23/16 07:25:31  5-MIN K0J4 231225Z AUTO 00000KT 10SM CLR 18/14 A3002 220 81 600 000/00 RMK AO2
63870K0J4 0J420160523073009705/23/16 07:30:31  5-MIN K0J4 231230Z AUTO 00000KT 10SM CLR 18/15 A3002 220 83 600 000/00 RMK AO2
63870K0J4 0J420160523073509705/23/16 07:35:31  5-MIN K0J4 231235Z AUTO 00000KT 10SM CLR 18/14 A3002 220 81 600 000/00 RMK AO2
63870K0J4 0J420160523074009705/23/16 07:40:31  5-MIN K0J4 231240Z AUTO 00000KT 10SM CLR 19/14 A3003 220 75 800 000/00 RMK AO2
63870K0J4 0J420160523074509905/23/16 07:45:31  5-MIN K0J4 231245Z AUTO 00000KT 10SM CLR 19/14 A3003 220 72 800 000/00 RMK AO2 $
63870K0J4 0J420160523075009905/23/16 07:50:31  5-MIN K0J4 231250Z AUTO 36003KT 10SM CLR 20/13 A3003 210 63 900 360/03 RMK AO2 $
63870K0J4 0J420160523075511605/23/16 07:55:31  5-MIN K0J4 231255Z AUTO 01004KT 10SM CLR 20/12 A3003 210 60 900 010/04 RMK AO2 SLP166 T02000122 $
63870K0J4 0J420160523080009905/23/16 08:00:31  5-MIN K0J4 231300Z AUTO 00000KT 10SM CLR 20/12 A3003 210 60 900 000/00 RMK AO2 $
63870K0J4 0J420160523080509905/23/16 08:05:31  5-MIN K0J4 231305Z AUTO 00000KT 10SM CLR 21/13 A3003 210 60 900 000/00 RMK AO2 $
63870K0J4 0J420160523081009905/23/16 08:10:31  5-MIN K0J4 231310Z AUTO 00000KT 10SM CLR 21/13 A3003 210 60 900 000/00 RMK AO2 $
63870K0J4 0J420160523081510005/23/16 08:15:31  5-MIN K0J4 231315Z AUTO 00000KT 10SM CLR 21/13 A3004 210 58 1000 000/00 RMK AO2 $
63870K0J4 0J420160523082010005/23/16 08:20:31  5-MIN K0J4 231320Z AUTO 00000KT 10SM CLR 21/13 A3003 210 61 1000 000/00 RMK AO2 $
63870K0J4 0J420160523082510005/23/16 08:25:31  5-MIN K0J4 231325Z AUTO 04004KT 10SM CLR 21/13 A3003 210 61 1000 040/04 RMK AO2 $
63870K0J4 0J420160523083010005/23/16 08:30:31  5-MIN K0J4 231330Z AUTO 04004KT 10SM CLR 22/13 A3003 210 58 1100 040/04 RMK AO2 $
63870K0J4 0J420160523083510005/23/16 08:35:31  5-MIN K0J4 231335Z AUTO 04004KT 10SM CLR 22/13 A3003 210 58 1100 040/04 RMK AO2 $
63870K0J4 0J420160523084010005/23/16 08:40:31  5-MIN K0J4 231340Z AUTO 03005KT 10SM CLR 22/13 A3003 210 58 1100 030/05 RMK AO2 $
63870K0J4 0J420160523084510005/23/16 08:45:31  5-MIN K0J4 231345Z AUTO 02003KT 10SM CLR 22/13 A3003 210 58 1100 020/03 RMK AO2 $
63870K0J4 0J420160523085010005/23/16 08:50:31  5-MIN K0J4 231350Z AUTO 00000KT 10SM CLR 22/14 A3003 210 59 1100 000/00 RMK AO2 $
63870K0J4 0J420160523085511705/23/16 08:55:31  5-MIN K0J4 231355Z AUTO 00000KT 10SM CLR 22/13 A3003 210 56 1100 000/00 RMK AO2 SLP166 T02220133 $
63870K0J4 0J420160523090010005/23/16 09:00:31  5-MIN K0J4 231400Z AUTO 00000KT 10SM CLR 23/14 A3003 210 57 1200 000/00 RMK AO2 $
63870K0J4 0J420160523090510005/23/16 09:05:31  5-MIN K0J4 231405Z AUTO 00000KT 10SM CLR 23/14 A3004 210 57 1300 000/00 RMK AO2 $
63870K0J4 0J420160523091010005/23/16 09:10:31  5-MIN K0J4 231410Z AUTO 00000KT 10SM CLR 23/14 A3003 210 55 1300 000/00 RMK AO2 $
63870K0J4 0J420160523091510005/23/16 09:15:31  5-MIN K0J4 231415Z AUTO 04003KT 10SM CLR 24/14 A3003 210 53 1300 040/03 RMK AO2 $
63870K0J4 0J420160523092010005/23/16 09:20:31  5-MIN K0J4 231420Z AUTO 06003KT 10SM CLR 24/13 A3003 210 51 1300 060/03 RMK AO2 $
63870K0J4 0J420160523092510005/23/16 09:25:31  5-MIN K0J4 231425Z AUTO 00000KT 10SM CLR 24/13 A3003 210 51 1300 000/00 RMK AO2 $
63870K0J4 0J420160523093010005/23/16 09:30:31  5-MIN K0J4 231430Z AUTO 05004KT 10SM CLR 24/13 A3003 210 49 1400 050/04 RMK AO2 $
63870K0J4 0J420160523093510005/23/16 09:35:31  5-MIN K0J4 231435Z AUTO 03004KT 10SM CLR 24/13 A3003 210 49 1400 030/04 RMK AO2 $
63870K0J4 0J420160523094010005/23/16 09:40:31  5-MIN K0J4 231440Z AUTO 10004KT 10SM CLR 24/13 A3003 220 49 1400 100/04 RMK AO2 $
63870K0J4 0J420160523094510005/23/16 09:45:31  5-MIN K0J4 231445Z AUTO 07003KT 10SM CLR 24/12 A3003 220 46 1400 070/03 RMK AO2 $
63870K0J4 0J420160523095010005/23/16 09:50:31  5-MIN K0J4 231450Z AUTO 07004KT 10SM CLR 25/13 A3002 220 46 1500 070/04 RMK AO2 $
63870K0J4 0J420160523095512305/23/16 09:55:31  5-MIN K0J4 231455Z AUTO 07004KT 10SM CLR 25/13 A3002 220 46 1500 070/04 RMK AO2 SLP163 T02500128 53012 $
63870K0J4 0J420160523100010005/23/16 10:00:31  5-MIN K0J4 231500Z AUTO 00000KT 10SM CLR 24/13 A3002 220 49 1300 000/00 RMK AO2 $
63870K0J4 0J420160523100510005/23/16 10:05:31  5-MIN K0J4 231505Z AUTO 16004KT 10SM CLR 24/13 A3002 220 49 1400 160/04 RMK AO2 $
63870K0J4 0J420160523101010005/23/16 10:10:31  5-MIN K0J4 231510Z AUTO 05004KT 10SM CLR 25/12 A3002 220 44 1500 050/04 RMK AO2 $
63870K0J4 0J420160523101510005/23/16 10:15:31  5-MIN K0J4 231515Z AUTO 11005KT 10SM CLR 25/12 A3002 220 44 1500 110/05 RMK AO2 $
63870K0J4 0J420160523102010005/23/16 10:20:31  5-MIN K0J4 231520Z AUTO 09005KT 10SM CLR 25/11 A3002 220 41 1500 090/05 RMK AO2 $
63870K0J4 0J420160523102510005/23/16 10:25:31  5-MIN K0J4 231525Z AUTO 11005KT 10SM CLR 26/11 A3002 220 40 1500 110/05 RMK AO2 $
63870K0J4 0J420160523103010005/23/16 10:30:31  5-MIN K0J4 231530Z AUTO VRB04KT 10SM CLR 26/12 A3002 220 41 1500 VRB/04 RMK AO2 $
63870K0J4 0J420160523103510005/23/16 10:35:31  5-MIN K0J4 231535Z AUTO 00000KT 10SM CLR 25/11 A3002 220 41 1500 000/00 RMK AO2 $
63870K0J4 0J420160523104010005/23/16 10:40:31  5-MIN K0J4 231540Z AUTO 09005KT 10SM CLR 26/12 A3002 220 41 1500 090/05 RMK AO2 $
63870K0J4 0J420160523104510005/23/16 10:45:31  5-MIN K0J4 231545Z AUTO VRB03KT 10SM CLR 26/11 A3002 220 37 1600 VRB/03 RMK AO2 $
63870K0J4 0J420160523105010005/23/16 10:50:31  5-MIN K0J4 231550Z AUTO 08005KT 10SM CLR 26/11 A3002 220 37 1600 080/05 RMK AO2 $
63870K0J4 0J420160523105511705/23/16 10:55:31  5-MIN K0J4 231555Z AUTO 00000KT 10SM CLR 26/12 A3002 220 40 1600 000/00 RMK AO2 SLP162 T02610117 $
63870K0J4 0J420160523110010005/23/16 11:00:31  5-MIN K0J4 231600Z AUTO 13006KT 10SM CLR 26/11 A3002 220 38 1600 130/06 RMK AO2 $
63870K0J4 0J420160523110510005/23/16 11:05:31  5-MIN K0J4 231605Z AUTO VRB03KT 10SM CLR 26/10 A3002 220 37 1500 VRB/03 RMK AO2 $
63870K0J4 0J420160523111010005/23/16 11:10:31  5-MIN K0J4 231610Z AUTO 11005KT 10SM CLR 26/11 A3002 220 37 1600 110/05 RMK AO2 $
63870K0J4 0J420160523111510005/23/16 11:15:31  5-MIN K0J4 231615Z AUTO 00000KT 10SM CLR 26/09 A3002 220 34 1600 000/00 RMK AO2 $
63870K0J4 0J420160523112010005/23/16 11:20:31  5-MIN K0J4 231620Z AUTO VRB03KT 10SM CLR 26/09 A3002 220 34 1600 VRB/03 RMK AO2 $
63870K0J4 0J420160523112510005/23/16 11:25:31  5-MIN K0J4 231625Z AUTO VRB05KT 10SM CLR 27/09 A3002 220 33 1700 VRB/05 RMK AO2 $
63870K0J4 0J420160523113010005/23/16 11:30:31  5-MIN K0J4 231630Z AUTO VRB03KT 10SM CLR 26/09 A3002 220 34 1600 VRB/03 RMK AO2 $
63870K0J4 0J420160523113510005/23/16 11:35:31  5-MIN K0J4 231635Z AUTO VRB03KT 10SM CLR 26/10 A3002 220 36 1600 VRB/03 RMK AO2 $
63870K0J4 0J420160523114010005/23/16 11:40:31  5-MIN K0J4 231640Z AUTO 00000KT 10SM CLR 27/11 A3002 220 36 1700 000/00 RMK AO2 $
63870K0J4 0J420160523114510005/23/16 11:45:31  5-MIN K0J4 231645Z AUTO VRB04KT 10SM CLR 27/09 A3002 220 32 1700 VRB/04 RMK AO2 $
63870K0J4 0J420160523115010005/23/16 11:50:31  5-MIN K0J4 231650Z AUTO 00000KT 10SM CLR 27/08 A3002 220 31 1700 000/00 RMK AO2 $
63870K0J4 0J420160523115511705/23/16 11:55:31  5-MIN K0J4 231655Z AUTO 08006KT 10SM CLR 27/10 A3002 220 33 1700 080/06 RMK AO2 SLP162 T02720100 $
63870K0J4 0J420160523120010005/23/16 12:00:31  5-MIN K0J4 231700Z AUTO 00000KT 10SM CLR 27/11 A3002 220 34 1700 000/00 RMK AO2 $
63870K0J4 0J420160523120510005/23/16 12:05:31  5-MIN K0J4 231705Z AUTO VRB03KT 10SM CLR 27/10 A3002 220 34 1700 VRB/03 RMK AO2 $
63870K0J4 0J420160523121010005/23/16 12:10:31  5-MIN K0J4 231710Z AUTO 00000KT 10SM CLR 27/09 A3002 220 33 1700 000/00 RMK AO2 $
63870K0J4 0J420160523121510005/23/16 12:15:31  5-MIN K0J4 231715Z AUTO VRB03KT 10SM CLR 27/10 A3002 220 34 1700 VRB/03 RMK AO2 $
63870K0J4 0J420160523122010005/23/16 12:20:31  5-MIN K0J4 231720Z AUTO 18005KT 10SM CLR 27/11 A3002 220 36 1700 180/05 RMK AO2 $
63870K0J4 0J420160523122510005/23/16 12:25:31  5-MIN K0J4 231725Z AUTO 00000KT 10SM CLR 26/10 A3002 220 36 1600 000/00 RMK AO2 $
63870K0J4 0J420160523123010005/23/16 12:30:31  5-MIN K0J4 231730Z AUTO 23004KT 10SM CLR 27/11 A3002 220 36 1700 230/04 RMK AO2 $
63870K0J4 0J420160523123510005/23/16 12:35:31  5-MIN K0J4 231735Z AUTO 21003KT 10SM CLR 27/10 A3002 220 34 1700 210/03 RMK AO2 $
63870K0J4 0J420160523124010005/23/16 12:40:31  5-MIN K0J4 231740Z AUTO 00000KT 10SM CLR 27/11 A3002 220 34 1700 000/00 RMK AO2 $
63870K0J4 0J420160523210509905/23/16 21:05:31  5-MIN K0J4 240205Z AUTO 00000KT 10SM CLR 19/16 A3002 230 78 800 000/00 RMK AO2 $
63870K0J4 0J420160523211009905/23/16 21:10:31  5-MIN K0J4 240210Z AUTO 00000KT 10SM CLR 19/16 A3002 230 78 800 000/00 RMK AO2 $
63870K0J4 0J420160523211509905/23/16 21:15:31  5-MIN K0J4 240215Z AUTO 00000KT 10SM CLR 19/16 A3002 230 78 800 000/00 RMK AO2 $
63870K0J4 0J420160523212009905/23/16 21:20:31  5-MIN K0J4 240220Z AUTO 00000KT 10SM CLR 19/16 A3002 220 81 800 000/00 RMK AO2 $
63870K0J4 0J420160523212509905/23/16 21:25:31  5-MIN K0J4 240225Z AUTO 00000KT 10SM CLR 19/15 A3002 220 78 800 000/00 RMK AO2 $
63870K0J4 0J420160523213009905/23/16 21:30:31  5-MIN K0J4 240230Z AUTO 00000KT 10SM CLR 19/15 A3003 220 78 800 000/00 RMK AO2 $
63870K0J4 0J420160523213509905/23/16 21:35:31  5-MIN K0J4 240235Z AUTO 00000KT 10SM CLR 19/16 A3003 220 81 800 000/00 RMK AO2 $
63870K0J4 0J420160523214009905/23/16 21:40:31  5-MIN K0J4 240240Z AUTO 00000KT 10SM CLR 18/15 A3003 210 81 700 000/00 RMK AO2 $
63870K0J4 0J420160523214509905/23/16 21:45:31  5-MIN K0J4 240245Z AUTO 00000KT 10SM CLR 18/15 A3003 210 81 700 000/00 RMK AO2 $
63870K0J4 0J420160523215009905/23/16 21:50:31  5-MIN K0J4 240250Z AUTO 00000KT 10SM CLR 18/15 A3003 210 81 700 000/00 RMK AO2 $
63870K0J4 0J420160523215512205/23/16 21:55:31  5-MIN K0J4 240255Z AUTO 00000KT 10SM CLR 18/15 A3003 210 81 700 000/00 RMK AO2 SLP166 T01830150 53001 $
63870K0J4 0J420160523220009905/23/16 22:00:31  5-MIN K0J4 240300Z AUTO 00000KT 10SM CLR 18/15 A3003 210 81 700 000/00 RMK AO2 $
63870K0J4 0J420160523220509905/23/16 22:05:31  5-MIN K0J4 240305Z AUTO 00000KT 10SM CLR 19/14 A3003 210 72 800 000/00 RMK AO2 $
63870K0J4 0J420160523221009905/23/16 22:10:31  5-MIN K0J4 240310Z AUTO 00000KT 10SM CLR 18/15 A3004 210 81 700 000/00 RMK AO2 $
63870K0J4 0J420160523221509905/23/16 22:15:31  5-MIN K0J4 240315Z AUTO 00000KT 10SM CLR 18/15 A3004 210 81 700 000/00 RMK AO2 $
63870K0J4 0J420160523222009905/23/16 22:20:31  5-MIN K0J4 240320Z AUTO 00000KT 10SM CLR 17/14 A3004 210 83 600 000/00 RMK AO2 $
63870K0J4 0J420160523222509905/23/16 22:25:31  5-MIN K0J4 240325Z AUTO 00000KT 10SM CLR 17/14 A3004 210 83 600 000/00 RMK AO2 $
63870K0J4 0J420160523223009905/23/16 22:30:31  5-MIN K0J4 240330Z AUTO 00000KT 10SM CLR 17/14 A3004 210 83 600 000/00 RMK AO2 $
63870K0J4 0J420160523223509905/23/16 22:35:31  5-MIN K0J4 240335Z AUTO 00000KT 10SM CLR 17/14 A3004 210 80 600 000/00 RMK AO2 $
63870K0J4 0J420160523224009905/23/16 22:40:31  5-MIN K0J4 240340Z AUTO 00000KT 10SM CLR 17/14 A3004 210 80 600 000/00 RMK AO2 $
63870K0J4 0J420160523224509905/23/16 22:45:31  5-MIN K0J4 240345Z AUTO 00000KT 10SM CLR 18/14 A3004 210 81 600 000/00 RMK AO2 $
63870K0J4 0J420160523225009905/23/16 22:50:31  5-MIN K0J4 240350Z AUTO 00000KT 10SM CLR 17/14 A3004 210 83 600 000/00 RMK AO2 $
63870K0J4 0J420160523225511605/23/16 22:55:31  5-MIN K0J4 240355Z AUTO 00000KT 10SM CLR 17/14 A3003 210 83 600 000/00 RMK AO2 SLP167 T01720144 $
63870K0J4 0J420160523230009905/23/16 23:00:31  5-MIN K0J4 240400Z AUTO 00000KT 10SM CLR 17/14 A3003 210 83 600 000/00 RMK AO2 $
63870K0J4 0J420160523230509905/23/16 23:05:31  5-MIN K0J4 240405Z AUTO 00000KT 10SM CLR 17/14 A3003 210 83 500 000/00 RMK AO2 $
63870K0J4 0J420160523231009905/23/16 23:10:31  5-MIN K0J4 240410Z AUTO 00000KT 10SM CLR 17/14 A3003 210 83 500 000/00 RMK AO2 $
63870K0J4 0J420160523231509905/23/16 23:15:31  5-MIN K0J4 240415Z AUTO 00000KT 10SM CLR 17/14 A3003 210 83 500 000/00 RMK AO2 $
63870K0J4 0J420160523232009905/23/16 23:20:31  5-MIN K0J4 240420Z AUTO 00000KT 10SM CLR 17/14 A3003 210 83 500 000/00 RMK AO2 $
63870K0J4 0J420160523232509905/23/16 23:25:31  5-MIN K0J4 240425Z AUTO 00000KT 10SM CLR 17/14 A3004 210 86 500 000/00 RMK AO2 $
63870K0J4 0J420160523233009905/23/16 23:30:31  5-MIN K0J4 240430Z AUTO 00000KT 10SM CLR 16/14 A3004 210 86 400 000/00 RMK AO2 $
63870K0J4 0J420160523233509905/23/16 23:35:31  5-MIN K0J4 240435Z AUTO 00000KT 10SM CLR 17/13 A3004 210 80 500 000/00 RMK AO2 $
63870K0J4 0J420160523234009905/23/16 23:40:31  5-MIN K0J4 240440Z AUTO 00000KT 10SM CLR 17/13 A3004 210 80 500 000/00 RMK AO2 $
63870K0J4 0J420160523234509905/23/16 23:45:31  5-MIN K0J4 240445Z AUTO 00000KT 10SM CLR 16/13 A3003 210 83 400 000/00 RMK AO2 $
63870K0J4 0J420160523235009905/23/16 23:50:31  5-MIN K0J4 240450Z AUTO 00000KT 10SM CLR 16/13 A3003 210 83 400 000/00 RMK AO2 $
63870K0J4 0J420160523235512605/23/16 23:55:31  5-MIN K0J4 240455Z AUTO 00000KT 10SM CLR 16/13 A3004 210 86 400 000/00 RMK AO2 SLP167 T01560133 402940117 $
63870K0J4 0J420160524000009905/24/16 00:00:31  5-MIN K0J4 240500Z AUTO 00000KT 10SM CLR 16/13 A3004 210 83 400 000/00 RMK AO2 $
63870K0J4 0J420160524000509905/24/16 00:05:31  5-MIN K0J4 240505Z AUTO 00000KT 10SM CLR 16/13 A3004 210 83 400 000/00 RMK AO2 $
63870K0J4 0J420160524001009905/24/16 00:10:31  5-MIN K0J4 240510Z AUTO 00000KT 10SM CLR 17/14 A3004 210 86 500 000/00 RMK AO2 $
63870K0J4 0J420160524001509905/24/16 00:15:31  5-MIN K0J4 240515Z AUTO 00000KT 10SM CLR 17/14 A3004 210 86 500 000/00 RMK AO2 $
63870K0J4 0J420160524002009905/24/16 00:20:31  5-MIN K0J4 240520Z AUTO 00000KT 10SM CLR 15/13 A3004 210 90 300 000/00 RMK AO2 $
63870K0J4 0J420160524002509905/24/16 00:25:31  5-MIN K0J4 240525Z AUTO 00000KT 10SM CLR 15/13 A3004 210 90 300 000/00 RMK AO2 $
63870K0J4 0J420160524003009905/24/16 00:30:31  5-MIN K0J4 240530Z AUTO 00000KT 10SM CLR 16/13 A3004 210 86 400 000/00 RMK AO2 $
63870K0J4 0J420160524003509905/24/16 00:35:31  5-MIN K0J4 240535Z AUTO 00000KT 10SM CLR 16/14 A3004 210 90 400 000/00 RMK AO2 $
63870K0J4 0J420160524004009905/24/16 00:40:31  5-MIN K0J4 240540Z AUTO 00000KT 10SM CLR 16/14 A3004 210 86 400 000/00 RMK AO2 $
63870K0J4 0J420160524004509905/24/16 00:45:31  5-MIN K0J4 240545Z AUTO 00000KT 10SM CLR 16/14 A3004 210 86 400 000/00 RMK AO2 $
63870K0J4 0J420160524005009905/24/16 00:50:31  5-MIN K0J4 240550Z AUTO 00000KT 10SM CLR 16/14 A3004 210 86 400 000/00 RMK AO2 $
63870K0J4 0J420160524005513405/24/16 00:55:31  5-MIN K0J4 240555Z AUTO 00000KT 10SM CLR 16/14 A3004 210 86 400 000/00 RMK AO2 SLP168 T01610139 10250 20150 51020 $
63870K0J4 0J420160524010009905/24/16 01:00:31  5-MIN K0J4 240600Z AUTO 00000KT 10SM CLR 16/14 A3004 210 86 400 000/00 RMK AO2 $
63870K0J4 0J420160524010509905/24/16 01:05:31  5-MIN K0J4 240605Z AUTO 00000KT 10SM CLR 16/13 A3004 210 86 400 000/00 RMK AO2 $
63870K0J4 0J420160524011009905/24/16 01:10:31  5-MIN K0J4 240610Z AUTO 00000KT 10SM CLR 16/13 A3004 210 86 400 000/00 RMK AO2 $
63870K0J4 0J420160524011509905/24/16 01:15:31  5-MIN K0J4 240615Z AUTO 00000KT 10SM CLR 16/14 A3004 200 86 400 000/00 RMK AO2 $
63870K0J4 0J420160524012009905/24/16 01:20:31  5-MIN K0J4 240620Z AUTO 00000KT 10SM CLR 15/13 A3004 200 90 300 000/00 RMK AO2 $
63870K0J4 0J420160524012509905/24/16 01:25:31  5-MIN K0J4 240625Z AUTO 00000KT 10SM CLR 15/13 A3005 200 90 300 000/00 RMK AO2 $
63870K0J4 0J420160524013009905/24/16 01:30:31  5-MIN K0J4 240630Z AUTO 02004KT 10SM CLR 15/13 A3005 200 90 300 020/04 RMK AO2 $
63870K0J4 0J420160524013509905/24/16 01:35:31  5-MIN K0J4 240635Z AUTO 00000KT 10SM CLR 16/13 A3005 200 86 400 000/00 RMK AO2 $
63870K0J4 0J420160524014009905/24/16 01:40:31  5-MIN K0J4 240640Z AUTO 00000KT 10SM CLR 16/14 A3004 200 90 400 000/00 RMK AO2 $
63870K0J4 0J420160524014509905/24/16 01:45:31  5-MIN K0J4 240645Z AUTO 00000KT 10SM CLR 16/13 A3005 200 86 400 000/00 RMK AO2 $
63870K0J4 0J420160524015009905/24/16 01:50:31  5-MIN K0J4 240650Z AUTO 00000KT 10SM CLR 16/13 A3005 200 86 400 000/00 RMK AO2 $
63870K0J4 0J420160524015511605/24/16 01:55:31  5-MIN K0J4 240655Z AUTO 00000KT 10SM CLR 16/13 A3004 200 86 400 000/00 RMK AO2 SLP170 T01560133 $
63870K0J4 0J420160524020009905/24/16 02:00:31  5-MIN K0J4 240700Z AUTO 00000KT 10SM CLR 16/13 A3004 210 86 400 000/00 RMK AO2 $
63870K0J4 0J420160524020509905/24/16 02:05:31  5-MIN K0J4 240705Z AUTO 00000KT 10SM CLR 15/13 A3004 210 90 300 000/00 RMK AO2 $
63870K0J4 0J420160524021009905/24/16 02:10:31  5-MIN K0J4 240710Z AUTO 00000KT 10SM CLR 15/13 A3004 210 90 300 000/00 RMK AO2 $
63870K0J4 0J420160524021509905/24/16 02:15:31  5-MIN K0J4 240715Z AUTO 00000KT 10SM CLR 16/13 A3004 210 86 400 000/00 RMK AO2 $
63870K0J4 0J420160524022009905/24/16 02:20:31  5-MIN K0J4 240720Z AUTO 00000KT 10SM CLR 15/14 A3004 210 93 300 000/00 RMK AO2 $
63870K0J4 0J420160524022509905/24/16 02:25:31  5-MIN K0J4 240725Z AUTO 00000KT 10SM CLR 15/13 A3004 210 90 300 000/00 RMK AO2 $
63870K0J4 0J420160524023009905/24/16 02:30:31  5-MIN K0J4 240730Z AUTO 00000KT 10SM CLR 14/13 A3004 210 90 200 000/00 RMK AO2 $
63870K0J4 0J420160524023509905/24/16 02:35:31  5-MIN K0J4 240735Z AUTO 00000KT 10SM CLR 15/13 A3004 200 86 300 000/00 RMK AO2 $
63870K0J4 0J420160524024009905/24/16 02:40:31  5-MIN K0J4 240740Z AUTO 00000KT 10SM CLR 15/13 A3004 200 90 300 000/00 RMK AO2 $
63870K0J4 0J420160524024509905/24/16 02:45:31  5-MIN K0J4 240745Z AUTO 00000KT 10SM CLR 15/13 A3004 200 90 300 000/00 RMK AO2 $
63870K0J4 0J420160524025009905/24/16 02:50:31  5-MIN K0J4 240750Z AUTO 00000KT 10SM CLR 14/13 A3004 200 93 200 000/00 RMK AO2 $
63870K0J4 0J420160524025511605/24/16 02:55:31  5-MIN K0J4 240755Z AUTO 00000KT 10SM CLR 15/13 A3004 200 90 300 000/00 RMK AO2 SLP170 T01500133 $
63870K0J4 0J420160524030009905/24/16 03:00:31  5-MIN K0J4 240800Z AUTO 00000KT 10SM CLR 14/13 A3004 200 90 200 000/00 RMK AO2 $
63870K0J4 0J420160524030509905/24/16 03:05:31  5-MIN K0J4 240805Z AUTO 00000KT 10SM CLR 14/13 A3005 200 93 200 000/00 RMK AO2 $
63870K0J4 0J420160524031009905/24/16 03:10:31  5-MIN K0J4 240810Z AUTO 00000KT 10SM CLR 15/13 A3004 200 90 300 000/00 RMK AO2 $
63870K0J4 0J420160524031509905/24/16 03:15:31  5-MIN K0J4 240815Z AUTO 00000KT 10SM CLR 14/13 A3004 200 90 200 000/00 RMK AO2 $
63870K0J4 0J420160524032009905/24/16 03:20:31  5-MIN K0J4 240820Z AUTO 00000KT 10SM CLR 14/13 A3004 200 90 200 000/00 RMK AO2 $
63870K0J4 0J420160524032509905/24/16 03:25:31  5-MIN K0J4 240825Z AUTO 00000KT 10SM CLR 14/13 A3004 200 90 200 000/00 RMK AO2 $
63870K0J4 0J420160524033009905/24/16 03:30:31  5-MIN K0J4 240830Z AUTO 00000KT 10SM CLR 14/13 A3004 200 90 200 000/00 RMK AO2 $
63870K0J4 0J420160524033509905/24/16 03:35:31  5-MIN K0J4 240835Z AUTO 00000KT 10SM CLR 14/13 A3004 200 90 200 000/00 RMK AO2 $
63870K0J4 0J420160524034009905/24/16 03:40:31  5-MIN K0J4 240840Z AUTO 00000KT 10SM CLR 14/13 A3005 200 90 200 000/00 RMK AO2 $
63870K0J4 0J420160524034509905/24/16 03:45:31  5-MIN K0J4 240845Z AUTO 00000KT 10SM CLR 14/13 A3005 200 90 200 000/00 RMK AO2 $
63870K0J4 0J420160524035009905/24/16 03:50:31  5-MIN K0J4 240850Z AUTO 00000KT 10SM CLR 14/13 A3005 200 90 200 000/00 RMK AO2 $
63870K0J4 0J420160524035512205/24/16 03:55:31  5-MIN K0J4 240855Z AUTO 00000KT 10SM CLR 14/13 A3005 200 90 200 000/00 RMK AO2 SLP171 T01440128 53002 $
63870K0J4 0J420160524040009905/24/16 04:00:31  5-MIN K0J4 240900Z AUTO 00000KT 10SM CLR 14/13 A3005 200 90 200 000/00 RMK AO2 $
63870K0J4 0J420160524040509905/24/16 04:05:31  5-MIN K0J4 240905Z AUTO 00000KT 10SM CLR 14/13 A3005 200 90 200 000/00 RMK AO2 $
63870K0J4 0J420160524041009905/24/16 04:10:31  5-MIN K0J4 240910Z AUTO 00000KT 10SM CLR 14/13 A3005 200 90 200 000/00 RMK AO2 $
63870K0J4 0J420160524041509905/24/16 04:15:31  5-MIN K0J4 240915Z AUTO 00000KT 10SM CLR 14/13 A3005 190 90 200 000/00 RMK AO2 $
63870K0J4 0J420160524042009905/24/16 04:20:31  5-MIN K0J4 240920Z AUTO 00000KT 10SM CLR 14/13 A3005 190 90 200 000/00 RMK AO2 $
63870K0J4 0J420160524042509905/24/16 04:25:31  5-MIN K0J4 240925Z AUTO 00000KT 10SM CLR 14/13 A3006 190 90 200 000/00 RMK AO2 $
63870K0J4 0J420160524043009905/24/16 04:30:31  5-MIN K0J4 240930Z AUTO 00000KT 10SM CLR 14/13 A3006 190 93 100 000/00 RMK AO2 $
63870K0J4 0J420160524043509905/24/16 04:35:31  5-MIN K0J4 240935Z AUTO 00000KT 10SM CLR 14/12 A3006 190 90 100 000/00 RMK AO2 $
63870K0J4 0J420160524044009905/24/16 04:40:31  5-MIN K0J4 240940Z AUTO 00000KT 10SM CLR 14/12 A3006 190 90 100 000/00 RMK AO2 $
63870K0J4 0J420160524044509905/24/16 04:45:31  5-MIN K0J4 240945Z AUTO 00000KT 10SM CLR 14/12 A3006 180 90 100 000/00 RMK AO2 $
63870K0J4 0J420160524045009905/24/16 04:50:31  5-MIN K0J4 240950Z AUTO 00000KT 10SM CLR 14/13 A3007 180 93 100 000/00 RMK AO2 $
63870K0J4 0J420160524045511605/24/16 04:55:31  5-MIN K0J4 240955Z AUTO 00000KT 10SM CLR 14/13 A3007 180 93 100 000/00 RMK AO2 SLP179 T01390128 $
63870K0J4 0J420160524050009905/24/16 05:00:31  5-MIN K0J4 241000Z AUTO 00000KT 10SM CLR 14/12 A3007 170 90 100 000/00 RMK AO2 $
63870K0J4 0J420160524050509905/24/16 05:05:31  5-MIN K0J4 241005Z AUTO 00000KT 10SM CLR 13/12 A3008 170 93 100 000/00 RMK AO2 $
63870K0J4 0J420160524051009905/24/16 05:10:31  5-MIN K0J4 241010Z AUTO 00000KT 10SM CLR 14/13 A3008 170 93 100 000/00 RMK AO2 $
63870K0J4 0J420160524051509905/24/16 05:15:31  5-MIN K0J4 241015Z AUTO 00000KT 10SM CLR 15/13 A3008 170 86 200 000/00 RMK AO2 $
63870K0J4 0J420160524052009905/24/16 05:20:31  5-MIN K0J4 241020Z AUTO 00000KT 10SM CLR 14/13 A3008 170 93 100 000/00 RMK AO2 $
63870K0J4 0J420160524052509905/24/16 05:25:31  5-MIN K0J4 241025Z AUTO 00000KT 10SM CLR 14/13 A3009 160 93 100 000/00 RMK AO2 $
63870K0J4 0J420160524053009905/24/16 05:30:31  5-MIN K0J4 241030Z AUTO 00000KT 10SM CLR 14/13 A3008 160 93 100 000/00 RMK AO2 $
63870K0J4 0J420160524053509905/24/16 05:35:31  5-MIN K0J4 241035Z AUTO 00000KT 10SM CLR 14/13 A3009 160 90 200 000/00 RMK AO2 $
63870K0J4 0J420160524054009905/24/16 05:40:31  5-MIN K0J4 241040Z AUTO 00000KT 10SM CLR 14/13 A3008 160 90 200 000/00 RMK AO2 $
63870K0J4 0J420160524054509905/24/16 05:45:31  5-MIN K0J4 241045Z AUTO 00000KT 10SM CLR 14/13 A3009 160 93 200 000/00 RMK AO2 $
63870K0J4 0J420160524055009905/24/16 05:50:31  5-MIN K0J4 241050Z AUTO 00000KT 10SM CLR 14/13 A3009 160 93 200 000/00 RMK AO2 $
63870K0J4 0J420160524055511605/24/16 05:55:31  5-MIN K0J4 241055Z AUTO 00000KT 10SM CLR 14/13 A3009 160 93 200 000/00 RMK AO2 SLP186 T01440133 $
63870K0J4 0J420160524060009905/24/16 06:00:31  5-MIN K0J4 241100Z AUTO 00000KT 10SM CLR 14/13 A3009 160 90 200 000/00 RMK AO2 $
63870K0J4 0J420160524060509905/24/16 06:05:31  5-MIN K0J4 241105Z AUTO 00000KT 10SM CLR 14/12 A3010 150 90 100 000/00 RMK AO2 $
63870K0J4 0J420160524061009905/24/16 06:10:31  5-MIN K0J4 241110Z AUTO 00000KT 10SM CLR 14/13 A3010 150 93 100 000/00 RMK AO2 $
63870K0J4 0J420160524061509905/24/16 06:15:31  5-MIN K0J4 241115Z AUTO 00000KT 10SM CLR 14/13 A3010 150 93 100 000/00 RMK AO2 $
63870K0J4 0J420160524062009905/24/16 06:20:31  5-MIN K0J4 241120Z AUTO 00000KT 10SM CLR 14/13 A3010 150 93 200 000/00 RMK AO2 $
63870K0J4 0J420160524062509905/24/16 06:25:31  5-MIN K0J4 241125Z AUTO 00000KT 10SM CLR 15/13 A3010 150 90 200 000/00 RMK AO2 $
63870K0J4 0J420160524063009905/24/16 06:30:31  5-MIN K0J4 241130Z AUTO 00000KT 10SM CLR 15/14 A3010 150 93 200 000/00 RMK AO2 $
63870K0J4 0J420160524063509905/24/16 06:35:31  5-MIN K0J4 241135Z AUTO 00000KT 10SM CLR 16/14 A3011 140 90 300 000/00 RMK AO2 $
63870K0J4 0J420160524064009905/24/16 06:40:31  5-MIN K0J4 241140Z AUTO 00000KT 10SM CLR 16/14 A3011 140 90 300 000/00 RMK AO2 $
63870K0J4 0J420160524064509905/24/16 06:45:31  5-MIN K0J4 241145Z AUTO 00000KT 10SM CLR 16/14 A3011 140 90 300 000/00 RMK AO2 $
63870K0J4 0J420160524065009905/24/16 06:50:31  5-MIN K0J4 241150Z AUTO 00000KT 10SM CLR 16/14 A3011 140 90 300 000/00 RMK AO2 $
63870K0J4 0J420160524065513405/24/16 06:55:31  5-MIN K0J4 241155Z AUTO 00000KT 10SM CLR 17/14 A3012 140 86 400 000/00 RMK AO2 SLP194 T01670144 10167 20133 53002 $
63870K0J4 0J420160524070009905/24/16 07:00:31  5-MIN K0J4 241200Z AUTO 00000KT 10SM CLR 17/14 A3012 130 86 400 000/00 RMK AO2 $
63870K0J4 0J420160524070509905/24/16 07:05:31  5-MIN K0J4 241205Z AUTO 00000KT 10SM CLR 18/15 A3012 130 83 500 000/00 RMK AO2 $
63870K0J4 0J420160524071009905/24/16 07:10:31  5-MIN K0J4 241210Z AUTO 00000KT 10SM CLR 18/15 A3012 130 81 600 000/00 RMK AO2 $
63870K0J4 0J420160524071509905/24/16 07:15:31  5-MIN K0J4 241215Z AUTO 00000KT 10SM CLR 19/15 A3012 130 78 700 000/00 RMK AO2 $
63870K0J4 0J420160524072009905/24/16 07:20:31  5-MIN K0J4 241220Z AUTO 00000KT 10SM CLR 19/15 A3013 130 75 700 000/00 RMK AO2 $
63870K0J4 0J420160524072509905/24/16 07:25:31  5-MIN K0J4 241225Z AUTO 33003KT 10SM CLR 20/16 A3013 120 75 800 330/03 RMK AO2 $
63870K0J4 0J420160524073009905/24/16 07:30:31  5-MIN K0J4 241230Z AUTO 00000KT 10SM CLR 21/15 A3013 130 68 900 000/00 RMK AO2 $
63870K0J4 0J420160524073509905/24/16 07:35:31  5-MIN K0J4 241235Z AUTO 33003KT 10SM CLR 21/14 A3013 130 65 900 330/03 RMK AO2 $
63870K0J4 0J420160524074010005/24/16 07:40:31  5-MIN K0J4 241240Z AUTO 00000KT 10SM CLR 22/14 A3013 120 63 1000 000/00 RMK AO2 $
63870K0J4 0J420160524074510005/24/16 07:45:31  5-MIN K0J4 241245Z AUTO 32003KT 10SM CLR 22/14 A3013 120 63 1000 320/03 RMK AO2 $
63870K0J4 0J420160524075010005/24/16 07:50:31  5-MIN K0J4 241250Z AUTO 00000KT 10SM CLR 22/14 A3013 120 63 1000 000/00 RMK AO2 $
63870K0J4 0J420160524075511705/24/16 07:55:31  5-MIN K0J4 241255Z AUTO 00000KT 10SM CLR 22/15 A3013 120 63 1000 000/00 RMK AO2 SLP200 T02220150 $
63870K0J4 0J420160524080010005/24/16 08:00:31  5-MIN K0J4 241300Z AUTO VRB03KT 10SM CLR 22/14 A3013 120 61 1000 VRB/03 RMK AO2 $
63870K0J4 0J420160524080510005/24/16 08:05:31  5-MIN K0J4 241305Z AUTO VRB04KT 10SM CLR 22/14 A3013 120 61 1000 VRB/04 RMK AO2 $
63870K0J4 0J420160524081010005/24/16 08:10:31  5-MIN K0J4 241310Z AUTO 01005KT 10SM CLR 23/14 A3013 120 59 1100 010/05 RMK AO2 $
63870K0J4 0J420160524081510005/24/16 08:15:31  5-MIN K0J4 241315Z AUTO VRB03KT 10SM CLR 23/15 A3013 120 61 1100 VRB/03 RMK AO2 $
63870K0J4 0J420160524082010005/24/16 08:20:31  5-MIN K0J4 241320Z AUTO 02003KT 10SM CLR 23/15 A3014 120 61 1100 020/03 RMK AO2 $
63870K0J4 0J420160524082510005/24/16 08:25:31  5-MIN K0J4 241325Z AUTO 01004KT 10SM CLR 23/14 A3014 120 59 1100 010/04 RMK AO2 $
63870K0J4 0J420160524083010005/24/16 08:30:31  5-MIN K0J4 241330Z AUTO 36004KT 10SM CLR 23/15 A3014 120 61 1100 360/04 RMK AO2 $
63870K0J4 0J420160524083510005/24/16 08:35:31  5-MIN K0J4 241335Z AUTO 36003KT 10SM CLR 23/15 A3014 110 59 1100 360/03 RMK AO2 $
63870K0J4 0J420160524084010005/24/16 08:40:31  5-MIN K0J4 241340Z AUTO 35003KT 10SM CLR 23/15 A3014 110 59 1100 350/03 RMK AO2 $
63870K0J4 0J420160524084510005/24/16 08:45:31  5-MIN K0J4 241345Z AUTO 35003KT 10SM CLR 23/15 A3014 110 59 1100 350/03 RMK AO2 $
63870K0J4 0J420160524085010005/24/16 08:50:31  5-MIN K0J4 241350Z AUTO 36004KT 10SM CLR 24/16 A3014 120 59 1200 360/04 RMK AO2 $
63870K0J4 0J420160524085511705/24/16 08:55:31  5-MIN K0J4 241355Z AUTO VRB03KT 10SM CLR 24/15 A3014 110 55 1300 VRB/03 RMK AO2 SLP202 T02440150 $
63870K0J4 0J420160524090010005/24/16 09:00:31  5-MIN K0J4 241400Z AUTO 36003KT 10SM CLR 24/16 A3014 110 57 1300 360/03 RMK AO2 $
63870K0J4 0J420160524142008505/24/16 14:20:31  5-MIN K0J4 241920Z AUTO M M M M /M RMK AO2 PWINO FZRANO TSNO PNO $
63870K0J4 0J420160524142508505/24/16 14:25:31  5-MIN K0J4 241925Z AUTO M M M M /M RMK AO2 PWINO FZRANO TSNO PNO $
63870K0J4 0J420160524143008505/24/16 14:30:31  5-MIN K0J4 241930Z AUTO M M M M /M RMK AO2 PWINO FZRANO TSNO PNO $
63870K0J4 0J420160524143508505/24/16 14:35:31  5-MIN K0J4 241935Z AUTO M M M M /M RMK AO2 PWINO FZRANO TSNO PNO $
63870K0J4 0J420160524144009605/24/16 14:40:31  5-MIN K0J4 241940Z AUTO VRB03KT 10SM 30/11 A3013 130 29 1900 VRB/03 RMK AO2 $
63870K0J4 0J420160524144509405/24/16 14:45:31  5-MIN K0J4 241945Z AUTO 33005KT 10SM 30/10 A3013 130 28 1900 330/05 RMK AO2
63870K0J4 0J420160524145010005/24/16 14:50:31  5-MIN K0J4 241950Z AUTO 28005KT 10SM CLR 30/11 A3013 130 29 1900 280/05 RMK AO2 $
63870K0J4 0J420160524145511605/24/16 14:55:31  5-MIN K0J4 241955Z AUTO 00000KT 10SM CLR 30/11 A3013 130 29 1900 000/00 RMK AO2 SLPNO T03000106 $
63870K0J4 0J420160524150009805/24/16 15:00:31  5-MIN K0J4 242000Z AUTO 00000KT 10SM CLR 31/11 A3013 130 28 2000 000/00 RMK AO2
63870K0J4 0J420160524150509805/24/16 15:05:31  5-MIN K0J4 242005Z AUTO 07004KT 10SM CLR 31/12 A3013 130 30 2000 070/04 RMK AO2
63870K0J4 0J420160524151009805/24/16 15:10:31  5-MIN K0J4 242010Z AUTO VRB03KT 10SM CLR 31/12 A3012 130 29 2000 VRB/03 RMK AO2
63870K0J4 0J420160524151509805/24/16 15:15:31  5-MIN K0J4 242015Z AUTO VRB05KT 10SM CLR 30/12 A3012 130 31 1900 VRB/05 RMK AO2
63870K0J4 0J420160524152009805/24/16 15:20:31  5-MIN K0J4 242020Z AUTO VRB03KT 10SM CLR 30/12 A3012 130 31 1900 VRB/03 RMK AO2
63870K0J4 0J420160524152509805/24/16 15:25:31  5-MIN K0J4 242025Z AUTO VRB04KT 10SM CLR 31/12 A3012 130 30 2000 VRB/04 RMK AO2
63870K0J4 0J420160524202010005/24/16 20:20:31  5-MIN K0J4 250120Z AUTO 00000KT 10SM CLR 22/16 A3014 110 65 1000 000/00 RMK AO2 $
63870K0J4 0J420160524202510005/24/16 20:25:31  5-MIN K0J4 250125Z AUTO 00000KT 10SM CLR 22/15 A3014 110 65 1000 000/00 RMK AO2 $
63870K0J4 0J420160524203010005/24/16 20:30:31  5-MIN K0J4 250130Z AUTO 00000KT 10SM CLR 22/14 A3014 110 61 1000 000/00 RMK AO2 $
63870K0J4 0J420160524203510005/24/16 20:35:31  5-MIN K0J4 250135Z AUTO 23004KT 10SM CLR 22/14 A3014 110 61 1000 230/04 RMK AO2 $
63870K0J4 0J420160524204010005/24/16 20:40:31  5-MIN K0J4 250140Z AUTO 00000KT 10SM CLR 22/14 A3015 110 61 1000 000/00 RMK AO2 $
63870K0J4 0J420160524204509905/24/16 20:45:31  5-MIN K0J4 250145Z AUTO 00000KT 10SM CLR 21/16 A3015 110 70 900 000/00 RMK AO2 $
63870K0J4 0J420160524205009905/24/16 20:50:31  5-MIN K0J4 250150Z AUTO 00000KT 10SM CLR 21/15 A3015 110 68 900 000/00 RMK AO2 $
63870K0J4 0J420160524205511505/24/16 20:55:31  5-MIN K0J4 250155Z AUTO 00000KT 10SM CLR 21/15 A3015 110 68 900 000/00 RMK AO2 SLPNO T02110150 $
63870K0J4 0J420160524210009905/24/16 21:00:31  5-MIN K0J4 250200Z AUTO 00000KT 10SM CLR 21/15 A3015 110 70 800 000/00 RMK AO2 $
63870K0J4 0J420160524210509905/24/16 21:05:31  5-MIN K0J4 250205Z AUTO 00000KT 10SM CLR 20/16 A3015 100 75 800 000/00 RMK AO2 $
63870K0J4 0J420160524211009905/24/16 21:10:31  5-MIN K0J4 250210Z AUTO 00000KT 10SM CLR 19/16 A3015 100 78 700 000/00 RMK AO2 $
63870K0J4 0J420160524211509905/24/16 21:15:31  5-MIN K0J4 250215Z AUTO 00000KT 10SM CLR 19/16 A3015 100 78 700 000/00 RMK AO2 $
63870K0J4 0J420160524212009905/24/16 21:20:31  5-MIN K0J4 250220Z AUTO 00000KT 10SM CLR 19/15 A3016 100 75 700 000/00 RMK AO2 $
63870K0J4 0J420160524212509905/24/16 21:25:31  5-MIN K0J4 250225Z AUTO 00000KT 10SM CLR 21/14 A3016 100 67 800 000/00 RMK AO2 $
63870K0J4 0J420160524213009905/24/16 21:30:31  5-MIN K0J4 250230Z AUTO 00000KT 10SM CLR 21/14 A3016 100 67 800 000/00 RMK AO2 $
63870K0J4 0J420160524213509805/24/16 21:35:31  5-MIN K0J4 250235Z AUTO 23003KT 10SM CLR 21/14 A3016 90 67 800 230/03 RMK AO2 $
63870K0J4 0J420160524214009805/24/16 21:40:31  5-MIN K0J4 250240Z AUTO 00000KT 10SM CLR 20/15 A3016 90 72 700 000/00 RMK AO2 $
63870K0J4 0J420160524214509805/24/16 21:45:31  5-MIN K0J4 250245Z AUTO 00000KT 10SM CLR 19/15 A3017 90 75 700 000/00 RMK AO2 $
63870K0J4 0J420160524215009805/24/16 21:50:31  5-MIN K0J4 250250Z AUTO 00000KT 10SM CLR 19/15 A3017 90 75 700 000/00 RMK AO2 $
63870K0J4 0J420160524215512005/24/16 21:55:31  5-MIN K0J4 250255Z AUTO 00000KT 10SM CLR 19/14 A3017 90 72 700 000/00 RMK AO2 SLPNO T01940144 53003 $
63870K0J4 0J420160524220009805/24/16 22:00:31  5-MIN K0J4 250300Z AUTO 00000KT 10SM CLR 19/14 A3017 90 72 700 000/00 RMK AO2 $
63870K0J4 0J420160524220509805/24/16 22:05:31  5-MIN K0J4 250305Z AUTO 21003KT 10SM CLR 19/14 A3017 80 72 700 210/03 RMK AO2 $
63870K0J4 0J420160524221009805/24/16 22:10:31  5-MIN K0J4 250310Z AUTO 21003KT 10SM CLR 21/14 A3017 80 65 800 210/03 RMK AO2 $
63870K0J4 0J420160524221509805/24/16 22:15:31  5-MIN K0J4 250315Z AUTO 00000KT 10SM CLR 21/14 A3018 80 65 800 000/00 RMK AO2 $
63870K0J4 0J420160524222009805/24/16 22:20:31  5-MIN K0J4 250320Z AUTO 00000KT 10SM CLR 19/14 A3018 80 72 700 000/00 RMK AO2 $
63870K0J4 0J420160524222509805/24/16 22:25:31  5-MIN K0J4 250325Z AUTO 00000KT 10SM CLR 20/14 A3018 80 70 700 000/00 RMK AO2 $
63870K0J4 0J420160524223009805/24/16 22:30:31  5-MIN K0J4 250330Z AUTO 00000KT 10SM CLR 19/14 A3018 80 72 700 000/00 RMK AO2 $
63870K0J4 0J420160524223509805/24/16 22:35:31  5-MIN K0J4 250335Z AUTO 00000KT 10SM CLR 19/14 A3018 80 72 700 000/00 RMK AO2 $
63870K0J4 0J420160524224009805/24/16 22:40:31  5-MIN K0J4 250340Z AUTO 00000KT 10SM CLR 19/14 A3018 80 75 600 000/00 RMK AO2 $
63870K0J4 0J420160524224509805/24/16 22:45:31  5-MIN K0J4 250345Z AUTO 00000KT 10SM CLR 19/14 A3018 80 75 600 000/00 RMK AO2 $
63870K0J4 0J420160524225009805/24/16 22:50:31  5-MIN K0J4 250350Z AUTO 00000KT 10SM CLR 18/14 A3018 80 78 500 000/00 RMK AO2 $
63870K0J4 0J420160524225511405/24/16 22:55:31  5-MIN K0J4 250355Z AUTO 00000KT 10SM CLR 18/14 A3018 80 78 500 000/00 RMK AO2 SLPNO T01830144 $
63870K0J4 0J420160524230009805/24/16 23:00:31  5-MIN K0J4 250400Z AUTO 00000KT 10SM CLR 18/14 A3018 80 78 500 000/00 RMK AO2 $
63870K0J4 0J420160524230509805/24/16 23:05:31  5-MIN K0J4 250405Z AUTO 21003KT 10SM CLR 18/14 A3018 80 81 500 210/03 RMK AO2 $
63870K0J4 0J420160524231009805/24/16 23:10:31  5-MIN K0J4 250410Z AUTO 22003KT 10SM CLR 19/14 A3018 80 75 600 220/03 RMK AO2 $
63870K0J4 0J420160524231509805/24/16 23:15:31  5-MIN K0J4 250415Z AUTO 22003KT 10SM CLR 19/14 A3018 80 72 700 220/03 RMK AO2 $
63870K0J4 0J420160524232009805/24/16 23:20:31  5-MIN K0J4 250420Z AUTO 23003KT 10SM CLR 19/14 A3018 80 75 600 230/03 RMK AO2 $
63870K0J4 0J420160524232509805/24/16 23:25:31  5-MIN K0J4 250425Z AUTO 23003KT 10SM CLR 19/14 A3018 80 72 700 230/03 RMK AO2 $
63870K0J4 0J420160524233009805/24/16 23:30:31  5-MIN K0J4 250430Z AUTO 22003KT 10SM CLR 19/14 A3018 80 72 700 220/03 RMK AO2 $
63870K0J4 0J420160524233509805/24/16 23:35:31  5-MIN K0J4 250435Z AUTO 00000KT 10SM CLR 18/14 A3018 80 78 500 000/00 RMK AO2 $
63870K0J4 0J420160524234009805/24/16 23:40:31  5-MIN K0J4 250440Z AUTO 00000KT 10SM CLR 18/14 A3018 80 81 500 000/00 RMK AO2 $
63870K0J4 0J420160524234509805/24/16 23:45:31  5-MIN K0J4 250445Z AUTO 00000KT 10SM CLR 18/14 A3018 80 78 500 000/00 RMK AO2 $
63870K0J4 0J420160524235009805/24/16 23:50:31  5-MIN K0J4 250450Z AUTO 23003KT 10SM CLR 19/14 A3018 80 75 600 230/03 RMK AO2 $
63870K0J4 0J420160524235512405/24/16 23:55:31  5-MIN K0J4 250455Z AUTO 22003KT 10SM CLR 18/15 A3017 80 81 500 220/03 RMK AO2 SLPNO T01830150 403110178 $
63870K0J4 0J420160525000009805/25/16 00:00:31  5-MIN K0J4 250500Z AUTO 00000KT 10SM CLR 18/15 A3018 80 81 500 000/00 RMK AO2 $
63870K0J4 0J420160525000509805/25/16 00:05:31  5-MIN K0J4 250505Z AUTO 00000KT 10SM CLR 18/15 A3018 80 83 500 000/00 RMK AO2 $
63870K0J4 0J420160525001009805/25/16 00:10:31  5-MIN K0J4 250510Z AUTO 00000KT 10SM CLR 18/15 A3017 80 83 500 000/00 RMK AO2 $
63870K0J4 0J420160525001509805/25/16 00:15:31  5-MIN K0J4 250515Z AUTO 00000KT 10SM CLR 18/14 A3017 80 81 500 000/00 RMK AO2 $
63870K0J4 0J420160525002009805/25/16 00:20:31  5-MIN K0J4 250520Z AUTO 00000KT 10SM CLR 18/14 A3017 80 81 500 000/00 RMK AO2 $
63870K0J4 0J420160525002509805/25/16 00:25:31  5-MIN K0J4 250525Z AUTO 00000KT 10SM CLR 18/14 A3017 80 81 500 000/00 RMK AO2 $
63870K0J4 0J420160525003009805/25/16 00:30:31  5-MIN K0J4 250530Z AUTO 00000KT 10SM CLR 17/14 A3017 80 83 400 000/00 RMK AO2 $
63870K0J4 0J420160525003509805/25/16 00:35:31  5-MIN K0J4 250535Z AUTO 00000KT 10SM CLR 17/14 A3017 90 86 300 000/00 RMK AO2 $
63870K0J4 0J420160525004009805/25/16 00:40:31  5-MIN K0J4 250540Z AUTO 00000KT 10SM CLR 17/14 A3017 90 86 300 000/00 RMK AO2 $
63870K0J4 0J420160525004509805/25/16 00:45:31  5-MIN K0J4 250545Z AUTO 00000KT 10SM CLR 17/14 A3017 90 83 300 000/00 RMK AO2 $
63870K0J4 0J420160525005009805/25/16 00:50:31  5-MIN K0J4 250550Z AUTO 00000KT 10SM CLR 17/14 A3016 90 86 400 000/00 RMK AO2 $
63870K0J4 0J420160525005513205/25/16 00:55:31  5-MIN K0J4 250555Z AUTO 00000KT 10SM CLR 17/14 A3016 90 86 400 000/00 RMK AO2 SLPNO T01670144 10267 20167 53020 $
63870K0J4 0J420160525010009905/25/16 01:00:31  5-MIN K0J4 250600Z AUTO 00000KT 10SM CLR 16/14 A3016 100 86 300 000/00 RMK AO2 $
63870K0J4 0J420160525010509905/25/16 01:05:31  5-MIN K0J4 250605Z AUTO 00000KT 10SM CLR 17/14 A3016 100 86 400 000/00 RMK AO2 $
63870K0J4 0J420160525011009905/25/16 01:10:31  5-MIN K0J4 250610Z AUTO 00000KT 10SM CLR 17/14 A3016 100 83 400 000/00 RMK AO2 $
63870K0J4 0J420160525011509905/25/16 01:15:31  5-MIN K0J4 250615Z AUTO 00000KT 10SM CLR 17/15 A3016 100 87 400 000/00 RMK AO2 $
63870K0J4 0J420160525012009805/25/16 01:20:31  5-MIN K0J4 250620Z AUTO 00000KT 10SM CLR 17/15 A3016 90 90 300 000/00 RMK AO2 $
63870K0J4 0J420160525012509805/25/16 01:25:31  5-MIN K0J4 250625Z AUTO 00000KT 10SM CLR 17/15 A3016 90 90 400 000/00 RMK AO2 $
63870K0J4 0J420160525013009805/25/16 01:30:31  5-MIN K0J4 250630Z AUTO 00000KT 10SM CLR 17/15 A3016 90 90 400 000/00 RMK AO2 $
63870K0J4 0J420160525013509805/25/16 01:35:31  5-MIN K0J4 250635Z AUTO 00000KT 10SM CLR 17/14 A3016 90 83 400 000/00 RMK AO2 $
63870K0J4 0J420160525014009805/25/16 01:40:31  5-MIN K0J4 250640Z AUTO 00000KT 10SM CLR 17/14 A3016 90 86 400 000/00 RMK AO2 $
63870K0J4 0J420160525014509905/25/16 01:45:31  5-MIN K0J4 250645Z AUTO 00000KT 10SM CLR 16/14 A3016 100 90 300 000/00 RMK AO2 $
63870K0J4 0J420160525015009905/25/16 01:50:31  5-MIN K0J4 250650Z AUTO 00000KT 10SM CLR 16/14 A3016 100 90 300 000/00 RMK AO2 $
63870K0J4 0J420160525015511505/25/16 01:55:31  5-MIN K0J4 250655Z AUTO 00000KT 10SM CLR 16/14 A3016 100 90 300 000/00 RMK AO2 SLPNO T01610144 $
63870K0J4 0J420160525020009905/25/16 02:00:31  5-MIN K0J4 250700Z AUTO 00000KT 10SM CLR 16/14 A3016 100 93 200 000/00 RMK AO2 $
63870K0J4 0J420160525020509905/25/16 02:05:31  5-MIN K0J4 250705Z AUTO 00000KT 10SM CLR 16/14 A3016 100 93 200 000/00 RMK AO2 $
63870K0J4 0J420160525021009905/25/16 02:10:31  5-MIN K0J4 250710Z AUTO 00000KT 10SM CLR 16/14 A3016 100 90 200 000/00 RMK AO2 $
63870K0J4 0J420160525021509905/25/16 02:15:31  5-MIN K0J4 250715Z AUTO 00000KT 10SM CLR 16/14 A3016 100 90 200 000/00 RMK AO2 $
63870K0J4 0J420160525022009905/25/16 02:20:31  5-MIN K0J4 250720Z AUTO 00000KT 10SM CLR 16/14 A3016 100 90 200 000/00 RMK AO2 $
63870K0J4 0J420160525022509905/25/16 02:25:31  5-MIN K0J4 250725Z AUTO 00000KT 10SM CLR 16/14 A3016 100 90 200 000/00 RMK AO2 $
63870K0J4 0J420160525023009905/25/16 02:30:31  5-MIN K0J4 250730Z AUTO 00000KT 10SM CLR 16/14 A3015 100 90 200 000/00 RMK AO2 $
63870K0J4 0J420160525023509905/25/16 02:35:31  5-MIN K0J4 250735Z AUTO 00000KT 10SM CLR 16/14 A3015 100 90 200 000/00 RMK AO2 $
63870K0J4 0J420160525024009905/25/16 02:40:31  5-MIN K0J4 250740Z AUTO 00000KT 10SM CLR 16/14 A3015 100 90 200 000/00 RMK AO2 $
63870K0J4 0J420160525024509905/25/16 02:45:31  5-MIN K0J4 250745Z AUTO 00000KT 10SM CLR 16/14 A3015 110 90 200 000/00 RMK AO2 $
63870K0J4 0J420160525025009905/25/16 02:50:31  5-MIN K0J4 250750Z AUTO 00000KT 10SM CLR 15/14 A3015 110 93 200 000/00 RMK AO2 $
63870K0J4 0J420160525025511605/25/16 02:55:31  5-MIN K0J4 250755Z AUTO 00000KT 10SM CLR 15/14 A3014 110 93 200 000/00 RMK AO2 SLP204 T01500139 $
63870K0J4 0J420160525030009905/25/16 03:00:31  5-MIN K0J4 250800Z AUTO 00000KT 10SM CLR 15/14 A3014 110 93 200 000/00 RMK AO2 $
63870K0J4 0J420160525030509905/25/16 03:05:31  5-MIN K0J4 250805Z AUTO 00000KT 10SM CLR 15/14 A3014 110 93 200 000/00 RMK AO2 $
63870K0J4 0J420160525031009905/25/16 03:10:31  5-MIN K0J4 250810Z AUTO 00000KT 10SM CLR 16/14 A3014 110 90 200 000/00 RMK AO2 $
63870K0J4 0J420160525031509905/25/16 03:15:31  5-MIN K0J4 250815Z AUTO 35004KT 10SM CLR 15/14 A3014 110 93 200 350/04 RMK AO2 $
63870K0J4 0J420160525032009905/25/16 03:20:31  5-MIN K0J4 250820Z AUTO VRB03KT 10SM CLR 16/14 A3014 110 86 300 VRB/03 RMK AO2 $
63870K0J4 0J420160525032509905/25/16 03:25:31  5-MIN K0J4 250825Z AUTO VRB03KT 10SM CLR 17/15 A3014 110 87 400 VRB/03 RMK AO2 $
63870K0J4 0J420160525033009905/25/16 03:30:31  5-MIN K0J4 250830Z AUTO VRB03KT 10SM CLR 18/14 A3014 110 81 500 VRB/03 RMK AO2 $
63870K0J4 0J420160525033509905/25/16 03:35:31  5-MIN K0J4 250835Z AUTO 35003KT 10SM CLR 17/14 A3014 110 83 400 350/03 RMK AO2 $
63870K0J4 0J420160525034009905/25/16 03:40:31  5-MIN K0J4 250840Z AUTO 00000KT 10SM CLR 17/14 A3014 110 83 400 000/00 RMK AO2 $
63870K0J4 0J420160525034509905/25/16 03:45:31  5-MIN K0J4 250845Z AUTO 00000KT 10SM CLR 18/14 A3014 120 81 500 000/00 RMK AO2 $
63870K0J4 0J420160525035009905/25/16 03:50:31  5-MIN K0J4 250850Z AUTO 00000KT 10SM CLR 17/14 A3014 120 83 400 000/00 RMK AO2 $
63870K0J4 0J420160525035512205/25/16 03:55:31  5-MIN K0J4 250855Z AUTO 00000KT 10SM CLR 17/14 A3013 120 83 400 000/00 RMK AO2 SLP200 T01720144 58003 $
63870K0J4 0J420160525040009905/25/16 04:00:31  5-MIN K0J4 250900Z AUTO 00000KT 10SM CLR 16/14 A3014 120 86 300 000/00 RMK AO2 $
63870K0J4 0J420160525040509905/25/16 04:05:31  5-MIN K0J4 250905Z AUTO 00000KT 10SM CLR 17/14 A3014 110 86 400 000/00 RMK AO2 $
63870K0J4 0J420160525041009905/25/16 04:10:31  5-MIN K0J4 250910Z AUTO 00000KT 10SM CLR 17/14 A3014 110 86 400 000/00 RMK AO2 $
63870K0J4 0J420160525041509905/25/16 04:15:31  5-MIN K0J4 250915Z AUTO 00000KT 10SM CLR 17/14 A3014 110 86 400 000/00 RMK AO2 $
63870K0J4 0J420160525042009905/25/16 04:20:31  5-MIN K0J4 250920Z AUTO VRB03KT 10SM CLR 17/14 A3014 110 86 400 VRB/03 RMK AO2 $
63870K0J4 0J420160525042509905/25/16 04:25:31  5-MIN K0J4 250925Z AUTO 00000KT 10SM CLR 17/14 A3014 110 83 400 000/00 RMK AO2 $
63870K0J4 0J420160525043009905/25/16 04:30:31  5-MIN K0J4 250930Z AUTO 00000KT 10SM CLR 17/14 A3014 110 86 400 000/00 RMK AO2 $
63870K0J4 0J420160525043509905/25/16 04:35:31  5-MIN K0J4 250935Z AUTO 00000KT 10SM CLR 16/14 A3014 110 86 300 000/00 RMK AO2 $
63870K0J4 0J420160525044009905/25/16 04:40:31  5-MIN K0J4 250940Z AUTO 36003KT 10SM CLR 16/14 A3014 110 86 300 360/03 RMK AO2 $
63870K0J4 0J420160525044509905/25/16 04:45:31  5-MIN K0J4 250945Z AUTO 00000KT 10SM CLR 16/14 A3015 100 86 300 000/00 RMK AO2 $
63870K0J4 0J420160525045009905/25/16 04:50:31  5-MIN K0J4 250950Z AUTO 35003KT 10SM CLR 17/14 A3015 100 83 400 350/03 RMK AO2 $
63870K0J4 0J420160525045511605/25/16 04:55:31  5-MIN K0J4 250955Z AUTO 34003KT 10SM CLR 18/14 A3016 100 81 500 340/03 RMK AO2 SLP207 T01780144 $
63870K0J4 0J420160525050009905/25/16 05:00:31  5-MIN K0J4 251000Z AUTO 36003KT 10SM CLR 18/14 A3016 100 81 500 360/03 RMK AO2 $
63870K0J4 0J420160525050509805/25/16 05:05:31  5-MIN K0J4 251005Z AUTO 35004KT 10SM CLR 18/14 A3016 90 81 500 350/04 RMK AO2 $
63870K0J4 0J420160525051009805/25/16 05:10:31  5-MIN K0J4 251010Z AUTO 36003KT 10SM CLR 18/14 A3016 90 81 500 360/03 RMK AO2 $
63870K0J4 0J420160525051509805/25/16 05:15:31  5-MIN K0J4 251015Z AUTO 36004KT 10SM CLR 18/14 A3016 90 81 500 360/04 RMK AO2 $
63870K0J4 0J420160525052009805/25/16 05:20:31  5-MIN K0J4 251020Z AUTO 01003KT 10SM CLR 17/14 A3016 90 83 400 010/03 RMK AO2 $
63870K0J4 0J420160525052509805/25/16 05:25:31  5-MIN K0J4 251025Z AUTO 01003KT 10SM CLR 17/14 A3016 90 83 300 010/03 RMK AO2 $
63870K0J4 0J420160525053009805/25/16 05:30:31  5-MIN K0J4 251030Z AUTO 00000KT 10SM CLR 17/14 A3016 90 83 400 000/00 RMK AO2 $
63870K0J4 0J420160525053509805/25/16 05:35:31  5-MIN K0J4 251035Z AUTO 00000KT 10SM CLR 17/14 A3016 90 86 400 000/00 RMK AO2 $
63870K0J4 0J420160525054009805/25/16 05:40:31  5-MIN K0J4 251040Z AUTO 00000KT 10SM CLR 16/14 A3016 90 86 300 000/00 RMK AO2 $
63870K0J4 0J420160525054509805/25/16 05:45:31  5-MIN K0J4 251045Z AUTO 00000KT 10SM CLR 15/13 A3017 90 90 200 000/00 RMK AO2 $
63870K0J4 0J420160525055009805/25/16 05:50:31  5-MIN K0J4 251050Z AUTO 00000KT 10SM CLR 15/13 A3017 90 90 100 000/00 RMK AO2 $
63870K0J4 0J420160525055511505/25/16 05:55:31  5-MIN K0J4 251055Z AUTO 00000KT 10SM CLR 15/13 A3017 90 90 200 000/00 RMK AO2 SLP211 T01500133 $
63870K0J4 0J420160525060009805/25/16 06:00:31  5-MIN K0J4 251100Z AUTO 00000KT 10SM CLR 15/14 A3017 90 93 100 000/00 RMK AO2 $
63870K0J4 0J420160525060509805/25/16 06:05:31  5-MIN K0J4 251105Z AUTO 00000KT 10SM CLR 16/14 A3017 80 90 200 000/00 RMK AO2 $
63870K0J4 0J420160525061009805/25/16 06:10:31  5-MIN K0J4 251110Z AUTO 00000KT 10SM CLR 16/14 A3018 80 90 200 000/00 RMK AO2 $
63870K0J4 0J420160525061509805/25/16 06:15:31  5-MIN K0J4 251115Z AUTO 00000KT 10SM CLR 16/14 A3018 80 90 200 000/00 RMK AO2 $
63870K0J4 0J420160525062009805/25/16 06:20:31  5-MIN K0J4 251120Z AUTO 00000KT 10SM CLR 16/14 A3018 80 90 200 000/00 RMK AO2 $
63870K0J4 0J420160525062509805/25/16 06:25:31  5-MIN K0J4 251125Z AUTO 00000KT 10SM CLR 16/14 A3018 80 90 200 000/00 RMK AO2 $
63870K0J4 0J420160525063009805/25/16 06:30:31  5-MIN K0J4 251130Z AUTO 00000KT 10SM CLR 16/14 A3018 80 90 300 000/00 RMK AO2 $
63870K0J4 0J420160525063509805/25/16 06:35:31  5-MIN K0J4 251135Z AUTO 00000KT 10SM CLR 17/14 A3018 80 86 300 000/00 RMK AO2 $
63870K0J4 0J420160525064009805/25/16 06:40:31  5-MIN K0J4 251140Z AUTO 00000KT 10SM CLR 17/15 A3018 80 87 400 000/00 RMK AO2 $
63870K0J4 0J420160525064509805/25/16 06:45:31  5-MIN K0J4 251145Z AUTO 00000KT 10SM CLR 18/16 A3019 70 87 500 000/00 RMK AO2 $
63870K0J4 0J420160525065009805/25/16 06:50:31  5-MIN K0J4 251150Z AUTO 00000KT 10SM CLR 18/16 A3018 70 87 500 000/00 RMK AO2 $
63870K0J4 0J420160525065513905/25/16 06:55:31  5-MIN K0J4 251155Z AUTO 00000KT 10SM CLR 18/16 A3018 70 87 500 000/00 RMK AO2 SLP218 7//// T01780156 10178 20144 58008 $
63870K0J4 0J420160525070009805/25/16 07:00:31  5-MIN K0J4 251200Z AUTO 00000KT 10SM CLR 18/16 A3019 70 87 500 000/00 RMK AO2 $
63870K0J4 0J420160525070509805/25/16 07:05:31  5-MIN K0J4 251205Z AUTO 00000KT 10SM CLR 18/16 A3018 80 87 500 000/00 RMK AO2 $
63870K0J4 0J420160525071009805/25/16 07:10:31  5-MIN K0J4 251210Z AUTO 00000KT 10SM CLR 19/16 A3018 80 84 600 000/00 RMK AO2 $
63870K0J4 0J420160525071509605/25/16 07:15:31  5-MIN K0J4 251215Z AUTO 00000KT 10SM CLR 19/16 A3018 80 84 600 000/00 RMK AO2
63870K0J4 0J420160525072009605/25/16 07:20:31  5-MIN K0J4 251220Z AUTO 00000KT 10SM CLR 19/16 A3018 80 81 700 000/00 RMK AO2
63870K0J4 0J420160525072509605/25/16 07:25:31  5-MIN K0J4 251225Z AUTO 00000KT 10SM CLR 20/16 A3018 70 78 700 000/00 RMK AO2
63870K0J4 0J420160525073009805/25/16 07:30:31  5-MIN K0J4 251230Z AUTO 00000KT 10SM CLR 21/17 A3019 70 78 800 000/00 RMK AO2 $
63870K0J4 0J420160525073509805/25/16 07:35:31  5-MIN K0J4 251235Z AUTO 00000KT 10SM CLR 21/16 A3019 70 75 800 000/00 RMK AO2 $
63870K0J4 0J420160525074009805/25/16 07:40:31  5-MIN K0J4 251240Z AUTO 11004KT 10SM CLR 21/16 A3020 60 75 800 110/04 RMK AO2 $
63870K0J4 0J420160525074509805/25/16 07:45:31  5-MIN K0J4 251245Z AUTO VRB03KT 10SM CLR 21/16 A3020 60 75 800 VRB/03 RMK AO2 $
63870K0J4 0J420160525075010505/25/16 07:50:31  5-MIN K0J4 251250Z AUTO 10004KT 10SM CLR 21/17 A3021 50 78 800 100/04 RMK AO2 PRESRR $
63870K0J4 0J420160525075511505/25/16 07:55:31  5-MIN K0J4 251255Z AUTO VRB05KT 10SM CLR 21/17 A3021 50 78 800 VRB/05 RMK AO2 SLP225 T02060167 $
63870K0J4 0J420160525080009605/25/16 08:00:31  5-MIN K0J4 251300Z AUTO 11005KT 10SM CLR 21/17 A3021 50 75 800 110/05 RMK AO2
63870K0J4 0J420160525080509605/25/16 08:05:31  5-MIN K0J4 251305Z AUTO 10006KT 10SM CLR 21/16 A3021 50 73 800 100/06 RMK AO2
63870K0J4 0J420160525081009605/25/16 08:10:31  5-MIN K0J4 251310Z AUTO 09004KT 10SM CLR 21/17 A3021 50 75 800 090/04 RMK AO2
63870K0J4 0J420160525081509605/25/16 08:15:31  5-MIN K0J4 251315Z AUTO 12003KT 10SM CLR 22/17 A3021 50 73 900 120/03 RMK AO2
63870K0J4 0J420160525082009805/25/16 08:20:31  5-MIN K0J4 251320Z AUTO 11005KT 10SM CLR 22/17 A3021 50 73 900 110/05 RMK AO2 $
63870K0J4 0J420160525082509805/25/16 08:25:31  5-MIN K0J4 251325Z AUTO 13006KT 10SM CLR 22/17 A3022 40 73 900 130/06 RMK AO2 $
63870K0J4 0J420160525083009805/25/16 08:30:31  5-MIN K0J4 251330Z AUTO 12005KT 10SM CLR 22/17 A3022 40 70 900 120/05 RMK AO2 $
63870K0J4 0J420160525083509905/25/16 08:35:31  5-MIN K0J4 251335Z AUTO VRB04KT 10SM CLR 23/17 A3023 30 68 1000 VRB/04 RMK AO2 $
63870K0J4 0J420160525084009905/25/16 08:40:31  5-MIN K0J4 251340Z AUTO 10005KT 10SM CLR 23/17 A3023 30 66 1100 100/05 RMK AO2 $
63870K0J4 0J420160525084509905/25/16 08:45:31  5-MIN K0J4 251345Z AUTO 10005KT 10SM CLR 23/16 A3023 30 63 1000 100/05 RMK AO2 $
63870K0J4 0J420160525085009905/25/16 08:50:31  5-MIN K0J4 251350Z AUTO 09004KT 10SM CLR 23/16 A3023 30 63 1000 090/04 RMK AO2 $
63870K0J4 0J420160525085511605/25/16 08:55:31  5-MIN K0J4 251355Z AUTO 11004KT 10SM CLR 24/16 A3023 30 59 1100 110/04 RMK AO2 SLP234 T02390156 $
63870K0J4 0J420160525090009905/25/16 09:00:31  5-MIN K0J4 251400Z AUTO 07005KT 10SM CLR 24/16 A3023 30 59 1100 070/05 RMK AO2 $
63870K0J4 0J420160525090509905/25/16 09:05:31  5-MIN K0J4 251405Z AUTO 07007KT 10SM CLR 24/16 A3023 30 57 1200 070/07 RMK AO2 $
63870K0J4 0J420160525091009905/25/16 09:10:31  5-MIN K0J4 251410Z AUTO 07003KT 10SM CLR 24/16 A3024 20 57 1200 070/03 RMK AO2 $
63870K0J4 0J420160525091509905/25/16 09:15:31  5-MIN K0J4 251415Z AUTO 08003KT 10SM CLR 24/16 A3024 20 57 1200 080/03 RMK AO2 $
63870K0J4 0J420160525092009905/25/16 09:20:31  5-MIN K0J4 251420Z AUTO 00000KT 10SM CLR 25/16 A3024 20 55 1200 000/00 RMK AO2 $
63870K0J4 0J420160525092509905/25/16 09:25:31  5-MIN K0J4 251425Z AUTO 00000KT 10SM CLR 25/16 A3024 20 55 1200 000/00 RMK AO2 $
63870K0J4 0J420160525093009905/25/16 09:30:31  5-MIN K0J4 251430Z AUTO 10003KT 10SM CLR 26/16 A3024 20 53 1300 100/03 RMK AO2 $
63870K0J4 0J420160525093509905/25/16 09:35:31  5-MIN K0J4 251435Z AUTO 00000KT 10SM CLR 25/14 A3024 20 51 1200 000/00 RMK AO2 $
63870K0J4 0J420160525094009905/25/16 09:40:31  5-MIN K0J4 251440Z AUTO 00000KT 10SM CLR 25/15 A3024 20 53 1200 000/00 RMK AO2 $
63870K0J4 0J420160525094509905/25/16 09:45:31  5-MIN K0J4 251445Z AUTO 14003KT 10SM CLR 26/15 A3024 20 51 1300 140/03 RMK AO2 $
63870K0J4 0J420160525095009905/25/16 09:50:31  5-MIN K0J4 251450Z AUTO 09003KT 10SM CLR 26/15 A3024 20 51 1300 090/03 RMK AO2 $
63870K0J4 0J420160525095512205/25/16 09:55:31  5-MIN K0J4 251455Z AUTO 00000KT 10SM CLR 26/15 A3024 20 51 1300 000/00 RMK AO2 SLP237 T02560150 51017 $
63870K0J4 0J420160525100009905/25/16 10:00:31  5-MIN K0J4 251500Z AUTO 00000KT 10SM CLR 26/15 A3024 20 51 1300 000/00 RMK AO2 $
63870K0J4 0J420160525100509905/25/16 10:05:31  5-MIN K0J4 251505Z AUTO 08004KT 10SM CLR 26/15 A3024 20 50 1400 080/04 RMK AO2 $
63870K0J4 0J420160525101009905/25/16 10:10:31  5-MIN K0J4 251510Z AUTO 00000KT 10SM CLR 27/15 A3024 20 48 1400 000/00 RMK AO2 $
63870K0J4 0J420160525101509905/25/16 10:15:31  5-MIN K0J4 251515Z AUTO 07004KT 10SM CLR 27/15 A3024 30 48 1400 070/04 RMK AO2 $
63870K0J4 0J420160525102009905/25/16 10:20:31  5-MIN K0J4 251520Z AUTO 00000KT 10SM CLR 27/16 A3023 30 50 1400 000/00 RMK AO2 $
63870K0J4 0J420160525102509905/25/16 10:25:31  5-MIN K0J4 251525Z AUTO 00000KT 10SM CLR 27/16 A3023 30 50 1400 000/00 RMK AO2 $
63870K0J4 0J420160525103009905/25/16 10:30:31  5-MIN K0J4 251530Z AUTO 00000KT 10SM CLR 27/16 A3023 30 50 1400 000/00 RMK AO2 $
63870K0J4 0J420160525103509905/25/16 10:35:31  5-MIN K0J4 251535Z AUTO 00000KT 10SM CLR 28/16 A3023 30 48 1600 000/00 RMK AO2 $
63870K0J4 0J420160525104009905/25/16 10:40:31  5-MIN K0J4 251540Z AUTO 13004KT 10SM CLR 27/16 A3023 30 48 1500 130/04 RMK AO2 $
63870K0J4 0J420160525104509905/25/16 10:45:31  5-MIN K0J4 251545Z AUTO 17005KT 10SM CLR 27/16 A3022 40 48 1500 170/05 RMK AO2 $
63870K0J4 0J420160525105009905/25/16 10:50:31  5-MIN K0J4 251550Z AUTO 19003KT 10SM CLR 27/15 A3022 40 48 1400 190/03 RMK AO2 $
63870K0J4 0J420160525105511605/25/16 10:55:31  5-MIN K0J4 251555Z AUTO VRB04KT 10SM CLR 27/16 A3023 40 50 1400 VRB/04 RMK AO2 SLP232 T02670156 $
63870K0J4 0J420160525110009905/25/16 11:00:31  5-MIN K0J4 251600Z AUTO VRB03KT 10SM CLR 27/16 A3023 30 48 1500 VRB/03 RMK AO2 $
63870K0J4 0J420160525110509905/25/16 11:05:31  5-MIN K0J4 251605Z AUTO 00000KT 10SM CLR 27/15 A3023 30 48 1400 000/00 RMK AO2 $
63870K0J4 0J420160525111009905/25/16 11:10:31  5-MIN K0J4 251610Z AUTO 17004KT 10SM CLR 27/16 A3023 30 48 1500 170/04 RMK AO2 $
63870K0J4 0J420160525111509905/25/16 11:15:31  5-MIN K0J4 251615Z AUTO VRB03KT 10SM CLR 28/16 A3023 30 48 1600 VRB/03 RMK AO2 $
63870K0J4 0J420160525112009905/25/16 11:20:31  5-MIN K0J4 251620Z AUTO 04004KT 10SM CLR 28/16 A3023 30 48 1600 040/04 RMK AO2 $
63870K0J4 0J420160525112509905/25/16 11:25:31  5-MIN K0J4 251625Z AUTO VRB03KT 10SM CLR 28/16 A3023 30 48 1600 VRB/03 RMK AO2 $
63870K0J4 0J420160525113009905/25/16 11:30:31  5-MIN K0J4 251630Z AUTO 00000KT 10SM CLR 28/17 A3023 30 50 1600 000/00 RMK AO2 $
63870K0J4 0J420160525113509905/25/16 11:35:31  5-MIN K0J4 251635Z AUTO 09004KT 10SM CLR 28/17 A3023 30 50 1600 090/04 RMK AO2 $
63870K0J4 0J420160525114009905/25/16 11:40:31  5-MIN K0J4 251640Z AUTO 00000KT 10SM CLR 28/16 A3023 30 48 1600 000/00 RMK AO2 $
63870K0J4 0J420160525114509905/25/16 11:45:31  5-MIN K0J4 251645Z AUTO 08005KT 10SM CLR 28/16 A3022 40 48 1600 080/05 RMK AO2 $
63870K0J4 0J420160525115009905/25/16 11:50:31  5-MIN K0J4 251650Z AUTO 05004KT 10SM CLR 28/16 A3022 40 46 1600 050/04 RMK AO2 $
63870K0J4 0J420160525115511605/25/16 11:55:31  5-MIN K0J4 251655Z AUTO 05003KT 10SM CLR 28/16 A3022 40 48 1600 050/03 RMK AO2 SLP230 T02780161 $
63870K0J4 0J420160525120009905/25/16 12:00:31  5-MIN K0J4 251700Z AUTO 06005KT 10SM CLR 28/16 A3022 40 47 1600 060/05 RMK AO2 $
63870K0J4 0J420160525120509905/25/16 12:05:31  5-MIN K0J4 251705Z AUTO 00000KT 10SM CLR 28/16 A3022 40 47 1600 000/00 RMK AO2 $
63870K0J4 0J420160525121009905/25/16 12:10:31  5-MIN K0J4 251710Z AUTO 11004KT 10SM CLR 28/16 A3022 40 48 1600 110/04 RMK AO2 $
63870K0J4 0J420160525121509905/25/16 12:15:31  5-MIN K0J4 251715Z AUTO 08006KT 10SM CLR 28/17 A3022 40 48 1600 080/06 RMK AO2 $
63870K0J4 0J420160525122009905/25/16 12:20:31  5-MIN K0J4 251720Z AUTO 08007KT 10SM CLR 28/17 A3022 40 48 1600 080/07 RMK AO2 $
63870K0J4 0J420160525122509905/25/16 12:25:31  5-MIN K0J4 251725Z AUTO 10005KT 10SM CLR 28/16 A3022 40 47 1600 100/05 RMK AO2 $
63870K0J4 0J420160525123009905/25/16 12:30:31  5-MIN K0J4 251730Z AUTO VRB05KT 10SM CLR 29/17 A3022 40 47 1700 VRB/05 RMK AO2 $
63870K0J4 0J420160525123509905/25/16 12:35:31  5-MIN K0J4 251735Z AUTO 07005KT 10SM CLR 29/17 A3022 40 47 1700 070/05 RMK AO2 $
63870K0J4 0J420160525124009905/25/16 12:40:31  5-MIN K0J4 251740Z AUTO 07005KT 10SM CLR 28/17 A3021 50 48 1600 070/05 RMK AO2 $
63870K0J4 0J420160525124509905/25/16 12:45:31  5-MIN K0J4 251745Z AUTO VRB05KT 10SM CLR 29/17 A3021 50 48 1700 VRB/05 RMK AO2 $
63870K0J4 0J420160525125009905/25/16 12:50:31  5-MIN K0J4 251750Z AUTO VRB03KT 10SM CLR 29/17 A3021 50 47 1700 VRB/03 RMK AO2 $
63870K0J4 0J420160525125513705/25/16 12:55:31  5-MIN K0J4 251755Z AUTO 09007KT 10SM FEW048 29/17 A3022 40 47 1700 090/07 RMK AO2 SLP229 T02890167 10289 20183 51018 $
63870K0J4 0J420160525130010205/25/16 13:00:31  5-MIN K0J4 251800Z AUTO 00000KT 10SM FEW048 28/17 A3022 40 48 1600 000/00 RMK AO2 $
63870K0J4 0J420160525130510205/25/16 13:05:31  5-MIN K0J4 251805Z AUTO VRB05KT 10SM SCT048 28/17 A3021 50 48 1600 VRB/05 RMK AO2 $
63870K0J4 0J420160525131010205/25/16 13:10:31  5-MIN K0J4 251810Z AUTO 13005KT 10SM FEW048 28/17 A3021 50 48 1600 130/05 RMK AO2 $
63870K0J4 0J420160525131510205/25/16 13:15:31  5-MIN K0J4 251815Z AUTO 18006KT 10SM FEW048 28/16 A3021 50 47 1600 180/06 RMK AO2 $
63870K0J4 0J420160525132010205/25/16 13:20:31  5-MIN K0J4 251820Z AUTO 11004KT 10SM FEW048 29/17 A3021 50 48 1700 110/04 RMK AO2 $
63870K0J4 0J420160525132510205/25/16 13:25:31  5-MIN K0J4 251825Z AUTO 13004KT 10SM FEW048 29/17 A3021 50 48 1700 130/04 RMK AO2 $
63870K0J4 0J420160525133010205/25/16 13:30:31  5-MIN K0J4 251830Z AUTO VRB04KT 10SM FEW048 29/18 A3021 50 49 1800 VRB/04 RMK AO2 $
63870K0J4 0J420160525133509905/25/16 13:35:31  5-MIN K0J4 251835Z AUTO 16006KT 10SM CLR 29/17 A3021 50 47 1700 160/06 RMK AO2 $
63870K0J4 0J420160525134009905/25/16 13:40:31  5-MIN K0J4 251840Z AUTO VRB03KT 10SM CLR 28/16 A3021 50 47 1600 VRB/03 RMK AO2 $
63870K0J4 0J420160525134509905/25/16 13:45:31  5-MIN K0J4 251845Z AUTO 16006KT 10SM CLR 28/16 A3021 50 47 1600 160/06 RMK AO2 $
63870K0J4 0J420160525135009905/25/16 13:50:31  5-MIN K0J4 251850Z AUTO 00000KT 10SM CLR 28/16 A3021 50 47 1600 000/00 RMK AO2 $
63870K0J4 0J420160525135511605/25/16 13:55:31  5-MIN K0J4 251855Z AUTO 00000KT 10SM CLR 28/16 A3020 60 47 1600 000/00 RMK AO2 SLP224 T02830161 $
63870K0J4 0J420160525140009905/25/16 14:00:31  5-MIN K0J4 251900Z AUTO 14003KT 10SM CLR 29/17 A3020 60 47 1700 140/03 RMK AO2 $
63870K0J4 0J420160525140509905/25/16 14:05:31  5-MIN K0J4 251905Z AUTO 11003KT 10SM CLR 28/17 A3020 60 48 1600 110/03 RMK AO2 $
63870K0J4 0J420160525141009905/25/16 14:10:31  5-MIN K0J4 251910Z AUTO 08004KT 10SM CLR 29/17 A3020 60 48 1700 080/04 RMK AO2 $
63870K0J4 0J420160525141509905/25/16 14:15:31  5-MIN K0J4 251915Z AUTO 00000KT 10SM CLR 29/18 A3020 60 49 1800 000/00 RMK AO2 $
63870K0J4 0J420160525142009905/25/16 14:20:31  5-MIN K0J4 251920Z AUTO 13003KT 10SM CLR 29/17 A3020 60 48 1700 130/03 RMK AO2 $
63870K0J4 0J420160525142509905/25/16 14:25:31  5-MIN K0J4 251925Z AUTO 14003KT 10SM CLR 28/17 A3020 60 50 1600 140/03 RMK AO2 $
63870K0J4 0J420160525143009905/25/16 14:30:31  5-MIN K0J4 251930Z AUTO 15003KT 10SM CLR 28/17 A3020 60 50 1600 150/03 RMK AO2 $
63870K0J4 0J420160525143509905/25/16 14:35:31  5-MIN K0J4 251935Z AUTO 00000KT 10SM CLR 29/17 A3020 60 48 1700 000/00 RMK AO2 $
63870K0J4 0J420160525144009905/25/16 14:40:31  5-MIN K0J4 251940Z AUTO 00000KT 10SM CLR 29/17 A3020 60 47 1700 000/00 RMK AO2 $
63870K0J4 0J420160525144509905/25/16 14:45:31  5-MIN K0J4 251945Z AUTO 12003KT 10SM CLR 28/17 A3019 60 48 1700 120/03 RMK AO2 $
63870K0J4 0J420160525145009905/25/16 14:50:31  5-MIN K0J4 251950Z AUTO 00000KT 10SM CLR 29/17 A3019 70 47 1800 000/00 RMK AO2 $
63870K0J4 0J420160525145511605/25/16 14:55:31  5-MIN K0J4 251955Z AUTO 15003KT 10SM CLR 29/17 A3019 70 47 1700 150/03 RMK AO2 SLP219 T02890167 $
63870K0J4 0J420160525150009905/25/16 15:00:31  5-MIN K0J4 252000Z AUTO 16004KT 10SM CLR 29/17 A3019 70 48 1700 160/04 RMK AO2 $
63870K0J4 0J420160525150509905/25/16 15:05:31  5-MIN K0J4 252005Z AUTO 15003KT 10SM CLR 29/17 A3019 70 48 1700 150/03 RMK AO2 $
63870K0J4 0J420160525151009905/25/16 15:10:31  5-MIN K0J4 252010Z AUTO 18004KT 10SM CLR 29/17 A3018 70 48 1700 180/04 RMK AO2 $
63870K0J4 0J420160525151509905/25/16 15:15:31  5-MIN K0J4 252015Z AUTO 18005KT 10SM CLR 29/18 A3018 70 49 1800 180/05 RMK AO2 $
63870K0J4 0J420160525152009905/25/16 15:20:31  5-MIN K0J4 252020Z AUTO 19005KT 10SM CLR 29/17 A3019 70 47 1800 190/05 RMK AO2 $
63870K0J4 0J420160525152509905/25/16 15:25:31  5-MIN K0J4 252025Z AUTO VRB04KT 10SM CLR 29/17 A3018 70 47 1800 VRB/04 RMK AO2 $
63870K0J4 0J420160525153009905/25/16 15:30:31  5-MIN K0J4 252030Z AUTO VRB04KT 10SM CLR 30/17 A3018 80 45 1900 VRB/04 RMK AO2 $
63870K0J4 0J420160525153509905/25/16 15:35:31  5-MIN K0J4 252035Z AUTO 18004KT 10SM CLR 29/17 A3018 80 45 1800 180/04 RMK AO2 $
63870K0J4 0J420160525154009905/25/16 15:40:31  5-MIN K0J4 252040Z AUTO VRB03KT 10SM CLR 29/17 A3018 80 45 1800 VRB/03 RMK AO2 $
63870K0J4 0J420160525154509905/25/16 15:45:31  5-MIN K0J4 252045Z AUTO 00000KT 10SM CLR 30/17 A3018 80 45 1900 000/00 RMK AO2 $
63870K0J4 0J420160525155009905/25/16 15:50:31  5-MIN K0J4 252050Z AUTO 12003KT 10SM CLR 30/17 A3018 80 44 1900 120/03 RMK AO2 $
63870K0J4 0J420160525155512205/25/16 15:55:31  5-MIN K0J4 252055Z AUTO 15004KT 10SM CLR 29/17 A3018 80 47 1800 150/04 RMK AO2 SLP215 T02940172 56008 $
63870K0J4 0J420160525160009905/25/16 16:00:31  5-MIN K0J4 252100Z AUTO 18004KT 10SM CLR 29/17 A3017 80 45 1800 180/04 RMK AO2 $
63870K0J4 0J420160525160509905/25/16 16:05:31  5-MIN K0J4 252105Z AUTO 17005KT 10SM CLR 29/18 A3017 80 49 1800 170/05 RMK AO2 $
63870K0J4 0J420160525161009905/25/16 16:10:31  5-MIN K0J4 252110Z AUTO VRB03KT 10SM CLR 29/17 A3017 90 47 1800 VRB/03 RMK AO2 $
63870K0J4 0J420160525161509905/25/16 16:15:31  5-MIN K0J4 252115Z AUTO 16005KT 10SM CLR 29/17 A3017 90 47 1800 160/05 RMK AO2 $
63870K0J4 0J420160525162009905/25/16 16:20:31  5-MIN K0J4 252120Z AUTO VRB03KT 10SM CLR 29/18 A3017 90 49 1800 VRB/03 RMK AO2 $
63870K0J4 0J420160525162509905/25/16 16:25:31  5-MIN K0J4 252125Z AUTO 19003KT 10SM CLR 29/17 A3017 90 47 1800 190/03 RMK AO2 $
63870K0J4 0J420160525163009905/25/16 16:30:31  5-MIN K0J4 252130Z AUTO VRB04KT 10SM CLR 30/18 A3016 90 47 1900 VRB/04 RMK AO2 $
63870K0J4 0J420160525163509905/25/16 16:35:31  5-MIN K0J4 252135Z AUTO 16005KT 10SM CLR 30/17 A3016 90 44 1900 160/05 RMK AO2 $
63870K0J4 0J420160525164010005/25/16 16:40:31  5-MIN K0J4 252140Z AUTO VRB03KT 10SM CLR 29/17 A3016 100 45 1800 VRB/03 RMK AO2 $
63870K0J4 0J420160525164510005/25/16 16:45:31  5-MIN K0J4 252145Z AUTO VRB03KT 10SM CLR 30/17 A3016 100 45 1900 VRB/03 RMK AO2 $
63870K0J4 0J420160525165010005/25/16 16:50:31  5-MIN K0J4 252150Z AUTO 16004KT 10SM CLR 30/18 A3016 100 47 1900 160/04 RMK AO2 $
63870K0J4 0J420160525165511705/25/16 16:55:31  5-MIN K0J4 252155Z AUTO 15004KT 10SM CLR 30/17 A3016 100 45 1900 150/04 RMK AO2 SLP207 T03000172 $
63870K0J4 0J420160525170010005/25/16 17:00:31  5-MIN K0J4 252200Z AUTO 17004KT 10SM CLR 29/17 A3016 100 45 1800 170/04 RMK AO2 $
63870K0J4 0J420160525170510005/25/16 17:05:31  5-MIN K0J4 252205Z AUTO 17003KT 10SM CLR 29/17 A3015 100 45 1800 170/03 RMK AO2 $
63870K0J4 0J420160525171010305/25/16 17:10:31  5-MIN K0J4 252210Z AUTO 00000KT 10SM FEW049 29/17 A3015 100 47 1800 000/00 RMK AO2 $
63870K0J4 0J420160525171510305/25/16 17:15:31  5-MIN K0J4 252215Z AUTO 17003KT 10SM SCT049 29/17 A3015 100 47 1800 170/03 RMK AO2 $
63870K0J4 0J420160525172010305/25/16 17:20:31  5-MIN K0J4 252220Z AUTO 16007KT 10SM SCT049 29/18 A3015 100 50 1800 160/07 RMK AO2 $
63870K0J4 0J420160525172510305/25/16 17:25:31  5-MIN K0J4 252225Z AUTO 19006KT 10SM SCT049 28/18 A3015 100 52 1700 190/06 RMK AO2 $
63870K0J4 0J420160525173010305/25/16 17:30:31  5-MIN K0J4 252230Z AUTO 17005KT 10SM SCT049 28/18 A3015 110 52 1700 170/05 RMK AO2 $
63870K0J4 0J420160525173510305/25/16 17:35:31  5-MIN K0J4 252235Z AUTO 18004KT 10SM SCT049 28/18 A3015 110 52 1700 180/04 RMK AO2 $
63870K0J4 0J420160525174010305/25/16 17:40:31  5-MIN K0J4 252240Z AUTO 19004KT 10SM FEW049 28/18 A3015 110 54 1700 190/04 RMK AO2 $
63870K0J4 0J420160525174510305/25/16 17:45:31  5-MIN K0J4 252245Z AUTO 19004KT 10SM FEW049 28/18 A3015 110 54 1700 190/04 RMK AO2 $
63870K0J4 0J420160525175010305/25/16 17:50:31  5-MIN K0J4 252250Z AUTO 19005KT 10SM FEW060 28/18 A3015 110 54 1700 190/05 RMK AO2 $
63870K0J4 0J420160525175512005/25/16 17:55:31  5-MIN K0J4 252255Z AUTO 19006KT 10SM FEW060 28/19 A3015 110 56 1700 190/06 RMK AO2 SLP205 T02830189 $
63870K0J4 0J420160525180010305/25/16 18:00:31  5-MIN K0J4 252300Z AUTO 19008KT 10SM FEW060 28/19 A3014 110 60 1600 190/08 RMK AO2 $
63870K0J4 0J420160525180510305/25/16 18:05:31  5-MIN K0J4 252305Z AUTO 20007KT 10SM FEW060 28/19 A3015 110 60 1600 200/07 RMK AO2 $
63870K0J4 0J420160525181010305/25/16 18:10:31  5-MIN K0J4 252310Z AUTO 19009KT 10SM SCT060 28/19 A3015 110 60 1600 190/09 RMK AO2 $
63870K0J4 0J420160525181510305/25/16 18:15:31  5-MIN K0J4 252315Z AUTO 20007KT 10SM SCT060 28/19 A3015 110 60 1600 200/07 RMK AO2 $
63870K0J4 0J420160525182010305/25/16 18:20:31  5-MIN K0J4 252320Z AUTO 19007KT 10SM FEW060 27/19 A3015 110 62 1600 190/07 RMK AO2 $
63870K0J4 0J420160525182510305/25/16 18:25:31  5-MIN K0J4 252325Z AUTO 20008KT 10SM FEW060 27/19 A3015 110 62 1600 200/08 RMK AO2 $
63870K0J4 0J420160525183010305/25/16 18:30:31  5-MIN K0J4 252330Z AUTO 19006KT 10SM FEW060 27/19 A3015 110 62 1600 190/06 RMK AO2 $
63870K0J4 0J420160525183510305/25/16 18:35:31  5-MIN K0J4 252335Z AUTO 20007KT 10SM FEW065 27/19 A3014 110 62 1600 200/07 RMK AO2 $
63870K0J4 0J420160525184010005/25/16 18:40:31  5-MIN K0J4 252340Z AUTO 20008KT 10SM CLR 27/19 A3015 110 62 1600 200/08 RMK AO2 $
63870K0J4 0J420160525184510005/25/16 18:45:31  5-MIN K0J4 252345Z AUTO 20006KT 10SM CLR 27/19 A3015 110 62 1600 200/06 RMK AO2 $
63870K0J4 0J420160525185010005/25/16 18:50:31  5-MIN K0J4 252350Z AUTO 20006KT 10SM CLR 27/19 A3015 110 62 1600 200/06 RMK AO2 $
63870K0J4 0J420160525185513505/25/16 18:55:31  5-MIN K0J4 252355Z AUTO 20005KT 10SM CLR 27/19 A3015 110 64 1500 200/05 RMK AO2 SLP206 T02670194 10306 20267 56014 $
63870K0J4 0J420160525190010005/25/16 19:00:31  5-MIN K0J4 260000Z AUTO 20007KT 10SM CLR 27/19 A3015 100 64 1500 200/07 RMK AO2 $
63870K0J4 0J420160525190510005/25/16 19:05:31  5-MIN K0J4 260005Z AUTO 20007KT 10SM CLR 27/19 A3015 100 64 1500 200/07 RMK AO2 $
63870K0J4 0J420160525191010005/25/16 19:10:31  5-MIN K0J4 260010Z AUTO 20006KT 10SM CLR 27/19 A3015 100 64 1500 200/06 RMK AO2 $
63870K0J4 0J420160525191510005/25/16 19:15:31  5-MIN K0J4 260015Z AUTO 20005KT 10SM CLR 26/19 A3015 100 66 1400 200/05 RMK AO2 $
63870K0J4 0J420160525192010005/25/16 19:20:31  5-MIN K0J4 260020Z AUTO 20005KT 10SM CLR 26/19 A3016 100 66 1400 200/05 RMK AO2 $
63870K0J4 0J420160525192509905/25/16 19:25:31  5-MIN K0J4 260025Z AUTO 21003KT 10SM CLR 26/19 A3016 90 68 1400 210/03 RMK AO2 $
63870K0J4 0J420160525193009905/25/16 19:30:31  5-MIN K0J4 260030Z AUTO 21003KT 10SM CLR 26/19 A3017 90 68 1400 210/03 RMK AO2 $
63870K0J4 0J420160525193509905/25/16 19:35:31  5-MIN K0J4 260035Z AUTO 00000KT 10SM CLR 25/19 A3017 90 71 1300 000/00 RMK AO2 $
63870K0J4 0J420160525194009905/25/16 19:40:31  5-MIN K0J4 260040Z AUTO 00000KT 10SM CLR 26/19 A3017 90 68 1400 000/00 RMK AO2 $
63870K0J4 0J420160525194509905/25/16 19:45:31  5-MIN K0J4 260045Z AUTO 00000KT 10SM CLR 25/19 A3017 80 71 1300 000/00 RMK AO2 $
63870K0J4 0J420160525195009905/25/16 19:50:31  5-MIN K0J4 260050Z AUTO 23003KT 10SM CLR 24/19 A3018 80 73 1200 230/03 RMK AO2 $
63870K0J4 0J420160525195511605/25/16 19:55:31  5-MIN K0J4 260055Z AUTO 23003KT 10SM CLR 25/19 A3018 80 71 1300 230/03 RMK AO2 SLP216 T02500194 $
63870K0J4 0J420160525200009905/25/16 20:00:31  5-MIN K0J4 260100Z AUTO 23003KT 10SM CLR 24/19 A3018 70 73 1200 230/03 RMK AO2 $
63870K0J4 0J420160525200509905/25/16 20:05:31  5-MIN K0J4 260105Z AUTO 21003KT 10SM CLR 24/19 A3019 70 73 1200 210/03 RMK AO2 $
63870K0J4 0J420160525201009905/25/16 20:10:31  5-MIN K0J4 260110Z AUTO 22003KT 10SM CLR 23/20 A3019 70 81 1100 220/03 RMK AO2 $
63870K0J4 0J420160525201509905/25/16 20:15:31  5-MIN K0J4 260115Z AUTO 00000KT 10SM CLR 24/20 A3019 70 78 1200 000/00 RMK AO2 $
63870K0J4 0J420160525202009905/25/16 20:20:31  5-MIN K0J4 260120Z AUTO 00000KT 10SM CLR 23/20 A3019 70 81 1100 000/00 RMK AO2 $
63870K0J4 0J420160525202509905/25/16 20:25:31  5-MIN K0J4 260125Z AUTO 00000KT 10SM CLR 24/19 A3019 70 76 1200 000/00 RMK AO2 $
63870K0J4 0J420160525203009905/25/16 20:30:31  5-MIN K0J4 260130Z AUTO 00000KT 10SM CLR 23/19 A3019 70 78 1100 000/00 RMK AO2 $
63870K0J4 0J420160525203509905/25/16 20:35:31  5-MIN K0J4 260135Z AUTO 00000KT 10SM CLR 23/19 A3019 70 78 1100 000/00 RMK AO2 $
63870K0J4 0J420160525204009905/25/16 20:40:31  5-MIN K0J4 260140Z AUTO 00000KT 10SM CLR 23/19 A3019 70 78 1100 000/00 RMK AO2 $
63870K0J4 0J420160525204509905/25/16 20:45:31  5-MIN K0J4 260145Z AUTO 00000KT 10SM CLR 23/19 A3019 70 78 1100 000/00 RMK AO2 $
63870K0J4 0J420160525205009905/25/16 20:50:31  5-MIN K0J4 260150Z AUTO 00000KT 10SM CLR 23/19 A3019 70 81 1000 000/00 RMK AO2 $
63870K0J4 0J420160525205511605/25/16 20:55:31  5-MIN K0J4 260155Z AUTO 00000KT 10SM CLR 23/19 A3019 60 81 1000 000/00 RMK AO2 SLP221 T02280194 $
63870K0J4 0J420160525210009905/25/16 21:00:31  5-MIN K0J4 260200Z AUTO 00000KT 10SM CLR 22/19 A3019 60 84 1000 000/00 RMK AO2 $
63870K0J4 0J420160525210509905/25/16 21:05:31  5-MIN K0J4 260205Z AUTO 00000KT 10SM CLR 23/19 A3020 60 81 1000 000/00 RMK AO2 $
63870K0J4 0J420160525211009905/25/16 21:10:31  5-MIN K0J4 260210Z AUTO 00000KT 10SM CLR 23/19 A3020 60 81 1000 000/00 RMK AO2 $
63870K0J4 0J420160525211509905/25/16 21:15:31  5-MIN K0J4 260215Z AUTO 00000KT 10SM CLR 22/19 A3020 60 81 1000 000/00 RMK AO2 $
63870K0J4 0J420160525212009805/25/16 21:20:31  5-MIN K0J4 260220Z AUTO 00000KT 10SM CLR 22/19 A3019 60 84 900 000/00 RMK AO2 $
63870K0J4 0J420160525212509805/25/16 21:25:31  5-MIN K0J4 260225Z AUTO 00000KT 10SM CLR 22/19 A3019 70 84 900 000/00 RMK AO2 $
63870K0J4 0J420160525213009905/25/16 21:30:31  5-MIN K0J4 260230Z AUTO 00000KT 10SM CLR 22/19 A3019 70 81 1000 000/00 RMK AO2 $
63870K0J4 0J420160525213509905/25/16 21:35:31  5-MIN K0J4 260235Z AUTO 00000KT 10SM CLR 23/19 A3020 60 78 1000 000/00 RMK AO2 $
63870K0J4 0J420160525214009805/25/16 21:40:31  5-MIN K0J4 260240Z AUTO 00000KT 10SM CLR 22/19 A3019 60 84 900 000/00 RMK AO2 $
63870K0J4 0J420160525214509805/25/16 21:45:31  5-MIN K0J4 260245Z AUTO 00000KT 10SM CLR 22/19 A3019 70 84 900 000/00 RMK AO2 $
63870K0J4 0J420160525215009805/25/16 21:50:31  5-MIN K0J4 260250Z AUTO 00000KT 10SM CLR 21/19 A3019 70 87 800 000/00 RMK AO2 $
63870K0J4 0J420160525215512105/25/16 21:55:31  5-MIN K0J4 260255Z AUTO 00000KT 10SM CLR 22/19 A3019 70 84 900 000/00 RMK AO2 SLP220 T02170189 55009 $
63870K0J4 0J420160525220009805/25/16 22:00:31  5-MIN K0J4 260300Z AUTO 00000KT 10SM CLR 22/19 A3020 60 84 900 000/00 RMK AO2 $
63870K0J4 0J420160525220509905/25/16 22:05:31  5-MIN K0J4 260305Z AUTO 00000KT 10SM CLR 22/19 A3020 60 81 1000 000/00 RMK AO2 $
63870K0J4 0J420160525221009905/25/16 22:10:31  5-MIN K0J4 260310Z AUTO 00000KT 10SM CLR 22/19 A3020 60 81 1000 000/00 RMK AO2 $
63870K0J4 0J420160525221509805/25/16 22:15:31  5-MIN K0J4 260315Z AUTO 00000KT 10SM CLR 21/19 A3020 60 87 800 000/00 RMK AO2 $
63870K0J4 0J420160525222009805/25/16 22:20:31  5-MIN K0J4 260320Z AUTO 00000KT 10SM CLR 21/19 A3020 60 90 800 000/00 RMK AO2 $
63870K0J4 0J420160525222509805/25/16 22:25:31  5-MIN K0J4 260325Z AUTO 22003KT 10SM CLR 21/19 A3020 60 90 800 220/03 RMK AO2 $
63870K0J4 0J420160525223009805/25/16 22:30:31  5-MIN K0J4 260330Z AUTO 00000KT 10SM CLR 21/19 A3020 60 87 800 000/00 RMK AO2 $
63870K0J4 0J420160525223509805/25/16 22:35:31  5-MIN K0J4 260335Z AUTO 21003KT 10SM CLR 21/19 A3020 60 87 800 210/03 RMK AO2 $
63870K0J4 0J420160525224009805/25/16 22:40:31  5-MIN K0J4 260340Z AUTO 00000KT 10SM CLR 21/19 A3020 60 90 800 000/00 RMK AO2 $
63870K0J4 0J420160525224509805/25/16 22:45:31  5-MIN K0J4 260345Z AUTO 00000KT 10SM CLR 21/19 A3019 60 90 800 000/00 RMK AO2 $
63870K0J4 0J420160525225009805/25/16 22:50:31  5-MIN K0J4 260350Z AUTO 00000KT 10SM CLR 21/19 A3018 70 90 800 000/00 RMK AO2 $
63870K0J4 0J420160525225511505/25/16 22:55:31  5-MIN K0J4 260355Z AUTO 00000KT 10SM CLR 21/18 A3018 70 87 800 000/00 RMK AO2 SLP216 T02060183 $
63870K0J4 0J420160525230009805/25/16 23:00:31  5-MIN K0J4 260400Z AUTO 00000KT 10SM CLR 21/19 A3018 80 87 800 000/00 RMK AO2 $
63870K0J4 0J420160525230509805/25/16 23:05:31  5-MIN K0J4 260405Z AUTO 00000KT 10SM CLR 22/19 A3018 80 87 900 000/00 RMK AO2 $
63870K0J4 0J420160525231009805/25/16 23:10:31  5-MIN K0J4 260410Z AUTO 00000KT 10SM CLR 22/19 A3018 80 87 900 000/00 RMK AO2 $
63870K0J4 0J420160525231509805/25/16 23:15:31  5-MIN K0J4 260415Z AUTO 22003KT 10SM CLR 21/19 A3018 80 90 800 220/03 RMK AO2 $
63870K0J4 0J420160525232009805/25/16 23:20:31  5-MIN K0J4 260420Z AUTO 22003KT 10SM CLR 21/19 A3018 80 90 900 220/03 RMK AO2 $
63870K0J4 0J420160525232509805/25/16 23:25:31  5-MIN K0J4 260425Z AUTO 21003KT 10SM CLR 22/19 A3018 80 87 900 210/03 RMK AO2 $
63870K0J4 0J420160525233009805/25/16 23:30:31  5-MIN K0J4 260430Z AUTO 21003KT 10SM CLR 21/19 A3018 80 90 900 210/03 RMK AO2 $
63870K0J4 0J420160525233509805/25/16 23:35:31  5-MIN K0J4 260435Z AUTO 00000KT 10SM CLR 21/19 A3017 80 90 800 000/00 RMK AO2 $
63870K0J4 0J420160525234009805/25/16 23:40:31  5-MIN K0J4 260440Z AUTO 00000KT 10SM CLR 21/19 A3017 90 90 800 000/00 RMK AO2 $
63870K0J4 0J420160525234509805/25/16 23:45:31  5-MIN K0J4 260445Z AUTO 00000KT 10SM CLR 20/18 A3017 80 90 700 000/00 RMK AO2 $
63870K0J4 0J420160525235009805/25/16 23:50:31  5-MIN K0J4 260450Z AUTO 00000KT 10SM CLR 21/19 A3017 90 90 900 000/00 RMK AO2 $
63870K0J4 0J420160525235512505/25/16 23:55:31  5-MIN K0J4 260455Z AUTO 00000KT 10SM CLR 20/18 A3017 90 90 700 000/00 RMK AO2 SLP211 T02000183 403060144 $
63870K0J4 0J420160526000009805/26/16 00:00:31  5-MIN K0J4 260500Z AUTO 00000KT 10SM CLR 20/18 A3017 90 90 700 000/00 RMK AO2 $
63870K0J4 0J420160526000509805/26/16 00:05:31  5-MIN K0J4 260505Z AUTO 00000KT 10SM CLR 21/19 A3017 80 90 900 000/00 RMK AO2 $
63870K0J4 0J420160526001009805/26/16 00:10:31  5-MIN K0J4 260510Z AUTO 00000KT 10SM CLR 20/19 A3017 80 93 700 000/00 RMK AO2 $
63870K0J4 0J420160526001509805/26/16 00:15:31  5-MIN K0J4 260515Z AUTO 00000KT 10SM CLR 20/18 A3018 80 90 700 000/00 RMK AO2 $
63870K0J4 0J420160526002009805/26/16 00:20:31  5-MIN K0J4 260520Z AUTO 00000KT 10SM CLR 21/19 A3017 80 90 800 000/00 RMK AO2 $
63870K0J4 0J420160526002509805/26/16 00:25:31  5-MIN K0J4 260525Z AUTO 00000KT 10SM CLR 19/18 A3017 90 93 700 000/00 RMK AO2 $
63870K0J4 0J420160526003009705/26/16 00:30:31  5-MIN K0J4 260530Z AUTO 00000KT 9SM CLR 19/18 A3016 90 93 600 000/00 RMK AO2 $
63870K0J4 0J420160526003509805/26/16 00:35:31  5-MIN K0J4 260535Z AUTO 00000KT 8SM CLR 19/18 A3016 100 90 700 000/00 RMK AO2 $
63870K0J4 0J420160526004009805/26/16 00:40:31  5-MIN K0J4 260540Z AUTO 00000KT 8SM CLR 20/19 A3016 100 93 700 000/00 RMK AO2 $
63870K0J4 0J420160526004509705/26/16 00:45:31  5-MIN K0J4 260545Z AUTO 00000KT 8SM CLR 21/19 A3016 90 90 800 000/00 RMK AO2 $
63870K0J4 0J420160526005009705/26/16 00:50:31  5-MIN K0J4 260550Z AUTO 00000KT 9SM CLR 21/19 A3016 90 93 800 000/00 RMK AO2 $
63870K0J4 0J420160526005513305/26/16 00:55:31  5-MIN K0J4 260555Z AUTO 00000KT 9SM CLR 20/19 A3016 100 93 700 000/00 RMK AO2 SLP208 T02000189 10267 20189 51015 $
63870K0J4 0J420160526010009805/26/16 01:00:31  5-MIN K0J4 260600Z AUTO 00000KT 8SM CLR 19/18 A3015 100 93 700 000/00 RMK AO2 $
63870K0J4 0J420160526010509805/26/16 01:05:31  5-MIN K0J4 260605Z AUTO 00000KT 7SM CLR 20/18 A3015 100 90 800 000/00 RMK AO2 $
63870K0J4 0J420160526011009805/26/16 01:10:31  5-MIN K0J4 260610Z AUTO 00000KT 7SM CLR 19/18 A3015 110 93 700 000/00 RMK AO2 $
63870K0J4 0J420160526011509805/26/16 01:15:31  5-MIN K0J4 260615Z AUTO 00000KT 8SM CLR 20/19 A3015 100 93 800 000/00 RMK AO2 $
63870K0J4 0J420160526012009805/26/16 01:20:31  5-MIN K0J4 260620Z AUTO 00000KT 8SM CLR 21/19 A3015 110 93 800 000/00 RMK AO2 $
63870K0J4 0J420160526012509805/26/16 01:25:31  5-MIN K0J4 260625Z AUTO 00000KT 8SM CLR 20/19 A3015 110 93 800 000/00 RMK AO2 $
63870K0J4 0J420160526013009805/26/16 01:30:31  5-MIN K0J4 260630Z AUTO 00000KT 8SM CLR 19/18 A3014 110 93 700 000/00 RMK AO2 $
63870K0J4 0J420160526013509805/26/16 01:35:31  5-MIN K0J4 260635Z AUTO 00000KT 8SM CLR 21/19 A3015 110 93 800 000/00 RMK AO2 $
63870K0J4 0J420160526014009805/26/16 01:40:31  5-MIN K0J4 260640Z AUTO 00000KT 7SM CLR 21/20 A3015 110 93 900 000/00 RMK AO2 $
63870K0J4 0J420160526014509805/26/16 01:45:31  5-MIN K0J4 260645Z AUTO 00000KT 7SM CLR 21/20 A3014 110 97 800 000/00 RMK AO2 $
63870K0J4 0J420160526015009805/26/16 01:50:31  5-MIN K0J4 260650Z AUTO 23003KT 7SM CLR 20/19 A3014 110 97 800 230/03 RMK AO2 $
63870K0J4 0J420160526015511805/26/16 01:55:31  5-MIN K0J4 260655Z AUTO 22003KT 6SM BR CLR 21/20 A3015 110 97 800 220/03 RMK AO2 SLP203 T02060200 $
63870K0J4 0J420160526020010105/26/16 02:00:31  5-MIN K0J4 260700Z AUTO 00000KT 6SM BR CLR 21/19 A3014 110 93 800 000/00 RMK AO2 $
63870K0J4 0J420160526020509805/26/16 02:05:31  5-MIN K0J4 260705Z AUTO 00000KT 7SM CLR 20/19 A3014 120 93 800 000/00 RMK AO2 $
63870K0J4 0J420160526021009805/26/16 02:10:31  5-MIN K0J4 260710Z AUTO 00000KT 7SM CLR 20/19 A3014 120 93 800 000/00 RMK AO2 $
63870K0J4 0J420160526021510105/26/16 02:15:31  5-MIN K0J4 260715Z AUTO 00000KT 6SM BR CLR 20/19 A3013 120 93 800 000/00 RMK AO2 $
63870K0J4 0J420160526022010105/26/16 02:20:31  5-MIN K0J4 260720Z AUTO 00000KT 5SM BR CLR 20/19 A3013 120 93 800 000/00 RMK AO2 $
63870K0J4 0J420160526022510105/26/16 02:25:31  5-MIN K0J4 260725Z AUTO 00000KT 5SM BR CLR 21/19 A3013 120 90 900 000/00 RMK AO2 $
63870K0J4 0J420160526023010105/26/16 02:30:31  5-MIN K0J4 260730Z AUTO 00000KT 5SM BR CLR 21/19 A3014 120 93 800 000/00 RMK AO2 $
63870K0J4 0J420160526023510105/26/16 02:35:31  5-MIN K0J4 260735Z AUTO 00000KT 4SM BR CLR 20/19 A3014 120 97 800 000/00 RMK AO2 $
63870K0J4 0J420160526024010105/26/16 02:40:31  5-MIN K0J4 260740Z AUTO 00000KT 4SM BR CLR 20/19 A3013 120 97 800 000/00 RMK AO2 $
63870K0J4 0J420160526024510105/26/16 02:45:31  5-MIN K0J4 260745Z AUTO 00000KT 5SM BR CLR 21/19 A3013 120 93 800 000/00 RMK AO2 $
63870K0J4 0J420160526025010105/26/16 02:50:31  5-MIN K0J4 260750Z AUTO 00000KT 5SM BR CLR 20/19 A3013 120 97 800 000/00 RMK AO2 $
63870K0J4 0J420160526025511805/26/16 02:55:31  5-MIN K0J4 260755Z AUTO 00000KT 5SM BR CLR 20/19 A3013 120 93 800 000/00 RMK AO2 SLP199 T02000189 $
63870K0J4 0J420160526030010105/26/16 03:00:31  5-MIN K0J4 260800Z AUTO 00000KT 5SM BR CLR 19/19 A3013 120 97 700 000/00 RMK AO2 $
63870K0J4 0J420160526030510105/26/16 03:05:31  5-MIN K0J4 260805Z AUTO 00000KT 5SM BR CLR 20/19 A3013 120 93 800 000/00 RMK AO2 $
63870K0J4 0J420160526031010505/26/16 03:10:31  5-MIN K0J4 260810Z AUTO 00000KT 2 1/2SM BR CLR 19/18 A3013 120 93 700 000/00 RMK AO2 $
63870K0J4 0J420160526031510505/26/16 03:15:31  5-MIN K0J4 260815Z AUTO 00000KT 1 1/2SM BR CLR 19/18 A3013 120 93 700 000/00 RMK AO2 $
63870K0J4 0J420160526032010805/26/16 03:20:31  5-MIN K0J4 260820Z AUTO 00000KT 2 1/2SM BR FEW008 20/18 A3013 120 90 800 000/00 RMK AO2 $
63870K0J4 0J420160526032510105/26/16 03:25:31  5-MIN K0J4 260825Z AUTO 00000KT 9SM FEW006 20/18 A3013 120 90 800 000/00 RMK AO2 $
63870K0J4 0J420160526033010105/26/16 03:30:31  5-MIN K0J4 260830Z AUTO 00000KT 9SM SCT006 19/18 A3013 120 93 700 000/00 RMK AO2 $
63870K0J4 0J420160526033510105/26/16 03:35:31  5-MIN K0J4 260835Z AUTO 00000KT 9SM BKN006 19/18 A3013 120 93 700 000/00 RMK AO2 $
63870K0J4 0J420160526034010105/26/16 03:40:31  5-MIN K0J4 260840Z AUTO 00000KT 8SM BKN004 19/18 A3013 120 93 700 000/00 RMK AO2 $
63870K0J4 0J420160526034510105/26/16 03:45:31  5-MIN K0J4 260845Z AUTO 00000KT 7SM BKN004 19/18 A3013 120 93 700 000/00 RMK AO2 $
63870K0J4 0J420160526035010405/26/16 03:50:31  5-MIN K0J4 260850Z AUTO 00000KT 6SM BR OVC004 20/19 A3014 120 93 800 000/00 RMK AO2 $
63870K0J4 0J420160526035512605/26/16 03:55:31  5-MIN K0J4 260855Z AUTO 00000KT 1SM BR VV002 20/19 A3014 120 93 800 000/00 RMK AO2 SLP200 T02000189 58013 $
63870K0J4 0J420160526040010505/26/16 04:00:31  5-MIN K0J4 260900Z AUTO 00000KT 1/4SM FG VV002 21/19 A3013 120 93 800 000/00 RMK AO2 $
63870K0J4 0J420160526040510505/26/16 04:05:31  5-MIN K0J4 260905Z AUTO 00000KT 1/4SM FG VV002 21/20 A3014 120 97 800 000/00 RMK AO2 $
63870K0J4 0J420160526041010505/26/16 04:10:31  5-MIN K0J4 260910Z AUTO 00000KT 1/4SM FG VV002 21/20 A3014 120 97 800 000/00 RMK AO2 $
63870K0J4 0J420160526041510505/26/16 04:15:31  5-MIN K0J4 260915Z AUTO 00000KT 1/4SM FG VV002 21/20 A3014 120 97 800 000/00 RMK AO2 $
63870K0J4 0J420160526042010505/26/16 04:20:31  5-MIN K0J4 260920Z AUTO 00000KT 1/4SM FG VV002 21/20 A3014 120 97 800 000/00 RMK AO2 $
63870K0J4 0J420160526042510605/26/16 04:25:31  5-MIN K0J4 260925Z AUTO 00000KT 1/4SM FG VV002 20/20 A3013 120 100 800 000/00 RMK AO2 $
63870K0J4 0J420160526043010605/26/16 04:30:31  5-MIN K0J4 260930Z AUTO 00000KT 1/4SM FG VV002 20/20 A3013 120 100 800 000/00 RMK AO2 $
63870K0J4 0J420160526043510505/26/16 04:35:31  5-MIN K0J4 260935Z AUTO 00000KT 1/4SM FG VV001 20/19 A3014 110 97 800 000/00 RMK AO2 $
63870K0J4 0J420160526044010505/26/16 04:40:31  5-MIN K0J4 260940Z AUTO 00000KT 1/4SM FG VV001 20/19 A3014 110 97 800 000/00 RMK AO2 $
63870K0J4 0J420160526044510505/26/16 04:45:31  5-MIN K0J4 260945Z AUTO 00000KT 1/4SM FG VV001 20/19 A3014 110 97 800 000/00 RMK AO2 $
63870K0J4 0J420160526045010505/26/16 04:50:31  5-MIN K0J4 260950Z AUTO 00000KT 1/4SM FG VV002 20/19 A3015 110 97 800 000/00 RMK AO2 $
63870K0J4 0J420160526045512205/26/16 04:55:31  5-MIN K0J4 260955Z AUTO 00000KT 1/4SM FG VV002 20/19 A3015 110 97 800 000/00 RMK AO2 SLP204 T02000194 $
63870K0J4 0J420160526050010505/26/16 05:00:31  5-MIN K0J4 261000Z AUTO 00000KT 1/4SM FG VV002 20/19 A3015 110 97 800 000/00 RMK AO2 $
63870K0J4 0J420160526050510505/26/16 05:05:31  5-MIN K0J4 261005Z AUTO 00000KT 1/4SM FG VV002 20/19 A3015 100 97 800 000/00 RMK AO2 $
63870K0J4 0J420160526051010505/26/16 05:10:31  5-MIN K0J4 261010Z AUTO 00000KT 1/4SM FG VV002 20/19 A3015 100 97 800 000/00 RMK AO2 $
63870K0J4 0J420160526051510505/26/16 05:15:31  5-MIN K0J4 261015Z AUTO 00000KT 1/4SM FG VV002 20/19 A3015 110 97 800 000/00 RMK AO2 $
63870K0J4 0J420160526052010505/26/16 05:20:31  5-MIN K0J4 261020Z AUTO 00000KT 1/4SM FG VV002 20/19 A3015 100 97 800 000/00 RMK AO2 $
63870K0J4 0J420160526052511105/26/16 05:25:31  5-MIN K0J4 261025Z AUTO 00000KT 1/4SM FG VV002 20/19 A3015 100 97 800 000/00 RMK AO2 P0001 $
63870K0J4 0J420160526053011105/26/16 05:30:31  5-MIN K0J4 261030Z AUTO 00000KT 1/4SM FG VV002 20/19 A3015 100 97 800 000/00 RMK AO2 P0001 $
63870K0J4 0J420160526053511105/26/16 05:35:31  5-MIN K0J4 261035Z AUTO 00000KT 1/4SM FG VV002 20/19 A3015 100 97 800 000/00 RMK AO2 P0001 $
63870K0J4 0J420160526054011105/26/16 05:40:31  5-MIN K0J4 261040Z AUTO 00000KT 1/4SM FG VV002 20/19 A3016 100 97 700 000/00 RMK AO2 P0001 $
63870K0J4 0J420160526054511105/26/16 05:45:31  5-MIN K0J4 261045Z AUTO 00000KT 1/4SM FG VV002 20/19 A3016 100 97 700 000/00 RMK AO2 P0001 $
63870K0J4 0J420160526055011105/26/16 05:50:31  5-MIN K0J4 261050Z AUTO 00000KT 1/4SM FG VV002 20/19 A3016 100 97 700 000/00 RMK AO2 P0001 $
63870K0J4 0J420160526055512705/26/16 05:55:31  5-MIN K0J4 261055Z AUTO 00000KT 1/4SM FG VV002 20/19 A3016 90 97 700 000/00 RMK AO2 SLP209 P0001 T02000194 $
63870K0J4 0J420160526060010405/26/16 06:00:31  5-MIN K0J4 261100Z AUTO 00000KT 1/4SM FG VV002 20/19 A3016 90 97 700 000/00 RMK AO2 $
63870K0J4 0J420160526060510605/26/16 06:05:31  5-MIN K0J4 261105Z AUTO 00000KT M1/4SM FG VV002 20/19 A3016 100 97 700 000/00 RMK AO2 $
63870K0J4 0J420160526061010505/26/16 06:10:31  5-MIN K0J4 261110Z AUTO 00000KT M1/4SM FG VV001 20/19 A3016 90 97 700 000/00 RMK AO2 $
63870K0J4 0J420160526061510505/26/16 06:15:31  5-MIN K0J4 261115Z AUTO 00000KT M1/4SM FG VV001 20/19 A3017 90 97 700 000/00 RMK AO2 $
63870K0J4 0J420160526062010505/26/16 06:20:31  5-MIN K0J4 261120Z AUTO 00000KT M1/4SM FG VV001 20/19 A3016 90 97 700 000/00 RMK AO2 $
63870K0J4 0J420160526062510505/26/16 06:25:31  5-MIN K0J4 261125Z AUTO 00000KT M1/4SM FG VV001 20/19 A3016 90 97 700 000/00 RMK AO2 $
63870K0J4 0J420160526063010405/26/16 06:30:31  5-MIN K0J4 261130Z AUTO 00000KT 1/4SM FG VV001 20/19 A3017 90 97 700 000/00 RMK AO2 $
63870K0J4 0J420160526063510405/26/16 06:35:31  5-MIN K0J4 261135Z AUTO 00000KT 1/4SM FG VV001 20/19 A3017 90 97 700 000/00 RMK AO2 $
63870K0J4 0J420160526064010405/26/16 06:40:31  5-MIN K0J4 261140Z AUTO 00000KT 1/4SM FG VV001 20/19 A3017 80 97 700 000/00 RMK AO2 $
63870K0J4 0J420160526064510505/26/16 06:45:31  5-MIN K0J4 261145Z AUTO 00000KT 1/4SM FG VV002 20/20 A3018 80 100 700 000/00 RMK AO2 $
63870K0J4 0J420160526065010405/26/16 06:50:31  5-MIN K0J4 261150Z AUTO 00000KT 1/4SM FG VV002 21/20 A3018 70 97 800 000/00 RMK AO2 $
63870K0J4 0J420160526065515105/26/16 06:55:31  5-MIN K0J4 261155Z AUTO 00000KT 1/4SM FG VV002 21/20 A3019 70 97 800 000/00 RMK AO2 SLP217 60001 70001 T02060200 10211 20189 55007 $
63870K0J4 0J420160526070010405/26/16 07:00:31  5-MIN K0J4 261200Z AUTO 00000KT 1/2SM FG VV002 21/20 A3019 70 97 800 000/00 RMK AO2 $
63870K0J4 0J420160526070510505/26/16 07:05:31  5-MIN K0J4 261205Z AUTO 00000KT 1/2SM FG OVC002 21/20 A3019 70 97 800 000/00 RMK AO2 $
63870K0J4 0J420160526071010505/26/16 07:10:31  5-MIN K0J4 261210Z AUTO 09003KT 1/2SM FG OVC002 21/20 A3019 70 97 800 090/03 RMK AO2 $
63870K0J4 0J420160526071510605/26/16 07:15:31  5-MIN K0J4 261215Z AUTO 10003KT 1/2SM FG OVC002 21/21 A3019 70 100 800 100/03 RMK AO2 $
63870K0J4 0J420160526072010605/26/16 07:20:31  5-MIN K0J4 261220Z AUTO 11004KT 3/4SM BR OVC002 21/21 A3019 70 100 800 110/04 RMK AO2 $
63870K0J4 0J420160526072510605/26/16 07:25:31  5-MIN K0J4 261225Z AUTO 00000KT 1/2SM FG OVC002 21/21 A3019 60 100 800 000/00 RMK AO2 $
63870K0J4 0J420160526073010605/26/16 07:30:31  5-MIN K0J4 261230Z AUTO 13004KT 1/2SM FG OVC002 21/21 A3020 60 100 800 130/04 RMK AO2 $
63870K0J4 0J420160526073510505/26/16 07:35:31  5-MIN K0J4 261235Z AUTO 12003KT 3/4SM BR OVC002 21/21 A3020 60 97 800 120/03 RMK AO2 $
63870K0J4 0J420160526074010305/26/16 07:40:31  5-MIN K0J4 261240Z AUTO 14003KT 1SM BR OVC002 21/21 A3020 60 97 800 140/03 RMK AO2 $
63870K0J4 0J420160526074510305/26/16 07:45:31  5-MIN K0J4 261245Z AUTO 00000KT 1SM BR OVC002 21/21 A3020 60 97 800 000/00 RMK AO2 $
63870K0J4 0J420160526075010505/26/16 07:50:31  5-MIN K0J4 261250Z AUTO 14004KT 3/4SM BR OVC002 21/21 A3020 60 97 800 140/04 RMK AO2 $
63870K0J4 0J420160526075510305/26/16 07:55:31  5-MIN K0J4 261255Z AUTO 13003KT 1SM BR OVC002 21/21 A3019 60 97 800 130/03 RMK AO2 $
63870K0J4 0J420160526080010805/26/16 08:00:31  5-MIN K0J4 261300Z AUTO 12004KT 1 1/4SM BR OVC002 21/21 A3019 60 100 800 120/04 RMK AO2 $
63870K0J4 0J420160526080510305/26/16 08:05:31  5-MIN K0J4 261305Z AUTO 14004KT 2SM BR OVC002 22/21 A3019 60 97 900 140/04 RMK AO2 $
63870K0J4 0J420160526081010305/26/16 08:10:31  5-MIN K0J4 261310Z AUTO 15004KT 4SM BR OVC002 22/21 A3020 60 97 900 150/04 RMK AO2 $
63870K0J4 0J420160526081510005/26/16 08:15:31  5-MIN K0J4 261315Z AUTO VRB04KT 7SM OVC002 22/21 A3020 60 97 900 VRB/04 RMK AO2 $
63870K0J4 0J420160526082010005/26/16 08:20:31  5-MIN K0J4 261320Z AUTO VRB06KT 7SM OVC002 22/21 A3020 60 97 900 VRB/06 RMK AO2 $
63870K0J4 0J420160526082510005/26/16 08:25:31  5-MIN K0J4 261325Z AUTO 14004KT 7SM OVC002 22/21 A3020 60 97 900 140/04 RMK AO2 $
63870K0J4 0J420160526083010005/26/16 08:30:31  5-MIN K0J4 261330Z AUTO 16004KT 7SM OVC002 22/21 A3020 60 97 900 160/04 RMK AO2 $
63870K0J4 0J420160526083510005/26/16 08:35:31  5-MIN K0J4 261335Z AUTO 15005KT 7SM OVC002 22/21 A3020 60 97 900 150/05 RMK AO2 $
63870K0J4 0J420160526084010005/26/16 08:40:31  5-MIN K0J4 261340Z AUTO VRB04KT 8SM OVC002 22/21 A3020 60 97 900 VRB/04 RMK AO2 $
63870K0J4 0J420160526084511305/26/16 08:45:31  5-MIN K0J4 261345Z AUTO 17005KT 9SM OVC004 22/21 A3020 60 93 1000 170/05 RMK AO2 CIG 002V007 $
63870K0J4 0J420160526085012005/26/16 08:50:31  5-MIN K0J4 261350Z AUTO 17006KT 10SM BKN004 OVC010 22/21 A3019 60 97 900 170/06 RMK AO2 CIG 002V007 $
63870K0J4 0J420160526085513805/26/16 08:55:31  5-MIN K0J4 261355Z AUTO VRB04KT 10SM BKN004 OVC010 23/21 A3019 60 90 1000 VRB/04 RMK AO2 CIG 003V007 SLP221 T02280211 $
63870K0J4 0J420160526090012805/26/16 09:00:31  5-MIN K0J4 261400Z AUTO 17006KT 10SM BKN004 BKN010 OVC014 23/21 A3019 60 87 1100 170/06 RMK AO2 CIG 003V008 $
63870K0J4 0J420160526090512805/26/16 09:05:31  5-MIN K0J4 261405Z AUTO 18005KT 10SM FEW006 BKN010 OVC014 23/21 A3019 60 87 1100 180/05 RMK AO2 CIG 007V012 $
63870K0J4 0J420160526091012105/26/16 09:10:31  5-MIN K0J4 261410Z AUTO 13005KT 10SM BKN008 OVC014 24/21 A3019 60 81 1200 130/05 RMK AO2 CIG 005V011 $
63870K0J4 0J420160526091512105/26/16 09:15:31  5-MIN K0J4 261415Z AUTO 14006KT 10SM BKN010 OVC016 24/21 A3019 70 78 1200 140/06 RMK AO2 CIG 006V013 $
63870K0J4 0J420160526092010905/26/16 09:20:31  5-MIN K0J4 261420Z AUTO 14006KT 10SM BKN012 OVC017 24/21 A3019 70 78 1200 140/06 RMK AO2 $
63870K0J4 0J420160526092510905/26/16 09:25:31  5-MIN K0J4 261425Z AUTO 17004KT 10SM BKN012 BKN017 24/21 A3019 70 78 1200 170/04 RMK AO2 $
63870K0J4 0J420160526093011605/26/16 09:30:31  5-MIN K0J4 261430Z AUTO 13007KT 10SM BKN012 BKN017 BKN031 24/21 A3019 70 78 1200 130/07 RMK AO2 $
63870K0J4 0J420160526093511605/26/16 09:35:31  5-MIN K0J4 261435Z AUTO 14005KT 10SM SCT012 BKN017 BKN031 24/21 A3018 70 78 1200 140/05 RMK AO2 $
63870K0J4 0J420160526094011605/26/16 09:40:31  5-MIN K0J4 261440Z AUTO VRB03KT 10SM SCT012 SCT017 BKN031 25/21 A3018 70 76 1300 VRB/03 RMK AO2 $
63870K0J4 0J420160526094511605/26/16 09:45:31  5-MIN K0J4 261445Z AUTO VRB05KT 10SM FEW012 SCT017 SCT031 26/21 A3018 80 76 1400 VRB/05 RMK AO2 $
63870K0J4 0J420160526095010205/26/16 09:50:31  5-MIN K0J4 261450Z AUTO 15006KT 10SM FEW013 26/21 A3018 80 73 1400 150/06 RMK AO2 $
63870K0J4 0J420160526095512505/26/16 09:55:31  5-MIN K0J4 261455Z AUTO 16006KT 10SM FEW026 26/20 A3018 80 71 1400 160/06 RMK AO2 SLP214 T02560200 53017 $
63870K0J4 0J420160526100010905/26/16 10:00:31  5-MIN K0J4 261500Z AUTO 14005KT 10SM FEW020 SCT026 26/21 A3018 80 71 1400 140/05 RMK AO2 $
63870K0J4 0J420160526100510905/26/16 10:05:31  5-MIN K0J4 261505Z AUTO 17006KT 10SM FEW020 SCT028 26/20 A3018 80 71 1400 170/06 RMK AO2 $
63870K0J4 0J420160526101011605/26/16 10:10:31  5-MIN K0J4 261510Z AUTO 20007KT 10SM FEW020 SCT028 SCT032 26/20 A3018 80 71 1400 200/07 RMK AO2 $
63870K0J4 0J420160526101510905/26/16 10:15:31  5-MIN K0J4 261515Z AUTO 15006KT 10SM FEW020 SCT032 27/21 A3018 80 69 1500 150/06 RMK AO2 $
63870K0J4 0J420160526102011605/26/16 10:20:31  5-MIN K0J4 261520Z AUTO 19009KT 10SM FEW020 SCT025 SCT032 27/19 A3018 80 64 1500 190/09 RMK AO2 $
63870K0J4 0J420160526102511605/26/16 10:25:31  5-MIN K0J4 261525Z AUTO 19007KT 10SM FEW020 SCT025 SCT032 27/19 A3018 80 64 1500 190/07 RMK AO2 $
63870K0J4 0J420160526103010205/26/16 10:30:31  5-MIN K0J4 261530Z AUTO 18007KT 10SM FEW023 27/19 A3018 80 64 1500 180/07 RMK AO2 $
63870K0J4 0J420160526103510205/26/16 10:35:31  5-MIN K0J4 261535Z AUTO 17006KT 10SM FEW025 26/19 A3017 80 66 1400 170/06 RMK AO2 $
63870K0J4 0J420160526104010205/26/16 10:40:31  5-MIN K0J4 261540Z AUTO VRB04KT 10SM FEW025 27/20 A3017 80 66 1500 VRB/04 RMK AO2 $
63870K0J4 0J420160526104510205/26/16 10:45:31  5-MIN K0J4 261545Z AUTO 18007KT 10SM FEW025 27/19 A3017 90 62 1600 180/07 RMK AO2 $
63870K0J4 0J420160526105010205/26/16 10:50:31  5-MIN K0J4 261550Z AUTO 16007KT 10SM FEW032 27/19 A3017 80 62 1600 160/07 RMK AO2 $
63870K0J4 0J420160526105511905/26/16 10:55:31  5-MIN K0J4 261555Z AUTO 17007KT 10SM FEW032 27/19 A3017 80 62 1600 170/07 RMK AO2 SLP213 T02720194 $
63870K0J4 0J420160526110010205/26/16 11:00:31  5-MIN K0J4 261600Z AUTO 18007KT 10SM FEW032 28/19 A3017 80 60 1600 180/07 RMK AO2 $
63870K0J4 0J420160526110510205/26/16 11:05:31  5-MIN K0J4 261605Z AUTO 18007KT 10SM FEW032 28/19 A3018 80 58 1600 180/07 RMK AO2 $
63870K0J4 0J420160526111010205/26/16 11:10:31  5-MIN K0J4 261610Z AUTO 20010KT 10SM FEW032 28/19 A3017 80 60 1600 200/10 RMK AO2 $
63870K0J4 0J420160526111510205/26/16 11:15:31  5-MIN K0J4 261615Z AUTO 18008KT 10SM FEW032 28/18 A3017 80 54 1700 180/08 RMK AO2 $
63870K0J4 0J420160526112010205/26/16 11:20:31  5-MIN K0J4 261620Z AUTO VRB06KT 10SM FEW034 28/19 A3017 80 56 1700 VRB/06 RMK AO2 $
63870K0J4 0J420160526112510805/26/16 11:25:31  5-MIN K0J4 261625Z AUTO 19010G14KT 10SM FEW034 28/19 A3017 80 56 1700 190/10G14 RMK AO2 $
63870K0J4 0J420160526113010805/26/16 11:30:31  5-MIN K0J4 261630Z AUTO VRB05G14KT 10SM FEW034 28/18 A3017 90 54 1700 VRB/05G14 RMK AO2 $
63870K0J4 0J420160526113510205/26/16 11:35:31  5-MIN K0J4 261635Z AUTO 20009KT 10SM FEW039 29/18 A3017 90 52 1700 200/09 RMK AO2 $
63870K0J4 0J420160526114010205/26/16 11:40:31  5-MIN K0J4 261640Z AUTO 22008KT 10SM FEW043 28/18 A3017 90 56 1600 220/08 RMK AO2 $
63870K0J4 0J420160526114510205/26/16 11:45:31  5-MIN K0J4 261645Z AUTO 20007KT 10SM FEW043 28/17 A3017 90 52 1600 200/07 RMK AO2 $
63870K0J4 0J420160526115010205/26/16 11:50:31  5-MIN K0J4 261650Z AUTO 17007KT 10SM FEW043 27/17 A3017 90 52 1600 170/07 RMK AO2 $
63870K0J4 0J420160526115513505/26/16 11:55:31  5-MIN K0J4 261655Z AUTO 18007KT 150V220 10SM FEW043 27/17 A3016 90 52 1600 180/07 150V220 RMK AO2 SLP210 T02720167 $
63870K0J4 0J420160526120010805/26/16 12:00:31  5-MIN K0J4 261700Z AUTO 22008G14KT 10SM FEW043 28/17 A3016 90 50 1700 220/08G14 RMK AO2 $
63870K0J4 0J420160526120510805/26/16 12:05:31  5-MIN K0J4 261705Z AUTO VRB06G14KT 10SM FEW043 28/17 A3016 90 50 1700 VRB/06G14 RMK AO2 $
63870K0J4 0J420160526121010005/26/16 12:10:31  5-MIN K0J4 261710Z AUTO 12003KT 10SM CLR 28/17 A3016 100 50 1700 120/03 RMK AO2 $
63870K0J4 0J420160526121510305/26/16 12:15:31  5-MIN K0J4 261715Z AUTO 18007KT 10SM FEW046 28/18 A3016 100 52 1700 180/07 RMK AO2 $
63870K0J4 0J420160526122010305/26/16 12:20:31  5-MIN K0J4 261720Z AUTO VRB03KT 10SM FEW046 28/18 A3015 100 52 1700 VRB/03 RMK AO2 $
63870K0J4 0J420160526122510905/26/16 12:25:31  5-MIN K0J4 261725Z AUTO 18009G14KT 10SM FEW044 29/18 A3015 100 52 1800 180/09G14 RMK AO2 $
63870K0J4 0J420160526123010905/26/16 12:30:31  5-MIN K0J4 261730Z AUTO 20006G14KT 10SM FEW044 29/18 A3015 100 50 1800 200/06G14 RMK AO2 $
63870K0J4 0J420160526123511005/26/16 12:35:31  5-MIN K0J4 261735Z AUTO 20008KT 10SM SCT042 SCT055 28/18 A3015 100 52 1700 200/08 RMK AO2 $
63870K0J4 0J420160526124011005/26/16 12:40:31  5-MIN K0J4 261740Z AUTO 18005KT 10SM SCT042 BKN055 28/18 A3015 110 54 1700 180/05 RMK AO2 $
63870K0J4 0J420160526124511005/26/16 12:45:31  5-MIN K0J4 261745Z AUTO 23005KT 10SM FEW042 SCT060 29/18 A3015 110 50 1800 230/05 RMK AO2 $
63870K0J4 0J420160526125011005/26/16 12:50:31  5-MIN K0J4 261750Z AUTO 23006KT 10SM FEW042 SCT060 29/18 A3015 110 50 1800 230/06 RMK AO2 $
63870K0J4 0J420160526125514505/26/16 12:55:31  5-MIN K0J4 261755Z AUTO 22007KT 10SM SCT042 SCT055 29/18 A3015 110 50 1800 220/07 RMK AO2 SLP204 T02890178 10294 20206 58003 $
63870K0J4 0J420160526130011005/26/16 13:00:31  5-MIN K0J4 261800Z AUTO 21009KT 10SM SCT044 BKN055 29/17 A3014 110 48 1800 210/09 RMK AO2 $
63870K0J4 0J420160526130511005/26/16 13:05:31  5-MIN K0J4 261805Z AUTO 20009KT 10SM SCT046 BKN055 28/17 A3014 110 48 1700 200/09 RMK AO2 $
63870K0J4 0J420160526131011005/26/16 13:10:31  5-MIN K0J4 261810Z AUTO 22006KT 10SM SCT046 BKN055 29/17 A3014 110 47 1800 220/06 RMK AO2 $
63870K0J4 0J420160526131511005/26/16 13:15:31  5-MIN K0J4 261815Z AUTO 17005KT 10SM SCT049 BKN055 29/17 A3014 120 45 1800 170/05 RMK AO2 $
63870K0J4 0J420160526132011005/26/16 13:20:31  5-MIN K0J4 261820Z AUTO 17007KT 10SM SCT049 BKN055 30/17 A3014 110 44 1900 170/07 RMK AO2 $
63870K0J4 0J420160526132511005/26/16 13:25:31  5-MIN K0J4 261825Z AUTO VRB04KT 10SM SCT049 SCT055 30/16 A3014 120 42 1900 VRB/04 RMK AO2 $
63870K0J4 0J420160526133010305/26/16 13:30:31  5-MIN K0J4 261830Z AUTO 19007KT 10SM SCT049 29/16 A3013 120 44 1800 190/07 RMK AO2 $
63870K0J4 0J420160526133510305/26/16 13:35:31  5-MIN K0J4 261835Z AUTO 20007KT 10SM SCT055 30/16 A3013 120 42 1900 200/07 RMK AO2 $
63870K0J4 0J420160526134010305/26/16 13:40:31  5-MIN K0J4 261840Z AUTO VRB03KT 10SM SCT055 30/16 A3013 130 41 1900 VRB/03 RMK AO2 $
63870K0J4 0J420160526134510305/26/16 13:45:31  5-MIN K0J4 261845Z AUTO 23007KT 10SM SCT060 30/16 A3012 130 42 1900 230/07 RMK AO2 $
63870K0J4 0J420160526135011905/26/16 13:50:31  5-MIN K0J4 261850Z AUTO 23007KT 200V260 10SM BKN060 30/16 A3012 130 42 1900 230/07 200V260 RMK AO2 $
63870K0J4 0J420160526135512005/26/16 13:55:31  5-MIN K0J4 261855Z AUTO 22009KT 10SM BKN060 30/17 A3012 130 44 1900 220/09 RMK AO2 SLP195 T03000167 $
63870K0J4 0J420160526140010305/26/16 14:00:31  5-MIN K0J4 261900Z AUTO 20005KT 10SM BKN060 29/16 A3012 130 44 1800 200/05 RMK AO2 $
63870K0J4 0J420160526140510305/26/16 14:05:31  5-MIN K0J4 261905Z AUTO 20007KT 10SM BKN060 29/16 A3012 130 44 1900 200/07 RMK AO2 $
63870K0J4 0J420160526141010305/26/16 14:10:31  5-MIN K0J4 261910Z AUTO VRB03KT 10SM OVC060 29/16 A3012 130 42 1900 VRB/03 RMK AO2 $
63870K0J4 0J420160526141510305/26/16 14:15:31  5-MIN K0J4 261915Z AUTO 20007KT 10SM OVC060 29/17 A3011 140 45 1900 200/07 RMK AO2 $
63870K0J4 0J420160526142010305/26/16 14:20:31  5-MIN K0J4 261920Z AUTO 17008KT 10SM OVC060 30/17 A3011 140 44 1900 170/08 RMK AO2 $
63870K0J4 0J420160526142510305/26/16 14:25:31  5-MIN K0J4 261925Z AUTO 16006KT 10SM OVC060 29/17 A3011 140 45 1900 160/06 RMK AO2 $
63870K0J4 0J420160526143010305/26/16 14:30:31  5-MIN K0J4 261930Z AUTO 18006KT 10SM BKN060 29/17 A3011 140 45 1900 180/06 RMK AO2 $
63870K0J4 0J420160526143510305/26/16 14:35:31  5-MIN K0J4 261935Z AUTO 18006KT 10SM BKN065 31/17 A3011 140 42 2000 180/06 RMK AO2 $
63870K0J4 0J420160526144010305/26/16 14:40:31  5-MIN K0J4 261940Z AUTO VRB06KT 10SM BKN065 30/16 A3011 140 42 1900 VRB/06 RMK AO2 $
63870K0J4 0J420160526144510305/26/16 14:45:31  5-MIN K0J4 261945Z AUTO VRB05KT 10SM BKN065 30/17 A3011 140 44 1900 VRB/05 RMK AO2 $
63870K0J4 0J420160526145010305/26/16 14:50:31  5-MIN K0J4 261950Z AUTO 19008KT 10SM BKN065 31/17 A3011 150 42 2000 190/08 RMK AO2 $
63870K0J4 0J420160526145512705/26/16 14:55:31  5-MIN K0J4 261955Z AUTO 20003KT 10SM SCT060 BKN070 29/16 A3011 150 44 1900 200/03 RMK AO2 SLP190 T02940161 $
63870K0J4 0J420160526150011005/26/16 15:00:31  5-MIN K0J4 262000Z AUTO 18006KT 10SM BKN055 BKN070 29/16 A3011 150 44 1900 180/06 RMK AO2 $
63870K0J4 0J420160526150511005/26/16 15:05:31  5-MIN K0J4 262005Z AUTO 16005KT 10SM BKN055 BKN070 29/17 A3010 150 45 1900 160/05 RMK AO2 $
63870K0J4 0J420160526151011005/26/16 15:10:31  5-MIN K0J4 262010Z AUTO 19006KT 10SM BKN055 BKN070 30/16 A3010 150 42 1900 190/06 RMK AO2 $
63870K0J4 0J420160526151512605/26/16 15:15:31  5-MIN K0J4 262015Z AUTO 20007KT 160V240 10SM SCT055 BKN070 31/16 A3010 150 41 2000 200/07 160V240 RMK AO2 $
63870K0J4 0J420160526152011005/26/16 15:20:31  5-MIN K0J4 262020Z AUTO 20005KT 10SM SCT055 BKN070 30/16 A3010 150 42 1900 200/05 RMK AO2 $
63870K0J4 0J420160526152511005/26/16 15:25:31  5-MIN K0J4 262025Z AUTO 21007KT 10SM SCT055 BKN070 29/16 A3009 160 44 1900 210/07 RMK AO2 $
63870K0J4 0J420160526153011005/26/16 15:30:31  5-MIN K0J4 262030Z AUTO 20008KT 10SM FEW055 BKN070 30/16 A3009 160 42 2000 200/08 RMK AO2 $
63870K0J4 0J420160526153511005/26/16 15:35:31  5-MIN K0J4 262035Z AUTO 20006KT 10SM FEW060 BKN070 30/16 A3009 160 42 2000 200/06 RMK AO2 $
63870K0J4 0J420160526154011005/26/16 15:40:31  5-MIN K0J4 262040Z AUTO 19008KT 10SM FEW055 OVC070 30/16 A3009 160 42 2000 190/08 RMK AO2 $
63870K0J4 0J420160526154510305/26/16 15:45:31  5-MIN K0J4 262045Z AUTO 19007KT 10SM BKN070 29/16 A3009 160 44 1900 190/07 RMK AO2 $
63870K0J4 0J420160526155010305/26/16 15:50:31  5-MIN K0J4 262050Z AUTO 22008KT 10SM BKN070 31/16 A3008 170 41 2000 220/08 RMK AO2 $
63870K0J4 0J420160526155513205/26/16 15:55:31  5-MIN K0J4 262055Z AUTO 20011G14KT 10SM BKN070 30/16 A3008 170 42 2000 200/11G14 RMK AO2 SLP181 T03000161 58011 $
63870K0J4 0J420160526160011605/26/16 16:00:31  5-MIN K0J4 262100Z AUTO 20009G14KT 10SM SCT060 BKN075 29/16 A3008 170 44 1900 200/09G14 RMK AO2 $
63870K0J4 0J420160526160511005/26/16 16:05:31  5-MIN K0J4 262105Z AUTO 20006KT 10SM SCT060 BKN070 29/16 A3008 170 44 1900 200/06 RMK AO2 $
63870K0J4 0J420160526161011005/26/16 16:10:31  5-MIN K0J4 262110Z AUTO 20009KT 10SM BKN060 BKN075 30/17 A3008 170 44 2000 200/09 RMK AO2 $
63870K0J4 0J420160526161511005/26/16 16:15:31  5-MIN K0J4 262115Z AUTO 19009KT 10SM SCT060 BKN075 30/17 A3008 170 44 2000 190/09 RMK AO2 $
63870K0J4 0J420160526162011005/26/16 16:20:31  5-MIN K0J4 262120Z AUTO 19009KT 10SM BKN055 BKN070 29/16 A3008 170 44 1900 190/09 RMK AO2 $
63870K0J4 0J420160526162511005/26/16 16:25:31  5-MIN K0J4 262125Z AUTO 19009KT 10SM BKN055 BKN070 29/16 A3007 180 44 1900 190/09 RMK AO2 $
63870K0J4 0J420160526163010305/26/16 16:30:31  5-MIN K0J4 262130Z AUTO 23007KT 10SM BKN060 29/16 A3007 170 44 1900 230/07 RMK AO2 $
63870K0J4 0J420160526163510305/26/16 16:35:31  5-MIN K0J4 262135Z AUTO 22009KT 10SM BKN060 30/17 A3008 170 44 2000 220/09 RMK AO2 $
63870K0J4 0J420160526164010305/26/16 16:40:31  5-MIN K0J4 262140Z AUTO 22007KT 10SM BKN055 30/16 A3008 170 42 2000 220/07 RMK AO2 $
63870K0J4 0J420160526164510305/26/16 16:45:31  5-MIN K0J4 262145Z AUTO 22008KT 10SM OVC055 29/16 A3008 170 44 1900 220/08 RMK AO2 $
63870K0J4 0J420160526165010305/26/16 16:50:31  5-MIN K0J4 262150Z AUTO 20006KT 10SM OVC060 29/17 A3008 170 45 1900 200/06 RMK AO2 $
63870K0J4 0J420160526165512005/26/16 16:55:31  5-MIN K0J4 262155Z AUTO 20006KT 10SM BKN060 29/17 A3008 170 45 1900 200/06 RMK AO2 SLP180 T02940167 $
63870K0J4 0J420160526170010305/26/16 17:00:31  5-MIN K0J4 262200Z AUTO 21008KT 10SM OVC055 29/16 A3007 170 45 1900 210/08 RMK AO2 $
63870K0J4 0J420160526170511005/26/16 17:05:31  5-MIN K0J4 262205Z AUTO 21008KT 10SM BKN055 OVC075 29/17 A3007 180 45 1900 210/08 RMK AO2 $
63870K0J4 0J420160526171011005/26/16 17:10:31  5-MIN K0J4 262210Z AUTO 20009KT 10SM BKN060 OVC080 29/16 A3007 180 45 1900 200/09 RMK AO2 $
63870K0J4 0J420160526171511005/26/16 17:15:31  5-MIN K0J4 262215Z AUTO 19009KT 10SM BKN060 BKN080 29/16 A3007 180 45 1900 190/09 RMK AO2 $
63870K0J4 0J420160526172011005/26/16 17:20:31  5-MIN K0J4 262220Z AUTO 23007KT 10SM SCT060 BKN080 29/17 A3007 180 47 1900 230/07 RMK AO2 $
63870K0J4 0J420160526172511005/26/16 17:25:31  5-MIN K0J4 262225Z AUTO 21008KT 10SM FEW060 SCT080 29/17 A3007 180 47 1900 210/08 RMK AO2 $
63870K0J4 0J420160526173011005/26/16 17:30:31  5-MIN K0J4 262230Z AUTO 22008KT 10SM FEW055 SCT080 29/17 A3007 180 47 1900 220/08 RMK AO2 $
63870K0J4 0J420160526173510305/26/16 17:35:31  5-MIN K0J4 262235Z AUTO 22008KT 10SM FEW060 29/16 A3007 180 45 1900 220/08 RMK AO2 $
63870K0J4 0J420160526174010005/26/16 17:40:31  5-MIN K0J4 262240Z AUTO 20011KT 10SM CLR 29/16 A3007 180 45 1900 200/11 RMK AO2 $
63870K0J4 0J420160526174510005/26/16 17:45:31  5-MIN K0J4 262245Z AUTO 22008KT 10SM CLR 29/16 A3007 180 45 1900 220/08 RMK AO2 $
63870K0J4 0J420160526175010305/26/16 17:50:31  5-MIN K0J4 262250Z AUTO 20009KT 10SM FEW055 29/17 A3007 180 47 1900 200/09 RMK AO2 $
63870K0J4 0J420160526175512005/26/16 17:55:31  5-MIN K0J4 262255Z AUTO 23006KT 10SM FEW055 29/16 A3007 180 45 1900 230/06 RMK AO2 SLP176 T02890161 $
63870K0J4 0J420160526180010305/26/16 18:00:31  5-MIN K0J4 262300Z AUTO 21007KT 10SM FEW055 28/16 A3006 180 47 1800 210/07 RMK AO2 $
63870K0J4 0J420160526180510305/26/16 18:05:31  5-MIN K0J4 262305Z AUTO 20008KT 10SM FEW055 28/16 A3006 180 47 1800 200/08 RMK AO2 $
63870K0J4 0J420160526181010305/26/16 18:10:31  5-MIN K0J4 262310Z AUTO 21006KT 10SM FEW055 28/16 A3006 180 47 1800 210/06 RMK AO2 $
63870K0J4 0J420160526181510305/26/16 18:15:31  5-MIN K0J4 262315Z AUTO 22005KT 10SM FEW055 28/16 A3006 190 48 1700 220/05 RMK AO2 $
63870K0J4 0J420160526182010005/26/16 18:20:31  5-MIN K0J4 262320Z AUTO 22008KT 10SM CLR 28/16 A3006 180 48 1700 220/08 RMK AO2 $
63870K0J4 0J420160526182510005/26/16 18:25:31  5-MIN K0J4 262325Z AUTO 22005KT 10SM CLR 28/16 A3006 180 46 1700 220/05 RMK AO2 $
63870K0J4 0J420160526183010005/26/16 18:30:31  5-MIN K0J4 262330Z AUTO 21006KT 10SM CLR 28/16 A3007 180 46 1700 210/06 RMK AO2 $
63870K0J4 0J420160526183510005/26/16 18:35:31  5-MIN K0J4 262335Z AUTO 22004KT 10SM CLR 27/16 A3007 180 50 1700 220/04 RMK AO2 $
63870K0J4 0J420160526184010005/26/16 18:40:31  5-MIN K0J4 262340Z AUTO 22004KT 10SM CLR 27/16 A3006 180 50 1700 220/04 RMK AO2 $
63870K0J4 0J420160526184510005/26/16 18:45:31  5-MIN K0J4 262345Z AUTO 21005KT 10SM CLR 27/16 A3006 180 50 1700 210/05 RMK AO2 $
63870K0J4 0J420160526185010005/26/16 18:50:31  5-MIN K0J4 262350Z AUTO 21004KT 10SM CLR 27/16 A3007 180 52 1600 210/04 RMK AO2 $
63870K0J4 0J420160526185513505/26/16 18:55:31  5-MIN K0J4 262355Z AUTO 20003KT 10SM CLR 27/17 A3007 180 53 1600 200/03 RMK AO2 SLP177 T02670167 10306 20267 58023 $
63870K0J4 0J420160526190010005/26/16 19:00:31  5-MIN K0J4 270000Z AUTO 21005KT 10SM CLR 26/17 A3007 180 55 1500 210/05 RMK AO2 $
63870K0J4 0J420160526190510005/26/16 19:05:31  5-MIN K0J4 270005Z AUTO 22003KT 10SM CLR 26/16 A3006 180 53 1500 220/03 RMK AO2 $
63870K0J4 0J420160526191010005/26/16 19:10:31  5-MIN K0J4 270010Z AUTO 20004KT 10SM CLR 26/17 A3006 180 55 1600 200/04 RMK AO2 $
63870K0J4 0J420160526191510005/26/16 19:15:31  5-MIN K0J4 270015Z AUTO 20003KT 10SM CLR 26/17 A3007 180 57 1500 200/03 RMK AO2 $
63870K0J4 0J420160526192010005/26/16 19:20:31  5-MIN K0J4 270020Z AUTO 19003KT 10SM CLR 25/17 A3007 180 61 1400 190/03 RMK AO2 $
63870K0J4 0J420160526192510005/26/16 19:25:31  5-MIN K0J4 270025Z AUTO 20004KT 10SM CLR 26/17 A3007 180 59 1500 200/04 RMK AO2 $
63870K0J4 0J420160526193010005/26/16 19:30:31  5-MIN K0J4 270030Z AUTO 20005KT 10SM CLR 25/17 A3007 180 61 1400 200/05 RMK AO2 $
63870K0J4 0J420160526193510005/26/16 19:35:31  5-MIN K0J4 270035Z AUTO 19003KT 10SM CLR 25/17 A3007 180 61 1400 190/03 RMK AO2 $
63870K0J4 0J420160526194010005/26/16 19:40:31  5-MIN K0J4 270040Z AUTO 00000KT 10SM CLR 24/18 A3007 180 68 1300 000/00 RMK AO2 $
63870K0J4 0J420160526194510005/26/16 19:45:31  5-MIN K0J4 270045Z AUTO 18003KT 10SM CLR 24/18 A3007 180 66 1400 180/03 RMK AO2 $
63870K0J4 0J420160526195010005/26/16 19:50:31  5-MIN K0J4 270050Z AUTO 19005KT 10SM CLR 24/17 A3007 180 63 1400 190/05 RMK AO2 $
63870K0J4 0J420160526195511705/26/16 19:55:31  5-MIN K0J4 270055Z AUTO 19003KT 10SM CLR 24/17 A3007 170 63 1400 190/03 RMK AO2 SLP180 T02440172 $
63870K0J4 0J420160526200010005/26/16 20:00:31  5-MIN K0J4 270100Z AUTO 19003KT 10SM CLR 24/18 A3008 170 68 1300 190/03 RMK AO2 $
63870K0J4 0J420160526200510005/26/16 20:05:31  5-MIN K0J4 270105Z AUTO 00000KT 10SM CLR 24/18 A3008 170 68 1300 000/00 RMK AO2 $
63870K0J4 0J420160526201010005/26/16 20:10:31  5-MIN K0J4 270110Z AUTO 19003KT 10SM CLR 23/18 A3008 170 70 1200 190/03 RMK AO2 $
63870K0J4 0J420160526201510005/26/16 20:15:31  5-MIN K0J4 270115Z AUTO 19004KT 10SM CLR 23/18 A3008 170 70 1200 190/04 RMK AO2 $
63870K0J4 0J420160526202010005/26/16 20:20:31  5-MIN K0J4 270120Z AUTO 20003KT 10SM CLR 24/18 A3008 170 68 1300 200/03 RMK AO2 $
63870K0J4 0J420160526202510005/26/16 20:25:31  5-MIN K0J4 270125Z AUTO 21004KT 10SM CLR 23/18 A3009 160 70 1200 210/04 RMK AO2 $
63870K0J4 0J420160526203010005/26/16 20:30:31  5-MIN K0J4 270130Z AUTO 21003KT 10SM CLR 24/18 A3009 160 68 1300 210/03 RMK AO2 $
63870K0J4 0J420160526203510005/26/16 20:35:31  5-MIN K0J4 270135Z AUTO 00000KT 10SM CLR 23/18 A3009 160 73 1200 000/00 RMK AO2 $
63870K0J4 0J420160526204010005/26/16 20:40:31  5-MIN K0J4 270140Z AUTO 20003KT 10SM CLR 23/18 A3009 160 76 1100 200/03 RMK AO2 $
63870K0J4 0J420160526204510005/26/16 20:45:31  5-MIN K0J4 270145Z AUTO 21004KT 10SM CLR 23/18 A3009 160 73 1200 210/04 RMK AO2 $
63870K0J4 0J420160526205010005/26/16 20:50:31  5-MIN K0J4 270150Z AUTO 21004KT 10SM CLR 23/18 A3009 160 76 1100 210/04 RMK AO2 $
63870K0J4 0J420160526205511705/26/16 20:55:31  5-MIN K0J4 270155Z AUTO 22004KT 10SM CLR 23/18 A3009 160 73 1200 220/04 RMK AO2 SLP186 T02330183 $
63870K0J4 0J420160526210010005/26/16 21:00:31  5-MIN K0J4 270200Z AUTO 21004KT 10SM CLR 23/18 A3009 160 73 1200 210/04 RMK AO2 $
63870K0J4 0J420160526210510005/26/16 21:05:31  5-MIN K0J4 270205Z AUTO 22004KT 10SM CLR 23/19 A3009 160 76 1200 220/04 RMK AO2 $
63870K0J4 0J420160526211010005/26/16 21:10:31  5-MIN K0J4 270210Z AUTO 20004KT 10SM CLR 23/19 A3010 150 76 1200 200/04 RMK AO2 $
63870K0J4 0J420160526211510005/26/16 21:15:31  5-MIN K0J4 270215Z AUTO 20004KT 10SM CLR 23/19 A3010 150 78 1100 200/04 RMK AO2 $
63870K0J4 0J420160526212010005/26/16 21:20:31  5-MIN K0J4 270220Z AUTO 20005KT 10SM CLR 23/19 A3010 150 78 1100 200/05 RMK AO2 $
63870K0J4 0J420160526212510005/26/16 21:25:31  5-MIN K0J4 270225Z AUTO 21005KT 10SM CLR 23/19 A3009 160 81 1100 210/05 RMK AO2 $
63870K0J4 0J420160526213010005/26/16 21:30:31  5-MIN K0J4 270230Z AUTO 21005KT 10SM CLR 23/19 A3009 160 81 1100 210/05 RMK AO2 $
63870K0J4 0J420160526213510305/26/16 21:35:31  5-MIN K0J4 270235Z AUTO 21005KT 10SM FEW055 23/19 A3009 160 81 1100 210/05 RMK AO2 $
63870K0J4 0J420160526214010305/26/16 21:40:31  5-MIN K0J4 270240Z AUTO 21004KT 10SM FEW055 23/19 A3009 160 81 1100 210/04 RMK AO2 $
63870K0J4 0J420160526214510305/26/16 21:45:31  5-MIN K0J4 270245Z AUTO 21004KT 10SM FEW055 23/20 A3009 160 84 1100 210/04 RMK AO2 $
63870K0J4 0J420160526215010305/26/16 21:50:31  5-MIN K0J4 270250Z AUTO 20004KT 10SM FEW055 23/20 A3009 160 84 1100 200/04 RMK AO2 $
63870K0J4 0J420160526215512605/26/16 21:55:31  5-MIN K0J4 270255Z AUTO 20004KT 10SM FEW055 23/20 A3009 160 84 1100 200/04 RMK AO2 SLP186 T02280200 55003 $
63870K0J4 0J420160526220010305/26/16 22:00:31  5-MIN K0J4 270300Z AUTO 20004KT 10SM SCT055 23/20 A3009 160 84 1100 200/04 RMK AO2 $
63870K0J4 0J420160526220510305/26/16 22:05:31  5-MIN K0J4 270305Z AUTO 20004KT 10SM BKN055 23/20 A3009 160 84 1100 200/04 RMK AO2 $
63870K0J4 0J420160526221010305/26/16 22:10:31  5-MIN K0J4 270310Z AUTO 21004KT 10SM BKN060 23/21 A3009 160 84 1200 210/04 RMK AO2 $
63870K0J4 0J420160526221510305/26/16 22:15:31  5-MIN K0J4 270315Z AUTO 20006KT 10SM BKN060 23/21 A3009 160 87 1100 200/06 RMK AO2 $
63870K0J4 0J420160526222010305/26/16 22:20:31  5-MIN K0J4 270320Z AUTO 21005KT 10SM BKN060 23/21 A3009 160 87 1100 210/05 RMK AO2 $
63870K0J4 0J420160526222510305/26/16 22:25:31  5-MIN K0J4 270325Z AUTO 20005KT 10SM BKN060 23/21 A3009 160 87 1100 200/05 RMK AO2 $
63870K0J4 0J420160526223010305/26/16 22:30:31  5-MIN K0J4 270330Z AUTO 21004KT 10SM SCT060 23/21 A3009 160 87 1100 210/04 RMK AO2 $
63870K0J4 0J420160526223510305/26/16 22:35:31  5-MIN K0J4 270335Z AUTO 20004KT 10SM FEW060 23/21 A3008 170 87 1100 200/04 RMK AO2 $
63870K0J4 0J420160526224010305/26/16 22:40:31  5-MIN K0J4 270340Z AUTO 20004KT 10SM FEW060 23/21 A3009 160 87 1100 200/04 RMK AO2 $
63870K0J4 0J420160526224510005/26/16 22:45:31  5-MIN K0J4 270345Z AUTO 19005KT 10SM CLR 23/21 A3008 160 87 1100 190/05 RMK AO2 $
63870K0J4 0J420160526225010005/26/16 22:50:31  5-MIN K0J4 270350Z AUTO 20004KT 10SM CLR 23/21 A3008 170 87 1100 200/04 RMK AO2 $
63870K0J4 0J420160526225511705/26/16 22:55:31  5-MIN K0J4 270355Z AUTO 20004KT 10SM CLR 23/21 A3008 170 87 1200 200/04 RMK AO2 SLP181 T02280206 $
63870K0J4 0J420160526230010005/26/16 23:00:31  5-MIN K0J4 270400Z AUTO 21004KT 10SM CLR 22/21 A3008 170 90 1100 210/04 RMK AO2 $
63870K0J4 0J420160526230510005/26/16 23:05:31  5-MIN K0J4 270405Z AUTO 20004KT 10SM CLR 22/21 A3008 170 90 1100 200/04 RMK AO2 $
63870K0J4 0J420160526231010005/26/16 23:10:31  5-MIN K0J4 270410Z AUTO 20004KT 10SM CLR 22/21 A3008 170 90 1100 200/04 RMK AO2 $
63870K0J4 0J420160526231510005/26/16 23:15:31  5-MIN K0J4 270415Z AUTO 21003KT 10SM CLR 22/21 A3008 170 90 1100 210/03 RMK AO2 $
63870K0J4 0J420160526232010005/26/16 23:20:31  5-MIN K0J4 270420Z AUTO 21004KT 10SM CLR 22/21 A3008 170 93 1000 210/04 RMK AO2 $
63870K0J4 0J420160526232510005/26/16 23:25:31  5-MIN K0J4 270425Z AUTO 22004KT 10SM CLR 22/21 A3008 170 90 1100 220/04 RMK AO2 $
63870K0J4 0J420160526233010005/26/16 23:30:31  5-MIN K0J4 270430Z AUTO 21004KT 10SM CLR 22/21 A3008 170 90 1100 210/04 RMK AO2 $
63870K0J4 0J420160526233510005/26/16 23:35:31  5-MIN K0J4 270435Z AUTO 22003KT 10SM CLR 22/21 A3008 170 90 1100 220/03 RMK AO2 $
63870K0J4 0J420160526234010005/26/16 23:40:31  5-MIN K0J4 270440Z AUTO 22003KT 10SM CLR 22/21 A3008 170 90 1100 220/03 RMK AO2 $
63870K0J4 0J420160526234510305/26/16 23:45:31  5-MIN K0J4 270445Z AUTO 22003KT 10SM FEW055 22/21 A3008 170 93 1100 220/03 RMK AO2 $
63870K0J4 0J420160526235010305/26/16 23:50:31  5-MIN K0J4 270450Z AUTO 21003KT 10SM SCT050 22/21 A3008 170 93 1100 210/03 RMK AO2 $
63870K0J4 0J420160526235513005/26/16 23:55:31  5-MIN K0J4 270455Z AUTO 21003KT 10SM BKN050 22/21 A3008 170 93 1100 210/03 RMK AO2 SLP180 T02220211 403060189 $
63870K0J4 0J420160527000010305/27/16 00:00:31  5-MIN K0J4 270500Z AUTO 20004KT 10SM BKN050 22/21 A3007 170 93 1100 200/04 RMK AO2 $
63870K0J4 0J420160527000510305/27/16 00:05:31  5-MIN K0J4 270505Z AUTO 21003KT 10SM BKN050 22/21 A3007 180 93 1100 210/03 RMK AO2 $
63870K0J4 0J420160527001010305/27/16 00:10:31  5-MIN K0J4 270510Z AUTO 21003KT 10SM BKN050 22/21 A3007 180 90 1100 210/03 RMK AO2 $
63870K0J4 0J420160527001510305/27/16 00:15:31  5-MIN K0J4 270515Z AUTO 00000KT 10SM BKN050 22/21 A3007 170 90 1100 000/00 RMK AO2 $
63870K0J4 0J420160527002010305/27/16 00:20:31  5-MIN K0J4 270520Z AUTO 00000KT 10SM BKN050 22/21 A3008 170 93 1100 000/00 RMK AO2 $
63870K0J4 0J420160527002510305/27/16 00:25:31  5-MIN K0J4 270525Z AUTO 00000KT 10SM BKN050 22/21 A3008 170 93 1100 000/00 RMK AO2 $
63870K0J4 0J420160527003010305/27/16 00:30:31  5-MIN K0J4 270530Z AUTO 00000KT 10SM BKN050 22/21 A3008 170 93 1100 000/00 RMK AO2 $
63870K0J4 0J420160527003510305/27/16 00:35:31  5-MIN K0J4 270535Z AUTO 00000KT 10SM BKN050 22/21 A3008 170 93 1100 000/00 RMK AO2 $
63870K0J4 0J420160527004010305/27/16 00:40:31  5-MIN K0J4 270540Z AUTO 00000KT 10SM OVC055 22/21 A3008 170 93 1100 000/00 RMK AO2 $
63870K0J4 0J420160527004510305/27/16 00:45:31  5-MIN K0J4 270545Z AUTO 00000KT 10SM OVC055 22/21 A3007 180 93 1100 000/00 RMK AO2 $
63870K0J4 0J420160527005010305/27/16 00:50:31  5-MIN K0J4 270550Z AUTO 00000KT 10SM OVC055 22/21 A3007 180 93 1100 000/00 RMK AO2 $
63870K0J4 0J420160527005513705/27/16 00:55:31  5-MIN K0J4 270555Z AUTO 00000KT 9SM OVC055 22/21 A3007 180 90 1100 000/00 RMK AO2 SLP177 T02220206 10267 20217 51009 $
63870K0J4 0J420160527010010205/27/16 01:00:31  5-MIN K0J4 270600Z AUTO 24003KT 9SM OVC055 22/21 A3007 180 90 1100 240/03 RMK AO2 $
63870K0J4 0J420160527010510205/27/16 01:05:31  5-MIN K0J4 270605Z AUTO 24004KT 9SM BKN055 22/21 A3006 180 90 1100 240/04 RMK AO2 $
63870K0J4 0J420160527011010205/27/16 01:10:31  5-MIN K0J4 270610Z AUTO 23003KT 9SM BKN055 22/21 A3006 190 90 1100 230/03 RMK AO2 $
63870K0J4 0J420160527011510205/27/16 01:15:31  5-MIN K0J4 270615Z AUTO 00000KT 9SM SCT060 22/21 A3006 190 93 1100 000/00 RMK AO2 $
63870K0J4 0J420160527012010205/27/16 01:20:31  5-MIN K0J4 270620Z AUTO 00000KT 8SM FEW060 22/21 A3006 190 93 1100 000/00 RMK AO2 $
63870K0J4 0J420160527012510205/27/16 01:25:31  5-MIN K0J4 270625Z AUTO 00000KT 8SM FEW060 22/21 A3005 190 93 1100 000/00 RMK AO2 $
63870K0J4 0J420160527013009905/27/16 01:30:31  5-MIN K0J4 270630Z AUTO 00000KT 8SM CLR 21/20 A3005 190 93 1000 000/00 RMK AO2 $
63870K0J4 0J420160527013509905/27/16 01:35:31  5-MIN K0J4 270635Z AUTO 00000KT 7SM CLR 21/20 A3005 200 93 1000 000/00 RMK AO2 $
63870K0J4 0J420160527014009905/27/16 01:40:31  5-MIN K0J4 270640Z AUTO 00000KT 8SM CLR 21/20 A3005 200 93 1000 000/00 RMK AO2 $
63870K0J4 0J420160527014509905/27/16 01:45:31  5-MIN K0J4 270645Z AUTO 00000KT 8SM CLR 21/19 A3005 200 90 1000 000/00 RMK AO2 $
63870K0J4 0J420160527015009905/27/16 01:50:31  5-MIN K0J4 270650Z AUTO 00000KT 7SM CLR 21/20 A3005 200 93 1000 000/00 RMK AO2 $
63870K0J4 0J420160527015511905/27/16 01:55:31  5-MIN K0J4 270655Z AUTO 00000KT 6SM BR CLR 21/20 A3004 200 93 1000 000/00 RMK AO2 SLP169 T02110200 $
63870K0J4 0J420160527020010105/27/16 02:00:31  5-MIN K0J4 270700Z AUTO 00000KT 5SM BR CLR 21/20 A3004 210 97 900 000/00 RMK AO2 $
63870K0J4 0J420160527020510105/27/16 02:05:31  5-MIN K0J4 270705Z AUTO 00000KT 5SM BR CLR 21/19 A3004 210 93 900 000/00 RMK AO2 $
63870K0J4 0J420160527021010105/27/16 02:10:31  5-MIN K0J4 270710Z AUTO 00000KT 5SM BR CLR 21/19 A3004 210 93 900 000/00 RMK AO2 $
63870K0J4 0J420160527021510105/27/16 02:15:31  5-MIN K0J4 270715Z AUTO 00000KT 6SM BR CLR 20/19 A3004 210 97 900 000/00 RMK AO2 $
63870K0J4 0J420160527022010105/27/16 02:20:31  5-MIN K0J4 270720Z AUTO 00000KT 6SM BR CLR 20/19 A3004 210 93 900 000/00 RMK AO2 $
63870K0J4 0J420160527022510105/27/16 02:25:31  5-MIN K0J4 270725Z AUTO 00000KT 5SM BR CLR 21/19 A3003 210 93 900 000/00 RMK AO2 $
63870K0J4 0J420160527023010205/27/16 02:30:31  5-MIN K0J4 270730Z AUTO 00000KT 5SM BR CLR 21/19 A3003 210 93 1000 000/00 RMK AO2 $
63870K0J4 0J420160527023510205/27/16 02:35:31  5-MIN K0J4 270735Z AUTO 00000KT 5SM BR CLR 21/20 A3003 210 97 1000 000/00 RMK AO2 $
63870K0J4 0J420160527024010205/27/16 02:40:31  5-MIN K0J4 270740Z AUTO 00000KT 4SM BR CLR 21/20 A3003 210 97 1000 000/00 RMK AO2 $
63870K0J4 0J420160527024510205/27/16 02:45:31  5-MIN K0J4 270745Z AUTO 00000KT 4SM BR CLR 21/20 A3003 210 97 1000 000/00 RMK AO2 $
63870K0J4 0J420160527025010505/27/16 02:50:31  5-MIN K0J4 270750Z AUTO 00000KT 2SM BR FEW002 21/19 A3003 210 93 1000 000/00 RMK AO2 $
63870K0J4 0J420160527025512605/27/16 02:55:31  5-MIN K0J4 270755Z AUTO 00000KT 1 1/4SM BR SCT002 21/19 A3003 210 93 1000 000/00 RMK AO2 SLP165 T02060194 $
63870K0J4 0J420160527030010605/27/16 03:00:31  5-MIN K0J4 270800Z AUTO 00000KT 3/4SM BR VV002 21/19 A3003 210 93 1000 000/00 RMK AO2 $
63870K0J4 0J420160527030510605/27/16 03:05:31  5-MIN K0J4 270805Z AUTO 00000KT 3/4SM BR VV002 21/19 A3003 210 93 1000 000/00 RMK AO2 $
63870K0J4 0J420160527031010505/27/16 03:10:31  5-MIN K0J4 270810Z AUTO 00000KT 3/4SM BR VV002 20/19 A3003 220 97 900 000/00 RMK AO2 $
63870K0J4 0J420160527031510505/27/16 03:15:31  5-MIN K0J4 270815Z AUTO 00000KT 1/2SM FG VV002 20/19 A3003 210 97 900 000/00 RMK AO2 $
63870K0J4 0J420160527032010505/27/16 03:20:31  5-MIN K0J4 270820Z AUTO 00000KT 1/2SM FG VV001 20/19 A3003 210 97 900 000/00 RMK AO2 $
63870K0J4 0J420160527032510505/27/16 03:25:31  5-MIN K0J4 270825Z AUTO 00000KT 1/2SM FG VV001 20/19 A3004 210 97 900 000/00 RMK AO2 $
63870K0J4 0J420160527033010505/27/16 03:30:31  5-MIN K0J4 270830Z AUTO 00000KT 1/4SM FG VV001 20/19 A3004 210 97 900 000/00 RMK AO2 $
63870K0J4 0J420160527033510505/27/16 03:35:31  5-MIN K0J4 270835Z AUTO 00000KT 1/4SM FG VV001 20/19 A3004 210 97 900 000/00 RMK AO2 $
63870K0J4 0J420160527034010505/27/16 03:40:31  5-MIN K0J4 270840Z AUTO 00000KT 1/4SM FG VV001 20/19 A3004 210 97 900 000/00 RMK AO2 $
63870K0J4 0J420160527034510505/27/16 03:45:31  5-MIN K0J4 270845Z AUTO 00000KT 1/4SM FG VV001 20/19 A3004 200 97 900 000/00 RMK AO2 $
63870K0J4 0J420160527035010505/27/16 03:50:31  5-MIN K0J4 270850Z AUTO 00000KT 1/4SM FG VV001 20/19 A3004 200 97 900 000/00 RMK AO2 $
63870K0J4 0J420160527035512805/27/16 03:55:31  5-MIN K0J4 270855Z AUTO 00000KT 1/4SM FG VV001 20/19 A3004 200 97 900 000/00 RMK AO2 SLP169 T02000194 56009 $
63870K0J4 0J420160527040010505/27/16 04:00:31  5-MIN K0J4 270900Z AUTO 00000KT 1/4SM FG VV001 20/19 A3005 200 97 900 000/00 RMK AO2 $
63870K0J4 0J420160527040510505/27/16 04:05:31  5-MIN K0J4 270905Z AUTO 00000KT 1/4SM FG VV001 20/19 A3005 200 97 900 000/00 RMK AO2 $
63870K0J4 0J420160527041010505/27/16 04:10:31  5-MIN K0J4 270910Z AUTO 00000KT 1/4SM FG VV001 20/19 A3005 200 97 900 000/00 RMK AO2 $
63870K0J4 0J420160527101510005/27/16 10:15:31  5-MIN K0J4 271515Z AUTO VRB05KT 10SM CLR 27/19 A3007 180 62 1600 VRB/05 RMK AO2 $
63870K0J4 0J420160527102010005/27/16 10:20:31  5-MIN K0J4 271520Z AUTO 08006KT 10SM CLR 27/19 A3007 180 60 1700 080/06 RMK AO2 $
63870K0J4 0J420160527102510005/27/16 10:25:31  5-MIN K0J4 271525Z AUTO VRB05KT 10SM CLR 27/19 A3007 180 60 1700 VRB/05 RMK AO2 $
63870K0J4 0J420160527103010005/27/16 10:30:31  5-MIN K0J4 271530Z AUTO VRB05KT 10SM CLR 27/19 A3007 180 60 1700 VRB/05 RMK AO2 $
63870K0J4 0J420160527103510005/27/16 10:35:31  5-MIN K0J4 271535Z AUTO VRB05KT 10SM CLR 27/18 A3007 180 58 1700 VRB/05 RMK AO2 $
63870K0J4 0J420160527104010005/27/16 10:40:31  5-MIN K0J4 271540Z AUTO VRB04KT 10SM CLR 28/19 A3007 180 56 1800 VRB/04 RMK AO2 $
63870K0J4 0J420160527104510005/27/16 10:45:31  5-MIN K0J4 271545Z AUTO VRB03KT 10SM CLR 28/18 A3007 180 56 1700 VRB/03 RMK AO2 $
63870K0J4 0J420160527105010005/27/16 10:50:31  5-MIN K0J4 271550Z AUTO VRB06KT 10SM CLR 28/18 A3007 170 54 1800 VRB/06 RMK AO2 $
63870K0J4 0J420160527105511705/27/16 10:55:31  5-MIN K0J4 271555Z AUTO 12007KT 10SM CLR 28/17 A3007 170 52 1700 120/07 RMK AO2 SLP179 T02780172 $
63870K0J4 0J420160527110011605/27/16 11:00:31  5-MIN K0J4 271600Z AUTO 11007KT 080V140 10SM CLR 28/17 A3007 170 50 1800 110/07 080V140 RMK AO2 $
63870K0J4 0J420160527110510005/27/16 11:05:31  5-MIN K0J4 271605Z AUTO 11007KT 10SM CLR 28/16 A3007 180 47 1800 110/07 RMK AO2 $
63870K0J4 0J420160527111010305/27/16 11:10:31  5-MIN K0J4 271610Z AUTO 00000KT 10SM FEW045 28/17 A3007 180 48 1800 000/00 RMK AO2 $
63870K0J4 0J420160527111510305/27/16 11:15:31  5-MIN K0J4 271615Z AUTO 14006KT 10SM FEW047 28/17 A3007 180 48 1800 140/06 RMK AO2 $
63870K0J4 0J420160527112010305/27/16 11:20:31  5-MIN K0J4 271620Z AUTO 09008KT 10SM FEW049 29/16 A3007 180 45 1900 090/08 RMK AO2 $
63870K0J4 0J420160527112510305/27/16 11:25:31  5-MIN K0J4 271625Z AUTO VRB03KT 10SM FEW047 28/17 A3007 180 48 1800 VRB/03 RMK AO2 $
63870K0J4 0J420160527113010305/27/16 11:30:31  5-MIN K0J4 271630Z AUTO 08007KT 10SM FEW047 29/16 A3007 180 45 1900 080/07 RMK AO2 $
63870K0J4 0J420160527113510305/27/16 11:35:31  5-MIN K0J4 271635Z AUTO 13006KT 10SM FEW047 29/16 A3007 180 45 1900 130/06 RMK AO2 $
63870K0J4 0J420160527114010305/27/16 11:40:31  5-MIN K0J4 271640Z AUTO 09006KT 10SM FEW049 29/16 A3007 180 45 1900 090/06 RMK AO2 $
63870K0J4 0J420160527114510005/27/16 11:45:31  5-MIN K0J4 271645Z AUTO 08008KT 10SM CLR 29/16 A3007 180 44 1900 080/08 RMK AO2 $
63870K0J4 0J420160527115011605/27/16 11:50:31  5-MIN K0J4 271650Z AUTO 11008KT 070V140 10SM CLR 29/16 A3007 180 44 1900 110/08 070V140 RMK AO2 $
63870K0J4 0J420160527115512305/27/16 11:55:31  5-MIN K0J4 271655Z AUTO VRB05G14KT 10SM CLR 29/16 A3007 180 42 1900 VRB/05G14 RMK AO2 SLP178 T02940156 $
63870K0J4 0J420160527120010605/27/16 12:00:31  5-MIN K0J4 271700Z AUTO 14006G14KT 10SM CLR 29/16 A3007 170 42 1900 140/06G14 RMK AO2 $
63870K0J4 0J420160527120510005/27/16 12:05:31  5-MIN K0J4 271705Z AUTO 12007KT 10SM CLR 29/15 A3007 180 42 1900 120/07 RMK AO2 $
63870K0J4 0J420160527121010005/27/16 12:10:31  5-MIN K0J4 271710Z AUTO VRB05KT 10SM CLR 29/15 A3006 180 41 1900 VRB/05 RMK AO2 $
63870K0J4 0J420160527121510005/27/16 12:15:31  5-MIN K0J4 271715Z AUTO 18003KT 10SM CLR 29/16 A3006 190 42 1900 180/03 RMK AO2 $
63870K0J4 0J420160527122010005/27/16 12:20:31  5-MIN K0J4 271720Z AUTO 00000KT 10SM CLR 29/16 A3006 190 42 1900 000/00 RMK AO2 $
63870K0J4 0J420160527122510005/27/16 12:25:31  5-MIN K0J4 271725Z AUTO 00000KT 10SM CLR 29/16 A3005 190 42 1900 000/00 RMK AO2 $
63870K0J4 0J420160527123010005/27/16 12:30:31  5-MIN K0J4 271730Z AUTO 18004KT 10SM CLR 29/16 A3005 190 42 1900 180/04 RMK AO2 $
63870K0J4 0J420160527123510005/27/16 12:35:31  5-MIN K0J4 271735Z AUTO VRB03KT 10SM CLR 29/16 A3005 190 42 1900 VRB/03 RMK AO2 $
63870K0J4 0J420160527124010005/27/16 12:40:31  5-MIN K0J4 271740Z AUTO 00000KT 10SM CLR 29/16 A3005 200 42 1900 000/00 RMK AO2 $
63870K0J4 0J420160527124510305/27/16 12:45:31  5-MIN K0J4 271745Z AUTO 00000KT 10SM FEW055 30/16 A3005 200 42 2000 000/00 RMK AO2 $
63870K0J4 0J420160527125010305/27/16 12:50:31  5-MIN K0J4 271750Z AUTO 00000KT 10SM FEW055 31/17 A3005 200 42 2100 000/00 RMK AO2 $
63870K0J4 0J420160527125513505/27/16 12:55:31  5-MIN K0J4 271755Z AUTO 00000KT 10SM CLR 31/16 A3005 200 39 2100 000/00 RMK AO2 SLP170 T03060156 10306 20206 58004 $
63870K0J4 0J420160527130010305/27/16 13:00:31  5-MIN K0J4 271800Z AUTO 00000KT 10SM FEW055 31/16 A3005 200 41 2100 000/00 RMK AO2 $
63870K0J4 0J420160527130510305/27/16 13:05:31  5-MIN K0J4 271805Z AUTO 09005KT 10SM FEW055 30/16 A3005 200 42 2000 090/05 RMK AO2 $
63870K0J4 0J420160527131010305/27/16 13:10:31  5-MIN K0J4 271810Z AUTO 15006KT 10SM SCT055 30/16 A3004 200 42 2000 150/06 RMK AO2 $
63870K0J4 0J420160527131510305/27/16 13:15:31  5-MIN K0J4 271815Z AUTO VRB05KT 10SM SCT055 29/16 A3004 200 44 1900 VRB/05 RMK AO2 $
63870K0J4 0J420160527132010305/27/16 13:20:31  5-MIN K0J4 271820Z AUTO 10007KT 10SM SCT060 29/16 A3005 200 44 1900 100/07 RMK AO2 $
63870K0J4 0J420160527132510305/27/16 13:25:31  5-MIN K0J4 271825Z AUTO 07005KT 10SM BKN060 29/16 A3004 200 44 1900 070/05 RMK AO2 $
63870K0J4 0J420160527133010305/27/16 13:30:31  5-MIN K0J4 271830Z AUTO 12007KT 10SM BKN060 30/16 A3004 210 42 2000 120/07 RMK AO2 $
63870K0J4 0J420160527133510305/27/16 13:35:31  5-MIN K0J4 271835Z AUTO 10009KT 10SM SCT060 30/16 A3004 210 41 2000 100/09 RMK AO2 $
63870K0J4 0J420160527134010305/27/16 13:40:31  5-MIN K0J4 271840Z AUTO 11006KT 10SM FEW060 30/15 A3003 210 39 2000 110/06 RMK AO2 $
63870K0J4 0J420160527134511905/27/16 13:45:31  5-MIN K0J4 271845Z AUTO 09007KT 070V170 10SM FEW060 31/16 A3004 210 41 2100 090/07 070V170 RMK AO2 $
63870K0J4 0J420160527135010305/27/16 13:50:31  5-MIN K0J4 271850Z AUTO 08006KT 10SM FEW060 31/16 A3003 210 39 2100 080/06 RMK AO2 $
63870K0J4 0J420160527135512005/27/16 13:55:31  5-MIN K0J4 271855Z AUTO 08010KT 10SM FEW060 30/15 A3003 220 39 2000 080/10 RMK AO2 SLP164 T03000150 $
63870K0J4 0J420160527140010005/27/16 14:00:31  5-MIN K0J4 271900Z AUTO 08009KT 10SM CLR 30/15 A3003 220 39 2000 080/09 RMK AO2 $
63870K0J4 0J420160527140510005/27/16 14:05:31  5-MIN K0J4 271905Z AUTO 14004KT 10SM CLR 31/16 A3002 220 39 2100 140/04 RMK AO2 $
63870K0J4 0J420160527141010005/27/16 14:10:31  5-MIN K0J4 271910Z AUTO 10007KT 10SM CLR 31/16 A3002 220 39 2100 100/07 RMK AO2 $
63870K0J4 0J420160527141510005/27/16 14:15:31  5-MIN K0J4 271915Z AUTO 11008KT 10SM CLR 30/15 A3002 220 39 2000 110/08 RMK AO2 $
63870K0J4 0J420160527142010005/27/16 14:20:31  5-MIN K0J4 271920Z AUTO VRB05KT 10SM CLR 31/15 A3002 220 38 2100 VRB/05 RMK AO2 $
63870K0J4 0J420160527142510005/27/16 14:25:31  5-MIN K0J4 271925Z AUTO VRB06KT 10SM CLR 31/15 A3002 230 38 2100 VRB/06 RMK AO2 $
63870K0J4 0J420160527143010005/27/16 14:30:31  5-MIN K0J4 271930Z AUTO VRB06KT 10SM CLR 31/16 A3002 230 39 2100 VRB/06 RMK AO2 $
63870K0J4 0J420160527143510605/27/16 14:35:31  5-MIN K0J4 271935Z AUTO 12007G15KT 10SM CLR 30/16 A3002 230 41 2000 120/07G15 RMK AO2 $
63870K0J4 0J420160527144012205/27/16 14:40:31  5-MIN K0J4 271940Z AUTO 09009G15KT 060V140 10SM CLR 30/16 A3001 230 41 2000 090/09G15 060V140 RMK AO2 $
63870K0J4 0J420160527144510005/27/16 14:45:31  5-MIN K0J4 271945Z AUTO 16008KT 10SM CLR 31/16 A3001 230 39 2100 160/08 RMK AO2 $
63870K0J4 0J420160527145010005/27/16 14:50:31  5-MIN K0J4 271950Z AUTO 08007KT 10SM CLR 31/16 A3001 240 39 2100 080/07 RMK AO2 $
63870K0J4 0J420160527145512005/27/16 14:55:31  5-MIN K0J4 271955Z AUTO 09008KT 10SM FEW060 30/16 A3001 240 41 2000 090/08 RMK AO2 SLP157 T03000156 $
63870K0J4 0J420160527150011905/27/16 15:00:31  5-MIN K0J4 272000Z AUTO 14008KT 100V160 10SM SCT060 30/16 A3001 240 41 2100 140/08 100V160 RMK AO2 $
63870K0J4 0J420160527150510305/27/16 15:05:31  5-MIN K0J4 272005Z AUTO VRB06KT 10SM SCT060 30/16 A3000 240 41 2100 VRB/06 RMK AO2 $
63870K0J4 0J420160527151010305/27/16 15:10:31  5-MIN K0J4 272010Z AUTO 09009KT 10SM BKN060 30/16 A3000 240 42 2100 090/09 RMK AO2 $
63870K0J4 0J420160527151510305/27/16 15:15:31  5-MIN K0J4 272015Z AUTO 11005KT 10SM BKN060 29/16 A3000 240 42 2000 110/05 RMK AO2 $
63870K0J4 0J420160527152010305/27/16 15:20:31  5-MIN K0J4 272020Z AUTO 08009KT 10SM SCT060 29/16 A3000 240 42 2000 080/09 RMK AO2 $
63870K0J4 0J420160527152510905/27/16 15:25:31  5-MIN K0J4 272025Z AUTO 08014G17KT 10SM BKN060 30/16 A3000 250 41 2100 080/14G17 RMK AO2 $
63870K0J4 0J420160527153010905/27/16 15:30:31  5-MIN K0J4 272030Z AUTO 09008G17KT 10SM SCT060 29/16 A2999 250 42 2000 090/08G17 RMK AO2 $
63870K0J4 0J420160527153510305/27/16 15:35:31  5-MIN K0J4 272035Z AUTO VRB04KT 10SM FEW060 29/16 A2999 250 42 2000 VRB/04 RMK AO2 $
63870K0J4 0J420160527154011905/27/16 15:40:31  5-MIN K0J4 272040Z AUTO 08007KT 060V130 10SM SCT055 30/16 A2999 260 42 2100 080/07 060V130 RMK AO2 $
63870K0J4 0J420160527154510305/27/16 15:45:31  5-MIN K0J4 272045Z AUTO VRB04KT 10SM SCT055 30/16 A2999 260 42 2100 VRB/04 RMK AO2 $
63870K0J4 0J420160527155010305/27/16 15:50:31  5-MIN K0J4 272050Z AUTO 11007KT 10SM SCT055 30/16 A2999 260 41 2100 110/07 RMK AO2 $
63870K0J4 0J420160527155513205/27/16 15:55:31  5-MIN K0J4 272055Z AUTO 09009G14KT 10SM FEW055 30/16 A2998 260 41 2100 090/09G14 RMK AO2 SLP149 T03000156 58008 $
63870K0J4 0J420160527160010905/27/16 16:00:31  5-MIN K0J4 272100Z AUTO 08008G14KT 10SM FEW055 30/16 A2999 260 41 2100 080/08G14 RMK AO2 $
63870K0J4 0J420160527160510305/27/16 16:05:31  5-MIN K0J4 272105Z AUTO 11008KT 10SM SCT060 30/16 A2999 260 41 2100 110/08 RMK AO2 $
63870K0J4 0J420160527161010305/27/16 16:10:31  5-MIN K0J4 272110Z AUTO 10005KT 10SM BKN060 30/15 A2999 260 39 2100 100/05 RMK AO2 $
63870K0J4 0J420160527161510305/27/16 16:15:31  5-MIN K0J4 272115Z AUTO 10007KT 10SM SCT060 30/16 A2998 260 41 2100 100/07 RMK AO2 $
63870K0J4 0J420160527162010305/27/16 16:20:31  5-MIN K0J4 272120Z AUTO 10005KT 10SM FEW060 30/14 A2998 260 38 2100 100/05 RMK AO2 $
63870K0J4 0J420160527162510305/27/16 16:25:31  5-MIN K0J4 272125Z AUTO VRB04KT 10SM FEW060 30/15 A2998 260 39 2100 VRB/04 RMK AO2 $
63870K0J4 0J420160527163010305/27/16 16:30:31  5-MIN K0J4 272130Z AUTO 15006KT 10SM FEW060 30/15 A2998 270 39 2100 150/06 RMK AO2 $
63870K0J4 0J420160527163510005/27/16 16:35:31  5-MIN K0J4 272135Z AUTO 14006KT 10SM CLR 30/14 A2997 270 38 2100 140/06 RMK AO2 $
63870K0J4 0J420160527164010005/27/16 16:40:31  5-MIN K0J4 272140Z AUTO 16005KT 10SM CLR 30/14 A2997 270 36 2100 160/05 RMK AO2 $
63870K0J4 0J420160527164511405/27/16 16:45:31  5-MIN K0J4 272145Z AUTO 10007KT 070V130 10SM CLR 30/14 A2997 270 36 2100 100/07 070V130 RMK AO2
63870K0J4 0J420160527165010405/27/16 16:50:31  5-MIN K0J4 272150Z AUTO 12006G14KT 10SM CLR 29/14 A2997 270 38 2000 120/06G14 RMK AO2
63870K0J4 0J420160527165512105/27/16 16:55:31  5-MIN K0J4 272155Z AUTO VRB05G14KT 10SM CLR 29/14 A2997 270 39 2000 VRB/05G14 RMK AO2 SLP144 T02890139
63870K0J4 0J420160527170009805/27/16 17:00:31  5-MIN K0J4 272200Z AUTO 10006KT 10SM CLR 29/14 A2997 270 39 2000 100/06 RMK AO2
63870K0J4 0J420160527170509805/27/16 17:05:31  5-MIN K0J4 272205Z AUTO 12004KT 10SM CLR 29/13 A2997 270 38 2000 120/04 RMK AO2
63870K0J4 0J420160527171009805/27/16 17:10:31  5-MIN K0J4 272210Z AUTO 11003KT 10SM CLR 29/14 A2997 270 39 2000 110/03 RMK AO2
63870K0J4 0J420160527171509805/27/16 17:15:31  5-MIN K0J4 272215Z AUTO 11005KT 10SM CLR 28/14 A2997 270 40 1900 110/05 RMK AO2
63870K0J4 0J420160527172009805/27/16 17:20:31  5-MIN K0J4 272220Z AUTO VRB04KT 10SM CLR 28/14 A2996 280 40 1900 VRB/04 RMK AO2
63870K0J4 0J420160527172509805/27/16 17:25:31  5-MIN K0J4 272225Z AUTO 12004KT 10SM CLR 28/14 A2996 280 40 1900 120/04 RMK AO2
63870K0J4 0J420160527173009805/27/16 17:30:31  5-MIN K0J4 272230Z AUTO 11004KT 10SM CLR 28/14 A2996 280 40 1900 110/04 RMK AO2
63870K0J4 0J420160527173509805/27/16 17:35:31  5-MIN K0J4 272235Z AUTO VRB04KT 10SM CLR 28/14 A2996 280 42 1900 VRB/04 RMK AO2
63870K0J4 0J420160527174009805/27/16 17:40:31  5-MIN K0J4 272240Z AUTO 10003KT 10SM CLR 28/14 A2996 280 42 1900 100/03 RMK AO2
63870K0J4 0J420160527174509805/27/16 17:45:31  5-MIN K0J4 272245Z AUTO 11003KT 10SM CLR 28/14 A2996 280 42 1900 110/03 RMK AO2
63870K0J4 0J420160527175009805/27/16 17:50:31  5-MIN K0J4 272250Z AUTO 12003KT 10SM CLR 28/14 A2996 280 42 1900 120/03 RMK AO2
63870K0J4 0J420160527175511505/27/16 17:55:31  5-MIN K0J4 272255Z AUTO 00000KT 10SM CLR 28/14 A2996 280 42 1900 000/00 RMK AO2 SLP141 T02830144
63870K0J4 0J420160527180009805/27/16 18:00:31  5-MIN K0J4 272300Z AUTO VRB03KT 10SM CLR 28/15 A2996 280 45 1900 VRB/03 RMK AO2
63870K0J4 0J420160527180509805/27/16 18:05:31  5-MIN K0J4 272305Z AUTO 10003KT 10SM CLR 28/15 A2996 280 45 1900 100/03 RMK AO2
63870K0J4 0J420160527181009805/27/16 18:10:31  5-MIN K0J4 272310Z AUTO VRB03KT 10SM CLR 28/15 A2996 280 45 1900 VRB/03 RMK AO2
63870K0J4 0J420160527181510105/27/16 18:15:31  5-MIN K0J4 272315Z AUTO 20007KT 10SM FEW065 27/15 A2997 270 46 1800 200/07 RMK AO2
63870K0J4 0J420160527182010105/27/16 18:20:31  5-MIN K0J4 272320Z AUTO 20009KT 10SM SCT065 27/17 A2997 270 54 1800 200/09 RMK AO2
63870K0J4 0J420160527182510105/27/16 18:25:31  5-MIN K0J4 272325Z AUTO 21007KT 10SM BKN065 27/18 A2997 270 60 1700 210/07 RMK AO2
63870K0J4 0J420160527183010105/27/16 18:30:31  5-MIN K0J4 272330Z AUTO 21007KT 10SM BKN065 27/19 A2997 270 62 1700 210/07 RMK AO2
63870K0J4 0J420160527183510105/27/16 18:35:31  5-MIN K0J4 272335Z AUTO 21009KT 10SM BKN065 27/19 A2998 270 62 1700 210/09 RMK AO2
63870K0J4 0J420160527184010105/27/16 18:40:31  5-MIN K0J4 272340Z AUTO 20006KT 10SM SCT065 27/19 A2998 260 62 1700 200/06 RMK AO2
63870K0J4 0J420160527184510105/27/16 18:45:31  5-MIN K0J4 272345Z AUTO 21007KT 10SM SCT060 26/19 A2998 260 64 1600 210/07 RMK AO2
63870K0J4 0J420160527185010105/27/16 18:50:31  5-MIN K0J4 272350Z AUTO 20011KT 10SM SCT060 26/19 A2998 260 64 1600 200/11 RMK AO2
63870K0J4 0J420160527185513605/27/16 18:55:31  5-MIN K0J4 272355Z AUTO 20010KT 10SM BKN060 26/19 A2999 250 64 1600 200/10 RMK AO2 SLP151 T02610189 10306 20261 58021
63870K0J4 0J420160527190010105/27/16 19:00:31  5-MIN K0J4 280000Z AUTO 21009KT 10SM SCT060 26/19 A2999 250 64 1600 210/09 RMK AO2
63870K0J4 0J420160527190510105/27/16 19:05:31  5-MIN K0J4 280005Z AUTO 20010KT 10SM SCT060 26/19 A2999 250 66 1600 200/10 RMK AO2
63870K0J4 0J420160527191010105/27/16 19:10:31  5-MIN K0J4 280010Z AUTO 22011KT 10SM FEW060 26/19 A3000 250 66 1600 220/11 RMK AO2
63870K0J4 0J420160527191510105/27/16 19:15:31  5-MIN K0J4 280015Z AUTO 20009KT 10SM FEW060 26/19 A3000 240 66 1600 200/09 RMK AO2
63870K0J4 0J420160527192010105/27/16 19:20:31  5-MIN K0J4 280020Z AUTO 19007KT 10SM FEW060 26/19 A3000 240 66 1600 190/07 RMK AO2
63870K0J4 0J420160527192509805/27/16 19:25:31  5-MIN K0J4 280025Z AUTO 21008KT 10SM CLR 26/18 A3000 240 64 1600 210/08 RMK AO2
63870K0J4 0J420160527193009805/27/16 19:30:31  5-MIN K0J4 280030Z AUTO 21009KT 10SM CLR 25/18 A3000 240 66 1500 210/09 RMK AO2
63870K0J4 0J420160527193509805/27/16 19:35:31  5-MIN K0J4 280035Z AUTO 21008KT 10SM CLR 25/18 A3000 240 66 1500 210/08 RMK AO2
63870K0J4 0J420160527194010105/27/16 19:40:31  5-MIN K0J4 280040Z AUTO 21007KT 10SM FEW065 25/18 A3001 240 66 1500 210/07 RMK AO2
63870K0J4 0J420160527194510105/27/16 19:45:31  5-MIN K0J4 280045Z AUTO 21006KT 10SM FEW065 25/19 A3001 240 68 1500 210/06 RMK AO2
63870K0J4 0J420160527195010105/27/16 19:50:31  5-MIN K0J4 280050Z AUTO 21007KT 10SM SCT065 25/19 A3001 230 68 1500 210/07 RMK AO2
63870K0J4 0J420160527195511805/27/16 19:55:31  5-MIN K0J4 280055Z AUTO 21009KT 10SM BKN065 25/18 A3001 230 66 1500 210/09 RMK AO2 SLP159 T02500183
63870K0J4 0J420160527200010105/27/16 20:00:31  5-MIN K0J4 280100Z AUTO 22008KT 10SM BKN065 25/18 A3001 230 66 1500 220/08 RMK AO2
63870K0J4 0J420160527200510105/27/16 20:05:31  5-MIN K0J4 280105Z AUTO 22006KT 10SM BKN065 25/18 A3001 230 66 1500 220/06 RMK AO2
63870K0J4 0J420160527201010105/27/16 20:10:31  5-MIN K0J4 280110Z AUTO 23006KT 10SM BKN060 24/18 A3001 230 68 1400 230/06 RMK AO2
63870K0J4 0J420160527201510105/27/16 20:15:31  5-MIN K0J4 280115Z AUTO 21006KT 10SM OVC060 24/18 A3002 230 68 1400 210/06 RMK AO2
63870K0J4 0J420160527202010105/27/16 20:20:31  5-MIN K0J4 280120Z AUTO 21006KT 10SM BKN060 24/18 A3002 230 68 1400 210/06 RMK AO2
63870K0J4 0J420160527202510105/27/16 20:25:31  5-MIN K0J4 280125Z AUTO 20005KT 10SM BKN060 24/18 A3002 230 68 1400 200/05 RMK AO2
63870K0J4 0J420160527203010105/27/16 20:30:31  5-MIN K0J4 280130Z AUTO 21006KT 10SM SCT060 24/18 A3002 220 68 1400 210/06 RMK AO2
63870K0J4 0J420160527203510105/27/16 20:35:31  5-MIN K0J4 280135Z AUTO 21005KT 10SM FEW060 24/18 A3002 220 71 1300 210/05 RMK AO2
63870K0J4 0J420160527204010105/27/16 20:40:31  5-MIN K0J4 280140Z AUTO 22004KT 10SM FEW060 24/18 A3002 220 71 1300 220/04 RMK AO2
63870K0J4 0J420160527204509805/27/16 20:45:31  5-MIN K0J4 280145Z AUTO 22004KT 10SM CLR 24/18 A3002 220 71 1300 220/04 RMK AO2
63870K0J4 0J420160527205010105/27/16 20:50:31  5-MIN K0J4 280150Z AUTO 22003KT 10SM FEW070 24/18 A3003 220 71 1300 220/03 RMK AO2
63870K0J4 0J420160527205511805/27/16 20:55:31  5-MIN K0J4 280155Z AUTO 22003KT 10SM SCT070 24/18 A3003 220 71 1300 220/03 RMK AO2 SLP164 T02390183
63870K0J4 0J420160527210010105/27/16 21:00:31  5-MIN K0J4 280200Z AUTO 23003KT 10SM BKN065 24/18 A3003 210 71 1300 230/03 RMK AO2
63870K0J4 0J420160527210510105/27/16 21:05:31  5-MIN K0J4 280205Z AUTO 21003KT 10SM BKN065 24/18 A3003 210 71 1300 210/03 RMK AO2
63870K0J4 0J420160527211010105/27/16 21:10:31  5-MIN K0J4 280210Z AUTO 20003KT 10SM BKN065 23/19 A3003 210 76 1300 200/03 RMK AO2
63870K0J4 0J420160527211510105/27/16 21:15:31  5-MIN K0J4 280215Z AUTO 20003KT 10SM BKN065 23/19 A3003 210 76 1300 200/03 RMK AO2
63870K0J4 0J420160527212010105/27/16 21:20:31  5-MIN K0J4 280220Z AUTO 21003KT 10SM BKN065 23/19 A3003 210 76 1300 210/03 RMK AO2
63870K0J4 0J420160527212510105/27/16 21:25:31  5-MIN K0J4 280225Z AUTO 00000KT 10SM BKN065 23/19 A3004 210 76 1300 000/00 RMK AO2
63870K0J4 0J420160527213010105/27/16 21:30:31  5-MIN K0J4 280230Z AUTO 00000KT 10SM SCT065 23/19 A3004 210 76 1300 000/00 RMK AO2
63870K0J4 0J420160527213510105/27/16 21:35:31  5-MIN K0J4 280235Z AUTO 00000KT 10SM FEW065 23/19 A3004 200 76 1300 000/00 RMK AO2
63870K0J4 0J420160527214010105/27/16 21:40:31  5-MIN K0J4 280240Z AUTO 00000KT 10SM SCT065 23/19 A3004 200 76 1300 000/00 RMK AO2
63870K0J4 0J420160527214510105/27/16 21:45:31  5-MIN K0J4 280245Z AUTO 00000KT 10SM SCT070 23/19 A3004 200 76 1300 000/00 RMK AO2
63870K0J4 0J420160527215010105/27/16 21:50:31  5-MIN K0J4 280250Z AUTO 00000KT 10SM SCT070 23/19 A3004 200 76 1300 000/00 RMK AO2
63870K0J4 0J420160527215512405/27/16 21:55:31  5-MIN K0J4 280255Z AUTO 00000KT 10SM FEW070 23/19 A3004 200 76 1300 000/00 RMK AO2 SLP169 T02330189 53002
63870K0J4 0J420160527220010105/27/16 22:00:31  5-MIN K0J4 280300Z AUTO 00000KT 10SM FEW070 23/19 A3004 200 78 1200 000/00 RMK AO2
63870K0J4 0J420160527220510105/27/16 22:05:31  5-MIN K0J4 280305Z AUTO 00000KT 10SM FEW070 23/19 A3004 200 78 1200 000/00 RMK AO2
63870K0J4 0J420160527221010105/27/16 22:10:31  5-MIN K0J4 280310Z AUTO 00000KT 10SM FEW070 23/19 A3004 200 78 1200 000/00 RMK AO2
63870K0J4 0J420160527221509805/27/16 22:15:31  5-MIN K0J4 280315Z AUTO 00000KT 10SM CLR 23/19 A3004 200 78 1200 000/00 RMK AO2
63870K0J4 0J420160527222009805/27/16 22:20:31  5-MIN K0J4 280320Z AUTO 00000KT 10SM CLR 23/19 A3004 200 78 1200 000/00 RMK AO2
63870K0J4 0J420160527222509805/27/16 22:25:31  5-MIN K0J4 280325Z AUTO 00000KT 10SM CLR 23/19 A3005 200 78 1200 000/00 RMK AO2
63870K0J4 0J420160527223009805/27/16 22:30:31  5-MIN K0J4 280330Z AUTO 00000KT 10SM CLR 22/19 A3005 200 81 1100 000/00 RMK AO2
63870K0J4 0J420160527223509805/27/16 22:35:31  5-MIN K0J4 280335Z AUTO 00000KT 10SM CLR 22/19 A3005 200 81 1100 000/00 RMK AO2
63870K0J4 0J420160527224009805/27/16 22:40:31  5-MIN K0J4 280340Z AUTO 00000KT 10SM CLR 22/19 A3005 200 81 1100 000/00 RMK AO2
63870K0J4 0J420160527224509805/27/16 22:45:31  5-MIN K0J4 280345Z AUTO 00000KT 10SM CLR 22/19 A3005 200 84 1100 000/00 RMK AO2
63870K0J4 0J420160527225009805/27/16 22:50:31  5-MIN K0J4 280350Z AUTO 00000KT 10SM CLR 22/19 A3005 200 84 1100 000/00 RMK AO2
63870K0J4 0J420160527225511505/27/16 22:55:31  5-MIN K0J4 280355Z AUTO 00000KT 10SM CLR 22/19 A3005 200 84 1100 000/00 RMK AO2 SLP171 T02170189
63870K0J4 0J420160527230009805/27/16 23:00:31  5-MIN K0J4 280400Z AUTO 00000KT 10SM CLR 22/19 A3005 200 84 1100 000/00 RMK AO2
63870K0J4 0J420160527230509805/27/16 23:05:31  5-MIN K0J4 280405Z AUTO 00000KT 10SM CLR 22/19 A3005 200 84 1100 000/00 RMK AO2
63870K0J4 0J420160527231009805/27/16 23:10:31  5-MIN K0J4 280410Z AUTO 00000KT 10SM CLR 22/19 A3004 200 84 1100 000/00 RMK AO2
63870K0J4 0J420160527231509805/27/16 23:15:31  5-MIN K0J4 280415Z AUTO 00000KT 10SM CLR 22/19 A3004 200 84 1100 000/00 RMK AO2
63870K0J4 0J420160527232009805/27/16 23:20:31  5-MIN K0J4 280420Z AUTO 00000KT 10SM CLR 22/19 A3004 200 84 1100 000/00 RMK AO2
63870K0J4 0J420160527232509805/27/16 23:25:31  5-MIN K0J4 280425Z AUTO 00000KT 10SM CLR 22/19 A3004 200 84 1100 000/00 RMK AO2
63870K0J4 0J420160527233009805/27/16 23:30:31  5-MIN K0J4 280430Z AUTO 00000KT 10SM CLR 22/19 A3004 200 84 1100 000/00 RMK AO2
63870K0J4 0J420160527233509805/27/16 23:35:31  5-MIN K0J4 280435Z AUTO 00000KT 10SM CLR 22/19 A3004 200 87 1100 000/00 RMK AO2
63870K0J4 0J420160527234009805/27/16 23:40:31  5-MIN K0J4 280440Z AUTO 00000KT 10SM CLR 22/19 A3004 200 87 1100 000/00 RMK AO2
63870K0J4 0J420160527234509805/27/16 23:45:31  5-MIN K0J4 280445Z AUTO 00000KT 10SM CLR 22/19 A3004 200 87 1100 000/00 RMK AO2
63870K0J4 0J420160527235009805/27/16 23:50:31  5-MIN K0J4 280450Z AUTO 00000KT 10SM CLR 22/19 A3004 210 84 1100 000/00 RMK AO2
63870K0J4 0J420160527235512505/27/16 23:55:31  5-MIN K0J4 280455Z AUTO 00000KT 10SM CLR 22/19 A3004 210 84 1100 000/00 RMK AO2 SLP167 T02170189 403060194
63870K0J4 0J420160528000009805/28/16 00:00:31  5-MIN K0J4 280500Z AUTO 00000KT 10SM CLR 22/19 A3004 210 84 1100 000/00 RMK AO2
63870K0J4 0J420160528000509805/28/16 00:05:31  5-MIN K0J4 280505Z AUTO 00000KT 10SM CLR 22/19 A3004 210 84 1100 000/00 RMK AO2
63870K0J4 0J420160528001009805/28/16 00:10:31  5-MIN K0J4 280510Z AUTO 00000KT 10SM CLR 22/19 A3004 210 84 1100 000/00 RMK AO2
63870K0J4 0J420160528001509805/28/16 00:15:31  5-MIN K0J4 280515Z AUTO 00000KT 10SM CLR 22/19 A3004 210 84 1100 000/00 RMK AO2
63870K0J4 0J420160528002009805/28/16 00:20:31  5-MIN K0J4 280520Z AUTO 00000KT 10SM CLR 22/19 A3003 210 84 1100 000/00 RMK AO2
63870K0J4 0J420160528002509805/28/16 00:25:31  5-MIN K0J4 280525Z AUTO 00000KT 10SM CLR 22/19 A3003 210 84 1100 000/00 RMK AO2
63870K0J4 0J420160528003009805/28/16 00:30:31  5-MIN K0J4 280530Z AUTO 00000KT 10SM CLR 22/19 A3003 210 84 1100 000/00 RMK AO2
63870K0J4 0J420160528003509805/28/16 00:35:31  5-MIN K0J4 280535Z AUTO 00000KT 10SM CLR 21/19 A3003 210 87 1000 000/00 RMK AO2
63870K0J4 0J420160528004009805/28/16 00:40:31  5-MIN K0J4 280540Z AUTO 00000KT 10SM CLR 21/19 A3003 220 87 1000 000/00 RMK AO2
63870K0J4 0J420160528004509805/28/16 00:45:31  5-MIN K0J4 280545Z AUTO 00000KT 10SM CLR 22/19 A3003 220 84 1100 000/00 RMK AO2
63870K0J4 0J420160528005009805/28/16 00:50:31  5-MIN K0J4 280550Z AUTO 00000KT 10SM CLR 22/19 A3003 220 84 1100 000/00 RMK AO2
63870K0J4 0J420160528005513305/28/16 00:55:31  5-MIN K0J4 280555Z AUTO 00000KT 10SM CLR 22/19 A3003 220 84 1100 000/00 RMK AO2 SLP163 T02170189 10261 20211 51018
63870K0J4 0J420160528010009805/28/16 01:00:31  5-MIN K0J4 280600Z AUTO 00000KT 10SM CLR 22/19 A3003 220 81 1100 000/00 RMK AO2
63870K0J4 0J420160528010509805/28/16 01:05:31  5-MIN K0J4 280605Z AUTO 00000KT 10SM CLR 22/19 A3003 220 81 1200 000/00 RMK AO2
63870K0J4 0J420160528011009805/28/16 01:10:31  5-MIN K0J4 280610Z AUTO 00000KT 10SM CLR 22/19 A3003 220 84 1100 000/00 RMK AO2
63870K0J4 0J420160528011509805/28/16 01:15:31  5-MIN K0J4 280615Z AUTO 00000KT 10SM CLR 21/19 A3003 220 87 1000 000/00 RMK AO2
63870K0J4 0J420160528012009805/28/16 01:20:31  5-MIN K0J4 280620Z AUTO 00000KT 10SM CLR 21/19 A3002 220 87 1000 000/00 RMK AO2
63870K0J4 0J420160528012509805/28/16 01:25:31  5-MIN K0J4 280625Z AUTO 00000KT 10SM CLR 21/19 A3002 220 87 1000 000/00 RMK AO2
63870K0J4 0J420160528013009805/28/16 01:30:31  5-MIN K0J4 280630Z AUTO 00000KT 10SM CLR 21/19 A3002 220 87 1000 000/00 RMK AO2
63870K0J4 0J420160528013509805/28/16 01:35:31  5-MIN K0J4 280635Z AUTO 00000KT 10SM CLR 21/19 A3002 220 87 1000 000/00 RMK AO2
63870K0J4 0J420160528014009805/28/16 01:40:31  5-MIN K0J4 280640Z AUTO 00000KT 10SM CLR 21/19 A3002 220 90 1000 000/00 RMK AO2
63870K0J4 0J420160528014509805/28/16 01:45:31  5-MIN K0J4 280645Z AUTO 00000KT 10SM CLR 21/19 A3002 220 87 1000 000/00 RMK AO2
63870K0J4 0J420160528015009805/28/16 01:50:31  5-MIN K0J4 280650Z AUTO 00000KT 10SM CLR 21/19 A3002 220 87 1000 000/00 RMK AO2
63870K0J4 0J420160528015511505/28/16 01:55:31  5-MIN K0J4 280655Z AUTO 00000KT 10SM CLR 21/19 A3002 220 87 1000 000/00 RMK AO2 SLP161 T02110189
63870K0J4 0J420160528020009805/28/16 02:00:31  5-MIN K0J4 280700Z AUTO 00000KT 10SM CLR 21/19 A3002 220 90 1000 000/00 RMK AO2
63870K0J4 0J420160528020509805/28/16 02:05:31  5-MIN K0J4 280705Z AUTO 00000KT 10SM CLR 21/19 A3002 230 87 1000 000/00 RMK AO2
63870K0J4 0J420160528021009805/28/16 02:10:31  5-MIN K0J4 280710Z AUTO 00000KT 10SM CLR 21/19 A3002 230 87 1000 000/00 RMK AO2
63870K0J4 0J420160528021509805/28/16 02:15:31  5-MIN K0J4 280715Z AUTO 00000KT 10SM CLR 21/19 A3002 230 87 1000 000/00 RMK AO2
63870K0J4 0J420160528022009805/28/16 02:20:31  5-MIN K0J4 280720Z AUTO 00000KT 10SM CLR 21/19 A3002 230 87 1000 000/00 RMK AO2
63870K0J4 0J420160528022509805/28/16 02:25:31  5-MIN K0J4 280725Z AUTO 00000KT 10SM CLR 21/19 A3002 220 90 1000 000/00 RMK AO2
63870K0J4 0J420160528023009805/28/16 02:30:31  5-MIN K0J4 280730Z AUTO 00000KT 10SM CLR 21/19 A3002 220 90 1000 000/00 RMK AO2
63870K0J4 0J420160528023509805/28/16 02:35:31  5-MIN K0J4 280735Z AUTO 00000KT 10SM CLR 21/19 A3002 220 90 1000 000/00 RMK AO2
63870K0J4 0J420160528024009805/28/16 02:40:31  5-MIN K0J4 280740Z AUTO 00000KT 10SM CLR 21/19 A3002 220 90 1000 000/00 RMK AO2
63870K0J4 0J420160528024509805/28/16 02:45:31  5-MIN K0J4 280745Z AUTO 00000KT 10SM CLR 21/19 A3002 220 90 1000 000/00 RMK AO2
63870K0J4 0J420160528025009805/28/16 02:50:31  5-MIN K0J4 280750Z AUTO 00000KT 10SM CLR 21/19 A3003 220 90 1000 000/00 RMK AO2
63870K0J4 0J420160528025511505/28/16 02:55:31  5-MIN K0J4 280755Z AUTO 00000KT 10SM CLR 21/19 A3003 210 90 1000 000/00 RMK AO2 SLP165 T02060189
63870K0J4 0J420160528030009805/28/16 03:00:31  5-MIN K0J4 280800Z AUTO 00000KT 10SM CLR 21/19 A3003 210 90 1000 000/00 RMK AO2
63870K0J4 0J420160528030509805/28/16 03:05:31  5-MIN K0J4 280805Z AUTO 00000KT 10SM CLR 21/19 A3003 210 90 1000 000/00 RMK AO2
63870K0J4 0J420160528031009705/28/16 03:10:31  5-MIN K0J4 280810Z AUTO 00000KT 10SM CLR 21/19 A3003 210 90 900 000/00 RMK AO2
63870K0J4 0J420160528031510005/28/16 03:15:31  5-MIN K0J4 280815Z AUTO 00000KT 10SM FEW065 21/19 A3004 210 90 900 000/00 RMK AO2
63870K0J4 0J420160528032010005/28/16 03:20:31  5-MIN K0J4 280820Z AUTO 00000KT 10SM SCT065 21/19 A3004 210 90 900 000/00 RMK AO2
63870K0J4 0J420160528032510005/28/16 03:25:31  5-MIN K0J4 280825Z AUTO 00000KT 10SM BKN065 21/19 A3004 210 90 900 000/00 RMK AO2
63870K0J4 0J420160528033010005/28/16 03:30:31  5-MIN K0J4 280830Z AUTO 00000KT 10SM BKN070 21/19 A3004 210 90 900 000/00 RMK AO2
63870K0J4 0J420160528033510005/28/16 03:35:31  5-MIN K0J4 280835Z AUTO 00000KT 10SM BKN065 21/19 A3004 210 90 900 000/00 RMK AO2
63870K0J4 0J420160528034010005/28/16 03:40:31  5-MIN K0J4 280840Z AUTO 10005KT 10SM BKN065 21/19 A3005 200 90 900 100/05 RMK AO2
63870K0J4 0J420160528034510005/28/16 03:45:31  5-MIN K0J4 280845Z AUTO 10005KT 10SM BKN065 21/19 A3006 190 90 900 100/05 RMK AO2
63870K0J4 0J420160528035010005/28/16 03:50:31  5-MIN K0J4 280850Z AUTO VRB05KT 10SM BKN065 21/19 A3005 190 90 900 VRB/05 RMK AO2
63870K0J4 0J420160528035512305/28/16 03:55:31  5-MIN K0J4 280855Z AUTO 10004KT 10SM BKN065 21/19 A3005 190 90 900 100/04 RMK AO2 SLP172 T02060189 58005
63870K0J4 0J420160528040010105/28/16 04:00:31  5-MIN K0J4 280900Z AUTO 07003KT 10SM SCT065 21/19 A3005 200 87 1000 070/03 RMK AO2
63870K0J4 0J420160528040510005/28/16 04:05:31  5-MIN K0J4 280905Z AUTO 10003KT 10SM SCT065 21/19 A3005 200 90 900 100/03 RMK AO2
63870K0J4 0J420160528041010005/28/16 04:10:31  5-MIN K0J4 280910Z AUTO 09003KT 10SM FEW065 21/19 A3005 200 90 900 090/03 RMK AO2
63870K0J4 0J420160528041509705/28/16 04:15:31  5-MIN K0J4 280915Z AUTO 09003KT 10SM CLR 21/19 A3005 200 90 900 090/03 RMK AO2
63870K0J4 0J420160528042009805/28/16 04:20:31  5-MIN K0J4 280920Z AUTO 00000KT 10SM CLR 21/19 A3005 200 87 1000 000/00 RMK AO2
63870K0J4 0J420160528042509705/28/16 04:25:31  5-MIN K0J4 280925Z AUTO 00000KT 10SM CLR 21/19 A3005 200 90 900 000/00 RMK AO2
63870K0J4 0J420160528043009705/28/16 04:30:31  5-MIN K0J4 280930Z AUTO 00000KT 10SM CLR 21/19 A3005 200 90 900 000/00 RMK AO2
63870K0J4 0J420160528043509805/28/16 04:35:31  5-MIN K0J4 280935Z AUTO 00000KT 10SM CLR 21/19 A3004 200 87 1000 000/00 RMK AO2
63870K0J4 0J420160528044009705/28/16 04:40:31  5-MIN K0J4 280940Z AUTO 00000KT 10SM CLR 21/19 A3005 200 90 900 000/00 RMK AO2
63870K0J4 0J420160528044509705/28/16 04:45:31  5-MIN K0J4 280945Z AUTO 00000KT 10SM CLR 21/19 A3005 200 90 900 000/00 RMK AO2
63870K0J4 0J420160528045009705/28/16 04:50:31  5-MIN K0J4 280950Z AUTO 00000KT 10SM CLR 21/19 A3005 200 90 900 000/00 RMK AO2
63870K0J4 0J420160528045511405/28/16 04:55:31  5-MIN K0J4 280955Z AUTO 00000KT 10SM CLR 21/19 A3005 200 90 900 000/00 RMK AO2 SLP171 T02060189
63870K0J4 0J420160528050009705/28/16 05:00:31  5-MIN K0J4 281000Z AUTO 00000KT 10SM CLR 21/19 A3005 200 90 900 000/00 RMK AO2
63870K0J4 0J420160528050509705/28/16 05:05:31  5-MIN K0J4 281005Z AUTO 00000KT 10SM CLR 21/19 A3005 200 90 900 000/00 RMK AO2
63870K0J4 0J420160528051009705/28/16 05:10:31  5-MIN K0J4 281010Z AUTO 00000KT 10SM CLR 21/19 A3005 200 90 900 000/00 RMK AO2
63870K0J4 0J420160528051509705/28/16 05:15:31  5-MIN K0J4 281015Z AUTO 00000KT 10SM CLR 21/19 A3005 200 90 900 000/00 RMK AO2
63870K0J4 0J420160528052009705/28/16 05:20:31  5-MIN K0J4 281020Z AUTO 00000KT 10SM CLR 21/19 A3005 200 90 900 000/00 RMK AO2
63870K0J4 0J420160528052509705/28/16 05:25:31  5-MIN K0J4 281025Z AUTO 00000KT 10SM CLR 21/19 A3005 200 90 900 000/00 RMK AO2
63870K0J4 0J420160528053009705/28/16 05:30:31  5-MIN K0J4 281030Z AUTO 00000KT 10SM CLR 21/19 A3005 200 90 900 000/00 RMK AO2
63870K0J4 0J420160528053509705/28/16 05:35:31  5-MIN K0J4 281035Z AUTO 00000KT 10SM CLR 21/18 A3005 190 87 900 000/00 RMK AO2
63870K0J4 0J420160528054009705/28/16 05:40:31  5-MIN K0J4 281040Z AUTO 00000KT 10SM CLR 20/18 A3005 190 90 900 000/00 RMK AO2
63870K0J4 0J420160528054509705/28/16 05:45:31  5-MIN K0J4 281045Z AUTO 00000KT 10SM CLR 20/18 A3006 190 90 900 000/00 RMK AO2
63870K0J4 0J420160528055009705/28/16 05:50:31  5-MIN K0J4 281050Z AUTO 00000KT 10SM CLR 20/18 A3005 190 90 900 000/00 RMK AO2
63870K0J4 0J420160528055511405/28/16 05:55:31  5-MIN K0J4 281055Z AUTO 00000KT 10SM CLR 21/18 A3006 190 87 900 000/00 RMK AO2 SLP173 T02060183
63870K0J4 0J420160528060009705/28/16 06:00:31  5-MIN K0J4 281100Z AUTO 00000KT 10SM CLR 21/18 A3006 190 87 900 000/00 RMK AO2
63870K0J4 0J420160528060510005/28/16 06:05:31  5-MIN K0J4 281105Z AUTO 00000KT 10SM FEW070 21/19 A3006 180 90 900 000/00 RMK AO2
63870K0J4 0J420160528061010105/28/16 06:10:31  5-MIN K0J4 281110Z AUTO 00000KT 10SM SCT070 21/19 A3006 180 87 1000 000/00 RMK AO2
63870K0J4 0J420160528061510105/28/16 06:15:31  5-MIN K0J4 281115Z AUTO 00000KT 10SM SCT070 21/19 A3007 180 87 1000 000/00 RMK AO2
63870K0J4 0J420160528062010105/28/16 06:20:31  5-MIN K0J4 281120Z AUTO 00000KT 10SM SCT065 21/19 A3007 180 87 1000 000/00 RMK AO2
63870K0J4 0J420160528062510105/28/16 06:25:31  5-MIN K0J4 281125Z AUTO 00000KT 10SM SCT070 21/19 A3007 170 87 1000 000/00 RMK AO2
63870K0J4 0J420160528063010105/28/16 06:30:31  5-MIN K0J4 281130Z AUTO 08003KT 10SM SCT070 21/19 A3007 170 87 1000 080/03 RMK AO2
63870K0J4 0J420160528063510105/28/16 06:35:31  5-MIN K0J4 281135Z AUTO 08003KT 10SM FEW070 21/18 A3007 170 84 1000 080/03 RMK AO2
63870K0J4 0J420160528064010105/28/16 06:40:31  5-MIN K0J4 281140Z AUTO 09003KT 10SM FEW065 21/18 A3007 170 84 1000 090/03 RMK AO2
63870K0J4 0J420160528064510005/28/16 06:45:31  5-MIN K0J4 281145Z AUTO 00000KT 10SM FEW065 21/18 A3007 170 87 900 000/00 RMK AO2
63870K0J4 0J420160528065009705/28/16 06:50:31  5-MIN K0J4 281150Z AUTO 10003KT 10SM CLR 21/18 A3007 170 87 900 100/03 RMK AO2
63870K0J4 0J420160528065513205/28/16 06:55:31  5-MIN K0J4 281155Z AUTO 09004KT 10SM CLR 21/18 A3007 180 87 900 090/04 RMK AO2 SLP180 T02060183 10222 20200 53007
63870K0J4 0J420160528070009705/28/16 07:00:31  5-MIN K0J4 281200Z AUTO 10004KT 10SM CLR 21/18 A3007 180 87 900 100/04 RMK AO2
63870K0J4 0J420160528070509705/28/16 07:05:31  5-MIN K0J4 281205Z AUTO 00000KT 10SM CLR 21/18 A3007 180 87 900 000/00 RMK AO2
63870K0J4 0J420160528071009805/28/16 07:10:31  5-MIN K0J4 281210Z AUTO 00000KT 10SM CLR 21/18 A3008 170 84 1000 000/00 RMK AO2
63870K0J4 0J420160528071509805/28/16 07:15:31  5-MIN K0J4 281215Z AUTO 00000KT 10SM CLR 21/18 A3008 170 84 1000 000/00 RMK AO2
63870K0J4 0J420160528072009805/28/16 07:20:31  5-MIN K0J4 281220Z AUTO 00000KT 10SM CLR 21/18 A3008 170 84 1000 000/00 RMK AO2
63870K0J4 0J420160528072509805/28/16 07:25:31  5-MIN K0J4 281225Z AUTO 00000KT 10SM CLR 21/19 A3008 170 87 1000 000/00 RMK AO2
63870K0J4 0J420160528073009805/28/16 07:30:31  5-MIN K0J4 281230Z AUTO 08003KT 10SM CLR 21/19 A3008 170 87 1000 080/03 RMK AO2
63870K0J4 0J420160528073509805/28/16 07:35:31  5-MIN K0J4 281235Z AUTO 09003KT 10SM CLR 21/19 A3008 170 87 1000 090/03 RMK AO2
63870K0J4 0J420160528181509805/28/16 18:15:31  5-MIN K0J4 282315Z AUTO 00000KT 10SM CLR 25/21 A3006 190 76 1400 000/00 RMK AO2
63870K0J4 0J420160528182009805/28/16 18:20:31  5-MIN K0J4 282320Z AUTO 00000KT 10SM CLR 25/21 A3006 180 76 1400 000/00 RMK AO2
63870K0J4 0J420160528182509805/28/16 18:25:31  5-MIN K0J4 282325Z AUTO 00000KT 10SM CLR 26/20 A3006 180 71 1500 000/00 RMK AO2
63870K0J4 0J420160528183009805/28/16 18:30:31  5-MIN K0J4 282330Z AUTO 00000KT 10SM CLR 26/20 A3007 180 71 1500 000/00 RMK AO2
63870K0J4 0J420160528183509805/28/16 18:35:31  5-MIN K0J4 282335Z AUTO 00000KT 10SM CLR 25/19 A3007 180 71 1400 000/00 RMK AO2
63870K0J4 0J420160528184009805/28/16 18:40:31  5-MIN K0J4 282340Z AUTO 00000KT 10SM CLR 25/20 A3007 180 73 1400 000/00 RMK AO2
63870K0J4 0J420160528184509805/28/16 18:45:31  5-MIN K0J4 282345Z AUTO 00000KT 10SM CLR 25/21 A3007 180 76 1400 000/00 RMK AO2
63870K0J4 0J420160528185009805/28/16 18:50:31  5-MIN K0J4 282350Z AUTO 00000KT 10SM CLR 25/21 A3007 180 76 1400 000/00 RMK AO2
63870K0J4 0J420160528185513905/28/16 18:55:31  5-MIN K0J4 282355Z AUTO 00000KT 10SM CLR 24/21 A3007 180 78 1400 000/00 RMK AO2 SLP179 60000 T02440206 10300 20244 58004
63870K0J4 0J420160528190009805/28/16 19:00:31  5-MIN K0J4 290000Z AUTO 00000KT 10SM CLR 24/21 A3007 180 78 1400 000/00 RMK AO2
63870K0J4 0J420160528190509805/28/16 19:05:31  5-MIN K0J4 290005Z AUTO 00000KT 10SM CLR 24/21 A3007 180 78 1400 000/00 RMK AO2
63870K0J4 0J420160528191009805/28/16 19:10:31  5-MIN K0J4 290010Z AUTO 00000KT 10SM CLR 24/20 A3007 180 76 1400 000/00 RMK AO2
63870K0J4 0J420160528191509805/28/16 19:15:31  5-MIN K0J4 290015Z AUTO 00000KT 10SM CLR 24/20 A3008 170 76 1300 000/00 RMK AO2
63870K0J4 0J420160528192009805/28/16 19:20:31  5-MIN K0J4 290020Z AUTO 00000KT 10SM CLR 24/20 A3008 170 76 1300 000/00 RMK AO2
63870K0J4 0J420160528192509805/28/16 19:25:31  5-MIN K0J4 290025Z AUTO 00000KT 10SM CLR 24/20 A3008 170 76 1300 000/00 RMK AO2
63870K0J4 0J420160528193009805/28/16 19:30:31  5-MIN K0J4 290030Z AUTO 00000KT 10SM CLR 24/21 A3008 170 78 1300 000/00 RMK AO2
63870K0J4 0J420160528193509805/28/16 19:35:31  5-MIN K0J4 290035Z AUTO 00000KT 10SM CLR 24/21 A3008 170 81 1300 000/00 RMK AO2
63870K0J4 0J420160528194009805/28/16 19:40:31  5-MIN K0J4 290040Z AUTO 00000KT 10SM CLR 24/21 A3008 170 81 1300 000/00 RMK AO2
63870K0J4 0J420160528194509805/28/16 19:45:31  5-MIN K0J4 290045Z AUTO 00000KT 10SM CLR 24/21 A3008 170 81 1300 000/00 RMK AO2
63870K0J4 0J420160528195009805/28/16 19:50:31  5-MIN K0J4 290050Z AUTO 00000KT 10SM CLR 23/21 A3008 170 84 1200 000/00 RMK AO2
63870K0J4 0J420160528195511505/28/16 19:55:31  5-MIN K0J4 290055Z AUTO 00000KT 10SM CLR 23/20 A3008 170 81 1200 000/00 RMK AO2 SLP182 T02330200
63870K0J4 0J420160528200009805/28/16 20:00:31  5-MIN K0J4 290100Z AUTO 00000KT 10SM CLR 23/20 A3008 170 81 1200 000/00 RMK AO2
63870K0J4 0J420160528200509805/28/16 20:05:31  5-MIN K0J4 290105Z AUTO 00000KT 10SM CLR 23/21 A3008 170 90 1200 000/00 RMK AO2
63870K0J4 0J420160528201009805/28/16 20:10:31  5-MIN K0J4 290110Z AUTO 24003KT 10SM CLR 23/21 A3008 170 87 1200 240/03 RMK AO2
63870K0J4 0J420160528201509805/28/16 20:15:31  5-MIN K0J4 290115Z AUTO 00000KT 10SM CLR 23/20 A3008 170 81 1200 000/00 RMK AO2
63870K0J4 0J420160528202009805/28/16 20:20:31  5-MIN K0J4 290120Z AUTO 00000KT 10SM CLR 23/21 A3008 170 84 1200 000/00 RMK AO2
63870K0J4 0J420160528202509805/28/16 20:25:31  5-MIN K0J4 290125Z AUTO 00000KT 10SM CLR 23/21 A3008 170 87 1200 000/00 RMK AO2
63870K0J4 0J420160528203009805/28/16 20:30:31  5-MIN K0J4 290130Z AUTO 00000KT 10SM CLR 23/21 A3008 170 84 1200 000/00 RMK AO2
63870K0J4 0J420160528203509805/28/16 20:35:31  5-MIN K0J4 290135Z AUTO 00000KT 10SM CLR 23/20 A3008 170 81 1200 000/00 RMK AO2
63870K0J4 0J420160528204009805/28/16 20:40:31  5-MIN K0J4 290140Z AUTO 00000KT 10SM CLR 23/20 A3008 170 84 1200 000/00 RMK AO2
63870K0J4 0J420160528204509805/28/16 20:45:31  5-MIN K0J4 290145Z AUTO 00000KT 10SM CLR 23/21 A3008 170 87 1100 000/00 RMK AO2
63870K0J4 0J420160528205009805/28/16 20:50:31  5-MIN K0J4 290150Z AUTO 00000KT 10SM CLR 23/21 A3008 170 87 1100 000/00 RMK AO2
63870K0J4 0J420160528205511505/28/16 20:55:31  5-MIN K0J4 290155Z AUTO 00000KT 10SM CLR 23/21 A3009 160 87 1100 000/00 RMK AO2 SLP184 T02280206
63870K0J4 0J420160528210009805/28/16 21:00:31  5-MIN K0J4 290200Z AUTO 00000KT 10SM CLR 23/21 A3009 160 87 1100 000/00 RMK AO2
63870K0J4 0J420160528210509805/28/16 21:05:31  5-MIN K0J4 290205Z AUTO 00000KT 10SM CLR 23/21 A3009 160 87 1100 000/00 RMK AO2
63870K0J4 0J420160528211009805/28/16 21:10:31  5-MIN K0J4 290210Z AUTO 00000KT 10SM CLR 23/20 A3009 160 84 1100 000/00 RMK AO2
63870K0J4 0J420160528211509805/28/16 21:15:31  5-MIN K0J4 290215Z AUTO 00000KT 10SM CLR 22/20 A3009 160 87 1100 000/00 RMK AO2
63870K0J4 0J420160528212009805/28/16 21:20:31  5-MIN K0J4 290220Z AUTO 00000KT 10SM CLR 22/20 A3009 160 87 1100 000/00 RMK AO2
63870K0J4 0J420160528212509805/28/16 21:25:31  5-MIN K0J4 290225Z AUTO 00000KT 10SM CLR 22/20 A3009 160 87 1100 000/00 RMK AO2
63870K0J4 0J420160528213009805/28/16 21:30:31  5-MIN K0J4 290230Z AUTO 00000KT 10SM CLR 22/20 A3009 160 87 1100 000/00 RMK AO2
63870K0J4 0J420160528213509805/28/16 21:35:31  5-MIN K0J4 290235Z AUTO 00000KT 10SM CLR 22/20 A3009 160 87 1100 000/00 RMK AO2
63870K0J4 0J420160528214009805/28/16 21:40:31  5-MIN K0J4 290240Z AUTO 00000KT 10SM CLR 22/20 A3009 160 87 1100 000/00 RMK AO2
63870K0J4 0J420160528214509805/28/16 21:45:31  5-MIN K0J4 290245Z AUTO 00000KT 10SM CLR 22/20 A3009 160 90 1000 000/00 RMK AO2
63870K0J4 0J420160528215009805/28/16 21:50:31  5-MIN K0J4 290250Z AUTO 00000KT 10SM CLR 22/20 A3009 160 90 1000 000/00 RMK AO2
63870K0J4 0J420160528215512105/28/16 21:55:31  5-MIN K0J4 290255Z AUTO 00000KT 10SM CLR 22/20 A3009 160 90 1000 000/00 RMK AO2 SLP186 T02170200 53004
63870K0J4 0J420160528220009805/28/16 22:00:31  5-MIN K0J4 290300Z AUTO 00000KT 10SM CLR 22/20 A3009 160 90 1000 000/00 RMK AO2
63870K0J4 0J420160528220509805/28/16 22:05:31  5-MIN K0J4 290305Z AUTO 00000KT 10SM CLR 22/20 A3009 160 90 1000 000/00 RMK AO2
63870K0J4 0J420160528221009805/28/16 22:10:31  5-MIN K0J4 290310Z AUTO 00000KT 10SM CLR 22/20 A3009 160 90 1000 000/00 RMK AO2
63870K0J4 0J420160528221509805/28/16 22:15:31  5-MIN K0J4 290315Z AUTO 00000KT 10SM CLR 22/20 A3009 160 90 1000 000/00 RMK AO2
63870K0J4 0J420160528222009805/28/16 22:20:31  5-MIN K0J4 290320Z AUTO 00000KT 10SM CLR 22/20 A3009 160 87 1100 000/00 RMK AO2
63870K0J4 0J420160528222509805/28/16 22:25:31  5-MIN K0J4 290325Z AUTO 00000KT 10SM CLR 22/20 A3009 160 87 1100 000/00 RMK AO2
63870K0J4 0J420160528223009805/28/16 22:30:31  5-MIN K0J4 290330Z AUTO 00000KT 10SM CLR 22/20 A3009 160 87 1100 000/00 RMK AO2
63870K0J4 0J420160528223509805/28/16 22:35:31  5-MIN K0J4 290335Z AUTO 00000KT 10SM CLR 22/20 A3009 160 90 1000 000/00 RMK AO2
63870K0J4 0J420160528224009705/28/16 22:40:31  5-MIN K0J4 290340Z AUTO 00000KT 10SM CLR 21/19 A3009 160 90 900 000/00 RMK AO2
63870K0J4 0J420160528224509705/28/16 22:45:31  5-MIN K0J4 290345Z AUTO 00000KT 10SM CLR 21/19 A3009 160 90 900 000/00 RMK AO2
63870K0J4 0J420160528225009705/28/16 22:50:31  5-MIN K0J4 290350Z AUTO 00000KT 10SM CLR 21/19 A3009 160 90 900 000/00 RMK AO2
63870K0J4 0J420160528225511505/28/16 22:55:31  5-MIN K0J4 290355Z AUTO 00000KT 10SM CLR 21/19 A3009 160 90 1000 000/00 RMK AO2 SLP185 T02110194
63870K0J4 0J420160528230009805/28/16 23:00:31  5-MIN K0J4 290400Z AUTO 00000KT 10SM CLR 21/19 A3009 160 90 1000 000/00 RMK AO2
63870K0J4 0J420160528230509805/28/16 23:05:31  5-MIN K0J4 290405Z AUTO 00000KT 10SM CLR 21/19 A3009 160 90 1000 000/00 RMK AO2
63870K0J4 0J420160528231009805/28/16 23:10:31  5-MIN K0J4 290410Z AUTO 00000KT 10SM CLR 21/19 A3009 160 90 1000 000/00 RMK AO2
63870K0J4 0J420160528231509705/28/16 23:15:31  5-MIN K0J4 290415Z AUTO 00000KT 10SM CLR 21/19 A3009 160 90 900 000/00 RMK AO2
63870K0J4 0J420160528232009705/28/16 23:20:31  5-MIN K0J4 290420Z AUTO 00000KT 10SM CLR 21/19 A3009 160 90 900 000/00 RMK AO2
63870K0J4 0J420160528232509705/28/16 23:25:31  5-MIN K0J4 290425Z AUTO 00000KT 10SM CLR 21/19 A3009 160 90 900 000/00 RMK AO2
63870K0J4 0J420160528233009805/28/16 23:30:31  5-MIN K0J4 290430Z AUTO 00000KT 10SM CLR 21/20 A3009 160 93 1000 000/00 RMK AO2
63870K0J4 0J420160528233509705/28/16 23:35:31  5-MIN K0J4 290435Z AUTO 00000KT 10SM CLR 21/20 A3009 160 93 900 000/00 RMK AO2
63870K0J4 0J420160528234010105/28/16 23:40:31  5-MIN K0J4 290440Z AUTO 00000KT 10SM FEW100 22/20 A3009 160 90 1000 000/00 RMK AO2
63870K0J4 0J420160528234510105/28/16 23:45:31  5-MIN K0J4 290445Z AUTO 00000KT 10SM SCT100 21/20 A3009 160 93 1000 000/00 RMK AO2
63870K0J4 0J420160528235010105/28/16 23:50:31  5-MIN K0J4 290450Z AUTO 00000KT 10SM SCT100 22/20 A3009 160 90 1000 000/00 RMK AO2
63870K0J4 0J420160528235512805/28/16 23:55:31  5-MIN K0J4 290455Z AUTO 00000KT 10SM SCT100 22/20 A3009 160 90 1000 000/00 RMK AO2 SLP184 T02170200 403000200
63870K0J4 0J420160529000010105/29/16 00:00:31  5-MIN K0J4 290500Z AUTO 00000KT 10SM SCT100 22/20 A3009 160 90 1000 000/00 RMK AO2
63870K0J4 0J420160529000510105/29/16 00:05:31  5-MIN K0J4 290505Z AUTO 00000KT 10SM SCT100 22/20 A3009 160 90 1000 000/00 RMK AO2
63870K0J4 0J420160529001010105/29/16 00:10:31  5-MIN K0J4 290510Z AUTO 00000KT 10SM FEW100 22/20 A3009 160 90 1000 000/00 RMK AO2
63870K0J4 0J420160529001510105/29/16 00:15:31  5-MIN K0J4 290515Z AUTO 00000KT 10SM FEW100 21/20 A3009 160 93 1000 000/00 RMK AO2
63870K0J4 0J420160529002009805/29/16 00:20:31  5-MIN K0J4 290520Z AUTO 00000KT 10SM CLR 22/20 A3009 160 90 1000 000/00 RMK AO2
63870K0J4 0J420160529002509805/29/16 00:25:31  5-MIN K0J4 290525Z AUTO 00000KT 10SM CLR 22/20 A3009 160 90 1000 000/00 RMK AO2
63870K0J4 0J420160529003009805/29/16 00:30:31  5-MIN K0J4 290530Z AUTO 00000KT 10SM CLR 21/20 A3009 160 93 1000 000/00 RMK AO2
63870K0J4 0J420160529003509805/29/16 00:35:31  5-MIN K0J4 290535Z AUTO 00000KT 10SM CLR 21/20 A3008 160 93 1000 000/00 RMK AO2
63870K0J4 0J420160529004009805/29/16 00:40:31  5-MIN K0J4 290540Z AUTO 00000KT 10SM CLR 21/20 A3008 160 93 1000 000/00 RMK AO2
63870K0J4 0J420160529004509805/29/16 00:45:31  5-MIN K0J4 290545Z AUTO 00000KT 10SM CLR 21/20 A3009 160 93 1000 000/00 RMK AO2
63870K0J4 0J420160529005009805/29/16 00:50:31  5-MIN K0J4 290550Z AUTO 00000KT 10SM CLR 22/20 A3009 160 90 1000 000/00 RMK AO2
63870K0J4 0J420160529005513305/29/16 00:55:31  5-MIN K0J4 290555Z AUTO 00000KT 10SM CLR 21/20 A3009 160 93 1000 000/00 RMK AO2 SLP183 T02110200 10244 20211 51007
63870K0J4 0J420160529010009805/29/16 01:00:31  5-MIN K0J4 290600Z AUTO 00000KT 10SM CLR 22/20 A3008 160 90 1000 000/00 RMK AO2
63870K0J4 0J420160529010509805/29/16 01:05:31  5-MIN K0J4 290605Z AUTO 00000KT 10SM CLR 21/20 A3009 160 93 1000 000/00 RMK AO2
63870K0J4 0J420160529011009805/29/16 01:10:31  5-MIN K0J4 290610Z AUTO 00000KT 10SM CLR 22/20 A3009 160 90 1000 000/00 RMK AO2
63870K0J4 0J420160529011509805/29/16 01:15:31  5-MIN K0J4 290615Z AUTO 00000KT 10SM CLR 22/20 A3009 160 90 1000 000/00 RMK AO2
63870K0J4 0J420160529012009805/29/16 01:20:31  5-MIN K0J4 290620Z AUTO 00000KT 10SM CLR 22/20 A3009 160 90 1000 000/00 RMK AO2
63870K0J4 0J420160529012509805/29/16 01:25:31  5-MIN K0J4 290625Z AUTO 00000KT 10SM CLR 22/19 A3008 160 87 1000 000/00 RMK AO2
63870K0J4 0J420160529013009805/29/16 01:30:31  5-MIN K0J4 290630Z AUTO 00000KT 10SM CLR 22/19 A3008 170 87 1000 000/00 RMK AO2
63870K0J4 0J420160529013509805/29/16 01:35:31  5-MIN K0J4 290635Z AUTO 00000KT 10SM CLR 22/19 A3008 170 87 1000 000/00 RMK AO2
63870K0J4 0J420160529014009805/29/16 01:40:31  5-MIN K0J4 290640Z AUTO 00000KT 10SM CLR 22/19 A3008 170 87 1000 000/00 RMK AO2
63870K0J4 0J420160529014509805/29/16 01:45:31  5-MIN K0J4 290645Z AUTO 00000KT 10SM CLR 22/19 A3008 170 87 1000 000/00 RMK AO2
63870K0J4 0J420160529015009805/29/16 01:50:31  5-MIN K0J4 290650Z AUTO 00000KT 10SM CLR 22/19 A3008 170 87 1000 000/00 RMK AO2
63870K0J4 0J420160529015511505/29/16 01:55:31  5-MIN K0J4 290655Z AUTO 00000KT 10SM CLR 22/19 A3008 170 87 1000 000/00 RMK AO2 SLP180 T02170194
63870K0J4 0J420160529020009805/29/16 02:00:31  5-MIN K0J4 290700Z AUTO 00000KT 10SM CLR 22/19 A3008 170 87 1000 000/00 RMK AO2
63870K0J4 0J420160529020509805/29/16 02:05:31  5-MIN K0J4 290705Z AUTO 00000KT 10SM CLR 22/19 A3008 170 87 1000 000/00 RMK AO2
63870K0J4 0J420160529021009805/29/16 02:10:31  5-MIN K0J4 290710Z AUTO 00000KT 10SM CLR 22/19 A3008 170 87 1000 000/00 RMK AO2
63870K0J4 0J420160529021509805/29/16 02:15:31  5-MIN K0J4 290715Z AUTO 00000KT 10SM CLR 22/19 A3008 170 87 1000 000/00 RMK AO2
63870K0J4 0J420160529022009805/29/16 02:20:31  5-MIN K0J4 290720Z AUTO 00000KT 10SM CLR 21/19 A3008 170 90 1000 000/00 RMK AO2
63870K0J4 0J420160529022509805/29/16 02:25:31  5-MIN K0J4 290725Z AUTO 00000KT 10SM CLR 21/19 A3008 170 90 1000 000/00 RMK AO2
63870K0J4 0J420160529023009805/29/16 02:30:31  5-MIN K0J4 290730Z AUTO 00000KT 10SM CLR 21/19 A3007 170 90 1000 000/00 RMK AO2
63870K0J4 0J420160529023509805/29/16 02:35:31  5-MIN K0J4 290735Z AUTO 00000KT 10SM CLR 21/19 A3007 180 90 1000 000/00 RMK AO2
63870K0J4 0J420160529024009705/29/16 02:40:31  5-MIN K0J4 290740Z AUTO 00000KT 10SM CLR 21/19 A3007 180 93 900 000/00 RMK AO2
63870K0J4 0J420160529024509705/29/16 02:45:31  5-MIN K0J4 290745Z AUTO 00000KT 10SM CLR 21/19 A3007 180 93 900 000/00 RMK AO2
63870K0J4 0J420160529025009705/29/16 02:50:31  5-MIN K0J4 290750Z AUTO 00000KT 10SM CLR 21/19 A3007 180 93 900 000/00 RMK AO2
63870K0J4 0J420160529025511405/29/16 02:55:31  5-MIN K0J4 290755Z AUTO 00000KT 10SM CLR 21/19 A3007 180 93 900 000/00 RMK AO2 SLP178 T02060194
63870K0J4 0J420160529030009805/29/16 03:00:31  5-MIN K0J4 290800Z AUTO 00000KT 10SM CLR 21/19 A3007 180 90 1000 000/00 RMK AO2
63870K0J4 0J420160529030509705/29/16 03:05:31  5-MIN K0J4 290805Z AUTO 00000KT 10SM CLR 21/19 A3007 180 93 900 000/00 RMK AO2
63870K0J4 0J420160529031009805/29/16 03:10:31  5-MIN K0J4 290810Z AUTO 00000KT 10SM CLR 21/19 A3007 180 90 1000 000/00 RMK AO2
63870K0J4 0J420160529031509705/29/16 03:15:31  5-MIN K0J4 290815Z AUTO 00000KT 10SM CLR 21/19 A3007 180 93 900 000/00 RMK AO2
63870K0J4 0J420160529032009805/29/16 03:20:31  5-MIN K0J4 290820Z AUTO 00000KT 10SM CLR 21/19 A3007 180 90 1000 000/00 RMK AO2
63870K0J4 0J420160529032509805/29/16 03:25:31  5-MIN K0J4 290825Z AUTO 00000KT 10SM CLR 21/19 A3007 180 90 1000 000/00 RMK AO2
63870K0J4 0J420160529033009705/29/16 03:30:31  5-MIN K0J4 290830Z AUTO 00000KT 10SM CLR 21/19 A3007 180 93 900 000/00 RMK AO2
63870K0J4 0J420160529033509705/29/16 03:35:31  5-MIN K0J4 290835Z AUTO 00000KT 10SM CLR 21/19 A3007 170 93 900 000/00 RMK AO2
63870K0J4 0J420160529034009705/29/16 03:40:31  5-MIN K0J4 290840Z AUTO 00000KT 10SM CLR 21/19 A3007 170 93 900 000/00 RMK AO2
63870K0J4 0J420160529034509705/29/16 03:45:31  5-MIN K0J4 290845Z AUTO 00000KT 10SM CLR 21/19 A3007 170 90 900 000/00 RMK AO2
63870K0J4 0J420160529035009705/29/16 03:50:31  5-MIN K0J4 290850Z AUTO 00000KT 10SM CLR 21/19 A3007 170 90 900 000/00 RMK AO2
63870K0J4 0J420160529035512005/29/16 03:55:31  5-MIN K0J4 290855Z AUTO 00000KT 10SM CLR 21/19 A3007 170 90 900 000/00 RMK AO2 SLP179 T02060189 57003
63870K0J4 0J420160529040009705/29/16 04:00:31  5-MIN K0J4 290900Z AUTO 00000KT 10SM CLR 21/19 A3007 180 90 900 000/00 RMK AO2
63870K0J4 0J420160529040509705/29/16 04:05:31  5-MIN K0J4 290905Z AUTO 00000KT 10SM CLR 21/19 A3007 180 90 900 000/00 RMK AO2
63870K0J4 0J420160529041009705/29/16 04:10:31  5-MIN K0J4 290910Z AUTO 00000KT 10SM CLR 21/19 A3007 180 90 900 000/00 RMK AO2
63870K0J4 0J420160529041509705/29/16 04:15:31  5-MIN K0J4 290915Z AUTO 00000KT 10SM CLR 21/19 A3007 180 90 900 000/00 RMK AO2
63870K0J4 0J420160529042009705/29/16 04:20:31  5-MIN K0J4 290920Z AUTO 00000KT 10SM CLR 20/19 A3007 180 93 800 000/00 RMK AO2
63870K0J4 0J420160529042509705/29/16 04:25:31  5-MIN K0J4 290925Z AUTO 00000KT 10SM CLR 20/19 A3007 180 93 800 000/00 RMK AO2
63870K0J4 0J420160529043009705/29/16 04:30:31  5-MIN K0J4 290930Z AUTO 00000KT 10SM CLR 20/19 A3007 180 93 800 000/00 RMK AO2
63870K0J4 0J420160529043509705/29/16 04:35:31  5-MIN K0J4 290935Z AUTO 00000KT 10SM CLR 20/19 A3007 180 93 800 000/00 RMK AO2
63870K0J4 0J420160529044009705/29/16 04:40:31  5-MIN K0J4 290940Z AUTO 00000KT 10SM CLR 20/19 A3007 180 93 800 000/00 RMK AO2
63870K0J4 0J420160529044509705/29/16 04:45:31  5-MIN K0J4 290945Z AUTO 00000KT 10SM CLR 20/18 A3007 170 90 800 000/00 RMK AO2
63870K0J4 0J420160529045009705/29/16 04:50:31  5-MIN K0J4 290950Z AUTO 00000KT 10SM CLR 20/19 A3008 170 93 800 000/00 RMK AO2
63870K0J4 0J420160529045511405/29/16 04:55:31  5-MIN K0J4 290955Z AUTO 00000KT 10SM CLR 20/19 A3008 170 93 800 000/00 RMK AO2 SLP181 T02000189
63870K0J4 0J420160529050009705/29/16 05:00:31  5-MIN K0J4 291000Z AUTO 32003KT 10SM CLR 20/19 A3008 170 93 800 320/03 RMK AO2
63870K0J4 0J420160529050509705/29/16 05:05:31  5-MIN K0J4 291005Z AUTO 00000KT 10SM CLR 21/19 A3008 170 90 900 000/00 RMK AO2
63870K0J4 0J420160529051009705/29/16 05:10:31  5-MIN K0J4 291010Z AUTO 00000KT 10SM CLR 21/19 A3008 170 90 900 000/00 RMK AO2
63870K0J4 0J420160529051509705/29/16 05:15:31  5-MIN K0J4 291015Z AUTO 00000KT 10SM CLR 20/18 A3008 170 90 800 000/00 RMK AO2
63870K0J4 0J420160529052009705/29/16 05:20:31  5-MIN K0J4 291020Z AUTO 00000KT 10SM CLR 20/18 A3008 170 90 800 000/00 RMK AO2
63870K0J4 0J420160529052509705/29/16 05:25:31  5-MIN K0J4 291025Z AUTO 32003KT 10SM CLR 20/18 A3008 170 90 800 320/03 RMK AO2
63870K0J4 0J420160529053009705/29/16 05:30:31  5-MIN K0J4 291030Z AUTO 36003KT 10SM CLR 20/18 A3008 170 90 800 360/03 RMK AO2
63870K0J4 0J420160529053509705/29/16 05:35:31  5-MIN K0J4 291035Z AUTO 00000KT 10SM CLR 20/19 A3009 160 93 800 000/00 RMK AO2
63870K0J4 0J420160529054009705/29/16 05:40:31  5-MIN K0J4 291040Z AUTO 00000KT 10SM CLR 20/19 A3009 160 93 800 000/00 RMK AO2
63870K0J4 0J420160529054509705/29/16 05:45:31  5-MIN K0J4 291045Z AUTO 00000KT 10SM CLR 21/19 A3009 160 90 900 000/00 RMK AO2
63870K0J4 0J420160529055009705/29/16 05:50:31  5-MIN K0J4 291050Z AUTO 00000KT 10SM CLR 21/19 A3009 160 90 900 000/00 RMK AO2
63870K0J4 0J420160529055511405/29/16 05:55:31  5-MIN K0J4 291055Z AUTO 00000KT 10SM CLR 21/19 A3009 160 90 900 000/00 RMK AO2 SLP186 T02060189
63870K0J4 0J420160529060009705/29/16 06:00:31  5-MIN K0J4 291100Z AUTO 00000KT 10SM CLR 21/19 A3009 160 90 900 000/00 RMK AO2
63870K0J4 0J420160529060509705/29/16 06:05:31  5-MIN K0J4 291105Z AUTO 00000KT 10SM CLR 21/19 A3009 160 90 900 000/00 RMK AO2
63870K0J4 0J420160529061009705/29/16 06:10:31  5-MIN K0J4 291110Z AUTO 00000KT 10SM CLR 21/19 A3010 150 90 900 000/00 RMK AO2
63870K0J4 0J420160529061509705/29/16 06:15:31  5-MIN K0J4 291115Z AUTO 00000KT 10SM CLR 21/19 A3010 150 87 900 000/00 RMK AO2
63870K0J4 0J420160529062009705/29/16 06:20:31  5-MIN K0J4 291120Z AUTO 00000KT 10SM CLR 21/19 A3010 150 87 900 000/00 RMK AO2
63870K0J4 0J420160529062509705/29/16 06:25:31  5-MIN K0J4 291125Z AUTO 33003KT 10SM CLR 21/19 A3010 150 87 900 330/03 RMK AO2
63870K0J4 0J420160529063009705/29/16 06:30:31  5-MIN K0J4 291130Z AUTO 00000KT 10SM CLR 21/19 A3010 150 90 900 000/00 RMK AO2
63870K0J4 0J420160529063509805/29/16 06:35:31  5-MIN K0J4 291135Z AUTO 33003KT 10SM CLR 22/19 A3010 150 87 1000 330/03 RMK AO2
63870K0J4 0J420160529064009805/29/16 06:40:31  5-MIN K0J4 291140Z AUTO 00000KT 10SM CLR 22/19 A3011 150 87 1000 000/00 RMK AO2
63870K0J4 0J420160529064509805/29/16 06:45:31  5-MIN K0J4 291145Z AUTO 00000KT 10SM CLR 22/19 A3011 140 84 1100 000/00 RMK AO2
63870K0J4 0J420160529065009805/29/16 06:50:31  5-MIN K0J4 291150Z AUTO 01004KT 10SM CLR 22/19 A3011 140 84 1100 010/04 RMK AO2
63870K0J4 0J420160529065513305/29/16 06:55:31  5-MIN K0J4 291155Z AUTO 33003KT 10SM CLR 22/19 A3011 140 84 1100 330/03 RMK AO2 SLP192 T02220194 10222 20200 55004
63870K0J4 0J420160529070009805/29/16 07:00:31  5-MIN K0J4 291200Z AUTO 31003KT 10SM CLR 22/19 A3011 140 84 1100 310/03 RMK AO2
63870K0J4 0J420160529070509805/29/16 07:05:31  5-MIN K0J4 291205Z AUTO 00000KT 10SM CLR 22/19 A3011 140 87 1000 000/00 RMK AO2
63870K0J4 0J420160529071009805/29/16 07:10:31  5-MIN K0J4 291210Z AUTO 00000KT 10SM CLR 22/19 A3011 140 87 1000 000/00 RMK AO2
63870K0J4 0J420160529071509805/29/16 07:15:31  5-MIN K0J4 291215Z AUTO 00000KT 10SM CLR 22/19 A3012 130 84 1000 000/00 RMK AO2
63870K0J4 0J420160529072009805/29/16 07:20:31  5-MIN K0J4 291220Z AUTO 00000KT 10SM CLR 22/19 A3012 130 87 1000 000/00 RMK AO2
63870K0J4 0J420160529072509805/29/16 07:25:31  5-MIN K0J4 291225Z AUTO 00000KT 10SM CLR 22/19 A3012 130 87 1000 000/00 RMK AO2
63870K0J4 0J420160529073009805/29/16 07:30:31  5-MIN K0J4 291230Z AUTO 00000KT 10SM CLR 22/19 A3012 130 87 1000 000/00 RMK AO2
63870K0J4 0J420160529073509805/29/16 07:35:31  5-MIN K0J4 291235Z AUTO 00000KT 10SM CLR 22/19 A3012 130 87 1000 000/00 RMK AO2
63870K0J4 0J420160529074009805/29/16 07:40:31  5-MIN K0J4 291240Z AUTO 00000KT 10SM CLR 22/19 A3012 130 84 1000 000/00 RMK AO2
63870K0J4 0J420160529074509805/29/16 07:45:31  5-MIN K0J4 291245Z AUTO VRB03KT 10SM CLR 23/19 A3012 130 81 1100 VRB/03 RMK AO2
63870K0J4 0J420160529075009805/29/16 07:50:31  5-MIN K0J4 291250Z AUTO 01004KT 10SM CLR 23/19 A3012 130 78 1200 010/04 RMK AO2
63870K0J4 0J420160529075511505/29/16 07:55:31  5-MIN K0J4 291255Z AUTO 36003KT 10SM CLR 24/19 A3012 130 76 1200 360/03 RMK AO2 SLP196 T02390194
63870K0J4 0J420160529080009805/29/16 08:00:31  5-MIN K0J4 291300Z AUTO 01004KT 10SM CLR 24/19 A3013 130 76 1200 010/04 RMK AO2
63870K0J4 0J420160529080509805/29/16 08:05:31  5-MIN K0J4 291305Z AUTO 36003KT 10SM CLR 24/19 A3013 130 76 1200 360/03 RMK AO2
63870K0J4 0J420160529081009805/29/16 08:10:31  5-MIN K0J4 291310Z AUTO 36004KT 10SM CLR 24/20 A3012 130 78 1200 360/04 RMK AO2
63870K0J4 0J420160529081509805/29/16 08:15:31  5-MIN K0J4 291315Z AUTO VRB03KT 10SM CLR 24/20 A3013 130 76 1300 VRB/03 RMK AO2
63870K0J4 0J420160529082009805/29/16 08:20:31  5-MIN K0J4 291320Z AUTO 00000KT 10SM CLR 25/20 A3013 120 73 1400 000/00 RMK AO2
63870K0J4 0J420160529082509805/29/16 08:25:31  5-MIN K0J4 291325Z AUTO 01003KT 10SM CLR 25/20 A3013 120 73 1400 010/03 RMK AO2
63870K0J4 0J420160529083009805/29/16 08:30:31  5-MIN K0J4 291330Z AUTO 02003KT 10SM CLR 26/20 A3013 130 71 1400 020/03 RMK AO2
63870K0J4 0J420160529083509805/29/16 08:35:31  5-MIN K0J4 291335Z AUTO VRB03KT 10SM CLR 26/20 A3013 130 71 1400 VRB/03 RMK AO2
63870K0J4 0J420160529084009805/29/16 08:40:31  5-MIN K0J4 291340Z AUTO 00000KT 10SM CLR 26/20 A3012 130 68 1500 000/00 RMK AO2
63870K0J4 0J420160529084509805/29/16 08:45:31  5-MIN K0J4 291345Z AUTO 00000KT 10SM CLR 26/20 A3012 130 68 1500 000/00 RMK AO2
63870K0J4 0J420160529085009805/29/16 08:50:31  5-MIN K0J4 291350Z AUTO VRB03KT 10SM CLR 27/20 A3012 130 66 1500 VRB/03 RMK AO2
63870K0J4 0J420160529085511505/29/16 08:55:31  5-MIN K0J4 291355Z AUTO 02003KT 10SM CLR 27/20 A3012 130 66 1600 020/03 RMK AO2 SLP195 T02670200
63870K0J4 0J420160529090009805/29/16 09:00:31  5-MIN K0J4 291400Z AUTO 04005KT 10SM CLR 27/20 A3012 130 66 1600 040/05 RMK AO2
63870K0J4 0J420160529090509805/29/16 09:05:31  5-MIN K0J4 291405Z AUTO 04005KT 10SM CLR 27/19 A3012 130 64 1600 040/05 RMK AO2
63870K0J4 0J420160529091009805/29/16 09:10:31  5-MIN K0J4 291410Z AUTO 02004KT 10SM CLR 27/20 A3012 130 64 1600 020/04 RMK AO2
63870K0J4 0J420160529091509805/29/16 09:15:31  5-MIN K0J4 291415Z AUTO 04005KT 10SM CLR 27/20 A3012 130 64 1600 040/05 RMK AO2
63870K0J4 0J420160529092009805/29/16 09:20:31  5-MIN K0J4 291420Z AUTO 04005KT 10SM CLR 27/20 A3012 130 64 1600 040/05 RMK AO2
63870K0J4 0J420160529092509805/29/16 09:25:31  5-MIN K0J4 291425Z AUTO 04004KT 10SM CLR 28/20 A3012 130 62 1700 040/04 RMK AO2
63870K0J4 0J420160529093009805/29/16 09:30:31  5-MIN K0J4 291430Z AUTO 08004KT 10SM CLR 28/20 A3012 130 62 1700 080/04 RMK AO2
63870K0J4 0J420160529093509805/29/16 09:35:31  5-MIN K0J4 291435Z AUTO 05003KT 10SM CLR 28/21 A3012 130 64 1700 050/03 RMK AO2
63870K0J4 0J420160529094009805/29/16 09:40:31  5-MIN K0J4 291440Z AUTO 00000KT 10SM CLR 28/20 A3012 130 62 1700 000/00 RMK AO2
63870K0J4 0J420160529094509805/29/16 09:45:31  5-MIN K0J4 291445Z AUTO 00000KT 10SM CLR 28/20 A3012 130 60 1700 000/00 RMK AO2
63870K0J4 0J420160529095009805/29/16 09:50:31  5-MIN K0J4 291450Z AUTO 00000KT 10SM CLR 28/21 A3012 130 62 1700 000/00 RMK AO2
63870K0J4 0J420160529095512105/29/16 09:55:31  5-MIN K0J4 291455Z AUTO 04003KT 10SM CLR 29/20 A3012 130 58 1800 040/03 RMK AO2 SLP195 T02890200 53013
63870K0J4 0J420160529100009805/29/16 10:00:31  5-MIN K0J4 291500Z AUTO 00000KT 10SM CLR 29/19 A3012 130 56 1800 000/00 RMK AO2
63870K0J4 0J420160529100509805/29/16 10:05:31  5-MIN K0J4 291505Z AUTO VRB04KT 10SM CLR 29/20 A3012 130 58 1800 VRB/04 RMK AO2
63870K0J4 0J420160529101009805/29/16 10:10:31  5-MIN K0J4 291510Z AUTO 04005KT 10SM CLR 29/18 A3012 130 50 1900 040/05 RMK AO2
63870K0J4 0J420160529101509805/29/16 10:15:31  5-MIN K0J4 291515Z AUTO 07003KT 10SM CLR 29/19 A3012 130 52 1900 070/03 RMK AO2
63870K0J4 0J420160529102009805/29/16 10:20:31  5-MIN K0J4 291520Z AUTO VRB05KT 10SM CLR 29/19 A3012 130 52 1900 VRB/05 RMK AO2
63870K0J4 0J420160529102509805/29/16 10:25:31  5-MIN K0J4 291525Z AUTO 03004KT 10SM CLR 29/19 A3012 130 52 1900 030/04 RMK AO2
63870K0J4 0J420160529103009805/29/16 10:30:31  5-MIN K0J4 291530Z AUTO VRB03KT 10SM CLR 30/19 A3012 130 51 1900 VRB/03 RMK AO2
63870K0J4 0J420160529103509805/29/16 10:35:31  5-MIN K0J4 291535Z AUTO VRB04KT 10SM CLR 29/19 A3012 130 52 1900 VRB/04 RMK AO2
63870K0J4 0J420160529104009805/29/16 10:40:31  5-MIN K0J4 291540Z AUTO 07003KT 10SM CLR 30/19 A3012 130 52 1900 070/03 RMK AO2
63870K0J4 0J420160529104509805/29/16 10:45:31  5-MIN K0J4 291545Z AUTO 00000KT 10SM CLR 30/18 A3012 130 49 1900 000/00 RMK AO2
63870K0J4 0J420160529105009805/29/16 10:50:31  5-MIN K0J4 291550Z AUTO 03003KT 10SM CLR 31/18 A3012 130 47 2000 030/03 RMK AO2
63870K0J4 0J420160529105511505/29/16 10:55:31  5-MIN K0J4 291555Z AUTO VRB04KT 10SM CLR 31/19 A3012 130 49 2000 VRB/04 RMK AO2 SLP195 T03060189
63870K0J4 0J420160529110009805/29/16 11:00:31  5-MIN K0J4 291600Z AUTO 36003KT 10SM CLR 31/18 A3012 130 47 2000 360/03 RMK AO2
63870K0J4 0J420160529110509805/29/16 11:05:31  5-MIN K0J4 291605Z AUTO 00000KT 10SM CLR 30/18 A3012 130 49 1900 000/00 RMK AO2
63870K0J4 0J420160529111010105/29/16 11:10:31  5-MIN K0J4 291610Z AUTO VRB04KT 10SM FEW044 30/18 A3012 130 49 1900 VRB/04 RMK AO2
63870K0J4 0J420160529111510105/29/16 11:15:31  5-MIN K0J4 291615Z AUTO 02004KT 10SM FEW044 31/18 A3012 130 47 2000 020/04 RMK AO2
63870K0J4 0J420160529112010105/29/16 11:20:31  5-MIN K0J4 291620Z AUTO 00000KT 10SM FEW046 31/18 A3012 130 46 2000 000/00 RMK AO2
63870K0J4 0J420160529112510105/29/16 11:25:31  5-MIN K0J4 291625Z AUTO VRB03KT 10SM SCT046 31/18 A3012 130 46 2000 VRB/03 RMK AO2
63870K0J4 0J420160529113010105/29/16 11:30:31  5-MIN K0J4 291630Z AUTO 02004KT 10SM SCT046 30/18 A3012 130 47 1900 020/04 RMK AO2
63870K0J4 0J420160529113510105/29/16 11:35:31  5-MIN K0J4 291635Z AUTO VRB03KT 10SM SCT046 30/17 A3012 130 44 1900 VRB/03 RMK AO2
63870K0J4 0J420160529114010105/29/16 11:40:31  5-MIN K0J4 291640Z AUTO 00000KT 10SM FEW046 31/17 A3012 140 44 2000 000/00 RMK AO2
63870K0J4 0J420160529114510805/29/16 11:45:31  5-MIN K0J4 291645Z AUTO 05007KT 10SM FEW046 SCT085 31/18 A3012 140 44 2100 050/07 RMK AO2
63870K0J4 0J420160529115010805/29/16 11:50:31  5-MIN K0J4 291650Z AUTO VRB03KT 10SM SCT048 SCT080 31/18 A3012 140 46 2000 VRB/03 RMK AO2
63870K0J4 0J420160529115512505/29/16 11:55:31  5-MIN K0J4 291655Z AUTO 01003KT 10SM SCT048 SCT080 30/18 A3012 140 47 1900 010/03 RMK AO2 SLP193 T03000178
63870K0J4 0J420160529120010105/29/16 12:00:31  5-MIN K0J4 291700Z AUTO 04004KT 10SM SCT048 31/18 A3011 140 46 2000 040/04 RMK AO2
63870K0J4 0J420160529120510105/29/16 12:05:31  5-MIN K0J4 291705Z AUTO 05003KT 10SM FEW048 32/18 A3011 140 44 2100 050/03 RMK AO2
63870K0J4 0J420160529121010105/29/16 12:10:31  5-MIN K0J4 291710Z AUTO VRB04KT 10SM SCT050 31/17 A3011 140 42 2100 VRB/04 RMK AO2
63870K0J4 0J420160529121510105/29/16 12:15:31  5-MIN K0J4 291715Z AUTO VRB05KT 10SM BKN050 31/18 A3011 140 46 2000 VRB/05 RMK AO2
63870K0J4 0J420160529122010105/29/16 12:20:31  5-MIN K0J4 291720Z AUTO 02004KT 10SM SCT050 31/18 A3011 140 46 2100 020/04 RMK AO2
63870K0J4 0J420160529122510105/29/16 12:25:31  5-MIN K0J4 291725Z AUTO 00000KT 10SM FEW050 31/18 A3011 140 44 2100 000/00 RMK AO2
63870K0J4 0J420160529123010105/29/16 12:30:31  5-MIN K0J4 291730Z AUTO 00000KT 10SM SCT050 31/18 A3011 140 44 2100 000/00 RMK AO2
63870K0J4 0J420160529123510105/29/16 12:35:31  5-MIN K0J4 291735Z AUTO 08004KT 10SM BKN050 31/17 A3011 140 42 2000 080/04 RMK AO2
63870K0J4 0J420160529124010105/29/16 12:40:31  5-MIN K0J4 291740Z AUTO 09004KT 10SM BKN055 30/17 A3010 150 45 1900 090/04 RMK AO2
63870K0J4 0J420160529124510105/29/16 12:45:31  5-MIN K0J4 291745Z AUTO 35005KT 10SM SCT055 32/18 A3010 150 43 2100 350/05 RMK AO2
63870K0J4 0J420160529125010105/29/16 12:50:31  5-MIN K0J4 291750Z AUTO 35005KT 10SM FEW055 32/17 A3010 150 41 2100 350/05 RMK AO2
63870K0J4 0J420160529125513605/29/16 12:55:31  5-MIN K0J4 291755Z AUTO 35006KT 10SM FEW055 32/17 A3010 150 40 2100 350/06 RMK AO2 SLP188 T03170167 10317 20217 51003
63870K0J4 0J420160529130010105/29/16 13:00:31  5-MIN K0J4 291800Z AUTO 01005KT 10SM FEW055 32/16 A3010 150 38 2100 010/05 RMK AO2
63870K0J4 0J420160529130510105/29/16 13:05:31  5-MIN K0J4 291805Z AUTO 36006KT 10SM FEW055 32/17 A3010 150 40 2100 360/06 RMK AO2
63870K0J4 0J420160529131010105/29/16 13:10:31  5-MIN K0J4 291810Z AUTO 31004KT 10SM SCT080 31/17 A3010 150 42 2000 310/04 RMK AO2
63870K0J4 0J420160529131510105/29/16 13:15:31  5-MIN K0J4 291815Z AUTO VRB05KT 10SM SCT080 31/17 A3009 160 44 2000 VRB/05 RMK AO2
63870K0J4 0J420160529132010105/29/16 13:20:31  5-MIN K0J4 291820Z AUTO 32003KT 10SM SCT085 32/17 A3009 160 41 2100 320/03 RMK AO2
63870K0J4 0J420160529132510105/29/16 13:25:31  5-MIN K0J4 291825Z AUTO VRB04KT 10SM SCT080 32/17 A3009 160 40 2100 VRB/04 RMK AO2
63870K0J4 0J420160529133010805/29/16 13:30:31  5-MIN K0J4 291830Z AUTO VRB04KT 10SM FEW055 BKN080 31/17 A3009 160 42 2000 VRB/04 RMK AO2
63870K0J4 0J420160529133510805/29/16 13:35:31  5-MIN K0J4 291835Z AUTO VRB03KT 10SM SCT055 BKN080 31/17 A3009 160 44 2000 VRB/03 RMK AO2
63870K0J4 0J420160529134010805/29/16 13:40:31  5-MIN K0J4 291840Z AUTO VRB03KT 10SM SCT055 BKN085 31/18 A3009 160 44 2100 VRB/03 RMK AO2
63870K0J4 0J420160529134510805/29/16 13:45:31  5-MIN K0J4 291845Z AUTO VRB04KT 10SM SCT055 SCT080 32/17 A3008 160 41 2100 VRB/04 RMK AO2
63870K0J4 0J420160529135010805/29/16 13:50:31  5-MIN K0J4 291850Z AUTO VRB05KT 10SM SCT055 SCT080 32/17 A3008 170 41 2100 VRB/05 RMK AO2
63870K0J4 0J420160529135511805/29/16 13:55:31  5-MIN K0J4 291855Z AUTO VRB06KT 10SM SCT060 32/18 A3008 170 41 2200 VRB/06 RMK AO2 SLP181 T03220178
63870K0J4 0J420160529140011705/29/16 14:00:31  5-MIN K0J4 291900Z AUTO 35007KT 320V030 10SM BKN060 32/17 A3008 170 40 2200 350/07 320V030 RMK AO2
63870K0J4 0J420160529140510105/29/16 14:05:31  5-MIN K0J4 291905Z AUTO 01005KT 10SM BKN060 31/17 A3008 170 41 2100 010/05 RMK AO2
63870K0J4 0J420160529141010105/29/16 14:10:31  5-MIN K0J4 291910Z AUTO 02003KT 10SM BKN060 31/17 A3008 170 42 2000 020/03 RMK AO2
63870K0J4 0J420160529141510805/29/16 14:15:31  5-MIN K0J4 291915Z AUTO VRB03KT 10SM BKN060 BKN070 31/17 A3008 170 44 2000 VRB/03 RMK AO2
63870K0J4 0J420160529142010105/29/16 14:20:31  5-MIN K0J4 291920Z AUTO VRB03KT 10SM BKN060 31/18 A3008 170 46 2000 VRB/03 RMK AO2
63870K0J4 0J420160529142510105/29/16 14:25:31  5-MIN K0J4 291925Z AUTO 32004KT 10SM SCT060 30/18 A3007 170 47 2000 320/04 RMK AO2
63870K0J4 0J420160529143010805/29/16 14:30:31  5-MIN K0J4 291930Z AUTO 00000KT 10SM SCT060 SCT080 31/18 A3007 180 46 2100 000/00 RMK AO2
63870K0J4 0J420160529143510305/29/16 14:35:31  5-MIN K0J4 291935Z AUTO 00000KT 10SM SCT065 32/17 A3007 180 41 2200 000/00 RMK AO2 $
63870K0J4 0J420160529144011005/29/16 14:40:31  5-MIN K0J4 291940Z AUTO VRB03KT 10SM FEW055 SCT070 32/18 A3007 180 43 2200 VRB/03 RMK AO2 $
63870K0J4 0J420160529144511005/29/16 14:45:31  5-MIN K0J4 291945Z AUTO VRB04KT 10SM SCT055 BKN070 31/18 A3007 180 44 2100 VRB/04 RMK AO2 $
63870K0J4 0J420160529145010305/29/16 14:50:31  5-MIN K0J4 291950Z AUTO 00000KT 10SM BKN055 31/17 A3007 180 44 2000 000/00 RMK AO2 $
63870K0J4 0J420160529145512705/29/16 14:55:31  5-MIN K0J4 291955Z AUTO VRB04KT 10SM BKN055 BKN090 31/18 A3007 180 46 2000 VRB/04 RMK AO2 SLP177 T03060178 $
63870K0J4 0J420160529150011005/29/16 15:00:31  5-MIN K0J4 292000Z AUTO 07004KT 10SM BKN055 BKN090 32/18 A3007 180 44 2200 070/04 RMK AO2 $
63870K0J4 0J420160529150510305/29/16 15:05:31  5-MIN K0J4 292005Z AUTO 07004KT 10SM SCT055 32/18 A3006 190 44 2200 070/04 RMK AO2 $
63870K0J4 0J420160529151010305/29/16 15:10:31  5-MIN K0J4 292010Z AUTO 00000KT 10SM SCT055 32/18 A3006 190 43 2200 000/00 RMK AO2 $
63870K0J4 0J420160529151510305/29/16 15:15:31  5-MIN K0J4 292015Z AUTO 00000KT 10SM SCT060 31/17 A3006 190 42 2100 000/00 RMK AO2 $
63870K0J4 0J420160529152011005/29/16 15:20:31  5-MIN K0J4 292020Z AUTO 00000KT 10SM SCT060 BKN070 31/18 A3006 190 44 2100 000/00 RMK AO2 $
63870K0J4 0J420160529152510305/29/16 15:25:31  5-MIN K0J4 292025Z AUTO 11003KT 10SM SCT060 31/18 A3006 190 44 2100 110/03 RMK AO2 $
63870K0J4 0J420160529153010305/29/16 15:30:31  5-MIN K0J4 292030Z AUTO 00000KT 10SM SCT060 31/18 A3005 190 46 2100 000/00 RMK AO2 $
63870K0J4 0J420160529153510305/29/16 15:35:31  5-MIN K0J4 292035Z AUTO VRB03KT 10SM SCT060 32/18 A3005 200 44 2200 VRB/03 RMK AO2 $
63870K0J4 0J420160529154010305/29/16 15:40:31  5-MIN K0J4 292040Z AUTO 07007KT 10SM BKN060 32/18 A3005 200 43 2200 070/07 RMK AO2 $
63870K0J4 0J420160529154510305/29/16 15:45:31  5-MIN K0J4 292045Z AUTO 05008KT 10SM BKN060 32/18 A3005 200 43 2200 050/08 RMK AO2 $
63870K0J4 0J420160529155010305/29/16 15:50:31  5-MIN K0J4 292050Z AUTO 07006KT 10SM BKN060 31/18 A3005 200 44 2100 070/06 RMK AO2 $
63870K0J4 0J420160529155512605/29/16 15:55:31  5-MIN K0J4 292055Z AUTO 04005KT 10SM BKN060 31/18 A3005 200 44 2100 040/05 RMK AO2 SLP171 T03110178 58007 $
63870K0J4 0J420160529160010305/29/16 16:00:31  5-MIN K0J4 292100Z AUTO 05006KT 10SM BKN060 32/18 A3005 200 44 2200 050/06 RMK AO2 $
63870K0J4 0J420160529160510305/29/16 16:05:31  5-MIN K0J4 292105Z AUTO 05007KT 10SM BKN060 32/18 A3005 200 44 2200 050/07 RMK AO2 $
63870K0J4 0J420160529161010305/29/16 16:10:31  5-MIN K0J4 292110Z AUTO 04008KT 10SM SCT060 32/18 A3004 200 43 2200 040/08 RMK AO2 $
63870K0J4 0J420160529161510305/29/16 16:15:31  5-MIN K0J4 292115Z AUTO 05005KT 10SM SCT060 31/18 A3004 200 44 2100 050/05 RMK AO2 $
63870K0J4 0J420160529162010305/29/16 16:20:31  5-MIN K0J4 292120Z AUTO 03004KT 10SM FEW060 31/18 A3004 210 44 2100 030/04 RMK AO2 $
63870K0J4 0J420160529162510005/29/16 16:25:31  5-MIN K0J4 292125Z AUTO VRB03KT 10SM CLR 32/18 A3004 210 41 2300 VRB/03 RMK AO2 $
63870K0J4 0J420160529163010005/29/16 16:30:31  5-MIN K0J4 292130Z AUTO VRB05KT 10SM CLR 32/18 A3004 210 41 2300 VRB/05 RMK AO2 $
63870K0J4 0J420160529163510005/29/16 16:35:31  5-MIN K0J4 292135Z AUTO 06007KT 10SM CLR 31/18 A3004 210 44 2100 060/07 RMK AO2 $
63870K0J4 0J420160529164010005/29/16 16:40:31  5-MIN K0J4 292140Z AUTO 07005KT 10SM CLR 32/18 A3004 210 44 2200 070/05 RMK AO2 $
63870K0J4 0J420160529164510005/29/16 16:45:31  5-MIN K0J4 292145Z AUTO 07006KT 10SM CLR 31/18 A3004 210 44 2100 070/06 RMK AO2 $
63870K0J4 0J420160529165010005/29/16 16:50:31  5-MIN K0J4 292150Z AUTO 09005KT 10SM CLR 31/18 A3004 210 46 2100 090/05 RMK AO2 $
63870K0J4 0J420160529165512005/29/16 16:55:31  5-MIN K0J4 292155Z AUTO 09004KT 10SM FEW065 31/18 A3004 210 44 2100 090/04 RMK AO2 SLP167 T03110178 $
63870K0J4 0J420160529170010305/29/16 17:00:31  5-MIN K0J4 292200Z AUTO 07006KT 10SM FEW060 31/18 A3004 210 47 2100 070/06 RMK AO2 $
63870K0J4 0J420160529170510905/29/16 17:05:31  5-MIN K0J4 292205Z AUTO 06012G18KT 10SM SCT060 30/18 A3004 200 49 2000 060/12G18 RMK AO2 $
63870K0J4 0J420160529171012405/29/16 17:10:31  5-MIN K0J4 292210Z AUTO 06013G22KT 9SM -RA BKN055 29/19 A3005 200 54 1900 060/13G22 RMK AO2 RAB10 P0001 $
63870K0J4 0J420160529171515305/29/16 17:15:31  5-MIN K0J4 292215Z AUTO 06019G29KT 1 3/4SM +RA FEW031 BKN055 26/19 A3005 190 68 1500 060/19G29 RMK AO2 PK WND 06029/2211 RAB10 P0010 $
63870K0J4 0J420160529172015605/29/16 17:20:31  5-MIN K0J4 292220Z AUTO 14009G29KT 1SM +RA FEW032 BKN055 OVC100 25/18 A3004 200 64 1400 140/09G29 RMK AO2 PK WND 06029/2211 RAB10 P0016 $
63870K0J4 0J420160529172515405/29/16 17:25:31  5-MIN K0J4 292225Z AUTO 12006KT 2 1/2SM -RA FEW026 BKN055 OVC100 25/18 A3004 200 66 1400 120/06 RMK AO2 PK WND 06029/2211 RAB10 P0016 $
63870K0J4 0J420160529173015005/29/16 17:30:31  5-MIN K0J4 292230Z AUTO 11004KT 10SM FEW022 SCT055 BKN070 24/20 A3005 200 76 1400 110/04 RMK AO2 PK WND 06029/2211 RAB10E29 P0016 $
63870K0J4 0J420160529173515005/29/16 17:35:31  5-MIN K0J4 292235Z AUTO 10004KT 10SM FEW027 SCT055 BKN100 24/21 A3004 200 78 1400 100/04 RMK AO2 PK WND 06029/2211 RAB10E29 P0016 $
63870K0J4 0J420160529174014305/29/16 17:40:31  5-MIN K0J4 292240Z AUTO 13003KT 10SM FEW027 SCT100 24/21 A3004 200 78 1400 130/03 RMK AO2 PK WND 06029/2211 RAB10E29 P0016 $
63870K0J4 0J420160529174513605/29/16 17:45:31  5-MIN K0J4 292245Z AUTO 00000KT 10SM FEW100 24/21 A3004 200 78 1400 000/00 RMK AO2 PK WND 06029/2211 RAB10E29 P0016 $
63870K0J4 0J420160529175013605/29/16 17:50:31  5-MIN K0J4 292250Z AUTO 00000KT 10SM FEW100 25/21 A3004 210 79 1500 000/00 RMK AO2 PK WND 06029/2211 RAB10E29 P0016 $
63870K0J4 0J420160529175515005/29/16 17:55:31  5-MIN K0J4 292255Z AUTO 00000KT 10SM CLR 25/21 A3004 210 79 1500 000/00 RMK AO2 PK WND 06029/2211 RAB10E29 SLP168 P0016 T02500211 $
63870K0J4 0J420160529180010005/29/16 18:00:31  5-MIN K0J4 292300Z AUTO 00000KT 10SM CLR 25/22 A3004 210 84 1500 000/00 RMK AO2 $
63870K0J4 0J420160529180510005/29/16 18:05:31  5-MIN K0J4 292305Z AUTO 00000KT 10SM CLR 26/22 A3003 210 79 1500 000/00 RMK AO2 $
63870K0J4 0J420160529181010005/29/16 18:10:31  5-MIN K0J4 292310Z AUTO 00000KT 10SM CLR 27/22 A3003 210 73 1600 000/00 RMK AO2 $
63870K0J4 0J420160529181510005/29/16 18:15:31  5-MIN K0J4 292315Z AUTO 00000KT 10SM CLR 27/22 A3003 210 76 1700 000/00 RMK AO2 $
63870K0J4 0J420160529182010005/29/16 18:20:31  5-MIN K0J4 292320Z AUTO 00000KT 10SM CLR 26/23 A3003 210 81 1600 000/00 RMK AO2 $
63870K0J4 0J420160529182510005/29/16 18:25:31  5-MIN K0J4 292325Z AUTO 00000KT 10SM CLR 26/23 A3003 220 81 1600 000/00 RMK AO2 $
63870K0J4 0J420160529183010005/29/16 18:30:31  5-MIN K0J4 292330Z AUTO 00000KT 10SM CLR 26/23 A3003 220 84 1500 000/00 RMK AO2 $
63870K0J4 0J420160529183510005/29/16 18:35:31  5-MIN K0J4 292335Z AUTO 00000KT 10SM CLR 26/22 A3003 220 81 1500 000/00 RMK AO2 $
63870K0J4 0J420160529184010005/29/16 18:40:31  5-MIN K0J4 292340Z AUTO 00000KT 10SM CLR 26/22 A3003 220 79 1600 000/00 RMK AO2 $
63870K0J4 0J420160529184510005/29/16 18:45:31  5-MIN K0J4 292345Z AUTO 00000KT 10SM CLR 27/22 A3002 220 76 1700 000/00 RMK AO2 $
63870K0J4 0J420160529185010005/29/16 18:50:31  5-MIN K0J4 292350Z AUTO 00000KT 10SM CLR 26/22 A3002 220 79 1600 000/00 RMK AO2 $
63870K0J4 0J420160529185514105/29/16 18:55:31  5-MIN K0J4 292355Z AUTO 00000KT 10SM CLR 26/23 A3002 220 81 1600 000/00 RMK AO2 SLP163 60016 T02610228 10322 20244 56018 $
63870K0J4 0J420160529190010005/29/16 19:00:31  5-MIN K0J4 300000Z AUTO 00000KT 10SM CLR 25/23 A3003 220 87 1500 000/00 RMK AO2 $
63870K0J4 0J420160529190510005/29/16 19:05:31  5-MIN K0J4 300005Z AUTO 00000KT 10SM CLR 25/23 A3003 220 87 1500 000/00 RMK AO2 $
63870K0J4 0J420160529191010005/29/16 19:10:31  5-MIN K0J4 300010Z AUTO 20003KT 10SM CLR 25/23 A3003 210 90 1500 200/03 RMK AO2 $
63870K0J4 0J420160529191510005/29/16 19:15:31  5-MIN K0J4 300015Z AUTO 20005KT 10SM CLR 26/23 A3003 210 87 1500 200/05 RMK AO2 $
63870K0J4 0J420160529192010005/29/16 19:20:31  5-MIN K0J4 300020Z AUTO 20004KT 10SM CLR 25/23 A3003 210 87 1500 200/04 RMK AO2 $
63870K0J4 0J420160529192510005/29/16 19:25:31  5-MIN K0J4 300025Z AUTO 21003KT 10SM CLR 25/23 A3003 210 87 1500 210/03 RMK AO2 $
63870K0J4 0J420160529193010005/29/16 19:30:31  5-MIN K0J4 300030Z AUTO 24003KT 10SM CLR 25/22 A3004 210 84 1500 240/03 RMK AO2 $
63870K0J4 0J420160529193510005/29/16 19:35:31  5-MIN K0J4 300035Z AUTO 23003KT 10SM CLR 25/21 A3004 210 79 1500 230/03 RMK AO2 $
63870K0J4 0J420160529194010005/29/16 19:40:31  5-MIN K0J4 300040Z AUTO 23003KT 10SM CLR 24/21 A3004 210 81 1400 230/03 RMK AO2 $
63870K0J4 0J420160529194510005/29/16 19:45:31  5-MIN K0J4 300045Z AUTO 00000KT 10SM CLR 24/21 A3004 210 78 1400 000/00 RMK AO2 $
63870K0J4 0J420160529195010005/29/16 19:50:31  5-MIN K0J4 300050Z AUTO 00000KT 10SM CLR 24/22 A3004 210 84 1400 000/00 RMK AO2 $
63870K0J4 0J420160529195511705/29/16 19:55:31  5-MIN K0J4 300055Z AUTO 00000KT 10SM CLR 23/22 A3004 210 90 1300 000/00 RMK AO2 SLP166 T02330217 $
63870K0J4 0J420160529200010005/29/16 20:00:31  5-MIN K0J4 300100Z AUTO 00000KT 10SM CLR 23/21 A3003 210 87 1300 000/00 RMK AO2 $
63870K0J4 0J420160529200510005/29/16 20:05:31  5-MIN K0J4 300105Z AUTO 23003KT 10SM CLR 23/21 A3003 210 87 1300 230/03 RMK AO2 $
63870K0J4 0J420160529201010005/29/16 20:10:31  5-MIN K0J4 300110Z AUTO 00000KT 10SM CLR 24/21 A3003 210 81 1300 000/00 RMK AO2 $
63870K0J4 0J420160529201510005/29/16 20:15:31  5-MIN K0J4 300115Z AUTO 00000KT 10SM CLR 23/21 A3004 210 84 1300 000/00 RMK AO2 $
63870K0J4 0J420160529202010005/29/16 20:20:31  5-MIN K0J4 300120Z AUTO 00000KT 10SM CLR 23/21 A3004 210 84 1300 000/00 RMK AO2 $
63870K0J4 0J420160529202510005/29/16 20:25:31  5-MIN K0J4 300125Z AUTO 00000KT 10SM CLR 23/21 A3004 210 90 1200 000/00 RMK AO2 $
63870K0J4 0J420160529203010005/29/16 20:30:31  5-MIN K0J4 300130Z AUTO 23003KT 10SM CLR 23/21 A3004 210 87 1200 230/03 RMK AO2 $
63870K0J4 0J420160529203510005/29/16 20:35:31  5-MIN K0J4 300135Z AUTO 00000KT 10SM CLR 23/20 A3004 210 84 1200 000/00 RMK AO2 $
63870K0J4 0J420160529204010005/29/16 20:40:31  5-MIN K0J4 300140Z AUTO 00000KT 10SM CLR 23/21 A3004 200 87 1200 000/00 RMK AO2 $
63870K0J4 0J420160529204510005/29/16 20:45:31  5-MIN K0J4 300145Z AUTO 00000KT 10SM CLR 23/21 A3004 200 87 1200 000/00 RMK AO2 $
63870K0J4 0J420160529205010005/29/16 20:50:31  5-MIN K0J4 300150Z AUTO 00000KT 10SM CLR 22/21 A3004 200 90 1100 000/00 RMK AO2 $
63870K0J4 0J420160529205511705/29/16 20:55:31  5-MIN K0J4 300155Z AUTO 00000KT 10SM CLR 22/21 A3004 200 90 1100 000/00 RMK AO2 SLP168 T02220206 $
63870K0J4 0J420160529210010005/29/16 21:00:31  5-MIN K0J4 300200Z AUTO 00000KT 10SM CLR 22/21 A3004 200 90 1100 000/00 RMK AO2 $
63870K0J4 0J420160529210510005/29/16 21:05:31  5-MIN K0J4 300205Z AUTO 00000KT 10SM CLR 22/21 A3005 200 90 1100 000/00 RMK AO2 $
63870K0J4 0J420160529211010005/29/16 21:10:31  5-MIN K0J4 300210Z AUTO 00000KT 10SM CLR 22/21 A3005 200 90 1100 000/00 RMK AO2 $
63870K0J4 0J420160529211510005/29/16 21:15:31  5-MIN K0J4 300215Z AUTO 00000KT 10SM CLR 22/21 A3005 200 90 1100 000/00 RMK AO2 $
63870K0J4 0J420160529212010005/29/16 21:20:31  5-MIN K0J4 300220Z AUTO 00000KT 10SM CLR 22/21 A3005 200 90 1100 000/00 RMK AO2 $
63870K0J4 0J420160529212510005/29/16 21:25:31  5-MIN K0J4 300225Z AUTO 00000KT 10SM CLR 22/21 A3005 200 90 1100 000/00 RMK AO2 $
63870K0J4 0J420160529213010005/29/16 21:30:31  5-MIN K0J4 300230Z AUTO 00000KT 10SM CLR 22/21 A3005 190 93 1100 000/00 RMK AO2 $
63870K0J4 0J420160529213510005/29/16 21:35:31  5-MIN K0J4 300235Z AUTO 23003KT 10SM CLR 22/20 A3005 190 90 1100 230/03 RMK AO2 $
63870K0J4 0J420160529214010005/29/16 21:40:31  5-MIN K0J4 300240Z AUTO 00000KT 10SM CLR 22/20 A3006 190 90 1100 000/00 RMK AO2 $
63870K0J4 0J420160529214510005/29/16 21:45:31  5-MIN K0J4 300245Z AUTO 00000KT 10SM CLR 22/21 A3005 190 93 1100 000/00 RMK AO2 $
63870K0J4 0J420160529215010005/29/16 21:50:31  5-MIN K0J4 300250Z AUTO 00000KT 10SM CLR 22/20 A3006 190 90 1100 000/00 RMK AO2 $
63870K0J4 0J420160529215512305/29/16 21:55:31  5-MIN K0J4 300255Z AUTO 00000KT 10SM CLR 23/20 A3006 190 84 1200 000/00 RMK AO2 SLP173 T02280200 58007 $
63870K0J4 0J420160529220010005/29/16 22:00:31  5-MIN K0J4 300300Z AUTO 23003KT 10SM CLR 22/20 A3006 190 90 1100 230/03 RMK AO2 $
63870K0J4 0J420160529220510005/29/16 22:05:31  5-MIN K0J4 300305Z AUTO 00000KT 10SM CLR 22/20 A3006 190 90 1100 000/00 RMK AO2 $
63870K0J4 0J420160529221010005/29/16 22:10:31  5-MIN K0J4 300310Z AUTO 00000KT 10SM CLR 22/20 A3006 190 90 1100 000/00 RMK AO2 $
63870K0J4 0J420160529221510005/29/16 22:15:31  5-MIN K0J4 300315Z AUTO 00000KT 10SM CLR 22/20 A3006 190 90 1000 000/00 RMK AO2 $
63870K0J4 0J420160529222010005/29/16 22:20:31  5-MIN K0J4 300320Z AUTO 00000KT 10SM CLR 22/20 A3006 190 90 1000 000/00 RMK AO2 $
63870K0J4 0J420160529222510005/29/16 22:25:31  5-MIN K0J4 300325Z AUTO 00000KT 10SM CLR 21/19 A3006 190 90 1000 000/00 RMK AO2 $
63870K0J4 0J420160529223010005/29/16 22:30:31  5-MIN K0J4 300330Z AUTO 00000KT 10SM CLR 21/19 A3006 190 90 1000 000/00 RMK AO2 $
63870K0J4 0J420160529223510005/29/16 22:35:31  5-MIN K0J4 300335Z AUTO 00000KT 10SM CLR 22/20 A3006 190 90 1000 000/00 RMK AO2 $
63870K0J4 0J420160529224010005/29/16 22:40:31  5-MIN K0J4 300340Z AUTO 00000KT 10SM CLR 21/20 A3006 190 93 1000 000/00 RMK AO2 $
63870K0J4 0J420160529224510005/29/16 22:45:31  5-MIN K0J4 300345Z AUTO 00000KT 10SM CLR 21/19 A3006 190 90 1000 000/00 RMK AO2 $
63870K0J4 0J420160529225010005/29/16 22:50:31  5-MIN K0J4 300350Z AUTO 00000KT 10SM CLR 21/20 A3006 190 93 1000 000/00 RMK AO2 $
63870K0J4 0J420160529225511705/29/16 22:55:31  5-MIN K0J4 300355Z AUTO 00000KT 10SM CLR 21/19 A3006 190 90 1000 000/00 RMK AO2 SLP174 T02110194 $
63870K0J4 0J420160529230010005/29/16 23:00:31  5-MIN K0J4 300400Z AUTO 00000KT 10SM CLR 21/19 A3006 190 90 1000 000/00 RMK AO2 $
63870K0J4 0J420160529230510005/29/16 23:05:31  5-MIN K0J4 300405Z AUTO 00000KT 10SM CLR 22/20 A3006 190 90 1000 000/00 RMK AO2 $
63870K0J4 0J420160529231010005/29/16 23:10:31  5-MIN K0J4 300410Z AUTO 00000KT 10SM CLR 22/20 A3006 190 90 1000 000/00 RMK AO2 $
63870K0J4 0J420160529231510005/29/16 23:15:31  5-MIN K0J4 300415Z AUTO 00000KT 10SM CLR 21/19 A3006 190 90 1000 000/00 RMK AO2 $
63870K0J4 0J420160529232010005/29/16 23:20:31  5-MIN K0J4 300420Z AUTO 00000KT 10SM CLR 21/19 A3006 190 90 1000 000/00 RMK AO2 $
63870K0J4 0J420160529232510005/29/16 23:25:31  5-MIN K0J4 300425Z AUTO 00000KT 10SM CLR 21/19 A3006 190 90 1000 000/00 RMK AO2 $
63870K0J4 0J420160529233010005/29/16 23:30:31  5-MIN K0J4 300430Z AUTO 00000KT 10SM CLR 21/19 A3006 190 90 1000 000/00 RMK AO2 $
63870K0J4 0J420160529233510005/29/16 23:35:31  5-MIN K0J4 300435Z AUTO 00000KT 10SM CLR 21/19 A3006 190 90 1000 000/00 RMK AO2 $
63870K0J4 0J420160529234010005/29/16 23:40:31  5-MIN K0J4 300440Z AUTO 00000KT 10SM CLR 21/19 A3006 190 90 1000 000/00 RMK AO2 $
63870K0J4 0J420160529234510005/29/16 23:45:31  5-MIN K0J4 300445Z AUTO 00000KT 10SM CLR 21/19 A3006 190 90 1000 000/00 RMK AO2 $
63870K0J4 0J420160529235010005/29/16 23:50:31  5-MIN K0J4 300450Z AUTO 00000KT 10SM CLR 21/19 A3006 190 90 1000 000/00 RMK AO2 $
63870K0J4 0J420160529235512705/29/16 23:55:31  5-MIN K0J4 300455Z AUTO 00000KT 10SM CLR 21/19 A3006 190 90 1000 000/00 RMK AO2 SLP173 T02110194 403220200 $
63870K0J4 0J420160530000010005/30/16 00:00:31  5-MIN K0J4 300500Z AUTO 00000KT 10SM CLR 21/19 A3005 190 90 1000 000/00 RMK AO2 $
63870K0J4 0J420160530000510005/30/16 00:05:31  5-MIN K0J4 300505Z AUTO 00000KT 10SM CLR 21/19 A3006 190 90 1000 000/00 RMK AO2 $
63870K0J4 0J420160530001010005/30/16 00:10:31  5-MIN K0J4 300510Z AUTO 00000KT 10SM CLR 21/19 A3006 190 90 1000 000/00 RMK AO2 $
63870K0J4 0J420160530001510005/30/16 00:15:31  5-MIN K0J4 300515Z AUTO 00000KT 10SM CLR 21/19 A3006 190 90 1000 000/00 RMK AO2 $
63870K0J4 0J420160530002010005/30/16 00:20:31  5-MIN K0J4 300520Z AUTO 00000KT 10SM CLR 21/19 A3006 190 90 1000 000/00 RMK AO2 $
63870K0J4 0J420160530002510005/30/16 00:25:31  5-MIN K0J4 300525Z AUTO 00000KT 10SM CLR 21/19 A3005 190 90 1000 000/00 RMK AO2 $
63870K0J4 0J420160530003010005/30/16 00:30:31  5-MIN K0J4 300530Z AUTO 00000KT 10SM CLR 21/19 A3005 200 90 1000 000/00 RMK AO2 $
63870K0J4 0J420160530003510005/30/16 00:35:31  5-MIN K0J4 300535Z AUTO 00000KT 10SM CLR 21/19 A3005 200 90 1000 000/00 RMK AO2 $
63870K0J4 0J420160530004010005/30/16 00:40:31  5-MIN K0J4 300540Z AUTO 00000KT 10SM CLR 21/19 A3005 200 90 1000 000/00 RMK AO2 $
63870K0J4 0J420160530004510005/30/16 00:45:31  5-MIN K0J4 300545Z AUTO 00000KT 10SM CLR 21/19 A3005 200 90 1000 000/00 RMK AO2 $
63870K0J4 0J420160530005010005/30/16 00:50:31  5-MIN K0J4 300550Z AUTO 00000KT 10SM CLR 21/19 A3005 200 90 1000 000/00 RMK AO2 $
63870K0J4 0J420160530005513505/30/16 00:55:31  5-MIN K0J4 300555Z AUTO 00000KT 10SM CLR 21/19 A3005 200 90 1000 000/00 RMK AO2 SLP170 T02110194 10256 20211 53010 $
63870K0J4 0J420160530010010005/30/16 01:00:31  5-MIN K0J4 300600Z AUTO 00000KT 10SM CLR 21/19 A3005 200 90 1000 000/00 RMK AO2 $
63870K0J4 0J420160530010510005/30/16 01:05:31  5-MIN K0J4 300605Z AUTO 00000KT 10SM CLR 21/19 A3005 200 90 1000 000/00 RMK AO2 $
63870K0J4 0J420160530011010005/30/16 01:10:31  5-MIN K0J4 300610Z AUTO 00000KT 10SM CLR 21/19 A3004 200 90 1000 000/00 RMK AO2 $
63870K0J4 0J420160530011510005/30/16 01:15:31  5-MIN K0J4 300615Z AUTO 00000KT 10SM CLR 21/19 A3005 200 90 1000 000/00 RMK AO2 $
63870K0J4 0J420160530012009905/30/16 01:20:31  5-MIN K0J4 300620Z AUTO 00000KT 10SM CLR 21/19 A3005 200 93 900 000/00 RMK AO2 $
63870K0J4 0J420160530012510005/30/16 01:25:31  5-MIN K0J4 300625Z AUTO 00000KT 10SM CLR 21/19 A3005 200 90 1000 000/00 RMK AO2 $
63870K0J4 0J420160530013010005/30/16 01:30:31  5-MIN K0J4 300630Z AUTO 00000KT 10SM CLR 21/19 A3004 200 90 1000 000/00 RMK AO2 $
63870K0J4 0J420160530013510005/30/16 01:35:31  5-MIN K0J4 300635Z AUTO 00000KT 10SM CLR 21/19 A3004 200 90 1000 000/00 RMK AO2 $
63870K0J4 0J420160530014010005/30/16 01:40:31  5-MIN K0J4 300640Z AUTO 00000KT 10SM CLR 21/19 A3004 200 90 1000 000/00 RMK AO2 $
63870K0J4 0J420160530014510005/30/16 01:45:31  5-MIN K0J4 300645Z AUTO 00000KT 10SM CLR 21/19 A3004 200 90 1000 000/00 RMK AO2 $
63870K0J4 0J420160530015010005/30/16 01:50:31  5-MIN K0J4 300650Z AUTO 00000KT 10SM CLR 21/19 A3004 210 90 1000 000/00 RMK AO2 $
63870K0J4 0J420160530015511705/30/16 01:55:31  5-MIN K0J4 300655Z AUTO 00000KT 10SM CLR 21/19 A3004 210 90 1000 000/00 RMK AO2 SLP167 T02110194 $
63870K0J4 0J420160530020010005/30/16 02:00:31  5-MIN K0J4 300700Z AUTO 00000KT 10SM CLR 21/19 A3004 210 90 1000 000/00 RMK AO2 $
63870K0J4 0J420160530020510005/30/16 02:05:31  5-MIN K0J4 300705Z AUTO 00000KT 10SM CLR 21/19 A3004 210 90 1000 000/00 RMK AO2 $
63870K0J4 0J420160530021010005/30/16 02:10:31  5-MIN K0J4 300710Z AUTO 00000KT 10SM CLR 21/19 A3004 210 90 1000 000/00 RMK AO2 $
63870K0J4 0J420160530021510005/30/16 02:15:31  5-MIN K0J4 300715Z AUTO 00000KT 10SM CLR 21/19 A3003 210 90 1000 000/00 RMK AO2 $
63870K0J4 0J420160530022010005/30/16 02:20:31  5-MIN K0J4 300720Z AUTO 00000KT 10SM CLR 21/19 A3003 220 93 1000 000/00 RMK AO2 $
63870K0J4 0J420160530022510005/30/16 02:25:31  5-MIN K0J4 300725Z AUTO 00000KT 10SM CLR 21/19 A3003 220 93 1000 000/00 RMK AO2 $
63870K0J4 0J420160530023010005/30/16 02:30:31  5-MIN K0J4 300730Z AUTO 00000KT 10SM CLR 21/19 A3003 220 93 1000 000/00 RMK AO2 $
63870K0J4 0J420160530023510005/30/16 02:35:31  5-MIN K0J4 300735Z AUTO 00000KT 10SM CLR 21/19 A3003 220 93 1000 000/00 RMK AO2 $
63870K0J4 0J420160530024010005/30/16 02:40:31  5-MIN K0J4 300740Z AUTO 00000KT 10SM CLR 21/19 A3003 220 93 1000 000/00 RMK AO2 $
63870K0J4 0J420160530024510005/30/16 02:45:31  5-MIN K0J4 300745Z AUTO 00000KT 10SM CLR 21/19 A3002 220 93 1000 000/00 RMK AO2 $
63870K0J4 0J420160530025010005/30/16 02:50:31  5-MIN K0J4 300750Z AUTO 00000KT 10SM CLR 21/19 A3002 220 93 1000 000/00 RMK AO2 $
63870K0J4 0J420160530025511705/30/16 02:55:31  5-MIN K0J4 300755Z AUTO 00000KT 10SM CLR 21/19 A3002 220 93 1000 000/00 RMK AO2 SLP162 T02060194 $
63870K0J4 0J420160530030010005/30/16 03:00:31  5-MIN K0J4 300800Z AUTO 00000KT 10SM CLR 21/19 A3002 220 93 1000 000/00 RMK AO2 $
63870K0J4 0J420160530030509905/30/16 03:05:31  5-MIN K0J4 300805Z AUTO 00000KT 10SM CLR 20/19 A3002 220 93 900 000/00 RMK AO2 $
63870K0J4 0J420160530031009805/30/16 03:10:31  5-MIN K0J4 300810Z AUTO 00000KT 9SM CLR 20/19 A3002 220 97 900 000/00 RMK AO2 $
63870K0J4 0J420160530031509805/30/16 03:15:31  5-MIN K0J4 300815Z AUTO 00000KT 9SM CLR 20/19 A3003 220 93 900 000/00 RMK AO2 $
63870K0J4 0J420160530032010005/30/16 03:20:31  5-MIN K0J4 300820Z AUTO 00000KT 10SM CLR 21/19 A3003 220 93 1000 000/00 RMK AO2 $
63870K0J4 0J420160530032510005/30/16 03:25:31  5-MIN K0J4 300825Z AUTO 00000KT 10SM CLR 21/19 A3003 220 93 1000 000/00 RMK AO2 $
63870K0J4 0J420160530033010005/30/16 03:30:31  5-MIN K0J4 300830Z AUTO 00000KT 10SM CLR 21/19 A3003 220 93 1000 000/00 RMK AO2 $
63870K0J4 0J420160530033510005/30/16 03:35:31  5-MIN K0J4 300835Z AUTO 00000KT 10SM CLR 21/19 A3002 220 93 1000 000/00 RMK AO2 $
63870K0J4 0J420160530034010005/30/16 03:40:31  5-MIN K0J4 300840Z AUTO 00000KT 10SM CLR 21/19 A3002 220 93 1000 000/00 RMK AO2 $
63870K0J4 0J420160530034510005/30/16 03:45:31  5-MIN K0J4 300845Z AUTO 00000KT 10SM CLR 21/19 A3002 220 93 1000 000/00 RMK AO2 $
63870K0J4 0J420160530035010005/30/16 03:50:31  5-MIN K0J4 300850Z AUTO 00000KT 10SM CLR 21/19 A3002 220 93 1000 000/00 RMK AO2 $
63870K0J4 0J420160530035512305/30/16 03:55:31  5-MIN K0J4 300855Z AUTO 00000KT 10SM CLR 21/19 A3002 220 93 1000 000/00 RMK AO2 SLP161 T02060194 58003 $
63870K0J4 0J420160530040010005/30/16 04:00:31  5-MIN K0J4 300900Z AUTO 00000KT 10SM CLR 21/19 A3002 230 90 1000 000/00 RMK AO2 $
63870K0J4 0J420160530040509805/30/16 04:05:31  5-MIN K0J4 300905Z AUTO 00000KT 9SM CLR 20/19 A3002 230 93 900 000/00 RMK AO2 $
63870K0J4 0J420160530041009905/30/16 04:10:31  5-MIN K0J4 300910Z AUTO 00000KT 9SM CLR 21/19 A3002 230 93 1000 000/00 RMK AO2 $
63870K0J4 0J420160530152011005/30/16 15:20:31  5-MIN K0J4 302020Z AUTO VRB03KT 10SM FEW070 SCT100 33/16 A2996 280 33 2500 VRB/03 RMK AO2 $
63870K0J4 0J420160530152511005/30/16 15:25:31  5-MIN K0J4 302025Z AUTO VRB03KT 10SM FEW070 SCT100 33/15 A2995 290 32 2500 VRB/03 RMK AO2 $
63870K0J4 0J420160530153011005/30/16 15:30:31  5-MIN K0J4 302030Z AUTO 26003KT 10SM FEW070 SCT100 33/16 A2995 290 33 2500 260/03 RMK AO2 $
63870K0J4 0J420160530153511005/30/16 15:35:31  5-MIN K0J4 302035Z AUTO VRB04KT 10SM SCT070 SCT100 33/16 A2995 290 35 2500 VRB/04 RMK AO2 $
63870K0J4 0J420160530154010305/30/16 15:40:31  5-MIN K0J4 302040Z AUTO VRB05KT 10SM FEW070 33/16 A2995 290 33 2500 VRB/05 RMK AO2 $
63870K0J4 0J420160530154510305/30/16 15:45:31  5-MIN K0J4 302045Z AUTO 31007KT 10SM FEW065 33/16 A2994 290 33 2500 310/07 RMK AO2 $
63870K0J4 0J420160530155010305/30/16 15:50:31  5-MIN K0J4 302050Z AUTO VRB03KT 10SM FEW065 33/16 A2994 300 33 2500 VRB/03 RMK AO2 $
63870K0J4 0J420160530155512605/30/16 15:55:31  5-MIN K0J4 302055Z AUTO 31005KT 10SM FEW070 34/16 A2994 300 32 2600 310/05 RMK AO2 SLP134 T03390156 58014 $
63870K0J4 0J420160530160010005/30/16 16:00:31  5-MIN K0J4 302100Z AUTO VRB05KT 10SM CLR 34/16 A2994 300 34 2600 VRB/05 RMK AO2 $
63870K0J4 0J420160530160510005/30/16 16:05:31  5-MIN K0J4 302105Z AUTO 34004KT 10SM CLR 33/16 A2994 300 35 2500 340/04 RMK AO2 $
63870K0J4 0J420160530161010005/30/16 16:10:31  5-MIN K0J4 302110Z AUTO 01006KT 10SM CLR 33/16 A2993 300 35 2400 010/06 RMK AO2 $
63870K0J4 0J420160530161510005/30/16 16:15:31  5-MIN K0J4 302115Z AUTO 35003KT 10SM CLR 32/17 A2993 300 38 2400 350/03 RMK AO2 $
63870K0J4 0J420160530162010005/30/16 16:20:31  5-MIN K0J4 302120Z AUTO 00000KT 10SM CLR 32/16 A2993 300 37 2400 000/00 RMK AO2 $
63870K0J4 0J420160530162510005/30/16 16:25:31  5-MIN K0J4 302125Z AUTO 00000KT 10SM CLR 33/16 A2994 300 36 2400 000/00 RMK AO2 $
63870K0J4 0J420160530163010005/30/16 16:30:31  5-MIN K0J4 302130Z AUTO VRB03KT 10SM CLR 33/17 A2993 300 36 2500 VRB/03 RMK AO2 $
63870K0J4 0J420160530163510005/30/16 16:35:31  5-MIN K0J4 302135Z AUTO VRB05KT 10SM CLR 34/16 A2993 300 32 2600 VRB/05 RMK AO2 $
63870K0J4 0J420160530164010005/30/16 16:40:31  5-MIN K0J4 302140Z AUTO VRB03KT 10SM CLR 33/16 A2994 300 33 2500 VRB/03 RMK AO2 $
63870K0J4 0J420160530164510305/30/16 16:45:31  5-MIN K0J4 302145Z AUTO VRB05KT 10SM FEW070 33/16 A2994 300 36 2400 VRB/05 RMK AO2 $
63870K0J4 0J420160530165010905/30/16 16:50:31  5-MIN K0J4 302150Z AUTO 21009G16KT 10SM FEW070 31/19 A2994 300 49 2200 210/09G16 RMK AO2 $
63870K0J4 0J420160530165512605/30/16 16:55:31  5-MIN K0J4 302155Z AUTO 21011G16KT 10SM FEW070 31/19 A2994 300 49 2200 210/11G16 RMK AO2 SLP132 T03060189 $
63870K0J4 0J420160530170010305/30/16 17:00:31  5-MIN K0J4 302200Z AUTO VRB06KT 10SM FEW070 30/19 A2994 300 51 2100 VRB/06 RMK AO2 $
63870K0J4 0J420160530170510305/30/16 17:05:31  5-MIN K0J4 302205Z AUTO 21010KT 10SM FEW070 30/19 A2994 300 51 2100 210/10 RMK AO2 $
63870K0J4 0J420160530171010305/30/16 17:10:31  5-MIN K0J4 302210Z AUTO 21007KT 10SM SCT070 30/19 A2994 300 51 2100 210/07 RMK AO2 $
63870K0J4 0J420160530171511005/30/16 17:15:31  5-MIN K0J4 302215Z AUTO 22006KT 10SM SCT070 SCT085 30/19 A2994 300 52 2100 220/06 RMK AO2 $
63870K0J4 0J420160530172011005/30/16 17:20:31  5-MIN K0J4 302220Z AUTO 22004KT 10SM SCT070 SCT085 31/19 A2994 300 51 2200 220/04 RMK AO2 $
63870K0J4 0J420160530172510305/30/16 17:25:31  5-MIN K0J4 302225Z AUTO 22004KT 10SM FEW070 30/19 A2993 300 51 2100 220/04 RMK AO2 $
63870K0J4 0J420160530173010305/30/16 17:30:31  5-MIN K0J4 302230Z AUTO 22007KT 10SM FEW070 31/19 A2993 300 51 2200 220/07 RMK AO2 $
63870K0J4 0J420160530173510305/30/16 17:35:31  5-MIN K0J4 302235Z AUTO 22006KT 10SM SCT070 31/19 A2993 300 47 2300 220/06 RMK AO2 $
63870K0J4 0J420160530174010305/30/16 17:40:31  5-MIN K0J4 302240Z AUTO VRB04KT 10SM SCT070 31/19 A2993 300 49 2200 VRB/04 RMK AO2 $
63870K0J4 0J420160530174510305/30/16 17:45:31  5-MIN K0J4 302245Z AUTO VRB04KT 10SM FEW070 31/19 A2993 300 49 2200 VRB/04 RMK AO2 $
63870K0J4 0J420160530175010305/30/16 17:50:31  5-MIN K0J4 302250Z AUTO 23005KT 10SM FEW070 31/19 A2993 300 49 2200 230/05 RMK AO2 $
63870K0J4 0J420160530175512005/30/16 17:55:31  5-MIN K0J4 302255Z AUTO 22007KT 10SM FEW070 31/19 A2994 300 49 2200 220/07 RMK AO2 SLP132 T03060189 $
63870K0J4 0J420160530180010305/30/16 18:00:31  5-MIN K0J4 302300Z AUTO 22009KT 10SM FEW070 30/18 A2993 300 49 2100 220/09 RMK AO2 $
63870K0J4 0J420160530180510005/30/16 18:05:31  5-MIN K0J4 302305Z AUTO 23006KT 10SM CLR 30/18 A2994 300 47 2100 230/06 RMK AO2 $
63870K0J4 0J420160530181010005/30/16 18:10:31  5-MIN K0J4 302310Z AUTO 24006KT 10SM CLR 29/18 A2994 300 49 2100 240/06 RMK AO2 $
63870K0J4 0J420160530181510005/30/16 18:15:31  5-MIN K0J4 302315Z AUTO 22005KT 10SM CLR 29/18 A2994 300 50 2000 220/05 RMK AO2 $
63870K0J4 0J420160530182010005/30/16 18:20:31  5-MIN K0J4 302320Z AUTO 22007KT 10SM CLR 29/18 A2994 300 50 2000 220/07 RMK AO2 $
63870K0J4 0J420160530182510005/30/16 18:25:31  5-MIN K0J4 302325Z AUTO 22007KT 10SM CLR 29/18 A2994 300 50 2000 220/07 RMK AO2 $
63870K0J4 0J420160530183010005/30/16 18:30:31  5-MIN K0J4 302330Z AUTO 23004KT 10SM CLR 29/18 A2994 290 50 2000 230/04 RMK AO2 $
63870K0J4 0J420160530183510005/30/16 18:35:31  5-MIN K0J4 302335Z AUTO VRB03KT 10SM CLR 29/18 A2995 290 52 2000 VRB/03 RMK AO2 $
63870K0J4 0J420160530184010005/30/16 18:40:31  5-MIN K0J4 302340Z AUTO 23004KT 10SM CLR 28/18 A2995 290 54 1900 230/04 RMK AO2 $
63870K0J4 0J420160530184510005/30/16 18:45:31  5-MIN K0J4 302345Z AUTO 23004KT 10SM CLR 28/18 A2995 290 54 1900 230/04 RMK AO2 $
63870K0J4 0J420160530185010005/30/16 18:50:31  5-MIN K0J4 302350Z AUTO VRB04KT 10SM CLR 28/18 A2995 290 54 1900 VRB/04 RMK AO2 $
63870K0J4 0J420160530185513505/30/16 18:55:31  5-MIN K0J4 302355Z AUTO 23003KT 10SM CLR 28/18 A2995 290 54 1900 230/03 RMK AO2 SLP137 T02830183 10339 20283 58021 $
63870K0J4 0J420160530190010005/30/16 19:00:31  5-MIN K0J4 310000Z AUTO 23003KT 10SM CLR 28/19 A2995 290 56 1900 230/03 RMK AO2 $
63870K0J4 0J420160530190510005/30/16 19:05:31  5-MIN K0J4 310005Z AUTO 23003KT 10SM CLR 28/19 A2995 290 56 1900 230/03 RMK AO2 $
63870K0J4 0J420160530191010005/30/16 19:10:31  5-MIN K0J4 310010Z AUTO 23003KT 10SM CLR 28/19 A2995 290 58 1900 230/03 RMK AO2 $
63870K0J4 0J420160530191510005/30/16 19:15:31  5-MIN K0J4 310015Z AUTO 24003KT 10SM CLR 27/19 A2995 290 62 1800 240/03 RMK AO2 $
63870K0J4 0J420160530192010005/30/16 19:20:31  5-MIN K0J4 310020Z AUTO 23003KT 10SM CLR 27/19 A2995 290 62 1800 230/03 RMK AO2 $
63870K0J4 0J420160530192510005/30/16 19:25:31  5-MIN K0J4 310025Z AUTO 23003KT 10SM CLR 27/19 A2995 290 60 1800 230/03 RMK AO2 $
63870K0J4 0J420160530193010005/30/16 19:30:31  5-MIN K0J4 310030Z AUTO 24003KT 10SM CLR 27/19 A2995 290 62 1800 240/03 RMK AO2 $
63870K0J4 0J420160530193510005/30/16 19:35:31  5-MIN K0J4 310035Z AUTO 00000KT 10SM CLR 27/19 A2995 290 64 1700 000/00 RMK AO2 $
63870K0J4 0J420160530194010005/30/16 19:40:31  5-MIN K0J4 310040Z AUTO 00000KT 10SM CLR 26/19 A2995 290 66 1700 000/00 RMK AO2 $
63870K0J4 0J420160530194510005/30/16 19:45:31  5-MIN K0J4 310045Z AUTO 00000KT 10SM CLR 26/19 A2995 290 66 1700 000/00 RMK AO2 $
63870K0J4 0J420160530195010005/30/16 19:50:31  5-MIN K0J4 310050Z AUTO 00000KT 10SM CLR 26/20 A2995 290 71 1600 000/00 RMK AO2 $
63870K0J4 0J420160530195511705/30/16 19:55:31  5-MIN K0J4 310055Z AUTO 00000KT 10SM CLR 26/20 A2995 290 71 1600 000/00 RMK AO2 SLP136 T02560200 $
63870K0J4 0J420160530200010005/30/16 20:00:31  5-MIN K0J4 310100Z AUTO 00000KT 10SM CLR 25/20 A2995 290 73 1600 000/00 RMK AO2 $
63870K0J4 0J420160530200510005/30/16 20:05:31  5-MIN K0J4 310105Z AUTO 00000KT 10SM CLR 26/20 A2995 290 71 1600 000/00 RMK AO2 $
63870K0J4 0J420160530201010005/30/16 20:10:31  5-MIN K0J4 310110Z AUTO 14004KT 10SM CLR 24/21 A2995 290 78 1500 140/04 RMK AO2 $
63870K0J4 0J420160530201510005/30/16 20:15:31  5-MIN K0J4 310115Z AUTO 14003KT 10SM CLR 25/19 A2995 290 71 1500 140/03 RMK AO2 $
63870K0J4 0J420160530202010005/30/16 20:20:31  5-MIN K0J4 310120Z AUTO 14006KT 10SM CLR 25/19 A2996 280 71 1500 140/06 RMK AO2 $
63870K0J4 0J420160530202510005/30/16 20:25:31  5-MIN K0J4 310125Z AUTO 19003KT 10SM CLR 25/19 A2995 280 71 1500 190/03 RMK AO2 $
63870K0J4 0J420160530203010005/30/16 20:30:31  5-MIN K0J4 310130Z AUTO 00000KT 10SM CLR 25/19 A2995 290 71 1500 000/00 RMK AO2 $
63870K0J4 0J420160530203510005/30/16 20:35:31  5-MIN K0J4 310135Z AUTO 00000KT 10SM CLR 25/19 A2996 280 71 1500 000/00 RMK AO2 $
63870K0J4 0J420160530204010005/30/16 20:40:31  5-MIN K0J4 310140Z AUTO 00000KT 10SM CLR 25/19 A2996 280 71 1500 000/00 RMK AO2 $
63870K0J4 0J420160530204510005/30/16 20:45:31  5-MIN K0J4 310145Z AUTO 18003KT 10SM CLR 24/19 A2996 280 73 1500 180/03 RMK AO2 $
63870K0J4 0J420160530205010005/30/16 20:50:31  5-MIN K0J4 310150Z AUTO 20003KT 10SM CLR 25/19 A2996 280 71 1500 200/03 RMK AO2 $
63870K0J4 0J420160530205511705/30/16 20:55:31  5-MIN K0J4 310155Z AUTO 00000KT 10SM CLR 25/19 A2996 280 71 1500 000/00 RMK AO2 SLP141 T02500194 $
63870K0J4 0J420160530210010005/30/16 21:00:31  5-MIN K0J4 310200Z AUTO 00000KT 10SM CLR 24/19 A2996 280 73 1500 000/00 RMK AO2 $
63870K0J4 0J420160530210510005/30/16 21:05:31  5-MIN K0J4 310205Z AUTO 00000KT 10SM CLR 24/19 A2997 270 73 1500 000/00 RMK AO2 $
63870K0J4 0J420160530211010005/30/16 21:10:31  5-MIN K0J4 310210Z AUTO 00000KT 10SM CLR 24/19 A2997 270 76 1400 000/00 RMK AO2 $
63870K0J4 0J420160530211510005/30/16 21:15:31  5-MIN K0J4 310215Z AUTO 00000KT 10SM CLR 24/19 A2997 270 73 1500 000/00 RMK AO2 $
63870K0J4 0J420160530212010005/30/16 21:20:31  5-MIN K0J4 310220Z AUTO 00000KT 10SM CLR 24/19 A2997 270 73 1500 000/00 RMK AO2 $
63870K0J4 0J420160530212510005/30/16 21:25:31  5-MIN K0J4 310225Z AUTO 00000KT 10SM CLR 24/20 A2997 270 78 1400 000/00 RMK AO2 $
63870K0J4 0J420160530213010005/30/16 21:30:31  5-MIN K0J4 310230Z AUTO 00000KT 10SM CLR 24/19 A2997 270 76 1400 000/00 RMK AO2 $
63870K0J4 0J420160530213510005/30/16 21:35:31  5-MIN K0J4 310235Z AUTO 00000KT 10SM CLR 24/19 A2998 270 76 1400 000/00 RMK AO2 $
63870K0J4 0J420160530214010005/30/16 21:40:31  5-MIN K0J4 310240Z AUTO 22003KT 10SM CLR 24/19 A2997 270 73 1500 220/03 RMK AO2 $
63870K0J4 0J420160530214510005/30/16 21:45:31  5-MIN K0J4 310245Z AUTO 23003KT 10SM CLR 24/19 A2997 270 76 1400 230/03 RMK AO2 $
63870K0J4 0J420160530215010005/30/16 21:50:31  5-MIN K0J4 310250Z AUTO 23004KT 10SM CLR 24/19 A2998 270 76 1400 230/04 RMK AO2 $
63870K0J4 0J420160530215512305/30/16 21:55:31  5-MIN K0J4 310255Z AUTO 23004KT 10SM CLR 24/19 A2998 260 73 1500 230/04 RMK AO2 SLP146 T02440194 53003 $
63870K0J4 0J420160530220010005/30/16 22:00:31  5-MIN K0J4 310300Z AUTO 23004KT 10SM CLR 24/19 A2998 260 73 1500 230/04 RMK AO2 $
63870K0J4 0J420160530220510005/30/16 22:05:31  5-MIN K0J4 310305Z AUTO 24004KT 10SM CLR 24/19 A2998 260 76 1400 240/04 RMK AO2 $
63870K0J4 0J420160530221010005/30/16 22:10:31  5-MIN K0J4 310310Z AUTO 24004KT 10SM CLR 24/19 A2998 260 73 1500 240/04 RMK AO2 $
63870K0J4 0J420160530221510005/30/16 22:15:31  5-MIN K0J4 310315Z AUTO 00000KT 10SM CLR 24/19 A2998 260 76 1400 000/00 RMK AO2 $
63870K0J4 0J420160530222010005/30/16 22:20:31  5-MIN K0J4 310320Z AUTO VRB03KT 10SM CLR 24/19 A2998 260 73 1400 VRB/03 RMK AO2 $
63870K0J4 0J420160530222510005/30/16 22:25:31  5-MIN K0J4 310325Z AUTO 25003KT 10SM CLR 24/19 A2998 260 73 1400 250/03 RMK AO2 $
63870K0J4 0J420160530223010005/30/16 22:30:31  5-MIN K0J4 310330Z AUTO 00000KT 10SM CLR 23/19 A2998 260 76 1300 000/00 RMK AO2 $
63870K0J4 0J420160530223510005/30/16 22:35:31  5-MIN K0J4 310335Z AUTO 00000KT 10SM CLR 24/19 A2998 260 73 1400 000/00 RMK AO2 $
63870K0J4 0J420160531121510105/31/16 12:15:31  5-MIN K0J4 311715Z AUTO VRB05KT 10SM FEW055 32/19 A2995 290 44 2400 VRB/05 RMK AO2
63870K0J4 0J420160531122010105/31/16 12:20:31  5-MIN K0J4 311720Z AUTO VRB03KT 10SM FEW055 32/18 A2995 290 41 2400 VRB/03 RMK AO2
63870K0J4 0J420160531122510105/31/16 12:25:31  5-MIN K0J4 311725Z AUTO 00000KT 10SM FEW060 32/18 A2995 290 43 2300 000/00 RMK AO2
63870K0J4 0J420160531123010105/31/16 12:30:31  5-MIN K0J4 311730Z AUTO 00000KT 10SM FEW060 32/17 A2995 290 41 2300 000/00 RMK AO2
63870K0J4 0J420160531123509805/31/16 12:35:31  5-MIN K0J4 311735Z AUTO 10005KT 10SM CLR 32/18 A2995 290 43 2400 100/05 RMK AO2
63870K0J4 0J420160531124009805/31/16 12:40:31  5-MIN K0J4 311740Z AUTO 00000KT 10SM CLR 32/18 A2995 290 43 2400 000/00 RMK AO2
63870K0J4 0J420160531124509805/31/16 12:45:31  5-MIN K0J4 311745Z AUTO VRB03KT 10SM CLR 33/18 A2995 290 40 2400 VRB/03 RMK AO2
63870K0J4 0J420160531125009805/31/16 12:50:31  5-MIN K0J4 311750Z AUTO 00000KT 10SM CLR 32/17 A2995 290 40 2400 000/00 RMK AO2
63870K0J4 0J420160531125513605/31/16 12:55:31  5-MIN K0J4 311755Z AUTO 00000KT 10SM FEW110 32/17 A2995 290 38 2400 000/00 RMK AO2 SLP137 T03220167 10328 20222 50006
63870K0J4 0J420160531130010105/31/16 13:00:31  5-MIN K0J4 311800Z AUTO 00000KT 10SM FEW110 32/17 A2995 290 40 2400 000/00 RMK AO2
63870K0J4 0J420160531130510105/31/16 13:05:31  5-MIN K0J4 311805Z AUTO 01004KT 10SM FEW110 33/18 A2994 290 40 2400 010/04 RMK AO2
63870K0J4 0J420160531131010105/31/16 13:10:31  5-MIN K0J4 311810Z AUTO 04004KT 10SM FEW060 32/18 A2994 300 41 2400 040/04 RMK AO2
63870K0J4 0J420160531131510105/31/16 13:15:31  5-MIN K0J4 311815Z AUTO 00000KT 10SM FEW060 32/18 A2994 300 41 2400 000/00 RMK AO2
63870K0J4 0J420160531132010105/31/16 13:20:31  5-MIN K0J4 311820Z AUTO 00000KT 10SM FEW060 32/18 A2994 300 41 2400 000/00 RMK AO2
63870K0J4 0J420160531132510105/31/16 13:25:31  5-MIN K0J4 311825Z AUTO 00000KT 10SM FEW110 32/17 A2993 300 41 2300 000/00 RMK AO2
63870K0J4 0J420160531133009805/31/16 13:30:31  5-MIN K0J4 311830Z AUTO 00000KT 10SM CLR 32/17 A2993 310 41 2300 000/00 RMK AO2
63870K0J4 0J420160531133509805/31/16 13:35:31  5-MIN K0J4 311835Z AUTO 00000KT 10SM CLR 32/17 A2993 310 41 2300 000/00 RMK AO2
63870K0J4 0J420160531134009805/31/16 13:40:31  5-MIN K0J4 311840Z AUTO 00000KT 10SM CLR 32/17 A2992 310 41 2300 000/00 RMK AO2
63870K0J4 0J420160531134509805/31/16 13:45:31  5-MIN K0J4 311845Z AUTO 00000KT 10SM CLR 32/17 A2993 310 41 2300 000/00 RMK AO2
63870K0J4 0J420160531135009805/31/16 13:50:31  5-MIN K0J4 311850Z AUTO 00000KT 10SM CLR 32/18 A2993 310 43 2300 000/00 RMK AO2
63870K0J4 0J420160531135511505/31/16 13:55:31  5-MIN K0J4 311855Z AUTO 00000KT 10SM CLR 32/18 A2993 310 43 2300 000/00 RMK AO2 SLP130 T03170178
63870K0J4 0J420160531140009805/31/16 14:00:31  5-MIN K0J4 311900Z AUTO 00000KT 10SM CLR 32/18 A2993 310 43 2300 000/00 RMK AO2
63870K0J4 0J420160531140510105/31/16 14:05:31  5-MIN K0J4 311905Z AUTO 21003KT 10SM FEW100 32/18 A2993 310 44 2300 210/03 RMK AO2
63870K0J4 0J420160531141010105/31/16 14:10:31  5-MIN K0J4 311910Z AUTO 20003KT 10SM SCT100 32/18 A2992 310 43 2300 200/03 RMK AO2
63870K0J4 0J420160531141510105/31/16 14:15:31  5-MIN K0J4 311915Z AUTO 21003KT 10SM BKN110 32/17 A2993 310 41 2300 210/03 RMK AO2
63870K0J4 0J420160531142010105/31/16 14:20:31  5-MIN K0J4 311920Z AUTO 22003KT 10SM BKN110 32/18 A2993 310 43 2300 220/03 RMK AO2
63870K0J4 0J420160531142510705/31/16 14:25:31  5-MIN K0J4 311925Z AUTO 20011G19KT 10SM BKN110 32/18 A2993 310 43 2300 200/11G19 RMK AO2
63870K0J4 0J420160531143010705/31/16 14:30:31  5-MIN K0J4 311930Z AUTO 20019G24KT 10SM BKN110 29/19 A2993 300 54 2000 200/19G24 RMK AO2
63870K0J4 0J420160531143510705/31/16 14:35:31  5-MIN K0J4 311935Z AUTO 20016G24KT 10SM SCT110 28/18 A2994 300 56 1900 200/16G24 RMK AO2
63870K0J4 0J420160531144010705/31/16 14:40:31  5-MIN K0J4 311940Z AUTO 21013G22KT 10SM SCT110 27/18 A2994 300 56 1800 210/13G22 RMK AO2
63870K0J4 0J420160531144511605/31/16 14:45:31  5-MIN K0J4 311945Z AUTO 20015G21KT 10SM TS FEW110 27/18 A2993 310 57 1800 200/15G21 RMK AO2 TSB41
63870K0J4 0J420160531145011605/31/16 14:50:31  5-MIN K0J4 311950Z AUTO 20015G21KT 10SM TS FEW110 27/17 A2993 300 55 1800 200/15G21 RMK AO2 TSB41
63870K0J4 0J420160531145513005/31/16 14:55:31  5-MIN K0J4 311955Z AUTO 20013G21KT 10SM TS CLR 27/18 A2993 310 56 1800 200/13G21 RMK AO2 TSB41 SLP131 T02720178
63870K0J4 0J420160531150010605/31/16 15:00:31  5-MIN K0J4 312000Z AUTO 20015KT 10SM VCTS FEW060 28/18 A2993 310 54 1900 200/15 RMK AO2
63870K0J4 0J420160531150510705/31/16 15:05:31  5-MIN K0J4 312005Z AUTO 21013KT 10SM FEW060 28/18 A2993 310 56 1900 210/13 RMK AO2 TSE05
63870K0J4 0J420160531151010705/31/16 15:10:31  5-MIN K0J4 312010Z AUTO 19010KT 10SM SCT060 28/18 A2993 310 56 1900 190/10 RMK AO2 TSE05
63870K0J4 0J420160531151511305/31/16 15:15:31  5-MIN K0J4 312015Z AUTO 20012KT 10SM TS SCT060 27/19 A2993 310 62 1800 200/12 RMK AO2 TSE05B12
63870K0J4 0J420160531152011905/31/16 15:20:31  5-MIN K0J4 312020Z AUTO 21009G17KT 10SM TS BKN060 26/19 A2993 310 66 1700 210/09G17 RMK AO2 TSE05B12
63870K0J4 0J420160531152511305/31/16 15:25:31  5-MIN K0J4 312025Z AUTO 21006KT 10SM TS BKN060 26/19 A2992 320 68 1600 210/06 RMK AO2 TSE05B12
63870K0J4 0J420160531153011305/31/16 15:30:31  5-MIN K0J4 312030Z AUTO 22005KT 10SM BKN060 26/19 A2992 320 68 1700 220/05 RMK AO2 TSE05B12E28
63870K0J4 0J420160531153512005/31/16 15:35:31  5-MIN K0J4 312035Z AUTO 22003KT 10SM BKN060 BKN100 26/19 A2992 320 66 1700 220/03 RMK AO2 TSE05B12E28
63870K0J4 0J420160531154012005/31/16 15:40:31  5-MIN K0J4 312040Z AUTO 21005KT 10SM BKN060 BKN110 27/19 A2992 320 64 1800 210/05 RMK AO2 TSE05B12E28
63870K0J4 0J420160531154512705/31/16 15:45:31  5-MIN K0J4 312045Z AUTO VRB05KT 10SM SCT060 BKN085 OVC110 27/19 A2992 310 64 1800 VRB/05 RMK AO2 TSE05B12E28
63870K0J4 0J420160531155012705/31/16 15:50:31  5-MIN K0J4 312050Z AUTO VRB03KT 10SM SCT060 BKN085 OVC110 26/19 A2992 310 66 1700 VRB/03 RMK AO2 TSE05B12E28
63870K0J4 0J420160531155515005/31/16 15:55:31  5-MIN K0J4 312055Z AUTO 00000KT 10SM FEW060 SCT085 BKN110 27/19 A2993 310 64 1800 000/00 RMK AO2 TSE05B12E28 SLP129 T02670194 58008
63870K0J4 0J420160531160011505/31/16 16:00:31  5-MIN K0J4 312100Z AUTO VRB03KT 10SM FEW060 SCT085 BKN110 27/19 A2993 310 64 1800 VRB/03 RMK AO2
63870K0J4 0J420160531160511505/31/16 16:05:31  5-MIN K0J4 312105Z AUTO VRB03KT 10SM SCT060 SCT085 BKN110 27/19 A2994 300 64 1800 VRB/03 RMK AO2
63870K0J4 0J420160531161011505/31/16 16:10:31  5-MIN K0J4 312110Z AUTO VRB03KT 10SM BKN060 BKN085 BKN110 27/19 A2994 300 64 1800 VRB/03 RMK AO2
63870K0J4 0J420160531161510805/31/16 16:15:31  5-MIN K0J4 312115Z AUTO VRB03KT 10SM SCT060 BKN100 26/19 A2994 300 64 1700 VRB/03 RMK AO2
63870K0J4 0J420160531162010805/31/16 16:20:31  5-MIN K0J4 312120Z AUTO VRB04KT 10SM SCT060 BKN090 26/18 A2994 300 62 1700 VRB/04 RMK AO2
63870K0J4 0J420160531162511705/31/16 16:25:31  5-MIN K0J4 312125Z AUTO VRB03KT 10SM TS SCT060 BKN090 26/18 A2994 300 62 1700 VRB/03 RMK AO2 TSB21
63870K0J4 0J420160531163011705/31/16 16:30:31  5-MIN K0J4 312130Z AUTO 00000KT 10SM TS FEW060 BKN095 26/18 A2994 300 61 1600 000/00 RMK AO2 TSB21
63870K0J4 0J420160531163511705/31/16 16:35:31  5-MIN K0J4 312135Z AUTO 00000KT 10SM TS FEW060 BKN100 26/18 A2994 300 64 1600 000/00 RMK AO2 TSB21
63870K0J4 0J420160531164011005/31/16 16:40:31  5-MIN K0J4 312140Z AUTO 00000KT 10SM TS BKN100 26/18 A2994 300 64 1600 000/00 RMK AO2 TSB21
63870K0J4 0J420160531164511005/31/16 16:45:31  5-MIN K0J4 312145Z AUTO 00000KT 10SM BKN100 26/18 A2994 300 64 1600 000/00 RMK AO2 TSB21E44
63870K0J4 0J420160531165011005/31/16 16:50:31  5-MIN K0J4 312150Z AUTO 00000KT 10SM BKN110 26/18 A2994 290 64 1600 000/00 RMK AO2 TSB21E44
63870K0J4 0J420160531165513405/31/16 16:55:31  5-MIN K0J4 312155Z AUTO 00000KT 10SM BKN100 BKN120 26/18 A2994 290 64 1600 000/00 RMK AO2 TSB21E44 SLP136 T02560183
63870K0J4 0J420160531170010105/31/16 17:00:31  5-MIN K0J4 312200Z AUTO 00000KT 10SM BKN100 25/18 A2994 300 66 1600 000/00 RMK AO2
63870K0J4 0J420160531170510105/31/16 17:05:31  5-MIN K0J4 312205Z AUTO 00000KT 10SM BKN100 25/19 A2994 300 68 1600 000/00 RMK AO2
63870K0J4 0J420160531171012305/31/16 17:10:31  5-MIN K0J4 312210Z AUTO 00000KT 6SM -RA BKN095 BKN110 25/19 A2994 300 68 1600 000/00 RMK AO2 RAB06 P0000
63870K0J4 0J420160531171513305/31/16 17:15:31  5-MIN K0J4 312215Z AUTO 00000KT 2 1/2SM RA FEW070 SCT085 OVC100 24/19 A2994 300 76 1400 000/00 RMK AO2 RAB06 P0002
63870K0J4 0J420160531172012205/31/16 17:20:31  5-MIN K0J4 312220Z AUTO 27003KT 2SM RA FEW070 OVC100 23/20 A2994 300 84 1300 270/03 RMK AO2 RAB06 P0003
63870K0J4 0J420160531172511605/31/16 17:25:31  5-MIN K0J4 312225Z AUTO VRB03KT 4SM -RA OVC100 23/20 A2993 300 84 1300 VRB/03 RMK AO2 RAB06 P0003
63870K0J4 0J420160531173012305/31/16 17:30:31  5-MIN K0J4 312230Z AUTO 00000KT 7SM -RA FEW090 OVC110 23/19 A2993 310 81 1300 000/00 RMK AO2 RAB06 P0003
63870K0J4 0J420160531173512405/31/16 17:35:31  5-MIN K0J4 312235Z AUTO VRB04KT 10SM -RA FEW085 BKN110 23/19 A2993 310 81 1300 VRB/04 RMK AO2 RAB06 P0004
63870K0J4 0J420160531174011705/31/16 17:40:31  5-MIN K0J4 312240Z AUTO VRB03KT 10SM -RA BKN110 22/19 A2993 310 84 1300 VRB/03 RMK AO2 RAB06 P0004
63870K0J4 0J420160531174511705/31/16 17:45:31  5-MIN K0J4 312245Z AUTO 00000KT 10SM -RA BKN110 22/19 A2993 310 84 1300 000/00 RMK AO2 RAB06 P0004
63870K0J4 0J420160531175011705/31/16 17:50:31  5-MIN K0J4 312250Z AUTO VRB03KT 10SM -RA BKN110 22/19 A2992 320 84 1300 VRB/03 RMK AO2 RAB06 P0004
63870K0J4 0J420160531175513405/31/16 17:55:31  5-MIN K0J4 312255Z AUTO 00000KT 10SM -RA SCT110 22/19 A2992 320 84 1300 000/00 RMK AO2 RAB06 SLP127 P0004 T02220194
63870K0J4 0J420160531180011105/31/16 18:00:31  5-MIN K0J4 312300Z AUTO 00000KT 10SM -RA SCT110 22/19 A2991 320 81 1300 000/00 RMK AO2 P0000
63870K0J4 0J420160531180511105/31/16 18:05:31  5-MIN K0J4 312305Z AUTO VRB03KT 10SM -RA SCT110 22/19 A2992 320 84 1300 VRB/03 RMK AO2 P0000
63870K0J4 0J420160531181011805/31/16 18:10:31  5-MIN K0J4 312310Z AUTO VRB03KT 10SM -RA FEW055 BKN120 22/19 A2991 320 81 1300 VRB/03 RMK AO2 P0000
63870K0J4 0J420160531181512505/31/16 18:15:31  5-MIN K0J4 312315Z AUTO 00000KT 10SM -RA FEW050 SCT070 BKN110 22/19 A2991 320 81 1300 000/00 RMK AO2 P0000
63870K0J4 0J420160531182012005/31/16 18:20:31  5-MIN K0J4 312320Z AUTO 00000KT 10SM FEW048 SCT120 22/19 A2991 330 84 1300 000/00 RMK AO2 RAE16 P0000
63870K0J4 0J420160531182512005/31/16 18:25:31  5-MIN K0J4 312325Z AUTO 00000KT 10SM FEW050 SCT110 22/19 A2990 330 84 1300 000/00 RMK AO2 RAE16 P0000
63870K0J4 0J420160531183011305/31/16 18:30:31  5-MIN K0J4 312330Z AUTO 21005KT 10SM FEW050 22/19 A2990 330 84 1300 210/05 RMK AO2 RAE16 P0000
63870K0J4 0J420160531183511305/31/16 18:35:31  5-MIN K0J4 312335Z AUTO 20004KT 10SM FEW050 23/19 A2990 340 81 1400 200/04 RMK AO2 RAE16 P0000
63870K0J4 0J420160531184011005/31/16 18:40:31  5-MIN K0J4 312340Z AUTO 00000KT 10SM CLR 23/19 A2990 330 81 1400 000/00 RMK AO2 RAE16 P0000
63870K0J4 0J420160531184511005/31/16 18:45:31  5-MIN K0J4 312345Z AUTO 00000KT 10SM CLR 23/19 A2991 330 81 1300 000/00 RMK AO2 RAE16 P0000
63870K0J4 0J420160531185011005/31/16 18:50:31  5-MIN K0J4 312350Z AUTO 00000KT 10SM CLR 22/19 A2991 320 84 1300 000/00 RMK AO2 RAE16 P0000
63870K0J4 0J420160531185515105/31/16 18:55:31  5-MIN K0J4 312355Z AUTO 00000KT 10SM CLR 22/19 A2991 330 84 1300 000/00 RMK AO2 RAE16 SLP124 P0000 60004 T02220194 10328 20222 56006
63870K0J4 0J420160531190009805/31/16 19:00:31  5-MIN K0J4 010000Z AUTO 18003KT 10SM CLR 22/19 A2991 330 84 1300 180/03 RMK AO2
63870K0J4 0J420160531190509805/31/16 19:05:31  5-MIN K0J4 010005Z AUTO 18003KT 10SM CLR 23/19 A2991 330 81 1300 180/03 RMK AO2
63870K0J4 0J420160531191009805/31/16 19:10:31  5-MIN K0J4 010010Z AUTO 00000KT 10SM CLR 23/19 A2991 330 78 1300 000/00 RMK AO2
63870K0J4 0J420160531191509805/31/16 19:15:31  5-MIN K0J4 010015Z AUTO 00000KT 10SM CLR 23/19 A2991 320 78 1300 000/00 RMK AO2
63870K0J4 0J420160531192009805/31/16 19:20:31  5-MIN K0J4 010020Z AUTO 00000KT 10SM CLR 23/19 A2991 320 81 1300 000/00 RMK AO2
63870K0J4 0J420160531192509805/31/16 19:25:31  5-MIN K0J4 010025Z AUTO 00000KT 10SM CLR 23/19 A2992 320 81 1300 000/00 RMK AO2
63870K0J4 0J420160531193009805/31/16 19:30:31  5-MIN K0J4 010030Z AUTO 23003KT 10SM CLR 22/19 A2992 310 84 1300 230/03 RMK AO2
63870K0J4 0J420160531193509805/31/16 19:35:31  5-MIN K0J4 010035Z AUTO 24004KT 10SM CLR 22/20 A2992 310 90 1200 240/04 RMK AO2
63870K0J4 0J420160531194009805/31/16 19:40:31  5-MIN K0J4 010040Z AUTO 25004KT 10SM CLR 22/20 A2993 310 90 1200 250/04 RMK AO2
63870K0J4 0J420160531194509805/31/16 19:45:31  5-MIN K0J4 010045Z AUTO 24003KT 10SM CLR 22/20 A2993 310 90 1200 240/03 RMK AO2
63870K0J4 0J420160531195009805/31/16 19:50:31  5-MIN K0J4 010050Z AUTO 00000KT 10SM CLR 22/20 A2993 310 90 1200 000/00 RMK AO2
63870K0J4 0J420160531195511505/31/16 19:55:31  5-MIN K0J4 010055Z AUTO 05008KT 10SM CLR 22/19 A2994 300 87 1200 050/08 RMK AO2 SLP135 T02170194
63870K0J4 0J420160531200009805/31/16 20:00:31  5-MIN K0J4 010100Z AUTO 00000KT 10SM CLR 22/19 A2993 310 84 1300 000/00 RMK AO2
63870K0J4 0J420160531200509805/31/16 20:05:31  5-MIN K0J4 010105Z AUTO 00000KT 10SM CLR 22/19 A2993 300 87 1200 000/00 RMK AO2
63870K0J4 0J420160531201009805/31/16 20:10:31  5-MIN K0J4 010110Z AUTO 03008KT 10SM CLR 21/19 A2994 300 90 1100 030/08 RMK AO2
63870K0J4 0J420160531201509805/31/16 20:15:31  5-MIN K0J4 010115Z AUTO 03005KT 10SM CLR 21/19 A2995 290 90 1100 030/05 RMK AO2
63870K0J4 0J420160531202009805/31/16 20:20:31  5-MIN K0J4 010120Z AUTO 00000KT 10SM CLR 21/19 A2994 300 90 1100 000/00 RMK AO2
63870K0J4 0J420160531202509805/31/16 20:25:31  5-MIN K0J4 010125Z AUTO 00000KT 10SM CLR 22/19 A2994 300 87 1200 000/00 RMK AO2
63870K0J4 0J420160531203009805/31/16 20:30:31  5-MIN K0J4 010130Z AUTO 00000KT 10SM CLR 21/19 A2994 300 90 1100 000/00 RMK AO2
63870K0J4 0J420160531203509805/31/16 20:35:31  5-MIN K0J4 010135Z AUTO 00000KT 10SM CLR 21/19 A2994 300 90 1100 000/00 RMK AO2
63870K0J4 0J420160531204009805/31/16 20:40:31  5-MIN K0J4 010140Z AUTO 00000KT 10SM CLR 21/19 A2994 300 90 1100 000/00 RMK AO2
63870K0J4 0J420160531204509805/31/16 20:45:31  5-MIN K0J4 010145Z AUTO 00000KT 10SM CLR 21/19 A2994 300 90 1100 000/00 RMK AO2
63870K0J4 0J420160531205009805/31/16 20:50:31  5-MIN K0J4 010150Z AUTO 00000KT 10SM CLR 21/19 A2994 300 90 1100 000/00 RMK AO2
63870K0J4 0J420160531205511505/31/16 20:55:31  5-MIN K0J4 010155Z AUTO 00000KT 10SM CLR 21/19 A2995 290 90 1100 000/00 RMK AO2 SLP136 T02110194
63870K0J4 0J420160531210009805/31/16 21:00:31  5-MIN K0J4 010200Z AUTO 00000KT 10SM CLR 21/19 A2995 290 93 1000 000/00 RMK AO2
63870K0J4 0J420160531210509805/31/16 21:05:31  5-MIN K0J4 010205Z AUTO 00000KT 10SM CLR 21/19 A2995 290 90 1100 000/00 RMK AO2
63870K0J4 0J420160531211009805/31/16 21:10:31  5-MIN K0J4 010210Z AUTO 00000KT 10SM CLR 21/19 A2995 290 93 1000 000/00 RMK AO2
63870K0J4 0J420160531211509805/31/16 21:15:31  5-MIN K0J4 010215Z AUTO 22003KT 10SM CLR 21/19 A2995 290 93 1000 220/03 RMK AO2
63870K0J4 0J420160531212009805/31/16 21:20:31  5-MIN K0J4 010220Z AUTO 00000KT 10SM CLR 21/19 A2995 290 93 1000 000/00 RMK AO2
63870K0J4 0J420160531212509805/31/16 21:25:31  5-MIN K0J4 010225Z AUTO 00000KT 10SM CLR 21/19 A2996 280 93 1000 000/00 RMK AO2
63870K0J4 0J420160531213009805/31/16 21:30:31  5-MIN K0J4 010230Z AUTO 00000KT 10SM CLR 21/19 A2996 280 93 1000 000/00 RMK AO2
63870K0J4 0J420160531213509805/31/16 21:35:31  5-MIN K0J4 010235Z AUTO 00000KT 10SM CLR 21/19 A2997 270 90 1000 000/00 RMK AO2
63870K0J4 0J420160531214009805/31/16 21:40:31  5-MIN K0J4 010240Z AUTO 00000KT 10SM CLR 21/19 A2997 270 93 1000 000/00 RMK AO2
63870K0J4 0J420160531214509805/31/16 21:45:31  5-MIN K0J4 010245Z AUTO 00000KT 10SM CLR 21/19 A2997 270 93 1000 000/00 RMK AO2
63870K0J4 0J420160531215009805/31/16 21:50:31  5-MIN K0J4 010250Z AUTO 00000KT 10SM CLR 21/19 A2997 270 93 1000 000/00 RMK AO2
63870K0J4 0J420160531215512105/31/16 21:55:31  5-MIN K0J4 010255Z AUTO 00000KT 10SM CLR 21/19 A2998 270 93 1000 000/00 RMK AO2 SLP146 T02060194 58007
63870K0J4 0J420160531220009805/31/16 22:00:31  5-MIN K0J4 010300Z AUTO 00000KT 10SM CLR 21/19 A2998 260 93 1000 000/00 RMK AO2
63870K0J4 0J420160531220509805/31/16 22:05:31  5-MIN K0J4 010305Z AUTO 00000KT 10SM CLR 21/19 A2998 260 93 1000 000/00 RMK AO2
63870K0J4 0J420160531221009805/31/16 22:10:31  5-MIN K0J4 010310Z AUTO 00000KT 10SM CLR 21/19 A2998 260 93 1000 000/00 RMK AO2
63870K0J4 0J420160531221509805/31/16 22:15:31  5-MIN K0J4 010315Z AUTO 00000KT 10SM CLR 21/19 A2999 250 93 1000 000/00 RMK AO2
63870K0J4 0J420160531222009805/31/16 22:20:31  5-MIN K0J4 010320Z AUTO 00000KT 10SM CLR 21/19 A2999 250 93 1000 000/00 RMK AO2
63870K0J4 0J420160531222509805/31/16 22:25:31  5-MIN K0J4 010325Z AUTO 02003KT 10SM CLR 21/19 A2999 260 93 1000 020/03 RMK AO2
63870K0J4 0J420160531223009805/31/16 22:30:31  5-MIN K0J4 010330Z AUTO 00000KT 10SM CLR 21/19 A2999 250 93 1000 000/00 RMK AO2
63870K0J4 0J420160531223509805/31/16 22:35:31  5-MIN K0J4 010335Z AUTO 00000KT 10SM CLR 21/19 A2999 250 93 1000 000/00 RMK AO2
63870K0J4 0J420160531224009805/31/16 22:40:31  5-MIN K0J4 010340Z AUTO 00000KT 10SM CLR 21/19 A2999 250 93 1000 000/00 RMK AO2
63870K0J4 0J420160531224509805/31/16 22:45:31  5-MIN K0J4 010345Z AUTO 00000KT 10SM CLR 21/19 A2999 250 93 1000 000/00 RMK AO2
63870K0J4 0J420160531225009805/31/16 22:50:31  5-MIN K0J4 010350Z AUTO 00000KT 10SM CLR 21/19 A2999 250 90 1000 000/00 RMK AO2
63870K0J4 0J420160531225511405/31/16 22:55:31  5-MIN K0J4 010355Z AUTO 00000KT 10SM CLR 20/19 A2999 250 93 900 000/00 RMK AO2 SLP151 T02000189
63870K0J4 0J420160531230009705/31/16 23:00:31  5-MIN K0J4 010400Z AUTO 00000KT 10SM CLR 20/19 A2999 250 93 900 000/00 RMK AO2
63870K0J4 0J420160531230509705/31/16 23:05:31  5-MIN K0J4 010405Z AUTO 00000KT 10SM CLR 20/19 A2999 250 93 900 000/00 RMK AO2
63870K0J4 0J420160531231009705/31/16 23:10:31  5-MIN K0J4 010410Z AUTO 00000KT 10SM CLR 20/19 A2999 250 93 900 000/00 RMK AO2
63870K0J4 0J420160531231509705/31/16 23:15:31  5-MIN K0J4 010415Z AUTO 00000KT 10SM CLR 19/18 A2998 260 93 900 000/00 RMK AO2
63870K0J4 0J420160531232009705/31/16 23:20:31  5-MIN K0J4 010420Z AUTO 00000KT 10SM CLR 19/18 A2998 260 93 900 000/00 RMK AO2
63870K0J4 0J420160531232509705/31/16 23:25:31  5-MIN K0J4 010425Z AUTO 00000KT 10SM CLR 20/19 A2999 260 93 900 000/00 RMK AO2
63870K0J4 0J420160531233009705/31/16 23:30:31  5-MIN K0J4 010430Z AUTO 00000KT 10SM CLR 20/19 A2998 260 93 900 000/00 RMK AO2
63870K0J4 0J420160531233509705/31/16 23:35:31  5-MIN K0J4 010435Z AUTO 21004KT 10SM CLR 20/19 A2998 260 93 900 210/04 RMK AO2
63870K0J4 0J420160531234009605/31/16 23:40:31  5-MIN K0J4 010440Z AUTO 21004KT 9SM CLR 19/19 A2999 260 97 900 210/04 RMK AO2
63870K0J4 0J420160531234509605/31/16 23:45:31  5-MIN K0J4 010445Z AUTO 22003KT 8SM CLR 19/19 A2999 260 97 900 220/03 RMK AO2
63870K0J4 0J420160531235009605/31/16 23:50:31  5-MIN K0J4 010450Z AUTO 22003KT 9SM CLR 20/19 A2998 260 93 900 220/03 RMK AO2
63870K0J4 0J420160531235512305/31/16 23:55:31  5-MIN K0J4 010455Z AUTO 00000KT 9SM CLR 20/19 A2998 260 97 900 000/00 RMK AO2 SLP148 T02000194 403280194
