94790KART ART20160601000010806/01/16 00:00:31  5-MIN KART 010500Z AUTO 02007KT 10SM CLR 12/06 A3010 170 66 -100 040/07 RMK AO2 T01170056
94790KART ART20160601000510806/01/16 00:05:31  5-MIN KART 010505Z AUTO 03007KT 10SM CLR 11/06 A3010 170 68 -200 040/07 RMK AO2 T01110056
94790KART ART20160601001010706/01/16 00:10:31  5-MIN KART 010510Z AUTO 04006KT 7SM CLR 11/06 A3010 160 68 -200 050/06 RMK AO2 T01110056
94790KART ART20160601001511006/01/16 00:15:31  5-MIN KART 010515Z AUTO 02007KT 5SM HZ CLR 11/06 A3010 160 68 -200 030/07 RMK AO2 T01110056
94790KART ART20160601002010706/01/16 00:20:31  5-MIN KART 010520Z AUTO 03006KT 7SM CLR 11/06 A3010 160 68 -200 050/06 RMK AO2 T01110056
94790KART ART20160601002511006/01/16 00:25:31  5-MIN KART 010525Z AUTO 04006KT 6SM HZ CLR 11/06 A3010 160 71 -200 050/06 RMK AO2 T01060056
94790KART ART20160601003011006/01/16 00:30:31  5-MIN KART 010530Z AUTO 04005KT 4SM HZ CLR 10/06 A3010 160 74 -300 060/05 RMK AO2 T01000056
94790KART ART20160601003511006/01/16 00:35:31  5-MIN KART 010535Z AUTO 05004KT 5SM HZ CLR 09/06 A3010 160 76 -400 060/04 RMK AO2 T00940056
94790KART ART20160601004010806/01/16 00:40:31  5-MIN KART 010540Z AUTO 09003KT 10SM CLR 09/06 A3011 160 76 -400 100/03 RMK AO2 T00940056
94790KART ART20160601004510806/01/16 00:45:31  5-MIN KART 010545Z AUTO 06004KT 10SM CLR 09/06 A3010 160 76 -400 070/04 RMK AO2 T00940056
94790KART ART20160601005013306/01/16 00:50:31  5-MIN KART 010550Z AUTO 05004KT 10SM CLR 09/06 A3010 160 79 -400 060/04 RMK AO2 SLP191 T00890056 10206 20089 51029
94790KART ART20160601005513306/01/16 00:55:31  5-MIN KART 010555Z AUTO 05004KT 10SM CLR 08/06 A3010 160 82 -500 060/04 RMK AO2 SLP190 T00830056 10206 20083 51029
94790KART ART20160601010010806/01/16 01:00:31  5-MIN KART 010600Z AUTO 05003KT 10SM CLR 09/06 A3010 160 79 -400 070/03 RMK AO2 T00890056
94790KART ART20160601010510806/01/16 01:05:31  5-MIN KART 010605Z AUTO 04003KT 10SM CLR 09/06 A3011 160 79 -400 060/03 RMK AO2 T00890056
94790KART ART20160601011010806/01/16 01:10:31  5-MIN KART 010610Z AUTO 04003KT 10SM CLR 09/06 A3011 160 79 -400 060/03 RMK AO2 T00890056
94790KART ART20160601011510806/01/16 01:15:31  5-MIN KART 010615Z AUTO 06003KT 10SM CLR 09/06 A3011 160 79 -400 070/03 RMK AO2 T00890056
94790KART ART20160601012010806/01/16 01:20:31  5-MIN KART 010620Z AUTO 00000KT 10SM CLR 09/06 A3011 160 79 -400 000/00 RMK AO2 T00890056
94790KART ART20160601012510806/01/16 01:25:31  5-MIN KART 010625Z AUTO 00000KT 10SM CLR 08/06 A3011 160 82 -500 000/00 RMK AO2 T00830056
94790KART ART20160601013010806/01/16 01:30:31  5-MIN KART 010630Z AUTO 00000KT 10SM CLR 08/06 A3011 160 86 -600 000/00 RMK AO2 T00780056
94790KART ART20160601013510706/01/16 01:35:31  5-MIN KART 010635Z AUTO 06003KT 9SM CLR 08/06 A3010 160 82 -500 070/03 RMK AO2 T00830056
94790KART ART20160601014010706/01/16 01:40:31  5-MIN KART 010640Z AUTO 08003KT 9SM CLR 08/06 A3011 160 82 -500 090/03 RMK AO2 T00830056
94790KART ART20160601014510806/01/16 01:45:31  5-MIN KART 010645Z AUTO 00000KT 10SM CLR 08/06 A3011 160 86 -600 000/00 RMK AO2 T00780056
94790KART ART20160601015011506/01/16 01:50:31  5-MIN KART 010650Z AUTO 07003KT 10SM CLR 08/06 A3011 160 86 -600 080/03 RMK AO2 SLP192 T00780056
94790KART ART20160601015511506/01/16 01:55:31  5-MIN KART 010655Z AUTO 05004KT 10SM CLR 08/06 A3010 160 86 -600 070/04 RMK AO2 SLP191 T00780056
94790KART ART20160601020010806/01/16 02:00:31  5-MIN KART 010700Z AUTO 06004KT 10SM CLR 08/06 A3010 160 86 -600 080/04 RMK AO2 T00780056
94790KART ART20160601020510806/01/16 02:05:31  5-MIN KART 010705Z AUTO 06004KT 10SM CLR 08/06 A3010 160 86 -600 070/04 RMK AO2 T00780056
94790KART ART20160601021010806/01/16 02:10:31  5-MIN KART 010710Z AUTO 05003KT 10SM CLR 08/06 A3010 160 86 -600 060/03 RMK AO2 T00780056
94790KART ART20160601021510806/01/16 02:15:31  5-MIN KART 010715Z AUTO 06003KT 10SM CLR 08/05 A3011 160 82 -600 080/03 RMK AO2 T00780050
94790KART ART20160601022010806/01/16 02:20:31  5-MIN KART 010720Z AUTO 08003KT 10SM CLR 08/06 A3011 160 86 -600 100/03 RMK AO2 T00780056
94790KART ART20160601022510806/01/16 02:25:31  5-MIN KART 010725Z AUTO 08003KT 10SM CLR 08/06 A3010 160 86 -600 090/03 RMK AO2 T00780056
94790KART ART20160601023010706/01/16 02:30:31  5-MIN KART 010730Z AUTO 08003KT 9SM CLR 08/06 A3010 160 86 -600 090/03 RMK AO2 T00780056
94790KART ART20160601023510706/01/16 02:35:31  5-MIN KART 010735Z AUTO 00000KT 9SM CLR 07/06 A3011 160 89 -700 000/00 RMK AO2 T00720056
94790KART ART20160601024010806/01/16 02:40:31  5-MIN KART 010740Z AUTO 10003KT 10SM CLR 07/06 A3011 160 89 -600 110/03 RMK AO2 T00720056
94790KART ART20160601024510806/01/16 02:45:31  5-MIN KART 010745Z AUTO 09003KT 10SM CLR 07/06 A3011 160 89 -700 110/03 RMK AO2 T00720056
94790KART ART20160601025011506/01/16 02:50:31  5-MIN KART 010750Z AUTO 08003KT 10SM CLR 07/06 A3011 160 89 -700 090/03 RMK AO2 SLP193 T00720056
94790KART ART20160601025511506/01/16 02:55:31  5-MIN KART 010755Z AUTO 08003KT 10SM CLR 07/06 A3011 160 89 -700 090/03 RMK AO2 SLP194 T00720056
94790KART ART20160601030010806/01/16 03:00:31  5-MIN KART 010800Z AUTO 08003KT 10SM CLR 07/06 A3011 160 89 -700 100/03 RMK AO2 T00720056
94790KART ART20160601030510806/01/16 03:05:31  5-MIN KART 010805Z AUTO 07003KT 10SM CLR 07/06 A3011 160 89 -700 080/03 RMK AO2 T00720056
94790KART ART20160601031010806/01/16 03:10:31  5-MIN KART 010810Z AUTO 07003KT 10SM CLR 07/06 A3011 160 89 -700 090/03 RMK AO2 T00720056
94790KART ART20160601031510806/01/16 03:15:31  5-MIN KART 010815Z AUTO 06003KT 10SM CLR 07/06 A3011 160 89 -700 070/03 RMK AO2 T00720056
94790KART ART20160601032010806/01/16 03:20:31  5-MIN KART 010820Z AUTO 06003KT 10SM CLR 07/06 A3011 150 89 -700 070/03 RMK AO2 T00720056
94790KART ART20160601032510806/01/16 03:25:31  5-MIN KART 010825Z AUTO 05004KT 10SM CLR 07/06 A3011 150 89 -700 070/04 RMK AO2 T00720056
94790KART ART20160601033010806/01/16 03:30:31  5-MIN KART 010830Z AUTO 08003KT 10SM CLR 07/06 A3011 150 93 -700 090/03 RMK AO2 T00670056
94790KART ART20160601033510806/01/16 03:35:31  5-MIN KART 010835Z AUTO 10003KT 10SM CLR 07/06 A3011 150 93 -700 110/03 RMK AO2 T00670056
94790KART ART20160601034011106/01/16 03:40:31  5-MIN KART 010840Z AUTO 09003KT 10SM FEW028 07/06 A3011 150 93 -700 100/03 RMK AO2 T00670056
94790KART ART20160601034511106/01/16 03:45:31  5-MIN KART 010845Z AUTO 08003KT 10SM SCT028 07/06 A3012 150 89 -700 090/03 RMK AO2 T00720056
94790KART ART20160601035012406/01/16 03:50:31  5-MIN KART 010850Z AUTO 06003KT 10SM SCT028 07/06 A3012 150 89 -700 070/03 RMK AO2 SLP196 T00720056 51007
94790KART ART20160601035512406/01/16 03:55:31  5-MIN KART 010855Z AUTO 06003KT 10SM SCT028 07/06 A3012 150 89 -700 080/03 RMK AO2 SLP197 T00720056 51007
94790KART ART20160601040011106/01/16 04:00:31  5-MIN KART 010900Z AUTO 06004KT 10SM SCT028 07/06 A3012 150 89 -700 080/04 RMK AO2 T00720056
94790KART ART20160601040511106/01/16 04:05:31  5-MIN KART 010905Z AUTO 06005KT 10SM FEW028 07/06 A3012 150 89 -700 070/05 RMK AO2 T00720056
94790KART ART20160601041011106/01/16 04:10:31  5-MIN KART 010910Z AUTO 05004KT 10SM FEW028 07/06 A3012 150 93 -700 060/04 RMK AO2 T00670056
94790KART ART20160601041511106/01/16 04:15:31  5-MIN KART 010915Z AUTO 05003KT 10SM FEW028 07/06 A3012 150 93 -700 070/03 RMK AO2 T00670056
94790KART ART20160601042010806/01/16 04:20:31  5-MIN KART 010920Z AUTO 05005KT 10SM CLR 07/06 A3012 140 89 -700 060/05 RMK AO2 T00720056
94790KART ART20160601042510806/01/16 04:25:31  5-MIN KART 010925Z AUTO 06004KT 10SM CLR 07/06 A3012 140 89 -700 070/04 RMK AO2 T00720056
94790KART ART20160601043010806/01/16 04:30:31  5-MIN KART 010930Z AUTO 05004KT 10SM CLR 07/06 A3013 140 89 -700 070/04 RMK AO2 T00720056
94790KART ART20160601043510806/01/16 04:35:31  5-MIN KART 010935Z AUTO 07004KT 10SM CLR 07/06 A3013 140 89 -700 080/04 RMK AO2 T00720056
94790KART ART20160601044010806/01/16 04:40:31  5-MIN KART 010940Z AUTO 08003KT 10SM CLR 07/06 A3013 140 89 -700 100/03 RMK AO2 T00720056
94790KART ART20160601044510806/01/16 04:45:31  5-MIN KART 010945Z AUTO 10003KT 10SM CLR 07/06 A3013 130 93 -700 110/03 RMK AO2 T00720061
94790KART ART20160601045011506/01/16 04:50:31  5-MIN KART 010950Z AUTO 10003KT 10SM CLR 07/06 A3013 130 89 -700 110/03 RMK AO2 SLP203 T00720056
94790KART ART20160601045511506/01/16 04:55:31  5-MIN KART 010955Z AUTO 09003KT 10SM CLR 07/06 A3014 130 93 -700 100/03 RMK AO2 SLP204 T00720061
94790KART ART20160601050010806/01/16 05:00:31  5-MIN KART 011000Z AUTO 00000KT 10SM CLR 07/06 A3014 120 93 -700 000/00 RMK AO2 T00720061
94790KART ART20160601050510806/01/16 05:05:31  5-MIN KART 011005Z AUTO 00000KT 10SM CLR 07/06 A3015 120 93 -700 000/00 RMK AO2 T00720061
94790KART ART20160601051010806/01/16 05:10:31  5-MIN KART 011010Z AUTO 00000KT 10SM CLR 07/06 A3015 120 93 -700 000/00 RMK AO2 T00720061
94790KART ART20160601051510806/01/16 05:15:31  5-MIN KART 011015Z AUTO 06003KT 10SM CLR 07/06 A3015 120 93 -700 070/03 RMK AO2 T00720061
94790KART ART20160601052010806/01/16 05:20:31  5-MIN KART 011020Z AUTO 05003KT 10SM CLR 08/06 A3015 120 89 -600 060/03 RMK AO2 T00780061
94790KART ART20160601052510806/01/16 05:25:31  5-MIN KART 011025Z AUTO 07003KT 10SM CLR 08/06 A3015 120 89 -600 080/03 RMK AO2 T00780061
94790KART ART20160601053010806/01/16 05:30:31  5-MIN KART 011030Z AUTO 00000KT 10SM CLR 08/06 A3015 120 86 -600 000/00 RMK AO2 T00830061
94790KART ART20160601053510806/01/16 05:35:31  5-MIN KART 011035Z AUTO 00000KT 10SM CLR 08/07 A3015 120 89 -600 000/00 RMK AO2 T00830067
94790KART ART20160601054010806/01/16 05:40:31  5-MIN KART 011040Z AUTO 00000KT 10SM CLR 09/07 A3015 120 89 -500 000/00 RMK AO2 T00890072
94790KART ART20160601054510806/01/16 05:45:31  5-MIN KART 011045Z AUTO 00000KT 10SM CLR 09/07 A3015 120 86 -400 000/00 RMK AO2 T00940072
94790KART ART20160601055011506/01/16 05:50:31  5-MIN KART 011050Z AUTO 06003KT 10SM CLR 10/07 A3015 120 83 -400 080/03 RMK AO2 SLP208 T01000072
94790KART ART20160601055511506/01/16 05:55:31  5-MIN KART 011055Z AUTO 07003KT 10SM CLR 10/08 A3015 120 86 -400 080/03 RMK AO2 SLP209 T01000078
94790KART ART20160601060010806/01/16 06:00:31  5-MIN KART 011100Z AUTO 06004KT 10SM CLR 10/08 A3015 110 86 -400 070/04 RMK AO2 T01000078
94790KART ART20160601060510806/01/16 06:05:31  5-MIN KART 011105Z AUTO 05004KT 10SM CLR 11/08 A3015 120 83 -300 070/04 RMK AO2 T01060078
94790KART ART20160601061010806/01/16 06:10:31  5-MIN KART 011110Z AUTO 05004KT 10SM CLR 11/08 A3015 120 83 -300 070/04 RMK AO2 T01060078
94790KART ART20160601061510806/01/16 06:15:31  5-MIN KART 011115Z AUTO 06003KT 10SM CLR 11/08 A3015 120 80 -200 070/03 RMK AO2 T01110078
94790KART ART20160601062010806/01/16 06:20:31  5-MIN KART 011120Z AUTO 05004KT 10SM CLR 11/08 A3015 120 80 -200 070/04 RMK AO2 T01110078
94790KART ART20160601062510806/01/16 06:25:31  5-MIN KART 011125Z AUTO 07005KT 10SM CLR 12/08 A3015 120 77 -200 080/05 RMK AO2 T01170078
94790KART ART20160601063010806/01/16 06:30:31  5-MIN KART 011130Z AUTO 06005KT 10SM CLR 12/08 A3015 120 77 -100 070/05 RMK AO2 T01220083
94790KART ART20160601063510806/01/16 06:35:31  5-MIN KART 011135Z AUTO 05006KT 10SM CLR 12/08 A3015 120 77 -100 060/06 RMK AO2 T01220083
94790KART ART20160601064010506/01/16 06:40:31  5-MIN KART 011140Z AUTO 06007KT 10SM CLR 13/08 A3015 120 71 0 070/07 RMK AO2 T01280078
94790KART ART20160601064510506/01/16 06:45:31  5-MIN KART 011145Z AUTO 05006KT 10SM CLR 13/08 A3015 120 71 0 060/06 RMK AO2 T01280078
94790KART ART20160601065013006/01/16 06:50:31  5-MIN KART 011150Z AUTO 06007KT 10SM CLR 13/08 A3015 120 71 0 070/07 RMK AO2 SLP208 T01330083 10133 20067 53006
94790KART ART20160601065513006/01/16 06:55:31  5-MIN KART 011155Z AUTO 06009KT 10SM CLR 13/08 A3015 120 69 0 070/09 RMK AO2 SLP208 T01330078 10133 20067 53006
94790KART ART20160601070010506/01/16 07:00:31  5-MIN KART 011200Z AUTO 06008KT 10SM CLR 13/08 A3016 110 69 0 070/08 RMK AO2 T01330078
94790KART ART20160601070510506/01/16 07:05:31  5-MIN KART 011205Z AUTO 06007KT 10SM CLR 13/08 A3016 110 69 0 070/07 RMK AO2 T01330078
94790KART ART20160601071010506/01/16 07:10:31  5-MIN KART 011210Z AUTO 07007KT 10SM CLR 13/08 A3016 110 69 0 080/07 RMK AO2 T01330078
94790KART ART20160601071510506/01/16 07:15:31  5-MIN KART 011215Z AUTO 06008KT 10SM CLR 14/08 A3016 110 66 0 080/08 RMK AO2 T01390078
94790KART ART20160601072010506/01/16 07:20:31  5-MIN KART 011220Z AUTO 06009KT 10SM CLR 14/08 A3015 110 66 0 080/09 RMK AO2 T01390078
94790KART ART20160601072510706/01/16 07:25:31  5-MIN KART 011225Z AUTO 05010KT 10SM CLR 14/08 A3015 120 66 100 070/10 RMK AO2 T01390078
94790KART ART20160601073010506/01/16 07:30:31  5-MIN KART 011230Z AUTO 06008KT 10SM CLR 14/08 A3016 110 66 0 070/08 RMK AO2 T01390078
94790KART ART20160601073510506/01/16 07:35:31  5-MIN KART 011235Z AUTO 05010KT 10SM CLR 14/08 A3015 110 66 0 060/10 RMK AO2 T01390078
94790KART ART20160601074010506/01/16 07:40:31  5-MIN KART 011240Z AUTO 05007KT 10SM CLR 14/08 A3016 110 69 0 060/07 RMK AO2 T01390083
94790KART ART20160601074510706/01/16 07:45:31  5-MIN KART 011245Z AUTO 04008KT 10SM CLR 14/08 A3016 110 66 100 060/08 RMK AO2 T01440083
94790KART ART20160601075011406/01/16 07:50:31  5-MIN KART 011250Z AUTO 05007KT 10SM CLR 14/08 A3015 120 66 100 060/07 RMK AO2 SLP207 T01440083
94790KART ART20160601075511406/01/16 07:55:31  5-MIN KART 011255Z AUTO 07006KT 10SM CLR 15/09 A3015 120 66 200 090/06 RMK AO2 SLP208 T01500089
94790KART ART20160601080010706/01/16 08:00:31  5-MIN KART 011300Z AUTO 06008KT 10SM CLR 15/09 A3015 120 66 200 070/08 RMK AO2 T01500089
94790KART ART20160601080510706/01/16 08:05:31  5-MIN KART 011305Z AUTO 04007KT 10SM CLR 15/09 A3015 120 66 200 060/07 RMK AO2 T01500089
94790KART ART20160601081010706/01/16 08:10:31  5-MIN KART 011310Z AUTO 07006KT 10SM CLR 15/09 A3015 120 66 200 080/06 RMK AO2 T01500089
94790KART ART20160601081510706/01/16 08:15:31  5-MIN KART 011315Z AUTO 06007KT 10SM CLR 15/09 A3015 120 66 200 070/07 RMK AO2 T01500089
94790KART ART20160601082010706/01/16 08:20:31  5-MIN KART 011320Z AUTO 07007KT 10SM CLR 16/09 A3015 120 64 300 080/07 RMK AO2 T01560089
94790KART ART20160601082510706/01/16 08:25:31  5-MIN KART 011325Z AUTO 04007KT 10SM CLR 16/09 A3015 120 64 300 060/07 RMK AO2 T01560089
94790KART ART20160601083010706/01/16 08:30:31  5-MIN KART 011330Z AUTO 05006KT 10SM CLR 16/09 A3015 120 64 200 060/06 RMK AO2 T01560089
94790KART ART20160601083510706/01/16 08:35:31  5-MIN KART 011335Z AUTO 07005KT 10SM CLR 16/09 A3015 120 64 300 090/05 RMK AO2 T01610094
94790KART ART20160601084010706/01/16 08:40:31  5-MIN KART 011340Z AUTO 06007KT 10SM CLR 16/09 A3015 120 64 200 070/07 RMK AO2 T01560089
94790KART ART20160601084510706/01/16 08:45:31  5-MIN KART 011345Z AUTO 04007KT 10SM CLR 16/09 A3015 120 62 300 050/07 RMK AO2 T01610089
94790KART ART20160601085011406/01/16 08:50:31  5-MIN KART 011350Z AUTO 05006KT 10SM CLR 16/09 A3015 120 62 300 060/06 RMK AO2 SLP208 T01610089
94790KART ART20160601085511406/01/16 08:55:31  5-MIN KART 011355Z AUTO 04005KT 10SM CLR 16/09 A3015 120 64 300 050/05 RMK AO2 SLP208 T01610094
94790KART ART20160601090010706/01/16 09:00:31  5-MIN KART 011400Z AUTO 06006KT 10SM CLR 17/09 A3015 120 62 400 080/06 RMK AO2 T01670094
94790KART ART20160601090510706/01/16 09:05:31  5-MIN KART 011405Z AUTO 07006KT 10SM CLR 16/09 A3015 120 64 300 090/06 RMK AO2 T01610094
94790KART ART20160601091010706/01/16 09:10:31  5-MIN KART 011410Z AUTO 07004KT 10SM CLR 16/09 A3015 120 64 300 090/04 RMK AO2 T01610094
94790KART ART20160601091510706/01/16 09:15:31  5-MIN KART 011415Z AUTO 08005KT 10SM CLR 17/09 A3015 120 62 400 090/05 RMK AO2 T01670094
94790KART ART20160601092010706/01/16 09:20:31  5-MIN KART 011420Z AUTO VRB04KT 10SM CLR 17/09 A3015 120 62 400 VRB/04 RMK AO2 T01670094
94790KART ART20160601092510706/01/16 09:25:31  5-MIN KART 011425Z AUTO 07005KT 10SM CLR 17/10 A3015 120 62 400 080/05 RMK AO2 T01720100
94790KART ART20160601093010706/01/16 09:30:31  5-MIN KART 011430Z AUTO 07004KT 10SM CLR 17/10 A3014 120 62 500 080/04 RMK AO2 T01720100
94790KART ART20160601093510706/01/16 09:35:31  5-MIN KART 011435Z AUTO 04005KT 10SM CLR 17/09 A3014 120 62 400 050/05 RMK AO2 T01670094
94790KART ART20160601094010706/01/16 09:40:31  5-MIN KART 011440Z AUTO 01005KT 10SM CLR 18/10 A3014 120 60 500 020/05 RMK AO2 T01780100
94790KART ART20160601094510706/01/16 09:45:31  5-MIN KART 011445Z AUTO 36005KT 10SM CLR 18/10 A3014 130 60 500 010/05 RMK AO2 T01780100
94790KART ART20160601095012006/01/16 09:50:31  5-MIN KART 011450Z AUTO 07006KT 10SM CLR 18/10 A3014 130 60 500 080/06 RMK AO2 SLP204 T01780100 51012
94790KART ART20160601095512006/01/16 09:55:31  5-MIN KART 011455Z AUTO VRB04KT 10SM CLR 18/10 A3014 130 60 500 VRB/04 RMK AO2 SLP204 T01780100 51012
94790KART ART20160601100010706/01/16 10:00:31  5-MIN KART 011500Z AUTO 36006KT 10SM CLR 18/10 A3014 130 58 600 020/06 RMK AO2 T01830100
94790KART ART20160601100510706/01/16 10:05:31  5-MIN KART 011505Z AUTO 36006KT 10SM CLR 19/10 A3014 130 56 700 010/06 RMK AO2 T01890100
94790KART ART20160601101010706/01/16 10:10:31  5-MIN KART 011510Z AUTO 03005KT 10SM CLR 19/10 A3014 130 56 700 040/05 RMK AO2 T01890100
94790KART ART20160601101510706/01/16 10:15:31  5-MIN KART 011515Z AUTO VRB04KT 10SM CLR 19/11 A3014 130 58 700 VRB/04 RMK AO2 T01890106
94790KART ART20160601102010706/01/16 10:20:31  5-MIN KART 011520Z AUTO 36005KT 10SM CLR 19/11 A3014 130 56 700 020/05 RMK AO2 T01940106
94790KART ART20160601102510706/01/16 10:25:31  5-MIN KART 011525Z AUTO 02005KT 10SM CLR 20/11 A3013 130 54 800 040/05 RMK AO2 T02000106
94790KART ART20160601103010706/01/16 10:30:31  5-MIN KART 011530Z AUTO VRB03KT 10SM CLR 20/11 A3013 130 54 800 VRB/03 RMK AO2 T02000106
94790KART ART20160601103510706/01/16 10:35:31  5-MIN KART 011535Z AUTO VRB04KT 10SM CLR 19/11 A3014 130 56 700 VRB/04 RMK AO2 T01940106
94790KART ART20160601104010706/01/16 10:40:31  5-MIN KART 011540Z AUTO VRB04KT 10SM CLR 20/11 A3014 130 54 800 VRB/04 RMK AO2 T02000106
94790KART ART20160601104510706/01/16 10:45:31  5-MIN KART 011545Z AUTO 00000KT 10SM CLR 19/11 A3014 130 56 700 000/00 RMK AO2 T01940106
94790KART ART20160601105011406/01/16 10:50:31  5-MIN KART 011550Z AUTO 00000KT 10SM CLR 20/11 A3014 130 54 800 000/00 RMK AO2 SLP203 T02000106
94790KART ART20160601105511406/01/16 10:55:31  5-MIN KART 011555Z AUTO VRB03KT 10SM CLR 21/11 A3014 130 54 800 VRB/03 RMK AO2 SLP203 T02060111
94790KART ART20160601110010706/01/16 11:00:31  5-MIN KART 011600Z AUTO 07005KT 10SM CLR 21/11 A3013 130 52 900 090/05 RMK AO2 T02060106
94790KART ART20160601110510706/01/16 11:05:31  5-MIN KART 011605Z AUTO 14004KT 10SM CLR 20/11 A3013 140 54 800 150/04 RMK AO2 T02000106
94790KART ART20160601111010706/01/16 11:10:31  5-MIN KART 011610Z AUTO 00000KT 10SM CLR 19/11 A3013 140 56 700 000/00 RMK AO2 T01940106
94790KART ART20160601111510706/01/16 11:15:31  5-MIN KART 011615Z AUTO 01004KT 10SM CLR 21/11 A3013 140 54 900 020/04 RMK AO2 T02060111
94790KART ART20160601112010706/01/16 11:20:31  5-MIN KART 011620Z AUTO 09003KT 10SM CLR 21/11 A3013 140 52 900 100/03 RMK AO2 T02060106
94790KART ART20160601112510706/01/16 11:25:31  5-MIN KART 011625Z AUTO 13005KT 10SM CLR 20/11 A3012 140 56 800 140/05 RMK AO2 T02000111
94790KART ART20160601113010706/01/16 11:30:31  5-MIN KART 011630Z AUTO VRB04KT 10SM CLR 21/11 A3012 140 54 900 VRB/04 RMK AO2 T02060111
94790KART ART20160601113510706/01/16 11:35:31  5-MIN KART 011635Z AUTO 05005KT 10SM CLR 21/11 A3012 140 52 900 060/05 RMK AO2 T02060106
94790KART ART20160601114010706/01/16 11:40:31  5-MIN KART 011640Z AUTO 00000KT 10SM CLR 21/11 A3012 140 52 900 000/00 RMK AO2 T02060106
94790KART ART20160601114510706/01/16 11:45:31  5-MIN KART 011645Z AUTO 00000KT 10SM CLR 21/11 A3012 150 52 900 000/00 RMK AO2 T02060106
94790KART ART20160601115011406/01/16 11:50:31  5-MIN KART 011650Z AUTO 04004KT 10SM CLR 21/11 A3012 150 52 900 060/04 RMK AO2 SLP197 T02110111
94790KART ART20160601115511406/01/16 11:55:31  5-MIN KART 011655Z AUTO 01005KT 10SM CLR 21/11 A3012 150 52 900 020/05 RMK AO2 SLP197 T02110111
94790KART ART20160601120010806/01/16 12:00:31  5-MIN KART 011700Z AUTO 04004KT 10SM CLR 22/11 A3012 150 50 1000 060/04 RMK AO2 T02170111
94790KART ART20160601120510806/01/16 12:05:31  5-MIN KART 011705Z AUTO VRB03KT 10SM CLR 22/11 A3011 150 50 1000 VRB/03 RMK AO2 T02170111
94790KART ART20160601121010806/01/16 12:10:31  5-MIN KART 011710Z AUTO 31003KT 10SM CLR 22/11 A3011 150 49 1100 320/03 RMK AO2 T02220111
94790KART ART20160601121510806/01/16 12:15:31  5-MIN KART 011715Z AUTO 00000KT 10SM CLR 22/11 A3011 150 50 1000 000/00 RMK AO2 T02170111
94790KART ART20160601122010806/01/16 12:20:31  5-MIN KART 011720Z AUTO VRB04KT 10SM CLR 22/11 A3011 150 50 1000 VRB/04 RMK AO2 T02170111
94790KART ART20160601122510806/01/16 12:25:31  5-MIN KART 011725Z AUTO VRB03KT 10SM CLR 22/11 A3011 150 50 1000 VRB/03 RMK AO2 T02170111
94790KART ART20160601123010806/01/16 12:30:31  5-MIN KART 011730Z AUTO 11004KT 10SM CLR 22/11 A3011 160 49 1100 120/04 RMK AO2 T02220111
94790KART ART20160601123510806/01/16 12:35:31  5-MIN KART 011735Z AUTO 11003KT 10SM CLR 22/11 A3011 160 49 1100 120/03 RMK AO2 T02220111
94790KART ART20160601124010806/01/16 12:40:31  5-MIN KART 011740Z AUTO 05004KT 10SM CLR 22/11 A3010 160 49 1100 060/04 RMK AO2 T02220111
94790KART ART20160601124510806/01/16 12:45:31  5-MIN KART 011745Z AUTO 04006KT 10SM CLR 22/12 A3010 160 51 1100 050/06 RMK AO2 T02220117
94790KART ART20160601125013306/01/16 12:50:31  5-MIN KART 011750Z AUTO 00000KT 10SM CLR 22/11 A3010 170 50 1000 000/00 RMK AO2 SLP191 T02170111 10222 20128 58004
94790KART ART20160601125513306/01/16 12:55:31  5-MIN KART 011755Z AUTO 00000KT 10SM CLR 22/11 A3010 170 50 1000 000/00 RMK AO2 SLP190 T02170111 10222 20128 58004
94790KART ART20160601130010806/01/16 13:00:31  5-MIN KART 011800Z AUTO 00000KT 10SM CLR 22/11 A3010 170 49 1100 000/00 RMK AO2 T02220111
94790KART ART20160601130510806/01/16 13:05:31  5-MIN KART 011805Z AUTO 00000KT 10SM CLR 23/11 A3010 170 47 1200 000/00 RMK AO2 T02280111
94790KART ART20160601131010806/01/16 13:10:31  5-MIN KART 011810Z AUTO 07004KT 10SM CLR 22/12 A3009 170 51 1100 080/04 RMK AO2 T02220117
94790KART ART20160601131510806/01/16 13:15:31  5-MIN KART 011815Z AUTO 00000KT 10SM CLR 22/12 A3009 170 51 1100 000/00 RMK AO2 T02220117
94790KART ART20160601132010806/01/16 13:20:31  5-MIN KART 011820Z AUTO 09003KT 10SM CLR 22/12 A3009 170 51 1100 100/03 RMK AO2 T02220117
94790KART ART20160601132510806/01/16 13:25:31  5-MIN KART 011825Z AUTO 00000KT 10SM CLR 22/12 A3009 170 51 1100 000/00 RMK AO2 T02220117
94790KART ART20160601133010806/01/16 13:30:31  5-MIN KART 011830Z AUTO 28006KT 10SM CLR 22/12 A3009 170 52 1100 290/06 RMK AO2 T02220122
94790KART ART20160601133510806/01/16 13:35:31  5-MIN KART 011835Z AUTO 24006KT 10SM CLR 22/13 A3009 180 54 1100 260/06 RMK AO2 T02220128
94790KART ART20160601134010806/01/16 13:40:31  5-MIN KART 011840Z AUTO 26008KT 10SM CLR 22/13 A3009 170 56 1000 270/08 RMK AO2 T02170128
94790KART ART20160601134510806/01/16 13:45:31  5-MIN KART 011845Z AUTO 26008KT 10SM CLR 22/13 A3009 180 54 1100 270/08 RMK AO2 T02220128
94790KART ART20160601135011506/01/16 13:50:31  5-MIN KART 011850Z AUTO 26007KT 10SM CLR 22/13 A3009 180 54 1100 280/07 RMK AO2 SLP187 T02220128
94790KART ART20160601135511506/01/16 13:55:31  5-MIN KART 011855Z AUTO 25006KT 10SM CLR 23/13 A3008 180 55 1200 260/06 RMK AO2 SLP186 T02280133
94790KART ART20160601140010806/01/16 14:00:31  5-MIN KART 011900Z AUTO 26005KT 10SM CLR 23/13 A3008 180 51 1200 270/05 RMK AO2 T02330128
94790KART ART20160601140510706/01/16 14:05:31  5-MIN KART 011905Z AUTO 25005KT 9SM CLR 23/12 A3008 180 51 1200 260/05 RMK AO2 T02280122
94790KART ART20160601141010706/01/16 14:10:31  5-MIN KART 011910Z AUTO 26005KT 9SM CLR 23/12 A3008 180 51 1200 270/05 RMK AO2 T02280122
94790KART ART20160601141510806/01/16 14:15:31  5-MIN KART 011915Z AUTO 26006KT 10SM CLR 23/12 A3008 180 49 1200 270/06 RMK AO2 T02330122
94790KART ART20160601142010806/01/16 14:20:31  5-MIN KART 011920Z AUTO 26007KT 10SM CLR 24/13 A3008 180 49 1300 270/07 RMK AO2 T02390128
94790KART ART20160601142510806/01/16 14:25:31  5-MIN KART 011925Z AUTO 24005KT 10SM CLR 24/12 A3008 180 47 1300 250/05 RMK AO2 T02390122
94790KART ART20160601143010806/01/16 14:30:31  5-MIN KART 011930Z AUTO 23005KT 10SM CLR 23/12 A3008 180 49 1200 250/05 RMK AO2 T02330122
94790KART ART20160601143510806/01/16 14:35:31  5-MIN KART 011935Z AUTO 26007KT 10SM CLR 23/12 A3008 180 49 1200 270/07 RMK AO2 T02330122
94790KART ART20160601144010806/01/16 14:40:31  5-MIN KART 011940Z AUTO 27007KT 10SM CLR 24/13 A3008 180 49 1300 280/07 RMK AO2 T02390128
94790KART ART20160601144510806/01/16 14:45:31  5-MIN KART 011945Z AUTO 27007KT 10SM CLR 23/13 A3008 190 51 1200 290/07 RMK AO2 T02330128
94790KART ART20160601145011506/01/16 14:50:31  5-MIN KART 011950Z AUTO 25005KT 10SM CLR 23/12 A3007 190 49 1200 270/05 RMK AO2 SLP183 T02330122
94790KART ART20160601145511506/01/16 14:55:31  5-MIN KART 011955Z AUTO 27007KT 10SM CLR 23/12 A3007 190 49 1200 280/07 RMK AO2 SLP182 T02330122
94790KART ART20160601150010806/01/16 15:00:31  5-MIN KART 012000Z AUTO 30005KT 10SM CLR 23/12 A3007 190 49 1200 310/05 RMK AO2 T02330122
94790KART ART20160601150510806/01/16 15:05:31  5-MIN KART 012005Z AUTO 27005KT 10SM CLR 24/12 A3007 190 47 1300 280/05 RMK AO2 T02390122
94790KART ART20160601151010806/01/16 15:10:31  5-MIN KART 012010Z AUTO VRB04KT 10SM CLR 24/13 A3007 190 47 1400 VRB/04 RMK AO2 T02440128
94790KART ART20160601151510806/01/16 15:15:31  5-MIN KART 012015Z AUTO 29005KT 10SM CLR 24/12 A3007 200 47 1300 300/05 RMK AO2 T02390122
94790KART ART20160601152010806/01/16 15:20:31  5-MIN KART 012020Z AUTO 26005KT 10SM CLR 24/12 A3007 200 47 1300 270/05 RMK AO2 T02390122
94790KART ART20160601152510806/01/16 15:25:31  5-MIN KART 012025Z AUTO VRB06KT 10SM CLR 24/13 A3007 190 47 1400 VRB/06 RMK AO2 T02440128
94790KART ART20160601153010806/01/16 15:30:31  5-MIN KART 012030Z AUTO 27005KT 10SM CLR 24/13 A3007 200 47 1400 280/05 RMK AO2 T02440128
94790KART ART20160601153510806/01/16 15:35:31  5-MIN KART 012035Z AUTO VRB05KT 10SM CLR 24/12 A3007 200 47 1300 VRB/05 RMK AO2 T02390122
94790KART ART20160601154010806/01/16 15:40:31  5-MIN KART 012040Z AUTO 26005KT 10SM CLR 24/13 A3006 200 49 1300 280/05 RMK AO2 T02390128
94790KART ART20160601154510806/01/16 15:45:31  5-MIN KART 012045Z AUTO VRB04KT 10SM CLR 24/12 A3006 200 46 1400 VRB/04 RMK AO2 T02440122
94790KART ART20160601155012106/01/16 15:50:31  5-MIN KART 012050Z AUTO 23004KT 10SM CLR 24/12 A3006 200 46 1400 250/04 RMK AO2 SLP176 T02440122 58015
94790KART ART20160601155512006/01/16 15:55:31  5-MIN KART 012055Z AUTO 00000KT 9SM CLR 24/12 A3006 210 46 1400 000/00 RMK AO2 SLP175 T02440122 58015
94790KART ART20160601160010706/01/16 16:00:31  5-MIN KART 012100Z AUTO VRB04KT 9SM CLR 24/12 A3006 200 46 1400 VRB/04 RMK AO2 T02440122
94790KART ART20160601160510806/01/16 16:05:31  5-MIN KART 012105Z AUTO 24004KT 10SM CLR 24/12 A3006 200 46 1400 250/04 RMK AO2 T02440122
94790KART ART20160601161010806/01/16 16:10:31  5-MIN KART 012110Z AUTO 00000KT 10SM CLR 24/12 A3005 210 46 1400 000/00 RMK AO2 T02440122
94790KART ART20160601161510806/01/16 16:15:31  5-MIN KART 012115Z AUTO 30004KT 10SM CLR 24/12 A3005 210 44 1400 320/04 RMK AO2 T02440117
94790KART ART20160601162010806/01/16 16:20:31  5-MIN KART 012120Z AUTO 22004KT 10SM CLR 24/12 A3005 210 46 1400 240/04 RMK AO2 T02440122
94790KART ART20160601162510806/01/16 16:25:31  5-MIN KART 012125Z AUTO 26003KT 10SM CLR 24/12 A3005 210 46 1400 280/03 RMK AO2 T02440122
94790KART ART20160601163010806/01/16 16:30:31  5-MIN KART 012130Z AUTO 25004KT 10SM CLR 24/12 A3005 210 44 1400 270/04 RMK AO2 T02440117
94790KART ART20160601163510806/01/16 16:35:31  5-MIN KART 012135Z AUTO 24003KT 10SM CLR 24/12 A3005 210 46 1400 250/03 RMK AO2 T02440122
94790KART ART20160601164010806/01/16 16:40:31  5-MIN KART 012140Z AUTO 00000KT 10SM CLR 25/12 A3005 220 44 1500 000/00 RMK AO2 T02500122
94790KART ART20160601164510806/01/16 16:45:31  5-MIN KART 012145Z AUTO 27004KT 10SM CLR 25/12 A3004 220 43 1500 280/04 RMK AO2 T02500117
94790KART ART20160601165011506/01/16 16:50:31  5-MIN KART 012150Z AUTO 28003KT 10SM CLR 25/12 A3004 220 44 1500 290/03 RMK AO2 SLP170 T02500122
94790KART ART20160601165511506/01/16 16:55:31  5-MIN KART 012155Z AUTO 00000KT 10SM CLR 24/12 A3004 220 44 1400 000/00 RMK AO2 SLP170 T02440117
94790KART ART20160601170010806/01/16 17:00:31  5-MIN KART 012200Z AUTO 00000KT 10SM CLR 25/12 A3004 220 43 1500 000/00 RMK AO2 T02500117
94790KART ART20160601170510806/01/16 17:05:31  5-MIN KART 012205Z AUTO VRB03KT 10SM CLR 25/12 A3004 220 44 1500 VRB/03 RMK AO2 T02500122
94790KART ART20160601171010806/01/16 17:10:31  5-MIN KART 012210Z AUTO VRB03KT 10SM CLR 25/12 A3004 220 44 1500 VRB/03 RMK AO2 T02500122
94790KART ART20160601171510806/01/16 17:15:31  5-MIN KART 012215Z AUTO 00000KT 10SM CLR 25/12 A3004 220 43 1500 000/00 RMK AO2 T02500117
94790KART ART20160601172010806/01/16 17:20:31  5-MIN KART 012220Z AUTO 29003KT 10SM CLR 24/12 A3004 220 46 1400 300/03 RMK AO2 T02440122
94790KART ART20160601172510806/01/16 17:25:31  5-MIN KART 012225Z AUTO 30004KT 10SM CLR 25/12 A3004 220 44 1500 310/04 RMK AO2 T02500122
94790KART ART20160601173010806/01/16 17:30:31  5-MIN KART 012230Z AUTO 31004KT 10SM CLR 25/12 A3004 220 44 1500 320/04 RMK AO2 T02500122
94790KART ART20160601173510806/01/16 17:35:31  5-MIN KART 012235Z AUTO 30004KT 10SM CLR 24/12 A3004 220 46 1400 310/04 RMK AO2 T02440122
94790KART ART20160601174010806/01/16 17:40:31  5-MIN KART 012240Z AUTO 31003KT 10SM CLR 24/12 A3004 220 46 1400 320/03 RMK AO2 T02440122
94790KART ART20160601174510806/01/16 17:45:31  5-MIN KART 012245Z AUTO 29003KT 10SM CLR 25/12 A3004 220 43 1500 310/03 RMK AO2 T02500117
94790KART ART20160601175011506/01/16 17:50:31  5-MIN KART 012250Z AUTO 27003KT 10SM CLR 25/12 A3004 220 43 1500 280/03 RMK AO2 SLP169 T02500117
94790KART ART20160601175511506/01/16 17:55:31  5-MIN KART 012255Z AUTO 00000KT 10SM CLR 25/12 A3004 220 43 1500 000/00 RMK AO2 SLP169 T02500117
94790KART ART20160601180010806/01/16 18:00:31  5-MIN KART 012300Z AUTO 27004KT 10SM CLR 25/12 A3004 220 44 1500 280/04 RMK AO2 T02500122
94790KART ART20160601180510806/01/16 18:05:31  5-MIN KART 012305Z AUTO 26004KT 10SM CLR 24/13 A3004 220 47 1400 280/04 RMK AO2 T02440128
94790KART ART20160601181010806/01/16 18:10:31  5-MIN KART 012310Z AUTO 24003KT 10SM CLR 24/13 A3004 220 47 1400 250/03 RMK AO2 T02440128
94790KART ART20160601181510806/01/16 18:15:31  5-MIN KART 012315Z AUTO 24003KT 10SM CLR 24/14 A3003 230 53 1300 260/03 RMK AO2 T02390139
94790KART ART20160601182010806/01/16 18:20:31  5-MIN KART 012320Z AUTO 00000KT 10SM CLR 23/14 A3003 230 57 1300 000/00 RMK AO2 T02330144
94790KART ART20160601182510806/01/16 18:25:31  5-MIN KART 012325Z AUTO 26003KT 10SM CLR 23/15 A3003 230 61 1200 270/03 RMK AO2 T02280150
94790KART ART20160601183010806/01/16 18:30:31  5-MIN KART 012330Z AUTO 00000KT 10SM CLR 23/15 A3003 230 61 1200 000/00 RMK AO2 T02280150
94790KART ART20160601183510806/01/16 18:35:31  5-MIN KART 012335Z AUTO 27003KT 10SM CLR 22/15 A3003 230 63 1200 280/03 RMK AO2 T02220150
94790KART ART20160601184010806/01/16 18:40:31  5-MIN KART 012340Z AUTO 00000KT 10SM CLR 23/14 A3003 230 59 1200 000/00 RMK AO2 T02280144
94790KART ART20160601184510806/01/16 18:45:31  5-MIN KART 012345Z AUTO 00000KT 10SM CLR 23/14 A3003 230 59 1200 000/00 RMK AO2 T02280144
94790KART ART20160601185013306/01/16 18:50:31  5-MIN KART 012350Z AUTO 00000KT 10SM CLR 22/14 A3003 230 61 1200 000/00 RMK AO2 SLP167 T02220144 10250 20217 58014
94790KART ART20160601185513306/01/16 18:55:31  5-MIN KART 012355Z AUTO 00000KT 10SM CLR 22/14 A3003 230 61 1200 000/00 RMK AO2 SLP167 T02220144 10250 20217 58014
94790KART ART20160601190010806/01/16 19:00:31  5-MIN KART 020000Z AUTO 00000KT 10SM CLR 22/14 A3003 230 61 1200 000/00 RMK AO2 T02220144
94790KART ART20160601190510806/01/16 19:05:31  5-MIN KART 020005Z AUTO 00000KT 10SM CLR 22/14 A3004 220 63 1100 000/00 RMK AO2 T02170144
94790KART ART20160601191010806/01/16 19:10:31  5-MIN KART 020010Z AUTO 00000KT 10SM CLR 21/14 A3003 230 67 1000 000/00 RMK AO2 T02060144
94790KART ART20160601191510706/01/16 19:15:31  5-MIN KART 020015Z AUTO 00000KT 10SM CLR 20/15 A3003 220 72 900 000/00 RMK AO2 T02000150
94790KART ART20160601192010706/01/16 19:20:31  5-MIN KART 020020Z AUTO 00000KT 10SM CLR 19/15 A3004 220 78 800 000/00 RMK AO2 T01890150
94790KART ART20160601192510706/01/16 19:25:31  5-MIN KART 020025Z AUTO 00000KT 10SM CLR 19/15 A3003 230 78 800 000/00 RMK AO2 T01890150
94790KART ART20160601193010706/01/16 19:30:31  5-MIN KART 020030Z AUTO 00000KT 10SM CLR 18/15 A3003 230 81 700 000/00 RMK AO2 T01830150
94790KART ART20160601193510706/01/16 19:35:31  5-MIN KART 020035Z AUTO 00000KT 10SM CLR 18/15 A3003 230 81 700 000/00 RMK AO2 T01830150
94790KART ART20160601194010706/01/16 19:40:31  5-MIN KART 020040Z AUTO 00000KT 10SM CLR 18/15 A3003 230 83 700 000/00 RMK AO2 T01780150
94790KART ART20160601194510706/01/16 19:45:31  5-MIN KART 020045Z AUTO 00000KT 10SM CLR 17/14 A3003 230 83 600 000/00 RMK AO2 T01720144
94790KART ART20160601195011406/01/16 19:50:31  5-MIN KART 020050Z AUTO 13003KT 10SM CLR 17/15 A3003 230 87 600 140/03 RMK AO2 SLP166 T01720150
94790KART ART20160601195511406/01/16 19:55:31  5-MIN KART 020055Z AUTO 11003KT 10SM CLR 17/14 A3003 230 86 500 120/03 RMK AO2 SLP166 T01670144
94790KART ART20160601200010706/01/16 20:00:31  5-MIN KART 020100Z AUTO 00000KT 10SM CLR 17/14 A3003 230 83 600 000/00 RMK AO2 T01720144
94790KART ART20160601200510706/01/16 20:05:31  5-MIN KART 020105Z AUTO 00000KT 10SM CLR 17/14 A3003 230 86 500 000/00 RMK AO2 T01670144
94790KART ART20160601201010706/01/16 20:10:31  5-MIN KART 020110Z AUTO 08004KT 10SM CLR 16/14 A3003 230 90 500 090/04 RMK AO2 T01610144
94790KART ART20160601201510706/01/16 20:15:31  5-MIN KART 020115Z AUTO 08003KT 10SM CLR 17/14 A3003 230 86 500 090/03 RMK AO2 T01670144
94790KART ART20160601202010706/01/16 20:20:31  5-MIN KART 020120Z AUTO 00000KT 10SM CLR 16/14 A3003 230 86 500 000/00 RMK AO2 T01610139
94790KART ART20160601202510706/01/16 20:25:31  5-MIN KART 020125Z AUTO 09003KT 10SM CLR 16/14 A3003 230 90 500 100/03 RMK AO2 T01610144
94790KART ART20160601203010706/01/16 20:30:31  5-MIN KART 020130Z AUTO 08003KT 10SM CLR 16/14 A3003 230 86 500 090/03 RMK AO2 T01610139
94790KART ART20160601203510706/01/16 20:35:31  5-MIN KART 020135Z AUTO 00000KT 10SM CLR 16/14 A3003 230 90 400 000/00 RMK AO2 T01560139
94790KART ART20160601204010706/01/16 20:40:31  5-MIN KART 020140Z AUTO 00000KT 10SM CLR 16/14 A3003 230 90 400 000/00 RMK AO2 T01560139
94790KART ART20160601204510706/01/16 20:45:31  5-MIN KART 020145Z AUTO 08003KT 10SM CLR 16/14 A3003 230 86 500 100/03 RMK AO2 T01610139
94790KART ART20160601205011406/01/16 20:50:31  5-MIN KART 020150Z AUTO 09003KT 10SM CLR 16/14 A3003 230 90 400 110/03 RMK AO2 SLP167 T01560139
94790KART ART20160601205511406/01/16 20:55:31  5-MIN KART 020155Z AUTO 00000KT 10SM CLR 15/13 A3003 230 90 300 000/00 RMK AO2 SLP167 T01500133
94790KART ART20160601210010706/01/16 21:00:31  5-MIN KART 020200Z AUTO 09003KT 10SM CLR 16/14 A3003 230 86 500 100/03 RMK AO2 T01610139
94790KART ART20160601210510706/01/16 21:05:31  5-MIN KART 020205Z AUTO 08003KT 10SM CLR 16/13 A3003 230 86 400 100/03 RMK AO2 T01560133
94790KART ART20160601211010706/01/16 21:10:31  5-MIN KART 020210Z AUTO 09003KT 10SM CLR 16/13 A3003 230 86 400 110/03 RMK AO2 T01560133
94790KART ART20160601211510706/01/16 21:15:31  5-MIN KART 020215Z AUTO 09003KT 10SM CLR 16/13 A3003 230 86 400 100/03 RMK AO2 T01560133
94790KART ART20160601212010706/01/16 21:20:31  5-MIN KART 020220Z AUTO 07003KT 10SM CLR 16/13 A3003 230 83 500 090/03 RMK AO2 T01610133
94790KART ART20160601212510706/01/16 21:25:31  5-MIN KART 020225Z AUTO 07003KT 10SM CLR 16/13 A3003 230 83 400 090/03 RMK AO2 T01560128
94790KART ART20160601213010706/01/16 21:30:31  5-MIN KART 020230Z AUTO 06003KT 10SM CLR 16/13 A3003 230 83 400 070/03 RMK AO2 T01560128
94790KART ART20160601213510706/01/16 21:35:31  5-MIN KART 020235Z AUTO 00000KT 10SM CLR 16/13 A3002 230 83 400 000/00 RMK AO2 T01560128
94790KART ART20160601214010706/01/16 21:40:31  5-MIN KART 020240Z AUTO 06003KT 10SM CLR 16/13 A3002 230 80 500 070/03 RMK AO2 T01610128
94790KART ART20160601214510706/01/16 21:45:31  5-MIN KART 020245Z AUTO 08003KT 10SM CLR 16/13 A3002 240 83 400 100/03 RMK AO2 T01560128
94790KART ART20160601215012006/01/16 21:50:31  5-MIN KART 020250Z AUTO 08003KT 10SM CLR 16/13 A3002 240 83 400 090/03 RMK AO2 SLP163 T01560128 56008
94790KART ART20160601215512006/01/16 21:55:31  5-MIN KART 020255Z AUTO 00000KT 10SM CLR 15/13 A3002 240 86 300 000/00 RMK AO2 SLP163 T01500128 56008
94790KART ART20160601220010706/01/16 22:00:31  5-MIN KART 020300Z AUTO 00000KT 10SM CLR 16/13 A3002 240 83 400 000/00 RMK AO2 T01560128
94790KART ART20160601220510706/01/16 22:05:31  5-MIN KART 020305Z AUTO 08005KT 10SM CLR 15/12 A3002 240 83 300 090/05 RMK AO2 T01500122
94790KART ART20160601221010706/01/16 22:10:31  5-MIN KART 020310Z AUTO 08003KT 10SM CLR 15/12 A3001 240 83 300 100/03 RMK AO2 T01500122
94790KART ART20160601221510706/01/16 22:15:31  5-MIN KART 020315Z AUTO 07004KT 10SM CLR 16/12 A3001 240 80 400 090/04 RMK AO2 T01560122
94790KART ART20160601222010706/01/16 22:20:31  5-MIN KART 020320Z AUTO 07003KT 10SM CLR 16/12 A3001 250 80 400 090/03 RMK AO2 T01560122
94790KART ART20160601222511006/01/16 22:25:31  5-MIN KART 020325Z AUTO 07003KT 10SM FEW080 16/12 A3001 250 80 400 090/03 RMK AO2 T01560122
94790KART ART20160601223011006/01/16 22:30:31  5-MIN KART 020330Z AUTO 07003KT 10SM SCT080 16/12 A3001 250 80 400 080/03 RMK AO2 T01560122
94790KART ART20160601223511706/01/16 22:35:31  5-MIN KART 020335Z AUTO 07003KT 10SM BKN080 BKN100 16/13 A3001 250 83 400 090/03 RMK AO2 T01560128
94790KART ART20160601224011006/01/16 22:40:31  5-MIN KART 020340Z AUTO 07003KT 10SM BKN085 16/13 A3001 250 83 400 080/03 RMK AO2 T01560128
94790KART ART20160601224511006/01/16 22:45:31  5-MIN KART 020345Z AUTO 08003KT 10SM SCT080 16/13 A3001 250 80 500 100/03 RMK AO2 T01610128
94790KART ART20160601225011706/01/16 22:50:31  5-MIN KART 020350Z AUTO 00000KT 10SM SCT080 15/13 A3001 250 86 400 000/00 RMK AO2 SLP158 T01500128
94790KART ART20160601225511706/01/16 22:55:31  5-MIN KART 020355Z AUTO 00000KT 10SM SCT080 15/12 A3000 250 83 400 000/00 RMK AO2 SLP157 T01500122
94790KART ART20160601230011006/01/16 23:00:31  5-MIN KART 020400Z AUTO 00000KT 10SM SCT085 14/12 A3000 260 86 300 000/00 RMK AO2 T01440122
94790KART ART20160601230511006/01/16 23:05:31  5-MIN KART 020405Z AUTO 08003KT 10SM FEW080 14/12 A3000 260 86 300 090/03 RMK AO2 T01440122
94790KART ART20160601231011006/01/16 23:10:31  5-MIN KART 020410Z AUTO 10003KT 10SM FEW080 14/12 A2999 260 86 300 120/03 RMK AO2 T01440122
94790KART ART20160601231511006/01/16 23:15:31  5-MIN KART 020415Z AUTO 10004KT 10SM FEW080 14/12 A2999 260 86 300 110/04 RMK AO2 T01440122
94790KART ART20160601232011006/01/16 23:20:31  5-MIN KART 020420Z AUTO 09003KT 10SM FEW080 14/12 A2999 270 90 200 100/03 RMK AO2 T01390122
94790KART ART20160601232511006/01/16 23:25:31  5-MIN KART 020425Z AUTO 08004KT 10SM FEW080 14/12 A2999 270 90 200 090/04 RMK AO2 T01390122
94790KART ART20160601233011006/01/16 23:30:31  5-MIN KART 020430Z AUTO 08004KT 10SM SCT075 14/12 A2999 270 86 300 090/04 RMK AO2 T01440122
94790KART ART20160601233511006/01/16 23:35:31  5-MIN KART 020435Z AUTO 07004KT 10SM BKN075 15/12 A2998 270 83 400 090/04 RMK AO2 T01500122
94790KART ART20160601234011006/01/16 23:40:31  5-MIN KART 020440Z AUTO 08003KT 10SM BKN080 15/13 A2998 270 86 400 090/03 RMK AO2 T01500128
94790KART ART20160601234511006/01/16 23:45:31  5-MIN KART 020445Z AUTO 09003KT 10SM BKN080 15/13 A2998 270 86 400 100/03 RMK AO2 T01500128
94790KART ART20160601235012706/01/16 23:50:31  5-MIN KART 020450Z AUTO 08003KT 10SM BKN080 15/13 A2998 270 86 400 090/03 RMK AO2 SLP149 T01500128 402500067
94790KART ART20160601235512706/01/16 23:55:31  5-MIN KART 020455Z AUTO 00000KT 10SM SCT080 15/12 A2998 280 83 400 000/00 RMK AO2 SLP147 T01500122 402500067
94790KART ART20160602000011006/02/16 00:00:31  5-MIN KART 020500Z AUTO 13003KT 10SM SCT080 15/12 A2998 280 83 400 140/03 RMK AO2 T01500122
94790KART ART20160602000511006/02/16 00:05:31  5-MIN KART 020505Z AUTO 14004KT 10SM FEW085 17/13 A2998 280 77 600 160/04 RMK AO2 T01670128
94790KART ART20160602001011006/02/16 00:10:31  5-MIN KART 020510Z AUTO 15005KT 10SM FEW085 19/13 A2997 280 67 800 160/05 RMK AO2 T01890128
94790KART ART20160602001510806/02/16 00:15:31  5-MIN KART 020515Z AUTO 15005KT 10SM CLR 20/13 A2997 280 65 1000 160/05 RMK AO2 T02000133
94790KART ART20160602002010806/02/16 00:20:31  5-MIN KART 020520Z AUTO 15005KT 10SM CLR 21/13 A2997 280 63 1000 170/05 RMK AO2 T02060133
94790KART ART20160602002510806/02/16 00:25:31  5-MIN KART 020525Z AUTO 15005KT 10SM CLR 21/13 A2997 280 63 1000 170/05 RMK AO2 T02060133
94790KART ART20160602003010806/02/16 00:30:31  5-MIN KART 020530Z AUTO 15006KT 10SM CLR 21/13 A2997 280 61 1100 170/06 RMK AO2 T02110133
94790KART ART20160602003510806/02/16 00:35:31  5-MIN KART 020535Z AUTO 16006KT 10SM CLR 21/13 A2997 290 61 1100 170/06 RMK AO2 T02110133
94790KART ART20160602004010806/02/16 00:40:31  5-MIN KART 020540Z AUTO 16007KT 10SM CLR 22/13 A2997 290 58 1200 180/07 RMK AO2 T02170133
94790KART ART20160602004510806/02/16 00:45:31  5-MIN KART 020545Z AUTO 16008KT 10SM CLR 22/13 A2997 290 56 1200 180/08 RMK AO2 T02220133
94790KART ART20160602005013906/02/16 00:50:31  5-MIN KART 020550Z AUTO 16010G16KT 10SM CLR 22/13 A2997 290 56 1200 180/10G16 RMK AO2 SLP143 T02220133 10222 20139 58004
94790KART ART20160602005513906/02/16 00:55:31  5-MIN KART 020555Z AUTO 17009G16KT 10SM CLR 23/13 A2997 290 55 1300 180/09G16 RMK AO2 SLP143 T02280133 10228 20139 58004
94790KART ART20160602010010806/02/16 01:00:31  5-MIN KART 020600Z AUTO 17009KT 10SM CLR 23/13 A2997 290 55 1300 180/09 RMK AO2 T02280133
94790KART ART20160602010511106/02/16 01:05:31  5-MIN KART 020605Z AUTO 17010KT 10SM FEW080 23/13 A2996 290 55 1300 180/10 RMK AO2 T02280133
94790KART ART20160602011011706/02/16 01:10:31  5-MIN KART 020610Z AUTO 17010G17KT 10SM FEW080 23/13 A2996 290 55 1300 180/10G17 RMK AO2 T02280133
94790KART ART20160602011511706/02/16 01:15:31  5-MIN KART 020615Z AUTO 17011G18KT 10SM FEW080 23/13 A2996 290 53 1400 180/11G18 RMK AO2 T02330133
94790KART ART20160602012011706/02/16 01:20:31  5-MIN KART 020620Z AUTO 17009G18KT 10SM FEW080 23/13 A2996 290 53 1400 180/09G18 RMK AO2 T02330133
94790KART ART20160602012511706/02/16 01:25:31  5-MIN KART 020625Z AUTO 16010G17KT 10SM FEW085 23/13 A2996 300 53 1400 180/10G17 RMK AO2 T02330133
94790KART ART20160602013011106/02/16 01:30:31  5-MIN KART 020630Z AUTO 17009KT 10SM SCT085 23/13 A2996 290 53 1400 180/09 RMK AO2 T02330133
94790KART ART20160602013511106/02/16 01:35:31  5-MIN KART 020635Z AUTO 17009KT 10SM BKN085 23/13 A2996 290 53 1400 180/09 RMK AO2 T02330133
94790KART ART20160602014011106/02/16 01:40:31  5-MIN KART 020640Z AUTO 17007KT 10SM BKN085 23/13 A2996 290 53 1400 190/07 RMK AO2 T02330133
94790KART ART20160602014511106/02/16 01:45:31  5-MIN KART 020645Z AUTO 16008KT 10SM BKN085 23/13 A2996 300 55 1300 180/08 RMK AO2 T02280133
94790KART ART20160602015012406/02/16 01:50:31  5-MIN KART 020650Z AUTO 16008G16KT 10SM SCT085 23/13 A2995 300 55 1300 170/08G16 RMK AO2 SLP139 T02280133
94790KART ART20160602015511806/02/16 01:55:31  5-MIN KART 020655Z AUTO 16009KT 10SM SCT085 23/13 A2995 300 55 1300 170/09 RMK AO2 SLP139 T02280133
94790KART ART20160602020011706/02/16 02:00:31  5-MIN KART 020700Z AUTO 16009G17KT 10SM SCT085 23/13 A2995 300 55 1300 180/09G17 RMK AO2 T02280133
94790KART ART20160602020511706/02/16 02:05:31  5-MIN KART 020705Z AUTO 17007G17KT 10SM FEW080 23/13 A2995 300 55 1300 190/07G17 RMK AO2 T02280133
94790KART ART20160602021010806/02/16 02:10:31  5-MIN KART 020710Z AUTO 17006KT 10SM CLR 23/13 A2996 300 53 1400 190/06 RMK AO2 T02330133
94790KART ART20160602021511406/02/16 02:15:31  5-MIN KART 020715Z AUTO 18008G14KT 10SM CLR 23/13 A2996 300 53 1400 190/08G14 RMK AO2 T02330133
94790KART ART20160602022011406/02/16 02:20:31  5-MIN KART 020720Z AUTO 18008G14KT 10SM CLR 23/13 A2996 300 53 1400 190/08G14 RMK AO2 T02330133
94790KART ART20160602022511406/02/16 02:25:31  5-MIN KART 020725Z AUTO 17010G17KT 10SM CLR 23/13 A2996 300 53 1400 180/10G17 RMK AO2 T02330133
94790KART ART20160602023011406/02/16 02:30:31  5-MIN KART 020730Z AUTO 18011G21KT 10SM CLR 24/13 A2996 290 51 1400 190/11G21 RMK AO2 T02390133
94790KART ART20160602023511706/02/16 02:35:31  5-MIN KART 020735Z AUTO 18007G21KT 10SM FEW080 24/13 A2996 300 51 1400 190/07G21 RMK AO2 T02390133
94790KART ART20160602024012406/02/16 02:40:31  5-MIN KART 020740Z AUTO 17011G17KT 10SM FEW080 SCT120 23/13 A2995 300 53 1400 180/11G17 RMK AO2 T02330133
94790KART ART20160602024512406/02/16 02:45:31  5-MIN KART 020745Z AUTO 17010G19KT 10SM FEW080 SCT110 23/13 A2995 300 53 1400 190/10G19 RMK AO2 T02330133
94790KART ART20160602025013106/02/16 02:50:31  5-MIN KART 020750Z AUTO 16011G19KT 10SM SCT075 BKN110 23/13 A2995 300 53 1400 180/11G19 RMK AO2 SLP137 T02330133
94790KART ART20160602025515406/02/16 02:55:31  5-MIN KART 020755Z AUTO 17009G18KT 150V220 10SM SCT075 BKN100 BKN120 23/13 A2995 300 53 1400 180/09G18 160V230 RMK AO2 SLP138 T02330133
94790KART ART20160602030013106/02/16 03:00:31  5-MIN KART 020800Z AUTO 17010G18KT 10SM BKN075 BKN100 BKN120 23/13 A2996 300 53 1400 180/10G18 RMK AO2 T02330133
94790KART ART20160602030513106/02/16 03:05:31  5-MIN KART 020805Z AUTO 18009G17KT 10SM BKN075 BKN100 OVC120 23/13 A2995 300 53 1400 190/09G17 RMK AO2 T02330133
94790KART ART20160602031012406/02/16 03:10:31  5-MIN KART 020810Z AUTO 18010G19KT 10SM BKN075 OVC100 24/13 A2996 300 51 1400 190/10G19 RMK AO2 T02390133
94790KART ART20160602031512406/02/16 03:15:31  5-MIN KART 020815Z AUTO 16010G19KT 10SM BKN075 OVC095 23/13 A2996 300 53 1400 180/10G19 RMK AO2 T02330133
94790KART ART20160602032011706/02/16 03:20:31  5-MIN KART 020820Z AUTO 18009G17KT 10SM OVC075 23/13 A2996 290 53 1400 200/09G17 RMK AO2 T02330133
94790KART ART20160602032511706/02/16 03:25:31  5-MIN KART 020825Z AUTO 17008G17KT 10SM OVC075 23/13 A2996 300 53 1400 190/08G17 RMK AO2 T02330133
94790KART ART20160602033011706/02/16 03:30:31  5-MIN KART 020830Z AUTO 19007G17KT 10SM OVC075 23/13 A2996 290 53 1400 200/07G17 RMK AO2 T02330133
94790KART ART20160602033512406/02/16 03:35:31  5-MIN KART 020835Z AUTO 18011G15KT 10SM BKN075 OVC100 23/13 A2996 290 53 1400 200/11G15 RMK AO2 T02330133
94790KART ART20160602034013906/02/16 03:40:31  5-MIN KART 020840Z AUTO 18010G17KT 7SM -RA BKN075 OVC095 23/13 A2997 290 53 1400 200/10G17 RMK AO2 RAB40 P0000 T02330133
94790KART ART20160602034515106/02/16 03:45:31  5-MIN KART 020845Z AUTO 17008G17KT 6SM -RA BKN075 OVC095 22/14 A2997 280 61 1200 190/08G17 RMK AO2 LTG DSNT SW RAB40 P0000 T02220144
94790KART ART20160602035017006/02/16 03:50:31  5-MIN KART 020850Z AUTO 19009G17KT 8SM -RA BKN075 OVC095 22/14 A2998 280 61 1200 210/09G17 RMK AO2 LTG DSNT SW RAB40 SLP146 P0000 60000 T02220144 56018
94790KART ART20160602035517006/02/16 03:55:31  5-MIN KART 020855Z AUTO 19007KT 4SM RA FEW045 BKN075 OVC095 22/14 A2998 270 63 1200 210/07 RMK AO2 LTG DSNT SW RAB40 SLP147 P0003 60003 T02170144 56018
94790KART ART20160602040015506/02/16 04:00:31  5-MIN KART 020900Z AUTO 18006G16KT 2 1/2SM RA FEW045 BKN075 OVC090 20/16 A2998 270 75 1000 190/06G16 RMK AO2 LTG DSNT SW P0000 T02000156
94790KART ART20160602040514606/02/16 04:05:31  5-MIN KART 020905Z AUTO 16007KT 3SM -RA FEW050 BKN075 OVC095 20/16 A2998 280 75 1000 170/07 RMK AO2 LTG DSNT SW P0001 T02000156
94790KART ART20160602041014506/02/16 04:10:31  5-MIN KART 020910Z AUTO 16008KT 4SM RA FEW050 BKN075 OVC110 20/16 A2997 280 75 1000 180/08 RMK AO2 LTG DSNT SW P0002 T02000156
94790KART ART20160602041514606/02/16 04:15:31  5-MIN KART 020915Z AUTO 17006KT 5SM -RA FEW048 BKN075 OVC110 20/16 A2997 280 75 1000 180/06 RMK AO2 LTG DSNT SW P0002 T02000156
94790KART ART20160602042014606/02/16 04:20:31  5-MIN KART 020920Z AUTO 16007KT 8SM -RA FEW048 BKN080 OVC110 20/16 A2997 280 75 1000 180/07 RMK AO2 LTG DSNT SW P0002 T02000156
94790KART ART20160602042513706/02/16 04:25:31  5-MIN KART 020925Z AUTO 17007KT 10SM BKN080 BKN100 OVC110 20/16 A2997 280 75 1000 180/07 RMK AO2 RAE25 P0002 T02000156
94790KART ART20160602043013606/02/16 04:30:31  5-MIN KART 020930Z AUTO 16007G15KT 10SM BKN080 OVC100 21/15 A2997 280 70 1000 170/07G15 RMK AO2 RAE25 P0002 T02060150
94790KART ART20160602043512706/02/16 04:35:31  5-MIN KART 020935Z AUTO 16009G21KT 10SM -RA OVC085 21/15 A2998 280 70 1000 180/09G21 RMK AO2 P0002 T02060150
94790KART ART20160602044012706/02/16 04:40:31  5-MIN KART 020940Z AUTO 17007G21KT 10SM -RA OVC085 21/15 A2997 280 70 1000 190/07G21 RMK AO2 P0002 T02060150
94790KART ART20160602044513006/02/16 04:45:31  5-MIN KART 020945Z AUTO 19008KT 10SM BKN085 OVC110 21/15 A2998 280 70 1000 200/08 RMK AO2 RAE43 P0002 T02060150
94790KART ART20160602045013606/02/16 04:50:31  5-MIN KART 020950Z AUTO 17008G18KT 10SM OVC085 21/15 A2997 280 70 1000 190/08G18 RMK AO2 RAE43 SLP145 P0002 T02060150
94790KART ART20160602045514306/02/16 04:55:31  5-MIN KART 020955Z AUTO 17011G19KT 10SM BKN085 OVC110 20/15 A2998 280 72 1000 180/11G19 RMK AO2 RAE43 SLP146 P0002 T02000150
94790KART ART20160602050012406/02/16 05:00:31  5-MIN KART 021000Z AUTO 17011G20KT 10SM BKN085 BKN110 20/15 A2997 280 72 1000 180/11G20 RMK AO2 T02000150
94790KART ART20160602050512306/02/16 05:05:31  5-MIN KART 021005Z AUTO 17012G23KT 10SM BKN085 BKN110 19/16 A2997 290 78 900 180/12G23 RMK AO2 T01940156
94790KART ART20160602051012406/02/16 05:10:31  5-MIN KART 021010Z AUTO 16011G23KT 10SM BKN085 OVC110 20/16 A2997 290 75 1000 170/11G23 RMK AO2 T02000156
94790KART ART20160602051513906/02/16 05:15:31  5-MIN KART 021015Z AUTO 16011G19KT 9SM -RA BKN085 OVC110 20/16 A2996 290 75 1000 170/11G19 RMK AO2 RAB14 P0000 T02000156
94790KART ART20160602052013806/02/16 05:20:31  5-MIN KART 021020Z AUTO 15011G18KT 9SM -RA BKN085 OVC110 19/16 A2996 290 78 900 170/11G18 RMK AO2 RAB14 P0000 T01940156
94790KART ART20160602052515606/02/16 05:25:31  5-MIN KART 021025Z AUTO 17010G18KT 140V220 10SM -RA BKN085 OVC110 20/16 A2997 290 75 1000 180/10G18 150V230 RMK AO2 RAB14 P0000 T02000156
94790KART ART20160602053013206/02/16 05:30:31  5-MIN KART 021030Z AUTO 17011G21KT 10SM OVC085 21/15 A2996 290 70 1000 180/11G21 RMK AO2 RAB14E27 P0000 T02060150
94790KART ART20160602053513206/02/16 05:35:31  5-MIN KART 021035Z AUTO 17007G21KT 10SM OVC080 21/15 A2997 290 70 1000 190/07G21 RMK AO2 RAB14E27 P0000 T02060150
94790KART ART20160602054013206/02/16 05:40:31  5-MIN KART 021040Z AUTO 19006G14KT 10SM OVC080 21/15 A2997 290 70 1000 200/06G14 RMK AO2 RAB14E27 P0000 T02060150
94790KART ART20160602054512606/02/16 05:45:31  5-MIN KART 021045Z AUTO 17008KT 10SM OVC080 21/15 A2997 290 70 1000 190/08 RMK AO2 RAB14E27 P0000 T02060150
94790KART ART20160602055013306/02/16 05:50:31  5-MIN KART 021050Z AUTO VRB06KT 10SM BKN080 21/14 A2996 290 67 1000 VRB/06 RMK AO2 RAB14E27 SLP142 P0000 T02060144
94790KART ART20160602055513306/02/16 05:55:31  5-MIN KART 021055Z AUTO 18006KT 10SM BKN080 21/14 A2996 290 67 1000 200/06 RMK AO2 RAB14E27 SLP142 P0000 T02060144
94790KART ART20160602060011106/02/16 06:00:31  5-MIN KART 021100Z AUTO 18008KT 10SM OVC080 21/14 A2996 290 67 1000 190/08 RMK AO2 T02060144
94790KART ART20160602060511706/02/16 06:05:31  5-MIN KART 021105Z AUTO 17008G18KT 10SM OVC085 21/14 A2996 290 65 1100 190/08G18 RMK AO2 T02110144
94790KART ART20160602061011706/02/16 06:10:31  5-MIN KART 021110Z AUTO 17012G19KT 10SM OVC085 21/14 A2996 300 65 1100 180/12G19 RMK AO2 T02110144
94790KART ART20160602061511706/02/16 06:15:31  5-MIN KART 021115Z AUTO 17009G19KT 10SM OVC080 21/14 A2996 290 65 1100 180/09G19 RMK AO2 T02110144
94790KART ART20160602062012806/02/16 06:20:31  5-MIN KART 021120Z AUTO 18008G16KT 10SM OVC080 21/14 A2997 290 65 1100 200/08G16 RMK AO2 LTG DSNT W T02110144
94790KART ART20160602062513506/02/16 06:25:31  5-MIN KART 021125Z AUTO 22007G16KT 10SM OVC085 21/14 A2998 270 65 1100 230/07G16 RMK AO2 LTG DSNT W PRESRR T02110144
94790KART ART20160602063013506/02/16 06:30:31  5-MIN KART 021130Z AUTO 26007G16KT 10SM OVC080 21/14 A2999 260 65 1100 270/07G16 RMK AO2 LTG DSNT W PRESRR T02110144
94790KART ART20160602063511106/02/16 06:35:31  5-MIN KART 021135Z AUTO VRB04KT 10SM OVC080 21/14 A2999 270 65 1100 VRB/04 RMK AO2 T02110144
94790KART ART20160602064012706/02/16 06:40:31  5-MIN KART 021140Z AUTO 21007KT 170V230 10SM OVC080 21/14 A2999 260 63 1100 220/07 180V240 RMK AO2 T02110139
94790KART ART20160602064512706/02/16 06:45:31  5-MIN KART 021145Z AUTO VRB06KT 10SM -RA OVC080 21/14 A2999 260 63 1100 VRB/06 RMK AO2 RAB42 P0000 T02110139
94790KART ART20160602065016406/02/16 06:50:31  5-MIN KART 021150Z AUTO VRB04KT 10SM -RA OVC080 21/14 A2999 260 63 1100 VRB/04 RMK AO2 RAB42 SLP152 P0000 60006 70006 T02110139 10239 20194 53005
94790KART ART20160602065516306/02/16 06:55:31  5-MIN KART 021155Z AUTO 21005KT 10SM OVC080 21/14 A2999 260 63 1100 220/05 RMK AO2 RAB42E51 SLP152 P0000 60006 70006 T02110139 10239 20194 53005
94790KART ART20160602070011106/02/16 07:00:31  5-MIN KART 021200Z AUTO VRB04KT 10SM OVC080 21/14 A2999 260 63 1100 VRB/04 RMK AO2 T02110139
94790KART ART20160602070511106/02/16 07:05:31  5-MIN KART 021205Z AUTO 17003KT 10SM OVC080 21/14 A2999 260 63 1100 180/03 RMK AO2 T02110139
94790KART ART20160602071011106/02/16 07:10:31  5-MIN KART 021210Z AUTO VRB05KT 10SM OVC080 21/14 A2999 270 63 1100 VRB/05 RMK AO2 T02110139
94790KART ART20160602071511806/02/16 07:15:31  5-MIN KART 021215Z AUTO 18004KT 10SM BKN080 OVC100 21/14 A2999 270 63 1100 200/04 RMK AO2 T02110139
94790KART ART20160602072011106/02/16 07:20:31  5-MIN KART 021220Z AUTO 17005KT 10SM BKN080 22/14 A2998 270 61 1200 190/05 RMK AO2 T02170139
94790KART ART20160602072512206/02/16 07:25:31  5-MIN KART 021225Z AUTO VRB06KT 10SM OVC080 22/13 A2998 270 58 1200 VRB/06 RMK AO2 LTG DSNT W T02170133
94790KART ART20160602073012206/02/16 07:30:31  5-MIN KART 021230Z AUTO 17005KT 10SM OVC080 22/13 A2998 270 58 1200 180/05 RMK AO2 LTG DSNT W T02170133
94790KART ART20160602073512206/02/16 07:35:31  5-MIN KART 021235Z AUTO 19006KT 10SM OVC085 22/13 A2999 270 56 1200 210/06 RMK AO2 LTG DSNT W T02220133
94790KART ART20160602074011806/02/16 07:40:31  5-MIN KART 021240Z AUTO VRB05KT 10SM BKN080 OVC090 22/13 A2999 270 56 1200 VRB/05 RMK AO2 T02220133
94790KART ART20160602074511106/02/16 07:45:31  5-MIN KART 021245Z AUTO 19008KT 10SM OVC080 22/13 A2999 260 56 1200 200/08 RMK AO2 T02220133
94790KART ART20160602075013206/02/16 07:50:31  5-MIN KART 021250Z AUTO 21006KT 10SM FEW050 FEW065 OVC080 22/13 A3000 260 56 1200 220/06 RMK AO2 SLP154 T02220133
94790KART ART20160602075513206/02/16 07:55:31  5-MIN KART 021255Z AUTO 22005KT 10SM FEW050 SCT065 OVC085 22/13 A3000 260 56 1200 230/05 RMK AO2 SLP154 T02220133
94790KART ART20160602080012506/02/16 08:00:31  5-MIN KART 021300Z AUTO 21006KT 10SM FEW050 BKN065 OVC080 22/14 A3000 260 59 1200 220/06 RMK AO2 T02220139
94790KART ART20160602080512506/02/16 08:05:31  5-MIN KART 021305Z AUTO 21009KT 10SM FEW049 BKN060 OVC080 22/13 A3000 260 56 1200 220/09 RMK AO2 T02220133
94790KART ART20160602081011806/02/16 08:10:31  5-MIN KART 021310Z AUTO 21010KT 10SM FEW049 OVC060 22/13 A3000 250 56 1200 230/10 RMK AO2 T02220133
94790KART ART20160602081514006/02/16 08:15:31  5-MIN KART 021315Z AUTO 21009G16KT 180V250 10SM FEW049 OVC060 22/13 A3001 250 56 1200 230/09G16 190V260 RMK AO2 T02220133
94790KART ART20160602082013206/02/16 08:20:31  5-MIN KART 021320Z AUTO 23010G16KT 8SM -RA OVC060 22/14 A3001 240 61 1100 240/10G16 RMK AO2 RAB19 P0000 T02170139
94790KART ART20160602082513306/02/16 08:25:31  5-MIN KART 021325Z AUTO 21009KT 4SM -RA BKN060 OVC080 21/14 A3001 240 65 1100 230/09 RMK AO2 RAB19 P0001 T02110144
94790KART ART20160602083013506/02/16 08:30:31  5-MIN KART 021330Z AUTO 21008KT 1 1/4SM RA BKN060 OVC075 20/15 A3001 240 72 900 220/08 RMK AO2 RAB19 P0004 T02000150
94790KART ART20160602083514306/02/16 08:35:31  5-MIN KART 021335Z AUTO 20005KT 1 1/4SM -RA BKN060 BKN075 OVC100 19/16 A3001 250 78 900 210/05 RMK AO2 RAB19 P0004 T01940156
94790KART ART20160602084013906/02/16 08:40:31  5-MIN KART 021340Z AUTO 21007KT 3SM -RA SCT060 BKN075 OVC100 19/16 A3001 250 78 900 220/07 RMK AO2 RAB19 P0005 T01940156
94790KART ART20160602084513906/02/16 08:45:31  5-MIN KART 021345Z AUTO 21006KT 3SM -RA FEW060 BKN075 OVC100 20/16 A3001 250 75 900 220/06 RMK AO2 RAB19 P0005 T02000156
94790KART ART20160602085014506/02/16 08:50:31  5-MIN KART 021350Z AUTO 21006KT 2 1/2SM -RA FEW060 SCT075 OVC100 19/16 A3001 250 78 900 220/06 RMK AO2 VIS 1 1/2V4 RAB19 P0006
94790KART ART20160602085515706/02/16 08:55:31  5-MIN KART 021355Z AUTO 20005KT 2SM RA FEW060 BKN090 OVC100 19/16 A3001 250 78 900 210/05 RMK AO2 VIS 1 1/2V4 RAB19 SLP159 P0007 T01940156
94790KART ART20160602090013006/02/16 09:00:31  5-MIN KART 021400Z AUTO 20005KT 2 1/2SM -RA SCT080 OVC100 19/16 A3001 250 78 900 210/05 RMK AO2 P0000 T01940156
94790KART ART20160602090512606/02/16 09:05:31  5-MIN KART 021405Z AUTO 19004KT 4SM -RA SCT080 OVC100 19/16 A3001 250 78 900 210/04 RMK AO2 P0001 T01940156
94790KART ART20160602091013306/02/16 09:10:31  5-MIN KART 021410Z AUTO 20004KT 7SM -RA FEW048 SCT075 OVC100 19/16 A3001 250 81 900 210/04 RMK AO2 P0001 T01940161
94790KART ART20160602091513406/02/16 09:15:31  5-MIN KART 021415Z AUTO 19004KT 10SM -RA FEW044 SCT060 OVC095 20/16 A3000 250 78 900 210/04 RMK AO2 P0001 T02000161
94790KART ART20160602092013306/02/16 09:20:31  5-MIN KART 021420Z AUTO 20005KT 9SM -RA FEW044 SCT070 OVC095 20/16 A3001 250 78 900 210/05 RMK AO2 P0001 T02000161
94790KART ART20160602092513406/02/16 09:25:31  5-MIN KART 021425Z AUTO 20009KT 4SM -RA FEW046 FEW070 OVC100 21/16 A3001 250 75 1000 210/09 RMK AO2 P0001 T02060161
94790KART ART20160602093013306/02/16 09:30:31  5-MIN KART 021430Z AUTO 20008KT 3SM -RA FEW046 FEW070 OVC095 20/16 A3001 250 75 900 210/08 RMK AO2 P0001 T02000156
94790KART ART20160602093515506/02/16 09:35:31  5-MIN KART 021435Z AUTO 20009G16KT 2 1/2SM -RA FEW046 FEW070 OVC090 20/16 A3001 240 75 900 210/09G16 RMK AO2 VIS 1 3/4V3 P0002 T02000156
94790KART ART20160602094013906/02/16 09:40:31  5-MIN KART 021440Z AUTO 20007G16KT 3SM -RA FEW046 BKN090 OVC110 19/16 A3002 240 81 900 220/07G16 RMK AO2 P0002 T01940161
94790KART ART20160602094513606/02/16 09:45:31  5-MIN KART 021445Z AUTO 20007KT 1 3/4SM RA FEW048 BKN090 OVC110 19/16 A3002 240 84 800 220/07 RMK AO2 P0004 T01890161
94790KART ART20160602095015506/02/16 09:50:31  5-MIN KART 021450Z AUTO 20007KT 1 1/2SM RA FEW050 BKN090 OVC110 19/16 A3002 240 84 800 210/07 RMK AO2 SLP164 P0005 60012 T01890161 53003
94790KART ART20160602095514406/02/16 09:55:31  5-MIN KART 021455Z AUTO 19007KT 2SM RA FEW075 OVC095 19/16 A3002 240 84 800 210/07 RMK AO2 SLP164 P0006 60013 T01890161 53003
94790KART ART20160602100013206/02/16 10:00:31  5-MIN KART 021500Z AUTO 20006KT 2SM RA FEW060 BKN090 OVC100 19/16 A3002 240 84 800 210/06 RMK AO2 P0001 T01890161
94790KART ART20160602100513606/02/16 10:05:31  5-MIN KART 021505Z AUTO 20009KT 2SM -RA BR FEW046 BKN080 OVC100 18/17 A3002 240 90 700 210/09 RMK AO2 P0002 T01830167
94790KART ART20160602101013506/02/16 10:10:31  5-MIN KART 021510Z AUTO 20007KT 2SM RA BR FEW041 BKN075 OVC090 18/16 A3002 240 87 700 210/07 RMK AO2 P0003 T01830161
94790KART ART20160602101513906/02/16 10:15:31  5-MIN KART 021515Z AUTO 20009KT 1 3/4SM RA BR FEW041 BKN055 OVC095 18/16 A3002 240 87 700 210/09 RMK AO2 P0005 T01830161
94790KART ART20160602102014506/02/16 10:20:31  5-MIN KART 021520Z AUTO 19007G15KT 1 3/4SM RA BR SCT041 BKN050 OVC100 18/16 A3002 240 87 700 200/07G15 RMK AO2 P0006 T01830161
94790KART ART20160602102514106/02/16 10:25:31  5-MIN KART 021525Z AUTO 18007G15KT 2SM RA BR FEW041 BKN050 OVC100 18/16 A3002 240 87 700 190/07G15 RMK AO2 P0007 T01830161
94790KART ART20160602103013606/02/16 10:30:31  5-MIN KART 021530Z AUTO VRB06KT 3SM -RA BR SCT044 SCT070 OVC100 18/16 A3001 240 87 700 VRB/06 RMK AO2 P0008 T01830161
94790KART ART20160602103513606/02/16 10:35:31  5-MIN KART 021535Z AUTO VRB05KT 3SM -RA BR SCT044 SCT075 OVC100 18/16 A3001 240 87 700 VRB/05 RMK AO2 P0008 T01830161
94790KART ART20160602104013206/02/16 10:40:31  5-MIN KART 021540Z AUTO 17007KT 2 1/2SM RA BR FEW042 OVC100 18/17 A3001 250 90 700 180/07 RMK AO2 P0009 T01830167
94790KART ART20160602104513306/02/16 10:45:31  5-MIN KART 021545Z AUTO 17006KT 2 1/2SM -RA BR FEW040 OVC100 18/17 A3001 250 90 700 180/06 RMK AO2 P0010 T01830167
94790KART ART20160602105011206/02/16 10:50:31  5-MIN KART 021550Z AUTO 18005KT 3SM -RA BR OVC100 18/17 A3001 250 90 700 190/05 RMK AO2 P0010
94790KART ART20160602105513606/02/16 10:55:31  5-MIN KART 021555Z AUTO 17007KT 3SM -RA BR SCT100 OVC110 18/17 A3001 250 90 700 190/07 RMK AO2 SLP158 P0011 T01830167
94790KART ART20160602110012106/02/16 11:00:31  5-MIN KART 021600Z AUTO 18006KT 3SM RA BR OVC100 18/17 A3001 250 90 700 190/06 RMK AO2 P0001 T01830167
94790KART ART20160602110512206/02/16 11:05:31  5-MIN KART 021605Z AUTO 17007KT 3SM -RA BR OVC110 18/17 A3001 250 90 700 180/07 RMK AO2 P0001 T01830167
94790KART ART20160602111012906/02/16 11:10:31  5-MIN KART 021610Z AUTO 17009KT 3SM -RA BR FEW034 OVC110 18/17 A3001 250 90 700 180/09 RMK AO2 P0002 T01830167
94790KART ART20160602111514206/02/16 11:15:31  5-MIN KART 021615Z AUTO 18007G14KT 4SM -RA BR FEW028 SCT034 OVC110 18/17 A3000 250 90 700 190/07G14 RMK AO2 P0002 T01830167
94790KART ART20160602112013606/02/16 11:20:31  5-MIN KART 021620Z AUTO 17007KT 5SM -RA BR SCT028 BKN034 OVC110 18/17 A3000 250 90 700 180/07 RMK AO2 P0002 T01830167
94790KART ART20160602112513206/02/16 11:25:31  5-MIN KART 021625Z AUTO 18008G15KT 7SM -RA BKN030 OVC100 18/17 A3000 250 90 700 190/08G15 RMK AO2 P0002 T01830167
94790KART ART20160602113013906/02/16 11:30:31  5-MIN KART 021630Z AUTO 18007G15KT 8SM -RA BKN027 BKN032 OVC110 18/17 A3000 250 90 700 190/07G15 RMK AO2 P0002 T01830167
94790KART ART20160602113513306/02/16 11:35:31  5-MIN KART 021635Z AUTO 17007G15KT 10SM -RA BKN027 OVC032 19/17 A3000 250 87 800 180/07G15 RMK AO2 P0002 T01890167
94790KART ART20160602114013506/02/16 11:40:31  5-MIN KART 021640Z AUTO 17008G15KT 10SM BKN027 OVC034 19/17 A3000 250 87 800 190/08G15 RMK AO2 RAE36 P0002 T01890167
94790KART ART20160602114512906/02/16 11:45:31  5-MIN KART 021645Z AUTO 17009KT 10SM BKN027 OVC034 19/17 A3000 250 87 800 180/09 RMK AO2 RAE36 P0002 T01890167
94790KART ART20160602115013506/02/16 11:50:31  5-MIN KART 021650Z AUTO 17007KT 140V220 10SM SCT027 OVC034 19/17 A3000 250 87 800 190/07 150V230 RMK AO2 RAE36 P0002
94790KART ART20160602115513606/02/16 11:55:31  5-MIN KART 021655Z AUTO 18007KT 10SM SCT027 OVC034 19/17 A3000 260 87 800 190/07 RMK AO2 RAE36 SLP157 P0002 T01890167
94790KART ART20160602120011706/02/16 12:00:31  5-MIN KART 021700Z AUTO 17008KT 10SM FEW027 OVC034 19/17 A3000 250 87 800 180/08 RMK AO2 T01890167
94790KART ART20160602120512406/02/16 12:05:31  5-MIN KART 021705Z AUTO 17008KT 10SM BKN034 BKN046 OVC055 19/17 A3000 260 87 800 190/08 RMK AO2 T01890167
94790KART ART20160602121012406/02/16 12:10:31  5-MIN KART 021710Z AUTO 17009KT 10SM BKN034 BKN045 OVC050 19/17 A3000 260 87 800 180/09 RMK AO2 T01890167
94790KART ART20160602121512306/02/16 12:15:31  5-MIN KART 021715Z AUTO 16008G15KT 10SM SCT034 OVC047 19/16 A3000 260 84 800 180/08G15 RMK AO2 T01890161
94790KART ART20160602122012306/02/16 12:20:31  5-MIN KART 021720Z AUTO 17007G15KT 10SM SCT034 OVC047 19/17 A2999 260 84 900 180/07G15 RMK AO2 T01940167
94790KART ART20160602122512306/02/16 12:25:31  5-MIN KART 021725Z AUTO 16008G16KT 10SM SCT036 OVC047 19/17 A2999 270 84 900 180/08G16 RMK AO2 T01940167
94790KART ART20160602123012306/02/16 12:30:31  5-MIN KART 021730Z AUTO 16009G16KT 10SM BKN038 OVC049 19/17 A2999 270 84 900 170/09G16 RMK AO2 T01940167
94790KART ART20160602123511706/02/16 12:35:31  5-MIN KART 021735Z AUTO 16008KT 10SM BKN038 OVC049 19/16 A2999 270 81 900 180/08 RMK AO2 T01940161
94790KART ART20160602124012306/02/16 12:40:31  5-MIN KART 021740Z AUTO 17009G16KT 10SM BKN040 OVC049 19/16 A2999 270 81 900 180/09G16 RMK AO2 T01940161
94790KART ART20160602124512306/02/16 12:45:31  5-MIN KART 021745Z AUTO 17008G16KT 10SM BKN040 OVC049 19/16 A2999 270 81 900 190/08G16 RMK AO2 T01940161
94790KART ART20160602125014206/02/16 12:50:31  5-MIN KART 021750Z AUTO 17008KT 10SM OVC040 20/16 A2999 270 78 1000 180/08 RMK AO2 SLP150 60026 T02000161 10222 20183 53010
94790KART ART20160602125514206/02/16 12:55:31  5-MIN KART 021755Z AUTO 17007KT 10SM OVC040 20/16 A2999 270 78 1000 190/07 RMK AO2 SLP150 60026 T02000161 10222 20183 53010
94790KART ART20160602130011106/02/16 13:00:31  5-MIN KART 021800Z AUTO 17008KT 10SM OVC042 21/16 A2999 270 75 1000 190/08 RMK AO2 T02060161
94790KART ART20160602130511706/02/16 13:05:31  5-MIN KART 021805Z AUTO 16008G15KT 10SM OVC042 21/16 A2999 270 75 1000 180/08G15 RMK AO2 T02060161
94790KART ART20160602131012406/02/16 13:10:31  5-MIN KART 021810Z AUTO 17011G17KT 10SM BKN042 OVC110 21/16 A2998 270 73 1100 180/11G17 RMK AO2 T02110161
94790KART ART20160602131512406/02/16 13:15:31  5-MIN KART 021815Z AUTO 17006G17KT 10SM BKN042 BKN110 22/17 A2998 270 73 1200 190/06G17 RMK AO2 T02170167
94790KART ART20160602132012406/02/16 13:20:31  5-MIN KART 021820Z AUTO 17008G16KT 10SM BKN044 BKN110 22/17 A2998 270 73 1200 180/08G16 RMK AO2 T02170167
94790KART ART20160602132511806/02/16 13:25:31  5-MIN KART 021825Z AUTO 16010KT 10SM BKN044 BKN110 22/17 A2998 280 70 1200 180/10 RMK AO2 T02220167
94790KART ART20160602133012406/02/16 13:30:31  5-MIN KART 021830Z AUTO 18006G17KT 10SM SCT044 BKN110 22/17 A2998 280 70 1200 190/06G17 RMK AO2 T02220167
94790KART ART20160602133513106/02/16 13:35:31  5-MIN KART 021835Z AUTO 18011G18KT 10SM SCT045 SCT060 SCT110 22/17 A2998 280 70 1200 190/11G18 RMK AO2 T02220167
94790KART ART20160602134012406/02/16 13:40:31  5-MIN KART 021840Z AUTO 17011G18KT 10SM SCT047 BKN060 23/16 A2997 280 65 1300 180/11G18 RMK AO2 T02280161
94790KART ART20160602134511706/02/16 13:45:31  5-MIN KART 021845Z AUTO 17010G18KT 10SM SCT047 23/16 A2997 280 65 1300 190/10G18 RMK AO2 T02280161
94790KART ART20160602135012406/02/16 13:50:31  5-MIN KART 021850Z AUTO 19010G18KT 10SM FEW049 23/17 A2997 280 68 1300 200/10G18 RMK AO2 SLP144 T02280167
94790KART ART20160602135514006/02/16 13:55:31  5-MIN KART 021855Z AUTO 18010G22KT 150V240 10SM FEW049 23/16 A2997 290 63 1400 190/10G22 160V250 RMK AO2 SLP143 T02330161
94790KART ART20160602140013306/02/16 14:00:31  5-MIN KART 021900Z AUTO 18010G22KT 150V210 10SM FEW049 23/16 A2997 290 63 1400 190/10G22 160V220 RMK AO2 T02330161
94790KART ART20160602140511706/02/16 14:05:31  5-MIN KART 021905Z AUTO 18010G21KT 10SM FEW050 23/16 A2997 290 65 1300 190/10G21 RMK AO2 T02280161
94790KART ART20160602141011706/02/16 14:10:31  5-MIN KART 021910Z AUTO 19010G19KT 10SM FEW080 23/16 A2997 290 63 1300 200/10G19 RMK AO2 T02280156
94790KART ART20160602141511706/02/16 14:15:31  5-MIN KART 021915Z AUTO 18008G19KT 10SM SCT080 23/16 A2997 290 63 1300 190/08G19 RMK AO2 T02280156
94790KART ART20160602142011706/02/16 14:20:31  5-MIN KART 021920Z AUTO 18009G17KT 10SM FEW080 23/16 A2996 290 65 1300 190/09G17 RMK AO2 T02280161
94790KART ART20160602142511706/02/16 14:25:31  5-MIN KART 021925Z AUTO 19011G21KT 10SM FEW080 23/16 A2996 290 61 1400 200/11G21 RMK AO2 T02330156
94790KART ART20160602143011706/02/16 14:30:31  5-MIN KART 021930Z AUTO 18012G21KT 10SM FEW080 23/16 A2996 290 61 1400 190/12G21 RMK AO2 T02330156
94790KART ART20160602143511706/02/16 14:35:31  5-MIN KART 021935Z AUTO 19011G20KT 10SM FEW080 23/16 A2996 290 61 1400 200/11G20 RMK AO2 T02330156
94790KART ART20160602144011706/02/16 14:40:31  5-MIN KART 021940Z AUTO 18010G20KT 10SM SCT075 23/16 A2996 290 63 1300 190/10G20 RMK AO2 T02280156
94790KART ART20160602144513306/02/16 14:45:31  5-MIN KART 021945Z AUTO 19009G17KT 150V210 10SM SCT070 23/16 A2996 300 63 1300 200/09G17 160V220 RMK AO2 T02280156
94790KART ART20160602145013806/02/16 14:50:31  5-MIN KART 021950Z AUTO 19009G18KT 10SM FEW038 FEW047 BKN070 23/16 A2996 300 63 1300 200/09G18 RMK AO2 SLP139 T02280156
94790KART ART20160602145513106/02/16 14:55:31  5-MIN KART 021955Z AUTO 19008G18KT 10SM FEW047 BKN070 23/16 A2996 300 63 1300 200/08G18 RMK AO2 SLP139 T02280156
94790KART ART20160602150012406/02/16 15:00:31  5-MIN KART 022000Z AUTO 18009G18KT 10SM FEW037 BKN070 23/16 A2996 300 63 1300 190/09G18 RMK AO2 T02280156
94790KART ART20160602150512406/02/16 15:05:31  5-MIN KART 022005Z AUTO 17010G18KT 10SM FEW037 OVC070 23/16 A2996 300 63 1300 190/10G18 RMK AO2 T02280156
94790KART ART20160602151014006/02/16 15:10:31  5-MIN KART 022010Z AUTO 19009G18KT 150V210 10SM FEW037 BKN070 23/16 A2996 300 63 1300 200/09G18 160V220 RMK AO2 T02280156
94790KART ART20160602151512406/02/16 15:15:31  5-MIN KART 022015Z AUTO 20008G18KT 10SM SCT037 BKN070 23/16 A2996 300 63 1300 210/08G18 RMK AO2 T02280156
94790KART ART20160602152012406/02/16 15:20:31  5-MIN KART 022020Z AUTO 18010G17KT 10SM SCT037 OVC070 23/16 A2995 300 63 1300 200/10G17 RMK AO2 T02280156
94790KART ART20160602152512406/02/16 15:25:31  5-MIN KART 022025Z AUTO 18008G17KT 10SM SCT037 OVC070 23/16 A2995 300 63 1300 190/08G17 RMK AO2 T02280156
94790KART ART20160602153011806/02/16 15:30:31  5-MIN KART 022030Z AUTO 20008KT 10SM FEW037 OVC070 23/16 A2995 300 65 1300 210/08 RMK AO2 T02280161
94790KART ART20160602153512406/02/16 15:35:31  5-MIN KART 022035Z AUTO 19008G15KT 10SM FEW037 OVC070 23/16 A2995 300 63 1400 200/08G15 RMK AO2 T02330161
94790KART ART20160602154011806/02/16 15:40:31  5-MIN KART 022040Z AUTO 19009KT 10SM FEW037 OVC070 23/16 A2994 310 63 1400 200/09 RMK AO2 T02330161
94790KART ART20160602154512406/02/16 15:45:31  5-MIN KART 022045Z AUTO 18010G19KT 10SM FEW037 BKN070 23/16 A2994 310 65 1300 200/10G19 RMK AO2 T02280161
94790KART ART20160602155013706/02/16 15:50:31  5-MIN KART 022050Z AUTO 18010G19KT 10SM BKN070 BKN100 23/16 A2994 310 65 1300 190/10G19 RMK AO2 SLP134 T02280161 58006
94790KART ART20160602155513706/02/16 15:55:31  5-MIN KART 022055Z AUTO 20010G18KT 10SM SCT070 BKN100 23/16 A2994 310 65 1300 210/10G18 RMK AO2 SLP134 T02280161 58006
94790KART ART20160602160012406/02/16 16:00:31  5-MIN KART 022100Z AUTO 19011G19KT 10SM FEW070 BKN100 23/16 A2994 310 65 1300 210/11G19 RMK AO2 T02280161
94790KART ART20160602160512406/02/16 16:05:31  5-MIN KART 022105Z AUTO 20013G22KT 10SM FEW070 BKN100 23/16 A2994 320 65 1300 210/13G22 RMK AO2 T02280161
94790KART ART20160602161012406/02/16 16:10:31  5-MIN KART 022110Z AUTO 20010G22KT 10SM FEW075 SCT100 23/16 A2994 320 65 1300 210/10G22 RMK AO2 T02280161
94790KART ART20160602161512406/02/16 16:15:31  5-MIN KART 022115Z AUTO 19007G17KT 10SM SCT075 BKN100 23/17 A2993 320 68 1300 200/07G17 RMK AO2 T02280167
94790KART ART20160602162012406/02/16 16:20:31  5-MIN KART 022120Z AUTO 19009G17KT 10SM BKN070 BKN100 23/16 A2993 320 65 1300 200/09G17 RMK AO2 T02280161
94790KART ART20160602162512406/02/16 16:25:31  5-MIN KART 022125Z AUTO 18009G17KT 10SM BKN070 BKN100 23/16 A2993 320 65 1300 200/09G17 RMK AO2 T02280161
94790KART ART20160602163011706/02/16 16:30:31  5-MIN KART 022130Z AUTO 19010G17KT 10SM BKN070 22/16 A2993 320 68 1300 200/10G17 RMK AO2 T02220161
94790KART ART20160602163513306/02/16 16:35:31  5-MIN KART 022135Z AUTO 19008G17KT 160V220 10SM OVC070 22/16 A2993 320 68 1300 210/08G17 170V230 RMK AO2 T02220161
94790KART ART20160602164011706/02/16 16:40:31  5-MIN KART 022140Z AUTO 19009G17KT 10SM OVC070 22/17 A2993 320 70 1300 210/09G17 RMK AO2 T02220167
94790KART ART20160602164511706/02/16 16:45:31  5-MIN KART 022145Z AUTO 19010G15KT 10SM OVC070 22/17 A2993 320 70 1300 200/10G15 RMK AO2 T02220167
94790KART ART20160602165012406/02/16 16:50:31  5-MIN KART 022150Z AUTO 19009G16KT 10SM OVC070 22/17 A2993 320 70 1300 210/09G16 RMK AO2 SLP131 T02220167
94790KART ART20160602165512406/02/16 16:55:31  5-MIN KART 022155Z AUTO 19009G16KT 10SM OVC065 22/17 A2993 320 70 1300 210/09G16 RMK AO2 SLP131 T02220167
94790KART ART20160602170011806/02/16 17:00:31  5-MIN KART 022200Z AUTO 20009KT 10SM FEW033 OVC065 22/17 A2993 320 70 1300 210/09 RMK AO2 T02220167
94790KART ART20160602170512506/02/16 17:05:31  5-MIN KART 022205Z AUTO 20009KT 10SM FEW033 SCT042 OVC065 22/17 A2993 320 70 1300 210/09 RMK AO2 T02220167
94790KART ART20160602171012506/02/16 17:10:31  5-MIN KART 022210Z AUTO 20008KT 10SM SCT033 SCT042 OVC065 22/17 A2993 320 70 1300 220/08 RMK AO2 T02220167
94790KART ART20160602171511806/02/16 17:15:31  5-MIN KART 022215Z AUTO 20008KT 10SM BKN035 OVC070 23/17 A2993 320 68 1300 220/08 RMK AO2 T02280167
94790KART ART20160602172011806/02/16 17:20:31  5-MIN KART 022220Z AUTO 19007KT 10SM BKN035 BKN070 23/17 A2993 320 70 1300 200/07 RMK AO2 T02280172
94790KART ART20160602172512406/02/16 17:25:31  5-MIN KART 022225Z AUTO 20011G15KT 10SM BKN033 BKN070 23/17 A2993 320 70 1300 210/11G15 RMK AO2 T02280172
94790KART ART20160602173013106/02/16 17:30:31  5-MIN KART 022230Z AUTO 19011G17KT 10SM BKN033 BKN044 BKN090 23/17 A2993 320 68 1300 210/11G17 RMK AO2 T02280167
94790KART ART20160602173513106/02/16 17:35:31  5-MIN KART 022235Z AUTO 20010G18KT 10SM SCT033 BKN050 BKN075 23/17 A2993 320 68 1300 210/10G18 RMK AO2 T02280167
94790KART ART20160602174013106/02/16 17:40:31  5-MIN KART 022240Z AUTO 19010G18KT 10SM FEW033 BKN050 BKN075 23/17 A2993 330 68 1300 200/10G18 RMK AO2 T02280167
94790KART ART20160602174513106/02/16 17:45:31  5-MIN KART 022245Z AUTO 19007G17KT 10SM FEW033 BKN050 OVC080 23/17 A2992 330 70 1300 200/07G17 RMK AO2 T02280172
94790KART ART20160602175013206/02/16 17:50:31  5-MIN KART 022250Z AUTO 19009KT 10SM FEW031 BKN048 BKN080 23/17 A2992 330 70 1400 200/09 RMK AO2 SLP127 T02280172
94790KART ART20160602175513106/02/16 17:55:31  5-MIN KART 022255Z AUTO 18008G16KT 10SM BKN048 BKN080 23/17 A2992 330 70 1400 190/08G16 RMK AO2 SLP126 T02280172
94790KART ART20160602180011706/02/16 18:00:31  5-MIN KART 022300Z AUTO 18010G18KT 10SM SCT049 23/17 A2992 330 70 1400 190/10G18 RMK AO2 T02280172
94790KART ART20160602180511706/02/16 18:05:31  5-MIN KART 022305Z AUTO 19011G18KT 10SM SCT049 23/17 A2992 330 70 1400 200/11G18 RMK AO2 T02280172
94790KART ART20160602181011706/02/16 18:10:31  5-MIN KART 022310Z AUTO 18008G16KT 10SM FEW049 23/17 A2992 330 70 1400 190/08G16 RMK AO2 T02280172
94790KART ART20160602181511706/02/16 18:15:31  5-MIN KART 022315Z AUTO 18008G16KT 10SM FEW048 23/17 A2992 330 70 1400 190/08G16 RMK AO2 T02280172
94790KART ART20160602182010806/02/16 18:20:31  5-MIN KART 022320Z AUTO 18010KT 10SM CLR 23/17 A2992 330 70 1400 190/10 RMK AO2 T02280172
94790KART ART20160602182510806/02/16 18:25:31  5-MIN KART 022325Z AUTO 19007KT 10SM CLR 23/17 A2992 330 70 1400 200/07 RMK AO2 T02280172
94790KART ART20160602183010806/02/16 18:30:31  5-MIN KART 022330Z AUTO 18008KT 10SM CLR 22/17 A2992 330 73 1300 190/08 RMK AO2 T02220172
94790KART ART20160602183510806/02/16 18:35:31  5-MIN KART 022335Z AUTO 17007KT 10SM CLR 22/17 A2992 330 73 1300 190/07 RMK AO2 T02220172
94790KART ART20160602184010806/02/16 18:40:31  5-MIN KART 022340Z AUTO 18007KT 10SM CLR 22/17 A2992 330 73 1300 200/07 RMK AO2 T02220172
94790KART ART20160602184510806/02/16 18:45:31  5-MIN KART 022345Z AUTO 18008KT 10SM CLR 22/17 A2992 330 73 1300 190/08 RMK AO2 T02220172
94790KART ART20160602185013906/02/16 18:50:31  5-MIN KART 022350Z AUTO 19009G18KT 10SM CLR 22/17 A2991 340 73 1300 200/09G18 RMK AO2 SLP125 T02220172 10233 20200 56016
94790KART ART20160602185513906/02/16 18:55:31  5-MIN KART 022355Z AUTO 18008G18KT 10SM CLR 22/17 A2992 330 73 1300 200/08G18 RMK AO2 SLP126 T02220172 10233 20200 56016
94790KART ART20160602190011406/02/16 19:00:31  5-MIN KART 030000Z AUTO 18007G17KT 10SM CLR 22/17 A2992 330 73 1300 190/07G17 RMK AO2 T02220172
94790KART ART20160602190511406/02/16 19:05:31  5-MIN KART 030005Z AUTO 18007G14KT 10SM CLR 22/17 A2992 330 73 1300 190/07G14 RMK AO2 T02220172
94790KART ART20160605021011706/05/16 02:10:31  5-MIN KART 050710Z AUTO 07003KT 10SM FEW075 SCT120 17/13 A2976 480 75 900 080/03 RMK AO2 T01720128
94790KART ART20160605021512406/05/16 02:15:31  5-MIN KART 050715Z AUTO 00000KT 10SM SCT075 SCT095 BKN120 17/13 A2976 480 75 900 000/00 RMK AO2 T01720128
94790KART ART20160605022011706/05/16 02:20:31  5-MIN KART 050720Z AUTO 00000KT 10SM BKN075 BKN120 17/13 A2976 480 75 900 000/00 RMK AO2 T01720128
94790KART ART20160605022511806/05/16 02:25:31  5-MIN KART 050725Z AUTO 06003KT 10SM BKN075 BKN120 18/12 A2976 480 69 1000 080/03 RMK AO2 T01780122
94790KART ART20160605023012506/05/16 02:30:31  5-MIN KART 050730Z AUTO 08003KT 10SM SCT075 BKN100 BKN120 18/13 A2975 480 72 1000 100/03 RMK AO2 T01780128
94790KART ART20160605023511706/05/16 02:35:31  5-MIN KART 050735Z AUTO 09003KT 10SM SCT075 OVC110 17/13 A2975 490 75 900 100/03 RMK AO2 T01720128
94790KART ART20160605024011706/05/16 02:40:31  5-MIN KART 050740Z AUTO 09003KT 10SM SCT075 OVC110 17/13 A2975 490 75 900 100/03 RMK AO2 T01720128
94790KART ART20160605024513406/05/16 02:45:31  5-MIN KART 050745Z AUTO 09003KT 10SM -RA FEW075 BKN110 18/13 A2975 490 72 1000 100/03 RMK AO2 RAB45 P0000 T01780128
94790KART ART20160605025014006/05/16 02:50:31  5-MIN KART 050750Z AUTO 00000KT 10SM -RA FEW080 BKN110 17/13 A2974 490 75 900 000/00 RMK AO2 RAB45 SLP067 P0000 T01720128
94790KART ART20160605025513306/05/16 02:55:31  5-MIN KART 050755Z AUTO 00000KT 10SM -RA BKN110 17/13 A2974 500 78 900 000/00 RMK AO2 RAB45 SLP067 P0000 T01720133
94790KART ART20160605030012006/05/16 03:00:31  5-MIN KART 050800Z AUTO 00000KT 10SM -RA OVC110 17/13 A2974 500 78 900 000/00 RMK AO2 P0000 T01720133
94790KART ART20160605030512106/05/16 03:05:31  5-MIN KART 050805Z AUTO 14003KT 10SM -RA OVC110 18/14 A2974 500 75 1000 150/03 RMK AO2 P0000 T01830139
94790KART ART20160605031012106/05/16 03:10:31  5-MIN KART 050810Z AUTO 00000KT 10SM -RA BKN110 19/14 A2973 500 75 1100 000/00 RMK AO2 P0000 T01890144
94790KART ART20160605031512106/05/16 03:15:31  5-MIN KART 050815Z AUTO 14003KT 10SM -RA OVC110 19/14 A2973 510 72 1200 150/03 RMK AO2 P0000 T01940144
94790KART ART20160605032012306/05/16 03:20:31  5-MIN KART 050820Z AUTO 14003KT 10SM OVC110 20/15 A2973 510 72 1300 150/03 RMK AO2 RAE16 P0000 T02000150
94790KART ART20160605032513006/05/16 03:25:31  5-MIN KART 050825Z AUTO 00000KT 10SM BKN100 OVC120 20/15 A2973 510 72 1300 000/00 RMK AO2 RAE16 P0000 T02000150
94790KART ART20160605033012806/05/16 03:30:31  5-MIN KART 050830Z AUTO 18003KT 10SM -RA BKN100 OVC120 20/15 A2973 510 72 1300 190/03 RMK AO2 P0000 T02000150
94790KART ART20160605033512806/05/16 03:35:31  5-MIN KART 050835Z AUTO VRB03KT 10SM -RA BKN100 BKN120 20/15 A2973 510 72 1300 VRB/03 RMK AO2 P0000 T02000150
94790KART ART20160605034013006/05/16 03:40:31  5-MIN KART 050840Z AUTO 16005KT 10SM BKN100 BKN120 20/16 A2972 510 75 1300 170/05 RMK AO2 RAE40 P0000 T02000156
94790KART ART20160605034513006/05/16 03:45:31  5-MIN KART 050845Z AUTO 16005KT 10SM BKN100 BKN110 20/16 A2972 510 75 1300 170/05 RMK AO2 RAE40 P0000 T02000156
94790KART ART20160605035014906/05/16 03:50:31  5-MIN KART 050850Z AUTO 16005KT 10SM SCT090 BKN110 21/16 A2972 510 75 1300 180/05 RMK AO2 RAE40 SLP059 P0000 60000 T02060161 58023
94790KART ART20160605035514206/05/16 03:55:31  5-MIN KART 050855Z AUTO 16006KT 10SM BKN100 21/16 A2972 520 75 1300 170/06 RMK AO2 RAE40 SLP058 P0000 60000 T02060161 58023
94790KART ART20160605040013406/05/16 04:00:31  5-MIN KART 050900Z AUTO 15007KT 10SM -RA SCT090 OVC110 21/16 A2972 520 75 1300 170/07 RMK AO2 RAB00 P0000 T02060161
94790KART ART20160605040513306/05/16 04:05:31  5-MIN KART 050905Z AUTO 16005KT 9SM -RA BKN090 OVC110 21/16 A2972 520 75 1300 180/05 RMK AO2 RAB00 P0000 T02060161
94790KART ART20160605041013306/05/16 04:10:31  5-MIN KART 050910Z AUTO 16009KT 9SM -RA BKN085 OVC110 21/16 A2972 520 75 1300 170/09 RMK AO2 RAB00 P0000 T02060161
94790KART ART20160605041513306/05/16 04:15:31  5-MIN KART 050915Z AUTO 16008KT 7SM -RA BKN085 OVC110 21/16 A2972 520 75 1300 170/08 RMK AO2 RAB00 P0000 T02060161
94790KART ART20160605042012606/05/16 04:20:31  5-MIN KART 050920Z AUTO 16007KT 6SM -RA OVC085 20/17 A2972 510 81 1300 170/07 RMK AO2 RAB00 P0000 T02000167
94790KART ART20160605042513306/05/16 04:25:31  5-MIN KART 050925Z AUTO 16006KT 5SM -RA BKN075 OVC090 20/17 A2972 510 81 1300 170/06 RMK AO2 RAB00 P0000 T02000167
94790KART ART20160605043014906/05/16 04:30:31  5-MIN KART 050930Z AUTO 15007KT 110V170 4SM -RA BKN070 OVC085 19/17 A2973 510 84 1200 170/07 120V180 RMK AO2 RAB00 P0002 T01940167
94790KART ART20160605043513906/05/16 04:35:31  5-MIN KART 050935Z AUTO 14007KT 2 1/2SM RA BR BKN065 OVC085 19/17 A2972 510 90 1100 160/07 RMK AO2 RAB00 P0003 T01890172
94790KART ART20160605044013906/05/16 04:40:31  5-MIN KART 050940Z AUTO 15008KT 2 1/2SM RA BR BKN065 OVC085 19/17 A2972 520 90 1100 160/08 RMK AO2 RAB00 P0004 T01890172
94790KART ART20160605044513606/05/16 04:45:31  5-MIN KART 050945Z AUTO 14005KT 3SM -RA BR BKN060 OVC075 19/17 A2972 520 90 1100 150/05 RMK AO2 RAB00 P0005 T01890172
94790KART ART20160605045012606/05/16 04:50:31  5-MIN KART 050950Z AUTO 15005KT 3SM -RA BR BKN055 OVC070 19/17 A2972 520 90 1100 160/05 RMK AO2 RAB00 P0006
94790KART ART20160605045514206/05/16 04:55:31  5-MIN KART 050955Z AUTO 14005KT 3SM RA BR BKN055 OVC070 19/17 A2972 520 90 1100 150/05 RMK AO2 RAB00 SLP058 P0007 T01890172
94790KART ART20160605050012906/05/16 05:00:31  5-MIN KART 051000Z AUTO 13005KT 3SM RA BR BKN048 OVC060 18/17 A2972 520 93 1100 150/05 RMK AO2 P0001 T01830172
94790KART ART20160605050513606/05/16 05:05:31  5-MIN KART 051005Z AUTO 14005KT 3SM RA BR FEW026 SCT044 OVC055 18/17 A2972 520 93 1100 150/05 RMK AO2 P0003 T01830172
94790KART ART20160605051014006/05/16 05:10:31  5-MIN KART 051010Z AUTO 13005KT 2 1/2SM RA BR SCT026 SCT036 OVC050 18/17 A2972 520 93 1100 140/05 RMK AO2 P0004 T01830172
94790KART ART20160605051513606/05/16 05:15:31  5-MIN KART 051015Z AUTO 15004KT 2SM RA BR SCT026 BKN036 OVC048 18/17 A2972 520 93 1100 160/04 RMK AO2 P0006 T01830172
94790KART ART20160605052014006/05/16 05:20:31  5-MIN KART 051020Z AUTO 14004KT 1 3/4SM RA BR SCT028 BKN037 OVC046 18/17 A2972 520 93 1100 150/04 RMK AO2 P0008 T01830172
94790KART ART20160605052514106/05/16 05:25:31  5-MIN KART 051025Z AUTO 11004KT 1 3/4SM +RA BR FEW028 BKN037 OVC046 18/17 A2971 530 93 1100 120/04 RMK AO2 P0011 T01830172
94790KART ART20160605053014006/05/16 05:30:31  5-MIN KART 051030Z AUTO 08005KT 1 1/2SM RA BR FEW028 BKN036 OVC065 18/17 A2970 530 93 1100 090/05 RMK AO2 P0012 T01830172
94790KART ART20160605053514306/05/16 05:35:31  5-MIN KART 051035Z AUTO 08005KT 1 3/4SM -RA BR FEW027 BKN060 OVC075 18/17 A2970 540 93 1100 090/05 RMK AO2 P0012 T01830172 $
94790KART ART20160605054013906/05/16 05:40:31  5-MIN KART 051040Z AUTO 07006KT 2SM -RA BR FEW033 SCT050 OVC070 18/17 A2969 540 93 1100 090/06 RMK AO2 P0013 T01830172 $
94790KART ART20160605054514306/05/16 05:45:31  5-MIN KART 051045Z AUTO 07006KT 2 1/2SM -RA BR FEW035 SCT050 OVC070 18/17 A2969 540 93 1100 080/06 RMK AO2 P0013 T01830172 $
94790KART ART20160605055012906/05/16 05:50:31  5-MIN KART 051050Z AUTO 07006KT 4SM -RA BR FEW043 BKN055 OVC070 18/17 A2969 540 93 1100 090/06 RMK AO2 P0013 $
94790KART ART20160605055514106/05/16 05:55:31  5-MIN KART 051055Z AUTO 08007KT 5SM BR SCT048 OVC065 18/17 A2969 550 93 1100 090/07 RMK AO2 RAE51 SLP047 P0013 T01830172 $
94790KART ART20160605060013906/05/16 06:00:31  5-MIN KART 051100Z AUTO 08007KT 5SM -RA BR SCT046 BKN060 OVC110 18/17 A2968 550 93 1100 090/07 RMK AO2 P0000 T01830172 $
94790KART ART20160605060513906/05/16 06:05:31  5-MIN KART 051105Z AUTO 08007KT 4SM -RA BR SCT046 BKN065 OVC110 18/17 A2967 560 93 1100 090/07 RMK AO2 P0000 T01830172 $
94790KART ART20160605061013906/05/16 06:10:31  5-MIN KART 051110Z AUTO 07009KT 5SM -RA BR FEW046 SCT065 OVC110 18/17 A2967 560 93 1100 080/09 RMK AO2 P0000 T01830172 $
94790KART ART20160605061514106/05/16 06:15:31  5-MIN KART 051115Z AUTO 07008KT 6SM BR SCT043 SCT060 OVC110 18/17 A2967 560 93 1100 080/08 RMK AO2 RAE15 P0000 T01830172 $
94790KART ART20160605062014106/05/16 06:20:31  5-MIN KART 051120Z AUTO 07008KT 6SM BR SCT043 SCT060 OVC100 18/17 A2967 570 93 1100 080/08 RMK AO2 RAE15 P0000 T01780167 $
94790KART ART20160605062513906/05/16 06:25:31  5-MIN KART 051125Z AUTO 08007KT 6SM -RA BR FEW036 SCT048 OVC100 18/17 A2966 570 93 1100 090/07 RMK AO2 P0000 T01780167 $
94790KART ART20160605063013806/05/16 06:30:31  5-MIN KART 051130Z AUTO 08006KT 3SM RA BR SCT033 BKN048 OVC100 18/17 A2966 570 93 1100 100/06 RMK AO2 P0001 T01780167 $
94790KART ART20160605063514306/05/16 06:35:31  5-MIN KART 051135Z AUTO 08006KT 2 1/2SM -RA BR SCT031 BKN048 OVC100 18/17 A2966 570 93 1100 100/06 RMK AO2 P0002 T01780167 $
94790KART ART20160605064014206/05/16 06:40:31  5-MIN KART 051140Z AUTO 09005KT 1 3/4SM RA BR FEW026 BKN049 OVC100 18/17 A2966 570 93 1100 100/05 RMK AO2 P0003 T01780167 $
94790KART ART20160605064513806/05/16 06:45:31  5-MIN KART 051145Z AUTO 11004KT 1SM RA BR SCT027 BKN033 OVC070 18/17 A2966 570 93 1100 120/04 RMK AO2 P0008 T01780167 $
94790KART ART20160605065011706/05/16 06:50:31  5-MIN KART 051150Z AUTO 12005KT 1/2SM +RA FG OVC029 17/17 A2966 580 96 1000 130/05 RMK AO2 P0021 $
94790KART ART20160605065517106/05/16 06:55:31  5-MIN KART 051155Z AUTO 11007KT 1/4SM +RA FG BKN025 OVC030 18/17 A2964 590 96 1100 130/07 RMK AO2 SLP033 P0035 60055 70055 T01780172 10206 20172 56027 $
94790KART ART20160605070013406/05/16 07:00:31  5-MIN KART 051200Z AUTO 11007KT 1/4SM -RA FG OVC027 18/18 A2963 600 96 1200 120/07 RMK AO2 PRESFR P0000 T01830178 $
94790KART ART20160605070513206/05/16 07:05:31  5-MIN KART 051205Z AUTO 11008KT 2SM -RA BR BKN029 OVC041 18/18 A2963 600 96 1200 130/08 RMK AO2 P0000 T01830178 $
94790KART ART20160605071013606/05/16 07:10:31  5-MIN KART 051210Z AUTO 12007KT 7SM -RA FEW022 BKN028 OVC042 19/18 A2963 600 93 1200 130/07 RMK AO2 P0000 T01890178 $
94790KART ART20160605071513606/05/16 07:15:31  5-MIN KART 051215Z AUTO 12007KT 9SM -RA SCT020 BKN031 OVC060 19/18 A2962 610 93 1200 130/07 RMK AO2 P0000 T01890178 $
94790KART ART20160605072013606/05/16 07:20:31  5-MIN KART 051220Z AUTO 12007KT 9SM -RA FEW018 SCT030 OVC050 19/18 A2963 600 93 1200 130/07 RMK AO2 P0000 T01890178 $
94790KART ART20160605072513906/05/16 07:25:31  5-MIN KART 051225Z AUTO 13007KT 10SM SCT032 BKN045 OVC055 19/18 A2962 610 90 1300 140/07 RMK AO2 RAE24 P0000 T01940178 $
94790KART ART20160605073013906/05/16 07:30:31  5-MIN KART 051230Z AUTO 13007KT 10SM FEW032 BKN043 OVC055 19/18 A2962 610 90 1300 140/07 RMK AO2 RAE24 P0000 T01940178 $
94790KART ART20160605073513906/05/16 07:35:31  5-MIN KART 051235Z AUTO 14008KT 10SM FEW032 BKN043 OVC060 19/18 A2962 610 90 1300 150/08 RMK AO2 RAE24 P0000 T01940178 $
94790KART ART20160605074013906/05/16 07:40:31  5-MIN KART 051240Z AUTO 15007KT 10SM BKN041 BKN050 OVC075 19/18 A2962 610 90 1300 160/07 RMK AO2 RAE24 P0000 T01940178 $
94790KART ART20160605074514506/05/16 07:45:31  5-MIN KART 051245Z AUTO 14008KT 8SM -RA FEW037 BKN043 OVC075 20/18 A2961 620 90 1400 160/08 RMK AO2 RAE24B41 P0000 T02000183 $
94790KART ART20160605075016106/05/16 07:50:31  5-MIN KART 051250Z AUTO 16009G16KT 6SM -RA BR BKN044 BKN060 OVC075 20/18 A2961 620 90 1400 170/09G16 RMK AO2 RAE24B41 SLP023 P0000 T02000183 $
94790KART ART20160605075516106/05/16 07:55:31  5-MIN KART 051255Z AUTO 16010G16KT 4SM -RA BR SCT042 BKN050 OVC070 20/18 A2961 620 90 1400 170/10G16 RMK AO2 RAE24B41 SLP021 P0000 T02000183 $
94790KART ART20160605080014506/05/16 08:00:31  5-MIN KART 051300Z AUTO 16010G16KT 5SM -RA BR FEW042 SCT050 OVC065 21/18 A2960 630 87 1500 170/10G16 RMK AO2 P0000 T02060183 $
94790KART ART20160605080513506/05/16 08:05:31  5-MIN KART 051305Z AUTO 16009G16KT 7SM -RA FEW047 OVC065 21/19 A2960 630 90 1500 180/09G16 RMK AO2 P0000 T02060189 $
94790KART ART20160605081013706/05/16 08:10:31  5-MIN KART 051310Z AUTO 17011G19KT 8SM FEW047 OVC065 21/19 A2960 630 90 1500 180/11G19 RMK AO2 RAE10 P0000 T02060189 $
94790KART ART20160605081513106/05/16 08:15:31  5-MIN KART 051315Z AUTO 17010G20KT 6SM -RA BR OVC065 21/19 A2960 630 87 1500 180/10G20 RMK AO2 P0000 T02110189 $
94790KART ART20160605082013106/05/16 08:20:31  5-MIN KART 051320Z AUTO 17010G20KT 5SM -RA BR OVC060 21/19 A2959 630 87 1500 180/10G20 RMK AO2 P0000 T02110189 $
94790KART ART20160605082513006/05/16 08:25:31  5-MIN KART 051325Z AUTO 17010G17KT 7SM OVC060 21/19 A2959 630 87 1500 180/10G17 RMK AO2 RAE24 P0001 T02110189 $
94790KART ART20160605083013006/05/16 08:30:31  5-MIN KART 051330Z AUTO 17011G17KT 8SM OVC060 21/19 A2959 640 87 1500 180/11G17 RMK AO2 RAE24 P0001 T02110189 $
94790KART ART20160605083513006/05/16 08:35:31  5-MIN KART 051335Z AUTO 17011G17KT 8SM OVC060 21/19 A2959 640 87 1500 180/11G17 RMK AO2 RAE24 P0001 T02110189 $
94790KART ART20160605084013706/05/16 08:40:31  5-MIN KART 051340Z AUTO 17010G17KT 8SM BKN060 OVC100 22/19 A2959 640 84 1600 190/10G17 RMK AO2 RAE24 P0001 T02170189 $
94790KART ART20160605084514406/05/16 08:45:31  5-MIN KART 051345Z AUTO 16010G16KT 8SM SCT060 BKN080 OVC100 22/19 A2959 640 84 1600 180/10G16 RMK AO2 RAE24 P0001 T02170189 $
94790KART ART20160605085015106/05/16 08:50:31  5-MIN KART 051350Z AUTO 17010G21KT 8SM SCT060 BKN080 OVC100 22/19 A2958 650 84 1600 180/10G21 RMK AO2 RAE24 SLP013 P0001 T02170189 $
94790KART ART20160605085516106/05/16 08:55:31  5-MIN KART 051355Z AUTO 18009G21KT 6SM -RA BR FEW060 BKN075 OVC110 22/19 A2958 640 87 1600 190/09G21 RMK AO2 RAE24B52 SLP013 P0001 T02170194 $
94790KART ART20160605090014206/05/16 09:00:31  5-MIN KART 051400Z AUTO 17012G18KT 6SM -RA FEW060 BKN070 OVC095 22/19 A2958 650 84 1600 180/12G18 RMK AO2 P0000 T02170189 $
94790KART ART20160605090514206/05/16 09:05:31  5-MIN KART 051405Z AUTO 16015G25KT 7SM -RA SCT060 BKN070 OVC100 22/19 A2957 650 84 1600 170/15G25 RMK AO2 P0000 T02170189 $
94790KART ART20160605091014206/05/16 09:10:31  5-MIN KART 051410Z AUTO 17011G25KT 8SM -RA BKN055 BKN075 OVC090 22/19 A2957 650 84 1600 180/11G25 RMK AO2 P0000 T02170189 $
94790KART ART20160605091514406/05/16 09:15:31  5-MIN KART 051415Z AUTO 18012G19KT 8SM FEW048 BKN055 OVC070 22/19 A2957 650 81 1700 190/12G19 RMK AO2 RAE13 P0000 T02220189 $
94790KART ART20160605092014406/05/16 09:20:31  5-MIN KART 051420Z AUTO 19007G19KT 8SM SCT048 BKN055 OVC070 22/19 A2958 650 81 1700 200/07G19 RMK AO2 RAE13 P0000 T02220189 $
94790KART ART20160605092515306/05/16 09:25:31  5-MIN KART 051425Z AUTO 18011G18KT 160V230 8SM FEW028 OVC055 22/19 A2957 650 84 1700 200/11G18 170V240 RMK AO2 RAE13 P0000 T02220194 $
94790KART ART20160605093016006/05/16 09:30:31  5-MIN KART 051430Z AUTO 18009G17KT 140V210 8SM FEW028 FEW045 OVC055 23/19 A2957 650 81 1700 190/09G17 150V220 RMK AO2 RAE13 P0000 T02280194 $
94790KART ART20160605093513706/05/16 09:35:31  5-MIN KART 051435Z AUTO 19013G20KT 9SM BKN050 OVC060 23/19 A2957 650 78 1700 200/13G20 RMK AO2 RAE13 P0000 T02280189 $
94790KART ART20160605094013706/05/16 09:40:31  5-MIN KART 051440Z AUTO 16012G20KT 8SM SCT047 OVC055 23/19 A2957 660 78 1800 180/12G20 RMK AO2 RAE13 P0000 T02280189 $
94790KART ART20160605094513106/05/16 09:45:31  5-MIN KART 051445Z AUTO 17012KT 8SM BKN049 OVC060 23/19 A2957 660 78 1700 190/12 RMK AO2 RAE13 P0000 T02280189 $
94790KART ART20160605095016706/05/16 09:50:31  5-MIN KART 051450Z AUTO 17008G23KT 9SM BKN049 OVC060 23/19 A2957 660 78 1800 180/08G23 RMK AO2 LTG DSNT W RAE13 SLP009 P0000 60001 T02280189 58025 $
94790KART ART20160605095516706/05/16 09:55:31  5-MIN KART 051455Z AUTO 19009G23KT 9SM BKN047 OVC060 23/19 A2957 660 76 1800 200/09G23 RMK AO2 LTG DSNT W RAE13 SLP009 P0000 60001 T02330189 58025 $
94790KART ART20160605100014306/05/16 10:00:31  5-MIN KART 051500Z AUTO 17011G21KT 9SM BKN047 BKN055 OVC070 23/19 A2956 660 78 1800 180/11G21 RMK AO2 LTG DSNT W T02330194 $
94790KART ART20160605100513206/05/16 10:05:31  5-MIN KART 051505Z AUTO 18009G20KT 9SM BKN045 BKN055 OVC070 23/19 A2956 660 76 1800 190/09G20 RMK AO2 T02330189 $
94790KART ART20160605101012506/05/16 10:10:31  5-MIN KART 051510Z AUTO 17010G18KT 9SM BKN047 OVC070 23/19 A2956 660 76 1800 190/10G18 RMK AO2 T02330189 $
94790KART ART20160605101512506/05/16 10:15:31  5-MIN KART 051515Z AUTO 19008G18KT 9SM BKN045 OVC070 23/19 A2956 660 76 1800 200/08G18 RMK AO2 T02330189 $
94790KART ART20160605102011806/05/16 10:20:31  5-MIN KART 051520Z AUTO 19009G17KT 9SM OVC045 23/19 A2956 670 78 1800 210/09G17 RMK AO2 T02330194 $
94790KART ART20160605102514106/05/16 10:25:31  5-MIN KART 051525Z AUTO 18007G18KT 150V230 9SM BKN045 OVC070 23/19 A2955 670 76 1800 190/07G18 160V240 RMK AO2 T02330189 $
94790KART ART20160605103011806/05/16 10:30:31  5-MIN KART 051530Z AUTO 18009G18KT 9SM BKN047 24/19 A2955 680 76 1900 200/09G18 RMK AO2 T02390194 $
94790KART ART20160605103511806/05/16 10:35:31  5-MIN KART 051535Z AUTO 18012G19KT 9SM SCT047 24/19 A2955 680 76 1900 190/12G19 RMK AO2 T02390194 $
94790KART ART20160605104014306/05/16 10:40:31  5-MIN KART 051540Z AUTO 19013G21KT 9SM FEW043 SCT050 SCT075 24/19 A2954 680 73 1900 200/13G21 RMK AO2 LTG DSNT W T02390189 $
94790KART ART20160605104514306/05/16 10:45:31  5-MIN KART 051545Z AUTO 18010G21KT 9SM FEW036 SCT043 BKN075 24/19 A2955 680 76 1900 190/10G21 RMK AO2 LTG DSNT W T02390194 $
94790KART ART20160605105015706/05/16 10:50:31  5-MIN KART 051550Z AUTO 18010G20KT 9SM SCT036 SCT050 BKN075 24/19 A2955 680 76 1900 190/10G20 RMK AO2 LTG DSNT W AND NW SLP001 T02390194 $
94790KART ART20160605105514706/05/16 10:55:31  5-MIN KART 051555Z AUTO 20013G23KT 9SM SCT038 SCT075 24/19 A2955 680 73 1900 210/13G23 RMK AO2 LTG DSNT SW-NW SLP002 T02390189 $
94790KART ART20160605110014006/05/16 11:00:31  5-MIN KART 051600Z AUTO 19010G23KT 9SM BKN038 BKN075 23/19 A2955 670 76 1800 200/10G23 RMK AO2 LTG DSNT SW-NW T02330189 $
94790KART ART20160605110514306/05/16 11:05:31  5-MIN KART 051605Z AUTO 19012G21KT 9SM BKN040 BKN075 23/19 A2955 680 76 1800 210/12G21 RMK AO2 LTG DSNT SW AND W T02330189 $
94790KART ART20160605111014306/05/16 11:10:31  5-MIN KART 051610Z AUTO 20010G18KT 9SM FEW025 BKN037 BKN044 23/19 A2955 680 76 1800 210/10G18 RMK AO2 LTG DSNT W T02330189 $
94790KART ART20160605111513206/05/16 11:15:31  5-MIN KART 051615Z AUTO 19011G19KT 9SM FEW025 BKN037 OVC075 23/19 A2955 680 76 1800 210/11G19 RMK AO2 T02330189 $
94790KART ART20160605112014906/05/16 11:20:31  5-MIN KART 051620Z AUTO 20010G19KT 9SM VCTS FEW024 BKN048 OVC075 23/19 A2955 670 76 1800 210/10G19 RMK AO2 LTG DSNT NW T02330189 $
94790KART ART20160605112515906/05/16 11:25:31  5-MIN KART 051625Z AUTO 26020G25KT 5SM VCTS HZ FEW009 BKN042 OVC070 23/19 A2957 650 78 1700 270/20G25 RMK AO2 LTG DSNT NW PRESRR T02280189 $
94790KART ART20160605113018806/05/16 11:30:31  5-MIN KART 051630Z AUTO 26015G25KT 1/2SM VCTS +RA FG SCT007 BKN027 OVC043 19/18 A2958 650 93 1400 270/15G25 RMK AO2 WSHFT 1615 LTG DSNT NE AND NW RAB27 P0013 T01940183 $
94790KART ART20160605113517606/05/16 11:35:31  5-MIN KART 051635Z AUTO 24013G24KT 1/4SM +RA FG BKN007 BKN027 OVC055 19/18 A2958 640 93 1400 250/13G24 RMK AO2 WSHFT 1615 LTG DSNT NE RAB27 P0031 T01940183 $
94790KART ART20160605114017606/05/16 11:40:31  5-MIN KART 051640Z AUTO 25012G22KT 1/4SM +RA FG BKN009 BKN029 OVC046 19/18 A2957 650 93 1300 270/12G22 RMK AO2 WSHFT 1615 LTG DSNT NE RAB27 P0058 T01890178 $
94790KART ART20160605114516406/05/16 11:45:31  5-MIN KART 051645Z AUTO 24009G22KT 1/4SM +RA FG FEW005 BKN011 OVC041 19/18 A2958 650 93 1300 250/09G22 RMK AO2 WSHFT 1615 RAB27 P0062 T01890178 $
94790KART ART20160605115015806/05/16 11:50:31  5-MIN KART 051650Z AUTO 24008KT 3/4SM RA BR SCT005 BKN011 OVC017 19/18 A2957 650 97 1300 250/08 RMK AO2 WSHFT 1615 LTG DSNT N RAB27 P0063 $
94790KART ART20160605115517106/05/16 11:55:31  5-MIN KART 051655Z AUTO 23007KT 2 1/2SM -RA BR BKN006 OVC011 19/18 A2957 660 93 1400 250/07 RMK AO2 WSHFT 1615 LTG DSNT N RAB27 SLP009 P0063 T01940183 $
94790KART ART20160605120014306/05/16 12:00:31  5-MIN KART 051700Z AUTO 23007KT 5SM -RA BR BKN006 OVC011 19/18 A2957 660 93 1400 250/07 RMK AO2 LTG DSNT N P0000 T01940183 $
94790KART ART20160605120512906/05/16 12:05:31  5-MIN KART 051705Z AUTO 23007KT 7SM -RA BKN006 OVC011 19/19 A2957 660 97 1400 240/07 RMK AO2 P0000 T01940189 $
94790KART ART20160605121013106/05/16 12:10:31  5-MIN KART 051710Z AUTO 22006KT 7SM BKN008 OVC018 19/19 A2957 660 97 1400 230/06 RMK AO2 RAE08 P0000 T01940189 $
94790KART ART20160605121515006/05/16 12:15:31  5-MIN KART 051715Z AUTO 22008KT 7SM BKN006 BKN011 OVC038 19/19 A2956 660 97 1400 240/08 RMK AO2 RAE08 CIG 004V009 P0000 T01940189 $
94790KART ART20160605122015106/05/16 12:20:31  5-MIN KART 051720Z AUTO 22007KT 6SM -RA BR BKN006 BKN038 OVC090 20/19 A2956 660 93 1400 240/07 RMK AO2 CIG 004V011 P0000 T02000189 $
94790KART ART20160605122513906/05/16 12:25:31  5-MIN KART 051725Z AUTO 24005KT 3SM -RA BR SCT006 BKN038 OVC085 20/19 A2955 670 93 1500 250/05 RMK AO2 P0001 T02000189 $
94790KART ART20160605123014306/05/16 12:30:31  5-MIN KART 051730Z AUTO 21007KT 2 1/2SM -RA BR SCT006 BKN041 OVC110 20/19 A2956 670 93 1400 230/07 RMK AO2 P0001 T02000189 $
94790KART ART20160605123513906/05/16 12:35:31  5-MIN KART 051735Z AUTO 22007KT 4SM -RA BR FEW006 SCT038 OVC110 20/18 A2956 670 90 1400 230/07 RMK AO2 P0001 T02000183 $
94790KART ART20160605124013906/05/16 12:40:31  5-MIN KART 051740Z AUTO 22008KT 5SM -RA BR FEW006 SCT080 OVC100 19/18 A2956 660 93 1400 240/08 RMK AO2 P0001 T01940183 $
94790KART ART20160605124513906/05/16 12:45:31  5-MIN KART 051745Z AUTO 22008KT 5SM -RA BR FEW038 FEW080 OVC100 19/18 A2956 670 93 1400 230/08 RMK AO2 P0001 T01940183 $
94790KART ART20160605125015606/05/16 12:50:31  5-MIN KART 051750Z AUTO 22007KT 5SM -RA BR OVC100 19/18 A2956 660 90 1400 230/07 RMK AO2 SLP006 P0001 60065 T01940178 10239 20183 56025 $
94790KART ART20160605125515606/05/16 12:55:31  5-MIN KART 051755Z AUTO 22008KT 4SM -RA BR OVC110 19/18 A2956 660 93 1300 230/08 RMK AO2 SLP008 P0002 60066 T01890178 10239 20183 56025 $
94790KART ART20160605130012506/05/16 13:00:31  5-MIN KART 051800Z AUTO 22007KT 3SM -RA BR OVC110 19/18 A2956 670 93 1300 230/07 RMK AO2 P0001 T01890178 $
94790KART ART20160605130512406/05/16 13:05:31  5-MIN KART 051805Z AUTO 21006KT 2SM RA BR OVC110 19/18 A2956 670 93 1300 230/06 RMK AO2 P0002 T01890178 $
94790KART ART20160605131013506/05/16 13:10:31  5-MIN KART 051810Z AUTO 21006KT 1 3/4SM RA BR BKN100 OVC120 19/18 A2956 670 93 1300 230/06 RMK AO2 P0003 T01890178 $
94790KART ART20160605131514206/05/16 13:15:31  5-MIN KART 051815Z AUTO 21006KT 1 1/2SM RA BR FEW070 SCT090 OVC110 19/18 A2956 670 93 1300 220/06 RMK AO2 P0005 T01890178 $
94790KART ART20160605132014206/05/16 13:20:31  5-MIN KART 051820Z AUTO 21005KT 1 1/4SM RA BR FEW070 BKN090 OVC110 19/18 A2956 670 93 1300 220/05 RMK AO2 P0007 T01890178 $
94790KART ART20160605132514206/05/16 13:25:31  5-MIN KART 051825Z AUTO 21007KT 1 1/2SM RA BR FEW075 BKN090 OVC110 19/18 A2956 660 93 1300 220/07 RMK AO2 P0008 T01890178 $
94790KART ART20160605133013506/05/16 13:30:31  5-MIN KART 051830Z AUTO 20005KT 1 1/2SM RA BR FEW060 OVC095 19/18 A2956 660 93 1300 220/05 RMK AO2 P0010 T01890178 $
94790KART ART20160605133513606/05/16 13:35:31  5-MIN KART 051835Z AUTO 21008KT 1 1/2SM -RA BR FEW075 OVC100 19/18 A2956 660 93 1300 230/08 RMK AO2 P0010 T01890178 $
94790KART ART20160605134013906/05/16 13:40:31  5-MIN KART 051840Z AUTO 21008KT 3SM -RA BR FEW075 BKN100 OVC120 19/18 A2956 660 93 1300 220/08 RMK AO2 P0010 T01890178 $
94790KART ART20160605134513206/05/16 13:45:31  5-MIN KART 051845Z AUTO 22008KT 4SM -RA BR FEW080 OVC100 19/18 A2956 670 90 1400 230/08 RMK AO2 P0011 T01940178 $
94790KART ART20160605135013206/05/16 13:50:31  5-MIN KART 051850Z AUTO 23008KT 5SM -RA BR OVC100 19/18 A2956 670 90 1400 240/08 RMK AO2 SLP005 P0011 T01940178 $
94790KART ART20160605135514606/05/16 13:55:31  5-MIN KART 051855Z AUTO 22008KT 5SM -RA BR FEW027 FEW065 OVC100 19/18 A2956 670 90 1400 240/08 RMK AO2 SLP005 P0011 T01940178 $
94790KART ART20160605140013906/05/16 14:00:31  5-MIN KART 051900Z AUTO 22009KT 4SM -RA BR SCT030 SCT060 OVC100 19/18 A2956 670 90 1400 230/09 RMK AO2 P0000 T01940178 $
94790KART ART20160605140513906/05/16 14:05:31  5-MIN KART 051905Z AUTO 22007KT 3SM -RA BR SCT028 BKN065 OVC100 19/18 A2955 670 93 1300 230/07 RMK AO2 P0001 T01890178 $
94790KART ART20160606221510806/06/16 22:15:31  5-MIN KART 070315Z AUTO 26006KT 10SM CLR 17/12 A2958 640 72 1000 270/06 RMK AO2 T01670117
94790KART ART20160606222010806/06/16 22:20:31  5-MIN KART 070320Z AUTO 27005KT 10SM CLR 16/12 A2958 650 75 1000 280/05 RMK AO2 T01610117
94790KART ART20160606222511106/06/16 22:25:31  5-MIN KART 070325Z AUTO 00000KT 10SM FEW120 16/12 A2957 650 75 1000 000/00 RMK AO2 T01610117
94790KART ART20160606223011706/06/16 22:30:31  5-MIN KART 070330Z AUTO 00000KT 10SM SCT120 16/12 A2956 660 77 900 000/00 RMK AO2 PRESFR T01560117
94790KART ART20160606223511006/06/16 22:35:31  5-MIN KART 070335Z AUTO 16004KT 10SM BKN110 16/12 A2956 660 80 900 170/04 RMK AO2 T01560122
94790KART ART20160606224011006/06/16 22:40:31  5-MIN KART 070340Z AUTO 15004KT 10SM BKN110 16/12 A2956 670 80 900 170/04 RMK AO2 T01560122
94790KART ART20160606224511006/06/16 22:45:31  5-MIN KART 070345Z AUTO 16004KT 10SM BKN110 16/12 A2956 670 77 900 180/04 RMK AO2 T01560117
94790KART ART20160606225011706/06/16 22:50:31  5-MIN KART 070350Z AUTO 17004KT 10SM BKN110 16/12 A2956 670 77 900 180/04 RMK AO2 SLP005 T01560117
94790KART ART20160606225511706/06/16 22:55:31  5-MIN KART 070355Z AUTO 17004KT 10SM BKN110 16/12 A2955 670 77 900 180/04 RMK AO2 SLP005 T01560117
94790KART ART20160606230011006/06/16 23:00:31  5-MIN KART 070400Z AUTO 20003KT 10SM BKN100 15/12 A2956 670 80 900 210/03 RMK AO2 T01500117
94790KART ART20160606230511006/06/16 23:05:31  5-MIN KART 070405Z AUTO 19004KT 10SM SCT100 15/12 A2956 670 80 900 200/04 RMK AO2 T01500117
94790KART ART20160606231011006/06/16 23:10:31  5-MIN KART 070410Z AUTO 17005KT 10SM FEW100 15/12 A2955 670 80 900 190/05 RMK AO2 T01500117
94790KART ART20160606231511006/06/16 23:15:31  5-MIN KART 070415Z AUTO 17005KT 10SM FEW100 15/12 A2955 670 80 900 180/05 RMK AO2 T01500117
94790KART ART20160606232010706/06/16 23:20:31  5-MIN KART 070420Z AUTO 16006KT 10SM CLR 15/12 A2954 680 80 900 170/06 RMK AO2 T01500117
94790KART ART20160606232510706/06/16 23:25:31  5-MIN KART 070425Z AUTO 15005KT 10SM CLR 15/12 A2954 690 80 900 170/05 RMK AO2 T01500117
94790KART ART20160606233010706/06/16 23:30:31  5-MIN KART 070430Z AUTO 15005KT 10SM CLR 15/12 A2953 690 80 900 160/05 RMK AO2 T01500117
94790KART ART20160606233511106/06/16 23:35:31  5-MIN KART 070435Z AUTO 15004KT 10SM FEW110 16/12 A2953 690 77 1000 160/04 RMK AO2 T01560117
94790KART ART20160606234011106/06/16 23:40:31  5-MIN KART 070440Z AUTO 16004KT 10SM SCT100 16/12 A2953 700 77 1000 170/04 RMK AO2 T01560117
94790KART ART20160606234511106/06/16 23:45:31  5-MIN KART 070445Z AUTO 16004KT 10SM BKN100 16/12 A2952 700 77 1000 170/04 RMK AO2 T01560117
94790KART ART20160606235012806/06/16 23:50:31  5-MIN KART 070450Z AUTO 00000KT 10SM BKN100 16/12 A2952 700 77 1000 000/00 RMK AO2 SLP995 T01560117 402220150
94790KART ART20160606235512806/06/16 23:55:31  5-MIN KART 070455Z AUTO VRB03KT 10SM BKN100 16/12 A2952 700 77 1000 VRB/03 RMK AO2 SLP993 T01560117 402220150
94790KART ART20160607000011106/07/16 00:00:31  5-MIN KART 070500Z AUTO 16004KT 10SM OVC100 16/12 A2952 700 77 1000 170/04 RMK AO2 T01560117
94790KART ART20160607000511106/07/16 00:05:31  5-MIN KART 070505Z AUTO 00000KT 10SM BKN100 16/12 A2952 710 77 1000 000/00 RMK AO2 T01560117
94790KART ART20160607001011106/07/16 00:10:31  5-MIN KART 070510Z AUTO 00000KT 10SM BKN100 16/11 A2952 710 74 1000 000/00 RMK AO2 T01560111
94790KART ART20160607001511106/07/16 00:15:31  5-MIN KART 070515Z AUTO 17003KT 10SM SCT100 16/11 A2951 710 74 1000 190/03 RMK AO2 T01560111
94790KART ART20160607002011106/07/16 00:20:31  5-MIN KART 070520Z AUTO 22003KT 10SM SCT100 16/11 A2951 710 74 1000 230/03 RMK AO2 T01560111
94790KART ART20160607002511006/07/16 00:25:31  5-MIN KART 070525Z AUTO 00000KT 10SM FEW100 15/11 A2951 710 77 900 000/00 RMK AO2 T01500111
94790KART ART20160607003010706/07/16 00:30:31  5-MIN KART 070530Z AUTO VRB03KT 10SM CLR 15/11 A2951 710 77 900 VRB/03 RMK AO2 T01500111
94790KART ART20160607003510706/07/16 00:35:31  5-MIN KART 070535Z AUTO 17005KT 10SM CLR 15/11 A2950 720 77 900 180/05 RMK AO2 T01500111
94790KART ART20160607004006306/07/16 00:40:31  5-MIN KART 070540Z AUTO M M M M /M RMK AO2 $
94790KART ART20160607004510006/07/16 00:45:31  5-MIN KART 070545Z AUTO 17004KT 15/11 A2950 720 77 900 180/04 RMK AO2 T01500111 $
94790KART ART20160607005012406/07/16 00:50:31  5-MIN KART 070550Z AUTO 16005KT 10SM 15/11 A2950 720 74 900 170/05 RMK AO2 SLP986 T01500106 10206 20150 $
94790KART ART20160607005512406/07/16 00:55:31  5-MIN KART 070555Z AUTO 16005KT 10SM 15/11 A2950 720 74 900 180/05 RMK AO2 SLP985 T01500106 10206 20150 $
94790KART ART20160607010010506/07/16 01:00:31  5-MIN KART 070600Z AUTO 17003KT 10SM 15/11 A2950 720 74 900 190/03 RMK AO2 T01500106 $
94790KART ART20160607010510606/07/16 01:05:31  5-MIN KART 070605Z AUTO 00000KT 10SM 16/11 A2950 720 72 1000 000/00 RMK AO2 T01560106 $
94790KART ART20160607011011206/07/16 01:10:31  5-MIN KART 070610Z AUTO 00000KT 10SM FEW110 15/11 A2950 720 74 900 000/00 RMK AO2 T01500106 $
94790KART ART20160607011511206/07/16 01:15:31  5-MIN KART 070615Z AUTO 00000KT 10SM FEW110 15/11 A2950 720 74 900 000/00 RMK AO2 T01500106 $
94790KART ART20160607012011206/07/16 01:20:31  5-MIN KART 070620Z AUTO 00000KT 10SM FEW110 15/11 A2950 720 74 900 000/00 RMK AO2 T01500106 $
94790KART ART20160607012511206/07/16 01:25:31  5-MIN KART 070625Z AUTO 00000KT 10SM FEW110 14/11 A2950 720 77 900 000/00 RMK AO2 T01440106 $
94790KART ART20160607013011206/07/16 01:30:31  5-MIN KART 070630Z AUTO 19003KT 10SM SCT100 14/11 A2950 720 77 900 200/03 RMK AO2 T01440106 $
94790KART ART20160607013511206/07/16 01:35:31  5-MIN KART 070635Z AUTO 19003KT 10SM BKN100 14/11 A2951 720 77 900 200/03 RMK AO2 T01440106 $
94790KART ART20160607014011206/07/16 01:40:31  5-MIN KART 070640Z AUTO 00000KT 10SM BKN100 14/11 A2951 710 77 900 000/00 RMK AO2 T01440106 $
94790KART ART20160607014511206/07/16 01:45:31  5-MIN KART 070645Z AUTO 00000KT 10SM BKN100 15/11 A2951 710 74 900 000/00 RMK AO2 T01500106 $
94790KART ART20160607015011906/07/16 01:50:31  5-MIN KART 070650Z AUTO 00000KT 10SM OVC095 15/11 A2951 710 74 900 000/00 RMK AO2 SLP991 T01500106 $
94790KART ART20160607015513006/07/16 01:55:31  5-MIN KART 070655Z AUTO 29003KT 10SM OVC100 14/11 A2952 700 80 800 300/03 RMK AO2 LTG DSNT S SLP994 T01440111 $
94790KART ART20160607020012306/07/16 02:00:31  5-MIN KART 070700Z AUTO 29004KT 10SM OVC100 15/11 A2953 690 77 900 310/04 RMK AO2 LTG DSNT S T01500111 $
94790KART ART20160607020513006/07/16 02:05:31  5-MIN KART 070705Z AUTO 26004KT 10SM OVC100 15/11 A2953 690 77 900 270/04 RMK AO2 LTG DSNT S PRESRR T01500111 $
94790KART ART20160607021011206/07/16 02:10:31  5-MIN KART 070710Z AUTO 22006KT 10SM OVC095 15/11 A2954 690 77 900 240/06 RMK AO2 T01500111 $
94790KART ART20160607021511906/07/16 02:15:31  5-MIN KART 070715Z AUTO 22009KT 10SM FEW080 OVC100 16/11 A2954 680 74 900 240/09 RMK AO2 T01560111 $
94790KART ART20160607022012906/07/16 02:20:31  5-MIN KART 070720Z AUTO 23010KT 10SM -RA OVC090 16/11 A2954 680 72 1000 240/10 RMK AO2 RAB17 P0000 T01610111 $
94790KART ART20160607022513506/07/16 02:25:31  5-MIN KART 070725Z AUTO 22012G18KT 10SM -RA OVC090 16/11 A2955 680 72 1000 230/12G18 RMK AO2 RAB17 P0000 T01610111 $
94790KART ART20160607023013306/07/16 02:30:31  5-MIN KART 070730Z AUTO 21014G21KT 8SM -RA OVC090 16/12 A2955 680 77 900 230/14G21 RMK AO2 RAB17 P0000 T01560117 $
94790KART ART20160607023513306/07/16 02:35:31  5-MIN KART 070735Z AUTO 21012G21KT 8SM -RA OVC090 15/12 A2955 670 83 900 230/12G21 RMK AO2 RAB17 P0001 T01500122 $
94790KART ART20160607024013306/07/16 02:40:31  5-MIN KART 070740Z AUTO 22012G20KT 7SM -RA OVC085 15/12 A2955 670 83 900 230/12G20 RMK AO2 RAB17 P0001 T01500122 $
94790KART ART20160607024513606/07/16 02:45:31  5-MIN KART 070745Z AUTO 21011G20KT 6SM -RA BR OVC085 15/13 A2955 680 86 900 230/11G20 RMK AO2 RAB17 P0002 T01500128 $
94790KART ART20160607025014206/07/16 02:50:31  5-MIN KART 070750Z AUTO 21011G20KT 4SM RA BR OVC085 14/13 A2955 680 90 800 220/11G20 RMK AO2 RAB17 SLP002 P0003 T01440128 $
94790KART ART20160607025513606/07/16 02:55:31  5-MIN KART 070755Z AUTO 21011KT 4SM RA BR OVC085 14/13 A2955 680 90 800 220/11 RMK AO2 RAB17 SLP002 P0004 T01440128 $
94790KART ART20160607030013006/07/16 03:00:31  5-MIN KART 070800Z AUTO 22010G18KT 5SM -RA BR OVC085 14/13 A2954 680 90 800 230/10G18 RMK AO2 P0001 T01440128 $
94790KART ART20160607030513006/07/16 03:05:31  5-MIN KART 070805Z AUTO 21009G18KT 6SM -RA BR OVC085 14/13 A2954 680 90 800 230/09G18 RMK AO2 P0001 T01440128 $
94790KART ART20160607031012406/07/16 03:10:31  5-MIN KART 070810Z AUTO 22008KT 6SM -RA BR OVC085 14/13 A2955 680 90 800 230/08 RMK AO2 P0002 T01440128 $
94790KART ART20160607031513106/07/16 03:15:31  5-MIN KART 070815Z AUTO 23006KT 5SM -RA BR FEW070 OVC085 14/13 A2955 680 90 800 240/06 RMK AO2 P0002 T01440128 $
94790KART ART20160607032013106/07/16 03:20:31  5-MIN KART 070820Z AUTO 20005KT 5SM -RA BR FEW070 OVC085 14/13 A2955 680 90 800 220/05 RMK AO2 P0002 T01440128 $
94790KART ART20160607032513106/07/16 03:25:31  5-MIN KART 070825Z AUTO 21007KT 4SM -RA BR BKN080 OVC090 14/13 A2954 680 90 800 220/07 RMK AO2 P0003 T01440128 $
94790KART ART20160607033013106/07/16 03:30:31  5-MIN KART 070830Z AUTO 22007KT 5SM -RA BR BKN080 OVC090 14/13 A2955 680 90 800 230/07 RMK AO2 P0003 T01440128 $
94790KART ART20160607033513106/07/16 03:35:31  5-MIN KART 070835Z AUTO 22007KT 5SM -RA BR BKN080 OVC090 14/13 A2955 680 90 800 240/07 RMK AO2 P0003 T01440128 $
94790KART ART20160607034013106/07/16 03:40:31  5-MIN KART 070840Z AUTO 21004KT 5SM -RA BR BKN080 OVC090 14/13 A2954 680 93 700 220/04 RMK AO2 P0004 T01390128 $
94790KART ART20160607034513006/07/16 03:45:31  5-MIN KART 070845Z AUTO 21005KT 4SM RA BR BKN080 OVC090 14/13 A2954 680 93 800 220/05 RMK AO2 P0005 T01390128 $
94790KART ART20160607035014306/07/16 03:50:31  5-MIN KART 070850Z AUTO VRB04KT 3SM RA BR BKN080 OVC090 14/13 A2954 690 93 800 VRB/04 RMK AO2 SLP999 P0005 60009 T01390128 $
94790KART ART20160607035514406/07/16 03:55:31  5-MIN KART 070855Z AUTO 20005KT 4SM -RA BR BKN080 OVC090 14/13 A2954 680 96 700 220/05 RMK AO2 SLP001 P0006 60010 T01390133 $
94790KART ART20160607040012406/07/16 04:00:31  5-MIN KART 070900Z AUTO 19004KT 6SM -RA BR OVC085 14/13 A2954 680 93 800 200/04 RMK AO2 P0000 T01390128 $
94790KART ART20160607040512106/07/16 04:05:31  5-MIN KART 070905Z AUTO 15005KT 7SM -RA OVC085 14/13 A2953 700 93 800 170/05 RMK AO2 P0000 T01390128 $
94790KART ART20160607041012106/07/16 04:10:31  5-MIN KART 070910Z AUTO 19005KT 8SM -RA OVC090 14/13 A2953 690 93 800 200/05 RMK AO2 P0000 T01390128 $
94790KART ART20160607041512106/07/16 04:15:31  5-MIN KART 070915Z AUTO 18003KT 8SM -RA OVC090 14/13 A2953 690 93 800 200/03 RMK AO2 P0000 T01390128 $
94790KART ART20160607042012106/07/16 04:20:31  5-MIN KART 070920Z AUTO 00000KT 8SM -RA OVC085 14/13 A2953 700 93 800 000/00 RMK AO2 P0000 T01390128 $
94790KART ART20160607042512106/07/16 04:25:31  5-MIN KART 070925Z AUTO 17003KT 7SM -RA OVC085 14/13 A2952 700 93 800 190/03 RMK AO2 P0001 T01390128 $
94790KART ART20160607043012406/07/16 04:30:31  5-MIN KART 070930Z AUTO 23003KT 6SM -RA BR OVC085 14/13 A2953 700 93 800 250/03 RMK AO2 P0001 T01390128 $
94790KART ART20160607043512806/07/16 04:35:31  5-MIN KART 070935Z AUTO 25003KT 7SM -RA BKN080 BKN095 14/13 A2952 700 93 800 260/03 RMK AO2 P0001 T01390128 $
94790KART ART20160607044013106/07/16 04:40:31  5-MIN KART 070940Z AUTO 25003KT 10SM BKN080 BKN095 14/13 A2952 700 93 800 270/03 RMK AO2 RAE40 P0001 T01390128 $
94790KART ART20160607044513006/07/16 04:45:31  5-MIN KART 070945Z AUTO 23003KT 9SM SCT080 BKN095 13/13 A2952 700 96 700 240/03 RMK AO2 RAE40 P0001 T01330128 $
94790KART ART20160607045013706/07/16 04:50:31  5-MIN KART 070950Z AUTO 00000KT 7SM SCT075 SCT095 13/12 A2952 700 93 700 000/00 RMK AO2 RAE40 SLP993 P0001 T01330122 $
94790KART ART20160607045514006/07/16 04:55:31  5-MIN KART 070955Z AUTO 00000KT 6SM BR FEW070 FEW090 13/12 A2952 700 96 600 000/00 RMK AO2 RAE40 SLP993 P0001 T01280122 $
94790KART ART20160607050011106/07/16 05:00:31  5-MIN KART 071000Z AUTO 20003KT 5SM BR CLR 13/12 A2952 700 96 600 210/03 RMK AO2 T01280122 $
94790KART ART20160607050511106/07/16 05:05:31  5-MIN KART 071005Z AUTO 21003KT 6SM BR CLR 13/12 A2952 700 93 700 220/03 RMK AO2 T01330122 $
94790KART ART20160607051010806/07/16 05:10:31  5-MIN KART 071010Z AUTO 20003KT 8SM CLR 13/12 A2952 700 93 700 210/03 RMK AO2 T01330122 $
94790KART ART20160607051510906/07/16 05:15:31  5-MIN KART 071015Z AUTO 22004KT 10SM CLR 13/12 A2952 700 93 700 230/04 RMK AO2 T01330122 $
94790KART ART20160607052010906/07/16 05:20:31  5-MIN KART 071020Z AUTO 21003KT 10SM CLR 13/12 A2953 700 96 600 220/03 RMK AO2 T01280122 $
94790KART ART20160607052510906/07/16 05:25:31  5-MIN KART 071025Z AUTO 00000KT 10SM CLR 13/13 A2952 700 96 700 000/00 RMK AO2 T01330128 $
94790KART ART20160607053010906/07/16 05:30:31  5-MIN KART 071030Z AUTO 19003KT 10SM CLR 14/13 A2953 700 93 800 200/03 RMK AO2 T01390128 $
94790KART ART20160607053510906/07/16 05:35:31  5-MIN KART 071035Z AUTO 00000KT 10SM CLR 14/13 A2953 690 93 800 000/00 RMK AO2 T01390128 $
94790KART ART20160607054010906/07/16 05:40:31  5-MIN KART 071040Z AUTO 18004KT 10SM CLR 14/13 A2953 690 93 800 200/04 RMK AO2 T01390128 $
94790KART ART20160607054511206/07/16 05:45:31  5-MIN KART 071045Z AUTO 19004KT 10SM FEW100 14/13 A2953 690 93 800 200/04 RMK AO2 T01390128 $
94790KART ART20160607055011906/07/16 05:50:31  5-MIN KART 071050Z AUTO 18003KT 10SM FEW100 14/13 A2953 690 93 800 190/03 RMK AO2 SLP995 T01440133 $
94790KART ART20160607055511906/07/16 05:55:31  5-MIN KART 071055Z AUTO VRB03KT 10SM FEW100 14/13 A2953 690 93 800 VRB/03 RMK AO2 SLP996 T01440133 $
94790KART ART20160607060011206/07/16 06:00:31  5-MIN KART 071100Z AUTO 19004KT 10SM FEW100 14/13 A2953 690 93 800 200/04 RMK AO2 T01440133 $
94790KART ART20160607060511206/07/16 06:05:31  5-MIN KART 071105Z AUTO VRB03KT 10SM FEW100 15/13 A2953 690 90 900 VRB/03 RMK AO2 T01500133 $
94790KART ART20160607061011206/07/16 06:10:31  5-MIN KART 071110Z AUTO 20003KT 10SM FEW100 15/13 A2953 690 90 900 210/03 RMK AO2 T01500133 $
94790KART ART20160607061510906/07/16 06:15:31  5-MIN KART 071115Z AUTO VRB03KT 10SM CLR 15/13 A2953 690 90 900 VRB/03 RMK AO2 T01500133 $
94790KART ART20160607062011006/07/16 06:20:31  5-MIN KART 071120Z AUTO 00000KT 10SM CLR 16/13 A2953 690 86 1000 000/00 RMK AO2 T01560133 $
94790KART ART20160607062510806/07/16 06:25:31  5-MIN KART 071125Z AUTO 20003KT 10SM CLR 16/13 A2953 690 86 1000 210/03 RMK AO2 T01560133
94790KART ART20160607063010806/07/16 06:30:31  5-MIN KART 071130Z AUTO 20004KT 10SM CLR 16/13 A2954 690 86 1000 210/04 RMK AO2 T01560133
94790KART ART20160607063510806/07/16 06:35:31  5-MIN KART 071135Z AUTO 20004KT 10SM CLR 16/14 A2954 690 90 1000 210/04 RMK AO2 T01560139
94790KART ART20160607064010806/07/16 06:40:31  5-MIN KART 071140Z AUTO 21008KT 10SM CLR 16/14 A2954 690 86 1000 220/08 RMK AO2 T01610139
94790KART ART20160607064510806/07/16 06:45:31  5-MIN KART 071145Z AUTO 21004KT 10SM CLR 16/14 A2954 690 86 1000 220/04 RMK AO2 T01610139
94790KART ART20160607065014806/07/16 06:50:31  5-MIN KART 071150Z AUTO 21006KT 10SM FEW080 16/13 A2953 690 83 1000 220/06 RMK AO2 SLP997 60011 70011 T01610133 10161 20128 50015
94790KART ART20160607065515506/07/16 06:55:31  5-MIN KART 071155Z AUTO 21006KT 10SM FEW080 SCT110 16/13 A2953 690 83 1000 230/06 RMK AO2 SLP997 60011 70011 T01610133 10161 20128 50015
94790KART ART20160607070011806/07/16 07:00:31  5-MIN KART 071200Z AUTO 19007KT 10SM SCT080 BKN110 17/14 A2953 690 83 1100 210/07 RMK AO2 T01670139
94790KART ART20160607070511806/07/16 07:05:31  5-MIN KART 071205Z AUTO 20007KT 10SM SCT080 BKN110 17/14 A2953 690 83 1100 210/07 RMK AO2 T01670139
94790KART ART20160607071011806/07/16 07:10:31  5-MIN KART 071210Z AUTO 20008KT 10SM SCT075 BKN110 16/13 A2953 690 83 1000 220/08 RMK AO2 T01610133
94790KART ART20160607071511806/07/16 07:15:31  5-MIN KART 071215Z AUTO 21007KT 10SM SCT080 BKN110 16/13 A2953 690 83 1000 220/07 RMK AO2 T01610133
94790KART ART20160607072011806/07/16 07:20:31  5-MIN KART 071220Z AUTO 21007KT 10SM SCT075 BKN110 16/13 A2953 690 83 1000 220/07 RMK AO2 T01610133
94790KART ART20160607072511806/07/16 07:25:31  5-MIN KART 071225Z AUTO 21007KT 10SM FEW080 SCT110 17/14 A2953 690 83 1100 220/07 RMK AO2 T01670139
94790KART ART20160607073011806/07/16 07:30:31  5-MIN KART 071230Z AUTO 22009KT 10SM FEW080 SCT110 17/14 A2953 690 80 1200 230/09 RMK AO2 T01720139
94790KART ART20160607073511806/07/16 07:35:31  5-MIN KART 071235Z AUTO 22010KT 10SM FEW080 SCT110 17/14 A2953 690 80 1200 230/10 RMK AO2 T01720139
94790KART ART20160607074011106/07/16 07:40:31  5-MIN KART 071240Z AUTO 22009KT 10SM FEW110 17/14 A2953 690 80 1200 230/09 RMK AO2 T01720139
94790KART ART20160607074512506/07/16 07:45:31  5-MIN KART 071245Z AUTO 22010KT 10SM FEW019 FEW060 FEW110 17/13 A2953 690 78 1200 240/10 RMK AO2 T01720133
94790KART ART20160607075013806/07/16 07:50:31  5-MIN KART 071250Z AUTO 23007G16KT 10SM FEW019 SCT065 SCT110 17/14 A2953 700 80 1200 240/07G16 RMK AO2 SLP996 T01720139
94790KART ART20160607075513106/07/16 07:55:31  5-MIN KART 071255Z AUTO 23010G16KT 10SM FEW019 BKN065 17/13 A2953 700 78 1200 240/10G16 RMK AO2 SLP996 T01720133
94790KART ART20160607080012406/07/16 08:00:31  5-MIN KART 071300Z AUTO 21010G17KT 10SM SCT017 BKN060 17/13 A2952 700 78 1200 220/10G17 RMK AO2 T01720133
94790KART ART20160607080512406/07/16 08:05:31  5-MIN KART 071305Z AUTO 22008G17KT 10SM SCT017 BKN065 17/13 A2952 700 78 1200 230/08G17 RMK AO2 T01720133
94790KART ART20160607081011806/07/16 08:10:31  5-MIN KART 071310Z AUTO 23011KT 10SM FEW017 OVC070 17/13 A2952 700 78 1200 240/11 RMK AO2 T01720133
94790KART ART20160607081511806/07/16 08:15:31  5-MIN KART 071315Z AUTO 22011KT 10SM SCT018 OVC065 17/13 A2953 700 80 1100 240/11 RMK AO2 T01670133
94790KART ART20160607082011806/07/16 08:20:31  5-MIN KART 071320Z AUTO 23010KT 10SM BKN018 OVC065 17/13 A2953 690 78 1200 250/10 RMK AO2 T01720133
94790KART ART20160607082511806/07/16 08:25:31  5-MIN KART 071325Z AUTO 23011KT 10SM BKN018 OVC070 17/13 A2953 690 80 1100 240/11 RMK AO2 T01670133
94790KART ART20160607083011806/07/16 08:30:31  5-MIN KART 071330Z AUTO 22010KT 10SM BKN018 OVC070 17/13 A2953 700 78 1200 230/10 RMK AO2 T01720133
94790KART ART20160607083511806/07/16 08:35:31  5-MIN KART 071335Z AUTO 22011KT 10SM BKN018 OVC060 17/13 A2953 700 80 1100 230/11 RMK AO2 T01670133
94790KART ART20160607084011806/07/16 08:40:31  5-MIN KART 071340Z AUTO 23010KT 10SM BKN018 OVC028 17/13 A2953 700 78 1200 240/10 RMK AO2 T01720133
94790KART ART20160607084511806/07/16 08:45:31  5-MIN KART 071345Z AUTO 22010KT 10SM BKN017 OVC028 17/13 A2953 700 80 1100 240/10 RMK AO2 T01670133
94790KART ART20160607085013206/07/16 08:50:31  5-MIN KART 071350Z AUTO 22010KT 10SM BKN017 BKN028 OVC060 17/13 A2953 700 78 1200 230/10 RMK AO2 SLP995 T01720133
94790KART ART20160607085512506/07/16 08:55:31  5-MIN KART 071355Z AUTO 22009KT 10SM BKN017 OVC060 17/13 A2953 700 80 1100 230/09 RMK AO2 SLP995 T01670133
94790KART ART20160607090011806/07/16 09:00:31  5-MIN KART 071400Z AUTO 24008KT 10SM BKN017 OVC055 17/13 A2952 700 80 1100 250/08 RMK AO2 T01670133
94790KART ART20160607090511806/07/16 09:05:31  5-MIN KART 071405Z AUTO 24010KT 10SM BKN015 OVC060 17/14 A2952 700 80 1200 250/10 RMK AO2 T01720139
94790KART ART20160607091012506/07/16 09:10:31  5-MIN KART 071410Z AUTO 23008KT 10SM BKN015 BKN060 BKN100 17/14 A2952 700 80 1200 240/08 RMK AO2 T01720139
94790KART ART20160607091511806/07/16 09:15:31  5-MIN KART 071415Z AUTO 23008KT 10SM BKN015 BKN100 18/14 A2952 700 78 1200 240/08 RMK AO2 T01780139
94790KART ART20160607092011106/07/16 09:20:31  5-MIN KART 071420Z AUTO 22011KT 10SM BKN015 18/13 A2952 700 75 1200 230/11 RMK AO2 T01780133
94790KART ART20160607092512506/07/16 09:25:31  5-MIN KART 071425Z AUTO 22010KT 10SM BKN016 BKN021 BKN090 18/13 A2952 700 75 1200 230/10 RMK AO2 T01780133
94790KART ART20160607093011806/07/16 09:30:31  5-MIN KART 071430Z AUTO 24008KT 10SM BKN016 BKN085 18/13 A2952 700 75 1200 260/08 RMK AO2 T01780133
94790KART ART20160607093511806/07/16 09:35:31  5-MIN KART 071435Z AUTO 22010KT 10SM BKN016 OVC085 18/13 A2952 700 75 1200 230/10 RMK AO2 T01780133
94790KART ART20160607094011806/07/16 09:40:31  5-MIN KART 071440Z AUTO 24008KT 10SM BKN016 OVC085 18/13 A2952 700 72 1300 260/08 RMK AO2 T01830133
94790KART ART20160607094511806/07/16 09:45:31  5-MIN KART 071445Z AUTO 25007KT 10SM BKN017 OVC080 18/14 A2952 700 75 1300 260/07 RMK AO2 T01830139
94790KART ART20160607095013106/07/16 09:50:31  5-MIN KART 071450Z AUTO 25007KT 10SM BKN017 OVC080 18/14 A2952 710 75 1300 260/07 RMK AO2 SLP992 T01830139 55003
94790KART ART20160607095513106/07/16 09:55:31  5-MIN KART 071455Z AUTO 25008KT 10SM BKN017 OVC080 18/14 A2951 710 75 1300 260/08 RMK AO2 SLP991 T01830139 55003
94790KART ART20160607100011806/07/16 10:00:31  5-MIN KART 071500Z AUTO 21008KT 10SM BKN017 BKN080 18/13 A2951 710 72 1300 230/08 RMK AO2 T01830133
94790KART ART20160607100511806/07/16 10:05:31  5-MIN KART 071505Z AUTO 25007KT 10SM BKN017 BKN080 18/14 A2951 710 75 1300 270/07 RMK AO2 T01830139
94790KART ART20160607101011806/07/16 10:10:31  5-MIN KART 071510Z AUTO 27010KT 10SM BKN017 BKN080 18/14 A2951 710 75 1300 280/10 RMK AO2 T01830139
94790KART ART20160607101511806/07/16 10:15:31  5-MIN KART 071515Z AUTO 24009KT 10SM SCT017 BKN080 19/14 A2951 710 72 1400 260/09 RMK AO2 T01890139
94790KART ART20160607102012506/07/16 10:20:31  5-MIN KART 071520Z AUTO 26010KT 10SM SCT017 SCT070 BKN085 19/14 A2951 720 72 1400 280/10 RMK AO2 T01890139
94790KART ART20160607102512506/07/16 10:25:31  5-MIN KART 071525Z AUTO 24008KT 10SM SCT017 SCT070 BKN085 18/14 A2951 710 75 1300 250/08 RMK AO2 T01830139
94790KART ART20160607103011806/07/16 10:30:31  5-MIN KART 071530Z AUTO 24009KT 10SM SCT017 BKN080 18/13 A2951 710 75 1200 250/09 RMK AO2 T01780133
94790KART ART20160607103512506/07/16 10:35:31  5-MIN KART 071535Z AUTO 26011KT 10SM SCT017 BKN080 BKN095 18/14 A2951 710 75 1300 270/11 RMK AO2 T01830139
94790KART ART20160607104012506/07/16 10:40:31  5-MIN KART 071540Z AUTO 26010KT 10SM SCT017 SCT070 BKN090 18/14 A2951 710 75 1300 270/10 RMK AO2 T01830139
94790KART ART20160607104513106/07/16 10:45:31  5-MIN KART 071545Z AUTO 26010G18KT 10SM SCT017 BKN080 BKN095 18/14 A2951 710 78 1200 270/10G18 RMK AO2 T01780139
94790KART ART20160607105013806/07/16 10:50:31  5-MIN KART 071550Z AUTO 25010G18KT 10SM FEW016 BKN080 BKN095 18/14 A2951 710 78 1200 260/10G18 RMK AO2 SLP990 T01780139
94790KART ART20160607105513206/07/16 10:55:31  5-MIN KART 071555Z AUTO 24008KT 10SM FEW016 SCT065 BKN080 18/14 A2951 710 81 1200 260/08 RMK AO2 SLP989 T01780144
94790KART ART20160607110012506/07/16 11:00:31  5-MIN KART 071600Z AUTO 24007KT 10SM FEW016 SCT065 BKN080 18/14 A2951 720 78 1200 250/07 RMK AO2 T01780139
94790KART ART20160607110512506/07/16 11:05:31  5-MIN KART 071605Z AUTO 23009KT 10SM FEW014 SCT065 BKN080 18/14 A2951 710 78 1300 240/09 RMK AO2 T01830144
94790KART ART20160607111012506/07/16 11:10:31  5-MIN KART 071610Z AUTO 24008KT 10SM SCT014 SCT065 BKN085 18/14 A2951 710 78 1300 260/08 RMK AO2 T01830144
94790KART ART20160607111512506/07/16 11:15:31  5-MIN KART 071615Z AUTO 24007KT 10SM FEW014 SCT060 BKN080 18/14 A2951 710 75 1300 250/07 RMK AO2 T01830139
94790KART ART20160607112012506/07/16 11:20:31  5-MIN KART 071620Z AUTO 24007KT 10SM SCT015 SCT060 OVC080 18/14 A2951 710 75 1300 250/07 RMK AO2 T01830139
94790KART ART20160607112511806/07/16 11:25:31  5-MIN KART 071625Z AUTO 24009KT 10SM SCT015 BKN080 18/14 A2951 710 75 1300 250/09 RMK AO2 T01830139
94790KART ART20160607113011806/07/16 11:30:31  5-MIN KART 071630Z AUTO 26009KT 10SM SCT016 BKN080 19/14 A2951 710 72 1400 270/09 RMK AO2 T01890139
94790KART ART20160607113512406/07/16 11:35:31  5-MIN KART 071635Z AUTO 25008G16KT 10SM SCT016 BKN080 19/14 A2951 710 72 1400 260/08G16 RMK AO2 T01890139
94790KART ART20160607114012506/07/16 11:40:31  5-MIN KART 071640Z AUTO 23008KT 10SM SCT016 SCT055 BKN080 19/14 A2951 710 72 1400 240/08 RMK AO2 T01890139
94790KART ART20160607114512506/07/16 11:45:31  5-MIN KART 071645Z AUTO 23007KT 10SM SCT017 BKN055 BKN085 19/14 A2951 720 72 1400 240/07 RMK AO2 T01890139
94790KART ART20160607115011506/07/16 11:50:31  5-MIN KART 071650Z AUTO 22009KT 10SM BKN017 BKN055 BKN080 19/14 A2951 720 72 1400 240/09 RMK AO2
94790KART ART20160607115512506/07/16 11:55:31  5-MIN KART 071655Z AUTO 24008KT 10SM BKN017 BKN055 18/13 A2951 710 72 1300 250/08 RMK AO2 SLP989 T01830133
94790KART ART20160607120011806/07/16 12:00:31  5-MIN KART 071700Z AUTO 23008KT 10SM BKN018 OVC055 19/14 A2951 720 72 1400 240/08 RMK AO2 T01890139
94790KART ART20160607120511806/07/16 12:05:31  5-MIN KART 071705Z AUTO 24008KT 10SM SCT018 OVC055 19/14 A2950 720 75 1400 260/08 RMK AO2 T01890144
94790KART ART20160607121012406/07/16 12:10:31  5-MIN KART 071710Z AUTO 26011G16KT 10SM SCT018 BKN055 19/14 A2950 720 75 1400 270/11G16 RMK AO2 T01890144
94790KART ART20160607121512406/07/16 12:15:31  5-MIN KART 071715Z AUTO 24008G16KT 10SM SCT018 BKN050 19/14 A2950 720 75 1400 250/08G16 RMK AO2 T01890144
94790KART ART20160607122011806/07/16 12:20:31  5-MIN KART 071720Z AUTO 24010KT 10SM FEW018 BKN050 18/14 A2950 720 75 1300 260/10 RMK AO2 T01830139
94790KART ART20160607122511806/07/16 12:25:31  5-MIN KART 071725Z AUTO 26011KT 10SM FEW018 BKN050 19/14 A2950 720 75 1400 270/11 RMK AO2 T01890144
94790KART ART20160607123011806/07/16 12:30:31  5-MIN KART 071730Z AUTO 26011KT 10SM FEW017 SCT050 19/14 A2950 720 72 1400 270/11 RMK AO2 T01890139
94790KART ART20160607123511806/07/16 12:35:31  5-MIN KART 071735Z AUTO 25009KT 10SM SCT017 SCT050 19/14 A2950 720 72 1500 260/09 RMK AO2 T01940144
94790KART ART20160607124011806/07/16 12:40:31  5-MIN KART 071740Z AUTO 24011KT 10SM FEW018 SCT050 19/14 A2950 720 72 1500 260/11 RMK AO2 T01940144
94790KART ART20160607124511806/07/16 12:45:31  5-MIN KART 071745Z AUTO 26011KT 10SM FEW018 FEW050 19/13 A2950 730 67 1500 270/11 RMK AO2 T01940133
94790KART ART20160607125013606/07/16 12:50:31  5-MIN KART 071750Z AUTO 24010KT 10SM FEW019 19/13 A2949 730 67 1500 250/10 RMK AO2 SLP984 T01940133 10200 20161 58006
94790KART ART20160607125513606/07/16 12:55:31  5-MIN KART 071755Z AUTO 24010KT 10SM FEW019 19/13 A2949 730 67 1500 250/10 RMK AO2 SLP984 T01940133 10200 20161 58006
94790KART ART20160607130011106/07/16 13:00:31  5-MIN KART 071800Z AUTO 24008KT 10SM FEW019 19/13 A2949 730 70 1400 250/08 RMK AO2 T01890133
94790KART ART20160607130510806/07/16 13:05:31  5-MIN KART 071805Z AUTO 24009KT 10SM CLR 19/14 A2949 730 72 1500 250/09 RMK AO2 T01940144
94790KART ART20160607131011906/07/16 13:10:31  5-MIN KART 071810Z AUTO 26012KT 10SM CLR 19/14 A2949 730 72 1500 270/12 RMK AO2 LTG DSNT N T01940144
94790KART ART20160607131512206/07/16 13:15:31  5-MIN KART 071815Z AUTO 26016KT 10SM FEW021 19/13 A2949 730 65 1500 280/16 RMK AO2 LTG DSNT N T01940128
94790KART ART20160607132012806/07/16 13:20:31  5-MIN KART 071820Z AUTO 25010G19KT 10SM FEW021 20/12 A2949 730 60 1500 260/10G19 RMK AO2 LTG DSNT N T02000122
94790KART ART20160607132512506/07/16 13:25:31  5-MIN KART 071825Z AUTO 25013G19KT 10SM CLR 19/12 A2949 730 62 1500 270/13G19 RMK AO2 LTG DSNT N T01940122
94790KART ART20160607133012506/07/16 13:30:31  5-MIN KART 071830Z AUTO 24012G19KT 10SM CLR 19/12 A2949 730 62 1500 260/12G19 RMK AO2 LTG DSNT N T01940122
94790KART ART20160607133511406/07/16 13:35:31  5-MIN KART 071835Z AUTO 23013G19KT 10SM CLR 19/12 A2949 730 60 1500 250/13G19 RMK AO2 T01940117
94790KART ART20160607134011406/07/16 13:40:31  5-MIN KART 071840Z AUTO 23015G20KT 10SM CLR 19/11 A2949 730 58 1500 240/15G20 RMK AO2 T01940111
94790KART ART20160607134511406/07/16 13:45:31  5-MIN KART 071845Z AUTO 24012G20KT 10SM CLR 19/11 A2949 730 58 1500 250/12G20 RMK AO2 T01940111
94790KART ART20160607135012106/07/16 13:50:31  5-MIN KART 071850Z AUTO 24012G19KT 10SM CLR 19/12 A2949 730 60 1500 250/12G19 RMK AO2 SLP983 T01940117
94790KART ART20160607135511506/07/16 13:55:31  5-MIN KART 071855Z AUTO 25012KT 10SM CLR 19/11 A2949 730 60 1400 260/12 RMK AO2 SLP983 T01890111
94790KART ART20160607140011406/07/16 14:00:31  5-MIN KART 071900Z AUTO 23012G19KT 10SM CLR 19/12 A2949 730 60 1500 240/12G19 RMK AO2 T01940117
94790KART ART20160607140511406/07/16 14:05:31  5-MIN KART 071905Z AUTO 24011G21KT 10SM CLR 19/12 A2949 730 62 1500 250/11G21 RMK AO2 T01940122
94790KART ART20160607141011406/07/16 14:10:31  5-MIN KART 071910Z AUTO 23017G24KT 10SM CLR 19/12 A2949 730 60 1500 250/17G24 RMK AO2 T01940117
94790KART ART20160607141511406/07/16 14:15:31  5-MIN KART 071915Z AUTO 25017G24KT 10SM CLR 19/12 A2950 730 65 1400 260/17G24 RMK AO2 T01890122
94790KART ART20160607142011706/07/16 14:20:31  5-MIN KART 071920Z AUTO 24014G23KT 10SM FEW100 18/13 A2950 720 70 1300 250/14G23 RMK AO2 T01830128
94790KART ART20160607142511706/07/16 14:25:31  5-MIN KART 071925Z AUTO 23016G22KT 10SM SCT100 17/13 A2950 730 75 1200 240/16G22 RMK AO2 T01720128
94790KART ART20160607143012806/07/16 14:30:31  5-MIN KART 071930Z AUTO 24011G22KT 10SM BKN100 17/13 A2950 730 75 1200 260/11G22 RMK AO2 LTG DSNT N T01720128
94790KART ART20160607143512806/07/16 14:35:31  5-MIN KART 071935Z AUTO 24016G23KT 10SM BKN100 18/13 A2950 730 72 1300 250/16G23 RMK AO2 LTG DSNT N T01780128
94790KART ART20160607144012806/07/16 14:40:31  5-MIN KART 071940Z AUTO 24014G23KT 10SM BKN100 17/13 A2950 730 75 1200 250/14G23 RMK AO2 LTG DSNT N T01720128
94790KART ART20160607144512806/07/16 14:45:31  5-MIN KART 071945Z AUTO 25013G22KT 10SM OVC100 18/13 A2950 720 72 1300 260/13G22 RMK AO2 LTG DSNT N T01780128
94790KART ART20160607145012406/07/16 14:50:31  5-MIN KART 071950Z AUTO 23017G23KT 10SM OVC095 17/13 A2950 720 75 1200 240/17G23 RMK AO2 SLP986 T01720128
94790KART ART20160607145512406/07/16 14:55:31  5-MIN KART 071955Z AUTO 24013G23KT 10SM OVC095 17/12 A2950 720 75 1100 250/13G23 RMK AO2 SLP987 T01670122
94790KART ART20160607150011706/07/16 15:00:31  5-MIN KART 072000Z AUTO 24014G22KT 10SM OVC095 17/12 A2950 720 72 1200 250/14G22 RMK AO2 T01720122
94790KART ART20160607150511906/07/16 15:05:31  5-MIN KART 072005Z AUTO 23016G22KT 10SM OVC095 17/12 A2950 720 72 1200 240/16G22 RMK AO2 T01720122 $
94790KART ART20160607151011906/07/16 15:10:31  5-MIN KART 072010Z AUTO 23014G22KT 10SM OVC090 17/12 A2950 720 72 1200 240/14G22 RMK AO2 T01720122 $
94790KART ART20160607151511906/07/16 15:15:31  5-MIN KART 072015Z AUTO 24013G20KT 10SM OVC090 17/12 A2949 730 72 1200 250/13G20 RMK AO2 T01720122 $
94790KART ART20160607152011906/07/16 15:20:31  5-MIN KART 072020Z AUTO 23015G22KT 10SM OVC090 17/12 A2949 730 72 1200 240/15G22 RMK AO2 T01720122 $
94790KART ART20160607152512606/07/16 15:25:31  5-MIN KART 072025Z AUTO 25016G24KT 10SM BKN090 OVC110 18/12 A2949 730 69 1300 260/16G24 RMK AO2 T01780122 $
94790KART ART20160607153011906/07/16 15:30:31  5-MIN KART 072030Z AUTO 24016G24KT 10SM OVC090 18/12 A2949 730 67 1300 260/16G24 RMK AO2 T01780117 $
94790KART ART20160607153511906/07/16 15:35:31  5-MIN KART 072035Z AUTO 24016G24KT 10SM BKN090 18/12 A2949 730 67 1300 260/16G24 RMK AO2 T01780117 $
94790KART ART20160607154011906/07/16 15:40:31  5-MIN KART 072040Z AUTO 24014G24KT 10SM SCT090 18/12 A2949 730 67 1300 250/14G24 RMK AO2 T01780117 $
94790KART ART20160607154511906/07/16 15:45:31  5-MIN KART 072045Z AUTO 23015G23KT 10SM SCT095 18/12 A2949 730 67 1300 250/15G23 RMK AO2 T01780117 $
94790KART ART20160607155013206/07/16 15:50:31  5-MIN KART 072050Z AUTO 24013G21KT 10SM FEW100 17/12 A2949 730 69 1200 250/13G21 RMK AO2 SLP985 T01720117 58005 $
94790KART ART20160607155513906/07/16 15:55:31  5-MIN KART 072055Z AUTO 24014G24KT 10SM SCT080 SCT095 17/11 A2949 730 69 1100 250/14G24 RMK AO2 SLP986 T01670111 58005 $
94790KART ART20160607160011906/07/16 16:00:31  5-MIN KART 072100Z AUTO 24015G24KT 10SM SCT080 17/12 A2950 730 69 1200 250/15G24 RMK AO2 T01720117 $
94790KART ART20160607160511906/07/16 16:05:31  5-MIN KART 072105Z AUTO 24011G21KT 10SM BKN080 17/12 A2950 720 69 1200 260/11G21 RMK AO2 T01720117 $
94790KART ART20160607161012606/07/16 16:10:31  5-MIN KART 072110Z AUTO 24011G21KT 10SM FEW020 BKN080 18/12 A2950 720 69 1300 250/11G21 RMK AO2 T01780122 $
94790KART ART20160607161512606/07/16 16:15:31  5-MIN KART 072115Z AUTO 24011G22KT 10SM FEW020 BKN080 18/12 A2950 730 69 1300 250/11G22 RMK AO2 T01780122 $
94790KART ART20160607162013306/07/16 16:20:31  5-MIN KART 072120Z AUTO 23016G22KT 10SM FEW019 BKN075 BKN090 17/12 A2950 720 72 1200 250/16G22 RMK AO2 T01720122 $
94790KART ART20160607162513306/07/16 16:25:31  5-MIN KART 072125Z AUTO 24014G20KT 10SM FEW019 SCT065 BKN085 17/12 A2950 720 72 1100 250/14G20 RMK AO2 T01670117 $
94790KART ART20160607163012606/07/16 16:30:31  5-MIN KART 072130Z AUTO 23014G20KT 10SM FEW065 BKN085 17/12 A2950 720 72 1100 240/14G20 RMK AO2 T01670117 $
94790KART ART20160607163513306/07/16 16:35:31  5-MIN KART 072135Z AUTO 24010G18KT 10SM FEW055 FEW065 BKN085 17/12 A2950 720 72 1100 250/10G18 RMK AO2 T01670117 $
94790KART ART20160607164012706/07/16 16:40:31  5-MIN KART 072140Z AUTO 24011KT 10SM SCT038 SCT055 BKN065 17/12 A2950 720 75 1100 260/11 RMK AO2 T01670122 $
94790KART ART20160607164513306/07/16 16:45:31  5-MIN KART 072145Z AUTO 24013G19KT 10SM BKN038 BKN065 OVC085 16/12 A2950 720 75 1100 250/13G19 RMK AO2 T01610117 $
94790KART ART20160607165014006/07/16 16:50:31  5-MIN KART 072150Z AUTO 24011G19KT 10SM BKN038 BKN050 OVC085 16/12 A2950 720 75 1100 260/11G19 RMK AO2 SLP987 T01610117 $
94790KART ART20160607165513406/07/16 16:55:31  5-MIN KART 072155Z AUTO 24013KT 10SM SCT038 BKN050 OVC085 16/12 A2950 720 75 1100 250/13 RMK AO2 SLP987 T01610117 $
94790KART ART20160607170012606/07/16 17:00:31  5-MIN KART 072200Z AUTO 24013G20KT 10SM SCT038 OVC060 16/12 A2950 720 75 1100 250/13G20 RMK AO2 T01610117 $
94790KART ART20160607170513306/07/16 17:05:31  5-MIN KART 072205Z AUTO 24014G23KT 10SM SCT037 SCT049 OVC060 16/12 A2950 720 77 1000 250/14G23 RMK AO2 T01560117 $
94790KART ART20160607171012606/07/16 17:10:31  5-MIN KART 072210Z AUTO 23012G23KT 10SM FEW037 OVC060 16/12 A2950 720 77 1000 250/12G23 RMK AO2 T01560117 $
94790KART ART20160607171513306/07/16 17:15:31  5-MIN KART 072215Z AUTO 24011G19KT 10SM FEW050 BKN060 OVC070 16/12 A2950 720 77 1000 250/11G19 RMK AO2 T01560117 $
94790KART ART20160607172011906/07/16 17:20:31  5-MIN KART 072220Z AUTO 23014G19KT 10SM OVC060 16/11 A2950 720 74 1000 240/14G19 RMK AO2 T01560111 $
94790KART ART20160607172511906/07/16 17:25:31  5-MIN KART 072225Z AUTO 23009G19KT 10SM OVC065 16/11 A2950 720 72 1000 240/09G19 RMK AO2 T01560106 $
94790KART ART20160607173011306/07/16 17:30:31  5-MIN KART 072230Z AUTO 23011KT 10SM OVC065 16/11 A2950 720 72 1000 250/11 RMK AO2 T01560106 $
94790KART ART20160607173511306/07/16 17:35:31  5-MIN KART 072235Z AUTO 24008KT 10SM OVC065 16/11 A2950 720 72 1000 250/08 RMK AO2 T01560106 $
94790KART ART20160607174012006/07/16 17:40:31  5-MIN KART 072240Z AUTO 24008KT 10SM FEW039 OVC065 16/11 A2950 720 74 1000 250/08 RMK AO2 T01560111 $
94790KART ART20160607174512606/07/16 17:45:31  5-MIN KART 072245Z AUTO 25011G21KT 10SM SCT039 OVC065 16/11 A2950 720 72 1100 260/11G21 RMK AO2 T01610111 $
94790KART ART20160607175013306/07/16 17:50:31  5-MIN KART 072250Z AUTO 25011G21KT 10SM SCT038 OVC065 16/11 A2951 720 72 1100 260/11G21 RMK AO2 SLP989 T01610111 $
94790KART ART20160607175513306/07/16 17:55:31  5-MIN KART 072255Z AUTO 24008G17KT 10SM SCT038 OVC070 16/12 A2950 720 75 1100 250/08G17 RMK AO2 SLP989 T01610117 $
94790KART ART20160607180012006/07/16 18:00:31  5-MIN KART 072300Z AUTO 24008KT 10SM BKN036 OVC070 16/12 A2950 720 75 1100 250/08 RMK AO2 T01610117 $
94790KART ART20160607180512006/07/16 18:05:31  5-MIN KART 072305Z AUTO 23010KT 10SM BKN036 OVC070 16/12 A2950 720 75 1100 240/10 RMK AO2 T01610117 $
94790KART ART20160607181011306/07/16 18:10:31  5-MIN KART 072310Z AUTO 24009KT 10SM OVC036 16/12 A2951 710 75 1100 250/09 RMK AO2 T01610117 $
94790KART ART20160607181512006/07/16 18:15:31  5-MIN KART 072315Z AUTO 25010KT 10SM BKN034 OVC070 16/12 A2951 710 75 1100 260/10 RMK AO2 T01610117 $
94790KART ART20160607182013306/07/16 18:20:31  5-MIN KART 072320Z AUTO 26015G21KT 10SM BKN034 BKN044 OVC060 16/11 A2951 710 72 1000 270/15G21 RMK AO2 T01610111 $
94790KART ART20160607182513306/07/16 18:25:31  5-MIN KART 072325Z AUTO 28016G23KT 10SM FEW026 BKN034 OVC055 16/11 A2951 710 69 1000 290/16G23 RMK AO2 T01610106 $
94790KART ART20160607183014806/07/16 18:30:31  5-MIN KART 072330Z AUTO 29011G23KT 4SM -RA FEW026 SCT034 OVC055 16/11 A2952 710 74 1000 300/11G23 RMK AO2 RAB28 P0000 T01560111 $
94790KART ART20160607183514006/07/16 18:35:31  5-MIN KART 072335Z AUTO 29008G20KT 4SM -RA FEW032 OVC060 15/12 A2952 710 80 900 300/08G20 RMK AO2 RAB28 P0000 T01500117 $
94790KART ART20160607184014106/07/16 18:40:31  5-MIN KART 072340Z AUTO 28008KT 9SM -RA FEW026 FEW041 OVC065 14/12 A2952 700 83 800 300/08 RMK AO2 RAB28 P0000 T01440117 $
94790KART ART20160607184514206/07/16 18:45:31  5-MIN KART 072345Z AUTO 28007KT 10SM -RA FEW026 BKN060 OVC075 15/12 A2952 700 80 900 290/07 RMK AO2 RAB28 P0000 T01500117 $
94790KART ART20160607185017306/07/16 18:50:31  5-MIN KART 072350Z AUTO 27008KT 10SM -RA FEW039 SCT055 OVC070 15/12 A2952 700 80 900 280/08 RMK AO2 RAB28 SLP996 P0000 60000 T01500117 10200 20144 50001 $
94790KART ART20160607185517306/07/16 18:55:31  5-MIN KART 072355Z AUTO 27009KT 10SM -RA FEW037 SCT055 OVC070 15/12 A2952 700 80 900 280/09 RMK AO2 RAB28 SLP996 P0000 60000 T01500117 10200 20144 50001 $
94790KART ART20160607190013606/07/16 19:00:31  5-MIN KART 080000Z AUTO 27009KT 10SM -RA FEW041 SCT060 OVC070 15/12 A2953 700 80 900 280/09 RMK AO2 P0000 T01500117 $
94790KART ART20160607190513906/07/16 19:05:31  5-MIN KART 080005Z AUTO 27009KT 10SM FEW049 SCT060 OVC070 16/12 A2953 700 77 1000 280/09 RMK AO2 RAE04 P0000 T01560117 $
94790KART ART20160607191013806/07/16 19:10:31  5-MIN KART 080010Z AUTO 28009KT 10SM FEW039 BKN060 OVC075 15/12 A2953 700 80 900 290/09 RMK AO2 RAE04 P0000 T01500117 $
94790KART ART20160607191513906/07/16 19:15:31  5-MIN KART 080015Z AUTO 28008KT 10SM FEW039 BKN060 OVC070 16/12 A2953 700 77 1000 290/08 RMK AO2 RAE04 P0000 T01560117 $
94790KART ART20160607192013206/07/16 19:20:31  5-MIN KART 080020Z AUTO 28006KT 10SM SCT049 OVC065 16/12 A2953 700 77 1000 290/06 RMK AO2 RAE04 P0000 T01560117 $
94790KART ART20160607192513206/07/16 19:25:31  5-MIN KART 080025Z AUTO 27006KT 10SM BKN055 OVC070 16/12 A2953 700 77 1000 290/06 RMK AO2 RAE04 P0000 T01560117 $
94790KART ART20160607193013906/07/16 19:30:31  5-MIN KART 080030Z AUTO 28005KT 10SM FEW040 BKN055 OVC070 16/12 A2953 700 77 1000 300/05 RMK AO2 RAE04 P0000 T01560117 $
94790KART ART20160607193513906/07/16 19:35:31  5-MIN KART 080035Z AUTO 28007KT 10SM FEW040 BKN055 OVC075 16/12 A2953 690 77 1000 290/07 RMK AO2 RAE04 P0000 T01560117 $
94790KART ART20160607194013906/07/16 19:40:31  5-MIN KART 080040Z AUTO 28007KT 10SM FEW044 BKN050 OVC075 16/12 A2953 690 77 1000 290/07 RMK AO2 RAE04 P0000 T01560117 $
94790KART ART20160607194513906/07/16 19:45:31  5-MIN KART 080045Z AUTO 27006KT 10SM FEW039 BKN050 OVC070 16/12 A2953 690 77 1000 280/06 RMK AO2 RAE04 P0000 T01560117 $
94790KART ART20160607195014606/07/16 19:50:31  5-MIN KART 080050Z AUTO 26006KT 10SM FEW038 BKN050 OVC070 16/12 A2953 690 75 1000 280/06 RMK AO2 RAE04 SLP996 P0000 T01610117 $
94790KART ART20160607195515306/07/16 19:55:31  5-MIN KART 080055Z AUTO 25007KT 10SM -RA SCT037 BKN047 OVC070 16/12 A2953 690 75 1000 260/07 RMK AO2 RAE04B52 SLP997 P0000 T01610117 $
94790KART ART20160607200014306/07/16 20:00:31  5-MIN KART 080100Z AUTO 25010G17KT 10SM -RA FEW029 BKN037 OVC070 16/12 A2953 690 77 1000 260/10G17 RMK AO2 P0000 T01560117 $
94790KART ART20160607200514506/07/16 20:05:31  5-MIN KART 080105Z AUTO 26013G17KT 10SM SCT029 BKN037 OVC070 16/12 A2953 690 80 1000 280/13G17 RMK AO2 RAE01 P0000 T01560122 $
94790KART ART20160607201013906/07/16 20:10:31  5-MIN KART 080110Z AUTO 25008KT 10SM FEW029 BKN043 OVC070 16/12 A2953 690 80 1000 270/08 RMK AO2 RAE01 P0000 T01560122 $
94790KART ART20160607201513806/07/16 20:15:31  5-MIN KART 080115Z AUTO 25008KT 10SM FEW029 BKN043 OVC070 15/12 A2954 690 83 900 260/08 RMK AO2 RAE01 P0000 T01500122 $
94790KART ART20160607202013806/07/16 20:20:31  5-MIN KART 080120Z AUTO 25007KT 10SM FEW029 BKN043 OVC055 15/12 A2954 690 80 900 260/07 RMK AO2 RAE01 P0000 T01500117 $
94790KART ART20160607202514506/07/16 20:25:31  5-MIN KART 080125Z AUTO 25006KT 10SM -RA FEW029 BKN041 OVC055 15/12 A2954 680 80 900 260/06 RMK AO2 RAE01B25 P0000 T01500117 $
94790KART ART20160607203014506/07/16 20:30:31  5-MIN KART 080130Z AUTO 25006KT 10SM -RA BKN041 BKN055 OVC065 15/12 A2954 680 83 900 260/06 RMK AO2 RAE01B25 P0000 T01500122 $
94790KART ART20160607203514506/07/16 20:35:31  5-MIN KART 080135Z AUTO 26009KT 10SM -RA FEW037 BKN044 OVC055 16/12 A2955 680 80 900 270/09 RMK AO2 RAE01B25 P0000 T01560122 $
94790KART ART20160607204014506/07/16 20:40:31  5-MIN KART 080140Z AUTO 27009KT 10SM -RA FEW037 BKN044 OVC055 16/12 A2955 680 80 900 290/09 RMK AO2 RAE01B25 P0000 T01560122 $
94790KART ART20160607204514506/07/16 20:45:31  5-MIN KART 080145Z AUTO 30008KT 10SM -RA FEW036 BKN044 OVC060 16/12 A2955 670 77 900 310/08 RMK AO2 RAE01B25 P0000 T01560117 $
94790KART ART20160607205015206/07/16 20:50:31  5-MIN KART 080150Z AUTO 31009KT 10SM -RA FEW036 BKN044 OVC060 16/12 A2955 670 77 900 320/09 RMK AO2 RAE01B25 SLP005 P0000 T01560117 $
94790KART ART20160607205515206/07/16 20:55:31  5-MIN KART 080155Z AUTO 31007KT 10SM -RA FEW036 BKN060 OVC075 16/11 A2955 670 74 900 320/07 RMK AO2 RAE01B25 SLP004 P0000 T01560111 $
94790KART ART20160607210013606/07/16 21:00:31  5-MIN KART 080200Z AUTO 30007KT 10SM -RA FEW041 BKN060 OVC085 16/11 A2955 670 74 900 310/07 RMK AO2 P0000 T01560111 $
94790KART ART20160607210513806/07/16 21:05:31  5-MIN KART 080205Z AUTO 30006KT 10SM FEW041 BKN070 OVC090 15/11 A2955 670 77 900 310/06 RMK AO2 RAE01 P0000 T01500111 $
94790KART ART20160607211013806/07/16 21:10:31  5-MIN KART 080210Z AUTO 29005KT 10SM FEW050 BKN075 OVC090 15/11 A2956 670 77 900 310/05 RMK AO2 RAE01 P0000 T01500111 $
94790KART ART20160607211513106/07/16 21:15:31  5-MIN KART 080215Z AUTO 28005KT 10SM BKN070 OVC090 15/11 A2956 670 77 900 300/05 RMK AO2 RAE01 P0000 T01500111 $
94790KART ART20160607212013806/07/16 21:20:31  5-MIN KART 080220Z AUTO 29005KT 10SM BKN070 BKN085 OVC110 15/11 A2956 670 77 900 300/05 RMK AO2 RAE01 P0000 T01500111 $
94790KART ART20160607212513806/07/16 21:25:31  5-MIN KART 080225Z AUTO 28006KT 10SM FEW070 BKN090 OVC110 15/11 A2956 660 77 900 290/06 RMK AO2 RAE01 P0000 T01500111 $
94790KART ART20160607213013806/07/16 21:30:31  5-MIN KART 080230Z AUTO 28007KT 10SM FEW050 BKN090 OVC110 16/11 A2956 660 72 900 290/07 RMK AO2 RAE01 P0000 T01560106 $
94790KART ART20160607213513806/07/16 21:35:31  5-MIN KART 080235Z AUTO 26006KT 10SM BKN050 BKN070 OVC110 16/11 A2956 660 72 900 280/06 RMK AO2 RAE01 P0000 T01560106 $
94790KART ART20160607214013806/07/16 21:40:31  5-MIN KART 080240Z AUTO 25007KT 10SM BKN050 BKN070 OVC110 16/11 A2957 660 74 900 260/07 RMK AO2 RAE01 P0000 T01560111 $
94790KART ART20160607214513806/07/16 21:45:31  5-MIN KART 080245Z AUTO 26009KT 10SM FEW029 BKN050 OVC110 16/12 A2957 660 77 900 270/09 RMK AO2 RAE01 P0000 T01560117 $
94790KART ART20160607215015706/07/16 21:50:31  5-MIN KART 080250Z AUTO 26009KT 10SM SCT030 SCT044 OVC050 16/12 A2957 660 77 900 270/09 RMK AO2 RAE01 SLP009 P0000 60000 T01560117 53010 $
94790KART ART20160607215516306/07/16 21:55:31  5-MIN KART 080255Z AUTO 27012G18KT 10SM FEW029 BKN045 OVC050 16/11 A2957 660 74 900 280/12G18 RMK AO2 RAE01 SLP009 P0000 60000 T01560111 53010 $
94790KART ART20160607220013206/07/16 22:00:31  5-MIN KART 080300Z AUTO 27009G18KT 10SM FEW029 BKN048 OVC065 16/11 A2957 660 74 900 280/09G18 RMK AO2 T01560111 $
94790KART ART20160607220512606/07/16 22:05:31  5-MIN KART 080305Z AUTO 28010KT 10SM FEW029 BKN048 OVC065 16/11 A2957 660 74 900 290/10 RMK AO2 T01560111 $
94790KART ART20160607221013206/07/16 22:10:31  5-MIN KART 080310Z AUTO 27012G19KT 10SM FEW029 BKN050 OVC070 16/11 A2957 660 72 900 280/12G19 RMK AO2 T01560106 $
94790KART ART20160607221513206/07/16 22:15:31  5-MIN KART 080315Z AUTO 28012G19KT 10SM FEW029 BKN046 OVC065 16/11 A2957 650 72 900 290/12G19 RMK AO2 T01560106 $
94790KART ART20160607222012606/07/16 22:20:31  5-MIN KART 080320Z AUTO 28012KT 10SM SCT037 BKN046 OVC065 16/11 A2957 650 72 900 290/12 RMK AO2 T01560106 $
94790KART ART20160607222512606/07/16 22:25:31  5-MIN KART 080325Z AUTO 27010KT 10SM SCT037 BKN046 OVC065 16/11 A2957 650 72 900 280/10 RMK AO2 T01560106 $
94790KART ART20160607223012606/07/16 22:30:31  5-MIN KART 080330Z AUTO 26010KT 10SM SCT037 BKN049 OVC065 16/11 A2958 650 74 900 270/10 RMK AO2 T01560111 $
94790KART ART20160607223512606/07/16 22:35:31  5-MIN KART 080335Z AUTO 26009KT 10SM FEW032 BKN055 OVC070 15/11 A2958 650 77 800 280/09 RMK AO2 T01500111 $
94790KART ART20160607224012606/07/16 22:40:31  5-MIN KART 080340Z AUTO 26011KT 10SM SCT036 BKN046 OVC070 15/11 A2958 650 77 800 270/11 RMK AO2 T01500111 $
94790KART ART20160607224512606/07/16 22:45:31  5-MIN KART 080345Z AUTO 26010KT 10SM SCT034 BKN044 OVC065 15/11 A2957 650 77 800 270/10 RMK AO2 T01500111 $
94790KART ART20160607225014806/07/16 22:50:31  5-MIN KART 080350Z AUTO 26012KT 5SM -RA SCT030 BKN037 OVC070 15/12 A2958 650 80 800 270/12 RMK AO2 RAB49 SLP012 P0002 T01500117 $
94790KART ART20160607225514706/07/16 22:55:31  5-MIN KART 080355Z AUTO 26010KT 3SM RA SCT030 BKN037 OVC070 14/12 A2958 650 83 800 280/10 RMK AO2 RAB49 SLP012 P0003 T01440117 $
94790KART ART20160607230013806/07/16 23:00:31  5-MIN KART 080400Z AUTO 26009KT 5SM -RA BR FEW020 BKN038 OVC070 14/12 A2957 650 86 800 270/09 RMK AO2 P0000 T01440122 $
94790KART ART20160607230513606/07/16 23:05:31  5-MIN KART 080405Z AUTO 26008KT 10SM -RA FEW020 SCT031 BKN038 14/12 A2958 650 83 800 270/08 RMK AO2 P0000 T01440117 $
94790KART ART20160607231013706/07/16 23:10:31  5-MIN KART 080410Z AUTO 27011G17KT 10SM FEW031 SCT038 14/12 A2958 650 86 700 280/11G17 RMK AO2 RAE06 P0000 T01390117 $
94790KART ART20160607231513706/07/16 23:15:31  5-MIN KART 080415Z AUTO 27012G17KT 10SM FEW031 SCT038 14/11 A2957 650 83 700 280/12G17 RMK AO2 RAE06 P0000 T01390111 $
94790KART ART20160607232012406/07/16 23:20:31  5-MIN KART 080420Z AUTO 27011KT 10SM FEW036 14/11 A2957 650 83 700 280/11 RMK AO2 RAE06 P0000 T01390111 $
94790KART ART20160607232512406/07/16 23:25:31  5-MIN KART 080425Z AUTO 27011KT 10SM FEW036 14/11 A2957 650 83 700 280/11 RMK AO2 RAE06 P0000 T01390111 $
94790KART ART20160607233012406/07/16 23:30:31  5-MIN KART 080430Z AUTO 26010KT 10SM FEW041 14/11 A2957 650 83 700 280/10 RMK AO2 RAE06 P0000 T01390111 $
94790KART ART20160607233513106/07/16 23:35:31  5-MIN KART 080435Z AUTO 26012KT 10SM FEW041 FEW070 14/11 A2958 650 83 700 280/12 RMK AO2 RAE06 P0000 T01390111 $
94790KART ART20160607234013106/07/16 23:40:31  5-MIN KART 080440Z AUTO 26010KT 10SM FEW041 SCT070 14/11 A2957 650 83 700 270/10 RMK AO2 RAE06 P0000 T01390111 $
94790KART ART20160607234513106/07/16 23:45:31  5-MIN KART 080445Z AUTO 26008KT 10SM FEW041 BKN070 14/11 A2957 650 83 700 270/08 RMK AO2 RAE06 P0000 T01390111 $
94790KART ART20160607235014806/07/16 23:50:31  5-MIN KART 080450Z AUTO 26009KT 10SM FEW041 BKN070 14/11 A2957 650 83 700 270/09 RMK AO2 RAE06 SLP011 P0000 T01390111 402000128 $
94790KART ART20160607235514806/07/16 23:55:31  5-MIN KART 080455Z AUTO 26007KT 10SM BKN070 BKN085 14/11 A2957 650 83 700 270/07 RMK AO2 RAE06 SLP011 P0000 T01390111 402000128 $
94790KART ART20160608000011906/08/16 00:00:31  5-MIN KART 080500Z AUTO 26009KT 10SM BKN075 OVC090 14/11 A2957 650 83 700 270/09 RMK AO2 T01390111 $
94790KART ART20160608000511906/08/16 00:05:31  5-MIN KART 080505Z AUTO 26008KT 10SM BKN075 OVC090 14/11 A2957 650 83 700 270/08 RMK AO2 T01390111 $
94790KART ART20160608001011906/08/16 00:10:31  5-MIN KART 080510Z AUTO 26008KT 10SM FEW024 OVC070 14/11 A2957 650 83 700 270/08 RMK AO2 T01390111 $
94790KART ART20160608001511906/08/16 00:15:31  5-MIN KART 080515Z AUTO 26007KT 10SM FEW024 OVC070 14/11 A2957 650 83 700 270/07 RMK AO2 T01390111 $
94790KART ART20160608002011906/08/16 00:20:31  5-MIN KART 080520Z AUTO 25007KT 10SM FEW024 OVC070 13/11 A2957 650 86 600 270/07 RMK AO2 T01330111 $
94790KART ART20160608002513206/08/16 00:25:31  5-MIN KART 080525Z AUTO 26011G16KT 10SM SCT026 BKN070 OVC080 13/11 A2957 650 86 600 270/11G16 RMK AO2 T01330111 $
94790KART ART20160608003012506/08/16 00:30:31  5-MIN KART 080530Z AUTO 26008G16KT 10SM SCT026 OVC070 14/11 A2957 650 80 700 270/08G16 RMK AO2 T01390106 $
94790KART ART20160608003511906/08/16 00:35:31  5-MIN KART 080535Z AUTO 26008KT 10SM BKN026 OVC070 13/11 A2957 650 83 700 270/08 RMK AO2 T01330106 $
94790KART ART20160608004011906/08/16 00:40:31  5-MIN KART 080540Z AUTO 26008KT 10SM BKN026 OVC070 13/11 A2957 650 83 700 270/08 RMK AO2 T01330106 $
94790KART ART20160608004511906/08/16 00:45:31  5-MIN KART 080545Z AUTO 27009KT 10SM BKN026 OVC070 13/11 A2957 660 83 700 280/09 RMK AO2 T01330106 $
94790KART ART20160608005015706/08/16 00:50:31  5-MIN KART 080550Z AUTO 26009KT 10SM BKN026 BKN065 OVC080 13/11 A2957 660 83 700 270/09 RMK AO2 SLP010 60003 T01330106 10161 20133 53014 $
94790KART ART20160608005515006/08/16 00:55:31  5-MIN KART 080555Z AUTO 26009KT 10SM BKN025 OVC060 13/11 A2957 660 83 700 270/09 RMK AO2 SLP010 60003 T01330106 10161 20133 53014 $
94790KART ART20160608010012606/08/16 01:00:31  5-MIN KART 080600Z AUTO 26008KT 10SM BKN023 BKN028 OVC060 13/11 A2957 650 83 700 270/08 RMK AO2 T01330106 $
94790KART ART20160608010512606/08/16 01:05:31  5-MIN KART 080605Z AUTO 26009KT 10SM BKN023 BKN028 OVC060 13/11 A2957 650 83 600 270/09 RMK AO2 T01330106 $
94790KART ART20160608011012606/08/16 01:10:31  5-MIN KART 080610Z AUTO 26008KT 10SM BKN023 BKN028 OVC060 13/11 A2957 650 83 600 270/08 RMK AO2 T01330106 $
94790KART ART20160608011511906/08/16 01:15:31  5-MIN KART 080615Z AUTO 26010KT 10SM BKN023 OVC060 13/11 A2957 650 83 600 270/10 RMK AO2 T01330106 $
94790KART ART20160608012011906/08/16 01:20:31  5-MIN KART 080620Z AUTO 26011KT 10SM BKN023 OVC028 13/11 A2957 650 83 600 270/11 RMK AO2 T01330106 $
94790KART ART20160608012511206/08/16 01:25:31  5-MIN KART 080625Z AUTO 26010KT 10SM OVC023 13/11 A2957 650 83 700 270/10 RMK AO2 T01330106 $
94790KART ART20160608013011206/08/16 01:30:31  5-MIN KART 080630Z AUTO 26010KT 10SM OVC024 13/11 A2957 650 83 700 270/10 RMK AO2 T01330106 $
94790KART ART20160608013511206/08/16 01:35:31  5-MIN KART 080635Z AUTO 26010KT 10SM OVC024 13/11 A2957 650 83 600 270/10 RMK AO2 T01330106 $
94790KART ART20160608014012806/08/16 01:40:31  5-MIN KART 080640Z AUTO 26009KT 10SM -RA OVC024 13/11 A2957 650 83 600 270/09 RMK AO2 RAB37 P0000 T01330106 $
94790KART ART20160608014513506/08/16 01:45:31  5-MIN KART 080645Z AUTO 26010KT 10SM -RA BKN022 OVC027 13/11 A2957 650 83 600 280/10 RMK AO2 RAB37 P0000 T01330106 $
94790KART ART20160608015014106/08/16 01:50:31  5-MIN KART 080650Z AUTO 26010KT 10SM BKN022 OVC027 13/11 A2957 650 83 600 280/10 RMK AO2 RAB37E48 SLP012 P0000 T01330106 $
94790KART ART20160608015514106/08/16 01:55:31  5-MIN KART 080655Z AUTO 26011KT 10SM BKN022 OVC037 13/11 A2957 650 83 600 280/11 RMK AO2 RAB37E48 SLP011 P0000 T01330106 $
94790KART ART20160608020012606/08/16 02:00:31  5-MIN KART 080700Z AUTO 26009KT 10SM BKN022 BKN026 OVC037 13/11 A2957 650 83 600 270/09 RMK AO2 T01330106 $
94790KART ART20160608020512606/08/16 02:05:31  5-MIN KART 080705Z AUTO 27009KT 10SM BKN022 BKN039 OVC060 13/11 A2957 660 83 700 280/09 RMK AO2 T01330106 $
94790KART ART20160608021012606/08/16 02:10:31  5-MIN KART 080710Z AUTO 26009KT 10SM BKN022 BKN039 OVC100 13/11 A2957 660 83 700 270/09 RMK AO2 T01330106 $
94790KART ART20160608021512606/08/16 02:15:31  5-MIN KART 080715Z AUTO 25009KT 10SM FEW020 BKN024 OVC060 13/11 A2957 650 83 700 270/09 RMK AO2 T01330106 $
94790KART ART20160608022012606/08/16 02:20:31  5-MIN KART 080720Z AUTO 25008KT 10SM BKN022 BKN039 OVC060 13/11 A2957 650 83 600 260/08 RMK AO2 T01330106 $
94790KART ART20160608022512606/08/16 02:25:31  5-MIN KART 080725Z AUTO 26007KT 10SM BKN020 BKN028 OVC060 13/11 A2957 650 83 600 270/07 RMK AO2 T01330106 $
94790KART ART20160608023012606/08/16 02:30:31  5-MIN KART 080730Z AUTO 26008KT 10SM SCT020 BKN026 OVC034 13/11 A2957 650 83 600 270/08 RMK AO2 T01330106 $
94790KART ART20160608023511906/08/16 02:35:31  5-MIN KART 080735Z AUTO 25007KT 10SM BKN022 OVC030 13/11 A2957 650 83 600 270/07 RMK AO2 T01330106 $
94790KART ART20160608024012606/08/16 02:40:31  5-MIN KART 080740Z AUTO 25007KT 10SM BKN022 BKN030 OVC034 13/11 A2957 650 83 700 270/07 RMK AO2 T01330106 $
94790KART ART20160608024511906/08/16 02:45:31  5-MIN KART 080745Z AUTO 25006KT 10SM BKN020 OVC028 13/11 A2957 660 83 700 260/06 RMK AO2 T01330106 $
94790KART ART20160608025012606/08/16 02:50:31  5-MIN KART 080750Z AUTO 25008KT 10SM BKN020 OVC032 13/11 A2957 650 83 700 270/08 RMK AO2 SLP012 T01330106 $
94790KART ART20160608025513306/08/16 02:55:31  5-MIN KART 080755Z AUTO 26007KT 10SM BKN020 BKN024 OVC032 13/11 A2957 650 83 600 270/07 RMK AO2 SLP012 T01330106 $
94790KART ART20160608030013206/08/16 03:00:31  5-MIN KART 080800Z AUTO 26010G16KT 10SM BKN020 BKN024 OVC032 13/11 A2957 650 83 600 280/10G16 RMK AO2 T01330106 $
94790KART ART20160608030511806/08/16 03:05:31  5-MIN KART 080805Z AUTO 26008G16KT 10SM OVC020 13/11 A2957 650 83 600 270/08G16 RMK AO2 T01330106 $
94790KART ART20160608031011206/08/16 03:10:31  5-MIN KART 080810Z AUTO 25008KT 10SM OVC020 13/11 A2957 650 83 600 270/08 RMK AO2 T01330106 $
94790KART ART20160608031511906/08/16 03:15:31  5-MIN KART 080815Z AUTO 26009KT 10SM BKN020 OVC025 13/11 A2957 650 83 600 280/09 RMK AO2 T01330106 $
94790KART ART20160608032011206/08/16 03:20:31  5-MIN KART 080820Z AUTO 26010KT 10SM OVC020 13/11 A2957 650 83 600 270/10 RMK AO2 T01330106 $
94790KART ART20160608032511206/08/16 03:25:31  5-MIN KART 080825Z AUTO 25008KT 10SM OVC020 13/10 A2958 650 80 600 270/08 RMK AO2 T01330100 $
94790KART ART20160608033011206/08/16 03:30:31  5-MIN KART 080830Z AUTO 26008KT 10SM OVC020 13/11 A2958 650 86 600 270/08 RMK AO2 T01280106 $
94790KART ART20160608033511906/08/16 03:35:31  5-MIN KART 080835Z AUTO 26010KT 10SM BKN022 OVC027 13/10 A2958 650 83 600 270/10 RMK AO2 T01280100 $
94790KART ART20160608034011906/08/16 03:40:31  5-MIN KART 080840Z AUTO 26010KT 10SM BKN022 OVC027 13/10 A2958 650 83 600 270/10 RMK AO2 T01280100 $
94790KART ART20160608034511906/08/16 03:45:31  5-MIN KART 080845Z AUTO 26010KT 10SM BKN022 OVC028 13/10 A2958 650 83 600 270/10 RMK AO2 T01280100 $
94790KART ART20160608035013806/08/16 03:50:31  5-MIN KART 080850Z AUTO 26010KT 10SM BKN020 OVC028 13/10 A2958 650 83 600 270/10 RMK AO2 SLP015 60000 T01280100 50001 $
94790KART ART20160608035513806/08/16 03:55:31  5-MIN KART 080855Z AUTO 26009KT 10SM BKN020 OVC028 13/10 A2958 650 83 600 270/09 RMK AO2 SLP015 60000 T01280100 50001 $
94790KART ART20160608040011206/08/16 04:00:31  5-MIN KART 080900Z AUTO 25008KT 10SM OVC020 13/10 A2958 650 83 600 260/08 RMK AO2 T01280100 $
94790KART ART20160608040511906/08/16 04:05:31  5-MIN KART 080905Z AUTO 26010KT 10SM BKN018 OVC025 13/10 A2958 650 83 600 280/10 RMK AO2 T01280100 $
94790KART ART20160608041011906/08/16 04:10:31  5-MIN KART 080910Z AUTO 26010KT 10SM BKN018 OVC025 13/10 A2958 650 83 600 280/10 RMK AO2 T01280100 $
94790KART ART20160608041511906/08/16 04:15:31  5-MIN KART 080915Z AUTO 26009KT 10SM BKN019 OVC025 13/10 A2958 640 83 600 270/09 RMK AO2 T01280100 $
94790KART ART20160608042011906/08/16 04:20:31  5-MIN KART 080920Z AUTO 25009KT 10SM BKN017 OVC025 13/10 A2958 640 83 600 270/09 RMK AO2 T01280100 $
94790KART ART20160608042511906/08/16 04:25:31  5-MIN KART 080925Z AUTO 26009KT 10SM BKN017 OVC023 13/10 A2958 640 83 600 270/09 RMK AO2 T01280100 $
94790KART ART20160608043011906/08/16 04:30:31  5-MIN KART 080930Z AUTO 26009KT 10SM BKN017 OVC025 13/10 A2958 640 83 600 270/09 RMK AO2 T01280100 $
94790KART ART20160608043511206/08/16 04:35:31  5-MIN KART 080935Z AUTO 25008KT 10SM OVC016 13/10 A2958 640 83 600 270/08 RMK AO2 T01280100 $
94790KART ART20160608044011206/08/16 04:40:31  5-MIN KART 080940Z AUTO 26009KT 10SM OVC016 13/10 A2959 640 83 600 270/09 RMK AO2 T01280100 $
94790KART ART20160608044511206/08/16 04:45:31  5-MIN KART 080945Z AUTO 26010KT 10SM OVC016 13/10 A2959 640 83 600 270/10 RMK AO2 T01280100 $
94790KART ART20160608045011906/08/16 04:50:31  5-MIN KART 080950Z AUTO 26007KT 10SM OVC016 13/10 A2959 640 83 600 270/07 RMK AO2 SLP017 T01280100 $
94790KART ART20160608045511906/08/16 04:55:31  5-MIN KART 080955Z AUTO 27008KT 10SM OVC016 13/10 A2959 640 83 600 290/08 RMK AO2 SLP017 T01280100 $
94790KART ART20160608050011206/08/16 05:00:31  5-MIN KART 081000Z AUTO 27009KT 10SM OVC016 13/10 A2959 640 83 600 290/09 RMK AO2 T01280100 $
94790KART ART20160608050511206/08/16 05:05:31  5-MIN KART 081005Z AUTO 28007KT 10SM OVC016 13/09 A2959 640 80 600 290/07 RMK AO2 T01280094 $
94790KART ART20160608051011206/08/16 05:10:31  5-MIN KART 081010Z AUTO 29006KT 10SM OVC016 13/10 A2959 640 83 600 300/06 RMK AO2 T01280100 $
94790KART ART20160608051511206/08/16 05:15:31  5-MIN KART 081015Z AUTO 29006KT 10SM OVC016 13/10 A2959 640 83 600 310/06 RMK AO2 T01280100 $
94790KART ART20160608052011206/08/16 05:20:31  5-MIN KART 081020Z AUTO 29005KT 10SM OVC016 13/10 A2959 640 83 600 310/05 RMK AO2 T01280100 $
94790KART ART20160608052511206/08/16 05:25:31  5-MIN KART 081025Z AUTO 31005KT 10SM OVC016 13/10 A2959 640 83 600 320/05 RMK AO2 T01280100 $
94790KART ART20160608053011206/08/16 05:30:31  5-MIN KART 081030Z AUTO 32004KT 10SM OVC016 13/10 A2959 640 83 600 330/04 RMK AO2 T01280100 $
94790KART ART20160608053511206/08/16 05:35:31  5-MIN KART 081035Z AUTO 31006KT 10SM OVC018 13/09 A2959 640 80 600 330/06 RMK AO2 T01280094 $
94790KART ART20160608054011206/08/16 05:40:31  5-MIN KART 081040Z AUTO 31008KT 10SM OVC018 13/09 A2959 640 80 600 320/08 RMK AO2 T01280094 $
94790KART ART20160608054511206/08/16 05:45:31  5-MIN KART 081045Z AUTO 31009KT 10SM OVC018 12/09 A2959 630 83 500 330/09 RMK AO2 T01220094 $
94790KART ART20160608055011906/08/16 05:50:31  5-MIN KART 081050Z AUTO 32007KT 10SM OVC018 12/09 A2959 630 83 500 330/07 RMK AO2 SLP019 T01220094 $
94790KART ART20160608055511906/08/16 05:55:31  5-MIN KART 081055Z AUTO 33007KT 10SM OVC018 12/09 A2959 640 83 500 340/07 RMK AO2 SLP019 T01220094 $
94790KART ART20160608060011206/08/16 06:00:31  5-MIN KART 081100Z AUTO 32008KT 10SM OVC018 12/09 A2959 630 83 500 340/08 RMK AO2 T01220094 $
94790KART ART20160608060511906/08/16 06:05:31  5-MIN KART 081105Z AUTO 32007KT 10SM BKN015 OVC020 12/09 A2959 630 83 500 330/07 RMK AO2 T01220094 $
94790KART ART20160608061011206/08/16 06:10:31  5-MIN KART 081110Z AUTO 35005KT 10SM OVC015 12/09 A2959 630 83 500 360/05 RMK AO2 T01220094 $
94790KART ART20160608061511206/08/16 06:15:31  5-MIN KART 081115Z AUTO 02006KT 10SM OVC015 12/09 A2959 630 83 500 030/06 RMK AO2 T01220094 $
94790KART ART20160608062011206/08/16 06:20:31  5-MIN KART 081120Z AUTO 03005KT 10SM OVC015 12/09 A2960 630 80 500 050/05 RMK AO2 T01220089 $
94790KART ART20160608062511206/08/16 06:25:31  5-MIN KART 081125Z AUTO 05005KT 10SM OVC015 12/09 A2960 630 83 400 060/05 RMK AO2 T01170089 $
94790KART ART20160608063011206/08/16 06:30:31  5-MIN KART 081130Z AUTO 05006KT 10SM OVC015 12/09 A2960 630 83 400 060/06 RMK AO2 T01170089 $
94790KART ART20160608063511206/08/16 06:35:31  5-MIN KART 081135Z AUTO 05006KT 10SM OVC015 12/08 A2960 630 80 400 070/06 RMK AO2 T01170083 $
94790KART ART20160608064011206/08/16 06:40:31  5-MIN KART 081140Z AUTO 06005KT 10SM OVC016 12/09 A2960 630 83 400 070/05 RMK AO2 T01170089 $
94790KART ART20160608064511106/08/16 06:45:31  5-MIN KART 081145Z AUTO 05005KT 8SM OVC016 12/09 A2960 630 83 400 070/05 RMK AO2 T01170089 $
94790KART ART20160608065016706/08/16 06:50:31  5-MIN KART 081150Z AUTO 07005KT 5SM -RA BR OVC018 11/09 A2960 630 86 400 080/05 RMK AO2 RAB46 SLP022 P0001 60001 70004 T01110089 10133 20111 53003 $
94790KART ART20160608065516706/08/16 06:55:31  5-MIN KART 081155Z AUTO 05005KT 4SM -RA BR OVC018 11/09 A2960 630 86 300 060/05 RMK AO2 RAB46 SLP023 P0001 60001 70004 T01110089 10133 20111 53003 $
94790KART ART20160608070012306/08/16 07:00:31  5-MIN KART 081200Z AUTO 01005KT 2SM RA BR OVC020 11/09 A2961 620 86 300 030/05 RMK AO2 P0001 T01110089 $
94790KART ART20160608070512406/08/16 07:05:31  5-MIN KART 081205Z AUTO 03008KT 1SM +RA BR OVC020 11/09 A2960 620 86 300 040/08 RMK AO2 P0004 T01110089 $
94790KART ART20160608071014206/08/16 07:10:31  5-MIN KART 081210Z AUTO 02007KT 1 1/4SM -RA BR BKN020 BKN026 OVC035 11/09 A2961 620 86 300 040/07 RMK AO2 P0005 T01110089 $
94790KART ART20160608071513806/08/16 07:15:31  5-MIN KART 081215Z AUTO 02005KT 2SM -RA BR SCT016 BKN022 OVC035 11/09 A2961 620 86 300 040/05 RMK AO2 P0005 T01110089 $
94790KART ART20160608072014206/08/16 07:20:31  5-MIN KART 081220Z AUTO 02007KT 1 1/4SM +RA BR SCT016 BKN022 OVC045 11/08 A2961 620 86 300 040/07 RMK AO2 P0008 T01060083 $
94790KART ART20160608072515206/08/16 07:25:31  5-MIN KART 081225Z AUTO 36006KT 1 1/2SM -RA BR FEW016 BKN022 OVC044 11/09 A2962 610 89 300 010/06 RMK AO2 VIS 3/4V5 P0008 T01060089 $
94790KART ART20160608073014106/08/16 07:30:31  5-MIN KART 081230Z AUTO 02004KT 1 1/2SM RA BR FEW016 BKN023 OVC042 11/08 A2961 620 86 300 040/04 RMK AO2 P0011 T01060083 $
94790KART ART20160608073514206/08/16 07:35:31  5-MIN KART 081235Z AUTO 05004KT 1 1/4SM -RA BR FEW015 BKN031 OVC050 11/08 A2961 620 86 300 060/04 RMK AO2 P0011 T01060083 $
94790KART ART20160608074013806/08/16 07:40:31  5-MIN KART 081240Z AUTO 05003KT 3SM -RA BR FEW015 BKN033 OVC050 11/09 A2962 610 89 300 060/03 RMK AO2 P0011 T01060089 $
94790KART ART20160608074513806/08/16 07:45:31  5-MIN KART 081245Z AUTO 03004KT 3SM -RA BR BKN022 BKN030 OVC042 11/08 A2962 610 86 300 040/04 RMK AO2 P0012 T01060083 $
94790KART ART20160608075014806/08/16 07:50:31  5-MIN KART 081250Z AUTO 03003KT 1 1/2SM RA BR BKN022 BKN028 OVC042 11/09 A2962 610 89 300 040/03 RMK AO2 SLP028 P0013 T01060089 $
94790KART ART20160608075514806/08/16 07:55:31  5-MIN KART 081255Z AUTO 04004KT 1 1/4SM RA BR BKN021 BKN028 OVC050 11/09 A2962 610 89 300 050/04 RMK AO2 SLP028 P0014 T01060089 $
94790KART ART20160608080013106/08/16 08:00:31  5-MIN KART 081300Z AUTO 04005KT 2SM -RA BR BKN023 OVC030 11/09 A2962 610 89 300 050/05 RMK AO2 P0000 T01060089 $
94790KART ART20160608080512406/08/16 08:05:31  5-MIN KART 081305Z AUTO 03004KT 5SM -RA BR OVC023 11/09 A2962 610 86 300 050/04 RMK AO2 P0001 T01110089 $
94790KART ART20160608081012406/08/16 08:10:31  5-MIN KART 081310Z AUTO 04004KT 10SM OVC023 11/09 A2962 610 86 300 060/04 RMK AO2 RAE09 P0001 T01110089 $
94790KART ART20160608081512406/08/16 08:15:31  5-MIN KART 081315Z AUTO 04005KT 10SM OVC021 11/09 A2962 610 86 300 050/05 RMK AO2 RAE09 P0001 T01110089 $
94790KART ART20160608082012406/08/16 08:20:31  5-MIN KART 081320Z AUTO 05005KT 10SM OVC021 11/09 A2962 610 86 300 060/05 RMK AO2 RAE09 P0001 T01110089 $
94790KART ART20160608082512406/08/16 08:25:31  5-MIN KART 081325Z AUTO 06004KT 10SM OVC021 11/09 A2962 610 86 300 070/04 RMK AO2 RAE09 P0001 T01110089 $
94790KART ART20160608083013806/08/16 08:30:31  5-MIN KART 081330Z AUTO 06005KT 10SM -RA FEW010 OVC021 11/09 A2962 610 89 300 070/05 RMK AO2 RAE09B26 P0001 T01110094 $
94790KART ART20160608083513706/08/16 08:35:31  5-MIN KART 081335Z AUTO 03006KT 9SM -RA SCT010 OVC021 11/09 A2962 610 89 300 040/06 RMK AO2 RAE09B26 P0001 T01110094 $
94790KART ART20160608084014406/08/16 08:40:31  5-MIN KART 081340Z AUTO 02008KT 9SM -RA FEW007 FEW012 OVC020 11/08 A2962 600 83 300 030/08 RMK AO2 RAE09B26 P0001 T01110083 $
94790KART ART20160608084513706/08/16 08:45:31  5-MIN KART 081345Z AUTO 01005KT 7SM -RA FEW009 OVC018 11/09 A2962 610 86 300 030/05 RMK AO2 RAE09B26 P0001 T01110089 $
94790KART ART20160608085015406/08/16 08:50:31  5-MIN KART 081350Z AUTO 03005KT 4SM -RA BR FEW009 BKN018 OVC022 11/09 A2962 610 86 300 040/05 RMK AO2 RAE09B26 SLP031 P0002 T01110089 $
94790KART ART20160608085515406/08/16 08:55:31  5-MIN KART 081355Z AUTO 36005KT 4SM -RA BR FEW009 BKN019 OVC024 11/09 A2963 600 86 300 020/05 RMK AO2 RAE09B26 SLP032 P0002 T01110089 $
94790KART ART20160608090013106/08/16 09:00:31  5-MIN KART 081400Z AUTO VRB03KT 5SM -RA BR BKN018 OVC024 11/09 A2963 600 86 300 VRB/03 RMK AO2 P0000 T01110089 $
94790KART ART20160608090512806/08/16 09:05:31  5-MIN KART 081405Z AUTO 36003KT 8SM -RA BKN018 OVC023 11/08 A2963 600 83 300 010/03 RMK AO2 P0000 T01110083 $
94790KART ART20160608091012806/08/16 09:10:31  5-MIN KART 081410Z AUTO 35003KT 5SM -RA BKN018 OVC023 11/08 A2963 600 83 300 010/03 RMK AO2 P0000 T01110083 $
94790KART ART20160608091513506/08/16 09:15:31  5-MIN KART 081415Z AUTO 32003KT 3SM -RA FEW011 BKN017 OVC024 11/08 A2963 600 83 300 340/03 RMK AO2 P0001 T01110083 $
94790KART ART20160608092013506/08/16 09:20:31  5-MIN KART 081420Z AUTO 00000KT 2 1/2SM -RA BR BKN014 OVC019 11/09 A2963 600 89 200 000/00 RMK AO2 P0001 T01060089 $
94790KART ART20160608092512406/08/16 09:25:31  5-MIN KART 081425Z AUTO 00000KT 2SM -RA BR OVC016 11/09 A2963 600 86 300 000/00 RMK AO2 P0002 T01110089 $
94790KART ART20160608093013506/08/16 09:30:31  5-MIN KART 081430Z AUTO 00000KT 2 1/2SM -RA BR FEW011 OVC016 11/09 A2963 600 86 300 000/00 RMK AO2 P0002 T01110089 $
94790KART ART20160608093514206/08/16 09:35:31  5-MIN KART 081435Z AUTO 00000KT 2 1/2SM -RA BR FEW011 BKN016 OVC044 11/09 A2963 600 86 300 000/00 RMK AO2 P0002 T01110089 $
94790KART ART20160608094013806/08/16 09:40:31  5-MIN KART 081440Z AUTO VRB03KT 3SM -RA BR FEW011 BKN017 OVC048 12/09 A2963 600 86 400 VRB/03 RMK AO2 P0002 T01170094 $
94790KART ART20160608094513506/08/16 09:45:31  5-MIN KART 081445Z AUTO 00000KT 4SM -RA BKN014 BKN024 OVC048 12/09 A2963 600 83 400 000/00 RMK AO2 P0002 T01170089 $
94790KART ART20160608095015706/08/16 09:50:31  5-MIN KART 081450Z AUTO 06004KT 4SM -RA BR SCT010 BKN016 OVC046 11/09 A2963 600 89 300 080/04 RMK AO2 SLP034 P0002 60018 T01110094 53008 $
94790KART ART20160608095515706/08/16 09:55:31  5-MIN KART 081455Z AUTO 05003KT 5SM -RA BR SCT010 BKN016 OVC046 11/09 A2964 590 86 300 060/03 RMK AO2 SLP034 P0002 60018 T01110089 53008 $
94790KART ART20160608100013806/08/16 10:00:31  5-MIN KART 081500Z AUTO 00000KT 5SM -RA BR FEW010 BKN016 OVC046 11/09 A2963 600 86 300 000/00 RMK AO2 P0000 T01110089 $
94790KART ART20160608100513506/08/16 10:05:31  5-MIN KART 081505Z AUTO 00000KT 7SM -RA FEW010 BKN018 OVC047 11/09 A2963 600 86 300 000/00 RMK AO2 P0000 T01110089 $
94790KART ART20160608101013806/08/16 10:10:31  5-MIN KART 081510Z AUTO 00000KT 10SM FEW010 BKN026 OVC047 11/09 A2964 590 86 300 000/00 RMK AO2 RAE07 P0000 T01110089 $
94790KART ART20160608101513806/08/16 10:15:31  5-MIN KART 081515Z AUTO 00000KT 10SM FEW010 BKN023 OVC028 11/09 A2964 590 86 300 000/00 RMK AO2 RAE07 P0000 T01110089 $
94790KART ART20160608102013806/08/16 10:20:31  5-MIN KART 081520Z AUTO 00000KT 10SM SCT015 BKN021 OVC026 12/09 A2964 590 86 400 000/00 RMK AO2 RAE07 P0000 T01170094 $
94790KART ART20160608102513806/08/16 10:25:31  5-MIN KART 081525Z AUTO 00000KT 10SM FEW015 BKN026 OVC034 12/09 A2964 590 83 400 000/00 RMK AO2 RAE07 P0000 T01170089 $
94790KART ART20160608103013806/08/16 10:30:31  5-MIN KART 081530Z AUTO 00000KT 10SM FEW015 BKN028 OVC045 12/09 A2964 590 86 400 000/00 RMK AO2 RAE07 P0000 T01170094 $
94790KART ART20160608103513806/08/16 10:35:31  5-MIN KART 081535Z AUTO 00000KT 10SM SCT015 BKN022 OVC034 12/09 A2964 590 86 400 000/00 RMK AO2 RAE07 P0000 T01170094 $
94790KART ART20160608104013806/08/16 10:40:31  5-MIN KART 081540Z AUTO 20004KT 10SM SCT013 BKN022 OVC036 12/09 A2964 590 86 400 210/04 RMK AO2 RAE07 P0000 T01170094 $
94790KART ART20160608104513806/08/16 10:45:31  5-MIN KART 081545Z AUTO 19004KT 10SM SCT013 BKN022 OVC027 11/09 A2964 590 89 300 200/04 RMK AO2 RAE07 P0000 T01110094 $
94790KART ART20160608105014506/08/16 10:50:31  5-MIN KART 081550Z AUTO 20004KT 10SM SCT013 BKN019 OVC036 12/09 A2964 590 86 400 220/04 RMK AO2 RAE07 SLP035 P0000 T01170094 $
94790KART ART20160608105514506/08/16 10:55:31  5-MIN KART 081555Z AUTO 22005KT 10SM SCT013 BKN019 OVC039 12/09 A2964 590 86 400 230/05 RMK AO2 RAE07 SLP036 P0000 T01170094 $
94790KART ART20160608110015006/08/16 11:00:31  5-MIN KART 081600Z AUTO 21004KT 5SM -RA BR SCT014 BKN023 OVC036 12/09 A2964 590 86 400 230/04 RMK AO2 CIG 018V030 P0000 T01170094 $
94790KART ART20160608110513806/08/16 11:05:31  5-MIN KART 081605Z AUTO 22004KT 6SM -RA BR SCT014 BKN022 OVC034 12/10 A2964 590 89 400 230/04 RMK AO2 P0001 T01170100 $
94790KART ART20160608111013806/08/16 11:10:31  5-MIN KART 081610Z AUTO 21004KT 10SM SCT016 BKN022 OVC034 12/10 A2964 590 89 400 220/04 RMK AO2 RAE10 P0001 T01170100 $
94790KART ART20160608111513806/08/16 11:15:31  5-MIN KART 081615Z AUTO 22006KT 10SM SCT016 BKN022 OVC047 12/11 A2964 590 89 400 240/06 RMK AO2 RAE10 P0001 T01220106 $
94790KART ART20160608112013806/08/16 11:20:31  5-MIN KART 081620Z AUTO 21006KT 10SM SCT018 BKN024 OVC047 12/10 A2964 590 86 400 220/06 RMK AO2 RAE10 P0001 T01220100 $
94790KART ART20160608112513806/08/16 11:25:31  5-MIN KART 081625Z AUTO 26009KT 10SM FEW013 BKN019 OVC037 12/10 A2964 590 86 400 280/09 RMK AO2 RAE10 P0001 T01220100 $
94790KART ART20160608113013806/08/16 11:30:31  5-MIN KART 081630Z AUTO 26011KT 10SM SCT016 BKN021 OVC037 13/10 A2964 590 83 500 270/11 RMK AO2 RAE10 P0001 T01280100 $
94790KART ART20160608113514406/08/16 11:35:31  5-MIN KART 081635Z AUTO 26012G18KT 10SM FEW016 BKN021 OVC035 13/09 A2964 590 80 500 270/12G18 RMK AO2 RAE10 P0001 T01280094 $
94790KART ART20160608114014406/08/16 11:40:31  5-MIN KART 081640Z AUTO 26012G18KT 10SM FEW016 SCT020 OVC035 13/09 A2964 590 80 500 280/12G18 RMK AO2 RAE10 P0001 T01280094 $
94790KART ART20160608114514406/08/16 11:45:31  5-MIN KART 081645Z AUTO 26011G18KT 10SM FEW018 BKN035 OVC048 14/09 A2964 590 74 600 270/11G18 RMK AO2 RAE10 P0001 T01390094 $
94790KART ART20160608115015106/08/16 11:50:31  5-MIN KART 081650Z AUTO 28015G21KT 10SM FEW016 BKN038 OVC048 15/09 A2964 590 69 800 290/15G21 RMK AO2 RAE10 SLP035 P0001 T01500094 $
94790KART ART20160608115515106/08/16 11:55:31  5-MIN KART 081655Z AUTO 27014G21KT 10SM FEW030 SCT035 OVC048 14/09 A2964 590 69 700 280/14G21 RMK AO2 RAE10 SLP035 P0001 T01440089 $
94790KART ART20160608120012606/08/16 12:00:31  5-MIN KART 081700Z AUTO 28011KT 10SM FEW030 SCT035 OVC048 15/08 A2964 590 64 800 290/11 RMK AO2 T01500083 $
94790KART ART20160608120513206/08/16 12:05:31  5-MIN KART 081705Z AUTO 28018G23KT 10SM FEW029 SCT037 OVC048 15/08 A2964 590 62 800 290/18G23 RMK AO2 T01500078 $
94790KART ART20160608121013206/08/16 12:10:31  5-MIN KART 081710Z AUTO 28015G23KT 10SM FEW029 SCT037 OVC048 14/07 A2964 590 59 700 290/15G23 RMK AO2 T01440067 $
94790KART ART20160608121511906/08/16 12:15:31  5-MIN KART 081715Z AUTO 27014KT 10SM FEW037 OVC048 14/07 A2964 590 59 700 290/14 RMK AO2 T01440067 $
94790KART ART20160608122012506/08/16 12:20:31  5-MIN KART 081720Z AUTO 28013G21KT 10SM FEW037 OVC048 14/07 A2964 590 61 700 290/13G21 RMK AO2 T01440072 $
94790KART ART20160608122512506/08/16 12:25:31  5-MIN KART 081725Z AUTO 27013G20KT 10SM FEW037 OVC050 14/07 A2964 590 61 700 290/13G20 RMK AO2 T01440072 $
94790KART ART20160608123012506/08/16 12:30:31  5-MIN KART 081730Z AUTO 28015G20KT 10SM FEW037 OVC050 14/07 A2964 590 59 700 290/15G20 RMK AO2 T01440067 $
94790KART ART20160608123511206/08/16 12:35:31  5-MIN KART 081735Z AUTO 28011KT 10SM OVC050 14/06 A2964 590 57 700 290/11 RMK AO2 T01440061 $
94790KART ART20160608124011206/08/16 12:40:31  5-MIN KART 081740Z AUTO 28013KT 10SM OVC048 14/06 A2964 590 57 700 290/13 RMK AO2 T01440061 $
94790KART ART20160608124512506/08/16 12:45:31  5-MIN KART 081745Z AUTO 27012G19KT 10SM BKN043 OVC050 14/06 A2964 590 59 600 290/12G19 RMK AO2 T01390061 $
94790KART ART20160608125015606/08/16 12:50:31  5-MIN KART 081750Z AUTO 27014G20KT 10SM BKN041 OVC050 14/06 A2964 590 59 600 290/14G20 RMK AO2 SLP036 60019 T01390061 10150 20106 51010 $
94790KART ART20160608125516306/08/16 12:55:31  5-MIN KART 081755Z AUTO 25010G20KT 10SM FEW028 BKN037 OVC050 14/07 A2965 590 64 600 260/10G20 RMK AO2 SLP037 60019 T01390072 10150 20106 51010 $
94790KART ART20160608130013206/08/16 13:00:31  5-MIN KART 081800Z AUTO 24013G19KT 10SM FEW028 BKN037 OVC050 13/09 A2965 580 74 600 250/13G19 RMK AO2 T01330089 $
94790KART ART20160608130513206/08/16 13:05:31  5-MIN KART 081805Z AUTO 23013G19KT 10SM FEW018 BKN035 OVC043 13/09 A2965 590 77 600 250/13G19 RMK AO2 T01330094 $
94790KART ART20160608131012606/08/16 13:10:31  5-MIN KART 081810Z AUTO 24011KT 10SM FEW020 BKN035 OVC050 13/09 A2965 590 77 600 250/11 RMK AO2 T01330094 $
94790KART ART20160608131513206/08/16 13:15:31  5-MIN KART 081815Z AUTO 24011G18KT 10SM FEW018 BKN038 OVC047 13/09 A2965 580 80 500 250/11G18 RMK AO2 T01280094 $
94790KART ART20160608132012606/08/16 13:20:31  5-MIN KART 081820Z AUTO 25010KT 10SM FEW018 BKN036 OVC050 13/10 A2965 580 80 600 270/10 RMK AO2 T01330100 $
94790KART ART20160608132512606/08/16 13:25:31  5-MIN KART 081825Z AUTO 25011KT 10SM FEW018 BKN048 OVC060 14/09 A2965 580 74 600 270/11 RMK AO2 T01390094 $
94790KART ART20160608133013206/08/16 13:30:31  5-MIN KART 081830Z AUTO 24008G17KT 10SM FEW023 BKN050 OVC060 14/09 A2965 580 71 600 260/08G17 RMK AO2 T01390089 $
94790KART ART20160608133513206/08/16 13:35:31  5-MIN KART 081835Z AUTO 27013G19KT 10SM FEW023 BKN050 OVC060 14/08 A2965 580 69 600 280/13G19 RMK AO2 T01390083 $
94790KART ART20160608134014706/08/16 13:40:31  5-MIN KART 081840Z AUTO 27013G22KT 7SM -RA FEW020 BKN050 OVC060 13/08 A2965 580 69 600 280/13G22 RMK AO2 RAB39 P0000 T01330078 $
94790KART ART20160608134514706/08/16 13:45:31  5-MIN KART 081845Z AUTO 27012G22KT 8SM -RA FEW033 BKN041 OVC060 13/08 A2966 580 71 500 290/12G22 RMK AO2 RAB39 P0000 T01280078 $
94790KART ART20160608135015506/08/16 13:50:31  5-MIN KART 081850Z AUTO 27014G21KT 10SM -RA FEW031 BKN041 OVC055 13/07 A2965 580 66 600 280/14G21 RMK AO2 RAB39 SLP041 P0000 T01330072 $
94790KART ART20160608135515406/08/16 13:55:31  5-MIN KART 081855Z AUTO 27014G21KT 10SM FEW034 BKN043 OVC055 13/07 A2966 580 66 600 280/14G21 RMK AO2 RAB39E51 SLP041 P0000 T01330072 $
94790KART ART20160608140013206/08/16 14:00:31  5-MIN KART 081900Z AUTO 28012G21KT 10SM BKN041 BKN050 OVC065 14/07 A2966 580 64 600 290/12G21 RMK AO2 T01390072 $
94790KART ART20160608140512506/08/16 14:05:31  5-MIN KART 081905Z AUTO 26012G21KT 10SM BKN040 OVC065 14/07 A2966 580 61 700 280/12G21 RMK AO2 T01440072 $
94790KART ART20160608141012506/08/16 14:10:31  5-MIN KART 081910Z AUTO 28012G22KT 10SM BKN040 OVC065 14/07 A2966 580 61 700 290/12G22 RMK AO2 T01440072 $
94790KART ART20160608141513206/08/16 14:15:31  5-MIN KART 081915Z AUTO 26016G22KT 10SM BKN039 BKN048 OVC060 14/07 A2966 580 61 700 270/16G22 RMK AO2 T01440072 $
94790KART ART20160608142013206/08/16 14:20:31  5-MIN KART 081920Z AUTO 27013G22KT 10SM FEW036 BKN050 OVC060 14/07 A2966 580 61 600 290/13G22 RMK AO2 T01390067 $
94790KART ART20160608142513206/08/16 14:25:31  5-MIN KART 081925Z AUTO 27013G19KT 10SM FEW034 BKN049 OVC065 14/07 A2966 570 61 600 290/13G19 RMK AO2 T01390067 $
94790KART ART20160608143013206/08/16 14:30:31  5-MIN KART 081930Z AUTO 26014G23KT 10SM FEW034 BKN049 OVC060 14/07 A2966 570 61 600 280/14G23 RMK AO2 T01390067 $
94790KART ART20160608143513206/08/16 14:35:31  5-MIN KART 081935Z AUTO 27013G23KT 10SM FEW034 BKN047 OVC060 14/07 A2966 570 61 600 290/13G23 RMK AO2 T01390067 $
94790KART ART20160608144013206/08/16 14:40:31  5-MIN KART 081940Z AUTO 26013G21KT 10SM FEW034 BKN047 OVC055 14/07 A2966 570 61 600 280/13G21 RMK AO2 T01390067 $
94790KART ART20160608144512506/08/16 14:45:31  5-MIN KART 081945Z AUTO 27011G21KT 10SM BKN049 OVC055 13/07 A2966 570 64 500 290/11G21 RMK AO2 T01330067 $
94790KART ART20160608145013206/08/16 14:50:31  5-MIN KART 081950Z AUTO 28016G20KT 10SM BKN049 OVC055 13/07 A2966 570 64 500 290/16G20 RMK AO2 SLP044 T01330067 $
94790KART ART20160608145512506/08/16 14:55:31  5-MIN KART 081955Z AUTO 27015G21KT 10SM OVC049 13/07 A2966 570 64 500 280/15G21 RMK AO2 SLP044 T01330067 $
94790KART ART20160608150012506/08/16 15:00:31  5-MIN KART 082000Z AUTO 26014G21KT 10SM BKN049 OVC055 14/07 A2967 570 61 600 270/14G21 RMK AO2 T01390067 $
94790KART ART20160608150511206/08/16 15:05:31  5-MIN KART 082005Z AUTO 26015KT 10SM OVC049 14/07 A2967 570 61 600 270/15 RMK AO2 T01390067 $
94790KART ART20160608151011806/08/16 15:10:31  5-MIN KART 082010Z AUTO 26016G21KT 10SM OVC047 13/07 A2967 570 64 500 270/16G21 RMK AO2 T01330067 $
94790KART ART20160608151511806/08/16 15:15:31  5-MIN KART 082015Z AUTO 26012G20KT 10SM OVC047 13/07 A2967 570 64 500 270/12G20 RMK AO2 T01330067 $
94790KART ART20160608152011806/08/16 15:20:31  5-MIN KART 082020Z AUTO 26012G19KT 10SM OVC045 13/07 A2967 570 64 500 270/12G19 RMK AO2 T01330067 $
94790KART ART20160608152511806/08/16 15:25:31  5-MIN KART 082025Z AUTO 27015G19KT 10SM OVC047 14/07 A2967 560 64 600 280/15G19 RMK AO2 T01390072 $
94790KART ART20160608153012506/08/16 15:30:31  5-MIN KART 082030Z AUTO 26014G19KT 10SM FEW035 OVC047 14/07 A2967 560 64 600 270/14G19 RMK AO2 T01390072 $
94790KART ART20160608153511906/08/16 15:35:31  5-MIN KART 082035Z AUTO 26016KT 10SM FEW033 OVC045 13/07 A2967 560 66 500 270/16 RMK AO2 T01330072 $
94790KART ART20160608154012506/08/16 15:40:31  5-MIN KART 082040Z AUTO 26016G24KT 10SM FEW033 OVC043 13/07 A2967 560 64 500 270/16G24 RMK AO2 T01330067 $
94790KART ART20160608154512506/08/16 15:45:31  5-MIN KART 082045Z AUTO 26010G24KT 10SM FEW032 OVC043 13/07 A2967 560 66 500 270/10G24 RMK AO2 T01330072 $
94790KART ART20160608155014306/08/16 15:50:31  5-MIN KART 082050Z AUTO 26014G24KT 8SM BKN040 OVC049 13/07 A2967 560 66 500 270/14G24 RMK AO2 SLP047 60000 T01330072 53004 $
94790KART ART20160608155515906/08/16 15:55:31  5-MIN KART 082055Z AUTO 26016G25KT 8SM -RA BKN037 OVC044 13/07 A2967 560 69 500 270/16G25 RMK AO2 RAB51 SLP048 P0000 60000 T01280072 53004 $
94790KART ART20160608160012806/08/16 16:00:31  5-MIN KART 082100Z AUTO 26015G25KT 10SM -RA OVC037 13/07 A2968 560 64 500 270/15G25 RMK AO2 P0000 T01330067 $
94790KART ART20160608160513006/08/16 16:05:31  5-MIN KART 082105Z AUTO 27017G25KT 10SM OVC037 13/07 A2968 550 64 500 280/17G25 RMK AO2 RAE01 P0000 T01330067 $
94790KART ART20160608161013006/08/16 16:10:31  5-MIN KART 082110Z AUTO 27015G25KT 10SM OVC039 13/07 A2968 550 64 500 290/15G25 RMK AO2 RAE01 P0000 T01330067 $
94790KART ART20160608161513006/08/16 16:15:31  5-MIN KART 082115Z AUTO 27014G23KT 10SM OVC039 13/07 A2968 550 64 500 290/14G23 RMK AO2 RAE01 P0000 T01330067 $
94790KART ART20160608162012406/08/16 16:20:31  5-MIN KART 082120Z AUTO 26016KT 10SM OVC037 13/07 A2968 550 64 500 270/16 RMK AO2 RAE01 P0000 T01330067 $
94790KART ART20160608162513706/08/16 16:25:31  5-MIN KART 082125Z AUTO 26017G23KT 10SM BKN037 OVC043 13/07 A2968 550 64 500 270/17G23 RMK AO2 RAE01 P0000 T01330067 $
94790KART ART20160608163013006/08/16 16:30:31  5-MIN KART 082130Z AUTO 27017G24KT 10SM OVC039 13/07 A2968 550 64 500 280/17G24 RMK AO2 RAE01 P0000 T01330067 $
94790KART ART20160608163514406/08/16 16:35:31  5-MIN KART 082135Z AUTO 27017G25KT 10SM -RA BKN036 OVC043 13/07 A2969 550 64 500 280/17G25 RMK AO2 RAE01B32 P0000 T01330067 $
94790KART ART20160608164016206/08/16 16:40:31  5-MIN KART 082140Z AUTO 27018G26KT 10SM -RA BKN036 OVC045 13/07 A2969 550 64 500 290/18G26 RMK AO2 PK WND 28026/2138 RAE01B32 P0000 T01330067 $
94790KART ART20160608164516106/08/16 16:45:31  5-MIN KART 082145Z AUTO 28019G26KT 10SM BKN036 OVC045 13/06 A2969 540 63 400 290/19G26 RMK AO2 PK WND 28026/2138 RAE01B32E43 P0000 T01280061 $
94790KART ART20160608165016806/08/16 16:50:31  5-MIN KART 082150Z AUTO 27014G24KT 10SM BKN036 OVC045 13/06 A2969 540 61 500 280/14G24 RMK AO2 PK WND 28026/2138 RAE01B32E43 SLP053 P0000 T01330061 $
94790KART ART20160608165516806/08/16 16:55:31  5-MIN KART 082155Z AUTO 26017G24KT 10SM BKN036 OVC045 13/07 A2969 540 64 500 280/17G24 RMK AO2 PK WND 28026/2138 RAE01B32E43 SLP053 P0000 T01330067 $
94790KART ART20160608170013606/08/16 17:00:31  5-MIN KART 082200Z AUTO 27015G26KT 10SM OVC036 13/07 A2970 540 66 400 280/15G26 RMK AO2 PK WND 28026/2157 T01280067 $
94790KART ART20160608170513606/08/16 17:05:31  5-MIN KART 082205Z AUTO 28014G26KT 10SM OVC034 13/07 A2970 530 66 400 300/14G26 RMK AO2 PK WND 28026/2157 T01280067 $
94790KART ART20160608171014306/08/16 17:10:31  5-MIN KART 082210Z AUTO 26015G22KT 10SM BKN034 OVC040 13/07 A2970 540 66 400 270/15G22 RMK AO2 PK WND 28026/2157 T01280067 $
94790KART ART20160608171513606/08/16 17:15:31  5-MIN KART 082215Z AUTO 29017G26KT 10SM OVC035 13/07 A2971 530 66 400 310/17G26 RMK AO2 PK WND 27026/2212 T01280067 $
94790KART ART20160608172014306/08/16 17:20:31  5-MIN KART 082220Z AUTO 29014G27KT 10SM BKN033 OVC042 13/07 A2971 530 66 400 310/14G27 RMK AO2 PK WND 29027/2216 T01280067 $
94790KART ART20160608172514306/08/16 17:25:31  5-MIN KART 082225Z AUTO 28014G27KT 10SM BKN033 OVC040 13/07 A2971 520 66 400 290/14G27 RMK AO2 PK WND 29027/2216 T01280067 $
94790KART ART20160608173014306/08/16 17:30:31  5-MIN KART 082230Z AUTO 29017G25KT 10SM BKN033 OVC041 13/07 A2971 520 66 400 300/17G25 RMK AO2 PK WND 29027/2216 T01280067 $
94790KART ART20160608173515006/08/16 17:35:31  5-MIN KART 082235Z AUTO 28016G25KT 10SM SCT033 BKN041 OVC055 13/06 A2972 520 63 400 290/16G25 RMK AO2 PK WND 29027/2216 T01280061 $
94790KART ART20160608174014406/08/16 17:40:31  5-MIN KART 082240Z AUTO 29016KT 10SM FEW032 BKN039 OVC060 13/06 A2972 520 63 400 310/16 RMK AO2 PK WND 29027/2216 T01280061 $
94790KART ART20160608174514406/08/16 17:45:31  5-MIN KART 082245Z AUTO 28018KT 10SM SCT032 BKN043 OVC060 13/06 A2972 520 63 400 300/18 RMK AO2 PK WND 29027/2216 T01280061 $
94790KART ART20160608175015706/08/16 17:50:31  5-MIN KART 082250Z AUTO 28013G22KT 10SM BKN034 BKN041 OVC060 13/06 A2972 510 63 400 300/13G22 RMK AO2 PK WND 29027/2216 SLP064 T01280061 $
94790KART ART20160608175515106/08/16 17:55:31  5-MIN KART 082255Z AUTO 30014KT 10SM BKN035 BKN046 OVC060 13/06 A2973 510 63 400 310/14 RMK AO2 PK WND 29027/2216 SLP066 T01280061 $
94790KART ART20160608180012506/08/16 18:00:31  5-MIN KART 082300Z AUTO 29016G22KT 10SM SCT037 OVC060 13/06 A2973 510 63 400 310/16G22 RMK AO2 T01280061 $
94790KART ART20160608180513206/08/16 18:05:31  5-MIN KART 082305Z AUTO 28011G22KT 10SM SCT036 SCT048 OVC060 13/06 A2973 500 63 400 300/11G22 RMK AO2 T01280061 $
94790KART ART20160608181012606/08/16 18:10:31  5-MIN KART 082310Z AUTO 28012KT 10SM FEW034 SCT042 OVC049 12/06 A2973 500 66 300 290/12 RMK AO2 T01220061 $
94790KART ART20160608181511906/08/16 18:15:31  5-MIN KART 082315Z AUTO 28012KT 10SM FEW034 OVC060 13/06 A2973 500 63 400 290/12 RMK AO2 T01280061 $
94790KART ART20160608182011906/08/16 18:20:31  5-MIN KART 082320Z AUTO 27014KT 10SM FEW034 OVC060 13/06 A2974 500 63 400 280/14 RMK AO2 T01280061 $
94790KART ART20160608182512506/08/16 18:25:31  5-MIN KART 082325Z AUTO 28016G21KT 10SM FEW035 OVC060 13/06 A2974 500 61 400 290/16G21 RMK AO2 T01280056 $
94790KART ART20160608183011806/08/16 18:30:31  5-MIN KART 082330Z AUTO 27014G21KT 10SM OVC060 13/06 A2974 500 63 400 280/14G21 RMK AO2 T01280061 $
94790KART ART20160608183513506/08/16 18:35:31  5-MIN KART 082335Z AUTO 27012KT 10SM -RA SCT038 OVC060 13/06 A2974 500 63 400 290/12 RMK AO2 RAB34 P0000 T01280061 $
94790KART ART20160608184014806/08/16 18:40:31  5-MIN KART 082340Z AUTO 27018G23KT 10SM -RA SCT038 BKN047 OVC060 13/06 A2974 500 63 400 280/18G23 RMK AO2 RAB34 P0000 T01280061 $
94790KART ART20160608184514706/08/16 18:45:31  5-MIN KART 082345Z AUTO 27013G23KT 10SM BKN036 BKN047 OVC060 13/06 A2974 500 61 400 280/13G23 RMK AO2 RAB34E45 P0000 T01280056 $
94790KART ART20160608185017206/08/16 18:50:31  5-MIN KART 082350Z AUTO 27016KT 10SM BKN036 BKN047 OVC060 13/06 A2974 500 63 400 280/16 RMK AO2 RAB34E45 SLP071 P0000 60000 T01280061 10144 20122 52009 $
94790KART ART20160608185517806/08/16 18:55:31  5-MIN KART 082355Z AUTO 27012G22KT 10SM BKN036 BKN047 OVC060 13/06 A2974 500 63 400 280/12G22 RMK AO2 RAB34E45 SLP071 P0000 60000 T01280061 10144 20122 52009 $
94790KART ART20160608190012506/08/16 19:00:31  5-MIN KART 090000Z AUTO 26012G22KT 10SM BKN034 OVC041 13/07 A2974 490 66 400 270/12G22 RMK AO2 T01280067 $
94790KART ART20160608190512506/08/16 19:05:31  5-MIN KART 090005Z AUTO 27014G20KT 10SM BKN034 OVC044 13/07 A2975 490 66 400 290/14G20 RMK AO2 T01280067 $
94790KART ART20160608191012506/08/16 19:10:31  5-MIN KART 090010Z AUTO 28012G20KT 10SM BKN034 OVC047 13/07 A2975 490 66 400 290/12G20 RMK AO2 T01280067 $
94790KART ART20160608191514106/08/16 19:15:31  5-MIN KART 090015Z AUTO 27016G22KT 10SM -RA BKN034 OVC047 13/06 A2975 490 63 400 290/16G22 RMK AO2 RAB15 P0000 T01280061 $
94790KART ART20160608192013506/08/16 19:20:31  5-MIN KART 090020Z AUTO 27014KT 10SM -RA BKN034 OVC042 13/06 A2975 490 63 400 280/14 RMK AO2 RAB15 P0000 T01280061 $
94790KART ART20160608192514106/08/16 19:25:31  5-MIN KART 090025Z AUTO 28014G25KT 10SM -RA BKN034 OVC047 13/06 A2975 490 63 400 290/14G25 RMK AO2 RAB15 P0000 T01280061 $
94790KART ART20160608193014006/08/16 19:30:31  5-MIN KART 090030Z AUTO 28010G25KT 10SM BKN033 OVC042 13/06 A2975 490 63 400 290/10G25 RMK AO2 RAB15E28 P0000 T01280061 $
94790KART ART20160608193514006/08/16 19:35:31  5-MIN KART 090035Z AUTO 28014G20KT 10SM BKN035 OVC042 13/06 A2975 480 63 400 290/14G20 RMK AO2 RAB15E28 P0000 T01280061 $
94790KART ART20160608194014006/08/16 19:40:31  5-MIN KART 090040Z AUTO 29012G20KT 10SM BKN035 OVC044 13/06 A2976 480 63 400 300/12G20 RMK AO2 RAB15E28 P0000 T01280061 $
94790KART ART20160608194514106/08/16 19:45:31  5-MIN KART 090045Z AUTO 29013G21KT 10SM -RA BKN035 OVC044 12/07 A2976 480 68 300 300/13G21 RMK AO2 RAB15 P0000 T01220067 $
94790KART ART20160608195014806/08/16 19:50:31  5-MIN KART 090050Z AUTO 30017G21KT 10SM -RA BKN035 OVC044 12/07 A2976 480 68 300 310/17G21 RMK AO2 RAB15 SLP077 P0000 T01220067 $
94790KART ART20160608195514706/08/16 19:55:31  5-MIN KART 090055Z AUTO 31016G23KT 9SM -RA BKN035 OVC044 12/06 A2976 480 68 200 320/16G23 RMK AO2 RAB15 SLP078 P0000 T01170061 $
94790KART ART20160608200012906/08/16 20:00:31  5-MIN KART 090100Z AUTO 30009KT 10SM -RA BKN035 OVC044 12/07 A2976 480 71 200 310/09 RMK AO2 P0000 T01170067 $
94790KART ART20160608200512906/08/16 20:05:31  5-MIN KART 090105Z AUTO 29011KT 10SM -RA SCT031 OVC040 12/07 A2976 480 71 200 300/11 RMK AO2 P0000 T01170067 $
94790KART ART20160608201013606/08/16 20:10:31  5-MIN KART 090110Z AUTO 28010KT 10SM -RA BKN034 BKN043 OVC055 12/07 A2976 480 74 200 290/10 RMK AO2 P0000 T01170072 $
94790KART ART20160608201513706/08/16 20:15:31  5-MIN KART 090115Z AUTO 29013G19KT 10SM BKN034 OVC043 12/07 A2976 470 68 300 300/13G19 RMK AO2 RAE13 P0000 T01220067 $
94790KART ART20160608202013706/08/16 20:20:31  5-MIN KART 090120Z AUTO 28016G21KT 10SM BKN034 OVC043 12/06 A2977 470 66 300 300/16G21 RMK AO2 RAE13 P0000 T01220061 $
94790KART ART20160608202514406/08/16 20:25:31  5-MIN KART 090125Z AUTO 27016G21KT 10SM SCT030 BKN035 OVC043 12/07 A2977 470 68 300 290/16G21 RMK AO2 RAE13 P0000 T01220067 $
94790KART ART20160608203014406/08/16 20:30:31  5-MIN KART 090130Z AUTO 27014G21KT 10SM -RA BKN030 OVC043 12/07 A2977 470 68 300 290/14G21 RMK AO2 RAE13B29 P0000 T01220067 $
94790KART ART20160608203515106/08/16 20:35:31  5-MIN KART 090135Z AUTO 28016G23KT 10SM -RA SCT027 BKN032 OVC041 12/07 A2977 470 74 200 290/16G23 RMK AO2 RAE13B29 P0000 T01170072 $
94790KART ART20160608204015106/08/16 20:40:31  5-MIN KART 090140Z AUTO 28011G23KT 10SM -RA SCT027 BKN032 OVC043 12/07 A2977 470 74 200 300/11G23 RMK AO2 RAE13B29 P0000 T01170072 $
94790KART ART20160608204515106/08/16 20:45:31  5-MIN KART 090145Z AUTO 28014G20KT 10SM -RA SCT027 BKN032 OVC043 12/07 A2977 470 74 200 300/14G20 RMK AO2 RAE13B29 P0000 T01170072 $
94790KART ART20160608205015806/08/16 20:50:31  5-MIN KART 090150Z AUTO 28016G22KT 10SM -RA SCT027 BKN034 OVC050 12/07 A2978 460 68 300 290/16G22 RMK AO2 RAE13B29 SLP082 P0000 T01220067 $
94790KART ART20160608205515706/08/16 20:55:31  5-MIN KART 090155Z AUTO 29014G22KT 10SM SCT030 BKN045 OVC055 12/07 A2978 460 68 300 300/14G22 RMK AO2 RAE13B29E54 SLP082 P0000 T01220067 $
94790KART ART20160608210013206/08/16 21:00:31  5-MIN KART 090200Z AUTO 28017G21KT 10SM FEW027 BKN047 OVC055 12/07 A2978 460 68 300 290/17G21 RMK AO2 T01220067 $
94790KART ART20160608210513206/08/16 21:05:31  5-MIN KART 090205Z AUTO 28018G24KT 10SM FEW029 BKN047 OVC055 12/07 A2978 460 68 300 300/18G24 RMK AO2 T01220067 $
94790KART ART20160608211012506/08/16 21:10:31  5-MIN KART 090210Z AUTO 29016G25KT 10SM FEW029 OVC049 12/07 A2978 460 68 300 300/16G25 RMK AO2 T01220067 $
94790KART ART20160608211512506/08/16 21:15:31  5-MIN KART 090215Z AUTO 28018G25KT 10SM FEW027 OVC048 12/07 A2978 460 68 300 300/18G25 RMK AO2 T01220067 $
94790KART ART20160608212013206/08/16 21:20:31  5-MIN KART 090220Z AUTO 29018G24KT 10SM FEW027 BKN042 OVC050 12/07 A2978 460 68 300 300/18G24 RMK AO2 T01220067 $
94790KART ART20160608212513206/08/16 21:25:31  5-MIN KART 090225Z AUTO 29015G24KT 10SM FEW027 BKN042 OVC050 12/07 A2978 460 68 300 310/15G24 RMK AO2 T01220067 $
94790KART ART20160608213013206/08/16 21:30:31  5-MIN KART 090230Z AUTO 29015G22KT 10SM FEW027 BKN042 OVC050 12/07 A2978 460 68 300 300/15G22 RMK AO2 T01220067 $
94790KART ART20160608213515006/08/16 21:35:31  5-MIN KART 090235Z AUTO 28019G27KT 10SM FEW028 BKN042 OVC050 12/07 A2978 460 68 300 290/19G27 RMK AO2 PK WND 29027/0233 T01220067 $
94790KART ART20160608214015006/08/16 21:40:31  5-MIN KART 090240Z AUTO 28016G27KT 10SM FEW028 BKN040 OVC050 12/07 A2978 460 68 300 300/16G27 RMK AO2 PK WND 29027/0233 T01220067 $
94790KART ART20160608214515006/08/16 21:45:31  5-MIN KART 090245Z AUTO 28016G24KT 10SM FEW028 BKN040 OVC055 12/07 A2978 460 68 300 300/16G24 RMK AO2 PK WND 29027/0233 T01220067 $
94790KART ART20160608215016206/08/16 21:50:31  5-MIN KART 090250Z AUTO 29015G21KT 10SM BKN042 OVC055 12/07 A2978 460 68 300 300/15G21 RMK AO2 PK WND 29027/0233 SLP082 60000 T01220067 51023 $
94790KART ART20160608215516906/08/16 21:55:31  5-MIN KART 090255Z AUTO 28013G22KT 10SM SCT042 BKN050 OVC065 12/07 A2978 460 68 300 290/13G22 RMK AO2 PK WND 29027/0233 SLP082 60000 T01220067 51023 $
94790KART ART20160608220012606/08/16 22:00:31  5-MIN KART 090300Z AUTO 29013KT 10SM FEW028 SCT042 OVC050 12/07 A2977 470 68 300 300/13 RMK AO2 T01220067 $
94790KART ART20160608220513206/08/16 22:05:31  5-MIN KART 090305Z AUTO 28016G23KT 10SM FEW028 FEW042 OVC050 12/07 A2977 470 68 300 290/16G23 RMK AO2 T01220067 $
94790KART ART20160608221011806/08/16 22:10:31  5-MIN KART 090310Z AUTO 28017G23KT 10SM OVC050 12/07 A2978 460 68 300 300/17G23 RMK AO2 T01220067 $
94790KART ART20160608221511806/08/16 22:15:31  5-MIN KART 090315Z AUTO 28018G24KT 10SM OVC050 12/07 A2977 470 68 300 290/18G24 RMK AO2 T01220067 $
94790KART ART20160608222012506/08/16 22:20:31  5-MIN KART 090320Z AUTO 28017G24KT 10SM FEW031 OVC050 12/07 A2977 470 68 300 300/17G24 RMK AO2 T01220067 $
94790KART ART20160608222512506/08/16 22:25:31  5-MIN KART 090325Z AUTO 29018G25KT 10SM FEW031 OVC055 12/07 A2977 470 68 300 300/18G25 RMK AO2 T01220067 $
94790KART ART20160608223013206/08/16 22:30:31  5-MIN KART 090330Z AUTO 28014G25KT 10SM FEW031 BKN055 OVC070 12/07 A2977 470 68 300 300/14G25 RMK AO2 T01220067 $
94790KART ART20160608223513206/08/16 22:35:31  5-MIN KART 090335Z AUTO 28015G24KT 10SM FEW031 FEW047 OVC060 12/07 A2978 460 68 300 290/15G24 RMK AO2 T01220067 $
94790KART ART20160608224012506/08/16 22:40:31  5-MIN KART 090340Z AUTO 29011G21KT 10SM FEW031 OVC060 12/07 A2977 470 68 300 300/11G21 RMK AO2 T01220067 $
94790KART ART20160608224513206/08/16 22:45:31  5-MIN KART 090345Z AUTO 28018G22KT 10SM FEW031 FEW047 OVC060 12/07 A2978 460 68 300 290/18G22 RMK AO2 T01220067 $
94790KART ART20160608225013906/08/16 22:50:31  5-MIN KART 090350Z AUTO 29017G22KT 10SM FEW031 BKN050 OVC060 12/07 A2977 470 68 300 300/17G22 RMK AO2 SLP082 T01220067 $
94790KART ART20160608225515706/08/16 22:55:31  5-MIN KART 090355Z AUTO 29019G27KT 10SM FEW029 BKN050 OVC060 12/06 A2977 470 66 300 300/19G27 RMK AO2 PK WND 28027/0351 SLP082 T01220061 $
94790KART ART20160608230015006/08/16 23:00:31  5-MIN KART 090400Z AUTO 28018G27KT 10SM FEW029 FEW036 OVC055 12/06 A2978 460 66 300 290/18G27 RMK AO2 PK WND 27026/0400 T01220061 $
94790KART ART20160608230515006/08/16 23:05:31  5-MIN KART 090405Z AUTO 29015G26KT 10SM FEW029 FEW036 OVC055 12/06 A2978 460 66 300 300/15G26 RMK AO2 PK WND 27026/0400 T01220061 $
94790KART ART20160608231014406/08/16 23:10:31  5-MIN KART 090410Z AUTO 29014KT 10SM FEW032 BKN050 OVC060 12/06 A2978 460 66 300 300/14 RMK AO2 PK WND 27026/0400 T01220061 $
94790KART ART20160608231515006/08/16 23:15:31  5-MIN KART 090415Z AUTO 29015G24KT 10SM FEW029 BKN049 OVC060 12/06 A2978 460 66 300 300/15G24 RMK AO2 PK WND 27026/0400 T01220061 $
94790KART ART20160608232015006/08/16 23:20:31  5-MIN KART 090420Z AUTO 28010G24KT 10SM FEW029 BKN049 OVC060 12/07 A2978 460 68 300 300/10G24 RMK AO2 PK WND 27026/0400 T01220067 $
94790KART ART20160608232515006/08/16 23:25:31  5-MIN KART 090425Z AUTO 29014G19KT 10SM SCT029 BKN047 OVC055 12/07 A2978 460 68 300 300/14G19 RMK AO2 PK WND 27026/0400 T01220067 $
94790KART ART20160608233015006/08/16 23:30:31  5-MIN KART 090430Z AUTO 29014G22KT 10SM SCT029 BKN047 OVC060 12/07 A2978 460 68 300 300/14G22 RMK AO2 PK WND 27026/0400 T01220067 $
94790KART ART20160608233514306/08/16 23:35:31  5-MIN KART 090435Z AUTO 28011G22KT 10SM SCT029 OVC049 12/07 A2978 460 68 300 300/11G22 RMK AO2 PK WND 27026/0400 T01220067 $
94790KART ART20160608234014306/08/16 23:40:31  5-MIN KART 090440Z AUTO 28015G19KT 10SM SCT031 OVC049 12/07 A2978 460 71 200 290/15G19 RMK AO2 PK WND 27026/0400 T01170067 $
94790KART ART20160608234513706/08/16 23:45:31  5-MIN KART 090445Z AUTO 29013KT 10SM SCT031 OVC049 12/06 A2978 460 68 200 300/13 RMK AO2 PK WND 27026/0400 T01170061 $
94790KART ART20160608235016006/08/16 23:50:31  5-MIN KART 090450Z AUTO 28013G21KT 10SM SCT031 OVC055 12/06 A2978 460 68 200 300/13G21 RMK AO2 PK WND 27026/0400 SLP083 T01170061 401500106 $
94790KART ART20160608235516006/08/16 23:55:31  5-MIN KART 090455Z AUTO 28016G23KT 10SM SCT030 OVC055 12/06 A2978 460 68 200 300/16G23 RMK AO2 PK WND 27026/0400 SLP083 T01170061 401500106 $
94790KART ART20160609000012506/09/16 00:00:31  5-MIN KART 090500Z AUTO 28013G23KT 10SM FEW030 OVC055 12/06 A2978 460 68 200 290/13G23 RMK AO2 T01170061 $
94790KART ART20160609000511906/09/16 00:05:31  5-MIN KART 090505Z AUTO 29012KT 10SM FEW030 BKN060 11/06 A2978 460 71 100 300/12 RMK AO2 T01110061 $
94790KART ART20160609001012606/09/16 00:10:31  5-MIN KART 090510Z AUTO 29014KT 10SM FEW030 BKN060 BKN100 12/06 A2978 460 68 200 300/14 RMK AO2 T01170061 $
94790KART ART20160609001512606/09/16 00:15:31  5-MIN KART 090515Z AUTO 29011KT 10SM SCT029 BKN060 BKN100 11/06 A2978 460 71 100 310/11 RMK AO2 T01110061 $
94790KART ART20160609002012606/09/16 00:20:31  5-MIN KART 090520Z AUTO 29012KT 10SM FEW029 SCT045 BKN060 11/06 A2978 460 71 100 300/12 RMK AO2 T01110061 $
94790KART ART20160609002512606/09/16 00:25:31  5-MIN KART 090525Z AUTO 29012KT 10SM FEW029 BKN045 BKN060 11/06 A2978 460 71 100 300/12 RMK AO2 T01110061 $
94790KART ART20160609003013206/09/16 00:30:31  5-MIN KART 090530Z AUTO 30013G19KT 10SM FEW029 BKN045 BKN100 11/06 A2978 460 71 100 310/13G19 RMK AO2 T01110061 $
94790KART ART20160609003513206/09/16 00:35:31  5-MIN KART 090535Z AUTO 29014G19KT 10SM FEW029 BKN045 BKN100 12/06 A2978 460 68 200 310/14G19 RMK AO2 T01170061 $
94790KART ART20160609004011906/09/16 00:40:31  5-MIN KART 090540Z AUTO 30014KT 10SM FEW029 BKN043 12/06 A2978 460 68 200 310/14 RMK AO2 T01170061 $
94790KART ART20160609004511906/09/16 00:45:31  5-MIN KART 090545Z AUTO 28012KT 10SM FEW029 OVC043 12/06 A2978 460 68 200 300/12 RMK AO2 T01170061 $
94790KART ART20160609005015006/09/16 00:50:31  5-MIN KART 090550Z AUTO 28012KT 10SM SCT029 OVC043 11/06 A2978 460 71 100 300/12 RMK AO2 SLP085 60000 T01110061 10128 20111 50011 $
94790KART ART20160609005515006/09/16 00:55:31  5-MIN KART 090555Z AUTO 29012KT 10SM SCT029 OVC043 11/06 A2978 460 71 100 310/12 RMK AO2 SLP085 60000 T01110061 10128 20111 50011 $
94790KART ART20160609010012606/09/16 01:00:31  5-MIN KART 090600Z AUTO 29012KT 10SM SCT029 BKN035 OVC043 11/06 A2979 460 71 100 310/12 RMK AO2 T01110061 $
94790KART ART20160609010512606/09/16 01:05:31  5-MIN KART 090605Z AUTO 31011KT 10SM BKN029 BKN035 OVC043 11/06 A2978 460 71 100 320/11 RMK AO2 T01110061 $
94790KART ART20160609011011906/09/16 01:10:31  5-MIN KART 090610Z AUTO 30011KT 10SM SCT027 OVC035 11/06 A2979 450 71 100 310/11 RMK AO2 T01110061 $
94790KART ART20160609011511906/09/16 01:15:31  5-MIN KART 090615Z AUTO 31010KT 10SM SCT027 OVC037 11/06 A2979 450 71 100 320/10 RMK AO2 T01110061 $
94790KART ART20160609012011906/09/16 01:20:31  5-MIN KART 090620Z AUTO 30008KT 10SM FEW027 OVC037 11/06 A2979 450 71 100 310/08 RMK AO2 T01110061 $
94790KART ART20160609012511206/09/16 01:25:31  5-MIN KART 090625Z AUTO 31010KT 10SM OVC039 11/06 A2979 450 74 100 320/10 RMK AO2 T01060061 $
94790KART ART20160609013011206/09/16 01:30:31  5-MIN KART 090630Z AUTO 30010KT 10SM OVC041 11/06 A2979 450 74 100 310/10 RMK AO2 T01060061 $
94790KART ART20160609013511206/09/16 01:35:31  5-MIN KART 090635Z AUTO 30008KT 10SM OVC041 11/06 A2979 450 71 100 320/08 RMK AO2 T01060056 $
94790KART ART20160609014011206/09/16 01:40:31  5-MIN KART 090640Z AUTO 30009KT 10SM OVC041 11/06 A2979 450 71 100 320/09 RMK AO2 T01060056 $
94790KART ART20160609014511206/09/16 01:45:31  5-MIN KART 090645Z AUTO 31009KT 10SM OVC043 11/06 A2979 450 71 100 320/09 RMK AO2 T01060056 $
94790KART ART20160609015011906/09/16 01:50:31  5-MIN KART 090650Z AUTO 31010KT 10SM OVC043 11/06 A2980 450 71 100 320/10 RMK AO2 SLP089 T01060056 $
94790KART ART20160609015511906/09/16 01:55:31  5-MIN KART 090655Z AUTO 31008KT 10SM OVC041 11/05 A2980 440 68 100 320/08 RMK AO2 SLP089 T01060050 $
94790KART ART20160609020011906/09/16 02:00:31  5-MIN KART 090700Z AUTO 31006KT 10SM BKN038 OVC045 11/05 A2980 440 68 100 320/06 RMK AO2 T01060050 $
94790KART ART20160609020511006/09/16 02:05:31  5-MIN KART 090705Z AUTO 30006KT 10SM OVC036 10/06 A2980 440 74 0 310/06 RMK AO2 T01000056 $
94790KART ART20160609021011206/09/16 02:10:31  5-MIN KART 090710Z AUTO 30007KT 10SM OVC036 11/06 A2980 440 71 100 310/07 RMK AO2 T01060056 $
94790KART ART20160609021511006/09/16 02:15:31  5-MIN KART 090715Z AUTO 29006KT 10SM OVC036 10/06 A2980 440 74 0 310/06 RMK AO2 T01000056 $
94790KART ART20160609022011206/09/16 02:20:31  5-MIN KART 090720Z AUTO 29007KT 10SM OVC036 11/06 A2980 440 71 100 300/07 RMK AO2 T01060056 $
94790KART ART20160609022511206/09/16 02:25:31  5-MIN KART 090725Z AUTO 28008KT 10SM OVC036 11/06 A2980 440 71 100 290/08 RMK AO2 T01060056 $
94790KART ART20160609023011206/09/16 02:30:31  5-MIN KART 090730Z AUTO 28008KT 10SM OVC036 11/06 A2980 440 71 100 300/08 RMK AO2 T01060056 $
94790KART ART20160609023511206/09/16 02:35:31  5-MIN KART 090735Z AUTO 29010KT 10SM OVC036 11/06 A2980 440 71 100 300/10 RMK AO2 T01060056 $
94790KART ART20160609024011806/09/16 02:40:31  5-MIN KART 090740Z AUTO 30012G23KT 10SM OVC036 11/06 A2980 440 71 100 310/12G23 RMK AO2 T01060056 $
94790KART ART20160609024512506/09/16 02:45:31  5-MIN KART 090745Z AUTO 29011G23KT 10SM BKN036 OVC044 11/06 A2980 440 71 100 310/11G23 RMK AO2 T01060056 $
94790KART ART20160609025011906/09/16 02:50:31  5-MIN KART 090750Z AUTO 29012KT 10SM OVC034 11/05 A2980 440 68 100 300/12 RMK AO2 SLP091 T01060050 $
94790KART ART20160609025511906/09/16 02:55:31  5-MIN KART 090755Z AUTO 30012KT 10SM OVC034 11/06 A2980 440 71 100 310/12 RMK AO2 SLP092 T01060056 $
94790KART ART20160609030011206/09/16 03:00:31  5-MIN KART 090800Z AUTO 30012KT 10SM OVC034 11/05 A2980 440 68 100 310/12 RMK AO2 T01060050 $
94790KART ART20160609030511006/09/16 03:05:31  5-MIN KART 090805Z AUTO 30010KT 10SM OVC034 11/05 A2981 440 68 0 310/10 RMK AO2 T01060050 $
94790KART ART20160609031011006/09/16 03:10:31  5-MIN KART 090810Z AUTO 30011KT 10SM OVC034 11/05 A2981 440 68 0 310/11 RMK AO2 T01060050 $
94790KART ART20160609031511006/09/16 03:15:31  5-MIN KART 090815Z AUTO 30012KT 10SM OVC032 11/05 A2981 440 68 0 310/12 RMK AO2 T01060050 $
94790KART ART20160609032011006/09/16 03:20:31  5-MIN KART 090820Z AUTO 31013KT 10SM OVC029 11/05 A2981 430 68 0 320/13 RMK AO2 T01060050 $
94790KART ART20160609032512306/09/16 03:25:31  5-MIN KART 090825Z AUTO 31007G18KT 10SM BKN029 OVC035 11/05 A2981 440 68 0 320/07G18 RMK AO2 T01060050 $
94790KART ART20160609033011006/09/16 03:30:31  5-MIN KART 090830Z AUTO 30010KT 10SM OVC032 11/05 A2981 440 68 0 310/10 RMK AO2 T01060050 $
94790KART ART20160609033511006/09/16 03:35:31  5-MIN KART 090835Z AUTO 30009KT 10SM OVC032 11/05 A2981 430 68 0 320/09 RMK AO2 T01060050 $
94790KART ART20160609034011006/09/16 03:40:31  5-MIN KART 090840Z AUTO 30008KT 10SM OVC032 11/05 A2981 430 68 0 310/08 RMK AO2 T01060050 $
94790KART ART20160609034511706/09/16 03:45:31  5-MIN KART 090845Z AUTO 30009KT 10SM BKN030 OVC035 10/05 A2981 430 71 0 310/09 RMK AO2 T01000050 $
94790KART ART20160609035013006/09/16 03:50:31  5-MIN KART 090850Z AUTO 31008KT 10SM FEW028 OVC035 10/06 A2982 430 74 0 320/08 RMK AO2 SLP096 T01000056 53003 $
94790KART ART20160609035512306/09/16 03:55:31  5-MIN KART 090855Z AUTO 30007KT 10SM OVC035 10/06 A2982 420 74 0 310/07 RMK AO2 SLP097 T01000056 53003 $
94790KART ART20160609040011706/09/16 04:00:31  5-MIN KART 090900Z AUTO 30008KT 10SM BKN035 OVC042 10/06 A2982 420 74 0 310/08 RMK AO2 T01000056 $
94790KART ART20160609040511006/09/16 04:05:31  5-MIN KART 090905Z AUTO 30008KT 10SM OVC037 10/06 A2982 420 74 0 310/08 RMK AO2 T01000056 $
94790KART ART20160609041011706/09/16 04:10:31  5-MIN KART 090910Z AUTO 29009KT 10SM BKN035 OVC042 10/06 A2982 420 74 0 300/09 RMK AO2 T01000056 $
94790KART ART20160609041511006/09/16 04:15:31  5-MIN KART 090915Z AUTO 29007KT 10SM OVC035 10/06 A2982 420 74 0 300/07 RMK AO2 T01000056 $
94790KART ART20160609042011006/09/16 04:20:31  5-MIN KART 090920Z AUTO 29007KT 10SM OVC035 10/06 A2982 420 74 0 300/07 RMK AO2 T01000056 $
94790KART ART20160609042511006/09/16 04:25:31  5-MIN KART 090925Z AUTO 29007KT 10SM OVC035 10/06 A2982 420 74 0 300/07 RMK AO2 T01000056 $
94790KART ART20160609043011006/09/16 04:30:31  5-MIN KART 090930Z AUTO 29007KT 10SM OVC035 10/06 A2983 420 74 0 310/07 RMK AO2 T01000056 $
94790KART ART20160609043511006/09/16 04:35:31  5-MIN KART 090935Z AUTO 28008KT 10SM OVC035 10/06 A2983 420 74 0 300/08 RMK AO2 T01000056 $
94790KART ART20160609044011706/09/16 04:40:31  5-MIN KART 090940Z AUTO 29007KT 10SM BKN031 OVC038 10/06 A2983 410 74 0 310/07 RMK AO2 T01000056 $
94790KART ART20160609044511006/09/16 04:45:31  5-MIN KART 090945Z AUTO 30009KT 10SM OVC033 10/06 A2983 410 74 0 310/09 RMK AO2 T01000056 $
94790KART ART20160609045011706/09/16 04:50:31  5-MIN KART 090950Z AUTO 30008KT 10SM OVC033 10/06 A2983 410 74 0 320/08 RMK AO2 SLP101 T01000056 $
94790KART ART20160609045511706/09/16 04:55:31  5-MIN KART 090955Z AUTO 29010KT 10SM OVC033 10/06 A2983 410 74 0 310/10 RMK AO2 SLP101 T01000056 $
94790KART ART20160609050011006/09/16 05:00:31  5-MIN KART 091000Z AUTO 30007KT 10SM OVC033 10/05 A2983 410 71 0 310/07 RMK AO2 T01000050 $
94790KART ART20160609050511006/09/16 05:05:31  5-MIN KART 091005Z AUTO 29009KT 10SM OVC033 10/05 A2983 410 71 0 310/09 RMK AO2 T01000050 $
94790KART ART20160609051011006/09/16 05:10:31  5-MIN KART 091010Z AUTO 30012KT 10SM OVC033 10/05 A2983 410 71 0 320/12 RMK AO2 T01000050 $
94790KART ART20160609051511006/09/16 05:15:31  5-MIN KART 091015Z AUTO 30009KT 10SM OVC033 10/05 A2983 410 71 0 310/09 RMK AO2 T01000050 $
94790KART ART20160609052011006/09/16 05:20:31  5-MIN KART 091020Z AUTO 29010KT 10SM OVC033 10/05 A2984 410 71 0 300/10 RMK AO2 T01000050 $
94790KART ART20160609052511006/09/16 05:25:31  5-MIN KART 091025Z AUTO 29010KT 10SM OVC033 10/05 A2984 410 71 0 300/10 RMK AO2 T01000050 $
94790KART ART20160609053011006/09/16 05:30:31  5-MIN KART 091030Z AUTO 28007KT 10SM OVC035 10/05 A2984 410 71 0 300/07 RMK AO2 T01000050 $
94790KART ART20160609053511006/09/16 05:35:31  5-MIN KART 091035Z AUTO 29008KT 10SM OVC035 11/05 A2984 410 68 0 300/08 RMK AO2 T01060050 $
94790KART ART20160609054011006/09/16 05:40:31  5-MIN KART 091040Z AUTO 29009KT 10SM OVC035 11/05 A2984 410 68 0 310/09 RMK AO2 T01060050 $
94790KART ART20160609054511006/09/16 05:45:31  5-MIN KART 091045Z AUTO 30009KT 10SM OVC035 11/06 A2984 410 71 0 310/09 RMK AO2 T01060056 $
94790KART ART20160609055011706/09/16 05:50:31  5-MIN KART 091050Z AUTO 30009KT 10SM OVC034 11/06 A2984 400 71 0 310/09 RMK AO2 SLP104 T01060056 $
94790KART ART20160609055511706/09/16 05:55:31  5-MIN KART 091055Z AUTO 30009KT 10SM OVC034 11/06 A2984 400 71 0 310/09 RMK AO2 SLP104 T01060056 $
94790KART ART20160609060011006/09/16 06:00:31  5-MIN KART 091100Z AUTO 30009KT 10SM OVC034 11/06 A2984 400 71 0 310/09 RMK AO2 T01060056 $
94790KART ART20160609060511006/09/16 06:05:31  5-MIN KART 091105Z AUTO 30008KT 10SM OVC034 11/06 A2984 400 71 0 310/08 RMK AO2 T01060056 $
94790KART ART20160609061011006/09/16 06:10:31  5-MIN KART 091110Z AUTO 30012KT 10SM OVC034 11/06 A2984 400 71 0 310/12 RMK AO2 T01060056 $
94790KART ART20160609061511006/09/16 06:15:31  5-MIN KART 091115Z AUTO 30010KT 10SM OVC035 11/05 A2984 400 68 0 310/10 RMK AO2 T01060050 $
94790KART ART20160609062011006/09/16 06:20:31  5-MIN KART 091120Z AUTO 30008KT 10SM OVC035 11/06 A2985 400 71 0 320/08 RMK AO2 T01060056 $
94790KART ART20160609062511006/09/16 06:25:31  5-MIN KART 091125Z AUTO 30010KT 10SM OVC035 11/06 A2985 400 71 0 310/10 RMK AO2 T01060056 $
94790KART ART20160609063011006/09/16 06:30:31  5-MIN KART 091130Z AUTO 30008KT 10SM OVC035 11/06 A2985 400 74 0 320/08 RMK AO2 T01060061 $
94790KART ART20160609063511206/09/16 06:35:31  5-MIN KART 091135Z AUTO 31008KT 10SM OVC035 11/06 A2985 400 71 100 320/08 RMK AO2 T01110061 $
94790KART ART20160609064011206/09/16 06:40:31  5-MIN KART 091140Z AUTO 29010KT 10SM OVC035 11/06 A2985 400 71 100 300/10 RMK AO2 T01110061 $
94790KART ART20160609064511206/09/16 06:45:31  5-MIN KART 091145Z AUTO 29012KT 10SM OVC037 11/06 A2985 390 71 100 300/12 RMK AO2 T01110061 $
94790KART ART20160609065014306/09/16 06:50:31  5-MIN KART 091150Z AUTO 29010KT 10SM OVC037 11/06 A2985 390 68 100 300/10 RMK AO2 SLP108 70019 T01110056 10111 20100 53012 $
94790KART ART20160609065514106/09/16 06:55:31  5-MIN KART 091155Z AUTO 30008KT 10SM OVC037 11/06 A2985 390 71 100 310/08 RMK AO2 SLP108 70019 T01110061 10111 20100 53012
94790KART ART20160609070011006/09/16 07:00:31  5-MIN KART 091200Z AUTO 31011KT 10SM OVC037 11/06 A2985 390 71 100 320/11 RMK AO2 T01110061
94790KART ART20160609070511006/09/16 07:05:31  5-MIN KART 091205Z AUTO 31011KT 10SM OVC037 11/06 A2985 390 68 100 320/11 RMK AO2 T01110056
94790KART ART20160609071011006/09/16 07:10:31  5-MIN KART 091210Z AUTO 30012KT 10SM OVC037 11/06 A2985 390 68 100 310/12 RMK AO2 T01110056
94790KART ART20160609071511006/09/16 07:15:31  5-MIN KART 091215Z AUTO 29011KT 10SM OVC037 11/06 A2985 390 68 100 310/11 RMK AO2 T01110056
94790KART ART20160609072011506/09/16 07:20:31  5-MIN KART 091220Z AUTO 29012KT 10SM FEW030 OVC037 11/06 A2986 390 71 0 300/12 RMK AO2 T01060056
94790KART ART20160609072510806/09/16 07:25:31  5-MIN KART 091225Z AUTO 29011KT 10SM OVC037 11/06 A2986 390 71 0 310/11 RMK AO2 T01060056
94790KART ART20160609073011006/09/16 07:30:31  5-MIN KART 091230Z AUTO 30012KT 10SM OVC037 11/06 A2986 390 68 100 310/12 RMK AO2 T01110056
94790KART ART20160609073511006/09/16 07:35:31  5-MIN KART 091235Z AUTO 29011KT 10SM OVC037 11/06 A2986 390 68 100 300/11 RMK AO2 T01110056
94790KART ART20160609074011706/09/16 07:40:31  5-MIN KART 091240Z AUTO 29010KT 10SM FEW026 OVC037 11/06 A2986 390 71 100 300/10 RMK AO2 T01110061
94790KART ART20160609074511706/09/16 07:45:31  5-MIN KART 091245Z AUTO 29011KT 10SM FEW024 OVC039 11/06 A2986 390 71 100 300/11 RMK AO2 T01110061
94790KART ART20160609075012406/09/16 07:50:31  5-MIN KART 091250Z AUTO 29009KT 10SM FEW024 OVC039 11/06 A2986 390 71 100 310/09 RMK AO2 SLP111 T01110061
94790KART ART20160609075512406/09/16 07:55:31  5-MIN KART 091255Z AUTO 29011KT 10SM FEW024 OVC039 12/06 A2986 390 66 100 300/11 RMK AO2 SLP111 T01170056
94790KART ART20160609080011706/09/16 08:00:31  5-MIN KART 091300Z AUTO 29010KT 10SM FEW023 OVC039 12/06 A2986 390 66 100 300/10 RMK AO2 T01170056
94790KART ART20160609080511706/09/16 08:05:31  5-MIN KART 091305Z AUTO 29011KT 10SM FEW023 OVC040 11/05 A2986 380 66 100 310/11 RMK AO2 T01110050
94790KART ART20160609081011706/09/16 08:10:31  5-MIN KART 091310Z AUTO 29011KT 10SM FEW023 OVC040 12/05 A2986 380 63 100 310/11 RMK AO2 T01170050
94790KART ART20160609081511006/09/16 08:15:31  5-MIN KART 091315Z AUTO 28012KT 10SM OVC040 11/05 A2986 390 66 100 300/12 RMK AO2 T01110050
94790KART ART20160609082011606/09/16 08:20:31  5-MIN KART 091320Z AUTO 28014G17KT 10SM OVC040 11/05 A2986 390 66 100 300/14G17 RMK AO2 T01110050
94790KART ART20160609082511006/09/16 08:25:31  5-MIN KART 091325Z AUTO 29012KT 10SM OVC040 11/04 A2986 390 63 100 300/12 RMK AO2 T01110044
94790KART ART20160609083011006/09/16 08:30:31  5-MIN KART 091330Z AUTO 31011KT 10SM OVC040 12/05 A2986 390 63 100 320/11 RMK AO2 T01170050
94790KART ART20160609083511006/09/16 08:35:31  5-MIN KART 091335Z AUTO 31012KT 10SM BKN040 12/04 A2986 390 61 100 320/12 RMK AO2 T01170044
94790KART ART20160609084011006/09/16 08:40:31  5-MIN KART 091340Z AUTO 31012KT 10SM OVC040 12/04 A2986 390 59 200 320/12 RMK AO2 T01220044
94790KART ART20160609084511006/09/16 08:45:31  5-MIN KART 091345Z AUTO 29011KT 10SM OVC042 12/04 A2986 390 58 100 310/11 RMK AO2 T01170039
94790KART ART20160609085011706/09/16 08:50:31  5-MIN KART 091350Z AUTO 30009KT 10SM OVC042 12/04 A2986 390 61 100 320/09 RMK AO2 SLP110 T01170044
94790KART ART20160609085511706/09/16 08:55:31  5-MIN KART 091355Z AUTO 30010KT 10SM OVC042 12/05 A2986 390 61 200 320/10 RMK AO2 SLP110 T01220050
94790KART ART20160609090011006/09/16 09:00:31  5-MIN KART 091400Z AUTO 34013KT 10SM OVC042 12/05 A2986 390 61 200 350/13 RMK AO2 T01220050
94790KART ART20160609090511006/09/16 09:05:31  5-MIN KART 091405Z AUTO 32012KT 10SM OVC042 12/05 A2986 390 61 200 330/12 RMK AO2 T01220050
94790KART ART20160609091011006/09/16 09:10:31  5-MIN KART 091410Z AUTO 30010KT 10SM OVC040 12/04 A2986 390 56 200 320/10 RMK AO2 T01220039
94790KART ART20160609091511006/09/16 09:15:31  5-MIN KART 091415Z AUTO 28008KT 10SM OVC040 12/04 A2986 390 59 200 290/08 RMK AO2 T01220044
94790KART ART20160609092012606/09/16 09:20:31  5-MIN KART 091420Z AUTO 30010KT 260V330 10SM OVC038 13/04 A2986 390 56 300 310/10 270V340 RMK AO2 T01280044
94790KART ART20160609092511006/09/16 09:25:31  5-MIN KART 091425Z AUTO 30011KT 10SM OVC038 12/04 A2986 390 56 200 310/11 RMK AO2 T01220039
94790KART ART20160609093011006/09/16 09:30:31  5-MIN KART 091430Z AUTO 29010KT 10SM OVC038 12/04 A2986 390 56 200 300/10 RMK AO2 T01220039
94790KART ART20160609093511606/09/16 09:35:31  5-MIN KART 091435Z AUTO 32011G18KT 10SM OVC038 12/04 A2986 380 59 200 330/11G18 RMK AO2 T01220044
94790KART ART20160609094011606/09/16 09:40:31  5-MIN KART 091440Z AUTO 31010G18KT 10SM OVC036 12/04 A2986 380 59 200 320/10G18 RMK AO2 T01220044
94790KART ART20160609094511006/09/16 09:45:31  5-MIN KART 091445Z AUTO 33010KT 10SM OVC036 12/04 A2986 380 59 200 340/10 RMK AO2 T01220044
94790KART ART20160609095012306/09/16 09:50:31  5-MIN KART 091450Z AUTO 33011KT 10SM OVC036 12/05 A2986 380 61 200 340/11 RMK AO2 SLP112 T01220050 51011
94790KART ART20160609095512306/09/16 09:55:31  5-MIN KART 091455Z AUTO 32010KT 10SM OVC036 12/04 A2987 380 61 100 330/10 RMK AO2 SLP113 T01170044 51011
94790KART ART20160609100011006/09/16 10:00:31  5-MIN KART 091500Z AUTO 28012KT 10SM OVC034 12/05 A2987 380 63 100 290/12 RMK AO2 T01170050
94790KART ART20160609100511606/09/16 10:05:31  5-MIN KART 091505Z AUTO 29012G17KT 10SM OVC034 12/04 A2987 380 61 100 300/12G17 RMK AO2 T01170044
94790KART ART20160609101011006/09/16 10:10:31  5-MIN KART 091510Z AUTO 31011KT 10SM OVC033 12/04 A2987 380 61 100 320/11 RMK AO2 T01170044
94790KART ART20160609101511006/09/16 10:15:31  5-MIN KART 091515Z AUTO 29011KT 10SM OVC033 12/05 A2987 380 63 100 300/11 RMK AO2 T01170050
94790KART ART20160609102011006/09/16 10:20:31  5-MIN KART 091520Z AUTO 29010KT 10SM OVC033 12/04 A2987 370 59 200 310/10 RMK AO2 T01220044
94790KART ART20160609102511006/09/16 10:25:31  5-MIN KART 091525Z AUTO 30011KT 10SM OVC033 12/05 A2987 370 61 200 310/11 RMK AO2 T01220050
94790KART ART20160609103011006/09/16 10:30:31  5-MIN KART 091530Z AUTO 28011KT 10SM OVC033 12/05 A2987 370 61 200 300/11 RMK AO2 T01220050
94790KART ART20160609103511006/09/16 10:35:31  5-MIN KART 091535Z AUTO 29012KT 10SM OVC036 13/05 A2987 370 59 200 300/12 RMK AO2 T01280050
94790KART ART20160609104011606/09/16 10:40:31  5-MIN KART 091540Z AUTO 27012G17KT 10SM OVC036 12/04 A2988 370 59 200 280/12G17 RMK AO2 T01220044
94790KART ART20160609104512306/09/16 10:45:31  5-MIN KART 091545Z AUTO 28012G17KT 10SM BKN036 OVC046 13/05 A2987 370 59 200 290/12G17 RMK AO2 T01280050
94790KART ART20160609105013006/09/16 10:50:31  5-MIN KART 091550Z AUTO 29012G17KT 10SM BKN036 OVC046 13/04 A2987 370 56 200 300/12G17 RMK AO2 SLP116 T01280044
94790KART ART20160609105511706/09/16 10:55:31  5-MIN KART 091555Z AUTO 27012KT 10SM BKN037 13/05 A2987 370 57 300 290/12 RMK AO2 SLP116 T01330050
94790KART ART20160609110011706/09/16 11:00:31  5-MIN KART 091600Z AUTO 28010KT 10SM BKN037 BKN045 13/05 A2988 370 57 300 290/10 RMK AO2 T01330050
94790KART ART20160609110511706/09/16 11:05:31  5-MIN KART 091605Z AUTO 29010KT 10SM BKN037 OVC045 13/05 A2988 370 57 300 300/10 RMK AO2 T01330050
94790KART ART20160609111011706/09/16 11:10:31  5-MIN KART 091610Z AUTO 31010KT 10SM BKN039 OVC047 14/05 A2987 370 55 400 320/10 RMK AO2 T01390050
94790KART ART20160609111512306/09/16 11:15:31  5-MIN KART 091615Z AUTO 30012G17KT 10SM BKN039 BKN047 14/04 A2987 370 51 400 310/12G17 RMK AO2 T01440044
94790KART ART20160609112012306/09/16 11:20:31  5-MIN KART 091620Z AUTO 27013G17KT 10SM SCT036 BKN044 14/05 A2988 370 53 400 280/13G17 RMK AO2 T01440050
94790KART ART20160609112511706/09/16 11:25:31  5-MIN KART 091625Z AUTO 26013KT 10SM BKN041 BKN048 13/06 A2988 370 59 300 280/13 RMK AO2 T01330056
94790KART ART20160609113011706/09/16 11:30:31  5-MIN KART 091630Z AUTO 25009KT 10SM BKN041 BKN048 14/06 A2988 370 59 400 260/09 RMK AO2 T01390061
94790KART ART20160609113511606/09/16 11:35:31  5-MIN KART 091635Z AUTO 28012G17KT 10SM BKN044 14/06 A2988 370 57 400 290/12G17 RMK AO2 T01390056
94790KART ART20160609114011006/09/16 11:40:31  5-MIN KART 091640Z AUTO 26009KT 10SM SCT042 14/06 A2987 370 55 400 270/09 RMK AO2 T01440056
94790KART ART20160609114512306/09/16 11:45:31  5-MIN KART 091645Z AUTO 28013G18KT 10SM SCT042 BKN050 14/05 A2987 370 53 400 290/13G18 RMK AO2 T01440050
94790KART ART20160609115013906/09/16 11:50:31  5-MIN KART 091650Z AUTO 27010G18KT 230V300 10SM BKN047 15/05 A2987 380 51 500 280/10G18 240V310 RMK AO2 SLP114 T01500050
94790KART ART20160609115512306/09/16 11:55:31  5-MIN KART 091655Z AUTO 26013G20KT 10SM BKN047 15/05 A2987 380 51 500 280/13G20 RMK AO2 SLP113 T01500050
94790KART ART20160609120011606/09/16 12:00:31  5-MIN KART 091700Z AUTO 24011G20KT 10SM BKN047 15/04 A2987 380 49 500 260/11G20 RMK AO2 T01500044
94790KART ART20160609120512306/09/16 12:05:31  5-MIN KART 091705Z AUTO 25012G18KT 10SM BKN047 BKN055 15/05 A2987 380 51 500 260/12G18 RMK AO2 T01500050
94790KART ART20160609121011006/09/16 12:10:31  5-MIN KART 091710Z AUTO 26014KT 10SM BKN048 16/05 A2987 380 49 600 270/14 RMK AO2 T01560050
94790KART ART20160609121511606/09/16 12:15:31  5-MIN KART 091715Z AUTO 25011G19KT 10SM BKN048 15/04 A2987 380 49 500 260/11G19 RMK AO2 T01500044
94790KART ART20160609122011606/09/16 12:20:31  5-MIN KART 091720Z AUTO 26014G20KT 10SM SCT046 16/04 A2987 380 47 600 270/14G20 RMK AO2 T01560044
94790KART ART20160609122512306/09/16 12:25:31  5-MIN KART 091725Z AUTO 25013G20KT 10SM FEW046 FEW050 16/05 A2986 380 49 600 260/13G20 RMK AO2 T01560050
94790KART ART20160609123011706/09/16 12:30:31  5-MIN KART 091730Z AUTO 26013KT 10SM FEW045 FEW055 16/06 A2987 380 49 600 280/13 RMK AO2 T01610056
94790KART ART20160609123511006/09/16 12:35:31  5-MIN KART 091735Z AUTO 27014KT 10SM FEW045 16/06 A2986 380 51 600 290/14 RMK AO2 T01560056
94790KART ART20160609124011306/09/16 12:40:31  5-MIN KART 091740Z AUTO 25013G19KT 10SM CLR 16/06 A2986 390 51 600 260/13G19 RMK AO2 T01610061
94790KART ART20160609124511306/09/16 12:45:31  5-MIN KART 091745Z AUTO 27015G20KT 10SM CLR 16/05 A2986 390 47 600 280/15G20 RMK AO2 T01610050
94790KART ART20160609125013806/09/16 12:50:31  5-MIN KART 091750Z AUTO 26015G20KT 10SM CLR 16/05 A2986 390 49 600 270/15G20 RMK AO2 SLP110 T01560050 10161 20106 51004
94790KART ART20160609125513806/09/16 12:55:31  5-MIN KART 091755Z AUTO 24014G22KT 10SM CLR 16/06 A2986 390 49 700 260/14G22 RMK AO2 SLP109 T01610056 10161 20106 51004
94790KART ART20160609130011606/09/16 13:00:31  5-MIN KART 091800Z AUTO 24012G23KT 10SM FEW055 16/06 A2986 390 51 600 260/12G23 RMK AO2 T01560056
94790KART ART20160609130511606/09/16 13:05:31  5-MIN KART 091805Z AUTO 24014G23KT 10SM FEW055 16/06 A2986 390 51 600 250/14G23 RMK AO2 T01560056
94790KART ART20160609131011606/09/16 13:10:31  5-MIN KART 091810Z AUTO 23015G22KT 10SM FEW050 16/06 A2986 390 53 600 240/15G22 RMK AO2 T01560061
94790KART ART20160609131511606/09/16 13:15:31  5-MIN KART 091815Z AUTO 23015G21KT 10SM SCT055 16/06 A2986 390 51 600 240/15G21 RMK AO2 T01560056
94790KART ART20160609132011606/09/16 13:20:31  5-MIN KART 091820Z AUTO 24013G21KT 10SM FEW055 16/06 A2986 390 51 600 250/13G21 RMK AO2 T01610061
94790KART ART20160609132511606/09/16 13:25:31  5-MIN KART 091825Z AUTO 25011G19KT 10SM FEW055 16/05 A2986 390 49 600 260/11G19 RMK AO2 T01560050
94790KART ART20160609133011006/09/16 13:30:31  5-MIN KART 091830Z AUTO 24012KT 10SM FEW050 16/05 A2986 390 49 600 260/12 RMK AO2 T01560050
94790KART ART20160609133511606/09/16 13:35:31  5-MIN KART 091835Z AUTO 24014G20KT 10SM FEW050 16/05 A2986 390 47 600 260/14G20 RMK AO2 T01610050
94790KART ART20160609134011606/09/16 13:40:31  5-MIN KART 091840Z AUTO 23015G21KT 10SM FEW060 16/05 A2986 390 47 600 240/15G21 RMK AO2 T01610050
94790KART ART20160609134511306/09/16 13:45:31  5-MIN KART 091845Z AUTO 23012G21KT 10SM CLR 16/05 A2986 390 47 600 250/12G21 RMK AO2 T01610050
94790KART ART20160609135012006/09/16 13:50:31  5-MIN KART 091850Z AUTO 24011G21KT 10SM CLR 17/05 A2986 390 45 700 250/11G21 RMK AO2 SLP110 T01670050
94790KART ART20160609135512006/09/16 13:55:31  5-MIN KART 091855Z AUTO 22016G21KT 10SM CLR 16/04 A2986 390 44 600 230/16G21 RMK AO2 SLP110 T01610039
94790KART ART20160609140011306/09/16 14:00:31  5-MIN KART 091900Z AUTO 24015G21KT 10SM CLR 16/05 A2986 390 47 600 260/15G21 RMK AO2 T01610050
94790KART ART20160609140511306/09/16 14:05:31  5-MIN KART 091905Z AUTO 24012G21KT 10SM CLR 16/05 A2986 390 47 600 250/12G21 RMK AO2 T01610050
94790KART ART20160609141011306/09/16 14:10:31  5-MIN KART 091910Z AUTO 24013G21KT 10SM CLR 16/07 A2986 380 53 600 250/13G21 RMK AO2 T01610067
94790KART ART20160609141511306/09/16 14:15:31  5-MIN KART 091915Z AUTO 22013G19KT 10SM CLR 16/07 A2986 380 55 600 240/13G19 RMK AO2 T01560067
94790KART ART20160609142011306/09/16 14:20:31  5-MIN KART 091920Z AUTO 23014G21KT 10SM CLR 16/07 A2986 380 57 600 250/14G21 RMK AO2 T01560072
94790KART ART20160609142511606/09/16 14:25:31  5-MIN KART 091925Z AUTO 24013G21KT 10SM FEW070 16/07 A2987 380 57 600 250/13G21 RMK AO2 T01560072
94790KART ART20160609143011006/09/16 14:30:31  5-MIN KART 091930Z AUTO 25013KT 10SM FEW070 16/07 A2986 380 57 600 260/13 RMK AO2 T01560072
94790KART ART20160609143511606/09/16 14:35:31  5-MIN KART 091935Z AUTO 24014G20KT 10SM FEW070 16/08 A2986 380 59 600 250/14G20 RMK AO2 T01560078
94790KART ART20160609144011606/09/16 14:40:31  5-MIN KART 091940Z AUTO 25014G19KT 10SM FEW070 16/08 A2986 380 59 600 260/14G19 RMK AO2 T01560078
94790KART ART20160609144511606/09/16 14:45:31  5-MIN KART 091945Z AUTO 24013G21KT 10SM FEW070 16/08 A2986 380 59 600 250/13G21 RMK AO2 T01560078
94790KART ART20160609145012306/09/16 14:50:31  5-MIN KART 091950Z AUTO 24013G21KT 10SM FEW070 16/08 A2986 380 57 600 250/13G21 RMK AO2 SLP112 T01610078
94790KART ART20160609145511406/09/16 14:55:31  5-MIN KART 091955Z AUTO 23013KT 10SM CLR 16/08 A2986 380 59 600 250/13 RMK AO2 SLP112 T01610083
94790KART ART20160609150011306/09/16 15:00:31  5-MIN KART 092000Z AUTO 24015G20KT 10SM CLR 16/08 A2986 380 59 600 250/15G20 RMK AO2 T01560078
94790KART ART20160609150511306/09/16 15:05:31  5-MIN KART 092005Z AUTO 24016G22KT 10SM CLR 16/08 A2986 390 59 600 260/16G22 RMK AO2 T01560078
94790KART ART20160609151011306/09/16 15:10:31  5-MIN KART 092010Z AUTO 25013G22KT 10SM CLR 16/08 A2986 390 59 600 260/13G22 RMK AO2 T01560078
94790KART ART20160609151511306/09/16 15:15:31  5-MIN KART 092015Z AUTO 25015G21KT 10SM CLR 16/08 A2986 390 59 600 270/15G21 RMK AO2 T01560078
94790KART ART20160609152011306/09/16 15:20:31  5-MIN KART 092020Z AUTO 24013G21KT 10SM CLR 16/08 A2986 390 62 600 250/13G21 RMK AO2 T01560083
94790KART ART20160609152511306/09/16 15:25:31  5-MIN KART 092025Z AUTO 24014G21KT 10SM CLR 16/08 A2986 390 62 600 250/14G21 RMK AO2 T01560083
94790KART ART20160609153011306/09/16 15:30:31  5-MIN KART 092030Z AUTO 25012G22KT 10SM CLR 16/08 A2986 390 62 600 260/12G22 RMK AO2 T01560083
94790KART ART20160609153511306/09/16 15:35:31  5-MIN KART 092035Z AUTO 23015G22KT 10SM CLR 16/08 A2986 390 62 600 250/15G22 RMK AO2 T01560083
94790KART ART20160609154011306/09/16 15:40:31  5-MIN KART 092040Z AUTO 23013G21KT 10SM CLR 16/08 A2985 390 62 600 240/13G21 RMK AO2 T01560083
94790KART ART20160609154511306/09/16 15:45:31  5-MIN KART 092045Z AUTO 25013G21KT 10SM CLR 16/08 A2986 390 59 600 260/13G21 RMK AO2 T01560078
94790KART ART20160609155012606/09/16 15:50:31  5-MIN KART 092050Z AUTO 23011G21KT 10SM CLR 16/08 A2985 390 62 600 240/11G21 RMK AO2 SLP109 T01560083 58003
94790KART ART20160609155512606/09/16 15:55:31  5-MIN KART 092055Z AUTO 23013G18KT 10SM CLR 16/08 A2985 390 59 700 250/13G18 RMK AO2 SLP109 T01610083 58003
94790KART ART20160609160011306/09/16 16:00:31  5-MIN KART 092100Z AUTO 24014G20KT 10SM CLR 16/08 A2985 390 59 700 250/14G20 RMK AO2 T01610083
94790KART ART20160609160511306/09/16 16:05:31  5-MIN KART 092105Z AUTO 25013G20KT 10SM CLR 16/08 A2985 390 59 700 260/13G20 RMK AO2 T01610083
94790KART ART20160609161011306/09/16 16:10:31  5-MIN KART 092110Z AUTO 24011G19KT 10SM CLR 16/08 A2985 390 59 700 260/11G19 RMK AO2 T01610083
94790KART ART20160609161511306/09/16 16:15:31  5-MIN KART 092115Z AUTO 24011G18KT 10SM CLR 16/08 A2985 390 59 700 260/11G18 RMK AO2 T01610083
94790KART ART20160609162011306/09/16 16:20:31  5-MIN KART 092120Z AUTO 24012G19KT 10SM CLR 16/08 A2985 390 59 700 260/12G19 RMK AO2 T01610083
94790KART ART20160609162511306/09/16 16:25:31  5-MIN KART 092125Z AUTO 24011G19KT 10SM CLR 16/08 A2985 390 59 700 250/11G19 RMK AO2 T01610083
94790KART ART20160609163011606/09/16 16:30:31  5-MIN KART 092130Z AUTO 24012G19KT 10SM FEW080 16/08 A2985 400 59 700 250/12G19 RMK AO2 T01610083
94790KART ART20160609163511606/09/16 16:35:31  5-MIN KART 092135Z AUTO 24011G20KT 10SM FEW080 16/08 A2985 400 62 600 260/11G20 RMK AO2 T01560083
94790KART ART20160609164011606/09/16 16:40:31  5-MIN KART 092140Z AUTO 24013G20KT 10SM FEW080 16/08 A2985 400 59 700 250/13G20 RMK AO2 T01610083
94790KART ART20160609164511606/09/16 16:45:31  5-MIN KART 092145Z AUTO 24012G20KT 10SM FEW080 16/08 A2985 400 59 700 250/12G20 RMK AO2 T01610083
94790KART ART20160609165012306/09/16 16:50:31  5-MIN KART 092150Z AUTO 24011G20KT 10SM FEW080 16/08 A2985 400 62 600 250/11G20 RMK AO2 SLP106 T01560083
94790KART ART20160609165512306/09/16 16:55:31  5-MIN KART 092155Z AUTO 24013G19KT 10SM FEW080 16/08 A2985 400 57 700 260/13G19 RMK AO2 SLP106 T01610078
94790KART ART20160609170011606/09/16 17:00:31  5-MIN KART 092200Z AUTO 24011G19KT 10SM SCT080 16/08 A2985 400 57 700 260/11G19 RMK AO2 T01610078
94790KART ART20160609170511006/09/16 17:05:31  5-MIN KART 092205Z AUTO 24010KT 10SM SCT080 16/08 A2985 400 57 700 260/10 RMK AO2 T01610078
94790KART ART20160609171011606/09/16 17:10:31  5-MIN KART 092210Z AUTO 25008G18KT 10SM SCT080 16/08 A2985 400 57 700 260/08G18 RMK AO2 T01610078
94790KART ART20160609171511606/09/16 17:15:31  5-MIN KART 092215Z AUTO 24009G18KT 10SM FEW080 16/08 A2985 400 57 700 260/09G18 RMK AO2 T01610078
94790KART ART20160609172011606/09/16 17:20:31  5-MIN KART 092220Z AUTO 24010G17KT 10SM FEW080 16/08 A2985 400 57 700 250/10G17 RMK AO2 T01610078
94790KART ART20160609172511606/09/16 17:25:31  5-MIN KART 092225Z AUTO 24010G17KT 10SM FEW080 16/07 A2985 400 57 600 260/10G17 RMK AO2 T01560072
94790KART ART20160609173011006/09/16 17:30:31  5-MIN KART 092230Z AUTO 25008KT 10SM FEW080 16/08 A2985 400 59 600 260/08 RMK AO2 T01560078
94790KART ART20160609173511006/09/16 17:35:31  5-MIN KART 092235Z AUTO 25009KT 10SM FEW085 16/08 A2985 400 57 700 260/09 RMK AO2 T01610078
94790KART ART20160609174011006/09/16 17:40:31  5-MIN KART 092240Z AUTO 24009KT 10SM SCT085 16/08 A2985 400 59 600 260/09 RMK AO2 T01560078
94790KART ART20160609174511006/09/16 17:45:31  5-MIN KART 092245Z AUTO 25009KT 10SM SCT085 16/08 A2985 400 57 700 260/09 RMK AO2 T01610078
94790KART ART20160609175011706/09/16 17:50:31  5-MIN KART 092250Z AUTO 25007KT 10SM SCT085 16/08 A2985 400 57 700 260/07 RMK AO2 SLP107 T01610078
94790KART ART20160609175511706/09/16 17:55:31  5-MIN KART 092255Z AUTO 24007KT 10SM BKN085 16/08 A2985 400 59 600 260/07 RMK AO2 SLP107 T01560078
94790KART ART20160609180011606/09/16 18:00:31  5-MIN KART 092300Z AUTO 24005G15KT 10SM SCT090 15/08 A2985 400 62 500 250/05G15 RMK AO2 T01500078
94790KART ART20160609180511006/09/16 18:05:31  5-MIN KART 092305Z AUTO 24005KT 10SM SCT085 16/08 A2985 400 62 600 250/05 RMK AO2 T01560083
94790KART ART20160609181011006/09/16 18:10:31  5-MIN KART 092310Z AUTO 25008KT 10SM FEW090 16/08 A2985 400 57 700 260/08 RMK AO2 T01610078
94790KART ART20160609181511006/09/16 18:15:31  5-MIN KART 092315Z AUTO 26009KT 10SM SCT090 16/08 A2985 390 59 600 270/09 RMK AO2 T01560078
94790KART ART20160609182011006/09/16 18:20:31  5-MIN KART 092320Z AUTO 25006KT 10SM SCT085 16/08 A2985 390 59 600 260/06 RMK AO2 T01560078
94790KART ART20160609182511006/09/16 18:25:31  5-MIN KART 092325Z AUTO 24008KT 10SM SCT085 16/08 A2985 390 59 600 250/08 RMK AO2 T01560078
94790KART ART20160609183011006/09/16 18:30:31  5-MIN KART 092330Z AUTO 24007KT 10SM SCT085 15/08 A2985 390 62 500 250/07 RMK AO2 T01500078
94790KART ART20160609183511006/09/16 18:35:31  5-MIN KART 092335Z AUTO 24007KT 10SM SCT085 15/08 A2985 390 64 500 250/07 RMK AO2 T01500083
94790KART ART20160609184011006/09/16 18:40:31  5-MIN KART 092340Z AUTO 24006KT 10SM SCT085 15/08 A2985 390 64 500 250/06 RMK AO2 T01500083
94790KART ART20160609184511006/09/16 18:45:31  5-MIN KART 092345Z AUTO 24005KT 10SM BKN085 15/09 A2986 390 66 500 250/05 RMK AO2 T01500089
94790KART ART20160609185013506/09/16 18:50:31  5-MIN KART 092350Z AUTO 24006KT 10SM BKN085 15/09 A2985 390 66 500 250/06 RMK AO2 SLP109 T01500089 10167 20150 58000
94790KART ART20160609185513506/09/16 18:55:31  5-MIN KART 092355Z AUTO 24006KT 10SM BKN085 15/09 A2986 390 66 500 250/06 RMK AO2 SLP109 T01500089 10167 20150 58000
94790KART ART20160609190011006/09/16 19:00:31  5-MIN KART 100000Z AUTO 23006KT 10SM BKN085 15/09 A2986 390 66 500 250/06 RMK AO2 T01500089
94790KART ART20160609190511006/09/16 19:05:31  5-MIN KART 100005Z AUTO 23005KT 10SM BKN085 14/09 A2986 390 69 500 240/05 RMK AO2 T01440089
94790KART ART20160609191011006/09/16 19:10:31  5-MIN KART 100010Z AUTO 23005KT 10SM BKN085 14/09 A2986 390 69 500 250/05 RMK AO2 T01440089
94790KART ART20160609191511006/09/16 19:15:31  5-MIN KART 100015Z AUTO 24005KT 10SM SCT085 14/09 A2986 390 74 400 250/05 RMK AO2 T01390094
94790KART ART20160609192011006/09/16 19:20:31  5-MIN KART 100020Z AUTO 23005KT 10SM FEW085 13/09 A2986 390 77 300 240/05 RMK AO2 T01330094
94790KART ART20160609192511006/09/16 19:25:31  5-MIN KART 100025Z AUTO 22005KT 10SM FEW085 13/09 A2986 390 74 300 240/05 RMK AO2 T01330089
94790KART ART20160609193011006/09/16 19:30:31  5-MIN KART 100030Z AUTO 23003KT 10SM FEW085 13/09 A2986 380 74 300 240/03 RMK AO2 T01330089
94790KART ART20160609193511006/09/16 19:35:31  5-MIN KART 100035Z AUTO 23003KT 10SM FEW085 13/09 A2986 380 74 300 240/03 RMK AO2 T01330089
94790KART ART20160609194011006/09/16 19:40:31  5-MIN KART 100040Z AUTO 22003KT 10SM FEW080 13/09 A2986 380 77 200 230/03 RMK AO2 T01280089
94790KART ART20160609194511006/09/16 19:45:31  5-MIN KART 100045Z AUTO 21004KT 10SM FEW080 12/09 A2986 380 83 100 230/04 RMK AO2 T01170089
94790KART ART20160609195011706/09/16 19:50:31  5-MIN KART 100050Z AUTO 21003KT 10SM FEW080 12/09 A2986 380 80 200 220/03 RMK AO2 SLP112 T01220089
94790KART ART20160609195511706/09/16 19:55:31  5-MIN KART 100055Z AUTO 21003KT 10SM FEW080 12/09 A2986 380 83 100 220/03 RMK AO2 SLP112 T01170089
94790KART ART20160609200011006/09/16 20:00:31  5-MIN KART 100100Z AUTO 00000KT 10SM FEW080 12/09 A2987 380 83 100 000/00 RMK AO2 T01170089
94790KART ART20160609200510506/09/16 20:05:31  5-MIN KART 100105Z AUTO 00000KT 10SM CLR 11/08 A2987 380 86 0 000/00 RMK AO2 T01060083
94790KART ART20160609201010806/09/16 20:10:31  5-MIN KART 100110Z AUTO 00000KT 10SM FEW085 11/08 A2987 380 86 0 000/00 RMK AO2 T01060083
94790KART ART20160609201510806/09/16 20:15:31  5-MIN KART 100115Z AUTO 20003KT 10SM SCT085 10/08 A2987 380 89 0 220/03 RMK AO2 T01000083
94790KART ART20160609202010806/09/16 20:20:31  5-MIN KART 100120Z AUTO 21003KT 10SM BKN085 10/08 A2987 370 89 0 220/03 RMK AO2 T01000083
94790KART ART20160609202510806/09/16 20:25:31  5-MIN KART 100125Z AUTO 23003KT 10SM BKN085 11/08 A2987 370 86 0 240/03 RMK AO2 T01060083
94790KART ART20160609203010806/09/16 20:30:31  5-MIN KART 100130Z AUTO 00000KT 10SM BKN085 11/08 A2988 370 83 0 000/00 RMK AO2 T01060078
94790KART ART20160609203511106/09/16 20:35:31  5-MIN KART 100135Z AUTO 00000KT 10SM OVC085 10/08 A2988 370 86 -100 000/00 RMK AO2 T01000078
94790KART ART20160609204011106/09/16 20:40:31  5-MIN KART 100140Z AUTO 00000KT 10SM OVC085 10/08 A2988 360 86 -100 000/00 RMK AO2 T01000078
94790KART ART20160609204511106/09/16 20:45:31  5-MIN KART 100145Z AUTO 00000KT 10SM OVC085 10/08 A2989 360 86 -100 000/00 RMK AO2 T01000078
94790KART ART20160609205011806/09/16 20:50:31  5-MIN KART 100150Z AUTO 00000KT 10SM BKN085 09/08 A2989 360 89 -100 000/00 RMK AO2 SLP121 T00940078
94790KART ART20160609205511806/09/16 20:55:31  5-MIN KART 100155Z AUTO 00000KT 10SM BKN085 09/07 A2989 360 89 -200 000/00 RMK AO2 SLP122 T00890072
94790KART ART20160609210011106/09/16 21:00:31  5-MIN KART 100200Z AUTO 00000KT 10SM SCT085 09/07 A2989 360 89 -200 000/00 RMK AO2 T00890072
94790KART ART20160609210511106/09/16 21:05:31  5-MIN KART 100205Z AUTO 07003KT 10SM SCT085 08/07 A2989 350 89 -300 080/03 RMK AO2 T00830067
94790KART ART20160609211011106/09/16 21:10:31  5-MIN KART 100210Z AUTO 06003KT 10SM FEW080 08/07 A2990 350 89 -300 080/03 RMK AO2 T00830067
94790KART ART20160609211511106/09/16 21:15:31  5-MIN KART 100215Z AUTO 06003KT 10SM FEW080 08/07 A2990 350 89 -300 080/03 RMK AO2 T00830067
94790KART ART20160609212010806/09/16 21:20:31  5-MIN KART 100220Z AUTO 00000KT 10SM CLR 08/07 A2990 350 93 -300 000/00 RMK AO2 T00830072
94790KART ART20160609212510806/09/16 21:25:31  5-MIN KART 100225Z AUTO 00000KT 10SM CLR 08/07 A2991 340 96 -400 000/00 RMK AO2 T00780072
94790KART ART20160609213009806/09/16 21:30:31  5-MIN KART 100230Z AUTO 10SM CLR 09/06 A2991 340 79 -200 M /M RMK AO2 T00940061
94790KART ART20160609213510706/09/16 21:35:31  5-MIN KART 100235Z AUTO 00000KT 10SM CLR 12/04 A2991 340 61 100 000/00 RMK AO2 T01170044
94790KART ART20160609214010806/09/16 21:40:31  5-MIN KART 100240Z AUTO 00000KT 10SM CLR 09/06 A2991 340 79 -200 000/00 RMK AO2 T00890056
94790KART ART20160609214510806/09/16 21:45:31  5-MIN KART 100245Z AUTO 00000KT 10SM CLR 08/06 A2991 340 86 -300 000/00 RMK AO2 T00830061
94790KART ART20160609215012106/09/16 21:50:31  5-MIN KART 100250Z AUTO 00000KT 10SM CLR 07/06 A2991 340 93 -500 000/00 RMK AO2 SLP130 T00670056 53001
94790KART ART20160609215512106/09/16 21:55:31  5-MIN KART 100255Z AUTO 00000KT 10SM CLR 07/06 A2991 340 89 -400 000/00 RMK AO2 SLP131 T00720056 53001
94790KART ART20160609220010806/09/16 22:00:31  5-MIN KART 100300Z AUTO 00000KT 10SM CLR 07/06 A2992 340 89 -400 000/00 RMK AO2 T00720056
94790KART ART20160609220510806/09/16 22:05:31  5-MIN KART 100305Z AUTO 00000KT 10SM CLR 07/06 A2992 330 96 -500 000/00 RMK AO2 T00670061
94790KART ART20160609221010806/09/16 22:10:31  5-MIN KART 100310Z AUTO 00000KT 10SM CLR 07/06 A2992 330 93 -500 000/00 RMK AO2 T00670056
94790KART ART20160609221510806/09/16 22:15:31  5-MIN KART 100315Z AUTO 00000KT 10SM CLR 07/06 A2992 330 93 -500 000/00 RMK AO2 T00670056
94790KART ART20160609222010806/09/16 22:20:31  5-MIN KART 100320Z AUTO 00000KT 10SM CLR 06/06 A2992 330 96 -600 000/00 RMK AO2 T00610056
94790KART ART20160609222510806/09/16 22:25:31  5-MIN KART 100325Z AUTO 00000KT 10SM CLR 06/05 A2992 330 93 -600 000/00 RMK AO2 T00610050
94790KART ART20160609223010806/09/16 22:30:31  5-MIN KART 100330Z AUTO 00000KT 10SM CLR 06/04 A2992 330 89 -600 000/00 RMK AO2 T00610044
94790KART ART20160609223510806/09/16 22:35:31  5-MIN KART 100335Z AUTO 00000KT 10SM CLR 06/04 A2992 330 92 -600 000/00 RMK AO2 T00560044
94790KART ART20160609224010806/09/16 22:40:31  5-MIN KART 100340Z AUTO 00000KT 10SM CLR 06/04 A2992 330 92 -600 000/00 RMK AO2 T00560044
94790KART ART20160609224510806/09/16 22:45:31  5-MIN KART 100345Z AUTO 00000KT 10SM CLR 06/04 A2992 330 92 -600 000/00 RMK AO2 T00560044
94790KART ART20160609225011506/09/16 22:50:31  5-MIN KART 100350Z AUTO 00000KT 10SM CLR 06/04 A2992 330 92 -600 000/00 RMK AO2 SLP135 T00560044
94790KART ART20160609225511506/09/16 22:55:31  5-MIN KART 100355Z AUTO 00000KT 10SM CLR 06/04 A2993 330 92 -600 000/00 RMK AO2 SLP135 T00560044
94790KART ART20160609230010806/09/16 23:00:31  5-MIN KART 100400Z AUTO 00000KT 10SM CLR 06/04 A2993 330 92 -600 000/00 RMK AO2 T00560044
94790KART ART20160609230510806/09/16 23:05:31  5-MIN KART 100405Z AUTO 00000KT 10SM CLR 06/04 A2993 320 92 -600 000/00 RMK AO2 T00560044
94790KART ART20160609231010806/09/16 23:10:31  5-MIN KART 100410Z AUTO 00000KT 10SM CLR 05/04 A2993 320 92 -700 000/00 RMK AO2 T00500039
94790KART ART20160609231510806/09/16 23:15:31  5-MIN KART 100415Z AUTO 00000KT 10SM CLR 05/04 A2993 320 92 -700 000/00 RMK AO2 T00500039
94790KART ART20160609232010806/09/16 23:20:31  5-MIN KART 100420Z AUTO 00000KT 10SM CLR 05/04 A2993 320 92 -700 000/00 RMK AO2 T00500039
94790KART ART20160609232510806/09/16 23:25:31  5-MIN KART 100425Z AUTO 00000KT 10SM CLR 05/04 A2993 320 92 -700 000/00 RMK AO2 T00500039
94790KART ART20160609233010806/09/16 23:30:31  5-MIN KART 100430Z AUTO 00000KT 10SM CLR 05/04 A2993 320 92 -700 000/00 RMK AO2 T00500039
94790KART ART20160609233510806/09/16 23:35:31  5-MIN KART 100435Z AUTO 00000KT 10SM CLR 05/04 A2993 320 92 -700 000/00 RMK AO2 T00500039
94790KART ART20160609234010806/09/16 23:40:31  5-MIN KART 100440Z AUTO 00000KT 10SM CLR 04/03 A2994 320 92 -800 000/00 RMK AO2 T00440033
94790KART ART20160609234510806/09/16 23:45:31  5-MIN KART 100445Z AUTO 00000KT 10SM CLR 04/03 A2994 310 92 -800 000/00 RMK AO2 T00440033
94790KART ART20160609235012506/09/16 23:50:31  5-MIN KART 100450Z AUTO 00000KT 10SM CLR 05/03 A2994 310 89 -700 000/00 RMK AO2 SLP138 T00500033 401670044
94790KART ART20160609235512506/09/16 23:55:31  5-MIN KART 100455Z AUTO 00000KT 10SM CLR 04/03 A2994 310 92 -800 000/00 RMK AO2 SLP139 T00440033 401670044
94790KART ART20160610000010806/10/16 00:00:31  5-MIN KART 100500Z AUTO 00000KT 10SM CLR 04/03 A2994 310 92 -800 000/00 RMK AO2 T00440033
94790KART ART20160610000510806/10/16 00:05:31  5-MIN KART 100505Z AUTO 00000KT 10SM CLR 04/03 A2994 310 92 -800 000/00 RMK AO2 T00440033
94790KART ART20160610001010806/10/16 00:10:31  5-MIN KART 100510Z AUTO 00000KT 10SM CLR 04/03 A2994 310 92 -800 000/00 RMK AO2 T00440033
94790KART ART20160610001510806/10/16 00:15:31  5-MIN KART 100515Z AUTO 00000KT 10SM CLR 04/03 A2994 310 92 -800 000/00 RMK AO2 T00440033
94790KART ART20160610002011106/10/16 00:20:31  5-MIN KART 100520Z AUTO 00000KT 10SM FEW090 05/03 A2994 310 89 -700 000/00 RMK AO2 T00500033
94790KART ART20160610002511106/10/16 00:25:31  5-MIN KART 100525Z AUTO 00000KT 10SM SCT090 04/03 A2994 310 92 -800 000/00 RMK AO2 T00440033
94790KART ART20160610003011106/10/16 00:30:31  5-MIN KART 100530Z AUTO 00000KT 10SM SCT090 05/03 A2995 310 89 -700 000/00 RMK AO2 T00500033
94790KART ART20160610003511106/10/16 00:35:31  5-MIN KART 100535Z AUTO 00000KT 10SM SCT090 04/03 A2995 310 89 -800 000/00 RMK AO2 T00440028
94790KART ART20160610004011106/10/16 00:40:31  5-MIN KART 100540Z AUTO 00000KT 10SM SCT090 04/03 A2995 300 92 -800 000/00 RMK AO2 T00440033
94790KART ART20160610004511106/10/16 00:45:31  5-MIN KART 100545Z AUTO 00000KT 10SM FEW090 04/03 A2995 300 89 -800 000/00 RMK AO2 T00440028
94790KART ART20160610005013606/10/16 00:50:31  5-MIN KART 100550Z AUTO 00000KT 10SM FEW090 04/03 A2995 300 92 -800 000/00 RMK AO2 SLP144 T00440033 10150 20044 53019
94790KART ART20160610005513606/10/16 00:55:31  5-MIN KART 100555Z AUTO 00000KT 10SM SCT095 04/03 A2996 300 92 -800 000/00 RMK AO2 SLP145 T00440033 10150 20044 53019
94790KART ART20160610010011106/10/16 01:00:31  5-MIN KART 100600Z AUTO 00000KT 10SM SCT095 04/03 A2996 290 92 -800 000/00 RMK AO2 T00440033
94790KART ART20160610010511106/10/16 01:05:31  5-MIN KART 100605Z AUTO 00000KT 10SM SCT095 04/03 A2996 290 92 -800 000/00 RMK AO2 T00440033
94790KART ART20160610011011106/10/16 01:10:31  5-MIN KART 100610Z AUTO 00000KT 10SM FEW095 04/03 A2996 290 92 -800 000/00 RMK AO2 T00440033
94790KART ART20160610011511106/10/16 01:15:31  5-MIN KART 100615Z AUTO 00000KT 10SM SCT090 04/03 A2996 290 96 -900 000/00 RMK AO2 T00390033
94790KART ART20160610012011106/10/16 01:20:31  5-MIN KART 100620Z AUTO 00000KT 10SM SCT090 04/03 A2997 290 92 -900 000/00 RMK AO2 T00390028
94790KART ART20160610012511106/10/16 01:25:31  5-MIN KART 100625Z AUTO 00000KT 10SM FEW090 04/03 A2997 290 92 -800 000/00 RMK AO2 T00440033
94790KART ART20160610013011106/10/16 01:30:31  5-MIN KART 100630Z AUTO 00000KT 10SM FEW085 04/03 A2997 290 92 -800 000/00 RMK AO2 T00440033
94790KART ART20160610013511106/10/16 01:35:31  5-MIN KART 100635Z AUTO 00000KT 10SM FEW085 04/03 A2997 290 92 -800 000/00 RMK AO2 T00440033
94790KART ART20160610014011106/10/16 01:40:31  5-MIN KART 100640Z AUTO 00000KT 10SM FEW085 04/03 A2997 290 92 -800 000/00 RMK AO2 T00440033
94790KART ART20160610014510806/10/16 01:45:31  5-MIN KART 100645Z AUTO 00000KT 10SM CLR 04/03 A2997 290 92 -800 000/00 RMK AO2 T00440033
94790KART ART20160610015011506/10/16 01:50:31  5-MIN KART 100650Z AUTO 00000KT 10SM CLR 04/03 A2997 280 92 -800 000/00 RMK AO2 SLP150 T00440033
94790KART ART20160610015511506/10/16 01:55:31  5-MIN KART 100655Z AUTO 00000KT 10SM CLR 04/03 A2997 280 89 -800 000/00 RMK AO2 SLP150 T00440028
94790KART ART20160610020010806/10/16 02:00:31  5-MIN KART 100700Z AUTO 00000KT 10SM CLR 04/03 A2998 280 92 -900 000/00 RMK AO2 T00390028
94790KART ART20160610020510806/10/16 02:05:31  5-MIN KART 100705Z AUTO 00000KT 10SM CLR 04/03 A2998 280 92 -900 000/00 RMK AO2 T00390028
94790KART ART20160610021010806/10/16 02:10:31  5-MIN KART 100710Z AUTO 00000KT 10SM CLR 04/03 A2998 280 92 -900 000/00 RMK AO2 T00390028
94790KART ART20160610021510906/10/16 02:15:31  5-MIN KART 100715Z AUTO 00000KT 10SM CLR 03/03 A2998 280 96 -1000 000/00 RMK AO2 T00330028
94790KART ART20160610022010906/10/16 02:20:31  5-MIN KART 100720Z AUTO 00000KT 10SM CLR 03/03 A2998 280 96 -1000 000/00 RMK AO2 T00330028
94790KART ART20160610022510906/10/16 02:25:31  5-MIN KART 100725Z AUTO 00000KT 10SM CLR 03/03 A2998 280 96 -1000 000/00 RMK AO2 T00330028
94790KART ART20160610023010906/10/16 02:30:31  5-MIN KART 100730Z AUTO 00000KT 10SM CLR 03/02 A2998 280 92 -1000 000/00 RMK AO2 T00330022
94790KART ART20160610023510906/10/16 02:35:31  5-MIN KART 100735Z AUTO 00000KT 10SM CLR 03/02 A2998 270 92 -1000 000/00 RMK AO2 T00330022
94790KART ART20160610024010906/10/16 02:40:31  5-MIN KART 100740Z AUTO 00000KT 10SM CLR 03/02 A2998 280 92 -1000 000/00 RMK AO2 T00330022
94790KART ART20160610024510906/10/16 02:45:31  5-MIN KART 100745Z AUTO 00000KT 10SM CLR 03/02 A2998 270 92 -1000 000/00 RMK AO2 T00330022
94790KART ART20160610025011606/10/16 02:50:31  5-MIN KART 100750Z AUTO 00000KT 10SM CLR 03/02 A2998 270 92 -1000 000/00 RMK AO2 SLP153 T00330022
94790KART ART20160610025511606/10/16 02:55:31  5-MIN KART 100755Z AUTO 00000KT 10SM CLR 03/02 A2998 270 92 -1100 000/00 RMK AO2 SLP154 T00280017
94790KART ART20160610030010906/10/16 03:00:31  5-MIN KART 100800Z AUTO 08003KT 10SM CLR 03/02 A2998 270 92 -1100 090/03 RMK AO2 T00280017
94790KART ART20160610030510906/10/16 03:05:31  5-MIN KART 100805Z AUTO 08003KT 10SM CLR 03/02 A2998 270 92 -1100 090/03 RMK AO2 T00280017
94790KART ART20160610031010906/10/16 03:10:31  5-MIN KART 100810Z AUTO 00000KT 10SM CLR 03/02 A2998 270 96 -1100 000/00 RMK AO2 T00280022
94790KART ART20160610031510906/10/16 03:15:31  5-MIN KART 100815Z AUTO 00000KT 10SM CLR 03/02 A2999 270 92 -1000 000/00 RMK AO2 T00330022
94790KART ART20160610032010906/10/16 03:20:31  5-MIN KART 100820Z AUTO 00000KT 10SM CLR 03/02 A2999 270 92 -1000 000/00 RMK AO2 T00330022
94790KART ART20160610032510906/10/16 03:25:31  5-MIN KART 100825Z AUTO 00000KT 10SM CLR 03/02 A2999 260 92 -1000 000/00 RMK AO2 T00330022
94790KART ART20160610033010906/10/16 03:30:31  5-MIN KART 100830Z AUTO 00000KT 10SM CLR 03/02 A3000 260 92 -1000 000/00 RMK AO2 T00330022
94790KART ART20160610033510906/10/16 03:35:31  5-MIN KART 100835Z AUTO 00000KT 10SM CLR 03/02 A3000 260 92 -1000 000/00 RMK AO2 T00330022
94790KART ART20160610034010906/10/16 03:40:31  5-MIN KART 100840Z AUTO 00000KT 10SM CLR 03/02 A3000 260 96 -1100 000/00 RMK AO2 T00280022
94790KART ART20160610034510906/10/16 03:45:31  5-MIN KART 100845Z AUTO 00000KT 10SM CLR 03/02 A2999 260 96 -1100 000/00 RMK AO2 T00280022
94790KART ART20160610035012206/10/16 03:50:31  5-MIN KART 100850Z AUTO 00000KT 10SM CLR 03/02 A3000 260 96 -1100 000/00 RMK AO2 SLP159 T00280022 53015
94790KART ART20160610035512206/10/16 03:55:31  5-MIN KART 100855Z AUTO 00000KT 10SM CLR 03/02 A3000 260 92 -1000 000/00 RMK AO2 SLP158 T00330022 53015
94790KART ART20160610040010906/10/16 04:00:31  5-MIN KART 100900Z AUTO 00000KT 10SM CLR 03/02 A3000 260 96 -1100 000/00 RMK AO2 T00280022
94790KART ART20160610040510906/10/16 04:05:31  5-MIN KART 100905Z AUTO 00000KT 10SM CLR 03/02 A3000 260 92 -1000 000/00 RMK AO2 T00330022
94790KART ART20160610041010906/10/16 04:10:31  5-MIN KART 100910Z AUTO 00000KT 10SM CLR 03/03 A3000 260 96 -1000 000/00 RMK AO2 T00330028
94790KART ART20160610041510906/10/16 04:15:31  5-MIN KART 100915Z AUTO 00000KT 10SM CLR 03/02 A3000 260 96 -1100 000/00 RMK AO2 T00280022
94790KART ART20160610042010906/10/16 04:20:31  5-MIN KART 100920Z AUTO 00000KT 10SM CLR 03/02 A3000 260 96 -1100 000/00 RMK AO2 T00280022
94790KART ART20160610042510906/10/16 04:25:31  5-MIN KART 100925Z AUTO 00000KT 10SM CLR 03/02 A3001 250 96 -1100 000/00 RMK AO2 T00280022
94790KART ART20160610043010906/10/16 04:30:31  5-MIN KART 100930Z AUTO 00000KT 10SM CLR 03/02 A3001 250 96 -1100 000/00 RMK AO2 T00280022
94790KART ART20160610043510906/10/16 04:35:31  5-MIN KART 100935Z AUTO 00000KT 10SM CLR 03/02 A3001 250 92 -1100 000/00 RMK AO2 T00280017
94790KART ART20160610044010906/10/16 04:40:31  5-MIN KART 100940Z AUTO 00000KT 10SM CLR 03/02 A3001 250 96 -1100 000/00 RMK AO2 T00280022
94790KART ART20160610044510906/10/16 04:45:31  5-MIN KART 100945Z AUTO 00000KT 10SM CLR 03/02 A3001 240 96 -1100 000/00 RMK AO2 T00280022
94790KART ART20160610045011606/10/16 04:50:31  5-MIN KART 100950Z AUTO 00000KT 10SM CLR 03/02 A3001 250 92 -1000 000/00 RMK AO2 SLP164 T00330022
94790KART ART20160610045511606/10/16 04:55:31  5-MIN KART 100955Z AUTO 00000KT 10SM CLR 03/03 A3002 240 96 -1000 000/00 RMK AO2 SLP165 T00330028
94790KART ART20160610050010906/10/16 05:00:31  5-MIN KART 101000Z AUTO 00000KT 10SM CLR 03/03 A3002 240 96 -1000 000/00 RMK AO2 T00330028
94790KART ART20160610050510906/10/16 05:05:31  5-MIN KART 101005Z AUTO 00000KT 10SM CLR 03/03 A3002 240 96 -1000 000/00 RMK AO2 T00330028
94790KART ART20160610051010906/10/16 05:10:31  5-MIN KART 101010Z AUTO 00000KT 10SM CLR 04/03 A3002 240 96 -1000 000/00 RMK AO2 T00390033
94790KART ART20160610051510806/10/16 05:15:31  5-MIN KART 101015Z AUTO 00000KT 10SM CLR 04/04 A3003 230 96 -900 000/00 RMK AO2 T00440039
94790KART ART20160610052010806/10/16 05:20:31  5-MIN KART 101020Z AUTO 00000KT 10SM CLR 04/04 A3003 230 96 -900 000/00 RMK AO2 T00440039
94790KART ART20160610052510806/10/16 05:25:31  5-MIN KART 101025Z AUTO 00000KT 10SM CLR 05/04 A3003 230 96 -800 000/00 RMK AO2 T00500044
94790KART ART20160610053010806/10/16 05:30:31  5-MIN KART 101030Z AUTO 00000KT 10SM CLR 06/04 A3003 230 92 -800 000/00 RMK AO2 T00560044
94790KART ART20160610053510806/10/16 05:35:31  5-MIN KART 101035Z AUTO 00000KT 10SM CLR 06/05 A3003 230 93 -700 000/00 RMK AO2 T00610050
94790KART ART20160610054010806/10/16 05:40:31  5-MIN KART 101040Z AUTO 00000KT 10SM CLR 07/06 A3003 230 93 -600 000/00 RMK AO2 T00670056
94790KART ART20160610054510806/10/16 05:45:31  5-MIN KART 101045Z AUTO 00000KT 10SM CLR 08/06 A3003 230 89 -500 000/00 RMK AO2 T00780061
94790KART ART20160610055011506/10/16 05:50:31  5-MIN KART 101050Z AUTO 00000KT 10SM CLR 08/07 A3003 230 89 -400 000/00 RMK AO2 SLP169 T00830067
94790KART ART20160610055511506/10/16 05:55:31  5-MIN KART 101055Z AUTO 00000KT 10SM CLR 09/06 A3003 230 83 -400 000/00 RMK AO2 SLP169 T00890061
94790KART ART20160610060010806/10/16 06:00:31  5-MIN KART 101100Z AUTO 00000KT 10SM CLR 09/06 A3003 230 79 -300 000/00 RMK AO2 T00940061
94790KART ART20160610060510806/10/16 06:05:31  5-MIN KART 101105Z AUTO 00000KT 10SM CLR 10/06 A3003 230 77 -200 000/00 RMK AO2 T01000061
94790KART ART20160610061010806/10/16 06:10:31  5-MIN KART 101110Z AUTO VRB03KT 10SM CLR 11/07 A3003 230 77 -200 VRB/03 RMK AO2 T01060067
94790KART ART20160610061510806/10/16 06:15:31  5-MIN KART 101115Z AUTO 32003KT 10SM CLR 11/07 A3003 230 74 -100 340/03 RMK AO2 T01110067
94790KART ART20160610062010506/10/16 06:20:31  5-MIN KART 101120Z AUTO 31004KT 10SM CLR 12/06 A3004 220 66 0 320/04 RMK AO2 T01170056
94790KART ART20160610062510506/10/16 06:25:31  5-MIN KART 101125Z AUTO 31005KT 10SM CLR 12/06 A3004 220 68 0 320/05 RMK AO2 T01170061
94790KART ART20160610063010506/10/16 06:30:31  5-MIN KART 101130Z AUTO 31004KT 10SM CLR 12/06 A3004 220 63 0 320/04 RMK AO2 T01220056
94790KART ART20160610063510506/10/16 06:35:31  5-MIN KART 101135Z AUTO 32005KT 10SM CLR 12/06 A3004 220 63 0 330/05 RMK AO2 T01220056
94790KART ART20160610064010506/10/16 06:40:31  5-MIN KART 101140Z AUTO 32006KT 10SM CLR 12/06 A3004 220 63 0 330/06 RMK AO2 T01220056
94790KART ART20160610064510506/10/16 06:45:31  5-MIN KART 101145Z AUTO 32006KT 10SM CLR 13/05 A3004 220 59 0 330/06 RMK AO2 T01280050
94790KART ART20160610065013206/10/16 06:50:31  5-MIN KART 101150Z AUTO 33006KT 10SM CLR 13/06 A3005 210 59 100 340/06 RMK AO2 SLP173 T01330056 10133 20022 51013
94790KART ART20160610065513206/10/16 06:55:31  5-MIN KART 101155Z AUTO 31006KT 10SM CLR 13/05 A3005 210 57 100 330/06 RMK AO2 SLP173 T01330050 10133 20022 51013
94790KART ART20160610070010706/10/16 07:00:31  5-MIN KART 101200Z AUTO 31007KT 10SM CLR 13/05 A3005 210 57 100 320/07 RMK AO2 T01330050
94790KART ART20160610070510706/10/16 07:05:31  5-MIN KART 101205Z AUTO 31005KT 10SM CLR 13/04 A3005 210 54 100 330/05 RMK AO2 T01330044
94790KART ART20160610071010706/10/16 07:10:31  5-MIN KART 101210Z AUTO 32005KT 10SM CLR 13/04 A3005 210 54 100 330/05 RMK AO2 T01330044
94790KART ART20160610071510706/10/16 07:15:31  5-MIN KART 101215Z AUTO 31007KT 10SM CLR 13/05 A3005 210 57 100 330/07 RMK AO2 T01330050
94790KART ART20160610072010706/10/16 07:20:31  5-MIN KART 101220Z AUTO 30009KT 10SM CLR 14/04 A3005 210 52 200 310/09 RMK AO2 T01390044
94790KART ART20160610072510706/10/16 07:25:31  5-MIN KART 101225Z AUTO 33008KT 10SM CLR 14/04 A3006 210 52 200 350/08 RMK AO2 T01390044
94790KART ART20160610073010706/10/16 07:30:31  5-MIN KART 101230Z AUTO 34009KT 10SM CLR 14/04 A3006 200 50 200 350/09 RMK AO2 T01390039
94790KART ART20160610073510706/10/16 07:35:31  5-MIN KART 101235Z AUTO 33007KT 10SM CLR 14/04 A3005 210 50 200 340/07 RMK AO2 T01390039
94790KART ART20160610074010706/10/16 07:40:31  5-MIN KART 101240Z AUTO 33008KT 10SM CLR 14/04 A3006 210 51 200 350/08 RMK AO2 T01440044
94790KART ART20160610074510706/10/16 07:45:31  5-MIN KART 101245Z AUTO 32010KT 10SM CLR 14/03 A3006 200 47 200 330/10 RMK AO2 T01440033
94790KART ART20160610075011406/10/16 07:50:31  5-MIN KART 101250Z AUTO 32008KT 10SM CLR 14/03 A3005 210 48 200 330/08 RMK AO2 SLP177 T01390033
94790KART ART20160610075511406/10/16 07:55:31  5-MIN KART 101255Z AUTO 31008KT 10SM CLR 14/03 A3006 200 47 200 330/08 RMK AO2 SLP177 T01440033
94790KART ART20160610080010706/10/16 08:00:31  5-MIN KART 101300Z AUTO 31007KT 10SM CLR 14/03 A3006 200 47 200 320/07 RMK AO2 T01440033
94790KART ART20160610080510706/10/16 08:05:31  5-MIN KART 101305Z AUTO 31006KT 10SM CLR 15/03 A3006 200 45 300 320/06 RMK AO2 T01500033
94790KART ART20160610081010706/10/16 08:10:31  5-MIN KART 101310Z AUTO 33012KT 10SM CLR 15/03 A3006 200 45 300 340/12 RMK AO2 T01500033
94790KART ART20160610081510706/10/16 08:15:31  5-MIN KART 101315Z AUTO 30009KT 10SM CLR 15/03 A3006 200 43 300 320/09 RMK AO2 T01500028
94790KART ART20160610082010706/10/16 08:20:31  5-MIN KART 101320Z AUTO 28011KT 10SM CLR 15/03 A3006 200 43 300 300/11 RMK AO2 T01500028
94790KART ART20160610082510706/10/16 08:25:31  5-MIN KART 101325Z AUTO 29010KT 10SM CLR 15/03 A3006 200 45 300 300/10 RMK AO2 T01500033
94790KART ART20160610083010706/10/16 08:30:31  5-MIN KART 101330Z AUTO 29009KT 10SM CLR 16/03 A3007 200 43 300 310/09 RMK AO2 T01560033
94790KART ART20160610083510706/10/16 08:35:31  5-MIN KART 101335Z AUTO 28013KT 10SM CLR 15/03 A3007 200 43 300 300/13 RMK AO2 T01500028
94790KART ART20160610084010706/10/16 08:40:31  5-MIN KART 101340Z AUTO 29012KT 10SM CLR 16/03 A3007 190 42 300 300/12 RMK AO2 T01560028
94790KART ART20160610084510706/10/16 08:45:31  5-MIN KART 101345Z AUTO 30013KT 10SM CLR 16/03 A3007 190 42 300 320/13 RMK AO2 T01560028
94790KART ART20160610085011406/10/16 08:50:31  5-MIN KART 101350Z AUTO 28012KT 10SM CLR 16/03 A3007 190 42 300 300/12 RMK AO2 SLP182 T01560028
94790KART ART20160610085511406/10/16 08:55:31  5-MIN KART 101355Z AUTO 30010KT 10SM CLR 16/03 A3007 190 42 400 310/10 RMK AO2 SLP183 T01610033
94790KART ART20160610090010706/10/16 09:00:31  5-MIN KART 101400Z AUTO 31011KT 10SM CLR 16/03 A3007 190 42 300 320/11 RMK AO2 T01560028
94790KART ART20160610090510706/10/16 09:05:31  5-MIN KART 101405Z AUTO 31010KT 10SM CLR 16/03 A3007 190 42 300 320/10 RMK AO2 T01560028
94790KART ART20160610091010706/10/16 09:10:31  5-MIN KART 101410Z AUTO 29010KT 10SM CLR 16/03 A3007 190 42 400 300/10 RMK AO2 T01610033
94790KART ART20160610091510706/10/16 09:15:31  5-MIN KART 101415Z AUTO 29011KT 10SM CLR 16/03 A3008 190 42 300 310/11 RMK AO2 T01560028
94790KART ART20160610092010706/10/16 09:20:31  5-MIN KART 101420Z AUTO 29012KT 10SM CLR 16/03 A3008 190 42 300 300/12 RMK AO2 T01560028
94790KART ART20160610092510706/10/16 09:25:31  5-MIN KART 101425Z AUTO 30013KT 10SM CLR 16/03 A3008 180 43 300 320/13 RMK AO2 T01560033
94790KART ART20160610093010706/10/16 09:30:31  5-MIN KART 101430Z AUTO 29011KT 10SM CLR 16/03 A3008 180 40 400 300/11 RMK AO2 T01610028
94790KART ART20160610093510706/10/16 09:35:31  5-MIN KART 101435Z AUTO 31010KT 10SM CLR 16/03 A3008 180 42 400 320/10 RMK AO2 T01610033
94790KART ART20160610094010706/10/16 09:40:31  5-MIN KART 101440Z AUTO 29012KT 10SM CLR 16/03 A3008 180 42 400 300/12 RMK AO2 T01610033
94790KART ART20160610094510706/10/16 09:45:31  5-MIN KART 101445Z AUTO 28011KT 10SM CLR 16/04 A3008 180 44 400 300/11 RMK AO2 T01610039
94790KART ART20160610095012006/10/16 09:50:31  5-MIN KART 101450Z AUTO 28009KT 10SM CLR 16/04 A3008 180 44 400 300/09 RMK AO2 SLP185 T01610039 51017
94790KART ART20160610095512006/10/16 09:55:31  5-MIN KART 101455Z AUTO 28010KT 10SM CLR 17/04 A3008 180 42 500 290/10 RMK AO2 SLP185 T01670039 51017
94790KART ART20160610100010706/10/16 10:00:31  5-MIN KART 101500Z AUTO 27014KT 10SM CLR 17/04 A3008 180 42 500 280/14 RMK AO2 T01670039
94790KART ART20160610100511306/10/16 10:05:31  5-MIN KART 101505Z AUTO 28013G19KT 10SM CLR 17/04 A3008 180 41 500 290/13G19 RMK AO2 T01720039
94790KART ART20160610101012906/10/16 10:10:31  5-MIN KART 101510Z AUTO 28013G20KT 250V310 10SM CLR 17/04 A3008 180 42 500 300/13G20 260V320 RMK AO2 T01670039
94790KART ART20160610101511306/10/16 10:15:31  5-MIN KART 101515Z AUTO 26008G20KT 10SM CLR 17/04 A3008 190 42 500 270/08G20 RMK AO2 T01670039
94790KART ART20160610102011306/10/16 10:20:31  5-MIN KART 101520Z AUTO 27009G14KT 10SM CLR 17/04 A3008 180 44 500 280/09G14 RMK AO2 T01670044
94790KART ART20160610102510706/10/16 10:25:31  5-MIN KART 101525Z AUTO 27009KT 10SM CLR 17/06 A3008 180 46 500 280/09 RMK AO2 T01720056
94790KART ART20160610103010706/10/16 10:30:31  5-MIN KART 101530Z AUTO 25008KT 10SM CLR 17/06 A3008 180 47 500 260/08 RMK AO2 T01670056
94790KART ART20160610103510706/10/16 10:35:31  5-MIN KART 101535Z AUTO 26011KT 10SM CLR 17/06 A3008 180 47 500 280/11 RMK AO2 T01670056
94790KART ART20160610104011306/10/16 10:40:31  5-MIN KART 101540Z AUTO 25011G19KT 10SM CLR 17/06 A3008 180 49 500 260/11G19 RMK AO2 T01670061
94790KART ART20160610104511306/10/16 10:45:31  5-MIN KART 101545Z AUTO 24010G19KT 10SM CLR 17/06 A3008 180 47 500 260/10G19 RMK AO2 T01670056
94790KART ART20160610105012006/10/16 10:50:31  5-MIN KART 101550Z AUTO 25009G17KT 10SM CLR 16/06 A3008 180 51 400 260/09G17 RMK AO2 SLP187 T01610061
94790KART ART20160610105512006/10/16 10:55:31  5-MIN KART 101555Z AUTO 24012G17KT 10SM CLR 17/06 A3008 180 49 500 250/12G17 RMK AO2 SLP188 T01670061
94790KART ART20160610110011306/10/16 11:00:31  5-MIN KART 101600Z AUTO 24012G17KT 10SM CLR 16/06 A3009 180 49 400 250/12G17 RMK AO2 T01610056
94790KART ART20160610110510706/10/16 11:05:31  5-MIN KART 101605Z AUTO 25010KT 10SM CLR 17/06 A3008 180 49 500 260/10 RMK AO2 T01670061
94790KART ART20160610111010706/10/16 11:10:31  5-MIN KART 101610Z AUTO 23013KT 10SM CLR 17/06 A3008 180 47 500 240/13 RMK AO2 T01670056
94790KART ART20160610111510706/10/16 11:15:31  5-MIN KART 101615Z AUTO 23012KT 10SM CLR 17/06 A3008 180 47 500 240/12 RMK AO2 T01670056
94790KART ART20160610112011306/10/16 11:20:31  5-MIN KART 101620Z AUTO 22010G18KT 10SM CLR 17/05 A3008 180 45 500 230/10G18 RMK AO2 T01670050
94790KART ART20160610112511306/10/16 11:25:31  5-MIN KART 101625Z AUTO 24010G18KT 10SM CLR 17/06 A3008 180 46 500 250/10G18 RMK AO2 T01720056
94790KART ART20160610113010706/10/16 11:30:31  5-MIN KART 101630Z AUTO 23013KT 10SM CLR 17/06 A3008 180 46 500 240/13 RMK AO2 T01720056
94790KART ART20160610113510706/10/16 11:35:31  5-MIN KART 101635Z AUTO 23011KT 10SM CLR 17/05 A3008 180 45 500 240/11 RMK AO2 T01670050
94790KART ART20160610114010706/10/16 11:40:31  5-MIN KART 101640Z AUTO 23012KT 10SM CLR 17/05 A3008 180 44 500 250/12 RMK AO2 T01720050
94790KART ART20160610114511306/10/16 11:45:31  5-MIN KART 101645Z AUTO 24011G17KT 10SM CLR 17/06 A3009 180 46 500 250/11G17 RMK AO2 T01720056
94790KART ART20160610115012006/10/16 11:50:31  5-MIN KART 101650Z AUTO 23011G16KT 10SM CLR 17/05 A3009 180 44 500 250/11G16 RMK AO2 SLP189 T01720050
94790KART ART20160610115511406/10/16 11:55:31  5-MIN KART 101655Z AUTO 23011KT 10SM CLR 17/04 A3008 180 42 500 240/11 RMK AO2 SLP188 T01720044
94790KART ART20160610120011306/10/16 12:00:31  5-MIN KART 101700Z AUTO 23015G19KT 10SM CLR 17/04 A3008 180 42 500 240/15G19 RMK AO2 T01720044
94790KART ART20160610120511306/10/16 12:05:31  5-MIN KART 101705Z AUTO 24010G19KT 10SM CLR 17/05 A3008 180 44 500 250/10G19 RMK AO2 T01720050
94790KART ART20160610121010706/10/16 12:10:31  5-MIN KART 101710Z AUTO 22011KT 10SM CLR 18/05 A3008 180 42 600 240/11 RMK AO2 T01780050
94790KART ART20160610121510706/10/16 12:15:31  5-MIN KART 101715Z AUTO 24012KT 10SM CLR 18/05 A3008 180 42 600 250/12 RMK AO2 T01780050
94790KART ART20160610122010706/10/16 12:20:31  5-MIN KART 101720Z AUTO 23013KT 10SM CLR 18/05 A3008 180 42 600 250/13 RMK AO2 T01780050
94790KART ART20160610122511306/10/16 12:25:31  5-MIN KART 101725Z AUTO 24013G18KT 10SM CLR 18/05 A3008 180 42 600 250/13G18 RMK AO2 T01780050
94790KART ART20160610123011306/10/16 12:30:31  5-MIN KART 101730Z AUTO 23013G19KT 10SM CLR 18/05 A3008 190 42 600 250/13G19 RMK AO2 T01780050
94790KART ART20160610123511306/10/16 12:35:31  5-MIN KART 101735Z AUTO 24011G19KT 10SM CLR 18/05 A3007 190 42 600 250/11G19 RMK AO2 T01780050
94790KART ART20160610124011306/10/16 12:40:31  5-MIN KART 101740Z AUTO 25010G19KT 10SM CLR 18/06 A3007 190 44 600 260/10G19 RMK AO2 T01780056
94790KART ART20160610124511306/10/16 12:45:31  5-MIN KART 101745Z AUTO 23011G18KT 10SM CLR 18/06 A3007 190 44 600 240/11G18 RMK AO2 T01780056
94790KART ART20160610125013806/10/16 12:50:31  5-MIN KART 101750Z AUTO 23011G18KT 10SM CLR 18/06 A3007 190 44 600 250/11G18 RMK AO2 SLP183 T01780056 10183 20133 51010
94790KART ART20160610125513806/10/16 12:55:31  5-MIN KART 101755Z AUTO 25010G18KT 10SM CLR 18/07 A3007 190 46 700 270/10G18 RMK AO2 SLP182 T01830067 10183 20133 51010
94790KART ART20160610130010706/10/16 13:00:31  5-MIN KART 101800Z AUTO 24012KT 10SM CLR 18/06 A3007 190 44 700 250/12 RMK AO2 T01830061
94790KART ART20160610130511306/10/16 13:05:31  5-MIN KART 101805Z AUTO 25010G17KT 10SM CLR 18/06 A3007 190 42 700 260/10G17 RMK AO2 T01830056
94790KART ART20160610131010706/10/16 13:10:31  5-MIN KART 101810Z AUTO 25010KT 10SM CLR 18/06 A3007 200 44 600 260/10 RMK AO2 T01780056
94790KART ART20160610131510706/10/16 13:15:31  5-MIN KART 101815Z AUTO 25010KT 10SM CLR 18/05 A3006 200 42 600 260/10 RMK AO2 T01780050
94790KART ART20160610132011306/10/16 13:20:31  5-MIN KART 101820Z AUTO 25013G17KT 10SM CLR 18/06 A3006 200 42 700 270/13G17 RMK AO2 T01830056
94790KART ART20160610132510706/10/16 13:25:31  5-MIN KART 101825Z AUTO 25009KT 10SM CLR 18/06 A3006 200 46 600 260/09 RMK AO2 T01780061
94790KART ART20160610133011306/10/16 13:30:31  5-MIN KART 101830Z AUTO 24011G18KT 10SM CLR 18/06 A3006 200 44 600 260/11G18 RMK AO2 T01780056
94790KART ART20160610133510706/10/16 13:35:31  5-MIN KART 101835Z AUTO 25013KT 10SM CLR 18/04 A3005 210 41 600 260/13 RMK AO2 T01780044
94790KART ART20160610134011306/10/16 13:40:31  5-MIN KART 101840Z AUTO 24010G18KT 10SM CLR 18/04 A3006 210 39 700 250/10G18 RMK AO2 T01830044
94790KART ART20160610134511306/10/16 13:45:31  5-MIN KART 101845Z AUTO 26011G16KT 10SM CLR 18/06 A3006 200 44 700 280/11G16 RMK AO2 T01830061
94790KART ART20160610135012006/10/16 13:50:31  5-MIN KART 101850Z AUTO 25009G16KT 10SM CLR 18/07 A3006 200 48 700 260/09G16 RMK AO2 SLP177 T01830072
94790KART ART20160610135512006/10/16 13:55:31  5-MIN KART 101855Z AUTO 25009G16KT 10SM CLR 18/07 A3006 210 46 700 270/09G16 RMK AO2 SLP177 T01830067
94790KART ART20160610140010706/10/16 14:00:31  5-MIN KART 101900Z AUTO 25009KT 10SM CLR 18/07 A3006 210 48 700 260/09 RMK AO2 T01830072
94790KART ART20160610140510706/10/16 14:05:31  5-MIN KART 101905Z AUTO 25009KT 10SM CLR 18/06 A3006 200 46 600 260/09 RMK AO2 T01780061
94790KART ART20160610141010706/10/16 14:10:31  5-MIN KART 101910Z AUTO 26010KT 10SM CLR 18/08 A3006 200 51 600 270/10 RMK AO2 T01780078
94790KART ART20160610141510706/10/16 14:15:31  5-MIN KART 101915Z AUTO 26012KT 10SM CLR 17/07 A3005 210 51 600 270/12 RMK AO2 T01720072
94790KART ART20160610142010706/10/16 14:20:31  5-MIN KART 101920Z AUTO 26011KT 10SM CLR 18/08 A3005 210 51 600 270/11 RMK AO2 T01780078
94790KART ART20160610142510706/10/16 14:25:31  5-MIN KART 101925Z AUTO 24010KT 10SM CLR 18/07 A3005 210 48 600 250/10 RMK AO2 T01780067
94790KART ART20160610143011306/10/16 14:30:31  5-MIN KART 101930Z AUTO 24011G17KT 10SM CLR 17/06 A3005 210 47 600 260/11G17 RMK AO2 T01720061
94790KART ART20160610143511306/10/16 14:35:31  5-MIN KART 101935Z AUTO 24011G17KT 10SM CLR 17/06 A3005 210 46 600 250/11G17 RMK AO2 T01720056
94790KART ART20160610144010706/10/16 14:40:31  5-MIN KART 101940Z AUTO 26013KT 10SM CLR 18/06 A3005 210 42 700 270/13 RMK AO2 T01830056
94790KART ART20160610144510706/10/16 14:45:31  5-MIN KART 101945Z AUTO 24012KT 10SM CLR 18/05 A3005 210 42 600 250/12 RMK AO2 T01780050
94790KART ART20160610145011406/10/16 14:50:31  5-MIN KART 101950Z AUTO 23012KT 10SM CLR 17/06 A3006 210 46 600 250/12 RMK AO2 SLP178 T01720056
94790KART ART20160610145512006/10/16 14:55:31  5-MIN KART 101955Z AUTO 24008G16KT 10SM CLR 18/06 A3006 200 44 600 260/08G16 RMK AO2 SLP178 T01780056
94790KART ART20160610150011306/10/16 15:00:31  5-MIN KART 102000Z AUTO 24009G16KT 10SM CLR 18/06 A3006 200 44 700 250/09G16 RMK AO2 T01830061
94790KART ART20160610150511306/10/16 15:05:31  5-MIN KART 102005Z AUTO 25011G17KT 10SM CLR 18/06 A3006 200 44 700 260/11G17 RMK AO2 T01830061
94790KART ART20160610151011306/10/16 15:10:31  5-MIN KART 102010Z AUTO 24009G17KT 10SM CLR 18/06 A3005 210 46 600 250/09G17 RMK AO2 T01780061
94790KART ART20160610151510706/10/16 15:15:31  5-MIN KART 102015Z AUTO 24010KT 10SM CLR 18/06 A3005 210 46 600 250/10 RMK AO2 T01780061
94790KART ART20160610152011306/10/16 15:20:31  5-MIN KART 102020Z AUTO 24012G17KT 10SM CLR 18/06 A3005 210 46 600 250/12G17 RMK AO2 T01780061
94790KART ART20160610152510706/10/16 15:25:31  5-MIN KART 102025Z AUTO 26012KT 10SM CLR 18/06 A3005 210 44 700 270/12 RMK AO2 T01830061
94790KART ART20160610153010706/10/16 15:30:31  5-MIN KART 102030Z AUTO 24008KT 10SM CLR 18/06 A3005 210 42 700 260/08 RMK AO2 T01830056
94790KART ART20160610153510706/10/16 15:35:31  5-MIN KART 102035Z AUTO 25009KT 10SM CLR 18/06 A3005 210 44 600 260/09 RMK AO2 T01780056
94790KART ART20160610154010706/10/16 15:40:31  5-MIN KART 102040Z AUTO 24008KT 10SM CLR 17/05 A3005 210 44 600 250/08 RMK AO2 T01720050
94790KART ART20160610154510706/10/16 15:45:31  5-MIN KART 102045Z AUTO 25009KT 10SM CLR 18/06 A3005 210 44 600 260/09 RMK AO2 T01780056
94790KART ART20160610155012206/10/16 15:50:31  5-MIN KART 102050Z AUTO 25010KT 10SM CLR 17/05 A3005 210 44 600 270/10 RMK AO2 SLP175 T01720050 58002 $
94790KART ART20160610155512206/10/16 15:55:31  5-MIN KART 102055Z AUTO 25008KT 10SM CLR 17/05 A3005 220 44 600 260/08 RMK AO2 SLP174 T01720050 58002 $
94790KART ART20160610160010906/10/16 16:00:31  5-MIN KART 102100Z AUTO 25008KT 10SM CLR 17/05 A3004 220 45 500 260/08 RMK AO2 T01670050 $
94790KART ART20160610160510906/10/16 16:05:31  5-MIN KART 102105Z AUTO 23008KT 10SM CLR 17/06 A3005 210 47 500 240/08 RMK AO2 T01670056 $
94790KART ART20160610161010906/10/16 16:10:31  5-MIN KART 102110Z AUTO 22010KT 10SM CLR 17/06 A3005 210 47 500 240/10 RMK AO2 T01670056 $
94790KART ART20160610161510906/10/16 16:15:31  5-MIN KART 102115Z AUTO 23011KT 10SM CLR 17/06 A3005 210 47 500 240/11 RMK AO2 T01670056 $
94790KART ART20160610162010906/10/16 16:20:31  5-MIN KART 102120Z AUTO 24007KT 10SM CLR 17/06 A3005 210 47 500 250/07 RMK AO2 T01670056 $
94790KART ART20160610162511506/10/16 16:25:31  5-MIN KART 102125Z AUTO 23011G16KT 10SM CLR 17/05 A3005 210 45 500 250/11G16 RMK AO2 T01670050 $
94790KART ART20160610163010906/10/16 16:30:31  5-MIN KART 102130Z AUTO 23011KT 10SM CLR 17/05 A3005 210 45 500 240/11 RMK AO2 T01670050 $
94790KART ART20160610163510906/10/16 16:35:31  5-MIN KART 102135Z AUTO 23009KT 10SM CLR 17/05 A3005 210 45 500 240/09 RMK AO2 T01670050 $
94790KART ART20160610164010906/10/16 16:40:31  5-MIN KART 102140Z AUTO 23011KT 10SM CLR 17/05 A3005 210 45 500 240/11 RMK AO2 T01670050 $
94790KART ART20160610164510906/10/16 16:45:31  5-MIN KART 102145Z AUTO 23009KT 10SM CLR 17/05 A3004 220 45 500 250/09 RMK AO2 T01670050 $
94790KART ART20160610165011606/10/16 16:50:31  5-MIN KART 102150Z AUTO 23006KT 10SM CLR 17/06 A3004 220 47 500 240/06 RMK AO2 SLP172 T01670056 $
94790KART ART20160610165511606/10/16 16:55:31  5-MIN KART 102155Z AUTO 23008KT 10SM CLR 17/06 A3004 220 47 500 240/08 RMK AO2 SLP173 T01670056 $
94790KART ART20160610170010906/10/16 17:00:31  5-MIN KART 102200Z AUTO 23008KT 10SM CLR 17/06 A3003 220 46 600 240/08 RMK AO2 T01720056 $
94790KART ART20160610170510906/10/16 17:05:31  5-MIN KART 102205Z AUTO 24008KT 10SM CLR 17/05 A3003 220 44 600 250/08 RMK AO2 T01720050 $
94790KART ART20160610171010906/10/16 17:10:31  5-MIN KART 102210Z AUTO 24008KT 10SM CLR 17/06 A3004 220 46 600 250/08 RMK AO2 T01720056 $
94790KART ART20160610171510906/10/16 17:15:31  5-MIN KART 102215Z AUTO 25008KT 10SM CLR 17/06 A3004 220 46 600 260/08 RMK AO2 T01720056 $
94790KART ART20160610172010906/10/16 17:20:31  5-MIN KART 102220Z AUTO 23008KT 10SM CLR 18/06 A3004 220 44 600 250/08 RMK AO2 T01780056 $
94790KART ART20160610172510906/10/16 17:25:31  5-MIN KART 102225Z AUTO 23009KT 10SM CLR 17/06 A3004 220 46 600 240/09 RMK AO2 T01720056 $
94790KART ART20160610173010906/10/16 17:30:31  5-MIN KART 102230Z AUTO 23008KT 10SM CLR 17/05 A3004 220 44 600 250/08 RMK AO2 T01720050 $
94790KART ART20160610173510906/10/16 17:35:31  5-MIN KART 102235Z AUTO 24005KT 10SM CLR 17/06 A3004 220 46 600 250/05 RMK AO2 T01720056 $
94790KART ART20160610174010906/10/16 17:40:31  5-MIN KART 102240Z AUTO 23008KT 10SM CLR 17/05 A3004 220 44 600 240/08 RMK AO2 T01720050 $
94790KART ART20160610174510906/10/16 17:45:31  5-MIN KART 102245Z AUTO 22007KT 10SM CLR 17/06 A3003 230 46 600 240/07 RMK AO2 T01720056 $
94790KART ART20160610175011606/10/16 17:50:31  5-MIN KART 102250Z AUTO 23007KT 10SM CLR 17/06 A3003 230 46 600 250/07 RMK AO2 SLP169 T01720056 $
94790KART ART20160610175511606/10/16 17:55:31  5-MIN KART 102255Z AUTO 22009KT 10SM CLR 17/06 A3003 230 46 600 240/09 RMK AO2 SLP168 T01720056 $
94790KART ART20160610180010906/10/16 18:00:31  5-MIN KART 102300Z AUTO 24007KT 10SM CLR 17/06 A3003 230 46 600 250/07 RMK AO2 T01720056 $
94790KART ART20160610180510906/10/16 18:05:31  5-MIN KART 102305Z AUTO 24006KT 10SM CLR 17/06 A3003 230 46 600 250/06 RMK AO2 T01720056 $
94790KART ART20160610181010906/10/16 18:10:31  5-MIN KART 102310Z AUTO 24006KT 10SM CLR 17/06 A3003 230 46 600 250/06 RMK AO2 T01720056 $
94790KART ART20160610181510906/10/16 18:15:31  5-MIN KART 102315Z AUTO 21006KT 10SM CLR 17/06 A3003 230 46 600 230/06 RMK AO2 T01720056 $
94790KART ART20160610182010906/10/16 18:20:31  5-MIN KART 102320Z AUTO 21006KT 10SM CLR 17/06 A3003 230 49 500 220/06 RMK AO2 T01670061 $
94790KART ART20160610182510906/10/16 18:25:31  5-MIN KART 102325Z AUTO 23006KT 10SM CLR 17/06 A3002 240 47 500 240/06 RMK AO2 T01670056 $
94790KART ART20160610183010906/10/16 18:30:31  5-MIN KART 102330Z AUTO 22007KT 10SM CLR 17/06 A3002 230 47 500 230/07 RMK AO2 T01670056 $
94790KART ART20160610183510906/10/16 18:35:31  5-MIN KART 102335Z AUTO 22006KT 10SM CLR 17/06 A3002 230 47 500 230/06 RMK AO2 T01670056 $
94790KART ART20160610184010906/10/16 18:40:31  5-MIN KART 102340Z AUTO 22005KT 10SM CLR 17/06 A3002 240 47 500 230/05 RMK AO2 T01670056 $
94790KART ART20160610184510906/10/16 18:45:31  5-MIN KART 102345Z AUTO 20005KT 10SM CLR 16/06 A3002 240 49 500 220/05 RMK AO2 T01610056 $
94790KART ART20160610185013406/10/16 18:50:31  5-MIN KART 102350Z AUTO 21005KT 10SM CLR 16/06 A3002 240 49 500 230/05 RMK AO2 SLP164 T01610056 10189 20161 56009 $
94790KART ART20160610185513406/10/16 18:55:31  5-MIN KART 102355Z AUTO 20004KT 10SM CLR 16/06 A3002 240 51 400 210/04 RMK AO2 SLP163 T01560056 10189 20156 56009 $
94790KART ART20160610190010906/10/16 19:00:31  5-MIN KART 110000Z AUTO 20004KT 10SM CLR 16/06 A3002 240 53 400 220/04 RMK AO2 T01560061 $
94790KART ART20160610190510906/10/16 19:05:31  5-MIN KART 110005Z AUTO 20004KT 10SM CLR 16/06 A3002 240 53 400 210/04 RMK AO2 T01560061 $
94790KART ART20160610191010906/10/16 19:10:31  5-MIN KART 110010Z AUTO 21005KT 10SM CLR 15/06 A3002 240 53 300 220/05 RMK AO2 T01500056 $
94790KART ART20160610191510906/10/16 19:15:31  5-MIN KART 110015Z AUTO 20004KT 10SM CLR 15/06 A3002 240 53 300 210/04 RMK AO2 T01500056 $
94790KART ART20160610192010906/10/16 19:20:31  5-MIN KART 110020Z AUTO 19003KT 10SM CLR 14/06 A3002 240 55 300 200/03 RMK AO2 T01440056 $
94790KART ART20160610192510906/10/16 19:25:31  5-MIN KART 110025Z AUTO 19003KT 10SM CLR 14/06 A3002 240 55 300 200/03 RMK AO2 T01440056 $
94790KART ART20160610193010906/10/16 19:30:31  5-MIN KART 110030Z AUTO 20004KT 10SM CLR 14/06 A3002 240 55 300 210/04 RMK AO2 T01440056 $
94790KART ART20160610193510906/10/16 19:35:31  5-MIN KART 110035Z AUTO 19004KT 10SM CLR 14/06 A3002 240 57 200 210/04 RMK AO2 T01390056 $
94790KART ART20160610194010906/10/16 19:40:31  5-MIN KART 110040Z AUTO 19004KT 10SM CLR 14/06 A3002 240 57 200 210/04 RMK AO2 T01390056 $
94790KART ART20160610194510906/10/16 19:45:31  5-MIN KART 110045Z AUTO 19004KT 10SM CLR 13/06 A3002 240 59 100 200/04 RMK AO2 T01330056 $
94790KART ART20160610195011606/10/16 19:50:31  5-MIN KART 110050Z AUTO 19004KT 10SM CLR 13/06 A3002 240 59 100 200/04 RMK AO2 SLP162 T01330056 $
94790KART ART20160610195511606/10/16 19:55:31  5-MIN KART 110055Z AUTO 18003KT 10SM CLR 13/05 A3001 240 57 100 190/03 RMK AO2 SLP161 T01330050 $
94790KART ART20160610200010906/10/16 20:00:31  5-MIN KART 110100Z AUTO 18003KT 10SM CLR 13/05 A3001 240 57 100 200/03 RMK AO2 T01330050 $
94790KART ART20160610200510906/10/16 20:05:31  5-MIN KART 110105Z AUTO 19003KT 10SM CLR 13/05 A3002 240 57 100 200/03 RMK AO2 T01330050 $
94790KART ART20160610201010906/10/16 20:10:31  5-MIN KART 110110Z AUTO 18003KT 10SM CLR 13/05 A3001 240 57 100 190/03 RMK AO2 T01330050 $
94790KART ART20160610201510906/10/16 20:15:31  5-MIN KART 110115Z AUTO 18004KT 10SM CLR 13/05 A3002 240 59 100 200/04 RMK AO2 T01280050 $
94790KART ART20160610202010906/10/16 20:20:31  5-MIN KART 110120Z AUTO 19003KT 10SM CLR 13/05 A3002 240 59 100 210/03 RMK AO2 T01280050 $
94790KART ART20160610202510706/10/16 20:25:31  5-MIN KART 110125Z AUTO 21004KT 10SM CLR 12/05 A3002 240 61 0 220/04 RMK AO2 T01220050 $
94790KART ART20160610203010706/10/16 20:30:31  5-MIN KART 110130Z AUTO 20004KT 10SM CLR 12/05 A3002 230 63 0 210/04 RMK AO2 T01170050 $
94790KART ART20160610203510706/10/16 20:35:31  5-MIN KART 110135Z AUTO 20004KT 10SM CLR 12/05 A3003 230 61 0 220/04 RMK AO2 T01220050 $
94790KART ART20160610204011006/10/16 20:40:31  5-MIN KART 110140Z AUTO 20004KT 10SM CLR 11/05 A3003 230 66 -100 210/04 RMK AO2 T01110050 $
94790KART ART20160610204510706/10/16 20:45:31  5-MIN KART 110145Z AUTO 18004KT 10SM CLR 12/05 A3003 230 61 0 200/04 RMK AO2 T01220050 $
94790KART ART20160610205011406/10/16 20:50:31  5-MIN KART 110150Z AUTO 18003KT 10SM CLR 12/05 A3003 230 61 0 190/03 RMK AO2 SLP167 T01220050 $
94790KART ART20160610205511406/10/16 20:55:31  5-MIN KART 110155Z AUTO 18003KT 10SM CLR 12/05 A3003 230 61 0 190/03 RMK AO2 SLP168 T01220050 $
94790KART ART20160610210010706/10/16 21:00:31  5-MIN KART 110200Z AUTO 18003KT 10SM CLR 12/05 A3003 230 61 0 190/03 RMK AO2 T01220050 $
94790KART ART20160610210510706/10/16 21:05:31  5-MIN KART 110205Z AUTO 18003KT 10SM CLR 12/05 A3003 230 61 0 190/03 RMK AO2 T01220050 $
94790KART ART20160610211010706/10/16 21:10:31  5-MIN KART 110210Z AUTO 18004KT 10SM CLR 12/05 A3003 230 63 0 190/04 RMK AO2 T01170050 $
94790KART ART20160610211510706/10/16 21:15:31  5-MIN KART 110215Z AUTO 17005KT 10SM CLR 12/05 A3003 230 63 0 180/05 RMK AO2 T01170050 $
94790KART ART20160610212010706/10/16 21:20:31  5-MIN KART 110220Z AUTO 17005KT 10SM CLR 12/05 A3003 230 63 0 180/05 RMK AO2 T01170050 $
94790KART ART20160610212510706/10/16 21:25:31  5-MIN KART 110225Z AUTO 17004KT 10SM CLR 12/05 A3002 230 63 0 190/04 RMK AO2 T01170050 $
94790KART ART20160610213010706/10/16 21:30:31  5-MIN KART 110230Z AUTO 17004KT 10SM CLR 12/05 A3002 240 63 0 180/04 RMK AO2 T01170050 $
94790KART ART20160610213510706/10/16 21:35:31  5-MIN KART 110235Z AUTO 17004KT 10SM CLR 12/05 A3002 240 63 0 180/04 RMK AO2 T01170050 $
94790KART ART20160610214011006/10/16 21:40:31  5-MIN KART 110240Z AUTO 18004KT 10SM CLR 11/05 A3002 240 66 -100 190/04 RMK AO2 T01110050 $
94790KART ART20160610214510706/10/16 21:45:31  5-MIN KART 110245Z AUTO 17004KT 10SM CLR 12/05 A3002 240 63 0 190/04 RMK AO2 T01170050 $
94790KART ART20160610215012006/10/16 21:50:31  5-MIN KART 110250Z AUTO 17004KT 10SM CLR 12/05 A3002 240 63 0 180/04 RMK AO2 SLP164 T01170050 58009 $
94790KART ART20160610215512306/10/16 21:55:31  5-MIN KART 110255Z AUTO 17005KT 10SM CLR 11/05 A3002 240 66 -100 180/05 RMK AO2 SLP163 T01110050 58009 $
94790KART ART20160610220011006/10/16 22:00:31  5-MIN KART 110300Z AUTO 17004KT 10SM CLR 11/05 A3001 240 66 -100 180/04 RMK AO2 T01110050 $
94790KART ART20160610220511006/10/16 22:05:31  5-MIN KART 110305Z AUTO 16004KT 10SM CLR 11/05 A3001 240 66 -100 170/04 RMK AO2 T01110050 $
94790KART ART20160610221011006/10/16 22:10:31  5-MIN KART 110310Z AUTO 17003KT 10SM CLR 11/04 A3001 240 63 -100 180/03 RMK AO2 T01110044 $
94790KART ART20160610221511006/10/16 22:15:31  5-MIN KART 110315Z AUTO 17003KT 10SM CLR 11/04 A3001 240 63 -100 180/03 RMK AO2 T01110044 $
94790KART ART20160610222011006/10/16 22:20:31  5-MIN KART 110320Z AUTO 15004KT 10SM CLR 11/04 A3001 250 63 -100 170/04 RMK AO2 T01110044 $
94790KART ART20160610222511006/10/16 22:25:31  5-MIN KART 110325Z AUTO 00000KT 10SM CLR 11/04 A3001 240 66 -100 000/00 RMK AO2 T01060044 $
94790KART ART20160610223011006/10/16 22:30:31  5-MIN KART 110330Z AUTO 00000KT 10SM CLR 11/04 A3002 240 66 -100 000/00 RMK AO2 T01060044 $
94790KART ART20160610223511006/10/16 22:35:31  5-MIN KART 110335Z AUTO 00000KT 10SM CLR 11/04 A3002 240 66 -100 000/00 RMK AO2 T01060044 $
94790KART ART20160610224011006/10/16 22:40:31  5-MIN KART 110340Z AUTO 00000KT 10SM CLR 11/04 A3002 240 66 -100 000/00 RMK AO2 T01060044 $
94790KART ART20160610224511006/10/16 22:45:31  5-MIN KART 110345Z AUTO 00000KT 10SM CLR 10/04 A3001 250 68 -200 000/00 RMK AO2 T01000044 $
94790KART ART20160610225011706/10/16 22:50:31  5-MIN KART 110350Z AUTO 00000KT 10SM CLR 09/04 A3001 250 73 -300 000/00 RMK AO2 SLP161 T00890044 $
94790KART ART20160610225511706/10/16 22:55:31  5-MIN KART 110355Z AUTO 00000KT 10SM CLR 09/04 A3001 250 73 -300 000/00 RMK AO2 SLP161 T00890044 $
94790KART ART20160610230011006/10/16 23:00:31  5-MIN KART 110400Z AUTO 15003KT 10SM CLR 10/04 A3000 260 68 -200 160/03 RMK AO2 T01000044 $
94790KART ART20160610230511006/10/16 23:05:31  5-MIN KART 110405Z AUTO 00000KT 10SM CLR 10/04 A3000 260 68 -200 000/00 RMK AO2 T01000044 $
94790KART ART20160610231011006/10/16 23:10:31  5-MIN KART 110410Z AUTO 14003KT 10SM CLR 11/04 A2999 260 66 -100 160/03 RMK AO2 T01060044 $
94790KART ART20160610231511206/10/16 23:15:31  5-MIN KART 110415Z AUTO 15004KT 6SM HZ CLR 10/04 A2999 260 68 -200 160/04 RMK AO2 T01000044 $
94790KART ART20160610232011206/10/16 23:20:31  5-MIN KART 110420Z AUTO 16004KT 3SM HZ CLR 10/04 A2999 260 68 -200 170/04 RMK AO2 T01000044 $
94790KART ART20160610232511206/10/16 23:25:31  5-MIN KART 110425Z AUTO 16004KT 3SM HZ CLR 10/04 A2999 270 68 -200 170/04 RMK AO2 T01000044 $
94790KART ART20160610233011206/10/16 23:30:31  5-MIN KART 110430Z AUTO 15004KT 5SM HZ CLR 10/04 A2999 270 68 -200 160/04 RMK AO2 T01000044 $
94790KART ART20160610233511206/10/16 23:35:31  5-MIN KART 110435Z AUTO 15004KT 6SM HZ CLR 11/04 A2999 270 66 -100 160/04 RMK AO2 T01060044 $
94790KART ART20160610234011206/10/16 23:40:31  5-MIN KART 110440Z AUTO 16005KT 6SM HZ CLR 10/04 A2999 270 68 -200 170/05 RMK AO2 T01000044 $
94790KART ART20160610234511206/10/16 23:45:31  5-MIN KART 110445Z AUTO 15004KT 6SM HZ CLR 10/04 A2999 270 68 -200 170/04 RMK AO2 T01000044 $
94790KART ART20160610235012606/10/16 23:50:31  5-MIN KART 110450Z AUTO 15004KT 7SM CLR 10/04 A2999 270 68 -200 170/04 RMK AO2 SLP153 T01000044 401890022 $
94790KART ART20160610235512606/10/16 23:55:31  5-MIN KART 110455Z AUTO 16004KT 8SM CLR 10/04 A2999 270 65 -200 170/04 RMK AO2 SLP153 T01000039 401890022 $
94790KART ART20160611000010906/11/16 00:00:31  5-MIN KART 110500Z AUTO 16004KT 8SM CLR 10/04 A2999 270 65 -200 170/04 RMK AO2 T01000039 $
94790KART ART20160611000510906/11/16 00:05:31  5-MIN KART 110505Z AUTO 16003KT 8SM CLR 11/04 A2999 270 63 -100 180/03 RMK AO2 T01060039 $
94790KART ART20160611001010906/11/16 00:10:31  5-MIN KART 110510Z AUTO 00000KT 7SM CLR 11/04 A2999 260 63 -100 000/00 RMK AO2 T01060039 $
94790KART ART20160611001510906/11/16 00:15:31  5-MIN KART 110515Z AUTO 00000KT 7SM CLR 11/04 A2999 260 63 -100 000/00 RMK AO2 T01060039 $
94790KART ART20160611002010906/11/16 00:20:31  5-MIN KART 110520Z AUTO 00000KT 7SM CLR 11/04 A3000 260 63 -100 000/00 RMK AO2 T01060039 $
94790KART ART20160611002510906/11/16 00:25:31  5-MIN KART 110525Z AUTO 00000KT 8SM CLR 09/04 A3000 260 68 -300 000/00 RMK AO2 T00940039 $
94790KART ART20160611003010906/11/16 00:30:31  5-MIN KART 110530Z AUTO 00000KT 8SM CLR 10/04 A2999 260 65 -200 000/00 RMK AO2 T01000039 $
94790KART ART20160611003510906/11/16 00:35:31  5-MIN KART 110535Z AUTO 14003KT 7SM CLR 10/04 A2999 270 65 -200 150/03 RMK AO2 T01000039 $
94790KART ART20160611004010906/11/16 00:40:31  5-MIN KART 110540Z AUTO 15004KT 8SM CLR 10/04 A2999 270 65 -200 160/04 RMK AO2 T01000039 $
94790KART ART20160611004511006/11/16 00:45:31  5-MIN KART 110545Z AUTO 14003KT 10SM CLR 10/04 A2998 270 65 -200 160/03 RMK AO2 T01000039 $
94790KART ART20160611005013506/11/16 00:50:31  5-MIN KART 110550Z AUTO 14003KT 10SM CLR 10/04 A2998 270 65 -200 150/03 RMK AO2 SLP150 T01000039 10156 20089 58000 $
94790KART ART20160611005513506/11/16 00:55:31  5-MIN KART 110555Z AUTO 14004KT 10SM CLR 10/04 A2998 280 65 -200 160/04 RMK AO2 SLP149 T01000039 10156 20089 58000 $
94790KART ART20160611010011006/11/16 01:00:31  5-MIN KART 110600Z AUTO 15004KT 10SM CLR 10/04 A2997 280 65 -200 160/04 RMK AO2 T01000039 $
94790KART ART20160611010511006/11/16 01:05:31  5-MIN KART 110605Z AUTO 16004KT 10SM CLR 10/03 A2998 280 63 -200 170/04 RMK AO2 T01000033 $
94790KART ART20160611011011006/11/16 01:10:31  5-MIN KART 110610Z AUTO 13003KT 10SM CLR 10/03 A2997 280 63 -200 140/03 RMK AO2 T01000033 $
94790KART ART20160611011511006/11/16 01:15:31  5-MIN KART 110615Z AUTO 13003KT 10SM CLR 10/03 A2997 280 63 -200 150/03 RMK AO2 T01000033 $
94790KART ART20160611012011006/11/16 01:20:31  5-MIN KART 110620Z AUTO 00000KT 10SM CLR 10/03 A2997 280 63 -200 000/00 RMK AO2 T01000033 $
94790KART ART20160611012511006/11/16 01:25:31  5-MIN KART 110625Z AUTO 00000KT 10SM CLR 09/03 A2997 280 65 -200 000/00 RMK AO2 T00940033 $
94790KART ART20160611013011006/11/16 01:30:31  5-MIN KART 110630Z AUTO 00000KT 10SM CLR 08/03 A2997 290 70 -400 000/00 RMK AO2 T00830033 $
94790KART ART20160611013511006/11/16 01:35:31  5-MIN KART 110635Z AUTO 00000KT 10SM CLR 07/04 A2997 290 79 -500 000/00 RMK AO2 T00720039 $
94790KART ART20160611014011006/11/16 01:40:31  5-MIN KART 110640Z AUTO 31003KT 10SM CLR 07/04 A2997 290 79 -500 320/03 RMK AO2 T00720039 $
94790KART ART20160611014511006/11/16 01:45:31  5-MIN KART 110645Z AUTO 00000KT 10SM CLR 08/04 A2997 290 79 -400 000/00 RMK AO2 T00780044 $
94790KART ART20160611015011706/11/16 01:50:31  5-MIN KART 110650Z AUTO 00000KT 10SM CLR 07/04 A2997 290 79 -500 000/00 RMK AO2 SLP147 T00720039 $
94790KART ART20160611015511706/11/16 01:55:31  5-MIN KART 110655Z AUTO 00000KT 10SM CLR 07/04 A2997 290 82 -500 000/00 RMK AO2 SLP147 T00720044 $
94790KART ART20160611020011006/11/16 02:00:31  5-MIN KART 110700Z AUTO 20003KT 10SM CLR 07/04 A2997 290 86 -600 210/03 RMK AO2 T00670044 $
94790KART ART20160611020511006/11/16 02:05:31  5-MIN KART 110705Z AUTO 00000KT 10SM CLR 09/04 A2996 290 71 -300 000/00 RMK AO2 T00890039 $
94790KART ART20160611021011006/11/16 02:10:31  5-MIN KART 110710Z AUTO 00000KT 10SM CLR 10/03 A2996 290 63 -100 000/00 RMK AO2 T01000033 $
94790KART ART20160611021511006/11/16 02:15:31  5-MIN KART 110715Z AUTO 21003KT 10SM CLR 10/03 A2996 290 63 -100 220/03 RMK AO2 T01000033 $
94790KART ART20160611022011006/11/16 02:20:31  5-MIN KART 110720Z AUTO 19004KT 10SM CLR 09/03 A2996 290 65 -200 210/04 RMK AO2 T00940033 $
94790KART ART20160611022511006/11/16 02:25:31  5-MIN KART 110725Z AUTO 00000KT 10SM CLR 09/03 A2996 300 65 -200 000/00 RMK AO2 T00940033 $
94790KART ART20160611023011006/11/16 02:30:31  5-MIN KART 110730Z AUTO 00000KT 10SM CLR 07/03 A2996 300 76 -500 000/00 RMK AO2 T00720033 $
94790KART ART20160611023511006/11/16 02:35:31  5-MIN KART 110735Z AUTO 00000KT 10SM CLR 09/03 A2995 300 68 -300 000/00 RMK AO2 T00890033 $
94790KART ART20160611024011006/11/16 02:40:31  5-MIN KART 110740Z AUTO 00000KT 10SM CLR 08/03 A2995 310 70 -300 000/00 RMK AO2 T00830033 $
94790KART ART20160611024511006/11/16 02:45:31  5-MIN KART 110745Z AUTO 00000KT 10SM CLR 08/03 A2994 310 70 -300 000/00 RMK AO2 T00830033 $
94790KART ART20160611025011706/11/16 02:50:31  5-MIN KART 110750Z AUTO 00000KT 10SM CLR 08/04 A2994 310 76 -400 000/00 RMK AO2 SLP137 T00780039 $
94790KART ART20160611025511706/11/16 02:55:31  5-MIN KART 110755Z AUTO 00000KT 10SM CLR 08/04 A2994 320 73 -300 000/00 RMK AO2 SLP136 T00830039 $
94790KART ART20160611030011006/11/16 03:00:31  5-MIN KART 110800Z AUTO 00000KT 10SM CLR 09/04 A2994 310 71 -300 000/00 RMK AO2 T00890039 $
94790KART ART20160611030511006/11/16 03:05:31  5-MIN KART 110805Z AUTO 00000KT 10SM CLR 09/04 A2994 320 68 -200 000/00 RMK AO2 T00940039 $
94790KART ART20160611031011006/11/16 03:10:31  5-MIN KART 110810Z AUTO VRB03KT 10SM CLR 09/04 A2993 320 68 -200 VRB/03 RMK AO2 T00940039 $
94790KART ART20160611031511006/11/16 03:15:31  5-MIN KART 110815Z AUTO 15004KT 10SM CLR 09/04 A2993 320 68 -200 160/04 RMK AO2 T00940039 $
94790KART ART20160611032011006/11/16 03:20:31  5-MIN KART 110820Z AUTO 15005KT 10SM CLR 10/04 A2992 330 65 -100 170/05 RMK AO2 T01000039 $
94790KART ART20160611032510706/11/16 03:25:31  5-MIN KART 110825Z AUTO 16007KT 10SM CLR 11/04 A2992 330 61 0 170/07 RMK AO2 T01110039 $
94790KART ART20160611033010706/11/16 03:30:31  5-MIN KART 110830Z AUTO 15006KT 10SM CLR 11/04 A2991 340 61 0 170/06 RMK AO2 T01110039 $
94790KART ART20160611033510906/11/16 03:35:31  5-MIN KART 110835Z AUTO 15006KT 10SM CLR 12/04 A2992 340 58 100 160/06 RMK AO2 T01170039 $
94790KART ART20160611034010906/11/16 03:40:31  5-MIN KART 110840Z AUTO 15005KT 10SM CLR 12/04 A2991 340 58 100 160/05 RMK AO2 T01170039 $
94790KART ART20160611034510906/11/16 03:45:31  5-MIN KART 110845Z AUTO 15005KT 10SM CLR 12/04 A2991 340 58 100 170/05 RMK AO2 T01170039 $
94790KART ART20160611035012206/11/16 03:50:31  5-MIN KART 110850Z AUTO 16005KT 10SM CLR 12/04 A2992 330 58 100 170/05 RMK AO2 SLP129 T01170039 58014 $
94790KART ART20160611035512206/11/16 03:55:31  5-MIN KART 110855Z AUTO 14005KT 10SM CLR 12/04 A2991 340 58 100 160/05 RMK AO2 SLP127 T01170039 58014 $
94790KART ART20160611040010906/11/16 04:00:31  5-MIN KART 110900Z AUTO 14004KT 10SM CLR 12/04 A2991 340 58 100 150/04 RMK AO2 T01170039 $
94790KART ART20160611040510906/11/16 04:05:31  5-MIN KART 110905Z AUTO 14004KT 10SM CLR 12/04 A2990 350 58 100 150/04 RMK AO2 T01170039 $
94790KART ART20160611041010906/11/16 04:10:31  5-MIN KART 110910Z AUTO 14003KT 10SM CLR 12/04 A2990 350 58 100 150/03 RMK AO2 T01170039 $
94790KART ART20160611041510906/11/16 04:15:31  5-MIN KART 110915Z AUTO 00000KT 10SM CLR 12/04 A2990 350 58 100 000/00 RMK AO2 T01170039 $
94790KART ART20160611042010906/11/16 04:20:31  5-MIN KART 110920Z AUTO 00000KT 10SM CLR 12/04 A2990 350 56 100 000/00 RMK AO2 T01220039 $
94790KART ART20160611042510906/11/16 04:25:31  5-MIN KART 110925Z AUTO 00000KT 10SM CLR 12/04 A2990 350 56 100 000/00 RMK AO2 T01220039 $
94790KART ART20160611043010906/11/16 04:30:31  5-MIN KART 110930Z AUTO 00000KT 10SM CLR 12/04 A2990 350 56 100 000/00 RMK AO2 T01220039 $
94790KART ART20160611043510906/11/16 04:35:31  5-MIN KART 110935Z AUTO 00000KT 10SM CLR 12/04 A2989 350 56 100 000/00 RMK AO2 T01220039 $
94790KART ART20160611044010906/11/16 04:40:31  5-MIN KART 110940Z AUTO 08003KT 10SM CLR 12/04 A2989 360 56 200 090/03 RMK AO2 T01220039 $
94790KART ART20160611044510906/11/16 04:45:31  5-MIN KART 110945Z AUTO 00000KT 10SM CLR 12/04 A2989 360 58 100 000/00 RMK AO2 T01170039 $
94790KART ART20160611045011606/11/16 04:50:31  5-MIN KART 110950Z AUTO 00000KT 10SM CLR 12/04 A2989 360 56 200 000/00 RMK AO2 SLP120 T01220039 $
94790KART ART20160611045511606/11/16 04:55:31  5-MIN KART 110955Z AUTO 00000KT 10SM CLR 12/04 A2988 370 61 100 000/00 RMK AO2 SLP116 T01170044 $
94790KART ART20160611050010906/11/16 05:00:31  5-MIN KART 111000Z AUTO 10003KT 10SM CLR 12/04 A2987 380 59 200 110/03 RMK AO2 T01220044 $
94790KART ART20160611050510906/11/16 05:05:31  5-MIN KART 111005Z AUTO 00000KT 10SM CLR 12/04 A2987 380 59 200 000/00 RMK AO2 T01220044 $
94790KART ART20160611051010906/11/16 05:10:31  5-MIN KART 111010Z AUTO VRB03KT 10SM CLR 12/04 A2987 380 59 200 VRB/03 RMK AO2 T01220044 $
94790KART ART20160611051510906/11/16 05:15:31  5-MIN KART 111015Z AUTO 11003KT 10SM CLR 13/04 A2986 390 56 300 120/03 RMK AO2 T01280044 $
94790KART ART20160611052010906/11/16 05:20:31  5-MIN KART 111020Z AUTO 00000KT 10SM CLR 13/04 A2986 380 56 200 000/00 RMK AO2 T01280044 $
94790KART ART20160611052510906/11/16 05:25:31  5-MIN KART 111025Z AUTO 00000KT 10SM CLR 14/04 A2987 380 50 400 000/00 RMK AO2 T01390039 $
94790KART ART20160611053011206/11/16 05:30:31  5-MIN KART 111030Z AUTO 00000KT 10SM FEW095 14/04 A2987 380 50 400 000/00 RMK AO2 T01390039 $
94790KART ART20160611053511206/11/16 05:35:31  5-MIN KART 111035Z AUTO 00000KT 10SM SCT095 14/04 A2987 370 52 400 000/00 RMK AO2 T01390044 $
94790KART ART20160611054012606/11/16 05:40:31  5-MIN KART 111040Z AUTO 03003KT 10SM FEW060 BKN095 14/04 A2988 360 51 400 050/03 RMK AO2 PRESRR T01440044 $
94790KART ART20160611054512606/11/16 05:45:31  5-MIN KART 111045Z AUTO 35005KT 10SM SCT060 BKN095 14/05 A2989 360 53 400 360/05 RMK AO2 PRESRR T01440050 $
94790KART ART20160611055012706/11/16 05:50:31  5-MIN KART 111050Z AUTO 36007KT 2 1/2SM RA SCT055 BKN090 13/08 A2989 360 74 200 010/07 RMK AO2 RAB47 P0001 $
94790KART ART20160611055515506/11/16 05:55:31  5-MIN KART 111055Z AUTO 01006KT 2 1/2SM -RA FEW055 OVC085 12/08 A2988 370 74 200 020/06 RMK AO2 VIS 3/4V5 RAB47 SLP117 P0002 T01220078 $
94790KART ART20160611060013506/11/16 06:00:31  5-MIN KART 111100Z AUTO 03007KT 6SM -RA FEW060 BKN080 OVC095 12/08 A2988 370 80 100 040/07 RMK AO2 P0000 T01170083 $
94790KART ART20160611060513506/11/16 06:05:31  5-MIN KART 111105Z AUTO 04005KT 6SM -RA FEW050 BKN075 OVC090 12/07 A2988 370 74 100 050/05 RMK AO2 P0000 T01170072 $
94790KART ART20160611061012606/11/16 06:10:31  5-MIN KART 111110Z AUTO 09004KT 4SM -RA FEW050 OVC075 11/08 A2988 370 80 0 100/04 RMK AO2 P0001 T01110078 $
94790KART ART20160611061512906/11/16 06:15:31  5-MIN KART 111115Z AUTO 09003KT 4SM -RA BR SCT055 OVC075 11/08 A2988 370 86 0 100/03 RMK AO2 P0001 T01060083 $
94790KART ART20160611062012906/11/16 06:20:31  5-MIN KART 111120Z AUTO 07003KT 6SM -RA BR SCT055 OVC075 11/08 A2988 370 86 0 080/03 RMK AO2 P0001 T01060083 $
94790KART ART20160611062512906/11/16 06:25:31  5-MIN KART 111125Z AUTO 10004KT 5SM -RA BR SCT055 OVC070 11/09 A2987 380 89 0 120/04 RMK AO2 P0002 T01060089 $
94790KART ART20160611063014306/11/16 06:30:31  5-MIN KART 111130Z AUTO 11006KT 4SM -RA BR FEW055 BKN070 OVC090 11/09 A2985 390 89 0 120/06 RMK AO2 PRESFR P0003 T01060089 $
94790KART ART20160611063513506/11/16 06:35:31  5-MIN KART 111135Z AUTO 10005KT 3SM RA BR FEW055 BKN070 OVC095 11/08 A2985 390 86 0 110/05 RMK AO2 P0004 T01060083 $
94790KART ART20160611064014206/11/16 06:40:31  5-MIN KART 111140Z AUTO 10005KT 3SM RA BR FEW055 BKN070 OVC095 11/08 A2984 410 86 0 110/05 RMK AO2 PRESFR P0004 T01060083 $
94790KART ART20160611064513606/11/16 06:45:31  5-MIN KART 111145Z AUTO 12003KT 5SM -RA BR FEW050 BKN100 OVC120 11/09 A2983 410 89 0 130/03 RMK AO2 P0005 T01060089 $
94790KART ART20160611065016606/11/16 06:50:31  5-MIN KART 111150Z AUTO 10004KT 5SM -RA BR FEW070 OVC110 11/09 A2983 410 89 0 120/04 RMK AO2 SLP101 P0005 60007 70007 T01060089 10144 20067 58022 $
94790KART ART20160611065517506/11/16 06:55:31  5-MIN KART 111155Z AUTO 08004KT 4SM -RA BR FEW075 OVC110 11/09 A2982 430 89 100 090/04 RMK AO2 PRESFR SLP095 P0006 60008 70008 T01110094 10144 20067 58022 $
94790KART ART20160611070014506/11/16 07:00:31  5-MIN KART 111200Z AUTO 09004KT 4SM -RA BR FEW075 BKN100 OVC110 11/09 A2980 440 89 100 100/04 RMK AO2 PRESFR P0000 T01110094 $
94790KART ART20160611070513106/11/16 07:05:31  5-MIN KART 111205Z AUTO 12003KT 4SM -RA BR FEW080 OVC110 11/09 A2980 440 89 100 130/03 RMK AO2 P0001 T01110094 $
94790KART ART20160611071013506/11/16 07:10:31  5-MIN KART 111210Z AUTO 00000KT 7SM -RA FEW075 BKN100 OVC120 12/09 A2980 440 86 200 000/00 RMK AO2 P0001 T01170094 $
94790KART ART20160611071513606/11/16 07:15:31  5-MIN KART 111215Z AUTO 00000KT 10SM -RA FEW050 FEW075 OVC100 12/09 A2980 440 86 200 000/00 RMK AO2 P0001 T01170094 $
94790KART ART20160611072013606/11/16 07:20:31  5-MIN KART 111220Z AUTO 10004KT 10SM -RA SCT048 BKN100 OVC110 12/09 A2979 450 83 300 110/04 RMK AO2 P0001 T01220094 $
94790KART ART20160611072514506/11/16 07:25:31  5-MIN KART 111225Z AUTO 08006KT 10SM SCT045 BKN055 OVC100 12/09 A2977 470 83 300 090/06 RMK AO2 RAE25 PRESFR P0001 T01220094 $
94790KART ART20160611073013806/11/16 07:30:31  5-MIN KART 111230Z AUTO 08004KT 10SM SCT045 BKN055 OVC100 12/10 A2976 480 86 300 090/04 RMK AO2 RAE25 P0001 T01220100 $
94790KART ART20160611073513806/11/16 07:35:31  5-MIN KART 111235Z AUTO 02006KT 10SM BKN045 BKN055 OVC100 12/10 A2977 470 86 300 040/06 RMK AO2 RAE25 P0001 T01220100 $
94790KART ART20160611074016206/11/16 07:40:31  5-MIN KART 111240Z AUTO 34017G27KT 10SM BKN043 OVC055 12/10 A2982 430 86 200 360/17G27 RMK AO2 PK WND 33027/1240 RAE25 PRESRR P0001 T01220100 $
94790KART ART20160611074516406/11/16 07:45:31  5-MIN KART 111245Z AUTO 33018G35KT 5SM BR FEW030 OVC043 12/09 A2987 380 86 100 340/18G35 RMK AO2 PK WND 33035/1243 RAE25 PRESRR P0003 T01170094 $
94790KART ART20160611075020106/11/16 07:50:31  5-MIN KART 111250Z AUTO 03007G35KT 350V100 1/2SM VCTS +RA FG SCT018 BKN032 OVC044 11/09 A2984 400 89 100 050/07G35 360V110 RMK AO2 PK WND 33035/1243 RAE25B46 SLP105 P0025 T01110094 $
94790KART ART20160611075518806/11/16 07:55:31  5-MIN KART 111255Z AUTO 01011G15KT 1/4SM +TSRA FG BKN020 BKN030 OVC042 11/10 A2984 410 93 100 020/11G15 RMK AO2 PK WND 33035/1243 RAE25B46 TSB53 SLP102 P0031 T01110100 $
94790KART ART20160611080014006/11/16 08:00:31  5-MIN KART 111300Z AUTO 02003KT 1/2SM +TSRA FG BKN022 BKN030 OVC042 11/09 A2984 410 93 0 030/03 RMK AO2 P0001 T01060094 $
94790KART ART20160611080515406/11/16 08:05:31  5-MIN KART 111305Z AUTO 00000KT 1 1/4SM -TSRA BR BKN024 BKN030 OVC040 11/10 A2985 400 96 0 000/00 RMK AO2 LTG DSNT SE P0002 T01060100 $
94790KART ART20160611081015906/11/16 08:10:31  5-MIN KART 111310Z AUTO 13006KT 3SM VCTS -RA BR SCT022 BKN030 OVC055 11/10 A2982 420 96 0 140/06 RMK AO2 LTG DSNT SE TSE08 P0002 T01060100 $
94790KART ART20160611081515906/11/16 08:15:31  5-MIN KART 111315Z AUTO VRB03KT 5SM VCTS -RA BR SCT022 BKN027 OVC060 11/10 A2982 430 96 0 VRB/03 RMK AO2 LTG DSNT SE TSE08 P0002 T01060100 $
94790KART ART20160611082015106/11/16 08:20:31  5-MIN KART 111320Z AUTO VRB05KT 7SM -RA SCT024 BKN044 OVC050 11/10 A2981 440 96 0 VRB/05 RMK AO2 LTG DSNT SE TSE08 P0002 T01060100 $
94790KART ART20160611082515506/11/16 08:25:31  5-MIN KART 111325Z AUTO VRB03KT 9SM FEW026 BKN041 OVC055 11/10 A2980 440 93 100 VRB/03 RMK AO2 LTG DSNT SE RAE24 TSE08 P0002 T01110100 $
94790KART ART20160611083015606/11/16 08:30:31  5-MIN KART 111330Z AUTO 15004KT 10SM SCT028 BKN039 OVC055 11/11 A2980 450 96 100 170/04 RMK AO2 LTG DSNT SE RAE24 TSE08 P0002 T01110106 $
94790KART ART20160611083515606/11/16 08:35:31  5-MIN KART 111335Z AUTO VRB03KT 10SM SCT026 BKN036 OVC055 12/11 A2980 440 93 200 VRB/03 RMK AO2 LTG DSNT SE RAE24 TSE08 P0002 T01170106 $
94790KART ART20160611084014406/11/16 08:40:31  5-MIN KART 111340Z AUTO 15005KT 10SM FEW019 BKN026 OVC044 12/11 A2980 450 93 200 170/05 RMK AO2 RAE24 TSE08 P0002 T01170106 $
94790KART ART20160611084514406/11/16 08:45:31  5-MIN KART 111345Z AUTO 19004KT 10SM SCT021 BKN029 OVC036 12/11 A2979 450 93 200 200/04 RMK AO2 RAE24 TSE08 P0002 T01170106 $
94790KART ART20160611085015106/11/16 08:50:31  5-MIN KART 111350Z AUTO 18004KT 10SM FEW021 BKN029 OVC036 12/11 A2979 450 93 200 190/04 RMK AO2 RAE24 TSE08 SLP088 P0002 T01170106 $
94790KART ART20160611085514406/11/16 08:55:31  5-MIN KART 111355Z AUTO 16005KT 10SM SCT019 OVC027 12/11 A2979 450 93 200 180/05 RMK AO2 RAE24 TSE08 SLP087 P0002 T01170106 $
94790KART ART20160611090011906/11/16 09:00:31  5-MIN KART 111400Z AUTO 16005KT 10SM BKN019 OVC027 12/11 A2978 460 93 200 180/05 RMK AO2 T01170106 $
94790KART ART20160611090511906/11/16 09:05:31  5-MIN KART 111405Z AUTO VRB04KT 10SM BKN017 OVC027 12/11 A2978 460 93 300 VRB/04 RMK AO2 T01220111 $
94790KART ART20160611091011906/11/16 09:10:31  5-MIN KART 111410Z AUTO 15003KT 10SM BKN015 OVC027 12/11 A2977 470 93 300 170/03 RMK AO2 T01220111 $
94790KART ART20160611091511906/11/16 09:15:31  5-MIN KART 111415Z AUTO VRB03KT 10SM BKN015 OVC027 13/12 A2978 460 93 300 VRB/03 RMK AO2 T01280117 $
94790KART ART20160611092011206/11/16 09:20:31  5-MIN KART 111420Z AUTO VRB03KT 10SM OVC015 13/12 A2977 470 93 400 VRB/03 RMK AO2 T01280117 $
94790KART ART20160611092511206/11/16 09:25:31  5-MIN KART 111425Z AUTO 00000KT 10SM OVC015 13/12 A2978 460 93 300 000/00 RMK AO2 T01280117 $
94790KART ART20160611093011206/11/16 09:30:31  5-MIN KART 111430Z AUTO VRB03KT 10SM OVC015 13/12 A2978 460 93 300 VRB/03 RMK AO2 T01280117 $
94790KART ART20160611093511206/11/16 09:35:31  5-MIN KART 111435Z AUTO 00000KT 10SM OVC014 13/12 A2978 460 93 300 000/00 RMK AO2 T01280117 $
94790KART ART20160611094011206/11/16 09:40:31  5-MIN KART 111440Z AUTO 00000KT 10SM OVC014 13/12 A2977 470 93 400 000/00 RMK AO2 T01330122 $
94790KART ART20160611094511206/11/16 09:45:31  5-MIN KART 111445Z AUTO 00000KT 10SM OVC014 13/12 A2977 470 93 400 000/00 RMK AO2 T01330122 $
94790KART ART20160611095013106/11/16 09:50:31  5-MIN KART 111450Z AUTO 20003KT 10SM OVC014 13/12 A2977 470 93 400 210/03 RMK AO2 SLP080 60034 T01330122 58023 $
94790KART ART20160611095513106/11/16 09:55:31  5-MIN KART 111455Z AUTO VRB03KT 10SM OVC014 14/13 A2977 470 93 500 VRB/03 RMK AO2 SLP080 60034 T01390128 58023 $
94790KART ART20160611100011206/11/16 10:00:31  5-MIN KART 111500Z AUTO 00000KT 10SM OVC014 14/13 A2977 470 93 500 000/00 RMK AO2 T01390128 $
94790KART ART20160611100511206/11/16 10:05:31  5-MIN KART 111505Z AUTO VRB04KT 10SM OVC014 14/13 A2976 470 93 600 VRB/04 RMK AO2 T01440133 $
94790KART ART20160611101011206/11/16 10:10:31  5-MIN KART 111510Z AUTO 21005KT 10SM OVC016 15/13 A2976 480 90 600 220/05 RMK AO2 T01500133 $
94790KART ART20160611101511206/11/16 10:15:31  5-MIN KART 111515Z AUTO 20006KT 10SM OVC016 16/13 A2976 480 86 700 210/06 RMK AO2 T01560133 $
94790KART ART20160611102011206/11/16 10:20:31  5-MIN KART 111520Z AUTO VRB03KT 10SM OVC016 16/14 A2976 480 86 800 VRB/03 RMK AO2 T01610139 $
94790KART ART20160611102511206/11/16 10:25:31  5-MIN KART 111525Z AUTO 20007KT 10SM OVC017 16/14 A2975 480 86 800 210/07 RMK AO2 T01610139 $
94790KART ART20160611103011206/11/16 10:30:31  5-MIN KART 111530Z AUTO 22007KT 10SM OVC019 17/14 A2976 480 86 800 230/07 RMK AO2 T01670144 $
94790KART ART20160611103511206/11/16 10:35:31  5-MIN KART 111535Z AUTO 22007KT 10SM OVC019 17/14 A2976 480 83 900 230/07 RMK AO2 T01720144 $
94790KART ART20160611104012806/11/16 10:40:31  5-MIN KART 111540Z AUTO 21007KT 190V250 10SM OVC019 17/14 A2975 480 83 900 220/07 200V260 RMK AO2 T01720144 $
94790KART ART20160611104511306/11/16 10:45:31  5-MIN KART 111545Z AUTO 22007KT 10SM OVC019 18/15 A2975 490 83 1000 230/07 RMK AO2 T01780150 $
94790KART ART20160611105012006/11/16 10:50:31  5-MIN KART 111550Z AUTO 20009KT 10SM OVC021 18/15 A2975 490 81 1000 220/09 RMK AO2 SLP071 T01830150 $
94790KART ART20160611105512706/11/16 10:55:31  5-MIN KART 111555Z AUTO 21010KT 10SM BKN021 BKN080 19/16 A2974 490 81 1100 220/10 RMK AO2 SLP070 T01890156 $
94790KART ART20160611110011306/11/16 11:00:31  5-MIN KART 111600Z AUTO 21008KT 10SM BKN020 19/16 A2974 490 81 1100 220/08 RMK AO2 T01890156 $
94790KART ART20160611110511306/11/16 11:05:31  5-MIN KART 111605Z AUTO 21010KT 10SM BKN020 19/16 A2974 500 78 1200 220/10 RMK AO2 T01940156 $
94790KART ART20160611111011306/11/16 11:10:31  5-MIN KART 111610Z AUTO 21008KT 10SM BKN020 19/16 A2974 500 78 1200 230/08 RMK AO2 T01940156 $
94790KART ART20160611111511306/11/16 11:15:31  5-MIN KART 111615Z AUTO 22009KT 10SM BKN019 20/16 A2973 510 78 1200 230/09 RMK AO2 T02000161 $
94790KART ART20160611112011906/11/16 11:20:31  5-MIN KART 111620Z AUTO 21012G17KT 10SM SCT019 20/16 A2973 510 78 1300 230/12G17 RMK AO2 T02000161 $
94790KART ART20160611112511906/11/16 11:25:31  5-MIN KART 111625Z AUTO 21010G17KT 10SM SCT019 20/16 A2972 510 78 1300 220/10G17 RMK AO2 T02000161 $
94790KART ART20160611113011906/11/16 11:30:31  5-MIN KART 111630Z AUTO 22011G17KT 10SM FEW019 21/16 A2972 520 75 1300 230/11G17 RMK AO2 T02060161 $
94790KART ART20160611113511906/11/16 11:35:31  5-MIN KART 111635Z AUTO 21009G17KT 10SM FEW019 21/17 A2972 520 75 1400 220/09G17 RMK AO2 T02110167 $
94790KART ART20160611114011906/11/16 11:40:31  5-MIN KART 111640Z AUTO 23010G18KT 10SM FEW060 22/17 A2972 510 73 1400 240/10G18 RMK AO2 T02170167 $
94790KART ART20160611114511906/11/16 11:45:31  5-MIN KART 111645Z AUTO 21012G18KT 10SM SCT060 21/17 A2972 510 75 1400 230/12G18 RMK AO2 T02110167 $
94790KART ART20160611115012006/11/16 11:50:31  5-MIN KART 111650Z AUTO 24011KT 10SM BKN060 22/16 A2973 510 70 1400 260/11 RMK AO2 SLP064 T02170161 $
94790KART ART20160611115512006/11/16 11:55:31  5-MIN KART 111655Z AUTO 24010KT 10SM BKN060 21/17 A2973 510 75 1400 250/10 RMK AO2 SLP065 T02110167 $
94790KART ART20160611120011306/11/16 12:00:31  5-MIN KART 111700Z AUTO 25010KT 10SM BKN060 21/17 A2973 510 75 1400 260/10 RMK AO2 T02110167 $
94790KART ART20160611120513206/11/16 12:05:31  5-MIN KART 111705Z AUTO 24011G18KT 9SM FEW020 SCT035 OVC060 21/16 A2973 500 73 1400 260/11G18 RMK AO2 T02110161 $
94790KART ART20160611121013206/11/16 12:10:31  5-MIN KART 111710Z AUTO 24013G20KT 9SM FEW020 BKN033 OVC060 21/16 A2974 500 73 1400 250/13G20 RMK AO2 T02110161 $
94790KART ART20160611121513206/11/16 12:15:31  5-MIN KART 111715Z AUTO 24011G20KT 9SM FEW020 BKN033 OVC060 21/16 A2974 500 75 1300 250/11G20 RMK AO2 T02060161 $
94790KART ART20160611122013206/11/16 12:20:31  5-MIN KART 111720Z AUTO 24011G20KT 9SM SCT020 BKN033 OVC060 21/16 A2974 500 73 1300 250/11G20 RMK AO2 T02060156 $
94790KART ART20160611122512506/11/16 12:25:31  5-MIN KART 111725Z AUTO 25011G19KT 9SM SCT020 OVC031 20/16 A2974 500 75 1200 260/11G19 RMK AO2 T02000156 $
94790KART ART20160611123012506/11/16 12:30:31  5-MIN KART 111730Z AUTO 24012G19KT 9SM FEW020 OVC031 20/16 A2974 500 75 1200 260/12G19 RMK AO2 T02000156 $
94790KART ART20160611123512606/11/16 12:35:31  5-MIN KART 111735Z AUTO 24012G19KT 10SM FEW020 OVC029 20/16 A2974 500 75 1200 250/12G19 RMK AO2 T02000156 $
94790KART ART20160611124012606/11/16 12:40:31  5-MIN KART 111740Z AUTO 24011G19KT 10SM FEW020 OVC029 20/16 A2974 500 75 1200 250/11G19 RMK AO2 T02000156 $
94790KART ART20160611124512606/11/16 12:45:31  5-MIN KART 111745Z AUTO 24011G19KT 10SM FEW020 OVC029 19/16 A2974 500 78 1200 250/11G19 RMK AO2 T01940156 $
94790KART ART20160611125015606/11/16 12:50:31  5-MIN KART 111750Z AUTO 23010G25KT 9SM BKN029 OVC040 19/16 A2973 500 78 1200 250/10G25 RMK AO2 SLP067 60034 T01940156 10217 20106 58014 $
94790KART ART20160611125515606/11/16 12:55:31  5-MIN KART 111755Z AUTO 24011G25KT 9SM BKN029 OVC038 19/16 A2974 500 78 1200 250/11G25 RMK AO2 SLP068 60034 T01940156 10217 20106 58014 $
94790KART ART20160611130012506/11/16 13:00:31  5-MIN KART 111800Z AUTO 25012G19KT 9SM BKN029 OVC038 19/15 A2974 500 75 1200 260/12G19 RMK AO2 T01940150 $
94790KART ART20160611130511806/11/16 13:05:31  5-MIN KART 111805Z AUTO 25008G19KT 9SM OVC031 19/15 A2974 500 78 1100 260/08G19 RMK AO2 T01890150 $
94790KART ART20160611131012506/11/16 13:10:31  5-MIN KART 111810Z AUTO 25010G19KT 9SM BKN031 OVC038 19/15 A2973 500 78 1100 270/10G19 RMK AO2 T01890150 $
94790KART ART20160611131512506/11/16 13:15:31  5-MIN KART 111815Z AUTO 25007G16KT 9SM SCT023 OVC031 19/15 A2973 500 78 1100 260/07G16 RMK AO2 T01890150 $
94790KART ART20160611132011906/11/16 13:20:31  5-MIN KART 111820Z AUTO 25007KT 9SM BKN024 OVC031 18/15 A2973 510 81 1100 260/07 RMK AO2 T01830150 $
94790KART ART20160611132512606/11/16 13:25:31  5-MIN KART 111825Z AUTO 23008KT 9SM BKN024 BKN031 OVC036 19/15 A2972 510 78 1100 250/08 RMK AO2 T01890150 $
94790KART ART20160611133012606/11/16 13:30:31  5-MIN KART 111830Z AUTO 22007KT 9SM SCT023 BKN031 OVC036 19/15 A2972 510 78 1100 230/07 RMK AO2 T01890150 $
94790KART ART20160611133512606/11/16 13:35:31  5-MIN KART 111835Z AUTO 23007KT 9SM SCT025 BKN029 OVC036 19/15 A2972 510 78 1100 240/07 RMK AO2 T01890150 $
94790KART ART20160611134011906/11/16 13:40:31  5-MIN KART 111840Z AUTO 24006KT 9SM BKN025 OVC036 19/15 A2972 510 78 1100 250/06 RMK AO2 T01890150 $
94790KART ART20160611134511906/11/16 13:45:31  5-MIN KART 111845Z AUTO 22007KT 9SM BKN023 OVC036 19/15 A2972 520 78 1100 240/07 RMK AO2 T01890150 $
94790KART ART20160611135012606/11/16 13:50:31  5-MIN KART 111850Z AUTO 24007KT 9SM BKN023 OVC036 19/15 A2972 520 78 1100 260/07 RMK AO2 SLP062 T01890150 $
94790KART ART20160611135512606/11/16 13:55:31  5-MIN KART 111855Z AUTO 25006KT 9SM BKN024 OVC036 19/15 A2972 520 78 1100 260/06 RMK AO2 SLP063 T01890150 $
94790KART ART20160611140011906/11/16 14:00:31  5-MIN KART 111900Z AUTO 24007KT 9SM BKN024 OVC038 19/15 A2971 520 78 1100 250/07 RMK AO2 T01890150 $
94790KART ART20160611140511906/11/16 14:05:31  5-MIN KART 111905Z AUTO 24006KT 9SM BKN023 OVC038 19/15 A2971 520 78 1100 250/06 RMK AO2 T01890150 $
94790KART ART20160611141011906/11/16 14:10:31  5-MIN KART 111910Z AUTO 24006KT 9SM SCT023 OVC038 19/15 A2971 520 78 1100 250/06 RMK AO2 T01890150 $
94790KART ART20160611141511906/11/16 14:15:31  5-MIN KART 111915Z AUTO 26009KT 9SM FEW023 OVC038 19/15 A2972 520 78 1100 270/09 RMK AO2 T01890150 $
94790KART ART20160611142011906/11/16 14:20:31  5-MIN KART 111920Z AUTO 25007KT 9SM FEW023 OVC038 19/15 A2972 520 78 1100 260/07 RMK AO2 T01890150 $
94790KART ART20160611142511906/11/16 14:25:31  5-MIN KART 111925Z AUTO 24007KT 9SM FEW022 OVC036 19/15 A2972 520 78 1100 260/07 RMK AO2 T01890150 $
94790KART ART20160611143011206/11/16 14:30:31  5-MIN KART 111930Z AUTO 23008KT 9SM OVC036 19/15 A2972 520 78 1100 240/08 RMK AO2 T01890150 $
94790KART ART20160611143511906/11/16 14:35:31  5-MIN KART 111935Z AUTO 24007KT 9SM BKN030 OVC037 19/15 A2972 520 78 1100 250/07 RMK AO2 T01890150 $
94790KART ART20160611144011906/11/16 14:40:31  5-MIN KART 111940Z AUTO 24006KT 9SM BKN029 OVC037 19/15 A2972 520 75 1200 260/06 RMK AO2 T01940150 $
94790KART ART20160611144511906/11/16 14:45:31  5-MIN KART 111945Z AUTO 23009KT 9SM BKN029 OVC037 19/15 A2972 520 75 1200 240/09 RMK AO2 T01940150 $
94790KART ART20160611145012606/11/16 14:50:31  5-MIN KART 111950Z AUTO 24007KT 9SM BKN029 OVC037 20/16 A2972 520 75 1300 250/07 RMK AO2 SLP061 T02000156 $
94790KART ART20160611145512606/11/16 14:55:31  5-MIN KART 111955Z AUTO 25007KT 9SM SCT029 OVC037 20/16 A2972 520 75 1300 260/07 RMK AO2 SLP061 T02000156 $
94790KART ART20160611150011906/11/16 15:00:31  5-MIN KART 112000Z AUTO 25005KT 9SM SCT029 OVC037 20/16 A2971 520 75 1300 260/05 RMK AO2 T02000156 $
94790KART ART20160611150512606/11/16 15:05:31  5-MIN KART 112005Z AUTO 25005KT 9SM FEW029 BKN037 OVC043 21/16 A2971 520 73 1300 270/05 RMK AO2 T02060156 $
94790KART ART20160611151011206/11/16 15:10:31  5-MIN KART 112010Z AUTO 22007KT 9SM BKN036 21/16 A2970 530 73 1400 240/07 RMK AO2 T02110161 $
94790KART ART20160611151511706/11/16 15:15:31  5-MIN KART 112015Z AUTO 23008KT 9SM SCT036 22/16 A2970 530 70 1500 240/08 RMK AO2 T02170161 TSNO $
94790KART ART20160611152011706/11/16 15:20:31  5-MIN KART 112020Z AUTO 23008KT 9SM BKN036 21/16 A2970 530 73 1400 240/08 RMK AO2 T02110161 TSNO $
94790KART ART20160611152511706/11/16 15:25:31  5-MIN KART 112025Z AUTO 24008KT 9SM SCT035 22/16 A2970 540 70 1500 250/08 RMK AO2 T02170161 TSNO $
94790KART ART20160611153011806/11/16 15:30:31  5-MIN KART 112030Z AUTO 25007KT 10SM BKN035 22/17 A2970 540 73 1500 260/07 RMK AO2 T02170167 TSNO $
94790KART ART20160611153511806/11/16 15:35:31  5-MIN KART 112035Z AUTO 26008KT 10SM BKN033 22/17 A2969 540 70 1500 270/08 RMK AO2 T02220167 TSNO $
94790KART ART20160611154011306/11/16 15:40:31  5-MIN KART 112040Z AUTO 26007KT 10SM SCT033 22/17 A2969 540 70 1500 280/07 RMK AO2 T02220167 $
94790KART ART20160611154511306/11/16 15:45:31  5-MIN KART 112045Z AUTO 25007KT 10SM SCT033 23/17 A2970 540 70 1600 270/07 RMK AO2 T02280172 $
94790KART ART20160611155012606/11/16 15:50:31  5-MIN KART 112050Z AUTO 26009KT 10SM FEW033 23/17 A2970 540 70 1600 270/09 RMK AO2 SLP053 T02280172 55011 $
94790KART ART20160611155512606/11/16 15:55:31  5-MIN KART 112055Z AUTO 23007KT 10SM FEW033 23/17 A2969 540 70 1600 250/07 RMK AO2 SLP052 T02280172 55011 $
94790KART ART20160611160011306/11/16 16:00:31  5-MIN KART 112100Z AUTO 25009KT 10SM FEW033 23/17 A2969 540 70 1600 270/09 RMK AO2 T02280172 $
94790KART ART20160611160511006/11/16 16:05:31  5-MIN KART 112105Z AUTO 26009KT 10SM CLR 23/18 A2970 540 73 1600 270/09 RMK AO2 T02280178 $
94790KART ART20160611161011006/11/16 16:10:31  5-MIN KART 112110Z AUTO 25008KT 10SM CLR 23/17 A2970 540 70 1600 260/08 RMK AO2 T02280172 $
94790KART ART20160611161511006/11/16 16:15:31  5-MIN KART 112115Z AUTO 26008KT 10SM CLR 23/17 A2970 540 70 1600 270/08 RMK AO2 T02280172 $
94790KART ART20160611162011006/11/16 16:20:31  5-MIN KART 112120Z AUTO 25008KT 10SM CLR 22/17 A2970 540 70 1500 260/08 RMK AO2 T02220167 $
94790KART ART20160611162511006/11/16 16:25:31  5-MIN KART 112125Z AUTO 25009KT 10SM CLR 22/17 A2970 540 73 1500 260/09 RMK AO2 T02220172 $
94790KART ART20160611163011006/11/16 16:30:31  5-MIN KART 112130Z AUTO 26009KT 10SM CLR 22/17 A2970 540 73 1500 270/09 RMK AO2 T02220172 $
94790KART ART20160611163511006/11/16 16:35:31  5-MIN KART 112135Z AUTO 26009KT 10SM CLR 22/17 A2970 540 73 1500 270/09 RMK AO2 T02220172 $
94790KART ART20160611164011006/11/16 16:40:31  5-MIN KART 112140Z AUTO 26008KT 10SM CLR 22/17 A2970 540 70 1500 270/08 RMK AO2 T02220167 $
94790KART ART20160611164511006/11/16 16:45:31  5-MIN KART 112145Z AUTO 27008KT 10SM CLR 22/17 A2970 540 73 1500 280/08 RMK AO2 T02220172 $
94790KART ART20160611165011706/11/16 16:50:31  5-MIN KART 112150Z AUTO 26007KT 10SM CLR 22/17 A2969 540 75 1500 270/07 RMK AO2 SLP053 T02170172 $
94790KART ART20160611165511706/11/16 16:55:31  5-MIN KART 112155Z AUTO 27008KT 10SM CLR 22/17 A2970 540 73 1500 290/08 RMK AO2 SLP053 T02220172 $
94790KART ART20160611170011006/11/16 17:00:31  5-MIN KART 112200Z AUTO 27008KT 10SM CLR 22/17 A2969 540 75 1500 280/08 RMK AO2 T02170172 $
94790KART ART20160611170510906/11/16 17:05:31  5-MIN KART 112205Z AUTO 28007KT 9SM CLR 22/17 A2969 540 75 1500 290/07 RMK AO2 T02170172 $
94790KART ART20160611171010906/11/16 17:10:31  5-MIN KART 112210Z AUTO 24006KT 9SM CLR 22/17 A2969 540 73 1500 260/06 RMK AO2 T02220172 $
94790KART ART20160611171511006/11/16 17:15:31  5-MIN KART 112215Z AUTO 25007KT 10SM CLR 22/17 A2969 540 73 1500 260/07 RMK AO2 T02170167 $
94790KART ART20160611172011006/11/16 17:20:31  5-MIN KART 112220Z AUTO 25006KT 10SM CLR 22/17 A2969 540 73 1500 260/06 RMK AO2 T02170167 $
94790KART ART20160611172510906/11/16 17:25:31  5-MIN KART 112225Z AUTO 24009KT 9SM CLR 21/17 A2969 540 75 1400 250/09 RMK AO2 T02110167 $
94790KART ART20160611173010906/11/16 17:30:31  5-MIN KART 112230Z AUTO 23009KT 8SM CLR 21/16 A2969 540 75 1400 240/09 RMK AO2 T02060161 $
94790KART ART20160611173510906/11/16 17:35:31  5-MIN KART 112235Z AUTO 24009KT 7SM CLR 21/16 A2969 540 75 1400 250/09 RMK AO2 T02060161 $
94790KART ART20160611174010906/11/16 17:40:31  5-MIN KART 112240Z AUTO 23010KT 7SM CLR 21/16 A2969 540 75 1400 240/10 RMK AO2 T02060161 $
94790KART ART20160611174510906/11/16 17:45:31  5-MIN KART 112245Z AUTO 24007KT 7SM CLR 21/16 A2969 540 73 1400 250/07 RMK AO2 T02060156 $
94790KART ART20160611175011606/11/16 17:50:31  5-MIN KART 112250Z AUTO 23007KT 7SM CLR 21/16 A2969 540 75 1400 250/07 RMK AO2 SLP052 T02060161 $
94790KART ART20160611175511606/11/16 17:55:31  5-MIN KART 112255Z AUTO 25006KT 7SM CLR 21/16 A2969 540 75 1400 260/06 RMK AO2 SLP052 T02060161 $
94790KART ART20160611180010906/11/16 18:00:31  5-MIN KART 112300Z AUTO 25006KT 7SM CLR 20/16 A2969 540 78 1300 270/06 RMK AO2 T02000161 $
94790KART ART20160611180510906/11/16 18:05:31  5-MIN KART 112305Z AUTO 26006KT 7SM CLR 20/16 A2969 540 78 1300 270/06 RMK AO2 T02000161 $
94790KART ART20160611181011206/11/16 18:10:31  5-MIN KART 112310Z AUTO 25006KT 6SM HZ CLR 20/16 A2969 540 78 1300 270/06 RMK AO2 T02000161 $
94790KART ART20160611181510906/11/16 18:15:31  5-MIN KART 112315Z AUTO 24006KT 7SM CLR 20/16 A2969 540 78 1300 250/06 RMK AO2 T02000161 $
94790KART ART20160611182010906/11/16 18:20:31  5-MIN KART 112320Z AUTO 23009KT 8SM CLR 20/16 A2969 540 75 1300 240/09 RMK AO2 T02000156 $
94790KART ART20160611182511006/11/16 18:25:31  5-MIN KART 112325Z AUTO 23008KT 10SM CLR 20/15 A2969 540 72 1300 250/08 RMK AO2 T02000150 $
94790KART ART20160611183011006/11/16 18:30:31  5-MIN KART 112330Z AUTO 24006KT 10SM CLR 20/16 A2969 540 75 1300 250/06 RMK AO2 T02000156 $
94790KART ART20160611183511006/11/16 18:35:31  5-MIN KART 112335Z AUTO 24006KT 10SM CLR 19/16 A2969 540 78 1200 250/06 RMK AO2 T01940156 $
94790KART ART20160611184011006/11/16 18:40:31  5-MIN KART 112340Z AUTO 23006KT 10SM CLR 19/16 A2969 540 78 1200 240/06 RMK AO2 T01940156 $
94790KART ART20160611184511006/11/16 18:45:31  5-MIN KART 112345Z AUTO 23005KT 10SM CLR 19/16 A2969 540 78 1200 240/05 RMK AO2 T01940156 $
94790KART ART20160611185013506/11/16 18:50:31  5-MIN KART 112350Z AUTO 22005KT 10SM CLR 19/16 A2969 540 78 1200 240/05 RMK AO2 SLP053 T01940156 10228 20183 58015 $
94790KART ART20160611185513506/11/16 18:55:31  5-MIN KART 112355Z AUTO 21005KT 10SM CLR 19/16 A2969 540 78 1200 230/05 RMK AO2 SLP053 T01940156 10228 20183 58015 $
94790KART ART20160611190011006/11/16 19:00:31  5-MIN KART 120000Z AUTO 22006KT 10SM CLR 19/16 A2969 540 78 1200 230/06 RMK AO2 T01940156 $
94790KART ART20160611190511006/11/16 19:05:31  5-MIN KART 120005Z AUTO 22005KT 10SM CLR 19/15 A2969 540 75 1200 230/05 RMK AO2 T01940150 $
94790KART ART20160611191011006/11/16 19:10:31  5-MIN KART 120010Z AUTO 21006KT 10SM CLR 19/16 A2969 540 81 1200 220/06 RMK AO2 T01890156 $
94790KART ART20160611191511006/11/16 19:15:31  5-MIN KART 120015Z AUTO 21006KT 10SM CLR 19/15 A2969 540 75 1200 230/06 RMK AO2 T01940150 $
94790KART ART20160611192011006/11/16 19:20:31  5-MIN KART 120020Z AUTO 21005KT 10SM CLR 19/15 A2969 550 78 1200 220/05 RMK AO2 T01890150 $
94790KART ART20160611192511006/11/16 19:25:31  5-MIN KART 120025Z AUTO 21005KT 10SM CLR 19/16 A2968 550 81 1200 220/05 RMK AO2 T01890156 $
94790KART ART20160611193011006/11/16 19:30:31  5-MIN KART 120030Z AUTO 21005KT 10SM CLR 19/15 A2968 550 78 1200 220/05 RMK AO2 T01890150 $
94790KART ART20160611193511006/11/16 19:35:31  5-MIN KART 120035Z AUTO 21005KT 10SM CLR 18/15 A2968 550 81 1100 230/05 RMK AO2 T01830150 $
94790KART ART20160611194011006/11/16 19:40:31  5-MIN KART 120040Z AUTO 22005KT 10SM CLR 18/15 A2968 550 81 1100 230/05 RMK AO2 T01830150 $
94790KART ART20160611194511006/11/16 19:45:31  5-MIN KART 120045Z AUTO 22004KT 10SM CLR 18/15 A2968 550 83 1000 230/04 RMK AO2 T01780150 $
94790KART ART20160611195011706/11/16 19:50:31  5-MIN KART 120050Z AUTO 21004KT 10SM CLR 18/15 A2968 560 83 1100 220/04 RMK AO2 SLP047 T01780150 $
94790KART ART20160611195511706/11/16 19:55:31  5-MIN KART 120055Z AUTO 21005KT 10SM CLR 18/15 A2968 550 81 1100 220/05 RMK AO2 SLP048 T01830150 $
94790KART ART20160611200011006/11/16 20:00:31  5-MIN KART 120100Z AUTO 21005KT 10SM CLR 18/15 A2968 560 83 1100 220/05 RMK AO2 T01780150 $
94790KART ART20160611200511006/11/16 20:05:31  5-MIN KART 120105Z AUTO 20004KT 10SM CLR 18/15 A2968 560 83 1100 210/04 RMK AO2 T01780150 $
94790KART ART20160611201011006/11/16 20:10:31  5-MIN KART 120110Z AUTO 20004KT 10SM CLR 18/15 A2968 560 83 1100 210/04 RMK AO2 T01780150 $
94790KART ART20160611201511006/11/16 20:15:31  5-MIN KART 120115Z AUTO 19004KT 10SM CLR 18/15 A2968 560 83 1100 210/04 RMK AO2 T01780150 $
94790KART ART20160611202011006/11/16 20:20:31  5-MIN KART 120120Z AUTO 20004KT 10SM CLR 18/15 A2967 560 83 1100 210/04 RMK AO2 T01780150 $
94790KART ART20160611202511006/11/16 20:25:31  5-MIN KART 120125Z AUTO 20004KT 10SM CLR 18/15 A2967 560 83 1100 210/04 RMK AO2 T01780150 $
94790KART ART20160611203011306/11/16 20:30:31  5-MIN KART 120130Z AUTO 20004KT 10SM FEW065 17/15 A2967 560 87 1000 210/04 RMK AO2 T01720150 $
94790KART ART20160611203511306/11/16 20:35:31  5-MIN KART 120135Z AUTO 20004KT 10SM FEW065 17/15 A2967 560 87 1000 220/04 RMK AO2 T01720150 $
94790KART ART20160611204011906/11/16 20:40:31  5-MIN KART 120140Z AUTO 19004KT 9SM FEW065 FEW080 17/15 A2967 560 87 1000 210/04 RMK AO2 T01720150 $
94790KART ART20160611204512006/11/16 20:45:31  5-MIN KART 120145Z AUTO 19005KT 10SM FEW065 FEW080 17/15 A2967 560 87 1000 210/05 RMK AO2 T01720150 $
94790KART ART20160611205012706/11/16 20:50:31  5-MIN KART 120150Z AUTO 19005KT 10SM FEW065 FEW080 18/15 A2966 570 83 1100 210/05 RMK AO2 SLP043 T01780150 $
94790KART ART20160611205512706/11/16 20:55:31  5-MIN KART 120155Z AUTO 20004KT 10SM FEW065 FEW080 18/15 A2966 570 83 1100 210/04 RMK AO2 SLP043 T01780150 $
94790KART ART20160611210011306/11/16 21:00:31  5-MIN KART 120200Z AUTO 21005KT 10SM FEW080 17/15 A2966 570 87 1000 220/05 RMK AO2 T01720150 $
94790KART ART20160611210511006/11/16 21:05:31  5-MIN KART 120205Z AUTO 21004KT 10SM CLR 17/15 A2965 580 87 1000 220/04 RMK AO2 T01720150 $
94790KART ART20160611211011006/11/16 21:10:31  5-MIN KART 120210Z AUTO 21005KT 10SM CLR 18/15 A2965 580 83 1100 220/05 RMK AO2 T01780150 $
94790KART ART20160611211511006/11/16 21:15:31  5-MIN KART 120215Z AUTO 21004KT 10SM CLR 18/15 A2965 580 83 1100 220/04 RMK AO2 T01780150 $
94790KART ART20160611212011006/11/16 21:20:31  5-MIN KART 120220Z AUTO 20003KT 10SM CLR 18/15 A2965 590 83 1100 210/03 RMK AO2 T01780150 $
94790KART ART20160611212511006/11/16 21:25:31  5-MIN KART 120225Z AUTO 21004KT 10SM CLR 17/15 A2964 590 87 1000 220/04 RMK AO2 T01720150 $
94790KART ART20160611213011006/11/16 21:30:31  5-MIN KART 120230Z AUTO 20003KT 10SM CLR 17/15 A2964 590 87 1000 220/03 RMK AO2 T01720150 $
94790KART ART20160611213511306/11/16 21:35:31  5-MIN KART 120235Z AUTO 19004KT 10SM FEW095 18/15 A2964 590 83 1100 200/04 RMK AO2 T01780150 $
94790KART ART20160611214011306/11/16 21:40:31  5-MIN KART 120240Z AUTO 18004KT 10SM FEW095 18/15 A2964 590 81 1200 190/04 RMK AO2 T01830150 $
94790KART ART20160611214511306/11/16 21:45:31  5-MIN KART 120245Z AUTO 18004KT 10SM SCT095 19/15 A2964 590 78 1200 200/04 RMK AO2 T01890150 $
94790KART ART20160611215013306/11/16 21:50:31  5-MIN KART 120250Z AUTO 20003KT 10SM FEW070 SCT100 19/15 A2963 600 78 1200 210/03 RMK AO2 SLP032 T01890150 58001 $
94790KART ART20160611215513306/11/16 21:55:31  5-MIN KART 120255Z AUTO VRB03KT 10SM FEW070 SCT095 19/15 A2963 600 78 1200 VRB/03 RMK AO2 SLP031 T01890150 58001 $
94790KART ART20160611220012006/11/16 22:00:31  5-MIN KART 120300Z AUTO 23003KT 10SM SCT075 BKN100 19/15 A2963 600 78 1200 240/03 RMK AO2 T01890150 $
94790KART ART20160611220512006/11/16 22:05:31  5-MIN KART 120305Z AUTO 22004KT 10SM SCT070 BKN095 19/15 A2963 600 78 1200 230/04 RMK AO2 T01890150 $
94790KART ART20160611221012706/11/16 22:10:31  5-MIN KART 120310Z AUTO 00000KT 10SM SCT070 BKN090 BKN100 19/15 A2963 600 78 1200 000/00 RMK AO2 T01890150 $
94790KART ART20160611221512006/11/16 22:15:31  5-MIN KART 120315Z AUTO 22006KT 10SM BKN070 BKN095 19/15 A2963 600 78 1200 230/06 RMK AO2 T01890150 $
94790KART ART20160611222012006/11/16 22:20:31  5-MIN KART 120320Z AUTO 23006KT 10SM BKN070 OVC095 19/15 A2964 590 78 1200 240/06 RMK AO2 T01890150 $
94790KART ART20160611222512006/11/16 22:25:31  5-MIN KART 120325Z AUTO 23009KT 10SM SCT065 OVC090 19/15 A2964 590 78 1200 240/09 RMK AO2 T01890150 $
94790KART ART20160611223012006/11/16 22:30:31  5-MIN KART 120330Z AUTO 23010KT 10SM SCT065 OVC090 19/14 A2964 590 72 1300 250/10 RMK AO2 T01940144 $
94790KART ART20160611223512006/11/16 22:35:31  5-MIN KART 120335Z AUTO 23009KT 10SM FEW065 BKN095 19/14 A2964 590 75 1200 240/09 RMK AO2 T01890144 $
94790KART ART20160611224012706/11/16 22:40:31  5-MIN KART 120340Z AUTO 23008KT 10SM FEW065 FEW080 BKN095 19/14 A2963 600 75 1200 240/08 RMK AO2 T01890144 $
94790KART ART20160611224511306/11/16 22:45:31  5-MIN KART 120345Z AUTO 24008KT 10SM SCT090 19/14 A2963 600 72 1200 250/08 RMK AO2 T01890139 $
94790KART ART20160611225012006/11/16 22:50:31  5-MIN KART 120350Z AUTO 24007KT 10SM SCT090 19/14 A2963 600 72 1200 250/07 RMK AO2 SLP029 T01890139 $
94790KART ART20160611225512006/11/16 22:55:31  5-MIN KART 120355Z AUTO 23006KT 10SM FEW090 19/14 A2963 600 72 1200 240/06 RMK AO2 SLP028 T01890139 $
94790KART ART20160611230011006/11/16 23:00:31  5-MIN KART 120400Z AUTO 22006KT 10SM CLR 18/14 A2963 600 75 1200 230/06 RMK AO2 T01830139 $
94790KART ART20160611230511006/11/16 23:05:31  5-MIN KART 120405Z AUTO 24007KT 10SM CLR 19/14 A2963 600 72 1200 250/07 RMK AO2 T01890139 $
94790KART ART20160611231011006/11/16 23:10:31  5-MIN KART 120410Z AUTO 23009KT 10SM CLR 19/14 A2962 610 72 1200 240/09 RMK AO2 T01890139 $
94790KART ART20160611231511006/11/16 23:15:31  5-MIN KART 120415Z AUTO 22010KT 10SM CLR 19/14 A2962 610 75 1200 240/10 RMK AO2 T01890144 $
94790KART ART20160611232011006/11/16 23:20:31  5-MIN KART 120420Z AUTO 23011KT 10SM CLR 19/14 A2962 610 75 1300 240/11 RMK AO2 T01890144 $
94790KART ART20160611232511306/11/16 23:25:31  5-MIN KART 120425Z AUTO 22009KT 10SM FEW090 19/14 A2961 620 75 1300 230/09 RMK AO2 T01890144 $
94790KART ART20160611233011306/11/16 23:30:31  5-MIN KART 120430Z AUTO 23009KT 10SM FEW095 19/14 A2962 610 75 1200 240/09 RMK AO2 T01890144 $
94790KART ART20160611233511306/11/16 23:35:31  5-MIN KART 120435Z AUTO 23009KT 10SM SCT095 19/14 A2961 610 75 1300 240/09 RMK AO2 T01890144 $
94790KART ART20160611234011306/11/16 23:40:31  5-MIN KART 120440Z AUTO 23008KT 10SM SCT095 19/14 A2961 610 75 1300 240/08 RMK AO2 T01890144 $
94790KART ART20160611234512006/11/16 23:45:31  5-MIN KART 120445Z AUTO 23009KT 10SM FEW080 SCT100 19/14 A2962 610 75 1200 240/09 RMK AO2 T01890144 $
94790KART ART20160611235013706/11/16 23:50:31  5-MIN KART 120450Z AUTO 23009KT 10SM FEW080 SCT100 18/14 A2961 610 78 1200 240/09 RMK AO2 SLP024 T01830144 402280067 $
94790KART ART20160611235513006/11/16 23:55:31  5-MIN KART 120455Z AUTO 23008KT 10SM FEW095 18/14 A2961 620 78 1200 250/08 RMK AO2 SLP023 T01830144 402280067 $
94790KART ART20160612000012006/12/16 00:00:31  5-MIN KART 120500Z AUTO 23008KT 10SM FEW080 BKN095 18/14 A2961 620 78 1200 250/08 RMK AO2 T01830144 $
94790KART ART20160612000512006/12/16 00:05:31  5-MIN KART 120505Z AUTO 23010KT 10SM SCT080 BKN095 18/14 A2961 620 78 1200 240/10 RMK AO2 T01830144 $
94790KART ART20160612001012006/12/16 00:10:31  5-MIN KART 120510Z AUTO 23010KT 10SM SCT090 BKN100 18/14 A2960 630 78 1200 240/10 RMK AO2 T01830144 $
94790KART ART20160612001511306/12/16 00:15:31  5-MIN KART 120515Z AUTO 23010KT 10SM BKN095 18/14 A2960 630 78 1200 240/10 RMK AO2 T01830144 $
94790KART ART20160612002011306/12/16 00:20:31  5-MIN KART 120520Z AUTO 23009KT 10SM BKN095 18/14 A2960 630 78 1200 240/09 RMK AO2 T01830144 $
94790KART ART20160612002511306/12/16 00:25:31  5-MIN KART 120525Z AUTO 23009KT 10SM OVC095 18/14 A2959 630 78 1200 240/09 RMK AO2 T01830144 $
94790KART ART20160612003012006/12/16 00:30:31  5-MIN KART 120530Z AUTO 22008KT 10SM FEW070 OVC095 18/14 A2959 640 78 1200 240/08 RMK AO2 T01830144 $
94790KART ART20160612003512006/12/16 00:35:31  5-MIN KART 120535Z AUTO 23008KT 10SM FEW070 BKN095 18/14 A2959 640 78 1200 240/08 RMK AO2 T01830144 $
94790KART ART20160612004012006/12/16 00:40:31  5-MIN KART 120540Z AUTO 22008KT 10SM FEW070 BKN095 18/14 A2958 640 81 1200 240/08 RMK AO2 T01780144 $
94790KART ART20160612004512006/12/16 00:45:31  5-MIN KART 120545Z AUTO 22009KT 10SM FEW070 SCT095 18/14 A2958 640 78 1200 240/09 RMK AO2 T01780139 $
94790KART ART20160612005014506/12/16 00:50:31  5-MIN KART 120550Z AUTO 23007KT 10SM FEW070 SCT090 18/14 A2958 640 78 1200 240/07 RMK AO2 SLP014 T01780139 10194 20172 58020 $
94790KART ART20160612005514506/12/16 00:55:31  5-MIN KART 120555Z AUTO 24006KT 10SM FEW070 FEW080 18/14 A2959 640 78 1200 250/06 RMK AO2 SLP015 T01780139 10194 20172 58020 $
94790KART ART20160612010011606/12/16 01:00:31  5-MIN KART 120600Z AUTO 25009G15KT 10SM CLR 18/14 A2959 640 75 1200 260/09G15 RMK AO2 T01830139 $
94790KART ART20160612010511006/12/16 01:05:31  5-MIN KART 120605Z AUTO 24009KT 10SM CLR 18/13 A2959 640 72 1200 260/09 RMK AO2 T01830133 $
94790KART ART20160612011011606/12/16 01:10:31  5-MIN KART 120610Z AUTO 25009G16KT 10SM CLR 19/13 A2959 640 70 1300 260/09G16 RMK AO2 T01890133 $
94790KART ART20160612011511006/12/16 01:15:31  5-MIN KART 120615Z AUTO 25009KT 10SM CLR 19/13 A2958 650 70 1300 260/09 RMK AO2 T01890133 $
94790KART ART20160612012011606/12/16 01:20:31  5-MIN KART 120620Z AUTO 25010G17KT 10SM CLR 18/13 A2958 640 72 1200 260/10G17 RMK AO2 T01830133 $
94790KART ART20160612012511006/12/16 01:25:31  5-MIN KART 120625Z AUTO 25009KT 10SM CLR 18/13 A2959 640 72 1200 270/09 RMK AO2 T01830133 $
94790KART ART20160612013011006/12/16 01:30:31  5-MIN KART 120630Z AUTO 25008KT 10SM CLR 18/13 A2959 640 72 1200 260/08 RMK AO2 T01830133 $
94790KART ART20160612013511006/12/16 01:35:31  5-MIN KART 120635Z AUTO 25009KT 10SM CLR 18/13 A2959 640 72 1200 270/09 RMK AO2 T01830133 $
94790KART ART20160612014011006/12/16 01:40:31  5-MIN KART 120640Z AUTO 25009KT 10SM CLR 18/13 A2959 640 72 1200 270/09 RMK AO2 T01830133 $
94790KART ART20160612014511006/12/16 01:45:31  5-MIN KART 120645Z AUTO 25008KT 10SM CLR 18/13 A2959 640 75 1200 260/08 RMK AO2 T01780133 $
94790KART ART20160612015011706/12/16 01:50:31  5-MIN KART 120650Z AUTO 25008KT 10SM CLR 18/13 A2959 640 72 1100 260/08 RMK AO2 SLP017 T01780128 $
94790KART ART20160612015511706/12/16 01:55:31  5-MIN KART 120655Z AUTO 25007KT 10SM CLR 18/13 A2959 630 72 1100 260/07 RMK AO2 SLP017 T01780128 $
94790KART ART20160612020011006/12/16 02:00:31  5-MIN KART 120700Z AUTO 24006KT 10SM CLR 18/13 A2960 630 72 1100 250/06 RMK AO2 T01780128 $
94790KART ART20160612020511006/12/16 02:05:31  5-MIN KART 120705Z AUTO 24006KT 10SM CLR 17/13 A2960 630 75 1100 260/06 RMK AO2 T01720128 $
94790KART ART20160612021011006/12/16 02:10:31  5-MIN KART 120710Z AUTO 24006KT 10SM CLR 17/13 A2960 630 75 1100 260/06 RMK AO2 T01720128 $
94790KART ART20160612021511006/12/16 02:15:31  5-MIN KART 120715Z AUTO 24006KT 10SM CLR 17/13 A2960 630 75 1100 260/06 RMK AO2 T01720128 $
94790KART ART20160612022011006/12/16 02:20:31  5-MIN KART 120720Z AUTO 24006KT 10SM CLR 17/13 A2960 620 75 1100 260/06 RMK AO2 T01720128 $
94790KART ART20160612022511006/12/16 02:25:31  5-MIN KART 120725Z AUTO 25005KT 10SM CLR 17/13 A2960 630 75 1100 260/05 RMK AO2 T01720128 $
94790KART ART20160612023011006/12/16 02:30:31  5-MIN KART 120730Z AUTO 25007KT 10SM CLR 17/13 A2960 620 75 1100 270/07 RMK AO2 T01720128 $
94790KART ART20160612023511006/12/16 02:35:31  5-MIN KART 120735Z AUTO 26009KT 10SM CLR 17/12 A2960 620 72 1100 270/09 RMK AO2 T01720122 $
94790KART ART20160612024011006/12/16 02:40:31  5-MIN KART 120740Z AUTO 27010KT 10SM CLR 18/12 A2961 620 69 1100 280/10 RMK AO2 T01780122 $
94790KART ART20160612024511006/12/16 02:45:31  5-MIN KART 120745Z AUTO 27009KT 10SM CLR 18/12 A2961 620 69 1100 280/09 RMK AO2 T01780122 $
94790KART ART20160612025012406/12/16 02:50:31  5-MIN KART 120750Z AUTO 28008KT 10SM CLR 18/12 A2963 600 69 1100 300/08 RMK AO2 PRESRR SLP029 T01780122 $
94790KART ART20160612025512006/12/16 02:55:31  5-MIN KART 120755Z AUTO 36008KT 10SM SCT040 17/12 A2963 600 72 1000 010/08 RMK AO2 SLP030 T01720122 $
94790KART ART20160612030012006/12/16 03:00:31  5-MIN KART 120800Z AUTO 02007KT 10SM SCT036 BKN044 17/12 A2964 600 72 1000 030/07 RMK AO2 T01720122 $
94790KART ART20160612030512006/12/16 03:05:31  5-MIN KART 120805Z AUTO 02010KT 10SM BKN036 BKN044 17/12 A2964 590 72 1000 030/10 RMK AO2 T01720122 $
94790KART ART20160612031012006/12/16 03:10:31  5-MIN KART 120810Z AUTO 02010KT 10SM BKN036 BKN044 18/12 A2964 590 69 1100 030/10 RMK AO2 T01780122 $
94790KART ART20160612031512006/12/16 03:15:31  5-MIN KART 120815Z AUTO 03008KT 10SM BKN033 BKN044 17/12 A2964 590 72 1000 040/08 RMK AO2 T01720122 $
94790KART ART20160612032012006/12/16 03:20:31  5-MIN KART 120820Z AUTO 02008KT 10SM BKN033 OVC040 17/12 A2964 590 72 1000 040/08 RMK AO2 T01720122 $
94790KART ART20160612032511306/12/16 03:25:31  5-MIN KART 120825Z AUTO 36008KT 10SM OVC033 17/12 A2965 580 72 1000 020/08 RMK AO2 T01720122 $
94790KART ART20160612033012006/12/16 03:30:31  5-MIN KART 120830Z AUTO 01008KT 10SM BKN030 OVC037 17/12 A2965 580 72 1000 020/08 RMK AO2 T01720122 $
94790KART ART20160612033512006/12/16 03:35:31  5-MIN KART 120835Z AUTO 36008KT 10SM BKN027 OVC033 17/12 A2965 580 72 1000 020/08 RMK AO2 T01720122 $
94790KART ART20160612034012006/12/16 03:40:31  5-MIN KART 120840Z AUTO 02009KT 10SM BKN027 OVC033 17/12 A2966 580 72 1000 040/09 RMK AO2 T01720122 $
94790KART ART20160612034512506/12/16 03:45:31  5-MIN KART 120845Z AUTO 01015G21KT 10SM BKN025 OVC033 17/11 A2966 570 69 900 030/15G21 RMK AO2 T01670111 $
94790KART ART20160612035013806/12/16 03:50:31  5-MIN KART 120850Z AUTO 36015G23KT 10SM OVC025 16/10 A2967 560 67 900 020/15G23 RMK AO2 PRESRR SLP044 T01610100 58015 $
94790KART ART20160612035513106/12/16 03:55:31  5-MIN KART 120855Z AUTO 36014G23KT 10SM OVC025 16/09 A2967 560 64 900 020/14G23 RMK AO2 SLP045 T01610094 58015 $
94790KART ART20160612040011206/12/16 04:00:31  5-MIN KART 120900Z AUTO 36015KT 10SM OVC025 16/09 A2968 550 67 800 020/15 RMK AO2 T01560094 $
94790KART ART20160612040512506/12/16 04:05:31  5-MIN KART 120905Z AUTO 36017G25KT 10SM OVC025 16/09 A2969 550 67 800 020/17G25 RMK AO2 PRESRR T01560094 $
94790KART ART20160612041011806/12/16 04:10:31  5-MIN KART 120910Z AUTO 01014G25KT 10SM OVC025 15/09 A2969 540 69 700 020/14G25 RMK AO2 T01500094 $
94790KART ART20160612041511206/12/16 04:15:31  5-MIN KART 120915Z AUTO 36012KT 10SM OVC025 15/09 A2970 540 69 700 010/12 RMK AO2 T01500094 $
94790KART ART20160612042011806/12/16 04:20:31  5-MIN KART 120920Z AUTO 35011G23KT 10SM OVC024 15/09 A2970 540 69 700 010/11G23 RMK AO2 T01500094 $
94790KART ART20160612042511806/12/16 04:25:31  5-MIN KART 120925Z AUTO 36013G23KT 10SM OVC024 15/09 A2970 530 66 700 010/13G23 RMK AO2 T01500089 $
94790KART ART20160612043011806/12/16 04:30:31  5-MIN KART 120930Z AUTO 36016G22KT 10SM OVC024 14/09 A2970 530 69 600 010/16G22 RMK AO2 T01440089 $
94790KART ART20160612043513206/12/16 04:35:31  5-MIN KART 120935Z AUTO 36012G22KT 10SM BKN024 BKN030 OVC035 14/08 A2971 530 66 600 010/12G22 RMK AO2 T01440083 $
94790KART ART20160612044011906/12/16 04:40:31  5-MIN KART 120940Z AUTO 36011KT 10SM BKN024 OVC033 14/08 A2971 520 66 600 010/11 RMK AO2 T01440083 $
94790KART ART20160612044511906/12/16 04:45:31  5-MIN KART 120945Z AUTO 01012KT 10SM SCT024 OVC035 14/08 A2972 520 66 600 020/12 RMK AO2 T01440083 $
94790KART ART20160612045013906/12/16 04:50:31  5-MIN KART 120950Z AUTO 01013G19KT 10SM FEW025 OVC035 14/08 A2973 510 64 600 030/13G19 RMK AO2 PRESRR SLP062 T01440078 $
94790KART ART20160612045513206/12/16 04:55:31  5-MIN KART 120955Z AUTO 36015G21KT 10SM FEW025 OVC037 14/07 A2973 510 61 500 020/15G21 RMK AO2 SLP063 T01390067 $
94790KART ART20160612050011806/12/16 05:00:31  5-MIN KART 121000Z AUTO 35017G21KT 10SM OVC037 14/06 A2974 500 59 500 360/17G21 RMK AO2 T01390061 $
94790KART ART20160612050511806/12/16 05:05:31  5-MIN KART 121005Z AUTO 36013G22KT 10SM OVC037 14/06 A2973 500 57 500 010/13G22 RMK AO2 T01390056 $
94790KART ART20160612051011806/12/16 05:10:31  5-MIN KART 121010Z AUTO 35013G22KT 10SM OVC039 13/06 A2974 500 59 500 360/13G22 RMK AO2 T01330056 $
94790KART ART20160612051511806/12/16 05:15:31  5-MIN KART 121015Z AUTO 35009G18KT 10SM OVC041 13/06 A2974 500 59 500 010/09G18 RMK AO2 T01330056 $
94790KART ART20160612052011806/12/16 05:20:31  5-MIN KART 121020Z AUTO 36008G18KT 10SM OVC041 13/06 A2974 500 59 500 010/08G18 RMK AO2 T01330056 $
94790KART ART20160612052511806/12/16 05:25:31  5-MIN KART 121025Z AUTO 35013G16KT 10SM OVC043 13/05 A2974 500 57 500 010/13G16 RMK AO2 T01330050 $
94790KART ART20160612053011206/12/16 05:30:31  5-MIN KART 121030Z AUTO 36009KT 10SM OVC045 13/06 A2974 490 59 500 010/09 RMK AO2 T01330056 $
94790KART ART20160612053511206/12/16 05:35:31  5-MIN KART 121035Z AUTO 35011KT 10SM OVC045 13/06 A2974 490 59 500 010/11 RMK AO2 T01330056 $
94790KART ART20160612054011206/12/16 05:40:31  5-MIN KART 121040Z AUTO 35010KT 10SM OVC047 13/06 A2974 490 59 500 010/10 RMK AO2 T01330056 $
94790KART ART20160612054511206/12/16 05:45:31  5-MIN KART 121045Z AUTO 35009KT 10SM OVC047 13/06 A2975 490 59 400 010/09 RMK AO2 T01330056 $
94790KART ART20160612055011906/12/16 05:50:31  5-MIN KART 121050Z AUTO 36008KT 10SM OVC049 13/06 A2975 490 59 400 010/08 RMK AO2 SLP071 T01330056 $
94790KART ART20160612055511906/12/16 05:55:31  5-MIN KART 121055Z AUTO 36006KT 10SM OVC049 13/06 A2975 480 59 400 010/06 RMK AO2 SLP072 T01330056 $
94790KART ART20160612060011206/12/16 06:00:31  5-MIN KART 121100Z AUTO 36007KT 10SM OVC049 13/06 A2975 480 59 400 010/07 RMK AO2 T01330056 $
94790KART ART20160612060511906/12/16 06:05:31  5-MIN KART 121105Z AUTO 02006KT 10SM BKN049 OVC070 13/06 A2975 490 59 400 040/06 RMK AO2 T01330056 $
94790KART ART20160612061011906/12/16 06:10:31  5-MIN KART 121110Z AUTO 02006KT 10SM BKN050 BKN070 13/06 A2975 490 59 400 030/06 RMK AO2 T01330056 $
94790KART ART20160612061511906/12/16 06:15:31  5-MIN KART 121115Z AUTO 01008KT 10SM SCT050 BKN070 14/06 A2976 480 57 500 020/08 RMK AO2 T01390056 $
94790KART ART20160612062011906/12/16 06:20:31  5-MIN KART 121120Z AUTO 36007KT 10SM SCT050 SCT070 14/06 A2976 480 57 500 020/07 RMK AO2 T01390056 $
94790KART ART20160612062511906/12/16 06:25:31  5-MIN KART 121125Z AUTO 36007KT 10SM SCT050 SCT070 14/06 A2976 480 55 600 020/07 RMK AO2 T01440056 $
94790KART ART20160612063011906/12/16 06:30:31  5-MIN KART 121130Z AUTO 35010KT 10SM FEW050 SCT070 14/06 A2976 480 55 600 360/10 RMK AO2 T01440056 $
94790KART ART20160612063511206/12/16 06:35:31  5-MIN KART 121135Z AUTO 35012KT 10SM FEW055 14/05 A2976 480 53 600 360/12 RMK AO2 T01440050 $
94790KART ART20160612064011206/12/16 06:40:31  5-MIN KART 121140Z AUTO 34012KT 10SM FEW055 14/05 A2975 480 53 600 350/12 RMK AO2 T01440050 $
94790KART ART20160612064511206/12/16 06:45:31  5-MIN KART 121145Z AUTO 35011KT 10SM FEW050 14/05 A2976 480 53 600 010/11 RMK AO2 T01440050 $
94790KART ART20160612065014306/12/16 06:50:31  5-MIN KART 121150Z AUTO 34009KT 10SM SCT050 14/05 A2976 480 53 600 360/09 RMK AO2 SLP073 70034 T01440050 10189 20133 53030 $
94790KART ART20160612065514306/12/16 06:55:31  5-MIN KART 121155Z AUTO 32008KT 10SM SCT050 14/05 A2976 480 53 600 340/08 RMK AO2 SLP073 70034 T01440050 10189 20133 53030 $
94790KART ART20160612070011206/12/16 07:00:31  5-MIN KART 121200Z AUTO 35011KT 10SM BKN050 14/05 A2975 480 53 600 360/11 RMK AO2 T01440050 $
94790KART ART20160612070511206/12/16 07:05:31  5-MIN KART 121205Z AUTO 34007KT 10SM BKN055 14/05 A2975 480 53 600 350/07 RMK AO2 T01440050 $
94790KART ART20160612071011206/12/16 07:10:31  5-MIN KART 121210Z AUTO VRB06KT 10SM BKN050 15/06 A2975 490 53 600 VRB/06 RMK AO2 T01500056 $
94790KART ART20160612071511206/12/16 07:15:31  5-MIN KART 121215Z AUTO 33006KT 10SM BKN050 14/05 A2975 490 53 600 350/06 RMK AO2 T01440050 $
94790KART ART20160612072011206/12/16 07:20:31  5-MIN KART 121220Z AUTO 34009KT 10SM BKN050 15/06 A2975 490 53 600 350/09 RMK AO2 T01500056 $
94790KART ART20160612072511206/12/16 07:25:31  5-MIN KART 121225Z AUTO 35009KT 10SM BKN050 15/06 A2975 490 53 600 360/09 RMK AO2 T01500056 $
94790KART ART20160612073011206/12/16 07:30:31  5-MIN KART 121230Z AUTO 36008KT 10SM SCT050 16/06 A2975 490 51 700 020/08 RMK AO2 T01560056 $
94790KART ART20160612073512806/12/16 07:35:31  5-MIN KART 121235Z AUTO 28008KT 250V320 10SM SCT050 16/06 A2975 490 53 700 290/08 260V330 RMK AO2 T01560061 $
94790KART ART20160612074012806/12/16 07:40:31  5-MIN KART 121240Z AUTO 32008KT 270V350 10SM FEW050 16/06 A2975 490 53 700 330/08 280V360 RMK AO2 T01560061 $
94790KART ART20160612074511206/12/16 07:45:31  5-MIN KART 121245Z AUTO 28008KT 10SM SCT048 16/06 A2975 490 53 700 300/08 RMK AO2 T01560061 $
94790KART ART20160612075011906/12/16 07:50:31  5-MIN KART 121250Z AUTO 28010KT 10SM SCT048 16/06 A2975 490 51 800 300/10 RMK AO2 SLP072 T01610061 $
94790KART ART20160612075511906/12/16 07:55:31  5-MIN KART 121255Z AUTO 31012KT 10SM SCT046 16/06 A2975 490 51 800 320/12 RMK AO2 SLP071 T01610061 $
94790KART ART20160612080011206/12/16 08:00:31  5-MIN KART 121300Z AUTO 28010KT 10SM BKN046 16/06 A2975 490 53 700 300/10 RMK AO2 T01560061 $
94790KART ART20160612080511206/12/16 08:05:31  5-MIN KART 121305Z AUTO 30011KT 10SM BKN046 15/06 A2975 490 53 600 310/11 RMK AO2 T01500056 $
94790KART ART20160612081011206/12/16 08:10:31  5-MIN KART 121310Z AUTO 31013KT 10SM OVC046 15/06 A2975 490 53 600 320/13 RMK AO2 T01500056 $
94790KART ART20160612081511206/12/16 08:15:31  5-MIN KART 121315Z AUTO 28010KT 10SM OVC046 14/06 A2975 480 55 600 290/10 RMK AO2 T01440056 $
94790KART ART20160612082011206/12/16 08:20:31  5-MIN KART 121320Z AUTO 30011KT 10SM OVC046 15/06 A2976 480 53 600 320/11 RMK AO2 T01500056 $
94790KART ART20160612082511206/12/16 08:25:31  5-MIN KART 121325Z AUTO 30012KT 10SM OVC044 15/06 A2976 480 53 600 320/12 RMK AO2 T01500056 $
94790KART ART20160612083011206/12/16 08:30:31  5-MIN KART 121330Z AUTO 31010KT 10SM OVC044 15/06 A2976 480 53 600 320/10 RMK AO2 T01500056 $
94790KART ART20160612083511806/12/16 08:35:31  5-MIN KART 121335Z AUTO 30013G18KT 10SM OVC045 15/06 A2976 480 53 600 310/13G18 RMK AO2 T01500056 $
94790KART ART20160612084011206/12/16 08:40:31  5-MIN KART 121340Z AUTO 31011KT 10SM OVC045 15/06 A2976 480 55 600 320/11 RMK AO2 T01500061 $
94790KART ART20160612084511806/12/16 08:45:31  5-MIN KART 121345Z AUTO 30013G19KT 10SM OVC045 15/06 A2976 480 55 600 320/13G19 RMK AO2 T01500061 $
94790KART ART20160612085012506/12/16 08:50:31  5-MIN KART 121350Z AUTO 31016G21KT 10SM OVC045 14/06 A2977 470 55 600 320/16G21 RMK AO2 SLP077 T01440056 $
94790KART ART20160612085511906/12/16 08:55:31  5-MIN KART 121355Z AUTO 32017KT 10SM OVC045 14/05 A2977 470 53 600 330/17 RMK AO2 SLP078 T01440050 $
94790KART ART20160612090011206/12/16 09:00:31  5-MIN KART 121400Z AUTO 32014KT 10SM OVC047 14/05 A2977 470 53 600 330/14 RMK AO2 T01440050 $
94790KART ART20160612090511206/12/16 09:05:31  5-MIN KART 121405Z AUTO 30011KT 10SM OVC047 14/05 A2977 470 55 500 310/11 RMK AO2 T01390050 $
94790KART ART20160612091011206/12/16 09:10:31  5-MIN KART 121410Z AUTO 31015KT 10SM OVC047 14/05 A2977 470 55 500 320/15 RMK AO2 T01390050 $
94790KART ART20160612091511206/12/16 09:15:31  5-MIN KART 121415Z AUTO 30015KT 10SM OVC047 14/06 A2978 460 57 500 310/15 RMK AO2 T01390056 $
94790KART ART20160612092011206/12/16 09:20:31  5-MIN KART 121420Z AUTO 30013KT 10SM OVC047 14/05 A2978 460 55 500 310/13 RMK AO2 T01390050 $
94790KART ART20160612092511206/12/16 09:25:31  5-MIN KART 121425Z AUTO 31012KT 10SM OVC047 14/06 A2978 460 57 500 320/12 RMK AO2 T01390056 $
94790KART ART20160612093011206/12/16 09:30:31  5-MIN KART 121430Z AUTO 30011KT 10SM OVC045 14/06 A2978 460 57 500 320/11 RMK AO2 T01390056 $
94790KART ART20160612093511206/12/16 09:35:31  5-MIN KART 121435Z AUTO 31012KT 10SM OVC045 14/06 A2978 460 57 500 320/12 RMK AO2 T01390056 $
94790KART ART20160612094011206/12/16 09:40:31  5-MIN KART 121440Z AUTO 30014KT 10SM OVC045 14/06 A2978 460 57 500 310/14 RMK AO2 T01390056 $
94790KART ART20160612094511806/12/16 09:45:31  5-MIN KART 121445Z AUTO 31011G18KT 10SM OVC045 14/06 A2978 460 57 500 320/11G18 RMK AO2 T01390056 $
94790KART ART20160612095012506/12/16 09:50:31  5-MIN KART 121450Z AUTO 31009KT 10SM OVC043 14/06 A2978 460 57 500 320/09 RMK AO2 SLP081 T01390056 51027 $
94790KART ART20160612095512506/12/16 09:55:31  5-MIN KART 121455Z AUTO 30010KT 10SM OVC043 14/06 A2978 460 57 500 310/10 RMK AO2 SLP082 T01390056 51027 $
94790KART ART20160612100011206/12/16 10:00:31  5-MIN KART 121500Z AUTO 30013KT 10SM OVC043 14/06 A2978 460 57 500 320/13 RMK AO2 T01390056 $
94790KART ART20160612100511206/12/16 10:05:31  5-MIN KART 121505Z AUTO 30007KT 10SM OVC043 14/06 A2978 460 57 500 310/07 RMK AO2 T01390056 $
94790KART ART20160612101011206/12/16 10:10:31  5-MIN KART 121510Z AUTO 29014KT 10SM OVC043 14/06 A2978 460 57 500 300/14 RMK AO2 T01390056 $
94790KART ART20160612101511206/12/16 10:15:31  5-MIN KART 121515Z AUTO 29010KT 10SM OVC042 14/06 A2978 460 57 500 310/10 RMK AO2 T01390056 $
94790KART ART20160612102011206/12/16 10:20:31  5-MIN KART 121520Z AUTO 30011KT 10SM OVC042 14/06 A2978 460 59 500 320/11 RMK AO2 T01390061 $
94790KART ART20160612102511206/12/16 10:25:31  5-MIN KART 121525Z AUTO 31011KT 10SM OVC042 14/06 A2978 460 57 500 320/11 RMK AO2 T01390056 $
94790KART ART20160612103011206/12/16 10:30:31  5-MIN KART 121530Z AUTO 31011KT 10SM OVC042 14/06 A2979 450 57 500 320/11 RMK AO2 T01390056 $
94790KART ART20160612103511206/12/16 10:35:31  5-MIN KART 121535Z AUTO 31012KT 10SM OVC042 13/06 A2979 450 59 400 320/12 RMK AO2 T01330056 $
94790KART ART20160612104012806/12/16 10:40:31  5-MIN KART 121540Z AUTO 30010KT 10SM -RA OVC040 13/06 A2979 450 61 400 320/10 RMK AO2 RAB39 P0000 T01330061 $
94790KART ART20160612104512806/12/16 10:45:31  5-MIN KART 121545Z AUTO 32010KT 10SM -RA OVC040 13/06 A2979 450 61 400 340/10 RMK AO2 RAB39 P0000 T01330061 $
94790KART ART20160612105013406/12/16 10:50:31  5-MIN KART 121550Z AUTO 32011KT 10SM OVC040 13/06 A2979 450 61 400 330/11 RMK AO2 RAB39E50 SLP085 P0000 T01330061 $
94790KART ART20160612105513406/12/16 10:55:31  5-MIN KART 121555Z AUTO 31009KT 10SM OVC039 13/06 A2979 450 61 400 330/09 RMK AO2 RAB39E50 SLP085 P0000 T01330061 $
94790KART ART20160612110011206/12/16 11:00:31  5-MIN KART 121600Z AUTO 33011KT 10SM OVC039 13/06 A2979 450 61 400 340/11 RMK AO2 T01330061 $
94790KART ART20160612110511206/12/16 11:05:31  5-MIN KART 121605Z AUTO 33009KT 10SM OVC039 13/06 A2979 450 61 400 340/09 RMK AO2 T01330061 $
94790KART ART20160612111012806/12/16 11:10:31  5-MIN KART 121610Z AUTO 33010KT 10SM -RA OVC039 13/06 A2980 450 61 400 340/10 RMK AO2 RAB10 P0000 T01330061 $
94790KART ART20160612111512806/12/16 11:15:31  5-MIN KART 121615Z AUTO 33012KT 10SM -RA OVC039 13/07 A2980 440 66 300 340/12 RMK AO2 RAB10 P0000 T01280067 $
94790KART ART20160612112014406/12/16 11:20:31  5-MIN KART 121620Z AUTO 33009KT 300V360 10SM -RA OVC038 13/07 A2980 440 69 300 340/09 310V010 RMK AO2 RAB10 P0000 T01280072 $
94790KART ART20160612112512806/12/16 11:25:31  5-MIN KART 121625Z AUTO 31011KT 10SM -RA OVC038 13/07 A2980 440 69 300 320/11 RMK AO2 RAB10 P0000 T01280072 $
94790KART ART20160612113014006/12/16 11:30:31  5-MIN KART 121630Z AUTO 33014G20KT 9SM -RA FEW028 OVC038 12/07 A2981 430 71 200 350/14G20 RMK AO2 RAB10 P0000 T01220072 $
94790KART ART20160612113514006/12/16 11:35:31  5-MIN KART 121635Z AUTO 31014G20KT 9SM -RA FEW028 OVC036 12/07 A2981 430 74 200 330/14G20 RMK AO2 RAB10 P0000 T01170072 $
94790KART ART20160612114013406/12/16 11:40:31  5-MIN KART 121640Z AUTO 32016G22KT 10SM -RA OVC039 12/07 A2981 430 74 200 330/16G22 RMK AO2 RAB10 P0000 T01170072 $
94790KART ART20160612114513406/12/16 11:45:31  5-MIN KART 121645Z AUTO 32013G22KT 10SM -RA OVC040 12/07 A2981 430 74 200 330/13G22 RMK AO2 RAB10 P0000 T01170072 $
94790KART ART20160612115014006/12/16 11:50:31  5-MIN KART 121650Z AUTO 32012G19KT 9SM -RA OVC040 12/07 A2981 430 74 200 340/12G19 RMK AO2 RAB10 SLP094 P0000 T01170072 $
94790KART ART20160612115514106/12/16 11:55:31  5-MIN KART 121655Z AUTO 32009KT 7SM -RA BKN038 OVC045 11/07 A2981 430 77 100 330/09 RMK AO2 RAB10 SLP094 P0000 T01110072 $
94790KART ART20160612120012106/12/16 12:00:31  5-MIN KART 121700Z AUTO 33009KT 7SM -RA OVC040 11/08 A2982 430 80 100 340/09 RMK AO2 P0000 T01110078 $
94790KART ART20160612120512206/12/16 12:05:31  5-MIN KART 121705Z AUTO 32006KT 10SM -RA OVC040 11/08 A2982 430 80 100 340/06 RMK AO2 P0000 T01110078 $
94790KART ART20160612121012206/12/16 12:10:31  5-MIN KART 121710Z AUTO 34007KT 10SM -RA OVC040 12/08 A2982 420 77 200 350/07 RMK AO2 P0000 T01170078 $
94790KART ART20160612121512406/12/16 12:15:31  5-MIN KART 121715Z AUTO 33006KT 10SM OVC040 12/08 A2982 430 80 200 340/06 RMK AO2 RAE12 P0000 T01170083 $
94790KART ART20160612122013806/12/16 12:20:31  5-MIN KART 121720Z AUTO 31006KT 10SM BKN040 BKN048 OVC055 12/09 A2981 430 80 200 320/06 RMK AO2 RAE12 P0000 T01220089 $
94790KART ART20160612122513106/12/16 12:25:31  5-MIN KART 121725Z AUTO 32009KT 10SM BKN040 OVC055 13/08 A2981 430 74 300 330/09 RMK AO2 RAE12 P0000 T01280083 $
94790KART ART20160612123013106/12/16 12:30:31  5-MIN KART 121730Z AUTO 31008KT 10SM SCT040 OVC060 13/08 A2981 430 74 300 330/08 RMK AO2 RAE12 P0000 T01280083 $
94790KART ART20160612123513706/12/16 12:35:31  5-MIN KART 121735Z AUTO 32011G17KT 10SM SCT043 OVC060 13/08 A2981 430 69 400 330/11G17 RMK AO2 RAE12 P0001 T01330078 $
94790KART ART20160612124013706/12/16 12:40:31  5-MIN KART 121740Z AUTO 31010G20KT 10SM FEW044 OVC055 13/07 A2981 430 69 300 320/10G20 RMK AO2 RAE12 P0001 T01280072 $
94790KART ART20160612124513006/12/16 12:45:31  5-MIN KART 121745Z AUTO 31012G20KT 10SM OVC055 13/07 A2982 430 66 400 320/12G20 RMK AO2 RAE12 P0001 T01330072 $
94790KART ART20160612125016206/12/16 12:50:31  5-MIN KART 121750Z AUTO 31012KT 10SM FEW046 OVC055 13/06 A2982 430 61 400 330/12 RMK AO2 RAE12 SLP095 P0001 60001 T01330061 10161 20111 53008 $
94790KART ART20160612125516806/12/16 12:55:31  5-MIN KART 121755Z AUTO 31013G19KT 10SM FEW042 OVC055 13/07 A2982 430 64 400 320/13G19 RMK AO2 RAE12 SLP095 P0001 60001 T01330067 10161 20111 53008 $
94790KART ART20160612130012506/12/16 13:00:31  5-MIN KART 121800Z AUTO 31014G19KT 10SM SCT040 OVC055 13/07 A2982 430 64 400 320/14G19 RMK AO2 T01330067 $
94790KART ART20160612130511906/12/16 13:05:31  5-MIN KART 121805Z AUTO 32014KT 10SM SCT040 OVC050 13/06 A2981 430 61 400 330/14 RMK AO2 T01330061 $
94790KART ART20160612131012506/12/16 13:10:31  5-MIN KART 121810Z AUTO 30009G18KT 10SM FEW040 OVC050 14/07 A2981 430 61 400 310/09G18 RMK AO2 T01390067 $
94790KART ART20160612131512506/12/16 13:15:31  5-MIN KART 121815Z AUTO 31014G18KT 10SM FEW040 OVC050 14/06 A2982 430 59 400 330/14G18 RMK AO2 T01390061 $
94790KART ART20160612132011906/12/16 13:20:31  5-MIN KART 121820Z AUTO 31012KT 10SM SCT042 OVC050 13/06 A2982 430 59 400 320/12 RMK AO2 T01330056 $
94790KART ART20160612132511906/12/16 13:25:31  5-MIN KART 121825Z AUTO 30010KT 10SM SCT040 OVC050 14/07 A2982 430 61 400 310/10 RMK AO2 T01390067 $
94790KART ART20160612133011906/12/16 13:30:31  5-MIN KART 121830Z AUTO 29010KT 10SM BKN040 OVC050 14/06 A2981 430 59 400 310/10 RMK AO2 T01390061 $
94790KART ART20160612133511906/12/16 13:35:31  5-MIN KART 121835Z AUTO 29011KT 10SM BKN040 OVC050 14/07 A2981 430 61 400 300/11 RMK AO2 T01390067 $
94790KART ART20160612134011906/12/16 13:40:31  5-MIN KART 121840Z AUTO 29012KT 10SM BKN040 OVC050 14/07 A2982 430 61 400 310/12 RMK AO2 T01390067 $
94790KART ART20160612134511206/12/16 13:45:31  5-MIN KART 121845Z AUTO 29013KT 10SM OVC039 13/07 A2982 430 64 400 300/13 RMK AO2 T01330067 $
94790KART ART20160612135011906/12/16 13:50:31  5-MIN KART 121850Z AUTO 29015KT 10SM OVC039 13/06 A2982 430 61 400 310/15 RMK AO2 SLP095 T01330061 $
94790KART ART20160612135511906/12/16 13:55:31  5-MIN KART 121855Z AUTO 30013KT 10SM OVC037 13/06 A2982 420 61 400 310/13 RMK AO2 SLP096 T01330061 $
94790KART ART20160612140011206/12/16 14:00:31  5-MIN KART 121900Z AUTO 30010KT 10SM OVC037 13/06 A2982 420 61 400 310/10 RMK AO2 T01330061 $
94790KART ART20160612140511806/12/16 14:05:31  5-MIN KART 121905Z AUTO 30014G19KT 10SM OVC037 14/07 A2982 420 61 400 310/14G19 RMK AO2 T01390067 $
94790KART ART20160612141011806/12/16 14:10:31  5-MIN KART 121910Z AUTO 30012G19KT 10SM OVC041 14/07 A2982 420 61 400 310/12G19 RMK AO2 T01390067 $
94790KART ART20160612141511206/12/16 14:15:31  5-MIN KART 121915Z AUTO 31011KT 10SM OVC039 14/06 A2982 420 59 400 320/11 RMK AO2 T01390061 $
94790KART ART20160612142011206/12/16 14:20:31  5-MIN KART 121920Z AUTO 32012KT 10SM OVC041 14/07 A2982 420 61 400 330/12 RMK AO2 T01390067 $
94790KART ART20160612142511806/12/16 14:25:31  5-MIN KART 121925Z AUTO 32014G21KT 10SM OVC043 14/06 A2982 420 57 500 330/14G21 RMK AO2 T01440061 $
94790KART ART20160612143011806/12/16 14:30:31  5-MIN KART 121930Z AUTO 31012G21KT 10SM OVC043 14/06 A2982 420 57 500 320/12G21 RMK AO2 T01440061 $
94790KART ART20160612143511206/12/16 14:35:31  5-MIN KART 121935Z AUTO 31012KT 10SM OVC043 14/06 A2982 420 57 500 320/12 RMK AO2 T01440061 $
94790KART ART20160612144011206/12/16 14:40:31  5-MIN KART 121940Z AUTO 31012KT 10SM OVC043 14/06 A2982 430 57 500 320/12 RMK AO2 T01440061 $
94790KART ART20160612144511806/12/16 14:45:31  5-MIN KART 121945Z AUTO 31015G19KT 10SM OVC043 14/06 A2982 430 57 500 320/15G19 RMK AO2 T01440061 $
94790KART ART20160612145012506/12/16 14:50:31  5-MIN KART 121950Z AUTO 30013G19KT 10SM OVC043 14/06 A2982 420 59 400 320/13G19 RMK AO2 SLP094 T01390061 $
94790KART ART20160612145512506/12/16 14:55:31  5-MIN KART 121955Z AUTO 31015G20KT 10SM OVC040 14/06 A2982 420 59 400 320/15G20 RMK AO2 SLP096 T01390061 $
94790KART ART20160612150011806/12/16 15:00:31  5-MIN KART 122000Z AUTO 31013G20KT 10SM OVC040 14/06 A2982 420 59 400 320/13G20 RMK AO2 T01390061 $
94790KART ART20160612150511206/12/16 15:05:31  5-MIN KART 122005Z AUTO 30011KT 10SM OVC042 14/06 A2982 420 57 500 310/11 RMK AO2 T01440061 $
94790KART ART20160612151011206/12/16 15:10:31  5-MIN KART 122010Z AUTO 30012KT 10SM OVC042 14/06 A2982 420 57 500 310/12 RMK AO2 T01440061 $
94790KART ART20160612151511206/12/16 15:15:31  5-MIN KART 122015Z AUTO 31013KT 10SM OVC042 14/06 A2982 420 57 500 320/13 RMK AO2 T01440061 $
94790KART ART20160612152011206/12/16 15:20:31  5-MIN KART 122020Z AUTO 30015KT 10SM OVC040 14/06 A2982 420 59 400 320/15 RMK AO2 T01390061 $
94790KART ART20160612152511206/12/16 15:25:31  5-MIN KART 122025Z AUTO 32011KT 10SM OVC040 14/06 A2982 420 59 400 330/11 RMK AO2 T01390061 $
94790KART ART20160612153011206/12/16 15:30:31  5-MIN KART 122030Z AUTO 32009KT 10SM OVC040 14/07 A2982 420 61 400 330/09 RMK AO2 T01390067 $
94790KART ART20160612153511806/12/16 15:35:31  5-MIN KART 122035Z AUTO 31012G17KT 10SM OVC040 14/06 A2983 420 59 400 330/12G17 RMK AO2 T01390061 $
94790KART ART20160612154011206/12/16 15:40:31  5-MIN KART 122040Z AUTO 32010KT 10SM OVC040 14/07 A2983 420 61 400 330/10 RMK AO2 T01390067 $
94790KART ART20160612154511206/12/16 15:45:31  5-MIN KART 122045Z AUTO 31011KT 10SM OVC040 14/06 A2983 410 59 400 330/11 RMK AO2 T01390061 $
94790KART ART20160612155012506/12/16 15:50:31  5-MIN KART 122050Z AUTO 31013KT 10SM OVC040 14/06 A2983 410 59 400 330/13 RMK AO2 SLP101 T01390061 51012 $
94790KART ART20160612155512506/12/16 15:55:31  5-MIN KART 122055Z AUTO 32012KT 10SM OVC040 14/07 A2984 410 61 400 330/12 RMK AO2 SLP102 T01390067 51012 $
94790KART ART20160612160011806/12/16 16:00:31  5-MIN KART 122100Z AUTO 32015G21KT 10SM OVC040 14/06 A2984 400 59 400 330/15G21 RMK AO2 T01390061 $
94790KART ART20160612160511806/12/16 16:05:31  5-MIN KART 122105Z AUTO 32011G21KT 10SM OVC040 14/06 A2984 400 59 400 340/11G21 RMK AO2 T01390061 $
94790KART ART20160612161011206/12/16 16:10:31  5-MIN KART 122110Z AUTO 34010KT 10SM OVC040 14/06 A2985 400 59 400 350/10 RMK AO2 T01390061 $
94790KART ART20160612161511206/12/16 16:15:31  5-MIN KART 122115Z AUTO 33011KT 10SM OVC040 14/06 A2985 400 59 400 340/11 RMK AO2 T01390061 $
94790KART ART20160612162011806/12/16 16:20:31  5-MIN KART 122120Z AUTO 33013G17KT 10SM OVC040 14/06 A2985 400 59 400 340/13G17 RMK AO2 T01390061 $
94790KART ART20160612162511206/12/16 16:25:31  5-MIN KART 122125Z AUTO 32012KT 10SM OVC040 14/06 A2985 400 59 400 340/12 RMK AO2 T01390061 $
94790KART ART20160612163011206/12/16 16:30:31  5-MIN KART 122130Z AUTO 33010KT 10SM OVC040 14/06 A2985 390 59 400 340/10 RMK AO2 T01390061 $
94790KART ART20160612163511206/12/16 16:35:31  5-MIN KART 122135Z AUTO 33011KT 10SM OVC038 14/07 A2985 390 61 400 340/11 RMK AO2 T01390067 $
94790KART ART20160612164011206/12/16 16:40:31  5-MIN KART 122140Z AUTO 33010KT 10SM OVC038 14/07 A2985 390 61 400 340/10 RMK AO2 T01390067 $
94790KART ART20160612164511806/12/16 16:45:31  5-MIN KART 122145Z AUTO 33009G17KT 10SM OVC038 14/07 A2985 390 61 400 350/09G17 RMK AO2 T01390067 $
94790KART ART20160612165012506/12/16 16:50:31  5-MIN KART 122150Z AUTO 33011G17KT 10SM OVC038 13/06 A2986 390 61 300 340/11G17 RMK AO2 SLP109 T01330061 $
94790KART ART20160612165511906/12/16 16:55:31  5-MIN KART 122155Z AUTO 33009KT 10SM OVC038 13/07 A2986 390 64 300 340/09 RMK AO2 SLP110 T01330067 $
94790KART ART20160612170011206/12/16 17:00:31  5-MIN KART 122200Z AUTO 35009KT 10SM OVC036 13/07 A2986 380 64 300 360/09 RMK AO2 T01330067 $
94790KART ART20160612170511206/12/16 17:05:31  5-MIN KART 122205Z AUTO 34009KT 10SM OVC036 13/07 A2987 380 64 300 350/09 RMK AO2 T01330067 $
94790KART ART20160612171011206/12/16 17:10:31  5-MIN KART 122210Z AUTO 33012KT 10SM OVC034 13/07 A2987 380 64 300 350/12 RMK AO2 T01330067 $
94790KART ART20160612171511206/12/16 17:15:31  5-MIN KART 122215Z AUTO 34012KT 10SM OVC034 13/07 A2987 380 66 200 350/12 RMK AO2 T01280067 $
94790KART ART20160612172011206/12/16 17:20:31  5-MIN KART 122220Z AUTO 33011KT 10SM OVC033 13/07 A2987 380 66 200 340/11 RMK AO2 T01280067 $
94790KART ART20160612172511206/12/16 17:25:31  5-MIN KART 122225Z AUTO 33011KT 10SM OVC033 13/07 A2987 380 66 200 340/11 RMK AO2 T01280067 $
94790KART ART20160612173011206/12/16 17:30:31  5-MIN KART 122230Z AUTO 33010KT 10SM OVC031 13/07 A2987 380 66 200 340/10 RMK AO2 T01280067 $
94790KART ART20160612173511206/12/16 17:35:31  5-MIN KART 122235Z AUTO 33013KT 10SM OVC031 13/07 A2987 370 66 200 350/13 RMK AO2 T01280067 $
94790KART ART20160612174011806/12/16 17:40:31  5-MIN KART 122240Z AUTO 32010G17KT 10SM OVC031 13/07 A2987 370 66 200 330/10G17 RMK AO2 T01280067 $
94790KART ART20160612174511806/12/16 17:45:31  5-MIN KART 122245Z AUTO 32014G21KT 10SM OVC033 13/06 A2988 370 63 200 330/14G21 RMK AO2 T01280061 $
94790KART ART20160612175011906/12/16 17:50:31  5-MIN KART 122250Z AUTO 33012KT 10SM OVC033 13/06 A2988 370 63 200 340/12 RMK AO2 SLP117 T01280061 $
94790KART ART20160612175511906/12/16 17:55:31  5-MIN KART 122255Z AUTO 33012KT 10SM OVC034 13/06 A2988 370 63 200 340/12 RMK AO2 SLP117 T01280061 $
94790KART ART20160612180011806/12/16 18:00:31  5-MIN KART 122300Z AUTO 33012G17KT 10SM OVC034 13/06 A2988 370 63 200 340/12G17 RMK AO2 T01280061 $
94790KART ART20160612180511806/12/16 18:05:31  5-MIN KART 122305Z AUTO 32014G19KT 10SM OVC034 13/06 A2988 370 63 200 330/14G19 RMK AO2 T01280061 $
94790KART ART20160612181011206/12/16 18:10:31  5-MIN KART 122310Z AUTO 33012KT 10SM OVC034 13/06 A2988 370 63 200 340/12 RMK AO2 T01280061 $
94790KART ART20160612181511206/12/16 18:15:31  5-MIN KART 122315Z AUTO 32010KT 10SM OVC036 13/06 A2988 360 63 200 330/10 RMK AO2 T01280061 $
94790KART ART20160612182011206/12/16 18:20:31  5-MIN KART 122320Z AUTO 32008KT 10SM OVC036 13/06 A2989 360 63 200 340/08 RMK AO2 T01280061 $
94790KART ART20160612182511206/12/16 18:25:31  5-MIN KART 122325Z AUTO 33012KT 10SM OVC036 13/06 A2989 360 63 200 340/12 RMK AO2 T01280061 $
94790KART ART20160612183011206/12/16 18:30:31  5-MIN KART 122330Z AUTO 32012KT 10SM OVC036 12/06 A2989 360 66 200 330/12 RMK AO2 T01220061 $
94790KART ART20160612183511206/12/16 18:35:31  5-MIN KART 122335Z AUTO 32010KT 10SM OVC036 12/06 A2989 360 66 200 340/10 RMK AO2 T01220061 $
94790KART ART20160612184011206/12/16 18:40:31  5-MIN KART 122340Z AUTO 33009KT 10SM OVC036 12/06 A2989 360 66 100 340/09 RMK AO2 T01220061 $
94790KART ART20160612184511206/12/16 18:45:31  5-MIN KART 122345Z AUTO 32010KT 10SM OVC036 12/06 A2989 360 66 100 330/10 RMK AO2 T01220061 $
94790KART ART20160612185013706/12/16 18:50:31  5-MIN KART 122350Z AUTO 31011KT 10SM OVC036 13/06 A2989 360 63 200 330/11 RMK AO2 SLP121 T01280061 10144 20122 53007 $
94790KART ART20160612185513706/12/16 18:55:31  5-MIN KART 122355Z AUTO 32011KT 10SM OVC036 13/06 A2989 350 63 200 330/11 RMK AO2 SLP121 T01280061 10144 20122 53007 $
94790KART ART20160612190011206/12/16 19:00:31  5-MIN KART 130000Z AUTO 33010KT 10SM OVC036 12/06 A2990 350 66 100 340/10 RMK AO2 T01220061 $
94790KART ART20160612190511806/12/16 19:05:31  5-MIN KART 130005Z AUTO 33010G16KT 10SM OVC036 12/06 A2990 350 66 100 340/10G16 RMK AO2 T01220061 $
94790KART ART20160612191011206/12/16 19:10:31  5-MIN KART 130010Z AUTO 31008KT 10SM OVC034 12/06 A2990 350 66 100 320/08 RMK AO2 T01220061 $
94790KART ART20160612191511206/12/16 19:15:31  5-MIN KART 130015Z AUTO 30007KT 10SM OVC034 12/06 A2990 350 66 100 320/07 RMK AO2 T01220061 $
94790KART ART20160612192011206/12/16 19:20:31  5-MIN KART 130020Z AUTO 32009KT 10SM OVC033 12/07 A2990 350 68 100 330/09 RMK AO2 T01220067 $
94790KART ART20160612192511206/12/16 19:25:31  5-MIN KART 130025Z AUTO 32010KT 10SM OVC033 12/06 A2991 340 66 100 330/10 RMK AO2 T01220061 $
94790KART ART20160612193011206/12/16 19:30:31  5-MIN KART 130030Z AUTO 31010KT 10SM OVC033 12/07 A2991 340 68 100 330/10 RMK AO2 T01220067 $
94790KART ART20160612193511206/12/16 19:35:31  5-MIN KART 130035Z AUTO 32011KT 10SM OVC031 12/06 A2991 340 66 100 330/11 RMK AO2 T01220061 $
94790KART ART20160612194011206/12/16 19:40:31  5-MIN KART 130040Z AUTO 31011KT 10SM OVC031 12/06 A2991 340 66 100 320/11 RMK AO2 T01220061 $
94790KART ART20160612194511806/12/16 19:45:31  5-MIN KART 130045Z AUTO 32013G17KT 10SM OVC032 12/06 A2991 340 66 100 330/13G17 RMK AO2 T01220061 $
94790KART ART20160612195012506/12/16 19:50:31  5-MIN KART 130050Z AUTO 33012G17KT 10SM OVC032 12/06 A2991 340 66 100 340/12G17 RMK AO2 SLP127 T01220061 $
94790KART ART20160612195511906/12/16 19:55:31  5-MIN KART 130055Z AUTO 32010KT 10SM OVC032 12/06 A2991 340 66 100 340/10 RMK AO2 SLP128 T01220061 $
94790KART ART20160612200011206/12/16 20:00:31  5-MIN KART 130100Z AUTO 31012KT 10SM OVC032 12/06 A2991 340 66 100 330/12 RMK AO2 T01220061 $
94790KART ART20160612200511206/12/16 20:05:31  5-MIN KART 130105Z AUTO 32010KT 10SM OVC032 12/06 A2991 340 66 100 340/10 RMK AO2 T01220061 $
94790KART ART20160612201011206/12/16 20:10:31  5-MIN KART 130110Z AUTO 32008KT 10SM OVC031 12/06 A2992 330 66 100 330/08 RMK AO2 T01220061 $
94790KART ART20160612201511206/12/16 20:15:31  5-MIN KART 130115Z AUTO 31007KT 10SM OVC031 12/07 A2992 330 68 100 330/07 RMK AO2 T01220067 $
94790KART ART20160612202011206/12/16 20:20:31  5-MIN KART 130120Z AUTO 31006KT 10SM OVC031 12/07 A2992 330 68 100 320/06 RMK AO2 T01220067 $
94790KART ART20160612202511006/12/16 20:25:31  5-MIN KART 130125Z AUTO 31008KT 10SM OVC031 12/07 A2992 330 71 0 320/08 RMK AO2 T01170067 $
94790KART ART20160612203011006/12/16 20:30:31  5-MIN KART 130130Z AUTO 31006KT 10SM OVC031 12/07 A2993 330 71 0 320/06 RMK AO2 T01170067 $
94790KART ART20160612203511006/12/16 20:35:31  5-MIN KART 130135Z AUTO 30007KT 10SM OVC030 12/07 A2993 320 71 0 320/07 RMK AO2 T01170067 $
94790KART ART20160612204011006/12/16 20:40:31  5-MIN KART 130140Z AUTO 32007KT 10SM OVC030 12/07 A2993 320 71 0 330/07 RMK AO2 T01170067 $
94790KART ART20160612204511006/12/16 20:45:31  5-MIN KART 130145Z AUTO 31009KT 10SM OVC030 12/07 A2993 320 71 0 320/09 RMK AO2 T01170067 $
94790KART ART20160612205011906/12/16 20:50:31  5-MIN KART 130150Z AUTO 31010KT 10SM OVC030 12/07 A2993 320 68 100 320/10 RMK AO2 SLP133 T01220067 $
94790KART ART20160612205511906/12/16 20:55:31  5-MIN KART 130155Z AUTO 32006KT 10SM OVC029 12/07 A2993 320 68 100 330/06 RMK AO2 SLP134 T01220067 $
94790KART ART20160612210011206/12/16 21:00:31  5-MIN KART 130200Z AUTO 32007KT 10SM OVC029 12/07 A2993 320 68 100 330/07 RMK AO2 T01220067 $
94790KART ART20160612210511206/12/16 21:05:31  5-MIN KART 130205Z AUTO 32008KT 10SM OVC029 12/07 A2993 320 68 100 340/08 RMK AO2 T01220067 $
94790KART ART20160612211011206/12/16 21:10:31  5-MIN KART 130210Z AUTO 32007KT 10SM OVC029 12/07 A2993 320 68 100 330/07 RMK AO2 T01220067 $
94790KART ART20160612211511206/12/16 21:15:31  5-MIN KART 130215Z AUTO 33009KT 10SM OVC029 12/07 A2993 320 68 100 340/09 RMK AO2 T01220067 $
94790KART ART20160612212011206/12/16 21:20:31  5-MIN KART 130220Z AUTO 33008KT 10SM OVC029 12/07 A2993 320 68 100 340/08 RMK AO2 T01220067 $
94790KART ART20160612212511206/12/16 21:25:31  5-MIN KART 130225Z AUTO 33008KT 10SM OVC029 12/07 A2993 330 68 100 340/08 RMK AO2 T01220067 $
94790KART ART20160612213011206/12/16 21:30:31  5-MIN KART 130230Z AUTO 33008KT 10SM OVC029 12/07 A2993 320 68 100 340/08 RMK AO2 T01220067 $
94790KART ART20160612213511206/12/16 21:35:31  5-MIN KART 130235Z AUTO 33008KT 10SM OVC029 12/07 A2993 320 68 100 350/08 RMK AO2 T01220067 $
94790KART ART20160612214011206/12/16 21:40:31  5-MIN KART 130240Z AUTO 33008KT 10SM OVC028 12/07 A2993 330 68 100 340/08 RMK AO2 T01220067 $
94790KART ART20160612214511206/12/16 21:45:31  5-MIN KART 130245Z AUTO 33008KT 10SM OVC028 12/07 A2992 330 68 100 350/08 RMK AO2 T01220067 $
94790KART ART20160612215012506/12/16 21:50:31  5-MIN KART 130250Z AUTO 34007KT 10SM OVC028 12/07 A2992 330 68 100 350/07 RMK AO2 SLP133 T01220067 51019 $
94790KART ART20160612215512506/12/16 21:55:31  5-MIN KART 130255Z AUTO 33006KT 10SM OVC028 12/07 A2993 330 71 100 340/06 RMK AO2 SLP133 T01220072 51019 $
94790KART ART20160612220011206/12/16 22:00:31  5-MIN KART 130300Z AUTO 33008KT 10SM OVC028 12/07 A2993 320 71 100 340/08 RMK AO2 T01220072 $
94790KART ART20160612220511206/12/16 22:05:31  5-MIN KART 130305Z AUTO 34006KT 10SM OVC028 12/07 A2993 330 71 100 350/06 RMK AO2 T01220072 $
94790KART ART20160612221011206/12/16 22:10:31  5-MIN KART 130310Z AUTO 34009KT 10SM OVC027 12/07 A2993 320 71 100 350/09 RMK AO2 T01220072 $
94790KART ART20160612221511206/12/16 22:15:31  5-MIN KART 130315Z AUTO 34007KT 10SM OVC027 12/07 A2993 320 71 100 350/07 RMK AO2 T01220072 $
94790KART ART20160612222011206/12/16 22:20:31  5-MIN KART 130320Z AUTO 34006KT 10SM OVC027 12/07 A2993 320 71 100 350/06 RMK AO2 T01220072 $
94790KART ART20160612222511206/12/16 22:25:31  5-MIN KART 130325Z AUTO 35008KT 10SM OVC027 12/07 A2992 330 71 100 360/08 RMK AO2 T01220072 $
94790KART ART20160612223011206/12/16 22:30:31  5-MIN KART 130330Z AUTO 34007KT 10SM OVC027 12/07 A2993 320 71 100 350/07 RMK AO2 T01220072 $
94790KART ART20160612223511206/12/16 22:35:31  5-MIN KART 130335Z AUTO 34006KT 10SM OVC027 12/07 A2993 320 71 100 350/06 RMK AO2 T01220072 $
94790KART ART20160612224011206/12/16 22:40:31  5-MIN KART 130340Z AUTO 34010KT 10SM OVC026 12/07 A2993 320 71 100 350/10 RMK AO2 T01220072 $
94790KART ART20160612224511206/12/16 22:45:31  5-MIN KART 130345Z AUTO 34009KT 10SM OVC026 12/07 A2993 330 71 100 350/09 RMK AO2 T01220072 $
94790KART ART20160612225011906/12/16 22:50:31  5-MIN KART 130350Z AUTO 34008KT 10SM OVC026 12/07 A2993 320 71 100 350/08 RMK AO2 SLP134 T01220072 $
94790KART ART20160612225511906/12/16 22:55:31  5-MIN KART 130355Z AUTO 33008KT 10SM OVC026 12/07 A2993 320 71 100 340/08 RMK AO2 SLP134 T01220072 $
94790KART ART20160612230011206/12/16 23:00:31  5-MIN KART 130400Z AUTO 34009KT 10SM OVC026 12/07 A2993 320 71 100 350/09 RMK AO2 T01220072 $
94790KART ART20160612230511206/12/16 23:05:31  5-MIN KART 130405Z AUTO 34008KT 10SM OVC026 12/07 A2993 320 71 100 350/08 RMK AO2 T01220072 $
94790KART ART20160612231011206/12/16 23:10:31  5-MIN KART 130410Z AUTO 32006KT 10SM OVC026 12/07 A2993 320 71 100 340/06 RMK AO2 T01220072 $
94790KART ART20160612231511206/12/16 23:15:31  5-MIN KART 130415Z AUTO 34008KT 10SM OVC026 12/07 A2993 320 71 100 350/08 RMK AO2 T01220072 $
94790KART ART20160612232011206/12/16 23:20:31  5-MIN KART 130420Z AUTO 32005KT 10SM OVC026 12/07 A2993 320 71 100 330/05 RMK AO2 T01220072 $
94790KART ART20160612232511206/12/16 23:25:31  5-MIN KART 130425Z AUTO 33009KT 10SM OVC026 12/07 A2993 320 71 100 350/09 RMK AO2 T01220072 $
94790KART ART20160612233011206/12/16 23:30:31  5-MIN KART 130430Z AUTO 32008KT 10SM OVC026 12/07 A2994 310 71 100 330/08 RMK AO2 T01220072 $
94790KART ART20160612233511206/12/16 23:35:31  5-MIN KART 130435Z AUTO 33006KT 10SM OVC026 12/07 A2993 320 71 100 350/06 RMK AO2 T01220072 $
94790KART ART20160612234011006/12/16 23:40:31  5-MIN KART 130440Z AUTO 34006KT 10SM OVC025 12/07 A2993 320 74 0 350/06 RMK AO2 T01170072 $
94790KART ART20160612234511006/12/16 23:45:31  5-MIN KART 130445Z AUTO 33006KT 10SM OVC025 12/07 A2993 320 74 0 350/06 RMK AO2 T01170072 $
94790KART ART20160612235012706/12/16 23:50:31  5-MIN KART 130450Z AUTO 34008KT 10SM OVC025 12/07 A2994 320 74 0 360/08 RMK AO2 SLP136 T01170072 401890111 $
94790KART ART20160612235512906/12/16 23:55:31  5-MIN KART 130455Z AUTO 34009KT 10SM OVC025 12/07 A2994 320 71 100 350/09 RMK AO2 SLP136 T01220072 401890111 $
94790KART ART20160613000011006/13/16 00:00:31  5-MIN KART 130500Z AUTO 35009KT 10SM OVC025 12/07 A2994 310 74 0 360/09 RMK AO2 T01170072 $
94790KART ART20160613000511006/13/16 00:05:31  5-MIN KART 130505Z AUTO 35009KT 10SM OVC025 12/07 A2994 310 74 0 360/09 RMK AO2 T01170072 $
94790KART ART20160613001011006/13/16 00:10:31  5-MIN KART 130510Z AUTO 34010KT 10SM OVC025 12/07 A2994 310 74 0 350/10 RMK AO2 T01170072 $
94790KART ART20160613001511006/13/16 00:15:31  5-MIN KART 130515Z AUTO 34009KT 10SM OVC025 12/07 A2994 310 74 0 350/09 RMK AO2 T01170072 $
94790KART ART20160613002011006/13/16 00:20:31  5-MIN KART 130520Z AUTO 34010KT 10SM OVC025 12/07 A2994 310 74 0 350/10 RMK AO2 T01170072 $
94790KART ART20160613002511006/13/16 00:25:31  5-MIN KART 130525Z AUTO 34007KT 10SM OVC024 12/07 A2994 310 74 0 350/07 RMK AO2 T01170072 $
94790KART ART20160613003011006/13/16 00:30:31  5-MIN KART 130530Z AUTO 33006KT 10SM OVC024 12/07 A2994 310 74 0 350/06 RMK AO2 T01170072 $
94790KART ART20160613003511006/13/16 00:35:31  5-MIN KART 130535Z AUTO 33007KT 10SM OVC024 12/07 A2994 310 74 0 350/07 RMK AO2 T01170072 $
94790KART ART20160613004011006/13/16 00:40:31  5-MIN KART 130540Z AUTO 33007KT 10SM OVC024 12/07 A2994 310 74 0 340/07 RMK AO2 T01170072 $
94790KART ART20160613004511006/13/16 00:45:31  5-MIN KART 130545Z AUTO 32006KT 10SM OVC024 12/07 A2994 310 74 0 340/06 RMK AO2 T01170072 $
94790KART ART20160613005013506/13/16 00:50:31  5-MIN KART 130550Z AUTO 32007KT 10SM OVC024 12/07 A2995 300 74 0 330/07 RMK AO2 SLP141 T01170072 10128 20117 50010 $
94790KART ART20160613005513506/13/16 00:55:31  5-MIN KART 130555Z AUTO 33011KT 10SM OVC024 12/07 A2995 300 74 0 340/11 RMK AO2 SLP141 T01170072 10128 20117 50010 $
94790KART ART20160613010011006/13/16 01:00:31  5-MIN KART 130600Z AUTO 34010KT 10SM OVC023 12/07 A2995 310 74 0 350/10 RMK AO2 T01170072 $
94790KART ART20160613010511006/13/16 01:05:31  5-MIN KART 130605Z AUTO 35010KT 10SM OVC023 12/07 A2995 310 74 0 360/10 RMK AO2 T01170072 $
94790KART ART20160613011011006/13/16 01:10:31  5-MIN KART 130610Z AUTO 34010KT 10SM OVC023 12/07 A2994 310 74 0 350/10 RMK AO2 T01170072 $
94790KART ART20160613011511006/13/16 01:15:31  5-MIN KART 130615Z AUTO 33006KT 10SM OVC022 12/07 A2994 310 74 0 340/06 RMK AO2 T01170072 $
94790KART ART20160613012011006/13/16 01:20:31  5-MIN KART 130620Z AUTO 32010KT 10SM OVC022 12/07 A2995 310 74 0 340/10 RMK AO2 T01170072 $
94790KART ART20160613012511006/13/16 01:25:31  5-MIN KART 130625Z AUTO 33005KT 10SM OVC022 12/07 A2994 310 74 0 340/05 RMK AO2 T01170072 $
94790KART ART20160613013011006/13/16 01:30:31  5-MIN KART 130630Z AUTO 32008KT 10SM OVC021 12/07 A2994 310 74 0 340/08 RMK AO2 T01170072 $
94790KART ART20160613013511006/13/16 01:35:31  5-MIN KART 130635Z AUTO 33008KT 10SM OVC021 12/07 A2994 310 74 0 340/08 RMK AO2 T01170072 $
94790KART ART20160613014011006/13/16 01:40:31  5-MIN KART 130640Z AUTO 33009KT 10SM OVC021 12/07 A2995 310 74 0 340/09 RMK AO2 T01170072 $
94790KART ART20160613014511006/13/16 01:45:31  5-MIN KART 130645Z AUTO 33008KT 10SM OVC021 12/07 A2995 300 74 0 340/08 RMK AO2 T01170072 $
94790KART ART20160613015011706/13/16 01:50:31  5-MIN KART 130650Z AUTO 33007KT 10SM OVC021 12/07 A2995 300 74 0 350/07 RMK AO2 SLP142 T01170072 $
94790KART ART20160613015511706/13/16 01:55:31  5-MIN KART 130655Z AUTO 34010KT 10SM OVC021 12/07 A2995 300 74 0 350/10 RMK AO2 SLP142 T01170072 $
94790KART ART20160613020011606/13/16 02:00:31  5-MIN KART 130700Z AUTO 34011G16KT 10SM OVC021 12/07 A2995 300 74 0 350/11G16 RMK AO2 T01170072 $
94790KART ART20160616061510706/16/16 06:15:31  5-MIN KART 161115Z AUTO 00000KT 10SM CLR 16/13 A2981 430 83 600 000/00 RMK AO2 T01560128
94790KART ART20160616062010706/16/16 06:20:31  5-MIN KART 161120Z AUTO 00000KT 10SM CLR 16/13 A2981 430 80 700 000/00 RMK AO2 T01610128
94790KART ART20160616062510706/16/16 06:25:31  5-MIN KART 161125Z AUTO 00000KT 10SM CLR 16/13 A2981 430 80 700 000/00 RMK AO2 T01610128
94790KART ART20160616063010706/16/16 06:30:31  5-MIN KART 161130Z AUTO 00000KT 10SM CLR 16/13 A2982 430 80 700 000/00 RMK AO2 T01610128
94790KART ART20160616063510706/16/16 06:35:31  5-MIN KART 161135Z AUTO 00000KT 10SM CLR 16/13 A2982 430 80 700 000/00 RMK AO2 T01610128
94790KART ART20160616064010706/16/16 06:40:31  5-MIN KART 161140Z AUTO 00000KT 10SM CLR 17/12 A2982 420 75 800 000/00 RMK AO2 T01670122
94790KART ART20160616064510706/16/16 06:45:31  5-MIN KART 161145Z AUTO 00000KT 10SM CLR 17/13 A2982 420 77 800 000/00 RMK AO2 T01670128
94790KART ART20160616065013206/16/16 06:50:31  5-MIN KART 161150Z AUTO 00000KT 10SM CLR 17/13 A2982 420 80 800 000/00 RMK AO2 SLP094 T01670133 10167 20139 56005
94790KART ART20160616065513206/16/16 06:55:31  5-MIN KART 161155Z AUTO 00000KT 10SM CLR 17/13 A2982 420 77 800 000/00 RMK AO2 SLP095 T01670128 10167 20139 56005
94790KART ART20160616070009906/16/16 07:00:31  5-MIN KART 161200Z AUTO 10SM CLR 17/13 A2982 420 80 800 M /M RMK AO2 T01670133 $
94790KART ART20160616070510906/16/16 07:05:31  5-MIN KART 161205Z AUTO 00000KT 10SM CLR 17/13 A2982 420 80 800 000/00 RMK AO2 T01670133 $
94790KART ART20160616071010906/16/16 07:10:31  5-MIN KART 161210Z AUTO 00000KT 10SM CLR 17/13 A2982 420 80 800 000/00 RMK AO2 T01670133 $
94790KART ART20160616071510906/16/16 07:15:31  5-MIN KART 161215Z AUTO 00000KT 10SM CLR 17/13 A2982 420 78 800 000/00 RMK AO2 T01720133 $
94790KART ART20160616072010906/16/16 07:20:31  5-MIN KART 161220Z AUTO 00000KT 10SM CLR 18/14 A2982 420 78 900 000/00 RMK AO2 T01780139 $
94790KART ART20160616072510906/16/16 07:25:31  5-MIN KART 161225Z AUTO 05004KT 10SM CLR 18/13 A2982 420 75 900 060/04 RMK AO2 T01780133 $
94790KART ART20160616073010906/16/16 07:30:31  5-MIN KART 161230Z AUTO 05005KT 10SM CLR 18/13 A2982 420 75 900 060/05 RMK AO2 T01780133 $
94790KART ART20160616073510906/16/16 07:35:31  5-MIN KART 161235Z AUTO 05004KT 10SM CLR 18/13 A2982 420 75 900 070/04 RMK AO2 T01780133 $
94790KART ART20160616074010906/16/16 07:40:31  5-MIN KART 161240Z AUTO 06004KT 10SM CLR 18/13 A2982 420 75 900 070/04 RMK AO2 T01780133 $
94790KART ART20160616074510906/16/16 07:45:31  5-MIN KART 161245Z AUTO 06004KT 10SM CLR 18/13 A2982 420 75 900 080/04 RMK AO2 T01780133 $
94790KART ART20160616075011706/16/16 07:50:31  5-MIN KART 161250Z AUTO 07004KT 10SM CLR 18/14 A2982 420 75 1000 080/04 RMK AO2 SLP094 T01830139 $
94790KART ART20160616075511706/16/16 07:55:31  5-MIN KART 161255Z AUTO 06005KT 10SM CLR 19/14 A2982 420 72 1000 080/05 RMK AO2 SLP094 T01890139 $
94790KART ART20160616080011006/16/16 08:00:31  5-MIN KART 161300Z AUTO 06005KT 10SM CLR 19/14 A2982 420 70 1100 070/05 RMK AO2 T01940139 $
94790KART ART20160616080511006/16/16 08:05:31  5-MIN KART 161305Z AUTO 06005KT 10SM CLR 20/14 A2982 420 67 1100 070/05 RMK AO2 T02000139 $
94790KART ART20160616081011006/16/16 08:10:31  5-MIN KART 161310Z AUTO 08005KT 10SM CLR 21/14 A2982 430 65 1200 090/05 RMK AO2 T02060139 $
94790KART ART20160616081511006/16/16 08:15:31  5-MIN KART 161315Z AUTO 08005KT 10SM CLR 21/14 A2982 430 63 1300 100/05 RMK AO2 T02110139 $
94790KART ART20160616082011006/16/16 08:20:31  5-MIN KART 161320Z AUTO 08006KT 10SM CLR 21/14 A2982 430 63 1300 100/06 RMK AO2 T02110139 $
94790KART ART20160616082511006/16/16 08:25:31  5-MIN KART 161325Z AUTO 08006KT 10SM CLR 22/14 A2981 430 61 1300 090/06 RMK AO2 T02170139 $
94790KART ART20160616083011006/16/16 08:30:31  5-MIN KART 161330Z AUTO 08006KT 10SM CLR 22/14 A2981 430 61 1300 090/06 RMK AO2 T02170139 $
94790KART ART20160616083511006/16/16 08:35:31  5-MIN KART 161335Z AUTO 08005KT 10SM CLR 22/13 A2981 430 56 1400 090/05 RMK AO2 T02220133 $
94790KART ART20160616084005006/16/16 08:40:31  5-MIN KART 161340Z AUTO RVRNO $
94790KART ART20160616084510106/16/16 08:45:31  5-MIN KART 161345Z AUTO 07006KT 23/13 A2981 430 53 1500 090/06 RMK AO2 T02330133 $
94790KART ART20160616085011306/16/16 08:50:31  5-MIN KART 161350Z AUTO 08010KT 10SM 24/14 A2981 430 53 1600 090/10 RMK AO2 SLP091 T02390139 $
94790KART ART20160616085511306/16/16 08:55:31  5-MIN KART 161355Z AUTO 08008KT 10SM 24/13 A2981 430 49 1600 090/08 RMK AO2 SLP091 T02390128 $
94790KART ART20160616090010606/16/16 09:00:31  5-MIN KART 161400Z AUTO 06010KT 10SM 24/13 A2981 430 47 1700 080/10 RMK AO2 T02440128 $
94790KART ART20160616090510606/16/16 09:05:31  5-MIN KART 161405Z AUTO 08009KT 10SM 24/12 A2981 430 47 1600 090/09 RMK AO2 T02390122 $
94790KART ART20160616091010606/16/16 09:10:31  5-MIN KART 161410Z AUTO 07009KT 10SM 24/12 A2981 430 47 1600 080/09 RMK AO2 T02390122 $
94790KART ART20160616091511006/16/16 09:15:31  5-MIN KART 161415Z AUTO 06010KT 10SM CLR 24/13 A2981 440 47 1700 070/10 RMK AO2 T02440128 $
94790KART ART20160616092011006/16/16 09:20:31  5-MIN KART 161420Z AUTO 06009KT 10SM CLR 24/13 A2980 440 51 1600 080/09 RMK AO2 T02390133 $
94790KART ART20160616092511006/16/16 09:25:31  5-MIN KART 161425Z AUTO 07008KT 10SM CLR 24/13 A2980 440 51 1600 080/08 RMK AO2 T02390133 $
94790KART ART20160616093011006/16/16 09:30:31  5-MIN KART 161430Z AUTO 07009KT 10SM CLR 24/13 A2980 440 51 1600 080/09 RMK AO2 T02390133 $
94790KART ART20160616093511006/16/16 09:35:31  5-MIN KART 161435Z AUTO 06009KT 10SM CLR 24/13 A2980 440 49 1600 070/09 RMK AO2 T02390128 $
94790KART ART20160616094011006/16/16 09:40:31  5-MIN KART 161440Z AUTO 07008KT 10SM CLR 24/13 A2980 440 49 1700 080/08 RMK AO2 T02440133 $
94790KART ART20160616094511006/16/16 09:45:31  5-MIN KART 161445Z AUTO 07009KT 10SM CLR 25/13 A2980 440 48 1700 080/09 RMK AO2 T02500133 $
94790KART ART20160616095011706/16/16 09:50:31  5-MIN KART 161450Z AUTO 08009KT 10SM CLR 25/13 A2980 440 48 1700 090/09 RMK AO2 SLP086 T02500133 $
94790KART ART20160616095511706/16/16 09:55:31  5-MIN KART 161455Z AUTO 07008KT 10SM CLR 25/13 A2980 440 46 1700 080/08 RMK AO2 SLP087 T02500128 $
94790KART ART20160616100011006/16/16 10:00:31  5-MIN KART 161500Z AUTO 07008KT 10SM CLR 26/13 A2980 440 46 1800 090/08 RMK AO2 T02560133 $
94790KART ART20160616100511006/16/16 10:05:31  5-MIN KART 161505Z AUTO 07007KT 10SM CLR 26/13 A2980 440 46 1800 080/07 RMK AO2 T02560133 $
94790KART ART20160616101011006/16/16 10:10:31  5-MIN KART 161510Z AUTO 05008KT 10SM CLR 26/14 A2980 440 48 1800 070/08 RMK AO2 T02560139 $
94790KART ART20160616101511006/16/16 10:15:31  5-MIN KART 161515Z AUTO 06010KT 10SM CLR 26/13 A2980 440 44 1900 070/10 RMK AO2 T02610133 $
94790KART ART20160616102011006/16/16 10:20:31  5-MIN KART 161520Z AUTO 05009KT 10SM CLR 26/13 A2980 440 46 1800 060/09 RMK AO2 T02560133 $
94790KART ART20160616102511006/16/16 10:25:31  5-MIN KART 161525Z AUTO 05010KT 10SM CLR 26/12 A2980 440 41 1900 070/10 RMK AO2 T02610122 $
94790KART ART20160616103011606/16/16 10:30:31  5-MIN KART 161530Z AUTO 05012G17KT 10SM CLR 27/13 A2980 450 41 1900 060/12G17 RMK AO2 T02670128 $
94790KART ART20160616103511606/16/16 10:35:31  5-MIN KART 161535Z AUTO 05013G18KT 10SM CLR 27/12 A2980 450 38 1900 070/13G18 RMK AO2 T02670117 $
94790KART ART20160616104011606/16/16 10:40:31  5-MIN KART 161540Z AUTO 06014G18KT 10SM CLR 27/11 A2980 440 36 1900 070/14G18 RMK AO2 T02670106 $
94790KART ART20160616104511006/16/16 10:45:31  5-MIN KART 161545Z AUTO 07013KT 10SM CLR 27/10 A2980 440 34 1900 080/13 RMK AO2 T02670100 $
94790KART ART20160616105011706/16/16 10:50:31  5-MIN KART 161550Z AUTO 05015KT 10SM CLR 27/11 A2980 450 34 2000 060/15 RMK AO2 SLP085 T02720106 $
94790KART ART20160616105512306/16/16 10:55:31  5-MIN KART 161555Z AUTO 05013G19KT 10SM CLR 27/09 A2980 440 32 1900 060/13G19 RMK AO2 SLP085 T02670089 $
94790KART ART20160616110011606/16/16 11:00:31  5-MIN KART 161600Z AUTO 05013G19KT 10SM CLR 27/08 A2980 440 30 2000 060/13G19 RMK AO2 T02720083 $
94790KART ART20160616110511006/16/16 11:05:31  5-MIN KART 161605Z AUTO 05013KT 10SM CLR 27/09 A2980 450 31 2000 070/13 RMK AO2 T02720089 $
94790KART ART20160616111011006/16/16 11:10:31  5-MIN KART 161610Z AUTO 05009KT 10SM CLR 27/09 A2979 450 32 2000 070/09 RMK AO2 T02720094 $
94790KART ART20160616111511006/16/16 11:15:31  5-MIN KART 161615Z AUTO 04011KT 10SM CLR 28/10 A2979 450 32 2100 050/11 RMK AO2 T02780100 $
94790KART ART20160616112011006/16/16 11:20:31  5-MIN KART 161620Z AUTO 04012KT 10SM CLR 28/09 A2979 450 31 2100 050/12 RMK AO2 T02780094 $
94790KART ART20160616112511606/16/16 11:25:31  5-MIN KART 161625Z AUTO 06012G19KT 10SM CLR 28/10 A2979 450 32 2100 070/12G19 RMK AO2 T02780100 $
94790KART ART20160616113011606/16/16 11:30:31  5-MIN KART 161630Z AUTO 05013G19KT 10SM CLR 27/10 A2979 460 33 2000 070/13G19 RMK AO2 T02720100 $
94790KART ART20160616113511006/16/16 11:35:31  5-MIN KART 161635Z AUTO 05010KT 10SM CLR 27/11 A2979 450 34 2000 060/10 RMK AO2 T02720106 $
94790KART ART20160616114011006/16/16 11:40:31  5-MIN KART 161640Z AUTO 03013KT 10SM CLR 28/10 A2979 450 32 2100 040/13 RMK AO2 T02780100 $
94790KART ART20160616114511606/16/16 11:45:31  5-MIN KART 161645Z AUTO 04015G20KT 10SM CLR 28/10 A2979 450 32 2100 050/15G20 RMK AO2 T02780100 $
94790KART ART20160616115012306/16/16 11:50:31  5-MIN KART 161650Z AUTO 06008G20KT 10SM CLR 27/09 A2979 450 32 2000 070/08G20 RMK AO2 SLP082 T02720094 $
94790KART ART20160616115511706/16/16 11:55:31  5-MIN KART 161655Z AUTO 05011KT 10SM CLR 27/09 A2979 450 32 2000 060/11 RMK AO2 SLP082 T02720094 $
94790KART ART20160616120011006/16/16 12:00:31  5-MIN KART 161700Z AUTO 06012KT 10SM CLR 28/09 A2979 450 30 2100 070/12 RMK AO2 T02780089 $
94790KART ART20160616120511006/16/16 12:05:31  5-MIN KART 161705Z AUTO 05006KT 10SM CLR 27/09 A2978 460 31 2000 060/06 RMK AO2 T02720089 $
94790KART ART20160616121011606/16/16 12:10:31  5-MIN KART 161710Z AUTO 05012G16KT 10SM CLR 28/09 A2978 460 30 2100 060/12G16 RMK AO2 T02780089 $
94790KART ART20160616121511606/16/16 12:15:31  5-MIN KART 161715Z AUTO 06008G16KT 10SM CLR 27/08 A2978 460 30 2000 070/08G16 RMK AO2 T02720083 $
94790KART ART20160616122011606/16/16 12:20:31  5-MIN KART 161720Z AUTO 05013G18KT 10SM CLR 28/08 A2978 460 29 2100 060/13G18 RMK AO2 T02780083 $
94790KART ART20160616122511606/16/16 12:25:31  5-MIN KART 161725Z AUTO 04014G18KT 10SM CLR 28/08 A2978 460 29 2100 050/14G18 RMK AO2 T02780083 $
94790KART ART20160616123011006/16/16 12:30:31  5-MIN KART 161730Z AUTO 03013KT 10SM CLR 28/08 A2978 460 29 2100 050/13 RMK AO2 T02780083 $
94790KART ART20160616123511606/16/16 12:35:31  5-MIN KART 161735Z AUTO 07010G18KT 10SM CLR 28/08 A2978 460 29 2100 080/10G18 RMK AO2 T02780083 $
94790KART ART20160616124011606/16/16 12:40:31  5-MIN KART 161740Z AUTO 04013G18KT 10SM CLR 28/09 A2978 460 31 2100 050/13G18 RMK AO2 T02780094 $
94790KART ART20160616124511006/16/16 12:45:31  5-MIN KART 161745Z AUTO 03010KT 10SM CLR 28/08 A2978 460 29 2100 040/10 RMK AO2 T02780083 $
94790KART ART20160616125012906/16/16 12:50:31  5-MIN KART 161750Z AUTO 03010KT 10SM CLR 28/08 A2978 460 29 2100 040/10 RMK AO2 SLP079 T02780083 10278 20167 $
94790KART ART20160616125512906/16/16 12:55:31  5-MIN KART 161755Z AUTO 07009KT 10SM CLR 28/09 A2978 460 30 2100 080/09 RMK AO2 SLP080 T02780089 10278 20167 $
94790KART ART20160616130011606/16/16 13:00:31  5-MIN KART 161800Z AUTO 01007G18KT 10SM CLR 28/08 A2978 460 28 2100 030/07G18 RMK AO2 T02780078 $
94790KART ART20160616130511606/16/16 13:05:31  5-MIN KART 161805Z AUTO 05012G18KT 10SM CLR 28/08 A2977 470 28 2100 060/12G18 RMK AO2 T02780078 $
94790KART ART20160616131011006/16/16 13:10:31  5-MIN KART 161810Z AUTO 05013KT 10SM CLR 28/08 A2977 470 29 2100 060/13 RMK AO2 T02780083 $
94790KART ART20160616131511006/16/16 13:15:31  5-MIN KART 161815Z AUTO 02012KT 10SM CLR 28/08 A2977 470 28 2200 040/12 RMK AO2 T02830083 $
94790KART ART20160616132011006/16/16 13:20:31  5-MIN KART 161820Z AUTO 07011KT 10SM CLR 28/08 A2977 470 29 2100 080/11 RMK AO2 T02780083 $
94790KART ART20160616132511006/16/16 13:25:31  5-MIN KART 161825Z AUTO 04013KT 10SM CLR 28/09 A2976 470 30 2200 050/13 RMK AO2 T02830094 $
94790KART ART20160616133011606/16/16 13:30:31  5-MIN KART 161830Z AUTO 03011G20KT 10SM CLR 28/09 A2976 470 30 2100 040/11G20 RMK AO2 T02780089 $
94790KART ART20160616133511606/16/16 13:35:31  5-MIN KART 161835Z AUTO 03010G20KT 10SM CLR 28/09 A2976 480 31 2100 040/10G20 RMK AO2 T02780094 $
94790KART ART20160616134011006/16/16 13:40:31  5-MIN KART 161840Z AUTO 01010KT 10SM CLR 28/10 A2976 480 31 2200 020/10 RMK AO2 T02830100 $
94790KART ART20160616134511006/16/16 13:45:31  5-MIN KART 161845Z AUTO 02010KT 10SM CLR 28/10 A2976 480 31 2200 030/10 RMK AO2 T02830100 $
94790KART ART20160616135011706/16/16 13:50:31  5-MIN KART 161850Z AUTO 04007KT 10SM CLR 28/11 A2976 480 33 2200 060/07 RMK AO2 SLP072 T02830111 $
94790KART ART20160616135512306/16/16 13:55:31  5-MIN KART 161855Z AUTO 06010G23KT 10SM CLR 28/11 A2976 480 33 2100 070/10G23 RMK AO2 SLP072 T02780106 $
94790KART ART20160616140011606/16/16 14:00:31  5-MIN KART 161900Z AUTO 05014G23KT 10SM CLR 28/11 A2976 480 33 2100 070/14G23 RMK AO2 T02780106 $
94790KART ART20160616140511606/16/16 14:05:31  5-MIN KART 161905Z AUTO 03010G17KT 10SM CLR 28/09 A2976 480 31 2100 050/10G17 RMK AO2 T02780094 $
94790KART ART20160616141011006/16/16 14:10:31  5-MIN KART 161910Z AUTO 04013KT 10SM CLR 28/09 A2976 480 31 2100 050/13 RMK AO2 T02780094 $
94790KART ART20160616141511006/16/16 14:15:31  5-MIN KART 161915Z AUTO 04010KT 10SM CLR 28/09 A2976 480 30 2100 060/10 RMK AO2 T02780089 $
94790KART ART20160616142011006/16/16 14:20:31  5-MIN KART 161920Z AUTO 05006KT 10SM CLR 28/10 A2976 480 32 2100 060/06 RMK AO2 T02780100 $
94790KART ART20160616142511606/16/16 14:25:31  5-MIN KART 161925Z AUTO 05010G20KT 10SM CLR 28/09 A2976 480 31 2100 070/10G20 RMK AO2 T02780094 $
94790KART ART20160616143011606/16/16 14:30:31  5-MIN KART 161930Z AUTO 04011G20KT 10SM CLR 28/09 A2976 480 31 2100 050/11G20 RMK AO2 T02780094 $
94790KART ART20160616143511006/16/16 14:35:31  5-MIN KART 161935Z AUTO 03011KT 10SM CLR 28/09 A2976 480 30 2100 040/11 RMK AO2 T02780089 $
94790KART ART20160616144011606/16/16 14:40:31  5-MIN KART 161940Z AUTO 04014G18KT 10SM CLR 28/09 A2975 480 30 2200 060/14G18 RMK AO2 T02830094 $
94790KART ART20160616144511606/16/16 14:45:31  5-MIN KART 161945Z AUTO 03013G18KT 10SM CLR 28/09 A2975 480 30 2100 050/13G18 RMK AO2 T02780089 $
94790KART ART20160616145011706/16/16 14:50:31  5-MIN KART 161950Z AUTO 02013KT 10SM CLR 28/08 A2975 490 27 2200 030/13 RMK AO2 SLP070 T02830078 $
94790KART ART20160616145511706/16/16 14:55:31  5-MIN KART 161955Z AUTO 01012KT 10SM CLR 28/08 A2975 490 27 2200 030/12 RMK AO2 SLP069 T02830078 $
94790KART ART20160616150011006/16/16 15:00:31  5-MIN KART 162000Z AUTO 03011KT 10SM CLR 28/08 A2975 490 28 2200 040/11 RMK AO2 T02830083 $
94790KART ART20160616150511006/16/16 15:05:31  5-MIN KART 162005Z AUTO 01014KT 10SM CLR 28/08 A2975 490 28 2200 030/14 RMK AO2 T02830083 $
94790KART ART20160616151011606/16/16 15:10:31  5-MIN KART 162010Z AUTO 03012G18KT 10SM CLR 28/08 A2975 490 28 2200 050/12G18 RMK AO2 T02830083 $
94790KART ART20160616151511606/16/16 15:15:31  5-MIN KART 162015Z AUTO 05013G18KT 10SM CLR 28/08 A2975 490 29 2100 060/13G18 RMK AO2 T02780083 $
94790KART ART20160616152011006/16/16 15:20:31  5-MIN KART 162020Z AUTO 05012KT 10SM CLR 28/08 A2975 490 29 2100 060/12 RMK AO2 T02780083 $
94790KART ART20160616152511006/16/16 15:25:31  5-MIN KART 162025Z AUTO 04012KT 10SM CLR 28/08 A2975 490 29 2100 060/12 RMK AO2 T02780083 $
94790KART ART20160616153011006/16/16 15:30:31  5-MIN KART 162030Z AUTO 04011KT 10SM CLR 28/08 A2975 490 28 2100 060/11 RMK AO2 T02780078 $
94790KART ART20160616153511006/16/16 15:35:31  5-MIN KART 162035Z AUTO 03011KT 10SM CLR 28/08 A2975 490 28 2100 050/11 RMK AO2 T02780078 $
94790KART ART20160616154011006/16/16 15:40:31  5-MIN KART 162040Z AUTO 03012KT 10SM CLR 28/08 A2975 490 28 2100 050/12 RMK AO2 T02780078 $
94790KART ART20160616154511006/16/16 15:45:31  5-MIN KART 162045Z AUTO 04013KT 10SM CLR 28/08 A2975 490 28 2100 060/13 RMK AO2 T02780078 $
94790KART ART20160616155012306/16/16 15:50:31  5-MIN KART 162050Z AUTO 03011KT 10SM CLR 28/08 A2975 490 28 2100 040/11 RMK AO2 SLP068 T02780078 58006 $
94790KART ART20160616155512906/16/16 15:55:31  5-MIN KART 162055Z AUTO 03014G19KT 10SM CLR 28/07 A2975 490 27 2100 050/14G19 RMK AO2 SLP068 T02780072 58006 $
94790KART ART20160616160011606/16/16 16:00:31  5-MIN KART 162100Z AUTO 04011G19KT 10SM CLR 28/07 A2975 490 27 2100 050/11G19 RMK AO2 T02780072 $
94790KART ART20160616160511006/16/16 16:05:31  5-MIN KART 162105Z AUTO 03013KT 10SM CLR 28/08 A2975 490 29 2100 040/13 RMK AO2 T02780083 $
94790KART ART20160616161011006/16/16 16:10:31  5-MIN KART 162110Z AUTO 03013KT 10SM CLR 28/07 A2974 490 27 2100 040/13 RMK AO2 T02780072 $
94790KART ART20160616161511006/16/16 16:15:31  5-MIN KART 162115Z AUTO 03011KT 10SM CLR 28/08 A2974 490 28 2100 040/11 RMK AO2 T02780078 $
94790KART ART20160616162011606/16/16 16:20:31  5-MIN KART 162120Z AUTO 03015G20KT 10SM CLR 28/07 A2974 490 27 2100 040/15G20 RMK AO2 T02780072 $
94790KART ART20160616162511606/16/16 16:25:31  5-MIN KART 162125Z AUTO 02014G20KT 10SM CLR 28/07 A2974 490 27 2100 040/14G20 RMK AO2 T02780072 $
94790KART ART20160616163011606/16/16 16:30:31  5-MIN KART 162130Z AUTO 04015G20KT 10SM CLR 27/07 A2975 490 27 2100 050/15G20 RMK AO2 T02720072 $
94790KART ART20160616163511006/16/16 16:35:31  5-MIN KART 162135Z AUTO 03014KT 10SM CLR 27/07 A2975 490 27 2100 040/14 RMK AO2 T02720072 $
94790KART ART20160616164011006/16/16 16:40:31  5-MIN KART 162140Z AUTO 04013KT 10SM CLR 27/07 A2975 490 27 2100 050/13 RMK AO2 T02720072 $
94790KART ART20160616164511006/16/16 16:45:31  5-MIN KART 162145Z AUTO 03015KT 10SM CLR 27/07 A2975 490 26 2000 040/15 RMK AO2 T02720067 $
94790KART ART20160616165011706/16/16 16:50:31  5-MIN KART 162150Z AUTO 03015KT 10SM CLR 27/07 A2975 490 26 2000 040/15 RMK AO2 SLP069 T02720067 $
94790KART ART20160616165512306/16/16 16:55:31  5-MIN KART 162155Z AUTO 03016G21KT 10SM CLR 27/06 A2975 490 25 2000 040/16G21 RMK AO2 SLP069 T02720061 $
94790KART ART20160616170011006/16/16 17:00:31  5-MIN KART 162200Z AUTO 04014KT 10SM CLR 27/07 A2975 490 27 2000 050/14 RMK AO2 T02670067 $
94790KART ART20160616170511006/16/16 17:05:31  5-MIN KART 162205Z AUTO 03014KT 10SM CLR 27/07 A2975 490 28 2000 040/14 RMK AO2 T02670072 $
94790KART ART20160616171011006/16/16 17:10:31  5-MIN KART 162210Z AUTO 05014KT 10SM CLR 27/07 A2975 490 27 2000 060/14 RMK AO2 T02670067 $
94790KART ART20160616171511006/16/16 17:15:31  5-MIN KART 162215Z AUTO 05014KT 10SM CLR 27/07 A2975 490 27 2000 060/14 RMK AO2 T02670067 $
94790KART ART20160616172011006/16/16 17:20:31  5-MIN KART 162220Z AUTO 04013KT 10SM CLR 26/07 A2975 490 28 1900 050/13 RMK AO2 T02610067 $
94790KART ART20160616172511006/16/16 17:25:31  5-MIN KART 162225Z AUTO 04013KT 10SM CLR 26/07 A2975 490 28 1900 050/13 RMK AO2 T02610067 $
94790KART ART20160616173011006/16/16 17:30:31  5-MIN KART 162230Z AUTO 03014KT 10SM CLR 26/07 A2976 480 28 1900 040/14 RMK AO2 T02610067 $
94790KART ART20160616173511006/16/16 17:35:31  5-MIN KART 162235Z AUTO 05012KT 10SM CLR 26/07 A2976 480 28 1900 060/12 RMK AO2 T02610067 $
94790KART ART20160616174011006/16/16 17:40:31  5-MIN KART 162240Z AUTO 04012KT 10SM CLR 26/07 A2976 480 29 1800 060/12 RMK AO2 T02560067 $
94790KART ART20160616174511006/16/16 17:45:31  5-MIN KART 162245Z AUTO 04014KT 10SM CLR 26/07 A2976 480 29 1800 050/14 RMK AO2 T02560067 $
94790KART ART20160616175011706/16/16 17:50:31  5-MIN KART 162250Z AUTO 04011KT 10SM CLR 26/07 A2976 480 29 1800 050/11 RMK AO2 SLP074 T02560067 $
94790KART ART20160616175511706/16/16 17:55:31  5-MIN KART 162255Z AUTO 03014KT 10SM CLR 26/07 A2976 470 29 1800 040/14 RMK AO2 SLP074 T02560067 $
94790KART ART20160616180011006/16/16 18:00:31  5-MIN KART 162300Z AUTO 03012KT 10SM CLR 26/06 A2977 470 27 1800 040/12 RMK AO2 T02560056 $
94790KART ART20160616180511006/16/16 18:05:31  5-MIN KART 162305Z AUTO 03014KT 10SM CLR 26/05 A2977 470 26 1800 040/14 RMK AO2 T02560050 $
94790KART ART20160616181011006/16/16 18:10:31  5-MIN KART 162310Z AUTO 03012KT 10SM CLR 25/04 A2977 470 26 1800 040/12 RMK AO2 T02500044 $
94790KART ART20160616181511006/16/16 18:15:31  5-MIN KART 162315Z AUTO 04010KT 10SM CLR 25/04 A2977 470 26 1800 050/10 RMK AO2 T02500044 $
94790KART ART20160616182011006/16/16 18:20:31  5-MIN KART 162320Z AUTO 04011KT 10SM CLR 25/05 A2977 470 27 1800 050/11 RMK AO2 T02500050 $
94790KART ART20160616182511006/16/16 18:25:31  5-MIN KART 162325Z AUTO 04011KT 10SM CLR 24/05 A2977 470 28 1700 050/11 RMK AO2 T02440050 $
94790KART ART20160616183011006/16/16 18:30:31  5-MIN KART 162330Z AUTO 04009KT 10SM CLR 24/06 A2978 460 29 1700 050/09 RMK AO2 T02440056 $
94790KART ART20160616183511006/16/16 18:35:31  5-MIN KART 162335Z AUTO 04010KT 10SM CLR 24/06 A2978 460 29 1700 050/10 RMK AO2 T02440056 $
94790KART ART20160616184011006/16/16 18:40:31  5-MIN KART 162340Z AUTO 05010KT 10SM CLR 24/05 A2978 460 28 1700 060/10 RMK AO2 T02440050 $
94790KART ART20160616184511006/16/16 18:45:31  5-MIN KART 162345Z AUTO 05008KT 10SM CLR 23/06 A2978 460 31 1600 060/08 RMK AO2 T02330056 $
94790KART ART20160616185013506/16/16 18:50:31  5-MIN KART 162350Z AUTO 05007KT 10SM CLR 23/07 A2978 460 35 1500 070/07 RMK AO2 SLP081 T02280067 10283 20228 56012 $
94790KART ART20160616185513506/16/16 18:55:31  5-MIN KART 162355Z AUTO 05009KT 10SM CLR 22/06 A2978 460 35 1400 070/09 RMK AO2 SLP081 T02220061 10283 20222 56012 $
94790KART ART20160616190011006/16/16 19:00:31  5-MIN KART 170000Z AUTO 06009KT 10SM CLR 22/05 A2978 460 32 1400 070/09 RMK AO2 T02220050 $
94790KART ART20160616190511006/16/16 19:05:31  5-MIN KART 170005Z AUTO 05009KT 10SM CLR 22/05 A2978 460 32 1400 070/09 RMK AO2 T02220050 $
94790KART ART20160616191011006/16/16 19:10:31  5-MIN KART 170010Z AUTO 06009KT 10SM CLR 22/04 A2979 450 31 1400 070/09 RMK AO2 T02220044 $
94790KART ART20160616191511006/16/16 19:15:31  5-MIN KART 170015Z AUTO 06008KT 10SM CLR 22/04 A2979 450 32 1400 070/08 RMK AO2 T02170044 $
94790KART ART20160616192011006/16/16 19:20:31  5-MIN KART 170020Z AUTO 06008KT 10SM CLR 21/05 A2979 450 34 1300 070/08 RMK AO2 T02110050 $
94790KART ART20160616192511006/16/16 19:25:31  5-MIN KART 170025Z AUTO 06008KT 10SM CLR 21/05 A2979 450 35 1200 070/08 RMK AO2 T02060050 $
94790KART ART20160616193011006/16/16 19:30:31  5-MIN KART 170030Z AUTO 06008KT 10SM CLR 21/05 A2979 450 35 1200 070/08 RMK AO2 T02060050 $
94790KART ART20160616193511006/16/16 19:35:31  5-MIN KART 170035Z AUTO 06008KT 10SM CLR 20/05 A2979 450 37 1200 070/08 RMK AO2 T02000050 $
94790KART ART20160616194011006/16/16 19:40:31  5-MIN KART 170040Z AUTO 07007KT 10SM CLR 19/05 A2979 450 38 1100 080/07 RMK AO2 T01940050 $
94790KART ART20160616194511006/16/16 19:45:31  5-MIN KART 170045Z AUTO 07006KT 10SM CLR 19/05 A2979 450 38 1100 090/06 RMK AO2 T01940050 $
94790KART ART20160616195011706/16/16 19:50:31  5-MIN KART 170050Z AUTO 07006KT 10SM CLR 19/05 A2979 450 38 1100 080/06 RMK AO2 SLP085 T01940050 $
94790KART ART20160616195511706/16/16 19:55:31  5-MIN KART 170055Z AUTO 07005KT 10SM CLR 19/05 A2979 450 39 1000 090/05 RMK AO2 SLP085 T01890050 $
94790KART ART20160616200011006/16/16 20:00:31  5-MIN KART 170100Z AUTO 08005KT 10SM CLR 19/05 A2979 450 39 1000 090/05 RMK AO2 T01890050 $
94790KART ART20160616200511006/16/16 20:05:31  5-MIN KART 170105Z AUTO 08005KT 10SM CLR 19/06 A2979 450 41 1000 100/05 RMK AO2 T01890056 $
94790KART ART20160616201011006/16/16 20:10:31  5-MIN KART 170110Z AUTO 09006KT 10SM CLR 19/06 A2980 440 41 1000 100/06 RMK AO2 T01890056 $
94790KART ART20160616201511006/16/16 20:15:31  5-MIN KART 170115Z AUTO 08005KT 10SM CLR 19/06 A2980 440 41 1000 100/05 RMK AO2 T01890056 $
94790KART ART20160616202011006/16/16 20:20:31  5-MIN KART 170120Z AUTO 08005KT 10SM CLR 18/06 A2980 440 42 1000 100/05 RMK AO2 T01830056 $
94790KART ART20160616202511006/16/16 20:25:31  5-MIN KART 170125Z AUTO 08006KT 10SM CLR 18/06 A2981 440 42 1000 090/06 RMK AO2 T01830056 $
94790KART ART20160616203010906/16/16 20:30:31  5-MIN KART 170130Z AUTO 08006KT 10SM CLR 18/06 A2981 430 44 900 090/06 RMK AO2 T01780056 $
94790KART ART20160616203510906/16/16 20:35:31  5-MIN KART 170135Z AUTO 07005KT 10SM CLR 18/06 A2981 430 44 900 080/05 RMK AO2 T01780056 $
94790KART ART20160616204010906/16/16 20:40:31  5-MIN KART 170140Z AUTO 06005KT 10SM CLR 17/06 A2981 430 49 800 080/05 RMK AO2 T01670061 $
94790KART ART20160616204510906/16/16 20:45:31  5-MIN KART 170145Z AUTO 08004KT 10SM CLR 17/06 A2981 430 47 800 090/04 RMK AO2 T01720061 $
94790KART ART20160616205011606/16/16 20:50:31  5-MIN KART 170150Z AUTO 07005KT 10SM CLR 17/06 A2981 430 47 800 090/05 RMK AO2 SLP091 T01720061 $
94790KART ART20160616205511606/16/16 20:55:31  5-MIN KART 170155Z AUTO 07005KT 10SM CLR 17/06 A2982 430 47 800 090/05 RMK AO2 SLP091 T01720061 $
94790KART ART20160616210010906/16/16 21:00:31  5-MIN KART 170200Z AUTO 08005KT 10SM CLR 17/06 A2982 430 49 800 090/05 RMK AO2 T01670061 $
94790KART ART20160616210510906/16/16 21:05:31  5-MIN KART 170205Z AUTO 08005KT 10SM CLR 17/06 A2982 420 49 800 090/05 RMK AO2 T01670061 $
94790KART ART20160616211010906/16/16 21:10:31  5-MIN KART 170210Z AUTO 08005KT 10SM CLR 16/06 A2982 420 51 700 090/05 RMK AO2 T01610061 $
94790KART ART20160616211510906/16/16 21:15:31  5-MIN KART 170215Z AUTO 08005KT 10SM CLR 16/07 A2982 420 53 700 090/05 RMK AO2 T01610067 $
94790KART ART20160616212010906/16/16 21:20:31  5-MIN KART 170220Z AUTO 08004KT 10SM CLR 16/07 A2982 420 53 700 090/04 RMK AO2 T01610067 $
94790KART ART20160616212510906/16/16 21:25:31  5-MIN KART 170225Z AUTO 08003KT 10SM CLR 16/07 A2982 420 55 600 090/03 RMK AO2 T01560067 $
94790KART ART20160616213010906/16/16 21:30:31  5-MIN KART 170230Z AUTO 08003KT 10SM CLR 15/07 A2983 420 57 600 090/03 RMK AO2 T01500067 $
94790KART ART20160616213510906/16/16 21:35:31  5-MIN KART 170235Z AUTO 08004KT 10SM CLR 14/07 A2983 420 61 500 090/04 RMK AO2 T01440072 $
94790KART ART20160616214010906/16/16 21:40:31  5-MIN KART 170240Z AUTO 08003KT 10SM CLR 14/07 A2982 420 61 500 100/03 RMK AO2 T01440072 $
94790KART ART20160616214510906/16/16 21:45:31  5-MIN KART 170245Z AUTO 09003KT 10SM CLR 14/07 A2983 420 61 500 100/03 RMK AO2 T01440072 $
94790KART ART20160616215012206/16/16 21:50:31  5-MIN KART 170250Z AUTO 09004KT 10SM CLR 14/07 A2983 420 61 500 100/04 RMK AO2 SLP097 T01440072 53011 $
94790KART ART20160616215512206/16/16 21:55:31  5-MIN KART 170255Z AUTO 08003KT 10SM CLR 14/07 A2983 420 61 500 090/03 RMK AO2 SLP097 T01440072 53011 $
94790KART ART20160616220010906/16/16 22:00:31  5-MIN KART 170300Z AUTO 07003KT 10SM CLR 13/07 A2983 420 66 400 090/03 RMK AO2 T01330072 $
94790KART ART20160616220510906/16/16 22:05:31  5-MIN KART 170305Z AUTO 00000KT 10SM CLR 13/08 A2983 420 71 300 000/00 RMK AO2 T01280078 $
94790KART ART20160616221010906/16/16 22:10:31  5-MIN KART 170310Z AUTO 07003KT 10SM CLR 13/08 A2983 420 69 400 080/03 RMK AO2 T01330078 $
94790KART ART20160616221510906/16/16 22:15:31  5-MIN KART 170315Z AUTO 06003KT 10SM CLR 13/08 A2983 420 69 400 070/03 RMK AO2 T01330078 $
94790KART ART20160616222010906/16/16 22:20:31  5-MIN KART 170320Z AUTO 07003KT 10SM CLR 13/08 A2983 420 69 400 080/03 RMK AO2 T01330078 $
94790KART ART20160616222510906/16/16 22:25:31  5-MIN KART 170325Z AUTO 00000KT 10SM CLR 13/08 A2983 420 69 400 000/00 RMK AO2 T01330078 $
94790KART ART20160616223010906/16/16 22:30:31  5-MIN KART 170330Z AUTO 00000KT 10SM CLR 13/08 A2983 420 69 400 000/00 RMK AO2 T01330078 $
94790KART ART20160616223510906/16/16 22:35:31  5-MIN KART 170335Z AUTO 00000KT 10SM CLR 13/07 A2983 420 69 300 000/00 RMK AO2 T01280072 $
94790KART ART20160616224010906/16/16 22:40:31  5-MIN KART 170340Z AUTO 09003KT 10SM CLR 12/07 A2983 420 71 200 100/03 RMK AO2 T01220072 $
94790KART ART20160616224510906/16/16 22:45:31  5-MIN KART 170345Z AUTO 09004KT 10SM CLR 13/07 A2983 420 69 300 100/04 RMK AO2 T01280072 $
94790KART ART20160616225011606/16/16 22:50:31  5-MIN KART 170350Z AUTO 09004KT 10SM CLR 13/07 A2983 420 69 300 110/04 RMK AO2 SLP097 T01280072 $
94790KART ART20160616225511606/16/16 22:55:31  5-MIN KART 170355Z AUTO 09005KT 10SM CLR 13/07 A2983 420 69 300 110/05 RMK AO2 SLP097 T01280072 $
94790KART ART20160616230010906/16/16 23:00:31  5-MIN KART 170400Z AUTO 09004KT 10SM CLR 13/07 A2983 420 66 400 100/04 RMK AO2 T01330072 $
94790KART ART20160616230510906/16/16 23:05:31  5-MIN KART 170405Z AUTO 09004KT 10SM CLR 13/07 A2983 420 64 400 100/04 RMK AO2 T01330067 $
94790KART ART20160616231010906/16/16 23:10:31  5-MIN KART 170410Z AUTO 09005KT 10SM CLR 13/07 A2983 410 64 400 110/05 RMK AO2 T01330067 $
94790KART ART20160616231510906/16/16 23:15:31  5-MIN KART 170415Z AUTO 09005KT 10SM CLR 13/07 A2983 410 64 400 100/05 RMK AO2 T01330067 $
94790KART ART20160616232010906/16/16 23:20:31  5-MIN KART 170420Z AUTO 08005KT 10SM CLR 13/07 A2983 410 66 300 090/05 RMK AO2 T01280067 $
94790KART ART20160616232510906/16/16 23:25:31  5-MIN KART 170425Z AUTO 09005KT 10SM CLR 13/07 A2983 420 66 300 100/05 RMK AO2 T01280067 $
94790KART ART20160616233010906/16/16 23:30:31  5-MIN KART 170430Z AUTO 09005KT 10SM CLR 13/07 A2983 420 66 300 100/05 RMK AO2 T01280067 $
94790KART ART20160616233510906/16/16 23:35:31  5-MIN KART 170435Z AUTO 09006KT 10SM CLR 13/07 A2983 420 66 300 100/06 RMK AO2 T01280067 $
94790KART ART20160616234010906/16/16 23:40:31  5-MIN KART 170440Z AUTO 09005KT 10SM CLR 13/07 A2983 420 66 300 100/05 RMK AO2 T01280067 $
94790KART ART20160616234510906/16/16 23:45:31  5-MIN KART 170445Z AUTO 08005KT 10SM CLR 13/07 A2983 420 66 300 100/05 RMK AO2 T01280067 $
94790KART ART20160616235012606/16/16 23:50:31  5-MIN KART 170450Z AUTO 08005KT 10SM CLR 13/07 A2983 420 66 300 100/05 RMK AO2 SLP097 T01280067 402830122 $
94790KART ART20160616235512606/16/16 23:55:31  5-MIN KART 170455Z AUTO 08005KT 10SM CLR 13/07 A2983 410 66 300 100/05 RMK AO2 SLP097 T01280067 402830122 $
94790KART ART20160617000010906/17/16 00:00:31  5-MIN KART 170500Z AUTO 09005KT 10SM CLR 13/07 A2983 410 66 300 100/05 RMK AO2 T01280067 $
94790KART ART20160617000510906/17/16 00:05:31  5-MIN KART 170505Z AUTO 09006KT 10SM CLR 13/07 A2983 410 66 300 100/06 RMK AO2 T01280067 $
94790KART ART20160617001010906/17/16 00:10:31  5-MIN KART 170510Z AUTO 08005KT 10SM CLR 13/07 A2984 410 64 300 090/05 RMK AO2 T01330067 $
94790KART ART20160617001510906/17/16 00:15:31  5-MIN KART 170515Z AUTO 08005KT 10SM CLR 13/07 A2984 410 64 300 100/05 RMK AO2 T01330067 $
94790KART ART20160617002010906/17/16 00:20:31  5-MIN KART 170520Z AUTO 09005KT 10SM CLR 13/07 A2984 410 66 300 100/05 RMK AO2 T01280067 $
94790KART ART20160617002510906/17/16 00:25:31  5-MIN KART 170525Z AUTO 08005KT 10SM CLR 13/07 A2984 410 64 300 090/05 RMK AO2 T01330067 $
94790KART ART20160617003010906/17/16 00:30:31  5-MIN KART 170530Z AUTO 08004KT 10SM CLR 13/07 A2984 410 64 300 090/04 RMK AO2 T01330067 $
94790KART ART20160617003510906/17/16 00:35:31  5-MIN KART 170535Z AUTO 08004KT 10SM CLR 13/07 A2984 400 64 300 100/04 RMK AO2 T01330067 $
94790KART ART20160617004010906/17/16 00:40:31  5-MIN KART 170540Z AUTO 08004KT 10SM CLR 13/07 A2984 400 64 300 090/04 RMK AO2 T01330067 $
94790KART ART20160617004510906/17/16 00:45:31  5-MIN KART 170545Z AUTO 07004KT 10SM CLR 13/07 A2984 400 64 300 080/04 RMK AO2 T01330067 $
94790KART ART20160617005013406/17/16 00:50:31  5-MIN KART 170550Z AUTO 05006KT 10SM CLR 11/07 A2985 400 74 100 070/06 RMK AO2 SLP103 T01110067 10228 20111 53016 $
94790KART ART20160617005513206/17/16 00:55:31  5-MIN KART 170555Z AUTO 05004KT 10SM CLR 10/07 A2985 400 80 0 060/04 RMK AO2 SLP103 T01000067 10228 20100 53016 $
94790KART ART20160617010010906/17/16 01:00:31  5-MIN KART 170600Z AUTO 05004KT 10SM CLR 11/07 A2985 400 77 100 070/04 RMK AO2 T01110072 $
94790KART ART20160617010510906/17/16 01:05:31  5-MIN KART 170605Z AUTO 06004KT 10SM CLR 12/07 A2985 390 74 100 070/04 RMK AO2 T01170072 $
94790KART ART20160617011010906/17/16 01:10:31  5-MIN KART 170610Z AUTO 07003KT 10SM CLR 12/07 A2985 390 71 100 080/03 RMK AO2 T01170067 $
94790KART ART20160617011510906/17/16 01:15:31  5-MIN KART 170615Z AUTO 07003KT 10SM CLR 12/07 A2985 390 71 100 080/03 RMK AO2 T01170067 $
94790KART ART20160617012010906/17/16 01:20:31  5-MIN KART 170620Z AUTO 08003KT 10SM CLR 12/07 A2985 390 71 100 090/03 RMK AO2 T01170067 $
94790KART ART20160617012510906/17/16 01:25:31  5-MIN KART 170625Z AUTO 08003KT 10SM CLR 12/07 A2985 390 71 100 090/03 RMK AO2 T01170067 $
94790KART ART20160617013010906/17/16 01:30:31  5-MIN KART 170630Z AUTO 00000KT 10SM CLR 11/07 A2985 390 74 100 000/00 RMK AO2 T01110067 $
94790KART ART20160617013510906/17/16 01:35:31  5-MIN KART 170635Z AUTO 00000KT 10SM CLR 12/07 A2985 390 68 200 000/00 RMK AO2 T01220067 $
94790KART ART20160617014010706/17/16 01:40:31  5-MIN KART 170640Z AUTO 00000KT 10SM CLR 11/07 A2985 390 77 0 000/00 RMK AO2 T01060067 $
94790KART ART20160617014510706/17/16 01:45:31  5-MIN KART 170645Z AUTO 00000KT 10SM CLR 10/07 A2985 390 80 0 000/00 RMK AO2 T01000067 $
94790KART ART20160617015011406/17/16 01:50:31  5-MIN KART 170650Z AUTO 00000KT 10SM CLR 11/07 A2985 390 77 0 000/00 RMK AO2 SLP104 T01060067 $
94790KART ART20160617015511406/17/16 01:55:31  5-MIN KART 170655Z AUTO 00000KT 10SM CLR 11/07 A2985 390 80 0 000/00 RMK AO2 SLP105 T01060072 $
94790KART ART20160617020011006/17/16 02:00:31  5-MIN KART 170700Z AUTO 00000KT 10SM CLR 09/07 A2985 390 86 -100 000/00 RMK AO2 T00940072 $
94790KART ART20160617020511006/17/16 02:05:31  5-MIN KART 170705Z AUTO 00000KT 10SM CLR 09/07 A2985 390 86 -100 000/00 RMK AO2 T00940072 $
94790KART ART20160617021011006/17/16 02:10:31  5-MIN KART 170710Z AUTO 00000KT 10SM CLR 09/07 A2986 390 86 -100 000/00 RMK AO2 T00940072 $
94790KART ART20160617021510706/17/16 02:15:31  5-MIN KART 170715Z AUTO 00000KT 10SM CLR 10/07 A2986 390 83 0 000/00 RMK AO2 T01000072 $
94790KART ART20160617022011006/17/16 02:20:31  5-MIN KART 170720Z AUTO 00000KT 10SM CLR 09/07 A2986 390 86 -100 000/00 RMK AO2 T00940072 $
94790KART ART20160617022511006/17/16 02:25:31  5-MIN KART 170725Z AUTO 00000KT 10SM CLR 09/07 A2986 390 86 -100 000/00 RMK AO2 T00940072 $
94790KART ART20160617023011006/17/16 02:30:31  5-MIN KART 170730Z AUTO 00000KT 10SM CLR 09/07 A2986 390 86 -100 000/00 RMK AO2 T00940072 $
94790KART ART20160617023511006/17/16 02:35:31  5-MIN KART 170735Z AUTO 00000KT 10SM CLR 09/07 A2986 380 86 -100 000/00 RMK AO2 T00940072 $
94790KART ART20160617024011006/17/16 02:40:31  5-MIN KART 170740Z AUTO 00000KT 10SM CLR 09/07 A2986 380 89 -200 000/00 RMK AO2 T00890072 $
94790KART ART20160617024511006/17/16 02:45:31  5-MIN KART 170745Z AUTO 00000KT 10SM CLR 09/07 A2986 380 89 -200 000/00 RMK AO2 T00890072 $
94790KART ART20160617025011706/17/16 02:50:31  5-MIN KART 170750Z AUTO 00000KT 10SM CLR 09/07 A2986 380 89 -200 000/00 RMK AO2 SLP109 T00890072 $
94790KART ART20160617025511706/17/16 02:55:31  5-MIN KART 170755Z AUTO 00000KT 10SM CLR 08/07 A2987 380 89 -200 000/00 RMK AO2 SLP110 T00830067 $
94790KART ART20160617030011006/17/16 03:00:31  5-MIN KART 170800Z AUTO 00000KT 10SM CLR 08/07 A2987 380 89 -200 000/00 RMK AO2 T00830067 $
94790KART ART20160617030511006/17/16 03:05:31  5-MIN KART 170805Z AUTO 00000KT 10SM CLR 08/07 A2987 380 89 -200 000/00 RMK AO2 T00830067 $
94790KART ART20160617031011006/17/16 03:10:31  5-MIN KART 170810Z AUTO 00000KT 10SM CLR 08/07 A2987 380 89 -200 000/00 RMK AO2 T00830067 $
94790KART ART20160617031511006/17/16 03:15:31  5-MIN KART 170815Z AUTO 00000KT 10SM CLR 08/07 A2987 380 89 -200 000/00 RMK AO2 T00830067 $
94790KART ART20160617032011006/17/16 03:20:31  5-MIN KART 170820Z AUTO 00000KT 10SM CLR 08/07 A2987 380 89 -200 000/00 RMK AO2 T00830067 $
94790KART ART20160617032511006/17/16 03:25:31  5-MIN KART 170825Z AUTO 00000KT 10SM CLR 08/06 A2987 380 89 -300 000/00 RMK AO2 T00780061 $
94790KART ART20160617033011006/17/16 03:30:31  5-MIN KART 170830Z AUTO 00000KT 10SM CLR 08/06 A2987 370 89 -300 000/00 RMK AO2 T00780061 $
94790KART ART20160617033511006/17/16 03:35:31  5-MIN KART 170835Z AUTO 00000KT 10SM CLR 08/06 A2987 370 89 -300 000/00 RMK AO2 T00780061 $
94790KART ART20160617034011006/17/16 03:40:31  5-MIN KART 170840Z AUTO 00000KT 10SM CLR 08/06 A2988 370 89 -300 000/00 RMK AO2 T00780061 $
94790KART ART20160617034511006/17/16 03:45:31  5-MIN KART 170845Z AUTO 00000KT 10SM CLR 07/06 A2988 370 93 -400 000/00 RMK AO2 T00720061 $
94790KART ART20160617035012906/17/16 03:50:31  5-MIN KART 170850Z AUTO 00000KT 10SM CLR 07/06 A2989 360 93 -400 000/00 RMK AO2 SLP117 T00720061 53006 PWINO $
94790KART ART20160617035512906/17/16 03:55:31  5-MIN KART 170855Z AUTO 00000KT 10SM CLR 07/06 A2989 360 93 -400 000/00 RMK AO2 SLP118 T00720061 53006 PWINO $
94790KART ART20160617040011606/17/16 04:00:31  5-MIN KART 170900Z AUTO 00000KT 10SM CLR 07/06 A2989 360 93 -400 000/00 RMK AO2 T00720061 PWINO $
94790KART ART20160617040511606/17/16 04:05:31  5-MIN KART 170905Z AUTO 00000KT 10SM CLR 07/06 A2989 350 93 -400 000/00 RMK AO2 T00720061 PWINO $
94790KART ART20160617041011606/17/16 04:10:31  5-MIN KART 170910Z AUTO 00000KT 10SM CLR 07/06 A2989 350 93 -400 000/00 RMK AO2 T00720061 PWINO $
94790KART ART20160617041511606/17/16 04:15:31  5-MIN KART 170915Z AUTO 00000KT 10SM CLR 07/06 A2990 350 93 -400 000/00 RMK AO2 T00720061 PWINO $
94790KART ART20160617042011606/17/16 04:20:31  5-MIN KART 170920Z AUTO 00000KT 10SM CLR 07/06 A2990 350 93 -500 000/00 RMK AO2 T00670056 PWINO $
94790KART ART20160617042511606/17/16 04:25:31  5-MIN KART 170925Z AUTO 00000KT 10SM CLR 07/06 A2990 350 93 -500 000/00 RMK AO2 T00670056 PWINO $
94790KART ART20160617043011606/17/16 04:30:31  5-MIN KART 170930Z AUTO 00000KT 10SM CLR 07/06 A2990 350 93 -500 000/00 RMK AO2 T00670056 PWINO $
94790KART ART20160617043511606/17/16 04:35:31  5-MIN KART 170935Z AUTO 09003KT 10SM CLR 07/06 A2990 350 93 -500 100/03 RMK AO2 T00670056 PWINO $
94790KART ART20160617044011606/17/16 04:40:31  5-MIN KART 170940Z AUTO 08003KT 10SM CLR 07/06 A2991 340 93 -400 100/03 RMK AO2 T00720061 PWINO $
94790KART ART20160617044511606/17/16 04:45:31  5-MIN KART 170945Z AUTO 07003KT 10SM CLR 07/06 A2991 340 93 -400 090/03 RMK AO2 T00720061 PWINO $
94790KART ART20160617045012306/17/16 04:50:31  5-MIN KART 170950Z AUTO 07003KT 10SM CLR 08/07 A2991 340 93 -400 080/03 RMK AO2 SLP126 T00780067 PWINO $
94790KART ART20160617045512306/17/16 04:55:31  5-MIN KART 170955Z AUTO 00000KT 10SM CLR 08/07 A2992 330 89 -300 000/00 RMK AO2 SLP128 T00830067 PWINO $
94790KART ART20160617050011606/17/16 05:00:31  5-MIN KART 171000Z AUTO 05003KT 10SM CLR 08/07 A2992 330 93 -300 070/03 RMK AO2 T00830072 PWINO $
94790KART ART20160617050511606/17/16 05:05:31  5-MIN KART 171005Z AUTO 06003KT 10SM CLR 08/07 A2992 330 93 -300 070/03 RMK AO2 T00830072 PWINO $
94790KART ART20160617051011606/17/16 05:10:31  5-MIN KART 171010Z AUTO 00000KT 10SM CLR 09/07 A2992 330 89 -200 000/00 RMK AO2 T00890072 PWINO $
94790KART ART20160617051511606/17/16 05:15:31  5-MIN KART 171015Z AUTO 00000KT 10SM CLR 09/07 A2992 330 89 -200 000/00 RMK AO2 T00890072 PWINO $
94790KART ART20160617052011606/17/16 05:20:31  5-MIN KART 171020Z AUTO 00000KT 10SM CLR 09/07 A2993 320 86 -200 000/00 RMK AO2 T00940072 PWINO $
94790KART ART20160617052511606/17/16 05:25:31  5-MIN KART 171025Z AUTO 00000KT 10SM CLR 09/08 A2993 320 89 -200 000/00 RMK AO2 T00940078 PWINO $
94790KART ART20160617053011606/17/16 05:30:31  5-MIN KART 171030Z AUTO 00000KT 10SM CLR 10/08 A2993 320 89 -100 000/00 RMK AO2 T01000083 PWINO $
94790KART ART20160617053511306/17/16 05:35:31  5-MIN KART 171035Z AUTO 00000KT 10SM CLR 11/08 A2993 320 86 0 000/00 RMK AO2 T01060083 PWINO $
94790KART ART20160617054011306/17/16 05:40:31  5-MIN KART 171040Z AUTO 00000KT 10SM CLR 11/08 A2993 320 86 0 000/00 RMK AO2 T01060083 PWINO $
94790KART ART20160617054511306/17/16 05:45:31  5-MIN KART 171045Z AUTO 07003KT 10SM CLR 11/08 A2993 320 86 0 080/03 RMK AO2 T01060083 PWINO $
94790KART ART20160617055012006/17/16 05:50:31  5-MIN KART 171050Z AUTO 00000KT 10SM CLR 12/09 A2993 320 83 0 000/00 RMK AO2 SLP133 T01170089 PWINO $
94790KART ART20160617055512006/17/16 05:55:31  5-MIN KART 171055Z AUTO 00000KT 10SM CLR 12/09 A2994 320 83 0 000/00 RMK AO2 SLP134 T01170089 PWINO $
94790KART ART20160617060011506/17/16 06:00:31  5-MIN KART 171100Z AUTO 00000KT 10SM CLR 12/09 A2994 310 80 100 000/00 RMK AO2 T01220089 PWINO $
94790KART ART20160617060511506/17/16 06:05:31  5-MIN KART 171105Z AUTO 00000KT 10SM CLR 13/09 A2994 310 77 200 000/00 RMK AO2 T01280089 PWINO $
94790KART ART20160617061011506/17/16 06:10:31  5-MIN KART 171110Z AUTO 00000KT 10SM CLR 13/09 A2994 310 77 200 000/00 RMK AO2 T01280089 PWINO $
94790KART ART20160617061511506/17/16 06:15:31  5-MIN KART 171115Z AUTO 00000KT 10SM CLR 13/09 A2994 310 74 200 000/00 RMK AO2 T01330089 PWINO $
94790KART ART20160617062011506/17/16 06:20:31  5-MIN KART 171120Z AUTO 03003KT 10SM CLR 14/09 A2995 310 74 300 050/03 RMK AO2 T01390094 PWINO $
94790KART ART20160617062511506/17/16 06:25:31  5-MIN KART 171125Z AUTO 00000KT 10SM CLR 14/09 A2995 310 71 300 000/00 RMK AO2 T01390089 PWINO $
94790KART ART20160617063011506/17/16 06:30:31  5-MIN KART 171130Z AUTO 00000KT 10SM CLR 15/09 A2995 300 66 400 000/00 RMK AO2 T01500089 PWINO $
94790KART ART20160617063511506/17/16 06:35:31  5-MIN KART 171135Z AUTO 00000KT 10SM CLR 15/09 A2995 300 69 400 000/00 RMK AO2 T01500094 PWINO $
94790KART ART20160617064011506/17/16 06:40:31  5-MIN KART 171140Z AUTO 00000KT 10SM CLR 16/09 A2996 300 67 500 000/00 RMK AO2 T01560094 PWINO $
94790KART ART20160617064511506/17/16 06:45:31  5-MIN KART 171145Z AUTO 00000KT 10SM CLR 16/09 A2996 300 67 500 000/00 RMK AO2 T01560094 PWINO $
94790KART ART20160617065014006/17/16 06:50:31  5-MIN KART 171150Z AUTO 00000KT 10SM CLR 16/09 A2996 290 67 500 000/00 RMK AO2 SLP142 T01560094 10156 20067 53014 PWINO $
94790KART ART20160617065514006/17/16 06:55:31  5-MIN KART 171155Z AUTO 00000KT 10SM CLR 16/09 A2996 290 64 500 000/00 RMK AO2 SLP142 T01610094 10161 20067 53014 PWINO $
94790KART ART20160617070011506/17/16 07:00:31  5-MIN KART 171200Z AUTO 03003KT 10SM CLR 17/10 A2996 290 64 600 050/03 RMK AO2 T01670100 PWINO $
94790KART ART20160617070511506/17/16 07:05:31  5-MIN KART 171205Z AUTO 05003KT 10SM CLR 17/10 A2996 290 64 600 060/03 RMK AO2 T01670100 PWINO $
94790KART ART20160617071011506/17/16 07:10:31  5-MIN KART 171210Z AUTO 07003KT 10SM CLR 17/10 A2997 290 62 700 080/03 RMK AO2 T01720100 PWINO $
94790KART ART20160617071511506/17/16 07:15:31  5-MIN KART 171215Z AUTO 00000KT 10SM CLR 17/11 A2997 280 64 700 000/00 RMK AO2 T01720106 PWINO $
94790KART ART20160617072011506/17/16 07:20:31  5-MIN KART 171220Z AUTO 00000KT 10SM CLR 18/11 A2997 280 62 700 000/00 RMK AO2 T01780106 PWINO $
94790KART ART20160617072511506/17/16 07:25:31  5-MIN KART 171225Z AUTO 05003KT 10SM CLR 18/11 A2997 280 62 700 070/03 RMK AO2 T01780106 PWINO $
94790KART ART20160617073011506/17/16 07:30:31  5-MIN KART 171230Z AUTO 00000KT 10SM CLR 19/11 A2998 280 58 800 000/00 RMK AO2 T01890106 PWINO $
94790KART ART20160617073511506/17/16 07:35:31  5-MIN KART 171235Z AUTO 00000KT 10SM CLR 19/11 A2998 280 60 800 000/00 RMK AO2 T01890111 PWINO $
94790KART ART20160617074011506/17/16 07:40:31  5-MIN KART 171240Z AUTO 00000KT 10SM CLR 19/11 A2998 280 56 900 000/00 RMK AO2 T01940106 PWINO $
94790KART ART20160617074511506/17/16 07:45:31  5-MIN KART 171245Z AUTO 00000KT 10SM CLR 19/11 A2998 280 58 900 000/00 RMK AO2 T01940111 PWINO $
94790KART ART20160617075012306/17/16 07:50:31  5-MIN KART 171250Z AUTO 00000KT 10SM CLR 20/12 A2998 270 58 1000 000/00 RMK AO2 SLP148 T02000117 PWINO $
94790KART ART20160617075512306/17/16 07:55:31  5-MIN KART 171255Z AUTO 00000KT 10SM CLR 21/12 A2998 270 56 1000 000/00 RMK AO2 SLP149 T02060117 PWINO $
94790KART ART20160617080011606/17/16 08:00:31  5-MIN KART 171300Z AUTO 00000KT 10SM CLR 21/12 A2998 270 56 1000 000/00 RMK AO2 T02060117 PWINO $
94790KART ART20160617080511606/17/16 08:05:31  5-MIN KART 171305Z AUTO 02003KT 10SM CLR 21/12 A2998 270 56 1100 030/03 RMK AO2 T02110122 PWINO $
94790KART ART20160617081011606/17/16 08:10:31  5-MIN KART 171310Z AUTO 00000KT 10SM CLR 21/12 A2998 270 56 1100 000/00 RMK AO2 T02110122 PWINO $
94790KART ART20160617081511606/17/16 08:15:31  5-MIN KART 171315Z AUTO 04003KT 10SM CLR 21/12 A2998 270 54 1100 050/03 RMK AO2 T02110117 PWINO $
94790KART ART20160617082011606/17/16 08:20:31  5-MIN KART 171320Z AUTO 05003KT 10SM CLR 22/12 A2998 270 54 1200 060/03 RMK AO2 T02170122 PWINO $
94790KART ART20160617082511606/17/16 08:25:31  5-MIN KART 171325Z AUTO 05003KT 10SM CLR 22/12 A2998 270 54 1200 060/03 RMK AO2 T02170122 PWINO $
94790KART ART20160617083011606/17/16 08:30:31  5-MIN KART 171330Z AUTO 00000KT 10SM CLR 22/12 A2998 270 52 1200 000/00 RMK AO2 T02220122 PWINO $
94790KART ART20160617083511606/17/16 08:35:31  5-MIN KART 171335Z AUTO 00000KT 10SM CLR 23/12 A2998 270 51 1300 000/00 RMK AO2 T02280122 PWINO $
94790KART ART20160617084011606/17/16 08:40:31  5-MIN KART 171340Z AUTO VRB03KT 10SM CLR 22/11 A2998 270 49 1200 VRB/03 RMK AO2 T02220111 PWINO $
94790KART ART20160617084511606/17/16 08:45:31  5-MIN KART 171345Z AUTO 02003KT 10SM CLR 23/11 A2999 270 44 1300 030/03 RMK AO2 T02330106 PWINO $
94790KART ART20160617085012306/17/16 08:50:31  5-MIN KART 171350Z AUTO 09003KT 10SM CLR 23/09 A2999 270 41 1300 100/03 RMK AO2 SLP150 T02330094 PWINO $
94790KART ART20160617085512306/17/16 08:55:31  5-MIN KART 171355Z AUTO 09003KT 10SM CLR 23/11 A2999 270 44 1300 100/03 RMK AO2 SLP150 T02330106 PWINO $
94790KART ART20160617090011606/17/16 09:00:31  5-MIN KART 171400Z AUTO 00000KT 10SM CLR 24/10 A2999 270 41 1400 000/00 RMK AO2 T02390100 PWINO $
94790KART ART20160617090511606/17/16 09:05:31  5-MIN KART 171405Z AUTO VRB04KT 10SM CLR 24/10 A2999 270 39 1500 VRB/04 RMK AO2 T02440100 PWINO $
94790KART ART20160617091011606/17/16 09:10:31  5-MIN KART 171410Z AUTO VRB03KT 10SM CLR 24/09 A2999 260 38 1500 VRB/03 RMK AO2 T02440094 PWINO $
94790KART ART20160617091511606/17/16 09:15:31  5-MIN KART 171415Z AUTO VRB03KT 10SM CLR 24/09 A2999 260 38 1500 VRB/03 RMK AO2 T02440094 PWINO $
94790KART ART20160617092011606/17/16 09:20:31  5-MIN KART 171420Z AUTO 00000KT 10SM CLR 24/10 A2999 260 39 1500 000/00 RMK AO2 T02440100 PWINO $
94790KART ART20160617092511606/17/16 09:25:31  5-MIN KART 171425Z AUTO 34003KT 10SM CLR 25/09 A2999 260 37 1500 350/03 RMK AO2 T02500094 PWINO $
94790KART ART20160617093011606/17/16 09:30:31  5-MIN KART 171430Z AUTO 01005KT 10SM CLR 25/09 A3000 260 37 1500 020/05 RMK AO2 T02500094 PWINO $
94790KART ART20160617093511606/17/16 09:35:31  5-MIN KART 171435Z AUTO 00000KT 10SM CLR 25/09 A3000 260 35 1500 000/00 RMK AO2 T02500089 PWINO $
94790KART ART20160617094011606/17/16 09:40:31  5-MIN KART 171440Z AUTO 00000KT 10SM CLR 26/08 A3000 260 33 1600 000/00 RMK AO2 T02560083 PWINO $
94790KART ART20160617094511606/17/16 09:45:31  5-MIN KART 171445Z AUTO 01003KT 10SM CLR 26/09 A3000 260 35 1600 030/03 RMK AO2 T02560094 PWINO $
94790KART ART20160617095012906/17/16 09:50:31  5-MIN KART 171450Z AUTO VRB04KT 10SM CLR 25/08 A2999 260 33 1500 VRB/04 RMK AO2 SLP153 T02500078 51024 PWINO $
94790KART ART20160617095512906/17/16 09:55:31  5-MIN KART 171455Z AUTO VRB05KT 10SM CLR 26/08 A3000 260 32 1600 VRB/05 RMK AO2 SLP154 T02560078 51024 PWINO $
94790KART ART20160617100011606/17/16 10:00:31  5-MIN KART 171500Z AUTO 12004KT 10SM CLR 26/07 A3000 260 29 1600 130/04 RMK AO2 T02560067 PWINO $
94790KART ART20160617100511606/17/16 10:05:31  5-MIN KART 171505Z AUTO 00000KT 10SM CLR 25/06 A3000 260 29 1500 000/00 RMK AO2 T02500061 PWINO $
94790KART ART20160617101011606/17/16 10:10:31  5-MIN KART 171510Z AUTO 06005KT 10SM CLR 26/07 A3000 260 29 1600 080/05 RMK AO2 T02560067 PWINO $
94790KART ART20160617101511606/17/16 10:15:31  5-MIN KART 171515Z AUTO 00000KT 10SM CLR 26/06 A3000 260 28 1600 000/00 RMK AO2 T02560061 PWINO $
94790KART ART20160617102011606/17/16 10:20:31  5-MIN KART 171520Z AUTO 00000KT 10SM CLR 26/06 A3000 260 28 1600 000/00 RMK AO2 T02560061 PWINO $
94790KART ART20160617102511606/17/16 10:25:31  5-MIN KART 171525Z AUTO VRB03KT 10SM CLR 26/07 A3000 260 28 1600 VRB/03 RMK AO2 T02610067 PWINO $
94790KART ART20160617103011606/17/16 10:30:31  5-MIN KART 171530Z AUTO 00000KT 10SM CLR 26/07 A3000 260 29 1600 000/00 RMK AO2 T02610072 PWINO $
94790KART ART20160617103511606/17/16 10:35:31  5-MIN KART 171535Z AUTO 06007KT 10SM CLR 26/08 A3000 260 31 1600 070/07 RMK AO2 T02610078 PWINO $
94790KART ART20160617104011506/17/16 10:40:31  5-MIN KART 171540Z AUTO 00000KT 8SM CLR 26/06 A3000 260 26 1600 000/00 RMK AO2 T02610056 PWINO $
94790KART ART20160617104511506/17/16 10:45:31  5-MIN KART 171545Z AUTO 36004KT 8SM CLR 27/08 A3000 260 29 1700 020/04 RMK AO2 T02670078 PWINO $
94790KART ART20160617105012306/17/16 10:50:31  5-MIN KART 171550Z AUTO VRB03KT 10SM CLR 27/07 A3000 260 27 1700 VRB/03 RMK AO2 SLP155 T02670067 PWINO $
94790KART ART20160617105512306/17/16 10:55:31  5-MIN KART 171555Z AUTO VRB04KT 10SM CLR 27/07 A3000 260 28 1700 VRB/04 RMK AO2 SLP155 T02670072 PWINO $
94790KART ART20160617110011606/17/16 11:00:31  5-MIN KART 171600Z AUTO 06005KT 10SM CLR 27/08 A3000 260 29 1800 070/05 RMK AO2 T02720078 PWINO $
94790KART ART20160617110511606/17/16 11:05:31  5-MIN KART 171605Z AUTO VRB05KT 10SM CLR 27/07 A3000 260 28 1700 VRB/05 RMK AO2 T02670072 PWINO $
94790KART ART20160617111011606/17/16 11:10:31  5-MIN KART 171610Z AUTO VRB04KT 10SM CLR 27/08 A3000 260 29 1700 VRB/04 RMK AO2 T02670078 PWINO $
94790KART ART20160617111511606/17/16 11:15:31  5-MIN KART 171615Z AUTO 00000KT 10SM CLR 27/08 A3000 260 30 1800 000/00 RMK AO2 T02720083 PWINO $
94790KART ART20160617112011606/17/16 11:20:31  5-MIN KART 171620Z AUTO 36003KT 10SM CLR 27/08 A3000 260 30 1800 020/03 RMK AO2 T02720083 PWINO $
94790KART ART20160617112511606/17/16 11:25:31  5-MIN KART 171625Z AUTO VRB04KT 10SM CLR 27/07 A3000 260 27 1800 VRB/04 RMK AO2 T02720072 PWINO $
94790KART ART20160617113011606/17/16 11:30:31  5-MIN KART 171630Z AUTO 01006KT 10SM CLR 27/07 A3000 260 27 1800 030/06 RMK AO2 T02720072 PWINO $
94790KART ART20160617113511606/17/16 11:35:31  5-MIN KART 171635Z AUTO VRB04KT 10SM CLR 27/09 A2999 260 31 1800 VRB/04 RMK AO2 T02720089 PWINO $
94790KART ART20160617114010606/17/16 11:40:31  5-MIN KART 171640Z AUTO 10SM CLR 28/08 A2999 260 28 1800 M /M RMK AO2 T02780078 PWINO $
94790KART ART20160617114510606/17/16 11:45:31  5-MIN KART 171645Z AUTO 10SM CLR 27/07 A2999 260 27 1800 M /M RMK AO2 T02720072 PWINO $
94790KART ART20160617115012306/17/16 11:50:31  5-MIN KART 171650Z AUTO 31005KT 10SM CLR 27/07 A2999 260 27 1800 320/05 RMK AO2 SLP152 T02720072 PWINO $
94790KART ART20160617115511506/17/16 11:55:31  5-MIN KART 171655Z AUTO 33008KT 10SM CLR 27/07 A2999 260 27 1800 340/08 RMK AO2 SLP152 T02720072
94790KART ART20160617120010806/17/16 12:00:31  5-MIN KART 171700Z AUTO 36004KT 10SM CLR 27/07 A2999 270 26 1800 020/04 RMK AO2 T02720067
94790KART ART20160617120512406/17/16 12:05:31  5-MIN KART 171705Z AUTO 36008KT 340V040 10SM CLR 28/08 A2999 270 28 1800 010/08 350V050 RMK AO2 T02780078
94790KART ART20160617121010806/17/16 12:10:31  5-MIN KART 171710Z AUTO 03006KT 10SM CLR 27/07 A2999 270 26 1800 040/06 RMK AO2 T02720067
94790KART ART20160617121510806/17/16 12:15:31  5-MIN KART 171715Z AUTO 05003KT 10SM CLR 27/07 A2999 270 26 1800 060/03 RMK AO2 T02720067
94790KART ART20160617122010806/17/16 12:20:31  5-MIN KART 171720Z AUTO 02003KT 10SM CLR 27/06 A2999 270 25 1800 040/03 RMK AO2 T02720061
94790KART ART20160617122509806/17/16 12:25:31  5-MIN KART 171725Z AUTO 10SM CLR 28/07 A2999 270 26 1800 M /M RMK AO2 T02780067
94790KART ART20160617123010806/17/16 12:30:31  5-MIN KART 171730Z AUTO VRB03KT 10SM CLR 28/06 A2999 270 25 1800 VRB/03 RMK AO2 T02780061
94790KART ART20160617123510806/17/16 12:35:31  5-MIN KART 171735Z AUTO 00000KT 10SM CLR 28/06 A2999 270 25 1800 000/00 RMK AO2 T02780061
94790KART ART20160617124010806/17/16 12:40:31  5-MIN KART 171740Z AUTO 34004KT 10SM CLR 28/07 A2999 270 27 1800 350/04 RMK AO2 T02780072
94790KART ART20160617124510806/17/16 12:45:31  5-MIN KART 171745Z AUTO VRB04KT 10SM CLR 28/07 A2999 270 27 1800 VRB/04 RMK AO2 T02780072
94790KART ART20160617125013306/17/16 12:50:31  5-MIN KART 171750Z AUTO 24006KT 10SM CLR 28/08 A2999 270 29 1800 250/06 RMK AO2 SLP151 T02780083 10283 20161 51012
94790KART ART20160617125513306/17/16 12:55:31  5-MIN KART 171755Z AUTO 25005KT 10SM CLR 28/08 A2999 270 28 1800 260/05 RMK AO2 SLP150 T02780078 10283 20161 51012
94790KART ART20160617130010806/17/16 13:00:31  5-MIN KART 171800Z AUTO VRB06KT 10SM CLR 28/08 A2998 270 29 1800 VRB/06 RMK AO2 T02780083
94790KART ART20160617130510806/17/16 13:05:31  5-MIN KART 171805Z AUTO 28009KT 10SM CLR 28/09 A2998 270 31 1800 290/09 RMK AO2 T02780094
94790KART ART20160617131010806/17/16 13:10:31  5-MIN KART 171810Z AUTO 26005KT 10SM CLR 27/08 A2998 270 30 1800 270/05 RMK AO2 T02720083
94790KART ART20160617131510806/17/16 13:15:31  5-MIN KART 171815Z AUTO 26008KT 10SM CLR 27/08 A2998 270 29 1800 280/08 RMK AO2 T02720078
94790KART ART20160617132010806/17/16 13:20:31  5-MIN KART 171820Z AUTO 27008KT 10SM CLR 28/09 A2998 270 31 1800 280/08 RMK AO2 T02780094
94790KART ART20160617132510806/17/16 13:25:31  5-MIN KART 171825Z AUTO 25007KT 10SM CLR 28/09 A2998 270 30 1800 260/07 RMK AO2 T02780089
94790KART ART20160617133010806/17/16 13:30:31  5-MIN KART 171830Z AUTO 24006KT 10SM CLR 27/08 A2998 270 30 1800 260/06 RMK AO2 T02720083
94790KART ART20160617133510806/17/16 13:35:31  5-MIN KART 171835Z AUTO 27007KT 10SM CLR 28/09 A2999 270 30 1800 280/07 RMK AO2 T02780089
94790KART ART20160617134010806/17/16 13:40:31  5-MIN KART 171840Z AUTO 26008KT 10SM CLR 28/09 A2998 270 30 1800 270/08 RMK AO2 T02780089
94790KART ART20160617134510806/17/16 13:45:31  5-MIN KART 171845Z AUTO 25007KT 10SM CLR 28/09 A2998 270 30 1800 260/07 RMK AO2 T02780089
94790KART ART20160617135011506/17/16 13:50:31  5-MIN KART 171850Z AUTO 26009KT 10SM CLR 28/09 A2998 270 30 1800 270/09 RMK AO2 SLP150 T02780089
94790KART ART20160617135511506/17/16 13:55:31  5-MIN KART 171855Z AUTO 26011KT 10SM CLR 28/10 A2998 270 32 1800 280/11 RMK AO2 SLP150 T02780100
94790KART ART20160617140010806/17/16 14:00:31  5-MIN KART 171900Z AUTO 25009KT 10SM CLR 27/09 A2998 270 32 1800 270/09 RMK AO2 T02720094
94790KART ART20160617140510806/17/16 14:05:31  5-MIN KART 171905Z AUTO 25007KT 10SM CLR 27/09 A2998 270 32 1800 260/07 RMK AO2 T02720094
94790KART ART20160617141010806/17/16 14:10:31  5-MIN KART 171910Z AUTO 25007KT 10SM CLR 27/10 A2998 270 33 1800 260/07 RMK AO2 T02720100
94790KART ART20160617141510806/17/16 14:15:31  5-MIN KART 171915Z AUTO 25007KT 10SM CLR 27/10 A2998 270 33 1800 260/07 RMK AO2 T02720100
94790KART ART20160617142010806/17/16 14:20:31  5-MIN KART 171920Z AUTO 25008KT 10SM CLR 27/10 A2998 270 33 1800 270/08 RMK AO2 T02720100
94790KART ART20160617142510806/17/16 14:25:31  5-MIN KART 171925Z AUTO 26007KT 10SM CLR 27/09 A2998 270 32 1800 280/07 RMK AO2 T02720094
94790KART ART20160617143010806/17/16 14:30:31  5-MIN KART 171930Z AUTO 26009KT 10SM CLR 27/09 A2998 270 32 1800 280/09 RMK AO2 T02720094
94790KART ART20160617143510806/17/16 14:35:31  5-MIN KART 171935Z AUTO 27009KT 10SM CLR 28/10 A2998 270 32 1800 280/09 RMK AO2 T02780100
94790KART ART20160617144010806/17/16 14:40:31  5-MIN KART 171940Z AUTO 26008KT 10SM CLR 27/09 A2998 280 31 1800 270/08 RMK AO2 T02720089
94790KART ART20160617144510806/17/16 14:45:31  5-MIN KART 171945Z AUTO 25006KT 10SM CLR 27/09 A2998 280 32 1800 270/06 RMK AO2 T02720094
94790KART ART20160617145011506/17/16 14:50:31  5-MIN KART 171950Z AUTO 26007KT 10SM CLR 27/09 A2998 280 31 1800 270/07 RMK AO2 SLP147 T02720089
94790KART ART20160617145511506/17/16 14:55:31  5-MIN KART 171955Z AUTO 26007KT 10SM CLR 27/08 A2998 280 30 1800 270/07 RMK AO2 SLP148 T02720083
94790KART ART20160617150010806/17/16 15:00:31  5-MIN KART 172000Z AUTO 26008KT 10SM CLR 27/09 A2998 280 31 1800 270/08 RMK AO2 T02720089
94790KART ART20160617150510806/17/16 15:05:31  5-MIN KART 172005Z AUTO 25005KT 10SM CLR 27/09 A2998 280 31 1800 260/05 RMK AO2 T02720089
94790KART ART20160617151010806/17/16 15:10:31  5-MIN KART 172010Z AUTO 25006KT 10SM CLR 28/10 A2998 280 32 1900 260/06 RMK AO2 T02780100
94790KART ART20160617151510806/17/16 15:15:31  5-MIN KART 172015Z AUTO 26007KT 10SM CLR 27/09 A2998 280 31 1800 270/07 RMK AO2 T02720089
94790KART ART20160617152010806/17/16 15:20:31  5-MIN KART 172020Z AUTO 26007KT 10SM CLR 28/09 A2998 280 30 1900 280/07 RMK AO2 T02780089
94790KART ART20160617152510806/17/16 15:25:31  5-MIN KART 172025Z AUTO 23007KT 10SM CLR 27/10 A2998 280 33 1800 250/07 RMK AO2 T02720100
94790KART ART20160617153010806/17/16 15:30:31  5-MIN KART 172030Z AUTO 23008KT 10SM CLR 27/11 A2998 280 36 1700 250/08 RMK AO2 T02670106
94790KART ART20160617153510806/17/16 15:35:31  5-MIN KART 172035Z AUTO 24006KT 10SM CLR 27/11 A2998 280 37 1700 260/06 RMK AO2 T02670111
94790KART ART20160617154010806/17/16 15:40:31  5-MIN KART 172040Z AUTO 24008KT 10SM CLR 27/11 A2998 280 37 1700 250/08 RMK AO2 T02670111
94790KART ART20160617154510806/17/16 15:45:31  5-MIN KART 172045Z AUTO 23009KT 10SM CLR 26/11 A2998 280 38 1700 250/09 RMK AO2 T02610111
94790KART ART20160617155012106/17/16 15:50:31  5-MIN KART 172050Z AUTO 24007KT 10SM CLR 26/11 A2998 280 37 1700 250/07 RMK AO2 SLP148 T02610106 58003
94790KART ART20160617155512106/17/16 15:55:31  5-MIN KART 172055Z AUTO 24007KT 10SM CLR 26/11 A2998 280 37 1700 260/07 RMK AO2 SLP148 T02610106 58003
94790KART ART20160617160010806/17/16 16:00:31  5-MIN KART 172100Z AUTO 24008KT 10SM CLR 26/09 A2998 280 34 1700 250/08 RMK AO2 T02610094
94790KART ART20160617160510806/17/16 16:05:31  5-MIN KART 172105Z AUTO 25008KT 10SM CLR 26/09 A2998 280 33 1700 260/08 RMK AO2 T02610089
94790KART ART20160617161010806/17/16 16:10:31  5-MIN KART 172110Z AUTO 24008KT 10SM CLR 26/08 A2998 270 33 1600 250/08 RMK AO2 T02560083
94790KART ART20160617161510806/17/16 16:15:31  5-MIN KART 172115Z AUTO 24008KT 10SM CLR 26/08 A2998 270 32 1600 250/08 RMK AO2 T02560078
94790KART ART20160617162010806/17/16 16:20:31  5-MIN KART 172120Z AUTO 24008KT 10SM CLR 26/08 A2998 270 32 1600 260/08 RMK AO2 T02560078
94790KART ART20160617162510806/17/16 16:25:31  5-MIN KART 172125Z AUTO 25009KT 10SM CLR 26/08 A2998 270 33 1600 270/09 RMK AO2 T02560083
94790KART ART20160617163010806/17/16 16:30:31  5-MIN KART 172130Z AUTO 25008KT 10SM CLR 26/08 A2999 270 33 1600 260/08 RMK AO2 T02560083
94790KART ART20160617163510806/17/16 16:35:31  5-MIN KART 172135Z AUTO 25006KT 10SM CLR 26/08 A2999 270 33 1600 260/06 RMK AO2 T02560083
94790KART ART20160617164010806/17/16 16:40:31  5-MIN KART 172140Z AUTO 25007KT 10SM CLR 26/08 A2999 270 32 1600 260/07 RMK AO2 T02560078
94790KART ART20160617164510806/17/16 16:45:31  5-MIN KART 172145Z AUTO 25007KT 10SM CLR 25/08 A2999 270 33 1500 260/07 RMK AO2 T02500078
94790KART ART20160617165011506/17/16 16:50:31  5-MIN KART 172150Z AUTO 25007KT 10SM CLR 25/07 A2999 270 31 1500 260/07 RMK AO2 SLP152 T02500072
94790KART ART20160617165511506/17/16 16:55:31  5-MIN KART 172155Z AUTO 24007KT 10SM CLR 25/08 A2999 270 33 1500 260/07 RMK AO2 SLP151 T02500078
94790KART ART20160617170010806/17/16 17:00:31  5-MIN KART 172200Z AUTO 25007KT 10SM CLR 25/08 A2999 270 33 1500 260/07 RMK AO2 T02500078
94790KART ART20160617170510806/17/16 17:05:31  5-MIN KART 172205Z AUTO 26008KT 10SM CLR 25/08 A2998 270 34 1500 270/08 RMK AO2 T02500083
94790KART ART20160617171010806/17/16 17:10:31  5-MIN KART 172210Z AUTO 25005KT 10SM CLR 25/09 A2998 270 35 1500 260/05 RMK AO2 T02500089
94790KART ART20160617171510806/17/16 17:15:31  5-MIN KART 172215Z AUTO 24004KT 10SM CLR 25/10 A2998 270 38 1500 250/04 RMK AO2 T02500100
94790KART ART20160617172010806/17/16 17:20:31  5-MIN KART 172220Z AUTO 23005KT 10SM CLR 25/10 A2999 270 38 1500 240/05 RMK AO2 T02500100
94790KART ART20160617172510806/17/16 17:25:31  5-MIN KART 172225Z AUTO 23004KT 10SM CLR 25/09 A2999 270 37 1500 240/04 RMK AO2 T02500094
94790KART ART20160617173010806/17/16 17:30:31  5-MIN KART 172230Z AUTO 22004KT 10SM CLR 24/09 A2999 270 38 1500 230/04 RMK AO2 T02440094
94790KART ART20160617173510806/17/16 17:35:31  5-MIN KART 172235Z AUTO 22005KT 10SM CLR 24/09 A2999 270 38 1500 240/05 RMK AO2 T02440094
94790KART ART20160617174010806/17/16 17:40:31  5-MIN KART 172240Z AUTO 23005KT 10SM CLR 24/09 A2999 270 38 1500 250/05 RMK AO2 T02440094
94790KART ART20160617174510806/17/16 17:45:31  5-MIN KART 172245Z AUTO 24004KT 10SM CLR 24/09 A2999 260 38 1500 250/04 RMK AO2 T02440094
94790KART ART20160617175011506/17/16 17:50:31  5-MIN KART 172250Z AUTO 27006KT 10SM CLR 24/10 A2999 260 39 1500 280/06 RMK AO2 SLP153 T02440100
94790KART ART20160617175511506/17/16 17:55:31  5-MIN KART 172255Z AUTO 26005KT 10SM CLR 24/09 A3000 260 36 1500 280/05 RMK AO2 SLP154 T02440089
94790KART ART20160617180010806/17/16 18:00:31  5-MIN KART 172300Z AUTO 27005KT 10SM CLR 24/09 A3000 260 38 1500 280/05 RMK AO2 T02440094
94790KART ART20160617180510806/17/16 18:05:31  5-MIN KART 172305Z AUTO 27005KT 10SM CLR 24/09 A3000 260 36 1400 290/05 RMK AO2 T02440089
94790KART ART20160617181010806/17/16 18:10:31  5-MIN KART 172310Z AUTO 26005KT 10SM CLR 24/09 A3000 250 38 1400 280/05 RMK AO2 T02390089
94790KART ART20160617181510806/17/16 18:15:31  5-MIN KART 172315Z AUTO 26005KT 10SM CLR 24/09 A3001 250 39 1400 280/05 RMK AO2 T02390094
94790KART ART20160617182010806/17/16 18:20:31  5-MIN KART 172320Z AUTO 27004KT 10SM CLR 24/09 A3001 250 39 1400 290/04 RMK AO2 T02390094
94790KART ART20160617182510806/17/16 18:25:31  5-MIN KART 172325Z AUTO 26003KT 10SM CLR 23/10 A3001 250 42 1300 270/03 RMK AO2 T02330100
94790KART ART20160617183010806/17/16 18:30:31  5-MIN KART 172330Z AUTO 00000KT 10SM CLR 23/11 A3001 250 44 1300 000/00 RMK AO2 T02330106
94790KART ART20160617183510806/17/16 18:35:31  5-MIN KART 172335Z AUTO 26003KT 10SM CLR 23/11 A3001 250 45 1300 270/03 RMK AO2 T02330111
94790KART ART20160617184010806/17/16 18:40:31  5-MIN KART 172340Z AUTO 26003KT 10SM CLR 23/10 A3001 240 42 1300 270/03 RMK AO2 T02330100
94790KART ART20160617184510806/17/16 18:45:31  5-MIN KART 172345Z AUTO 25003KT 10SM CLR 23/11 A3001 240 44 1300 260/03 RMK AO2 T02330106
94790KART ART20160617185013306/17/16 18:50:31  5-MIN KART 172350Z AUTO 00000KT 10SM CLR 23/11 A3002 240 45 1200 000/00 RMK AO2 SLP161 T02280106 10278 20228 55003
94790KART ART20160617185513306/17/16 18:55:31  5-MIN KART 172355Z AUTO 00000KT 10SM CLR 23/11 A3002 240 47 1200 000/00 RMK AO2 SLP162 T02280111 10278 20228 55003
94790KART ART20160617190010806/17/16 19:00:31  5-MIN KART 180000Z AUTO 00000KT 10SM CLR 22/12 A3002 240 52 1200 000/00 RMK AO2 T02220122
94790KART ART20160617190510806/17/16 19:05:31  5-MIN KART 180005Z AUTO 00000KT 10SM CLR 22/12 A3002 240 51 1200 000/00 RMK AO2 T02220117
94790KART ART20160617191010806/17/16 19:10:31  5-MIN KART 180010Z AUTO 00000KT 10SM CLR 22/11 A3002 240 50 1100 000/00 RMK AO2 T02170111
94790KART ART20160617191510806/17/16 19:15:31  5-MIN KART 180015Z AUTO 00000KT 10SM CLR 22/11 A3002 230 50 1100 000/00 RMK AO2 T02170111
94790KART ART20160617192010806/17/16 19:20:31  5-MIN KART 180020Z AUTO 00000KT 10SM CLR 21/11 A3002 230 50 1000 000/00 RMK AO2 T02110106
94790KART ART20160617192510806/17/16 19:25:31  5-MIN KART 180025Z AUTO 19003KT 10SM CLR 21/11 A3003 230 50 1000 200/03 RMK AO2 T02110106
94790KART ART20160617193011106/17/16 19:30:31  5-MIN KART 180030Z AUTO 00000KT 10SM FEW110 21/11 A3003 230 52 1000 000/00 RMK AO2 T02060106
94790KART ART20160617193511006/17/16 19:35:31  5-MIN KART 180035Z AUTO 00000KT 10SM FEW110 20/11 A3003 230 54 900 000/00 RMK AO2 T02000106
94790KART ART20160617194011006/17/16 19:40:31  5-MIN KART 180040Z AUTO 16003KT 10SM SCT110 19/11 A3003 230 56 800 180/03 RMK AO2 T01940106
94790KART ART20160617194511006/17/16 19:45:31  5-MIN KART 180045Z AUTO 17004KT 10SM FEW110 19/11 A3003 230 56 800 180/04 RMK AO2 T01940106
94790KART ART20160617195011706/17/16 19:50:31  5-MIN KART 180050Z AUTO 17004KT 10SM FEW110 19/11 A3003 230 56 800 190/04 RMK AO2 SLP165 T01940106
94790KART ART20160617195511706/17/16 19:55:31  5-MIN KART 180055Z AUTO 17004KT 10SM FEW110 19/09 A3003 230 52 800 190/04 RMK AO2 SLP165 T01940094
94790KART ART20160617200011006/17/16 20:00:31  5-MIN KART 180100Z AUTO 17004KT 10SM FEW110 19/09 A3003 230 52 800 190/04 RMK AO2 T01940094
94790KART ART20160617200511006/17/16 20:05:31  5-MIN KART 180105Z AUTO 17004KT 10SM FEW110 19/09 A3003 230 52 800 180/04 RMK AO2 T01940094
94790KART ART20160617201010706/17/16 20:10:31  5-MIN KART 180110Z AUTO 16004KT 10SM CLR 19/10 A3004 220 56 800 180/04 RMK AO2 T01890100
94790KART ART20160617201511006/17/16 20:15:31  5-MIN KART 180115Z AUTO 15004KT 10SM FEW100 18/10 A3004 220 58 700 170/04 RMK AO2 T01830100
94790KART ART20160617202011006/17/16 20:20:31  5-MIN KART 180120Z AUTO 14004KT 10SM FEW100 17/11 A3004 220 64 600 160/04 RMK AO2 T01720106
94790KART ART20160617202510706/17/16 20:25:31  5-MIN KART 180125Z AUTO 14004KT 10SM CLR 17/11 A3004 220 64 600 150/04 RMK AO2 T01720106
94790KART ART20160617203010706/17/16 20:30:31  5-MIN KART 180130Z AUTO 14004KT 10SM CLR 17/11 A3005 210 67 500 150/04 RMK AO2 T01670106
94790KART ART20160617203510706/17/16 20:35:31  5-MIN KART 180135Z AUTO 14004KT 10SM CLR 17/11 A3005 210 67 500 150/04 RMK AO2 T01670106
94790KART ART20160617204010706/17/16 20:40:31  5-MIN KART 180140Z AUTO 16006KT 10SM CLR 17/11 A3005 210 67 500 170/06 RMK AO2 T01670106
94790KART ART20160617204510706/17/16 20:45:31  5-MIN KART 180145Z AUTO 17005KT 10SM CLR 17/09 A3004 220 60 600 180/05 RMK AO2 T01720094
94790KART ART20160617205011406/17/16 20:50:31  5-MIN KART 180150Z AUTO 17006KT 10SM CLR 18/09 A3005 210 58 600 190/06 RMK AO2 SLP170 T01780094
94790KART ART20160617205511406/17/16 20:55:31  5-MIN KART 180155Z AUTO 17005KT 10SM CLR 18/09 A3005 210 54 700 190/05 RMK AO2 SLP170 T01830089
94790KART ART20160617210011006/17/16 21:00:31  5-MIN KART 180200Z AUTO 18004KT 10SM FEW100 18/09 A3005 210 54 700 190/04 RMK AO2 T01830089
94790KART ART20160617210511006/17/16 21:05:31  5-MIN KART 180205Z AUTO 19003KT 10SM FEW100 17/09 A3005 210 60 600 210/03 RMK AO2 T01720094
94790KART ART20160617211011006/17/16 21:10:31  5-MIN KART 180210Z AUTO 19003KT 10SM FEW100 17/09 A3005 210 60 600 200/03 RMK AO2 T01720094
94790KART ART20160617211511006/17/16 21:15:31  5-MIN KART 180215Z AUTO 18003KT 10SM FEW100 17/09 A3005 210 57 600 190/03 RMK AO2 T01720089
94790KART ART20160617212011006/17/16 21:20:31  5-MIN KART 180220Z AUTO 00000KT 10SM FEW100 17/09 A3006 200 60 500 000/00 RMK AO2 T01670089
94790KART ART20160617212511006/17/16 21:25:31  5-MIN KART 180225Z AUTO 00000KT 10SM SCT100 16/09 A3006 200 64 400 000/00 RMK AO2 T01560089
94790KART ART20160617213011006/17/16 21:30:31  5-MIN KART 180230Z AUTO 00000KT 10SM FEW100 16/09 A3006 200 62 400 000/00 RMK AO2 T01610089
94790KART ART20160617213511006/17/16 21:35:31  5-MIN KART 180235Z AUTO 00000KT 10SM FEW100 16/09 A3006 200 64 400 000/00 RMK AO2 T01560089
94790KART ART20160617214011006/17/16 21:40:31  5-MIN KART 180240Z AUTO 00000KT 10SM FEW100 15/09 A3006 200 69 300 000/00 RMK AO2 T01500094
94790KART ART20160617214511006/17/16 21:45:31  5-MIN KART 180245Z AUTO 13003KT 10SM FEW100 14/09 A3006 200 74 200 140/03 RMK AO2 T01390094
94790KART ART20160617215012306/17/16 21:50:31  5-MIN KART 180250Z AUTO 11003KT 10SM FEW100 13/09 A3006 200 77 100 130/03 RMK AO2 SLP175 T01330094 53014
94790KART ART20160617215512006/17/16 21:55:31  5-MIN KART 180255Z AUTO 12003KT 10SM CLR 13/09 A3006 200 77 100 130/03 RMK AO2 SLP174 T01330094 53014
94790KART ART20160617220010706/17/16 22:00:31  5-MIN KART 180300Z AUTO 13003KT 10SM CLR 14/09 A3006 200 74 200 140/03 RMK AO2 T01390094
94790KART ART20160617220510506/17/16 22:05:31  5-MIN KART 180305Z AUTO 12003KT 10SM CLR 13/09 A3005 210 80 0 130/03 RMK AO2 T01280094
94790KART ART20160617221010506/17/16 22:10:31  5-MIN KART 180310Z AUTO 13003KT 10SM CLR 13/10 A3005 210 83 0 140/03 RMK AO2 T01280100
94790KART ART20160617221510506/17/16 22:15:31  5-MIN KART 180315Z AUTO 12003KT 10SM CLR 12/09 A3005 210 83 0 140/03 RMK AO2 T01220094
94790KART ART20160617222010706/17/16 22:20:31  5-MIN KART 180320Z AUTO 10003KT 10SM CLR 13/09 A3005 210 77 100 110/03 RMK AO2 T01330094
94790KART ART20160617222510706/17/16 22:25:31  5-MIN KART 180325Z AUTO 00000KT 10SM CLR 13/09 A3006 200 77 100 000/00 RMK AO2 T01330094
94790KART ART20160617223010506/17/16 22:30:31  5-MIN KART 180330Z AUTO 00000KT 10SM CLR 13/09 A3006 200 80 0 000/00 RMK AO2 T01280094
94790KART ART20160617223510506/17/16 22:35:31  5-MIN KART 180335Z AUTO 00000KT 10SM CLR 12/09 A3006 200 83 0 000/00 RMK AO2 T01220094
94790KART ART20160617224010506/17/16 22:40:31  5-MIN KART 180340Z AUTO 07004KT 10SM CLR 12/09 A3006 200 80 0 080/04 RMK AO2 T01220089
94790KART ART20160617224510506/17/16 22:45:31  5-MIN KART 180345Z AUTO 00000KT 10SM CLR 13/09 A3006 200 80 0 000/00 RMK AO2 T01280094
94790KART ART20160617225011206/17/16 22:50:31  5-MIN KART 180350Z AUTO 06003KT 10SM CLR 13/09 A3006 200 80 0 080/03 RMK AO2 SLP176 T01280094
94790KART ART20160617225511206/17/16 22:55:31  5-MIN KART 180355Z AUTO 00000KT 10SM CLR 13/10 A3006 200 83 0 000/00 RMK AO2 SLP176 T01280100
94790KART ART20160617230010706/17/16 23:00:31  5-MIN KART 180400Z AUTO 00000KT 10SM CLR 13/10 A3006 200 80 100 000/00 RMK AO2 T01330100
94790KART ART20160617230510706/17/16 23:05:31  5-MIN KART 180405Z AUTO 00000KT 10SM CLR 13/10 A3007 200 80 100 000/00 RMK AO2 T01330100
94790KART ART20160617231010506/17/16 23:10:31  5-MIN KART 180410Z AUTO 00000KT 10SM CLR 13/10 A3007 200 83 0 000/00 RMK AO2 T01280100
94790KART ART20160617231510506/17/16 23:15:31  5-MIN KART 180415Z AUTO 00000KT 10SM CLR 12/09 A3006 200 83 0 000/00 RMK AO2 T01220094
94790KART ART20160617232010506/17/16 23:20:31  5-MIN KART 180420Z AUTO 09003KT 10SM CLR 12/09 A3006 200 83 0 110/03 RMK AO2 T01220094
94790KART ART20160617232510506/17/16 23:25:31  5-MIN KART 180425Z AUTO 00000KT 10SM CLR 12/09 A3006 200 83 0 000/00 RMK AO2 T01220094
94790KART ART20160617233010506/17/16 23:30:31  5-MIN KART 180430Z AUTO 00000KT 10SM CLR 12/09 A3006 200 80 0 000/00 RMK AO2 T01220089
94790KART ART20160617233510806/17/16 23:35:31  5-MIN KART 180435Z AUTO 00000KT 10SM CLR 12/09 A3006 200 83 -100 000/00 RMK AO2 T01170089
94790KART ART20160617234010806/17/16 23:40:31  5-MIN KART 180440Z AUTO 00000KT 10SM CLR 12/09 A3007 200 83 -100 000/00 RMK AO2 T01170089
94790KART ART20160617234510806/17/16 23:45:31  5-MIN KART 180445Z AUTO 00000KT 10SM CLR 12/09 A3007 190 83 -100 000/00 RMK AO2 T01170089
94790KART ART20160617235012506/17/16 23:50:31  5-MIN KART 180450Z AUTO 00000KT 10SM CLR 12/09 A3007 190 83 -100 000/00 RMK AO2 SLP179 T01170089 402830067
94790KART ART20160617235512506/17/16 23:55:31  5-MIN KART 180455Z AUTO 00000KT 10SM CLR 12/09 A3007 190 86 -100 000/00 RMK AO2 SLP179 T01170094 402830067
94790KART ART20160618000010806/18/16 00:00:31  5-MIN KART 180500Z AUTO 08003KT 10SM CLR 11/09 A3007 190 86 -100 090/03 RMK AO2 T01110089
94790KART ART20160618000510806/18/16 00:05:31  5-MIN KART 180505Z AUTO 00000KT 10SM CLR 11/09 A3007 190 86 -100 000/00 RMK AO2 T01110089
94790KART ART20160618001010806/18/16 00:10:31  5-MIN KART 180510Z AUTO 05003KT 10SM CLR 11/09 A3007 200 86 -100 060/03 RMK AO2 T01110089
94790KART ART20160618001510806/18/16 00:15:31  5-MIN KART 180515Z AUTO 00000KT 10SM CLR 11/09 A3007 190 86 -100 000/00 RMK AO2 T01110089
94790KART ART20160618002010806/18/16 00:20:31  5-MIN KART 180520Z AUTO 00000KT 10SM CLR 11/09 A3007 200 86 -100 000/00 RMK AO2 T01110089
94790KART ART20160618002510806/18/16 00:25:31  5-MIN KART 180525Z AUTO 09003KT 10SM CLR 11/09 A3007 200 86 -100 100/03 RMK AO2 T01110089
94790KART ART20160618003010806/18/16 00:30:31  5-MIN KART 180530Z AUTO 00000KT 10SM CLR 11/09 A3007 200 86 -100 000/00 RMK AO2 T01110089
94790KART ART20160618003510806/18/16 00:35:31  5-MIN KART 180535Z AUTO 06004KT 10SM CLR 11/09 A3007 200 86 -100 070/04 RMK AO2 T01110089
94790KART ART20160618004010806/18/16 00:40:31  5-MIN KART 180540Z AUTO 09004KT 10SM CLR 10/09 A3006 200 93 -300 110/04 RMK AO2 T01000089
94790KART ART20160618004510806/18/16 00:45:31  5-MIN KART 180545Z AUTO 10003KT 10SM CLR 11/09 A3006 200 86 -100 110/03 RMK AO2 T01110089
94790KART ART20160618005013306/18/16 00:50:31  5-MIN KART 180550Z AUTO 00000KT 10SM CLR 11/09 A3006 200 89 -100 000/00 RMK AO2 SLP177 T01110094 10222 20100 53013
94790KART ART20160618005513306/18/16 00:55:31  5-MIN KART 180555Z AUTO 00000KT 10SM CLR 11/09 A3006 200 86 -100 000/00 RMK AO2 SLP176 T01110089 10222 20100 53013
94790KART ART20160618010010806/18/16 01:00:31  5-MIN KART 180600Z AUTO 00000KT 10SM CLR 11/09 A3006 200 86 -100 000/00 RMK AO2 T01110089
94790KART ART20160618010510806/18/16 01:05:31  5-MIN KART 180605Z AUTO 00000KT 10SM CLR 11/09 A3006 200 86 -100 000/00 RMK AO2 T01110089
94790KART ART20160618011010806/18/16 01:10:31  5-MIN KART 180610Z AUTO 00000KT 10SM CLR 11/09 A3006 200 89 -200 000/00 RMK AO2 T01060089
94790KART ART20160618011510806/18/16 01:15:31  5-MIN KART 180615Z AUTO 00000KT 10SM CLR 11/09 A3006 200 89 -200 000/00 RMK AO2 T01060089
94790KART ART20160618012010806/18/16 01:20:31  5-MIN KART 180620Z AUTO 00000KT 10SM CLR 11/08 A3006 200 86 -200 000/00 RMK AO2 T01060083
94790KART ART20160618012510806/18/16 01:25:31  5-MIN KART 180625Z AUTO 00000KT 10SM CLR 10/08 A3006 200 89 -300 000/00 RMK AO2 T01000083
94790KART ART20160618013010806/18/16 01:30:31  5-MIN KART 180630Z AUTO 00000KT 10SM CLR 10/08 A3006 200 89 -300 000/00 RMK AO2 T01000083
94790KART ART20160618013510806/18/16 01:35:31  5-MIN KART 180635Z AUTO 00000KT 10SM CLR 11/09 A3006 200 89 -200 000/00 RMK AO2 T01060089
94790KART ART20160618014010806/18/16 01:40:31  5-MIN KART 180640Z AUTO 03003KT 10SM CLR 11/09 A3007 200 89 -200 040/03 RMK AO2 T01060089
94790KART ART20160618014510806/18/16 01:45:31  5-MIN KART 180645Z AUTO 03008KT 10SM CLR 12/09 A3007 190 83 -100 040/08 RMK AO2 T01170089
94790KART ART20160618015011206/18/16 01:50:31  5-MIN KART 180650Z AUTO 06003KT 10SM CLR 13/09 A3007 190 77 0 070/03 RMK AO2 SLP178 T01280089
94790KART ART20160618015511506/18/16 01:55:31  5-MIN KART 180655Z AUTO 11003KT 10SM CLR 12/09 A3007 190 83 -100 120/03 RMK AO2 SLP180 T01170089
94790KART ART20160618020010806/18/16 02:00:31  5-MIN KART 180700Z AUTO 12005KT 10SM CLR 11/08 A3008 190 83 -100 130/05 RMK AO2 T01110083
94790KART ART20160618020510806/18/16 02:05:31  5-MIN KART 180705Z AUTO 10003KT 10SM CLR 11/08 A3008 190 83 -100 120/03 RMK AO2 T01110083
94790KART ART20160618021010806/18/16 02:10:31  5-MIN KART 180710Z AUTO 00000KT 10SM CLR 11/08 A3008 180 86 -200 000/00 RMK AO2 T01060083
94790KART ART20160618021510806/18/16 02:15:31  5-MIN KART 180715Z AUTO 00000KT 10SM CLR 11/08 A3008 180 86 -200 000/00 RMK AO2 T01060083
94790KART ART20160618022010806/18/16 02:20:31  5-MIN KART 180720Z AUTO 08003KT 10SM CLR 11/08 A3008 180 86 -200 090/03 RMK AO2 T01060083
94790KART ART20160618022510806/18/16 02:25:31  5-MIN KART 180725Z AUTO 09003KT 10SM CLR 11/08 A3008 180 86 -200 100/03 RMK AO2 T01060083
94790KART ART20160618023010806/18/16 02:30:31  5-MIN KART 180730Z AUTO 00000KT 10SM CLR 11/09 A3009 180 86 -200 000/00 RMK AO2 T01110089
94790KART ART20160618023510806/18/16 02:35:31  5-MIN KART 180735Z AUTO 00000KT 10SM CLR 11/08 A3009 180 86 -200 000/00 RMK AO2 T01060083
94790KART ART20160618024010806/18/16 02:40:31  5-MIN KART 180740Z AUTO 00000KT 10SM CLR 10/08 A3009 180 89 -300 000/00 RMK AO2 T01000083
94790KART ART20160618024510806/18/16 02:45:31  5-MIN KART 180745Z AUTO 00000KT 10SM CLR 10/08 A3009 180 89 -300 000/00 RMK AO2 T01000083
94790KART ART20160618025011506/18/16 02:50:31  5-MIN KART 180750Z AUTO 00000KT 10SM CLR 09/08 A3009 170 93 -400 000/00 RMK AO2 SLP185 T00940083
94790KART ART20160618025511506/18/16 02:55:31  5-MIN KART 180755Z AUTO 00000KT 10SM CLR 09/08 A3009 170 93 -400 000/00 RMK AO2 SLP185 T00890078
94790KART ART20160618030010806/18/16 03:00:31  5-MIN KART 180800Z AUTO 10003KT 10SM CLR 09/07 A3009 170 89 -400 110/03 RMK AO2 T00890072
94790KART ART20160618030510806/18/16 03:05:31  5-MIN KART 180805Z AUTO 00000KT 10SM CLR 09/08 A3010 170 93 -400 000/00 RMK AO2 T00940083
94790KART ART20160621191010806/21/16 19:10:31  5-MIN KART 220010Z AUTO 23006KT 10SM CLR 18/08 A2979 460 52 1000 240/06 RMK AO2 T01830083
94790KART ART20160621191510806/21/16 19:15:31  5-MIN KART 220015Z AUTO 22006KT 10SM CLR 18/08 A2978 460 52 1000 230/06 RMK AO2 T01830083
94790KART ART20160621192010706/21/16 19:20:31  5-MIN KART 220020Z AUTO 21006KT 10SM CLR 18/09 A2979 460 55 900 220/06 RMK AO2 T01780089
94790KART ART20160621192510706/21/16 19:25:31  5-MIN KART 220025Z AUTO 21005KT 10SM CLR 18/09 A2978 460 55 900 230/05 RMK AO2 T01780089
94790KART ART20160621193010706/21/16 19:30:31  5-MIN KART 220030Z AUTO 22005KT 10SM CLR 18/09 A2978 460 58 900 230/05 RMK AO2 T01780094
94790KART ART20160621193510706/21/16 19:35:31  5-MIN KART 220035Z AUTO 22006KT 10SM CLR 17/09 A2979 450 60 900 230/06 RMK AO2 T01720094
94790KART ART20160621194010706/21/16 19:40:31  5-MIN KART 220040Z AUTO 21006KT 10SM CLR 17/09 A2979 450 60 900 220/06 RMK AO2 T01720094
94790KART ART20160621194510706/21/16 19:45:31  5-MIN KART 220045Z AUTO 21005KT 10SM CLR 18/09 A2979 450 58 900 220/05 RMK AO2 T01780094
94790KART ART20160621195011406/21/16 19:50:31  5-MIN KART 220050Z AUTO 21005KT 10SM CLR 17/09 A2979 450 60 900 220/05 RMK AO2 SLP084 T01720094
94790KART ART20160621195511406/21/16 19:55:31  5-MIN KART 220055Z AUTO 22005KT 10SM CLR 17/09 A2979 450 60 900 230/05 RMK AO2 SLP084 T01720094
94790KART ART20160621200010706/21/16 20:00:31  5-MIN KART 220100Z AUTO 21004KT 10SM CLR 17/09 A2979 450 62 800 220/04 RMK AO2 T01670094
94790KART ART20160621200510706/21/16 20:05:31  5-MIN KART 220105Z AUTO 20005KT 10SM CLR 17/09 A2979 450 60 800 220/05 RMK AO2 T01670089
94790KART ART20160621201010706/21/16 20:10:31  5-MIN KART 220110Z AUTO 19004KT 10SM CLR 17/09 A2979 450 60 800 200/04 RMK AO2 T01670089
94790KART ART20160621201510706/21/16 20:15:31  5-MIN KART 220115Z AUTO 20004KT 10SM CLR 17/09 A2980 450 60 800 210/04 RMK AO2 T01670089
94790KART ART20160621202010706/21/16 20:20:31  5-MIN KART 220120Z AUTO 19004KT 10SM CLR 16/09 A2980 450 62 700 210/04 RMK AO2 T01610089
94790KART ART20160621202510706/21/16 20:25:31  5-MIN KART 220125Z AUTO 19004KT 10SM CLR 16/09 A2980 440 62 700 210/04 RMK AO2 T01610089
94790KART ART20160621203010706/21/16 20:30:31  5-MIN KART 220130Z AUTO 19003KT 10SM CLR 16/09 A2980 440 62 700 200/03 RMK AO2 T01610089
94790KART ART20160621203510706/21/16 20:35:31  5-MIN KART 220135Z AUTO 20004KT 10SM CLR 16/09 A2980 440 62 700 210/04 RMK AO2 T01610089
94790KART ART20160621204010706/21/16 20:40:31  5-MIN KART 220140Z AUTO 19003KT 10SM CLR 16/09 A2980 440 64 600 200/03 RMK AO2 T01560089
94790KART ART20160621204510706/21/16 20:45:31  5-MIN KART 220145Z AUTO 18004KT 10SM CLR 16/09 A2980 440 64 600 190/04 RMK AO2 T01560089
94790KART ART20160621205011406/21/16 20:50:31  5-MIN KART 220150Z AUTO 17003KT 10SM CLR 15/09 A2980 440 66 600 190/03 RMK AO2 SLP090 T01500089
94790KART ART20160621205511406/21/16 20:55:31  5-MIN KART 220155Z AUTO 18003KT 10SM CLR 16/09 A2980 440 64 600 190/03 RMK AO2 SLP089 T01560089
94790KART ART20160621210010706/21/16 21:00:31  5-MIN KART 220200Z AUTO 18003KT 10SM CLR 16/09 A2980 440 64 600 190/03 RMK AO2 T01560089
94790KART ART20160621210510706/21/16 21:05:31  5-MIN KART 220205Z AUTO 18003KT 10SM CLR 15/09 A2980 440 66 600 200/03 RMK AO2 T01500089
94790KART ART20160621211010706/21/16 21:10:31  5-MIN KART 220210Z AUTO 00000KT 10SM CLR 15/09 A2980 440 66 600 000/00 RMK AO2 T01500089
94790KART ART20160621211510706/21/16 21:15:31  5-MIN KART 220215Z AUTO 18004KT 10SM CLR 15/09 A2980 440 66 600 190/04 RMK AO2 T01500089
94790KART ART20160621212010706/21/16 21:20:31  5-MIN KART 220220Z AUTO 17004KT 10SM CLR 16/09 A2980 440 64 700 180/04 RMK AO2 T01560089
94790KART ART20160621212510706/21/16 21:25:31  5-MIN KART 220225Z AUTO 17003KT 10SM CLR 15/09 A2980 440 66 600 190/03 RMK AO2 T01500089
94790KART ART20160621213010706/21/16 21:30:31  5-MIN KART 220230Z AUTO 17003KT 10SM CLR 14/09 A2980 440 71 500 180/03 RMK AO2 T01390089
94790KART ART20160621213510706/21/16 21:35:31  5-MIN KART 220235Z AUTO 17003KT 10SM CLR 14/09 A2980 440 69 500 180/03 RMK AO2 T01440089
94790KART ART20160621214010706/21/16 21:40:31  5-MIN KART 220240Z AUTO 17003KT 10SM CLR 14/09 A2980 440 71 500 180/03 RMK AO2 T01390089
94790KART ART20160621214510706/21/16 21:45:31  5-MIN KART 220245Z AUTO 17003KT 10SM CLR 13/09 A2980 450 74 400 180/03 RMK AO2 T01330089
94790KART ART20160621215012006/21/16 21:50:31  5-MIN KART 220250Z AUTO 16003KT 10SM CLR 13/08 A2979 450 71 400 170/03 RMK AO2 SLP086 T01330083 55010
94790KART ART20160621215512006/21/16 21:55:31  5-MIN KART 220255Z AUTO 17004KT 10SM CLR 13/09 A2979 450 74 400 180/04 RMK AO2 SLP086 T01330089 55010
94790KART ART20160621220011006/21/16 22:00:31  5-MIN KART 220300Z AUTO 16003KT 10SM FEW085 14/09 A2979 450 71 500 180/03 RMK AO2 T01390089
94790KART ART20160621220511006/21/16 22:05:31  5-MIN KART 220305Z AUTO 17003KT 10SM SCT085 14/09 A2979 450 69 500 180/03 RMK AO2 T01440089
94790KART ART20160621221011006/21/16 22:10:31  5-MIN KART 220310Z AUTO 17004KT 10SM BKN085 13/09 A2979 450 77 300 180/04 RMK AO2 T01280089
94790KART ART20160621221511006/21/16 22:15:31  5-MIN KART 220315Z AUTO 17006KT 10SM BKN085 15/08 A2979 450 64 600 180/06 RMK AO2 T01500083
94790KART ART20160621222011006/21/16 22:20:31  5-MIN KART 220320Z AUTO 17006KT 10SM BKN085 16/08 A2978 460 62 700 180/06 RMK AO2 T01560083
94790KART ART20160621222511006/21/16 22:25:31  5-MIN KART 220325Z AUTO 17006KT 10SM BKN085 16/08 A2978 460 62 700 180/06 RMK AO2 T01560083
94790KART ART20160621223011006/21/16 22:30:31  5-MIN KART 220330Z AUTO 17006KT 10SM OVC085 16/08 A2978 460 62 700 180/06 RMK AO2 T01560083
94790KART ART20160621223511006/21/16 22:35:31  5-MIN KART 220335Z AUTO 17005KT 10SM OVC090 16/08 A2978 460 62 700 180/05 RMK AO2 T01560083
94790KART ART20160621224011006/21/16 22:40:31  5-MIN KART 220340Z AUTO 17005KT 10SM BKN090 16/08 A2978 460 62 700 190/05 RMK AO2 T01560083
94790KART ART20160621224511706/21/16 22:45:31  5-MIN KART 220345Z AUTO 16005KT 10SM BKN090 OVC100 16/08 A2978 460 62 700 180/05 RMK AO2 T01560083
94790KART ART20160621225012406/21/16 22:50:31  5-MIN KART 220350Z AUTO 17004KT 10SM BKN090 BKN100 16/08 A2978 460 62 700 180/04 RMK AO2 SLP080 T01560083
94790KART ART20160621225512406/21/16 22:55:31  5-MIN KART 220355Z AUTO 16003KT 10SM BKN085 BKN100 16/08 A2978 460 59 700 180/03 RMK AO2 SLP079 T01560078
94790KART ART20160621230011706/21/16 23:00:31  5-MIN KART 220400Z AUTO 00000KT 10SM BKN090 BKN100 16/08 A2978 460 59 700 000/00 RMK AO2 T01560078
94790KART ART20160621230511006/21/16 23:05:31  5-MIN KART 220405Z AUTO 17003KT 10SM SCT090 16/08 A2978 460 59 700 180/03 RMK AO2 T01560078
94790KART ART20160621231011006/21/16 23:10:31  5-MIN KART 220410Z AUTO 17003KT 10SM SCT085 16/08 A2978 460 59 700 190/03 RMK AO2 T01560078
94790KART ART20160621231511006/21/16 23:15:31  5-MIN KART 220415Z AUTO 18003KT 10SM SCT085 16/08 A2977 470 59 700 190/03 RMK AO2 T01560078
94790KART ART20160621232011006/21/16 23:20:31  5-MIN KART 220420Z AUTO VRB03KT 10SM SCT085 16/08 A2977 470 59 700 VRB/03 RMK AO2 T01560078
94790KART ART20160621232511006/21/16 23:25:31  5-MIN KART 220425Z AUTO 16004KT 10SM FEW080 15/08 A2977 470 62 600 170/04 RMK AO2 T01500078
94790KART ART20160621233011706/21/16 23:30:31  5-MIN KART 220430Z AUTO 16003KT 10SM FEW080 SCT110 15/08 A2976 480 62 600 170/03 RMK AO2 T01500078
94790KART ART20160621233511706/21/16 23:35:31  5-MIN KART 220435Z AUTO VRB03KT 10SM FEW080 BKN110 15/08 A2977 470 62 600 VRB/03 RMK AO2 T01500078
94790KART ART20160621234011706/21/16 23:40:31  5-MIN KART 220440Z AUTO 00000KT 10SM SCT085 BKN110 16/08 A2977 470 59 700 000/00 RMK AO2 T01560078
94790KART ART20160621234511706/21/16 23:45:31  5-MIN KART 220445Z AUTO VRB03KT 10SM SCT085 BKN110 16/08 A2977 470 59 700 VRB/03 RMK AO2 T01560078
94790KART ART20160621235013406/21/16 23:50:31  5-MIN KART 220450Z AUTO 16003KT 10SM BKN085 BKN110 16/08 A2976 480 59 700 170/03 RMK AO2 SLP076 T01560078 402170128
94790KART ART20160621235513406/21/16 23:55:31  5-MIN KART 220455Z AUTO VRB03KT 10SM BKN085 OVC110 16/08 A2976 480 59 700 VRB/03 RMK AO2 SLP076 T01560078 402170128
94790KART ART20160622000011706/22/16 00:00:31  5-MIN KART 220500Z AUTO 16004KT 10SM BKN085 OVC110 16/08 A2976 480 57 800 180/04 RMK AO2 T01610078
94790KART ART20160622000511706/22/16 00:05:31  5-MIN KART 220505Z AUTO 16004KT 10SM BKN085 OVC110 16/07 A2976 480 55 800 170/04 RMK AO2 T01610072
94790KART ART20160622001011706/22/16 00:10:31  5-MIN KART 220510Z AUTO 16004KT 10SM SCT085 OVC110 16/08 A2976 480 57 800 170/04 RMK AO2 T01610078
94790KART ART20160622001511706/22/16 00:15:31  5-MIN KART 220515Z AUTO 16004KT 10SM FEW085 OVC110 16/07 A2975 480 55 800 170/04 RMK AO2 T01610072
94790KART ART20160622002011006/22/16 00:20:31  5-MIN KART 220520Z AUTO 16003KT 10SM OVC100 16/07 A2976 480 55 800 170/03 RMK AO2 T01610072
94790KART ART20160622002511706/22/16 00:25:31  5-MIN KART 220525Z AUTO VRB03KT 10SM FEW080 OVC110 16/07 A2976 480 55 800 VRB/03 RMK AO2 T01610072
94790KART ART20160622003012406/22/16 00:30:31  5-MIN KART 220530Z AUTO 29004KT 10SM SCT075 BKN095 OVC110 16/08 A2977 470 57 700 300/04 RMK AO2 T01610078
94790KART ART20160622003513906/22/16 00:35:31  5-MIN KART 220535Z AUTO 31011KT 7SM -RA BKN070 OVC110 15/09 A2979 460 66 600 320/11 RMK AO2 RAB35 PRESRR P0001 T01500089
94790KART ART20160622004013806/22/16 00:40:31  5-MIN KART 220540Z AUTO 28014KT 4SM RA BKN070 OVC100 15/09 A2980 440 69 600 290/14 RMK AO2 RAB35 PRESRR P0003 T01500094
94790KART ART20160622004515506/22/16 00:45:31  5-MIN KART 220545Z AUTO 29012KT 2 1/2SM +RA BKN070 OVC100 14/11 A2981 430 77 500 300/12 RMK AO2 VIS 1 3/4V5 RAB35 PRESRR P0004 T01440106
94790KART ART20160622005015606/22/16 00:50:31  5-MIN KART 220550Z AUTO 29008KT 3SM -RA OVC070 14/12 A2981 430 83 500 300/08 RMK AO2 RAB35 SLP092 P0005 60005 T01440117 10189 20128 50002
94790KART ART20160622005515606/22/16 00:55:31  5-MIN KART 220555Z AUTO 29004KT 7SM -RA OVC065 14/12 A2981 430 86 500 300/04 RMK AO2 RAB35 SLP092 P0005 60005 T01440122 10189 20128 50002
94790KART ART20160622010011906/22/16 01:00:31  5-MIN KART 220600Z AUTO 27004KT 9SM -RA OVC070 14/12 A2981 430 86 500 290/04 RMK AO2 P0000 T01440122
94790KART ART20160622010511806/22/16 01:05:31  5-MIN KART 220605Z AUTO 30008KT 3SM RA OVC065 15/12 A2981 430 83 600 310/08 RMK AO2 P0002 T01500122
94790KART ART20160622011012906/22/16 01:10:31  5-MIN KART 220610Z AUTO 30008KT 2 1/2SM RA SCT050 OVC070 15/12 A2981 430 83 600 310/08 RMK AO2 P0002 T01500122
94790KART ART20160622011512906/22/16 01:15:31  5-MIN KART 220615Z AUTO 30006KT 4SM -RA BR SCT048 OVC075 14/12 A2981 430 86 500 320/06 RMK AO2 P0003 T01440122
94790KART ART20160622012012606/22/16 01:20:31  5-MIN KART 220620Z AUTO 29003KT 9SM -RA FEW050 OVC075 14/12 A2980 440 86 500 300/03 RMK AO2 P0003 T01440122
94790KART ART20160622012512706/22/16 01:25:31  5-MIN KART 220625Z AUTO 00000KT 10SM -RA FEW050 OVC075 14/12 A2980 440 86 500 000/00 RMK AO2 P0003 T01440122
94790KART ART20160622013012906/22/16 01:30:31  5-MIN KART 220630Z AUTO 00000KT 10SM FEW050 OVC075 14/13 A2980 440 93 400 000/00 RMK AO2 RAE27 P0003 T01390128
94790KART ART20160622013512706/22/16 01:35:31  5-MIN KART 220635Z AUTO 00000KT 10SM -RA FEW042 OVC075 14/12 A2980 440 86 500 000/00 RMK AO2 P0003 T01440122
94790KART ART20160622014012006/22/16 01:40:31  5-MIN KART 220640Z AUTO 13004KT 10SM -RA OVC070 14/12 A2980 450 90 500 140/04 RMK AO2 P0003 T01390122
94790KART ART20160622014512006/22/16 01:45:31  5-MIN KART 220645Z AUTO 13004KT 10SM -RA OVC070 14/12 A2979 450 90 500 140/04 RMK AO2 P0003 T01390122
94790KART ART20160622015012706/22/16 01:50:31  5-MIN KART 220650Z AUTO 11004KT 10SM -RA OVC070 14/12 A2979 450 90 500 120/04 RMK AO2 SLP084 P0003 T01390122
94790KART ART20160622015514306/22/16 01:55:31  5-MIN KART 220655Z AUTO 11006KT 10SM BKN070 OVC120 13/12 A2978 460 93 400 130/06 RMK AO2 RAE54 PRESFR SLP080 P0003 T01330122
94790KART ART20160622020012406/22/16 02:00:31  5-MIN KART 220700Z AUTO 12004KT 10SM BKN070 BKN090 OVC120 13/12 A2977 470 93 400 130/04 RMK AO2 T01330122
94790KART ART20160622020512406/22/16 02:05:31  5-MIN KART 220705Z AUTO 12005KT 10SM SCT070 BKN085 OVC120 13/12 A2978 460 93 400 130/05 RMK AO2 T01330122
94790KART ART20160622021012406/22/16 02:10:31  5-MIN KART 220710Z AUTO 13005KT 10SM FEW070 BKN085 BKN120 13/12 A2978 460 93 400 140/05 RMK AO2 T01330122
94790KART ART20160622021512406/22/16 02:15:31  5-MIN KART 220715Z AUTO 13004KT 10SM FEW070 BKN090 BKN120 13/12 A2977 470 93 400 150/04 RMK AO2 T01330122
94790KART ART20160622022012406/22/16 02:20:31  5-MIN KART 220720Z AUTO 14003KT 10SM FEW075 BKN090 BKN120 13/12 A2977 470 93 400 150/03 RMK AO2 T01330122
94790KART ART20160622022511706/22/16 02:25:31  5-MIN KART 220725Z AUTO 13005KT 10SM SCT090 BKN110 13/12 A2977 470 93 400 150/05 RMK AO2 T01330122
94790KART ART20160622023011706/22/16 02:30:31  5-MIN KART 220730Z AUTO 16004KT 10SM FEW090 SCT120 13/12 A2977 470 89 400 170/04 RMK AO2 T01330117
94790KART ART20160622023511006/22/16 02:35:31  5-MIN KART 220735Z AUTO 15004KT 10SM FEW090 13/12 A2977 470 89 400 170/04 RMK AO2 T01330117
94790KART ART20160622024011006/22/16 02:40:31  5-MIN KART 220740Z AUTO 14005KT 10SM FEW090 13/12 A2976 480 93 400 150/05 RMK AO2 T01280117
94790KART ART20160622024511006/22/16 02:45:31  5-MIN KART 220745Z AUTO 13005KT 10SM FEW095 13/12 A2976 480 93 400 150/05 RMK AO2 T01280117
94790KART ART20160622025011406/22/16 02:50:31  5-MIN KART 220750Z AUTO 14005KT 10SM CLR 13/12 A2976 480 93 400 150/05 RMK AO2 SLP074 T01280117
94790KART ART20160622025511406/22/16 02:55:31  5-MIN KART 220755Z AUTO 14005KT 10SM CLR 13/12 A2976 480 93 400 150/05 RMK AO2 SLP073 T01280117
94790KART ART20160622030010706/22/16 03:00:31  5-MIN KART 220800Z AUTO 14006KT 10SM CLR 13/12 A2976 480 93 400 150/06 RMK AO2 T01280117
94790KART ART20160622030510706/22/16 03:05:31  5-MIN KART 220805Z AUTO 14005KT 10SM CLR 13/12 A2975 480 93 400 150/05 RMK AO2 T01280117
94790KART ART20160622031010706/22/16 03:10:31  5-MIN KART 220810Z AUTO 14004KT 10SM CLR 13/12 A2975 490 93 400 150/04 RMK AO2 T01280117
94790KART ART20160622031510706/22/16 03:15:31  5-MIN KART 220815Z AUTO 13005KT 10SM CLR 13/12 A2975 490 93 400 150/05 RMK AO2 T01280117
94790KART ART20160622032010706/22/16 03:20:31  5-MIN KART 220820Z AUTO 13003KT 10SM CLR 13/12 A2975 490 93 400 150/03 RMK AO2 T01280117
94790KART ART20160622032511006/22/16 03:25:31  5-MIN KART 220825Z AUTO 13004KT 10SM FEW120 13/12 A2975 490 93 400 150/04 RMK AO2 T01280117
94790KART ART20160622033011006/22/16 03:30:31  5-MIN KART 220830Z AUTO 14004KT 10SM FEW120 12/11 A2975 490 93 300 160/04 RMK AO2 T01220111
94790KART ART20160622033511006/22/16 03:35:31  5-MIN KART 220835Z AUTO 15004KT 10SM FEW120 13/11 A2975 490 89 400 170/04 RMK AO2 T01280111
94790KART ART20160622034011006/22/16 03:40:31  5-MIN KART 220840Z AUTO 15004KT 10SM FEW120 13/11 A2975 490 89 400 170/04 RMK AO2 T01280111
94790KART ART20160622034511006/22/16 03:45:31  5-MIN KART 220845Z AUTO 00000KT 10SM FEW120 13/11 A2975 490 89 400 000/00 RMK AO2 T01280111
94790KART ART20160622035012906/22/16 03:50:31  5-MIN KART 220850Z AUTO 00000KT 10SM FEW120 13/11 A2974 490 89 400 000/00 RMK AO2 SLP070 60003 T01280111 53006
94790KART ART20160622035512906/22/16 03:55:31  5-MIN KART 220855Z AUTO 00000KT 10SM FEW110 13/11 A2975 490 89 400 000/00 RMK AO2 SLP070 60003 T01280111 53006
94790KART ART20160622040011006/22/16 04:00:31  5-MIN KART 220900Z AUTO 14003KT 10SM SCT110 13/11 A2975 490 89 400 160/03 RMK AO2 T01280111
94790KART ART20160622040511006/22/16 04:05:31  5-MIN KART 220905Z AUTO 14004KT 10SM SCT110 13/11 A2974 490 89 400 150/04 RMK AO2 T01280111
94790KART ART20160622041011006/22/16 04:10:31  5-MIN KART 220910Z AUTO 15003KT 10SM BKN110 13/11 A2974 490 89 400 170/03 RMK AO2 T01280111
94790KART ART20160622041511006/22/16 04:15:31  5-MIN KART 220915Z AUTO 00000KT 10SM BKN110 13/11 A2974 490 89 400 000/00 RMK AO2 T01280111
94790KART ART20160622042011006/22/16 04:20:31  5-MIN KART 220920Z AUTO 00000KT 10SM OVC110 13/11 A2974 500 89 400 000/00 RMK AO2 T01280111
94790KART ART20160622042511006/22/16 04:25:31  5-MIN KART 220925Z AUTO 00000KT 10SM OVC110 13/11 A2974 500 89 400 000/00 RMK AO2 T01280111
94790KART ART20160622043011006/22/16 04:30:31  5-MIN KART 220930Z AUTO 15003KT 10SM OVC110 13/11 A2973 500 89 400 160/03 RMK AO2 T01280111
94790KART ART20160622043511006/22/16 04:35:31  5-MIN KART 220935Z AUTO 18003KT 10SM OVC110 13/11 A2974 500 89 400 200/03 RMK AO2 T01280111
94790KART ART20160622044011006/22/16 04:40:31  5-MIN KART 220940Z AUTO 20003KT 10SM OVC110 13/11 A2974 500 86 500 210/03 RMK AO2 T01330111
94790KART ART20160622044511006/22/16 04:45:31  5-MIN KART 220945Z AUTO 20003KT 10SM OVC110 13/11 A2974 490 86 500 210/03 RMK AO2 T01330111
94790KART ART20160622045011706/22/16 04:50:31  5-MIN KART 220950Z AUTO 22003KT 10SM OVC100 13/11 A2975 490 86 400 240/03 RMK AO2 SLP071 T01330111
94790KART ART20160622045511706/22/16 04:55:31  5-MIN KART 220955Z AUTO 24003KT 10SM OVC100 13/11 A2975 490 86 400 260/03 RMK AO2 SLP072 T01330111
94790KART ART20160622050011706/22/16 05:00:31  5-MIN KART 221000Z AUTO 26004KT 10SM BKN100 OVC110 13/12 A2976 480 89 400 270/04 RMK AO2 T01330117
94790KART ART20160622050512406/22/16 05:05:31  5-MIN KART 221005Z AUTO 26005KT 10SM FEW065 BKN100 OVC110 13/12 A2976 480 89 400 280/05 RMK AO2 T01330117
94790KART ART20160622051011706/22/16 05:10:31  5-MIN KART 221010Z AUTO 27007KT 10SM SCT065 OVC095 13/12 A2977 470 89 400 290/07 RMK AO2 T01330117
94790KART ART20160622051514706/22/16 05:15:31  5-MIN KART 221015Z AUTO 28006KT 10SM -RA FEW050 BKN065 OVC095 14/12 A2978 460 86 500 290/06 RMK AO2 RAB14 PRESRR P0000 T01390117
94790KART ART20160622052016206/22/16 05:20:31  5-MIN KART 221020Z AUTO 24008KT 210V280 7SM -RA SCT050 BKN065 OVC095 14/12 A2978 460 86 500 260/08 220V290 RMK AO2 RAB14 PRESRR P0000 T01390117
94790KART ART20160622052515206/22/16 05:25:31  5-MIN KART 221025Z AUTO 30011G20KT 6SM -RA FEW043 BKN050 OVC090 14/12 A2979 450 83 500 310/11G20 RMK AO2 RAB14 PRESRR P0001 T01440117
94790KART ART20160622053015206/22/16 05:30:31  5-MIN KART 221030Z AUTO 27010G20KT 8SM -RA FEW040 SCT050 OVC070 15/12 A2980 450 83 600 280/10G20 RMK AO2 RAB14 PRESRR P0001 T01500122
94790KART ART20160622053514506/22/16 05:35:31  5-MIN KART 221035Z AUTO 27014G20KT 7SM -RA FEW031 BKN050 OVC070 16/13 A2980 440 83 700 290/14G20 RMK AO2 RAB14 P0001 T01560128
94790KART ART20160622054014106/22/16 05:40:31  5-MIN KART 221040Z AUTO 28014KT 4SM RA BR FEW021 BKN050 OVC065 15/13 A2980 440 86 600 290/14 RMK AO2 RAB14 P0003 T01500128
94790KART ART20160622054514206/22/16 05:45:31  5-MIN KART 221045Z AUTO 28013KT 3SM +RA BR FEW021 BKN050 OVC065 15/13 A2980 440 90 600 290/13 RMK AO2 RAB14 P0005 T01500133
94790KART ART20160622055013606/22/16 05:50:31  5-MIN KART 221050Z AUTO 28012KT 2 1/2SM +RA BR SCT019 BKN060 OVC070 15/13 A2981 430 90 600 290/12 RMK AO2 RAB14 P0008
94790KART ART20160622055515806/22/16 05:55:31  5-MIN KART 221055Z AUTO 28015G20KT 2 1/2SM RA BR FEW019 BKN060 OVC070 14/12 A2981 430 86 500 290/15G20 RMK AO2 RAB14 SLP091 P0009 T01440122
94790KART ART20160622060014206/22/16 06:00:31  5-MIN KART 221100Z AUTO 26010G20KT 2 1/2SM RA FEW019 BKN060 OVC070 14/12 A2980 440 83 500 270/10G20 RMK AO2 P0001 T01440117
94790KART ART20160622060513306/22/16 06:05:31  5-MIN KART 221105Z AUTO 27011KT 4SM -RA FEW016 FEW023 OVC065 14/12 A2981 430 83 500 280/11 RMK AO2 P0001 T01440117
94790KART ART20160622061013606/22/16 06:10:31  5-MIN KART 221110Z AUTO 26008KT 6SM -RA BR FEW018 SCT060 OVC070 14/12 A2981 430 86 400 280/08 RMK AO2 P0001 T01390117
94790KART ART20160622061511906/22/16 06:15:31  5-MIN KART 221115Z AUTO 26007KT 8SM -RA OVC070 14/12 A2981 430 86 400 270/07 RMK AO2 P0001 T01390117
94790KART ART20160622062012206/22/16 06:20:31  5-MIN KART 221120Z AUTO 24005KT 6SM -RA BR OVC070 14/12 A2981 430 86 400 250/05 RMK AO2 P0002 T01390117
94790KART ART20160622062512206/22/16 06:25:31  5-MIN KART 221125Z AUTO 19006KT 5SM -RA BR OVC070 13/12 A2979 450 89 400 200/06 RMK AO2 P0002 T01330117
94790KART ART20160622063012206/22/16 06:30:31  5-MIN KART 221130Z AUTO VRB04KT 6SM -RA BR OVC070 13/12 A2979 450 89 400 VRB/04 RMK AO2 P0002 T01330117
94790KART ART20160622063512606/22/16 06:35:31  5-MIN KART 221135Z AUTO 20004KT 8SM -RA BKN070 OVC085 13/12 A2980 440 89 400 220/04 RMK AO2 P0002 T01330117
94790KART ART20160622064013406/22/16 06:40:31  5-MIN KART 221140Z AUTO 21003KT 10SM -RA SCT065 BKN090 OVC120 13/12 A2981 440 89 400 220/03 RMK AO2 P0003 T01330117
94790KART ART20160622064513606/22/16 06:45:31  5-MIN KART 221145Z AUTO 00000KT 10SM SCT065 BKN085 OVC120 13/12 A2981 430 89 400 000/00 RMK AO2 RAE42 P0003 T01330117
94790KART ART20160622065017106/22/16 06:50:31  5-MIN KART 221150Z AUTO 19003KT 10SM -RA FEW055 BKN090 OVC120 13/12 A2981 440 89 400 200/03 RMK AO2 SLP091 P0003 60015 70020 T01330117 10156 20122 56022
94790KART ART20160622065517106/22/16 06:55:31  5-MIN KART 221155Z AUTO 00000KT 10SM -RA SCT060 BKN085 BKN120 13/12 A2981 430 89 400 000/00 RMK AO2 SLP091 P0003 60015 70020 T01330117 10156 20122 56022
94790KART ART20160622070013406/22/16 07:00:31  5-MIN KART 221200Z AUTO 00000KT 10SM -RA FEW060 SCT090 BKN120 13/12 A2981 430 89 400 000/00 RMK AO2 P0000 T01330117
94790KART ART20160622070513606/22/16 07:05:31  5-MIN KART 221205Z AUTO 17003KT 10SM FEW055 FEW090 SCT120 13/12 A2981 430 93 400 180/03 RMK AO2 RAE01 P0000 T01330122
94790KART ART20160622071013606/22/16 07:10:31  5-MIN KART 221210Z AUTO VRB04KT 10SM FEW060 SCT090 SCT120 14/13 A2981 430 93 400 VRB/04 RMK AO2 RAE01 P0000 T01390128
94790KART ART20160622071512206/22/16 07:15:31  5-MIN KART 221215Z AUTO VRB03KT 10SM FEW060 14/13 A2981 430 90 500 VRB/03 RMK AO2 RAE01 P0000 T01440128
94790KART ART20160622072011906/22/16 07:20:31  5-MIN KART 221220Z AUTO 20005KT 10SM CLR 15/13 A2981 430 90 600 210/05 RMK AO2 RAE01 P0000 T01500133
94790KART ART20160622072511906/22/16 07:25:31  5-MIN KART 221225Z AUTO 19006KT 10SM CLR 15/13 A2981 430 86 600 200/06 RMK AO2 RAE01 P0000 T01500128
94790KART ART20160622073011906/22/16 07:30:31  5-MIN KART 221230Z AUTO 19005KT 10SM CLR 15/13 A2981 430 86 600 200/05 RMK AO2 RAE01 P0000 T01500128
94790KART ART20160622073511906/22/16 07:35:31  5-MIN KART 221235Z AUTO 20007KT 10SM CLR 15/13 A2981 430 86 600 220/07 RMK AO2 RAE01 P0000 T01500128
94790KART ART20160622074011906/22/16 07:40:31  5-MIN KART 221240Z AUTO 19007KT 10SM CLR 16/13 A2981 430 83 600 210/07 RMK AO2 RAE01 P0000 T01560128
94790KART ART20160622074511906/22/16 07:45:31  5-MIN KART 221245Z AUTO 21007KT 10SM CLR 16/13 A2981 430 83 600 230/07 RMK AO2 RAE01 P0000 T01560128
94790KART ART20160622075012606/22/16 07:50:31  5-MIN KART 221250Z AUTO 19005KT 10SM CLR 16/13 A2981 430 83 600 200/05 RMK AO2 RAE01 SLP092 P0000 T01560128
94790KART ART20160622075512606/22/16 07:55:31  5-MIN KART 221255Z AUTO 22004KT 10SM CLR 16/13 A2981 430 83 700 230/04 RMK AO2 RAE01 SLP092 P0000 T01610133
94790KART ART20160622080010706/22/16 08:00:31  5-MIN KART 221300Z AUTO VRB06KT 10SM CLR 17/13 A2981 430 80 800 VRB/06 RMK AO2 T01670133
94790KART ART20160622080510706/22/16 08:05:31  5-MIN KART 221305Z AUTO 21006KT 10SM CLR 16/13 A2981 430 83 700 220/06 RMK AO2 T01610133
94790KART ART20160622081010706/22/16 08:10:31  5-MIN KART 221310Z AUTO 23009KT 10SM CLR 17/13 A2981 430 80 800 240/09 RMK AO2 T01670133
94790KART ART20160622081510706/22/16 08:15:31  5-MIN KART 221315Z AUTO 23009KT 10SM CLR 17/13 A2981 430 77 800 240/09 RMK AO2 T01670128
94790KART ART20160622082010706/22/16 08:20:31  5-MIN KART 221320Z AUTO 24007KT 10SM CLR 17/13 A2981 430 75 800 250/07 RMK AO2 T01720128
94790KART ART20160622082510706/22/16 08:25:31  5-MIN KART 221325Z AUTO 24008KT 10SM CLR 17/13 A2981 430 78 800 250/08 RMK AO2 T01720133
94790KART ART20160622083011006/22/16 08:30:31  5-MIN KART 221330Z AUTO 23008KT 10SM FEW023 18/13 A2981 430 75 900 250/08 RMK AO2 T01780133
94790KART ART20160622083511006/22/16 08:35:31  5-MIN KART 221335Z AUTO 24010KT 10SM FEW023 18/13 A2981 430 75 900 250/10 RMK AO2 T01780133
94790KART ART20160622084011606/22/16 08:40:31  5-MIN KART 221340Z AUTO 26011G18KT 10SM FEW025 18/13 A2981 430 72 900 270/11G18 RMK AO2 T01780128
94790KART ART20160622084511706/22/16 08:45:31  5-MIN KART 221345Z AUTO 24010G18KT 10SM SCT025 18/13 A2982 430 70 1000 250/10G18 RMK AO2 T01830128
94790KART ART20160622085011706/22/16 08:50:31  5-MIN KART 221350Z AUTO 24010KT 10SM SCT025 18/13 A2981 430 72 900 250/10 RMK AO2 SLP093 T01780128
94790KART ART20160622085511806/22/16 08:55:31  5-MIN KART 221355Z AUTO 25009KT 10SM SCT025 18/13 A2981 430 70 1000 260/09 RMK AO2 SLP093 T01830128
94790KART ART20160622090011706/22/16 09:00:31  5-MIN KART 221400Z AUTO 25010G17KT 10SM FEW025 18/13 A2982 420 70 1000 270/10G17 RMK AO2 T01830128
94790KART ART20160622090511006/22/16 09:05:31  5-MIN KART 221405Z AUTO 26014KT 10SM FEW027 18/12 A2982 420 65 900 270/14 RMK AO2 T01830117
94790KART ART20160622091011006/22/16 09:10:31  5-MIN KART 221410Z AUTO 25011KT 10SM FEW027 18/12 A2983 420 65 900 260/11 RMK AO2 T01830117
94790KART ART20160622091511006/22/16 09:15:31  5-MIN KART 221415Z AUTO 24011KT 10SM FEW026 18/12 A2983 420 67 900 250/11 RMK AO2 T01830122
94790KART ART20160622092011306/22/16 09:20:31  5-MIN KART 221420Z AUTO 25013G19KT 10SM CLR 18/12 A2982 420 67 900 270/13G19 RMK AO2 T01830122
94790KART ART20160622092511306/22/16 09:25:31  5-MIN KART 221425Z AUTO 25013G19KT 10SM CLR 18/12 A2983 410 67 900 260/13G19 RMK AO2 T01830122
94790KART ART20160622093011306/22/16 09:30:31  5-MIN KART 221430Z AUTO 24014G21KT 10SM CLR 18/12 A2984 410 67 900 250/14G21 RMK AO2 T01830122
94790KART ART20160622093511306/22/16 09:35:31  5-MIN KART 221435Z AUTO 24014G22KT 10SM CLR 18/13 A2984 410 70 900 250/14G22 RMK AO2 T01830128
94790KART ART20160622094011706/22/16 09:40:31  5-MIN KART 221440Z AUTO 24013G22KT 10SM FEW024 19/13 A2984 400 67 1000 250/13G22 RMK AO2 T01890128
94790KART ART20160622094511706/22/16 09:45:31  5-MIN KART 221445Z AUTO 26014G20KT 10SM FEW024 19/13 A2984 400 67 1000 270/14G20 RMK AO2 T01890128
94790KART ART20160622095013606/22/16 09:50:31  5-MIN KART 221450Z AUTO 26012G20KT 10SM FEW024 19/13 A2984 400 67 1000 270/12G20 RMK AO2 SLP102 60000 T01890128 51018
94790KART ART20160622095513606/22/16 09:55:31  5-MIN KART 221455Z AUTO 26018G23KT 10SM FEW024 19/12 A2985 400 65 1000 280/18G23 RMK AO2 SLP104 60000 T01890122 51018
94790KART ART20160622100011706/22/16 10:00:31  5-MIN KART 221500Z AUTO 25012G23KT 10SM FEW024 19/12 A2985 400 62 1000 260/12G23 RMK AO2 T01890117
94790KART ART20160622100511406/22/16 10:05:31  5-MIN KART 221505Z AUTO 26015G21KT 10SM CLR 19/12 A2985 390 62 1000 270/15G21 RMK AO2 T01890117
94790KART ART20160622101011706/22/16 10:10:31  5-MIN KART 221510Z AUTO 25010G21KT 10SM FEW033 19/12 A2985 390 60 1000 270/10G21 RMK AO2 T01940117
94790KART ART20160622101512406/22/16 10:15:31  5-MIN KART 221515Z AUTO 25012G19KT 10SM FEW033 FEW040 19/12 A2985 390 62 1000 260/12G19 RMK AO2 T01940122
94790KART ART20160622102011106/22/16 10:20:31  5-MIN KART 221520Z AUTO 25013KT 10SM FEW038 19/12 A2985 390 62 1000 270/13 RMK AO2 T01940122
94790KART ART20160622102511806/22/16 10:25:31  5-MIN KART 221525Z AUTO 24013KT 10SM FEW034 SCT042 20/12 A2985 390 60 1100 260/13 RMK AO2 T02000122
94790KART ART20160622103011706/22/16 10:30:31  5-MIN KART 221530Z AUTO 25014G19KT 10SM SCT036 20/12 A2985 390 58 1100 260/14G19 RMK AO2 T02000117
94790KART ART20160622103511706/22/16 10:35:31  5-MIN KART 221535Z AUTO 25013G25KT 10SM SCT036 19/11 A2986 390 60 1000 260/13G25 RMK AO2 T01890111
94790KART ART20160622104012406/22/16 10:40:31  5-MIN KART 221540Z AUTO 24013G25KT 10SM BKN036 BKN044 19/11 A2986 390 56 1000 260/13G25 RMK AO2 T01940106
94790KART ART20160622104512406/22/16 10:45:31  5-MIN KART 221545Z AUTO 25013G22KT 10SM SCT038 BKN044 20/11 A2986 390 56 1100 260/13G22 RMK AO2 T02000111
94790KART ART20160622105012406/22/16 10:50:31  5-MIN KART 221550Z AUTO 25012G23KT 10SM SCT036 20/11 A2986 390 56 1100 260/12G23 RMK AO2 SLP109 T02000111
94790KART ART20160622105512406/22/16 10:55:31  5-MIN KART 221555Z AUTO 24012G23KT 10SM SCT038 19/13 A2986 390 65 1000 250/12G23 RMK AO2 SLP109 T01940128
94790KART ART20160622110011706/22/16 11:00:31  5-MIN KART 221600Z AUTO 24013G22KT 10SM SCT038 20/13 A2986 390 63 1100 250/13G22 RMK AO2 T02000128
94790KART ART20160622110512406/22/16 11:05:31  5-MIN KART 221605Z AUTO 23018G22KT 10SM BKN040 BKN055 19/12 A2986 390 62 1000 240/18G22 RMK AO2 T01940122
94790KART ART20160622111011706/22/16 11:10:31  5-MIN KART 221610Z AUTO 23014G22KT 10SM BKN040 19/12 A2986 390 62 1000 240/14G22 RMK AO2 T01940122
94790KART ART20160622111512406/22/16 11:15:31  5-MIN KART 221615Z AUTO 23017G22KT 10SM BKN040 BKN055 19/12 A2986 390 62 1000 240/17G22 RMK AO2 T01940122
94790KART ART20160622112012406/22/16 11:20:31  5-MIN KART 221620Z AUTO 23012G22KT 10SM BKN038 BKN050 19/12 A2986 390 62 1000 250/12G22 RMK AO2 T01940122
94790KART ART20160622112512406/22/16 11:25:31  5-MIN KART 221625Z AUTO 25012G19KT 10SM BKN040 BKN050 20/13 A2986 390 63 1100 260/12G19 RMK AO2 T02000128
94790KART ART20160622113011706/22/16 11:30:31  5-MIN KART 221630Z AUTO 24010G19KT 10SM BKN040 20/12 A2986 390 60 1100 260/10G19 RMK AO2 T02000122
94790KART ART20160622113511706/22/16 11:35:31  5-MIN KART 221635Z AUTO 25011G19KT 10SM BKN040 20/12 A2986 390 60 1100 270/11G19 RMK AO2 T02000122
94790KART ART20160622114012406/22/16 11:40:31  5-MIN KART 221640Z AUTO 26014G21KT 10SM SCT037 BKN046 20/11 A2986 390 56 1100 270/14G21 RMK AO2 T02000111
94790KART ART20160622114511706/22/16 11:45:31  5-MIN KART 221645Z AUTO 25011G21KT 10SM SCT039 21/11 A2986 390 54 1200 260/11G21 RMK AO2 T02060111
94790KART ART20160622115012406/22/16 11:50:31  5-MIN KART 221650Z AUTO 26016G20KT 10SM FEW039 21/11 A2986 380 54 1200 270/16G20 RMK AO2 SLP108 T02060111
94790KART ART20160622115512406/22/16 11:55:31  5-MIN KART 221655Z AUTO 26015G20KT 10SM FEW039 21/11 A2986 390 54 1200 280/15G20 RMK AO2 SLP107 T02060111
94790KART ART20160622120011106/22/16 12:00:31  5-MIN KART 221700Z AUTO 25011KT 10SM SCT039 21/12 A2986 390 56 1200 260/11 RMK AO2 T02060117
94790KART ART20160622120511706/22/16 12:05:31  5-MIN KART 221705Z AUTO 27012G18KT 10SM FEW041 21/11 A2986 380 52 1200 280/12G18 RMK AO2 T02060106
94790KART ART20160622121011106/22/16 12:10:31  5-MIN KART 221710Z AUTO 27013KT 10SM FEW041 21/11 A2986 380 52 1200 280/13 RMK AO2 T02060106
94790KART ART20160622121511706/22/16 12:15:31  5-MIN KART 221715Z AUTO 27012G17KT 10SM FEW041 21/11 A2986 380 52 1200 280/12G17 RMK AO2 T02060106
94790KART ART20160622122011706/22/16 12:20:31  5-MIN KART 221720Z AUTO 26014G18KT 10SM FEW041 21/11 A2986 380 50 1200 270/14G18 RMK AO2 T02110106
94790KART ART20160622122512306/22/16 12:25:31  5-MIN KART 221725Z AUTO 28016G19KT 10SM FEW041 21/09 A2987 380 47 1200 300/16G19 RMK AO2 T02110094 PNO $
94790KART ART20160622123012006/22/16 12:30:31  5-MIN KART 221730Z AUTO 27012G21KT 10SM CLR 22/10 A2987 380 47 1300 280/12G21 RMK AO2 T02170100 PNO $
94790KART ART20160622123512006/22/16 12:35:31  5-MIN KART 221735Z AUTO 29014G21KT 10SM CLR 21/09 A2987 380 47 1200 300/14G21 RMK AO2 T02110094 PNO $
94790KART ART20160622124011406/22/16 12:40:31  5-MIN KART 221740Z AUTO 28017KT 10SM CLR 22/09 A2986 380 45 1300 290/17 RMK AO2 T02170094 PNO $
94790KART ART20160622124511406/22/16 12:45:31  5-MIN KART 221745Z AUTO 28013KT 10SM CLR 21/09 A2986 380 45 1200 290/13 RMK AO2 T02110089 PNO $
94790KART ART20160622125014506/22/16 12:50:31  5-MIN KART 221750Z AUTO 26011KT 10SM CLR 21/09 A2986 380 47 1200 280/11 RMK AO2 SLP109 6//// T02110094 10217 20133 53013 PNO $
94790KART ART20160622125515106/22/16 12:55:31  5-MIN KART 221755Z AUTO 27012G19KT 10SM CLR 21/09 A2987 380 47 1200 280/12G19 RMK AO2 SLP110 6//// T02110094 10217 20133 53013 PNO $
94790KART ART20160622130012006/22/16 13:00:31  5-MIN KART 221800Z AUTO 26015G19KT 10SM CLR 22/10 A2986 380 47 1300 280/15G19 RMK AO2 T02170100 PNO $
94790KART ART20160622130512006/22/16 13:05:31  5-MIN KART 221805Z AUTO 25011G18KT 10SM CLR 21/09 A2986 390 47 1200 260/11G18 RMK AO2 T02110094 PNO $
94790KART ART20160622131012006/22/16 13:10:31  5-MIN KART 221810Z AUTO 28013G19KT 10SM CLR 21/09 A2986 390 45 1200 300/13G19 RMK AO2 T02110089 PNO $
94790KART ART20160622131512006/22/16 13:15:31  5-MIN KART 221815Z AUTO 26012G19KT 10SM CLR 22/09 A2985 390 45 1300 270/12G19 RMK AO2 T02170094 PNO $
94790KART ART20160622132011406/22/16 13:20:31  5-MIN KART 221820Z AUTO 28011KT 10SM CLR 22/09 A2985 390 45 1300 300/11 RMK AO2 T02170094 PNO $
94790KART ART20160622132513406/22/16 13:25:31  5-MIN KART 221825Z AUTO 25009G15KT 220V290 10SM CLR 22/10 A2985 400 47 1300 260/09G15 230V300 RMK AO2 T02170100 PNO
94790KART ART20160622133012306/22/16 13:30:31  5-MIN KART 221830Z AUTO 28009G15KT 10SM FEW065 22/10 A2985 400 45 1400 290/09G15 RMK AO2 T02220100 PNO $
94790KART ART20160622133511706/22/16 13:35:31  5-MIN KART 221835Z AUTO 27010KT 10SM FEW065 22/10 A2985 390 47 1300 290/10 RMK AO2 T02170100 PNO $
94790KART ART20160622134011606/22/16 13:40:31  5-MIN KART 221840Z AUTO 28010KT 9SM FEW065 21/09 A2985 400 47 1200 290/10 RMK AO2 T02110094 PNO $
94790KART ART20160622134511706/22/16 13:45:31  5-MIN KART 221845Z AUTO 27008KT 10SM FEW065 22/09 A2985 400 45 1300 280/08 RMK AO2 T02170094 PNO $
94790KART ART20160622135012106/22/16 13:50:31  5-MIN KART 221850Z AUTO 23008KT 10SM CLR 21/09 A2985 400 47 1200 240/08 RMK AO2 SLP105 T02110094 PNO $
94790KART ART20160622135513006/22/16 13:55:31  5-MIN KART 221855Z AUTO 27012G17KT 10SM FEW065 21/10 A2985 400 48 1200 280/12G17 RMK AO2 SLP105 T02110100 PNO $
94790KART ART20160622140013006/22/16 14:00:31  5-MIN KART 221900Z AUTO 26007G17KT 10SM FEW050 SCT060 21/09 A2985 390 47 1200 270/07G17 RMK AO2 T02110094 PNO $
94790KART ART20160622140512406/22/16 14:05:31  5-MIN KART 221905Z AUTO 25007KT 10SM SCT050 BKN060 21/10 A2985 390 50 1200 270/07 RMK AO2 T02060100 PNO $
94790KART ART20160622141012406/22/16 14:10:31  5-MIN KART 221910Z AUTO 23006KT 10SM SCT050 SCT060 21/10 A2985 390 50 1200 250/06 RMK AO2 T02060100 PNO $
94790KART ART20160622141513006/22/16 14:15:31  5-MIN KART 221915Z AUTO 24010G15KT 10SM SCT050 BKN060 21/10 A2985 390 50 1200 250/10G15 RMK AO2 T02060100 PNO $
94790KART ART20160622142013006/22/16 14:20:31  5-MIN KART 221920Z AUTO 23014G20KT 10SM SCT050 BKN060 21/10 A2986 390 50 1200 250/14G20 RMK AO2 T02060100 PNO $
94790KART ART20160622142513006/22/16 14:25:31  5-MIN KART 221925Z AUTO 23014G20KT 10SM SCT050 BKN060 20/09 A2986 380 50 1100 240/14G20 RMK AO2 T02000094 PNO $
94790KART ART20160622143012306/22/16 14:30:31  5-MIN KART 221930Z AUTO 24012G19KT 10SM BKN055 21/11 A2986 380 50 1200 260/12G19 RMK AO2 T02110106 PNO $
94790KART ART20160622143513006/22/16 14:35:31  5-MIN KART 221935Z AUTO 24011G20KT 10SM SCT050 BKN060 21/11 A2987 380 52 1200 250/11G20 RMK AO2 T02060106 PNO $
94790KART ART20160622144012306/22/16 14:40:31  5-MIN KART 221940Z AUTO 24013G20KT 10SM BKN060 21/11 A2987 380 54 1200 260/13G20 RMK AO2 T02060111 PNO $
94790KART ART20160622144512306/22/16 14:45:31  5-MIN KART 221945Z AUTO 24010G19KT 10SM OVC060 21/11 A2987 380 52 1200 250/10G19 RMK AO2 T02060106 PNO $
94790KART ART20160622145012406/22/16 14:50:31  5-MIN KART 221950Z AUTO 24013KT 10SM OVC060 21/12 A2986 380 56 1200 250/13 RMK AO2 SLP109 T02060117 PNO $
94790KART ART20160622145513006/22/16 14:55:31  5-MIN KART 221955Z AUTO 22014G20KT 10SM BKN060 21/10 A2986 390 48 1200 240/14G20 RMK AO2 SLP109 T02110100 PNO $
94790KART ART20160622150012306/22/16 15:00:31  5-MIN KART 222000Z AUTO 23010G20KT 10SM SCT065 21/10 A2986 390 48 1200 240/10G20 RMK AO2 T02110100 PNO $
94790KART ART20160622150511706/22/16 15:05:31  5-MIN KART 222005Z AUTO 23014KT 10SM SCT060 21/10 A2986 390 50 1200 240/14 RMK AO2 T02060100 PNO $
94790KART ART20160622151012306/22/16 15:10:31  5-MIN KART 222010Z AUTO 24011G19KT 10SM FEW060 21/10 A2986 380 48 1200 250/11G19 RMK AO2 T02110100 PNO $
94790KART ART20160622151512306/22/16 15:15:31  5-MIN KART 222015Z AUTO 24011G19KT 10SM FEW060 21/10 A2986 380 50 1200 250/11G19 RMK AO2 T02060100 PNO $
94790KART ART20160622152012306/22/16 15:20:31  5-MIN KART 222020Z AUTO 23013G17KT 10SM FEW060 21/10 A2986 380 50 1200 240/13G17 RMK AO2 T02060100 PNO $
94790KART ART20160622152512306/22/16 15:25:31  5-MIN KART 222025Z AUTO 23012G17KT 10SM FEW060 21/10 A2986 380 48 1200 240/12G17 RMK AO2 T02110100 PNO $
94790KART ART20160622153012306/22/16 15:30:31  5-MIN KART 222030Z AUTO 24013G19KT 10SM FEW060 21/09 A2987 380 47 1200 250/13G19 RMK AO2 T02110094 PNO $
94790KART ART20160622153512306/22/16 15:35:31  5-MIN KART 222035Z AUTO 25010G19KT 10SM SCT065 22/10 A2987 380 47 1300 260/10G19 RMK AO2 T02170100 PNO $
94790KART ART20160622154011706/22/16 15:40:31  5-MIN KART 222040Z AUTO 24011KT 10SM BKN065 21/09 A2987 380 47 1200 260/11 RMK AO2 T02110094 PNO $
94790KART ART20160622154511706/22/16 15:45:31  5-MIN KART 222045Z AUTO 25009KT 10SM BKN065 21/09 A2987 380 47 1200 260/09 RMK AO2 T02110094 PNO $
94790KART ART20160622155013606/22/16 15:50:31  5-MIN KART 222050Z AUTO 24009KT 10SM SCT065 21/09 A2987 380 48 1200 260/09 RMK AO2 SLP112 6//// T02060094 51006 PNO $
94790KART ART20160622155513606/22/16 15:55:31  5-MIN KART 222055Z AUTO 24009KT 10SM BKN065 19/09 A2987 380 50 1000 260/09 RMK AO2 SLP112 6//// T01940089 51006 PNO $
94790KART ART20160622160011706/22/16 16:00:31  5-MIN KART 222100Z AUTO 24009KT 10SM BKN065 19/09 A2987 380 52 1000 250/09 RMK AO2 T01940094 PNO $
94790KART ART20160622160511706/22/16 16:05:31  5-MIN KART 222105Z AUTO 24008KT 10SM BKN065 19/10 A2987 380 54 1000 250/08 RMK AO2 T01940100 PNO $
94790KART ART20160622161011706/22/16 16:10:31  5-MIN KART 222110Z AUTO 23010KT 10SM BKN065 19/09 A2987 380 52 1000 240/10 RMK AO2 T01940094 PNO $
94790KART ART20160622161511706/22/16 16:15:31  5-MIN KART 222115Z AUTO 23009KT 10SM BKN060 20/10 A2987 380 52 1100 240/09 RMK AO2 T02000100 PNO $
94790KART ART20160622162011706/22/16 16:20:31  5-MIN KART 222120Z AUTO 22012KT 10SM OVC060 21/11 A2987 380 52 1200 230/12 RMK AO2 T02060106 PNO $
94790KART ART20160622162511706/22/16 16:25:31  5-MIN KART 222125Z AUTO 23013KT 10SM OVC060 21/10 A2987 380 50 1200 240/13 RMK AO2 T02060100 PNO $
94790KART ART20160622163011706/22/16 16:30:31  5-MIN KART 222130Z AUTO 24008KT 10SM OVC065 20/10 A2987 370 52 1100 250/08 RMK AO2 T02000100 PNO $
94790KART ART20160622163512406/22/16 16:35:31  5-MIN KART 222135Z AUTO 23010KT 10SM BKN060 OVC070 20/11 A2988 370 54 1100 250/10 RMK AO2 T02000106 PNO $
94790KART ART20160622164012406/22/16 16:40:31  5-MIN KART 222140Z AUTO 23011KT 10SM SCT060 OVC070 21/11 A2988 370 52 1100 240/11 RMK AO2 T02060106 PNO $
94790KART ART20160622164511706/22/16 16:45:31  5-MIN KART 222145Z AUTO 23009KT 10SM OVC070 21/11 A2988 370 54 1100 250/09 RMK AO2 T02060111 PNO $
94790KART ART20160622165013106/22/16 16:50:31  5-MIN KART 222150Z AUTO 24009KT 10SM FEW060 OVC070 20/11 A2988 370 56 1100 250/09 RMK AO2 SLP114 T02000111 PNO $
94790KART ART20160622165513006/22/16 16:55:31  5-MIN KART 222155Z AUTO 25011G18KT 10SM BKN070 20/11 A2988 370 56 1100 260/11G18 RMK AO2 SLP114 T02000111 PNO $
94790KART ART20160622170012306/22/16 17:00:31  5-MIN KART 222200Z AUTO 25010G18KT 10SM BKN070 19/11 A2988 370 58 1000 260/10G18 RMK AO2 T01940111 PNO $
94790KART ART20160622170512306/22/16 17:05:31  5-MIN KART 222205Z AUTO 24009G18KT 10SM BKN070 19/11 A2987 370 56 1000 260/09G18 RMK AO2 T01940106 PNO $
94790KART ART20160622171012306/22/16 17:10:31  5-MIN KART 222210Z AUTO 24010G18KT 10SM SCT070 19/11 A2987 370 58 1000 250/10G18 RMK AO2 T01940111 PNO $
94790KART ART20160622171511706/22/16 17:15:31  5-MIN KART 222215Z AUTO 24008KT 10SM FEW070 19/11 A2988 370 58 1000 250/08 RMK AO2 T01890106 PNO $
94790KART ART20160622172012306/22/16 17:20:31  5-MIN KART 222220Z AUTO 24011G17KT 10SM FEW070 20/11 A2988 370 54 1100 260/11G17 RMK AO2 T02000106 PNO $
94790KART ART20160622172511706/22/16 17:25:31  5-MIN KART 222225Z AUTO 24012KT 10SM SCT075 20/10 A2988 370 52 1100 250/12 RMK AO2 T02000100 PNO $
94790KART ART20160622173012306/22/16 17:30:31  5-MIN KART 222230Z AUTO 24009G18KT 10SM SCT075 19/10 A2988 370 54 1000 260/09G18 RMK AO2 T01940100 PNO $
94790KART ART20160622173512306/22/16 17:35:31  5-MIN KART 222235Z AUTO 25009G18KT 10SM FEW075 19/11 A2988 370 56 1000 260/09G18 RMK AO2 T01940106 PNO $
94790KART ART20160622174011706/22/16 17:40:31  5-MIN KART 222240Z AUTO 24009KT 10SM SCT075 19/11 A2988 370 56 1000 260/09 RMK AO2 T01940106 PNO $
94790KART ART20160622174511606/22/16 17:45:31  5-MIN KART 222245Z AUTO 23007KT 10SM SCT075 19/11 A2988 370 58 900 250/07 RMK AO2 T01890106 PNO $
94790KART ART20160622175012306/22/16 17:50:31  5-MIN KART 222250Z AUTO 24008KT 10SM FEW075 18/10 A2988 360 58 900 250/08 RMK AO2 SLP117 T01830100 PNO $
94790KART ART20160622175512306/22/16 17:55:31  5-MIN KART 222255Z AUTO 23007KT 10SM FEW075 18/10 A2988 360 58 900 240/07 RMK AO2 SLP117 T01830100 PNO $
94790KART ART20160622180011606/22/16 18:00:31  5-MIN KART 222300Z AUTO 23007KT 10SM FEW075 19/10 A2988 370 56 900 240/07 RMK AO2 T01890100 PNO $
94790KART ART20160622180511606/22/16 18:05:31  5-MIN KART 222305Z AUTO 22008KT 10SM FEW075 19/10 A2988 370 56 900 240/08 RMK AO2 T01890100 PNO $
94790KART ART20160622181011306/22/16 18:10:31  5-MIN KART 222310Z AUTO 23007KT 10SM CLR 19/10 A2988 360 56 900 240/07 RMK AO2 T01890100 PNO $
94790KART ART20160622181511306/22/16 18:15:31  5-MIN KART 222315Z AUTO 23008KT 10SM CLR 19/10 A2988 370 56 900 240/08 RMK AO2 T01890100 PNO $
94790KART ART20160622182011406/22/16 18:20:31  5-MIN KART 222320Z AUTO 22008KT 10SM CLR 19/10 A2988 370 56 1000 240/08 RMK AO2 T01890100 PNO $
94790KART ART20160622182511406/22/16 18:25:31  5-MIN KART 222325Z AUTO 23007KT 10SM CLR 19/10 A2988 370 54 1000 250/07 RMK AO2 T01940100 PNO $
94790KART ART20160622183011406/22/16 18:30:31  5-MIN KART 222330Z AUTO 22008KT 10SM CLR 19/10 A2988 370 56 1000 240/08 RMK AO2 T01890100 PNO $
94790KART ART20160622183511406/22/16 18:35:31  5-MIN KART 222335Z AUTO 23007KT 10SM CLR 19/09 A2988 370 54 1000 240/07 RMK AO2 T01890094 PNO $
94790KART ART20160622184011306/22/16 18:40:31  5-MIN KART 222340Z AUTO 23007KT 10SM CLR 19/09 A2988 370 54 900 240/07 RMK AO2 T01890094 PNO $
94790KART ART20160622184511306/22/16 18:45:31  5-MIN KART 222345Z AUTO 23006KT 10SM CLR 19/09 A2988 370 52 900 240/06 RMK AO2 T01890089 PNO $
94790KART ART20160622185014406/22/16 18:50:31  5-MIN KART 222350Z AUTO 23007KT 10SM CLR 18/09 A2988 360 56 900 240/07 RMK AO2 SLP117 6//// T01830094 10222 20183 53002 PNO $
94790KART ART20160622185514406/22/16 18:55:31  5-MIN KART 222355Z AUTO 22007KT 10SM CLR 18/09 A2989 360 58 800 240/07 RMK AO2 SLP119 6//// T01780094 10222 20178 53002 PNO $
94790KART ART20160622190011306/22/16 19:00:31  5-MIN KART 230000Z AUTO 23006KT 10SM CLR 17/09 A2989 360 60 700 240/06 RMK AO2 T01720094 PNO $
94790KART ART20160622190511306/22/16 19:05:31  5-MIN KART 230005Z AUTO 22006KT 10SM CLR 17/09 A2989 360 62 700 230/06 RMK AO2 T01670094 PNO $
94790KART ART20160622191011306/22/16 19:10:31  5-MIN KART 230010Z AUTO 22005KT 10SM CLR 17/09 A2989 360 60 700 230/05 RMK AO2 T01720094 PNO $
94790KART ART20160622191511306/22/16 19:15:31  5-MIN KART 230015Z AUTO 21005KT 10SM CLR 17/09 A2989 360 60 700 220/05 RMK AO2 T01670089 PNO $
94790KART ART20160622192011306/22/16 19:20:31  5-MIN KART 230020Z AUTO 20004KT 10SM CLR 17/09 A2989 360 57 700 210/04 RMK AO2 T01720089 PNO $
94790KART ART20160622192511306/22/16 19:25:31  5-MIN KART 230025Z AUTO 18003KT 10SM CLR 17/09 A2989 360 57 700 190/03 RMK AO2 T01720089 PNO $
94790KART ART20160622193011306/22/16 19:30:31  5-MIN KART 230030Z AUTO 18004KT 10SM CLR 17/09 A2989 360 57 700 190/04 RMK AO2 T01720089 PNO $
94790KART ART20160622193511306/22/16 19:35:31  5-MIN KART 230035Z AUTO 18003KT 10SM CLR 17/09 A2989 360 57 700 200/03 RMK AO2 T01720089 PNO $
94790KART ART20160622194011306/22/16 19:40:31  5-MIN KART 230040Z AUTO 18003KT 10SM CLR 17/09 A2989 360 62 700 190/03 RMK AO2 T01670094 PNO $
94790KART ART20160622194511306/22/16 19:45:31  5-MIN KART 230045Z AUTO 17003KT 10SM CLR 17/09 A2989 360 60 700 190/03 RMK AO2 T01670089 PNO $
94790KART ART20160622195012006/22/16 19:50:31  5-MIN KART 230050Z AUTO 17004KT 10SM CLR 17/09 A2989 360 60 700 180/04 RMK AO2 SLP119 T01670089 PNO $
94790KART ART20160622195512006/22/16 19:55:31  5-MIN KART 230055Z AUTO 17004KT 10SM CLR 17/09 A2989 360 60 700 180/04 RMK AO2 SLP119 T01670089 PNO $
94790KART ART20160622200011306/22/16 20:00:31  5-MIN KART 230100Z AUTO 16004KT 10SM CLR 16/09 A2989 360 62 600 170/04 RMK AO2 T01610089 PNO $
94790KART ART20160622200511306/22/16 20:05:31  5-MIN KART 230105Z AUTO 15003KT 10SM CLR 16/09 A2989 360 64 600 170/03 RMK AO2 T01610094 PNO $
94790KART ART20160622201011306/22/16 20:10:31  5-MIN KART 230110Z AUTO 16003KT 10SM CLR 16/09 A2990 350 67 500 170/03 RMK AO2 T01560094 PNO $
94790KART ART20160622201511306/22/16 20:15:31  5-MIN KART 230115Z AUTO 16004KT 10SM CLR 16/09 A2990 350 67 500 180/04 RMK AO2 T01560094 PNO $
94790KART ART20160622202011306/22/16 20:20:31  5-MIN KART 230120Z AUTO 16004KT 10SM CLR 16/09 A2989 350 67 500 170/04 RMK AO2 T01560094 PNO $
94790KART ART20160622202511306/22/16 20:25:31  5-MIN KART 230125Z AUTO 17004KT 10SM CLR 16/09 A2989 350 67 500 180/04 RMK AO2 T01560094 PNO $
94790KART ART20160622203011306/22/16 20:30:31  5-MIN KART 230130Z AUTO 17004KT 10SM CLR 15/09 A2990 350 69 500 180/04 RMK AO2 T01500094 PNO $
94790KART ART20160622203511306/22/16 20:35:31  5-MIN KART 230135Z AUTO 17004KT 10SM CLR 16/09 A2990 350 67 500 180/04 RMK AO2 T01560094 PNO $
94790KART ART20160622204011306/22/16 20:40:31  5-MIN KART 230140Z AUTO 18004KT 10SM CLR 16/09 A2990 350 67 500 190/04 RMK AO2 T01560094 PNO $
94790KART ART20160622204511306/22/16 20:45:31  5-MIN KART 230145Z AUTO 17003KT 10SM CLR 15/09 A2990 350 69 500 190/03 RMK AO2 T01500094 PNO $
94790KART ART20160622205012006/22/16 20:50:31  5-MIN KART 230150Z AUTO 18003KT 10SM CLR 15/10 A2991 340 72 500 200/03 RMK AO2 SLP124 T01500100 PNO $
94790KART ART20160622205512006/22/16 20:55:31  5-MIN KART 230155Z AUTO 18003KT 10SM CLR 15/10 A2990 350 72 500 190/03 RMK AO2 SLP123 T01500100 PNO $
94790KART ART20160622210011306/22/16 21:00:31  5-MIN KART 230200Z AUTO VRB03KT 10SM CLR 15/10 A2990 340 72 500 VRB/03 RMK AO2 T01500100 PNO $
94790KART ART20160622210511306/22/16 21:05:31  5-MIN KART 230205Z AUTO 00000KT 10SM CLR 15/10 A2990 350 72 500 000/00 RMK AO2 T01500100 PNO $
94790KART ART20160622211011306/22/16 21:10:31  5-MIN KART 230210Z AUTO 00000KT 10SM CLR 14/10 A2990 340 74 400 000/00 RMK AO2 T01440100 PNO $
94790KART ART20160622211511306/22/16 21:15:31  5-MIN KART 230215Z AUTO 00000KT 10SM CLR 14/10 A2991 340 74 400 000/00 RMK AO2 T01440100 PNO $
94790KART ART20160622212011306/22/16 21:20:31  5-MIN KART 230220Z AUTO 00000KT 10SM CLR 14/10 A2991 340 77 300 000/00 RMK AO2 T01390100 PNO $
94790KART ART20160622212511306/22/16 21:25:31  5-MIN KART 230225Z AUTO 00000KT 10SM CLR 13/10 A2991 340 80 300 000/00 RMK AO2 T01330100 PNO $
94790KART ART20160622213011306/22/16 21:30:31  5-MIN KART 230230Z AUTO 00000KT 10SM CLR 13/10 A2991 340 80 300 000/00 RMK AO2 T01330100 PNO $
94790KART ART20160622213511306/22/16 21:35:31  5-MIN KART 230235Z AUTO 00000KT 10SM CLR 13/09 A2991 340 80 200 000/00 RMK AO2 T01280094 PNO $
94790KART ART20160622214011306/22/16 21:40:31  5-MIN KART 230240Z AUTO 00000KT 10SM CLR 13/09 A2990 340 77 300 000/00 RMK AO2 T01330094 PNO $
94790KART ART20160622214511306/22/16 21:45:31  5-MIN KART 230245Z AUTO 00000KT 10SM CLR 13/09 A2990 350 77 300 000/00 RMK AO2 T01330094 PNO $
94790KART ART20160622215013206/22/16 21:50:31  5-MIN KART 230250Z AUTO 18003KT 10SM CLR 14/09 A2990 350 74 300 190/03 RMK AO2 SLP123 6//// T01390094 52006 PNO $
94790KART ART20160622215513206/22/16 21:55:31  5-MIN KART 230255Z AUTO 18003KT 10SM CLR 13/10 A2990 350 80 300 190/03 RMK AO2 SLP123 6//// T01330100 52006 PNO $
94790KART ART20160622220011306/22/16 22:00:31  5-MIN KART 230300Z AUTO 17003KT 10SM CLR 13/10 A2990 350 80 300 180/03 RMK AO2 T01330100 PNO $
94790KART ART20160622220511306/22/16 22:05:31  5-MIN KART 230305Z AUTO 17004KT 10SM CLR 13/09 A2990 350 77 300 180/04 RMK AO2 T01330094 PNO $
94790KART ART20160622221011306/22/16 22:10:31  5-MIN KART 230310Z AUTO VRB03KT 10SM CLR 13/09 A2990 350 77 300 VRB/03 RMK AO2 T01330094 PNO $
94790KART ART20160622221511306/22/16 22:15:31  5-MIN KART 230315Z AUTO 17004KT 10SM CLR 14/09 A2990 350 74 300 190/04 RMK AO2 T01390094 PNO $
94790KART ART20160622222011306/22/16 22:20:31  5-MIN KART 230320Z AUTO 18003KT 10SM CLR 13/09 A2989 350 77 300 200/03 RMK AO2 T01330094 PNO $
94790KART ART20160622222511306/22/16 22:25:31  5-MIN KART 230325Z AUTO 18003KT 10SM CLR 13/09 A2989 360 77 300 190/03 RMK AO2 T01330094 PNO $
94790KART ART20160622223011306/22/16 22:30:31  5-MIN KART 230330Z AUTO 18004KT 10SM CLR 13/09 A2989 360 77 300 190/04 RMK AO2 T01330094 PNO $
94790KART ART20160622223511306/22/16 22:35:31  5-MIN KART 230335Z AUTO 17003KT 10SM CLR 13/09 A2989 360 77 300 190/03 RMK AO2 T01330094 PNO $
94790KART ART20160622224011306/22/16 22:40:31  5-MIN KART 230340Z AUTO 18004KT 10SM CLR 13/09 A2989 360 77 300 190/04 RMK AO2 T01330094 PNO $
94790KART ART20160622224511306/22/16 22:45:31  5-MIN KART 230345Z AUTO 18003KT 10SM CLR 13/09 A2989 360 77 300 190/03 RMK AO2 T01330094 PNO $
94790KART ART20160622225012006/22/16 22:50:31  5-MIN KART 230350Z AUTO 18003KT 10SM CLR 14/09 A2989 360 74 300 200/03 RMK AO2 SLP119 T01390094 PNO $
94790KART ART20160622225512006/22/16 22:55:31  5-MIN KART 230355Z AUTO 17003KT 10SM CLR 14/09 A2989 360 74 400 180/03 RMK AO2 SLP118 T01390094 PNO $
94790KART ART20160622230011306/22/16 23:00:31  5-MIN KART 230400Z AUTO 16004KT 10SM CLR 14/09 A2988 360 71 400 180/04 RMK AO2 T01390089 PNO $
94790KART ART20160622230511306/22/16 23:05:31  5-MIN KART 230405Z AUTO 16004KT 10SM CLR 13/09 A2988 370 74 300 180/04 RMK AO2 T01330089 PNO $
94790KART ART20160622231011306/22/16 23:10:31  5-MIN KART 230410Z AUTO 17004KT 10SM CLR 13/09 A2988 370 74 300 180/04 RMK AO2 T01330089 PNO $
94790KART ART20160622231511306/22/16 23:15:31  5-MIN KART 230415Z AUTO 17004KT 10SM CLR 13/09 A2988 370 74 300 190/04 RMK AO2 T01330089 PNO $
94790KART ART20160622232011306/22/16 23:20:31  5-MIN KART 230420Z AUTO 17004KT 10SM CLR 13/09 A2988 370 74 300 180/04 RMK AO2 T01330089 PNO $
94790KART ART20160622232511306/22/16 23:25:31  5-MIN KART 230425Z AUTO 17004KT 10SM CLR 13/09 A2988 370 74 300 180/04 RMK AO2 T01330089 PNO $
94790KART ART20160622233011306/22/16 23:30:31  5-MIN KART 230430Z AUTO 18004KT 10SM CLR 13/09 A2988 370 77 200 190/04 RMK AO2 T01280089 PNO $
94790KART ART20160622233511306/22/16 23:35:31  5-MIN KART 230435Z AUTO 18004KT 10SM CLR 13/09 A2988 370 74 300 200/04 RMK AO2 T01330089 PNO $
94790KART ART20160622234011306/22/16 23:40:31  5-MIN KART 230440Z AUTO 19003KT 10SM CLR 13/09 A2988 370 74 300 200/03 RMK AO2 T01330089 PNO $
94790KART ART20160622234511306/22/16 23:45:31  5-MIN KART 230445Z AUTO 19004KT 10SM CLR 13/08 A2988 370 74 200 200/04 RMK AO2 T01280083 PNO $
94790KART ART20160622235013006/22/16 23:50:31  5-MIN KART 230450Z AUTO 19003KT 10SM CLR 13/08 A2988 370 74 200 200/03 RMK AO2 SLP115 T01280083 402220122 PNO $
94790KART ART20160622235513006/22/16 23:55:31  5-MIN KART 230455Z AUTO 18003KT 10SM CLR 13/08 A2988 370 74 200 190/03 RMK AO2 SLP115 T01280083 402220122 PNO $
94790KART ART20160623000011306/23/16 00:00:31  5-MIN KART 230500Z AUTO 19004KT 10SM CLR 13/08 A2988 370 74 200 200/04 RMK AO2 T01280083 PNO $
94790KART ART20160623000511306/23/16 00:05:31  5-MIN KART 230505Z AUTO 19003KT 10SM CLR 13/08 A2988 370 74 200 200/03 RMK AO2 T01280083 PNO $
94790KART ART20160623001011306/23/16 00:10:31  5-MIN KART 230510Z AUTO 00000KT 10SM CLR 13/08 A2988 370 74 200 000/00 RMK AO2 T01280083 PNO $
94790KART ART20160623001511306/23/16 00:15:31  5-MIN KART 230515Z AUTO 00000KT 10SM CLR 13/08 A2988 370 74 200 000/00 RMK AO2 T01280083 PNO $
94790KART ART20160623002011306/23/16 00:20:31  5-MIN KART 230520Z AUTO 00000KT 10SM CLR 12/08 A2988 370 77 200 000/00 RMK AO2 T01220083 PNO $
94790KART ART20160623002511306/23/16 00:25:31  5-MIN KART 230525Z AUTO 00000KT 10SM CLR 13/08 A2988 370 71 200 000/00 RMK AO2 T01280078 PNO $
94790KART ART20160623003011306/23/16 00:30:31  5-MIN KART 230530Z AUTO 22003KT 10SM CLR 12/08 A2988 370 74 200 230/03 RMK AO2 T01220078 PNO $
94790KART ART20160623003511306/23/16 00:35:31  5-MIN KART 230535Z AUTO 22003KT 10SM CLR 12/08 A2988 370 74 200 230/03 RMK AO2 T01220078 PNO $
94790KART ART20160623004011306/23/16 00:40:31  5-MIN KART 230540Z AUTO 00000KT 10SM CLR 12/08 A2988 370 74 200 000/00 RMK AO2 T01220078 PNO $
94790KART ART20160623004511306/23/16 00:45:31  5-MIN KART 230545Z AUTO 22004KT 10SM CLR 12/08 A2988 370 74 200 230/04 RMK AO2 T01220078 PNO $
94790KART ART20160623005014406/23/16 00:50:31  5-MIN KART 230550Z AUTO 21003KT 10SM CLR 12/08 A2988 370 74 200 230/03 RMK AO2 SLP115 6//// T01220078 10178 20122 50004 PNO $
94790KART ART20160623005514406/23/16 00:55:31  5-MIN KART 230555Z AUTO 21003KT 10SM CLR 12/08 A2988 370 77 100 220/03 RMK AO2 SLP115 6//// T01170078 10178 20117 50004 PNO $
94790KART ART20160623010011306/23/16 01:00:31  5-MIN KART 230600Z AUTO 00000KT 10SM CLR 12/08 A2988 370 77 100 000/00 RMK AO2 T01170078 PNO $
94790KART ART20160623010511306/23/16 01:05:31  5-MIN KART 230605Z AUTO 19003KT 10SM CLR 12/08 A2988 370 77 100 210/03 RMK AO2 T01170078 PNO $
94790KART ART20160623011011306/23/16 01:10:31  5-MIN KART 230610Z AUTO 00000KT 10SM CLR 12/08 A2988 370 74 200 000/00 RMK AO2 T01220078 PNO $
94790KART ART20160623011511306/23/16 01:15:31  5-MIN KART 230615Z AUTO 00000KT 10SM CLR 12/08 A2988 360 74 200 000/00 RMK AO2 T01220078 PNO $
94790KART ART20160623012011306/23/16 01:20:31  5-MIN KART 230620Z AUTO 00000KT 10SM CLR 12/08 A2989 360 74 200 000/00 RMK AO2 T01220078 PNO $
94790KART ART20160623012511306/23/16 01:25:31  5-MIN KART 230625Z AUTO 00000KT 10SM CLR 12/07 A2989 360 74 100 000/00 RMK AO2 T01170072 PNO $
94790KART ART20160623013011306/23/16 01:30:31  5-MIN KART 230630Z AUTO 20003KT 10SM CLR 12/08 A2989 360 77 100 210/03 RMK AO2 T01170078 PNO $
94790KART ART20160623013511306/23/16 01:35:31  5-MIN KART 230635Z AUTO 00000KT 10SM CLR 12/08 A2988 360 77 100 000/00 RMK AO2 T01170078 PNO $
94790KART ART20160623014011306/23/16 01:40:31  5-MIN KART 230640Z AUTO 00000KT 10SM CLR 12/08 A2989 360 77 100 000/00 RMK AO2 T01170078 PNO $
94790KART ART20160623014511306/23/16 01:45:31  5-MIN KART 230645Z AUTO 00000KT 10SM CLR 12/07 A2989 360 74 100 000/00 RMK AO2 T01170072 PNO $
94790KART ART20160623015011806/23/16 01:50:31  5-MIN KART 230650Z AUTO 00000KT 10SM CLR 11/07 A2989 360 77 0 000/00 RMK AO2 SLP119 T01110072 PNO $
94790KART ART20160623015512006/23/16 01:55:31  5-MIN KART 230655Z AUTO 00000KT 10SM CLR 12/08 A2989 360 77 100 000/00 RMK AO2 SLP119 T01170078 PNO $
94790KART ART20160623020011306/23/16 02:00:31  5-MIN KART 230700Z AUTO 00000KT 10SM CLR 12/08 A2989 360 77 100 000/00 RMK AO2 T01170078 PNO $
94790KART ART20160623020511106/23/16 02:05:31  5-MIN KART 230705Z AUTO 00000KT 10SM CLR 11/07 A2989 360 77 0 000/00 RMK AO2 T01110072 PNO $
94790KART ART20160623021011306/23/16 02:10:31  5-MIN KART 230710Z AUTO 00000KT 10SM CLR 12/07 A2989 360 74 100 000/00 RMK AO2 T01170072 PNO $
94790KART ART20160623021511106/23/16 02:15:31  5-MIN KART 230715Z AUTO 00000KT 10SM CLR 11/07 A2989 360 80 0 000/00 RMK AO2 T01060072 PNO $
94790KART ART20160623022011106/23/16 02:20:31  5-MIN KART 230720Z AUTO 20003KT 10SM CLR 11/07 A2989 360 80 0 210/03 RMK AO2 T01060072 PNO $
94790KART ART20160623022511106/23/16 02:25:31  5-MIN KART 230725Z AUTO 00000KT 10SM CLR 11/08 A2989 360 80 0 000/00 RMK AO2 T01110078 PNO $
94790KART ART20160623023011106/23/16 02:30:31  5-MIN KART 230730Z AUTO 00000KT 10SM CLR 11/07 A2989 360 80 0 000/00 RMK AO2 T01060072 PNO $
94790KART ART20160623023511406/23/16 02:35:31  5-MIN KART 230735Z AUTO 00000KT 10SM CLR 09/07 A2989 360 86 -100 000/00 RMK AO2 T00940072 PNO $
94790KART ART20160623024011106/23/16 02:40:31  5-MIN KART 230740Z AUTO 00000KT 10SM CLR 11/07 A2989 360 77 0 000/00 RMK AO2 T01110072 PNO $
94790KART ART20160623024511406/23/16 02:45:31  5-MIN KART 230745Z AUTO 00000KT 10SM CLR 09/07 A2989 360 83 -100 000/00 RMK AO2 T00940067 PNO $
94790KART ART20160623025012106/23/16 02:50:31  5-MIN KART 230750Z AUTO 00000KT 10SM CLR 09/07 A2988 360 86 -200 000/00 RMK AO2 SLP118 T00890067 PNO $
94790KART ART20160623025512106/23/16 02:55:31  5-MIN KART 230755Z AUTO 00000KT 10SM CLR 09/07 A2988 370 83 -100 000/00 RMK AO2 SLP117 T00940067 PNO $
94790KART ART20160623030011406/23/16 03:00:31  5-MIN KART 230800Z AUTO 00000KT 10SM CLR 10/07 A2988 370 80 -100 000/00 RMK AO2 T01000067 PNO $
94790KART ART20160623030511406/23/16 03:05:31  5-MIN KART 230805Z AUTO 00000KT 10SM CLR 09/07 A2987 370 83 -100 000/00 RMK AO2 T00940067 PNO $
94790KART ART20160623031011406/23/16 03:10:31  5-MIN KART 230810Z AUTO 00000KT 10SM CLR 09/07 A2987 370 86 -100 000/00 RMK AO2 T00940072 PNO $
94790KART ART20160623031511406/23/16 03:15:31  5-MIN KART 230815Z AUTO 00000KT 10SM CLR 09/07 A2987 380 86 -200 000/00 RMK AO2 T00890067 PNO $
94790KART ART20160623032011406/23/16 03:20:31  5-MIN KART 230820Z AUTO 00000KT 10SM CLR 09/07 A2987 380 83 -100 000/00 RMK AO2 T00940067 PNO $
94790KART ART20160623032511406/23/16 03:25:31  5-MIN KART 230825Z AUTO 00000KT 10SM CLR 09/07 A2987 370 86 -200 000/00 RMK AO2 T00890067 PNO $
94790KART ART20160623033011406/23/16 03:30:31  5-MIN KART 230830Z AUTO 17003KT 10SM CLR 09/07 A2988 370 89 -200 190/03 RMK AO2 T00890072 PNO $
94790KART ART20160623033511106/23/16 03:35:31  5-MIN KART 230835Z AUTO 16003KT 10SM CLR 10/07 A2988 370 83 0 170/03 RMK AO2 T01000072 PNO $
94790KART ART20160623034011406/23/16 03:40:31  5-MIN KART 230840Z AUTO 00000KT 10SM CLR 09/07 A2987 370 86 -200 000/00 RMK AO2 T00890067 PNO $
94790KART ART20160623034511406/23/16 03:45:31  5-MIN KART 230845Z AUTO 00000KT 10SM CLR 08/06 A2987 370 89 -300 000/00 RMK AO2 T00780061 PNO $
94790KART ART20160623035013306/23/16 03:50:31  5-MIN KART 230850Z AUTO 00000KT 10SM CLR 08/06 A2988 370 89 -300 000/00 RMK AO2 SLP115 6//// T00780061 55007 PNO $
94790KART ART20160623035513306/23/16 03:55:31  5-MIN KART 230855Z AUTO 00000KT 10SM CLR 08/07 A2987 380 89 -200 000/00 RMK AO2 SLP114 6//// T00830067 55007 PNO $
94790KART ART20160623040011406/23/16 04:00:31  5-MIN KART 230900Z AUTO 00000KT 10SM CLR 08/07 A2987 370 89 -200 000/00 RMK AO2 T00830067 PNO $
94790KART ART20160623040511406/23/16 04:05:31  5-MIN KART 230905Z AUTO 00000KT 10SM CLR 08/07 A2988 370 89 -200 000/00 RMK AO2 T00830067 PNO $
94790KART ART20160623041011406/23/16 04:10:31  5-MIN KART 230910Z AUTO 00000KT 10SM CLR 08/06 A2988 370 89 -300 000/00 RMK AO2 T00780061 PNO $
94790KART ART20160623041511406/23/16 04:15:31  5-MIN KART 230915Z AUTO 00000KT 10SM CLR 08/07 A2987 370 89 -200 000/00 RMK AO2 T00830067 PNO $
94790KART ART20160623042011406/23/16 04:20:31  5-MIN KART 230920Z AUTO 00000KT 10SM CLR 08/07 A2988 370 89 -300 000/00 RMK AO2 T00830067 PNO $
94790KART ART20160623042511406/23/16 04:25:31  5-MIN KART 230925Z AUTO 00000KT 10SM CLR 08/07 A2988 370 93 -300 000/00 RMK AO2 T00780067 PNO $
94790KART ART20160623043011406/23/16 04:30:31  5-MIN KART 230930Z AUTO 00000KT 10SM CLR 07/06 A2987 370 93 -400 000/00 RMK AO2 T00720061 PNO $
94790KART ART20160623043511406/23/16 04:35:31  5-MIN KART 230935Z AUTO 00000KT 10SM CLR 08/07 A2987 370 93 -300 000/00 RMK AO2 T00780067 PNO $
94790KART ART20160623044011406/23/16 04:40:31  5-MIN KART 230940Z AUTO 00000KT 10SM CLR 08/07 A2987 370 93 -300 000/00 RMK AO2 T00780067 PNO $
94790KART ART20160623044511406/23/16 04:45:31  5-MIN KART 230945Z AUTO 00000KT 10SM CLR 08/07 A2988 370 93 -300 000/00 RMK AO2 T00780067 PNO $
94790KART ART20160623045012106/23/16 04:50:31  5-MIN KART 230950Z AUTO 00000KT 10SM CLR 08/07 A2988 370 89 -200 000/00 RMK AO2 SLP115 T00830067 PNO $
94790KART ART20160623045512106/23/16 04:55:31  5-MIN KART 230955Z AUTO 00000KT 10SM CLR 08/07 A2988 370 93 -300 000/00 RMK AO2 SLP115 T00830072 PNO $
94790KART ART20160623050011406/23/16 05:00:31  5-MIN KART 231000Z AUTO 17004KT 10SM CLR 09/07 A2987 370 89 -200 180/04 RMK AO2 T00890072 PNO $
94790KART ART20160625111010806/25/16 11:10:31  5-MIN KART 251610Z AUTO VRB03KT 10SM CLR 27/12 A3017 100 40 1500 VRB/03 RMK AO2 T02670122
94790KART ART20160625111510806/25/16 11:15:31  5-MIN KART 251615Z AUTO VRB03KT 10SM CLR 27/13 A3017 100 40 1600 VRB/03 RMK AO2 T02720128
94790KART ART20160625112010806/25/16 11:20:31  5-MIN KART 251620Z AUTO 33003KT 10SM CLR 27/12 A3017 100 39 1600 350/03 RMK AO2 T02720122
94790KART ART20160625112510806/25/16 11:25:31  5-MIN KART 251625Z AUTO 30005KT 10SM CLR 27/12 A3017 100 38 1500 310/05 RMK AO2 T02670117
94790KART ART20160625113010806/25/16 11:30:31  5-MIN KART 251630Z AUTO 31003KT 10SM CLR 27/11 A3017 100 37 1500 320/03 RMK AO2 T02670111
94790KART ART20160625113510806/25/16 11:35:31  5-MIN KART 251635Z AUTO 00000KT 10SM CLR 27/12 A3017 100 38 1500 000/00 RMK AO2 T02670117
94790KART ART20160625114010806/25/16 11:40:31  5-MIN KART 251640Z AUTO 27006KT 10SM CLR 27/12 A3017 100 39 1600 280/06 RMK AO2 T02720122
94790KART ART20160625114510806/25/16 11:45:31  5-MIN KART 251645Z AUTO 25005KT 10SM CLR 27/12 A3017 100 37 1600 260/05 RMK AO2 T02720117
94790KART ART20160625115011506/25/16 11:50:31  5-MIN KART 251650Z AUTO 23006KT 10SM CLR 27/12 A3016 100 39 1600 250/06 RMK AO2 SLP211 T02720122
94790KART ART20160625115511506/25/16 11:55:31  5-MIN KART 251655Z AUTO 26006KT 10SM CLR 27/13 A3016 110 40 1600 270/06 RMK AO2 SLP210 T02720128
94790KART ART20160625120010806/25/16 12:00:31  5-MIN KART 251700Z AUTO 24006KT 10SM CLR 27/12 A3016 110 39 1600 250/06 RMK AO2 T02720122
94790KART ART20160625120510806/25/16 12:05:31  5-MIN KART 251705Z AUTO 26007KT 10SM CLR 27/13 A3015 120 40 1600 270/07 RMK AO2 T02720128
94790KART ART20160625121010806/25/16 12:10:31  5-MIN KART 251710Z AUTO 25007KT 10SM CLR 27/12 A3015 120 39 1600 270/07 RMK AO2 T02720122
94790KART ART20160625121510806/25/16 12:15:31  5-MIN KART 251715Z AUTO 25007KT 10SM CLR 27/12 A3015 120 39 1600 270/07 RMK AO2 T02720122
94790KART ART20160625122010806/25/16 12:20:31  5-MIN KART 251720Z AUTO 24007KT 10SM CLR 28/13 A3015 120 39 1700 260/07 RMK AO2 T02780128
94790KART ART20160625122510806/25/16 12:25:31  5-MIN KART 251725Z AUTO 25007KT 10SM CLR 28/12 A3015 120 37 1700 270/07 RMK AO2 T02780122
94790KART ART20160625123010806/25/16 12:30:31  5-MIN KART 251730Z AUTO 28007KT 10SM CLR 28/12 A3015 120 37 1700 290/07 RMK AO2 T02780122
94790KART ART20160625123510806/25/16 12:35:31  5-MIN KART 251735Z AUTO 28006KT 10SM CLR 28/12 A3015 120 37 1700 290/06 RMK AO2 T02780122
94790KART ART20160625124010806/25/16 12:40:31  5-MIN KART 251740Z AUTO 25005KT 10SM CLR 28/12 A3015 120 36 1700 260/05 RMK AO2 T02780117
94790KART ART20160625124510806/25/16 12:45:31  5-MIN KART 251745Z AUTO 23005KT 10SM CLR 28/12 A3015 120 37 1700 250/05 RMK AO2 T02780122
94790KART ART20160625125013306/25/16 12:50:31  5-MIN KART 251750Z AUTO 28008KT 10SM CLR 28/12 A3015 120 36 1700 290/08 RMK AO2 SLP207 T02780117 10278 20183 51006
94790KART ART20160625125513306/25/16 12:55:31  5-MIN KART 251755Z AUTO 27009KT 10SM CLR 28/12 A3015 120 36 1700 290/09 RMK AO2 SLP207 T02780117 10278 20183 51006
94790KART ART20160625130010806/25/16 13:00:31  5-MIN KART 251800Z AUTO 26009KT 10SM CLR 28/12 A3015 110 36 1700 270/09 RMK AO2 T02780117
94790KART ART20160625130510806/25/16 13:05:31  5-MIN KART 251805Z AUTO 27008KT 10SM CLR 28/11 A3016 110 33 1600 280/08 RMK AO2 T02780106
94790KART ART20160625131010806/25/16 13:10:31  5-MIN KART 251810Z AUTO 25008KT 10SM CLR 28/11 A3016 110 32 1700 270/08 RMK AO2 T02830106
94790KART ART20160625131510806/25/16 13:15:31  5-MIN KART 251815Z AUTO 27008KT 10SM CLR 28/09 A3015 120 31 1700 280/08 RMK AO2 T02780094
94790KART ART20160625132010806/25/16 13:20:31  5-MIN KART 251820Z AUTO 26008KT 10SM CLR 28/10 A3015 120 32 1700 270/08 RMK AO2 T02780100
94790KART ART20160625132510806/25/16 13:25:31  5-MIN KART 251825Z AUTO 26007KT 10SM CLR 28/11 A3015 120 32 1700 270/07 RMK AO2 T02830106
94790KART ART20160625133010806/25/16 13:30:31  5-MIN KART 251830Z AUTO 26008KT 10SM CLR 28/11 A3015 120 32 1700 270/08 RMK AO2 T02830106
94790KART ART20160625133510806/25/16 13:35:31  5-MIN KART 251835Z AUTO 25008KT 10SM CLR 28/10 A3015 120 32 1700 270/08 RMK AO2 T02780100
94790KART ART20160625134010806/25/16 13:40:31  5-MIN KART 251840Z AUTO 27008KT 10SM CLR 28/10 A3015 120 32 1700 280/08 RMK AO2 T02780100
94790KART ART20160625134510806/25/16 13:45:31  5-MIN KART 251845Z AUTO 26009KT 10SM CLR 28/10 A3015 120 32 1700 270/09 RMK AO2 T02780100
94790KART ART20160625135011506/25/16 13:50:31  5-MIN KART 251850Z AUTO 26009KT 10SM CLR 28/09 A3015 120 31 1700 270/09 RMK AO2 SLP207 T02780094
94790KART ART20160625135511506/25/16 13:55:31  5-MIN KART 251855Z AUTO 25007KT 10SM CLR 28/09 A3015 120 31 1700 270/07 RMK AO2 SLP206 T02780094
94790KART ART20160625140010806/25/16 14:00:31  5-MIN KART 251900Z AUTO 26008KT 10SM CLR 28/10 A3015 120 31 1700 270/08 RMK AO2 T02830100
94790KART ART20160625140510806/25/16 14:05:31  5-MIN KART 251905Z AUTO 27009KT 10SM CLR 28/10 A3015 120 31 1700 280/09 RMK AO2 T02830100
94790KART ART20160625141010806/25/16 14:10:31  5-MIN KART 251910Z AUTO 25008KT 10SM CLR 28/10 A3015 120 31 1700 270/08 RMK AO2 T02830100
94790KART ART20160625141510806/25/16 14:15:31  5-MIN KART 251915Z AUTO 26008KT 10SM CLR 28/09 A3015 110 30 1700 270/08 RMK AO2 T02780089
94790KART ART20160625142010806/25/16 14:20:31  5-MIN KART 251920Z AUTO 27008KT 10SM CLR 28/10 A3016 110 32 1700 280/08 RMK AO2 T02780100
94790KART ART20160625142510806/25/16 14:25:31  5-MIN KART 251925Z AUTO 26008KT 10SM CLR 28/09 A3016 110 31 1600 270/08 RMK AO2 T02780094
94790KART ART20160625143010806/25/16 14:30:31  5-MIN KART 251930Z AUTO 27009KT 10SM CLR 28/09 A3016 110 31 1600 280/09 RMK AO2 T02780094
94790KART ART20160625143510806/25/16 14:35:31  5-MIN KART 251935Z AUTO 26007KT 10SM CLR 28/10 A3016 110 32 1600 280/07 RMK AO2 T02780100
94790KART ART20160625144010806/25/16 14:40:31  5-MIN KART 251940Z AUTO 26007KT 10SM CLR 28/10 A3016 110 32 1700 270/07 RMK AO2 T02780100
94790KART ART20160625144510806/25/16 14:45:31  5-MIN KART 251945Z AUTO 25008KT 10SM CLR 28/10 A3016 110 32 1700 270/08 RMK AO2 T02780100
94790KART ART20160625145011506/25/16 14:50:31  5-MIN KART 251950Z AUTO 26007KT 10SM CLR 27/10 A3015 120 33 1600 270/07 RMK AO2 SLP207 T02720100
94790KART ART20160625145511506/25/16 14:55:31  5-MIN KART 251955Z AUTO 26008KT 10SM CLR 28/10 A3015 120 32 1700 280/08 RMK AO2 SLP207 T02780100
94790KART ART20160625150010806/25/16 15:00:31  5-MIN KART 252000Z AUTO 28009KT 10SM CLR 28/11 A3015 110 33 1700 290/09 RMK AO2 T02780106
94790KART ART20160625150510806/25/16 15:05:31  5-MIN KART 252005Z AUTO 27010KT 10SM CLR 28/11 A3015 110 33 1700 280/10 RMK AO2 T02780106
94790KART ART20160625151010806/25/16 15:10:31  5-MIN KART 252010Z AUTO 27007KT 10SM CLR 27/10 A3015 120 33 1600 280/07 RMK AO2 T02720100
94790KART ART20160625151510806/25/16 15:15:31  5-MIN KART 252015Z AUTO 28008KT 10SM CLR 27/10 A3015 120 33 1600 290/08 RMK AO2 T02720100
94790KART ART20160625152010806/25/16 15:20:31  5-MIN KART 252020Z AUTO 26007KT 10SM CLR 27/09 A3015 120 32 1600 280/07 RMK AO2 T02720094
94790KART ART20160625152510806/25/16 15:25:31  5-MIN KART 252025Z AUTO 28007KT 10SM CLR 27/09 A3014 130 32 1600 290/07 RMK AO2 T02720094
94790KART ART20160625153010806/25/16 15:30:31  5-MIN KART 252030Z AUTO 28006KT 10SM CLR 28/09 A3014 130 31 1700 290/06 RMK AO2 T02780094
94790KART ART20160625153510806/25/16 15:35:31  5-MIN KART 252035Z AUTO 25005KT 10SM CLR 27/09 A3014 130 32 1600 260/05 RMK AO2 T02720094
94790KART ART20160625154010806/25/16 15:40:31  5-MIN KART 252040Z AUTO 23007KT 10SM CLR 28/09 A3014 130 30 1700 240/07 RMK AO2 T02780089
94790KART ART20160625154510806/25/16 15:45:31  5-MIN KART 252045Z AUTO 23006KT 10SM CLR 27/08 A3013 140 30 1600 240/06 RMK AO2 T02720083
94790KART ART20160625155012106/25/16 15:50:31  5-MIN KART 252050Z AUTO 25005KT 10SM CLR 28/08 A3013 140 28 1700 260/05 RMK AO2 SLP200 T02780078 58010
94790KART ART20160625155512106/25/16 15:55:31  5-MIN KART 252055Z AUTO 24006KT 10SM CLR 27/08 A3013 140 30 1600 250/06 RMK AO2 SLP200 T02720083 58010
94790KART ART20160625160010806/25/16 16:00:31  5-MIN KART 252100Z AUTO 24005KT 10SM CLR 27/09 A3013 130 31 1600 250/05 RMK AO2 T02720089
94790KART ART20160625160510806/25/16 16:05:31  5-MIN KART 252105Z AUTO 27008KT 10SM CLR 27/09 A3013 130 31 1600 290/08 RMK AO2 T02720089
94790KART ART20160625161010806/25/16 16:10:31  5-MIN KART 252110Z AUTO 28008KT 10SM CLR 27/08 A3014 130 30 1600 290/08 RMK AO2 T02720083
94790KART ART20160625161510806/25/16 16:15:31  5-MIN KART 252115Z AUTO 26007KT 10SM CLR 27/09 A3014 130 31 1600 280/07 RMK AO2 T02720089
94790KART ART20160625162010806/25/16 16:20:31  5-MIN KART 252120Z AUTO 28008KT 10SM CLR 27/09 A3014 130 31 1600 290/08 RMK AO2 T02720089
94790KART ART20160625162510806/25/16 16:25:31  5-MIN KART 252125Z AUTO 28008KT 10SM CLR 27/09 A3014 130 31 1600 290/08 RMK AO2 T02720089
94790KART ART20160625163010806/25/16 16:30:31  5-MIN KART 252130Z AUTO 26007KT 10SM CLR 27/09 A3013 130 31 1600 280/07 RMK AO2 T02720089
94790KART ART20160625163510806/25/16 16:35:31  5-MIN KART 252135Z AUTO 27008KT 10SM CLR 27/08 A3013 140 30 1600 280/08 RMK AO2 T02720083
94790KART ART20160625164010806/25/16 16:40:31  5-MIN KART 252140Z AUTO 27007KT 10SM CLR 27/07 A3013 140 27 1600 280/07 RMK AO2 T02720072
94790KART ART20160625164510806/25/16 16:45:31  5-MIN KART 252145Z AUTO 27007KT 10SM CLR 27/08 A3013 140 29 1600 280/07 RMK AO2 T02670078
94790KART ART20160625165011506/25/16 16:50:31  5-MIN KART 252150Z AUTO 26008KT 10SM CLR 27/08 A3013 130 29 1600 270/08 RMK AO2 SLP201 T02670078
94790KART ART20160625165511506/25/16 16:55:31  5-MIN KART 252155Z AUTO 25006KT 10SM CLR 27/08 A3013 140 29 1600 270/06 RMK AO2 SLP201 T02670078
94790KART ART20160625170010806/25/16 17:00:31  5-MIN KART 252200Z AUTO 25005KT 10SM CLR 27/08 A3013 140 29 1600 260/05 RMK AO2 T02670078
94790KART ART20160625170510806/25/16 17:05:31  5-MIN KART 252205Z AUTO 25004KT 10SM CLR 27/07 A3013 140 28 1600 260/04 RMK AO2 T02670072
94790KART ART20160625171010806/25/16 17:10:31  5-MIN KART 252210Z AUTO 25005KT 10SM CLR 27/08 A3013 140 29 1600 270/05 RMK AO2 T02670078
94790KART ART20160625171510806/25/16 17:15:31  5-MIN KART 252215Z AUTO 26004KT 10SM CLR 27/07 A3013 140 27 1600 280/04 RMK AO2 T02670067
94790KART ART20160625172010806/25/16 17:20:31  5-MIN KART 252220Z AUTO 26005KT 10SM CLR 27/07 A3013 140 28 1600 270/05 RMK AO2 T02670072
94790KART ART20160625172510806/25/16 17:25:31  5-MIN KART 252225Z AUTO 25004KT 10SM CLR 27/07 A3013 140 28 1600 270/04 RMK AO2 T02670072
94790KART ART20160625173010806/25/16 17:30:31  5-MIN KART 252230Z AUTO 25003KT 10SM CLR 27/08 A3013 140 29 1600 260/03 RMK AO2 T02670078
94790KART ART20160625173510806/25/16 17:35:31  5-MIN KART 252235Z AUTO 23004KT 10SM CLR 26/07 A3013 140 29 1500 250/04 RMK AO2 T02610072
94790KART ART20160625174010806/25/16 17:40:31  5-MIN KART 252240Z AUTO 26004KT 10SM CLR 26/07 A3013 140 29 1500 270/04 RMK AO2 T02610072
94790KART ART20160625174510806/25/16 17:45:31  5-MIN KART 252245Z AUTO 25004KT 10SM CLR 27/07 A3013 140 27 1600 260/04 RMK AO2 T02670067
94790KART ART20160625175011506/25/16 17:50:31  5-MIN KART 252250Z AUTO 25003KT 10SM CLR 26/07 A3013 130 29 1500 260/03 RMK AO2 SLP200 T02610072
94790KART ART20160625175511506/25/16 17:55:31  5-MIN KART 252255Z AUTO 26005KT 10SM CLR 26/07 A3014 130 29 1500 270/05 RMK AO2 SLP201 T02610072
94790KART ART20160625180010806/25/16 18:00:31  5-MIN KART 252300Z AUTO 25003KT 10SM CLR 26/08 A3013 130 31 1500 260/03 RMK AO2 T02610078
94790KART ART20160625180510806/25/16 18:05:31  5-MIN KART 252305Z AUTO 25003KT 10SM CLR 26/08 A3013 130 32 1500 260/03 RMK AO2 T02610083
94790KART ART20160625181010806/25/16 18:10:31  5-MIN KART 252310Z AUTO 24003KT 10SM CLR 26/09 A3013 130 34 1500 260/03 RMK AO2 T02610094
94790KART ART20160625181510806/25/16 18:15:31  5-MIN KART 252315Z AUTO 24003KT 10SM CLR 26/09 A3013 140 35 1400 260/03 RMK AO2 T02560094
94790KART ART20160625182010806/25/16 18:20:31  5-MIN KART 252320Z AUTO 00000KT 10SM CLR 26/09 A3013 140 34 1400 000/00 RMK AO2 T02560089
94790KART ART20160625182510806/25/16 18:25:31  5-MIN KART 252325Z AUTO 26003KT 10SM CLR 26/10 A3013 140 37 1400 270/03 RMK AO2 T02560100
94790KART ART20160625183010806/25/16 18:30:31  5-MIN KART 252330Z AUTO 27004KT 10SM CLR 26/11 A3013 140 40 1400 280/04 RMK AO2 T02560111
94790KART ART20160625183510806/25/16 18:35:31  5-MIN KART 252335Z AUTO 27003KT 10SM CLR 25/11 A3013 140 39 1400 280/03 RMK AO2 T02500106
94790KART ART20160625184010806/25/16 18:40:31  5-MIN KART 252340Z AUTO 27003KT 10SM CLR 25/10 A3013 140 38 1400 280/03 RMK AO2 T02500100
94790KART ART20160625184510806/25/16 18:45:31  5-MIN KART 252345Z AUTO 00000KT 10SM CLR 25/11 A3013 140 39 1400 000/00 RMK AO2 T02500106
94790KART ART20160625185013306/25/16 18:50:31  5-MIN KART 252350Z AUTO 00000KT 10SM CLR 24/12 A3013 140 46 1300 000/00 RMK AO2 SLP198 T02440122 10283 20244 58007
94790KART ART20160625185513306/25/16 18:55:31  5-MIN KART 252355Z AUTO 00000KT 10SM CLR 24/13 A3013 140 49 1200 000/00 RMK AO2 SLP198 T02390128 10283 20239 58007
94790KART ART20160625190010806/25/16 19:00:31  5-MIN KART 260000Z AUTO 00000KT 10SM CLR 24/12 A3013 140 47 1200 000/00 RMK AO2 T02390122
94790KART ART20160625190510806/25/16 19:05:31  5-MIN KART 260005Z AUTO 00000KT 10SM CLR 23/12 A3013 140 49 1200 000/00 RMK AO2 T02330122
94790KART ART20160625191010806/25/16 19:10:31  5-MIN KART 260010Z AUTO 00000KT 10SM CLR 23/12 A3012 140 51 1100 000/00 RMK AO2 T02280122
94790KART ART20160625191510806/25/16 19:15:31  5-MIN KART 260015Z AUTO 00000KT 10SM CLR 22/13 A3012 140 54 1100 000/00 RMK AO2 T02220128
94790KART ART20160625192010806/25/16 19:20:31  5-MIN KART 260020Z AUTO 00000KT 10SM CLR 22/13 A3012 140 54 1100 000/00 RMK AO2 T02220128
94790KART ART20160625192510706/25/16 19:25:31  5-MIN KART 260025Z AUTO 00000KT 10SM CLR 21/13 A3013 140 60 900 000/00 RMK AO2 T02060128
94790KART ART20160625193010706/25/16 19:30:31  5-MIN KART 260030Z AUTO 00000KT 10SM CLR 21/13 A3012 140 63 900 000/00 RMK AO2 T02060133
94790KART ART20160625193510706/25/16 19:35:31  5-MIN KART 260035Z AUTO 00000KT 10SM CLR 19/13 A3012 140 67 700 000/00 RMK AO2 T01940133
94790KART ART20160625194010706/25/16 19:40:31  5-MIN KART 260040Z AUTO 00000KT 10SM CLR 19/13 A3012 140 70 700 000/00 RMK AO2 T01890133
94790KART ART20160625194510706/25/16 19:45:31  5-MIN KART 260045Z AUTO 00000KT 10SM CLR 18/13 A3012 150 72 600 000/00 RMK AO2 T01830133
94790KART ART20160625195011406/25/16 19:50:31  5-MIN KART 260050Z AUTO 00000KT 10SM CLR 18/13 A3012 150 72 600 000/00 RMK AO2 SLP195 T01830133
94790KART ART20160625195511406/25/16 19:55:31  5-MIN KART 260055Z AUTO 00000KT 10SM CLR 18/13 A3012 150 72 500 000/00 RMK AO2 SLP195 T01780128
94790KART ART20160625200010706/25/16 20:00:31  5-MIN KART 260100Z AUTO 00000KT 10SM CLR 18/13 A3012 150 72 500 000/00 RMK AO2 T01780128
94790KART ART20160625200510706/25/16 20:05:31  5-MIN KART 260105Z AUTO 00000KT 10SM CLR 17/13 A3012 150 75 500 000/00 RMK AO2 T01720128
94790KART ART20160625201010706/25/16 20:10:31  5-MIN KART 260110Z AUTO 13004KT 10SM CLR 17/12 A3012 150 75 400 140/04 RMK AO2 T01670122
94790KART ART20160625201510706/25/16 20:15:31  5-MIN KART 260115Z AUTO 13004KT 10SM CLR 17/12 A3012 150 72 400 140/04 RMK AO2 T01670117
94790KART ART20160625202010706/25/16 20:20:31  5-MIN KART 260120Z AUTO 14004KT 10SM CLR 17/12 A3012 150 72 400 150/04 RMK AO2 T01670117
94790KART ART20160625202510706/25/16 20:25:31  5-MIN KART 260125Z AUTO 13003KT 10SM CLR 16/12 A3012 150 75 400 150/03 RMK AO2 T01610117
94790KART ART20160625203010706/25/16 20:30:31  5-MIN KART 260130Z AUTO 13003KT 10SM CLR 16/12 A3012 150 77 300 140/03 RMK AO2 T01560117
94790KART ART20160625203510706/25/16 20:35:31  5-MIN KART 260135Z AUTO 00000KT 10SM CLR 16/12 A3012 150 77 300 000/00 RMK AO2 T01560117
94790KART ART20160625204010706/25/16 20:40:31  5-MIN KART 260140Z AUTO 10003KT 10SM CLR 15/12 A3012 150 80 200 120/03 RMK AO2 T01500117
94790KART ART20160625204510706/25/16 20:45:31  5-MIN KART 260145Z AUTO 10003KT 10SM CLR 14/12 A3012 150 83 200 110/03 RMK AO2 T01440117
94790KART ART20160625205011406/25/16 20:50:31  5-MIN KART 260150Z AUTO 13003KT 10SM CLR 15/11 A3012 150 77 200 140/03 RMK AO2 SLP196 T01500111
94790KART ART20160625205511406/25/16 20:55:31  5-MIN KART 260155Z AUTO 13003KT 10SM CLR 16/11 A3012 150 74 300 140/03 RMK AO2 SLP195 T01560111
94790KART ART20160625210010706/25/16 21:00:31  5-MIN KART 260200Z AUTO 11003KT 10SM CLR 15/11 A3012 150 77 200 120/03 RMK AO2 T01500111
94790KART ART20160625210510706/25/16 21:05:31  5-MIN KART 260205Z AUTO 10003KT 10SM CLR 14/11 A3011 150 80 200 120/03 RMK AO2 T01440111
94790KART ART20160625211010706/25/16 21:10:31  5-MIN KART 260210Z AUTO 11003KT 10SM CLR 15/11 A3011 150 74 200 120/03 RMK AO2 T01500106
94790KART ART20160625211510506/25/16 21:15:31  5-MIN KART 260215Z AUTO 00000KT 10SM CLR 13/11 A3011 150 86 0 000/00 RMK AO2 T01330111
94790KART ART20160625212010706/25/16 21:20:31  5-MIN KART 260220Z AUTO 00000KT 10SM CLR 14/11 A3011 150 83 100 000/00 RMK AO2 T01390111
94790KART ART20160625212510706/25/16 21:25:31  5-MIN KART 260225Z AUTO 09003KT 10SM CLR 14/11 A3011 150 80 100 100/03 RMK AO2 T01390106
94790KART ART20160625213010706/25/16 21:30:31  5-MIN KART 260230Z AUTO 10004KT 10SM CLR 14/11 A3011 160 80 100 110/04 RMK AO2 T01390106
94790KART ART20160625213510706/25/16 21:35:31  5-MIN KART 260235Z AUTO 10003KT 10SM CLR 16/11 A3011 160 72 300 110/03 RMK AO2 T01560106
94790KART ART20160625214010706/25/16 21:40:31  5-MIN KART 260240Z AUTO 00000KT 10SM CLR 15/11 A3011 160 74 200 000/00 RMK AO2 T01500106
94790KART ART20160625214510706/25/16 21:45:31  5-MIN KART 260245Z AUTO 00000KT 10SM CLR 14/11 A3011 160 83 100 000/00 RMK AO2 T01390111
94790KART ART20160625215011806/25/16 21:50:31  5-MIN KART 260250Z AUTO 09003KT 10SM CLR 13/11 A3011 160 86 0 100/03 RMK AO2 SLP192 T01330111 58001
94790KART ART20160625215512006/25/16 21:55:31  5-MIN KART 260255Z AUTO 11003KT 10SM CLR 14/11 A3011 160 80 100 120/03 RMK AO2 SLP192 T01390106 58001
94790KART ART20160625220010506/25/16 22:00:31  5-MIN KART 260300Z AUTO 12003KT 10SM CLR 13/11 A3011 160 83 0 130/03 RMK AO2 T01330106
94790KART ART20160625220510506/25/16 22:05:31  5-MIN KART 260305Z AUTO 00000KT 10SM CLR 13/11 A3011 150 83 0 000/00 RMK AO2 T01330106
94790KART ART20160625221010506/25/16 22:10:31  5-MIN KART 260310Z AUTO 00000KT 10SM CLR 13/11 A3011 150 83 0 000/00 RMK AO2 T01330106
94790KART ART20160625221510506/25/16 22:15:31  5-MIN KART 260315Z AUTO 00000KT 10SM CLR 13/11 A3011 150 83 0 000/00 RMK AO2 T01330106
94790KART ART20160625222010706/25/16 22:20:31  5-MIN KART 260320Z AUTO 00000KT 10SM CLR 14/11 A3011 160 80 100 000/00 RMK AO2 T01390106
94790KART ART20160625222510706/25/16 22:25:31  5-MIN KART 260325Z AUTO 00000KT 10SM CLR 14/11 A3011 150 80 100 000/00 RMK AO2 T01390106
94790KART ART20160625223010706/25/16 22:30:31  5-MIN KART 260330Z AUTO 08003KT 10SM CLR 14/11 A3011 160 80 100 100/03 RMK AO2 T01390106
94790KART ART20160625223510706/25/16 22:35:31  5-MIN KART 260335Z AUTO 07003KT 10SM CLR 14/11 A3011 160 77 200 090/03 RMK AO2 T01440106
94790KART ART20160625224010706/25/16 22:40:31  5-MIN KART 260340Z AUTO 08003KT 10SM CLR 14/11 A3011 150 80 200 100/03 RMK AO2 T01440111
94790KART ART20160625224510706/25/16 22:45:31  5-MIN KART 260345Z AUTO 00000KT 10SM CLR 14/11 A3011 150 83 100 000/00 RMK AO2 T01390111
94790KART ART20160625225011406/25/16 22:50:31  5-MIN KART 260350Z AUTO 00000KT 10SM CLR 14/12 A3012 150 83 200 000/00 RMK AO2 SLP193 T01440117
94790KART ART20160625225511406/25/16 22:55:31  5-MIN KART 260355Z AUTO 00000KT 10SM CLR 14/12 A3011 150 83 200 000/00 RMK AO2 SLP192 T01440117
94790KART ART20160625230010706/25/16 23:00:31  5-MIN KART 260400Z AUTO 10003KT 10SM CLR 14/11 A3011 150 83 100 110/03 RMK AO2 T01390111
94790KART ART20160625230510706/25/16 23:05:31  5-MIN KART 260405Z AUTO 10003KT 10SM CLR 14/12 A3011 150 83 200 110/03 RMK AO2 T01440117
94790KART ART20160625231010706/25/16 23:10:31  5-MIN KART 260410Z AUTO 00000KT 10SM CLR 14/12 A3011 150 86 100 000/00 RMK AO2 T01390117
94790KART ART20160625231510706/25/16 23:15:31  5-MIN KART 260415Z AUTO 00000KT 10SM CLR 14/12 A3011 150 83 200 000/00 RMK AO2 T01440117
94790KART ART20160625232010706/25/16 23:20:31  5-MIN KART 260420Z AUTO 00000KT 10SM CLR 15/12 A3011 150 80 200 000/00 RMK AO2 T01500117
94790KART ART20160625232510706/25/16 23:25:31  5-MIN KART 260425Z AUTO 00000KT 10SM CLR 14/12 A3012 150 83 200 000/00 RMK AO2 T01440117
94790KART ART20160625233010706/25/16 23:30:31  5-MIN KART 260430Z AUTO 00000KT 10SM CLR 14/12 A3012 150 83 200 000/00 RMK AO2 T01440117
94790KART ART20160625233510706/25/16 23:35:31  5-MIN KART 260435Z AUTO 00000KT 10SM CLR 14/12 A3012 140 83 200 000/00 RMK AO2 T01440117
94790KART ART20160625234010706/25/16 23:40:31  5-MIN KART 260440Z AUTO 00000KT 10SM CLR 15/12 A3012 140 80 200 000/00 RMK AO2 T01500117
94790KART ART20160625234510706/25/16 23:45:31  5-MIN KART 260445Z AUTO 00000KT 10SM CLR 14/12 A3013 140 83 100 000/00 RMK AO2 T01440117
94790KART ART20160625235012406/25/16 23:50:31  5-MIN KART 260450Z AUTO 00000KT 10SM CLR 14/12 A3013 140 83 100 000/00 RMK AO2 SLP198 T01440117 402830083
94790KART ART20160625235512406/25/16 23:55:31  5-MIN KART 260455Z AUTO 00000KT 10SM CLR 15/12 A3013 140 80 200 000/00 RMK AO2 SLP198 T01500117 402830083
94790KART ART20160626000010706/26/16 00:00:31  5-MIN KART 260500Z AUTO 00000KT 10SM CLR 14/12 A3013 140 86 100 000/00 RMK AO2 T01390117
94790KART ART20160626000510706/26/16 00:05:31  5-MIN KART 260505Z AUTO 00000KT 10SM CLR 14/12 A3013 140 86 100 000/00 RMK AO2 T01390117
94790KART ART20160626001010706/26/16 00:10:31  5-MIN KART 260510Z AUTO 00000KT 10SM CLR 14/12 A3013 140 86 100 000/00 RMK AO2 T01390117
94790KART ART20160626001510706/26/16 00:15:31  5-MIN KART 260515Z AUTO 08003KT 10SM CLR 14/12 A3013 140 86 100 090/03 RMK AO2 T01390117
94790KART ART20160626002010706/26/16 00:20:31  5-MIN KART 260520Z AUTO 06004KT 10SM CLR 14/12 A3013 140 86 100 070/04 RMK AO2 T01390117
94790KART ART20160626002510706/26/16 00:25:31  5-MIN KART 260525Z AUTO 06003KT 10SM CLR 14/12 A3013 140 86 100 070/03 RMK AO2 T01390117
94790KART ART20160626003010506/26/16 00:30:31  5-MIN KART 260530Z AUTO 07003KT 10SM CLR 13/12 A3012 140 89 0 090/03 RMK AO2 T01330117
94790KART ART20160626003510706/26/16 00:35:31  5-MIN KART 260535Z AUTO 07003KT 10SM CLR 14/12 A3013 140 86 100 080/03 RMK AO2 T01390117
94790KART ART20160626004010706/26/16 00:40:31  5-MIN KART 260540Z AUTO 00000KT 10SM CLR 14/12 A3013 140 86 100 000/00 RMK AO2 T01390117
94790KART ART20160626004510706/26/16 00:45:31  5-MIN KART 260545Z AUTO 00000KT 10SM CLR 14/12 A3013 140 86 100 000/00 RMK AO2 T01390117
94790KART ART20160626005013206/26/16 00:50:31  5-MIN KART 260550Z AUTO 10003KT 10SM CLR 14/12 A3013 140 83 100 110/03 RMK AO2 SLP197 T01440117 10239 20133 58006
94790KART ART20160626005513206/26/16 00:55:31  5-MIN KART 260555Z AUTO 09003KT 10SM CLR 14/12 A3013 140 83 100 100/03 RMK AO2 SLP197 T01440117 10239 20133 58006
94790KART ART20160626010010706/26/16 01:00:31  5-MIN KART 260600Z AUTO 13003KT 10SM CLR 14/12 A3013 140 83 100 140/03 RMK AO2 T01440117
94790KART ART20160626010510706/26/16 01:05:31  5-MIN KART 260605Z AUTO 00000KT 10SM CLR 14/12 A3013 140 83 100 000/00 RMK AO2 T01440117
94790KART ART20160626011010506/26/16 01:10:31  5-MIN KART 260610Z AUTO 00000KT 10SM CLR 13/11 A3013 140 86 0 000/00 RMK AO2 T01330111
94790KART ART20160626011510506/26/16 01:15:31  5-MIN KART 260615Z AUTO 13004KT 10SM CLR 13/11 A3013 140 86 0 140/04 RMK AO2 T01330111
94790KART ART20160626012010706/26/16 01:20:31  5-MIN KART 260620Z AUTO 13005KT 10SM CLR 16/11 A3012 150 74 300 150/05 RMK AO2 T01560111
94790KART ART20160626012510706/26/16 01:25:31  5-MIN KART 260625Z AUTO 14005KT 10SM CLR 16/11 A3012 150 72 400 150/05 RMK AO2 T01610111
94790KART ART20160626013010706/26/16 01:30:31  5-MIN KART 260630Z AUTO 15004KT 10SM CLR 17/11 A3012 150 69 400 160/04 RMK AO2 T01670111
94790KART ART20160626013510706/26/16 01:35:31  5-MIN KART 260635Z AUTO 15005KT 10SM CLR 17/11 A3012 150 69 400 170/05 RMK AO2 T01670111
94790KART ART20160626014010706/26/16 01:40:31  5-MIN KART 260640Z AUTO 15003KT 10SM CLR 17/11 A3012 150 67 500 160/03 RMK AO2 T01720111
94790KART ART20160626014510706/26/16 01:45:31  5-MIN KART 260645Z AUTO 16004KT 10SM CLR 18/11 A3012 150 64 500 170/04 RMK AO2 T01780111
94790KART ART20160626015011406/26/16 01:50:31  5-MIN KART 260650Z AUTO 15003KT 10SM CLR 18/11 A3012 150 62 600 160/03 RMK AO2 SLP194 T01830111
94790KART ART20160626015511406/26/16 01:55:31  5-MIN KART 260655Z AUTO 16003KT 10SM CLR 18/11 A3012 150 62 600 170/03 RMK AO2 SLP194 T01830111
94790KART ART20160626020010706/26/16 02:00:31  5-MIN KART 260700Z AUTO 00000KT 10SM CLR 19/11 A3012 150 60 700 000/00 RMK AO2 T01890111
94790KART ART20160626020510706/26/16 02:05:31  5-MIN KART 260705Z AUTO 00000KT 10SM CLR 18/11 A3012 150 64 600 000/00 RMK AO2 T01780111
94790KART ART20160626021010706/26/16 02:10:31  5-MIN KART 260710Z AUTO 00000KT 10SM CLR 17/11 A3012 150 67 500 000/00 RMK AO2 T01720111
94790KART ART20160626021510706/26/16 02:15:31  5-MIN KART 260715Z AUTO 00000KT 10SM CLR 17/11 A3012 150 69 400 000/00 RMK AO2 T01670111
94790KART ART20160626022010706/26/16 02:20:31  5-MIN KART 260720Z AUTO 00000KT 10SM CLR 17/11 A3011 150 69 400 000/00 RMK AO2 T01670111
94790KART ART20160626022510706/26/16 02:25:31  5-MIN KART 260725Z AUTO VRB03KT 10SM CLR 17/11 A3012 150 69 400 VRB/03 RMK AO2 T01670111
94790KART ART20160626023010706/26/16 02:30:31  5-MIN KART 260730Z AUTO 00000KT 10SM CLR 16/11 A3012 150 74 300 000/00 RMK AO2 T01560111
94790KART ART20160626023510706/26/16 02:35:31  5-MIN KART 260735Z AUTO 15003KT 10SM CLR 16/12 A3012 150 77 300 160/03 RMK AO2 T01560117
94790KART ART20160626024010706/26/16 02:40:31  5-MIN KART 260740Z AUTO 00000KT 10SM CLR 16/11 A3011 150 74 300 000/00 RMK AO2 T01560111
94790KART ART20160626024510706/26/16 02:45:31  5-MIN KART 260745Z AUTO 09003KT 10SM CLR 16/12 A3011 160 77 300 100/03 RMK AO2 T01560117
94790KART ART20160626025011406/26/16 02:50:31  5-MIN KART 260750Z AUTO 06003KT 10SM CLR 15/12 A3011 160 80 200 070/03 RMK AO2 SLP191 T01500117
94790KART ART20160626025511406/26/16 02:55:31  5-MIN KART 260755Z AUTO 02004KT 10SM CLR 15/12 A3011 160 80 200 030/04 RMK AO2 SLP191 T01500117
94790KART ART20160626030010706/26/16 03:00:31  5-MIN KART 260800Z AUTO 36003KT 10SM CLR 15/12 A3011 160 80 200 020/03 RMK AO2 T01500117
94790KART ART20160626030510706/26/16 03:05:31  5-MIN KART 260805Z AUTO 00000KT 10SM CLR 15/12 A3010 160 83 200 000/00 RMK AO2 T01500122
94790KART ART20160626031010706/26/16 03:10:31  5-MIN KART 260810Z AUTO 00000KT 10SM CLR 14/12 A3010 160 83 200 000/00 RMK AO2 T01440117
94790KART ART20160626031510706/26/16 03:15:31  5-MIN KART 260815Z AUTO 00000KT 10SM CLR 15/12 A3011 160 80 200 000/00 RMK AO2 T01500117
94790KART ART20160626032010706/26/16 03:20:31  5-MIN KART 260820Z AUTO 00000KT 10SM CLR 16/12 A3011 160 77 300 000/00 RMK AO2 T01560117
94790KART ART20160626032510706/26/16 03:25:31  5-MIN KART 260825Z AUTO 00000KT 10SM CLR 17/12 A3010 160 72 400 000/00 RMK AO2 T01670117
94790KART ART20160626033010706/26/16 03:30:31  5-MIN KART 260830Z AUTO 22003KT 10SM CLR 17/11 A3010 160 67 500 240/03 RMK AO2 T01720111
94790KART ART20160626033510706/26/16 03:35:31  5-MIN KART 260835Z AUTO 00000KT 10SM CLR 18/11 A3010 160 64 600 000/00 RMK AO2 T01780111
94790KART ART20160626034010706/26/16 03:40:31  5-MIN KART 260840Z AUTO 28004KT 10SM CLR 18/12 A3010 160 67 600 290/04 RMK AO2 T01780117
94790KART ART20160626034510706/26/16 03:45:31  5-MIN KART 260845Z AUTO 32005KT 10SM CLR 17/12 A3010 160 69 500 330/05 RMK AO2 T01720117
94790KART ART20160626035012006/26/16 03:50:31  5-MIN KART 260850Z AUTO 32005KT 10SM CLR 17/12 A3010 160 72 400 330/05 RMK AO2 SLP189 T01670117 50006
94790KART ART20160626035512006/26/16 03:55:31  5-MIN KART 260855Z AUTO 31005KT 10SM CLR 17/12 A3011 160 75 400 320/05 RMK AO2 SLP190 T01670122 50006
94790KART ART20160626040010706/26/16 04:00:31  5-MIN KART 260900Z AUTO 32004KT 10SM CLR 17/12 A3011 160 75 400 330/04 RMK AO2 T01670122
94790KART ART20160626040510706/26/16 04:05:31  5-MIN KART 260905Z AUTO 33004KT 10SM CLR 17/12 A3011 160 75 400 340/04 RMK AO2 T01670122
94790KART ART20160626041010706/26/16 04:10:31  5-MIN KART 260910Z AUTO 34005KT 10SM CLR 17/13 A3011 160 77 400 350/05 RMK AO2 T01670128
94790KART ART20160626041510706/26/16 04:15:31  5-MIN KART 260915Z AUTO 33004KT 10SM CLR 17/13 A3011 160 80 400 350/04 RMK AO2 T01670133
94790KART ART20160626042010706/26/16 04:20:31  5-MIN KART 260920Z AUTO 36003KT 10SM CLR 16/13 A3011 160 83 400 010/03 RMK AO2 T01610133
94790KART ART20160626042510706/26/16 04:25:31  5-MIN KART 260925Z AUTO 00000KT 10SM CLR 16/13 A3011 160 83 300 000/00 RMK AO2 T01560128
94790KART ART20160626043010706/26/16 04:30:31  5-MIN KART 260930Z AUTO 00000KT 10SM CLR 15/13 A3011 160 86 200 000/00 RMK AO2 T01500128
94790KART ART20160626043510706/26/16 04:35:31  5-MIN KART 260935Z AUTO 00000KT 10SM CLR 15/13 A3011 150 86 200 000/00 RMK AO2 T01500128
94790KART ART20160626044010706/26/16 04:40:31  5-MIN KART 260940Z AUTO 00000KT 10SM CLR 14/13 A3011 150 90 200 000/00 RMK AO2 T01440128
94790KART ART20160626044510706/26/16 04:45:31  5-MIN KART 260945Z AUTO 00000KT 10SM CLR 14/12 A3011 150 86 200 000/00 RMK AO2 T01440122
94790KART ART20160626045011406/26/16 04:50:31  5-MIN KART 260950Z AUTO 00000KT 10SM CLR 14/12 A3011 150 86 100 000/00 RMK AO2 SLP192 T01390117
94790KART ART20160626045511406/26/16 04:55:31  5-MIN KART 260955Z AUTO 00000KT 10SM CLR 14/12 A3011 150 86 200 000/00 RMK AO2 SLP192 T01440122
94790KART ART20160626050010706/26/16 05:00:31  5-MIN KART 261000Z AUTO 00000KT 10SM CLR 14/12 A3011 150 86 200 000/00 RMK AO2 T01440122
94790KART ART20160626050510706/26/16 05:05:31  5-MIN KART 261005Z AUTO 00000KT 10SM CLR 15/12 A3011 150 83 200 000/00 RMK AO2 T01500122
94790KART ART20160626051010706/26/16 05:10:31  5-MIN KART 261010Z AUTO 00000KT 10SM CLR 17/13 A3012 150 77 400 000/00 RMK AO2 T01670128
94790KART ART20160626051510706/26/16 05:15:31  5-MIN KART 261015Z AUTO 00000KT 10SM CLR 17/13 A3012 150 78 500 000/00 RMK AO2 T01720133
94790KART ART20160626052010706/26/16 05:20:31  5-MIN KART 261020Z AUTO 00000KT 10SM CLR 18/13 A3012 140 75 500 000/00 RMK AO2 T01780133
94790KART ART20160626052510706/26/16 05:25:31  5-MIN KART 261025Z AUTO 00000KT 10SM CLR 18/13 A3012 140 72 600 000/00 RMK AO2 T01830133
94790KART ART20160626053010706/26/16 05:30:31  5-MIN KART 261030Z AUTO 00000KT 10SM CLR 19/14 A3013 140 70 700 000/00 RMK AO2 T01940139
94790KART ART20160626053510706/26/16 05:35:31  5-MIN KART 261035Z AUTO 00000KT 10SM CLR 19/14 A3013 140 75 700 000/00 RMK AO2 T01890144
94790KART ART20160626054010706/26/16 05:40:31  5-MIN KART 261040Z AUTO 00000KT 10SM CLR 19/15 A3013 140 78 700 000/00 RMK AO2 T01890150
94790KART ART20160626054510706/26/16 05:45:31  5-MIN KART 261045Z AUTO 00000KT 10SM CLR 19/15 A3013 140 75 700 000/00 RMK AO2 T01940150
94790KART ART20160626055011406/26/16 05:50:31  5-MIN KART 261050Z AUTO 00000KT 10SM CLR 19/15 A3013 140 75 700 000/00 RMK AO2 SLP198 T01940150
94790KART ART20160626055511406/26/16 05:55:31  5-MIN KART 261055Z AUTO 00000KT 10SM CLR 19/16 A3013 140 78 700 000/00 RMK AO2 SLP198 T01940156
94790KART ART20160626060010706/26/16 06:00:31  5-MIN KART 261100Z AUTO 00000KT 10SM CLR 20/15 A3013 140 72 800 000/00 RMK AO2 T02000150
94790KART ART20160626060510706/26/16 06:05:31  5-MIN KART 261105Z AUTO 00000KT 10SM CLR 21/15 A3012 140 70 900 000/00 RMK AO2 T02060150
94790KART ART20160626061010706/26/16 06:10:31  5-MIN KART 261110Z AUTO 20004KT 10SM CLR 21/16 A3012 140 70 900 210/04 RMK AO2 T02110156
94790KART ART20160626061510806/26/16 06:15:31  5-MIN KART 261115Z AUTO 19005KT 10SM CLR 22/16 A3012 140 68 1000 210/05 RMK AO2 T02170156
94790KART ART20160626062010806/26/16 06:20:31  5-MIN KART 261120Z AUTO 19005KT 10SM CLR 22/16 A3012 140 68 1000 210/05 RMK AO2 T02170156
94790KART ART20160626062510806/26/16 06:25:31  5-MIN KART 261125Z AUTO 20004KT 10SM CLR 22/16 A3012 140 65 1100 210/04 RMK AO2 T02220156
94790KART ART20160626063010806/26/16 06:30:31  5-MIN KART 261130Z AUTO 20005KT 10SM CLR 22/16 A3012 140 68 1100 220/05 RMK AO2 T02220161
94790KART ART20160626063510806/26/16 06:35:31  5-MIN KART 261135Z AUTO 20007KT 10SM CLR 22/16 A3012 150 68 1100 220/07 RMK AO2 T02220161
94790KART ART20160626064010806/26/16 06:40:31  5-MIN KART 261140Z AUTO 19006KT 10SM CLR 23/16 A3012 150 65 1100 210/06 RMK AO2 T02280161
94790KART ART20160626064510806/26/16 06:45:31  5-MIN KART 261145Z AUTO 19005KT 10SM CLR 23/16 A3011 150 65 1100 200/05 RMK AO2 T02280161
94790KART ART20160626065013306/26/16 06:50:31  5-MIN KART 261150Z AUTO 19006KT 10SM CLR 23/16 A3011 150 65 1100 200/06 RMK AO2 SLP191 T02280161 10228 20133 56007
94790KART ART20160626065513306/26/16 06:55:31  5-MIN KART 261155Z AUTO 19007KT 10SM CLR 23/16 A3011 150 65 1100 210/07 RMK AO2 SLP191 T02280161 10228 20133 56007
94790KART ART20160626070010806/26/16 07:00:31  5-MIN KART 261200Z AUTO 20006KT 10SM CLR 23/16 A3011 150 63 1200 210/06 RMK AO2 T02330161
94790KART ART20160626070510806/26/16 07:05:31  5-MIN KART 261205Z AUTO 19007KT 10SM CLR 23/16 A3012 150 63 1200 200/07 RMK AO2 T02330161
94790KART ART20160626071010806/26/16 07:10:31  5-MIN KART 261210Z AUTO 20007KT 10SM CLR 24/17 A3012 150 63 1300 210/07 RMK AO2 T02390167
94790KART ART20160626071510806/26/16 07:15:31  5-MIN KART 261215Z AUTO 20008KT 10SM CLR 24/17 A3012 150 63 1300 220/08 RMK AO2 T02390167
94790KART ART20160626072010806/26/16 07:20:31  5-MIN KART 261220Z AUTO 20006KT 10SM CLR 24/17 A3012 150 63 1300 210/06 RMK AO2 T02390167
94790KART ART20160626072510806/26/16 07:25:31  5-MIN KART 261225Z AUTO 20009KT 10SM CLR 24/17 A3012 150 61 1300 220/09 RMK AO2 T02440167
94790KART ART20160626073010806/26/16 07:30:31  5-MIN KART 261230Z AUTO 19007KT 10SM CLR 24/17 A3012 140 61 1300 200/07 RMK AO2 T02440167
94790KART ART20160626073510806/26/16 07:35:31  5-MIN KART 261235Z AUTO 19008KT 10SM CLR 24/17 A3012 140 61 1300 210/08 RMK AO2 T02440167
94790KART ART20160626074011406/26/16 07:40:31  5-MIN KART 261240Z AUTO 20008G17KT 10SM CLR 25/17 A3012 140 59 1400 220/08G17 RMK AO2 T02500167
94790KART ART20160626074511406/26/16 07:45:31  5-MIN KART 261245Z AUTO 19009G17KT 10SM CLR 25/17 A3012 140 59 1400 210/09G17 RMK AO2 T02500167
94790KART ART20160626075011506/26/16 07:50:31  5-MIN KART 261250Z AUTO 20009KT 10SM CLR 25/17 A3012 140 59 1400 220/09 RMK AO2 SLP196 T02500167
94790KART ART20160626075511506/26/16 07:55:31  5-MIN KART 261255Z AUTO 21010KT 10SM CLR 25/17 A3012 140 59 1400 220/10 RMK AO2 SLP195 T02500167
94790KART ART20160626080010806/26/16 08:00:31  5-MIN KART 261300Z AUTO 20010KT 10SM CLR 26/17 A3012 140 57 1400 210/10 RMK AO2 T02560167
94790KART ART20160626080510806/26/16 08:05:31  5-MIN KART 261305Z AUTO 21010KT 10SM CLR 26/17 A3012 140 57 1400 220/10 RMK AO2 T02560167
94790KART ART20160626081010806/26/16 08:10:31  5-MIN KART 261310Z AUTO 20008KT 10SM CLR 26/17 A3012 140 57 1400 220/08 RMK AO2 T02560167
94790KART ART20160626081510806/26/16 08:15:31  5-MIN KART 261315Z AUTO 20008KT 10SM CLR 26/17 A3012 140 57 1400 220/08 RMK AO2 T02560167
94790KART ART20160626082010806/26/16 08:20:31  5-MIN KART 261320Z AUTO 21008KT 10SM CLR 26/17 A3012 150 55 1500 220/08 RMK AO2 T02610167
94790KART ART20160626082510806/26/16 08:25:31  5-MIN KART 261325Z AUTO 22008KT 10SM CLR 26/17 A3013 140 55 1500 230/08 RMK AO2 T02610167
94790KART ART20160626083011406/26/16 08:30:31  5-MIN KART 261330Z AUTO 23011G16KT 10SM CLR 27/17 A3013 140 53 1600 240/11G16 RMK AO2 T02670167
94790KART ART20160626083511406/26/16 08:35:31  5-MIN KART 261335Z AUTO 21009G17KT 10SM CLR 27/17 A3013 140 53 1600 220/09G17 RMK AO2 T02670167
94790KART ART20160626084011406/26/16 08:40:31  5-MIN KART 261340Z AUTO 20009G17KT 10SM CLR 26/16 A3012 140 53 1500 210/09G17 RMK AO2 T02610161
94790KART ART20160626084510806/26/16 08:45:31  5-MIN KART 261345Z AUTO 20009KT 10SM CLR 27/16 A3012 150 52 1600 210/09 RMK AO2 T02670161
94790KART ART20160626085013106/26/16 08:50:31  5-MIN KART 261350Z AUTO 22008KT 190V250 10SM CLR 27/17 A3012 150 53 1600 230/08 200V260 RMK AO2 SLP195 T02670167
94790KART ART20160626085511506/26/16 08:55:31  5-MIN KART 261355Z AUTO 21011KT 10SM CLR 27/17 A3012 150 53 1600 230/11 RMK AO2 SLP193 T02670167
94790KART ART20160626090010806/26/16 09:00:31  5-MIN KART 261400Z AUTO 21008KT 10SM CLR 27/17 A3012 150 53 1600 230/08 RMK AO2 T02670167
94790KART ART20160626090510806/26/16 09:05:31  5-MIN KART 261405Z AUTO 23008KT 10SM CLR 27/17 A3012 150 53 1600 240/08 RMK AO2 T02670167
94790KART ART20160626091010806/26/16 09:10:31  5-MIN KART 261410Z AUTO 21008KT 10SM CLR 27/17 A3012 150 52 1600 220/08 RMK AO2 T02720167
94790KART ART20160626091510806/26/16 09:15:31  5-MIN KART 261415Z AUTO 20008KT 10SM CLR 27/16 A3012 150 52 1600 220/08 RMK AO2 T02670161
94790KART ART20160626092013006/26/16 09:20:31  5-MIN KART 261420Z AUTO 21007G15KT 170V250 10SM CLR 27/17 A3012 150 53 1600 220/07G15 180V260 RMK AO2 T02670167
94790KART ART20160626092510806/26/16 09:25:31  5-MIN KART 261425Z AUTO 22009KT 10SM CLR 28/17 A3012 150 50 1700 230/09 RMK AO2 T02780167
94790KART ART20160626093011406/26/16 09:30:31  5-MIN KART 261430Z AUTO 22006G15KT 10SM CLR 27/17 A3012 150 52 1600 230/06G15 RMK AO2 T02720167
94790KART ART20160626093510806/26/16 09:35:31  5-MIN KART 261435Z AUTO 22007KT 10SM CLR 28/17 A3012 150 50 1700 230/07 RMK AO2 T02780167
94790KART ART20160626094010806/26/16 09:40:31  5-MIN KART 261440Z AUTO 24008KT 10SM CLR 28/17 A3012 150 50 1700 250/08 RMK AO2 T02780167
94790KART ART20160626094510806/26/16 09:45:31  5-MIN KART 261445Z AUTO 23008KT 10SM CLR 28/17 A3012 150 50 1700 240/08 RMK AO2 T02780167
94790KART ART20160626095012106/26/16 09:50:31  5-MIN KART 261450Z AUTO 26009KT 10SM CLR 28/17 A3012 150 48 1800 270/09 RMK AO2 SLP194 T02830167 50002
94790KART ART20160626095512106/26/16 09:55:31  5-MIN KART 261455Z AUTO 25007KT 10SM CLR 28/17 A3012 150 48 1800 260/07 RMK AO2 SLP195 T02830167 50002
94790KART ART20160626100010806/26/16 10:00:31  5-MIN KART 261500Z AUTO 22008KT 10SM CLR 28/17 A3012 140 48 1800 230/08 RMK AO2 T02830167
94790KART ART20160626100510806/26/16 10:05:31  5-MIN KART 261505Z AUTO 25008KT 10SM CLR 28/17 A3012 150 48 1800 270/08 RMK AO2 T02830167
94790KART ART20160626101010806/26/16 10:10:31  5-MIN KART 261510Z AUTO 24008KT 10SM CLR 28/17 A3012 150 48 1800 260/08 RMK AO2 T02830167
94790KART ART20160626101510806/26/16 10:15:31  5-MIN KART 261515Z AUTO 26008KT 10SM CLR 28/17 A3012 150 48 1800 270/08 RMK AO2 T02830167
94790KART ART20160626102010806/26/16 10:20:31  5-MIN KART 261520Z AUTO 25009KT 10SM CLR 28/17 A3012 150 48 1800 260/09 RMK AO2 T02830167
94790KART ART20160626102510806/26/16 10:25:31  5-MIN KART 261525Z AUTO 25009KT 10SM CLR 29/17 A3012 150 47 1800 260/09 RMK AO2 T02890167
94790KART ART20160626103010806/26/16 10:30:31  5-MIN KART 261530Z AUTO 24007KT 10SM CLR 29/17 A3011 150 47 1800 250/07 RMK AO2 T02890167
94790KART ART20160626103510806/26/16 10:35:31  5-MIN KART 261535Z AUTO 23010KT 10SM CLR 29/17 A3011 150 47 1800 250/10 RMK AO2 T02890167
94790KART ART20160626104010806/26/16 10:40:31  5-MIN KART 261540Z AUTO 25008KT 10SM CLR 28/17 A3011 150 48 1800 260/08 RMK AO2 T02830167
94790KART ART20160626104510806/26/16 10:45:31  5-MIN KART 261545Z AUTO 25008KT 10SM CLR 29/17 A3011 150 47 1800 260/08 RMK AO2 T02890167
94790KART ART20160626105011506/26/16 10:50:31  5-MIN KART 261550Z AUTO 25007KT 10SM CLR 29/17 A3011 160 47 1800 260/07 RMK AO2 SLP191 T02890167
94790KART ART20160626105511506/26/16 10:55:31  5-MIN KART 261555Z AUTO 22009KT 10SM CLR 29/17 A3011 160 47 1800 230/09 RMK AO2 SLP190 T02890167
94790KART ART20160626110010806/26/16 11:00:31  5-MIN KART 261600Z AUTO 24007KT 10SM CLR 29/17 A3010 160 47 1800 260/07 RMK AO2 T02890167
94790KART ART20160626110510806/26/16 11:05:31  5-MIN KART 261605Z AUTO 25008KT 10SM CLR 29/17 A3010 160 47 1900 260/08 RMK AO2 T02940172
94790KART ART20160626111010806/26/16 11:10:31  5-MIN KART 261610Z AUTO 21007KT 10SM CLR 29/17 A3010 160 45 1900 220/07 RMK AO2 T02940167
94790KART ART20160626111510806/26/16 11:15:31  5-MIN KART 261615Z AUTO 26012KT 10SM CLR 30/17 A3010 160 44 2000 270/12 RMK AO2 T03000167
94790KART ART20160626112010806/26/16 11:20:31  5-MIN KART 261620Z AUTO 27010KT 10SM CLR 30/17 A3010 170 44 2000 280/10 RMK AO2 T03000167
94790KART ART20160626112510806/26/16 11:25:31  5-MIN KART 261625Z AUTO 24006KT 10SM CLR 30/17 A3010 170 44 2000 250/06 RMK AO2 T03000167
94790KART ART20160626113010806/26/16 11:30:31  5-MIN KART 261630Z AUTO 27010KT 10SM CLR 30/18 A3010 170 47 2000 280/10 RMK AO2 T03000178
94790KART ART20160626113511106/26/16 11:35:31  5-MIN KART 261635Z AUTO 27010KT 10SM FEW050 30/18 A3010 170 47 2000 290/10 RMK AO2 T03000178
94790KART ART20160626114011106/26/16 11:40:31  5-MIN KART 261640Z AUTO 26009KT 10SM FEW050 30/18 A3010 170 47 2000 270/09 RMK AO2 T03000178
94790KART ART20160626114511106/26/16 11:45:31  5-MIN KART 261645Z AUTO 26007KT 10SM SCT050 29/17 A3010 170 48 1800 270/07 RMK AO2 T02890172
94790KART ART20160626115011806/26/16 11:50:31  5-MIN KART 261650Z AUTO 25007KT 10SM SCT050 29/17 A3009 170 48 1800 260/07 RMK AO2 SLP186 T02890172
94790KART ART20160626115511806/26/16 11:55:31  5-MIN KART 261655Z AUTO 24009KT 10SM BKN050 29/17 A3009 170 48 1800 250/09 RMK AO2 SLP186 T02890172
94790KART ART20160626120011106/26/16 12:00:31  5-MIN KART 261700Z AUTO 24006KT 10SM BKN050 29/17 A3009 170 48 1800 250/06 RMK AO2 T02890172
94790KART ART20160626120511106/26/16 12:05:31  5-MIN KART 261705Z AUTO 25008KT 10SM BKN050 29/17 A3009 170 48 1800 260/08 RMK AO2 T02890172
94790KART ART20160626121011106/26/16 12:10:31  5-MIN KART 261710Z AUTO 25009KT 10SM BKN050 30/17 A3009 170 44 2000 270/09 RMK AO2 T03000167
94790KART ART20160626121511106/26/16 12:15:31  5-MIN KART 261715Z AUTO 25007KT 10SM BKN050 29/17 A3009 180 45 1900 260/07 RMK AO2 T02940167
94790KART ART20160626122011106/26/16 12:20:31  5-MIN KART 261720Z AUTO 27007KT 10SM BKN055 29/17 A3008 180 47 1900 290/07 RMK AO2 T02940172
94790KART ART20160626122511106/26/16 12:25:31  5-MIN KART 261725Z AUTO 27010KT 10SM BKN055 30/18 A3008 180 47 2000 280/10 RMK AO2 T03000178
94790KART ART20160626123011106/26/16 12:30:31  5-MIN KART 261730Z AUTO 23007KT 10SM BKN055 29/18 A3008 180 49 1900 250/07 RMK AO2 T02940178
94790KART ART20160626123513306/26/16 12:35:31  5-MIN KART 261735Z AUTO 20011G15KT 170V230 10SM SCT060 31/17 A3008 190 42 2000 210/11G15 180V240 RMK AO2 T03060167
94790KART ART20160626124011706/26/16 12:40:31  5-MIN KART 261740Z AUTO 20010G16KT 10SM SCT060 30/16 A3007 190 41 2000 220/10G16 RMK AO2 T03000156
94790KART ART20160626124511706/26/16 12:45:31  5-MIN KART 261745Z AUTO 20010G16KT 10SM SCT060 31/16 A3007 190 41 2100 220/10G16 RMK AO2 T03060161
94790KART ART20160626125014206/26/16 12:50:31  5-MIN KART 261750Z AUTO 23011G17KT 10SM FEW060 31/16 A3007 190 40 2100 250/11G17 RMK AO2 SLP178 T03110161 10311 20233 51003
94790KART ART20160626125514206/26/16 12:55:31  5-MIN KART 261755Z AUTO 23009G17KT 10SM SCT060 32/16 A3007 190 38 2200 250/09G17 RMK AO2 SLP176 T03170161 10317 20233 51003
94790KART ART20160626130011706/26/16 13:00:31  5-MIN KART 261800Z AUTO 22013G19KT 10SM FEW060 32/16 A3007 190 37 2200 230/13G19 RMK AO2 T03170156
94790KART ART20160626130513306/26/16 13:05:31  5-MIN KART 261805Z AUTO 23009G19KT 190V250 10SM FEW060 31/16 A3007 190 38 2100 240/09G19 200V260 RMK AO2 T03110156
94790KART ART20160626131011706/26/16 13:10:31  5-MIN KART 261810Z AUTO 24013G21KT 10SM FEW060 31/15 A3007 190 37 2100 250/13G21 RMK AO2 T03110150
94790KART ART20160626131511706/26/16 13:15:31  5-MIN KART 261815Z AUTO 22013G21KT 10SM FEW060 32/15 A3007 190 36 2200 230/13G21 RMK AO2 T03170150
94790KART ART20160626132011706/26/16 13:20:31  5-MIN KART 261820Z AUTO 24012G20KT 10SM FEW060 31/16 A3006 200 38 2100 260/12G20 RMK AO2 T03110156
94790KART ART20160626132511706/26/16 13:25:31  5-MIN KART 261825Z AUTO 23010G19KT 10SM FEW060 32/16 A3006 200 38 2200 240/10G19 RMK AO2 T03170161
94790KART ART20160626133011706/26/16 13:30:31  5-MIN KART 261830Z AUTO 22013G21KT 10SM SCT065 32/16 A3006 200 37 2200 230/13G21 RMK AO2 T03170156
94790KART ART20160626133512406/26/16 13:35:31  5-MIN KART 261835Z AUTO 22012G21KT 10SM FEW002 SCT065 32/14 A3006 200 34 2200 240/12G21 RMK AO2 T03170144
94790KART ART20160626134012406/26/16 13:40:31  5-MIN KART 261840Z AUTO 20014G20KT 10SM FEW002 FEW065 32/15 A3006 200 36 2200 220/14G20 RMK AO2 T03170150
94790KART ART20160626134511706/26/16 13:45:31  5-MIN KART 261845Z AUTO 20012G18KT 10SM FEW065 31/14 A3006 200 35 2100 220/12G18 RMK AO2 T03110144
94790KART ART20160626135012406/26/16 13:50:31  5-MIN KART 261850Z AUTO 21013G20KT 10SM FEW065 31/14 A3006 200 35 2100 220/13G20 RMK AO2 SLP173 T03110144
94790KART ART20160626135512406/26/16 13:55:31  5-MIN KART 261855Z AUTO 21015G20KT 10SM FEW065 32/14 A3006 200 34 2200 230/15G20 RMK AO2 SLP173 T03170144
94790KART ART20160626140011706/26/16 14:00:31  5-MIN KART 261900Z AUTO 21011G19KT 10SM FEW065 31/14 A3005 210 34 2100 220/11G19 RMK AO2 T03110139
94790KART ART20160626140511706/26/16 14:05:31  5-MIN KART 261905Z AUTO 21011G17KT 10SM FEW065 32/14 A3005 210 34 2200 230/11G17 RMK AO2 T03170144
94790KART ART20160626141011706/26/16 14:10:31  5-MIN KART 261910Z AUTO 20011G18KT 10SM FEW065 32/14 A3005 210 33 2200 220/11G18 RMK AO2 T03170139
94790KART ART20160626141511406/26/16 14:15:31  5-MIN KART 261915Z AUTO 22012G18KT 10SM CLR 32/14 A3005 210 33 2200 230/12G18 RMK AO2 T03170139
94790KART ART20160626142011406/26/16 14:20:31  5-MIN KART 261920Z AUTO 21012G19KT 10SM CLR 32/14 A3004 220 33 2200 220/12G19 RMK AO2 T03170139
94790KART ART20160626142511406/26/16 14:25:31  5-MIN KART 261925Z AUTO 23015G19KT 10SM CLR 32/14 A3004 220 33 2200 240/15G19 RMK AO2 T03170139
94790KART ART20160626143011406/26/16 14:30:31  5-MIN KART 261930Z AUTO 19012G19KT 10SM CLR 32/13 A3004 220 32 2200 210/12G19 RMK AO2 T03170133
94790KART ART20160626143513006/26/16 14:35:31  5-MIN KART 261935Z AUTO 19011G19KT 150V230 10SM CLR 31/13 A3004 220 33 2200 200/11G19 160V240 RMK AO2 T03110133
94790KART ART20160626144011406/26/16 14:40:31  5-MIN KART 261940Z AUTO 22010G19KT 10SM CLR 32/14 A3003 220 33 2200 230/10G19 RMK AO2 T03170139
94790KART ART20160626144511406/26/16 14:45:31  5-MIN KART 261945Z AUTO 22010G16KT 10SM CLR 32/13 A3003 230 32 2200 230/10G16 RMK AO2 T03170133
94790KART ART20160626145012106/26/16 14:50:31  5-MIN KART 261950Z AUTO 21011G17KT 10SM CLR 31/13 A3003 230 33 2200 220/11G17 RMK AO2 SLP164 T03110133
94790KART ART20160626145512106/26/16 14:55:31  5-MIN KART 261955Z AUTO 22008G17KT 10SM CLR 31/13 A3003 230 33 2200 230/08G17 RMK AO2 SLP163 T03110133
94790KART ART20160626150011406/26/16 15:00:31  5-MIN KART 262000Z AUTO 21011G18KT 10SM CLR 32/13 A3003 230 32 2200 220/11G18 RMK AO2 T03170133
94790KART ART20160626150511406/26/16 15:05:31  5-MIN KART 262005Z AUTO 21010G18KT 10SM CLR 32/13 A3003 230 32 2200 220/10G18 RMK AO2 T03170133
94790KART ART20160626151011406/26/16 15:10:31  5-MIN KART 262010Z AUTO 22012G18KT 10SM CLR 32/13 A3003 230 31 2200 240/12G18 RMK AO2 T03170128
94790KART ART20160626151511606/26/16 15:15:31  5-MIN KART 262015Z AUTO 21009G18KT 10SM CLR 32/13 A3003 230 31 2300 220/09G18 RMK AO2 T03220133 $
94790KART ART20160626152011606/26/16 15:20:31  5-MIN KART 262020Z AUTO 21009G18KT 10SM CLR 32/14 A3003 230 33 2200 220/09G18 RMK AO2 T03170139 $
94790KART ART20160626152511006/26/16 15:25:31  5-MIN KART 262025Z AUTO 20009KT 10SM CLR 32/13 A3003 230 32 2200 210/09 RMK AO2 T03170133 $
94790KART ART20160626153011606/26/16 15:30:31  5-MIN KART 262030Z AUTO 22013G17KT 10SM CLR 31/13 A3002 240 33 2200 230/13G17 RMK AO2 T03110133 $
94790KART ART20160626153511606/26/16 15:35:31  5-MIN KART 262035Z AUTO 21009G17KT 10SM CLR 31/13 A3002 240 33 2200 220/09G17 RMK AO2 T03110133 $
94790KART ART20160626154011006/26/16 15:40:31  5-MIN KART 262040Z AUTO 22010KT 10SM CLR 32/14 A3002 240 33 2200 230/10 RMK AO2 T03170139 $
94790KART ART20160626154511006/26/16 15:45:31  5-MIN KART 262045Z AUTO 22012KT 10SM CLR 32/13 A3001 240 32 2200 240/12 RMK AO2 T03170133 $
94790KART ART20160626155012306/26/16 15:50:31  5-MIN KART 262050Z AUTO 21011KT 10SM CLR 32/13 A3001 240 32 2200 230/11 RMK AO2 SLP158 T03170133 58018 $
94790KART ART20160626155512306/26/16 15:55:31  5-MIN KART 262055Z AUTO 21011KT 10SM CLR 32/13 A3001 240 32 2200 230/11 RMK AO2 SLP158 T03170133 58018 $
94790KART ART20160626160011606/26/16 16:00:31  5-MIN KART 262100Z AUTO 21010G18KT 10SM CLR 32/13 A3001 250 32 2200 220/10G18 RMK AO2 T03170133 $
94790KART ART20160626160511606/26/16 16:05:31  5-MIN KART 262105Z AUTO 22011G18KT 10SM CLR 32/13 A3001 250 32 2200 230/11G18 RMK AO2 T03170133 $
94790KART ART20160626161011606/26/16 16:10:31  5-MIN KART 262110Z AUTO 20010G19KT 10SM CLR 32/13 A3001 250 32 2200 210/10G19 RMK AO2 T03170133 $
94790KART ART20160626161511606/26/16 16:15:31  5-MIN KART 262115Z AUTO 21008G19KT 10SM CLR 31/13 A3001 250 33 2200 220/08G19 RMK AO2 T03110133 $
94790KART ART20160626162011006/26/16 16:20:31  5-MIN KART 262120Z AUTO 22013KT 10SM CLR 31/13 A3000 250 33 2200 230/13 RMK AO2 T03110133 $
94790KART ART20160626162511606/26/16 16:25:31  5-MIN KART 262125Z AUTO 21009G18KT 10SM CLR 31/13 A3000 260 33 2200 220/09G18 RMK AO2 T03110133 $
94790KART ART20160626163011606/26/16 16:30:31  5-MIN KART 262130Z AUTO 21009G18KT 10SM CLR 31/13 A3000 260 34 2100 230/09G18 RMK AO2 T03060133 $
94790KART ART20160626163511006/26/16 16:35:31  5-MIN KART 262135Z AUTO 22011KT 10SM CLR 31/13 A3000 260 34 2100 230/11 RMK AO2 T03060133 $
94790KART ART20160626164011006/26/16 16:40:31  5-MIN KART 262140Z AUTO 21010KT 10SM CLR 31/13 A3000 260 34 2100 230/10 RMK AO2 T03060133 $
94790KART ART20160626164511006/26/16 16:45:31  5-MIN KART 262145Z AUTO 21009KT 10SM CLR 30/13 A3000 260 35 2100 220/09 RMK AO2 T03000133 $
94790KART ART20160626165012306/26/16 16:50:31  5-MIN KART 262150Z AUTO 21007G17KT 10SM CLR 30/13 A3000 260 35 2100 220/07G17 RMK AO2 SLP153 T03000133 $
94790KART ART20160626165512306/26/16 16:55:31  5-MIN KART 262155Z AUTO 20006G15KT 10SM CLR 30/14 A2999 260 36 2100 220/06G15 RMK AO2 SLP152 T03000139 $
94790KART ART20160626170011006/26/16 17:00:31  5-MIN KART 262200Z AUTO 21007KT 10SM CLR 30/14 A2999 260 36 2100 220/07 RMK AO2 T03000139 $
94790KART ART20160626170511006/26/16 17:05:31  5-MIN KART 262205Z AUTO 20005KT 10SM CLR 31/14 A2999 270 37 2100 210/05 RMK AO2 T03060144 $
94790KART ART20160626171011006/26/16 17:10:31  5-MIN KART 262210Z AUTO 21008KT 10SM CLR 31/14 A2999 270 37 2100 220/08 RMK AO2 T03060144 $
94790KART ART20160626171511006/26/16 17:15:31  5-MIN KART 262215Z AUTO 19007KT 10SM CLR 31/14 A2998 270 35 2200 200/07 RMK AO2 T03110144 $
94790KART ART20160626172011006/26/16 17:20:31  5-MIN KART 262220Z AUTO 20007KT 10SM CLR 31/14 A2998 270 35 2200 210/07 RMK AO2 T03110144 $
94790KART ART20160626172511606/26/16 17:25:31  5-MIN KART 262225Z AUTO 20010G15KT 10SM CLR 31/14 A2998 270 35 2200 210/10G15 RMK AO2 T03110144 $
94790KART ART20160626173011606/26/16 17:30:31  5-MIN KART 262230Z AUTO 19005G15KT 10SM CLR 31/14 A2998 280 37 2200 200/05G15 RMK AO2 T03060144 $
94790KART ART20160626173511006/26/16 17:35:31  5-MIN KART 262235Z AUTO 19007KT 10SM CLR 31/14 A2998 280 35 2200 200/07 RMK AO2 T03060139 $
94790KART ART20160626174011006/26/16 17:40:31  5-MIN KART 262240Z AUTO 20006KT 10SM CLR 31/14 A2998 280 35 2200 210/06 RMK AO2 T03060139 $
94790KART ART20160626174511006/26/16 17:45:31  5-MIN KART 262245Z AUTO 19007KT 10SM CLR 31/14 A2998 280 35 2200 200/07 RMK AO2 T03060139 $
94790KART ART20160626175011706/26/16 17:50:31  5-MIN KART 262250Z AUTO 19008KT 10SM CLR 30/14 A2998 280 36 2100 210/08 RMK AO2 SLP145 T03000139 $
94790KART ART20160626175511706/26/16 17:55:31  5-MIN KART 262255Z AUTO 19005KT 10SM CLR 30/13 A2997 280 35 2100 200/05 RMK AO2 SLP144 T03000133 $
94790KART ART20160626180011006/26/16 18:00:31  5-MIN KART 262300Z AUTO 19005KT 10SM CLR 30/13 A2997 280 35 2100 200/05 RMK AO2 T03000133 $
94790KART ART20160626180511006/26/16 18:05:31  5-MIN KART 262305Z AUTO 18006KT 10SM CLR 29/13 A2997 280 36 2000 200/06 RMK AO2 T02940133 $
94790KART ART20160626181011006/26/16 18:10:31  5-MIN KART 262310Z AUTO 18005KT 10SM CLR 29/13 A2997 290 36 2100 200/05 RMK AO2 T02940133 $
94790KART ART20160626181511306/26/16 18:15:31  5-MIN KART 262315Z AUTO 18005KT 10SM FEW002 29/13 A2996 290 36 2100 190/05 RMK AO2 T02940133 $
94790KART ART20160626182011306/26/16 18:20:31  5-MIN KART 262320Z AUTO 17005KT 10SM FEW002 29/13 A2996 290 38 2000 180/05 RMK AO2 T02890133 $
94790KART ART20160626182511006/26/16 18:25:31  5-MIN KART 262325Z AUTO 17003KT 10SM CLR 29/13 A2996 300 38 2000 190/03 RMK AO2 T02890133 $
94790KART ART20160626183011006/26/16 18:30:31  5-MIN KART 262330Z AUTO 17004KT 10SM CLR 29/14 A2996 300 39 2000 190/04 RMK AO2 T02890139 $
94790KART ART20160626183511006/26/16 18:35:31  5-MIN KART 262335Z AUTO 17004KT 10SM CLR 29/14 A2996 300 39 2000 180/04 RMK AO2 T02890139 $
94790KART ART20160626184011006/26/16 18:40:31  5-MIN KART 262340Z AUTO 17004KT 10SM CLR 29/14 A2995 300 39 2000 180/04 RMK AO2 T02890139 $
94790KART ART20160626184511006/26/16 18:45:31  5-MIN KART 262345Z AUTO 16005KT 10SM CLR 29/14 A2995 300 39 2000 180/05 RMK AO2 T02890139 $
94790KART ART20160626185013506/26/16 18:50:31  5-MIN KART 262350Z AUTO 17004KT 10SM CLR 28/14 A2995 300 42 1900 180/04 RMK AO2 SLP136 T02830144 10322 20283 58019 $
94790KART ART20160626185513506/26/16 18:55:31  5-MIN KART 262355Z AUTO 16004KT 10SM CLR 28/14 A2996 300 42 1900 170/04 RMK AO2 SLP137 T02830144 10322 20283 58019 $
94790KART ART20160626190011006/26/16 19:00:31  5-MIN KART 270000Z AUTO 16005KT 10SM CLR 28/14 A2995 300 42 1900 180/05 RMK AO2 T02830144 $
94790KART ART20160626190511006/26/16 19:05:31  5-MIN KART 270005Z AUTO 16005KT 10SM CLR 28/14 A2995 300 43 1900 180/05 RMK AO2 T02780144 $
94790KART ART20160626191011006/26/16 19:10:31  5-MIN KART 270010Z AUTO 16004KT 10SM CLR 28/14 A2995 300 43 1900 180/04 RMK AO2 T02780144 $
94790KART ART20160626191511006/26/16 19:15:31  5-MIN KART 270015Z AUTO 16004KT 10SM CLR 28/14 A2995 300 43 1900 170/04 RMK AO2 T02780144 $
94790KART ART20160626192011006/26/16 19:20:31  5-MIN KART 270020Z AUTO 16005KT 10SM CLR 28/14 A2995 300 43 1900 170/05 RMK AO2 T02780144 $
94790KART ART20160626192511006/26/16 19:25:31  5-MIN KART 270025Z AUTO 15004KT 10SM CLR 27/14 A2995 300 45 1800 170/04 RMK AO2 T02720144 $
94790KART ART20160626193011006/26/16 19:30:31  5-MIN KART 270030Z AUTO 15004KT 10SM CLR 27/14 A2995 300 45 1800 160/04 RMK AO2 T02720144 $
94790KART ART20160626193511006/26/16 19:35:31  5-MIN KART 270035Z AUTO 16005KT 10SM CLR 27/14 A2995 300 46 1800 170/05 RMK AO2 T02670144 $
94790KART ART20160626194011006/26/16 19:40:31  5-MIN KART 270040Z AUTO 16006KT 10SM CLR 27/14 A2995 300 46 1800 180/06 RMK AO2 T02670144 $
94790KART ART20160626194511006/26/16 19:45:31  5-MIN KART 270045Z AUTO 17006KT 10SM CLR 27/14 A2995 300 45 1800 180/06 RMK AO2 T02720144 $
94790KART ART20160626195011706/26/16 19:50:31  5-MIN KART 270050Z AUTO 16005KT 10SM CLR 27/14 A2995 300 45 1800 170/05 RMK AO2 SLP136 T02720144 $
94790KART ART20160626195511706/26/16 19:55:31  5-MIN KART 270055Z AUTO 16007KT 10SM CLR 27/14 A2995 300 45 1800 170/07 RMK AO2 SLP135 T02720144 $
94790KART ART20160626200011006/26/16 20:00:31  5-MIN KART 270100Z AUTO 16006KT 10SM CLR 27/14 A2995 300 46 1800 180/06 RMK AO2 T02670144 $
94790KART ART20160626200511006/26/16 20:05:31  5-MIN KART 270105Z AUTO 17007KT 10SM CLR 27/14 A2995 300 43 1800 180/07 RMK AO2 T02720139 $
94790KART ART20160626201011006/26/16 20:10:31  5-MIN KART 270110Z AUTO 17006KT 10SM CLR 27/14 A2996 300 43 1800 180/06 RMK AO2 T02720139 $
94790KART ART20160626201511006/26/16 20:15:31  5-MIN KART 270115Z AUTO 17004KT 10SM CLR 27/14 A2996 290 43 1800 190/04 RMK AO2 T02720139 $
94790KART ART20160626202011006/26/16 20:20:31  5-MIN KART 270120Z AUTO 17006KT 10SM CLR 27/14 A2996 290 45 1700 180/06 RMK AO2 T02670139 $
94790KART ART20160626202511006/26/16 20:25:31  5-MIN KART 270125Z AUTO 17006KT 10SM CLR 27/14 A2996 290 45 1700 180/06 RMK AO2 T02670139 $
94790KART ART20160626203011006/26/16 20:30:31  5-MIN KART 270130Z AUTO 17007KT 10SM CLR 27/14 A2996 290 45 1700 180/07 RMK AO2 T02670139 $
94790KART ART20160626203511006/26/16 20:35:31  5-MIN KART 270135Z AUTO 17006KT 10SM CLR 27/13 A2996 290 43 1700 180/06 RMK AO2 T02670133 $
94790KART ART20160626204011006/26/16 20:40:31  5-MIN KART 270140Z AUTO VRB06KT 10SM CLR 27/13 A2996 290 43 1700 VRB/06 RMK AO2 T02670133 $
94790KART ART20160626204511006/26/16 20:45:31  5-MIN KART 270145Z AUTO 17005KT 10SM CLR 27/13 A2996 290 42 1800 190/05 RMK AO2 T02720133 $
94790KART ART20160626205011706/26/16 20:50:31  5-MIN KART 270150Z AUTO 17006KT 10SM CLR 27/13 A2996 290 43 1700 180/06 RMK AO2 SLP140 T02670133 $
94790KART ART20160626205511706/26/16 20:55:31  5-MIN KART 270155Z AUTO 18006KT 10SM CLR 27/13 A2997 290 43 1700 190/06 RMK AO2 SLP140 T02670133 $
94790KART ART20160626210011006/26/16 21:00:31  5-MIN KART 270200Z AUTO VRB06KT 10SM CLR 27/13 A2997 290 41 1700 VRB/06 RMK AO2 T02670128 $
94790KART ART20160626210511006/26/16 21:05:31  5-MIN KART 270205Z AUTO 18005KT 10SM CLR 27/13 A2997 290 41 1700 200/05 RMK AO2 T02670128 $
94790KART ART20160626211011006/26/16 21:10:31  5-MIN KART 270210Z AUTO 18006KT 10SM CLR 27/13 A2997 290 41 1700 190/06 RMK AO2 T02670128 $
94790KART ART20160626211511006/26/16 21:15:31  5-MIN KART 270215Z AUTO 17006KT 10SM CLR 27/13 A2997 290 41 1700 190/06 RMK AO2 T02670128 $
94790KART ART20160626212011006/26/16 21:20:31  5-MIN KART 270220Z AUTO 18006KT 10SM CLR 27/13 A2997 290 41 1700 190/06 RMK AO2 T02670128 $
94790KART ART20160626212511006/26/16 21:25:31  5-MIN KART 270225Z AUTO 18007KT 10SM CLR 27/13 A2996 290 41 1700 190/07 RMK AO2 T02670128 $
94790KART ART20160626213011006/26/16 21:30:31  5-MIN KART 270230Z AUTO 18007KT 10SM CLR 27/13 A2996 290 41 1700 190/07 RMK AO2 T02670128 $
94790KART ART20160626213511006/26/16 21:35:31  5-MIN KART 270235Z AUTO 18005KT 10SM CLR 27/13 A2996 290 41 1700 190/05 RMK AO2 T02670128 $
94790KART ART20160626214011006/26/16 21:40:31  5-MIN KART 270240Z AUTO 18007KT 10SM CLR 27/13 A2996 290 41 1700 190/07 RMK AO2 T02670128 $
94790KART ART20160626214511006/26/16 21:45:31  5-MIN KART 270245Z AUTO 19008KT 10SM CLR 27/13 A2996 290 41 1700 200/08 RMK AO2 T02670128 $
94790KART ART20160626215012306/26/16 21:50:31  5-MIN KART 270250Z AUTO 19008KT 10SM CLR 27/13 A2996 290 41 1700 200/08 RMK AO2 SLP139 T02670128 57019 $
94790KART ART20160626215512306/26/16 21:55:31  5-MIN KART 270255Z AUTO 18006KT 10SM CLR 27/13 A2996 290 41 1700 190/06 RMK AO2 SLP138 T02670128 57019 $
94790KART ART20160626220012606/26/16 22:00:31  5-MIN KART 270300Z AUTO 19008KT 150V210 10SM CLR 27/13 A2996 300 41 1800 200/08 160V220 RMK AO2 T02670128 $
94790KART ART20160626220511606/26/16 22:05:31  5-MIN KART 270305Z AUTO 19007G15KT 10SM CLR 27/13 A2996 300 42 1800 200/07G15 RMK AO2 T02720133 $
94790KART ART20160626221011606/26/16 22:10:31  5-MIN KART 270310Z AUTO 19007G15KT 10SM CLR 27/13 A2996 300 42 1800 200/07G15 RMK AO2 T02720133 $
94790KART ART20160626221512606/26/16 22:15:31  5-MIN KART 270315Z AUTO 19008KT 160V230 10SM CLR 27/13 A2996 300 43 1800 200/08 170V240 RMK AO2 T02670133 $
94790KART ART20160626222011606/26/16 22:20:31  5-MIN KART 270320Z AUTO 19008G15KT 10SM CLR 27/13 A2995 300 42 1800 200/08G15 RMK AO2 T02720133 $
94790KART ART20160626222511606/26/16 22:25:31  5-MIN KART 270325Z AUTO 18009G16KT 10SM CLR 27/13 A2995 300 42 1800 200/09G16 RMK AO2 T02720133 $
94790KART ART20160626223011606/26/16 22:30:31  5-MIN KART 270330Z AUTO 18009G20KT 10SM CLR 27/13 A2995 300 42 1800 200/09G20 RMK AO2 T02720133 $
94790KART ART20160626223511606/26/16 22:35:31  5-MIN KART 270335Z AUTO 19008G20KT 10SM CLR 27/13 A2995 300 43 1800 200/08G20 RMK AO2 T02670133 $
94790KART ART20160626224011606/26/16 22:40:31  5-MIN KART 270340Z AUTO 19011G17KT 10SM CLR 27/13 A2995 300 43 1800 210/11G17 RMK AO2 T02670133 $
94790KART ART20160626224511606/26/16 22:45:31  5-MIN KART 270345Z AUTO 19010G17KT 10SM CLR 27/13 A2995 300 43 1800 210/10G17 RMK AO2 T02670133 $
94790KART ART20160626225013906/26/16 22:50:31  5-MIN KART 270350Z AUTO 18009G19KT 160V220 10SM CLR 27/13 A2995 300 43 1800 200/09G19 170V230 RMK AO2 SLP137 T02670133 $
94790KART ART20160626225512306/26/16 22:55:31  5-MIN KART 270355Z AUTO 18009G19KT 10SM CLR 27/13 A2995 300 43 1800 200/09G19 RMK AO2 SLP136 T02670133 $
94790KART ART20160626230011606/26/16 23:00:31  5-MIN KART 270400Z AUTO 19009G17KT 10SM CLR 27/14 A2995 300 45 1800 210/09G17 RMK AO2 T02670139 $
94790KART ART20160626230513206/26/16 23:05:31  5-MIN KART 270405Z AUTO 19009G18KT 150V220 10SM CLR 27/14 A2995 300 45 1800 200/09G18 160V230 RMK AO2 T02670139 $
94790KART ART20160626231011606/26/16 23:10:31  5-MIN KART 270410Z AUTO 18009G19KT 10SM CLR 27/14 A2995 310 45 1800 200/09G19 RMK AO2 T02670139 $
94790KART ART20160626231511606/26/16 23:15:31  5-MIN KART 270415Z AUTO 18008G19KT 10SM CLR 27/14 A2994 310 45 1800 200/08G19 RMK AO2 T02670139 $
94790KART ART20160626232011606/26/16 23:20:31  5-MIN KART 270420Z AUTO 19010G18KT 10SM CLR 27/14 A2994 310 45 1800 200/10G18 RMK AO2 T02670139 $
94790KART ART20160626232511606/26/16 23:25:31  5-MIN KART 270425Z AUTO 18008G18KT 10SM CLR 27/14 A2994 310 45 1800 190/08G18 RMK AO2 T02670139 $
94790KART ART20160626233011606/26/16 23:30:31  5-MIN KART 270430Z AUTO 19009G16KT 10SM CLR 27/14 A2994 310 45 1800 210/09G16 RMK AO2 T02670139 $
94790KART ART20160626233511606/26/16 23:35:31  5-MIN KART 270435Z AUTO 20010G16KT 10SM CLR 27/14 A2994 310 45 1800 210/10G16 RMK AO2 T02670139 $
94790KART ART20160626234011006/26/16 23:40:31  5-MIN KART 270440Z AUTO 20010KT 10SM CLR 26/14 A2994 310 46 1700 220/10 RMK AO2 T02610139 $
94790KART ART20160626234511006/26/16 23:45:31  5-MIN KART 270445Z AUTO 18009KT 10SM CLR 26/14 A2994 310 46 1700 200/09 RMK AO2 T02610139 $
94790KART ART20160626235014906/26/16 23:50:31  5-MIN KART 270450Z AUTO 18010G18KT 160V220 10SM CLR 26/14 A2994 320 46 1700 200/10G18 170V230 RMK AO2 SLP131 T02610139 403220133 $
94790KART ART20160626235513306/26/16 23:55:31  5-MIN KART 270455Z AUTO 19010G20KT 10SM CLR 27/14 A2994 320 45 1800 200/10G20 RMK AO2 SLP131 T02670139 403220133 $
94790KART ART20160627000011606/27/16 00:00:31  5-MIN KART 270500Z AUTO 19010G21KT 10SM CLR 27/14 A2994 320 45 1800 200/10G21 RMK AO2 T02670139 $
94790KART ART20160627000511606/27/16 00:05:31  5-MIN KART 270505Z AUTO 20011G21KT 10SM CLR 27/14 A2993 320 45 1800 210/11G21 RMK AO2 T02670139 $
94790KART ART20160627001011606/27/16 00:10:31  5-MIN KART 270510Z AUTO 19011G18KT 10SM CLR 26/14 A2993 320 46 1700 210/11G18 RMK AO2 T02610139 $
94790KART ART20160627001511606/27/16 00:15:31  5-MIN KART 270515Z AUTO 20011G18KT 10SM CLR 26/14 A2993 320 46 1700 210/11G18 RMK AO2 T02610139 $
94790KART ART20160627002011606/27/16 00:20:31  5-MIN KART 270520Z AUTO 20012G17KT 10SM CLR 26/14 A2993 320 46 1700 210/12G17 RMK AO2 T02610139 $
94790KART ART20160627002511606/27/16 00:25:31  5-MIN KART 270525Z AUTO 19014G25KT 10SM CLR 26/14 A2993 320 46 1700 200/14G25 RMK AO2 T02610139 $
94790KART ART20160627003011606/27/16 00:30:31  5-MIN KART 270530Z AUTO 20009G25KT 10SM CLR 26/14 A2993 320 48 1700 210/09G25 RMK AO2 T02610144 $
94790KART ART20160627003511606/27/16 00:35:31  5-MIN KART 270535Z AUTO 19009G17KT 10SM CLR 26/14 A2993 320 48 1700 200/09G17 RMK AO2 T02610144 $
94790KART ART20160627004011606/27/16 00:40:31  5-MIN KART 270540Z AUTO 20011G18KT 10SM CLR 26/14 A2993 320 48 1700 210/11G18 RMK AO2 T02610144 $
94790KART ART20160627004511606/27/16 00:45:31  5-MIN KART 270545Z AUTO 20012G20KT 10SM CLR 26/14 A2993 320 48 1700 210/12G20 RMK AO2 T02610144 $
94790KART ART20160627005014106/27/16 00:50:31  5-MIN KART 270550Z AUTO 19011G20KT 10SM CLR 26/14 A2993 320 48 1700 210/11G20 RMK AO2 SLP128 T02610144 10283 20261 50001 $
94790KART ART20160627005514106/27/16 00:55:31  5-MIN KART 270555Z AUTO 19011G19KT 10SM CLR 26/14 A2993 320 48 1700 200/11G19 RMK AO2 SLP128 T02610144 10283 20261 50001 $
94790KART ART20160627010011606/27/16 01:00:31  5-MIN KART 270600Z AUTO 20012G21KT 10SM CLR 26/14 A2993 320 48 1700 210/12G21 RMK AO2 T02610144 $
94790KART ART20160627010511606/27/16 01:05:31  5-MIN KART 270605Z AUTO 19011G21KT 10SM CLR 26/14 A2993 320 48 1700 200/11G21 RMK AO2 T02610144 $
94790KART ART20160627011011606/27/16 01:10:31  5-MIN KART 270610Z AUTO 20012G18KT 10SM CLR 26/14 A2993 320 49 1700 210/12G18 RMK AO2 T02560144 $
94790KART ART20160627011511606/27/16 01:15:31  5-MIN KART 270615Z AUTO 19012G20KT 10SM CLR 26/14 A2992 330 49 1700 200/12G20 RMK AO2 T02560144 $
94790KART ART20160627012011606/27/16 01:20:31  5-MIN KART 270620Z AUTO 19013G21KT 10SM CLR 26/14 A2992 330 49 1700 200/13G21 RMK AO2 T02560144 $
94790KART ART20160627012511606/27/16 01:25:31  5-MIN KART 270625Z AUTO 20012G21KT 10SM CLR 26/14 A2992 330 49 1700 210/12G21 RMK AO2 T02560144 $
94790KART ART20160627013011606/27/16 01:30:31  5-MIN KART 270630Z AUTO 20009G18KT 10SM CLR 26/14 A2992 330 49 1700 210/09G18 RMK AO2 T02560144 $
94790KART ART20160627013511606/27/16 01:35:31  5-MIN KART 270635Z AUTO 20011G18KT 10SM CLR 26/14 A2992 330 49 1700 210/11G18 RMK AO2 T02560144 $
94790KART ART20160627014013206/27/16 01:40:31  5-MIN KART 270640Z AUTO 18010G18KT 150V210 10SM CLR 25/14 A2992 330 51 1600 190/10G18 160V220 RMK AO2 T02500144 $
94790KART ART20160627014511606/27/16 01:45:31  5-MIN KART 270645Z AUTO 20010G19KT 10SM CLR 25/14 A2992 330 51 1600 210/10G19 RMK AO2 T02500144 $
94790KART ART20160627015012306/27/16 01:50:31  5-MIN KART 270650Z AUTO 21009G19KT 10SM CLR 25/14 A2992 330 51 1600 220/09G19 RMK AO2 SLP124 T02500144 $
94790KART ART20160627015512606/27/16 01:55:31  5-MIN KART 270655Z AUTO 20008G15KT 10SM FEW065 25/14 A2992 330 51 1600 220/08G15 RMK AO2 SLP123 T02500144 $
94790KART ART20160627020011906/27/16 02:00:31  5-MIN KART 270700Z AUTO 20009G16KT 10SM SCT065 25/14 A2992 330 51 1600 210/09G16 RMK AO2 T02500144 $
94790KART ART20160627020513506/27/16 02:05:31  5-MIN KART 270705Z AUTO 19012G18KT 140V210 10SM SCT065 25/14 A2991 340 51 1600 200/12G18 150V220 RMK AO2 T02500144 $
94790KART ART20160627021011906/27/16 02:10:31  5-MIN KART 270710Z AUTO 19011G18KT 10SM BKN060 25/14 A2991 340 51 1600 200/11G18 RMK AO2 T02500144 $
94790KART ART20160627021511906/27/16 02:15:31  5-MIN KART 270715Z AUTO 23010G17KT 10SM SCT060 25/14 A2991 340 51 1600 240/10G17 RMK AO2 T02500144 $
94790KART ART20160627022011906/27/16 02:20:31  5-MIN KART 270720Z AUTO 19013G18KT 10SM SCT060 25/14 A2991 340 51 1600 200/13G18 RMK AO2 T02500144 $
94790KART ART20160627022511906/27/16 02:25:31  5-MIN KART 270725Z AUTO 20014G22KT 10SM SCT060 25/14 A2991 340 51 1600 210/14G22 RMK AO2 T02500144 $
94790KART ART20160627023011906/27/16 02:30:31  5-MIN KART 270730Z AUTO 20010G22KT 10SM FEW060 25/14 A2991 340 51 1600 210/10G22 RMK AO2 T02500144 $
94790KART ART20160627023511906/27/16 02:35:31  5-MIN KART 270735Z AUTO 21008G19KT 10SM FEW065 25/14 A2991 340 51 1600 220/08G19 RMK AO2 T02500144 $
94790KART ART20160627024011306/27/16 02:40:31  5-MIN KART 270740Z AUTO 21010KT 10SM FEW070 25/15 A2991 340 53 1600 220/10 RMK AO2 T02500150 $
94790KART ART20160627024511906/27/16 02:45:31  5-MIN KART 270745Z AUTO 20011G17KT 10SM FEW070 25/15 A2991 340 53 1600 220/11G17 RMK AO2 T02500150 $
94790KART ART20160627025012606/27/16 02:50:31  5-MIN KART 270750Z AUTO 20009G17KT 10SM SCT070 25/15 A2991 340 53 1600 220/09G17 RMK AO2 SLP122 T02500150 $
94790KART ART20160627025512606/27/16 02:55:31  5-MIN KART 270755Z AUTO 20010G18KT 10SM SCT070 25/14 A2991 340 51 1600 220/10G18 RMK AO2 SLP121 T02500144 $
94790KART ART20160627030012606/27/16 03:00:31  5-MIN KART 270800Z AUTO 19008G18KT 10SM FEW070 SCT110 25/14 A2991 340 51 1600 200/08G18 RMK AO2 T02500144 $
94790KART ART20160627030512606/27/16 03:05:31  5-MIN KART 270805Z AUTO 20008G17KT 10SM SCT070 BKN110 24/14 A2991 340 53 1500 220/08G17 RMK AO2 T02440144 $
94790KART ART20160627031013306/27/16 03:10:31  5-MIN KART 270810Z AUTO 19009G18KT 10SM FEW050 BKN075 BKN110 24/14 A2991 340 53 1500 210/09G18 RMK AO2 T02440144 $
94790KART ART20160627031514906/27/16 03:15:31  5-MIN KART 270815Z AUTO 19008G18KT 150V220 10SM SCT055 BKN075 BKN110 24/14 A2992 330 53 1500 210/08G18 160V230 RMK AO2 T02440144 $
94790KART ART20160627032012706/27/16 03:20:31  5-MIN KART 270820Z AUTO 20010KT 10SM BKN055 BKN075 BKN110 25/14 A2992 330 51 1600 220/10 RMK AO2 T02500144 $
94790KART ART20160627032513306/27/16 03:25:31  5-MIN KART 270825Z AUTO 21008G16KT 10SM FEW043 BKN050 OVC110 24/14 A2992 330 53 1500 220/08G16 RMK AO2 T02440144 $
94790KART ART20160627033013306/27/16 03:30:31  5-MIN KART 270830Z AUTO 20010G18KT 10SM SCT043 BKN050 OVC075 24/14 A2992 330 53 1500 210/10G18 RMK AO2 T02440144 $
94790KART ART20160627033512606/27/16 03:35:31  5-MIN KART 270835Z AUTO 21010G18KT 10SM BKN043 OVC055 24/15 A2993 320 55 1500 220/10G18 RMK AO2 T02440150 $
94790KART ART20160627034013506/27/16 03:40:31  5-MIN KART 270840Z AUTO 23010KT 9SM -RA BKN041 OVC050 24/15 A2993 320 55 1500 240/10 RMK AO2 RAB37 P0000 T02440150 $
94790KART ART20160627034515206/27/16 03:45:31  5-MIN KART 270845Z AUTO 23014G25KT 2 1/2SM +RA BKN041 OVC049 23/16 A2995 310 65 1300 250/14G25 RMK AO2 RAB37 PRESRR P0005 T02280161 $
94790KART ART20160627035017106/27/16 03:50:31  5-MIN KART 270850Z AUTO VRB06G25KT 1 1/4SM +RA FEW032 BKN040 OVC049 21/18 A2994 320 81 1100 VRB/06G25 RMK AO2 RAB37 SLP130 P0009 60009 T02110178 56009 $
94790KART ART20160627035515306/27/16 03:55:31  5-MIN KART 270855Z AUTO 25005KT 1 1/2SM RA BR OVC040 20/18 A2994 310 90 1000 260/05 RMK AO2 RAB37 SLP131 P0010 60010 T02000183 56009 $
94790KART ART20160627040013506/27/16 04:00:31  5-MIN KART 270900Z AUTO VRB06KT 2 1/2SM RA BR BKN040 OVC050 20/18 A2994 310 90 1000 VRB/06 RMK AO2 P0001 T02000183 $
94790KART ART20160627040512906/27/16 04:05:31  5-MIN KART 270905Z AUTO 21007KT 1 1/2SM +RA BR OVC038 21/18 A2994 310 87 1100 230/07 RMK AO2 P0007 T02060183 $
94790KART ART20160627041013406/27/16 04:10:31  5-MIN KART 270910Z AUTO 22007KT 3/4SM +RA BR SCT026 OVC038 20/18 A2995 310 90 1000 230/07 RMK AO2 P0020 T02000183 $
94790KART ART20160627041513406/27/16 04:15:31  5-MIN KART 270915Z AUTO 20005KT 3/4SM +RA BR BKN026 OVC038 20/18 A2994 310 90 1000 220/05 RMK AO2 P0024 T02000183 $
94790KART ART20160627042014106/27/16 04:20:31  5-MIN KART 270920Z AUTO 20005KT 3/4SM +RA BR SCT026 BKN030 OVC040 20/18 A2994 310 90 1000 210/05 RMK AO2 P0033 T02000183 $
94790KART ART20160627042513306/27/16 04:25:31  5-MIN KART 270925Z AUTO 18004KT 3/4SM +RA BR SCT026 OVC035 19/18 A2994 310 93 900 190/04 RMK AO2 P0036 T01940183 $
94790KART ART20160627043013406/27/16 04:30:31  5-MIN KART 270930Z AUTO 19006KT 1 1/2SM RA BR SCT026 OVC035 19/18 A2994 310 93 900 200/06 RMK AO2 P0037 T01940183 $
94790KART ART20160627043513906/27/16 04:35:31  5-MIN KART 270935Z AUTO 18007KT 3SM -RA BR FEW021 SCT026 OVC035 20/18 A2994 320 90 1000 190/07 RMK AO2 P0037 T02000183 $
94790KART ART20160627044013206/27/16 04:40:31  5-MIN KART 270940Z AUTO 17007KT 4SM -RA BR FEW025 OVC035 20/18 A2993 320 90 1000 180/07 RMK AO2 P0038 T02000183 $
94790KART ART20160627044513806/27/16 04:45:31  5-MIN KART 270945Z AUTO 20005KT 3SM RA BR SCT030 BKN037 OVC075 19/18 A2993 320 93 1000 210/05 RMK AO2 P0039 T01940183 $
94790KART ART20160627045014606/27/16 04:50:31  5-MIN KART 270950Z AUTO VRB05KT 3SM -RA BR SCT032 BKN040 OVC070 19/18 A2993 320 90 1000 VRB/05 RMK AO2 SLP130 P0039 T01940178 $
94790KART ART20160627045514606/27/16 04:55:31  5-MIN KART 270955Z AUTO 18006KT 5SM -RA BR FEW020 BKN036 OVC110 19/18 A2993 320 90 1000 190/06 RMK AO2 SLP129 P0039 T01940178 $
94790KART ART20160627050013906/27/16 05:00:31  5-MIN KART 271000Z AUTO 18005KT 4SM -RA BR FEW026 BKN040 BKN075 19/18 A2993 320 90 1000 190/05 RMK AO2 P0001 T01940178 $
94790KART ART20160627050513906/27/16 05:05:31  5-MIN KART 271005Z AUTO VRB06KT 4SM -RA BR SCT035 BKN075 BKN120 19/18 A2993 320 90 1000 VRB/06 RMK AO2 P0001 T01940178 $
94790KART ART20160627051014806/27/16 05:10:31  5-MIN KART 271010Z AUTO 18007G14KT 2 1/2SM RA BR SCT030 SCT050 BKN080 19/18 A2993 330 90 1000 190/07G14 RMK AO2 P0002 T01940178 $
94790KART ART20160627051515106/27/16 05:15:31  5-MIN KART 271015Z AUTO 17008KT 2SM -RA BR FEW035 BKN050 BKN090 19/18 A2992 330 90 1000 190/08 RMK AO2 VIS 1 1/4V4 P0002 T01940178 $
94790KART ART20160627052013906/27/16 05:20:31  5-MIN KART 271020Z AUTO 17007KT 3SM -RA BR SCT033 BKN050 BKN100 19/18 A2992 330 90 1000 180/07 RMK AO2 P0003 T01940178 $
94790KART ART20160627052514306/27/16 05:25:31  5-MIN KART 271025Z AUTO 18006KT 2 1/2SM -RA BR BKN035 BKN050 BKN100 19/18 A2992 330 90 1000 190/06 RMK AO2 P0003 T01940178 $
94790KART ART20160627053013906/27/16 05:30:31  5-MIN KART 271030Z AUTO 17007KT 3SM -RA BR BKN035 BKN050 OVC090 19/18 A2992 330 90 1000 190/07 RMK AO2 P0003 T01940178 $
94790KART ART20160627053513206/27/16 05:35:31  5-MIN KART 271035Z AUTO 19007KT 3SM -RA BR BKN033 OVC050 19/18 A2992 330 93 1000 200/07 RMK AO2 P0004 T01940183 $
94790KART ART20160627054012806/27/16 05:40:31  5-MIN KART 271040Z AUTO 19007KT 2 1/2SM RA BR OVC033 19/18 A2992 330 93 1000 200/07 RMK AO2 P0004 T01940183 $
94790KART ART20160627054513606/27/16 05:45:31  5-MIN KART 271045Z AUTO VRB06KT 2 1/2SM -RA BR BKN029 OVC035 19/18 A2992 330 93 1000 VRB/06 RMK AO2 P0005 T01940183 $
94790KART ART20160627055014306/27/16 05:50:31  5-MIN KART 271050Z AUTO VRB06KT 2 1/2SM -RA BR BKN027 OVC033 19/18 A2992 330 93 1000 VRB/06 RMK AO2 SLP128 P0005 T01940183 $
94790KART ART20160627055513906/27/16 05:55:31  5-MIN KART 271055Z AUTO 20006KT 2SM -RA BR BKN029 OVC035 19/18 A2992 330 93 1000 210/06 RMK AO2 SLP127 P0006 T01940183 $
94790KART ART20160627060013606/27/16 06:00:31  5-MIN KART 271100Z AUTO 19006KT 1 3/4SM -RA BR BKN029 OVC035 19/18 A2992 330 93 1000 210/06 RMK AO2 P0000 T01940183 $
94790KART ART20160627060513606/27/16 06:05:31  5-MIN KART 271105Z AUTO 19007KT 1 3/4SM -RA BR BKN029 OVC035 19/18 A2992 330 93 1000 210/07 RMK AO2 P0001 T01940183 $
94790KART ART20160627061013206/27/16 06:10:31  5-MIN KART 271110Z AUTO 17006KT 2SM -RA BR BKN027 OVC035 20/18 A2992 330 90 1000 180/06 RMK AO2 P0001 T02000183 $
94790KART ART20160627061513606/27/16 06:15:31  5-MIN KART 271115Z AUTO 19005KT 2 1/2SM -RA BR BKN027 OVC034 20/18 A2992 330 90 1000 200/05 RMK AO2 P0002 T02000183 $
94790KART ART20160627062012906/27/16 06:20:31  5-MIN KART 271120Z AUTO VRB04KT 2 1/2SM -RA BR OVC027 20/18 A2992 330 90 1000 VRB/04 RMK AO2 P0002 T02000183 $
94790KART ART20160627062512506/27/16 06:25:31  5-MIN KART 271125Z AUTO 17006KT 3SM -RA BR OVC027 20/18 A2992 330 90 1000 190/06 RMK AO2 P0002 T02000183 $
94790KART ART20160627063012506/27/16 06:30:31  5-MIN KART 271130Z AUTO 19006KT 4SM -RA BR OVC027 20/18 A2992 330 90 1000 210/06 RMK AO2 P0002 T02000183 $
94790KART ART20160627063512506/27/16 06:35:31  5-MIN KART 271135Z AUTO 19005KT 6SM -RA BR OVC026 20/18 A2992 330 90 1000 210/05 RMK AO2 P0002 T02000183 $
94790KART ART20160627064012406/27/16 06:40:31  5-MIN KART 271140Z AUTO VRB03KT 7SM OVC026 20/18 A2992 330 90 1000 VRB/03 RMK AO2 RAE36 P0002 T02000183 $
94790KART ART20160627064512406/27/16 06:45:31  5-MIN KART 271145Z AUTO 18005KT 7SM OVC026 20/18 A2992 330 90 1000 190/05 RMK AO2 RAE36 P0002 T02000183 $
94790KART ART20160627065016106/27/16 06:50:31  5-MIN KART 271150Z AUTO VRB06KT 7SM OVC026 20/18 A2992 330 90 1000 VRB/06 RMK AO2 RAE36 SLP125 P0002 60058 70058 T02000183 10261 20194 53003 $
94790KART ART20160627065516106/27/16 06:55:31  5-MIN KART 271155Z AUTO 18006KT 8SM OVC025 20/18 A2991 340 90 1000 190/06 RMK AO2 RAE36 SLP124 P0002 60058 70058 T02000183 10261 20194 53003 $
94790KART ART20160627070011206/27/16 07:00:31  5-MIN KART 271200Z AUTO 18006KT 8SM OVC025 20/18 A2991 340 90 1000 200/06 RMK AO2 T02000183 $
94790KART ART20160627070511206/27/16 07:05:31  5-MIN KART 271205Z AUTO 18007KT 8SM OVC025 20/18 A2991 340 90 1000 200/07 RMK AO2 T02000183 $
94790KART ART20160627071011206/27/16 07:10:31  5-MIN KART 271210Z AUTO 18005KT 7SM OVC025 20/18 A2991 340 87 1000 200/05 RMK AO2 T02000178 $
94790KART ART20160627071511206/27/16 07:15:31  5-MIN KART 271215Z AUTO 18007KT 7SM OVC025 20/18 A2991 340 87 1000 200/07 RMK AO2 T02000178 $
94790KART ART20160627072011206/27/16 07:20:31  5-MIN KART 271220Z AUTO 19006KT 8SM OVC025 20/18 A2991 340 87 1000 210/06 RMK AO2 T02000178 $
94790KART ART20160627072511006/27/16 07:25:31  5-MIN KART 271225Z AUTO 19007KT 8SM OVC025 20/18 A2991 340 87 1000 200/07 RMK AO2 T02000178
94790KART ART20160627073011006/27/16 07:30:31  5-MIN KART 271230Z AUTO 18007KT 9SM OVC025 21/18 A2991 340 84 1100 200/07 RMK AO2 T02060178
94790KART ART20160627073511006/27/16 07:35:31  5-MIN KART 271235Z AUTO 19007KT 9SM OVC025 20/18 A2991 340 87 1000 200/07 RMK AO2 T02000178
94790KART ART20160627074011006/27/16 07:40:31  5-MIN KART 271240Z AUTO 18007KT 9SM OVC025 21/18 A2991 340 84 1100 200/07 RMK AO2 T02060178
94790KART ART20160627074511706/27/16 07:45:31  5-MIN KART 271245Z AUTO 18005KT 9SM BKN021 OVC027 21/18 A2991 340 84 1100 200/05 RMK AO2 T02060178
94790KART ART20160627075012406/27/16 07:50:31  5-MIN KART 271250Z AUTO 19007KT 8SM BKN021 OVC027 21/18 A2991 340 84 1100 200/07 RMK AO2 SLP123 T02060178
94790KART ART20160627075511706/27/16 07:55:31  5-MIN KART 271255Z AUTO 19008KT 8SM OVC021 21/18 A2991 340 84 1100 200/08 RMK AO2 SLP123 T02060178
94790KART ART20160627080011606/27/16 08:00:31  5-MIN KART 271300Z AUTO 18009G15KT 8SM OVC021 21/18 A2991 340 84 1100 200/09G15 RMK AO2 T02060178
94790KART ART20160627080511606/27/16 08:05:31  5-MIN KART 271305Z AUTO 18009G17KT 9SM OVC021 21/18 A2991 340 84 1100 190/09G17 RMK AO2 T02060178
94790KART ART20160627081011606/27/16 08:10:31  5-MIN KART 271310Z AUTO 18009G17KT 9SM OVC021 21/18 A2991 340 84 1100 190/09G17 RMK AO2 T02060178
94790KART ART20160627081511606/27/16 08:15:31  5-MIN KART 271315Z AUTO 18008G16KT 9SM OVC021 21/18 A2991 340 84 1100 190/08G16 RMK AO2 T02060178
94790KART ART20160627082011006/27/16 08:20:31  5-MIN KART 271320Z AUTO 18008KT 9SM OVC021 21/18 A2991 340 84 1100 200/08 RMK AO2 T02060178
94790KART ART20160627082511006/27/16 08:25:31  5-MIN KART 271325Z AUTO 19007KT 9SM OVC021 21/18 A2991 340 84 1100 200/07 RMK AO2 T02060178
94790KART ART20160627083012606/27/16 08:30:31  5-MIN KART 271330Z AUTO 19007KT 160V220 9SM OVC021 21/18 A2991 340 84 1100 200/07 170V230 RMK AO2 T02060178
94790KART ART20160627083511606/27/16 08:35:31  5-MIN KART 271335Z AUTO 18009G14KT 9SM OVC021 21/18 A2991 340 84 1100 200/09G14 RMK AO2 T02060178
94790KART ART20160627084011606/27/16 08:40:31  5-MIN KART 271340Z AUTO 19009G14KT 9SM OVC021 21/18 A2991 340 84 1100 200/09G14 RMK AO2 T02060178
94790KART ART20160627084511106/27/16 08:45:31  5-MIN KART 271345Z AUTO 19008KT 10SM OVC020 21/18 A2991 340 84 1100 200/08 RMK AO2 T02060178
94790KART ART20160627085011806/27/16 08:50:31  5-MIN KART 271350Z AUTO 18007KT 10SM OVC020 21/18 A2991 340 84 1100 200/07 RMK AO2 SLP123 T02060178
94790KART ART20160627085512406/27/16 08:55:31  5-MIN KART 271355Z AUTO 18008G15KT 10SM OVC020 21/18 A2991 340 84 1100 190/08G15 RMK AO2 SLP123 T02060178
94790KART ART20160627090011706/27/16 09:00:31  5-MIN KART 271400Z AUTO 19009G15KT 10SM OVC020 21/18 A2991 340 84 1100 210/09G15 RMK AO2 T02060178
94790KART ART20160627090511706/27/16 09:05:31  5-MIN KART 271405Z AUTO 19009G16KT 10SM OVC020 21/18 A2991 340 84 1100 210/09G16 RMK AO2 T02060178
94790KART ART20160627091011706/27/16 09:10:31  5-MIN KART 271410Z AUTO 19009G16KT 10SM OVC020 21/17 A2991 340 81 1100 200/09G16 RMK AO2 T02060172
94790KART ART20160627091511706/27/16 09:15:31  5-MIN KART 271415Z AUTO 18009G18KT 10SM OVC020 21/17 A2991 340 81 1100 200/09G18 RMK AO2 T02060172
94790KART ART20160627092011706/27/16 09:20:31  5-MIN KART 271420Z AUTO 18008G18KT 10SM OVC020 21/17 A2991 340 81 1100 200/08G18 RMK AO2 T02060172
94790KART ART20160627092511706/27/16 09:25:31  5-MIN KART 271425Z AUTO 19010G16KT 10SM OVC020 21/17 A2991 340 81 1100 200/10G16 RMK AO2 T02060172
94790KART ART20160627093011706/27/16 09:30:31  5-MIN KART 271430Z AUTO 18009G17KT 10SM OVC020 21/17 A2991 340 81 1100 200/09G17 RMK AO2 T02060172
94790KART ART20160627093513306/27/16 09:35:31  5-MIN KART 271435Z AUTO 19009G17KT 150V220 10SM OVC020 21/18 A2991 340 84 1100 200/09G17 160V230 RMK AO2 T02060178
94790KART ART20160627094011606/27/16 09:40:31  5-MIN KART 271440Z AUTO 18010G16KT 9SM OVC018 21/18 A2991 340 84 1100 200/10G16 RMK AO2 T02060178
94790KART ART20160627094511606/27/16 09:45:31  5-MIN KART 271445Z AUTO 19007G16KT 9SM OVC018 21/18 A2991 340 84 1100 200/07G16 RMK AO2 T02060178
94790KART ART20160627095012906/27/16 09:50:31  5-MIN KART 271450Z AUTO 19008G14KT 9SM OVC018 21/18 A2991 340 84 1100 200/08G14 RMK AO2 SLP123 T02060178 57009
94790KART ART20160627095512906/27/16 09:55:31  5-MIN KART 271455Z AUTO 19006G16KT 9SM OVC016 21/18 A2991 340 84 1100 200/06G16 RMK AO2 SLP122 T02060178 57009
94790KART ART20160627100011706/27/16 10:00:31  5-MIN KART 271500Z AUTO 18010G16KT 10SM OVC016 21/18 A2991 340 84 1200 200/10G16 RMK AO2 T02110183
94790KART ART20160627100511706/27/16 10:05:31  5-MIN KART 271505Z AUTO 19008G16KT 10SM OVC016 21/18 A2991 340 81 1200 200/08G16 RMK AO2 T02110178
94790KART ART20160627101011706/27/16 10:10:31  5-MIN KART 271510Z AUTO 19009G16KT 10SM OVC017 22/18 A2991 340 81 1200 210/09G16 RMK AO2 T02170183
94790KART ART20160627101511606/27/16 10:15:31  5-MIN KART 271515Z AUTO 18008G15KT 9SM OVC017 21/18 A2990 350 84 1200 190/08G15 RMK AO2 T02110183
94790KART ART20160627102011606/27/16 10:20:31  5-MIN KART 271520Z AUTO 19008G17KT 9SM OVC017 21/18 A2991 340 84 1200 200/08G17 RMK AO2 T02110183
94790KART ART20160627102511606/27/16 10:25:31  5-MIN KART 271525Z AUTO 19010G17KT 9SM OVC017 22/18 A2991 340 81 1200 200/10G17 RMK AO2 T02170183
94790KART ART20160627103011606/27/16 10:30:31  5-MIN KART 271530Z AUTO 18009G17KT 9SM OVC017 22/18 A2991 340 81 1200 190/09G17 RMK AO2 T02170183
94790KART ART20160627103511606/27/16 10:35:31  5-MIN KART 271535Z AUTO 18009G16KT 9SM OVC017 22/19 A2990 350 81 1300 190/09G16 RMK AO2 T02220189
94790KART ART20160627104011606/27/16 10:40:31  5-MIN KART 271540Z AUTO 20009G14KT 9SM OVC015 22/18 A2991 340 78 1300 210/09G14 RMK AO2 T02220183
94790KART ART20160627104511606/27/16 10:45:31  5-MIN KART 271545Z AUTO 20011G17KT 7SM OVC015 22/18 A2991 340 81 1200 210/11G17 RMK AO2 T02170183
94790KART ART20160627105012306/27/16 10:50:31  5-MIN KART 271550Z AUTO 19010G18KT 7SM OVC015 22/18 A2991 340 81 1200 200/10G18 RMK AO2 SLP121 T02170183
94790KART ART20160627105512306/27/16 10:55:31  5-MIN KART 271555Z AUTO 20009G18KT 9SM OVC015 22/19 A2991 340 81 1300 210/09G18 RMK AO2 SLP122 T02220189
94790KART ART20160627110011606/27/16 11:00:31  5-MIN KART 271600Z AUTO 19010G17KT 9SM OVC015 22/19 A2990 340 81 1300 200/10G17 RMK AO2 T02220189
94790KART ART20160627110511606/27/16 11:05:31  5-MIN KART 271605Z AUTO 19009G17KT 9SM OVC014 22/19 A2990 350 81 1300 210/09G17 RMK AO2 T02220189
94790KART ART20160627111011606/27/16 11:10:31  5-MIN KART 271610Z AUTO 19010G17KT 9SM OVC014 22/19 A2990 350 81 1300 210/10G17 RMK AO2 T02220189
94790KART ART20160627111511606/27/16 11:15:31  5-MIN KART 271615Z AUTO 19012G18KT 9SM OVC014 23/19 A2990 350 78 1400 210/12G18 RMK AO2 T02280189
94790KART ART20160627112011606/27/16 11:20:31  5-MIN KART 271620Z AUTO 19008G19KT 9SM OVC015 23/19 A2990 350 78 1400 210/08G19 RMK AO2 T02280189
94790KART ART20160627112513206/27/16 11:25:31  5-MIN KART 271625Z AUTO 19008G19KT 160V220 9SM OVC015 22/18 A2990 350 78 1300 210/08G19 170V230 RMK AO2 T02220183
94790KART ART20160627113011606/27/16 11:30:31  5-MIN KART 271630Z AUTO 20009G20KT 8SM OVC015 22/18 A2990 350 78 1300 210/09G20 RMK AO2 T02220183
94790KART ART20160627113511606/27/16 11:35:31  5-MIN KART 271635Z AUTO 20012G20KT 8SM OVC015 22/19 A2990 350 81 1300 210/12G20 RMK AO2 T02220189
94790KART ART20160627114011606/27/16 11:40:31  5-MIN KART 271640Z AUTO 19010G17KT 8SM OVC015 23/19 A2990 350 78 1400 200/10G17 RMK AO2 T02280189
94790KART ART20160627114511606/27/16 11:45:31  5-MIN KART 271645Z AUTO 20011G19KT 8SM OVC015 23/19 A2990 350 78 1400 210/11G19 RMK AO2 T02280189
94790KART ART20160627115012306/27/16 11:50:31  5-MIN KART 271650Z AUTO 20012G19KT 8SM OVC015 23/19 A2990 350 78 1400 210/12G19 RMK AO2 SLP120 T02280189
94790KART ART20160627115512306/27/16 11:55:31  5-MIN KART 271655Z AUTO 19010G19KT 8SM OVC015 23/19 A2990 350 78 1400 210/10G19 RMK AO2 SLP119 T02280189
94790KART ART20160627120011606/27/16 12:00:31  5-MIN KART 271700Z AUTO 19009G19KT 8SM OVC015 23/19 A2990 350 78 1400 210/09G19 RMK AO2 T02280189
94790KART ART20160627120511606/27/16 12:05:31  5-MIN KART 271705Z AUTO 20011G16KT 8SM OVC014 23/19 A2990 350 78 1400 220/11G16 RMK AO2 T02280189
94790KART ART20160627121011606/27/16 12:10:31  5-MIN KART 271710Z AUTO 19008G18KT 7SM OVC014 23/19 A2990 350 78 1400 200/08G18 RMK AO2 T02280189
94790KART ART20160627121511606/27/16 12:15:31  5-MIN KART 271715Z AUTO 20012G19KT 7SM OVC014 23/19 A2990 350 78 1400 210/12G19 RMK AO2 T02280189
94790KART ART20160627122011606/27/16 12:20:31  5-MIN KART 271720Z AUTO 20011G19KT 7SM OVC014 22/19 A2990 350 81 1300 210/11G19 RMK AO2 T02220189
94790KART ART20160627122513206/27/16 12:25:31  5-MIN KART 271725Z AUTO 20011G17KT 150V220 7SM OVC015 22/19 A2990 350 81 1300 210/11G17 160V230 RMK AO2 T02220189
94790KART ART20160627123011606/27/16 12:30:31  5-MIN KART 271730Z AUTO 19009G18KT 7SM OVC015 22/19 A2989 360 81 1300 210/09G18 RMK AO2 T02220189
94790KART ART20160627123511906/27/16 12:35:31  5-MIN KART 271735Z AUTO 20008G18KT 6SM HZ OVC015 23/19 A2989 360 78 1400 210/08G18 RMK AO2 T02280189
94790KART ART20160627124011606/27/16 12:40:31  5-MIN KART 271740Z AUTO 19007G15KT 7SM OVC015 23/19 A2989 360 81 1400 210/07G15 RMK AO2 T02280194
94790KART ART20160627124511006/27/16 12:45:31  5-MIN KART 271745Z AUTO 19007KT 7SM OVC015 23/19 A2989 360 81 1400 200/07 RMK AO2 T02280194
94790KART ART20160627125013506/27/16 12:50:31  5-MIN KART 271750Z AUTO 20009KT 7SM OVC015 23/19 A2989 360 81 1400 210/09 RMK AO2 SLP116 T02280194 10228 20200 58002
94790KART ART20160627125514206/27/16 12:55:31  5-MIN KART 271755Z AUTO 20010KT 7SM BKN015 OVC021 23/19 A2989 360 78 1400 220/10 RMK AO2 SLP116 T02330194 10233 20200 58002
94790KART ART20160627130011706/27/16 13:00:31  5-MIN KART 271800Z AUTO 19008KT 7SM BKN016 BKN021 24/20 A2989 360 78 1500 200/08 RMK AO2 T02390200
94790KART ART20160627130512306/27/16 13:05:31  5-MIN KART 271805Z AUTO 19010G17KT 7SM BKN016 BKN023 24/19 A2988 370 76 1500 200/10G17 RMK AO2 T02390194
94790KART ART20160627131012306/27/16 13:10:31  5-MIN KART 271810Z AUTO 19009G17KT 7SM SCT016 SCT023 24/20 A2988 370 78 1500 200/09G17 RMK AO2 T02390200
94790KART ART20160627131511006/27/16 13:15:31  5-MIN KART 271815Z AUTO 20010KT 7SM FEW018 24/20 A2988 370 76 1600 220/10 RMK AO2 T02440200
94790KART ART20160627132011606/27/16 13:20:31  5-MIN KART 271820Z AUTO 19007G16KT 7SM FEW020 25/20 A2988 370 73 1600 200/07G16 RMK AO2 T02500200
94790KART ART20160627132511606/27/16 13:25:31  5-MIN KART 271825Z AUTO 20011G15KT 7SM FEW021 25/20 A2988 370 73 1600 210/11G15 RMK AO2 T02500200
94790KART ART20160627133011606/27/16 13:30:31  5-MIN KART 271830Z AUTO 19011G18KT 7SM FEW017 24/19 A2988 370 73 1600 200/11G18 RMK AO2 T02440194
94790KART ART20160627133512606/27/16 13:35:31  5-MIN KART 271835Z AUTO 18010G18KT 6SM HZ SCT017 SCT022 24/20 A2988 370 78 1500 200/10G18 RMK AO2 T02390200
94790KART ART20160627134011906/27/16 13:40:31  5-MIN KART 271840Z AUTO 19007G15KT 6SM HZ BKN019 24/20 A2988 370 76 1600 200/07G15 RMK AO2 T02440200
94790KART ART20160627134511006/27/16 13:45:31  5-MIN KART 271845Z AUTO 21008KT 7SM BKN019 25/21 A2988 370 76 1700 220/08 RMK AO2 T02500206
94790KART ART20160627135012006/27/16 13:50:31  5-MIN KART 271850Z AUTO 18007KT 6SM HZ BKN019 25/21 A2988 370 76 1700 200/07 RMK AO2 SLP111 T02500206
94790KART ART20160627135512006/27/16 13:55:31  5-MIN KART 271855Z AUTO 19008KT 6SM HZ OVC020 25/21 A2988 370 76 1700 200/08 RMK AO2 SLP111 T02500206
94790KART ART20160627140011306/27/16 14:00:31  5-MIN KART 271900Z AUTO 20010KT 6SM HZ OVC020 25/21 A2987 370 76 1700 220/10 RMK AO2 T02500206
94790KART ART20160627140511306/27/16 14:05:31  5-MIN KART 271905Z AUTO 21008KT 6SM HZ OVC020 26/21 A2987 370 73 1700 230/08 RMK AO2 T02560206
94790KART ART20160627141012006/27/16 14:10:31  5-MIN KART 271910Z AUTO 20009KT 6SM HZ BKN020 OVC025 26/21 A2987 370 73 1700 210/09 RMK AO2 T02560206
94790KART ART20160627141512006/27/16 14:15:31  5-MIN KART 271915Z AUTO 20010KT 6SM HZ BKN020 OVC025 25/21 A2987 370 76 1700 210/10 RMK AO2 T02500206
94790KART ART20160627142013606/27/16 14:20:31  5-MIN KART 271920Z AUTO 21011KT 170V240 6SM HZ BKN020 BKN026 26/21 A2987 370 73 1700 220/11 180V250 RMK AO2 T02560206
94790KART ART20160627142511706/27/16 14:25:31  5-MIN KART 271925Z AUTO 21010KT 7SM BKN020 BKN028 26/21 A2987 380 73 1700 220/10 RMK AO2 T02560206
94790KART ART20160627143011706/27/16 14:30:31  5-MIN KART 271930Z AUTO 21008KT 7SM BKN020 BKN028 26/21 A2987 380 71 1800 230/08 RMK AO2 T02610206
94790KART ART20160627143511706/27/16 14:35:31  5-MIN KART 271935Z AUTO 22010KT 7SM SCT020 BKN028 27/21 A2987 380 69 1900 230/10 RMK AO2 T02670206
94790KART ART20160627144012306/27/16 14:40:31  5-MIN KART 271940Z AUTO 19010G16KT 7SM SCT020 SCT028 27/21 A2986 380 71 1900 210/10G16 RMK AO2 T02670211
94790KART ART20160627144511606/27/16 14:45:31  5-MIN KART 271945Z AUTO 20010G16KT 8SM FEW020 27/21 A2986 390 69 1900 220/10G16 RMK AO2 T02670206
94790KART ART20160627145012406/27/16 14:50:31  5-MIN KART 271950Z AUTO 20011KT 8SM FEW020 FEW026 27/21 A2986 390 69 1900 210/11 RMK AO2 SLP105 T02670206
94790KART ART20160627145511706/27/16 14:55:31  5-MIN KART 271955Z AUTO 21010KT 8SM FEW022 27/21 A2986 390 69 1900 220/10 RMK AO2 SLP104 T02670206
94790KART ART20160627150011006/27/16 15:00:31  5-MIN KART 272000Z AUTO 20007KT 8SM FEW024 27/21 A2986 390 69 1900 220/07 RMK AO2 T02720211
94790KART ART20160627150511006/27/16 15:05:31  5-MIN KART 272005Z AUTO 20008KT 9SM FEW025 27/21 A2985 390 69 1900 210/08 RMK AO2 T02720211
94790KART ART20160627151011606/27/16 15:10:31  5-MIN KART 272010Z AUTO 22009G14KT 9SM FEW025 27/20 A2985 390 64 1900 230/09G14 RMK AO2 T02720200
94790KART ART20160627151511106/27/16 15:15:31  5-MIN KART 272015Z AUTO 23008KT 10SM FEW025 28/19 A2985 390 58 2100 250/08 RMK AO2 T02830194
94790KART ART20160627152011106/27/16 15:20:31  5-MIN KART 272020Z AUTO 22012KT 10SM FEW024 28/19 A2985 390 56 2100 230/12 RMK AO2 T02830189
94790KART ART20160627152511406/27/16 15:25:31  5-MIN KART 272025Z AUTO 22013G20KT 10SM CLR 28/19 A2985 390 56 2100 240/13G20 RMK AO2 T02830189
94790KART ART20160627153011406/27/16 15:30:31  5-MIN KART 272030Z AUTO 23013G20KT 10SM CLR 28/17 A2985 400 52 2000 240/13G20 RMK AO2 T02780172
94790KART ART20160627153510806/27/16 15:35:31  5-MIN KART 272035Z AUTO 22012KT 10SM CLR 28/18 A2985 400 54 2000 230/12 RMK AO2 T02780178
94790KART ART20160627154011406/27/16 15:40:31  5-MIN KART 272040Z AUTO 24013G18KT 10SM CLR 28/18 A2985 400 52 2100 250/13G18 RMK AO2 T02830178
94790KART ART20160627154511406/27/16 15:45:31  5-MIN KART 272045Z AUTO 23011G18KT 10SM CLR 28/18 A2985 400 52 2100 240/11G18 RMK AO2 T02830178
94790KART ART20160627155012106/27/16 15:50:31  5-MIN KART 272050Z AUTO 24011KT 10SM CLR 28/18 A2985 400 54 2000 250/11 RMK AO2 SLP101 T02780178 58007
94790KART ART20160627155512706/27/16 15:55:31  5-MIN KART 272055Z AUTO 22014G18KT 10SM CLR 28/17 A2984 400 50 2000 230/14G18 RMK AO2 SLP100 T02780167 58007
94790KART ART20160627160011406/27/16 16:00:31  5-MIN KART 272100Z AUTO 22015G19KT 10SM CLR 28/17 A2985 400 50 2000 230/15G19 RMK AO2 T02780167
94790KART ART20160627160511406/27/16 16:05:31  5-MIN KART 272105Z AUTO 22015G19KT 10SM CLR 28/17 A2984 400 50 2000 230/15G19 RMK AO2 T02780167
94790KART ART20160627161010806/27/16 16:10:31  5-MIN KART 272110Z AUTO 23012KT 10SM CLR 28/17 A2985 400 50 2000 240/12 RMK AO2 T02780167
94790KART ART20160627161511406/27/16 16:15:31  5-MIN KART 272115Z AUTO 23011G19KT 10SM CLR 28/16 A2985 400 48 2000 250/11G19 RMK AO2 T02780161
94790KART ART20160627162011406/27/16 16:20:31  5-MIN KART 272120Z AUTO 22013G19KT 10SM CLR 28/16 A2985 400 48 2000 230/13G19 RMK AO2 T02780161
94790KART ART20160627162511406/27/16 16:25:31  5-MIN KART 272125Z AUTO 23012G19KT 10SM CLR 28/16 A2984 400 46 2000 240/12G19 RMK AO2 T02780156
94790KART ART20160627163011406/27/16 16:30:31  5-MIN KART 272130Z AUTO 23013G18KT 10SM CLR 28/15 A2984 400 45 2000 240/13G18 RMK AO2 T02780150
94790KART ART20160627163510806/27/16 16:35:31  5-MIN KART 272135Z AUTO 23013KT 10SM CLR 28/16 A2984 400 46 2000 250/13 RMK AO2 T02780156
94790KART ART20160627164010806/27/16 16:40:31  5-MIN KART 272140Z AUTO 22011KT 10SM CLR 28/16 A2984 400 46 2000 240/11 RMK AO2 T02780156
94790KART ART20160627164510806/27/16 16:45:31  5-MIN KART 272145Z AUTO 24010KT 10SM CLR 28/16 A2984 400 46 2000 250/10 RMK AO2 T02780156
94790KART ART20160627165011506/27/16 16:50:31  5-MIN KART 272150Z AUTO 23011KT 10SM CLR 28/16 A2984 410 46 2000 240/11 RMK AO2 SLP099 T02780156
94790KART ART20160627165511506/27/16 16:55:31  5-MIN KART 272155Z AUTO 23010KT 10SM CLR 28/16 A2984 410 46 2000 240/10 RMK AO2 SLP098 T02780156
94790KART ART20160627170011406/27/16 17:00:31  5-MIN KART 272200Z AUTO 22011G18KT 10SM CLR 28/16 A2984 410 46 2000 240/11G18 RMK AO2 T02780156
94790KART ART20160627170511406/27/16 17:05:31  5-MIN KART 272205Z AUTO 23010G18KT 10SM CLR 28/16 A2984 410 46 2000 240/10G18 RMK AO2 T02780156
94790KART ART20160627171011406/27/16 17:10:31  5-MIN KART 272210Z AUTO 23012G17KT 10SM CLR 28/16 A2984 400 48 2000 240/12G17 RMK AO2 T02780161
94790KART ART20160627171511406/27/16 17:15:31  5-MIN KART 272215Z AUTO 23009G17KT 10SM CLR 28/16 A2984 400 46 2000 240/09G17 RMK AO2 T02780156
94790KART ART20160627172011406/27/16 17:20:31  5-MIN KART 272220Z AUTO 22010G17KT 10SM CLR 28/16 A2984 400 46 2000 240/10G17 RMK AO2 T02780156
94790KART ART20160627172511406/27/16 17:25:31  5-MIN KART 272225Z AUTO 22009G17KT 10SM CLR 28/15 A2984 400 45 2000 240/09G17 RMK AO2 T02780150
94790KART ART20160627173010806/27/16 17:30:31  5-MIN KART 272230Z AUTO 23007KT 10SM CLR 28/16 A2984 400 46 2000 240/07 RMK AO2 T02780156
94790KART ART20160627173510806/27/16 17:35:31  5-MIN KART 272235Z AUTO 23009KT 10SM CLR 28/16 A2984 400 46 2000 250/09 RMK AO2 T02780156
94790KART ART20160627174010806/27/16 17:40:31  5-MIN KART 272240Z AUTO 23009KT 10SM CLR 27/16 A2984 400 48 1900 240/09 RMK AO2 T02720156
94790KART ART20160627174510806/27/16 17:45:31  5-MIN KART 272245Z AUTO 22008KT 10SM CLR 27/16 A2984 400 48 1900 230/08 RMK AO2 T02720156
94790KART ART20160627175011506/27/16 17:50:31  5-MIN KART 272250Z AUTO 22010KT 10SM CLR 27/15 A2984 400 46 1900 230/10 RMK AO2 SLP099 T02720150
94790KART ART20160627175511506/27/16 17:55:31  5-MIN KART 272255Z AUTO 21007KT 10SM CLR 27/15 A2984 400 46 1900 230/07 RMK AO2 SLP099 T02720150
94790KART ART20160627180010806/27/16 18:00:31  5-MIN KART 272300Z AUTO 22007KT 10SM CLR 27/15 A2984 400 46 1900 230/07 RMK AO2 T02720150
94790KART ART20160627180510806/27/16 18:05:31  5-MIN KART 272305Z AUTO 22008KT 10SM CLR 27/15 A2984 400 46 1900 230/08 RMK AO2 T02720150
94790KART ART20160627181010806/27/16 18:10:31  5-MIN KART 272310Z AUTO 20006KT 10SM CLR 27/15 A2984 400 46 1900 210/06 RMK AO2 T02720150
94790KART ART20160627181510806/27/16 18:15:31  5-MIN KART 272315Z AUTO 22006KT 10SM CLR 27/16 A2984 400 50 1900 230/06 RMK AO2 T02670156
94790KART ART20160627182010806/27/16 18:20:31  5-MIN KART 272320Z AUTO 22006KT 10SM CLR 27/16 A2984 400 50 1900 230/06 RMK AO2 T02670156
94790KART ART20160627182511106/27/16 18:25:31  5-MIN KART 272325Z AUTO 22005KT 10SM FEW080 27/16 A2985 400 50 1900 230/05 RMK AO2 T02670156
94790KART ART20160627183011106/27/16 18:30:31  5-MIN KART 272330Z AUTO 21005KT 10SM SCT080 27/16 A2985 400 52 1900 230/05 RMK AO2 T02670161
94790KART ART20160627183511106/27/16 18:35:31  5-MIN KART 272335Z AUTO 21006KT 10SM BKN075 27/16 A2985 400 50 1900 230/06 RMK AO2 T02670156
94790KART ART20160627184011106/27/16 18:40:31  5-MIN KART 272340Z AUTO 21007KT 10SM SCT075 26/16 A2984 400 53 1800 230/07 RMK AO2 T02610161
94790KART ART20160627184511106/27/16 18:45:31  5-MIN KART 272345Z AUTO 22005KT 10SM SCT075 26/16 A2985 400 53 1800 230/05 RMK AO2 T02610161
94790KART ART20160627185013606/27/16 18:50:31  5-MIN KART 272350Z AUTO 21006KT 10SM SCT075 26/16 A2985 400 53 1700 230/06 RMK AO2 SLP102 T02560156 10283 20239 57014
94790KART ART20160627185513606/27/16 18:55:31  5-MIN KART 272355Z AUTO 22005KT 10SM FEW075 26/16 A2985 400 55 1700 230/05 RMK AO2 SLP103 T02560161 10283 20239 57014
94790KART ART20160627190011106/27/16 19:00:31  5-MIN KART 280000Z AUTO 22005KT 10SM FEW075 25/16 A2985 400 57 1700 230/05 RMK AO2 T02500161
94790KART ART20160627190511106/27/16 19:05:31  5-MIN KART 280005Z AUTO 20004KT 10SM SCT075 25/16 A2985 400 57 1700 220/04 RMK AO2 T02500161
94790KART ART20160627191011106/27/16 19:10:31  5-MIN KART 280010Z AUTO 22004KT 10SM SCT075 26/16 A2985 400 53 1700 230/04 RMK AO2 T02560156
94790KART ART20160627191511106/27/16 19:15:31  5-MIN KART 280015Z AUTO 21003KT 10SM BKN075 25/16 A2985 400 55 1700 230/03 RMK AO2 T02500156
94790KART ART20160627192011106/27/16 19:20:31  5-MIN KART 280020Z AUTO 00000KT 10SM BKN075 25/16 A2985 400 57 1700 000/00 RMK AO2 T02500161
94790KART ART20160627192511106/27/16 19:25:31  5-MIN KART 280025Z AUTO 00000KT 10SM BKN075 25/16 A2985 400 57 1700 000/00 RMK AO2 T02500161
94790KART ART20160627193011106/27/16 19:30:31  5-MIN KART 280030Z AUTO 00000KT 10SM BKN075 25/16 A2985 390 57 1700 000/00 RMK AO2 T02500161
94790KART ART20160627193511106/27/16 19:35:31  5-MIN KART 280035Z AUTO 00000KT 10SM BKN075 24/16 A2985 390 59 1600 000/00 RMK AO2 T02440161
94790KART ART20160627194011106/27/16 19:40:31  5-MIN KART 280040Z AUTO 00000KT 10SM BKN075 24/16 A2985 390 61 1600 000/00 RMK AO2 T02390161
94790KART ART20160627194511106/27/16 19:45:31  5-MIN KART 280045Z AUTO 00000KT 10SM BKN075 24/16 A2985 390 61 1600 000/00 RMK AO2 T02390161
94790KART ART20160627195011806/27/16 19:50:31  5-MIN KART 280050Z AUTO 00000KT 10SM BKN075 23/16 A2985 390 63 1500 000/00 RMK AO2 SLP105 T02330161
94790KART ART20160627195511806/27/16 19:55:31  5-MIN KART 280055Z AUTO 00000KT 10SM SCT075 23/17 A2985 390 68 1400 000/00 RMK AO2 SLP105 T02280167
94790KART ART20160627200011106/27/16 20:00:31  5-MIN KART 280100Z AUTO 17004KT 10SM SCT075 23/16 A2986 390 63 1500 180/04 RMK AO2 T02330161
94790KART ART20160627200511106/27/16 20:05:31  5-MIN KART 280105Z AUTO 00000KT 10SM FEW075 24/16 A2986 390 61 1500 000/00 RMK AO2 T02390161
94790KART ART20160627201011106/27/16 20:10:31  5-MIN KART 280110Z AUTO 00000KT 10SM FEW075 23/16 A2986 390 63 1500 000/00 RMK AO2 T02330161
94790KART ART20160627201511106/27/16 20:15:31  5-MIN KART 280115Z AUTO 00000KT 10SM FEW080 23/16 A2986 390 65 1400 000/00 RMK AO2 T02280161
94790KART ART20160627202011106/27/16 20:20:31  5-MIN KART 280120Z AUTO 00000KT 10SM FEW080 22/17 A2986 380 73 1300 000/00 RMK AO2 T02170167
94790KART ART20160627202511106/27/16 20:25:31  5-MIN KART 280125Z AUTO 00000KT 10SM SCT080 23/16 A2986 380 65 1400 000/00 RMK AO2 T02280161
94790KART ART20160627203011106/27/16 20:30:31  5-MIN KART 280130Z AUTO 00000KT 10SM SCT080 23/16 A2987 380 65 1400 000/00 RMK AO2 T02280161
94790KART ART20160627203511106/27/16 20:35:31  5-MIN KART 280135Z AUTO 00000KT 10SM SCT080 23/16 A2987 380 65 1400 000/00 RMK AO2 T02280161
94790KART ART20160627204011106/27/16 20:40:31  5-MIN KART 280140Z AUTO 00000KT 10SM SCT080 22/16 A2987 380 68 1300 000/00 RMK AO2 T02220161
94790KART ART20160627204511106/27/16 20:45:31  5-MIN KART 280145Z AUTO 00000KT 10SM BKN080 23/16 A2987 380 65 1400 000/00 RMK AO2 T02280161
94790KART ART20160627205011806/27/16 20:50:31  5-MIN KART 280150Z AUTO 00000KT 10SM BKN080 23/16 A2987 380 65 1400 000/00 RMK AO2 SLP110 T02280161
94790KART ART20160627205511806/27/16 20:55:31  5-MIN KART 280155Z AUTO 18003KT 10SM SCT085 23/16 A2987 380 65 1400 200/03 RMK AO2 SLP111 T02280161
94790KART ART20160627210011106/27/16 21:00:31  5-MIN KART 280200Z AUTO 00000KT 10SM SCT090 22/17 A2987 370 70 1300 000/00 RMK AO2 T02220167
94790KART ART20160627210511106/27/16 21:05:31  5-MIN KART 280205Z AUTO 00000KT 10SM BKN090 22/17 A2987 370 70 1300 000/00 RMK AO2 T02220167
94790KART ART20160627211011106/27/16 21:10:31  5-MIN KART 280210Z AUTO 00000KT 10SM SCT090 22/17 A2987 370 73 1300 000/00 RMK AO2 T02170167
94790KART ART20160627211511106/27/16 21:15:31  5-MIN KART 280215Z AUTO 00000KT 10SM SCT090 21/17 A2988 370 75 1200 000/00 RMK AO2 T02110167
94790KART ART20160627212011806/27/16 21:20:31  5-MIN KART 280220Z AUTO 00000KT 10SM FEW080 FEW100 22/17 A2988 370 73 1300 000/00 RMK AO2 T02170167
94790KART ART20160627212511806/27/16 21:25:31  5-MIN KART 280225Z AUTO 30003KT 10SM FEW080 SCT100 22/17 A2988 370 73 1300 310/03 RMK AO2 T02170167
94790KART ART20160627213011806/27/16 21:30:31  5-MIN KART 280230Z AUTO 29005KT 10SM FEW080 SCT100 21/17 A2988 370 81 1100 310/05 RMK AO2 T02060172
94790KART ART20160627213511806/27/16 21:35:31  5-MIN KART 280235Z AUTO 28005KT 10SM FEW080 FEW100 21/17 A2988 370 81 1100 290/05 RMK AO2 T02060172
94790KART ART20160627214011106/27/16 21:40:31  5-MIN KART 280240Z AUTO 23004KT 10SM FEW100 22/18 A2988 370 78 1300 240/04 RMK AO2 T02170178
94790KART ART20160627214511106/27/16 21:45:31  5-MIN KART 280245Z AUTO 20005KT 10SM FEW100 21/18 A2988 370 81 1200 210/05 RMK AO2 T02110178
94790KART ART20160627215012406/27/16 21:50:31  5-MIN KART 280250Z AUTO 19003KT 10SM FEW100 21/18 A2988 370 81 1200 210/03 RMK AO2 SLP112 T02110178 53001
94790KART ART20160627215512106/27/16 21:55:31  5-MIN KART 280255Z AUTO 20003KT 10SM CLR 21/18 A2988 370 81 1200 210/03 RMK AO2 SLP112 T02110178 53001
94790KART ART20160627220010806/27/16 22:00:31  5-MIN KART 280300Z AUTO 17003KT 10SM CLR 21/18 A2988 370 84 1200 180/03 RMK AO2 T02110183
94790KART ART20160627220510706/27/16 22:05:31  5-MIN KART 280305Z AUTO 00000KT 9SM CLR 22/19 A2987 370 84 1300 000/00 RMK AO2 T02170189
94790KART ART20160627221010706/27/16 22:10:31  5-MIN KART 280310Z AUTO 00000KT 9SM CLR 21/18 A2987 370 84 1100 000/00 RMK AO2 T02060178
94790KART ART20160627221510706/27/16 22:15:31  5-MIN KART 280315Z AUTO 00000KT 9SM CLR 21/18 A2987 380 87 1200 000/00 RMK AO2 T02060183
94790KART ART20160627222010706/27/16 22:20:31  5-MIN KART 280320Z AUTO 00000KT 9SM CLR 21/18 A2987 370 84 1200 000/00 RMK AO2 T02110183
94790KART ART20160627222510706/27/16 22:25:31  5-MIN KART 280325Z AUTO 21003KT 8SM CLR 21/18 A2987 370 87 1200 220/03 RMK AO2 T02060183
94790KART ART20160627223010706/27/16 22:30:31  5-MIN KART 280330Z AUTO 21004KT 8SM CLR 21/19 A2987 380 87 1200 220/04 RMK AO2 T02110189
94790KART ART20160627223510706/27/16 22:35:31  5-MIN KART 280335Z AUTO VRB05KT 8SM CLR 21/19 A2987 380 87 1200 VRB/05 RMK AO2 T02110189
94790KART ART20160627224010706/27/16 22:40:31  5-MIN KART 280340Z AUTO VRB04KT 8SM CLR 22/19 A2987 380 84 1300 VRB/04 RMK AO2 T02170189
94790KART ART20160627224510706/27/16 22:45:31  5-MIN KART 280345Z AUTO 17004KT 8SM CLR 22/19 A2986 380 84 1300 180/04 RMK AO2 T02170189
94790KART ART20160627225011406/27/16 22:50:31  5-MIN KART 280350Z AUTO VRB04KT 8SM CLR 22/19 A2986 380 84 1300 VRB/04 RMK AO2 SLP108 T02170189
94790KART ART20160627225511406/27/16 22:55:31  5-MIN KART 280355Z AUTO 17004KT 8SM CLR 22/19 A2986 380 84 1300 190/04 RMK AO2 SLP108 T02170189
94790KART ART20160627230010706/27/16 23:00:31  5-MIN KART 280400Z AUTO 19003KT 8SM CLR 22/19 A2986 380 84 1300 200/03 RMK AO2 T02170189
94790KART ART20160627230510706/27/16 23:05:31  5-MIN KART 280405Z AUTO VRB05KT 8SM CLR 22/19 A2986 380 84 1300 VRB/05 RMK AO2 T02170189
94790KART ART20160627231010706/27/16 23:10:31  5-MIN KART 280410Z AUTO 19004KT 8SM CLR 22/19 A2986 380 84 1300 200/04 RMK AO2 T02170189
94790KART ART20160627231510706/27/16 23:15:31  5-MIN KART 280415Z AUTO VRB03KT 8SM CLR 22/19 A2986 380 84 1300 VRB/03 RMK AO2 T02170189
94790KART ART20160627232010706/27/16 23:20:31  5-MIN KART 280420Z AUTO VRB03KT 8SM CLR 22/19 A2986 380 84 1300 VRB/03 RMK AO2 T02170189
94790KART ART20160627232510706/27/16 23:25:31  5-MIN KART 280425Z AUTO VRB03KT 8SM CLR 22/19 A2986 380 84 1300 VRB/03 RMK AO2 T02170189
94790KART ART20160627233010706/27/16 23:30:31  5-MIN KART 280430Z AUTO 00000KT 8SM CLR 22/19 A2986 380 84 1300 000/00 RMK AO2 T02170189
94790KART ART20160627233510706/27/16 23:35:31  5-MIN KART 280435Z AUTO 00000KT 8SM CLR 22/19 A2986 380 84 1300 000/00 RMK AO2 T02170189
94790KART ART20160627234010706/27/16 23:40:31  5-MIN KART 280440Z AUTO 00000KT 8SM CLR 22/19 A2986 380 84 1300 000/00 RMK AO2 T02170189
94790KART ART20160627234510706/27/16 23:45:31  5-MIN KART 280445Z AUTO 20004KT 8SM CLR 22/19 A2986 380 84 1300 210/04 RMK AO2 T02170189
94790KART ART20160627235012406/27/16 23:50:31  5-MIN KART 280450Z AUTO 20004KT 8SM CLR 22/19 A2986 380 84 1300 210/04 RMK AO2 SLP107 T02170189 402830194
94790KART ART20160627235512406/27/16 23:55:31  5-MIN KART 280455Z AUTO VRB06KT 8SM CLR 22/19 A2986 390 84 1300 VRB/06 RMK AO2 SLP107 T02170189 402830194
94790KART ART20160628000010706/28/16 00:00:31  5-MIN KART 280500Z AUTO 19005KT 8SM CLR 22/19 A2986 390 84 1300 210/05 RMK AO2 T02170189
94790KART ART20160628000510706/28/16 00:05:31  5-MIN KART 280505Z AUTO 18005KT 8SM CLR 22/19 A2986 390 84 1300 200/05 RMK AO2 T02170189
94790KART ART20160628001010706/28/16 00:10:31  5-MIN KART 280510Z AUTO 18004KT 8SM CLR 22/19 A2986 390 84 1300 200/04 RMK AO2 T02170189
94790KART ART20160628001510706/28/16 00:15:31  5-MIN KART 280515Z AUTO 18004KT 8SM CLR 22/19 A2986 390 84 1300 200/04 RMK AO2 T02170189
94790KART ART20160628002010706/28/16 00:20:31  5-MIN KART 280520Z AUTO 18003KT 8SM CLR 22/19 A2986 390 84 1300 190/03 RMK AO2 T02170189
94790KART ART20160628002510706/28/16 00:25:31  5-MIN KART 280525Z AUTO 18004KT 8SM CLR 22/19 A2986 390 84 1300 190/04 RMK AO2 T02170189
94790KART ART20160628003010706/28/16 00:30:31  5-MIN KART 280530Z AUTO 17003KT 8SM CLR 22/19 A2985 390 84 1300 180/03 RMK AO2 T02170189
94790KART ART20160628003510706/28/16 00:35:31  5-MIN KART 280535Z AUTO 18003KT 8SM CLR 21/19 A2985 390 87 1200 190/03 RMK AO2 T02110189
94790KART ART20160628004010706/28/16 00:40:31  5-MIN KART 280540Z AUTO VRB03KT 7SM CLR 21/19 A2985 400 87 1200 VRB/03 RMK AO2 T02110189
94790KART ART20160628004511006/28/16 00:45:31  5-MIN KART 280545Z AUTO 19003KT 7SM SCT120 21/19 A2985 390 87 1200 210/03 RMK AO2 T02110189
94790KART ART20160628005013506/28/16 00:50:31  5-MIN KART 280550Z AUTO 19003KT 7SM SCT120 21/19 A2985 400 87 1200 210/03 RMK AO2 SLP103 T02110189 10256 20206 51009
94790KART ART20160628005513506/28/16 00:55:31  5-MIN KART 280555Z AUTO VRB03KT 7SM BKN120 21/19 A2985 400 87 1200 VRB/03 RMK AO2 SLP102 T02110189 10256 20206 51009
94790KART ART20160628010011706/28/16 01:00:31  5-MIN KART 280600Z AUTO 16003KT 7SM FEW090 BKN120 21/19 A2985 400 87 1200 180/03 RMK AO2 T02110189
94790KART ART20160628010511706/28/16 01:05:31  5-MIN KART 280605Z AUTO 19003KT 7SM SCT095 BKN120 21/19 A2985 400 87 1200 200/03 RMK AO2 T02110189
94790KART ART20160628011012406/28/16 01:10:31  5-MIN KART 280610Z AUTO 17004KT 7SM FEW080 BKN095 BKN120 21/19 A2985 400 87 1200 180/04 RMK AO2 T02110189
94790KART ART20160628011512406/28/16 01:15:31  5-MIN KART 280615Z AUTO 18003KT 7SM SCT080 BKN095 BKN120 21/19 A2985 400 87 1200 190/03 RMK AO2 T02110189
94790KART ART20160628012011706/28/16 01:20:31  5-MIN KART 280620Z AUTO VRB03KT 7SM BKN085 BKN120 21/19 A2985 400 87 1200 VRB/03 RMK AO2 T02110189
94790KART ART20160628012511706/28/16 01:25:31  5-MIN KART 280625Z AUTO 18004KT 7SM BKN085 OVC110 21/19 A2984 400 87 1200 190/04 RMK AO2 T02110189
94790KART ART20160628013011706/28/16 01:30:31  5-MIN KART 280630Z AUTO 19004KT 7SM BKN085 OVC110 21/19 A2985 400 87 1200 200/04 RMK AO2 T02110189
94790KART ART20160628013511706/28/16 01:35:31  5-MIN KART 280635Z AUTO 20003KT 7SM BKN085 BKN120 21/19 A2985 400 87 1200 210/03 RMK AO2 T02110189
94790KART ART20160628014011706/28/16 01:40:31  5-MIN KART 280640Z AUTO VRB04KT 7SM BKN085 BKN120 21/19 A2985 400 87 1200 VRB/04 RMK AO2 T02110189
94790KART ART20160628014511706/28/16 01:45:31  5-MIN KART 280645Z AUTO VRB03KT 7SM BKN085 BKN120 21/19 A2985 400 87 1200 VRB/03 RMK AO2 T02110189
94790KART ART20160628015012406/28/16 01:50:31  5-MIN KART 280650Z AUTO VRB03KT 7SM BKN085 BKN110 21/18 A2985 400 84 1200 VRB/03 RMK AO2 SLP101 T02110183
94790KART ART20160628015512406/28/16 01:55:31  5-MIN KART 280655Z AUTO 20003KT 7SM BKN085 BKN110 21/18 A2985 400 84 1200 210/03 RMK AO2 SLP101 T02110183
94790KART ART20160628020011706/28/16 02:00:31  5-MIN KART 280700Z AUTO VRB03KT 7SM SCT085 BKN110 21/18 A2984 400 84 1200 VRB/03 RMK AO2 T02110183
94790KART ART20160628020511706/28/16 02:05:31  5-MIN KART 280705Z AUTO 21003KT 7SM BKN085 BKN100 21/18 A2984 400 84 1200 230/03 RMK AO2 T02110183
94790KART ART20160628021011706/28/16 02:10:31  5-MIN KART 280710Z AUTO 20004KT 7SM SCT085 BKN100 21/18 A2984 400 84 1200 220/04 RMK AO2 T02110183
94790KART ART20160628021511706/28/16 02:15:31  5-MIN KART 280715Z AUTO 19003KT 7SM FEW085 SCT100 21/18 A2984 400 87 1200 200/03 RMK AO2 T02060183
94790KART ART20160628022011706/28/16 02:20:31  5-MIN KART 280720Z AUTO 18003KT 7SM FEW085 FEW100 21/18 A2984 410 87 1200 190/03 RMK AO2 T02060183
94790KART ART20160628022511006/28/16 02:25:31  5-MIN KART 280725Z AUTO 00000KT 7SM FEW080 21/18 A2984 410 87 1200 000/00 RMK AO2 T02060183
94790KART ART20160628023011006/28/16 02:30:31  5-MIN KART 280730Z AUTO 19003KT 7SM FEW080 21/18 A2984 400 87 1200 200/03 RMK AO2 T02060183
94790KART ART20160628023510706/28/16 02:35:31  5-MIN KART 280735Z AUTO 21003KT 7SM CLR 21/18 A2984 400 87 1200 220/03 RMK AO2 T02060183
94790KART ART20160628024010706/28/16 02:40:31  5-MIN KART 280740Z AUTO 23003KT 7SM CLR 21/18 A2984 400 87 1200 250/03 RMK AO2 T02060183
94790KART ART20160628024511306/28/16 02:45:31  5-MIN KART 280745Z AUTO 00000KT 6SM BR FEW120 20/18 A2984 400 87 1100 000/00 RMK AO2 T02000178
94790KART ART20160628025012006/28/16 02:50:31  5-MIN KART 280750Z AUTO 00000KT 6SM HZ SCT120 21/18 A2984 400 84 1200 000/00 RMK AO2 SLP099 T02060178
94790KART ART20160628025512006/28/16 02:55:31  5-MIN KART 280755Z AUTO 00000KT 6SM BR BKN120 20/18 A2984 400 87 1100 000/00 RMK AO2 SLP100 T02000178
94790KART ART20160628030012006/28/16 03:00:31  5-MIN KART 280800Z AUTO 30003KT 6SM BR FEW080 BKN120 21/18 A2984 400 87 1200 310/03 RMK AO2 T02060183
94790KART ART20160628030512006/28/16 03:05:31  5-MIN KART 280805Z AUTO 00000KT 6SM BR FEW080 BKN110 20/18 A2984 400 90 1100 000/00 RMK AO2 T02000183
94790KART ART20160628031012006/28/16 03:10:31  5-MIN KART 280810Z AUTO 29004KT 6SM BR FEW080 OVC110 21/18 A2984 400 87 1200 300/04 RMK AO2 T02060183
94790KART ART20160628031512006/28/16 03:15:31  5-MIN KART 280815Z AUTO 27003KT 6SM BR SCT085 OVC110 21/18 A2984 400 87 1200 280/03 RMK AO2 T02060183
94790KART ART20160628032011706/28/16 03:20:31  5-MIN KART 280820Z AUTO 00000KT 7SM SCT085 OVC110 21/18 A2984 400 87 1200 000/00 RMK AO2 T02060183
94790KART ART20160628032512006/28/16 03:25:31  5-MIN KART 280825Z AUTO 00000KT 6SM BR SCT085 OVC110 21/18 A2985 400 87 1200 000/00 RMK AO2 T02060183
94790KART ART20160628033012006/28/16 03:30:31  5-MIN KART 280830Z AUTO 25003KT 6SM BR SCT085 OVC100 21/18 A2985 400 87 1200 270/03 RMK AO2 T02060183
94790KART ART20160628033512006/28/16 03:35:31  5-MIN KART 280835Z AUTO 00000KT 6SM BR BKN085 OVC100 20/18 A2985 400 90 1100 000/00 RMK AO2 T02000183
94790KART ART20160628034012006/28/16 03:40:31  5-MIN KART 280840Z AUTO 27003KT 6SM BR BKN090 OVC100 20/18 A2985 390 90 1100 290/03 RMK AO2 T02000183
94790KART ART20160628034512006/28/16 03:45:31  5-MIN KART 280845Z AUTO 27004KT 6SM BR SCT090 OVC100 20/18 A2985 390 90 1100 280/04 RMK AO2 T02000183
94790KART ART20160628035012606/28/16 03:50:31  5-MIN KART 280850Z AUTO 00000KT 6SM BR OVC100 21/18 A2985 400 87 1200 000/00 RMK AO2 SLP102 T02060183 58010
94790KART ART20160628035512606/28/16 03:55:31  5-MIN KART 280855Z AUTO 00000KT 6SM BR OVC100 21/18 A2986 390 87 1200 000/00 RMK AO2 SLP104 T02060183 58010
94790KART ART20160628040012006/28/16 04:00:31  5-MIN KART 280900Z AUTO 00000KT 6SM BR SCT080 OVC100 21/18 A2985 390 87 1200 000/00 RMK AO2 T02060183
94790KART ART20160628040511306/28/16 04:05:31  5-MIN KART 280905Z AUTO 28003KT 6SM BR OVC100 21/18 A2986 390 87 1200 290/03 RMK AO2 T02060183
94790KART ART20160628041011306/28/16 04:10:31  5-MIN KART 280910Z AUTO 00000KT 6SM BR BKN095 21/18 A2985 390 87 1200 000/00 RMK AO2 T02060183
94790KART ART20160628041511306/28/16 04:15:31  5-MIN KART 280915Z AUTO 00000KT 5SM BR OVC090 20/18 A2985 390 90 1100 000/00 RMK AO2 T02000183
94790KART ART20160628042011306/28/16 04:20:31  5-MIN KART 280920Z AUTO 00000KT 6SM BR OVC090 20/18 A2985 390 90 1100 000/00 RMK AO2 T02000183
94790KART ART20160628042511306/28/16 04:25:31  5-MIN KART 280925Z AUTO 00000KT 6SM BR BKN090 20/18 A2986 390 90 1100 000/00 RMK AO2 T02000183
94790KART ART20160628043011306/28/16 04:30:31  5-MIN KART 280930Z AUTO 00000KT 5SM BR BKN090 20/18 A2986 390 90 1100 000/00 RMK AO2 T02000183
94790KART ART20160628043511306/28/16 04:35:31  5-MIN KART 280935Z AUTO 00000KT 5SM BR OVC085 19/18 A2986 390 93 1000 000/00 RMK AO2 T01940183
94790KART ART20160628044012906/28/16 04:40:31  5-MIN KART 280940Z AUTO 00000KT 5SM -RA BR OVC085 20/18 A2986 390 90 1100 000/00 RMK AO2 RAB40 P0000 T02000183
94790KART ART20160628044513606/28/16 04:45:31  5-MIN KART 280945Z AUTO 00000KT 5SM -RA BR BKN085 BKN110 19/18 A2986 390 93 1000 000/00 RMK AO2 RAB40 P0000 T01940183
94790KART ART20160628045014206/28/16 04:50:31  5-MIN KART 280950Z AUTO 00000KT 4SM BR BKN080 BKN100 20/18 A2986 390 90 1100 000/00 RMK AO2 RAB40E49 SLP105 P0000 T02000183
94790KART ART20160628045514206/28/16 04:55:31  5-MIN KART 280955Z AUTO 00000KT 4SM BR BKN080 BKN095 20/18 A2986 390 90 1100 000/00 RMK AO2 RAB40E49 SLP105 P0000 T02000183
94790KART ART20160628050012006/28/16 05:00:31  5-MIN KART 281000Z AUTO 20003KT 4SM BR BKN080 BKN095 20/18 A2986 390 90 1100 210/03 RMK AO2 T02000183
94790KART ART20160628050511306/28/16 05:05:31  5-MIN KART 281005Z AUTO 00000KT 4SM BR SCT080 20/18 A2986 390 90 1100 000/00 RMK AO2 T02000183
94790KART ART20160628051011306/28/16 05:10:31  5-MIN KART 281010Z AUTO 16003KT 4SM BR SCT085 19/18 A2986 390 90 1000 170/03 RMK AO2 T01940178
94790KART ART20160628051511306/28/16 05:15:31  5-MIN KART 281015Z AUTO 00000KT 3SM BR SCT080 19/18 A2986 390 93 1000 000/00 RMK AO2 T01890178
94790KART ART20160628052011706/28/16 05:20:31  5-MIN KART 281020Z AUTO 14003KT 2 1/2SM BR FEW085 19/18 A2986 390 93 1000 150/03 RMK AO2 T01890178
94790KART ART20160628052511606/28/16 05:25:31  5-MIN KART 281025Z AUTO 13003KT 2 1/2SM BR FEW085 18/18 A2986 390 96 900 150/03 RMK AO2 T01830178
94790KART ART20160628053011406/28/16 05:30:31  5-MIN KART 281030Z AUTO 00000KT 2 1/2SM BR CLR 19/18 A2986 390 93 1000 000/00 RMK AO2 T01890178
94790KART ART20160628053511406/28/16 05:35:31  5-MIN KART 281035Z AUTO 00000KT 2 1/2SM BR CLR 19/18 A2986 390 93 1000 000/00 RMK AO2 T01940183
94790KART ART20160628054011006/28/16 05:40:31  5-MIN KART 281040Z AUTO 00000KT 3SM BR CLR 19/18 A2986 390 93 1000 000/00 RMK AO2 T01940183
94790KART ART20160628054511006/28/16 05:45:31  5-MIN KART 281045Z AUTO 00000KT 3SM BR CLR 21/18 A2986 390 87 1200 000/00 RMK AO2 T02060183
94790KART ART20160628055011706/28/16 05:50:31  5-MIN KART 281050Z AUTO 00000KT 4SM BR CLR 21/19 A2986 380 90 1200 000/00 RMK AO2 SLP106 T02060189
94790KART ART20160628055511706/28/16 05:55:31  5-MIN KART 281055Z AUTO 00000KT 4SM BR CLR 21/19 A2986 390 87 1200 000/00 RMK AO2 SLP105 T02110189
94790KART ART20160628060011006/28/16 06:00:31  5-MIN KART 281100Z AUTO 00000KT 4SM BR CLR 21/19 A2986 390 90 1200 000/00 RMK AO2 T02060189
94790KART ART20160628060511306/28/16 06:05:31  5-MIN KART 281105Z AUTO 00000KT 4SM BR SCT021 21/19 A2986 390 87 1200 000/00 RMK AO2 T02110189
94790KART ART20160628061011306/28/16 06:10:31  5-MIN KART 281110Z AUTO 00000KT 4SM BR SCT021 21/19 A2986 390 87 1200 000/00 RMK AO2 T02110189
94790KART ART20160628061511306/28/16 06:15:31  5-MIN KART 281115Z AUTO 00000KT 4SM BR BKN022 21/19 A2986 390 87 1200 000/00 RMK AO2 T02110189
94790KART ART20160628062011306/28/16 06:20:31  5-MIN KART 281120Z AUTO 00000KT 4SM HZ BKN022 22/19 A2986 390 84 1300 000/00 RMK AO2 T02170189
94790KART ART20160628062511306/28/16 06:25:31  5-MIN KART 281125Z AUTO 00000KT 4SM HZ BKN022 22/19 A2986 380 84 1300 000/00 RMK AO2 T02170189
94790KART ART20160628063011306/28/16 06:30:31  5-MIN KART 281130Z AUTO 00000KT 4SM HZ OVC022 22/19 A2986 380 84 1300 000/00 RMK AO2 T02170189
94790KART ART20160628063511306/28/16 06:35:31  5-MIN KART 281135Z AUTO 00000KT 4SM HZ OVC022 22/19 A2986 380 84 1300 000/00 RMK AO2 T02170189
94790KART ART20160628064011306/28/16 06:40:31  5-MIN KART 281140Z AUTO 00000KT 4SM HZ BKN022 22/19 A2986 380 84 1300 000/00 RMK AO2 T02170189
94790KART ART20160628064511306/28/16 06:45:31  5-MIN KART 281145Z AUTO VRB03KT 4SM HZ BKN022 22/19 A2987 380 81 1300 VRB/03 RMK AO2 T02220189
94790KART ART20160628065014406/28/16 06:50:31  5-MIN KART 281150Z AUTO 00000KT 5SM HZ BKN022 22/19 A2986 380 81 1400 000/00 RMK AO2 SLP107 60000 T02220189 10222 20183 53003
94790KART ART20160628065514406/28/16 06:55:31  5-MIN KART 281155Z AUTO 00000KT 5SM HZ BKN022 22/19 A2987 380 81 1300 000/00 RMK AO2 SLP108 60000 T02220189 10222 20183 53003
94790KART ART20160628070011306/28/16 07:00:31  5-MIN KART 281200Z AUTO 00000KT 5SM HZ BKN022 22/19 A2987 380 81 1300 000/00 RMK AO2 T02220189
94790KART ART20160628070511306/28/16 07:05:31  5-MIN KART 281205Z AUTO 21004KT 5SM HZ BKN022 23/19 A2987 380 78 1400 230/04 RMK AO2 T02280189
94790KART ART20160628071011306/28/16 07:10:31  5-MIN KART 281210Z AUTO 20004KT 5SM HZ BKN022 23/19 A2987 380 78 1400 210/04 RMK AO2 T02280189
94790KART ART20160628071511306/28/16 07:15:31  5-MIN KART 281215Z AUTO 21004KT 5SM HZ SCT022 23/19 A2987 380 81 1400 220/04 RMK AO2 T02280194
94790KART ART20160628072012006/28/16 07:20:31  5-MIN KART 281220Z AUTO VRB04KT 5SM HZ FEW016 SCT022 23/19 A2987 380 76 1500 VRB/04 RMK AO2 T02330189
94790KART ART20160628072512006/28/16 07:25:31  5-MIN KART 281225Z AUTO 22006KT 5SM HZ SCT016 BKN022 23/19 A2987 380 78 1500 240/06 RMK AO2 T02330194
94790KART ART20160628073012006/28/16 07:30:31  5-MIN KART 281230Z AUTO 21006KT 5SM HZ SCT016 BKN022 23/19 A2987 380 81 1400 220/06 RMK AO2 T02280194
94790KART ART20160628073512006/28/16 07:35:31  5-MIN KART 281235Z AUTO 21005KT 5SM HZ SCT016 BKN022 23/19 A2987 380 78 1500 230/05 RMK AO2 T02330194
94790KART ART20160628074012006/28/16 07:40:31  5-MIN KART 281240Z AUTO 23005KT 4SM HZ BKN016 BKN022 23/19 A2987 380 78 1400 240/05 RMK AO2 T02280189
94790KART ART20160628074512006/28/16 07:45:31  5-MIN KART 281245Z AUTO 21007KT 5SM HZ BKN017 BKN022 23/19 A2987 380 76 1500 230/07 RMK AO2 T02330189
94790KART ART20160628075012006/28/16 07:50:31  5-MIN KART 281250Z AUTO 20005KT 5SM HZ BKN017 23/19 A2987 380 78 1400 210/05 RMK AO2 SLP108 T02280189
94790KART ART20160628075512006/28/16 07:55:31  5-MIN KART 281255Z AUTO 21006KT 5SM HZ BKN019 23/19 A2987 380 78 1400 220/06 RMK AO2 SLP110 T02280189
94790KART ART20160628080011306/28/16 08:00:31  5-MIN KART 281300Z AUTO 22008KT 5SM HZ BKN019 23/19 A2987 370 76 1500 240/08 RMK AO2 T02330189
94790KART ART20160628080511306/28/16 08:05:31  5-MIN KART 281305Z AUTO 22009KT 5SM HZ BKN019 23/19 A2988 370 76 1500 230/09 RMK AO2 T02330189
94790KART ART20160628081011306/28/16 08:10:31  5-MIN KART 281310Z AUTO 20007KT 6SM HZ BKN021 23/18 A2988 370 73 1500 220/07 RMK AO2 T02330183
94790KART ART20160628081511306/28/16 08:15:31  5-MIN KART 281315Z AUTO 22008KT 6SM HZ BKN021 24/19 A2987 370 73 1500 230/08 RMK AO2 T02390189
94790KART ART20160628082011306/28/16 08:20:31  5-MIN KART 281320Z AUTO 22008KT 6SM HZ SCT021 23/18 A2987 370 73 1500 230/08 RMK AO2 T02330183
94790KART ART20160628082511306/28/16 08:25:31  5-MIN KART 281325Z AUTO 23008KT 6SM HZ SCT021 24/18 A2988 370 71 1500 240/08 RMK AO2 T02390183
94790KART ART20160628083011006/28/16 08:30:31  5-MIN KART 281330Z AUTO 22007KT 7SM FEW021 24/18 A2988 370 68 1600 230/07 RMK AO2 T02440183
94790KART ART20160628083511006/28/16 08:35:31  5-MIN KART 281335Z AUTO 21008KT 7SM FEW023 24/19 A2988 370 71 1600 230/08 RMK AO2 T02440189
94790KART ART20160628084011006/28/16 08:40:31  5-MIN KART 281340Z AUTO 23009KT 7SM SCT023 24/18 A2988 370 68 1600 250/09 RMK AO2 T02440183
94790KART ART20160628084511706/28/16 08:45:31  5-MIN KART 281345Z AUTO 20007KT 8SM SCT021 SCT026 24/18 A2988 370 68 1500 210/07 RMK AO2 T02390178
94790KART ART20160628085011706/28/16 08:50:31  5-MIN KART 281350Z AUTO 24009KT 8SM SCT023 24/18 A2988 370 71 1500 260/09 RMK AO2 SLP112 T02390183
94790KART ART20160628085511706/28/16 08:55:31  5-MIN KART 281355Z AUTO 24008KT 8SM SCT023 24/18 A2988 370 68 1600 250/08 RMK AO2 SLP111 T02440183
94790KART ART20160628090011006/28/16 09:00:31  5-MIN KART 281400Z AUTO 26008KT 8SM SCT023 24/19 A2988 370 73 1500 270/08 RMK AO2 T02390189
94790KART ART20160628090511006/28/16 09:05:31  5-MIN KART 281405Z AUTO 24008KT 8SM SCT023 23/19 A2988 370 76 1500 260/08 RMK AO2 T02330189
94790KART ART20160628091011006/28/16 09:10:31  5-MIN KART 281410Z AUTO 24007KT 8SM FEW021 24/19 A2987 370 73 1500 250/07 RMK AO2 T02390189
94790KART ART20160628091511006/28/16 09:15:31  5-MIN KART 281415Z AUTO 24006KT 8SM FEW021 24/19 A2988 370 73 1500 250/06 RMK AO2 T02390189
94790KART ART20160628092010706/28/16 09:20:31  5-MIN KART 281420Z AUTO 26009KT 8SM CLR 24/19 A2988 370 76 1500 270/09 RMK AO2 T02390194
94790KART ART20160628092510706/28/16 09:25:31  5-MIN KART 281425Z AUTO 24008KT 7SM CLR 24/19 A2988 370 73 1500 250/08 RMK AO2 T02390189
94790KART ART20160628093010706/28/16 09:30:31  5-MIN KART 281430Z AUTO 25009KT 8SM CLR 24/19 A2988 370 73 1500 260/09 RMK AO2 T02390189
94790KART ART20160628093510706/28/16 09:35:31  5-MIN KART 281435Z AUTO 27013KT 7SM CLR 24/19 A2988 370 76 1500 280/13 RMK AO2 T02390194
94790KART ART20160628094011006/28/16 09:40:31  5-MIN KART 281440Z AUTO 26010KT 7SM FEW070 24/19 A2988 370 76 1500 280/10 RMK AO2 T02390194
94790KART ART20160628094511006/28/16 09:45:31  5-MIN KART 281445Z AUTO 27011KT 7SM SCT070 23/19 A2988 370 76 1500 280/11 RMK AO2 T02330189
94790KART ART20160628095012306/28/16 09:50:31  5-MIN KART 281450Z AUTO 25009KT 8SM BKN070 24/19 A2988 370 73 1500 270/09 RMK AO2 SLP114 T02390189 53004
94790KART ART20160628095512306/28/16 09:55:31  5-MIN KART 281455Z AUTO 26009KT 8SM BKN070 24/19 A2988 370 76 1500 270/09 RMK AO2 SLP114 T02390194 53004
94790KART ART20160628100011006/28/16 10:00:31  5-MIN KART 281500Z AUTO 24009KT 9SM SCT070 24/19 A2988 370 76 1500 250/09 RMK AO2 T02390194
94790KART ART20160628100512606/28/16 10:05:31  5-MIN KART 281505Z AUTO 26008KT 230V290 9SM SCT070 23/19 A2988 370 76 1500 270/08 240V300 RMK AO2 T02330189
94790KART ART20160628101011006/28/16 10:10:31  5-MIN KART 281510Z AUTO 24008KT 9SM SCT070 24/19 A2988 370 71 1600 250/08 RMK AO2 T02440189
94790KART ART20160628101511006/28/16 10:15:31  5-MIN KART 281515Z AUTO 24008KT 9SM SCT070 24/19 A2988 370 73 1500 250/08 RMK AO2 T02390189
94790KART ART20160628102011106/28/16 10:20:31  5-MIN KART 281520Z AUTO 25008KT 10SM SCT070 24/19 A2988 360 71 1600 260/08 RMK AO2 T02440189
94790KART ART20160628102511106/28/16 10:25:31  5-MIN KART 281525Z AUTO 25010KT 10SM BKN070 25/19 A2989 360 68 1600 270/10 RMK AO2 T02500189
94790KART ART20160628103011106/28/16 10:30:31  5-MIN KART 281530Z AUTO 25009KT 10SM BKN065 24/18 A2989 360 68 1600 270/09 RMK AO2 T02440183
94790KART ART20160628103511106/28/16 10:35:31  5-MIN KART 281535Z AUTO 25009KT 10SM BKN070 23/18 A2989 360 73 1500 260/09 RMK AO2 T02330183
94790KART ART20160628104011106/28/16 10:40:31  5-MIN KART 281540Z AUTO 25008KT 10SM BKN070 23/18 A2989 360 70 1500 260/08 RMK AO2 T02330178
94790KART ART20160628104511806/28/16 10:45:31  5-MIN KART 281545Z AUTO 23009KT 10SM BKN070 BKN095 24/18 A2989 360 68 1500 240/09 RMK AO2 T02390178
94790KART ART20160628105012506/28/16 10:50:31  5-MIN KART 281550Z AUTO 26009KT 10SM BKN070 BKN095 24/17 A2989 360 66 1500 270/09 RMK AO2 SLP116 T02390172
94790KART ART20160628105512506/28/16 10:55:31  5-MIN KART 281555Z AUTO 26010KT 10SM SCT070 BKN090 24/17 A2989 360 66 1500 270/10 RMK AO2 SLP116 T02390172
94790KART ART20160628110011806/28/16 11:00:31  5-MIN KART 281600Z AUTO 23010KT 10SM FEW070 BKN090 24/17 A2989 360 63 1500 240/10 RMK AO2 T02390167
94790KART ART20160628110511806/28/16 11:05:31  5-MIN KART 281605Z AUTO 25009KT 10SM FEW070 SCT090 24/17 A2989 360 63 1500 260/09 RMK AO2 T02390167
94790KART ART20160628111011806/28/16 11:10:31  5-MIN KART 281610Z AUTO 24009KT 10SM FEW070 SCT090 24/16 A2989 360 61 1500 250/09 RMK AO2 T02390161
94790KART ART20160628111511806/28/16 11:15:31  5-MIN KART 281615Z AUTO 26013KT 10SM FEW070 FEW090 24/18 A2989 360 66 1600 280/13 RMK AO2 T02440178
94790KART ART20160628112011806/28/16 11:20:31  5-MIN KART 281620Z AUTO 27012KT 10SM SCT070 SCT085 23/17 A2989 360 68 1400 280/12 RMK AO2 T02330172
94790KART ART20160628112511806/28/16 11:25:31  5-MIN KART 281625Z AUTO 25007KT 10SM SCT070 SCT090 23/18 A2989 360 70 1400 270/07 RMK AO2 T02330178
94790KART ART20160628113011106/28/16 11:30:31  5-MIN KART 281630Z AUTO 27010KT 10SM SCT065 23/18 A2989 360 70 1400 280/10 RMK AO2 T02330178
94790KART ART20160628113511106/28/16 11:35:31  5-MIN KART 281635Z AUTO 23008KT 10SM SCT065 24/18 A2989 360 68 1600 250/08 RMK AO2 T02440183
94790KART ART20160628114011106/28/16 11:40:31  5-MIN KART 281640Z AUTO 23010KT 10SM BKN060 23/17 A2989 360 66 1400 240/10 RMK AO2 T02330167
94790KART ART20160628114511706/28/16 11:45:31  5-MIN KART 281645Z AUTO 22012G16KT 10SM BKN060 23/17 A2989 360 66 1400 230/12G16 RMK AO2 T02330167
94790KART ART20160628115011806/28/16 11:50:31  5-MIN KART 281650Z AUTO 23009KT 10SM BKN060 23/17 A2989 360 66 1400 240/09 RMK AO2 SLP118 T02330167
94790KART ART20160628115511806/28/16 11:55:31  5-MIN KART 281655Z AUTO 22009KT 10SM BKN060 23/17 A2989 360 66 1400 240/09 RMK AO2 SLP118 T02330167
94790KART ART20160628120011106/28/16 12:00:31  5-MIN KART 281700Z AUTO 23008KT 10SM BKN060 24/17 A2989 360 66 1500 250/08 RMK AO2 T02390172
94790KART ART20160628120511806/28/16 12:05:31  5-MIN KART 281705Z AUTO 22010KT 10SM BKN060 BKN080 24/17 A2989 360 63 1500 240/10 RMK AO2 T02390167
94790KART ART20160628121012506/28/16 12:10:31  5-MIN KART 281710Z AUTO 23010KT 10SM SCT060 BKN080 BKN095 24/17 A2989 360 63 1500 240/10 RMK AO2 T02390167
94790KART ART20160628121512506/28/16 12:15:31  5-MIN KART 281715Z AUTO 23010KT 10SM SCT060 SCT080 BKN095 24/17 A2989 360 63 1500 240/10 RMK AO2 T02390167
94790KART ART20160628122011806/28/16 12:20:31  5-MIN KART 281720Z AUTO 22011KT 10SM FEW060 FEW095 24/16 A2989 360 61 1500 230/11 RMK AO2 T02390161
94790KART ART20160628122512406/28/16 12:25:31  5-MIN KART 281725Z AUTO 24008G16KT 10SM FEW060 FEW095 25/17 A2989 360 61 1600 260/08G16 RMK AO2 T02500172
94790KART ART20160628123013106/28/16 12:30:31  5-MIN KART 281730Z AUTO 24010G16KT 10SM SCT065 SCT080 SCT095 23/16 A2989 360 63 1500 250/10G16 RMK AO2 T02330161
94790KART ART20160628123511806/28/16 12:35:31  5-MIN KART 281735Z AUTO 22008KT 10SM SCT070 BKN090 23/16 A2989 360 63 1500 240/08 RMK AO2 T02330161
94790KART ART20160628124011106/28/16 12:40:31  5-MIN KART 281740Z AUTO 24007KT 10SM BKN070 23/16 A2988 360 63 1500 250/07 RMK AO2 T02330161
94790KART ART20160628124511806/28/16 12:45:31  5-MIN KART 281745Z AUTO 25008KT 10SM BKN070 BKN080 24/17 A2988 370 63 1500 260/08 RMK AO2 T02390167
94790KART ART20160628125014306/28/16 12:50:31  5-MIN KART 281750Z AUTO 24008KT 10SM SCT065 BKN080 23/17 A2988 370 66 1500 250/08 RMK AO2 SLP114 T02330167 10250 20222 52005
94790KART ART20160628125514306/28/16 12:55:31  5-MIN KART 281755Z AUTO 23011KT 10SM SCT070 BKN085 24/17 A2988 370 63 1600 240/11 RMK AO2 SLP113 T02440172 10250 20222 52005
94790KART ART20160628130011106/28/16 13:00:31  5-MIN KART 281800Z AUTO 24008KT 10SM SCT070 24/17 A2987 370 61 1600 250/08 RMK AO2 T02440167
94790KART ART20160628130511106/28/16 13:05:31  5-MIN KART 281805Z AUTO 27012KT 10SM FEW075 24/17 A2987 370 66 1500 280/12 RMK AO2 T02390172
94790KART ART20160628131011106/28/16 13:10:31  5-MIN KART 281810Z AUTO 25009KT 10SM FEW080 24/18 A2987 370 66 1600 270/09 RMK AO2 T02440178
94790KART ART20160628131510806/28/16 13:15:31  5-MIN KART 281815Z AUTO 27011KT 10SM CLR 24/18 A2987 370 66 1600 280/11 RMK AO2 T02440178
94790KART ART20160628132011106/28/16 13:20:31  5-MIN KART 281820Z AUTO 25009KT 10SM FEW060 24/18 A2988 370 66 1600 270/09 RMK AO2 T02440178
94790KART ART20160628132511806/28/16 13:25:31  5-MIN KART 281825Z AUTO 27011KT 10SM FEW060 FEW080 24/18 A2988 370 66 1600 280/11 RMK AO2 T02440178
94790KART ART20160628133011806/28/16 13:30:31  5-MIN KART 281830Z AUTO 26009KT 10SM FEW060 SCT080 23/17 A2988 370 68 1500 270/09 RMK AO2 T02330172
94790KART ART20160628133511806/28/16 13:35:31  5-MIN KART 281835Z AUTO 24007KT 10SM SCT070 BKN080 23/17 A2988 370 68 1400 260/07 RMK AO2 T02280167
94790KART ART20160628134011806/28/16 13:40:31  5-MIN KART 281840Z AUTO 23011KT 10SM BKN065 BKN080 22/17 A2988 360 70 1300 240/11 RMK AO2 T02220167
94790KART ART20160628134511806/28/16 13:45:31  5-MIN KART 281845Z AUTO 24009KT 10SM BKN065 BKN080 22/16 A2988 360 65 1300 250/09 RMK AO2 T02220156
94790KART ART20160628135012506/28/16 13:50:31  5-MIN KART 281850Z AUTO 25010KT 10SM BKN070 BKN085 23/16 A2989 360 63 1400 260/10 RMK AO2 SLP116 T02280156
94790KART ART20160628135512506/28/16 13:55:31  5-MIN KART 281855Z AUTO 24010KT 10SM BKN070 OVC090 22/16 A2989 360 65 1300 250/10 RMK AO2 SLP116 T02220156
94790KART ART20160628140011806/28/16 14:00:31  5-MIN KART 281900Z AUTO 26012KT 10SM BKN070 BKN095 23/16 A2988 360 65 1400 270/12 RMK AO2 T02280161
94790KART ART20160628140511806/28/16 14:05:31  5-MIN KART 281905Z AUTO 26009KT 10SM SCT070 BKN100 23/17 A2988 370 66 1500 270/09 RMK AO2 T02330167
94790KART ART20160628141011806/28/16 14:10:31  5-MIN KART 281910Z AUTO 26009KT 10SM SCT070 BKN095 23/17 A2988 370 68 1400 270/09 RMK AO2 T02280167
94790KART ART20160628141511806/28/16 14:15:31  5-MIN KART 281915Z AUTO 26011KT 10SM FEW070 BKN100 23/17 A2988 370 66 1500 270/11 RMK AO2 T02330167
94790KART ART20160628142011806/28/16 14:20:31  5-MIN KART 281920Z AUTO 25013KT 10SM FEW070 BKN100 23/16 A2988 370 63 1500 270/13 RMK AO2 T02330161
94790KART ART20160628142511106/28/16 14:25:31  5-MIN KART 281925Z AUTO 25011KT 10SM BKN095 23/16 A2988 370 65 1400 270/11 RMK AO2 T02280161
94790KART ART20160628143011106/28/16 14:30:31  5-MIN KART 281930Z AUTO 25009KT 10SM BKN095 22/16 A2988 370 68 1300 260/09 RMK AO2 T02220161
94790KART ART20160628143511106/28/16 14:35:31  5-MIN KART 281935Z AUTO 25009KT 10SM BKN100 23/17 A2988 370 68 1400 260/09 RMK AO2 T02280167
94790KART ART20160628144011106/28/16 14:40:31  5-MIN KART 281940Z AUTO 21006KT 10SM BKN095 22/16 A2987 370 68 1300 230/06 RMK AO2 T02220161
94790KART ART20160628144511106/28/16 14:45:31  5-MIN KART 281945Z AUTO 23006KT 10SM BKN095 23/17 A2987 370 68 1400 240/06 RMK AO2 T02280167
94790KART ART20160628145011806/28/16 14:50:31  5-MIN KART 281950Z AUTO 24009KT 10SM BKN095 24/17 A2987 370 66 1500 250/09 RMK AO2 SLP112 T02390172
94790KART ART20160628145511806/28/16 14:55:31  5-MIN KART 281955Z AUTO 23008KT 10SM SCT095 23/17 A2987 380 66 1500 250/08 RMK AO2 SLP110 T02330167
94790KART ART20160628150011106/28/16 15:00:31  5-MIN KART 282000Z AUTO 23009KT 10SM SCT095 23/17 A2987 380 66 1500 250/09 RMK AO2 T02330167
94790KART ART20160628150511106/28/16 15:05:31  5-MIN KART 282005Z AUTO 27012KT 10SM FEW095 23/17 A2987 380 68 1500 290/12 RMK AO2 T02330172
94790KART ART20160628151011106/28/16 15:10:31  5-MIN KART 282010Z AUTO 25009KT 10SM FEW100 23/17 A2987 380 66 1500 260/09 RMK AO2 T02330167
94790KART ART20160628151510806/28/16 15:15:31  5-MIN KART 282015Z AUTO 24008KT 10SM CLR 23/17 A2986 380 68 1400 260/08 RMK AO2 T02280167
94790KART ART20160628152010806/28/16 15:20:31  5-MIN KART 282020Z AUTO 23009KT 10SM CLR 23/17 A2986 390 70 1400 240/09 RMK AO2 T02280172
94790KART ART20160628152510806/28/16 15:25:31  5-MIN KART 282025Z AUTO 24007KT 10SM CLR 23/17 A2986 390 68 1400 250/07 RMK AO2 T02280167
94790KART ART20160628153010806/28/16 15:30:31  5-MIN KART 282030Z AUTO 24009KT 10SM CLR 23/17 A2986 380 68 1500 250/09 RMK AO2 T02330172
94790KART ART20160628153510806/28/16 15:35:31  5-MIN KART 282035Z AUTO 25007KT 10SM CLR 23/17 A2987 380 70 1400 270/07 RMK AO2 T02280172
94790KART ART20160628154010806/28/16 15:40:31  5-MIN KART 282040Z AUTO 24007KT 10SM CLR 23/18 A2987 380 70 1500 260/07 RMK AO2 T02330178
94790KART ART20160628154510806/28/16 15:45:31  5-MIN KART 282045Z AUTO 25007KT 10SM CLR 23/18 A2987 380 70 1500 260/07 RMK AO2 T02330178
94790KART ART20160628155012106/28/16 15:50:31  5-MIN KART 282050Z AUTO 23007KT 10SM CLR 23/17 A2987 380 70 1400 250/07 RMK AO2 SLP109 T02280172 58001
94790KART ART20160628155512106/28/16 15:55:31  5-MIN KART 282055Z AUTO 24008KT 10SM CLR 23/17 A2987 380 68 1500 250/08 RMK AO2 SLP108 T02330172 58001
94790KART ART20160628160010806/28/16 16:00:31  5-MIN KART 282100Z AUTO 24008KT 10SM CLR 23/18 A2987 380 70 1500 250/08 RMK AO2 T02330178
94790KART ART20160628160510806/28/16 16:05:31  5-MIN KART 282105Z AUTO 23008KT 10SM CLR 24/17 A2986 380 66 1500 240/08 RMK AO2 T02390172
94790KART ART20160628161010806/28/16 16:10:31  5-MIN KART 282110Z AUTO 24006KT 10SM CLR 23/17 A2986 380 68 1500 250/06 RMK AO2 T02330172
94790KART ART20160628161510806/28/16 16:15:31  5-MIN KART 282115Z AUTO 24006KT 10SM CLR 24/17 A2986 380 66 1500 250/06 RMK AO2 T02390172
94790KART ART20160628162010806/28/16 16:20:31  5-MIN KART 282120Z AUTO 23009KT 10SM CLR 24/17 A2987 380 66 1500 240/09 RMK AO2 T02390172
94790KART ART20160628162510806/28/16 16:25:31  5-MIN KART 282125Z AUTO 24006KT 10SM CLR 24/17 A2987 380 66 1500 260/06 RMK AO2 T02390172
94790KART ART20160628163010806/28/16 16:30:31  5-MIN KART 282130Z AUTO 24007KT 10SM CLR 24/17 A2987 380 63 1600 250/07 RMK AO2 T02440172
94790KART ART20160628163510806/28/16 16:35:31  5-MIN KART 282135Z AUTO 26007KT 10SM CLR 24/17 A2987 380 66 1500 270/07 RMK AO2 T02390172
94790KART ART20160628164010806/28/16 16:40:31  5-MIN KART 282140Z AUTO 25009KT 10SM CLR 23/17 A2987 380 68 1500 270/09 RMK AO2 T02330172
94790KART ART20160628164510806/28/16 16:45:31  5-MIN KART 282145Z AUTO 24008KT 10SM CLR 23/18 A2987 380 73 1400 250/08 RMK AO2 T02280178
94790KART ART20160628165011506/28/16 16:50:31  5-MIN KART 282150Z AUTO 24010KT 10SM CLR 23/17 A2987 380 70 1400 250/10 RMK AO2 SLP110 T02280172
94790KART ART20160628165511506/28/16 16:55:31  5-MIN KART 282155Z AUTO 24008KT 10SM CLR 23/17 A2987 380 68 1500 260/08 RMK AO2 SLP109 T02330172
94790KART ART20160628170010806/28/16 17:00:31  5-MIN KART 282200Z AUTO 23009KT 10SM CLR 24/17 A2987 380 66 1500 250/09 RMK AO2 T02390172
94790KART ART20160628170510806/28/16 17:05:31  5-MIN KART 282205Z AUTO 22010KT 10SM CLR 23/18 A2986 380 70 1500 240/10 RMK AO2 T02330178
94790KART ART20160628171010806/28/16 17:10:31  5-MIN KART 282210Z AUTO 24008KT 10SM CLR 24/18 A2986 380 68 1500 250/08 RMK AO2 T02390178
94790KART ART20160628171510806/28/16 17:15:31  5-MIN KART 282215Z AUTO 24007KT 10SM CLR 23/17 A2986 380 68 1500 260/07 RMK AO2 T02330172
94790KART ART20160628172010806/28/16 17:20:31  5-MIN KART 282220Z AUTO 24007KT 10SM CLR 24/18 A2987 380 68 1500 250/07 RMK AO2 T02390178
94790KART ART20160628172510806/28/16 17:25:31  5-MIN KART 282225Z AUTO 25006KT 10SM CLR 24/18 A2987 380 68 1500 260/06 RMK AO2 T02390178
94790KART ART20160628173010806/28/16 17:30:31  5-MIN KART 282230Z AUTO 25007KT 10SM CLR 23/17 A2987 380 68 1500 270/07 RMK AO2 T02330172
94790KART ART20160628173510806/28/16 17:35:31  5-MIN KART 282235Z AUTO 25006KT 10SM CLR 23/17 A2987 380 68 1500 260/06 RMK AO2 T02330172
94790KART ART20160628174010806/28/16 17:40:31  5-MIN KART 282240Z AUTO 24006KT 10SM CLR 23/17 A2987 380 68 1500 250/06 RMK AO2 T02330172
94790KART ART20160628174510806/28/16 17:45:31  5-MIN KART 282245Z AUTO 25006KT 10SM CLR 24/17 A2987 380 66 1500 260/06 RMK AO2 T02390172
94790KART ART20160628175011506/28/16 17:50:31  5-MIN KART 282250Z AUTO 22007KT 10SM CLR 24/17 A2987 380 66 1500 240/07 RMK AO2 SLP109 T02390172
94790KART ART20160628175511506/28/16 17:55:31  5-MIN KART 282255Z AUTO 22007KT 10SM CLR 23/17 A2987 380 68 1500 240/07 RMK AO2 SLP110 T02330172
94790KART ART20160628180010806/28/16 18:00:31  5-MIN KART 282300Z AUTO 22008KT 10SM CLR 23/17 A2987 380 68 1500 230/08 RMK AO2 T02330172
94790KART ART20160628180510806/28/16 18:05:31  5-MIN KART 282305Z AUTO 21006KT 10SM CLR 23/17 A2987 370 70 1400 230/06 RMK AO2 T02280172
94790KART ART20160628181010806/28/16 18:10:31  5-MIN KART 282310Z AUTO 23007KT 10SM CLR 23/18 A2987 370 70 1500 240/07 RMK AO2 T02330178
94790KART ART20160628181510806/28/16 18:15:31  5-MIN KART 282315Z AUTO 26005KT 10SM CLR 23/18 A2987 370 70 1500 270/05 RMK AO2 T02330178
94790KART ART20160628182010806/28/16 18:20:31  5-MIN KART 282320Z AUTO 26006KT 10SM CLR 23/18 A2987 370 70 1500 270/06 RMK AO2 T02330178
94790KART ART20160628182510806/28/16 18:25:31  5-MIN KART 282325Z AUTO 25005KT 10SM CLR 23/18 A2988 370 73 1400 260/05 RMK AO2 T02280178
94790KART ART20160628183010806/28/16 18:30:31  5-MIN KART 282330Z AUTO 25004KT 10SM CLR 23/18 A2988 370 73 1400 260/04 RMK AO2 T02280178
94790KART ART20160628183510806/28/16 18:35:31  5-MIN KART 282335Z AUTO 28007KT 10SM CLR 23/18 A2988 370 73 1400 290/07 RMK AO2 T02280178
94790KART ART20160628184009806/28/16 18:40:31  5-MIN KART 282340Z AUTO 10SM CLR 23/17 A2988 370 70 1400 M /M RMK AO2 T02280172
94790KART ART20160628184510806/28/16 18:45:31  5-MIN KART 282345Z AUTO 29008KT 10SM CLR 23/17 A2988 360 68 1400 300/08 RMK AO2 T02280167
94790KART ART20160628185013306/28/16 18:50:31  5-MIN KART 282350Z AUTO 28006KT 10SM CLR 22/17 A2989 360 70 1300 300/06 RMK AO2 SLP115 T02220167 10244 20222 58004
94790KART ART20160628185513306/28/16 18:55:31  5-MIN KART 282355Z AUTO 29004KT 10SM CLR 22/17 A2989 360 70 1300 310/04 RMK AO2 SLP116 T02220167 10244 20222 58004
94790KART ART20160628190011106/28/16 19:00:31  5-MIN KART 290000Z AUTO 29007KT 10SM FEW027 22/17 A2989 360 70 1300 300/07 RMK AO2 T02220167
94790KART ART20160628190511106/28/16 19:05:31  5-MIN KART 290005Z AUTO 30007KT 10SM SCT029 22/17 A2989 360 70 1300 310/07 RMK AO2 T02220167
94790KART ART20160628191011106/28/16 19:10:31  5-MIN KART 290010Z AUTO 30006KT 10SM FEW029 22/17 A2989 360 70 1300 320/06 RMK AO2 T02220167
94790KART ART20160628191511106/28/16 19:15:31  5-MIN KART 290015Z AUTO 31006KT 10SM FEW029 22/16 A2989 360 70 1300 320/06 RMK AO2 T02170161
94790KART ART20160628192011106/28/16 19:20:31  5-MIN KART 290020Z AUTO 33007KT 10SM SCT030 22/16 A2989 360 70 1300 340/07 RMK AO2 T02170161
94790KART ART20160628192511106/28/16 19:25:31  5-MIN KART 290025Z AUTO 31005KT 10SM SCT030 21/16 A2989 360 73 1200 330/05 RMK AO2 T02110161
94790KART ART20160628193011106/28/16 19:30:31  5-MIN KART 290030Z AUTO 31008KT 10SM FEW030 21/16 A2989 360 75 1100 330/08 RMK AO2 T02060161
94790KART ART20160628193511106/28/16 19:35:31  5-MIN KART 290035Z AUTO 32007KT 10SM FEW030 21/16 A2989 360 73 1100 330/07 RMK AO2 T02060156
94790KART ART20160628194011106/28/16 19:40:31  5-MIN KART 290040Z AUTO 32007KT 10SM FEW030 21/16 A2989 360 73 1100 340/07 RMK AO2 T02060156
94790KART ART20160628194511106/28/16 19:45:31  5-MIN KART 290045Z AUTO 33008KT 10SM FEW030 20/16 A2989 360 75 1100 340/08 RMK AO2 T02000156
94790KART ART20160628195013106/28/16 19:50:31  5-MIN KART 290050Z AUTO 32007KT 310V020 10SM CLR 20/16 A2989 350 75 1100 340/07 320V030 RMK AO2 SLP118 T02000156
94790KART ART20160628195511506/28/16 19:55:31  5-MIN KART 290055Z AUTO 32005KT 10SM CLR 20/16 A2989 350 75 1100 340/05 RMK AO2 SLP118 T02000156
94790KART ART20160628200010806/28/16 20:00:31  5-MIN KART 290100Z AUTO 32005KT 10SM CLR 19/16 A2989 350 78 1000 340/05 RMK AO2 T01940156
94790KART ART20160628200510806/28/16 20:05:31  5-MIN KART 290105Z AUTO 33006KT 10SM CLR 19/16 A2990 350 78 1000 340/06 RMK AO2 T01940156
94790KART ART20160628201010806/28/16 20:10:31  5-MIN KART 290110Z AUTO 32006KT 10SM CLR 19/16 A2990 350 78 1000 340/06 RMK AO2 T01940156
94790KART ART20160628201510806/28/16 20:15:31  5-MIN KART 290115Z AUTO 33007KT 10SM CLR 19/16 A2990 350 78 1000 340/07 RMK AO2 T01940156
94790KART ART20160628202010806/28/16 20:20:31  5-MIN KART 290120Z AUTO 34005KT 10SM CLR 19/16 A2990 350 78 1000 350/05 RMK AO2 T01940156
94790KART ART20160628202510806/28/16 20:25:31  5-MIN KART 290125Z AUTO 34004KT 10SM CLR 19/16 A2991 340 78 1000 350/04 RMK AO2 T01940156
94790KART ART20160628203010706/28/16 20:30:31  5-MIN KART 290130Z AUTO 34004KT 10SM CLR 19/16 A2991 340 81 900 360/04 RMK AO2 T01890156
94790KART ART20160628203510706/28/16 20:35:31  5-MIN KART 290135Z AUTO 34004KT 10SM CLR 19/15 A2991 340 78 900 360/04 RMK AO2 T01890150
94790KART ART20160628204010706/28/16 20:40:31  5-MIN KART 290140Z AUTO 35004KT 10SM CLR 19/15 A2991 340 78 900 360/04 RMK AO2 T01890150
94790KART ART20160628204510706/28/16 20:45:31  5-MIN KART 290145Z AUTO 36003KT 10SM CLR 19/15 A2991 340 78 900 010/03 RMK AO2 T01890150
94790KART ART20160628205011406/28/16 20:50:31  5-MIN KART 290150Z AUTO 01004KT 10SM CLR 19/15 A2991 340 78 900 030/04 RMK AO2 SLP124 T01890150
94790KART ART20160628205511406/28/16 20:55:31  5-MIN KART 290155Z AUTO 01003KT 10SM CLR 19/15 A2991 340 78 900 020/03 RMK AO2 SLP124 T01890150
94790KART ART20160628210010706/28/16 21:00:31  5-MIN KART 290200Z AUTO 36004KT 10SM CLR 19/15 A2991 340 78 900 010/04 RMK AO2 T01890150
94790KART ART20160628210510706/28/16 21:05:31  5-MIN KART 290205Z AUTO 34003KT 10SM CLR 19/15 A2991 340 78 900 360/03 RMK AO2 T01890150
94790KART ART20160628211010706/28/16 21:10:31  5-MIN KART 290210Z AUTO 34004KT 10SM CLR 18/15 A2991 340 81 900 360/04 RMK AO2 T01830150
94790KART ART20160628211510706/28/16 21:15:31  5-MIN KART 290215Z AUTO 33003KT 10SM CLR 18/15 A2991 340 81 900 350/03 RMK AO2 T01830150
94790KART ART20160628212010706/28/16 21:20:31  5-MIN KART 290220Z AUTO 00000KT 10SM CLR 18/15 A2991 340 81 900 000/00 RMK AO2 T01830150
94790KART ART20160628212510706/28/16 21:25:31  5-MIN KART 290225Z AUTO 00000KT 10SM CLR 17/15 A2990 350 90 700 000/00 RMK AO2 T01670150
94790KART ART20160628213010706/28/16 21:30:31  5-MIN KART 290230Z AUTO 00000KT 10SM CLR 17/15 A2990 350 90 700 000/00 RMK AO2 T01670150
94790KART ART20160628213510706/28/16 21:35:31  5-MIN KART 290235Z AUTO 00000KT 10SM CLR 16/14 A2990 350 90 600 000/00 RMK AO2 T01610144
94790KART ART20160628214010706/28/16 21:40:31  5-MIN KART 290240Z AUTO 00000KT 10SM CLR 16/14 A2990 350 93 500 000/00 RMK AO2 T01560144
94790KART ART20160628214510706/28/16 21:45:31  5-MIN KART 290245Z AUTO 00000KT 10SM CLR 16/14 A2990 350 93 500 000/00 RMK AO2 T01560144
94790KART ART20160628215012006/28/16 21:50:31  5-MIN KART 290250Z AUTO 17003KT 10SM CLR 16/14 A2990 350 90 500 180/03 RMK AO2 SLP121 T01560139 53007
94790KART ART20160628215512006/28/16 21:55:31  5-MIN KART 290255Z AUTO 00000KT 10SM CLR 16/14 A2990 350 90 500 000/00 RMK AO2 SLP121 T01560139 53007
94790KART ART20160628220010706/28/16 22:00:31  5-MIN KART 290300Z AUTO 00000KT 10SM CLR 15/14 A2990 350 93 500 000/00 RMK AO2 T01500139
94790KART ART20160628220510706/28/16 22:05:31  5-MIN KART 290305Z AUTO 15003KT 10SM CLR 15/14 A2990 350 93 500 160/03 RMK AO2 T01500139
94790KART ART20160628221010706/28/16 22:10:31  5-MIN KART 290310Z AUTO 14003KT 10SM CLR 15/14 A2990 350 93 500 150/03 RMK AO2 T01500139
94790KART ART20160628221510706/28/16 22:15:31  5-MIN KART 290315Z AUTO 14003KT 10SM CLR 15/14 A2990 350 93 500 160/03 RMK AO2 T01500139
94790KART ART20160628222010706/28/16 22:20:31  5-MIN KART 290320Z AUTO 00000KT 10SM CLR 14/13 A2990 350 93 400 000/00 RMK AO2 T01440133
94790KART ART20160628222510706/28/16 22:25:31  5-MIN KART 290325Z AUTO 00000KT 10SM CLR 15/14 A2990 350 93 500 000/00 RMK AO2 T01500139
94790KART ART20160628223010706/28/16 22:30:31  5-MIN KART 290330Z AUTO 00000KT 10SM CLR 16/14 A2990 350 90 500 000/00 RMK AO2 T01560139
94790KART ART20160628223510606/28/16 22:35:31  5-MIN KART 290335Z AUTO 00000KT 9SM CLR 14/13 A2990 350 93 400 000/00 RMK AO2 T01440133
94790KART ART20160628224010606/28/16 22:40:31  5-MIN KART 290340Z AUTO 18004KT 9SM CLR 14/14 A2990 350 96 400 200/04 RMK AO2 T01440139
94790KART ART20160628224510706/28/16 22:45:31  5-MIN KART 290345Z AUTO 00000KT 10SM CLR 14/13 A2990 350 96 300 000/00 RMK AO2 T01390133
94790KART ART20160628225011406/28/16 22:50:31  5-MIN KART 290350Z AUTO 18003KT 10SM CLR 15/14 A2990 350 93 500 190/03 RMK AO2 SLP121 T01500139
94790KART ART20160628225511406/28/16 22:55:31  5-MIN KART 290355Z AUTO 00000KT 10SM CLR 15/14 A2990 350 93 500 000/00 RMK AO2 SLP121 T01500139
94790KART ART20160628230010706/28/16 23:00:31  5-MIN KART 290400Z AUTO 00000KT 10SM CLR 15/14 A2990 350 93 500 000/00 RMK AO2 T01500139
94790KART ART20160628230510706/28/16 23:05:31  5-MIN KART 290405Z AUTO 00000KT 10SM CLR 15/14 A2990 350 93 500 000/00 RMK AO2 T01500139
94790KART ART20160628231010706/28/16 23:10:31  5-MIN KART 290410Z AUTO 00000KT 10SM CLR 15/14 A2990 350 93 500 000/00 RMK AO2 T01500139
94790KART ART20160628231510706/28/16 23:15:31  5-MIN KART 290415Z AUTO 00000KT 10SM CLR 14/14 A2989 350 96 400 000/00 RMK AO2 T01440139
94790KART ART20160628232010706/28/16 23:20:31  5-MIN KART 290420Z AUTO 00000KT 10SM CLR 14/13 A2989 350 96 300 000/00 RMK AO2 T01390133
94790KART ART20160628232510706/28/16 23:25:31  5-MIN KART 290425Z AUTO 00000KT 10SM CLR 14/13 A2989 360 96 300 000/00 RMK AO2 T01390133
94790KART ART20160628233011006/28/16 23:30:31  5-MIN KART 290430Z AUTO 00000KT 10SM FEW100 14/13 A2989 360 96 300 000/00 RMK AO2 T01390133
94790KART ART20160628233510906/28/16 23:35:31  5-MIN KART 290435Z AUTO 00000KT 9SM FEW100 14/13 A2989 360 96 300 000/00 RMK AO2 T01390133
94790KART ART20160628234010906/28/16 23:40:31  5-MIN KART 290440Z AUTO 00000KT 9SM SCT033 14/13 A2989 350 96 300 000/00 RMK AO2 T01390133
94790KART ART20160628234510906/28/16 23:45:31  5-MIN KART 290445Z AUTO 00000KT 9SM SCT033 14/13 A2989 360 96 300 000/00 RMK AO2 T01390133
94790KART ART20160628235012706/28/16 23:50:31  5-MIN KART 290450Z AUTO 00000KT 10SM SCT033 14/13 A2989 360 96 300 000/00 RMK AO2 SLP119 T01390133 402500139
94790KART ART20160628235512606/28/16 23:55:31  5-MIN KART 290455Z AUTO 17003KT 9SM BKN033 14/13 A2989 360 96 300 190/03 RMK AO2 SLP119 T01390133 402500139
94790KART ART20160629000011006/29/16 00:00:31  5-MIN KART 290500Z AUTO 17004KT 10SM BKN035 14/13 A2989 360 93 400 190/04 RMK AO2 T01440133
94790KART ART20160629000511006/29/16 00:05:31  5-MIN KART 290505Z AUTO 17005KT 10SM BKN035 16/14 A2989 350 93 500 180/05 RMK AO2 T01560144
94790KART ART20160629001011006/29/16 00:10:31  5-MIN KART 290510Z AUTO 17005KT 10SM BKN035 16/14 A2990 350 93 500 180/05 RMK AO2 T01560144
94790KART ART20160629001511006/29/16 00:15:31  5-MIN KART 290515Z AUTO 17005KT 10SM BKN035 16/14 A2990 350 93 500 180/05 RMK AO2 T01560144
94790KART ART20160629002011006/29/16 00:20:31  5-MIN KART 290520Z AUTO 18003KT 10SM BKN035 16/15 A2990 350 93 600 200/03 RMK AO2 T01610150
94790KART ART20160629002511006/29/16 00:25:31  5-MIN KART 290525Z AUTO 00000KT 10SM BKN035 16/14 A2989 350 93 500 000/00 RMK AO2 T01560144
94790KART ART20160629003011006/29/16 00:30:31  5-MIN KART 290530Z AUTO 22003KT 10SM BKN035 16/14 A2989 360 93 500 230/03 RMK AO2 T01560144
94790KART ART20160629003511006/29/16 00:35:31  5-MIN KART 290535Z AUTO 00000KT 10SM OVC035 16/15 A2989 360 93 600 000/00 RMK AO2 T01610150
94790KART ART20160629004011006/29/16 00:40:31  5-MIN KART 290540Z AUTO 22003KT 10SM OVC037 16/14 A2989 360 93 600 240/03 RMK AO2 T01560144
94790KART ART20160629004511006/29/16 00:45:31  5-MIN KART 290545Z AUTO 22003KT 10SM BKN037 16/14 A2988 360 93 600 230/03 RMK AO2 T01560144
94790KART ART20160629005013506/29/16 00:50:31  5-MIN KART 290550Z AUTO 00000KT 10SM BKN037 15/14 A2988 360 93 500 000/00 RMK AO2 SLP116 T01500139 10222 20139 50004
94790KART ART20160629005513506/29/16 00:55:31  5-MIN KART 290555Z AUTO 00000KT 10SM SCT037 15/14 A2988 370 93 500 000/00 RMK AO2 SLP115 T01500139 10222 20139 50004
94790KART ART20160629010011006/29/16 01:00:31  5-MIN KART 290600Z AUTO 00000KT 10SM SCT037 15/14 A2988 370 93 500 000/00 RMK AO2 T01500139
94790KART ART20160629010510906/29/16 01:05:31  5-MIN KART 290605Z AUTO 00000KT 9SM FEW037 14/14 A2988 370 96 400 000/00 RMK AO2 T01440139
94790KART ART20160629011010606/29/16 01:10:31  5-MIN KART 290610Z AUTO 00000KT 8SM CLR 15/14 A2988 370 93 500 000/00 RMK AO2 T01500139
94790KART ART20160629011510606/29/16 01:15:31  5-MIN KART 290615Z AUTO 00000KT 7SM CLR 14/14 A2988 370 96 400 000/00 RMK AO2 T01440139
94790KART ART20160629012011206/29/16 01:20:31  5-MIN KART 290620Z AUTO 00000KT 3SM BR FEW034 14/13 A2988 360 96 400 000/00 RMK AO2 T01390133
94790KART ART20160629012511206/29/16 01:25:31  5-MIN KART 290625Z AUTO 00000KT 3SM BR SCT034 14/14 A2989 360 96 400 000/00 RMK AO2 T01440139
94790KART ART20160629013010906/29/16 01:30:31  5-MIN KART 290630Z AUTO 00000KT 7SM BKN034 14/14 A2988 360 96 400 000/00 RMK AO2 T01440139
94790KART ART20160629013510906/29/16 01:35:31  5-MIN KART 290635Z AUTO 00000KT 9SM BKN034 14/13 A2988 360 93 400 000/00 RMK AO2 T01440133
94790KART ART20160629014010906/29/16 01:40:31  5-MIN KART 290640Z AUTO 00000KT 9SM BKN034 14/13 A2988 360 93 400 000/00 RMK AO2 T01440133
94790KART ART20160629014510906/29/16 01:45:31  5-MIN KART 290645Z AUTO 00000KT 9SM BKN034 14/13 A2988 360 96 400 000/00 RMK AO2 T01390133
94790KART ART20160629015011706/29/16 01:50:31  5-MIN KART 290650Z AUTO 00000KT 10SM BKN034 14/13 A2988 360 96 400 000/00 RMK AO2 SLP116 T01390133
94790KART ART20160629015511706/29/16 01:55:31  5-MIN KART 290655Z AUTO 18003KT 10SM OVC034 14/13 A2988 360 96 400 200/03 RMK AO2 SLP116 T01390133
94790KART ART20160629020011006/29/16 02:00:31  5-MIN KART 290700Z AUTO 19003KT 10SM OVC034 14/14 A2989 360 96 400 200/03 RMK AO2 T01440139
94790KART ART20160629020511006/29/16 02:05:31  5-MIN KART 290705Z AUTO 00000KT 10SM OVC034 15/14 A2988 360 93 500 000/00 RMK AO2 T01500139
94790KART ART20160629021011006/29/16 02:10:31  5-MIN KART 290710Z AUTO 00000KT 10SM OVC034 15/14 A2988 360 93 500 000/00 RMK AO2 T01500139
94790KART ART20160629021511006/29/16 02:15:31  5-MIN KART 290715Z AUTO 00000KT 10SM OVC035 16/14 A2988 360 90 600 000/00 RMK AO2 T01560139
94790KART ART20160629022011006/29/16 02:20:31  5-MIN KART 290720Z AUTO 00000KT 10SM OVC035 15/14 A2988 360 93 500 000/00 RMK AO2 T01500139
94790KART ART20160629022511006/29/16 02:25:31  5-MIN KART 290725Z AUTO 00000KT 10SM OVC035 15/14 A2988 360 93 500 000/00 RMK AO2 T01500139
94790KART ART20160629023011006/29/16 02:30:31  5-MIN KART 290730Z AUTO 00000KT 10SM OVC035 14/14 A2988 360 96 400 000/00 RMK AO2 T01440139
94790KART ART20160629023511006/29/16 02:35:31  5-MIN KART 290735Z AUTO 00000KT 10SM OVC036 14/14 A2989 360 96 400 000/00 RMK AO2 T01440139
94790KART ART20160629024011006/29/16 02:40:31  5-MIN KART 290740Z AUTO 00000KT 10SM OVC036 14/14 A2989 360 96 400 000/00 RMK AO2 T01440139
94790KART ART20160629024511006/29/16 02:45:31  5-MIN KART 290745Z AUTO 00000KT 10SM OVC036 15/14 A2989 360 93 500 000/00 RMK AO2 T01500139
94790KART ART20160629025011706/29/16 02:50:31  5-MIN KART 290750Z AUTO 00000KT 10SM OVC036 15/14 A2989 360 96 500 000/00 RMK AO2 SLP118 T01500144
94790KART ART20160629025511706/29/16 02:55:31  5-MIN KART 290755Z AUTO 18003KT 10SM OVC036 16/14 A2989 360 93 500 200/03 RMK AO2 SLP118 T01560144
94790KART ART20160629030011006/29/16 03:00:31  5-MIN KART 290800Z AUTO 18004KT 10SM OVC036 16/14 A2989 360 90 600 200/04 RMK AO2 T01610144
94790KART ART20160629030511006/29/16 03:05:31  5-MIN KART 290805Z AUTO 00000KT 10SM OVC036 16/14 A2989 360 90 600 000/00 RMK AO2 T01610144
94790KART ART20160629031011006/29/16 03:10:31  5-MIN KART 290810Z AUTO 00000KT 10SM OVC036 16/14 A2989 360 90 600 000/00 RMK AO2 T01610144
94790KART ART20160629031511006/29/16 03:15:31  5-MIN KART 290815Z AUTO 00000KT 10SM OVC036 16/14 A2989 350 93 500 000/00 RMK AO2 T01560144
94790KART ART20160629032011006/29/16 03:20:31  5-MIN KART 290820Z AUTO 00000KT 10SM OVC038 16/15 A2989 350 96 500 000/00 RMK AO2 T01560150
94790KART ART20160629032511006/29/16 03:25:31  5-MIN KART 290825Z AUTO 00000KT 10SM OVC038 16/15 A2989 360 93 600 000/00 RMK AO2 T01610150
94790KART ART20160629033011006/29/16 03:30:31  5-MIN KART 290830Z AUTO 00000KT 10SM OVC040 16/14 A2989 360 93 500 000/00 RMK AO2 T01560144
94790KART ART20160629033511006/29/16 03:35:31  5-MIN KART 290835Z AUTO 00000KT 10SM OVC040 16/14 A2989 360 93 500 000/00 RMK AO2 T01560144
94790KART ART20160629034011006/29/16 03:40:31  5-MIN KART 290840Z AUTO 00000KT 10SM OVC042 16/14 A2989 360 93 500 000/00 RMK AO2 T01560144
94790KART ART20160629034511006/29/16 03:45:31  5-MIN KART 290845Z AUTO 00000KT 10SM OVC042 16/14 A2989 360 93 500 000/00 RMK AO2 T01560144
94790KART ART20160629035012306/29/16 03:50:31  5-MIN KART 290850Z AUTO 00000KT 10SM OVC045 16/14 A2989 360 93 500 000/00 RMK AO2 SLP119 T01560144 58006
94790KART ART20160629035512306/29/16 03:55:31  5-MIN KART 290855Z AUTO 00000KT 10SM OVC045 16/14 A2989 350 93 500 000/00 RMK AO2 SLP119 T01560144 58006
94790KART ART20160629040011006/29/16 04:00:31  5-MIN KART 290900Z AUTO 00000KT 10SM OVC047 16/14 A2990 350 93 500 000/00 RMK AO2 T01560144
94790KART ART20160629040511006/29/16 04:05:31  5-MIN KART 290905Z AUTO 00000KT 10SM OVC047 16/14 A2990 350 93 500 000/00 RMK AO2 T01560144
94790KART ART20160629043510906/29/16 04:35:31  5-MIN KART 290935Z AUTO 27003KT 9SM OVC050 16/14 A2990 350 93 500 280/03 RMK AO2 T01560144
94790KART ART20160629044011006/29/16 04:40:31  5-MIN KART 290940Z AUTO 00000KT 10SM BKN050 16/14 A2990 350 90 600 000/00 RMK AO2 T01610144
94790KART ART20160629044511006/29/16 04:45:31  5-MIN KART 290945Z AUTO 00000KT 10SM BKN050 16/14 A2990 350 93 500 000/00 RMK AO2 T01560144
94790KART ART20160629045011706/29/16 04:50:31  5-MIN KART 290950Z AUTO 00000KT 10SM BKN050 14/14 A2990 350 96 400 000/00 RMK AO2 SLP120 T01440139
94790KART ART20160629045511706/29/16 04:55:31  5-MIN KART 290955Z AUTO 15003KT 10SM BKN050 15/14 A2990 350 93 500 160/03 RMK AO2 SLP120 T01500139
94790KART ART20160629050011006/29/16 05:00:31  5-MIN KART 291000Z AUTO 00000KT 10SM BKN050 15/14 A2990 350 96 500 000/00 RMK AO2 T01500144
94790KART ART20160629050511006/29/16 05:05:31  5-MIN KART 291005Z AUTO 19003KT 10SM BKN050 16/14 A2990 350 93 500 200/03 RMK AO2 T01560144
94790KART ART20160629051011006/29/16 05:10:31  5-MIN KART 291010Z AUTO 19003KT 10SM BKN050 16/14 A2990 350 93 500 200/03 RMK AO2 T01560144
94790KART ART20160629051511006/29/16 05:15:31  5-MIN KART 291015Z AUTO 00000KT 10SM OVC050 16/14 A2990 350 93 500 000/00 RMK AO2 T01560144
94790KART ART20160629052011006/29/16 05:20:31  5-MIN KART 291020Z AUTO 00000KT 10SM BKN055 16/14 A2990 350 93 500 000/00 RMK AO2 T01560144
94790KART ART20160629052511006/29/16 05:25:31  5-MIN KART 291025Z AUTO 00000KT 10SM BKN055 16/14 A2990 350 93 500 000/00 RMK AO2 T01560144
94790KART ART20160629053011006/29/16 05:30:31  5-MIN KART 291030Z AUTO 16003KT 10SM SCT055 16/14 A2990 350 93 500 180/03 RMK AO2 T01560144
94790KART ART20160629053511006/29/16 05:35:31  5-MIN KART 291035Z AUTO 00000KT 10SM SCT055 16/14 A2990 350 93 500 000/00 RMK AO2 T01560144
94790KART ART20160629054011006/29/16 05:40:31  5-MIN KART 291040Z AUTO 00000KT 10SM FEW060 16/15 A2989 350 93 600 000/00 RMK AO2 T01610150
94790KART ART20160629054511006/29/16 05:45:31  5-MIN KART 291045Z AUTO 00000KT 10SM FEW060 16/15 A2990 350 93 600 000/00 RMK AO2 T01610150
94790KART ART20160629055011406/29/16 05:50:31  5-MIN KART 291050Z AUTO 00000KT 10SM CLR 17/16 A2990 350 93 700 000/00 RMK AO2 SLP119 T01670156
94790KART ART20160629055511406/29/16 05:55:31  5-MIN KART 291055Z AUTO 00000KT 10SM CLR 17/15 A2990 350 87 700 000/00 RMK AO2 SLP119 T01720150
94790KART ART20160629060010706/29/16 06:00:31  5-MIN KART 291100Z AUTO 00000KT 10SM CLR 17/16 A2990 350 90 700 000/00 RMK AO2 T01720156
94790KART ART20160629060510706/29/16 06:05:31  5-MIN KART 291105Z AUTO 00000KT 10SM CLR 18/15 A2990 350 83 800 000/00 RMK AO2 T01780150
94790KART ART20160629061010706/29/16 06:10:31  5-MIN KART 291110Z AUTO 00000KT 10SM CLR 18/15 A2990 350 83 800 000/00 RMK AO2 T01780150
94790KART ART20160629061510706/29/16 06:15:31  5-MIN KART 291115Z AUTO 00000KT 10SM CLR 18/15 A2990 350 83 800 000/00 RMK AO2 T01780150
94790KART ART20160629062011006/29/16 06:20:31  5-MIN KART 291120Z AUTO 00000KT 10SM FEW017 18/15 A2991 340 81 900 000/00 RMK AO2 T01830150
94790KART ART20160629062511006/29/16 06:25:31  5-MIN KART 291125Z AUTO 00000KT 10SM SCT017 18/15 A2990 340 81 900 000/00 RMK AO2 T01830150
94790KART ART20160629063011006/29/16 06:30:31  5-MIN KART 291130Z AUTO 29003KT 10SM BKN017 18/15 A2991 340 81 900 310/03 RMK AO2 T01830150
94790KART ART20160629063511006/29/16 06:35:31  5-MIN KART 291135Z AUTO 31005KT 10SM BKN017 18/15 A2991 340 81 900 320/05 RMK AO2 T01830150
94790KART ART20160629064011006/29/16 06:40:31  5-MIN KART 291140Z AUTO 31004KT 10SM BKN017 18/14 A2991 340 78 900 320/04 RMK AO2 T01830144
94790KART ART20160629064511006/29/16 06:45:31  5-MIN KART 291145Z AUTO 32004KT 10SM OVC016 18/15 A2991 340 81 900 340/04 RMK AO2 T01830150
94790KART ART20160629065013506/29/16 06:50:31  5-MIN KART 291150Z AUTO 30004KT 10SM OVC016 18/15 A2991 340 81 900 310/04 RMK AO2 SLP124 T01830150 10189 20139 52005
94790KART ART20160629065513506/29/16 06:55:31  5-MIN KART 291155Z AUTO 29004KT 10SM OVC017 18/15 A2991 340 81 800 300/04 RMK AO2 SLP124 T01830150 10189 20139 52005
94790KART ART20160629070011006/29/16 07:00:31  5-MIN KART 291200Z AUTO 30003KT 10SM OVC017 18/14 A2991 340 78 800 320/03 RMK AO2 T01830144
94790KART ART20160629070511006/29/16 07:05:31  5-MIN KART 291205Z AUTO 30004KT 10SM OVC017 19/15 A2991 340 78 900 320/04 RMK AO2 T01890150
94790KART ART20160629071011006/29/16 07:10:31  5-MIN KART 291210Z AUTO 32003KT 10SM OVC017 19/14 A2992 340 75 900 330/03 RMK AO2 T01890144
94790KART ART20160629071511006/29/16 07:15:31  5-MIN KART 291215Z AUTO 31006KT 10SM OVC017 19/15 A2991 340 78 900 320/06 RMK AO2 T01890150
94790KART ART20160629072011006/29/16 07:20:31  5-MIN KART 291220Z AUTO 30005KT 10SM OVC017 19/15 A2991 340 78 900 320/05 RMK AO2 T01890150
94790KART ART20160629072511006/29/16 07:25:31  5-MIN KART 291225Z AUTO 30004KT 10SM OVC018 19/15 A2991 340 78 900 310/04 RMK AO2 T01890150
94790KART ART20160629073011006/29/16 07:30:31  5-MIN KART 291230Z AUTO 32005KT 10SM OVC018 19/15 A2991 340 78 900 330/05 RMK AO2 T01890150
94790KART ART20160629073511106/29/16 07:35:31  5-MIN KART 291235Z AUTO 32005KT 10SM OVC018 19/15 A2991 340 75 1000 330/05 RMK AO2 T01940150
94790KART ART20160629074011006/29/16 07:40:31  5-MIN KART 291240Z AUTO 31005KT 10SM OVC020 19/14 A2991 340 75 900 320/05 RMK AO2 T01890144
94790KART ART20160629074511106/29/16 07:45:31  5-MIN KART 291245Z AUTO 31007KT 10SM OVC020 19/15 A2991 340 75 1000 320/07 RMK AO2 T01940150
94790KART ART20160629075011806/29/16 07:50:31  5-MIN KART 291250Z AUTO 32006KT 10SM OVC019 19/15 A2991 340 75 1000 340/06 RMK AO2 SLP125 T01940150
94790KART ART20160629075511706/29/16 07:55:31  5-MIN KART 291255Z AUTO 32006KT 10SM OVC019 19/15 A2991 340 78 900 330/06 RMK AO2 SLP125 T01890150
94790KART ART20160629080011706/29/16 08:00:31  5-MIN KART 291300Z AUTO 31006KT 10SM BKN018 BKN080 19/15 A2991 340 78 900 320/06 RMK AO2 T01890150
94790KART ART20160629080512406/29/16 08:05:31  5-MIN KART 291305Z AUTO 30004KT 10SM BKN018 BKN075 BKN085 19/15 A2991 340 78 900 320/04 RMK AO2 T01890150
94790KART ART20160629081012406/29/16 08:10:31  5-MIN KART 291310Z AUTO 33003KT 10SM BKN018 BKN075 BKN090 19/15 A2991 340 78 900 340/03 RMK AO2 T01890150
94790KART ART20160629081512506/29/16 08:15:31  5-MIN KART 291315Z AUTO 34005KT 10SM BKN018 BKN070 BKN090 19/15 A2991 340 75 1000 350/05 RMK AO2 T01940150
94790KART ART20160629082012506/29/16 08:20:31  5-MIN KART 291320Z AUTO 33003KT 10SM SCT017 BKN070 BKN090 19/15 A2991 340 75 1000 340/03 RMK AO2 T01940150
94790KART ART20160629082512406/29/16 08:25:31  5-MIN KART 291325Z AUTO 00000KT 10SM SCT017 SCT070 BKN110 19/15 A2991 340 78 900 000/00 RMK AO2 T01890150
94790KART ART20160629083012506/29/16 08:30:31  5-MIN KART 291330Z AUTO 00000KT 10SM SCT017 SCT090 BKN110 19/15 A2991 340 75 1000 000/00 RMK AO2 T01940150
94790KART ART20160629083512506/29/16 08:35:31  5-MIN KART 291335Z AUTO 28004KT 10SM SCT016 BKN095 BKN110 19/15 A2991 340 75 1000 290/04 RMK AO2 T01940150
94790KART ART20160629084012506/29/16 08:40:31  5-MIN KART 291340Z AUTO 32006KT 10SM SCT016 SCT033 BKN090 19/15 A2991 340 75 1000 340/06 RMK AO2 T01940150
94790KART ART20160629084512506/29/16 08:45:31  5-MIN KART 291345Z AUTO 33005KT 10SM SCT016 BKN095 OVC110 19/15 A2991 340 75 1000 340/05 RMK AO2 T01940150
94790KART ART20160629085013106/29/16 08:50:31  5-MIN KART 291350Z AUTO 32005KT 10SM FEW017 BKN095 OVC110 19/15 A2991 340 78 900 330/05 RMK AO2 SLP126 T01890150
94790KART ART20160629085513106/29/16 08:55:31  5-MIN KART 291355Z AUTO 30004KT 10SM FEW017 FEW033 OVC095 19/16 A2992 330 81 900 310/04 RMK AO2 SLP127 T01890156
94790KART ART20160629090012406/29/16 09:00:31  5-MIN KART 291400Z AUTO 30006KT 10SM FEW017 FEW033 OVC095 19/16 A2992 330 81 900 310/06 RMK AO2 T01890156
94790KART ART20160629090512406/29/16 09:05:31  5-MIN KART 291405Z AUTO 31005KT 10SM FEW017 FEW033 OVC095 19/15 A2992 330 78 900 320/05 RMK AO2 T01890150
94790KART ART20160629091011006/29/16 09:10:31  5-MIN KART 291410Z AUTO 31006KT 10SM OVC095 19/16 A2992 330 81 900 320/06 RMK AO2 T01890156
94790KART ART20160629091511006/29/16 09:15:31  5-MIN KART 291415Z AUTO 32006KT 10SM OVC090 19/15 A2993 320 78 900 340/06 RMK AO2 T01890150
94790KART ART20160629092011006/29/16 09:20:31  5-MIN KART 291420Z AUTO 31008KT 10SM OVC090 19/16 A2993 320 81 900 330/08 RMK AO2 T01890156
94790KART ART20160629092511006/29/16 09:25:31  5-MIN KART 291425Z AUTO 30006KT 10SM OVC090 19/16 A2993 320 81 900 310/06 RMK AO2 T01890156
94790KART ART20160629093011006/29/16 09:30:31  5-MIN KART 291430Z AUTO 31008KT 10SM OVC090 19/16 A2993 320 81 900 320/08 RMK AO2 T01890156
94790KART ART20160629093511006/29/16 09:35:31  5-MIN KART 291435Z AUTO 30008KT 10SM OVC090 19/16 A2993 320 81 900 310/08 RMK AO2 T01890156
94790KART ART20160629094011006/29/16 09:40:31  5-MIN KART 291440Z AUTO 30009KT 10SM OVC090 18/16 A2994 320 84 800 310/09 RMK AO2 T01830156
94790KART ART20160629094511706/29/16 09:45:31  5-MIN KART 291445Z AUTO 31008KT 10SM FEW018 OVC090 18/15 A2994 310 81 800 320/08 RMK AO2 T01830150
94790KART ART20160629095013006/29/16 09:50:31  5-MIN KART 291450Z AUTO 30008KT 10SM FEW018 OVC090 18/16 A2994 310 84 800 310/08 RMK AO2 SLP135 T01830156 53005
94790KART ART20160629095512306/29/16 09:55:31  5-MIN KART 291455Z AUTO 30006KT 10SM OVC090 18/16 A2994 310 84 800 310/06 RMK AO2 SLP135 T01830156 53005
94790KART ART20160629100011006/29/16 10:00:31  5-MIN KART 291500Z AUTO 29007KT 10SM OVC090 18/16 A2994 310 84 800 310/07 RMK AO2 T01830156
94790KART ART20160629100511006/29/16 10:05:31  5-MIN KART 291505Z AUTO 32007KT 10SM OVC090 19/16 A2994 310 81 900 330/07 RMK AO2 T01890156
94790KART ART20160629101011706/29/16 10:10:31  5-MIN KART 291510Z AUTO 30007KT 10SM FEW012 OVC090 19/16 A2994 310 81 900 310/07 RMK AO2 T01890156
94790KART ART20160629101511706/29/16 10:15:31  5-MIN KART 291515Z AUTO 30007KT 10SM FEW012 OVC090 19/16 A2994 310 81 900 310/07 RMK AO2 T01890156
94790KART ART20160629102011706/29/16 10:20:31  5-MIN KART 291520Z AUTO 30008KT 10SM SCT012 OVC090 19/16 A2994 310 81 900 320/08 RMK AO2 T01940161
94790KART ART20160629102511706/29/16 10:25:31  5-MIN KART 291525Z AUTO 30007KT 10SM BKN012 OVC090 19/16 A2994 310 81 900 310/07 RMK AO2 T01940161
94790KART ART20160629103014006/29/16 10:30:31  5-MIN KART 291530Z AUTO 31008KT 10SM -RA SCT014 BKN033 OVC090 19/16 A2994 310 81 900 320/08 RMK AO2 RAB27 P0000 T01940161
94790KART ART20160629103514006/29/16 10:35:31  5-MIN KART 291535Z AUTO 27007KT 10SM -RA SCT014 BKN022 OVC095 19/16 A2994 310 81 900 290/07 RMK AO2 RAB27 P0000 T01940161
94790KART ART20160629104014106/29/16 10:40:31  5-MIN KART 291540Z AUTO 30008KT 10SM -RA SCT014 BKN019 OVC090 20/16 A2994 320 75 1000 310/08 RMK AO2 RAB27 P0000 T02000156
94790KART ART20160629104514006/29/16 10:45:31  5-MIN KART 291545Z AUTO 29008KT 10SM SCT013 BKN019 OVC095 19/16 A2993 320 78 1000 310/08 RMK AO2 RAB27E42 P0000 T01940156
94790KART ART20160629105013006/29/16 10:50:31  5-MIN KART 291550Z AUTO 30008KT 10SM SCT015 SCT028 OVC095 20/16 A2993 320 75 1000 310/08 RMK AO2 RAB27E42 P0000
94790KART ART20160629105514706/29/16 10:55:31  5-MIN KART 291555Z AUTO 26006KT 10SM SCT017 BKN050 OVC095 20/16 A2993 320 75 1000 270/06 RMK AO2 RAB27E42 SLP132 P0000 T02000156
94790KART ART20160629110012506/29/16 11:00:31  5-MIN KART 291600Z AUTO 30006KT 10SM SCT017 BKN050 OVC095 21/16 A2993 320 73 1100 310/06 RMK AO2 T02060156
94790KART ART20160629110512506/29/16 11:05:31  5-MIN KART 291605Z AUTO 28010KT 10SM SCT017 BKN050 OVC095 21/16 A2993 320 70 1200 290/10 RMK AO2 T02110156
94790KART ART20160629111012506/29/16 11:10:31  5-MIN KART 291610Z AUTO 28006KT 10SM SCT019 BKN050 OVC095 21/16 A2993 330 73 1100 290/06 RMK AO2 T02060156
94790KART ART20160629111512506/29/16 11:15:31  5-MIN KART 291615Z AUTO 27010KT 10SM SCT019 SCT050 OVC095 21/16 A2992 330 70 1200 280/10 RMK AO2 T02110156
94790KART ART20160629112012506/29/16 11:20:31  5-MIN KART 291620Z AUTO 26008KT 10SM SCT019 SCT024 OVC095 21/16 A2992 330 73 1100 270/08 RMK AO2 T02060156
94790KART ART20160629112512506/29/16 11:25:31  5-MIN KART 291625Z AUTO 28007KT 10SM SCT019 BKN024 OVC095 21/16 A2992 330 73 1100 290/07 RMK AO2 T02060156
94790KART ART20160629113012506/29/16 11:30:31  5-MIN KART 291630Z AUTO 27009KT 10SM SCT019 BKN024 OVC095 21/15 A2992 330 70 1100 280/09 RMK AO2 T02060150
94790KART ART20160629113511806/29/16 11:35:31  5-MIN KART 291635Z AUTO 26008KT 10SM BKN022 OVC100 21/15 A2992 330 70 1100 270/08 RMK AO2 T02060150
94790KART ART20160629114011806/29/16 11:40:31  5-MIN KART 291640Z AUTO 27008KT 10SM SCT022 BKN100 22/16 A2992 330 68 1200 280/08 RMK AO2 T02170156
94790KART ART20160629114511806/29/16 11:45:31  5-MIN KART 291645Z AUTO 27009KT 10SM BKN022 BKN100 22/15 A2992 330 65 1200 280/09 RMK AO2 T02170150
94790KART ART20160629115013206/29/16 11:50:31  5-MIN KART 291650Z AUTO 27010KT 10SM BKN022 BKN027 BKN100 22/16 A2992 330 65 1300 280/10 RMK AO2 SLP129 T02220156
94790KART ART20160629115512506/29/16 11:55:31  5-MIN KART 291655Z AUTO 27009KT 10SM BKN024 BKN100 22/16 A2992 330 65 1300 290/09 RMK AO2 SLP129 T02220156
94790KART ART20160629120011806/29/16 12:00:31  5-MIN KART 291700Z AUTO 26007KT 10SM BKN024 BKN100 22/15 A2992 330 63 1300 270/07 RMK AO2 T02220150
94790KART ART20160629120511106/29/16 12:05:31  5-MIN KART 291705Z AUTO 27009KT 10SM BKN024 22/15 A2992 330 65 1200 280/09 RMK AO2 T02170150
94790KART ART20160629121011806/29/16 12:10:31  5-MIN KART 291710Z AUTO VRB06KT 10SM BKN024 BKN030 21/15 A2993 330 68 1200 VRB/06 RMK AO2 T02110150
94790KART ART20160629121511806/29/16 12:15:31  5-MIN KART 291715Z AUTO 26006KT 10SM SCT024 SCT030 22/15 A2992 330 65 1200 270/06 RMK AO2 T02170150
94790KART ART20160629122011106/29/16 12:20:31  5-MIN KART 291720Z AUTO 26009KT 10SM SCT026 22/16 A2992 330 65 1300 270/09 RMK AO2 T02220156
94790KART ART20160629122511106/29/16 12:25:31  5-MIN KART 291725Z AUTO 27011KT 10SM FEW026 22/16 A2992 330 68 1200 280/11 RMK AO2 T02170156
94790KART ART20160629123011806/29/16 12:30:31  5-MIN KART 291730Z AUTO 24008KT 10SM FEW026 SCT032 21/16 A2992 330 70 1200 250/08 RMK AO2 T02110156
94790KART ART20160629123511806/29/16 12:35:31  5-MIN KART 291735Z AUTO 24009KT 10SM SCT026 SCT032 22/16 A2992 330 70 1200 250/09 RMK AO2 T02170161
94790KART ART20160629124011106/29/16 12:40:31  5-MIN KART 291740Z AUTO 22009KT 10SM SCT026 22/16 A2993 330 68 1300 240/09 RMK AO2 T02220161
94790KART ART20160629124511106/29/16 12:45:31  5-MIN KART 291745Z AUTO 25008KT 10SM FEW026 22/16 A2993 330 68 1300 260/08 RMK AO2 T02220161
94790KART ART20160629125014206/29/16 12:50:31  5-MIN KART 291750Z AUTO 24009KT 10SM FEW026 22/16 A2992 330 70 1200 260/09 RMK AO2 SLP129 60000 T02170161 10222 20183 53009
94790KART ART20160629125514206/29/16 12:55:31  5-MIN KART 291755Z AUTO 22010KT 10SM FEW026 22/16 A2992 330 70 1200 230/10 RMK AO2 SLP129 60000 T02170161 10222 20183 53009
94790KART ART20160629130011106/29/16 13:00:31  5-MIN KART 291800Z AUTO 23010KT 10SM FEW026 22/16 A2992 330 68 1300 250/10 RMK AO2 T02220161
94790KART ART20160629130511106/29/16 13:05:31  5-MIN KART 291805Z AUTO 25008KT 10SM FEW024 22/16 A2992 330 68 1200 260/08 RMK AO2 T02170156
94790KART ART20160629131011106/29/16 13:10:31  5-MIN KART 291810Z AUTO 26012KT 10SM FEW024 22/16 A2992 330 65 1300 270/12 RMK AO2 T02220156
94790KART ART20160629131511106/29/16 13:15:31  5-MIN KART 291815Z AUTO 26011KT 10SM FEW024 22/16 A2993 320 65 1300 270/11 RMK AO2 T02220156
94790KART ART20160629132011106/29/16 13:20:31  5-MIN KART 291820Z AUTO 24010KT 10SM FEW024 22/16 A2992 330 68 1300 260/10 RMK AO2 T02220161
94790KART ART20160629132510806/29/16 13:25:31  5-MIN KART 291825Z AUTO 24011KT 10SM CLR 22/16 A2993 320 65 1300 250/11 RMK AO2 T02220156
94790KART ART20160629133010806/29/16 13:30:31  5-MIN KART 291830Z AUTO 23010KT 10SM CLR 22/16 A2993 320 65 1300 250/10 RMK AO2 T02220156
94790KART ART20160629133510806/29/16 13:35:31  5-MIN KART 291835Z AUTO 24010KT 10SM CLR 22/16 A2993 320 68 1200 250/10 RMK AO2 T02170156
94790KART ART20160629134010806/29/16 13:40:31  5-MIN KART 291840Z AUTO 24011KT 10SM CLR 22/16 A2993 320 68 1200 250/11 RMK AO2 T02170156
94790KART ART20160629134510806/29/16 13:45:31  5-MIN KART 291845Z AUTO 25012KT 10SM CLR 22/16 A2993 320 70 1200 260/12 RMK AO2 T02170161
94790KART ART20160629135011506/29/16 13:50:31  5-MIN KART 291850Z AUTO 26011KT 10SM CLR 22/16 A2993 320 65 1300 270/11 RMK AO2 SLP131 T02220156
94790KART ART20160629135512106/29/16 13:55:31  5-MIN KART 291855Z AUTO 26011G19KT 10SM CLR 22/16 A2993 320 65 1300 270/11G19 RMK AO2 SLP130 T02220156
94790KART ART20160629140011406/29/16 14:00:31  5-MIN KART 291900Z AUTO 26015G20KT 10SM CLR 22/16 A2993 320 65 1300 280/15G20 RMK AO2 T02220156
94790KART ART20160629140511406/29/16 14:05:31  5-MIN KART 291905Z AUTO 25010G20KT 10SM CLR 22/16 A2993 320 65 1300 260/10G20 RMK AO2 T02220156
94790KART ART20160629141010806/29/16 14:10:31  5-MIN KART 291910Z AUTO 26013KT 10SM CLR 22/16 A2993 320 68 1200 270/13 RMK AO2 T02170156
94790KART ART20160629141511406/29/16 14:15:31  5-MIN KART 291915Z AUTO 25011G18KT 10SM CLR 22/16 A2993 320 65 1300 260/11G18 RMK AO2 T02220156
94790KART ART20160629142011406/29/16 14:20:31  5-MIN KART 291920Z AUTO 26012G18KT 10SM CLR 22/16 A2993 320 65 1300 270/12G18 RMK AO2 T02220156
94790KART ART20160629142510806/29/16 14:25:31  5-MIN KART 291925Z AUTO 26013KT 10SM CLR 22/16 A2993 320 65 1300 270/13 RMK AO2 T02220156
94790KART ART20160629143010806/29/16 14:30:31  5-MIN KART 291930Z AUTO 25012KT 10SM CLR 23/16 A2993 320 63 1300 270/12 RMK AO2 T02280156
94790KART ART20160629143511406/29/16 14:35:31  5-MIN KART 291935Z AUTO 26013G17KT 10SM CLR 22/16 A2993 320 65 1300 270/13G17 RMK AO2 T02220156
94790KART ART20160629144011406/29/16 14:40:31  5-MIN KART 291940Z AUTO 25013G17KT 10SM CLR 22/15 A2993 320 63 1300 260/13G17 RMK AO2 T02220150
94790KART ART20160629144511406/29/16 14:45:31  5-MIN KART 291945Z AUTO 25010G17KT 10SM CLR 22/16 A2993 320 65 1300 260/10G17 RMK AO2 T02220156
94790KART ART20160629145011506/29/16 14:50:31  5-MIN KART 291950Z AUTO 25010KT 10SM CLR 22/15 A2993 320 63 1300 260/10 RMK AO2 SLP132 T02220150
94790KART ART20160629145511506/29/16 14:55:31  5-MIN KART 291955Z AUTO 26014KT 10SM CLR 22/16 A2993 320 65 1300 270/14 RMK AO2 SLP132 T02220156
94790KART ART20160629150011406/29/16 15:00:31  5-MIN KART 292000Z AUTO 25011G17KT 10SM CLR 22/16 A2993 320 65 1300 270/11G17 RMK AO2 T02220156
94790KART ART20160629150511406/29/16 15:05:31  5-MIN KART 292005Z AUTO 26013G18KT 10SM CLR 22/16 A2993 320 65 1300 270/13G18 RMK AO2 T02220156
94790KART ART20160629151011406/29/16 15:10:31  5-MIN KART 292010Z AUTO 25011G18KT 10SM CLR 22/16 A2993 320 68 1300 260/11G18 RMK AO2 T02220161
94790KART ART20160629151511406/29/16 15:15:31  5-MIN KART 292015Z AUTO 26010G19KT 10SM CLR 22/16 A2993 330 65 1300 270/10G19 RMK AO2 T02220156
94790KART ART20160629152011406/29/16 15:20:31  5-MIN KART 292020Z AUTO 24011G19KT 10SM CLR 23/16 A2992 330 65 1300 250/11G19 RMK AO2 T02280161
94790KART ART20160629152510806/29/16 15:25:31  5-MIN KART 292025Z AUTO 24010KT 10SM CLR 22/16 A2992 330 65 1300 250/10 RMK AO2 T02220156
94790KART ART20160629153010806/29/16 15:30:31  5-MIN KART 292030Z AUTO 24010KT 10SM CLR 22/16 A2992 330 65 1300 250/10 RMK AO2 T02220156
94790KART ART20160629153510806/29/16 15:35:31  5-MIN KART 292035Z AUTO 23009KT 10SM CLR 22/16 A2992 330 68 1300 240/09 RMK AO2 T02220161
94790KART ART20160629154010806/29/16 15:40:31  5-MIN KART 292040Z AUTO 24009KT 10SM CLR 22/16 A2992 330 68 1300 250/09 RMK AO2 T02220161
94790KART ART20160629154510806/29/16 15:45:31  5-MIN KART 292045Z AUTO 25009KT 10SM CLR 22/16 A2992 330 65 1300 260/09 RMK AO2 T02220156
94790KART ART20160629155012106/29/16 15:50:31  5-MIN KART 292050Z AUTO 23008KT 10SM CLR 22/16 A2992 330 65 1300 240/08 RMK AO2 SLP128 T02220156 56003
94790KART ART20160629155512106/29/16 15:55:31  5-MIN KART 292055Z AUTO 25008KT 10SM CLR 23/16 A2992 330 65 1400 260/08 RMK AO2 SLP127 T02280161 56003
94790KART ART20160629160010806/29/16 16:00:31  5-MIN KART 292100Z AUTO 26010KT 10SM CLR 22/16 A2992 330 65 1300 270/10 RMK AO2 T02220156
94790KART ART20160629160510806/29/16 16:05:31  5-MIN KART 292105Z AUTO 24008KT 10SM CLR 22/16 A2992 330 65 1300 260/08 RMK AO2 T02220156
94790KART ART20160629161010806/29/16 16:10:31  5-MIN KART 292110Z AUTO 24009KT 10SM CLR 23/16 A2992 330 63 1400 260/09 RMK AO2 T02280156
94790KART ART20160629161510806/29/16 16:15:31  5-MIN KART 292115Z AUTO 24007KT 10SM CLR 22/16 A2992 330 65 1300 250/07 RMK AO2 T02220156
94790KART ART20160629162010806/29/16 16:20:31  5-MIN KART 292120Z AUTO 25009KT 10SM CLR 23/16 A2992 330 63 1400 270/09 RMK AO2 T02280156
94790KART ART20160629162510806/29/16 16:25:31  5-MIN KART 292125Z AUTO 25008KT 10SM CLR 23/16 A2992 330 63 1400 260/08 RMK AO2 T02280156
94790KART ART20160629163010806/29/16 16:30:31  5-MIN KART 292130Z AUTO 24007KT 10SM CLR 23/16 A2992 330 63 1400 250/07 RMK AO2 T02280156
94790KART ART20160629163510806/29/16 16:35:31  5-MIN KART 292135Z AUTO 24009KT 10SM CLR 23/16 A2992 330 63 1400 260/09 RMK AO2 T02280156
94790KART ART20160629164010806/29/16 16:40:31  5-MIN KART 292140Z AUTO 24008KT 10SM CLR 23/16 A2992 330 63 1400 260/08 RMK AO2 T02280156
94790KART ART20160629164510806/29/16 16:45:31  5-MIN KART 292145Z AUTO 23010KT 10SM CLR 23/16 A2992 330 63 1400 240/10 RMK AO2 T02280156
94790KART ART20160629165011506/29/16 16:50:31  5-MIN KART 292150Z AUTO 24007KT 10SM CLR 23/16 A2992 330 63 1400 250/07 RMK AO2 SLP128 T02280156
94790KART ART20160629165511506/29/16 16:55:31  5-MIN KART 292155Z AUTO 25007KT 10SM CLR 23/16 A2992 330 65 1400 260/07 RMK AO2 SLP128 T02280161
94790KART ART20160629170011106/29/16 17:00:31  5-MIN KART 292200Z AUTO 23008KT 10SM FEW100 23/16 A2992 330 63 1400 250/08 RMK AO2 T02280156
94790KART ART20160629170511106/29/16 17:05:31  5-MIN KART 292205Z AUTO 24007KT 10SM SCT100 22/16 A2992 330 65 1300 260/07 RMK AO2 T02220156
94790KART ART20160629171011106/29/16 17:10:31  5-MIN KART 292210Z AUTO 24006KT 10SM SCT100 22/16 A2992 330 65 1300 260/06 RMK AO2 T02220156
94790KART ART20160629171511106/29/16 17:15:31  5-MIN KART 292215Z AUTO 25007KT 10SM FEW100 22/16 A2992 330 65 1300 260/07 RMK AO2 T02220156
94790KART ART20160629172011106/29/16 17:20:31  5-MIN KART 292220Z AUTO 23009KT 10SM FEW100 22/15 A2992 330 63 1300 240/09 RMK AO2 T02220150
94790KART ART20160629172511106/29/16 17:25:31  5-MIN KART 292225Z AUTO 25009KT 10SM FEW100 23/16 A2992 330 63 1300 260/09 RMK AO2 T02280156
94790KART ART20160629173011106/29/16 17:30:31  5-MIN KART 292230Z AUTO 24009KT 10SM FEW100 22/16 A2992 330 65 1300 250/09 RMK AO2 T02220156
94790KART ART20160629173510806/29/16 17:35:31  5-MIN KART 292235Z AUTO 25008KT 10SM CLR 22/16 A2993 320 65 1300 260/08 RMK AO2 T02220156
94790KART ART20160629174010806/29/16 17:40:31  5-MIN KART 292240Z AUTO 24008KT 10SM CLR 22/16 A2992 330 65 1300 260/08 RMK AO2 T02220156
94790KART ART20160629174510806/29/16 17:45:31  5-MIN KART 292245Z AUTO 24008KT 10SM CLR 22/15 A2993 320 63 1300 250/08 RMK AO2 T02220150
94790KART ART20160629175011506/29/16 17:50:31  5-MIN KART 292250Z AUTO 24007KT 10SM CLR 22/15 A2993 320 63 1300 250/07 RMK AO2 SLP130 T02220150
94790KART ART20160629175511506/29/16 17:55:31  5-MIN KART 292255Z AUTO 22008KT 10SM CLR 22/16 A2993 320 65 1300 240/08 RMK AO2 SLP131 T02220156
94790KART ART20160629180010806/29/16 18:00:31  5-MIN KART 292300Z AUTO 23009KT 10SM CLR 22/16 A2993 320 65 1300 240/09 RMK AO2 T02220156
94790KART ART20160629180511106/29/16 18:05:31  5-MIN KART 292305Z AUTO 24008KT 10SM FEW080 22/15 A2993 320 63 1300 250/08 RMK AO2 T02220150
94790KART ART20160629181011106/29/16 18:10:31  5-MIN KART 292310Z AUTO 23006KT 10SM FEW080 22/15 A2994 320 65 1200 250/06 RMK AO2 T02170150
94790KART ART20160629181510806/29/16 18:15:31  5-MIN KART 292315Z AUTO 23008KT 10SM CLR 22/16 A2994 320 68 1200 240/08 RMK AO2 T02170156
94790KART ART20160629182010806/29/16 18:20:31  5-MIN KART 292320Z AUTO 24007KT 10SM CLR 22/16 A2994 310 68 1200 250/07 RMK AO2 T02170156
94790KART ART20160629182510806/29/16 18:25:31  5-MIN KART 292325Z AUTO 22009KT 10SM CLR 21/16 A2994 310 70 1100 230/09 RMK AO2 T02110156
94790KART ART20160629183010806/29/16 18:30:31  5-MIN KART 292330Z AUTO 23009KT 10SM CLR 21/16 A2994 310 73 1100 240/09 RMK AO2 T02060156
94790KART ART20160629183510806/29/16 18:35:31  5-MIN KART 292335Z AUTO 23009KT 10SM CLR 20/16 A2994 310 75 1000 240/09 RMK AO2 T02000156
94790KART ART20160629184010806/29/16 18:40:31  5-MIN KART 292340Z AUTO 23006KT 10SM CLR 20/16 A2994 310 75 1000 240/06 RMK AO2 T02000156
94790KART ART20160629184511106/29/16 18:45:31  5-MIN KART 292345Z AUTO 23006KT 10SM FEW075 20/16 A2994 310 75 1000 240/06 RMK AO2 T02000156
94790KART ART20160629185013606/29/16 18:50:31  5-MIN KART 292350Z AUTO 23006KT 10SM SCT075 20/16 A2994 310 75 1000 250/06 RMK AO2 SLP135 T02000156 10228 20200 58001
94790KART ART20160629185514306/29/16 18:55:31  5-MIN KART 292355Z AUTO 23006KT 10SM FEW060 SCT075 20/16 A2994 310 75 1000 240/06 RMK AO2 SLP135 T02000156 10228 20200 58001
94790KART ART20160629190011806/29/16 19:00:31  5-MIN KART 300000Z AUTO 23006KT 10SM FEW060 SCT075 20/16 A2994 310 75 1000 240/06 RMK AO2 T02000156
94790KART ART20160629190511106/29/16 19:05:31  5-MIN KART 300005Z AUTO 23006KT 10SM SCT075 20/16 A2994 310 75 1000 240/06 RMK AO2 T02000156
94790KART ART20160629191011806/29/16 19:10:31  5-MIN KART 300010Z AUTO 22007KT 10SM FEW060 SCT075 20/16 A2994 310 75 1000 240/07 RMK AO2 T02000156
94790KART ART20160629191511806/29/16 19:15:31  5-MIN KART 300015Z AUTO 22006KT 10SM FEW060 SCT075 20/16 A2994 310 75 1000 230/06 RMK AO2 T02000156
94790KART ART20160629192011106/29/16 19:20:31  5-MIN KART 300020Z AUTO 22006KT 10SM SCT065 20/16 A2994 310 75 1000 230/06 RMK AO2 T02000156
94790KART ART20160629192511106/29/16 19:25:31  5-MIN KART 300025Z AUTO 22006KT 10SM SCT065 20/16 A2994 310 75 1000 230/06 RMK AO2 T02000156
94790KART ART20160629193011006/29/16 19:30:31  5-MIN KART 300030Z AUTO 22006KT 10SM BKN070 19/16 A2994 310 78 900 240/06 RMK AO2 T01940156
94790KART ART20160629193511006/29/16 19:35:31  5-MIN KART 300035Z AUTO 23006KT 10SM BKN070 19/16 A2994 310 78 900 240/06 RMK AO2 T01940156
94790KART ART20160629194011006/29/16 19:40:31  5-MIN KART 300040Z AUTO 22006KT 10SM BKN065 19/16 A2994 310 78 900 240/06 RMK AO2 T01940156
94790KART ART20160629194511706/29/16 19:45:31  5-MIN KART 300045Z AUTO 22006KT 10SM BKN060 BKN070 19/16 A2994 310 78 900 240/06 RMK AO2 T01940156
94790KART ART20160629195012406/29/16 19:50:31  5-MIN KART 300050Z AUTO 24005KT 10SM BKN060 BKN070 19/15 A2994 310 78 900 250/05 RMK AO2 SLP136 T01890150
94790KART ART20160629195512406/29/16 19:55:31  5-MIN KART 300055Z AUTO 23006KT 10SM SCT060 BKN070 19/15 A2994 310 78 900 240/06 RMK AO2 SLP135 T01890150
94790KART ART20160629200011706/29/16 20:00:31  5-MIN KART 300100Z AUTO 23006KT 10SM SCT060 BKN075 19/15 A2994 310 78 900 240/06 RMK AO2 T01890150
94790KART ART20160629200511706/29/16 20:05:31  5-MIN KART 300105Z AUTO 22005KT 10SM FEW055 SCT075 19/15 A2994 310 78 900 230/05 RMK AO2 T01890150
94790KART ART20160629201011706/29/16 20:10:31  5-MIN KART 300110Z AUTO 22006KT 10SM FEW055 SCT075 19/15 A2994 310 78 900 230/06 RMK AO2 T01890150
94790KART ART20160629201511006/29/16 20:15:31  5-MIN KART 300115Z AUTO 22005KT 10SM FEW075 19/15 A2994 310 78 900 230/05 RMK AO2 T01890150
94790KART ART20160629202011006/29/16 20:20:31  5-MIN KART 300120Z AUTO 22005KT 10SM FEW075 18/15 A2994 310 81 800 230/05 RMK AO2 T01830150
94790KART ART20160629202510706/29/16 20:25:31  5-MIN KART 300125Z AUTO 21005KT 10SM CLR 18/15 A2994 310 81 800 230/05 RMK AO2 T01830150
94790KART ART20160629203010706/29/16 20:30:31  5-MIN KART 300130Z AUTO 21006KT 10SM CLR 18/14 A2994 310 78 800 230/06 RMK AO2 T01830144
94790KART ART20160629203510706/29/16 20:35:31  5-MIN KART 300135Z AUTO 21005KT 10SM CLR 18/15 A2995 310 81 800 220/05 RMK AO2 T01830150
94790KART ART20160629204010706/29/16 20:40:31  5-MIN KART 300140Z AUTO 20005KT 10SM CLR 18/14 A2995 310 78 800 210/05 RMK AO2 T01830144
94790KART ART20160629204510706/29/16 20:45:31  5-MIN KART 300145Z AUTO 20005KT 10SM CLR 18/14 A2995 300 78 800 210/05 RMK AO2 T01830144
94790KART ART20160629205011406/29/16 20:50:31  5-MIN KART 300150Z AUTO 19004KT 10SM CLR 18/14 A2995 300 81 700 200/04 RMK AO2 SLP138 T01780144
94790KART ART20160629205511406/29/16 20:55:31  5-MIN KART 300155Z AUTO 21004KT 10SM CLR 18/14 A2995 300 81 700 220/04 RMK AO2 SLP138 T01780144
94790KART ART20160629210010706/29/16 21:00:31  5-MIN KART 300200Z AUTO 21005KT 10SM CLR 18/14 A2995 300 81 700 230/05 RMK AO2 T01780144
94790KART ART20160629210510706/29/16 21:05:31  5-MIN KART 300205Z AUTO 21005KT 10SM CLR 17/14 A2995 300 80 700 220/05 RMK AO2 T01720139
94790KART ART20160629211010706/29/16 21:10:31  5-MIN KART 300210Z AUTO 21003KT 10SM CLR 17/14 A2995 300 80 700 220/03 RMK AO2 T01720139
94790KART ART20160629211510706/29/16 21:15:31  5-MIN KART 300215Z AUTO 00000KT 10SM CLR 17/14 A2995 300 83 600 000/00 RMK AO2 T01670139
94790KART ART20160629212010706/29/16 21:20:31  5-MIN KART 300220Z AUTO 18004KT 10SM CLR 16/14 A2995 300 86 500 190/04 RMK AO2 T01610139
94790KART ART20160629212510706/29/16 21:25:31  5-MIN KART 300225Z AUTO 18004KT 10SM CLR 17/14 A2995 300 83 600 190/04 RMK AO2 T01670139
94790KART ART20160629213010706/29/16 21:30:31  5-MIN KART 300230Z AUTO 17004KT 10SM CLR 17/13 A2995 300 80 600 190/04 RMK AO2 T01670133
94790KART ART20160629213510706/29/16 21:35:31  5-MIN KART 300235Z AUTO 17005KT 10SM CLR 17/13 A2995 300 80 600 180/05 RMK AO2 T01670133
94790KART ART20160629214010706/29/16 21:40:31  5-MIN KART 300240Z AUTO 16005KT 10SM CLR 17/13 A2996 300 80 600 170/05 RMK AO2 T01670133
94790KART ART20160629214510706/29/16 21:45:31  5-MIN KART 300245Z AUTO 16005KT 10SM CLR 16/13 A2996 300 83 500 170/05 RMK AO2 T01610133
94790KART ART20160629215012006/29/16 21:50:31  5-MIN KART 300250Z AUTO 16005KT 10SM CLR 17/13 A2996 300 80 600 170/05 RMK AO2 SLP142 T01670133 53007
94790KART ART20160629215512006/29/16 21:55:31  5-MIN KART 300255Z AUTO 16005KT 10SM CLR 17/13 A2996 300 80 600 170/05 RMK AO2 SLP142 T01670133 53007
94790KART ART20160629220010706/29/16 22:00:31  5-MIN KART 300300Z AUTO 17005KT 10SM CLR 16/13 A2996 290 83 500 180/05 RMK AO2 T01610133
94790KART ART20160629220510706/29/16 22:05:31  5-MIN KART 300305Z AUTO 17004KT 10SM CLR 17/13 A2996 290 80 600 190/04 RMK AO2 T01670133
94790KART ART20160629221010706/29/16 22:10:31  5-MIN KART 300310Z AUTO 18004KT 10SM CLR 17/13 A2996 290 80 600 190/04 RMK AO2 T01670133
94790KART ART20160629221510706/29/16 22:15:31  5-MIN KART 300315Z AUTO 17005KT 10SM CLR 17/13 A2996 290 80 600 190/05 RMK AO2 T01670133
94790KART ART20160629222010706/29/16 22:20:31  5-MIN KART 300320Z AUTO 18005KT 10SM CLR 17/13 A2996 290 80 600 190/05 RMK AO2 T01670133
94790KART ART20160629222510706/29/16 22:25:31  5-MIN KART 300325Z AUTO 18005KT 10SM CLR 17/13 A2996 290 80 600 190/05 RMK AO2 T01670133
94790KART ART20160629223010706/29/16 22:30:31  5-MIN KART 300330Z AUTO 17005KT 10SM CLR 17/13 A2996 290 80 600 190/05 RMK AO2 T01670133
94790KART ART20160629223510706/29/16 22:35:31  5-MIN KART 300335Z AUTO 18004KT 10SM CLR 17/13 A2996 290 77 600 190/04 RMK AO2 T01670128
94790KART ART20160629224010706/29/16 22:40:31  5-MIN KART 300340Z AUTO 18004KT 10SM CLR 16/13 A2996 290 80 500 190/04 RMK AO2 T01610128
94790KART ART20160629224510706/29/16 22:45:31  5-MIN KART 300345Z AUTO 17004KT 10SM CLR 16/13 A2996 290 80 500 190/04 RMK AO2 T01610128
94790KART ART20160629225011406/29/16 22:50:31  5-MIN KART 300350Z AUTO 17004KT 10SM CLR 16/13 A2996 300 80 500 180/04 RMK AO2 SLP141 T01610128
94790KART ART20160629225511406/29/16 22:55:31  5-MIN KART 300355Z AUTO 17005KT 10SM CLR 16/13 A2996 300 80 500 180/05 RMK AO2 SLP140 T01610128
94790KART ART20160629230010706/29/16 23:00:31  5-MIN KART 300400Z AUTO 17005KT 10SM CLR 16/13 A2996 300 80 500 190/05 RMK AO2 T01610128
94790KART ART20160629230510706/29/16 23:05:31  5-MIN KART 300405Z AUTO 17005KT 10SM CLR 16/13 A2996 300 80 500 190/05 RMK AO2 T01610128
94790KART ART20160629231010706/29/16 23:10:31  5-MIN KART 300410Z AUTO 18004KT 10SM CLR 16/13 A2996 300 80 500 190/04 RMK AO2 T01610128
94790KART ART20160629231510706/29/16 23:15:31  5-MIN KART 300415Z AUTO 17004KT 10SM CLR 16/13 A2996 300 80 500 190/04 RMK AO2 T01610128
94790KART ART20160629232010706/29/16 23:20:31  5-MIN KART 300420Z AUTO 18004KT 10SM CLR 16/13 A2995 300 83 500 190/04 RMK AO2 T01610133
94790KART ART20160629232510706/29/16 23:25:31  5-MIN KART 300425Z AUTO 17005KT 10SM CLR 16/13 A2996 300 86 500 180/05 RMK AO2 T01560133
94790KART ART20160629233010706/29/16 23:30:31  5-MIN KART 300430Z AUTO 17005KT 10SM CLR 16/13 A2996 300 83 500 190/05 RMK AO2 T01610133
94790KART ART20160629233510706/29/16 23:35:31  5-MIN KART 300435Z AUTO 19004KT 10SM CLR 16/13 A2996 290 86 500 200/04 RMK AO2 T01560133
94790KART ART20160629234010706/29/16 23:40:31  5-MIN KART 300440Z AUTO 19006KT 10SM CLR 16/13 A2996 290 83 500 200/06 RMK AO2 T01560128
94790KART ART20160629234510706/29/16 23:45:31  5-MIN KART 300445Z AUTO 19005KT 10SM CLR 16/13 A2996 290 86 500 210/05 RMK AO2 T01560133
94790KART ART20160629235012406/29/16 23:50:31  5-MIN KART 300450Z AUTO 19006KT 10SM CLR 16/13 A2996 300 86 500 200/06 RMK AO2 SLP141 T01560133 402280139
94790KART ART20160629235512406/29/16 23:55:31  5-MIN KART 300455Z AUTO 20006KT 10SM CLR 16/13 A2996 300 86 500 210/06 RMK AO2 SLP141 T01560133 402280139
94790KART ART20160630000010706/30/16 00:00:31  5-MIN KART 300500Z AUTO 19005KT 10SM CLR 16/13 A2996 290 86 500 200/05 RMK AO2 T01560133
94790KART ART20160630000510706/30/16 00:05:31  5-MIN KART 300505Z AUTO 17004KT 10SM CLR 16/13 A2996 290 86 500 180/04 RMK AO2 T01560133
94790KART ART20160630001010706/30/16 00:10:31  5-MIN KART 300510Z AUTO 16006KT 10SM CLR 16/13 A2996 290 86 500 180/06 RMK AO2 T01560133
94790KART ART20160630001510706/30/16 00:15:31  5-MIN KART 300515Z AUTO 19004KT 10SM CLR 16/13 A2996 290 86 500 200/04 RMK AO2 T01560133
94790KART ART20160630002010706/30/16 00:20:31  5-MIN KART 300520Z AUTO 21003KT 10SM CLR 16/13 A2996 290 83 500 220/03 RMK AO2 T01560128
94790KART ART20160630002510706/30/16 00:25:31  5-MIN KART 300525Z AUTO 19003KT 10SM CLR 16/13 A2996 290 83 500 200/03 RMK AO2 T01560128
94790KART ART20160630003010706/30/16 00:30:31  5-MIN KART 300530Z AUTO 17003KT 10SM CLR 15/13 A2996 290 86 400 190/03 RMK AO2 T01500128
94790KART ART20160630003510706/30/16 00:35:31  5-MIN KART 300535Z AUTO 16005KT 10SM CLR 15/13 A2996 290 86 400 170/05 RMK AO2 T01500128
94790KART ART20160630004010706/30/16 00:40:31  5-MIN KART 300540Z AUTO 16005KT 10SM CLR 15/13 A2996 290 86 400 170/05 RMK AO2 T01500128
94790KART ART20160630004510706/30/16 00:45:31  5-MIN KART 300545Z AUTO 16006KT 10SM CLR 15/13 A2996 290 86 400 180/06 RMK AO2 T01500128
94790KART ART20160630005013206/30/16 00:50:31  5-MIN KART 300550Z AUTO 16006KT 10SM CLR 15/13 A2996 290 86 400 180/06 RMK AO2 SLP142 T01500128 10200 20150 53006
94790KART ART20160630005513206/30/16 00:55:31  5-MIN KART 300555Z AUTO 16005KT 10SM CLR 15/13 A2996 290 86 400 180/05 RMK AO2 SLP142 T01500128 10200 20150 53006
94790KART ART20160630010010706/30/16 01:00:31  5-MIN KART 300600Z AUTO 17006KT 10SM CLR 15/13 A2996 290 86 400 180/06 RMK AO2 T01500128
94790KART ART20160630010510706/30/16 01:05:31  5-MIN KART 300605Z AUTO 16007KT 10SM CLR 15/13 A2996 290 86 400 180/07 RMK AO2 T01500128
94790KART ART20160630011010706/30/16 01:10:31  5-MIN KART 300610Z AUTO 17006KT 10SM CLR 15/13 A2996 290 86 400 180/06 RMK AO2 T01500128
94790KART ART20160630011510706/30/16 01:15:31  5-MIN KART 300615Z AUTO 17006KT 10SM CLR 15/13 A2996 290 86 400 180/06 RMK AO2 T01500128
94790KART ART20160630012010706/30/16 01:20:31  5-MIN KART 300620Z AUTO 17005KT 10SM CLR 15/13 A2996 290 86 400 190/05 RMK AO2 T01500128
94790KART ART20160630012510706/30/16 01:25:31  5-MIN KART 300625Z AUTO 17005KT 10SM CLR 15/13 A2996 290 86 400 190/05 RMK AO2 T01500128
94790KART ART20160630013010706/30/16 01:30:31  5-MIN KART 300630Z AUTO 18006KT 10SM CLR 15/13 A2996 290 86 400 190/06 RMK AO2 T01500128
94790KART ART20160630013510706/30/16 01:35:31  5-MIN KART 300635Z AUTO 17006KT 10SM CLR 15/13 A2996 290 86 400 180/06 RMK AO2 T01500128
94790KART ART20160630014010706/30/16 01:40:31  5-MIN KART 300640Z AUTO 17006KT 10SM CLR 15/13 A2996 290 86 400 180/06 RMK AO2 T01500128
94790KART ART20160630014510706/30/16 01:45:31  5-MIN KART 300645Z AUTO 17005KT 10SM CLR 15/13 A2996 290 86 400 180/05 RMK AO2 T01500128
94790KART ART20160630015011406/30/16 01:50:31  5-MIN KART 300650Z AUTO 17005KT 10SM CLR 14/13 A2997 290 90 300 190/05 RMK AO2 SLP143 T01440128
94790KART ART20160630015511406/30/16 01:55:31  5-MIN KART 300655Z AUTO 17006KT 10SM CLR 14/13 A2997 290 90 300 190/06 RMK AO2 SLP144 T01440128
94790KART ART20160630020010706/30/16 02:00:31  5-MIN KART 300700Z AUTO 17006KT 10SM CLR 15/13 A2997 290 86 400 190/06 RMK AO2 T01500128
94790KART ART20160630020510706/30/16 02:05:31  5-MIN KART 300705Z AUTO 18005KT 10SM CLR 15/13 A2997 280 86 400 190/05 RMK AO2 T01500128
94790KART ART20160630021010706/30/16 02:10:31  5-MIN KART 300710Z AUTO 18004KT 10SM CLR 15/13 A2997 290 86 400 200/04 RMK AO2 T01500128
94790KART ART20160630021510706/30/16 02:15:31  5-MIN KART 300715Z AUTO 17005KT 10SM CLR 15/13 A2997 290 86 400 180/05 RMK AO2 T01500128
94790KART ART20160630022010706/30/16 02:20:31  5-MIN KART 300720Z AUTO 17007KT 10SM CLR 15/13 A2997 280 86 400 180/07 RMK AO2 T01500128
94790KART ART20160630022510706/30/16 02:25:31  5-MIN KART 300725Z AUTO 17005KT 10SM CLR 15/13 A2997 280 86 400 190/05 RMK AO2 T01500128
94790KART ART20160630023010706/30/16 02:30:31  5-MIN KART 300730Z AUTO 17005KT 10SM CLR 14/13 A2997 280 90 300 190/05 RMK AO2 T01440128
94790KART ART20160630023510706/30/16 02:35:31  5-MIN KART 300735Z AUTO 17006KT 10SM CLR 14/13 A2997 280 90 300 180/06 RMK AO2 T01440128
94790KART ART20160630024010706/30/16 02:40:31  5-MIN KART 300740Z AUTO 19004KT 10SM CLR 14/13 A2997 280 90 300 200/04 RMK AO2 T01440128
94790KART ART20160630024510706/30/16 02:45:31  5-MIN KART 300745Z AUTO 18004KT 10SM CLR 14/13 A2997 280 90 300 200/04 RMK AO2 T01440128
94790KART ART20160630025011406/30/16 02:50:31  5-MIN KART 300750Z AUTO 19004KT 10SM CLR 14/13 A2997 280 90 300 200/04 RMK AO2 SLP145 T01440128
94790KART ART20160630025511406/30/16 02:55:31  5-MIN KART 300755Z AUTO 19004KT 10SM CLR 14/12 A2997 280 86 300 200/04 RMK AO2 SLP145 T01440122
94790KART ART20160630030010706/30/16 03:00:31  5-MIN KART 300800Z AUTO 18004KT 10SM CLR 14/12 A2997 280 86 300 190/04 RMK AO2 T01440122
94790KART ART20160630030510706/30/16 03:05:31  5-MIN KART 300805Z AUTO 19005KT 10SM CLR 14/13 A2997 280 90 300 200/05 RMK AO2 T01440128
94790KART ART20160630031010706/30/16 03:10:31  5-MIN KART 300810Z AUTO 19005KT 10SM CLR 14/13 A2997 280 90 300 200/05 RMK AO2 T01440128
94790KART ART20160630031510706/30/16 03:15:31  5-MIN KART 300815Z AUTO 18004KT 10SM CLR 14/12 A2997 290 86 300 200/04 RMK AO2 T01440122
94790KART ART20160630032010706/30/16 03:20:31  5-MIN KART 300820Z AUTO 17005KT 10SM CLR 14/13 A2997 290 90 300 190/05 RMK AO2 T01440128
94790KART ART20160630032510706/30/16 03:25:31  5-MIN KART 300825Z AUTO 17005KT 10SM CLR 14/13 A2997 290 90 300 190/05 RMK AO2 T01440128
94790KART ART20160630033010706/30/16 03:30:31  5-MIN KART 300830Z AUTO 18006KT 10SM CLR 14/13 A2997 290 90 300 190/06 RMK AO2 T01440128
94790KART ART20160630033510706/30/16 03:35:31  5-MIN KART 300835Z AUTO 17006KT 10SM CLR 14/13 A2997 280 90 300 190/06 RMK AO2 T01440128
94790KART ART20160630034010706/30/16 03:40:31  5-MIN KART 300840Z AUTO 17005KT 10SM CLR 14/13 A2997 280 90 300 190/05 RMK AO2 T01440128
94790KART ART20160630034510706/30/16 03:45:31  5-MIN KART 300845Z AUTO 17006KT 10SM CLR 14/13 A2997 290 90 300 180/06 RMK AO2 T01440128
94790KART ART20160630035012006/30/16 03:50:31  5-MIN KART 300850Z AUTO 18005KT 10SM CLR 14/13 A2997 280 90 300 190/05 RMK AO2 SLP145 T01440128 53001
94790KART ART20160630035512006/30/16 03:55:31  5-MIN KART 300855Z AUTO 18005KT 10SM CLR 14/12 A2997 280 86 300 190/05 RMK AO2 SLP145 T01440122 53001
94790KART ART20160630040010706/30/16 04:00:31  5-MIN KART 300900Z AUTO 18004KT 10SM CLR 14/12 A2997 280 86 300 190/04 RMK AO2 T01440122
94790KART ART20160630040510706/30/16 04:05:31  5-MIN KART 300905Z AUTO 17006KT 10SM CLR 14/12 A2997 280 86 300 180/06 RMK AO2 T01440122
94790KART ART20160630041010706/30/16 04:10:31  5-MIN KART 300910Z AUTO 18004KT 10SM CLR 14/12 A2997 280 86 300 190/04 RMK AO2 T01440122
94790KART ART20160630041510706/30/16 04:15:31  5-MIN KART 300915Z AUTO 18005KT 10SM CLR 14/12 A2997 280 86 300 190/05 RMK AO2 T01440122
94790KART ART20160630042010706/30/16 04:20:31  5-MIN KART 300920Z AUTO 17006KT 10SM CLR 14/12 A2997 280 86 300 190/06 RMK AO2 T01440122
94790KART ART20160630042510706/30/16 04:25:31  5-MIN KART 300925Z AUTO 17005KT 10SM CLR 14/12 A2997 280 86 300 190/05 RMK AO2 T01440122
94790KART ART20160630043010706/30/16 04:30:31  5-MIN KART 300930Z AUTO 19004KT 10SM CLR 14/12 A2997 280 86 300 200/04 RMK AO2 T01440122
94790KART ART20160630043510706/30/16 04:35:31  5-MIN KART 300935Z AUTO 17006KT 10SM CLR 14/12 A2998 280 86 300 180/06 RMK AO2 T01440122
94790KART ART20160630044010706/30/16 04:40:31  5-MIN KART 300940Z AUTO 17005KT 10SM CLR 14/13 A2998 280 90 300 180/05 RMK AO2 T01440128
94790KART ART20160630044510706/30/16 04:45:31  5-MIN KART 300945Z AUTO 17005KT 10SM CLR 14/13 A2998 280 90 300 190/05 RMK AO2 T01440128
94790KART ART20160630045011406/30/16 04:50:31  5-MIN KART 300950Z AUTO 18005KT 10SM CLR 14/13 A2998 270 90 300 190/05 RMK AO2 SLP149 T01440128
94790KART ART20160630045511406/30/16 04:55:31  5-MIN KART 300955Z AUTO 17005KT 10SM CLR 14/13 A2998 270 90 300 190/05 RMK AO2 SLP149 T01440128
94790KART ART20160630050010706/30/16 05:00:31  5-MIN KART 301000Z AUTO 17006KT 10SM CLR 14/13 A2998 270 90 300 180/06 RMK AO2 T01440128
94790KART ART20160630050510706/30/16 05:05:31  5-MIN KART 301005Z AUTO 17005KT 10SM CLR 14/13 A2998 270 90 300 180/05 RMK AO2 T01440128
94790KART ART20160630051010706/30/16 05:10:31  5-MIN KART 301010Z AUTO 18005KT 10SM CLR 14/13 A2999 270 90 300 200/05 RMK AO2 T01440128
94790KART ART20160630051511006/30/16 05:15:31  5-MIN KART 301015Z AUTO 17005KT 10SM FEW001 14/13 A2999 270 90 300 180/05 RMK AO2 T01440128
94790KART ART20160630052011006/30/16 05:20:31  5-MIN KART 301020Z AUTO 18004KT 10SM FEW001 15/13 A2999 270 86 400 200/04 RMK AO2 T01500128
94790KART ART20160630052511006/30/16 05:25:31  5-MIN KART 301025Z AUTO 18005KT 10SM FEW001 15/13 A2999 270 86 400 190/05 RMK AO2 T01500128
94790KART ART20160630053011006/30/16 05:30:31  5-MIN KART 301030Z AUTO 18005KT 10SM FEW001 15/13 A2999 260 86 400 200/05 RMK AO2 T01500128
94790KART ART20160630053511006/30/16 05:35:31  5-MIN KART 301035Z AUTO 18004KT 10SM FEW001 15/13 A2999 260 86 400 190/04 RMK AO2 T01500128
94790KART ART20160630054011006/30/16 05:40:31  5-MIN KART 301040Z AUTO 19004KT 10SM FEW001 16/13 A2999 260 83 400 200/04 RMK AO2 T01560128
94790KART ART20160630054510706/30/16 05:45:31  5-MIN KART 301045Z AUTO 18004KT 10SM CLR 16/13 A2999 260 83 400 200/04 RMK AO2 T01560128
94790KART ART20160630055011406/30/16 05:50:31  5-MIN KART 301050Z AUTO 18004KT 10SM CLR 16/13 A2999 260 83 400 200/04 RMK AO2 SLP153 T01560128
94790KART ART20160630055511406/30/16 05:55:31  5-MIN KART 301055Z AUTO 18005KT 10SM CLR 16/13 A3000 260 83 500 190/05 RMK AO2 SLP153 T01610133
94790KART ART20160630060010706/30/16 06:00:31  5-MIN KART 301100Z AUTO 17004KT 10SM CLR 16/13 A2999 260 80 500 190/04 RMK AO2 T01610128
94790KART ART20160630060510706/30/16 06:05:31  5-MIN KART 301105Z AUTO 18004KT 10SM CLR 16/13 A2999 260 83 500 190/04 RMK AO2 T01610133
94790KART ART20160630061010706/30/16 06:10:31  5-MIN KART 301110Z AUTO 19004KT 10SM CLR 17/13 A2999 260 80 600 210/04 RMK AO2 T01670133
94790KART ART20160630061510706/30/16 06:15:31  5-MIN KART 301115Z AUTO 19005KT 10SM CLR 17/13 A2999 260 80 600 200/05 RMK AO2 T01670133
94790KART ART20160630062010706/30/16 06:20:31  5-MIN KART 301120Z AUTO 20005KT 10SM CLR 17/13 A2999 260 80 600 210/05 RMK AO2 T01670133
94790KART ART20160630062510706/30/16 06:25:31  5-MIN KART 301125Z AUTO 19004KT 10SM CLR 17/13 A3000 260 78 600 200/04 RMK AO2 T01720133
94790KART ART20160630063010606/30/16 06:30:31  5-MIN KART 301130Z AUTO 20005KT 7SM CLR 17/13 A3000 260 78 600 210/05 RMK AO2 T01720133
94790KART ART20160630063510606/30/16 06:35:31  5-MIN KART 301135Z AUTO 20004KT 7SM CLR 17/13 A3000 260 78 600 220/04 RMK AO2 T01720133
94790KART ART20160630064010606/30/16 06:40:31  5-MIN KART 301140Z AUTO 19005KT 9SM CLR 18/13 A3000 260 75 700 210/05 RMK AO2 T01780133
94790KART ART20160630064510706/30/16 06:45:31  5-MIN KART 301145Z AUTO 19004KT 10SM CLR 18/14 A3000 260 78 700 200/04 RMK AO2 T01780139
94790KART ART20160630065013206/30/16 06:50:31  5-MIN KART 301150Z AUTO 19004KT 10SM CLR 18/14 A3000 260 78 700 210/04 RMK AO2 SLP155 T01780139 10178 20139 51003
94790KART ART20160630065513206/30/16 06:55:31  5-MIN KART 301155Z AUTO 23005KT 10SM CLR 18/14 A3000 260 75 700 240/05 RMK AO2 SLP156 T01830139 10183 20139 51003
94790KART ART20160630070010706/30/16 07:00:31  5-MIN KART 301200Z AUTO 22005KT 10SM CLR 18/13 A3000 260 72 700 230/05 RMK AO2 T01830133
94790KART ART20160630070510706/30/16 07:05:31  5-MIN KART 301205Z AUTO 22006KT 10SM CLR 19/13 A3000 260 70 800 230/06 RMK AO2 T01890133
94790KART ART20160630071010706/30/16 07:10:31  5-MIN KART 301210Z AUTO 21006KT 10SM CLR 19/13 A3000 250 67 800 220/06 RMK AO2 T01890128
94790KART ART20160630071510706/30/16 07:15:31  5-MIN KART 301215Z AUTO 22007KT 10SM CLR 19/13 A3000 250 70 800 230/07 RMK AO2 T01890133
94790KART ART20160630072010706/30/16 07:20:31  5-MIN KART 301220Z AUTO 22005KT 10SM CLR 19/13 A3000 250 70 800 240/05 RMK AO2 T01890133
94790KART ART20160630072510706/30/16 07:25:31  5-MIN KART 301225Z AUTO 23007KT 10SM CLR 19/13 A3001 250 67 900 250/07 RMK AO2 T01940133
94790KART ART20160630073010706/30/16 07:30:31  5-MIN KART 301230Z AUTO 21009KT 10SM CLR 19/13 A3001 250 67 900 220/09 RMK AO2 T01940133
94790KART ART20160630073510706/30/16 07:35:31  5-MIN KART 301235Z AUTO 21008KT 10SM CLR 19/13 A3001 250 67 900 220/08 RMK AO2 T01940133
94790KART ART20160630074010706/30/16 07:40:31  5-MIN KART 301240Z AUTO 22008KT 10SM CLR 19/13 A3001 250 67 900 240/08 RMK AO2 T01940133
94790KART ART20160630074511006/30/16 07:45:31  5-MIN KART 301245Z AUTO 22008KT 10SM FEW001 20/13 A3001 250 65 900 240/08 RMK AO2 T02000133
94790KART ART20160630075010006/30/16 07:50:31  5-MIN KART 301250Z AUTO 23006KT 10SM FEW001 20/13 A3001 250 65 900 250/06 RMK AO2
94790KART ART20160630075511506/30/16 07:55:31  5-MIN KART 301255Z AUTO 23006KT 10SM CLR 21/13 A3001 250 63 1000 250/06 RMK AO2 SLP159 T02060133
94790KART ART20160630080010806/30/16 08:00:31  5-MIN KART 301300Z AUTO 25008KT 10SM CLR 21/13 A3001 250 60 1000 260/08 RMK AO2 T02060128
94790KART ART20160630080511106/30/16 08:05:31  5-MIN KART 301305Z AUTO 24009KT 10SM FEW001 21/13 A3001 250 60 1000 260/09 RMK AO2 T02060128
94790KART ART20160630081011106/30/16 08:10:31  5-MIN KART 301310Z AUTO 25007KT 10SM FEW001 21/13 A3001 240 60 1000 260/07 RMK AO2 T02060128
94790KART ART20160630081510806/30/16 08:15:31  5-MIN KART 301315Z AUTO 26007KT 10SM CLR 21/13 A3001 250 61 1100 270/07 RMK AO2 T02110133
94790KART ART20160630082010806/30/16 08:20:31  5-MIN KART 301320Z AUTO 25008KT 10SM CLR 21/13 A3001 250 60 1000 260/08 RMK AO2 T02060128
94790KART ART20160630082510806/30/16 08:25:31  5-MIN KART 301325Z AUTO 24007KT 10SM CLR 21/13 A3001 240 60 1000 250/07 RMK AO2 T02060128
94790KART ART20160630083010806/30/16 08:30:31  5-MIN KART 301330Z AUTO 25009KT 10SM CLR 21/13 A3001 240 61 1100 260/09 RMK AO2 T02110133
94790KART ART20160630083510806/30/16 08:35:31  5-MIN KART 301335Z AUTO 24009KT 10SM CLR 21/13 A3002 240 58 1100 260/09 RMK AO2 T02110128
94790KART ART20160630084010806/30/16 08:40:31  5-MIN KART 301340Z AUTO 25007KT 10SM CLR 21/13 A3002 240 61 1000 260/07 RMK AO2 T02110133
94790KART ART20160630084510806/30/16 08:45:31  5-MIN KART 301345Z AUTO 24006KT 10SM CLR 21/13 A3002 240 58 1000 250/06 RMK AO2 T02110128
94790KART ART20160630085011506/30/16 08:50:31  5-MIN KART 301350Z AUTO 24007KT 10SM CLR 22/13 A3002 240 58 1100 260/07 RMK AO2 SLP161 T02170133
94790KART ART20160630085511506/30/16 08:55:31  5-MIN KART 301355Z AUTO 24008KT 10SM CLR 22/13 A3002 240 58 1100 260/08 RMK AO2 SLP161 T02170133
94790KART ART20160630090010806/30/16 09:00:31  5-MIN KART 301400Z AUTO 24008KT 10SM CLR 21/13 A3002 240 58 1000 250/08 RMK AO2 T02110128
94790KART ART20160630090510806/30/16 09:05:31  5-MIN KART 301405Z AUTO 24009KT 10SM CLR 22/13 A3002 240 56 1100 250/09 RMK AO2 T02170128
94790KART ART20160630091010806/30/16 09:10:31  5-MIN KART 301410Z AUTO 26010KT 10SM CLR 21/12 A3002 240 56 1000 270/10 RMK AO2 T02110122
94790KART ART20160630091510806/30/16 09:15:31  5-MIN KART 301415Z AUTO 25009KT 10SM CLR 22/13 A3002 240 56 1100 270/09 RMK AO2 T02170128
94790KART ART20160630092010806/30/16 09:20:31  5-MIN KART 301420Z AUTO 25007KT 10SM CLR 22/13 A3002 240 58 1100 260/07 RMK AO2 T02170133
94790KART ART20160630092510806/30/16 09:25:31  5-MIN KART 301425Z AUTO 24008KT 10SM CLR 22/13 A3002 240 56 1100 260/08 RMK AO2 T02170128
94790KART ART20160630093010806/30/16 09:30:31  5-MIN KART 301430Z AUTO 25007KT 10SM CLR 22/13 A3002 240 56 1200 260/07 RMK AO2 T02220133
94790KART ART20160630093510806/30/16 09:35:31  5-MIN KART 301435Z AUTO 23009KT 10SM CLR 22/13 A3002 240 54 1200 250/09 RMK AO2 T02220128
94790KART ART20160630094010806/30/16 09:40:31  5-MIN KART 301440Z AUTO 24007KT 10SM CLR 22/12 A3002 230 54 1100 250/07 RMK AO2 T02170122
94790KART ART20160630094510806/30/16 09:45:31  5-MIN KART 301445Z AUTO 25009KT 10SM CLR 22/13 A3003 230 54 1200 260/09 RMK AO2 T02220128
94790KART ART20160630095012106/30/16 09:50:31  5-MIN KART 301450Z AUTO 24009KT 10SM CLR 22/13 A3003 230 54 1200 250/09 RMK AO2 SLP164 T02220128 51010
94790KART ART20160630095512106/30/16 09:55:31  5-MIN KART 301455Z AUTO 25009KT 10SM CLR 22/12 A3003 230 52 1200 260/09 RMK AO2 SLP164 T02220122 51010
94790KART ART20160630100010806/30/16 10:00:31  5-MIN KART 301500Z AUTO 23010KT 10SM CLR 23/12 A3003 230 51 1200 240/10 RMK AO2 T02280122
94790KART ART20160630100510806/30/16 10:05:31  5-MIN KART 301505Z AUTO 24010KT 10SM CLR 22/12 A3003 230 51 1200 250/10 RMK AO2 T02220117
94790KART ART20160630101010806/30/16 10:10:31  5-MIN KART 301510Z AUTO 23010KT 10SM CLR 22/12 A3003 230 51 1200 250/10 RMK AO2 T02220117
94790KART ART20160630101510806/30/16 10:15:31  5-MIN KART 301515Z AUTO 24010KT 10SM CLR 23/12 A3003 230 49 1200 250/10 RMK AO2 T02280117
94790KART ART20160630102010806/30/16 10:20:31  5-MIN KART 301520Z AUTO 23010KT 10SM CLR 23/12 A3003 230 51 1200 240/10 RMK AO2 T02280122
94790KART ART20160630102510806/30/16 10:25:31  5-MIN KART 301525Z AUTO 25009KT 10SM CLR 23/12 A3003 230 49 1200 260/09 RMK AO2 T02280117
94790KART ART20160630103010806/30/16 10:30:31  5-MIN KART 301530Z AUTO 24009KT 10SM CLR 23/12 A3003 230 51 1200 260/09 RMK AO2 T02280122
94790KART ART20160630103510806/30/16 10:35:31  5-MIN KART 301535Z AUTO 25010KT 10SM CLR 23/13 A3003 230 53 1200 260/10 RMK AO2 T02280128
94790KART ART20160630104010806/30/16 10:40:31  5-MIN KART 301540Z AUTO 24009KT 10SM CLR 23/13 A3003 230 53 1300 260/09 RMK AO2 T02330133
94790KART ART20160630104510806/30/16 10:45:31  5-MIN KART 301545Z AUTO 24010KT 10SM CLR 23/13 A3003 230 55 1200 250/10 RMK AO2 T02280133
94790KART ART20160630105011506/30/16 10:50:31  5-MIN KART 301550Z AUTO 24010KT 10SM CLR 23/13 A3003 230 55 1200 250/10 RMK AO2 SLP165 T02280133
94790KART ART20160630105511506/30/16 10:55:31  5-MIN KART 301555Z AUTO 25011KT 10SM CLR 23/13 A3003 230 55 1200 260/11 RMK AO2 SLP165 T02280133
94790KART ART20160630110010806/30/16 11:00:31  5-MIN KART 301600Z AUTO 25010KT 10SM CLR 23/13 A3003 230 55 1200 260/10 RMK AO2 T02280133
94790KART ART20160630110510806/30/16 11:05:31  5-MIN KART 301605Z AUTO 25011KT 10SM CLR 23/13 A3003 230 55 1200 260/11 RMK AO2 T02280133
94790KART ART20160630111010806/30/16 11:10:31  5-MIN KART 301610Z AUTO 25010KT 10SM CLR 23/13 A3003 230 55 1200 260/10 RMK AO2 T02280133
94790KART ART20160630111510806/30/16 11:15:31  5-MIN KART 301615Z AUTO 24011KT 10SM CLR 23/13 A3003 230 53 1300 250/11 RMK AO2 T02330133
94790KART ART20160630112010806/30/16 11:20:31  5-MIN KART 301620Z AUTO 25012KT 10SM CLR 23/13 A3003 230 53 1300 260/12 RMK AO2 T02330133
94790KART ART20160630112510806/30/16 11:25:31  5-MIN KART 301625Z AUTO 25011KT 10SM CLR 23/13 A3003 230 51 1300 260/11 RMK AO2 T02330128
94790KART ART20160630113010806/30/16 11:30:31  5-MIN KART 301630Z AUTO 24010KT 10SM CLR 23/13 A3002 230 51 1300 260/10 RMK AO2 T02330128
94790KART ART20160630113510806/30/16 11:35:31  5-MIN KART 301635Z AUTO 25010KT 10SM CLR 23/12 A3002 230 51 1200 260/10 RMK AO2 T02280122
94790KART ART20160630114010806/30/16 11:40:31  5-MIN KART 301640Z AUTO 25010KT 10SM CLR 23/12 A3002 230 49 1300 260/10 RMK AO2 T02330122
94790KART ART20160630114510806/30/16 11:45:31  5-MIN KART 301645Z AUTO 24010KT 10SM CLR 23/11 A3002 240 47 1200 250/10 RMK AO2 T02280111
94790KART ART20160630115011506/30/16 11:50:31  5-MIN KART 301650Z AUTO 24010KT 10SM CLR 23/11 A3002 240 47 1200 250/10 RMK AO2 SLP162 T02280111
94790KART ART20160630115511506/30/16 11:55:31  5-MIN KART 301655Z AUTO 25010KT 10SM CLR 23/12 A3002 240 47 1300 260/10 RMK AO2 SLP161 T02330117
94790KART ART20160630120010806/30/16 12:00:31  5-MIN KART 301700Z AUTO 24013KT 10SM CLR 23/11 A3001 240 45 1300 250/13 RMK AO2 T02330111
94790KART ART20160630120510806/30/16 12:05:31  5-MIN KART 301705Z AUTO 25011KT 10SM CLR 23/11 A3001 240 45 1300 260/11 RMK AO2 T02330111
94790KART ART20160630121010806/30/16 12:10:31  5-MIN KART 301710Z AUTO 25010KT 10SM CLR 23/12 A3001 240 49 1300 260/10 RMK AO2 T02330122
94790KART ART20160630121510806/30/16 12:15:31  5-MIN KART 301715Z AUTO 23010KT 10SM CLR 23/12 A3001 250 49 1300 240/10 RMK AO2 T02330122
94790KART ART20160630122010806/30/16 12:20:31  5-MIN KART 301720Z AUTO 24010KT 10SM CLR 23/12 A3001 240 47 1300 250/10 RMK AO2 T02330117
94790KART ART20160630122510806/30/16 12:25:31  5-MIN KART 301725Z AUTO 25010KT 10SM CLR 23/12 A3001 250 47 1300 260/10 RMK AO2 T02330117
94790KART ART20160630123010806/30/16 12:30:31  5-MIN KART 301730Z AUTO 23010KT 10SM CLR 23/11 A3001 250 44 1300 240/10 RMK AO2 T02330106
94790KART ART20160630123510806/30/16 12:35:31  5-MIN KART 301735Z AUTO 23010KT 10SM CLR 24/12 A3001 250 47 1400 240/10 RMK AO2 T02390122
94790KART ART20160630124011406/30/16 12:40:31  5-MIN KART 301740Z AUTO 24009G17KT 10SM CLR 23/13 A3001 250 51 1300 250/09G17 RMK AO2 T02330128
94790KART ART20160630124511406/30/16 12:45:31  5-MIN KART 301745Z AUTO 24011G17KT 10SM CLR 23/13 A3001 250 51 1300 260/11G17 RMK AO2 T02330128
94790KART ART20160630125013306/30/16 12:50:31  5-MIN KART 301750Z AUTO 25008KT 10SM CLR 23/13 A3001 250 51 1300 260/08 RMK AO2 SLP158 T02330128 10239 20183 53006
94790KART ART20160630125513906/30/16 12:55:31  5-MIN KART 301755Z AUTO 26011G16KT 10SM CLR 24/13 A3001 250 51 1400 270/11G16 RMK AO2 SLP158 T02390133 10239 20183 53006
94790KART ART20160630130010806/30/16 13:00:31  5-MIN KART 301800Z AUTO 24010KT 10SM CLR 24/13 A3001 250 49 1400 260/10 RMK AO2 T02390128
94790KART ART20160630130510806/30/16 13:05:31  5-MIN KART 301805Z AUTO 23011KT 10SM CLR 24/11 A3001 250 44 1400 250/11 RMK AO2 T02390111
94790KART ART20160630131010806/30/16 13:10:31  5-MIN KART 301810Z AUTO 23012KT 10SM CLR 23/10 A3001 250 42 1300 250/12 RMK AO2 T02330100
94790KART ART20160630131510806/30/16 13:15:31  5-MIN KART 301815Z AUTO 22012KT 10SM CLR 23/11 A3001 250 44 1300 230/12 RMK AO2 T02330106
94790KART ART20160630132010806/30/16 13:20:31  5-MIN KART 301820Z AUTO 22012KT 10SM CLR 23/09 A3001 250 41 1300 230/12 RMK AO2 T02330094
94790KART ART20160630132510806/30/16 13:25:31  5-MIN KART 301825Z AUTO 22012KT 10SM CLR 23/10 A3001 250 42 1300 240/12 RMK AO2 T02330100
94790KART ART20160630133010806/30/16 13:30:31  5-MIN KART 301830Z AUTO 23009KT 10SM CLR 24/11 A3001 250 44 1400 240/09 RMK AO2 T02390111
94790KART ART20160630133510806/30/16 13:35:31  5-MIN KART 301835Z AUTO 26011KT 10SM CLR 24/12 A3001 250 46 1400 270/11 RMK AO2 T02390117
94790KART ART20160630134010806/30/16 13:40:31  5-MIN KART 301840Z AUTO 26012KT 10SM CLR 24/12 A3001 250 46 1400 270/12 RMK AO2 T02390117
94790KART ART20160630134510806/30/16 13:45:31  5-MIN KART 301845Z AUTO 26012KT 10SM CLR 24/10 A3001 250 41 1400 270/12 RMK AO2 T02390100
94790KART ART20160630135011506/30/16 13:50:31  5-MIN KART 301850Z AUTO 26011KT 10SM CLR 24/09 A3001 250 39 1400 270/11 RMK AO2 SLP158 T02390094
94790KART ART20160630135511506/30/16 13:55:31  5-MIN KART 301855Z AUTO 24010KT 10SM CLR 24/10 A3001 250 39 1400 260/10 RMK AO2 SLP158 T02440100
94790KART ART20160630140010806/30/16 14:00:31  5-MIN KART 301900Z AUTO 26012KT 10SM CLR 24/09 A3001 250 38 1400 270/12 RMK AO2 T02390089
94790KART ART20160630140510806/30/16 14:05:31  5-MIN KART 301905Z AUTO 24009KT 10SM CLR 24/09 A3001 250 38 1400 260/09 RMK AO2 T02440094
94790KART ART20160630141010806/30/16 14:10:31  5-MIN KART 301910Z AUTO 24009KT 10SM CLR 24/08 A3001 250 35 1400 260/09 RMK AO2 T02390078
94790KART ART20160630141510806/30/16 14:15:31  5-MIN KART 301915Z AUTO 25010KT 10SM CLR 24/08 A3000 250 35 1400 260/10 RMK AO2 T02390078
94790KART ART20160630142010806/30/16 14:20:31  5-MIN KART 301920Z AUTO 26011KT 10SM CLR 24/07 A3001 250 33 1400 270/11 RMK AO2 T02440072
94790KART ART20160630142510806/30/16 14:25:31  5-MIN KART 301925Z AUTO 25012KT 10SM CLR 24/08 A3001 250 34 1400 270/12 RMK AO2 T02440078
94790KART ART20160630143010806/30/16 14:30:31  5-MIN KART 301930Z AUTO 25010KT 10SM CLR 24/07 A3001 250 34 1400 270/10 RMK AO2 T02390072
94790KART ART20160630143510806/30/16 14:35:31  5-MIN KART 301935Z AUTO 25012KT 10SM CLR 24/07 A3000 250 34 1400 260/12 RMK AO2 T02390072
94790KART ART20160630144010806/30/16 14:40:31  5-MIN KART 301940Z AUTO 25010KT 10SM CLR 24/07 A3000 250 34 1400 260/10 RMK AO2 T02390072
94790KART ART20160630144510806/30/16 14:45:31  5-MIN KART 301945Z AUTO 25009KT 10SM CLR 24/07 A3000 250 32 1400 260/09 RMK AO2 T02390067
94790KART ART20160630145011506/30/16 14:50:31  5-MIN KART 301950Z AUTO 25010KT 10SM CLR 24/07 A3000 250 34 1400 260/10 RMK AO2 SLP156 T02390072
94790KART ART20160630145511506/30/16 14:55:31  5-MIN KART 301955Z AUTO 25008KT 10SM CLR 24/07 A3000 260 34 1400 260/08 RMK AO2 SLP156 T02390072
94790KART ART20160630150010806/30/16 15:00:31  5-MIN KART 302000Z AUTO 25008KT 10SM CLR 24/08 A3000 260 36 1400 260/08 RMK AO2 T02390083
94790KART ART20160630150510806/30/16 15:05:31  5-MIN KART 302005Z AUTO 25010KT 10SM CLR 24/08 A3000 260 35 1400 260/10 RMK AO2 T02390078
94790KART ART20160630151010806/30/16 15:10:31  5-MIN KART 302010Z AUTO 25008KT 10SM CLR 24/07 A3000 260 31 1500 260/08 RMK AO2 T02440067
94790KART ART20160630151510806/30/16 15:15:31  5-MIN KART 302015Z AUTO 26012KT 10SM CLR 24/07 A3000 260 31 1400 270/12 RMK AO2 T02440067
94790KART ART20160630152010806/30/16 15:20:31  5-MIN KART 302020Z AUTO 24008KT 10SM CLR 24/07 A3000 260 33 1500 250/08 RMK AO2 T02440072
94790KART ART20160630152510806/30/16 15:25:31  5-MIN KART 302025Z AUTO 26010KT 10SM CLR 24/08 A3000 260 34 1500 270/10 RMK AO2 T02440078
94790KART ART20160630153010806/30/16 15:30:31  5-MIN KART 302030Z AUTO 25009KT 10SM CLR 24/08 A3000 260 34 1400 260/09 RMK AO2 T02440078
94790KART ART20160630153511406/30/16 15:35:31  5-MIN KART 302035Z AUTO 25010G16KT 10SM CLR 24/08 A3000 260 35 1400 270/10G16 RMK AO2 T02390078
94790KART ART20160630154010806/30/16 15:40:31  5-MIN KART 302040Z AUTO 26011KT 10SM CLR 24/08 A3000 260 34 1500 270/11 RMK AO2 T02440078
94790KART ART20160630154510806/30/16 15:45:31  5-MIN KART 302045Z AUTO 26012KT 10SM CLR 24/08 A3000 260 35 1500 270/12 RMK AO2 T02440083
94790KART ART20160630155012106/30/16 15:50:31  5-MIN KART 302050Z AUTO 26012KT 10SM CLR 24/08 A3000 260 36 1400 270/12 RMK AO2 SLP154 T02390083 58006
94790KART ART20160630155512106/30/16 15:55:31  5-MIN KART 302055Z AUTO 26010KT 10SM CLR 24/09 A3000 260 38 1400 270/10 RMK AO2 SLP154 T02390089 58006
94790KART ART20160630160010806/30/16 16:00:31  5-MIN KART 302100Z AUTO 26009KT 10SM CLR 24/09 A3000 260 38 1500 280/09 RMK AO2 T02440094
94790KART ART20160630160510806/30/16 16:05:31  5-MIN KART 302105Z AUTO 26010KT 10SM CLR 24/09 A2999 260 39 1400 280/10 RMK AO2 T02390094
94790KART ART20160630161010806/30/16 16:10:31  5-MIN KART 302110Z AUTO 27010KT 10SM CLR 24/10 A2999 260 41 1400 290/10 RMK AO2 T02390100
94790KART ART20160630161510806/30/16 16:15:31  5-MIN KART 302115Z AUTO 26008KT 10SM CLR 24/10 A2999 270 41 1400 270/08 RMK AO2 T02390100
94790KART ART20160630162010806/30/16 16:20:31  5-MIN KART 302120Z AUTO 24007KT 10SM CLR 24/09 A2999 270 38 1500 260/07 RMK AO2 T02440094
94790KART ART20160630162510806/30/16 16:25:31  5-MIN KART 302125Z AUTO 25006KT 10SM CLR 24/08 A2999 270 36 1400 260/06 RMK AO2 T02390083
94790KART ART20160630163010806/30/16 16:30:31  5-MIN KART 302130Z AUTO 26008KT 10SM CLR 24/11 A2999 270 42 1400 270/08 RMK AO2 T02390106
94790KART ART20160630163510806/30/16 16:35:31  5-MIN KART 302135Z AUTO 27009KT 10SM CLR 23/09 A2999 270 41 1300 290/09 RMK AO2 T02330094
94790KART ART20160630164010806/30/16 16:40:31  5-MIN KART 302140Z AUTO 27007KT 10SM CLR 23/10 A2999 270 42 1300 280/07 RMK AO2 T02330100
94790KART ART20160630164510806/30/16 16:45:31  5-MIN KART 302145Z AUTO 25006KT 10SM CLR 23/10 A2999 270 42 1300 260/06 RMK AO2 T02330100
94790KART ART20160630165011506/30/16 16:50:31  5-MIN KART 302150Z AUTO 23007KT 10SM CLR 23/09 A2999 270 42 1300 250/07 RMK AO2 SLP151 T02280094
94790KART ART20160630165511506/30/16 16:55:31  5-MIN KART 302155Z AUTO 24006KT 10SM CLR 23/09 A2999 270 42 1300 250/06 RMK AO2 SLP151 T02280094
94790KART ART20160630170010806/30/16 17:00:31  5-MIN KART 302200Z AUTO 24006KT 10SM CLR 23/09 A2999 270 42 1300 250/06 RMK AO2 T02280094
94790KART ART20160630170510806/30/16 17:05:31  5-MIN KART 302205Z AUTO 24005KT 10SM CLR 23/09 A2999 270 42 1300 250/05 RMK AO2 T02280094
94790KART ART20160630171010806/30/16 17:10:31  5-MIN KART 302210Z AUTO 23004KT 10SM CLR 23/09 A2999 270 40 1300 250/04 RMK AO2 T02280089
94790KART ART20160630171510806/30/16 17:15:31  5-MIN KART 302215Z AUTO 23005KT 10SM CLR 23/09 A2998 270 39 1300 240/05 RMK AO2 T02330089
94790KART ART20160630172010806/30/16 17:20:31  5-MIN KART 302220Z AUTO 22004KT 10SM CLR 23/08 A2998 270 38 1300 240/04 RMK AO2 T02330083
94790KART ART20160630172510806/30/16 17:25:31  5-MIN KART 302225Z AUTO 19004KT 10SM CLR 23/08 A2998 270 38 1300 210/04 RMK AO2 T02330083
94790KART ART20160630173010806/30/16 17:30:31  5-MIN KART 302230Z AUTO 23005KT 10SM CLR 23/08 A2998 270 36 1300 240/05 RMK AO2 T02330078
94790KART ART20160630173510806/30/16 17:35:31  5-MIN KART 302235Z AUTO 20005KT 10SM CLR 23/07 A2998 270 35 1300 220/05 RMK AO2 T02330072
94790KART ART20160630174010806/30/16 17:40:31  5-MIN KART 302240Z AUTO VRB04KT 10SM CLR 23/08 A2998 270 36 1300 VRB/04 RMK AO2 T02330078
94790KART ART20160630174510806/30/16 17:45:31  5-MIN KART 302245Z AUTO VRB03KT 10SM CLR 23/08 A2998 270 36 1300 VRB/03 RMK AO2 T02330078
94790KART ART20160630175011506/30/16 17:50:31  5-MIN KART 302250Z AUTO 19003KT 10SM CLR 23/08 A2998 270 38 1300 200/03 RMK AO2 SLP149 T02330083
94790KART ART20160630175511506/30/16 17:55:31  5-MIN KART 302255Z AUTO 21004KT 10SM CLR 23/08 A2998 270 36 1300 220/04 RMK AO2 SLP149 T02330078
94790KART ART20160630180010806/30/16 18:00:31  5-MIN KART 302300Z AUTO 23004KT 10SM CLR 23/08 A2998 270 36 1300 240/04 RMK AO2 T02330078
94790KART ART20160630180510806/30/16 18:05:31  5-MIN KART 302305Z AUTO VRB04KT 10SM CLR 23/09 A2998 270 39 1300 VRB/04 RMK AO2 T02330089
94790KART ART20160630181010806/30/16 18:10:31  5-MIN KART 302310Z AUTO 22004KT 10SM CLR 23/09 A2998 270 39 1300 240/04 RMK AO2 T02330089
94790KART ART20160630181510806/30/16 18:15:31  5-MIN KART 302315Z AUTO 20004KT 10SM CLR 23/07 A2998 270 35 1300 220/04 RMK AO2 T02330072
94790KART ART20160630182010806/30/16 18:20:31  5-MIN KART 302320Z AUTO 20004KT 10SM CLR 23/08 A2998 270 36 1300 220/04 RMK AO2 T02330078
94790KART ART20160630182510806/30/16 18:25:31  5-MIN KART 302325Z AUTO 21004KT 10SM CLR 23/08 A2998 270 36 1300 230/04 RMK AO2 T02330078
94790KART ART20160630183010806/30/16 18:30:31  5-MIN KART 302330Z AUTO 20003KT 10SM CLR 23/08 A2998 270 36 1300 220/03 RMK AO2 T02330078
94790KART ART20160630183510806/30/16 18:35:31  5-MIN KART 302335Z AUTO 20003KT 10SM CLR 23/08 A2998 270 38 1300 210/03 RMK AO2 T02330083
94790KART ART20160630184010806/30/16 18:40:31  5-MIN KART 302340Z AUTO 00000KT 10SM CLR 23/08 A2998 270 38 1300 000/00 RMK AO2 T02330083
94790KART ART20160630184510806/30/16 18:45:31  5-MIN KART 302345Z AUTO 00000KT 10SM CLR 23/09 A2998 280 41 1300 000/00 RMK AO2 T02330094
94790KART ART20160630185013306/30/16 18:50:31  5-MIN KART 302350Z AUTO 00000KT 10SM CLR 23/09 A2998 280 42 1300 000/00 RMK AO2 SLP147 T02280094 10250 20228 58004
94790KART ART20160630185513306/30/16 18:55:31  5-MIN KART 302355Z AUTO 00000KT 10SM CLR 23/10 A2998 280 44 1300 000/00 RMK AO2 SLP147 T02280100 10250 20228 58004
94790KART ART20160630190010806/30/16 19:00:31  5-MIN KART 010000Z AUTO 00000KT 10SM CLR 23/09 A2998 280 42 1300 000/00 RMK AO2 T02280094
94790KART ART20160630190510806/30/16 19:05:31  5-MIN KART 010005Z AUTO 00000KT 10SM CLR 22/10 A2998 280 45 1200 000/00 RMK AO2 T02220100
94790KART ART20160630191010806/30/16 19:10:31  5-MIN KART 010010Z AUTO 00000KT 10SM CLR 22/10 A2998 280 47 1200 000/00 RMK AO2 T02170100
94790KART ART20160630191510806/30/16 19:15:31  5-MIN KART 010015Z AUTO 00000KT 10SM CLR 21/11 A2998 280 50 1100 000/00 RMK AO2 T02110106
94790KART ART20160630192010806/30/16 19:20:31  5-MIN KART 010020Z AUTO 00000KT 10SM CLR 21/10 A2998 280 48 1100 000/00 RMK AO2 T02110100
94790KART ART20160630192510806/30/16 19:25:31  5-MIN KART 010025Z AUTO 00000KT 10SM CLR 20/11 A2998 280 56 1000 000/00 RMK AO2 T02000111
94790KART ART20160630193010706/30/16 19:30:31  5-MIN KART 010030Z AUTO 00000KT 10SM CLR 19/11 A2998 280 60 800 000/00 RMK AO2 T01890111
94790KART ART20160630193510706/30/16 19:35:31  5-MIN KART 010035Z AUTO 00000KT 10SM CLR 19/12 A2998 280 62 800 000/00 RMK AO2 T01890117
94790KART ART20160630194010706/30/16 19:40:31  5-MIN KART 010040Z AUTO 00000KT 10SM CLR 18/12 A2998 280 67 700 000/00 RMK AO2 T01780117
94790KART ART20160630194510706/30/16 19:45:31  5-MIN KART 010045Z AUTO 00000KT 10SM CLR 18/12 A2998 280 67 700 000/00 RMK AO2 T01780117
94790KART ART20160630195011406/30/16 19:50:31  5-MIN KART 010050Z AUTO 00000KT 10SM CLR 17/12 A2998 280 75 600 000/00 RMK AO2 SLP148 T01670122
94790KART ART20160630195511406/30/16 19:55:31  5-MIN KART 010055Z AUTO 00000KT 10SM CLR 17/12 A2998 280 72 600 000/00 RMK AO2 SLP148 T01670117
94790KART ART20160630200010706/30/16 20:00:31  5-MIN KART 010100Z AUTO 00000KT 10SM CLR 17/12 A2998 270 72 600 000/00 RMK AO2 T01670117
94790KART ART20160630200510706/30/16 20:05:31  5-MIN KART 010105Z AUTO 00000KT 10SM CLR 16/12 A2998 270 75 500 000/00 RMK AO2 T01610117
94790KART ART20160630201010706/30/16 20:10:31  5-MIN KART 010110Z AUTO 00000KT 10SM CLR 16/12 A2998 270 77 400 000/00 RMK AO2 T01560117
94790KART ART20160630201510706/30/16 20:15:31  5-MIN KART 010115Z AUTO 00000KT 10SM CLR 14/12 A2999 270 83 300 000/00 RMK AO2 T01440117
94790KART ART20160630202010706/30/16 20:20:31  5-MIN KART 010120Z AUTO 00000KT 10SM CLR 14/12 A2999 270 83 300 000/00 RMK AO2 T01440117
94790KART ART20160630202510706/30/16 20:25:31  5-MIN KART 010125Z AUTO 17003KT 10SM CLR 14/11 A2999 270 83 200 190/03 RMK AO2 T01390111
94790KART ART20160630203010706/30/16 20:30:31  5-MIN KART 010130Z AUTO 16003KT 10SM CLR 16/11 A2999 270 72 400 170/03 RMK AO2 T01560106
94790KART ART20160630203510706/30/16 20:35:31  5-MIN KART 010135Z AUTO 00000KT 10SM CLR 16/11 A2999 270 74 400 000/00 RMK AO2 T01560111
94790KART ART20160630204010706/30/16 20:40:31  5-MIN KART 010140Z AUTO 12003KT 10SM CLR 14/11 A2999 270 80 300 130/03 RMK AO2 T01440111
94790KART ART20160630204510706/30/16 20:45:31  5-MIN KART 010145Z AUTO 13003KT 10SM CLR 14/11 A2999 270 83 200 150/03 RMK AO2 T01390111
94790KART ART20160630205011406/30/16 20:50:31  5-MIN KART 010150Z AUTO 00000KT 10SM CLR 13/11 A2999 270 86 200 000/00 RMK AO2 SLP152 T01330111
94790KART ART20160630205511406/30/16 20:55:31  5-MIN KART 010155Z AUTO 00000KT 10SM CLR 14/11 A2999 270 83 200 000/00 RMK AO2 SLP153 T01390111
94790KART ART20160630210010706/30/16 21:00:31  5-MIN KART 010200Z AUTO 00000KT 10SM CLR 13/11 A2999 260 86 200 000/00 RMK AO2 T01330111
94790KART ART20160630210510706/30/16 21:05:31  5-MIN KART 010205Z AUTO 00000KT 10SM CLR 13/11 A2999 260 86 200 000/00 RMK AO2 T01330111
94790KART ART20160630211010706/30/16 21:10:31  5-MIN KART 010210Z AUTO 00000KT 10SM CLR 14/11 A2999 260 80 200 000/00 RMK AO2 T01390106
94790KART ART20160630211510706/30/16 21:15:31  5-MIN KART 010215Z AUTO 00000KT 10SM CLR 13/11 A2999 260 89 100 000/00 RMK AO2 T01280111
94790KART ART20160630212010706/30/16 21:20:31  5-MIN KART 010220Z AUTO 00000KT 10SM CLR 13/11 A2999 260 86 100 000/00 RMK AO2 T01280106
94790KART ART20160630212510706/30/16 21:25:31  5-MIN KART 010225Z AUTO 00000KT 10SM CLR 13/11 A2999 270 86 100 000/00 RMK AO2 T01280106
94790KART ART20160630213010506/30/16 21:30:31  5-MIN KART 010230Z AUTO 00000KT 10SM CLR 12/11 A2999 270 89 0 000/00 RMK AO2 T01220106
94790KART ART20160630213510706/30/16 21:35:31  5-MIN KART 010235Z AUTO 00000KT 10SM CLR 13/11 A2999 270 86 100 000/00 RMK AO2 T01280106
94790KART ART20160630214010706/30/16 21:40:31  5-MIN KART 010240Z AUTO 00000KT 10SM CLR 13/11 A2999 270 86 100 000/00 RMK AO2 T01280106
94790KART ART20160630214510706/30/16 21:45:31  5-MIN KART 010245Z AUTO 00000KT 10SM CLR 13/10 A2998 270 80 200 000/00 RMK AO2 T01330100
94790KART ART20160630215012006/30/16 21:50:31  5-MIN KART 010250Z AUTO 00000KT 10SM CLR 13/11 A2999 270 83 200 000/00 RMK AO2 SLP151 T01330106 56005
94790KART ART20160630215511806/30/16 21:55:31  5-MIN KART 010255Z AUTO 00000KT 10SM CLR 12/10 A2998 270 86 0 000/00 RMK AO2 SLP151 T01220100 56005
94790KART ART20160630220010706/30/16 22:00:31  5-MIN KART 010300Z AUTO 00000KT 10SM CLR 13/10 A2998 270 83 100 000/00 RMK AO2 T01280100
94790KART ART20160630220510706/30/16 22:05:31  5-MIN KART 010305Z AUTO 09003KT 10SM CLR 13/10 A2998 270 83 100 100/03 RMK AO2 T01280100
94790KART ART20160630221010706/30/16 22:10:31  5-MIN KART 010310Z AUTO 00000KT 10SM CLR 13/10 A2998 270 83 100 000/00 RMK AO2 T01280100
94790KART ART20160630221510706/30/16 22:15:31  5-MIN KART 010315Z AUTO 00000KT 10SM CLR 13/10 A2998 270 83 100 000/00 RMK AO2 T01280100
94790KART ART20160630222010706/30/16 22:20:31  5-MIN KART 010320Z AUTO 10003KT 10SM CLR 13/10 A2998 280 83 100 120/03 RMK AO2 T01280100
94790KART ART20160630222510706/30/16 22:25:31  5-MIN KART 010325Z AUTO 00000KT 10SM CLR 12/10 A2998 280 86 100 000/00 RMK AO2 T01220100
94790KART ART20160630223010706/30/16 22:30:31  5-MIN KART 010330Z AUTO 00000KT 10SM CLR 12/10 A2998 280 86 100 000/00 RMK AO2 T01220100
94790KART ART20160630223510706/30/16 22:35:31  5-MIN KART 010335Z AUTO 00000KT 10SM CLR 12/10 A2998 280 86 100 000/00 RMK AO2 T01220100
94790KART ART20160630224010706/30/16 22:40:31  5-MIN KART 010340Z AUTO 00000KT 10SM CLR 12/10 A2998 280 86 100 000/00 RMK AO2 T01220100
94790KART ART20160630224508506/30/16 22:45:31  5-MIN KART 010345Z AUTO 00000KT 10SM CLR 12/10 A2998 280 86 220100
94790KART ART20160630230010706/30/16 23:00:31  5-MIN KART 010400Z AUTO 00000KT 10SM CLR 13/10 A2998 280 83 100 000/00 RMK AO2 T01280100
94790KART ART20160630230510506/30/16 23:05:31  5-MIN KART 010405Z AUTO 05003KT 10SM CLR 12/09 A2997 280 86 0 070/03 RMK AO2 T01170094
94790KART ART20160630231010706/30/16 23:10:31  5-MIN KART 010410Z AUTO 00000KT 10SM CLR 12/09 A2997 280 83 100 000/00 RMK AO2 T01220094
94790KART ART20160630231510706/30/16 23:15:31  5-MIN KART 010415Z AUTO 00000KT 10SM CLR 12/10 A2997 280 86 100 000/00 RMK AO2 T01220100
94790KART ART20160630232010706/30/16 23:20:31  5-MIN KART 010420Z AUTO 00000KT 10SM CLR 12/10 A2997 280 86 100 000/00 RMK AO2 T01220100
94790KART ART20160630232510706/30/16 23:25:31  5-MIN KART 010425Z AUTO 06003KT 10SM CLR 12/10 A2997 280 86 100 070/03 RMK AO2 T01220100
94790KART ART20160630233010506/30/16 23:30:31  5-MIN KART 010430Z AUTO 00000KT 10SM CLR 12/10 A2997 290 89 0 000/00 RMK AO2 T01170100
94790KART ART20160630233510706/30/16 23:35:31  5-MIN KART 010435Z AUTO 07003KT 10SM CLR 12/10 A2997 290 86 100 080/03 RMK AO2 T01220100
94790KART ART20160630234010506/30/16 23:40:31  5-MIN KART 010440Z AUTO 07003KT 10SM CLR 12/10 A2997 290 89 0 090/03 RMK AO2 T01170100
94790KART ART20160630234510506/30/16 23:45:31  5-MIN KART 010445Z AUTO 06004KT 10SM CLR 11/09 A2997 290 89 0 080/04 RMK AO2 T01110094
94790KART ART20160630235012206/30/16 23:50:31  5-MIN KART 010450Z AUTO 07003KT 10SM CLR 11/10 A2996 290 93 0 080/03 RMK AO2 SLP144 T01110100 402500111
94790KART ART20160630235512206/30/16 23:55:31  5-MIN KART 010455Z AUTO 07004KT 10SM CLR 12/10 A2996 290 89 0 080/04 RMK AO2 SLP144 T01170100 402500111
