53144K9L2 9L220160401100510204/01/16 10:05:31  5-MIN K9L2 011805Z AUTO 00000KT 10SM CLR 18/M01 A3015 2090 27 3000 000/00 RMK AO2 $
53144K9L2 9L220160401101010204/01/16 10:10:31  5-MIN K9L2 011810Z AUTO 16004KT 10SM CLR 18/M01 A3015 2090 27 3000 150/04 RMK AO2 $
53144K9L2 9L220160401101510204/01/16 10:15:31  5-MIN K9L2 011815Z AUTO VRB03KT 10SM CLR 19/M01 A3015 2090 26 3100 VRB/03 RMK AO2 $
53144K9L2 9L220160401102010204/01/16 10:20:31  5-MIN K9L2 011820Z AUTO 00000KT 10SM CLR 19/M01 A3015 2090 26 3100 000/00 RMK AO2 $
53144K9L2 9L220160401102510204/01/16 10:25:31  5-MIN K9L2 011825Z AUTO 19005KT 10SM CLR 19/M01 A3015 2100 26 3100 180/05 RMK AO2 $
53144K9L2 9L220160401103010204/01/16 10:30:31  5-MIN K9L2 011830Z AUTO 18006KT 10SM CLR 20/M01 A3014 2100 24 3200 160/06 RMK AO2 $
53144K9L2 9L220160401103510204/01/16 10:35:31  5-MIN K9L2 011835Z AUTO VRB05KT 10SM CLR 20/M01 A3014 2100 24 3200 VRB/05 RMK AO2 $
53144K9L2 9L220160401104010204/01/16 10:40:31  5-MIN K9L2 011840Z AUTO 16005KT 10SM CLR 20/M01 A3014 2100 24 3200 150/05 RMK AO2 $
53144K9L2 9L220160401104510204/01/16 10:45:31  5-MIN K9L2 011845Z AUTO 15006KT 10SM CLR 21/M01 A3014 2100 23 3300 130/06 RMK AO2 $
53144K9L2 9L220160401105010204/01/16 10:50:31  5-MIN K9L2 011850Z AUTO 13007KT 10SM CLR 21/M01 A3014 2100 23 3300 110/07 RMK AO2 $
53144K9L2 9L220160401105511904/01/16 10:55:31  5-MIN K9L2 011855Z AUTO 11007KT 10SM CLR 21/M01 A3014 2100 22 3300 090/07 RMK AO2 SLP199 T02111011 $
53144K9L2 9L220160401110010204/01/16 11:00:31  5-MIN K9L2 011900Z AUTO 12004KT 10SM CLR 21/M01 A3013 2110 22 3300 110/04 RMK AO2 $
53144K9L2 9L220160401110510204/01/16 11:05:31  5-MIN K9L2 011905Z AUTO 13006KT 10SM CLR 22/M01 A3013 2110 21 3400 120/06 RMK AO2 $
53144K9L2 9L220160401111010204/01/16 11:10:31  5-MIN K9L2 011910Z AUTO 15006KT 10SM CLR 22/M02 A3013 2110 20 3400 140/06 RMK AO2 $
53144K9L2 9L220160401111510204/01/16 11:15:31  5-MIN K9L2 011915Z AUTO 12003KT 10SM CLR 22/M03 A3013 2110 18 3500 100/03 RMK AO2 $
53144K9L2 9L220160401112010204/01/16 11:20:31  5-MIN K9L2 011920Z AUTO VRB05KT 10SM CLR 22/M03 A3012 2110 17 3500 VRB/05 RMK AO2 $
53144K9L2 9L220160401112510204/01/16 11:25:31  5-MIN K9L2 011925Z AUTO VRB04KT 10SM CLR 22/M03 A3012 2110 18 3400 VRB/04 RMK AO2 $
53144K9L2 9L220160401113010204/01/16 11:30:31  5-MIN K9L2 011930Z AUTO 17006KT 10SM CLR 22/M03 A3012 2120 18 3500 160/06 RMK AO2 $
53144K9L2 9L220160401113510204/01/16 11:35:31  5-MIN K9L2 011935Z AUTO VRB06KT 10SM CLR 23/M03 A3012 2120 18 3500 VRB/06 RMK AO2 $
53144K9L2 9L220160401114010204/01/16 11:40:31  5-MIN K9L2 011940Z AUTO 14007KT 10SM CLR 23/M03 A3012 2120 17 3500 130/07 RMK AO2 $
53144K9L2 9L220160401114510204/01/16 11:45:31  5-MIN K9L2 011945Z AUTO VRB04KT 10SM CLR 23/M04 A3012 2120 16 3500 VRB/04 RMK AO2 $
53144K9L2 9L220160401115010204/01/16 11:50:31  5-MIN K9L2 011950Z AUTO VRB03KT 10SM CLR 23/M04 A3012 2120 16 3500 VRB/03 RMK AO2 $
53144K9L2 9L220160401115511904/01/16 11:55:31  5-MIN K9L2 011955Z AUTO VRB04KT 10SM CLR 23/M04 A3011 2130 16 3500 VRB/04 RMK AO2 SLP191 T02281039 $
53144K9L2 9L220160401120010204/01/16 12:00:31  5-MIN K9L2 012000Z AUTO 09008KT 10SM CLR 24/M04 A3011 2130 15 3700 080/08 RMK AO2 $
53144K9L2 9L220160401120510204/01/16 12:05:31  5-MIN K9L2 012005Z AUTO 05007KT 10SM CLR 24/M04 A3011 2130 15 3700 040/07 RMK AO2 $
53144K9L2 9L220160401121010204/01/16 12:10:31  5-MIN K9L2 012010Z AUTO VRB03KT 10SM CLR 24/M04 A3011 2130 15 3700 VRB/03 RMK AO2 $
53144K9L2 9L220160401121510204/01/16 12:15:31  5-MIN K9L2 012015Z AUTO VRB03KT 10SM CLR 24/M04 A3011 2130 15 3700 VRB/03 RMK AO2 $
53144K9L2 9L220160401122010204/01/16 12:20:31  5-MIN K9L2 012020Z AUTO 00000KT 10SM CLR 23/M04 A3010 2130 16 3600 000/00 RMK AO2 $
53144K9L2 9L220160401122510204/01/16 12:25:31  5-MIN K9L2 012025Z AUTO 13005KT 10SM CLR 23/M04 A3010 2130 16 3600 120/05 RMK AO2 $
53144K9L2 9L220160401123010804/01/16 12:30:31  5-MIN K9L2 012030Z AUTO 04011G16KT 10SM CLR 25/M05 A3010 2140 13 3800 030/11G16 RMK AO2 $
53144K9L2 9L220160401123510804/01/16 12:35:31  5-MIN K9L2 012035Z AUTO VRB06G16KT 10SM CLR 25/M06 A3010 2130 12 3800 VRB/06G16 RMK AO2 $
53144K9L2 9L220160401124010204/01/16 12:40:31  5-MIN K9L2 012040Z AUTO 34010KT 10SM CLR 26/M06 A3010 2140 12 3900 330/10 RMK AO2 $
53144K9L2 9L220160401124511804/01/16 12:45:31  5-MIN K9L2 012045Z AUTO 35007KT 310V020 10SM CLR 24/M06 A3010 2140 12 3700 330/07 300V010 RMK AO2 $
53144K9L2 9L220160401125010204/01/16 12:50:31  5-MIN K9L2 012050Z AUTO 00000KT 10SM CLR 25/M06 A3010 2140 12 3800 000/00 RMK AO2 $
53144K9L2 9L220160401125513104/01/16 12:55:31  5-MIN K9L2 012055Z AUTO 04012G16KT 10SM CLR 25/M06 A3009 2140 12 3800 020/12G16 RMK AO2 SLP186 T02501056 51010 $
53144K9L2 9L220160401130010804/01/16 13:00:31  5-MIN K9L2 012100Z AUTO 02009G16KT 10SM CLR 26/M06 A3010 2140 12 3900 010/09G16 RMK AO2 $
53144K9L2 9L220160401130510204/01/16 13:05:31  5-MIN K9L2 012105Z AUTO 04005KT 10SM CLR 25/M06 A3010 2140 12 3800 030/05 RMK AO2 $
53144K9L2 9L220160401131010204/01/16 13:10:31  5-MIN K9L2 012110Z AUTO VRB05KT 10SM CLR 26/M06 A3009 2140 12 3900 VRB/05 RMK AO2 $
53144K9L2 9L220160401131510204/01/16 13:15:31  5-MIN K9L2 012115Z AUTO VRB06KT 10SM CLR 25/M06 A3009 2150 12 3800 VRB/06 RMK AO2 $
53144K9L2 9L220160401132010804/01/16 13:20:31  5-MIN K9L2 012120Z AUTO 04003G17KT 10SM CLR 26/M07 A3009 2150 11 3900 020/03G17 RMK AO2 $
53144K9L2 9L220160401132510804/01/16 13:25:31  5-MIN K9L2 012125Z AUTO 06013G17KT 10SM CLR 26/M07 A3009 2150 11 3900 050/13G17 RMK AO2 $
53144K9L2 9L220160401133010804/01/16 13:30:31  5-MIN K9L2 012130Z AUTO VRB04G17KT 10SM CLR 25/M07 A3009 2150 11 3800 VRB/04G17 RMK AO2 $
53144K9L2 9L220160401133510804/01/16 13:35:31  5-MIN K9L2 012135Z AUTO 10005G17KT 10SM CLR 26/M07 A3009 2150 11 3900 080/05G17 RMK AO2 $
53144K9L2 9L220160401134010204/01/16 13:40:31  5-MIN K9L2 012140Z AUTO VRB05KT 10SM CLR 25/M07 A3009 2150 11 3800 VRB/05 RMK AO2 $
53144K9L2 9L220160401134510804/01/16 13:45:31  5-MIN K9L2 012145Z AUTO 36009G16KT 10SM CLR 27/M07 A3008 2150 10 4000 340/09G16 RMK AO2 $
53144K9L2 9L220160401135010804/01/16 13:50:31  5-MIN K9L2 012150Z AUTO 04014G18KT 10SM CLR 27/M07 A3008 2160 10 4000 030/14G18 RMK AO2 $
53144K9L2 9L220160401135512504/01/16 13:55:31  5-MIN K9L2 012155Z AUTO 36009G18KT 10SM CLR 26/M07 A3008 2160 10 4000 350/09G18 RMK AO2 SLP180 T02611072 $
53144K9L2 9L220160401140010204/01/16 14:00:31  5-MIN K9L2 012200Z AUTO VRB05KT 10SM CLR 26/M07 A3008 2160 11 3900 VRB/05 RMK AO2 $
53144K9L2 9L220160401140511804/01/16 14:05:31  5-MIN K9L2 012205Z AUTO 36007KT 330V030 10SM CLR 27/M07 A3008 2160 10 4000 350/07 320V020 RMK AO2 $
53144K9L2 9L220160401141010804/01/16 14:10:31  5-MIN K9L2 012210Z AUTO 03011G15KT 10SM CLR 27/M08 A3008 2160 09 4000 020/11G15 RMK AO2 $
53144K9L2 9L220160401141510804/01/16 14:15:31  5-MIN K9L2 012215Z AUTO 02008G15KT 10SM CLR 26/M08 A3007 2160 10 4000 010/08G15 RMK AO2 $
53144K9L2 9L220160401142010204/01/16 14:20:31  5-MIN K9L2 012220Z AUTO 01005KT 10SM CLR 27/M08 A3007 2160 09 4000 360/05 RMK AO2 $
53144K9L2 9L220160401142510804/01/16 14:25:31  5-MIN K9L2 012225Z AUTO 04009G16KT 10SM CLR 27/M08 A3007 2160 09 4000 020/09G16 RMK AO2 $
53144K9L2 9L220160401143012404/01/16 14:30:31  5-MIN K9L2 012230Z AUTO 03008G16KT 350V050 10SM CLR 27/M08 A3007 2160 09 4000 010/08G16 340V040 RMK AO2 $
53144K9L2 9L220160401143510204/01/16 14:35:31  5-MIN K9L2 012235Z AUTO 34008KT 10SM CLR 27/M08 A3007 2160 09 4000 330/08 RMK AO2 $
53144K9L2 9L220160401144010204/01/16 14:40:31  5-MIN K9L2 012240Z AUTO VRB04KT 10SM CLR 26/M08 A3007 2160 09 4000 VRB/04 RMK AO2 $
53144K9L2 9L220160401144510804/01/16 14:45:31  5-MIN K9L2 012245Z AUTO 05010G14KT 10SM CLR 27/M08 A3007 2170 09 4000 040/10G14 RMK AO2 $
53144K9L2 9L220160401145010804/01/16 14:50:31  5-MIN K9L2 012250Z AUTO 36007G14KT 10SM CLR 27/M08 A3007 2170 09 4000 340/07G14 RMK AO2 $
53144K9L2 9L220160401145514104/01/16 14:55:31  5-MIN K9L2 012255Z AUTO 02007G15KT 340V070 10SM CLR 26/M08 A3007 2170 09 4000 010/07G15 330V060 RMK AO2 SLP177 T02611083 $
53144K9L2 9L220160401150010804/01/16 15:00:31  5-MIN K9L2 012300Z AUTO 36007G15KT 10SM CLR 26/M08 A3007 2170 09 4000 340/07G15 RMK AO2 $
53144K9L2 9L220160401150510204/01/16 15:05:31  5-MIN K9L2 012305Z AUTO VRB04KT 10SM CLR 26/M08 A3007 2170 09 4000 VRB/04 RMK AO2 $
53144K9L2 9L220160401151010204/01/16 15:10:31  5-MIN K9L2 012310Z AUTO 00000KT 10SM CLR 26/M08 A3006 2170 10 3900 000/00 RMK AO2 $
53144K9L2 9L220160401151510804/01/16 15:15:31  5-MIN K9L2 012315Z AUTO 03007G15KT 10SM CLR 26/M08 A3006 2170 09 4000 020/07G15 RMK AO2 $
53144K9L2 9L220160401152010804/01/16 15:20:31  5-MIN K9L2 012320Z AUTO VRB03G15KT 10SM CLR 26/M08 A3006 2170 09 4000 VRB/03G15 RMK AO2 $
53144K9L2 9L220160401152510204/01/16 15:25:31  5-MIN K9L2 012325Z AUTO 07007KT 10SM CLR 27/M08 A3006 2170 09 4000 060/07 RMK AO2 $
53144K9L2 9L220160401153010204/01/16 15:30:31  5-MIN K9L2 012330Z AUTO 08003KT 10SM CLR 26/M08 A3006 2170 09 4000 070/03 RMK AO2 $
53144K9L2 9L220160401153512404/01/16 15:35:31  5-MIN K9L2 012335Z AUTO 01010G19KT 320V050 10SM CLR 27/M08 A3006 2180 09 4000 360/10G19 310V040 RMK AO2 $
53144K9L2 9L220160401154010804/01/16 15:40:31  5-MIN K9L2 012340Z AUTO 03007G19KT 10SM CLR 26/M08 A3006 2170 09 4000 010/07G19 RMK AO2 $
53144K9L2 9L220160401154510804/01/16 15:45:31  5-MIN K9L2 012345Z AUTO 33006G17KT 10SM CLR 26/M08 A3006 2170 09 4000 320/06G17 RMK AO2 $
53144K9L2 9L220160401155010204/01/16 15:50:31  5-MIN K9L2 012350Z AUTO 32004KT 10SM CLR 26/M08 A3006 2180 09 4000 300/04 RMK AO2 $
53144K9L2 9L220160401155513704/01/16 15:55:31  5-MIN K9L2 012355Z AUTO 35003KT 10SM CLR 26/M08 A3006 2180 09 4000 330/03 RMK AO2 SLP174 T02611083 10267 20178 56018 $
53144K9L2 9L220160401160010204/01/16 16:00:31  5-MIN K9L2 020000Z AUTO 36007KT 10SM CLR 26/M08 A3006 2180 10 3900 350/07 RMK AO2 $
53144K9L2 9L220160401160510804/01/16 16:05:31  5-MIN K9L2 020005Z AUTO 36009G14KT 10SM CLR 26/M08 A3006 2180 09 4000 350/09G14 RMK AO2 $
53144K9L2 9L220160401161010804/01/16 16:10:31  5-MIN K9L2 020010Z AUTO 34007G14KT 10SM CLR 26/M08 A3006 2180 09 4000 320/07G14 RMK AO2 $
53144K9L2 9L220160401161510204/01/16 16:15:31  5-MIN K9L2 020015Z AUTO 34004KT 10SM CLR 26/M08 A3006 2180 09 4000 320/04 RMK AO2 $
53144K9L2 9L220160401162011804/01/16 16:20:31  5-MIN K9L2 020020Z AUTO 35007KT 300V020 10SM CLR 26/M08 A3005 2180 10 3900 330/07 290V010 RMK AO2 $
53144K9L2 9L220160401162510204/01/16 16:25:31  5-MIN K9L2 020025Z AUTO 01006KT 10SM CLR 26/M08 A3006 2180 09 4000 360/06 RMK AO2 $
53144K9L2 9L220160401163010204/01/16 16:30:31  5-MIN K9L2 020030Z AUTO 03007KT 10SM CLR 26/M08 A3006 2180 09 4000 020/07 RMK AO2 $
53144K9L2 9L220160401163510204/01/16 16:35:31  5-MIN K9L2 020035Z AUTO 05006KT 10SM CLR 26/M08 A3006 2170 09 4000 040/06 RMK AO2 $
53144K9L2 9L220160401164010204/01/16 16:40:31  5-MIN K9L2 020040Z AUTO 07004KT 10SM CLR 26/M08 A3006 2170 10 3900 060/04 RMK AO2 $
53144K9L2 9L220160401164510204/01/16 16:45:31  5-MIN K9L2 020045Z AUTO 07006KT 10SM CLR 26/M08 A3006 2170 10 3900 060/06 RMK AO2 $
53144K9L2 9L220160401165010204/01/16 16:50:31  5-MIN K9L2 020050Z AUTO 06005KT 10SM CLR 26/M08 A3006 2170 10 3900 040/05 RMK AO2 $
53144K9L2 9L220160401165511904/01/16 16:55:31  5-MIN K9L2 020055Z AUTO 00000KT 10SM CLR 26/M08 A3006 2170 10 3900 000/00 RMK AO2 SLP176 T02561083 $
53144K9L2 9L220160401170010204/01/16 17:00:31  5-MIN K9L2 020100Z AUTO 00000KT 10SM CLR 25/M08 A3006 2170 10 3900 000/00 RMK AO2 $
53144K9L2 9L220160401170510204/01/16 17:05:31  5-MIN K9L2 020105Z AUTO 12003KT 10SM CLR 25/M08 A3006 2170 10 3900 100/03 RMK AO2 $
53144K9L2 9L220160401171010204/01/16 17:10:31  5-MIN K9L2 020110Z AUTO VRB03KT 10SM CLR 25/M08 A3006 2170 10 3900 VRB/03 RMK AO2 $
53144K9L2 9L220160401171510204/01/16 17:15:31  5-MIN K9L2 020115Z AUTO VRB05KT 10SM CLR 26/M08 A3006 2170 10 3900 VRB/05 RMK AO2 $
53144K9L2 9L220160401172010204/01/16 17:20:31  5-MIN K9L2 020120Z AUTO 32006KT 10SM CLR 26/M08 A3006 2170 10 3900 310/06 RMK AO2 $
53144K9L2 9L220160401172510204/01/16 17:25:31  5-MIN K9L2 020125Z AUTO 00000KT 10SM CLR 25/M08 A3006 2170 10 3900 000/00 RMK AO2 $
53144K9L2 9L220160401173010204/01/16 17:30:31  5-MIN K9L2 020130Z AUTO 13003KT 10SM CLR 25/M08 A3006 2170 10 3900 120/03 RMK AO2 $
53144K9L2 9L220160401173510204/01/16 17:35:31  5-MIN K9L2 020135Z AUTO 16003KT 10SM CLR 24/M08 A3006 2170 11 3800 150/03 RMK AO2 $
53144K9L2 9L220160401174010204/01/16 17:40:31  5-MIN K9L2 020140Z AUTO 16004KT 10SM CLR 24/M07 A3006 2170 11 3800 140/04 RMK AO2 $
53144K9L2 9L220160401174510204/01/16 17:45:31  5-MIN K9L2 020145Z AUTO 15003KT 10SM CLR 24/M07 A3006 2170 12 3700 140/03 RMK AO2 $
53144K9L2 9L220160401175010204/01/16 17:50:31  5-MIN K9L2 020150Z AUTO 17003KT 10SM CLR 24/M07 A3007 2170 12 3700 160/03 RMK AO2 $
53144K9L2 9L220160401175511904/01/16 17:55:31  5-MIN K9L2 020155Z AUTO 15003KT 10SM CLR 23/M07 A3007 2170 12 3700 130/03 RMK AO2 SLP179 T02331072 $
53144K9L2 9L220160401180010204/01/16 18:00:31  5-MIN K9L2 020200Z AUTO 13004KT 10SM CLR 23/M07 A3007 2170 12 3700 110/04 RMK AO2 $
53144K9L2 9L220160401180510204/01/16 18:05:31  5-MIN K9L2 020205Z AUTO 13003KT 10SM CLR 23/M07 A3007 2170 12 3700 120/03 RMK AO2 $
53144K9L2 9L220160401181010204/01/16 18:10:31  5-MIN K9L2 020210Z AUTO 00000KT 10SM CLR 23/M07 A3007 2170 13 3600 000/00 RMK AO2 $
53144K9L2 9L220160401181510204/01/16 18:15:31  5-MIN K9L2 020215Z AUTO 00000KT 10SM CLR 21/M07 A3007 2170 15 3400 000/00 RMK AO2 $
53144K9L2 9L220160401182010204/01/16 18:20:31  5-MIN K9L2 020220Z AUTO 00000KT 10SM CLR 21/M07 A3007 2170 14 3300 000/00 RMK AO2 $
53144K9L2 9L220160401182510204/01/16 18:25:31  5-MIN K9L2 020225Z AUTO 00000KT 10SM CLR 21/M07 A3007 2160 14 3300 000/00 RMK AO2 $
53144K9L2 9L220160401183010204/01/16 18:30:31  5-MIN K9L2 020230Z AUTO 24007KT 10SM CLR 19/M07 A3007 2160 15 3200 230/07 RMK AO2 $
53144K9L2 9L220160401183510204/01/16 18:35:31  5-MIN K9L2 020235Z AUTO 26006KT 10SM CLR 20/M03 A3007 2160 20 3300 240/06 RMK AO2 $
53144K9L2 9L220160401184010104/01/16 18:40:31  5-MIN K9L2 020240Z AUTO 27014KT 10SM CLR 21/02 A3007 2160 27 3400 260/14 RMK AO2 $
53144K9L2 9L220160401184510104/01/16 18:45:31  5-MIN K9L2 020245Z AUTO 27012KT 10SM CLR 21/02 A3008 2160 28 3400 260/12 RMK AO2 $
53144K9L2 9L220160401185010104/01/16 18:50:31  5-MIN K9L2 020250Z AUTO 28008KT 10SM CLR 21/03 A3008 2160 29 3400 260/08 RMK AO2 $
53144K9L2 9L220160401185512404/01/16 18:55:31  5-MIN K9L2 020255Z AUTO 28008KT 10SM CLR 21/03 A3008 2160 29 3400 260/08 RMK AO2 SLP181 T02110028 56012 $
53144K9L2 9L220160401190010104/01/16 19:00:31  5-MIN K9L2 020300Z AUTO 27008KT 10SM CLR 20/03 A3008 2150 31 3300 260/08 RMK AO2 $
53144K9L2 9L220160401190510104/01/16 19:05:31  5-MIN K9L2 020305Z AUTO 28007KT 10SM CLR 20/03 A3008 2150 31 3300 270/07 RMK AO2 $
53144K9L2 9L220160401191010104/01/16 19:10:31  5-MIN K9L2 020310Z AUTO 28009KT 10SM CLR 19/03 A3009 2150 33 3200 270/09 RMK AO2 $
53144K9L2 9L220160401191510104/01/16 19:15:31  5-MIN K9L2 020315Z AUTO 29008KT 10SM CLR 19/03 A3009 2150 34 3100 280/08 RMK AO2 $
53144K9L2 9L220160401192010104/01/16 19:20:31  5-MIN K9L2 020320Z AUTO 28007KT 10SM CLR 19/03 A3009 2140 34 3100 260/07 RMK AO2 $
53144K9L2 9L220160401192510104/01/16 19:25:31  5-MIN K9L2 020325Z AUTO 28006KT 10SM CLR 18/02 A3009 2140 34 3100 270/06 RMK AO2 $
53144K9L2 9L220160401193010104/01/16 19:30:31  5-MIN K9L2 020330Z AUTO 29006KT 10SM CLR 18/02 A3010 2140 34 3100 270/06 RMK AO2 $
53144K9L2 9L220160401193510104/01/16 19:35:31  5-MIN K9L2 020335Z AUTO 29006KT 10SM CLR 18/02 A3010 2140 35 3000 280/06 RMK AO2 $
53144K9L2 9L220160401194010104/01/16 19:40:31  5-MIN K9L2 020340Z AUTO 29006KT 10SM CLR 18/02 A3010 2140 35 3000 280/06 RMK AO2 $
53144K9L2 9L220160401194510104/01/16 19:45:31  5-MIN K9L2 020345Z AUTO 28007KT 10SM CLR 17/02 A3010 2140 36 2900 260/07 RMK AO2 $
53144K9L2 9L220160401195010104/01/16 19:50:31  5-MIN K9L2 020350Z AUTO 28008KT 10SM CLR 17/02 A3010 2140 36 2900 270/08 RMK AO2 $
53144K9L2 9L220160401195511804/01/16 19:55:31  5-MIN K9L2 020355Z AUTO 28009KT 10SM CLR 18/02 A3010 2140 35 3000 260/09 RMK AO2 SLP189 T01780022 $
53144K9L2 9L220160401200010104/01/16 20:00:31  5-MIN K9L2 020400Z AUTO 27008KT 10SM CLR 17/02 A3010 2130 36 2900 260/08 RMK AO2 $
53144K9L2 9L220160401200510104/01/16 20:05:31  5-MIN K9L2 020405Z AUTO 27007KT 10SM CLR 17/02 A3010 2130 35 2900 260/07 RMK AO2 $
53144K9L2 9L220160401201010104/01/16 20:10:31  5-MIN K9L2 020410Z AUTO 27007KT 10SM CLR 17/02 A3011 2130 36 2900 260/07 RMK AO2 $
53144K9L2 9L220160401201510104/01/16 20:15:31  5-MIN K9L2 020415Z AUTO 27008KT 10SM CLR 17/02 A3011 2130 36 2900 260/08 RMK AO2 $
53144K9L2 9L220160401202010104/01/16 20:20:31  5-MIN K9L2 020420Z AUTO 28007KT 10SM CLR 17/02 A3011 2130 36 2900 270/07 RMK AO2 $
53144K9L2 9L220160401202510104/01/16 20:25:31  5-MIN K9L2 020425Z AUTO 28007KT 10SM CLR 16/02 A3011 2130 37 2800 270/07 RMK AO2 $
53144K9L2 9L220160401203010104/01/16 20:30:31  5-MIN K9L2 020430Z AUTO 28007KT 10SM CLR 16/02 A3011 2130 37 2800 270/07 RMK AO2 $
53144K9L2 9L220160401203510104/01/16 20:35:31  5-MIN K9L2 020435Z AUTO 28008KT 10SM CLR 16/02 A3011 2130 37 2800 260/08 RMK AO2 $
53144K9L2 9L220160401204010104/01/16 20:40:31  5-MIN K9L2 020440Z AUTO 28007KT 10SM CLR 16/02 A3011 2130 37 2800 260/07 RMK AO2 $
53144K9L2 9L220160401204510104/01/16 20:45:31  5-MIN K9L2 020445Z AUTO 28006KT 10SM CLR 16/02 A3011 2120 39 2700 260/06 RMK AO2 $
53144K9L2 9L220160401205010104/01/16 20:50:31  5-MIN K9L2 020450Z AUTO 29004KT 10SM CLR 16/02 A3012 2120 39 2700 270/04 RMK AO2 $
53144K9L2 9L220160401205511804/01/16 20:55:31  5-MIN K9L2 020455Z AUTO 00000KT 10SM CLR 15/02 A3012 2120 40 2700 000/00 RMK AO2 SLP194 T01500017 $
53144K9L2 9L220160401210010104/01/16 21:00:31  5-MIN K9L2 020500Z AUTO 00000KT 10SM CLR 16/02 A3012 2120 39 2700 000/00 RMK AO2 $
53144K9L2 9L220160401210510104/01/16 21:05:31  5-MIN K9L2 020505Z AUTO 00000KT 10SM CLR 15/02 A3012 2120 40 2600 000/00 RMK AO2 $
53144K9L2 9L220160401211010104/01/16 21:10:31  5-MIN K9L2 020510Z AUTO 28003KT 10SM CLR 16/02 A3012 2120 39 2700 270/03 RMK AO2 $
53144K9L2 9L220160401211510104/01/16 21:15:31  5-MIN K9L2 020515Z AUTO 00000KT 10SM CLR 15/02 A3012 2120 40 2600 000/00 RMK AO2 $
53144K9L2 9L220160401212010104/01/16 21:20:31  5-MIN K9L2 020520Z AUTO 00000KT 10SM CLR 15/02 A3012 2110 40 2600 000/00 RMK AO2 $
53144K9L2 9L220160401212510104/01/16 21:25:31  5-MIN K9L2 020525Z AUTO 00000KT 10SM CLR 14/01 A3012 2120 40 2600 000/00 RMK AO2 $
53144K9L2 9L220160401213010104/01/16 21:30:31  5-MIN K9L2 020530Z AUTO 00000KT 10SM CLR 14/01 A3012 2110 40 2500 000/00 RMK AO2 $
53144K9L2 9L220160401213510104/01/16 21:35:31  5-MIN K9L2 020535Z AUTO 00000KT 10SM CLR 14/01 A3013 2110 40 2500 000/00 RMK AO2 $
53144K9L2 9L220160401214010104/01/16 21:40:31  5-MIN K9L2 020540Z AUTO 00000KT 10SM CLR 14/01 A3013 2110 40 2600 000/00 RMK AO2 $
53144K9L2 9L220160401214510104/01/16 21:45:31  5-MIN K9L2 020545Z AUTO 14004KT 10SM CLR 14/01 A3013 2110 41 2500 130/04 RMK AO2 $
53144K9L2 9L220160401215010104/01/16 21:50:31  5-MIN K9L2 020550Z AUTO 21003KT 10SM CLR 14/02 A3013 2110 41 2600 190/03 RMK AO2 $
53144K9L2 9L220160401215513604/01/16 21:55:31  5-MIN K9L2 020555Z AUTO 21006KT 10SM CLR 14/01 A3013 2110 41 2500 200/06 RMK AO2 SLP196 T01390011 10261 20133 53007 $
53144K9L2 9L220160401220010104/01/16 22:00:31  5-MIN K9L2 020600Z AUTO 18003KT 10SM CLR 14/01 A3013 2110 41 2500 170/03 RMK AO2 $
53144K9L2 9L220160402075511804/02/16 07:55:31  5-MIN K9L2 021555Z AUTO 00000KT 10SM CLR 12/01 A3022 2030 46 2200 000/00 RMK AO2 SLP228 T01220011 $
53144K9L2 9L220160402080010104/02/16 08:00:31  5-MIN K9L2 021600Z AUTO 00000KT 10SM CLR 13/02 A3022 2030 46 2300 000/00 RMK AO2 $
53144K9L2 9L220160402080510104/02/16 08:05:31  5-MIN K9L2 021605Z AUTO 00000KT 10SM CLR 13/02 A3021 2030 45 2300 000/00 RMK AO2 $
53144K9L2 9L220160402081010104/02/16 08:10:31  5-MIN K9L2 021610Z AUTO 00000KT 10SM CLR 14/02 A3021 2030 43 2500 000/00 RMK AO2 $
53144K9L2 9L220160402081510104/02/16 08:15:31  5-MIN K9L2 021615Z AUTO 00000KT 10SM CLR 14/02 A3021 2030 43 2500 000/00 RMK AO2 $
53144K9L2 9L220160402082010104/02/16 08:20:31  5-MIN K9L2 021620Z AUTO 00000KT 10SM CLR 14/02 A3021 2030 43 2400 000/00 RMK AO2 $
53144K9L2 9L220160402082510104/02/16 08:25:31  5-MIN K9L2 021625Z AUTO 00000KT 10SM CLR 14/02 A3021 2030 43 2500 000/00 RMK AO2 $
53144K9L2 9L220160402083010104/02/16 08:30:31  5-MIN K9L2 021630Z AUTO 09003KT 10SM CLR 14/02 A3021 2030 43 2500 080/03 RMK AO2 $
53144K9L2 9L220160402083510104/02/16 08:35:31  5-MIN K9L2 021635Z AUTO 00000KT 10SM CLR 15/03 A3021 2030 43 2500 000/00 RMK AO2 $
53144K9L2 9L220160402084010104/02/16 08:40:31  5-MIN K9L2 021640Z AUTO 00000KT 10SM CLR 16/03 A3021 2030 42 2600 000/00 RMK AO2 $
53144K9L2 9L220160402084510104/02/16 08:45:31  5-MIN K9L2 021645Z AUTO 00000KT 10SM CLR 16/03 A3021 2030 40 2700 000/00 RMK AO2 $
53144K9L2 9L220160402085010104/02/16 08:50:31  5-MIN K9L2 021650Z AUTO 00000KT 10SM CLR 16/03 A3021 2030 40 2700 000/00 RMK AO2 $
53144K9L2 9L220160402085511804/02/16 08:55:31  5-MIN K9L2 021655Z AUTO 00000KT 10SM CLR 17/03 A3021 2030 39 2700 000/00 RMK AO2 SLP226 T01670028 $
53144K9L2 9L220160402090010104/02/16 09:00:31  5-MIN K9L2 021700Z AUTO 00000KT 10SM CLR 17/03 A3021 2030 39 2700 000/00 RMK AO2 $
53144K9L2 9L220160402090510104/02/16 09:05:31  5-MIN K9L2 021705Z AUTO 00000KT 10SM CLR 17/03 A3021 2030 39 2700 000/00 RMK AO2 $
53144K9L2 9L220160402091010104/02/16 09:10:31  5-MIN K9L2 021710Z AUTO 00000KT 10SM CLR 17/03 A3021 2040 39 2800 000/00 RMK AO2 $
53144K9L2 9L220160402091510104/02/16 09:15:31  5-MIN K9L2 021715Z AUTO 00000KT 10SM CLR 18/03 A3021 2040 38 2900 000/00 RMK AO2 $
53144K9L2 9L220160402092010104/02/16 09:20:31  5-MIN K9L2 021720Z AUTO 00000KT 10SM CLR 18/03 A3021 2040 38 2900 000/00 RMK AO2 $
53144K9L2 9L220160402092510104/02/16 09:25:31  5-MIN K9L2 021725Z AUTO 11003KT 10SM CLR 18/03 A3021 2040 36 2900 100/03 RMK AO2 $
53144K9L2 9L220160402093010104/02/16 09:30:31  5-MIN K9L2 021730Z AUTO 00000KT 10SM CLR 18/03 A3021 2040 36 2900 000/00 RMK AO2 $
53144K9L2 9L220160402093510104/02/16 09:35:31  5-MIN K9L2 021735Z AUTO VRB03KT 10SM CLR 18/03 A3021 2040 36 2900 VRB/03 RMK AO2 $
53144K9L2 9L220160402094010104/02/16 09:40:31  5-MIN K9L2 021740Z AUTO VRB03KT 10SM CLR 19/03 A3021 2040 35 3000 VRB/03 RMK AO2 $
53144K9L2 9L220160402094510104/02/16 09:45:31  5-MIN K9L2 021745Z AUTO 15003KT 10SM CLR 19/03 A3021 2040 35 3000 140/03 RMK AO2 $
53144K9L2 9L220160402095010104/02/16 09:50:31  5-MIN K9L2 021750Z AUTO 00000KT 10SM CLR 19/03 A3021 2040 33 3100 000/00 RMK AO2 $
53144K9L2 9L220160402095513604/02/16 09:55:31  5-MIN K9L2 021755Z AUTO 00000KT 10SM CLR 19/02 A3020 2040 31 3100 000/00 RMK AO2 SLP222 T01940022 10194 20039 53015 $
53144K9L2 9L220160402100010104/02/16 10:00:31  5-MIN K9L2 021800Z AUTO 15003KT 10SM CLR 20/03 A3020 2040 31 3100 140/03 RMK AO2 $
53144K9L2 9L220160402100510104/02/16 10:05:31  5-MIN K9L2 021805Z AUTO 00000KT 10SM CLR 20/02 A3020 2040 30 3100 000/00 RMK AO2 $
53144K9L2 9L220160402101010104/02/16 10:10:31  5-MIN K9L2 021810Z AUTO 00000KT 10SM CLR 21/02 A3020 2050 29 3200 000/00 RMK AO2 $
53144K9L2 9L220160402101510104/02/16 10:15:31  5-MIN K9L2 021815Z AUTO 00000KT 10SM CLR 21/02 A3020 2050 28 3300 000/00 RMK AO2 $
53144K9L2 9L220160402102010104/02/16 10:20:31  5-MIN K9L2 021820Z AUTO 00000KT 10SM CLR 21/02 A3020 2050 28 3200 000/00 RMK AO2 $
53144K9L2 9L220160402102510104/02/16 10:25:31  5-MIN K9L2 021825Z AUTO 00000KT 10SM CLR 21/02 A3019 2050 27 3300 000/00 RMK AO2 $
53144K9L2 9L220160402103010104/02/16 10:30:31  5-MIN K9L2 021830Z AUTO 14003KT 10SM CLR 21/02 A3019 2050 27 3300 130/03 RMK AO2 $
53144K9L2 9L220160402103510104/02/16 10:35:31  5-MIN K9L2 021835Z AUTO 00000KT 10SM CLR 22/01 A3019 2050 25 3300 000/00 RMK AO2 $
53144K9L2 9L220160402104010104/02/16 10:40:31  5-MIN K9L2 021840Z AUTO 09003KT 10SM CLR 22/01 A3019 2050 24 3400 080/03 RMK AO2 $
53144K9L2 9L220160402104510104/02/16 10:45:31  5-MIN K9L2 021845Z AUTO 00000KT 10SM CLR 22/01 A3019 2060 24 3400 000/00 RMK AO2 $
53144K9L2 9L220160402105010104/02/16 10:50:31  5-MIN K9L2 021850Z AUTO VRB03KT 10SM CLR 23/01 A3019 2060 22 3500 VRB/03 RMK AO2 $
53144K9L2 9L220160402105511804/02/16 10:55:31  5-MIN K9L2 021855Z AUTO 00000KT 10SM CLR 23/01 A3018 2060 22 3500 000/00 RMK AO2 SLP214 T02280006 $
53144K9L2 9L220160402110010104/02/16 11:00:31  5-MIN K9L2 021900Z AUTO 00000KT 10SM CLR 23/00 A3018 2060 21 3500 000/00 RMK AO2 $
53144K9L2 9L220160402110510104/02/16 11:05:31  5-MIN K9L2 021905Z AUTO 09003KT 10SM CLR 23/00 A3018 2060 21 3500 070/03 RMK AO2 $
53144K9L2 9L220160402111010204/02/16 11:10:31  5-MIN K9L2 021910Z AUTO 00000KT 10SM CLR 24/M01 A3018 2060 19 3700 000/00 RMK AO2 $
53144K9L2 9L220160402111510204/02/16 11:15:31  5-MIN K9L2 021915Z AUTO 00000KT 10SM CLR 24/M02 A3018 2070 18 3600 000/00 RMK AO2 $
53144K9L2 9L220160402112010204/02/16 11:20:31  5-MIN K9L2 021920Z AUTO 00000KT 10SM CLR 24/M02 A3017 2070 18 3600 000/00 RMK AO2 $
53144K9L2 9L220160402112510204/02/16 11:25:31  5-MIN K9L2 021925Z AUTO VRB03KT 10SM CLR 24/M02 A3017 2070 18 3600 VRB/03 RMK AO2 $
53144K9L2 9L220160402113010204/02/16 11:30:31  5-MIN K9L2 021930Z AUTO 00000KT 10SM CLR 24/M03 A3017 2070 16 3700 000/00 RMK AO2 $
53144K9L2 9L220160402113510204/02/16 11:35:31  5-MIN K9L2 021935Z AUTO 00000KT 10SM CLR 25/M02 A3017 2070 16 3700 000/00 RMK AO2 $
53144K9L2 9L220160402114010204/02/16 11:40:31  5-MIN K9L2 021940Z AUTO 00000KT 10SM CLR 26/M03 A3017 2070 15 3800 000/00 RMK AO2 $
53144K9L2 9L220160402114510204/02/16 11:45:31  5-MIN K9L2 021945Z AUTO 00000KT 10SM CLR 25/M03 A3017 2080 15 3700 000/00 RMK AO2 $
53144K9L2 9L220160402115010204/02/16 11:50:31  5-MIN K9L2 021950Z AUTO VRB04KT 10SM CLR 25/M04 A3016 2080 14 3700 VRB/04 RMK AO2 $
53144K9L2 9L220160402115511904/02/16 11:55:31  5-MIN K9L2 021955Z AUTO 00000KT 10SM CLR 25/M04 A3016 2080 14 3700 000/00 RMK AO2 SLP205 T02501044 $
53144K9L2 9L220160402120010204/02/16 12:00:31  5-MIN K9L2 022000Z AUTO 12003KT 10SM CLR 26/M04 A3016 2080 13 3800 110/03 RMK AO2 $
53144K9L2 9L220160402120510204/02/16 12:05:31  5-MIN K9L2 022005Z AUTO 17003KT 10SM CLR 26/M04 A3016 2090 14 3800 160/03 RMK AO2 $
53144K9L2 9L220160402121010204/02/16 12:10:31  5-MIN K9L2 022010Z AUTO 00000KT 10SM CLR 26/M04 A3015 2090 14 3800 000/00 RMK AO2 $
53144K9L2 9L220160402121510204/02/16 12:15:31  5-MIN K9L2 022015Z AUTO 09003KT 10SM CLR 26/M04 A3015 2090 13 3900 080/03 RMK AO2 $
53144K9L2 9L220160402122010204/02/16 12:20:31  5-MIN K9L2 022020Z AUTO 00000KT 10SM CLR 26/M04 A3015 2090 13 3900 000/00 RMK AO2 $
53144K9L2 9L220160402122510204/02/16 12:25:31  5-MIN K9L2 022025Z AUTO 00000KT 10SM CLR 26/M03 A3015 2090 14 3900 000/00 RMK AO2 $
53144K9L2 9L220160402123010204/02/16 12:30:31  5-MIN K9L2 022030Z AUTO 14003KT 10SM CLR 26/M03 A3014 2100 14 3800 130/03 RMK AO2 $
53144K9L2 9L220160402123510204/02/16 12:35:31  5-MIN K9L2 022035Z AUTO 18006KT 10SM CLR 26/M03 A3014 2100 14 3900 170/06 RMK AO2 $
53144K9L2 9L220160402124010204/02/16 12:40:31  5-MIN K9L2 022040Z AUTO VRB05KT 10SM CLR 26/M04 A3014 2100 14 3800 VRB/05 RMK AO2 $
53144K9L2 9L220160402124510204/02/16 12:45:31  5-MIN K9L2 022045Z AUTO 18003KT 10SM CLR 26/M04 A3014 2100 14 3800 170/03 RMK AO2 $
53144K9L2 9L220160402125010204/02/16 12:50:31  5-MIN K9L2 022050Z AUTO 24003KT 10SM CLR 26/M04 A3014 2100 14 3800 230/03 RMK AO2 $
53144K9L2 9L220160402125512504/02/16 12:55:31  5-MIN K9L2 022055Z AUTO 00000KT 10SM CLR 26/M04 A3013 2110 13 3900 000/00 RMK AO2 SLP197 T02611039 58001 $
53144K9L2 9L220160402130010204/02/16 13:00:31  5-MIN K9L2 022100Z AUTO 17006KT 10SM CLR 26/M04 A3013 2110 13 3900 160/06 RMK AO2 $
53144K9L2 9L220160402130510204/02/16 13:05:31  5-MIN K9L2 022105Z AUTO 00000KT 10SM CLR 26/M04 A3013 2110 13 3900 000/00 RMK AO2 $
53144K9L2 9L220160402131010204/02/16 13:10:31  5-MIN K9L2 022110Z AUTO 00000KT 10SM CLR 26/M04 A3013 2110 13 3900 000/00 RMK AO2 $
53144K9L2 9L220160402131510204/02/16 13:15:31  5-MIN K9L2 022115Z AUTO 19005KT 10SM CLR 26/M04 A3012 2110 13 3900 170/05 RMK AO2 $
53144K9L2 9L220160402132010204/02/16 13:20:31  5-MIN K9L2 022120Z AUTO 00000KT 10SM CLR 26/M04 A3012 2120 13 3900 000/00 RMK AO2 $
53144K9L2 9L220160402132510204/02/16 13:25:31  5-MIN K9L2 022125Z AUTO 18005KT 10SM CLR 26/M04 A3012 2120 13 3900 160/05 RMK AO2 $
53144K9L2 9L220160402133010204/02/16 13:30:31  5-MIN K9L2 022130Z AUTO 18007KT 10SM CLR 27/M04 A3012 2120 13 4000 170/07 RMK AO2 $
53144K9L2 9L220160402133510204/02/16 13:35:31  5-MIN K9L2 022135Z AUTO 18005KT 10SM CLR 27/M04 A3011 2120 13 4000 170/05 RMK AO2 $
53144K9L2 9L220160402134010204/02/16 13:40:31  5-MIN K9L2 022140Z AUTO VRB05KT 10SM CLR 27/M04 A3011 2130 13 4000 VRB/05 RMK AO2 $
53144K9L2 9L220160402134510204/02/16 13:45:31  5-MIN K9L2 022145Z AUTO 18007KT 10SM CLR 27/M04 A3011 2130 13 4000 170/07 RMK AO2 $
53144K9L2 9L220160402135010204/02/16 13:50:31  5-MIN K9L2 022150Z AUTO 16005KT 10SM CLR 27/M04 A3011 2130 13 4000 150/05 RMK AO2 $
53144K9L2 9L220160402135511904/02/16 13:55:31  5-MIN K9L2 022155Z AUTO 18006KT 10SM CLR 27/M04 A3011 2130 13 4000 160/06 RMK AO2 SLP188 T02671039 $
53144K9L2 9L220160402140010204/02/16 14:00:31  5-MIN K9L2 022200Z AUTO 16004KT 10SM CLR 26/M04 A3011 2130 13 3900 150/04 RMK AO2 $
53144K9L2 9L220160402140510204/02/16 14:05:31  5-MIN K9L2 022205Z AUTO 18006KT 10SM CLR 27/M04 A3010 2130 12 4100 160/06 RMK AO2 $
53144K9L2 9L220160402141010204/02/16 14:10:31  5-MIN K9L2 022210Z AUTO 18007KT 10SM CLR 27/M04 A3010 2140 13 4000 170/07 RMK AO2 $
53144K9L2 9L220160402141510204/02/16 14:15:31  5-MIN K9L2 022215Z AUTO VRB04KT 10SM CLR 27/M04 A3010 2140 12 4000 VRB/04 RMK AO2 $
53144K9L2 9L220160402142010204/02/16 14:20:31  5-MIN K9L2 022220Z AUTO 14007KT 10SM CLR 27/M04 A3009 2140 13 4000 130/07 RMK AO2 $
53144K9L2 9L220160402142510204/02/16 14:25:31  5-MIN K9L2 022225Z AUTO 14005KT 10SM CLR 27/M04 A3009 2140 12 4100 120/05 RMK AO2 $
53144K9L2 9L220160402143010204/02/16 14:30:31  5-MIN K9L2 022230Z AUTO 15008KT 10SM CLR 27/M04 A3009 2150 12 4000 140/08 RMK AO2 $
53144K9L2 9L220160402143510204/02/16 14:35:31  5-MIN K9L2 022235Z AUTO 18006KT 10SM CLR 27/M04 A3009 2150 12 4000 160/06 RMK AO2 $
53144K9L2 9L220160402144010204/02/16 14:40:31  5-MIN K9L2 022240Z AUTO 17005KT 10SM CLR 27/M04 A3009 2150 12 4100 150/05 RMK AO2 $
53144K9L2 9L220160402144510204/02/16 14:45:31  5-MIN K9L2 022245Z AUTO 17008KT 10SM CLR 27/M04 A3008 2150 12 4100 160/08 RMK AO2 $
53144K9L2 9L220160402145010204/02/16 14:50:31  5-MIN K9L2 022250Z AUTO 17006KT 10SM CLR 27/M04 A3008 2150 12 4100 160/06 RMK AO2 $
53144K9L2 9L220160402145511904/02/16 14:55:31  5-MIN K9L2 022255Z AUTO 32003KT 10SM CLR 27/M04 A3008 2150 12 4000 310/03 RMK AO2 SLP180 T02671044 $
53144K9L2 9L220160402150010204/02/16 15:00:31  5-MIN K9L2 022300Z AUTO 35003KT 10SM CLR 27/M04 A3008 2160 12 4100 330/03 RMK AO2 $
53144K9L2 9L220160402150510204/02/16 15:05:31  5-MIN K9L2 022305Z AUTO VRB05KT 10SM CLR 28/M04 A3007 2160 11 4100 VRB/05 RMK AO2 $
53144K9L2 9L220160402151010204/02/16 15:10:31  5-MIN K9L2 022310Z AUTO 11005KT 10SM CLR 27/M04 A3007 2160 12 4100 100/05 RMK AO2 $
53144K9L2 9L220160402151510204/02/16 15:15:31  5-MIN K9L2 022315Z AUTO 14003KT 10SM CLR 27/M04 A3007 2160 12 4100 130/03 RMK AO2 $
53144K9L2 9L220160402152010204/02/16 15:20:31  5-MIN K9L2 022320Z AUTO 17007KT 10SM CLR 27/M04 A3007 2170 12 4000 150/07 RMK AO2 $
53144K9L2 9L220160402152510204/02/16 15:25:31  5-MIN K9L2 022325Z AUTO 17005KT 10SM CLR 27/M04 A3007 2170 12 4000 150/05 RMK AO2 $
53144K9L2 9L220160402153010204/02/16 15:30:31  5-MIN K9L2 022330Z AUTO 23010KT 10SM CLR 28/M04 A3007 2170 11 4200 220/10 RMK AO2 $
53144K9L2 9L220160402153510204/02/16 15:35:31  5-MIN K9L2 022335Z AUTO 24009KT 10SM CLR 27/M04 A3007 2170 12 4100 230/09 RMK AO2 $
53144K9L2 9L220160402154010204/02/16 15:40:31  5-MIN K9L2 022340Z AUTO 21006KT 10SM CLR 27/M04 A3007 2170 12 4000 190/06 RMK AO2 $
53144K9L2 9L220160402154510804/02/16 15:45:31  5-MIN K9L2 022345Z AUTO 21011G15KT 10SM CLR 28/M04 A3006 2170 11 4200 190/11G15 RMK AO2 $
53144K9L2 9L220160402155010804/02/16 15:50:31  5-MIN K9L2 022350Z AUTO 21006G15KT 10SM CLR 27/M04 A3007 2170 12 4100 200/06G15 RMK AO2 $
53144K9L2 9L220160402155513704/02/16 15:55:31  5-MIN K9L2 022355Z AUTO VRB04KT 10SM CLR 27/M04 A3006 2170 12 4000 VRB/04 RMK AO2 SLP175 T02671044 10278 20200 58022 $
53144K9L2 9L220160402160010204/02/16 16:00:31  5-MIN K9L2 030000Z AUTO 00000KT 10SM CLR 27/M04 A3006 2170 12 4000 000/00 RMK AO2 $
53144K9L2 9L220160402160510204/02/16 16:05:31  5-MIN K9L2 030005Z AUTO 24008KT 10SM CLR 27/M05 A3006 2170 11 4100 230/08 RMK AO2 $
53144K9L2 9L220160402161010204/02/16 16:10:31  5-MIN K9L2 030010Z AUTO 23006KT 10SM CLR 27/M05 A3006 2170 12 4000 210/06 RMK AO2 $
53144K9L2 9L220160402161510204/02/16 16:15:31  5-MIN K9L2 030015Z AUTO 23004KT 10SM CLR 27/M05 A3006 2170 12 4000 220/04 RMK AO2 $
53144K9L2 9L220160402162010204/02/16 16:20:31  5-MIN K9L2 030020Z AUTO 27006KT 10SM CLR 27/M05 A3006 2180 11 4100 250/06 RMK AO2 $
53144K9L2 9L220160402162510204/02/16 16:25:31  5-MIN K9L2 030025Z AUTO 00000KT 10SM CLR 27/M05 A3006 2180 12 4000 000/00 RMK AO2 $
53144K9L2 9L220160402163010204/02/16 16:30:31  5-MIN K9L2 030030Z AUTO 00000KT 10SM CLR 27/M05 A3006 2180 12 4000 000/00 RMK AO2 $
53144K9L2 9L220160402163510204/02/16 16:35:31  5-MIN K9L2 030035Z AUTO 20005KT 10SM CLR 27/M05 A3005 2180 12 4000 180/05 RMK AO2 $
53144K9L2 9L220160402164010204/02/16 16:40:31  5-MIN K9L2 030040Z AUTO 26004KT 10SM CLR 27/M05 A3005 2180 12 4000 240/04 RMK AO2 $
53144K9L2 9L220160402164510204/02/16 16:45:31  5-MIN K9L2 030045Z AUTO 28005KT 10SM CLR 27/M05 A3005 2180 12 4000 270/05 RMK AO2 $
53144K9L2 9L220160402165010204/02/16 16:50:31  5-MIN K9L2 030050Z AUTO 00000KT 10SM CLR 27/M05 A3005 2180 12 4100 000/00 RMK AO2 $
53144K9L2 9L220160402165511904/02/16 16:55:31  5-MIN K9L2 030055Z AUTO VRB04KT 10SM CLR 27/M05 A3005 2180 11 4100 VRB/04 RMK AO2 SLP170 T02721050 $
53144K9L2 9L220160402170010204/02/16 17:00:31  5-MIN K9L2 030100Z AUTO 24008KT 10SM CLR 27/M04 A3005 2180 12 4100 230/08 RMK AO2 $
53144K9L2 9L220160402170510204/02/16 17:05:31  5-MIN K9L2 030105Z AUTO 23006KT 10SM CLR 27/M04 A3005 2180 12 4100 210/06 RMK AO2 $
53144K9L2 9L220160402171010804/02/16 17:10:31  5-MIN K9L2 030110Z AUTO 23011G15KT 10SM CLR 27/M04 A3005 2180 13 4100 220/11G15 RMK AO2 $
53144K9L2 9L220160402171510804/02/16 17:15:31  5-MIN K9L2 030115Z AUTO 22010G15KT 10SM CLR 26/M03 A3005 2180 14 4000 210/10G15 RMK AO2 $
53144K9L2 9L220160402172010804/02/16 17:20:31  5-MIN K9L2 030120Z AUTO 24012G17KT 10SM CLR 26/M02 A3005 2180 15 4000 230/12G17 RMK AO2 $
53144K9L2 9L220160402172510804/02/16 17:25:31  5-MIN K9L2 030125Z AUTO 24013G17KT 10SM CLR 26/M02 A3005 2180 16 4000 230/13G17 RMK AO2 $
53144K9L2 9L220160402173010204/02/16 17:30:31  5-MIN K9L2 030130Z AUTO 23011KT 10SM CLR 26/M02 A3005 2180 16 3900 220/11 RMK AO2 $
53144K9L2 9L220160402173510804/02/16 17:35:31  5-MIN K9L2 030135Z AUTO 23014G19KT 10SM CLR 26/M01 A3005 2180 17 3900 220/14G19 RMK AO2 $
53144K9L2 9L220160402174010204/02/16 17:40:31  5-MIN K9L2 030140Z AUTO 23015KT 10SM CLR 25/M01 A3005 2180 18 3900 210/15 RMK AO2 $
53144K9L2 9L220160402174510204/02/16 17:45:31  5-MIN K9L2 030145Z AUTO 24015KT 10SM CLR 25/M01 A3005 2180 18 3900 230/15 RMK AO2 $
53144K9L2 9L220160402175010104/02/16 17:50:31  5-MIN K9L2 030150Z AUTO 24016KT 10SM CLR 24/00 A3005 2180 19 3800 220/16 RMK AO2 $
53144K9L2 9L220160402175512404/02/16 17:55:31  5-MIN K9L2 030155Z AUTO 24012G20KT 10SM CLR 24/01 A3006 2180 20 3800 230/12G20 RMK AO2 SLP173 T02440006 $
53144K9L2 9L220160402180010104/02/16 18:00:31  5-MIN K9L2 030200Z AUTO 24014KT 10SM CLR 24/01 A3006 2180 21 3700 230/14 RMK AO2 $
53144K9L2 9L220160402180510104/02/16 18:05:31  5-MIN K9L2 030205Z AUTO 24014KT 10SM CLR 24/01 A3006 2180 22 3700 220/14 RMK AO2 $
53144K9L2 9L220160402181010104/02/16 18:10:31  5-MIN K9L2 030210Z AUTO 24013KT 10SM CLR 23/01 A3006 2170 23 3700 230/13 RMK AO2 $
53144K9L2 9L220160402181510104/02/16 18:15:31  5-MIN K9L2 030215Z AUTO 24014KT 10SM CLR 23/01 A3006 2170 23 3700 230/14 RMK AO2 $
53144K9L2 9L220160402182010104/02/16 18:20:31  5-MIN K9L2 030220Z AUTO 24012KT 10SM CLR 23/01 A3006 2170 22 3600 230/12 RMK AO2 $
53144K9L2 9L220160402182510104/02/16 18:25:31  5-MIN K9L2 030225Z AUTO 24012KT 10SM CLR 23/01 A3006 2170 22 3600 230/12 RMK AO2 $
53144K9L2 9L220160402183010104/02/16 18:30:31  5-MIN K9L2 030230Z AUTO 24011KT 10SM CLR 23/01 A3006 2170 22 3600 230/11 RMK AO2 $
53144K9L2 9L220160402183510104/02/16 18:35:31  5-MIN K9L2 030235Z AUTO 24012KT 10SM CLR 22/01 A3006 2170 24 3500 220/12 RMK AO2 $
53144K9L2 9L220160402184010104/02/16 18:40:31  5-MIN K9L2 030240Z AUTO 24010KT 10SM CLR 22/01 A3007 2170 24 3500 230/10 RMK AO2 $
53144K9L2 9L220160402184510104/02/16 18:45:31  5-MIN K9L2 030245Z AUTO 24011KT 10SM CLR 22/01 A3007 2170 24 3500 230/11 RMK AO2 $
53144K9L2 9L220160402185010104/02/16 18:50:31  5-MIN K9L2 030250Z AUTO 23012KT 10SM CLR 22/01 A3007 2170 25 3500 220/12 RMK AO2 $
53144K9L2 9L220160402185512404/02/16 18:55:31  5-MIN K9L2 030255Z AUTO 24011KT 10SM CLR 22/01 A3007 2170 25 3500 220/11 RMK AO2 SLP177 T02170011 56022 $
53144K9L2 9L220160402190010104/02/16 19:00:31  5-MIN K9L2 030300Z AUTO 24010KT 10SM CLR 21/01 A3007 2170 26 3400 230/10 RMK AO2 $
53144K9L2 9L220160402190510104/02/16 19:05:31  5-MIN K9L2 030305Z AUTO 24011KT 10SM CLR 21/01 A3007 2170 26 3400 230/11 RMK AO2 $
53144K9L2 9L220160402191010104/02/16 19:10:31  5-MIN K9L2 030310Z AUTO 24012KT 10SM CLR 21/01 A3007 2170 25 3400 230/12 RMK AO2 $
53144K9L2 9L220160402191510104/02/16 19:15:31  5-MIN K9L2 030315Z AUTO 24013KT 10SM CLR 21/00 A3007 2170 24 3400 230/13 RMK AO2 $
53144K9L2 9L220160402192010104/02/16 19:20:31  5-MIN K9L2 030320Z AUTO 25013KT 10SM CLR 21/00 A3007 2160 24 3400 230/13 RMK AO2 $
53144K9L2 9L220160402192510204/02/16 19:25:31  5-MIN K9L2 030325Z AUTO 25012KT 10SM CLR 21/M01 A3007 2160 23 3400 230/12 RMK AO2 $
53144K9L2 9L220160402193010204/02/16 19:30:31  5-MIN K9L2 030330Z AUTO 25011KT 10SM CLR 21/M01 A3008 2160 24 3300 230/11 RMK AO2 $
53144K9L2 9L220160402193510204/02/16 19:35:31  5-MIN K9L2 030335Z AUTO 24011KT 10SM CLR 21/M01 A3008 2160 24 3300 230/11 RMK AO2 $
53144K9L2 9L220160402194010204/02/16 19:40:31  5-MIN K9L2 030340Z AUTO 24010KT 10SM CLR 21/M01 A3008 2150 24 3300 230/10 RMK AO2 $
53144K9L2 9L220160402194510204/02/16 19:45:31  5-MIN K9L2 030345Z AUTO 24010KT 10SM CLR 21/M01 A3008 2150 23 3300 230/10 RMK AO2 $
53144K9L2 9L220160402195010204/02/16 19:50:31  5-MIN K9L2 030350Z AUTO 24010KT 10SM CLR 21/M01 A3008 2150 23 3300 230/10 RMK AO2 $
53144K9L2 9L220160402195511904/02/16 19:55:31  5-MIN K9L2 030355Z AUTO 24010KT 10SM CLR 20/M01 A3009 2150 24 3300 220/10 RMK AO2 SLP182 T02001011 $
53144K9L2 9L220160402200010204/02/16 20:00:31  5-MIN K9L2 030400Z AUTO 24010KT 10SM CLR 20/M01 A3009 2150 24 3300 220/10 RMK AO2 $
53144K9L2 9L220160402200510204/02/16 20:05:31  5-MIN K9L2 030405Z AUTO 23010KT 10SM CLR 20/M02 A3009 2150 23 3300 220/10 RMK AO2 $
53144K9L2 9L220160402201010204/02/16 20:10:31  5-MIN K9L2 030410Z AUTO 24010KT 10SM CLR 20/M02 A3009 2150 23 3300 220/10 RMK AO2 $
53144K9L2 9L220160402201510204/02/16 20:15:31  5-MIN K9L2 030415Z AUTO 24010KT 10SM CLR 20/M02 A3009 2140 22 3300 230/10 RMK AO2 $
53144K9L2 9L220160402202010204/02/16 20:20:31  5-MIN K9L2 030420Z AUTO 24011KT 10SM CLR 20/M02 A3009 2140 22 3300 230/11 RMK AO2 $
53144K9L2 9L220160402202510204/02/16 20:25:31  5-MIN K9L2 030425Z AUTO 24009KT 10SM CLR 20/M02 A3009 2140 22 3300 220/09 RMK AO2 $
53144K9L2 9L220160402203010204/02/16 20:30:31  5-MIN K9L2 030430Z AUTO 23009KT 10SM CLR 19/M02 A3010 2140 23 3200 220/09 RMK AO2 $
53144K9L2 9L220160402203510204/02/16 20:35:31  5-MIN K9L2 030435Z AUTO 23008KT 10SM CLR 19/M02 A3010 2140 23 3200 220/08 RMK AO2 $
53144K9L2 9L220160402204010204/02/16 20:40:31  5-MIN K9L2 030440Z AUTO 23007KT 10SM CLR 19/M02 A3010 2140 23 3200 210/07 RMK AO2 $
53144K9L2 9L220160402204510204/02/16 20:45:31  5-MIN K9L2 030445Z AUTO 23007KT 10SM CLR 19/M02 A3010 2140 23 3100 210/07 RMK AO2 $
53144K9L2 9L220160402205010204/02/16 20:50:31  5-MIN K9L2 030450Z AUTO 23007KT 10SM CLR 19/M02 A3010 2140 23 3100 220/07 RMK AO2 $
53144K9L2 9L220160402205511904/02/16 20:55:31  5-MIN K9L2 030455Z AUTO 23006KT 10SM CLR 18/M02 A3010 2140 24 3100 210/06 RMK AO2 SLP185 T01831022 $
53144K9L2 9L220160402210010204/02/16 21:00:31  5-MIN K9L2 030500Z AUTO 22005KT 10SM CLR 18/M02 A3010 2130 24 3100 210/05 RMK AO2 $
53144K9L2 9L220160402210510204/02/16 21:05:31  5-MIN K9L2 030505Z AUTO 20005KT 10SM CLR 18/M02 A3010 2130 24 3100 180/05 RMK AO2 $
53144K9L2 9L220160402211010204/02/16 21:10:31  5-MIN K9L2 030510Z AUTO 19006KT 10SM CLR 18/M02 A3010 2130 25 3000 180/06 RMK AO2 $
53144K9L2 9L220160402211510204/02/16 21:15:31  5-MIN K9L2 030515Z AUTO 19005KT 10SM CLR 18/M02 A3010 2130 25 3000 180/05 RMK AO2 $
53144K9L2 9L220160402212010204/02/16 21:20:31  5-MIN K9L2 030520Z AUTO 20006KT 10SM CLR 17/M02 A3010 2130 26 2900 180/06 RMK AO2 $
53144K9L2 9L220160402212510204/02/16 21:25:31  5-MIN K9L2 030525Z AUTO 19006KT 10SM CLR 17/M02 A3010 2130 27 2900 180/06 RMK AO2 $
53144K9L2 9L220160402213010204/02/16 21:30:31  5-MIN K9L2 030530Z AUTO 19005KT 10SM CLR 17/M02 A3010 2130 27 2900 180/05 RMK AO2 $
53144K9L2 9L220160402213510204/02/16 21:35:31  5-MIN K9L2 030535Z AUTO 19006KT 10SM CLR 17/M01 A3011 2130 29 2900 170/06 RMK AO2 $
53144K9L2 9L220160402214010204/02/16 21:40:31  5-MIN K9L2 030540Z AUTO 18005KT 10SM CLR 17/M01 A3011 2130 29 2900 170/05 RMK AO2 $
53144K9L2 9L220160402214510204/02/16 21:45:31  5-MIN K9L2 030545Z AUTO 18005KT 10SM CLR 17/M01 A3011 2130 29 2900 170/05 RMK AO2 $
53144K9L2 9L220160402215010204/02/16 21:50:31  5-MIN K9L2 030550Z AUTO 20003KT 10SM CLR 17/M01 A3011 2130 29 2900 180/03 RMK AO2 $
53144K9L2 9L220160402215513704/02/16 21:55:31  5-MIN K9L2 030555Z AUTO 20004KT 10SM CLR 17/M01 A3011 2130 29 2900 190/04 RMK AO2 SLP186 T01721006 10272 20167 53002 $
53144K9L2 9L220160402220010204/02/16 22:00:31  5-MIN K9L2 030600Z AUTO 20005KT 10SM CLR 16/M01 A3011 2130 32 2800 190/05 RMK AO2 $
53144K9L2 9L220160402220510204/02/16 22:05:31  5-MIN K9L2 030605Z AUTO 21005KT 10SM CLR 16/M01 A3011 2130 32 2800 200/05 RMK AO2 $
53144K9L2 9L220160402221010104/02/16 22:10:31  5-MIN K9L2 030610Z AUTO 23006KT 10SM CLR 17/00 A3011 2130 32 2900 220/06 RMK AO2 $
53144K9L2 9L220160402221510104/02/16 22:15:31  5-MIN K9L2 030615Z AUTO 24005KT 10SM CLR 16/00 A3011 2130 33 2800 230/05 RMK AO2 $
53144K9L2 9L220160402222010104/02/16 22:20:31  5-MIN K9L2 030620Z AUTO 25005KT 10SM CLR 16/01 A3011 2130 36 2800 240/05 RMK AO2 $
53144K9L2 9L220160402222510104/02/16 22:25:31  5-MIN K9L2 030625Z AUTO 26004KT 10SM CLR 16/01 A3011 2130 36 2700 250/04 RMK AO2 $
53144K9L2 9L220160402223010104/02/16 22:30:31  5-MIN K9L2 030630Z AUTO 25003KT 10SM CLR 16/01 A3011 2130 36 2700 240/03 RMK AO2 $
53144K9L2 9L220160402223510104/02/16 22:35:31  5-MIN K9L2 030635Z AUTO 23004KT 10SM CLR 16/01 A3011 2130 36 2800 220/04 RMK AO2 $
53144K9L2 9L220160402224010104/02/16 22:40:31  5-MIN K9L2 030640Z AUTO 21003KT 10SM CLR 16/01 A3011 2130 36 2800 190/03 RMK AO2 $
53144K9L2 9L220160402224510104/02/16 22:45:31  5-MIN K9L2 030645Z AUTO 00000KT 10SM CLR 15/01 A3011 2130 38 2700 000/00 RMK AO2 $
53144K9L2 9L220160402225010104/02/16 22:50:31  5-MIN K9L2 030650Z AUTO 00000KT 10SM CLR 14/00 A3011 2130 37 2600 000/00 RMK AO2 $
53144K9L2 9L220160402225511804/02/16 22:55:31  5-MIN K9L2 030655Z AUTO 16003KT 10SM CLR 15/00 A3011 2130 35 2700 140/03 RMK AO2 SLP186 T01500000 $
53144K9L2 9L220160402230010104/02/16 23:00:31  5-MIN K9L2 030700Z AUTO 18004KT 10SM CLR 15/00 A3011 2130 35 2700 170/04 RMK AO2 $
53144K9L2 9L220160402230510104/02/16 23:05:31  5-MIN K9L2 030705Z AUTO 20004KT 10SM CLR 15/00 A3010 2130 35 2700 190/04 RMK AO2 $
53144K9L2 9L220160402231010104/02/16 23:10:31  5-MIN K9L2 030710Z AUTO 20004KT 10SM CLR 15/00 A3010 2130 35 2700 190/04 RMK AO2 $
53144K9L2 9L220160402231510104/02/16 23:15:31  5-MIN K9L2 030715Z AUTO 19005KT 10SM CLR 15/01 A3010 2130 37 2700 180/05 RMK AO2 $
53144K9L2 9L220160402232010104/02/16 23:20:31  5-MIN K9L2 030720Z AUTO 19005KT 10SM CLR 14/01 A3010 2130 38 2600 180/05 RMK AO2 $
53144K9L2 9L220160402232510104/02/16 23:25:31  5-MIN K9L2 030725Z AUTO 19004KT 10SM CLR 14/00 A3010 2130 37 2600 180/04 RMK AO2 $
53144K9L2 9L220160402233010104/02/16 23:30:31  5-MIN K9L2 030730Z AUTO 00000KT 10SM CLR 14/00 A3011 2130 37 2600 000/00 RMK AO2 $
53144K9L2 9L220160402233510104/02/16 23:35:31  5-MIN K9L2 030735Z AUTO 00000KT 10SM CLR 14/00 A3011 2130 38 2500 000/00 RMK AO2 $
53144K9L2 9L220160402234010104/02/16 23:40:31  5-MIN K9L2 030740Z AUTO 20004KT 10SM CLR 15/00 A3011 2130 35 2700 190/04 RMK AO2 $
53144K9L2 9L220160402234510104/02/16 23:45:31  5-MIN K9L2 030745Z AUTO 21005KT 10SM CLR 14/00 A3010 2130 37 2600 190/05 RMK AO2 $
53144K9L2 9L220160402235010104/02/16 23:50:31  5-MIN K9L2 030750Z AUTO 20005KT 10SM CLR 14/00 A3010 2130 37 2600 190/05 RMK AO2 $
53144K9L2 9L220160402235512804/02/16 23:55:31  5-MIN K9L2 030755Z AUTO 19005KT 10SM CLR 14/00 A3010 2130 37 2600 180/05 RMK AO2 SLP183 T01440000 402780039 $
53144K9L2 9L220160403000010104/03/16 00:00:31  5-MIN K9L2 030800Z AUTO 18005KT 10SM CLR 14/00 A3010 2130 37 2600 170/05 RMK AO2 $
53144K9L2 9L220160403000510104/03/16 00:05:31  5-MIN K9L2 030805Z AUTO 17005KT 10SM CLR 14/00 A3010 2130 38 2500 150/05 RMK AO2 $
53144K9L2 9L220160403001010204/03/16 00:10:31  5-MIN K9L2 030810Z AUTO 18005KT 10SM CLR 13/M01 A3010 2140 38 2500 160/05 RMK AO2 $
53144K9L2 9L220160403001510204/03/16 00:15:31  5-MIN K9L2 030815Z AUTO 18004KT 10SM CLR 13/M01 A3010 2140 38 2500 170/04 RMK AO2 $
53144K9L2 9L220160403002010204/03/16 00:20:31  5-MIN K9L2 030820Z AUTO 19006KT 10SM CLR 13/M01 A3010 2140 38 2500 180/06 RMK AO2 $
53144K9L2 9L220160403002510104/03/16 00:25:31  5-MIN K9L2 030825Z AUTO 19006KT 10SM CLR 13/00 A3010 2140 40 2500 180/06 RMK AO2 $
53144K9L2 9L220160403003010104/03/16 00:30:31  5-MIN K9L2 030830Z AUTO 19005KT 10SM CLR 13/00 A3010 2140 40 2500 180/05 RMK AO2 $
53144K9L2 9L220160403003510104/03/16 00:35:31  5-MIN K9L2 030835Z AUTO 19006KT 10SM CLR 13/00 A3010 2140 40 2500 180/06 RMK AO2 $
53144K9L2 9L220160403004010104/03/16 00:40:31  5-MIN K9L2 030840Z AUTO 20005KT 10SM CLR 13/00 A3010 2140 41 2400 180/05 RMK AO2 $
53144K9L2 9L220160403004510104/03/16 00:45:31  5-MIN K9L2 030845Z AUTO 19004KT 10SM CLR 13/00 A3010 2140 41 2400 180/04 RMK AO2 $
53144K9L2 9L220160403005010104/03/16 00:50:31  5-MIN K9L2 030850Z AUTO 21003KT 10SM CLR 13/00 A3010 2140 41 2400 200/03 RMK AO2 $
53144K9L2 9L220160403005512404/03/16 00:55:31  5-MIN K9L2 030855Z AUTO 20003KT 10SM CLR 12/00 A3010 2140 43 2400 180/03 RMK AO2 SLP181 T01220000 51013 $
53144K9L2 9L220160403010010104/03/16 01:00:31  5-MIN K9L2 030900Z AUTO 00000KT 10SM CLR 13/00 A3010 2140 41 2400 000/00 RMK AO2 $
53144K9L2 9L220160403010510104/03/16 01:05:31  5-MIN K9L2 030905Z AUTO 00000KT 10SM CLR 12/00 A3009 2140 43 2400 000/00 RMK AO2 $
53144K9L2 9L220160403011010204/03/16 01:10:31  5-MIN K9L2 030910Z AUTO 00000KT 10SM CLR 11/M01 A3009 2140 44 2200 000/00 RMK AO2 $
53144K9L2 9L220160403011510204/03/16 01:15:31  5-MIN K9L2 030915Z AUTO 00000KT 10SM CLR 11/M01 A3009 2150 44 2200 000/00 RMK AO2 $
53144K9L2 9L220160403012010204/03/16 01:20:31  5-MIN K9L2 030920Z AUTO 00000KT 10SM CLR 11/M01 A3009 2150 42 2200 000/00 RMK AO2 $
53144K9L2 9L220160403012510204/03/16 01:25:31  5-MIN K9L2 030925Z AUTO 00000KT 10SM CLR 11/M01 A3009 2150 44 2200 000/00 RMK AO2 $
53144K9L2 9L220160403013010204/03/16 01:30:31  5-MIN K9L2 030930Z AUTO 00000KT 10SM CLR 11/M01 A3009 2150 44 2200 000/00 RMK AO2 $
53144K9L2 9L220160403013510204/03/16 01:35:31  5-MIN K9L2 030935Z AUTO 00000KT 10SM CLR 11/M01 A3009 2150 44 2200 000/00 RMK AO2 $
53144K9L2 9L220160403014010204/03/16 01:40:31  5-MIN K9L2 030940Z AUTO 00000KT 10SM CLR 10/M02 A3009 2150 44 2100 000/00 RMK AO2 $
53144K9L2 9L220160403014510204/03/16 01:45:31  5-MIN K9L2 030945Z AUTO 00000KT 10SM CLR 10/M02 A3009 2150 44 2100 000/00 RMK AO2 $
53144K9L2 9L220160403015010204/03/16 01:50:31  5-MIN K9L2 030950Z AUTO 00000KT 10SM CLR 10/M02 A3009 2150 44 2100 000/00 RMK AO2 $
53144K9L2 9L220160403015511904/03/16 01:55:31  5-MIN K9L2 030955Z AUTO 00000KT 10SM CLR 10/M02 A3009 2150 44 2100 000/00 RMK AO2 SLP179 T01001017 $
53144K9L2 9L220160403020010204/03/16 02:00:31  5-MIN K9L2 031000Z AUTO 00000KT 10SM CLR 09/M02 A3009 2150 45 2000 000/00 RMK AO2 $
53144K9L2 9L220160403020510204/03/16 02:05:31  5-MIN K9L2 031005Z AUTO 00000KT 10SM CLR 10/M01 A3009 2150 46 2100 000/00 RMK AO2 $
53144K9L2 9L220160403021010204/03/16 02:10:31  5-MIN K9L2 031010Z AUTO 00000KT 10SM CLR 10/M01 A3009 2150 46 2100 000/00 RMK AO2 $
53144K9L2 9L220160403021510204/03/16 02:15:31  5-MIN K9L2 031015Z AUTO 16003KT 10SM CLR 10/M01 A3009 2150 46 2100 140/03 RMK AO2 $
53144K9L2 9L220160403022010204/03/16 02:20:31  5-MIN K9L2 031020Z AUTO 16004KT 10SM CLR 11/M01 A3009 2150 46 2200 150/04 RMK AO2 $
53144K9L2 9L220160403022510204/03/16 02:25:31  5-MIN K9L2 031025Z AUTO 16004KT 10SM CLR 11/M01 A3008 2150 46 2200 150/04 RMK AO2 $
53144K9L2 9L220160403023010204/03/16 02:30:31  5-MIN K9L2 031030Z AUTO 16004KT 10SM CLR 11/M01 A3008 2150 44 2200 150/04 RMK AO2 $
53144K9L2 9L220160403023510204/03/16 02:35:31  5-MIN K9L2 031035Z AUTO 17003KT 10SM CLR 10/M01 A3008 2150 47 2100 150/03 RMK AO2 $
53144K9L2 9L220160403024010204/03/16 02:40:31  5-MIN K9L2 031040Z AUTO 00000KT 10SM CLR 10/M01 A3008 2150 46 2100 000/00 RMK AO2 $
53144K9L2 9L220160403024510204/03/16 02:45:31  5-MIN K9L2 031045Z AUTO 00000KT 10SM CLR 09/M02 A3008 2150 45 2000 000/00 RMK AO2 $
53144K9L2 9L220160403025010204/03/16 02:50:31  5-MIN K9L2 031050Z AUTO 00000KT 10SM CLR 09/M01 A3008 2150 47 2000 000/00 RMK AO2 $
53144K9L2 9L220160403025511904/03/16 02:55:31  5-MIN K9L2 031055Z AUTO 00000KT 10SM CLR 09/M01 A3008 2150 47 2000 000/00 RMK AO2 SLP178 T00941011 $
53144K9L2 9L220160403030010204/03/16 03:00:31  5-MIN K9L2 031100Z AUTO 00000KT 10SM CLR 08/M02 A3008 2150 49 1900 000/00 RMK AO2 $
53144K9L2 9L220160403030510204/03/16 03:05:31  5-MIN K9L2 031105Z AUTO 00000KT 10SM CLR 08/M02 A3008 2150 51 1800 000/00 RMK AO2 $
53144K9L2 9L220160403031010204/03/16 03:10:31  5-MIN K9L2 031110Z AUTO 00000KT 10SM CLR 08/M02 A3008 2150 51 1800 000/00 RMK AO2 $
53144K9L2 9L220160403031510204/03/16 03:15:31  5-MIN K9L2 031115Z AUTO 00000KT 10SM CLR 08/M02 A3008 2150 49 1800 000/00 RMK AO2 $
53144K9L2 9L220160403032010204/03/16 03:20:31  5-MIN K9L2 031120Z AUTO 00000KT 10SM CLR 08/M02 A3008 2150 47 1900 000/00 RMK AO2 $
53144K9L2 9L220160403032510204/03/16 03:25:31  5-MIN K9L2 031125Z AUTO 00000KT 10SM CLR 08/M02 A3008 2150 49 1800 000/00 RMK AO2 $
53144K9L2 9L220160403033010204/03/16 03:30:31  5-MIN K9L2 031130Z AUTO 00000KT 10SM CLR 07/M02 A3008 2150 51 1800 000/00 RMK AO2 $
53144K9L2 9L220160403033510204/03/16 03:35:31  5-MIN K9L2 031135Z AUTO 01003KT 10SM CLR 07/M02 A3008 2150 51 1800 350/03 RMK AO2 $
53144K9L2 9L220160403034010204/03/16 03:40:31  5-MIN K9L2 031140Z AUTO 01003KT 10SM CLR 07/M02 A3008 2150 51 1800 350/03 RMK AO2 $
53144K9L2 9L220160403034510204/03/16 03:45:31  5-MIN K9L2 031145Z AUTO 01004KT 10SM CLR 07/M02 A3008 2150 51 1800 360/04 RMK AO2 $
53144K9L2 9L220160403035010204/03/16 03:50:31  5-MIN K9L2 031150Z AUTO 01004KT 10SM CLR 07/M02 A3009 2150 51 1800 360/04 RMK AO2 $
53144K9L2 9L220160403035513704/03/16 03:55:31  5-MIN K9L2 031155Z AUTO 01004KT 10SM CLR 07/M02 A3009 2150 51 1800 360/04 RMK AO2 SLP181 T00721022 10167 20072 58004 $
53144K9L2 9L220160403040010204/03/16 04:00:31  5-MIN K9L2 031200Z AUTO 01006KT 10SM CLR 07/M02 A3009 2150 51 1800 360/06 RMK AO2 $
53144K9L2 9L220160403040510204/03/16 04:05:31  5-MIN K9L2 031205Z AUTO 01005KT 10SM CLR 07/M02 A3009 2150 51 1800 360/05 RMK AO2 $
53144K9L2 9L220160403041010204/03/16 04:10:31  5-MIN K9L2 031210Z AUTO 01005KT 10SM CLR 07/M02 A3009 2150 51 1800 360/05 RMK AO2 $
53144K9L2 9L220160403041510204/03/16 04:15:31  5-MIN K9L2 031215Z AUTO 01005KT 10SM CLR 07/M02 A3009 2150 53 1700 350/05 RMK AO2 $
53144K9L2 9L220160403042010204/03/16 04:20:31  5-MIN K9L2 031220Z AUTO 36005KT 10SM CLR 07/M02 A3009 2150 53 1700 350/05 RMK AO2 $
53144K9L2 9L220160403042510204/03/16 04:25:31  5-MIN K9L2 031225Z AUTO 36005KT 10SM CLR 07/M02 A3009 2150 53 1700 340/05 RMK AO2 $
53144K9L2 9L220160403043010204/03/16 04:30:31  5-MIN K9L2 031230Z AUTO 35005KT 10SM CLR 07/M02 A3009 2150 53 1700 340/05 RMK AO2 $
53144K9L2 9L220160403043510204/03/16 04:35:31  5-MIN K9L2 031235Z AUTO 35004KT 10SM CLR 07/M02 A3009 2150 53 1700 330/04 RMK AO2 $
53144K9L2 9L220160403044010204/03/16 04:40:31  5-MIN K9L2 031240Z AUTO 36003KT 10SM CLR 07/M02 A3009 2150 53 1700 340/03 RMK AO2 $
53144K9L2 9L220160403044510204/03/16 04:45:31  5-MIN K9L2 031245Z AUTO 00000KT 10SM CLR 07/M02 A3009 2150 53 1700 000/00 RMK AO2 $
53144K9L2 9L220160403045010204/03/16 04:50:31  5-MIN K9L2 031250Z AUTO 34003KT 10SM CLR 07/M02 A3009 2150 53 1700 330/03 RMK AO2 $
53144K9L2 9L220160403045511904/03/16 04:55:31  5-MIN K9L2 031255Z AUTO 00000KT 10SM CLR 06/M02 A3009 2150 55 1600 000/00 RMK AO2 SLP183 T00611022 $
53144K9L2 9L220160403050010204/03/16 05:00:31  5-MIN K9L2 031300Z AUTO 00000KT 10SM CLR 07/M02 A3009 2140 53 1700 000/00 RMK AO2 $
53144K9L2 9L220160403050510204/03/16 05:05:31  5-MIN K9L2 031305Z AUTO 00000KT 10SM CLR 07/M02 A3009 2140 53 1700 000/00 RMK AO2 $
53144K9L2 9L220160403051010204/03/16 05:10:31  5-MIN K9L2 031310Z AUTO 00000KT 10SM CLR 07/M02 A3009 2140 53 1700 000/00 RMK AO2 $
53144K9L2 9L220160403051510204/03/16 05:15:31  5-MIN K9L2 031315Z AUTO 00000KT 10SM CLR 07/M02 A3009 2140 53 1700 000/00 RMK AO2 $
53144K9L2 9L220160403052010204/03/16 05:20:31  5-MIN K9L2 031320Z AUTO 36003KT 10SM CLR 07/M02 A3009 2140 53 1700 340/03 RMK AO2 $
53144K9L2 9L220160403052510204/03/16 05:25:31  5-MIN K9L2 031325Z AUTO 36003KT 10SM CLR 07/M02 A3009 2140 53 1700 350/03 RMK AO2 $
53144K9L2 9L220160403053010204/03/16 05:30:31  5-MIN K9L2 031330Z AUTO 35003KT 10SM CLR 06/M02 A3010 2140 55 1600 340/03 RMK AO2 $
53144K9L2 9L220160403053510204/03/16 05:35:31  5-MIN K9L2 031335Z AUTO 35003KT 10SM CLR 06/M02 A3010 2140 55 1600 330/03 RMK AO2 $
53144K9L2 9L220160403054010204/03/16 05:40:31  5-MIN K9L2 031340Z AUTO 36003KT 10SM CLR 06/M02 A3010 2140 55 1600 350/03 RMK AO2 $
53144K9L2 9L220160403054510204/03/16 05:45:31  5-MIN K9L2 031345Z AUTO 33004KT 10SM CLR 06/M02 A3010 2140 55 1600 320/04 RMK AO2 $
53144K9L2 9L220160403055010204/03/16 05:50:31  5-MIN K9L2 031350Z AUTO 34003KT 10SM CLR 06/M02 A3010 2140 55 1600 330/03 RMK AO2 $
53144K9L2 9L220160403055511904/03/16 05:55:31  5-MIN K9L2 031355Z AUTO 33003KT 10SM CLR 06/M02 A3010 2140 55 1600 320/03 RMK AO2 SLP188 T00611022 $
53144K9L2 9L220160403060010204/03/16 06:00:31  5-MIN K9L2 031400Z AUTO 34003KT 10SM CLR 07/M02 A3010 2140 53 1700 330/03 RMK AO2 $
53144K9L2 9L220160403060510204/03/16 06:05:31  5-MIN K9L2 031405Z AUTO 00000KT 10SM CLR 07/M02 A3010 2140 53 1800 000/00 RMK AO2 $
53144K9L2 9L220160403061010204/03/16 06:10:31  5-MIN K9L2 031410Z AUTO 00000KT 10SM CLR 08/M02 A3010 2130 51 1800 000/00 RMK AO2 $
53144K9L2 9L220160403061510204/03/16 06:15:31  5-MIN K9L2 031415Z AUTO 00000KT 10SM CLR 08/M02 A3010 2130 51 1800 000/00 RMK AO2 $
53144K9L2 9L220160403062010204/03/16 06:20:31  5-MIN K9L2 031420Z AUTO 00000KT 10SM CLR 08/M01 A3011 2130 51 1900 000/00 RMK AO2 $
53144K9L2 9L220160403062510204/03/16 06:25:31  5-MIN K9L2 031425Z AUTO 00000KT 10SM CLR 09/M01 A3011 2130 47 2000 000/00 RMK AO2 $
53144K9L2 9L220160403063010204/03/16 06:30:31  5-MIN K9L2 031430Z AUTO 00000KT 10SM CLR 09/M01 A3011 2130 47 2000 000/00 RMK AO2 $
53144K9L2 9L220160403063510204/03/16 06:35:31  5-MIN K9L2 031435Z AUTO 00000KT 10SM CLR 09/M01 A3011 2130 47 2000 000/00 RMK AO2 $
53144K9L2 9L220160403064010204/03/16 06:40:31  5-MIN K9L2 031440Z AUTO 00000KT 10SM CLR 09/M01 A3011 2130 47 2000 000/00 RMK AO2 $
53144K9L2 9L220160403064510204/03/16 06:45:31  5-MIN K9L2 031445Z AUTO 00000KT 10SM CLR 10/M01 A3011 2130 46 2100 000/00 RMK AO2 $
53144K9L2 9L220160403065010204/03/16 06:50:31  5-MIN K9L2 031450Z AUTO 00000KT 10SM CLR 11/M01 A3011 2130 44 2100 000/00 RMK AO2 $
53144K9L2 9L220160403065512504/03/16 06:55:31  5-MIN K9L2 031455Z AUTO 00000KT 10SM CLR 11/M01 A3011 2130 44 2100 000/00 RMK AO2 SLP190 T01061011 55003 $
53144K9L2 9L220160403070010204/03/16 07:00:31  5-MIN K9L2 031500Z AUTO 00000KT 10SM CLR 11/M01 A3011 2130 46 2100 000/00 RMK AO2 $
53144K9L2 9L220160403070510204/03/16 07:05:31  5-MIN K9L2 031505Z AUTO 00000KT 10SM CLR 11/M01 A3011 2130 44 2200 000/00 RMK AO2 $
53144K9L2 9L220160403071010204/03/16 07:10:31  5-MIN K9L2 031510Z AUTO 00000KT 10SM CLR 11/M01 A3011 2130 44 2200 000/00 RMK AO2 $
53144K9L2 9L220160405015511904/05/16 01:55:31  5-MIN K9L2 050955Z AUTO 35003KT 10SM CLR 08/M01 A3011 2130 55 1800 330/03 RMK AO2 SLP188 T00781006 $
53144K9L2 9L220160405020010204/05/16 02:00:31  5-MIN K9L2 051000Z AUTO 00000KT 10SM CLR 08/M01 A3011 2130 55 1800 000/00 RMK AO2 $
53144K9L2 9L220160405020510204/05/16 02:05:31  5-MIN K9L2 051005Z AUTO 00000KT 10SM CLR 08/M01 A3011 2130 53 1900 000/00 RMK AO2 $
53144K9L2 9L220160405021010204/05/16 02:10:31  5-MIN K9L2 051010Z AUTO 00000KT 10SM CLR 08/M01 A3011 2130 55 1800 000/00 RMK AO2 $
53144K9L2 9L220160405021510204/05/16 02:15:31  5-MIN K9L2 051015Z AUTO 00000KT 10SM CLR 08/M01 A3011 2130 53 1900 000/00 RMK AO2 $
53144K9L2 9L220160405022010204/05/16 02:20:31  5-MIN K9L2 051020Z AUTO 00000KT 10SM CLR 08/M01 A3011 2130 55 1800 000/00 RMK AO2 $
53144K9L2 9L220160405022510204/05/16 02:25:31  5-MIN K9L2 051025Z AUTO 00000KT 10SM CLR 08/M01 A3011 2130 55 1800 000/00 RMK AO2 $
53144K9L2 9L220160405023010204/05/16 02:30:31  5-MIN K9L2 051030Z AUTO 00000KT 10SM CLR 08/M01 A3010 2130 53 1900 000/00 RMK AO2 $
53144K9L2 9L220160405023510204/05/16 02:35:31  5-MIN K9L2 051035Z AUTO 00000KT 10SM CLR 08/M01 A3010 2130 55 1800 000/00 RMK AO2 $
53144K9L2 9L220160405024010204/05/16 02:40:31  5-MIN K9L2 051040Z AUTO VRB03KT 10SM CLR 07/M01 A3010 2130 57 1700 VRB/03 RMK AO2 $
53144K9L2 9L220160405024510204/05/16 02:45:31  5-MIN K9L2 051045Z AUTO 00000KT 10SM CLR 08/M01 A3010 2130 55 1800 000/00 RMK AO2 $
53144K9L2 9L220160405025010204/05/16 02:50:31  5-MIN K9L2 051050Z AUTO 29004KT 10SM CLR 08/M01 A3010 2130 55 1800 280/04 RMK AO2 $
53144K9L2 9L220160405025511904/05/16 02:55:31  5-MIN K9L2 051055Z AUTO 00000KT 10SM CLR 08/M01 A3010 2130 55 1800 000/00 RMK AO2 SLP186 T00781006 $
53144K9L2 9L220160405030010204/05/16 03:00:31  5-MIN K9L2 051100Z AUTO 00000KT 10SM CLR 08/M01 A3010 2130 55 1800 000/00 RMK AO2 $
53144K9L2 9L220160405030510204/05/16 03:05:31  5-MIN K9L2 051105Z AUTO 00000KT 10SM CLR 08/M01 A3010 2130 55 1800 000/00 RMK AO2 $
53144K9L2 9L220160405031010204/05/16 03:10:31  5-MIN K9L2 051110Z AUTO 00000KT 10SM CLR 07/M01 A3010 2140 57 1800 000/00 RMK AO2 $
53144K9L2 9L220160405031510204/05/16 03:15:31  5-MIN K9L2 051115Z AUTO 00000KT 10SM CLR 08/M01 A3010 2130 55 1800 000/00 RMK AO2 $
53144K9L2 9L220160405032010204/05/16 03:20:31  5-MIN K9L2 051120Z AUTO 00000KT 10SM CLR 08/M01 A3010 2130 55 1800 000/00 RMK AO2 $
53144K9L2 9L220160405032510204/05/16 03:25:31  5-MIN K9L2 051125Z AUTO 00000KT 10SM CLR 07/M01 A3011 2130 55 1700 000/00 RMK AO2 $
53144K9L2 9L220160405033010204/05/16 03:30:31  5-MIN K9L2 051130Z AUTO 00000KT 10SM CLR 08/M01 A3011 2130 53 1900 000/00 RMK AO2 $
53144K9L2 9L220160405033510204/05/16 03:35:31  5-MIN K9L2 051135Z AUTO 00000KT 10SM CLR 08/M01 A3011 2130 53 1800 000/00 RMK AO2 $
53144K9L2 9L220160405034010204/05/16 03:40:31  5-MIN K9L2 051140Z AUTO 00000KT 10SM CLR 07/M01 A3010 2130 55 1700 000/00 RMK AO2 $
53144K9L2 9L220160405034510204/05/16 03:45:31  5-MIN K9L2 051145Z AUTO 00000KT 10SM CLR 07/M01 A3010 2130 55 1700 000/00 RMK AO2 $
53144K9L2 9L220160405035010204/05/16 03:50:31  5-MIN K9L2 051150Z AUTO 00000KT 10SM CLR 07/M01 A3011 2130 55 1700 000/00 RMK AO2 $
53144K9L2 9L220160405035513704/05/16 03:55:31  5-MIN K9L2 051155Z AUTO 00000KT 10SM CLR 07/M01 A3011 2130 57 1700 000/00 RMK AO2 SLP189 T00671011 10139 20067 50002 $
53144K9L2 9L220160405040010204/05/16 04:00:31  5-MIN K9L2 051200Z AUTO 00000KT 10SM CLR 07/M01 A3011 2130 57 1700 000/00 RMK AO2 $
53144K9L2 9L220160405040510204/05/16 04:05:31  5-MIN K9L2 051205Z AUTO 00000KT 10SM CLR 07/M01 A3012 2120 57 1700 000/00 RMK AO2 $
53144K9L2 9L220160405041010204/05/16 04:10:31  5-MIN K9L2 051210Z AUTO 00000KT 10SM CLR 07/M01 A3012 2120 60 1700 000/00 RMK AO2 $
53144K9L2 9L220160405041510204/05/16 04:15:31  5-MIN K9L2 051215Z AUTO 02003KT 10SM CLR 07/M01 A3012 2120 57 1700 360/03 RMK AO2 $
53144K9L2 9L220160405042010204/05/16 04:20:31  5-MIN K9L2 051220Z AUTO 00000KT 10SM CLR 07/M01 A3012 2120 57 1700 000/00 RMK AO2 $
53144K9L2 9L220160405042510204/05/16 04:25:31  5-MIN K9L2 051225Z AUTO 00000KT 10SM CLR 07/M01 A3012 2110 57 1700 000/00 RMK AO2 $
53144K9L2 9L220160405043010204/05/16 04:30:31  5-MIN K9L2 051230Z AUTO 00000KT 10SM CLR 07/M01 A3012 2110 60 1700 000/00 RMK AO2 $
53144K9L2 9L220160405043510204/05/16 04:35:31  5-MIN K9L2 051235Z AUTO 00000KT 10SM CLR 07/M01 A3013 2110 60 1700 000/00 RMK AO2 $
53144K9L2 9L220160405044010204/05/16 04:40:31  5-MIN K9L2 051240Z AUTO 00000KT 10SM CLR 07/M01 A3013 2110 60 1700 000/00 RMK AO2 $
53144K9L2 9L220160405044510204/05/16 04:45:31  5-MIN K9L2 051245Z AUTO 00000KT 10SM CLR 07/M01 A3013 2110 57 1700 000/00 RMK AO2 $
53144K9L2 9L220160405045010204/05/16 04:50:31  5-MIN K9L2 051250Z AUTO 00000KT 10SM CLR 07/M01 A3013 2110 60 1700 000/00 RMK AO2 $
53144K9L2 9L220160405045511904/05/16 04:55:31  5-MIN K9L2 051255Z AUTO 00000KT 10SM CLR 06/M01 A3013 2110 60 1600 000/00 RMK AO2 SLP197 T00611011 $
53144K9L2 9L220160405050010204/05/16 05:00:31  5-MIN K9L2 051300Z AUTO 00000KT 10SM CLR 06/M01 A3013 2110 60 1600 000/00 RMK AO2 $
53144K9L2 9L220160405050510204/05/16 05:05:31  5-MIN K9L2 051305Z AUTO 00000KT 10SM CLR 06/M01 A3013 2110 60 1600 000/00 RMK AO2 $
53144K9L2 9L220160405051010204/05/16 05:10:31  5-MIN K9L2 051310Z AUTO 33003KT 10SM CLR 06/M01 A3013 2110 62 1600 310/03 RMK AO2 $
53144K9L2 9L220160405051510204/05/16 05:15:31  5-MIN K9L2 051315Z AUTO 33004KT 10SM CLR 06/M01 A3013 2110 62 1600 320/04 RMK AO2 $
53144K9L2 9L220160405052010204/05/16 05:20:31  5-MIN K9L2 051320Z AUTO 35003KT 10SM CLR 06/M01 A3014 2100 62 1600 340/03 RMK AO2 $
53144K9L2 9L220160405052510204/05/16 05:25:31  5-MIN K9L2 051325Z AUTO 00000KT 10SM CLR 06/M01 A3014 2100 62 1600 000/00 RMK AO2 $
53144K9L2 9L220160405053010204/05/16 05:30:31  5-MIN K9L2 051330Z AUTO 00000KT 10SM CLR 06/M01 A3014 2100 62 1600 000/00 RMK AO2 $
53144K9L2 9L220160405053510204/05/16 05:35:31  5-MIN K9L2 051335Z AUTO 07003KT 10SM CLR 06/M01 A3015 2090 62 1600 060/03 RMK AO2 $
53144K9L2 9L220160405054010204/05/16 05:40:31  5-MIN K9L2 051340Z AUTO 00000KT 10SM CLR 06/M01 A3015 2090 62 1600 000/00 RMK AO2 $
53144K9L2 9L220160405054510204/05/16 05:45:31  5-MIN K9L2 051345Z AUTO 00000KT 10SM CLR 06/M01 A3015 2090 60 1600 000/00 RMK AO2 $
53144K9L2 9L220160405055010204/05/16 05:50:31  5-MIN K9L2 051350Z AUTO 00000KT 10SM CLR 06/M01 A3015 2090 62 1600 000/00 RMK AO2 $
53144K9L2 9L220160405055511904/05/16 05:55:31  5-MIN K9L2 051355Z AUTO 00000KT 10SM CLR 07/M01 A3015 2090 60 1600 000/00 RMK AO2 SLP206 T00671006 $
53144K9L2 9L220160405060010204/05/16 06:00:31  5-MIN K9L2 051400Z AUTO 00000KT 10SM CLR 07/M01 A3016 2080 60 1600 000/00 RMK AO2 $
53144K9L2 9L220160405060510204/05/16 06:05:31  5-MIN K9L2 051405Z AUTO 00000KT 10SM CLR 08/M01 A3016 2080 55 1700 000/00 RMK AO2 $
53144K9L2 9L220160405061010104/05/16 06:10:31  5-MIN K9L2 051410Z AUTO 00000KT 10SM CLR 08/00 A3017 2080 55 1800 000/00 RMK AO2 $
53144K9L2 9L220160405061510104/05/16 06:15:31  5-MIN K9L2 051415Z AUTO 00000KT 10SM CLR 08/00 A3017 2070 55 1800 000/00 RMK AO2 $
53144K9L2 9L220160405062010104/05/16 06:20:31  5-MIN K9L2 051420Z AUTO 00000KT 10SM CLR 09/00 A3017 2070 53 1900 000/00 RMK AO2 $
53144K9L2 9L220160405062510104/05/16 06:25:31  5-MIN K9L2 051425Z AUTO 00000KT 10SM CLR 09/01 A3017 2070 56 1900 000/00 RMK AO2 $
53144K9L2 9L220160405063010104/05/16 06:30:31  5-MIN K9L2 051430Z AUTO 00000KT 10SM CLR 09/01 A3018 2070 53 1900 000/00 RMK AO2 $
53144K9L2 9L220160405063510104/05/16 06:35:31  5-MIN K9L2 051435Z AUTO 00000KT 10SM CLR 10/01 A3018 2070 54 2000 000/00 RMK AO2 $
53144K9L2 9L220160405064010104/05/16 06:40:31  5-MIN K9L2 051440Z AUTO 00000KT 10SM CLR 11/02 A3017 2070 52 2100 000/00 RMK AO2 $
53144K9L2 9L220160405064510104/05/16 06:45:31  5-MIN K9L2 051445Z AUTO 00000KT 10SM CLR 11/02 A3017 2070 52 2100 000/00 RMK AO2 $
53144K9L2 9L220160405065010104/05/16 06:50:31  5-MIN K9L2 051450Z AUTO 02003KT 10SM CLR 12/02 A3017 2070 50 2200 360/03 RMK AO2 $
53144K9L2 9L220160405065512404/05/16 06:55:31  5-MIN K9L2 051455Z AUTO 02003KT 10SM CLR 12/02 A3018 2070 52 2200 360/03 RMK AO2 SLP214 T01170022 55000 $
53144K9L2 9L220160405070010104/05/16 07:00:31  5-MIN K9L2 051500Z AUTO 00000KT 10SM CLR 12/02 A3017 2070 52 2200 000/00 RMK AO2 $
53144K9L2 9L220160405070510104/05/16 07:05:31  5-MIN K9L2 051505Z AUTO 00000KT 10SM CLR 13/02 A3017 2070 48 2300 000/00 RMK AO2 $
53144K9L2 9L220160405071010104/05/16 07:10:31  5-MIN K9L2 051510Z AUTO 00000KT 10SM CLR 13/03 A3017 2070 48 2400 000/00 RMK AO2 $
53144K9L2 9L220160405071510104/05/16 07:15:31  5-MIN K9L2 051515Z AUTO 10003KT 10SM CLR 13/03 A3018 2070 52 2300 090/03 RMK AO2 $
53144K9L2 9L220160405072010104/05/16 07:20:31  5-MIN K9L2 051520Z AUTO 12003KT 10SM CLR 12/03 A3017 2070 54 2300 110/03 RMK AO2 $
53144K9L2 9L220160405072510104/05/16 07:25:31  5-MIN K9L2 051525Z AUTO 00000KT 10SM CLR 12/03 A3018 2070 52 2300 000/00 RMK AO2 $
53144K9L2 9L220160405073010104/05/16 07:30:31  5-MIN K9L2 051530Z AUTO 00000KT 10SM CLR 12/03 A3018 2070 52 2300 000/00 RMK AO2 $
53144K9L2 9L220160405073510104/05/16 07:35:31  5-MIN K9L2 051535Z AUTO 00000KT 10SM CLR 12/03 A3018 2070 54 2300 000/00 RMK AO2 $
53144K9L2 9L220160405074010104/05/16 07:40:31  5-MIN K9L2 051540Z AUTO 00000KT 10SM CLR 12/03 A3018 2060 54 2300 000/00 RMK AO2 $
53144K9L2 9L220160405074510104/05/16 07:45:31  5-MIN K9L2 051545Z AUTO 00000KT 10SM CLR 13/03 A3018 2060 52 2300 000/00 RMK AO2 $
53144K9L2 9L220160405075010104/05/16 07:50:31  5-MIN K9L2 051550Z AUTO 00000KT 10SM CLR 13/03 A3018 2060 52 2300 000/00 RMK AO2 $
53144K9L2 9L220160405075511804/05/16 07:55:31  5-MIN K9L2 051555Z AUTO 00000KT 10SM CLR 13/03 A3018 2060 50 2400 000/00 RMK AO2 SLP216 T01330033 $
53144K9L2 9L220160405080010104/05/16 08:00:31  5-MIN K9L2 051600Z AUTO 00000KT 10SM CLR 13/03 A3018 2060 50 2400 000/00 RMK AO2 $
53144K9L2 9L220160405080510104/05/16 08:05:31  5-MIN K9L2 051605Z AUTO 00000KT 10SM CLR 13/03 A3018 2060 50 2400 000/00 RMK AO2 $
53144K9L2 9L220160405081010104/05/16 08:10:31  5-MIN K9L2 051610Z AUTO 00000KT 10SM CLR 14/03 A3019 2060 48 2400 000/00 RMK AO2 $
53144K9L2 9L220160405081510104/05/16 08:15:31  5-MIN K9L2 051615Z AUTO 00000KT 10SM CLR 14/03 A3019 2060 47 2500 000/00 RMK AO2 $
53144K9L2 9L220160405082010104/05/16 08:20:31  5-MIN K9L2 051620Z AUTO 11003KT 10SM CLR 14/03 A3019 2060 47 2500 100/03 RMK AO2 $
53144K9L2 9L220160405082510104/05/16 08:25:31  5-MIN K9L2 051625Z AUTO 00000KT 10SM CLR 15/03 A3019 2050 45 2600 000/00 RMK AO2 $
53144K9L2 9L220160405083010104/05/16 08:30:31  5-MIN K9L2 051630Z AUTO 14003KT 10SM CLR 15/04 A3019 2050 47 2600 130/03 RMK AO2 $
53144K9L2 9L220160405083510104/05/16 08:35:31  5-MIN K9L2 051635Z AUTO 15003KT 10SM CLR 16/04 A3019 2050 45 2600 130/03 RMK AO2 $
53144K9L2 9L220160405084010104/05/16 08:40:31  5-MIN K9L2 051640Z AUTO 15004KT 10SM CLR 16/04 A3020 2050 45 2600 140/04 RMK AO2 $
53144K9L2 9L220160405084510104/05/16 08:45:31  5-MIN K9L2 051645Z AUTO 15005KT 10SM CLR 16/04 A3020 2050 44 2700 140/05 RMK AO2 $
53144K9L2 9L220160405085010104/05/16 08:50:31  5-MIN K9L2 051650Z AUTO 15003KT 10SM CLR 17/04 A3020 2050 42 2800 140/03 RMK AO2 $
53144K9L2 9L220160405085511804/05/16 08:55:31  5-MIN K9L2 051655Z AUTO 15003KT 10SM CLR 17/04 A3020 2050 42 2800 140/03 RMK AO2 SLP220 T01670039 $
53144K9L2 9L220160405090010104/05/16 09:00:31  5-MIN K9L2 051700Z AUTO 14003KT 10SM CLR 17/04 A3020 2050 41 2800 130/03 RMK AO2 $
53144K9L2 9L220160405090510104/05/16 09:05:31  5-MIN K9L2 051705Z AUTO 17003KT 10SM CLR 18/04 A3020 2040 39 2900 150/03 RMK AO2 $
53144K9L2 9L220160405091010104/05/16 09:10:31  5-MIN K9L2 051710Z AUTO 17003KT 10SM CLR 18/03 A3020 2040 38 2900 160/03 RMK AO2 $
53144K9L2 9L220160405091510104/05/16 09:15:31  5-MIN K9L2 051715Z AUTO 00000KT 10SM CLR 18/03 A3020 2040 38 2900 000/00 RMK AO2 $
53144K9L2 9L220160405092010104/05/16 09:20:31  5-MIN K9L2 051720Z AUTO 00000KT 10SM CLR 18/03 A3020 2040 36 2900 000/00 RMK AO2 $
53144K9L2 9L220160405092510104/05/16 09:25:31  5-MIN K9L2 051725Z AUTO 00000KT 10SM CLR 19/03 A3021 2040 35 3000 000/00 RMK AO2 $
53144K9L2 9L220160405093010104/05/16 09:30:31  5-MIN K9L2 051730Z AUTO 00000KT 10SM CLR 19/03 A3020 2040 35 3000 000/00 RMK AO2 $
53144K9L2 9L220160405093510104/05/16 09:35:31  5-MIN K9L2 051735Z AUTO 00000KT 10SM CLR 20/04 A3020 2040 34 3100 000/00 RMK AO2 $
53144K9L2 9L220160405094010104/05/16 09:40:31  5-MIN K9L2 051740Z AUTO VRB03KT 10SM CLR 20/04 A3020 2050 34 3100 VRB/03 RMK AO2 $
53144K9L2 9L220160405094510104/05/16 09:45:31  5-MIN K9L2 051745Z AUTO 00000KT 10SM CLR 21/04 A3020 2050 32 3300 000/00 RMK AO2 $
53144K9L2 9L220160405095010104/05/16 09:50:31  5-MIN K9L2 051750Z AUTO 00000KT 10SM CLR 22/04 A3020 2050 31 3300 000/00 RMK AO2 $
53144K9L2 9L220160405095513604/05/16 09:55:31  5-MIN K9L2 051755Z AUTO 13005KT 10SM CLR 21/04 A3020 2040 32 3300 120/05 RMK AO2 SLP220 T02110039 10217 20056 53020 $
53144K9L2 9L220160405100010104/05/16 10:00:31  5-MIN K9L2 051800Z AUTO 10004KT 10SM CLR 22/04 A3021 2040 31 3300 090/04 RMK AO2 $
53144K9L2 9L220160405100510104/05/16 10:05:31  5-MIN K9L2 051805Z AUTO 00000KT 10SM CLR 21/04 A3020 2040 32 3300 000/00 RMK AO2 $
53144K9L2 9L220160405101010104/05/16 10:10:31  5-MIN K9L2 051810Z AUTO 09003KT 10SM CLR 22/04 A3021 2040 30 3400 070/03 RMK AO2 $
53144K9L2 9L220160405101510104/05/16 10:15:31  5-MIN K9L2 051815Z AUTO 00000KT 10SM CLR 23/03 A3021 2040 27 3400 000/00 RMK AO2 $
53144K9L2 9L220160405102010104/05/16 10:20:31  5-MIN K9L2 051820Z AUTO 12004KT 10SM CLR 23/04 A3021 2040 29 3400 110/04 RMK AO2 $
53144K9L2 9L220160405102510104/05/16 10:25:31  5-MIN K9L2 051825Z AUTO VRB04KT 10SM CLR 23/03 A3020 2050 27 3400 VRB/04 RMK AO2 $
53144K9L2 9L220160405103010104/05/16 10:30:31  5-MIN K9L2 051830Z AUTO 00000KT 10SM CLR 23/03 A3020 2050 26 3500 000/00 RMK AO2 $
53144K9L2 9L220160405103510104/05/16 10:35:31  5-MIN K9L2 051835Z AUTO VRB03KT 10SM CLR 23/03 A3020 2050 26 3500 VRB/03 RMK AO2 $
53144K9L2 9L220160405104010104/05/16 10:40:31  5-MIN K9L2 051840Z AUTO 00000KT 10SM CLR 24/03 A3019 2050 25 3600 000/00 RMK AO2 $
53144K9L2 9L220160405104510104/05/16 10:45:31  5-MIN K9L2 051845Z AUTO VRB03KT 10SM CLR 25/03 A3019 2060 23 3700 VRB/03 RMK AO2 $
53144K9L2 9L220160405105010104/05/16 10:50:31  5-MIN K9L2 051850Z AUTO 07004KT 10SM CLR 26/02 A3018 2060 21 3800 060/04 RMK AO2 $
53144K9L2 9L220160405105511804/05/16 10:55:31  5-MIN K9L2 051855Z AUTO 05006KT 10SM CLR 26/02 A3018 2060 21 3800 030/06 RMK AO2 SLP212 T02560017 $
53144K9L2 9L220160405110010104/05/16 11:00:31  5-MIN K9L2 051900Z AUTO 00000KT 10SM CLR 26/02 A3019 2060 21 3800 000/00 RMK AO2 $
53144K9L2 9L220160405110510104/05/16 11:05:31  5-MIN K9L2 051905Z AUTO VRB05KT 10SM CLR 25/03 A3018 2060 23 3700 VRB/05 RMK AO2 $
53144K9L2 9L220160405111010104/05/16 11:10:31  5-MIN K9L2 051910Z AUTO 17004KT 10SM CLR 25/03 A3018 2060 23 3700 160/04 RMK AO2 $
53144K9L2 9L220160405111510104/05/16 11:15:31  5-MIN K9L2 051915Z AUTO 14004KT 10SM CLR 26/02 A3018 2070 21 3800 130/04 RMK AO2 $
53144K9L2 9L220160405112010104/05/16 11:20:31  5-MIN K9L2 051920Z AUTO 10005KT 10SM CLR 26/02 A3017 2070 21 3900 090/05 RMK AO2 $
53144K9L2 9L220160405112510104/05/16 11:25:31  5-MIN K9L2 051925Z AUTO 15005KT 10SM CLR 26/02 A3017 2070 20 3900 140/05 RMK AO2 $
53144K9L2 9L220160405113010104/05/16 11:30:31  5-MIN K9L2 051930Z AUTO 14004KT 10SM CLR 26/02 A3017 2070 20 3900 120/04 RMK AO2 $
53144K9L2 9L220160405113510104/05/16 11:35:31  5-MIN K9L2 051935Z AUTO VRB03KT 10SM CLR 27/01 A3017 2080 18 3900 VRB/03 RMK AO2 $
53144K9L2 9L220160405114010104/05/16 11:40:31  5-MIN K9L2 051940Z AUTO VRB04KT 10SM CLR 27/01 A3016 2080 18 3900 VRB/04 RMK AO2 $
53144K9L2 9L220160405114510104/05/16 11:45:31  5-MIN K9L2 051945Z AUTO 10005KT 10SM CLR 27/01 A3016 2080 17 4000 080/05 RMK AO2 $
53144K9L2 9L220160405115010104/05/16 11:50:31  5-MIN K9L2 051950Z AUTO 07006KT 10SM CLR 28/00 A3016 2090 16 4100 050/06 RMK AO2 $
53144K9L2 9L220160405115511804/05/16 11:55:31  5-MIN K9L2 051955Z AUTO 09005KT 10SM CLR 28/00 A3015 2090 16 4100 080/05 RMK AO2 SLP200 T02780000 $
53144K9L2 9L220160405120010104/05/16 12:00:31  5-MIN K9L2 052000Z AUTO 07006KT 10SM CLR 28/00 A3015 2090 16 4100 060/06 RMK AO2 $
53144K9L2 9L220160405120510204/05/16 12:05:31  5-MIN K9L2 052005Z AUTO 00000KT 10SM CLR 28/M01 A3014 2100 15 4100 000/00 RMK AO2 $
53144K9L2 9L220160405121010204/05/16 12:10:31  5-MIN K9L2 052010Z AUTO 00000KT 10SM CLR 28/M01 A3014 2100 15 4100 000/00 RMK AO2 $
53144K9L2 9L220160405121510204/05/16 12:15:31  5-MIN K9L2 052015Z AUTO 13006KT 10SM CLR 28/M01 A3014 2100 15 4100 120/06 RMK AO2 $
53144K9L2 9L220160405122010204/05/16 12:20:31  5-MIN K9L2 052020Z AUTO VRB03KT 10SM CLR 28/M01 A3014 2100 14 4100 VRB/03 RMK AO2 $
53144K9L2 9L220160405122510204/05/16 12:25:31  5-MIN K9L2 052025Z AUTO 12005KT 10SM CLR 29/M01 A3013 2110 14 4200 110/05 RMK AO2 $
53144K9L2 9L220160405123010204/05/16 12:30:31  5-MIN K9L2 052030Z AUTO 15005KT 10SM CLR 29/M02 A3013 2110 13 4200 140/05 RMK AO2 $
53144K9L2 9L220160405123510204/05/16 12:35:31  5-MIN K9L2 052035Z AUTO VRB06KT 10SM CLR 29/M02 A3013 2110 13 4300 VRB/06 RMK AO2 $
53144K9L2 9L220160405124010204/05/16 12:40:31  5-MIN K9L2 052040Z AUTO 08008KT 10SM CLR 30/M03 A3013 2110 11 4300 060/08 RMK AO2 $
53144K9L2 9L220160405124510204/05/16 12:45:31  5-MIN K9L2 052045Z AUTO 10005KT 10SM CLR 30/M04 A3013 2110 10 4300 090/05 RMK AO2 $
53144K9L2 9L220160405125010804/05/16 12:50:31  5-MIN K9L2 052050Z AUTO 04007G14KT 10SM CLR 31/M05 A3013 2110 09 4500 030/07G14 RMK AO2 $
53144K9L2 9L220160405125513104/05/16 12:55:31  5-MIN K9L2 052055Z AUTO 05004G14KT 10SM CLR 31/M07 A3013 2110 08 4400 040/04G14 RMK AO2 SLP191 T03061067 52009 $
53144K9L2 9L220160405130010204/05/16 13:00:31  5-MIN K9L2 052100Z AUTO VRB03KT 10SM CLR 30/M07 A3012 2110 08 4300 VRB/03 RMK AO2 $
53144K9L2 9L220160405130511804/05/16 13:05:31  5-MIN K9L2 052105Z AUTO 09008KT 020V110 10SM CLR 31/M07 A3012 2110 08 4400 070/08 010V100 RMK AO2 $
53144K9L2 9L220160405131012404/05/16 13:10:31  5-MIN K9L2 052110Z AUTO 05010G15KT 030V100 10SM CLR 31/M07 A3012 2120 08 4500 040/10G15 020V090 RMK AO2 $
53144K9L2 9L220160405131510804/05/16 13:15:31  5-MIN K9L2 052115Z AUTO 09008G15KT 10SM CLR 31/M08 A3012 2120 07 4500 080/08G15 RMK AO2 $
53144K9L2 9L220160405132010204/05/16 13:20:31  5-MIN K9L2 052120Z AUTO 08010KT 10SM CLR 31/M07 A3012 2120 08 4500 070/10 RMK AO2 $
53144K9L2 9L220160405132510204/05/16 13:25:31  5-MIN K9L2 052125Z AUTO VRB04KT 10SM CLR 31/M07 A3012 2120 08 4400 VRB/04 RMK AO2 $
53144K9L2 9L220160405133011804/05/16 13:30:31  5-MIN K9L2 052130Z AUTO 09008KT 040V160 10SM CLR 31/M07 A3011 2130 08 4400 070/08 030V150 RMK AO2 $
53144K9L2 9L220160405133510804/05/16 13:35:31  5-MIN K9L2 052135Z AUTO 10007G14KT 10SM CLR 32/M06 A3011 2130 08 4500 090/07G14 RMK AO2 $
53144K9L2 9L220160405134010204/05/16 13:40:31  5-MIN K9L2 052140Z AUTO 09010KT 10SM CLR 32/M07 A3011 2130 08 4500 080/10 RMK AO2 $
53144K9L2 9L220160405134510204/05/16 13:45:31  5-MIN K9L2 052145Z AUTO 05007KT 10SM CLR 31/M08 A3011 2130 07 4500 040/07 RMK AO2 $
53144K9L2 9L220160405135010204/05/16 13:50:31  5-MIN K9L2 052150Z AUTO 10006KT 10SM CLR 31/M08 A3010 2130 08 4400 090/06 RMK AO2 $
53144K9L2 9L220160405135511904/05/16 13:55:31  5-MIN K9L2 052155Z AUTO 16006KT 10SM CLR 30/M08 A3010 2140 08 4400 150/06 RMK AO2 SLP182 T03001078 $
53144K9L2 9L220160405140010204/05/16 14:00:31  5-MIN K9L2 052200Z AUTO 05006KT 10SM CLR 31/M07 A3010 2140 08 4400 040/06 RMK AO2 $
53144K9L2 9L220160405140510204/05/16 14:05:31  5-MIN K9L2 052205Z AUTO 10006KT 10SM CLR 31/M07 A3009 2140 08 4500 090/06 RMK AO2 $
53144K9L2 9L220160405141010204/05/16 14:10:31  5-MIN K9L2 052210Z AUTO 04005KT 10SM CLR 31/M08 A3009 2150 07 4500 030/05 RMK AO2 $
53144K9L2 9L220160405141510204/05/16 14:15:31  5-MIN K9L2 052215Z AUTO 00000KT 10SM CLR 31/M08 A3009 2150 07 4400 000/00 RMK AO2 $
53144K9L2 9L220160405142010204/05/16 14:20:31  5-MIN K9L2 052220Z AUTO 04004KT 10SM CLR 31/M08 A3009 2150 07 4500 030/04 RMK AO2 $
53144K9L2 9L220160405142510204/05/16 14:25:31  5-MIN K9L2 052225Z AUTO 07003KT 10SM CLR 31/M08 A3008 2160 07 4500 050/03 RMK AO2 $
53144K9L2 9L220160405143010204/05/16 14:30:31  5-MIN K9L2 052230Z AUTO 13004KT 10SM CLR 31/M07 A3008 2160 08 4500 120/04 RMK AO2 $
53144K9L2 9L220160405143510204/05/16 14:35:31  5-MIN K9L2 052235Z AUTO VRB04KT 10SM CLR 31/M06 A3007 2160 08 4500 VRB/04 RMK AO2 $
53144K9L2 9L220160405144010204/05/16 14:40:31  5-MIN K9L2 052240Z AUTO 14004KT 10SM CLR 31/M06 A3007 2160 08 4500 120/04 RMK AO2 $
53144K9L2 9L220160405144510204/05/16 14:45:31  5-MIN K9L2 052245Z AUTO 08007KT 10SM CLR 31/M06 A3007 2170 08 4500 060/07 RMK AO2 $
53144K9L2 9L220160405145010204/05/16 14:50:31  5-MIN K9L2 052250Z AUTO 11006KT 10SM CLR 31/M07 A3007 2170 08 4500 100/06 RMK AO2 $
53144K9L2 9L220160405145512504/05/16 14:55:31  5-MIN K9L2 052255Z AUTO 11010G14KT 10SM CLR 32/M06 A3006 2170 08 4600 100/10G14 RMK AO2 SLP169 T03171061 $
53144K9L2 9L220160405150010804/05/16 15:00:31  5-MIN K9L2 052300Z AUTO 10008G14KT 10SM CLR 31/M06 A3006 2170 08 4500 090/08G14 RMK AO2 $
53144K9L2 9L220160405150510204/05/16 15:05:31  5-MIN K9L2 052305Z AUTO VRB03KT 10SM CLR 31/M06 A3006 2180 08 4500 VRB/03 RMK AO2 $
53144K9L2 9L220160405151010204/05/16 15:10:31  5-MIN K9L2 052310Z AUTO 12009KT 10SM CLR 32/M07 A3006 2180 08 4600 110/09 RMK AO2 $
53144K9L2 9L220160405151510204/05/16 15:15:31  5-MIN K9L2 052315Z AUTO 10010KT 10SM CLR 32/M07 A3006 2170 07 4600 090/10 RMK AO2 $
53144K9L2 9L220160405152010204/05/16 15:20:31  5-MIN K9L2 052320Z AUTO VRB06KT 10SM CLR 31/M07 A3006 2170 08 4500 VRB/06 RMK AO2 $
53144K9L2 9L220160405152510204/05/16 15:25:31  5-MIN K9L2 052325Z AUTO 14008KT 10SM CLR 31/M07 A3006 2180 08 4500 120/08 RMK AO2 $
53144K9L2 9L220160405153010204/05/16 15:30:31  5-MIN K9L2 052330Z AUTO VRB04KT 10SM CLR 31/M07 A3006 2180 08 4500 VRB/04 RMK AO2 $
53144K9L2 9L220160405153510204/05/16 15:35:31  5-MIN K9L2 052335Z AUTO 10009KT 10SM CLR 31/M07 A3006 2180 08 4500 090/09 RMK AO2 $
53144K9L2 9L220160405154010204/05/16 15:40:31  5-MIN K9L2 052340Z AUTO 11005KT 10SM CLR 31/M07 A3006 2180 08 4500 100/05 RMK AO2 $
53144K9L2 9L220160405154510204/05/16 15:45:31  5-MIN K9L2 052345Z AUTO 11006KT 10SM CLR 31/M08 A3006 2180 07 4500 100/06 RMK AO2 $
53144K9L2 9L220160405155010204/05/16 15:50:31  5-MIN K9L2 052350Z AUTO 10007KT 10SM CLR 32/M08 A3006 2180 07 4600 090/07 RMK AO2 $
53144K9L2 9L220160405155513704/05/16 15:55:31  5-MIN K9L2 052355Z AUTO 09008KT 10SM CLR 32/M08 A3006 2180 07 4600 070/08 RMK AO2 SLP167 T03171083 10317 20211 58025 $
53144K9L2 9L220160405160011804/05/16 16:00:31  5-MIN K9L2 060000Z AUTO 09008KT 060V130 10SM CLR 31/M09 A3005 2180 06 4500 080/08 050V120 RMK AO2 $
53144K9L2 9L220160405160510204/05/16 16:05:31  5-MIN K9L2 060005Z AUTO 12009KT 10SM CLR 31/M09 A3005 2180 07 4500 100/09 RMK AO2 $
53144K9L2 9L220160405161010204/05/16 16:10:31  5-MIN K9L2 060010Z AUTO 12008KT 10SM CLR 31/M08 A3005 2180 07 4500 100/08 RMK AO2 $
53144K9L2 9L220160405161510204/05/16 16:15:31  5-MIN K9L2 060015Z AUTO 13007KT 10SM CLR 31/M08 A3005 2180 07 4500 120/07 RMK AO2 $
53144K9L2 9L220160405162010204/05/16 16:20:31  5-MIN K9L2 060020Z AUTO VRB04KT 10SM CLR 31/M09 A3005 2180 07 4500 VRB/04 RMK AO2 $
53144K9L2 9L220160405162510204/05/16 16:25:31  5-MIN K9L2 060025Z AUTO 11005KT 10SM CLR 31/M09 A3005 2180 07 4500 090/05 RMK AO2 $
53144K9L2 9L220160405163010204/05/16 16:30:31  5-MIN K9L2 060030Z AUTO 06006KT 10SM CLR 31/M09 A3005 2180 06 4500 050/06 RMK AO2 $
53144K9L2 9L220160405163510204/05/16 16:35:31  5-MIN K9L2 060035Z AUTO 05006KT 10SM CLR 32/M09 A3005 2190 06 4600 040/06 RMK AO2 $
53144K9L2 9L220160405164010204/05/16 16:40:31  5-MIN K9L2 060040Z AUTO 10011KT 10SM CLR 31/M09 A3004 2190 07 4500 090/11 RMK AO2 $
53144K9L2 9L220160405164510204/05/16 16:45:31  5-MIN K9L2 060045Z AUTO 07007KT 10SM CLR 31/M09 A3004 2190 06 4500 060/07 RMK AO2 $
53144K9L2 9L220160405165010204/05/16 16:50:31  5-MIN K9L2 060050Z AUTO 11007KT 10SM CLR 31/M09 A3005 2190 07 4500 090/07 RMK AO2 $
53144K9L2 9L220160405165511904/05/16 16:55:31  5-MIN K9L2 060055Z AUTO 10006KT 10SM CLR 31/M08 A3005 2180 07 4500 080/06 RMK AO2 SLP165 T03061083 $
53144K9L2 9L220160405170010204/05/16 17:00:31  5-MIN K9L2 060100Z AUTO 00000KT 10SM CLR 30/M09 A3005 2180 07 4400 000/00 RMK AO2 $
53144K9L2 9L220160405170510204/05/16 17:05:31  5-MIN K9L2 060105Z AUTO 11006KT 10SM CLR 30/M08 A3005 2180 07 4400 090/06 RMK AO2 $
53144K9L2 9L220160405171010804/05/16 17:10:31  5-MIN K9L2 060110Z AUTO 08009G14KT 10SM CLR 31/M10 A3005 2180 06 4500 070/09G14 RMK AO2 $
53144K9L2 9L220160405171510204/05/16 17:15:31  5-MIN K9L2 060115Z AUTO 10009KT 10SM CLR 30/M09 A3005 2180 07 4400 080/09 RMK AO2 $
53144K9L2 9L220160405172010204/05/16 17:20:31  5-MIN K9L2 060120Z AUTO 10007KT 10SM CLR 30/M09 A3005 2180 07 4400 080/07 RMK AO2 $
53144K9L2 9L220160405172510204/05/16 17:25:31  5-MIN K9L2 060125Z AUTO 09008KT 10SM CLR 30/M10 A3006 2180 07 4400 070/08 RMK AO2 $
53144K9L2 9L220160405173010204/05/16 17:30:31  5-MIN K9L2 060130Z AUTO 11006KT 10SM CLR 30/M10 A3006 2180 07 4400 100/06 RMK AO2 $
53144K9L2 9L220160405173510204/05/16 17:35:31  5-MIN K9L2 060135Z AUTO 09007KT 10SM CLR 29/M10 A3006 2170 07 4300 080/07 RMK AO2 $
53144K9L2 9L220160405174010204/05/16 17:40:31  5-MIN K9L2 060140Z AUTO 09009KT 10SM CLR 29/M11 A3006 2180 06 4400 080/09 RMK AO2 $
53144K9L2 9L220160405174510204/05/16 17:45:31  5-MIN K9L2 060145Z AUTO 09009KT 10SM CLR 29/M12 A3006 2170 06 4300 070/09 RMK AO2 $
53144K9L2 9L220160405175010204/05/16 17:50:31  5-MIN K9L2 060150Z AUTO 09006KT 10SM CLR 29/M12 A3006 2170 06 4300 070/06 RMK AO2 $
53144K9L2 9L220160405175511904/05/16 17:55:31  5-MIN K9L2 060155Z AUTO 07006KT 10SM CLR 29/M12 A3007 2170 06 4300 060/06 RMK AO2 SLP172 T02891117 $
53144K9L2 9L220160405180010204/05/16 18:00:31  5-MIN K9L2 060200Z AUTO 06007KT 10SM CLR 28/M12 A3007 2170 06 4200 050/07 RMK AO2 $
53144K9L2 9L220160405180510204/05/16 18:05:31  5-MIN K9L2 060205Z AUTO 06007KT 10SM CLR 28/M12 A3007 2170 06 4200 050/07 RMK AO2 $
53144K9L2 9L220160405181010204/05/16 18:10:31  5-MIN K9L2 060210Z AUTO 07007KT 10SM CLR 28/M12 A3007 2170 06 4200 050/07 RMK AO2 $
53144K9L2 9L220160405181510204/05/16 18:15:31  5-MIN K9L2 060215Z AUTO 07008KT 10SM CLR 27/M12 A3007 2170 06 4100 060/08 RMK AO2 $
53144K9L2 9L220160405182010204/05/16 18:20:31  5-MIN K9L2 060220Z AUTO 07008KT 10SM CLR 27/M12 A3007 2170 06 4100 050/08 RMK AO2 $
53144K9L2 9L220160405182510204/05/16 18:25:31  5-MIN K9L2 060225Z AUTO 05008KT 10SM CLR 27/M12 A3007 2170 07 4000 040/08 RMK AO2 $
53144K9L2 9L220160405183010204/05/16 18:30:31  5-MIN K9L2 060230Z AUTO 05007KT 10SM CLR 27/M12 A3007 2160 07 4000 040/07 RMK AO2 $
53144K9L2 9L220160405183510204/05/16 18:35:31  5-MIN K9L2 060235Z AUTO 05008KT 10SM CLR 26/M12 A3007 2160 07 4000 040/08 RMK AO2 $
53144K9L2 9L220160405184010204/05/16 18:40:31  5-MIN K9L2 060240Z AUTO 06006KT 10SM CLR 26/M12 A3008 2160 07 3900 040/06 RMK AO2 $
53144K9L2 9L220160405184510204/05/16 18:45:31  5-MIN K9L2 060245Z AUTO 05007KT 10SM CLR 25/M12 A3008 2160 08 3800 040/07 RMK AO2 $
53144K9L2 9L220160405185010204/05/16 18:50:31  5-MIN K9L2 060250Z AUTO 05006KT 10SM CLR 25/M12 A3008 2160 08 3800 040/06 RMK AO2 $
53144K9L2 9L220160405185512504/05/16 18:55:31  5-MIN K9L2 060255Z AUTO 06006KT 10SM CLR 24/M12 A3008 2150 08 3800 040/06 RMK AO2 SLP177 T02441117 56023 $
53144K9L2 9L220160405190010204/05/16 19:00:31  5-MIN K9L2 060300Z AUTO 06006KT 10SM CLR 24/M12 A3008 2150 08 3800 050/06 RMK AO2 $
53144K9L2 9L220160405190510204/05/16 19:05:31  5-MIN K9L2 060305Z AUTO 07006KT 10SM CLR 24/M12 A3008 2150 08 3700 050/06 RMK AO2 $
53144K9L2 9L220160405191010204/05/16 19:10:31  5-MIN K9L2 060310Z AUTO 07006KT 10SM CLR 23/M11 A3009 2150 09 3600 050/06 RMK AO2 $
53144K9L2 9L220160405191510204/05/16 19:15:31  5-MIN K9L2 060315Z AUTO 07006KT 10SM CLR 24/M11 A3009 2150 09 3700 060/06 RMK AO2 $
53144K9L2 9L220160405192010204/05/16 19:20:31  5-MIN K9L2 060320Z AUTO 08006KT 10SM CLR 24/M11 A3009 2150 09 3800 070/06 RMK AO2 $
53144K9L2 9L220160405192510204/05/16 19:25:31  5-MIN K9L2 060325Z AUTO 08005KT 10SM CLR 23/M11 A3009 2140 09 3600 070/05 RMK AO2 $
53144K9L2 9L220160405193010204/05/16 19:30:31  5-MIN K9L2 060330Z AUTO 11004KT 10SM CLR 23/M11 A3010 2140 09 3600 100/04 RMK AO2 $
53144K9L2 9L220160405193510204/05/16 19:35:31  5-MIN K9L2 060335Z AUTO 10006KT 10SM CLR 23/M11 A3010 2140 10 3600 090/06 RMK AO2 $
53144K9L2 9L220160405194010204/05/16 19:40:31  5-MIN K9L2 060340Z AUTO 09003KT 10SM CLR 23/M11 A3010 2140 09 3600 080/03 RMK AO2 $
53144K9L2 9L220160405194510204/05/16 19:45:31  5-MIN K9L2 060345Z AUTO 08006KT 10SM CLR 23/M11 A3010 2130 09 3600 070/06 RMK AO2 $
53144K9L2 9L220160405195010204/05/16 19:50:31  5-MIN K9L2 060350Z AUTO 06005KT 10SM CLR 23/M11 A3011 2130 09 3600 050/05 RMK AO2 $
53144K9L2 9L220160405195511904/05/16 19:55:31  5-MIN K9L2 060355Z AUTO 06004KT 10SM CLR 21/M11 A3011 2130 10 3400 050/04 RMK AO2 SLP187 T02111111 $
53144K9L2 9L220160405200010204/05/16 20:00:31  5-MIN K9L2 060400Z AUTO 07005KT 10SM CLR 21/M11 A3011 2130 10 3400 060/05 RMK AO2 $
53144K9L2 9L220160405200510204/05/16 20:05:31  5-MIN K9L2 060405Z AUTO 07005KT 10SM CLR 21/M11 A3011 2130 10 3400 060/05 RMK AO2 $
53144K9L2 9L220160405201010204/05/16 20:10:31  5-MIN K9L2 060410Z AUTO 07006KT 10SM CLR 21/M11 A3011 2120 10 3400 060/06 RMK AO2 $
53144K9L2 9L220160405201510204/05/16 20:15:31  5-MIN K9L2 060415Z AUTO 08007KT 10SM CLR 22/M11 A3012 2120 10 3400 070/07 RMK AO2 $
53144K9L2 9L220160405202010204/05/16 20:20:31  5-MIN K9L2 060420Z AUTO 08006KT 10SM CLR 22/M11 A3012 2120 10 3400 070/06 RMK AO2 $
53144K9L2 9L220160405202510204/05/16 20:25:31  5-MIN K9L2 060425Z AUTO 08006KT 10SM CLR 21/M11 A3012 2120 10 3300 060/06 RMK AO2 $
53144K9L2 9L220160405203010204/05/16 20:30:31  5-MIN K9L2 060430Z AUTO 07004KT 10SM CLR 21/M11 A3012 2110 11 3300 060/04 RMK AO2 $
53144K9L2 9L220160405203510204/05/16 20:35:31  5-MIN K9L2 060435Z AUTO 34004KT 10SM CLR 19/M11 A3013 2110 12 3100 330/04 RMK AO2 $
53144K9L2 9L220160405204010204/05/16 20:40:31  5-MIN K9L2 060440Z AUTO 35006KT 10SM CLR 19/M11 A3013 2110 12 3100 340/06 RMK AO2 $
53144K9L2 9L220160405204510204/05/16 20:45:31  5-MIN K9L2 060445Z AUTO 36005KT 10SM CLR 19/M11 A3014 2100 12 3100 350/05 RMK AO2 $
53144K9L2 9L220160405205010204/05/16 20:50:31  5-MIN K9L2 060450Z AUTO 02004KT 10SM CLR 21/M11 A3014 2100 11 3300 010/04 RMK AO2 $
53144K9L2 9L220160405205511904/05/16 20:55:31  5-MIN K9L2 060455Z AUTO 35004KT 10SM CLR 21/M11 A3014 2100 11 3300 340/04 RMK AO2 SLP197 T02061111 $
53144K9L2 9L220160405210010204/05/16 21:00:31  5-MIN K9L2 060500Z AUTO 36005KT 10SM CLR 19/M11 A3014 2100 11 3100 350/05 RMK AO2 $
53144K9L2 9L220160405210510204/05/16 21:05:31  5-MIN K9L2 060505Z AUTO 01006KT 10SM CLR 19/M11 A3014 2100 12 3100 360/06 RMK AO2 $
53144K9L2 9L220160405211010204/05/16 21:10:31  5-MIN K9L2 060510Z AUTO 01006KT 10SM CLR 19/M11 A3014 2100 12 3100 360/06 RMK AO2 $
53144K9L2 9L220160405211510204/05/16 21:15:31  5-MIN K9L2 060515Z AUTO 36005KT 10SM CLR 19/M11 A3015 2090 12 3100 350/05 RMK AO2 $
53144K9L2 9L220160405212010204/05/16 21:20:31  5-MIN K9L2 060520Z AUTO 34005KT 10SM CLR 19/M11 A3015 2100 12 3100 330/05 RMK AO2 $
53144K9L2 9L220160405212510204/05/16 21:25:31  5-MIN K9L2 060525Z AUTO 34004KT 10SM CLR 18/M11 A3015 2090 12 3000 330/04 RMK AO2 $
53144K9L2 9L220160405213010204/05/16 21:30:31  5-MIN K9L2 060530Z AUTO 33005KT 10SM CLR 17/M11 A3015 2090 13 2900 320/05 RMK AO2 $
53144K9L2 9L220160405213510204/05/16 21:35:31  5-MIN K9L2 060535Z AUTO 32006KT 10SM CLR 16/M11 A3015 2090 14 2700 310/06 RMK AO2 $
53144K9L2 9L220160405214010204/05/16 21:40:31  5-MIN K9L2 060540Z AUTO 33006KT 10SM CLR 16/M11 A3015 2090 15 2700 310/06 RMK AO2 $
53144K9L2 9L220160405214510204/05/16 21:45:31  5-MIN K9L2 060545Z AUTO 33005KT 10SM CLR 16/M11 A3015 2090 15 2700 320/05 RMK AO2 $
53144K9L2 9L220160405215010204/05/16 21:50:31  5-MIN K9L2 060550Z AUTO 33006KT 10SM CLR 16/M11 A3015 2090 15 2700 310/06 RMK AO2 $
53144K9L2 9L220160405215513704/05/16 21:55:31  5-MIN K9L2 060555Z AUTO 33007KT 10SM CLR 16/M11 A3015 2090 15 2700 310/07 RMK AO2 SLP201 T01561111 10317 20156 53009 $
53144K9L2 9L220160405220010204/05/16 22:00:31  5-MIN K9L2 060600Z AUTO 33006KT 10SM CLR 16/M11 A3015 2090 15 2700 320/06 RMK AO2 $
53144K9L2 9L220160405220510204/05/16 22:05:31  5-MIN K9L2 060605Z AUTO 34006KT 10SM CLR 16/M11 A3015 2090 14 2700 320/06 RMK AO2 $
53144K9L2 9L220160405221010204/05/16 22:10:31  5-MIN K9L2 060610Z AUTO VRB05KT 10SM CLR 16/M11 A3016 2080 15 2700 VRB/05 RMK AO2 $
53144K9L2 9L220160405221510204/05/16 22:15:31  5-MIN K9L2 060615Z AUTO 00000KT 10SM CLR 17/M11 A3016 2080 13 2900 000/00 RMK AO2 $
53144K9L2 9L220160405222010204/05/16 22:20:31  5-MIN K9L2 060620Z AUTO 00000KT 10SM CLR 17/M11 A3016 2080 13 2900 000/00 RMK AO2 $
53144K9L2 9L220160405222510204/05/16 22:25:31  5-MIN K9L2 060625Z AUTO 32004KT 10SM CLR 16/M11 A3016 2080 14 2700 310/04 RMK AO2 $
53144K9L2 9L220160405223010204/05/16 22:30:31  5-MIN K9L2 060630Z AUTO 32003KT 10SM CLR 16/M11 A3016 2080 15 2700 310/03 RMK AO2 $
53144K9L2 9L220160405223510204/05/16 22:35:31  5-MIN K9L2 060635Z AUTO 33003KT 10SM CLR 16/M11 A3016 2080 15 2700 310/03 RMK AO2 $
53144K9L2 9L220160405224010204/05/16 22:40:31  5-MIN K9L2 060640Z AUTO 33004KT 10SM CLR 17/M11 A3016 2080 14 2800 310/04 RMK AO2 $
53144K9L2 9L220160405224510204/05/16 22:45:31  5-MIN K9L2 060645Z AUTO 33003KT 10SM CLR 17/M11 A3016 2080 14 2800 320/03 RMK AO2 $
53144K9L2 9L220160405225010204/05/16 22:50:31  5-MIN K9L2 060650Z AUTO 00000KT 10SM CLR 17/M11 A3016 2090 14 2800 000/00 RMK AO2 $
53144K9L2 9L220160405225511904/05/16 22:55:31  5-MIN K9L2 060655Z AUTO 30003KT 10SM CLR 16/M11 A3016 2090 15 2700 280/03 RMK AO2 SLP200 T01561106 $
53144K9L2 9L220160405230010204/05/16 23:00:31  5-MIN K9L2 060700Z AUTO 29004KT 10SM CLR 15/M11 A3016 2080 16 2600 280/04 RMK AO2 $
53144K9L2 9L220160405230510204/05/16 23:05:31  5-MIN K9L2 060705Z AUTO 24003KT 10SM CLR 14/M11 A3016 2080 16 2500 230/03 RMK AO2 $
53144K9L2 9L220160405231010204/05/16 23:10:31  5-MIN K9L2 060710Z AUTO 00000KT 10SM CLR 14/M11 A3016 2080 16 2500 000/00 RMK AO2 $
53144K9L2 9L220160405231510204/05/16 23:15:31  5-MIN K9L2 060715Z AUTO 00000KT 10SM CLR 14/M11 A3016 2080 16 2500 000/00 RMK AO2 $
53144K9L2 9L220160405232010204/05/16 23:20:31  5-MIN K9L2 060720Z AUTO 00000KT 10SM CLR 14/M11 A3016 2080 16 2500 000/00 RMK AO2 $
53144K9L2 9L220160405232510204/05/16 23:25:31  5-MIN K9L2 060725Z AUTO 32003KT 10SM CLR 14/M11 A3016 2080 16 2500 310/03 RMK AO2 $
53144K9L2 9L220160405233010204/05/16 23:30:31  5-MIN K9L2 060730Z AUTO 00000KT 10SM CLR 14/M11 A3016 2080 17 2500 000/00 RMK AO2 $
53144K9L2 9L220160405233510204/05/16 23:35:31  5-MIN K9L2 060735Z AUTO 30003KT 10SM CLR 14/M11 A3016 2080 17 2500 280/03 RMK AO2 $
53144K9L2 9L220160405234010204/05/16 23:40:31  5-MIN K9L2 060740Z AUTO 33004KT 10SM CLR 14/M11 A3016 2080 17 2500 310/04 RMK AO2 $
53144K9L2 9L220160405234510204/05/16 23:45:31  5-MIN K9L2 060745Z AUTO 33003KT 10SM CLR 13/M11 A3016 2080 18 2400 320/03 RMK AO2 $
53144K9L2 9L220160405235010204/05/16 23:50:31  5-MIN K9L2 060750Z AUTO 00000KT 10SM CLR 13/M10 A3016 2080 19 2400 000/00 RMK AO2 $
53144K9L2 9L220160405235512904/05/16 23:55:31  5-MIN K9L2 060755Z AUTO 30004KT 10SM CLR 14/M10 A3017 2080 18 2500 280/04 RMK AO2 SLP203 T01391100 403170056 $
53144K9L2 9L220160406000010204/06/16 00:00:31  5-MIN K9L2 060800Z AUTO 30005KT 10SM CLR 13/M11 A3017 2080 18 2300 280/05 RMK AO2 $
53144K9L2 9L220160406000510204/06/16 00:05:31  5-MIN K9L2 060805Z AUTO VRB03KT 10SM CLR 13/M11 A3017 2070 18 2400 VRB/03 RMK AO2 $
53144K9L2 9L220160406001010204/06/16 00:10:31  5-MIN K9L2 060810Z AUTO 30004KT 10SM CLR 13/M11 A3017 2070 18 2400 290/04 RMK AO2 $
53144K9L2 9L220160406001510204/06/16 00:15:31  5-MIN K9L2 060815Z AUTO VRB03KT 10SM CLR 13/M11 A3017 2070 18 2300 VRB/03 RMK AO2 $
53144K9L2 9L220160406002010204/06/16 00:20:31  5-MIN K9L2 060820Z AUTO 00000KT 10SM CLR 14/M10 A3017 2070 18 2500 000/00 RMK AO2 $
53144K9L2 9L220160406002510204/06/16 00:25:31  5-MIN K9L2 060825Z AUTO 00000KT 10SM CLR 14/M11 A3017 2070 17 2500 000/00 RMK AO2 $
53144K9L2 9L220160406003010204/06/16 00:30:31  5-MIN K9L2 060830Z AUTO 34003KT 10SM CLR 14/M10 A3017 2070 18 2500 330/03 RMK AO2 $
53144K9L2 9L220160406003510204/06/16 00:35:31  5-MIN K9L2 060835Z AUTO 00000KT 10SM CLR 14/M09 A3017 2070 19 2500 000/00 RMK AO2 $
53144K9L2 9L220160406004010204/06/16 00:40:31  5-MIN K9L2 060840Z AUTO 00000KT 10SM CLR 14/M09 A3017 2070 20 2500 000/00 RMK AO2 $
53144K9L2 9L220160406004510204/06/16 00:45:31  5-MIN K9L2 060845Z AUTO 30004KT 10SM CLR 13/M08 A3017 2070 21 2400 290/04 RMK AO2 $
53144K9L2 9L220160406005010204/06/16 00:50:31  5-MIN K9L2 060850Z AUTO 27007KT 10SM CLR 13/M08 A3017 2070 22 2400 260/07 RMK AO2 $
53144K9L2 9L220160406005512504/06/16 00:55:31  5-MIN K9L2 060855Z AUTO 26005KT 10SM CLR 13/M07 A3017 2070 23 2400 250/05 RMK AO2 SLP203 T01331072 51022 $
53144K9L2 9L220160406010010204/06/16 01:00:31  5-MIN K9L2 060900Z AUTO 28006KT 10SM CLR 13/M07 A3017 2070 23 2400 270/06 RMK AO2 $
53144K9L2 9L220160406010510204/06/16 01:05:31  5-MIN K9L2 060905Z AUTO 31003KT 10SM CLR 13/M08 A3017 2080 23 2300 300/03 RMK AO2 $
53144K9L2 9L220160406011010204/06/16 01:10:31  5-MIN K9L2 060910Z AUTO 00000KT 10SM CLR 12/M08 A3017 2070 24 2300 000/00 RMK AO2 $
53144K9L2 9L220160406011510204/06/16 01:15:31  5-MIN K9L2 060915Z AUTO 00000KT 10SM CLR 12/M08 A3017 2070 24 2300 000/00 RMK AO2 $
53144K9L2 9L220160406012010204/06/16 01:20:31  5-MIN K9L2 060920Z AUTO 00000KT 10SM CLR 12/M08 A3017 2070 24 2300 000/00 RMK AO2 $
53144K9L2 9L220160406012510204/06/16 01:25:31  5-MIN K9L2 060925Z AUTO 00000KT 10SM CLR 12/M08 A3017 2070 25 2200 000/00 RMK AO2 $
53144K9L2 9L220160406013010204/06/16 01:30:31  5-MIN K9L2 060930Z AUTO 00000KT 10SM CLR 12/M08 A3017 2070 24 2300 000/00 RMK AO2 $
53144K9L2 9L220160406013510204/06/16 01:35:31  5-MIN K9L2 060935Z AUTO 00000KT 10SM CLR 12/M08 A3018 2070 25 2200 000/00 RMK AO2 $
53144K9L2 9L220160406014010204/06/16 01:40:31  5-MIN K9L2 060940Z AUTO 00000KT 10SM CLR 12/M08 A3017 2070 25 2200 000/00 RMK AO2 $
53144K9L2 9L220160406014510204/06/16 01:45:31  5-MIN K9L2 060945Z AUTO 00000KT 10SM CLR 11/M08 A3017 2070 26 2100 000/00 RMK AO2 $
53144K9L2 9L220160406015010204/06/16 01:50:31  5-MIN K9L2 060950Z AUTO 00000KT 10SM CLR 11/M08 A3017 2070 26 2100 000/00 RMK AO2 $
53144K9L2 9L220160406015511904/06/16 01:55:31  5-MIN K9L2 060955Z AUTO 00000KT 10SM CLR 11/M08 A3017 2070 27 2100 000/00 RMK AO2 SLP206 T01061078 $
53144K9L2 9L220160406020010204/06/16 02:00:31  5-MIN K9L2 061000Z AUTO 00000KT 10SM CLR 11/M08 A3018 2070 26 2100 000/00 RMK AO2 $
53144K9L2 9L220160406020510204/06/16 02:05:31  5-MIN K9L2 061005Z AUTO 00000KT 10SM CLR 11/M08 A3018 2070 26 2100 000/00 RMK AO2 $
53144K9L2 9L220160406021010204/06/16 02:10:31  5-MIN K9L2 061010Z AUTO 00000KT 10SM CLR 11/M08 A3018 2070 27 2100 000/00 RMK AO2 $
53144K9L2 9L220160406021510204/06/16 02:15:31  5-MIN K9L2 061015Z AUTO 00000KT 10SM CLR 10/M08 A3018 2070 26 2000 000/00 RMK AO2 $
53144K9L2 9L220160406022010204/06/16 02:20:31  5-MIN K9L2 061020Z AUTO 00000KT 10SM CLR 11/M08 A3018 2070 27 2100 000/00 RMK AO2 $
53144K9L2 9L220160406022510204/06/16 02:25:31  5-MIN K9L2 061025Z AUTO 00000KT 10SM CLR 11/M08 A3018 2070 27 2100 000/00 RMK AO2 $
53144K9L2 9L220160406023010204/06/16 02:30:31  5-MIN K9L2 061030Z AUTO 00000KT 10SM CLR 10/M08 A3018 2060 28 2000 000/00 RMK AO2 $
53144K9L2 9L220160406023510204/06/16 02:35:31  5-MIN K9L2 061035Z AUTO 00000KT 10SM CLR 10/M08 A3018 2060 28 2000 000/00 RMK AO2 $
53144K9L2 9L220160406024010204/06/16 02:40:31  5-MIN K9L2 061040Z AUTO 31004KT 10SM CLR 10/M08 A3018 2070 28 2000 300/04 RMK AO2 $
53144K9L2 9L220160406024510204/06/16 02:45:31  5-MIN K9L2 061045Z AUTO 30003KT 10SM CLR 10/M08 A3018 2070 28 2000 280/03 RMK AO2 $
53144K9L2 9L220160406025010204/06/16 02:50:31  5-MIN K9L2 061050Z AUTO 32005KT 10SM CLR 10/M08 A3018 2060 28 2000 300/05 RMK AO2 $
53144K9L2 9L220160406025511904/06/16 02:55:31  5-MIN K9L2 061055Z AUTO 33005KT 10SM CLR 10/M08 A3018 2060 28 2000 320/05 RMK AO2 SLP208 T01001078 $
53144K9L2 9L220160406030010204/06/16 03:00:31  5-MIN K9L2 061100Z AUTO 34006KT 10SM CLR 10/M08 A3018 2060 26 2000 330/06 RMK AO2 $
53144K9L2 9L220160406030510204/06/16 03:05:31  5-MIN K9L2 061105Z AUTO 36006KT 10SM CLR 09/M08 A3018 2060 29 1900 350/06 RMK AO2 $
53144K9L2 9L220160406031010204/06/16 03:10:31  5-MIN K9L2 061110Z AUTO 36007KT 10SM CLR 09/M07 A3018 2070 30 1900 340/07 RMK AO2 $
53144K9L2 9L220160406031510204/06/16 03:15:31  5-MIN K9L2 061115Z AUTO 36006KT 10SM CLR 10/M06 A3018 2060 31 2000 340/06 RMK AO2 $
53144K9L2 9L220160406032010204/06/16 03:20:31  5-MIN K9L2 061120Z AUTO 02003KT 10SM CLR 10/M06 A3018 2060 33 2000 010/03 RMK AO2 $
53144K9L2 9L220160406032510204/06/16 03:25:31  5-MIN K9L2 061125Z AUTO 03005KT 10SM CLR 09/M06 A3018 2060 34 1900 020/05 RMK AO2 $
53144K9L2 9L220160406033010204/06/16 03:30:31  5-MIN K9L2 061130Z AUTO 09003KT 10SM CLR 10/M05 A3018 2060 34 2000 080/03 RMK AO2 $
53144K9L2 9L220160406033510204/06/16 03:35:31  5-MIN K9L2 061135Z AUTO 13004KT 10SM CLR 10/M05 A3019 2060 34 2000 120/04 RMK AO2 $
53144K9L2 9L220160406034010204/06/16 03:40:31  5-MIN K9L2 061140Z AUTO 14004KT 10SM CLR 10/M06 A3019 2060 33 2000 120/04 RMK AO2 $
53144K9L2 9L220160406034510204/06/16 03:45:31  5-MIN K9L2 061145Z AUTO 00000KT 10SM CLR 10/M06 A3018 2060 33 2000 000/00 RMK AO2 $
53144K9L2 9L220160406035010204/06/16 03:50:31  5-MIN K9L2 061150Z AUTO 00000KT 10SM CLR 10/M06 A3018 2060 33 2000 000/00 RMK AO2 $
53144K9L2 9L220160406035513704/06/16 03:55:31  5-MIN K9L2 061155Z AUTO 02004KT 10SM CLR 10/M06 A3018 2060 33 2000 360/04 RMK AO2 SLP208 T01001056 10183 20094 51006 $
53144K9L2 9L220160406040010204/06/16 04:00:31  5-MIN K9L2 061200Z AUTO 00000KT 10SM CLR 10/M06 A3018 2060 33 2000 000/00 RMK AO2 $
53144K9L2 9L220160406040510204/06/16 04:05:31  5-MIN K9L2 061205Z AUTO 00000KT 10SM CLR 10/M06 A3018 2060 33 2000 000/00 RMK AO2 $
53144K9L2 9L220160406041010204/06/16 04:10:31  5-MIN K9L2 061210Z AUTO 00000KT 10SM CLR 09/M06 A3019 2060 34 1900 000/00 RMK AO2 $
53144K9L2 9L220160406041510204/06/16 04:15:31  5-MIN K9L2 061215Z AUTO 21004KT 10SM CLR 09/M06 A3019 2050 34 1800 190/04 RMK AO2 $
53144K9L2 9L220160406042010204/06/16 04:20:31  5-MIN K9L2 061220Z AUTO 00000KT 10SM CLR 08/M07 A3019 2050 32 1800 000/00 RMK AO2 $
53144K9L2 9L220160406042510204/06/16 04:25:31  5-MIN K9L2 061225Z AUTO 00000KT 10SM CLR 08/M07 A3019 2050 34 1800 000/00 RMK AO2 $
53144K9L2 9L220160406043010204/06/16 04:30:31  5-MIN K9L2 061230Z AUTO 00000KT 10SM CLR 08/M07 A3019 2060 32 1800 000/00 RMK AO2 $
53144K9L2 9L220160406043510204/06/16 04:35:31  5-MIN K9L2 061235Z AUTO 00000KT 10SM CLR 08/M07 A3019 2050 32 1800 000/00 RMK AO2 $
53144K9L2 9L220160406044010204/06/16 04:40:31  5-MIN K9L2 061240Z AUTO 00000KT 10SM CLR 08/M07 A3019 2050 32 1800 000/00 RMK AO2 $
53144K9L2 9L220160406044510204/06/16 04:45:31  5-MIN K9L2 061245Z AUTO 21003KT 10SM CLR 09/M07 A3020 2050 31 1800 200/03 RMK AO2 $
53144K9L2 9L220160406045010204/06/16 04:50:31  5-MIN K9L2 061250Z AUTO 21003KT 10SM CLR 08/M07 A3020 2050 32 1800 200/03 RMK AO2 $
53144K9L2 9L220160406045511904/06/16 04:55:31  5-MIN K9L2 061255Z AUTO 00000KT 10SM CLR 08/M07 A3019 2050 32 1800 000/00 RMK AO2 SLP215 T00831072 $
53144K9L2 9L220160406050010204/06/16 05:00:31  5-MIN K9L2 061300Z AUTO 00000KT 10SM CLR 08/M07 A3019 2050 34 1700 000/00 RMK AO2 $
53144K9L2 9L220160406050510204/06/16 05:05:31  5-MIN K9L2 061305Z AUTO 00000KT 10SM CLR 08/M07 A3019 2050 32 1800 000/00 RMK AO2 $
53144K9L2 9L220160406051010204/06/16 05:10:31  5-MIN K9L2 061310Z AUTO 00000KT 10SM CLR 09/M07 A3020 2050 32 1800 000/00 RMK AO2 $
53144K9L2 9L220160406051510204/06/16 05:15:31  5-MIN K9L2 061315Z AUTO 00000KT 10SM CLR 09/M07 A3019 2050 32 1800 000/00 RMK AO2 $
53144K9L2 9L220160406052010204/06/16 05:20:31  5-MIN K9L2 061320Z AUTO 00000KT 10SM CLR 09/M07 A3020 2050 32 1800 000/00 RMK AO2 $
53144K9L2 9L220160406052510204/06/16 05:25:31  5-MIN K9L2 061325Z AUTO 00000KT 10SM CLR 08/M07 A3020 2050 32 1800 000/00 RMK AO2 $
53144K9L2 9L220160406053010204/06/16 05:30:31  5-MIN K9L2 061330Z AUTO 00000KT 10SM CLR 09/M07 A3020 2040 32 1800 000/00 RMK AO2 $
53144K9L2 9L220160406053510204/06/16 05:35:31  5-MIN K9L2 061335Z AUTO 00000KT 10SM CLR 08/M07 A3020 2040 32 1800 000/00 RMK AO2 $
53144K9L2 9L220160406054010204/06/16 05:40:31  5-MIN K9L2 061340Z AUTO 00000KT 10SM CLR 08/M07 A3020 2050 34 1700 000/00 RMK AO2 $
53144K9L2 9L220160406054510204/06/16 05:45:31  5-MIN K9L2 061345Z AUTO 00000KT 10SM CLR 08/M07 A3020 2040 32 1800 000/00 RMK AO2 $
53144K9L2 9L220160406055010204/06/16 05:50:31  5-MIN K9L2 061350Z AUTO 00000KT 10SM CLR 08/M07 A3020 2040 34 1800 000/00 RMK AO2 $
53144K9L2 9L220160406055511904/06/16 05:55:31  5-MIN K9L2 061355Z AUTO 00000KT 10SM CLR 08/M07 A3020 2040 34 1800 000/00 RMK AO2 SLP219 T00831067 $
53144K9L2 9L220160406060010204/06/16 06:00:31  5-MIN K9L2 061400Z AUTO 00000KT 10SM CLR 09/M07 A3020 2040 32 1800 000/00 RMK AO2 $
53144K9L2 9L220160406060510204/06/16 06:05:31  5-MIN K9L2 061405Z AUTO 00000KT 10SM CLR 09/M06 A3021 2040 34 1800 000/00 RMK AO2 $
53144K9L2 9L220160406061010204/06/16 06:10:31  5-MIN K9L2 061410Z AUTO 00000KT 10SM CLR 09/M06 A3021 2030 33 1900 000/00 RMK AO2 $
53144K9L2 9L220160406061510204/06/16 06:15:31  5-MIN K9L2 061415Z AUTO 00000KT 10SM CLR 10/M06 A3021 2030 31 2000 000/00 RMK AO2 $
53144K9L2 9L220160406062010204/06/16 06:20:31  5-MIN K9L2 061420Z AUTO 00000KT 10SM CLR 11/M06 A3021 2030 31 2000 000/00 RMK AO2 $
53144K9L2 9L220160406062510204/06/16 06:25:31  5-MIN K9L2 061425Z AUTO 00000KT 10SM CLR 11/M06 A3022 2030 31 2000 000/00 RMK AO2 $
53144K9L2 9L220160406063010204/06/16 06:30:31  5-MIN K9L2 061430Z AUTO 00000KT 10SM CLR 11/M06 A3021 2030 30 2100 000/00 RMK AO2 $
53144K9L2 9L220160406063510204/06/16 06:35:31  5-MIN K9L2 061435Z AUTO 00000KT 10SM CLR 11/M06 A3022 2030 29 2100 000/00 RMK AO2 $
53144K9L2 9L220160406064010204/06/16 06:40:31  5-MIN K9L2 061440Z AUTO 00000KT 10SM CLR 12/M06 A3022 2030 28 2100 000/00 RMK AO2 $
53144K9L2 9L220160406064510204/06/16 06:45:31  5-MIN K9L2 061445Z AUTO 00000KT 10SM CLR 12/M05 A3022 2030 29 2200 000/00 RMK AO2 $
53144K9L2 9L220160406065010204/06/16 06:50:31  5-MIN K9L2 061450Z AUTO 00000KT 10SM CLR 12/M05 A3022 2030 29 2200 000/00 RMK AO2 $
53144K9L2 9L220160406065512504/06/16 06:55:31  5-MIN K9L2 061455Z AUTO 00000KT 10SM CLR 13/M05 A3022 2020 28 2300 000/00 RMK AO2 SLP226 T01281050 50003 $
53144K9L2 9L220160406070010204/06/16 07:00:31  5-MIN K9L2 061500Z AUTO 00000KT 10SM CLR 13/M05 A3022 2020 27 2300 000/00 RMK AO2 $
53144K9L2 9L220160406070510204/06/16 07:05:31  5-MIN K9L2 061505Z AUTO 00000KT 10SM CLR 14/M05 A3023 2020 26 2400 000/00 RMK AO2 $
53144K9L2 9L220160406071010204/06/16 07:10:31  5-MIN K9L2 061510Z AUTO 19004KT 10SM CLR 14/M05 A3023 2020 26 2400 180/04 RMK AO2 $
53144K9L2 9L220160406071510204/06/16 07:15:31  5-MIN K9L2 061515Z AUTO 00000KT 10SM CLR 14/M04 A3023 2020 27 2400 000/00 RMK AO2 $
53144K9L2 9L220160406072010204/06/16 07:20:31  5-MIN K9L2 061520Z AUTO 00000KT 10SM CLR 16/M04 A3023 2020 25 2600 000/00 RMK AO2 $
53144K9L2 9L220160406072510204/06/16 07:25:31  5-MIN K9L2 061525Z AUTO 00000KT 10SM CLR 17/M05 A3023 2020 22 2700 000/00 RMK AO2 $
53144K9L2 9L220160406073010204/06/16 07:30:31  5-MIN K9L2 061530Z AUTO 00000KT 10SM CLR 17/M04 A3023 2020 23 2700 000/00 RMK AO2 $
53144K9L2 9L220160406073510204/06/16 07:35:31  5-MIN K9L2 061535Z AUTO 00000KT 10SM CLR 17/M04 A3023 2020 24 2700 000/00 RMK AO2 $
53144K9L2 9L220160406074010204/06/16 07:40:31  5-MIN K9L2 061540Z AUTO 16003KT 10SM CLR 17/M04 A3023 2020 24 2700 140/03 RMK AO2 $
53144K9L2 9L220160406074510204/06/16 07:45:31  5-MIN K9L2 061545Z AUTO 00000KT 10SM CLR 16/M04 A3023 2020 24 2700 000/00 RMK AO2 $
53144K9L2 9L220160406075010204/06/16 07:50:31  5-MIN K9L2 061550Z AUTO 00000KT 10SM CLR 16/M04 A3023 2020 24 2700 000/00 RMK AO2 $
53144K9L2 9L220160406075511904/06/16 07:55:31  5-MIN K9L2 061555Z AUTO 00000KT 10SM CLR 17/M04 A3023 2020 23 2700 000/00 RMK AO2 SLP228 T01671044 $
53144K9L2 9L220160406080010204/06/16 08:00:31  5-MIN K9L2 061600Z AUTO 00000KT 10SM CLR 17/M05 A3023 2020 21 2800 000/00 RMK AO2 $
53144K9L2 9L220160406080510204/06/16 08:05:31  5-MIN K9L2 061605Z AUTO 16003KT 10SM CLR 18/M06 A3023 2020 20 2800 150/03 RMK AO2 $
53144K9L2 9L220160406081010204/06/16 08:10:31  5-MIN K9L2 061610Z AUTO 17004KT 10SM CLR 18/M06 A3023 2020 19 2800 160/04 RMK AO2 $
53144K9L2 9L220160406081510204/06/16 08:15:31  5-MIN K9L2 061615Z AUTO 18004KT 10SM CLR 18/M06 A3023 2020 19 2900 160/04 RMK AO2 $
53144K9L2 9L220160406082010204/06/16 08:20:31  5-MIN K9L2 061620Z AUTO 19003KT 10SM CLR 18/M06 A3023 2020 18 2900 180/03 RMK AO2 $
53144K9L2 9L220160406082510204/06/16 08:25:31  5-MIN K9L2 061625Z AUTO 00000KT 10SM CLR 19/M06 A3023 2020 17 3000 000/00 RMK AO2 $
53144K9L2 9L220160406083010204/06/16 08:30:31  5-MIN K9L2 061630Z AUTO 00000KT 10SM CLR 19/M07 A3023 2020 16 3000 000/00 RMK AO2 $
53144K9L2 9L220160406083510204/06/16 08:35:31  5-MIN K9L2 061635Z AUTO 00000KT 10SM CLR 21/M07 A3023 2010 15 3200 000/00 RMK AO2 $
53144K9L2 9L220160406084010204/06/16 08:40:31  5-MIN K9L2 061640Z AUTO 00000KT 10SM CLR 21/M07 A3023 2020 15 3200 000/00 RMK AO2 $
53144K9L2 9L220160406084510204/06/16 08:45:31  5-MIN K9L2 061645Z AUTO 00000KT 10SM CLR 21/M07 A3023 2020 15 3200 000/00 RMK AO2 $
53144K9L2 9L220160406085010204/06/16 08:50:31  5-MIN K9L2 061650Z AUTO 00000KT 10SM CLR 22/M07 A3023 2020 13 3300 000/00 RMK AO2 $
53144K9L2 9L220160406085511904/06/16 08:55:31  5-MIN K9L2 061655Z AUTO 00000KT 10SM CLR 22/M07 A3023 2020 14 3400 000/00 RMK AO2 SLP224 T02221067 $
53144K9L2 9L220160406090010204/06/16 09:00:31  5-MIN K9L2 061700Z AUTO 00000KT 10SM CLR 22/M07 A3023 2020 13 3300 000/00 RMK AO2 $
53144K9L2 9L220160406090510204/06/16 09:05:31  5-MIN K9L2 061705Z AUTO 00000KT 10SM CLR 22/M07 A3023 2020 14 3400 000/00 RMK AO2 $
53144K9L2 9L220160406091010204/06/16 09:10:31  5-MIN K9L2 061710Z AUTO 00000KT 10SM CLR 22/M07 A3023 2020 14 3400 000/00 RMK AO2 $
53144K9L2 9L220160406091510204/06/16 09:15:31  5-MIN K9L2 061715Z AUTO 00000KT 10SM CLR 22/M07 A3023 2020 13 3400 000/00 RMK AO2 $
53144K9L2 9L220160406092010204/06/16 09:20:31  5-MIN K9L2 061720Z AUTO 00000KT 10SM CLR 23/M07 A3023 2020 13 3400 000/00 RMK AO2 $
53144K9L2 9L220160406092510204/06/16 09:25:31  5-MIN K9L2 061725Z AUTO 15003KT 10SM CLR 23/M07 A3023 2020 13 3500 130/03 RMK AO2 $
53144K9L2 9L220160406093010204/06/16 09:30:31  5-MIN K9L2 061730Z AUTO 14003KT 10SM CLR 23/M07 A3022 2020 13 3500 130/03 RMK AO2 $
53144K9L2 9L220160406093510204/06/16 09:35:31  5-MIN K9L2 061735Z AUTO 00000KT 10SM CLR 23/M07 A3022 2020 13 3500 000/00 RMK AO2 $
53144K9L2 9L220160406094010204/06/16 09:40:31  5-MIN K9L2 061740Z AUTO 15003KT 10SM CLR 23/M07 A3022 2030 13 3500 140/03 RMK AO2 $
53144K9L2 9L220160406094510204/06/16 09:45:31  5-MIN K9L2 061745Z AUTO 00000KT 10SM CLR 24/M07 A3022 2030 12 3600 000/00 RMK AO2 $
53144K9L2 9L220160406095010204/06/16 09:50:31  5-MIN K9L2 061750Z AUTO 14003KT 10SM CLR 24/M07 A3022 2030 12 3600 130/03 RMK AO2 $
53144K9L2 9L220160406095513704/06/16 09:55:31  5-MIN K9L2 061755Z AUTO VRB03KT 10SM CLR 25/M07 A3022 2030 11 3700 VRB/03 RMK AO2 SLP222 T02501067 10250 20072 53014 $
53144K9L2 9L220160406100010204/06/16 10:00:31  5-MIN K9L2 061800Z AUTO 13003KT 10SM CLR 26/M07 A3022 2030 11 3700 110/03 RMK AO2 $
53144K9L2 9L220160406100510204/06/16 10:05:31  5-MIN K9L2 061805Z AUTO VRB03KT 10SM CLR 26/M07 A3022 2030 11 3800 VRB/03 RMK AO2 $
53144K9L2 9L220160406101010204/06/16 10:10:31  5-MIN K9L2 061810Z AUTO 00000KT 10SM CLR 27/M07 A3022 2030 10 3900 000/00 RMK AO2 $
53144K9L2 9L220160406101510204/06/16 10:15:31  5-MIN K9L2 061815Z AUTO 10004KT 10SM CLR 27/M08 A3021 2030 09 3900 090/04 RMK AO2 $
53144K9L2 9L220160406102011804/06/16 10:20:31  5-MIN K9L2 061820Z AUTO 08007KT 040V110 10SM CLR 28/M08 A3021 2040 09 4100 060/07 030V100 RMK AO2 $
53144K9L2 9L220160406102510204/06/16 10:25:31  5-MIN K9L2 061825Z AUTO 08009KT 10SM CLR 29/M08 A3021 2040 08 4100 070/09 RMK AO2 $
53144K9L2 9L220160406103010204/06/16 10:30:31  5-MIN K9L2 061830Z AUTO 07008KT 10SM CLR 29/M08 A3020 2050 08 4100 060/08 RMK AO2 $
53144K9L2 9L220160406103512404/06/16 10:35:31  5-MIN K9L2 061835Z AUTO 06011G18KT 040V110 10SM CLR 29/M08 A3020 2050 08 4200 040/11G18 030V100 RMK AO2 $
53144K9L2 9L220160406104010804/06/16 10:40:31  5-MIN K9L2 061840Z AUTO 10012G18KT 10SM CLR 30/M08 A3020 2050 07 4300 080/12G18 RMK AO2 $
53144K9L2 9L220160406104510804/06/16 10:45:31  5-MIN K9L2 061845Z AUTO 08007G17KT 10SM CLR 29/M08 A3020 2050 08 4100 070/07G17 RMK AO2 $
53144K9L2 9L220160406105010804/06/16 10:50:31  5-MIN K9L2 061850Z AUTO 06008G17KT 10SM CLR 29/M08 A3019 2050 08 4200 040/08G17 RMK AO2 $
53144K9L2 9L220160406105014104/06/16 10:50:31  5-MIN K9L2 061850Z AUTO 06008G17KT 10SM CLR 29/M08 A3019 2050 08 4200 040/08G17 RMK AO2 $ 2060 07 4300 040/09G18 RMK AO2 $
53144K9L2 9L220160406105512504/06/16 10:55:31  5-MIN K9L2 061855Z AUTO 06011G18KT 10SM CLR 30/M08 A3019 2050 07 4300 050/11G18 RMK AO2 SLP208 T03001083 $
53144K9L2 9L220160406110010804/06/16 11:00:31  5-MIN K9L2 061900Z AUTO 06009G18KT 10SM CLR 30/M08 A3018 2060 07 4300 040/09G18 RMK AO2 $
53144K9L2 9L220160406110510804/06/16 11:05:31  5-MIN K9L2 061905Z AUTO 08010G15KT 10SM CLR 30/M08 A3018 2060 07 4300 070/10G15 RMK AO2 $
53144K9L2 9L220160406111010804/06/16 11:10:31  5-MIN K9L2 061910Z AUTO 08016G19KT 10SM CLR 30/M08 A3018 2060 07 4300 070/16G19 RMK AO2 $
53144K9L2 9L220160406111510804/06/16 11:15:31  5-MIN K9L2 061915Z AUTO 09010G19KT 10SM CLR 30/M09 A3018 2070 07 4300 080/10G19 RMK AO2 $
53144K9L2 9L220160406111514104/06/16 11:15:31  5-MIN K9L2 061915Z AUTO 09010G19KT 10SM CLR 30/M09 A3018 2070 07 4300 080/10G19 RMK AO2 $ 2070 07 4300 060/09G17 RMK AO2 $
53144K9L2 9L220160406112010804/06/16 11:20:31  5-MIN K9L2 061920Z AUTO 07009G17KT 10SM CLR 31/M08 A3017 2070 07 4300 060/09G17 RMK AO2 $
53144K9L2 9L220160406112510804/06/16 11:25:31  5-MIN K9L2 061925Z AUTO 06015G23KT 10SM CLR 31/M08 A3017 2070 07 4300 050/15G23 RMK AO2 $
53144K9L2 9L220160406113010804/06/16 11:30:31  5-MIN K9L2 061930Z AUTO 09010G23KT 10SM CLR 31/M09 A3017 2070 07 4300 070/10G23 RMK AO2 $
53144K9L2 9L220160406113510804/06/16 11:35:31  5-MIN K9L2 061935Z AUTO 06013G23KT 10SM CLR 31/M08 A3017 2080 07 4400 050/13G23 RMK AO2 $
53144K9L2 9L220160406114010804/06/16 11:40:31  5-MIN K9L2 061940Z AUTO 07012G20KT 10SM CLR 32/M08 A3016 2080 07 4400 050/12G20 RMK AO2 $
53144K9L2 9L220160406114010804/06/16 11:40:31  5-MIN K9L2 061940Z AUTO 07012G20KT 10SM CLR 32/M08 A3016 2080 07 4500 060/12G20 RMK AO2 $
53144K9L2 9L220160406114510804/06/16 11:45:31  5-MIN K9L2 061945Z AUTO 07012G20KT 10SM CLR 31/M09 A3016 2080 07 4400 050/12G20 RMK AO2 $
53144K9L2 9L220160406115007504/06/16 11:50:31  5-MIN K9L2 061950Z AUTO 07014G19KT 10SM CLR 32/M08 A3016
53144K9L2 9L220160406115010804/06/16 11:50:31  5-MIN K9L2 061950Z AUTO 07014G19KT 10SM CLR 32/M08 A3016 2080 07 4500 050/14G19 RMK AO2 $
53144K9L2 9L220160406115512504/06/16 11:55:31  5-MIN K9L2 061955Z AUTO 07016G20KT 10SM CLR 31/M09 A3016 2080 07 4400 060/16G20 RMK AO2 SLP197 T03111089 $
53144K9L2 9L220160406120010804/06/16 12:00:31  5-MIN K9L2 062000Z AUTO 05013G22KT 10SM CLR 31/M09 A3016 2080 07 4400 040/13G22 RMK AO2 $
53144K9L2 9L220160406120510804/06/16 12:05:31  5-MIN K9L2 062005Z AUTO 05014G22KT 10SM CLR 31/M09 A3015 2090 07 4400 040/14G22 RMK AO2 $
53144K9L2 9L220160406121010804/06/16 12:10:31  5-MIN K9L2 062010Z AUTO 05015G20KT 10SM CLR 32/M09 A3015 2090 06 4500 040/15G20 RMK AO2 $
53144K9L2 9L220160406121510204/06/16 12:15:31  5-MIN K9L2 062015Z AUTO 09012KT 10SM CLR 31/M09 A3015 2090 07 4400 080/12 RMK AO2 $
53144K9L2 9L220160406122010804/06/16 12:20:31  5-MIN K9L2 062020Z AUTO 07014G22KT 10SM CLR 32/M09 A3015 2090 06 4500 060/14G22 RMK AO2 $
53144K9L2 9L220160406122510804/06/16 12:25:31  5-MIN K9L2 062025Z AUTO 09015G22KT 10SM CLR 32/M09 A3015 2100 06 4500 080/15G22 RMK AO2 $
53144K9L2 9L220160406123010804/06/16 12:30:31  5-MIN K9L2 062030Z AUTO 09010G23KT 10SM CLR 32/M09 A3014 2100 06 4500 080/10G23 RMK AO2 $
53144K9L2 9L220160406123510804/06/16 12:35:31  5-MIN K9L2 062035Z AUTO 09011G23KT 10SM CLR 32/M09 A3014 2100 06 4500 080/11G23 RMK AO2 $
53144K9L2 9L220160406124012404/06/16 12:40:31  5-MIN K9L2 062040Z AUTO 07013G21KT 040V110 10SM CLR 32/M09 A3014 2100 06 4500 050/13G21 030V100 RMK AO2 $
53144K9L2 9L220160406124510804/06/16 12:45:31  5-MIN K9L2 062045Z AUTO 09013G21KT 10SM CLR 32/M09 A3014 2100 06 4600 070/13G21 RMK AO2 $
53144K9L2 9L220160406125016404/06/16 12:50:31  5-MIN K9L2 062050Z AUTO 10012G21KT 10SM CLR 32/M09 A3013 2110 06 4500 080/12G21 RMK AO2 $ 2110 06 4600 060/17G24 RMK AO2 SLP188 T03221094 58001 $
53144K9L2 9L220160406130010804/06/16 13:00:31  5-MIN K9L2 062100Z AUTO 07013G24KT 10SM CLR 32/M09 A3013 2110 06 4500 050/13G24 RMK AO2 $
53144K9L2 9L220160406130510804/06/16 13:05:31  5-MIN K9L2 062105Z AUTO 06017G22KT 10SM CLR 32/M09 A3013 2110 06 4600 050/17G22 RMK AO2 $
53144K9L2 9L220160406131014104/06/16 13:10:31  5-MIN K9L2 062110Z AUTO 07016G22KT 10SM CLR 32/M09 A3013 2110 06 4600 060/16G22 RMK AO2 $ 2120 06 4500 050/14G21 RMK AO2 $
53144K9L2 9L220160406132010804/06/16 13:20:31  5-MIN K9L2 062120Z AUTO 06010G19KT 10SM CLR 32/M09 A3012 2120 06 4500 050/10G19 RMK AO2 $
53144K9L2 9L220160406132510804/06/16 13:25:31  5-MIN K9L2 062125Z AUTO 07011G19KT 10SM CLR 32/M09 A3011 2120 06 4500 060/11G19 RMK AO2 $
53144K9L2 9L220160406133010804/06/16 13:30:31  5-MIN K9L2 062130Z AUTO 07014G21KT 10SM CLR 32/M09 A3011 2130 06 4600 060/14G21 RMK AO2 $
53144K9L2 9L220160406133510804/06/16 13:35:31  5-MIN K9L2 062135Z AUTO 05013G21KT 10SM CLR 32/M09 A3011 2130 06 4600 040/13G21 RMK AO2 $
53144K9L2 9L220160406134010804/06/16 13:40:31  5-MIN K9L2 062140Z AUTO 07013G22KT 10SM CLR 32/M10 A3011 2130 06 4600 050/13G22 RMK AO2 $
53144K9L2 9L220160406134515804/06/16 13:45:31  5-MIN K9L2 062145Z AUTO 05010G22KT 10SM CLR 32/M09 A3010 2140 06 4600 060/13G21 RMK AO2 $ 2140 06 4600 040/13G21 RMK AO2 SLP178 T03221094 $
53144K9L2 9L220160406140014104/06/16 14:00:31  5-MIN K9L2 062200Z AUTO 06013G19KT 10SM CLR 32/M09 A3010 2140 06 4600 050/13G19 RMK AO2 $ 2140 06 4600 070/13G19 RMK AO2 $
53144K9L2 9L220160406141010804/06/16 14:10:31  5-MIN K9L2 062210Z AUTO 05013G19KT 10SM CLR 32/M10 A3009 2150 06 4600 030/13G19 RMK AO2 $
53144K9L2 9L220160406141510204/06/16 14:15:31  5-MIN K9L2 062215Z AUTO 08014KT 10SM CLR 32/M10 A3009 2150 06 4600 070/14 RMK AO2 $
53144K9L2 9L220160406142010204/06/16 14:20:31  5-MIN K9L2 062220Z AUTO 10011KT 10SM CLR 32/M09 A3008 2150 06 4600 090/11 RMK AO2 $
53144K9L2 9L220160406142510804/06/16 14:25:31  5-MIN K9L2 062225Z AUTO 08012G18KT 10SM CLR 32/M09 A3008 2150 06 4600 070/12G18 RMK AO2 $
53144K9L2 9L220160406143010804/06/16 14:30:31  5-MIN K9L2 062230Z AUTO 08009G18KT 10SM CLR 32/M10 A3008 2160 06 4600 070/09G18 RMK AO2 $
53144K9L2 9L220160406143510804/06/16 14:35:31  5-MIN K9L2 062235Z AUTO 08010G17KT 10SM CLR 32/M10 A3008 2160 06 4600 070/10G17 RMK AO2 $
53144K9L2 9L220160406144010204/06/16 14:40:31  5-MIN K9L2 062240Z AUTO 09014KT 10SM CLR 32/M09 A3007 2160 06 4600 070/14 RMK AO2 $
53144K9L2 9L220160406144518504/06/16 14:45:31  5-MIN K9L2 062245Z AUTO 07008KT 10SM CLR 32/M10 A3007 2160 06 4600 060/08 RMK AO2 $ 2160 06 4600 050/13G17 RMK AO2 $ 2170 06 4600 050/09G17 RMK AO2 SLP169 T03171100 $
53144K9L2 9L220160406150010804/06/16 15:00:31  5-MIN K9L2 062300Z AUTO 09012G19KT 10SM CLR 32/M10 A3007 2170 06 4600 070/12G19 RMK AO2 $
53144K9L2 9L220160406150510804/06/16 15:05:31  5-MIN K9L2 062305Z AUTO 08013G19KT 10SM CLR 32/M09 A3007 2170 06 4600 060/13G19 RMK AO2 $
53144K9L2 9L220160406151010804/06/16 15:10:31  5-MIN K9L2 062310Z AUTO 11007G17KT 10SM CLR 32/M09 A3007 2170 06 4600 090/07G17 RMK AO2 $
53144K9L2 9L220160406151514104/06/16 15:15:31  5-MIN K9L2 062315Z AUTO 09012G17KT 10SM CLR 32/M09 A3006 2170 06 4600 070/12G17 RMK AO2 $ 2170 06 4600 080/12G18 RMK AO2 $
53144K9L2 9L220160406152513704/06/16 15:25:31  5-MIN K9L2 062325Z AUTO 12013G18KT 10SM CLR 31/M10 A3006 2170 06 4500 100/13G18 RMK AO2 $2170 06 4600 090/09 RMK AO2 $
53144K9L2 9L220160406153510204/06/16 15:35:31  5-MIN K9L2 062335Z AUTO 09013KT 10SM CLR 32/M10 A3006 2170 06 4600 080/13 RMK AO2 $
53144K9L2 9L220160406154013504/06/16 15:40:31  5-MIN K9L2 062340Z AUTO 10014KT 10SM CLR 31/M10 A3006 2170 06 4500 090/14 RMK AO2 $ 2170 06 4500 100/11G18 RMK AO2 $
53144K9L2 9L220160406155017604/06/16 15:50:31  5-MIN K9L2 062350Z AUTO 10011G17KT 10SM CLR 31/M10 A3006 2180 06 4500 090/11G17 RMK AO2 $ 2180 06 4600 080/11G19 RMK AO2 SLP164 T03171100 10328 20256 56028 $
53144K9L2 9L220160406160017004/06/16 16:00:31  5-MIN K9L2 070000Z AUTO 09013G20KT 10SM CLR 31/M10 A3005 2180 06 4500 070/13G20 RMK AO2 $ 2180 06 4500 100/10G20 RMK AO2 $2180 06 4600 080/12 RMK AO2 $
53144K9L2 9L220160406162010204/06/16 16:20:31  5-MIN K9L2 070020Z AUTO 11010KT 10SM CLR 31/M10 A3004 2190 06 4500 090/10 RMK AO2 $
53144K9L2 9L220160406162510804/06/16 16:25:31  5-MIN K9L2 070025Z AUTO 09016G20KT 10SM CLR 31/M10 A3004 2190 06 4500 080/16G20 RMK AO2 $
53144K9L2 9L220160406163010804/06/16 16:30:31  5-MIN K9L2 070030Z AUTO 10016G20KT 10SM CLR 31/M10 A3004 2190 06 4500 080/16G20 RMK AO2 $
53144K9L2 9L220160406163510804/06/16 16:35:31  5-MIN K9L2 070035Z AUTO 10013G20KT 10SM CLR 31/M10 A3004 2190 06 4500 090/13G20 RMK AO2 $
53144K9L2 9L220160406164010204/06/16 16:40:31  5-MIN K9L2 070040Z AUTO 10013KT 10SM CLR 31/M10 A3004 2190 06 4500 080/13 RMK AO2 $
53144K9L2 9L220160406164510204/06/16 16:45:31  5-MIN K9L2 070045Z AUTO 10013KT 10SM CLR 31/M10 A3004 2190 06 4500 080/13 RMK AO2 $
53144K9L2 9L220160406165010204/06/16 16:50:31  5-MIN K9L2 070050Z AUTO 09010KT 10SM CLR 31/M11 A3004 2190 06 4500 070/10 RMK AO2 $
53144K9L2 9L220160406165511904/06/16 16:55:31  5-MIN K9L2 070055Z AUTO 08011KT 10SM CLR 31/M11 A3004 2190 06 4500 070/11 RMK AO2 SLP162 T03061106 $
53144K9L2 9L220160406170010204/06/16 17:00:31  5-MIN K9L2 070100Z AUTO 09012KT 10SM CLR 31/M10 A3004 2190 06 4500 080/12 RMK AO2 $
53144K9L2 9L220160406170510204/06/16 17:05:31  5-MIN K9L2 070105Z AUTO 10012KT 10SM CLR 31/M10 A3004 2190 06 4500 090/12 RMK AO2 $
53144K9L2 9L220160406171010204/06/16 17:10:31  5-MIN K9L2 070110Z AUTO 09009KT 10SM CLR 30/M11 A3004 2190 06 4400 080/09 RMK AO2 $
53144K9L2 9L220160406171510204/06/16 17:15:31  5-MIN K9L2 070115Z AUTO 09010KT 10SM CLR 30/M11 A3004 2190 06 4400 080/10 RMK AO2 $
53144K9L2 9L220160406172010204/06/16 17:20:31  5-MIN K9L2 070120Z AUTO 08008KT 10SM CLR 30/M11 A3004 2190 06 4400 070/08 RMK AO2 $
53144K9L2 9L220160406172513104/06/16 17:25:31  5-MIN K9L2 070125Z AUTO 08009KT 10SM CLR 30/M10 A3004 2190 07 4400 070/09 RMK AO2 $2200 07 4400 070/09 RMK AO2 $
53144K9L2 9L220160406173510204/06/16 17:35:31  5-MIN K9L2 070135Z AUTO 08007KT 10SM CLR 29/M10 A3004 2200 07 4400 060/07 RMK AO2 $
53144K9L2 9L220160406174010204/06/16 17:40:31  5-MIN K9L2 070140Z AUTO 08008KT 10SM CLR 29/M10 A3003 2200 07 4400 070/08 RMK AO2 $
53144K9L2 9L220160406174510204/06/16 17:45:31  5-MIN K9L2 070145Z AUTO 08008KT 10SM CLR 29/M10 A3003 2200 07 4300 070/08 RMK AO2 $
53144K9L2 9L220160406175010204/06/16 17:50:31  5-MIN K9L2 070150Z AUTO 09009KT 10SM CLR 29/M10 A3003 2200 07 4300 070/09 RMK AO2 $
53144K9L2 9L220160406175514804/06/16 17:55:31  5-MIN K9L2 070155Z AUTO 08009KT 10SM CLR 29/M10 A3003 2200 07 4300 060/09 RMK AO2 SLP160 T02891100 $2200 07 4300 080/07 RMK AO2 $
53144K9L2 9L220160406180510204/06/16 18:05:31  5-MIN K9L2 070205Z AUTO 09007KT 10SM CLR 28/M10 A3004 2190 07 4200 080/07 RMK AO2 $
53144K9L2 9L220160406181010204/06/16 18:10:31  5-MIN K9L2 070210Z AUTO 10007KT 10SM CLR 28/M10 A3004 2190 07 4200 080/07 RMK AO2 $
53144K9L2 9L220160406181510204/06/16 18:15:31  5-MIN K9L2 070215Z AUTO 10006KT 10SM CLR 28/M09 A3004 2190 08 4200 080/06 RMK AO2 $
53144K9L2 9L220160406182013104/06/16 18:20:31  5-MIN K9L2 070220Z AUTO 09007KT 10SM CLR 28/M09 A3004 2190 08 4200 080/07 RMK AO2 $2190 08 4200 080/07 RMK AO2 $
53144K9L2 9L220160406183010204/06/16 18:30:31  5-MIN K9L2 070230Z AUTO 09008KT 10SM CLR 28/M09 A3004 2190 08 4200 080/08 RMK AO2 $
53144K9L2 9L220160406183510204/06/16 18:35:31  5-MIN K9L2 070235Z AUTO 09007KT 10SM CLR 28/M09 A3004 2190 08 4200 080/07 RMK AO2 $
53144K9L2 9L220160406184010204/06/16 18:40:31  5-MIN K9L2 070240Z AUTO 09007KT 10SM CLR 28/M09 A3004 2190 08 4200 080/07 RMK AO2 $
53144K9L2 9L220160406184510204/06/16 18:45:31  5-MIN K9L2 070245Z AUTO 09007KT 10SM CLR 28/M09 A3004 2190 08 4200 080/07 RMK AO2 $
53144K9L2 9L220160406185010204/06/16 18:50:31  5-MIN K9L2 070250Z AUTO 08006KT 10SM CLR 27/M09 A3004 2190 08 4100 070/06 RMK AO2 $
53144K9L2 9L220160406185515404/06/16 18:55:31  5-MIN K9L2 070255Z AUTO 08006KT 10SM CLR 26/M09 A3004 2190 09 4000 070/06 RMK AO2 SLP161 T02611094 56025 $2190 09 4000 070/06 RMK AO2 $
53144K9L2 9L220160406190510204/06/16 19:05:31  5-MIN K9L2 070305Z AUTO 08007KT 10SM CLR 26/M09 A3004 2190 09 4000 070/07 RMK AO2 $
53144K9L2 9L220160406191010204/06/16 19:10:31  5-MIN K9L2 070310Z AUTO 08007KT 10SM CLR 25/M09 A3004 2190 09 3900 070/07 RMK AO2 $
53144K9L2 9L220160406192010204/06/16 19:20:31  5-MIN K9L2 070320Z AUTO 05005KT 10SM CLR 23/M09 A3004 2190 10 3700 040/05 RMK AO2 $
53144K9L2 9L220160406192510204/06/16 19:25:31  5-MIN K9L2 070325Z AUTO 05004KT 10SM CLR 23/M09 A3004 2190 11 3600 040/04 RMK AO2 $
53144K9L2 9L220160406193010204/06/16 19:30:31  5-MIN K9L2 070330Z AUTO 05004KT 10SM CLR 23/M09 A3005 2190 10 3700 030/04 RMK AO2 $
53144K9L2 9L220160406193510204/06/16 19:35:31  5-MIN K9L2 070335Z AUTO 05005KT 10SM CLR 23/M09 A3005 2190 11 3600 030/05 RMK AO2 $
53144K9L2 9L220160406194010204/06/16 19:40:31  5-MIN K9L2 070340Z AUTO 04006KT 10SM CLR 23/M09 A3005 2190 11 3600 030/06 RMK AO2 $
53144K9L2 9L220160406194510204/06/16 19:45:31  5-MIN K9L2 070345Z AUTO 03005KT 10SM CLR 22/M09 A3005 2180 11 3600 020/05 RMK AO2 $
53144K9L2 9L220160406195010204/06/16 19:50:31  5-MIN K9L2 070350Z AUTO 03005KT 10SM CLR 22/M09 A3005 2180 11 3600 020/05 RMK AO2 $
53144K9L2 9L220160406195511904/06/16 19:55:31  5-MIN K9L2 070355Z AUTO 06005KT 10SM CLR 22/M09 A3005 2180 11 3600 040/05 RMK AO2 SLP166 T02221094 $
53144K9L2 9L220160406200010204/06/16 20:00:31  5-MIN K9L2 070400Z AUTO 07006KT 10SM CLR 22/M09 A3005 2180 11 3600 050/06 RMK AO2 $
53144K9L2 9L220160406200513104/06/16 20:05:31  5-MIN K9L2 070405Z AUTO 07006KT 10SM CLR 23/M09 A3005 2180 11 3600 060/06 RMK AO2 $2180 11 3600 070/06 RMK AO2 $
53144K9L2 9L220160406201510204/06/16 20:15:31  5-MIN K9L2 070415Z AUTO 09007KT 10SM CLR 23/M09 A3005 2180 10 3700 070/07 RMK AO2 $
53144K9L2 9L220160406202010204/06/16 20:20:31  5-MIN K9L2 070420Z AUTO 20009KT 10SM CLR 22/M09 A3006 2180 11 3500 180/09 RMK AO2 $
53144K9L2 9L220160406202510204/06/16 20:25:31  5-MIN K9L2 070425Z AUTO 20011KT 10SM CLR 22/M09 A3006 2170 12 3500 190/11 RMK AO2 $
53144K9L2 9L220160406203010204/06/16 20:30:31  5-MIN K9L2 070430Z AUTO 21009KT 10SM CLR 23/M09 A3006 2170 11 3600 200/09 RMK AO2 $
53144K9L2 9L220160406203510204/06/16 20:35:31  5-MIN K9L2 070435Z AUTO 23007KT 10SM CLR 23/M08 A3007 2170 12 3600 220/07 RMK AO2 $
53144K9L2 9L220160406204010204/06/16 20:40:31  5-MIN K9L2 070440Z AUTO 28007KT 10SM CLR 23/M05 A3007 2170 14 3700 260/07 RMK AO2 $
53144K9L2 9L220160406204510204/06/16 20:45:31  5-MIN K9L2 070445Z AUTO 25009KT 10SM CLR 22/M04 A3007 2170 17 3500 240/09 RMK AO2 $
53144K9L2 9L220160406205010804/06/16 20:50:31  5-MIN K9L2 070450Z AUTO 26010G15KT 10SM CLR 22/M02 A3007 2170 19 3500 240/10G15 RMK AO2 $
53144K9L2 9L220160406205511904/06/16 20:55:31  5-MIN K9L2 070455Z AUTO 25012KT 10SM CLR 23/M02 A3007 2170`11 3600 240/12 RMK AO2 SLP166 T02281022 $
53144K9L2 9L220160406210010204/06/16 21:00:31  5-MIN K9L2 070500Z AUTO 26009KT 10SM CLR 22/M02 A3006 2170 19 3500 250/09 RMK AO2 $
53144K9L2 9L220160406210510204/06/16 21:05:31  5-MIN K9L2 070505Z AUTO 26009KT 10SM CLR 22/M02 A3006 2170 19 3500 250/09 RMK AO2 $
53144K9L2 9L220160406211010204/06/16 21:10:31  5-MIN K9L2 070510Z AUTO 25009KT 10SM CLR 22/M02 A3006 2170 20 3500 240/09 RMK AO2 $
53144K9L2 9L220160406211510204/06/16 21:15:31  5-MIN K9L2 070515Z AUTO 25010KT 10SM CLR 22/M03 A3006 2170 18 3500 230/10 RMK AO2 $
53144K9L2 9L220160406212010204/06/16 21:20:31  5-MIN K9L2 070520Z AUTO 24008KT 10SM CLR 22/M03 A3006 2170 19 3500 230/08 RMK AO2 $
53144K9L2 9L220160406212510204/06/16 21:25:31  5-MIN K9L2 070525Z AUTO 24010KT 10SM CLR 22/M03 A3006 2170 18 3500 230/10 RMK AO2 $
53144K9L2 9L220160406213010204/06/16 21:30:31  5-MIN K9L2 070530Z AUTO 25009KT 10SM CLR 22/M03 A3006 2180 18 3500 230/09 RMK AO2 $
53144K9L2 9L220160406213510204/06/16 21:35:31  5-MIN K9L2 070535Z AUTO 25008KT 10SM CLR 22/M03 A3006 2180 18 3500 240/08 RMK AO2 $
53144K9L2 9L220160406214010204/06/16 21:40:31  5-MIN K9L2 070540Z AUTO 25008KT 10SM CLR 22/M04 A3006 2170 17 3500 240/08 RMK AO2 $
53144K9L2 9L220160406214510204/06/16 21:45:31  5-MIN K9L2 070545Z AUTO 26006KT 10SM CLR 21/M04 A3006 2170 18 3400 240/06 RMK AO2 $
53144K9L2 9L220160406215010204/06/16 21:50:31  5-MIN K9L2 070550Z AUTO 25007KT 10SM CLR 21/M04 A3006 2170 18 3400 230/07 RMK AO2 $
53144K9L2 9L220160406215513704/06/16 21:55:31  5-MIN K9L2 070555Z AUTO 23007KT 10SM CLR 21/M04 A3006 2180 18 3400 220/07 RMK AO2 SLP163 T02111039 10317 20211 55004 $
53144K9L2 9L220160406220010204/06/16 22:00:31  5-MIN K9L2 070600Z AUTO 23006KT 10SM CLR 21/M04 A3006 2180 19 3400 220/06 RMK AO2 $
53144K9L2 9L220160406220510204/06/16 22:05:31  5-MIN K9L2 070605Z AUTO 23006KT 10SM CLR 21/M04 A3006 2180 17 3400 210/06 RMK AO2 $
53144K9L2 9L220160406221010204/06/16 22:10:31  5-MIN K9L2 070610Z AUTO 23006KT 10SM CLR 21/M04 A3006 2180 17 3400 210/06 RMK AO2 $
53144K9L2 9L220160406221510204/06/16 22:15:31  5-MIN K9L2 070615Z AUTO 20004KT 10SM CLR 20/M04 A3005 2180 19 3300 180/04 RMK AO2 $
53144K9L2 9L220160406222010204/06/16 22:20:31  5-MIN K9L2 070620Z AUTO 21006KT 10SM CLR 20/M04 A3006 2180 19 3300 190/06 RMK AO2 $
53144K9L2 9L220160406222510204/06/16 22:25:31  5-MIN K9L2 070625Z AUTO 21005KT 10SM CLR 21/M04 A3006 2180 19 3400 200/05 RMK AO2 $
53144K9L2 9L220160406223010204/06/16 22:30:31  5-MIN K9L2 070630Z AUTO 23008KT 10SM CLR 21/M03 A3006 2180 19 3400 220/08 RMK AO2 $
53144K9L2 9L220160406223510204/06/16 22:35:31  5-MIN K9L2 070635Z AUTO 22006KT 10SM CLR 21/M03 A3006 2180 19 3400 210/06 RMK AO2 $
53144K9L2 9L220160406224010204/06/16 22:40:31  5-MIN K9L2 070640Z AUTO 23007KT 10SM CLR 21/M03 A3006 2180 19 3400 220/07 RMK AO2 $
53144K9L2 9L220160406224510204/06/16 22:45:31  5-MIN K9L2 070645Z AUTO 22007KT 10SM CLR 21/M03 A3006 2170 20 3400 210/07 RMK AO2 $
53144K9L2 9L220160406225010204/06/16 22:50:31  5-MIN K9L2 070650Z AUTO 23005KT 10SM CLR 21/M02 A3006 2170 21 3400 220/05 RMK AO2 $
53144K9L2 9L220160406225511904/06/16 22:55:31  5-MIN K9L2 070655Z AUTO 25008KT 10SM CLR 21/M02 A3006 2170 22 3400 230/08 RMK AO2 SLP161 T02061017 $
53144K9L2 9L220160406230010804/06/16 23:00:31  5-MIN K9L2 070700Z AUTO 25007G14KT 10SM CLR 21/M02 A3006 2180 21 3400 230/07G14 RMK AO2 $
53144K9L2 9L220160406230510204/06/16 23:05:31  5-MIN K9L2 070705Z AUTO 23008KT 10SM CLR 21/M02 A3006 2180 21 3400 220/08 RMK AO2 $
53144K9L2 9L220160406231010804/06/16 23:10:31  5-MIN K9L2 070710Z AUTO 23009G15KT 10SM CLR 21/M01 A3005 2180 22 3400 220/09G15 RMK AO2 $
53144K9L2 9L220160406231510204/06/16 23:15:31  5-MIN K9L2 070715Z AUTO 23010KT 10SM CLR 21/M01 A3005 2180 22 3400 220/10 RMK AO2 $
53144K9L2 9L220160406232010204/06/16 23:20:31  5-MIN K9L2 070720Z AUTO 24009KT 10SM CLR 21/M01 A3005 2180 22 3400 220/09 RMK AO2 $
53144K9L2 9L220160406232510204/06/16 23:25:31  5-MIN K9L2 070725Z AUTO 24007KT 10SM CLR 21/M01 A3005 2180 23 3400 230/07 RMK AO2 $
53144K9L2 9L220160406233010204/06/16 23:30:31  5-MIN K9L2 070730Z AUTO 25005KT 10SM CLR 21/M01 A3005 2180 23 3400 240/05 RMK AO2 $
53144K9L2 9L220160406233510204/06/16 23:35:31  5-MIN K9L2 070735Z AUTO 25005KT 10SM CLR 21/M02 A3005 2180 22 3400 230/05 RMK AO2 $
53144K9L2 9L220160406234010204/06/16 23:40:31  5-MIN K9L2 070740Z AUTO 26003KT 10SM CLR 21/M02 A3005 2180 22 3400 240/03 RMK AO2 $
53144K9L2 9L220160406234510204/06/16 23:45:31  5-MIN K9L2 070745Z AUTO 00000KT 10SM CLR 21/M02 A3005 2180 22 3400 000/00 RMK AO2 $
53144K9L2 9L220160406235010204/06/16 23:50:31  5-MIN K9L2 070750Z AUTO 00000KT 10SM CLR 20/M02 A3005 2180 23 3300 000/00 RMK AO2 $
53144K9L2 9L220160406235512904/06/16 23:55:31  5-MIN K9L2 070755Z AUTO 06004KT 10SM CLR 19/M02 A3005 2180 24 3200 040/04 RMK AO2 SLP158 T01941017 403280072 $
53144K9L2 9L220160407000010204/07/16 00:00:31  5-MIN K9L2 070800Z AUTO VRB04KT 10SM CLR 19/M02 A3005 2180 24 3200 VRB/04 RMK AO2 $
53144K9L2 9L220160407000510204/07/16 00:05:31  5-MIN K9L2 070805Z AUTO 00000KT 10SM CLR 21/M02 A3005 2180 21 3400 000/00 RMK AO2 $
53144K9L2 9L220160407001010204/07/16 00:10:31  5-MIN K9L2 070810Z AUTO 00000KT 10SM CLR 21/M03 A3005 2190 20 3400 000/00 RMK AO2 $
53144K9L2 9L220160407001510204/07/16 00:15:31  5-MIN K9L2 070815Z AUTO 00000KT 10SM CLR 21/M03 A3005 2190 20 3400 000/00 RMK AO2 $
53144K9L2 9L220160407002010204/07/16 00:20:31  5-MIN K9L2 070820Z AUTO 00000KT 10SM CLR 21/M03 A3005 2190 20 3400 000/00 RMK AO2 $
53144K9L2 9L220160407002508904/07/16 00:25:31  5-MIN K9L2 070825Z AUTO 00000KT 10SM CLR 2210 26 3000 140/07 RMK AO2 $
53144K9L2 9L220160407014010204/07/16 01:40:31  5-MIN K9L2 070940Z AUTO 15007KT 10SM CLR 18/M02 A3002 2210 25 3100 140/07 RMK AO2 $
53144K9L2 9L220160407014510204/07/16 01:45:31  5-MIN K9L2 070945Z AUTO 16006KT 10SM CLR 18/M02 A3002 2210 25 3100 140/06 RMK AO2 $
53144K9L2 9L220160407015010204/07/16 01:50:31  5-MIN K9L2 070950Z AUTO 15007KT 10SM CLR 17/M02 A3002 2210 26 3000 140/07 RMK AO2 $
53144K9L2 9L220160407015511904/07/16 01:55:31  5-MIN K9L2 070955Z AUTO 16007KT 10SM CLR 17/M02 A3002 2220 26 3000 150/07 RMK AO2 SLP146 T01721022 $
53144K9L2 9L220160407020010204/07/16 02:00:31  5-MIN K9L2 071000Z AUTO 17008KT 10SM CLR 17/M02 A3001 2220 26 3000 160/08 RMK AO2 $
53144K9L2 9L220160407020510204/07/16 02:05:31  5-MIN K9L2 071005Z AUTO 17007KT 10SM CLR 18/M02 A3001 2220 25 3100 160/07 RMK AO2 $
53144K9L2 9L220160407021010204/07/16 02:10:31  5-MIN K9L2 071010Z AUTO 17005KT 10SM CLR 18/M02 A3001 2220 25 3100 150/05 RMK AO2 $
53144K9L2 9L220160407021510204/07/16 02:15:31  5-MIN K9L2 071015Z AUTO 16006KT 10SM CLR 17/M02 A3001 2220 26 3000 150/06 RMK AO2 $
53144K9L2 9L220160407022010204/07/16 02:20:31  5-MIN K9L2 071020Z AUTO 15006KT 10SM CLR 17/M02 A3000 2230 27 3000 140/06 RMK AO2 $
53144K9L2 9L220160407022510204/07/16 02:25:31  5-MIN K9L2 071025Z AUTO 16007KT 10SM CLR 17/M02 A3000 2230 27 3000 140/07 RMK AO2 $
53144K9L2 9L220160407023015304/07/16 02:30:31  5-MIN K9L2 071030Z AUTO 16006KT 10SM CLR 17/M02 A3000 2230 27 071120Z AUTO 25004KT 10SM CLR 19/M04 A2998 2240 21 3300 230/04 RMK AO2 $
53144K9L2 9L220160407032510204/07/16 03:25:31  5-MIN K9L2 071125Z AUTO 23004KT 10SM CLR 19/M03 A2998 2240 22 3300 220/04 RMK AO2 $
53144K9L2 9L220160407033010204/07/16 03:30:31  5-MIN K9L2 071130Z AUTO 22003KT 10SM CLR 19/M03 A2998 2240 21 3300 210/03 RMK AO2 $
53144K9L2 9L220160407033511804/07/16 03:35:31  5-MIN K9L2 071135Z AUTO 00000KT 10SM CLR 19/M03 A2998 2250 22 3300 000/00 RMK AO2 $04/07/16MK AO2 $
53144K9L2 9L220160407051510204/07/16 05:15:31  5-MIN K9L2 071315Z AUTO 16009KT 10SM CLR 16/M01 A2997 2260 33 2900 150/09 RMK AO2 $
53144K9L2 9L220160407052010104/07/16 05:20:31  5-MIN K9L2 071320Z AUTO 16007KT 10SM CLR 15/00 A2997 2260 35 2800 150/07 RMK AO2 $
53144K9L2 9L220160407052510104/07/16 05:25:31  5-MIN K9L2 071325Z AUTO 17007KT 10SM CLR 15/00 A2997 2260 35 2800 150/07 RMK AO2 $
53144K9L2 9L220160407053013404/07/16 05:30:31  5-MIN K9L2 071330Z AUTO 17007KT 10SM CLR 16/00 CLR 16/01 A2998 2250 34 2900 160/08 RMK AO2 SLP139 T01610006 56015 $
53144K9L2 9L220160407070010104/07/16 07:00:31  5-MIN K9L2 071500Z AUTO 17007KT 10SM CLR 17/01 A2998 2250 33 3000 160/07 RMK AO2 $
53144K9L2 9L220160407070510104/07/16 07:05:31  5-MIN K9L2 071505Z AUTO 17005KT 10SM CLR 17/01 A2998 2250 33 3000 160/05 RMK AO2 $
53144K9L2 9L220160407071010104/07/16 07:10:31  5-MIN K9L2 071510Z AUTO 14004KT 10SM CLR 17/01 A2998 2250 33 3000 130/04 RMK AO2 $
53144K9L2 9L220160407071510104/07/16 07:15:31  5-MIN K9L2 071515Z AUTO 17004KT 10SM CLR 17/01 A2998 2250 33 3000 150/04 RMK AO2 $
53144K9L2 9L220160407072010104/07/16 07:20:31  5-MIN K9L2 071520Z AUTO 19006KT 10SM CLR 17/01 A2998 2250 33 3000 170/06 RMK AO2 $
53144K9L2 9L220160407072510104/07/16 07:25:31  5-MIN K9L2 071525Z AUTO 20006KT 10SM CLR 17/01 A2998 2250 33 3000 190/06 RMK AO2 $
53144K9L2 9L220160407073010104/07/16 07:30:31  5-MIN K9L2 071530Z AUTO 19006KT 10SM CLR 17/01 A2998 2250 32 3100 170/06 RMK AO2 $
53144K9L2 9L220160407073510104/07/16 07:35:31  5-MIN K9L2 071535Z AUTO 18005KT 10SM CLR 18/01 A2998 2250 31 3100 170/05 RMK AO2 $
53144K9L2 9L220160407074010104/07/16 07:40:31  5-MIN K9L2 071540Z AUTO 17004KT 10SM CLR 18/01 A2998 2250 31 3100 150/04 RMK AO2 $
53144K9L2 9L220160407074510104/07/16 07:45:31  5-MIN K9L2 071545Z AUTO 17005KT 10SM CLR 18/01 A2998 2250 31 3100 160/05 RMK AO2 $
53144K9L2 9L220160407075010104/07/16 07:50:31  5-MIN K9L2 071550Z AUTO 18005KT 10SM CLR 18/01 A2998 2250 31 3100 170/05 RMK AO2 $
53144K9L2 9L220160407075511804/07/16 07:55:31  5-MIN K9L2 071555Z AUTO 18006KT 10SM CLR 18/01 A2998 2250 30 3200 170/06 RMK AO2 SLP140 T01830006 $
53144K9L2 9L220160407080010104/07/16 08:00:31  5-MIN K9L2 071600Z AUTO 18006KT 10SM CLR 18/01 A2998 2250 30 3200 170/06 RMK AO2 $
53144K9L2 9L220160407080510104/07/16 08:05:31  5-MIN K9L2 071605Z AUTO 18005KT 10SM CLR 19/01 A2998 2250 29 3300 170/05 RMK AO2 $
53144K9L2 9L220160407081010104/07/16 08:10:31  5-MIN K9L2 071610Z AUTO 17006KT 10SM CLR 19/01 A2998 2250 29 3300 160/06 RMK AO2 $
53144K9L2 9L220160407081510104/07/16 08:15:31  5-MIN K9L2 071615Z AUTO 18006KT 10SM CLR 19/01 A2998 2250 29 3300 170/06 RMK AO2 $
53144K9L2 9L220160407082010104/07/16 08:20:31  5-MIN K9L2 071620Z AUTO 19006KT 10SM CLR 19/00 A2998 2250 27 3300 180/06 RMK AO2 $
53144K9L2 9L220160407082510104/07/16 08:25:31  5-MIN K9L2 071625Z AUTO 19006KT 10SM CLR 19/00 A2998 2250 27 3300 170/06 RMK AO2 $
53144K9L2 9L220160407083010104/07/16 08:30:31  5-MIN K9L2 071630Z AUTO 19005KT 10SM CLR 20/00 A2997 2250 26 3400 180/05 RMK AO2 $
53144K9L2 9L220160407083510104/07/16 08:35:31  5-MIN K9L2 071635Z AUTO 20003KT 10SM CLR 20/00 A2997 2250 26 3400 190/03 RMK AO2 $
53144K9L2 9L220160407084010104/07/16 08:40:31  5-MIN K9L2 071640Z AUTO 16003KT 10SM CLR 20/00 A2998 2250 26 3400 150/03 RMK AO2 $
53144K9L2 9L220160407084510104/07/16 08:45:31  5-MIN K9L2 071645Z AUTO 00000KT 10SM CLR 20/00 A2997 2250 26 3400 000/00 RMK AO2 $
53144K9L2 9L220160407085010104/07/16 08:50:31  5-MIN K9L2 071650Z AUTO 00000KT 10SM CLR 20/00 A2997 2260 26 3400 000/00 RMK AO2 $
53144K9L2 9L220160407085511804/07/16 08:55:31  5-MIN K9L2 071655Z AUTO 00000KT 10SM CLR 21/00 A2997 2260 24 3500 000/00 RMK AO2 SLP134 T02110000 $
53144K9L2 9L220160407090010104/07/16 09:00:31  5-MIN K9L2 071700Z AUTO 16004KT 10SM CLR 21/00 A2997 2250 24 3500 140/04 RMK AO2 $
53144K9L2 9L220160407090510204/07/16 09:05:31  5-MIN K9L2 071705Z AUTO VRB06KT 10SM CLR 22/M01 A2997 2260 21 3600 VRB/06 RMK AO2 $
53144K9L2 9L220160407091010204/07/16 09:10:31  5-MIN K9L2 071710Z AUTO VRB06KT 10SM CLR 23/M01 A2997 2260 21 3700 VRB/06 RMK AO2 $
53144K9L2 9L220160407091510204/07/16 09:15:31  5-MIN K9L2 071715Z AUTO 19006KT 10SM CLR 23/M01 A2997 2260 20 3800 180/06 RMK AO2 $
53144K9L2 9L220160407092010204/07/16 09:20:31  5-MIN K9L2 071720Z AUTO 17007KT 10SM CLR 23/M01 A2997 2260 20 3800 150/07 RMK AO2 $
53144K9L2 9L220160407092510204/07/16 09:25:31  5-MIN K9L2 071725Z AUTO 17007KT 10SM CLR 23/M01 A2997 2260 20 3800 160/07 RMK AO2 $
53144K9L2 9L220160407093010204/07/16 09:30:31  5-MIN K9L2 071730Z AUTO 16007KT 10SM CLR 23/M01 A2997 2260 20 3800 140/07 RMK AO2 $
53144K9L2 9L220160407093510204/07/16 09:35:31  5-MIN K9L2 071735Z AUTO 17009KT 10SM CLR 23/M01 A2997 2250 19 3800 150/09 RMK AO2 $
53144K9L2 9L220160407094010204/07/16 09:40:31  5-MIN K9L2 071740Z AUTO 17007KT 10SM CLR 23/M01 A2998 2250 19 3800 150/07 RMK AO2 $
53144K9L2 9L220160407094510204/07/16 09:45:31  5-MIN K9L2 071745Z AUTO 19006KT 10SM CLR 23/M01 A2998 2250 19 3800 170/06 RMK AO2 $
53144K9L2 9L220160407095010204/07/16 09:50:31  5-MIN K9L2 071750Z AUTO 15008KT 10SM CLR 23/M01 A2998 2250 19 3800 140/08 RMK AO2 $
53144K9L2 9L220160407095513704/07/16 09:55:31  5-MIN K9L2 071755Z AUTO 15008KT 10SM CLR 23/M01 A2998 2250 19 3800 130/08 RMK AO2 SLP137 T02331011 10233 20150 55001 $
53144K9L2 9L220160407100010204/07/16 10:00:31  5-MIN K9L2 071800Z AUTO 15007KT 10SM CLR 23/M01 A2998 2250 19 3800 130/07 RMK AO2 $
53144K9L2 9L220160407100510204/07/16 10:05:31  5-MIN K9L2 071805Z AUTO 15009KT 10SM CLR 24/M01 A2998 2250 19 3800 130/09 RMK AO2 $
53144K9L2 9L220160407101010204/07/16 10:10:31  5-MIN K9L2 071810Z AUTO 15008KT 10SM CLR 23/M02 A2997 2250 18 3800 140/08 RMK AO2 $
53144K9L2 9L220160407101510204/07/16 10:15:31  5-MIN K9L2 071815Z AUTO 15007KT 10SM CLR 23/M02 A2997 2260 18 3800 140/07 RMK AO2 $
53144K9L2 9L220160407102011804/07/16 10:20:31  5-MIN K9L2 071820Z AUTO 19008KT 170V230 10SM CLR 24/M01 A2997 2260 19 3800 180/08 160V220 RMK AO2 $
53144K9L2 9L220160407102511804/07/16 10:25:31  5-MIN K9L2 071825Z AUTO 19008KT 150V220 10SM CLR 24/M01 A2997 2260 19 3800 180/08 140V210 RMK AO2 $
53144K9L2 9L220160407103010204/07/16 10:30:31  5-MIN K9L2 071830Z AUTO 21009KT 10SM CLR 24/M01 A2997 2260 19 3800 200/09 RMK AO2 $
53144K9L2 9L220160407103510204/07/16 10:35:31  5-MIN K9L2 071835Z AUTO 21008KT 10SM CLR 24/M01 A2997 2260 19 3800 190/08 RMK AO2 $
53144K9L2 9L220160407104010204/07/16 10:40:31  5-MIN K9L2 071840Z AUTO 21010KT 10SM CLR 24/M01 A2997 2260 18 3900 190/10 RMK AO2 $
53144K9L2 9L220160407104510204/07/16 10:45:31  5-MIN K9L2 071845Z AUTO 21009KT 10SM CLR 24/M01 A2997 2260 18 3900 200/09 RMK AO2 $
53144K9L2 9L220160407105010804/07/16 10:50:31  5-MIN K9L2 071850Z AUTO 24011G15KT 10SM CLR 24/M01 A2997 2260 19 3800 230/11G15 RMK AO2 $
53144K9L2 9L220160407105512404/07/16 10:55:31  5-MIN K9L2 071855Z AUTO 22012G19KT 10SM CLR 24/02 A2997 2260 23 3800 210/12G19 RMK AO2 SLP133 T02390017 $
53144K9L2 9L220160407110010704/07/16 11:00:31  5-MIN K9L2 071900Z AUTO 23010G19KT 10SM CLR 24/02 A2997 2260 23 3800 220/10G19 RMK AO2 $
53144K9L2 9L220160407110510104/07/16 11:05:31  5-MIN K9L2 071905Z AUTO 25010KT 10SM CLR 24/02 A2996 2260 24 3800 230/10 RMK AO2 $
53144K9L2 9L220160407111010104/07/16 11:10:31  5-MIN K9L2 071910Z AUTO 24009KT 10SM CLR 24/02 A2996 2260 24 3800 220/09 RMK AO2 $
53144K9L2 9L220160407111510104/07/16 11:15:31  5-MIN K9L2 071915Z AUTO 23009KT 10SM CLR 24/02 A2996 2270 23 3900 220/09 RMK AO2 $
53144K9L2 9L220160407112010104/07/16 11:20:31  5-MIN K9L2 071920Z AUTO 25006KT 10SM CLR 24/02 A2996 2270 24 3800 230/06 RMK AO2 $
53144K9L2 9L220160407112510104/07/16 11:25:31  5-MIN K9L2 071925Z AUTO 24009KT 10SM CLR 24/02 A2996 2270 23 3800 220/09 RMK AO2 $
53144K9L2 9L220160407113010104/07/16 11:30:31  5-MIN K9L2 071930Z AUTO 24010KT 10SM CLR 24/02 A2996 2270 23 3800 220/10 RMK AO2 $
53144K9L2 9L220160407113510104/07/16 11:35:31  5-MIN K9L2 071935Z AUTO 24005KT 10SM CLR 24/02 A2996 2270 23 3800 230/05 RMK AO2 $
53144K9L2 9L220160407114010704/07/16 11:40:31  5-MIN K9L2 071940Z AUTO 27009G15KT 10SM CLR 24/03 A2995 2270 25 3900 260/09G15 RMK AO2 $
53144K9L2 9L220160407114510704/07/16 11:45:31  5-MIN K9L2 071945Z AUTO 21009G15KT 10SM CLR 24/03 A2995 2270 24 3900 200/09G15 RMK AO2 $
53144K9L2 9L220160407115010104/07/16 11:50:31  5-MIN K9L2 071950Z AUTO 21011KT 10SM CLR 24/03 A2995 2280 24 3900 200/11 RMK AO2 $
53144K9L2 9L220160407115511804/07/16 11:55:31  5-MIN K9L2 071955Z AUTO 24010KT 10SM CLR 24/03 A2995 2280 24 3900 220/10 RMK AO2 SLP126 T02440028 $
53144K9L2 9L220160407120010104/07/16 12:00:31  5-MIN K9L2 072000Z AUTO 25010KT 10SM CLR 24/02 A2995 2280 23 3900 240/10 RMK AO2 $
53144K9L2 9L220160407120510104/07/16 12:05:31  5-MIN K9L2 072005Z AUTO 23010KT 10SM CLR 24/02 A2995 2280 23 3900 220/10 RMK AO2 $
53144K9L2 9L220160407121010104/07/16 12:10:31  5-MIN K9L2 072010Z AUTO 23008KT 10SM CLR 24/02 A2995 2280 23 3900 220/08 RMK AO2 $
53144K9L2 9L220160407121510704/07/16 12:15:31  5-MIN K9L2 072015Z AUTO 24010G14KT 10SM CLR 24/02 A2995 2280 23 3900 220/10G14 RMK AO2 $
53144K9L2 9L220160407122010704/07/16 12:20:31  5-MIN K9L2 072020Z AUTO 23009G16KT 10SM CLR 24/02 A2995 2280 23 3900 210/09G16 RMK AO2 $
53144K9L2 9L220160407122510704/07/16 12:25:31  5-MIN K9L2 072025Z AUTO 22008G16KT 10SM CLR 24/03 A2995 2270 25 3900 210/08G16 RMK AO2 $
53144K9L2 9L220160407123010104/07/16 12:30:31  5-MIN K9L2 072030Z AUTO 21009KT 10SM CLR 24/03 A2995 2280 25 3900 200/09 RMK AO2 $
53144K9L2 9L220160407123510404/07/16 12:35:31  5-MIN K9L2 072035Z AUTO 25010KT 10SM FEW090 24/03 A2994 2280 25 3900 230/10 RMK AO2 $
53144K9L2 9L220160407124010404/07/16 12:40:31  5-MIN K9L2 072040Z AUTO 22009KT 10SM FEW090 24/03 A2995 2280 26 3900 210/09 RMK AO2 $
53144K9L2 9L220160407124510404/07/16 12:45:31  5-MIN K9L2 072045Z AUTO 21011KT 10SM FEW095 24/03 A2996 2270 25 3800 200/11 RMK AO2 $
53144K9L2 9L220160407125011104/07/16 12:50:31  5-MIN K9L2 072050Z AUTO 21009KT 10SM FEW075 SCT090 23/03 A2996 2270 26 3800 200/09 RMK AO2 $
53144K9L2 9L220160407125514104/07/16 12:55:31  5-MIN K9L2 072055Z AUTO 20011KT 10SM FEW050 SCT070 BKN085 23/03 A2996 2270 26 3800 190/11 RMK AO2 SLP130 T02330033 55000 $
53144K9L2 9L220160407130011804/07/16 13:00:31  5-MIN K9L2 072100Z AUTO 20010KT 10SM FEW044 BKN070 BKN085 23/03 A2996 2260 26 3800 190/10 RMK AO2 $
53144K9L2 9L220160407130511804/07/16 13:05:31  5-MIN K9L2 072105Z AUTO 21007KT 10SM FEW034 SCT050 BKN070 23/04 A2996 2260 29 3700 200/07 RMK AO2 $
53144K9L2 9L220160407131011804/07/16 13:10:31  5-MIN K9L2 072110Z AUTO 21008KT 10SM FEW034 BKN060 OVC090 23/04 A2996 2270 29 3700 200/08 RMK AO2 $
53144K9L2 9L220160407131513404/07/16 13:15:31  5-MIN K9L2 072115Z AUTO 18008KT 10SM -RA BKN055 BKN070 OVC080 23/06 A2996 2270 32 3700 170/08 RMK AO2 RAB12 P0000 $
53144K9L2 9L220160407132013404/07/16 13:20:31  5-MIN K9L2 072120Z AUTO 20007KT 10SM -RA FEW047 BKN055 OVC070 22/07 A2996 2270 39 3600 190/07 RMK AO2 RAB12 P0000 $
53144K9L2 9L220160407132512704/07/16 13:25:31  5-MIN K9L2 072125Z AUTO 23006KT 10SM -RA SCT050 OVC070 22/07 A2996 2270 39 3600 210/06 RMK AO2 RAB12 P0000 $
53144K9L2 9L220160407133013404/07/16 13:30:31  5-MIN K9L2 072130Z AUTO 23004KT 10SM -RA FEW044 BKN050 OVC070 22/06 A2996 2270 36 3600 220/04 RMK AO2 RAB12 P0000 $
53144K9L2 9L220160407133513304/07/16 13:35:31  5-MIN K9L2 072135Z AUTO VRB04KT 10SM SCT048 BKN055 OVC070 22/06 A2996 2270 35 3700 VRB/04 RMK AO2 RAB12E31 P0000 $
53144K9L2 9L220160407134013304/07/16 13:40:31  5-MIN K9L2 072140Z AUTO 24004KT 10SM FEW048 BKN060 OVC080 22/04 A2996 2270 31 3700 230/04 RMK AO2 RAB12E31 P0000 $
53144K9L2 9L220160407134513304/07/16 13:45:31  5-MIN K9L2 072145Z AUTO 27005KT 10SM FEW048 BKN070 OVC080 22/04 A2996 2270 31 3700 260/05 RMK AO2 RAB12E31 P0000 $
53144K9L2 9L220160407135013304/07/16 13:50:31  5-MIN K9L2 072150Z AUTO VRB03KT 10SM FEW050 BKN060 OVC080 22/04 A2996 2270 30 3700 VRB/03 RMK AO2 RAB12E31 P0000 $
53144K9L2 9L220160407135515004/07/16 13:55:31  5-MIN K9L2 072155Z AUTO 25004KT 10SM FEW048 BKN055 OVC070 22/04 A2996 2270 30 3700 240/04 RMK AO2 RAB12E31 SLP132 P0000 T02220039 $
53144K9L2 9L220160407140011104/07/16 14:00:31  5-MIN K9L2 072200Z AUTO 22003KT 10SM FEW035 OVC060 22/04 A2996 2270 30 3700 210/03 RMK AO2 $
53144K9L2 9L220160407140512704/07/16 14:05:31  5-MIN K9L2 072205Z AUTO 25003KT 10SM -RA FEW036 OVC065 22/04 A2996 2270 32 3600 240/03 RMK AO2 RAB01 P0000 $
53144K9L2 9L220160407141012704/07/16 14:10:31  5-MIN K9L2 072210Z AUTO 00000KT 10SM -RA FEW050 OVC060 22/04 A2996 2270 32 3600 000/00 RMK AO2 RAB01 P0000 $
53144K9L2 9L220160407141512704/07/16 14:15:31  5-MIN K9L2 072215Z AUTO 19003KT 10SM -RA FEW050 OVC060 22/04 A2995 2270 32 3600 180/03 RMK AO2 RAB01 P0000 $
53144K9L2 9L220160407142012004/07/16 14:20:31  5-MIN K9L2 072220Z AUTO 16004KT 10SM -RA OVC060 22/04 A2995 2270 32 3600 140/04 RMK AO2 RAB01 P0000 $
53144K9L2 9L220160407142513304/07/16 14:25:31  5-MIN K9L2 072225Z AUTO 17004KT 10SM FEW041 SCT055 OVC070 22/04 A2995 2270 31 3600 150/04 RMK AO2 RAB01E24 P0000 $
53144K9L2 9L220160407143012704/07/16 14:30:31  5-MIN K9L2 072230Z AUTO 24005KT 10SM -RA FEW048 OVC065 21/06 A2995 2270 36 3500 230/05 RMK AO2 RAB01 P0000 $
53144K9L2 9L220160407143512704/07/16 14:35:31  5-MIN K9L2 072235Z AUTO 25007KT 10SM -RA FEW048 OVC065 21/06 A2995 2270 37 3500 230/07 RMK AO2 RAB01 P0000 $
53144K9L2 9L220160407144012704/07/16 14:40:31  5-MIN K9L2 072240Z AUTO 23005KT 10SM -RA FEW048 OVC065 21/07 A2995 2270 38 3500 210/05 RMK AO2 RAB01 P0000 $
53144K9L2 9L220160407144512704/07/16 14:45:31  5-MIN K9L2 072245Z AUTO 25006KT 10SM -RA FEW048 OVC065 21/07 A2995 2280 40 3500 230/06 RMK AO2 RAB01 P0000 $
53144K9L2 9L220160407145012004/07/16 14:50:31  5-MIN K9L2 072250Z AUTO 28005KT 10SM -RA OVC065 21/07 A2995 2280 41 3500 270/05 RMK AO2 RAB01 P0000 $
53144K9L2 9L220160407145513704/07/16 14:55:31  5-MIN K9L2 072255Z AUTO 27008KT 10SM -RA OVC060 21/07 A2995 2280 41 3500 260/08 RMK AO2 RAB01 SLP131 P0000 T02060072 $
53144K9L2 9L220160407150011404/07/16 15:00:31  5-MIN K9L2 072300Z AUTO 28010KT 10SM -RA OVC065 20/08 A2994 2280 45 3400 260/10 RMK AO2 P0000 $
53144K9L2 9L220160407150511404/07/16 15:05:31  5-MIN K9L2 072305Z AUTO 29009KT 10SM -RA OVC065 20/08 A2994 2280 46 3400 280/09 RMK AO2 P0000 $
53144K9L2 9L220160407151012004/07/16 15:10:31  5-MIN K9L2 072310Z AUTO 32012G16KT 10SM -RA OVC065 19/09 A2994 2280 50 3400 300/12G16 RMK AO2 P0000 $
53144K9L2 9L220160407151511404/07/16 15:15:31  5-MIN K9L2 072315Z AUTO 32012KT 10SM -RA OVC065 19/09 A2994 2280 52 3300 300/12 RMK AO2 P0000 $
53144K9L2 9L220160407152011404/07/16 15:20:31  5-MIN K9L2 072320Z AUTO 31011KT 10SM -RA OVC065 18/09 A2994 2280 54 3200 290/11 RMK AO2 P0000 $
53144K9L2 9L220160407152511404/07/16 15:25:31  5-MIN K9L2 072325Z AUTO 30011KT 10SM -RA OVC065 19/09 A2993 2290 52 3300 280/11 RMK AO2 P0000 $
53144K9L2 9L220160407153011404/07/16 15:30:31  5-MIN K9L2 072330Z AUTO 28010KT 10SM -RA OVC065 18/09 A2993 2290 54 3200 270/10 RMK AO2 P0000 $
53144K9L2 9L220160407153511404/07/16 15:35:31  5-MIN K9L2 072335Z AUTO 28010KT 10SM -RA OVC070 19/09 A2993 2290 52 3300 260/10 RMK AO2 P0000 $
53144K9L2 9L220160407154011404/07/16 15:40:31  5-MIN K9L2 072340Z AUTO 28009KT 10SM -RA OVC070 19/08 A2993 2300 50 3300 270/09 RMK AO2 P0000 $
53144K9L2 9L220160407154511404/07/16 15:45:31  5-MIN K9L2 072345Z AUTO 29009KT 10SM -RA OVC065 19/08 A2993 2300 48 3300 280/09 RMK AO2 P0000 $
53144K9L2 9L220160407155011404/07/16 15:50:31  5-MIN K9L2 072350Z AUTO 30009KT 10SM -RA OVC065 19/08 A2993 2290 48 3300 290/09 RMK AO2 P0000 $
53144K9L2 9L220160407155515504/07/16 15:55:31  5-MIN K9L2 072355Z AUTO 32007KT 10SM -RA OVC070 19/08 A2994 2290 48 3300 300/07 RMK AO2 SLP128 P0000 60000 T01890078 10244 20183 55006 $
53144K9L2 9L220160407160011404/07/16 16:00:31  5-MIN K9L2 080000Z AUTO 30008KT 10SM -RA OVC065 19/08 A2993 2290 50 3300 290/08 RMK AO2 P0000 $
53144K9L2 9L220160407160511404/07/16 16:05:31  5-MIN K9L2 080005Z AUTO 31008KT 10SM -RA OVC065 18/09 A2993 2290 54 3200 290/08 RMK AO2 P0000 $
53144K9L2 9L220160407161011404/07/16 16:10:31  5-MIN K9L2 080010Z AUTO 30008KT 10SM -RA OVC070 18/09 A2993 2290 54 3200 290/08 RMK AO2 P0000 $
53144K9L2 9L220160407161512104/07/16 16:15:31  5-MIN K9L2 080015Z AUTO 28008KT 10SM -RA FEW050 OVC070 18/09 A2993 2300 54 3300 270/08 RMK AO2 P0000 $
53144K9L2 9L220160407162012104/07/16 16:20:31  5-MIN K9L2 080020Z AUTO 26008KT 10SM -RA SCT050 OVC065 18/09 A2992 2300 54 3300 250/08 RMK AO2 P0000 $
53144K9L2 9L220160407162512304/07/16 16:25:31  5-MIN K9L2 080025Z AUTO 25008KT 10SM BKN055 OVC070 18/09 A2992 2300 54 3300 240/08 RMK AO2 RAE25 P0000 $
53144K9L2 9L220160407163012304/07/16 16:30:31  5-MIN K9L2 080030Z AUTO 26007KT 10SM BKN050 OVC065 18/09 A2992 2300 54 3300 240/07 RMK AO2 RAE25 P0000 $
53144K9L2 9L220160407163512304/07/16 16:35:31  5-MIN K9L2 080035Z AUTO 26006KT 10SM BKN055 OVC070 18/08 A2992 2300 52 3300 250/06 RMK AO2 RAE25 P0000 $
53144K9L2 9L220160407164012304/07/16 16:40:31  5-MIN K9L2 080040Z AUTO 27006KT 10SM BKN055 OVC080 18/08 A2992 2300 52 3300 260/06 RMK AO2 RAE25 P0000 $
53144K9L2 9L220160407164512304/07/16 16:45:31  5-MIN K9L2 080045Z AUTO 29006KT 10SM BKN055 OVC080 18/09 A2992 2300 54 3300 270/06 RMK AO2 RAE25 P0000 $
53144K9L2 9L220160407165013004/07/16 16:50:31  5-MIN K9L2 080050Z AUTO 28006KT 10SM FEW050 BKN060 OVC080 18/09 A2992 2300 54 3300 270/06 RMK AO2 RAE25 P0000 $
53144K9L2 9L220160407165514704/07/16 16:55:31  5-MIN K9L2 080055Z AUTO 30003KT 10SM FEW050 BKN060 OVC080 18/09 A2993 2290 54 3300 280/03 RMK AO2 RAE25 SLP126 P0000 T01830089 $
53144K9L2 9L220160407170011104/07/16 17:00:31  5-MIN K9L2 080100Z AUTO 27004KT 10SM BKN060 OVC080 18/09 A2992 2300 54 3300 260/04 RMK AO2 $
53144K9L2 9L220160407170512704/07/16 17:05:31  5-MIN K9L2 080105Z AUTO 28004KT 10SM -RA BKN060 OVC080 18/09 A2992 2300 54 3300 260/04 RMK AO2 RAB01 P0000 $
53144K9L2 9L220160407171012704/07/16 17:10:31  5-MIN K9L2 080110Z AUTO 28004KT 10SM -RA BKN065 OVC075 18/09 A2992 2300 54 3300 270/04 RMK AO2 RAB01 P0000 $
53144K9L2 9L220160407171512604/07/16 17:15:31  5-MIN K9L2 080115Z AUTO 27004KT 10SM BKN060 OVC075 18/09 A2992 2300 54 3300 260/04 RMK AO2 RAB01E13 P0000 $
53144K9L2 9L220160407172012604/07/16 17:20:31  5-MIN K9L2 080120Z AUTO 27004KT 10SM BKN060 OVC075 18/09 A2992 2310 54 3300 260/04 RMK AO2 RAB01E13 P0000 $
53144K9L2 9L220160407172512604/07/16 17:25:31  5-MIN K9L2 080125Z AUTO 25005KT 10SM BKN060 OVC075 18/09 A2991 2310 54 3300 240/05 RMK AO2 RAB01E13 P0000 $
53144K9L2 9L220160407173013304/07/16 17:30:31  5-MIN K9L2 080130Z AUTO 23006KT 10SM FEW045 BKN060 OVC075 18/08 A2991 2320 52 3300 220/06 RMK AO2 RAB01E13 P0000 $
53144K9L2 9L220160407173513304/07/16 17:35:31  5-MIN K9L2 080135Z AUTO 23006KT 10SM FEW049 BKN060 OVC090 18/08 A2990 2320 52 3300 220/06 RMK AO2 RAB01E13 P0000 $
53144K9L2 9L220160407174013304/07/16 17:40:31  5-MIN K9L2 080140Z AUTO 24005KT 10SM SCT060 BKN075 OVC090 18/09 A2990 2320 55 3200 220/05 RMK AO2 RAB01E13 P0000 $
53144K9L2 9L220160407174513304/07/16 17:45:31  5-MIN K9L2 080145Z AUTO 21007KT 10SM FEW049 BKN075 OVC090 18/08 A2990 2320 53 3200 200/07 RMK AO2 RAB01E13 P0000 $
53144K9L2 9L220160407175013304/07/16 17:50:31  5-MIN K9L2 080150Z AUTO 21004KT 10SM FEW049 BKN070 OVC090 18/08 A2990 2320 53 3200 200/04 RMK AO2 RAB01E13 P0000 $
53144K9L2 9L220160407175515004/07/16 17:55:31  5-MIN K9L2 080155Z AUTO 26003KT 10SM FEW055 BKN070 OVC090 18/09 A2991 2310 55 3200 250/03 RMK AO2 RAB01E13 SLP121 P0000 T01780089 $
53144K9L2 9L220160407180010404/07/16 18:00:31  5-MIN K9L2 080200Z AUTO 26004KT 10SM OVC070 18/09 A2991 2310 58 3200 250/04 RMK AO2 $
53144K9L2 9L220160407180510404/07/16 18:05:31  5-MIN K9L2 080205Z AUTO 23005KT 10SM OVC075 17/10 A2991 2320 62 3100 210/05 RMK AO2 $
53144K9L2 9L220160407181010404/07/16 18:10:31  5-MIN K9L2 080210Z AUTO 24004KT 10SM OVC075 17/10 A2991 2320 62 3100 220/04 RMK AO2 $
53144K9L2 9L220160407181510404/07/16 18:15:31  5-MIN K9L2 080215Z AUTO 22004KT 10SM OVC075 17/10 A2990 2320 62 3200 210/04 RMK AO2 $
53144K9L2 9L220160407182010404/07/16 18:20:31  5-MIN K9L2 080220Z AUTO 22004KT 10SM OVC075 17/10 A2991 2320 62 3100 210/04 RMK AO2 $
53144K9L2 9L220160407182510404/07/16 18:25:31  5-MIN K9L2 080225Z AUTO 22004KT 10SM OVC075 17/10 A2991 2320 62 3100 200/04 RMK AO2 $
53144K9L2 9L220160407183010404/07/16 18:30:31  5-MIN K9L2 080230Z AUTO 21006KT 10SM OVC080 17/10 A2990 2320 64 3100 200/06 RMK AO2 $
53144K9L2 9L220160407183510404/07/16 18:35:31  5-MIN K9L2 080235Z AUTO 22005KT 10SM OVC080 17/10 A2990 2320 64 3100 200/05 RMK AO2 $
53144K9L2 9L220160407184010404/07/16 18:40:31  5-MIN K9L2 080240Z AUTO 21005KT 10SM OVC085 17/10 A2990 2320 64 3100 200/05 RMK AO2 $
53144K9L2 9L220160407184510404/07/16 18:45:31  5-MIN K9L2 080245Z AUTO 22006KT 10SM OVC090 17/10 A2990 2320 64 3100 210/06 RMK AO2 $
53144K9L2 9L220160407185010404/07/16 18:50:31  5-MIN K9L2 080250Z AUTO 22007KT 10SM OVC090 17/11 A2990 2320 67 3100 200/07 RMK AO2 $
53144K9L2 9L220160407185513304/07/16 18:55:31  5-MIN K9L2 080255Z AUTO 21007KT 10SM OVC090 16/11 A2990 2320 69 3000 190/07 RMK AO2 SLP118 60000 T01610106 58007 $
53144K9L2 9L220160407190010404/07/16 19:00:31  5-MIN K9L2 080300Z AUTO 21007KT 10SM OVC090 16/11 A2990 2330 69 3000 200/07 RMK AO2 $
53144K9L2 9L220160407190510404/07/16 19:05:31  5-MIN K9L2 080305Z AUTO 21009KT 10SM OVC090 16/11 A2989 2330 69 3000 200/09 RMK AO2 $
53144K9L2 9L220160407191010404/07/16 19:10:31  5-MIN K9L2 080310Z AUTO 21007KT 10SM OVC090 16/11 A2989 2330 69 3000 200/07 RMK AO2 $
53144K9L2 9L220160407191510404/07/16 19:15:31  5-MIN K9L2 080315Z AUTO 22006KT 10SM OVC085 16/10 A2989 2330 67 3000 210/06 RMK AO2 $
53144K9L2 9L220160407192010404/07/16 19:20:31  5-MIN K9L2 080320Z AUTO 21005KT 10SM OVC085 16/10 A2990 2320 67 3000 200/05 RMK AO2 $
53144K9L2 9L220160407192510404/07/16 19:25:31  5-MIN K9L2 080325Z AUTO 20004KT 10SM OVC085 16/10 A2990 2320 67 3000 190/04 RMK AO2 $
53144K9L2 9L220160407193010404/07/16 19:30:31  5-MIN K9L2 080330Z AUTO 20005KT 10SM OVC080 16/10 A2991 2320 67 3000 190/05 RMK AO2 $
53144K9L2 9L220160407193510404/07/16 19:35:31  5-MIN K9L2 080335Z AUTO 22003KT 10SM OVC080 16/10 A2991 2320 67 3000 210/03 RMK AO2 $
53144K9L2 9L220160407194010404/07/16 19:40:31  5-MIN K9L2 080340Z AUTO 00000KT 10SM OVC080 16/10 A2991 2310 67 3000 000/00 RMK AO2 $
53144K9L2 9L220160407194510404/07/16 19:45:31  5-MIN K9L2 080345Z AUTO 00000KT 10SM OVC080 16/10 A2991 2310 67 3000 000/00 RMK AO2 $
53144K9L2 9L220160407195010404/07/16 19:50:31  5-MIN K9L2 080350Z AUTO 19003KT 10SM OVC080 16/10 A2991 2310 67 3000 170/03 RMK AO2 $
53144K9L2 9L220160407195512104/07/16 19:55:31  5-MIN K9L2 080355Z AUTO 19004KT 10SM OVC080 16/09 A2991 2310 64 3000 180/04 RMK AO2 SLP120 T01610094 $
53144K9L2 9L220160407200010404/07/16 20:00:31  5-MIN K9L2 080400Z AUTO 19005KT 10SM OVC080 16/09 A2991 2310 64 3000 180/05 RMK AO2 $
53144K9L2 9L220160407200510404/07/16 20:05:31  5-MIN K9L2 080405Z AUTO 19005KT 10SM OVC085 16/09 A2991 2310 64 3000 180/05 RMK AO2 $
53144K9L2 9L220160407201010404/07/16 20:10:31  5-MIN K9L2 080410Z AUTO 22003KT 10SM OVC090 16/09 A2991 2310 64 3000 210/03 RMK AO2 $
53144K9L2 9L220160407201510404/07/16 20:15:31  5-MIN K9L2 080415Z AUTO 20004KT 10SM OVC090 16/09 A2991 2310 67 2900 180/04 RMK AO2 $
53144K9L2 9L220160407202010404/07/16 20:20:31  5-MIN K9L2 080420Z AUTO 20006KT 10SM OVC090 16/09 A2991 2310 67 3000 190/06 RMK AO2 $
53144K9L2 9L220160407202510404/07/16 20:25:31  5-MIN K9L2 080425Z AUTO 19006KT 10SM OVC090 16/09 A2991 2310 67 3000 180/06 RMK AO2 $
53144K9L2 9L220160407203010404/07/16 20:30:31  5-MIN K9L2 080430Z AUTO 20007KT 10SM OVC090 16/09 A2991 2310 64 3000 190/07 RMK AO2 $
53144K9L2 9L220160407203510404/07/16 20:35:31  5-MIN K9L2 080435Z AUTO 19008KT 10SM OVC090 16/09 A2991 2310 64 3000 180/08 RMK AO2 $
53144K9L2 9L220160407204011104/07/16 20:40:31  5-MIN K9L2 080440Z AUTO 18010KT 10SM FEW075 OVC090 16/09 A2991 2310 67 2900 170/10 RMK AO2 $
53144K9L2 9L220160407204510404/07/16 20:45:31  5-MIN K9L2 080445Z AUTO 19008KT 10SM OVC085 16/09 A2991 2310 67 2900 170/08 RMK AO2 $
53144K9L2 9L220160407205010404/07/16 20:50:31  5-MIN K9L2 080450Z AUTO 19009KT 10SM OVC085 16/09 A2991 2310 67 2900 180/09 RMK AO2 $
53144K9L2 9L220160407205512104/07/16 20:55:31  5-MIN K9L2 080455Z AUTO 20008KT 10SM OVC085 15/09 A2991 2310 69 2900 180/08 RMK AO2 SLP120 T01500094 $
53144K9L2 9L220160407210010404/07/16 21:00:31  5-MIN K9L2 080500Z AUTO 20008KT 10SM OVC085 15/09 A2991 2310 69 2900 190/08 RMK AO2 $
53144K9L2 9L220160407210510404/07/16 21:05:31  5-MIN K9L2 080505Z AUTO 20008KT 10SM OVC085 15/09 A2991 2310 69 2900 190/08 RMK AO2 $
53144K9L2 9L220160407211010404/07/16 21:10:31  5-MIN K9L2 080510Z AUTO 20008KT 10SM OVC085 15/09 A2991 2310 69 2900 180/08 RMK AO2 $
53144K9L2 9L220160407211510404/07/16 21:15:31  5-MIN K9L2 080515Z AUTO 20009KT 10SM OVC085 15/10 A2991 2310 72 2900 180/09 RMK AO2 $
53144K9L2 9L220160407212010404/07/16 21:20:31  5-MIN K9L2 080520Z AUTO 20010KT 10SM OVC085 15/10 A2991 2310 72 2900 190/10 RMK AO2 $
53144K9L2 9L220160407212510404/07/16 21:25:31  5-MIN K9L2 080525Z AUTO 20008KT 10SM OVC085 15/10 A2991 2310 72 2900 190/08 RMK AO2 $
53144K9L2 9L220160407213010404/07/16 21:30:31  5-MIN K9L2 080530Z AUTO 20009KT 10SM OVC085 15/10 A2991 2320 72 2900 190/09 RMK AO2 $
53144K9L2 9L220160407213510404/07/16 21:35:31  5-MIN K9L2 080535Z AUTO 20008KT 10SM OVC085 15/10 A2991 2310 72 2900 190/08 RMK AO2 $
53144K9L2 9L220160407214010404/07/16 21:40:31  5-MIN K9L2 080540Z AUTO 20006KT 10SM OVC080 15/10 A2991 2310 72 2900 180/06 RMK AO2 $
53144K9L2 9L220160407214511104/07/16 21:45:31  5-MIN K9L2 080545Z AUTO 20006KT 10SM BKN075 OVC090 15/10 A2991 2310 72 2900 190/06 RMK AO2 $
53144K9L2 9L220160407215011104/07/16 21:50:31  5-MIN K9L2 080550Z AUTO 20007KT 10SM BKN075 OVC085 15/10 A2991 2310 72 2900 190/07 RMK AO2 $
53144K9L2 9L220160407215515204/07/16 21:55:31  5-MIN K9L2 080555Z AUTO 20005KT 10SM BKN070 OVC085 15/10 A2991 2310 72 2900 190/05 RMK AO2 SLP118 60000 T01500100 10189 20150 58012 $
53144K9L2 9L220160407220010404/07/16 22:00:31  5-MIN K9L2 080600Z AUTO 18007KT 10SM OVC070 15/10 A2992 2310 72 2900 170/07 RMK AO2 $
53144K9L2 9L220160407220510404/07/16 22:05:31  5-MIN K9L2 080605Z AUTO 19008KT 10SM OVC070 15/10 A2992 2310 72 2900 170/08 RMK AO2 $
53144K9L2 9L220160407221011104/07/16 22:10:31  5-MIN K9L2 080610Z AUTO 18008KT 10SM BKN065 OVC080 16/09 A2992 2310 67 2900 170/08 RMK AO2 $
53144K9L2 9L220160407221510404/07/16 22:15:31  5-MIN K9L2 080615Z AUTO 18008KT 10SM OVC065 15/09 A2991 2310 69 2900 160/08 RMK AO2 $
53144K9L2 9L220160407222010404/07/16 22:20:31  5-MIN K9L2 080620Z AUTO 18007KT 10SM OVC065 15/09 A2991 2310 69 2900 170/07 RMK AO2 $
53144K9L2 9L220160407222511104/07/16 22:25:31  5-MIN K9L2 080625Z AUTO 19006KT 10SM BKN065 OVC085 15/09 A2991 2310 69 2900 180/06 RMK AO2 $
53144K9L2 9L220160407223011804/07/16 22:30:31  5-MIN K9L2 080630Z AUTO 19005KT 10SM FEW047 BKN065 OVC085 15/09 A2991 2320 69 2900 180/05 RMK AO2 $
53144K9L2 9L220160407223511804/07/16 22:35:31  5-MIN K9L2 080635Z AUTO 19005KT 10SM FEW050 BKN070 OVC085 15/09 A2990 2320 69 2900 180/05 RMK AO2 $
53144K9L2 9L220160407224011804/07/16 22:40:31  5-MIN K9L2 080640Z AUTO 20004KT 10SM FEW050 BKN070 OVC085 15/09 A2990 2320 69 2900 190/04 RMK AO2 $
53144K9L2 9L220160407224511104/07/16 22:45:31  5-MIN K9L2 080645Z AUTO 18005KT 10SM BKN070 OVC085 15/09 A2991 2320 69 2900 170/05 RMK AO2 $
53144K9L2 9L220160407225011804/07/16 22:50:31  5-MIN K9L2 080650Z AUTO 20003KT 10SM FEW055 BKN070 OVC085 15/09 A2990 2320 69 2900 190/03 RMK AO2 $
53144K9L2 9L220160407225512804/07/16 22:55:31  5-MIN K9L2 080655Z AUTO 20004KT 10SM BKN070 OVC085 15/09 A2990 2320 69 2900 190/04 RMK AO2 SLP114 T01500094 $
53144K9L2 9L220160407230011104/07/16 23:00:31  5-MIN K9L2 080700Z AUTO 21003KT 10SM BKN070 BKN090 15/09 A2990 2320 69 2900 200/03 RMK AO2 $
53144K9L2 9L220160407230511104/07/16 23:05:31  5-MIN K9L2 080705Z AUTO 23003KT 10SM SCT070 BKN095 15/09 A2990 2330 69 2900 220/03 RMK AO2 $
53144K9L2 9L220160407231011104/07/16 23:10:31  5-MIN K9L2 080710Z AUTO 22004KT 10SM SCT070 BKN095 15/09 A2989 2330 69 2900 200/04 RMK AO2 $
53144K9L2 9L220160407231511104/07/16 23:15:31  5-MIN K9L2 080715Z AUTO 00000KT 10SM FEW075 BKN095 15/09 A2989 2330 69 2900 000/00 RMK AO2 $
53144K9L2 9L220160407232011104/07/16 23:20:31  5-MIN K9L2 080720Z AUTO 00000KT 10SM FEW070 BKN100 15/09 A2990 2330 69 2900 000/00 RMK AO2 $
53144K9L2 9L220160407232511104/07/16 23:25:31  5-MIN K9L2 080725Z AUTO 19003KT 10SM FEW070 BKN100 15/09 A2989 2330 69 2900 180/03 RMK AO2 $
53144K9L2 9L220160407233011104/07/16 23:30:31  5-MIN K9L2 080730Z AUTO 18004KT 10SM FEW070 BKN100 15/09 A2989 2330 69 2900 170/04 RMK AO2 $
53144K9L2 9L220160407233511104/07/16 23:35:31  5-MIN K9L2 080735Z AUTO 00000KT 10SM FEW075 SCT100 15/09 A2989 2330 69 2900 000/00 RMK AO2 $
53144K9L2 9L220160407234011104/07/16 23:40:31  5-MIN K9L2 080740Z AUTO 00000KT 10SM SCT080 BKN100 15/09 A2990 2320 69 2900 000/00 RMK AO2 $
53144K9L2 9L220160407234511104/07/16 23:45:31  5-MIN K9L2 080745Z AUTO 15003KT 10SM BKN075 BKN100 15/09 A2990 2320 69 2900 140/03 RMK AO2 $
53144K9L2 9L220160407235011104/07/16 23:50:31  5-MIN K9L2 080750Z AUTO 14003KT 10SM BKN080 BKN100 15/09 A2990 2320 66 2900 130/03 RMK AO2 $
53144K9L2 9L220160407235513104/07/16 23:55:31  5-MIN K9L2 080755Z AUTO 00000KT 10SM BKN080 15/09 A2990 2330 66 2900 000/00 RMK AO2 SLP111 T01500089 402440144 $
53144K9L2 9L220160408000010404/08/16 00:00:31  5-MIN K9L2 080800Z AUTO 00000KT 10SM BKN080 15/09 A2989 2330 66 2900 000/00 RMK AO2 $
53144K9L2 9L220160408000510404/08/16 00:05:31  5-MIN K9L2 080805Z AUTO 16004KT 10SM OVC080 15/09 A2990 2320 66 2900 140/04 RMK AO2 $
53144K9L2 9L220160408001010404/08/16 00:10:31  5-MIN K9L2 080810Z AUTO 16003KT 10SM OVC080 15/09 A2990 2330 66 2900 150/03 RMK AO2 $
53144K9L2 9L220160408001510404/08/16 00:15:31  5-MIN K9L2 080815Z AUTO 14003KT 10SM OVC080 15/09 A2990 2330 66 2900 120/03 RMK AO2 $
53144K9L2 9L220160408002011104/08/16 00:20:31  5-MIN K9L2 080820Z AUTO 15003KT 10SM FEW060 OVC080 15/09 A2989 2330 66 2900 130/03 RMK AO2 $
53144K9L2 9L220160408002511804/08/16 00:25:31  5-MIN K9L2 080825Z AUTO 16004KT 10SM FEW044 BKN075 OVC085 15/09 A2989 2330 66 2900 150/04 RMK AO2 $
53144K9L2 9L220160408003011804/08/16 00:30:31  5-MIN K9L2 080830Z AUTO 00000KT 10SM SCT047 BKN070 OVC090 15/09 A2989 2330 66 2900 000/00 RMK AO2 $
53144K9L2 9L220160408003511104/08/16 00:35:31  5-MIN K9L2 080835Z AUTO 15003KT 10SM FEW048 OVC070 15/09 A2989 2330 66 2900 140/03 RMK AO2 $
53144K9L2 9L220160408004011104/08/16 00:40:31  5-MIN K9L2 080840Z AUTO 18007KT 10SM FEW048 OVC065 15/09 A2989 2330 66 2900 170/07 RMK AO2 $
53144K9L2 9L220160408004511804/08/16 00:45:31  5-MIN K9L2 080845Z AUTO 19008KT 10SM FEW048 BKN065 OVC080 15/09 A2988 2340 66 2900 180/08 RMK AO2 $
53144K9L2 9L220160408005011804/08/16 00:50:31  5-MIN K9L2 080850Z AUTO 18008KT 10SM FEW048 BKN065 OVC080 15/09 A2988 2340 66 2900 170/08 RMK AO2 $
53144K9L2 9L220160408005514104/08/16 00:55:31  5-MIN K9L2 080855Z AUTO 18005KT 10SM FEW048 BKN070 OVC080 14/09 A2989 2340 72 2900 170/05 RMK AO2 SLP110 T01440094 50005 $
53144K9L2 9L220160408010011804/08/16 01:00:31  5-MIN K9L2 080900Z AUTO 00000KT 10SM FEW048 BKN070 OVC080 14/09 A2989 2330 72 2900 000/00 RMK AO2 $
53144K9L2 9L220160408010511804/08/16 01:05:31  5-MIN K9L2 080905Z AUTO 00000KT 10SM FEW048 BKN055 OVC075 14/09 A2988 2340 72 2900 000/00 RMK AO2 $
53144K9L2 9L220160408011011804/08/16 01:10:31  5-MIN K9L2 080910Z AUTO 28003KT 10SM FEW048 BKN075 OVC090 14/09 A2987 2350 69 2900 270/03 RMK AO2 $
53144K9L2 9L220160408011511804/08/16 01:15:31  5-MIN K9L2 080915Z AUTO 27004KT 10SM FEW048 BKN075 OVC090 14/09 A2987 2350 69 2900 260/04 RMK AO2 $
53144K9L2 9L220160408012011804/08/16 01:20:31  5-MIN K9L2 080920Z AUTO 17007KT 10SM FEW048 SCT075 OVC090 14/09 A2987 2350 69 2900 160/07 RMK AO2 $
53144K9L2 9L220160408012511804/08/16 01:25:31  5-MIN K9L2 080925Z AUTO 18006KT 10SM FEW055 SCT075 OVC095 14/09 A2987 2350 69 2900 170/06 RMK AO2 $
53144K9L2 9L220160408013011104/08/16 01:30:31  5-MIN K9L2 080930Z AUTO 18005KT 10SM FEW055 BKN090 14/09 A2987 2350 69 2900 170/05 RMK AO2 $
53144K9L2 9L220160408013510404/08/16 01:35:31  5-MIN K9L2 080935Z AUTO 19006KT 10SM BKN085 14/09 A2987 2350 69 2900 170/06 RMK AO2 $
53144K9L2 9L220160408014010404/08/16 01:40:31  5-MIN K9L2 080940Z AUTO 18005KT 10SM OVC085 14/09 A2987 2350 69 2900 160/05 RMK AO2 $
53144K9L2 9L220160408014510404/08/16 01:45:31  5-MIN K9L2 080945Z AUTO 16003KT 10SM OVC085 14/09 A2987 2350 69 2900 150/03 RMK AO2 $
53144K9L2 9L220160408015010404/08/16 01:50:31  5-MIN K9L2 080950Z AUTO 17005KT 10SM OVC085 14/09 A2987 2350 69 2900 160/05 RMK AO2 $
53144K9L2 9L220160408015512104/08/16 01:55:31  5-MIN K9L2 080955Z AUTO 17006KT 10SM OVC085 14/09 A2986 2350 69 2900 160/06 RMK AO2 SLP102 T01440089 $
53144K9L2 9L220160408020010404/08/16 02:00:31  5-MIN K9L2 081000Z AUTO 16007KT 10SM OVC085 14/09 A2987 2350 69 2900 150/07 RMK AO2 $
53144K9L2 9L220160408020510404/08/16 02:05:31  5-MIN K9L2 081005Z AUTO 15008KT 10SM OVC085 14/09 A2987 2350 69 2900 140/08 RMK AO2 $
53144K9L2 9L220160408021010404/08/16 02:10:31  5-MIN K9L2 081010Z AUTO 15007KT 10SM OVC090 14/08 A2987 2350 66 2900 140/07 RMK AO2 $
53144K9L2 9L220160408021510404/08/16 02:15:31  5-MIN K9L2 081015Z AUTO 16007KT 10SM OVC090 14/08 A2987 2350 66 2900 150/07 RMK AO2 $
53144K9L2 9L220160408022010404/08/16 02:20:31  5-MIN K9L2 081020Z AUTO 16006KT 10SM OVC090 14/08 A2986 2360 66 2900 150/06 RMK AO2 $
53144K9L2 9L220160408022510404/08/16 02:25:31  5-MIN K9L2 081025Z AUTO 17007KT 10SM OVC090 14/08 A2986 2360 69 2800 160/07 RMK AO2 $
53144K9L2 9L220160408023010404/08/16 02:30:31  5-MIN K9L2 081030Z AUTO 17008KT 10SM OVC090 14/08 A2986 2360 69 2800 150/08 RMK AO2 $
53144K9L2 9L220160408023510404/08/16 02:35:31  5-MIN K9L2 081035Z AUTO 17007KT 10SM OVC090 14/08 A2986 2350 69 2800 150/07 RMK AO2 $
53144K9L2 9L220160408024011104/08/16 02:40:31  5-MIN K9L2 081040Z AUTO 17008KT 10SM FEW075 OVC090 14/08 A2986 2350 66 2900 160/08 RMK AO2 $
53144K9L2 9L220160408024511104/08/16 02:45:31  5-MIN K9L2 081045Z AUTO 18006KT 10SM SCT070 OVC090 14/08 A2986 2360 66 2900 160/06 RMK AO2 $
53144K9L2 9L220160408025011804/08/16 02:50:31  5-MIN K9L2 081050Z AUTO 18006KT 10SM BKN065 BKN075 OVC090 14/08 A2987 2350 66 2900 170/06 RMK AO2 $
53144K9L2 9L220160408025512804/08/16 02:55:31  5-MIN K9L2 081055Z AUTO 17005KT 10SM BKN065 OVC090 14/08 A2987 2350 66 2900 160/05 RMK AO2 SLP104 T01440083 $
53144K9L2 9L220160408030011104/08/16 03:00:31  5-MIN K9L2 081100Z AUTO 17006KT 10SM BKN060 OVC080 14/08 A2986 2350 66 2900 160/06 RMK AO2 $
53144K9L2 9L220160408030511104/08/16 03:05:31  5-MIN K9L2 081105Z AUTO 19005KT 10SM BKN060 OVC075 14/08 A2987 2350 66 2900 170/05 RMK AO2 $
53144K9L2 9L220160408031011104/08/16 03:10:31  5-MIN K9L2 081110Z AUTO 20005KT 10SM BKN060 OVC080 14/09 A2986 2350 69 2900 190/05 RMK AO2 $
53144K9L2 9L220160408031511104/08/16 03:15:31  5-MIN K9L2 081115Z AUTO 23004KT 10SM BKN060 OVC080 14/09 A2986 2360 69 2900 210/04 RMK AO2 $
53144K9L2 9L220160408032011104/08/16 03:20:31  5-MIN K9L2 081120Z AUTO 23004KT 10SM BKN060 OVC075 14/09 A2986 2360 72 2900 220/04 RMK AO2 $
53144K9L2 9L220160408032512704/08/16 03:25:31  5-MIN K9L2 081125Z AUTO 24003KT 10SM -RA BKN060 OVC080 14/09 A2986 2360 72 2900 230/03 RMK AO2 RAB21 P0000 $
53144K9L2 9L220160408033012604/08/16 03:30:31  5-MIN K9L2 081130Z AUTO 00000KT 10SM SCT060 OVC080 14/09 A2986 2360 74 2800 000/00 RMK AO2 RAB21E30 P0000 $
53144K9L2 9L220160408033513304/08/16 03:35:31  5-MIN K9L2 081135Z AUTO 11003KT 10SM FEW060 BKN080 OVC100 14/09 A2987 2350 74 2800 100/03 RMK AO2 RAB21E30 P0000 $
53144K9L2 9L220160408034013304/08/16 03:40:31  5-MIN K9L2 081140Z AUTO 12005KT 10SM SCT060 BKN080 OVC100 14/09 A2987 2350 72 2900 110/05 RMK AO2 RAB21E30 P0000 $
53144K9L2 9L220160408034513304/08/16 03:45:31  5-MIN K9L2 081145Z AUTO 14006KT 10SM FEW060 BKN080 OVC100 14/09 A2987 2350 72 2900 130/06 RMK AO2 RAB21E30 P0000 $
53144K9L2 9L220160408035013304/08/16 03:50:31  5-MIN K9L2 081150Z AUTO 18005KT 10SM FEW060 SCT080 BKN100 14/09 A2987 2350 69 2900 160/05 RMK AO2 RAB21E30 P0000 $
53144K9L2 9L220160408035517404/08/16 03:55:31  5-MIN K9L2 081155Z AUTO 17005KT 10SM FEW060 SCT080 BKN100 14/09 A2987 2350 69 2900 150/05 RMK AO2 RAB21E30 SLP107 P0000 60000 T01440089 10156 20139 56009 $
53144K9L2 9L220160408040011104/08/16 04:00:31  5-MIN K9L2 081200Z AUTO 17005KT 10SM FEW060 BKN100 14/09 A2987 2350 69 2900 150/05 RMK AO2 $
53144K9L2 9L220160408040511804/08/16 04:05:31  5-MIN K9L2 081205Z AUTO 17004KT 10SM SCT060 SCT070 BKN100 14/09 A2987 2350 69 2900 150/04 RMK AO2 $
53144K9L2 9L220160408041011104/08/16 04:10:31  5-MIN K9L2 081210Z AUTO 16003KT 10SM SCT060 BKN100 14/09 A2987 2350 69 2900 150/03 RMK AO2 $
53144K9L2 9L220160408041511104/08/16 04:15:31  5-MIN K9L2 081215Z AUTO 17004KT 10SM BKN060 BKN095 14/09 A2987 2350 69 2900 160/04 RMK AO2 $
53144K9L2 9L220160408042011104/08/16 04:20:31  5-MIN K9L2 081220Z AUTO 19004KT 10SM BKN055 BKN095 14/09 A2987 2350 69 2900 170/04 RMK AO2 $
53144K9L2 9L220160408042511104/08/16 04:25:31  5-MIN K9L2 081225Z AUTO 00000KT 10SM SCT055 BKN100 14/09 A2987 2350 69 2900 000/00 RMK AO2 $
53144K9L2 9L220160408043011104/08/16 04:30:31  5-MIN K9L2 081230Z AUTO 00000KT 10SM SCT060 OVC100 14/09 A2987 2350 69 2900 000/00 RMK AO2 $
53144K9L2 9L220160408043511104/08/16 04:35:31  5-MIN K9L2 081235Z AUTO 20003KT 10SM SCT055 OVC100 14/09 A2987 2350 71 2800 180/03 RMK AO2 $
53144K9L2 9L220160408044011104/08/16 04:40:31  5-MIN K9L2 081240Z AUTO 18006KT 10SM FEW055 OVC100 14/09 A2987 2350 71 2800 170/06 RMK AO2 $
53144K9L2 9L220160408044511104/08/16 04:45:31  5-MIN K9L2 081245Z AUTO 19006KT 10SM FEW060 OVC100 14/09 A2987 2350 71 2800 180/06 RMK AO2 $
53144K9L2 9L220160408045010404/08/16 04:50:31  5-MIN K9L2 081250Z AUTO 19006KT 10SM OVC100 14/09 A2987 2350 69 2900 170/06 RMK AO2 $
53144K9L2 9L220160408045512104/08/16 04:55:31  5-MIN K9L2 081255Z AUTO 19006KT 10SM OVC100 14/09 A2987 2350 71 2800 170/06 RMK AO2 SLP109 T01390089 $
53144K9L2 9L220160408050010404/08/16 05:00:31  5-MIN K9L2 081300Z AUTO 19005KT 10SM BKN100 14/09 A2987 2350 71 2800 180/05 RMK AO2 $
53144K9L2 9L220160408050511104/08/16 05:05:31  5-MIN K9L2 081305Z AUTO 19005KT 10SM FEW060 BKN100 14/09 A2987 2340 69 2900 180/05 RMK AO2 $
53144K9L2 9L220160408051011104/08/16 05:10:31  5-MIN K9L2 081310Z AUTO 17006KT 10SM SCT060 BKN100 14/09 A2988 2340 69 2900 160/06 RMK AO2 $
53144K9L2 9L220160408051511104/08/16 05:15:31  5-MIN K9L2 081315Z AUTO 17009KT 10SM BKN060 OVC100 14/09 A2988 2340 69 2900 160/09 RMK AO2 $
53144K9L2 9L220160408052011804/08/16 05:20:31  5-MIN K9L2 081320Z AUTO 17009KT 10SM FEW049 BKN055 OVC100 14/09 A2988 2340 69 2900 150/09 RMK AO2 $
53144K9L2 9L220160408052511804/08/16 05:25:31  5-MIN K9L2 081325Z AUTO 17010KT 10SM FEW049 BKN055 OVC100 14/09 A2988 2340 69 2900 160/10 RMK AO2 $
53144K9L2 9L220160408053011104/08/16 05:30:31  5-MIN K9L2 081330Z AUTO 17011KT 10SM FEW049 OVC055 14/09 A2988 2340 69 2900 160/11 RMK AO2 $
53144K9L2 9L220160408053510404/08/16 05:35:31  5-MIN K9L2 081335Z AUTO 18010KT 10SM OVC060 14/09 A2989 2340 69 2900 160/10 RMK AO2 $
53144K9L2 9L220160408054010404/08/16 05:40:31  5-MIN K9L2 081340Z AUTO 18009KT 10SM OVC055 14/09 A2989 2330 69 2900 170/09 RMK AO2 $
53144K9L2 9L220160408054510404/08/16 05:45:31  5-MIN K9L2 081345Z AUTO 19009KT 10SM OVC050 14/09 A2989 2330 69 2800 170/09 RMK AO2 $
53144K9L2 9L220160408055011104/08/16 05:50:31  5-MIN K9L2 081350Z AUTO 19010KT 10SM BKN050 OVC060 14/09 A2989 2330 69 2800 170/10 RMK AO2 $
53144K9L2 9L220160408055512804/08/16 05:55:31  5-MIN K9L2 081355Z AUTO 19009KT 10SM BKN050 OVC060 14/09 A2989 2330 69 2800 180/09 RMK AO2 SLP115 T01440089 $
53144K9L2 9L220160408060011104/08/16 06:00:31  5-MIN K9L2 081400Z AUTO 19009KT 10SM FEW040 OVC048 15/09 A2989 2330 66 2900 180/09 RMK AO2 $
53144K9L2 9L220160408060511804/08/16 06:05:31  5-MIN K9L2 081405Z AUTO 20009KT 10SM FEW040 BKN048 OVC060 14/09 A2989 2330 72 2800 190/09 RMK AO2 $
53144K9L2 9L220160408061012604/08/16 06:10:31  5-MIN K9L2 081410Z AUTO 20009KT 8SM -RA BKN048 OVC060 14/09 A2989 2330 72 2800 190/09 RMK AO2 RAB07 P0000 $
53144K9L2 9L220160408061512604/08/16 06:15:31  5-MIN K9L2 081415Z AUTO 21007KT 5SM -RA BKN048 OVC065 14/10 A2989 2330 74 2800 190/07 RMK AO2 RAB07 P0001 $
53144K9L2 9L220160408062012604/08/16 06:20:31  5-MIN K9L2 081420Z AUTO 20007KT 5SM -RA BKN050 OVC065 14/11 A2989 2330 80 2800 190/07 RMK AO2 RAB07 P0001 $
53144K9L2 9L220160408062513304/08/16 06:25:31  5-MIN K9L2 081425Z AUTO 20007KT 7SM -RA FEW047 BKN060 OVC070 14/11 A2989 2330 80 2800 180/07 RMK AO2 RAB07 P0001 $
53144K9L2 9L220160408063012604/08/16 06:30:31  5-MIN K9L2 081430Z AUTO 19006KT 8SM -RA BKN050 OVC070 14/11 A2990 2330 80 2800 180/06 RMK AO2 RAB07 P0001 $
53144K9L2 9L220160408063512604/08/16 06:35:31  5-MIN K9L2 081435Z AUTO 19006KT 8SM -RA BKN050 OVC065 14/11 A2990 2320 80 2800 170/06 RMK AO2 RAB07 P0001 $
53144K9L2 9L220160408064011804/08/16 06:40:31  5-MIN K9L2 081440Z AUTO 17008KT 9SM OVC055 14/11 A2990 2320 80 2800 150/08 RMK AO2 RAB07E40 P0001 $
53144K9L2 9L220160408064511804/08/16 06:45:31  5-MIN K9L2 081445Z AUTO 16005KT 8SM OVC050 14/11 A2990 2320 80 2800 150/05 RMK AO2 RAB07E40 P0001 $
53144K9L2 9L220160408065012504/08/16 06:50:31  5-MIN K9L2 081450Z AUTO 17005KT 7SM SCT042 OVC050 14/11 A2990 2320 83 2800 160/05 RMK AO2 RAB07E40 P0001 $
53144K9L2 9L220160408065515404/08/16 06:55:31  5-MIN K9L2 081455Z AUTO 17003KT 8SM BKN042 OVC050 14/11 A2990 2320 80 2800 160/03 RMK AO2 RAB07E40 SLP119 P0001 60001 T01390106 55005 $
53144K9L2 9L220160408070011004/08/16 07:00:31  5-MIN K9L2 081500Z AUTO 00000KT 8SM BKN045 OVC050 14/11 A2990 2320 80 2800 000/00 RMK AO2 $
53144K9L2 9L220160408070511004/08/16 07:05:31  5-MIN K9L2 081505Z AUTO 11003KT 9SM BKN045 OVC050 14/11 A2990 2320 77 2800 090/03 RMK AO2 $
53144K9L2 9L220160408071012604/08/16 07:10:31  5-MIN K9L2 081510Z AUTO 11004KT 8SM -RA BKN045 OVC055 14/11 A2991 2310 77 2800 100/04 RMK AO2 RAB10 P0000 $
53144K9L2 9L220160408071512604/08/16 07:15:31  5-MIN K9L2 081515Z AUTO 13005KT 7SM -RA BKN043 OVC050 14/11 A2991 2310 80 2800 120/05 RMK AO2 RAB10 P0000 $
53144K9L2 9L220160408072012604/08/16 07:20:31  5-MIN K9L2 081520Z AUTO 13005KT 6SM -RA BKN045 OVC055 14/11 A2991 2310 83 2800 120/05 RMK AO2 RAB10 P0000 $
53144K9L2 9L220160408072512604/08/16 07:25:31  5-MIN K9L2 081525Z AUTO 15006KT 6SM -RA SCT042 OVC050 14/11 A2991 2310 80 2800 140/06 RMK AO2 RAB10 P0001 $
53144K9L2 9L220160408073012604/08/16 07:30:31  5-MIN K9L2 081530Z AUTO 16007KT 7SM -RA BKN040 OVC055 14/11 A2992 2310 80 2800 140/07 RMK AO2 RAB10 P0001 $
53144K9L2 9L220160408073512604/08/16 07:35:31  5-MIN K9L2 081535Z AUTO 16005KT 7SM -RA BKN038 OVC050 14/11 A2992 2300 83 2700 140/05 RMK AO2 RAB10 P0001 $
53144K9L2 9L220160408074013304/08/16 07:40:31  5-MIN K9L2 081540Z AUTO 14007KT 7SM -RA SCT038 BKN047 OVC055 14/11 A2992 2300 83 2700 130/07 RMK AO2 RAB10 P0001 $
53144K9L2 9L220160408074513304/08/16 07:45:31  5-MIN K9L2 081545Z AUTO 13006KT 7SM -RA SCT038 BKN047 OVC055 14/11 A2992 2300 83 2700 120/06 RMK AO2 RAB10 P0001 $
53144K9L2 9L220160408075515004/08/16 07:55:31  5-MIN K9L2 081555Z AUTO 14005KT 5SM -RA SCT025 BKN038 OVC047 14/11 A2993 2300 83 2700 120/05 RMK AO2 RAB10 SLP128 P0001 T01390111 $
53144K9L2 9L220160408080012704/08/16 08:00:31  5-MIN K9L2 081600Z AUTO 12003KT 4SM -RA BKN025 BKN038 OVC047 14/11 A2993 2300 83 2700 110/03 RMK AO2 P0001 $
53144K9L2 9L220160408080512004/08/16 08:05:31  5-MIN K9L2 081605Z AUTO 12004KT 5SM -RA BKN025 OVC047 14/11 A2993 2290 83 2700 100/04 RMK AO2 P0001 $
53144K9L2 9L220160408081011304/08/16 08:10:31  5-MIN K9L2 081610Z AUTO 13004KT 6SM -RA OVC023 14/11 A2993 2290 83 2700 110/04 RMK AO2 P0001 $
53144K9L2 9L220160408081511304/08/16 08:15:31  5-MIN K9L2 081615Z AUTO 13005KT 7SM -RA OVC022 14/11 A2993 2290 83 2700 110/05 RMK AO2 P0001 $
53144K9L2 9L220160408082012004/08/16 08:20:31  5-MIN K9L2 081620Z AUTO 13004KT 7SM -RA BKN022 OVC026 14/11 A2993 2290 83 2700 110/04 RMK AO2 P0001 $
53144K9L2 9L220160408082512004/08/16 08:25:31  5-MIN K9L2 081625Z AUTO 13004KT 5SM -RA BKN022 OVC028 14/11 A2993 2290 83 2700 120/04 RMK AO2 P0002 $
53144K9L2 9L220160408083012004/08/16 08:30:31  5-MIN K9L2 081630Z AUTO 14004KT 4SM -RA BKN022 OVC030 14/11 A2993 2290 83 2700 120/04 RMK AO2 P0003 $
53144K9L2 9L220160408084012704/08/16 08:40:31  5-MIN K9L2 081640Z AUTO 00000KT 4SM -RA SCT020 BKN030 OVC035 14/11 A2994 2290 83 2700 000/00 RMK AO2 P0004 $
53144K9L2 9L220160408084512704/08/16 08:45:31  5-MIN K9L2 081645Z AUTO 00000KT 4SM -RA FEW020 BKN035 OVC060 14/11 A2994 2290 83 2700 000/00 RMK AO2 P0004 $
53144K9L2 9L220160408085012704/08/16 08:50:31  5-MIN K9L2 081650Z AUTO 00000KT 4SM -RA FEW026 BKN036 OVC060 14/11 A2994 2290 83 2700 000/00 RMK AO2 P0005 $
53144K9L2 9L220160408085514304/08/16 08:55:31  5-MIN K9L2 081655Z AUTO 00000KT 3SM RA SCT034 BKN045 OVC060 14/11 A2994 2280 83 2700 000/00 RMK AO2 SLP134 P0006 T01390111 $
53144K9L2 9L220160408090012704/08/16 09:00:31  5-MIN K9L2 081700Z AUTO 00000KT 3SM -RA SCT034 BKN049 OVC060 14/11 A2994 2280 83 2700 000/00 RMK AO2 P0000 $
53144K9L2 9L220160408090513004/08/16 09:05:31  5-MIN K9L2 081705Z AUTO 00000KT 3SM -RA BR FEW036 BKN049 OVC060 14/12 A2994 2280 86 2700 000/00 RMK AO2 P0001 $
53144K9L2 9L220160408091013004/08/16 09:10:31  5-MIN K9L2 081710Z AUTO 00000KT 3SM -RA BR FEW038 BKN049 OVC060 14/12 A2994 2280 86 2700 000/00 RMK AO2 P0002 $
53144K9L2 9L220160408091512004/08/16 09:15:31  5-MIN K9L2 081715Z AUTO 22003KT 3SM -RA FEW045 OVC055 14/11 A2994 2280 83 2700 210/03 RMK AO2 P0002 $
53144K9L2 9L220160408092011304/08/16 09:20:31  5-MIN K9L2 081720Z AUTO 00000KT 4SM -RA OVC050 14/11 A2994 2280 83 2700 000/00 RMK AO2 P0002 $
53144K9L2 9L220160408092511304/08/16 09:25:31  5-MIN K9L2 081725Z AUTO 24004KT 5SM -RA OVC050 14/12 A2994 2280 83 2800 230/04 RMK AO2 P0003 $
53144K9L2 9L220160408093011304/08/16 09:30:31  5-MIN K9L2 081730Z AUTO 24004KT 5SM -RA OVC055 14/12 A2994 2280 83 2800 220/04 RMK AO2 P0003 $
53144K9L2 9L220160408093511304/08/16 09:35:31  5-MIN K9L2 081735Z AUTO 24005KT 5SM -RA OVC050 14/12 A2995 2280 83 2800 230/05 RMK AO2 P0003 $
53144K9L2 9L220160408094011304/08/16 09:40:31  5-MIN K9L2 081740Z AUTO 24004KT 4SM -RA OVC050 14/12 A2995 2280 83 2800 230/04 RMK AO2 P0003 $
53144K9L2 9L220160408094511304/08/16 09:45:31  5-MIN K9L2 081745Z AUTO 23004KT 4SM -RA OVC050 14/12 A2995 2280 83 2800 220/04 RMK AO2 P0003 $
53144K9L2 9L220160408095011304/08/16 09:50:31  5-MIN K9L2 081750Z AUTO 25005KT 5SM -RA OVC050 14/12 A2995 2280 83 2800 240/05 RMK AO2 P0003 $
53144K9L2 9L220160408095515404/08/16 09:55:31  5-MIN K9L2 081755Z AUTO 24006KT 6SM -RA OVC050 15/12 A2995 2280 80 2800 230/06 RMK AO2 SLP136 P0003 60011 T01500117 10150 20139 53009 $
53144K9L2 9L220160408100011304/08/16 10:00:31  5-MIN K9L2 081800Z AUTO 24005KT 6SM -RA OVC050 15/12 A2995 2280 80 2800 230/05 RMK AO2 P0000 $
53144K9L2 9L220160408100512004/08/16 10:05:31  5-MIN K9L2 081805Z AUTO 26007KT 6SM -RA BKN047 OVC055 15/12 A2994 2280 80 2800 250/07 RMK AO2 P0000 $
53144K9L2 9L220160408101011304/08/16 10:10:31  5-MIN K9L2 081810Z AUTO 26006KT 7SM -RA OVC047 15/12 A2994 2280 80 2800 250/06 RMK AO2 P0000 $
53144K9L2 9L220160408101511304/08/16 10:15:31  5-MIN K9L2 081815Z AUTO 26007KT 7SM -RA OVC047 15/12 A2994 2280 83 2800 250/07 RMK AO2 P0000 $
53144K9L2 9L220160408102011504/08/16 10:20:31  5-MIN K9L2 081820Z AUTO 27007KT 8SM OVC047 15/12 A2994 2280 83 2900 250/07 RMK AO2 RAE18 P0000 $
53144K9L2 9L220160408102512204/08/16 10:25:31  5-MIN K9L2 081825Z AUTO 28006KT 9SM FEW001 OVC049 16/12 A2994 2280 80 2900 260/06 RMK AO2 RAE18 P0000 $
53144K9L2 9L220160408103012304/08/16 10:30:31  5-MIN K9L2 081830Z AUTO 27006KT 10SM FEW001 OVC049 16/12 A2994 2280 80 2900 260/06 RMK AO2 RAE18 P0000 $
53144K9L2 9L220160408103512304/08/16 10:35:31  5-MIN K9L2 081835Z AUTO 30006KT 10SM FEW001 OVC049 16/12 A2994 2280 77 2900 290/06 RMK AO2 RAE18 P0000 $
53144K9L2 9L220160408104012304/08/16 10:40:31  5-MIN K9L2 081840Z AUTO 30006KT 10SM FEW001 OVC049 16/12 A2994 2290 77 2900 280/06 RMK AO2 RAE18 P0000 $
53144K9L2 9L220160408104513004/08/16 10:45:31  5-MIN K9L2 081845Z AUTO 29006KT 10SM FEW001 SCT036 OVC049 16/11 A2994 2290 74 2900 280/06 RMK AO2 RAE18 P0000 $
53144K9L2 9L220160408105013004/08/16 10:50:31  5-MIN K9L2 081850Z AUTO 28006KT 10SM FEW001 SCT036 OVC049 16/12 A2994 2290 77 2900 260/06 RMK AO2 RAE18 P0000 $
53144K9L2 9L220160408105514004/08/16 10:55:31  5-MIN K9L2 081855Z AUTO 30005KT 10SM BKN036 OVC049 16/12 A2993 2290 75 3000 290/05 RMK AO2 RAE18 SLP131 P0000 T01610117 $
53144K9L2 9L220160408110011804/08/16 11:00:31  5-MIN K9L2 081900Z AUTO 30006KT 10SM BKN032 BKN039 OVC049 16/12 A2993 2290 75 3000 290/06 RMK AO2 $
53144K9L2 9L220160408110511104/08/16 11:05:31  5-MIN K9L2 081905Z AUTO 30006KT 10SM BKN032 OVC039 16/12 A2993 2290 75 3000 290/06 RMK AO2 $
53144K9L2 9L220160408111011104/08/16 11:10:31  5-MIN K9L2 081910Z AUTO 28007KT 10SM BKN032 OVC039 16/11 A2993 2290 72 3000 270/07 RMK AO2 $
53144K9L2 9L220160408111511104/08/16 11:15:31  5-MIN K9L2 081915Z AUTO 28006KT 10SM BKN030 OVC039 16/11 A2993 2290 72 3000 260/06 RMK AO2 $
53144K9L2 9L220160408112011104/08/16 11:20:31  5-MIN K9L2 081920Z AUTO 28005KT 10SM BKN030 OVC039 16/11 A2993 2300 69 3000 270/05 RMK AO2 $
53144K9L2 9L220160408112511104/08/16 11:25:31  5-MIN K9L2 081925Z AUTO 28006KT 10SM BKN032 OVC039 16/11 A2993 2300 72 3000 260/06 RMK AO2 $
53144K9L2 9L220160408113011104/08/16 11:30:31  5-MIN K9L2 081930Z AUTO 28005KT 10SM SCT030 OVC037 16/11 A2992 2300 72 3000 270/05 RMK AO2 $
53144K9L2 9L220160408113511104/08/16 11:35:31  5-MIN K9L2 081935Z AUTO 30005KT 10SM SCT030 OVC037 16/11 A2992 2300 72 3000 290/05 RMK AO2 $
53144K9L2 9L220160408114010404/08/16 11:40:31  5-MIN K9L2 081940Z AUTO 28006KT 10SM OVC034 17/11 A2992 2300 69 3100 270/06 RMK AO2 $
53144K9L2 9L220160408114510404/08/16 11:45:31  5-MIN K9L2 081945Z AUTO 29005KT 10SM OVC034 17/11 A2992 2300 67 3100 280/05 RMK AO2 $
53144K9L2 9L220160408115010404/08/16 11:50:31  5-MIN K9L2 081950Z AUTO 29005KT 10SM OVC034 17/11 A2992 2300 69 3100 270/05 RMK AO2 $
53144K9L2 9L220160408115513504/08/16 11:55:31  5-MIN K9L2 081955Z AUTO 29004KT 10SM FEW001 BKN032 OVC039 17/11 A2992 2300 67 3100 270/04 RMK AO2 SLP125 T01670106 $
53144K9L2 9L220160408120011104/08/16 12:00:31  5-MIN K9L2 082000Z AUTO 25005KT 10SM FEW001 OVC034 17/11 A2992 2310 69 3100 240/05 RMK AO2 $
53144K9L2 9L220160408120511104/08/16 12:05:31  5-MIN K9L2 082005Z AUTO 28005KT 10SM SCT001 OVC034 17/11 A2992 2310 69 3100 270/05 RMK AO2 $
53144K9L2 9L220160408121011104/08/16 12:10:31  5-MIN K9L2 082010Z AUTO 27004KT 10SM SCT001 OVC034 17/11 A2992 2310 67 3100 260/04 RMK AO2 $
53144K9L2 9L220160408121511804/08/16 12:15:31  5-MIN K9L2 082015Z AUTO VRB05KT 10SM SCT001 BKN030 OVC034 17/11 A2992 2310 64 3100 VRB/05 RMK AO2 $
53144K9L2 9L220160408122011804/08/16 12:20:31  5-MIN K9L2 082020Z AUTO 25004KT 10SM SCT001 BKN030 OVC036 17/11 A2992 2310 64 3100 240/04 RMK AO2 $
53144K9L2 9L220160408122511804/08/16 12:25:31  5-MIN K9L2 082025Z AUTO VRB04KT 10SM BKN001 BKN030 OVC036 17/11 A2992 2310 64 3100 VRB/04 RMK AO2 $
53144K9L2 9L220160408123011104/08/16 12:30:31  5-MIN K9L2 082030Z AUTO 23004KT 10SM BKN001 OVC030 17/11 A2991 2310 67 3100 220/04 RMK AO2 $
53144K9L2 9L220160408123511104/08/16 12:35:31  5-MIN K9L2 082035Z AUTO 23005KT 10SM BKN001 OVC030 17/11 A2992 2310 64 3100 220/05 RMK AO2 $
53144K9L2 9L220160408124013004/08/16 12:40:31  5-MIN K9L2 082040Z AUTO 22005KT 10SM BKN001 BKN009 OVC030 17/11 A2992 2310 64 3100 200/05 RMK AO2 CIG 001V005 $
53144K9L2 9L220160408124512304/08/16 12:45:31  5-MIN K9L2 082045Z AUTO 23005KT 10SM BKN003 OVC009 17/11 A2992 2310 64 3100 220/05 RMK AO2 CIG 001V005 $
53144K9L2 9L220160408125013004/08/16 12:50:31  5-MIN K9L2 082050Z AUTO 24006KT 10SM BKN003 BKN009 OVC015 17/11 A2991 2310 64 3100 230/06 RMK AO2 CIG 001V005 $
53144K9L2 9L220160408125514704/08/16 12:55:31  5-MIN K9L2 082055Z AUTO 22003KT 10SM SCT003 BKN009 OVC033 17/11 A2991 2310 64 3100 210/03 RMK AO2 SLP123 60000 T01720106 51015 $
53144K9L2 9L220160408130011804/08/16 13:00:31  5-MIN K9L2 082100Z AUTO 22005KT 10SM FEW003 SCT009 OVC033 17/11 A2991 2310 64 3100 210/05 RMK AO2 $
53144K9L2 9L220160408130511804/08/16 13:05:31  5-MIN K9L2 082105Z AUTO VRB04KT 10SM FEW003 SCT009 OVC033 17/11 A2991 2310 64 3100 VRB/04 RMK AO2 $
53144K9L2 9L220160408131011104/08/16 13:10:31  5-MIN K9L2 082110Z AUTO 24007KT 10SM FEW003 OVC033 18/11 A2991 2320 62 3200 220/07 RMK AO2 $
53144K9L2 9L220160408131511104/08/16 13:15:31  5-MIN K9L2 082115Z AUTO 27007KT 10SM FEW003 OVC033 17/11 A2991 2320 64 3100 260/07 RMK AO2 $
53144K9L2 9L220160408132011104/08/16 13:20:31  5-MIN K9L2 082120Z AUTO 25005KT 10SM FEW003 OVC033 17/11 A2990 2320 64 3200 230/05 RMK AO2 $
53144K9L2 9L220160408132510404/08/16 13:25:31  5-MIN K9L2 082125Z AUTO 23006KT 10SM OVC033 17/11 A2990 2320 64 3200 220/06 RMK AO2 $
53144K9L2 9L220160408133011104/08/16 13:30:31  5-MIN K9L2 082130Z AUTO 22007KT 10SM FEW004 OVC035 18/11 A2990 2320 62 3200 210/07 RMK AO2 $
53144K9L2 9L220160408133511104/08/16 13:35:31  5-MIN K9L2 082135Z AUTO 21008KT 10SM FEW004 OVC035 18/10 A2990 2320 60 3200 200/08 RMK AO2 $
53144K9L2 9L220160408134011104/08/16 13:40:31  5-MIN K9L2 082140Z AUTO 21006KT 10SM FEW004 OVC035 17/10 A2990 2320 62 3200 200/06 RMK AO2 $
53144K9L2 9L220160408134510404/08/16 13:45:31  5-MIN K9L2 082145Z AUTO 21005KT 10SM OVC035 17/10 A2990 2320 62 3200 200/05 RMK AO2 $
53144K9L2 9L220160408135010404/08/16 13:50:31  5-MIN K9L2 082150Z AUTO 23004KT 10SM OVC035 17/09 A2990 2320 60 3200 220/04 RMK AO2 $
53144K9L2 9L220160408135512104/08/16 13:55:31  5-MIN K9L2 082155Z AUTO VRB03KT 10SM OVC037 17/09 A2990 2320 60 3200 VRB/03 RMK AO2 SLP118 T01720094 $
53144K9L2 9L220160408140011104/08/16 14:00:31  5-MIN K9L2 082200Z AUTO 24003KT 10SM FEW010 OVC037 17/09 A2990 2320 60 3200 230/03 RMK AO2 $
53144K9L2 9L220160408140511104/08/16 14:05:31  5-MIN K9L2 082205Z AUTO 00000KT 10SM BKN012 OVC037 17/09 A2990 2320 60 3200 000/00 RMK AO2 $
53144K9L2 9L220160408141011104/08/16 14:10:31  5-MIN K9L2 082210Z AUTO 03008KT 10SM BKN014 OVC037 17/11 A2990 2320 67 3100 020/08 RMK AO2 $
53144K9L2 9L220160408141511104/08/16 14:15:31  5-MIN K9L2 082215Z AUTO 04006KT 10SM BKN014 OVC037 17/11 A2990 2320 67 3100 020/06 RMK AO2 $
53144K9L2 9L220160408142011104/08/16 14:20:31  5-MIN K9L2 082220Z AUTO 03009KT 10SM BKN014 OVC039 17/11 A2990 2330 67 3100 010/09 RMK AO2 $
53144K9L2 9L220160408142511104/08/16 14:25:31  5-MIN K9L2 082225Z AUTO 05008KT 10SM BKN014 OVC039 17/11 A2990 2320 67 3100 040/08 RMK AO2 $
53144K9L2 9L220160408143011104/08/16 14:30:31  5-MIN K9L2 082230Z AUTO 03007KT 10SM SCT014 OVC039 16/11 A2990 2320 69 3000 020/07 RMK AO2 $
53144K9L2 9L220160408143511104/08/16 14:35:31  5-MIN K9L2 082235Z AUTO 03008KT 10SM FEW014 OVC039 16/11 A2990 2330 69 3000 020/08 RMK AO2 $
53144K9L2 9L220160408144011104/08/16 14:40:31  5-MIN K9L2 082240Z AUTO 02007KT 10SM FEW014 OVC039 16/11 A2990 2330 69 3000 010/07 RMK AO2 $
53144K9L2 9L220160408144510404/08/16 14:45:31  5-MIN K9L2 082245Z AUTO 02007KT 10SM OVC041 16/11 A2989 2330 69 3000 010/07 RMK AO2 $
53144K9L2 9L220160408145011104/08/16 14:50:31  5-MIN K9L2 082250Z AUTO 02006KT 10SM FEW017 OVC041 17/11 A2989 2330 67 3100 010/06 RMK AO2 $
53144K9L2 9L220160408145512804/08/16 14:55:31  5-MIN K9L2 082255Z AUTO 02006KT 10SM FEW017 OVC043 17/11 A2989 2330 67 3100 010/06 RMK AO2 SLP116 T01670106 $
53144K9L2 9L220160408150012704/08/16 15:00:31  5-MIN K9L2 082300Z AUTO 03007KT 10SM -RA BKN043 OVC050 17/11 A2989 2330 67 3100 010/07 RMK AO2 RAB00 P0000 $
53144K9L2 9L220160408150512704/08/16 15:05:31  5-MIN K9L2 082305Z AUTO 04006KT 10SM -RA FEW016 OVC047 16/11 A2989 2330 69 3000 020/06 RMK AO2 RAB00 P0001 $
53144K9L2 9L220160408151013304/08/16 15:10:31  5-MIN K9L2 082310Z AUTO 05005KT 7SM -RA SCT016 SCT026 OVC047 16/12 A2989 2330 75 3000 040/05 RMK AO2 RAB00 P0001 $
53144K9L2 9L220160408151512604/08/16 15:15:31  5-MIN K9L2 082315Z AUTO 04005KT 4SM -RA SCT016 OVC049 16/12 A2989 2330 77 3000 030/05 RMK AO2 RAB00 P0002 $
53144K9L2 9L220160408152012604/08/16 15:20:31  5-MIN K9L2 082320Z AUTO 06003KT 4SM -RA FEW016 OVC049 16/12 A2989 2330 77 3000 050/03 RMK AO2 RAB00 P0002 $
53144K9L2 9L220160408152513304/08/16 15:25:31  5-MIN K9L2 082325Z AUTO 00000KT 6SM -RA FEW001 SCT018 OVC049 16/11 A2989 2330 74 3000 000/00 RMK AO2 RAB00 P0002 $
53144K9L2 9L220160408153013304/08/16 15:30:31  5-MIN K9L2 082330Z AUTO 00000KT 6SM -RA FEW001 BKN019 OVC049 16/12 A2989 2330 77 3000 000/00 RMK AO2 RAB00 P0003 $
53144K9L2 9L220160408153513304/08/16 15:35:31  5-MIN K9L2 082335Z AUTO 00000KT 4SM -RA FEW005 BKN017 OVC050 16/11 A2989 2330 74 3000 000/00 RMK AO2 RAB00 P0004 $
53144K9L2 9L220160408154014504/08/16 15:40:31  5-MIN K9L2 082340Z AUTO 00000KT 6SM -RA FEW002 BKN007 OVC050 16/12 A2989 2330 77 3000 000/00 RMK AO2 RAB00 CIG 004V010 P0004 $
53144K9L2 9L220160408154514604/08/16 15:45:31  5-MIN K9L2 082345Z AUTO 00000KT 10SM -RA SCT004 BKN009 OVC050 16/12 A2989 2340 77 3000 000/00 RMK AO2 RAB00 CIG 006V013 P0004 $
53144K9L2 9L220160408155014504/08/16 15:50:31  5-MIN K9L2 082350Z AUTO 00000KT 10SM SCT002 BKN010 OVC021 16/12 A2988 2340 75 3000 000/00 RMK AO2 RAB00E48 CIG 008V013 P0004 $
53144K9L2 9L220160408155517404/08/16 15:55:31  5-MIN K9L2 082355Z AUTO 00000KT 10SM FEW002 SCT007 BKN013 16/12 A2988 2340 75 3000 000/00 RMK AO2 RAB00E48 SLP113 P0004 60004 T01610117 10178 20144 56011 $
53144K9L2 9L220160408160011804/08/16 16:00:31  5-MIN K9L2 090000Z AUTO 03004KT 10SM SCT007 BKN013 BKN019 16/12 A2988 2340 75 3000 010/04 RMK AO2 $
53144K9L2 9L220160408160511804/08/16 16:05:31  5-MIN K9L2 090005Z AUTO 02003KT 10SM FEW005 SCT013 BKN019 16/12 A2988 2340 75 3000 010/03 RMK AO2 $
53144K9L2 9L220160408161011804/08/16 16:10:31  5-MIN K9L2 090010Z AUTO 00000KT 10SM SCT007 BKN013 OVC060 16/12 A2988 2340 75 3000 000/00 RMK AO2 $
53144K9L2 9L220160408161511804/08/16 16:15:31  5-MIN K9L2 090015Z AUTO 00000KT 10SM SCT007 BKN013 OVC060 16/12 A2988 2340 75 3000 000/00 RMK AO2 $
53144K9L2 9L220160408162013004/08/16 16:20:31  5-MIN K9L2 090020Z AUTO 00000KT 10SM BKN009 BKN013 OVC060 16/12 A2988 2340 75 3000 000/00 RMK AO2 CIG 007V011 $
53144K9L2 9L220160408162513004/08/16 16:25:31  5-MIN K9L2 090025Z AUTO 00000KT 10SM BKN009 BKN019 OVC060 17/12 A2988 2340 72 3100 000/00 RMK AO2 CIG 007V015 $
53144K9L2 9L220160408163012304/08/16 16:30:31  5-MIN K9L2 090030Z AUTO 00000KT 10SM BKN009 BKN060 17/12 A2988 2340 72 3100 000/00 RMK AO2 CIG 007V014 $
53144K9L2 9L220160408163513004/08/16 16:35:31  5-MIN K9L2 090035Z AUTO 00000KT 10SM BKN009 BKN047 BKN055 17/12 A2988 2340 72 3100 000/00 RMK AO2 CIG 007V013 $
53144K9L2 9L220160408164011804/08/16 16:40:31  5-MIN K9L2 090040Z AUTO 00000KT 10SM SCT009 BKN026 OVC050 17/12 A2988 2340 72 3100 000/00 RMK AO2 $
53144K9L2 9L220160408164511804/08/16 16:45:31  5-MIN K9L2 090045Z AUTO 00000KT 10SM SCT009 BKN026 OVC050 17/12 A2988 2340 72 3100 000/00 RMK AO2 $
53144K9L2 9L220160408165013404/08/16 16:50:31  5-MIN K9L2 090050Z AUTO 10003KT 10SM -RA SCT009 BKN026 OVC050 16/11 A2988 2340 72 3000 090/03 RMK AO2 RAB50 P0000 $
53144K9L2 9L220160408165516204/08/16 16:55:31  5-MIN K9L2 090055Z AUTO 00000KT 8SM -RA BKN007 BKN026 OVC050 16/12 A2988 2340 77 3000 000/00 RMK AO2 RAB50 CIG 001V013 SLP114 P0001 T01610122 $
53144K9L2 9L220160408170013904/08/16 17:00:31  5-MIN K9L2 090100Z AUTO 19005KT 9SM -RA BKN007 BKN026 OVC036 16/12 A2988 2340 75 3000 180/05 RMK AO2 CIG 001V013 P0000 $
53144K9L2 9L220160408170514204/08/16 17:05:31  5-MIN K9L2 090105Z AUTO 00000KT 10SM SCT005 BKN009 OVC026 17/12 A2988 2340 72 3100 000/00 RMK AO2 RAE05 CIG 006V013 P0000 $
53144K9L2 9L220160408171014204/08/16 17:10:31  5-MIN K9L2 090110Z AUTO 00000KT 10SM BKN003 BKN007 OVC013 17/11 A2988 2340 69 3100 000/00 RMK AO2 RAE05 CIG 001V005 P0000 $
53144K9L2 9L220160408171514204/08/16 17:15:31  5-MIN K9L2 090115Z AUTO VRB04KT 10SM BKN003 BKN007 OVC015 17/11 A2989 2340 69 3100 VRB/04 RMK AO2 RAE05 CIG 001V005 P0000 $
53144K9L2 9L220160408172014204/08/16 17:20:31  5-MIN K9L2 090120Z AUTO 25009KT 10SM SCT004 BKN007 OVC070 17/11 A2989 2340 67 3100 240/09 RMK AO2 RAE05 CIG 006V011 P0000 $
53144K9L2 9L220160408172513004/08/16 17:25:31  5-MIN K9L2 090125Z AUTO 25008KT 10SM SCT004 BKN015 OVC070 17/11 A2989 2330 67 3100 240/08 RMK AO2 RAE05 P0000 $
53144K9L2 9L220160408173013004/08/16 17:30:31  5-MIN K9L2 090130Z AUTO 27009KT 10SM FEW002 SCT006 OVC039 17/11 A2989 2330 67 3100 250/09 RMK AO2 RAE05 P0000 $
53144K9L2 9L220160408173513004/08/16 17:35:31  5-MIN K9L2 090135Z AUTO 26008KT 10SM FEW004 SCT014 OVC039 16/10 A2989 2330 67 3000 250/08 RMK AO2 RAE05 P0000 $
53144K9L2 9L220160408174012304/08/16 17:40:31  5-MIN K9L2 090140Z AUTO 25008KT 10SM FEW013 OVC039 16/10 A2989 2340 67 3000 240/08 RMK AO2 RAE05 P0000 $
53144K9L2 9L220160408174513004/08/16 17:45:31  5-MIN K9L2 090145Z AUTO 26009KT 10SM FEW013 BKN036 OVC043 16/10 A2989 2340 67 3000 250/09 RMK AO2 RAE05 P0000 $
53144K9L2 9L220160408175011604/08/16 17:50:31  5-MIN K9L2 090150Z AUTO 25009KT 10SM OVC036 16/10 A2989 2330 67 3000 230/09 RMK AO2 RAE05 P0000 $
53144K9L2 9L220160408175513304/08/16 17:55:31  5-MIN K9L2 090155Z AUTO 24007KT 10SM OVC034 16/11 A2989 2330 69 3000 230/07 RMK AO2 RAE05 SLP115 P0000 T01610106 $
53144K9L2 9L220160408180011104/08/16 18:00:31  5-MIN K9L2 090200Z AUTO 25008KT 10SM BKN036 OVC043 16/10 A2989 2330 67 3000 240/08 RMK AO2 $
53144K9L2 9L220160408180511104/08/16 18:05:31  5-MIN K9L2 090205Z AUTO 25008KT 10SM SCT023 OVC034 16/10 A2989 2330 69 3000 230/08 RMK AO2 $
53144K9L2 9L220160408181011104/08/16 18:10:31  5-MIN K9L2 090210Z AUTO 24007KT 10SM SCT023 OVC034 16/10 A2989 2330 69 3000 230/07 RMK AO2 $
53144K9L2 9L220160408181511104/08/16 18:15:31  5-MIN K9L2 090215Z AUTO 25006KT 10SM FEW023 OVC034 16/10 A2989 2330 69 3000 230/06 RMK AO2 $
53144K9L2 9L220160408182011104/08/16 18:20:31  5-MIN K9L2 090220Z AUTO 25005KT 10SM SCT023 OVC034 16/10 A2989 2330 69 3000 240/05 RMK AO2 $
53144K9L2 9L220160408182511804/08/16 18:25:31  5-MIN K9L2 090225Z AUTO 24004KT 10SM SCT023 BKN030 OVC036 16/10 A2990 2330 69 3000 230/04 RMK AO2 $
53144K9L2 9L220160408183011104/08/16 18:30:31  5-MIN K9L2 090230Z AUTO 25004KT 10SM BKN021 OVC030 16/10 A2990 2330 69 3000 240/04 RMK AO2 $
53144K9L2 9L220160408183511104/08/16 18:35:31  5-MIN K9L2 090235Z AUTO 24006KT 10SM BKN021 OVC030 16/10 A2990 2320 69 3000 230/06 RMK AO2 $
53144K9L2 9L220160408184011104/08/16 18:40:31  5-MIN K9L2 090240Z AUTO 24005KT 10SM BKN021 OVC030 15/10 A2990 2320 72 2900 230/05 RMK AO2 $
53144K9L2 9L220160408184511104/08/16 18:45:31  5-MIN K9L2 090245Z AUTO 25008KT 10SM BKN021 OVC030 15/10 A2990 2320 72 2900 240/08 RMK AO2 $
53144K9L2 9L220160408185011104/08/16 18:50:31  5-MIN K9L2 090250Z AUTO 25006KT 10SM BKN021 OVC028 15/10 A2990 2320 72 2900 240/06 RMK AO2 $
53144K9L2 9L220160408185513304/08/16 18:55:31  5-MIN K9L2 090255Z AUTO 25007KT 10SM OVC021 15/10 A2990 2320 72 2900 240/07 RMK AO2 SLP120 60001 T01500100 56010 $
53144K9L2 9L220160408190010404/08/16 19:00:31  5-MIN K9L2 090300Z AUTO 25007KT 10SM OVC021 15/10 A2990 2320 72 2900 240/07 RMK AO2 $
53144K9L2 9L220160408190510404/08/16 19:05:31  5-MIN K9L2 090305Z AUTO 26007KT 10SM OVC021 15/10 A2990 2320 72 2900 240/07 RMK AO2 $
53144K9L2 9L220160408191010404/08/16 19:10:31  5-MIN K9L2 090310Z AUTO 26006KT 10SM OVC021 15/10 A2990 2320 72 2900 240/06 RMK AO2 $
53144K9L2 9L220160408191510404/08/16 19:15:31  5-MIN K9L2 090315Z AUTO 26007KT 10SM OVC021 15/10 A2990 2320 72 2900 250/07 RMK AO2 $
53144K9L2 9L220160408192010404/08/16 19:20:31  5-MIN K9L2 090320Z AUTO 27008KT 10SM OVC021 15/10 A2990 2320 72 2900 250/08 RMK AO2 $
53144K9L2 9L220160408192510404/08/16 19:25:31  5-MIN K9L2 090325Z AUTO 26007KT 10SM OVC023 15/10 A2991 2310 72 2900 250/07 RMK AO2 $
53144K9L2 9L220160408193010404/08/16 19:30:31  5-MIN K9L2 090330Z AUTO 26007KT 10SM OVC023 15/10 A2991 2310 72 2900 250/07 RMK AO2 $
53144K9L2 9L220160408193510404/08/16 19:35:31  5-MIN K9L2 090335Z AUTO 25009KT 10SM OVC023 14/10 A2991 2310 74 2800 240/09 RMK AO2 $
53144K9L2 9L220160408194010404/08/16 19:40:31  5-MIN K9L2 090340Z AUTO 25009KT 10SM OVC023 14/10 A2991 2310 74 2800 240/09 RMK AO2 $
53144K9L2 9L220160408194510404/08/16 19:45:31  5-MIN K9L2 090345Z AUTO 25008KT 10SM OVC023 14/10 A2991 2310 74 2800 240/08 RMK AO2 $
53144K9L2 9L220160408195010404/08/16 19:50:31  5-MIN K9L2 090350Z AUTO 24010KT 10SM OVC023 14/10 A2992 2310 74 2800 230/10 RMK AO2 $
53144K9L2 9L220160408195512104/08/16 19:55:31  5-MIN K9L2 090355Z AUTO 24009KT 10SM OVC023 14/10 A2992 2300 74 2800 230/09 RMK AO2 SLP127 T01440100 $
53144K9L2 9L220160409171511104/09/16 17:15:31  5-MIN K9L2 100115Z AUTO 23015KT 10SM BKN039 OVC070 16/07 A2984 2380 55 3100 220/15 RMK AO2 $
53144K9L2 9L220160409172011804/09/16 17:20:31  5-MIN K9L2 100120Z AUTO 22013KT 10SM SCT035 BKN042 OVC070 16/07 A2984 2380 53 3100 210/13 RMK AO2 $
53144K9L2 9L220160409172511104/09/16 17:25:31  5-MIN K9L2 100125Z AUTO 23015KT 10SM FEW030 OVC042 16/07 A2984 2380 53 3100 220/15 RMK AO2 $
53144K9L2 9L220160409173011104/09/16 17:30:31  5-MIN K9L2 100130Z AUTO 24014KT 10SM SCT030 OVC038 16/06 A2984 2380 53 3000 220/14 RMK AO2 $
53144K9L2 9L220160409173511104/09/16 17:35:31  5-MIN K9L2 100135Z AUTO 24015KT 10SM SCT030 OVC038 16/06 A2984 2380 53 3000 230/15 RMK AO2 $
53144K9L2 9L220160409174011804/09/16 17:40:31  5-MIN K9L2 100140Z AUTO 25017KT 10SM SCT030 BKN038 OVC049 16/06 A2983 2380 53 3000 230/17 RMK AO2 $
53144K9L2 9L220160409174512404/09/16 17:45:31  5-MIN K9L2 100145Z AUTO 25017G23KT 10SM FEW030 SCT040 OVC049 15/06 A2983 2390 53 3000 240/17G23 RMK AO2 $
53144K9L2 9L220160409175012404/09/16 17:50:31  5-MIN K9L2 100150Z AUTO 25015G23KT 10SM FEW030 SCT036 OVC049 15/06 A2983 2380 53 3000 240/15G23 RMK AO2 $
53144K9L2 9L220160409175513404/09/16 17:55:31  5-MIN K9L2 100155Z AUTO 25018G23KT 10SM FEW030 OVC047 15/06 A2983 2380 55 3000 230/18G23 RMK AO2 SLP099 T01500061 $
53144K9L2 9L220160409180011104/09/16 18:00:31  5-MIN K9L2 100200Z AUTO 25017KT 10SM FEW028 OVC048 15/06 A2983 2380 53 3000 230/17 RMK AO2 $
53144K9L2 9L220160409180511704/09/16 18:05:31  5-MIN K9L2 100205Z AUTO 25016G22KT 10SM BKN045 OVC050 15/06 A2984 2380 53 3000 240/16G22 RMK AO2 $
53144K9L2 9L220160409181011704/09/16 18:10:31  5-MIN K9L2 100210Z AUTO 25014G22KT 10SM BKN045 OVC050 14/06 A2984 2380 55 2900 240/14G22 RMK AO2 $
53144K9L2 9L220160409181511004/09/16 18:15:31  5-MIN K9L2 100215Z AUTO 25018G21KT 10SM OVC045 14/06 A2984 2380 57 2900 240/18G21 RMK AO2 $
53144K9L2 9L220160409182011704/09/16 18:20:31  5-MIN K9L2 100220Z AUTO 25017G22KT 10SM BKN045 OVC055 14/06 A2984 2380 57 2900 240/17G22 RMK AO2 $
53144K9L2 9L220160409182511704/09/16 18:25:31  5-MIN K9L2 100225Z AUTO 25019G23KT 10SM SCT045 OVC055 14/06 A2984 2380 59 2800 240/19G23 RMK AO2 $
53144K9L2 9L220160409183011704/09/16 18:30:31  5-MIN K9L2 100230Z AUTO 25017G23KT 10SM SCT045 OVC055 14/07 A2984 2380 61 2800 240/17G23 RMK AO2 $
53144K9L2 9L220160409183511104/09/16 18:35:31  5-MIN K9L2 100235Z AUTO 25019KT 10SM FEW045 OVC060 14/07 A2983 2380 61 2800 240/19 RMK AO2 $
53144K9L2 9L220160409184011104/09/16 18:40:31  5-MIN K9L2 100240Z AUTO 25016KT 10SM BKN049 OVC070 14/07 A2983 2380 61 2800 240/16 RMK AO2 $
53144K9L2 9L220160409184511104/09/16 18:45:31  5-MIN K9L2 100245Z AUTO 26017KT 10SM BKN055 OVC075 14/07 A2983 2380 61 2800 250/17 RMK AO2 $
53144K9L2 9L220160409185011104/09/16 18:50:31  5-MIN K9L2 100250Z AUTO 26018KT 10SM SCT055 OVC075 14/07 A2983 2390 61 2900 250/18 RMK AO2 $
53144K9L2 9L220160409185515304/09/16 18:55:31  5-MIN K9L2 100255Z AUTO 26017G24KT 10SM SCT055 BKN080 OVC100 14/07 A2983 2390 61 2800 240/17G24 RMK AO2 SLP097 60000 T01390067 56013 $
53144K9L2 9L220160409190012404/09/16 19:00:31  5-MIN K9L2 100300Z AUTO 26016G24KT 10SM BKN055 BKN075 OVC100 13/07 A2983 2390 66 2800 250/16G24 RMK AO2 $
53144K9L2 9L220160409190512404/09/16 19:05:31  5-MIN K9L2 100305Z AUTO 26014G23KT 10SM SCT055 BKN070 OVC095 13/07 A2983 2380 66 2800 250/14G23 RMK AO2 $
53144K9L2 9L220160409191011804/09/16 19:10:31  5-MIN K9L2 100310Z AUTO 26013KT 10SM FEW055 BKN070 BKN095 13/07 A2983 2380 66 2800 250/13 RMK AO2 $
53144K9L2 9L220160409191512404/09/16 19:15:31  5-MIN K9L2 100315Z AUTO 26014G21KT 10SM FEW055 SCT080 BKN100 13/07 A2984 2380 66 2800 240/14G21 RMK AO2 $
53144K9L2 9L220160409192011704/09/16 19:20:31  5-MIN K9L2 100320Z AUTO 26013G21KT 10SM FEW055 BKN090 13/07 A2984 2380 66 2800 240/13G21 RMK AO2 $
53144K9L2 9L220160409192511704/09/16 19:25:31  5-MIN K9L2 100325Z AUTO 26013G18KT 10SM FEW055 BKN090 13/07 A2984 2380 69 2700 240/13G18 RMK AO2 $
53144K9L2 9L220160409193011704/09/16 19:30:31  5-MIN K9L2 100330Z AUTO 26011G19KT 10SM FEW065 BKN085 13/07 A2984 2380 69 2700 240/11G19 RMK AO2 $
53144K9L2 9L220160409193511704/09/16 19:35:31  5-MIN K9L2 100335Z AUTO 26012G19KT 10SM SCT065 BKN085 13/07 A2984 2380 69 2700 240/12G19 RMK AO2 $
53144K9L2 9L220160409194011104/09/16 19:40:31  5-MIN K9L2 100340Z AUTO 26011KT 10SM SCT070 BKN090 13/07 A2984 2380 69 2700 240/11 RMK AO2 $
53144K9L2 9L220160409194511804/09/16 19:45:31  5-MIN K9L2 100345Z AUTO 26011KT 10SM FEW065 SCT080 BKN090 13/07 A2984 2380 69 2700 250/11 RMK AO2 $
53144K9L2 9L220160409195011104/09/16 19:50:31  5-MIN K9L2 100350Z AUTO 26011KT 10SM FEW065 SCT085 13/07 A2984 2370 69 2700 250/11 RMK AO2 $
53144K9L2 9L220160409195512804/09/16 19:55:31  5-MIN K9L2 100355Z AUTO 26012KT 10SM FEW065 SCT100 13/07 A2985 2370 69 2700 250/12 RMK AO2 SLP102 T01280072 $
53144K9L2 9L220160409200011104/09/16 20:00:31  5-MIN K9L2 100400Z AUTO 26011KT 10SM FEW070 BKN100 13/07 A2985 2370 69 2700 240/11 RMK AO2 $
53144K9L2 9L220160409200510404/09/16 20:05:31  5-MIN K9L2 100405Z AUTO 26013KT 10SM SCT100 13/07 A2985 2370 69 2700 240/13 RMK AO2 $
53144K9L2 9L220160409201010404/09/16 20:10:31  5-MIN K9L2 100410Z AUTO 26011KT 10SM FEW100 13/07 A2985 2370 66 2700 240/11 RMK AO2 $
53144K9L2 9L220160409201510404/09/16 20:15:31  5-MIN K9L2 100415Z AUTO 26011KT 10SM FEW100 13/07 A2985 2370 66 2700 240/11 RMK AO2 $
53144K9L2 9L220160409202010404/09/16 20:20:31  5-MIN K9L2 100420Z AUTO 25012KT 10SM FEW100 13/07 A2985 2370 66 2700 240/12 RMK AO2 $
53144K9L2 9L220160409202510404/09/16 20:25:31  5-MIN K9L2 100425Z AUTO 25010KT 10SM FEW100 13/07 A2985 2370 66 2700 240/10 RMK AO2 $
53144K9L2 9L220160409203010104/09/16 20:30:31  5-MIN K9L2 100430Z AUTO 26009KT 10SM CLR 13/07 A2985 2360 66 2700 240/09 RMK AO2 $
53144K9L2 9L220160409203510104/09/16 20:35:31  5-MIN K9L2 100435Z AUTO 26009KT 10SM CLR 13/07 A2985 2360 66 2700 250/09 RMK AO2 $
53144K9L2 9L220160409204010104/09/16 20:40:31  5-MIN K9L2 100440Z AUTO 26008KT 10SM CLR 13/07 A2986 2360 66 2700 240/08 RMK AO2 $
53144K9L2 9L220160409204510104/09/16 20:45:31  5-MIN K9L2 100445Z AUTO 26008KT 10SM CLR 13/07 A2986 2360 66 2700 250/08 RMK AO2 $
53144K9L2 9L220160409205011104/09/16 20:50:31  5-MIN K9L2 100450Z AUTO 26009KT 10SM FEW046 SCT060 13/07 A2986 2360 66 2700 250/09 RMK AO2 $
53144K9L2 9L220160409205512804/09/16 20:55:31  5-MIN K9L2 100455Z AUTO 26008KT 10SM FEW046 BKN060 13/07 A2986 2360 66 2700 250/08 RMK AO2 SLP104 T01280067 $
53144K9L2 9L220160409210011104/09/16 21:00:31  5-MIN K9L2 100500Z AUTO 26008KT 10SM FEW046 BKN065 13/07 A2985 2360 66 2700 250/08 RMK AO2 $
53144K9L2 9L220160409210511104/09/16 21:05:31  5-MIN K9L2 100505Z AUTO 26009KT 10SM FEW046 BKN060 13/07 A2985 2370 66 2700 240/09 RMK AO2 $
53144K9L2 9L220160409211011804/09/16 21:10:31  5-MIN K9L2 100510Z AUTO 26009KT 10SM FEW046 BKN060 OVC080 13/07 A2985 2370 66 2700 250/09 RMK AO2 $
53144K9L2 9L220160409211511104/09/16 21:15:31  5-MIN K9L2 100515Z AUTO 26008KT 10SM BKN060 OVC085 13/07 A2985 2370 64 2800 240/08 RMK AO2 $
53144K9L2 9L220160409212011104/09/16 21:20:31  5-MIN K9L2 100520Z AUTO 26009KT 10SM BKN065 OVC085 13/07 A2985 2370 64 2800 250/09 RMK AO2 $
53144K9L2 9L220160409212511104/09/16 21:25:31  5-MIN K9L2 100525Z AUTO 26008KT 10SM BKN060 OVC085 13/06 A2985 2370 61 2800 240/08 RMK AO2 $
53144K9L2 9L220160409213011104/09/16 21:30:31  5-MIN K9L2 100530Z AUTO 25007KT 10SM BKN060 OVC085 13/06 A2985 2370 61 2800 240/07 RMK AO2 $
53144K9L2 9L220160409213511804/09/16 21:35:31  5-MIN K9L2 100535Z AUTO 25007KT 10SM FEW043 BKN060 OVC085 13/06 A2985 2370 61 2800 240/07 RMK AO2 $
53144K9L2 9L220160409214011804/09/16 21:40:31  5-MIN K9L2 100540Z AUTO 25007KT 10SM FEW043 BKN060 OVC085 13/06 A2985 2370 61 2800 230/07 RMK AO2 $
53144K9L2 9L220160409214511104/09/16 21:45:31  5-MIN K9L2 100545Z AUTO 25007KT 10SM SCT043 OVC060 13/06 A2985 2370 61 2800 240/07 RMK AO2 $
53144K9L2 9L220160409215011104/09/16 21:50:31  5-MIN K9L2 100550Z AUTO 25007KT 10SM FEW043 OVC060 13/06 A2984 2370 61 2800 240/07 RMK AO2 $
53144K9L2 9L220160409215515204/09/16 21:55:31  5-MIN K9L2 100555Z AUTO 25005KT 10SM FEW043 OVC060 13/06 A2984 2370 61 2800 240/05 RMK AO2 SLP100 60000 T01330061 10167 20128 50001 $
53144K9L2 9L220160409220011104/09/16 22:00:31  5-MIN K9L2 100600Z AUTO 25008KT 10SM FEW043 OVC060 14/06 A2984 2380 57 2800 240/08 RMK AO2 $
53144K9L2 9L220160409220511104/09/16 22:05:31  5-MIN K9L2 100605Z AUTO 25008KT 10SM FEW043 OVC060 14/06 A2984 2370 57 2800 240/08 RMK AO2 $
53144K9L2 9L220160409221011804/09/16 22:10:31  5-MIN K9L2 100610Z AUTO 24007KT 10SM FEW045 BKN060 OVC080 14/06 A2985 2370 57 2800 230/07 RMK AO2 $
53144K9L2 9L220160409221511804/09/16 22:15:31  5-MIN K9L2 100615Z AUTO 23007KT 10SM FEW041 BKN060 OVC080 14/06 A2985 2370 57 2800 220/07 RMK AO2 $
53144K9L2 9L220160409222011804/09/16 22:20:31  5-MIN K9L2 100620Z AUTO 23007KT 10SM FEW041 BKN060 OVC080 14/06 A2984 2370 57 2800 220/07 RMK AO2 $
53144K9L2 9L220160409222511804/09/16 22:25:31  5-MIN K9L2 100625Z AUTO 22007KT 10SM SCT041 BKN060 OVC080 14/06 A2984 2370 57 2800 210/07 RMK AO2 $
53144K9L2 9L220160409223011804/09/16 22:30:31  5-MIN K9L2 100630Z AUTO 22008KT 10SM SCT041 BKN060 OVC080 14/06 A2984 2370 57 2800 200/08 RMK AO2 $
53144K9L2 9L220160409223511804/09/16 22:35:31  5-MIN K9L2 100635Z AUTO 22007KT 10SM SCT041 SCT060 OVC080 13/06 A2984 2370 61 2800 210/07 RMK AO2 $
53144K9L2 9L220160409224011804/09/16 22:40:31  5-MIN K9L2 100640Z AUTO 23007KT 10SM FEW041 SCT065 OVC080 13/06 A2984 2370 61 2800 210/07 RMK AO2 $
53144K9L2 9L220160409224511804/09/16 22:45:31  5-MIN K9L2 100645Z AUTO 23005KT 10SM FEW041 BKN065 OVC080 13/07 A2985 2370 64 2800 220/05 RMK AO2 $
53144K9L2 9L220160409225011804/09/16 22:50:31  5-MIN K9L2 100650Z AUTO 23008KT 10SM FEW041 BKN050 OVC080 13/06 A2985 2370 61 2800 220/08 RMK AO2 $
53144K9L2 9L220160409225513504/09/16 22:55:31  5-MIN K9L2 100655Z AUTO 24009KT 10SM SCT039 BKN050 OVC080 13/06 A2984 2370 61 2800 220/09 RMK AO2 SLP100 T01330061 $
53144K9L2 9L220160409230011804/09/16 23:00:31  5-MIN K9L2 100700Z AUTO 24009KT 10SM SCT039 BKN050 OVC080 13/06 A2984 2370 63 2700 220/09 RMK AO2 $
53144K9L2 9L220160409230511804/09/16 23:05:31  5-MIN K9L2 100705Z AUTO 24009KT 10SM FEW039 BKN050 OVC080 13/06 A2984 2370 63 2700 230/09 RMK AO2 $
53144K9L2 9L220160409231011804/09/16 23:10:31  5-MIN K9L2 100710Z AUTO 24009KT 10SM FEW039 BKN050 OVC080 13/06 A2984 2370 63 2700 230/09 RMK AO2 $
53144K9L2 9L220160409231511804/09/16 23:15:31  5-MIN K9L2 100715Z AUTO 23010KT 10SM FEW039 BKN055 OVC080 13/06 A2984 2370 63 2700 220/10 RMK AO2 $
53144K9L2 9L220160409232011804/09/16 23:20:31  5-MIN K9L2 100720Z AUTO 23010KT 10SM SCT039 BKN047 OVC080 13/06 A2984 2370 63 2700 220/10 RMK AO2 $
53144K9L2 9L220160409232511804/09/16 23:25:31  5-MIN K9L2 100725Z AUTO 22008KT 10SM SCT039 BKN045 OVC080 13/06 A2985 2370 63 2700 210/08 RMK AO2 $
53144K9L2 9L220160409233011804/09/16 23:30:31  5-MIN K9L2 100730Z AUTO 22010KT 10SM BKN039 BKN047 OVC080 13/06 A2985 2370 63 2700 210/10 RMK AO2 $
53144K9L2 9L220160409233511804/09/16 23:35:31  5-MIN K9L2 100735Z AUTO 23010KT 10SM BKN039 BKN047 OVC055 13/06 A2985 2370 63 2700 210/10 RMK AO2 $
53144K9L2 9L220160409234011104/09/16 23:40:31  5-MIN K9L2 100740Z AUTO 24007KT 10SM BKN039 OVC047 13/06 A2985 2370 63 2700 230/07 RMK AO2 $
53144K9L2 9L220160409234510404/09/16 23:45:31  5-MIN K9L2 100745Z AUTO 23009KT 10SM OVC039 13/06 A2985 2370 63 2700 220/09 RMK AO2 $
53144K9L2 9L220160409235010404/09/16 23:50:31  5-MIN K9L2 100750Z AUTO 23009KT 10SM OVC039 13/06 A2985 2370 63 2700 210/09 RMK AO2 $
53144K9L2 9L220160409235513104/09/16 23:55:31  5-MIN K9L2 100755Z AUTO 22011KT 10SM OVC039 13/06 A2985 2370 63 2700 210/11 RMK AO2 SLP100 T01280061 402000117 $
53144K9L2 9L220160410000010404/10/16 00:00:31  5-MIN K9L2 100800Z AUTO 23011KT 10SM OVC037 13/06 A2984 2370 63 2700 220/11 RMK AO2 $
53144K9L2 9L220160410000510404/10/16 00:05:31  5-MIN K9L2 100805Z AUTO 23010KT 10SM OVC037 13/06 A2984 2370 63 2700 220/10 RMK AO2 $
53144K9L2 9L220160410001010404/10/16 00:10:31  5-MIN K9L2 100810Z AUTO 24010KT 10SM OVC037 12/06 A2984 2370 66 2600 230/10 RMK AO2 $
53144K9L2 9L220160410001510404/10/16 00:15:31  5-MIN K9L2 100815Z AUTO 25009KT 10SM OVC039 12/06 A2984 2380 66 2600 240/09 RMK AO2 $
53144K9L2 9L220160410002010404/10/16 00:20:31  5-MIN K9L2 100820Z AUTO 26007KT 10SM OVC041 12/06 A2984 2380 66 2600 250/07 RMK AO2 $
53144K9L2 9L220160410002510404/10/16 00:25:31  5-MIN K9L2 100825Z AUTO 26005KT 10SM OVC041 12/06 A2984 2380 66 2600 250/05 RMK AO2 $
53144K9L2 9L220160410003010404/10/16 00:30:31  5-MIN K9L2 100830Z AUTO 25005KT 10SM OVC041 12/06 A2984 2380 66 2600 230/05 RMK AO2 $
53144K9L2 9L220160410003510404/10/16 00:35:31  5-MIN K9L2 100835Z AUTO 23005KT 10SM OVC041 12/06 A2984 2380 66 2600 220/05 RMK AO2 $
53144K9L2 9L220160410004010404/10/16 00:40:31  5-MIN K9L2 100840Z AUTO 24005KT 10SM OVC041 12/06 A2984 2380 66 2600 230/05 RMK AO2 $
53144K9L2 9L220160410004510404/10/16 00:45:31  5-MIN K9L2 100845Z AUTO 00000KT 10SM OVC041 12/06 A2984 2380 66 2600 000/00 RMK AO2 $
53144K9L2 9L220160410005010404/10/16 00:50:31  5-MIN K9L2 100850Z AUTO 00000KT 10SM OVC041 12/06 A2984 2380 66 2600 000/00 RMK AO2 $
53144K9L2 9L220160410005512704/10/16 00:55:31  5-MIN K9L2 100855Z AUTO 00000KT 10SM OVC041 12/07 A2984 2380 68 2600 000/00 RMK AO2 SLP098 T01220067 50004 $
53144K9L2 9L220160410010010404/10/16 01:00:31  5-MIN K9L2 100900Z AUTO 22003KT 10SM OVC041 12/07 A2984 2380 68 2600 200/03 RMK AO2 $
53144K9L2 9L220160410010510404/10/16 01:05:31  5-MIN K9L2 100905Z AUTO 21004KT 10SM OVC041 12/07 A2984 2380 68 2600 200/04 RMK AO2 $
53144K9L2 9L220160410011010404/10/16 01:10:31  5-MIN K9L2 100910Z AUTO 21004KT 10SM OVC041 12/07 A2984 2380 68 2600 200/04 RMK AO2 $
53144K9L2 9L220160410011511104/10/16 01:15:31  5-MIN K9L2 100915Z AUTO 22005KT 10SM BKN041 OVC050 12/07 A2984 2380 68 2600 210/05 RMK AO2 $
53144K9L2 9L220160410012011104/10/16 01:20:31  5-MIN K9L2 100920Z AUTO 22006KT 10SM BKN041 OVC055 12/07 A2983 2380 68 2600 200/06 RMK AO2 $
53144K9L2 9L220160410012511104/10/16 01:25:31  5-MIN K9L2 100925Z AUTO 21005KT 10SM SCT041 OVC055 12/07 A2984 2380 68 2600 190/05 RMK AO2 $
53144K9L2 9L220160410013011104/10/16 01:30:31  5-MIN K9L2 100930Z AUTO 21005KT 10SM FEW041 OVC060 12/07 A2983 2380 71 2600 200/05 RMK AO2 $
53144K9L2 9L220160410013511104/10/16 01:35:31  5-MIN K9L2 100935Z AUTO 21006KT 10SM FEW041 OVC060 12/07 A2983 2390 71 2600 200/06 RMK AO2 $
53144K9L2 9L220160410014010404/10/16 01:40:31  5-MIN K9L2 100940Z AUTO 20006KT 10SM OVC060 12/07 A2983 2390 71 2600 180/06 RMK AO2 $
53144K9L2 9L220160410014510404/10/16 01:45:31  5-MIN K9L2 100945Z AUTO 20007KT 10SM OVC060 12/07 A2982 2390 71 2600 180/07 RMK AO2 $
53144K9L2 9L220160410015011104/10/16 01:50:31  5-MIN K9L2 100950Z AUTO 19008KT 10SM BKN060 BKN070 12/07 A2982 2390 71 2600 180/08 RMK AO2 $
53144K9L2 9L220160410015512104/10/16 01:55:31  5-MIN K9L2 100955Z AUTO 19008KT 10SM BKN060 12/07 A2982 2390 71 2600 180/08 RMK AO2 SLP092 T01170067 $
53144K9L2 9L220160410020010404/10/16 02:00:31  5-MIN K9L2 101000Z AUTO 19009KT 10SM SCT060 11/06 A2982 2400 71 2500 180/09 RMK AO2 $
53144K9L2 9L220160410020510404/10/16 02:05:31  5-MIN K9L2 101005Z AUTO 20008KT 10SM SCT065 11/06 A2982 2400 71 2500 190/08 RMK AO2 $
53144K9L2 9L220160410021010404/10/16 02:10:31  5-MIN K9L2 101010Z AUTO 20008KT 10SM FEW065 11/06 A2982 2400 71 2500 190/08 RMK AO2 $
53144K9L2 9L220160410021510404/10/16 02:15:31  5-MIN K9L2 101015Z AUTO 20009KT 10SM FEW070 11/06 A2981 2400 74 2500 190/09 RMK AO2 $
53144K9L2 9L220160410022010404/10/16 02:20:31  5-MIN K9L2 101020Z AUTO 20009KT 10SM SCT070 11/07 A2981 2400 77 2500 190/09 RMK AO2 $
53144K9L2 9L220160410022510404/10/16 02:25:31  5-MIN K9L2 101025Z AUTO 21009KT 10SM BKN070 11/07 A2981 2410 77 2500 190/09 RMK AO2 $
53144K9L2 9L220160410023010404/10/16 02:30:31  5-MIN K9L2 101030Z AUTO 21008KT 10SM BKN070 11/07 A2981 2410 77 2500 190/08 RMK AO2 $
53144K9L2 9L220160410023510404/10/16 02:35:31  5-MIN K9L2 101035Z AUTO 19009KT 10SM BKN070 11/07 A2981 2410 77 2500 180/09 RMK AO2 $
53144K9L2 9L220160410024010404/10/16 02:40:31  5-MIN K9L2 101040Z AUTO 20011KT 10SM SCT070 10/06 A2981 2410 74 2400 180/11 RMK AO2 $
53144K9L2 9L220160410024510404/10/16 02:45:31  5-MIN K9L2 101045Z AUTO 19008KT 10SM SCT070 10/06 A2981 2410 77 2400 180/08 RMK AO2 $
53144K9L2 9L220160410025010404/10/16 02:50:31  5-MIN K9L2 101050Z AUTO 19009KT 10SM FEW070 09/06 A2980 2410 76 2400 180/09 RMK AO2 $
53144K9L2 9L220160410025512104/10/16 02:55:31  5-MIN K9L2 101055Z AUTO 21009KT 10SM FEW070 10/06 A2980 2410 74 2400 200/09 RMK AO2 SLP087 T01000056 $
53144K9L2 9L220160410030010104/10/16 03:00:31  5-MIN K9L2 101100Z AUTO 20008KT 10SM CLR 10/06 A2980 2410 77 2400 190/08 RMK AO2 $
53144K9L2 9L220160410030510104/10/16 03:05:31  5-MIN K9L2 101105Z AUTO 20008KT 10SM CLR 10/06 A2980 2410 77 2400 180/08 RMK AO2 $
53144K9L2 9L220160410031010104/10/16 03:10:31  5-MIN K9L2 101110Z AUTO 20009KT 10SM CLR 09/06 A2980 2410 76 2400 190/09 RMK AO2 $
53144K9L2 9L220160410031510104/10/16 03:15:31  5-MIN K9L2 101115Z AUTO 19008KT 10SM CLR 09/06 A2981 2410 76 2400 180/08 RMK AO2 $
53144K9L2 9L220160410032010104/10/16 03:20:31  5-MIN K9L2 101120Z AUTO 18009KT 10SM CLR 09/06 A2981 2410 76 2400 170/09 RMK AO2 $
53144K9L2 9L220160410032510404/10/16 03:25:31  5-MIN K9L2 101125Z AUTO 19009KT 10SM FEW050 09/06 A2981 2410 76 2400 170/09 RMK AO2 $
53144K9L2 9L220160410033010404/10/16 03:30:31  5-MIN K9L2 101130Z AUTO 19009KT 10SM FEW050 09/06 A2981 2410 76 2400 180/09 RMK AO2 $
53144K9L2 9L220160410033510404/10/16 03:35:31  5-MIN K9L2 101135Z AUTO 21008KT 10SM FEW050 09/06 A2980 2410 76 2400 190/08 RMK AO2 $
53144K9L2 9L220160410034010404/10/16 03:40:31  5-MIN K9L2 101140Z AUTO 21009KT 10SM FEW050 09/06 A2980 2410 76 2400 200/09 RMK AO2 $
53144K9L2 9L220160410034510404/10/16 03:45:31  5-MIN K9L2 101145Z AUTO 21009KT 10SM FEW050 09/06 A2980 2410 76 2400 190/09 RMK AO2 $
53144K9L2 9L220160410035010404/10/16 03:50:31  5-MIN K9L2 101150Z AUTO 20008KT 10SM FEW050 09/06 A2980 2410 79 2300 190/08 RMK AO2 $
53144K9L2 9L220160410035513604/10/16 03:55:31  5-MIN K9L2 101155Z AUTO 20009KT 10SM CLR 09/06 A2980 2410 79 2300 190/09 RMK AO2 SLP090 T00890056 10139 20089 58001 $
53144K9L2 9L220160410040010404/10/16 04:00:31  5-MIN K9L2 101200Z AUTO 20010KT 10SM FEW050 09/05 A2980 2410 74 2400 190/10 RMK AO2 $
53144K9L2 9L220160410040510404/10/16 04:05:31  5-MIN K9L2 101205Z AUTO 20009KT 10SM SCT050 09/06 A2980 2410 76 2400 190/09 RMK AO2 $
53144K9L2 9L220160410041010404/10/16 04:10:31  5-MIN K9L2 101210Z AUTO 20008KT 10SM FEW050 09/06 A2980 2410 76 2400 190/08 RMK AO2 $
53144K9L2 9L220160410041510404/10/16 04:15:31  5-MIN K9L2 101215Z AUTO 21008KT 10SM FEW050 09/06 A2980 2410 79 2300 190/08 RMK AO2 $
53144K9L2 9L220160410042010404/10/16 04:20:31  5-MIN K9L2 101220Z AUTO 20009KT 10SM FEW050 09/06 A2980 2410 79 2300 190/09 RMK AO2 $
53144K9L2 9L220160410042510404/10/16 04:25:31  5-MIN K9L2 101225Z AUTO 21008KT 10SM FEW050 09/05 A2980 2410 76 2300 200/08 RMK AO2 $
53144K9L2 9L220160410043010104/10/16 04:30:31  5-MIN K9L2 101230Z AUTO 21009KT 10SM CLR 09/05 A2980 2410 76 2300 200/09 RMK AO2 $
53144K9L2 9L220160410043510104/10/16 04:35:31  5-MIN K9L2 101235Z AUTO 21009KT 10SM CLR 09/05 A2981 2410 76 2300 190/09 RMK AO2 $
53144K9L2 9L220160410044010104/10/16 04:40:31  5-MIN K9L2 101240Z AUTO 20007KT 10SM CLR 09/05 A2981 2410 76 2300 190/07 RMK AO2 $
53144K9L2 9L220160410044510104/10/16 04:45:31  5-MIN K9L2 101245Z AUTO 20006KT 10SM CLR 09/05 A2981 2400 76 2300 190/06 RMK AO2 $
53144K9L2 9L220160410045010104/10/16 04:50:31  5-MIN K9L2 101250Z AUTO 21004KT 10SM CLR 09/05 A2981 2400 76 2300 200/04 RMK AO2 $
53144K9L2 9L220160410045511804/10/16 04:55:31  5-MIN K9L2 101255Z AUTO 22003KT 10SM CLR 09/05 A2981 2400 76 2300 210/03 RMK AO2 SLP094 T00890050 $
53144K9L2 9L220160410050010104/10/16 05:00:31  5-MIN K9L2 101300Z AUTO 21004KT 10SM CLR 09/06 A2981 2400 79 2300 190/04 RMK AO2 $
53144K9L2 9L220160410050510104/10/16 05:05:31  5-MIN K9L2 101305Z AUTO 20007KT 10SM CLR 09/06 A2981 2400 79 2300 190/07 RMK AO2 $
53144K9L2 9L220160410051010104/10/16 05:10:31  5-MIN K9L2 101310Z AUTO 20006KT 10SM CLR 09/06 A2981 2400 79 2300 190/06 RMK AO2 $
53144K9L2 9L220160410051510104/10/16 05:15:31  5-MIN K9L2 101315Z AUTO 20006KT 10SM CLR 09/06 A2981 2400 79 2300 190/06 RMK AO2 $
53144K9L2 9L220160410052010104/10/16 05:20:31  5-MIN K9L2 101320Z AUTO 21006KT 10SM CLR 09/05 A2981 2400 76 2300 190/06 RMK AO2 $
53144K9L2 9L220160410052510104/10/16 05:25:31  5-MIN K9L2 101325Z AUTO 21006KT 10SM CLR 09/05 A2981 2400 76 2300 200/06 RMK AO2 $
53144K9L2 9L220160410053010104/10/16 05:30:31  5-MIN K9L2 101330Z AUTO 21006KT 10SM CLR 09/05 A2982 2400 76 2300 200/06 RMK AO2 $
53144K9L2 9L220160410053510104/10/16 05:35:31  5-MIN K9L2 101335Z AUTO 20006KT 10SM CLR 09/05 A2982 2400 76 2300 190/06 RMK AO2 $
53144K9L2 9L220160410054010104/10/16 05:40:31  5-MIN K9L2 101340Z AUTO 20005KT 10SM CLR 09/05 A2982 2400 76 2300 190/05 RMK AO2 $
53144K9L2 9L220160410054510104/10/16 05:45:31  5-MIN K9L2 101345Z AUTO 20006KT 10SM CLR 09/05 A2982 2400 76 2300 190/06 RMK AO2 $
53144K9L2 9L220160410055010104/10/16 05:50:31  5-MIN K9L2 101350Z AUTO 19006KT 10SM CLR 09/05 A2982 2400 74 2300 180/06 RMK AO2 $
53144K9L2 9L220160410055511804/10/16 05:55:31  5-MIN K9L2 101355Z AUTO 19006KT 10SM CLR 09/05 A2982 2400 74 2300 170/06 RMK AO2 SLP097 T00940050 $
53144K9L2 9L220160410060010104/10/16 06:00:31  5-MIN K9L2 101400Z AUTO 19006KT 10SM CLR 09/05 A2982 2390 76 2300 180/06 RMK AO2 $
53144K9L2 9L220160410060510104/10/16 06:05:31  5-MIN K9L2 101405Z AUTO 18005KT 10SM CLR 09/05 A2982 2390 74 2300 170/05 RMK AO2 $
53144K9L2 9L220160410061010104/10/16 06:10:31  5-MIN K9L2 101410Z AUTO 20005KT 10SM CLR 09/05 A2983 2390 74 2300 190/05 RMK AO2 $
53144K9L2 9L220160410061510104/10/16 06:15:31  5-MIN K9L2 101415Z AUTO 23003KT 10SM CLR 09/06 A2983 2390 76 2300 220/03 RMK AO2 $
53144K9L2 9L220160410062010104/10/16 06:20:31  5-MIN K9L2 101420Z AUTO 23003KT 10SM CLR 09/06 A2983 2390 76 2300 220/03 RMK AO2 $
53144K9L2 9L220160410062510104/10/16 06:25:31  5-MIN K9L2 101425Z AUTO 21003KT 10SM CLR 09/06 A2983 2390 76 2300 200/03 RMK AO2 $
53144K9L2 9L220160410063010104/10/16 06:30:31  5-MIN K9L2 101430Z AUTO 00000KT 10SM CLR 10/06 A2983 2380 77 2400 000/00 RMK AO2 $
53144K9L2 9L220160410063510104/10/16 06:35:31  5-MIN K9L2 101435Z AUTO 00000KT 10SM CLR 10/06 A2983 2380 74 2400 000/00 RMK AO2 $
53144K9L2 9L220160410064010104/10/16 06:40:31  5-MIN K9L2 101440Z AUTO 00000KT 10SM CLR 10/06 A2983 2380 74 2400 000/00 RMK AO2 $
53144K9L2 9L220160410064510104/10/16 06:45:31  5-MIN K9L2 101445Z AUTO 00000KT 10SM CLR 10/06 A2984 2380 77 2400 000/00 RMK AO2 $
53144K9L2 9L220160410065010104/10/16 06:50:31  5-MIN K9L2 101450Z AUTO 00000KT 10SM CLR 11/06 A2984 2380 74 2500 000/00 RMK AO2 $
53144K9L2 9L220160410065512404/10/16 06:55:31  5-MIN K9L2 101455Z AUTO 00000KT 10SM CLR 11/06 A2983 2380 74 2500 000/00 RMK AO2 SLP102 T01060061 55012 $
53144K9L2 9L220160410070010104/10/16 07:00:31  5-MIN K9L2 101500Z AUTO 00000KT 10SM CLR 11/06 A2983 2380 74 2500 000/00 RMK AO2 $
53144K9L2 9L220160410070510404/10/16 07:05:31  5-MIN K9L2 101505Z AUTO 00000KT 10SM FEW080 11/06 A2984 2380 71 2500 000/00 RMK AO2 $
53144K9L2 9L220160410071010404/10/16 07:10:31  5-MIN K9L2 101510Z AUTO 00000KT 10SM FEW080 11/06 A2984 2380 71 2500 000/00 RMK AO2 $
53144K9L2 9L220160410071510404/10/16 07:15:31  5-MIN K9L2 101515Z AUTO 00000KT 10SM SCT080 12/06 A2984 2380 68 2600 000/00 RMK AO2 $
53144K9L2 9L220160410072010404/10/16 07:20:31  5-MIN K9L2 101520Z AUTO 00000KT 10SM BKN075 12/06 A2984 2380 68 2600 000/00 RMK AO2 $
53144K9L2 9L220160410072510404/10/16 07:25:31  5-MIN K9L2 101525Z AUTO 00000KT 10SM BKN080 12/06 A2984 2380 66 2600 000/00 RMK AO2 $
53144K9L2 9L220160410073010404/10/16 07:30:31  5-MIN K9L2 101530Z AUTO 00000KT 10SM SCT080 12/07 A2984 2380 68 2600 000/00 RMK AO2 $
53144K9L2 9L220160410073510404/10/16 07:35:31  5-MIN K9L2 101535Z AUTO 00000KT 10SM FEW075 12/07 A2984 2370 68 2600 000/00 RMK AO2 $
53144K9L2 9L220160410074010404/10/16 07:40:31  5-MIN K9L2 101540Z AUTO 10003KT 10SM FEW075 12/06 A2984 2380 66 2600 090/03 RMK AO2 $
53144K9L2 9L220160410074510404/10/16 07:45:31  5-MIN K9L2 101545Z AUTO 11003KT 10SM FEW080 12/06 A2984 2380 66 2600 100/03 RMK AO2 $
53144K9L2 9L220160410075010104/10/16 07:50:31  5-MIN K9L2 101550Z AUTO 11004KT 10SM CLR 12/07 A2984 2370 68 2600 100/04 RMK AO2 $
53144K9L2 9L220160410075511804/10/16 07:55:31  5-MIN K9L2 101555Z AUTO 10003KT 10SM CLR 13/07 A2984 2370 66 2700 090/03 RMK AO2 SLP104 T01280067 $
53144K9L2 9L220160410080010104/10/16 08:00:31  5-MIN K9L2 101600Z AUTO 14003KT 10SM CLR 13/07 A2984 2370 66 2700 130/03 RMK AO2 $
53144K9L2 9L220160410080510104/10/16 08:05:31  5-MIN K9L2 101605Z AUTO 00000KT 10SM CLR 13/07 A2984 2370 64 2800 000/00 RMK AO2 $
53144K9L2 9L220160410081010104/10/16 08:10:31  5-MIN K9L2 101610Z AUTO 12003KT 10SM CLR 13/07 A2984 2370 64 2800 110/03 RMK AO2 $
53144K9L2 9L220160410081510104/10/16 08:15:31  5-MIN K9L2 101615Z AUTO 00000KT 10SM CLR 14/07 A2984 2370 61 2800 000/00 RMK AO2 $
53144K9L2 9L220160410082010104/10/16 08:20:31  5-MIN K9L2 101620Z AUTO 00000KT 10SM CLR 14/07 A2984 2370 59 2900 000/00 RMK AO2 $
53144K9L2 9L220160410082510104/10/16 08:25:31  5-MIN K9L2 101625Z AUTO 00000KT 10SM CLR 15/07 A2984 2370 57 3000 000/00 RMK AO2 $
53144K9L2 9L220160410083010104/10/16 08:30:31  5-MIN K9L2 101630Z AUTO 21006KT 10SM CLR 16/06 A2985 2370 53 3000 200/06 RMK AO2 $
53144K9L2 9L220160410083510104/10/16 08:35:31  5-MIN K9L2 101635Z AUTO 21005KT 10SM CLR 15/06 A2985 2370 53 3000 190/05 RMK AO2 $
53144K9L2 9L220160410084010104/10/16 08:40:31  5-MIN K9L2 101640Z AUTO 18004KT 10SM CLR 16/06 A2985 2370 53 3000 160/04 RMK AO2 $
53144K9L2 9L220160410084510104/10/16 08:45:31  5-MIN K9L2 101645Z AUTO 00000KT 10SM CLR 16/06 A2985 2370 53 3000 000/00 RMK AO2 $
53144K9L2 9L220160410085010104/10/16 08:50:31  5-MIN K9L2 101650Z AUTO 21005KT 10SM CLR 16/06 A2985 2370 51 3100 190/05 RMK AO2 $
53144K9L2 9L220160410085511804/10/16 08:55:31  5-MIN K9L2 101655Z AUTO 22008KT 10SM CLR 17/07 A2985 2370 51 3200 200/08 RMK AO2 SLP101 T01670067 $
53144K9L2 9L220160410090010704/10/16 09:00:31  5-MIN K9L2 101700Z AUTO 20009G15KT 10SM CLR 17/07 A2985 2370 49 3200 190/09G15 RMK AO2 $
53144K9L2 9L220160410090510704/10/16 09:05:31  5-MIN K9L2 101705Z AUTO 21011G15KT 10SM CLR 17/06 A2985 2370 47 3200 200/11G15 RMK AO2 $
53144K9L2 9L220160410091010104/10/16 09:10:31  5-MIN K9L2 101710Z AUTO 21009KT 10SM CLR 17/06 A2985 2370 47 3200 190/09 RMK AO2 $
53144K9L2 9L220160410091510404/10/16 09:15:31  5-MIN K9L2 101715Z AUTO 27006KT 10SM FEW018 17/06 A2985 2370 46 3200 260/06 RMK AO2 $
53144K9L2 9L220160410092010404/10/16 09:20:31  5-MIN K9L2 101720Z AUTO VRB06KT 10SM SCT018 17/06 A2985 2360 46 3200 VRB/06 RMK AO2 $
53144K9L2 9L220160410092510404/10/16 09:25:31  5-MIN K9L2 101725Z AUTO 23005KT 10SM SCT018 17/06 A2985 2360 47 3100 220/05 RMK AO2 $
53144K9L2 9L220160410093010404/10/16 09:30:31  5-MIN K9L2 101730Z AUTO VRB05KT 10SM SCT018 17/06 A2985 2360 47 3100 VRB/05 RMK AO2 $
53144K9L2 9L220160410093510404/10/16 09:35:31  5-MIN K9L2 101735Z AUTO 33005KT 10SM SCT020 17/05 A2986 2360 44 3200 320/05 RMK AO2 $
53144K9L2 9L220160410094010404/10/16 09:40:31  5-MIN K9L2 101740Z AUTO 24007KT 10SM BKN022 17/05 A2986 2360 44 3200 230/07 RMK AO2 $
53144K9L2 9L220160410094510404/10/16 09:45:31  5-MIN K9L2 101745Z AUTO 24007KT 10SM BKN022 17/06 A2986 2360 47 3100 230/07 RMK AO2 $
53144K9L2 9L220160410095012004/10/16 09:50:31  5-MIN K9L2 101750Z AUTO 24008KT 200V260 10SM SCT022 18/06 A2986 2360 44 3300 230/08 190V250 RMK AO2 $
53144K9L2 9L220160410095513904/10/16 09:55:31  5-MIN K9L2 101755Z AUTO VRB05KT 10SM SCT022 18/05 A2986 2360 41 3300 VRB/05 RMK AO2 SLP104 T01830050 10183 20089 53007 $
53144K9L2 9L220160410100010404/10/16 10:00:31  5-MIN K9L2 101800Z AUTO 24005KT 10SM SCT022 19/05 A2986 2360 39 3400 230/05 RMK AO2 $
53144K9L2 9L220160410100510404/10/16 10:05:31  5-MIN K9L2 101805Z AUTO 21008KT 10SM SCT022 18/05 A2986 2360 41 3300 190/08 RMK AO2 $
53144K9L2 9L220160410101010404/10/16 10:10:31  5-MIN K9L2 101810Z AUTO 21005KT 10SM FEW024 18/05 A2986 2360 41 3300 190/05 RMK AO2 $
53144K9L2 9L220160410101510404/10/16 10:15:31  5-MIN K9L2 101815Z AUTO VRB05KT 10SM FEW026 19/05 A2986 2360 39 3400 VRB/05 RMK AO2 $
53144K9L2 9L220160410102011704/10/16 10:20:31  5-MIN K9L2 101820Z AUTO 23006G14KT 10SM FEW026 SCT034 19/04 A2985 2360 37 3500 220/06G14 RMK AO2 $
53144K9L2 9L220160410102511704/10/16 10:25:31  5-MIN K9L2 101825Z AUTO 19006G15KT 10SM FEW028 BKN034 19/04 A2985 2370 36 3400 180/06G15 RMK AO2 $
53144K9L2 9L220160410103011704/10/16 10:30:31  5-MIN K9L2 101830Z AUTO 26008G20KT 10SM FEW028 SCT034 19/03 A2985 2370 34 3500 250/08G20 RMK AO2 $
53144K9L2 9L220160410103511004/10/16 10:35:31  5-MIN K9L2 101835Z AUTO 27008G20KT 10SM SCT032 19/03 A2985 2370 34 3500 260/08G20 RMK AO2 $
53144K9L2 9L220160410104011004/10/16 10:40:31  5-MIN K9L2 101840Z AUTO 26010G14KT 10SM SCT032 19/03 A2985 2370 35 3400 250/10G14 RMK AO2 $
53144K9L2 9L220160410104511004/10/16 10:45:31  5-MIN K9L2 101845Z AUTO 21007G15KT 10SM SCT034 19/03 A2985 2370 34 3500 200/07G15 RMK AO2 $
53144K9L2 9L220160410105011004/10/16 10:50:31  5-MIN K9L2 101850Z AUTO 27010G16KT 10SM BKN034 20/03 A2985 2370 33 3500 260/10G16 RMK AO2 $
53144K9L2 9L220160410105512704/10/16 10:55:31  5-MIN K9L2 101855Z AUTO 28006G16KT 10SM SCT034 19/03 A2984 2370 34 3500 270/06G16 RMK AO2 SLP098 T01940033 $
53144K9L2 9L220160410110011004/10/16 11:00:31  5-MIN K9L2 101900Z AUTO 22010G14KT 10SM SCT034 20/03 A2984 2380 33 3500 210/10G14 RMK AO2 $
53144K9L2 9L220160410110511004/10/16 11:05:31  5-MIN K9L2 101905Z AUTO 23013G18KT 10SM SCT034 21/03 A2984 2380 32 3600 220/13G18 RMK AO2 $
53144K9L2 9L220160410111011004/10/16 11:10:31  5-MIN K9L2 101910Z AUTO 22008G18KT 10SM SCT034 21/03 A2984 2380 32 3600 210/08G18 RMK AO2 $
53144K9L2 9L220160410111511004/10/16 11:15:31  5-MIN K9L2 101915Z AUTO 25008G18KT 10SM BKN034 20/04 A2984 2380 34 3500 240/08G18 RMK AO2 $
53144K9L2 9L220160410112011704/10/16 11:20:31  5-MIN K9L2 101920Z AUTO 20010G18KT 10SM BKN034 BKN041 21/03 A2984 2380 32 3600 190/10G18 RMK AO2 $
53144K9L2 9L220160410112511004/10/16 11:25:31  5-MIN K9L2 101925Z AUTO 26011G18KT 10SM BKN036 21/04 A2984 2380 32 3700 240/11G18 RMK AO2 $
53144K9L2 9L220160410113011004/10/16 11:30:31  5-MIN K9L2 101930Z AUTO 22012G19KT 10SM BKN036 21/04 A2984 2380 32 3700 200/12G19 RMK AO2 $
53144K9L2 9L220160410113511004/10/16 11:35:31  5-MIN K9L2 101935Z AUTO 24015G19KT 10SM BKN036 21/03 A2983 2380 30 3700 230/15G19 RMK AO2 $
53144K9L2 9L220160410114010404/10/16 11:40:31  5-MIN K9L2 101940Z AUTO 23009KT 10SM BKN036 21/03 A2984 2380 32 3600 220/09 RMK AO2 $
53144K9L2 9L220160410114510404/10/16 11:45:31  5-MIN K9L2 101945Z AUTO 25009KT 10SM SCT036 21/03 A2984 2380 30 3700 240/09 RMK AO2 $
53144K9L2 9L220160410115012604/10/16 11:50:31  5-MIN K9L2 101950Z AUTO 25008G17KT 210V280 10SM SCT038 21/03 A2984 2380 32 3600 240/08G17 200V270 RMK AO2 $
53144K9L2 9L220160410115513404/10/16 11:55:31  5-MIN K9L2 101955Z AUTO 22012G18KT 10SM SCT036 BKN046 22/03 A2983 2380 29 3700 200/12G18 RMK AO2 SLP093 T02170033 $
53144K9L2 9L220160410120011004/10/16 12:00:31  5-MIN K9L2 102000Z AUTO 25011G18KT 10SM SCT036 21/03 A2984 2380 30 3700 240/11G18 RMK AO2 $
53144K9L2 9L220160410120511004/10/16 12:05:31  5-MIN K9L2 102005Z AUTO 23012G17KT 10SM SCT038 21/03 A2984 2380 30 3700 210/12G17 RMK AO2 $
53144K9L2 9L220160410121011004/10/16 12:10:31  5-MIN K9L2 102010Z AUTO 25012G19KT 10SM BKN038 21/03 A2984 2380 30 3700 230/12G19 RMK AO2 $
53144K9L2 9L220160410121511004/10/16 12:15:31  5-MIN K9L2 102015Z AUTO 25012G19KT 10SM SCT040 21/03 A2983 2380 32 3600 240/12G19 RMK AO2 $
53144K9L2 9L220160410122011004/10/16 12:20:31  5-MIN K9L2 102020Z AUTO 23012G17KT 10SM SCT040 21/03 A2983 2380 30 3700 210/12G17 RMK AO2 $
53144K9L2 9L220160410122510404/10/16 12:25:31  5-MIN K9L2 102025Z AUTO 25012KT 10SM SCT040 21/03 A2983 2380 30 3700 230/12 RMK AO2 $
53144K9L2 9L220160410123012004/10/16 12:30:31  5-MIN K9L2 102030Z AUTO 23011KT 200V260 10SM SCT040 22/03 A2983 2390 29 3700 210/11 190V250 RMK AO2 $
53144K9L2 9L220160410123510404/10/16 12:35:31  5-MIN K9L2 102035Z AUTO 25012KT 10SM SCT042 21/03 A2983 2390 30 3700 240/12 RMK AO2 $
53144K9L2 9L220160410124011004/10/16 12:40:31  5-MIN K9L2 102040Z AUTO 25013G17KT 10SM SCT042 21/03 A2983 2390 30 3700 240/13G17 RMK AO2 $
53144K9L2 9L220160410124511004/10/16 12:45:31  5-MIN K9L2 102045Z AUTO 24014G22KT 10SM SCT042 21/03 A2983 2390 30 3600 230/14G22 RMK AO2 $
53144K9L2 9L220160410125012604/10/16 12:50:31  5-MIN K9L2 102050Z AUTO 26009G22KT 220V280 10SM SCT042 21/03 A2983 2390 29 3700 250/09G22 210V270 RMK AO2 $
53144K9L2 9L220160410125513304/10/16 12:55:31  5-MIN K9L2 102055Z AUTO 24015G21KT 10SM SCT042 22/03 A2983 2390 29 3700 230/15G21 RMK AO2 SLP092 T02170033 51004 $
53144K9L2 9L220160410130012604/10/16 13:00:31  5-MIN K9L2 102100Z AUTO 24008G21KT 210V280 10SM SCT042 21/03 A2983 2390 32 3600 230/08G21 200V270 RMK AO2 $
53144K9L2 9L220160410130511004/10/16 13:05:31  5-MIN K9L2 102105Z AUTO 25016G19KT 10SM SCT042 21/03 A2982 2390 32 3600 240/16G19 RMK AO2 $
53144K9L2 9L220160410131011004/10/16 13:10:31  5-MIN K9L2 102110Z AUTO 25015G19KT 10SM FEW042 21/03 A2983 2390 30 3700 240/15G19 RMK AO2 $
53144K9L2 9L220160410131510404/10/16 13:15:31  5-MIN K9L2 102115Z AUTO 26012KT 10SM FEW042 21/03 A2983 2390 30 3700 250/12 RMK AO2 $
53144K9L2 9L220160410132011004/10/16 13:20:31  5-MIN K9L2 102120Z AUTO 25006G17KT 10SM FEW042 21/03 A2983 2390 30 3700 240/06G17 RMK AO2 $
53144K9L2 9L220160410132511004/10/16 13:25:31  5-MIN K9L2 102125Z AUTO 24008G18KT 10SM FEW040 22/03 A2983 2390 29 3700 230/08G18 RMK AO2 $
53144K9L2 9L220160410133010704/10/16 13:30:31  5-MIN K9L2 102130Z AUTO 24015G20KT 10SM CLR 22/04 A2982 2390 31 3700 230/15G20 RMK AO2 $
53144K9L2 9L220160410133510704/10/16 13:35:31  5-MIN K9L2 102135Z AUTO 24012G20KT 10SM CLR 22/03 A2982 2390 29 3700 230/12G20 RMK AO2 $
53144K9L2 9L220160410134010704/10/16 13:40:31  5-MIN K9L2 102140Z AUTO 26012G18KT 10SM CLR 22/04 A2982 2390 31 3700 240/12G18 RMK AO2 $
53144K9L2 9L220160410134511004/10/16 13:45:31  5-MIN K9L2 102145Z AUTO 22015G21KT 10SM FEW038 21/04 A2982 2400 32 3700 210/15G21 RMK AO2 $
53144K9L2 9L220160410135011004/10/16 13:50:31  5-MIN K9L2 102150Z AUTO 22012G21KT 10SM FEW038 22/04 A2982 2400 32 3800 210/12G21 RMK AO2 $
53144K9L2 9L220160410135512404/10/16 13:55:31  5-MIN K9L2 102155Z AUTO 24011G19KT 10SM CLR 22/04 A2982 2400 31 3800 220/11G19 RMK AO2 SLP089 T02220044 $
53144K9L2 9L220160410140010704/10/16 14:00:31  5-MIN K9L2 102200Z AUTO 24006G15KT 10SM CLR 21/04 A2982 2400 33 3700 230/06G15 RMK AO2 $
53144K9L2 9L220160410140511004/10/16 14:05:31  5-MIN K9L2 102205Z AUTO 22010G14KT 10SM FEW038 21/04 A2981 2400 32 3700 210/10G14 RMK AO2 $
53144K9L2 9L220160410141011004/10/16 14:10:31  5-MIN K9L2 102210Z AUTO 24012G18KT 10SM SCT038 21/04 A2981 2400 32 3700 220/12G18 RMK AO2 $
53144K9L2 9L220160410141511004/10/16 14:15:31  5-MIN K9L2 102215Z AUTO 25009G18KT 10SM FEW038 21/04 A2981 2400 32 3700 230/09G18 RMK AO2 $
53144K9L2 9L220160410142010404/10/16 14:20:31  5-MIN K9L2 102220Z AUTO 24009KT 10SM SCT038 21/04 A2981 2400 33 3600 230/09 RMK AO2 $
53144K9L2 9L220160410142511004/10/16 14:25:31  5-MIN K9L2 102225Z AUTO 26011G17KT 10SM SCT038 22/04 A2981 2400 31 3800 250/11G17 RMK AO2 $
53144K9L2 9L220160410143010404/10/16 14:30:31  5-MIN K9L2 102230Z AUTO 28016KT 10SM SCT041 21/04 A2981 2400 32 3700 270/16 RMK AO2 $
53144K9L2 9L220160410143511004/10/16 14:35:31  5-MIN K9L2 102235Z AUTO 25013G20KT 10SM SCT041 22/04 A2981 2400 31 3800 230/13G20 RMK AO2 $
53144K9L2 9L220160410144011004/10/16 14:40:31  5-MIN K9L2 102240Z AUTO 24011G20KT 10SM SCT041 21/04 A2981 2400 32 3700 230/11G20 RMK AO2 $
53144K9L2 9L220160410144511104/10/16 14:45:31  5-MIN K9L2 102245Z AUTO 27012KT 10SM SCT039 SCT047 21/04 A2982 2400 32 3700 250/12 RMK AO2 $
53144K9L2 9L220160410145011704/10/16 14:50:31  5-MIN K9L2 102250Z AUTO 25009G17KT 10SM SCT039 BKN047 21/04 A2981 2400 32 3700 230/09G17 RMK AO2 $
53144K9L2 9L220160410145512804/10/16 14:55:31  5-MIN K9L2 102255Z AUTO 26010KT 10SM BKN039 BKN047 21/04 A2981 2400 33 3700 250/10 RMK AO2 SLP089 T02110044 $
53144K9L2 9L220160410150011104/10/16 15:00:31  5-MIN K9L2 102300Z AUTO 25013KT 10SM BKN039 BKN049 21/04 A2981 2400 33 3700 240/13 RMK AO2 $
53144K9L2 9L220160410150513304/10/16 15:05:31  5-MIN K9L2 102305Z AUTO 26012G19KT 210V290 10SM BKN037 BKN049 21/04 A2982 2400 33 3700 250/12G19 200V280 RMK AO2 $
53144K9L2 9L220160410151011704/10/16 15:10:31  5-MIN K9L2 102310Z AUTO 23013G19KT 10SM BKN037 OVC049 21/04 A2982 2400 33 3700 220/13G19 RMK AO2 $
53144K9L2 9L220160410151511004/10/16 15:15:31  5-MIN K9L2 102315Z AUTO 23016G22KT 10SM OVC037 21/04 A2982 2400 33 3700 220/16G22 RMK AO2 $
53144K9L2 9L220160410152011004/10/16 15:20:31  5-MIN K9L2 102320Z AUTO 24014G22KT 10SM OVC037 21/05 A2982 2400 35 3600 220/14G22 RMK AO2 $
53144K9L2 9L220160410152511004/10/16 15:25:31  5-MIN K9L2 102325Z AUTO 26015G22KT 10SM OVC035 21/04 A2982 2400 33 3700 250/15G22 RMK AO2 $
53144K9L2 9L220160410153011704/10/16 15:30:31  5-MIN K9L2 102330Z AUTO 27012G20KT 10SM BKN037 OVC046 21/04 A2982 2400 32 3700 260/12G20 RMK AO2 $
53144K9L2 9L220160410153511104/10/16 15:35:31  5-MIN K9L2 102335Z AUTO 25015KT 10SM BKN037 OVC046 21/04 A2982 2400 32 3700 230/15 RMK AO2 $
53144K9L2 9L220160410154011704/10/16 15:40:31  5-MIN K9L2 102340Z AUTO 24017G25KT 10SM BKN037 OVC046 21/04 A2982 2400 34 3600 220/17G25 RMK AO2 $
53144K9L2 9L220160410154511704/10/16 15:45:31  5-MIN K9L2 102345Z AUTO 24015G25KT 10SM BKN037 BKN046 21/05 A2982 2400 34 3700 220/15G25 RMK AO2 $
53144K9L2 9L220160410155011704/10/16 15:50:31  5-MIN K9L2 102350Z AUTO 23018G23KT 10SM BKN039 BKN046 20/06 A2982 2400 38 3600 210/18G23 RMK AO2 $
53144K9L2 9L220160410155515204/10/16 15:55:31  5-MIN K9L2 102355Z AUTO 24017G24KT 10SM SCT039 BKN046 21/06 A2982 2400 36 3700 230/17G24 RMK AO2 SLP092 T02110056 10222 20178 56009 $
53144K9L2 9L220160410160011004/10/16 16:00:31  5-MIN K9L2 110000Z AUTO 23018G24KT 10SM SCT039 21/05 A2982 2400 34 3700 210/18G24 RMK AO2 $
53144K9L2 9L220160410160511004/10/16 16:05:31  5-MIN K9L2 110005Z AUTO 24020G25KT 10SM SCT041 21/06 A2982 2390 37 3600 220/20G25 RMK AO2 $
53144K9L2 9L220160410161012804/10/16 16:10:31  5-MIN K9L2 110010Z AUTO 22018G26KT 10SM SCT041 21/06 A2982 2400 38 3600 200/18G26 RMK AO2 PK WND 23026/0007 $
53144K9L2 9L220160410161512804/10/16 16:15:31  5-MIN K9L2 110015Z AUTO 22017G26KT 10SM FEW041 21/06 A2982 2390 38 3600 210/17G26 RMK AO2 PK WND 23026/0007 $
53144K9L2 9L220160410162012804/10/16 16:20:31  5-MIN K9L2 110020Z AUTO 22021G26KT 10SM SCT039 21/06 A2982 2400 38 3600 210/21G26 RMK AO2 PK WND 22026/0018 $
53144K9L2 9L220160410162512804/10/16 16:25:31  5-MIN K9L2 110025Z AUTO 23018G26KT 10SM SCT039 21/06 A2982 2390 38 3600 210/18G26 RMK AO2 PK WND 22026/0018 $
53144K9L2 9L220160410163012804/10/16 16:30:31  5-MIN K9L2 110030Z AUTO 23021G27KT 10SM FEW039 21/07 A2982 2390 40 3600 210/21G27 RMK AO2 PK WND 23027/0030 $
53144K9L2 9L220160410163512804/10/16 16:35:31  5-MIN K9L2 110035Z AUTO 22019G27KT 10SM FEW039 20/07 A2983 2390 41 3600 210/19G27 RMK AO2 PK WND 23027/0031 $
53144K9L2 9L220160410164012804/10/16 16:40:31  5-MIN K9L2 110040Z AUTO 23020G27KT 10SM FEW039 20/07 A2983 2380 41 3600 210/20G27 RMK AO2 PK WND 23027/0031 $
53144K9L2 9L220160410164512804/10/16 16:45:31  5-MIN K9L2 110045Z AUTO 23021G27KT 10SM FEW039 19/07 A2984 2380 43 3500 210/21G27 RMK AO2 PK WND 23027/0045 $
53144K9L2 9L220160410165012504/10/16 16:50:31  5-MIN K9L2 110050Z AUTO 22022G30KT 10SM CLR 19/07 A2983 2380 44 3400 210/22G30 RMK AO2 PK WND 22030/0049 $
53144K9L2 9L220160410165514204/10/16 16:55:31  5-MIN K9L2 110055Z AUTO 23023G30KT 10SM CLR 19/07 A2984 2380 46 3400 210/23G30 RMK AO2 PK WND 22030/0049 SLP099 T01890072 $
53144K9L2 9L220160410170012504/10/16 17:00:31  5-MIN K9L2 110100Z AUTO 23023G30KT 10SM CLR 18/07 A2984 2380 48 3400 210/23G30 RMK AO2 PK WND 22030/0057 $
53144K9L2 9L220160410170512504/10/16 17:05:31  5-MIN K9L2 110105Z AUTO 23019G30KT 10SM CLR 18/07 A2984 2370 48 3300 210/19G30 RMK AO2 PK WND 22030/0057 $
53144K9L2 9L220160410171012504/10/16 17:10:31  5-MIN K9L2 110110Z AUTO 23023G29KT 10SM CLR 18/07 A2985 2370 48 3300 210/23G29 RMK AO2 PK WND 22030/0057 $
53144K9L2 9L220160410171512504/10/16 17:15:31  5-MIN K9L2 110115Z AUTO 22021G29KT 10SM CLR 18/07 A2985 2370 49 3300 210/21G29 RMK AO2 PK WND 22030/0057 $
53144K9L2 9L220160410172012504/10/16 17:20:31  5-MIN K9L2 110120Z AUTO 23021G28KT 10SM CLR 18/07 A2985 2370 49 3300 210/21G28 RMK AO2 PK WND 22030/0057 $
53144K9L2 9L220160410172512504/10/16 17:25:31  5-MIN K9L2 110125Z AUTO 22023G29KT 10SM CLR 18/07 A2985 2370 49 3300 200/23G29 RMK AO2 PK WND 22030/0057 $
53144K9L2 9L220160410173012504/10/16 17:30:31  5-MIN K9L2 110130Z AUTO 22021G29KT 10SM CLR 17/07 A2985 2370 51 3200 210/21G29 RMK AO2 PK WND 22030/0057 $
53144K9L2 9L220160410173512504/10/16 17:35:31  5-MIN K9L2 110135Z AUTO 23020G29KT 10SM CLR 17/07 A2985 2370 51 3200 210/20G29 RMK AO2 PK WND 22030/0057 $
53144K9L2 9L220160410174012504/10/16 17:40:31  5-MIN K9L2 110140Z AUTO 22022G29KT 10SM CLR 17/07 A2985 2370 51 3200 210/22G29 RMK AO2 PK WND 22030/0057 $
53144K9L2 9L220160410174512504/10/16 17:45:31  5-MIN K9L2 110145Z AUTO 22018G29KT 10SM CLR 17/07 A2985 2360 53 3100 210/18G29 RMK AO2 PK WND 22030/0057 $
53144K9L2 9L220160410175012504/10/16 17:50:31  5-MIN K9L2 110150Z AUTO 22020G27KT 10SM CLR 17/07 A2985 2370 53 3100 210/20G27 RMK AO2 PK WND 22030/0057 $
53144K9L2 9L220160410175514204/10/16 17:55:31  5-MIN K9L2 110155Z AUTO 22022G29KT 10SM CLR 16/07 A2985 2360 55 3100 210/22G29 RMK AO2 PK WND 22030/0057 SLP107 T01610072 $
53144K9L2 9L220160410180012504/10/16 18:00:31  5-MIN K9L2 110200Z AUTO 22021G29KT 10SM CLR 16/07 A2986 2360 55 3100 210/21G29 RMK AO2 PK WND 22028/0200 $
53144K9L2 9L220160410180512504/10/16 18:05:31  5-MIN K9L2 110205Z AUTO 22021G28KT 10SM CLR 16/07 A2986 2360 57 3000 210/21G28 RMK AO2 PK WND 22028/0204 $
53144K9L2 9L220160410181012504/10/16 18:10:31  5-MIN K9L2 110210Z AUTO 23022G28KT 10SM CLR 16/07 A2986 2360 57 3000 210/22G28 RMK AO2 PK WND 22028/0204 $
53144K9L2 9L220160410181512504/10/16 18:15:31  5-MIN K9L2 110215Z AUTO 22018G27KT 10SM CLR 15/07 A2986 2360 59 2900 210/18G27 RMK AO2 PK WND 22028/0204 $
53144K9L2 9L220160410182012504/10/16 18:20:31  5-MIN K9L2 110220Z AUTO 22019G28KT 10SM CLR 15/07 A2986 2360 59 2900 210/19G28 RMK AO2 PK WND 22028/0218 $
53144K9L2 9L220160410182512504/10/16 18:25:31  5-MIN K9L2 110225Z AUTO 22021G28KT 10SM CLR 15/07 A2986 2360 59 2900 210/21G28 RMK AO2 PK WND 22028/0223 $
53144K9L2 9L220160410183012504/10/16 18:30:31  5-MIN K9L2 110230Z AUTO 22020G28KT 10SM CLR 15/07 A2986 2350 59 2900 210/20G28 RMK AO2 PK WND 22028/0223 $
53144K9L2 9L220160410183512504/10/16 18:35:31  5-MIN K9L2 110235Z AUTO 22023G29KT 10SM CLR 14/07 A2987 2350 61 2900 210/23G29 RMK AO2 PK WND 22029/0235 $
53144K9L2 9L220160410184012504/10/16 18:40:31  5-MIN K9L2 110240Z AUTO 23020G29KT 10SM CLR 14/07 A2987 2350 61 2900 210/20G29 RMK AO2 PK WND 22029/0235 $
53144K9L2 9L220160410184512504/10/16 18:45:31  5-MIN K9L2 110245Z AUTO 22021G27KT 10SM CLR 14/07 A2987 2350 61 2900 210/21G27 RMK AO2 PK WND 22029/0235 $
53144K9L2 9L220160410185012504/10/16 18:50:31  5-MIN K9L2 110250Z AUTO 22018G27KT 10SM CLR 14/07 A2988 2340 59 2900 210/18G27 RMK AO2 PK WND 22029/0235 $
53144K9L2 9L220160410185514804/10/16 18:55:31  5-MIN K9L2 110255Z AUTO 23019G25KT 10SM CLR 14/07 A2988 2340 59 2900 210/19G25 RMK AO2 PK WND 22029/0235 SLP115 T01440067 55003 $
53144K9L2 9L220160410190010704/10/16 19:00:31  5-MIN K9L2 110300Z AUTO 23017G25KT 10SM CLR 14/07 A2988 2340 59 2900 210/17G25 RMK AO2 $
53144K9L2 9L220160410190512504/10/16 19:05:31  5-MIN K9L2 110305Z AUTO 22022G29KT 10SM CLR 14/07 A2988 2340 59 2900 210/22G29 RMK AO2 PK WND 22029/0303 $
53144K9L2 9L220160410191012504/10/16 19:10:31  5-MIN K9L2 110310Z AUTO 22018G29KT 10SM CLR 14/07 A2988 2340 61 2800 210/18G29 RMK AO2 PK WND 22029/0303 $
53144K9L2 9L220160410191512504/10/16 19:15:31  5-MIN K9L2 110315Z AUTO 23018G25KT 10SM CLR 14/07 A2989 2330 61 2800 210/18G25 RMK AO2 PK WND 22029/0303 $
53144K9L2 9L220160410192012504/10/16 19:20:31  5-MIN K9L2 110320Z AUTO 22018G24KT 10SM CLR 14/07 A2989 2330 61 2800 210/18G24 RMK AO2 PK WND 22029/0303 $
53144K9L2 9L220160410192512504/10/16 19:25:31  5-MIN K9L2 110325Z AUTO 22017G24KT 10SM CLR 14/07 A2990 2330 61 2800 210/17G24 RMK AO2 PK WND 22029/0303 $
53144K9L2 9L220160410193012504/10/16 19:30:31  5-MIN K9L2 110330Z AUTO 22017G24KT 10SM CLR 14/06 A2990 2320 59 2800 210/17G24 RMK AO2 PK WND 22029/0303 $
53144K9L2 9L220160410193511904/10/16 19:35:31  5-MIN K9L2 110335Z AUTO 23017KT 10SM CLR 14/06 A2990 2320 59 2800 210/17 RMK AO2 PK WND 22029/0303 $
53144K9L2 9L220160410194011904/10/16 19:40:31  5-MIN K9L2 110340Z AUTO 23017KT 10SM CLR 14/06 A2990 2320 59 2800 210/17 RMK AO2 PK WND 22029/0303 $
53144K9L2 9L220160410194512504/10/16 19:45:31  5-MIN K9L2 110345Z AUTO 23020G25KT 10SM CLR 14/06 A2991 2310 59 2800 220/20G25 RMK AO2 PK WND 22029/0303 $
53144K9L2 9L220160410195012504/10/16 19:50:31  5-MIN K9L2 110350Z AUTO 23019G25KT 10SM CLR 14/06 A2991 2310 57 2800 220/19G25 RMK AO2 PK WND 22029/0303 $
53144K9L2 9L220160410195514204/10/16 19:55:31  5-MIN K9L2 110355Z AUTO 23016G24KT 10SM CLR 14/06 A2992 2310 57 2800 210/16G24 RMK AO2 PK WND 22029/0303 SLP127 T01390056 $
53144K9L2 9L220160410200010704/10/16 20:00:31  5-MIN K9L2 110400Z AUTO 23019G25KT 10SM CLR 14/06 A2992 2300 57 2700 210/19G25 RMK AO2 $
53144K9L2 9L220160410200510704/10/16 20:05:31  5-MIN K9L2 110405Z AUTO 23018G25KT 10SM CLR 14/06 A2992 2300 57 2700 220/18G25 RMK AO2 $
53144K9L2 9L220160410201012504/10/16 20:10:31  5-MIN K9L2 110410Z AUTO 23020G26KT 10SM CLR 14/06 A2993 2300 59 2700 210/20G26 RMK AO2 PK WND 22026/0409 $
53144K9L2 9L220160410201512504/10/16 20:15:31  5-MIN K9L2 110415Z AUTO 23020G26KT 10SM CLR 14/06 A2992 2300 59 2700 210/20G26 RMK AO2 PK WND 22026/0409 $
53144K9L2 9L220160410202012504/10/16 20:20:31  5-MIN K9L2 110420Z AUTO 23020G26KT 10SM CLR 13/06 A2993 2290 61 2700 220/20G26 RMK AO2 PK WND 23026/0419 $
53144K9L2 9L220160410202512504/10/16 20:25:31  5-MIN K9L2 110425Z AUTO 23017G26KT 10SM CLR 13/06 A2993 2290 61 2700 210/17G26 RMK AO2 PK WND 23026/0419 $
53144K9L2 9L220160410203012504/10/16 20:30:31  5-MIN K9L2 110430Z AUTO 23017G23KT 10SM CLR 13/06 A2993 2290 61 2700 220/17G23 RMK AO2 PK WND 23026/0419 $
53144K9L2 9L220160410203512504/10/16 20:35:31  5-MIN K9L2 110435Z AUTO 23015G23KT 10SM CLR 13/06 A2994 2290 61 2700 220/15G23 RMK AO2 PK WND 23026/0419 $
53144K9L2 9L220160410204012504/10/16 20:40:31  5-MIN K9L2 110440Z AUTO 23018G24KT 10SM CLR 13/06 A2993 2290 61 2700 220/18G24 RMK AO2 PK WND 23026/0419 $
53144K9L2 9L220160410204512504/10/16 20:45:31  5-MIN K9L2 110445Z AUTO 23016G24KT 10SM CLR 13/06 A2994 2290 61 2700 220/16G24 RMK AO2 PK WND 23026/0419 $
53144K9L2 9L220160410205012504/10/16 20:50:31  5-MIN K9L2 110450Z AUTO 22015G23KT 10SM CLR 13/06 A2994 2290 61 2700 210/15G23 RMK AO2 PK WND 23026/0419 $
53144K9L2 9L220160410205514204/10/16 20:55:31  5-MIN K9L2 110455Z AUTO 23014G22KT 10SM CLR 13/06 A2994 2290 61 2700 210/14G22 RMK AO2 PK WND 23026/0419 SLP132 T01330061 $
53144K9L2 9L220160410210010704/10/16 21:00:31  5-MIN K9L2 110500Z AUTO 23015G20KT 10SM CLR 13/06 A2994 2290 61 2700 220/15G20 RMK AO2 $
53144K9L2 9L220160410210510704/10/16 21:05:31  5-MIN K9L2 110505Z AUTO 23015G20KT 10SM CLR 13/06 A2994 2290 61 2700 210/15G20 RMK AO2 $
53144K9L2 9L220160410211010104/10/16 21:10:31  5-MIN K9L2 110510Z AUTO 23015KT 10SM CLR 13/06 A2993 2290 61 2700 210/15 RMK AO2 $
53144K9L2 9L220160410211510704/10/16 21:15:31  5-MIN K9L2 110515Z AUTO 23012G20KT 10SM CLR 13/06 A2994 2290 61 2700 210/12G20 RMK AO2 $
53144K9L2 9L220160410212010704/10/16 21:20:31  5-MIN K9L2 110520Z AUTO 23013G20KT 10SM CLR 13/06 A2994 2290 61 2700 210/13G20 RMK AO2 $
53144K9L2 9L220160410212510104/10/16 21:25:31  5-MIN K9L2 110525Z AUTO 23014KT 10SM CLR 13/06 A2994 2290 61 2700 210/14 RMK AO2 $
53144K9L2 9L220160410213010104/10/16 21:30:31  5-MIN K9L2 110530Z AUTO 23014KT 10SM CLR 13/06 A2994 2290 61 2700 220/14 RMK AO2 $
53144K9L2 9L220160410213510704/10/16 21:35:31  5-MIN K9L2 110535Z AUTO 23014G20KT 10SM CLR 13/06 A2994 2280 61 2700 210/14G20 RMK AO2 $
53144K9L2 9L220160410214011004/10/16 21:40:31  5-MIN K9L2 110540Z AUTO 23013G20KT 10SM FEW050 13/06 A2994 2280 61 2700 210/13G20 RMK AO2 $
53144K9L2 9L220160410214510404/10/16 21:45:31  5-MIN K9L2 110545Z AUTO 23014KT 10SM SCT050 13/06 A2994 2280 61 2700 210/14 RMK AO2 $
53144K9L2 9L220160410215010404/10/16 21:50:31  5-MIN K9L2 110550Z AUTO 22014KT 10SM SCT050 13/06 A2994 2280 61 2700 210/14 RMK AO2 $
53144K9L2 9L220160410215513904/10/16 21:55:31  5-MIN K9L2 110555Z AUTO 22014KT 10SM FEW050 13/06 A2994 2280 61 2700 210/14 RMK AO2 SLP133 T01330061 10211 20133 53019 $
53144K9L2 9L220160410220011004/10/16 22:00:31  5-MIN K9L2 110600Z AUTO 23018G22KT 10SM FEW050 13/06 A2994 2280 63 2600 210/18G22 RMK AO2 $
53144K9L2 9L220160410220511004/10/16 22:05:31  5-MIN K9L2 110605Z AUTO 22016G22KT 10SM FEW050 13/06 A2995 2280 63 2600 210/16G22 RMK AO2 $
53144K9L2 9L220160410221010404/10/16 22:10:31  5-MIN K9L2 110610Z AUTO 23015KT 10SM FEW050 13/06 A2995 2280 63 2600 210/15 RMK AO2 $
53144K9L2 9L220160410221510704/10/16 22:15:31  5-MIN K9L2 110615Z AUTO 22015G21KT 10SM CLR 13/06 A2995 2280 63 2600 210/15G21 RMK AO2 $
53144K9L2 9L220160410222010704/10/16 22:20:31  5-MIN K9L2 110620Z AUTO 22017G21KT 10SM CLR 13/06 A2995 2280 63 2600 210/17G21 RMK AO2 $
53144K9L2 9L220160410222510704/10/16 22:25:31  5-MIN K9L2 110625Z AUTO 22013G21KT 10SM CLR 13/06 A2995 2270 63 2600 210/13G21 RMK AO2 $
53144K9L2 9L220160410223010704/10/16 22:30:31  5-MIN K9L2 110630Z AUTO 22016G20KT 10SM CLR 13/06 A2995 2280 63 2600 200/16G20 RMK AO2 $
53144K9L2 9L220160410223510104/10/16 22:35:31  5-MIN K9L2 110635Z AUTO 22016KT 10SM CLR 13/07 A2995 2280 66 2600 200/16 RMK AO2 $
53144K9L2 9L220160410224010104/10/16 22:40:31  5-MIN K9L2 110640Z AUTO 22014KT 10SM CLR 13/07 A2995 2280 66 2600 200/14 RMK AO2 $
53144K9L2 9L220160410224510104/10/16 22:45:31  5-MIN K9L2 110645Z AUTO 22014KT 10SM CLR 13/07 A2995 2270 66 2600 210/14 RMK AO2 $
53144K9L2 9L220160410225010104/10/16 22:50:31  5-MIN K9L2 110650Z AUTO 22013KT 10SM CLR 13/07 A2995 2270 66 2600 210/13 RMK AO2 $
53144K9L2 9L220160410225511804/10/16 22:55:31  5-MIN K9L2 110655Z AUTO 22012KT 10SM CLR 13/07 A2995 2270 66 2600 210/12 RMK AO2 SLP137 T01280067 $
53144K9L2 9L220160410230011004/10/16 23:00:31  5-MIN K9L2 110700Z AUTO 22013G19KT 10SM FEW100 13/07 A2996 2270 66 2600 210/13G19 RMK AO2 $
53144K9L2 9L220160410230511004/10/16 23:05:31  5-MIN K9L2 110705Z AUTO 23015G19KT 10SM SCT100 13/07 A2996 2270 66 2600 210/15G19 RMK AO2 $
53144K9L2 9L220160410231010404/10/16 23:10:31  5-MIN K9L2 110710Z AUTO 23013KT 10SM SCT100 13/07 A2996 2270 66 2600 220/13 RMK AO2 $
53144K9L2 9L220160410231510404/10/16 23:15:31  5-MIN K9L2 110715Z AUTO 23014KT 10SM BKN100 13/07 A2996 2270 64 2600 220/14 RMK AO2 $
53144K9L2 9L220160410232011004/10/16 23:20:31  5-MIN K9L2 110720Z AUTO 23012G20KT 10SM BKN100 13/07 A2996 2270 64 2600 210/12G20 RMK AO2 $
53144K9L2 9L220160410232511004/10/16 23:25:31  5-MIN K9L2 110725Z AUTO 22013G20KT 10SM BKN100 13/07 A2996 2270 64 2600 210/13G20 RMK AO2 $
53144K9L2 9L220160410233010404/10/16 23:30:31  5-MIN K9L2 110730Z AUTO 22012KT 10SM BKN095 13/07 A2996 2270 66 2600 210/12 RMK AO2 $
53144K9L2 9L220160410233511004/10/16 23:35:31  5-MIN K9L2 110735Z AUTO 23011G19KT 10SM BKN095 13/07 A2996 2270 66 2600 220/11G19 RMK AO2 $
53144K9L2 9L220160410234011004/10/16 23:40:31  5-MIN K9L2 110740Z AUTO 23015G21KT 10SM BKN100 13/07 A2996 2270 64 2600 220/15G21 RMK AO2 $
53144K9L2 9L220160410234511004/10/16 23:45:31  5-MIN K9L2 110745Z AUTO 23013G21KT 10SM BKN095 13/07 A2996 2270 64 2600 210/13G21 RMK AO2 $
53144K9L2 9L220160410235011104/10/16 23:50:31  5-MIN K9L2 110750Z AUTO 22011KT 10SM FEW075 BKN095 13/07 A2996 2260 64 2600 200/11 RMK AO2 $
53144K9L2 9L220160410235513804/10/16 23:55:31  5-MIN K9L2 110755Z AUTO 22012KT 10SM SCT075 OVC095 13/07 A2996 2260 64 2600 200/12 RMK AO2 SLP137 T01330067 402220089 $
53144K9L2 9L220160411000011104/11/16 00:00:31  5-MIN K9L2 110800Z AUTO 21012KT 10SM BKN075 OVC095 13/07 A2997 2260 64 2600 200/12 RMK AO2 $
53144K9L2 9L220160411000511804/11/16 00:05:31  5-MIN K9L2 110805Z AUTO 21011KT 10SM FEW055 BKN075 OVC090 13/07 A2996 2260 64 2600 190/11 RMK AO2 $
53144K9L2 9L220160411001011804/11/16 00:10:31  5-MIN K9L2 110810Z AUTO 20011KT 10SM FEW055 BKN075 BKN090 13/07 A2997 2260 66 2600 190/11 RMK AO2 $
53144K9L2 9L220160411001511804/11/16 00:15:31  5-MIN K9L2 110815Z AUTO 21009KT 10SM FEW055 BKN075 BKN090 13/07 A2997 2260 66 2600 200/09 RMK AO2 $
53144K9L2 9L220160411002011804/11/16 00:20:31  5-MIN K9L2 110820Z AUTO 21010KT 10SM FEW055 SCT075 BKN095 13/07 A2997 2260 66 2600 200/10 RMK AO2 $
53144K9L2 9L220160411002511804/11/16 00:25:31  5-MIN K9L2 110825Z AUTO 22011KT 10SM FEW055 SCT080 BKN100 13/07 A2996 2260 66 2600 200/11 RMK AO2 $
53144K9L2 9L220160411003011104/11/16 00:30:31  5-MIN K9L2 110830Z AUTO 22012KT 10SM FEW055 SCT095 13/07 A2996 2260 66 2600 210/12 RMK AO2 $
53144K9L2 9L220160411003510404/11/16 00:35:31  5-MIN K9L2 110835Z AUTO 22012KT 10SM SCT095 13/07 A2996 2260 66 2600 210/12 RMK AO2 $
53144K9L2 9L220160411004011104/11/16 00:40:31  5-MIN K9L2 110840Z AUTO 23009KT 10SM FEW065 BKN095 13/07 A2997 2260 66 2600 210/09 RMK AO2 $
53144K9L2 9L220160411004511104/11/16 00:45:31  5-MIN K9L2 110845Z AUTO 22010KT 10SM FEW065 BKN090 13/07 A2996 2260 66 2600 210/10 RMK AO2 $
53144K9L2 9L220160411005011104/11/16 00:50:31  5-MIN K9L2 110850Z AUTO 23010KT 10SM FEW065 BKN090 13/07 A2996 2260 66 2600 210/10 RMK AO2 $
53144K9L2 9L220160411005513404/11/16 00:55:31  5-MIN K9L2 110855Z AUTO 22010KT 10SM FEW065 BKN085 13/07 A2996 2260 66 2600 210/10 RMK AO2 SLP138 T01280067 51020 $
53144K9L2 9L220160411010011104/11/16 01:00:31  5-MIN K9L2 110900Z AUTO 23011KT 10SM FEW065 BKN085 13/07 A2996 2260 66 2600 210/11 RMK AO2 $
53144K9L2 9L220160411010511104/11/16 01:05:31  5-MIN K9L2 110905Z AUTO 23011KT 10SM FEW065 BKN080 13/07 A2996 2260 66 2600 210/11 RMK AO2 $
53144K9L2 9L220160411011010404/11/16 01:10:31  5-MIN K9L2 110910Z AUTO 23010KT 10SM SCT080 13/07 A2996 2260 66 2600 220/10 RMK AO2 $
53144K9L2 9L220160411011510404/11/16 01:15:31  5-MIN K9L2 110915Z AUTO 23010KT 10SM SCT080 13/07 A2996 2260 66 2600 220/10 RMK AO2 $
53144K9L2 9L220160411012010404/11/16 01:20:31  5-MIN K9L2 110920Z AUTO 23012KT 10SM SCT085 13/07 A2996 2260 66 2600 220/12 RMK AO2 $
53144K9L2 9L220160411012510404/11/16 01:25:31  5-MIN K9L2 110925Z AUTO 23012KT 10SM SCT085 13/07 A2996 2260 66 2600 220/12 RMK AO2 $
53144K9L2 9L220160411013010404/11/16 01:30:31  5-MIN K9L2 110930Z AUTO 23013KT 10SM SCT085 13/07 A2996 2260 66 2600 220/13 RMK AO2 $
53144K9L2 9L220160411013510404/11/16 01:35:31  5-MIN K9L2 110935Z AUTO 23013KT 10SM SCT085 13/07 A2996 2260 66 2600 220/13 RMK AO2 $
53144K9L2 9L220160411014010404/11/16 01:40:31  5-MIN K9L2 110940Z AUTO 23015KT 10SM SCT085 13/07 A2996 2270 66 2600 220/15 RMK AO2 $
53144K9L2 9L220160411014510404/11/16 01:45:31  5-MIN K9L2 110945Z AUTO 23014KT 10SM FEW085 13/07 A2996 2270 66 2600 220/14 RMK AO2 $
53144K9L2 9L220160411015010404/11/16 01:50:31  5-MIN K9L2 110950Z AUTO 23012KT 10SM FEW085 13/07 A2996 2260 66 2600 220/12 RMK AO2 $
53144K9L2 9L220160411015512104/11/16 01:55:31  5-MIN K9L2 110955Z AUTO 23012KT 10SM FEW090 13/07 A2996 2260 66 2600 210/12 RMK AO2 SLP137 T01280067 $
53144K9L2 9L220160411020010104/11/16 02:00:31  5-MIN K9L2 111000Z AUTO 22012KT 10SM CLR 13/06 A2996 2260 63 2600 210/12 RMK AO2 $
53144K9L2 9L220160411020510104/11/16 02:05:31  5-MIN K9L2 111005Z AUTO 22013KT 10SM CLR 13/06 A2996 2260 63 2600 210/13 RMK AO2 $
53144K9L2 9L220160411021010704/11/16 02:10:31  5-MIN K9L2 111010Z AUTO 23011G17KT 10SM CLR 12/06 A2997 2260 66 2500 210/11G17 RMK AO2 $
53144K9L2 9L220160411021510104/11/16 02:15:31  5-MIN K9L2 111015Z AUTO 23010KT 10SM CLR 12/06 A2997 2260 66 2500 210/10 RMK AO2 $
53144K9L2 9L220160411022010104/11/16 02:20:31  5-MIN K9L2 111020Z AUTO 22009KT 10SM CLR 12/06 A2997 2260 66 2500 210/09 RMK AO2 $
53144K9L2 9L220160411022510704/11/16 02:25:31  5-MIN K9L2 111025Z AUTO 22011G16KT 10SM CLR 12/06 A2997 2260 66 2500 210/11G16 RMK AO2 $
53144K9L2 9L220160411023010104/11/16 02:30:31  5-MIN K9L2 111030Z AUTO 22012KT 10SM CLR 12/07 A2997 2260 68 2500 210/12 RMK AO2 $
53144K9L2 9L220160411023510104/11/16 02:35:31  5-MIN K9L2 111035Z AUTO 21011KT 10SM CLR 12/06 A2997 2260 66 2500 200/11 RMK AO2 $
53144K9L2 9L220160411024010104/11/16 02:40:31  5-MIN K9L2 111040Z AUTO 21010KT 10SM CLR 12/06 A2997 2250 66 2500 200/10 RMK AO2 $
53144K9L2 9L220160411024510104/11/16 02:45:31  5-MIN K9L2 111045Z AUTO 22011KT 10SM CLR 12/06 A2997 2250 66 2500 200/11 RMK AO2 $
53144K9L2 9L220160411025010104/11/16 02:50:31  5-MIN K9L2 111050Z AUTO 22010KT 10SM CLR 12/06 A2997 2260 66 2500 210/10 RMK AO2 $
53144K9L2 9L220160411025511804/11/16 02:55:31  5-MIN K9L2 111055Z AUTO 23011KT 10SM CLR 12/06 A2997 2260 66 2500 210/11 RMK AO2 SLP142 T01220061 $
53144K9L2 9L220160411030010104/11/16 03:00:31  5-MIN K9L2 111100Z AUTO 22012KT 10SM CLR 12/06 A2997 2250 66 2500 210/12 RMK AO2 $
53144K9L2 9L220160411030510104/11/16 03:05:31  5-MIN K9L2 111105Z AUTO 23011KT 10SM CLR 12/06 A2997 2250 68 2400 210/11 RMK AO2 $
53144K9L2 9L220160411031010104/11/16 03:10:31  5-MIN K9L2 111110Z AUTO 23011KT 10SM CLR 12/06 A2998 2250 68 2400 210/11 RMK AO2 $
53144K9L2 9L220160411031510104/11/16 03:15:31  5-MIN K9L2 111115Z AUTO 22011KT 10SM CLR 12/06 A2998 2250 68 2400 210/11 RMK AO2 $
53144K9L2 9L220160411032010104/11/16 03:20:31  5-MIN K9L2 111120Z AUTO 21008KT 10SM CLR 12/06 A2998 2250 68 2400 200/08 RMK AO2 $
53144K9L2 9L220160411032510104/11/16 03:25:31  5-MIN K9L2 111125Z AUTO 22009KT 10SM CLR 12/06 A2998 2240 68 2400 210/09 RMK AO2 $
53144K9L2 9L220160411033010104/11/16 03:30:31  5-MIN K9L2 111130Z AUTO 23011KT 10SM CLR 12/06 A2998 2240 68 2400 210/11 RMK AO2 $
53144K9L2 9L220160411033510104/11/16 03:35:31  5-MIN K9L2 111135Z AUTO 22012KT 10SM CLR 12/06 A2998 2240 68 2400 210/12 RMK AO2 $
53144K9L2 9L220160411034010104/11/16 03:40:31  5-MIN K9L2 111140Z AUTO 23011KT 10SM CLR 12/06 A2999 2240 68 2400 210/11 RMK AO2 $
53144K9L2 9L220160411034510104/11/16 03:45:31  5-MIN K9L2 111145Z AUTO 23011KT 10SM CLR 12/06 A2999 2240 68 2400 210/11 RMK AO2 $
53144K9L2 9L220160411035010104/11/16 03:50:31  5-MIN K9L2 111150Z AUTO 23010KT 10SM CLR 12/06 A2999 2240 68 2400 210/10 RMK AO2 $
53144K9L2 9L220160411035513604/11/16 03:55:31  5-MIN K9L2 111155Z AUTO 23010KT 10SM CLR 12/06 A2999 2240 66 2400 210/10 RMK AO2 SLP147 T01170056 10133 20117 50006 $
53144K9L2 9L220160411040010104/11/16 04:00:31  5-MIN K9L2 111200Z AUTO 23010KT 10SM CLR 12/06 A2999 2240 66 2400 210/10 RMK AO2 $
53144K9L2 9L220160411040510104/11/16 04:05:31  5-MIN K9L2 111205Z AUTO 22009KT 10SM CLR 12/06 A2999 2240 66 2400 210/09 RMK AO2 $
53144K9L2 9L220160411041010104/11/16 04:10:31  5-MIN K9L2 111210Z AUTO 22010KT 10SM CLR 12/06 A2999 2240 66 2400 200/10 RMK AO2 $
53144K9L2 9L220160411041510104/11/16 04:15:31  5-MIN K9L2 111215Z AUTO 21009KT 10SM CLR 12/06 A2999 2240 66 2400 200/09 RMK AO2 $
53144K9L2 9L220160411042010104/11/16 04:20:31  5-MIN K9L2 111220Z AUTO 21009KT 10SM CLR 12/06 A2999 2240 66 2400 200/09 RMK AO2 $
53144K9L2 9L220160411042510104/11/16 04:25:31  5-MIN K9L2 111225Z AUTO 21008KT 10SM CLR 12/05 A2999 2240 63 2400 200/08 RMK AO2 $
53144K9L2 9L220160411043010104/11/16 04:30:31  5-MIN K9L2 111230Z AUTO 20008KT 10SM CLR 11/06 A2999 2240 68 2300 190/08 RMK AO2 $
53144K9L2 9L220160411043510104/11/16 04:35:31  5-MIN K9L2 111235Z AUTO 20008KT 10SM CLR 11/05 A2999 2230 66 2300 190/08 RMK AO2 $
53144K9L2 9L220160411044010104/11/16 04:40:31  5-MIN K9L2 111240Z AUTO 19007KT 10SM CLR 11/05 A3000 2230 66 2300 180/07 RMK AO2 $
53144K9L2 9L220160411044510104/11/16 04:45:31  5-MIN K9L2 111245Z AUTO 20006KT 10SM CLR 11/06 A3000 2230 71 2300 190/06 RMK AO2 $
53144K9L2 9L220160411045010104/11/16 04:50:31  5-MIN K9L2 111250Z AUTO 20005KT 10SM CLR 11/06 A3000 2230 71 2300 190/05 RMK AO2 $
53144K9L2 9L220160411045511804/11/16 04:55:31  5-MIN K9L2 111255Z AUTO 21007KT 10SM CLR 11/06 A3000 2230 68 2300 200/07 RMK AO2 SLP154 T01110056 $
53144K9L2 9L220160411050010404/11/16 05:00:31  5-MIN K9L2 111300Z AUTO 21006KT 10SM FEW047 11/06 A3000 2230 68 2300 190/06 RMK AO2 $
53144K9L2 9L220160411050510404/11/16 05:05:31  5-MIN K9L2 111305Z AUTO 21006KT 10SM FEW047 11/06 A3000 2230 68 2300 200/06 RMK AO2 $
53144K9L2 9L220160411051010404/11/16 05:10:31  5-MIN K9L2 111310Z AUTO 22005KT 10SM SCT047 11/06 A3000 2230 68 2300 210/05 RMK AO2 $
53144K9L2 9L220160411051510404/11/16 05:15:31  5-MIN K9L2 111315Z AUTO 22005KT 10SM SCT047 11/06 A3000 2230 68 2300 200/05 RMK AO2 $
53144K9L2 9L220160411052010404/11/16 05:20:31  5-MIN K9L2 111320Z AUTO 21006KT 10SM BKN047 11/06 A3000 2220 68 2300 200/06 RMK AO2 $
53144K9L2 9L220160411052510404/11/16 05:25:31  5-MIN K9L2 111325Z AUTO 21007KT 10SM BKN047 11/06 A3000 2230 68 2300 200/07 RMK AO2 $
53144K9L2 9L220160411053010404/11/16 05:30:31  5-MIN K9L2 111330Z AUTO 22007KT 10SM BKN047 11/06 A3001 2220 68 2300 210/07 RMK AO2 $
53144K9L2 9L220160411053510404/11/16 05:35:31  5-MIN K9L2 111335Z AUTO 22008KT 10SM BKN047 11/06 A3001 2220 71 2300 200/08 RMK AO2 $
53144K9L2 9L220160411054010404/11/16 05:40:31  5-MIN K9L2 111340Z AUTO 21008KT 10SM BKN047 11/06 A3001 2220 71 2300 200/08 RMK AO2 $
53144K9L2 9L220160411054510404/11/16 05:45:31  5-MIN K9L2 111345Z AUTO 22008KT 10SM BKN047 12/06 A3001 2220 68 2400 200/08 RMK AO2 $
53144K9L2 9L220160411055010404/11/16 05:50:31  5-MIN K9L2 111350Z AUTO 23005KT 10SM SCT047 12/06 A3001 2220 68 2400 220/05 RMK AO2 $
53144K9L2 9L220160411055512104/11/16 05:55:31  5-MIN K9L2 111355Z AUTO 24006KT 10SM FEW047 12/06 A3001 2220 68 2400 220/06 RMK AO2 SLP161 T01170061 $
53144K9L2 9L220160411060010404/11/16 06:00:31  5-MIN K9L2 111400Z AUTO 24007KT 10SM FEW047 12/07 A3001 2220 71 2400 230/07 RMK AO2 $
53144K9L2 9L220160411060510104/11/16 06:05:31  5-MIN K9L2 111405Z AUTO 24005KT 10SM CLR 12/07 A3001 2220 71 2400 230/05 RMK AO2 $
53144K9L2 9L220160411061010104/11/16 06:10:31  5-MIN K9L2 111410Z AUTO 24006KT 10SM CLR 12/07 A3002 2210 68 2400 230/06 RMK AO2 $
53144K9L2 9L220160411061510104/11/16 06:15:31  5-MIN K9L2 111415Z AUTO 25007KT 10SM CLR 12/07 A3002 2210 68 2400 230/07 RMK AO2 $
53144K9L2 9L220160411062010104/11/16 06:20:31  5-MIN K9L2 111420Z AUTO 25009KT 10SM CLR 12/07 A3002 2210 68 2400 230/09 RMK AO2 $
53144K9L2 9L220160411062510104/11/16 06:25:31  5-MIN K9L2 111425Z AUTO 25008KT 10SM CLR 13/07 A3002 2210 66 2500 240/08 RMK AO2 $
53144K9L2 9L220160411063010104/11/16 06:30:31  5-MIN K9L2 111430Z AUTO 24008KT 10SM CLR 13/07 A3002 2210 66 2500 230/08 RMK AO2 $
53144K9L2 9L220160411063510104/11/16 06:35:31  5-MIN K9L2 111435Z AUTO 24010KT 10SM CLR 13/07 A3002 2210 64 2600 230/10 RMK AO2 $
53144K9L2 9L220160411064010404/11/16 06:40:31  5-MIN K9L2 111440Z AUTO 24011KT 10SM FEW070 13/07 A3002 2210 66 2600 230/11 RMK AO2 $
53144K9L2 9L220160411064510404/11/16 06:45:31  5-MIN K9L2 111445Z AUTO 24009KT 10SM SCT070 13/07 A3003 2200 66 2600 230/09 RMK AO2 $
53144K9L2 9L220160411065010404/11/16 06:50:31  5-MIN K9L2 111450Z AUTO 25009KT 10SM SCT070 14/07 A3003 2200 64 2600 230/09 RMK AO2 $
53144K9L2 9L220160411065512704/11/16 06:55:31  5-MIN K9L2 111455Z AUTO 25012KT 10SM FEW070 14/07 A3003 2200 64 2600 240/12 RMK AO2 SLP166 T01390072 53007 $
53144K9L2 9L220160411070010404/11/16 07:00:31  5-MIN K9L2 111500Z AUTO 24012KT 10SM FEW070 14/07 A3003 2200 64 2600 230/12 RMK AO2 $
53144K9L2 9L220160411070510404/11/16 07:05:31  5-MIN K9L2 111505Z AUTO 26009KT 10SM FEW070 14/07 A3004 2190 61 2700 240/09 RMK AO2 $
53144K9L2 9L220160411071010404/11/16 07:10:31  5-MIN K9L2 111510Z AUTO 25013KT 10SM FEW070 14/07 A3004 2190 61 2700 240/13 RMK AO2 $
53144K9L2 9L220160411071510104/11/16 07:15:31  5-MIN K9L2 111515Z AUTO 26012KT 10SM CLR 14/07 A3004 2190 61 2700 240/12 RMK AO2 $
53144K9L2 9L220160411072010104/11/16 07:20:31  5-MIN K9L2 111520Z AUTO 25011KT 10SM CLR 15/07 A3004 2190 59 2700 240/11 RMK AO2 $
53144K9L2 9L220160411072510104/11/16 07:25:31  5-MIN K9L2 111525Z AUTO 26011KT 10SM CLR 15/07 A3004 2190 59 2700 250/11 RMK AO2 $
53144K9L2 9L220160411073010104/11/16 07:30:31  5-MIN K9L2 111530Z AUTO 25010KT 10SM CLR 15/07 A3004 2190 59 2700 240/10 RMK AO2 $
53144K9L2 9L220160411073510104/11/16 07:35:31  5-MIN K9L2 111535Z AUTO 26010KT 10SM CLR 16/07 A3004 2190 57 2800 240/10 RMK AO2 $
53144K9L2 9L220160411074010104/11/16 07:40:31  5-MIN K9L2 111540Z AUTO 25010KT 10SM CLR 16/07 A3004 2190 57 2800 240/10 RMK AO2 $
53144K9L2 9L220160411074510104/11/16 07:45:31  5-MIN K9L2 111545Z AUTO 25009KT 10SM CLR 16/07 A3005 2190 57 2800 230/09 RMK AO2 $
53144K9L2 9L220160411075010104/11/16 07:50:31  5-MIN K9L2 111550Z AUTO 26009KT 10SM CLR 16/07 A3005 2190 57 2800 250/09 RMK AO2 $
53144K9L2 9L220160411075511804/11/16 07:55:31  5-MIN K9L2 111555Z AUTO 26010KT 10SM CLR 16/07 A3005 2190 53 2900 250/10 RMK AO2 SLP170 T01610067 $
53144K9L2 9L220160411080010104/11/16 08:00:31  5-MIN K9L2 111600Z AUTO 25007KT 10SM CLR 16/07 A3005 2190 55 2900 240/07 RMK AO2 $
53144K9L2 9L220160411080510104/11/16 08:05:31  5-MIN K9L2 111605Z AUTO 23005KT 10SM CLR 16/07 A3005 2180 53 2900 220/05 RMK AO2 $
53144K9L2 9L220160411081010104/11/16 08:10:31  5-MIN K9L2 111610Z AUTO 23007KT 10SM CLR 16/07 A3005 2180 53 2900 210/07 RMK AO2 $
53144K9L2 9L220160411081510104/11/16 08:15:31  5-MIN K9L2 111615Z AUTO 26005KT 10SM CLR 17/07 A3005 2180 51 2900 250/05 RMK AO2 $
53144K9L2 9L220160411082010104/11/16 08:20:31  5-MIN K9L2 111620Z AUTO 30004KT 10SM CLR 17/07 A3005 2180 51 2900 290/04 RMK AO2 $
53144K9L2 9L220160411082510104/11/16 08:25:31  5-MIN K9L2 111625Z AUTO VRB03KT 10SM CLR 17/07 A3006 2180 51 2900 VRB/03 RMK AO2 $
53144K9L2 9L220160411083010104/11/16 08:30:31  5-MIN K9L2 111630Z AUTO 29003KT 10SM CLR 16/07 A3006 2180 53 2800 280/03 RMK AO2 $
53144K9L2 9L220160411083510104/11/16 08:35:31  5-MIN K9L2 111635Z AUTO 16003KT 10SM CLR 17/07 A3006 2180 51 2900 140/03 RMK AO2 $
53144K9L2 9L220160411084010104/11/16 08:40:31  5-MIN K9L2 111640Z AUTO 29003KT 10SM CLR 17/07 A3006 2170 49 3000 280/03 RMK AO2 $
53144K9L2 9L220160411084510104/11/16 08:45:31  5-MIN K9L2 111645Z AUTO 00000KT 10SM CLR 17/07 A3006 2170 51 2900 000/00 RMK AO2 $
53144K9L2 9L220160411085010104/11/16 08:50:31  5-MIN K9L2 111650Z AUTO 19005KT 10SM CLR 17/07 A3006 2170 49 3000 170/05 RMK AO2 $
53144K9L2 9L220160411085511804/11/16 08:55:31  5-MIN K9L2 111655Z AUTO 16005KT 10SM CLR 17/07 A3006 2170 49 3000 150/05 RMK AO2 SLP175 T01720067 $
53144K9L2 9L220160411090010404/11/16 09:00:31  5-MIN K9L2 111700Z AUTO 18005KT 10SM FEW013 17/07 A3006 2170 49 3000 160/05 RMK AO2 $
53144K9L2 9L220160411090510404/11/16 09:05:31  5-MIN K9L2 111705Z AUTO 16006KT 10SM FEW090 17/07 A3007 2170 49 3000 150/06 RMK AO2 $
53144K9L2 9L220160411091010404/11/16 09:10:31  5-MIN K9L2 111710Z AUTO 15005KT 10SM SCT090 17/07 A3007 2170 49 3000 140/05 RMK AO2 $
53144K9L2 9L220160411091510404/11/16 09:15:31  5-MIN K9L2 111715Z AUTO 16005KT 10SM BKN090 17/07 A3007 2170 49 3000 140/05 RMK AO2 $
53144K9L2 9L220160411092010404/11/16 09:20:31  5-MIN K9L2 111720Z AUTO 15004KT 10SM BKN090 17/07 A3007 2170 51 2900 140/04 RMK AO2 $
53144K9L2 9L220160411092510404/11/16 09:25:31  5-MIN K9L2 111725Z AUTO 16005KT 10SM BKN090 17/07 A3007 2160 49 3000 140/05 RMK AO2 $
53144K9L2 9L220160411093010404/11/16 09:30:31  5-MIN K9L2 111730Z AUTO 17004KT 10SM BKN090 17/07 A3007 2160 49 3000 150/04 RMK AO2 $
53144K9L2 9L220160411093510404/11/16 09:35:31  5-MIN K9L2 111735Z AUTO VRB04KT 10SM OVC090 17/07 A3007 2160 49 3000 VRB/04 RMK AO2 $
53144K9L2 9L220160411094010404/11/16 09:40:31  5-MIN K9L2 111740Z AUTO 17006KT 10SM OVC090 17/07 A3007 2160 49 3000 150/06 RMK AO2 $
53144K9L2 9L220160411094510404/11/16 09:45:31  5-MIN K9L2 111745Z AUTO 17006KT 10SM OVC090 17/07 A3008 2160 49 3000 150/06 RMK AO2 $
53144K9L2 9L220160411095010404/11/16 09:50:31  5-MIN K9L2 111750Z AUTO 14004KT 10SM OVC090 17/07 A3008 2160 49 3000 130/04 RMK AO2 $
53144K9L2 9L220160411095513904/11/16 09:55:31  5-MIN K9L2 111755Z AUTO 16003KT 10SM OVC090 18/07 A3008 2160 48 3000 150/03 RMK AO2 SLP181 T01780067 10178 20106 53015 $
53144K9L2 9L220160411100010404/11/16 10:00:31  5-MIN K9L2 111800Z AUTO 17006KT 10SM OVC090 18/07 A3008 2160 46 3100 160/06 RMK AO2 $
53144K9L2 9L220160411100510404/11/16 10:05:31  5-MIN K9L2 111805Z AUTO 16005KT 10SM OVC090 18/07 A3008 2160 48 3000 140/05 RMK AO2 $
53144K9L2 9L220160411101010404/11/16 10:10:31  5-MIN K9L2 111810Z AUTO VRB03KT 10SM OVC090 18/07 A3008 2160 48 3000 VRB/03 RMK AO2 $
53144K9L2 9L220160411101510404/11/16 10:15:31  5-MIN K9L2 111815Z AUTO VRB05KT 10SM OVC090 19/07 A3008 2160 44 3100 VRB/05 RMK AO2 $
53144K9L2 9L220160411102010404/11/16 10:20:31  5-MIN K9L2 111820Z AUTO 17005KT 10SM BKN090 19/07 A3008 2160 44 3100 150/05 RMK AO2 $
53144K9L2 9L220160411102510404/11/16 10:25:31  5-MIN K9L2 111825Z AUTO 17005KT 10SM BKN090 19/07 A3008 2160 44 3100 160/05 RMK AO2 $
53144K9L2 9L220160411103010404/11/16 10:30:31  5-MIN K9L2 111830Z AUTO 17005KT 10SM SCT090 19/06 A3008 2160 43 3100 160/05 RMK AO2 $
53144K9L2 9L220160411103510404/11/16 10:35:31  5-MIN K9L2 111835Z AUTO 10003KT 10SM FEW095 18/06 A3008 2160 42 3100 080/03 RMK AO2 $
53144K9L2 9L220160411104010404/11/16 10:40:31  5-MIN K9L2 111840Z AUTO VRB04KT 10SM FEW090 19/06 A3007 2160 40 3200 VRB/04 RMK AO2 $
53144K9L2 9L220160411104510404/11/16 10:45:31  5-MIN K9L2 111845Z AUTO VRB03KT 10SM SCT080 20/06 A3007 2160 40 3300 VRB/03 RMK AO2 $
53144K9L2 9L220160411105010404/11/16 10:50:31  5-MIN K9L2 111850Z AUTO 11004KT 10SM SCT080 19/06 A3007 2160 40 3200 090/04 RMK AO2 $
53144K9L2 9L220160411105512104/11/16 10:55:31  5-MIN K9L2 111855Z AUTO 00000KT 10SM SCT080 19/06 A3007 2160 43 3200 000/00 RMK AO2 SLP177 T01890061 $
53144K9L2 9L220160411110010404/11/16 11:00:31  5-MIN K9L2 111900Z AUTO VRB03KT 10SM SCT080 19/06 A3007 2160 41 3200 VRB/03 RMK AO2 $
53144K9L2 9L220160411110510404/11/16 11:05:31  5-MIN K9L2 111905Z AUTO 16004KT 10SM SCT080 20/06 A3007 2170 38 3300 150/04 RMK AO2 $
53144K9L2 9L220160411111010404/11/16 11:10:31  5-MIN K9L2 111910Z AUTO 00000KT 10SM FEW080 19/06 A3007 2170 40 3200 000/00 RMK AO2 $
53144K9L2 9L220160411111510404/11/16 11:15:31  5-MIN K9L2 111915Z AUTO VRB04KT 10SM FEW080 20/06 A3006 2170 38 3300 VRB/04 RMK AO2 $
53144K9L2 9L220160411112010104/11/16 11:20:31  5-MIN K9L2 111920Z AUTO 15005KT 10SM CLR 21/06 A3006 2170 37 3400 140/05 RMK AO2 $
53144K9L2 9L220160411112510104/11/16 11:25:31  5-MIN K9L2 111925Z AUTO 16003KT 10SM CLR 19/06 A3006 2170 40 3200 140/03 RMK AO2 $
53144K9L2 9L220160411113010104/11/16 11:30:31  5-MIN K9L2 111930Z AUTO 00000KT 10SM CLR 20/06 A3006 2170 38 3300 000/00 RMK AO2 $
53144K9L2 9L220160411113510104/11/16 11:35:31  5-MIN K9L2 111935Z AUTO 16005KT 10SM CLR 21/06 A3006 2180 37 3400 150/05 RMK AO2 $
53144K9L2 9L220160411114010104/11/16 11:40:31  5-MIN K9L2 111940Z AUTO 14004KT 10SM CLR 20/06 A3006 2180 38 3300 130/04 RMK AO2 $
53144K9L2 9L220160411114510104/11/16 11:45:31  5-MIN K9L2 111945Z AUTO 16005KT 10SM CLR 20/06 A3005 2180 40 3300 150/05 RMK AO2 $
53144K9L2 9L220160411115010104/11/16 11:50:31  5-MIN K9L2 111950Z AUTO 16004KT 10SM CLR 21/06 A3005 2180 38 3400 150/04 RMK AO2 $
53144K9L2 9L220160411115511804/11/16 11:55:31  5-MIN K9L2 111955Z AUTO 00000KT 10SM CLR 20/06 A3005 2180 38 3300 000/00 RMK AO2 SLP170 T02000056 $
53144K9L2 9L220160411120010104/11/16 12:00:31  5-MIN K9L2 112000Z AUTO 16006KT 10SM CLR 20/06 A3005 2180 38 3300 150/06 RMK AO2 $
53144K9L2 9L220160411120510104/11/16 12:05:31  5-MIN K9L2 112005Z AUTO 13005KT 10SM CLR 21/06 A3005 2180 37 3400 120/05 RMK AO2 $
53144K9L2 9L220160411121010104/11/16 12:10:31  5-MIN K9L2 112010Z AUTO VRB05KT 10SM CLR 21/06 A3005 2180 36 3400 VRB/05 RMK AO2 $
53144K9L2 9L220160411121510104/11/16 12:15:31  5-MIN K9L2 112015Z AUTO 16006KT 10SM CLR 22/06 A3005 2180 34 3500 140/06 RMK AO2 $
53144K9L2 9L220160411122010104/11/16 12:20:31  5-MIN K9L2 112020Z AUTO 16005KT 10SM CLR 21/06 A3005 2180 36 3400 140/05 RMK AO2 $
53144K9L2 9L220160411122510104/11/16 12:25:31  5-MIN K9L2 112025Z AUTO 13004KT 10SM CLR 21/06 A3005 2180 36 3400 120/04 RMK AO2 $
53144K9L2 9L220160411123010104/11/16 12:30:31  5-MIN K9L2 112030Z AUTO 15008KT 10SM CLR 22/05 A3005 2190 33 3500 140/08 RMK AO2 $
53144K9L2 9L220160411123510104/11/16 12:35:31  5-MIN K9L2 112035Z AUTO VRB04KT 10SM CLR 22/05 A3004 2190 33 3500 VRB/04 RMK AO2 $
53144K9L2 9L220160411124010104/11/16 12:40:31  5-MIN K9L2 112040Z AUTO 15008KT 10SM CLR 22/05 A3004 2190 33 3500 130/08 RMK AO2 $
53144K9L2 9L220160411124510104/11/16 12:45:31  5-MIN K9L2 112045Z AUTO 13006KT 10SM CLR 22/05 A3004 2190 33 3500 110/06 RMK AO2 $
53144K9L2 9L220160411125010104/11/16 12:50:31  5-MIN K9L2 112050Z AUTO VRB03KT 10SM CLR 22/05 A3004 2190 33 3500 VRB/03 RMK AO2 $
53144K9L2 9L220160411125512404/11/16 12:55:31  5-MIN K9L2 112055Z AUTO 14006KT 10SM CLR 22/05 A3004 2200 33 3500 120/06 RMK AO2 SLP164 T02170050 53014 $
53144K9L2 9L220160411130010104/11/16 13:00:31  5-MIN K9L2 112100Z AUTO 12004KT 10SM CLR 22/05 A3003 2200 33 3500 110/04 RMK AO2 $
53144K9L2 9L220160411130510104/11/16 13:05:31  5-MIN K9L2 112105Z AUTO 17005KT 10SM CLR 22/05 A3003 2200 33 3500 160/05 RMK AO2 $
53144K9L2 9L220160411131010104/11/16 13:10:31  5-MIN K9L2 112110Z AUTO VRB03KT 10SM CLR 22/05 A3003 2200 33 3500 VRB/03 RMK AO2 $
53144K9L2 9L220160411131510104/11/16 13:15:31  5-MIN K9L2 112115Z AUTO 21004KT 10SM CLR 22/04 A3003 2200 31 3600 200/04 RMK AO2 $
53144K9L2 9L220160411132010104/11/16 13:20:31  5-MIN K9L2 112120Z AUTO 00000KT 10SM CLR 21/04 A3003 2210 33 3500 000/00 RMK AO2 $
53144K9L2 9L220160411132510104/11/16 13:25:31  5-MIN K9L2 112125Z AUTO 19008KT 10SM CLR 22/04 A3002 2210 31 3600 180/08 RMK AO2 $
53144K9L2 9L220160411133011704/11/16 13:30:31  5-MIN K9L2 112130Z AUTO 21007KT 190V250 10SM CLR 22/04 A3002 2210 30 3600 200/07 180V240 RMK AO2 $
53144K9L2 9L220160411133510104/11/16 13:35:31  5-MIN K9L2 112135Z AUTO 19004KT 10SM CLR 23/04 A3002 2210 29 3600 170/04 RMK AO2 $
53144K9L2 9L220160411134010104/11/16 13:40:31  5-MIN K9L2 112140Z AUTO 14009KT 10SM CLR 22/04 A3002 2210 30 3600 130/09 RMK AO2 $
53144K9L2 9L220160411134510404/11/16 13:45:31  5-MIN K9L2 112145Z AUTO 14007KT 10SM FEW043 23/04 A3002 2210 29 3700 120/07 RMK AO2 $
53144K9L2 9L220160411135010404/11/16 13:50:31  5-MIN K9L2 112150Z AUTO 15005KT 10SM FEW043 22/03 A3002 2210 28 3600 140/05 RMK AO2 $
53144K9L2 9L220160411135512104/11/16 13:55:31  5-MIN K9L2 112155Z AUTO VRB04KT 10SM FEW043 23/03 A3002 2210 27 3700 VRB/04 RMK AO2 SLP155 T02280033 $
53144K9L2 9L220160411140010404/11/16 14:00:31  5-MIN K9L2 112200Z AUTO VRB04KT 10SM FEW043 22/03 A3001 2220 28 3600 VRB/04 RMK AO2 $
53144K9L2 9L220160411140511004/11/16 14:05:31  5-MIN K9L2 112205Z AUTO 22005G18KT 10SM FEW043 23/03 A3001 2220 27 3700 210/05G18 RMK AO2 $
53144K9L2 9L220160411141011004/11/16 14:10:31  5-MIN K9L2 112210Z AUTO 19008G18KT 10SM SCT045 23/03 A3001 2220 27 3700 180/08G18 RMK AO2 $
53144K9L2 9L220160411141510404/11/16 14:15:31  5-MIN K9L2 112215Z AUTO 22007KT 10SM FEW045 23/03 A3001 2220 26 3700 210/07 RMK AO2 $
53144K9L2 9L220160411142010404/11/16 14:20:31  5-MIN K9L2 112220Z AUTO 23008KT 10SM SCT049 23/03 A3001 2220 25 3700 220/08 RMK AO2 $
53144K9L2 9L220160411142510404/11/16 14:25:31  5-MIN K9L2 112225Z AUTO 20012KT 10SM BKN049 23/03 A3001 2220 25 3700 190/12 RMK AO2 $
53144K9L2 9L220160411143011004/11/16 14:30:31  5-MIN K9L2 112230Z AUTO 20011G16KT 10SM SCT049 23/03 A3001 2220 25 3700 190/11G16 RMK AO2 $
53144K9L2 9L220160411143511004/11/16 14:35:31  5-MIN K9L2 112235Z AUTO 18018G22KT 10SM SCT049 22/05 A3000 2230 32 3600 160/18G22 RMK AO2 $
53144K9L2 9L220160411144011004/11/16 14:40:31  5-MIN K9L2 112240Z AUTO 20015G22KT 10SM FEW049 22/05 A3001 2220 32 3600 190/15G22 RMK AO2 $
53144K9L2 9L220160411144511704/11/16 14:45:31  5-MIN K9L2 112245Z AUTO 19017G21KT 10SM FEW049 SCT075 23/05 A3001 2220 31 3700 180/17G21 RMK AO2 $
53144K9L2 9L220160411145011004/11/16 14:50:31  5-MIN K9L2 112250Z AUTO 22015G23KT 10SM FEW049 23/05 A3001 2220 30 3700 200/15G23 RMK AO2 $
53144K9L2 9L220160411145512404/11/16 14:55:31  5-MIN K9L2 112255Z AUTO 21014G23KT 10SM CLR 23/05 A3001 2220 31 3700 200/14G23 RMK AO2 SLP153 T02280050 $
53144K9L2 9L220160411150010404/11/16 15:00:31  5-MIN K9L2 112300Z AUTO 20014KT 10SM FEW070 23/04 A3001 2220 30 3700 190/14 RMK AO2 $
53144K9L2 9L220160411150511004/11/16 15:05:31  5-MIN K9L2 112305Z AUTO 22014G20KT 10SM SCT065 23/05 A3001 2220 31 3700 200/14G20 RMK AO2 $
53144K9L2 9L220160411151012804/11/16 15:10:31  5-MIN K9L2 112310Z AUTO 19013G28KT 10SM SCT065 23/05 A3001 2220 31 3700 180/13G28 RMK AO2 PK WND 19028/2306 $
53144K9L2 9L220160411151512804/11/16 15:15:31  5-MIN K9L2 112315Z AUTO 23014G28KT 10SM SCT065 22/05 A3001 2220 32 3600 220/14G28 RMK AO2 PK WND 19028/2306 $
53144K9L2 9L220160411152012804/11/16 15:20:31  5-MIN K9L2 112320Z AUTO 21013G21KT 10SM FEW065 23/05 A3001 2220 31 3700 190/13G21 RMK AO2 PK WND 19028/2306 $
53144K9L2 9L220160411152512804/11/16 15:25:31  5-MIN K9L2 112325Z AUTO 22015G20KT 10SM FEW065 23/05 A3001 2220 31 3700 210/15G20 RMK AO2 PK WND 19028/2306 $
53144K9L2 9L220160411153012204/11/16 15:30:31  5-MIN K9L2 112330Z AUTO 22011KT 10SM FEW065 22/05 A3001 2220 32 3600 200/11 RMK AO2 PK WND 19028/2306 $
53144K9L2 9L220160411153511904/11/16 15:35:31  5-MIN K9L2 112335Z AUTO 22015KT 10SM CLR 22/05 A3001 2220 33 3500 210/15 RMK AO2 PK WND 19028/2306 $
53144K9L2 9L220160411154013804/11/16 15:40:31  5-MIN K9L2 112340Z AUTO 23012KT 200V270 10SM FEW038 22/05 A3001 2220 33 3500 220/12 190V260 RMK AO2 PK WND 19028/2306 $
53144K9L2 9L220160411154512904/11/16 15:45:31  5-MIN K9L2 112345Z AUTO 25013KT 10SM FEW038 SCT050 21/06 A3001 2220 36 3500 240/13 RMK AO2 PK WND 19028/2306 $
53144K9L2 9L220160411155012904/11/16 15:50:31  5-MIN K9L2 112350Z AUTO 24012KT 10SM SCT038 SCT050 21/06 A3002 2210 36 3500 230/12 RMK AO2 PK WND 19028/2306 $
53144K9L2 9L220160411155516404/11/16 15:55:31  5-MIN K9L2 112355Z AUTO 25013KT 10SM SCT038 BKN048 21/06 A3002 2210 36 3500 230/13 RMK AO2 PK WND 19028/2306 SLP158 T02110056 10239 20178 58013 $
53144K9L2 9L220160411160011104/11/16 16:00:31  5-MIN K9L2 120000Z AUTO 25013KT 10SM SCT038 BKN048 21/06 A3002 2210 36 3500 230/13 RMK AO2 $
53144K9L2 9L220160411160511704/11/16 16:05:31  5-MIN K9L2 120005Z AUTO 24016G20KT 10SM SCT038 BKN048 21/06 A3002 2210 36 3500 230/16G20 RMK AO2 $
53144K9L2 9L220160411161011704/11/16 16:10:31  5-MIN K9L2 120010Z AUTO 23013G20KT 10SM FEW038 BKN048 21/06 A3002 2210 37 3400 220/13G20 RMK AO2 $
53144K9L2 9L220160411161511104/11/16 16:15:31  5-MIN K9L2 120015Z AUTO 24014KT 10SM FEW038 SCT048 21/05 A3002 2210 35 3400 220/14 RMK AO2 $
53144K9L2 9L220160411162010404/11/16 16:20:31  5-MIN K9L2 120020Z AUTO 23011KT 10SM SCT044 21/05 A3002 2210 35 3400 220/11 RMK AO2 $
53144K9L2 9L220160411162511004/11/16 16:25:31  5-MIN K9L2 120025Z AUTO 22015G18KT 10SM FEW046 21/05 A3002 2210 34 3500 210/15G18 RMK AO2 $
53144K9L2 9L220160411163010104/11/16 16:30:31  5-MIN K9L2 120030Z AUTO 23016KT 10SM CLR 21/05 A3002 2210 34 3500 220/16 RMK AO2 $
53144K9L2 9L220160411163510104/11/16 16:35:31  5-MIN K9L2 120035Z AUTO 23016KT 10SM CLR 22/05 A3002 2210 33 3500 220/16 RMK AO2 $
53144K9L2 9L220160411164010104/11/16 16:40:31  5-MIN K9L2 120040Z AUTO 24013KT 10SM CLR 22/05 A3002 2210 33 3500 220/13 RMK AO2 $
53144K9L2 9L220160411164510104/11/16 16:45:31  5-MIN K9L2 120045Z AUTO 23016KT 10SM CLR 22/05 A3002 2210 33 3500 220/16 RMK AO2 $
53144K9L2 9L220160411165010704/11/16 16:50:31  5-MIN K9L2 120050Z AUTO 24014G20KT 10SM CLR 22/05 A3002 2210 33 3500 230/14G20 RMK AO2 $
53144K9L2 9L220160411165512404/11/16 16:55:31  5-MIN K9L2 120055Z AUTO 24013G20KT 10SM CLR 21/04 A3002 2210 33 3500 220/13G20 RMK AO2 SLP161 T02110044 $
53144K9L2 9L220160411170010104/11/16 17:00:31  5-MIN K9L2 120100Z AUTO 23013KT 10SM CLR 21/04 A3002 2210 33 3500 220/13 RMK AO2 $
53144K9L2 9L220160411170510104/11/16 17:05:31  5-MIN K9L2 120105Z AUTO 23013KT 10SM CLR 21/04 A3003 2210 33 3500 220/13 RMK AO2 $
53144K9L2 9L220160411171010104/11/16 17:10:31  5-MIN K9L2 120110Z AUTO 24012KT 10SM CLR 21/05 A3003 2200 34 3500 230/12 RMK AO2 $
53144K9L2 9L220160411171510404/11/16 17:15:31  5-MIN K9L2 120115Z AUTO 25013KT 10SM FEW048 21/05 A3003 2200 34 3500 230/13 RMK AO2 $
53144K9L2 9L220160411172010404/11/16 17:20:31  5-MIN K9L2 120120Z AUTO 24013KT 10SM FEW048 21/05 A3003 2200 35 3400 230/13 RMK AO2 $
53144K9L2 9L220160411172511004/11/16 17:25:31  5-MIN K9L2 120125Z AUTO 23013G17KT 10SM FEW048 21/05 A3003 2200 35 3400 220/13G17 RMK AO2 $
53144K9L2 9L220160411173011004/11/16 17:30:31  5-MIN K9L2 120130Z AUTO 23011G17KT 10SM FEW048 21/05 A3003 2200 35 3400 220/11G17 RMK AO2 $
53144K9L2 9L220160411173510404/11/16 17:35:31  5-MIN K9L2 120135Z AUTO 22011KT 10SM FEW048 21/05 A3003 2200 35 3400 210/11 RMK AO2 $
53144K9L2 9L220160411174010404/11/16 17:40:31  5-MIN K9L2 120140Z AUTO 24011KT 10SM FEW048 20/05 A3004 2200 37 3300 220/11 RMK AO2 $
53144K9L2 9L220160411174510404/11/16 17:45:31  5-MIN K9L2 120145Z AUTO 23011KT 10SM SCT050 20/05 A3004 2200 37 3300 210/11 RMK AO2 $
53144K9L2 9L220160411175010404/11/16 17:50:31  5-MIN K9L2 120150Z AUTO 23012KT 10SM SCT050 20/04 A3004 2200 35 3300 220/12 RMK AO2 $
53144K9L2 9L220160411175512104/11/16 17:55:31  5-MIN K9L2 120155Z AUTO 21012KT 10SM SCT048 20/05 A3004 2200 37 3300 200/12 RMK AO2 SLP165 T02000050 $
53144K9L2 9L220160411180010404/11/16 18:00:31  5-MIN K9L2 120200Z AUTO 22011KT 10SM BKN048 20/05 A3004 2190 37 3300 210/11 RMK AO2 $
53144K9L2 9L220160411180510404/11/16 18:05:31  5-MIN K9L2 120205Z AUTO 22011KT 10SM BKN048 19/05 A3004 2190 38 3300 200/11 RMK AO2 $
53144K9L2 9L220160411181010404/11/16 18:10:31  5-MIN K9L2 120210Z AUTO 22012KT 10SM BKN048 19/06 A3004 2200 40 3300 200/12 RMK AO2 $
53144K9L2 9L220160411181510404/11/16 18:15:31  5-MIN K9L2 120215Z AUTO 22010KT 10SM BKN048 19/06 A3004 2200 40 3300 200/10 RMK AO2 $
53144K9L2 9L220160411182010404/11/16 18:20:31  5-MIN K9L2 120220Z AUTO 22013KT 10SM SCT048 19/06 A3004 2190 41 3200 200/13 RMK AO2 $
53144K9L2 9L220160411182510404/11/16 18:25:31  5-MIN K9L2 120225Z AUTO 22010KT 10SM SCT048 19/06 A3004 2190 41 3200 200/10 RMK AO2 $
53144K9L2 9L220160411183010404/11/16 18:30:31  5-MIN K9L2 120230Z AUTO 22007KT 10SM FEW048 19/06 A3004 2190 41 3200 200/07 RMK AO2 $
53144K9L2 9L220160411183510104/11/16 18:35:31  5-MIN K9L2 120235Z AUTO 22010KT 10SM CLR 19/06 A3004 2190 41 3200 200/10 RMK AO2 $
53144K9L2 9L220160411184010104/11/16 18:40:31  5-MIN K9L2 120240Z AUTO 20007KT 10SM CLR 18/06 A3005 2190 44 3100 190/07 RMK AO2 $
53144K9L2 9L220160411184510104/11/16 18:45:31  5-MIN K9L2 120245Z AUTO 19009KT 10SM CLR 18/06 A3005 2180 44 3100 180/09 RMK AO2 $
53144K9L2 9L220160411185010104/11/16 18:50:31  5-MIN K9L2 120250Z AUTO 20009KT 10SM CLR 18/06 A3005 2180 44 3100 190/09 RMK AO2 $
53144K9L2 9L220160411185512404/11/16 18:55:31  5-MIN K9L2 120255Z AUTO 20008KT 10SM CLR 18/06 A3006 2180 44 3000 190/08 RMK AO2 SLP172 T01780056 55006 $
53144K9L2 9L220160411190010104/11/16 19:00:31  5-MIN K9L2 120300Z AUTO 21009KT 10SM CLR 18/06 A3006 2180 44 3000 200/09 RMK AO2 $
53144K9L2 9L220160411190510104/11/16 19:05:31  5-MIN K9L2 120305Z AUTO 21011KT 10SM CLR 18/06 A3006 2180 46 3000 200/11 RMK AO2 $
53144K9L2 9L220160411191010104/11/16 19:10:31  5-MIN K9L2 120310Z AUTO 21012KT 10SM CLR 18/07 A3006 2170 49 3000 200/12 RMK AO2 $
53144K9L2 9L220160411191510404/11/16 19:15:31  5-MIN K9L2 120315Z AUTO 21012KT 10SM FEW027 18/08 A3006 2170 51 3000 190/12 RMK AO2 $
53144K9L2 9L220160411192010404/11/16 19:20:31  5-MIN K9L2 120320Z AUTO 22010KT 10SM SCT027 18/08 A3007 2170 53 3000 210/10 RMK AO2 $
53144K9L2 9L220160411192510404/11/16 19:25:31  5-MIN K9L2 120325Z AUTO 22011KT 10SM SCT029 17/08 A3007 2170 55 3000 210/11 RMK AO2 $
53144K9L2 9L220160411193010404/11/16 19:30:31  5-MIN K9L2 120330Z AUTO 22012KT 10SM SCT029 17/08 A3007 2170 55 3000 210/12 RMK AO2 $
53144K9L2 9L220160411193510404/11/16 19:35:31  5-MIN K9L2 120335Z AUTO 23009KT 10SM FEW029 17/09 A3007 2170 57 3000 210/09 RMK AO2 $
53144K9L2 9L220160411194010404/11/16 19:40:31  5-MIN K9L2 120340Z AUTO 23009KT 10SM FEW029 17/09 A3007 2160 57 3000 220/09 RMK AO2 $
53144K9L2 9L220160411194510404/11/16 19:45:31  5-MIN K9L2 120345Z AUTO 23012KT 10SM FEW029 17/09 A3007 2160 60 2900 220/12 RMK AO2 $
53144K9L2 9L220160411195010104/11/16 19:50:31  5-MIN K9L2 120350Z AUTO 24011KT 10SM CLR 17/08 A3007 2160 57 2900 230/11 RMK AO2 $
53144K9L2 9L220160411195511804/11/16 19:55:31  5-MIN K9L2 120355Z AUTO 25010KT 10SM CLR 17/08 A3008 2160 57 2900 240/10 RMK AO2 SLP178 T01670083 $
53144K9L2 9L220160411200010104/11/16 20:00:31  5-MIN K9L2 120400Z AUTO 25009KT 10SM CLR 17/08 A3008 2160 57 2900 240/09 RMK AO2 $
53144K9L2 9L220160411200510104/11/16 20:05:31  5-MIN K9L2 120405Z AUTO 26009KT 10SM CLR 16/08 A3008 2160 59 2800 240/09 RMK AO2 $
53144K9L2 9L220160411201010104/11/16 20:10:31  5-MIN K9L2 120410Z AUTO 25009KT 10SM CLR 16/08 A3008 2160 59 2800 240/09 RMK AO2 $
53144K9L2 9L220160411201510104/11/16 20:15:31  5-MIN K9L2 120415Z AUTO 25008KT 10SM CLR 16/08 A3008 2150 59 2800 230/08 RMK AO2 $
53144K9L2 9L220160411202010104/11/16 20:20:31  5-MIN K9L2 120420Z AUTO 25008KT 10SM CLR 16/08 A3008 2150 57 2800 230/08 RMK AO2 $
53144K9L2 9L220160411202510104/11/16 20:25:31  5-MIN K9L2 120425Z AUTO 25009KT 10SM CLR 16/08 A3008 2150 57 2800 240/09 RMK AO2 $
53144K9L2 9L220160411203010104/11/16 20:30:31  5-MIN K9L2 120430Z AUTO 25008KT 10SM CLR 16/07 A3008 2150 55 2800 240/08 RMK AO2 $
53144K9L2 9L220160411203510104/11/16 20:35:31  5-MIN K9L2 120435Z AUTO 25008KT 10SM CLR 16/07 A3008 2160 55 2800 240/08 RMK AO2 $
53144K9L2 9L220160411204010104/11/16 20:40:31  5-MIN K9L2 120440Z AUTO 25007KT 10SM CLR 16/07 A3008 2160 57 2800 240/07 RMK AO2 $
53144K9L2 9L220160411204510104/11/16 20:45:31  5-MIN K9L2 120445Z AUTO 25008KT 10SM CLR 16/08 A3008 2160 59 2800 240/08 RMK AO2 $
53144K9L2 9L220160411205010104/11/16 20:50:31  5-MIN K9L2 120450Z AUTO 25008KT 10SM CLR 16/07 A3008 2150 57 2800 240/08 RMK AO2 $
53144K9L2 9L220160411205511804/11/16 20:55:31  5-MIN K9L2 120455Z AUTO 25007KT 10SM CLR 16/07 A3008 2150 57 2800 240/07 RMK AO2 SLP180 T01560072 $
53144K9L2 9L220160411210010104/11/16 21:00:31  5-MIN K9L2 120500Z AUTO 23005KT 10SM CLR 16/07 A3008 2150 57 2800 210/05 RMK AO2 $
53144K9L2 9L220160411210510104/11/16 21:05:31  5-MIN K9L2 120505Z AUTO 20004KT 10SM CLR 16/07 A3008 2150 57 2800 190/04 RMK AO2 $
53144K9L2 9L220160411211010104/11/16 21:10:31  5-MIN K9L2 120510Z AUTO 21005KT 10SM CLR 15/08 A3008 2150 62 2700 200/05 RMK AO2 $
53144K9L2 9L220160411211510104/11/16 21:15:31  5-MIN K9L2 120515Z AUTO 21005KT 10SM CLR 15/08 A3008 2150 64 2700 200/05 RMK AO2 $
53144K9L2 9L220160411212010104/11/16 21:20:31  5-MIN K9L2 120520Z AUTO 21007KT 10SM CLR 15/08 A3008 2150 64 2700 200/07 RMK AO2 $
53144K9L2 9L220160411212510104/11/16 21:25:31  5-MIN K9L2 120525Z AUTO 21006KT 10SM CLR 15/08 A3008 2150 64 2700 200/06 RMK AO2 $
53144K9L2 9L220160411213010104/11/16 21:30:31  5-MIN K9L2 120530Z AUTO 22007KT 10SM CLR 14/08 A3009 2150 66 2600 210/07 RMK AO2 $
53144K9L2 9L220160411213510104/11/16 21:35:31  5-MIN K9L2 120535Z AUTO 22006KT 10SM CLR 14/08 A3009 2150 66 2600 200/06 RMK AO2 $
53144K9L2 9L220160411214010104/11/16 21:40:31  5-MIN K9L2 120540Z AUTO 22005KT 10SM CLR 14/08 A3009 2150 64 2600 210/05 RMK AO2 $
53144K9L2 9L220160411214510104/11/16 21:45:31  5-MIN K9L2 120545Z AUTO 22004KT 10SM CLR 14/08 A3009 2150 64 2600 210/04 RMK AO2 $
53144K9L2 9L220160411215010104/11/16 21:50:31  5-MIN K9L2 120550Z AUTO 22003KT 10SM CLR 14/08 A3009 2150 64 2600 210/03 RMK AO2 $
53144K9L2 9L220160411215513604/11/16 21:55:31  5-MIN K9L2 120555Z AUTO 23004KT 10SM CLR 14/08 A3009 2150 66 2600 210/04 RMK AO2 SLP184 T01390078 10217 20139 53013 $
53144K9L2 9L220160411220010104/11/16 22:00:31  5-MIN K9L2 120600Z AUTO 22005KT 10SM CLR 14/08 A3009 2150 66 2600 210/05 RMK AO2 $
53144K9L2 9L220160411220510104/11/16 22:05:31  5-MIN K9L2 120605Z AUTO 23005KT 10SM CLR 14/08 A3009 2150 66 2600 210/05 RMK AO2 $
53144K9L2 9L220160411221010104/11/16 22:10:31  5-MIN K9L2 120610Z AUTO 24007KT 10SM CLR 14/08 A3009 2150 66 2600 220/07 RMK AO2 $
53144K9L2 9L220160411221510104/11/16 22:15:31  5-MIN K9L2 120615Z AUTO 23007KT 10SM CLR 14/08 A3009 2150 64 2600 220/07 RMK AO2 $
53144K9L2 9L220160411222010104/11/16 22:20:31  5-MIN K9L2 120620Z AUTO 24008KT 10SM CLR 14/07 A3009 2150 61 2600 230/08 RMK AO2 $
53144K9L2 9L220160411222510104/11/16 22:25:31  5-MIN K9L2 120625Z AUTO 24007KT 10SM CLR 14/07 A3009 2150 64 2600 230/07 RMK AO2 $
53144K9L2 9L220160411223010104/11/16 22:30:31  5-MIN K9L2 120630Z AUTO 23007KT 10SM CLR 14/07 A3009 2150 64 2600 220/07 RMK AO2 $
53144K9L2 9L220160411223510104/11/16 22:35:31  5-MIN K9L2 120635Z AUTO 23007KT 10SM CLR 14/07 A3009 2150 64 2600 220/07 RMK AO2 $
53144K9L2 9L220160411224010104/11/16 22:40:31  5-MIN K9L2 120640Z AUTO 23007KT 10SM CLR 14/07 A3009 2150 64 2600 220/07 RMK AO2 $
53144K9L2 9L220160411224510104/11/16 22:45:31  5-MIN K9L2 120645Z AUTO 23007KT 10SM CLR 14/07 A3009 2140 64 2600 220/07 RMK AO2 $
53144K9L2 9L220160411225010104/11/16 22:50:31  5-MIN K9L2 120650Z AUTO 22006KT 10SM CLR 14/07 A3009 2140 64 2600 210/06 RMK AO2 $
53144K9L2 9L220160411225511804/11/16 22:55:31  5-MIN K9L2 120655Z AUTO 22006KT 10SM CLR 14/07 A3009 2140 64 2600 210/06 RMK AO2 SLP183 T01390072 $
53144K9L2 9L220160411230010104/11/16 23:00:31  5-MIN K9L2 120700Z AUTO 23006KT 10SM CLR 13/07 A3009 2140 66 2500 210/06 RMK AO2 $
53144K9L2 9L220160411230510104/11/16 23:05:31  5-MIN K9L2 120705Z AUTO 22006KT 10SM CLR 13/07 A3009 2140 66 2500 210/06 RMK AO2 $
53144K9L2 9L220160411231010104/11/16 23:10:31  5-MIN K9L2 120710Z AUTO 22007KT 10SM CLR 13/07 A3009 2140 66 2500 210/07 RMK AO2 $
53144K9L2 9L220160411231510104/11/16 23:15:31  5-MIN K9L2 120715Z AUTO 21006KT 10SM CLR 13/07 A3009 2140 66 2500 200/06 RMK AO2 $
53144K9L2 9L220160411232010104/11/16 23:20:31  5-MIN K9L2 120720Z AUTO 21007KT 10SM CLR 13/07 A3009 2140 66 2500 200/07 RMK AO2 $
53144K9L2 9L220160411232510104/11/16 23:25:31  5-MIN K9L2 120725Z AUTO 21007KT 10SM CLR 13/07 A3009 2140 66 2500 200/07 RMK AO2 $
53144K9L2 9L220160411233010104/11/16 23:30:31  5-MIN K9L2 120730Z AUTO 21007KT 10SM CLR 13/07 A3009 2140 66 2500 200/07 RMK AO2 $
53144K9L2 9L220160411233510104/11/16 23:35:31  5-MIN K9L2 120735Z AUTO 21006KT 10SM CLR 13/07 A3009 2140 66 2500 200/06 RMK AO2 $
53144K9L2 9L220160411234010104/11/16 23:40:31  5-MIN K9L2 120740Z AUTO 21006KT 10SM CLR 13/07 A3009 2140 66 2500 200/06 RMK AO2 $
53144K9L2 9L220160411234510104/11/16 23:45:31  5-MIN K9L2 120745Z AUTO 21006KT 10SM CLR 13/07 A3009 2140 64 2500 200/06 RMK AO2 $
53144K9L2 9L220160411235010104/11/16 23:50:31  5-MIN K9L2 120750Z AUTO 21007KT 10SM CLR 13/07 A3009 2140 64 2500 200/07 RMK AO2 $
53144K9L2 9L220160411235512804/11/16 23:55:31  5-MIN K9L2 120755Z AUTO 21006KT 10SM CLR 13/07 A3009 2140 66 2400 200/06 RMK AO2 SLP184 T01280067 402390106 $
53144K9L2 9L220160412000010104/12/16 00:00:31  5-MIN K9L2 120800Z AUTO 22006KT 10SM CLR 13/07 A3010 2140 66 2400 210/06 RMK AO2 $
53144K9L2 9L220160412000510104/12/16 00:05:31  5-MIN K9L2 120805Z AUTO 21006KT 10SM CLR 13/07 A3009 2140 66 2400 200/06 RMK AO2 $
53144K9L2 9L220160412001010104/12/16 00:10:31  5-MIN K9L2 120810Z AUTO 21005KT 10SM CLR 12/07 A3009 2140 68 2400 190/05 RMK AO2 $
53144K9L2 9L220160412001510104/12/16 00:15:31  5-MIN K9L2 120815Z AUTO 20005KT 10SM CLR 12/07 A3009 2140 68 2400 190/05 RMK AO2 $
53144K9L2 9L220160412002010104/12/16 00:20:31  5-MIN K9L2 120820Z AUTO 20005KT 10SM CLR 12/07 A3009 2140 68 2400 190/05 RMK AO2 $
53144K9L2 9L220160412002510104/12/16 00:25:31  5-MIN K9L2 120825Z AUTO 20004KT 10SM CLR 12/07 A3009 2140 68 2400 190/04 RMK AO2 $
53144K9L2 9L220160412003010104/12/16 00:30:31  5-MIN K9L2 120830Z AUTO 19004KT 10SM CLR 12/07 A3009 2140 68 2400 180/04 RMK AO2 $
53144K9L2 9L220160412003510104/12/16 00:35:31  5-MIN K9L2 120835Z AUTO 20004KT 10SM CLR 12/07 A3009 2140 68 2400 190/04 RMK AO2 $
53144K9L2 9L220160412004010104/12/16 00:40:31  5-MIN K9L2 120840Z AUTO 20004KT 10SM CLR 12/07 A3009 2140 68 2400 180/04 RMK AO2 $
53144K9L2 9L220160412004510104/12/16 00:45:31  5-MIN K9L2 120845Z AUTO 19004KT 10SM CLR 12/07 A3009 2140 68 2400 170/04 RMK AO2 $
53144K9L2 9L220160412043510104/12/16 04:35:31  5-MIN K9L2 121235Z AUTO 00000KT 10SM CLR 08/04 A3008 2150 79 1800 000/00 RMK AO2 $
53144K9L2 9L220160412044010104/12/16 04:40:31  5-MIN K9L2 121240Z AUTO 22003KT 10SM CLR 07/04 A3009 2150 82 1800 200/03 RMK AO2 $
53144K9L2 9L220160412044510104/12/16 04:45:31  5-MIN K9L2 121245Z AUTO 25003KT 10SM CLR 07/04 A3009 2150 82 1800 230/03 RMK AO2 $
53144K9L2 9L220160412045010104/12/16 04:50:31  5-MIN K9L2 121250Z AUTO 00000KT 10SM CLR 07/04 A3009 2150 82 1700 000/00 RMK AO2 $
53144K9L2 9L220160412045511804/12/16 04:55:31  5-MIN K9L2 121255Z AUTO 00000KT 10SM CLR 07/04 A3009 2150 82 1700 000/00 RMK AO2 SLP186 T00670039 $
53144K9L2 9L220160412050010104/12/16 05:00:31  5-MIN K9L2 121300Z AUTO 00000KT 10SM CLR 07/04 A3009 2150 82 1700 000/00 RMK AO2 $
53144K9L2 9L220160412050510104/12/16 05:05:31  5-MIN K9L2 121305Z AUTO 00000KT 10SM CLR 07/04 A3009 2150 79 1800 000/00 RMK AO2 $
53144K9L2 9L220160412051010104/12/16 05:10:31  5-MIN K9L2 121310Z AUTO 00000KT 10SM CLR 07/04 A3009 2150 79 1800 000/00 RMK AO2 $
53144K9L2 9L220160412051510104/12/16 05:15:31  5-MIN K9L2 121315Z AUTO 00000KT 10SM CLR 07/04 A3009 2150 79 1800 000/00 RMK AO2 $
53144K9L2 9L220160412052010004/12/16 05:20:31  5-MIN K9L2 121320Z AUTO 00000KT 9SM CLR 07/04 A3009 2150 79 1800 000/00 RMK AO2 $
53144K9L2 9L220160412052510004/12/16 05:25:31  5-MIN K9L2 121325Z AUTO 00000KT 9SM CLR 07/04 A3009 2150 82 1800 000/00 RMK AO2 $
53144K9L2 9L220160412053010004/12/16 05:30:31  5-MIN K9L2 121330Z AUTO 35003KT 9SM CLR 07/04 A3009 2140 79 1800 340/03 RMK AO2 $
53144K9L2 9L220160412053510004/12/16 05:35:31  5-MIN K9L2 121335Z AUTO 01003KT 9SM CLR 07/04 A3009 2140 82 1700 360/03 RMK AO2 $
53144K9L2 9L220160412054010004/12/16 05:40:31  5-MIN K9L2 121340Z AUTO 04003KT 9SM CLR 07/04 A3009 2140 79 1800 030/03 RMK AO2 $
53144K9L2 9L220160412054510004/12/16 05:45:31  5-MIN K9L2 121345Z AUTO 00000KT 9SM CLR 07/04 A3010 2140 79 1800 000/00 RMK AO2 $
53144K9L2 9L220160412055010104/12/16 05:50:31  5-MIN K9L2 121350Z AUTO 00000KT 10SM CLR 08/04 A3010 2140 79 1800 000/00 RMK AO2 $
53144K9L2 9L220160412055511804/12/16 05:55:31  5-MIN K9L2 121355Z AUTO 00000KT 10SM CLR 08/04 A3010 2140 79 1800 000/00 RMK AO2 SLP191 T00780044 $
53144K9L2 9L220160412060010104/12/16 06:00:31  5-MIN K9L2 121400Z AUTO 00000KT 10SM CLR 08/04 A3010 2130 76 1900 000/00 RMK AO2 $
53144K9L2 9L220160412060510104/12/16 06:05:31  5-MIN K9L2 121405Z AUTO 00000KT 10SM CLR 08/04 A3010 2130 76 1900 000/00 RMK AO2 $
53144K9L2 9L220160412061010104/12/16 06:10:31  5-MIN K9L2 121410Z AUTO 00000KT 10SM CLR 09/04 A3010 2130 73 1900 000/00 RMK AO2 $
53144K9L2 9L220160412061510104/12/16 06:15:31  5-MIN K9L2 121415Z AUTO 00000KT 10SM CLR 09/05 A3011 2130 74 2000 000/00 RMK AO2 $
53144K9L2 9L220160412062010104/12/16 06:20:31  5-MIN K9L2 121420Z AUTO 00000KT 10SM CLR 09/05 A3011 2130 74 2000 000/00 RMK AO2 $
53144K9L2 9L220160412062510104/12/16 06:25:31  5-MIN K9L2 121425Z AUTO 00000KT 10SM CLR 10/05 A3011 2130 71 2100 000/00 RMK AO2 $
53144K9L2 9L220160412063010104/12/16 06:30:31  5-MIN K9L2 121430Z AUTO 00000KT 10SM CLR 10/06 A3011 2130 74 2100 000/00 RMK AO2 $
53144K9L2 9L220160412063510104/12/16 06:35:31  5-MIN K9L2 121435Z AUTO 00000KT 10SM CLR 10/06 A3011 2120 74 2100 000/00 RMK AO2 $
53144K9L2 9L220160412064010104/12/16 06:40:31  5-MIN K9L2 121440Z AUTO 00000KT 10SM CLR 10/06 A3012 2120 74 2100 000/00 RMK AO2 $
53144K9L2 9L220160412064510104/12/16 06:45:31  5-MIN K9L2 121445Z AUTO 00000KT 10SM CLR 11/06 A3012 2120 71 2100 000/00 RMK AO2 $
53144K9L2 9L220160412065010104/12/16 06:50:31  5-MIN K9L2 121450Z AUTO 00000KT 10SM CLR 11/06 A3012 2120 71 2100 000/00 RMK AO2 $
53144K9L2 9L220160412065512404/12/16 06:55:31  5-MIN K9L2 121455Z AUTO 00000KT 10SM CLR 11/06 A3012 2120 74 2100 000/00 RMK AO2 SLP197 T01060061 56001 $
53144K9L2 9L220160412070010104/12/16 07:00:31  5-MIN K9L2 121500Z AUTO 00000KT 10SM CLR 12/06 A3013 2110 68 2300 000/00 RMK AO2 $
53144K9L2 9L220160412070510104/12/16 07:05:31  5-MIN K9L2 121505Z AUTO 00000KT 10SM CLR 12/06 A3013 2110 68 2300 000/00 RMK AO2 $
53144K9L2 9L220160412071010104/12/16 07:10:31  5-MIN K9L2 121510Z AUTO 00000KT 10SM CLR 12/06 A3013 2110 66 2300 000/00 RMK AO2 $
53144K9L2 9L220160412071510104/12/16 07:15:31  5-MIN K9L2 121515Z AUTO 00000KT 10SM CLR 13/06 A3013 2110 63 2400 000/00 RMK AO2 $
53144K9L2 9L220160412072010104/12/16 07:20:31  5-MIN K9L2 121520Z AUTO 00000KT 10SM CLR 13/06 A3013 2110 63 2400 000/00 RMK AO2 $
53144K9L2 9L220160412072510104/12/16 07:25:31  5-MIN K9L2 121525Z AUTO 00000KT 10SM CLR 13/07 A3013 2110 64 2400 000/00 RMK AO2 $
53144K9L2 9L220160412073010104/12/16 07:30:31  5-MIN K9L2 121530Z AUTO 00000KT 10SM CLR 13/06 A3013 2110 61 2400 000/00 RMK AO2 $
53144K9L2 9L220160412073510104/12/16 07:35:31  5-MIN K9L2 121535Z AUTO 00000KT 10SM CLR 13/06 A3013 2110 61 2400 000/00 RMK AO2 $
53144K9L2 9L220160412074010104/12/16 07:40:31  5-MIN K9L2 121540Z AUTO 00000KT 10SM CLR 13/07 A3013 2110 64 2400 000/00 RMK AO2 $
53144K9L2 9L220160412074510104/12/16 07:45:31  5-MIN K9L2 121545Z AUTO 00000KT 10SM CLR 14/07 A3013 2110 61 2500 000/00 RMK AO2 $
53144K9L2 9L220160412075010104/12/16 07:50:31  5-MIN K9L2 121550Z AUTO 08003KT 10SM CLR 14/07 A3013 2110 61 2500 070/03 RMK AO2 $
53144K9L2 9L220160412075511804/12/16 07:55:31  5-MIN K9L2 121555Z AUTO 09003KT 10SM CLR 14/07 A3013 2110 59 2600 070/03 RMK AO2 SLP199 T01440067 $
53144K9L2 9L220160412080010104/12/16 08:00:31  5-MIN K9L2 121600Z AUTO 08003KT 10SM CLR 14/07 A3013 2110 59 2600 070/03 RMK AO2 $
53144K9L2 9L220160412080510104/12/16 08:05:31  5-MIN K9L2 121605Z AUTO 06003KT 10SM CLR 15/07 A3013 2110 57 2600 050/03 RMK AO2 $
53144K9L2 9L220160412081010104/12/16 08:10:31  5-MIN K9L2 121610Z AUTO 00000KT 10SM CLR 16/07 A3013 2110 57 2700 000/00 RMK AO2 $
53144K9L2 9L220160412081510104/12/16 08:15:31  5-MIN K9L2 121615Z AUTO 08004KT 10SM CLR 16/07 A3013 2110 57 2700 060/04 RMK AO2 $
53144K9L2 9L220160412082010104/12/16 08:20:31  5-MIN K9L2 121620Z AUTO 09004KT 10SM CLR 16/07 A3013 2110 55 2800 080/04 RMK AO2 $
53144K9L2 9L220160412082510104/12/16 08:25:31  5-MIN K9L2 121625Z AUTO 08004KT 10SM CLR 17/07 A3013 2110 53 2800 070/04 RMK AO2 $
53144K9L2 9L220160412083010104/12/16 08:30:31  5-MIN K9L2 121630Z AUTO 09004KT 10SM CLR 17/07 A3013 2110 53 2800 080/04 RMK AO2 $
53144K9L2 9L220160412083510104/12/16 08:35:31  5-MIN K9L2 121635Z AUTO 10003KT 10SM CLR 17/07 A3013 2110 53 2800 090/03 RMK AO2 $
53144K9L2 9L220160412084010104/12/16 08:40:31  5-MIN K9L2 121640Z AUTO 09003KT 10SM CLR 17/07 A3013 2110 51 2900 080/03 RMK AO2 $
53144K9L2 9L220160412084510104/12/16 08:45:31  5-MIN K9L2 121645Z AUTO 11003KT 10SM CLR 17/08 A3013 2110 53 2900 090/03 RMK AO2 $
53144K9L2 9L220160412085010104/12/16 08:50:31  5-MIN K9L2 121650Z AUTO 08003KT 10SM CLR 17/07 A3013 2110 51 2900 070/03 RMK AO2 $
53144K9L2 9L220160412085511804/12/16 08:55:31  5-MIN K9L2 121655Z AUTO 09004KT 10SM CLR 18/07 A3013 2110 49 3000 080/04 RMK AO2 SLP197 T01780072 $
53144K9L2 9L220160412090010104/12/16 09:00:31  5-MIN K9L2 121700Z AUTO VRB03KT 10SM CLR 18/07 A3013 2110 49 3000 VRB/03 RMK AO2 $
53144K9L2 9L220160412090510104/12/16 09:05:31  5-MIN K9L2 121705Z AUTO 07003KT 10SM CLR 18/07 A3013 2110 48 3000 050/03 RMK AO2 $
53144K9L2 9L220160412091010104/12/16 09:10:31  5-MIN K9L2 121710Z AUTO 10003KT 10SM CLR 19/07 A3013 2110 46 3100 090/03 RMK AO2 $
53144K9L2 9L220160412091510104/12/16 09:15:31  5-MIN K9L2 121715Z AUTO VRB03KT 10SM CLR 19/07 A3013 2110 46 3100 VRB/03 RMK AO2 $
53144K9L2 9L220160412092010104/12/16 09:20:31  5-MIN K9L2 121720Z AUTO 00000KT 10SM CLR 19/07 A3013 2110 46 3100 000/00 RMK AO2 $
53144K9L2 9L220160412092510104/12/16 09:25:31  5-MIN K9L2 121725Z AUTO 00000KT 10SM CLR 19/07 A3013 2110 46 3100 000/00 RMK AO2 $
53144K9L2 9L220160412093010104/12/16 09:30:31  5-MIN K9L2 121730Z AUTO VRB04KT 10SM CLR 19/07 A3013 2110 44 3200 VRB/04 RMK AO2 $
53144K9L2 9L220160412093510104/12/16 09:35:31  5-MIN K9L2 121735Z AUTO 13005KT 10SM CLR 20/07 A3013 2110 43 3200 120/05 RMK AO2 $
53144K9L2 9L220160412094010104/12/16 09:40:31  5-MIN K9L2 121740Z AUTO 00000KT 10SM CLR 20/07 A3013 2110 41 3200 000/00 RMK AO2 $
53144K9L2 9L220160412094510104/12/16 09:45:31  5-MIN K9L2 121745Z AUTO 13005KT 10SM CLR 21/07 A3012 2110 40 3300 120/05 RMK AO2 $
53144K9L2 9L220160412095010104/12/16 09:50:31  5-MIN K9L2 121750Z AUTO 17004KT 10SM CLR 21/07 A3012 2110 40 3300 150/04 RMK AO2 $
53144K9L2 9L220160412095513604/12/16 09:55:31  5-MIN K9L2 121755Z AUTO 15006KT 10SM CLR 21/07 A3012 2110 40 3300 130/06 RMK AO2 SLP193 T02060067 10206 20067 53013 $
53144K9L2 9L220160412100010104/12/16 10:00:31  5-MIN K9L2 121800Z AUTO 16004KT 10SM CLR 21/07 A3012 2110 40 3300 150/04 RMK AO2 $
53144K9L2 9L220160412100510104/12/16 10:05:31  5-MIN K9L2 121805Z AUTO VRB03KT 10SM CLR 21/07 A3013 2110 40 3300 VRB/03 RMK AO2 $
53144K9L2 9L220160412101010104/12/16 10:10:31  5-MIN K9L2 121810Z AUTO 18004KT 10SM CLR 21/06 A3012 2120 38 3300 170/04 RMK AO2 $
53144K9L2 9L220160412101510104/12/16 10:15:31  5-MIN K9L2 121815Z AUTO VRB03KT 10SM CLR 21/06 A3012 2120 37 3300 VRB/03 RMK AO2 $
53144K9L2 9L220160412102011704/12/16 10:20:31  5-MIN K9L2 121820Z AUTO 19008KT 120V240 10SM CLR 22/06 A3012 2120 36 3400 170/08 110V230 RMK AO2 $
53144K9L2 9L220160412102510104/12/16 10:25:31  5-MIN K9L2 121825Z AUTO 22008KT 10SM CLR 22/06 A3012 2120 35 3500 210/08 RMK AO2 $
53144K9L2 9L220160412103010104/12/16 10:30:31  5-MIN K9L2 121830Z AUTO 24006KT 10SM CLR 22/06 A3012 2120 35 3500 230/06 RMK AO2 $
53144K9L2 9L220160412103510104/12/16 10:35:31  5-MIN K9L2 121835Z AUTO VRB06KT 10SM CLR 22/06 A3012 2120 35 3500 VRB/06 RMK AO2 $
53144K9L2 9L220160412104011704/12/16 10:40:31  5-MIN K9L2 121840Z AUTO 20007KT 160V260 10SM CLR 22/06 A3012 2120 33 3500 190/07 150V250 RMK AO2 $
53144K9L2 9L220160412104510104/12/16 10:45:31  5-MIN K9L2 121845Z AUTO 17008KT 10SM CLR 23/05 A3012 2120 31 3500 160/08 RMK AO2 $
53144K9L2 9L220160412105010104/12/16 10:50:31  5-MIN K9L2 121850Z AUTO 18009KT 10SM CLR 23/05 A3011 2120 31 3500 170/09 RMK AO2 $
53144K9L2 9L220160412105512404/12/16 10:55:31  5-MIN K9L2 121855Z AUTO 20011G15KT 10SM CLR 23/05 A3011 2120 31 3500 180/11G15 RMK AO2 SLP188 T02280050 $
53144K9L2 9L220160412110010704/12/16 11:00:31  5-MIN K9L2 121900Z AUTO VRB03G15KT 10SM CLR 23/05 A3012 2120 31 3500 VRB/03G15 RMK AO2 $
53144K9L2 9L220160412110510704/12/16 11:05:31  5-MIN K9L2 121905Z AUTO 20008G14KT 10SM CLR 23/05 A3011 2120 31 3500 190/08G14 RMK AO2 $
53144K9L2 9L220160412111010704/12/16 11:10:31  5-MIN K9L2 121910Z AUTO VRB06G14KT 10SM CLR 23/05 A3011 2130 31 3500 VRB/06G14 RMK AO2 $
53144K9L2 9L220160412111511704/12/16 11:15:31  5-MIN K9L2 121915Z AUTO 17008KT 130V210 10SM CLR 23/05 A3011 2130 31 3600 160/08 120V200 RMK AO2 $
53144K9L2 9L220160412112010104/12/16 11:20:31  5-MIN K9L2 121920Z AUTO 18007KT 10SM CLR 23/05 A3011 2130 30 3600 170/07 RMK AO2 $
53144K9L2 9L220160412112510104/12/16 11:25:31  5-MIN K9L2 121925Z AUTO 18009KT 10SM CLR 23/05 A3010 2130 30 3600 160/09 RMK AO2 $
53144K9L2 9L220160412113010104/12/16 11:30:31  5-MIN K9L2 121930Z AUTO 19008KT 10SM CLR 24/05 A3010 2130 29 3700 170/08 RMK AO2 $
53144K9L2 9L220160412113510104/12/16 11:35:31  5-MIN K9L2 121935Z AUTO 18007KT 10SM CLR 23/04 A3010 2140 29 3600 170/07 RMK AO2 $
53144K9L2 9L220160412114010104/12/16 11:40:31  5-MIN K9L2 121940Z AUTO 16007KT 10SM CLR 23/04 A3010 2140 29 3600 150/07 RMK AO2 $
53144K9L2 9L220160412114510104/12/16 11:45:31  5-MIN K9L2 121945Z AUTO 17007KT 10SM CLR 23/04 A3010 2140 28 3600 160/07 RMK AO2 $
53144K9L2 9L220160412115010104/12/16 11:50:31  5-MIN K9L2 121950Z AUTO 16007KT 10SM CLR 23/04 A3010 2140 28 3600 140/07 RMK AO2 $
53144K9L2 9L220160412115511804/12/16 11:55:31  5-MIN K9L2 121955Z AUTO 16007KT 10SM CLR 24/04 A3009 2140 27 3700 150/07 RMK AO2 SLP181 T02390039 $
53144K9L2 9L220160412120010104/12/16 12:00:31  5-MIN K9L2 122000Z AUTO VRB06KT 10SM CLR 24/04 A3009 2140 27 3700 VRB/06 RMK AO2 $
53144K9L2 9L220160412120510104/12/16 12:05:31  5-MIN K9L2 122005Z AUTO 17008KT 10SM CLR 24/03 A3009 2140 26 3700 160/08 RMK AO2 $
53144K9L2 9L220160412121010104/12/16 12:10:31  5-MIN K9L2 122010Z AUTO 19008KT 10SM CLR 24/03 A3009 2150 25 3800 170/08 RMK AO2 $
53144K9L2 9L220160412121510104/12/16 12:15:31  5-MIN K9L2 122015Z AUTO 16006KT 10SM CLR 24/03 A3009 2150 26 3700 150/06 RMK AO2 $
53144K9L2 9L220160412122010704/12/16 12:20:31  5-MIN K9L2 122020Z AUTO 20008G15KT 10SM CLR 24/03 A3009 2150 24 3800 180/08G15 RMK AO2 $
53144K9L2 9L220160412122512304/12/16 12:25:31  5-MIN K9L2 122025Z AUTO 20008G15KT 160V260 10SM CLR 24/03 A3008 2150 25 3700 180/08G15 150V250 RMK AO2 $
53144K9L2 9L220160412123010104/12/16 12:30:31  5-MIN K9L2 122030Z AUTO 18009KT 10SM CLR 25/03 A3008 2150 23 3800 170/09 RMK AO2 $
53144K9L2 9L220160412123510104/12/16 12:35:31  5-MIN K9L2 122035Z AUTO 19004KT 10SM CLR 24/03 A3008 2150 24 3800 180/04 RMK AO2 $
53144K9L2 9L220160412124010104/12/16 12:40:31  5-MIN K9L2 122040Z AUTO 19008KT 10SM CLR 25/03 A3008 2150 24 3800 180/08 RMK AO2 $
53144K9L2 9L220160412124510704/12/16 12:45:31  5-MIN K9L2 122045Z AUTO 19007G14KT 10SM CLR 25/03 A3008 2160 24 3800 180/07G14 RMK AO2 $
53144K9L2 9L220160412125010704/12/16 12:50:31  5-MIN K9L2 122050Z AUTO 21010G15KT 10SM CLR 26/04 A3008 2160 24 3900 190/10G15 RMK AO2 $
53144K9L2 9L220160412125514604/12/16 12:55:31  5-MIN K9L2 122055Z AUTO 22007G15KT 190V260 10SM CLR 26/03 A3008 2150 23 3900 210/07G15 180V250 RMK AO2 SLP177 T02560033 58000 $
53144K9L2 9L220160412130010104/12/16 13:00:31  5-MIN K9L2 122100Z AUTO 18007KT 10SM CLR 26/03 A3008 2160 23 3900 170/07 RMK AO2 $
53144K9L2 9L220160412130512304/12/16 13:05:31  5-MIN K9L2 122105Z AUTO 24010G15KT 190V280 10SM CLR 26/03 A3008 2160 22 3900 220/10G15 180V270 RMK AO2 $
53144K9L2 9L220160412131010704/12/16 13:10:31  5-MIN K9L2 122110Z AUTO 22009G15KT 10SM CLR 26/02 A3008 2160 21 3900 210/09G15 RMK AO2 $
53144K9L2 9L220160412131510704/12/16 13:15:31  5-MIN K9L2 122115Z AUTO 25007G14KT 10SM CLR 26/02 A3008 2160 21 3900 240/07G14 RMK AO2 $
53144K9L2 9L220160412132010104/12/16 13:20:31  5-MIN K9L2 122120Z AUTO 22007KT 10SM CLR 25/02 A3008 2160 22 3800 200/07 RMK AO2 $
53144K9L2 9L220160412132510704/12/16 13:25:31  5-MIN K9L2 122125Z AUTO 22011G16KT 10SM CLR 26/03 A3007 2160 21 4000 200/11G16 RMK AO2 $
53144K9L2 9L220160412133010704/12/16 13:30:31  5-MIN K9L2 122130Z AUTO 23008G16KT 10SM CLR 26/03 A3007 2160 22 4000 220/08G16 RMK AO2 $
53144K9L2 9L220160412133512304/12/16 13:35:31  5-MIN K9L2 122135Z AUTO 27007G16KT 220V300 10SM CLR 26/03 A3007 2160 22 4000 260/07G16 210V290 RMK AO2 $
53144K9L2 9L220160412134010704/12/16 13:40:31  5-MIN K9L2 122140Z AUTO 24013G20KT 10SM CLR 26/03 A3007 2170 21 4000 220/13G20 RMK AO2 $
53144K9L2 9L220160412134510704/12/16 13:45:31  5-MIN K9L2 122145Z AUTO 24011G20KT 10SM CLR 26/03 A3007 2170 21 4000 230/11G20 RMK AO2 $
53144K9L2 9L220160412135012304/12/16 13:50:31  5-MIN K9L2 122150Z AUTO 21007G19KT 170V230 10SM CLR 26/03 A3007 2170 22 3900 200/07G19 160V220 RMK AO2 $
53144K9L2 9L220160412135512404/12/16 13:55:31  5-MIN K9L2 122155Z AUTO 20012G19KT 10SM CLR 26/03 A3006 2170 21 4000 190/12G19 RMK AO2 SLP171 T02610028 $
53144K9L2 9L220160412140010704/12/16 14:00:31  5-MIN K9L2 122200Z AUTO 23010G19KT 10SM CLR 26/02 A3006 2170 21 4000 210/10G19 RMK AO2 $
53144K9L2 9L220160412140510104/12/16 14:05:31  5-MIN K9L2 122205Z AUTO 23008KT 10SM CLR 26/03 A3006 2170 21 4000 210/08 RMK AO2 $
53144K9L2 9L220160412141010704/12/16 14:10:31  5-MIN K9L2 122210Z AUTO 23014G18KT 10SM CLR 26/03 A3006 2180 21 4000 220/14G18 RMK AO2 $
53144K9L2 9L220160412141510704/12/16 14:15:31  5-MIN K9L2 122215Z AUTO 23013G18KT 10SM CLR 26/03 A3006 2180 22 4000 220/13G18 RMK AO2 $
53144K9L2 9L220160412142010704/12/16 14:20:31  5-MIN K9L2 122220Z AUTO 21011G20KT 10SM CLR 27/03 A3005 2180 22 4000 200/11G20 RMK AO2 $
53144K9L2 9L220160412142510704/12/16 14:25:31  5-MIN K9L2 122225Z AUTO 22015G20KT 10SM CLR 27/03 A3005 2180 22 4000 200/15G20 RMK AO2 $
53144K9L2 9L220160412143010704/12/16 14:30:31  5-MIN K9L2 122230Z AUTO 21015G19KT 10SM CLR 27/04 A3005 2180 22 4000 200/15G19 RMK AO2 $
53144K9L2 9L220160412143510704/12/16 14:35:31  5-MIN K9L2 122235Z AUTO 19010G19KT 10SM CLR 26/04 A3005 2180 24 4000 180/10G19 RMK AO2 $
53144K9L2 9L220160412144012604/12/16 14:40:31  5-MIN K9L2 122240Z AUTO 20011G18KT 180V250 10SM FEW050 26/05 A3005 2180 25 4000 190/11G18 170V240 RMK AO2 $
53144K9L2 9L220160412144511004/12/16 14:45:31  5-MIN K9L2 122245Z AUTO 25015G18KT 10SM FEW050 27/05 A3005 2180 24 4100 230/15G18 RMK AO2 $
53144K9L2 9L220160412145011004/12/16 14:50:31  5-MIN K9L2 122250Z AUTO 22017G20KT 10SM SCT050 27/06 A3004 2190 25 4100 200/17G20 RMK AO2 $
53144K9L2 9L220160412145512704/12/16 14:55:31  5-MIN K9L2 122255Z AUTO 24013G20KT 10SM SCT050 26/05 A3004 2190 26 3900 220/13G20 RMK AO2 SLP164 T02560050 $
53144K9L2 9L220160412150011004/12/16 15:00:31  5-MIN K9L2 122300Z AUTO 22017G21KT 10SM SCT050 27/06 A3004 2190 25 4100 210/17G21 RMK AO2 $
53144K9L2 9L220160412150511004/12/16 15:05:31  5-MIN K9L2 122305Z AUTO 23016G21KT 10SM FEW050 26/06 A3004 2190 26 4000 220/16G21 RMK AO2 $
53144K9L2 9L220160412151011004/12/16 15:10:31  5-MIN K9L2 122310Z AUTO 23010G21KT 10SM FEW050 26/05 A3004 2190 26 3900 220/10G21 RMK AO2 $
53144K9L2 9L220160412151511004/12/16 15:15:31  5-MIN K9L2 122315Z AUTO 23014G21KT 10SM FEW050 26/05 A3004 2190 26 3900 220/14G21 RMK AO2 $
53144K9L2 9L220160412152010704/12/16 15:20:31  5-MIN K9L2 122320Z AUTO 23017G22KT 10SM CLR 26/05 A3004 2190 25 4000 210/17G22 RMK AO2 $
53144K9L2 9L220160412152510704/12/16 15:25:31  5-MIN K9L2 122325Z AUTO 23016G22KT 10SM CLR 26/05 A3004 2190 25 4000 210/16G22 RMK AO2 $
53144K9L2 9L220160412153010704/12/16 15:30:31  5-MIN K9L2 122330Z AUTO 22018G24KT 10SM CLR 26/05 A3004 2190 25 4000 210/18G24 RMK AO2 $
53144K9L2 9L220160412153510704/12/16 15:35:31  5-MIN K9L2 122335Z AUTO 23016G24KT 10SM CLR 26/05 A3004 2190 25 4000 220/16G24 RMK AO2 $
53144K9L2 9L220160412154010704/12/16 15:40:31  5-MIN K9L2 122340Z AUTO 23017G22KT 10SM CLR 26/05 A3004 2190 25 4000 220/17G22 RMK AO2 $
53144K9L2 9L220160412154510704/12/16 15:45:31  5-MIN K9L2 122345Z AUTO 23017G24KT 10SM CLR 26/06 A3004 2190 27 3900 220/17G24 RMK AO2 $
53144K9L2 9L220160412155010704/12/16 15:50:31  5-MIN K9L2 122350Z AUTO 24016G24KT 10SM CLR 26/06 A3004 2190 27 3900 230/16G24 RMK AO2 $
53144K9L2 9L220160412155514204/12/16 15:55:31  5-MIN K9L2 122355Z AUTO 23015G24KT 10SM CLR 26/06 A3004 2190 27 3900 220/15G24 RMK AO2 SLP165 T02560056 10267 20206 58014 $
53144K9L2 9L220160412160010704/12/16 16:00:31  5-MIN K9L2 130000Z AUTO 23019G25KT 10SM CLR 26/06 A3004 2200 27 3900 210/19G25 RMK AO2 $
53144K9L2 9L220160412160510704/12/16 16:05:31  5-MIN K9L2 130005Z AUTO 23021G25KT 10SM CLR 26/06 A3004 2200 28 3900 210/21G25 RMK AO2 $
53144K9L2 9L220160412161010704/12/16 16:10:31  5-MIN K9L2 130010Z AUTO 23019G25KT 10SM CLR 25/06 A3004 2190 28 3900 220/19G25 RMK AO2 $
53144K9L2 9L220160412161512504/12/16 16:15:31  5-MIN K9L2 130015Z AUTO 23019G26KT 10SM CLR 25/06 A3004 2200 29 3900 220/19G26 RMK AO2 PK WND 23026/0013 $
53144K9L2 9L220160412162012504/12/16 16:20:31  5-MIN K9L2 130020Z AUTO 22019G27KT 10SM CLR 25/06 A3004 2190 29 3900 210/19G27 RMK AO2 PK WND 22027/0018 $
53144K9L2 9L220160412162512504/12/16 16:25:31  5-MIN K9L2 130025Z AUTO 24020G27KT 10SM CLR 25/06 A3004 2190 29 3900 220/20G27 RMK AO2 PK WND 22027/0018 $
53144K9L2 9L220160412163012504/12/16 16:30:31  5-MIN K9L2 130030Z AUTO 24020G27KT 10SM CLR 25/06 A3004 2190 29 3900 220/20G27 RMK AO2 PK WND 23027/0030 $
53144K9L2 9L220160413210510104/13/16 21:05:31  5-MIN K9L2 140505Z AUTO 28015KT 10SM CLR 16/03 A2997 2260 42 2900 260/15 RMK AO2 $
53144K9L2 9L220160413211010104/13/16 21:10:31  5-MIN K9L2 140510Z AUTO 28013KT 10SM CLR 16/03 A2997 2260 43 2900 260/13 RMK AO2 $
53144K9L2 9L220160413211510104/13/16 21:15:31  5-MIN K9L2 140515Z AUTO 26010KT 10SM CLR 16/03 A2997 2260 43 2900 250/10 RMK AO2 $
53144K9L2 9L220160413212010104/13/16 21:20:31  5-MIN K9L2 140520Z AUTO 26014KT 10SM CLR 16/03 A2997 2260 42 3000 250/14 RMK AO2 $
53144K9L2 9L220160413212510704/13/16 21:25:31  5-MIN K9L2 140525Z AUTO 27013G21KT 10SM CLR 16/04 A2997 2260 47 2900 250/13G21 RMK AO2 $
53144K9L2 9L220160413213010704/13/16 21:30:31  5-MIN K9L2 140530Z AUTO 28017G24KT 10SM CLR 16/04 A2997 2260 47 2900 270/17G24 RMK AO2 $
53144K9L2 9L220160413213510704/13/16 21:35:31  5-MIN K9L2 140535Z AUTO 27016G24KT 10SM CLR 16/04 A2996 2260 47 2900 260/16G24 RMK AO2 $
53144K9L2 9L220160413214010104/13/16 21:40:31  5-MIN K9L2 140540Z AUTO 27017KT 10SM CLR 16/04 A2996 2260 45 2900 250/17 RMK AO2 $
53144K9L2 9L220160413214510104/13/16 21:45:31  5-MIN K9L2 140545Z AUTO 26015KT 10SM CLR 16/04 A2996 2270 45 2900 250/15 RMK AO2 $
53144K9L2 9L220160413215010104/13/16 21:50:31  5-MIN K9L2 140550Z AUTO 26015KT 10SM CLR 16/04 A2996 2270 45 2900 240/15 RMK AO2 $
53144K9L2 9L220160413215513604/13/16 21:55:31  5-MIN K9L2 140555Z AUTO 26018KT 10SM CLR 16/04 A2995 2270 45 2900 250/18 RMK AO2 SLP133 T01560039 10222 20156 56004 $
53144K9L2 9L220160413220010704/13/16 22:00:31  5-MIN K9L2 140600Z AUTO 26016G25KT 10SM CLR 16/04 A2995 2270 45 2900 250/16G25 RMK AO2 $
53144K9L2 9L220160413220510704/13/16 22:05:31  5-MIN K9L2 140605Z AUTO 26017G25KT 10SM CLR 16/04 A2995 2270 45 2900 250/17G25 RMK AO2 $
53144K9L2 9L220160413221010704/13/16 22:10:31  5-MIN K9L2 140610Z AUTO 28017G23KT 10SM CLR 16/04 A2996 2270 47 2900 270/17G23 RMK AO2 $
53144K9L2 9L220160413221510704/13/16 22:15:31  5-MIN K9L2 140615Z AUTO 28014G21KT 10SM CLR 16/04 A2996 2270 47 2900 260/14G21 RMK AO2 $
53144K9L2 9L220160413222010704/13/16 22:20:31  5-MIN K9L2 140620Z AUTO 27011G20KT 10SM CLR 15/04 A2996 2260 49 2800 260/11G20 RMK AO2 $
53144K9L2 9L220160413222510704/13/16 22:25:31  5-MIN K9L2 140625Z AUTO 27015G21KT 10SM CLR 15/05 A2996 2270 51 2800 250/15G21 RMK AO2 $
53144K9L2 9L220160413223010704/13/16 22:30:31  5-MIN K9L2 140630Z AUTO 26014G21KT 10SM CLR 15/05 A2995 2270 51 2800 250/14G21 RMK AO2 $
53144K9L2 9L220160413223510704/13/16 22:35:31  5-MIN K9L2 140635Z AUTO 26017G22KT 10SM CLR 15/05 A2996 2270 51 2800 250/17G22 RMK AO2 $
53144K9L2 9L220160413224010704/13/16 22:40:31  5-MIN K9L2 140640Z AUTO 27013G22KT 10SM CLR 15/05 A2996 2270 51 2800 250/13G22 RMK AO2 $
53144K9L2 9L220160413224510704/13/16 22:45:31  5-MIN K9L2 140645Z AUTO 28015G22KT 10SM CLR 15/05 A2996 2270 51 2800 270/15G22 RMK AO2 $
53144K9L2 9L220160413225010704/13/16 22:50:31  5-MIN K9L2 140650Z AUTO 28014G22KT 10SM CLR 15/05 A2995 2270 51 2800 270/14G22 RMK AO2 $
53144K9L2 9L220160413225511804/13/16 22:55:31  5-MIN K9L2 140655Z AUTO 29014KT 10SM CLR 15/05 A2995 2270 51 2800 270/14 RMK AO2 SLP131 T01500050 $
53144K9L2 9L220160413230010704/13/16 23:00:31  5-MIN K9L2 140700Z AUTO 27019G22KT 10SM CLR 15/05 A2995 2270 51 2800 260/19G22 RMK AO2 $
53144K9L2 9L220160413230510704/13/16 23:05:31  5-MIN K9L2 140705Z AUTO 28018G23KT 10SM CLR 15/04 A2995 2270 49 2800 270/18G23 RMK AO2 $
53144K9L2 9L220160413231010704/13/16 23:10:31  5-MIN K9L2 140710Z AUTO 28018G25KT 10SM CLR 16/04 A2995 2270 45 2900 260/18G25 RMK AO2 $
53144K9L2 9L220160413231510704/13/16 23:15:31  5-MIN K9L2 140715Z AUTO 27019G25KT 10SM CLR 15/04 A2995 2270 49 2800 260/19G25 RMK AO2 $
53144K9L2 9L220160413232012504/13/16 23:20:31  5-MIN K9L2 140720Z AUTO 27019G26KT 10SM CLR 15/05 A2995 2270 51 2800 260/19G26 RMK AO2 PK WND 26026/0718 $
53144K9L2 9L220160413232512504/13/16 23:25:31  5-MIN K9L2 140725Z AUTO 26019G27KT 10SM CLR 15/05 A2995 2270 51 2800 250/19G27 RMK AO2 PK WND 26027/0725 $
53144K9L2 9L220160413233012504/13/16 23:30:31  5-MIN K9L2 140730Z AUTO 25017G27KT 10SM CLR 15/05 A2995 2270 51 2800 240/17G27 RMK AO2 PK WND 26027/0725 $
53144K9L2 9L220160413233512504/13/16 23:35:31  5-MIN K9L2 140735Z AUTO 25015G24KT 10SM CLR 15/05 A2995 2270 51 2800 240/15G24 RMK AO2 PK WND 26027/0725 $
53144K9L2 9L220160413234012504/13/16 23:40:31  5-MIN K9L2 140740Z AUTO 25016G22KT 10SM CLR 15/05 A2995 2270 51 2800 240/16G22 RMK AO2 PK WND 26027/0725 $
53144K9L2 9L220160413234512504/13/16 23:45:31  5-MIN K9L2 140745Z AUTO 25013G22KT 10SM CLR 15/04 A2995 2280 49 2800 240/13G22 RMK AO2 PK WND 26027/0725 $
53144K9L2 9L220160413235011904/13/16 23:50:31  5-MIN K9L2 140750Z AUTO 25014KT 10SM CLR 15/04 A2995 2280 49 2800 240/14 RMK AO2 PK WND 26027/0725 $
53144K9L2 9L220160413235514604/13/16 23:55:31  5-MIN K9L2 140755Z AUTO 25011KT 10SM CLR 15/04 A2995 2280 49 2800 240/11 RMK AO2 PK WND 26027/0725 SLP129 T01500044 402500122 $
53144K9L2 9L220160414000010104/14/16 00:00:31  5-MIN K9L2 140800Z AUTO 27012KT 10SM CLR 15/04 A2994 2280 47 2800 260/12 RMK AO2 $
53144K9L2 9L220160414000510104/14/16 00:05:31  5-MIN K9L2 140805Z AUTO 28010KT 10SM CLR 15/04 A2995 2280 47 2800 270/10 RMK AO2 $
53144K9L2 9L220160414001010104/14/16 00:10:31  5-MIN K9L2 140810Z AUTO 30008KT 10SM CLR 15/04 A2995 2280 47 2800 290/08 RMK AO2 $
53144K9L2 9L220160414001510704/14/16 00:15:31  5-MIN K9L2 140815Z AUTO 30011G17KT 10SM CLR 15/03 A2995 2270 45 2800 290/11G17 RMK AO2 $
53144K9L2 9L220160414002010704/14/16 00:20:31  5-MIN K9L2 140820Z AUTO 30014G19KT 10SM CLR 15/03 A2996 2270 43 2800 290/14G19 RMK AO2 $
53144K9L2 9L220160414002510704/14/16 00:25:31  5-MIN K9L2 140825Z AUTO 29018G24KT 10SM CLR 15/03 A2996 2260 45 2800 270/18G24 RMK AO2 $
53144K9L2 9L220160414003012504/14/16 00:30:31  5-MIN K9L2 140830Z AUTO 27021G30KT 10SM CLR 15/03 A2996 2260 45 2800 250/21G30 RMK AO2 PK WND 27030/0830 $
53144K9L2 9L220160414003512504/14/16 00:35:31  5-MIN K9L2 140835Z AUTO 26020G30KT 10SM CLR 15/03 A2996 2270 43 2800 250/20G30 RMK AO2 PK WND 27030/0830 $
53144K9L2 9L220160414004012504/14/16 00:40:31  5-MIN K9L2 140840Z AUTO 25021G30KT 10SM CLR 15/03 A2997 2260 43 2800 240/21G30 RMK AO2 PK WND 25030/0839 $
53144K9L2 9L220160414004512504/14/16 00:45:31  5-MIN K9L2 140845Z AUTO 25019G30KT 10SM CLR 15/02 A2996 2270 42 2800 240/19G30 RMK AO2 PK WND 25030/0839 $
53144K9L2 9L220160414005012504/14/16 00:50:31  5-MIN K9L2 140850Z AUTO 24017G27KT 10SM CLR 15/02 A2995 2270 40 2800 230/17G27 RMK AO2 PK WND 25030/0839 $
53144K9L2 9L220160414005514804/14/16 00:55:31  5-MIN K9L2 140855Z AUTO 24014G24KT 10SM CLR 15/02 A2995 2270 40 2800 220/14G24 RMK AO2 PK WND 25030/0839 SLP132 T01500017 50002 $
53144K9L2 9L220160414010010704/14/16 01:00:31  5-MIN K9L2 140900Z AUTO 23014G22KT 10SM CLR 15/02 A2994 2280 42 2800 220/14G22 RMK AO2 $
53144K9L2 9L220160414010510704/14/16 01:05:31  5-MIN K9L2 140905Z AUTO 23013G20KT 10SM CLR 14/02 A2994 2290 41 2800 210/13G20 RMK AO2 $
53144K9L2 9L220160414011010704/14/16 01:10:31  5-MIN K9L2 140910Z AUTO 23012G20KT 10SM CLR 15/02 A2994 2290 42 2900 220/12G20 RMK AO2 $
53144K9L2 9L220160414011510104/14/16 01:15:31  5-MIN K9L2 140915Z AUTO 23012KT 10SM CLR 14/02 A2993 2290 43 2800 220/12 RMK AO2 $
53144K9L2 9L220160414012010704/14/16 01:20:31  5-MIN K9L2 140920Z AUTO 25007G16KT 10SM CLR 14/02 A2993 2290 43 2800 240/07G16 RMK AO2 $
53144K9L2 9L220160414012510104/14/16 01:25:31  5-MIN K9L2 140925Z AUTO 28005KT 10SM CLR 14/02 A2993 2290 45 2700 260/05 RMK AO2 $
53144K9L2 9L220160414013010104/14/16 01:30:31  5-MIN K9L2 140930Z AUTO 33007KT 10SM CLR 13/02 A2993 2290 46 2700 320/07 RMK AO2 $
53144K9L2 9L220160414013510104/14/16 01:35:31  5-MIN K9L2 140935Z AUTO 35008KT 10SM CLR 13/02 A2994 2290 48 2600 340/08 RMK AO2 $
53144K9L2 9L220160414014010104/14/16 01:40:31  5-MIN K9L2 140940Z AUTO 30008KT 10SM CLR 13/02 A2994 2280 48 2600 290/08 RMK AO2 $
53144K9L2 9L220160414014510104/14/16 01:45:31  5-MIN K9L2 140945Z AUTO 27011KT 10SM CLR 12/02 A2994 2280 50 2500 260/11 RMK AO2 $
53144K9L2 9L220160414015010104/14/16 01:50:31  5-MIN K9L2 140950Z AUTO 27008KT 10SM CLR 13/02 A2995 2280 46 2600 260/08 RMK AO2 $
53144K9L2 9L220160414015512404/14/16 01:55:31  5-MIN K9L2 140955Z AUTO 27015G21KT 10SM CLR 14/02 A2995 2280 43 2800 250/15G21 RMK AO2 SLP130 T01440022 $
53144K9L2 9L220160414020010704/14/16 02:00:31  5-MIN K9L2 141000Z AUTO 27013G22KT 10SM CLR 14/02 A2995 2280 41 2800 250/13G22 RMK AO2 $
53144K9L2 9L220160414020510704/14/16 02:05:31  5-MIN K9L2 141005Z AUTO 26011G22KT 10SM CLR 14/02 A2995 2280 43 2700 250/11G22 RMK AO2 $
53144K9L2 9L220160414021010704/14/16 02:10:31  5-MIN K9L2 141010Z AUTO 25015G22KT 10SM CLR 14/02 A2994 2280 43 2700 240/15G22 RMK AO2 $
53144K9L2 9L220160414021510704/14/16 02:15:31  5-MIN K9L2 141015Z AUTO 24013G22KT 10SM CLR 14/02 A2994 2280 43 2700 230/13G22 RMK AO2 $
53144K9L2 9L220160414022010704/14/16 02:20:31  5-MIN K9L2 141020Z AUTO 24012G21KT 10SM CLR 14/02 A2994 2290 43 2700 220/12G21 RMK AO2 $
53144K9L2 9L220160414022510704/14/16 02:25:31  5-MIN K9L2 141025Z AUTO 24010G21KT 10SM CLR 14/02 A2994 2290 43 2700 220/10G21 RMK AO2 $
53144K9L2 9L220160414023010104/14/16 02:30:31  5-MIN K9L2 141030Z AUTO 23013KT 10SM CLR 14/02 A2993 2290 43 2700 210/13 RMK AO2 $
53144K9L2 9L220160414023510104/14/16 02:35:31  5-MIN K9L2 141035Z AUTO 22008KT 10SM CLR 14/02 A2993 2290 43 2700 210/08 RMK AO2 $
53144K9L2 9L220160414024010704/14/16 02:40:31  5-MIN K9L2 141040Z AUTO 28016G22KT 10SM CLR 14/02 A2993 2290 43 2700 270/16G22 RMK AO2 $
53144K9L2 9L220160414024510704/14/16 02:45:31  5-MIN K9L2 141045Z AUTO 29014G22KT 10SM CLR 14/01 A2993 2290 41 2700 280/14G22 RMK AO2 $
53144K9L2 9L220160414025010104/14/16 02:50:31  5-MIN K9L2 141050Z AUTO 29015KT 10SM CLR 14/01 A2993 2290 40 2800 270/15 RMK AO2 $
53144K9L2 9L220160414025513504/14/16 02:55:31  5-MIN K9L2 141055Z AUTO 29015G21KT 10SM CLR 14/01 A2994 2290 40 2800 280/15G21 RMK AO2 WSHFT 1037 SLP127 T01440011 $
53144K9L2 9L220160414030010704/14/16 03:00:31  5-MIN K9L2 141100Z AUTO 28017G22KT 10SM CLR 14/01 A2993 2290 41 2700 270/17G22 RMK AO2 $
53144K9L2 9L220160414030512504/14/16 03:05:31  5-MIN K9L2 141105Z AUTO 27022G29KT 10SM CLR 14/01 A2992 2300 41 2700 250/22G29 RMK AO2 PK WND 26029/1105 $
53144K9L2 9L220160414031012504/14/16 03:10:31  5-MIN K9L2 141110Z AUTO 27021G29KT 10SM CLR 14/01 A2993 2300 40 2700 250/21G29 RMK AO2 PK WND 26029/1105 $
53144K9L2 9L220160414031512504/14/16 03:15:31  5-MIN K9L2 141115Z AUTO 26021G26KT 10SM CLR 14/01 A2993 2300 40 2700 250/21G26 RMK AO2 PK WND 26029/1105 $
53144K9L2 9L220160414032012504/14/16 03:20:31  5-MIN K9L2 141120Z AUTO 26020G26KT 10SM CLR 14/01 A2993 2300 40 2700 250/20G26 RMK AO2 PK WND 26029/1105 $
53144K9L2 9L220160414032512504/14/16 03:25:31  5-MIN K9L2 141125Z AUTO 26019G26KT 10SM CLR 14/01 A2992 2300 40 2700 240/19G26 RMK AO2 PK WND 26029/1105 $
53144K9L2 9L220160414033012504/14/16 03:30:31  5-MIN K9L2 141130Z AUTO 26017G25KT 10SM CLR 14/00 A2993 2300 38 2700 250/17G25 RMK AO2 PK WND 26029/1105 $
53144K9L2 9L220160414033512504/14/16 03:35:31  5-MIN K9L2 141135Z AUTO 26016G22KT 10SM CLR 14/00 A2993 2290 38 2700 250/16G22 RMK AO2 PK WND 26029/1105 $
53144K9L2 9L220160414034012504/14/16 03:40:31  5-MIN K9L2 141140Z AUTO 28021G25KT 10SM CLR 14/00 A2993 2290 38 2700 260/21G25 RMK AO2 PK WND 26029/1105 $
53144K9L2 9L220160414034512604/14/16 03:45:31  5-MIN K9L2 141145Z AUTO 28019G25KT 10SM CLR 14/M01 A2993 2290 37 2700 260/19G25 RMK AO2 PK WND 26029/1105 $
53144K9L2 9L220160414035012604/14/16 03:50:31  5-MIN K9L2 141150Z AUTO 28016G27KT 10SM CLR 14/M01 A2993 2300 37 2700 260/16G27 RMK AO2 PK WND 26029/1105 $
53144K9L2 9L220160414035516004/14/16 03:55:31  5-MIN K9L2 141155Z AUTO 27019G27KT 10SM CLR 14/00 A2993 2290 38 2700 260/19G27 RMK AO2 PK WND 26029/1105 SLP125 T01390000 10156 20122 55001 $
53144K9L2 9L220160414040010704/14/16 04:00:31  5-MIN K9L2 141200Z AUTO 28018G27KT 10SM CLR 14/00 A2993 2290 38 2700 270/18G27 RMK AO2 $
53144K9L2 9L220160414040512604/14/16 04:05:31  5-MIN K9L2 141205Z AUTO 27018G26KT 10SM CLR 14/M01 A2993 2290 37 2700 260/18G26 RMK AO2 PK WND 27026/1201 $
53144K9L2 9L220160414041012604/14/16 04:10:31  5-MIN K9L2 141210Z AUTO 27020G26KT 10SM CLR 14/M01 A2993 2290 37 2700 250/20G26 RMK AO2 PK WND 27026/1201 $
53144K9L2 9L220160414041512604/14/16 04:15:31  5-MIN K9L2 141215Z AUTO 27018G25KT 10SM CLR 14/M01 A2993 2290 37 2700 250/18G25 RMK AO2 PK WND 27026/1201 $
53144K9L2 9L220160414042012604/14/16 04:20:31  5-MIN K9L2 141220Z AUTO 27021G26KT 10SM CLR 14/M01 A2993 2290 37 2700 260/21G26 RMK AO2 PK WND 27026/1218 $
53144K9L2 9L220160414042512604/14/16 04:25:31  5-MIN K9L2 141225Z AUTO 27019G26KT 10SM CLR 14/M01 A2993 2290 37 2700 260/19G26 RMK AO2 PK WND 27026/1218 $
53144K9L2 9L220160414043012604/14/16 04:30:31  5-MIN K9L2 141230Z AUTO 27017G24KT 10SM CLR 14/M01 A2993 2290 37 2700 260/17G24 RMK AO2 PK WND 27026/1218 $
53144K9L2 9L220160414043512604/14/16 04:35:31  5-MIN K9L2 141235Z AUTO 27017G28KT 10SM CLR 14/M01 A2993 2290 37 2700 260/17G28 RMK AO2 PK WND 27028/1232 $
53144K9L2 9L220160414044012604/14/16 04:40:31  5-MIN K9L2 141240Z AUTO 27020G28KT 10SM CLR 13/M01 A2994 2290 38 2700 250/20G28 RMK AO2 PK WND 27028/1232 $
53144K9L2 9L220160414044512604/14/16 04:45:31  5-MIN K9L2 141245Z AUTO 28017G26KT 10SM CLR 13/M01 A2994 2290 38 2700 260/17G26 RMK AO2 PK WND 27028/1232 $
53144K9L2 9L220160414045012504/14/16 04:50:31  5-MIN K9L2 141250Z AUTO 27020G26KT 10SM CLR 13/00 A2993 2290 40 2700 260/20G26 RMK AO2 PK WND 27028/1232 $
53144K9L2 9L220160414045514204/14/16 04:55:31  5-MIN K9L2 141255Z AUTO 27018G26KT 10SM CLR 13/01 A2994 2280 41 2700 260/18G26 RMK AO2 PK WND 27028/1232 SLP130 T01330006 $
53144K9L2 9L220160414050012504/14/16 05:00:31  5-MIN K9L2 141300Z AUTO 27020G29KT 10SM CLR 13/01 A2994 2280 43 2700 260/20G29 RMK AO2 PK WND 26029/1300 $
53144K9L2 9L220160414050512504/14/16 05:05:31  5-MIN K9L2 141305Z AUTO 27022G29KT 10SM CLR 13/01 A2994 2290 43 2700 250/22G29 RMK AO2 PK WND 27029/1305 $
53144K9L2 9L220160414051012504/14/16 05:10:31  5-MIN K9L2 141310Z AUTO 27023G29KT 10SM CLR 13/02 A2994 2290 45 2700 250/23G29 RMK AO2 PK WND 27029/1310 $
53144K9L2 9L220160414051512504/14/16 05:15:31  5-MIN K9L2 141315Z AUTO 27021G29KT 10SM CLR 13/02 A2994 2280 45 2700 260/21G29 RMK AO2 PK WND 27029/1311 $
53144K9L2 9L220160414052012504/14/16 05:20:31  5-MIN K9L2 141320Z AUTO 27023G30KT 10SM CLR 13/02 A2994 2280 45 2700 260/23G30 RMK AO2 PK WND 27030/1319 $
53144K9L2 9L220160414052512504/14/16 05:25:31  5-MIN K9L2 141325Z AUTO 27018G30KT 10SM CLR 13/02 A2994 2280 45 2700 260/18G30 RMK AO2 PK WND 27030/1319 $
53144K9L2 9L220160414053012504/14/16 05:30:31  5-MIN K9L2 141330Z AUTO 27019G26KT 10SM CLR 13/02 A2994 2280 45 2700 260/19G26 RMK AO2 PK WND 27030/1319 $
53144K9L2 9L220160414053512504/14/16 05:35:31  5-MIN K9L2 141335Z AUTO 27022G28KT 10SM CLR 13/02 A2994 2280 45 2700 260/22G28 RMK AO2 PK WND 27030/1319 $
53144K9L2 9L220160414054012504/14/16 05:40:31  5-MIN K9L2 141340Z AUTO 26018G28KT 10SM CLR 13/02 A2994 2280 45 2700 250/18G28 RMK AO2 PK WND 27030/1319 $
53144K9L2 9L220160414054512504/14/16 05:45:31  5-MIN K9L2 141345Z AUTO 24014G27KT 10SM CLR 13/02 A2995 2280 45 2600 230/14G27 RMK AO2 PK WND 27030/1319 $
53144K9L2 9L220160414055012504/14/16 05:50:31  5-MIN K9L2 141350Z AUTO 26017G26KT 10SM CLR 13/02 A2994 2280 45 2700 250/17G26 RMK AO2 PK WND 27030/1319 $
53144K9L2 9L220160414055514204/14/16 05:55:31  5-MIN K9L2 141355Z AUTO 26020G27KT 10SM CLR 14/02 A2994 2280 43 2700 250/20G27 RMK AO2 PK WND 27030/1319 SLP132 T01390017 $
53144K9L2 9L220160414060011904/14/16 06:00:31  5-MIN K9L2 141400Z AUTO 26022KT 10SM CLR 13/02 A2994 2280 46 2700 250/22 RMK AO2 PK WND 26027/1359 $
53144K9L2 9L220160414060512504/14/16 06:05:31  5-MIN K9L2 141405Z AUTO 25018G28KT 10SM CLR 13/02 A2995 2280 46 2700 240/18G28 RMK AO2 PK WND 25028/1401 $
53144K9L2 9L220160414061012504/14/16 06:10:31  5-MIN K9L2 141410Z AUTO 26021G30KT 10SM CLR 13/02 A2995 2270 46 2600 250/21G30 RMK AO2 PK WND 26030/1408 $
53144K9L2 9L220160414061512504/14/16 06:15:31  5-MIN K9L2 141415Z AUTO 26023G30KT 10SM CLR 13/02 A2996 2270 46 2600 250/23G30 RMK AO2 PK WND 26030/1412 $
53144K9L2 9L220160414062013204/14/16 06:20:31  5-MIN K9L2 141420Z AUTO 26018G30KT 10SM CLR 13/03 A2996 2260 48 2600 250/18G30 RMK AO2 PK WND 26030/1412 PRESRR $
53144K9L2 9L220160414062512504/14/16 06:25:31  5-MIN K9L2 141425Z AUTO 27019G29KT 10SM CLR 13/03 A2996 2270 48 2600 250/19G29 RMK AO2 PK WND 26030/1412 $
53144K9L2 9L220160414063012504/14/16 06:30:31  5-MIN K9L2 141430Z AUTO 27024G31KT 10SM CLR 13/03 A2996 2270 48 2600 260/24G31 RMK AO2 PK WND 27031/1427 $
53144K9L2 9L220160414063512504/14/16 06:35:31  5-MIN K9L2 141435Z AUTO 27022G31KT 10SM CLR 13/02 A2996 2260 46 2600 260/22G31 RMK AO2 PK WND 27031/1427 $
53144K9L2 9L220160414064012504/14/16 06:40:31  5-MIN K9L2 141440Z AUTO 27020G29KT 10SM CLR 14/02 A2997 2260 45 2700 260/20G29 RMK AO2 PK WND 27031/1427 $
53144K9L2 9L220160414064512504/14/16 06:45:31  5-MIN K9L2 141445Z AUTO 27018G28KT 10SM CLR 14/02 A2997 2260 45 2700 260/18G28 RMK AO2 PK WND 27031/1427 $
53144K9L2 9L220160414065012504/14/16 06:50:31  5-MIN K9L2 141450Z AUTO 27022G28KT 10SM CLR 14/02 A2997 2260 45 2700 260/22G28 RMK AO2 PK WND 27031/1427 $
53144K9L2 9L220160414065514804/14/16 06:55:31  5-MIN K9L2 141455Z AUTO 27022G29KT 10SM CLR 14/02 A2998 2250 45 2700 260/22G29 RMK AO2 PK WND 27031/1427 SLP145 T01390022 56005 $
53144K9L2 9L220160414070012504/14/16 07:00:31  5-MIN K9L2 141500Z AUTO 27021G29KT 10SM CLR 14/02 A2997 2260 45 2700 260/21G29 RMK AO2 PK WND 27029/1457 $
53144K9L2 9L220160414070512504/14/16 07:05:31  5-MIN K9L2 141505Z AUTO 27024G34KT 10SM CLR 14/02 A2997 2260 45 2700 260/24G34 RMK AO2 PK WND 28034/1503 $
53144K9L2 9L220160414071012504/14/16 07:10:31  5-MIN K9L2 141510Z AUTO 27023G34KT 10SM CLR 14/02 A2997 2260 45 2700 260/23G34 RMK AO2 PK WND 28034/1503 $
53144K9L2 9L220160414071512504/14/16 07:15:31  5-MIN K9L2 141515Z AUTO 26022G29KT 10SM CLR 14/02 A2997 2260 45 2700 250/22G29 RMK AO2 PK WND 28034/1503 $
53144K9L2 9L220160414072012504/14/16 07:20:31  5-MIN K9L2 141520Z AUTO 26020G29KT 10SM CLR 14/02 A2997 2260 45 2700 250/20G29 RMK AO2 PK WND 28034/1503 $
53144K9L2 9L220160414072512504/14/16 07:25:31  5-MIN K9L2 141525Z AUTO 26022G29KT 10SM CLR 14/02 A2997 2260 45 2700 250/22G29 RMK AO2 PK WND 28034/1503 $
53144K9L2 9L220160414073012504/14/16 07:30:31  5-MIN K9L2 141530Z AUTO 27024G31KT 10SM CLR 14/02 A2997 2260 43 2800 260/24G31 RMK AO2 PK WND 28034/1503 $
53144K9L2 9L220160414073512504/14/16 07:35:31  5-MIN K9L2 141535Z AUTO 27022G31KT 10SM CLR 14/02 A2997 2250 43 2800 260/22G31 RMK AO2 PK WND 28034/1503 $
53144K9L2 9L220160414074012504/14/16 07:40:31  5-MIN K9L2 141540Z AUTO 27024G30KT 10SM CLR 15/02 A2997 2260 42 2800 260/24G30 RMK AO2 PK WND 28034/1503 $
53144K9L2 9L220160414074512504/14/16 07:45:31  5-MIN K9L2 141545Z AUTO 27023G30KT 10SM CLR 15/02 A2996 2260 42 2800 250/23G30 RMK AO2 PK WND 28034/1503 $
53144K9L2 9L220160414075012504/14/16 07:50:31  5-MIN K9L2 141550Z AUTO 27026G34KT 10SM CLR 16/02 A2996 2260 39 2900 260/26G34 RMK AO2 PK WND 26034/1550 $
53144K9L2 9L220160414075514204/14/16 07:55:31  5-MIN K9L2 141555Z AUTO 26028G35KT 10SM CLR 16/02 A2996 2270 39 2900 250/28G35 RMK AO2 PK WND 27035/1555 SLP139 T01560017 $
53144K9L2 9L220160414080012504/14/16 08:00:31  5-MIN K9L2 141600Z AUTO 26026G35KT 10SM CLR 16/01 A2996 2270 37 2900 250/26G35 RMK AO2 PK WND 26034/1559 $
53144K9L2 9L220160414080512504/14/16 08:05:31  5-MIN K9L2 141605Z AUTO 27025G35KT 10SM CLR 16/01 A2996 2260 36 3000 250/25G35 RMK AO2 PK WND 27035/1605 $
53144K9L2 9L220160414081012504/14/16 08:10:31  5-MIN K9L2 141610Z AUTO 27020G35KT 10SM CLR 16/01 A2997 2260 34 3000 250/20G35 RMK AO2 PK WND 27035/1605 $
53144K9L2 9L220160414081512504/14/16 08:15:31  5-MIN K9L2 141615Z AUTO 27019G30KT 10SM CLR 17/00 A2997 2260 32 3000 260/19G30 RMK AO2 PK WND 27035/1605 $
53144K9L2 9L220160414082012504/14/16 08:20:31  5-MIN K9L2 141620Z AUTO 27018G27KT 10SM CLR 17/00 A2997 2260 31 3100 250/18G27 RMK AO2 PK WND 27035/1605 $
53144K9L2 9L220160414082512604/14/16 08:25:31  5-MIN K9L2 141625Z AUTO 26020G27KT 10SM CLR 17/M01 A2997 2260 29 3100 250/20G27 RMK AO2 PK WND 27035/1605 $
53144K9L2 9L220160414083012604/14/16 08:30:31  5-MIN K9L2 141630Z AUTO 27015G26KT 10SM CLR 17/M02 A2997 2260 27 3100 250/15G26 RMK AO2 PK WND 27035/1605 $
53144K9L2 9L220160414083512604/14/16 08:35:31  5-MIN K9L2 141635Z AUTO 26021G26KT 10SM CLR 18/M02 A2996 2260 26 3200 250/21G26 RMK AO2 PK WND 27035/1605 $
53144K9L2 9L220160414084012604/14/16 08:40:31  5-MIN K9L2 141640Z AUTO 26022G30KT 10SM CLR 18/M03 A2996 2270 24 3200 250/22G30 RMK AO2 PK WND 27035/1605 $
53144K9L2 9L220160414084512604/14/16 08:45:31  5-MIN K9L2 141645Z AUTO 27022G33KT 10SM CLR 18/M04 A2995 2270 21 3200 260/22G33 RMK AO2 PK WND 27035/1605 $
53144K9L2 9L220160414085012604/14/16 08:50:31  5-MIN K9L2 141650Z AUTO 26023G33KT 10SM CLR 18/M04 A2995 2270 21 3200 250/23G33 RMK AO2 PK WND 27035/1605 $
53144K9L2 9L220160414085514304/14/16 08:55:31  5-MIN K9L2 141655Z AUTO 26021G30KT 10SM CLR 19/M04 A2995 2280 20 3300 250/21G30 RMK AO2 PK WND 27035/1605 SLP133 T01891044 $
53144K9L2 9L220160414090012604/14/16 09:00:31  5-MIN K9L2 141700Z AUTO 27024G32KT 10SM CLR 19/M04 A2994 2280 20 3400 260/24G32 RMK AO2 PK WND 25032/1700 $
53144K9L2 9L220160416041510204/16/16 04:15:31  5-MIN K9L2 161215Z AUTO 00000KT 10SM CLR 06/M11 A3008 2160 28 1600 000/00 RMK AO2 $
53144K9L2 9L220160416042010204/16/16 04:20:31  5-MIN K9L2 161220Z AUTO 00000KT 10SM CLR 08/M11 A3008 2160 25 1900 000/00 RMK AO2 $
53144K9L2 9L220160416042510204/16/16 04:25:31  5-MIN K9L2 161225Z AUTO 00000KT 10SM CLR 07/M11 A3008 2160 27 1700 000/00 RMK AO2 $
53144K9L2 9L220160416043010204/16/16 04:30:31  5-MIN K9L2 161230Z AUTO 00000KT 10SM CLR 07/M11 A3008 2160 26 1800 000/00 RMK AO2 $
53144K9L2 9L220160416043510204/16/16 04:35:31  5-MIN K9L2 161235Z AUTO 00000KT 10SM CLR 08/M11 A3008 2160 25 1800 000/00 RMK AO2 $
53144K9L2 9L220160416044010204/16/16 04:40:31  5-MIN K9L2 161240Z AUTO 00000KT 10SM CLR 08/M11 A3008 2160 25 1800 000/00 RMK AO2 $
53144K9L2 9L220160416044510204/16/16 04:45:31  5-MIN K9L2 161245Z AUTO 00000KT 10SM CLR 07/M11 A3008 2160 27 1700 000/00 RMK AO2 $
53144K9L2 9L220160416045010204/16/16 04:50:31  5-MIN K9L2 161250Z AUTO 00000KT 10SM CLR 05/M11 A3008 2160 30 1500 000/00 RMK AO2 $
53144K9L2 9L220160416045511904/16/16 04:55:31  5-MIN K9L2 161255Z AUTO 00000KT 10SM CLR 04/M12 A3008 2160 30 1400 000/00 RMK AO2 SLP184 T00441117 $
53144K9L2 9L220160416050010204/16/16 05:00:31  5-MIN K9L2 161300Z AUTO 00000KT 10SM CLR 04/M12 A3008 2150 30 1400 000/00 RMK AO2 $
53144K9L2 9L220160416050510204/16/16 05:05:31  5-MIN K9L2 161305Z AUTO 00000KT 10SM CLR 04/M12 A3008 2150 31 1400 000/00 RMK AO2 $
53144K9L2 9L220160416051010204/16/16 05:10:31  5-MIN K9L2 161310Z AUTO 00000KT 10SM CLR 04/M12 A3008 2150 31 1400 000/00 RMK AO2 $
53144K9L2 9L220160416051510204/16/16 05:15:31  5-MIN K9L2 161315Z AUTO 00000KT 10SM CLR 04/M12 A3009 2150 31 1400 000/00 RMK AO2 $
53144K9L2 9L220160416052010204/16/16 05:20:31  5-MIN K9L2 161320Z AUTO 00000KT 10SM CLR 04/M12 A3009 2150 30 1400 000/00 RMK AO2 $
53144K9L2 9L220160416052510204/16/16 05:25:31  5-MIN K9L2 161325Z AUTO 00000KT 10SM CLR 04/M12 A3009 2150 31 1400 000/00 RMK AO2 $
53144K9L2 9L220160416053010204/16/16 05:30:31  5-MIN K9L2 161330Z AUTO 00000KT 10SM CLR 04/M12 A3009 2150 31 1400 000/00 RMK AO2 $
53144K9L2 9L220160416053510204/16/16 05:35:31  5-MIN K9L2 161335Z AUTO VRB03KT 10SM CLR 04/M12 A3009 2150 31 1400 VRB/03 RMK AO2 $
53144K9L2 9L220160416054010204/16/16 05:40:31  5-MIN K9L2 161340Z AUTO 00000KT 10SM CLR 04/M11 A3009 2140 31 1400 000/00 RMK AO2 $
53144K9L2 9L220160416054510204/16/16 05:45:31  5-MIN K9L2 161345Z AUTO 00000KT 10SM CLR 05/M11 A3009 2140 30 1500 000/00 RMK AO2 $
53144K9L2 9L220160416055010204/16/16 05:50:31  5-MIN K9L2 161350Z AUTO 00000KT 10SM CLR 06/M11 A3009 2140 29 1600 000/00 RMK AO2 $
53144K9L2 9L220160416055511904/16/16 05:55:31  5-MIN K9L2 161355Z AUTO 00000KT 10SM CLR 07/M11 A3010 2140 28 1700 000/00 RMK AO2 SLP190 T00671106 $
53144K9L2 9L220160416060010204/16/16 06:00:31  5-MIN K9L2 161400Z AUTO 00000KT 10SM CLR 07/M11 A3010 2140 27 1800 000/00 RMK AO2 $
53144K9L2 9L220160416060510204/16/16 06:05:31  5-MIN K9L2 161405Z AUTO 00000KT 10SM CLR 08/M11 A3010 2140 26 1800 000/00 RMK AO2 $
53144K9L2 9L220160416061010204/16/16 06:10:31  5-MIN K9L2 161410Z AUTO 00000KT 10SM CLR 09/M10 A3010 2130 25 1900 000/00 RMK AO2 $
53144K9L2 9L220160416061510204/16/16 06:15:31  5-MIN K9L2 161415Z AUTO 00000KT 10SM CLR 10/M10 A3010 2130 23 2100 000/00 RMK AO2 $
53144K9L2 9L220160416062010204/16/16 06:20:31  5-MIN K9L2 161420Z AUTO 00000KT 10SM CLR 11/M10 A3011 2130 22 2100 000/00 RMK AO2 $
53144K9L2 9L220160416062510204/16/16 06:25:31  5-MIN K9L2 161425Z AUTO 00000KT 10SM CLR 10/M10 A3011 2130 23 2100 000/00 RMK AO2 $
53144K9L2 9L220160416063010204/16/16 06:30:31  5-MIN K9L2 161430Z AUTO 00000KT 10SM CLR 09/M11 A3011 2120 23 2000 000/00 RMK AO2 $
53144K9L2 9L220160416063510204/16/16 06:35:31  5-MIN K9L2 161435Z AUTO 18004KT 10SM CLR 09/M11 A3012 2120 23 2000 170/04 RMK AO2 $
53144K9L2 9L220160416064010204/16/16 06:40:31  5-MIN K9L2 161440Z AUTO 17003KT 10SM CLR 09/M10 A3012 2120 25 1900 160/03 RMK AO2 $
53144K9L2 9L220160416064510204/16/16 06:45:31  5-MIN K9L2 161445Z AUTO 20004KT 10SM CLR 09/M09 A3012 2120 25 2000 180/04 RMK AO2 $
53144K9L2 9L220160416065010204/16/16 06:50:31  5-MIN K9L2 161450Z AUTO 00000KT 10SM CLR 10/M09 A3012 2120 24 2100 000/00 RMK AO2 $
53144K9L2 9L220160416065512504/16/16 06:55:31  5-MIN K9L2 161455Z AUTO 22003KT 10SM CLR 12/M09 A3012 2120 22 2300 210/03 RMK AO2 SLP195 T01171094 53001 $
53144K9L2 9L220160416070010204/16/16 07:00:31  5-MIN K9L2 161500Z AUTO 20005KT 10SM CLR 12/M10 A3012 2120 21 2300 190/05 RMK AO2 $
53144K9L2 9L220160416070510204/16/16 07:05:31  5-MIN K9L2 161505Z AUTO 20003KT 10SM CLR 13/M10 A3012 2120 19 2400 190/03 RMK AO2 $
53144K9L2 9L220160416071010204/16/16 07:10:31  5-MIN K9L2 161510Z AUTO 26003KT 10SM CLR 13/M10 A3012 2120 19 2500 250/03 RMK AO2 $
53144K9L2 9L220160416071510204/16/16 07:15:31  5-MIN K9L2 161515Z AUTO 00000KT 10SM CLR 14/M10 A3012 2120 18 2500 000/00 RMK AO2 $
53144K9L2 9L220160416072010204/16/16 07:20:31  5-MIN K9L2 161520Z AUTO VRB03KT 10SM CLR 16/M10 A3012 2120 16 2700 VRB/03 RMK AO2 $
53144K9L2 9L220160416072510204/16/16 07:25:31  5-MIN K9L2 161525Z AUTO 18006KT 10SM CLR 15/M10 A3012 2120 17 2600 170/06 RMK AO2 $
53144K9L2 9L220160416073010204/16/16 07:30:31  5-MIN K9L2 161530Z AUTO 17009KT 10SM CLR 13/M09 A3012 2120 19 2500 160/09 RMK AO2 $
53144K9L2 9L220160416073510204/16/16 07:35:31  5-MIN K9L2 161535Z AUTO 21004KT 10SM CLR 14/M09 A3012 2120 19 2500 200/04 RMK AO2 $
53144K9L2 9L220160416074010204/16/16 07:40:31  5-MIN K9L2 161540Z AUTO VRB03KT 10SM CLR 14/M10 A3012 2120 17 2600 VRB/03 RMK AO2 $
53144K9L2 9L220160416074510204/16/16 07:45:31  5-MIN K9L2 161545Z AUTO 18006KT 10SM CLR 15/M10 A3012 2120 17 2600 170/06 RMK AO2 $
53144K9L2 9L220160416075010204/16/16 07:50:31  5-MIN K9L2 161550Z AUTO 18003KT 10SM CLR 15/M10 A3012 2120 17 2600 170/03 RMK AO2 $
53144K9L2 9L220160416075511904/16/16 07:55:31  5-MIN K9L2 161555Z AUTO 00000KT 10SM CLR 15/M11 A3012 2120 16 2700 000/00 RMK AO2 SLP194 T01501106 $
53144K9L2 9L220160416080010204/16/16 08:00:31  5-MIN K9L2 161600Z AUTO 15005KT 10SM CLR 16/M11 A3012 2120 15 2700 140/05 RMK AO2 $
53144K9L2 9L220160416080510204/16/16 08:05:31  5-MIN K9L2 161605Z AUTO VRB05KT 10SM CLR 16/M11 A3012 2120 15 2700 VRB/05 RMK AO2 $
53144K9L2 9L220160416081010204/16/16 08:10:31  5-MIN K9L2 161610Z AUTO 14004KT 10SM CLR 16/M10 A3012 2120 15 2800 130/04 RMK AO2 $
53144K9L2 9L220160416081510204/16/16 08:15:31  5-MIN K9L2 161615Z AUTO 14005KT 10SM CLR 16/M10 A3012 2120 15 2800 120/05 RMK AO2 $
53144K9L2 9L220160416082010204/16/16 08:20:31  5-MIN K9L2 161620Z AUTO 15004KT 10SM CLR 16/M10 A3012 2120 15 2800 140/04 RMK AO2 $
53144K9L2 9L220160416082510204/16/16 08:25:31  5-MIN K9L2 161625Z AUTO VRB04KT 10SM CLR 16/M10 A3012 2120 15 2800 VRB/04 RMK AO2 $
53144K9L2 9L220160416083010204/16/16 08:30:31  5-MIN K9L2 161630Z AUTO 17005KT 10SM CLR 17/M10 A3011 2130 15 2900 160/05 RMK AO2 $
53144K9L2 9L220160416083510204/16/16 08:35:31  5-MIN K9L2 161635Z AUTO 13004KT 10SM CLR 17/M10 A3011 2120 15 2800 120/04 RMK AO2 $
53144K9L2 9L220160416084010204/16/16 08:40:31  5-MIN K9L2 161640Z AUTO 14004KT 10SM CLR 17/M10 A3011 2120 14 2900 120/04 RMK AO2 $
53144K9L2 9L220160416084510204/16/16 08:45:31  5-MIN K9L2 161645Z AUTO VRB03KT 10SM CLR 18/M10 A3011 2130 14 3000 VRB/03 RMK AO2 $
53144K9L2 9L220160416085010804/16/16 08:50:31  5-MIN K9L2 161650Z AUTO 04011G14KT 10SM CLR 18/M10 A3011 2130 13 3000 030/11G14 RMK AO2 $
53144K9L2 9L220160416085512504/16/16 08:55:31  5-MIN K9L2 161655Z AUTO 03009G14KT 10SM CLR 20/M11 A3011 2130 12 3200 010/09G14 RMK AO2 SLP188 T02001106 $
53144K9L2 9L220160416090010204/16/16 09:00:31  5-MIN K9L2 161700Z AUTO 04012KT 10SM CLR 20/M11 A3011 2130 11 3200 030/12 RMK AO2 $
53144K9L2 9L220160416090510804/16/16 09:05:31  5-MIN K9L2 161705Z AUTO 04012G17KT 10SM CLR 20/M11 A3011 2130 11 3200 030/12G17 RMK AO2 $
53144K9L2 9L220160416091010204/16/16 09:10:31  5-MIN K9L2 161710Z AUTO 05012KT 10SM CLR 21/M11 A3011 2130 11 3300 030/12 RMK AO2 $
53144K9L2 9L220160416091510804/16/16 09:15:31  5-MIN K9L2 161715Z AUTO 04012G20KT 10SM CLR 21/M11 A3011 2130 11 3300 020/12G20 RMK AO2 $
53144K9L2 9L220160416092010804/16/16 09:20:31  5-MIN K9L2 161720Z AUTO 02011G20KT 10SM CLR 21/M11 A3011 2130 11 3300 010/11G20 RMK AO2 $
53144K9L2 9L220160416092510204/16/16 09:25:31  5-MIN K9L2 161725Z AUTO 05009KT 10SM CLR 21/M11 A3011 2130 11 3300 040/09 RMK AO2 $
53144K9L2 9L220160416093010204/16/16 09:30:31  5-MIN K9L2 161730Z AUTO 02011KT 10SM CLR 21/M11 A3011 2130 10 3400 010/11 RMK AO2 $
53144K9L2 9L220160416093510204/16/16 09:35:31  5-MIN K9L2 161735Z AUTO 05009KT 10SM CLR 21/M11 A3011 2130 10 3400 040/09 RMK AO2 $
53144K9L2 9L220160416094010204/16/16 09:40:31  5-MIN K9L2 161740Z AUTO 07010KT 10SM CLR 21/M11 A3011 2130 10 3400 050/10 RMK AO2 $
53144K9L2 9L220160416094510804/16/16 09:45:31  5-MIN K9L2 161745Z AUTO 05012G18KT 10SM CLR 21/M11 A3011 2130 10 3400 040/12G18 RMK AO2 $
53144K9L2 9L220160416095010804/16/16 09:50:31  5-MIN K9L2 161750Z AUTO 02009G18KT 10SM CLR 21/M12 A3011 2130 10 3400 010/09G18 RMK AO2 $
53144K9L2 9L220160416095514304/16/16 09:55:31  5-MIN K9L2 161755Z AUTO 05009G17KT 10SM CLR 22/M12 A3011 2130 09 3400 030/09G17 RMK AO2 SLP185 T02171117 10217 20039 53016 $
53144K9L2 9L220160416100010804/16/16 10:00:31  5-MIN K9L2 161800Z AUTO 06013G17KT 10SM CLR 22/M12 A3010 2130 09 3400 040/13G17 RMK AO2 $
53144K9L2 9L220160416100510804/16/16 10:05:31  5-MIN K9L2 161805Z AUTO 06009G16KT 10SM CLR 22/M11 A3010 2130 10 3400 040/09G16 RMK AO2 $
53144K9L2 9L220160416101010804/16/16 10:10:31  5-MIN K9L2 161810Z AUTO 06013G18KT 10SM CLR 22/M12 A3010 2130 09 3500 040/13G18 RMK AO2 $
53144K9L2 9L220160416101510804/16/16 10:15:31  5-MIN K9L2 161815Z AUTO 03013G18KT 10SM CLR 22/M12 A3010 2130 09 3500 020/13G18 RMK AO2 $
53144K9L2 9L220160416102010804/16/16 10:20:31  5-MIN K9L2 161820Z AUTO 04014G17KT 10SM CLR 22/M12 A3010 2130 09 3500 030/14G17 RMK AO2 $
53144K9L2 9L220160416102510804/16/16 10:25:31  5-MIN K9L2 161825Z AUTO 06007G16KT 10SM CLR 22/M12 A3010 2140 09 3500 050/07G16 RMK AO2 $
53144K9L2 9L220160416103010804/16/16 10:30:31  5-MIN K9L2 161830Z AUTO 06013G17KT 10SM CLR 22/M12 A3010 2130 09 3500 050/13G17 RMK AO2 $
53144K9L2 9L220160416103510804/16/16 10:35:31  5-MIN K9L2 161835Z AUTO 06013G18KT 10SM CLR 22/M12 A3010 2140 09 3500 040/13G18 RMK AO2 $
53144K9L2 9L220160416104012404/16/16 10:40:31  5-MIN K9L2 161840Z AUTO 05010G18KT 010V080 10SM CLR 22/M12 A3010 2140 09 3500 030/10G18 360V070 RMK AO2 $
53144K9L2 9L220160416104510804/16/16 10:45:31  5-MIN K9L2 161845Z AUTO 06009G16KT 10SM CLR 23/M12 A3010 2140 09 3600 050/09G16 RMK AO2 $
53144K9L2 9L220160416105010804/16/16 10:50:31  5-MIN K9L2 161850Z AUTO 06006G16KT 10SM CLR 22/M12 A3010 2140 09 3500 050/06G16 RMK AO2 $
53144K9L2 9L220160416105511904/16/16 10:55:31  5-MIN K9L2 161855Z AUTO 04006KT 10SM CLR 22/M12 A3010 2140 09 3500 020/06 RMK AO2 SLP182 T02221117 $
53144K9L2 9L220160416110012404/16/16 11:00:31  5-MIN K9L2 161900Z AUTO 01009G15KT 340V050 10SM CLR 23/M12 A3009 2140 08 3600 360/09G15 330V040 RMK AO2 $
53144K9L2 9L220160416110510804/16/16 11:05:31  5-MIN K9L2 161905Z AUTO 03013G19KT 10SM CLR 24/M12 A3009 2150 08 3700 020/13G19 RMK AO2 $
53144K9L2 9L220160416111012404/16/16 11:10:31  5-MIN K9L2 161910Z AUTO 06010G19KT 360V100 10SM CLR 23/M13 A3009 2150 08 3600 040/10G19 350V090 RMK AO2 $
53144K9L2 9L220160416111510804/16/16 11:15:31  5-MIN K9L2 161915Z AUTO 03010G16KT 10SM CLR 23/M12 A3009 2150 08 3600 020/10G16 RMK AO2 $
53144K9L2 9L220160416112010204/16/16 11:20:31  5-MIN K9L2 161920Z AUTO 00000KT 10SM CLR 23/M13 A3008 2150 08 3600 000/00 RMK AO2 $
53144K9L2 9L220160416112511804/16/16 11:25:31  5-MIN K9L2 161925Z AUTO 02008KT 350V060 10SM CLR 23/M12 A3008 2160 08 3600 360/08 340V050 RMK AO2 $
53144K9L2 9L220160416113010204/16/16 11:30:31  5-MIN K9L2 161930Z AUTO VRB06KT 10SM CLR 23/M12 A3008 2160 08 3600 VRB/06 RMK AO2 $
53144K9L2 9L220160416113510204/16/16 11:35:31  5-MIN K9L2 161935Z AUTO 06005KT 10SM CLR 23/M12 A3008 2160 08 3700 050/05 RMK AO2 $
53144K9L2 9L220160416114010204/16/16 11:40:31  5-MIN K9L2 161940Z AUTO 02004KT 10SM CLR 24/M12 A3007 2160 08 3800 360/04 RMK AO2 $
53144K9L2 9L220160416114510204/16/16 11:45:31  5-MIN K9L2 161945Z AUTO VRB05KT 10SM CLR 24/M13 A3007 2160 08 3700 VRB/05 RMK AO2 $
53144K9L2 9L220160416115012404/16/16 11:50:31  5-MIN K9L2 161950Z AUTO 03012G18KT 350V080 10SM CLR 24/M13 A3006 2180 07 3800 010/12G18 340V070 RMK AO2 $
53144K9L2 9L220160416115512504/16/16 11:55:31  5-MIN K9L2 161955Z AUTO 04008G18KT 10SM CLR 24/M13 A3006 2170 07 3800 030/08G18 RMK AO2 SLP167 T02441128 $
53144K9L2 9L220160416120010804/16/16 12:00:31  5-MIN K9L2 162000Z AUTO VRB03G14KT 10SM CLR 24/M13 A3006 2170 08 3700 VRB/03G14 RMK AO2 $
53144K9L2 9L220160416120510204/16/16 12:05:31  5-MIN K9L2 162005Z AUTO VRB03KT 10SM CLR 24/M13 A3006 2180 07 3800 VRB/03 RMK AO2 $
53144K9L2 9L220160416121010204/16/16 12:10:31  5-MIN K9L2 162010Z AUTO 06009KT 10SM CLR 25/M13 A3006 2180 07 3900 040/09 RMK AO2 $
53144K9L2 9L220160416121510804/16/16 12:15:31  5-MIN K9L2 162015Z AUTO 07010G18KT 10SM CLR 25/M14 A3005 2180 06 3900 050/10G18 RMK AO2 $
53144K9L2 9L220160416122010804/16/16 12:20:31  5-MIN K9L2 162020Z AUTO 03014G21KT 10SM CLR 26/M14 A3005 2180 06 4000 020/14G21 RMK AO2 $
53144K9L2 9L220160416122510804/16/16 12:25:31  5-MIN K9L2 162025Z AUTO 05013G22KT 10SM CLR 26/M14 A3005 2180 06 4000 040/13G22 RMK AO2 $
53144K9L2 9L220160416123010804/16/16 12:30:31  5-MIN K9L2 162030Z AUTO 06014G22KT 10SM CLR 26/M14 A3005 2180 06 4000 050/14G22 RMK AO2 $
53144K9L2 9L220160416123510804/16/16 12:35:31  5-MIN K9L2 162035Z AUTO 03011G20KT 10SM CLR 26/M15 A3005 2180 06 3900 020/11G20 RMK AO2 $
53144K9L2 9L220160416124010804/16/16 12:40:31  5-MIN K9L2 162040Z AUTO 07010G18KT 10SM CLR 26/M14 A3005 2180 06 4000 050/10G18 RMK AO2 $
53144K9L2 9L220160416124510804/16/16 12:45:31  5-MIN K9L2 162045Z AUTO 07010G16KT 10SM CLR 26/M14 A3005 2180 06 3900 060/10G16 RMK AO2 $
53144K9L2 9L220160416125010804/16/16 12:50:31  5-MIN K9L2 162050Z AUTO 07012G17KT 10SM CLR 26/M14 A3005 2190 06 3900 060/12G17 RMK AO2 $
53144K9L2 9L220160416125513104/16/16 12:55:31  5-MIN K9L2 162055Z AUTO 07007G17KT 10SM CLR 26/M14 A3005 2180 06 3900 060/07G17 RMK AO2 SLP166 T02561139 58005 $
53144K9L2 9L220160416130010804/16/16 13:00:31  5-MIN K9L2 162100Z AUTO 08009G17KT 10SM CLR 25/M14 A3005 2180 06 3900 060/09G17 RMK AO2 $
53144K9L2 9L220160416130512404/16/16 13:05:31  5-MIN K9L2 162105Z AUTO 09011G23KT 360V150 10SM CLR 26/M14 A3004 2200 06 3900 080/11G23 350V140 RMK AO2 $
53144K9L2 9L220160416131010804/16/16 13:10:31  5-MIN K9L2 162110Z AUTO 04007G23KT 10SM CLR 26/M14 A3004 2190 06 4000 020/07G23 RMK AO2 $
53144K9L2 9L220160416131510804/16/16 13:15:31  5-MIN K9L2 162115Z AUTO 03013G18KT 10SM CLR 27/M14 A3004 2190 06 4100 020/13G18 RMK AO2 $
53144K9L2 9L220160416132010804/16/16 13:20:31  5-MIN K9L2 162120Z AUTO 05011G18KT 10SM CLR 27/M14 A3004 2190 06 4100 040/11G18 RMK AO2 $
53144K9L2 9L220160416132510804/16/16 13:25:31  5-MIN K9L2 162125Z AUTO 08006G17KT 10SM CLR 26/M14 A3004 2190 06 4000 070/06G17 RMK AO2 $
53144K9L2 9L220160416133010804/16/16 13:30:31  5-MIN K9L2 162130Z AUTO 07010G16KT 10SM CLR 27/M14 A3004 2190 06 4100 050/10G16 RMK AO2 $
53144K9L2 9L220160416133510804/16/16 13:35:31  5-MIN K9L2 162135Z AUTO 05011G17KT 10SM CLR 26/M14 A3004 2190 06 4000 040/11G17 RMK AO2 $
53144K9L2 9L220160416134010804/16/16 13:40:31  5-MIN K9L2 162140Z AUTO 06009G17KT 10SM CLR 27/M14 A3004 2200 06 4100 050/09G17 RMK AO2 $
53144K9L2 9L220160416134510804/16/16 13:45:31  5-MIN K9L2 162145Z AUTO 08009G17KT 10SM CLR 26/M14 A3003 2200 06 4000 070/09G17 RMK AO2 $
53144K9L2 9L220160416135010804/16/16 13:50:31  5-MIN K9L2 162150Z AUTO 04006G14KT 10SM CLR 26/M14 A3003 2200 06 4000 030/06G14 RMK AO2 $
53144K9L2 9L220160416135512504/16/16 13:55:31  5-MIN K9L2 162155Z AUTO 05013G18KT 10SM CLR 27/M14 A3003 2200 06 4100 040/13G18 RMK AO2 SLP159 T02671144 $
53144K9L2 9L220160416140010804/16/16 14:00:31  5-MIN K9L2 162200Z AUTO 02010G20KT 10SM CLR 27/M15 A3003 2200 05 4100 010/10G20 RMK AO2 $
53144K9L2 9L220160416140510804/16/16 14:05:31  5-MIN K9L2 162205Z AUTO VRB03G20KT 10SM CLR 26/M15 A3003 2200 06 4000 VRB/03G20 RMK AO2 $
53144K9L2 9L220160416141010804/16/16 14:10:31  5-MIN K9L2 162210Z AUTO 07010G15KT 10SM CLR 27/M14 A3002 2210 06 4100 060/10G15 RMK AO2 $
53144K9L2 9L220160416141510804/16/16 14:15:31  5-MIN K9L2 162215Z AUTO 05011G15KT 10SM CLR 27/M14 A3002 2210 05 4100 030/11G15 RMK AO2 $
53144K9L2 9L220160416142010204/16/16 14:20:31  5-MIN K9L2 162220Z AUTO VRB06KT 10SM CLR 27/M15 A3002 2210 05 4100 VRB/06 RMK AO2 $
53144K9L2 9L220160416142510804/16/16 14:25:31  5-MIN K9L2 162225Z AUTO 04010G15KT 10SM CLR 27/M15 A3002 2210 05 4100 030/10G15 RMK AO2 $
53144K9L2 9L220160416143010804/16/16 14:30:31  5-MIN K9L2 162230Z AUTO 05011G16KT 10SM CLR 27/M15 A3002 2210 05 4200 040/11G16 RMK AO2 $
53144K9L2 9L220160416143510804/16/16 14:35:31  5-MIN K9L2 162235Z AUTO 08006G16KT 10SM CLR 27/M14 A3001 2220 05 4200 060/06G16 RMK AO2 $
53144K9L2 9L220160416144010804/16/16 14:40:31  5-MIN K9L2 162240Z AUTO 05011G20KT 10SM CLR 27/M15 A3001 2220 05 4200 030/11G20 RMK AO2 $
53144K9L2 9L220160416144510804/16/16 14:45:31  5-MIN K9L2 162245Z AUTO 08007G20KT 10SM CLR 27/M15 A3001 2220 05 4200 070/07G20 RMK AO2 $
53144K9L2 9L220160416145010204/16/16 14:50:31  5-MIN K9L2 162250Z AUTO 06009KT 10SM CLR 27/M15 A3001 2220 05 4100 040/09 RMK AO2 $
53144K9L2 9L220160416145512504/16/16 14:55:31  5-MIN K9L2 162255Z AUTO 04012G16KT 10SM CLR 28/M16 A3001 2220 05 4200 030/12G16 RMK AO2 SLP151 T02781161 $
53144K9L2 9L220160416150010204/16/16 15:00:31  5-MIN K9L2 162300Z AUTO 05014KT 10SM CLR 28/M16 A3001 2220 05 4200 040/14 RMK AO2 $
53144K9L2 9L220160416150510804/16/16 15:05:31  5-MIN K9L2 162305Z AUTO 04007G15KT 10SM CLR 27/M16 A3001 2220 05 4200 030/07G15 RMK AO2 $
53144K9L2 9L220160416151010804/16/16 15:10:31  5-MIN K9L2 162310Z AUTO 06012G15KT 10SM CLR 27/M16 A3001 2220 05 4200 040/12G15 RMK AO2 $
53144K9L2 9L220160416151510804/16/16 15:15:31  5-MIN K9L2 162315Z AUTO 05009G15KT 10SM CLR 27/M16 A3001 2220 05 4200 030/09G15 RMK AO2 $
53144K9L2 9L220160416152011804/16/16 15:20:31  5-MIN K9L2 162320Z AUTO 06010KT 030V100 10SM CLR 27/M16 A3001 2220 05 4100 050/10 020V090 RMK AO2 $
53144K9L2 9L220160416152510204/16/16 15:25:31  5-MIN K9L2 162325Z AUTO 03006KT 10SM CLR 27/M16 A3001 2220 05 4200 020/06 RMK AO2 $
53144K9L2 9L220160416153010804/16/16 15:30:31  5-MIN K9L2 162330Z AUTO 09008G14KT 10SM CLR 27/M15 A3001 2220 05 4200 080/08G14 RMK AO2 $
53144K9L2 9L220160416153510804/16/16 15:35:31  5-MIN K9L2 162335Z AUTO 06009G17KT 10SM CLR 27/M15 A3001 2220 05 4100 050/09G17 RMK AO2 $
53144K9L2 9L220160416154010804/16/16 15:40:31  5-MIN K9L2 162340Z AUTO 04006G17KT 10SM CLR 27/M15 A3001 2220 05 4200 030/06G17 RMK AO2 $
53144K9L2 9L220160416154510804/16/16 15:45:31  5-MIN K9L2 162345Z AUTO 05015G21KT 10SM CLR 27/M15 A3000 2230 05 4200 030/15G21 RMK AO2 $
53144K9L2 9L220160416155010804/16/16 15:50:31  5-MIN K9L2 162350Z AUTO 04009G21KT 10SM CLR 27/M16 A3000 2230 05 4200 030/09G21 RMK AO2 $
53144K9L2 9L220160416155514304/16/16 15:55:31  5-MIN K9L2 162355Z AUTO 06008G15KT 10SM CLR 27/M16 A3000 2230 05 4200 050/08G15 RMK AO2 SLP151 T02721161 10278 20217 58018 $
53144K9L2 9L220160416160010804/16/16 16:00:31  5-MIN K9L2 170000Z AUTO 06012G15KT 10SM CLR 27/M16 A3000 2230 05 4200 050/12G15 RMK AO2 $
53144K9L2 9L220160416160510804/16/16 16:05:31  5-MIN K9L2 170005Z AUTO 07011G16KT 10SM CLR 27/M16 A3000 2230 05 4200 050/11G16 RMK AO2 $
53144K9L2 9L220160416161010804/16/16 16:10:31  5-MIN K9L2 170010Z AUTO 06008G16KT 10SM CLR 27/M16 A3000 2230 05 4100 040/08G16 RMK AO2 $
53144K9L2 9L220160416161510204/16/16 16:15:31  5-MIN K9L2 170015Z AUTO 06010KT 10SM CLR 27/M16 A3000 2230 05 4200 050/10 RMK AO2 $
53144K9L2 9L220160416162010804/16/16 16:20:31  5-MIN K9L2 170020Z AUTO 08008G15KT 10SM CLR 27/M16 A3000 2230 05 4100 070/08G15 RMK AO2 $
53144K9L2 9L220160416162510204/16/16 16:25:31  5-MIN K9L2 170025Z AUTO 07009KT 10SM CLR 27/M16 A3000 2230 05 4100 060/09 RMK AO2 $
53144K9L2 9L220160416163010804/16/16 16:30:31  5-MIN K9L2 170030Z AUTO 06011G17KT 10SM CLR 27/M16 A3000 2230 05 4100 050/11G17 RMK AO2 $
53144K9L2 9L220160416163510804/16/16 16:35:31  5-MIN K9L2 170035Z AUTO 06010G17KT 10SM CLR 27/M16 A3000 2230 05 4100 050/10G17 RMK AO2 $
53144K9L2 9L220160416164010204/16/16 16:40:31  5-MIN K9L2 170040Z AUTO 05011KT 10SM CLR 27/M17 A3000 2230 04 4200 040/11 RMK AO2 $
53144K9L2 9L220160416164510804/16/16 16:45:31  5-MIN K9L2 170045Z AUTO 06013G17KT 10SM CLR 27/M17 A3000 2230 05 4100 050/13G17 RMK AO2 $
53144K9L2 9L220160416165010804/16/16 16:50:31  5-MIN K9L2 170050Z AUTO 05007G17KT 10SM CLR 27/M16 A3000 2230 05 4100 040/07G17 RMK AO2 $
53144K9L2 9L220160416165511904/16/16 16:55:31  5-MIN K9L2 170055Z AUTO 06008KT 10SM CLR 27/M16 A3000 2230 05 4100 040/08 RMK AO2 SLP154 T02671161 $
53144K9L2 9L220160416170010804/16/16 17:00:31  5-MIN K9L2 170100Z AUTO 06008G14KT 10SM CLR 27/M16 A3000 2230 05 4100 050/08G14 RMK AO2 $
53144K9L2 9L220160416170510204/16/16 17:05:31  5-MIN K9L2 170105Z AUTO 07011KT 10SM CLR 26/M16 A3000 2230 05 4000 060/11 RMK AO2 $
53144K9L2 9L220160416171010204/16/16 17:10:31  5-MIN K9L2 170110Z AUTO 08010KT 10SM CLR 26/M17 A3000 2230 05 4000 060/10 RMK AO2 $
53144K9L2 9L220160416171510204/16/16 17:15:31  5-MIN K9L2 170115Z AUTO 08008KT 10SM CLR 26/M16 A3000 2230 05 4000 070/08 RMK AO2 $
53144K9L2 9L220160416172010804/16/16 17:20:31  5-MIN K9L2 170120Z AUTO 06012G16KT 10SM CLR 26/M17 A3000 2230 05 4000 040/12G16 RMK AO2 $
53144K9L2 9L220160416172510204/16/16 17:25:31  5-MIN K9L2 170125Z AUTO 07010KT 10SM CLR 26/M17 A3000 2230 05 4000 050/10 RMK AO2 $
53144K9L2 9L220160416173010204/16/16 17:30:31  5-MIN K9L2 170130Z AUTO 05009KT 10SM CLR 26/M17 A3000 2230 05 4000 040/09 RMK AO2 $
53144K9L2 9L220160416173510204/16/16 17:35:31  5-MIN K9L2 170135Z AUTO 06008KT 10SM CLR 26/M17 A3000 2220 05 4000 050/08 RMK AO2 $
53144K9L2 9L220160416174010204/16/16 17:40:31  5-MIN K9L2 170140Z AUTO 07011KT 10SM CLR 26/M16 A3001 2220 05 4000 060/11 RMK AO2 $
53144K9L2 9L220160416174510204/16/16 17:45:31  5-MIN K9L2 170145Z AUTO 07010KT 10SM CLR 26/M16 A3001 2220 05 4000 060/10 RMK AO2 $
53144K9L2 9L220160416175010204/16/16 17:50:31  5-MIN K9L2 170150Z AUTO 08008KT 10SM CLR 26/M16 A3001 2220 05 4000 060/08 RMK AO2 $
53144K9L2 9L220160416175511904/16/16 17:55:31  5-MIN K9L2 170155Z AUTO 08007KT 10SM CLR 25/M16 A3001 2220 06 3900 070/07 RMK AO2 SLP156 T02501156 $
53144K9L2 9L220160416180010204/16/16 18:00:31  5-MIN K9L2 170200Z AUTO 07005KT 10SM CLR 25/M16 A3001 2220 06 3900 060/05 RMK AO2 $
53144K9L2 9L220160416180510204/16/16 18:05:31  5-MIN K9L2 170205Z AUTO 07005KT 10SM CLR 24/M16 A3001 2220 06 3800 050/05 RMK AO2 $
53144K9L2 9L220160416181010204/16/16 18:10:31  5-MIN K9L2 170210Z AUTO 07004KT 10SM CLR 24/M16 A3001 2220 06 3800 050/04 RMK AO2 $
53144K9L2 9L220160416181510204/16/16 18:15:31  5-MIN K9L2 170215Z AUTO 07005KT 10SM CLR 24/M16 A3001 2220 06 3800 060/05 RMK AO2 $
53144K9L2 9L220160416182010204/16/16 18:20:31  5-MIN K9L2 170220Z AUTO 07003KT 10SM CLR 23/M16 A3001 2220 06 3700 060/03 RMK AO2 $
53144K9L2 9L220160416182510204/16/16 18:25:31  5-MIN K9L2 170225Z AUTO 06003KT 10SM CLR 23/M16 A3002 2210 06 3700 050/03 RMK AO2 $
53144K9L2 9L220160416183010204/16/16 18:30:31  5-MIN K9L2 170230Z AUTO 05003KT 10SM CLR 23/M16 A3002 2210 06 3700 040/03 RMK AO2 $
53144K9L2 9L220160416183510204/16/16 18:35:31  5-MIN K9L2 170235Z AUTO 00000KT 10SM CLR 23/M15 A3002 2210 07 3700 000/00 RMK AO2 $
53144K9L2 9L220160416184010204/16/16 18:40:31  5-MIN K9L2 170240Z AUTO 00000KT 10SM CLR 22/M15 A3002 2210 07 3600 000/00 RMK AO2 $
53144K9L2 9L220160416184510204/16/16 18:45:31  5-MIN K9L2 170245Z AUTO 00000KT 10SM CLR 22/M15 A3002 2210 07 3600 000/00 RMK AO2 $
53144K9L2 9L220160416185010204/16/16 18:50:31  5-MIN K9L2 170250Z AUTO 00000KT 10SM CLR 22/M15 A3002 2210 07 3500 000/00 RMK AO2 $
53144K9L2 9L220160416185512504/16/16 18:55:31  5-MIN K9L2 170255Z AUTO 00000KT 10SM CLR 22/M15 A3002 2210 07 3600 000/00 RMK AO2 SLP159 T02221150 56015 $
53144K9L2 9L220160416190010204/16/16 19:00:31  5-MIN K9L2 170300Z AUTO 00000KT 10SM CLR 22/M15 A3002 2210 07 3500 000/00 RMK AO2 $
53144K9L2 9L220160416190510204/16/16 19:05:31  5-MIN K9L2 170305Z AUTO 00000KT 10SM CLR 22/M15 A3003 2210 07 3500 000/00 RMK AO2 $
53144K9L2 9L220160416191010204/16/16 19:10:31  5-MIN K9L2 170310Z AUTO 00000KT 10SM CLR 21/M15 A3003 2200 08 3500 000/00 RMK AO2 $
53144K9L2 9L220160416191510204/16/16 19:15:31  5-MIN K9L2 170315Z AUTO 00000KT 10SM CLR 21/M15 A3003 2200 08 3500 000/00 RMK AO2 $
53144K9L2 9L220160416192010204/16/16 19:20:31  5-MIN K9L2 170320Z AUTO 00000KT 10SM CLR 22/M15 A3003 2200 07 3500 000/00 RMK AO2 $
53144K9L2 9L220160416192510204/16/16 19:25:31  5-MIN K9L2 170325Z AUTO 00000KT 10SM CLR 20/M15 A3003 2200 08 3300 000/00 RMK AO2 $
53144K9L2 9L220160416193010204/16/16 19:30:31  5-MIN K9L2 170330Z AUTO 00000KT 10SM CLR 21/M15 A3003 2200 08 3400 000/00 RMK AO2 $
53144K9L2 9L220160416193510204/16/16 19:35:31  5-MIN K9L2 170335Z AUTO 27004KT 10SM CLR 20/M15 A3003 2200 08 3300 250/04 RMK AO2 $
53144K9L2 9L220160416194010204/16/16 19:40:31  5-MIN K9L2 170340Z AUTO 28007KT 10SM CLR 17/M13 A3004 2200 12 3000 260/07 RMK AO2 $
53144K9L2 9L220160416194510204/16/16 19:45:31  5-MIN K9L2 170345Z AUTO 27008KT 10SM CLR 17/M09 A3004 2190 15 3000 260/08 RMK AO2 $
53144K9L2 9L220160416195010204/16/16 19:50:31  5-MIN K9L2 170350Z AUTO 28008KT 10SM CLR 18/M05 A3004 2190 20 3100 260/08 RMK AO2 $
53144K9L2 9L220160416195511904/16/16 19:55:31  5-MIN K9L2 170355Z AUTO 28008KT 10SM CLR 18/M03 A3004 2190 22 3100 270/08 RMK AO2 SLP167 T01831033 $
53144K9L2 9L220160416200010204/16/16 20:00:31  5-MIN K9L2 170400Z AUTO 28008KT 10SM CLR 18/M03 A3005 2190 23 3100 270/08 RMK AO2 $
53144K9L2 9L220160416200510204/16/16 20:05:31  5-MIN K9L2 170405Z AUTO 28009KT 10SM CLR 19/M03 A3005 2180 22 3200 270/09 RMK AO2 $
53144K9L2 9L220160416201010204/16/16 20:10:31  5-MIN K9L2 170410Z AUTO 28008KT 10SM CLR 18/M03 A3005 2180 24 3000 270/08 RMK AO2 $
53144K9L2 9L220160416201510204/16/16 20:15:31  5-MIN K9L2 170415Z AUTO 29008KT 10SM CLR 17/M03 A3005 2180 25 3000 280/08 RMK AO2 $
53144K9L2 9L220160416202010204/16/16 20:20:31  5-MIN K9L2 170420Z AUTO 29008KT 10SM CLR 17/M03 A3005 2180 26 2900 270/08 RMK AO2 $
53144K9L2 9L220160416202510204/16/16 20:25:31  5-MIN K9L2 170425Z AUTO 30008KT 10SM CLR 16/M03 A3006 2180 27 2800 290/08 RMK AO2 $
53144K9L2 9L220160416203010204/16/16 20:30:31  5-MIN K9L2 170430Z AUTO 29008KT 10SM CLR 16/M03 A3006 2170 26 2800 280/08 RMK AO2 $
53144K9L2 9L220160416203510204/16/16 20:35:31  5-MIN K9L2 170435Z AUTO 29007KT 10SM CLR 16/M03 A3006 2170 27 2800 280/07 RMK AO2 $
53144K9L2 9L220160416204010204/16/16 20:40:31  5-MIN K9L2 170440Z AUTO 29006KT 10SM CLR 16/M03 A3006 2170 27 2800 280/06 RMK AO2 $
53144K9L2 9L220160416204510204/16/16 20:45:31  5-MIN K9L2 170445Z AUTO 29006KT 10SM CLR 15/M03 A3006 2170 28 2700 280/06 RMK AO2 $
53144K9L2 9L220160416205010204/16/16 20:50:31  5-MIN K9L2 170450Z AUTO 29009KT 10SM CLR 15/M03 A3006 2170 28 2700 270/09 RMK AO2 $
53144K9L2 9L220160416205511904/16/16 20:55:31  5-MIN K9L2 170455Z AUTO 28008KT 10SM CLR 15/M03 A3006 2170 28 2700 270/08 RMK AO2 SLP171 T01501033 $
53144K9L2 9L220160416210010204/16/16 21:00:31  5-MIN K9L2 170500Z AUTO 28007KT 10SM CLR 15/M03 A3006 2170 28 2700 270/07 RMK AO2 $
53144K9L2 9L220160416210510204/16/16 21:05:31  5-MIN K9L2 170505Z AUTO 29004KT 10SM CLR 15/M03 A3007 2170 28 2700 280/04 RMK AO2 $
53144K9L2 9L220160416211010204/16/16 21:10:31  5-MIN K9L2 170510Z AUTO 30005KT 10SM CLR 14/M04 A3007 2170 28 2600 290/05 RMK AO2 $
53144K9L2 9L220160416211510204/16/16 21:15:31  5-MIN K9L2 170515Z AUTO 28004KT 10SM CLR 14/M04 A3007 2170 29 2600 270/04 RMK AO2 $
53144K9L2 9L220160416212010204/16/16 21:20:31  5-MIN K9L2 170520Z AUTO 28004KT 10SM CLR 14/M04 A3007 2170 29 2600 270/04 RMK AO2 $
53144K9L2 9L220160416212510204/16/16 21:25:31  5-MIN K9L2 170525Z AUTO 28004KT 10SM CLR 14/M04 A3007 2170 29 2600 270/04 RMK AO2 $
53144K9L2 9L220160416213010204/16/16 21:30:31  5-MIN K9L2 170530Z AUTO 00000KT 10SM CLR 13/M04 A3007 2170 28 2500 000/00 RMK AO2 $
53144K9L2 9L220160416213510204/16/16 21:35:31  5-MIN K9L2 170535Z AUTO 28005KT 10SM CLR 14/M04 A3007 2170 29 2600 270/05 RMK AO2 $
53144K9L2 9L220160416214010204/16/16 21:40:31  5-MIN K9L2 170540Z AUTO 28004KT 10SM CLR 14/M04 A3007 2170 29 2600 270/04 RMK AO2 $
53144K9L2 9L220160416214510204/16/16 21:45:31  5-MIN K9L2 170545Z AUTO 00000KT 10SM CLR 13/M04 A3007 2170 28 2500 000/00 RMK AO2 $
53144K9L2 9L220160416215010204/16/16 21:50:31  5-MIN K9L2 170550Z AUTO 00000KT 10SM CLR 14/M04 A3007 2170 27 2600 000/00 RMK AO2 $
53144K9L2 9L220160416215513704/16/16 21:55:31  5-MIN K9L2 170555Z AUTO 13006KT 10SM CLR 14/M04 A3007 2170 27 2600 120/06 RMK AO2 SLP173 T01391044 10272 20133 53007 $
53144K9L2 9L220160416220010204/16/16 22:00:31  5-MIN K9L2 170600Z AUTO 17003KT 10SM CLR 14/M04 A3007 2160 26 2600 160/03 RMK AO2 $
53144K9L2 9L220160416220510204/16/16 22:05:31  5-MIN K9L2 170605Z AUTO 12003KT 10SM CLR 14/M04 A3007 2160 26 2600 110/03 RMK AO2 $
53144K9L2 9L220160416221010204/16/16 22:10:31  5-MIN K9L2 170610Z AUTO 00000KT 10SM CLR 14/M05 A3007 2170 25 2600 000/00 RMK AO2 $
53144K9L2 9L220160416221510204/16/16 22:15:31  5-MIN K9L2 170615Z AUTO 12004KT 10SM CLR 14/M04 A3007 2160 27 2600 110/04 RMK AO2 $
53144K9L2 9L220160416222010204/16/16 22:20:31  5-MIN K9L2 170620Z AUTO 00000KT 10SM CLR 14/M04 A3007 2160 26 2600 000/00 RMK AO2 $
53144K9L2 9L220160416222510204/16/16 22:25:31  5-MIN K9L2 170625Z AUTO 14004KT 10SM CLR 14/M05 A3007 2160 26 2600 130/04 RMK AO2 $
53144K9L2 9L220160416223010204/16/16 22:30:31  5-MIN K9L2 170630Z AUTO 16003KT 10SM CLR 13/M06 A3007 2170 26 2500 150/03 RMK AO2 $
53144K9L2 9L220160416223510204/16/16 22:35:31  5-MIN K9L2 170635Z AUTO 14004KT 10SM CLR 13/M06 A3007 2170 27 2400 130/04 RMK AO2 $
53144K9L2 9L220160416224010204/16/16 22:40:31  5-MIN K9L2 170640Z AUTO 12004KT 10SM CLR 13/M06 A3007 2160 27 2400 100/04 RMK AO2 $
53144K9L2 9L220160416224510204/16/16 22:45:31  5-MIN K9L2 170645Z AUTO 14005KT 10SM CLR 12/M06 A3007 2160 27 2400 120/05 RMK AO2 $
53144K9L2 9L220160416225007704/16/16 22:50:31  5-MIN K9L2 170650Z AUTO 17003KT 10SM CLR 12/M/03 RMK AO2 $
53144K9L2 9L220160416230510204/16/16 23:05:31  5-MIN K9L2 170705Z AUTO 00000KT 10SM CLR 12/M05 A3008 2160 30 2300 000/00 RMK AO2 $
53144K9L2 9L220160416231010204/16/16 23:10:31  5-MIN K9L2 170710Z AUTO 00000KT 10SM CLR 12/M05 A3008 2160 30 2300 000/00 RMK AO2 $
53144K9L2 9L220160416231510204/16/16 23:15:31  5-MIN K9L2 170715Z AUTO 14003KT 10SM CLR 11/M05 A3008 2160 32 2200 130/03 RMK AO2 $
53144K9L2 9L220160416232010204/16/16 23:20:31  5-MIN K9L2 170720Z AUTO 14003KT 10SM CLR 11/M05 A3008 2150 32 2200 120/03 RMK AO2 $
53144K9L2 9L220160416232510204/16/16 23:25:31  5-MIN K9L2 170725Z AUTO 14003KT 10SM CLR 11/M05 A3008 2150 32 2200 120/03 RMK AO2 $
53144K9L2 9L220160416233010204/16/16 23:30:31  5-MIN K9L2 170730Z AUTO 00000KT 10SM CLR 11/M05 A3008 2150 33 2200 000/00 RMK AO2 $
53144K9L2 9L220160416233510204/16/16 23:35:31  5-MIN K9L2 170735Z AUTO 00000KT 10SM CLR 11/M04 A3009 2150 36 2200 000/00 RMK AO2 $
53144K9L2 9L220160416234010204/16/16 23:40:31  5-MIN K9L2 170740Z AUTO 00000KT 10SM CLR 10/M04 A3009 2150 36 2100 000/00 RMK AO2 $
53144K9L2 9L220160416234510204/16/16 23:45:31  5-MIN K9L2 170745Z AUTO 00000KT 10SM CLR 10/M04 A3009 2150 36 2100 000/00 RMK AO2 $
53144K9L2 9L220160416235010204/16/16 23:50:31  5-MIN K9L2 170750Z AUTO 00000KT 10SM CLR 09/M06 A3009 2150 35 2000 000/00 RMK AO2 $
53144K9L2 9L220160416235512904/16/16 23:55:31  5-MIN K9L2 170755Z AUTO 00000KT 10SM CLR 09/M06 A3009 2150 35 2000 000/00 RMK AO2 SLP182 T00891056 402780039 $
53144K9L2 9L220160417000010204/17/16 00:00:31  5-MIN K9L2 170800Z AUTO 11003KT 10SM CLR 09/M05 A3009 2150 35 2000 090/03 RMK AO2 $
53144K9L2 9L220160417000510204/17/16 00:05:31  5-MIN K9L2 170805Z AUTO 00000KT 10SM CLR 10/M04 A3009 2150 36 2100 000/00 RMK AO2 $
53144K9L2 9L220160417001010204/17/16 00:10:31  5-MIN K9L2 170810Z AUTO 14004KT 10SM CLR 10/M04 A3009 2150 36 2100 120/04 RMK AO2 $
53144K9L2 9L220160417001510204/17/16 00:15:31  5-MIN K9L2 170815Z AUTO 14004KT 10SM CLR 10/M04 A3009 2150 37 2100 130/04 RMK AO2 $
53144K9L2 9L220160417002010204/17/16 00:20:31  5-MIN K9L2 170820Z AUTO 18003KT 10SM CLR 10/M04 A3009 2150 36 2100 160/03 RMK AO2 $
53144K9L2 9L220160417002510204/17/16 00:25:31  5-MIN K9L2 170825Z AUTO 22003KT 10SM CLR 10/M04 A3009 2150 36 2100 210/03 RMK AO2 $
53144K9L2 9L220160417003010204/17/16 00:30:31  5-MIN K9L2 170830Z AUTO 24003KT 10SM CLR 08/M06 A3009 2150 38 1800 220/03 RMK AO2 $
53144K9L2 9L220160417003510204/17/16 00:35:31  5-MIN K9L2 170835Z AUTO 29003KT 10SM CLR 08/M06 A3009 2150 38 1800 280/03 RMK AO2 $
53144K9L2 9L220160417004010204/17/16 00:40:31  5-MIN K9L2 170840Z AUTO 30004KT 10SM CLR 08/M06 A3009 2150 38 1800 290/04 RMK AO2 $
53144K9L2 9L220160417004510204/17/16 00:45:31  5-MIN K9L2 170845Z AUTO 00000KT 10SM CLR 07/M06 A3009 2140 40 1800 000/00 RMK AO2 $
53144K9L2 9L220160417005010204/17/16 00:50:31  5-MIN K9L2 170850Z AUTO 00000KT 10SM CLR 08/M06 A3009 2150 38 1800 000/00 RMK AO2 $
53144K9L2 9L220160417005512504/17/16 00:55:31  5-MIN K9L2 170855Z AUTO 32003KT 10SM CLR 07/M06 A3009 2150 40 1800 310/03 RMK AO2 SLP182 T00721056 51015 $
53144K9L2 9L220160417010010204/17/16 01:00:31  5-MIN K9L2 170900Z AUTO 32004KT 10SM CLR 07/M06 A3009 2150 41 1700 310/04 RMK AO2 $
53144K9L2 9L220160417010510204/17/16 01:05:31  5-MIN K9L2 170905Z AUTO 35003KT 10SM CLR 07/M06 A3009 2140 41 1700 330/03 RMK AO2 $
53144K9L2 9L220160417011010204/17/16 01:10:31  5-MIN K9L2 170910Z AUTO 00000KT 10SM CLR 07/M06 A3009 2140 41 1700 000/00 RMK AO2 $
53144K9L2 9L220160417011510204/17/16 01:15:31  5-MIN K9L2 170915Z AUTO 00000KT 10SM CLR 07/M06 A3009 2150 40 1800 000/00 RMK AO2 $
53144K9L2 9L220160417012010204/17/16 01:20:31  5-MIN K9L2 170920Z AUTO 29003KT 10SM CLR 07/M06 A3009 2140 39 1700 280/03 RMK AO2 $
53144K9L2 9L220160417012510204/17/16 01:25:31  5-MIN K9L2 170925Z AUTO 31003KT 10SM CLR 06/M06 A3009 2140 41 1600 300/03 RMK AO2 $
53144K9L2 9L220160417013010204/17/16 01:30:31  5-MIN K9L2 170930Z AUTO 00000KT 10SM CLR 07/M06 A3009 2150 39 1700 000/00 RMK AO2 $
53144K9L2 9L220160417013510204/17/16 01:35:31  5-MIN K9L2 170935Z AUTO 00000KT 10SM CLR 06/M06 A3009 2150 43 1600 000/00 RMK AO2 $
53144K9L2 9L220160417014010204/17/16 01:40:31  5-MIN K9L2 170940Z AUTO 00000KT 10SM CLR 07/M06 A3009 2140 39 1700 000/00 RMK AO2 $
53144K9L2 9L220160417014510204/17/16 01:45:31  5-MIN K9L2 170945Z AUTO 00000KT 10SM CLR 07/M06 A3010 2140 41 1700 000/00 RMK AO2 $
53144K9L2 9L220160417015010204/17/16 01:50:31  5-MIN K9L2 170950Z AUTO 00000KT 10SM CLR 07/M06 A3010 2140 41 1700 000/00 RMK AO2 $
53144K9L2 9L220160417015511904/17/16 01:55:31  5-MIN K9L2 170955Z AUTO 00000KT 10SM CLR 07/M06 A3009 2140 41 1700 000/00 RMK AO2 SLP184 T00671056 $
53144K9L2 9L220160417020010204/17/16 02:00:31  5-MIN K9L2 171000Z AUTO 32003KT 10SM CLR 07/M06 A3009 2140 41 1700 310/03 RMK AO2 $
53144K9L2 9L220160417020510204/17/16 02:05:31  5-MIN K9L2 171005Z AUTO 32004KT 10SM CLR 06/M06 A3009 2140 43 1600 310/04 RMK AO2 $
53144K9L2 9L220160417021010204/17/16 02:10:31  5-MIN K9L2 171010Z AUTO 32004KT 10SM CLR 06/M06 A3009 2140 43 1600 310/04 RMK AO2 $
53144K9L2 9L220160417021510204/17/16 02:15:31  5-MIN K9L2 171015Z AUTO 32004KT 10SM CLR 06/M06 A3009 2140 43 1600 310/04 RMK AO2 $
53144K9L2 9L220160417022010204/17/16 02:20:31  5-MIN K9L2 171020Z AUTO 33003KT 10SM CLR 06/M06 A3009 2140 43 1600 310/03 RMK AO2 $
53144K9L2 9L220160417022510204/17/16 02:25:31  5-MIN K9L2 171025Z AUTO 34003KT 10SM CLR 06/M06 A3009 2140 43 1600 320/03 RMK AO2 $
53144K9L2 9L220160417023010204/17/16 02:30:31  5-MIN K9L2 171030Z AUTO 31003KT 10SM CLR 06/M06 A3010 2140 41 1600 300/03 RMK AO2 $
53144K9L2 9L220160417023510204/17/16 02:35:31  5-MIN K9L2 171035Z AUTO 00000KT 10SM CLR 06/M06 A3010 2140 41 1600 000/00 RMK AO2 $
53144K9L2 9L220160417024010204/17/16 02:40:31  5-MIN K9L2 171040Z AUTO 00000KT 10SM CLR 06/M06 A3010 2140 43 1600 000/00 RMK AO2 $
53144K9L2 9L220160417024510204/17/16 02:45:31  5-MIN K9L2 171045Z AUTO 00000KT 10SM CLR 06/M06 A3010 2140 41 1600 000/00 RMK AO2 $
53144K9L2 9L220160417025010204/17/16 02:50:31  5-MIN K9L2 171050Z AUTO 00000KT 10SM CLR 06/M07 A3010 2140 39 1600 000/00 RMK AO2 $
53144K9L2 9L220160417025511904/17/16 02:55:31  5-MIN K9L2 171055Z AUTO 00000KT 10SM CLR 06/M07 A3010 2140 41 1600 000/00 RMK AO2 SLP186 T00561067 $
53144K9L2 9L220160417030010204/17/16 03:00:31  5-MIN K9L2 171100Z AUTO 04003KT 10SM CLR 07/M06 A3010 2140 41 1700 030/03 RMK AO2 $
53144K9L2 9L220160417030510204/17/16 03:05:31  5-MIN K9L2 171105Z AUTO 02003KT 10SM CLR 06/M06 A3010 2140 43 1600 010/03 RMK AO2 $
53144K9L2 9L220160417031010204/17/16 03:10:31  5-MIN K9L2 171110Z AUTO 01003KT 10SM CLR 06/M06 A3010 2140 41 1600 360/03 RMK AO2 $
53144K9L2 9L220160417031510204/17/16 03:15:31  5-MIN K9L2 171115Z AUTO 32004KT 10SM CLR 06/M06 A3010 2140 43 1500 300/04 RMK AO2 $
53144K9L2 9L220160417032010204/17/16 03:20:31  5-MIN K9L2 171120Z AUTO 30005KT 10SM CLR 07/M04 A3010 2140 45 1700 290/05 RMK AO2 $
53144K9L2 9L220160417032510204/17/16 03:25:31  5-MIN K9L2 171125Z AUTO 30005KT 10SM CLR 08/M04 A3010 2140 41 1800 290/05 RMK AO2 $
53144K9L2 9L220160417033010204/17/16 03:30:31  5-MIN K9L2 171130Z AUTO VRB03KT 10SM CLR 07/M05 A3010 2140 41 1700 VRB/03 RMK AO2 $
53144K9L2 9L220160417033510204/17/16 03:35:31  5-MIN K9L2 171135Z AUTO 31003KT 10SM CLR 07/M05 A3010 2130 41 1700 300/03 RMK AO2 $
53144K9L2 9L220160417034010204/17/16 03:40:31  5-MIN K9L2 171140Z AUTO 00000KT 10SM CLR 08/M04 A3011 2130 41 1800 000/00 RMK AO2 $
53144K9L2 9L220160417034510204/17/16 03:45:31  5-MIN K9L2 171145Z AUTO 10003KT 10SM CLR 08/M04 A3011 2130 41 1800 090/03 RMK AO2 $
53144K9L2 9L220160417035010204/17/16 03:50:31  5-MIN K9L2 171150Z AUTO 10004KT 10SM CLR 08/M04 A3011 2130 41 1800 080/04 RMK AO2 $
53144K9L2 9L220160417035513704/17/16 03:55:31  5-MIN K9L2 171155Z AUTO 00000KT 10SM CLR 08/M04 A3011 2130 41 1800 000/00 RMK AO2 SLP186 T00781044 10144 20056 51007 $
53144K9L2 9L220160417040010204/17/16 04:00:31  5-MIN K9L2 171200Z AUTO 00000KT 10SM CLR 07/M05 A3011 2130 43 1700 000/00 RMK AO2 $
53144K9L2 9L220160417040510204/17/16 04:05:31  5-MIN K9L2 171205Z AUTO VRB03KT 10SM CLR 06/M05 A3011 2130 45 1600 VRB/03 RMK AO2 $
53144K9L2 9L220160417041010204/17/16 04:10:31  5-MIN K9L2 171210Z AUTO 32003KT 10SM CLR 06/M05 A3011 2130 46 1500 310/03 RMK AO2 $
53144K9L2 9L220160417041510204/17/16 04:15:31  5-MIN K9L2 171215Z AUTO 00000KT 10SM CLR 06/M05 A3011 2130 46 1500 000/00 RMK AO2 $
53144K9L2 9L220160417042010204/17/16 04:20:31  5-MIN K9L2 171220Z AUTO 00000KT 10SM CLR 06/M05 A3011 2130 46 1500 000/00 RMK AO2 $
53144K9L2 9L220160417042510204/17/16 04:25:31  5-MIN K9L2 171225Z AUTO 00000KT 10SM CLR 06/M05 A3011 2120 46 1500 000/00 RMK AO2 $
53144K9L2 9L220160417043010204/17/16 04:30:31  5-MIN K9L2 171230Z AUTO 00000KT 10SM CLR 06/M06 A3012 2120 44 1500 000/00 RMK AO2 $
53144K9L2 9L220160417043510204/17/16 04:35:31  5-MIN K9L2 171235Z AUTO 00000KT 10SM CLR 06/M06 A3012 2120 44 1500 000/00 RMK AO2 $
53144K9L2 9L220160417044010204/17/16 04:40:31  5-MIN K9L2 171240Z AUTO 14003KT 10SM CLR 06/M06 A3012 2120 44 1500 130/03 RMK AO2 $
53144K9L2 9L220160417044510204/17/16 04:45:31  5-MIN K9L2 171245Z AUTO 00000KT 10SM CLR 06/M06 A3012 2120 43 1600 000/00 RMK AO2 $
53144K9L2 9L220160417045010204/17/16 04:50:31  5-MIN K9L2 171250Z AUTO 00000KT 10SM CLR 06/M06 A3012 2120 43 1500 000/00 RMK AO2 $
53144K9L2 9L220160417045511904/17/16 04:55:31  5-MIN K9L2 171255Z AUTO 00000KT 10SM CLR 04/M07 A3012 2120 46 1300 000/00 RMK AO2 SLP195 T00391067 $
53144K9L2 9L220160417050010204/17/16 05:00:31  5-MIN K9L2 171300Z AUTO 27003KT 10SM CLR 05/M06 A3012 2120 44 1500 260/03 RMK AO2 $
53144K9L2 9L220160417050510204/17/16 05:05:31  5-MIN K9L2 171305Z AUTO 00000KT 10SM CLR 05/M06 A3012 2120 44 1500 000/00 RMK AO2 $
53144K9L2 9L220160417051010204/17/16 05:10:31  5-MIN K9L2 171310Z AUTO 00000KT 10SM CLR 05/M06 A3012 2110 44 1500 000/00 RMK AO2 $
53144K9L2 9L220160417051510204/17/16 05:15:31  5-MIN K9L2 171315Z AUTO 27004KT 10SM CLR 04/M06 A3013 2110 46 1400 250/04 RMK AO2 $
53144K9L2 9L220160417052010204/17/16 05:20:31  5-MIN K9L2 171320Z AUTO 00000KT 10SM CLR 05/M06 A3013 2110 46 1400 000/00 RMK AO2 $
53144K9L2 9L220160417052510204/17/16 05:25:31  5-MIN K9L2 171325Z AUTO 00000KT 10SM CLR 06/M06 A3013 2110 44 1500 000/00 RMK AO2 $
53144K9L2 9L220160417053010204/17/16 05:30:31  5-MIN K9L2 171330Z AUTO 00000KT 10SM CLR 06/M06 A3013 2110 44 1500 000/00 RMK AO2 $
53144K9L2 9L220160417053510204/17/16 05:35:31  5-MIN K9L2 171335Z AUTO 00000KT 10SM CLR 05/M06 A3013 2110 46 1500 000/00 RMK AO2 $
53144K9L2 9L220160417054010204/17/16 05:40:31  5-MIN K9L2 171340Z AUTO 30005KT 10SM CLR 05/M06 A3013 2110 46 1400 290/05 RMK AO2 $
53144K9L2 9L220160417054510204/17/16 05:45:31  5-MIN K9L2 171345Z AUTO 30008KT 10SM CLR 06/M05 A3013 2110 45 1600 290/08 RMK AO2 $
53144K9L2 9L220160417055010204/17/16 05:50:31  5-MIN K9L2 171350Z AUTO 30007KT 10SM CLR 07/M05 A3013 2110 43 1600 280/07 RMK AO2 $
53144K9L2 9L220160417055511904/17/16 05:55:31  5-MIN K9L2 171355Z AUTO 30004KT 10SM CLR 08/M05 A3014 2100 40 1800 280/04 RMK AO2 SLP199 T00781050 $
53144K9L2 9L220160417060010204/17/16 06:00:31  5-MIN K9L2 171400Z AUTO 30004KT 10SM CLR 08/M05 A3014 2100 38 1800 290/04 RMK AO2 $
53144K9L2 9L220160417060510204/17/16 06:05:31  5-MIN K9L2 171405Z AUTO VRB05KT 10SM CLR 08/M05 A3014 2100 38 1800 VRB/05 RMK AO2 $
53144K9L2 9L220160417061010204/17/16 06:10:31  5-MIN K9L2 171410Z AUTO 30005KT 10SM CLR 08/M06 A3015 2090 37 1800 290/05 RMK AO2 $
53144K9L2 9L220160417061510204/17/16 06:15:31  5-MIN K9L2 171415Z AUTO 00000KT 10SM CLR 09/M06 A3015 2090 34 2000 000/00 RMK AO2 $
53144K9L2 9L220160417062010204/17/16 06:20:31  5-MIN K9L2 171420Z AUTO 00000KT 10SM CLR 11/M06 A3015 2090 31 2100 000/00 RMK AO2 $
53144K9L2 9L220160417062510204/17/16 06:25:31  5-MIN K9L2 171425Z AUTO 36003KT 10SM CLR 11/M05 A3015 2090 32 2200 350/03 RMK AO2 $
53144K9L2 9L220160417063010204/17/16 06:30:31  5-MIN K9L2 171430Z AUTO 20004KT 10SM CLR 11/M05 A3015 2090 32 2200 190/04 RMK AO2 $
53144K9L2 9L220160417063510204/17/16 06:35:31  5-MIN K9L2 171435Z AUTO 19004KT 10SM CLR 09/M05 A3015 2090 35 2000 180/04 RMK AO2 $
53144K9L2 9L220160417064010204/17/16 06:40:31  5-MIN K9L2 171440Z AUTO 22003KT 10SM CLR 09/M05 A3015 2090 37 1900 200/03 RMK AO2 $
53144K9L2 9L220160417064510204/17/16 06:45:31  5-MIN K9L2 171445Z AUTO 00000KT 10SM CLR 10/M04 A3015 2090 37 2000 000/00 RMK AO2 $
53144K9L2 9L220160417065010204/17/16 06:50:31  5-MIN K9L2 171450Z AUTO 00000KT 10SM CLR 11/M04 A3015 2090 34 2200 000/00 RMK AO2 $
53144K9L2 9L220160417065512504/17/16 06:55:31  5-MIN K9L2 171455Z AUTO 00000KT 10SM CLR 12/M03 A3015 2090 33 2300 000/00 RMK AO2 SLP203 T01221033 53006 $
53144K9L2 9L220160417070010204/17/16 07:00:31  5-MIN K9L2 171500Z AUTO 15003KT 10SM CLR 12/M03 A3015 2090 33 2300 140/03 RMK AO2 $
53144K9L2 9L220160417070510204/17/16 07:05:31  5-MIN K9L2 171505Z AUTO 17003KT 10SM CLR 12/M04 A3015 2090 33 2200 150/03 RMK AO2 $
53144K9L2 9L220160417071010204/17/16 07:10:31  5-MIN K9L2 171510Z AUTO 15004KT 10SM CLR 12/M04 A3016 2090 33 2200 140/04 RMK AO2 $
53144K9L2 9L220160417071510204/17/16 07:15:31  5-MIN K9L2 171515Z AUTO 00000KT 10SM CLR 12/M04 A3016 2090 33 2200 000/00 RMK AO2 $
53144K9L2 9L220160417072010204/17/16 07:20:31  5-MIN K9L2 171520Z AUTO 00000KT 10SM CLR 13/M04 A3016 2090 28 2400 000/00 RMK AO2 $
53144K9L2 9L220160417072510204/17/16 07:25:31  5-MIN K9L2 171525Z AUTO 31003KT 10SM CLR 15/M05 A3015 2090 24 2600 290/03 RMK AO2 $
53144K9L2 9L220160417073010204/17/16 07:30:31  5-MIN K9L2 171530Z AUTO 00000KT 10SM CLR 16/M05 A3015 2090 24 2700 000/00 RMK AO2 $
53144K9L2 9L220160417073510204/17/16 07:35:31  5-MIN K9L2 171535Z AUTO 00000KT 10SM CLR 16/M06 A3016 2090 22 2700 000/00 RMK AO2 $
53144K9L2 9L220160417074010204/17/16 07:40:31  5-MIN K9L2 171540Z AUTO 00000KT 10SM CLR 17/M06 A3016 2090 20 2800 000/00 RMK AO2 $
53144K9L2 9L220160417074510204/17/16 07:45:31  5-MIN K9L2 171545Z AUTO 00000KT 10SM CLR 17/M06 A3015 2090 19 2900 000/00 RMK AO2 $
53144K9L2 9L220160417075010204/17/16 07:50:31  5-MIN K9L2 171550Z AUTO 00000KT 10SM CLR 18/M07 A3015 2090 18 2900 000/00 RMK AO2 $
53144K9L2 9L220160417075511904/17/16 07:55:31  5-MIN K9L2 171555Z AUTO 00000KT 10SM CLR 18/M07 A3015 2090 18 2900 000/00 RMK AO2 SLP202 T01781067 $
53144K9L2 9L220160417080010204/17/16 08:00:31  5-MIN K9L2 171600Z AUTO 00000KT 10SM CLR 18/M07 A3015 2090 17 3000 000/00 RMK AO2 $
53144K9L2 9L220160417080510204/17/16 08:05:31  5-MIN K9L2 171605Z AUTO 00000KT 10SM CLR 19/M07 A3015 2090 16 3100 000/00 RMK AO2 $
53144K9L2 9L220160417081010204/17/16 08:10:31  5-MIN K9L2 171610Z AUTO 00000KT 10SM CLR 19/M08 A3015 2090 15 3100 000/00 RMK AO2 $
53144K9L2 9L220160417081510204/17/16 08:15:31  5-MIN K9L2 171615Z AUTO 00000KT 10SM CLR 20/M08 A3015 2090 14 3200 000/00 RMK AO2 $
53144K9L2 9L220160417082010204/17/16 08:20:31  5-MIN K9L2 171620Z AUTO 00000KT 10SM CLR 21/M08 A3015 2090 14 3300 000/00 RMK AO2 $
53144K9L2 9L220160417082510204/17/16 08:25:31  5-MIN K9L2 171625Z AUTO 07004KT 10SM CLR 21/M08 A3015 2090 13 3300 050/04 RMK AO2 $
53144K9L2 9L220160417083010204/17/16 08:30:31  5-MIN K9L2 171630Z AUTO 09004KT 10SM CLR 21/M08 A3015 2090 13 3300 070/04 RMK AO2 $
53144K9L2 9L220160417083510204/17/16 08:35:31  5-MIN K9L2 171635Z AUTO 09003KT 10SM CLR 21/M08 A3015 2090 13 3300 070/03 RMK AO2 $
53144K9L2 9L220160417084010204/17/16 08:40:31  5-MIN K9L2 171640Z AUTO 08003KT 10SM CLR 22/M08 A3015 2090 13 3400 070/03 RMK AO2 $
53144K9L2 9L220160417084510204/17/16 08:45:31  5-MIN K9L2 171645Z AUTO 09009KT 10SM CLR 22/M08 A3015 2090 12 3400 080/09 RMK AO2 $
53144K9L2 9L220160417085010804/17/16 08:50:31  5-MIN K9L2 171650Z AUTO 07011G14KT 10SM CLR 23/M08 A3015 2090 12 3500 060/11G14 RMK AO2 $
53144K9L2 9L220160417085512504/17/16 08:55:31  5-MIN K9L2 171655Z AUTO 08011G16KT 10SM CLR 23/M08 A3015 2090 12 3500 060/11G16 RMK AO2 SLP200 T02281083 $
53144K9L2 9L220160417090010204/17/16 09:00:31  5-MIN K9L2 171700Z AUTO 05010KT 10SM CLR 23/M08 A3015 2090 11 3600 040/10 RMK AO2 $
53144K9L2 9L220160417090510804/17/16 09:05:31  5-MIN K9L2 171705Z AUTO 07013G22KT 10SM CLR 24/M09 A3015 2090 10 3600 050/13G22 RMK AO2 $
53144K9L2 9L220160417091010804/17/16 09:10:31  5-MIN K9L2 171710Z AUTO 07012G23KT 10SM CLR 24/M09 A3015 2090 10 3600 060/12G23 RMK AO2 $
53144K9L2 9L220160417091510804/17/16 09:15:31  5-MIN K9L2 171715Z AUTO 07016G23KT 10SM CLR 24/M09 A3014 2100 10 3600 060/16G23 RMK AO2 $
53144K9L2 9L220160417092010804/17/16 09:20:31  5-MIN K9L2 171720Z AUTO 06016G21KT 10SM CLR 23/M09 A3014 2100 11 3600 050/16G21 RMK AO2 $
53144K9L2 9L220160417092510804/17/16 09:25:31  5-MIN K9L2 171725Z AUTO 06007G20KT 10SM CLR 24/M09 A3014 2100 10 3600 050/07G20 RMK AO2 $
53144K9L2 9L220160417093010804/17/16 09:30:31  5-MIN K9L2 171730Z AUTO 06015G19KT 10SM CLR 24/M09 A3014 2100 10 3700 050/15G19 RMK AO2 $
53144K9L2 9L220160417093510804/17/16 09:35:31  5-MIN K9L2 171735Z AUTO 05012G19KT 10SM CLR 24/M09 A3014 2100 10 3700 040/12G19 RMK AO2 $
53144K9L2 9L220160417094010804/17/16 09:40:31  5-MIN K9L2 171740Z AUTO 03014G20KT 10SM CLR 25/M11 A3014 2100 08 3800 020/14G20 RMK AO2 $
53144K9L2 9L220160417094510804/17/16 09:45:31  5-MIN K9L2 171745Z AUTO 04017G22KT 10SM CLR 25/M11 A3014 2100 08 3800 020/17G22 RMK AO2 $
53144K9L2 9L220160417095010804/17/16 09:50:31  5-MIN K9L2 171750Z AUTO 06011G23KT 10SM CLR 25/M10 A3014 2100 09 3800 040/11G23 RMK AO2 $
53144K9L2 9L220160417095514304/17/16 09:55:31  5-MIN K9L2 171755Z AUTO 03017G25KT 10SM CLR 26/M11 A3013 2110 08 3800 020/17G25 RMK AO2 SLP193 T02561111 10256 20039 51014 $
53144K9L2 9L220160417100012604/17/16 10:00:31  5-MIN K9L2 171800Z AUTO 03019G26KT 10SM CLR 26/M11 A3013 2110 08 3800 020/19G26 RMK AO2 PK WND 06026/1758 $
53144K9L2 9L220160417100512604/17/16 10:05:31  5-MIN K9L2 171805Z AUTO 05018G28KT 10SM CLR 26/M11 A3013 2110 08 3800 040/18G28 RMK AO2 PK WND 05028/1805 $
53144K9L2 9L220160417101012604/17/16 10:10:31  5-MIN K9L2 171810Z AUTO 04014G28KT 10SM CLR 25/M11 A3013 2110 08 3800 030/14G28 RMK AO2 PK WND 05028/1805 $
53144K9L2 9L220160417101512604/17/16 10:15:31  5-MIN K9L2 171815Z AUTO 05016G22KT 10SM CLR 26/M11 A3013 2110 08 3800 040/16G22 RMK AO2 PK WND 05028/1805 $
53144K9L2 9L220160417102012604/17/16 10:20:31  5-MIN K9L2 171820Z AUTO 07013G22KT 10SM CLR 26/M11 A3013 2110 08 3800 050/13G22 RMK AO2 PK WND 05028/1805 $
53144K9L2 9L220160417102512604/17/16 10:25:31  5-MIN K9L2 171825Z AUTO 07013G23KT 10SM CLR 26/M11 A3013 2110 08 3800 050/13G23 RMK AO2 PK WND 05028/1805 $
53144K9L2 9L220160417103012604/17/16 10:30:31  5-MIN K9L2 171830Z AUTO 05016G23KT 10SM CLR 26/M11 A3013 2110 08 3800 040/16G23 RMK AO2 PK WND 05028/1805 $
53144K9L2 9L220160417103512604/17/16 10:35:31  5-MIN K9L2 171835Z AUTO 05014G22KT 10SM CLR 26/M11 A3012 2120 08 3800 040/14G22 RMK AO2 PK WND 05028/1805 $
53144K9L2 9L220160417104012604/17/16 10:40:31  5-MIN K9L2 171840Z AUTO 04015G21KT 10SM CLR 26/M11 A3012 2120 08 3900 030/15G21 RMK AO2 PK WND 05028/1805 $
53144K9L2 9L220160417104512604/17/16 10:45:31  5-MIN K9L2 171845Z AUTO 07010G21KT 10SM CLR 26/M11 A3012 2120 08 3800 060/10G21 RMK AO2 PK WND 05028/1805 $
53144K9L2 9L220160417105012604/17/16 10:50:31  5-MIN K9L2 171850Z AUTO 06012G17KT 10SM CLR 26/M11 A3012 2120 08 3900 050/12G17 RMK AO2 PK WND 05028/1805 $
53144K9L2 9L220160417105514304/17/16 10:55:31  5-MIN K9L2 171855Z AUTO 06013G21KT 10SM CLR 27/M11 A3012 2120 07 4000 050/13G21 RMK AO2 PK WND 05028/1805 SLP187 T02671111 $
53144K9L2 9L220160417110010804/17/16 11:00:31  5-MIN K9L2 171900Z AUTO 06012G22KT 10SM CLR 26/M11 A3012 2120 08 3900 050/12G22 RMK AO2 $
53144K9L2 9L220160417110510804/17/16 11:05:31  5-MIN K9L2 171905Z AUTO 06015G23KT 10SM CLR 26/M12 A3011 2120 07 3900 040/15G23 RMK AO2 $
53144K9L2 9L220160417111010804/17/16 11:10:31  5-MIN K9L2 171910Z AUTO 08014G23KT 10SM CLR 26/M12 A3011 2130 07 3900 060/14G23 RMK AO2 $
53144K9L2 9L220160417111510804/17/16 11:15:31  5-MIN K9L2 171915Z AUTO 06014G23KT 10SM CLR 26/M12 A3011 2130 07 3900 040/14G23 RMK AO2 $
53144K9L2 9L220160417112010804/17/16 11:20:31  5-MIN K9L2 171920Z AUTO 04010G23KT 10SM CLR 26/M12 A3011 2130 07 3900 030/10G23 RMK AO2 $
53144K9L2 9L220160417112510804/17/16 11:25:31  5-MIN K9L2 171925Z AUTO 07012G18KT 10SM CLR 26/M12 A3011 2130 07 3900 060/12G18 RMK AO2 $
53144K9L2 9L220160417113010804/17/16 11:30:31  5-MIN K9L2 171930Z AUTO 07016G21KT 10SM CLR 26/M12 A3010 2130 07 3900 060/16G21 RMK AO2 $
53144K9L2 9L220160417113510804/17/16 11:35:31  5-MIN K9L2 171935Z AUTO 06012G21KT 10SM CLR 26/M12 A3010 2140 07 3900 050/12G21 RMK AO2 $
53144K9L2 9L220160417114012404/17/16 11:40:31  5-MIN K9L2 171940Z AUTO 06010G19KT 020V100 10SM CLR 26/M12 A3010 2140 07 3900 050/10G19 010V090 RMK AO2 $
53144K9L2 9L220160417114510804/17/16 11:45:31  5-MIN K9L2 171945Z AUTO 06016G20KT 10SM CLR 27/M12 A3009 2140 07 4000 040/16G20 RMK AO2 $
53144K9L2 9L220160417115010804/17/16 11:50:31  5-MIN K9L2 171950Z AUTO 06015G20KT 10SM CLR 27/M12 A3009 2140 07 4000 040/15G20 RMK AO2 $
53144K9L2 9L220160417115512504/17/16 11:55:31  5-MIN K9L2 171955Z AUTO 08007G18KT 10SM CLR 27/M13 A3009 2140 06 4000 060/07G18 RMK AO2 SLP182 T02671128 $
53144K9L2 9L220160417120010804/17/16 12:00:31  5-MIN K9L2 172000Z AUTO 08008G18KT 10SM CLR 27/M13 A3009 2150 06 4000 070/08G18 RMK AO2 $
53144K9L2 9L220160417120510804/17/16 12:05:31  5-MIN K9L2 172005Z AUTO 03013G17KT 10SM CLR 27/M13 A3009 2150 06 4000 010/13G17 RMK AO2 $
53144K9L2 9L220160417121010804/17/16 12:10:31  5-MIN K9L2 172010Z AUTO 08010G19KT 10SM CLR 27/M13 A3009 2150 06 4100 070/10G19 RMK AO2 $
53144K9L2 9L220160417121510804/17/16 12:15:31  5-MIN K9L2 172015Z AUTO 09011G19KT 10SM CLR 27/M13 A3009 2150 06 4100 070/11G19 RMK AO2 $
53144K9L2 9L220160417122010804/17/16 12:20:31  5-MIN K9L2 172020Z AUTO 10005G18KT 10SM CLR 26/M13 A3008 2150 06 4000 090/05G18 RMK AO2 $
53144K9L2 9L220160417122510804/17/16 12:25:31  5-MIN K9L2 172025Z AUTO 07013G18KT 10SM CLR 27/M13 A3008 2160 06 4100 060/13G18 RMK AO2 $
53144K9L2 9L220160417123010804/17/16 12:30:31  5-MIN K9L2 172030Z AUTO 07012G18KT 10SM CLR 27/M13 A3008 2160 06 4100 060/12G18 RMK AO2 $
53144K9L2 9L220160417123510804/17/16 12:35:31  5-MIN K9L2 172035Z AUTO 05006G15KT 10SM CLR 27/M13 A3008 2160 06 4100 040/06G15 RMK AO2 $
53144K9L2 9L220160417124010804/17/16 12:40:31  5-MIN K9L2 172040Z AUTO 07013G16KT 10SM CLR 27/M14 A3008 2160 06 4100 060/13G16 RMK AO2 $
53144K9L2 9L220160417124510804/17/16 12:45:31  5-MIN K9L2 172045Z AUTO 09006G16KT 10SM CLR 27/M14 A3008 2160 05 4100 070/06G16 RMK AO2 $
53144K9L2 9L220160417125010804/17/16 12:50:31  5-MIN K9L2 172050Z AUTO 03009G14KT 10SM CLR 27/M14 A3008 2160 05 4100 010/09G14 RMK AO2 $
53144K9L2 9L220160417125514704/17/16 12:55:31  5-MIN K9L2 172055Z AUTO 04009G16KT 010V080 10SM CLR 28/M14 A3007 2160 05 4200 020/09G16 360V070 RMK AO2 SLP174 T02781144 58006 $
53144K9L2 9L220160417130010804/17/16 13:00:31  5-MIN K9L2 172100Z AUTO 07010G16KT 10SM CLR 28/M14 A3007 2160 05 4200 060/10G16 RMK AO2 $
53144K9L2 9L220160417130510204/17/16 13:05:31  5-MIN K9L2 172105Z AUTO VRB06KT 10SM CLR 27/M14 A3007 2160 06 4100 VRB/06 RMK AO2 $
53144K9L2 9L220160417131010804/17/16 13:10:31  5-MIN K9L2 172110Z AUTO 10011G14KT 10SM CLR 27/M14 A3007 2170 05 4100 090/11G14 RMK AO2 $
53144K9L2 9L220160417131510804/17/16 13:15:31  5-MIN K9L2 172115Z AUTO 10010G14KT 10SM CLR 28/M14 A3007 2170 05 4200 090/10G14 RMK AO2 $
53144K9L2 9L220160417132010204/17/16 13:20:31  5-MIN K9L2 172120Z AUTO 13004KT 10SM CLR 27/M14 A3006 2170 06 4000 120/04 RMK AO2 $
53144K9L2 9L220160417132510204/17/16 13:25:31  5-MIN K9L2 172125Z AUTO 05006KT 10SM CLR 27/M14 A3006 2170 05 4100 040/06 RMK AO2 $
53144K9L2 9L220160417133010804/17/16 13:30:31  5-MIN K9L2 172130Z AUTO 08009G15KT 10SM CLR 28/M15 A3006 2170 05 4200 070/09G15 RMK AO2 $
53144K9L2 9L220160417133510804/17/16 13:35:31  5-MIN K9L2 172135Z AUTO 07008G15KT 10SM CLR 28/M15 A3006 2180 05 4200 050/08G15 RMK AO2 $
53144K9L2 9L220160417134010804/17/16 13:40:31  5-MIN K9L2 172140Z AUTO VRB05G15KT 10SM CLR 28/M15 A3005 2180 05 4200 VRB/05G15 RMK AO2 $
53144K9L2 9L220160417134510204/17/16 13:45:31  5-MIN K9L2 172145Z AUTO 00000KT 10SM CLR 27/M15 A3005 2180 05 4100 000/00 RMK AO2 $
53144K9L2 9L220160417135010804/17/16 13:50:31  5-MIN K9L2 172150Z AUTO 06012G15KT 10SM CLR 28/M15 A3005 2180 05 4200 050/12G15 RMK AO2 $
53144K9L2 9L220160417135512504/17/16 13:55:31  5-MIN K9L2 172155Z AUTO 07008G15KT 10SM CLR 28/M15 A3005 2180 05 4200 050/08G15 RMK AO2 SLP167 T02831150 $
53144K9L2 9L220160417140010204/17/16 14:00:31  5-MIN K9L2 172200Z AUTO 00000KT 10SM CLR 27/M15 A3005 2180 05 4100 000/00 RMK AO2 $
53144K9L2 9L220160417140510204/17/16 14:05:31  5-MIN K9L2 172205Z AUTO 07006KT 10SM CLR 27/M15 A3005 2180 05 4100 060/06 RMK AO2 $
53144K9L2 9L220160417141010204/17/16 14:10:31  5-MIN K9L2 172210Z AUTO 09006KT 10SM CLR 28/M15 A3005 2190 05 4200 070/06 RMK AO2 $
53144K9L2 9L220160417141510204/17/16 14:15:31  5-MIN K9L2 172215Z AUTO VRB04KT 10SM CLR 28/M16 A3004 2190 05 4200 VRB/04 RMK AO2 $
53144K9L2 9L220160417142010204/17/16 14:20:31  5-MIN K9L2 172220Z AUTO VRB03KT 10SM CLR 28/M16 A3004 2190 05 4200 VRB/03 RMK AO2 $
53144K9L2 9L220160417142510804/17/16 14:25:31  5-MIN K9L2 172225Z AUTO 07006G14KT 10SM CLR 28/M16 A3004 2200 05 4300 060/06G14 RMK AO2 $
53144K9L2 9L220160417143010804/17/16 14:30:31  5-MIN K9L2 172230Z AUTO 08008G14KT 10SM CLR 28/M16 A3003 2200 05 4200 060/08G14 RMK AO2 $
53144K9L2 9L220160417143510204/17/16 14:35:31  5-MIN K9L2 172235Z AUTO 06003KT 10SM CLR 28/M16 A3003 2200 05 4200 050/03 RMK AO2 $
53144K9L2 9L220160417144010204/17/16 14:40:31  5-MIN K9L2 172240Z AUTO 00000KT 10SM CLR 28/M16 A3003 2200 05 4200 000/00 RMK AO2 $
53144K9L2 9L220160417144510204/17/16 14:45:31  5-MIN K9L2 172245Z AUTO 00000KT 10SM CLR 28/M16 A3003 2210 05 4300 000/00 RMK AO2 $
53144K9L2 9L220160417145010204/17/16 14:50:31  5-MIN K9L2 172250Z AUTO VRB06KT 10SM CLR 28/M16 A3002 2210 05 4200 VRB/06 RMK AO2 $
53144K9L2 9L220160417145511904/17/16 14:55:31  5-MIN K9L2 172255Z AUTO VRB03KT 10SM CLR 28/M16 A3002 2210 05 4200 VRB/03 RMK AO2 SLP160 T02781156 $
53144K9L2 9L220160417150010204/17/16 15:00:31  5-MIN K9L2 172300Z AUTO 06006KT 10SM CLR 28/M16 A3002 2210 05 4300 050/06 RMK AO2 $
53144K9L2 9L220160417150510204/17/16 15:05:31  5-MIN K9L2 172305Z AUTO 00000KT 10SM CLR 28/M16 A3002 2210 05 4200 000/00 RMK AO2 $
53144K9L2 9L220160417151010204/17/16 15:10:31  5-MIN K9L2 172310Z AUTO 20003KT 10SM CLR 28/M16 A3002 2210 04 4300 190/03 RMK AO2 $
53144K9L2 9L220160417151510204/17/16 15:15:31  5-MIN K9L2 172315Z AUTO 22005KT 10SM CLR 28/M16 A3002 2210 05 4200 210/05 RMK AO2 $
53144K9L2 9L220160417152010204/17/16 15:20:31  5-MIN K9L2 172320Z AUTO 18004KT 10SM CLR 28/M16 A3001 2220 05 4200 170/04 RMK AO2 $
53144K9L2 9L220160417152510204/17/16 15:25:31  5-MIN K9L2 172325Z AUTO 20004KT 10SM CLR 28/M16 A3001 2220 05 4200 180/04 RMK AO2 $
53144K9L2 9L220160417153010204/17/16 15:30:31  5-MIN K9L2 172330Z AUTO VRB04KT 10SM CLR 28/M16 A3001 2220 05 4200 VRB/04 RMK AO2 $
53144K9L2 9L220160417153510204/17/16 15:35:31  5-MIN K9L2 172335Z AUTO VRB03KT 10SM CLR 28/M16 A3002 2220 05 4200 VRB/03 RMK AO2 $
53144K9L2 9L220160417154010204/17/16 15:40:31  5-MIN K9L2 172340Z AUTO 00000KT 10SM CLR 28/M16 A3001 2220 05 4200 000/00 RMK AO2 $
53144K9L2 9L220160417154510204/17/16 15:45:31  5-MIN K9L2 172345Z AUTO 19005KT 10SM CLR 28/M16 A3001 2220 05 4200 170/05 RMK AO2 $
53144K9L2 9L220160417155010204/17/16 15:50:31  5-MIN K9L2 172350Z AUTO 00000KT 10SM CLR 27/M16 A3001 2220 05 4200 000/00 RMK AO2 $
53144K9L2 9L220160417155513704/17/16 15:55:31  5-MIN K9L2 172355Z AUTO VRB03KT 10SM CLR 28/M16 A3001 2220 05 4200 VRB/03 RMK AO2 SLP153 T02781161 10283 20250 58019 $
53144K9L2 9L220160417160010204/17/16 16:00:31  5-MIN K9L2 180000Z AUTO 14005KT 10SM CLR 28/M16 A3001 2220 05 4200 130/05 RMK AO2 $
53144K9L2 9L220160417160510204/17/16 16:05:31  5-MIN K9L2 180005Z AUTO 16004KT 10SM CLR 28/M16 A3001 2220 05 4200 140/04 RMK AO2 $
53144K9L2 9L220160417161010204/17/16 16:10:31  5-MIN K9L2 180010Z AUTO 16004KT 10SM CLR 28/M16 A3001 2220 05 4200 150/04 RMK AO2 $
53144K9L2 9L220160417161510204/17/16 16:15:31  5-MIN K9L2 180015Z AUTO VRB04KT 10SM CLR 28/M16 A3001 2220 05 4200 VRB/04 RMK AO2 $
53144K9L2 9L220160417162010204/17/16 16:20:31  5-MIN K9L2 180020Z AUTO 19005KT 10SM CLR 28/M16 A3001 2220 05 4200 180/05 RMK AO2 $
53144K9L2 9L220160417162510204/17/16 16:25:31  5-MIN K9L2 180025Z AUTO 17007KT 10SM CLR 28/M16 A3001 2220 05 4200 160/07 RMK AO2 $
53144K9L2 9L220160417163010204/17/16 16:30:31  5-MIN K9L2 180030Z AUTO 17004KT 10SM CLR 28/M16 A3001 2220 05 4200 160/04 RMK AO2 $
53144K9L2 9L220160417163510204/17/16 16:35:31  5-MIN K9L2 180035Z AUTO 18003KT 10SM CLR 27/M16 A3001 2220 05 4200 170/03 RMK AO2 $
53144K9L2 9L220160417164010204/17/16 16:40:31  5-MIN K9L2 180040Z AUTO 19007KT 10SM CLR 28/M16 A3001 2220 05 4300 180/07 RMK AO2 $
53144K9L2 9L220160417164510204/17/16 16:45:31  5-MIN K9L2 180045Z AUTO 21006KT 10SM CLR 28/M16 A3001 2220 05 4200 190/06 RMK AO2 $
53144K9L2 9L220160417165010204/17/16 16:50:31  5-MIN K9L2 180050Z AUTO 19006KT 10SM CLR 28/M16 A3001 2220 05 4200 170/06 RMK AO2 $
53144K9L2 9L220160417165511904/17/16 16:55:31  5-MIN K9L2 180055Z AUTO 18007KT 10SM CLR 28/M16 A3001 2220 05 4200 170/07 RMK AO2 SLP155 T02781161 $
53144K9L2 9L220160417170010204/17/16 17:00:31  5-MIN K9L2 180100Z AUTO 18006KT 10SM CLR 28/M16 A3001 2220 05 4200 170/06 RMK AO2 $
53144K9L2 9L220160417170510204/17/16 17:05:31  5-MIN K9L2 180105Z AUTO 19005KT 10SM CLR 28/M16 A3001 2220 05 4200 170/05 RMK AO2 $
53144K9L2 9L220160417171010204/17/16 17:10:31  5-MIN K9L2 180110Z AUTO 20004KT 10SM CLR 27/M16 A3000 2220 05 4200 190/04 RMK AO2 $
53144K9L2 9L220160417171510204/17/16 17:15:31  5-MIN K9L2 180115Z AUTO 18005KT 10SM CLR 27/M16 A3000 2230 05 4200 160/05 RMK AO2 $
53144K9L2 9L220160417172010204/17/16 17:20:31  5-MIN K9L2 180120Z AUTO 18004KT 10SM CLR 27/M16 A3000 2230 05 4200 160/04 RMK AO2 $
53144K9L2 9L220160417172510204/17/16 17:25:31  5-MIN K9L2 180125Z AUTO 18005KT 10SM CLR 27/M16 A3000 2230 05 4200 170/05 RMK AO2 $
53144K9L2 9L220160417173010204/17/16 17:30:31  5-MIN K9L2 180130Z AUTO 18005KT 10SM CLR 27/M15 A3000 2230 05 4200 170/05 RMK AO2 $
53144K9L2 9L220160417173510204/17/16 17:35:31  5-MIN K9L2 180135Z AUTO 18005KT 10SM CLR 27/M16 A3000 2230 05 4200 170/05 RMK AO2 $
53144K9L2 9L220160417174010204/17/16 17:40:31  5-MIN K9L2 180140Z AUTO 17005KT 10SM CLR 27/M15 A3000 2230 05 4100 160/05 RMK AO2 $
53144K9L2 9L220160417174510204/17/16 17:45:31  5-MIN K9L2 180145Z AUTO 17005KT 10SM CLR 27/M15 A3000 2230 05 4100 160/05 RMK AO2 $
53144K9L2 9L220160417175010204/17/16 17:50:31  5-MIN K9L2 180150Z AUTO 17005KT 10SM CLR 27/M15 A3000 2230 05 4100 160/05 RMK AO2 $
53144K9L2 9L220160417175511904/17/16 17:55:31  5-MIN K9L2 180155Z AUTO 17005KT 10SM CLR 26/M15 A3000 2230 06 4000 150/05 RMK AO2 SLP151 T02611150 $
53144K9L2 9L220160417180010204/17/16 18:00:31  5-MIN K9L2 180200Z AUTO 16004KT 10SM CLR 26/M15 A3000 2230 06 4000 150/04 RMK AO2 $
53144K9L2 9L220160417180510204/17/16 18:05:31  5-MIN K9L2 180205Z AUTO 17005KT 10SM CLR 26/M16 A3000 2230 05 4000 160/05 RMK AO2 $
53144K9L2 9L220160417181010204/17/16 18:10:31  5-MIN K9L2 180210Z AUTO 17005KT 10SM CLR 26/M16 A3000 2230 05 4000 160/05 RMK AO2 $
53144K9L2 9L220160417181510204/17/16 18:15:31  5-MIN K9L2 180215Z AUTO 18005KT 10SM CLR 26/M16 A3000 2220 05 4000 160/05 RMK AO2 $
53144K9L2 9L220160417182010204/17/16 18:20:31  5-MIN K9L2 180220Z AUTO 18005KT 10SM CLR 24/M14 A3001 2220 06 3900 170/05 RMK AO2 $
53144K9L2 9L220160417182510204/17/16 18:25:31  5-MIN K9L2 180225Z AUTO 19005KT 10SM CLR 24/M14 A3001 2220 07 3800 170/05 RMK AO2 $
53144K9L2 9L220160417183010204/17/16 18:30:31  5-MIN K9L2 180230Z AUTO 18005KT 10SM CLR 23/M14 A3001 2220 07 3700 170/05 RMK AO2 $
53144K9L2 9L220160417183510204/17/16 18:35:31  5-MIN K9L2 180235Z AUTO 19004KT 10SM CLR 22/M14 A3001 2220 08 3600 180/04 RMK AO2 $
53144K9L2 9L220160417184010204/17/16 18:40:31  5-MIN K9L2 180240Z AUTO 20004KT 10SM CLR 22/M13 A3001 2220 08 3600 190/04 RMK AO2 $
53144K9L2 9L220160417184510204/17/16 18:45:31  5-MIN K9L2 180245Z AUTO 22005KT 10SM CLR 22/M13 A3002 2210 08 3500 210/05 RMK AO2 $
53144K9L2 9L220160417185010204/17/16 18:50:31  5-MIN K9L2 180250Z AUTO 22007KT 10SM CLR 21/M13 A3002 2210 09 3400 200/07 RMK AO2 $
53144K9L2 9L220160417185512504/17/16 18:55:31  5-MIN K9L2 180255Z AUTO 22006KT 10SM CLR 20/M14 A3002 2210 08 3300 210/06 RMK AO2 SLP159 T02001144 56020 $
53144K9L2 9L220160417190010204/17/16 19:00:31  5-MIN K9L2 180300Z AUTO 23006KT 10SM CLR 21/M14 A3002 2210 08 3400 220/06 RMK AO2 $
53144K9L2 9L220160417190510204/17/16 19:05:31  5-MIN K9L2 180305Z AUTO 24007KT 10SM CLR 19/M14 A3002 2210 09 3300 220/07 RMK AO2 $
53144K9L2 9L220160417191010204/17/16 19:10:31  5-MIN K9L2 180310Z AUTO 24008KT 10SM CLR 19/M14 A3003 2200 09 3300 230/08 RMK AO2 $
53144K9L2 9L220160417191510204/17/16 19:15:31  5-MIN K9L2 180315Z AUTO 25008KT 10SM CLR 20/M14 A3003 2200 08 3300 240/08 RMK AO2 $
53144K9L2 9L220160417192010204/17/16 19:20:31  5-MIN K9L2 180320Z AUTO 26009KT 10SM CLR 19/M14 A3003 2200 09 3300 240/09 RMK AO2 $
53144K9L2 9L220160417192510204/17/16 19:25:31  5-MIN K9L2 180325Z AUTO 26007KT 10SM CLR 20/M14 A3003 2200 08 3300 250/07 RMK AO2 $
53144K9L2 9L220160417193010204/17/16 19:30:31  5-MIN K9L2 180330Z AUTO 25006KT 10SM CLR 20/M14 A3003 2200 08 3300 230/06 RMK AO2 $
53144K9L2 9L220160417193510204/17/16 19:35:31  5-MIN K9L2 180335Z AUTO 22003KT 10SM CLR 19/M14 A3004 2190 09 3300 210/03 RMK AO2 $
53144K9L2 9L220160417194010204/17/16 19:40:31  5-MIN K9L2 180340Z AUTO 24005KT 10SM CLR 19/M14 A3004 2190 09 3200 230/05 RMK AO2 $
53144K9L2 9L220160417194510204/17/16 19:45:31  5-MIN K9L2 180345Z AUTO 25007KT 10SM CLR 19/M14 A3004 2190 09 3200 240/07 RMK AO2 $
53144K9L2 9L220160417195010204/17/16 19:50:31  5-MIN K9L2 180350Z AUTO 25007KT 10SM CLR 19/M13 A3004 2190 10 3200 230/07 RMK AO2 $
53144K9L2 9L220160417195511904/17/16 19:55:31  5-MIN K9L2 180355Z AUTO 25007KT 10SM CLR 20/M12 A3005 2190 10 3300 240/07 RMK AO2 SLP165 T02001122 $
53144K9L2 9L220160417200010204/17/16 20:00:31  5-MIN K9L2 180400Z AUTO 26007KT 10SM CLR 20/M10 A3005 2190 12 3300 240/07 RMK AO2 $
53144K9L2 9L220160417200510204/17/16 20:05:31  5-MIN K9L2 180405Z AUTO 26006KT 10SM CLR 21/M08 A3005 2180 14 3400 250/06 RMK AO2 $
53144K9L2 9L220160417201010204/17/16 20:10:31  5-MIN K9L2 180410Z AUTO 25006KT 10SM CLR 21/M06 A3005 2180 16 3400 240/06 RMK AO2 $
53144K9L2 9L220160417201510204/17/16 20:15:31  5-MIN K9L2 180415Z AUTO 26007KT 10SM CLR 21/M06 A3005 2180 16 3400 240/07 RMK AO2 $
53144K9L2 9L220160417202010204/17/16 20:20:31  5-MIN K9L2 180420Z AUTO 24005KT 10SM CLR 21/M05 A3005 2180 17 3400 230/05 RMK AO2 $
53144K9L2 9L220160417202510204/17/16 20:25:31  5-MIN K9L2 180425Z AUTO 19003KT 10SM CLR 20/M06 A3005 2180 17 3300 180/03 RMK AO2 $
53144K9L2 9L220160417203010204/17/16 20:30:31  5-MIN K9L2 180430Z AUTO 19006KT 10SM CLR 19/M07 A3005 2180 16 3200 180/06 RMK AO2 $
53144K9L2 9L220160417203510204/17/16 20:35:31  5-MIN K9L2 180435Z AUTO 18007KT 10SM CLR 20/M07 A3005 2180 15 3300 170/07 RMK AO2 $
53144K9L2 9L220160417204010204/17/16 20:40:31  5-MIN K9L2 180440Z AUTO 17005KT 10SM CLR 21/M07 A3005 2180 14 3400 160/05 RMK AO2 $
53144K9L2 9L220160417204510204/17/16 20:45:31  5-MIN K9L2 180445Z AUTO 16006KT 10SM CLR 20/M08 A3005 2180 14 3300 150/06 RMK AO2 $
53144K9L2 9L220160417205010204/17/16 20:50:31  5-MIN K9L2 180450Z AUTO 17005KT 10SM CLR 19/M09 A3006 2180 14 3200 160/05 RMK AO2 $
53144K9L2 9L220160417205511904/17/16 20:55:31  5-MIN K9L2 180455Z AUTO 18004KT 10SM CLR 20/M07 A3006 2180 15 3300 170/04 RMK AO2 SLP165 T02001072 $
53144K9L2 9L220160417210010204/17/16 21:00:31  5-MIN K9L2 180500Z AUTO 17004KT 10SM CLR 20/M07 A3006 2180 15 3300 150/04 RMK AO2 $
53144K9L2 9L220160417210510204/17/16 21:05:31  5-MIN K9L2 180505Z AUTO 17004KT 10SM CLR 19/M09 A3006 2180 14 3200 160/04 RMK AO2 $
53144K9L2 9L220160417211010204/17/16 21:10:31  5-MIN K9L2 180510Z AUTO 00000KT 10SM CLR 19/M09 A3006 2180 14 3200 000/00 RMK AO2 $
53144K9L2 9L220160417211510204/17/16 21:15:31  5-MIN K9L2 180515Z AUTO 15003KT 10SM CLR 19/M08 A3006 2180 14 3200 140/03 RMK AO2 $
53144K9L2 9L220160417212010204/17/16 21:20:31  5-MIN K9L2 180520Z AUTO 15005KT 10SM CLR 19/M09 A3006 2170 14 3200 140/05 RMK AO2 $
53144K9L2 9L220160417212510204/17/16 21:25:31  5-MIN K9L2 180525Z AUTO 16004KT 10SM CLR 18/M10 A3006 2180 14 3000 150/04 RMK AO2 $
53144K9L2 9L220160417213010204/17/16 21:30:31  5-MIN K9L2 180530Z AUTO 17003KT 10SM CLR 18/M11 A3006 2170 13 3000 150/03 RMK AO2 $
53144K9L2 9L220160417213510204/17/16 21:35:31  5-MIN K9L2 180535Z AUTO 16004KT 10SM CLR 17/M11 A3006 2170 13 3000 150/04 RMK AO2 $
53144K9L2 9L220160417214010204/17/16 21:40:31  5-MIN K9L2 180540Z AUTO 16004KT 10SM CLR 17/M12 A3006 2170 12 2900 150/04 RMK AO2 $
53144K9L2 9L220160417214510204/17/16 21:45:31  5-MIN K9L2 180545Z AUTO 16005KT 10SM CLR 17/M13 A3006 2170 12 2900 150/05 RMK AO2 $
53144K9L2 9L220160417215010204/17/16 21:50:31  5-MIN K9L2 180550Z AUTO 17004KT 10SM CLR 17/M13 A3006 2170 12 2900 160/04 RMK AO2 $
53144K9L2 9L220160417215513704/17/16 21:55:31  5-MIN K9L2 180555Z AUTO 17004KT 10SM CLR 16/M13 A3006 2170 12 2800 150/04 RMK AO2 SLP167 T01611128 10283 20161 53003 $
53144K9L2 9L220160417220010204/17/16 22:00:31  5-MIN K9L2 180600Z AUTO 15004KT 10SM CLR 16/M12 A3006 2180 13 2800 140/04 RMK AO2 $
53144K9L2 9L220160417220510204/17/16 22:05:31  5-MIN K9L2 180605Z AUTO 15003KT 10SM CLR 16/M12 A3006 2180 13 2800 140/03 RMK AO2 $
53144K9L2 9L220160417221010204/17/16 22:10:31  5-MIN K9L2 180610Z AUTO 00000KT 10SM CLR 15/M12 A3006 2180 14 2700 000/00 RMK AO2 $
53144K9L2 9L220160417221510204/17/16 22:15:31  5-MIN K9L2 180615Z AUTO 00000KT 10SM CLR 15/M12 A3005 2180 14 2700 000/00 RMK AO2 $
53144K9L2 9L220160417222010204/17/16 22:20:31  5-MIN K9L2 180620Z AUTO 00000KT 10SM CLR 15/M12 A3005 2180 14 2700 000/00 RMK AO2 $
53144K9L2 9L220160417222510204/17/16 22:25:31  5-MIN K9L2 180625Z AUTO 00000KT 10SM CLR 14/M12 A3005 2180 15 2700 000/00 RMK AO2 $
53144K9L2 9L220160417223010204/17/16 22:30:31  5-MIN K9L2 180630Z AUTO 00000KT 10SM CLR 14/M12 A3005 2180 15 2700 000/00 RMK AO2 $
53144K9L2 9L220160417223510204/17/16 22:35:31  5-MIN K9L2 180635Z AUTO 00000KT 10SM CLR 14/M12 A3005 2180 15 2700 000/00 RMK AO2 $
53144K9L2 9L220160417224010204/17/16 22:40:31  5-MIN K9L2 180640Z AUTO 17003KT 10SM CLR 14/M12 A3005 2180 15 2700 160/03 RMK AO2 $
53144K9L2 9L220160417224510204/17/16 22:45:31  5-MIN K9L2 180645Z AUTO 16003KT 10SM CLR 14/M12 A3005 2180 16 2600 150/03 RMK AO2 $
53144K9L2 9L220160417225010204/17/16 22:50:31  5-MIN K9L2 180650Z AUTO 16004KT 10SM CLR 14/M12 A3005 2180 16 2600 150/04 RMK AO2 $
53144K9L2 9L220160417225511904/17/16 22:55:31  5-MIN K9L2 180655Z AUTO 17004KT 10SM CLR 14/M12 A3006 2180 16 2600 160/04 RMK AO2 SLP165 T01391117 $
53144K9L2 9L220160417230010204/17/16 23:00:31  5-MIN K9L2 180700Z AUTO 16005KT 10SM CLR 14/M12 A3006 2180 15 2700 150/05 RMK AO2 $
53144K9L2 9L220160417230510204/17/16 23:05:31  5-MIN K9L2 180705Z AUTO 16005KT 10SM CLR 14/M12 A3006 2180 14 2700 150/05 RMK AO2 $
53144K9L2 9L220160417231010204/17/16 23:10:31  5-MIN K9L2 180710Z AUTO 17004KT 10SM CLR 14/M12 A3005 2180 15 2700 160/04 RMK AO2 $
53144K9L2 9L220160417231510204/17/16 23:15:31  5-MIN K9L2 180715Z AUTO 17003KT 10SM CLR 14/M12 A3006 2180 15 2700 160/03 RMK AO2 $
53144K9L2 9L220160417232010204/17/16 23:20:31  5-MIN K9L2 180720Z AUTO 00000KT 10SM CLR 14/M11 A3006 2180 16 2600 000/00 RMK AO2 $
53144K9L2 9L220160417232510204/17/16 23:25:31  5-MIN K9L2 180725Z AUTO 00000KT 10SM CLR 13/M11 A3006 2180 17 2500 000/00 RMK AO2 $
53144K9L2 9L220160417233010204/17/16 23:30:31  5-MIN K9L2 180730Z AUTO 19004KT 10SM CLR 13/M11 A3005 2180 17 2500 180/04 RMK AO2 $
53144K9L2 9L220160417233510204/17/16 23:35:31  5-MIN K9L2 180735Z AUTO 00000KT 10SM CLR 13/M11 A3006 2180 18 2500 000/00 RMK AO2 $
53144K9L2 9L220160417234010204/17/16 23:40:31  5-MIN K9L2 180740Z AUTO 00000KT 10SM CLR 13/M11 A3006 2180 18 2500 000/00 RMK AO2 $
53144K9L2 9L220160417234510204/17/16 23:45:31  5-MIN K9L2 180745Z AUTO 00000KT 10SM CLR 13/M11 A3006 2180 18 2500 000/00 RMK AO2 $
53144K9L2 9L220160417235010204/17/16 23:50:31  5-MIN K9L2 180750Z AUTO 22003KT 10SM CLR 13/M10 A3006 2180 19 2500 200/03 RMK AO2 $
53144K9L2 9L220160417235512904/17/16 23:55:31  5-MIN K9L2 180755Z AUTO 21005KT 10SM CLR 12/M11 A3005 2180 19 2400 200/05 RMK AO2 SLP167 T01221106 402830039 $
53144K9L2 9L220160418000010204/18/16 00:00:31  5-MIN K9L2 180800Z AUTO 27004KT 10SM CLR 10/M11 A3006 2180 21 2100 260/04 RMK AO2 $
53144K9L2 9L220160418000510204/18/16 00:05:31  5-MIN K9L2 180805Z AUTO 27003KT 10SM CLR 10/M11 A3006 2180 22 2100 260/03 RMK AO2 $
53144K9L2 9L220160418001010204/18/16 00:10:31  5-MIN K9L2 180810Z AUTO 00000KT 10SM CLR 10/M10 A3006 2180 23 2100 000/00 RMK AO2 $
53144K9L2 9L220160418001510204/18/16 00:15:31  5-MIN K9L2 180815Z AUTO 00000KT 10SM CLR 10/M09 A3006 2180 24 2100 000/00 RMK AO2 $
53144K9L2 9L220160418002010204/18/16 00:20:31  5-MIN K9L2 180820Z AUTO 00000KT 10SM CLR 10/M09 A3006 2180 24 2100 000/00 RMK AO2 $
53144K9L2 9L220160418002510204/18/16 00:25:31  5-MIN K9L2 180825Z AUTO 00000KT 10SM CLR 10/M09 A3006 2170 24 2100 000/00 RMK AO2 $
53144K9L2 9L220160418003010204/18/16 00:30:31  5-MIN K9L2 180830Z AUTO 00000KT 10SM CLR 09/M09 A3006 2170 25 2100 000/00 RMK AO2 $
53144K9L2 9L220160418003510204/18/16 00:35:31  5-MIN K9L2 180835Z AUTO 00000KT 10SM CLR 09/M09 A3006 2180 25 2100 000/00 RMK AO2 $
53144K9L2 9L220160418004010204/18/16 00:40:31  5-MIN K9L2 180840Z AUTO 00000KT 10SM CLR 09/M09 A3006 2180 26 2100 000/00 RMK AO2 $
53144K9L2 9L220160418004510204/18/16 00:45:31  5-MIN K9L2 180845Z AUTO 00000KT 10SM CLR 10/M09 A3006 2180 25 2100 000/00 RMK AO2 $
53144K9L2 9L220160418005010204/18/16 00:50:31  5-MIN K9L2 180850Z AUTO 00000KT 10SM CLR 10/M09 A3005 2180 25 2100 000/00 RMK AO2 $
53144K9L2 9L220160418005512504/18/16 00:55:31  5-MIN K9L2 180855Z AUTO 00000KT 10SM CLR 10/M09 A3005 2180 25 2100 000/00 RMK AO2 SLP168 T01001089 51013 $
53144K9L2 9L220160418010010204/18/16 01:00:31  5-MIN K9L2 180900Z AUTO 00000KT 10SM CLR 09/M09 A3006 2180 26 2100 000/00 RMK AO2 $
53144K9L2 9L220160418010510204/18/16 01:05:31  5-MIN K9L2 180905Z AUTO 01004KT 10SM CLR 09/M09 A3006 2180 26 2000 360/04 RMK AO2 $
53144K9L2 9L220160418193510204/18/16 19:35:31  5-MIN K9L2 190335Z AUTO 23013KT 10SM CLR 23/M04 A3003 2200 15 3700 220/13 RMK AO2 $
53144K9L2 9L220160418194010204/18/16 19:40:31  5-MIN K9L2 190340Z AUTO 24013KT 10SM CLR 23/M04 A3003 2200 15 3700 220/13 RMK AO2 $
53144K9L2 9L220160418194510204/18/16 19:45:31  5-MIN K9L2 190345Z AUTO 24014KT 10SM CLR 23/M04 A3003 2200 15 3700 230/14 RMK AO2 $
53144K9L2 9L220160418195010204/18/16 19:50:31  5-MIN K9L2 190350Z AUTO 24014KT 10SM CLR 23/M04 A3003 2200 15 3700 230/14 RMK AO2 $
53144K9L2 9L220160418195511904/18/16 19:55:31  5-MIN K9L2 190355Z AUTO 24012KT 10SM CLR 23/M04 A3003 2200 16 3600 220/12 RMK AO2 SLP156 T02281044 $
53144K9L2 9L220160418200010204/18/16 20:00:31  5-MIN K9L2 190400Z AUTO 24012KT 10SM CLR 23/M04 A3003 2200 16 3600 220/12 RMK AO2 $
53144K9L2 9L220160418200510204/18/16 20:05:31  5-MIN K9L2 190405Z AUTO 24011KT 10SM CLR 23/M04 A3003 2200 16 3600 220/11 RMK AO2 $
53144K9L2 9L220160418201010204/18/16 20:10:31  5-MIN K9L2 190410Z AUTO 23012KT 10SM CLR 22/M04 A3003 2200 17 3600 220/12 RMK AO2 $
53144K9L2 9L220160418201510204/18/16 20:15:31  5-MIN K9L2 190415Z AUTO 23009KT 10SM CLR 22/M04 A3003 2200 17 3600 220/09 RMK AO2 $
53144K9L2 9L220160418202010204/18/16 20:20:31  5-MIN K9L2 190420Z AUTO 23008KT 10SM CLR 22/M04 A3004 2200 17 3600 210/08 RMK AO2 $
53144K9L2 9L220160418202510204/18/16 20:25:31  5-MIN K9L2 190425Z AUTO 22008KT 10SM CLR 22/M04 A3004 2200 17 3500 210/08 RMK AO2 $
53144K9L2 9L220160418203010204/18/16 20:30:31  5-MIN K9L2 190430Z AUTO 21008KT 10SM CLR 22/M04 A3004 2200 17 3500 200/08 RMK AO2 $
53144K9L2 9L220160418203510204/18/16 20:35:31  5-MIN K9L2 190435Z AUTO 20007KT 10SM CLR 21/M04 A3004 2190 18 3400 190/07 RMK AO2 $
53144K9L2 9L220160418204010204/18/16 20:40:31  5-MIN K9L2 190440Z AUTO 21009KT 10SM CLR 21/M04 A3004 2190 18 3400 200/09 RMK AO2 $
53144K9L2 9L220160418204510204/18/16 20:45:31  5-MIN K9L2 190445Z AUTO 21009KT 10SM CLR 21/M04 A3004 2190 18 3400 200/09 RMK AO2 $
53144K9L2 9L220160418205010204/18/16 20:50:31  5-MIN K9L2 190450Z AUTO 22008KT 10SM CLR 21/M04 A3004 2190 19 3400 200/08 RMK AO2 $
53144K9L2 9L220160418205511904/18/16 20:55:31  5-MIN K9L2 190455Z AUTO 22008KT 10SM CLR 21/M04 A3004 2190 19 3400 200/08 RMK AO2 SLP160 T02061039 $
53144K9L2 9L220160418210010204/18/16 21:00:31  5-MIN K9L2 190500Z AUTO 22007KT 10SM CLR 21/M04 A3004 2190 19 3400 210/07 RMK AO2 $
53144K9L2 9L220160418210510204/18/16 21:05:31  5-MIN K9L2 190505Z AUTO 22006KT 10SM CLR 20/M03 A3004 2190 20 3300 210/06 RMK AO2 $
53144K9L2 9L220160418211010204/18/16 21:10:31  5-MIN K9L2 190510Z AUTO 22005KT 10SM CLR 20/M03 A3004 2190 20 3300 210/05 RMK AO2 $
53144K9L2 9L220160418211510204/18/16 21:15:31  5-MIN K9L2 190515Z AUTO 20004KT 10SM CLR 19/M04 A3004 2190 20 3300 180/04 RMK AO2 $
53144K9L2 9L220160418212010204/18/16 21:20:31  5-MIN K9L2 190520Z AUTO 19007KT 10SM CLR 19/M04 A3004 2190 21 3200 180/07 RMK AO2 $
53144K9L2 9L220160418212510204/18/16 21:25:31  5-MIN K9L2 190525Z AUTO 19006KT 10SM CLR 19/M03 A3004 2190 22 3200 180/06 RMK AO2 $
53144K9L2 9L220160418213010204/18/16 21:30:31  5-MIN K9L2 190530Z AUTO 20007KT 10SM CLR 19/M03 A3004 2190 22 3200 190/07 RMK AO2 $
53144K9L2 9L220160418213510204/18/16 21:35:31  5-MIN K9L2 190535Z AUTO 20006KT 10SM CLR 19/M04 A3004 2190 21 3200 190/06 RMK AO2 $
53144K9L2 9L220160418214010204/18/16 21:40:31  5-MIN K9L2 190540Z AUTO 21006KT 10SM CLR 19/M03 A3004 2190 22 3200 200/06 RMK AO2 $
53144K9L2 9L220160418214510204/18/16 21:45:31  5-MIN K9L2 190545Z AUTO 20005KT 10SM CLR 18/M03 A3004 2190 22 3100 190/05 RMK AO2 $
53144K9L2 9L220160418215010204/18/16 21:50:31  5-MIN K9L2 190550Z AUTO 20004KT 10SM CLR 18/M03 A3004 2190 22 3100 180/04 RMK AO2 $
53144K9L2 9L220160418215513704/18/16 21:55:31  5-MIN K9L2 190555Z AUTO 20003KT 10SM CLR 18/M03 A3004 2190 22 3100 180/03 RMK AO2 SLP160 T01831033 10300 20183 55001 $
53144K9L2 9L220160418220010204/18/16 22:00:31  5-MIN K9L2 190600Z AUTO 00000KT 10SM CLR 18/M03 A3004 2190 22 3100 000/00 RMK AO2 $
53144K9L2 9L220160418220510204/18/16 22:05:31  5-MIN K9L2 190605Z AUTO 00000KT 10SM CLR 18/M03 A3004 2190 22 3100 000/00 RMK AO2 $
53144K9L2 9L220160418221010204/18/16 22:10:31  5-MIN K9L2 190610Z AUTO 21005KT 10SM CLR 19/M03 A3004 2190 22 3200 200/05 RMK AO2 $
53144K9L2 9L220160418221510204/18/16 22:15:31  5-MIN K9L2 190615Z AUTO 20005KT 10SM CLR 18/M03 A3004 2190 22 3100 190/05 RMK AO2 $
53144K9L2 9L220160418222010204/18/16 22:20:31  5-MIN K9L2 190620Z AUTO 19005KT 10SM CLR 18/M03 A3004 2190 23 3100 180/05 RMK AO2 $
53144K9L2 9L220160418222510204/18/16 22:25:31  5-MIN K9L2 190625Z AUTO 19009KT 10SM CLR 18/M04 A3004 2190 22 3100 170/09 RMK AO2 $
53144K9L2 9L220160418223010204/18/16 22:30:31  5-MIN K9L2 190630Z AUTO 20010KT 10SM CLR 18/M04 A3004 2190 22 3100 190/10 RMK AO2 $
53144K9L2 9L220160418223510204/18/16 22:35:31  5-MIN K9L2 190635Z AUTO 21009KT 10SM CLR 18/M03 A3004 2190 22 3100 200/09 RMK AO2 $
53144K9L2 9L220160418224010204/18/16 22:40:31  5-MIN K9L2 190640Z AUTO 21008KT 10SM CLR 18/M03 A3004 2190 23 3100 200/08 RMK AO2 $
53144K9L2 9L220160418224510204/18/16 22:45:31  5-MIN K9L2 190645Z AUTO 20006KT 10SM CLR 17/M03 A3004 2190 24 3000 180/06 RMK AO2 $
53144K9L2 9L220160418225010204/18/16 22:50:31  5-MIN K9L2 190650Z AUTO 21003KT 10SM CLR 17/M03 A3004 2190 24 3000 200/03 RMK AO2 $
53144K9L2 9L220160418225511904/18/16 22:55:31  5-MIN K9L2 190655Z AUTO 00000KT 10SM CLR 17/M03 A3004 2190 25 2900 000/00 RMK AO2 SLP160 T01671033 $
53144K9L2 9L220160418230010204/18/16 23:00:31  5-MIN K9L2 190700Z AUTO 00000KT 10SM CLR 17/M03 A3004 2190 25 3000 000/00 RMK AO2 $
53144K9L2 9L220160418230510204/18/16 23:05:31  5-MIN K9L2 190705Z AUTO 19005KT 10SM CLR 17/M03 A3004 2190 24 3000 170/05 RMK AO2 $
53144K9L2 9L220160418231010204/18/16 23:10:31  5-MIN K9L2 190710Z AUTO 19004KT 10SM CLR 17/M03 A3004 2190 24 3000 180/04 RMK AO2 $
53144K9L2 9L220160418231510204/18/16 23:15:31  5-MIN K9L2 190715Z AUTO 18004KT 10SM CLR 17/M03 A3004 2190 25 3000 170/04 RMK AO2 $
53144K9L2 9L220160418232010204/18/16 23:20:31  5-MIN K9L2 190720Z AUTO 18003KT 10SM CLR 17/M03 A3004 2190 25 3000 170/03 RMK AO2 $
53144K9L2 9L220160418232510204/18/16 23:25:31  5-MIN K9L2 190725Z AUTO 17004KT 10SM CLR 17/M03 A3004 2190 25 3000 160/04 RMK AO2 $
53144K9L2 9L220160418233010204/18/16 23:30:31  5-MIN K9L2 190730Z AUTO 17004KT 10SM CLR 17/M03 A3004 2190 26 2900 160/04 RMK AO2 $
53144K9L2 9L220160418233510204/18/16 23:35:31  5-MIN K9L2 190735Z AUTO 19003KT 10SM CLR 17/M03 A3004 2190 26 2900 170/03 RMK AO2 $
53144K9L2 9L220160418234010204/18/16 23:40:31  5-MIN K9L2 190740Z AUTO 00000KT 10SM CLR 16/M03 A3004 2190 27 2900 000/00 RMK AO2 $
53144K9L2 9L220160418234510204/18/16 23:45:31  5-MIN K9L2 190745Z AUTO 00000KT 10SM CLR 16/M03 A3004 2190 27 2900 000/00 RMK AO2 $
53144K9L2 9L220160418235010204/18/16 23:50:31  5-MIN K9L2 190750Z AUTO 14004KT 10SM CLR 16/M03 A3004 2190 28 2800 130/04 RMK AO2 $
53144K9L2 9L220160418235512904/18/16 23:55:31  5-MIN K9L2 190755Z AUTO 17003KT 10SM CLR 16/M03 A3004 2190 28 2800 150/03 RMK AO2 SLP159 T01561028 403000061 $
53144K9L2 9L220160419000010204/19/16 00:00:31  5-MIN K9L2 190800Z AUTO 00000KT 10SM CLR 16/M03 A3004 2190 28 2800 000/00 RMK AO2 $
53144K9L2 9L220160419000510204/19/16 00:05:31  5-MIN K9L2 190805Z AUTO 18004KT 10SM CLR 16/M03 A3004 2190 28 2800 170/04 RMK AO2 $
53144K9L2 9L220160419001010204/19/16 00:10:31  5-MIN K9L2 190810Z AUTO 18003KT 10SM CLR 16/M03 A3004 2190 28 2800 160/03 RMK AO2 $
53144K9L2 9L220160419001510204/19/16 00:15:31  5-MIN K9L2 190815Z AUTO 17003KT 10SM CLR 16/M02 A3004 2190 29 2800 160/03 RMK AO2 $
53144K9L2 9L220160419002010204/19/16 00:20:31  5-MIN K9L2 190820Z AUTO 00000KT 10SM CLR 15/M03 A3004 2190 29 2700 000/00 RMK AO2 $
53144K9L2 9L220160419002510204/19/16 00:25:31  5-MIN K9L2 190825Z AUTO 00000KT 10SM CLR 14/M03 A3004 2190 30 2700 000/00 RMK AO2 $
53144K9L2 9L220160419003010204/19/16 00:30:31  5-MIN K9L2 190830Z AUTO 00000KT 10SM CLR 14/M03 A3004 2190 30 2700 000/00 RMK AO2 $
53144K9L2 9L220160419003510204/19/16 00:35:31  5-MIN K9L2 190835Z AUTO 00000KT 10SM CLR 15/M03 A3004 2190 29 2700 000/00 RMK AO2 $
53144K9L2 9L220160419004010204/19/16 00:40:31  5-MIN K9L2 190840Z AUTO 00000KT 10SM CLR 14/M03 A3004 2200 30 2700 000/00 RMK AO2 $
53144K9L2 9L220160419004510204/19/16 00:45:31  5-MIN K9L2 190845Z AUTO 17004KT 10SM CLR 14/M03 A3003 2200 30 2700 160/04 RMK AO2 $
53144K9L2 9L220160419005010204/19/16 00:50:31  5-MIN K9L2 190850Z AUTO 00000KT 10SM CLR 14/M02 A3003 2200 31 2700 000/00 RMK AO2 $
53144K9L2 9L220160419005512504/19/16 00:55:31  5-MIN K9L2 190855Z AUTO 14004KT 10SM CLR 14/M03 A3003 2200 30 2700 130/04 RMK AO2 SLP156 T01441028 51006 $
53144K9L2 9L220160419010010204/19/16 01:00:31  5-MIN K9L2 190900Z AUTO 13004KT 10SM CLR 14/M03 A3003 2200 30 2700 110/04 RMK AO2 $
53144K9L2 9L220160419010510204/19/16 01:05:31  5-MIN K9L2 190905Z AUTO 13005KT 10SM CLR 14/M03 A3003 2200 29 2700 120/05 RMK AO2 $
53144K9L2 9L220160419011010204/19/16 01:10:31  5-MIN K9L2 190910Z AUTO 14006KT 10SM CLR 14/M03 A3003 2210 30 2700 120/06 RMK AO2 $
53144K9L2 9L220160419011510204/19/16 01:15:31  5-MIN K9L2 190915Z AUTO 14004KT 10SM CLR 14/M04 A3003 2210 29 2600 130/04 RMK AO2 $
53144K9L2 9L220160419012010204/19/16 01:20:31  5-MIN K9L2 190920Z AUTO 12003KT 10SM CLR 14/M03 A3002 2210 30 2600 110/03 RMK AO2 $
53144K9L2 9L220160419012510204/19/16 01:25:31  5-MIN K9L2 190925Z AUTO 15005KT 10SM CLR 14/M04 A3002 2210 29 2600 140/05 RMK AO2 $
53144K9L2 9L220160419013010204/19/16 01:30:31  5-MIN K9L2 190930Z AUTO 15004KT 10SM CLR 13/M04 A3002 2210 30 2600 140/04 RMK AO2 $
53144K9L2 9L220160419013510204/19/16 01:35:31  5-MIN K9L2 190935Z AUTO 13007KT 10SM CLR 13/M04 A3002 2210 30 2600 120/07 RMK AO2 $
53144K9L2 9L220160419014010204/19/16 01:40:31  5-MIN K9L2 190940Z AUTO 15005KT 10SM CLR 13/M04 A3002 2210 30 2600 140/05 RMK AO2 $
53144K9L2 9L220160419014510204/19/16 01:45:31  5-MIN K9L2 190945Z AUTO 15005KT 10SM CLR 14/M03 A3002 2210 30 2600 140/05 RMK AO2 $
53144K9L2 9L220160419015010204/19/16 01:50:31  5-MIN K9L2 190950Z AUTO 14005KT 10SM CLR 13/M03 A3002 2210 32 2600 130/05 RMK AO2 $
53144K9L2 9L220160419015511904/19/16 01:55:31  5-MIN K9L2 190955Z AUTO 13005KT 10SM CLR 13/M03 A3002 2210 32 2600 120/05 RMK AO2 SLP153 T01331028 $
53144K9L2 9L220160419020010204/19/16 02:00:31  5-MIN K9L2 191000Z AUTO 14004KT 10SM CLR 13/M03 A3002 2210 32 2600 120/04 RMK AO2 $
53144K9L2 9L220160419020510204/19/16 02:05:31  5-MIN K9L2 191005Z AUTO 15003KT 10SM CLR 13/M03 A3002 2210 32 2600 130/03 RMK AO2 $
53144K9L2 9L220160419021010204/19/16 02:10:31  5-MIN K9L2 191010Z AUTO VRB04KT 10SM CLR 13/M03 A3002 2210 32 2600 VRB/04 RMK AO2 $
53144K9L2 9L220160419021510204/19/16 02:15:31  5-MIN K9L2 191015Z AUTO 15004KT 10SM CLR 13/M03 A3002 2210 31 2600 130/04 RMK AO2 $
53144K9L2 9L220160419022010204/19/16 02:20:31  5-MIN K9L2 191020Z AUTO 14005KT 10SM CLR 13/M03 A3002 2210 31 2600 130/05 RMK AO2 $
53144K9L2 9L220160419022510204/19/16 02:25:31  5-MIN K9L2 191025Z AUTO 16003KT 10SM CLR 13/M03 A3002 2210 32 2500 140/03 RMK AO2 $
53144K9L2 9L220160419023010204/19/16 02:30:31  5-MIN K9L2 191030Z AUTO 14004KT 10SM CLR 13/M03 A3002 2210 33 2500 130/04 RMK AO2 $
53144K9L2 9L220160419023510204/19/16 02:35:31  5-MIN K9L2 191035Z AUTO 17007KT 10SM CLR 13/M03 A3002 2210 33 2500 160/07 RMK AO2 $
53144K9L2 9L220160419024010204/19/16 02:40:31  5-MIN K9L2 191040Z AUTO 00000KT 10SM CLR 13/M03 A3002 2210 33 2500 000/00 RMK AO2 $
53144K9L2 9L220160419024510204/19/16 02:45:31  5-MIN K9L2 191045Z AUTO 17004KT 10SM CLR 13/M03 A3002 2210 33 2500 150/04 RMK AO2 $
53144K9L2 9L220160419025010204/19/16 02:50:31  5-MIN K9L2 191050Z AUTO 19005KT 10SM CLR 13/M03 A3002 2210 33 2500 180/05 RMK AO2 $
53144K9L2 9L220160419025511904/19/16 02:55:31  5-MIN K9L2 191055Z AUTO 20003KT 10SM CLR 12/M03 A3002 2210 35 2400 190/03 RMK AO2 SLP153 T01221028 $
53144K9L2 9L220160419030010204/19/16 03:00:31  5-MIN K9L2 191100Z AUTO 20004KT 10SM CLR 12/M03 A3002 2210 35 2400 180/04 RMK AO2 $
53144K9L2 9L220160419030510204/19/16 03:05:31  5-MIN K9L2 191105Z AUTO 19003KT 10SM CLR 12/M03 A3002 2210 35 2400 180/03 RMK AO2 $
53144K9L2 9L220160419031010204/19/16 03:10:31  5-MIN K9L2 191110Z AUTO 20003KT 10SM CLR 11/M03 A3002 2210 36 2300 190/03 RMK AO2 $
53144K9L2 9L220160419031510204/19/16 03:15:31  5-MIN K9L2 191115Z AUTO 20003KT 10SM CLR 11/M03 A3002 2210 36 2300 190/03 RMK AO2 $
53144K9L2 9L220160419032010204/19/16 03:20:31  5-MIN K9L2 191120Z AUTO 00000KT 10SM CLR 11/M04 A3002 2210 36 2200 000/00 RMK AO2 $
53144K9L2 9L220160419032510204/19/16 03:25:31  5-MIN K9L2 191125Z AUTO 00000KT 10SM CLR 10/M04 A3002 2210 37 2200 000/00 RMK AO2 $
53144K9L2 9L220160419033010204/19/16 03:30:31  5-MIN K9L2 191130Z AUTO 00000KT 10SM CLR 10/M04 A3002 2210 37 2200 000/00 RMK AO2 $
53144K9L2 9L220160419033510204/19/16 03:35:31  5-MIN K9L2 191135Z AUTO 00000KT 10SM CLR 10/M04 A3002 2210 36 2200 000/00 RMK AO2 $
53144K9L2 9L220160419034010204/19/16 03:40:31  5-MIN K9L2 191140Z AUTO 00000KT 10SM CLR 10/M04 A3002 2210 36 2200 000/00 RMK AO2 $
53144K9L2 9L220160419034510204/19/16 03:45:31  5-MIN K9L2 191145Z AUTO 00000KT 10SM CLR 10/M04 A3002 2210 37 2200 000/00 RMK AO2 $
53144K9L2 9L220160419035010204/19/16 03:50:31  5-MIN K9L2 191150Z AUTO 00000KT 10SM CLR 09/M04 A3002 2210 37 2100 000/00 RMK AO2 $
53144K9L2 9L220160419035513704/19/16 03:55:31  5-MIN K9L2 191155Z AUTO 00000KT 10SM CLR 09/M04 A3002 2210 37 2100 000/00 RMK AO2 SLP154 T00941044 10189 20094 58005 $
53144K9L2 9L220160419040010204/19/16 04:00:31  5-MIN K9L2 191200Z AUTO 00000KT 10SM CLR 09/M04 A3001 2220 37 2100 000/00 RMK AO2 $
53144K9L2 9L220160419040510204/19/16 04:05:31  5-MIN K9L2 191205Z AUTO 00000KT 10SM CLR 09/M04 A3001 2220 37 2100 000/00 RMK AO2 $
53144K9L2 9L220160419041010204/19/16 04:10:31  5-MIN K9L2 191210Z AUTO 00000KT 10SM CLR 09/M05 A3002 2220 37 2000 000/00 RMK AO2 $
53144K9L2 9L220160419041510204/19/16 04:15:31  5-MIN K9L2 191215Z AUTO 00000KT 10SM CLR 09/M05 A3001 2220 35 2100 000/00 RMK AO2 $
53144K9L2 9L220160419042010204/19/16 04:20:31  5-MIN K9L2 191220Z AUTO 00000KT 10SM CLR 09/M05 A3001 2220 37 2000 000/00 RMK AO2 $
53144K9L2 9L220160419042510204/19/16 04:25:31  5-MIN K9L2 191225Z AUTO 00000KT 10SM CLR 08/M05 A3001 2220 38 2000 000/00 RMK AO2 $
53144K9L2 9L220160419043010204/19/16 04:30:31  5-MIN K9L2 191230Z AUTO 00000KT 10SM CLR 08/M05 A3001 2220 38 2000 000/00 RMK AO2 $
53144K9L2 9L220160419043510204/19/16 04:35:31  5-MIN K9L2 191235Z AUTO 00000KT 10SM CLR 09/M05 A3001 2220 37 2100 000/00 RMK AO2 $
53144K9L2 9L220160419044010204/19/16 04:40:31  5-MIN K9L2 191240Z AUTO 00000KT 10SM CLR 08/M05 A3002 2220 38 2000 000/00 RMK AO2 $
53144K9L2 9L220160419044510204/19/16 04:45:31  5-MIN K9L2 191245Z AUTO 00000KT 10SM CLR 08/M05 A3002 2210 38 2000 000/00 RMK AO2 $
53144K9L2 9L220160419045010204/19/16 04:50:31  5-MIN K9L2 191250Z AUTO 00000KT 10SM CLR 08/M05 A3002 2210 38 2000 000/00 RMK AO2 $
53144K9L2 9L220160419045511904/19/16 04:55:31  5-MIN K9L2 191255Z AUTO 00000KT 10SM CLR 08/M05 A3002 2210 38 2000 000/00 RMK AO2 SLP156 T00831050 $
53144K9L2 9L220160419050010204/19/16 05:00:31  5-MIN K9L2 191300Z AUTO 00000KT 10SM CLR 08/M05 A3002 2210 38 2000 000/00 RMK AO2 $
53144K9L2 9L220160419050510204/19/16 05:05:31  5-MIN K9L2 191305Z AUTO 00000KT 10SM CLR 08/M05 A3002 2210 40 1900 000/00 RMK AO2 $
53144K9L2 9L220160419051010204/19/16 05:10:31  5-MIN K9L2 191310Z AUTO 34003KT 10SM CLR 08/M05 A3002 2210 40 1900 330/03 RMK AO2 $
53144K9L2 9L220160419051510204/19/16 05:15:31  5-MIN K9L2 191315Z AUTO 36003KT 10SM CLR 08/M05 A3002 2210 38 2000 340/03 RMK AO2 $
53144K9L2 9L220160419052010204/19/16 05:20:31  5-MIN K9L2 191320Z AUTO 00000KT 10SM CLR 08/M05 A3002 2210 38 2000 000/00 RMK AO2 $
53144K9L2 9L220160419052510204/19/16 05:25:31  5-MIN K9L2 191325Z AUTO 00000KT 10SM CLR 08/M05 A3002 2210 38 2000 000/00 RMK AO2 $
53144K9L2 9L220160419053010204/19/16 05:30:31  5-MIN K9L2 191330Z AUTO 00000KT 10SM CLR 08/M05 A3002 2210 38 2000 000/00 RMK AO2 $
53144K9L2 9L220160419053510204/19/16 05:35:31  5-MIN K9L2 191335Z AUTO 00000KT 10SM CLR 09/M04 A3003 2210 38 2000 000/00 RMK AO2 $
53144K9L2 9L220160419054010204/19/16 05:40:31  5-MIN K9L2 191340Z AUTO 01005KT 10SM CLR 09/M04 A3003 2200 38 2000 360/05 RMK AO2 $
53144K9L2 9L220160419054510204/19/16 05:45:31  5-MIN K9L2 191345Z AUTO 01003KT 10SM CLR 09/M04 A3003 2200 37 2100 360/03 RMK AO2 $
53144K9L2 9L220160419055010204/19/16 05:50:31  5-MIN K9L2 191350Z AUTO 01003KT 10SM CLR 10/M04 A3003 2200 36 2200 360/03 RMK AO2 $
53144K9L2 9L220160419055511904/19/16 05:55:31  5-MIN K9L2 191355Z AUTO 35003KT 10SM CLR 11/M04 A3003 2200 36 2200 340/03 RMK AO2 SLP157 T01061039 $
53144K9L2 9L220160419060010204/19/16 06:00:31  5-MIN K9L2 191400Z AUTO 36003KT 10SM CLR 11/M04 A3003 2200 34 2300 350/03 RMK AO2 $
53144K9L2 9L220160419060510204/19/16 06:05:31  5-MIN K9L2 191405Z AUTO 00000KT 10SM CLR 12/M04 A3003 2200 33 2400 000/00 RMK AO2 $
53144K9L2 9L220160419061010204/19/16 06:10:31  5-MIN K9L2 191410Z AUTO 00000KT 10SM CLR 12/M03 A3003 2200 33 2400 000/00 RMK AO2 $
53144K9L2 9L220160419061510204/19/16 06:15:31  5-MIN K9L2 191415Z AUTO 00000KT 10SM CLR 12/M03 A3003 2200 33 2400 000/00 RMK AO2 $
53144K9L2 9L220160419062010204/19/16 06:20:31  5-MIN K9L2 191420Z AUTO 00000KT 10SM CLR 13/M03 A3003 2200 31 2600 000/00 RMK AO2 $
53144K9L2 9L220160419062510204/19/16 06:25:31  5-MIN K9L2 191425Z AUTO 00000KT 10SM CLR 13/M03 A3003 2200 31 2600 000/00 RMK AO2 $
53144K9L2 9L220160419063010204/19/16 06:30:31  5-MIN K9L2 191430Z AUTO 36003KT 10SM CLR 14/M03 A3003 2200 30 2600 350/03 RMK AO2 $
53144K9L2 9L220160419063510204/19/16 06:35:31  5-MIN K9L2 191435Z AUTO 00000KT 10SM CLR 14/M03 A3003 2200 30 2600 000/00 RMK AO2 $
53144K9L2 9L220160419064010204/19/16 06:40:31  5-MIN K9L2 191440Z AUTO 00000KT 10SM CLR 14/M03 A3003 2200 30 2700 000/00 RMK AO2 $
53144K9L2 9L220160419064510204/19/16 06:45:31  5-MIN K9L2 191445Z AUTO 00000KT 10SM CLR 15/M03 A3003 2200 29 2700 000/00 RMK AO2 $
53144K9L2 9L220160419065010204/19/16 06:50:31  5-MIN K9L2 191450Z AUTO 00000KT 10SM CLR 15/M03 A3004 2200 29 2700 000/00 RMK AO2 $
53144K9L2 9L220160419065512504/19/16 06:55:31  5-MIN K9L2 191455Z AUTO 00000KT 10SM CLR 15/M03 A3004 2190 29 2700 000/00 RMK AO2 SLP161 T01501028 56004 $
53144K9L2 9L220160419070010204/19/16 07:00:31  5-MIN K9L2 191500Z AUTO 00000KT 10SM CLR 16/M03 A3004 2190 28 2800 000/00 RMK AO2 $
53144K9L2 9L220160419070510204/19/16 07:05:31  5-MIN K9L2 191505Z AUTO 00000KT 10SM CLR 16/M03 A3004 2190 27 2900 000/00 RMK AO2 $
53144K9L2 9L220160419071010204/19/16 07:10:31  5-MIN K9L2 191510Z AUTO 00000KT 10SM CLR 16/M03 A3004 2190 27 2900 000/00 RMK AO2 $
53144K9L2 9L220160419071510204/19/16 07:15:31  5-MIN K9L2 191515Z AUTO 00000KT 10SM CLR 17/M03 A3004 2190 26 2900 000/00 RMK AO2 $
53144K9L2 9L220160419072010204/19/16 07:20:31  5-MIN K9L2 191520Z AUTO 00000KT 10SM CLR 17/M03 A3004 2190 25 3000 000/00 RMK AO2 $
53144K9L2 9L220160419072510204/19/16 07:25:31  5-MIN K9L2 191525Z AUTO 00000KT 10SM CLR 17/M03 A3004 2190 25 3000 000/00 RMK AO2 $
53144K9L2 9L220160419073010204/19/16 07:30:31  5-MIN K9L2 191530Z AUTO 00000KT 10SM CLR 18/M02 A3004 2190 25 3100 000/00 RMK AO2 $
53144K9L2 9L220160419073013104/19/16 07:30:31  5-MIN K9L2 191530Z AUTO 00000KT 10SM CLR 18/M02 A3004 2190 25 3100 000/00 RMK AO2 $2190 25 3100 000/00 RMK AO2 $
53144K9L2 9L220160419074010204/19/16 07:40:31  5-MIN K9L2 191540Z AUTO 00000KT 10SM CLR 18/M02 A3004 2190 24 3100 000/00 RMK AO2 $
53144K9L2 9L220160419074510204/19/16 07:45:31  5-MIN K9L2 191545Z AUTO 00000KT 10SM CLR 19/M02 A3004 2190 23 3200 000/00 RMK AO2 $
53144K9L2 9L220160419075010204/19/16 07:50:31  5-MIN K9L2 191550Z AUTO 00000KT 10SM CLR 19/M02 A3004 2190 23 3300 000/00 RMK AO2 $
53144K9L2 9L220160419075511904/19/16 07:55:31  5-MIN K9L2 191555Z AUTO 00000KT 10SM CLR 21/M02 A3004 2190 21 3400 000/00 RMK AO2 SLP159 T02061022 $
53144K9L2 9L220160419080010204/19/16 08:00:31  5-MIN K9L2 191600Z AUTO 00000KT 10SM CLR 21/M02 A3004 2190 20 3400 000/00 RMK AO2 $
53144K9L2 9L220160419080510204/19/16 08:05:31  5-MIN K9L2 191605Z AUTO 00000KT 10SM CLR 21/M02 A3004 2190 20 3400 000/00 RMK AO2 $
53144K9L2 9L220160419081010204/19/16 08:10:31  5-MIN K9L2 191610Z AUTO 00000KT 10SM CLR 22/M02 A3004 2190 20 3500 000/00 RMK AO2 $
53144K9L2 9L220160419081510204/19/16 08:15:31  5-MIN K9L2 191615Z AUTO 00000KT 10SM CLR 22/M02 A3004 2190 19 3600 p00/00 RMK AO2 $
53144K9L2 9L220160419082010204/19/16 08:20:31  5-MIN K9L2 191620Z AUTO 00000KT 10SM CLR 22/M02 A3004 2190 19 3600 p00/00 RMK AO2 $
53144K9L2 9L220160419082510204/19/16 08:25:31  5-MIN K9L2 191625Z AUTO 00000KT 10SM CLR 23/M02 A3004 2190 18 3600 000/00 RMK AO2 $
53144K9L2 9L220160419083010204/19/16 08:30:31  5-MIN K9L2 191630Z AUTO 00000KT 10SM CLR 23/M02 A3004 2190 18 3700 000/00 RMK AO2 $
53144K9L2 9L220160419083510204/19/16 08:35:31  5-MIN K9L2 191635Z AUTO 00000KT 10SM CLR 23/M02 A3004 2190 19 3600 000/00 RMK AO2 $
53144K9L2 9L220160419084010204/19/16 08:40:31  5-MIN K9L2 191640Z AUTO 00000KT 10SM CLR 23/M02 A3004 2190 19 3600 000/00 RMK AO2 $
53144K9L2 9L220160419084510204/19/16 08:45:31  5-MIN K9L2 191645Z AUTO 14003KT 10SM CLR 23/M02 A3004 2190 18 3700 130/03 RMK AO2 $
53144K9L2 9L220160419085010204/19/16 08:50:31  5-MIN K9L2 191650Z AUTO 00000KT 10SM CLR 23/M02 A3004 2190 19 3600 000/00 RMK AO2 $
53144K9L2 9L220160419085511904/19/16 08:55:31  5-MIN K9L2 191655Z AUTO 15003KT 10SM CLR 23/M02 A3004 2190 18 3700 130/03 RMK AO2 SLP158 T02331022 $
53144K9L2 9L220160419090010204/19/16 09:00:31  5-MIN K9L2 191700Z AUTO 15003KT 10SM CLR 23/M02 A3004 2190 18 3700 140/03 RMK AO2 $
53144K9L2 9L220160419090510204/19/16 09:05:31  5-MIN K9L2 191705Z AUTO 15003KT 10SM CLR 23/M02 A3004 2190 18 3700 130/03 RMK AO2 $
53144K9L2 9L220160419091010204/19/16 09:10:31  5-MIN K9L2 191710Z AUTO 14003KT 10SM CLR 23/M02 A3004 2190 18 3600 120/03 RMK AO2 $
53144K9L2 9L220160419091510204/19/16 09:15:31  5-MIN K9L2 191715Z AUTO 13003KT 10SM CLR 23/M02 A3004 2190 18 3700 120/03 RMK AO2 $
53144K9L2 9L220160419092010204/19/16 09:20:31  5-MIN K9L2 191720Z AUTO 14003KT 10SM CLR 23/M02 A3004 2190 18 3700 120/03 RMK AO2 $
53144K9L2 9L220160419092510204/19/16 09:25:31  5-MIN K9L2 191725Z AUTO 00000KT 10SM CLR 23/M0" A3004 2190 18 3700 000/00 RMK AO2 $
53144K9L2 9L220160419093010204/19/16 09:30:31  5-MIN K9L2 191730Z AUTO 16003KT 10SM CLR 24/M02 A3004 2190 17 3800 140/03 RMK AO2 $
53144K9L2 9L220160419093513104/19/16 09:35:31  5-MIN K9L2 191735Z AUTO 13003KT 10SM CLR 24/M02 A3004 2190 17 3800 120/03 RMK AO2 $2190 17 3800 130/04 RMK AO2 $
53144K9L2 9L220160419094510204/19/16 09:45:31  5-MIN K9L2 191745Z AUTO 15003KT 10SM CLR 24/M02 A3004 2200 17 3800 140/03 RMK AO2 $
53144K9L2 9L220160419095010204/19/16 09:50:31  5-MIN K9L2 191750Z AUTO 00000KT 10SM CLR 25/M02 A3004 2200 16 3900 000/00 RMK AO2 $
53144K9L2 9L220160419095513704/19/16 09:55:31  5-MIN K9L2 191755Z AUTO 15004KT 10SM CLR 25/M03 A3004 2200 15 3900 140/04 RMK AO2 SLP157 T02501028 10250 20078 53007 $
53144K9L2 9L220160419100010204/19/16 10:00:31  5-MIN K9L2 191800Z AUTO 00000KT 10SM CLR 25/M03 A3004 2200 15 3900 000/00 RMK AO2 $
53144K9L2 9L220160419100510204/19/16 10:05:31  5-MIN K9L2 191805Z AUTO VRB03KT 10SM CLR 26/M03 A3003 2200 14 4000 VRB/03 RMK AO2 $
53144K9L2 9L220160419101010204/19/16 10:10:31  5-MIN K9L2 191810Z AUTO 00000KT 10SM CLR 26/M03 A3003 2200 15 3900 000/00 RMK AO2 $
53144K9L2 9L220160419101510204/19/16 10:15:31  5-MIN K9L2 191815Z AUTO VRB03KT 10SM CLR 26/M03 A3003 2200 14 4000 VRB/03 RMK AO2 $
53144K9L2 9L220160419102010204/19/16 10:20:31  5-MIN K9L2 191820Z AUTO VRB03KT 10SM CLR 26/M03 A3003 2200 14 4000 VRB/03 RMK AO2 $
53144K9L2 9L220160419102510204/19/16 10:25:31  5-MIN K9L2 191825Z AUTO 14003KT 10SM CLR 26/M03 A3003 2200 14 4000 120/03 RMK AO2 $
53144K9L2 9L220160419103010204/19/16 10:30:31  5-MIN K9L2 191830Z AUTO 13003KT 10SM CLR 27/M03 A3003 2200 13 4100 120/03 RMK AO2 $
53144K9L2 9L220160419103510204/19/16 10:35:31  5-MIN K9L2 191835Z AUTO 15004KT 10SM CLR 27/M04 A3003 2200 13 4100 140/04 RMK AO2 $
53144K9L2 9L220160419104010204/19/16 10:40:31  5-MIN K9L2 191840Z AUTO 13003KT 10SM CLR 27/M04 A3003 2200 12 4100 120/03 RMK AO2 $
53144K9L2 9L220160419104510204/19/16 10:45:31  5-MIN K9L2 191845Z AUTO 15004KT 10SM CLR 27/M04 A3003 2200 12 4100 140/04 RMK AO2 $
53144K9L2 9L220160419105010204/19/16 10:50:31  5-MIN K9L2 191850Z AUTO VRB03KT 10SM CLR 27/M05 A3002 2210 11 4100 VRB/03 RMK AO2 $
53144K9L2 9L220160419105511904/19/16 10:55:31  5-MIN K9L2 191855Z AUTO 14004KT 10SM CLR 27/M05 A3002 2210 11 4100 130/04 RMK AO2 SLP152 T02721050 $
53144K9L2 9L220160419110010204/19/16 11:00:31  5-MIN K9L2 191900Z AUTO VRB03KT 10SM CLR 27/M05 A3002 2210 11 4100 VRB/03 RMK AO2 $
53144K9L2 9L220160419110510204/19/16 11:05:31  5-MIN K9L2 191905Z AUTO VRB04KT 10SM CLR 28/M05 A3002 2210 11 4200 VRB/04 RMK AO2 $
53144K9L2 9L220160419111010204/19/16 11:10:31  5-MIN K9L2 191910Z AUTO 15004KT 10SM CLR 28/M04 A3002 2220 11 4300 140/04 RMK AO2 $
53144K9L2 9L220160419111510204/19/16 11:15:31  5-MIN K9L2 191915Z AUTO 18005KT 10SM CLR 28/M04 A3001 2220 11 4300 160/05 RMK AO2 $
53144K9L2 9L220160419112010204/19/16 11:20:31  5-MIN K9L2 191920Z AUTO VRB03KT 10SM CLR 28/M04 A3001 2220 11 4200 VRB/03 RMK AO2 $
53144K9L2 9L220160419112510204/19/16 11:25:31  5-MIN K9L2 191925Z AUTO 16005KT 10SM CLR 28/M04 A3001 2220 11 4300 150/05 RMK AO2 $
53144K9L2 9L220160419113010204/19/16 11:30:31  5-MIN K9L2 191930Z AUTO 15005KT 10SM CLR 28/M04 A3001 2220 11 4300 130/05 RMK AO2 $
53144K9L2 9L220160419113510204/19/16 11:35:31  5-MIN K9L2 191935Z AUTO 16004KT 10SM CLR 29/M04 A3000 2230 11 4300 150/04 RMK AO2 $
53144K9L2 9L220160419114010204/19/16 11:40:31  5-MIN K9L2 191940Z AUTO 15006KT 10SM CLR 29/M05 A3000 2230 10 4400 130/06 RMK AO2 $
53144K9L2 9L220160419114510204/19/16 11:45:31  5-MIN K9L2 191945Z AUTO 15008KT 10SM CLR 29/M05 A3000 2230 10 4400 140/08 RMK AO2 $
53144K9L2 9L220160419115010204/19/16 11:50:31  5-MIN K9L2 191950Z AUTO VRB04KT 10SM CLR 29/M05 A3000 2230 10 4400 VRB/04 RMK AO2 $
53144K9L2 9L220160419115511904/19/16 11:55:31  5-MIN K9L2 191955Z AUTO 00000KT 10SM CLR 29/M05 A3000 2230 10 4400 000/00 RMK AO2 SLP142 T02941050 $
53144K9L2 9L220160419120010204/19/16 12:00:31  5-MIN K9L2 192000Z AUTO VRB03KT 10SM CLR 30/M06 A2999 2240 09 4500 VRB/03 RMK AO2 $
53144K9L2 9L220160419120510204/19/16 12:05:31  5-MIN K9L2 192005Z AUTO VRB05KT 10SM CLR 30/M06 A2999 2240 09 4500 VRB/05 RMK AO2 $
53144K9L2 9L220160419121010204/19/16 12:10:31  5-MIN K9L2 192010Z AUTO 14004KT 10SM CLR 30/M06 A2999 2240 09 4500 130/04 RMK AO2 $
53144K9L2 9L220160419121510204/19/16 12:15:31  5-MIN K9L2 192015Z AUTO 17009KT 10SM CLR 30/M0% A2998 2240 10 4500 150/09 RMK AO2 $
53144K9L2 9L220160419122010204/19/16 12:20:31  5-MIN K9L2 192020Z AUTO VRB05KT 10SM CLR 30/M06 A2999 2240 09 4500 VRB/05 RMK AO2 $
53144K9L2 9L220160419122510804/19/16 12:25:31  5-MIN K9L2 192025Z AUTO 17008G14KT 10SM CLR 31/M06 A2998 2250 08 4600 160/08G14 RMK AO2 $
53144K9L2 9L220160419123010204/19/16 12:30:31  5-MIN K9L2 192030Z AUTO 16011KT 10SM CLR 32/M07 A2998 2250 08 4700 150/11 RMK AO2 $
53144K9L2 9L220160419123510804/19/16 12:35:31  5-MIN K9L2 192035Z AUTO 20013G18KT 10SM CLR 32/M07 A2998 2250 08 4700 190/13G18 RMK AO2 $
53144K9L2 9L220160419124010804/19/16 12:40:31  5-MIN K9L2 192p40Z AUTO 19013G18KT 10SM CLR 31/M07 A2997 2250 08 4600 170/13G18 RMK AO2 $
53144K9L2 9L220160419124510804/19/16 12:45:31  5-MIN K9L2 192045Z AUTO 21011G17KT 10SM CLR 31/M07 A2998 2250 08 4600 190/11G17 RMK AO2 $
53144K9L2 9L220160419125010804/19/16 12:50:31  5-MIN K9L2 192050Z AUTO 21011G16KT 10SM CLR 31/M07 A2997 2250 08 4600 190/11G16 RMK AO2 $
53144K9L2 9L220160419125513104/19/16 12:55:31  5-MIN K9L2 192055Z AUTO VRB06G16KT 10SM CLR 31/M07 A2997 2250 08 4600 VRB/06G16 RMK AO2 SLP134 T03061072 58002 $
53144K9L2 9L220160419130010204/19/16 13:00:31  5-MIN K9L2 192100Z AUTO 25006KT 10SM CLR 31/M07 A2997 2260 08 4600 240/06 RMK AO2 $
53144K9L2 9L220160419130510804/19/16 13:05:31  5-MIN K9L2 192105Z AUTO 18011G16KT 10SM CLR 31/M07 A2997 2260 08 4600 170/11G16 RMK AO2 $
53144K9L2 9L220160419131010804/19/16 13:10:31  5-MIN K9L2 192110Z AUTO 16005G16KT 10SM CLR 31/M07 A2997 2260 08 4600 150/05G16 RMK AO2 $
53144K9L2 9L220160419131510804/19/16 13:15:31  5-MIN K9L2 192115Z AUTO 19009G16KT 10SM CLR 31/M08 A2996 2260 07 4600 180/09G16 RMK AO2 $
53144K9L2 9L220160419132010804/19/16 13:20:31  5-MIN K9L2 192120Z AUTO 23009G16KT 10SM CLR 31/M11 A2996 2260 06 4600 220/09G16 RMK AO2 $
53144K9L2 9L220160419132510804/19/16 13:25:31  5-MIN K9L2 192125Z AUTO 19016G21KT 10SM CLR 32/M11 A2996 2270 05 4800 180/12G21 RIK AO2 $
53144K9L2 9L220160419133510604/19/16 13:35:31  5-MIN K9L2 192135Z AUTO 25012KT 10SM CLR 32/M11 A2996  2270 05 4800 210/14G21 RIK AO2 $
53144K9L2 9L220160419134510804/19/16 13:45:31  5-MIN K9L2 192145Z AUTO 22007G21KT 10SM CLR 32/M13 A2996 2270 05 4700 200/07G21 RMK AO2 $
53144K9L2 9L220160419135010804/19/16 13:50:31  5-MIN K9L2 192150Z AUTO 23016G20KT 10SM CLR 32/M12 A2996 2270 05 4700 210o16G20 RMK AO2 $
53144K9L2 9L220160419135512504/19/16 13:55:31  5-MIN K9L2 192155Z AUTO 21009G20KT 10SM CLR 32/M12 A2995 2270 05 4700 200/09G20 RMK AO2 SLP127 T03171117 $
53144K9L2 9L220160419140014104/19/16 14:00:31  5-MIN K9L2 192200Z AUTO 23013G18KT 10SM CLR 32/M11 A2995 2270 05 4700 220/13G18 RMK AO2 $ 2280 06 4700 200/14G19 RMK AO2 $
53144K9L2 9L220160419141010804/19/16 14:10:31  5-MIN K9L2 192210Z AUTK 20013G22KT 10SM CLR 32/M11 A2995 2280 06 4700 190/13G22 RMK AO2 $
53144K9L2 9L220160419141510804/19/16 14:15:31  5-MIN K9L2 192215Z AUTO 23015G22KT 10SM CLR 32/M11 A2995 2280 06 4700 220/15G22 RMK AO2 $
53144K9L2 9L220160419142010804/19/16 14:20:31  5-MIN K9L2 192220Z AUTO 21017G23KT 10SM CLR 3:/M12 A2994 2r80 05 4800 190/17G23 RMK AO2 $
53144K9L2 9L220160419142510804/19/16 14:25:31  5-MIN K9L2 192225Z AUTO 23015G23KT 10SM CLR 32/M12 A2994 2280 05 4700 220/15G23 RMK AO2 $
53144K9L2 9L220160419143012604/19/16 14:30:31  5-MIN K9L2 192230Z AUTO 25016G27KT 10SM CLR 32/M10 A2994 2280 06 4800 240/16G27 RMK AO2 PK WND 25027/2227 $
53144K9L2 9L220160419143522804/19/16 14:35:31  5-MIN K9L2 192235Z AUTO 24016G27KT 10SM CLR 32/M09 A2994 2280 06 4700 230/16G27 RMK AO2 PK WND 25027/2227 $ 2280 06 4700 230/16G24 RMK AO2 PK WND 25027/2227 $ 2280 06 4700 210/18G23 RMK AO2 PK WND 25027/2227 $
53144K9L2 9L220160419145012604/19/16 14:50:31  5-MIN K9L2 192250Z AUTO 23016G26KT 10SM CLR 32/M10 A2994 2280 06 4700 220/16G26 RMK AO2 PK WND 25027/2227 $
53144K9L2 9L220160419145514304/19/16 14:55:31  5-MIN K9L2 192255Z AUTO 23017G26KT 10SM CLR 32/M11 A2994 2290 06 4700 220/17G26 RMK AO2 PK WND 25027/2227 SLP123 T03171106 $
53144K9L2 9L220160419150010804/19/16 15:00:31  5-MIN K9L2 192300Z AUTO 25016G26KT 10SM CLR 31/M11 A2994 2r90 06 4700 240/16G26 RMK AO2 $
53144K9L2 9L220160419150512604/19/16 15:05:31  5-MIN K9L2 192305Z AUTO 24019G27KT 10SM CLR 31/M11 A2994 2290 06 4600 220/19G27 RMK AO2 PK WND 23027/2305 $
53144K9L2 9L220160419151012604/19/16 15:10:31  5-MIN K9L2 192310Z AUTO 24015G27KT 10SM CLR 31/M09 A2994 2290 07 4600 230/15G27 RMK AO2 PK WND 23027/2305 $
53144K9L2 9L220160419151512604/19/16 15:15:31  5-MIN K9L2 192315Z AUTO 25017G25KT 10SM CLR 31/M09 A2994 2290 07 4600 240/17G25 RMK AO2 PK WND 23027/2305 $
53144K9L2 9L220160419152012604/19/16 15:20:31  5-MIN K9L2 192320Z AUTO 24017G25KT 10SM CLR 31/M09 A2994 2r80 07 4600 220/17G25 RMK AO2 PK WND 23027/2305 d
53144K9L2 9L220160419152512604/19/16 15:25:31  5-MIN K9L2`192325Z AUTO 23018G25KT 10SM CLR 31/M09 A2994 2290 07 4600 220/18G25 RMK AO2 PK WND 23027/2305 $
53144K9L2 9L220160419153012604/19/16 15:30:31  5-MIN K9L2 192330Z AUTO 25016G25KT 10SM CLR 31/M09 A2994 2290 07 4600 240/16G25 RMK AO2 PK WND 23027/2305 $
53144K9L2 9L220160419153517704/19/16 15:35:31  5-MIN K9L2 192335Z AUTO 23016G22KT 10SM CLR 30/M09 A2993 2290 07 4500 210/16G22 RMK AO2 PK WND 23027/2305 $ 2290 07 4600 220/19G24 RMK AO2 PK WND 23027/2305 d
53144K9L2 9L220160419154512604/19/16 15:45:31  5-MIN K9L2 192345Z AUTO 25019G24KT 10SM CLR 30/M09 A2993 2290 07 4600 240/19G24 RMK AO2 PK WND 23027/2305 $
53144K9L2 9L220160419155012604/19/16 15:50:31  5-MIN K9L2 192350Z AUTO 24016G24KT 10SM CLR 30/M09 A2993 2290 07 4600 220/16G24 RMK AO2 PK WND 23027/2305 $
53144K9L2 9L220160419155516104/19/16 15:55:31  5-MIN K9L2 192355Z AUTO 24019G26KT 10SM CLR 30/M08 A2993 2290 08 4600 230/19G26 RMK AO2 PK WND 23027/2305 SLP123 T03001078 10322 20250 58020 $
53144K9L2 9L220160419160010804/19/16 16:00:31  5-MIN K9L2 200000Z AUTO 24018G26KT 10SM CLR 29/M08 A2993 2290 08 4500 230/18G26 RMK AO2 $
53144K9L2 9L220160419160512604/19/16 16:05:31  5-MIN K9L2 200005Z AUTO 23018G26KT 10SM CLR 29/M07 A2993 2290 08 4500 220/18G26 RMK AO2 PK WND 22026/0003 $
53144K9L2 9L220160419161012604/19/16 16:10:31  5-MIN K9L2 200010Z AUTO 24020G28KT 10SM CLR 29/M07 A2993 2300 08 4500 230/20G28 RMK AO2 PK WND 24020/0010 $
53144K9L2 9L220160419161512604/19/16 16:15:31  5-MIN K9L2 200015Z AUTO 24019G28KT 10SM CLR 29/M08 A2993 2290 08 4500 220/19G28 RMK AO2 PK WND 24028/0010 $
53144K9L2 9L220160419162012604/19/16 16:20:31  5-MIN K9L2 200020Z AUTO 23018G26KT 10SM CLR 29/M08 A2993 2300 08 4400 220/18G26 RMK AO2 PK WND 24028/0010 $
53144K9L2 9L220160419162512604/19/16 16:25:31  5-MIN K9L2 200025Z AUTO 23020G25KT 10SM CLR 29/M08 A2993 2300 08 4400 210/20G25 RMK AO2 PK WND 24028/0010 $
53144K9L2 9L220160419163012604/19/16 16:30:31  5-MIN K9L2 200030Z AUTO 23018G25KT 10SM CLR 29/M08 A2993 2290 08 4400 220/18G25 RMK AO2 PK WND 24028/0010 $
53144K9L2 9L220160419163512604/19/16 16:35:31  5-MIN K9L2 200035Z AUTO 23020G25KT 10SM CLR 28/M08 A2993 2290 08 4400 210/20G25 RMK AO2 PK WND 24028/0010 $
53144K9L2 9L220160419164012604/19/16 16:40:31  5-MIN K9L2 200040Z AUTO 23016G25KT 10SM CLR 20/M08 A2993 2290 08 4400 220/16G25 RMK AO2 PK WND 24028/0010 $
53144K9L2 9L220160419164512604/19/16 16:45:31  5-MIN K9L2 200045Z AUTO 24020G25KT 10SM CLR 28/M08 A2993 2290 08 4400 230/20G25 RMK AO2 PK WND 24028/0010 $
53144K9L2 9L220160419165012604/19/16 16:50:31  5-MIN K9L2 200050Z AUTO 23020G27KT 10SM CLR 28/M08 A2993 2290 08 4400 220/20G27 RMK AO2 PK WND 24028/0010 $
53144K9L2 9L220160419165514304/19/16 16:55:31  5-MIN K9L2 200055Z AUTO 23019G27KT 10SM CLR 28/M08 A2993 2290 08 4400 220/19G27 RMK AO2 PK WND 24028/0010 SLP125 T02831083 $
53144K9L2 9L220160419170010804/19/16 17:00:31  5-MIN K9L2 200100Z AUTO 24021G25KT 10SM CLR 28/M00 A2993 2290 08 4300 220/21G25 RMK AO2 $
53144K9L2 9L220160419170510804/19/16 17:05:31  5-MIN K9L2 200105Z AUTO 23019G25KT 10SM CLR 28/M08 A2993 2290 08 4400 220/19G25 RMK AO2 $
53144K9L2 9L220160419171010804/19/16 17:10:31  5-MIN K9L2 200110Z AUTO 22020G25KT 10SM CLR 28/M09 A2993 2300 08 4300 210/20G25 RMK AO2 $
53144K9L2 9L220160419171510804/19/16 17:15:31  5-MIN K9L2 200115Z AUTO 24017G23KT 10SM CLR 28/M09 A2993 2290 08 4300 220/17G23 RMK AO2 $
53144K9L2 9L220160419172010804/19/16 17:20:31  5-MIN K9L2 200120Z AUTO 23016G22KT 10SM CLR 27/M08 A2993 2290 09 4200 220/16G22 RMK AO2 $
53144K9L2 9L220160419172014104/19/16 17:20:31  5-MIN K9L2 200120Z AUTO 23016G22KT 10SM CLR 27/M08 A2993 2290 09 4200 220/16G22 RMK AO2 $ 2290 08 4200 220/18G23 RMK AO2 $
53144K9L2 9L220160419172510804/19/16 17:25:31  5-MIN K9L2 200125Z AUTO 23018G23KT 10SM CLR 27/M09 A2993 2290 08 4200 220/18G23 RMK AO2 $
53144K9L2 9L220160419173010804/19/16 17:30:31  5-MIN K9L2 200130Z AUTO 23015G23KT 10SM CLR 27/M08 A2993 2300 09 4200 220/15G23 RMK AO2 $
53144K9L2 9L220160419173510204/19/16 17:35:31  5-MIN K9L2 200135Z AUTO 23016KT 10SM CLR 27/M08 A2993 2290 09 4200 220/16 RMK AO2 $
53144K9L2 9L220160419174010804/19/16 17:40:31  5-MIN K9L2 200140Z AUTO 23016G21KT 10SM CLR 27/M09 A2993 2300 09 4200 210/16G21 RMK AO2 $
53144K9L2 9L220160419174510804/19/16 17:45:31  5-MIN K9L2 200145Z AUTO 23016G20KT 10SM CLR 27/M09 A2993 2290 09 4200 220/16G20 RMK AO2 $
53144K9L2 9L220160419175010204/19/16 17:50:31  5-MIN K9L2 200150Z AUTO 24013KT 10SM CLR 26/M09 A2993 2290 09 4100 220/13 RMK AO2 $
53144K9L2 9L220160419175511904/19/16 17:55:31  5-MIN K9L2 200155Z AUTO 24014KT 10SM CLR 26/M09 A2993 2290 09 4100 220/14 RMK AO2 SLP125 T02611089 $
53144K9L2 9L220160419175515204/19/16 17:55:31  5-MIN K9L2 200155Z AUTO 24014KT 10SM CLR 26/M09 A2993 2290 09 4100 220/14 RMK AO2 SLP125 T02611089 $ 2290 09 4100 220/16G22 RMK AO2 $
53144K9L2 9L220160419180010804/19/16 18:00:31  5-MIN K9L2 200200Z AUTO 24016G22KT 10SM CLR 26/M09 A2993 2290 09 4100 220/16G22 RMK AO2 $
53144K9L2 9L220160419180510804/19/16 18:05:31  5-MIN K9L2 200205Z AUTO 24015G22KT 10SM CLR 26/M09 A2993 2290 09 4100 220/15G22 RMK AO2 $
53144K9L2 9L220160419181010804/19/16 18:10:31  5-MIN K9L2 200210Z AUTO 24016G22KT 10SM CLR 26/M09 A2993 2290 09 4100 220/16G22 RMK AO2 $
53144K9L2 9L220160419181510804/19/16 18:15:31  5-MIN K9L2 200215Z AUTO 24012G22KT 10SM CLR 26/M09 A2993 2290 09 4100 230/12G22 RMK AO2 $
53144K9L2 9L220160419182010204/19/16 18:20:31  5-MIN K9L2 200220Z AUTO 24011KT 10SM CLR 25/M09 A2993 2290 10 4000 220/11 RMK AO2 $
53144K9L2 9L220160419182510204/19/16 18:25:31  5-MIN K9L2 200225Z AUTO 24012KT 10SM CLR 25/M09 A2993 2290 10 4000 220/12 RMK AO2 $
53144K9L2 9L220160419183010804/19/16 18:30:31  5-MIN K9L2 200230Z AUTO 23012G20KT 10SM CLR 25/M09 A2993 2290 10 4000 220/12G20 RMK AO2 $
53144K9L2 9L220160419183510804/19/16 18:35:31  5-MIN K9L2 200235Z AUTO 23011G20KT 10SM CLR 25/M09 A2993 2290 10 4000 220/11G20 RMK AO2 $
53144K9L2 9L220160419184010204/19/16 18:40:31  5-MIN K9L2 200240Z AUTO 24013KT 10SM CLR 24/M09 A2993 2290 10 3900 220/13 RMK AO2 $
53144K9L2 9L220160419184510204/19/16 18:45:31  5-MIN K9L2 200245Z AUTO 24012KT 10SM CLR 24/M09 A2993 2290 10 3900 230/12 RMK AO2 $
53144K9L2 9L220160419185010204/19/16 18:50:31  5-MIN K9L2 200250Z AUTO 24012KT 10SM CLR 24/M09 A2994 2290 10 3900 230/12 RMK AO2 $
53144K9L2 9L220160419185512504/19/16 18:55:31  5-MIN K9L2 200255Z AUTO 24011KT 10SM CLR 24/M09 A2994 2290 10 3900 230/11 RMK AO2 SLP126 T02441094 56014 $
53144K9L2 9L220160419190010204/19/16 19:00:31  5-MIN K9L2 200300Z AUTO 24011KT 10SM CLR 24/M10 A2994 2290 09 3900 230/11 RMK AO2 $
53144K9L2 9L220160419190510804/19/16 19:05:31  5-MIN K9L2 200305Z AUTO 24012G17KT 10SM CLR 24/M10 A2994 2290 09 3900 230/12G17 RMK AO2 $
53144K9L2 9L220160419191010204/19/16 19:10:31  5-MIN K9L2 200310Z AUTO 24013KT 10SM CLR 24/M10 A2994 2290 09 3900 230/13 RMK AO2 $
53144K9L2 9L220160419191510804/19/16 19:15:31  5-MIN K9L2 200315Z AUTO 24012G18KT 10SM CLR 24/M10 A2994 2290 09 3900 230/12G18 RMK AO2 $
53144K9L2 9L220160419192010204/19/16 19:20:31  5-MIN K9L2 200320Z AUTO 24011KT 10SM CLR 24/M10 A2994 2280 09 3900 230/11 RMK AO2 $
53144K9L2 9L220160419192510204/19/16 19:25:31  5-MIN K9L2 200325Z AUTO 24008KT 10SM CLR 24/M10 A2994 2280 09 3900 220/08 RMK AO2 $
53144K9L2 9L220160419193010204/19/16 19:30:31  5-MIN K9L2 200330Z AUTO 24008KT 10SM CLR 23/M10 A2994 2280 10 3800 230/08 RMK AO2 $
53144K9L2 9L220160419193510204/19/16 19:35:31  5-MIN K9L2 200335Z AUTO 25008KT 10SM CLR 23/M10 A2995 2280 10 3800 230/08 RMK AO2 $
53144K9L2 9L220160419194010204/19/16 19:40:31  5-MIN K9L2 200340Z AUTO 25008KT 10SM CLR 23/M10 A2995 2280 10 3800 240/08 RMK AO2 $
53144K9L2 9L220160419194510204/19/16 19:45:31  5-MIN K9L2 200345Z AUTO 25008KT 10SM CLR 23/M11 A2995 2280 10 3700 240/08 RMK AO2 $
53144K9L2 9L220160419195010204/19/16 19:50:31  5-MIN K9L2 200350Z AUTO 25009KT 10SM CLR 23/M11 A2995 2270 10 3700 240/09 RMK AO2 $
53144K9L2 9L220160419195514804/19/16 19:55:31  5-MIN K9L2 200355Z AUTO 25009KT 10SM CLR 23/M11 A2995 2270 10 3700 240/09 RMK AO2 SLP128 T02281106 $2270 14 3000 140/03 RMK AO2 $
53144K9L2 9L220160419235010204/19/16 23:50:31  5-MIN K9L2 200750Z AUTO 14003KT 10SM CLR 15/M11 A2996 2270 15 2800 120/03 RMK AO2 $
53144K9L2 9L220160419235512904/19/16 23:55:31  5-MIN K9L2 200755Z AUTO 14004KT 10SM CLR 14/M12 A2996 2270 15 2800 130/04 RMK AO2 SLP129 T01441117 403220078 $
53144K9L2 9L220160420000010204/20/16 00:00:31  5-MIN K9L2 200800Z AUTO 14004KT 10SM CLR 14/M12 A2996 2270 15 2800 130/04 RMK AO2 $
53144K9L2 9L220160420000510204/20/16 00:05:31  5-MIN K9L2 200805Z AUTO 00000KT 10SM CLR 13/M12 A2996 2270 17 2600 000/00 RMK AO2 $
53144K9L2 9L220160420001010204/20/16 00:10:31  5-MIN K9L2 200810Z AUTO VRB04KT 10SM CLR 13/M12 A2995 2270 16 2600 VRB/04 RMK AO2 $
53144K9L2 9L220160420001510204/20/16 00:15:31  5-MIN K9L2 200815Z AUTO VRB05KT 10SM CLR 17/M11 A2995 2270 14 3000 VRB/05 RMK AO2 $
53144K9L2 9L220160420002009904/20/16 00:20:31  5-MIN K9L2 200820Z AUTO 24007KT 10SM CLR 19/M12 A2995 2270P125 T01611122 50004 $
53144K9L2 9L220160420002510204/20/16 00:25:31  5-MIN K9L2 200825Z AUTO 22008KT 10SM CLR 19/M12 A2995 2270 10 3400 210/08 RMK AO2 $
53144K9L2 9L220160420003010204/20/16 00:30:31  5-MIN K9L2 200830Z AUTO VRB05KT 10SM CLR 20/M12 A2995 2270 10 3400 VRB/05 RMK AO2 $
53144K9L2 9L220160420003510204/20/16 00:35:31  5-MIN K9L2 200835Z AUTO 25003KT 10SM CLR 18/M12 A2995 2270 11 3200 240/03 RMK AO2 $
53144K9L2 9L220160420004010204/20/16 00:40:31  5-MIN K9L2 200840Z AUTO 00000KT 10SM CLR 16/M12 A2995 2270 14 3000 000/00 RMK AO2 $
53144K9L2 9L220160420004510204/20/16 00:45:31  5-MIN K9L2 200845Z AUTO 00000KT 10SM CLR 17/M12 A2995 2280 13 3000 000/00 RMK AO2 $
53144K9L2 9L220160420005010204/20/16 00:50:31  5-MIN K9L2 200850Z AUTO 00000KT 10SM CLR 16/M12 A2995 2280 13 2900 000/00 RMK AO2 $
53144K9L2 9L220160420005512504/20/16 00:55:31  5-MIN K9L2 200855Z AUTO 00000KT 10SM CLR 16/M12 A2995 2280 13 3000 000/00 RMK AO2 SLP125 T01611122 50004 $
53144K9L2 9L220160420010010204/20/16 01:00:31  5-MIN K9L2 200900Z AUTO VRB03KT 10SM CLR 16/M12 A2995 2280 13 3000 VRB/03 RMK AO2 $
53144K9L2 9L220160420010510204/20/16 01:05:31  5-MIN K9L2 200905Z AUTO 00000KT 10SM CLR 15/M12 A2995 2280 14 2800 000/00 RMK AO2 $
53144K9L2 9L220160420011010204/20/16 01:10:31  5-MIN K9L2 200910Z AUTO 23004KT 10SM CLR 16/M12 A2995 2280 13 2900 220/04 RMK AO2 $
53144K9L2 9L220160420011510204/20/16 01:15:31  5-MIN K9L2 200915Z AUTO 22007KT 10SM CLR 16/M12 A2995 2280 13 2900 210/07 RMK AO2 $
53144K9L2 9L220160420012010204/20/16 01:20:31  5-MIN K9L2 200920Z AUTO 22006KT 10SM CLR 15/M12 A2995 2280 14 2800 210/06 RMK AO2 $
53144K9L2 9L220160420012015304/20/16 01:20:31  5-MIN K9L2 200920Z AUTO 22006KT 10SM CLR 15/M12 A2995 2280 14 280010Z AUTO 00000KT 10SM CLR 16/M13 A2994 2280 12 3000 000/00 RMK AO2 $
53144K9L2 9L220160420012510204/20/16 01:25:31  5-MIN K9L2 200925Z AUTO 22007KT 10SM CLR 14/M12 A2995 2280 14 2800 210/07 RMK AO2 $
53144K9L2 9L220160420013010204/20/16 01:30:31  5-MIN K9L2 200930Z AUTO 22007KT 10SM CLR 15/M12 A2994 2280 14 2800 210/07 RMK AO2 $
53144K9L2 9L220160420013510204/20/16 01:35:31  5-MIN K9L2 200935Z AUTO 23005KT 10SM CLR 14/M12 A2994 2280 14 2800 210/05 RMK AO2 $
53144K9L2 9L220160420014010204/20/16 01:40:31  5-MIN K9L2 200940Z AUTO 24004KT 10SM CLR 14/M12 A2994 2280 15 2700 220/04 RMK AO2 $
53144K9L2 9L220160420014510204/20/16 01:45:31  5-MIN K9L2 200945Z AUTO 24005KT 10SM CLR 14/M12 A2994 2280 15 2700 220/05 RMK AO2 $
53144K9L2 9L220160420015010204/20/16 01:50:31  5-MIN K9L2 200950Z AUTO 23007KT 10SM CLR 13/M12 A2994 2280 16 2700 220/07 RMK AO2 $
53144K9L2 9L220160420015511904/20/16 01:55:31  5-MIN K9L2 200955Z AUTO 23005KT 10SM CLR 14/M12 A2994 2280 14 2800 210/05 RMK AO2 SLP123 T01441122 $
53144K9L2 9L220160420020010204/20/16 02:00:31  5-MIN K9L2 201000Z AUTO 24006KT 10SM CLR 14/M12 A2994 2280 14 2800 230/06 RMK AO2 $
53144K9L2 9L220160420020510204/20/16 02:05:31  5-MIN K9L2 201005Z AUTO 23004KT 10SM CLR 16/M13 A2994 2280 12 3000 220/04 RMK AO2 $
53144K9L2 9L220160420021010204/20/16 02:10:31  5-MIN K9L2 201010Z AUTO 00000KT 10SM CLR 16/M13 A2994 2280 12 3000 000/00 RMK AO2 $
53144K9L2 9L220160420021510204/20/16 02:15:31  5-MIN K9L2 201015Z AUTO 00000KT 10SM CLR 16/M13 A2994 2280 12 3000 000/00 RMK AO2 $
53144K9L2 9L220160420022010204/20/16 02:20:31  5-MIN K9L2 201020Z AUTO 00000KT 10SM CLR 16/M12 A2994 2280 13 2900 000/00 RMK AO2 $
53144K9L2 9L220160420022510204/20/16 02:25:31  5-MIN K9L2 201025Z AUTO 00000KT 10SM CLR 15/M13 A2994 2280 13 2800 000/00 RMK AO2 $
53144K9L2 9L220160420022513104/20/16 02:25:31  5-MIN K9L2 201025Z AUTO 00000KT 10SM CLR 15/M13 A2994 2280 13 2800 000/00 RMK AO2 $2280 21 2300 230/04 RMK AO2 $
53144K9L2 9L220160420023010204/20/16 02:30:31  5-MIN K9L2 201030Z AUTO 25003KT 10SM CLR 14/M13 A2995 2280 14 2700 230/03 RMK AO2 $
53144K9L2 9L220160420023510204/20/16 02:35:31  5-MIN K9L2 201035Z AUTO 24003KT 10SM CLR 12/M13 A2994 2280 16 2500 220/03 RMK AO2 $
53144K9L2 9L220160420024010204/20/16 02:40:31  5-MIN K9L2 201040Z AUTO 23004KT 10SM CLR 13/M12 A2994 2280 16 2600 210/04 RMK AO2 $
53144K9L2 9L220160420024510204/20/16 02:45:31  5-MIN K9L2 201045Z AUTO 21006KT 10SM CLR 13/M12 A2994 2280 16 2600 200/06 RMK AO2 $
53144K9L2 9L220160420025010204/20/16 02:50:31  5-MIN K9L2 201050Z AUTO 22007KT 10SM CLR 12/M11 A2994 2280 18 2500 210/07 RMK AO2 $
53144K9L2 9L220160420025511904/20/16 02:55:31  5-MIN K9L2 201055Z AUTO 22008KT 10SM CLR 12/M11 A2994 2280 18 2500 200/08 RMK AO2 SLP125 T01221111 $
53144K9L2 9L220160420030010204/20/16 03:00:31  5-MIN K9L2 201100Z AUTO 21008KT 10SM CLR 12/M11 A2994 2280 18 2500 190/08 RMK AO2 $
53144K9L2 9L220160420030510204/20/16 03:05:31  5-MIN K9L2 201105Z AUTO 21003KT 10SM CLR 12/M11 A2994 2280 19 2500 190/03 RMK AO2 $
53144K9L2 9L220160420031010204/20/16 03:10:31  5-MIN K9L2 201110Z AUTO 00000KT 10SM CLR 11/M11 A2994 2280 20 2400 000/00 RMK AO2 $
53144K9L2 9L220160420031510204/20/16 03:15:31  5-MIN K9L2 201115Z AUTO 00000KT 10SM CLR 11/M11 A2994 2280 20 2300 000/00 RMK AO2 $
53144K9L2 9L220160420032010204/20/16 03:20:31  5-MIN K9L2 201120Z AUTO 16003KT 10SM CLR 11/M11 A2994 2280 21 2300 140/03 RMK AO2 $
53144K9L2 9L220160420032510204/20/16 03:25:31  5-MIN K9L2 201125Z AUTO 22004KT 10SM CLR 12/M11 A2994 2280 20 2500 210/04 RMK AO2 $
53144K9L2 9L220160420033010204/20/16 03:30:31  5-MIN K9L2 201130Z AUTO 24004KT 10SM CLR 11/M11 A2994 2280 21 2300 230/04 RMK AO2 $
53144K9L2 9L220160420033510204/20/16 03:35:31  5-MIN K9L2 201135Z AUTO 22004KT 10SM CLR 11/M11 A2994 2280 20 2300 210/04 RMK AO2 $
53144K9L2 9L220160420034010204/20/16 03:40:31  5-MIN K9L2 201140Z AUTO 21004KT 10SM CLR 11/M11 A2994 2280 21 2300 200/04 RMK AO2 $
53144K9L2 9L220160420034510204/20/16 03:45:31  5-MIN K9L2 201145Z AUTO 20003KT 10SM CLR 10/M11 A2994 2280 22 2300 180/03 RMK AO2 $
53144K9L2 9L220160420035010204/20/16 03:50:31  5-MIN K9L2 201150Z AUTO 00000KT 10SM CLR 11/M11 A2994 2280 21 2300 000/00 RMK AO2 $
53144K9L2 9L220160420035513704/20/16 03:55:31  5-MIN K9L2 201155Z AUTO 00000KT 10SM CLR 10/M11 A2994 2280 22 2300 000/00 RMK AO2 SLP127 T01001106 10200 20100 58001 $
53144K9L2 9L220160420040010204/20/16 04:00:31  5-MIN K9L2 201200Z AUTO 00000KT 10SM CLR 09/M11 A2994 2280 23 2100 000/00 RMK AO2 $
53144K9L2 9L220160420040510204/20/16 04:05:31  5-MIN K9L2 201205Z AUTO 00000KT 10SM CLR 09/M11 A2994 2290 24 2100 000/00 RMK AO2 $
53144K9L2 9L220160420041010204/20/16 04:10:31  5-MIN K9L2 201210Z AUTO 20003KT 10SM CLR 09/M11 A2994 2290 23 2200 190/03 RMK AO2 $
53144K9L2 9L220160420041510204/20/16 04:15:31  5-MIN K9L2 201215Z AUTO 21005KT 10SM CLR 09/M11 A2994 2290 23 2200 190/05 RMK AO2 $
53144K9L2 9L220160420042010204/20/16 04:20:31  5-MIN K9L2 201220Z AUTO 21006KT 10SM CLR 09/M11 A2994 2290 24 2100 200/06 RMK AO2 $
53144K9L2 9L220160420042510204/20/16 04:25:31  5-MIN K9L2 201225Z AUTO 18003KT 10SM CLR 10/M11 A2994 2290 22 2300 160/03 RMK AO2 $
53144K9L2 9L220160420043010204/20/16 04:30:31  5-MIN K9L2 201230Z AUTO 00000KT 10SM CLR 09/M11 A2994 2290 23 2200 000/00 RMK AO2 $
53144K9L2 9L220160420043510204/20/16 04:35:31  5-MIN K9L2 201235Z AUTO 16004KT 10SM CLR 09/M11 A2994 2290 23 2200 150/04 RMK AO2 $
53144K9L2 9L220160420044010204/20/16 04:40:31  5-MIN K9L2 201240Z AUTO 14003KT 10SM CLR 10/M10 A2994 2290 23 2300 130/03 RMK AO2 $
53144K9L2 9L220160420044510204/20/16 04:45:31  5-MIN K9L2 201245Z AUTO 16003KT 10SM CLR 10/M11 A2994 2290 22 2300 150/03 RMK AO2 $
53144K9L2 9L220160420045010204/20/16 04:50:31  5-MIN K9L2 201250Z AUTO 00000KT 10SM CLR 09/M11 A2994 2280 23 2200 000/00 RMK AO2 $
53144K9L2 9L220160420045511904/20/16 04:55:31  5-MIN K9L2 201255Z AUTO 00000KT 10SM CLR 08/M11 A2994 2280 24 2100 000/00 RMK AO2 SLP129 T00831111 $
53144K9L2 9L220160420050010204/20/16 05:00:31  5-MIN K9L2 201300Z AUTO 00000KT 10SM CLR 08/M11 A2994 2280 25 2000 000/00 RMK AO2 $
53144K9L2 9L220160420050510204/20/16 05:05:31  5-MIN K9L2 201305Z AUTO 00000KT 10SM CLR 08/M11 A2995 2280 25 2000 000/00 RMK AO2 $
53144K9L2 9L220160420051010204/20/16 05:10:31  5-MIN K9L2 201310Z AUTO 00000KT 10SM CLR 07/M11 A2995 2280 26 1900 000/00 RMK AO2 $
53144K9L2 9L220160420051510204/20/16 05:15:31  5-MIN K9L2 201315Z AUTO 00000KT 10SM CLR 08/M11 A2995 2280 25 2000 000/00 RMK AO2 $
53144K9L2 9L220160420052010204/20/16 05:20:31  5-MIN K9L2 201320Z AUTO 00000KT 10SM CLR 08/M11 A2995 2280 25 2000 000/00 RMK AO2 $
53144K9L2 9L220160420052510204/20/16 05:25:31  5-MIN K9L2 201325Z AUTO 00000KT 10SM CLR 07/M11 A2995 2270 26 1900 000/00 RMK AO2 $
53144K9L2 9L220160420053010204/20/16 05:30:31  5-MIN K9L2 201330Z AUTO 16003KT 10SM CLR 08/M11 A2995 2270 25 2000 140/03 RMK AO2 $
53144K9L2 9L220160420053510204/20/16 05:35:31  5-MIN K9L2 201335Z AUTO 00000KT 10SM CLR 08/M11 A2995 2270 25 2100 000/00 RMK AO2 $
53144K9L2 9L220160420054010204/20/16 05:40:31  5-MIN K9L2 201340Z AUTO 00000KT 10SM CLR 08/M11 A2996 2270 25 2000 000/00 RMK AO2 $
53144K9L2 9L220160420054510204/20/16 05:45:31  5-MIN K9L2 201345Z AUTO 00000KT 10SM CLR 09/M11 A2996 2270 24 2100 000/00 RMK AO2 $
53144K9L2 9L220160420055010204/20/16 05:50:31  5-MIN K9L2 201350Z AUTO 00000KT 10SM CLR 10/M10 A2996 2270 23 2200 000/00 RMK AO2 $
53144K9L2 9L220160420055511904/20/16 05:55:31  5-MIN K9L2 201355Z AUTO 00000KT 10SM CLR 10/M10 A2996 2270 23 2200 000/00 RMK AO2 SLP136 T01001100 $
53144K9L2 9L220160420060010204/20/16 06:00:31  5-MIN K9L2 201400Z AUTO 00000KT 10SM CLR 11/M10 A2996 2260 22 2300 000/00 RMK AO2 $
53144K9L2 9L220160420060510204/20/16 06:05:31  5-MIN K9L2 201405Z AUTO 00000KT 10SM CLR 11/M10 A2996 2260 22 2400 000/00 RMK AO2 $
53144K9L2 9L220160420061010204/20/16 06:10:31  5-MIN K9L2 201410Z AUTO 00000KT 10SM CLR 12/M10 A2996 2260 21 2400 000/00 RMK AO2 $
53144K9L2 9L220160420061510204/20/16 06:15:31  5-MIN K9L2 201415Z AUTO 00000KT 10SM CLR 12/M10 A2996 2260 21 2400 000/00 RMK AO2 $
53144K9L2 9L220160420062010204/20/16 06:20:31  5-MIN K9L2 201420Z AUTO 00000KT 10SM CLR 12/M09 A2996 2260 21 2500 000/00 RMK AO2 $
53144K9L2 9L220160420062510204/20/16 06:25:31  5-MIN K9L2 201425Z AUTO 00000KT 10SM CLR 12/M09 A2996 2260 21 2500 000/00 RMK AO2 $
53144K9L2 9L220160420063010204/20/16 06:30:31  5-MIN K9L2 201430Z AUTO 20003KT 10SM CLR 13/M09 A2997 2260 20 2600 190/03 RMK AO2 $
53144K9L2 9L220160420063510204/20/16 06:35:31  5-MIN K9L2 201435Z AUTO 19006KT 10SM CLR 14/M09 A2997 2260 20 2700 170/06 RMK AO2 $
53144K9L2 9L220160420064010204/20/16 06:40:31  5-MIN K9L2 201440Z AUTO 19006KT 10SM CLR 14/M09 A2997 2260 20 2700 180/06 RMK AO2 $
53144K9L2 9L220160420064510204/20/16 06:45:31  5-MIN K9L2 201445Z AUTO 18006KT 10SM CLR 14/M09 A2997 2260 19 2800 170/06 RMK AO2 $
53144K9L2 9L220160420065010204/20/16 06:50:31  5-MIN K9L2 201450Z AUTO 18006KT 10SM CLR 14/M09 A2997 2260 19 2800 170/06 RMK AO2 $
53144K9L2 9L220160420065512504/20/16 06:55:31  5-MIN K9L2 201455Z AUTO 18007KT 10SM CLR 15/M09 A2997 2260 18 2800 170/07 RMK AO2 SLP136 T01501089 56002 $
53144K9L2 9L220160420070010204/20/16 07:00:31  5-MIN K9L2 201500Z AUTO 18007KT 10SM CLR 15/M09 A2997 2260 18 2800 160/07 RMK AO2 $
53144K9L2 9L220160420070510204/20/16 07:05:31  5-MIN K9L2 201505Z AUTO 18006KT 10SM CLR 15/M09 A2997 2260 18 2800 160/06 RMK AO2 $
53144K9L2 9L220160420071010204/20/16 07:10:31  5-MIN K9L2 201510Z AUTO 17006KT 10SM CLR 16/M08 A2997 2260 18 2900 160/06 RMK AO2 $
53144K9L2 9L220160420071510204/20/16 07:15:31  5-MIN K9L2 201515Z AUTO 17006KT 10SM CLR 16/M08 A2997 2260 18 2900 150/06 RMK AO2 $
53144K9L2 9L220160420072010204/20/16 07:20:31  5-MIN K9L2 201520Z AUTO 16004KT 10SM CLR 16/M08 A2997 2260 18 2900 150/04 RMK AO2 $
53144K9L2 9L220160420072510204/20/16 07:25:31  5-MIN K9L2 201525Z AUTO 16006KT 10SM CLR 16/M08 A2997 2260 18 2900 140/06 RMK AO2 $
53144K9L2 9L220160420073010204/20/16 07:30:31  5-MIN K9L2 201530Z AUTO 17005KT 10SM CLR 16/M08 A2997 2260 18 3000 150/05 RMK AO2 $
53144K9L2 9L220160420073510204/20/16 07:35:31  5-MIN K9L2 201535Z AUTO 17006KT 10SM CLR 17/M08 A2997 2260 17 3000 150/06 RMK AO2 $
53144K9L2 9L220160420074010204/20/16 07:40:31  5-MIN K9L2 201540Z AUTO 17005KT 10SM CLR 17/M08 A2997 2260 16 3100 150/05 RMK AO2 $
53144K9L2 9L220160420074510204/20/16 07:45:31  5-MIN K9L2 201545Z AUTO 16004KT 10SM CLR 18/M08 A2997 2260 16 3100 150/04 RMK AO2 $
53144K9L2 9L220160420075010204/20/16 07:50:31  5-MIN K9L2 201550Z AUTO 17004KT 10SM CLR 18/M08 A2997 2260 16 3200 150/04 RMK AO2 $
53144K9L2 9L220160420075511904/20/16 07:55:31  5-MIN K9L2 201555Z AUTO 17005KT 10SM CLR 19/M08 A2997 2260 15 3300 150/05 RMK AO2 SLP136 T01891078 $
53144K9L2 9L220160420080010204/20/16 08:00:31  5-MIN K9L2 201600Z AUTO 17006KT 10SM CLR 19/M08 A2997 2260 15 3300 150/06 RMK AO2 $
53144K9L2 9L220160420080510204/20/16 08:05:31  5-MIN K9L2 201605Z AUTO 15005KT 10SM CLR 19/M08 A2997 2260 14 3300 140/05 RMK AO2 $
53144K9L2 9L220160420081010204/20/16 08:10:31  5-MIN K9L2 201610Z AUTO 15004KT 10SM CLR 19/M08 A2997 2260 14 3300 140/04 RMK AO2 $
53144K9L2 9L220160420081510204/20/16 08:15:31  5-MIN K9L2 201615Z AUTO 15005KT 10SM CLR 21/M08 A2997 2260 13 3500 140/05 RMK AO2 $
53144K9L2 9L220160420082010204/20/16 08:20:31  5-MIN K9L2 201620Z AUTO 15006KT 10SM CLR 21/M09 A2997 2260 12 3500 140/06 RMK AO2 $
53144K9L2 9L220160420082510204/20/16 08:25:31  5-MIN K9L2 201625Z AUTO 17007KT 10SM CLR 21/M09 A2997 2260 12 3500 160/07 RMK AO2 $
53144K9L2 9L220160420083010204/20/16 08:30:31  5-MIN K9L2 201630Z AUTO 23011KT 10SM CLR 23/M11 A2997 2260 10 3700 220/11 RMK AO2 $
53144K9L2 9L220160420083510204/20/16 08:35:31  5-MIN K9L2 201635Z AUTO 22012KT 10SM CLR 24/M12 A2997 2260 08 3900 210/12 RMK AO2 $
53144K9L2 9L220160420084010204/20/16 08:40:31  5-MIN K9L2 201640Z AUTO 22012KT 10SM CLR 25/M13 A2997 2260 07 4000 210/12 RMK AO2 $
53144K9L2 9L220160420084511304/20/16 08:45:31  5-MIN K9L2 201645Z AUTO 22012KT 10SM CLR 25/M13 A2997 2260 07 4000 210/12 RMK AO2 WSHFT 1628 $
53144K9L2 9L220160420085011304/20/16 08:50:31  5-MIN K9L2 201650Z AUTO 22012KT 10SM CLR 25/M13 A2997 2260 07 4000 200/12 RMK AO2 WSHFT 1628 $
53144K9L2 9L220160420085513604/20/16 08:55:31  5-MIN K9L2 201655Z AUTO 22009G18KT 10SM CLR 26/M13 A2997 2260 07 4000 200/09G18 RMK AO2 WSHFT 1628 SLP133 T02561128 $
53144K9L2 9L220160420090010204/20/16 09:00:31  5-MIN K9L2 201700Z AUTO 22009KT 10SM CLR 26/M13 A2997 2260 07 4000 210/09 RMK AO2 $
53144K9L2 9L220160420090510204/20/16 09:05:31  5-MIN K9L2 201705Z AUTO 20010KT 10SM CLR 25/M12 A2997 2260 07 4000 190/10 RMK AO2 $
53144K9L2 9L220160420091010204/20/16 09:10:31  5-MIN K9L2 201710Z AUTO 20009KT 10SM CLR 26/M12 A2997 2260 07 4000 190/09 RMK AO2 $
53144K9L2 9L220160420091510204/20/16 09:15:31  5-MIN K9L2 201715Z AUTO 22015KT 10SM CLR 26/M12 A2997 2260 07 4000 200/15 RMK AO2 $
53144K9L2 9L220160420092010204/20/16 09:20:31  5-MIN K9L2 201720Z AUTO 23012KT 10SM CLR 26/M12 A2997 2260 07 4100 210/12 RMK AO2 $
53144K9L2 9L220160420092510204/20/16 09:25:31  5-MIN K9L2 201725Z AUTO 23011KT 10SM CLR 26/M12 A2997 2260 07 4100 210/11 RMK AO2 $
53144K9L2 9L220160420093010804/20/16 09:30:31  5-MIN K9L2 201730Z AUTO 22012G18KT 10SM CLR 27/M12 A2997 2260 07 4100 210/12G18 RMK AO2 $
53144K9L2 9L220160420093510204/20/16 09:35:31  5-MIN K9L2 201735Z AUTO 20014KT 10SM CLR 27/M12 A2997 2260 07 4100 180/14 RMK AO2 $
53144K9L2 9L220160420094010804/20/16 09:40:31  5-MIN K9L2 201740Z AUTO 22014G18KT 10SM CLR 27/M13 A2997 2260 06 4100 210/14G18 RMK AO2 $
53144K9L2 9L220160420094510804/20/16 09:45:31  5-MIN K9L2 201745Z AUTO 23016G21KT 10SM CLR 27/M13 A2997 2260 06 4100 220/16G21 RMK AO2 $
53144K9L2 9L220160420095010804/20/16 09:50:31  5-MIN K9L2 201750Z AUTO 22015G21KT 10SM CLR 27/M13 A2997 2260 06 4100 200/15G21 RMK AO2 $
53144K9L2 9L220160420095514304/20/16 09:55:31  5-MIN K9L2 201755Z AUTO 21014G20KT 10SM CLR 27/M13 A2997 2260 06 4100 200/14G20 RMK AO2 SLP133 T02671133 10267 20072 53008 $
53144K9L2 9L220160420100010804/20/16 10:00:31  5-MIN K9L2 201800Z AUTO 22011G18KT 10SM CLR 27/M13 A2997 2260 06 4200 210/11G18 RMK AO2 $
53144K9L2 9L220160420100510804/20/16 10:05:31  5-MIN K9L2 201805Z AUTO 21014G19KT 10SM CLR 27/M13 A2997 2260 06 4200 200/14G19 RMK AO2 $
53144K9L2 9L220160420101010804/20/16 10:10:31  5-MIN K9L2 201810Z AUTO 20013G19KT 10SM CLR 27/M13 A2997 2260 06 4200 190/13G19 RMK AO2 $
53144K9L2 9L220160420101510204/20/16 10:15:31  5-MIN K9L2 201815Z AUTO 21014KT 10SM CLR 28/M13 A2997 2260 06 4300 190/14 RMK AO2 $
53144K9L2 9L220160420102010804/20/16 10:20:31  5-MIN K9L2 201820Z AUTO 22010G20KT 10SM CLR 27/M13 A2997 2260 06 4200 210/10G20 RMK AO2 $
53144K9L2 9L220160420102510804/20/16 10:25:31  5-MIN K9L2 201825Z AUTO 21008G20KT 10SM CLR 28/M13 A2997 2260 06 4300 200/08G20 RMK AO2 $
53144K9L2 9L220160420103010804/20/16 10:30:31  5-MIN K9L2 201830Z AUTO 21015G20KT 10SM CLR 28/M12 A2997 2260 06 4300 200/15G20 RMK AO2 $
53144K9L2 9L220160420103510804/20/16 10:35:31  5-MIN K9L2 201835Z AUTO 25009G17KT 10SM CLR 28/M12 A2997 2260 06 4300 240/09G17 RMK AO2 $
53144K9L2 9L220160420104010204/20/16 10:40:31  5-MIN K9L2 201840Z AUTO 21008KT 10SM CLR 28/M12 A2997 2260 06 4300 200/08 RMK AO2 $
53144K9L2 9L220160420104510204/20/16 10:45:31  5-MIN K9L2 201845Z AUTO 22009KT 10SM CLR 28/M12 A2996 2260 06 4300 210/09 RMK AO2 $
53144K9L2 9L220160420105010804/20/16 10:50:31  5-MIN K9L2 201850Z AUTO 23012G16KT 10SM CLR 28/M12 A2996 2270 06 4300 220/12G16 RMK AO2 $
53144K9L2 9L220160420105512504/20/16 10:55:31  5-MIN K9L2 201855Z AUTO 22011G18KT 10SM CLR 28/M13 A2996 2270 06 4300 210/11G18 RMK AO2 SLP129 T02831128 $
53144K9L2 9L220160420110010804/20/16 11:00:31  5-MIN K9L2 201900Z AUTO 23009G18KT 10SM CLR 29/M13 A2996 2270 05 4400 220/09G18 RMK AO2 $
53144K9L2 9L220160420110510204/20/16 11:05:31  5-MIN K9L2 201905Z AUTO 24010KT 10SM CLR 29/M13 A2996 2270 05 4400 220/10 RMK AO2 $
53144K9L2 9L220160420111010804/20/16 11:10:31  5-MIN K9L2 201910Z AUTO 21015G19KT 10SM CLR 29/M13 A2995 2270 05 4400 200/15G19 RMK AO2 $
53144K9L2 9L220160420111510804/20/16 11:15:31  5-MIN K9L2 201915Z AUTO 21011G19KT 10SM CLR 28/M14 A2995 2270 05 4300 200/11G19 RMK AO2 $
53144K9L2 9L220160420112010804/20/16 11:20:31  5-MIN K9L2 201920Z AUTO 23009G17KT 10SM CLR 29/M15 A2995 2270 05 4400 210/09G17 RMK AO2 $
53144K9L2 9L220160420112510804/20/16 11:25:31  5-MIN K9L2 201925Z AUTO 21011G17KT 10SM CLR 29/M14 A2995 2280 05 4500 200/11G17 RMK AO2 $
53144K9L2 9L220160420113010804/20/16 11:30:31  5-MIN K9L2 201930Z AUTO 21012G18KT 10SM CLR 29/M15 A2995 2280 05 4500 200/12G18 RMK AO2 $
53144K9L2 9L220160420113510804/20/16 11:35:31  5-MIN K9L2 201935Z AUTO 23013G18KT 10SM CLR 29/M16 A2994 2280 04 4500 220/13G18 RMK AO2 $
53144K9L2 9L220160420114010804/20/16 11:40:31  5-MIN K9L2 201940Z AUTO 22007G18KT 10SM CLR 29/M16 A2994 2280 04 4500 210/07G18 RMK AO2 $
53144K9L2 9L220160420114510804/20/16 11:45:31  5-MIN K9L2 201945Z AUTO 23010G16KT 10SM CLR 29/M15 A2994 2290 05 4400 220/10G16 RMK AO2 $
53144K9L2 9L220160420115010804/20/16 11:50:31  5-MIN K9L2 201950Z AUTO 21010G16KT 10SM CLR 29/M14 A2994 2290 05 4500 200/10G16 RMK AO2 $
53144K9L2 9L220160420115512504/20/16 11:55:31  5-MIN K9L2 201955Z AUTO 22013G19KT 10SM CLR 29/M14 A2994 2290 05 4500 200/13G19 RMK AO2 SLP122 T02941144 $
53144K9L2 9L220160420120010804/20/16 12:00:31  5-MIN K9L2 202000Z AUTO 24013G19KT 10SM CLR 29/M14 A2994 2290 05 4500 230/13G19 RMK AO2 $
53144K9L2 9L220160420120510804/20/16 12:05:31  5-MIN K9L2 202005Z AUTO 20011G18KT 10SM CLR 29/M14 A2993 2290 05 4500 190/11G18 RMK AO2 $
53144K9L2 9L220160420121010804/20/16 12:10:31  5-MIN K9L2 202010Z AUTO 22014G18KT 10SM CLR 30/M14 A2993 2290 05 4600 200/14G18 RMK AO2 $
53144K9L2 9L220160420121510804/20/16 12:15:31  5-MIN K9L2 202015Z AUTO 24010G17KT 10SM CLR 29/M14 A2993 2290 05 4500 230/10G17 RMK AO2 $
53144K9L2 9L220160420122010804/20/16 12:20:31  5-MIN K9L2 202020Z AUTO 24014G17KT 10SM CLR 30/M14 A2993 2290 05 4600 230/14G17 RMK AO2 $
53144K9L2 9L220160420122510804/20/16 12:25:31  5-MIN K9L2 202025Z AUTO 23010G17KT 10SM CLR 30/M15 A2993 2300 04 4600 210/10G17 RMK AO2 $
53144K9L2 9L220160420123010804/20/16 12:30:31  5-MIN K9L2 202030Z AUTO 20014G18KT 10SM CLR 30/M16 A2993 2300 04 4600 190/14G18 RMK AO2 $
53144K9L2 9L220160420123510804/20/16 12:35:31  5-MIN K9L2 202035Z AUTO 22012G19KT 10SM CLR 30/M16 A2993 2300 04 4600 200/12G19 RMK AO2 $
53144K9L2 9L220160420124010804/20/16 12:40:31  5-MIN K9L2 202040Z AUTO 21011G19KT 10SM CLR 30/M14 A2993 2300 05 4600 200/11G19 RMK AO2 $
53144K9L2 9L220160420124510804/20/16 12:45:31  5-MIN K9L2 202045Z AUTO 22013G18KT 10SM CLR 31/M15 A2993 2300 04 4600 210/13G18 RMK AO2 $
53144K9L2 9L220160420125010804/20/16 12:50:31  5-MIN K9L2 202050Z AUTO 21016G22KT 10SM CLR 31/M14 A2992 2300 04 4600 200/16G22 RMK AO2 $
53144K9L2 9L220160420125513104/20/16 12:55:31  5-MIN K9L2 202055Z AUTO 22010G22KT 10SM CLR 30/M14 A2992 2300 05 4600 200/10G22 RMK AO2 SLP117 T03001139 50000 $
53144K9L2 9L220160420130010804/20/16 13:00:31  5-MIN K9L2 202100Z AUTO 25015G19KT 10SM CLR 31/M14 A2992 2300 05 4600 240/15G19 RMK AO2 $
53144K9L2 9L220160420130510804/20/16 13:05:31  5-MIN K9L2 202105Z AUTO 23019G23KT 10SM CLR 31/M14 A2992 2300 05 4600 220/19G23 RMK AO2 $
53144K9L2 9L220160420131010804/20/16 13:10:31  5-MIN K9L2 202110Z AUTO 22012G23KT 10SM CLR 30/M15 A2992 2300 04 4600 210/12G23 RMK AO2 $
53144K9L2 9L220160420131510804/20/16 13:15:31  5-MIN K9L2 202115Z AUTO 23013G20KT 10SM CLR 31/M14 A2992 2300 04 4600 220/13G20 RMK AO2 $
53144K9L2 9L220160420132010804/20/16 13:20:31  5-MIN K9L2 202120Z AUTO 24013G20KT 10SM CLR 31/M15 A2992 2300 04 4600 230/13G20 RMK AO2 $
53144K9L2 9L220160420132510804/20/16 13:25:31  5-MIN K9L2 202125Z AUTO 23011G18KT 10SM CLR 31/M14 A2992 2300 04 4600 220/11G18 RMK AO2 $
53144K9L2 9L220160420133010804/20/16 13:30:31  5-MIN K9L2 202130Z AUTO 24014G21KT 10SM CLR 31/M15 A2992 2300 04 4600 220/14G21 RMK AO2 $
53144K9L2 9L220160420133510804/20/16 13:35:31  5-MIN K9L2 202135Z AUTO 23013G21KT 10SM CLR 31/M15 A2992 2300 04 4600 220/13G21 RMK AO2 $
53144K9L2 9L220160420134010804/20/16 13:40:31  5-MIN K9L2 202140Z AUTO 25013G19KT 10SM CLR 31/M14 A2992 2310 04 4600 230/13G19 RMK AO2 $
53144K9L2 9L220160420134510804/20/16 13:45:31  5-MIN K9L2 202145Z AUTO 24012G19KT 10SM CLR 31/M14 A2991 2310 04 4700 220/12G19 RMK AO2 $
53144K9L2 9L220160420135010804/20/16 13:50:31  5-MIN K9L2 202150Z AUTO 22013G25KT 10SM CLR 31/M14 A2991 2310 04 4700 210/13G25 RMK AO2 $
53144K9L2 9L220160420135512504/20/16 13:55:31  5-MIN K9L2 202155Z AUTO 23017G25KT 10SM CLR 31/M14 A2991 2310 04 4600 210/17G25 RMK AO2 SLP112 T03061144 $
53144K9L2 9L220160420140010804/20/16 14:00:31  5-MIN K9L2 202200Z AUTO 24016G21KT 10SM CLR 31/M15 A2991 2310 04 4600 230/16G21 RMK AO2 $
53144K9L2 9L220160420140510804/20/16 14:05:31  5-MIN K9L2 202205Z AUTO 22014G22KT 10SM CLR 31/M14 A2990 2320 04 4700 210/14G22 RMK AO2 $
53144K9L2 9L220160420141010804/20/16 14:10:31  5-MIN K9L2 202210Z AUTO 23015G22KT 10SM CLR 31/M14 A2990 2320 04 4600 220/15G22 RMK AO2 $
53144K9L2 9L220160420141512604/20/16 14:15:31  5-MIN K9L2 202215Z AUTO 24018G27KT 10SM CLR 31/M14 A2990 2320 04 4700 220/18G27 RMK AO2 PK WND 25027/2214 $
53144K9L2 9L220160420142012604/20/16 14:20:31  5-MIN K9L2 202220Z AUTO 24013G27KT 10SM CLR 31/M16 A2990 2320 04 4600 220/13G27 RMK AO2 PK WND 25027/2214 $
53144K9L2 9L220160420142512604/20/16 14:25:31  5-MIN K9L2 202225Z AUTO 25017G21KT 10SM CLR 31/M15 A2990 2320 04 4600 240/17G21 RMK AO2 PK WND 25027/2214 $
53144K9L2 9L220160420143012004/20/16 14:30:31  5-MIN K9L2 202230Z AUTO 25016KT 10SM CLR 31/M15 A2990 2320 04 4700 230/16 RMK AO2 PK WND 25027/2214 $
53144K9L2 9L220160420143512004/20/16 14:35:31  5-MIN K9L2 202235Z AUTO 25015KT 10SM CLR 31/M14 A2989 2330 04 4700 240/15 RMK AO2 PK WND 25027/2214 $
53144K9L2 9L220160420144012604/20/16 14:40:31  5-MIN K9L2 202240Z AUTO 24014G21KT 10SM CLR 31/M15 A2989 2330 04 4700 220/14G21 RMK AO2 PK WND 25027/2214 $
53144K9L2 9L220160420144512604/20/16 14:45:31  5-MIN K9L2 202245Z AUTO 24016G21KT 10SM CLR 31/M15 A2989 2330 04 4700 230/16G21 RMK AO2 PK WND 25027/2214 $
53144K9L2 9L220160420145012604/20/16 14:50:31  5-MIN K9L2 202250Z AUTO 22013G20KT 10SM CLR 31/M15 A2989 2340 04 4700 210/13G20 RMK AO2 PK WND 25027/2214 $
53144K9L2 9L220160420145514304/20/16 14:55:31  5-MIN K9L2 202255Z AUTO 23015G19KT 10SM CLR 31/M15 A2989 2330 04 4700 220/15G19 RMK AO2 PK WND 25027/2214 SLP106 T03111150 $
53144K9L2 9L220160420150010204/20/16 15:00:31  5-MIN K9L2 202300Z AUTO 25013KT 10SM CLR 31/M16 A2989 2340 04 4700 230/13 RMK AO2 $
53144K9L2 9L220160420150510804/20/16 15:05:31  5-MIN K9L2 202305Z AUTO 24014G19KT 10SM CLR 31/M16 A2989 2330 04 4700 230/14G19 RMK AO2 $
53144K9L2 9L220160420151010804/20/16 15:10:31  5-MIN K9L2 202310Z AUTO 25016G20KT 10SM CLR 31/M15 A2988 2340 04 4700 240/16G20 RMK AO2 $
53144K9L2 9L220160420151510804/20/16 15:15:31  5-MIN K9L2 202315Z AUTO 25016G22KT 10SM CLR 31/M14 A2988 2340 05 4700 240/16G22 RMK AO2 $
53144K9L2 9L220160420152010804/20/16 15:20:31  5-MIN K9L2 202320Z AUTO 25015G22KT 10SM CLR 30/M14 A2988 2340 05 4600 240/15G22 RMK AO2 $
53144K9L2 9L220160420152510804/20/16 15:25:31  5-MIN K9L2 202325Z AUTO 24013G21KT 10SM CLR 31/M14 A2988 2340 05 4700 230/13G21 RMK AO2 $
53144K9L2 9L220160420153010804/20/16 15:30:31  5-MIN K9L2 202330Z AUTO 25014G21KT 10SM CLR 31/M13 A2988 2340 05 4700 240/14G21 RMK AO2 $
53144K9L2 9L220160420153510804/20/16 15:35:31  5-MIN K9L2 202335Z AUTO 24014G20KT 10SM CLR 30/M13 A2988 2340 05 4600 220/14G20 RMK AO2 $
53144K9L2 9L220160420154010804/20/16 15:40:31  5-MIN K9L2 202340Z AUTO 24014G20KT 10SM CLR 31/M12 A2988 2340 06 4700 220/14G20 RMK AO2 $
53144K9L2 9L220160420154510804/20/16 15:45:31  5-MIN K9L2 202345Z AUTO 24017G23KT 10SM CLR 31/M11 A2988 2340 06 4700 220/17G23 RMK AO2 $
53144K9L2 9L220160420155010804/20/16 15:50:31  5-MIN K9L2 202350Z AUTO 24017G23KT 10SM CLR 31/M12 A2988 2340 06 4700 220/17G23 RMK AO2 $
53144K9L2 9L220160420155513704/20/16 15:55:31  5-MIN K9L2 202355Z AUTO 23014KT 10SM CLR 31/M12 A2987 2340 06 4700 220/14 RMK AO2 SLP103 T03061117 10317 20267 58015 $
53144K9L2 9L220160420160010204/20/16 16:00:31  5-MIN K9L2 210000Z AUTO 24015KT 10SM CLR 31/M12 A2988 2340 06 4700 230/15 RMK AO2 $
53144K9L2 9L220160420160510804/20/16 16:05:31  5-MIN K9L2 210005Z AUTO 25017G23KT 10SM CLR 30/M11 A2987 2350 06 4600 240/17G23 RMK AO2 $
53144K9L2 9L220160420161010804/20/16 16:10:31  5-MIN K9L2 210010Z AUTO 25018G24KT 10SM CLR 30/M12 A2987 2350 05 4600 230/18G24 RMK AO2 $
53144K9L2 9L220160420161510804/20/16 16:15:31  5-MIN K9L2 210015Z AUTO 24016G24KT 10SM CLR 30/M12 A2987 2350 06 4600 220/16G24 RMK AO2 $
53144K9L2 9L220160420162010204/20/16 16:20:31  5-MIN K9L2 210020Z AUTO 24019KT 10SM CLR 30/M11 A2987 2350 06 4600 230/19 RMK AO2 $
53144K9L2 9L220160420162510204/20/16 16:25:31  5-MIN K9L2 210025Z AUTO 24019KT 10SM CLR 30/M11 A2987 2350 06 4600 230/19 RMK AO2 $
53144K9L2 9L220160420163010804/20/16 16:30:31  5-MIN K9L2 210030Z AUTO 24018G24KT 10SM CLR 29/M11 A2988 2340 06 4600 230/18G24 RMK AO2 $
53144K9L2 9L220160420163510804/20/16 16:35:31  5-MIN K9L2 210035Z AUTO 23016G24KT 10SM CLR 29/M10 A2987 2350 07 4600 220/16G24 RMK AO2 $
53144K9L2 9L220160420164010804/20/16 16:40:31  5-MIN K9L2 210040Z AUTO 24017G24KT 10SM CLR 29/M11 A2987 2340 06 4600 230/17G24 RMK AO2 $
53144K9L2 9L220160420164510804/20/16 16:45:31  5-MIN K9L2 210045Z AUTO 24017G24KT 10SM CLR 29/M11 A2987 2350 06 4600 220/17G24 RMK AO2 $
53144K9L2 9L220160420165010204/20/16 16:50:31  5-MIN K9L2 210050Z AUTO 25019KT 10SM CLR 29/M10 A2987 2350 07 4500 230/19 RMK AO2 $
53144K9L2 9L220160420165511904/20/16 16:55:31  5-MIN K9L2 210055Z AUTO 24018KT 10SM CLR 29/M11 A2988 2340 06 4500 230/18 RMK AO2 SLP106 T02891111 $
53144K9L2 9L220160420170010204/20/16 17:00:31  5-MIN K9L2 210100Z AUTO 23017KT 10SM CLR 28/M11 A2988 2340 07 4400 220/17 RMK AO2 $
53144K9L2 9L220160420170510204/20/16 17:05:31  5-MIN K9L2 210105Z AUTO 24016KT 10SM CLR 28/M10 A2988 2340 07 4400 230/16 RMK AO2 $
53144K9L2 9L220160420171010804/20/16 17:10:31  5-MIN K9L2 210110Z AUTO 24015G22KT 10SM CLR 28/M10 A2988 2340 07 4400 230/15G22 RMK AO2 $
53144K9L2 9L220160420171510804/20/16 17:15:31  5-MIN K9L2 210115Z AUTO 24014G22KT 10SM CLR 28/M09 A2988 2340 08 4400 230/14G22 RMK AO2 $
53144K9L2 9L220160420172010204/20/16 17:20:31  5-MIN K9L2 210120Z AUTO 24018KT 10SM CLR 28/M09 A2988 2340 08 4400 230/18 RMK AO2 $
53144K9L2 9L220160420172510204/20/16 17:25:31  5-MIN K9L2 210125Z AUTO 23018KT 10SM CLR 28/M09 A2988 2340 08 4400 220/18 RMK AO2 $
53144K9L2 9L220160420173010204/20/16 17:30:31  5-MIN K9L2 210130Z AUTO 24014KT 10SM CLR 27/M09 A2988 2340 08 4300 220/14 RMK AO2 $
53144K9L2 9L220160420173510804/20/16 17:35:31  5-MIN K9L2 210135Z AUTO 24017G23KT 10SM CLR 27/M09 A2988 2340 08 4300 230/17G23 RMK AO2 $
53144K9L2 9L220160420174010804/20/16 17:40:31  5-MIN K9L2 210140Z AUTO 24016G23KT 10SM CLR 27/M09 A2988 2340 08 4300 220/16G23 RMK AO2 $
53144K9L2 9L220160420174510804/20/16 17:45:31  5-MIN K9L2 210145Z AUTO 24015G21KT 10SM CLR 27/M09 A2988 2340 08 4300 230/15G21 RMK AO2 $
53144K9L2 9L220160420175010204/20/16 17:50:31  5-MIN K9L2 210150Z AUTO 24018KT 10SM CLR 27/M08 A2988 2340 09 4200 230/18 RMK AO2 $
53144K9L2 9L220160420175511904/20/16 17:55:31  5-MIN K9L2 210155Z AUTO 24016KT 10SM CLR 27/M08 A2988 2340 09 4200 230/16 RMK AO2 SLP108 T02671083 $
53144K9L2 9L220160420180010804/20/16 18:00:31  5-MIN K9L2 210200Z AUTO 24015G23KT 10SM CLR 27/M08 A2988 2340 09 4200 220/15G23 RMK AO2 $
53144K9L2 9L220160420180510204/20/16 18:05:31  5-MIN K9L2 210205Z AUTO 23015KT 10SM CLR 26/M08 A2988 2340 10 4200 220/15 RMK AO2 $
53144K9L2 9L220160420181010804/20/16 18:10:31  5-MIN K9L2 210210Z AUTO 23015G22KT 10SM CLR 26/M08 A2988 2340 10 4100 220/15G22 RMK AO2 $
53144K9L2 9L220160420181510804/20/16 18:15:31  5-MIN K9L2 210215Z AUTO 23015G22KT 10SM CLR 26/M08 A2988 2340 10 4100 220/15G22 RMK AO2 $
53144K9L2 9L220160420182010204/20/16 18:20:31  5-MIN K9L2 210220Z AUTO 24015KT 10SM CLR 25/M08 A2988 2340 10 4100 220/15 RMK AO2 $
53144K9L2 9L220160420182510204/20/16 18:25:31  5-MIN K9L2 210225Z AUTO 23014KT 10SM CLR 25/M08 A2988 2340 10 4100 220/14 RMK AO2 $
53144K9L2 9L220160420183010204/20/16 18:30:31  5-MIN K9L2 210230Z AUTO 23014KT 10SM CLR 24/M08 A2989 2330 11 4000 220/14 RMK AO2 $
53144K9L2 9L220160420183510204/20/16 18:35:31  5-MIN K9L2 210235Z AUTO 23013KT 10SM CLR 24/M08 A2989 2330 11 4000 220/13 RMK AO2 $
53144K9L2 9L220160420184010204/20/16 18:40:31  5-MIN K9L2 210240Z AUTO 23015KT 10SM CLR 24/M07 A2989 2330 12 3900 220/15 RMK AO2 $
53144K9L2 9L220160420184510204/20/16 18:45:31  5-MIN K9L2 210245Z AUTO 23014KT 10SM CLR 24/M07 A2989 2330 12 3900 220/14 RMK AO2 $
53144K9L2 9L220160420185010804/20/16 18:50:31  5-MIN K9L2 210250Z AUTO 24014G20KT 10SM CLR 24/M07 A2989 2330 12 3900 220/14G20 RMK AO2 $
53144K9L2 9L220160420185513104/20/16 18:55:31  5-MIN K9L2 210255Z AUTO 24013G20KT 10SM CLR 23/M07 A2989 2330 12 3900 230/13G20 RMK AO2 SLP111 T02331072 56015 $
53144K9L2 9L220160420190010204/20/16 19:00:31  5-MIN K9L2 210300Z AUTO 24014KT 10SM CLR 23/M07 A2989 2330 12 3900 230/14 RMK AO2 $
53144K9L2 9L220160420190510204/20/16 19:05:31  5-MIN K9L2 210305Z AUTO 24012KT 10SM CLR 23/M07 A2990 2330 12 3900 230/12 RMK AO2 $
53144K9L2 9L220160420191010204/20/16 19:10:31  5-MIN K9L2 210310Z AUTO 24013KT 10SM CLR 23/M07 A2990 2320 13 3800 230/13 RMK AO2 $
53144K9L2 9L220160420191510204/20/16 19:15:31  5-MIN K9L2 210315Z AUTO 24012KT 10SM CLR 23/M07 A2990 2320 13 3800 230/12 RMK AO2 $
53144K9L2 9L220160420192010204/20/16 19:20:31  5-MIN K9L2 210320Z AUTO 24011KT 10SM CLR 23/M07 A2990 2320 13 3800 230/11 RMK AO2 $
53144K9L2 9L220160420192510204/20/16 19:25:31  5-MIN K9L2 210325Z AUTO 24011KT 10SM CLR 22/M07 A2990 2320 14 3700 230/11 RMK AO2 $
53144K9L2 9L220160420193010204/20/16 19:30:31  5-MIN K9L2 210330Z AUTO 25011KT 10SM CLR 22/M07 A2990 2320 14 3700 230/11 RMK AO2 $
53144K9L2 9L220160420193510204/20/16 19:35:31  5-MIN K9L2 210335Z AUTO 26014KT 10SM CLR 22/M07 A2990 2320 14 3700 240/14 RMK AO2 $
53144K9L2 9L220160420194010204/20/16 19:40:31  5-MIN K9L2 210340Z AUTO 26014KT 10SM CLR 22/M07 A2990 2320 14 3700 250/14 RMK AO2 $
53144K9L2 9L220160420194510204/20/16 19:45:31  5-MIN K9L2 210345Z AUTO 26015KT 10SM CLR 22/M07 A2990 2320 13 3700 240/15 RMK AO2 $
53144K9L2 9L220160420195010204/20/16 19:50:31  5-MIN K9L2 210350Z AUTO 25014KT 10SM CLR 22/M07 A2990 2320 13 3700 240/14 RMK AO2 $
53144K9L2 9L220160420195511904/20/16 19:55:31  5-MIN K9L2 210355Z AUTO 25015KT 10SM CLR 22/M07 A2991 2320 13 3700 240/15 RMK AO2 SLP114 T02221072 $
53144K9L2 9L220160420200010204/20/16 20:00:31  5-MIN K9L2 210400Z AUTO 25015KT 10SM CLR 22/M07 A2991 2310 13 3700 240/15 RMK AO2 $
53144K9L2 9L220160420200510204/20/16 20:05:31  5-MIN K9L2 210405Z AUTO 25015KT 10SM CLR 22/M07 A2991 2310 13 3700 240/15 RMK AO2 $
53144K9L2 9L220160420201010204/20/16 20:10:31  5-MIN K9L2 210410Z AUTO 25013KT 10SM CLR 22/M07 A2992 2310 13 3700 230/13 RMK AO2 $
53144K9L2 9L220160420201510804/20/16 20:15:31  5-MIN K9L2 210415Z AUTO 25012G20KT 10SM CLR 22/M07 A2992 2310 13 3600 240/12G20 RMK AO2 $
53144K9L2 9L220160420202010204/20/16 20:20:31  5-MIN K9L2 210420Z AUTO 25014KT 10SM CLR 22/M08 A2992 2300 13 3600 240/14 RMK AO2 $
53144K9L2 9L220160420202510204/20/16 20:25:31  5-MIN K9L2 210425Z AUTO 25012KT 10SM CLR 22/M08 A2992 2300 13 3600 240/12 RMK AO2 $
53144K9L2 9L220160420203010804/20/16 20:30:31  5-MIN K9L2 210430Z AUTO 25016G21KT 10SM CLR 22/M08 A2992 2300 12 3600 240/16G21 RMK AO2 $
53144K9L2 9L220160420203510204/20/16 20:35:31  5-MIN K9L2 210435Z AUTO 26014KT 10SM CLR 22/M08 A2992 2300 12 3600 240/14 RMK AO2 $
53144K9L2 9L220160420204010204/20/16 20:40:31  5-MIN K9L2 210440Z AUTO 26013KT 10SM CLR 22/M08 A2992 2300 13 3600 250/13 RMK AO2 $
53144K9L2 9L220160420204510204/20/16 20:45:31  5-MIN K9L2 210445Z AUTO 26013KT 10SM CLR 22/M08 A2992 2300 13 3600 240/13 RMK AO2 $
53144K9L2 9L220160420205010204/20/16 20:50:31  5-MIN K9L2 210450Z AUTO 26012KT 10SM CLR 22/M08 A2993 2300 12 3600 240/12 RMK AO2 $
53144K9L2 9L220160420205511904/20/16 20:55:31  5-MIN K9L2 210455Z AUTO 26010KT 10SM CLR 22/M08 A2993 2300 12 3600 240/10 RMK AO2 SLP117 T02171083 $
53144K9L2 9L220160420210010204/20/16 21:00:31  5-MIN K9L2 210500Z AUTO 25009KT 10SM CLR 21/M08 A2993 2290 13 3600 240/09 RMK AO2 $
53144K9L2 9L220160420210510204/20/16 21:05:31  5-MIN K9L2 210505Z AUTO 25006KT 10SM CLR 22/M08 A2993 2290 12 3600 230/06 RMK AO2 $
53144K9L2 9L220160420211010204/20/16 21:10:31  5-MIN K9L2 210510Z AUTO 22005KT 10SM CLR 22/M08 A2994 2290 12 3600 210/05 RMK AO2 $
53144K9L2 9L220160420211510204/20/16 21:15:31  5-MIN K9L2 210515Z AUTO 15007KT 10SM CLR 21/M08 A2994 2290 13 3600 140/07 RMK AO2 $
53144K9L2 9L220160420212010204/20/16 21:20:31  5-MIN K9L2 210520Z AUTO 14005KT 10SM CLR 21/M08 A2994 2290 14 3500 130/05 RMK AO2 $
53144K9L2 9L220160420212510204/20/16 21:25:31  5-MIN K9L2 210525Z AUTO 15004KT 10SM CLR 20/M08 A2994 2290 14 3400 140/04 RMK AO2 $
53144K9L2 9L220160420213010204/20/16 21:30:31  5-MIN K9L2 210530Z AUTO 15003KT 10SM CLR 19/M08 A2994 2290 15 3400 140/03 RMK AO2 $
53144K9L2 9L220160420213510204/20/16 21:35:31  5-MIN K9L2 210535Z AUTO 15003KT 10SM CLR 19/M08 A2993 2290 15 3400 130/03 RMK AO2 $
53144K9L2 9L220160420214010204/20/16 21:40:31  5-MIN K9L2 210540Z AUTO 14005KT 10SM CLR 19/M08 A2993 2290 15 3400 130/05 RMK AO2 $
53144K9L2 9L220160420214510204/20/16 21:45:31  5-MIN K9L2 210545Z AUTO VRB05KT 10SM CLR 21/M08 A2993 2290 13 3600 VRB/05 RMK AO2 $
53144K9L2 9L220160420215010204/20/16 21:50:31  5-MIN K9L2 210550Z AUTO 25008KT 10SM CLR 22/M08 A2993 2300 12 3600 240/08 RMK AO2 $
53144K9L2 9L220160420215514304/20/16 21:55:31  5-MIN K9L2 210555Z AUTO 24010G15KT 10SM CLR 22/M09 A2992 2300 11 3600 230/10G15 RMK AO2 SLP116 T02171094 10306 20194 53006 $
53144K9L2 9L220160420220010804/20/16 22:00:31  5-MIN K9L2 210600Z AUTO 24007G15KT 10SM CLR 22/M09 A2993 2300 12 3600 220/07G15 RMK AO2 $
53144K9L2 9L220160420220511804/20/16 22:05:31  5-MIN K9L2 210605Z AUTO 24007KT 210V270 10SM CLR 21/M09 A2992 2300 12 3600 220/07 200V260 RMK AO2 $
53144K9L2 9L220160420221010204/20/16 22:10:31  5-MIN K9L2 210610Z AUTO 22007KT 10SM CLR 21/M08 A2992 2300 13 3600 200/07 RMK AO2 $
53144K9L2 9L220160420221510204/20/16 22:15:31  5-MIN K9L2 210615Z AUTO 19007KT 10SM CLR 21/M09 A2992 2300 13 3500 180/07 RMK AO2 $
53144K9L2 9L220160420222010204/20/16 22:20:31  5-MIN K9L2 210620Z AUTO 19004KT 10SM CLR 21/M08 A2992 2300 13 3500 170/04 RMK AO2 $
53144K9L2 9L220160420222510204/20/16 22:25:31  5-MIN K9L2 210625Z AUTO 18003KT 10SM CLR 21/M08 A2992 2300 13 3600 160/03 RMK AO2 $
53144K9L2 9L220160420223010204/20/16 22:30:31  5-MIN K9L2 210630Z AUTO 13005KT 10SM CLR 21/M08 A2992 2300 13 3600 120/05 RMK AO2 $
53144K9L2 9L220160420223510204/20/16 22:35:31  5-MIN K9L2 210635Z AUTO 00000KT 10SM CLR 21/M08 A2992 2300 14 3500 000/00 RMK AO2 $
53144K9L2 9L220160420224010204/20/16 22:40:31  5-MIN K9L2 210640Z AUTO VRB04KT 10SM CLR 21/M07 A2992 2300 14 3500 VRB/04 RMK AO2 $
53144K9L2 9L220160420224510204/20/16 22:45:31  5-MIN K9L2 210645Z AUTO VRB05KT 10SM CLR 21/M08 A2993 2290 13 3600 VRB/05 RMK AO2 $
53144K9L2 9L220160420225010204/20/16 22:50:31  5-MIN K9L2 210650Z AUTO 17009KT 10SM CLR 19/M08 A2993 2300 14 3400 160/09 RMK AO2 $
53144K9L2 9L220160420225511904/20/16 22:55:31  5-MIN K9L2 210655Z AUTO 16010KT 10SM CLR 18/M08 A2993 2300 16 3200 150/10 RMK AO2 SLP118 T01781083 $
53144K9L2 9L220160420230010204/20/16 23:00:31  5-MIN K9L2 210700Z AUTO 16010KT 10SM CLR 17/M08 A2993 2300 16 3100 150/10 RMK AO2 $
53144K9L2 9L220160420230510204/20/16 23:05:31  5-MIN K9L2 210705Z AUTO 17011KT 10SM CLR 17/M08 A2993 2300 16 3100 160/11 RMK AO2 $
53144K9L2 9L220160420231010204/20/16 23:10:31  5-MIN K9L2 210710Z AUTO 17013KT 10SM CLR 17/M08 A2993 2300 16 3100 160/13 RMK AO2 $
53144K9L2 9L220160420231510204/20/16 23:15:31  5-MIN K9L2 210715Z AUTO 17012KT 10SM CLR 17/M08 A2993 2300 16 3100 160/12 RMK AO2 $
53144K9L2 9L220160420232010204/20/16 23:20:31  5-MIN K9L2 210720Z AUTO 17012KT 10SM CLR 17/M08 A2993 2290 18 3100 160/12 RMK AO2 $
53144K9L2 9L220160420232510204/20/16 23:25:31  5-MIN K9L2 210725Z AUTO 17011KT 10SM CLR 16/M08 A2993 2290 18 3000 160/11 RMK AO2 $
53144K9L2 9L220160422182013504/22/16 18:20:31  5-MIN K9L2 230220Z AUTO 28026G32KT 10SM FEW032 BKN043 16/07 A2991 2310 53 3000 270/26G32 RMK AO2 PK WND 28034/0206 $
53144K9L2 9L220160422182513504/22/16 18:25:31  5-MIN K9L2 230225Z AUTO 28028G37KT 10SM FEW032 BKN043 16/07 A2991 2310 55 3000 260/28G37 RMK AO2 PK WND 29037/0221 $
53144K9L2 9L220160422183013504/22/16 18:30:31  5-MIN K9L2 230230Z AUTO 28028G37KT 10SM FEW034 BKN043 16/07 A2992 2310 55 2900 270/28G37 RMK AO2 PK WND 29037/0221 $
53144K9L2 9L220160422183513504/22/16 18:35:31  5-MIN K9L2 230235Z AUTO 28023G33KT 10SM FEW034 SCT045 16/07 A2992 2300 55 2900 260/23G33 RMK AO2 PK WND 29037/0221 $
53144K9L2 9L220160422184012804/22/16 18:40:31  5-MIN K9L2 230240Z AUTO 28024G31KT 10SM FEW034 16/07 A2992 2300 55 2900 270/24G31 RMK AO2 PK WND 29037/0221 $
53144K9L2 9L220160422184512804/22/16 18:45:31  5-MIN K9L2 230245Z AUTO 28023G32KT 10SM FEW034 16/07 A2992 2300 55 2900 260/23G32 RMK AO2 PK WND 29037/0221 $
53144K9L2 9L220160422185012804/22/16 18:50:31  5-MIN K9L2 230250Z AUTO 27021G32KT 10SM FEW034 15/07 A2992 2300 57 2900 260/21G32 RMK AO2 PK WND 29037/0221 $
53144K9L2 9L220160422185514804/22/16 18:55:31  5-MIN K9L2 230255Z AUTO 28023G29KT 10SM CLR 15/06 A2993 2300 55 2900 260/23G29 RMK AO2 PK WND 29037/0221 SLP127 T01500061 56011 $
53144K9L2 9L220160422190012504/22/16 19:00:31  5-MIN K9L2 230300Z AUTO 27019G29KT 10SM CLR 15/06 A2993 2290 55 2900 260/19G29 RMK AO2 PK WND 27026/0300 $
53144K9L2 9L220160422190512504/22/16 19:05:31  5-MIN K9L2 230305Z AUTO 28022G30KT 10SM CLR 15/06 A2994 2290 53 2900 270/22G30 RMK AO2 PK WND 29030/0303 $
53144K9L2 9L220160422191012504/22/16 19:10:31  5-MIN K9L2 230310Z AUTO 28025G32KT 10SM CLR 15/06 A2994 2290 53 2900 260/25G32 RMK AO2 PK WND 28032/0309 $
53144K9L2 9L220160422191512504/22/16 19:15:31  5-MIN K9L2 230315Z AUTO 28024G32KT 10SM CLR 15/06 A2993 2290 53 2900 260/24G32 RMK AO2 PK WND 28032/0309 $
53144K9L2 9L220160422192012504/22/16 19:20:31  5-MIN K9L2 230320Z AUTO 28021G33KT 10SM CLR 15/06 A2993 2290 53 2900 260/21G33 RMK AO2 PK WND 27033/0316 $
53144K9L2 9L220160422192512504/22/16 19:25:31  5-MIN K9L2 230325Z AUTO 27021G33KT 10SM CLR 14/06 A2993 2290 55 2800 260/21G33 RMK AO2 PK WND 27033/0316 $
53144K9L2 9L220160422193012504/22/16 19:30:31  5-MIN K9L2 230330Z AUTO 28024G33KT 10SM CLR 14/05 A2994 2290 53 2800 270/24G33 RMK AO2 PK WND 27033/0328 $
53144K9L2 9L220160422193512504/22/16 19:35:31  5-MIN K9L2 230335Z AUTO 27023G33KT 10SM CLR 14/05 A2994 2290 53 2800 260/23G33 RMK AO2 PK WND 27033/0328 $
53144K9L2 9L220160422194012504/22/16 19:40:31  5-MIN K9L2 230340Z AUTO 27022G29KT 10SM CLR 14/05 A2993 2290 53 2800 260/22G29 RMK AO2 PK WND 27033/0328 $
53144K9L2 9L220160422194512504/22/16 19:45:31  5-MIN K9L2 230345Z AUTO 27021G29KT 10SM CLR 14/04 A2993 2290 51 2800 250/21G29 RMK AO2 PK WND 27033/0328 $
53144K9L2 9L220160422195012504/22/16 19:50:31  5-MIN K9L2 230350Z AUTO 27019G28KT 10SM CLR 14/04 A2994 2290 51 2800 260/19G28 RMK AO2 PK WND 27033/0328 $
53144K9L2 9L220160422195514204/22/16 19:55:31  5-MIN K9L2 230355Z AUTO 28022G27KT 10SM CLR 14/04 A2994 2280 51 2800 260/22G27 RMK AO2 PK WND 27033/0328 SLP131 T01440044 $
53144K9L2 9L220160422200012504/22/16 20:00:31  5-MIN K9L2 230400Z AUTO 27023G29KT 10SM CLR 14/04 A2995 2280 51 2800 260/23G29 RMK AO2 PK WND 28029/0359 $
53144K9L2 9L220160422200512804/22/16 20:05:31  5-MIN K9L2 230405Z AUTO 28020G29KT 10SM FEW028 14/04 A2995 2280 51 2800 260/20G29 RMK AO2 PK WND 28029/0359 $
53144K9L2 9L220160422201012804/22/16 20:10:31  5-MIN K9L2 230410Z AUTO 28022G31KT 10SM FEW028 14/04 A2995 2280 51 2800 260/22G31 RMK AO2 PK WND 27031/0406 $
53144K9L2 9L220160422201512804/22/16 20:15:31  5-MIN K9L2 230415Z AUTO 27023G31KT 10SM FEW028 14/04 A2995 2280 51 2800 260/23G31 RMK AO2 PK WND 27031/0406 $
53144K9L2 9L220160422202012804/22/16 20:20:31  5-MIN K9L2 230420Z AUTO 27023G30KT 10SM FEW028 14/04 A2995 2280 49 2800 260/23G30 RMK AO2 PK WND 27031/0406 $
53144K9L2 9L220160422202512804/22/16 20:25:31  5-MIN K9L2 230425Z AUTO 27021G30KT 10SM FEW028 14/04 A2995 2270 49 2800 260/21G30 RMK AO2 PK WND 27031/0406 $
53144K9L2 9L220160422203012804/22/16 20:30:31  5-MIN K9L2 230430Z AUTO 28024G30KT 10SM FEW028 14/04 A2996 2270 49 2800 260/24G30 RMK AO2 PK WND 27031/0406 $
53144K9L2 9L220160422203512504/22/16 20:35:31  5-MIN K9L2 230435Z AUTO 28021G30KT 10SM CLR 14/04 A2996 2260 49 2800 260/21G30 RMK AO2 PK WND 27031/0406 $
53144K9L2 9L220160422204012504/22/16 20:40:31  5-MIN K9L2 230440Z AUTO 28022G29KT 10SM CLR 14/04 A2997 2260 49 2800 270/22G29 RMK AO2 PK WND 27031/0406 $
53144K9L2 9L220160422204512504/22/16 20:45:31  5-MIN K9L2 230445Z AUTO 28020G29KT 10SM CLR 14/03 A2997 2260 47 2800 270/20G29 RMK AO2 PK WND 27031/0406 $
53144K9L2 9L220160422205012504/22/16 20:50:31  5-MIN K9L2 230450Z AUTO 28018G27KT 10SM CLR 14/03 A2997 2260 47 2800 270/18G27 RMK AO2 PK WND 27031/0406 $
53144K9L2 9L220160422205514204/22/16 20:55:31  5-MIN K9L2 230455Z AUTO 28019G26KT 10SM CLR 14/03 A2997 2250 48 2700 270/19G26 RMK AO2 PK WND 27031/0406 SLP141 T01390033 $
53144K9L2 9L220160422210010704/22/16 21:00:31  5-MIN K9L2 230500Z AUTO 28018G26KT 10SM CLR 14/03 A2997 2250 48 2700 270/18G26 RMK AO2 $
53144K9L2 9L220160422210510704/22/16 21:05:31  5-MIN K9L2 230505Z AUTO 27019G25KT 10SM CLR 14/03 A2997 2250 48 2700 260/19G25 RMK AO2 $
53144K9L2 9L220160422211010704/22/16 21:10:31  5-MIN K9L2 230510Z AUTO 27016G25KT 10SM CLR 14/03 A2997 2250 48 2700 260/16G25 RMK AO2 $
53144K9L2 9L220160422211510104/22/16 21:15:31  5-MIN K9L2 230515Z AUTO 27015KT 10SM CLR 14/03 A2998 2250 47 2700 260/15 RMK AO2 $
53144K9L2 9L220160422212012504/22/16 21:20:31  5-MIN K9L2 230520Z AUTO 27020G27KT 10SM CLR 14/03 A2998 2250 47 2700 260/20G27 RMK AO2 PK WND 27027/0520 $
53144K9L2 9L220160422212512504/22/16 21:25:31  5-MIN K9L2 230525Z AUTO 27020G27KT 10SM CLR 14/03 A2998 2250 47 2700 260/20G27 RMK AO2 PK WND 27027/0520 $
53144K9L2 9L220160422213012504/22/16 21:30:31  5-MIN K9L2 230530Z AUTO 26019G25KT 10SM CLR 14/03 A2998 2250 47 2700 250/19G25 RMK AO2 PK WND 27027/0520 $
53144K9L2 9L220160422213512504/22/16 21:35:31  5-MIN K9L2 230535Z AUTO 27021G25KT 10SM CLR 14/03 A2998 2250 47 2700 260/21G25 RMK AO2 PK WND 27027/0520 $
53144K9L2 9L220160422214012504/22/16 21:40:31  5-MIN K9L2 230540Z AUTO 27020G25KT 10SM CLR 13/03 A2997 2250 50 2600 260/20G25 RMK AO2 PK WND 27027/0520 $
53144K9L2 9L220160422214512504/22/16 21:45:31  5-MIN K9L2 230545Z AUTO 27020G26KT 10SM CLR 13/03 A2997 2250 50 2600 260/20G26 RMK AO2 PK WND 27027/0520 $
53144K9L2 9L220160422215011904/22/16 21:50:31  5-MIN K9L2 230550Z AUTO 27022KT 10SM CLR 13/03 A2997 2250 50 2600 260/22 RMK AO2 PK WND 27027/0520 $
53144K9L2 9L220160422215516004/22/16 21:55:31  5-MIN K9L2 230555Z AUTO 26022G27KT 10SM CLR 13/03 A2997 2260 50 2600 250/22G27 RMK AO2 PK WND 26027/0554 SLP139 T01330033 10233 20133 51027 $
53144K9L2 9L220160422220012504/22/16 22:00:31  5-MIN K9L2 230600Z AUTO 26022G27KT 10SM CLR 13/03 A2996 2260 50 2600 250/22G27 RMK AO2 PK WND 25026/0600 $
53144K9L2 9L220160422220512504/22/16 22:05:31  5-MIN K9L2 230605Z AUTO 26021G26KT 10SM CLR 13/03 A2997 2260 48 2600 250/21G26 RMK AO2 PK WND 26026/0604 $
53144K9L2 9L220160422221012504/22/16 22:10:31  5-MIN K9L2 230610Z AUTO 26018G26KT 10SM CLR 13/03 A2997 2260 48 2600 250/18G26 RMK AO2 PK WND 26026/0604 $
53144K9L2 9L220160422221511904/22/16 22:15:31  5-MIN K9L2 230615Z AUTO 26020KT 10SM CLR 13/03 A2997 2260 50 2600 250/20 RMK AO2 PK WND 26026/0604 $
53144K9L2 9L220160422222011904/22/16 22:20:31  5-MIN K9L2 230620Z AUTO 26018KT 10SM CLR 13/03 A2997 2260 48 2600 250/18 RMK AO2 PK WND 26026/0604 $
53144K9L2 9L220160422222511904/22/16 22:25:31  5-MIN K9L2 230625Z AUTO 26016KT 10SM CLR 13/03 A2997 2260 48 2600 250/16 RMK AO2 PK WND 26026/0604 $
53144K9L2 9L220160422223012504/22/16 22:30:31  5-MIN K9L2 230630Z AUTO 27017G23KT 10SM CLR 13/03 A2996 2260 50 2600 250/17G23 RMK AO2 PK WND 26026/0604 $
53144K9L2 9L220160422223512504/22/16 22:35:31  5-MIN K9L2 230635Z AUTO 27019G24KT 10SM CLR 13/03 A2997 2260 48 2600 260/19G24 RMK AO2 PK WND 26026/0604 $
53144K9L2 9L220160422224012504/22/16 22:40:31  5-MIN K9L2 230640Z AUTO 27019G24KT 10SM CLR 13/03 A2996 2260 50 2600 260/19G24 RMK AO2 PK WND 26026/0604 $
53144K9L2 9L220160422224512504/22/16 22:45:31  5-MIN K9L2 230645Z AUTO 27022G29KT 10SM CLR 13/03 A2997 2260 48 2600 250/22G29 RMK AO2 PK WND 27029/0642 $
53144K9L2 9L220160422225012504/22/16 22:50:31  5-MIN K9L2 230650Z AUTO 26021G29KT 10SM CLR 13/03 A2997 2260 48 2600 240/21G29 RMK AO2 PK WND 27029/0642 $
53144K9L2 9L220160422225514204/22/16 22:55:31  5-MIN K9L2 230655Z AUTO 25019G28KT 10SM CLR 13/03 A2997 2250 50 2600 240/19G28 RMK AO2 PK WND 27029/0642 SLP139 T01280028 $
53144K9L2 9L220160422230010704/22/16 23:00:31  5-MIN K9L2 230700Z AUTO 25015G25KT 10SM CLR 13/02 A2997 2250 48 2600 230/15G25 RMK AO2 $
53144K9L2 9L220160422230510104/22/16 23:05:31  5-MIN K9L2 230705Z AUTO 25014KT 10SM CLR 13/02 A2998 2250 48 2600 230/14 RMK AO2 $
53144K9L2 9L220160422231010104/22/16 23:10:31  5-MIN K9L2 230710Z AUTO 25013KT 10SM CLR 13/02 A2998 2250 48 2600 240/13 RMK AO2 $
53144K9L2 9L220160422231510104/22/16 23:15:31  5-MIN K9L2 230715Z AUTO 27010KT 10SM CLR 12/02 A2998 2250 50 2500 250/10 RMK AO2 $
53144K9L2 9L220160422232010104/22/16 23:20:31  5-MIN K9L2 230720Z AUTO 27012KT 10SM CLR 12/02 A2998 2250 50 2500 250/12 RMK AO2 $
53144K9L2 9L220160422232510104/22/16 23:25:31  5-MIN K9L2 230725Z AUTO 25008KT 10SM CLR 13/02 A2999 2240 48 2500 240/08 RMK AO2 $
53144K9L2 9L220160422233010104/22/16 23:30:31  5-MIN K9L2 230730Z AUTO 27010KT 10SM CLR 12/02 A2999 2240 48 2500 250/10 RMK AO2 $
53144K9L2 9L220160422233510104/22/16 23:35:31  5-MIN K9L2 230735Z AUTO 27016KT 10SM CLR 12/02 A2999 2240 50 2500 250/16 RMK AO2 $
53144K9L2 9L220160422234010104/22/16 23:40:31  5-MIN K9L2 230740Z AUTO 26013KT 10SM CLR 12/02 A2999 2240 50 2500 250/13 RMK AO2 $
53144K9L2 9L220160422234510104/22/16 23:45:31  5-MIN K9L2 230745Z AUTO 26016KT 10SM CLR 12/02 A2999 2240 50 2500 250/16 RMK AO2 $
53144K9L2 9L220160422235010104/22/16 23:50:31  5-MIN K9L2 230750Z AUTO 25015KT 10SM CLR 12/02 A2999 2240 50 2500 240/15 RMK AO2 $
53144K9L2 9L220160422235512804/22/16 23:55:31  5-MIN K9L2 230755Z AUTO 25012KT 10SM CLR 12/02 A3000 2230 50 2500 240/12 RMK AO2 SLP147 T01220022 402720122 $
53144K9L2 9L220160423000010704/23/16 00:00:31  5-MIN K9L2 230800Z AUTO 28016G22KT 10SM CLR 12/02 A3000 2230 48 2500 270/16G22 RMK AO2 $
53144K9L2 9L220160423000510704/23/16 00:05:31  5-MIN K9L2 230805Z AUTO 25011G22KT 10SM CLR 12/01 A3000 2230 46 2500 240/11G22 RMK AO2 $
53144K9L2 9L220160423001010704/23/16 00:10:31  5-MIN K9L2 230810Z AUTO 25015G21KT 10SM CLR 12/01 A3000 2230 46 2500 240/15G21 RMK AO2 $
53144K9L2 9L220160423001510704/23/16 00:15:31  5-MIN K9L2 230815Z AUTO 26008G20KT 10SM CLR 12/01 A3000 2230 46 2500 240/08G20 RMK AO2 $
53144K9L2 9L220160423002010704/23/16 00:20:31  5-MIN K9L2 230820Z AUTO 25011G19KT 10SM CLR 12/01 A3000 2230 46 2500 240/11G19 RMK AO2 $
53144K9L2 9L220160423002510704/23/16 00:25:31  5-MIN K9L2 230825Z AUTO 26012G20KT 10SM CLR 12/01 A3000 2230 46 2500 250/12G20 RMK AO2 $
53144K9L2 9L220160423003010704/23/16 00:30:31  5-MIN K9L2 230830Z AUTO 27014G22KT 10SM CLR 12/01 A2999 2230 48 2400 250/14G22 RMK AO2 $
53144K9L2 9L220160423003510704/23/16 00:35:31  5-MIN K9L2 230835Z AUTO 27016G24KT 10SM CLR 12/02 A2999 2240 50 2400 260/16G24 RMK AO2 $
53144K9L2 9L220160423004010704/23/16 00:40:31  5-MIN K9L2 230840Z AUTO 27016G24KT 10SM CLR 12/01 A2999 2240 48 2400 260/16G24 RMK AO2 $
53144K9L2 9L220160423004510704/23/16 00:45:31  5-MIN K9L2 230845Z AUTO 26019G23KT 10SM CLR 12/01 A2998 2240 48 2400 250/19G23 RMK AO2 $
53144K9L2 9L220160423005012504/23/16 00:50:31  5-MIN K9L2 230850Z AUTO 27021G28KT 10SM CLR 12/01 A2998 2250 48 2400 250/21G28 RMK AO2 PK WND 26028/0850 $
53144K9L2 9L220160423005514804/23/16 00:55:31  5-MIN K9L2 230855Z AUTO 27022G28KT 10SM CLR 12/01 A2997 2260 46 2400 260/22G28 RMK AO2 PK WND 27028/0853 SLP139 T01170006 50014 $
53144K9L2 9L220160423010012504/23/16 01:00:31  5-MIN K9L2 230900Z AUTO 28024G29KT 10SM CLR 12/01 A2997 2260 46 2400 260/24G29 RMK AO2 PK WND 28029/0859 $
53144K9L2 9L220160423010512504/23/16 01:05:31  5-MIN K9L2 230905Z AUTO 28025G32KT 10SM CLR 12/01 A2997 2260 44 2500 270/25G32 RMK AO2 PK WND 28032/0903 $
53144K9L2 9L220160423011012504/23/16 01:10:31  5-MIN K9L2 230910Z AUTO 27023G32KT 10SM CLR 12/01 A2996 2260 46 2400 260/23G32 RMK AO2 PK WND 28032/0903 $
53144K9L2 9L220160423011512504/23/16 01:15:31  5-MIN K9L2 230915Z AUTO 27025G30KT 10SM CLR 12/00 A2996 2260 44 2400 250/25G30 RMK AO2 PK WND 28032/0903 $
53144K9L2 9L220160423012012504/23/16 01:20:31  5-MIN K9L2 230920Z AUTO 26023G31KT 10SM CLR 12/00 A2996 2260 44 2400 250/23G31 RMK AO2 PK WND 28032/0903 $
53144K9L2 9L220160423012512504/23/16 01:25:31  5-MIN K9L2 230925Z AUTO 26021G31KT 10SM CLR 12/00 A2997 2260 44 2400 250/21G31 RMK AO2 PK WND 28032/0903 $
53144K9L2 9L220160423013012504/23/16 01:30:31  5-MIN K9L2 230930Z AUTO 26023G30KT 10SM CLR 12/00 A2997 2260 44 2400 250/23G30 RMK AO2 PK WND 28032/0903 $
53144K9L2 9L220160423013512504/23/16 01:35:31  5-MIN K9L2 230935Z AUTO 27020G33KT 10SM CLR 12/00 A2998 2250 44 2400 260/20G33 RMK AO2 PK WND 27033/0932 $
53144K9L2 9L220160423014012504/23/16 01:40:31  5-MIN K9L2 230940Z AUTO 26020G33KT 10SM CLR 12/00 A2997 2250 44 2400 250/20G33 RMK AO2 PK WND 27033/0932 $
53144K9L2 9L220160423014512504/23/16 01:45:31  5-MIN K9L2 230945Z AUTO 26021G30KT 10SM CLR 12/00 A2998 2250 44 2400 250/21G30 RMK AO2 PK WND 27033/0932 $
53144K9L2 9L220160423015012504/23/16 01:50:31  5-MIN K9L2 230950Z AUTO 26017G30KT 10SM CLR 12/00 A2998 2250 44 2400 250/17G30 RMK AO2 PK WND 27033/0932 $
53144K9L2 9L220160423015514204/23/16 01:55:31  5-MIN K9L2 230955Z AUTO 27020G24KT 10SM CLR 12/00 A2998 2250 44 2400 260/20G24 RMK AO2 PK WND 27033/0932 SLP141 T01170000 $
53144K9L2 9L220160423020010104/23/16 02:00:31  5-MIN K9L2 231000Z AUTO 26020KT 10SM CLR 12/00 A2998 2250 44 2400 250/20 RMK AO2 $
53144K9L2 9L220160423020510104/23/16 02:05:31  5-MIN K9L2 231005Z AUTO 27016KT 10SM CLR 12/00 A2998 2240 44 2400 260/16 RMK AO2 $
53144K9L2 9L220160423021010104/23/16 02:10:31  5-MIN K9L2 231010Z AUTO 27018KT 10SM CLR 11/01 A2999 2240 48 2300 250/18 RMK AO2 $
53144K9L2 9L220160423021510704/23/16 02:15:31  5-MIN K9L2 231015Z AUTO 27019G23KT 10SM CLR 11/01 A2999 2240 48 2300 250/19G23 RMK AO2 $
53144K9L2 9L220160423022010104/23/16 02:20:31  5-MIN K9L2 231020Z AUTO 26017KT 10SM CLR 11/01 A2999 2240 48 2300 250/17 RMK AO2 $
53144K9L2 9L220160423022510104/23/16 02:25:31  5-MIN K9L2 231025Z AUTO 26016KT 10SM CLR 11/01 A2999 2240 48 2300 250/16 RMK AO2 $
53144K9L2 9L220160423023010704/23/16 02:30:31  5-MIN K9L2 231030Z AUTO 27017G22KT 10SM CLR 11/01 A2999 2240 48 2300 250/17G22 RMK AO2 $
53144K9L2 9L220160423023510704/23/16 02:35:31  5-MIN K9L2 231035Z AUTO 27016G22KT 10SM CLR 11/01 A2999 2240 48 2300 250/16G22 RMK AO2 $
53144K9L2 9L220160423024010104/23/16 02:40:31  5-MIN K9L2 231040Z AUTO 27019KT 10SM CLR 11/01 A2998 2250 48 2400 260/19 RMK AO2 $
53144K9L2 9L220160423024512504/23/16 02:45:31  5-MIN K9L2 231045Z AUTO 27022G29KT 10SM CLR 11/00 A2998 2250 46 2400 260/22G29 RMK AO2 PK WND 27029/1043 $
53144K9L2 9L220160423025013204/23/16 02:50:31  5-MIN K9L2 231050Z AUTO 27030G36KT 10SM CLR 12/00 A2996 2260 44 2400 260/30G36 RMK AO2 PK WND 27036/1049 PRESFR $
53144K9L2 9L220160423025514204/23/16 02:55:31  5-MIN K9L2 231055Z AUTO 28026G40KT 10SM CLR 12/00 A2997 2250 44 2400 260/26G40 RMK AO2 PK WND 28040/1052 SLP140 T01170000 $
53144K9L2 9L220160423030012504/23/16 03:00:31  5-MIN K9L2 231100Z AUTO 27027G40KT 10SM CLR 12/00 A2998 2250 44 2400 260/27G40 RMK AO2 PK WND 27036/1100 $
53144K9L2 9L220160423030512504/23/16 03:05:31  5-MIN K9L2 231105Z AUTO 27023G38KT 10SM CLR 12/01 A2999 2240 46 2400 250/23G38 RMK AO2 PK WND 27038/1102 $
53144K9L2 9L220160423031012504/23/16 03:10:31  5-MIN K9L2 231110Z AUTO 26020G38KT 10SM CLR 11/01 A2999 2240 48 2300 250/20G38 RMK AO2 PK WND 27038/1102 $
53144K9L2 9L220160423031512504/23/16 03:15:31  5-MIN K9L2 231115Z AUTO 26022G29KT 10SM CLR 11/01 A2999 2240 52 2300 250/22G29 RMK AO2 PK WND 27038/1102 $
53144K9L2 9L220160423032012504/23/16 03:20:31  5-MIN K9L2 231120Z AUTO 27022G29KT 10SM CLR 11/01 A2999 2240 52 2300 250/22G29 RMK AO2 PK WND 27038/1102 $
53144K9L2 9L220160423032512504/23/16 03:25:31  5-MIN K9L2 231125Z AUTO 26023G33KT 10SM CLR 11/01 A2999 2240 52 2300 250/23G33 RMK AO2 PK WND 27038/1102 $
53144K9L2 9L220160423033012504/23/16 03:30:31  5-MIN K9L2 231130Z AUTO 26025G33KT 10SM CLR 11/01 A2999 2240 52 2300 250/25G33 RMK AO2 PK WND 27038/1102 $
53144K9L2 9L220160423033512504/23/16 03:35:31  5-MIN K9L2 231135Z AUTO 27020G30KT 10SM CLR 11/01 A3000 2230 52 2300 260/20G30 RMK AO2 PK WND 27038/1102 $
53144K9L2 9L220160423034012504/23/16 03:40:31  5-MIN K9L2 231140Z AUTO 28021G27KT 10SM CLR 11/01 A3000 2230 52 2300 260/21G27 RMK AO2 PK WND 27038/1102 $
53144K9L2 9L220160423034512504/23/16 03:45:31  5-MIN K9L2 231145Z AUTO 27023G29KT 10SM CLR 11/01 A3001 2220 50 2300 260/23G29 RMK AO2 PK WND 27038/1102 $
53144K9L2 9L220160423035012504/23/16 03:50:31  5-MIN K9L2 231150Z AUTO 26019G29KT 10SM CLR 11/01 A3001 2220 50 2300 250/19G29 RMK AO2 PK WND 27038/1102 $
53144K9L2 9L220160423035516004/23/16 03:55:31  5-MIN K9L2 231155Z AUTO 26015G26KT 10SM CLR 11/01 A3001 2220 50 2300 240/15G26 RMK AO2 PK WND 27038/1102 SLP153 T01060006 10133 20106 50001 $
53144K9L2 9L220160423040010704/23/16 04:00:31  5-MIN K9L2 231200Z AUTO 26013G22KT 10SM CLR 11/01 A3001 2220 50 2300 240/13G22 RMK AO2 $
53144K9L2 9L220160423040510704/23/16 04:05:31  5-MIN K9L2 231205Z AUTO 26017G22KT 10SM CLR 11/01 A3001 2220 50 2300 250/17G22 RMK AO2 $
53144K9L2 9L220160423041010704/23/16 04:10:31  5-MIN K9L2 231210Z AUTO 27017G25KT 10SM CLR 11/01 A3001 2220 50 2200 250/17G25 RMK AO2 $
53144K9L2 9L220160423041510704/23/16 04:15:31  5-MIN K9L2 231215Z AUTO 28017G25KT 10SM CLR 11/01 A3002 2210 52 2200 270/17G25 RMK AO2 $
53144K9L2 9L220160423042010704/23/16 04:20:31  5-MIN K9L2 231220Z AUTO 28015G24KT 10SM CLR 11/01 A3002 2210 50 2200 270/15G24 RMK AO2 $
53144K9L2 9L220160423042510704/23/16 04:25:31  5-MIN K9L2 231225Z AUTO 28018G24KT 10SM CLR 10/01 A3002 2210 52 2200 260/18G24 RMK AO2 $
53144K9L2 9L220160423043010704/23/16 04:30:31  5-MIN K9L2 231230Z AUTO 27016G24KT 10SM CLR 10/01 A3003 2200 52 2200 260/16G24 RMK AO2 $
53144K9L2 9L220160423043510704/23/16 04:35:31  5-MIN K9L2 231235Z AUTO 26016G23KT 10SM CLR 10/01 A3003 2200 52 2200 250/16G23 RMK AO2 $
53144K9L2 9L220160423044010704/23/16 04:40:31  5-MIN K9L2 231240Z AUTO 25015G23KT 10SM CLR 10/01 A3003 2200 52 2200 240/15G23 RMK AO2 $
53144K9L2 9L220160423044510704/23/16 04:45:31  5-MIN K9L2 231245Z AUTO 25015G21KT 10SM CLR 10/01 A3003 2200 52 2200 240/15G21 RMK AO2 $
53144K9L2 9L220160423045010704/23/16 04:50:31  5-MIN K9L2 231250Z AUTO 24014G20KT 10SM CLR 10/01 A3003 2200 52 2200 230/14G20 RMK AO2 $
53144K9L2 9L220160423045511804/23/16 04:55:31  5-MIN K9L2 231255Z AUTO 23011KT 10SM CLR 10/01 A3003 2200 52 2200 210/11 RMK AO2 SLP165 T01000006 $
53144K9L2 9L220160423050010104/23/16 05:00:31  5-MIN K9L2 231300Z AUTO 24012KT 10SM CLR 10/01 A3004 2190 52 2200 230/12 RMK AO2 $
53144K9L2 9L220160423050510104/23/16 05:05:31  5-MIN K9L2 231305Z AUTO 23012KT 10SM CLR 10/01 A3004 2190 52 2200 220/12 RMK AO2 $
53144K9L2 9L220160423051010104/23/16 05:10:31  5-MIN K9L2 231310Z AUTO 23013KT 10SM CLR 10/01 A3004 2190 52 2200 220/13 RMK AO2 $
53144K9L2 9L220160423051510104/23/16 05:15:31  5-MIN K9L2 231315Z AUTO 24012KT 10SM CLR 09/01 A3004 2200 53 2100 230/12 RMK AO2 $
53144K9L2 9L220160423052010104/23/16 05:20:31  5-MIN K9L2 231320Z AUTO 24015KT 10SM CLR 10/01 A3003 2200 52 2200 230/15 RMK AO2 $
53144K9L2 9L220160423052510704/23/16 05:25:31  5-MIN K9L2 231325Z AUTO 24016G22KT 10SM CLR 10/01 A3003 2200 52 2200 220/16G22 RMK AO2 $
53144K9L2 9L220160423053010704/23/16 05:30:31  5-MIN K9L2 231330Z AUTO 24017G23KT 10SM CLR 10/01 A3003 2200 52 2200 230/17G23 RMK AO2 $
53144K9L2 9L220160423053510704/23/16 05:35:31  5-MIN K9L2 231335Z AUTO 23019G25KT 10SM CLR 10/01 A3002 2210 52 2200 220/19G25 RMK AO2 $
53144K9L2 9L220160423054010704/23/16 05:40:31  5-MIN K9L2 231340Z AUTO 24018G25KT 10SM CLR 11/01 A3003 2210 50 2200 220/18G25 RMK AO2 $
53144K9L2 9L220160423054510704/23/16 05:45:31  5-MIN K9L2 231345Z AUTO 23016G24KT 10SM CLR 11/01 A3003 2200 50 2200 220/16G24 RMK AO2 $
53144K9L2 9L220160423055010704/23/16 05:50:31  5-MIN K9L2 231350Z AUTO 24015G24KT 10SM CLR 11/00 A3004 2200 48 2200 230/15G24 RMK AO2 $
53144K9L2 9L220160423055512404/23/16 05:55:31  5-MIN K9L2 231355Z AUTO 24016G23KT 10SM CLR 11/00 A3004 2200 48 2200 230/16G23 RMK AO2 SLP167 T01060000 $
53144K9L2 9L220160423060010704/23/16 06:00:31  5-MIN K9L2 231400Z AUTO 25018G24KT 10SM CLR 11/01 A3003 2200 50 2200 240/18G24 RMK AO2 $
53144K9L2 9L220160423060510704/23/16 06:05:31  5-MIN K9L2 231405Z AUTO 25020G24KT 10SM CLR 11/01 A3003 2200 48 2300 230/20G24 RMK AO2 $
53144K9L2 9L220160423061012504/23/16 06:10:31  5-MIN K9L2 231410Z AUTO 25022G26KT 10SM CLR 11/01 A3002 2210 48 2300 230/22G26 RMK AO2 PK WND 24026/1409 $
53144K9L2 9L220160423061512504/23/16 06:15:31  5-MIN K9L2 231415Z AUTO 25021G28KT 10SM CLR 11/01 A3002 2210 48 2300 230/21G28 RMK AO2 PK WND 25028/1411 $
53144K9L2 9L220160423062012504/23/16 06:20:31  5-MIN K9L2 231420Z AUTO 26017G28KT 10SM CLR 11/01 A3003 2200 50 2300 240/17G28 RMK AO2 PK WND 25028/1411 $
53144K9L2 9L220160423062512504/23/16 06:25:31  5-MIN K9L2 231425Z AUTO 26017G25KT 10SM CLR 12/01 A3003 2200 46 2400 240/17G25 RMK AO2 PK WND 25028/1411 $
53144K9L2 9L220160423063012504/23/16 06:30:31  5-MIN K9L2 231430Z AUTO 26019G24KT 10SM CLR 12/01 A3002 2210 46 2400 250/19G24 RMK AO2 PK WND 25028/1411 $
53144K9L2 9L220160423063512504/23/16 06:35:31  5-MIN K9L2 231435Z AUTO 27022G28KT 10SM CLR 12/01 A3002 2210 44 2400 250/22G28 RMK AO2 PK WND 27028/1435 $
53144K9L2 9L220160423064012504/23/16 06:40:31  5-MIN K9L2 231440Z AUTO 26019G28KT 10SM CLR 12/00 A3003 2200 43 2400 250/19G28 RMK AO2 PK WND 27028/1435 $
53144K9L2 9L220160423064512504/23/16 06:45:31  5-MIN K9L2 231445Z AUTO 25017G26KT 10SM CLR 12/01 A3004 2190 44 2400 240/17G26 RMK AO2 PK WND 27028/1435 $
53144K9L2 9L220160423065012504/23/16 06:50:31  5-MIN K9L2 231450Z AUTO 25016G25KT 10SM CLR 12/01 A3004 2190 44 2400 230/16G25 RMK AO2 PK WND 27028/1435 $
53144K9L2 9L220160423065514804/23/16 06:55:31  5-MIN K9L2 231455Z AUTO 25012G24KT 10SM CLR 13/01 A3004 2190 43 2500 240/12G24 RMK AO2 PK WND 27028/1435 SLP171 T01280006 53011 $
53144K9L2 9L220160423070010704/23/16 07:00:31  5-MIN K9L2 231500Z AUTO 24016G20KT 10SM CLR 13/01 A3004 2190 43 2500 220/16G20 RMK AO2 $
53144K9L2 9L220160423070510704/23/16 07:05:31  5-MIN K9L2 231505Z AUTO 25016G22KT 10SM CLR 13/01 A3003 2200 41 2600 230/16G22 RMK AO2 $
53144K9L2 9L220160423071010704/23/16 07:10:31  5-MIN K9L2 231510Z AUTO 26015G22KT 10SM CLR 13/00 A3003 2200 40 2600 240/15G22 RMK AO2 $
53144K9L2 9L220160423071510804/23/16 07:15:31  5-MIN K9L2 231515Z AUTO 26015G20KT 10SM CLR 13/M01 A3003 2200 38 2600 250/15G20 RMK AO2 $
53144K9L2 9L220160423072010804/23/16 07:20:31  5-MIN K9L2 231520Z AUTO 26015G20KT 10SM CLR 14/M01 A3003 2200 37 2600 250/15G20 RMK AO2 $
53144K9L2 9L220160423072510804/23/16 07:25:31  5-MIN K9L2 231525Z AUTO 25013G20KT 10SM CLR 14/M01 A3003 2200 37 2600 240/13G20 RMK AO2 $
53144K9L2 9L220160423073010804/23/16 07:30:31  5-MIN K9L2 231530Z AUTO 27013G18KT 10SM CLR 14/M01 A3003 2200 34 2700 260/13G18 RMK AO2 $
53144K9L2 9L220160423073510204/23/16 07:35:31  5-MIN K9L2 231535Z AUTO 26013KT 10SM CLR 14/M02 A3003 2200 33 2700 250/13 RMK AO2 $
53144K9L2 9L220160423074010804/23/16 07:40:31  5-MIN K9L2 231540Z AUTO 26010G17KT 10SM CLR 15/M02 A3003 2200 31 2800 250/10G17 RMK AO2 $
53144K9L2 9L220160423074510204/23/16 07:45:31  5-MIN K9L2 231545Z AUTO 28009KT 10SM CLR 15/M02 A3003 2200 30 2700 260/09 RMK AO2 $
53144K9L2 9L220160423075010204/23/16 07:50:31  5-MIN K9L2 231550Z AUTO 27008KT 10SM CLR 15/M02 A3003 2200 30 2800 260/08 RMK AO2 $
53144K9L2 9L220160423075511904/23/16 07:55:31  5-MIN K9L2 231555Z AUTO 29010KT 10SM CLR 16/M02 A3003 2200 29 2800 280/10 RMK AO2 SLP165 T01561022 $
53144K9L2 9L220160423080010804/23/16 08:00:31  5-MIN K9L2 231600Z AUTO 30010G16KT 10SM CLR 16/M03 A3003 2200 28 2800 290/10G16 RMK AO2 $
53144K9L2 9L220160423080510804/23/16 08:05:31  5-MIN K9L2 231605Z AUTO 30006G16KT 10SM CLR 16/M03 A3003 2200 27 2900 290/06G16 RMK AO2 $
53144K9L2 9L220160423081010204/23/16 08:10:31  5-MIN K9L2 231610Z AUTO VRB03KT 10SM CLR 16/M03 A3004 2200 27 2900 VRB/03 RMK AO2 $
53144K9L2 9L220160423081510204/23/16 08:15:31  5-MIN K9L2 231615Z AUTO 34007KT 10SM CLR 16/M03 A3003 2200 26 2900 330/07 RMK AO2 $
53144K9L2 9L220160423082010204/23/16 08:20:31  5-MIN K9L2 231620Z AUTO VRB03KT 10SM CLR 17/M04 A3003 2200 23 2900 VRB/03 RMK AO2 $
53144K9L2 9L220160423082510204/23/16 08:25:31  5-MIN K9L2 231625Z AUTO 33005KT 10SM CLR 17/M05 A3003 2200 21 3000 310/05 RMK AO2 $
53144K9L2 9L220160423083010204/23/16 08:30:31  5-MIN K9L2 231630Z AUTO 02003KT 10SM CLR 17/M05 A3004 2200 21 3000 010/03 RMK AO2 $
53144K9L2 9L220160423083510204/23/16 08:35:31  5-MIN K9L2 231635Z AUTO 30005KT 10SM CLR 17/M05 A3004 2200 21 3000 290/05 RMK AO2 $
53144K9L2 9L220160423084010204/23/16 08:40:31  5-MIN K9L2 231640Z AUTO VRB05KT 10SM CLR 17/M05 A3004 2190 21 3000 VRB/05 RMK AO2 $
53144K9L2 9L220160423084510204/23/16 08:45:31  5-MIN K9L2 231645Z AUTO 33006KT 10SM CLR 17/M05 A3004 2190 21 3000 320/06 RMK AO2 $
53144K9L2 9L220160423085010204/23/16 08:50:31  5-MIN K9L2 231650Z AUTO VRB05KT 10SM CLR 17/M06 A3004 2190 20 3000 VRB/05 RMK AO2 $
53144K9L2 9L220160423085511904/23/16 08:55:31  5-MIN K9L2 231655Z AUTO VRB03KT 10SM CLR 18/M06 A3005 2190 19 3100 VRB/03 RMK AO2 SLP169 T01831056 $
53144K9L2 9L220160423090010204/23/16 09:00:31  5-MIN K9L2 231700Z AUTO 00000KT 10SM CLR 18/M06 A3005 2180 20 3000 000/00 RMK AO2 $
53144K9L2 9L220160423090510204/23/16 09:05:31  5-MIN K9L2 231705Z AUTO 00000KT 10SM CLR 17/M06 A3005 2180 20 3000 000/00 RMK AO2 $
53144K9L2 9L220160423091010204/23/16 09:10:31  5-MIN K9L2 231710Z AUTO VRB03KT 10SM CLR 18/M06 A3006 2180 20 3000 VRB/03 RMK AO2 $
53144K9L2 9L220160423091510204/23/16 09:15:31  5-MIN K9L2 231715Z AUTO 00000KT 10SM CLR 17/M06 A3006 2170 20 3000 000/00 RMK AO2 $
53144K9L2 9L220160423092010204/23/16 09:20:31  5-MIN K9L2 231720Z AUTO VRB04KT 10SM CLR 17/M06 A3006 2170 20 3000 VRB/04 RMK AO2 $
53144K9L2 9L220160423092510204/23/16 09:25:31  5-MIN K9L2 231725Z AUTO 00000KT 10SM CLR 18/M06 A3006 2170 20 3000 000/00 RMK AO2 $
53144K9L2 9L220160423093010204/23/16 09:30:31  5-MIN K9L2 231730Z AUTO 23005KT 10SM CLR 18/M06 A3006 2180 19 3100 220/05 RMK AO2 $
53144K9L2 9L220160423093510204/23/16 09:35:31  5-MIN K9L2 231735Z AUTO VRB05KT 10SM CLR 18/M06 A3006 2180 19 3000 VRB/05 RMK AO2 $
53144K9L2 9L220160423094010204/23/16 09:40:31  5-MIN K9L2 231740Z AUTO 15004KT 10SM CLR 18/M06 A3006 2170 18 3100 130/04 RMK AO2 $
53144K9L2 9L220160423094510204/23/16 09:45:31  5-MIN K9L2 231745Z AUTO 00000KT 10SM CLR 18/M06 A3006 2170 18 3100 000/00 RMK AO2 $
53144K9L2 9L220160423095010204/23/16 09:50:31  5-MIN K9L2 231750Z AUTO 00000KT 10SM CLR 19/M06 A3006 2170 17 3200 000/00 RMK AO2 $
53144K9L2 9L220160423095513704/23/16 09:55:31  5-MIN K9L2 231755Z AUTO 00000KT 10SM CLR 19/M06 A3006 2170 17 3200 000/00 RMK AO2 SLP173 T01891061 10194 20094 51012 $
53144K9L2 9L220160423100010204/23/16 10:00:31  5-MIN K9L2 231800Z AUTO 10006KT 10SM CLR 19/M06 A3006 2170 18 3200 090/06 RMK AO2 $
53144K9L2 9L220160423100510204/23/16 10:05:31  5-MIN K9L2 231805Z AUTO 11007KT 10SM CLR 19/M06 A3006 2170 17 3200 100/07 RMK AO2 $
53144K9L2 9L220160423101010204/23/16 10:10:31  5-MIN K9L2 231810Z AUTO 18004KT 10SM CLR 19/M06 A3006 2170 17 3200 170/04 RMK AO2 $
53144K9L2 9L220160423101510204/23/16 10:15:31  5-MIN K9L2 231815Z AUTO 10004KT 10SM CLR 19/M06 A3007 2170 17 3200 080/04 RMK AO2 $
53144K9L2 9L220160423102010204/23/16 10:20:31  5-MIN K9L2 231820Z AUTO 16004KT 10SM CLR 19/M06 A3007 2170 17 3200 140/04 RMK AO2 $
53144K9L2 9L220160423102510204/23/16 10:25:31  5-MIN K9L2 231825Z AUTO 09004KT 10SM CLR 19/M07 A3006 2170 16 3200 080/04 RMK AO2 $
53144K9L2 9L220160423103010204/23/16 10:30:31  5-MIN K9L2 231830Z AUTO 15004KT 10SM CLR 19/M07 A3006 2170 17 3200 140/04 RMK AO2 $
53144K9L2 9L220160423103510204/23/16 10:35:31  5-MIN K9L2 231835Z AUTO 34005KT 10SM CLR 19/M07 A3006 2180 15 3200 330/05 RMK AO2 $
53144K9L2 9L220160423104010204/23/16 10:40:31  5-MIN K9L2 231840Z AUTO 00000KT 10SM CLR 21/M08 A3005 2180 13 3400 000/00 RMK AO2 $
53144K9L2 9L220160423104510204/23/16 10:45:31  5-MIN K9L2 231845Z AUTO 32003KT 10SM CLR 21/M08 A3005 2180 13 3400 310/03 RMK AO2 $
53144K9L2 9L220160423105010204/23/16 10:50:31  5-MIN K9L2 231850Z AUTO 19004KT 10SM CLR 19/M08 A3005 2180 14 3200 170/04 RMK AO2 $
53144K9L2 9L220160423105511904/23/16 10:55:31  5-MIN K9L2 231855Z AUTO 17003KT 10SM CLR 20/M08 A3005 2190 14 3300 160/03 RMK AO2 SLP167 T02001083 $
53144K9L2 9L220160423110010204/23/16 11:00:31  5-MIN K9L2 231900Z AUTO VRB03KT 10SM CLR 20/M08 A3005 2190 14 3300 VRB/03 RMK AO2 $
53144K9L2 9L220160423110510204/23/16 11:05:31  5-MIN K9L2 231905Z AUTO 09006KT 10SM CLR 21/M07 A3004 2190 15 3400 080/06 RMK AO2 $
53144K9L2 9L220160423111010204/23/16 11:10:31  5-MIN K9L2 231910Z AUTO 12008KT 10SM CLR 21/M06 A3004 2190 16 3400 100/08 RMK AO2 $
53144K9L2 9L220160423111510204/23/16 11:15:31  5-MIN K9L2 231915Z AUTO 15009KT 10SM CLR 22/M06 A3004 2190 15 3500 140/09 RMK AO2 $
53144K9L2 9L220160423112010804/23/16 11:20:31  5-MIN K9L2 231920Z AUTO 18010G16KT 10SM CLR 21/M06 A3004 2200 16 3400 160/10G16 RMK AO2 $
53144K9L2 9L220160423112510804/23/16 11:25:31  5-MIN K9L2 231925Z AUTO 17009G16KT 10SM CLR 21/M06 A3004 2190 16 3400 150/09G16 RMK AO2 $
53144K9L2 9L220160423113010204/23/16 11:30:31  5-MIN K9L2 231930Z AUTO 14010KT 10SM CLR 21/M06 A3004 2190 16 3400 130/10 RMK AO2 $
53144K9L2 9L220160423113510204/23/16 11:35:31  5-MIN K9L2 231935Z AUTO 12006KT 10SM CLR 21/M06 A3004 2190 15 3400 110/06 RMK AO2 $
53144K9L2 9L220160423114010204/23/16 11:40:31  5-MIN K9L2 231940Z AUTO 16007KT 10SM CLR 21/M07 A3004 2190 15 3400 140/07 RMK AO2 $
53144K9L2 9L220160423114510204/23/16 11:45:31  5-MIN K9L2 231945Z AUTO 17007KT 10SM CLR 21/M07 A3004 2200 15 3400 160/07 RMK AO2 $
53144K9L2 9L220160423115010204/23/16 11:50:31  5-MIN K9L2 231950Z AUTO 18008KT 10SM CLR 21/M07 A3003 2200 15 3400 160/08 RMK AO2 $
53144K9L2 9L220160423115513504/23/16 11:55:31  5-MIN K9L2 231955Z AUTO 19008KT 150V210 10SM CLR 22/M07 A3003 2200 13 3500 180/08 140V200 RMK AO2 SLP162 T02171072 $
53144K9L2 9L220160423120010204/23/16 12:00:31  5-MIN K9L2 232000Z AUTO 15009KT 10SM CLR 22/M08 A3003 2200 13 3500 140/09 RMK AO2 $
53144K9L2 9L220160423120510204/23/16 12:05:31  5-MIN K9L2 232005Z AUTO 14009KT 10SM CLR 22/M08 A3003 2200 12 3500 130/09 RMK AO2 $
53144K9L2 9L220160423121010204/23/16 12:10:31  5-MIN K9L2 232010Z AUTO 14006KT 10SM CLR 22/M09 A3003 2200 12 3500 130/06 RMK AO2 $
53144K9L2 9L220160423121510204/23/16 12:15:31  5-MIN K9L2 232015Z AUTO 16005KT 10SM CLR 22/M09 A3003 2200 12 3500 150/05 RMK AO2 $
53144K9L2 9L220160423122010204/23/16 12:20:31  5-MIN K9L2 232020Z AUTO 11006KT 10SM CLR 22/M09 A3003 2200 12 3500 100/06 RMK AO2 $
53144K9L2 9L220160423122510204/23/16 12:25:31  5-MIN K9L2 232025Z AUTO VRB04KT 10SM CLR 22/M09 A3003 2200 12 3500 VRB/04 RMK AO2 $
53144K9L2 9L220160423123010204/23/16 12:30:31  5-MIN K9L2 232030Z AUTO VRB06KT 10SM CLR 22/M09 A3002 2210 11 3600 VRB/06 RMK AO2 $
53144K9L2 9L220160423123510204/23/16 12:35:31  5-MIN K9L2 232035Z AUTO 11006KT 10SM CLR 22/M09 A3002 2210 11 3600 100/06 RMK AO2 $
53144K9L2 9L220160423124010204/23/16 12:40:31  5-MIN K9L2 232040Z AUTO 12005KT 10SM CLR 22/M09 A3002 2210 11 3600 110/05 RMK AO2 $
53144K9L2 9L220160423124510204/23/16 12:45:31  5-MIN K9L2 232045Z AUTO 14006KT 10SM CLR 23/M09 A3002 2210 11 3700 130/06 RMK AO2 $
53144K9L2 9L220160423125010204/23/16 12:50:31  5-MIN K9L2 232050Z AUTO 00000KT 10SM CLR 22/M09 A3002 2210 11 3600 000/00 RMK AO2 $
53144K9L2 9L220160423125512504/23/16 12:55:31  5-MIN K9L2 232055Z AUTO 14004KT 10SM CLR 22/M09 A3002 2210 11 3600 130/04 RMK AO2 SLP157 T02221094 53005 $
53144K9L2 9L220160423130010204/23/16 13:00:31  5-MIN K9L2 232100Z AUTO VRB03KT 10SM CLR 22/M09 A3002 2210 12 3500 VRB/03 RMK AO2 $
53144K9L2 9L220160423130510204/23/16 13:05:31  5-MIN K9L2 232105Z AUTO 19005KT 10SM CLR 23/M09 A3002 2220 11 3700 180/05 RMK AO2 $
53144K9L2 9L220160423131010204/23/16 13:10:31  5-MIN K9L2 232110Z AUTO 00000KT 10SM CLR 22/M09 A3001 2220 11 3600 000/00 RMK AO2 $
53144K9L2 9L220160423131510204/23/16 13:15:31  5-MIN K9L2 232115Z AUTO 18007KT 10SM CLR 23/M09 A3001 2220 11 3700 160/07 RMK AO2 $
53144K9L2 9L220160423132010204/23/16 13:20:31  5-MIN K9L2 232120Z AUTO 13004KT 10SM CLR 22/M09 A3001 2220 11 3600 110/04 RMK AO2 $
53144K9L2 9L220160423132510204/23/16 13:25:31  5-MIN K9L2 232125Z AUTO VRB03KT 10SM CLR 22/M09 A3001 2220 11 3600 VRB/03 RMK AO2 $
53144K9L2 9L220160423133010204/23/16 13:30:31  5-MIN K9L2 232130Z AUTO 08005KT 10SM CLR 23/M09 A3001 2220 11 3700 070/05 RMK AO2 $
53144K9L2 9L220160423133510204/23/16 13:35:31  5-MIN K9L2 232135Z AUTO 00000KT 10SM CLR 23/M09 A3001 2220 11 3700 000/00 RMK AO2 $
53144K9L2 9L220160423134010204/23/16 13:40:31  5-MIN K9L2 232140Z AUTO 08006KT 10SM CLR 23/M09 A3001 2220 11 3700 070/06 RMK AO2 $
53144K9L2 9L220160423134510204/23/16 13:45:31  5-MIN K9L2 232145Z AUTO 07005KT 10SM CLR 23/M09 A3000 2230 11 3700 050/05 RMK AO2 $
53144K9L2 9L220160423135010204/23/16 13:50:31  5-MIN K9L2 232150Z AUTO VRB03KT 10SM CLR 23/M09 A3000 2230 11 3700 VRB/03 RMK AO2 $
53144K9L2 9L220160423135511904/23/16 13:55:31  5-MIN K9L2 232155Z AUTO 00000KT 10SM CLR 24/M09 A3000 2230 10 3900 000/00 RMK AO2 SLP147 T02441089 $
53144K9L2 9L220160423140010204/23/16 14:00:31  5-MIN K9L2 232200Z AUTO VRB05KT 10SM CLR 24/M08 A2999 2230 11 3800 VRB/05 RMK AO2 $
53144K9L2 9L220160423140510204/23/16 14:05:31  5-MIN K9L2 232205Z AUTO VRB03KT 10SM CLR 23/M08 A2999 2240 12 3700 VRB/03 RMK AO2 $
53144K9L2 9L220160423141010204/23/16 14:10:31  5-MIN K9L2 232210Z AUTO 00000KT 10SM CLR 23/M08 A2999 2240 12 3700 000/00 RMK AO2 $
53144K9L2 9L220160423141510204/23/16 14:15:31  5-MIN K9L2 232215Z AUTO 17005KT 10SM CLR 23/M08 A2999 2240 11 3800 160/05 RMK AO2 $
53144K9L2 9L220160423142010204/23/16 14:20:31  5-MIN K9L2 232220Z AUTO 19003KT 10SM CLR 23/M08 A2999 2240 11 3800 180/03 RMK AO2 $
53144K9L2 9L220160423142510204/23/16 14:25:31  5-MIN K9L2 232225Z AUTO 22004KT 10SM CLR 23/M06 A2998 2240 14 3800 200/04 RMK AO2 $
53144K9L2 9L220160423143010204/23/16 14:30:31  5-MIN K9L2 232230Z AUTO VRB03KT 10SM CLR 23/M06 A2998 2240 14 3800 VRB/03 RMK AO2 $
53144K9L2 9L220160423143510204/23/16 14:35:31  5-MIN K9L2 232235Z AUTO 23009KT 10SM CLR 24/M06 A2998 2250 13 3800 220/09 RMK AO2 $
53144K9L2 9L220160423144010204/23/16 14:40:31  5-MIN K9L2 232240Z AUTO 21003KT 10SM CLR 23/M06 A2998 2250 13 3800 190/03 RMK AO2 $
53144K9L2 9L220160423144510204/23/16 14:45:31  5-MIN K9L2 232245Z AUTO 24006KT 10SM CLR 23/M06 A2998 2250 13 3800 220/06 RMK AO2 $
53144K9L2 9L220160423145010204/23/16 14:50:31  5-MIN K9L2 232250Z AUTO 25009KT 10SM CLR 24/M06 A2998 2250 13 3800 240/09 RMK AO2 $
53144K9L2 9L220160423145511904/23/16 14:55:31  5-MIN K9L2 232255Z AUTO VRB04KT 10SM CLR 23/M06 A2997 2250 13 3800 VRB/04 RMK AO2 SLP141 T02331061 $
53144K9L2 9L220160423150010204/23/16 15:00:31  5-MIN K9L2 232300Z AUTO VRB06KT 10SM CLR 23/M06 A2997 2250 14 3800 VRB/06 RMK AO2 $
53144K9L2 9L220160423150510804/23/16 15:05:31  5-MIN K9L2 232305Z AUTO 27012G17KT 10SM CLR 24/M05 A2997 2250 14 3800 260/12G17 RMK AO2 $
53144K9L2 9L220160423151010204/23/16 15:10:31  5-MIN K9L2 232310Z AUTO 26013KT 10SM CLR 24/M05 A2997 2260 14 3800 250/13 RMK AO2 $
53144K9L2 9L220160423151510204/23/16 15:15:31  5-MIN K9L2 232315Z AUTO 24012KT 10SM CLR 24/M04 A2997 2260 14 3800 230/12 RMK AO2 $
53144K9L2 9L220160423152010804/23/16 15:20:31  5-MIN K9L2 232320Z AUTO 27013G18KT 10SM CLR 24/M04 A2997 2260 14 3800 260/13G18 RMK AO2 $
53144K9L2 9L220160423152510804/23/16 15:25:31  5-MIN K9L2 232325Z AUTO 26015G21KT 10SM CLR 24/M04 A2997 2260 14 3800 250/15G21 RMK AO2 $
53144K9L2 9L220160423153010804/23/16 15:30:31  5-MIN K9L2 232330Z AUTO 27014G21KT 10SM CLR 23/M03 A2997 2260 17 3800 250/14G21 RMK AO2 $
53144K9L2 9L220160423153510804/23/16 15:35:31  5-MIN K9L2 232335Z AUTO 28012G20KT 10SM CLR 24/M03 A2997 2260 16 3800 270/12G20 RMK AO2 $
53144K9L2 9L220160423154010804/23/16 15:40:31  5-MIN K9L2 232340Z AUTO 27015G20KT 10SM CLR 24/M03 A2997 2260 16 3800 260/15G20 RMK AO2 $
53144K9L2 9L220160423154510804/23/16 15:45:31  5-MIN K9L2 232345Z AUTO 27014G20KT 10SM CLR 23/M03 A2997 2260 17 3800 260/14G20 RMK AO2 $
53144K9L2 9L220160423155010804/23/16 15:50:31  5-MIN K9L2 232350Z AUTO 27015G20KT 10SM CLR 23/M03 A2997 2260 17 3800 260/15G20 RMK AO2 $
53144K9L2 9L220160423155514304/23/16 15:55:31  5-MIN K9L2 232355Z AUTO 28014G20KT 10SM CLR 23/M02 A2997 2260 18 3700 260/14G20 RMK AO2 SLP142 T02281022 10244 20183 57013 $
53144K9L2 9L220160423160010804/23/16 16:00:31  5-MIN K9L2 240000Z AUTO 27015G19KT 10SM CLR 23/M02 A2997 2250 18 3800 260/15G19 RMK AO2 $
53144K9L2 9L220160423160510804/23/16 16:05:31  5-MIN K9L2 240005Z AUTO 26014G20KT 10SM CLR 23/M03 A2997 2250 18 3700 240/14G20 RMK AO2 $
53144K9L2 9L220160423161010804/23/16 16:10:31  5-MIN K9L2 240010Z AUTO 27013G20KT 10SM CLR 23/M03 A2997 2260 18 3700 260/13G20 RMK AO2 $
53144K9L2 9L220160423161510204/23/16 16:15:31  5-MIN K9L2 240015Z AUTO 26014KT 10SM CLR 23/M03 A2997 2260 18 3700 250/14 RMK AO2 $
53144K9L2 9L220160423162010804/23/16 16:20:31  5-MIN K9L2 240020Z AUTO 26018G22KT 10SM CLR 23/M03 A2997 2260 18 3700 250/18G22 RMK AO2 $
53144K9L2 9L220160423162510804/23/16 16:25:31  5-MIN K9L2 240025Z AUTO 27016G22KT 10SM CLR 22/M02 A2997 2260 19 3600 260/16G22 RMK AO2 $
53144K9L2 9L220160423163010204/23/16 16:30:31  5-MIN K9L2 240030Z AUTO 27013KT 10SM CLR 22/M02 A2997 2260 20 3600 260/13 RMK AO2 $
53144K9L2 9L220160423163510204/23/16 16:35:31  5-MIN K9L2 240035Z AUTO 27015KT 10SM CLR 22/M02 A2997 2260 19 3600 250/15 RMK AO2 $
53144K9L2 9L220160423164010204/23/16 16:40:31  5-MIN K9L2 240040Z AUTO 27015KT 10SM CLR 22/M02 A2997 2260 19 3700 250/15 RMK AO2 $
53144K9L2 9L220160423164510804/23/16 16:45:31  5-MIN K9L2 240045Z AUTO 27015G21KT 10SM CLR 22/M01 A2997 2260 21 3600 250/15G21 RMK AO2 $
53144K9L2 9L220160423165010204/23/16 16:50:31  5-MIN K9L2 240050Z AUTO 27016KT 10SM CLR 22/M01 A2997 2260 21 3600 260/16 RMK AO2 $
53144K9L2 9L220160423165512504/23/16 16:55:31  5-MIN K9L2 240055Z AUTO 27016G22KT 10SM CLR 22/M01 A2997 2260 21 3600 250/16G22 RMK AO2 SLP141 T02221011 $
53144K9L2 9L220160423170010804/23/16 17:00:31  5-MIN K9L2 240100Z AUTO 26016G21KT 10SM CLR 22/M01 A2997 2260 21 3600 250/16G21 RMK AO2 $
53144K9L2 9L220160423170510204/23/16 17:05:31  5-MIN K9L2 240105Z AUTO 27016KT 10SM CLR 22/M01 A2997 2260 22 3600 250/16 RMK AO2 $
53144K9L2 9L220160423171010204/23/16 17:10:31  5-MIN K9L2 240110Z AUTO 27017KT 10SM CLR 22/M01 A2997 2260 22 3600 260/17 RMK AO2 $
53144K9L2 9L220160424140011004/24/16 14:00:31  5-MIN K9L2 242200Z AUTO 28016G23KT 10SM OVC085 21/01 A2983 2390 25 3700 270/16G23 RMK AO2 $
53144K9L2 9L220160424140511004/24/16 14:05:31  5-MIN K9L2 242205Z AUTO 28018G24KT 10SM OVC090 22/01 A2983 2390 23 3800 260/18G24 RMK AO2 $
53144K9L2 9L220160424141011004/24/16 14:10:31  5-MIN K9L2 242210Z AUTO 27017G24KT 10SM OVC090 22/00 A2983 2390 22 3800 260/17G24 RMK AO2 $
53144K9L2 9L220160424141511004/24/16 14:15:31  5-MIN K9L2 242215Z AUTO 27017G23KT 10SM OVC090 22/00 A2982 2390 23 3700 260/17G23 RMK AO2 $
53144K9L2 9L220160424142011004/24/16 14:20:31  5-MIN K9L2 242220Z AUTO 28018G24KT 10SM OVC090 22/00 A2982 2390 23 3700 270/18G24 RMK AO2 $
53144K9L2 9L220160424142510404/24/16 14:25:31  5-MIN K9L2 242225Z AUTO 28020KT 10SM OVC090 22/00 A2982 2390 23 3800 270/20 RMK AO2 $
53144K9L2 9L220160424143011004/24/16 14:30:31  5-MIN K9L2 242230Z AUTO 27019G25KT 10SM OVC095 22/00 A2982 2390 23 3800 260/19G25 RMK AO2 $
53144K9L2 9L220160424143511004/24/16 14:35:31  5-MIN K9L2 242235Z AUTO 28020G25KT 10SM OVC095 22/00 A2982 2390 23 3700 270/20G25 RMK AO2 $
53144K9L2 9L220160424144011004/24/16 14:40:31  5-MIN K9L2 242240Z AUTO 27019G25KT 10SM BKN095 22/00 A2982 2400 23 3800 260/19G25 RMK AO2 $
53144K9L2 9L220160424144511104/24/16 14:45:31  5-MIN K9L2 242245Z AUTO 28016G24KT 10SM BKN095 22/M01 A2982 2390 22 3800 260/16G24 RMK AO2 $
53144K9L2 9L220160424145011104/24/16 14:50:31  5-MIN K9L2 242250Z AUTO 27018G25KT 10SM OVC095 22/M01 A2982 2400 21 3800 260/18G25 RMK AO2 $
53144K9L2 9L220160424145514604/24/16 14:55:31  5-MIN K9L2 242255Z AUTO 27019G26KT 10SM BKN095 22/M02 A2982 2400 20 3800 260/19G26 RMK AO2 PK WND 28026/2252 SLP091 T02171017 $
53144K9L2 9L220160424150011104/24/16 15:00:31  5-MIN K9L2 242300Z AUTO 28017G26KT 10SM BKN095 22/M01 A2982 2400 21 3800 260/17G26 RMK AO2 $
53144K9L2 9L220160424150512904/24/16 15:05:31  5-MIN K9L2 242305Z AUTO 28020G26KT 10SM BKN100 22/M01 A2982 2400 21 3800 270/20G26 RMK AO2 PK WND 28026/2304 $
53144K9L2 9L220160424151012904/24/16 15:10:31  5-MIN K9L2 242310Z AUTO 28021G28KT 10SM BKN100 23/M02 A2982 2400 18 3900 270/21G28 RMK AO2 PK WND 28028/2307 $
53144K9L2 9L220160424151512904/24/16 15:15:31  5-MIN K9L2 242315Z AUTO 28022G28KT 10SM BKN100 23/M01 A2981 2400 20 3900 270/22G28 RMK AO2 PK WND 28028/2307 $
53144K9L2 9L220160424152012804/24/16 15:20:31  5-MIN K9L2 242320Z AUTO 28022G28KT 10SM SCT100 22/01 A2981 2400 23 3800 270/22G28 RMK AO2 PK WND 29028/2318 $
53144K9L2 9L220160424152512904/24/16 15:25:31  5-MIN K9L2 242325Z AUTO 28022G28KT 10SM FEW100 22/M01 A2981 2400 21 3800 270/22G28 RMK AO2 PK WND 29028/2318 $
53144K9L2 9L220160424153012804/24/16 15:30:31  5-MIN K9L2 242330Z AUTO 28023G30KT 10SM FEW100 22/00 A2981 2400 23 3800 270/23G30 RMK AO2 PK WND 28030/2327 $
53144K9L2 9L220160424153512804/24/16 15:35:31  5-MIN K9L2 242335Z AUTO 28022G30KT 10SM FEW100 21/02 A2981 2400 27 3700 270/22G30 RMK AO2 PK WND 28030/2327 $
53144K9L2 9L220160424154012504/24/16 15:40:31  5-MIN K9L2 242340Z AUTO 28023G30KT 10SM CLR 21/02 A2981 2400 28 3600 270/23G30 RMK AO2 PK WND 28030/2338 $
53144K9L2 9L220160424154512504/24/16 15:45:31  5-MIN K9L2 242345Z AUTO 28024G30KT 10SM CLR 21/02 A2981 2400 28 3600 270/24G30 RMK AO2 PK WND 28030/2338 $
53144K9L2 9L220160424155012504/24/16 15:50:31  5-MIN K9L2 242350Z AUTO 28022G29KT 10SM CLR 21/02 A2981 2400 28 3600 270/22G29 RMK AO2 PK WND 28030/2338 $
53144K9L2 9L220160424155516004/24/16 15:55:31  5-MIN K9L2 242355Z AUTO 28021G27KT 10SM CLR 21/02 A2982 2400 28 3600 270/21G27 RMK AO2 PK WND 28030/2338 SLP091 T02060017 10233 20189 56016 $
53144K9L2 9L220160424160012504/24/16 16:00:31  5-MIN K9L2 250000Z AUTO 29021G27KT 10SM CLR 21/01 A2981 2400 27 3600 280/21G27 RMK AO2 PK WND 29026/2359 $
53144K9L2 9L220160424160512504/24/16 16:05:31  5-MIN K9L2 250005Z AUTO 28019G26KT 10SM CLR 21/01 A2981 2400 26 3600 270/19G26 RMK AO2 PK WND 29026/2359 $
53144K9L2 9L220160424161012504/24/16 16:10:31  5-MIN K9L2 250010Z AUTO 28022G26KT 10SM CLR 21/00 A2981 2410 25 3600 260/22G26 RMK AO2 PK WND 28026/0009 $
53144K9L2 9L220160424161512504/24/16 16:15:31  5-MIN K9L2 250015Z AUTO 28020G26KT 10SM CLR 21/01 A2981 2400 26 3600 270/20G26 RMK AO2 PK WND 29026/0014 $
53144K9L2 9L220160424162012504/24/16 16:20:31  5-MIN K9L2 250020Z AUTO 28020G27KT 10SM CLR 21/01 A2981 2400 27 3600 270/20G27 RMK AO2 PK WND 28027/0017 $
53144K9L2 9L220160424162512504/24/16 16:25:31  5-MIN K9L2 250025Z AUTO 28022G27KT 10SM CLR 21/01 A2981 2400 27 3600 270/22G27 RMK AO2 PK WND 28027/0025 $
53144K9L2 9L220160424163012504/24/16 16:30:31  5-MIN K9L2 250030Z AUTO 28021G27KT 10SM CLR 20/01 A2981 2400 28 3600 270/21G27 RMK AO2 PK WND 28027/0026 $
53144K9L2 9L220160424163512504/24/16 16:35:31  5-MIN K9L2 250035Z AUTO 28023G28KT 10SM CLR 20/01 A2981 2400 28 3600 260/23G28 RMK AO2 PK WND 27028/0034 $
53144K9L2 9L220160424164012504/24/16 16:40:31  5-MIN K9L2 250040Z AUTO 28022G29KT 10SM CLR 20/01 A2981 2410 28 3600 260/22G29 RMK AO2 PK WND 29029/0037 $
53144K9L2 9L220160424164512504/24/16 16:45:31  5-MIN K9L2 250045Z AUTO 28022G29KT 10SM CLR 20/02 A2981 2400 29 3600 270/22G29 RMK AO2 PK WND 29029/0037 $
53144K9L2 9L220160424165012504/24/16 16:50:31  5-MIN K9L2 250050Z AUTO 28023G28KT 10SM CLR 20/02 A2981 2400 29 3600 260/23G28 RMK AO2 PK WND 29029/0037 $
53144K9L2 9L220160424165514204/24/16 16:55:31  5-MIN K9L2 250055Z AUTO 28022G31KT 10SM CLR 19/02 A2981 2400 30 3500 260/22G31 RMK AO2 PK WND 28031/0055 SLP092 T01940017 $
53144K9L2 9L220160424170012504/24/16 17:00:31  5-MIN K9L2 250100Z AUTO 27025G31KT 10SM CLR 19/02 A2981 2410 30 3500 260/25G31 RMK AO2 PK WND 27030/0100 $
53144K9L2 9L220160424170512504/24/16 17:05:31  5-MIN K9L2 250105Z AUTO 28024G31KT 10SM CLR 19/02 A2981 2410 31 3500 270/24G31 RMK AO2 PK WND 27031/0103 $
53144K9L2 9L220160424171012504/24/16 17:10:31  5-MIN K9L2 250110Z AUTO 28023G31KT 10SM CLR 19/02 A2981 2410 31 3500 270/23G31 RMK AO2 PK WND 28031/0108 $
53144K9L2 9L220160424171512504/24/16 17:15:31  5-MIN K9L2 250115Z AUTO 28028G33KT 10SM CLR 18/02 A2981 2400 32 3400 270/28G33 RMK AO2 PK WND 29033/0113 $
53144K9L2 9L220160424172012504/24/16 17:20:31  5-MIN K9L2 250120Z AUTO 29025G33KT 10SM CLR 18/02 A2981 2400 32 3400 270/25G33 RMK AO2 PK WND 29033/0113 $
53144K9L2 9L220160424172512504/24/16 17:25:31  5-MIN K9L2 250125Z AUTO 28021G30KT 10SM CLR 18/02 A2981 2400 32 3400 270/21G30 RMK AO2 PK WND 29033/0113 $
53144K9L2 9L220160424173012504/24/16 17:30:31  5-MIN K9L2 250130Z AUTO 29024G31KT 10SM CLR 18/02 A2981 2400 32 3400 270/24G31 RMK AO2 PK WND 29033/0113 $
53144K9L2 9L220160424173512504/24/16 17:35:31  5-MIN K9L2 250135Z AUTO 29021G31KT 10SM CLR 18/02 A2981 2400 33 3300 270/21G31 RMK AO2 PK WND 29033/0113 $
53144K9L2 9L220160424174012504/24/16 17:40:31  5-MIN K9L2 250140Z AUTO 28021G27KT 10SM CLR 18/02 A2981 2400 33 3300 260/21G27 RMK AO2 PK WND 29033/0113 $
53144K9L2 9L220160424174512504/24/16 17:45:31  5-MIN K9L2 250145Z AUTO 28020G28KT 10SM CLR 18/02 A2982 2400 33 3300 260/20G28 RMK AO2 PK WND 29033/0113 $
53144K9L2 9L220160424175012504/24/16 17:50:31  5-MIN K9L2 250150Z AUTO 27018G28KT 10SM CLR 17/02 A2981 2400 36 3300 260/18G28 RMK AO2 PK WND 29033/0113 $
53144K9L2 9L220160424175514204/24/16 17:55:31  5-MIN K9L2 250155Z AUTO 28020G24KT 10SM CLR 17/02 A2981 2400 36 3300 260/20G24 RMK AO2 PK WND 29033/0113 SLP093 T01720022 $
53144K9L2 9L220160424180012504/24/16 18:00:31  5-MIN K9L2 250200Z AUTO 29019G30KT 10SM CLR 17/02 A2981 2410 36 3300 270/19G30 RMK AO2 PK WND 28027/0157 $
53144K9L2 9L220160424180512504/24/16 18:05:31  5-MIN K9L2 250205Z AUTO 28018G30KT 10SM CLR 17/02 A2981 2400 35 3300 270/18G30 RMK AO2 PK WND 28027/0157 $
53144K9L2 9L220160424181012504/24/16 18:10:31  5-MIN K9L2 250210Z AUTO 27020G26KT 10SM CLR 17/02 A2981 2410 35 3300 260/20G26 RMK AO2 PK WND 28027/0157 $
53144K9L2 9L220160424181512504/24/16 18:15:31  5-MIN K9L2 250215Z AUTO 27020G26KT 10SM CLR 17/02 A2981 2410 36 3200 260/20G26 RMK AO2 PK WND 28027/0157 $
53144K9L2 9L220160424182012504/24/16 18:20:31  5-MIN K9L2 250220Z AUTO 28022G26KT 10SM CLR 17/02 A2981 2410 36 3200 260/22G26 RMK AO2 PK WND 28027/0157 $
53144K9L2 9L220160424182512504/24/16 18:25:31  5-MIN K9L2 250225Z AUTO 27020G25KT 10SM CLR 16/02 A2981 2410 37 3100 250/20G25 RMK AO2 PK WND 28027/0157 $
53144K9L2 9L220160424183012504/24/16 18:30:31  5-MIN K9L2 250230Z AUTO 27020G28KT 10SM CLR 16/02 A2980 2410 39 3100 250/20G28 RMK AO2 PK WND 26028/0228 $
53144K9L2 9L220160424183512504/24/16 18:35:31  5-MIN K9L2 250235Z AUTO 26021G28KT 10SM CLR 16/02 A2980 2410 39 3100 250/21G28 RMK AO2 PK WND 26028/0228 $
53144K9L2 9L220160424184012504/24/16 18:40:31  5-MIN K9L2 250240Z AUTO 26021G27KT 10SM CLR 16/02 A2981 2410 39 3100 250/21G27 RMK AO2 PK WND 26028/0228 $
53144K9L2 9L220160424184512504/24/16 18:45:31  5-MIN K9L2 250245Z AUTO 26022G26KT 10SM CLR 16/02 A2980 2410 39 3100 240/22G26 RMK AO2 PK WND 26028/0228 $
53144K9L2 9L220160424185012504/24/16 18:50:31  5-MIN K9L2 250250Z AUTO 26018G26KT 10SM CLR 16/02 A2981 2410 37 3100 240/18G26 RMK AO2 PK WND 26028/0228 $
53144K9L2 9L220160424185514804/24/16 18:55:31  5-MIN K9L2 250255Z AUTO 26018G25KT 10SM CLR 16/02 A2981 2410 39 3100 240/18G25 RMK AO2 PK WND 26028/0228 SLP091 T01560017 56015 $
53144K9L2 9L220160424190010104/24/16 19:00:31  5-MIN K9L2 250300Z AUTO 26018KT 10SM CLR 16/02 A2981 2400 39 3100 240/18 RMK AO2 $
53144K9L2 9L220160424190510104/24/16 19:05:31  5-MIN K9L2 250305Z AUTO 26020KT 10SM CLR 16/02 A2981 2400 39 3100 250/20 RMK AO2 $
53144K9L2 9L220160424191010104/24/16 19:10:31  5-MIN K9L2 250310Z AUTO 26017KT 10SM CLR 16/02 A2982 2400 39 3100 240/17 RMK AO2 $
53144K9L2 9L220160424191510104/24/16 19:15:31  5-MIN K9L2 250315Z AUTO 25017KT 10SM CLR 16/02 A2982 2400 39 3100 240/17 RMK AO2 $
53144K9L2 9L220160424192010704/24/16 19:20:31  5-MIN K9L2 250320Z AUTO 25014G23KT 10SM CLR 16/02 A2982 2400 39 3100 230/14G23 RMK AO2 $
53144K9L2 9L220160424192510104/24/16 19:25:31  5-MIN K9L2 250325Z AUTO 25016KT 10SM CLR 16/02 A2982 2400 39 3100 240/16 RMK AO2 $
53144K9L2 9L220160424193010704/24/16 19:30:31  5-MIN K9L2 250330Z AUTO 25013G20KT 10SM CLR 16/02 A2982 2400 39 3100 240/13G20 RMK AO2 $
53144K9L2 9L220160424193510704/24/16 19:35:31  5-MIN K9L2 250335Z AUTO 26014G19KT 10SM CLR 15/02 A2982 2390 40 3000 250/14G19 RMK AO2 $
53144K9L2 9L220160424194010104/24/16 19:40:31  5-MIN K9L2 250340Z AUTO 26016KT 10SM CLR 15/02 A2983 2390 40 3000 250/16 RMK AO2 $
53144K9L2 9L220160424194510104/24/16 19:45:31  5-MIN K9L2 250345Z AUTO 26015KT 10SM CLR 15/02 A2983 2390 40 3000 250/15 RMK AO2 $
53144K9L2 9L220160424195010104/24/16 19:50:31  5-MIN K9L2 250350Z AUTO 27012KT 10SM CLR 15/02 A2982 2390 40 3000 260/12 RMK AO2 $
53144K9L2 9L220160424195511804/24/16 19:55:31  5-MIN K9L2 250355Z AUTO 27010KT 10SM CLR 15/02 A2982 2390 40 3000 260/10 RMK AO2 SLP094 T01500017 $
53144K9L2 9L220160424200010104/24/16 20:00:31  5-MIN K9L2 250400Z AUTO 27009KT 10SM CLR 15/02 A2982 2390 40 3000 260/09 RMK AO2 $
53144K9L2 9L220160424200510104/24/16 20:05:31  5-MIN K9L2 250405Z AUTO 25007KT 10SM CLR 15/02 A2982 2400 40 3000 240/07 RMK AO2 $
53144K9L2 9L220160424201010104/24/16 20:10:31  5-MIN K9L2 250410Z AUTO 23008KT 10SM CLR 14/02 A2982 2400 41 2900 220/08 RMK AO2 $
53144K9L2 9L220160424201510104/24/16 20:15:31  5-MIN K9L2 250415Z AUTO 21007KT 10SM CLR 14/01 A2981 2400 40 2900 190/07 RMK AO2 $
53144K9L2 9L220160424202010104/24/16 20:20:31  5-MIN K9L2 250420Z AUTO 21006KT 10SM CLR 14/01 A2981 2400 41 2900 190/06 RMK AO2 $
53144K9L2 9L220160424202510104/24/16 20:25:31  5-MIN K9L2 250425Z AUTO VRB03KT 10SM CLR 14/01 A2981 2400 41 2900 VRB/03 RMK AO2 $
53144K9L2 9L220160424203010104/24/16 20:30:31  5-MIN K9L2 250430Z AUTO 27004KT 10SM CLR 13/01 A2981 2410 43 2800 250/04 RMK AO2 $
53144K9L2 9L220160424203510104/24/16 20:35:31  5-MIN K9L2 250435Z AUTO 25003KT 10SM CLR 13/02 A2981 2410 45 2800 240/03 RMK AO2 $
53144K9L2 9L220160424204010104/24/16 20:40:31  5-MIN K9L2 250440Z AUTO 22006KT 10SM CLR 13/02 A2981 2410 45 2800 210/06 RMK AO2 $
53144K9L2 9L220160424204510104/24/16 20:45:31  5-MIN K9L2 250445Z AUTO 22006KT 10SM CLR 13/02 A2980 2410 45 2800 210/06 RMK AO2 $
53144K9L2 9L220160424205010104/24/16 20:50:31  5-MIN K9L2 250450Z AUTO 23008KT 10SM CLR 13/02 A2980 2410 45 2800 220/08 RMK AO2 $
53144K9L2 9L220160424205511804/24/16 20:55:31  5-MIN K9L2 250455Z AUTO 24007KT 10SM CLR 14/02 A2980 2420 43 2900 220/07 RMK AO2 SLP085 T01390017 $
53144K9L2 9L220160424210010104/24/16 21:00:31  5-MIN K9L2 250500Z AUTO 25006KT 10SM CLR 13/02 A2980 2410 45 2800 230/06 RMK AO2 $
53144K9L2 9L220160424210510104/24/16 21:05:31  5-MIN K9L2 250505Z AUTO 28005KT 10SM CLR 13/02 A2980 2410 46 2800 270/05 RMK AO2 $
53144K9L2 9L220160424211010104/24/16 21:10:31  5-MIN K9L2 250510Z AUTO 26005KT 10SM CLR 13/02 A2980 2410 46 2800 240/05 RMK AO2 $
53144K9L2 9L220160424211510104/24/16 21:15:31  5-MIN K9L2 250515Z AUTO 27005KT 10SM CLR 13/02 A2980 2420 46 2800 260/05 RMK AO2 $
53144K9L2 9L220160424212011004/24/16 21:20:31  5-MIN K9L2 250520Z AUTO 26007KT 10SM TS CLR 13/02 A2980 2420 46 2800 250/07 RMK AO2 TSB18 $
53144K9L2 9L220160424212511004/24/16 21:25:31  5-MIN K9L2 250525Z AUTO 26009KT 10SM TS CLR 13/02 A2980 2420 45 2800 250/09 RMK AO2 TSB18 $
53144K9L2 9L220160424213011004/24/16 21:30:31  5-MIN K9L2 250530Z AUTO 26009KT 10SM TS CLR 14/02 A2979 2420 43 2900 240/09 RMK AO2 TSB18 $
53144K9L2 9L220160424213511004/24/16 21:35:31  5-MIN K9L2 250535Z AUTO 26010KT 10SM CLR 14/02 A2979 2420 45 2900 240/10 RMK AO2 TSB18E33 $
53144K9L2 9L220160424214011004/24/16 21:40:31  5-MIN K9L2 250540Z AUTO 26012KT 10SM CLR 14/02 A2980 2420 45 2900 240/12 RMK AO2 TSB18E33 $
53144K9L2 9L220160424214511004/24/16 21:45:31  5-MIN K9L2 250545Z AUTO 26011KT 10SM CLR 14/02 A2980 2410 45 2900 250/11 RMK AO2 TSB18E33 $
53144K9L2 9L220160424215011004/24/16 21:50:31  5-MIN K9L2 250550Z AUTO 27012KT 10SM CLR 14/03 A2981 2410 47 2900 250/12 RMK AO2 TSB18E33 $
53144K9L2 9L220160424215515404/24/16 21:55:31  5-MIN K9L2 250555Z AUTO 27016G21KT 10SM FEW042 14/03 A2981 2400 47 2900 260/16G21 RMK AO2 TSB18E33 SLP088 T01390028 10211 20128 55001 $
53144K9L2 9L220160424220014204/24/16 22:00:31  5-MIN K9L2 250600Z AUTO 31023G32KT 10SM SCT040 SCT060 14/03 A2982 2390 47 2900 290/23G32 RMK AO2 PK WND 30032/0558 PRESRR $
53144K9L2 9L220160424220513504/24/16 22:05:31  5-MIN K9L2 250605Z AUTO 31019G32KT 10SM SCT038 SCT060 13/03 A2981 2400 50 2700 300/19G32 RMK AO2 PK WND 30032/0558 $
53144K9L2 9L220160424221014604/24/16 22:10:31  5-MIN K9L2 250610Z AUTO 31019G27KT 10SM FEW038 SCT060 12/03 A2981 2400 52 2700 300/19G27 RMK AO2 PK WND 30032/0558 WSHFT 0553 $
53144K9L2 9L220160424221514604/24/16 22:15:31  5-MIN K9L2 250615Z AUTO 31019G27KT 10SM FEW038 SCT060 12/03 A2982 2400 52 2700 290/19G27 RMK AO2 PK WND 30032/0558 WSHFT 0553 $
53144K9L2 9L220160424222014604/24/16 22:20:31  5-MIN K9L2 250620Z AUTO 30016G26KT 10SM FEW038 SCT060 12/03 A2982 2400 54 2700 290/16G26 RMK AO2 PK WND 30032/0558 WSHFT 0553 $
53144K9L2 9L220160424222514004/24/16 22:25:31  5-MIN K9L2 250625Z AUTO 30018KT 10SM FEW038 SCT060 12/03 A2982 2390 56 2600 280/18 RMK AO2 PK WND 30032/0558 WSHFT 0553 $
53144K9L2 9L220160424223014604/24/16 22:30:31  5-MIN K9L2 250630Z AUTO 30016G23KT 10SM FEW046 SCT060 12/03 A2982 2390 56 2600 280/16G23 RMK AO2 PK WND 30032/0558 WSHFT 0553 $
53144K9L2 9L220160424223515304/24/16 22:35:31  5-MIN K9L2 250635Z AUTO 29015G22KT 10SM FEW038 SCT050 BKN060 12/03 A2983 2390 52 2700 280/15G22 RMK AO2 PK WND 30032/0558 WSHFT 0553 $
53144K9L2 9L220160424224014004/24/16 22:40:31  5-MIN K9L2 250640Z AUTO 28013KT 10SM SCT038 BKN050 12/03 A2983 2380 52 2700 270/13 RMK AO2 PK WND 30032/0558 WSHFT 0553 $
53144K9L2 9L220160424224514004/24/16 22:45:31  5-MIN K9L2 250645Z AUTO 29016KT 10SM BKN042 BKN055 12/03 A2983 2390 52 2700 280/16 RMK AO2 PK WND 30032/0558 WSHFT 0553 $
53144K9L2 9L220160424225014004/24/16 22:50:31  5-MIN K9L2 250650Z AUTO 29013KT 10SM BKN042 OVC055 12/02 A2983 2380 50 2600 280/13 RMK AO2 PK WND 30032/0558 WSHFT 0553 $
53144K9L2 9L220160424225516404/24/16 22:55:31  5-MIN K9L2 250655Z AUTO 29012KT 10SM SCT040 BKN047 OVC055 12/02 A2984 2380 50 2600 280/12 RMK AO2 PK WND 30032/0558 WSHFT 0553 SLP096 T01220022 $
53144K9L2 9L220160424230011804/24/16 23:00:31  5-MIN K9L2 250700Z AUTO 28013KT 10SM FEW038 BKN049 OVC060 12/02 A2984 2380 50 2600 270/13 RMK AO2 $
53144K9L2 9L220160424230511804/24/16 23:05:31  5-MIN K9L2 250705Z AUTO 28012KT 10SM FEW040 BKN050 BKN060 12/02 A2984 2380 52 2600 270/12 RMK AO2 $
53144K9L2 9L220160424231011804/24/16 23:10:31  5-MIN K9L2 250710Z AUTO 28012KT 10SM SCT045 BKN055 BKN075 12/02 A2983 2380 52 2600 270/12 RMK AO2 $
53144K9L2 9L220160424231511804/24/16 23:15:31  5-MIN K9L2 250715Z AUTO 29013KT 10SM FEW046 SCT055 BKN075 12/02 A2983 2380 52 2600 270/13 RMK AO2 $
53144K9L2 9L220160424232011804/24/16 23:20:31  5-MIN K9L2 250720Z AUTO 28013KT 10SM FEW055 BKN075 BKN090 12/02 A2983 2390 52 2600 270/13 RMK AO2 $
53144K9L2 9L220160424232513404/24/16 23:25:31  5-MIN K9L2 250725Z AUTO 28012KT 10SM -RA SCT055 BKN075 BKN090 12/03 A2983 2390 54 2600 270/12 RMK AO2 RAB22 P0000 $
53144K9L2 9L220160424233014004/24/16 23:30:31  5-MIN K9L2 250730Z AUTO 28011G19KT 10SM -RA SCT055 BKN075 BKN090 11/03 A2982 2390 58 2500 270/11G19 RMK AO2 RAB22 P0000 $
53144K9L2 9L220160424233513404/24/16 23:35:31  5-MIN K9L2 250735Z AUTO 24009KT 10SM -RA SCT055 BKN075 BKN095 11/04 A2982 2390 61 2500 230/09 RMK AO2 RAB22 P0000 $
53144K9L2 9L220160424234013304/24/16 23:40:31  5-MIN K9L2 250740Z AUTO 24007KT 10SM FEW055 SCT075 BKN090 11/04 A2982 2390 61 2500 220/07 RMK AO2 RAB22E37 P0000 $
53144K9L2 9L220160424234513304/24/16 23:45:31  5-MIN K9L2 250745Z AUTO 24008KT 10SM FEW055 SCT075 BKN095 11/03 A2982 2390 58 2500 230/08 RMK AO2 RAB22E37 P0000 $
53144K9L2 9L220160424235013204/24/16 23:50:31  5-MIN K9L2 250750Z AUTO 26014G18KT 10SM FEW055 BKN085 11/03 A2983 2390 58 2500 250/14G18 RMK AO2 RAB22E37 P0000 $
53144K9L2 9L220160424235515204/24/16 23:55:31  5-MIN K9L2 250755Z AUTO 26016G19KT 10SM BKN090 11/03 A2982 2390 56 2500 250/16G19 RMK AO2 RAB22E37 SLP093 P0000 T01110028 402330044 $
53144K9L2 9L220160425000010404/25/16 00:00:31  5-MIN K9L2 250800Z AUTO 26014KT 10SM BKN090 12/03 A2982 2390 54 2600 240/14 RMK AO2 $
53144K9L2 9L220160425000511004/25/16 00:05:31  5-MIN K9L2 250805Z AUTO 26019G22KT 10SM BKN090 12/02 A2982 2400 52 2600 240/19G22 RMK AO2 $
53144K9L2 9L220160425001011004/25/16 00:10:31  5-MIN K9L2 250810Z AUTO 26019G23KT 10SM BKN090 12/03 A2982 2400 54 2600 250/19G23 RMK AO2 $
53144K9L2 9L220160425001510404/25/16 00:15:31  5-MIN K9L2 250815Z AUTO 26017KT 10SM BKN090 12/03 A2982 2400 54 2600 240/17 RMK AO2 $
53144K9L2 9L220160425002011004/25/16 00:20:31  5-MIN K9L2 250820Z AUTO 26020G25KT 10SM BKN090 12/03 A2981 2400 54 2600 240/20G25 RMK AO2 $
53144K9L2 9L220160425002512804/25/16 00:25:31  5-MIN K9L2 250825Z AUTO 25019G27KT 10SM BKN090 12/03 A2981 2400 54 2600 240/19G27 RMK AO2 PK WND 25027/0822 $
53144K9L2 9L220160425003012804/25/16 00:30:31  5-MIN K9L2 250830Z AUTO 25021G27KT 10SM SCT090 12/03 A2981 2410 56 2600 240/21G27 RMK AO2 PK WND 26027/0829 $
53144K9L2 9L220160425003512804/25/16 00:35:31  5-MIN K9L2 250835Z AUTO 26019G27KT 10SM FEW085 12/03 A2981 2410 56 2600 240/19G27 RMK AO2 PK WND 26027/0829 $
53144K9L2 9L220160425004012804/25/16 00:40:31  5-MIN K9L2 250840Z AUTO 26023G29KT 10SM FEW085 11/03 A2980 2420 58 2600 250/23G29 RMK AO2 PK WND 26029/0840 $
53144K9L2 9L220160425004512804/25/16 00:45:31  5-MIN K9L2 250845Z AUTO 26025G29KT 10SM FEW085 11/03 A2980 2420 58 2600 250/25G29 RMK AO2 PK WND 26029/0844 $
53144K9L2 9L220160425005012804/25/16 00:50:31  5-MIN K9L2 250850Z AUTO 27027G32KT 10SM FEW080 11/03 A2979 2430 58 2600 260/27G32 RMK AO2 PK WND 27032/0850 $
53144K9L2 9L220160425005515704/25/16 00:55:31  5-MIN K9L2 250855Z AUTO 27026G33KT 10SM FEW095 11/03 A2979 2420 56 2600 260/26G33 RMK AO2 PK WND 27033/0852 SLP081 60000 T01110028 53002 $
53144K9L2 9L220160425010012804/25/16 01:00:31  5-MIN K9L2 250900Z AUTO 28024G33KT 10SM FEW095 11/02 A2979 2420 54 2600 260/24G33 RMK AO2 PK WND 28029/0857 $
53144K9L2 9L220160425010512504/25/16 01:05:31  5-MIN K9L2 250905Z AUTO 28023G32KT 10SM CLR 11/02 A2979 2420 54 2600 270/23G32 RMK AO2 PK WND 27032/0903 $
53144K9L2 9L220160425011012504/25/16 01:10:31  5-MIN K9L2 250910Z AUTO 28023G32KT 10SM CLR 11/02 A2980 2410 54 2600 270/23G32 RMK AO2 PK WND 27032/0903 $
53144K9L2 9L220160425011513504/25/16 01:15:31  5-MIN K9L2 250915Z AUTO 27020G31KT 10SM FEW095 11/02 A2981 2400 52 2500 260/20G31 RMK AO2 PK WND 27032/0903 PRESRR $
53144K9L2 9L220160425012012204/25/16 01:20:31  5-MIN K9L2 250920Z AUTO 26020KT 10SM FEW095 11/02 A2981 2410 54 2500 250/20 RMK AO2 PK WND 27032/0903 $
53144K9L2 9L220160425012512504/25/16 01:25:31  5-MIN K9L2 250925Z AUTO 25015G24KT 10SM CLR 11/02 A2981 2410 54 2500 240/15G24 RMK AO2 PK WND 27032/0903 $
53144K9L2 9L220160425013011904/25/16 01:30:31  5-MIN K9L2 250930Z AUTO 25015KT 10SM CLR 11/02 A2981 2410 54 2500 240/15 RMK AO2 PK WND 27032/0903 $
53144K9L2 9L220160425013511904/25/16 01:35:31  5-MIN K9L2 250935Z AUTO 27018KT 10SM CLR 10/02 A2981 2410 56 2400 250/18 RMK AO2 PK WND 27032/0903 $
53144K9L2 9L220160425014012504/25/16 01:40:31  5-MIN K9L2 250940Z AUTO 27022G27KT 10SM CLR 10/02 A2980 2410 56 2400 260/22G27 RMK AO2 PK WND 27032/0903 $
53144K9L2 9L220160425014512504/25/16 01:45:31  5-MIN K9L2 250945Z AUTO 26023G27KT 10SM CLR 10/02 A2981 2410 56 2400 250/23G27 RMK AO2 PK WND 27032/0903 $
53144K9L2 9L220160425015012504/25/16 01:50:31  5-MIN K9L2 250950Z AUTO 26020G27KT 10SM CLR 10/02 A2981 2410 56 2400 250/20G27 RMK AO2 PK WND 27032/0903 $
53144K9L2 9L220160425015513604/25/16 01:55:31  5-MIN K9L2 250955Z AUTO 26022KT 10SM CLR 10/01 A2980 2410 54 2400 240/22 RMK AO2 PK WND 27032/0903 SLP086 T01000011 $
53144K9L2 9L220160425020012504/25/16 02:00:31  5-MIN K9L2 251000Z AUTO 26022G29KT 10SM CLR 10/01 A2980 2410 54 2400 240/22G29 RMK AO2 PK WND 26029/0957 $
53144K9L2 9L220160425020512504/25/16 02:05:31  5-MIN K9L2 251005Z AUTO 25020G29KT 10SM CLR 10/01 A2981 2410 52 2400 240/20G29 RMK AO2 PK WND 26029/0957 $
53144K9L2 9L220160425021011904/25/16 02:10:31  5-MIN K9L2 251010Z AUTO 24019KT 10SM CLR 10/01 A2981 2410 52 2400 230/19 RMK AO2 PK WND 26029/0957 $
53144K9L2 9L220160425021512504/25/16 02:15:31  5-MIN K9L2 251015Z AUTO 24017G26KT 10SM CLR 10/01 A2980 2410 52 2400 220/17G26 RMK AO2 PK WND 26029/0957 $
53144K9L2 9L220160425022012504/25/16 02:20:31  5-MIN K9L2 251020Z AUTO 24017G25KT 10SM CLR 09/01 A2981 2410 53 2400 230/17G25 RMK AO2 PK WND 26029/0957 $
53144K9L2 9L220160425022512504/25/16 02:25:31  5-MIN K9L2 251025Z AUTO 25022G27KT 10SM CLR 09/00 A2980 2410 51 2400 240/22G27 RMK AO2 PK WND 26029/0957 $
53144K9L2 9L220160425023012504/25/16 02:30:31  5-MIN K9L2 251030Z AUTO 25021G27KT 10SM CLR 09/00 A2980 2410 51 2400 230/21G27 RMK AO2 PK WND 26029/0957 $
53144K9L2 9L220160425023512604/25/16 02:35:31  5-MIN K9L2 251035Z AUTO 25021G27KT 10SM CLR 09/M01 A2980 2420 49 2400 230/21G27 RMK AO2 PK WND 26029/0957 $
53144K9L2 9L220160425024012004/25/16 02:40:31  5-MIN K9L2 251040Z AUTO 24019KT 10SM CLR 09/M01 A2980 2420 49 2400 230/19 RMK AO2 PK WND 26029/0957 $
53144K9L2 9L220160425024512604/25/16 02:45:31  5-MIN K9L2 251045Z AUTO 26021G29KT 10SM CLR 09/M01 A2980 2420 49 2400 240/21G29 RMK AO2 PK WND 25029/1043 $
53144K9L2 9L220160425025012504/25/16 02:50:31  5-MIN K9L2 251050Z AUTO 25021G29KT 10SM CLR 09/00 A2979 2420 53 2300 240/21G29 RMK AO2 PK WND 25029/1043 $
53144K9L2 9L220160425025514204/25/16 02:55:31  5-MIN K9L2 251055Z AUTO 25020G27KT 10SM CLR 09/00 A2979 2420 53 2300 240/20G27 RMK AO2 PK WND 25029/1043 SLP083 T00890000 $
53144K9L2 9L220160425030012504/25/16 03:00:31  5-MIN K9L2 251100Z AUTO 25022G27KT 10SM CLR 09/00 A2979 2430 53 2300 240/22G27 RMK AO2 PK WND 25027/1100 $
53144K9L2 9L220160425030512504/25/16 03:05:31  5-MIN K9L2 251105Z AUTO 26023G31KT 10SM CLR 09/00 A2979 2420 53 2300 240/23G31 RMK AO2 PK WND 26031/1105 $
53144K9L2 9L220160425031012504/25/16 03:10:31  5-MIN K9L2 251110Z AUTO 25024G31KT 10SM CLR 09/00 A2978 2430 53 2300 240/24G31 RMK AO2 PK WND 26031/1105 $
53144K9L2 9L220160425031512504/25/16 03:15:31  5-MIN K9L2 251115Z AUTO 26027G34KT 10SM CLR 09/00 A2978 2440 53 2300 240/27G34 RMK AO2 PK WND 25034/1112 $
53144K9L2 9L220160425032012504/25/16 03:20:31  5-MIN K9L2 251120Z AUTO 26025G35KT 10SM CLR 09/00 A2977 2440 53 2300 240/25G35 RMK AO2 PK WND 26035/1117 $
53144K9L2 9L220160425032512504/25/16 03:25:31  5-MIN K9L2 251125Z AUTO 26029G43KT 10SM CLR 09/00 A2977 2440 53 2300 250/29G43 RMK AO2 PK WND 26043/1125 $
53144K9L2 9L220160425033012504/25/16 03:30:31  5-MIN K9L2 251130Z AUTO 26027G43KT 10SM CLR 09/00 A2978 2430 53 2300 250/27G43 RMK AO2 PK WND 26043/1125 $
53144K9L2 9L220160425033512504/25/16 03:35:31  5-MIN K9L2 251135Z AUTO 26030G39KT 10SM CLR 09/00 A2978 2430 53 2300 250/30G39 RMK AO2 PK WND 26043/1125 $
53144K9L2 9L220160425034012504/25/16 03:40:31  5-MIN K9L2 251140Z AUTO 26032G41KT 10SM CLR 09/00 A2978 2430 53 2300 250/32G41 RMK AO2 PK WND 26043/1125 $
53144K9L2 9L220160425034512504/25/16 03:45:31  5-MIN K9L2 251145Z AUTO 27027G41KT 10SM CLR 09/00 A2978 2430 53 2300 250/27G41 RMK AO2 PK WND 26043/1125 $
53144K9L2 9L220160425035012504/25/16 03:50:31  5-MIN K9L2 251150Z AUTO 27027G39KT 10SM CLR 09/00 A2979 2420 53 2300 260/27G39 RMK AO2 PK WND 26043/1125 $
53144K9L2 9L220160425035516604/25/16 03:55:31  5-MIN K9L2 251155Z AUTO 27028G38KT 10SM CLR 09/00 A2980 2420 53 2300 260/28G38 RMK AO2 PK WND 26043/1125 SLP085 60000 T00890000 10144 20089 58008 $
53144K9L2 9L220160425040012504/25/16 04:00:31  5-MIN K9L2 251200Z AUTO 27025G36KT 10SM CLR 09/00 A2980 2410 53 2300 260/25G36 RMK AO2 PK WND 28032/1157 $
53144K9L2 9L220160425040512604/25/16 04:05:31  5-MIN K9L2 251205Z AUTO 27028G37KT 10SM CLR 09/M01 A2979 2420 51 2300 250/28G37 RMK AO2 PK WND 27037/1205 $
53144K9L2 9L220160425041012604/25/16 04:10:31  5-MIN K9L2 251210Z AUTO 27025G37KT 10SM CLR 09/M01 A2979 2420 51 2300 260/25G37 RMK AO2 PK WND 27037/1207 $
53144K9L2 9L220160425041512604/25/16 04:15:31  5-MIN K9L2 251215Z AUTO 28028G37KT 10SM CLR 08/M01 A2980 2420 53 2200 260/28G37 RMK AO2 PK WND 27037/1207 $
53144K9L2 9L220160425042012604/25/16 04:20:31  5-MIN K9L2 251220Z AUTO 27027G36KT 10SM CLR 08/M01 A2980 2420 53 2200 260/27G36 RMK AO2 PK WND 27037/1207 $
53144K9L2 9L220160425042512604/25/16 04:25:31  5-MIN K9L2 251225Z AUTO 27027G38KT 10SM CLR 08/M01 A2980 2420 53 2200 260/27G38 RMK AO2 PK WND 27038/1223 $
53144K9L2 9L220160425043012604/25/16 04:30:31  5-MIN K9L2 251230Z AUTO 27029G38KT 10SM CLR 08/M01 A2980 2420 53 2200 250/29G38 RMK AO2 PK WND 27038/1223 $
53144K9L2 9L220160425043512604/25/16 04:35:31  5-MIN K9L2 251235Z AUTO 27029G38KT 10SM CLR 08/M01 A2980 2410 53 2200 250/29G38 RMK AO2 PK WND 27038/1234 $
53144K9L2 9L220160425044012604/25/16 04:40:31  5-MIN K9L2 251240Z AUTO 26028G38KT 10SM CLR 08/M01 A2981 2410 53 2200 250/28G38 RMK AO2 PK WND 27038/1234 $
53144K9L2 9L220160425044512604/25/16 04:45:31  5-MIN K9L2 251245Z AUTO 27025G36KT 10SM CLR 08/M01 A2981 2410 53 2200 250/25G36 RMK AO2 PK WND 27038/1234 $
53144K9L2 9L220160425045012604/25/16 04:50:31  5-MIN K9L2 251250Z AUTO 26025G34KT 10SM CLR 08/M01 A2981 2410 53 2200 250/25G34 RMK AO2 PK WND 27038/1234 $
53144K9L2 9L220160425045514304/25/16 04:55:31  5-MIN K9L2 251255Z AUTO 26023G34KT 10SM CLR 08/M01 A2981 2400 55 2100 250/23G34 RMK AO2 PK WND 27038/1234 SLP092 T00781006 $
53144K9L2 9L220160425050012604/25/16 05:00:31  5-MIN K9L2 251300Z AUTO 26022G34KT 10SM CLR 08/M01 A2981 2400 55 2100 240/22G34 RMK AO2 PK WND 26028/1259 $
53144K9L2 9L220160425050512604/25/16 05:05:31  5-MIN K9L2 251305Z AUTO 26027G34KT 10SM CLR 08/M01 A2982 2400 53 2200 250/27G34 RMK AO2 PK WND 27034/1304 $
53144K9L2 9L220160425051012604/25/16 05:10:31  5-MIN K9L2 251310Z AUTO 26019G34KT 10SM CLR 08/M01 A2982 2390 55 2100 240/19G34 RMK AO2 PK WND 27034/1304 $
53144K9L2 9L220160425051512604/25/16 05:15:31  5-MIN K9L2 251315Z AUTO 26019G29KT 10SM CLR 08/M01 A2982 2390 53 2200 250/19G29 RMK AO2 PK WND 27034/1304 $
53144K9L2 9L220160425052012604/25/16 05:20:31  5-MIN K9L2 251320Z AUTO 26016G29KT 10SM CLR 08/M01 A2982 2390 53 2200 250/16G29 RMK AO2 PK WND 27034/1304 $
53144K9L2 9L220160425052512604/25/16 05:25:31  5-MIN K9L2 251325Z AUTO 26018G26KT 10SM CLR 08/M01 A2982 2390 53 2200 250/18G26 RMK AO2 PK WND 27034/1304 $
53144K9L2 9L220160425053012604/25/16 05:30:31  5-MIN K9L2 251330Z AUTO 26015G26KT 10SM CLR 08/M01 A2982 2400 53 2200 250/15G26 RMK AO2 PK WND 27034/1304 $
53144K9L2 9L220160425053512604/25/16 05:35:31  5-MIN K9L2 251335Z AUTO 26021G27KT 10SM CLR 09/M01 A2982 2400 51 2300 250/21G27 RMK AO2 PK WND 27034/1304 $
53144K9L2 9L220160425054012604/25/16 05:40:31  5-MIN K9L2 251340Z AUTO 27022G30KT 10SM CLR 09/M01 A2982 2400 51 2300 250/22G30 RMK AO2 PK WND 27034/1304 $
53144K9L2 9L220160425054512604/25/16 05:45:31  5-MIN K9L2 251345Z AUTO 27021G30KT 10SM CLR 09/M01 A2981 2400 47 2300 260/21G30 RMK AO2 PK WND 27034/1304 $
53144K9L2 9L220160425055012604/25/16 05:50:31  5-MIN K9L2 251350Z AUTO 27020G30KT 10SM CLR 09/M01 A2982 2400 47 2300 260/20G30 RMK AO2 PK WND 27034/1304 $
53144K9L2 9L220160425055514304/25/16 05:55:31  5-MIN K9L2 251355Z AUTO 26022G27KT 10SM CLR 09/M01 A2981 2400 47 2300 250/22G27 RMK AO2 PK WND 27034/1304 SLP093 T00941011 $
53144K9L2 9L220160425060012604/25/16 06:00:31  5-MIN K9L2 251400Z AUTO 26020G30KT 10SM CLR 09/M01 A2982 2400 51 2300 250/20G30 RMK AO2 PK WND 27028/1359 $
53144K9L2 9L220160425060512604/25/16 06:05:31  5-MIN K9L2 251405Z AUTO 26018G31KT 10SM CLR 09/M01 A2982 2400 51 2300 240/18G31 RMK AO2 PK WND 26031/1403 $
53144K9L2 9L220160425061012604/25/16 06:10:31  5-MIN K9L2 251410Z AUTO 26021G31KT 10SM CLR 09/M01 A2982 2400 51 2300 250/21G31 RMK AO2 PK WND 26031/1403 $
53144K9L2 9L220160425061512604/25/16 06:15:31  5-MIN K9L2 251415Z AUTO 26021G30KT 10SM CLR 09/M01 A2982 2390 51 2300 250/21G30 RMK AO2 PK WND 26031/1403 $
53144K9L2 9L220160425062012504/25/16 06:20:31  5-MIN K9L2 251420Z AUTO 26025G30KT 10SM CLR 09/00 A2982 2390 53 2300 250/25G30 RMK AO2 PK WND 26031/1403 $
53144K9L2 9L220160425062512504/25/16 06:25:31  5-MIN K9L2 251425Z AUTO 26022G30KT 10SM CLR 09/00 A2983 2390 53 2300 250/22G30 RMK AO2 PK WND 26031/1403 $
53144K9L2 9L220160425063012604/25/16 06:30:31  5-MIN K9L2 251430Z AUTO 26019G29KT 10SM CLR 09/M01 A2983 2380 51 2300 250/19G29 RMK AO2 PK WND 26031/1403 $
53144K9L2 9L220160425063512604/25/16 06:35:31  5-MIN K9L2 251435Z AUTO 26020G29KT 10SM CLR 09/M01 A2983 2380 51 2300 250/20G29 RMK AO2 PK WND 26031/1403 $
53144K9L2 9L220160425064012604/25/16 06:40:31  5-MIN K9L2 251440Z AUTO 26021G28KT 10SM CLR 09/M01 A2983 2390 49 2300 250/21G28 RMK AO2 PK WND 26031/1403 $
53144K9L2 9L220160425064512604/25/16 06:45:31  5-MIN K9L2 251445Z AUTO 26024G30KT 10SM CLR 09/M01 A2983 2390 49 2300 250/24G30 RMK AO2 PK WND 26031/1403 $
53144K9L2 9L220160425065012604/25/16 06:50:31  5-MIN K9L2 251450Z AUTO 26020G30KT 10SM CLR 10/M01 A2984 2380 47 2400 250/20G30 RMK AO2 PK WND 26031/1403 $
53144K9L2 9L220160425070010804/25/16 07:00:31  5-MIN K9L2 251500Z AUTO 26021G26KT 10SM CLR 10/M01 A2984 2380 47 2400 250/21G26 RMK AO2 $
53144K9L2 9L220160425070512604/25/16 07:05:31  5-MIN K9L2 251505Z AUTO 26017G26KT 10SM CLR 10/M01 A2985 2370 47 2400 240/17G26 RMK AO2 PK WND 26026/1502 $
53144K9L2 9L220160425071012504/25/16 07:10:31  5-MIN K9L2 251510Z AUTO 26021G26KT 10SM CLR 10/00 A2985 2370 49 2400 250/21G26 RMK AO2 PK WND 26026/1510 $
53144K9L2 9L220160425071512504/25/16 07:15:31  5-MIN K9L2 251515Z AUTO 25021G27KT 10SM CLR 11/00 A2985 2370 48 2400 240/21G27 RMK AO2 PK WND 25027/1511 $
53144K9L2 9L220160425072012504/25/16 07:20:31  5-MIN K9L2 251520Z AUTO 26020G27KT 10SM CLR 11/00 A2985 2370 48 2400 250/20G27 RMK AO2 PK WND 25027/1511 $
53144K9L2 9L220160425072512504/25/16 07:25:31  5-MIN K9L2 251525Z AUTO 26025G31KT 10SM CLR 11/00 A2985 2370 48 2400 250/25G31 RMK AO2 PK WND 26031/1525 $
53144K9L2 9L220160425073012504/25/16 07:30:31  5-MIN K9L2 251530Z AUTO 27025G31KT 10SM CLR 11/00 A2985 2370 48 2400 250/25G31 RMK AO2 PK WND 26031/1525 $
53144K9L2 9L220160425073512504/25/16 07:35:31  5-MIN K9L2 251535Z AUTO 26024G31KT 10SM CLR 11/00 A2985 2370 48 2400 240/24G31 RMK AO2 PK WND 25031/1534 $
53144K9L2 9L220160425074012504/25/16 07:40:31  5-MIN K9L2 251540Z AUTO 26022G31KT 10SM CLR 11/00 A2985 2370 46 2500 240/22G31 RMK AO2 PK WND 25031/1534 $
53144K9L2 9L220160425074512504/25/16 07:45:31  5-MIN K9L2 251545Z AUTO 26026G31KT 10SM CLR 11/00 A2985 2370 46 2500 250/26G31 RMK AO2 PK WND 26031/1543 $
53144K9L2 9L220160425075012504/25/16 07:50:31  5-MIN K9L2 251550Z AUTO 25024G31KT 10SM CLR 11/00 A2985 2370 46 2500 240/24G31 RMK AO2 PK WND 26031/1548 $
53144K9L2 9L220160425075514204/25/16 07:55:31  5-MIN K9L2 251555Z AUTO 26023G31KT 10SM CLR 11/00 A2985 2370 46 2500 250/23G31 RMK AO2 PK WND 26031/1548 SLP105 T01110000 $
53144K9L2 9L220160425080012504/25/16 08:00:31  5-MIN K9L2 251600Z AUTO 25026G34KT 10SM CLR 12/00 A2985 2370 44 2600 240/26G34 RMK AO2 PK WND 25034/1600 $
53144K9L2 9L220160425080512504/25/16 08:05:31  5-MIN K9L2 251605Z AUTO 25024G34KT 10SM CLR 12/00 A2985 2370 44 2600 240/24G34 RMK AO2 PK WND 25034/1600 $
53144K9L2 9L220160425081012504/25/16 08:10:31  5-MIN K9L2 251610Z AUTO 25024G32KT 10SM CLR 12/00 A2985 2370 44 2600 240/24G32 RMK AO2 PK WND 25034/1600 $
53144K9L2 9L220160425081512504/25/16 08:15:31  5-MIN K9L2 251615Z AUTO 24026G30KT 10SM CLR 12/00 A2985 2370 44 2600 230/26G30 RMK AO2 PK WND 25034/1600 $
53144K9L2 9L220160425082012504/25/16 08:20:31  5-MIN K9L2 251620Z AUTO 26023G32KT 10SM CLR 12/00 A2985 2370 44 2600 250/23G32 RMK AO2 PK WND 25034/1600 $
53144K9L2 9L220160425082512504/25/16 08:25:31  5-MIN K9L2 251625Z AUTO 25022G32KT 10SM CLR 12/00 A2985 2370 43 2600 240/22G32 RMK AO2 PK WND 25034/1600 $
53144K9L2 9L220160425083012504/25/16 08:30:31  5-MIN K9L2 251630Z AUTO 28025G32KT 10SM CLR 12/00 A2985 2370 43 2600 260/25G32 RMK AO2 PK WND 25034/1600 $
53144K9L2 9L220160425083512504/25/16 08:35:31  5-MIN K9L2 251635Z AUTO 25021G32KT 10SM CLR 12/00 A2985 2370 43 2600 240/21G32 RMK AO2 PK WND 25034/1600 $
53144K9L2 9L220160425084012504/25/16 08:40:31  5-MIN K9L2 251640Z AUTO 26019G32KT 10SM CLR 12/00 A2985 2370 43 2600 240/19G32 RMK AO2 PK WND 25034/1600 $
53144K9L2 9L220160425084512504/25/16 08:45:31  5-MIN K9L2 251645Z AUTO 27026G31KT 10SM CLR 13/00 A2984 2380 41 2700 250/26G31 RMK AO2 PK WND 25034/1600 $
53144K9L2 9L220160425085012604/25/16 08:50:31  5-MIN K9L2 251650Z AUTO 26026G31KT 10SM CLR 13/M01 A2984 2380 39 2700 250/26G31 RMK AO2 PK WND 25034/1600 $
53144K9L2 9L220160425085514304/25/16 08:55:31  5-MIN K9L2 251655Z AUTO 26028G33KT 10SM CLR 13/M01 A2984 2380 39 2700 250/28G33 RMK AO2 PK WND 25034/1600 SLP100 T01281006 $
53144K9L2 9L220160425090012604/25/16 09:00:31  5-MIN K9L2 251700Z AUTO 27025G33KT 10SM CLR 13/M01 A2984 2380 38 2800 260/25G33 RMK AO2 PK WND 27030/1657 $
53144K9L2 9L220160425090512604/25/16 09:05:31  5-MIN K9L2 251705Z AUTO 27023G31KT 10SM CLR 13/M01 A2984 2380 39 2700 250/23G31 RMK AO2 PK WND 25031/1703 $
53144K9L2 9L220160425091012604/25/16 09:10:31  5-MIN K9L2 251710Z AUTO 27027G32KT 10SM CLR 13/M01 A2984 2370 38 2800 260/27G32 RMK AO2 PK WND 27032/1710 $
53144K9L2 9L220160425091512604/25/16 09:15:31  5-MIN K9L2 251715Z AUTO 27023G32KT 10SM CLR 13/M01 A2985 2370 38 2800 260/23G32 RMK AO2 PK WND 27032/1710 $
53144K9L2 9L220160425092012604/25/16 09:20:31  5-MIN K9L2 251720Z AUTO 28025G33KT 10SM CLR 13/M01 A2985 2370 38 2800 260/25G33 RMK AO2 PK WND 28033/1720 $
53144K9L2 9L220160425092512604/25/16 09:25:31  5-MIN K9L2 251725Z AUTO 28024G33KT 10SM CLR 13/M01 A2985 2370 36 2800 270/24G33 RMK AO2 PK WND 28033/1720 $
53144K9L2 9L220160425093012604/25/16 09:30:31  5-MIN K9L2 251730Z AUTO 29023G31KT 10SM CLR 14/M01 A2984 2370 35 2800 270/23G31 RMK AO2 PK WND 28033/1720 $
53144K9L2 9L220160425093512604/25/16 09:35:31  5-MIN K9L2 251735Z AUTO 30026G31KT 10SM CLR 14/M01 A2984 2380 34 2900 290/26G31 RMK AO2 PK WND 28033/1720 $
53144K9L2 9L220160425094012604/25/16 09:40:31  5-MIN K9L2 251740Z AUTO 28020G31KT 10SM CLR 13/M01 A2984 2380 36 2800 270/20G31 RMK AO2 PK WND 28033/1720 $
53144K9L2 9L220160425094512604/25/16 09:45:31  5-MIN K9L2 251745Z AUTO 28021G29KT 10SM CLR 14/M01 A2984 2380 37 2800 260/21G29 RMK AO2 PK WND 28033/1720 $
53144K9L2 9L220160425095012604/25/16 09:50:31  5-MIN K9L2 251750Z AUTO 26024G29KT 10SM CLR 14/M01 A2984 2380 37 2800 250/24G29 RMK AO2 PK WND 28033/1720 $
53144K9L2 9L220160425095516104/25/16 09:55:31  5-MIN K9L2 251755Z AUTO 27023G33KT 10SM CLR 14/M01 A2984 2380 37 2800 250/23G33 RMK AO2 PK WND 27033/1755 SLP101 T01391006 10144 20078 53014 $
53144K9L2 9L220160425100012604/25/16 10:00:31  5-MIN K9L2 251800Z AUTO 27022G33KT 10SM CLR 14/M01 A2984 2370 35 2900 250/22G33 RMK AO2 PK WND 27031/1800 $
53144K9L2 9L220160425100512604/25/16 10:05:31  5-MIN K9L2 251805Z AUTO 27021G32KT 10SM CLR 15/M01 A2985 2370 33 3000 260/21G32 RMK AO2 PK WND 27032/1803 $
53144K9L2 9L220160425101012604/25/16 10:10:31  5-MIN K9L2 251810Z AUTO 26023G32KT 10SM CLR 15/M01 A2985 2370 33 3000 240/23G32 RMK AO2 PK WND 27032/1803 $
53144K9L2 9L220160425101512604/25/16 10:15:31  5-MIN K9L2 251815Z AUTO 28026G32KT 10SM CLR 16/M01 A2986 2360 31 3000 260/26G32 RMK AO2 PK WND 28032/1815 $
53144K9L2 9L220160425102012604/25/16 10:20:31  5-MIN K9L2 251820Z AUTO 27017G32KT 10SM CLR 15/M02 A2986 2360 31 2900 260/17G32 RMK AO2 PK WND 28032/1815 $
53144K9L2 9L220160425102512904/25/16 10:25:31  5-MIN K9L2 251825Z AUTO 27017G25KT 10SM FEW034 15/M01 A2986 2360 33 2900 250/17G25 RMK AO2 PK WND 28032/1815 $
53144K9L2 9L220160425103012904/25/16 10:30:31  5-MIN K9L2 251830Z AUTO 29019G25KT 10SM FEW034 15/M01 A2986 2360 33 2900 270/19G25 RMK AO2 PK WND 28032/1815 $
53144K9L2 9L220160425103512604/25/16 10:35:31  5-MIN K9L2 251835Z AUTO 28020G28KT 10SM CLR 15/M02 A2986 2360 31 2900 270/20G28 RMK AO2 PK WND 28032/1815 $
53144K9L2 9L220160425104012604/25/16 10:40:31  5-MIN K9L2 251840Z AUTO 27022G28KT 10SM CLR 15/M02 A2985 2360 31 3000 250/22G28 RMK AO2 PK WND 28032/1815 $
53144K9L2 9L220160425104512904/25/16 10:45:31  5-MIN K9L2 251845Z AUTO 28023G29KT 10SM FEW034 14/M02 A2985 2370 33 2900 260/23G29 RMK AO2 PK WND 28032/1815 $
53144K9L2 9L220160425105012904/25/16 10:50:31  5-MIN K9L2 251850Z AUTO 27023G30KT 10SM FEW034 15/M01 A2985 2370 33 3000 260/23G30 RMK AO2 PK WND 28032/1815 $
53144K9L2 9L220160425105514604/25/16 10:55:31  5-MIN K9L2 251855Z AUTO 26026G33KT 10SM FEW032 15/M02 A2984 2380 31 3000 250/26G33 RMK AO2 PK WND 27033/1852 SLP101 T01501017 $
53144K9L2 9L220160425110012904/25/16 11:00:31  5-MIN K9L2 251900Z AUTO 28025G33KT 10SM FEW034 15/M01 A2984 2370 33 3000 260/25G33 RMK AO2 PK WND 28032/1900 $
53144K9L2 9L220160425110512904/25/16 11:05:31  5-MIN K9L2 251905Z AUTO 26025G32KT 10SM FEW027 15/M01 A2984 2380 33 3000 250/25G32 RMK AO2 PK WND 26032/1904 $
53144K9L2 9L220160425111012904/25/16 11:10:31  5-MIN K9L2 251910Z AUTO 26023G32KT 10SM FEW027 15/M01 A2984 2380 33 3000 250/23G32 RMK AO2 PK WND 26032/1904 $
53144K9L2 9L220160425111512904/25/16 11:15:31  5-MIN K9L2 251915Z AUTO 26024G31KT 10SM FEW029 16/M01 A2984 2380 31 3000 250/24G31 RMK AO2 PK WND 26032/1904 $
53144K9L2 9L220160425112012904/25/16 11:20:31  5-MIN K9L2 251920Z AUTO 26022G32KT 10SM FEW029 16/M01 A2983 2380 31 3000 250/22G32 RMK AO2 PK WND 26032/1916 $
53144K9L2 9L220160425112512904/25/16 11:25:31  5-MIN K9L2 251925Z AUTO 26025G32KT 10SM FEW029 16/M02 A2983 2380 29 3100 250/25G32 RMK AO2 PK WND 27032/1921 $
53144K9L2 9L220160425113012904/25/16 11:30:31  5-MIN K9L2 251930Z AUTO 27025G32KT 10SM FEW029 16/M02 A2983 2380 30 3000 260/25G32 RMK AO2 PK WND 27032/1921 $
53144K9L2 9L220160425113512604/25/16 11:35:31  5-MIN K9L2 251935Z AUTO 26027G33KT 10SM CLR 16/M02 A2983 2390 29 3100 240/27G33 RMK AO2 PK WND 26033/1935 $
53144K9L2 9L220160425114012604/25/16 11:40:31  5-MIN K9L2 251940Z AUTO 26028G34KT 10SM CLR 16/M02 A2983 2390 30 3000 250/28G34 RMK AO2 PK WND 26034/1940 $
53144K9L2 9L220160425114512604/25/16 11:45:31  5-MIN K9L2 251945Z AUTO 27027G34KT 10SM CLR 16/M02 A2984 2380 30 3000 260/27G34 RMK AO2 PK WND 26034/1941 $
53144K9L2 9L220160425115012604/25/16 11:50:31  5-MIN K9L2 251950Z AUTO 28024G34KT 10SM CLR 16/M02 A2984 2380 29 3100 270/24G34 RMK AO2 PK WND 26034/1941 $
53144K9L2 9L220160425115514304/25/16 11:55:31  5-MIN K9L2 251955Z AUTO 29024G32KT 10SM CLR 15/M02 A2984 2380 31 3000 270/24G32 RMK AO2 PK WND 26034/1941 SLP101 T01501017 $
53144K9L2 9L220160425120012604/25/16 12:00:31  5-MIN K9L2 252000Z AUTO 28024G33KT 10SM CLR 16/M02 A2984 2380 30 3000 270/24G33 RMK AO2 PK WND 28029/1959 $
53144K9L2 9L220160425120512604/25/16 12:05:31  5-MIN K9L2 252005Z AUTO 28024G33KT 10SM CLR 16/M02 A2984 2380 30 3000 270/24G33 RMK AO2 PK WND 29031/2003 $
53144K9L2 9L220160425121012604/25/16 12:10:31  5-MIN K9L2 252010Z AUTO 28023G31KT 10SM CLR 16/M02 A2984 2380 30 3000 270/23G31 RMK AO2 PK WND 29031/2003 $
53144K9L2 9L220160425121512604/25/16 12:15:31  5-MIN K9L2 252015Z AUTO 29022G30KT 10SM CLR 16/M02 A2984 2380 29 3000 270/22G30 RMK AO2 PK WND 29031/2003 $
53144K9L2 9L220160425122012604/25/16 12:20:31  5-MIN K9L2 252020Z AUTO 29021G28KT 10SM CLR 16/M02 A2984 2380 29 3000 280/21G28 RMK AO2 PK WND 29031/2003 $
53144K9L2 9L220160425122512604/25/16 12:25:31  5-MIN K9L2 252025Z AUTO 31020G28KT 10SM CLR 16/M02 A2984 2380 29 3000 300/20G28 RMK AO2 PK WND 29031/2003 $
53144K9L2 9L220160425123012904/25/16 12:30:31  5-MIN K9L2 252030Z AUTO 30020G28KT 10SM FEW040 16/M02 A2984 2380 28 3100 290/20G28 RMK AO2 PK WND 29031/2003 $
53144K9L2 9L220160425123512904/25/16 12:35:31  5-MIN K9L2 252035Z AUTO 30018G28KT 10SM FEW034 16/M02 A2984 2380 29 3000 290/18G28 RMK AO2 PK WND 29031/2003 $
53144K9L2 9L220160425174512604/25/16 17:45:31  5-MIN K9L2 260145Z AUTO 30018G25KT 10SM CLR 14/M08 A2980 2410 20 2900 290/18G25 RMK AO2 PK WND 31027/0118 $
53144K9L2 9L220160425175012604/25/16 17:50:31  5-MIN K9L2 260150Z AUTO 30017G25KT 10SM CLR 14/M08 A2980 2410 20 2900 280/17G25 RMK AO2 PK WND 31027/0118 $
53144K9L2 9L220160425175514304/25/16 17:55:31  5-MIN K9L2 260155Z AUTO 30018G24KT 10SM CLR 14/M08 A2980 2410 20 2900 290/18G24 RMK AO2 PK WND 31027/0118 SLP091 T01391083 $
53144K9L2 9L220160425180010804/25/16 18:00:31  5-MIN K9L2 260200Z AUTO 30016G23KT 10SM CLR 14/M08 A2980 2410 20 2900 290/16G23 RMK AO2 $
53144K9L2 9L220160425180510804/25/16 18:05:31  5-MIN K9L2 260205Z AUTO 29017G23KT 10SM CLR 14/M08 A2980 2410 20 2900 280/17G23 RMK AO2 $
53144K9L2 9L220160425181010804/25/16 18:10:31  5-MIN K9L2 260210Z AUTO 30014G23KT 10SM CLR 13/M08 A2981 2410 21 2800 290/14G23 RMK AO2 $
53144K9L2 9L220160425181510804/25/16 18:15:31  5-MIN K9L2 260215Z AUTO 31017G23KT 10SM CLR 14/M08 A2981 2400 20 2900 300/17G23 RMK AO2 $
53144K9L2 9L220160425182010804/25/16 18:20:31  5-MIN K9L2 260220Z AUTO 31016G24KT 10SM CLR 13/M09 A2981 2400 20 2800 300/16G24 RMK AO2 $
53144K9L2 9L220160425182510804/25/16 18:25:31  5-MIN K9L2 260225Z AUTO 31014G24KT 10SM CLR 13/M09 A2981 2400 20 2800 300/14G24 RMK AO2 $
53144K9L2 9L220160425183010804/25/16 18:30:31  5-MIN K9L2 260230Z AUTO 30015G22KT 10SM CLR 13/M09 A2981 2400 20 2800 290/15G22 RMK AO2 $
53144K9L2 9L220160425183510804/25/16 18:35:31  5-MIN K9L2 260235Z AUTO 30010G22KT 10SM CLR 13/M09 A2982 2400 21 2700 290/10G22 RMK AO2 $
53144K9L2 9L220160425184010804/25/16 18:40:31  5-MIN K9L2 260240Z AUTO 29014G17KT 10SM CLR 13/M09 A2982 2400 21 2700 280/14G17 RMK AO2 $
53144K9L2 9L220160425184510204/25/16 18:45:31  5-MIN K9L2 260245Z AUTO 29010KT 10SM CLR 13/M09 A2982 2390 21 2700 280/10 RMK AO2 $
53144K9L2 9L220160425185010204/25/16 18:50:31  5-MIN K9L2 260250Z AUTO 29011KT 10SM CLR 12/M09 A2983 2390 22 2700 280/11 RMK AO2 $
53144K9L2 9L220160425185512504/25/16 18:55:31  5-MIN K9L2 260255Z AUTO 29010KT 10SM CLR 12/M09 A2983 2390 22 2700 280/10 RMK AO2 SLP100 T01221089 55013 $
53144K9L2 9L220160425190010804/25/16 19:00:31  5-MIN K9L2 260300Z AUTO 30013G18KT 10SM CLR 12/M09 A2983 2390 22 2700 280/13G18 RMK AO2 $
53144K9L2 9L220160425190510804/25/16 19:05:31  5-MIN K9L2 260305Z AUTO 30014G18KT 10SM CLR 12/M09 A2983 2390 22 2700 290/14G18 RMK AO2 $
53144K9L2 9L220160425191010204/25/16 19:10:31  5-MIN K9L2 260310Z AUTO 29013KT 10SM CLR 12/M09 A2983 2380 22 2700 270/13 RMK AO2 $
53144K9L2 9L220160425191510804/25/16 19:15:31  5-MIN K9L2 260315Z AUTO 29018G22KT 10SM CLR 12/M09 A2983 2380 23 2600 270/18G22 RMK AO2 $
53144K9L2 9L220160425192010804/25/16 19:20:31  5-MIN K9L2 260320Z AUTO 29016G22KT 10SM CLR 12/M08 A2984 2380 24 2600 280/16G22 RMK AO2 $
53144K9L2 9L220160425192510804/25/16 19:25:31  5-MIN K9L2 260325Z AUTO 29017G22KT 10SM CLR 12/M08 A2984 2380 24 2600 280/17G22 RMK AO2 $
53144K9L2 9L220160425193010804/25/16 19:30:31  5-MIN K9L2 260330Z AUTO 29015G21KT 10SM CLR 12/M08 A2984 2370 24 2600 270/15G21 RMK AO2 $
53144K9L2 9L220160425193510204/25/16 19:35:31  5-MIN K9L2 260335Z AUTO 28015KT 10SM CLR 12/M08 A2985 2370 24 2600 270/15 RMK AO2 $
53144K9L2 9L220160425194010204/25/16 19:40:31  5-MIN K9L2 260340Z AUTO 27016KT 10SM CLR 11/M08 A2985 2370 25 2500 260/16 RMK AO2 $
53144K9L2 9L220160425194510204/25/16 19:45:31  5-MIN K9L2 260345Z AUTO 28017KT 10SM CLR 11/M08 A2985 2360 26 2500 270/17 RMK AO2 $
53144K9L2 9L220160425195010804/25/16 19:50:31  5-MIN K9L2 260350Z AUTO 28021G24KT 10SM CLR 11/M08 A2985 2360 26 2500 270/21G24 RMK AO2 $
53144K9L2 9L220160425195514304/25/16 19:55:31  5-MIN K9L2 260355Z AUTO 29019G26KT 10SM CLR 11/M08 A2985 2370 26 2500 280/19G26 RMK AO2 PK WND 28026/0351 SLP109 T01111078 $
53144K9L2 9L220160425200012604/25/16 20:00:31  5-MIN K9L2 260400Z AUTO 29021G28KT 10SM CLR 11/M07 A2985 2360 27 2500 270/21G28 RMK AO2 PK WND 29028/0358 $
53144K9L2 9L220160425200512604/25/16 20:05:31  5-MIN K9L2 260405Z AUTO 29021G28KT 10SM CLR 11/M07 A2985 2360 27 2500 280/21G28 RMK AO2 PK WND 29028/0358 $
53144K9L2 9L220160425201012604/25/16 20:10:31  5-MIN K9L2 260410Z AUTO 29020G27KT 10SM CLR 11/M07 A2986 2360 27 2500 280/20G27 RMK AO2 PK WND 29028/0358 $
53144K9L2 9L220160425201512604/25/16 20:15:31  5-MIN K9L2 260415Z AUTO 29020G28KT 10SM CLR 11/M07 A2986 2360 27 2500 280/20G28 RMK AO2 PK WND 29028/0411 $
53144K9L2 9L220160425202012604/25/16 20:20:31  5-MIN K9L2 260420Z AUTO 29022G28KT 10SM CLR 11/M07 A2986 2360 27 2500 280/22G28 RMK AO2 PK WND 29028/0420 $
53144K9L2 9L220160425202512604/25/16 20:25:31  5-MIN K9L2 260425Z AUTO 29019G28KT 10SM CLR 11/M07 A2986 2360 28 2500 280/19G28 RMK AO2 PK WND 29028/0421 $
53144K9L2 9L220160425203012604/25/16 20:30:31  5-MIN K9L2 260430Z AUTO 29021G28KT 10SM CLR 11/M07 A2986 2360 28 2500 280/21G28 RMK AO2 PK WND 29028/0421 $
53144K9L2 9L220160425203512604/25/16 20:35:31  5-MIN K9L2 260435Z AUTO 29018G27KT 10SM CLR 11/M07 A2987 2350 28 2500 280/18G27 RMK AO2 PK WND 29028/0421 $
53144K9L2 9L220160425204012604/25/16 20:40:31  5-MIN K9L2 260440Z AUTO 29018G24KT 10SM CLR 11/M07 A2987 2350 28 2500 280/18G24 RMK AO2 PK WND 29028/0421 $
53144K9L2 9L220160425204512604/25/16 20:45:31  5-MIN K9L2 260445Z AUTO 28016G24KT 10SM CLR 11/M07 A2987 2350 28 2500 270/16G24 RMK AO2 PK WND 29028/0421 $
53144K9L2 9L220160425205012004/25/16 20:50:31  5-MIN K9L2 260450Z AUTO 28017KT 10SM CLR 11/M07 A2987 2350 28 2500 270/17 RMK AO2 PK WND 29028/0421 $
53144K9L2 9L220160425205513704/25/16 20:55:31  5-MIN K9L2 260455Z AUTO 28018KT 10SM CLR 11/M06 A2987 2350 29 2500 270/18 RMK AO2 PK WND 29028/0421 SLP115 T01111061 $
53144K9L2 9L220160425210010804/25/16 21:00:31  5-MIN K9L2 260500Z AUTO 29017G24KT 10SM CLR 11/M06 A2987 2350 30 2400 270/17G24 RMK AO2 $
53144K9L2 9L220160425210510804/25/16 21:05:31  5-MIN K9L2 260505Z AUTO 29014G22KT 10SM CLR 11/M06 A2988 2340 30 2400 280/14G22 RMK AO2 $
53144K9L2 9L220160425211010204/25/16 21:10:31  5-MIN K9L2 260510Z AUTO 29011KT 10SM CLR 11/M06 A2988 2340 30 2400 280/11 RMK AO2 $
53144K9L2 9L220160425211510204/25/16 21:15:31  5-MIN K9L2 260515Z AUTO 30012KT 10SM CLR 11/M06 A2988 2340 30 2400 280/12 RMK AO2 $
53144K9L2 9L220160425212010204/25/16 21:20:31  5-MIN K9L2 260520Z AUTO 30010KT 10SM CLR 11/M06 A2988 2340 30 2400 290/10 RMK AO2 $
53144K9L2 9L220160425212510204/25/16 21:25:31  5-MIN K9L2 260525Z AUTO 30013KT 10SM CLR 11/M06 A2988 2340 30 2400 290/13 RMK AO2 $
53144K9L2 9L220160425213010204/25/16 21:30:31  5-MIN K9L2 260530Z AUTO 31012KT 10SM CLR 11/M06 A2988 2340 30 2400 290/12 RMK AO2 $
53144K9L2 9L220160425213510804/25/16 21:35:31  5-MIN K9L2 260535Z AUTO 31011G17KT 10SM CLR 11/M06 A2988 2340 30 2400 300/11G17 RMK AO2 $
53144K9L2 9L220160425214010204/25/16 21:40:31  5-MIN K9L2 260540Z AUTO 32010KT 10SM CLR 11/M06 A2988 2340 30 2400 310/10 RMK AO2 $
53144K9L2 9L220160425214510204/25/16 21:45:31  5-MIN K9L2 260545Z AUTO 33008KT 10SM CLR 10/M06 A2989 2340 31 2300 310/08 RMK AO2 $
53144K9L2 9L220160425215010204/25/16 21:50:31  5-MIN K9L2 260550Z AUTO 32008KT 10SM CLR 10/M06 A2988 2340 31 2300 310/08 RMK AO2 $
53144K9L2 9L220160425215513704/25/16 21:55:31  5-MIN K9L2 260555Z AUTO 32009KT 10SM CLR 10/M06 A2988 2340 31 2300 310/09 RMK AO2 SLP118 T01001061 10150 20100 53008 $
53144K9L2 9L220160425220010204/25/16 22:00:31  5-MIN K9L2 260600Z AUTO 32010KT 10SM CLR 10/M06 A2988 2340 31 2300 310/10 RMK AO2 $
53144K9L2 9L220160425220510204/25/16 22:05:31  5-MIN K9L2 260605Z AUTO 31010KT 10SM CLR 10/M06 A2988 2340 31 2300 300/10 RMK AO2 $
53144K9L2 9L220160425221010204/25/16 22:10:31  5-MIN K9L2 260610Z AUTO 31009KT 10SM CLR 10/M06 A2988 2340 31 2300 300/09 RMK AO2 $
53144K9L2 9L220160425221510204/25/16 22:15:31  5-MIN K9L2 260615Z AUTO 31009KT 10SM CLR 10/M06 A2989 2330 31 2300 300/09 RMK AO2 $
53144K9L2 9L220160425222010204/25/16 22:20:31  5-MIN K9L2 260620Z AUTO 30008KT 10SM CLR 10/M06 A2989 2330 31 2300 290/08 RMK AO2 $
53144K9L2 9L220160425222510204/25/16 22:25:31  5-MIN K9L2 260625Z AUTO 31007KT 10SM CLR 10/M06 A2990 2330 31 2300 290/07 RMK AO2 $
53144K9L2 9L220160425223010204/25/16 22:30:31  5-MIN K9L2 260630Z AUTO 30005KT 10SM CLR 10/M06 A2990 2320 31 2300 280/05 RMK AO2 $
53144K9L2 9L220160425223510204/25/16 22:35:31  5-MIN K9L2 260635Z AUTO 30004KT 10SM CLR 10/M06 A2990 2320 31 2300 290/04 RMK AO2 $
53144K9L2 9L220160425224010204/25/16 22:40:31  5-MIN K9L2 260640Z AUTO 27003KT 10SM CLR 10/M06 A2990 2320 31 2300 260/03 RMK AO2 $
53144K9L2 9L220160425224510204/25/16 22:45:31  5-MIN K9L2 260645Z AUTO 20003KT 10SM CLR 09/M06 A2990 2320 34 2200 190/03 RMK AO2 $
53144K9L2 9L220160425225010204/25/16 22:50:31  5-MIN K9L2 260650Z AUTO 19004KT 10SM CLR 08/M07 A2990 2320 34 2100 180/04 RMK AO2 $
53144K9L2 9L220160425225511904/25/16 22:55:31  5-MIN K9L2 260655Z AUTO 19006KT 10SM CLR 09/M07 A2990 2320 32 2200 180/06 RMK AO2 SLP125 T00891067 $
53144K9L2 9L220160425230010204/25/16 23:00:31  5-MIN K9L2 260700Z AUTO 00000KT 10SM CLR 09/M06 A2991 2320 33 2200 000/00 RMK AO2 $
53144K9L2 9L220160425230510204/25/16 23:05:31  5-MIN K9L2 260705Z AUTO VRB03KT 10SM CLR 09/M06 A2991 2310 33 2200 VRB/03 RMK AO2 $
53144K9L2 9L220160425231010204/25/16 23:10:31  5-MIN K9L2 260710Z AUTO 21006KT 10SM CLR 10/M06 A2991 2310 31 2300 200/06 RMK AO2 $
53144K9L2 9L220160425231510204/25/16 23:15:31  5-MIN K9L2 260715Z AUTO 22006KT 10SM CLR 10/M06 A2991 2320 31 2300 200/06 RMK AO2 $
53144K9L2 9L220160425232010204/25/16 23:20:31  5-MIN K9L2 260720Z AUTO 20005KT 10SM CLR 10/M06 A2990 2320 31 2300 180/05 RMK AO2 $
53144K9L2 9L220160425232510204/25/16 23:25:31  5-MIN K9L2 260725Z AUTO 21007KT 10SM CLR 09/M06 A2991 2320 34 2200 200/07 RMK AO2 $
53144K9L2 9L220160425233010204/25/16 23:30:31  5-MIN K9L2 260730Z AUTO 21007KT 10SM CLR 09/M06 A2991 2310 34 2200 190/07 RMK AO2 $
53144K9L2 9L220160425233510204/25/16 23:35:31  5-MIN K9L2 260735Z AUTO 21007KT 10SM CLR 09/M06 A2991 2310 35 2200 200/07 RMK AO2 $
53144K9L2 9L220160425234010204/25/16 23:40:31  5-MIN K9L2 260740Z AUTO 22007KT 10SM CLR 09/M06 A2992 2310 35 2200 200/07 RMK AO2 $
53144K9L2 9L220160425234510204/25/16 23:45:31  5-MIN K9L2 260745Z AUTO 22005KT 10SM CLR 09/M06 A2991 2310 35 2200 210/05 RMK AO2 $
53144K9L2 9L220160425235010204/25/16 23:50:31  5-MIN K9L2 260750Z AUTO 00000KT 10SM CLR 08/M06 A2992 2310 37 2100 000/00 RMK AO2 $
53144K9L2 9L220160425235512904/25/16 23:55:31  5-MIN K9L2 260755Z AUTO 20003KT 10SM CLR 09/M06 A2992 2310 35 2200 190/03 RMK AO2 SLP130 T00891056 401610078 $
53144K9L2 9L220160426000010204/26/16 00:00:31  5-MIN K9L2 260800Z AUTO 24006KT 10SM CLR 08/M06 A2992 2300 37 2100 230/06 RMK AO2 $
53144K9L2 9L220160426000510204/26/16 00:05:31  5-MIN K9L2 260805Z AUTO 25007KT 10SM CLR 09/M05 A2992 2310 37 2200 240/07 RMK AO2 $
53144K9L2 9L220160426001010204/26/16 00:10:31  5-MIN K9L2 260810Z AUTO 24006KT 10SM CLR 09/M05 A2992 2310 37 2200 220/06 RMK AO2 $
53144K9L2 9L220160426001510204/26/16 00:15:31  5-MIN K9L2 260815Z AUTO 22006KT 10SM CLR 09/M05 A2992 2310 37 2200 210/06 RMK AO2 $
53144K9L2 9L220160426002010204/26/16 00:20:31  5-MIN K9L2 260820Z AUTO 23007KT 10SM CLR 08/M06 A2992 2310 37 2100 210/07 RMK AO2 $
53144K9L2 9L220160426002510204/26/16 00:25:31  5-MIN K9L2 260825Z AUTO 22007KT 10SM CLR 08/M06 A2992 2310 37 2100 210/07 RMK AO2 $
53144K9L2 9L220160426003010204/26/16 00:30:31  5-MIN K9L2 260830Z AUTO 22008KT 10SM CLR 08/M06 A2992 2300 37 2100 210/08 RMK AO2 $
53144K9L2 9L220160426003510204/26/16 00:35:31  5-MIN K9L2 260835Z AUTO 23007KT 10SM CLR 08/M05 A2992 2300 38 2100 220/07 RMK AO2 $
53144K9L2 9L220160426004010204/26/16 00:40:31  5-MIN K9L2 260840Z AUTO 23005KT 10SM CLR 08/M05 A2992 2300 38 2100 220/05 RMK AO2 $
53144K9L2 9L220160426004510204/26/16 00:45:31  5-MIN K9L2 260845Z AUTO 00000KT 10SM CLR 08/M06 A2992 2300 38 2000 000/00 RMK AO2 $
53144K9L2 9L220160426005010204/26/16 00:50:31  5-MIN K9L2 260850Z AUTO 23003KT 10SM CLR 07/M06 A2992 2300 40 2000 210/03 RMK AO2 $
53144K9L2 9L220160426005512504/26/16 00:55:31  5-MIN K9L2 260855Z AUTO 23003KT 10SM CLR 08/M05 A2992 2300 40 2000 220/03 RMK AO2 SLP132 T00781050 51018 $
53144K9L2 9L220160426010010204/26/16 01:00:31  5-MIN K9L2 260900Z AUTO 25003KT 10SM CLR 08/M05 A2992 2300 38 2100 230/03 RMK AO2 $
53144K9L2 9L220160426010510204/26/16 01:05:31  5-MIN K9L2 260905Z AUTO 20003KT 10SM CLR 07/M06 A2992 2300 41 1900 190/03 RMK AO2 $
53144K9L2 9L220160426011010204/26/16 01:10:31  5-MIN K9L2 260910Z AUTO 24003KT 10SM CLR 07/M06 A2992 2300 41 1900 230/03 RMK AO2 $
53144K9L2 9L220160426011510204/26/16 01:15:31  5-MIN K9L2 260915Z AUTO 28003KT 10SM CLR 07/M06 A2992 2300 41 1900 260/03 RMK AO2 $
53144K9L2 9L220160426012010204/26/16 01:20:31  5-MIN K9L2 260920Z AUTO 29006KT 10SM CLR 07/M05 A2992 2300 41 2000 280/06 RMK AO2 $
53144K9L2 9L220160426012510204/26/16 01:25:31  5-MIN K9L2 260925Z AUTO VRB04KT 10SM CLR 07/M05 A2992 2300 43 1900 VRB/04 RMK AO2 $
53144K9L2 9L220160426013010204/26/16 01:30:31  5-MIN K9L2 260930Z AUTO 26003KT 10SM CLR 06/M06 A2993 2300 43 1800 250/03 RMK AO2 $
53144K9L2 9L220160426013510204/26/16 01:35:31  5-MIN K9L2 260935Z AUTO 00000KT 10SM CLR 06/M06 A2992 2300 43 1800 000/00 RMK AO2 $
53144K9L2 9L220160426014010204/26/16 01:40:31  5-MIN K9L2 260940Z AUTO 00000KT 10SM CLR 06/M06 A2992 2300 43 1800 000/00 RMK AO2 $
53144K9L2 9L220160426014510204/26/16 01:45:31  5-MIN K9L2 260945Z AUTO 00000KT 10SM CLR 07/M05 A2992 2300 43 1900 000/00 RMK AO2 $
53144K9L2 9L220160426015010204/26/16 01:50:31  5-MIN K9L2 260950Z AUTO 00000KT 10SM CLR 06/M06 A2993 2300 43 1800 000/00 RMK AO2 $
53144K9L2 9L220160426015511904/26/16 01:55:31  5-MIN K9L2 260955Z AUTO 00000KT 10SM CLR 05/M06 A2993 2300 44 1700 000/00 RMK AO2 SLP136 T00501061 $
53144K9L2 9L220160426020010204/26/16 02:00:31  5-MIN K9L2 261000Z AUTO 00000KT 10SM CLR 06/M06 A2993 2300 43 1700 000/00 RMK AO2 $
53144K9L2 9L220160426020510204/26/16 02:05:31  5-MIN K9L2 261005Z AUTO 00000KT 10SM CLR 05/M06 A2993 2290 44 1700 000/00 RMK AO2 $
53144K9L2 9L220160426021010204/26/16 02:10:31  5-MIN K9L2 261010Z AUTO 27003KT 10SM CLR 06/M06 A2993 2290 43 1700 260/03 RMK AO2 $
53144K9L2 9L220160426021510204/26/16 02:15:31  5-MIN K9L2 261015Z AUTO 31004KT 10SM CLR 05/M06 A2993 2290 44 1700 290/04 RMK AO2 $
53144K9L2 9L220160426022010204/26/16 02:20:31  5-MIN K9L2 261020Z AUTO 31004KT 10SM CLR 06/M06 A2993 2300 44 1700 300/04 RMK AO2 $
53144K9L2 9L220160426022510204/26/16 02:25:31  5-MIN K9L2 261025Z AUTO 27003KT 10SM CLR 06/M06 A2993 2290 44 1700 260/03 RMK AO2 $
53144K9L2 9L220160426023010204/26/16 02:30:31  5-MIN K9L2 261030Z AUTO 29006KT 10SM CLR 06/M06 A2993 2290 44 1700 280/06 RMK AO2 $
53144K9L2 9L220160426023510204/26/16 02:35:31  5-MIN K9L2 261035Z AUTO 29006KT 10SM CLR 07/M04 A2993 2300 45 1900 280/06 RMK AO2 $
53144K9L2 9L220160426024010204/26/16 02:40:31  5-MIN K9L2 261040Z AUTO 30006KT 10SM CLR 07/M04 A2993 2290 45 1900 280/06 RMK AO2 $
53144K9L2 9L220160426024510204/26/16 02:45:31  5-MIN K9L2 261045Z AUTO 30004KT 10SM CLR 07/M04 A2993 2290 45 1900 290/04 RMK AO2 $
53144K9L2 9L220160426025010204/26/16 02:50:31  5-MIN K9L2 261050Z AUTO 30004KT 10SM CLR 07/M04 A2993 2300 47 1900 290/04 RMK AO2 $
53144K9L2 9L220160426025511904/26/16 02:55:31  5-MIN K9L2 261055Z AUTO 31003KT 10SM CLR 07/M04 A2993 2300 45 2000 300/03 RMK AO2 SLP133 T00721039 $
53144K9L2 9L220160426030010204/26/16 03:00:31  5-MIN K9L2 261100Z AUTO 33003KT 10SM CLR 08/M03 A2993 2300 43 2100 310/03 RMK AO2 $
53144K9L2 9L220160426030510204/26/16 03:05:31  5-MIN K9L2 261105Z AUTO 00000KT 10SM CLR 08/M03 A2993 2300 43 2100 000/00 RMK AO2 $
53144K9L2 9L220160426031010204/26/16 03:10:31  5-MIN K9L2 261110Z AUTO 10003KT 10SM CLR 07/M04 A2993 2300 45 1900 090/03 RMK AO2 $
53144K9L2 9L220160426031510204/26/16 03:15:31  5-MIN K9L2 261115Z AUTO 00000KT 10SM CLR 06/M06 A2993 2300 43 1700 000/00 RMK AO2 $
53144K9L2 9L220160426032010204/26/16 03:20:31  5-MIN K9L2 261120Z AUTO 27003KT 10SM CLR 07/M04 A2992 2300 43 2000 250/03 RMK AO2 $
53144K9L2 9L220160426032510204/26/16 03:25:31  5-MIN K9L2 261125Z AUTO 30004KT 10SM CLR 07/M04 A2992 2300 45 1900 290/04 RMK AO2 $
53144K9L2 9L220160426033010204/26/16 03:30:31  5-MIN K9L2 261130Z AUTO 32004KT 10SM CLR 07/M04 A2993 2300 45 1900 300/04 RMK AO2 $
53144K9L2 9L220160426033510204/26/16 03:35:31  5-MIN K9L2 261135Z AUTO 07003KT 10SM CLR 06/M05 A2993 2300 46 1700 060/03 RMK AO2 $
53144K9L2 9L220160426034010204/26/16 03:40:31  5-MIN K9L2 261140Z AUTO 00000KT 10SM CLR 06/M05 A2993 2300 45 1800 000/00 RMK AO2 $
53144K9L2 9L220160426034510204/26/16 03:45:31  5-MIN K9L2 261145Z AUTO 00000KT 10SM CLR 06/M06 A2992 2300 44 1800 000/00 RMK AO2 $
53144K9L2 9L220160426035010204/26/16 03:50:31  5-MIN K9L2 261150Z AUTO 00000KT 10SM CLR 06/M06 A2993 2300 44 1700 000/00 RMK AO2 $
53144K9L2 9L220160426035513704/26/16 03:55:31  5-MIN K9L2 261155Z AUTO 00000KT 10SM CLR 06/M05 A2993 2300 45 1800 000/00 RMK AO2 SLP137 T00611050 10100 20050 51013 $
53144K9L2 9L220160426040010204/26/16 04:00:31  5-MIN K9L2 261200Z AUTO 00000KT 10SM CLR 06/M06 A2993 2300 43 1800 000/00 RMK AO2 $
53144K9L2 9L220160426040510204/26/16 04:05:31  5-MIN K9L2 261205Z AUTO 30003KT 10SM CLR 04/M06 A2993 2300 48 1600 280/03 RMK AO2 $
53144K9L2 9L220160426041010204/26/16 04:10:31  5-MIN K9L2 261210Z AUTO VRB03KT 10SM CLR 04/M06 A2993 2300 48 1600 VRB/03 RMK AO2 $
53144K9L2 9L220160426041510204/26/16 04:15:31  5-MIN K9L2 261215Z AUTO 12003KT 10SM CLR 05/M06 A2993 2300 44 1700 110/03 RMK AO2 $
53144K9L2 9L220160426042010204/26/16 04:20:31  5-MIN K9L2 261220Z AUTO 18004KT 10SM CLR 06/M06 A2993 2300 44 1700 170/04 RMK AO2 $
53144K9L2 9L220160426042510204/26/16 04:25:31  5-MIN K9L2 261225Z AUTO 21005KT 10SM CLR 06/M05 A2993 2300 45 1800 200/05 RMK AO2 $
53144K9L2 9L220160426043010204/26/16 04:30:31  5-MIN K9L2 261230Z AUTO 24003KT 10SM CLR 07/M04 A2993 2300 43 1900 230/03 RMK AO2 $
53144K9L2 9L220160426043510204/26/16 04:35:31  5-MIN K9L2 261235Z AUTO 23005KT 10SM CLR 07/M04 A2993 2300 45 1900 210/05 RMK AO2 $
53144K9L2 9L220160426044010204/26/16 04:40:31  5-MIN K9L2 261240Z AUTO 21004KT 10SM CLR 06/M04 A2993 2290 46 1800 200/04 RMK AO2 $
53144K9L2 9L220160426044510204/26/16 04:45:31  5-MIN K9L2 261245Z AUTO 20004KT 10SM CLR 06/M04 A2993 2290 46 1800 190/04 RMK AO2 $
53144K9L2 9L220160426045010204/26/16 04:50:31  5-MIN K9L2 261250Z AUTO 23005KT 10SM CLR 06/M04 A2993 2300 46 1800 220/05 RMK AO2 $
53144K9L2 9L220160426045511904/26/16 04:55:31  5-MIN K9L2 261255Z AUTO 24005KT 10SM CLR 05/M05 A2993 2300 48 1700 230/05 RMK AO2 SLP136 T00501050 $
53144K9L2 9L220160426050010204/26/16 05:00:31  5-MIN K9L2 261300Z AUTO 26006KT 10SM CLR 04/M05 A2993 2290 50 1600 240/06 RMK AO2 $
53144K9L2 9L220160426050510204/26/16 05:05:31  5-MIN K9L2 261305Z AUTO 29004KT 10SM CLR 04/M05 A2993 2290 50 1600 270/04 RMK AO2 $
53144K9L2 9L220160426051010204/26/16 05:10:31  5-MIN K9L2 261310Z AUTO 00000KT 10SM CLR 04/M05 A2993 2290 50 1600 000/00 RMK AO2 $
53144K9L2 9L220160426051510204/26/16 05:15:31  5-MIN K9L2 261315Z AUTO 00000KT 10SM CLR 04/M05 A2994 2290 50 1600 000/00 RMK AO2 $
53144K9L2 9L220160426052010204/26/16 05:20:31  5-MIN K9L2 261320Z AUTO 00000KT 10SM CLR 04/M06 A2994 2280 50 1500 000/00 RMK AO2 $
53144K9L2 9L220160426052510204/26/16 05:25:31  5-MIN K9L2 261325Z AUTO 00000KT 10SM CLR 03/M06 A2994 2280 52 1500 000/00 RMK AO2 $
53144K9L2 9L220160426053010204/26/16 05:30:31  5-MIN K9L2 261330Z AUTO 00000KT 10SM CLR 03/M06 A2994 2280 52 1500 000/00 RMK AO2 $
53144K9L2 9L220160426053510204/26/16 05:35:31  5-MIN K9L2 261335Z AUTO 00000KT 10SM CLR 04/M06 A2995 2280 50 1500 000/00 RMK AO2 $
53144K9L2 9L220160426054010204/26/16 05:40:31  5-MIN K9L2 261340Z AUTO 00000KT 10SM CLR 04/M06 A2995 2280 48 1600 000/00 RMK AO2 $
53144K9L2 9L220160426054510204/26/16 05:45:31  5-MIN K9L2 261345Z AUTO 00000KT 10SM CLR 05/M06 A2995 2280 46 1700 000/00 RMK AO2 $
53144K9L2 9L220160426055010204/26/16 05:50:31  5-MIN K9L2 261350Z AUTO 00000KT 10SM CLR 05/M06 A2995 2270 46 1700 000/00 RMK AO2 $
53144K9L2 9L220160426055511904/26/16 05:55:31  5-MIN K9L2 261355Z AUTO 00000KT 10SM CLR 06/M06 A2995 2270 44 1700 000/00 RMK AO2 SLP145 T00561056 $
53144K9L2 9L220160426060010204/26/16 06:00:31  5-MIN K9L2 261400Z AUTO 00000KT 10SM CLR 06/M05 A2995 2270 45 1800 000/00 RMK AO2 $
53144K9L2 9L220160426060510204/26/16 06:05:31  5-MIN K9L2 261405Z AUTO 00000KT 10SM CLR 06/M05 A2996 2270 45 1800 000/00 RMK AO2 $
53144K9L2 9L220160426061010204/26/16 06:10:31  5-MIN K9L2 261410Z AUTO 00000KT 10SM CLR 07/M05 A2996 2270 43 1800 000/00 RMK AO2 $
53144K9L2 9L220160426061510204/26/16 06:15:31  5-MIN K9L2 261415Z AUTO 00000KT 10SM CLR 07/M05 A2996 2270 43 1800 000/00 RMK AO2 $
53144K9L2 9L220160426062010204/26/16 06:20:31  5-MIN K9L2 261420Z AUTO 22003KT 10SM CLR 07/M04 A2996 2270 43 1900 210/03 RMK AO2 $
53144K9L2 9L220160426062510204/26/16 06:25:31  5-MIN K9L2 261425Z AUTO 18004KT 10SM CLR 08/M04 A2996 2270 40 2000 160/04 RMK AO2 $
53144K9L2 9L220160426063010204/26/16 06:30:31  5-MIN K9L2 261430Z AUTO 20004KT 10SM CLR 08/M04 A2996 2270 42 2000 190/04 RMK AO2 $
53144K9L2 9L220160426063510204/26/16 06:35:31  5-MIN K9L2 261435Z AUTO 20005KT 10SM CLR 09/M04 A2996 2270 39 2200 190/05 RMK AO2 $
53144K9L2 9L220160426064010204/26/16 06:40:31  5-MIN K9L2 261440Z AUTO 19004KT 10SM CLR 10/M03 A2996 2270 39 2200 180/04 RMK AO2 $
53144K9L2 9L220160426064510204/26/16 06:45:31  5-MIN K9L2 261445Z AUTO 19005KT 10SM CLR 11/M03 A2996 2270 37 2300 170/05 RMK AO2 $
53144K9L2 9L220160426065010204/26/16 06:50:31  5-MIN K9L2 261450Z AUTO 18008KT 10SM CLR 11/M03 A2996 2270 37 2300 170/08 RMK AO2 $
53144K9L2 9L220160426065512504/26/16 06:55:31  5-MIN K9L2 261455Z AUTO 19008KT 10SM CLR 11/M03 A2996 2270 37 2300 170/08 RMK AO2 SLP144 T01061033 51002 $
53144K9L2 9L220160426070010204/26/16 07:00:31  5-MIN K9L2 261500Z AUTO 19007KT 10SM CLR 11/M03 A2996 2270 37 2400 170/07 RMK AO2 $
53144K9L2 9L220160426070510204/26/16 07:05:31  5-MIN K9L2 261505Z AUTO 18005KT 10SM CLR 11/M03 A2996 2270 37 2400 160/05 RMK AO2 $
53144K9L2 9L220160426071010204/26/16 07:10:31  5-MIN K9L2 261510Z AUTO 16005KT 10SM CLR 12/M03 A2996 2270 36 2400 150/05 RMK AO2 $
53144K9L2 9L220160426071510204/26/16 07:15:31  5-MIN K9L2 261515Z AUTO 16004KT 10SM CLR 12/M03 A2996 2270 36 2400 150/04 RMK AO2 $
53144K9L2 9L220160426072010204/26/16 07:20:31  5-MIN K9L2 261520Z AUTO 18004KT 10SM CLR 12/M02 A2996 2270 36 2500 160/04 RMK AO2 $
53144K9L2 9L220160426072510204/26/16 07:25:31  5-MIN K9L2 261525Z AUTO 00000KT 10SM CLR 12/M02 A2996 2270 36 2500 000/00 RMK AO2 $
53144K9L2 9L220160426073010204/26/16 07:30:31  5-MIN K9L2 261530Z AUTO 00000KT 10SM CLR 13/M02 A2996 2270 35 2600 000/00 RMK AO2 $
53144K9L2 9L220160426073510204/26/16 07:35:31  5-MIN K9L2 261535Z AUTO 00000KT 10SM CLR 13/M02 A2996 2270 34 2600 000/00 RMK AO2 $
53144K9L2 9L220160426074010204/26/16 07:40:31  5-MIN K9L2 261540Z AUTO VRB03KT 10SM CLR 13/M02 A2996 2270 34 2600 VRB/03 RMK AO2 $
53144K9L2 9L220160426074510204/26/16 07:45:31  5-MIN K9L2 261545Z AUTO 00000KT 10SM CLR 13/M02 A2996 2270 34 2600 000/00 RMK AO2 $
53144K9L2 9L220160426075010204/26/16 07:50:31  5-MIN K9L2 261550Z AUTO 00000KT 10SM CLR 14/M02 A2996 2270 32 2700 000/00 RMK AO2 $
53144K9L2 9L220160426075511904/26/16 07:55:31  5-MIN K9L2 261555Z AUTO 00000KT 10SM CLR 14/M02 A2996 2270 32 2700 000/00 RMK AO2 SLP144 T01391022 $
53144K9L2 9L220160426080010204/26/16 08:00:31  5-MIN K9L2 261600Z AUTO 00000KT 10SM CLR 14/M02 A2996 2260 32 2700 000/00 RMK AO2 $
53144K9L2 9L220160426080510204/26/16 08:05:31  5-MIN K9L2 261605Z AUTO 00000KT 10SM CLR 14/M02 A2996 2260 31 2800 000/00 RMK AO2 $
53144K9L2 9L220160426081010204/26/16 08:10:31  5-MIN K9L2 261610Z AUTO 00000KT 10SM CLR 14/M02 A2996 2270 31 2800 000/00 RMK AO2 $
53144K9L2 9L220160426081510204/26/16 08:15:31  5-MIN K9L2 261615Z AUTO 00000KT 10SM CLR 14/M02 A2996 2270 31 2800 000/00 RMK AO2 $
53144K9L2 9L220160426082010204/26/16 08:20:31  5-MIN K9L2 261620Z AUTO 00000KT 10SM CLR 15/M02 A2996 2270 30 2800 000/00 RMK AO2 $
53144K9L2 9L220160426082510204/26/16 08:25:31  5-MIN K9L2 261625Z AUTO 00000KT 10SM CLR 16/M02 A2996 2260 29 2900 000/00 RMK AO2 $
53144K9L2 9L220160426083010204/26/16 08:30:31  5-MIN K9L2 261630Z AUTO 00000KT 10SM CLR 16/M02 A2996 2260 28 3000 000/00 RMK AO2 $
53144K9L2 9L220160426083510204/26/16 08:35:31  5-MIN K9L2 261635Z AUTO VRB04KT 10SM CLR 16/M03 A2996 2260 28 2900 VRB/04 RMK AO2 $
53144K9L2 9L220160426084010204/26/16 08:40:31  5-MIN K9L2 261640Z AUTO VRB03KT 10SM CLR 16/M03 A2996 2260 28 2900 VRB/03 RMK AO2 $
53144K9L2 9L220160426084510204/26/16 08:45:31  5-MIN K9L2 261645Z AUTO 29003KT 10SM CLR 16/M03 A2996 2260 27 3000 270/03 RMK AO2 $
53144K9L2 9L220160426085010204/26/16 08:50:31  5-MIN K9L2 261650Z AUTO 00000KT 10SM CLR 16/M03 A2996 2260 27 3000 000/00 RMK AO2 $
53144K9L2 9L220160426085511904/26/16 08:55:31  5-MIN K9L2 261655Z AUTO 00000KT 10SM CLR 16/M03 A2996 2260 27 3000 000/00 RMK AO2 SLP142 T01611028 $
53144K9L2 9L220160426090010204/26/16 09:00:31  5-MIN K9L2 261700Z AUTO 00000KT 10SM CLR 17/M03 A2996 2260 25 3100 000/00 RMK AO2 $
53144K9L2 9L220160426090510204/26/16 09:05:31  5-MIN K9L2 261705Z AUTO 33007KT 10SM CLR 18/M03 A2996 2260 24 3100 310/07 RMK AO2 $
53144K9L2 9L220160426091010204/26/16 09:10:31  5-MIN K9L2 261710Z AUTO 34006KT 10SM CLR 18/M03 A2996 2270 24 3200 320/06 RMK AO2 $
53144K9L2 9L220160426091510204/26/16 09:15:31  5-MIN K9L2 261715Z AUTO VRB06KT 10SM CLR 18/M03 A2996 2260 23 3100 VRB/06 RMK AO2 $
53144K9L2 9L220160426092010204/26/16 09:20:31  5-MIN K9L2 261720Z AUTO 00000KT 10SM CLR 18/M03 A2997 2260 23 3100 000/00 RMK AO2 $
53144K9L2 9L220160426092510204/26/16 09:25:31  5-MIN K9L2 261725Z AUTO 25004KT 10SM CLR 18/M03 A2997 2260 23 3100 240/04 RMK AO2 $
53144K9L2 9L220160426093010204/26/16 09:30:31  5-MIN K9L2 261730Z AUTO 00000KT 10SM CLR 17/M03 A2997 2260 24 3100 000/00 RMK AO2 $
53144K9L2 9L220160426093510204/26/16 09:35:31  5-MIN K9L2 261735Z AUTO 16005KT 10SM CLR 17/M03 A2997 2260 25 3100 150/05 RMK AO2 $
53144K9L2 9L220160426094010204/26/16 09:40:31  5-MIN K9L2 261740Z AUTO VRB03KT 10SM CLR 17/M03 A2997 2260 25 3100 VRB/03 RMK AO2 $
53144K9L2 9L220160426094510204/26/16 09:45:31  5-MIN K9L2 261745Z AUTO 28003KT 10SM CLR 18/M04 A2997 2260 22 3100 260/03 RMK AO2 $
53144K9L2 9L220160426095010204/26/16 09:50:31  5-MIN K9L2 261750Z AUTO 00000KT 10SM CLR 18/M04 A2997 2260 22 3100 000/00 RMK AO2 $
53144K9L2 9L220160426095513704/26/16 09:55:31  5-MIN K9L2 261755Z AUTO 30006KT 10SM CLR 19/M04 A2997 2260 21 3300 290/06 RMK AO2 SLP143 T01891039 10189 20033 53009 $
53144K9L2 9L220160426100010204/26/16 10:00:31  5-MIN K9L2 261800Z AUTO 28005KT 10SM CLR 19/M04 A2997 2260 21 3300 270/05 RMK AO2 $
53144K9L2 9L220160426100510204/26/16 10:05:31  5-MIN K9L2 261805Z AUTO 33004KT 10SM CLR 19/M04 A2996 2260 21 3300 310/04 RMK AO2 $
53144K9L2 9L220160426101010204/26/16 10:10:31  5-MIN K9L2 261810Z AUTO 00000KT 10SM CLR 19/M04 A2996 2260 20 3300 000/00 RMK AO2 $
53144K9L2 9L220160426101510204/26/16 10:15:31  5-MIN K9L2 261815Z AUTO 00000KT 10SM CLR 19/M04 A2996 2270 21 3300 000/00 RMK AO2 $
53144K9L2 9L220160426102010204/26/16 10:20:31  5-MIN K9L2 261820Z AUTO VRB03KT 10SM CLR 19/M04 A2996 2270 21 3300 VRB/03 RMK AO2 $
53144K9L2 9L220160426102510204/26/16 10:25:31  5-MIN K9L2 261825Z AUTO 23004KT 10SM CLR 19/M04 A2996 2270 20 3300 220/04 RMK AO2 $
53144K9L2 9L220160426103010204/26/16 10:30:31  5-MIN K9L2 261830Z AUTO 22008KT 10SM CLR 21/M04 A2995 2270 18 3500 210/08 RMK AO2 $
53144K9L2 9L220160426103510204/26/16 10:35:31  5-MIN K9L2 261835Z AUTO 22004KT 10SM CLR 19/M04 A2995 2270 19 3300 200/04 RMK AO2 $
53144K9L2 9L220160426104010204/26/16 10:40:31  5-MIN K9L2 261840Z AUTO 00000KT 10SM CLR 19/M04 A2995 2270 21 3300 000/00 RMK AO2 $
53144K9L2 9L220160426104510204/26/16 10:45:31  5-MIN K9L2 261845Z AUTO VRB03KT 10SM CLR 20/M04 A2995 2270 18 3400 VRB/03 RMK AO2 $
53144K9L2 9L220160426105010804/26/16 10:50:31  5-MIN K9L2 261850Z AUTO 26008G15KT 10SM CLR 20/M04 A2995 2280 18 3400 250/08G15 RMK AO2 $
53144K9L2 9L220160426105511904/26/16 10:55:31  5-MIN K9L2 261855Z AUTO 00000KT 10SM CLR 19/M04 A2994 2280 19 3400 000/00 RMK AO2 SLP135 T01941044 $
53144K9L2 9L220160426110010204/26/16 11:00:31  5-MIN K9L2 261900Z AUTO VRB04KT 10SM CLR 20/M04 A2994 2280 18 3400 VRB/04 RMK AO2 $
53144K9L2 9L220160426110510204/26/16 11:05:31  5-MIN K9L2 261905Z AUTO 20004KT 10SM CLR 20/M04 A2994 2290 18 3400 190/04 RMK AO2 $
53144K9L2 9L220160426111010204/26/16 11:10:31  5-MIN K9L2 261910Z AUTO VRB04KT 10SM CLR 21/M04 A2994 2290 19 3500 VRB/04 RMK AO2 $
53144K9L2 9L220160426111510204/26/16 11:15:31  5-MIN K9L2 261915Z AUTO 00000KT 10SM CLR 21/M04 A2994 2290 18 3500 000/00 RMK AO2 $
53144K9L2 9L220160426112010204/26/16 11:20:31  5-MIN K9L2 261920Z AUTO 00000KT 10SM CLR 20/M04 A2994 2290 18 3400 000/00 RMK AO2 $
53144K9L2 9L220160426112510204/26/16 11:25:31  5-MIN K9L2 261925Z AUTO 29007KT 10SM CLR 21/M05 A2994 2290 17 3500 280/07 RMK AO2 $
53144K9L2 9L220160426113010204/26/16 11:30:31  5-MIN K9L2 261930Z AUTO VRB06KT 10SM CLR 21/M05 A2993 2290 17 3500 VRB/06 RMK AO2 $
53144K9L2 9L220160426113510204/26/16 11:35:31  5-MIN K9L2 261935Z AUTO VRB06KT 10SM CLR 21/M06 A2993 2290 16 3500 VRB/06 RMK AO2 $
53144K9L2 9L220160426114010204/26/16 11:40:31  5-MIN K9L2 261940Z AUTO 31008KT 10SM CLR 21/M07 A2993 2290 15 3600 300/08 RMK AO2 $
53144K9L2 9L220160426114510204/26/16 11:45:31  5-MIN K9L2 261945Z AUTO 31008KT 10SM CLR 21/M06 A2993 2290 15 3600 300/08 RMK AO2 $
53144K9L2 9L220160426115010204/26/16 11:50:31  5-MIN K9L2 261950Z AUTO VRB04KT 10SM CLR 21/M06 A2993 2290 16 3500 VRB/04 RMK AO2 $
53144K9L2 9L220160426115511904/26/16 11:55:31  5-MIN K9L2 261955Z AUTO 00000KT 10SM CLR 21/M05 A2993 2300 17 3500 000/00 RMK AO2 SLP129 T02061050 $
53144K9L2 9L220160426120010804/26/16 12:00:31  5-MIN K9L2 262000Z AUTO 28013G16KT 10SM CLR 21/M04 A2993 2300 17 3600 270/13G16 RMK AO2 $
53144K9L2 9L220160426120510804/26/16 12:05:31  5-MIN K9L2 262005Z AUTO 27006G16KT 10SM CLR 21/M04 A2993 2290 18 3500 260/06G16 RMK AO2 $
53144K9L2 9L220160426121010204/26/16 12:10:31  5-MIN K9L2 262010Z AUTO 23009KT 10SM CLR 21/M04 A2993 2300 18 3500 210/09 RMK AO2 $
53144K9L2 9L220160426121510204/26/16 12:15:31  5-MIN K9L2 262015Z AUTO 22007KT 10SM CLR 22/M04 A2993 2300 17 3600 200/07 RMK AO2 $
53144K9L2 9L220160426122010804/26/16 12:20:31  5-MIN K9L2 262020Z AUTO 28011G17KT 10SM CLR 22/M04 A2993 2290 17 3600 260/11G17 RMK AO2 $
53144K9L2 9L220160426122510804/26/16 12:25:31  5-MIN K9L2 262025Z AUTO 25015G20KT 10SM CLR 22/M03 A2993 2290 18 3600 230/15G20 RMK AO2 $
53144K9L2 9L220160426123010804/26/16 12:30:31  5-MIN K9L2 262030Z AUTO 24009G20KT 10SM CLR 21/M04 A2993 2290 18 3600 230/09G20 RMK AO2 $
53144K9L2 9L220160426123510804/26/16 12:35:31  5-MIN K9L2 262035Z AUTO 26013G16KT 10SM CLR 22/M04 A2993 2300 17 3600 240/13G16 RMK AO2 $
53144K9L2 9L220160426124010804/26/16 12:40:31  5-MIN K9L2 262040Z AUTO 25019G22KT 10SM CLR 22/M05 A2992 2300 16 3600 240/19G22 RMK AO2 $
53144K9L2 9L220160426124510804/26/16 12:45:31  5-MIN K9L2 262045Z AUTO 25016G22KT 10SM CLR 22/M05 A2993 2300 16 3600 240/16G22 RMK AO2 $
53144K9L2 9L220160426125010804/26/16 12:50:31  5-MIN K9L2 262050Z AUTO 25014G21KT 10SM CLR 22/M05 A2992 2300 16 3600 230/14G21 RMK AO2 $
53144K9L2 9L220160426125513104/26/16 12:55:31  5-MIN K9L2 262055Z AUTO 26014G21KT 10SM CLR 22/M04 A2992 2300 16 3700 250/14G21 RMK AO2 SLP128 T02221044 53002 $
53144K9L2 9L220160426130010804/26/16 13:00:31  5-MIN K9L2 262100Z AUTO 25016G21KT 10SM CLR 22/M05 A2992 2300 15 3700 240/16G21 RMK AO2 $
53144K9L2 9L220160426130510804/26/16 13:05:31  5-MIN K9L2 262105Z AUTO 27010G21KT 10SM CLR 22/M05 A2992 2300 16 3600 260/10G21 RMK AO2 $
53144K9L2 9L220160426131010804/26/16 13:10:31  5-MIN K9L2 262110Z AUTO 26012G19KT 10SM CLR 22/M04 A2992 2310 17 3600 240/12G19 RMK AO2 $
53144K9L2 9L220160426131510804/26/16 13:15:31  5-MIN K9L2 262115Z AUTO 26015G21KT 10SM CLR 22/M04 A2992 2300 16 3700 250/15G21 RMK AO2 $
53144K9L2 9L220160426132010804/26/16 13:20:31  5-MIN K9L2 262120Z AUTO 27016G21KT 10SM CLR 22/M04 A2992 2300 16 3700 260/16G21 RMK AO2 $
53144K9L2 9L220160426132510804/26/16 13:25:31  5-MIN K9L2 262125Z AUTO 26013G20KT 10SM CLR 22/M04 A2992 2310 17 3700 240/13G20 RMK AO2 $
53144K9L2 9L220160426133010804/26/16 13:30:31  5-MIN K9L2 262130Z AUTO 27016G20KT 10SM CLR 22/M04 A2991 2310 16 3700 250/16G20 RMK AO2 $
53144K9L2 9L220160426133510804/26/16 13:35:31  5-MIN K9L2 262135Z AUTO 26014G20KT 10SM CLR 22/M04 A2991 2310 17 3700 240/14G20 RMK AO2 $
53144K9L2 9L220160426134010804/26/16 13:40:31  5-MIN K9L2 262140Z AUTO 27014G20KT 10SM CLR 22/M04 A2991 2310 17 3700 260/14G20 RMK AO2 $
53144K9L2 9L220160426134510804/26/16 13:45:31  5-MIN K9L2 262145Z AUTO 27013G20KT 10SM CLR 22/M04 A2991 2310 17 3700 260/13G20 RMK AO2 $
53144K9L2 9L220160426135010804/26/16 13:50:31  5-MIN K9L2 262150Z AUTO 25015G21KT 10SM CLR 23/M04 A2991 2320 16 3800 240/15G21 RMK AO2 $
53144K9L2 9L220160426135512504/26/16 13:55:31  5-MIN K9L2 262155Z AUTO 26019G22KT 10SM CLR 22/M04 A2991 2320 16 3700 250/19G22 RMK AO2 SLP123 T02221044 $
53144K9L2 9L220160426140010804/26/16 14:00:31  5-MIN K9L2 262200Z AUTO 27019G24KT 10SM CLR 22/M04 A2990 2320 16 3700 250/19G24 RMK AO2 $
53144K9L2 9L220160426140510804/26/16 14:05:31  5-MIN K9L2 262205Z AUTO 26016G24KT 10SM CLR 22/M04 A2990 2320 16 3700 250/16G24 RMK AO2 $
53144K9L2 9L220160426141010804/26/16 14:10:31  5-MIN K9L2 262210Z AUTO 27019G25KT 10SM CLR 22/M05 A2990 2320 15 3700 250/19G25 RMK AO2 $
53144K9L2 9L220160426141510804/26/16 14:15:31  5-MIN K9L2 262215Z AUTO 27019G25KT 10SM CLR 22/M05 A2990 2320 16 3700 250/19G25 RMK AO2 $
53144K9L2 9L220160426142012604/26/16 14:20:31  5-MIN K9L2 262220Z AUTO 26017G27KT 10SM CLR 22/M06 A2990 2320 15 3700 250/17G27 RMK AO2 PK WND 27027/2218 $
53144K9L2 9L220160426142512604/26/16 14:25:31  5-MIN K9L2 262225Z AUTO 27019G27KT 10SM CLR 22/M06 A2990 2320 14 3700 260/19G27 RMK AO2 PK WND 27027/2218 $
53144K9L2 9L220160426143012604/26/16 14:30:31  5-MIN K9L2 262230Z AUTO 28019G28KT 10SM CLR 22/M07 A2990 2320 14 3700 260/19G28 RMK AO2 PK WND 28028/2227 $
53144K9L2 9L220160426143512604/26/16 14:35:31  5-MIN K9L2 262235Z AUTO 26016G28KT 10SM CLR 22/M06 A2989 2330 14 3700 250/16G28 RMK AO2 PK WND 28028/2227 $
53144K9L2 9L220160426144012604/26/16 14:40:31  5-MIN K9L2 262240Z AUTO 27017G23KT 10SM CLR 22/M06 A2989 2330 15 3700 260/17G23 RMK AO2 PK WND 28028/2227 $
53144K9L2 9L220160426144512604/26/16 14:45:31  5-MIN K9L2 262245Z AUTO 27016G28KT 10SM CLR 22/M06 A2989 2330 15 3700 260/16G28 RMK AO2 PK WND 28028/2245 $
53144K9L2 9L220160426145012604/26/16 14:50:31  5-MIN K9L2 262250Z AUTO 26016G28KT 10SM CLR 22/M06 A2989 2330 15 3700 240/16G28 RMK AO2 PK WND 28028/2245 $
53144K9L2 9L220160426145514304/26/16 14:55:31  5-MIN K9L2 262255Z AUTO 27017G27KT 10SM CLR 22/M06 A2989 2330 15 3700 260/17G27 RMK AO2 PK WND 28028/2245 SLP116 T02221056 $
53144K9L2 9L220160426150010804/26/16 15:00:31  5-MIN K9L2 262300Z AUTO 28020G25KT 10SM CLR 22/M06 A2989 2330 15 3700 270/20G25 RMK AO2 $
53144K9L2 9L220160426150510804/26/16 15:05:31  5-MIN K9L2 262305Z AUTO 27015G25KT 10SM CLR 22/M05 A2989 2330 16 3700 260/15G25 RMK AO2 $
53144K9L2 9L220160426151012604/26/16 15:10:31  5-MIN K9L2 262310Z AUTO 27021G26KT 10SM CLR 22/M04 A2989 2330 16 3700 260/21G26 RMK AO2 PK WND 26026/2309 $
53144K9L2 9L220160426151512604/26/16 15:15:31  5-MIN K9L2 262315Z AUTO 27017G26KT 10SM CLR 22/M05 A2989 2330 16 3700 260/17G26 RMK AO2 PK WND 26026/2309 $
53144K9L2 9L220160426152012604/26/16 15:20:31  5-MIN K9L2 262320Z AUTO 27020G26KT 10SM CLR 22/M06 A2989 2330 15 3700 260/20G26 RMK AO2 PK WND 27026/2318 $
53144K9L2 9L220160426152512604/26/16 15:25:31  5-MIN K9L2 262325Z AUTO 28019G26KT 10SM CLR 22/M06 A2989 2330 14 3700 260/19G26 RMK AO2 PK WND 27026/2318 $
53144K9L2 9L220160426153012604/26/16 15:30:31  5-MIN K9L2 262330Z AUTO 28020G29KT 10SM CLR 22/M06 A2989 2330 15 3700 270/20G29 RMK AO2 PK WND 28029/2329 $
53144K9L2 9L220160426153512604/26/16 15:35:31  5-MIN K9L2 262335Z AUTO 28023G29KT 10SM CLR 22/M06 A2989 2330 15 3700 260/23G29 RMK AO2 PK WND 28029/2329 $
53144K9L2 9L220160426154012604/26/16 15:40:31  5-MIN K9L2 262340Z AUTO 27023G28KT 10SM CLR 22/M06 A2989 2330 15 3700 260/23G28 RMK AO2 PK WND 28029/2329 $
53144K9L2 9L220160426154512604/26/16 15:45:31  5-MIN K9L2 262345Z AUTO 28021G28KT 10SM CLR 22/M05 A2989 2330 16 3700 270/21G28 RMK AO2 PK WND 28029/2329 $
53144K9L2 9L220160426155012604/26/16 15:50:31  5-MIN K9L2 262350Z AUTO 27021G27KT 10SM CLR 21/M05 A2988 2340 17 3600 260/21G27 RMK AO2 PK WND 28029/2329 $
53144K9L2 9L220160426155516104/26/16 15:55:31  5-MIN K9L2 262355Z AUTO 28020G26KT 10SM CLR 21/M04 A2989 2330 17 3600 270/20G26 RMK AO2 PK WND 28029/2329 SLP116 T02111044 10228 20183 56014 $
53144K9L2 9L220160426160010204/26/16 16:00:31  5-MIN K9L2 270000Z AUTO 27021KT 10SM CLR 21/M04 A2988 2340 17 3600 260/21 RMK AO2 $
53144K9L2 9L220160426160512604/26/16 16:05:31  5-MIN K9L2 270005Z AUTO 27023G28KT 10SM CLR 21/M04 A2988 2340 17 3600 260/23G28 RMK AO2 PK WND 27028/0003 $
53144K9L2 9L220160426161012604/26/16 16:10:31  5-MIN K9L2 270010Z AUTO 27021G28KT 10SM CLR 21/M04 A2989 2340 19 3600 250/21G28 RMK AO2 PK WND 27028/0003 $
53144K9L2 9L220160426161512604/26/16 16:15:31  5-MIN K9L2 270015Z AUTO 27021G27KT 10SM CLR 21/M04 A2988 2340 19 3600 250/21G27 RMK AO2 PK WND 27028/0003 $
53144K9L2 9L220160426162012604/26/16 16:20:31  5-MIN K9L2 270020Z AUTO 27020G27KT 10SM CLR 21/M03 A2988 2340 19 3600 260/20G27 RMK AO2 PK WND 27028/0003 $
53144K9L2 9L220160426162512604/26/16 16:25:31  5-MIN K9L2 270025Z AUTO 27022G27KT 10SM CLR 21/M03 A2989 2330 19 3600 260/22G27 RMK AO2 PK WND 27028/0003 $
53144K9L2 9L220160426163012604/26/16 16:30:31  5-MIN K9L2 270030Z AUTO 27022G27KT 10SM CLR 21/M03 A2989 2330 20 3600 260/22G27 RMK AO2 PK WND 27028/0003 $
53144K9L2 9L220160426163512604/26/16 16:35:31  5-MIN K9L2 270035Z AUTO 27023G28KT 10SM CLR 20/M03 A2989 2330 20 3500 260/23G28 RMK AO2 PK WND 28028/0033 $
53144K9L2 9L220160426164012604/26/16 16:40:31  5-MIN K9L2 270040Z AUTO 26021G28KT 10SM CLR 20/M03 A2989 2330 20 3500 250/21G28 RMK AO2 PK WND 28028/0033 $
53144K9L2 9L220160426164512004/26/16 16:45:31  5-MIN K9L2 270045Z AUTO 27022KT 10SM CLR 20/M03 A2989 2330 20 3500 260/22 RMK AO2 PK WND 28028/0033 $
53144K9L2 9L220160426165012004/26/16 16:50:31  5-MIN K9L2 270050Z AUTO 26022KT 10SM CLR 19/M03 A2989 2330 22 3400 250/22 RMK AO2 PK WND 26028/0050 $
53144K9L2 9L220160426165514304/26/16 16:55:31  5-MIN K9L2 270055Z AUTO 26023G28KT 10SM CLR 19/M03 A2989 2330 22 3400 250/23G28 RMK AO2 PK WND 26028/0055 SLP121 T01941028 $
53144K9L2 9L220160426170012604/26/16 17:00:31  5-MIN K9L2 270100Z AUTO 26021G28KT 10SM CLR 19/M03 A2989 2330 22 3400 250/21G28 RMK AO2 PK WND 27027/0058 $
53144K9L2 9L220160426170512604/26/16 17:05:31  5-MIN K9L2 270105Z AUTO 27021G28KT 10SM CLR 19/M03 A2989 2330 21 3400 260/21G28 RMK AO2 PK WND 28028/0104 $
53144K9L2 9L220160426171012604/26/16 17:10:31  5-MIN K9L2 270110Z AUTO 26018G28KT 10SM CLR 19/M03 A2989 2330 21 3400 250/18G28 RMK AO2 PK WND 28028/0104 $
53144K9L2 9L220160426171512604/26/16 17:15:31  5-MIN K9L2 270115Z AUTO 27020G25KT 10SM CLR 19/M03 A2989 2330 22 3400 260/20G25 RMK AO2 PK WND 28028/0104 $
53144K9L2 9L220160426172012604/26/16 17:20:31  5-MIN K9L2 270120Z AUTO 27019G26KT 10SM CLR 19/M03 A2989 2330 22 3400 260/19G26 RMK AO2 PK WND 28028/0104 $
53144K9L2 9L220160426172512604/26/16 17:25:31  5-MIN K9L2 270125Z AUTO 26018G26KT 10SM CLR 19/M03 A2989 2330 22 3400 250/18G26 RMK AO2 PK WND 28028/0104 $
53144K9L2 9L220160426173012604/26/16 17:30:31  5-MIN K9L2 270130Z AUTO 27022G28KT 10SM CLR 18/M03 A2989 2330 22 3300 260/22G28 RMK AO2 PK WND 28028/0130 $
53144K9L2 9L220160426173512604/26/16 17:35:31  5-MIN K9L2 270135Z AUTO 26020G28KT 10SM CLR 18/M03 A2989 2330 22 3300 250/20G28 RMK AO2 PK WND 28028/0130 $
53144K9L2 9L220160426174012604/26/16 17:40:31  5-MIN K9L2 270140Z AUTO 26016G27KT 10SM CLR 18/M03 A2989 2330 24 3200 250/16G27 RMK AO2 PK WND 28028/0130 $
53144K9L2 9L220160426174512604/26/16 17:45:31  5-MIN K9L2 270145Z AUTO 26020G27KT 10SM CLR 18/M03 A2989 2330 24 3200 250/20G27 RMK AO2 PK WND 28028/0130 $
53144K9L2 9L220160426175012604/26/16 17:50:31  5-MIN K9L2 270150Z AUTO 26021G27KT 10SM CLR 18/M03 A2989 2330 24 3200 250/21G27 RMK AO2 PK WND 28028/0130 $
53144K9L2 9L220160426175514304/26/16 17:55:31  5-MIN K9L2 270155Z AUTO 26019G26KT 10SM CLR 17/M03 A2989 2330 25 3200 250/19G26 RMK AO2 PK WND 28028/0130 SLP120 T01721028 $
53144K9L2 9L220160426180012604/26/16 18:00:31  5-MIN K9L2 270200Z AUTO 26019G27KT 10SM CLR 17/M03 A2989 2330 24 3200 250/19G27 RMK AO2 PK WND 26026/0158 $
53144K9L2 9L220160426180512604/26/16 18:05:31  5-MIN K9L2 270205Z AUTO 26019G27KT 10SM CLR 17/M03 A2989 2330 25 3200 240/19G27 RMK AO2 PK WND 25026/0202 $
53144K9L2 9L220160426181012604/26/16 18:10:31  5-MIN K9L2 270210Z AUTO 26018G26KT 10SM CLR 17/M03 A2989 2340 25 3200 250/18G26 RMK AO2 PK WND 25026/0202 $
53144K9L2 9L220160426181512604/26/16 18:15:31  5-MIN K9L2 270215Z AUTO 26015G24KT 10SM CLR 17/M03 A2989 2330 25 3200 250/15G24 RMK AO2 PK WND 25026/0202 $
53144K9L2 9L220160426182012004/26/16 18:20:31  5-MIN K9L2 270220Z AUTO 26014KT 10SM CLR 17/M03 A2989 2330 25 3200 250/14 RMK AO2 PK WND 25026/0202 $
53144K9L2 9L220160426182512604/26/16 18:25:31  5-MIN K9L2 270225Z AUTO 26016G21KT 10SM CLR 17/M03 A2988 2340 25 3100 250/16G21 RMK AO2 PK WND 25026/0202 $
53144K9L2 9L220160426183012004/26/16 18:30:31  5-MIN K9L2 270230Z AUTO 26015KT 10SM CLR 17/M03 A2988 2340 25 3100 250/15 RMK AO2 PK WND 25026/0202 $
53144K9L2 9L220160426183512004/26/16 18:35:31  5-MIN K9L2 270235Z AUTO 26016KT 10SM CLR 17/M03 A2988 2340 25 3100 250/16 RMK AO2 PK WND 25026/0202 $
53144K9L2 9L220160426184012004/26/16 18:40:31  5-MIN K9L2 270240Z AUTO 26016KT 10SM CLR 17/M03 A2988 2340 25 3100 240/16 RMK AO2 PK WND 25026/0202 $
53144K9L2 9L220160426184512004/26/16 18:45:31  5-MIN K9L2 270245Z AUTO 25015KT 10SM CLR 16/M03 A2988 2340 26 3000 240/15 RMK AO2 PK WND 25026/0202 $
53144K9L2 9L220160426185012604/26/16 18:50:31  5-MIN K9L2 270250Z AUTO 24012G20KT 10SM CLR 16/M03 A2989 2330 26 3000 220/12G20 RMK AO2 PK WND 25026/0202 $
53144K9L2 9L220160426185514304/26/16 18:55:31  5-MIN K9L2 270255Z AUTO 23012KT 10SM CLR 16/M03 A2989 2340 26 3000 220/12 RMK AO2 PK WND 25026/0202 SLP117 T01611033 56012 $
53144K9L2 9L220160426190010204/26/16 19:00:31  5-MIN K9L2 270300Z AUTO 23014KT 10SM CLR 16/M03 A2988 2340 26 3000 220/14 RMK AO2 $
53144K9L2 9L220160426190510204/26/16 19:05:31  5-MIN K9L2 270305Z AUTO 24012KT 10SM CLR 16/M04 A2989 2330 25 3000 230/12 RMK AO2 $
53144K9L2 9L220160426191010204/26/16 19:10:31  5-MIN K9L2 270310Z AUTO 25012KT 10SM CLR 16/M04 A2989 2330 25 3000 230/12 RMK AO2 $
53144K9L2 9L220160426191510204/26/16 19:15:31  5-MIN K9L2 270315Z AUTO 26012KT 10SM CLR 16/M04 A2989 2330 25 3000 250/12 RMK AO2 $
53144K9L2 9L220160426192010804/26/16 19:20:31  5-MIN K9L2 270320Z AUTO 27014G19KT 10SM CLR 16/M05 A2988 2340 24 3000 260/14G19 RMK AO2 $
53144K9L2 9L220160426192510804/26/16 19:25:31  5-MIN K9L2 270325Z AUTO 27015G19KT 10SM CLR 16/M06 A2989 2330 22 3000 260/15G19 RMK AO2 $
53144K9L2 9L220160426193010204/26/16 19:30:31  5-MIN K9L2 270330Z AUTO 27015KT 10SM CLR 16/M06 A2989 2330 22 3000 260/15 RMK AO2 $
53144K9L2 9L220160426193510204/26/16 19:35:31  5-MIN K9L2 270335Z AUTO 27014KT 10SM CLR 16/M06 A2989 2330 22 3000 250/14 RMK AO2 $
53144K9L2 9L220160426194010204/26/16 19:40:31  5-MIN K9L2 270340Z AUTO 27015KT 10SM CLR 16/M06 A2989 2330 22 3000 260/15 RMK AO2 $
53144K9L2 9L220160426194510204/26/16 19:45:31  5-MIN K9L2 270345Z AUTO 27015KT 10SM CLR 16/M06 A2989 2330 22 3000 260/15 RMK AO2 $
53144K9L2 9L220160426195010204/26/16 19:50:31  5-MIN K9L2 270350Z AUTO 26016KT 10SM CLR 16/M06 A2989 2330 22 3000 250/16 RMK AO2 $
53144K9L2 9L220160426195512504/26/16 19:55:31  5-MIN K9L2 270355Z AUTO 27013G21KT 10SM CLR 16/M05 A2989 2330 24 3000 250/13G21 RMK AO2 SLP117 T01561050 $
53144K9L2 9L220160426200010804/26/16 20:00:31  5-MIN K9L2 270400Z AUTO 27012G20KT 10SM CLR 16/M05 A2989 2330 24 3000 260/12G20 RMK AO2 $
53144K9L2 9L220160426200510804/26/16 20:05:31  5-MIN K9L2 270405Z AUTO 27011G20KT 10SM CLR 16/M05 A2989 2330 24 3000 260/11G20 RMK AO2 $
53144K9L2 9L220160426201010804/26/16 20:10:31  5-MIN K9L2 270410Z AUTO 27011G18KT 10SM CLR 16/M05 A2989 2330 24 3000 250/11G18 RMK AO2 $
53144K9L2 9L220160426201510204/26/16 20:15:31  5-MIN K9L2 270415Z AUTO 26012KT 10SM CLR 16/M04 A2989 2330 25 3000 250/12 RMK AO2 $
53144K9L2 9L220160426202010204/26/16 20:20:31  5-MIN K9L2 270420Z AUTO 26011KT 10SM CLR 16/M05 A2989 2330 24 3000 250/11 RMK AO2 $
53144K9L2 9L220160426202510204/26/16 20:25:31  5-MIN K9L2 270425Z AUTO 26011KT 10SM CLR 16/M04 A2989 2330 25 3000 250/11 RMK AO2 $
53144K9L2 9L220160426203010204/26/16 20:30:31  5-MIN K9L2 270430Z AUTO 25011KT 10SM CLR 16/M05 A2989 2330 24 3000 240/11 RMK AO2 $
53144K9L2 9L220160426203510204/26/16 20:35:31  5-MIN K9L2 270435Z AUTO 26010KT 10SM CLR 16/M05 A2989 2330 24 3000 250/10 RMK AO2 $
53144K9L2 9L220160426204010204/26/16 20:40:31  5-MIN K9L2 270440Z AUTO 25008KT 10SM CLR 16/M06 A2989 2330 23 3000 240/08 RMK AO2 $
53144K9L2 9L220160426204510204/26/16 20:45:31  5-MIN K9L2 270445Z AUTO 25008KT 10SM CLR 16/M06 A2989 2330 23 3000 240/08 RMK AO2 $
53144K9L2 9L220160426205010204/26/16 20:50:31  5-MIN K9L2 270450Z AUTO 26008KT 10SM CLR 16/M05 A2989 2340 24 3000 240/08 RMK AO2 $
53144K9L2 9L220160426205511904/26/16 20:55:31  5-MIN K9L2 270455Z AUTO 25004KT 10SM CLR 16/M05 A2989 2330 24 3000 240/04 RMK AO2 SLP114 T01561050 $
53144K9L2 9L220160426210010204/26/16 21:00:31  5-MIN K9L2 270500Z AUTO 27006KT 10SM CLR 15/M06 A2989 2330 23 2900 250/06 RMK AO2 $
53144K9L2 9L220160426210510204/26/16 21:05:31  5-MIN K9L2 270505Z AUTO 27010KT 10SM CLR 14/M06 A2989 2330 23 2800 260/10 RMK AO2 $
53144K9L2 9L220160426211010204/26/16 21:10:31  5-MIN K9L2 270510Z AUTO 26010KT 10SM CLR 14/M07 A2989 2330 22 2800 250/10 RMK AO2 $
53144K9L2 9L220160426211510804/26/16 21:15:31  5-MIN K9L2 270515Z AUTO 26011G16KT 10SM CLR 16/M06 A2989 2330 22 3000 250/11G16 RMK AO2 $
53144K9L2 9L220160426212010804/26/16 21:20:31  5-MIN K9L2 270520Z AUTO 27011G16KT 10SM CLR 16/M06 A2989 2330 23 3000 250/11G16 RMK AO2 $
53144K9L2 9L220160426212510204/26/16 21:25:31  5-MIN K9L2 270525Z AUTO 25012KT 10SM CLR 15/M05 A2989 2330 24 2900 240/12 RMK AO2 $
53144K9L2 9L220160426213010204/26/16 21:30:31  5-MIN K9L2 270530Z AUTO 27013KT 10SM CLR 15/M04 A2989 2330 25 2900 250/13 RMK AO2 $
53144K9L2 9L220160426213510804/26/16 21:35:31  5-MIN K9L2 270535Z AUTO 26015G21KT 10SM CLR 16/M04 A2989 2330 25 3000 250/15G21 RMK AO2 $
53144K9L2 9L220160426214010804/26/16 21:40:31  5-MIN K9L2 270540Z AUTO 26016G21KT 10SM CLR 15/M04 A2989 2330 25 2900 240/16G21 RMK AO2 $
53144K9L2 9L220160426214510804/26/16 21:45:31  5-MIN K9L2 270545Z AUTO 25012G21KT 10SM CLR 16/M04 A2989 2330 25 3000 240/12G21 RMK AO2 $
53144K9L2 9L220160426215010204/26/16 21:50:31  5-MIN K9L2 270550Z AUTO 25014KT 10SM CLR 16/M04 A2989 2330 25 3000 240/14 RMK AO2 $
53144K9L2 9L220160426215513704/26/16 21:55:31  5-MIN K9L2 270555Z AUTO 26012KT 10SM CLR 16/M04 A2989 2330 25 3000 250/12 RMK AO2 SLP114 T01561044 10217 20144 50000 $
53144K9L2 9L220160426220010204/26/16 22:00:31  5-MIN K9L2 270600Z AUTO 27011KT 10SM CLR 16/M05 A2989 2330 24 3000 260/11 RMK AO2 $
53144K9L2 9L220160426220510204/26/16 22:05:31  5-MIN K9L2 270605Z AUTO 27012KT 10SM CLR 16/M06 A2988 2340 23 3000 260/12 RMK AO2 $
53144K9L2 9L220160426221010804/26/16 22:10:31  5-MIN K9L2 270610Z AUTO 28010G18KT 10SM CLR 16/M06 A2988 2340 22 3000 270/10G18 RMK AO2 $
53144K9L2 9L220160426221510804/26/16 22:15:31  5-MIN K9L2 270615Z AUTO 28011G18KT 10SM CLR 16/M06 A2988 2340 23 3000 270/11G18 RMK AO2 $
53144K9L2 9L220160426222010204/26/16 22:20:31  5-MIN K9L2 270620Z AUTO 28011KT 10SM CLR 16/M06 A2988 2340 23 3000 270/11 RMK AO2 $
53144K9L2 9L220160426222510204/26/16 22:25:31  5-MIN K9L2 270625Z AUTO 29010KT 10SM CLR 16/M06 A2988 2340 23 3000 270/10 RMK AO2 $
53144K9L2 9L220160426223010204/26/16 22:30:31  5-MIN K9L2 270630Z AUTO 29007KT 10SM CLR 15/M06 A2988 2340 23 2900 270/07 RMK AO2 $
53144K9L2 9L220160426223510204/26/16 22:35:31  5-MIN K9L2 270635Z AUTO 27009KT 10SM CLR 15/M06 A2988 2340 23 2900 250/09 RMK AO2 $
53144K9L2 9L220160426224010204/26/16 22:40:31  5-MIN K9L2 270640Z AUTO 28010KT 10SM CLR 15/M06 A2988 2340 23 2900 260/10 RMK AO2 $
53144K9L2 9L220160426224510204/26/16 22:45:31  5-MIN K9L2 270645Z AUTO 28015KT 10SM CLR 16/M06 A2988 2340 22 3000 260/15 RMK AO2 $
53144K9L2 9L220160426225010204/26/16 22:50:31  5-MIN K9L2 270650Z AUTO 27014KT 10SM CLR 16/M06 A2988 2340 23 3000 260/14 RMK AO2 $
53144K9L2 9L220160426225512504/26/16 22:55:31  5-MIN K9L2 270655Z AUTO 26017G21KT 10SM CLR 16/M05 A2988 2340 24 3000 250/17G21 RMK AO2 SLP109 T01561050 $
53144K9L2 9L220160426230010804/26/16 23:00:31  5-MIN K9L2 270700Z AUTO 26016G22KT 10SM CLR 16/M05 A2988 2340 24 3000 250/16G22 RMK AO2 $
53144K9L2 9L220160426230510204/26/16 23:05:31  5-MIN K9L2 270705Z AUTO 25017KT 10SM CLR 16/M04 A2988 2340 25 3000 240/17 RMK AO2 $
53144K9L2 9L220160426231010804/26/16 23:10:31  5-MIN K9L2 270710Z AUTO 25014G21KT 10SM CLR 16/M04 A2988 2340 25 3000 230/14G21 RMK AO2 $
53144K9L2 9L220160426231510804/26/16 23:15:31  5-MIN K9L2 270715Z AUTO 26013G21KT 10SM CLR 16/M05 A2988 2340 24 3000 240/13G21 RMK AO2 $
53144K9L2 9L220160426232010804/26/16 23:20:31  5-MIN K9L2 270720Z AUTO 25011G18KT 10SM CLR 16/M05 A2988 2340 24 3000 240/11G18 RMK AO2 $
53144K9L2 9L220160426232510204/26/16 23:25:31  5-MIN K9L2 270725Z AUTO 26010KT 10SM CLR 16/M05 A2987 2350 24 3000 240/10 RMK AO2 $
53144K9L2 9L220160426233010204/26/16 23:30:31  5-MIN K9L2 270730Z AUTO 26012KT 10SM CLR 16/M05 A2988 2340 24 3000 250/12 RMK AO2 $
53144K9L2 9L220160426233510204/26/16 23:35:31  5-MIN K9L2 270735Z AUTO 28011KT 10SM CLR 15/M05 A2988 2340 24 2900 260/11 RMK AO2 $
53144K9L2 9L220160426234010204/26/16 23:40:31  5-MIN K9L2 270740Z AUTO 28009KT 10SM CLR 15/M05 A2987 2350 24 2900 270/09 RMK AO2 $
53144K9L2 9L220160426234510204/26/16 23:45:31  5-MIN K9L2 270745Z AUTO 28012KT 10SM CLR 15/M05 A2987 2350 24 2900 260/12 RMK AO2 $
53144K9L2 9L220160426235010204/26/16 23:50:31  5-MIN K9L2 270750Z AUTO 28010KT 10SM CLR 16/M05 A2987 2350 24 3000 260/10 RMK AO2 $
53144K9L2 9L220160426235512904/26/16 23:55:31  5-MIN K9L2 270755Z AUTO 27011KT 10SM CLR 16/M05 A2987 2350 24 3000 250/11 RMK AO2 SLP104 T01561050 402280033 $
53144K9L2 9L220160427000010204/27/16 00:00:31  5-MIN K9L2 270800Z AUTO 28009KT 10SM CLR 16/M05 A2987 2350 24 3000 260/09 RMK AO2 $
53144K9L2 9L220160427000510204/27/16 00:05:31  5-MIN K9L2 270805Z AUTO 28009KT 10SM CLR 16/M05 A2987 2350 24 3000 260/09 RMK AO2 $
53144K9L2 9L220160427001010204/27/16 00:10:31  5-MIN K9L2 270810Z AUTO 28009KT 10SM CLR 15/M05 A2987 2350 24 2900 270/09 RMK AO2 $
53144K9L2 9L220160427001510204/27/16 00:15:31  5-MIN K9L2 270815Z AUTO 28012KT 10SM CLR 14/M05 A2987 2350 25 2900 270/12 RMK AO2 $
53144K9L2 9L220160427002010204/27/16 00:20:31  5-MIN K9L2 270820Z AUTO 29011KT 10SM CLR 15/M05 A2987 2350 24 2900 270/11 RMK AO2 $
53144K9L2 9L220160427002510804/27/16 00:25:31  5-MIN K9L2 270825Z AUTO 28011G18KT 10SM CLR 16/M04 A2987 2350 25 3000 260/11G18 RMK AO2 $
53144K9L2 9L220160427003010804/27/16 00:30:31  5-MIN K9L2 270830Z AUTO 27014G20KT 10SM CLR 15/M04 A2987 2350 25 2900 250/14G20 RMK AO2 $
53144K9L2 9L220160427003510804/27/16 00:35:31  5-MIN K9L2 270835Z AUTO 26014G20KT 10SM CLR 15/M04 A2987 2350 27 2900 250/14G20 RMK AO2 $
53144K9L2 9L220160427004010204/27/16 00:40:31  5-MIN K9L2 270840Z AUTO 26013KT 10SM CLR 15/M04 A2986 2360 27 2900 250/13 RMK AO2 $
53144K9L2 9L220160427004510204/27/16 00:45:31  5-MIN K9L2 270845Z AUTO 27015KT 10SM CLR 14/M03 A2986 2360 29 2900 250/15 RMK AO2 $
53144K9L2 9L220160427005010804/27/16 00:50:31  5-MIN K9L2 270850Z AUTO 27013G21KT 10SM CLR 14/M03 A2986 2360 29 2900 250/13G21 RMK AO2 $
53144K9L2 9L220160427005513104/27/16 00:55:31  5-MIN K9L2 270855Z AUTO 27015G21KT 10SM CLR 14/M03 A2986 2360 30 2900 260/15G21 RMK AO2 SLP101 T01441028 51002 $
53144K9L2 9L220160427010010204/27/16 01:00:31  5-MIN K9L2 270900Z AUTO 27015KT 10SM CLR 14/M02 A2986 2360 33 2900 260/15 RMK AO2 $
53144K9L2 9L220160427010510204/27/16 01:05:31  5-MIN K9L2 270905Z AUTO 28014KT 10SM CLR 14/M01 A2986 2360 34 2900 270/14 RMK AO2 $
53144K9L2 9L220160427011010804/27/16 01:10:31  5-MIN K9L2 270910Z AUTO 28011G21KT 10SM CLR 14/M01 A2985 2360 34 2900 270/11G21 RMK AO2 $
53144K9L2 9L220160427011510204/27/16 01:15:31  5-MIN K9L2 270915Z AUTO 28014KT 10SM CLR 14/M02 A2985 2360 33 2900 270/14 RMK AO2 $
53144K9L2 9L220160427012010204/27/16 01:20:31  5-MIN K9L2 270920Z AUTO 28013KT 10SM CLR 14/M01 A2985 2370 34 2900 270/13 RMK AO2 $
53144K9L2 9L220160427012510204/27/16 01:25:31  5-MIN K9L2 270925Z AUTO 27014KT 10SM CLR 14/M01 A2985 2370 34 2900 260/14 RMK AO2 $
53144K9L2 9L220160427013010804/27/16 01:30:31  5-MIN K9L2 270930Z AUTO 27014G20KT 10SM CLR 14/M01 A2984 2370 35 2800 260/14G20 RMK AO2 $
53144K9L2 9L220160427013510204/27/16 01:35:31  5-MIN K9L2 270935Z AUTO 27016KT 10SM CLR 14/M01 A2984 2380 37 2800 250/16 RMK AO2 $
53144K9L2 9L220160427014010204/27/16 01:40:31  5-MIN K9L2 270940Z AUTO 27016KT 10SM CLR 14/M01 A2984 2380 37 2800 250/16 RMK AO2 $
53144K9L2 9L220160427014510204/27/16 01:45:31  5-MIN K9L2 270945Z AUTO 26015KT 10SM CLR 14/M01 A2984 2380 37 2800 250/15 RMK AO2 $
53144K9L2 9L220160427015010204/27/16 01:50:31  5-MIN K9L2 270950Z AUTO 27014KT 10SM CLR 14/M01 A2984 2380 37 2800 250/14 RMK AO2 $
53144K9L2 9L220160427015511904/27/16 01:55:31  5-MIN K9L2 270955Z AUTO 27014KT 10SM CLR 14/M01 A2984 2380 37 2800 250/14 RMK AO2 SLP093 T01391006 $
53144K9L2 9L220160427020010204/27/16 02:00:31  5-MIN K9L2 271000Z AUTO 27014KT 10SM CLR 14/M01 A2984 2380 37 2800 260/14 RMK AO2 $
53144K9L2 9L220160427020510204/27/16 02:05:31  5-MIN K9L2 271005Z AUTO 27013KT 10SM CLR 14/M01 A2984 2380 37 2800 260/13 RMK AO2 $
53144K9L2 9L220160427021010204/27/16 02:10:31  5-MIN K9L2 271010Z AUTO 27014KT 10SM CLR 14/M01 A2983 2380 35 2800 260/14 RMK AO2 $
53144K9L2 9L220160427021510204/27/16 02:15:31  5-MIN K9L2 271015Z AUTO 27013KT 10SM CLR 14/M01 A2984 2380 37 2800 260/13 RMK AO2 $
53144K9L2 9L220160427022010204/27/16 02:20:31  5-MIN K9L2 271020Z AUTO 26014KT 10SM CLR 14/M01 A2984 2380 37 2800 250/14 RMK AO2 $
53144K9L2 9L220160427022510704/27/16 02:25:31  5-MIN K9L2 271025Z AUTO 26017G22KT 10SM CLR 14/00 A2983 2380 38 2800 250/17G22 RMK AO2 $
53144K9L2 9L220160427023010704/27/16 02:30:31  5-MIN K9L2 271030Z AUTO 26018G22KT 10SM CLR 14/00 A2983 2380 38 2800 250/18G22 RMK AO2 $
53144K9L2 9L220160427023510104/27/16 02:35:31  5-MIN K9L2 271035Z AUTO 27015KT 10SM CLR 14/01 A2984 2380 40 2800 250/15 RMK AO2 $
53144K9L2 9L220160427024010104/27/16 02:40:31  5-MIN K9L2 271040Z AUTO 26013KT 10SM CLR 13/00 A2984 2380 40 2800 250/13 RMK AO2 $
53144K9L2 9L220160427024510104/27/16 02:45:31  5-MIN K9L2 271045Z AUTO 27012KT 10SM CLR 13/00 A2983 2380 40 2800 260/12 RMK AO2 $
53144K9L2 9L220160427025010104/27/16 02:50:31  5-MIN K9L2 271050Z AUTO 26012KT 10SM CLR 13/00 A2983 2380 40 2800 250/12 RMK AO2 $
53144K9L2 9L220160427025511804/27/16 02:55:31  5-MIN K9L2 271055Z AUTO 28014KT 10SM CLR 13/00 A2983 2390 40 2800 260/14 RMK AO2 SLP091 T01330000 $
53144K9L2 9L220160427030010704/27/16 03:00:31  5-MIN K9L2 271100Z AUTO 27009G17KT 10SM CLR 14/00 A2983 2390 38 2900 260/09G17 RMK AO2 $
53144K9L2 9L220160427030510104/27/16 03:05:31  5-MIN K9L2 271105Z AUTO 28012KT 10SM CLR 14/00 A2983 2390 38 2900 260/12 RMK AO2 $
53144K9L2 9L220160427031010204/27/16 03:10:31  5-MIN K9L2 271110Z AUTO 28012KT 10SM CLR 14/M01 A2983 2380 37 2800 270/12 RMK AO2 $
53144K9L2 9L220160427031510204/27/16 03:15:31  5-MIN K9L2 271115Z AUTO 28011KT 10SM CLR 14/M01 A2983 2390 37 2800 260/11 RMK AO2 $
53144K9L2 9L220160427032010704/27/16 03:20:31  5-MIN K9L2 271120Z AUTO 28015G21KT 10SM CLR 14/00 A2983 2380 38 2800 260/15G21 RMK AO2 $
53144K9L2 9L220160427032510104/27/16 03:25:31  5-MIN K9L2 271125Z AUTO 27015KT 10SM CLR 14/01 A2983 2390 40 2800 260/15 RMK AO2 $
53144K9L2 9L220160427033010104/27/16 03:30:31  5-MIN K9L2 271130Z AUTO 27015KT 10SM CLR 14/01 A2983 2380 40 2800 250/15 RMK AO2 $
53144K9L2 9L220160427033510104/27/16 03:35:31  5-MIN K9L2 271135Z AUTO 27015KT 10SM CLR 14/01 A2983 2380 40 2800 260/15 RMK AO2 $
53144K9L2 9L220160427034010704/27/16 03:40:31  5-MIN K9L2 271140Z AUTO 27014G20KT 10SM CLR 14/00 A2983 2390 38 2900 250/14G20 RMK AO2 $
53144K9L2 9L220160427034510104/27/16 03:45:31  5-MIN K9L2 271145Z AUTO 26013KT 10SM CLR 14/00 A2983 2390 38 2900 240/13 RMK AO2 $
53144K9L2 9L220160427035010104/27/16 03:50:31  5-MIN K9L2 271150Z AUTO 26012KT 10SM CLR 14/00 A2983 2390 38 2900 250/12 RMK AO2 $
53144K9L2 9L220160427035514204/27/16 03:55:31  5-MIN K9L2 271155Z AUTO 26010G20KT 10SM CLR 14/00 A2983 2390 38 2900 250/10G20 RMK AO2 SLP090 T01390000 10161 20133 56010 $
53144K9L2 9L220160427040010704/27/16 04:00:31  5-MIN K9L2 271200Z AUTO 26010G20KT 10SM CLR 14/00 A2982 2390 38 2900 250/10G20 RMK AO2 $
53144K9L2 9L220160427040510104/27/16 04:05:31  5-MIN K9L2 271205Z AUTO 23009KT 10SM CLR 14/00 A2982 2400 38 2900 220/09 RMK AO2 $
53144K9L2 9L220160427041010104/27/16 04:10:31  5-MIN K9L2 271210Z AUTO 24007KT 10SM CLR 14/00 A2982 2400 38 2900 230/07 RMK AO2 $
53144K9L2 9L220160427041510104/27/16 04:15:31  5-MIN K9L2 271215Z AUTO 23004KT 10SM CLR 14/00 A2982 2400 38 2900 220/04 RMK AO2 $
53144K9L2 9L220160427042010204/27/16 04:20:31  5-MIN K9L2 271220Z AUTO 23007KT 10SM CLR 14/M01 A2982 2400 35 2900 220/07 RMK AO2 $
53144K9L2 9L220160427042510204/27/16 04:25:31  5-MIN K9L2 271225Z AUTO 26009KT 10SM CLR 14/M01 A2982 2400 35 2900 240/09 RMK AO2 $
53144K9L2 9L220160427043010204/27/16 04:30:31  5-MIN K9L2 271230Z AUTO 25007KT 10SM CLR 14/M01 A2982 2400 37 2900 240/07 RMK AO2 $
53144K9L2 9L220160427043510204/27/16 04:35:31  5-MIN K9L2 271235Z AUTO 27005KT 10SM CLR 14/M01 A2981 2400 37 2900 260/05 RMK AO2 $
53144K9L2 9L220160427044010204/27/16 04:40:31  5-MIN K9L2 271240Z AUTO 02003KT 10SM CLR 14/M01 A2981 2410 37 2900 360/03 RMK AO2 $
53144K9L2 9L220160427044510204/27/16 04:45:31  5-MIN K9L2 271245Z AUTO 05003KT 10SM CLR 13/M01 A2981 2410 36 2800 030/03 RMK AO2 $
53144K9L2 9L220160427045010204/27/16 04:50:31  5-MIN K9L2 271250Z AUTO 06004KT 10SM CLR 13/M01 A2981 2400 38 2800 050/04 RMK AO2 $
53144K9L2 9L220160427045511904/27/16 04:55:31  5-MIN K9L2 271255Z AUTO 06004KT 10SM CLR 13/M01 A2981 2400 38 2800 050/04 RMK AO2 SLP088 T01331006 $
53144K9L2 9L220160427050010204/27/16 05:00:31  5-MIN K9L2 271300Z AUTO 00000KT 10SM CLR 13/M01 A2982 2390 39 2700 000/00 RMK AO2 $
53144K9L2 9L220160427050510204/27/16 05:05:31  5-MIN K9L2 271305Z AUTO 25004KT 10SM CLR 13/M01 A2983 2390 36 2800 230/04 RMK AO2 $
53144K9L2 9L220160427051010204/27/16 05:10:31  5-MIN K9L2 271310Z AUTO 24006KT 10SM CLR 14/M01 A2983 2380 35 2800 230/06 RMK AO2 $
53144K9L2 9L220160427051511804/27/16 05:15:31  5-MIN K9L2 271315Z AUTO 25009KT 220V280 10SM CLR 14/M01 A2983 2380 34 2900 240/09 210V270 RMK AO2 $
53144K9L2 9L220160427052010804/27/16 05:20:31  5-MIN K9L2 271320Z AUTO 27015G20KT 10SM CLR 14/M01 A2983 2390 37 2800 260/15G20 RMK AO2 $
53144K9L2 9L220160427052511104/27/16 05:25:31  5-MIN K9L2 271325Z AUTO 26015G20KT 10SM FEW100 14/M01 A2983 2380 37 2800 250/15G20 RMK AO2 $
53144K9L2 9L220160427053010504/27/16 05:30:31  5-MIN K9L2 271330Z AUTO 26014KT 10SM SCT100 14/M01 A2983 2390 35 2800 250/14 RMK AO2 $
53144K9L2 9L220160427053510504/27/16 05:35:31  5-MIN K9L2 271335Z AUTO 26014KT 10SM SCT100 14/M01 A2983 2390 35 2800 250/14 RMK AO2 $
53144K9L2 9L220160427054011104/27/16 05:40:31  5-MIN K9L2 271340Z AUTO 27014G20KT 10SM BKN100 14/M01 A2983 2390 35 2900 260/14G20 RMK AO2 $
53144K9L2 9L220160427054511104/27/16 05:45:31  5-MIN K9L2 271345Z AUTO 28012G20KT 10SM BKN095 14/M01 A2983 2390 34 2900 270/12G20 RMK AO2 $
53144K9L2 9L220160427055011104/27/16 05:50:31  5-MIN K9L2 271350Z AUTO 29009G17KT 10SM OVC095 14/M02 A2983 2390 33 2900 280/09G17 RMK AO2 $
53144K9L2 9L220160427055512804/27/16 05:55:31  5-MIN K9L2 271355Z AUTO 29008G17KT 10SM OVC095 15/M02 A2983 2390 31 3000 280/08G17 RMK AO2 SLP094 T01501017 $
53144K9L2 9L220160427060010504/27/16 06:00:31  5-MIN K9L2 271400Z AUTO 27010KT 10SM OVC095 15/M02 A2983 2380 31 3000 250/10 RMK AO2 $
53144K9L2 9L220160427060510504/27/16 06:05:31  5-MIN K9L2 271405Z AUTO 29007KT 10SM OVC095 15/M02 A2983 2380 31 3000 280/07 RMK AO2 $
53144K9L2 9L220160427061010504/27/16 06:10:31  5-MIN K9L2 271410Z AUTO 27011KT 10SM OVC095 16/M02 A2984 2380 30 3000 260/11 RMK AO2 $
53144K9L2 9L220160427061510504/27/16 06:15:31  5-MIN K9L2 271415Z AUTO 25010KT 10SM OVC095 15/M02 A2983 2380 31 3000 240/10 RMK AO2 $
53144K9L2 9L220160427062010504/27/16 06:20:31  5-MIN K9L2 271420Z AUTO 24011KT 10SM OVC100 16/M02 A2983 2380 30 3000 230/11 RMK AO2 $
53144K9L2 9L220160427062510504/27/16 06:25:31  5-MIN K9L2 271425Z AUTO 25010KT 10SM BKN100 15/M01 A2984 2380 33 3000 240/10 RMK AO2 $
53144K9L2 9L220160427063010504/27/16 06:30:31  5-MIN K9L2 271430Z AUTO 26008KT 10SM BKN100 15/M02 A2984 2380 31 3000 240/08 RMK AO2 $
53144K9L2 9L220160427063510504/27/16 06:35:31  5-MIN K9L2 271435Z AUTO 28005KT 10SM SCT100 16/M02 A2984 2380 28 3100 260/05 RMK AO2 $
53144K9L2 9L220160427064010504/27/16 06:40:31  5-MIN K9L2 271440Z AUTO 31004KT 10SM SCT100 16/M02 A2984 2380 29 3100 290/04 RMK AO2 $
53144K9L2 9L220160427064511104/27/16 06:45:31  5-MIN K9L2 271445Z AUTO 28012G19KT 10SM FEW100 17/M02 A2984 2370 28 3200 270/12G19 RMK AO2 $
53144K9L2 9L220160427065011104/27/16 06:50:31  5-MIN K9L2 271450Z AUTO 28016G22KT 10SM FEW100 16/M01 A2984 2370 30 3100 270/16G22 RMK AO2 $
53144K9L2 9L220160427065514904/27/16 06:55:31  5-MIN K9L2 271455Z AUTO 28020G26KT 10SM CLR 16/M01 A2984 2380 33 3000 260/20G26 RMK AO2 PK WND 28026/1452 SLP098 T01561006 56010 $
53144K9L2 9L220160427070010804/27/16 07:00:31  5-MIN K9L2 271500Z AUTO 27019G26KT 10SM CLR 16/M01 A2984 2380 33 3000 260/19G26 RMK AO2 $
53144K9L2 9L220160427070512604/27/16 07:05:31  5-MIN K9L2 271505Z AUTO 27021G26KT 10SM CLR 15/M01 A2984 2380 34 3000 260/21G26 RMK AO2 PK WND 26026/1503 $
53144K9L2 9L220160427071012604/27/16 07:10:31  5-MIN K9L2 271510Z AUTO 27017G26KT 10SM CLR 15/M01 A2984 2380 34 3000 250/17G26 RMK AO2 PK WND 26026/1503 $
53144K9L2 9L220160427071512604/27/16 07:15:31  5-MIN K9L2 271515Z AUTO 26016G25KT 10SM CLR 16/M01 A2984 2370 33 3000 250/16G25 RMK AO2 PK WND 26026/1503 $
53144K9L2 9L220160427072012604/27/16 07:20:31  5-MIN K9L2 271520Z AUTO 27018G25KT 10SM CLR 16/M01 A2984 2380 33 3000 260/18G25 RMK AO2 PK WND 26026/1503 $
53144K9L2 9L220160427072512604/27/16 07:25:31  5-MIN K9L2 271525Z AUTO 27020G26KT 10SM CLR 16/M01 A2984 2380 32 3100 250/20G26 RMK AO2 PK WND 26026/1524 $
53144K9L2 9L220160427073012604/27/16 07:30:31  5-MIN K9L2 271530Z AUTO 27020G26KT 10SM CLR 16/M01 A2984 2380 32 3100 260/20G26 RMK AO2 PK WND 26026/1524 $
53144K9L2 9L220160427073512004/27/16 07:35:31  5-MIN K9L2 271535Z AUTO 27019KT 10SM CLR 16/M01 A2984 2380 32 3100 260/19 RMK AO2 PK WND 26026/1524 $
53144K9L2 9L220160427074012004/27/16 07:40:31  5-MIN K9L2 271540Z AUTO 27021KT 10SM CLR 16/M01 A2984 2380 32 3100 250/21 RMK AO2 PK WND 26026/1524 $
53144K9L2 9L220160427074511904/27/16 07:45:31  5-MIN K9L2 271545Z AUTO 27022KT 10SM CLR 16/00 A2984 2370 33 3100 250/22 RMK AO2 PK WND 26026/1524 $
53144K9L2 9L220160427075012504/27/16 07:50:31  5-MIN K9L2 271550Z AUTO 27020G26KT 10SM CLR 16/00 A2984 2380 33 3100 250/20G26 RMK AO2 PK WND 27026/1546 $
53144K9L2 9L220160427075514204/27/16 07:55:31  5-MIN K9L2 271555Z AUTO 27023G28KT 10SM CLR 17/00 A2984 2380 32 3200 260/23G28 RMK AO2 PK WND 26028/1554 SLP098 T01670000 $
53144K9L2 9L220160427080012604/27/16 08:00:31  5-MIN K9L2 271600Z AUTO 28022G30KT 10SM CLR 16/M01 A2984 2370 32 3100 270/22G30 RMK AO2 PK WND 28030/1557 $
53144K9L2 9L220160427080512504/27/16 08:05:31  5-MIN K9L2 271605Z AUTO 28024G30KT 10SM CLR 16/00 A2985 2370 33 3100 270/24G30 RMK AO2 PK WND 29030/1604 $
53144K9L2 9L220160427081012504/27/16 08:10:31  5-MIN K9L2 271610Z AUTO 28024G30KT 10SM CLR 16/00 A2984 2370 33 3100 270/24G30 RMK AO2 PK WND 29030/1604 $
53144K9L2 9L220160427081512504/27/16 08:15:31  5-MIN K9L2 271615Z AUTO 28024G30KT 10SM CLR 16/00 A2984 2370 33 3100 260/24G30 RMK AO2 PK WND 28030/1614 $
53144K9L2 9L220160427082012604/27/16 08:20:31  5-MIN K9L2 271620Z AUTO 27025G33KT 10SM CLR 17/M01 A2984 2380 31 3200 260/25G33 RMK AO2 PK WND 27033/1618 $
53144K9L2 9L220160427082512604/27/16 08:25:31  5-MIN K9L2 271625Z AUTO 27027G33KT 10SM CLR 17/M01 A2984 2380 31 3200 260/27G33 RMK AO2 PK WND 27033/1618 $
53144K9L2 9L220160427083012504/27/16 08:30:31  5-MIN K9L2 271630Z AUTO 27027G32KT 10SM CLR 17/00 A2984 2380 32 3200 260/27G32 RMK AO2 PK WND 27033/1618 $
53144K9L2 9L220160427083512504/27/16 08:35:31  5-MIN K9L2 271635Z AUTO 26026G32KT 10SM CLR 17/00 A2984 2380 31 3200 250/26G32 RMK AO2 PK WND 27033/1618 $
53144K9L2 9L220160427084012504/27/16 08:40:31  5-MIN K9L2 271640Z AUTO 26027G32KT 10SM CLR 17/00 A2984 2380 31 3200 250/27G32 RMK AO2 PK WND 27033/1618 $
53144K9L2 9L220160427084512504/27/16 08:45:31  5-MIN K9L2 271645Z AUTO 26024G32KT 10SM CLR 17/00 A2984 2380 31 3200 240/24G32 RMK AO2 PK WND 27033/1618 $
53144K9L2 9L220160427085012504/27/16 08:50:31  5-MIN K9L2 271650Z AUTO 25021G31KT 10SM CLR 17/00 A2984 2380 31 3200 240/21G31 RMK AO2 PK WND 27033/1618 $
53144K9L2 9L220160427085514204/27/16 08:55:31  5-MIN K9L2 271655Z AUTO 26024G31KT 10SM CLR 18/00 A2983 2380 30 3300 240/24G31 RMK AO2 PK WND 27033/1618 SLP095 T01780000 $
53144K9L2 9L220160427090012604/27/16 09:00:31  5-MIN K9L2 271700Z AUTO 26022G30KT 10SM CLR 18/M01 A2984 2380 28 3300 250/22G30 RMK AO2 PK WND 27029/1700 $
53144K9L2 9L220160427090512604/27/16 09:05:31  5-MIN K9L2 271705Z AUTO 28020G29KT 10SM CLR 18/M01 A2984 2380 26 3400 260/20G29 RMK AO2 PK WND 26029/1702 $
53144K9L2 9L220160427091012604/27/16 09:10:31  5-MIN K9L2 271710Z AUTO 27020G29KT 10SM CLR 18/M01 A2984 2380 26 3400 260/20G29 RMK AO2 PK WND 26029/1702 $
53144K9L2 9L220160427091512604/27/16 09:15:31  5-MIN K9L2 271715Z AUTO 28024G31KT 10SM CLR 19/M01 A2983 2380 25 3400 270/24G31 RMK AO2 PK WND 29031/1715 $
53144K9L2 9L220160427092012604/27/16 09:20:31  5-MIN K9L2 271720Z AUTO 28023G32KT 10SM CLR 18/M01 A2983 2390 26 3400 260/23G32 RMK AO2 PK WND 28032/1717 $
53144K9L2 9L220160427092512604/27/16 09:25:31  5-MIN K9L2 271725Z AUTO 28026G32KT 10SM CLR 19/M01 A2983 2390 26 3400 260/26G32 RMK AO2 PK WND 27032/1724 $
53144K9L2 9L220160427093012604/27/16 09:30:31  5-MIN K9L2 271730Z AUTO 28028G34KT 10SM CLR 19/M01 A2982 2390 26 3400 260/28G34 RMK AO2 PK WND 28034/1729 $
53144K9L2 9L220160427093512604/27/16 09:35:31  5-MIN K9L2 271735Z AUTO 27026G34KT 10SM CLR 19/M01 A2982 2390 26 3400 260/26G34 RMK AO2 PK WND 28034/1732 $
53144K9L2 9L220160427094012604/27/16 09:40:31  5-MIN K9L2 271740Z AUTO 27022G34KT 10SM CLR 19/M01 A2983 2390 26 3400 260/22G34 RMK AO2 PK WND 28034/1732 $
53144K9L2 9L220160427094512604/27/16 09:45:31  5-MIN K9L2 271745Z AUTO 26023G31KT 10SM CLR 18/M01 A2983 2390 27 3400 250/23G31 RMK AO2 PK WND 28034/1732 $
53144K9L2 9L220160427095012504/27/16 09:50:31  5-MIN K9L2 271750Z AUTO 27020G29KT 10SM CLR 19/00 A2983 2390 28 3400 260/20G29 RMK AO2 PK WND 28034/1732 $
53144K9L2 9L220160427095516004/27/16 09:55:31  5-MIN K9L2 271755Z AUTO 26021G30KT 10SM CLR 19/00 A2982 2400 28 3400 250/21G30 RMK AO2 PK WND 28034/1732 SLP088 T01890000 10189 20128 53004 $
53144K9L2 9L220160427100012504/27/16 10:00:31  5-MIN K9L2 271800Z AUTO 27028G34KT 10SM CLR 19/00 A2981 2400 27 3500 250/28G34 RMK AO2 PK WND 26034/1800 $
53144K9L2 9L220160427100512604/27/16 10:05:31  5-MIN K9L2 271805Z AUTO 28028G35KT 10SM CLR 19/M01 A2981 2400 26 3500 260/28G35 RMK AO2 PK WND 27035/1805 $
53144K9L2 9L220160427101012604/27/16 10:10:31  5-MIN K9L2 271810Z AUTO 27025G35KT 10SM CLR 19/M01 A2981 2400 26 3500 250/25G35 RMK AO2 PK WND 27035/1805 $
53144K9L2 9L220160427101512604/27/16 10:15:31  5-MIN K9L2 271815Z AUTO 26025G34KT 10SM CLR 19/M01 A2981 2400 26 3500 250/25G34 RMK AO2 PK WND 27035/1805 $
53144K9L2 9L220160427102012604/27/16 10:20:31  5-MIN K9L2 271820Z AUTO 27028G33KT 10SM CLR 20/M01 A2981 2410 25 3600 260/28G33 RMK AO2 PK WND 27035/1805 $
53144K9L2 9L220160427102512604/27/16 10:25:31  5-MIN K9L2 271825Z AUTO 27026G38KT 10SM CLR 20/M01 A2981 2410 25 3600 260/26G38 RMK AO2 PK WND 27038/1823 $
53144K9L2 9L220160427103012604/27/16 10:30:31  5-MIN K9L2 271830Z AUTO 27027G38KT 10SM CLR 20/M01 A2981 2400 25 3600 260/27G38 RMK AO2 PK WND 27038/1823 $
53144K9L2 9L220160427103512604/27/16 10:35:31  5-MIN K9L2 271835Z AUTO 27026G35KT 10SM CLR 20/M01 A2981 2400 25 3600 260/26G35 RMK AO2 PK WND 27038/1823 $
53144K9L2 9L220160427104012604/27/16 10:40:31  5-MIN K9L2 271840Z AUTO 27027G34KT 10SM CLR 19/M01 A2982 2400 26 3500 260/27G34 RMK AO2 PK WND 27038/1823 $
53144K9L2 9L220160427104512604/27/16 10:45:31  5-MIN K9L2 271845Z AUTO 26022G32KT 10SM CLR 20/M01 A2982 2400 24 3600 250/22G32 RMK AO2 PK WND 27038/1823 $
53144K9L2 9L220160427105012604/27/16 10:50:31  5-MIN K9L2 271850Z AUTO 25021G28KT 10SM CLR 20/M01 A2982 2400 25 3600 230/21G28 RMK AO2 PK WND 27038/1823 $
53144K9L2 9L220160427105514304/27/16 10:55:31  5-MIN K9L2 271855Z AUTO 26018G28KT 10SM CLR 21/M02 A2982 2400 22 3600 240/18G28 RMK AO2 PK WND 27038/1823 SLP086 T02061017 $
53144K9L2 9L220160427110012604/27/16 11:00:31  5-MIN K9L2 271900Z AUTO 25021G27KT 10SM CLR 21/M02 A2981 2410 22 3600 240/21G27 RMK AO2 PK WND 24027/1900 $
53144K9L2 9L220160427110512604/27/16 11:05:31  5-MIN K9L2 271905Z AUTO 25024G31KT 10SM CLR 21/M02 A2980 2410 21 3700 230/24G31 RMK AO2 PK WND 25031/1905 $
53144K9L2 9L220160427111012604/27/16 11:10:31  5-MIN K9L2 271910Z AUTO 25020G31KT 10SM CLR 21/M02 A2980 2410 21 3700 240/20G31 RMK AO2 PK WND 25031/1905 $
53144K9L2 9L220160427111512604/27/16 11:15:31  5-MIN K9L2 271915Z AUTO 26024G30KT 10SM CLR 21/M02 A2980 2420 21 3700 250/24G30 RMK AO2 PK WND 25031/1905 $
53144K9L2 9L220160427112012604/27/16 11:20:31  5-MIN K9L2 271920Z AUTO 26025G31KT 10SM CLR 22/M02 A2979 2420 20 3800 250/25G31 RMK AO2 PK WND 26031/1920 $
53144K9L2 9L220160427112512604/27/16 11:25:31  5-MIN K9L2 271925Z AUTO 27027G31KT 10SM CLR 21/M02 A2979 2420 21 3700 250/27G31 RMK AO2 PK WND 27031/1925 $
53144K9L2 9L220160427113012604/27/16 11:30:31  5-MIN K9L2 271930Z AUTO 27025G31KT 10SM CLR 21/M02 A2979 2420 21 3700 260/25G31 RMK AO2 PK WND 27031/1926 $
53144K9L2 9L220160427113512604/27/16 11:35:31  5-MIN K9L2 271935Z AUTO 27026G32KT 10SM CLR 22/M02 A2979 2430 20 3800 260/26G32 RMK AO2 PK WND 27032/1933 $
53144K9L2 9L220160427114012604/27/16 11:40:31  5-MIN K9L2 271940Z AUTO 26024G32KT 10SM CLR 21/M02 A2979 2430 20 3700 250/24G32 RMK AO2 PK WND 26032/1939 $
53144K9L2 9L220160427114512604/27/16 11:45:31  5-MIN K9L2 271945Z AUTO 25025G32KT 10SM CLR 21/M02 A2978 2430 21 3700 240/25G32 RMK AO2 PK WND 26032/1939 $
53144K9L2 9L220160427115012604/27/16 11:50:31  5-MIN K9L2 271950Z AUTO 25024G30KT 10SM CLR 22/M02 A2978 2430 20 3800 240/24G30 RMK AO2 PK WND 26032/1939 $
53144K9L2 9L220160427115514304/27/16 11:55:31  5-MIN K9L2 271955Z AUTO 25024G34KT 10SM CLR 22/M02 A2978 2430 19 3900 240/24G34 RMK AO2 PK WND 25034/1952 SLP073 T02221022 $
53144K9L2 9L220160427120012604/27/16 12:00:31  5-MIN K9L2 272000Z AUTO 26023G34KT 10SM CLR 22/M02 A2978 2440 19 3900 250/23G34 RMK AO2 PK WND 27030/2000 $
53144K9L2 9L220160427120512604/27/16 12:05:31  5-MIN K9L2 272005Z AUTO 28028G35KT 10SM CLR 22/M02 A2977 2440 19 3900 270/28G35 RMK AO2 PK WND 27035/2005 $
53144K9L2 9L220160427121012604/27/16 12:10:31  5-MIN K9L2 272010Z AUTO 26029G35KT 10SM CLR 22/M02 A2976 2450 20 3800 250/29G35 RMK AO2 PK WND 26035/2009 $
53144K9L2 9L220160427121512604/27/16 12:15:31  5-MIN K9L2 272015Z AUTO 27028G35KT 10SM CLR 22/M03 A2976 2450 19 3800 260/28G35 RMK AO2 PK WND 27035/2011 $
53144K9L2 9L220160427122012604/27/16 12:20:31  5-MIN K9L2 272020Z AUTO 28025G35KT 10SM CLR 22/M02 A2976 2450 19 3900 260/25G35 RMK AO2 PK WND 27035/2011 $
53144K9L2 9L220160427122512604/27/16 12:25:31  5-MIN K9L2 272025Z AUTO 27030G35KT 10SM CLR 22/M02 A2976 2450 19 3900 250/30G35 RMK AO2 PK WND 28035/2021 $
53144K9L2 9L220160427123012604/27/16 12:30:31  5-MIN K9L2 272030Z AUTO 26027G35KT 10SM CLR 22/M02 A2976 2450 19 3900 250/27G35 RMK AO2 PK WND 28035/2021 $
53144K9L2 9L220160427123512604/27/16 12:35:31  5-MIN K9L2 272035Z AUTO 27023G33KT 10SM CLR 22/M02 A2976 2450 19 3900 250/23G33 RMK AO2 PK WND 28035/2021 $
53144K9L2 9L220160427124012604/27/16 12:40:31  5-MIN K9L2 272040Z AUTO 27029G34KT 10SM CLR 23/M02 A2975 2460 18 4000 260/29G34 RMK AO2 PK WND 28035/2021 $
53144K9L2 9L220160427124512604/27/16 12:45:31  5-MIN K9L2 272045Z AUTO 27025G34KT 10SM CLR 22/M02 A2975 2460 19 3900 260/25G34 RMK AO2 PK WND 28035/2021 $
53144K9L2 9L220160427125012604/27/16 12:50:31  5-MIN K9L2 272050Z AUTO 28029G36KT 10SM CLR 22/M03 A2974 2470 18 3900 260/29G36 RMK AO2 PK WND 27036/2050 $
53144K9L2 9L220160427125514904/27/16 12:55:31  5-MIN K9L2 272055Z AUTO 28031G37KT 10SM CLR 22/M02 A2974 2470 20 3800 270/31G37 RMK AO2 PK WND 28037/2054 SLP058 T02171022 58006 $
53144K9L2 9L220160427130012604/27/16 13:00:31  5-MIN K9L2 272100Z AUTO 28032G40KT 10SM CLR 22/M02 A2974 2470 20 3800 260/32G40 RMK AO2 PK WND 28039/2100 $
53144K9L2 9L220160427130512604/27/16 13:05:31  5-MIN K9L2 272105Z AUTO 28032G42KT 10SM CLR 22/M03 A2974 2470 18 3900 260/32G42 RMK AO2 PK WND 27042/2103 $
53144K9L2 9L220160427131012604/27/16 13:10:31  5-MIN K9L2 272110Z AUTO 27029G42KT 10SM CLR 23/M03 A2974 2470 18 4000 260/29G42 RMK AO2 PK WND 27042/2103 $
53144K9L2 9L220160427131512604/27/16 13:15:31  5-MIN K9L2 272115Z AUTO 27033G41KT 10SM CLR 22/M03 A2974 2470 17 3900 250/33G41 RMK AO2 PK WND 27042/2103 $
53144K9L2 9L220160427132012604/27/16 13:20:31  5-MIN K9L2 272120Z AUTO 27031G41KT 10SM CLR 22/M03 A2974 2470 19 3800 260/31G41 RMK AO2 PK WND 27042/2103 $
53144K9L2 9L220160427132512604/27/16 13:25:31  5-MIN K9L2 272125Z AUTO 27031G39KT 10SM CLR 22/M03 A2975 2460 19 3800 260/31G39 RMK AO2 PK WND 27042/2103 $
53144K9L2 9L220160427133012604/27/16 13:30:31  5-MIN K9L2 272130Z AUTO 27025G37KT 10SM CLR 22/M03 A2975 2460 17 3900 260/25G37 RMK AO2 PK WND 27042/2103 $
53144K9L2 9L220160427133512604/27/16 13:35:31  5-MIN K9L2 272135Z AUTO 28020G34KT 10SM CLR 22/M03 A2975 2460 17 3900 270/20G34 RMK AO2 PK WND 27042/2103 $
53144K9L2 9L220160427134012604/27/16 13:40:31  5-MIN K9L2 272140Z AUTO 28023G32KT 10SM CLR 22/M03 A2975 2460 17 3900 270/23G32 RMK AO2 PK WND 27042/2103 $
53144K9L2 9L220160427134512604/27/16 13:45:31  5-MIN K9L2 272145Z AUTO 28027G32KT 10SM CLR 22/M03 A2974 2470 17 3900 270/27G32 RMK AO2 PK WND 27042/2103 $
53144K9L2 9L220160427135012604/27/16 13:50:31  5-MIN K9L2 272150Z AUTO 28028G34KT 10SM CLR 22/M03 A2974 2470 18 3800 270/28G34 RMK AO2 PK WND 27042/2103 $
53144K9L2 9L220160427135514304/27/16 13:55:31  5-MIN K9L2 272155Z AUTO 28025G36KT 10SM CLR 22/M03 A2973 2480 17 3900 270/25G36 RMK AO2 PK WND 27042/2103 SLP056 T02221033 $
53144K9L2 9L220160427140012604/27/16 14:00:31  5-MIN K9L2 272200Z AUTO 27027G36KT 10SM CLR 22/M03 A2973 2480 18 3900 260/27G36 RMK AO2 PK WND 28036/2158 $
53144K9L2 9L220160427140512604/27/16 14:05:31  5-MIN K9L2 272205Z AUTO 27025G36KT 10SM CLR 22/M03 A2974 2470 17 3900 260/25G36 RMK AO2 PK WND 28036/2158 $
53144K9L2 9L220160427141012604/27/16 14:10:31  5-MIN K9L2 272210Z AUTO 27024G34KT 10SM CLR 22/M03 A2973 2480 18 3900 260/24G34 RMK AO2 PK WND 28036/2158 $
53144K9L2 9L220160427141512604/27/16 14:15:31  5-MIN K9L2 272215Z AUTO 26023G31KT 10SM CLR 22/M03 A2973 2480 17 3900 250/23G31 RMK AO2 PK WND 28036/2158 $
53144K9L2 9L220160427142012604/27/16 14:20:31  5-MIN K9L2 272220Z AUTO 26027G34KT 10SM CLR 22/M03 A2973 2480 17 3900 250/27G34 RMK AO2 PK WND 28036/2158 $
53144K9L2 9L220160427142512604/27/16 14:25:31  5-MIN K9L2 272225Z AUTO 27027G34KT 10SM CLR 22/M03 A2973 2480 18 3900 260/27G34 RMK AO2 PK WND 28036/2158 $
53144K9L2 9L220160427143012604/27/16 14:30:31  5-MIN K9L2 272230Z AUTO 25021G33KT 10SM CLR 21/M03 A2973 2480 20 3800 240/21G33 RMK AO2 PK WND 28036/2158 $
53144K9L2 9L220160427143512604/27/16 14:35:31  5-MIN K9L2 272235Z AUTO 27020G29KT 10SM CLR 22/M03 A2973 2480 19 3900 260/20G29 RMK AO2 PK WND 28036/2158 $
53144K9L2 9L220160429102510104/29/16 10:25:31  5-MIN K9L2 291825Z AUTO 20006KT 10SM CLR 22/01 A2993 2290 24 3700 190/06 RMK AO2 $
53144K9L2 9L220160429103010104/29/16 10:30:31  5-MIN K9L2 291830Z AUTO 19008KT 10SM CLR 23/02 A2993 2290 24 3800 170/08 RMK AO2 $
53144K9L2 9L220160429103510104/29/16 10:35:31  5-MIN K9L2 291835Z AUTO 21005KT 10SM CLR 23/01 A2993 2290 23 3800 190/05 RMK AO2 $
53144K9L2 9L220160429104010104/29/16 10:40:31  5-MIN K9L2 291840Z AUTO VRB05KT 10SM CLR 23/01 A2993 2290 23 3800 VRB/05 RMK AO2 $
53144K9L2 9L220160429104510104/29/16 10:45:31  5-MIN K9L2 291845Z AUTO VRB05KT 10SM CLR 23/01 A2993 2300 23 3800 VRB/05 RMK AO2 $
53144K9L2 9L220160429105010704/29/16 10:50:31  5-MIN K9L2 291850Z AUTO 31007G17KT 10SM CLR 23/00 A2993 2290 21 3800 300/07G17 RMK AO2 $
53144K9L2 9L220160429105512504/29/16 10:55:31  5-MIN K9L2 291855Z AUTO VRB05G17KT 10SM CLR 23/M01 A2993 2300 20 3800 VRB/05G17 RMK AO2 SLP125 T02331006 $
53144K9L2 9L220160429110010804/29/16 11:00:31  5-MIN K9L2 291900Z AUTO 26007G17KT 10SM CLR 24/M01 A2993 2300 19 3900 240/07G17 RMK AO2 $
53144K9L2 9L220160429110510804/29/16 11:05:31  5-MIN K9L2 291905Z AUTO VRB04G17KT 10SM CLR 23/M01 A2992 2300 20 3800 VRB/04G17 RMK AO2 $
53144K9L2 9L220160429111010204/29/16 11:10:31  5-MIN K9L2 291910Z AUTO VRB03KT 10SM CLR 24/M01 A2992 2310 19 3900 VRB/03 RMK AO2 $
53144K9L2 9L220160429111510804/29/16 11:15:31  5-MIN K9L2 291915Z AUTO 27012G17KT 10SM CLR 25/M01 A2991 2310 17 4000 260/12G17 RMK AO2 $
53144K9L2 9L220160429112011104/29/16 11:20:31  5-MIN K9L2 291920Z AUTO 26010G19KT 10SM FEW065 26/M01 A2991 2310 17 4100 240/10G19 RMK AO2 $
53144K9L2 9L220160429112511004/29/16 11:25:31  5-MIN K9L2 291925Z AUTO 25015G20KT 10SM FEW065 25/00 A2991 2310 19 4000 240/15G20 RMK AO2 $
53144K9L2 9L220160429113010804/29/16 11:30:31  5-MIN K9L2 291930Z AUTO 26016G25KT 10SM CLR 25/M01 A2991 2320 18 4000 250/16G25 RMK AO2 $
53144K9L2 9L220160429113510804/29/16 11:35:31  5-MIN K9L2 291935Z AUTO 24016G25KT 10SM CLR 25/M02 A2990 2320 17 4000 230/16G25 RMK AO2 $
53144K9L2 9L220160429114010804/29/16 11:40:31  5-MIN K9L2 291940Z AUTO 28016G23KT 10SM CLR 26/M02 A2990 2320 16 4100 260/16G23 RMK AO2 $
53144K9L2 9L220160429114510804/29/16 11:45:31  5-MIN K9L2 291945Z AUTO 29015G24KT 10SM CLR 25/M04 A2990 2320 14 4000 270/15G24 RMK AO2 $
53144K9L2 9L220160429115010804/29/16 11:50:31  5-MIN K9L2 291950Z AUTO 29012G20KT 10SM CLR 25/M03 A2990 2320 15 4000 270/12G20 RMK AO2 $
53144K9L2 9L220160429115512504/29/16 11:55:31  5-MIN K9L2 291955Z AUTO 30005G20KT 10SM CLR 24/M03 A2989 2330 16 4000 280/05G20 RMK AO2 SLP114 T02441028 $
53144K9L2 9L220160429120010804/29/16 12:00:31  5-MIN K9L2 292000Z AUTO 31008G14KT 10SM CLR 24/M03 A2990 2330 16 4000 300/08G14 RMK AO2 $
53144K9L2 9L220160429120510804/29/16 12:05:31  5-MIN K9L2 292005Z AUTO 30010G16KT 10SM CLR 25/M03 A2989 2330 15 4000 280/10G16 RMK AO2 $
53144K9L2 9L220160429121012404/29/16 12:10:31  5-MIN K9L2 292010Z AUTO 32016G23KT 270V340 10SM CLR 26/M02 A2989 2330 15 4200 300/16G23 260V330 RMK AO2 $
53144K9L2 9L220160429121510804/29/16 12:15:31  5-MIN K9L2 292015Z AUTO 28019G24KT 10SM CLR 26/M01 A2989 2330 17 4100 260/19G24 RMK AO2 $
53144K9L2 9L220160429122010804/29/16 12:20:31  5-MIN K9L2 292020Z AUTO 27017G25KT 10SM CLR 26/M02 A2989 2330 16 4100 260/17G25 RMK AO2 $
53144K9L2 9L220160429122510804/29/16 12:25:31  5-MIN K9L2 292025Z AUTO 31010G25KT 10SM CLR 25/M01 A2989 2330 17 4000 300/10G25 RMK AO2 $
53144K9L2 9L220160429123020204/29/16 12:30:31  5-MIN K9L2 292030Z AUTO 26014G24KT 10SM CLR 25/M01 A2989 2330 17 4100 240/14G24 RMK AO2 $26/M02 A2988 2340 16 4100 250/13G21 240V300 RMK AO2 PK WND 30026/2045 SLP107 T02561017 58005 $
53144K9L2 9L220160429130010804/29/16 13:00:31  5-MIN K9L2 292100Z AUTO 30015G23KT 10SM CLR 26/M01 A2988 2340 17 4100 290/15G23 RMK AO2 $
53144K9L2 9L220160429130510804/29/16 13:05:31  5-MIN K9L2 292105Z AUTO 29017G24KT 10SM CLR 25/M01 A2988 2340 17 4100 280/17G24 RMK AO2 $
53144K9L2 9L220160429131010804/29/16 13:10:31  5-MIN K9L2 292110Z AUTO 27011G24KT 10SM CLR 26/M01 A2988 2340 17 4100 260/11G24 RMK AO2 $
53144K9L2 9L220160429131510804/29/16 13:15:31  5-MIN K9L2 292115Z AUTO 29014G25KT 10SM CLR 26/M01 A2988 2340 16 4200 280/14G25 RMK AO2 $
53144K9L2 9L220160429132010804/29/16 13:20:31  5-MIN K9L2 292120Z AUTO 30012G25KT 10SM CLR 26/M02 A2988 2340 15 4200 280/12G25 RMK AO2 $
53144K9L2 9L220160429132510804/29/16 13:25:31  5-MIN K9L2 292125Z AUTO 27016G24KT 10SM CLR 26/M01 A2987 2350 17 4100 250/16G24 RMK AO2 $
53144K9L2 9L220160429133012504/29/16 13:30:31  5-MIN K9L2 292130Z AUTO 28019G27KT 10SM CLR 26/00 A2987 2350 18 4200 270/19G27 RMK AO2 PK WND 27027/2128 $
53144K9L2 9L220160429133514204/29/16 13:35:31  5-MIN K9L2 292135Z AUTO 29020G32KT 250V320 10SM CLR 26/M01 A2987 2350 17 4200 270/20G32 240V310 RMK AO2 PK WND 27032/2134 $
53144K9L2 9L220160429134012604/29/16 13:40:31  5-MIN K9L2 292140Z AUTO 28021G32KT 10SM CLR 26/M01 A2986 2360 17 4200 260/21G32 RMK AO2 PK WND 27032/2134 $
53144K9L2 9L220160429134512504/29/16 13:45:31  5-MIN K9L2 292145Z AUTO 27015G30KT 10SM CLR 26/00 A2987 2350 18 4100 260/15G30 RMK AO2 PK WND 27032/2134 $
53144K9L2 9L220160429135012504/29/16 13:50:31  5-MIN K9L2 292150Z AUTO 30015G25KT 10SM CLR 26/00 A2987 2350 18 4100 290/15G25 RMK AO2 PK WND 27032/2134 $
53144K9L2 9L220160429135514204/29/16 13:55:31  5-MIN K9L2 292155Z AUTO 28016G25KT 10SM CLR 26/00 A2987 2350 18 4100 270/16G25 RMK AO2 PK WND 27032/2134 SLP105 T02560000 $
53144K9L2 9L220160429140010704/29/16 14:00:31  5-MIN K9L2 292200Z AUTO 28013G20KT 10SM CLR 26/00 A2986 2360 18 4100 270/13G20 RMK AO2 $
53144K9L2 9L220160429140512504/29/16 14:05:31  5-MIN K9L2 292205Z AUTO 29021G28KT 10SM CLR 26/00 A2986 2360 18 4100 270/21G28 RMK AO2 PK WND 29028/2205 $
53144K9L2 9L220160429141012504/29/16 14:10:31  5-MIN K9L2 292210Z AUTO 28020G28KT 10SM CLR 25/01 A2986 2360 20 4100 270/20G28 RMK AO2 PK WND 29028/2210 $
53144K9L2 9L220160429141512504/29/16 14:15:31  5-MIN K9L2 292215Z AUTO 28022G31KT 10SM CLR 25/01 A2986 2360 20 4100 260/22G31 RMK AO2 PK WND 29031/2211 $
53144K9L2 9L220160429142012504/29/16 14:20:31  5-MIN K9L2 292220Z AUTO 28019G31KT 10SM CLR 25/01 A2986 2360 20 4100 270/19G31 RMK AO2 PK WND 29031/2211 $
53144K9L2 9L220160429142512504/29/16 14:25:31  5-MIN K9L2 292225Z AUTO 28022G29KT 10SM CLR 26/01 A2986 2360 19 4100 270/22G29 RMK AO2 PK WND 29031/2211 $
53144K9L2 9L220160429143012504/29/16 14:30:31  5-MIN K9L2 292230Z AUTO 29022G29KT 10SM CLR 26/01 A2985 2360 19 4100 280/22G29 RMK AO2 PK WND 29031/2211 $
53144K9L2 9L220160429143512504/29/16 14:35:31  5-MIN K9L2 292235Z AUTO 28022G28KT 10SM CLR 24/01 A2985 2370 20 4000 270/22G28 RMK AO2 PK WND 29031/2211 $
53144K9L2 9L220160429144012504/29/16 14:40:31  5-MIN K9L2 292240Z AUTO 29023G30KT 10SM CLR 25/00 A2985 2370 19 4100 280/23G30 RMK AO2 PK WND 29031/2211 $
53144K9L2 9L220160429144512504/29/16 14:45:31  5-MIN K9L2 292245Z AUTO 28025G30KT 10SM CLR 25/00 A2984 2380 19 4100 270/25G30 RMK AO2 PK WND 29031/2211 $
53144K9L2 9L220160429145012504/29/16 14:50:31  5-MIN K9L2 292250Z AUTO 28024G33KT 10SM CLR 24/01 A2984 2380 20 4000 260/24G33 RMK AO2 PK WND 28033/2250 $
53144K9L2 9L220160429145514204/29/16 14:55:31  5-MIN K9L2 292255Z AUTO 28027G33KT 10SM CLR 25/01 A2984 2380 20 4100 270/27G33 RMK AO2 PK WND 29033/2254 SLP096 T02500006 $
53144K9L2 9L220160429150012504/29/16 15:00:31  5-MIN K9L2 292300Z AUTO 28029G36KT 10SM CLR 25/00 A2983 2380 19 4100 270/29G36 RMK AO2 PK WND 28036/2259 $
53144K9L2 9L220160429150512504/29/16 15:05:31  5-MIN K9L2 292305Z AUTO 29027G36KT 10SM CLR 24/00 A2983 2380 19 4000 280/27G36 RMK AO2 PK WND 28036/2259 $
53144K9L2 9L220160429151012504/29/16 15:10:31  5-MIN K9L2 292310Z AUTO 28026G36KT 10SM CLR 24/01 A2983 2380 20 4100 270/26G36 RMK AO2 PK WND 29036/2307 $
53144K9L2 9L220160429151512504/29/16 15:15:31  5-MIN K9L2 292315Z AUTO 28027G36KT 10SM CLR 24/00 A2983 2380 19 4100 270/27G36 RMK AO2 PK WND 29036/2307 $
53144K9L2 9L220160429152012504/29/16 15:20:31  5-MIN K9L2 292320Z AUTO 28028G33KT 10SM CLR 24/01 A2983 2390 20 4100 270/28G33 RMK AO2 PK WND 29036/2307 $
53144K9L2 9L220160429152512504/29/16 15:25:31  5-MIN K9L2 292325Z AUTO 28026G36KT 10SM CLR 24/00 A2983 2390 19 4100 260/26G36 RMK AO2 PK WND 27036/2323 $
53144K9L2 9L220160429153012604/29/16 15:30:31  5-MIN K9L2 292330Z AUTO 27026G36KT 10SM CLR 24/M01 A2983 2390 19 4100 260/26G36 RMK AO2 PK WND 27036/2323 $
53144K9L2 9L220160429153512504/29/16 15:35:31  5-MIN K9L2 292335Z AUTO 27025G35KT 10SM CLR 24/00 A2982 2390 20 4000 260/25G35 RMK AO2 PK WND 27036/2323 $
53144K9L2 9L220160429154012504/29/16 15:40:31  5-MIN K9L2 292340Z AUTO 27023G35KT 10SM CLR 24/00 A2983 2390 19 4100 260/23G35 RMK AO2 PK WND 27036/2323 $
53144K9L2 9L220160429154512504/29/16 15:45:31  5-MIN K9L2 292345Z AUTO 27025G33KT 10SM CLR 24/01 A2983 2390 21 4000 250/25G33 RMK AO2 PK WND 27036/2323 $
53144K9L2 9L220160429155012504/29/16 15:50:31  5-MIN K9L2 292350Z AUTO 27023G33KT 10SM CLR 24/01 A2983 2390 21 4000 250/23G33 RMK AO2 PK WND 27036/2323 $
53144K9L2 9L220160429155516004/29/16 15:55:31  5-MIN K9L2 292355Z AUTO 27026G32KT 10SM CLR 24/00 A2982 2390 20 4000 250/26G32 RMK AO2 PK WND 27036/2323 SLP092 T02390000 10261 20211 56022 $
53144K9L2 9L220160429160012504/29/16 16:00:31  5-MIN K9L2 300000Z AUTO 27026G33KT 10SM CLR 24/00 A2982 2390 20 4000 260/26G33 RMK AO2 PK WND 28033/2358 $
53144K9L2 9L220160429160512504/29/16 16:05:31  5-MIN K9L2 300005Z AUTO 27022G33KT 10SM CLR 24/00 A2982 2390 20 4000 260/22G33 RMK AO2 PK WND 28033/2358 $
53144K9L2 9L220160429161012604/29/16 16:10:31  5-MIN K9L2 300010Z AUTO 27024G30KT 10SM CLR 24/M01 A2982 2390 19 4000 260/24G30 RMK AO2 PK WND 28033/2358 $
53144K9L2 9L220160429161512604/29/16 16:15:31  5-MIN K9L2 300015Z AUTO 27022G32KT 10SM CLR 23/M01 A2983 2390 20 3900 250/22G32 RMK AO2 PK WND 28033/2358 $
53144K9L2 9L220160429162012504/29/16 16:20:31  5-MIN K9L2 300020Z AUTO 29026G32KT 10SM CLR 23/00 A2982 2390 21 3900 270/26G32 RMK AO2 PK WND 28033/2358 $
53144K9L2 9L220160429162512504/29/16 16:25:31  5-MIN K9L2 300025Z AUTO 27024G32KT 10SM CLR 23/01 A2982 2390 22 3900 260/24G32 RMK AO2 PK WND 28033/2358 $
53144K9L2 9L220160429163012504/29/16 16:30:31  5-MIN K9L2 300030Z AUTO 28022G32KT 10SM CLR 23/00 A2983 2390 22 3900 270/22G32 RMK AO2 PK WND 28033/2358 $
53144K9L2 9L220160429163512604/29/16 16:35:31  5-MIN K9L2 300035Z AUTO 28023G32KT 10SM CLR 23/M01 A2982 2390 21 3900 260/23G32 RMK AO2 PK WND 28033/2358 $
53144K9L2 9L220160429164012504/29/16 16:40:31  5-MIN K9L2 300040Z AUTO 28028G35KT 10SM CLR 23/00 A2982 2390 22 3900 270/28G35 RMK AO2 PK WND 28035/0039 $
53144K9L2 9L220160429164512604/29/16 16:45:31  5-MIN K9L2 300045Z AUTO 29024G35KT 10SM CLR 23/M01 A2982 2400 21 3900 270/24G35 RMK AO2 PK WND 28035/0039 $
53144K9L2 9L220160429165012604/29/16 16:50:31  5-MIN K9L2 300050Z AUTO 28027G32KT 10SM CLR 23/M01 A2982 2400 21 3900 270/27G32 RMK AO2 PK WND 28035/0039 $
53144K9L2 9L220160429165514304/29/16 16:55:31  5-MIN K9L2 300055Z AUTO 28025G34KT 10SM CLR 22/M01 A2982 2390 21 3800 270/25G34 RMK AO2 PK WND 28035/0039 SLP094 T02221006 $
53144K9L2 9L220160429170012604/29/16 17:00:31  5-MIN K9L2 300100Z AUTO 29026G34KT 10SM CLR 22/M01 A2983 2390 21 3800 270/26G34 RMK AO2 PK WND 28032/0057 $
53144K9L2 9L220160429170512604/29/16 17:05:31  5-MIN K9L2 300105Z AUTO 29025G32KT 10SM CLR 22/M01 A2983 2390 21 3800 280/25G32 RMK AO2 PK WND 28032/0057 $
53144K9L2 9L220160429171012604/29/16 17:10:31  5-MIN K9L2 300110Z AUTO 28020G30KT 10SM CLR 22/M01 A2983 2390 21 3800 270/20G30 RMK AO2 PK WND 28032/0057 $
53144K9L2 9L220160429171512604/29/16 17:15:31  5-MIN K9L2 300115Z AUTO 29024G31KT 10SM CLR 22/M01 A2982 2390 21 3800 270/24G31 RMK AO2 PK WND 28032/0057 $
53144K9L2 9L220160429172012604/29/16 17:20:31  5-MIN K9L2 300120Z AUTO 28018G31KT 10SM CLR 22/M01 A2982 2390 21 3800 270/18G31 RMK AO2 PK WND 28032/0057 $
53144K9L2 9L220160429172512604/29/16 17:25:31  5-MIN K9L2 300125Z AUTO 27014G28KT 10SM CLR 22/M01 A2981 2400 21 3800 260/14G28 RMK AO2 PK WND 28032/0057 $
53144K9L2 9L220160429173012604/29/16 17:30:31  5-MIN K9L2 300130Z AUTO 28024G32KT 10SM CLR 22/M01 A2981 2410 21 3800 270/24G32 RMK AO2 PK WND 28032/0130 $
53144K9L2 9L220160429173513304/29/16 17:35:31  5-MIN K9L2 300135Z AUTO 29029G37KT 10SM CLR 22/M01 A2980 2420 22 3800 270/29G37 RMK AO2 PK WND 29037/0134 PRESFR $
53144K9L2 9L220160429174012504/29/16 17:40:31  5-MIN K9L2 300140Z AUTO 29029G40KT 10SM CLR 22/00 A2979 2420 23 3800 270/29G40 RMK AO2 PK WND 29040/0139 $
53144K9L2 9L220160429174512504/29/16 17:45:31  5-MIN K9L2 300145Z AUTO 29027G40KT 10SM CLR 22/00 A2980 2420 23 3800 270/27G40 RMK AO2 PK WND 29040/0139 $
53144K9L2 9L220160429175012504/29/16 17:50:31  5-MIN K9L2 300150Z AUTO 28028G35KT 10SM CLR 22/00 A2980 2410 23 3800 270/28G35 RMK AO2 PK WND 29040/0139 $
53144K9L2 9L220160429175514204/29/16 17:55:31  5-MIN K9L2 300155Z AUTO 28026G34KT 10SM CLR 21/00 A2981 2410 24 3700 270/26G34 RMK AO2 PK WND 29040/0139 SLP087 T02110000 $
53144K9L2 9L220160429180012504/29/16 18:00:31  5-MIN K9L2 300200Z AUTO 28025G33KT 10SM CLR 21/01 A2981 2410 25 3700 260/25G33 RMK AO2 PK WND 28032/0157 $
53144K9L2 9L220160429180512504/29/16 18:05:31  5-MIN K9L2 300205Z AUTO 27020G32KT 10SM CLR 21/01 A2981 2400 25 3700 260/20G32 RMK AO2 PK WND 28032/0157 $
53144K9L2 9L220160429181012504/29/16 18:10:31  5-MIN K9L2 300210Z AUTO 27019G29KT 10SM CLR 21/01 A2982 2400 26 3600 250/19G29 RMK AO2 PK WND 28032/0157 $
53144K9L2 9L220160429181512504/29/16 18:15:31  5-MIN K9L2 300215Z AUTO 26014G25KT 10SM CLR 21/01 A2982 2390 26 3600 250/14G25 RMK AO2 PK WND 28032/0157 $
53144K9L2 9L220160429182012504/29/16 18:20:31  5-MIN K9L2 300220Z AUTO 26016G23KT 10SM CLR 21/01 A2983 2390 26 3600 250/16G23 RMK AO2 PK WND 28032/0157 $
53144K9L2 9L220160429182512504/29/16 18:25:31  5-MIN K9L2 300225Z AUTO 25015G23KT 10SM CLR 21/01 A2983 2390 26 3600 240/15G23 RMK AO2 PK WND 28032/0157 $
53144K9L2 9L220160429183012504/29/16 18:30:31  5-MIN K9L2 300230Z AUTO 24015G23KT 10SM CLR 20/01 A2983 2380 27 3500 230/15G23 RMK AO2 PK WND 28032/0157 $
53144K9L2 9L220160429183512504/29/16 18:35:31  5-MIN K9L2 300235Z AUTO 25015G22KT 10SM CLR 20/01 A2984 2380 27 3500 240/15G22 RMK AO2 PK WND 28032/0157 $
53144K9L2 9L220160429184012504/29/16 18:40:31  5-MIN K9L2 300240Z AUTO 24013G22KT 10SM CLR 20/00 A2984 2380 26 3500 230/13G22 RMK AO2 PK WND 28032/0157 $
53144K9L2 9L220160429184511904/29/16 18:45:31  5-MIN K9L2 300245Z AUTO 25013KT 10SM CLR 20/00 A2983 2380 26 3500 240/13 RMK AO2 PK WND 28032/0157 $
53144K9L2 9L220160429185012004/29/16 18:50:31  5-MIN K9L2 300250Z AUTO 26014KT 10SM CLR 20/M01 A2983 2380 24 3500 240/14 RMK AO2 PK WND 28032/0157 $
53144K9L2 9L220160429185514904/29/16 18:55:31  5-MIN K9L2 300255Z AUTO 27018G23KT 10SM CLR 20/M01 A2983 2390 24 3600 250/18G23 RMK AO2 PK WND 28032/0157 SLP093 T02001011 56018 $
53144K9L2 9L220160429190012604/29/16 19:00:31  5-MIN K9L2 300300Z AUTO 27019G28KT 10SM CLR 20/M02 A2983 2390 23 3600 260/19G28 RMK AO2 PK WND 28028/0258 $
53144K9L2 9L220160429190512604/29/16 19:05:31  5-MIN K9L2 300305Z AUTO 26013G28KT 10SM CLR 20/M02 A2983 2390 23 3600 240/13G28 RMK AO2 PK WND 28028/0258 $
53144K9L2 9L220160429191012604/29/16 19:10:31  5-MIN K9L2 300310Z AUTO 27014G27KT 10SM CLR 19/M01 A2983 2390 25 3500 250/14G27 RMK AO2 PK WND 28028/0258 $
53144K9L2 9L220160429191512004/29/16 19:15:31  5-MIN K9L2 300315Z AUTO 26014KT 10SM CLR 19/M01 A2983 2390 26 3500 250/14 RMK AO2 PK WND 28028/0258 $
53144K9L2 9L220160429192011904/29/16 19:20:31  5-MIN K9L2 300320Z AUTO 26013KT 10SM CLR 19/00 A2983 2390 27 3500 240/13 RMK AO2 PK WND 28028/0258 $
53144K9L2 9L220160429192511904/29/16 19:25:31  5-MIN K9L2 300325Z AUTO 26013KT 10SM CLR 19/00 A2983 2390 28 3400 240/13 RMK AO2 PK WND 28028/0258 $
53144K9L2 9L220160429193011904/29/16 19:30:31  5-MIN K9L2 300330Z AUTO 24010KT 10SM CLR 19/00 A2983 2380 28 3400 230/10 RMK AO2 PK WND 28028/0258 $
53144K9L2 9L220160429193511904/29/16 19:35:31  5-MIN K9L2 300335Z AUTO 24009KT 10SM CLR 19/00 A2983 2380 28 3400 230/09 RMK AO2 PK WND 28028/0258 $
53144K9L2 9L220160429194011904/29/16 19:40:31  5-MIN K9L2 300340Z AUTO 25014KT 10SM CLR 19/00 A2984 2380 28 3400 240/14 RMK AO2 PK WND 28028/0258 $
53144K9L2 9L220160429194511904/29/16 19:45:31  5-MIN K9L2 300345Z AUTO 26014KT 10SM CLR 19/01 A2984 2380 28 3500 250/14 RMK AO2 PK WND 28028/0258 $
53144K9L2 9L220160429195011904/29/16 19:50:31  5-MIN K9L2 300350Z AUTO 27015KT 10SM CLR 19/01 A2984 2380 29 3400 250/15 RMK AO2 PK WND 28028/0258 $
53144K9L2 9L220160429195513604/29/16 19:55:31  5-MIN K9L2 300355Z AUTO 26014KT 10SM CLR 19/01 A2984 2380 29 3400 250/14 RMK AO2 PK WND 28028/0258 SLP095 T01890006 $
53144K9L2 9L220160429200010104/29/16 20:00:31  5-MIN K9L2 300400Z AUTO 26012KT 10SM CLR 18/01 A2984 2380 30 3400 250/12 RMK AO2 $
53144K9L2 9L220160429200510104/29/16 20:05:31  5-MIN K9L2 300405Z AUTO 24011KT 10SM CLR 18/01 A2984 2380 30 3400 230/11 RMK AO2 $
53144K9L2 9L220160429201010104/29/16 20:10:31  5-MIN K9L2 300410Z AUTO 24010KT 10SM CLR 18/01 A2983 2380 31 3300 220/10 RMK AO2 $
53144K9L2 9L220160429201510104/29/16 20:15:31  5-MIN K9L2 300415Z AUTO 23014KT 10SM CLR 17/02 A2983 2380 35 3200 210/14 RMK AO2 $
53144K9L2 9L220160429202010104/29/16 20:20:31  5-MIN K9L2 300420Z AUTO 24012KT 10SM CLR 18/02 A2983 2380 35 3300 220/12 RMK AO2 $
53144K9L2 9L220160429202510104/29/16 20:25:31  5-MIN K9L2 300425Z AUTO 24013KT 10SM CLR 17/02 A2983 2380 36 3200 220/13 RMK AO2 $
53144K9L2 9L220160429203010104/29/16 20:30:31  5-MIN K9L2 300430Z AUTO 24012KT 10SM CLR 17/03 A2984 2380 37 3200 220/12 RMK AO2 $
53144K9L2 9L220160429203510104/29/16 20:35:31  5-MIN K9L2 300435Z AUTO 24012KT 10SM CLR 17/03 A2984 2380 37 3200 220/12 RMK AO2 $
53144K9L2 9L220160429204010104/29/16 20:40:31  5-MIN K9L2 300440Z AUTO 24012KT 10SM CLR 17/03 A2984 2380 37 3200 220/12 RMK AO2 $
53144K9L2 9L220160429204510104/29/16 20:45:31  5-MIN K9L2 300445Z AUTO 24012KT 10SM CLR 17/03 A2984 2380 37 3200 220/12 RMK AO2 $
53144K9L2 9L220160429205010104/29/16 20:50:31  5-MIN K9L2 300450Z AUTO 23012KT 10SM CLR 17/03 A2984 2380 40 3200 220/12 RMK AO2 $
53144K9L2 9L220160429205511804/29/16 20:55:31  5-MIN K9L2 300455Z AUTO 23013KT 10SM CLR 17/03 A2984 2380 40 3200 220/13 RMK AO2 SLP093 T01670033 $
53144K9L2 9L220160429210010104/29/16 21:00:31  5-MIN K9L2 300500Z AUTO 24012KT 10SM CLR 17/04 A2983 2380 42 3200 220/12 RMK AO2 $
53144K9L2 9L220160429210510104/29/16 21:05:31  5-MIN K9L2 300505Z AUTO 23012KT 10SM CLR 17/03 A2983 2380 40 3200 220/12 RMK AO2 $
53144K9L2 9L220160429211010104/29/16 21:10:31  5-MIN K9L2 300510Z AUTO 24012KT 10SM CLR 17/03 A2983 2380 40 3200 230/12 RMK AO2 $
53144K9L2 9L220160429211510104/29/16 21:15:31  5-MIN K9L2 300515Z AUTO 23012KT 10SM CLR 16/04 A2983 2390 44 3100 220/12 RMK AO2 $
53144K9L2 9L220160429212010104/29/16 21:20:31  5-MIN K9L2 300520Z AUTO 23015KT 10SM CLR 17/03 A2983 2390 40 3200 220/15 RMK AO2 $
53144K9L2 9L220160429212510104/29/16 21:25:31  5-MIN K9L2 300525Z AUTO 23014KT 10SM CLR 17/04 A2983 2390 42 3200 220/14 RMK AO2 $
53144K9L2 9L220160429213010104/29/16 21:30:31  5-MIN K9L2 300530Z AUTO 23013KT 10SM CLR 17/04 A2983 2390 42 3200 220/13 RMK AO2 $
53144K9L2 9L220160429213510104/29/16 21:35:31  5-MIN K9L2 300535Z AUTO 24013KT 10SM CLR 17/03 A2983 2390 40 3200 220/13 RMK AO2 $
53144K9L2 9L220160429214010104/29/16 21:40:31  5-MIN K9L2 300540Z AUTO 24014KT 10SM CLR 17/03 A2982 2390 40 3200 230/14 RMK AO2 $
53144K9L2 9L220160429214510104/29/16 21:45:31  5-MIN K9L2 300545Z AUTO 24013KT 10SM CLR 17/03 A2982 2390 40 3200 220/13 RMK AO2 $
53144K9L2 9L220160429215010104/29/16 21:50:31  5-MIN K9L2 300550Z AUTO 24015KT 10SM CLR 17/03 A2982 2390 37 3200 230/15 RMK AO2 $
53144K9L2 9L220160429215513604/29/16 21:55:31  5-MIN K9L2 300555Z AUTO 25015KT 10SM CLR 17/03 A2982 2390 37 3200 230/15 RMK AO2 SLP087 T01720028 10239 20161 53002 $
53144K9L2 9L220160429220010104/29/16 22:00:31  5-MIN K9L2 300600Z AUTO 25015KT 10SM CLR 17/03 A2982 2400 37 3200 240/15 RMK AO2 $
53144K9L2 9L220160429220510104/29/16 22:05:31  5-MIN K9L2 300605Z AUTO 25015KT 10SM CLR 17/03 A2982 2400 37 3200 240/15 RMK AO2 $
53144K9L2 9L220160429221010104/29/16 22:10:31  5-MIN K9L2 300610Z AUTO 25013KT 10SM CLR 17/03 A2982 2400 37 3200 240/13 RMK AO2 $
53144K9L2 9L220160429221510104/29/16 22:15:31  5-MIN K9L2 300615Z AUTO 24013KT 10SM CLR 17/03 A2982 2400 37 3300 230/13 RMK AO2 $
53144K9L2 9L220160429222010104/29/16 22:20:31  5-MIN K9L2 300620Z AUTO 24014KT 10SM CLR 17/03 A2981 2400 39 3200 230/14 RMK AO2 $
53144K9L2 9L220160429222510104/29/16 22:25:31  5-MIN K9L2 300625Z AUTO 24014KT 10SM CLR 17/03 A2981 2400 39 3200 220/14 RMK AO2 $
53144K9L2 9L220160429223010104/29/16 22:30:31  5-MIN K9L2 300630Z AUTO 23014KT 10SM CLR 17/03 A2981 2410 39 3200 220/14 RMK AO2 $
53144K9L2 9L220160429223510104/29/16 22:35:31  5-MIN K9L2 300635Z AUTO 24012KT 10SM CLR 17/02 A2981 2410 37 3200 220/12 RMK AO2 $
53144K9L2 9L220160429224010104/29/16 22:40:31  5-MIN K9L2 300640Z AUTO 23013KT 10SM CLR 17/02 A2981 2410 37 3200 220/13 RMK AO2 $
53144K9L2 9L220160429224510104/29/16 22:45:31  5-MIN K9L2 300645Z AUTO 24012KT 10SM CLR 17/02 A2981 2410 36 3200 220/12 RMK AO2 $
53144K9L2 9L220160429225010104/29/16 22:50:31  5-MIN K9L2 300650Z AUTO 24013KT 10SM CLR 17/01 A2981 2410 34 3200 230/13 RMK AO2 $
53144K9L2 9L220160429225511804/29/16 22:55:31  5-MIN K9L2 300655Z AUTO 24012KT 10SM CLR 17/01 A2981 2410 33 3200 220/12 RMK AO2 SLP081 T01670006 $
53144K9L2 9L220160429230010104/29/16 23:00:31  5-MIN K9L2 300700Z AUTO 24012KT 10SM CLR 17/01 A2981 2410 33 3200 230/12 RMK AO2 $
53144K9L2 9L220160429230510404/29/16 23:05:31  5-MIN K9L2 300705Z AUTO 23012KT 10SM FEW046 16/01 A2981 2410 34 3100 220/12 RMK AO2 $
53144K9L2 9L220160429231010404/29/16 23:10:31  5-MIN K9L2 300710Z AUTO 23010KT 10SM FEW046 16/01 A2981 2410 34 3100 220/10 RMK AO2 $
53144K9L2 9L220160429231510404/29/16 23:15:31  5-MIN K9L2 300715Z AUTO 22012KT 10SM FEW046 16/01 A2981 2410 34 3100 210/12 RMK AO2 $
53144K9L2 9L220160429232010404/29/16 23:20:31  5-MIN K9L2 300720Z AUTO 23011KT 10SM FEW046 16/01 A2981 2410 36 3100 220/11 RMK AO2 $
53144K9L2 9L220160429232510404/29/16 23:25:31  5-MIN K9L2 300725Z AUTO 22012KT 10SM FEW046 16/01 A2980 2410 36 3100 210/12 RMK AO2 $
53144K9L2 9L220160429233010704/29/16 23:30:31  5-MIN K9L2 300730Z AUTO 22013G19KT 10SM CLR 16/01 A2980 2410 34 3100 210/13G19 RMK AO2 $
53144K9L2 9L220160429233510104/29/16 23:35:31  5-MIN K9L2 300735Z AUTO 22014KT 10SM CLR 16/01 A2980 2420 34 3100 210/14 RMK AO2 $
53144K9L2 9L220160429234010704/29/16 23:40:31  5-MIN K9L2 300740Z AUTO 22014G20KT 10SM CLR 16/01 A2979 2420 34 3100 210/14G20 RMK AO2 $
53144K9L2 9L220160429234510704/29/16 23:45:31  5-MIN K9L2 300745Z AUTO 22012G20KT 10SM CLR 16/01 A2979 2420 34 3200 210/12G20 RMK AO2 $
53144K9L2 9L220160429235010704/29/16 23:50:31  5-MIN K9L2 300750Z AUTO 21015G20KT 10SM CLR 16/01 A2978 2430 34 3200 200/15G20 RMK AO2 $
53144K9L2 9L220160429235513404/29/16 23:55:31  5-MIN K9L2 300755Z AUTO 22014G20KT 10SM CLR 16/01 A2978 2430 36 3100 210/14G20 RMK AO2 SLP073 T01560006 402610056 $
53144K9L2 9L220160430000010104/30/16 00:00:31  5-MIN K9L2 300800Z AUTO 22014KT 10SM CLR 16/01 A2978 2430 36 3100 210/14 RMK AO2 $
53144K9L2 9L220160430000510104/30/16 00:05:31  5-MIN K9L2 300805Z AUTO 23013KT 10SM CLR 16/01 A2978 2430 36 3100 220/13 RMK AO2 $
53144K9L2 9L220160430001010104/30/16 00:10:31  5-MIN K9L2 300810Z AUTO 23014KT 10SM CLR 16/01 A2978 2440 36 3100 210/14 RMK AO2 $
53144K9L2 9L220160430001510104/30/16 00:15:31  5-MIN K9L2 300815Z AUTO 22015KT 10SM CLR 16/01 A2978 2440 36 3100 210/15 RMK AO2 $
53144K9L2 9L220160430002010104/30/16 00:20:31  5-MIN K9L2 300820Z AUTO 23014KT 10SM CLR 15/01 A2977 2440 37 3000 220/14 RMK AO2 $
53144K9L2 9L220160430002510104/30/16 00:25:31  5-MIN K9L2 300825Z AUTO 23013KT 10SM CLR 15/01 A2977 2440 37 3000 210/13 RMK AO2 $
53144K9L2 9L220160430003010104/30/16 00:30:31  5-MIN K9L2 300830Z AUTO 22011KT 10SM CLR 15/01 A2977 2440 37 3000 210/11 RMK AO2 $
53144K9L2 9L220160430003510104/30/16 00:35:31  5-MIN K9L2 300835Z AUTO 23012KT 10SM CLR 15/01 A2977 2440 38 3000 210/12 RMK AO2 $
53144K9L2 9L220160430004010104/30/16 00:40:31  5-MIN K9L2 300840Z AUTO 23013KT 10SM CLR 15/01 A2977 2440 38 3000 220/13 RMK AO2 $
53144K9L2 9L220160430004510104/30/16 00:45:31  5-MIN K9L2 300845Z AUTO 22012KT 10SM CLR 14/01 A2977 2440 38 3000 210/12 RMK AO2 $
53144K9L2 9L220160430005010104/30/16 00:50:31  5-MIN K9L2 300850Z AUTO 22011KT 10SM CLR 14/01 A2977 2440 38 3000 210/11 RMK AO2 $
53144K9L2 9L220160430005512404/30/16 00:55:31  5-MIN K9L2 300855Z AUTO 24013KT 10SM CLR 15/01 A2977 2440 38 3100 230/13 RMK AO2 SLP066 T01500011 58002 $
53144K9L2 9L220160430010010104/30/16 01:00:31  5-MIN K9L2 300900Z AUTO 23012KT 10SM CLR 16/02 A2976 2450 39 3100 220/12 RMK AO2 $
53144K9L2 9L220160430010510104/30/16 01:05:31  5-MIN K9L2 300905Z AUTO 23012KT 10SM CLR 14/01 A2976 2450 40 3000 210/12 RMK AO2 $
53144K9L2 9L220160430011010104/30/16 01:10:31  5-MIN K9L2 300910Z AUTO 24012KT 10SM CLR 15/02 A2976 2450 40 3100 230/12 RMK AO2 $
53144K9L2 9L220160430011510104/30/16 01:15:31  5-MIN K9L2 300915Z AUTO 25012KT 10SM CLR 15/02 A2976 2450 40 3100 230/12 RMK AO2 $
53144K9L2 9L220160430012010104/30/16 01:20:31  5-MIN K9L2 300920Z AUTO 24013KT 10SM CLR 15/02 A2976 2450 40 3100 230/13 RMK AO2 $
53144K9L2 9L220160430012510704/30/16 01:25:31  5-MIN K9L2 300925Z AUTO 25015G21KT 10SM CLR 15/01 A2975 2460 38 3100 240/15G21 RMK AO2 $
53144K9L2 9L220160430013010704/30/16 01:30:31  5-MIN K9L2 300930Z AUTO 25014G21KT 10SM CLR 15/01 A2975 2460 38 3100 240/14G21 RMK AO2 $
53144K9L2 9L220160430013510704/30/16 01:35:31  5-MIN K9L2 300935Z AUTO 25017G20KT 10SM CLR 14/01 A2974 2470 40 3000 230/17G20 RMK AO2 $
53144K9L2 9L220160430014010704/30/16 01:40:31  5-MIN K9L2 300940Z AUTO 25017G25KT 10SM CLR 14/01 A2974 2470 40 3000 240/17G25 RMK AO2 $
53144K9L2 9L220160430014510704/30/16 01:45:31  5-MIN K9L2 300945Z AUTO 25019G25KT 10SM CLR 14/01 A2973 2480 40 3000 240/19G25 RMK AO2 $
53144K9L2 9L220160430015012504/30/16 01:50:31  5-MIN K9L2 300950Z AUTO 25017G26KT 10SM CLR 14/01 A2973 2480 40 3000 240/17G26 RMK AO2 PK WND 25026/0948 $
53144K9L2 9L220160430015514204/30/16 01:55:31  5-MIN K9L2 300955Z AUTO 25017G26KT 10SM CLR 14/01 A2973 2480 40 3000 230/17G26 RMK AO2 PK WND 25026/0948 SLP054 T01440011 $
53144K9L2 9L220160430020010704/30/16 02:00:31  5-MIN K9L2 301000Z AUTO 25017G24KT 10SM CLR 14/01 A2973 2480 41 3000 230/17G24 RMK AO2 $
53144K9L2 9L220160430020512504/30/16 02:05:31  5-MIN K9L2 301005Z AUTO 25020G28KT 10SM CLR 14/01 A2973 2480 41 3000 240/20G28 RMK AO2 PK WND 24028/1001 $
53144K9L2 9L220160430021012504/30/16 02:10:31  5-MIN K9L2 301010Z AUTO 25022G32KT 10SM CLR 14/01 A2972 2490 41 3000 240/22G32 RMK AO2 PK WND 25032/1010 $
53144K9L2 9L220160430021512504/30/16 02:15:31  5-MIN K9L2 301015Z AUTO 26023G32KT 10SM CLR 14/01 A2972 2490 38 3000 240/23G32 RMK AO2 PK WND 25032/1010 $
53144K9L2 9L220160430022012504/30/16 02:20:31  5-MIN K9L2 301020Z AUTO 27022G31KT 10SM CLR 14/01 A2973 2480 40 3000 250/22G31 RMK AO2 PK WND 25032/1010 $
53144K9L2 9L220160430022512504/30/16 02:25:31  5-MIN K9L2 301025Z AUTO 27022G30KT 10SM CLR 14/00 A2973 2480 38 3000 260/22G30 RMK AO2 PK WND 25032/1010 $
53144K9L2 9L220160430023012504/30/16 02:30:31  5-MIN K9L2 301030Z AUTO 27015G30KT 10SM CLR 14/00 A2974 2470 38 3000 250/15G30 RMK AO2 PK WND 25032/1010 $
53144K9L2 9L220160430023512504/30/16 02:35:31  5-MIN K9L2 301035Z AUTO 27016G25KT 10SM CLR 13/00 A2974 2470 40 2900 260/16G25 RMK AO2 PK WND 25032/1010 $
53144K9L2 9L220160430024012504/30/16 02:40:31  5-MIN K9L2 301040Z AUTO 27015G22KT 10SM CLR 13/01 A2975 2470 41 2900 250/15G22 RMK AO2 PK WND 25032/1010 $
53144K9L2 9L220160430024513204/30/16 02:45:31  5-MIN K9L2 301045Z AUTO 27013G20KT 10SM CLR 13/01 A2976 2450 41 2900 260/13G20 RMK AO2 PK WND 25032/1010 PRESRR $
53144K9L2 9L220160430025013204/30/16 02:50:31  5-MIN K9L2 301050Z AUTO 32009G18KT 10SM CLR 13/01 A2977 2440 41 2900 300/09G18 RMK AO2 PK WND 25032/1010 PRESRR $
53144K9L2 9L220160430025513604/30/16 02:55:31  5-MIN K9L2 301055Z AUTO 30010KT 10SM CLR 13/01 A2977 2440 41 2800 290/10 RMK AO2 PK WND 25032/1010 SLP071 T01330006 $
53144K9L2 9L220160430030010104/30/16 03:00:31  5-MIN K9L2 301100Z AUTO 26011KT 10SM CLR 13/01 A2976 2450 43 2800 250/11 RMK AO2 $
53144K9L2 9L220160430030510104/30/16 03:05:31  5-MIN K9L2 301105Z AUTO 27009KT 10SM CLR 13/01 A2977 2450 43 2800 250/09 RMK AO2 $
53144K9L2 9L220160430031010104/30/16 03:10:31  5-MIN K9L2 301110Z AUTO 28010KT 10SM CLR 13/01 A2977 2440 43 2800 270/10 RMK AO2 $
53144K9L2 9L220160430031510104/30/16 03:15:31  5-MIN K9L2 301115Z AUTO 27015KT 10SM CLR 13/01 A2976 2450 43 2800 260/15 RMK AO2 $
53144K9L2 9L220160430032010104/30/16 03:20:31  5-MIN K9L2 301120Z AUTO 26016KT 10SM CLR 13/00 A2975 2460 41 2800 250/16 RMK AO2 $
53144K9L2 9L220160430032510104/30/16 03:25:31  5-MIN K9L2 301125Z AUTO 27016KT 10SM CLR 13/00 A2976 2450 41 2800 250/16 RMK AO2 $
53144K9L2 9L220160430033010104/30/16 03:30:31  5-MIN K9L2 301130Z AUTO 27016KT 10SM CLR 13/01 A2975 2460 43 2800 260/16 RMK AO2 $
53144K9L2 9L220160430033512504/30/16 03:35:31  5-MIN K9L2 301135Z AUTO 27020G26KT 10SM CLR 13/01 A2975 2460 44 2800 260/20G26 RMK AO2 PK WND 27026/1134 $
53144K9L2 9L220160430034012504/30/16 03:40:31  5-MIN K9L2 301140Z AUTO 27020G26KT 10SM CLR 12/01 A2974 2470 46 2800 260/20G26 RMK AO2 PK WND 26026/1136 $
53144K9L2 9L220160430034512504/30/16 03:45:31  5-MIN K9L2 301145Z AUTO 27018G26KT 10SM CLR 12/01 A2975 2460 46 2800 260/18G26 RMK AO2 PK WND 26026/1136 $
53144K9L2 9L220160430035012504/30/16 03:50:31  5-MIN K9L2 301150Z AUTO 27015G23KT 10SM CLR 12/01 A2975 2460 46 2700 250/15G23 RMK AO2 PK WND 26026/1136 $
53144K9L2 9L220160430035516004/30/16 03:55:31  5-MIN K9L2 301155Z AUTO 27017G23KT 10SM CLR 12/01 A2974 2470 46 2800 250/17G23 RMK AO2 PK WND 26026/1136 SLP061 T01220011 10172 20122 58018 $
53144K9L2 9L220160430040010704/30/16 04:00:31  5-MIN K9L2 301200Z AUTO 27015G22KT 10SM CLR 12/01 A2975 2470 46 2800 260/15G22 RMK AO2 $
53144K9L2 9L220160430040510104/30/16 04:05:31  5-MIN K9L2 301205Z AUTO 27014KT 10SM CLR 12/01 A2974 2470 48 2700 260/14 RMK AO2 $
53144K9L2 9L220160430041010204/30/16 04:10:31  5-MIN K9L2 301210Z AUTO 27015KT 10SM CLR 12/M01 A2974 2470 41 2800 250/15 RMK AO2 $
53144K9L2 9L220160430041510204/30/16 04:15:31  5-MIN K9L2 301215Z AUTO 27015KT 10SM CLR 12/M02 A2974 2470 38 2800 250/15 RMK AO2 $
53144K9L2 9L220160430042010204/30/16 04:20:31  5-MIN K9L2 301220Z AUTO 26013KT 10SM CLR 12/M02 A2974 2470 38 2700 250/13 RMK AO2 $
53144K9L2 9L220160430042510204/30/16 04:25:31  5-MIN K9L2 301225Z AUTO 26013KT 10SM CLR 12/M02 A2974 2470 39 2700 250/13 RMK AO2 $
53144K9L2 9L220160430043010204/30/16 04:30:31  5-MIN K9L2 301230Z AUTO 26012KT 10SM CLR 12/M02 A2974 2470 39 2700 250/12 RMK AO2 $
53144K9L2 9L220160430043510204/30/16 04:35:31  5-MIN K9L2 301235Z AUTO 26011KT 10SM CLR 12/M02 A2974 2470 39 2700 250/11 RMK AO2 $
53144K9L2 9L220160430044010204/30/16 04:40:31  5-MIN K9L2 301240Z AUTO 26012KT 10SM CLR 12/M01 A2975 2470 42 2700 250/12 RMK AO2 $
53144K9L2 9L220160430044510204/30/16 04:45:31  5-MIN K9L2 301245Z AUTO 26009KT 10SM CLR 12/M01 A2975 2460 42 2700 250/09 RMK AO2 $
53144K9L2 9L220160430045010204/30/16 04:50:31  5-MIN K9L2 301250Z AUTO 26010KT 10SM CLR 12/M01 A2975 2460 42 2700 250/10 RMK AO2 $
53144K9L2 9L220160430045511904/30/16 04:55:31  5-MIN K9L2 301255Z AUTO 25009KT 10SM CLR 11/M01 A2975 2460 42 2600 240/09 RMK AO2 SLP068 T01111011 $
53144K9L2 9L220160430050010204/30/16 05:00:31  5-MIN K9L2 301300Z AUTO 25007KT 10SM CLR 11/M01 A2976 2450 42 2600 240/07 RMK AO2 $
53144K9L2 9L220160430050510504/30/16 05:05:31  5-MIN K9L2 301305Z AUTO 24006KT 10SM FEW065 11/M01 A2976 2450 42 2600 220/06 RMK AO2 $
53144K9L2 9L220160430051010504/30/16 05:10:31  5-MIN K9L2 301310Z AUTO 25005KT 10SM FEW060 11/M01 A2976 2450 44 2600 230/05 RMK AO2 $
53144K9L2 9L220160430051510504/30/16 05:15:31  5-MIN K9L2 301315Z AUTO 00000KT 10SM SCT060 11/M01 A2977 2440 44 2600 000/00 RMK AO2 $
53144K9L2 9L220160430052010404/30/16 05:20:31  5-MIN K9L2 301320Z AUTO VRB03KT 10SM SCT065 11/00 A2977 2440 46 2600 VRB/03 RMK AO2 $
53144K9L2 9L220160430052510504/30/16 05:25:31  5-MIN K9L2 301325Z AUTO 20005KT 10SM BKN065 11/M01 A2977 2440 44 2600 180/05 RMK AO2 $
53144K9L2 9L220160430053010504/30/16 05:30:31  5-MIN K9L2 301330Z AUTO 20007KT 10SM BKN065 11/M01 A2977 2440 44 2500 190/07 RMK AO2 $
53144K9L2 9L220160430053511204/30/16 05:35:31  5-MIN K9L2 301335Z AUTO 21006KT 10SM SCT065 BKN080 11/M01 A2977 2440 46 2500 200/06 RMK AO2 $
53144K9L2 9L220160430054010404/30/16 05:40:31  5-MIN K9L2 301340Z AUTO 21007KT 10SM BKN070 11/00 A2977 2440 46 2600 200/07 RMK AO2 $
53144K9L2 9L220160430054511104/30/16 05:45:31  5-MIN K9L2 301345Z AUTO 27008KT 10SM BKN060 BKN075 12/02 A2978 2440 50 2700 260/08 RMK AO2 $
53144K9L2 9L220160430055011104/30/16 05:50:31  5-MIN K9L2 301350Z AUTO 28011KT 10SM BKN060 BKN075 12/02 A2978 2430 50 2700 260/11 RMK AO2 $
53144K9L2 9L220160430055512804/30/16 05:55:31  5-MIN K9L2 301355Z AUTO 28011KT 10SM BKN060 OVC075 12/02 A2978 2430 50 2700 270/11 RMK AO2 SLP076 T01220022 $
53144K9L2 9L220160430060011104/30/16 06:00:31  5-MIN K9L2 301400Z AUTO 29009KT 10SM BKN060 OVC075 12/02 A2978 2430 50 2700 270/09 RMK AO2 $
53144K9L2 9L220160430060510404/30/16 06:05:31  5-MIN K9L2 301405Z AUTO 28008KT 10SM OVC060 12/02 A2978 2430 50 2700 270/08 RMK AO2 $
53144K9L2 9L220160430061010404/30/16 06:10:31  5-MIN K9L2 301410Z AUTO 29007KT 10SM BKN060 13/03 A2979 2430 50 2800 270/07 RMK AO2 $
53144K9L2 9L220160430061510404/30/16 06:15:31  5-MIN K9L2 301415Z AUTO 29007KT 10SM BKN060 13/03 A2979 2430 50 2800 270/07 RMK AO2 $
53144K9L2 9L220160430062010404/30/16 06:20:31  5-MIN K9L2 301420Z AUTO 31004KT 10SM SCT060 13/03 A2979 2420 50 2800 300/04 RMK AO2 $
53144K9L2 9L220160430062510404/30/16 06:25:31  5-MIN K9L2 301425Z AUTO 29007KT 10SM SCT060 13/03 A2979 2420 48 2800 280/07 RMK AO2 $
53144K9L2 9L220160430063010404/30/16 06:30:31  5-MIN K9L2 301430Z AUTO 33006KT 10SM FEW060 13/03 A2980 2420 48 2800 320/06 RMK AO2 $
53144K9L2 9L220160430063510404/30/16 06:35:31  5-MIN K9L2 301435Z AUTO VRB04KT 10SM FEW065 13/02 A2979 2420 46 2800 VRB/04 RMK AO2 $
53144K9L2 9L220160430064010404/30/16 06:40:31  5-MIN K9L2 301440Z AUTO VRB04KT 10SM FEW040 14/02 A2979 2420 43 2900 VRB/04 RMK AO2 $
53144K9L2 9L220160430064511104/30/16 06:45:31  5-MIN K9L2 301445Z AUTO 33007KT 10SM FEW040 SCT060 14/02 A2980 2420 43 2900 320/07 RMK AO2 $
53144K9L2 9L220160430065011104/30/16 06:50:31  5-MIN K9L2 301450Z AUTO 35007KT 10SM FEW040 BKN065 14/02 A2980 2410 43 2900 340/07 RMK AO2 $
53144K9L2 9L220160430065514004/30/16 06:55:31  5-MIN K9L2 301455Z AUTO 01018G23KT 10SM FEW040 BKN065 15/01 A2980 2410 37 3000 360/18G23 RMK AO2 SLP082 T01500006 56007 $
53144K9L2 9L220160430070012504/30/16 07:00:31  5-MIN K9L2 301500Z AUTO 02019G25KT 10SM FEW040 BKN065 BKN080 16/M01 A2980 2410 33 3100 010/19G25 RMK AO2 $
53144K9L2 9L220160430070514304/30/16 07:05:31  5-MIN K9L2 301505Z AUTO 01018G26KT 10SM FEW040 BKN065 OVC085 16/M01 A2980 2410 33 3100 360/18G26 RMK AO2 PK WND 01026/1502 $
53144K9L2 9L220160430071013604/30/16 07:10:31  5-MIN K9L2 301510Z AUTO 36019G28KT 10SM SCT065 OVC085 16/M01 A2980 2410 33 3100 340/19G28 RMK AO2 PK WND 35028/1510 $
53144K9L2 9L220160430071513604/30/16 07:15:31  5-MIN K9L2 301515Z AUTO 36016G28KT 10SM SCT065 OVC090 16/M01 A2981 2410 33 3100 350/16G28 RMK AO2 PK WND 35028/1510 $
53144K9L2 9L220160430072013504/30/16 07:20:31  5-MIN K9L2 301520Z AUTO 35012G21KT 10SM FEW065 OVC090 16/00 A2981 2400 34 3100 330/12G21 RMK AO2 PK WND 35028/1510 $
53144K9L2 9L220160430072512904/30/16 07:25:31  5-MIN K9L2 301525Z AUTO 34010KT 10SM FEW065 BKN090 16/00 A2981 2400 33 3100 330/10 RMK AO2 PK WND 35028/1510 $
53144K9L2 9L220160430073012904/30/16 07:30:31  5-MIN K9L2 301530Z AUTO 35011KT 10SM SCT065 BKN090 16/00 A2981 2400 34 3100 330/11 RMK AO2 PK WND 35028/1510 $
53144K9L2 9L220160430073512904/30/16 07:35:31  5-MIN K9L2 301535Z AUTO 35012KT 10SM BKN065 OVC090 16/00 A2982 2400 33 3100 340/12 RMK AO2 PK WND 35028/1510 $
53144K9L2 9L220160430074012904/30/16 07:40:31  5-MIN K9L2 301540Z AUTO 35013KT 10SM BKN060 OVC095 16/00 A2982 2400 33 3100 340/13 RMK AO2 PK WND 35028/1510 $
53144K9L2 9L220160430074512904/30/16 07:45:31  5-MIN K9L2 301545Z AUTO 36009KT 10SM BKN060 OVC095 16/00 A2981 2400 33 3100 350/09 RMK AO2 PK WND 35028/1510 $
53144K9L2 9L220160430075012804/30/16 07:50:31  5-MIN K9L2 301550Z AUTO 36013G19KT 10SM OVC060 16/00 A2981 2400 33 3100 340/13G19 RMK AO2 PK WND 35028/1510 $
53144K9L2 9L220160430075514604/30/16 07:55:31  5-MIN K9L2 301555Z AUTO 36016G23KT 10SM OVC060 16/M01 A2981 2410 32 3100 350/16G23 RMK AO2 PK WND 35028/1510 SLP085 T01611006 $
53144K9L2 9L220160430080012904/30/16 08:00:31  5-MIN K9L2 301600Z AUTO 01020G28KT 10SM OVC065 16/M01 A2981 2410 32 3100 360/20G28 RMK AO2 PK WND 02028/1600 $
53144K9L2 9L220160430080512904/30/16 08:05:31  5-MIN K9L2 301605Z AUTO 01020G28KT 10SM OVC065 16/M01 A2981 2410 32 3100 360/20G28 RMK AO2 PK WND 01028/1602 $
53144K9L2 9L220160430081012904/30/16 08:10:31  5-MIN K9L2 301610Z AUTO 02021G32KT 10SM OVC065 16/M01 A2980 2410 32 3100 010/21G32 RMK AO2 PK WND 03032/1608 $
53144K9L2 9L220160430081512904/30/16 08:15:31  5-MIN K9L2 301615Z AUTO 02023G32KT 10SM OVC070 17/M01 A2980 2410 31 3200 010/23G32 RMK AO2 PK WND 03032/1608 $
53144K9L2 9L220160430082013604/30/16 08:20:31  5-MIN K9L2 301620Z AUTO 02023G30KT 10SM BKN070 OVC090 17/M01 A2980 2410 31 3200 010/23G30 RMK AO2 PK WND 03032/1608 $
53144K9L2 9L220160430082513604/30/16 08:25:31  5-MIN K9L2 301625Z AUTO 01019G27KT 10SM BKN070 OVC090 17/M01 A2980 2410 29 3200 360/19G27 RMK AO2 PK WND 03032/1608 $
53144K9L2 9L220160430083013604/30/16 08:30:31  5-MIN K9L2 301630Z AUTO 01018G23KT 10SM BKN070 BKN090 17/M01 A2980 2410 28 3300 360/18G23 RMK AO2 PK WND 03032/1608 $
53144K9L2 9L220160430083513604/30/16 08:35:31  5-MIN K9L2 301635Z AUTO 01024G31KT 10SM SCT070 BKN095 18/M02 A2980 2420 25 3400 360/24G31 RMK AO2 PK WND 03032/1608 $
53144K9L2 9L220160430084013604/30/16 08:40:31  5-MIN K9L2 301640Z AUTO 02024G31KT 10SM FEW070 BKN095 18/M02 A2979 2420 26 3300 360/24G31 RMK AO2 PK WND 03032/1608 $
53144K9L2 9L220160430084513604/30/16 08:45:31  5-MIN K9L2 301645Z AUTO 01022G30KT 10SM FEW070 SCT095 18/M02 A2980 2410 26 3300 350/22G30 RMK AO2 PK WND 03032/1608 $
53144K9L2 9L220160430085012904/30/16 08:50:31  5-MIN K9L2 301650Z AUTO 01020G27KT 10SM FEW065 17/M02 A2980 2420 27 3300 350/20G27 RMK AO2 PK WND 03032/1608 $
53144K9L2 9L220160430085514604/30/16 08:55:31  5-MIN K9L2 301655Z AUTO 36015G26KT 10SM FEW060 18/M02 A2980 2420 26 3300 350/15G26 RMK AO2 PK WND 03032/1608 SLP082 T01781017 $
53144K9L2 9L220160430090011104/30/16 09:00:31  5-MIN K9L2 301700Z AUTO 02019G24KT 10SM FEW065 18/M02 A2980 2420 26 3300 360/19G24 RMK AO2 $
53144K9L2 9L220160430090511104/30/16 09:05:31  5-MIN K9L2 301705Z AUTO 01019G24KT 10SM FEW065 18/M02 A2980 2420 26 3300 360/19G24 RMK AO2 $
53144K9L2 9L220160430091012904/30/16 09:10:31  5-MIN K9L2 301710Z AUTO 02020G26KT 10SM SCT070 18/M02 A2980 2420 26 3300 360/20G26 RMK AO2 PK WND 02026/1710 $
53144K9L2 9L220160430091512904/30/16 09:15:31  5-MIN K9L2 301715Z AUTO 01020G26KT 10SM SCT070 18/M02 A2980 2410 26 3300 360/20G26 RMK AO2 PK WND 02026/1714 $
53144K9L2 9L220160430092012904/30/16 09:20:31  5-MIN K9L2 301720Z AUTO 01021G26KT 10SM BKN070 18/M02 A2980 2410 24 3400 360/21G26 RMK AO2 PK WND 02026/1720 $
53144K9L2 9L220160430092512904/30/16 09:25:31  5-MIN K9L2 301725Z AUTO 01020G27KT 10SM BKN070 18/M02 A2980 2410 25 3400 360/20G27 RMK AO2 PK WND 01027/1721 $
53144K9L2 9L220160430093012304/30/16 09:30:31  5-MIN K9L2 301730Z AUTO 02019KT 10SM BKN070 18/M02 A2980 2410 25 3400 010/19 RMK AO2 PK WND 01027/1721 $
53144K9L2 9L220160430093512904/30/16 09:35:31  5-MIN K9L2 301735Z AUTO 02019G24KT 10SM OVC075 19/M02 A2980 2410 24 3500 360/19G24 RMK AO2 PK WND 01027/1721 $
53144K9L2 9L220160430094012904/30/16 09:40:31  5-MIN K9L2 301740Z AUTO 02018G24KT 10SM OVC075 19/M02 A2980 2410 24 3500 010/18G24 RMK AO2 PK WND 01027/1721 $
53144K9L2 9L220160430194510204/30/16 19:45:31  5-MIN K9L2 010345Z AUTO 00000KT 10SM CLR 18/M01 A2981 2410 28 3300 000/00 RMK AO2 $
53144K9L2 9L220160430195010504/30/16 19:50:31  5-MIN K9L2 010350Z AUTO 00000KT 10SM FEW090 18/M01 A2981 2410 28 3300 000/00 RMK AO2 $
53144K9L2 9L220160430195512204/30/16 19:55:31  5-MIN K9L2 010355Z AUTO 00000KT 10SM FEW090 17/M01 A2981 2410 31 3200 000/00 RMK AO2 SLP086 T01671006 $
53144K9L2 9L220160430200010504/30/16 20:00:31  5-MIN K9L2 010400Z AUTO 00000KT 10SM FEW090 16/M01 A2981 2410 31 3100 000/00 RMK AO2 $
53144K9L2 9L220160430200510504/30/16 20:05:31  5-MIN K9L2 010405Z AUTO 28003KT 10SM FEW095 15/M02 A2981 2400 31 3000 270/03 RMK AO2 $
53144K9L2 9L220160430201010504/30/16 20:10:31  5-MIN K9L2 010410Z AUTO 28003KT 10SM FEW095 16/M01 A2981 2400 31 3100 270/03 RMK AO2 $
53144K9L2 9L220160430201510504/30/16 20:15:31  5-MIN K9L2 010415Z AUTO 28003KT 10SM SCT100 15/M01 A2981 2400 33 3000 270/03 RMK AO2 $
53144K9L2 9L220160430202010504/30/16 20:20:31  5-MIN K9L2 010420Z AUTO 30003KT 10SM FEW100 15/M01 A2981 2400 33 3000 290/03 RMK AO2 $
53144K9L2 9L220160430202510504/30/16 20:25:31  5-MIN K9L2 010425Z AUTO 00000KT 10SM FEW100 16/M01 A2982 2400 31 3100 000/00 RMK AO2 $
53144K9L2 9L220160430203010504/30/16 20:30:31  5-MIN K9L2 010430Z AUTO 00000KT 10SM FEW100 16/M01 A2982 2400 31 3100 000/00 RMK AO2 $
53144K9L2 9L220160430203510504/30/16 20:35:31  5-MIN K9L2 010435Z AUTO 28004KT 10SM FEW100 15/M01 A2982 2400 33 3000 270/04 RMK AO2 $
53144K9L2 9L220160430204010504/30/16 20:40:31  5-MIN K9L2 010440Z AUTO 30004KT 10SM FEW100 14/M02 A2982 2400 33 2900 290/04 RMK AO2 $
53144K9L2 9L220160430204510204/30/16 20:45:31  5-MIN K9L2 010445Z AUTO 32003KT 10SM CLR 14/M01 A2982 2390 34 2900 300/03 RMK AO2 $
53144K9L2 9L220160430205010204/30/16 20:50:31  5-MIN K9L2 010450Z AUTO 32003KT 10SM CLR 14/M01 A2982 2390 34 2900 310/03 RMK AO2 $
53144K9L2 9L220160430205511904/30/16 20:55:31  5-MIN K9L2 010455Z AUTO 33003KT 10SM CLR 14/M01 A2982 2390 34 2900 320/03 RMK AO2 SLP092 T01441011 $
53144K9L2 9L220160430210010204/30/16 21:00:31  5-MIN K9L2 010500Z AUTO 29006KT 10SM CLR 14/M01 A2982 2390 34 2900 270/06 RMK AO2 $
53144K9L2 9L220160430210510204/30/16 21:05:31  5-MIN K9L2 010505Z AUTO 29005KT 10SM CLR 15/M01 A2983 2390 34 3000 280/05 RMK AO2 $
53144K9L2 9L220160430211010204/30/16 21:10:31  5-MIN K9L2 010510Z AUTO 29005KT 10SM CLR 14/M01 A2983 2390 35 2900 280/05 RMK AO2 $
53144K9L2 9L220160430211510104/30/16 21:15:31  5-MIN K9L2 010515Z AUTO 29006KT 10SM CLR 14/00 A2983 2390 37 2900 280/06 RMK AO2 $
53144K9L2 9L220160430212010104/30/16 21:20:31  5-MIN K9L2 010520Z AUTO 29010KT 10SM CLR 14/00 A2983 2390 37 2900 280/10 RMK AO2 $
53144K9L2 9L220160430212510404/30/16 21:25:31  5-MIN K9L2 010525Z AUTO 29009KT 10SM FEW075 14/00 A2983 2380 37 2900 280/09 RMK AO2 $
53144K9L2 9L220160430213010404/30/16 21:30:31  5-MIN K9L2 010530Z AUTO 29008KT 10SM SCT075 14/00 A2983 2380 37 2900 280/08 RMK AO2 $
53144K9L2 9L220160430213510404/30/16 21:35:31  5-MIN K9L2 010535Z AUTO 29008KT 10SM SCT080 14/00 A2983 2380 37 2900 270/08 RMK AO2 $
53144K9L2 9L220160430214010404/30/16 21:40:31  5-MIN K9L2 010540Z AUTO 29006KT 10SM BKN085 14/00 A2983 2380 37 2900 280/06 RMK AO2 $
53144K9L2 9L220160430214510404/30/16 21:45:31  5-MIN K9L2 010545Z AUTO 29007KT 10SM BKN085 14/00 A2983 2390 38 2800 280/07 RMK AO2 $
53144K9L2 9L220160430215011104/30/16 21:50:31  5-MIN K9L2 010550Z AUTO 29005KT 10SM FEW075 BKN090 14/00 A2983 2390 38 2800 280/05 RMK AO2 $
53144K9L2 9L220160430215514604/30/16 21:55:31  5-MIN K9L2 010555Z AUTO 29004KT 10SM FEW075 OVC090 14/00 A2983 2380 37 2900 280/04 RMK AO2 SLP093 T01440000 10222 20139 53008 $
53144K9L2 9L220160430220010404/30/16 22:00:31  5-MIN K9L2 010600Z AUTO 29006KT 10SM OVC090 14/00 A2983 2380 37 2900 280/06 RMK AO2 $
53144K9L2 9L220160430220510404/30/16 22:05:31  5-MIN K9L2 010605Z AUTO 30006KT 10SM OVC090 14/00 A2984 2380 37 2900 290/06 RMK AO2 $
53144K9L2 9L220160430221011104/30/16 22:10:31  5-MIN K9L2 010610Z AUTO 31005KT 10SM SCT080 OVC095 14/00 A2984 2380 37 2900 300/05 RMK AO2 $
53144K9L2 9L220160430221511104/30/16 22:15:31  5-MIN K9L2 010615Z AUTO 32005KT 10SM SCT075 OVC095 14/00 A2984 2380 37 2900 310/05 RMK AO2 $
53144K9L2 9L220160430222011104/30/16 22:20:31  5-MIN K9L2 010620Z AUTO 32005KT 10SM SCT075 BKN100 14/00 A2984 2380 37 2900 300/05 RMK AO2 $
53144K9L2 9L220160430222511104/30/16 22:25:31  5-MIN K9L2 010625Z AUTO 31004KT 10SM SCT075 BKN095 14/00 A2984 2380 38 2800 300/04 RMK AO2 $
53144K9L2 9L220160430223011104/30/16 22:30:31  5-MIN K9L2 010630Z AUTO 30004KT 10SM FEW075 SCT090 14/00 A2983 2380 38 2800 290/04 RMK AO2 $
53144K9L2 9L220160430223510404/30/16 22:35:31  5-MIN K9L2 010635Z AUTO 28003KT 10SM FEW075 14/00 A2984 2380 38 2800 260/03 RMK AO2 $
53144K9L2 9L220160430224010404/30/16 22:40:31  5-MIN K9L2 010640Z AUTO 00000KT 10SM FEW070 14/00 A2984 2380 38 2800 000/00 RMK AO2 $
53144K9L2 9L220160430224510104/30/16 22:45:31  5-MIN K9L2 010645Z AUTO 00000KT 10SM CLR 14/00 A2984 2370 38 2800 000/00 RMK AO2 $
53144K9L2 9L220160430225010104/30/16 22:50:31  5-MIN K9L2 010650Z AUTO 16003KT 10SM CLR 14/00 A2984 2370 38 2800 140/03 RMK AO2 $
53144K9L2 9L220160430225512104/30/16 22:55:31  5-MIN K9L2 010655Z AUTO 00000KT 10SM FEW070 14/00 A2984 2370 37 2900 000/00 RMK AO2 SLP095 T01440000 $
53144K9L2 9L220160430230010504/30/16 23:00:31  5-MIN K9L2 010700Z AUTO 14004KT 10SM FEW070 14/M01 A2984 2370 37 2800 120/04 RMK AO2 $
53144K9L2 9L220160430230510504/30/16 23:05:31  5-MIN K9L2 010705Z AUTO 16003KT 10SM FEW080 13/M01 A2985 2370 36 2800 140/03 RMK AO2 $
53144K9L2 9L220160430231010504/30/16 23:10:31  5-MIN K9L2 010710Z AUTO 00000KT 10SM SCT085 13/M02 A2985 2370 35 2800 000/00 RMK AO2 $
53144K9L2 9L220160430231510504/30/16 23:15:31  5-MIN K9L2 010715Z AUTO 00000KT 10SM SCT085 13/M02 A2985 2370 35 2800 000/00 RMK AO2 $
53144K9L2 9L220160430232010504/30/16 23:20:31  5-MIN K9L2 010720Z AUTO 00000KT 10SM SCT085 13/M02 A2985 2370 36 2700 000/00 RMK AO2 $
53144K9L2 9L220160430232510504/30/16 23:25:31  5-MIN K9L2 010725Z AUTO 21003KT 10SM FEW085 12/M02 A2985 2370 38 2600 200/03 RMK AO2 $
53144K9L2 9L220160430233010504/30/16 23:30:31  5-MIN K9L2 010730Z AUTO 18003KT 10SM FEW085 12/M02 A2985 2370 39 2600 170/03 RMK AO2 $
53144K9L2 9L220160430233510504/30/16 23:35:31  5-MIN K9L2 010735Z AUTO 22003KT 10SM FEW090 12/M02 A2985 2370 38 2600 210/03 RMK AO2 $
53144K9L2 9L220160430234010204/30/16 23:40:31  5-MIN K9L2 010740Z AUTO 22003KT 10SM CLR 12/M02 A2985 2370 39 2600 200/03 RMK AO2 $
53144K9L2 9L220160430234510204/30/16 23:45:31  5-MIN K9L2 010745Z AUTO 00000KT 10SM CLR 12/M02 A2985 2370 39 2600 000/00 RMK AO2 $
53144K9L2 9L220160430235010204/30/16 23:50:31  5-MIN K9L2 010750Z AUTO 00000KT 10SM CLR 12/M01 A2984 2370 39 2600 000/00 RMK AO2 $
53144K9L2 9L220160430235512904/30/16 23:55:31  5-MIN K9L2 010755Z AUTO 27005KT 10SM CLR 11/M02 A2985 2370 41 2500 260/05 RMK AO2 SLP098 T01111017 402560106 $
